sequenceNumber,corporateNumber,process,correct,updateDate,changeDate,name,nameImageId,kind,prefectureName,cityName,streetNumber,addressImageId,prefectureCode,cityCode,postCode,addressOutside,addressOutsideImageId,closeDate,closeCause,successorCorporateNumber,changeCause,assignmentDate,latest,enName,enPrefectureName,enCityName,enAddressOutside,furigana,hihyoji
1,1000020238651,登記記録の閉鎖等,0,2024-04-15,2024-03-31,新城北設楽交通災害共済組合,,地方公共団体,愛知県,新城市,字東入船６－１,,23,221,4411383,,,2024-03-31,その他の清算の結了等,,,2015-10-05,1,Shinshiro Kitashitara Traffic Disaster Mutual Relief Association,Aichi,"6-1 Azahigashiirihune, Shinshiro",,シンシロキタシタラコウツウサイガイキョウサイクミアイ,0
3,1010001025192,登記記録の閉鎖等,0,2024-04-15,2024-04-03,株式会社サンライズファクトリー,,株式会社,東京都,千代田区,鍛冶町１丁目６番１号日東合同ビル４Ｆ,,13,101,1010044,,,2024-04-03,清算の結了等,,,2015-10-05,1,,,,,サンライズファクトリー,0
29,1010005032202,登記記録の閉鎖等,0,2024-04-15,2024-04-08,ジー・ティー・エム・エル・ホールディング特定目的会社,,その他の設立登記法人,東京都,千代田区,丸の内３丁目１番１号東京共同会計事務所内,,13,101,1000005,,,2024-04-08,清算の結了等,,,2020-08-26,1,,,,,ジーティーエムエルホールディング,0
41,1010403025492,登記記録の閉鎖等,0,2024-04-15,2024-04-02,Ｎシステム合同会社,,合同会社,東京都,港区,芝３丁目８番２－２３０２号,,13,103,1050014,,,2024-04-02,清算の結了等,,,2021-06-11,1,,,,,エヌシステム,0
44,1010601029683,登記記録の閉鎖等,0,2024-04-15,2024-04-10,ＭＨＣエコビジネス株式会社,,株式会社,東京都,江東区,南砂７丁目１２番４号,,13,108,1360076,,,2024-04-10,合併による解散等,2010001026264,令和６年４月１日東京都港区西新橋一丁目３番１号ＭＨＣ環境ソリューションズ株式会社（2010001026264）に合併し解散,2015-10-05,1,,,,,エムエイチシーエコビジネス,0
46,1010603008446,登記記録の閉鎖等,0,2024-04-15,2024-04-05,ｔｙｇｌｏｗ合同会社,,合同会社,東京都,墨田区,押上１丁目４５番１号フラッツタケイシ,,13,107,1310045,,,2024-04-05,清算の結了等,,,2020-07-20,1,,,,,ティグロウ,0
82,1011802013567,登記記録の閉鎖等,0,2024-04-15,2024-04-10,昇和運輸有限会社,,有限会社,東京都,足立区,鹿浜６丁目３７番６号,,13,121,1230864,,,2024-04-10,清算の結了等,,,2015-10-05,1,,,,,ショウワウンユ,0
85,1012305001423,登記記録の閉鎖等,0,2024-04-15,2024-04-08,特定非営利活動法人シネメディアシステム,,その他の設立登記法人,岐阜県,高山市,上宝町蔵柱２３６３－１,,21,203,5061314,,,2024-04-08,清算の結了等,,,2015-10-05,1,,,,,シネメディアシステム,0
92,1013301018790,登記記録の閉鎖等,0,2024-04-15,2024-04-03,株式会社産業構造研究所,,株式会社,東京都,豊島区,上池袋１丁目１３番５号,,13,116,1700012,,,2024-04-03,清算の結了等,,,2015-10-05,1,,,,,サンギョウコウゾウケンキュウジョ,0
95,1020001011910,登記記録の閉鎖等,0,2024-04-15,2024-04-05,株式会社はやかわ工芸,,株式会社,神奈川県,横浜市青葉区,柿の木台２３番地５１,,14,117,2270048,,,2024-04-05,清算の結了等,,,2015-10-05,1,,,,,ハヤカワコウゲイ,0
123,1030001077141,登記記録の閉鎖等,0,2024-04-15,2024-03-31,株式会社エムトレーディング,,株式会社,埼玉県,川口市,飯塚３丁目９番３５号,,11,203,3320023,,,2024-03-31,清算の結了等,,,2015-10-05,1,,,,,エムトレーディング,0
129,1030002072604,登記記録の閉鎖等,0,2024-04-15,2024-04-02,有限会社オーピー,,有限会社,埼玉県,川越市,六軒町２丁目３番１号,,11,201,3500041,,,2024-04-02,清算の結了等,,,2015-10-05,1,,,,,オーピー,0
130,1030002100538,登記記録の閉鎖等,0,2024-04-15,2024-04-04,有限会社稲垣タイヤ販売,,有限会社,埼玉県,川口市,赤井４丁目３０番１号,,11,203,3340073,,,2024-04-04,清算の結了等,,,2015-10-05,1,,,,,イナガキタイヤハンバイ,0
131,1030002104456,登記記録の閉鎖等,0,2024-04-15,2024-04-04,有限会社大東商会,,有限会社,埼玉県,川口市,戸塚東１丁目９番２２号,,11,203,3330802,,,2024-04-04,清算の結了等,,,2015-10-05,1,,,,,ダイトウショウカイ,0
142,1040001126351,登記記録の閉鎖等,0,2024-04-15,2024-04-02,株式会社福田商事,,株式会社,千葉県,千葉市花見川区,こてはし台１丁目１－１５－３Ｆ,,12,102,2620005,,,2024-04-02,清算の結了等,,,2022-12-27,1,,,,,フクダショウジ,0
147,1040002015925,登記記録の閉鎖等,0,2024-04-15,2024-04-04,有限会社Ｉ－ｎａｇｅ,,有限会社,千葉県,千葉市稲毛区,園生町６５１番地２,,12,103,2630051,,,2024-04-04,清算の結了等,,,2015-10-05,1,,,,,アイネージュ,0
152,1040002073460,登記記録の閉鎖等,0,2024-04-15,2024-04-04,有限会社佐々板金,,有限会社,千葉県,市原市,国分寺台中央４丁目１０番地７,,12,219,2900073,,,2024-04-04,清算の結了等,,,2015-10-05,1,,,,,ササバンキン,0
170,1060002016541,登記記録の閉鎖等,0,2024-04-15,2024-04-05,有限会社君島設備工業,,有限会社,栃木県,塩谷郡塩谷町,大字大宮２２２５番地,,09,384,3292332,,,2024-04-05,清算の結了等,,,2015-10-05,1,,,,,キミシマセツビコウギョウ,0
174,1070002031498,登記記録の閉鎖等,0,2024-04-15,2024-04-03,若旅物流有限会社,,有限会社,群馬県,邑楽郡大泉町,北小泉４丁目１９番１６号,,10,524,3700511,,,2024-04-03,清算の結了等,,,2015-10-05,1,,,,,ワカタビブツリュウ,0
180,1080002002382,登記記録の閉鎖等,0,2024-04-15,2024-04-08,有限会社サムホー,,有限会社,静岡県,静岡市葵区,常磐町３丁目６番５号,,22,101,4200034,,,2024-04-08,清算の結了等,,,2015-10-05,1,,,,,サムホー,0
187,1080402015562,登記記録の閉鎖等,0,2024-04-15,2024-04-10,有限会社マルシ酒店,,有限会社,静岡県,浜松市浜名区,新原１０３３番地の２,,22,139,4340003,,,2024-04-10,清算の結了等,,,2015-10-05,1,,,,,マルシサケテン,0
190,1100001004674,登記記録の閉鎖等,0,2024-04-15,2024-04-05,株式会社アイテクノ矢嶋,,株式会社,長野県,長野市,上野１丁目３５番地,,20,201,3810085,,,2024-04-05,合併による解散等,5180001041491,令和６年４月１日名古屋市中区金山五丁目２番２２号矢嶋工業株式会社（5180001041491）に合併し解散,2015-10-05,1,,,,,アイテクノヤジマ,0
199,1120001005266,登記記録の閉鎖等,0,2024-04-15,2024-04-11,株式会社小俣会心堂,,株式会社,大阪府,大阪市阿倍野区,播磨町１丁目２番２５号,,27,119,5450022,,,2024-04-11,清算の結了等,,,2015-10-05,1,,,,,コマタカイシンドウ,0
202,1120001088559,登記記録の閉鎖等,0,2024-04-15,2024-04-04,月盛インパース株式会社,,株式会社,大阪府,大阪市生野区,巽北１丁目３番５号,00028671,27,116,5440004,,,2024-04-04,清算の結了等,,,2015-10-05,1,,,,,ツキモリインパース,0
219,1120002011040,登記記録の閉鎖等,0,2024-04-15,2024-04-11,有限会社黒田,,有限会社,大阪府,大阪市平野区,喜連４丁目１３番８号,,27,126,5470027,,,2024-04-11,清算の結了等,,,2015-10-05,1,,,,,クロダ,0
220,1120002011379,登記記録の閉鎖等,0,2024-04-15,2024-04-09,有限会社誠和工作所,,有限会社,大阪府,大阪市平野区,加美南４丁目４番３３号,,27,126,5470003,,,2024-04-09,清算の結了等,,,2015-10-05,1,,,,,セイワコウサクショ,0
222,1120002045039,登記記録の閉鎖等,0,2024-04-15,2024-04-08,有限会社オフィスメイ・アイ,,有限会社,大阪府,大阪市中央区,南新町１丁目４番４号,,27,128,5400024,,,2024-04-08,清算の結了等,,,2015-10-05,1,,,,,オフィスメイアイ,0
224,1120003000001,登記記録の閉鎖等,0,2024-04-15,2024-04-04,株式会社斉藤金属製作所,,株式会社,大阪府,大阪市淀川区,三津屋南１丁目５番１６号,,27,123,5320035,,,2024-04-04,清算の結了等,,,2015-10-05,1,,,,,サイトウキンゾクセイサクジョ,0
226,1120005009453,登記記録の閉鎖等,0,2024-04-15,2024-04-04,近畿生コン関連協同組合連合会,,その他の設立登記法人,大阪府,大阪市淀川区,西中島４丁目４－２５,,27,123,5320011,,,2024-04-04,清算の結了等,,,2015-10-05,1,,,,,キンキナマコンカンレン,0
227,1120102023480,登記記録の閉鎖等,0,2024-04-15,2024-04-09,有限会社奥織布工場,,有限会社,大阪府,泉佐野市,日根野３５０８番地の１,,27,213,5980021,,,2024-04-09,清算の結了等,,,2015-10-05,1,,,,,オクショクフコウジョウ,0
230,1120903003706,登記記録の閉鎖等,0,2024-04-15,2024-04-08,合同会社ＭＩＫＯＴＯ,,合同会社,大阪府,吹田市,内本町１丁目１０番１１号旭ファイブ２０３号,,27,205,5640032,,,2024-04-08,清算の結了等,,,2021-06-22,1,,,,,ミコト,0
273,1180001105060,登記記録の閉鎖等,0,2024-04-15,2024-04-01,エム・ディーマシナリー株式会社,,株式会社,愛知県,名古屋市中川区,伏屋２丁目１６１７,,23,110,4540996,,,2024-04-01,合併による解散等,6180001033042,令和６年４月１日名古屋市中村区亀島二丁目１３番８号明治電機工業株式会社（6180001033042）に合併し解散,2015-10-05,1,,,,,エムディーマシナリー,0
274,1180001122312,登記記録の閉鎖等,0,2024-04-15,2024-04-01,日本マグマ発電株式会社,,株式会社,長野県,木曽郡王滝村,崩越１０３６番地９,,20,429,3970201,,,2024-04-01,清算の結了等,,,2016-03-02,1,,,,,ニホンマグマハツデン,0
275,1180001130546,登記記録の閉鎖等,0,2024-04-15,2024-04-02,株式会社Ａｌｌｕｇｅ,,株式会社,愛知県,名古屋市東区,泉３丁目１０番１号（ケイズマンション泉１０Ｃ号）,,23,102,4610001,,,2024-04-02,清算の結了等,,,2017-12-26,1,,,,,アルージュ,0
282,1180301022724,登記記録の閉鎖等,0,2024-04-15,2024-04-09,株式会社アトリウム,,株式会社,愛知県,西尾市,永吉町７０４番地,,23,213,4450871,,,2024-04-09,合併による解散等,2180001007751,令和６年４月１日名古屋市昭和区高辻町６番８号株式会社ＡＴグループ（2180001007751）に合併し解散,2015-10-05,1,,,,,アトリウム,0
290,1210005009691,登記記録の閉鎖等,0,2024-04-15,2024-04-05,あそうず地区建設協同組合,,その他の設立登記法人,福井県,福井市,花堂中１丁目５番６号,,18,201,9188014,,,2024-04-05,清算の結了等,,,2017-07-27,1,,,,,アソウズチクケンセツ,0
300,1260001017768,登記記録の閉鎖等,0,2024-04-15,2024-04-01,日本ファブウエルド株式会社,,株式会社,岡山県,笠岡市,山口１４２８番地の１,,33,205,7140007,,,2024-04-01,合併による解散等,7260001014438,令和６年４月１日岡山県倉敷市水島中通一丁目４番地萩原工業株式会社（7260001014438）に合併し解散,2015-10-05,1,,,,,ニホンファブウェルド,0
312,1290802019258,登記記録の閉鎖等,0,2024-04-15,2024-04-04,有限会社長橋鉄工所,,有限会社,福岡県,北九州市若松区,桜町２０番２７号,,40,103,8080026,,,2024-04-04,清算の結了等,,,2015-10-05,1,,,,,ナガハシテッコウショ,0
327,1360003011825,登記記録の閉鎖等,0,2024-04-15,2024-04-08,イギー合同会社,,合同会社,沖縄県,名護市,宇茂佐の森２丁目１３番３号３０３,,47,209,9050009,,,2024-04-08,清算の結了等,,,2022-02-22,1,,,,,イギー,0
330,1370601002794,登記記録の閉鎖等,0,2024-04-15,2024-04-03,株式会社環響の旋律,,株式会社,宮城県,宮城郡松島町,根廻字後沢５番地,,04,401,9810203,,,2024-04-03,清算の結了等,,,2015-10-05,1,,,,,カンキョウノセンリツ,0
338,1390001006493,登記記録の閉鎖等,0,2024-04-15,2024-04-08,農業科学株式会社,,株式会社,山形県,酒田市,木川字東中道４３番地の１,,06,204,9997773,,,2024-04-08,合併による解散等,1180001033286,令和６年４月１日名古屋市中村区名駅五丁目２５番３号湯浅商事株式会社（1180001033286）に合併し解散,2015-10-05,1,,,,,ノウギョウカガク,0
355,1470001013556,登記記録の閉鎖等,0,2024-04-15,2024-04-04,株式会社杉村,,株式会社,香川県,丸亀市,大手町３丁目８番８号,,37,202,7630034,,,2024-04-04,清算の結了等,,,2015-10-05,1,,,,,スギムラ,0
388,2010002021223,登記記録の閉鎖等,0,2024-04-15,2024-04-03,有限会社スタッフ,,有限会社,東京都,中央区,八丁堀１丁目８番２号,,13,102,1040032,,,2024-04-03,清算の結了等,,,2015-10-05,1,,,,,スタッフ,0
389,2010003025421,登記記録の閉鎖等,0,2024-04-15,2024-04-03,合同会社ＲＥインベストメント１,,合同会社,東京都,千代田区,丸の内３丁目１番１号東京共同会計事務所内,,13,101,1000005,,,2024-04-03,清算の結了等,,,2017-05-31,1,,,,,アールイーインベストメントイチ,0
392,2010005001726,登記記録の閉鎖等,0,2024-04-15,2024-04-05,東京鶏卵事業協同組合,,その他の設立登記法人,東京都,中央区,新川２丁目６番１６号（馬事畜産会館）,,13,102,1040033,,,2024-04-05,清算の結了等,,,2015-10-05,1,,,,,トウキョウケイランジギョウ,0
393,2010005028686,登記記録の閉鎖等,0,2024-04-15,2024-04-05,明治安田生命２０１８基金特定目的会社,,その他の設立登記法人,東京都,千代田区,丸の内３丁目１番１号東京共同会計事務所内,,13,101,1000005,,,2024-04-05,清算の結了等,,,2018-06-18,1,,,,,メイジヤスダセイメイニセンジュウハチキキン,0
400,2010401020585,登記記録の閉鎖等,0,2024-04-15,2024-04-04,東京紙パルプインターナショナル株式会社,,株式会社,東京都,中央区,日本橋本町１丁目６番５号,,13,102,1030023,,,2024-04-04,合併による解散等,5010001048842,令和６年４月１日東京都中央区日本橋本町一丁目６番５号株式会社ＥＢＳ（5010001048842）に合併し解散,2015-10-05,1,"Tokyo Pulp & Paper International Co., Ltd.",Tokyo,"1-6-5 Nihonbashihoncho, Chuo ku",,トウキョウカミパルプインターナショナル,0
402,2010401056761,登記記録の閉鎖等,0,2024-04-15,2024-04-11,全国情報通信資材株式会社,,株式会社,東京都,港区,白金台３丁目１９番１号,,13,103,1080071,,,2024-04-11,合併による解散等,3010401007482,令和６年４月１日東京都品川区西五反田二丁目２７番３号資材リンコム株式会社（3010401007482）に合併し解散,2015-10-05,1,,,,,ゼンコクジョウホウツウシンシザイ,0
405,2010401153170,登記記録の閉鎖等,0,2024-04-15,2024-04-01,三井物産流通ホールディングス株式会社,,株式会社,東京都,港区,西新橋１丁目１番１号,,13,103,1050003,,,2024-04-01,合併による解散等,5010001043281,令和６年４月１日東京都港区西新橋一丁目１番１号三井物産流通グループ株式会社（5010001043281）に合併し解散,2020-06-09,1,,,,,ミツイブッサンリュウツウホールディングス,0
428,2011101002254,登記記録の閉鎖等,0,2024-04-15,2024-04-05,株式会社インターナショナル・ミライ・コーポレーション,,株式会社,東京都,新宿区,原町３丁目７３番地,,13,104,1620053,,,2024-04-05,清算の結了等,,,2015-10-05,1,,,,,インターナショナルミライコーポレーション,0
456,2013201015796,登記記録の閉鎖等,0,2024-04-15,2024-04-02,株式会社ジュピター,,株式会社,東京都,目黒区,中央町１丁目１５番２１－４０９号,,13,110,1520001,,,2024-04-02,清算の結了等,,,2015-10-05,1,,,,,ジュピター,0
458,2020001007701,登記記録の閉鎖等,0,2024-04-15,2024-04-11,株式会社テムコ,,株式会社,神奈川県,横浜市金沢区,鳥浜町６番地２,,14,108,2360002,,,2024-04-11,合併による解散等,5011501012973,令和６年４月１日東京都北区田端新町一丁目３０番３号株式会社ポートリリーフ．エンジニアリング（5011501012973）に合併し解散,2015-10-05,1,,,,,テムコ,0
460,2020001080657,登記記録の閉鎖等,0,2024-04-15,2024-04-08,株式会社ワイズゲート,,株式会社,神奈川県,川崎市多摩区,宿河原２丁目４２番１３号,,14,135,2140021,,,2024-04-08,清算の結了等,,,2015-10-05,1,,,,,ワイズゲート,0
468,2020001124926,登記記録の閉鎖等,0,2024-04-15,2024-04-08,株式会社仲吉,,株式会社,大阪府,大阪市此花区,四貫島２丁目３番１ＲｅｄＨｏｕｓｅ１０１号室,,27,104,5540014,,,2024-04-08,清算の結了等,,,2018-02-02,1,,,,,ナカヨシ,0
473,2020002025108,登記記録の閉鎖等,0,2024-04-15,2024-04-08,有限会社山田製作所,,有限会社,神奈川県,横浜市保土ケ谷区,権太坂２丁目７番４号,,14,106,2400026,,,2024-04-08,清算の結了等,,,2015-10-05,1,,,,,,0
486,2021003000652,登記記録の閉鎖等,0,2024-04-15,2024-04-10,合名会社Ｈ＆Ｓプラニング,,合名会社,神奈川県,藤沢市,鵠沼桜が岡１丁目７番１１号,00123815,14,205,2510027,,,2024-04-10,清算の結了等,,,2015-10-05,1,,,,,エイチアンドエスプラニング,0
491,2030001023887,登記記録の閉鎖等,0,2024-04-15,2024-04-04,株式会社カワイコーポレーション,,株式会社,埼玉県,所沢市,けやき台１丁目３７番地の６,,11,208,3591118,,,2024-04-04,清算の結了等,,,2015-10-05,1,,,,,カワイコーポレーション,0
522,2040001112342,登記記録の閉鎖等,0,2024-04-15,2024-04-05,株式会社竹一番,,株式会社,千葉県,船橋市,大穴南２丁目６番１５号,,12,204,2740067,,,2024-04-05,清算の結了等,,,2020-01-29,1,,,,,タケイチバン,0
543,2060001019453,登記記録の閉鎖等,0,2024-04-15,2024-04-08,ニッケン不動産株式会社,,株式会社,栃木県,足利市,南町４２５４番地２,,09,202,3260821,,,2024-04-08,合併による解散等,1060001019000,令和６年４月１日栃木県足利市大久保町２８２番地１ニッケン産業株式会社（1060001019000）に合併し解散,2015-10-05,1,,,,,ニッケンフドウサン,0
546,2070001021846,登記記録の閉鎖等,0,2024-04-15,2024-04-10,大幸化成株式会社,,株式会社,群馬県,邑楽郡明和町,大佐貫５１番地の１２,,10,522,3700715,,,2024-04-10,清算の結了等,,,2015-10-05,1,,,,,,0
547,2070002005708,登記記録の閉鎖等,0,2024-04-15,2024-04-10,有限会社吉田石油,,有限会社,群馬県,前橋市,粕川町女渕１１０２番地の４,,10,201,3710214,,,2024-04-10,清算の結了等,,,2015-10-05,1,,,,,ヨシダセキユ,0
558,2100001015274,登記記録の閉鎖等,0,2024-04-15,2024-04-05,株式会社藤森プロパン商会,,株式会社,長野県,安曇野市,豊科４９０３番地１,,20,220,3998205,,,2024-04-05,合併による解散等,9040001001927,令和６年４月１日千葉市中央区都町二丁目２４番地３株式会社クレックス（9040001001927）に合併し解散,2015-10-05,1,,,,,フジモリプロパンショウカイ,0
572,2120001090679,登記記録の閉鎖等,0,2024-04-15,2024-04-08,睦製線株式会社,,株式会社,大阪府,大阪市中央区,玉造２丁目２番１６号,,27,128,5400004,,,2024-04-08,清算の結了等,,,2015-10-05,1,,,,,ムツミセイセン,0
573,2120001093748,登記記録の閉鎖等,0,2024-04-15,2024-04-05,イーエスアンドエス株式会社,,株式会社,大阪府,大阪市都島区,都島北通１丁目１７番３号,,27,102,5340014,,,2024-04-05,清算の結了等,,,2015-10-05,1,,,,,イーエスアンドエス,0
598,2120101059789,登記記録の閉鎖等,0,2024-04-15,2024-04-09,木村工業株式会社,,株式会社,大阪府,岸和田市,稲葉町１３５０番地,,27,202,5960103,,,2024-04-09,清算の結了等,,,2019-05-07,1,,,,,キムラコウギョウ,0
616,2140002003480,登記記録の閉鎖等,0,2024-04-15,2024-04-08,有限会社鳥居計画研究所,,有限会社,兵庫県,神戸市灘区,鶴甲４丁目１１番２３号,,28,102,6570011,,,2024-04-08,清算の結了等,,,2015-10-05,1,,,,,トリイケイカクケンキュウショ,0
640,2220005008122,登記記録の閉鎖等,0,2024-04-15,2024-04-05,一般社団法人国際共生教育協会,,その他の設立登記法人,福井県,今立郡池田町,谷口第９号８番地,,18,382,9102503,,,2024-04-05,清算の結了等,,,2016-10-04,1,,,,,コクサイキョウセイキョウイクキョウカイ,0
682,2330002006456,登記記録の閉鎖等,0,2024-04-15,2024-04-05,有限会社高野塗装,,有限会社,熊本県,熊本市南区,田迎５丁目１３番１８号,,43,104,8620962,,,2024-04-05,清算の結了等,,,2015-10-05,1,,,,,タカノトソウ,0
699,2380001013639,登記記録の閉鎖等,0,2024-04-15,2024-04-08,東日本ベルト販売株式会社,,株式会社,福島県,いわき市,平字愛谷町四丁目６番地の１３,,07,204,9708026,,,2024-04-08,合併による解散等,2120001098160,令和６年４月１日大阪市淀川区西中島六丁目１番１号バンドー・Ｉ・Ｃ・Ｓ株式会社（2120001098160）に合併し解散,2015-10-05,1,,,,,ヒガシニホンベルトハンバイ,0
715,2430005013794,登記記録の閉鎖等,0,2024-04-15,2024-04-08,特定非営利活動法人細川たかしワールドスポーツ振興,,その他の設立登記法人,北海道,小樽市,朝里川温泉１丁目３９４番地,,01,203,0470154,,,2024-04-08,清算の結了等,,,2019-10-28,1,,,,,ホソカワタカシワールドスポーツシンコウ,0
720,2470001006047,登記記録の閉鎖等,0,2024-04-15,2024-04-05,株式会社ホーリー,,株式会社,香川県,高松市,林町１３０８番地１１,,37,201,7610301,,,2024-04-05,清算の結了等,,,2015-10-05,1,,,,,ホーリー,0
722,2490002003058,登記記録の閉鎖等,0,2024-04-15,2024-04-09,有限会社大鵬商事,00006537,有限会社,高知県,高知市,上町１丁目７番１２号,,39,201,7800901,,,2024-04-09,清算の結了等,,,2015-10-05,1,,,,,オオトリショウジ,0
723,2490003001184,登記記録の閉鎖等,0,2024-04-15,2024-04-08,ＪＣＡ商会合同会社,,合同会社,高知県,高知市,大津乙２２５１番地１,,39,201,7815103,,,2024-04-08,清算の結了等,,,2017-12-20,1,,,,,,0
731,3010001050395,登記記録の閉鎖等,0,2024-04-15,2024-04-01,千代田建工株式会社,,株式会社,東京都,中央区,八丁堀２丁目１９番６号,,13,102,1040032,,,2024-04-01,合併による解散等,1010001097694,令和６年４月１日東京都中央区日本橋小伝馬町７番１０号戸田スタッフサービス株式会社（1010001097694）に合併し解散,2015-10-05,1,,,,,チヨダケンコウ,0
732,3010001094888,登記記録の閉鎖等,0,2024-04-15,2024-04-02,住精ハイドロシステム株式会社,,株式会社,兵庫県,尼崎市,扶桑町１番１０号,,28,202,6600891,,,2024-04-02,合併による解散等,4140001049416,令和６年４月１日兵庫県尼崎市扶桑町１番１０号住友精密工業株式会社（4140001049416）に合併し解散,2015-10-05,1,,,,,スミセイハイドロシステム,0
736,3010001207540,登記記録の閉鎖等,0,2024-04-15,2024-04-04,株式会社キャリアデザイン,,株式会社,東京都,千代田区,九段南３丁目８番１３号,,13,101,1020074,,,2024-04-04,清算の結了等,,,2020-02-14,1,,,,,キャリアデザイン,0
798,3011001105890,登記記録の閉鎖等,0,2024-04-15,2024-04-05,株式会社ＴＨＲＥＥ　ＮＩＮＥ,,株式会社,東京都,渋谷区,広尾５丁目１９番９号,,13,113,1500012,,,2024-04-05,清算の結了等,,,2015-10-05,1,,,,,スリーナイン,0
800,3011001136382,登記記録の閉鎖等,0,2024-04-15,2024-04-03,ＩＧＵＺＡ株式会社,,株式会社,香川県,坂出市,白金町３丁目７番３１号ピュアハイツ白金２０１号,,37,203,7620042,,,2024-04-03,清算の結了等,,,2020-10-13,1,,,,,イグザ,0
801,3011001150086,登記記録の閉鎖等,0,2024-04-15,2024-04-02,株式会社ライズ,,株式会社,東京都,渋谷区,渋谷２丁目１９番１５号宮益坂ビルディング６０９,,13,113,1500002,,,2024-04-02,清算の結了等,,,2022-10-04,1,,,,,ライズ,0
803,3011101057693,登記記録の閉鎖等,0,2024-04-15,2024-04-05,株式会社長安,,株式会社,東京都,新宿区,歌舞伎町１丁目１８番１０号吉川ビル３Ｆ,,13,104,1600021,,,2024-04-05,清算の結了等,,,2015-10-05,1,,,,,チョウアン,0
806,3011101101294,登記記録の閉鎖等,0,2024-04-15,2024-04-05,株式会社業,,株式会社,東京都,新宿区,西早稲田１丁目１－６バトンドルージュ早稲田３Ｆ,,13,104,1690051,,,2024-04-05,清算の結了等,,,2022-12-26,1,,,,,ギョウ,0
831,3012801002600,登記記録の閉鎖等,0,2024-04-15,2024-04-04,ミドリ安全立川株式会社,,株式会社,東京都,昭島市,緑町２丁目１番２１号,,13,207,1960004,,,2024-04-04,清算の結了等,,,2015-10-05,1,,,,,ミドリアンゼンタチカワ,0
858,3030001067157,登記記録の閉鎖等,0,2024-04-15,2024-04-05,株式会社プローヴ,,株式会社,埼玉県,越谷市,相模町５丁目３３４番地１,,11,222,3430823,,,2024-04-05,清算の結了等,,,2015-10-05,1,,,,,プローヴ,0
869,3040001047538,登記記録の閉鎖等,0,2024-04-15,2024-04-04,株式会社市伸ホーム,,株式会社,千葉県,八街市,八街ほ８０番地１４,,12,230,2891115,,,2024-04-04,清算の結了等,,,2015-10-05,1,,,,,イチシンホーム,0
880,3040002041424,登記記録の閉鎖等,0,2024-04-15,2024-04-03,有限会社バード・ワーク,,有限会社,千葉県,浦安市,入船６丁目１番４１３号,,12,227,2790012,,,2024-04-03,清算の結了等,,,2015-10-05,1,,,,,バードワーク,0
891,3050001033999,登記記録の閉鎖等,0,2024-04-15,2024-04-10,株式会社いそや建工,,株式会社,茨城県,水戸市,愛宕町１０番１９号,,08,201,3100054,,,2024-04-10,清算の結了等,,,2015-10-05,1,,,,,イソヤケンコウ,0
906,3080102004649,登記記録の閉鎖等,0,2024-04-15,2024-04-10,有限会社外村貴彦シンクタンク,,有限会社,静岡県,沼津市,西沢田８２８番地の１９,,22,203,4100007,,,2024-04-10,清算の結了等,,,2015-10-05,1,,,,,トムラタカヒコシンクタンク,0
907,3080401004151,登記記録の閉鎖等,0,2024-04-15,2024-04-11,トッパン・フォームズ東海株式会社,,株式会社,静岡県,袋井市,豊沢２２２８番地の１,,22,216,4370032,,,2024-04-11,合併による解散等,4010501029335,令和６年４月１日東京都台東区台東一丁目５番１号株式会社トッパンコミュニケーションプロダクツ（4010501029335）に合併し解散,2015-10-05,1,,,,,トッパンフォームズトウカイ,0
922,3120001220937,登記記録の閉鎖等,0,2024-04-15,2024-04-09,株式会社メカトープ,,株式会社,大阪府,大阪市中央区,久太郎町４丁目１番３号大阪センタービル６－６５,,27,128,5410056,,,2024-04-09,清算の結了等,,,2019-05-14,1,,,,,メカトープ,0
931,3120003012176,登記記録の閉鎖等,0,2024-04-15,2024-04-08,マイクロバイオーム・ラボ合同会社,,合同会社,大阪府,大阪市淀川区,加島３丁目５番３３号,,27,123,5320031,,,2024-04-08,清算の結了等,,,2016-11-16,1,,,,,マイクロバイオームラボ,0
939,3120105004328,登記記録の閉鎖等,0,2024-04-15,2024-04-09,特定非営利活動法人難病支援研究会,,その他の設立登記法人,大阪府,大阪狭山市,今熊１丁目１１１７番地の３,,27,231,5890021,,,2024-04-09,清算の結了等,,,2015-10-05,1,,,,,ナンビョウシエンケンキュウカイ,0
946,3130001021418,登記記録の閉鎖等,0,2024-04-15,2024-04-11,大清株式会社,,株式会社,京都府,京都市中京区,西ノ京大炊御門町１５番地の１０,,26,104,6048467,,,2024-04-11,清算の結了等,,,2024-02-07,1,,,,,ダイセイ,0
949,3130005015374,登記記録の閉鎖等,0,2024-04-15,2024-04-08,弁護士法人二之宮義人法律事務所,,その他の設立登記法人,京都府,京都市中京区,室町通御池下る円福寺町３４２番地１ＶＯＩＣＥ２１ビル２階,,26,104,6048175,,,2024-04-08,清算の結了等,,,2018-08-14,1,,,,,ニノミヤヨシトホウリツジムショ,0
951,3140001029641,登記記録の閉鎖等,0,2024-04-15,2024-04-08,株式会社自然,,株式会社,兵庫県,神戸市兵庫区,和田山通１丁目２－２５－Ｄ４１０,,28,105,6520884,,,2024-04-08,清算の結了等,,,2015-10-05,1,,,,,ジネン,0
953,3140001071817,登記記録の閉鎖等,0,2024-04-15,2024-04-08,株式会社コラボ・スペース,,株式会社,兵庫県,西宮市,上鳴尾町１１番２１号,,28,204,6638186,,,2024-04-08,清算の結了等,,,2015-10-05,1,,,,,コラボスペース,0
963,3140002002688,登記記録の閉鎖等,0,2024-04-15,2024-04-09,有限会社神戸カーテン,,有限会社,兵庫県,神戸市東灘区,田中町３丁目１８番１３号,,28,101,6580081,,,2024-04-09,清算の結了等,,,2015-10-05,1,,,,,コウベカーテン,0
964,3140002034112,登記記録の閉鎖等,0,2024-04-15,2024-04-09,有限会社たまや,,有限会社,兵庫県,神戸市東灘区,本山中町４丁目１２番９号,,28,101,6580016,,,2024-04-09,清算の結了等,,,2015-10-05,1,,,,,タマヤ,0
966,3140003004898,登記記録の閉鎖等,0,2024-04-15,2024-04-08,合資会社ソウルナビ倶楽部,,合資会社,兵庫県,神戸市西区,池上１丁目１２番地,,28,111,6512111,,,2024-04-08,清算の結了等,,,2015-10-05,1,,,,,ソウルナビクラブ,0
969,3150001016911,登記記録の閉鎖等,0,2024-04-15,2024-04-11,株式会社南村企画工房,,株式会社,奈良県,橿原市,大久保町８番地の１８,,29,205,6340061,,,2024-04-11,清算の結了等,,,2015-10-05,1,,,,,ミナミムラキカクコウボウ,0
973,3180001088485,登記記録の閉鎖等,0,2024-04-15,2024-04-01,株式会社名古屋メディカルネットワーク,,株式会社,愛知県,名古屋市東区,新出来２丁目４番１８号,,23,102,4610038,,,2024-04-01,合併による解散等,4180001113408,令和６年４月１日愛知県知多郡南知多町大字師崎字神戸浦３４番地株式会社ＮＭネットワーク（4180001113408）に合併し解散,2015-10-05,1,,,,,ナゴヤメディカルネットワーク,0
977,3180005002632,登記記録の閉鎖等,0,2024-04-15,2024-04-08,医療法人長谷川内科,,その他の設立登記法人,愛知県,名古屋市中区,新栄町１丁目３番地日丸名古屋ビル７階,,23,106,4600004,,,2024-04-08,清算の結了等,,,2015-10-05,1,,,,,ハセガワナイカ,0
978,3180005004843,登記記録の閉鎖等,0,2024-04-15,2024-04-04,一般財団法人夢かなう,,その他の設立登記法人,東京都,千代田区,内神田３丁目２２番７号,,13,101,1010047,,,2024-04-04,清算の結了等,,,2015-10-05,1,,,,,ユメカナウ,0
981,3180301016220,登記記録の閉鎖等,0,2024-04-15,2024-04-01,白龍工業株式会社,,株式会社,愛知県,西尾市,戸ケ崎町新荒子１３８番地,,23,213,4450074,,,2024-04-01,清算の結了等,,,2015-10-05,1,,,,,ハクリュウコウギョウ,0
983,3180302006195,登記記録の閉鎖等,0,2024-04-15,2024-04-02,あしき有限会社,,有限会社,愛知県,豊橋市,井原町７２番地の３,,23,201,4400025,,,2024-04-02,清算の結了等,,,2015-10-05,1,,,,,アシキ,0
988,3190002011560,登記記録の閉鎖等,0,2024-04-15,2024-04-08,有限会社志摩センター薬局,,有限会社,三重県,志摩市,阿児町鵜方１２６２番地１６,,24,215,5170501,,,2024-04-08,清算の結了等,,,2015-10-05,1,,,,,シマセンターヤッキョク,0
1033,3290802002278,登記記録の閉鎖等,0,2024-04-15,2024-04-03,有限会社Ｒｅｇａｌｏ,,有限会社,福岡県,北九州市小倉北区,妙見町１番１３号,,40,106,8020041,,,2024-04-03,清算の結了等,,,2015-10-05,1,,,,,レガロ,0
1053,3370002006030,登記記録の閉鎖等,0,2024-04-15,2024-04-03,有限会社マツモト徽章,,有限会社,宮城県,富谷市,富ケ丘２丁目１番１３号,,04,216,9813352,,,2024-04-03,清算の結了等,,,2015-10-05,1,,,,,マツモトキショウ,0
1060,3390002001285,登記記録の閉鎖等,0,2024-04-15,2024-04-04,有限会社十文字製作所,,有限会社,山形県,山形市,大字十文字９１番地の５,,06,201,9902211,,,2024-04-04,清算の結了等,,,2015-10-05,1,,,,,ジュウモンジセイサクショ,0
1061,3400001006746,登記記録の閉鎖等,0,2024-04-15,2024-04-02,遠野ブルーベリーの森株式会社,,株式会社,岩手県,遠野市,東舘町１０番３４号,,03,208,0280515,,,2024-04-02,清算の結了等,,,2015-10-05,1,,,,,トオノブルーベリーノモリ,0
1078,3490002012504,登記記録の閉鎖等,0,2024-04-15,2024-04-08,有限会社水都運送,,有限会社,高知県,土佐郡土佐町,土居６２番地１,,39,363,7813401,,,2024-04-08,清算の結了等,,,2015-10-05,1,,,,,ミトウンソウ,0
1080,4010001104043,登記記録の閉鎖等,0,2024-04-15,2024-04-01,グリーン・サポート・システムズ株式会社,,株式会社,東京都,中央区,日本橋室町１丁目８番７号,,13,102,1030022,,,2024-04-01,合併による解散等,1010001097694,令和６年４月１日東京都中央区日本橋小伝馬町７番１０号戸田スタッフサービス株式会社（1010001097694）に合併し解散,2015-10-05,1,,,,,グリーンサポートシステムズ,0
1084,4010001141904,登記記録の閉鎖等,0,2024-04-15,2024-04-03,株式会社コア,,株式会社,東京都,中央区,勝どき５丁目３番１－２７２６号,,13,102,1040054,,,2024-04-03,清算の結了等,,,2015-10-05,1,,,,,コア,0
1089,4010001232876,登記記録の閉鎖等,0,2024-04-15,2024-04-01,株式会社アクシスホールディングス,,株式会社,東京都,千代田区,丸の内３丁目４番１号新国際ビル６階,,13,101,1000005,,,2024-04-01,合併による解散等,8010001237896,令和６年４月１日東京都千代田区丸の内三丁目４番１号新国際ビル６階株式会社レナタス（8010001237896）に合併し解散,2023-02-09,1,,,,,アクシスホールディングス,0
1090,4010001233040,登記記録の閉鎖等,0,2024-04-15,2024-04-04,株式会社玉はる,,株式会社,東京都,中央区,湊２丁目１１番１号,,13,102,1040043,,,2024-04-04,清算の結了等,,,2023-02-16,1,,,,,タマハル,0
1097,4010002033027,登記記録の閉鎖等,0,2024-04-15,2024-04-04,有限会社アルマテリアル,,有限会社,東京都,中央区,勝どき２丁目１８番１－１３３２号,,13,102,1040054,,,2024-04-04,清算の結了等,,,2015-10-05,1,,,,,アルマテリアル,0
1107,4010005032496,登記記録の閉鎖等,0,2024-04-15,2024-04-04,ＬＦ物流ファンドワン一般社団法人,,その他の設立登記法人,東京都,千代田区,丸の内３丁目１番１号東京共同会計事務所内,,13,101,1000005,,,2024-04-04,清算の結了等,,,2020-11-04,1,,,,,エルエフブツリュウファンドワン,0
1111,4010101010166,登記記録の閉鎖等,0,2024-04-15,2024-04-11,トッパン・フォームズ・セントラルプロダクツ株式会社,,株式会社,東京都,八王子市,戸吹町２１０３番地,,13,201,1920001,,,2024-04-11,合併による解散等,4010501029335,令和６年４月１日東京都台東区台東一丁目５番１号株式会社トッパンコミュニケーションプロダクツ（4010501029335）に合併し解散,2015-10-05,1,,,,,トッパンフォームズセントラルプロダクツ,0
1130,4010901031353,登記記録の閉鎖等,0,2024-04-15,2024-04-10,株式会社ブロードウエイ・パートナーズ,,株式会社,東京都,世田谷区,羽根木２丁目５番９号,,13,112,1560042,,,2024-04-10,清算の結了等,,,2015-10-05,1,,,,,ブロードウエイパートナーズ,0
1135,4011001112374,登記記録の閉鎖等,0,2024-04-15,2024-04-10,株式会社ＣＯＣＯＲＯＺＡＳＨＩ,,株式会社,東京都,渋谷区,渋谷２丁目９－８－７０１,,13,113,1500002,,,2024-04-10,清算の結了等,,,2016-08-17,1,,,,,ココロザシ,0
1142,4011101078136,登記記録の閉鎖等,0,2024-04-15,2024-04-01,シンコーリモートテック株式会社,,株式会社,東京都,品川区,大崎２丁目１１番１号,,13,109,1410032,,,2024-04-01,合併による解散等,9010701004406,令和６年４月１日東京都品川区大崎二丁目１１番１号振興電気株式会社（9010701004406）に合併し解散,2016-09-07,1,,,,,シンコーリモートテック,0
1144,4011101102259,登記記録の閉鎖等,0,2024-04-15,2024-04-03,株式会社オモトド,,株式会社,東京都,新宿区,西新宿３丁目３番１３号西新宿水間ビル２Ｆ,,13,104,1600023,,,2024-04-03,清算の結了等,,,2023-03-24,1,,,,,オモトド,0
1165,4013301038290,登記記録の閉鎖等,0,2024-04-15,2024-04-02,株式会社ＢＢＳアウトソーシングサービス,,株式会社,東京都,港区,西新橋１丁目１番１号,,13,103,1050003,,,2024-04-02,合併による解散等,3010401088688,令和６年４月１日東京都港区西新橋一丁目１番１号株式会社ビジネスブレイン太田昭和（3010401088688）に合併し解散,2016-02-03,1,,,,,ビービーエスアウトソーシングサービス,0
1171,4020001109487,登記記録の閉鎖等,0,2024-04-15,2024-04-03,アイシン・エレクトロニクスジャパン株式会社,,株式会社,神奈川県,横浜市都筑区,見花山１１－８,,14,118,2240066,,,2024-04-03,清算の結了等,,,2015-10-05,1,,,,,アイシンエレクトロニクスジャパン,0
1173,4020001133529,登記記録の閉鎖等,0,2024-04-15,2024-04-04,株式会社リブリッチＹＯＫＯＨＡＭＡ,,株式会社,神奈川県,横浜市中区,花咲町２丁目６３番４号,,14,104,2310063,,,2024-04-04,清算の結了等,,,2019-11-07,1,,,,,リブリッチヨコハマ,0
1189,4021003006631,登記記録の閉鎖等,0,2024-04-15,2024-04-11,平和工芸合同会社,,合同会社,神奈川県,茅ヶ崎市,堤５８２－１０,,14,207,2530006,,,2024-04-11,清算の結了等,,,2017-04-19,1,,,,,,0
1199,4030002040327,登記記録の閉鎖等,0,2024-04-15,2024-04-08,有限会社ほのぼの,,有限会社,埼玉県,白岡市,西６丁目４番１７,,11,246,3490205,,,2024-04-08,清算の結了等,,,2015-10-05,1,,,,,ホノボノ,0
1227,4040002065298,登記記録の閉鎖等,0,2024-04-15,2024-04-08,有限会社みのり不動産,,有限会社,栃木県,真岡市,東沼５８６番地３,,09,209,3214323,,,2024-04-08,清算の結了等,,,2015-10-05,1,,,,,ミノリフドウサン,0
1228,4040002074274,登記記録の閉鎖等,0,2024-04-15,2024-04-03,有限会社鶴岡運輸,,有限会社,千葉県,市原市,島野１８２６番地２,,12,219,2900034,,,2024-04-03,清算の結了等,,,2015-10-05,1,,,,,ツルオカウンユ,0
1239,4050003001986,登記記録の閉鎖等,0,2024-04-15,2024-04-09,大栄精麦合資会社,,合資会社,茨城県,筑西市,嘉家佐和１９５５番地の１,,08,227,3080837,,,2024-04-09,清算の結了等,,,2015-10-05,1,,,,,ダイエイセイバク,0
1244,4070002021372,登記記録の閉鎖等,0,2024-04-15,2024-04-09,有限会社メンテナンスサービスツーワン,,有限会社,群馬県,伊勢崎市,三室町４１７９番地１,,10,204,3792235,,,2024-04-09,清算の結了等,,,2015-10-05,1,,,,,メンテナンスサービスツーワン,0
1245,4070002031495,登記記録の閉鎖等,0,2024-04-15,2024-04-03,若旅興業有限会社,,有限会社,群馬県,邑楽郡大泉町,北小泉４丁目１９番１６号,,10,524,3700511,,,2024-04-03,清算の結了等,,,2015-10-05,1,,,,,ワカタビコウギョウ,0
1247,4080101017130,登記記録の閉鎖等,0,2024-04-15,2024-04-10,株式会社好ｋｉｙａｎｅｎ,,株式会社,静岡県,伊東市,荻５３６番地の４,,22,208,4140053,,,2024-04-10,清算の結了等,,,2015-10-05,1,,,,,スキヤネン,0
1248,4080402008539,登記記録の閉鎖等,0,2024-04-15,2024-04-09,有限会社ヤマダ精機,,有限会社,静岡県,浜松市中央区,丸塚町１４０番地の６,,22,138,4350046,,,2024-04-09,清算の結了等,,,2015-10-05,1,,,,,ヤマダセイキ,0
1263,4120001045697,登記記録の閉鎖等,0,2024-04-15,2024-04-11,株式会社東英,,株式会社,大阪府,大阪市西区,千代崎１丁目１６番１０号,,27,106,5500023,,,2024-04-11,清算の結了等,,,2015-10-05,1,,,,,トウエイ,0
1266,4120001105740,登記記録の閉鎖等,0,2024-04-15,2024-04-02,株式会社ナインネイムズ,,株式会社,大阪府,大阪市西区,新町１丁目４番２６号,,27,106,5500013,,,2024-04-02,合併による解散等,4120001106061,令和６年３月３１日大阪市西区新町一丁目４番２６号株式会社ＰＡＬ（4120001106061）に合併し解散,2015-10-05,1,,,,,ナインネイムズ,0
1271,4120001210846,登記記録の閉鎖等,0,2024-04-15,2024-04-09,ＣＨＩＮＡ　ＥＸＰＲＥＳＳ株式会社,,株式会社,大阪府,大阪市西区,江之子島町一丁目８番２０号,,27,106,5500000,,,2024-04-09,清算の結了等,,,2018-01-23,1,,,,,チャイナエクスプレス,0
1272,4120001214938,登記記録の閉鎖等,0,2024-04-15,2024-04-04,扇港ホールディングス株式会社,,株式会社,大阪府,交野市,幾野５丁目１０番１号,,27,230,5760054,,,2024-04-04,清算の結了等,,,2018-07-27,1,,,,,センコウホールディングス,0
1302,4140001074240,登記記録の閉鎖等,0,2024-04-15,2024-04-09,株式会社トラベルユーアイインターナショナル,,株式会社,兵庫県,西宮市,高須町１丁目１番１４－２１０号,,28,204,6638141,,,2024-04-09,清算の結了等,,,2015-10-05,1,,,,,トラベルユーアイインターナショナル,0
1320,4160002001464,登記記録の閉鎖等,0,2024-04-15,2024-04-10,有限会社白光,,有限会社,滋賀県,大津市,赤尾町１７番８号,,25,201,5200864,,,2024-04-10,清算の結了等,,,2015-10-05,1,,,,,ビャッコウ,0
1337,4200005001969,登記記録の閉鎖等,0,2024-04-15,2024-04-08,松尾生産森林組合,,その他の設立登記法人,岐阜県,山県市,松尾２８８番地１,,21,215,5012134,,,2024-04-08,清算の結了等,,,2015-10-05,1,,,,,マツオ,0
1341,4220001021259,登記記録の閉鎖等,0,2024-04-15,2024-04-09,株式会社クリタス北陸,,株式会社,石川県,金沢市,駅西新町３丁目１番１０号,,17,201,9200027,,,2024-04-09,合併による解散等,1013301002893,令和６年４月１日東京都豊島区南池袋一丁目１１番２２号株式会社クリタス（1013301002893）に合併し解散,2016-10-06,1,,,,,,0
1346,4240002033367,登記記録の閉鎖等,0,2024-04-15,2024-04-10,有限会社中国新聞阿賀販売所,,有限会社,広島県,呉市,阿賀北７丁目１３番８号,,34,202,7370001,,,2024-04-10,清算の結了等,,,2015-10-05,1,,,,,チュウゴクシンブンアガハンバイショ,0
1378,4370202004700,登記記録の閉鎖等,0,2024-04-15,2024-04-03,有限会社クロダ産業,,有限会社,宮城県,栗原市,栗駒沼倉丸森７番地３,,04,213,9895371,,,2024-04-03,清算の結了等,,,2015-10-05,1,,,,,クロダサンギョウ,0
1386,4400002008823,登記記録の閉鎖等,0,2024-04-15,2024-04-03,有限会社イーストスターテクノロジーズ,,有限会社,岩手県,花巻市,上小舟渡３２１番地２,,03,205,0250062,,,2024-04-03,清算の結了等,,,2015-10-05,1,,,,,イーストスターテクノロジーズ,0
1387,4400502000676,登記記録の閉鎖等,0,2024-04-15,2024-04-01,有限会社麺工房なおり庵,00085750,有限会社,岩手県,一関市,関が丘８６番地８,,03,209,0210851,,,2024-04-01,清算の結了等,,,2015-10-05,1,,,,,メンコウボウナオリアン,0
1395,4430003001667,登記記録の閉鎖等,0,2024-04-15,2024-04-04,合同会社サンタ企画,,合同会社,北海道,札幌市北区,屯田十条２丁目５番１６号,,01,102,0020860,,,2024-04-04,清算の結了等,,,2015-10-05,1,,,,,サンタキカク,0
1402,4470001017612,登記記録の閉鎖等,0,2024-04-15,2024-04-05,株式会社Ｍ．Ｎ．Ｋｅｎｔｅｒｔａｉｎｍｅｎｔ,,株式会社,香川県,高松市,鍛冶屋町１番地４,,37,201,7600028,,,2024-04-05,清算の結了等,,,2019-09-03,1,,,,,ムネキュンエンターテインメント,0
1404,4470002017306,登記記録の閉鎖等,0,2024-04-15,2024-04-02,有限会社ルネス,,有限会社,香川県,観音寺市,吉岡町９５９番地２,,37,205,7680021,,,2024-04-02,清算の結了等,,,2015-10-05,1,,,,,ルネス,0
1410,5010001037390,登記記録の閉鎖等,0,2024-04-15,2024-04-03,イズミ株式会社,,株式会社,東京都,中央区,日本橋蛎殻町１丁目１１番５号,,13,102,1030014,,,2024-04-03,合併による解散等,7010001060127,令和６年４月１日東京都中央区日本橋蛎殻町一丁目１１番５号ラサ商事株式会社（7010001060127）に合併し解散,2015-10-05,1,,,,,イズミ,0
1422,5010001201459,登記記録の閉鎖等,0,2024-04-15,2024-04-02,株式会社セブン・グローバルレミット,,株式会社,東京都,千代田区,丸の内１丁目６番１号,,13,101,1000005,,,2024-04-02,合併による解散等,8010001164001,令和６年４月２日東京都千代田区紀尾井町３番６号株式会社デジタルワレット（8010001164001）に合併し解散,2019-06-11,1,,,,,セブングローバルレミット,0
1437,5010401109599,登記記録の閉鎖等,0,2024-04-15,2024-04-02,株式会社Ｅ－フィールド,,株式会社,東京都,港区,芝２丁目１０番４号,,13,103,1050014,,,2024-04-02,合併による解散等,9010401018540,令和６年３月３１日東京都港区芝二丁目１０番４号株式会社電巧社（9010401018540）に合併し解散,2015-10-05,1,,,,,イーフィールド,0
1439,5010401118179,登記記録の閉鎖等,0,2024-04-15,2024-04-02,株式会社ＴＣＣ＆Ｐａｒｔｎｅｒｓ,,株式会社,東京都,港区,西麻布４丁目１７番２２号,,13,103,1060031,,,2024-04-02,清算の結了等,,,2015-10-05,1,,,,,ティーシーシーアンドパートナーズ,0
1442,5010401130340,登記記録の閉鎖等,0,2024-04-15,2024-04-02,大和ライフエナジア株式会社,,株式会社,東京都,港区,赤坂５丁目１番３３号,,13,103,1070052,,,2024-04-02,清算の結了等,,,2017-03-22,1,,,,,ダイワライフエナジア,0
1448,5010405017162,登記記録の閉鎖等,0,2024-04-15,2024-04-02,一般社団法人ＯＪ　ＡＳＳＥＴ,,その他の設立登記法人,東京都,港区,虎ノ門３丁目２２番１０－２０１号,,13,103,1050001,,,2024-04-02,清算の結了等,,,2018-10-17,1,,,,,オージェーアセット,0
1452,5010701027674,登記記録の閉鎖等,0,2024-04-15,2024-04-11,株式会社イマジカ・ライヴ,,株式会社,東京都,港区,海岸１丁目１４番２号,,13,103,1050022,,,2024-04-11,合併による解散等,7010001136331,令和６年４月１日東京都千代田区神田神保町一丁目１０５番地株式会社フォトロン（7010001136331）に合併し解散,2015-10-05,1,,,,,イマジカライヴ,0
1454,5010701044067,登記記録の閉鎖等,0,2024-04-15,2024-04-02,株式会社ミライト,,株式会社,東京都,品川区,大崎２丁目１番１号ＴｈｉｎｋＰａｒｋＴｏｗｅｒ,,13,109,1410032,,,2024-04-02,清算の結了等,,,2023-04-06,1,,,,,ミライト,0
1463,5011001156932,登記記録の閉鎖等,0,2024-04-15,2024-04-01,株式会社ゼロタレワークス,,株式会社,東京都,渋谷区,恵比寿１丁目２１番１０号,,13,113,1500013,,,2024-04-01,合併による解散等,2011001124264,令和６年４月１日東京都渋谷区恵比寿一丁目２１番１０号株式会社ＺＥＲＯ　ＴＡＬＥＮＴ（2011001124264）に合併し解散,2023-09-08,1,,,,,ゼロタレワークス,0
1472,5011103011515,登記記録の閉鎖等,0,2024-04-15,2024-04-04,合同会社ジェイ・エス・シー,,合同会社,東京都,新宿区,下宮比町１番４号,,13,104,1620822,,,2024-04-04,清算の結了等,,,2022-03-01,1,,,,,ジェイエスシー,0
1475,5011203001696,登記記録の閉鎖等,0,2024-04-15,2024-04-11,梅田開発合同会社,,合同会社,東京都,中野区,東中野３丁目２番４号,,13,114,1640003,,,2024-04-11,合併による解散等,2120001211202,令和６年４月１日大阪市西区江戸堀二丁目２番２３号大阪都市開発株式会社（2120001211202）に合併し解散,2015-10-05,1,,,,,,0
1522,5020005006738,登記記録の閉鎖等,0,2024-04-15,2024-04-05,磯子駅前ビル住宅管理組合法人,,その他の設立登記法人,神奈川県,横浜市磯子区,森１丁目６番２３号,,14,107,2350023,,,2024-04-05,清算の結了等,,,2015-10-05,1,,,,,イソゴエキマエビルジュウタク,0
1525,5021001023504,登記記録の閉鎖等,0,2024-04-15,2024-04-11,株式会社スタッフネット,,株式会社,神奈川県,愛甲郡愛川町,中津９３番地５,,14,401,2430303,,,2024-04-11,清算の結了等,,,2015-10-05,1,,,,,スタッフネット,0
1535,5030001022993,登記記録の閉鎖等,0,2024-04-15,2024-04-05,株式会社Ｓ・ＴｅｃＨ,,株式会社,埼玉県,草加市,青柳３丁目２１番２８号,,11,221,3400002,,,2024-04-05,清算の結了等,,,2015-10-05,1,,,,,エステック,0
1536,5030001040913,登記記録の閉鎖等,0,2024-04-15,2024-04-04,株式会社創造杜,,株式会社,埼玉県,草加市,新栄１丁目１６番地１,,11,221,3400056,,,2024-04-04,清算の結了等,,,2015-10-05,1,,,,,ソウゾウシャ,0
1545,5030002033429,登記記録の閉鎖等,0,2024-04-15,2024-04-05,有限会社忍成建材,,有限会社,埼玉県,狭山市,柏原１０２５番地,,11,215,3501335,,,2024-04-05,清算の結了等,,,2015-10-05,1,,,,,オシナリケンザイ,0
1559,5040001055654,登記記録の閉鎖等,0,2024-04-15,2024-04-04,株式会社キョウサイ,,株式会社,千葉県,市原市,八幡１８３７番地１,,12,219,2900062,,,2024-04-04,清算の結了等,,,2015-10-05,1,,,,,キョウサイ,0
1563,5040001107819,登記記録の閉鎖等,0,2024-04-15,2024-04-03,株式会社ＴｒｉＥｄｇｅ,,株式会社,千葉県,千葉市稲毛区,天台５丁目１６－１７,,12,103,2630016,,,2024-04-03,清算の結了等,,,2019-01-28,1,,,,,トライエッジ,0
1575,5040002019617,登記記録の閉鎖等,0,2024-04-15,2024-04-04,有限会社ミヨテム,,有限会社,千葉県,習志野市,津田沼６丁目１４番２５号,,12,216,2750016,,,2024-04-04,清算の結了等,,,2015-10-05,1,,,,,ミヨテム,0
1577,5040002063664,登記記録の閉鎖等,0,2024-04-15,2024-04-04,有限会社フジ環境デザイン,,有限会社,千葉県,八街市,八街ほ８０番地の１４,,12,230,2891115,,,2024-04-04,清算の結了等,,,2015-10-05,1,,,,,フジカンキョウデザイン,0
1578,5040002068226,登記記録の閉鎖等,0,2024-04-15,2024-04-05,有限会社エヌ・エスアート,,有限会社,千葉県,袖ケ浦市,福王台１丁目１２番地３,,12,229,2990261,,,2024-04-05,清算の結了等,,,2015-10-05,1,,,,,エヌエスアート,0
1589,5070002002677,登記記録の閉鎖等,0,2024-04-15,2024-04-09,有限会社新島館,,有限会社,群馬県,前橋市,苗ヶ島町甲２０３５番地,,10,201,3710241,,,2024-04-09,清算の結了等,,,2015-10-05,1,,,,,ニイジマカン,0
1593,5080001018343,登記記録の閉鎖等,0,2024-04-15,2024-04-03,株式会社駿河堂,,株式会社,静岡県,静岡市清水区,江尻台町１２番１２号,,22,103,4240044,,,2024-04-03,清算の結了等,,,2015-10-05,1,,,,,スルガドウ,0
1600,5100001030130,登記記録の閉鎖等,0,2024-04-15,2024-04-01,株式会社丸水運送センター,,株式会社,長野県,長野市,市場３番地４３,,20,201,3812202,,,2024-04-01,合併による解散等,1100001004732,令和６年４月１日長野市市場３番地４８マルイチ・ロジスティクス・サービス株式会社（1100001004732）に合併し解散,2017-04-14,1,,,,,マルスイウンソウセンター,0
1609,5120001067014,登記記録の閉鎖等,0,2024-04-15,2024-03-29,団不動産株式会社,,株式会社,大阪府,東大阪市,小阪３丁目５番８－３０１号,,27,227,5770801,,,2024-03-29,清算の結了等,,,2015-10-05,1,,,,,ダンフドウサン,0
1610,5120001103306,登記記録の閉鎖等,0,2024-04-15,2024-04-02,株式会社阪急ベーカリー,,株式会社,大阪府,大阪市北区,角田町８番７号,,27,127,5300017,,,2024-04-02,合併による解散等,1120001066812,令和６年４月１日大阪市北区角田町８番７号株式会社阪急デリカ（1120001066812）に合併し解散,2015-10-05,1,,,,,ハンキュウベーカリー,0
1636,5120005018938,登記記録の閉鎖等,0,2024-04-15,2024-04-12,一般社団法人近畿唐揚協会,,その他の設立登記法人,大阪府,大阪市中央区,船場中央２丁目１－４－４１１,,27,128,5410055,,,2024-04-12,清算の結了等,,,2016-09-14,1,,,,,,0
1638,5120101044458,登記記録の閉鎖等,0,2024-04-15,2024-04-09,株式会社森室内装飾,,株式会社,大阪府,泉南市,新家１３１５番地の２４９,,27,228,5900503,,,2024-04-09,清算の結了等,,,2015-10-05,1,,,,,モリシツナイソウショク,0
1640,5120101062229,登記記録の閉鎖等,0,2024-04-15,2024-04-08,株式会社ＫＯＵＳＨＩＮ　ｔｗｉｓｔ,,株式会社,大阪府,和泉市,室堂町８１５番地２,,27,219,5941101,,,2024-04-08,清算の結了等,,,2020-08-26,1,,,,,コウシンツイスト,0
1646,5120901027174,登記記録の閉鎖等,0,2024-04-15,2024-04-08,株式会社シンククリエイト,,株式会社,大阪府,大阪市淀川区,加島４丁目６番２３号,,27,123,5320031,,,2024-04-08,清算の結了等,,,2015-10-05,1,,,,,シンククリエイト,0
1653,5130001058937,登記記録の閉鎖等,0,2024-04-15,2024-04-10,株式会社ＺｅｎＯｎｅ,,株式会社,京都府,京都市北区,紫野上築山町４０番地,,26,101,6038221,,,2024-04-10,清算の結了等,,,2016-12-28,1,,,,,ゼンワン,0
1657,5140001038418,登記記録の閉鎖等,0,2024-04-15,2024-04-11,パナソニックデバイスＳＵＮＸ竜野株式会社,,株式会社,兵庫県,たつの市,龍野町片山３００番地,,28,229,6794123,,,2024-04-11,合併による解散等,5120001235594,令和６年４月１日大阪府門真市大字門真１００６番地パナソニックインダストリー株式会社（5120001235594）に合併し解散,2015-10-05,1,,,,,パナソニックデバイスサンクスタツノ,0
1661,5140001085781,登記記録の閉鎖等,0,2024-04-15,2024-04-09,株式会社誠建設,,株式会社,兵庫県,南あわじ市,福良丙２３５番地の１,,28,224,6560503,,,2024-04-09,清算の結了等,,,2015-10-05,1,,,,,マコトケンセツ,0
1673,5140003016743,登記記録の閉鎖等,0,2024-04-15,2024-04-11,合同会社ヤマグチ,,合同会社,兵庫県,川西市,緑台６丁目１番地の１９,,28,217,6660129,,,2024-04-11,清算の結了等,,,2021-09-17,1,,,,,ヤマグチ,0
1682,5150002010911,登記記録の閉鎖等,0,2024-04-15,2024-04-11,有限会社スタジオアビィ,,有限会社,奈良県,香芝市,下田西３丁目２６２番地の６,,29,210,6390231,,,2024-04-11,清算の結了等,,,2015-10-05,1,,,,,スタジオアビィ,0
1696,5180301011327,登記記録の閉鎖等,0,2024-04-15,2024-04-02,株式会社マキノ電気,,株式会社,愛知県,蒲郡市,御幸町１３番２号,,23,214,4430042,,,2024-04-02,清算の結了等,,,2015-10-05,1,,,,,マキノデンキ,0
1699,5190003002012,登記記録の閉鎖等,0,2024-04-15,2024-04-08,合同会社エンティー,,合同会社,三重県,三重郡川越町,大字豊田２３４番地１シティハイツキャッスルＢ棟２Ｃ,,24,344,5108122,,,2024-04-08,清算の結了等,,,2015-10-05,1,,,,,エンティー,0
1712,5240001059065,登記記録の閉鎖等,0,2024-04-15,2024-04-10,ＦＨＡＶ　ＬＵＸＵＲＹ株式会社,,株式会社,広島県,福山市,山手町４丁目９番７号,,34,207,7200092,,,2024-04-10,清算の結了等,,,2021-12-17,1,,,,,ファブラクサリー,0
1719,5250002019810,登記記録の閉鎖等,0,2024-04-15,2024-04-08,有限会社ビューテイサロン啓,,有限会社,山口県,柳井市,新庄１２番地の５８,,35,212,7420033,,,2024-04-08,清算の結了等,,,2015-10-05,1,,,,,ビューテイサロンケイ,0
1739,5290801001535,登記記録の閉鎖等,0,2024-04-15,2024-04-03,株式会社財産ドック,,株式会社,福岡県,北九州市小倉北区,東篠崎１丁目３番１３号,,40,106,8020072,,,2024-04-03,清算の結了等,,,2015-10-05,1,,,,,ザイサンドック,0
1748,5330001018136,登記記録の閉鎖等,0,2024-04-15,2024-04-05,九州テックエンジニア株式会社,,株式会社,熊本県,八代市,迎町５１３－１,,43,202,8660055,,,2024-04-05,清算の結了等,,,2015-10-05,1,,,,,キュウシュウテックエンジニア,0
1797,6010001134831,登記記録の閉鎖等,0,2024-04-15,2024-04-01,株式会社アイライティングデバイス,,株式会社,東京都,中央区,日本橋久松町９番９号,,13,102,1030005,,,2024-04-01,合併による解散等,3010001231953,令和６年４月１日東京都中央区東日本橋一丁目１番７号岩崎電気株式会社（3010001231953）に合併し解散,2015-10-05,1,,,,,アイライティングデバイス,0
1818,6010002003845,登記記録の閉鎖等,0,2024-04-15,2024-04-02,有限会社太郎寿し,,有限会社,東京都,文京区,白山１丁目３２番７号吉本ビル１階,,13,105,1130001,,,2024-04-02,清算の結了等,,,2015-10-05,1,,,,,タロウズシ,0
1825,6010101009306,登記記録の閉鎖等,0,2024-04-15,2024-04-02,株式会社眩い,,株式会社,神奈川県,足柄下郡箱根町,仙石原８１７番１８９号,,14,382,2500631,,,2024-04-02,清算の結了等,,,2015-10-05,1,,,,,マバユイ,0
1831,6010401064926,登記記録の閉鎖等,0,2024-04-15,2024-04-02,ＴＨＥ　ＣＯＭＰＡＳＳ株式会社,,株式会社,東京都,港区,西麻布４丁目１７番２２号,,13,103,1060031,,,2024-04-02,清算の結了等,,,2015-10-05,1,,,,,コンパス,0
1844,6010601032476,登記記録の閉鎖等,0,2024-04-15,2024-04-03,キュービックシー株式会社,,株式会社,東京都,文京区,大塚６丁目１０番９号,,13,105,1120012,,,2024-04-03,清算の結了等,,,2015-10-05,1,,,,,キュービックシー,0
1846,6010701023004,登記記録の閉鎖等,0,2024-04-15,2024-04-01,住友重機械精機販売株式会社,,株式会社,東京都,品川区,大崎２丁目１番１号,,13,109,1410032,,,2024-04-01,合併による解散等,9010701005032,令和６年４月１日東京都品川区大崎二丁目１番１号住友重機械工業株式会社（9010701005032）に合併し解散,2015-10-05,1,,,,,スミトモジュウキカイセイキハンバイ,0
1853,6010801006057,登記記録の閉鎖等,0,2024-04-15,2024-04-01,株式会社成光社,,株式会社,東京都,品川区,南大井３丁目２８番１５号,,13,109,1400013,,,2024-04-01,合併による解散等,8010801002896,令和６年４月１日東京都品川区南大井三丁目２８番１５号共栄工業株式会社（8010801002896）に合併し解散,2015-10-05,1,,,,,セイコウシャ,0
1864,6011001005064,登記記録の閉鎖等,0,2024-04-15,2024-04-10,箱根施設開発株式会社,,株式会社,東京都,渋谷区,代々木２丁目２８番１２号,,13,113,1510053,,,2024-04-10,合併による解散等,8021001033616,令和６年４月１日神奈川県小田原市城山一丁目１５番１号株式会社小田急箱根（8021001033616）に合併し解散,2015-10-05,1,,,,,ハコネシセツカイハツ,0
1873,6011002034756,登記記録の閉鎖等,0,2024-04-15,2024-04-02,有限会社テクノマエストロ,,有限会社,東京都,渋谷区,渋谷２丁目７番１４号,,13,113,1500002,,,2024-04-02,清算の結了等,,,2015-10-05,1,,,,,テクノマエストロ,0
1875,6011101049606,登記記録の閉鎖等,0,2024-04-15,2024-04-05,株式会社イー・アンド・ティー,,株式会社,東京都,渋谷区,神宮前５丁目７番４号,,13,113,1500001,,,2024-04-05,清算の結了等,,,2015-10-05,1,,,,,イーアンドティー,0
1879,6011102010203,登記記録の閉鎖等,0,2024-04-15,2024-04-03,有限会社はし芳小宮山商店,,有限会社,東京都,新宿区,内藤町１番地,,13,104,1600014,,,2024-04-03,清算の結了等,,,2015-10-05,1,,,,,ハシヨシコミヤマショウテン,0
1880,6011201011424,登記記録の閉鎖等,0,2024-04-15,2024-04-10,株式会社佐々木建設,,株式会社,東京都,中野区,上鷺宮４丁目６番１号,,13,114,1650031,,,2024-04-10,清算の結了等,,,2015-10-05,1,,,,,ササキケンセツ,0
1884,6011201022058,登記記録の閉鎖等,0,2024-04-15,2024-04-12,株式会社ＨＡＮＡＭＡＲＵ,,株式会社,東京都,中野区,新井１丁目３１番１１号,,13,114,1650026,,,2024-04-12,清算の結了等,,,2020-03-23,1,,,,,,0
1886,6011501013120,登記記録の閉鎖等,0,2024-04-15,2024-03-27,株式会社エンライトメント,,株式会社,東京都,北区,王子１丁目１４番８号明治堂ビル４階,,13,117,1140002,,,2024-03-27,清算の結了等,,,2023-07-31,1,,,,,,0
1892,6012802005236,登記記録の閉鎖等,0,2024-04-15,2024-04-05,有限会社渡部,,有限会社,東京都,武蔵村山市,残堀５丁目４９番地の２,,13,223,2080034,,,2024-04-05,清算の結了等,,,2015-10-05,1,,,,,ワタベ,0
1907,6021001006383,登記記録の閉鎖等,0,2024-04-15,2024-04-11,株式会社親和興業,,株式会社,神奈川県,高座郡寒川町,一之宮２丁目１４番４３号,,14,321,2530111,,,2024-04-11,清算の結了等,,,2015-10-05,1,,,,,,0
1909,6021001033956,登記記録の閉鎖等,0,2024-04-15,2024-04-10,株式会社健楽園,,株式会社,神奈川県,足柄上郡松田町,松田惣領６番地３,,14,363,2580003,,,2024-04-10,清算の結了等,,,2015-10-05,1,,,,,ケンラクエン,0
1930,6040001085972,登記記録の閉鎖等,0,2024-04-15,2024-04-03,株式会社みっつデザイン研究所,,株式会社,千葉県,千葉市稲毛区,稲毛２丁目７番４５号ハイマート稲毛Ａ棟３１１号,,12,103,2630034,,,2024-04-03,清算の結了等,,,2015-10-05,1,,,,,ミッツデザインケンキュウショ,0
1931,6040001088595,登記記録の閉鎖等,0,2024-04-15,2024-04-02,株式会社ＭＣＯ,,株式会社,千葉県,木更津市,永井作２丁目１１番１５号,,12,206,2920053,,,2024-04-02,清算の結了等,,,2015-10-05,1,,,,,エムシーオー,0
1942,6040003010400,登記記録の閉鎖等,0,2024-04-15,2024-04-05,合同会社永代,,合同会社,千葉県,長生郡長南町,千田１２１８,,12,427,2970115,,,2024-04-05,清算の結了等,,,2017-08-01,1,,,,,エイタイ,0
1973,6090002000471,登記記録の閉鎖等,0,2024-04-15,2024-04-08,有限会社エムエスカンパニー,,有限会社,山梨県,甲府市,丸の内１丁目２１番２６号,,19,201,4000031,,,2024-04-08,清算の結了等,,,2015-10-05,1,,,,,エムエスカンパニー,0
1975,6100001000578,登記記録の閉鎖等,0,2024-04-15,2024-04-01,オリオン建物株式会社,,株式会社,長野県,長野市,大字鶴賀上千歳町１１２１番地１,,20,201,3800821,,,2024-04-01,合併による解散等,4100003000470,令和６年４月１日長野市大字鶴賀上千歳町１１２１番地１オリオングループホールディングス株式会社（4100003000470）に合併し解散,2015-10-05,1,,,,,オリオンタテモノ,0
1979,6100002019898,登記記録の閉鎖等,0,2024-04-15,2024-04-01,有限会社紅寿,,有限会社,長野県,松本市,浅間温泉１丁目１９番７－２号,,20,202,3900303,,,2024-04-01,清算の結了等,,,2015-10-05,1,,,,,コウジュ,0
1984,6120001055447,登記記録の閉鎖等,0,2024-04-15,2024-04-10,サンケイテック株式会社,,株式会社,大阪府,大阪市淀川区,木川西３丁目１番１１号,,27,123,5320013,,,2024-04-10,清算の結了等,,,2015-10-05,1,,,,,サンケイテック,0
1998,6120001260336,登記記録の閉鎖等,0,2024-04-15,2024-04-01,株式会社ＫＭ,,株式会社,大阪府,大阪市淀川区,十八条２丁目１８番１１０号,,27,123,5320001,,,2024-04-01,合併による解散等,9120901006637,令和６年４月１日大阪市淀川区十八条二丁目１８番１１０号株式会社三宝（9120901006637）に合併し解散,2023-12-05,1,,,,,ケーエム,0
2001,6120002004964,登記記録の閉鎖等,0,2024-04-15,2024-04-08,有限会社森岡商店,,有限会社,大阪府,大阪市都島区,東野田町５丁目９番１６号,,27,102,5340024,,,2024-04-08,清算の結了等,,,2015-10-05,1,,,,,モリオカショウテン,0
2011,6120901013677,登記記録の閉鎖等,0,2024-04-15,2024-04-10,株式会社エーコープ近畿,,株式会社,大阪府,高槻市,番田１丁目５１番１号,,27,207,5690044,,,2024-04-10,合併による解散等,5140001023997,令和６年４月１日横浜市泉区中田南三丁目２番３８号ＪＡ全農Ａコープ株式会社（5140001023997）に合併し解散,2015-10-05,1,,,,,エーコープキンキ,0
2013,6122002011230,登記記録の閉鎖等,0,2024-04-15,2024-04-08,有限会社サンメディカル,,有限会社,大阪府,大東市,三箇１丁目１９番３号,,27,218,5740077,,,2024-04-08,清算の結了等,,,2015-10-05,1,,,,,サンメディカル,0
2024,6140001009079,登記記録の閉鎖等,0,2024-04-15,2024-04-09,大平エル・エヌ・ジー株式会社,,株式会社,兵庫県,神戸市中央区,海岸通３番地,,28,110,6500024,,,2024-04-09,合併による解散等,3010401016748,令和６年４月１日東京都港区赤坂三丁目２０番６号大平商事株式会社（3010401016748）に合併し解散,2015-10-05,1,,,,,タイヘイエルエヌジー,0
2032,6140003015323,登記記録の閉鎖等,0,2024-04-15,2024-04-04,合同会社花車,,合同会社,兵庫県,宝塚市,中州１丁目２番２２－１０４号,,28,214,6650021,,,2024-04-04,清算の結了等,,,2020-09-01,1,,,,,ハナグルマ,0
2042,6160002002329,登記記録の閉鎖等,0,2024-04-15,2024-04-10,有限会社馬場製作所,,有限会社,滋賀県,大津市,南小松４３２番地,,25,201,5200502,,,2024-04-10,清算の結了等,,,2015-10-05,1,,,,,バンバセイサクショ,0
2061,6200005009226,登記記録の閉鎖等,0,2024-04-15,2024-04-02,恵那自動車整備販売協同組合,,その他の設立登記法人,岐阜県,恵那市,大井町１１２０番地１６,,21,210,5097201,,,2024-04-02,清算の結了等,,,2015-10-05,1,,,,,エナジドウシャセイビハンバイ,0
2070,6230001009185,登記記録の閉鎖等,0,2024-04-15,2024-04-09,株式会社ベストケアメディカル,,株式会社,富山県,砺波市,東石丸３７２番地の１,,16,208,9391302,,,2024-04-09,合併による解散等,9220001001784,令和６年４月１日石川県金沢市無量寺町ハ１番地明祥株式会社（9220001001784）に合併し解散,2015-10-05,1,,,,,ベストケアメディカル,0
2080,6250002003318,登記記録の閉鎖等,0,2024-04-15,2024-04-09,有限会社ネットワークアシスト,,有限会社,山口県,防府市,大字牟礼３９７４番地の１２,,35,206,7470004,,,2024-04-09,清算の結了等,,,2015-10-05,1,,,,,ネットワークアシスト,0
2082,6260005001937,登記記録の閉鎖等,0,2024-04-15,2024-04-03,山陽新聞労働組合,,その他の設立登記法人,岡山県,岡山市北区,柳町２丁目１番２３号,,33,101,7000904,,,2024-04-03,清算の結了等,,,2015-10-05,1,,,,,サンヨウシンブン,0
2083,6270002010683,登記記録の閉鎖等,0,2024-04-15,2024-04-10,有限会社ロマン,,有限会社,鳥取県,倉吉市,上灘町１１５番地１,00004431,31,203,6820811,,,2024-04-10,清算の結了等,,,2015-10-05,1,,,,,ロマン,0
2084,6290001050828,登記記録の閉鎖等,0,2024-04-15,2024-03-26,アップグレード株式会社,,株式会社,福岡県,久留米市,長門石３丁目１２番１１号,,40,203,8300027,,,2024-03-26,清算の結了等,,,2015-10-05,1,,,,,アップグレード,0
2098,6310001002529,登記記録の閉鎖等,0,2024-04-15,2024-04-05,アイ・ティー建設株式会社,,株式会社,長崎県,長崎市,本原町２６番９号,,42,201,8528133,,,2024-04-05,清算の結了等,,,2015-10-05,1,,,,,アイティーケンセツ,0
2106,6340001005207,登記記録の閉鎖等,0,2024-04-15,2024-04-08,カワサキテクノ株式会社,,株式会社,鹿児島県,鹿児島市,春山町２００４番地３,,46,201,8992704,,,2024-04-08,合併による解散等,8080001013374,令和６年４月１日静岡県島田市金谷栄町３４７番地の８カワサキ機工株式会社（8080001013374）に合併し解散,2015-10-05,1,,,,,カワサキテクノ,0
2126,6360002019022,登記記録の閉鎖等,0,2024-04-15,2024-04-10,有限会社クリエイティブビジョン,,有限会社,沖縄県,浦添市,伊祖２丁目１６番１０号,,47,208,9012132,,,2024-04-10,清算の結了等,,,2015-10-05,1,,,,,クリエイティブビジョン,0
2143,6470001005747,登記記録の閉鎖等,0,2024-04-15,2024-04-05,株式会社アール,,株式会社,香川県,高松市,伏石町２０４９番地７,,37,201,7618071,,,2024-04-05,清算の結了等,,,2015-10-05,1,,,,,アール,0
2147,6490002010703,登記記録の閉鎖等,0,2024-04-15,2024-04-09,有限会社高知新聞久礼販売所,,有限会社,高知県,高岡郡中土佐町,久礼２１８１番地１,,39,401,7891301,,,2024-04-09,清算の結了等,,,2015-10-05,1,,,,,コウチシンブンクレハンバイショ,0
2151,7010001002665,登記記録の閉鎖等,0,2024-04-15,2024-04-02,株式会社後楽園フードサービス,,株式会社,東京都,文京区,後楽１丁目３番６１号,,13,105,1120004,,,2024-04-02,清算の結了等,,,2015-10-05,1,,,,,コウラクエンフードサービス,0
2160,7010001134780,登記記録の閉鎖等,0,2024-04-15,2024-04-01,株式会社ライトキューブ,,株式会社,東京都,中央区,東日本橋１丁目１番７号,,13,102,1030004,,,2024-04-01,合併による解散等,3010001231953,令和６年４月１日東京都中央区東日本橋一丁目１番７号岩崎電気株式会社（3010001231953）に合併し解散,2015-10-05,1,,,,,ライトキューブ,0
2162,7010001137800,登記記録の閉鎖等,0,2024-04-15,2024-04-02,株式会社ボブ,,株式会社,東京都,中央区,八丁堀２丁目３番２号,,13,102,1040032,,,2024-04-02,清算の結了等,,,2015-10-05,1,,,,,ボブ,0
2179,7010003041026,登記記録の閉鎖等,0,2024-04-15,2024-04-04,エスティファンドファイブ合同会社,,合同会社,東京都,千代田区,丸の内３丁目１番１号東京共同会計事務所内,,13,101,1000005,,,2024-04-04,清算の結了等,,,2023-07-10,1,,,,,エスティファンドファイブ,0
2188,7010401093957,登記記録の閉鎖等,0,2024-04-15,2024-04-01,リテールシステムサービス株式会社,,株式会社,東京都,港区,虎ノ門１丁目１番１８号,,13,103,1050001,,,2024-04-01,合併による解散等,5010001043281,令和６年４月１日東京都港区西新橋一丁目１番１号三井物産流通グループ株式会社（5010001043281）に合併し解散,2015-10-05,1,,,,,リテールシステムサービス,0
2189,7010401094220,登記記録の閉鎖等,0,2024-04-15,2024-04-01,ベンダーサービス株式会社,,株式会社,東京都,港区,西新橋１丁目１番１号,,13,103,1050003,,,2024-04-01,合併による解散等,5010001043281,令和６年４月１日東京都港区西新橋一丁目１番１号三井物産流通グループ株式会社（5010001043281）に合併し解散,2015-10-05,1,,,,,ベンダーサービス,0
2193,7010401162935,登記記録の閉鎖等,0,2024-04-15,2024-04-02,Ａｇｅ　ｏｆ　Ｌｅａｒｎｉｎｇ　Ｊａｐａｎ株式会社,,株式会社,東京都,中央区,日本橋３丁目９番１号日本橋三丁目スクエア１１階,,13,102,1030027,,,2024-04-02,清算の結了等,,,2021-09-30,1,,,,,エイジオブラーニングジャパン,0
2194,7010401167678,登記記録の閉鎖等,0,2024-04-15,2024-04-10,株式会社ライフメイト動物救急センター,,株式会社,東京都,港区,南青山１丁目１番１号,,13,103,1070062,,,2024-04-10,合併による解散等,1021002042787,令和６年４月１日神奈川県大和市桜森二丁目２２番１９号株式会社ＬＶＧ（1021002042787）に合併し解散,2022-06-01,1,,,,,ライフメイトドウブツキュウキュウセンター,0
2203,7010601034364,登記記録の閉鎖等,0,2024-04-15,2024-04-03,株式会社ユーイー,,株式会社,東京都,港区,東新橋２丁目１１番７号,,13,103,1050021,,,2024-04-03,清算の結了等,,,2015-10-05,1,,,,,ユーイー,0
2238,7011301005432,登記記録の閉鎖等,0,2024-04-15,2024-04-01,株式会社日本標準統合物流センター,,株式会社,埼玉県,日高市,大字下大谷沢字宮ノ前９１番地５,,11,242,3501221,,,2024-04-01,合併による解散等,6011301005433,令和６年４月１日埼玉県日高市大字下大谷沢字宮ノ前９１番地５株式会社日本標準（6011301005433）に合併し解散,2015-10-05,1,,,,,ニッポンヒョウジュントウゴウブツリュウセンター,0
2240,7011501012369,登記記録の閉鎖等,0,2024-04-15,2024-04-01,株式会社エドウイン直営店,,株式会社,東京都,品川区,上大崎２丁目２４番９号アイケイビルディング２Ｆ,,13,109,1410021,,,2024-04-01,合併による解散等,8011501017689,令和６年４月１日東京都品川区上大崎二丁目２４番９号アイケイビルディング２Ｆイー・ジーニング株式会社（8011501017689）に合併し解散,2015-10-05,1,,,,,エドウインチョクエイテン,0
2242,7011502013944,登記記録の閉鎖等,0,2024-04-15,2024-04-08,スージーロード有限会社,,有限会社,神奈川県,川崎市宮前区,南野川３丁目９番５－１０６号ライオンズマンション野川,,14,136,2160042,,,2024-04-08,清算の結了等,,,2015-10-05,1,,,,,スージーロード,0
2250,7012301008994,登記記録の閉鎖等,0,2024-04-15,2024-04-11,株式会社フリースタイル,,株式会社,神奈川県,大和市,深見東３丁目６番１４号,,14,213,2420012,,,2024-04-11,清算の結了等,,,2015-10-05,1,,,,,フリースタイル,0
2257,7013201004027,登記記録の閉鎖等,0,2024-04-15,2024-04-01,株式会社東急トランセ,,株式会社,東京都,目黒区,東山３丁目８番１号,,13,110,1530043,,,2024-04-01,合併による解散等,5013201004029,令和６年４月１日東京都目黒区東山三丁目８番１号東急バス株式会社（5013201004029）に合併し解散,2015-10-05,1,,,,,トウキュウトランセ,0
2258,7020001002615,登記記録の閉鎖等,0,2024-04-15,2024-04-08,アイリック株式会社,,株式会社,神奈川県,横浜市磯子区,上中里町３９７番地６２,,14,107,2350042,,,2024-04-08,清算の結了等,,,2015-10-05,1,,,,,アイリック,0
2267,7020003020144,登記記録の閉鎖等,0,2024-04-15,2024-04-08,合同会社ダダイン,,合同会社,神奈川県,横浜市中区,桜木町１丁目１０１番地１クロスゲート７Ｆ,,14,104,2310062,,,2024-04-08,清算の結了等,,,2021-07-09,1,,,,,ダダイン,0
2274,7021001064240,登記記録の閉鎖等,0,2024-04-15,2024-04-11,株式会社きらら,,株式会社,神奈川県,藤沢市,長後８０６番地の１,,14,205,2520801,,,2024-04-11,清算の結了等,,,2018-02-28,1,,,,,キララ,0
2275,7021002008502,登記記録の閉鎖等,0,2024-04-15,2024-04-12,有限会社ほりうち,,有限会社,神奈川県,藤沢市,片瀬海岸１丁目１３番８号,,14,205,2510035,,,2024-04-12,清算の結了等,,,2015-10-05,1,,,,,ホリウチ,0
2276,7021002044258,登記記録の閉鎖等,0,2024-04-15,2024-04-05,有限会社マルイワ,,有限会社,神奈川県,座間市,さがみ野２丁目８番１９号,,14,216,2520005,,,2024-04-05,清算の結了等,,,2015-10-05,1,,,,,マルイワ,0
2302,7040002007058,登記記録の閉鎖等,0,2024-04-15,2024-04-02,有限会社高橋商店,,有限会社,千葉県,千葉市中央区,東本町６番７号,,12,101,2600004,,,2024-04-02,清算の結了等,,,2015-10-05,1,,,,,タカハシショウテン,0
2307,7040002070989,登記記録の閉鎖等,0,2024-04-15,2024-04-04,有限会社稲村保温,,有限会社,千葉県,富津市,下飯野２６２６番地,,12,226,2930006,,,2024-04-04,清算の結了等,,,2015-10-05,1,,,,,イナムラホオン,0
2309,7040002078826,登記記録の閉鎖等,0,2024-04-15,2024-04-04,有限会社第二二三丸,,有限会社,千葉県,山武郡九十九里町,小関２２５０番地,,12,403,2830102,,,2024-04-04,清算の結了等,,,2015-10-05,1,,,,,ダイニフミマル,0
2316,7070001005308,登記記録の閉鎖等,0,2024-04-15,2024-04-09,株式会社ツービック,,株式会社,群馬県,前橋市,大前田町７５番地５,,10,201,3710243,,,2024-04-09,清算の結了等,,,2015-10-05,1,,,,,,0
2332,7100001004743,登記記録の閉鎖等,0,2024-04-15,2024-04-01,株式会社ホウキメディア,,株式会社,東京都,文京区,春日１丁目７番１２号,,13,105,1120003,,,2024-04-01,合併による解散等,6010001071892,令和６年４月１日東京都文京区春日一丁目７番１２号株式会社信東社（6010001071892）に合併し解散,2015-10-05,1,,,,,ホウキメディア,0
2333,7100001009726,登記記録の閉鎖等,0,2024-04-15,2024-04-01,株式会社キムラ,,株式会社,長野県,上田市,中央５丁目８番１号植田ビル１号,,20,203,3860012,,,2024-04-01,清算の結了等,,,2015-10-05,1,,,,,キムラ,0
2338,7100002029649,登記記録の閉鎖等,0,2024-04-15,2024-04-01,有限会社アルム,,有限会社,長野県,茅野市,北山６０４４番地６,,20,214,3910301,,,2024-04-01,清算の結了等,,,2015-10-05,1,,,,,アルム,0
2346,7120001051016,登記記録の閉鎖等,0,2024-04-15,2024-04-08,日本アトマイザー株式会社,,株式会社,大阪府,大阪市西淀川区,姫島２丁目２番３６号,,27,113,5550033,,,2024-04-08,清算の結了等,,,2015-10-05,1,,,,,ニホンアトマイザー,0
2369,7120901017438,登記記録の閉鎖等,0,2024-04-15,2024-04-05,ＬＣＣ株式会社,,株式会社,大阪府,茨木市,駅前１丁目１０番１１号,,27,211,5670888,,,2024-04-05,清算の結了等,,,2015-10-05,1,,,,,エルシーシー,0
2398,7180001051225,登記記録の閉鎖等,0,2024-04-15,2024-04-05,株式会社サポーティング中京,,株式会社,愛知県,名古屋市中村区,平池町４丁目６０番地１１,,23,105,4530872,,,2024-04-05,合併による解散等,2180001008774,令和６年４月１日名古屋市中村区平池町四丁目６０番地１１株式会社中京エレクトロン（2180001008774）に合併し解散,2015-10-05,1,,,,,サポーティングチュウキョウ,0
2407,7180005019747,登記記録の閉鎖等,0,2024-04-15,2024-04-05,一般社団法人診断改善研究会,,その他の設立登記法人,愛知県,名古屋市中区,丸の内１丁目１４番２４号－４０２,,23,106,4600002,,,2024-04-05,清算の結了等,,,2022-04-19,1,,,,,シンダンカイゼンケンキュウカイ,0
2409,7190002002705,登記記録の閉鎖等,0,2024-04-15,2024-04-09,フジイ酸機有限会社,,有限会社,三重県,津市,大里川北町７４番地２,,24,201,5140124,,,2024-04-09,清算の結了等,,,2015-10-05,1,,,,,フジイサンキ,0
2418,7240001008276,登記記録の閉鎖等,0,2024-04-15,2024-04-08,中国ビルウェア株式会社,,株式会社,広島県,広島市中区,中町７番２２号,,34,101,7300037,,,2024-04-08,合併による解散等,8290001002918,令和６年４月１日福岡市中央区天神三丁目１０番２０号西日本ビルテクノサービス株式会社（8290001002918）に合併し解散,2015-10-05,1,,,,,チュウゴクビルウェア,0
2419,7240001039024,登記記録の閉鎖等,0,2024-04-15,2024-04-09,山陽ハーネス株式会社,,株式会社,広島県,世羅郡世羅町,大字東神崎２２１番地,,34,462,7221114,,,2024-04-09,合併による解散等,9390001010240,令和６年４月１日山形県米沢市八幡原一丁目１番３号フジクラ電装株式会社（9390001010240）に合併し解散,2015-10-05,1,,,,,サンヨウハーネス,0
2424,7260001007557,登記記録の閉鎖等,0,2024-04-15,2024-04-11,クリタ山陽株式会社,,株式会社,岡山県,岡山市北区,西古松２３７番地の１２６,,33,101,7000927,,,2024-04-11,合併による解散等,2140001031573,令和６年４月１日神戸市兵庫区水木通四丁目１番６号クリタ西日本株式会社（2140001031573）に合併し解散,2015-10-05,1,,,,,クリタサンヨウ,0
2453,7360001008090,登記記録の閉鎖等,0,2024-04-15,2024-04-08,株式会社東和薬品沖縄販売,,株式会社,沖縄県,うるま市,字川崎４６８番地,,47,213,9042203,,,2024-04-08,合併による解散等,7360001001178,令和６年４月１日沖縄県島尻郡南風原町字新川４３６番地１株式会社スズケン沖縄薬品（7360001001178）に合併し解散,2015-10-05,1,,,,,トウワヤクヒンオキナワハンバイ,0
2474,7450002003874,登記記録の閉鎖等,0,2024-04-15,2024-04-05,有限会社豊岡中央コンタクトレンズセンター,,有限会社,北海道,旭川市,豊岡四条１丁目３番２号,,01,204,0788234,,,2024-04-05,清算の結了等,,,2015-10-05,1,,,,,トヨオカチュウオウコンタクトレンズセンター,0
2503,8010002015293,登記記録の閉鎖等,0,2024-04-15,2024-04-05,有限会社山梨アイネ,,有限会社,山梨県,笛吹市,石和町上平井８９０番地１,,19,211,4060025,,,2024-04-05,合併による解散等,6120001180212,令和６年４月１日大阪市都島区中野町一丁目１３番４号株式会社Ｂｅｓｔ　Ｄｅｌｉｇｈｔ　Ｇｒｏｕｐ（6120001180212）に合併し解散,2015-10-05,1,,,,,,0
2512,8010005017519,登記記録の閉鎖等,0,2024-04-15,2024-04-10,パナソニックシステムソリューションズジャパン労働組合,,その他の設立登記法人,東京都,中央区,銀座８丁目２１番１号,,13,102,1040061,,,2024-04-10,清算の結了等,,,2015-10-05,1,,,,,パナソニックシステムソリューションズジャパン,0
2517,8010401156003,登記記録の閉鎖等,0,2024-04-15,2024-04-10,株式会社Ｇｒｏｗｔｈ　ｄｅｓｉｇｎ,,株式会社,東京都,港区,北青山３丁目１番６号,,13,103,1070061,,,2024-04-10,合併による解散等,6120001129606,令和６年４月１日大阪市北区堂島二丁目２番２号株式会社Ｐａｃｉｆｉｃ　Ｄｉｎｅｒ　Ｓｅｒｖｉｃｅ（6120001129606）に合併し解散,2020-10-22,1,,,,,グロースデザイン,0
2525,8010501022105,登記記録の閉鎖等,0,2024-04-15,2024-04-05,トランスゲイト株式会社,,株式会社,東京都,台東区,松が谷２丁目２７番６号,,13,106,1110036,,,2024-04-05,清算の結了等,,,2015-10-05,1,,,,,,0
2531,8010801014553,登記記録の閉鎖等,0,2024-04-15,2024-04-11,パナソニックデバイスマテリアル販売株式会社,,株式会社,東京都,港区,虎ノ門２丁目６番１号,,13,103,1050001,,,2024-04-11,合併による解散等,5120001235594,令和６年４月１日大阪府門真市大字門真１００６番地パナソニックインダストリー株式会社（5120001235594）に合併し解散,2015-10-05,1,,,,,パナソニックデバイスマテリアルハンバイ,0
2557,8011103008640,登記記録の閉鎖等,0,2024-04-15,2024-04-04,合同会社ＥＳ５０,,合同会社,東京都,新宿区,下宮比町１番４号,,13,104,1620822,,,2024-04-04,清算の結了等,,,2019-03-05,1,,,,,イーエスゴジュウ,0
2558,8011103009119,登記記録の閉鎖等,0,2024-04-15,2024-04-04,合同会社ジェイ・ヴイ・ジェイ,,合同会社,東京都,新宿区,下宮比町１番４号,,13,104,1620822,,,2024-04-04,清算の結了等,,,2019-09-25,1,,,,,ジェイヴイジェイ,0
2559,8011201022691,登記記録の閉鎖等,0,2024-04-15,2024-04-12,株式会社日競セントラル,,株式会社,東京都,中野区,鷺宮１丁目２７番７号,,13,114,1650032,,,2024-04-12,清算の結了等,,,2021-01-15,1,,,,,ニッケイセントラル,0
2561,8011401013383,登記記録の閉鎖等,0,2024-04-15,2024-04-03,エムスペースデザイン株式会社,,株式会社,東京都,板橋区,徳丸２丁目２１番２９号,,13,119,1750083,,,2024-04-03,清算の結了等,,,2015-10-05,1,,,,,エムスペースデザイン,0
2590,8020002015524,登記記録の閉鎖等,0,2024-04-15,2024-04-05,有限会社ミタ・エンヂニアリング,,有限会社,神奈川県,横浜市都筑区,東方町１１９６番地１４,,14,118,2240045,,,2024-04-05,清算の結了等,,,2015-10-05,1,,,,,ミタエンヂニアリング,0
2591,8020002106199,登記記録の閉鎖等,0,2024-04-15,2024-04-08,有限会社瀬谷電装,,有限会社,神奈川県,川崎市中原区,上小田中２丁目２０番２３号,,14,133,2110053,,,2024-04-08,清算の結了等,,,2015-10-05,1,,,,,セヤデンソウ,0
2596,8021001037311,登記記録の閉鎖等,0,2024-04-15,2024-04-10,株式会社マーキングサービス,,株式会社,神奈川県,平塚市,御殿４丁目１０番１５号,,14,203,2540061,,,2024-04-10,清算の結了等,,,2015-10-05,1,,,,,マーキングサービス,0
2608,8030002000450,登記記録の閉鎖等,0,2024-04-15,2024-04-08,有限会社アラキ金型,,有限会社,埼玉県,さいたま市桜区,大字五関１３８番地２,,11,106,3380815,,,2024-04-08,清算の結了等,,,2015-10-05,1,,,,,アラキカナガタ,0
2609,8030002053341,登記記録の閉鎖等,0,2024-04-15,2024-04-05,有限会社大久保製畳,,有限会社,埼玉県,上尾市,大字平方１８４３番地,,11,219,3620059,,,2024-04-05,清算の結了等,,,2015-10-05,1,,,,,オオクボセイジョウ,0
2610,8030002088841,登記記録の閉鎖等,0,2024-04-15,2024-04-05,有限会社リブクリエイティブ,,有限会社,埼玉県,越谷市,大字大林４７０番地９,,11,222,3430021,,,2024-04-05,清算の結了等,,,2015-10-05,1,,,,,,0
2617,8040001034151,登記記録の閉鎖等,0,2024-04-15,2024-04-04,株式会社ＹＭ設備,,株式会社,千葉県,市川市,行徳駅前４丁目２０番１７号７０２室,,12,203,2720133,,,2024-04-04,清算の結了等,,,2015-10-05,1,,,,,ワイエムセツビ,0
2630,8040002026296,登記記録の閉鎖等,0,2024-04-15,2024-04-08,有限会社リキ商事,,有限会社,千葉県,船橋市,北本町１丁目１８番２棟３０１号,,12,204,2730864,,,2024-04-08,清算の結了等,,,2015-10-05,1,,,,,リキショウジ,0
2640,8060002009290,登記記録の閉鎖等,0,2024-04-15,2024-04-05,有限会社山本商事,,有限会社,栃木県,宇都宮市,細谷町６５９番地,,09,201,3200074,,,2024-04-05,清算の結了等,,,2015-10-05,1,,,,,ヤマモトショウジ,0
2665,8100002003272,登記記録の閉鎖等,0,2024-04-15,2024-04-01,有限会社テクノユニオン長野,,有限会社,長野県,長野市,若穂保科２３６６番地３,,20,201,3810102,,,2024-04-01,清算の結了等,,,2015-10-05,1,,,,,テクノユニオンナガノ,0
2666,8100002020565,登記記録の閉鎖等,0,2024-04-15,2024-04-01,有限会社タイル工房,,有限会社,長野県,松本市,大字神林４０７２番地３,,20,202,3901243,,,2024-04-01,清算の結了等,,,2015-10-05,1,,,,,タイルコウボウ,0
2669,8120001013675,登記記録の閉鎖等,0,2024-04-15,2024-04-11,株式会社丸榮商会,,株式会社,大阪府,大阪市東成区,東今里２丁目５番１４号,,27,115,5370011,,,2024-04-11,清算の結了等,,,2015-10-05,1,,,,,マルエイショウカイ,0
2672,8120001160071,登記記録の閉鎖等,0,2024-04-15,2024-04-08,富士通ＩＴマネジメントパートナー株式会社,,株式会社,大阪府,大阪市北区,天満橋１丁目８番３０号ＯＡＰタワー,,27,127,5300042,,,2024-04-08,合併による解散等,1020001071491,令和６年４月１日川崎市中原区上小田中四丁目１番１号富士通株式会社（1020001071491）に合併し解散,2015-10-05,1,,,,,フジツウアイティーマネジメントパートナー,0
2677,8120001208762,登記記録の閉鎖等,0,2024-04-15,2024-04-08,Ｔｉキクザキ株式会社,,株式会社,大阪府,大阪市浪速区,日本橋東３丁目１４番１０－２０６号,,27,111,5560006,,,2024-04-08,清算の結了等,,,2017-10-06,1,,,,,ティーアイキクザキ,0
2678,8120001246944,登記記録の閉鎖等,0,2024-04-15,2024-04-09,ウィンドパワーソリューションズ株式会社,,株式会社,大阪府,大阪市住之江区,南港北２丁目１番１０号ＡＴＣビルＩＴＭ棟５階,,27,125,5590034,,,2024-04-09,清算の結了等,,,2022-06-27,1,,,,,ウィンドパワーソリューションズ,0
2702,8130001010259,登記記録の閉鎖等,0,2024-04-15,2024-04-11,株式会社桂通商,,株式会社,京都府,京都市南区,上鳥羽麻ノ本町１８番地,,26,107,6018143,,,2024-04-11,合併による解散等,7120901009617,令和６年４月１日大阪市淀川区西中島四丁目１３番２２号大拓ビル１７エア・ウォーターＬＩＮＥ株式会社（7120901009617）に合併し解散,2015-10-05,1,,,,,カツラツウショウ,0
2724,8140002050641,登記記録の閉鎖等,0,2024-04-15,2024-04-08,有限会社フジ美術店,,有限会社,兵庫県,姫路市,北原２７３番地５,,28,201,6728002,,,2024-04-08,清算の結了等,,,2015-10-05,1,,,,,フジビジュツテン,0
2731,8140005001930,登記記録の閉鎖等,0,2024-04-15,2024-04-12,医療法人社団皓歯会,,その他の設立登記法人,兵庫県,神戸市北区,有野中町２丁目１６番２５号,,28,109,6511313,,,2024-04-12,清算の結了等,,,2015-10-05,1,,,,,コウシカイ,0
2740,8180001059110,登記記録の閉鎖等,0,2024-04-15,2024-04-01,トーテックフロンティア株式会社,,株式会社,愛知県,名古屋市西区,名駅２丁目２７番８号,,23,104,4510045,,,2024-04-01,合併による解散等,1180001049613,令和６年４月１日名古屋市中区栄二丁目２番１７号株式会社シスラボ（1180001049613）に合併し解散,2015-10-05,1,,,,,トーテックフロンティア,0
2761,8230001008961,登記記録の閉鎖等,0,2024-04-15,2024-04-08,共栄ソーイング株式会社,,株式会社,富山県,小矢部市,石坂５０４番地の１,,16,209,9320835,,,2024-04-08,清算の結了等,,,2015-10-05,1,,,,,キョウエイソーイング,0
2791,8330001012565,登記記録の閉鎖等,0,2024-04-15,2024-04-03,株式会社九州ブランド農業,,株式会社,熊本県,熊本市北区,植木町滴水４４８番地２,,43,105,8610133,,,2024-04-03,清算の結了等,,,2015-10-05,1,,,,,キュウシュウブランドノウギョウ,0
2798,8340002024559,登記記録の閉鎖等,0,2024-04-15,2024-04-08,有限会社岡元製茶工場,,有限会社,鹿児島県,南九州市,頴娃町上別府８２６５番地１,,46,223,8910705,,,2024-04-08,清算の結了等,,,2015-10-05,1,,,,,オカモトセイチャコウジョウ,0
2827,8420001018504,登記記録の閉鎖等,0,2024-04-15,2024-04-03,株式会社ワールド緑化,,株式会社,青森県,南津軽郡大鰐町,大字唐牛字沼田１４８番地２,,02,362,0380204,,,2024-04-03,清算の結了等,,,2023-12-08,1,,,,,ワールドリョクカ,0
2838,8470001014077,登記記録の閉鎖等,0,2024-04-15,2024-04-04,Ｓ＆Ａプランニング株式会社,,株式会社,香川県,高松市,十川西町２８２番地１フロンティアハイツＥ２０２号室,,37,201,7610433,,,2024-04-04,清算の結了等,,,2015-10-05,1,,,,,エスアンドエープランニング,0
2841,8470002019406,登記記録の閉鎖等,0,2024-04-15,2024-04-01,有限会社隆行,,有限会社,香川県,小豆郡土庄町,淵崎甲２０３９番地１,,37,322,7614121,,,2024-04-01,合併による解散等,1470001012228,令和６年４月１日香川県小豆郡土庄町小馬越甲８２番地美島自動車株式会社（1470001012228）に合併し解散,2015-10-05,1,,,,,タカユキ,0
2848,9010001036546,登記記録の閉鎖等,0,2024-04-15,2024-04-02,株式会社麻生商店,,株式会社,東京都,中央区,月島４丁目６番１０号,,13,102,1040052,,,2024-04-02,清算の結了等,,,2015-10-05,1,,,,,アソウショウテン,0
2853,9010001203006,登記記録の閉鎖等,0,2024-04-15,2024-04-08,Ｉ＆Ｔ　Ｍａｒｋｅｔｉｎｇ株式会社,,株式会社,神奈川県,横浜市中区,小港町３丁目１７０番地２グランテム本牧６０４,,14,104,2310802,,,2024-04-08,清算の結了等,,,2019-08-06,1,,,,,アイアンドティーマーケティング,0
2862,9010003029028,登記記録の閉鎖等,0,2024-04-15,2024-04-02,合同会社トランクハウス２４,,合同会社,東京都,千代田区,平河町１丁目６番１５号シルスフィア会計事務所内,,13,101,1020093,,,2024-04-02,清算の結了等,,,2019-01-08,1,,,,,トランクハウスニジュウヨン,0
2871,9010401065574,登記記録の閉鎖等,0,2024-04-15,2024-04-09,応用アール・エム・エス株式会社,,株式会社,東京都,文京区,小石川１丁目１番１７号日本生命春日駅前ビル３階,,13,105,1120002,,,2024-04-09,合併による解散等,2010001034531,令和６年４月１日東京都千代田区神田美土代町７番地応用地質株式会社（2010001034531）に合併し解散,2015-10-05,1,OYORMS Corporation,,,,オウヨウアールエムエス,0
2877,9010401094945,登記記録の閉鎖等,0,2024-04-15,2024-04-01,物産ロジスティクスソリューションズ株式会社,,株式会社,東京都,港区,西新橋１丁目１番１号日比谷フォートタワー,,13,103,1050003,,,2024-04-01,合併による解散等,5010001043281,令和６年４月１日東京都港区西新橋一丁目１番１号三井物産流通グループ株式会社（5010001043281）に合併し解散,2015-10-05,1,,,,,ブッサンロジスティクスソリューションズ,0
2887,9010405019766,登記記録の閉鎖等,0,2024-04-15,2024-04-03,アルゴＯＴ第１号特定目的会社,,その他の設立登記法人,東京都,港区,西新橋２丁目８番６号,,13,103,1050003,,,2024-04-03,清算の結了等,,,2021-04-27,1,,,,,アルゴオーティダイイチゴウ,0
2891,9010801008042,登記記録の閉鎖等,0,2024-04-15,2024-04-01,東栄スチール工業株式会社,,株式会社,東京都,品川区,南大井３丁目２８番１５号,,13,109,1400013,,,2024-04-01,合併による解散等,8010801002896,令和６年４月１日東京都品川区南大井三丁目２８番１５号共栄工業株式会社（8010801002896）に合併し解散,2015-10-05,1,,,,,トウエイスチールコウギョウ,0
2897,9011001040083,登記記録の閉鎖等,0,2024-04-15,2024-04-02,日本ペイメント・テクノロジー株式会社,,株式会社,東京都,港区,西新橋１丁目１番１号,,13,103,1050003,,,2024-04-02,合併による解散等,3010401088688,令和６年４月１日東京都港区西新橋一丁目１番１号株式会社ビジネスブレイン太田昭和（3010401088688）に合併し解散,2015-10-05,1,,,,,ニホンペイメントテクノロジー,0
2899,9011001133291,登記記録の閉鎖等,0,2024-04-15,2024-04-05,株式会社ＭａｉｔＨ,,株式会社,神奈川県,横浜市旭区,若葉台４丁目８番３０４号,,14,112,2410801,,,2024-04-05,清算の結了等,,,2020-04-07,1,,,,,メイス,0
2911,9011103008986,登記記録の閉鎖等,0,2024-04-15,2024-04-04,合同会社ジェイ・ヴイ・エイチ,,合同会社,東京都,新宿区,下宮比町１番４号,,13,104,1620822,,,2024-04-04,清算の結了等,,,2019-08-01,1,,,,,ジェイヴイエイチ,0
2928,9012402013677,登記記録の閉鎖等,0,2024-04-15,2024-03-28,有限会社ビック三幸舎,,有限会社,東京都,渋谷区,元代々木町４番５号,,13,113,1510062,,,2024-03-28,清算の結了等,,,2015-10-05,1,,,,,ビックサンコウシャ,0
2942,9013301040746,登記記録の閉鎖等,0,2024-04-15,2024-04-03,株式会社ｍｏｋｒｏｍ,,株式会社,東京都,豊島区,巣鴨１丁目９番１号グランド東邦ビル１階,,13,116,1700002,,,2024-04-03,清算の結了等,,,2017-06-29,1,,,,,モクロム,0
2954,9020003007305,登記記録の閉鎖等,0,2024-04-15,2024-04-08,アシスト倶楽部合同会社,,合同会社,神奈川県,川崎市多摩区,布田２９番１０号,,14,135,2140011,,,2024-04-08,清算の結了等,,,2015-10-05,1,,,,,アシストクラブ,0
2956,9020003015877,登記記録の閉鎖等,0,2024-04-15,2024-04-08,ブラックダイアリー合同会社,,合同会社,神奈川県,川崎市川崎区,港町４番１号,,14,131,2100807,,,2024-04-08,清算の結了等,,,2019-04-10,1,,,,,ブラックダイアリー,0
2963,9021001037046,登記記録の閉鎖等,0,2024-04-15,2024-04-09,日本テクノプラン株式会社,,株式会社,神奈川県,平塚市,西真土１丁目４番７号,,14,203,2540019,,,2024-04-09,清算の結了等,,,2015-10-05,1,,,,,ニホンテクノプラン,0
2969,9021002022105,登記記録の閉鎖等,0,2024-04-15,2024-04-11,有限会社高橋商店,,有限会社,神奈川県,相模原市中央区,田名５３９２番地,,14,152,2520244,,,2024-04-11,清算の結了等,,,2015-10-05,1,,,,,タカハシショウテン,0
2988,9040001047664,登記記録の閉鎖等,0,2024-04-15,2024-04-04,株式会社高柳商店,00019128,株式会社,千葉県,八街市,八街ほ３０７番地,,12,230,2891115,,,2024-04-04,清算の結了等,,,2015-10-05,1,,,,,タカヤナギショウテン,0
2997,9040002006941,登記記録の閉鎖等,0,2024-04-15,2024-04-04,有限会社たけしま,,有限会社,千葉県,千葉市花見川区,柏井１丁目２６番２号,,12,102,2620048,,,2024-04-04,清算の結了等,,,2015-10-05,1,,,,,タケシマ,0
3001,9040003004069,登記記録の閉鎖等,0,2024-04-15,2024-04-03,合同会社ＭＳパートナーズ,,合同会社,千葉県,柏市,布施新町２丁目１６番７号,,12,217,2770823,,,2024-04-03,清算の結了等,,,2015-10-05,1,,,,,エムエスパートナーズ,0
3012,9070001021856,登記記録の閉鎖等,0,2024-04-15,2024-04-10,大幸精密成型株式会社,,株式会社,群馬県,邑楽郡明和町,川俣２３４番地の１,,10,522,3700716,,,2024-04-10,清算の結了等,,,2015-10-05,1,,,,,,0
3016,9080001022358,登記記録の閉鎖等,0,2024-04-15,2024-04-04,株式会社Ｗｉｚｅｌｅｙ　Ｉｎｔｅｒｎａｔｉｏｎａｌ　Ｊａｐａｎ,,株式会社,静岡県,藤枝市,前島１丁目９番３４号,,22,214,4260067,,,2024-04-04,合併による解散等,8080001015536,令和６年４月１日静岡県焼津市上新田１０１９番地環境のミカタ株式会社（8080001015536）に合併し解散,2018-08-03,1,,,,,ウィズリーインターナショナルジャパン,0
3029,9100001022751,登記記録の閉鎖等,0,2024-04-15,2024-04-01,株式会社マックスドリーム,,株式会社,長野県,飯田市,北方８１３番地１,,20,205,3950151,,,2024-04-01,合併による解散等,8100001025169,令和６年４月１日長野県飯田市上郷別府３３３７番地１１株式会社あずさ（8100001025169）に合併し解散,2015-10-05,1,,,,,マックスドリーム,0
3031,9100002016983,登記記録の閉鎖等,0,2024-04-15,2024-04-01,有限会社阿藤ふとん店,,有限会社,長野県,飯山市,大字常郷１０番地の４,,20,213,3892412,,,2024-04-01,清算の結了等,,,2015-10-05,1,,,,,アトウフトンテン,0
3032,9100002037749,登記記録の閉鎖等,0,2024-04-15,2024-04-01,有限会社三国屋,,有限会社,長野県,飯田市,北方８１３番地１,,20,205,3950151,,,2024-04-01,合併による解散等,8100001025169,令和６年４月１日長野県飯田市上郷別府３３３７番地１１株式会社あずさ（8100001025169）に合併し解散,2015-10-05,1,,,,,ミクニヤ,0
3036,9120001041766,登記記録の閉鎖等,0,2024-04-15,2024-04-09,株式会社エスビーリビング,,株式会社,大阪府,大阪市中央区,久太郎町３丁目１番２９号,,27,128,5410056,,,2024-04-09,合併による解散等,6011001068482,令和６年４月１日東京都渋谷区神南一丁目１９番４号日本生命渋谷アネックスビル６階ＭＮスタイル株式会社（6011001068482）に合併し解散,2015-10-05,1,,,,,エスビーリビング,0
3037,9120001057399,登記記録の閉鎖等,0,2024-04-15,2024-04-08,株式会社ナニワ屋酒店,,株式会社,大阪府,大阪市淀川区,東三国２丁目７番５号,,27,123,5320002,,,2024-04-08,清算の結了等,,,2015-10-05,1,,,,,ナニワヤサケテン,0
3073,9140003006385,登記記録の閉鎖等,0,2024-04-15,2024-04-12,合同会社スノーマウンテン,,合同会社,兵庫県,高砂市,中筋５丁目１４番１９号,,28,216,6760812,,,2024-04-12,清算の結了等,,,2015-10-05,1,,,,,スノーマウンテン,0
3074,9140003011071,登記記録の閉鎖等,0,2024-04-15,2024-04-09,合同会社レッドストリング,,合同会社,兵庫県,神戸市中央区,雲井通１丁目１番１－２１１号,,28,110,6510096,,,2024-04-09,清算の結了等,,,2015-12-02,1,,,,,レッドストリング,0
3078,9140005004734,登記記録の閉鎖等,0,2024-04-15,2024-04-09,特定非営利活動法人　オーガニック・ライフ・コラボレーション,,その他の設立登記法人,兵庫県,神戸市北区,大沢町中大沢９９７,,28,109,6511524,,,2024-04-09,清算の結了等,,,2015-10-05,1,,,,,オーガニックライフコラボレーション,0
3085,9170002001855,登記記録の閉鎖等,0,2024-04-15,2024-04-09,有限会社アトリエＺＯＮＥ,,有限会社,和歌山県,和歌山市,紀三井寺６３７番地の８,,30,201,6410012,,,2024-04-09,清算の結了等,,,2015-10-05,1,,,,,アトリエゾーン,0
3087,9180001064919,登記記録の閉鎖等,0,2024-04-15,2024-04-01,日正工業株式会社,,株式会社,愛知県,名古屋市港区,大手町４丁目２８番地の３,,23,111,4550046,,,2024-04-01,清算の結了等,,,2015-10-05,1,,,,,ニッショウコウギョウ,0
3115,9220001000407,登記記録の閉鎖等,0,2024-04-15,2024-04-08,高橋硝子建材株式会社,,株式会社,石川県,野々市市,御経塚３丁目７５番地,,17,212,9218801,,,2024-04-08,合併による解散等,3010501030079,令和６年４月１日東京都墨田区本所四丁目１９番３号本所吾妻橋ＤＪビル４階日本板硝子Ｓ＆Ｓ株式会社（3010501030079）に合併し解散,2015-10-05,1,,,,,,0
3164,9420002011127,登記記録の閉鎖等,0,2024-04-15,2024-04-05,有限会社斉藤技建,,有限会社,青森県,五所川原市,大字広田字榊森５４番地６６,00087668,02,205,0370023,,,2024-04-05,清算の結了等,,,2015-10-05,1,,,,,サイトウギケン,0
3165,9430002046502,登記記録の閉鎖等,0,2024-04-15,2024-04-03,有限会社山下農産,,有限会社,北海道,石狩郡当別町,字東裏１９７３番地,,01,303,0610213,,,2024-04-03,清算の結了等,,,2015-10-05,1,,,,,ヤマシタノウサン,0
