sequenceNumber,corporateNumber,process,correct,updateDate,changeDate,name,nameImageId,kind,prefectureName,cityName,streetNumber,addressImageId,prefectureCode,cityCode,postCode,addressOutside,addressOutsideImageId,closeDate,closeCause,successorCorporateNumber,changeCause,assignmentDate,latest,enName,enPrefectureName,enCityName,enAddressOutside,furigana,hihyoji
10,1010001226237,新規,0,2022-05-02,2022-05-02,株式会社ＫＣクラシック,,株式会社,東京都,千代田区,神田松永町１３番地ＶＯＲＴ秋葉原ＩＩ,00126450,13,101,1010023,,,,,,,2022-05-02,1,,,,,ケーシークラシック,0
11,1010001226261,新規,0,2022-05-02,2022-05-02,株式会社ライフスパン,,株式会社,東京都,千代田区,神田司町２丁目９番地,,13,101,1010048,,,,,,,2022-05-02,1,,,,,ライフスパン,0
30,1010401166982,新規,0,2022-05-02,2022-05-02,株式会社ＪＴＯＷＥＲ　Ｉｎｆｒａｓｔｒｕｃｔｕｒｅ　Ｈｏｌｄｉｎｇｓ,,株式会社,東京都,港区,赤坂８丁目５番４１号,,13,103,1070052,,,,,,,2022-05-02,1,,,,,ジェイタワーインフラストラクチャーホールディングス,0
31,1010401167031,新規,0,2022-05-02,2022-05-02,株式会社Ｐｅａｃｅ　Ｗｏｒｋｓ,,株式会社,東京都,港区,北青山３丁目５番１７－９０１号,,13,103,1070061,,,,,,,2022-05-02,1,,,,,ピースワークス,0
32,1010401167048,新規,0,2022-05-02,2022-05-02,株式会社ＪＵ　ＭＯＮ,,株式会社,東京都,港区,赤坂３丁目１１番１４号,,13,103,1070052,,,,,,,2022-05-02,1,,,,,ジュモン,0
33,1010401167072,新規,0,2022-05-02,2022-05-02,株式会社ＷＬＣインターナショナル,,株式会社,東京都,港区,西新橋１丁目２番９号日比谷セントラルビル１４Ｆ,,13,103,1050003,,,,,,,2022-05-02,1,,,,,ダブリューエルシーインターナショナル,0
34,1010401167106,新規,0,2022-05-02,2022-05-02,ＥＲ２０株式会社,,株式会社,東京都,港区,六本木１丁目６番１号,,13,103,1060032,,,,,,,2022-05-02,1,,,,,イーアールトゥエンティー,0
35,1010401167122,新規,0,2022-05-02,2022-05-02,ＧｉＧｉアセットマネジメント株式会社,,株式会社,東京都,港区,南青山２丁目３番３－１３０８号,,13,103,1070062,,,,,,,2022-05-02,1,,,,,ジジアセットマネジメント,0
37,1010403027563,新規,0,2022-05-02,2022-05-02,合同会社アニメテック,,合同会社,東京都,港区,浜松町２丁目２番１５号浜松町ダイヤビル２Ｆ,,13,103,1050013,,,,,,,2022-05-02,1,,,,,アニメテック,0
38,1010403027596,新規,0,2022-05-02,2022-05-02,ＰＲＩＮＣＥＴＯＮ　ＤＩＧＩＴＡＬ　ＧＲＯＵＰ　ＪＡＰＡＮ　ＭＡＮＡＧＥＭＥＮＴ合同会社,,合同会社,東京都,港区,六本木７丁目７番７号トライセブンロッポンギ８階,,13,103,1060032,,,,,,,2022-05-02,1,,,,,プリンストンデジタルグループジャパンマネジメント,0
40,1010501048775,新規,0,2022-05-02,2022-05-02,株式会社まるのこ,,株式会社,東京都,台東区,東上野５丁目２４番１１号ＬＡＬＡ上野２０１号室,,13,106,1100015,,,,,,,2022-05-02,1,,,,,マルノコ,0
42,1010603009510,新規,0,2022-05-02,2022-05-02,合同会社ライトハーツ,,合同会社,東京都,墨田区,錦糸３丁目１２番８－７０２号,,13,107,1300013,,,,,,,2022-05-02,1,,,,,ライトハーツ,0
45,1010801032925,新規,0,2022-05-02,2022-05-02,株式会社Ｍｏｎｏｃｌｅ,,株式会社,東京都,大田区,田園調布３丁目３－１,,13,111,1450071,,,,,,,2022-05-02,1,,,,,,0
73,1011401024206,新規,0,2022-05-02,2022-05-02,株式会社飛彈総合商事,,株式会社,東京都,板橋区,東坂下２丁目１６－１０,,13,119,1740042,,,,,,,2022-05-02,1,,,,,ヒダソウゴウショウジ,0
75,1011701025275,新規,0,2022-05-02,2022-05-02,株式会社ＬＥＡＤ’ｓ,,株式会社,東京都,江戸川区,西小岩３丁目３６番１８号６０２,,13,123,1330057,,,,,,,2022-05-02,1,,,,,リーズ,0
79,1011803005068,新規,0,2022-05-02,2022-05-02,合同会社笑心,,合同会社,東京都,足立区,梅田１丁目３３番４号コリビングハウス梅島ＩＩ２０１,00126444,13,121,1230851,,,,,,,2022-05-02,1,,,,,ワゴコロ,0
81,1012403005350,新規,0,2022-05-02,2022-05-02,アザースジャパン合同会社,,合同会社,東京都,調布市,柴崎１丁目２６番地３０,,13,208,1820014,,,,,,,2022-05-02,1,,,,,アザースジャパン,0
82,1012703002452,新規,0,2022-05-02,2022-05-02,合同会社ハートプロダクト,,合同会社,東京都,西東京市,ひばりが丘北３丁目１番１６号,,13,229,2020002,,,,,,,2022-05-02,1,,,,,ハートプロダクト,0
84,1012801021536,新規,0,2022-05-02,2022-05-02,株式会社ＦＲＥＥＤＯＭ,,株式会社,東京都,武蔵村山市,伊奈平６丁目４１－８,,13,223,2080023,,,,,,,2022-05-02,1,,,,,,0
89,1020001146351,新規,0,2022-05-02,2022-05-02,株式会社ユウキ,,株式会社,神奈川県,横浜市戸塚区,上矢部町４４０番地１,,14,110,2450053,,,,,,,2022-05-02,1,,,,,ユウキ,0
95,1021003011650,新規,0,2022-05-02,2022-05-02,合同会社長後東口コンタクト,,合同会社,神奈川県,藤沢市,下土棚４６７－９山口ビル３Ｆ,,14,205,2520807,,,,,,,2022-05-02,1,,,,,チョウゴヒガシグチコンタクト,0
104,1030001148000,新規,0,2022-05-02,2022-05-02,株式会社Ｕ．Ｖｉｃ,,株式会社,埼玉県,熊谷市,柿沼９１６番地１２,,11,202,3600803,,,,,,,2022-05-02,1,,,,,ユービック,0
105,1030001148009,新規,0,2022-05-02,2022-05-02,株式会社サンクル,,株式会社,埼玉県,坂戸市,花影町８番３７号,,11,239,3500236,,,,,,,2022-05-02,1,,,,,サンクル,0
114,1040001123217,新規,0,2022-05-02,2022-05-02,ＤＩＡ不動産株式会社,,株式会社,千葉県,習志野市,津田沼７丁目１０－８－１０２,,12,216,2750016,,,,,,,2022-05-02,1,,,,,ディーアイエーフドウサン,0
115,1040001123233,新規,0,2022-05-02,2022-05-02,株式会社東正,,株式会社,千葉県,八千代市,八千代台東３丁目２３－２－１Ｆ,,12,221,2760032,,,,,,,2022-05-02,1,,,,,トウセイ,0
122,1050001051037,新規,0,2022-05-02,2022-05-02,未来報酬株式会社,,株式会社,茨城県,つくば市,吾妻２丁目５番地１,,08,220,3050031,,,,,,,2022-05-02,1,,,,,ミライホウシュウ,0
130,1080001024907,新規,0,2022-05-02,2022-05-02,株式会社ＫｉＺｅｎ,,株式会社,静岡県,静岡市駿河区,小鹿１５９４－９,,22,102,4228021,,,,,,,2022-05-02,1,,,,,キゼン,0
134,1080005007453,新規,0,2022-05-02,2022-05-02,一般社団法人Ｂａｓｅｂａｌｌ　Ｌａｂｏ　ＳＨＩＺＵＯＫＡ,,その他の設立登記法人,静岡県,静岡市葵区,紺屋町１７番地の１葵タワー１階,,22,101,4200852,,,,,,,2022-05-02,1,,,,,ベースボールラボシズオカ,0
138,1080403004531,新規,0,2022-05-02,2022-05-02,ＦＯＲＥＡＵ合同会社設立,,合同会社,静岡県,浜松市中区,領家３丁目６番１９号,,22,131,4300852,,,,,,,2022-05-02,1,,,,,フォロー,0
141,1100001035298,新規,0,2022-05-02,2022-05-02,株式会社尚工業,,株式会社,長野県,南佐久郡佐久穂町,大字平林１７２番地,,20,309,3840611,,,,,,,2022-05-02,1,,,,,タカコウギョウ,0
146,1110001036626,新規,0,2022-05-02,2022-05-02,株式会社東青山不動産,,株式会社,新潟県,新潟市西区,東青山２丁目８番９号,,15,107,9502003,,,,,,,2022-05-02,1,,,,,,0
161,1120001245564,新規,0,2022-05-02,2022-05-02,ＨＹＵ株式会社,,株式会社,大阪府,大阪市天王寺区,細工谷１丁目４番１８号,,27,109,5430032,,,,,,,2022-05-02,1,,,,,ヒュー,0
162,1120001245597,新規,0,2022-05-02,2022-05-02,株式会社ＩＮＳＵ,,株式会社,大阪府,大阪市西淀川区,出来島１丁目６番２３号,,27,113,5550031,,,,,,,2022-05-02,1,,,,,インス,0
167,1120101065499,新規,0,2022-05-02,2022-05-02,株式会社前原工務店,,株式会社,大阪府,堺市北区,中村町１２６７番地１,,27,146,5918012,,,,,,,2022-05-02,1,,,,,マエハラコウムテン,0
168,1120101065508,新規,0,2022-05-02,2022-05-02,Ｄｉｃｔｉｏｎａｒｙ株式会社,,株式会社,大阪府,堺市堺区,車之町東２丁１番７－２号,,27,141,5900943,,,,,,,2022-05-02,1,,,,,ディクショナリー,0
169,1120103004678,新規,0,2022-05-02,2022-05-02,合同会社ツリープロテクション,,合同会社,大阪府,河内長野市,中片添町２２番２号,,27,216,5860046,,,,,,,2022-05-02,1,,,,,ツリープロテクション,0
171,1120901045907,新規,0,2022-05-02,2022-05-02,株式会社Ｐｅｒｆｅｃｔ　Ｄａｙ,,株式会社,大阪府,箕面市,船場西２丁目１０番４９号,,27,220,5620036,,,,,,,2022-05-02,1,,,,,パーフェクトデイ,0
172,1120903004134,新規,0,2022-05-02,2022-05-02,合同会社パナケイマ,,合同会社,大阪府,吹田市,藤白台１丁目１番３１－３０４号,,27,205,5650873,,,,,,,2022-05-02,1,,,,,パナケイマ,0
179,1130001071605,新規,0,2022-05-02,2022-05-02,株式会社オンリージェネラル,,株式会社,京都府,京都市伏見区,深草平田町２６番地１６,,26,109,6120019,,,,,,,2022-05-02,1,,,,,オンリージェネラル,0
180,1130001071670,新規,0,2022-05-02,2022-05-02,Ｓ・Ａパートナーズ株式会社,,株式会社,京都府,京都市下京区,寺町通五条上る西橋詰町７８４番地デ・リード河原町１３０１,,26,106,6008029,,,,,,,2022-05-02,1,,,,,エスエーパートナーズ,0
187,1140001125814,新規,0,2022-05-02,2022-05-02,株式会社ＢＵＫＩＫＯ,,株式会社,兵庫県,加西市,北条町北条９５３番地,,28,220,6752312,,,,,,,2022-05-02,1,,,,,ブキコ,0
188,1140001125839,新規,0,2022-05-02,2022-05-02,株式会社ゆう久,,株式会社,兵庫県,西宮市,甲子園口１丁目１０番１３号,,28,204,6638113,,,,,,,2022-05-02,1,,,,,ユウキュウ,0
189,1140001125855,新規,0,2022-05-02,2022-05-02,株式会社Ｄｅａｒ,,株式会社,兵庫県,神戸市兵庫区,浜中町２丁目１１番１０号,,28,105,6520875,,,,,,,2022-05-02,1,,,,,ディア,0
191,1140003017638,新規,0,2022-05-02,2022-05-02,大志総合合同会社,,合同会社,兵庫県,神戸市垂水区,星陵台１丁目３番２１号,,28,108,6550038,,,,,,,2022-05-02,1,,,,,タイシソウゴウ,0
193,1160001024163,新規,0,2022-05-02,2022-05-02,株式会社ＭＧＤ,,株式会社,滋賀県,大津市,におの浜３丁目４－４０,,25,201,5200801,,,,,,,2022-05-02,1,,,,,エムジーディー,0
207,1180001151096,新規,0,2022-05-02,2022-05-02,株式会社リアルドメイト,,株式会社,愛知県,名古屋市中村区,名駅４丁目２４番１６号広小路ガーデンアベニュー,,23,105,4500002,,,,,,,2022-05-02,1,,,,,リアルドメイト,0
212,1180003023764,新規,0,2022-05-02,2022-05-02,ＩＲＦＡＮ工業合同会社,,合同会社,愛知県,一宮市,和光１丁目６番８号,,23,203,4910026,,,,,,,2022-05-02,1,,,,,イルファンコウギョウ,0
213,1180005019760,新規,0,2022-05-02,2022-05-02,一般社団法人ファミリーサポートコーチング協会,,その他の設立登記法人,愛知県,江南市,飛高町栄１９２番地青山マンション３０２,,23,217,4838339,,,,,,,2022-05-02,1,,,,,ファミリーサポートコーチングキョウカイ,0
214,1180301036187,新規,0,2022-05-02,2022-05-02,株式会社Ｌ,,株式会社,愛知県,豊田市,若林東町石根５６番地,,23,211,4730914,,,,,,,2022-05-02,1,,,,,,0
217,1190003003963,新規,0,2022-05-02,2022-05-02,合同会社まるみ商店,,合同会社,三重県,北牟婁郡紀北町,便ノ山３８７番地,,24,543,5193408,,,,,,,2022-05-02,1,,,,,マルミショウテン,0
225,1240001059696,新規,0,2022-05-02,2022-05-02,株式会社道仲,,株式会社,広島県,広島市中区,胡町３番２３号,,34,101,7300021,,,,,,,2022-05-02,1,,,,,ドウチュウ,0
232,1250003003057,新規,0,2022-05-02,2022-05-02,合同会社ｓｅｃｏ‐ｎｄ,,合同会社,山口県,下関市,豊浦町大字小串３９６番地,,35,201,7596302,,,,,,,2022-05-02,1,,,,,セカンド,0
233,1260001036818,新規,0,2022-05-02,2022-05-02,株式会社Ｏ’ｓカンパニー,,株式会社,岡山県,倉敷市,中畝６丁目８番１３号,,33,202,7128051,,,,,,,2022-05-02,1,,,,,オズカンパニー,0
239,1290001097386,新規,0,2022-05-02,2022-05-02,株式会社空ファーム,,株式会社,福岡県,筑紫野市,上古賀４丁目１６番７号,,40,217,8180041,,,,,,,2022-05-02,1,,,,,ソラファーム,0
240,1290001097394,新規,0,2022-05-02,2022-05-02,株式会社リザレクション,,株式会社,福岡県,糟屋郡篠栗町,大字乙犬９７０－５,,40,342,8112412,,,,,,,2022-05-02,1,,,,,リザレクション,0
242,1290003012467,新規,0,2022-05-02,2022-05-02,合同会社オカモトプラン,,合同会社,福岡県,福岡市博多区,中洲２丁目１番１１号プレイスポットしんばしビル本館１Ｆ,,40,132,8100801,,,,,,,2022-05-02,1,,,,,オカモトプラン,0
253,1340005009456,新規,0,2022-05-02,2022-05-02,一般社団法人鹿児島県商工会議所連合会,,その他の設立登記法人,鹿児島県,鹿児島市,東千石町１番３８号,,46,201,8920842,,,,,,,2022-05-02,1,,,,,カゴシマケンショウコウカイギショレンゴウカイ,0
254,1360001030323,新規,0,2022-05-02,2022-05-02,株式会社Ｐｉｆ,,株式会社,沖縄県,石垣市,字宮良９４番地１,,47,207,9070243,,,,,,,2022-05-02,1,,,,,ピフ,0
256,1360003011981,新規,0,2022-05-02,2022-05-02,とうやファーム合同会社,,合同会社,沖縄県,豊見城市,字保栄茂１６８番地,,47,212,9010214,,,,,,,2022-05-02,1,,,,,,0
270,1430003013839,新規,0,2022-05-02,2022-05-02,合同会社Ｇ．エフェクト,,合同会社,北海道,札幌市清田区,平岡四条３丁目４－２８コルティーレ・スード２０２号,,01,110,0040874,,,,,,,2022-05-02,1,,,,,ジーエフェクト,0
282,1700150107812,新規,0,2022-05-02,2022-04-11,ジャグリング・ユニット・フラトレス,,その他,大阪府,茨木市,大手町１番５号オーティーハイツ茨木３０１号室,,27,211,5670883,,,,,,,2022-04-11,1,,,,,ジヤグリングユニツトフラトレス,0
298,2010001226211,新規,0,2022-05-02,2022-05-02,Ａｚｕｒｅ　Ｉｎｔｅｒｎａｔｉｏｎａｌ　Ｊａｐａｎ株式会社,,株式会社,東京都,中央区,銀座３丁目１０番９号ＫＥＣ銀座ビル８階マクシブ総合会計事務所内,,13,102,1040061,,,,,,,2022-05-02,1,,,,,アジュールインターナショナルジャパン,0
299,2010001226252,新規,0,2022-05-02,2022-05-02,株式会社松山,,株式会社,東京都,中央区,銀座６丁目５番１６号三楽ビル５階,,13,102,1040061,,,,,,,2022-05-02,1,,,,,マツヤマ,0
300,2010001226392,新規,0,2022-05-02,2022-05-02,メタシステムズ株式会社,,株式会社,東京都,中央区,銀座１丁目１２番４号Ｎ＆ＥＢＬＤ．７階,,13,102,1040061,,,,,,,2022-05-02,1,,,,,メタシステムズ,0
318,2010401167039,新規,0,2022-05-02,2022-05-02,ＰＡＮＪＩＮＡ株式会社,,株式会社,東京都,港区,南青山２丁目２番１５号,,13,103,1070062,,,,,,,2022-05-02,1,,,,,パンジーナ,0
319,2010401167047,新規,0,2022-05-02,2022-05-02,有限株式会社,,株式会社,東京都,港区,西麻布１丁目１５－１６,,13,103,1060031,,,,,,,2022-05-02,1,,,,,ユウゲン,0
320,2010401167055,新規,0,2022-05-02,2022-05-02,株式会社ＣＲＯＳＳ　ＥＤＧＥ,,株式会社,東京都,港区,赤坂８丁目４－１４青山タワープレイス８Ｆ,,13,103,1070052,,,,,,,2022-05-02,1,,,,,クロスエッジ,0
321,2010401167105,新規,0,2022-05-02,2022-05-02,ＥＲ１９株式会社,,株式会社,東京都,港区,六本木１丁目６番１号,,13,103,1060032,,,,,,,2022-05-02,1,,,,,イーアールナインティーン,0
327,2010403027447,新規,0,2022-05-02,2022-05-02,合同会社ＧｏｏｆｙＧｏｏｂｙ,,合同会社,東京都,港区,南青山３丁目３－３リビエラ南青山ビルＡＷＯＲＫＩＮＧＰＡＲＫＥＮ,,13,103,1070062,,,,,,,2022-05-02,1,,,,,グーフィグービィ,0
328,2010403027570,新規,0,2022-05-02,2022-05-02,藤城不動産管理合同会社,,合同会社,東京都,港区,海岸１丁目９番１５－１４０６号,,13,103,1050022,,,,,,,2022-05-02,1,,,,,フジシロフドウサンカンリ,0
329,2010405020821,新規,0,2022-05-02,2022-05-02,一般社団法人日本フードフォトグラファー協会,,その他の設立登記法人,東京都,港区,麻布十番２丁目２１番６号アクシア麻布７０６,,13,103,1060045,,,,,,,2022-05-02,1,,,,,ニホンフードフォトグラファーキョウカイ,0
332,2010501048782,新規,0,2022-05-02,2022-05-02,ＪＳＪ株式会社,,株式会社,東京都,台東区,浅草１丁目１２番８号,,13,106,1110032,,,,,,,2022-05-02,1,,,,,ジェイエスジェイ,0
338,2010801032924,新規,0,2022-05-02,2022-05-02,株式会社ＢＡＲＯＱＵＥＷＯＲＫＳ,,株式会社,東京都,大田区,蒲田４丁目１９番５－７０３号,,13,111,1440052,,,,,,,2022-05-02,1,,,,,バロックワークス,0
345,2010901050751,新規,0,2022-05-02,2022-05-02,株式会社ＢＬＯＳＳＯＭ,,株式会社,東京都,世田谷区,南烏山６丁目２０番１８－４０６号,,13,112,1570062,,,,,,,2022-05-02,1,,,,,ブロッサム,0
351,2011003014620,新規,0,2022-05-02,2022-05-02,合同会社Ｎｅｗ　Ｃｏｎｎｅｃｔ,,合同会社,東京都,渋谷区,道玄坂１丁目１０番１８号渋谷道玄坂東急ビル２Ｆ－Ｃ,,13,113,1500043,,,,,,,2022-05-02,1,,,,,ニューコネクト,0
358,2011201023803,新規,0,2022-05-02,2022-05-02,ＤＸＴｅｃｈｎｏｌｏｇｙ株式会社,,株式会社,東京都,中野区,中央２丁目３０－９リブスタイル中野坂上１０３,,13,114,1640011,,,,,,,2022-05-02,1,,,,,ディーエックステクノロジー,0
365,2011603003592,新規,0,2022-05-02,2022-05-02,Ｆｉｖｅ　Ｍａｒｋ　Ｔｒａｄｉｎｇ合同会社,,合同会社,東京都,練馬区,早宮１丁目６番１－４０２号,,13,120,1790085,,,,,,,2022-05-02,1,,,,,ファイブマークトレーディング,0
372,2011801040660,新規,0,2022-05-02,2022-05-02,株式会社ＬＩＥＮＳ,,株式会社,東京都,葛飾区,亀有３丁目１０番１９号,,13,122,1250061,,,,,,,2022-05-02,1,,,,,リアンズ,0
378,2012703002451,新規,0,2022-05-02,2022-05-02,合同会社ブレイニイジャパン,,合同会社,東京都,西東京市,ひばりが丘北３丁目７－９グランソレイユひばりが丘１０３号,,13,229,2020002,,,,,,,2022-05-02,1,,,,,ブレイニイジャパン,0
385,2020001146301,新規,0,2022-05-02,2022-05-02,株式会社Ｎｅｅｄｓ,,株式会社,神奈川県,横浜市緑区,中山１丁目７番２１－１０１号,,14,113,2260019,,,,,,,2022-05-02,1,,,,,ニーズ,0
386,2020001146359,新規,0,2022-05-02,2022-05-02,株式会社ノクス,,株式会社,神奈川県,横浜市港北区,新横浜１丁目２５番５－６０７号,,14,109,2220033,,,,,,,2022-05-02,1,,,,,ノクス,0
392,2020003021717,新規,0,2022-05-02,2022-05-02,合同会社Ｌｉｔ,,合同会社,神奈川県,横浜市神奈川区,鶴屋町１丁目７番地３４,,14,102,2210835,,,,,,,2022-05-02,1,,,,,リット,0
399,2021003011633,新規,0,2022-05-02,2022-05-02,合同会社Ｓｅａ’ｓ,,合同会社,神奈川県,相模原市南区,南台１丁目４番１８号,,14,153,2520314,,,,,,,2022-05-02,1,,,,,シーズ,0
405,2030001147975,新規,0,2022-05-02,2022-05-02,株式会社ＳｕｐｅｒＳｔａｒ,,株式会社,埼玉県,白岡市,実ケ谷４４０番地９,,11,246,3490216,,,,,,,2022-05-02,1,,,,,スーパースター,0
406,2030001148008,新規,0,2022-05-02,2022-05-02,株式会社ヨクナルメディカル,,株式会社,埼玉県,飯能市,大字笠縫４１７番地７,,11,209,3570045,,,,,,,2022-05-02,1,,,,,ヨクナルメディカル,0
417,2040001123232,新規,0,2022-05-02,2022-05-02,上原工業株式会社,,株式会社,千葉県,富津市,下飯野１３２１番地４,,12,226,2930006,,,,,,,2022-05-02,1,,,,,ウエハラコウギョウ,0
422,2040003019973,新規,0,2022-05-02,2022-05-02,ＩＮＳＵＲＡＮＣＥ　ＮＥＴ　ＯＮＥ合同会社,,合同会社,千葉県,浦安市,日の出３丁目４番Ｂ－８０４号ベイシティ新浦安,,12,227,2790013,,,,,,,2022-05-02,1,,,,,インシュアランスネットワン,0
429,2050001050995,新規,0,2022-05-02,2022-05-02,ＧＨ　ＰＡＫ　ＴＲＡＤＩＮＧ株式会社,,株式会社,茨城県,東茨城郡茨城町,大字長岡９８１番地１,,08,302,3113116,,,,,,,2022-05-02,1,,,,,ジーエイチパークトレーディング,0
430,2050001051028,新規,0,2022-05-02,2022-05-02,株式会社ＨＡＳＯＡ,,株式会社,茨城県,土浦市,港町２丁目１番１８－３０８号サンレイ土浦,,08,203,3000034,,,,,,,2022-05-02,1,,,,,ハソア,0
431,2050003006541,新規,0,2022-05-02,2022-05-02,ＭＭＴＲＡＤＩＮＧ合同会社,,合同会社,茨城県,つくば市,蓮沼３８６番地,,08,220,3003262,,,,,,,2022-05-02,1,,,,,エムエムトレーディング,0
439,2090001017553,新規,0,2022-05-02,2022-05-02,株式会社満開造園,,株式会社,山梨県,甲斐市,竜王新町１５８０番地４,,19,210,4000111,,,,,,,2022-05-02,1,,,,,マンカイゾウエン,0
441,2100001035297,新規,0,2022-05-02,2022-05-02,株式会社ＡＬＦＡＮＴ,,株式会社,長野県,諏訪市,南町３番地５,,20,206,3920014,,,,,,,2022-05-02,1,,,,,オルファント,0
464,2120001245621,新規,0,2022-05-02,2022-05-02,株式会社ＭＥＲＣＡＮＴＩＬＥ,,株式会社,大阪府,大阪市福島区,海老江２丁目３番４号３０２号室,,27,103,5530001,,,,,,,2022-05-02,1,,,,,マーカンタイル,0
467,2120003021566,新規,0,2022-05-02,2022-05-02,合同会社ディレクトデータ,,合同会社,大阪府,大阪市北区,堂山町１－５三共梅田ビル７階,,27,127,5300027,,,,,,,2022-05-02,1,,,,,ディレクトデータ,0
468,2120003021590,新規,0,2022-05-02,2022-05-02,唐津市沖洋上風力合同会社,,合同会社,大阪府,大阪市北区,中之島３丁目６番１６号,,27,127,5300005,,,,,,,2022-05-02,1,,,,,カラツシオキヨウジョウフウリョク,0
471,2120101065507,新規,0,2022-05-02,2022-05-02,株式会社Ｇｒａｂ,,株式会社,大阪府,岸和田市,上松町３０６０－１,,27,202,5960827,,,,,,,2022-05-02,1,,,,,グラブ,0
472,2120101065515,新規,0,2022-05-02,2022-05-02,株式会社ｅｍ　ｓｉｓ,,株式会社,大阪府,堺市南区,原山台４丁１５－５－１,,27,145,5900132,,,,,,,2022-05-02,1,,,,,エムシス,0
473,2120103004677,新規,0,2022-05-02,2022-05-02,一陽来福合同会社,,合同会社,大阪府,和泉市,テクノステージ３丁目４番１号,,27,219,5941144,,,,,,,2022-05-02,1,,,,,イチヨウライフク,0
478,2120901045906,新規,0,2022-05-02,2022-05-02,株式会社エムエスケイ,,株式会社,大阪府,高槻市,岡本町３９番１号トマトハイツ２０３号,,27,207,5691137,,,,,,,2022-05-02,1,,,,,エムエスケイ,0
479,2120901045914,新規,0,2022-05-02,2022-05-02,Ｄｅｆｅｎｄ株式会社,,株式会社,大阪府,箕面市,西小路３丁目１１番２８号,,27,220,5620003,,,,,,,2022-05-02,1,,,,,ディフェンド,0
480,2120903004133,新規,0,2022-05-02,2022-05-02,合同会社グランジェイ,,合同会社,大阪府,摂津市,南千里丘５番１３－２８０５号,,27,224,5660021,,,,,,,2022-05-02,1,,,,,グランジェイ,0
482,2122001035820,新規,0,2022-05-02,2022-05-02,アンソリューション株式会社,,株式会社,大阪府,八尾市,山本町１丁目６－１４,,27,212,5810867,,,,,,,2022-05-02,1,,,,,アンソリューション,0
488,2130003007911,新規,0,2022-05-02,2022-05-02,合同会社ＨＡＬＥＮＯＨＩ,,合同会社,京都府,京都市右京区,西京極中沢町１番地１３サンシティ西京極１番館９１５号室,,26,108,6150815,,,,,,,2022-05-02,1,,,,,ハレノヒ,0
503,2180001151161,新規,0,2022-05-02,2022-05-02,ＴＳＵＴＳＵＭＵ株式会社,,株式会社,愛知県,名古屋市緑区,乗鞍１丁目１８０３番地１４,,23,114,4580004,,,,,,,2022-05-02,1,,,,,ツツム,0
511,2180003023788,新規,0,2022-05-02,2022-05-02,合同会社あさひ不動産,,合同会社,愛知県,名古屋市天白区,原５丁目１００５番地,,23,116,4680015,,,,,,,2022-05-02,1,,,,,アサヒフドウサン,0
523,2200001040023,新規,0,2022-05-02,2022-05-02,株式会社Ｍ’Ｓ,,株式会社,岐阜県,恵那市,大井町２９１番地１７,,21,210,5097201,,,,,,,2022-05-02,1,,,,,ミューズ,0
531,2230001019345,新規,0,2022-05-02,2022-05-02,Ｚｅｎａｔｕｓ株式会社,,株式会社,富山県,滑川市,上小泉６４６番地３１,,16,206,9360053,,,,,,,2022-05-02,1,,,,,,0
542,2290001097377,新規,0,2022-05-02,2022-05-02,スリーディー株式会社,,株式会社,福岡県,福岡市南区,塩原３丁目１７番７号サンシャインシティビル大橋６Ｆ,,40,134,8150032,,,,,,,2022-05-02,1,,,,,スリーディー,0
543,2290001097393,新規,0,2022-05-02,2022-05-02,株式会社ぬくもりの家,,株式会社,福岡県,福岡市南区,大楠１丁目３３番２１号,,40,134,8150082,,,,,,,2022-05-02,1,,,,,ヌクモリノイエ,0
547,2290803004118,新規,0,2022-05-02,2022-05-02,合同会社あふぇっと,,合同会社,福岡県,田川市,大字伊加利１９５５番地５７,,40,206,8250001,,,,,,,2022-05-02,1,,,,,アフェット,0
555,2330003009350,新規,0,2022-05-02,2022-05-02,合同会社Ｔｈｉｒｄ　Ｓｔａｔｉｏｎ,,合同会社,熊本県,熊本市東区,水源２丁目５番２号セジュール水源１０１,,43,102,8620907,,,,,,,2022-05-02,1,,,,,サードステーション,0
556,2340001024706,新規,0,2022-05-02,2022-05-02,株式会社イフ鹿児島,,株式会社,鹿児島県,鹿児島市,本城町６３４番地１５,,46,201,8911303,,,,,,,2022-05-02,1,,,,,イフカゴシマ,0
564,2350001017717,新規,0,2022-05-02,2022-05-02,株式会社ＭＫ,,株式会社,宮崎県,都城市,太郎坊町３５０７番地２,,45,202,8850002,,,,,,,2022-05-02,1,,,,,エムケー,0
570,2360001030347,新規,0,2022-05-02,2022-05-02,株式会社村上佑写真事務所,,株式会社,沖縄県,うるま市,石川曙１丁目９番１５号ＨＮＯ．１３９,,47,213,9041107,,,,,,,2022-05-02,1,,,,,ムラカミユウシャシンジムショ,0
576,2370001048512,新規,0,2022-05-02,2022-05-02,株式会社ＳＹ建築,,株式会社,宮城県,仙台市太白区,泉崎２丁目６番３０号,,04,104,9820031,,,,,,,2022-05-02,1,,,,,エスワイケンチク,0
590,2700150074845,新規,0,2022-05-02,2016-08-04,全国地区通運協会日通持株会,,その他,東京都,台東区,花川戸２丁目２番５号ＮＸ浅草ビル２階　全国地区通運協会内,,13,106,1110033,,,,,,,2016-08-04,1,,,,,ゼンコクチクツウウンキョウカイニッツウモチカブカイ,0
602,3010001226235,新規,0,2022-05-02,2022-05-02,ＡｅＬＬｅ株式会社,,株式会社,東京都,中央区,銀座７丁目１３番６号サガミビル２階,,13,102,1040061,,,,,,,2022-05-02,1,,,,,アエル,0
613,3010401167046,新規,0,2022-05-02,2022-05-02,ｉｎｌｉｎｅ株式会社,,株式会社,東京都,港区,虎ノ門４丁目３番１号城山トラストタワー東京赤坂法律事務所内,,13,103,1050001,,,,,,,2022-05-02,1,,,,,インライン,0
614,3010401167087,新規,0,2022-05-02,2022-05-02,株式会社Ｍｏｏｎ　ｍｅｄｉｃａｌ,,株式会社,東京都,港区,南青山５丁目６番４－２０５号,,13,103,1070062,,,,,,,2022-05-02,1,,,,,ムーンメディカル,0
615,3010401167095,新規,0,2022-05-02,2022-05-02,全日空商事アイビーリーシング株式会社,,株式会社,東京都,港区,東新橋１丁目５番２号,,13,103,1050021,,,,,,,2022-05-02,1,,,,,ゼンニックウショウジアイビーリーシング,0
616,3010401167112,新規,0,2022-05-02,2022-05-02,株式会社ＡＫアセットマネジメント,,株式会社,東京都,港区,虎ノ門３丁目１４番９号パレステュディオ虎ノ門８１１号室,,13,103,1050001,,,,,,,2022-05-02,1,,,,,エーケーアセットマネジメント,0
623,3010403027438,新規,0,2022-05-02,2022-05-02,リキッドキャピタル合同会社,,合同会社,東京都,港区,赤坂７丁目６番４３－３０１,,13,103,1070052,,,,,,,2022-05-02,1,,,,,リキッドキャピタル,0
626,3010405020936,新規,0,2022-05-02,2022-05-02,一般社団法人ジャパン・クライメート・アライアンス,,その他の設立登記法人,東京都,港区,芝４丁目７番１号西山ビル４階,,13,103,1080014,,,,,,,2022-05-02,1,,,,,,0
627,3010501048781,新規,0,2022-05-02,2022-05-02,株式会社マイリス,,株式会社,東京都,台東区,台東２丁目１１番５－５０４号,,13,106,1100016,,,,,,,2022-05-02,1,,,,,マイリス,0
629,3010601061073,新規,0,2022-05-02,2022-05-02,株式会社ＴＫコンサルティング,,株式会社,東京都,江東区,南砂２丁目３番２－３２４号,,13,108,1360076,,,,,,,2022-05-02,1,,,,,ティーケーコンサルティング,0
630,3010701042592,新規,0,2022-05-02,2022-05-02,株式会社池田山ツーリスト,,株式会社,東京都,品川区,東五反田５丁目１２番１号ロイヤルフラッツ２階,,13,109,1410022,,,,,,,2022-05-02,1,,,,,イケダヤマツーリスト,0
645,3011103011715,新規,0,2022-05-02,2022-05-02,Ｓｃａｎｐａｎ　Ｊａｐａｎ合同会社,,合同会社,東京都,新宿区,新宿２丁目２－１０－６０５,,13,104,1600022,,,,,,,2022-05-02,1,,,,,スキャンパンジャパン,0
647,3011201023802,新規,0,2022-05-02,2022-05-02,Ｃｈａｎｖａｌｌｅｒ株式会社,,株式会社,東京都,中野区,南台２丁目９番１－１５０３号,,13,114,1640014,,,,,,,2022-05-02,1,,,,,チェンバラ,0
648,3011203003810,新規,0,2022-05-02,2022-05-02,ニューバリュー合同会社,,合同会社,東京都,中野区,沼袋３丁目１１－１４パークサイド・ヴィラ１１２,,13,114,1650025,,,,,,,2022-05-02,1,,,,,ニューバリュー,0
652,3011603003583,新規,0,2022-05-02,2022-05-02,バンブースタイル合同会社,,合同会社,東京都,練馬区,平和台２丁目２０番８号,,13,120,1790083,,,,,,,2022-05-02,1,,,,,バンブースタイル,0
653,3011701025273,新規,0,2022-05-02,2022-05-02,株式会社ＺＯＯＭ　ＩＮ,,株式会社,東京都,江戸川区,西小岩２丁目２０番１６－４０７号ライオンズマンション西小岩第３,,13,123,1330057,,,,,,,2022-05-02,1,,,,,ズームイン,0
657,3012701017038,新規,0,2022-05-02,2022-05-02,Ｂ．Ｍ．Ｍａｈａｌｏ株式会社,,株式会社,東京都,西東京市,向台町４丁目１番５号,,13,229,1880013,,,,,,,2022-05-02,1,,,,,ビーエムマハロ,0
661,3013301049000,新規,0,2022-05-02,2022-05-02,株式会社チンイン,,株式会社,東京都,豊島区,西巣鴨１丁目２－２２ＷＡＮＤＡビル２－Ｅ号室,,13,116,1700001,,,,,,,2022-05-02,1,,,,,チンイン,0
670,3020003021716,新規,0,2022-05-02,2022-05-02,合同会社ＦＬＯＷｓ,,合同会社,神奈川県,横浜市港北区,大曽根台１４番１２号,,14,109,2220004,,,,,,,2022-05-02,1,,,,,フロウズ,0
674,3021001075836,新規,0,2022-05-02,2022-05-02,株式会社ブリッジ,,株式会社,神奈川県,小田原市,飯泉２１１番地の１,,14,206,2500863,,,,,,,2022-05-02,1,,,,,ブリッジ,0
675,3021003011657,新規,0,2022-05-02,2022-05-02,合同会社ＡＮＥＪＯ,,合同会社,神奈川県,綾瀬市,大上４丁目１４番８号高崎ハイツＢ２０１,,14,218,2521104,,,,,,,2022-05-02,1,,,,,アネジョ,0
678,3021005012513,新規,0,2022-05-02,2022-05-02,医療法人うえだ皮ふ科,,その他の設立登記法人,神奈川県,綾瀬市,深谷中１丁目１６番３５号ＨＡＮＤＳ＋２階南室,,14,218,2521107,,,,,,,2022-05-02,1,,,,,ウエダヒフカ,0
685,3030001148015,新規,0,2022-05-02,2022-05-02,株式会社三井製作所,,株式会社,埼玉県,鶴ヶ島市,大字上広谷２６１－１キャッスルカラー１０５号,,11,241,3502203,,,,,,,2022-05-02,1,,,,,ミツイセイサクジョ,0
699,3040001123231,新規,0,2022-05-02,2022-05-02,株式会社しまの,,株式会社,千葉県,館山市,八幡３１４番地４０,,12,205,2940047,,,,,,,2022-05-02,1,,,,,シマノ,0
704,3050001051027,新規,0,2022-05-02,2022-05-02,株式会社ＦＯＲ　ＳＴＡＲＳ,,株式会社,茨城県,守谷市,中央１丁目７パラッシオ守谷６０２,,08,224,3020115,,,,,,,2022-05-02,1,,,,,フォースターズ,0
713,3060005009978,新規,0,2022-05-02,2022-05-02,特定非営利活動法人青い鳥,,その他の設立登記法人,栃木県,足利市,常盤町３６番地,,09,202,3260026,,,,,,,2022-05-02,1,,,,,,0
718,3090001017552,新規,0,2022-05-02,2022-05-02,株式会社ぼん,,株式会社,山梨県,富士吉田市,下吉田３丁目１２番７２号,,19,202,4030004,,,,,,,2022-05-02,1,,,,,ボン,0
726,3110001036624,新規,0,2022-05-02,2022-05-02,株式会社ヤマト設備,,株式会社,新潟県,南魚沼市,大倉６１番地１,,15,226,9497243,,,,,,,2022-05-02,1,,,,,ヤマトセツビ,0
742,3120001245579,新規,0,2022-05-02,2022-05-02,株式会社コウヨウ,,株式会社,大阪府,大阪市住吉区,墨江２丁目３番３３号,,27,120,5580043,,,,,,,2022-05-02,1,,,,,コウヨウ,0
743,3120001245604,新規,0,2022-05-02,2022-05-02,株式会社だいなも,,株式会社,大阪府,大阪市阿倍野区,阿倍野筋２丁目４番３７－１００１号,,27,119,5450052,,,,,,,2022-05-02,1,,,,,ダイナモ,0
746,3120003021607,新規,0,2022-05-02,2022-05-02,Ｔｕｎｉｎｇ　ｅａｒｔｈ合同会社,,合同会社,大阪府,交野市,私市６丁目３番６号,,27,230,5760033,,,,,,,2022-05-02,1,,,,,チューニングアース,0
747,3120903004132,新規,0,2022-05-02,2022-05-02,スプレックスクリエイト合同会社,,合同会社,大阪府,豊中市,本町５丁目１番６－２１２号,,27,203,5600021,,,,,,,2022-05-02,1,,,,,スプレックスクリエイト,0
759,3140001125853,新規,0,2022-05-02,2022-05-02,ｉリペア株式会社,,株式会社,兵庫県,洲本市,小路谷９１３番地８,,28,205,6560023,,,,,,,2022-05-02,1,,,,,アイリペア,0
770,3180001151128,新規,0,2022-05-02,2022-05-02,株式会社桂商,,株式会社,愛知県,名古屋市天白区,天白町大字八事字裏山１２５番地の６,,23,116,4680071,,,,,,,2022-05-02,1,,,,,ケイショウ,0
771,3180001151136,新規,0,2022-05-02,2022-05-02,株式会社トレス,,株式会社,愛知県,名古屋市名東区,平和が丘３丁目１５番地の２平和が丘住宅４棟１０１号,,23,115,4650097,,,,,,,2022-05-02,1,,,,,トレス,0
772,3180001151144,新規,0,2022-05-02,2022-05-02,株式会社宏陽,,株式会社,愛知県,半田市,岩滑中町４丁目１７４番地,,23,205,4750961,,,,,,,2022-05-02,1,,,,,コウヨウ,0
782,3180303005320,新規,0,2022-05-02,2022-05-02,合同会社カンヌ,,合同会社,愛知県,西尾市,善明町中根原１１番地３５,,23,213,4450034,,,,,,,2022-05-02,1,,,,,カンヌ,0
810,3290005018659,新規,0,2022-05-02,2022-05-02,一般社団法人福岡県空手道連盟,,その他の設立登記法人,福岡県,福岡市東区,香椎駅前２丁目１番２５号,,40,131,8130013,,,,,,,2022-05-02,1,,,,,フクオカケンカラテドウレンメイ,0
811,3300001012911,新規,0,2022-05-02,2022-05-02,株式会社スエモト,,株式会社,佐賀県,唐津市,原１２３７番地２サンライズＢ１０３,,41,202,8470031,,,,,,,2022-05-02,1,,,,,スエモト,0
813,3320001019046,新規,0,2022-05-02,2022-05-02,株式会社アグリ・プロデュース,,株式会社,大分県,竹田市,大字中角１５６１番地,,44,208,8780573,,,,,,,2022-05-02,1,,,,,アグリプロデュース,0
814,3320003003799,新規,0,2022-05-02,2022-05-02,合同会社コノミ林業,,合同会社,大分県,中津市,耶馬渓町大字栃木１６１番地,,44,203,8710099,,,,,,,2022-05-02,1,,,,,コノミリンギョウ,0
828,3350001017716,新規,0,2022-05-02,2022-05-02,株式会社進光,,株式会社,宮崎県,日向市,大字財光寺５１１番地１,,45,206,8830021,,,,,,,2022-05-02,1,,,,,シンコウ,0
832,3370005010475,新規,0,2022-05-02,2022-05-02,一般社団法人貞山運河ネット,,その他の設立登記法人,宮城県,名取市,閖上東３丁目５番地の１,,04,207,9811204,,,,,,,2022-05-02,1,,,,,テイザンウンガネット,0
835,3420003002510,新規,0,2022-05-02,2022-05-02,合同会社ハートベル動物病院,,合同会社,青森県,下北郡東通村,大字目名字向野９９番地７,,02,424,0350002,,,,,,,2022-05-02,1,,,,,ハートベルドウブツビョウイン,0
843,3430001086562,新規,0,2022-05-02,2022-05-02,リースサービス株式会社,,株式会社,北海道,札幌市厚別区,厚別西三条１丁目１２番２２－３０４号,,01,108,0040063,,,,,,,2022-05-02,1,,,,,リースサービス,0
850,3500001024184,新規,0,2022-05-02,2022-05-02,株式会社ＴＹＩ,,株式会社,愛媛県,四国中央市,中曽根町２４８４番地６,,38,213,7990413,,,,,,,2022-05-02,1,,,,,ティーワイアイ,0
852,3700150108115,新規,0,2022-05-02,2022-04-19,Ｔ．Ｍ．Ｗｏｒｋｓ,,その他,東京都,世田谷区,東玉川２丁目４１－１５ＢＥＬＡＧＥ奥沢１０１,,13,112,1580084,,,,,,,2022-04-19,1,,,,,テイーエムワークス,0
864,4010001226259,新規,0,2022-05-02,2022-05-02,株式会社文京研究成果実装機構,,株式会社,東京都,文京区,千駄木４丁目１３番６号アドリーム文京動坂１０６,,13,105,1130022,,,,,,,2022-05-02,1,,,,,ブンキョウケンキュウセイカジッソウキコウ,0
865,4010001226267,新規,0,2022-05-02,2022-05-02,株式会社奥清商店,,株式会社,東京都,八丈島八丈町,大賀郷２２６４番地１,,13,401,1001401,,,,,,,2022-05-02,1,,,,,オクセイショウテン,0
866,4010001226283,新規,0,2022-05-02,2022-05-02,株式会社Ｃｕｔｔｉｎｇ　Ｅｄｇｅ,,株式会社,東京都,千代田区,麹町６丁目４番９号ミュゼ麹町２０１,,13,101,1020083,,,,,,,2022-05-02,1,,,,,カッティングエッジ,0
877,4010401166988,新規,0,2022-05-02,2022-05-02,ＹＧＰホールディングス株式会社,,株式会社,東京都,港区,赤坂１丁目９番１３号三会堂ビル９Ｆ,,13,103,1070052,,,,,,,2022-05-02,1,,,,,ワイジーピーホールディングス,0
878,4010401167086,新規,0,2022-05-02,2022-05-02,トーキョーフィットネス株式会社,,株式会社,東京都,港区,南青山５丁目１１番２４号グレイセス２Ｆ,,13,103,1070062,,,,,,,2022-05-02,1,,,,,トーキョーフィットネス,0
879,4010401167103,新規,0,2022-05-02,2022-05-02,Ｒｅｉ株式会社,,株式会社,東京都,港区,浜松町２丁目２番１５号,,13,103,1050013,,,,,,,2022-05-02,1,,,,,レイ,0
880,4010405020935,新規,0,2022-05-02,2022-05-02,一般財団法人世界健康長寿学会,,その他の設立登記法人,東京都,港区,東麻布３丁目３番６－３０３号,,13,103,1060044,,,,,,,2022-05-02,1,,,,,セカイケンコウチョウジュガッカイ,0
882,4010601061080,新規,0,2022-05-02,2022-05-02,アップタイドジャパン株式会社,,株式会社,東京都,江東区,豊洲１丁目３－２６－９１１,,13,108,1350061,,,,,,,2022-05-02,1,,,,,アップタイドジャパン,0
884,4010603009516,新規,0,2022-05-02,2022-05-02,ＢＵＮＣＯＣＯ合同会社,,合同会社,東京都,江東区,新大橋１丁目１３番３号１７１０号,,13,108,1350007,,,,,,,2022-05-02,1,,,,,ブンココ,0
885,4010701042591,新規,0,2022-05-02,2022-05-02,株式会社ＯＲＩＧＡＭＩ,,株式会社,東京都,品川区,東五反田１丁目２０番２号,,13,109,1410022,,,,,,,2022-05-02,1,,,,,オリガミ,0
901,4011101098712,新規,0,2022-05-02,2022-05-02,株式会社そうま,,株式会社,東京都,新宿区,新宿５丁目１８番１２号八重洲ビル３階,,13,104,1600022,,,,,,,2022-05-02,1,,,,,ソウマ,0
902,4011101098720,新規,0,2022-05-02,2022-05-02,株式会社ＡＩＬＬＩＯ,,株式会社,東京都,新宿区,新宿２丁目８番１号新宿セブンビル６０４,,13,104,1600022,,,,,,,2022-05-02,1,,,,,エーリオ,0
904,4011103011714,新規,0,2022-05-02,2022-05-02,合同会社あいるりめんば,,合同会社,東京都,新宿区,西新宿７丁目５－５Ｐｌａｚａ西新宿ＵＣＦ４０６,,13,104,1600023,,,,,,,2022-05-02,1,,,,,アイルリメンバ,0
908,4011301027751,新規,0,2022-05-02,2022-05-02,株式会社アイ,,株式会社,東京都,杉並区,和田２丁目３５番７－１０１号,,13,115,1660012,,,,,,,2022-05-02,1,,,,,アイ,0
916,4012301012974,新規,0,2022-05-02,2022-05-02,株式会社スクワッド,,株式会社,東京都,町田市,野津田町３７２８番地９,,13,209,1950063,,,,,,,2022-05-02,1,,,,,スクワッド,0
920,4012801021533,新規,0,2022-05-02,2022-05-02,関村畜産販売株式会社,,株式会社,東京都,立川市,羽衣町２丁目５８－１,,13,202,1900021,,,,,,,2022-05-02,1,,,,,セキムラチクサンハンバイ,0
925,4013303006130,新規,0,2022-05-02,2022-05-02,ジョージ・アセット合同会社,,合同会社,東京都,豊島区,東池袋５丁目７番３リードシー東池袋ビル２Ｆ－１４,,13,116,1700013,,,,,,,2022-05-02,1,,,,,ジョージアセット,0
937,4020001146340,新規,0,2022-05-02,2022-05-02,株式会社丸家,,株式会社,神奈川県,横浜市都筑区,池辺町２５０１－１フレンドシップいこのべ１０２号,,14,118,2240053,,,,,,,2022-05-02,1,,,,,マルチ,0
938,4020001146349,新規,0,2022-05-02,2022-05-02,株式会社ウィステリア,,株式会社,神奈川県,川崎市宮前区,潮見台２番１５号,,14,136,2160013,,,,,,,2022-05-02,1,,,,,ウィステリア,0
949,4021001075769,新規,0,2022-05-02,2022-05-02,テープス株式会社,,株式会社,神奈川県,茅ヶ崎市,中海岸４丁目１２９８６番地５２サザンビーチヒルズ５階,,14,207,2530055,,,,,,,2022-05-02,1,,,,,テープス,0
973,4030003019337,新規,0,2022-05-02,2022-05-02,Ｍｉｒａｉｅｓ　ａｓｓｅｔ合同会社,,合同会社,埼玉県,さいたま市南区,四谷３丁目９番２６－１号,,11,108,3360032,,,,,,,2022-05-02,1,,,,,ミライエスアセット,0
980,4040001123230,新規,0,2022-05-02,2022-05-02,大建設株式会社,,株式会社,千葉県,船橋市,咲が丘２丁目４６番９号,,12,204,2740807,,,,,,,2022-05-02,1,,,,,ダイケンセツ,0
981,4040003019930,新規,0,2022-05-02,2022-05-02,合同会社タック,,合同会社,千葉県,柏市,東上町１番７号,,12,217,2770011,,,,,,,2022-05-02,1,,,,,タック,0
986,4050005013071,新規,0,2022-05-02,2022-05-02,特定非営利活動法人いばちば,,その他の設立登記法人,茨城県,取手市,宮和田３０２番地３,,08,217,3001514,,,,,,,2022-05-02,1,,,,,イバチバ,0
991,4090001017551,新規,0,2022-05-02,2022-05-02,株式会社Ｔｈｅ・Ｇｒａｐｅｓ,,株式会社,山梨県,山梨市,市川１６５２番地,,19,205,4050044,,,,,,,2022-05-02,1,,,,,ザグレープス,0
992,4100001035295,新規,0,2022-05-02,2022-05-02,株式会社寺子屋,,株式会社,長野県,飯田市,丸山町４丁目５５０７番地２１２,,20,205,3950077,,,,,,,2022-05-02,1,,,,,テラコヤ,0
998,4110001036631,新規,0,2022-05-02,2022-05-02,株式会社本間Ｓ技研,,株式会社,新潟県,新潟市中央区,紫竹山７丁目１０番２０号メゾン・セゾン・ド・ラックＡ棟１０２号,,15,103,9500914,,,,,,,2022-05-02,1,,,,,ホンマエスギケン,0
1014,4120001245438,新規,0,2022-05-02,2022-05-02,空ホーム株式会社,,株式会社,大阪府,寝屋川市,成田南町１－８,,27,215,5720003,,,,,,,2022-05-02,1,,,,,スカイホーム,0
1015,4120001245578,新規,0,2022-05-02,2022-05-02,株式会社旭工業所,,株式会社,大阪府,大阪市住吉区,清水丘１丁目１３番１５号,,27,120,5580033,,,,,,,2022-05-02,1,,,,,アサヒコウギョウショ,0
1020,4120003021564,新規,0,2022-05-02,2022-05-02,北島コーポレーション合同会社,,合同会社,大阪府,寝屋川市,田井町２１番１６－３０８号,,27,215,5720021,,,,,,,2022-05-02,1,,,,,キタジマコーポレーション,0
1021,4120003021589,新規,0,2022-05-02,2022-05-02,合同会社Ａｄｖａｎｃｅ,,合同会社,大阪府,大阪市中央区,日本橋２丁目７番１３号福永ビル３０６,,27,128,5420073,,,,,,,2022-05-02,1,,,,,アドバンス,0
1025,4120101065488,新規,0,2022-05-02,2022-05-02,株式会社ハナシパナシ,,株式会社,大阪府,堺市南区,美木多上９５６番地１,,27,145,5900136,,,,,,,2022-05-02,1,,,,,ハナシパナシ,0
1026,4120101065505,新規,0,2022-05-02,2022-05-02,株式会社ＲＡＰＴＯＲ,,株式会社,大阪府,堺市北区,百舌鳥赤畑町３丁２０２番地９,,27,146,5918037,,,,,,,2022-05-02,1,,,,,ラプター,0
1027,4120101065513,新規,0,2022-05-02,2022-05-02,ＴＯＵＫＥＮ株式会社,,株式会社,大阪府,泉大津市,菅原町３番５号,,27,206,5950066,,,,,,,2022-05-02,1,,,,,トウケン,0
1028,4120901045912,新規,0,2022-05-02,2022-05-02,株式会社ＺＥＲＯ,,株式会社,大阪府,豊中市,利倉東２丁目１７番１３号ＳＳＧＰ・ＴＯＹＯＮＡＫＡ２０７,,27,203,5610846,,,,,,,2022-05-02,1,,,,,ゼロ,0
1029,4130001071668,新規,0,2022-05-02,2022-05-02,岡田工業ホールディングス株式会社,,株式会社,京都府,久世郡久御山町,林高黒１番１５,,26,322,6130033,,,,,,,2022-05-02,1,,,,,オカダコウギョウホールディングス,0
1034,4140001125836,新規,0,2022-05-02,2022-05-02,株式会社木嶋造景園,,株式会社,兵庫県,西宮市,生瀬町１丁目１８番１０号,,28,204,6691102,,,,,,,2022-05-02,1,,,,,キジマゾウケイエン,0
1040,4160001024160,新規,0,2022-05-02,2022-05-02,株式会社竹内建築,,株式会社,滋賀県,大津市,南志賀４丁目９番２号,,25,201,5200011,,,,,,,2022-05-02,1,,,,,タケウチケンチク,0
1046,4180001151060,新規,0,2022-05-02,2022-05-02,ＴＭＯ株式会社,,株式会社,愛知県,知多市,日長字高峰脇１番地の１７６,,23,224,4780041,,,,,,,2022-05-02,1,,,,,ティエムオー,0
1047,4180001151085,新規,0,2022-05-02,2022-05-02,株式会社みんなまる,,株式会社,愛知県,名古屋市天白区,島田黒石１３１２番地,,23,116,4680028,,,,,,,2022-05-02,1,,,,,ミンナマル,0
1048,4180001151119,新規,0,2022-05-02,2022-05-02,株式会社呼続ＥＮＧ,,株式会社,愛知県,名古屋市南区,呼続１丁目２０番２３号,,23,112,4570014,,,,,,,2022-05-02,1,,,,,ヨビツギエンジニア,0
1049,4180001151135,新規,0,2022-05-02,2022-05-02,株式会社ポータルアソシエイツ,,株式会社,愛知県,名古屋市西区,那古野１丁目１４番１８号,00126451,23,104,4510042,,,,,,,2022-05-02,1,,,,,ポータルアソシエイツ,0
1051,4180003023786,新規,0,2022-05-02,2022-05-02,合同会社ラックシステム,,合同会社,愛知県,春日井市,岩成台２丁目３番地１,,23,206,4870033,,,,,,,2022-05-02,1,,,,,ラックシステム,0
1052,4180301036184,新規,0,2022-05-02,2022-05-02,株式会社Ａ‐Ｌａｂｏ紬,,株式会社,愛知県,知立市,桜木町桜木５９番地４,,23,225,4720031,,,,,,,2022-05-02,1,,,,,エーラボツムギ,0
1054,4190001029371,新規,0,2022-05-02,2022-05-02,株式会社Ａｌｉｖｅ,,株式会社,三重県,四日市市,中里町２２番地の３,,24,202,5100864,,,,,,,2022-05-02,1,,,,,アライブ,0
1056,4190003003977,新規,0,2022-05-02,2022-05-02,三厨建築合同会社,,合同会社,三重県,四日市市,中川原２丁目５番９号,,24,202,5100833,,,,,,,2022-05-02,1,,,,,ミクリヤケンチク,0
1063,4220001024823,新規,0,2022-05-02,2022-05-02,株式会社ヤマグチ,,株式会社,石川県,河北郡津幡町,字潟端５６０番地５,,17,361,9290346,,,,,,,2022-05-02,1,,,,,ヤマグチ,0
1068,4240001059702,新規,0,2022-05-02,2022-05-02,株式会社Ｈｉ‐Ｌｉｎｅ,,株式会社,広島県,広島市安佐南区,緑井３丁目２３番３８－４１１号,,34,105,7310103,,,,,,,2022-05-02,1,,,,,ハイライン,0
1076,4270001008508,新規,0,2022-05-02,2022-05-02,株式会社ｕｓｅｆｕｌ,,株式会社,鳥取県,西伯郡大山町,稲光２７５番地６,,31,386,6893334,,,,,,,2022-05-02,1,,,,,ユースフル,0
1080,4290001097383,新規,0,2022-05-02,2022-05-02,株式会社ＴＷＩＮＳ,,株式会社,福岡県,福岡市中央区,薬院２丁目１７番２３－１９０１号,,40,133,8100022,,,,,,,2022-05-02,1,,,,,トゥインズ,0
1091,4320003003798,新規,0,2022-05-02,2022-05-02,合同会社ｏｔｏｃｏｍｐａｎｙ,,合同会社,大分県,大分市,大字横尾３６７７番地の１７,,44,201,8700126,,,,,,,2022-05-02,1,,,,,オトカンパニー,0
1098,4340003003771,新規,0,2022-05-02,2022-05-02,合同会社Ａｒｔ,,合同会社,鹿児島県,姶良市,平松７５４６番地５９,,46,225,8995652,,,,,,,2022-05-02,1,,,,,アール,0
1099,4360003011987,新規,0,2022-05-02,2022-05-02,篤齋合同会社,,合同会社,沖縄県,島尻郡南風原町,字兼城２００番地ヨシロビル１Ｆ,,47,350,9011111,,,,,,,2022-05-02,1,,,,,トクサイ,0
1100,4360005006647,新規,0,2022-05-02,2022-05-02,一般社団法人Ｃｏ‐Ｌｉｎｋ,,その他の設立登記法人,沖縄県,那覇市,首里池端町３４番地２階,,47,201,9030824,,,,,,,2022-05-02,1,,,,,コリンク,0
1107,4390001016878,新規,0,2022-05-02,2022-05-02,株式会社ＣＬＵＴＣＨ,,株式会社,山形県,南陽市,島貫５９１番地の４,,06,213,9992244,,,,,,,2022-05-02,1,,,,,クラッチ,0
1109,4410001013179,新規,0,2022-05-02,2022-05-02,丸徳総建株式会社,,株式会社,秋田県,仙北市,田沢湖生保内字浮世坂５６番地１,,05,215,0141201,,,,,,,2022-05-02,1,,,,,マルトクソウケン,0
1115,4430001086537,新規,0,2022-05-02,2022-05-02,ウォータープレイス株式会社,,株式会社,北海道,札幌市中央区,南八条西３丁目６番地１,,01,101,0640808,,,,,,,2022-05-02,1,,,,,ウォータープレイス,0
1120,4430003013852,新規,0,2022-05-02,2022-05-02,Ｔ３Ｗ合同会社,,合同会社,北海道,札幌市東区,北十条東１丁目２番３－３０３号,,01,103,0650010,,,,,,,2022-05-02,1,,,,,ティースリーダブリュー,0
1121,4440001009075,新規,0,2022-05-02,2022-05-02,砂子電気株式会社,,株式会社,北海道,函館市,若松町２２番１５号,,01,202,0400063,,,,,,,2022-05-02,1,,,,,,0
1122,4460001005691,新規,0,2022-05-02,2022-05-02,株式会社むらづくり鶴居,,株式会社,北海道,阿寒郡鶴居村,鶴居西１丁目１番地,,01,667,0851203,,,,,,,2022-05-02,1,,,,,ムラヅクリツルイ,0
1123,4460003000897,新規,0,2022-05-02,2022-05-02,合同会社ｆａｎ,,合同会社,北海道,釧路市,昭和中央４丁目３番１８号,,01,206,0840910,,,,,,,2022-05-02,1,,,,,ファン,0
1129,4500001024183,新規,0,2022-05-02,2022-05-02,株式会社吉興,,株式会社,愛媛県,大洲市,田口甲２０３２番地,,38,207,7950063,,,,,,,2022-05-02,1,,,,,ヨシコウ,0
1138,4700150108056,新規,0,2022-05-02,2022-04-18,北中城村シルバー人材センター,,その他,沖縄県,中頭郡北中城村,字仲順４３２番地北中城村商工会内,,47,327,9012303,,,,,,,2022-04-18,1,,,,,キタナカグスクソンシルバージンザイセンター,0
1151,5010001226299,新規,0,2022-05-02,2022-05-02,株式会社ＳＹＳＮＡＧ＆ＰＡＲＴＮＥＲＳ,,株式会社,東京都,中央区,銀座８丁目１０番８号,,13,102,1040061,,,,,,,2022-05-02,1,,,,,シスナグアンドパートナーズ,0
1155,5010003037587,新規,0,2022-05-02,2022-05-02,合同会社ライチョウ,,合同会社,東京都,千代田区,丸の内３丁目１番１号東京共同会計事務所内,,13,101,1000005,,,,,,,2022-05-02,1,,,,,ライチョウ,0
1167,5010401166987,新規,0,2022-05-02,2022-05-02,ＹＧＰ株式会社,,株式会社,東京都,港区,赤坂１丁目９番１３号三会堂ビル９Ｆ,,13,103,1070052,,,,,,,2022-05-02,1,,,,,ワイジーピー,0
1168,5010401167060,新規,0,2022-05-02,2022-05-02,株式会社東和,,株式会社,東京都,港区,高輪４丁目２４－３６クレスト高輪Ｂ１０１室,,13,103,1080074,,,,,,,2022-05-02,1,,,,,トウワ,0
1169,5010401167077,新規,0,2022-05-02,2022-05-02,株式会社ワンアロー,,株式会社,東京都,港区,六本木７丁目７番７号８階,,13,103,1060032,,,,,,,2022-05-02,1,,,,,ワンアロー,0
1170,5010401167093,新規,0,2022-05-02,2022-05-02,株式会社オクトフォースキャピタルパートナーズ,,株式会社,東京都,港区,三田１丁目１１番１８号,,13,103,1080073,,,,,,,2022-05-02,1,,,,,オクトフォースキャピタルパートナーズ,0
1171,5010401167127,新規,0,2022-05-02,2022-05-02,株式会社ユークリッド,,株式会社,東京都,港区,赤坂８丁目５番４０号ペガサス青山６０１,,13,103,1070052,,,,,,,2022-05-02,1,,,,,ユークリッド,0
1194,5010801032913,新規,0,2022-05-02,2022-05-02,東京住吉トランスポート株式会社,,株式会社,東京都,大田区,東海４丁目３－１０三菱倉庫Ｂ棟,,13,111,1430001,,,,,,,2022-05-02,1,,,,,トウキョウスミヨシトランスポート,0
1214,5011101098711,新規,0,2022-05-02,2022-05-02,株式会社スイッチ,,株式会社,東京都,新宿区,西新宿７丁目１８－１８税理士ビル本館３０４,,13,104,1600023,,,,,,,2022-05-02,1,,,,,スイッチ,0
1233,5013105001799,新規,0,2022-05-02,2022-05-02,特定非営利活動法人おたまじゃくし,,その他の設立登記法人,東京都,青梅市,河辺町９丁目６番地の１、２－３０１,,13,205,1980036,,,,,,,2022-05-02,1,,,,,オタマジャクシ,0
1236,5013303006138,新規,0,2022-05-02,2022-05-02,ひなたの木合同会社,,合同会社,東京都,豊島区,雑司が谷３丁目６番６－３０３号東興ビル３０３,,13,116,1710032,,,,,,,2022-05-02,1,,,,,ヒナタノキ,0
1243,5020001146323,新規,0,2022-05-02,2022-05-02,株式会社スタイル,,株式会社,神奈川県,川崎市多摩区,東生田１丁目１５番１７－１０１号,,14,135,2140031,,,,,,,2022-05-02,1,,,,,スタイル,0
1244,5020001146348,新規,0,2022-05-02,2022-05-02,Ｇｒｏｖｅ株式会社,,株式会社,神奈川県,横浜市中区,矢口台２１番地２９,,14,104,2310831,,,,,,,2022-05-02,1,,,,,グローブ,0
1253,5020003021573,新規,0,2022-05-02,2022-05-02,合同会社Ｖａｌｅ,,合同会社,神奈川県,川崎市宮前区,土橋１丁目９番地８,,14,136,2160005,,,,,,,2022-05-02,1,,,,,ヴェール,0
1258,5021001075834,新規,0,2022-05-02,2022-05-02,梓工業株式会社,,株式会社,神奈川県,大和市,深見３７０６番地１５,,14,213,2420011,,,,,,,2022-05-02,1,,,,,アズサコウギョウ,0
1260,5021003011647,新規,0,2022-05-02,2022-05-02,合同会社ニッケンホーム,,合同会社,神奈川県,大和市,福田７丁目１２番３号,,14,213,2420024,,,,,,,2022-05-02,1,,,,,ニッケンホーム,0
1272,5030001147931,新規,0,2022-05-02,2022-05-02,ＳＵＺＥＥ株式会社,,株式会社,埼玉県,坂戸市,三光町３－２７－１０１号室,,11,239,3500235,,,,,,,2022-05-02,1,,,,,スージー,0
1273,5030001147989,新規,0,2022-05-02,2022-05-02,株式会社ｐｌｕｍｅ,,株式会社,埼玉県,さいたま市大宮区,高鼻町２丁目１４８番地１３,,11,103,3300803,,,,,,,2022-05-02,1,,,,,プルーム,0
1280,5030005020837,新規,0,2022-05-02,2022-05-02,一般社団法人一掃計画,,その他の設立登記法人,埼玉県,和光市,本町３１番１０－１２０４号ＣＩハイツ,,11,229,3510114,,,,,,,2022-05-02,1,,,,,イッソウケイカク,0
1287,5040001123213,新規,0,2022-05-02,2022-05-02,株式会社大八,,株式会社,千葉県,市原市,八幡３番地９,,12,219,2900062,,,,,,,2022-05-02,1,,,,,ダイハチ,0
1293,5040005021586,新規,0,2022-05-02,2022-05-02,一般社団法人サステイナブルキャンパス推進協議会,,その他の設立登記法人,千葉県,柏市,西原１丁目２１番１３号,,12,217,2770885,,,,,,,2022-05-02,1,,,,,サステイナブルキャンパススイシンキョウギカイ,0
1294,5040005021594,新規,0,2022-05-02,2022-05-02,一般社団法人光る福祉,,その他の設立登記法人,千葉県,八街市,大木６７４番地９９,,12,230,2891111,,,,,,,2022-05-02,1,,,,,ヒカルフクシ,0
1298,5050003006530,新規,0,2022-05-02,2022-05-02,合同会社豐愛,,合同会社,茨城県,水戸市,南町２丁目６－５０,,08,201,3100021,,,,,,,2022-05-02,1,,,,,ホウアイ,0
1303,5080001024911,新規,0,2022-05-02,2022-05-02,株式会社Ａｒｃｏ　Ｌｉｎｋ,,株式会社,静岡県,静岡市葵区,建穂２丁目５番３０－４０１号,,22,101,4211214,,,,,,,2022-05-02,1,,,,,アルコリンク,0
1306,5080101023243,新規,0,2022-05-02,2022-05-02,株式会社永遠エターナル,,株式会社,静岡県,富士市,宮下１１１番地の１２,,22,210,4160947,,,,,,,2022-05-02,1,,,,,トワエターナル,0
1333,5120001245528,新規,0,2022-05-02,2022-05-02,株式会社オアシスセンター,,株式会社,大阪府,大阪市城東区,蒲生４丁目１７番１５号,,27,118,5360016,,,,,,,2022-05-02,1,,,,,オアシスセンター,0
1334,5120001245560,新規,0,2022-05-02,2022-05-02,株式会社おおさか砕石販売社,,株式会社,大阪府,大阪市住吉区,沢之町１丁目１番２６号,,27,120,5580031,,,,,,,2022-05-02,1,,,,,オオサカサイセキハンバイシャ,0
1345,5120101065512,新規,0,2022-05-02,2022-05-02,株式会社ミューズ,,株式会社,大阪府,岸和田市,別所町２丁目８番２５号,,27,202,5960045,,,,,,,2022-05-02,1,,,,,ミューズ,0
1348,5120105009556,新規,0,2022-05-02,2022-05-02,ＬＡＶＯＲＯ協同組合,,その他の設立登記法人,大阪府,羽曳野市,古市１７４０番地の３,,27,222,5830852,,,,,,,2022-05-02,1,,,,,ラヴォロ,0
1350,5120901045911,新規,0,2022-05-02,2022-05-02,株式会社ワイズプラン,,株式会社,大阪府,池田市,石橋２丁目１３番２５－１０５号,,27,204,5630032,,,,,,,2022-05-02,1,,,,,ワイズプラン,0
1351,5120903004130,新規,0,2022-05-02,2022-05-02,合同会社書精霊ＮＥＴ,,合同会社,大阪府,箕面市,粟生間谷西２丁目４番１０－４０５号,,27,220,5620023,,,,,,,2022-05-02,1,,,,,ショセイレイネット,0
1354,5130001071667,新規,0,2022-05-02,2022-05-02,株式会社ｓｅｎｃｉｌｌｏ,,株式会社,京都府,京都市左京区,聖護院東寺領町６－２,,26,103,6068394,,,,,,,2022-05-02,1,,,,,センシージョ,0
1361,5140001125744,新規,0,2022-05-02,2022-05-02,株式会社ブレインナビオン,,株式会社,兵庫県,神戸市中央区,海岸通３番地,,28,110,6500024,,,,,,,2022-05-02,1,,,,,ブレインナビオン,0
1362,5140001125835,新規,0,2022-05-02,2022-05-02,株式会社ＹＯＵスマイル,,株式会社,兵庫県,神戸市西区,天が岡６７９番地の３４,,28,111,6512141,,,,,,,2022-05-02,1,,,,,ユースマイル,0
1375,5180001151118,新規,0,2022-05-02,2022-05-02,株式会社ノアプランニング,,株式会社,愛知県,一宮市,大和町妙興寺字天神１４番地１,,23,203,4910922,,,,,,,2022-05-02,1,,,,,ノアプランニング,0
1376,5180001151126,新規,0,2022-05-02,2022-05-02,株式会社Ｍ．Ｒ．ＩＮＴＥＲＮＡＴＩＯＮＡＬ,,株式会社,愛知県,名古屋市港区,甚兵衛通１丁目５番地の１シャトーブランエブルー３０５号,,23,111,4550822,,,,,,,2022-05-02,1,,,,,エムアールインターナショナル,0
1390,5180301036183,新規,0,2022-05-02,2022-05-02,株式会社ＫＣプロデュース,,株式会社,愛知県,西尾市,針曽根町丸山９４番地１,,23,213,4450886,,,,,,,2022-05-02,1,,,,,ケーシープロデュース,0
1405,5230001019342,新規,0,2022-05-02,2022-05-02,株式会社山帽子カリン,,株式会社,富山県,高岡市,福岡町五位５７番地２,,16,202,9390152,,,,,,,2022-05-02,1,,,,,,0
1409,5240001059692,新規,0,2022-05-02,2022-05-02,株式会社大法,,株式会社,広島県,呉市,広多賀谷２丁目３番９号,,34,202,7370134,,,,,,,2022-05-02,1,,,,,タイホウ,0
1410,5240001059701,新規,0,2022-05-02,2022-05-02,株式会社藤川興商,,株式会社,広島県,山県郡北広島町,都志見５８,,34,369,7311712,,,,,,,2022-05-02,1,,,,,フジカワコウショウ,0
1419,5270005005517,新規,0,2022-05-02,2022-05-02,医療法人わたなべクリニック,,その他の設立登記法人,鳥取県,鳥取市,南隈４４０番地,,31,201,6800903,,,,,,,2022-05-02,1,,,,,ワタナベクリニック,0
1420,5280001008687,新規,0,2022-05-02,2022-05-02,株式会社Ｎ‐ｓｔｒａｔｅｇｉｓｔ,,株式会社,島根県,出雲市,今市町北本町１丁目２番地,,32,203,6930002,,,,,,,2022-05-02,1,,,,,エヌストラテジスト,0
1428,5290001097382,新規,0,2022-05-02,2022-05-02,株式会社メスティエーレ,,株式会社,福岡県,福岡市中央区,谷１丁目３番１－３０１号,,40,133,8100031,,,,,,,2022-05-02,1,,,,,メスティエーレ,0
1429,5290001097390,新規,0,2022-05-02,2022-05-02,株式会社グーフィージャパン,,株式会社,福岡県,糸島市,志摩芥屋９１１番地２,,40,230,8191335,,,,,,,2022-05-02,1,,,,,グーフィージャパン,0
1435,5290003012447,新規,0,2022-05-02,2022-05-02,インリビング合同会社,,合同会社,福岡県,福岡市城南区,田島５丁目１３番５０－１０２号,,40,136,8140113,,,,,,,2022-05-02,1,,,,,インリビング,0
1438,5290801028495,新規,0,2022-05-02,2022-05-02,株式会社勝建舎,,株式会社,福岡県,北九州市小倉南区,下曽根２丁目３番１４号,,40,107,8000217,,,,,,,2022-05-02,1,,,,,カツケンシャ,0
1439,5290803004115,新規,0,2022-05-02,2022-05-02,合同会社ＴＩＲＵＰＡＴＩ,,合同会社,福岡県,北九州市小倉北区,下到津４丁目９－２,,40,106,8030846,,,,,,,2022-05-02,1,,,,,ティルパティ,0
1440,5310001017833,新規,0,2022-05-02,2022-05-02,株式会社荒木興業,,株式会社,長崎県,佐世保市,指方町２５７２番地土居アパート２０２,,42,202,8593242,,,,,,,2022-05-02,1,,,,,アラキコウギョウ,0
1444,5330001029686,新規,0,2022-05-02,2022-05-02,八喜クリーン株式会社,,株式会社,熊本県,熊本市中央区,九品寺４丁目２１番８号エコービル２Ｂ,,43,101,8620976,,,,,,,2022-05-02,1,,,,,ハチヨシクリーン,0
1445,5330001029694,新規,0,2022-05-02,2022-05-02,株式会社アステ,,株式会社,熊本県,熊本市東区,月出２丁目２番５１号１Ｆー２,,43,102,8620920,,,,,,,2022-05-02,1,,,,,アステ,0
1458,5350003004074,新規,0,2022-05-02,2022-05-02,合同会社ＡＱＵＡ,,合同会社,宮崎県,西都市,大字三宅２２７８番地ミルトシュテルンＡ１０２,,45,208,8810005,,,,,,,2022-05-02,1,,,,,アクア,0
1459,5360001030311,新規,0,2022-05-02,2022-05-02,株式会社ラポール,,株式会社,沖縄県,宜野湾市,志真志３丁目５番６号,,47,205,9012213,,,,,,,2022-05-02,1,,,,,ラポール,0
1460,5360001030360,新規,0,2022-05-02,2022-05-02,株式会社ｃｏｍｐａｓｓ,,株式会社,沖縄県,宮古島市,平良字下里１０９番地７,,47,214,9060013,,,,,,,2022-05-02,1,,,,,コンパス,0
1461,5360003011986,新規,0,2022-05-02,2022-05-02,合同会社仲門口,,合同会社,沖縄県,国頭郡金武町,字金武３８５番地,,47,314,9041201,,,,,,,2022-05-02,1,,,,,ナカジョウグチ,0
1466,5370003005673,新規,0,2022-05-02,2022-05-02,合同会社Ｗ・Ｉ・Ｎ,,合同会社,宮城県,仙台市宮城野区,中野５丁目９番地の１８,,04,102,9830013,,,,,,,2022-05-02,1,,,,,ウイン,0
1479,5400001015869,新規,0,2022-05-02,2022-05-02,株式会社エーステック工業,,株式会社,岩手県,一関市,関が丘１４番地１,,03,209,0210851,,,,,,,2022-05-02,1,,,,,エーステックコウギョウ,0
1481,5420003002509,新規,0,2022-05-02,2022-05-02,合同会社エコ・ワーク,,合同会社,青森県,五所川原市,十三通行道１０８番地３,,02,205,0370403,,,,,,,2022-05-02,1,,,,,エコワーク,0
1484,5430001086536,新規,0,2022-05-02,2022-05-02,株式会社プラスクリエイト,,株式会社,北海道,札幌市北区,屯田一条２丁目１番２６号,,01,102,0020851,,,,,,,2022-05-02,1,,,,,プラスクリエイト,0
1494,5700150107511,新規,0,2022-05-02,2022-03-25,ｔｅａｍキーチェーン,,その他,東京都,武蔵野市,関前４丁目１－１２パールハイツ４０５,,13,203,1800014,,,,,,,2022-03-25,1,,,,,チームキーチエーン,0
1505,6010001226125,新規,0,2022-05-02,2022-05-02,ゴールデンポイントチャイナ株式会社,,株式会社,東京都,千代田区,二番町１番地２（番町ハイム８２５号室）,,13,101,1020084,,,,,,,2022-05-02,1,,,,,ゴールデンポイントチャイナ,0
1506,6010001226281,新規,0,2022-05-02,2022-05-02,株式会社愛燦燦,,株式会社,東京都,中央区,日本橋箱崎町７番２号,,13,102,1030015,,,,,,,2022-05-02,1,,,,,アイサンサン,0
1508,6010101015163,新規,0,2022-05-02,2022-05-02,株式会社Ｕｎｉｓｏｎ　Ｓｔｕｄｉｏ,,株式会社,東京都,八王子市,丹木町１丁目１３８－２,,13,201,1920003,,,,,,,2022-05-02,1,,,,,ユニゾンスタジオ,0
1515,6010401166986,新規,0,2022-05-02,2022-05-02,ＳＳＳ準備株式会社,,株式会社,東京都,港区,東新橋１丁目５番２号,,13,103,1050021,,,,,,,2022-05-02,1,,,,,エスエスエスジュンビ,0
1516,6010401167084,新規,0,2022-05-02,2022-05-02,クエッタ株式会社,,株式会社,東京都,港区,六本木４丁目９番２号,,13,103,1060032,,,,,,,2022-05-02,1,,,,,クエッタ,0
1520,6010601061054,新規,0,2022-05-02,2022-05-02,株式会社ＧＬＯＩＲＥ,,株式会社,東京都,墨田区,江東橋３丁目５番１号ザ・バレル立田ビル１階,,13,107,1300022,,,,,,,2022-05-02,1,,,,,グロワール,0
1521,6010601061062,新規,0,2022-05-02,2022-05-02,株式会社ツーバイナイン,,株式会社,東京都,江東区,南砂２丁目３６番１１号ＡＣＮプライムタワー東陽町６階,,13,108,1360076,,,,,,,2022-05-02,1,,,,,ツーバイナイン,0
1522,6010601061070,新規,0,2022-05-02,2022-05-02,華洋株式会社,,株式会社,東京都,江東区,海辺１５－５,,13,108,1350012,,,,,,,2022-05-02,1,,,,,カヨウ,0
1525,6010603009514,新規,0,2022-05-02,2022-05-02,ＢＥＬＬＦＬＯＷＥＲ合同会社,,合同会社,東京都,江東区,枝川１丁目１番４－６０１号,,13,108,1350051,,,,,,,2022-05-02,1,,,,,ベルフラワー,0
1544,6011101098685,新規,0,2022-05-02,2022-05-02,株式会社Ａｆｆｅｃｔｉｏｎ　Ｍｕｔｕｅｌｌｅ,,株式会社,東京都,新宿区,新宿２丁目５番１２号,,13,104,1600022,,,,,,,2022-05-02,1,,,,,アフェクションミューチュエル,0
1547,6011301027741,新規,0,2022-05-02,2022-05-02,株式会社Ｃｒｅｃｅｒ,,株式会社,東京都,杉並区,阿佐谷北１丁目３３番１６号,,13,115,1660001,,,,,,,2022-05-02,1,,,,,クレセル,0
1553,6011403003649,新規,0,2022-05-02,2022-05-02,合同会社Ｓｕｐｅｒｓｏｎｉｃ,,合同会社,東京都,板橋区,板橋１丁目５３番１２－１５０６号,,13,119,1730004,,,,,,,2022-05-02,1,,,,,スーパーソニック,0
1561,6011703003134,新規,0,2022-05-02,2022-05-02,ＳＵＲＹＡ　ＩＮＴＥＲＮＡＴＩＯＮＡＬ合同会社,,合同会社,東京都,江戸川区,平井４丁目１２番１８号ＫＪビル３０８,,13,123,1320035,,,,,,,2022-05-02,1,,,,,スリヤインターナショナル,0
1562,6011705001730,新規,0,2022-05-02,2022-05-02,特定非営利活動法人明日がある,,その他の設立登記法人,東京都,江戸川区,東葛西６丁目３４番１８－３０４号,,13,123,1340084,,,,,,,2022-05-02,1,,,,,アシタガアル,0
1568,6013101008905,新規,0,2022-05-02,2022-05-02,桝屋米穀株式会社,,株式会社,東京都,西多摩郡瑞穂町,箱根ケ崎東松原２６番地１７,,13,303,1901222,,,,,,,2022-05-02,1,,,,,マスヤベイコク,0
1576,6020001146339,新規,0,2022-05-02,2022-05-02,株式会社アクアエンジ,,株式会社,神奈川県,横浜市中区,相生町６丁目１０２番地,,14,104,2310012,,,,,,,2022-05-02,1,,,,,アクアエンジ,0
1577,6020001146347,新規,0,2022-05-02,2022-05-02,株式会社ＲＣＣ,,株式会社,神奈川県,横浜市港北区,樽町４丁目２番８号,,14,109,2220001,,,,,,,2022-05-02,1,,,,,アールシーシー,0
1579,6020003021713,新規,0,2022-05-02,2022-05-02,合同会社ユニック,,合同会社,神奈川県,横浜市都筑区,池辺町２３９７番地１３,,14,118,2240053,,,,,,,2022-05-02,1,,,,,ユニック,0
1597,6021003011654,新規,0,2022-05-02,2022-05-02,Ｉｎ　ｐａｉｒｓ合同会社,,合同会社,神奈川県,相模原市南区,相模台２丁目１２番１７号,,14,153,2520321,,,,,,,2022-05-02,1,,,,,インペアーズ,0
1606,6030001148012,新規,0,2022-05-02,2022-05-02,イチテック株式会社,,株式会社,埼玉県,和光市,丸山台３丁目１－３０レフィナード２０３,,11,229,3510112,,,,,,,2022-05-02,1,,,,,イチテック,0
1615,6040001123229,新規,0,2022-05-02,2022-05-02,株式会社ＳＥＡ　ＳＥＲＶＩＣＥ,,株式会社,千葉県,富津市,絹４４４,,12,226,2930034,,,,,,,2022-05-02,1,,,,,エスイーエーサービス,0
1622,6050001051024,新規,0,2022-05-02,2022-05-02,株式会社ＮＲＳ,,株式会社,茨城県,那珂郡東海村,大字村松１２６２番地１０,,08,341,3191112,,,,,,,2022-05-02,1,,,,,エヌアールエス,0
1623,6060003004053,新規,0,2022-05-02,2022-05-02,合同会社マーヴェラス,,合同会社,栃木県,宇都宮市,鶴田町６５８－１１,,09,201,3200851,,,,,,,2022-05-02,1,,,,,マーヴェラス,0
1627,6080401025780,新規,0,2022-05-02,2022-05-02,小林建設株式会社,,株式会社,静岡県,浜松市中区,領家１丁目７番２１号,,22,131,4300852,,,,,,,2022-05-02,1,,,,,コバヤシケンセツ,0
1630,6100001035293,新規,0,2022-05-02,2022-05-02,株式会社さいわい,,株式会社,長野県,松本市,城東２丁目２番２０号,,20,202,3900807,,,,,,,2022-05-02,1,,,,,サイワイ,0
1653,6120001245403,新規,0,2022-05-02,2022-05-02,南和テック株式会社,,株式会社,大阪府,大阪市生野区,舎利寺１丁目１５番１３号,,27,116,5440022,,,,,,,2022-05-02,1,,,,,ナンワテック,0
1654,6120001245592,新規,0,2022-05-02,2022-05-02,月青堂株式会社,,株式会社,大阪府,大阪市生野区,生野西４丁目１９番１０号,,27,116,5440024,,,,,,,2022-05-02,1,,,,,ゲッセイドウ,0
1656,6120101065494,新規,0,2022-05-02,2022-05-02,株式会社キノシタファーム,,株式会社,大阪府,和泉市,仏並町３０２２番地,,27,219,5941136,,,,,,,2022-05-02,1,,,,,キノシタファーム,0
1659,6120901045910,新規,0,2022-05-02,2022-05-02,株式会社共済,,株式会社,大阪府,箕面市,箕面８丁目２番１６号,,27,220,5620001,,,,,,,2022-05-02,1,,,,,キョウサイ,0
1660,6130001071666,新規,0,2022-05-02,2022-05-02,株式会社アダマス,,株式会社,京都府,京都市西京区,山田弦馳町４４番地,,26,111,6158271,,,,,,,2022-05-02,1,,,,,アダマス,0
1661,6130001071682,新規,0,2022-05-02,2022-05-02,株式会社ＳＡＴＩＳＦＡＣＴＯＲＹ,,株式会社,京都府,宮津市,字由良３４００番地の３,,26,205,6260071,,,,,,,2022-05-02,1,,,,,サティスファクトリー,0
1666,6140001125850,新規,0,2022-05-02,2022-05-02,株式会社ＭＴワークス,,株式会社,兵庫県,たつの市,新宮町井野原５４７－７,,28,229,6794315,,,,,,,2022-05-02,1,,,,,エムティーワークス,0
1671,6160003002559,新規,0,2022-05-02,2022-05-02,合同会社三方よし不動産,,合同会社,滋賀県,草津市,西大路町２－２草津ＢＡＳＥ－６,,25,206,5250037,,,,,,,2022-05-02,1,,,,,サンポウヨシフドウサン,0
1684,6180001151133,新規,0,2022-05-02,2022-05-02,株式会社Ａｂｉｌｉｔｙ　Ｈｏｍｅ,,株式会社,愛知県,名古屋市北区,五反田町１５６番地シャンベルタン１０１,,23,103,4620011,,,,,,,2022-05-02,1,,,,,アビリティーホーム,0
1686,6180003023776,新規,0,2022-05-02,2022-05-02,スーペリア合同会社,,合同会社,愛知県,名古屋市東区,泉１丁目１８番３０号プラウドタワー名古屋久屋大通公園２１０１号室,,23,102,4610001,,,,,,,2022-05-02,1,,,,,スーペリア,0
1687,6180003023784,新規,0,2022-05-02,2022-05-02,Ｔ＆Ｒ合同会社,,合同会社,愛知県,名古屋市中区,栄１丁目２３番２９号,,23,106,4600008,,,,,,,2022-05-02,1,,,,,ティーアンドアール,0
1703,6240003005603,新規,0,2022-05-02,2022-05-02,ブルーイン・マネージメント合同会社,,合同会社,広島県,広島市西区,草津梅が台１３番４４－２０１号,,34,104,7330864,,,,,,,2022-05-02,1,,,,,ブルーインマネージメント,0
1713,6270005005516,新規,0,2022-05-02,2022-05-02,弁護士法人ＯＲＣＡ,,その他の設立登記法人,鳥取県,米子市,加茂町２丁目１１３番地,,31,202,6830823,,,,,,,2022-05-02,1,,,,,オルカ,0
1718,6290001097398,新規,0,2022-05-02,2022-05-02,株式会社ＬＩＮＫ　ＵＰ,,株式会社,福岡県,福岡市東区,香椎駅前２丁目９－２香椎ユーマイビル９階,,40,131,8130013,,,,,,,2022-05-02,1,,,,,リンクアップ,0
1722,6290801028486,新規,0,2022-05-02,2022-05-02,株式会社Ｆｕｎｏｖａ,,株式会社,福岡県,北九州市小倉北区,下到津４丁目９番２７－３０１号,,40,106,8030846,,,,,,,2022-05-02,1,,,,,ファノーヴァ,0
1723,6290805009549,新規,0,2022-05-02,2022-05-02,医療法人碧和会,,その他の設立登記法人,福岡県,北九州市小倉南区,曽根北町６番１６号,,40,107,8000229,,,,,,,2022-05-02,1,,,,,ヘキワカイ,0
1728,6320003003796,新規,0,2022-05-02,2022-05-02,合同会社さるびクラフト,,合同会社,大分県,別府市,駅前本町９－７コモールカフェ別府２０２号,,44,202,8740934,,,,,,,2022-05-02,1,,,,,サルビクラフト,0
1731,6330001029693,新規,0,2022-05-02,2022-05-02,株式会社ＲＹＵ,,株式会社,熊本県,合志市,須屋３４０４,,43,216,8611102,,,,,,,2022-05-02,1,,,,,リュウ,0
1733,6330003009347,新規,0,2022-05-02,2022-05-02,合同会社山げん,,合同会社,熊本県,合志市,須屋２９７２番地２７７,,43,216,8611102,,,,,,,2022-05-02,1,,,,,ヤマゲン,0
1737,6350003004073,新規,0,2022-05-02,2022-05-02,合同会社Ｍｐｌｕｓ,,合同会社,宮崎県,都城市,一万城町９６号２番地２,,45,202,8850041,,,,,,,2022-05-02,1,,,,,エムプラス,0
1739,6360001030343,新規,0,2022-05-02,2022-05-02,与儀商店株式会社,,株式会社,沖縄県,島尻郡南大東村,字在所１９２番地１,,47,357,9013805,,,,,,,2022-05-02,1,,,,,ヨギショウテン,0
1740,6360001030351,新規,0,2022-05-02,2022-05-02,株式会社東江組,,株式会社,沖縄県,糸満市,西川町１８－１３、１階,,47,210,9010304,,,,,,,2022-05-02,1,,,,,アガリエグミ,0
1741,6360003011952,新規,0,2022-05-02,2022-05-02,合同会社コネクト,,合同会社,沖縄県,中頭郡北谷町,字桑江３４５番地ＫＨ－６５,,47,326,9040103,,,,,,,2022-05-02,1,,,,,,0
1742,6360003011985,新規,0,2022-05-02,2022-05-02,合同会社Ｌｕａｎａ,,合同会社,沖縄県,沖縄市,海邦２丁目１４番２４号,,47,211,9042162,,,,,,,2022-05-02,1,,,,,ルアナ,0
1743,6370001048509,新規,0,2022-05-02,2022-05-02,株式会社アクアクリーン,,株式会社,宮城県,仙台市青葉区,錦ケ丘１丁目３７番地の８,,04,101,9893123,,,,,,,2022-05-02,1,,,,,アクアクリーン,0
1750,6380003005168,新規,0,2022-05-02,2022-05-02,合同会社しろやま事務所,,合同会社,福島県,いわき市,平字二町目２７番地ひかり第二ビル２０３,,07,204,9708026,,,,,,,2022-05-02,1,,,,,シロヤマジムショ,0
1760,6420003002508,新規,0,2022-05-02,2022-05-02,合同会社Ｍｓワークス,,合同会社,青森県,青森市,大字新城字山田５８９－２８,,02,201,0380042,,,,,,,2022-05-02,1,,,,,エムズワークス,0
1773,6490003001651,新規,0,2022-05-02,2022-05-02,合同会社こあ,,合同会社,高知県,高知市,八反町２丁目１２番２５号,,39,201,7800912,,,,,,,2022-05-02,1,,,,,コア,0
1799,7010001226149,新規,0,2022-05-02,2022-05-02,株式会社生涯健康管理研究所,,株式会社,東京都,中央区,日本橋横山町７－１９第３５イチオクビル３０１号,,13,102,1030003,,,,,,,2022-05-02,1,,,,,ショウガイケンコウカンリケンキュウジョ,0
1800,7010001226272,新規,0,2022-05-02,2022-05-02,Ｎ＆Ｓ開発株式会社,,株式会社,東京都,中央区,日本橋小舟町１４－７ＳＯＩＬＮｉｈｏｎｂａｓｈｉ,,13,102,1030024,,,,,,,2022-05-02,1,,,,,エヌアンドエスカイハツ,0
1801,7010001226297,新規,0,2022-05-02,2022-05-02,株式会社はこぶん,,株式会社,東京都,中央区,日本橋富沢町９－４,,13,102,1030006,,,,,,,2022-05-02,1,,,,,ハコブン,0
1815,7010401167091,新規,0,2022-05-02,2022-05-02,株式会社ＳＡＫＵＲＡ　ＭＩＬＬ,,株式会社,東京都,港区,白金台２丁目１３番８号,,13,103,1080071,,,,,,,2022-05-02,1,,,,,サクラミル,0
1817,7010405020924,新規,0,2022-05-02,2022-05-02,一般財団法人日本アロマ療法機構,,その他の設立登記法人,東京都,港区,南青山２丁目２番１５号ウィン青山９４２,,13,103,1070062,,,,,,,2022-05-02,1,,,,,ニホンアロマリョウホウキコウ,0
1818,7010501048778,新規,0,2022-05-02,2022-05-02,ＶＭ　ＢＯＥＫＩ株式会社,,株式会社,東京都,台東区,台東３丁目４３－１０ライオンズマンション御徒町第２－７０８,,13,106,1100016,,,,,,,2022-05-02,1,,,,,ブイエムボーエキ,0
1819,7010505003309,新規,0,2022-05-02,2022-05-02,一般社団法人地球におんがえし,,その他の設立登記法人,東京都,台東区,元浅草３丁目１８番１８号穂高元浅草ビル３０１,,13,106,1110041,,,,,,,2022-05-02,1,,,,,チキュウニオンガエシ,0
1822,7010601061012,新規,0,2022-05-02,2022-05-02,株式会社ドライフラワー,,株式会社,東京都,江東区,平野２丁目１１番１９号,,13,108,1350023,,,,,,,2022-05-02,1,,,,,ドライフラワー,0
1823,7010603009505,新規,0,2022-05-02,2022-05-02,Ｒｅｌａｊａｎｔｅ合同会社,,合同会社,東京都,江東区,青海２丁目５番１０号テレコムセンタービル東棟１４階,,13,108,1350064,,,,,,,2022-05-02,1,,,,,リラランテ,0
1829,7010901050805,新規,0,2022-05-02,2022-05-02,株式会社ザイクル,,株式会社,東京都,世田谷区,上用賀１丁目１８番１１号,,13,112,1580098,,,,,,,2022-05-02,1,,,,,ザイクル,0
1844,7011101098718,新規,0,2022-05-02,2022-05-02,ＭｅｔａＬｉｆｅ株式会社,,株式会社,東京都,新宿区,大久保１丁目９－１７シルバービル大久保６０２,,13,104,1690072,,,,,,,2022-05-02,1,,,,,メタライフ,0
1845,7011103011711,新規,0,2022-05-02,2022-05-02,合同会社ＳＴＹＬＥＲＳ　ＵＮＩＯＮ,,合同会社,東京都,新宿区,西新宿４丁目２０－１,,13,104,1600023,,,,,,,2022-05-02,1,,,,,スタイラーズユニオン,0
1852,7011303004399,新規,0,2022-05-02,2022-05-02,ｋ．ｏｎｏ合同会社,,合同会社,東京都,杉並区,浜田山２丁目１５番３４号パストラルハイム浜田山３０２,,13,115,1680065,,,,,,,2022-05-02,1,,,,,ケーオノ,0
1854,7011403003648,新規,0,2022-05-02,2022-05-02,合同会社ｙ２は活,,合同会社,東京都,板橋区,東新町１丁目２３番１号,,13,119,1740074,,,,,,,2022-05-02,1,,,,,ワニハカツ,0
1855,7011501028002,新規,0,2022-05-02,2022-05-02,株式会社Ｍ‐Ｆｉｒｓｔ,,株式会社,東京都,荒川区,西尾久７丁目１２－２成加パラシオン１０２号室,,13,118,1160011,,,,,,,2022-05-02,1,,,,,エムファースト,0
1856,7011601025923,新規,0,2022-05-02,2022-05-02,株式会社ｏｎｅＨ,,株式会社,東京都,練馬区,三原台２丁目１８番７号,,13,120,1770031,,,,,,,2022-05-02,1,,,,,ワンエイチ,0
1857,7011701025278,新規,0,2022-05-02,2022-05-02,株式会社リアン,,株式会社,東京都,江戸川区,東葛西８丁目３番１－６０１号,,13,123,1340084,,,,,,,2022-05-02,1,,,,,リアン,0
1858,7011703003133,新規,0,2022-05-02,2022-05-02,合同会社花緑青,,合同会社,東京都,江戸川区,船堀３丁目１３番３６号サンエイコーポ２０２,,13,123,1340091,,,,,,,2022-05-02,1,,,,,ハナロクショウ,0
1859,7011801040656,新規,0,2022-05-02,2022-05-02,株式会社明巧社,,株式会社,東京都,足立区,西伊興３丁目１番２６号,,13,121,1210824,,,,,,,2022-05-02,1,,,,,メイコウシャ,0
1860,7011801040664,新規,0,2022-05-02,2022-05-02,ＤＨＰ　Ｓｏｌｕｔｉｏｎ株式会社,,株式会社,東京都,葛飾区,新小岩２丁目１３番５号フレンドリーかわかみ３０２号,,13,122,1240024,,,,,,,2022-05-02,1,,,,,ディエイチピーソリューション,0
1862,7011803005070,新規,0,2022-05-02,2022-05-02,合同会社ｓｉｏｎ,,合同会社,東京都,足立区,保木間４丁目１－１４ルネサンスパーク２０２,,13,121,1210064,,,,,,,2022-05-02,1,,,,,シオン,0
1869,7012801021539,新規,0,2022-05-02,2022-05-02,株式会社ユニバース,,株式会社,東京都,立川市,錦町１丁目４－２０ＴＳＣビル５階,,13,202,1900022,,,,,,,2022-05-02,1,,,,,ユニバース,0
1870,7013101008904,新規,0,2022-05-02,2022-05-02,株式会社美匠建設,,株式会社,東京都,西多摩郡瑞穂町,大字箱根ケ崎１２４８番地２リバービル２Ｆ,,13,303,1901221,,,,,,,2022-05-02,1,,,,,ビショウケンセツ,0
1879,7020001146354,新規,0,2022-05-02,2022-05-02,株式会社栄光設備,,株式会社,神奈川県,横浜市緑区,三保町２４６７番地１６２,,14,113,2260015,,,,,,,2022-05-02,1,,,,,エイコウセツビ,0
1881,7020005015514,新規,0,2022-05-02,2022-05-02,一般社団法人エシカルライフ食育協会,,その他の設立登記法人,神奈川県,横浜市泉区,和泉が丘１丁目３５番６号,,14,116,2450022,,,,,,,2022-05-02,1,,,,,エシカルライフショクイクキョウカイ,0
1889,7021003011629,新規,0,2022-05-02,2022-05-02,合同会社ＡＮＪ,,合同会社,神奈川県,相模原市中央区,由野台１丁目１番７号,,14,152,2520222,,,,,,,2022-05-02,1,,,,,エーエヌジェイ,0
1912,7050001051031,新規,0,2022-05-02,2022-05-02,株式会社Ｃｈａ‐Ｔｅｃｈｎｏｌｏｇｉｅｓ,,株式会社,茨城県,つくば市,金田４１－２サンチェリーフィールド２０２号室,,08,220,3050018,,,,,,,2022-05-02,1,,,,,シーエイチエーテクノロジーズ,0
1921,7100001035292,新規,0,2022-05-02,2022-05-02,モカウッドジャパン株式会社,,株式会社,長野県,松本市,波田２００９番地１３,,20,202,3901401,,,,,,,2022-05-02,1,,,,,モカウッドジャパン,0
1927,7110003004749,新規,0,2022-05-02,2022-05-02,合同会社ＭＳＴデザイン,,合同会社,新潟県,新潟市中央区,二葉町３丁目５３３３－１７,,15,103,9518102,,,,,,,2022-05-02,1,,,,,マストデザイン,0
1935,7120001245567,新規,0,2022-05-02,2022-05-02,株式会社ＸＴ,,株式会社,大阪府,大阪市西成区,太子２丁目４番１号４５６プラザ２０２号,,27,122,5570002,,,,,,,2022-05-02,1,,,,,エックスティー,0
1943,7120003021594,新規,0,2022-05-02,2022-05-02,合同会社ＴＮＴＩ２,,合同会社,大阪府,大阪市淀川区,西三国４丁目６番１４－１３０３号,,27,123,5320006,,,,,,,2022-05-02,1,,,,,ティーエヌティーアイツー,0
1945,7120101065502,新規,0,2022-05-02,2022-05-02,株式会社Ａ　ａｎｄ　Ｃ,,株式会社,大阪府,堺市北区,百舌鳥梅町１丁３７４番地２,,27,146,5918032,,,,,,,2022-05-02,1,,,,,エーアンドシー,0
1946,7120101065510,新規,0,2022-05-02,2022-05-02,アクアインテルノ株式会社,,株式会社,大阪府,松原市,別所４丁目６番２６号,,27,217,5800005,,,,,,,2022-05-02,1,,,,,アクアインテルノ,0
1956,7140001125858,新規,0,2022-05-02,2022-05-02,株式会社ＤＩＧ,,株式会社,兵庫県,神戸市西区,王塚台４丁目２０番地の５,,28,111,6512135,,,,,,,2022-05-02,1,,,,,ディーアイジー,0
1974,7180001151099,新規,0,2022-05-02,2022-05-02,株式会社ｔｒａｄｅｓｐｒｏ,,株式会社,愛知県,丹羽郡大口町,伝右２丁目２０２番地１,,23,361,4800126,,,,,,,2022-05-02,1,,,,,トレーズプロ,0
1975,7180001151140,新規,0,2022-05-02,2022-05-02,株式会社スムースプロジェクト,,株式会社,愛知県,名古屋市港区,高木町５丁目３０番地グランディール２０１号,,23,111,4550821,,,,,,,2022-05-02,1,,,,,スムースプロジェクト,0
1977,7180003023775,新規,0,2022-05-02,2022-05-02,合同会社ＨＩＧＨ５,,合同会社,愛知県,名古屋市中区,新栄２丁目４６－３４千早ハイリス６０２号,,23,106,4600007,,,,,,,2022-05-02,1,,,,,ハイファイブ,0
1978,7180003023783,新規,0,2022-05-02,2022-05-02,ＡＭＹ合同会社,,合同会社,愛知県,名古屋市中区,栄１丁目２３番２９号,,23,106,4600008,,,,,,,2022-05-02,1,,,,,エーエムワイ,0
1979,7180005019763,新規,0,2022-05-02,2022-05-02,一般社団法人地域医療推進センター尾張,,その他の設立登記法人,愛知県,一宮市,奥町字蘇東５５番地,,23,203,4910201,,,,,,,2022-05-02,1,,,,,チイキイリョウスイシンセンターオワリ,0
1990,7200001040019,新規,0,2022-05-02,2022-05-02,株式会社堀建築,,株式会社,岐阜県,本巣市,文殊７５５番地,,21,218,5011203,,,,,,,2022-05-02,1,,,,,ホリケンチク,0
1998,7230001019340,新規,0,2022-05-02,2022-05-02,マスタラボ株式会社,,株式会社,富山県,富山市,婦中町外輪野８９０番地２６,,16,201,9392632,,,,,,,2022-05-02,1,,,,,,0
1999,7240001059690,新規,0,2022-05-02,2022-05-02,株式会社ＴＣＤ,,株式会社,広島県,広島市中区,江波南１丁目３２番１号,,34,101,7300835,,,,,,,2022-05-02,1,,,,,ティーシーディー,0
2000,7240001059699,新規,0,2022-05-02,2022-05-02,株式会社ｋａｓｏｋｕ,,株式会社,広島県,広島市中区,舟入南６丁目１－６,,34,101,7300847,,,,,,,2022-05-02,1,,,,,カソク,0
2001,7240003005602,新規,0,2022-05-02,2022-05-02,合同会社中下,,合同会社,広島県,東広島市,西条町土与丸１１８７番地１,,34,212,7390003,,,,,,,2022-05-02,1,,,,,ナカジモ,0
2018,7290001097380,新規,0,2022-05-02,2022-05-02,株式会社さくら,,株式会社,福岡県,福岡市中央区,地行浜２丁目２番４ザ・パークハウス福岡タワーズＷＥＳＴ２７０４,,40,133,8100065,,,,,,,2022-05-02,1,,,,,サクラ,0
2023,7290801028485,新規,0,2022-05-02,2022-05-02,株式会社Ｈａｇｕｋｕｍｉ,,株式会社,福岡県,北九州市八幡西区,浅川学園台２丁目１６番６号,,40,109,8070871,,,,,,,2022-05-02,1,,,,,ハグクミ,0
2029,7320003003795,新規,0,2022-05-02,2022-05-02,合同会社杏洋美建,,合同会社,大分県,大分市,大字片島２７８０番地１,,44,201,8700943,,,,,,,2022-05-02,1,,,,,アンヨウビケン,0
2034,7330003009346,新規,0,2022-05-02,2022-05-02,合同会社マグノーリア,,合同会社,熊本県,熊本市中央区,国府本町１２番６０号,,43,101,8620948,,,,,,,2022-05-02,1,,,,,マグノーリア,0
2043,7360001030359,新規,0,2022-05-02,2022-05-02,株式会社玉寺畜産,,株式会社,沖縄県,国頭郡今帰仁村,字平敷１６９,,47,306,9050423,,,,,,,2022-05-02,1,,,,,,0
2045,7370001048508,新規,0,2022-05-02,2022-05-02,株式会社伊東工業,,株式会社,宮城県,栗原市,築館字横須賀山口１３番地１,,04,213,9872224,,,,,,,2022-05-02,1,,,,,イトウコウギョウ,0
2069,7440001009072,新規,0,2022-05-02,2022-05-02,株式会社ｉｇｎａｌｌ,,株式会社,北海道,函館市,美原２丁目７番２１号万勝ビル,,01,202,0410806,,,,,,,2022-05-02,1,,,,,イグナル,0
2090,8010001226206,新規,0,2022-05-02,2022-05-02,株式会社マネラボ,,株式会社,東京都,文京区,向丘１丁目２０番６－８０９号,,13,105,1130023,,,,,,,2022-05-02,1,,,,,マネラボ,0
2091,8010001226214,新規,0,2022-05-02,2022-05-02,株式会社ｂｕｔ　ａｒｔ,,株式会社,東京都,中央区,銀座１丁目１２番４号Ｎ＆ＥＢＬＤ．７階,,13,102,1040061,,,,,,,2022-05-02,1,,,,,バットアート,0
2092,8010001226230,新規,0,2022-05-02,2022-05-02,ハッピーハウジング株式会社,,株式会社,東京都,中央区,銀座６丁目１３番７号新保ビル４１５号,,13,102,1040061,,,,,,,2022-05-02,1,,,,,ハッピーハウジング,0
2093,8010001226271,新規,0,2022-05-02,2022-05-02,株式会社Ｉ,,株式会社,東京都,千代田区,霞が関３丁目２番１号,,13,101,1000013,,,,,,,2022-05-02,1,,,,,アイ,0
2094,8010003037584,新規,0,2022-05-02,2022-05-02,合同会社くるとん,,合同会社,東京都,千代田区,岩本町３丁目８番８号中和秋葉原ビル７Ｆ３１,,13,101,1010032,,,,,,,2022-05-02,1,,,,,クルトン,0
2096,8010101015161,新規,0,2022-05-02,2022-05-02,株式会社リール,,株式会社,東京都,八王子市,越野２５番地２４－３０３号,,13,201,1920361,,,,,,,2022-05-02,1,,,,,リール,0
2100,8010401167041,新規,0,2022-05-02,2022-05-02,株式会社ＶＡＳＥ　ＤＥＳＩＧＮ　ＳＴＵＤＩＯ,,株式会社,東京都,港区,南青山２丁目２番１５号ウィン青山９４２,,13,103,1070062,,,,,,,2022-05-02,1,,,,,ベースデザインスタジオ,0
2101,8010401167116,新規,0,2022-05-02,2022-05-02,株式会社ＳＨＡＲＥＬＩＶＥ,,株式会社,東京都,港区,六本木５丁目１８－１９－１Ｆ,,13,103,1060032,,,,,,,2022-05-02,1,,,,,シェアライブ,0
2102,8010401167149,新規,0,2022-05-02,2022-05-02,株式会社ファーストエージェント,,株式会社,東京都,港区,浜松町２丁目２番１５号,,13,103,1050013,,,,,,,2022-05-02,1,,,,,ファーストエージェント,0
2104,8010501048777,新規,0,2022-05-02,2022-05-02,株式会社創和,,株式会社,東京都,台東区,入谷１丁目１８番４－６０８号,,13,106,1100013,,,,,,,2022-05-02,1,,,,,ソウワ,0
2131,8011001147177,新規,0,2022-05-02,2022-05-02,株式会社テレビの校正社,,株式会社,東京都,目黒区,大橋１丁目５番１－２１０３号,,13,110,1530044,,,,,,,2022-05-02,1,,,,,テレビノコウセイシャ,0
2132,8011001147210,新規,0,2022-05-02,2022-05-02,株式会社ハップン,,株式会社,東京都,渋谷区,西原１丁目５０－２稲見マンション３０１,,13,113,1510066,,,,,,,2022-05-02,1,,,,,ハップン,0
2136,8011101098691,新規,0,2022-05-02,2022-05-02,株式会社マッハワークス,,株式会社,東京都,新宿区,新宿１丁目３６番２号新宿第七葉山ビル３Ｆ,,13,104,1600022,,,,,,,2022-05-02,1,,,,,マッハワークス,0
2138,8011103011710,新規,0,2022-05-02,2022-05-02,合同会社ＥＹＦＳ,,合同会社,東京都,新宿区,北新宿１丁目２０－１０パイン新宿８０１号室,,13,104,1690074,,,,,,,2022-05-02,1,,,,,エイフス,0
2151,8011703003132,新規,0,2022-05-02,2022-05-02,ＢＥＴＴＥＲ合同会社,,合同会社,東京都,江戸川区,松島４丁目４５－１,,13,123,1320031,,,,,,,2022-05-02,1,,,,,ベター,0
2152,8011801040663,新規,0,2022-05-02,2022-05-02,虎虎科技株式会社,,株式会社,東京都,足立区,千住元町１１番１２号,,13,121,1200041,,,,,,,2022-05-02,1,,,,,フフテック,0
2157,8012403005344,新規,0,2022-05-02,2022-05-02,合同会社バイオフィリア,,合同会社,東京都,調布市,入間町３丁目８番地４３,,13,208,1820004,,,,,,,2022-05-02,1,,,,,バイオフィリア,0
2158,8012701017041,新規,0,2022-05-02,2022-05-02,ｕｌｕｌｅａ株式会社,,株式会社,東京都,東村山市,秋津町５丁目２６番地２４－１０１号,,13,213,1890001,,,,,,,2022-05-02,1,,,,,ウルレア,0
2160,8012805003111,新規,0,2022-05-02,2022-05-02,一般社団法人心のパートナー,,その他の設立登記法人,東京都,国分寺市,東恋ヶ窪４丁目６番地１９,,13,214,1850014,,,,,,,2022-05-02,1,,,,,ココロノパートナー,0
2173,8020001146295,新規,0,2022-05-02,2022-05-02,Ｗｉｌｌ＆Ｌａｕｒａ株式会社,,株式会社,神奈川県,川崎市高津区,二子４丁目１－５川田ビル２０２号室,,14,134,2130002,,,,,,,2022-05-02,1,,,,,ウィルアンドローラ,0
2174,8020001146345,新規,0,2022-05-02,2022-05-02,株式会社カカラボ,,株式会社,神奈川県,横浜市青葉区,あざみ野４丁目２１番地６－１０２,,14,117,2250011,,,,,,,2022-05-02,1,,,,,カカラボ,0
2179,8020005015513,新規,0,2022-05-02,2022-05-02,ＮＰＯ法人全国就労移行支援事業所連絡協議会,,その他の設立登記法人,神奈川県,横浜市磯子区,新杉田町８番地の７,,14,107,2350032,,,,,,,2022-05-02,1,,,,,ゼンコクシュウロウイコウシエンジギョウショレンラクキョウギカイ,0
2182,8021001075831,新規,0,2022-05-02,2022-05-02,株式会社ササル,,株式会社,神奈川県,鎌倉市,御成町１１番２号ヤノヤビル２Ｆ,,14,204,2480012,,,,,,,2022-05-02,1,,,,,ササル,0
2183,8021001075856,新規,0,2022-05-02,2022-05-02,株式会社エフティ,,株式会社,神奈川県,相模原市南区,南台２丁目１番４３号サーティーフォー第５ビル６０２,,14,153,2520314,,,,,,,2022-05-02,1,,,,,エフティ,0
2185,8021003011652,新規,0,2022-05-02,2022-05-02,Ｂｏｎｄ合同会社,,合同会社,神奈川県,大和市,西鶴間４丁目１２番３３号ライラックプラザ２０３,,14,213,2420005,,,,,,,2022-05-02,1,,,,,ボンド,0
2200,8040001123202,新規,0,2022-05-02,2022-05-02,株式会社結輝,,株式会社,千葉県,流山市,野々下３丁目７４５番地の２９,,12,220,2700135,,,,,,,2022-05-02,1,,,,,ユウキ,0
2201,8040001123219,新規,0,2022-05-02,2022-05-02,神奈備株式会社,,株式会社,千葉県,南房総市,石堂３２８番地,,12,234,2992503,,,,,,,2022-05-02,1,,,,,カンナビ,0
2207,8050003006536,新規,0,2022-05-02,2022-05-02,ＩＩＤＡ合同会社,,合同会社,茨城県,潮来市,日の出６丁目１番地１６－１０１,,08,223,3112423,,,,,,,2022-05-02,1,,,,,イイダ,0
2214,8080001024909,新規,0,2022-05-02,2022-05-02,株式会社創建工業,,株式会社,静岡県,焼津市,大覚寺１０番地の５,,22,212,4250088,,,,,,,2022-05-02,1,,,,,ソウケンコウギョウ,0
2216,8080401025779,新規,0,2022-05-02,2022-05-02,Ｖａｌｕｅ　ｐｌａｎｎｉｎｇ株式会社,,株式会社,静岡県,浜松市北区,三ヶ日町只木３９６番地,,22,135,4311412,,,,,,,2022-05-02,1,,,,,バリュープランニング,0
2231,8120001245574,新規,0,2022-05-02,2022-05-02,滝口シャッター株式会社,,株式会社,大阪府,大阪市都島区,都島中通１丁目２番１１号,,27,102,5340022,,,,,,,2022-05-02,1,,,,,タキグチシャッター,0
2232,8120001245624,新規,0,2022-05-02,2022-05-02,株式会社恭聖クリーン,,株式会社,大阪府,寝屋川市,黒原橘町１５番２１－５０１号,,27,215,5720058,,,,,,,2022-05-02,1,,,,,キョウセイクリーン,0
2236,8120105009545,新規,0,2022-05-02,2022-05-02,特定非営利活動法人泉南農業塾,,その他の設立登記法人,大阪府,泉南市,男里５丁目１番３０号,,27,228,5900526,,,,,,,2022-05-02,1,,,,,センナンノウギョウジュク,0
2243,8130001071664,新規,0,2022-05-02,2022-05-02,株式会社エルツ,,株式会社,京都府,京都市左京区,岩倉西宮田町６０番地,,26,103,6060011,,,,,,,2022-05-02,1,,,,,エルツ,0
2244,8130001071680,新規,0,2022-05-02,2022-05-02,株式会社ＤｒｉｐＡｃｅ,,株式会社,京都府,京都市上京区,宮垣町９１まむあん荒神口１０２,,26,102,6020853,,,,,,,2022-05-02,1,,,,,ドリップエース,0
2249,8140001125824,新規,0,2022-05-02,2022-05-02,株式会社ＭＩＲＡＩＥ,,株式会社,兵庫県,姫路市,広畑区西夢前台５丁目２９４番地,,28,201,6711103,,,,,,,2022-05-02,1,,,,,ミライエ,0
2250,8140001125840,新規,0,2022-05-02,2022-05-02,株式会社ＣＡＮＤＩＤＯ,,株式会社,兵庫県,神戸市中央区,北長狭通３丁目２－１８クレールコート北長狭ＩＩＩ３０２,00126452,28,110,6500012,,,,,,,2022-05-02,1,,,,,カンディド,0
2251,8140001125849,新規,0,2022-05-02,2022-05-02,ＮＩＣＥ株式会社,,株式会社,兵庫県,神戸市中央区,山本通２丁目１４番２１号ＰＡＬＭＡＮＳＩＯＮ６Ｆ,,28,110,6500003,,,,,,,2022-05-02,1,,,,,ナイス,0
2270,8180001151115,新規,0,2022-05-02,2022-05-02,株式会社ｓｈｉｎ,,株式会社,愛知県,小牧市,大字舟津６０７番地４,,23,219,4850073,,,,,,,2022-05-02,1,,,,,シン,0
2271,8180001151131,新規,0,2022-05-02,2022-05-02,愛知アルコール検知器株式会社,,株式会社,愛知県,名古屋市東区,泉２丁目２６番１０号,,23,102,4610001,,,,,,,2022-05-02,1,,,,,アイチアルコールケンチキ,0
2274,8180003023774,新規,0,2022-05-02,2022-05-02,合同会社Ｓｈｉｋｍｉ,,合同会社,愛知県,名古屋市南区,白雲町１３７番地,,23,112,4570025,,,,,,,2022-05-02,1,,,,,シクミ,0
2275,8180003023782,新規,0,2022-05-02,2022-05-02,佐藤商店合同会社,,合同会社,愛知県,半田市,東郷町２丁目６４番地,,23,205,4750924,,,,,,,2022-05-02,1,,,,,サトウショウテン,0
2282,8190003003973,新規,0,2022-05-02,2022-05-02,合同会社Ｔ‐ｎｅｔ,,合同会社,三重県,四日市市,富田一色町３４番１７号,,24,202,5108004,,,,,,,2022-05-02,1,,,,,ティーネット,0
2287,8200001040018,新規,0,2022-05-02,2022-05-02,ｉ・ｓ・ｋ株式会社,,株式会社,岐阜県,高山市,下岡本町２１７５番地１４,,21,203,5060052,,,,,,,2022-05-02,1,,,,,アイエスケー,0
2306,8260001036803,新規,0,2022-05-02,2022-05-02,株式会社ＮＥＯ　ＴＯＰ,,株式会社,岡山県,岡山市北区,中央町２番１４－１０１号,,33,101,7000836,,,,,,,2022-05-02,1,,,,,ネオトープ,0
2307,8290001097396,新規,0,2022-05-02,2022-05-02,株式会社Ｃ＆Ｇ’ｓ　Ａｔｅｌｉｅｒ,,株式会社,福岡県,福岡市早良区,原５丁目１０番４号,,40,137,8140022,,,,,,,2022-05-02,1,,,,,シーアンドジーズアトリエ,0
2309,8290005018662,新規,0,2022-05-02,2022-05-02,医療法人平井内科医院,,その他の設立登記法人,福岡県,うきは市,吉井町清瀬５８４番地２,,40,225,8391312,,,,,,,2022-05-02,1,,,,,ヒライナイカイイン,0
2312,8300001012907,新規,0,2022-05-02,2022-05-02,株式会社北原,,株式会社,佐賀県,唐津市,肥前町星賀乙１０１９番地,,41,202,8471523,,,,,,,2022-05-02,1,,,,,キタハラ,0
2314,8300003001833,新規,0,2022-05-02,2022-05-02,合同会社ひしの実からだサポート,,合同会社,佐賀県,佐賀市,神野西３丁目１５番２５－３０４号サーパス神野第２,,41,201,8400805,,,,,,,2022-05-02,1,,,,,ヒシノミカラダサポート,0
2325,8360001030317,新規,0,2022-05-02,2022-05-02,株式会社ＳＡＫＡＥ,,株式会社,沖縄県,石垣市,字真栄里２８番地エアリーハウス１－Ａ,,47,207,9070002,,,,,,,2022-05-02,1,,,,,サカエ,0
2326,8360001030325,新規,0,2022-05-02,2022-05-02,株式会社Ｙ’ｓＰＬＡＮ,,株式会社,沖縄県,沖縄市,中央１丁目７番８号２Ｆ,,47,211,9040004,,,,,,,2022-05-02,1,,,,,,0
2327,8360001030358,新規,0,2022-05-02,2022-05-02,株式会社ＬＡＰコンサルティング,,株式会社,沖縄県,浦添市,西原５丁目２０－６丸幸マンション１０２,,47,208,9012101,,,,,,,2022-05-02,1,,,,,エルエーピーコンサルティング,0
2328,8370001048515,新規,0,2022-05-02,2022-05-02,株式会社ガン・レックス,,株式会社,宮城県,仙台市太白区,富沢３丁目２２番５号ＹＳ富沢Ａ棟,,04,104,9820032,,,,,,,2022-05-02,1,,,,,ガンレックス,0
2342,8430003013865,新規,0,2022-05-02,2022-05-02,合同会社ノースフェニックス,,合同会社,北海道,石狩市,花川北六条２丁目１３６番地アトランティスハイツＩＩ２０５号,00126453,01,235,0613216,,,,,,,2022-05-02,1,,,,,ノースフェニックス,0
2355,8700150032995,新規,0,2022-05-02,2015-10-09,長万部町高齢者事業団,,その他,北海道,山越郡長万部町,字長万部４１３－１,,01,347,0493521,,,,,,,2015-10-09,1,,,,,オシヤマンベチヨウコウレイシヤジギヨウダン,0
2368,9010001226213,新規,0,2022-05-02,2022-05-02,株式会社Ｌｏｒｒｙ　Ｄｅｓｉｇｎ,,株式会社,東京都,千代田区,神田猿楽町２丁目８－１１ＶＯＲＴ水道橋ＩＩＩ９階,00126449,13,101,1010064,,,,,,,2022-05-02,1,,,,,ローリーデザイン,0
2369,9010001226238,新規,0,2022-05-02,2022-05-02,株式会社ＷＩＴＨＵＳ,,株式会社,東京都,中央区,東日本橋３丁目３番１８号１Ｆ,,13,102,1030004,,,,,,,2022-05-02,1,,,,,ウィズアス,0
2370,9010001226270,新規,0,2022-05-02,2022-05-02,株式会社Ｋ,,株式会社,東京都,千代田区,霞が関３丁目２番１号,,13,101,1000013,,,,,,,2022-05-02,1,,,,,ケー,0
2371,9010001226295,新規,0,2022-05-02,2022-05-02,株式会社３２６,,株式会社,東京都,中央区,銀座７丁目６番７号,,13,102,1040061,,,,,,,2022-05-02,1,,,,,サンニーロク,0
2372,9010001226312,新規,0,2022-05-02,2022-05-02,株式会社ケイ・エス・コミュニティ,,株式会社,東京都,文京区,湯島２丁目２９番４号,,13,105,1130034,,,,,,,2022-05-02,1,,,,,ケイエスコミュニティ,0
2376,9010003037583,新規,0,2022-05-02,2022-05-02,合同会社深川,,合同会社,東京都,中央区,京橋１丁目４番１１－５０２号,,13,102,1040031,,,,,,,2022-05-02,1,,,,,フカガワ,0
2379,9010103001902,新規,0,2022-05-02,2022-05-02,ランドスペース合同会社,,合同会社,東京都,八王子市,中野山王１丁目１番２３号,,13,201,1920042,,,,,,,2022-05-02,1,,,,,ランドスペース,0
2386,9010401167057,新規,0,2022-05-02,2022-05-02,株式会社ツバキ,,株式会社,東京都,港区,赤坂９丁目７番７号－３０１,,13,103,1070052,,,,,,,2022-05-02,1,,,,,ツバキ,0
2387,9010401167081,新規,0,2022-05-02,2022-05-02,メルー株式会社,,株式会社,東京都,港区,虎ノ門１丁目５番８号,,13,103,1050001,,,,,,,2022-05-02,1,,,,,メルー,0
2388,9010401167131,新規,0,2022-05-02,2022-05-02,株式会社Ｇｒｏｏｖｙ,,株式会社,東京都,港区,六本木３丁目１８番２－１６０４号,,13,103,1060032,,,,,,,2022-05-02,1,,,,,グルービー,0
2392,9010403027548,新規,0,2022-05-02,2022-05-02,合同会社ＪＴＯＷＥＲ　Ｉｎｆｒａｓｔｒｕｃｔｕｒｅ,,合同会社,東京都,港区,赤坂８丁目５番４１号,,13,103,1070052,,,,,,,2022-05-02,1,,,,,ジェイタワーインフラストラクチャー,0
2393,9010403027564,新規,0,2022-05-02,2022-05-02,Ｔソリューション合同会社,,合同会社,東京都,港区,南青山２丁目２９番６－９０７号,,13,103,1070062,,,,,,,2022-05-02,1,,,,,ティーソリューション,0
2396,9010601061076,新規,0,2022-05-02,2022-05-02,株式会社スズカ,,株式会社,東京都,墨田区,江東橋４丁目２１番６号錦糸町ハイタウン７１９号,,13,107,1300022,,,,,,,2022-05-02,1,,,,,スズカ,0
2402,9010801032926,新規,0,2022-05-02,2022-05-02,株式会社ＴｅｏＲｉｏ,,株式会社,東京都,大田区,北千束３丁目２５－５－３０３号,,13,111,1450062,,,,,,,2022-05-02,1,,,,,テオリオ,0
2426,9011301027739,新規,0,2022-05-02,2022-05-02,株式会社浜田山事務所,,株式会社,東京都,杉並区,浜田山３丁目３５番１－１５０２号,,13,115,1680065,,,,,,,2022-05-02,1,,,,,ハマダヤマジムショ,0
2434,9011503005146,新規,0,2022-05-02,2022-05-02,ＨＯＡＮＧ　ＰＨＵ合同会社,,合同会社,東京都,荒川区,東日暮里５丁目４５－１２いかるがビル３０１,,13,118,1160014,,,,,,,2022-05-02,1,,,,,ホアンフー,0
2442,9012403005343,新規,0,2022-05-02,2022-05-02,Ｅ‐ＭＯＮＯｍｏｎＯ　Ｅｎｔｅｒｐｒｉｓｅｓ合同会社,,合同会社,東京都,府中市,本町２丁目２０－１１本町プラザマンション２０６,,13,206,1830027,,,,,,,2022-05-02,1,,,,,イイモノモノエンタープライズィズ,0
2460,9021001075814,新規,0,2022-05-02,2022-05-02,株式会社ＳＨＩＯＳＥ,,株式会社,神奈川県,横須賀市,根岸町４丁目６番１４号メープル北久里浜Ａ－２０３,,14,201,2390807,,,,,,,2022-05-02,1,,,,,シオセ,0
2461,9021001075830,新規,0,2022-05-02,2022-05-02,株式会社Ｎａｇｉｍａｒｕ,,株式会社,神奈川県,相模原市中央区,宮下本町１丁目５番３０号,,14,152,2520211,,,,,,,2022-05-02,1,,,,,ナギマル,0
2462,9021001075855,新規,0,2022-05-02,2022-05-02,久世運輸株式会社,,株式会社,神奈川県,座間市,座間１丁目１９０６番地の１,,14,216,2520027,,,,,,,2022-05-02,1,,,,,クゼウンユ,0
2465,9021005012499,新規,0,2022-05-02,2022-05-02,一般社団法人インクルーシブワールド協会,,その他の設立登記法人,神奈川県,藤沢市,片瀬海岸２丁目２０－１２－２,,14,205,2510035,,,,,,,2022-05-02,1,,,,,インクルーシブワールドキョウカイ,0
2485,9040001123201,新規,0,2022-05-02,2022-05-02,株式会社絹建,,株式会社,千葉県,木更津市,上烏田８１番地１,,12,206,2920813,,,,,,,2022-05-02,1,,,,,キヌケン,0
2492,9050003006535,新規,0,2022-05-02,2022-05-02,合同会社ＡＬＡＭ　ＴＲＡＤＩＮＧ,,合同会社,茨城県,坂東市,長谷７８４番地１ローザ１５－２０２号室,,08,228,3060642,,,,,,,2022-05-02,1,,,,,アラムトレーディング,0
2495,9060003004059,新規,0,2022-05-02,2022-05-02,合同会社ｍｙＩＣ,,合同会社,栃木県,宇都宮市,元今泉７丁目２６番２７号,,09,201,3210954,,,,,,,2022-05-02,1,,,,,マイアイシー,0
2498,9080005007454,新規,0,2022-05-02,2022-05-02,一般社団法人しずおかこども発達支援,,その他の設立登記法人,静岡県,静岡市駿河区,西脇１１７７番地の６,,22,102,4228044,,,,,,,2022-05-02,1,,,,,シズオカコドモハッタツシエン,0
2501,9090005007486,新規,0,2022-05-02,2022-05-02,一般社団法人甲府宝飾協会,,その他の設立登記法人,山梨県,甲府市,国母８丁目１２番３０号,,19,201,4000043,,,,,,,2022-05-02,1,,,,,コウフホウショクキョウカイ,0
2522,9120001245532,新規,0,2022-05-02,2022-05-02,ジパングキャピタル株式会社,,株式会社,大阪府,大阪市淀川区,十八条３丁目４番１号,,27,123,5320001,,,,,,,2022-05-02,1,,,,,ジパングキャピタル,0
2523,9120001245565,新規,0,2022-05-02,2022-05-02,株式会社ハイエストコミュニケーション,,株式会社,大阪府,大阪市北区,天満橋１丁目１番３８号アビタシオン土田５０１号室,,27,127,5300042,,,,,,,2022-05-02,1,,,,,ハイエストコミュニケーション,0
2524,9120001245581,新規,0,2022-05-02,2022-05-02,株式会社Ｔｅｒｍｉｎａｌ,,株式会社,大阪府,大阪市中央区,南本町１丁目５番１５－４０９号,,27,128,5410054,,,,,,,2022-05-02,1,,,,,ターミナル,0
2525,9120001245598,新規,0,2022-05-02,2022-05-02,株式会社妃土木,,株式会社,大阪府,大阪市大正区,南恩加島２丁目９番３９号,,27,108,5510021,,,,,,,2022-05-02,1,,,,,キサキドボク,0
2526,9120001245631,新規,0,2022-05-02,2022-05-02,ＢＬＵＥ　Ｓｙｍｐｈｏｎｙ株式会社,,株式会社,大阪府,大阪市中央区,北浜１丁目１‐２７,,27,128,5410041,,,,,,,2022-05-02,1,,,,,ブルーシンフォニー,0
2531,9120003021584,新規,0,2022-05-02,2022-05-02,合同会社ＦＵＫＵ,,合同会社,大阪府,大阪市阿倍野区,長池町２番３号,,27,119,5450013,,,,,,,2022-05-02,1,,,,,フク,0
2535,9120101065491,新規,0,2022-05-02,2022-05-02,ＨＹＰＥＲ　ＣＲＡＦＴ株式会社,,株式会社,大阪府,堺市西区,鳳西町３丁１番地８,,27,144,5938326,,,,,,,2022-05-02,1,,,,,ハイパークラフト,0
2536,9120101065500,新規,0,2022-05-02,2022-05-02,萬代株式会社,,株式会社,大阪府,泉佐野市,鶴原１８２１番地の１,,27,213,5980071,,,,,,,2022-05-02,1,,,,,マンダイ,0
2537,9120101065509,新規,0,2022-05-02,2022-05-02,株式会社シェノン,,株式会社,大阪府,阪南市,南山中９３番地の３,,27,232,5990233,,,,,,,2022-05-02,1,,,,,シェノン,0
2538,9120103004679,新規,0,2022-05-02,2022-05-02,合同会社Ｍｏｔｈｅｒ’ｓＧｏｄ,,合同会社,大阪府,堺市美原区,さつき野西２丁目２１番地１３,,27,147,5870031,,,,,,,2022-05-02,1,,,,,マザーズゴッド,0
2539,9120901045908,新規,0,2022-05-02,2022-05-02,株式会社ＫＳオフィス,,株式会社,大阪府,摂津市,正雀本町１丁目２９番４－２０１号,,27,224,5660024,,,,,,,2022-05-02,1,,,,,ケーエスオフィス,0
2557,9140003017639,新規,0,2022-05-02,2022-05-02,ＰＯＲＴＳＯＹ合同会社,,合同会社,兵庫県,洲本市,小路谷字古茂江１２７５番２,,28,205,6560023,,,,,,,2022-05-02,1,,,,,ポートソイ,0
2571,9180001151130,新規,0,2022-05-02,2022-05-02,株式会社エフ・テック,,株式会社,愛知県,一宮市,高田字神石田１０１番地２,,23,203,4910125,,,,,,,2022-05-02,1,,,,,エフテック,0
2572,9180001151139,新規,0,2022-05-02,2022-05-02,株式会社ＴＩＬＬＳ,,株式会社,愛知県,名古屋市南区,平子１丁目２番１０号（ライオンズ新瑞橋グランゲート３１７号）,,23,112,4570001,,,,,,,2022-05-02,1,,,,,ティルズ,0
2583,9180003023781,新規,0,2022-05-02,2022-05-02,ＭＮＴ合同会社,,合同会社,愛知県,名古屋市中川区,高畑２丁目２０２番地武藤ビル１Ｆ,,23,110,4540911,,,,,,,2022-05-02,1,,,,,エムエヌティー,0
2584,9180005019761,新規,0,2022-05-02,2022-05-02,一般社団法人誠優会,,その他の設立登記法人,愛知県,あま市,七宝町鯰橋２丁目１９番地,,23,237,4970015,,,,,,,2022-05-02,1,,,,,セイユウカイ,0
2591,9190003003964,新規,0,2022-05-02,2022-05-02,合同会社ＫＧサポート,,合同会社,三重県,四日市市,下海老町９１番地,,24,202,5121203,,,,,,,2022-05-02,1,,,,,ケージーサポート,0
2600,9230005009229,新規,0,2022-05-02,2022-05-02,一般社団法人ばいにゃこ村,,その他の設立登記法人,富山県,滑川市,上島３２５番地１,,16,206,9360852,,,,,,,2022-05-02,1,,,,,,0
2606,9250001019535,新規,0,2022-05-02,2022-05-02,株式会社ＬＥＡＤ,,株式会社,山口県,周南市,大字夜市１０２番地,,35,215,7460084,,,,,,,2022-05-02,1,,,,,リード,0
2608,9250003003058,新規,0,2022-05-02,2022-05-02,合同会社あうわセオリーヅ,,合同会社,山口県,山口市,湯田温泉２丁目１０番９号,,35,203,7530056,,,,,,,2022-05-02,1,,,,,アウワセオリーヅ,0
2613,9260001036802,新規,0,2022-05-02,2022-05-02,福家株式会社,,株式会社,岡山県,倉敷市,四十瀬４９１番地２８,,33,202,7100835,,,,,,,2022-05-02,1,,,,,フクヤ,0
2616,9280003001604,新規,0,2022-05-02,2022-05-02,合同会社ララポトス,,合同会社,島根県,松江市,西川津町７６８番地１ビエントアヴェニュー２０２号室,,32,201,6900823,,,,,,,2022-05-02,1,,,,,,0
2621,9290001097387,新規,0,2022-05-02,2022-05-02,株式会社絆建設,,株式会社,福岡県,宗像市,朝町２１１８番地５,,40,220,8114161,,,,,,,2022-05-02,1,,,,,キズナケンセツ,0
2623,9290003012468,新規,0,2022-05-02,2022-05-02,ＱＵＡＮＧ　ＬＡＭ合同会社,,合同会社,福岡県,福岡市博多区,吉塚１丁目２２－３６－１,,40,132,8120041,,,,,,,2022-05-02,1,,,,,クアンラム,0
2624,9290801028483,新規,0,2022-05-02,2022-05-02,株式会社ＰＥＲＭＡ,,株式会社,福岡県,北九州市小倉北区,浅野１丁目１－１ビエラ小倉１階ＤＩＳＣＯＶＥＲＹ１２１号,,40,106,8020001,,,,,,,2022-05-02,1,,,,,パーマ,0
2636,9370003005678,新規,0,2022-05-02,2022-05-02,合同会社ユーステップライフ,,合同会社,宮城県,仙台市青葉区,台原５丁目３番２５号,,04,101,9810911,,,,,,,2022-05-02,1,,,,,ユーステップライフ,0
2639,9380001032780,新規,0,2022-05-02,2022-05-02,株式会社伊藤総合設備,,株式会社,福島県,郡山市,富田町字向舘５０番地の１５,,07,203,9638041,,,,,,,2022-05-02,1,,,,,イトウソウゴウセツビ,0
2644,9430001086508,新規,0,2022-05-02,2022-05-02,株式会社プロバイドテック,,株式会社,北海道,札幌市北区,北七条西４丁目１番１号トーカン札幌第一キャステール６０７,,01,102,0600807,,,,,,,2022-05-02,1,,,,,プロバイドテック,0
2645,9430001086524,新規,0,2022-05-02,2022-05-02,株式会社桜,,株式会社,北海道,札幌市中央区,南七条西４丁目２番地５ＬＣ七番館５階,,01,101,0640807,,,,,,,2022-05-02,1,,,,,サクラ,0
2649,9460103001452,新規,0,2022-05-02,2022-05-02,ベルゲン・フラクテス合同会社,,合同会社,北海道,帯広市,東三条南１３丁目３番地,,01,207,0800803,,,,,,,2022-05-02,1,,,,,ベルゲンフラクテス,0
