sequenceNumber,corporateNumber,process,correct,updateDate,changeDate,name,nameImageId,kind,prefectureName,cityName,streetNumber,addressImageId,prefectureCode,cityCode,postCode,addressOutside,addressOutsideImageId,closeDate,closeCause,successorCorporateNumber,changeCause,assignmentDate,latest,enName,enPrefectureName,enCityName,enAddressOutside,furigana,hihyoji
19,1010401094424,登記記録の閉鎖等,0,2024-01-18,2024-01-09,ＧｏＴｏ　Ｔｅｃｈｎｏｌｏｇｉｅｓ　Ｊａｐａｎ株式会社,,株式会社,東京都,港区,芝大門２丁目１２番１０号Ｔ＆Ｇ浜松町ビル６階,,13,103,1050012,,,2024-01-09,清算の結了等,,,2015-10-05,1,,,,,ゴートゥーテクノロジーズジャパン,0
25,1010403029097,登記記録の閉鎖等,0,2024-01-18,2024-01-09,合同会社ランドセル学園,,合同会社,東京都,港区,南青山２丁目２番１５号,,13,103,1070062,,,2024-01-09,清算の結了等,,,2022-12-05,1,,,,,ランドセルガクエン,0
28,1010405019047,登記記録の閉鎖等,0,2024-01-18,2024-01-09,一般社団法人ＵＲＦＭＰ,,その他の設立登記法人,東京都,港区,虎ノ門５丁目１番４号,,13,103,1050001,,,2024-01-09,清算の結了等,,,2020-09-01,1,,,,,ユーアールエフエムピー,0
66,1011502003810,登記記録の閉鎖等,0,2024-01-18,2024-01-05,有限会社多丸屋,,有限会社,東京都,北区,赤羽西１丁目３８番５号,,13,117,1150055,,,2024-01-05,清算の結了等,,,2015-10-05,1,,,,,タマルヤ,0
73,1011702015127,登記記録の閉鎖等,0,2024-01-18,2024-01-11,有限会社ガーディングＫ,,有限会社,東京都,江戸川区,東葛西６丁目４５番５号,,13,123,1340084,,,2024-01-11,清算の結了等,,,2015-10-05,1,,,,,ガーディングケイ,0
80,1013101001864,登記記録の閉鎖等,0,2024-01-18,2024-01-10,株式会社みらい人,,株式会社,東京都,あきる野市,野辺５８３番地４,,13,228,1970823,,,2024-01-10,登記官による閉鎖,,,2015-10-05,1,,,,,,0
81,1013101005650,登記記録の閉鎖等,0,2024-01-18,2024-01-10,株式会社和光,,株式会社,東京都,西多摩郡瑞穂町,大字武蔵２２番地２,,13,303,1901213,,,2024-01-10,登記官による閉鎖,,,2015-10-05,1,,,,,,0
82,1013102000840,登記記録の閉鎖等,0,2024-01-18,2024-01-10,有限会社北洋電機,,有限会社,東京都,福生市,大字福生２２５６番地８,,13,218,1970011,,,2024-01-10,登記官による閉鎖,,,2015-10-05,1,,,,,,0
84,1013301002159,登記記録の閉鎖等,0,2024-01-18,2024-01-15,大浜化工株式会社,,株式会社,東京都,豊島区,南池袋４丁目１２番１８号,,13,116,1710022,,,2024-01-15,清算の結了等,,,2015-10-05,1,,,,,オオハマカコウ,0
86,1020001002224,登記記録の閉鎖等,0,2024-01-18,2024-01-11,株式会社千野製作所,,株式会社,神奈川県,横浜市都筑区,池辺町３８４２番地５,,14,118,2240053,,,2024-01-11,清算の結了等,,,2015-10-05,1,,,,,チノセイサクショ,0
90,1020003004425,登記記録の閉鎖等,0,2024-01-18,2024-01-12,合名会社グリーンサンタ,,合名会社,神奈川県,横浜市港北区,箕輪町１丁目２５番３１号,,14,109,2230051,,,2024-01-12,清算の結了等,,,2015-10-05,1,,,,,グリーンサンタ,0
123,1040001128629,登記記録の閉鎖等,0,2024-01-18,2024-01-15,株式会社大丸通商,,株式会社,千葉県,千葉市緑区,平山町６８７番地,,12,105,2660002,,,2024-01-15,合併による解散等,9020001020367,令和６年１月１日横浜市港北区篠原町１２００番地三和エナジー株式会社（9020001020367）に合併し解散,2023-06-07,1,,,,,ダイマルツウショウ,0
127,1050002022144,登記記録の閉鎖等,0,2024-01-18,2024-01-15,有限会社ミヨシ,,有限会社,茨城県,つくば市,東新井２６番地の８,,08,220,3050033,,,2024-01-15,清算の結了等,,,2015-10-05,1,,,,,ミヨシ,0
140,1100002036221,登記記録の閉鎖等,0,2024-01-18,2024-01-11,熊沢建設有限会社,,有限会社,長野県,飯田市,北方９７番地１,,20,205,3950151,,,2024-01-11,清算の結了等,,,2015-10-05,1,,,,,クマサワケンセツ,0
145,1120001012015,登記記録の閉鎖等,0,2024-01-18,2024-01-16,株式会社カミマエ,,株式会社,大阪府,大阪市東成区,玉津２丁目８番５号,,27,115,5370023,,,2024-01-16,清算の結了等,,,2015-10-05,1,,,,,カミマエ,0
168,1120101023795,登記記録の閉鎖等,0,2024-01-18,2024-01-18,株式会社オプテック,,株式会社,大阪府,堺市南区,赤坂台５丁２４番９号,,27,145,5900144,,,2024-01-18,登記官による閉鎖,,,2015-10-05,1,,,,,,0
169,1120101024777,登記記録の閉鎖等,0,2024-01-18,2024-01-18,株式会社矢代工芸,,株式会社,大阪府,堺市南区,桃山台４丁２１番１－１０１号,,27,145,5900141,,,2024-01-18,登記官による閉鎖,,,2015-10-05,1,,,,,,0
170,1120101032557,登記記録の閉鎖等,0,2024-01-18,2024-01-18,株式会社山本商店,,株式会社,大阪府,羽曳野市,古市７丁目４番９号,,27,222,5830852,,,2024-01-18,登記官による閉鎖,,,2015-10-05,1,,,,,,0
171,1120101034198,登記記録の閉鎖等,0,2024-01-18,2024-01-18,ワールド観光開発株式会社,,株式会社,大阪府,南河内郡河南町,大字加納元南１７番地の１１,,27,382,5850012,,,2024-01-18,登記官による閉鎖,,,2015-10-05,1,,,,,,0
172,1120101036335,登記記録の閉鎖等,0,2024-01-18,2024-01-18,株式会社岡田測量事務所,,株式会社,大阪府,岸和田市,上野町東１３番１３号,,27,202,5960047,,,2024-01-18,登記官による閉鎖,,,2015-10-05,1,,,,,,0
173,1120101038389,登記記録の閉鎖等,0,2024-01-18,2024-01-18,株式会社阪南ソフト,,株式会社,大阪府,貝塚市,西町１７番１号,,27,208,5970004,,,2024-01-18,登記官による閉鎖,,,2015-10-05,1,,,,,,0
174,1120101042655,登記記録の閉鎖等,0,2024-01-18,2024-01-18,深野米穀株式会社,,株式会社,大阪府,泉大津市,菅原町７番１６号,,27,206,5950066,,,2024-01-18,登記官による閉鎖,,,2015-10-05,1,,,,,,0
176,1120101058759,登記記録の閉鎖等,0,2024-01-18,2024-01-18,杉山電化サービス株式会社,,株式会社,大阪府,富田林市,中野町３丁目６番３８号,,27,214,5840021,,,2024-01-18,登記官による閉鎖,,,2018-09-18,1,,,,,スギヤマデンカサービス,0
179,1120102004869,登記記録の閉鎖等,0,2024-01-18,2024-01-18,有限会社メルシエ,,有限会社,大阪府,堺市北区,東浅香山町２丁４番地,,27,146,5918008,,,2024-01-18,清算の結了等,,,2015-10-05,1,,,,,メルシエ,0
180,1120102013457,登記記録の閉鎖等,0,2024-01-18,2024-01-18,有限会社東重量,,有限会社,大阪府,堺市美原区,小寺４２４番９号,,27,147,5870065,,,2024-01-18,登記官による閉鎖,,,2015-10-05,1,,,,,,0
181,1120102021658,登記記録の閉鎖等,0,2024-01-18,2024-01-18,有限会社明治住建,,有限会社,大阪府,岸和田市,春木旭町５番１８号,,27,202,5960005,,,2024-01-18,登記官による閉鎖,,,2015-10-05,1,,,,,,0
182,1120102026863,登記記録の閉鎖等,0,2024-01-18,2024-01-18,有限会社ｏｆｆｉｃｅ　ＬＯＯＰ,,有限会社,大阪府,和泉市,伯太町６丁目１０番２０号Ｌｏｆｔｙ．Ｌｏｔ．２０１号室,,27,219,5940023,,,2024-01-18,登記官による閉鎖,,,2015-10-05,1,,,,,,0
183,1120103001089,登記記録の閉鎖等,0,2024-01-18,2024-01-18,ライツスタイル合同会社,,合同会社,大阪府,富田林市,須賀２丁目６番１０号仲林リースホーム２０１,,27,214,5840062,,,2024-01-18,登記官による閉鎖,,,2015-10-05,1,,,,,,0
184,1120103001642,登記記録の閉鎖等,0,2024-01-18,2024-01-18,合同会社堺ケアセンター,,合同会社,大阪府,堺市東区,白鷺町３丁１３番８号,,27,143,5998107,,,2024-01-18,登記官による閉鎖,,,2015-10-05,1,,,,,,0
185,1120105003892,登記記録の閉鎖等,0,2024-01-18,2024-01-18,総合技研協同組合,,その他の設立登記法人,大阪府,堺市堺区,南旅篭町東４丁４番９号,,27,141,5900965,,,2024-01-18,登記官による閉鎖,,,2015-10-05,1,,,,,,0
188,1120901005778,登記記録の閉鎖等,0,2024-01-18,2024-01-18,株式会社オー・ビー・シー,,株式会社,大阪府,吹田市,泉町５丁目１５番５号,,27,205,5640041,,,2024-01-18,登記官による閉鎖,,,2015-10-05,1,,,,,,0
189,1120901006405,登記記録の閉鎖等,0,2024-01-18,2024-01-18,弘容工業株式会社,,株式会社,大阪府,吹田市,岸部北２丁目１９番１８－１０１号,,27,205,5640001,,,2024-01-18,登記官による閉鎖,,,2015-10-05,1,,,,,,0
190,1120901035156,登記記録の閉鎖等,0,2024-01-18,2024-01-18,株式会社エー・シー・イー,,株式会社,大阪府,豊中市,小曽根３丁目１０番９号,,27,203,5610813,,,2024-01-18,登記官による閉鎖,,,2015-10-05,1,,,,,,0
191,1120901035932,登記記録の閉鎖等,0,2024-01-18,2024-01-18,旭光フロツク株式会社,,株式会社,大阪府,茨木市,竹橋町１２番３号,,27,211,5670815,,,2024-01-18,登記官による閉鎖,,,2015-10-05,1,,,,,,0
193,1120902000101,登記記録の閉鎖等,0,2024-01-18,2024-01-18,有限会社アシュレィ,,有限会社,大阪府,茨木市,中穂積１丁目２番５１号,,27,211,5670034,,,2024-01-18,登記官による閉鎖,,,2015-10-05,1,,,,,,0
194,1120902010182,登記記録の閉鎖等,0,2024-01-18,2024-01-18,有限会社宏和設備青山工業所,,有限会社,大阪府,高槻市,宮田町３丁目１１番１２号,,27,207,5691142,,,2024-01-18,登記官による閉鎖,,,2015-10-05,1,,,,,,0
195,1120902013648,登記記録の閉鎖等,0,2024-01-18,2024-01-18,有限会社エイコー,,有限会社,大阪府,摂津市,鳥飼中２丁目８番２９号,,27,224,5660064,,,2024-01-18,登記官による閉鎖,,,2015-10-05,1,,,,,,0
196,1120902016188,登記記録の閉鎖等,0,2024-01-18,2024-01-18,有限会社タオカプランニング,,有限会社,大阪府,池田市,伏尾台１丁目２５番地の１５,,27,204,5630017,,,2024-01-18,登記官による閉鎖,,,2015-10-05,1,,,,,,0
197,1120902017013,登記記録の閉鎖等,0,2024-01-18,2024-01-18,有限会社ＷＥＭＣＡＳＴ,,有限会社,大阪府,箕面市,今宮３丁目２２番１３号,,27,220,5620033,,,2024-01-18,登記官による閉鎖,,,2015-10-05,1,,,,,,0
198,1120902018176,登記記録の閉鎖等,0,2024-01-18,2024-01-18,有限会社旭豊,,有限会社,大阪府,豊中市,緑丘２丁目１９番５号,,27,203,5600002,,,2024-01-18,登記官による閉鎖,,,2015-10-05,1,,,,,,0
200,1120905001204,登記記録の閉鎖等,0,2024-01-18,2024-01-18,上音羽農業協同組合,00034024,その他の設立登記法人,大阪府,茨木市,大字上音羽５４０番地,00034025,27,211,5680086,,,2024-01-18,登記官による閉鎖,,,2015-10-05,1,,,,,,0
201,1120905002557,登記記録の閉鎖等,0,2024-01-18,2024-01-18,特定非営利活動法人エコ浄化推進機構,,その他の設立登記法人,大阪府,吹田市,豊津町１１－３４－７０２株式会社環境技術研究所内,,27,205,5640051,,,2024-01-18,登記官による閉鎖,,,2015-10-05,1,,,,,,0
202,1122001007878,登記記録の閉鎖等,0,2024-01-18,2024-01-18,株式会社ユナコテック,,株式会社,大阪府,東大阪市,西堤本通東１丁目１番１－５２５,,27,227,5770045,,,2024-01-18,登記官による閉鎖,,,2015-10-05,1,,,,,,0
203,1122001013918,登記記録の閉鎖等,0,2024-01-18,2024-01-18,株式会社ミリオン化工コーポレーション,,株式会社,大阪府,東大阪市,吉田２丁目３番２０号,,27,227,5780924,,,2024-01-18,登記官による閉鎖,,,2015-10-05,1,,,,,,0
204,1122001023405,登記記録の閉鎖等,0,2024-01-18,2024-01-18,株式会社東朋プランニング,,株式会社,大阪府,東大阪市,稲田三島町２番３４号,,27,227,5770003,,,2024-01-18,登記官による閉鎖,,,2015-10-05,1,,,,,,0
205,1122002003091,登記記録の閉鎖等,0,2024-01-18,2024-01-18,有限会社調和保温工業所,,有限会社,大阪府,東大阪市,若江東町３丁目４番７２号,,27,227,5780935,,,2024-01-18,登記官による閉鎖,,,2015-10-05,1,,,,,,0
207,1122002015541,登記記録の閉鎖等,0,2024-01-18,2024-01-18,有限会社藤田製作所,,有限会社,大阪府,柏原市,旭ケ丘３丁目１番２７号,,27,221,5820026,,,2024-01-18,登記官による閉鎖,,,2015-10-05,1,,,,,,0
208,1122005000961,登記記録の閉鎖等,0,2024-01-18,2024-01-18,企業組合ｋａｎｓａｉ仕事づくりの会,,その他の設立登記法人,大阪府,東大阪市,長田東２丁目２番１６号,,27,227,5770012,,,2024-01-18,登記官による閉鎖,,,2015-10-05,1,,,,,,0
221,1160001000544,登記記録の閉鎖等,0,2024-01-18,2024-01-18,株式会社きたむら,,株式会社,滋賀県,大津市,長等３丁目３番２１号,,25,201,5200046,,,2024-01-18,登記官による閉鎖,,,2015-10-05,1,,,,,,0
222,1160001008050,登記記録の閉鎖等,0,2024-01-18,2024-01-18,株式会社今居組,,株式会社,滋賀県,彦根市,稲枝町４４５番地,,25,202,5211125,,,2024-01-18,登記官による閉鎖,,,2015-10-05,1,,,,,,0
223,1160001011236,登記記録の閉鎖等,0,2024-01-18,2024-01-18,言成商事株式会社,,株式会社,滋賀県,近江八幡市,中村町２０番地の１１,,25,204,5230894,,,2024-01-18,登記官による閉鎖,,,2015-10-05,1,,,,,ゲンセイショウジ,0
224,1160001013109,登記記録の閉鎖等,0,2024-01-18,2024-01-18,株式会社福田建設,,株式会社,滋賀県,草津市,笠山２丁目４番５３号,,25,206,5250072,,,2024-01-18,登記官による閉鎖,,,2015-10-05,1,,,,,フクダケンセツ,0
225,1160001014809,登記記録の閉鎖等,0,2024-01-18,2024-01-18,ＫＹＯＷＡ株式会社,,株式会社,滋賀県,草津市,大路３丁目５番３４－３号,,25,206,5250032,,,2024-01-18,登記官による閉鎖,,,2015-10-05,1,,,,,,0
227,1160001015303,登記記録の閉鎖等,0,2024-01-18,2024-01-18,株式会社サンシステム,,株式会社,滋賀県,守山市,水保町１１３６番地の３６,,25,207,5240102,,,2024-01-18,登記官による閉鎖,,,2015-10-05,1,,,,,,0
228,1160001015872,登記記録の閉鎖等,0,2024-01-18,2024-01-18,ＮＩＰＳ株式会社,,株式会社,滋賀県,守山市,勝部５丁目２番３２号,,25,207,5240041,,,2024-01-18,登記官による閉鎖,,,2015-10-05,1,,,,,,0
229,1160001021004,登記記録の閉鎖等,0,2024-01-18,2024-01-18,大喜建設株式会社,,株式会社,滋賀県,大津市,坂本８丁目２８番７号,,25,201,5200113,,,2024-01-18,登記官による閉鎖,,,2018-06-15,1,,,,,ダイキケンセツ,0
230,1160002010658,登記記録の閉鎖等,0,2024-01-18,2024-01-18,有限会社東海ハウジング,,有限会社,滋賀県,近江八幡市,江頭町４６０番地３,,25,204,5230061,,,2024-01-18,登記官による閉鎖,,,2015-10-05,1,,,,,,0
231,1160005000045,登記記録の閉鎖等,0,2024-01-18,2024-01-18,社団法人自求館道場,,その他の設立登記法人,滋賀県,大津市,坂本本町１４１９番地の１,,25,201,5200116,,,2024-01-18,登記官による閉鎖,,,2015-10-05,1,,,,,,0
232,1160005008294,登記記録の閉鎖等,0,2024-01-18,2024-01-18,善勝寺,,その他の設立登記法人,滋賀県,栗東市,御園４７５番地,,25,208,5203005,,,2024-01-18,登記官による閉鎖,,,2015-10-05,1,,,,,,0
233,1170001001285,登記記録の閉鎖等,0,2024-01-18,2024-01-18,株式会社阪井材木店,,株式会社,和歌山県,和歌山市,元寺町南ノ丁１０番地,,30,201,6408005,,,2024-01-18,登記官による閉鎖,,,2015-10-05,1,,,,,,0
234,1170001015087,登記記録の閉鎖等,0,2024-01-18,2024-01-18,太成興業株式会社,,株式会社,和歌山県,西牟婁郡白浜町,１１９７番地の２７,,30,401,6492211,,,2024-01-18,登記官による閉鎖,,,2018-03-02,1,,,,,,0
235,1170002010335,登記記録の閉鎖等,0,2024-01-18,2024-01-18,有限会社久平海運,,有限会社,和歌山県,日高郡美浜町,大字濱ノ瀬８９番地,,30,381,6440042,,,2024-01-18,登記官による閉鎖,,,2015-10-05,1,,,,,,0
236,1170005002478,登記記録の閉鎖等,0,2024-01-18,2024-01-18,有田郡養蚕農業協同組合,,その他の設立登記法人,和歌山県,有田郡有田川町,大字清水３５４番地の１,,30,366,6430521,,,2024-01-18,登記官による閉鎖,,,2015-10-05,1,,,,,,0
237,1170005005778,登記記録の閉鎖等,0,2024-01-18,2024-01-18,農事組合法人平井シイタケ原木林生産組合,,その他の設立登記法人,和歌山県,東牟婁郡古座川町,平井３８番地,,30,424,6494563,,,2024-01-18,登記官による閉鎖,,,2015-10-05,1,,,,,,0
238,1180001062046,登記記録の閉鎖等,0,2024-01-18,2024-01-15,株式会社アイ・テック,,株式会社,愛知県,名古屋市中川区,小本２丁目１番１０号,,23,110,4540828,,,2024-01-15,清算の結了等,,,2015-10-05,1,,,,,アイテック,0
239,1180001092209,登記記録の閉鎖等,0,2024-01-18,2024-01-12,株式会社齋藤工業,,株式会社,愛知県,知多郡武豊町,字沢田新田８９番地の５,,23,447,4702342,,,2024-01-12,清算の結了等,,,2015-10-05,1,,,,,サイトウコウギョウ,0
253,1190001023071,登記記録の閉鎖等,0,2024-01-18,2024-01-10,株式会社モノサイン,,株式会社,三重県,名張市,桔梗が丘２番町三街区３２番地,,24,208,5180622,,,2024-01-10,清算の結了等,,,2015-10-05,1,,,,,モノサイン,0
254,1190002015786,登記記録の閉鎖等,0,2024-01-18,2024-01-16,株式会社大滝峡グリーンヴィレッジ,,株式会社,三重県,度会郡大紀町,滝原２４４０番地,,24,471,5192703,,,2024-01-16,清算の結了等,,,2015-10-05,1,,,,,オオタキキョウグリーンヴィレッジ,0
261,1230001000462,登記記録の閉鎖等,0,2024-01-18,2024-01-18,株式会社オー・エス富山,,株式会社,富山県,富山市,新庄町４丁目２番５号,,16,201,9300992,,,2024-01-18,登記官による閉鎖,,,2015-10-05,1,,,,,オーエストヤマ,0
262,1230001012169,登記記録の閉鎖等,0,2024-01-18,2024-01-18,協伸工業株式会社,,株式会社,富山県,氷見市,伊勢大町２丁目７番４２号,,16,205,9350015,,,2024-01-18,登記官による閉鎖,,,2015-10-05,1,,,,,キョウシンコウギョウ,0
263,1230002008281,登記記録の閉鎖等,0,2024-01-18,2024-01-18,有限会社大田工務店,,有限会社,富山県,下新川郡入善町,入膳４７１６番地の８,,16,342,9390626,,,2024-01-18,登記官による閉鎖,,,2015-10-05,1,,,,,,0
264,1230005005854,登記記録の閉鎖等,0,2024-01-18,2024-01-18,社団法人呉山以西歯科医師会,,その他の設立登記法人,富山県,高岡市,白銀町１６番地,,16,202,9330925,,,2024-01-18,登記官による閉鎖,,,2015-10-05,1,,,,,,0
266,1240001061586,登記記録の閉鎖等,0,2024-01-18,2024-01-12,あしだがわ建設不動産株式会社,,株式会社,広島県,福山市,芦田町大字下有地２１６７番地,,34,207,7201262,,,2024-01-12,清算の結了等,,,2023-06-02,1,,,,,アシダガワケンセツフドウサン,0
286,1290001058900,登記記録の閉鎖等,0,2024-01-18,2024-01-16,株式会社コスモプラス西日本,,株式会社,福岡県,福岡市博多区,博多駅前３丁目１８番２７－１号,,40,132,8120011,,,2024-01-16,清算の結了等,,,2015-10-05,1,,,,,,0
292,1290002053792,登記記録の閉鎖等,0,2024-01-18,2024-01-16,有限会社ハウスパーツ,,有限会社,福岡県,大川市,大字向島１９９番地の３,,40,212,8310005,,,2024-01-16,清算の結了等,,,2015-10-05,1,,,,,ハウスパーツ,0
316,1360005003498,登記記録の閉鎖等,0,2024-01-18,2024-01-12,農事組合法人みらい,,その他の設立登記法人,沖縄県,国頭郡金武町,字金武１０１８０番地,,47,314,9041201,,,2024-01-12,清算の結了等,,,2015-10-05,1,,,,,ミライ,0
329,1430002044513,登記記録の閉鎖等,0,2024-01-18,2024-01-10,有限会社フクイ防水工業,,有限会社,北海道,北広島市,北の里３８番地５,,01,234,0611111,,,2024-01-10,清算の結了等,,,2015-10-05,1,,,,,フクイボウスイコウギョウ,0
331,1440002003427,登記記録の閉鎖等,0,2024-01-18,2024-01-15,有限会社函館ステツカー,,有限会社,北海道,函館市,的場町２０番１９号,,01,202,0400021,,,2024-01-15,清算の結了等,,,2015-10-05,1,,,,,ハコダテステッカー,0
332,1450001002271,登記記録の閉鎖等,0,2024-01-18,2024-01-18,株式会社永山自動車販売,,株式会社,北海道,旭川市,永山六条１３丁目６番１４号,,01,204,0798416,,,2024-01-18,登記官による閉鎖,,,2015-10-05,1,,,,,,0
335,1460002004605,登記記録の閉鎖等,0,2024-01-18,2024-01-18,有限会社道東畜産,,有限会社,北海道,厚岸郡厚岸町,太田３の通り１４番地３,,01,662,0881143,,,2024-01-18,登記官による閉鎖,,,2015-10-05,1,,,,,,0
336,1460002004670,登記記録の閉鎖等,0,2024-01-18,2024-01-18,有限会社大二山崎商店,00115362,有限会社,北海道,厚岸郡浜中町,霧多布東三条１丁目９番地,,01,663,0881513,,,2024-01-18,登記官による閉鎖,,,2019-01-07,1,,,,,,0
337,1460101004695,登記記録の閉鎖等,0,2024-01-18,2024-01-18,今村建設株式会社,,株式会社,北海道,河東郡音更町,雄飛が丘仲区１番地５４,,01,631,0800332,,,2024-01-18,登記官による閉鎖,,,2015-10-05,1,,,,,,0
350,2010001128449,登記記録の閉鎖等,0,2024-01-18,2024-01-10,株式会社ぱぱかん,,株式会社,東京都,中央区,銀座６丁目４番１号,,13,102,1040061,,,2024-01-10,清算の結了等,,,2015-10-05,1,,,,,パパカン,0
351,2010001137012,登記記録の閉鎖等,0,2024-01-18,2024-01-05,ミラクロンジャパンマーケティング株式会社,,株式会社,東京都,港区,芝５丁目２９番２０号,,13,103,1080014,,,2024-01-05,合併による解散等,1010001137013,令和６年１月１日東京都港区芝五丁目２９番２０号ミラクロンジャパンサプライ株式会社（1010001137013）に合併し解散,2015-10-05,1,,,,,ミラクロンジャパンマーケティング,0
356,2010001210784,登記記録の閉鎖等,0,2024-01-18,2024-01-11,株式会社グローバルメディカルテックラボ,,株式会社,東京都,千代田区,神田佐久間町１丁目８番４号アルテール秋葉原７０８,,13,101,1010025,,,2024-01-11,清算の結了等,,,2020-07-09,1,,,,,グローバルメディカルテックラボ,0
358,2010001232746,登記記録の閉鎖等,0,2024-01-18,2024-01-11,ＨｅａｒｔＣｏｒｅ　Ｃａｐｉｔａｌ　Ａｄｖｉｓｏｒｓ株式会社,,株式会社,東京都,千代田区,霞が関３丁目２番５号,,13,101,1000013,,,2024-01-11,合併による解散等,9010701022283,令和６年１月１日東京都品川区東五反田一丁目２番３３号白雉子ビル３Ｆハートコア株式会社（9010701022283）に合併し解散,2023-02-20,1,,,,,ハートコアキャピタルアドバイザーズ,0
364,2010003034389,登記記録の閉鎖等,0,2024-01-18,2024-01-10,合同会社ムーンサルト,,合同会社,東京都,千代田区,丸の内３丁目１番１号東京共同会計事務所内,,13,101,1000005,,,2024-01-10,清算の結了等,,,2021-03-11,1,,,,,ムーンサルト,0
371,2010401108843,登記記録の閉鎖等,0,2024-01-18,2024-01-04,株式会社ヒューマンシステムテクノロジー,,株式会社,東京都,港区,三田３丁目１３番１６号三田４３ＭＴビル２階,,13,103,1080073,,,2024-01-04,合併による解散等,3010401025303,令和６年１月１日東京都港区三田三丁目１３番１６号三田４３ＭＴビル２階株式会社ヒューマンシステム（3010401025303）に合併し解散,2015-10-05,1,,,,,ヒューマンシステムテクノロジー,0
376,2010403018735,登記記録の閉鎖等,0,2024-01-18,2024-01-11,ＭＫ　Ｓｙｓｔｅｍｓ　Ｊａｐａｎ合同会社,,合同会社,東京都,渋谷区,恵比寿４丁目３番５号７０４号室アークアウトソーシング株式会社内,,13,113,1500013,,,2024-01-11,清算の結了等,,,2018-06-08,1,,,,,エムケーシステムズジャパン,0
377,2010501029972,登記記録の閉鎖等,0,2024-01-18,2024-01-16,株式会社スマート,,株式会社,東京都,台東区,台東２丁目２９番３号枝村ビル,,13,106,1100016,,,2024-01-16,清算の結了等,,,2015-10-05,1,,,,,スマート,0
385,2010703004633,登記記録の閉鎖等,0,2024-01-18,2024-01-05,ミラクロンジャパン合同会社,,合同会社,東京都,港区,芝５丁目２９番２０号,,13,103,1080014,,,2024-01-05,合併による解散等,1010001137013,令和６年１月１日東京都港区芝五丁目２９番２０号ミラクロンジャパンサプライ株式会社（1010001137013）に合併し解散,2019-01-24,1,,,,,ミラクロンジャパン,0
399,2011002012674,登記記録の閉鎖等,0,2024-01-18,2024-01-15,有限会社吉田カツヨデザイン事務所,,有限会社,東京都,渋谷区,代々木３丁目５５番２号,,13,113,1510053,,,2024-01-15,清算の結了等,,,2015-10-05,1,,,,,ヨシダカツヨデザインジムショ,0
402,2011101010249,登記記録の閉鎖等,0,2024-01-18,2024-01-16,サンワ・カインズ株式会社,,株式会社,東京都,新宿区,新宿２丁目２番１号,,13,104,1600022,,,2024-01-16,清算の結了等,,,2015-10-05,1,,,,,サンワカインズ,0
420,2013101004222,登記記録の閉鎖等,0,2024-01-18,2024-01-10,株式会社トレンディプラン,,株式会社,東京都,青梅市,河辺町９丁目１番地１（１０６号）,,13,205,1980036,,,2024-01-10,登記官による閉鎖,,,2015-10-05,1,,,,,,0
421,2013103000582,登記記録の閉鎖等,0,2024-01-18,2024-01-10,合資会社木崎商店,00059807,合資会社,東京都,青梅市,成木８丁目５６番地,,13,205,1980001,,,2024-01-10,登記官による閉鎖,,,2015-10-05,1,,,,,,0
422,2013105000374,登記記録の閉鎖等,0,2024-01-18,2024-01-10,特定非営利活動法人西多摩住まいの会,,その他の設立登記法人,東京都,西多摩郡瑞穂町,大字箱根ケ崎宿東２４３４－１４,,13,303,1901221,,,2024-01-10,登記官による閉鎖,,,2015-10-05,1,,,,,,0
432,2020002102823,登記記録の閉鎖等,0,2024-01-18,2024-01-12,有限会社イチカラ,,有限会社,神奈川県,川崎市高津区,二子４丁目３番地２,,14,134,2130002,,,2024-01-12,清算の結了等,,,2015-10-05,1,,,,,イチカラ,0
442,2021002032705,登記記録の閉鎖等,0,2024-01-18,2024-01-15,有限会社西川工務店,,有限会社,神奈川県,厚木市,及川字広町８２３番２,,14,212,2430212,,,2024-01-15,清算の結了等,,,2015-10-05,1,,,,,ニシカワコウムテン,0
447,2030001005209,登記記録の閉鎖等,0,2024-01-18,2023-12-26,大同技建株式会社,,株式会社,埼玉県,さいたま市北区,日進町２丁目１７６８番地,,11,102,3310823,,,2023-12-26,清算の結了等,,,2015-10-05,1,,,,,ダイドウギケン,0
461,2040002081132,登記記録の閉鎖等,0,2024-01-18,2024-01-05,有限会社三興,,有限会社,千葉県,茂原市,茂原４８６番地,,12,210,2970026,,,2024-01-05,清算の結了等,,,2015-10-05,1,,,,,サンコウ,0
474,2080002009947,登記記録の閉鎖等,0,2024-01-18,2024-01-16,有限会社さの字不動産,,有限会社,静岡県,静岡市清水区,辻２丁目３番３６号,00067481,22,103,4240806,,,2024-01-16,清算の結了等,,,2015-10-05,1,,,,,サノジフドウサン,0
503,2120101006551,登記記録の閉鎖等,0,2024-01-18,2024-01-18,株式会社ニワダニ住宅工業,,株式会社,大阪府,堺市東区,野尻町３２１番地,,27,143,5998116,,,2024-01-18,登記官による閉鎖,,,2015-10-05,1,,,,,ニワダニジュウタクコウギョウ,0
504,2120101029354,登記記録の閉鎖等,0,2024-01-18,2024-01-18,関西桜花通商株式会社,,株式会社,大阪府,堺市北区,北花田町４丁１０２番地１７,,27,146,5918002,,,2024-01-18,登記官による閉鎖,,,2015-10-05,1,,,,,,0
505,2120101029718,登記記録の閉鎖等,0,2024-01-18,2024-01-18,ツーシープ株式会社,,株式会社,大阪府,堺市東区,野尻町１８番地２,,27,143,5998116,,,2024-01-18,登記官による閉鎖,,,2015-10-05,1,,,,,,0
506,2120101040476,登記記録の閉鎖等,0,2024-01-18,2024-01-18,日祥産業株式会社,,株式会社,大阪府,泉南郡熊取町,朝代東２丁目１６番２１号,,27,361,5900457,,,2024-01-18,登記官による閉鎖,,,2015-10-05,1,,,,,,0
508,2120101048016,登記記録の閉鎖等,0,2024-01-18,2024-01-18,柊株式会社,,株式会社,大阪府,堺市北区,新金岡町１丁７番２０－３１０号,,27,146,5918021,,,2024-01-18,登記官による閉鎖,,,2015-10-05,1,,,,,,0
509,2120101064021,登記記録の閉鎖等,0,2024-01-18,2024-01-17,株式会社アーチ,,株式会社,大阪府,岸和田市,土生町９丁目１１番９号,,27,202,5960825,,,2024-01-17,清算の結了等,,,2021-07-26,1,,,,,アーチ,0
512,2120102002475,登記記録の閉鎖等,0,2024-01-18,2024-01-18,有限会社祥楽,,有限会社,大阪府,堺市西区,平岡町２４番地の１,,27,144,5938307,,,2024-01-18,登記官による閉鎖,,,2015-10-05,1,,,,,,0
513,2120102004190,登記記録の閉鎖等,0,2024-01-18,2024-01-18,有限会社二ツ矢,,有限会社,大阪府,堺市堺区,北瓦町２丁１番３０号,,27,141,5900076,,,2024-01-18,登記官による閉鎖,,,2015-10-05,1,,,,,,0
515,2120105000427,登記記録の閉鎖等,0,2024-01-18,2024-01-18,財団法人銭高高徳会,,その他の設立登記法人,大阪府,高石市,加茂４丁目１番１号,,27,225,5920011,,,2024-01-18,登記官による閉鎖,,,2015-10-05,1,,,,,,0
516,2120105003652,登記記録の閉鎖等,0,2024-01-18,2024-01-18,大阪建設開発協同組合,,その他の設立登記法人,大阪府,堺市堺区,櫛屋町東１丁２番１０号,,27,141,5900944,,,2024-01-18,登記官による閉鎖,,,2015-10-05,1,,,,,,0
517,2120105004650,登記記録の閉鎖等,0,2024-01-18,2024-01-18,一般社団法人占友会,,その他の設立登記法人,大阪府,堺市堺区,宿院町西３丁１番２９－１４０２号,,27,141,5900958,,,2024-01-18,登記官による閉鎖,,,2015-10-05,1,,,,,,0
519,2120901013045,登記記録の閉鎖等,0,2024-01-18,2024-01-18,鷹取アルミニウム株式会社,,株式会社,大阪府,茨木市,野々宮１丁目３番３８号,,27,211,5670847,,,2024-01-18,登記官による閉鎖,,,2018-09-11,1,,,,,タカトリアルミニウム,0
520,2120901018795,登記記録の閉鎖等,0,2024-01-18,2024-01-18,株式会社メディア・ラボ,,株式会社,大阪府,茨木市,別院町７番３４号,,27,211,5670817,,,2024-01-18,登記官による閉鎖,,,2015-10-05,1,,,,,,0
521,2120901019406,登記記録の閉鎖等,0,2024-01-18,2024-01-18,石橋温泉浴場株式会社,,株式会社,大阪府,池田市,旭丘３丁目４番３２－Ａ号,,27,204,5630022,,,2024-01-18,登記官による閉鎖,,,2015-10-05,1,,,,,,0
522,2120901031988,登記記録の閉鎖等,0,2024-01-18,2024-01-18,株式会社西宿ベース,,株式会社,大阪府,箕面市,西宿１丁目５番４３号,,27,220,5620034,,,2024-01-18,登記官による閉鎖,,,2015-10-05,1,,,,,,0
523,2120902012327,登記記録の閉鎖等,0,2024-01-18,2024-01-18,有限会社エヌケイハウジング,,有限会社,大阪府,高槻市,深沢町１丁目２４番１号,,27,207,5690035,,,2024-01-18,登記官による閉鎖,,,2015-10-05,1,,,,,,0
524,2120902019702,登記記録の閉鎖等,0,2024-01-18,2024-01-18,有限会社法建工業,,有限会社,大阪府,豊中市,南桜塚４丁目１番３４号,,27,203,5610882,,,2024-01-18,登記官による閉鎖,,,2015-10-05,1,,,,,,0
525,2122001000857,登記記録の閉鎖等,0,2024-01-18,2024-01-18,乾運送株式会社,,株式会社,大阪府,東大阪市,南荘町１４番１４号,,27,227,5798024,,,2024-01-18,登記官による閉鎖,,,2015-10-05,1,,,,,,0
526,2122001022562,登記記録の閉鎖等,0,2024-01-18,2024-01-18,株式会社魚公,,株式会社,大阪府,八尾市,恩智中町２丁目３６０番地,,27,212,5810883,,,2024-01-18,登記官による閉鎖,,,2015-10-05,1,,,,,,0
528,2122002005178,登記記録の閉鎖等,0,2024-01-18,2024-01-18,有限会社山喜平線工業所,,有限会社,大阪府,東大阪市,水走５丁目２番３号,,27,227,5780921,,,2024-01-18,登記官による閉鎖,,,2015-10-05,1,,,,,,0
529,2122002010129,登記記録の閉鎖等,0,2024-01-18,2024-01-18,有限会社ＡＳＡ東大阪東部,,有限会社,大阪府,東大阪市,下六万寺町１丁目１０番６号,,27,227,5798066,,,2024-01-18,登記官による閉鎖,,,2015-10-05,1,,,,,,0
530,2122002017586,登記記録の閉鎖等,0,2024-01-18,2024-01-18,有限会社橋本共栄社,,有限会社,大阪府,大東市,大字御領４９０番地,,27,218,5740000,,,2024-01-18,登記官による閉鎖,,,2018-06-19,1,,,,,ハシモトキョウエイシャ,0
531,2122005000960,登記記録の閉鎖等,0,2024-01-18,2024-01-18,企業組合東大阪試作センター,,その他の設立登記法人,大阪府,東大阪市,川俣１丁目１６番８号,,27,227,5770063,,,2024-01-18,登記官による閉鎖,,,2015-10-05,1,,,,,,0
532,2130001030527,登記記録の閉鎖等,0,2024-01-18,2024-01-15,株式会社フジモト,,株式会社,京都府,長岡京市,今里赤ノ上３２番地５,,26,209,6170814,,,2024-01-15,清算の結了等,,,2015-10-05,1,,,,,フジモト,0
543,2140001129236,登記記録の閉鎖等,0,2024-01-18,2024-01-16,リアライズさぽーと株式会社,,株式会社,兵庫県,川西市,小戸２丁目４番１１号,,28,217,6660014,,,2024-01-16,清算の結了等,,,2023-02-27,1,,,,,リアライズサポート,0
555,2160001008082,登記記録の閉鎖等,0,2024-01-18,2024-01-18,株式会社エスケ設工,,株式会社,滋賀県,彦根市,高宮町２９番地の３,,25,202,5220201,,,2024-01-18,登記官による閉鎖,,,2015-10-05,1,,,,,,0
556,2160001009411,登記記録の閉鎖等,0,2024-01-18,2024-01-18,ビリケン株式会社,,株式会社,滋賀県,彦根市,中藪町６３４番地５２,,25,202,5220051,,,2024-01-18,登記官による閉鎖,,,2015-10-05,1,,,,,,0
557,2160001017281,登記記録の閉鎖等,0,2024-01-18,2024-01-18,株式会社マシナワークス,,株式会社,滋賀県,彦根市,城町１丁目３番２０号,,25,202,5220068,,,2024-01-18,登記官による閉鎖,,,2015-10-05,1,,,,,,0
558,2160002005797,登記記録の閉鎖等,0,2024-01-18,2024-01-18,有限会社ピュア,,有限会社,滋賀県,甲賀市,甲賀町大原市場９２４番地,,25,209,5203433,,,2024-01-18,登記官による閉鎖,,,2015-10-05,1,,,,,,0
559,2160002011143,登記記録の閉鎖等,0,2024-01-18,2024-01-18,有限会社近江塗装,,有限会社,滋賀県,東近江市,木村町４９番地,,25,213,5291562,,,2024-01-18,登記官による閉鎖,,,2015-10-05,1,,,,,,0
560,2160005006438,登記記録の閉鎖等,0,2024-01-18,2024-01-18,日渓酪農農業協同組合,,その他の設立登記法人,滋賀県,蒲生郡日野町,大字内池５２４番地,,25,383,5291644,,,2024-01-18,登記官による閉鎖,,,2015-10-05,1,,,,,,0
561,2160005009275,登記記録の閉鎖等,0,2024-01-18,2024-01-18,特定非営利活動法人滋賀県総合調査業協会,,その他の設立登記法人,滋賀県,野洲市,小篠原８２６番地１２ビバリービル３階３０１号,,25,210,5202331,,,2024-01-18,登記官による閉鎖,,,2015-10-05,1,,,,,,0
563,2170001011440,登記記録の閉鎖等,0,2024-01-18,2024-01-18,株式会社キョーエイ,,株式会社,和歌山県,新宮市,新宮４４９７番地の７,,30,207,6470081,,,2024-01-18,登記官による閉鎖,,,2015-10-05,1,,,,,,0
564,2170001011952,登記記録の閉鎖等,0,2024-01-18,2024-01-18,株式会社ｐｉｅｃｅ　ｄ’ｏｒ,,株式会社,和歌山県,新宮市,新宮２８７２番地８,,30,207,6470081,,,2024-01-18,登記官による閉鎖,,,2015-10-05,1,,,,,,0
565,2170002000863,登記記録の閉鎖等,0,2024-01-18,2024-01-18,有限会社加藤試錐工業,,有限会社,和歌山県,和歌山市,栄谷１３６番地の１,,30,201,6408441,,,2024-01-18,登記官による閉鎖,,,2015-10-05,1,,,,,,0
568,2170002010796,登記記録の閉鎖等,0,2024-01-18,2024-01-18,楽農市場有限会社,,有限会社,和歌山県,橋本市,山田３４８番地の１,,30,203,6480081,,,2024-01-18,登記官による閉鎖,,,2015-10-05,1,,,,,,0
569,2170005003351,登記記録の閉鎖等,0,2024-01-18,2024-01-18,特定非営利活動法人西行法師・明算上人の生誕地を守り顕彰する会,,その他の設立登記法人,和歌山県,紀の川市,窪１１３番４竹房会館内,,30,208,6496415,,,2024-01-18,登記官による閉鎖,,,2015-10-05,1,,,,,,0
570,2170005003418,登記記録の閉鎖等,0,2024-01-18,2024-01-18,財団法人紀州博物館,,その他の設立登記法人,和歌山県,西牟婁郡白浜町,２０５４番地の４,,30,401,6492211,,,2024-01-18,登記官による閉鎖,,,2015-10-05,1,,,,,キシュウハクブツカン,0
586,2230001000965,登記記録の閉鎖等,0,2024-01-18,2024-01-18,株式会社コルデイ,,株式会社,富山県,富山市,中島３丁目２番２１号,,16,201,9300801,,,2024-01-18,登記官による閉鎖,,,2015-10-05,1,,,,,,0
587,2230001009536,登記記録の閉鎖等,0,2024-01-18,2024-01-16,株式会社源喜,,株式会社,富山県,南砺市,福光７４７１番地８,,16,210,9391610,,,2024-01-16,清算の結了等,,,2015-10-05,1,,,,,ゲンキ,0
590,2230002009832,登記記録の閉鎖等,0,2024-01-18,2024-01-18,有限会社福光通商,,有限会社,富山県,南砺市,荒木１５７３番地,,16,210,9391732,,,2024-01-18,登記官による閉鎖,,,2015-10-05,1,,,,,,0
591,2230002013702,登記記録の閉鎖等,0,2024-01-18,2024-01-18,有限会社ザグーラ,,有限会社,富山県,射水市,中太閤山４丁目４５－５,,16,211,9390363,,,2024-01-18,登記官による閉鎖,,,2015-10-05,1,,,,,,0
592,2230005002009,登記記録の閉鎖等,0,2024-01-18,2024-01-18,財団法人海電産業振興会,,その他の設立登記法人,富山県,富山市,桜橋通り１番地,,16,201,9300004,,,2024-01-18,登記官による閉鎖,,,2015-10-05,1,,,,,,0
593,2230005004418,登記記録の閉鎖等,0,2024-01-18,2024-01-18,財団法人魚躬文化基金,,その他の設立登記法人,富山県,滑川市,上小泉２１７１番地,,16,206,9360053,,,2024-01-18,登記官による閉鎖,,,2015-10-05,1,,,,,,0
603,2260001022486,登記記録の閉鎖等,0,2024-01-18,2024-01-16,メディア株式会社,,株式会社,岡山県,玉野市,玉原２丁目７番３１号,,33,204,7060014,,,2024-01-16,清算の結了等,,,2015-10-05,1,,,,,メディア,0
633,2340001016158,登記記録の閉鎖等,0,2024-01-18,2024-01-16,株式会社翔,,株式会社,鹿児島県,肝属郡東串良町,岩弘５０番地５,,46,482,8931611,,,2024-01-16,清算の結了等,,,2015-10-05,1,,,,,ショウ,0
643,2360003009208,登記記録の閉鎖等,0,2024-01-18,2024-01-17,株式会社山田管財,,株式会社,東京都,港区,虎ノ門１丁目２１番１９号,,13,103,1050001,,,2024-01-17,清算の結了等,,,2018-11-29,1,,,,,,0
659,2450001004705,登記記録の閉鎖等,0,2024-01-18,2024-01-18,中央興林株式会社,,株式会社,北海道,深川市,北光町１丁目２番１６号,,01,228,0740022,,,2024-01-18,登記官による閉鎖,,,2018-10-02,1,,,,,チュウオウコウリン,0
660,2450002001899,登記記録の閉鎖等,0,2024-01-18,2024-01-18,有限会社黒田土地開発,,有限会社,北海道,旭川市,宮下通１９丁目１４５４番地の１,,01,204,0788330,,,2024-01-18,登記官による閉鎖,,,2015-10-05,1,,,,,,0
661,2450002004415,登記記録の閉鎖等,0,2024-01-18,2024-01-18,有限会社法邑木材店,,有限会社,北海道,旭川市,近文町２２丁目２８８６番地,,01,204,0700821,,,2024-01-18,登記官による閉鎖,,,2015-10-05,1,,,,,,0
662,2450002006155,登記記録の閉鎖等,0,2024-01-18,2024-01-18,有限会社ワイビー工務店,,有限会社,北海道,旭川市,東旭川北二条６丁目６番１号,,01,204,0788252,,,2024-01-18,登記官による閉鎖,,,2015-10-05,1,,,,,,0
663,2450002008085,登記記録の閉鎖等,0,2024-01-18,2024-01-18,有限会社ひろみ,,有限会社,北海道,旭川市,東旭川北一条１丁目５番９号,,01,204,0788251,,,2024-01-18,登記官による閉鎖,,,2015-10-05,1,,,,,,0
664,2450002010388,登記記録の閉鎖等,0,2024-01-18,2024-01-18,有限会社大東興業,,有限会社,北海道,士別市,大通西９丁目３８９番地,,01,220,0950029,,,2024-01-18,登記官による閉鎖,,,2015-10-05,1,,,,,,0
665,2450002012590,登記記録の閉鎖等,0,2024-01-18,2024-01-18,有限会社貴州屋,,有限会社,北海道,紋別市,幸町６丁目４番１１号,,01,219,0940005,,,2024-01-18,登記官による閉鎖,,,2015-10-05,1,,,,,,0
666,2450002012789,登記記録の閉鎖等,0,2024-01-18,2024-01-18,有限会社マルイ土井商事,,有限会社,北海道,紋別市,落石町３丁目１２番地の１０,,01,219,0940007,,,2024-01-18,登記官による閉鎖,,,2015-10-05,1,,,,,,0
667,2450003002228,登記記録の閉鎖等,0,2024-01-18,2024-01-18,霜鳥興業合資会社,,合資会社,北海道,旭川市,宮下通南町西五丁目,,01,204,0700000,,,2024-01-18,登記官による閉鎖,,,2022-07-15,1,,,,,シモトリコウギョウ,0
668,2450005004164,登記記録の閉鎖等,0,2024-01-18,2024-01-18,下勇知第壹農事実行組合,,その他の設立登記法人,北海道,稚内市,大字抜海村字勇知,,01,214,0970000,,,2024-01-18,登記官による閉鎖,,,2018-05-21,1,,,,,シモユウチダイイチ,0
669,2460001003508,登記記録の閉鎖等,0,2024-01-18,2024-01-18,東北海道三菱自動車販売株式会社,,株式会社,北海道,釧路市,入江町２番２３号,,01,206,0850008,,,2024-01-18,登記官による閉鎖,,,2018-07-12,1,,,,,,0
670,2460002002723,登記記録の閉鎖等,0,2024-01-18,2024-01-18,有限会社増谷測量設計,,有限会社,北海道,釧路市,芦野５丁目１６番２２号,00091056,01,206,0850061,,,2024-01-18,登記官による閉鎖,,,2015-10-05,1,,,,,,0
671,2460101001378,登記記録の閉鎖等,0,2024-01-18,2024-01-18,バージニアフード株式会社,,株式会社,北海道,帯広市,公園東町１丁目６番地３,,01,207,0800847,,,2024-01-18,登記官による閉鎖,,,2015-10-05,1,,,,,,0
672,2460102006384,登記記録の閉鎖等,0,2024-01-18,2024-01-18,小利別木材産業有限会社,,有限会社,北海道,足寄郡陸別町,字陸別原野基線３３７番地の１,,01,648,0894300,,,2024-01-18,登記官による閉鎖,,,2016-10-18,1,,,,,,0
673,2460103000725,登記記録の閉鎖等,0,2024-01-18,2024-01-18,合同会社オフィス友和,,合同会社,北海道,中川郡幕別町,緑町７番地２８,,01,643,0890614,,,2024-01-18,登記官による閉鎖,,,2015-10-05,1,,,,,,0
674,2462502000710,登記記録の閉鎖等,0,2024-01-18,2024-01-18,有限会社丸合土田商店,,有限会社,北海道,標津郡中標津町,東一条南１丁目５番地,,01,692,0861001,,,2024-01-18,登記官による閉鎖,,,2015-10-05,1,,,,,,0
680,2500002010440,登記記録の閉鎖等,0,2024-01-18,2024-01-16,アケボノ庭園管理有限会社,,有限会社,愛媛県,松山市,山越１丁目７番３３号,,38,201,7918013,,,2024-01-16,清算の結了等,,,2015-10-05,1,,,,,アケボノテイエンカンリ,0
690,3010001165474,登記記録の閉鎖等,0,2024-01-18,2024-01-15,ＹＫコンサルタント株式会社,,株式会社,東京都,中央区,日本橋蛎殻町１丁目２８番２号,,13,102,1030014,,,2024-01-15,清算の結了等,,,2015-10-05,1,,,,,ワイケーコンサルタント,0
708,3010403024253,登記記録の閉鎖等,0,2024-01-18,2024-01-09,合同会社天神ホテル運営,,合同会社,東京都,港区,虎ノ門５丁目１番４号,,13,103,1050001,,,2024-01-09,清算の結了等,,,2020-12-04,1,,,,,テンジンホテルウンエイ,0
736,3011505002246,登記記録の閉鎖等,0,2024-01-18,2024-01-05,税理士法人赤羽会計,,その他の設立登記法人,東京都,北区,赤羽南１丁目４番７号小山ビル４Ｆ,,13,117,1150044,,,2024-01-05,清算の結了等,,,2019-07-05,1,,,,,アカバネカイケイ,0
739,3011701002735,登記記録の閉鎖等,0,2024-01-18,2024-01-12,株式会社健康社,,株式会社,東京都,江戸川区,南小岩７丁目１４番６号,,13,123,1330056,,,2024-01-12,合併による解散等,3011801002230,令和６年１月１日東京都葛飾区高砂五丁目３５番１２号株式会社ジョイフル恵利（3011801002230）に合併し解散,2015-10-05,1,,,,,ケンコウシャ,0
741,3011701010688,登記記録の閉鎖等,0,2024-01-18,2024-01-12,株式会社ヌ・エール,,株式会社,東京都,江戸川区,南小岩７丁目１４番６号,,13,123,1330056,,,2024-01-12,合併による解散等,3011801002230,令和６年１月１日東京都葛飾区高砂五丁目３５番１２号株式会社ジョイフル恵利（3011801002230）に合併し解散,2015-10-05,1,,,,,ヌエール,0
742,3011801020934,登記記録の閉鎖等,0,2024-01-18,2024-01-15,サクセスゲートジャパン株式会社,,株式会社,東京都,足立区,中川１丁目３番１１－７０５号,,13,121,1200002,,,2024-01-15,清算の結了等,,,2015-10-05,1,,,,,,0
751,3013103000482,登記記録の閉鎖等,0,2024-01-18,2024-01-10,ハートフルＬＬＣ合同会社,,合同会社,東京都,羽村市,五ノ神１丁目２番地１,,13,227,2050011,,,2024-01-10,登記官による閉鎖,,,2015-10-05,1,,,,,,0
769,3021003004124,登記記録の閉鎖等,0,2024-01-18,2024-01-15,合同会社アップトレンド,,合同会社,神奈川県,横須賀市,小矢部１丁目１４番１５号,,14,201,2380026,,,2024-01-15,清算の結了等,,,2015-10-05,1,,,,,アップトレンド,0
795,3050003000502,登記記録の閉鎖等,0,2024-01-18,2024-01-12,合資会社アウル,,合資会社,茨城県,水戸市,酒門町３１５０番地の６,,08,201,3100841,,,2024-01-12,清算の結了等,,,2015-10-05,1,,,,,アウル,0
802,3080002002711,登記記録の閉鎖等,0,2024-01-18,2024-01-16,有限会社城北コンタクトレンズ,,有限会社,静岡県,静岡市葵区,北安東１丁目３２番２８号,,22,101,4200881,,,2024-01-16,清算の結了等,,,2015-10-05,1,,,,,ジョウホクコンタクトレンズ,0
814,3110005011391,登記記録の閉鎖等,0,2024-01-18,2024-01-15,特定非営利活動法人地域循環ネットワーク,,その他の設立登記法人,新潟県,長岡市,東蔵王２丁目１番１０号,,15,202,9400029,,,2024-01-15,清算の結了等,,,2015-10-05,1,,,,,チイキジュンカンネットワーク,0
818,3120001165868,登記記録の閉鎖等,0,2024-01-18,2024-01-10,友通商事株式会社,,株式会社,大阪府,大阪市西区,本田２丁目８番６号,,27,106,5500022,,,2024-01-10,清算の結了等,,,2015-10-05,1,,,,,ユウツウショウジ,0
820,3120001197317,登記記録の閉鎖等,0,2024-01-18,2024-01-17,株式会社なんくる,,株式会社,大阪府,富田林市,喜志新家町２丁目２７－１,,27,214,5840003,,,2024-01-17,清算の結了等,,,2016-04-05,1,,,,,ナンクル,0
834,3120002021269,登記記録の閉鎖等,0,2024-01-18,2024-01-10,有限会社エース・プラニング,,有限会社,大阪府,大阪市西区,南堀江４丁目１８－１３エースビル２Ｆ,,27,106,5500015,,,2024-01-10,清算の結了等,,,2015-10-05,1,,,,,エースプラニング,0
838,3120101000388,登記記録の閉鎖等,0,2024-01-18,2024-01-18,五ツ星商事株式会社,,株式会社,大阪府,堺市堺区,中瓦町２丁３番２２号,,27,141,5900077,,,2024-01-18,登記官による閉鎖,,,2015-10-05,1,,,,,,0
839,3120101020725,登記記録の閉鎖等,0,2024-01-18,2024-01-18,南建設株式会社,,株式会社,大阪府,堺市西区,浜寺船尾町西１丁１８番地,,27,144,5928342,,,2024-01-18,登記官による閉鎖,,,2018-05-24,1,,,,,ミナミケンセツ,0
840,3120101041829,登記記録の閉鎖等,0,2024-01-18,2024-01-18,株式会社東組建設,,株式会社,大阪府,和泉市,若樫町６８８番地の１,,27,219,5941143,,,2024-01-18,登記官による閉鎖,,,2015-10-05,1,,,,,,0
841,3120102010907,登記記録の閉鎖等,0,2024-01-18,2024-01-18,有限会社森川住宅,,有限会社,大阪府,堺市南区,別所１５４５番地８,,27,145,5900135,,,2024-01-18,登記官による閉鎖,,,2015-10-05,1,,,,,モリカワジュウタク,0
842,3120102012969,登記記録の閉鎖等,0,2024-01-18,2024-01-18,有限会社アロー,,有限会社,大阪府,堺市堺区,北半町西２番２９号,,27,141,5900921,,,2024-01-18,登記官による閉鎖,,,2015-10-05,1,,,,,,0
843,3120102024618,登記記録の閉鎖等,0,2024-01-18,2024-01-18,有限会社スタディ,,有限会社,大阪府,泉佐野市,長滝１２２番地,,27,213,5980034,,,2024-01-18,登記官による閉鎖,,,2015-10-05,1,,,,,,0
844,3120102028858,登記記録の閉鎖等,0,2024-01-18,2024-01-18,有限会社コスモ・パック,,有限会社,大阪府,松原市,新堂２丁目３２１番地の１１,,27,217,5800015,,,2024-01-18,登記官による閉鎖,,,2018-03-27,1,,,,,コスモパック,0
845,3120103000683,登記記録の閉鎖等,0,2024-01-18,2024-01-18,合同会社ＢＬＵＥ　ＡＩＲ,,合同会社,大阪府,堺市堺区,南旅篭町東１丁１－６,,27,141,5900965,,,2024-01-18,登記官による閉鎖,,,2015-10-05,1,,,,,,0
846,3120105005441,登記記録の閉鎖等,0,2024-01-18,2024-01-18,企業組合フリーエージェンシー創豊,,その他の設立登記法人,大阪府,河内長野市,楠町東１６８７番地の６,,27,216,5860003,,,2024-01-18,登記官による閉鎖,,,2015-10-05,1,,,,,,0
847,3120105005887,登記記録の閉鎖等,0,2024-01-18,2024-01-18,相互米穀企業組合,,その他の設立登記法人,大阪府,貝塚市,津田南町１８番１７号,,27,208,5970014,,,2024-01-18,登記官による閉鎖,,,2015-10-05,1,,,,,,0
850,3120901016526,登記記録の閉鎖等,0,2024-01-18,2024-01-18,株式会社ＯＣコーヒー,,株式会社,大阪府,吹田市,長野西１３番２０号２０３,,27,205,5650817,,,2024-01-18,登記官による閉鎖,,,2015-10-05,1,,,,,,0
851,3120901025741,登記記録の閉鎖等,0,2024-01-18,2024-01-18,万葉産業株式会社,,株式会社,大阪府,豊中市,柴原町１丁目８番４８号,,27,203,5600055,,,2024-01-18,登記官による閉鎖,,,2015-10-05,1,,,,,,0
852,3120901029949,登記記録の閉鎖等,0,2024-01-18,2024-01-18,株式会社ラインアート,,株式会社,大阪府,箕面市,森町中２丁目１７番１５号,,27,220,5630257,,,2024-01-18,登記官による閉鎖,,,2015-10-05,1,,,,,,0
853,3120901034486,登記記録の閉鎖等,0,2024-01-18,2024-01-18,清和住宅株式会社,,株式会社,大阪府,茨木市,駅前３丁目１０番２３号,,27,211,5670888,,,2024-01-18,登記官による閉鎖,,,2015-10-05,1,,,,,,0
855,3120902011501,登記記録の閉鎖等,0,2024-01-18,2024-01-18,有限会社山橋築炉工業所,,有限会社,大阪府,高槻市,氷室町５丁目２番３号,,27,207,5691141,,,2024-01-18,登記官による閉鎖,,,2015-10-05,1,,,,,,0
856,3120902022944,登記記録の閉鎖等,0,2024-01-18,2024-01-18,有限会社夢らんど,,有限会社,大阪府,吹田市,岸部南２丁目３５番１０号,,27,205,5640011,,,2024-01-18,登記官による閉鎖,,,2016-10-05,1,,,,,,0
857,3120905001210,登記記録の閉鎖等,0,2024-01-18,2024-01-18,忍頂寺農業協同組合,,その他の設立登記法人,大阪府,茨木市,大字忍頂寺１４１番地,,27,211,5680085,,,2024-01-18,登記官による閉鎖,,,2015-10-05,1,,,,,,0
858,3122001007637,登記記録の閉鎖等,0,2024-01-18,2024-01-18,やすずみ工業株式会社,,株式会社,大阪府,東大阪市,岩田町１丁目１２番１６号,,27,227,5780941,,,2024-01-18,登記官による閉鎖,,,2015-10-05,1,,,,,,0
859,3122001008024,登記記録の閉鎖等,0,2024-01-18,2024-01-18,株式会社ワタナベ,,株式会社,大阪府,東大阪市,高井田本通７丁目１番１９号,,27,227,5770066,,,2024-01-18,登記官による閉鎖,,,2015-10-05,1,,,,,,0
860,3122001014187,登記記録の閉鎖等,0,2024-01-18,2024-01-18,大阪産業株式会社,,株式会社,大阪府,東大阪市,出雲井本町７番８号,,27,227,5798034,,,2024-01-18,登記官による閉鎖,,,2015-10-05,1,,,,,,0
863,3122001024137,登記記録の閉鎖等,0,2024-01-18,2024-01-18,株式会社パーフェクト,,株式会社,大阪府,東大阪市,足代１丁目１９番６号,,27,227,5770841,,,2024-01-18,登記官による閉鎖,,,2015-10-05,1,,,,,,0
864,3122001031819,登記記録の閉鎖等,0,2024-01-18,2024-01-18,株式会社ワールドホーム,,株式会社,大阪府,東大阪市,若江東町３丁目１番３０号,,27,227,5780935,,,2024-01-18,登記官による閉鎖,,,2018-08-03,1,,,,,ワールドホーム,0
867,3122002004105,登記記録の閉鎖等,0,2024-01-18,2024-01-18,有限会社フロントライン,,有限会社,大阪府,東大阪市,若江本町３丁目３番３４号,,27,227,5780942,,,2024-01-18,登記官による閉鎖,,,2015-10-05,1,,,,,,0
868,3122002010160,登記記録の閉鎖等,0,2024-01-18,2024-01-18,有限会社ハッピー住宅センター,,有限会社,大阪府,東大阪市,菱屋西６丁目４番４１－４２１号,,27,227,5770807,,,2024-01-18,登記官による閉鎖,,,2015-10-05,1,,,,,,0
870,3122005002618,登記記録の閉鎖等,0,2024-01-18,2024-01-18,特定非営利活動法人未来,,その他の設立登記法人,大阪府,八尾市,本町２丁目１１番１９号,,27,212,5810003,,,2024-01-18,登記官による閉鎖,,,2015-10-05,1,,,,,,0
873,3130003008181,登記記録の閉鎖等,0,2024-01-18,2024-01-04,サイアス合同会社,,合同会社,京都府,京都市左京区,吉田下阿達町４６番地２９,,26,103,6068304,,,2024-01-04,合併による解散等,3130001055894,令和５年１２月２８日京都市左京区吉田下阿達町４６－２９シノビ・セラピューティクス株式会社（3130001055894）に合併し解散,2022-09-28,1,,,,,サイアス,0
887,3160001003256,登記記録の閉鎖等,0,2024-01-18,2024-01-18,株式会社藤染匠,,株式会社,滋賀県,大津市,比叡平３丁目４７番２１号,,25,201,5200016,,,2024-01-18,登記官による閉鎖,,,2015-10-05,1,,,,,,0
889,3160005003392,登記記録の閉鎖等,0,2024-01-18,2024-01-18,牛打非出資農業協同組合,,その他の設立登記法人,滋賀県,米原市,河南４３６番地,,25,214,5210021,,,2024-01-18,登記官による閉鎖,,,2015-10-05,1,,,,,,0
890,3160005006809,登記記録の閉鎖等,0,2024-01-18,2024-01-18,武佐村第二養蚕農業協同組合,,その他の設立登記法人,滋賀県,近江八幡市,末広町６７９番地,,25,204,5230005,,,2024-01-18,登記官による閉鎖,,,2015-10-05,1,,,,,,0
891,3160005007922,登記記録の閉鎖等,0,2024-01-18,2024-01-18,特定非営利活動法人朽木針畑山人協会,,その他の設立登記法人,滋賀県,高島市,朽木生杉５８７,,25,212,5201442,,,2024-01-18,登記官による閉鎖,,,2015-10-05,1,,,,,,0
892,3160005008607,登記記録の閉鎖等,0,2024-01-18,2024-01-18,特定非営利活動法人セーブザマイノリティアンドチルドレン,,その他の設立登記法人,滋賀県,草津市,笠山３丁目１２番７０号,,25,206,5250072,,,2024-01-18,登記官による閉鎖,,,2015-10-05,1,,,,,,0
894,3170001001382,登記記録の閉鎖等,0,2024-01-18,2024-01-18,三幸住宅株式会社,,株式会社,和歌山県,和歌山市,冬野１５４４番地６,,30,201,6400332,,,2024-01-18,登記官による閉鎖,,,2015-10-05,1,,,,,,0
895,3170001011076,登記記録の閉鎖等,0,2024-01-18,2024-01-18,株式会社丸吉,,株式会社,和歌山県,橋本市,高野口町向島２００番地の１２,,30,203,6497206,,,2024-01-18,登記官による閉鎖,,,2015-10-05,1,,,,,,0
896,3170002000573,登記記録の閉鎖等,0,2024-01-18,2024-01-18,有限会社エヌケイエス,,有限会社,和歌山県,和歌山市,伝法橋南ノ丁６番地２３,,30,201,6408204,,,2024-01-18,登記官による閉鎖,,,2015-10-05,1,,,,,,0
897,3170002003907,登記記録の閉鎖等,0,2024-01-18,2024-01-18,山十水産有限会社,,有限会社,和歌山県,和歌山市,和歌浦南２丁目２番５号,,30,201,6410022,,,2024-01-18,登記官による閉鎖,,,2015-10-05,1,,,,,,0
898,3170002005845,登記記録の閉鎖等,0,2024-01-18,2024-01-18,有限会社いきいきコンサルタント事務所,,有限会社,和歌山県,和歌山市,善明寺７２７番地の３１,,30,201,6408471,,,2024-01-18,登記官による閉鎖,,,2015-10-05,1,,,,,,0
899,3170002005928,登記記録の閉鎖等,0,2024-01-18,2024-01-18,有限会社光工房,,有限会社,和歌山県,和歌山市,冬野１２５７番地の３,,30,201,6400332,,,2024-01-18,登記官による閉鎖,,,2015-10-05,1,,,,,,0
900,3170002007370,登記記録の閉鎖等,0,2024-01-18,2024-01-18,有限会社丸吉商事,,有限会社,和歌山県,有田市,糸我町中番２９３番地の１,,30,204,6490421,,,2024-01-18,登記官による閉鎖,,,2015-10-05,1,,,,,,0
911,3180001133002,登記記録の閉鎖等,0,2024-01-18,2024-01-12,アールチェンジ株式会社,,株式会社,愛知県,小牧市,小牧２丁目１３７番地１,,23,219,4850041,,,2024-01-12,合併による解散等,9180002069339,令和５年１２月１日愛知県小牧市小牧二丁目１３７番地１株式会社ライフストーリーズ（9180002069339）に合併し解散,2018-07-06,1,,,,,アールチェンジ,0
920,3190001024423,登記記録の閉鎖等,0,2024-01-18,2024-01-16,松阪ハム株式会社,,株式会社,三重県,津市,あのつ台１丁目６番５号,,24,201,5140131,,,2024-01-16,清算の結了等,,,2017-02-28,1,,,,,マツサカハム,0
933,3230001008504,登記記録の閉鎖等,0,2024-01-18,2024-01-18,第一オフィス株式会社,,株式会社,富山県,南砺市,高堀８番地,,16,210,9391511,,,2024-01-18,登記官による閉鎖,,,2015-10-05,1,,,,,,0
934,3230002001680,登記記録の閉鎖等,0,2024-01-18,2024-01-18,有限会社祥栄工業,,有限会社,富山県,富山市,向新庄町１丁目２２番１５号,,16,201,9300916,,,2024-01-18,登記官による閉鎖,,,2015-10-05,1,,,,,,0
935,3230002005938,登記記録の閉鎖等,0,2024-01-18,2024-01-18,有限会社青山石油,,有限会社,富山県,中新川郡舟橋村,舟橋字大割５７番地,,16,321,9300281,,,2024-01-18,登記官による閉鎖,,,2015-10-05,1,,,,,,0
938,3230002007496,登記記録の閉鎖等,0,2024-01-18,2024-01-18,有限会社エム・ピー・エス,,有限会社,富山県,魚津市,天神野新１０７５番地,,16,204,9370013,,,2024-01-18,登記官による閉鎖,,,2015-10-05,1,,,,,,0
939,3230002014575,登記記録の閉鎖等,0,2024-01-18,2024-01-18,有限会社丸二石油,,有限会社,富山県,射水市,高木３１０番地,,16,211,9340047,,,2024-01-18,登記官による閉鎖,,,2015-10-05,1,,,,,,0
940,3230005005274,登記記録の閉鎖等,0,2024-01-18,2024-01-18,井波別院瑞泉寺維持会財団法人,,その他の設立登記法人,富山県,南砺市,井波３０５０番地,,16,210,9320211,,,2024-01-18,登記官による閉鎖,,,2015-10-05,1,,,,,,0
941,3230005005828,登記記録の閉鎖等,0,2024-01-18,2024-01-18,財団法人日蓮宗顕正会,,その他の設立登記法人,富山県,高岡市,利屋町６７番地,,16,202,9330927,,,2024-01-18,登記官による閉鎖,,,2015-10-05,1,,,,,,0
942,3230005007171,登記記録の閉鎖等,0,2024-01-18,2024-01-18,農事組合法人久目果実生産組合,,その他の設立登記法人,富山県,氷見市,触坂９１７番地,,16,205,9350266,,,2024-01-18,登記官による閉鎖,,,2015-10-05,1,,,,,,0
994,3370302001128,登記記録の閉鎖等,0,2024-01-18,2024-01-16,有限会社サウザントリーフ,,有限会社,宮城県,東松島市,赤井字台４９番地２,,04,214,9810501,,,2024-01-16,清算の結了等,,,2015-10-05,1,,,,,サウザントリーフ,0
998,3420001014986,登記記録の閉鎖等,0,2024-01-18,2024-01-15,株式会社ＯＤｉａ,,株式会社,青森県,下北郡大間町,大字大間字下手道３５番地１,,02,423,0394601,,,2024-01-15,清算の結了等,,,2015-12-09,1,,,,,,0
1003,3430002044370,登記記録の閉鎖等,0,2024-01-18,2024-01-09,有限会社伸興燃料,,有限会社,北海道,北広島市,大曲南ヶ丘１丁目５番地２,,01,234,0611275,,,2024-01-09,清算の結了等,,,2015-10-05,1,,,,,,0
1009,3450001005553,登記記録の閉鎖等,0,2024-01-18,2024-01-18,司建設工業株式会社,,株式会社,北海道,旭川市,東光九条４丁目１番２５号,,01,204,0788349,,,2024-01-18,登記官による閉鎖,,,2015-10-05,1,,,,,,0
1010,3450002005866,登記記録の閉鎖等,0,2024-01-18,2024-01-18,有限会社山上菊池商店,,有限会社,北海道,旭川市,豊岡七条８丁目４番１０号,,01,204,0788237,,,2024-01-18,登記官による閉鎖,,,2015-10-05,1,,,,,,0
1011,3450002008423,登記記録の閉鎖等,0,2024-01-18,2024-01-18,中古車流通販売有限会社,,有限会社,北海道,旭川市,大雪通８丁目５０９番地の２,,01,204,0700010,,,2024-01-18,登記官による閉鎖,,,2018-06-29,1,,,,,チュウコシャリュウツウハンバイ,0
1012,3450002011674,登記記録の閉鎖等,0,2024-01-18,2024-01-18,有限会社利尻マリンサービス,,有限会社,北海道,利尻郡利尻町,沓形字日出町４１番地,,01,518,0970401,,,2024-01-18,登記官による閉鎖,,,2015-10-05,1,,,,,,0
1013,3450002012350,登記記録の閉鎖等,0,2024-01-18,2024-01-18,有限会社伊藤土建,,有限会社,北海道,苫前郡初山別村,字初山別１０３番地,,01,485,0784421,,,2024-01-18,登記官による閉鎖,,,2015-10-05,1,,,,,,0
1014,3450003000569,登記記録の閉鎖等,0,2024-01-18,2024-01-18,合同会社富良野コーポレーション,,合同会社,北海道,空知郡上富良野町,大町５丁目９４２番地２５,,01,460,0710561,,,2024-01-18,登記官による閉鎖,,,2015-10-05,1,,,,,,0
1016,3460001003507,登記記録の閉鎖等,0,2024-01-18,2024-01-18,株式会社ユーノス道東,,株式会社,北海道,釧路市,柳町１３番２９号,,01,206,0850037,,,2024-01-18,登記官による閉鎖,,,2015-10-05,1,,,,,,0
1017,3460001003804,登記記録の閉鎖等,0,2024-01-18,2024-01-18,株式会社オーシャン,,株式会社,北海道,釧路市,黒金町１３丁目２６番３５号,,01,206,0850018,,,2024-01-18,登記官による閉鎖,,,2015-10-05,1,,,,,,0
1019,3460005001218,登記記録の閉鎖等,0,2024-01-18,2024-01-18,企業組合ひがし北海道自然環境プロジェクト,,その他の設立登記法人,北海道,川上郡弟子屈町,川湯温泉５丁目３番３２号,,01,665,0883465,,,2024-01-18,登記官による閉鎖,,,2015-10-05,1,,,,,,0
1020,3460102000626,登記記録の閉鎖等,0,2024-01-18,2024-01-18,有限会社帯広ドライビングセンター,,有限会社,北海道,帯広市,東九条南５丁目１番地,,01,207,0800809,,,2024-01-18,登記官による閉鎖,,,2015-10-05,1,,,,,,0
1021,3460102003100,登記記録の閉鎖等,0,2024-01-18,2024-01-18,有限会社北海道デンタル・サービス,,有限会社,北海道,帯広市,東六条南１０丁目１７番地,,01,207,0800806,,,2024-01-18,登記官による閉鎖,,,2015-10-05,1,,,,,,0
1024,3460302005400,登記記録の閉鎖等,0,2024-01-18,2024-01-18,有限会社いと理美容商事,,有限会社,北海道,北見市,本町２丁目１番１号,,01,208,0900818,,,2024-01-18,登記官による閉鎖,,,2015-10-05,1,,,,,,0
1043,4010001104217,登記記録の閉鎖等,0,2024-01-18,2024-01-11,株式会社博英コンサルティング,,株式会社,東京都,中央区,銀座２丁目１１番１５号,,13,102,1040061,,,2024-01-11,清算の結了等,,,2015-10-05,1,,,,,ハクエイコンサルティング,0
1052,4010005024659,登記記録の閉鎖等,0,2024-01-18,2024-01-15,Ｎｅｕｓｃｈｌｏｓｓ　Ｉｎｖｅｓｔｍｅｎｔｓ一般社団法人,,その他の設立登記法人,東京都,千代田区,神田神保町１丁目１１番地さくら綜合事務所内,,13,101,1010051,,,2024-01-15,清算の結了等,,,2015-11-24,1,,,,,ノイシュロスインベストメンツ,0
1055,4010401104270,登記記録の閉鎖等,0,2024-01-18,2024-01-04,株式会社ハンズ・オン,,株式会社,東京都,港区,赤坂７丁目１番１６号,,13,103,1070052,,,2024-01-04,合併による解散等,6010401052047,令和５年１２月２９日東京都港区赤坂七丁目１番１６号株式会社アイエスエフネット（6010401052047）に合併し解散,2015-10-05,1,,,,,ハンズオン,0
1057,4010401131050,登記記録の閉鎖等,0,2024-01-18,2024-01-09,株式会社ＰＩＡ,,株式会社,東京都,港区,東麻布３丁目７番１３号,,13,103,1060044,,,2024-01-09,清算の結了等,,,2017-04-27,1,,,,,ピア,0
1063,4010403026389,登記記録の閉鎖等,0,2024-01-18,2024-01-09,合同会社大通ホテル運営,,合同会社,東京都,港区,虎ノ門５丁目１番４号,,13,103,1050001,,,2024-01-09,清算の結了等,,,2021-10-25,1,,,,,オオドオリホテルウンエイ,0
1074,4010901018680,登記記録の閉鎖等,0,2024-01-18,2023-12-26,株式会社五陽不動産,,株式会社,東京都,世田谷区,経堂１丁目６番１４号,,13,112,1560052,,,2023-12-26,清算の結了等,,,2015-10-05,1,,,,,ゴヨウフドウサン,0
1077,4011001126903,登記記録の閉鎖等,0,2024-01-18,2024-01-17,ブロックプレイヤーズ株式会社,,株式会社,東京都,渋谷区,道玄坂１丁目１９番２号スプラインビル６階,,13,113,1500043,,,2024-01-17,清算の結了等,,,2019-03-08,1,,,,,ブロックプレイヤーズ,0
1096,4011802029404,登記記録の閉鎖等,0,2024-01-18,2024-01-16,有限会社プレオ,,有限会社,東京都,葛飾区,東新小岩６丁目１６番１１号,,13,122,1240023,,,2024-01-16,清算の結了等,,,2015-10-05,1,,,,,プレオ,0
1098,4011802030287,登記記録の閉鎖等,0,2024-01-18,2024-01-16,有限会社小川マリーンズ,,有限会社,東京都,足立区,綾瀬５丁目２２番７－５０３号,,13,121,1200005,,,2024-01-16,清算の結了等,,,2015-10-05,1,,,,,オガワマリーンズ,0
1105,4013101000533,登記記録の閉鎖等,0,2024-01-18,2024-01-10,株式会社おおみや,,株式会社,東京都,羽村市,羽加美４丁目１９番１０号,,13,227,2050016,,,2024-01-10,登記官による閉鎖,,,2015-10-05,1,,,,,,0
1106,4013102007585,登記記録の閉鎖等,0,2024-01-18,2024-01-10,有限会社大同電設,,有限会社,東京都,西多摩郡日の出町,大字平井１７８７番地３９,,13,305,1900182,,,2024-01-10,登記官による閉鎖,,,2015-10-05,1,,,,,,0
1107,4013102008039,登記記録の閉鎖等,0,2024-01-18,2024-01-10,有限会社リシュアル工防,,有限会社,東京都,あきる野市,二宮１３７０番地２,,13,228,1970814,,,2024-01-10,登記官による閉鎖,,,2015-10-05,1,,,,,,0
1112,4020001048487,登記記録の閉鎖等,0,2024-01-18,2024-01-17,株式会社インパート,,株式会社,東京都,渋谷区,渋谷１丁目８番５号,,13,113,1500002,,,2024-01-17,清算の結了等,,,2015-10-05,1,,,,,インパート,0
1120,4021002057205,登記記録の閉鎖等,0,2024-01-18,2024-01-15,有限会社岡部,,有限会社,神奈川県,平塚市,徳延１７９番地１号,,14,203,2540902,,,2024-01-15,清算の結了等,,,2015-10-05,1,,,,,オカベ,0
1121,4021002068466,登記記録の閉鎖等,0,2024-01-18,2024-01-15,有限会社ひびの,,有限会社,神奈川県,逗子市,逗子２丁目６番２８号,,14,208,2490006,,,2024-01-15,清算の結了等,,,2015-10-05,1,,,,,ヒビノ,0
1141,4040002043353,登記記録の閉鎖等,0,2024-01-18,2024-01-09,有限会社ベアーズ・ケア・サプライ,,有限会社,千葉県,市川市,曽谷６丁目２３番１２号,,12,203,2720832,,,2024-01-09,清算の結了等,,,2015-10-05,1,,,,,ベアーズケアサプライ,0
1154,4050002009171,登記記録の閉鎖等,0,2024-01-18,2024-01-15,有限会社小沼酒店,,有限会社,茨城県,東茨城郡大洗町,大貫町３６６番地,,08,309,3111311,,,2024-01-15,清算の結了等,,,2015-10-05,1,,,,,オヌマサケテン,0
1165,4080001009921,登記記録の閉鎖等,0,2024-01-18,2024-01-17,株式会社藤研,,株式会社,静岡県,静岡市清水区,押切１９４５番地,,22,103,4240008,,,2024-01-17,清算の結了等,,,2015-10-05,1,,,,,フジケン,0
1170,4100001002485,登記記録の閉鎖等,0,2024-01-18,2024-01-12,株式会社長野フオトセンター,,株式会社,長野県,長野市,川中島町御厨９４４番地,,20,201,3812221,,,2024-01-12,清算の結了等,,,2015-10-05,1,,,,,ナガノフォトセンター,0
1172,4100002036375,登記記録の閉鎖等,0,2024-01-18,2024-01-11,有限会社サンコーギフト,,有限会社,長野県,飯田市,今宮町３丁目６１番地,,20,205,3950071,,,2024-01-11,清算の結了等,,,2015-10-05,1,,,,,サンコーギフト,0
1174,4110001023555,登記記録の閉鎖等,0,2024-01-18,2023-12-26,株式会社みやこ富士,,株式会社,新潟県,長岡市,要町１丁目８番３９号,,15,202,9401153,,,2023-12-26,清算の結了等,,,2015-10-05,1,,,,,ミヤコフジ,0
1180,4120001184074,登記記録の閉鎖等,0,2024-01-18,2024-01-16,株式会社ユーアンドアイ,,株式会社,大阪府,大阪市大正区,千島３丁目６番１７号３１０号室,,27,108,5510003,,,2024-01-16,清算の結了等,,,2015-10-05,1,,,,,ユーアンドアイ,0
1191,4120101000544,登記記録の閉鎖等,0,2024-01-18,2024-01-18,株式会社井川工務店,,株式会社,大阪府,堺市東区,日置荘原寺町８３番地,,27,143,5998112,,,2024-01-18,登記官による閉鎖,,,2015-10-05,1,,,,,,0
1192,4120101003183,登記記録の閉鎖等,0,2024-01-18,2024-01-18,株式会社山栄企業,,株式会社,大阪府,堺市西区,浜寺元町３丁３７９番地２,,27,144,5928343,,,2024-01-18,登記官による閉鎖,,,2018-12-20,1,,,,,サンエイキギョウ,0
1193,4120101007432,登記記録の閉鎖等,0,2024-01-18,2024-01-18,株式会社山中インナー,,株式会社,大阪府,堺市南区,釜室８３３番地の１,,27,145,5900122,,,2024-01-18,登記官による閉鎖,,,2015-10-05,1,,,,,,0
1194,4120101025203,登記記録の閉鎖等,0,2024-01-18,2024-01-18,株式会社小山住器産業,,株式会社,大阪府,松原市,東新町５丁目１番２８号,,27,217,5800024,,,2024-01-18,登記官による閉鎖,,,2015-10-05,1,,,,,,0
1195,4120101039442,登記記録の閉鎖等,0,2024-01-18,2024-01-18,エイワ産業株式会社,,株式会社,大阪府,泉佐野市,高松東１丁目４番３０号,,27,213,5980012,,,2024-01-18,登記官による閉鎖,,,2015-10-05,1,,,,,エイワサンギョウ,0
1196,4120101045597,登記記録の閉鎖等,0,2024-01-18,2024-01-18,山源繊維工業株式会社,,株式会社,大阪府,和泉市,阪本町３５番地,,27,219,5940052,,,2024-01-18,登記官による閉鎖,,,2015-10-05,1,,,,,ヤマゲンセンイコウギョウ,0
1199,4120102001839,登記記録の閉鎖等,0,2024-01-18,2024-01-18,有限会社児山ビル,,有限会社,大阪府,堺市堺区,中瓦町２丁３番２号,,27,141,5900077,,,2024-01-18,登記官による閉鎖,,,2015-10-05,1,,,,,,0
1200,4120102012902,登記記録の閉鎖等,0,2024-01-18,2024-01-17,有限会社イズミテクノサービス,,有限会社,大阪府,堺市中区,深阪３丁１２番６３号,,27,142,5998253,,,2024-01-17,清算の結了等,,,2015-10-05,1,,,,,,0
1201,4120102016449,登記記録の閉鎖等,0,2024-01-18,2024-01-18,有限会社田宮商会,,有限会社,大阪府,堺市北区,東上野芝町２丁４６８番地１エンゼルハイム上野芝１０５号,,27,146,5918035,,,2024-01-18,登記官による閉鎖,,,2015-10-05,1,,,,,,0
1202,4120102018148,登記記録の閉鎖等,0,2024-01-18,2024-01-18,有限会社総合保険サービス,,有限会社,大阪府,羽曳野市,伊賀２丁目１２番６号,,27,222,5830876,,,2024-01-18,登記官による閉鎖,,,2015-10-05,1,,,,,,0
1203,4120105005259,登記記録の閉鎖等,0,2024-01-18,2024-01-18,河南建材商業協同組合,,その他の設立登記法人,大阪府,羽曳野市,西浦１丁目２番１１号トキワビル２０７号,,27,222,5830861,,,2024-01-18,登記官による閉鎖,,,2015-10-05,1,,,,,,0
1204,4120901017465,登記記録の閉鎖等,0,2024-01-18,2024-01-18,株式会社北国住宅,,株式会社,大阪府,茨木市,五日市２丁目１番１７号,,27,211,5670005,,,2024-01-18,登記官による閉鎖,,,2015-10-05,1,,,,,,0
1205,4120901018868,登記記録の閉鎖等,0,2024-01-18,2024-01-18,株式会社コバヤシ,,株式会社,大阪府,高槻市,城北町２丁目３番１７号泉ビル,,27,207,5690071,,,2024-01-18,登記官による閉鎖,,,2015-10-05,1,,,,,,0
1206,4120901023744,登記記録の閉鎖等,0,2024-01-18,2024-01-18,株式会社コスモテック,,株式会社,大阪府,豊中市,熊野町３丁目１２番１１号,,27,203,5600014,,,2024-01-18,登記官による閉鎖,,,2015-10-05,1,,,,,,0
1207,4120901029717,登記記録の閉鎖等,0,2024-01-18,2024-01-18,三和ポンプ株式会社,,株式会社,大阪府,池田市,宇保町１５番２号,,27,204,5630042,,,2024-01-18,登記官による閉鎖,,,2015-10-05,1,,,,,,0
1208,4120901036952,登記記録の閉鎖等,0,2024-01-18,2024-01-18,株式会社松永工務店,,株式会社,大阪府,高槻市,唐崎中３丁目２１番２号,,27,207,5690832,,,2024-01-18,登記官による閉鎖,,,2016-05-19,1,,,,,,0
1211,4120902009552,登記記録の閉鎖等,0,2024-01-18,2024-01-18,有限会社石津建設,,有限会社,大阪府,高槻市,安岡寺町４丁目２１番１１号,,27,207,5691029,,,2024-01-18,登記官による閉鎖,,,2015-10-05,1,,,,,,0
1212,4120902017729,登記記録の閉鎖等,0,2024-01-18,2024-01-18,有限会社栄和精機製作所,,有限会社,大阪府,豊中市,今在家町１８番２４号,,27,203,5610842,,,2024-01-18,登記官による閉鎖,,,2015-10-05,1,,,,,,0
1213,4120903000774,登記記録の閉鎖等,0,2024-01-18,2024-01-18,合資会社ケイアンドアソシエイツ,,合資会社,大阪府,池田市,畑５丁目８番１３号,,27,204,5630021,,,2024-01-18,登記官による閉鎖,,,2015-12-16,1,,,,,,0
1215,4120905003610,登記記録の閉鎖等,0,2024-01-18,2024-01-18,社団法人北摂青年会議所,,その他の設立登記法人,大阪府,豊能郡能勢町,地黄３５番地の５,,27,322,5630121,,,2024-01-18,登記官による閉鎖,,,2015-10-05,1,,,,,,0
1216,4122001000921,登記記録の閉鎖等,0,2024-01-18,2024-01-18,株式会社エヌピーシー,,株式会社,大阪府,東大阪市,島之内２丁目５番３４号,,27,227,5780981,,,2024-01-18,登記官による閉鎖,,,2015-10-05,1,,,,,,0
1217,4122001004674,登記記録の閉鎖等,0,2024-01-18,2024-01-18,株式会社ティオーティ,,株式会社,大阪府,東大阪市,新家西町１０番１６号,,27,227,5770028,,,2024-01-18,登記官による閉鎖,,,2015-10-05,1,,,,,,0
1218,4122001014062,登記記録の閉鎖等,0,2024-01-18,2024-01-18,株式会社沢野ホームサービス,,株式会社,大阪府,東大阪市,渋川町１丁目２番２０号,,27,227,5770836,,,2024-01-18,登記官による閉鎖,,,2015-10-05,1,,,,,,0
1219,4122001022552,登記記録の閉鎖等,0,2024-01-18,2024-01-18,株式会社アートスクール梅田,,株式会社,大阪府,柏原市,国分市場１丁目６番２０号,,27,221,5820022,,,2024-01-18,登記官による閉鎖,,,2015-10-05,1,,,,,,0
1220,4122001024045,登記記録の閉鎖等,0,2024-01-18,2024-01-18,株式会社成＆翔,,株式会社,大阪府,東大阪市,新町２４番１３号,,27,227,5798037,,,2024-01-18,登記官による閉鎖,,,2015-10-05,1,,,,,,0
1222,4122002004384,登記記録の閉鎖等,0,2024-01-18,2024-01-18,有限会社ベテル保険事務所,,有限会社,大阪府,東大阪市,若江北町１丁目１１番８号,,27,227,5780945,,,2024-01-18,登記官による閉鎖,,,2015-10-05,1,,,,,,0
1223,4122002005952,登記記録の閉鎖等,0,2024-01-18,2024-01-18,有限会社マーキュリ,,有限会社,大阪府,東大阪市,高井田元町１丁目２番８号,,27,227,5770054,,,2024-01-18,登記官による閉鎖,,,2015-10-05,1,,,,,,0
1224,4122005000513,登記記録の閉鎖等,0,2024-01-18,2024-01-18,花園商店街振興組合,,その他の設立登記法人,大阪府,東大阪市,吉田１丁目６番４号,,27,227,5780924,,,2024-01-18,登記官による閉鎖,,,2015-10-05,1,,,,,,0
1225,4122005001478,登記記録の閉鎖等,0,2024-01-18,2024-01-18,特定非営利活動法人国際福祉育英事業団,,その他の設立登記法人,大阪府,東大阪市,善根寺町４丁目３番９号,,27,227,5798001,,,2024-01-18,登記官による閉鎖,,,2015-10-05,1,,,,,,0
1226,4122005002088,登記記録の閉鎖等,0,2024-01-18,2024-01-18,柏原水道指定工事店協同組合,,その他の設立登記法人,大阪府,柏原市,玉手町１７番１号,,27,221,5820028,,,2024-01-18,登記官による閉鎖,,,2015-10-05,1,,,,,,0
1229,4130001075652,登記記録の閉鎖等,0,2024-01-18,2024-01-15,明成開発株式会社,,株式会社,京都府,京都市南区,西九条御幸田町１０６番地の１０,,26,107,6018442,,,2024-01-15,清算の結了等,,,2023-11-06,1,,,,,メイセイカイハツ,0
1233,4130002014246,登記記録の閉鎖等,0,2024-01-18,2024-01-11,有限会社河本興業,,有限会社,京都府,京都市山科区,御陵荒巻町１０番地５セジュール花山１０１号室,,26,110,6078429,,,2024-01-11,清算の結了等,,,2015-10-05,1,,,,,カワモトコウギョウ,0
1242,4140002006300,登記記録の閉鎖等,0,2024-01-18,2024-01-16,有限会社ツディ,,有限会社,兵庫県,神戸市垂水区,清玄町１１番地の１７,,28,108,6550865,,,2024-01-16,清算の結了等,,,2015-10-05,1,,,,,ツディ,0
1245,4160001008790,登記記録の閉鎖等,0,2024-01-18,2024-01-16,株式会社トゥイン,,株式会社,滋賀県,彦根市,東沼波町１１８２番地８,,25,202,5220027,,,2024-01-16,清算の結了等,,,2015-10-05,1,,,,,トゥイン,0
1246,4160001011910,登記記録の閉鎖等,0,2024-01-18,2024-01-18,三協建設株式会社,,株式会社,滋賀県,高島市,朽木市場７１５番地,,25,212,5201401,,,2024-01-18,登記官による閉鎖,,,2015-10-05,1,,,,,サンキョウケンセツ,0
1249,4160001016380,登記記録の閉鎖等,0,2024-01-18,2024-01-18,株式会社ワンダーデコ,,株式会社,滋賀県,守山市,赤野井町３７４番地,,25,207,5240061,,,2024-01-18,登記官による閉鎖,,,2015-10-05,1,,,,,,0
1251,4160005001296,登記記録の閉鎖等,0,2024-01-18,2024-01-18,特定非営利活動法人プラの会,,その他の設立登記法人,滋賀県,大津市,園城寺町３３番地,,25,201,5200036,,,2024-01-18,登記官による閉鎖,,,2015-10-05,1,,,,,,0
1252,4160005002385,登記記録の閉鎖等,0,2024-01-18,2024-01-18,特定非営利活動法人琵琶湖広場,,その他の設立登記法人,滋賀県,大津市,柳が崎一丁目４番２０号ハイツルピナス２０３号,,25,201,5200022,,,2024-01-18,登記官による閉鎖,,,2015-10-05,1,,,,,,0
1253,4160005008795,登記記録の閉鎖等,0,2024-01-18,2024-01-18,財団法人至道会青少年研修所,,その他の設立登記法人,滋賀県,守山市,吉身町７５３番地の２,,25,207,5240021,,,2024-01-18,登記官による閉鎖,,,2015-10-05,1,,,,,,0
1255,4170001003477,登記記録の閉鎖等,0,2024-01-18,2024-01-18,ユタカ不動産株式会社,,株式会社,和歌山県,和歌山市,新通２丁目１３番地,,30,201,6408111,,,2024-01-18,登記官による閉鎖,,,2015-10-05,1,,,,,,0
1256,4170001010606,登記記録の閉鎖等,0,2024-01-18,2024-01-18,オーキワ都市開発株式会社,,株式会社,和歌山県,橋本市,向副１０１１番地,,30,203,6480025,,,2024-01-18,登記官による閉鎖,,,2015-10-05,1,,,,,,0
1258,4170002003047,登記記録の閉鎖等,0,2024-01-18,2024-01-18,有限会社羽山組,,有限会社,和歌山県,和歌山市,園部６９２番地,,30,201,6408483,,,2024-01-18,登記官による閉鎖,,,2015-10-05,1,,,,,,0
1259,4170005002005,登記記録の閉鎖等,0,2024-01-18,2024-01-18,社団法人海南地域労働者福祉センター,,その他の設立登記法人,和歌山県,海南市,築地１番５９,,30,202,6420031,,,2024-01-18,登記官による閉鎖,,,2015-10-05,1,,,,,,0
1261,4180001051698,登記記録の閉鎖等,0,2024-01-18,2024-01-11,株式会社天昇堂,,株式会社,愛知県,名古屋市北区,柳原２丁目５番３号－１,,23,103,4620845,,,2024-01-11,清算の結了等,,,2015-10-05,1,,,,,テンショウドウ,0
1274,4190001014308,登記記録の閉鎖等,0,2024-01-18,2024-01-16,株式会社伊藤工業,,株式会社,三重県,四日市市,広永町字川原１３８５番地の１,,24,202,5128061,,,2024-01-16,清算の結了等,,,2015-10-05,1,,,,,イトウコウギョウ,0
1286,4230005002007,登記記録の閉鎖等,0,2024-01-18,2024-01-18,社団法人富山県宅地建物取引員会,,その他の設立登記法人,富山県,富山市,白銀町５番１号,,16,201,9300048,,,2024-01-18,登記官による閉鎖,,,2015-10-05,1,,,,,,0
1287,4230005005273,登記記録の閉鎖等,0,2024-01-18,2024-01-18,財団法人井波奬學會,,その他の設立登記法人,富山県,南砺市,北川１７８６番地,,16,210,9320226,,,2024-01-18,登記官による閉鎖,,,2015-10-05,1,,,,,,0
1288,4230005005835,登記記録の閉鎖等,0,2024-01-18,2024-01-18,財団法人末広文化センター,,その他の設立登記法人,富山県,高岡市,末広町４１番地,,16,202,9330023,,,2024-01-18,登記官による閉鎖,,,2015-10-05,1,,,,,,0
1289,4230005006635,登記記録の閉鎖等,0,2024-01-18,2024-01-18,社団法人富山県農村医学研究会,,その他の設立登記法人,富山県,高岡市,永楽町５番１０号,,16,202,9330843,,,2024-01-18,登記官による閉鎖,,,2015-10-05,1,,,,,,0
1297,4260002021469,登記記録の閉鎖等,0,2024-01-18,2024-01-17,株式会社緑十字,,株式会社,岡山県,倉敷市,児島下の町６丁目１１番４１号,,33,202,7110906,,,2024-01-17,清算の結了等,,,2015-10-05,1,,,,,ミドリジュウジ,0
1301,4280003000346,登記記録の閉鎖等,0,2024-01-18,2024-01-18,合同会社出雲産機,,合同会社,島根県,出雲市,西平田町３９番地１,,32,203,6910002,,,2024-01-18,清算の結了等,,,2015-10-05,1,,,,,イズモサンキ,0
1307,4290001080546,登記記録の閉鎖等,0,2024-01-18,2024-01-16,株式会社ｒｅ．ｍｏｖｅ,,株式会社,福岡県,福岡市博多区,博多駅東１丁目１９番１６号福岡真和ビル５階,,40,132,8120013,,,2024-01-16,清算の結了等,,,2018-02-15,1,,,,,,0
1335,4360002021715,登記記録の閉鎖等,0,2024-01-18,2024-01-10,オーシャンカンパニー有限会社,,有限会社,沖縄県,石垣市,字新川１１４５番地の５７,,47,207,9070024,,,2024-01-10,合併による解散等,7360001013041,令和６年１月１日沖縄県石垣市字新川１１４５番地５７株式会社石垣の塩（7360001013041）に合併し解散,2015-10-05,1,,,,,オーシャンカンパニー,0
1349,4430002024347,登記記録の閉鎖等,0,2024-01-18,2024-01-11,北海冷暖有限会社,,有限会社,北海道,札幌市北区,新琴似十条１３丁目１番１１号,,01,102,0010910,,,2024-01-11,清算の結了等,,,2015-10-05,1,,,,,ホッカイレイダン,0
1354,4450002011632,登記記録の閉鎖等,0,2024-01-18,2024-01-18,有限会社小向組,,有限会社,北海道,利尻郡利尻富士町,鴛泊字栄町９３番地７,,01,519,0970101,,,2024-01-18,登記官による閉鎖,,,2015-10-05,1,,,,,,0
1355,4450002012829,登記記録の閉鎖等,0,2024-01-18,2024-01-18,紋別きのこ有限会社,,有限会社,北海道,紋別市,渚滑町元新２丁目１５８番地の１１,,01,219,0995172,,,2024-01-18,登記官による閉鎖,,,2015-10-05,1,,,,,,0
1356,4450005001787,登記記録の閉鎖等,0,2024-01-18,2024-01-18,特定非営利活動法人旭川まちづくりボランティアセンター,,その他の設立登記法人,北海道,旭川市,二条通８丁目２１１２番地２条ビル６階,,01,204,0700032,,,2024-01-18,登記官による閉鎖,,,2015-10-05,1,,,,,,0
1357,4460002005724,登記記録の閉鎖等,0,2024-01-18,2024-01-18,有限会社丸の野田豆富店,,有限会社,北海道,川上郡弟子屈町,中央３丁目２番１５号,,01,665,0883211,,,2024-01-18,登記官による閉鎖,,,2019-01-04,1,,,,,マルノノダトウフテン,0
1358,4460102002357,登記記録の閉鎖等,0,2024-01-18,2024-01-18,有限会社道東防災センター,,有限会社,北海道,帯広市,東十一条南８丁目１番地,,01,207,0800811,,,2024-01-18,登記官による閉鎖,,,2015-10-05,1,,,,,,0
1359,4460105000250,登記記録の閉鎖等,0,2024-01-18,2024-01-18,幕別建設勤労者企業組合,,その他の設立登記法人,北海道,中川郡幕別町,緑町５８番地,,01,643,0890614,,,2024-01-18,登記官による閉鎖,,,2015-10-05,1,,,,,,0
1360,4460105001892,登記記録の閉鎖等,0,2024-01-18,2024-01-18,一般社団法人帯広一般廃棄物協会,,その他の設立登記法人,北海道,帯広市,西二十条南１丁目１４番地,,01,207,0802470,,,2024-01-18,登記官による閉鎖,,,2015-10-05,1,,,,,,0
1361,4460301004113,登記記録の閉鎖等,0,2024-01-18,2024-01-18,株式会社栽和産業,,株式会社,北海道,北見市,北上７０５番地４,,01,208,0991583,,,2024-01-18,登記官による閉鎖,,,2015-10-05,1,,,,,,0
1373,5010001013235,登記記録の閉鎖等,0,2024-01-18,2024-01-12,株式会社オサム・インテリア,,株式会社,東京都,千代田区,外神田３丁目６番５号外神田永谷タウンプラザ３０１号,,13,101,1010021,,,2024-01-12,清算の結了等,,,2015-10-05,1,,,,,オサムインテリア,0
1379,5010001212729,登記記録の閉鎖等,0,2024-01-18,2024-01-12,株式会社ＲｅＰｈａｒｍａｃｙ,,株式会社,東京都,千代田区,四番町６番,,13,101,1020081,,,2024-01-12,合併による解散等,8010001208856,令和６年１月１日東京都千代田区四番町６番株式会社リテイギ（8010001208856）に合併し解散,2020-10-08,1,,,,,リファーマシー,0
1386,5010003041597,登記記録の閉鎖等,0,2024-01-18,2024-01-10,メミル合同会社,,合同会社,東京都,千代田区,神田三崎町２丁目１０－１１Ｐｅｇビル３Ａ－５,,13,101,1010061,,,2024-01-10,清算の結了等,,,2023-09-06,1,,,,,メミル,0
1399,5010403023484,登記記録の閉鎖等,0,2024-01-18,2024-01-09,合同会社メディカル１号,,合同会社,東京都,港区,浜松町２丁目２番１５号,,13,103,1050013,,,2024-01-09,清算の結了等,,,2020-08-12,1,,,,,メディカルイチゴウ,0
1402,5010405015439,登記記録の閉鎖等,0,2024-01-18,2024-01-09,一般社団法人ＳＨ００９,,その他の設立登記法人,東京都,港区,虎ノ門３丁目２２番１０－２０１号,,13,103,1050001,,,2024-01-09,清算の結了等,,,2017-01-24,1,,,,,エスエイチゼロゼロナイン,0
1428,5011601002552,登記記録の閉鎖等,0,2024-01-18,2024-01-15,株式会社坂口解体工業,,株式会社,東京都,練馬区,羽沢１丁目６番８号,,13,120,1760003,,,2024-01-15,清算の結了等,,,2015-10-05,1,,,,,サカグチカイタイコウギョウ,0
1429,5011601007048,登記記録の閉鎖等,0,2024-01-18,2024-01-15,株式会社山城屋,,株式会社,東京都,練馬区,関町北１丁目２１番７号,,13,120,1770051,,,2024-01-15,清算の結了等,,,2015-10-05,1,,,,,ヤマシロヤ,0
1431,5011801009257,登記記録の閉鎖等,0,2024-01-18,2024-01-15,株式会社ダイイチ,,株式会社,東京都,足立区,東綾瀬２丁目１１番１２号,,13,121,1200004,,,2024-01-15,清算の結了等,,,2015-10-05,1,,,,,ダイイチ,0
1436,5013101001381,登記記録の閉鎖等,0,2024-01-18,2024-01-10,株式会社スガワラ,,株式会社,東京都,西多摩郡瑞穂町,箱根ケ崎東松原８番地１３,,13,303,1901222,,,2024-01-10,登記官による閉鎖,,,2015-10-05,1,,,,,,0
1437,5013105000330,登記記録の閉鎖等,0,2024-01-18,2024-01-10,特定非営利活動法人グリーンアンドクリーン,,その他の設立登記法人,東京都,福生市,武蔵野台１丁目２４番９号ラミアール福生６０７号,,13,218,1970013,,,2024-01-10,登記官による閉鎖,,,2015-10-05,1,,,,,,0
1440,5020001000728,登記記録の閉鎖等,0,2024-01-18,2024-01-10,株式会社信弘産業,,株式会社,神奈川県,横浜市泉区,下飯田町９７５番地,,14,116,2450017,,,2024-01-10,清算の結了等,,,2015-10-05,1,,,,,シンコウサンギョウ,0
1457,5021002026919,登記記録の閉鎖等,0,2024-01-18,2024-01-15,有限会社雅防水,,有限会社,神奈川県,相模原市緑区,田名２５９８番地２３,,14,151,2520124,,,2024-01-15,清算の結了等,,,2015-10-05,1,,,,,ミヤビボウスイ,0
1470,5040001064300,登記記録の閉鎖等,0,2024-01-18,2024-01-15,成光パック株式会社,,株式会社,千葉県,香取市,高萩９３９番地１,,12,236,2870101,,,2024-01-15,合併による解散等,5011301003719,令和６年１月１日東京都杉並区堀ノ内一丁目７番２３号成光産業株式会社（5011301003719）に合併し解散,2015-10-05,1,,,,,セイコウパック,0
1472,5040001114022,登記記録の閉鎖等,0,2024-01-18,2024-01-05,Ｍ＆Ｅ株式会社,,株式会社,千葉県,市川市,塩浜４丁目２番１０棟３０６号,,12,203,2720127,,,2024-01-05,清算の結了等,,,2020-06-18,1,,,,,エムアンドイー,0
1488,5080401004769,登記記録の閉鎖等,0,2024-01-18,2024-01-11,株式会社プロフィールド,,株式会社,静岡県,浜松市中央区,東若林町１２７３番地,,22,138,4328052,,,2024-01-11,清算の結了等,,,2015-10-05,1,,,,,プロフィールド,0
1507,5120101003050,登記記録の閉鎖等,0,2024-01-18,2024-01-18,株式会社ジーエムエンジニアリング,,株式会社,大阪府,堺市堺区,海山町２丁１２７番地１,,27,141,5900982,,,2024-01-18,登記官による閉鎖,,,2015-10-05,1,,,,,,0
1508,5120101007885,登記記録の閉鎖等,0,2024-01-18,2024-01-18,株式会社レーベン,,株式会社,大阪府,堺市西区,浜寺石津町東３丁１２番２１号,,27,144,5928335,,,2024-01-18,登記官による閉鎖,,,2015-10-05,1,,,,,,0
1509,5120101021639,登記記録の閉鎖等,0,2024-01-18,2024-01-16,株式会社テレコムミハラ,,株式会社,大阪府,堺市美原区,真福寺１４３番地の４,,27,147,5870013,,,2024-01-16,清算の結了等,,,2015-10-05,1,,,,,テレコムミハラ,0
1510,5120101025887,登記記録の閉鎖等,0,2024-01-18,2024-01-18,吉田建行株式会社,00032304,株式会社,大阪府,松原市,三宅西２丁目２１番１４号,,27,217,5800045,,,2024-01-18,登記官による閉鎖,,,2015-10-05,1,,,,,,0
1511,5120101026951,登記記録の閉鎖等,0,2024-01-18,2024-01-18,株式会社アイルック,,株式会社,大阪府,松原市,天美東７丁目７番７号,,27,217,5800032,,,2024-01-18,登記官による閉鎖,,,2015-10-05,1,,,,,,0
1512,5120101038690,登記記録の閉鎖等,0,2024-01-18,2024-01-18,株式会社堀野鶏卵,,株式会社,大阪府,岸和田市,西之内町６７番１号,,27,202,5960044,,,2024-01-18,登記官による閉鎖,,,2018-08-10,1,,,,,ホリノケイラン,0
1513,5120101040606,登記記録の閉鎖等,0,2024-01-18,2024-01-18,吉善商事株式会社,,株式会社,大阪府,泉佐野市,高松北１丁目４番１３号,,27,213,5980011,,,2024-01-18,登記官による閉鎖,,,2016-08-16,1,,,,,,0
1518,5120102000377,登記記録の閉鎖等,0,2024-01-18,2024-01-18,有限会社イールド・山口,,有限会社,大阪府,堺市東区,日置荘西町１丁４８番１６号,,27,143,5998114,,,2024-01-18,登記官による閉鎖,,,2015-10-05,1,,,,,,0
1519,5120102004477,登記記録の閉鎖等,0,2024-01-18,2024-01-18,有限会社松野製作所,,有限会社,大阪府,堺市堺区,南庄町１丁４番１６号,,27,141,5900008,,,2024-01-18,登記官による閉鎖,,,2015-10-05,1,,,,,,0
1520,5120102010938,登記記録の閉鎖等,0,2024-01-18,2024-01-18,有限会社千寿興産,,有限会社,大阪府,高石市,高師浜４丁目２番１２号,,27,225,5920004,,,2024-01-18,登記官による閉鎖,,,2015-10-05,1,,,,,,0
1521,5120102011093,登記記録の閉鎖等,0,2024-01-18,2024-01-18,有限会社荒井工業,,有限会社,大阪府,堺市中区,深井北町１６４番地の１３,,27,142,5998271,,,2024-01-18,登記官による閉鎖,,,2015-10-05,1,,,,,アライコウギョウ,0
1522,5120102013684,登記記録の閉鎖等,0,2024-01-18,2024-01-18,有限会社学友林,,有限会社,大阪府,堺市北区,北花田町１丁５－１,,27,146,5918002,,,2024-01-18,登記官による閉鎖,,,2015-10-05,1,,,,,,0
1523,5120102018683,登記記録の閉鎖等,0,2024-01-18,2024-01-18,有限会社大栄工業,,有限会社,大阪府,藤井寺市,青山２丁目７番７号,,27,226,5830015,,,2024-01-18,登記官による閉鎖,,,2015-10-05,1,,,,,,0
1526,5120105003963,登記記録の閉鎖等,0,2024-01-18,2024-01-18,特定非営利活動法人ひかり,,その他の設立登記法人,大阪府,堺市北区,新金岡町５丁４番５９号,,27,146,5918021,,,2024-01-18,登記官による閉鎖,,,2015-10-05,1,,,,,,0
1527,5120105005340,登記記録の閉鎖等,0,2024-01-18,2024-01-18,特定非営利活動法人シェイクハンズ,,その他の設立登記法人,大阪府,富田林市,中野町３丁目４番３１号,,27,214,5840021,,,2024-01-18,登記官による閉鎖,,,2015-10-05,1,,,,,,0
1529,5120901002813,登記記録の閉鎖等,0,2024-01-18,2024-01-18,株式会社共栄不動産鑑定所,,株式会社,大阪府,吹田市,山田東３丁目２３番１－５１０号,,27,205,5650821,,,2024-01-18,登記官による閉鎖,,,2015-10-05,1,,,,,キョウエイフドウサンカンテイショ,0
1530,5120901005568,登記記録の閉鎖等,0,2024-01-18,2024-01-18,株式会社エクセレンティア,,株式会社,大阪府,吹田市,藤白台４丁目３４番１号,,27,205,5650873,,,2024-01-18,登記官による閉鎖,,,2015-10-05,1,,,,,,0
1531,5120901009973,登記記録の閉鎖等,0,2024-01-18,2024-01-18,株式会社ブロスト,,株式会社,大阪府,摂津市,東別府２丁目１３番２４号,,27,224,5660042,,,2024-01-18,登記官による閉鎖,,,2015-10-05,1,,,,,,0
1532,5120901011079,登記記録の閉鎖等,0,2024-01-18,2024-01-18,新日本技建株式会社,,株式会社,大阪府,高槻市,登町１２番Ａ３－２０１号,,27,207,5690046,,,2024-01-18,登記官による閉鎖,,,2015-10-05,1,,,,,,0
1533,5120901014197,登記記録の閉鎖等,0,2024-01-18,2024-01-18,株式会社イノウエ工務店,,株式会社,大阪府,高槻市,大字原１２０３番地の１０,,27,207,5691051,,,2024-01-18,登記官による閉鎖,,,2015-10-05,1,,,,,,0
1534,5120901022811,登記記録の閉鎖等,0,2024-01-18,2024-01-18,株式会社和泉屋,,株式会社,大阪府,豊中市,庄内西町２丁目３番２号,,27,203,5610832,,,2024-01-18,登記官による閉鎖,,,2015-10-05,1,,,,,,0
1536,5120902014205,登記記録の閉鎖等,0,2024-01-18,2024-01-18,有限会社マスダ産業,,有限会社,大阪府,茨木市,南春日丘２丁目２番５号,,27,211,5670046,,,2024-01-18,登記官による閉鎖,,,2015-10-05,1,,,,,,0
1537,5120902014691,登記記録の閉鎖等,0,2024-01-18,2024-01-18,有限会社ニシムラ企画,,有限会社,大阪府,池田市,城南３丁目１番１１号,,27,204,5630025,,,2024-01-18,登記官による閉鎖,,,2015-10-05,1,,,,,,0
1539,5120903000716,登記記録の閉鎖等,0,2024-01-18,2024-01-18,合同会社生コン協同,,合同会社,大阪府,高槻市,大字成合１３３番地の４,,27,207,5691012,,,2024-01-18,登記官による閉鎖,,,2015-10-05,1,,,,,,0
1540,5120905001209,登記記録の閉鎖等,0,2024-01-18,2024-01-18,長谷農業協同組合,,その他の設立登記法人,大阪府,茨木市,大字長谷１１０番地ノ２,,27,211,5680088,,,2024-01-18,登記官による閉鎖,,,2015-10-05,1,,,,,,0
1541,5122001008393,登記記録の閉鎖等,0,2024-01-18,2024-01-18,大阪製紐株式会社,,株式会社,大阪府,東大阪市,瓢箪山町２番８号,,27,227,5798051,,,2024-01-18,登記官による閉鎖,,,2018-08-10,1,,,,,,0
1542,5122001024572,登記記録の閉鎖等,0,2024-01-18,2024-01-18,個別指導リアル株式会社,,株式会社,大阪府,八尾市,老原３丁目４９番地,,27,212,5810092,,,2024-01-18,登記官による閉鎖,,,2015-10-05,1,,,,,,0
1543,5122002005407,登記記録の閉鎖等,0,2024-01-18,2024-01-18,有限会社吉留電機,,有限会社,大阪府,東大阪市,加納８丁目１７番２２号,,27,227,5780901,,,2024-01-18,登記官による閉鎖,,,2015-10-05,1,,,,,,0
1544,5122002016750,登記記録の閉鎖等,0,2024-01-18,2024-01-18,有限会社カミナール,,有限会社,大阪府,八尾市,堤町３丁目５１番地の２１,,27,212,5810832,,,2024-01-18,登記官による閉鎖,,,2015-10-05,1,,,,,,0
1553,5140001051354,登記記録の閉鎖等,0,2024-01-18,2024-01-10,株式会社マリン,,株式会社,兵庫県,尼崎市,大庄西町３丁目１１番６号,,28,202,6600077,,,2024-01-10,清算の結了等,,,2015-10-05,1,,,,,マリン,0
1563,5160001015134,登記記録の閉鎖等,0,2024-01-18,2024-01-18,株式会社桜花,,株式会社,滋賀県,東近江市,御園町５４３番地１,,25,213,5270056,,,2024-01-18,登記官による閉鎖,,,2015-10-05,1,,,,,,0
1564,5160002004879,登記記録の閉鎖等,0,2024-01-18,2024-01-18,有限会社森常商店,,有限会社,滋賀県,大津市,大江２丁目３０番４号,,25,201,5202141,,,2024-01-18,登記官による閉鎖,,,2015-10-05,1,,,,,,0
1565,5160002009498,登記記録の閉鎖等,0,2024-01-18,2024-01-18,有限会社木村産業,,有限会社,滋賀県,蒲生郡日野町,大字村井１３７４番地,,25,383,5291604,,,2024-01-18,登記官による閉鎖,,,2015-10-05,1,,,,,,0
1566,5160005003275,登記記録の閉鎖等,0,2024-01-18,2024-01-18,財団法人大谷派長濱別院維持會,,その他の設立登記法人,滋賀県,長浜市,大字御堂前３２番地,,25,203,5260000,,,2024-01-18,登記官による閉鎖,,,2015-10-05,1,,,,,,0
1567,5160005006807,登記記録の閉鎖等,0,2024-01-18,2024-01-18,大林農業協同組合,,その他の設立登記法人,滋賀県,近江八幡市,出町１５番地,,25,204,5230892,,,2024-01-18,登記官による閉鎖,,,2015-10-05,1,,,,,,0
1568,5160005007986,登記記録の閉鎖等,0,2024-01-18,2024-01-18,特定非営利活動法人滋賀・高島元氣プロジェクト,,その他の設立登記法人,滋賀県,高島市,安曇川町中央４丁目７番地３０,,25,212,5201216,,,2024-01-18,登記官による閉鎖,,,2015-10-05,1,,,,,,0
1569,5160005008654,登記記録の閉鎖等,0,2024-01-18,2024-01-18,財団法人教育研修事業財団,,その他の設立登記法人,滋賀県,草津市,大路１丁目１６番４号,,25,206,5250032,,,2024-01-18,登記官による閉鎖,,,2015-10-05,1,,,,,,0
1573,5170002009027,登記記録の閉鎖等,0,2024-01-18,2024-01-18,有限会社福助堂,,有限会社,和歌山県,田辺市,稲成町４３３番地の８,,30,206,6460051,,,2024-01-18,登記官による閉鎖,,,2015-10-05,1,,,,,,0
1574,5170005001492,登記記録の閉鎖等,0,2024-01-18,2024-01-18,和歌山再資源化事業協同組合,,その他の設立登記法人,和歌山県,和歌山市,吹上３丁目４番１５号,,30,201,6408137,,,2024-01-18,登記官による閉鎖,,,2015-10-05,1,,,,,,0
1575,5170005001906,登記記録の閉鎖等,0,2024-01-18,2024-01-18,大日寺,,その他の設立登記法人,和歌山県,海南市,原野４７５番地,,30,202,6400442,,,2024-01-18,登記官による閉鎖,,,2015-10-05,1,,,,,,0
1576,5170005003183,登記記録の閉鎖等,0,2024-01-18,2024-01-18,農事組合法人グリーン葛城,,その他の設立登記法人,和歌山県,紀の川市,名手市場１０１番地,,30,208,6496631,,,2024-01-18,登記官による閉鎖,,,2015-10-05,1,,,,,,0
1602,5230001000483,登記記録の閉鎖等,0,2024-01-18,2024-01-18,株式会社オート興産富山,,株式会社,富山県,富山市,新庄町４丁目２番５号,,16,201,9300992,,,2024-01-18,登記官による閉鎖,,,2015-10-05,1,,,,,オートコウサントヤマ,0
1603,5230001011183,登記記録の閉鎖等,0,2024-01-18,2024-01-18,株式会社ワシエステート,,株式会社,富山県,高岡市,荻布５００番地,,16,202,9330073,,,2024-01-18,登記官による閉鎖,,,2015-10-05,1,,,,,,0
1604,5230002008344,登記記録の閉鎖等,0,2024-01-18,2024-01-18,有限会社東光印刷,,有限会社,富山県,下新川郡入善町,入膳５２２３番地の甲,,16,342,9390626,,,2024-01-18,登記官による閉鎖,,,2015-10-05,1,,,,,,0
1605,5230005000199,登記記録の閉鎖等,0,2024-01-18,2024-01-18,財団法人富山県練成舘,,その他の設立登記法人,富山県,富山市,清水町１丁目５番１７号,,16,201,9300036,,,2024-01-18,登記官による閉鎖,,,2015-10-05,1,,,,,,0
1606,5230005001263,登記記録の閉鎖等,0,2024-01-18,2024-01-18,誓乘寺,,その他の設立登記法人,富山県,富山市,草島５８８番地,,16,201,9302201,,,2024-01-18,登記官による閉鎖,,,2015-10-05,1,,,,,,0
1635,5360003001021,登記記録の閉鎖等,0,2024-01-18,2024-01-15,合資会社並里商亊,,合資会社,沖縄県,那覇市,牧志３丁目１番３号,,47,201,9000013,,,2024-01-15,清算の結了等,,,2015-10-05,1,,,,,ナミサトショウジ,0
1651,5450001001294,登記記録の閉鎖等,0,2024-01-18,2024-01-18,株式会社三高商事,00090572,株式会社,北海道,旭川市,豊岡七条６丁目４番９号,,01,204,0788237,,,2024-01-18,登記官による閉鎖,,,2015-10-05,1,,,,,,0
1652,5450002001137,登記記録の閉鎖等,0,2024-01-18,2024-01-18,有限会社オオタニオート,,有限会社,北海道,旭川市,東旭川町共栄１９２番地,,01,204,0788340,,,2024-01-18,登記官による閉鎖,,,2015-10-05,1,,,,,,0
1653,5450002002952,登記記録の閉鎖等,0,2024-01-18,2024-01-18,有限会社セラフ,,有限会社,北海道,旭川市,緑が丘東二条４丁目６番７－２３号,,01,204,0788802,,,2024-01-18,登記官による閉鎖,,,2015-10-05,1,,,,,,0
1654,5450002010666,登記記録の閉鎖等,0,2024-01-18,2024-01-18,有限会社サニードライ・クリーニング,,有限会社,北海道,枝幸郡枝幸町,南浜町１３４５番地５０,,01,514,0985804,,,2024-01-18,登記官による閉鎖,,,2015-10-05,1,,,,,,0
1655,5450002013181,登記記録の閉鎖等,0,2024-01-18,2024-01-18,有限会社岡観光,,有限会社,北海道,名寄市,西二条南８丁目２番地,,01,221,0960012,,,2024-01-18,登記官による閉鎖,,,2018-10-03,1,,,,,オカカンコウ,0
1656,5450005002116,登記記録の閉鎖等,0,2024-01-18,2024-01-18,富良野沿線建設一般労働者企業組合,,その他の設立登記法人,北海道,富良野市,字南扇山の１,,01,229,0760002,,,2024-01-18,登記官による閉鎖,,,2015-10-05,1,,,,,,0
1657,5460101003628,登記記録の閉鎖等,0,2024-01-18,2024-01-18,鈴木建設工業株式会社,,株式会社,北海道,中川郡池田町,字旭町２丁目１２番地の３,,01,644,0830001,,,2024-01-18,登記官による閉鎖,,,2015-10-05,1,,,,,,0
1659,5460102007470,登記記録の閉鎖等,0,2024-01-18,2024-01-18,有限会社アルフア工房,,有限会社,北海道,帯広市,東十四条南４丁目１番地１３６,,01,207,0800814,,,2024-01-18,登記官による閉鎖,,,2015-10-05,1,,,,,,0
1676,6010003016648,登記記録の閉鎖等,0,2024-01-18,2024-01-10,株式会社三八七,,株式会社,東京都,中央区,銀座７丁目１５番８号,,13,102,1040061,,,2024-01-10,清算の結了等,,,2015-10-05,1,,,,,ミハナ,0
1677,6010003027901,登記記録の閉鎖等,0,2024-01-18,2023-12-27,ルミノソジャパン合同会社,,合同会社,東京都,千代田区,大手町１丁目９番２号大手町フィナンシャルシティグランキューブ３階,,13,101,1000004,,,2023-12-27,清算の結了等,,,2018-07-23,1,,,,,ルミノソジャパン,0
1679,6010005017413,登記記録の閉鎖等,0,2024-01-18,2024-01-17,ＮＰＯ法人パオッコ,,その他の設立登記法人,東京都,文京区,本郷３丁目４－３ヒルズ８８４お茶ノ水ビル５ＦＣＯｆｆｃｅ御茶ノ水,,13,105,1130033,,,2024-01-17,清算の結了等,,,2015-10-05,1,,,,,パオッコ,0
1682,6010401103618,登記記録の閉鎖等,0,2024-01-18,2024-01-10,株式会社ＨＥＡＲＴＳ,,株式会社,埼玉県,さいたま市北区,吉野町１丁目３９０－９,,11,102,3310811,,,2024-01-10,清算の結了等,,,2015-10-05,1,,,,,ハーツ,0
1683,6010401106034,登記記録の閉鎖等,0,2024-01-18,2024-01-12,株式会社アキバデバイス,,株式会社,東京都,中央区,築地２丁目１番１７号,,13,102,1040045,,,2024-01-12,合併による解散等,4010001170845,令和６年１月１日東京都中央区築地二丁目１番１７号株式会社アドテック（4010001170845）に合併し解散,2015-10-05,1,,,,,アキバデバイス,0
1688,6010401158422,登記記録の閉鎖等,0,2024-01-18,2024-01-05,株式会社ＰｓＥｃｏ,,株式会社,東京都,港区,虎ノ門３丁目７番１０号ランディック虎ノ門ビル,,13,103,1050001,,,2024-01-05,合併による解散等,6010401046809,令和６年１月１日東京都港区虎ノ門三丁目７番１０号ランディック虎ノ門ビルパイオニアエコサイエンス株式会社（6010401046809）に合併し解散,2021-03-09,1,,,,,ピイエスエコ,0
1700,6010801025833,登記記録の閉鎖等,0,2024-01-18,2024-01-11,株式会社サンテックホールディングス,,株式会社,東京都,大田区,矢口２丁目４番１９号,,13,111,1460093,,,2024-01-11,合併による解散等,2010801004717,令和６年１月１日東京都大田区矢口二丁目４番１９号株式会社サンテックシステム（2010801004717）に合併し解散,2015-10-05,1,,,,,サンテックホールディングス,0
1706,6010905003636,登記記録の閉鎖等,0,2024-01-18,2024-01-10,一般社団法人ニューボーンフォト協会,,その他の設立登記法人,香川県,高松市,国分寺町新居３７０４番地２４,,37,201,7690101,,,2024-01-10,清算の結了等,,,2018-08-17,1,,,,,ニューボーンフォトキョウカイ,0
1726,6011501027442,登記記録の閉鎖等,0,2024-01-18,2023-12-26,珂王株式会社,,株式会社,東京都,荒川区,西尾久７丁目１３番２号,,13,118,1160011,,,2023-12-26,清算の結了等,,,2021-11-02,1,,,,,カオウ,0
1732,6011802000206,登記記録の閉鎖等,0,2024-01-18,2024-01-15,有限会社秋田興業,,有限会社,東京都,葛飾区,西新小岩５丁目４番６号,,13,122,1240025,,,2024-01-15,清算の結了等,,,2015-10-05,1,,,,,,0
1736,6012402001973,登記記録の閉鎖等,0,2024-01-18,2024-01-10,有限会社中園測量,,有限会社,東京都,府中市,白糸台６丁目２１番地の２,,13,206,1830011,,,2024-01-10,清算の結了等,,,2015-10-05,1,,,,,ナカゾノソクリョウ,0
1738,6012701016202,登記記録の閉鎖等,0,2024-01-18,2024-01-15,株式会社ＮＣＫ,,株式会社,東京都,東村山市,廻田町３丁目７番地１シャルムコート東村山３０５,,13,213,1890025,,,2024-01-15,清算の結了等,,,2020-12-07,1,,,,,エヌシーケー,0
1740,6013102007996,登記記録の閉鎖等,0,2024-01-18,2024-01-10,有限会社新幸企画,,有限会社,東京都,青梅市,新町８丁目２２番地の５サンクレイドル青梅新町１００１,,13,205,1980024,,,2024-01-10,登記官による閉鎖,,,2015-10-05,1,,,,,,0
1743,6013201007633,登記記録の閉鎖等,0,2024-01-18,2024-01-12,エルエムティアソシエイツ株式会社,,株式会社,神奈川県,川崎市高津区,末長１丁目４５番１号,,14,134,2130013,,,2024-01-12,清算の結了等,,,2015-10-05,1,,,,,エルエムティアソシエイツ,0
1746,6013301046556,登記記録の閉鎖等,0,2024-01-18,2024-01-10,株式会社アールストアＣＲ,,株式会社,東京都,豊島区,東池袋１丁目７番５号池袋イースタンビル９階,,13,116,1700013,,,2024-01-10,清算の結了等,,,2020-11-25,1,,,,,アールストアシーアール,0
1758,6021001048343,登記記録の閉鎖等,0,2024-01-18,2024-01-15,株式会社Ｊ－サーキットエイジング研究所,,株式会社,神奈川県,平塚市,八重咲町２５－２,,14,203,2540811,,,2024-01-15,清算の結了等,,,2015-10-05,1,,,,,ジェイサーキットエイジングケンキュウショ,0
1765,6030001134953,登記記録の閉鎖等,0,2024-01-18,2024-01-09,株式会社ＨＡＫＧＳ,,株式会社,埼玉県,吉川市,中野１０７番地１,,11,243,3420042,,,2024-01-09,清算の結了等,,,2020-01-31,1,,,,,ハグス,0
1770,6030002051792,登記記録の閉鎖等,0,2024-01-18,2023-12-25,有限会社アローフィールド,,有限会社,埼玉県,三郷市,彦成１丁目１１２番６,,11,237,3410003,,,2023-12-25,清算の結了等,,,2015-10-05,1,,,,,アローフィールド,0
1771,6040001004866,登記記録の閉鎖等,0,2024-01-18,2024-01-05,株式会社千葉ボイラ,,株式会社,千葉県,千葉市中央区,鶴沢町１１番１１号,,12,101,2600003,,,2024-01-05,清算の結了等,,,2015-10-05,1,,,,,チバボイラ,0
1792,6080102019850,登記記録の閉鎖等,0,2024-01-18,2024-01-12,有限会社サム・コーポレーション,,有限会社,静岡県,伊東市,川奈１２５７番地の２４９,,22,208,4140044,,,2024-01-12,清算の結了等,,,2015-10-05,1,,,,,サムコーポレーション,0
1798,6090001011874,登記記録の閉鎖等,0,2024-01-18,2024-01-15,株式会社Ｍシステム,,株式会社,山梨県,北杜市,明野町上手５６０６番地８,,19,209,4080204,,,2024-01-15,清算の結了等,,,2015-10-05,1,,,,,エムシステム,0
1802,6110001015625,登記記録の閉鎖等,0,2024-01-18,2024-01-15,北日本物産株式会社,,株式会社,新潟県,燕市,物流センター２丁目３０番地,,15,213,9591277,,,2024-01-15,清算の結了等,,,2015-10-05,1,,,,,キタニホンブッサン,0
1807,6110005005457,登記記録の閉鎖等,0,2024-01-18,2024-01-15,特定非営利活動法人きいろいふうせん,,その他の設立登記法人,新潟県,新発田市,本町３丁目４番２６号,,15,206,9570054,,,2024-01-15,清算の結了等,,,2015-10-05,1,,,,,キイロイフウセン,0
1832,6120101002340,登記記録の閉鎖等,0,2024-01-18,2024-01-18,児山不動産株式会社,,株式会社,大阪府,堺市堺区,中瓦町２丁３番２号,,27,141,5900077,,,2024-01-18,登記官による閉鎖,,,2015-10-05,1,,,,,,0
1833,6120101008619,登記記録の閉鎖等,0,2024-01-18,2024-01-18,株式会社丸和,,株式会社,大阪府,堺市堺区,大浜南町１丁２番８号,,27,141,5900976,,,2024-01-18,登記官による閉鎖,,,2015-10-05,1,,,,,,0
1834,6120101024161,登記記録の閉鎖等,0,2024-01-18,2024-01-18,株式会社裕大,,株式会社,大阪府,堺市北区,野遠町１９１番地１－１０号,,27,146,5918013,,,2024-01-18,登記官による閉鎖,,,2015-10-05,1,,,,,,0
1835,6120101025143,登記記録の閉鎖等,0,2024-01-18,2024-01-18,株式会社久保商店,,株式会社,大阪府,松原市,天美北２丁目１９番５号,,27,217,5800031,,,2024-01-18,登記官による閉鎖,,,2015-10-05,1,,,,,,0
1836,6120101026975,登記記録の閉鎖等,0,2024-01-18,2024-01-18,撫順木材株式会社,,株式会社,大阪府,大阪狭山市,大野台４丁目６番８号,,27,231,5890023,,,2024-01-18,登記官による閉鎖,,,2015-10-05,1,,,,,,0
1837,6120101029243,登記記録の閉鎖等,0,2024-01-18,2024-01-18,株式会社ＫＫ商事,,株式会社,大阪府,堺市堺区,大仙西町５丁１３１番３号,,27,141,5900821,,,2024-01-18,登記官による閉鎖,,,2015-10-05,1,,,,,,0
1838,6120101035241,登記記録の閉鎖等,0,2024-01-18,2024-01-18,株式会社イマジン,,株式会社,大阪府,富田林市,北大伴町３丁目５番３５号,,27,214,5840042,,,2024-01-18,登記官による閉鎖,,,2015-10-05,1,,,,,,0
1839,6120101038236,登記記録の閉鎖等,0,2024-01-18,2024-01-18,大幸開発株式会社,,株式会社,大阪府,貝塚市,木積１９９８－３,,27,208,5970102,,,2024-01-18,登記官による閉鎖,,,2015-10-05,1,,,,,,0
1841,6120101049357,登記記録の閉鎖等,0,2024-01-18,2024-01-18,株式会社ビィージェイソリューション,,株式会社,大阪府,堺市中区,深井畑山町１１０番地４,,27,142,5998248,,,2024-01-18,登記官による閉鎖,,,2015-10-05,1,,,,,,0
1843,6120101058944,登記記録の閉鎖等,0,2024-01-18,2024-01-18,泉南商事株式会社,,株式会社,大阪府,泉南市,樽井９６２番地,,27,228,5900521,,,2024-01-18,登記官による閉鎖,,,2018-11-02,1,,,,,センナンショウジ,0
1846,6120102002067,登記記録の閉鎖等,0,2024-01-18,2024-01-18,有限会社サンガ電設工業,,有限会社,大阪府,堺市堺区,東雲西町１丁８番６２号,,27,141,5900013,,,2024-01-18,登記官による閉鎖,,,2015-10-05,1,,,,,,0
1847,6120102012322,登記記録の閉鎖等,0,2024-01-18,2024-01-18,有限会社コーワカンキョウ,,有限会社,大阪府,堺市美原区,南余部９４番地の８,,27,147,5870052,,,2024-01-18,登記官による閉鎖,,,2015-10-05,1,,,,,,0
1848,6120102015894,登記記録の閉鎖等,0,2024-01-18,2024-01-18,オフィスササキ有限会社,,有限会社,大阪府,大阪狭山市,東池尻２丁目１１７９番地の６,,27,231,5890004,,,2024-01-18,登記官による閉鎖,,,2015-10-05,1,,,,,,0
1849,6120102020770,登記記録の閉鎖等,0,2024-01-18,2024-01-18,有限会社ビアップ,,有限会社,大阪府,岸和田市,真上町３２５番地,,27,202,5960842,,,2024-01-18,登記官による閉鎖,,,2015-10-05,1,,,,,,0
1850,6120102026090,登記記録の閉鎖等,0,2024-01-18,2024-01-18,有限会社ラックせいわ,,有限会社,大阪府,泉大津市,森町１丁目１３番１０号,,27,206,5950005,,,2024-01-18,登記官による閉鎖,,,2015-10-05,1,,,,,,0
1852,6120105006791,登記記録の閉鎖等,0,2024-01-18,2024-01-18,阪和シヨッピングセンター協同組合,,その他の設立登記法人,大阪府,和泉市,府中町１丁目２３番２号,,27,219,5940071,,,2024-01-18,登記官による閉鎖,,,2015-10-05,1,,,,,,0
1854,6120901002812,登記記録の閉鎖等,0,2024-01-18,2024-01-18,イースト・ウエストユナイテッド株式会社,,株式会社,大阪府,吹田市,山田東３丁目２３番１－５１０号,,27,205,5650821,,,2024-01-18,登記官による閉鎖,,,2015-10-05,1,,,,,イーストウエストユナイテッド,0
1856,6120901017174,登記記録の閉鎖等,0,2024-01-18,2024-01-18,株式会社インターナショナル・コンシェルジュ,,株式会社,大阪府,吹田市,山手町３丁目１５番Ｂ－３１９号,,27,205,5640073,,,2024-01-18,登記官による閉鎖,,,2015-10-05,1,,,,,,0
1857,6120901020277,登記記録の閉鎖等,0,2024-01-18,2024-01-18,株式会社エリモニット,,株式会社,大阪府,箕面市,船場西２丁目２番１号,,27,220,5620036,,,2024-01-18,登記官による閉鎖,,,2015-10-05,1,,,,,エリモニット,0
1858,6120901025326,登記記録の閉鎖等,0,2024-01-18,2024-01-18,株式会社ビコー,,株式会社,大阪府,豊中市,西緑丘３丁目１１番５－３０３号,,27,203,5600005,,,2024-01-18,登記官による閉鎖,,,2015-10-05,1,,,,,,0
1859,6120901029970,登記記録の閉鎖等,0,2024-01-18,2024-01-18,株式会社宝塚庭工房,,株式会社,大阪府,豊中市,原田南２丁目９番１号,,27,203,5610805,,,2024-01-18,登記官による閉鎖,,,2015-10-05,1,,,,,,0
1860,6120902011028,登記記録の閉鎖等,0,2024-01-18,2024-01-18,有限会社原口金物店,,有限会社,大阪府,高槻市,唐崎北１丁目５番５号,,27,207,5690831,,,2024-01-18,登記官による閉鎖,,,2015-10-05,1,,,,,,0
1861,6120902014757,登記記録の閉鎖等,0,2024-01-18,2024-01-18,有限会社藤井製印,,有限会社,大阪府,池田市,城南１丁目２番２３号,,27,204,5630025,,,2024-01-18,登記官による閉鎖,,,2015-10-05,1,,,,,,0
1862,6120905001208,登記記録の閉鎖等,0,2024-01-18,2024-01-18,銭原農業協同組合,,その他の設立登記法人,大阪府,茨木市,大字銭原２７４番地,,27,211,5680087,,,2024-01-18,登記官による閉鎖,,,2015-10-05,1,,,,,,0
1863,6120905002511,登記記録の閉鎖等,0,2024-01-18,2024-01-18,特定非営利活動法人日本麻薬犬推進協会,,その他の設立登記法人,大阪府,吹田市,千里山西１丁目２３番１３号,,27,205,5650851,,,2024-01-18,登記官による閉鎖,,,2015-10-05,1,,,,,,0
1864,6122001025157,登記記録の閉鎖等,0,2024-01-18,2024-01-18,株式会社エヌ・エー,,株式会社,大阪府,東大阪市,花園東町２丁目６番３２号,,27,227,5780931,,,2024-01-18,登記官による閉鎖,,,2015-10-05,1,,,,,,0
1867,6122002001925,登記記録の閉鎖等,0,2024-01-18,2024-01-18,有限会社サン電機,,有限会社,大阪府,東大阪市,稲葉２丁目１番５号,,27,227,5780925,,,2024-01-18,登記官による閉鎖,,,2015-10-05,1,,,,,,0
1868,6122002004969,登記記録の閉鎖等,0,2024-01-18,2024-01-18,有限会社山岡工務店,,有限会社,大阪府,東大阪市,本庄１丁目１０番４１号,,27,227,5780953,,,2024-01-18,登記官による閉鎖,,,2015-10-05,1,,,,,,0
1869,6122002013714,登記記録の閉鎖等,0,2024-01-18,2024-01-18,有限会社こすみ,,有限会社,大阪府,八尾市,北本町２丁目２番,,27,212,5810802,,,2024-01-18,登記官による閉鎖,,,2015-10-05,1,,,,,,0
1870,6122002013912,登記記録の閉鎖等,0,2024-01-18,2024-01-18,有限会社しらはし製作所,,有限会社,大阪府,八尾市,山本町北８丁目９番地,,27,212,5810831,,,2024-01-18,登記官による閉鎖,,,2015-10-05,1,,,,,,0
1871,6122005000362,登記記録の閉鎖等,0,2024-01-18,2024-01-18,グリーンプラザ商業協同組合,,その他の設立登記法人,大阪府,東大阪市,太平寺２丁目２番１９号,,27,227,5770844,,,2024-01-18,登記官による閉鎖,,,2015-10-05,1,,,,,,0
1872,6122005001336,登記記録の閉鎖等,0,2024-01-18,2024-01-18,農事組合法人パブリックファーム,,その他の設立登記法人,大阪府,東大阪市,西鴻池町２丁目４番１８号,,27,227,5780976,,,2024-01-18,登記官による閉鎖,,,2015-10-05,1,,,,,,0
1875,6130001034870,登記記録の閉鎖等,0,2024-01-18,2023-12-21,株式会社カンバヤシ,,株式会社,京都府,南丹市,園部町小山西町柿ノ木谷６番地の２,,26,213,6220043,,,2023-12-21,清算の結了等,,,2015-10-05,1,,,,,カンバヤシ,0
1903,6160001003658,登記記録の閉鎖等,0,2024-01-18,2024-01-18,ビッグ研究所株式会社,,株式会社,滋賀県,大津市,南郷２丁目３６番６号,,25,201,5200865,,,2024-01-18,登記官による閉鎖,,,2015-10-05,1,,,,,,0
1904,6160002004226,登記記録の閉鎖等,0,2024-01-18,2024-01-18,有限会社ｍａｓｔｅｒ．Ｋ,,有限会社,滋賀県,大津市,大江２丁目１２番３０－３０１号,,25,201,5202141,,,2024-01-18,登記官による閉鎖,,,2015-10-05,1,,,,,,0
1905,6160002006156,登記記録の閉鎖等,0,2024-01-18,2024-01-18,有限会社桐生テック,,有限会社,滋賀県,湖南市,吉永１４５番地１０,,25,211,5203222,,,2024-01-18,登記官による閉鎖,,,2015-10-05,1,,,,,,0
1908,6160002013334,登記記録の閉鎖等,0,2024-01-18,2024-01-18,有限会社シンシン,,有限会社,滋賀県,草津市,新浜町２１番地の７,,25,206,5250067,,,2024-01-18,登記官による閉鎖,,,2015-10-05,1,,,,,,0
1910,6160005002441,登記記録の閉鎖等,0,2024-01-18,2024-01-18,社団法人滋賀県建設技術開発協会,,その他の設立登記法人,滋賀県,湖南市,菩提寺１５２１番地,,25,211,5203242,,,2024-01-18,登記官による閉鎖,,,2015-10-05,1,,,,,,0
1911,6170001010604,登記記録の閉鎖等,0,2024-01-18,2024-01-18,株式会社大畑トローザー,,株式会社,和歌山県,伊都郡九度山町,大字九度山１３６５番地,,30,343,6480101,,,2024-01-18,登記官による閉鎖,,,2015-10-05,1,,,,,,0
1912,6170001012336,登記記録の閉鎖等,0,2024-01-18,2024-01-18,株式会社カイナ,,株式会社,和歌山県,和歌山市,三木町南ノ丁５番地,,30,201,6408105,,,2024-01-18,登記官による閉鎖,,,2015-10-05,1,,,,,,0
1914,6170002003383,登記記録の閉鎖等,0,2024-01-18,2024-01-18,有限会社堀商店,,有限会社,和歌山県,和歌山市,中之島８４３番地,,30,201,6408392,,,2024-01-18,登記官による閉鎖,,,2015-10-05,1,,,,,,0
1936,6200003005623,登記記録の閉鎖等,0,2024-01-18,2024-01-16,岐阜総合設備合同会社,,合同会社,岐阜県,中津川市,千旦林８１０番地の１４,,21,206,5099131,,,2024-01-16,清算の結了等,,,2022-07-20,1,,,,,ギフソウゴウセツビ,0
1938,6230001017601,登記記録の閉鎖等,0,2024-01-18,2024-01-18,株式会社ファッションカー,,株式会社,富山県,砺波市,宮丸１５７番地の１,,16,208,9391352,,,2024-01-18,登記官による閉鎖,,,2018-10-01,1,,,,,ファッションカー,0
1939,6230002000564,登記記録の閉鎖等,0,2024-01-18,2024-01-18,有限会社エムフロント,,有限会社,富山県,富山市,岩瀬白山町４５番地の７,,16,201,9318361,,,2024-01-18,登記官による閉鎖,,,2015-10-05,1,,,,,,0
1940,6230005003721,登記記録の閉鎖等,0,2024-01-18,2024-01-18,社団法人下新川郡厚生施設協会,,その他の設立登記法人,富山県,黒部市,三日市１０７５番地,,16,207,9380031,,,2024-01-18,登記官による閉鎖,,,2015-10-05,1,,,,,,0
1941,6230005006542,登記記録の閉鎖等,0,2024-01-18,2024-01-18,財団法人土屋共保財団,,その他の設立登記法人,富山県,高岡市,福岡町土屋３３０番地,,16,202,9390142,,,2024-01-18,登記官による閉鎖,,,2015-10-05,1,,,,,,0
1942,6230005007417,登記記録の閉鎖等,0,2024-01-18,2024-01-18,財団法人酵素利用研究農園,,その他の設立登記法人,富山県,射水市,戸破１９６５番地,,16,211,9390351,,,2024-01-18,登記官による閉鎖,,,2015-10-05,1,,,,,,0
1966,6290002018361,登記記録の閉鎖等,0,2024-01-18,2024-01-15,有限会社トーネツ空調工業,,有限会社,福岡県,福岡市東区,香椎浜１丁目１番５－３０４号,,40,131,8130016,,,2024-01-15,清算の結了等,,,2015-10-05,1,,,,,トーネツクウチョウコウギョウ,0
1969,6290802012324,登記記録の閉鎖等,0,2024-01-18,2024-01-12,株式会社八尋,,株式会社,福岡県,北九州市八幡東区,西本町４丁目５番１２号,,40,108,8050061,,,2024-01-12,清算の結了等,,,2015-10-05,1,,,,,ヤヒロ,0
2004,6430002053377,登記記録の閉鎖等,0,2024-01-18,2024-01-10,有限会社丸大おおひなた,,有限会社,北海道,空知郡上砂川町,字鶉４４番地２,,01,425,0730212,,,2024-01-10,清算の結了等,,,2015-10-05,1,,,,,マルダイオオヒナタ,0
2006,6450001002283,登記記録の閉鎖等,0,2024-01-18,2024-01-18,株式会社ニコー,,株式会社,北海道,旭川市,東五条４丁目２番１７号,,01,204,0700025,,,2024-01-18,登記官による閉鎖,,,2015-10-05,1,,,,,,0
2007,6450001002845,登記記録の閉鎖等,0,2024-01-18,2024-01-18,北海道イワフジ株式会社,,株式会社,北海道,旭川市,神楽四条１０丁目,,01,204,0708004,,,2024-01-18,登記官による閉鎖,,,2015-10-05,1,,,,,,0
2008,6450001006292,登記記録の閉鎖等,0,2024-01-18,2024-01-18,フクハラ建設株式会社,,株式会社,北海道,上川郡美瑛町,中町３丁目４番１４号,,01,459,0710207,,,2024-01-18,登記官による閉鎖,,,2015-10-05,1,,,,,,0
2009,6450001009948,登記記録の閉鎖等,0,2024-01-18,2024-01-18,和観光株式会社,,株式会社,北海道,旭川市,永山九条１０丁目２番４号,,01,204,0798419,,,2024-01-18,登記官による閉鎖,,,2015-10-05,1,,,,,,0
2010,6450002000105,登記記録の閉鎖等,0,2024-01-18,2024-01-18,有限会社青山商事,,有限会社,北海道,旭川市,四条通５丁目左９号,,01,204,0700034,,,2024-01-18,登記官による閉鎖,,,2015-10-05,1,,,,,,0
2011,6450002013107,登記記録の閉鎖等,0,2024-01-18,2024-01-18,有限会社たすく,,有限会社,北海道,紋別市,緑町２丁目８番２２号,,01,219,0940014,,,2024-01-18,登記官による閉鎖,,,2015-10-05,1,,,,,,0
2012,6460001000897,登記記録の閉鎖等,0,2024-01-18,2024-01-18,釧鉄工業株式会社,,株式会社,北海道,釧路市,知人町２番３０号,,01,206,0850844,,,2024-01-18,登記官による閉鎖,,,2015-10-05,1,,,,,,0
2013,6460002003404,登記記録の閉鎖等,0,2024-01-18,2024-01-18,有限会社トーコーハウジング,,有限会社,北海道,釧路市,美原５丁目１４番１４号,,01,206,0850065,,,2024-01-18,登記官による閉鎖,,,2015-10-05,1,,,,,,0
2014,6460002004740,登記記録の閉鎖等,0,2024-01-18,2024-01-18,有限会社イワ・クリエイト,,有限会社,北海道,川上郡弟子屈町,朝日３丁目１２番１号,,01,665,0883204,,,2024-01-18,登記官による閉鎖,,,2015-10-05,1,,,,,,0
2015,6460002005722,登記記録の閉鎖等,0,2024-01-18,2024-01-18,有限会社標茶温泉,,有限会社,北海道,川上郡標茶町,字オソツベツ６２８番地,,01,664,0882331,,,2024-01-18,登記官による閉鎖,,,2018-10-12,1,,,,,シベチャオンセン,0
2016,6460003000557,登記記録の閉鎖等,0,2024-01-18,2024-01-18,合同会社Ｓｔｕｄｙ　Ｐｒｏｄｕｃｔｉｏｎ　Ｊ,,合同会社,北海道,釧路市,北大通１３丁目２番地釧正館ビル地下１階,,01,206,0850015,,,2024-01-18,登記官による閉鎖,,,2015-10-05,1,,,,,,0
2017,6460101000566,登記記録の閉鎖等,0,2024-01-18,2024-01-18,株式会社こせきビル,,株式会社,北海道,帯広市,西二条南１０丁目１６番地,,01,207,0800012,,,2024-01-18,登記官による閉鎖,,,2015-10-05,1,,,,,,0
2018,6460101003759,登記記録の閉鎖等,0,2024-01-18,2024-01-18,株式会社テンオートシステム,,株式会社,北海道,帯広市,西五条南３４丁目１２番地,,01,207,0800015,,,2024-01-18,登記官による閉鎖,,,2015-10-05,1,,,,,,0
2019,6460102000846,登記記録の閉鎖等,0,2024-01-18,2024-01-18,有限会社共和工建,,有限会社,北海道,河西郡芽室町,東めむろ二条北２丁目４番地１,,01,637,0820802,,,2024-01-18,登記官による閉鎖,,,2015-10-05,1,,,,,,0
2020,6460102001794,登記記録の閉鎖等,0,2024-01-18,2024-01-18,有限会社ダイニングシステムサービス,,有限会社,北海道,帯広市,西七条南１６丁目１番地８,,01,207,0800017,,,2024-01-18,登記官による閉鎖,,,2015-10-05,1,,,,,,0
2021,6460102006752,登記記録の閉鎖等,0,2024-01-18,2024-01-18,有限会社大坂商店,,有限会社,北海道,中川郡幕別町,忠類本町１２３番地,,01,643,0891705,,,2024-01-18,登記官による閉鎖,,,2015-10-05,1,,,,,,0
2023,6460301003484,登記記録の閉鎖等,0,2024-01-18,2024-01-18,株式会社レストハウスきよさと,,株式会社,北海道,斜里郡清里町,羽衣町６２番地,,01,546,0994405,,,2024-01-18,登記官による閉鎖,,,2015-10-05,1,,,,,,0
2024,6460305000040,登記記録の閉鎖等,0,2024-01-18,2024-01-18,北見地方椎茸生産事業協同組合,,その他の設立登記法人,北海道,北見市,光西町１６９番地５７,,01,208,0900835,,,2024-01-18,登記官による閉鎖,,,2015-10-05,1,,,,,,0
2041,7010003033642,登記記録の閉鎖等,0,2024-01-18,2024-01-09,ＢＥＡＮＳ　ＭＬ合同会社,,合同会社,東京都,港区,虎ノ門５丁目１番４号,,13,103,1050001,,,2024-01-09,清算の結了等,,,2020-12-02,1,,,,,ビーンズエムエル,0
2046,7010401104004,登記記録の閉鎖等,0,2024-01-18,2024-01-04,株式会社アイエスエフネットサンライズ,,株式会社,東京都,港区,赤坂７丁目１番１６号,,13,103,1070052,,,2024-01-04,合併による解散等,6010401052047,令和５年１２月２９日東京都港区赤坂七丁目１番１６号株式会社アイエスエフネット（6010401052047）に合併し解散,2015-10-05,1,,,,,アイエスエフネットサンライズ,0
2053,7010403016874,登記記録の閉鎖等,0,2024-01-18,2023-12-27,Ｈｅｒｇｏ　Ｗｉｎｄ　Ｊａｐａｎ合同会社,,合同会社,東京都,千代田区,永田町１丁目１１番２８号合人社東京永田町ビル,,13,101,1000014,,,2023-12-27,清算の結了等,,,2017-07-18,1,,,,,エルゴウィンドジャパン,0
2054,7010403024150,登記記録の閉鎖等,0,2024-01-18,2024-01-05,Ｅｎｔｅｒｔａｉｎｓ合同会社,,合同会社,東京都,港区,浜松町２丁目２番１５号浜松町ダイヤビル２Ｆ,,13,103,1050013,,,2024-01-05,清算の結了等,,,2020-11-18,1,,,,,エンタテインズ,0
2055,7010501041865,登記記録の閉鎖等,0,2024-01-18,2024-01-16,株式会社人事工学研究所,,株式会社,東京都,台東区,駒形２丁目６番１２号,,13,106,1110043,,,2024-01-16,清算の結了等,,,2017-11-29,1,,,,,ジンジコウガクケンキュウジョ,0
2073,7011001129787,登記記録の閉鎖等,0,2024-01-18,2024-01-17,株式会社ＳＳ,,株式会社,東京都,渋谷区,神南１丁目２０番５号,,13,113,1500041,,,2024-01-17,清算の結了等,,,2019-09-11,1,,,,,エスエス,0
2077,7011101098247,登記記録の閉鎖等,0,2024-01-18,2024-01-11,Ｔｅｚｒｏ株式会社,,株式会社,東京都,文京区,本郷４丁目１６番６号文京区本郷四丁目ビル天翔オフィス後楽園２階２０２号室,,13,105,1130033,,,2024-01-11,清算の結了等,,,2022-03-25,1,,,,,テゼロ,0
2080,7011205001965,登記記録の閉鎖等,0,2024-01-18,2024-01-16,一般社団法人日本ゲーゴル協会,,その他の設立登記法人,東京都,中野区,沼袋３丁目５番４号,,13,114,1650025,,,2024-01-16,清算の結了等,,,2015-10-05,1,,,,,ニホンゲーゴルキョウカイ,0
2081,7011402000183,登記記録の閉鎖等,0,2024-01-18,2024-01-15,有限会社アイシン工業,,有限会社,東京都,板橋区,大原町４６番６号,,13,119,1740061,,,2024-01-15,清算の結了等,,,2015-10-05,1,,,,,,0
2087,7011701015205,登記記録の閉鎖等,0,2024-01-18,2024-01-12,株式会社ケアステーション大空,,株式会社,東京都,江戸川区,新堀２丁目３２番１０号コンビニエンスオフィス稲毛１号,,13,123,1320001,,,2024-01-12,合併による解散等,1011801014203,令和６年１月１日東京都足立区竹の塚一丁目３３番１０号株式会社わかばケアセンター（1011801014203）に合併し解散,2015-10-05,1,,,,,ケアステーションソラ,0
2092,7011802019088,登記記録の閉鎖等,0,2024-01-18,2024-01-16,有限会社みずぐち工芸,,有限会社,東京都,足立区,大谷田５丁目２９番１５号,,13,121,1200001,,,2024-01-16,清算の結了等,,,2015-10-05,1,,,,,ミズグチコウゲイ,0
2101,7013101004762,登記記録の閉鎖等,0,2024-01-18,2024-01-10,株式会社オレンジワン,,株式会社,東京都,福生市,北田園１丁目１３番地５,,13,218,1970005,,,2024-01-10,登記官による閉鎖,,,2015-10-05,1,,,,,,0
2102,7013101005323,登記記録の閉鎖等,0,2024-01-18,2024-01-10,株式会社ビッグウエスト,,株式会社,東京都,青梅市,藤橋２丁目５３８番地の３,,13,205,1980022,,,2024-01-10,登記官による閉鎖,,,2015-10-05,1,,,,,,0
2103,7013102005818,登記記録の閉鎖等,0,2024-01-18,2024-01-10,有限会社オフィス・ファン,,有限会社,東京都,青梅市,住江町６７番地,,13,205,1980084,,,2024-01-10,登記官による閉鎖,,,2015-10-05,1,,,,,,0
2120,7020003020053,登記記録の閉鎖等,0,2024-01-18,2024-01-11,合同会社ファースト,,合同会社,神奈川県,川崎市川崎区,砂子２丁目３番地１２第４０東京ビル地下１階,,14,131,2100006,,,2024-01-11,清算の結了等,,,2021-06-23,1,,,,,ファースト,0
2125,7021002002414,登記記録の閉鎖等,0,2024-01-18,2024-01-16,有限会社湘南リージョン,,有限会社,神奈川県,藤沢市,遠藤６７０１番地の３,,14,205,2520816,,,2024-01-16,清算の結了等,,,2015-10-05,1,,,,,ショウナンリージョン,0
2126,7021002016307,登記記録の閉鎖等,0,2024-01-18,2024-01-12,有限会社ユニバイオス,,有限会社,神奈川県,鎌倉市,山ノ内６０９番地３,,14,204,2470062,,,2024-01-12,清算の結了等,,,2015-10-05,1,,,,,ユニバイオス,0
2127,7021002031306,登記記録の閉鎖等,0,2024-01-18,2024-01-10,有限会社栢森商会,,有限会社,神奈川県,厚木市,上依知３００１番地,,14,212,2430801,,,2024-01-10,清算の結了等,,,2015-10-05,1,,,,,カヤモリショウカイ,0
2129,7021005006593,登記記録の閉鎖等,0,2024-01-18,2024-01-16,特定非営利活動法人ウエスト神奈川女性の人権を守る会,,その他の設立登記法人,神奈川県,小田原市,中里４１４番地５,,14,206,2500872,,,2024-01-16,清算の結了等,,,2015-10-05,1,,,,,ウエストカナガワジョセイノジンケンヲマモルカイ,0
2130,7030001021738,登記記録の閉鎖等,0,2024-01-18,2024-01-04,株式会社スワロー三友,,株式会社,東京都,江戸川区,西葛西６丁目８番１,,13,123,1340088,,,2024-01-04,合併による解散等,4030001063592,令和６年１月１日東京都江戸川区西葛西六丁目８番１株式会社スワロートラッキー（4030001063592）に合併し解散,2015-10-05,1,,,,,スワローサンユウ,0
2174,7080403003164,登記記録の閉鎖等,0,2024-01-18,2024-01-15,イシダ合同会社,,合同会社,静岡県,浜松市中央区,西浅田２丁目７番１７号,,22,138,4328045,,,2024-01-15,清算の結了等,,,2015-10-05,1,,,,,イシダ,0
2179,7100001009577,登記記録の閉鎖等,0,2024-01-18,2024-01-12,上田製菓株式会社,,株式会社,長野県,上田市,中央４丁目１８番３４号,,20,203,3860012,,,2024-01-12,清算の結了等,,,2015-10-05,1,,,,,ウエダセイカ,0
2184,7100002018635,登記記録の閉鎖等,0,2024-01-18,2024-01-10,有限会社東京堂洋品店,,有限会社,長野県,下高井郡山ノ内町,大字平穏２９９８番地,,20,561,3810401,,,2024-01-10,清算の結了等,,,2015-10-05,1,,,,,トウキョウドウヨウヒンテン,0
2199,7120101002397,登記記録の閉鎖等,0,2024-01-18,2024-01-18,株式会社千珠,,株式会社,大阪府,堺市堺区,大浜南町１丁２番８号,,27,141,5900976,,,2024-01-18,登記官による閉鎖,,,2015-10-05,1,,,,,,0
2200,7120101007751,登記記録の閉鎖等,0,2024-01-18,2024-01-18,株式会社ヨシムラ建設,,株式会社,大阪府,堺市中区,福田５７８番地６,,27,142,5998241,,,2024-01-18,登記官による閉鎖,,,2015-10-05,1,,,,,,0
2201,7120101008015,登記記録の閉鎖等,0,2024-01-18,2024-01-18,株式会社ワーフル,,株式会社,大阪府,堺市東区,白鷺町１丁２３番６号,,27,143,5998107,,,2024-01-18,登記官による閉鎖,,,2015-10-05,1,,,,,,0
2202,7120101020853,登記記録の閉鎖等,0,2024-01-18,2024-01-18,株式会社サンコー,,株式会社,大阪府,堺市堺区,浅香山町３丁１１番２号,,27,141,5900012,,,2024-01-18,登記官による閉鎖,,,2015-10-05,1,,,,,,0
2203,7120101024359,登記記録の閉鎖等,0,2024-01-18,2024-01-18,株式会社ディーアール,,株式会社,大阪府,堺市堺区,香ヶ丘町１丁５番１２号中井ビル２階,,27,141,5900011,,,2024-01-18,登記官による閉鎖,,,2015-10-05,1,,,,,,0
2206,7120101044729,登記記録の閉鎖等,0,2024-01-18,2024-01-18,日商ハウジング株式会社,,株式会社,大阪府,阪南市,尾崎町１１２番地の１１,,27,232,5990201,,,2024-01-18,登記官による閉鎖,,,2015-10-05,1,,,,,,0
2208,7120102021149,登記記録の閉鎖等,0,2024-01-18,2024-01-18,有限会社彩繕,,有限会社,大阪府,岸和田市,荒木町１丁目２６番２４号,,27,202,5960004,,,2024-01-18,登記官による閉鎖,,,2015-10-05,1,,,,,,0
2209,7120102022155,登記記録の閉鎖等,0,2024-01-18,2024-01-18,有限会社ミヤガタ,,有限会社,大阪府,貝塚市,加神２丁目５番６号,,27,208,5970071,,,2024-01-18,登記官による閉鎖,,,2015-10-05,1,,,,,,0
2210,7120105001172,登記記録の閉鎖等,0,2024-01-18,2024-01-18,萩原天神マール商業協同組合,,その他の設立登記法人,大阪府,堺市東区,日置荘原寺町４６番地の１新鮮館マール内,,27,143,5998112,,,2024-01-18,登記官による閉鎖,,,2015-10-05,1,,,,,,0
2211,7120105004019,登記記録の閉鎖等,0,2024-01-18,2024-01-18,特定非営利活動法人外国人生活総合支援協会,,その他の設立登記法人,大阪府,堺市堺区,楠町３丁１番２３号－２０１,,27,141,5900836,,,2024-01-18,登記官による閉鎖,,,2015-10-05,1,,,,,,0
2212,7120901002794,登記記録の閉鎖等,0,2024-01-18,2024-01-18,株式会社ダン・コンサルティング,,株式会社,大阪府,吹田市,山田東３丁目１８番１－９１５号,,27,205,5650821,,,2024-01-18,登記官による閉鎖,,,2015-10-05,1,,,,,,0
2213,7120901011894,登記記録の閉鎖等,0,2024-01-18,2024-01-18,株式会社藤枝組,,株式会社,大阪府,高槻市,松が丘３丁目１２番２号,,27,207,5691031,,,2024-01-18,登記官による閉鎖,,,2015-10-05,1,,,,,,0
2214,7120901013395,登記記録の閉鎖等,0,2024-01-18,2024-01-18,株式会社シー・ディー・エー,,株式会社,大阪府,吹田市,春日１丁目５番３５－１０６号,,27,205,5650853,,,2024-01-18,登記官による閉鎖,,,2015-10-05,1,,,,,,0
2215,7120901015615,登記記録の閉鎖等,0,2024-01-18,2024-01-18,杜産業株式会社,,株式会社,大阪府,高槻市,登町２０番Ｂ２４－２０８号,,27,207,5690046,,,2024-01-18,登記官による閉鎖,,,2015-10-05,1,,,,,,0
2216,7120901019145,登記記録の閉鎖等,0,2024-01-18,2024-01-18,株式会社ＭＯＴＯ　ＳＴＹＬＥ,,株式会社,大阪府,高槻市,庄所町７番１号,,27,207,5690064,,,2024-01-18,登記官による閉鎖,,,2015-10-05,1,,,,,,0
2217,7120901025977,登記記録の閉鎖等,0,2024-01-18,2024-01-18,株式会社山一,,株式会社,大阪府,豊中市,新千里南町２丁目８番１号,,27,203,5600084,,,2024-01-18,登記官による閉鎖,,,2015-10-05,1,,,,,,0
2222,7120902000302,登記記録の閉鎖等,0,2024-01-18,2024-01-18,有限会社エスイー設計,,有限会社,大阪府,茨木市,学園南町１８番１号の９,,27,211,5670834,,,2024-01-18,登記官による閉鎖,,,2015-10-05,1,,,,,,0
2223,7120902019557,登記記録の閉鎖等,0,2024-01-18,2024-01-18,有限会社フード・シヨツプ宮島,,有限会社,大阪府,豊中市,豊南町南３丁目４番５号,,27,203,5610815,,,2024-01-18,登記官による閉鎖,,,2015-10-05,1,,,,,,0
2224,7120902020606,登記記録の閉鎖等,0,2024-01-18,2024-01-18,有限会社インテル,,有限会社,大阪府,豊中市,本町８丁目４番２９号,,27,203,5600021,,,2024-01-18,登記官による閉鎖,,,2015-10-05,1,,,,,,0
2226,7120905000431,登記記録の閉鎖等,0,2024-01-18,2024-01-18,特定非営利活動法人近畿開発推進協議会,,その他の設立登記法人,大阪府,摂津市,千里丘４丁目１番９号,,27,224,5660001,,,2024-01-18,登記官による閉鎖,,,2015-10-05,1,,,,,,0
2227,7120905001207,登記記録の閉鎖等,0,2024-01-18,2024-01-18,下音羽農業協同組合,00034027,その他の設立登記法人,大阪府,茨木市,大字下音羽３８０番地,00034028,27,211,5680082,,,2024-01-18,登記官による閉鎖,,,2015-10-05,1,,,,,,0
2228,7120905002733,登記記録の閉鎖等,0,2024-01-18,2024-01-18,春日商店街振興組合,,その他の設立登記法人,大阪府,茨木市,春日１丁目１番２４号,,27,211,5670031,,,2024-01-18,登記官による閉鎖,,,2015-10-05,1,,,,,,0
2229,7120905002881,登記記録の閉鎖等,0,2024-01-18,2024-01-18,特定非営利活動法人マクロビオティックライフ・ジャパン,,その他の設立登記法人,大阪府,吹田市,豊津町２番１１号,,27,205,5640051,,,2024-01-18,登記官による閉鎖,,,2015-10-05,1,,,,,,0
2230,7120905004060,登記記録の閉鎖等,0,2024-01-18,2024-01-18,北摂建築設計監理事業協同組合,,その他の設立登記法人,大阪府,豊中市,庄内東町３丁目１番４０号,,27,203,5610831,,,2024-01-18,登記官による閉鎖,,,2015-10-05,1,,,,,,0
2231,7120905004390,登記記録の閉鎖等,0,2024-01-18,2024-01-18,大阪建設環境事業協同組合,,その他の設立登記法人,大阪府,豊中市,岡町北３丁目６番１６－２０３号,,27,203,5610884,,,2024-01-18,登記官による閉鎖,,,2015-10-05,1,,,,,,0
2232,7120905004449,登記記録の閉鎖等,0,2024-01-18,2024-01-18,特定非営利活動法人国際動物血液バンク,,その他の設立登記法人,大阪府,箕面市,外院３丁目３番１０号,,27,220,5620026,,,2024-01-18,登記官による閉鎖,,,2015-10-05,1,,,,,,0
2233,7122001015181,登記記録の閉鎖等,0,2024-01-18,2024-01-18,亀井建設株式会社,,株式会社,大阪府,大東市,深野北１丁目９番１８号,,27,218,5740071,,,2024-01-18,登記官による閉鎖,,,2015-10-05,1,,,,,,0
2234,7122001018548,登記記録の閉鎖等,0,2024-01-18,2024-01-18,坂本商事株式会社,,株式会社,大阪府,八尾市,太田新町９丁目１１８番地,,27,212,5810039,,,2024-01-18,登記官による閉鎖,,,2015-10-05,1,,,,,,0
2235,7122001018655,登記記録の閉鎖等,0,2024-01-18,2024-01-18,三豊建設株式会社,,株式会社,大阪府,八尾市,郡川１丁目９２番地,,27,212,5810872,,,2024-01-18,登記官による閉鎖,,,2015-10-05,1,,,,,,0
2239,7122002012681,登記記録の閉鎖等,0,2024-01-18,2024-01-18,有限会社ゲット,,有限会社,大阪府,大東市,太子田２丁目６番２６号,,27,218,5740045,,,2024-01-18,登記官による閉鎖,,,2015-10-05,1,,,,,,0
2240,7122002014232,登記記録の閉鎖等,0,2024-01-18,2024-01-18,有限会社大毛設備工業,,有限会社,大阪府,八尾市,宮町３丁目２番２４号,,27,212,5810815,,,2024-01-18,登記官による閉鎖,,,2015-10-05,1,,,,,,0
2241,7122005001500,登記記録の閉鎖等,0,2024-01-18,2024-01-18,四条畷養豚農業協同組合,,その他の設立登記法人,大阪府,四條畷市,大字岡山９００番地,,27,229,5750004,,,2024-01-18,登記官による閉鎖,,,2015-10-05,1,,,,,,0
2246,7140001044488,登記記録の閉鎖等,0,2024-01-18,2024-01-15,株式会社ランベックス西神戸,,株式会社,兵庫県,加古郡稲美町,六分一１３９２番地１５,,28,381,6751112,,,2024-01-15,合併による解散等,5330001003848,令和６年１月１日熊本市東区平山町２９８５番地１株式会社ランベックスジャパン（5330001003848）に合併し解散,2015-10-05,1,,,,,ランベックスニシコウベ,0
2253,7160001001454,登記記録の閉鎖等,0,2024-01-18,2024-01-18,株式会社中江造園,,株式会社,滋賀県,大津市,坂本１丁目２５番４１号,,25,201,5200113,,,2024-01-18,登記官による閉鎖,,,2015-10-05,1,,,,,,0
2254,7160001014885,登記記録の閉鎖等,0,2024-01-18,2024-01-18,株式会社永井製作所,,株式会社,滋賀県,草津市,南笠東４丁目８－６５－３,,25,206,5250071,,,2024-01-18,登記官による閉鎖,,,2015-10-05,1,,,,,,0
2256,7160002000208,登記記録の閉鎖等,0,2024-01-18,2024-01-18,有限会社イシダ・プランニング・インターナショナル,,有限会社,滋賀県,大津市,野郷原２丁目１８番１４号,,25,201,5202133,,,2024-01-18,登記官による閉鎖,,,2015-10-05,1,,,,,,0
2257,7160002009785,登記記録の閉鎖等,0,2024-01-18,2024-01-18,有限会社原電子製作所,,有限会社,滋賀県,蒲生郡日野町,大字大窪８０６番地,,25,383,5291603,,,2024-01-18,登記官による閉鎖,,,2015-10-05,1,,,,,,0
2258,7160005003389,登記記録の閉鎖等,0,2024-01-18,2024-01-18,小野寺農業協同組合,,その他の設立登記法人,滋賀県,長浜市,小野寺町２０７番地,,25,203,5260221,,,2024-01-18,登記官による閉鎖,,,2015-10-05,1,,,,,,0
2259,7160005004890,登記記録の閉鎖等,0,2024-01-18,2024-01-18,財団法人稲枝ボランテイアセンター,,その他の設立登記法人,滋賀県,彦根市,肥田町廿八９８０番地の４,,25,202,5211123,,,2024-01-18,登記官による閉鎖,,,2015-10-05,1,,,,,,0
2260,7170001007681,登記記録の閉鎖等,0,2024-01-18,2024-01-18,株式会社たれんと,,株式会社,和歌山県,和歌山市,北ノ新地分銅丁１５番地エンドレスパークビル３Ｆ,,30,201,6408350,,,2024-01-18,登記官による閉鎖,,,2015-10-05,1,,,,,,0
2261,7170001012467,登記記録の閉鎖等,0,2024-01-18,2024-01-18,株式会社花薫,,株式会社,和歌山県,岩出市,吉田２９６番地の１７,00045405,30,209,6496246,,,2024-01-18,登記官による閉鎖,,,2015-10-05,1,,,,,,0
2263,7170005002423,登記記録の閉鎖等,0,2024-01-18,2024-01-18,財団法人広川町開発公社,,その他の設立登記法人,和歌山県,有田郡広川町,大字広１５００番地,,30,362,6430071,,,2024-01-18,登記官による閉鎖,,,2015-10-05,1,,,,,,0
2264,7170005004106,登記記録の閉鎖等,0,2024-01-18,2024-01-18,有限責任晩稲信用購買販売利用組合,,その他の設立登記法人,和歌山県,日高郡みなべ町,晩稲１０７番地,,30,391,6450022,,,2024-01-18,登記官による閉鎖,,,2015-10-05,1,,,,,,0
2267,7180001114394,登記記録の閉鎖等,0,2024-01-18,2024-01-12,株式会社クラウドクリエイション,,株式会社,京都府,京都市右京区,梅津罧原町５９番地５５,,26,108,6150926,,,2024-01-12,清算の結了等,,,2015-10-05,1,,,,,クラウドクリエイション,0
2271,7180002078861,登記記録の閉鎖等,0,2024-01-18,2024-01-12,有限会社ふれあい介護センター,,有限会社,愛知県,一宮市,東加賀野井字川原２３９番地の９,,23,203,4940016,,,2024-01-12,清算の結了等,,,2015-10-05,1,,,,,フレアイカイゴセンター,0
2282,7230001007130,登記記録の閉鎖等,0,2024-01-18,2024-01-18,株式会社ティアラ,,株式会社,富山県,魚津市,上村木１丁目１８番７号,,16,204,9370046,,,2024-01-18,登記官による閉鎖,,,2015-10-05,1,,,,,,0
2283,7230002011817,登記記録の閉鎖等,0,2024-01-18,2024-01-18,有限会社はり半,,有限会社,富山県,高岡市,御旅屋町２番地８,,16,202,9330029,,,2024-01-18,登記官による閉鎖,,,2015-10-05,1,,,,,,0
2284,7230005007416,登記記録の閉鎖等,0,2024-01-18,2024-01-18,財団法人正力奨学会,,その他の設立登記法人,富山県,射水市,大門新１７・１８番地,,16,211,9390233,,,2024-01-18,登記官による閉鎖,,,2015-10-05,1,,,,,,0
2334,7450001004766,登記記録の閉鎖等,0,2024-01-18,2024-01-18,本間板金工業株式会社,,株式会社,北海道,深川市,三条７番１７号,,01,228,0740003,,,2024-01-18,登記官による閉鎖,,,2015-10-05,1,,,,,,0
2335,7450001007133,登記記録の閉鎖等,0,2024-01-18,2024-01-18,ケイ・アイ・シー株式会社,,株式会社,北海道,旭川市,宮下通１６丁目８０８番地グレース宮下６０２,,01,204,0700030,,,2024-01-18,登記官による閉鎖,,,2015-10-05,1,,,,,,0
2336,7450001007141,登記記録の閉鎖等,0,2024-01-18,2024-01-18,株式会社パレット,,株式会社,北海道,富良野市,瑞穂町１番１８号,,01,229,0760056,,,2024-01-18,登記官による閉鎖,,,2015-10-05,1,,,,,,0
2337,7450002010557,登記記録の閉鎖等,0,2024-01-18,2024-01-18,有限会社井野畳店,,有限会社,北海道,枝幸郡中頓別町,字中頓別７４番地,,01,513,0985551,,,2024-01-18,登記官による閉鎖,,,2015-10-05,1,,,,,,0
2338,7450002011828,登記記録の閉鎖等,0,2024-01-18,2024-01-18,有限会社佐竹鉄筋工業,,有限会社,北海道,留萌市,高砂町２丁目３番２８号,,01,212,0770021,,,2024-01-18,登記官による閉鎖,,,2015-10-05,1,,,,,,0
2339,7460002000623,登記記録の閉鎖等,0,2024-01-18,2024-01-18,有限会社カネヨ本間商店,,有限会社,北海道,釧路市,仲浜町３番１４号,,01,206,0850027,,,2024-01-18,登記官による閉鎖,,,2015-10-05,1,,,,,,0
2341,7460002004723,登記記録の閉鎖等,0,2024-01-18,2024-01-18,有限会社浅井電機商会,,有限会社,北海道,川上郡標茶町,富士１丁目３番２３号,,01,664,0882302,,,2024-01-18,登記官による閉鎖,,,2015-10-05,1,,,,,,0
2343,7460101000672,登記記録の閉鎖等,0,2024-01-18,2024-01-18,株式会社サポートサービス,,株式会社,北海道,河西郡更別村,字更別北一線５５番地１０,,01,639,0891542,,,2024-01-18,登記官による閉鎖,,,2015-10-05,1,,,,,,0
2344,7460101001092,登記記録の閉鎖等,0,2024-01-18,2024-01-18,株式会社トム・エンタープライズ,,株式会社,北海道,帯広市,西十二条南３４丁目３１番地,,01,207,0800022,,,2024-01-18,登記官による閉鎖,,,2015-10-05,1,,,,,,0
2345,7460102000845,登記記録の閉鎖等,0,2024-01-18,2024-01-18,有限会社共和機工,,有限会社,北海道,中川郡幕別町,札内青葉町３００番地２１,,01,643,0890541,,,2024-01-18,登記官による閉鎖,,,2015-10-05,1,,,,,,0
2346,7460302000075,登記記録の閉鎖等,0,2024-01-18,2024-01-18,有限会社アドハウスカミヅマ,,有限会社,北海道,北見市,並木町５４６番地１０２,,01,208,0900012,,,2024-01-18,登記官による閉鎖,,,2015-10-05,1,,,,,,0
2347,7460302001040,登記記録の閉鎖等,0,2024-01-18,2024-01-18,有限会社トキワ資材,,有限会社,北海道,北見市,常盤町５丁目１７番地の３,,01,208,0900817,,,2024-01-18,登記官による閉鎖,,,2015-10-05,1,,,,,,0
2348,7462505000050,登記記録の閉鎖等,0,2024-01-18,2024-01-18,中標津勤労者企業組合,,その他の設立登記法人,北海道,標津郡中標津町,東十三条南７丁目１番地,,01,692,0861013,,,2024-01-18,登記官による閉鎖,,,2015-10-05,1,,,,,,0
2366,8010001221768,登記記録の閉鎖等,0,2024-01-18,2024-01-12,エックスホールディングス株式会社,,株式会社,東京都,千代田区,内幸町１丁目３番３号,,13,101,1000011,,,2024-01-12,合併による解散等,6012401038570,令和６年１月１日東京都武蔵野市中町一丁目２０番８号アロカ株式会社（6012401038570）に合併し解散,2021-10-13,1,,,,,エックスホールディングス,0
2369,8010003027619,登記記録の閉鎖等,0,2024-01-18,2024-01-11,オスカーＵＳファンディング９合同会社,,合同会社,東京都,千代田区,丸の内３丁目１番１号東京共同会計事務所内,,13,101,1000005,,,2024-01-11,清算の結了等,,,2018-05-29,1,,,,,オスカーユーエスファンディングナイン,0
2370,8010003040539,登記記録の閉鎖等,0,2024-01-18,2023-12-22,グレイス合同会社,,合同会社,東京都,中央区,銀座１丁目２２番１１号銀座大竹ビジデンス２Ｆ,,13,102,1040061,,,2023-12-22,清算の結了等,,,2023-05-11,1,,,,,グレイス,0
2383,8010401146202,登記記録の閉鎖等,0,2024-01-18,2024-01-05,株式会社あてな,,株式会社,東京都,港区,浜松町２丁目２番１５号（浜松町ダイヤハイツ２Ｆ）,,13,103,1050013,,,2024-01-05,清算の結了等,,,2019-06-14,1,,,,,アテナ,0
2387,8010403024100,登記記録の閉鎖等,0,2024-01-18,2024-01-05,合同会社ＪＵＳＴ　ＤＯ　ＩＴ,,合同会社,東京都,港区,西麻布４丁目１番４号,,13,103,1060031,,,2024-01-05,清算の結了等,,,2020-11-13,1,,,,,ジャストドゥイット,0
2414,8011501015973,登記記録の閉鎖等,0,2024-01-18,2024-01-05,株式会社メイ・インテリア,,株式会社,東京都,荒川区,西日暮里２丁目１４番１２号,,13,118,1160013,,,2024-01-05,清算の結了等,,,2015-10-05,1,,,,,メイインテリア,0
2426,8013101003722,登記記録の閉鎖等,0,2024-01-18,2024-01-10,青邦運送株式会社,00059680,株式会社,東京都,青梅市,木野下１丁目７３番地１,,13,205,1980013,,,2024-01-10,登記官による閉鎖,,,2015-10-05,1,,,,,,0
2427,8013102001774,登記記録の閉鎖等,0,2024-01-18,2024-01-10,有限会社岡野製作所,,有限会社,東京都,あきる野市,瀬戸岡１８４番地１,,13,228,1970803,,,2024-01-10,登記官による閉鎖,,,2015-10-05,1,,,,,,0
2440,8021002016082,登記記録の閉鎖等,0,2024-01-18,2024-01-15,なんでもネット有限会社,,有限会社,神奈川県,鎌倉市,扇ガ谷４丁目２６番５号,,14,204,2480011,,,2024-01-15,清算の結了等,,,2015-10-05,1,,,,,ナンデモネット,0
2441,8021002063629,登記記録の閉鎖等,0,2024-01-18,2024-01-16,有限会社メックテック,,有限会社,千葉県,君津市,北久保２丁目３番４－２号,,12,225,2991164,,,2024-01-16,清算の結了等,,,2015-10-05,1,,,,,メックテック,0
2462,8050001040776,登記記録の閉鎖等,0,2024-01-18,2024-01-12,株式会社Ａ　Ｆａｒｍ　Ａｇｅｎｔ,,株式会社,茨城県,水戸市,若宮２丁目８－６メゾンオークスＡ１０１,,08,201,3100013,,,2024-01-12,清算の結了等,,,2016-04-07,1,,,,,,0
2463,8050001043069,登記記録の閉鎖等,0,2024-01-18,2024-01-11,株式会社ｂｅｎｉｂａｎａ,,株式会社,茨城県,久慈郡大子町,大字大子７１０番地,,08,364,3193526,,,2024-01-11,清算の結了等,,,2017-07-18,1,,,,,ベニバナ,0
2464,8050002001430,登記記録の閉鎖等,0,2024-01-18,2024-01-15,有限会社作山建具店,,有限会社,茨城県,水戸市,姫子１丁目４３７２番地,,08,201,3114151,,,2024-01-15,清算の結了等,,,2015-10-05,1,,,,,サクヤマタテグテン,0
2472,8080002009173,登記記録の閉鎖等,0,2024-01-18,2024-01-16,有限会社池田設備工業所,,有限会社,静岡県,静岡市清水区,八坂北１丁目１１番３６号,,22,103,4240023,,,2024-01-16,清算の結了等,,,2015-10-05,1,,,,,イケダセツビコウギョウショ,0
2474,8080102010089,登記記録の閉鎖等,0,2024-01-18,2024-01-16,有限会社栗原建設,,有限会社,静岡県,三島市,谷田４５７番地,,22,206,4110801,,,2024-01-16,清算の結了等,,,2015-10-05,1,,,,,クリハラケンセツ,0
2478,8100002015994,登記記録の閉鎖等,0,2024-01-18,2024-01-12,有限会社丸一建設,,有限会社,長野県,東御市,加沢１４０６番地６,,20,219,3890514,,,2024-01-12,清算の結了等,,,2015-10-05,1,,,,,マルイチケンセツ,0
2481,8120001056559,登記記録の閉鎖等,0,2024-01-18,2024-01-18,株式会社大新工業所,,株式会社,大阪府,高槻市,宮之川原２丁目８番９号,,27,207,5691032,,,2024-01-18,登記官による閉鎖,,,2015-10-05,1,,,,,,0
2489,8120001219875,登記記録の閉鎖等,0,2024-01-18,2024-01-09,エーディーサイン株式会社,,株式会社,大阪府,大阪市中央区,南船場４丁目１０番５号南船場ＳＯＨＯビル７０２,,27,128,5420081,,,2024-01-09,清算の結了等,,,2019-03-29,1,,,,,エーディーサイン,0
2498,8120101006983,登記記録の閉鎖等,0,2024-01-18,2024-01-16,ミツミエンジニアリング株式会社,,株式会社,大阪府,堺市堺区,香ヶ丘町１丁７番１９号,,27,141,5900011,,,2024-01-16,清算の結了等,,,2015-10-05,1,,,,,ミツミエンジニアリング,0
2499,8120101027443,登記記録の閉鎖等,0,2024-01-18,2024-01-18,株式会社住真住宅,,株式会社,大阪府,松原市,東新町４丁目８番２２号,,27,217,5800024,,,2024-01-18,登記官による閉鎖,,,2015-10-05,1,,,,,,0
2500,8120101032518,登記記録の閉鎖等,0,2024-01-18,2024-01-18,株式会社美喜,,株式会社,大阪府,羽曳野市,伊賀２丁目１２番１５号,,27,222,5830876,,,2024-01-18,登記官による閉鎖,,,2015-10-05,1,,,,,,0
2501,8120101036502,登記記録の閉鎖等,0,2024-01-18,2024-01-18,岸村建具株式会社,,株式会社,大阪府,岸和田市,岸城町１番２５－１１０３号,,27,202,5960073,,,2024-01-18,登記官による閉鎖,,,2015-10-05,1,,,,,,0
2502,8120101037509,登記記録の閉鎖等,0,2024-01-18,2024-01-18,株式会社阪和用土センター,,株式会社,大阪府,岸和田市,大沢町６１４番地,,27,202,5960114,,,2024-01-18,登記官による閉鎖,,,2015-10-05,1,,,,,,0
2503,8120101038457,登記記録の閉鎖等,0,2024-01-18,2024-01-18,株式会社溝端,,株式会社,大阪府,貝塚市,小瀬１丁目１２番４０号,,27,208,5970021,,,2024-01-18,登記官による閉鎖,,,2015-10-05,1,,,,,,0
2504,8120101046922,登記記録の閉鎖等,0,2024-01-18,2024-01-18,株式会社ＨＥＡＲＴＬＡＮＤ,,株式会社,大阪府,和泉市,みずき台１丁目６番１１号,,27,219,5941118,,,2024-01-18,登記官による閉鎖,,,2015-10-05,1,,,,,,0
2505,8120101047739,登記記録の閉鎖等,0,2024-01-18,2024-01-18,株式会社アドバンスネット,,株式会社,大阪府,和泉市,北田中町１２２番地,,27,219,5941122,,,2024-01-18,登記官による閉鎖,,,2015-10-05,1,,,,,,0
2506,8120101048745,登記記録の閉鎖等,0,2024-01-18,2024-01-18,株式会社トーカイハウジング,,株式会社,大阪府,堺市北区,新金岡町１丁３番３３号,,27,146,5918021,,,2024-01-18,登記官による閉鎖,,,2015-10-05,1,,,,,,0
2510,8120102017567,登記記録の閉鎖等,0,2024-01-18,2024-01-18,有限会社ティーエーシー,,有限会社,大阪府,南河内郡太子町,大字山田６３５番地浅野ビル３階,,27,381,5830992,,,2024-01-18,登記官による閉鎖,,,2015-10-05,1,,,,,,0
2511,8120102017609,登記記録の閉鎖等,0,2024-01-18,2024-01-18,有限会社スルーザワールド,,有限会社,大阪府,富田林市,桜井町１丁目４番３号,,27,214,5840013,,,2024-01-18,登記官による閉鎖,,,2015-10-05,1,,,,,,0
2512,8120102020728,登記記録の閉鎖等,0,2024-01-18,2024-01-18,有限会社天元リサーチ,,有限会社,大阪府,岸和田市,上松町６５６番地,,27,202,5960827,,,2024-01-18,登記官による閉鎖,,,2015-10-05,1,,,,,,0
2513,8120105000636,登記記録の閉鎖等,0,2024-01-18,2024-01-18,堺フエニツクス通り大町西商店街協同組合,,その他の設立登記法人,大阪府,堺市堺区,大町西２丁２番１号,,27,141,5900959,,,2024-01-18,登記官による閉鎖,,,2015-10-05,1,,,,,,0
2514,8120105004199,登記記録の閉鎖等,0,2024-01-18,2024-01-18,堺石材事業協同組合,,その他の設立登記法人,大阪府,大阪狭山市,大野台４丁目２０番１４号,,27,231,5890023,,,2024-01-18,登記官による閉鎖,,,2015-10-05,1,,,,,,0
2515,8120105005247,登記記録の閉鎖等,0,2024-01-18,2024-01-18,日本食肉事業協同組合連合会,,その他の設立登記法人,大阪府,羽曳野市,向野３丁目８番１号,,27,222,5830883,,,2024-01-18,登記官による閉鎖,,,2015-10-05,1,,,,,,0
2516,8120105005255,登記記録の閉鎖等,0,2024-01-18,2024-01-18,南大阪建設事業協同組合,,その他の設立登記法人,大阪府,藤井寺市,小山９丁目２番２０号,,27,226,5830033,,,2024-01-18,登記官による閉鎖,,,2015-10-05,1,,,,,,0
2517,8120105005858,登記記録の閉鎖等,0,2024-01-18,2024-01-18,南大阪環境事業協同組合,,その他の設立登記法人,大阪府,岸和田市,池尻町８４３番地の１,,27,202,5960813,,,2024-01-18,登記官による閉鎖,,,2015-10-05,1,,,,,,0
2519,8120901017940,登記記録の閉鎖等,0,2024-01-18,2024-01-18,株式会社エバーグレース,,株式会社,大阪府,吹田市,江の木町１番８号田中ビル３０３号,,27,205,5640053,,,2024-01-18,登記官による閉鎖,,,2015-10-05,1,,,,,エバーグレース,0
2520,8120901020515,登記記録の閉鎖等,0,2024-01-18,2024-01-18,株式会社三陽流通センター,,株式会社,大阪府,箕面市,船場西１丁目１番１号,,27,220,5620036,,,2024-01-18,登記官による閉鎖,,,2015-10-05,1,,,,,サンヨウリュウツウセンター,0
2521,8120901022230,登記記録の閉鎖等,0,2024-01-18,2024-01-18,ヨドヤ歯磨株式会社,,株式会社,大阪府,池田市,姫室町４番１３号,,27,204,5630046,,,2024-01-18,登記官による閉鎖,,,2015-10-05,1,,,,,,0
2522,8120901024540,登記記録の閉鎖等,0,2024-01-18,2024-01-18,大和産業株式会社,,株式会社,大阪府,豊中市,熊野町４丁目６番２５号セントラル豊中東２０１号,,27,203,5600014,,,2024-01-18,登記官による閉鎖,,,2015-10-05,1,,,,,,0
2523,8120901030431,登記記録の閉鎖等,0,2024-01-18,2024-01-18,株式会社ケンズ・オフィス,,株式会社,大阪府,池田市,石橋３丁目１番３号,,27,204,5630032,,,2024-01-18,登記官による閉鎖,,,2015-10-05,1,,,,,,0
2526,8120902007593,登記記録の閉鎖等,0,2024-01-18,2024-01-18,有限会社富士工芸,,有限会社,大阪府,吹田市,千里丘中４６番２１号,,27,205,5650812,,,2024-01-18,登記官による閉鎖,,,2015-10-05,1,,,,,フジコウゲイ,0
2527,8120902012817,登記記録の閉鎖等,0,2024-01-18,2024-01-18,有限会社三進興産,,有限会社,大阪府,吹田市,南正雀４丁目５番６号,,27,205,5640012,,,2024-01-18,登記官による閉鎖,,,2015-10-05,1,,,,,,0
2528,8120905001206,登記記録の閉鎖等,0,2024-01-18,2024-01-18,車作農業協同組合,,その他の設立登記法人,大阪府,茨木市,大字車作５４１番地,,27,211,5680083,,,2024-01-18,登記官による閉鎖,,,2015-10-05,1,,,,,,0
2529,8120905004051,登記記録の閉鎖等,0,2024-01-18,2024-01-18,岡町デイエムストアー事業協同組合,,その他の設立登記法人,大阪府,豊中市,岡町南３丁目５番６号,,27,203,5610883,,,2024-01-18,登記官による閉鎖,,,2015-10-05,1,,,,,,0
2530,8122001006816,登記記録の閉鎖等,0,2024-01-18,2024-01-18,冨士機械株式会社,,株式会社,大阪府,東大阪市,中石切町４丁目２番１９号,,27,227,5798014,,,2024-01-18,登記官による閉鎖,,,2015-10-05,1,,,,,フジキカイ,0
2531,8122001009109,登記記録の閉鎖等,0,2024-01-18,2024-01-18,株式会社エム・エス・アイ,,株式会社,大阪府,東大阪市,荒川１丁目１３番２５号西本ビル２階,,27,227,5770843,,,2024-01-18,登記官による閉鎖,,,2015-10-05,1,,,,,,0
2532,8122001014182,登記記録の閉鎖等,0,2024-01-18,2024-01-18,株式会社東翔,,株式会社,大阪府,東大阪市,新鴻池町４番１４号,,27,227,5780967,,,2024-01-18,登記官による閉鎖,,,2015-10-05,1,,,,,,0
2533,8122001014645,登記記録の閉鎖等,0,2024-01-18,2024-01-18,和門株式会社,,株式会社,大阪府,東大阪市,中小阪３丁目６番１４号,,27,227,5770804,,,2024-01-18,登記官による閉鎖,,,2015-10-05,1,,,,,,0
2534,8122001025725,登記記録の閉鎖等,0,2024-01-18,2024-01-18,辻野車体株式会社,00034575,株式会社,大阪府,八尾市,西山本町２丁目８番１７号,,27,212,5810868,,,2024-01-18,登記官による閉鎖,,,2015-10-05,1,,,,,,0
2536,8122001031847,登記記録の閉鎖等,0,2024-01-18,2024-01-18,株式会社ドラッグジュン,,株式会社,大阪府,八尾市,西山本町２丁目１０番１５号,,27,212,5810868,,,2024-01-18,登記官による閉鎖,,,2018-08-08,1,,,,,ドラッグジュン,0
2539,8122002000371,登記記録の閉鎖等,0,2024-01-18,2024-01-18,有限会社赤札堂,,有限会社,大阪府,東大阪市,鴻池町２丁目１番３５号,,27,227,5780972,,,2024-01-18,登記官による閉鎖,,,2015-10-05,1,,,,,,0
2540,8122002001163,登記記録の閉鎖等,0,2024-01-18,2024-01-18,永和農園有限会社,,有限会社,大阪府,東大阪市,西堤本通西２丁目１番２１号,,27,227,5770046,,,2024-01-18,登記官による閉鎖,,,2015-10-05,1,,,,,,0
2544,8122002015659,登記記録の閉鎖等,0,2024-01-18,2024-01-18,有限会社ホープ,,有限会社,大阪府,八尾市,南本町２丁目３番２３号,,27,212,5810081,,,2024-01-18,登記官による閉鎖,,,2015-10-05,1,,,,,,0
2545,8130001006307,登記記録の閉鎖等,0,2024-01-18,2024-01-15,株式会社クマノハウジング,,株式会社,京都府,京都市左京区,聖護院山王町４０番地,,26,103,6068392,,,2024-01-15,清算の結了等,,,2015-10-05,1,,,,,クマノハウジング,0
2552,8140001073032,登記記録の閉鎖等,0,2024-01-18,2024-01-16,神戸住設株式会社,,株式会社,兵庫県,西宮市,荒木町９番３０号,,28,204,6638025,,,2024-01-16,清算の結了等,,,2015-10-05,1,,,,,コウベジュウセツ,0
2559,8160001006031,登記記録の閉鎖等,0,2024-01-18,2024-01-18,株式会社ヒムカワーク,,株式会社,滋賀県,湖南市,岩根８８２番地１,,25,211,5203252,,,2024-01-18,登記官による閉鎖,,,2015-10-05,1,,,,,,0
2560,8160001007913,登記記録の閉鎖等,0,2024-01-18,2024-01-18,株式会社カサハラ,,株式会社,滋賀県,長浜市,八幡東町４０番地,,25,203,5260031,,,2024-01-18,登記官による閉鎖,,,2015-10-05,1,,,,,,0
2561,8160001009364,登記記録の閉鎖等,0,2024-01-18,2024-01-18,株式会社ＮＳＴ愛知川,,株式会社,滋賀県,愛知郡愛荘町,愛知川４０番地６,,25,425,5291331,,,2024-01-18,登記官による閉鎖,,,2015-10-05,1,,,,,,0
2563,8160003000890,登記記録の閉鎖等,0,2024-01-18,2024-01-18,合同会社ＴＭＦ,,合同会社,滋賀県,草津市,東矢倉２丁目１０－１４,,25,206,5250054,,,2024-01-18,登記官による閉鎖,,,2015-10-05,1,,,,,,0
2564,8160005000022,登記記録の閉鎖等,0,2024-01-18,2024-01-18,財団法人芭蕉翁遺跡顕彰会,,その他の設立登記法人,滋賀県,大津市,秋葉台３５番９号,,25,201,5200822,,,2024-01-18,登記官による閉鎖,,,2015-10-05,1,,,,,,0
2565,8160005002274,登記記録の閉鎖等,0,2024-01-18,2024-01-18,特定非営利活動法人モンゴル国際親善協会,,その他の設立登記法人,滋賀県,大津市,末広町４番３５号,,25,201,5200056,,,2024-01-18,登記官による閉鎖,,,2015-10-05,1,,,,,,0
2566,8160005002448,登記記録の閉鎖等,0,2024-01-18,2024-01-18,財団法人天理教水口大教会維持財団,,その他の設立登記法人,滋賀県,甲賀市,水口町新町１丁目１番３５号,,25,209,5280038,,,2024-01-18,登記官による閉鎖,,,2015-10-05,1,,,,,,0
2567,8160005003388,登記記録の閉鎖等,0,2024-01-18,2024-01-18,湖北養鶏農業協同組合,,その他の設立登記法人,滋賀県,長浜市,分木町４番２９号,,25,203,5260025,,,2024-01-18,登記官による閉鎖,,,2015-10-05,1,,,,,,0
2569,8170001006708,登記記録の閉鎖等,0,2024-01-18,2024-01-18,翔プラントエンジニアリング株式会社,,株式会社,和歌山県,海南市,日方８１２番地ソードオーティス２Ｆ,,30,202,6420002,,,2024-01-18,登記官による閉鎖,,,2015-10-05,1,,,,,,0
2570,8170001007870,登記記録の閉鎖等,0,2024-01-18,2024-01-18,長尾ハウジング株式会社,,株式会社,和歌山県,紀の川市,北勢田９７番地,,30,208,6496402,,,2024-01-18,登記官による閉鎖,,,2015-10-05,1,,,,,,0
2572,8170002006574,登記記録の閉鎖等,0,2024-01-18,2024-01-18,有限会社バーニング・スター,,有限会社,和歌山県,海南市,船尾２１３番地の３３,,30,202,6420001,,,2024-01-18,登記官による閉鎖,,,2015-10-05,1,,,,,,0
2573,8170002010411,登記記録の閉鎖等,0,2024-01-18,2024-01-18,有限会社和歌山開発,,有限会社,和歌山県,日高郡美浜町,大字田井４３５番地,,30,381,6440041,,,2024-01-18,登記官による閉鎖,,,2015-10-05,1,,,,,,0
2574,8170002010948,登記記録の閉鎖等,0,2024-01-18,2024-01-18,有限会社中村機械工作所,,有限会社,和歌山県,伊都郡かつらぎ町,大字妙寺４３４番地の６０,,30,341,6497113,,,2024-01-18,登記官による閉鎖,,,2015-10-05,1,,,,,,0
2575,8170002011178,登記記録の閉鎖等,0,2024-01-18,2024-01-18,有限会社三建設,,有限会社,和歌山県,新宮市,高田１２４１番地の１,,30,207,6471101,,,2024-01-18,登記官による閉鎖,,,2015-10-05,1,,,,,,0
2576,8170002011946,登記記録の閉鎖等,0,2024-01-18,2024-01-18,有限会社レストハウスアリタ,,有限会社,和歌山県,有田市,古江見無番地,,30,204,6490317,,,2024-01-18,登記官による閉鎖,,,2018-06-27,1,,,,,レストハウスアリタ,0
2577,8170005001853,登記記録の閉鎖等,0,2024-01-18,2024-01-18,特定非営利活動法人日本食養協会,,その他の設立登記法人,和歌山県,和歌山市,新和歌浦３番６号,,30,201,6410023,,,2024-01-18,登記官による閉鎖,,,2015-10-05,1,,,,,,0
2578,8170005003404,登記記録の閉鎖等,0,2024-01-18,2024-01-18,社団法人中共済会,,その他の設立登記法人,和歌山県,西牟婁郡白浜町,中２８２番地,,30,401,6492333,,,2024-01-18,登記官による閉鎖,,,2015-10-05,1,,,,,,0
2579,8170005004311,登記記録の閉鎖等,0,2024-01-18,2024-01-18,財団法人共栄教育後援会,,その他の設立登記法人,和歌山県,日高郡印南町,大字宮ノ前４０８番地,,30,390,6491526,,,2024-01-18,登記官による閉鎖,,,2015-10-05,1,,,,,,0
2593,8190001010625,登記記録の閉鎖等,0,2024-01-18,2024-01-16,株式会社三重シーリング,,株式会社,三重県,松阪市,丹生寺町２番地の３,,24,204,5150832,,,2024-01-16,清算の結了等,,,2015-10-05,1,,,,,ミエシーリング,0
2603,8230001004267,登記記録の閉鎖等,0,2024-01-18,2024-01-18,山本製薬株式会社,,株式会社,富山県,富山市,海岸通２６３番地,,16,201,9318405,,,2024-01-18,登記官による閉鎖,,,2015-10-05,1,,,,,,0
2604,8230001009605,登記記録の閉鎖等,0,2024-01-18,2024-01-18,株式会社ダイコー,,株式会社,富山県,富山市,向新庄町１丁目１２番２６号,,16,201,9300916,,,2024-01-18,登記官による閉鎖,,,2015-10-05,1,,,,,,0
2605,8230005000213,登記記録の閉鎖等,0,2024-01-18,2024-01-18,社団法人富山県生活衛生同業組合連合会,,その他の設立登記法人,富山県,富山市,赤江町１番７号,,16,201,9300855,,,2024-01-18,登記官による閉鎖,,,2015-10-05,1,,,,,,0
2606,8230005002589,登記記録の閉鎖等,0,2024-01-18,2024-01-18,財団法人福沢貧民就業社,,その他の設立登記法人,富山県,富山市,東福沢１８０９番地,,16,201,9301281,,,2024-01-18,登記官による閉鎖,,,2015-10-05,1,,,,,,0
2608,8240001033629,登記記録の閉鎖等,0,2024-01-18,2024-01-11,コモリ株式会社,,株式会社,広島県,福山市,新市町大字宮内１５１６番地の２,,34,207,7293104,,,2024-01-11,清算の結了等,,,2015-10-05,1,,,,,コモリ,0
2613,8260001006343,登記記録の閉鎖等,0,2024-01-18,2024-01-16,ナカ電工株式会社,,株式会社,岡山県,岡山市中区,乙多見２３３番地,,33,102,7038228,,,2024-01-16,清算の結了等,,,2015-10-05,1,,,,,ナカデンコウ,0
2625,8330001014553,登記記録の閉鎖等,0,2024-01-18,2024-01-12,株式会社スパイラル・グリーン,,株式会社,熊本県,八代市,昭和日進町１８０番地,,43,202,8694721,,,2024-01-12,清算の結了等,,,2015-10-05,1,,,,,スパイラルグリーン,0
2628,8330005008551,登記記録の閉鎖等,0,2024-01-18,2024-01-10,特定非営利活動法人サークルフェスタ,,その他の設立登記法人,熊本県,八代市,新町６番１８号,,43,202,8660854,,,2024-01-10,清算の結了等,,,2015-10-05,1,,,,,サークルフェスタ,0
2632,8350003001309,登記記録の閉鎖等,0,2024-01-18,2024-01-12,合資会社菊池衣料店,,合資会社,宮崎県,西臼杵郡五ヶ瀬町,大字三ヶ所１０６７１番地－３,,45,443,8821203,,,2024-01-12,清算の結了等,,,2015-10-05,1,,,,,キクチイリョウテン,0
2640,8370003001934,登記記録の閉鎖等,0,2024-01-18,2024-01-09,合同会社Ｗｉｌｌｅ,,合同会社,東京都,港区,浜松町２丁目２番１５号浜松町ダイヤビル２Ｆ,,13,103,1050013,,,2024-01-09,清算の結了等,,,2015-10-05,1,,,,,ヴィレ,0
2644,8380002004565,登記記録の閉鎖等,0,2024-01-18,2024-01-16,有限会社幸,,有限会社,福島県,福島市,大町５番１５号,,07,201,9608041,,,2024-01-16,清算の結了等,,,2015-10-05,1,,,,,コウ,0
2647,8410001013043,登記記録の閉鎖等,0,2024-01-18,2024-01-10,ワイズコラボレーション株式会社,,株式会社,秋田県,秋田市,新藤田字治郎沢２８番地４７,,05,201,0100826,,,2024-01-10,清算の結了等,,,2021-12-22,1,,,,,ワイズコラボレーション,0
2656,8450001002414,登記記録の閉鎖等,0,2024-01-18,2024-01-18,株式会社パークオート,,株式会社,北海道,旭川市,神楽岡五条５丁目１番２５号,,01,204,0788315,,,2024-01-18,登記官による閉鎖,,,2015-10-05,1,,,,,,0
2657,8450001005053,登記記録の閉鎖等,0,2024-01-18,2024-01-18,株式会社アイ・デイ中島,,株式会社,北海道,旭川市,四条通６丁目３番地の１２２,,01,204,0700034,,,2024-01-18,登記官による閉鎖,,,2018-03-30,1,,,,,アイデイナカジマ,0
2658,8450002011042,登記記録の閉鎖等,0,2024-01-18,2024-01-18,有限会社月永組,,有限会社,北海道,稚内市,富岡５丁目１１番２号,,01,214,0970012,,,2024-01-18,登記官による閉鎖,,,2015-10-05,1,,,,,,0
2660,8460002003063,登記記録の閉鎖等,0,2024-01-18,2024-01-18,有限会社丸松松永,,有限会社,北海道,釧路市,愛国東１丁目１３番１１号,,01,206,0850058,,,2024-01-18,登記官による閉鎖,,,2015-10-05,1,,,,,,0
2661,8460102003599,登記記録の閉鎖等,0,2024-01-18,2024-01-18,有限会社ヤマヒロ運送,,有限会社,北海道,帯広市,西二十一条南２丁目３９番５号,,01,207,0802471,,,2024-01-18,登記官による閉鎖,,,2015-10-05,1,,,,,,0
2662,8460103000703,登記記録の閉鎖等,0,2024-01-18,2024-01-18,リアルロケーション合同会社,,合同会社,北海道,帯広市,大通南２１丁目３番地,,01,207,0800010,,,2024-01-18,登記官による閉鎖,,,2015-10-05,1,,,,,,0
2663,8460302000339,登記記録の閉鎖等,0,2024-01-18,2024-01-18,有限会社カートツプ北見,,有限会社,北海道,北見市,東相内町９番地の９７,,01,208,0990878,,,2024-01-18,登記官による閉鎖,,,2015-10-05,1,,,,,カートツプキタミ,0
2664,8460305000006,登記記録の閉鎖等,0,2024-01-18,2024-01-18,協同組合オホーツクマルチメディア研究所,,その他の設立登記法人,北海道,北見市,柏陽町６０３番２,,01,208,0900013,,,2024-01-18,登記官による閉鎖,,,2015-10-05,1,,,,,,0
2665,8462502000572,登記記録の閉鎖等,0,2024-01-18,2024-01-18,根室内陸土木工業有限会社,,有限会社,北海道,標津郡中標津町,北町２丁目６番地,,01,692,0861152,,,2024-01-18,登記官による閉鎖,,,2015-10-05,1,,,,,,0
2666,8462502000820,登記記録の閉鎖等,0,2024-01-18,2024-01-18,有限会社村中米穀店,,有限会社,北海道,標津郡中標津町,西二条南１丁目２番地１,,01,692,0861102,,,2024-01-18,登記官による閉鎖,,,2015-10-05,1,,,,,,0
2671,9010001154612,登記記録の閉鎖等,0,2024-01-18,2024-01-12,のべおか東海メガソーラー株式会社,,株式会社,宮崎県,延岡市,水尻町３０４番地,,45,203,8820015,,,2024-01-12,清算の結了等,,,2015-10-05,1,,,,,ノベオカトウミメガソーラー,0
2694,9010601039386,登記記録の閉鎖等,0,2024-01-18,2023-12-19,株式会社ブリッジコーポレーション,,株式会社,東京都,豊島区,南大塚２丁目１１番１０号,,13,116,1700005,,,2023-12-19,清算の結了等,,,2015-10-05,1,,,,,ブリッジコーポレーション,0
2715,9011001116767,登記記録の閉鎖等,0,2024-01-18,2024-01-17,ｃｙｃｌｅ＆ｄｅｓｉｇｎ株式会社,,株式会社,東京都,渋谷区,神山町４１番８号メゾン神山３０７,,13,113,1500047,,,2024-01-17,清算の結了等,,,2017-06-09,1,,,,,サイクルデザイン,0
2716,9011001126386,登記記録の閉鎖等,0,2024-01-18,2024-01-12,株式会社ｉｇｎｉｔｅ,,株式会社,東京都,練馬区,下石神井６丁目４１－８,,13,120,1770042,,,2024-01-12,清算の結了等,,,2019-02-05,1,,,,,イグナイト,0
2718,9011001139917,登記記録の閉鎖等,0,2024-01-18,2024-01-17,株式会社ＥＴＳＵ,,株式会社,東京都,渋谷区,幡ヶ谷３丁目３９番１２号渋谷ウェストビル１階,,13,113,1510072,,,2024-01-17,清算の結了等,,,2021-04-15,1,,,,,エツ,0
2725,9011005009827,登記記録の閉鎖等,0,2024-01-18,2024-01-10,一般社団法人ライフフィットネス協会,,その他の設立登記法人,東京都,渋谷区,道玄坂１丁目１６番６号二葉ビル８ｂ,,13,113,1500043,,,2024-01-10,清算の結了等,,,2022-11-11,1,,,,,ライフフィットネスキョウカイ,0
2737,9011602000873,登記記録の閉鎖等,0,2024-01-18,2024-01-16,有限会社イシモト,,有限会社,東京都,練馬区,向山３丁目２９番１４号,,13,120,1760022,,,2024-01-16,清算の結了等,,,2015-10-05,1,,,,,イシモト,0
2738,9011602006367,登記記録の閉鎖等,0,2024-01-18,2024-01-12,有限会社タカメディカル,,有限会社,東京都,練馬区,東大泉７丁目３８番２３号,,13,120,1780063,,,2024-01-12,清算の結了等,,,2015-10-05,1,,,,,タカメディカル,0
2739,9011602021457,登記記録の閉鎖等,0,2024-01-18,2024-01-15,有限会社カミタニ,,有限会社,東京都,練馬区,東大泉４丁目２７番４０号,,13,120,1780063,,,2024-01-15,清算の結了等,,,2015-10-05,1,,,,,カミタニ,0
2742,9011702000559,登記記録の閉鎖等,0,2024-01-18,2024-01-12,有限会社アビアン企画,,有限会社,東京都,江戸川区,篠崎町２丁目４７番４号,,13,123,1330061,,,2024-01-12,清算の結了等,,,2015-10-05,1,,,,,アビアンキカク,0
2751,9013102000478,登記記録の閉鎖等,0,2024-01-18,2024-01-10,有限会社総合安全管理,,有限会社,東京都,福生市,大字福生６３７番地,,13,218,1970011,,,2024-01-10,登記官による閉鎖,,,2015-10-05,1,,,,,,0
2752,9013102003670,登記記録の閉鎖等,0,2024-01-18,2024-01-10,有限会社アイム,,有限会社,東京都,福生市,東町２番地３レクセルプラザ福生４０１号室,,13,218,1970021,,,2024-01-10,登記官による閉鎖,,,2015-10-05,1,,,,,,0
2753,9013102005246,登記記録の閉鎖等,0,2024-01-18,2024-01-10,有限会社産学連携サポート,,有限会社,東京都,あきる野市,二宮１２７５番地１２,,13,228,1970814,,,2024-01-10,登記官による閉鎖,,,2015-10-05,1,,,,,,0
2754,9013105001201,登記記録の閉鎖等,0,2024-01-18,2024-01-10,特定非営利活動法人自然農法塾,,その他の設立登記法人,東京都,西多摩郡奥多摩町,留浦１５５４番地,,13,308,1980221,,,2024-01-10,登記官による閉鎖,,,2015-10-05,1,,,,,,0
2755,9013105001358,登記記録の閉鎖等,0,2024-01-18,2024-01-10,特定非営利活動法人アンカー,,その他の設立登記法人,東京都,青梅市,友田町３丁目５６番地,,13,205,1980051,,,2024-01-10,登記官による閉鎖,,,2015-10-05,1,,,,,,0
2756,9013105001374,登記記録の閉鎖等,0,2024-01-18,2024-01-10,特定非営利活動法人つれづれ会,,その他の設立登記法人,東京都,青梅市,東青梅３丁目８番地の２６,,13,205,1980042,,,2024-01-10,登記官による閉鎖,,,2015-10-05,1,,,,,,0
2758,9013302004312,登記記録の閉鎖等,0,2024-01-18,2024-01-10,有限会社コダマボールルームダンスキカク,,有限会社,東京都,豊島区,南大塚３丁目４４番１１号,,13,116,1700005,,,2024-01-10,清算の結了等,,,2015-10-05,1,,,,,コダマボールルームダンスキカク,0
2765,9020001146402,登記記録の閉鎖等,0,2024-01-18,2024-01-12,株式会社藤が丘駅前薬局,,株式会社,神奈川県,横浜市青葉区,藤が丘２丁目４番地７,,14,117,2270043,,,2024-01-12,合併による解散等,2040001112532,令和５年１２月１日神奈川県横浜市青葉区藤が丘二丁目３１番地２０株式会社山成薬局（2040001112532）に合併し解散,2022-05-11,1,,,,,フジガオカエキマエヤッキョク,0
2776,9021002063826,登記記録の閉鎖等,0,2024-01-18,2024-01-15,有限会社共和総建,,有限会社,神奈川県,横須賀市,久里浜１丁目５番７号,,14,201,2390831,,,2024-01-15,清算の結了等,,,2015-10-05,1,,,,,キョウワソウケン,0
2777,9030001002554,登記記録の閉鎖等,0,2024-01-18,2024-01-10,ケイアイ産業株式会社,,株式会社,埼玉県,さいたま市大宮区,櫛引町１丁目２３３番地,,11,103,3300851,,,2024-01-10,清算の結了等,,,2015-10-05,1,,,,,ケイアイサンギョウ,0
2782,9030001147531,登記記録の閉鎖等,0,2024-01-18,2024-01-09,全国コインランドリー販売株式会社,,株式会社,埼玉県,所沢市,大字神米金２８２番地１,,11,208,3590005,,,2024-01-09,清算の結了等,,,2022-04-05,1,,,,,ゼンコクコインランドリーハンバイ,0
2785,9030003022393,登記記録の閉鎖等,0,2024-01-18,2024-01-10,ＩＭＡＫ合同会社,,合同会社,埼玉県,さいたま市西区,大字指扇３３４５‐２８,,11,101,3310047,,,2024-01-10,清算の結了等,,,2023-08-14,1,,,,,アイエムエイケイ,0
2790,9040001093881,登記記録の閉鎖等,0,2024-01-18,2024-01-05,株式会社ＢＢＳ　Ｊａｐａｎ,,株式会社,千葉県,千葉市花見川区,三角町１１８番地２,,12,102,2620011,,,2024-01-05,合併による解散等,2010401085851,令和６年１月１日千葉市花見川区三角町１１８番地株式会社ＢＡＮ－ＺＩ（2010401085851）に合併し解散,2016-01-29,1,,,,,ビイビイエスジャパン,0
2798,9050001006413,登記記録の閉鎖等,0,2024-01-18,2024-01-16,株式会社沼澤通信,,株式会社,茨城県,水戸市,元吉田町２７８８番地の１５,,08,201,3100836,,,2024-01-16,清算の結了等,,,2015-10-05,1,,,,,ヌマサワツウシン,0
2804,9080002010774,登記記録の閉鎖等,0,2024-01-18,2024-01-16,有限会社富田工業所,,有限会社,静岡県,静岡市清水区,横砂南町１１２２番地の１,,22,103,4240035,,,2024-01-16,清算の結了等,,,2015-10-05,1,,,,,トミタコウギョウショ,0
2815,9100001011721,登記記録の閉鎖等,0,2024-01-18,2024-01-11,株式会社トライ,,株式会社,長野県,上田市,真田町本原７５８番地１０,,20,203,3862202,,,2024-01-11,清算の結了等,,,2015-10-05,1,,,,,トライ,0
2817,9100002000293,登記記録の閉鎖等,0,2024-01-18,2024-01-11,有限会社新井大正堂,,有限会社,長野県,長野市,大字西長野２４０番地,,20,201,3800871,,,2024-01-11,清算の結了等,,,2015-10-05,1,,,,,アライタイショウドウ,0
2824,9120001108359,登記記録の閉鎖等,0,2024-01-18,2024-01-16,松葉ファイブプランニング株式会社,,株式会社,大阪府,大阪市阿倍野区,阪南町４丁目１番７－１０３号,,27,119,5450021,,,2024-01-16,清算の結了等,,,2015-10-05,1,,,,,マツバファイブプランニング,0
2831,9120002078015,登記記録の閉鎖等,0,2024-01-18,2024-01-16,有限会社池田美装,,有限会社,大阪府,守口市,佐太東町１丁目４０番３－５０１号,,27,209,5700017,,,2024-01-16,清算の結了等,,,2015-10-05,1,,,,,イケダビソウ,0
2834,9120101023805,登記記録の閉鎖等,0,2024-01-18,2024-01-15,株式会社三星油機,,株式会社,大阪府,堺市美原区,黒山４５５番地１,,27,147,5870002,,,2024-01-15,清算の結了等,,,2015-10-05,1,,,,,ミツボシユキ,0
2835,9120101025066,登記記録の閉鎖等,0,2024-01-18,2024-01-18,株式会社堺住建,,株式会社,大阪府,堺市北区,中村町２６－１,,27,146,5918012,,,2024-01-18,登記官による閉鎖,,,2015-10-05,1,,,,,,0
2836,9120101030850,登記記録の閉鎖等,0,2024-01-18,2024-01-18,株式会社金剛美建,,株式会社,大阪府,富田林市,伏山２丁目３番１６号,,27,214,5840061,,,2024-01-18,登記官による閉鎖,,,2015-10-05,1,,,,,,0
2837,9120101033894,登記記録の閉鎖等,0,2024-01-18,2024-01-18,株式会社ニシキ産業,,株式会社,大阪府,河内長野市,錦町２３番２０号,,27,216,5860031,,,2024-01-18,登記官による閉鎖,,,2015-10-05,1,,,,,,0
2838,9120101035593,登記記録の閉鎖等,0,2024-01-18,2024-01-18,株式会社三和,,株式会社,大阪府,藤井寺市,藤ケ丘４丁目１４番１２－１０６号,,27,226,5830017,,,2024-01-18,登記官による閉鎖,,,2015-10-05,1,,,,,,0
2839,9120101046723,登記記録の閉鎖等,0,2024-01-18,2024-01-18,牧野株式会社,,株式会社,大阪府,岸和田市,上野町西２番１９号,,27,202,5960048,,,2024-01-18,登記官による閉鎖,,,2015-10-05,1,,,,,,0
2841,9120102000522,登記記録の閉鎖等,0,2024-01-18,2024-01-18,有限会社牛田鉄工所,,有限会社,大阪府,堺市西区,浜寺石津町東３丁４番１９号,,27,144,5928335,,,2024-01-18,登記官による閉鎖,,,2015-10-05,1,,,,,,0
2842,9120102001512,登記記録の閉鎖等,0,2024-01-18,2024-01-16,有限会社ケイズガーデン,,有限会社,大阪府,堺市南区,茶山台３丁３８番５号,,27,145,5900115,,,2024-01-16,清算の結了等,,,2015-10-05,1,,,,,ケイズガーデン,0
2843,9120102016444,登記記録の閉鎖等,0,2024-01-18,2024-01-18,有限会社アイビー,,有限会社,大阪府,堺市西区,鳳中町１０丁６番地２エメロードおおとり３０１号,,27,144,5938327,,,2024-01-18,登記官による閉鎖,,,2015-10-05,1,,,,,,0
2844,9120102018556,登記記録の閉鎖等,0,2024-01-18,2024-01-17,関西特装車販売有限会社,,有限会社,大阪府,藤井寺市,小山５丁目５番５号,,27,226,5830033,,,2024-01-17,清算の結了等,,,2015-10-05,1,,,,,カンサイトクソウシャハンバイ,0
2845,9120105000593,登記記録の閉鎖等,0,2024-01-18,2024-01-18,サンエー深井商業協同組合,,その他の設立登記法人,大阪府,堺市中区,深井水池町３４６５番地ショッピングセンターサンエー深井店内,,27,142,5998237,,,2024-01-18,登記官による閉鎖,,,2015-10-05,1,,,,,,0
2846,9120105004586,登記記録の閉鎖等,0,2024-01-18,2024-01-18,財団法人新生会,,その他の設立登記法人,大阪府,堺市東区,引野町３丁１番地初芝グリーンハイツ１０８号,,27,143,5998104,,,2024-01-18,登記官による閉鎖,,,2015-10-05,1,,,,,,0
2847,9120105006384,登記記録の閉鎖等,0,2024-01-18,2024-01-18,アセントシーズ開発協同組合,,その他の設立登記法人,大阪府,泉佐野市,上之郷２２８２番地,,27,213,5980024,,,2024-01-18,登記官による閉鎖,,,2015-10-05,1,,,,,,0
2848,9120901008286,登記記録の閉鎖等,0,2024-01-18,2024-01-18,株式会社藤村自動車,,株式会社,大阪府,吹田市,南金田１丁目８番１３号,,27,205,5640044,,,2024-01-18,登記官による閉鎖,,,2015-10-05,1,,,,,,0
2849,9120901008633,登記記録の閉鎖等,0,2024-01-18,2024-01-18,山岡宣商株式会社,,株式会社,大阪府,吹田市,桃山台１丁目２番Ｂ１９－３０６号,,27,205,5650854,,,2024-01-18,登記官による閉鎖,,,2015-10-05,1,,,,,,0
2850,9120901009409,登記記録の閉鎖等,0,2024-01-18,2024-01-18,株式会社サンアイドラッグ,,株式会社,大阪府,摂津市,鳥飼野々１丁目３０番１号,,27,224,5660053,,,2024-01-18,登記官による閉鎖,,,2015-10-05,1,,,,,,0
2851,9120901038663,登記記録の閉鎖等,0,2024-01-18,2024-01-18,村田紙器株式会社,,株式会社,大阪府,吹田市,山田東１丁目１９番２７号,,27,205,5650821,,,2024-01-18,登記官による閉鎖,,,2017-07-04,1,,,,,,0
2853,9120902001744,登記記録の閉鎖等,0,2024-01-18,2024-01-18,有限会社横山工務店,,有限会社,大阪府,茨木市,玉瀬町４３番１１号,,27,211,5670893,,,2024-01-18,登記官による閉鎖,,,2015-10-05,1,,,,,,0
2854,9120902010885,登記記録の閉鎖等,0,2024-01-18,2024-01-18,有限会社南光工務店,,有限会社,大阪府,高槻市,松が丘２丁目１８番２３号,,27,207,5691031,,,2024-01-18,登記官による閉鎖,,,2015-10-05,1,,,,,,0
2855,9120902023004,登記記録の閉鎖等,0,2024-01-18,2024-01-18,ユーバシステム有限会社,,有限会社,大阪府,吹田市,垂水町３丁目２９番７０９号,,27,205,5640062,,,2024-01-18,登記官による閉鎖,,,2017-07-04,1,,,,,,0
2856,9120905000297,登記記録の閉鎖等,0,2024-01-18,2024-01-18,農事組合法人茨木マツシユルーム組合,00033998,その他の設立登記法人,大阪府,茨木市,下穂積４丁目４番１６号,,27,211,5670041,,,2024-01-18,登記官による閉鎖,,,2015-10-05,1,,,,,,0
2857,9120905001205,登記記録の閉鎖等,0,2024-01-18,2024-01-18,清阪農業協同組合,00034026,その他の設立登記法人,大阪府,茨木市,大字清阪６６番地,,27,211,5680081,,,2024-01-18,登記官による閉鎖,,,2015-10-05,1,,,,,,0
2858,9120905002789,登記記録の閉鎖等,0,2024-01-18,2024-01-18,大阪アート・ビルクリーン・カルチャー協同組合,,その他の設立登記法人,大阪府,吹田市,江坂町１丁目２３番１０１号,,27,205,5640063,,,2024-01-18,登記官による閉鎖,,,2015-10-05,1,,,,,,0
2860,9122001005222,登記記録の閉鎖等,0,2024-01-18,2024-01-18,株式会社永井電機,,株式会社,大阪府,東大阪市,大蓮南５丁目１１番１７号,,27,227,5770825,,,2024-01-18,登記官による閉鎖,,,2015-10-05,1,,,,,,0
2861,9122001026301,登記記録の閉鎖等,0,2024-01-18,2024-01-18,株式会社玉井興業,,株式会社,大阪府,八尾市,北本町２丁目９番１１－８０１号,,27,212,5810802,,,2024-01-18,登記官による閉鎖,,,2015-10-05,1,,,,,,0
2862,9122001032076,登記記録の閉鎖等,0,2024-01-18,2024-01-18,株式会社吉野工務店,,株式会社,大阪府,東大阪市,岸田堂北町１番１３号,,27,227,5770846,,,2024-01-18,登記官による閉鎖,,,2018-11-05,1,,,,,ヨシノコウムテン,0
2865,9122002000230,登記記録の閉鎖等,0,2024-01-18,2024-01-18,有限会社飯田トランスポートサービス,,有限会社,大阪府,東大阪市,新庄東３番３号,,27,227,5780951,,,2024-01-18,登記官による閉鎖,,,2015-10-05,1,,,,,,0
2866,9122002000569,登記記録の閉鎖等,0,2024-01-18,2024-01-18,有限会社井上建築設計事務所,,有限会社,大阪府,東大阪市,喜里川町８番６号,,27,227,5798041,,,2024-01-18,登記官による閉鎖,,,2015-10-05,1,,,,,,0
2867,9122002011038,登記記録の閉鎖等,0,2024-01-18,2024-01-18,有限会社オサダランド,,有限会社,大阪府,大東市,諸福１丁目７番１７号,,27,218,5740044,,,2024-01-18,登記官による閉鎖,,,2015-10-05,1,,,,,,0
2868,9122003000799,登記記録の閉鎖等,0,2024-01-18,2024-01-18,合同会社憩いの森,,合同会社,大阪府,東大阪市,寿町１丁目１番３５号,,27,227,5770837,,,2024-01-18,登記官による閉鎖,,,2015-10-05,1,,,,,,0
2869,9122005002439,登記記録の閉鎖等,0,2024-01-18,2024-01-18,西郡村農業協同組合,,その他の設立登記法人,大阪府,八尾市,９７３番地,,27,212,5810000,,,2024-01-18,登記官による閉鎖,,,2015-10-05,1,,,,,,0
2870,9122005002661,登記記録の閉鎖等,0,2024-01-18,2024-01-18,ＮＰＯ法人ゆず,,その他の設立登記法人,大阪府,東大阪市,池之端町７番５号,,27,227,5798002,,,2024-01-18,登記官による閉鎖,,,2015-10-05,1,,,,,,0
2879,9140001089960,登記記録の閉鎖等,0,2024-01-18,2023-12-28,株式会社Ｇｉｅｂｅｌ,,株式会社,兵庫県,伊丹市,西野６丁目２１－３,,28,207,6640028,,,2023-12-28,清算の結了等,,,2015-10-05,1,,,,,ギーベル,0
2883,9160001009140,登記記録の閉鎖等,0,2024-01-18,2024-01-18,株式会社金の鍵,,株式会社,滋賀県,近江八幡市,上野町５８番地１,,25,204,5230046,,,2024-01-18,登記官による閉鎖,,,2015-10-05,1,,,,,キンノカギ,0
2884,9160002008505,登記記録の閉鎖等,0,2024-01-18,2024-01-18,有限会社平塚石工所,,有限会社,滋賀県,愛知郡愛荘町,蚊野１４０２番地,,25,425,5291206,,,2024-01-18,登記官による閉鎖,,,2015-10-05,1,,,,,,0
2885,9160002010808,登記記録の閉鎖等,0,2024-01-18,2024-01-18,有限会社フジカラー南風,,有限会社,滋賀県,近江八幡市,中村町５番地の１２,,25,204,5230894,,,2024-01-18,登記官による閉鎖,,,2015-10-05,1,,,,,,0
2887,9160005000046,登記記録の閉鎖等,0,2024-01-18,2024-01-18,社団法人綜合企画情報研究所,,その他の設立登記法人,滋賀県,大津市,大萱１丁目１８番１４号,,25,201,5202144,,,2024-01-18,登記官による閉鎖,,,2015-10-05,1,,,,,,0
2888,9160005008799,登記記録の閉鎖等,0,2024-01-18,2024-01-18,財団法人滋賀精霊会,,その他の設立登記法人,滋賀県,守山市,吉身町５６５番地の１,,25,207,5240021,,,2024-01-18,登記官による閉鎖,,,2015-10-05,1,,,,,,0
2889,9170001000635,登記記録の閉鎖等,0,2024-01-18,2024-01-18,株式会社ガストー,,株式会社,和歌山県,和歌山市,小雑賀６００番地,,30,201,6410007,,,2024-01-18,登記官による閉鎖,,,2018-10-10,1,,,,,ガストー,0
2890,9170001000825,登記記録の閉鎖等,0,2024-01-18,2024-01-18,株式会社北川晴造商店,,株式会社,和歌山県,和歌山市,吉田６７０番地,,30,201,6408343,,,2024-01-18,登記官による閉鎖,,,2018-05-30,1,,,,,キタガワセイゾウショウテン,0
2891,9170001008744,登記記録の閉鎖等,0,2024-01-18,2024-01-18,太陽観光開発株式会社,,株式会社,和歌山県,田辺市,目良３２番６７号,,30,206,6460058,,,2024-01-18,登記官による閉鎖,,,2015-10-05,1,,,,,,0
2892,9170002004338,登記記録の閉鎖等,0,2024-01-18,2024-01-18,有限会社ワンロマン,,有限会社,和歌山県,和歌山市,上野町１丁目１番地,,30,201,6408242,,,2024-01-18,登記官による閉鎖,,,2015-10-05,1,,,,,,0
2893,9170002005641,登記記録の閉鎖等,0,2024-01-18,2024-01-18,明日葉有限会社,,有限会社,和歌山県,和歌山市,小瀬田７９番地の１,,30,201,6400323,,,2024-01-18,登記官による閉鎖,,,2015-10-05,1,,,,,,0
2894,9170002007571,登記記録の閉鎖等,0,2024-01-18,2024-01-18,有限会社仲尾縫製,,有限会社,和歌山県,和歌山市,冬野１２５７番地の３,,30,201,6400332,,,2024-01-18,登記官による閉鎖,,,2015-10-05,1,,,,,,0
2895,9170005002405,登記記録の閉鎖等,0,2024-01-18,2024-01-18,ブラザ協同組合,,その他の設立登記法人,和歌山県,和歌山市,市小路１０９番地,,30,201,6408464,,,2024-01-18,登記官による閉鎖,,,2015-10-05,1,,,,,,0
2899,9180001007539,登記記録の閉鎖等,0,2024-01-18,2024-01-12,明松工業株式会社,,株式会社,愛知県,名古屋市港区,川園２丁目１３１番地,,23,111,4550856,,,2024-01-12,清算の結了等,,,2015-10-05,1,,,,,メイショウコウギョウ,0
2922,9190001019748,登記記録の閉鎖等,0,2024-01-18,2024-01-16,株式会社ダイシン,,株式会社,三重県,松阪市,田村町４３６番地３,,24,204,5150055,,,2024-01-16,清算の結了等,,,2015-10-05,1,,,,,ダイシン,0
2923,9190002013477,登記記録の閉鎖等,0,2024-01-18,2024-01-18,有限会社山本産業,,有限会社,大阪府,八尾市,福万寺町南４番地の８,,27,212,5810000,,,2024-01-18,登記官による閉鎖,,,2015-10-05,1,,,,,,0
2934,9230001005611,登記記録の閉鎖等,0,2024-01-18,2024-01-18,魚谷商店株式会社,,株式会社,富山県,富山市,森住町１７番６号,,16,201,9318331,,,2024-01-18,登記官による閉鎖,,,2015-10-05,1,,,,,,0
2935,9230001014265,登記記録の閉鎖等,0,2024-01-18,2024-01-18,株式会社アクアプライズ,,株式会社,富山県,富山市,八尾町翠尾１６５番地,,16,201,9392371,,,2024-01-18,登記官による閉鎖,,,2015-10-05,1,,,,,,0
2938,9230001017474,登記記録の閉鎖等,0,2024-01-18,2024-01-16,オーレス株式会社,,株式会社,富山県,富山市,堀川小泉町１丁目４－１２・２Ｆ,,16,201,9398081,,,2024-01-16,清算の結了等,,,2018-06-13,1,,,,,オーレス,0
2940,9230002008150,登記記録の閉鎖等,0,2024-01-18,2024-01-15,有限会社ハウジングセンター・ダイマル,,有限会社,富山県,黒部市,堀高５番地の４,,16,207,9380023,,,2024-01-15,清算の結了等,,,2015-10-05,1,,,,,,0
2941,9230005002002,登記記録の閉鎖等,0,2024-01-18,2024-01-18,社団法人日本経済法律研究会,,その他の設立登記法人,富山県,富山市,荒町１８番地,,16,201,9300028,,,2024-01-18,登記官による閉鎖,,,2015-10-05,1,,,,,,0
2942,9230005002010,登記記録の閉鎖等,0,2024-01-18,2024-01-18,財団法人呉羽総合農場,,その他の設立登記法人,富山県,富山市,金屋６９０５番地,,16,201,9300873,,,2024-01-18,登記官による閉鎖,,,2015-10-05,1,,,,,,0
2943,9230005005269,登記記録の閉鎖等,0,2024-01-18,2024-01-18,財団法人中越育英会,,その他の設立登記法人,富山県,砺波市,中神６７３番地,,16,208,9391344,,,2024-01-18,登記官による閉鎖,,,2015-10-05,1,,,,,,0
2944,9230005007001,登記記録の閉鎖等,0,2024-01-18,2024-01-18,社団法人氷見市医師会臨床検査センター,,その他の設立登記法人,富山県,氷見市,南上４９番地,,16,205,9350000,,,2024-01-18,登記官による閉鎖,,,2015-10-05,1,,,,,,0
2946,9240001016673,登記記録の閉鎖等,0,2024-01-18,2024-01-11,株式会社リンクロード,,株式会社,広島県,広島市南区,京橋町５番１４号サンエールビル２階,,34,103,7320828,,,2024-01-11,合併による解散等,7010001146074,令和６年１月１日東京都千代田区丸の内一丁目８番３号株式会社アウトソーシングテクノロジー（7010001146074）に合併し解散,2015-10-05,1,,,,,リンクロード,0
2992,9360005003615,登記記録の閉鎖等,0,2024-01-18,2024-01-18,農事組合法人平久保牧野組合,,その他の設立登記法人,大阪府,吹田市,江坂町１丁目２３番１０１号大同生命江坂ビル１２階,,27,205,5640063,,,2024-01-18,登記官による閉鎖,,,2015-10-05,1,,,,,,0
3002,9420002018213,登記記録の閉鎖等,0,2024-01-18,2024-01-12,有限会社八戸北家,,有限会社,青森県,上北郡おいらせ町,向山東１丁目２８６１番地１４,,02,412,0392152,,,2024-01-12,清算の結了等,,,2015-10-05,1,,,,,ハチノヘキタヤ,0
3006,9430002057103,登記記録の閉鎖等,0,2024-01-18,2024-01-05,有限会社中山技建,,有限会社,北海道,虻田郡ニセコ町,字黒川１３４番地,,01,395,0481553,,,2024-01-05,清算の結了等,,,2015-10-05,1,,,,,,0
3012,9450001000136,登記記録の閉鎖等,0,2024-01-18,2024-01-18,株式会社あど社,,株式会社,北海道,旭川市,忠和四条８丁目７番１２号,,01,204,0708044,,,2024-01-18,登記官による閉鎖,,,2015-10-05,1,,,,,,0
3013,9450001000689,登記記録の閉鎖等,0,2024-01-18,2024-01-18,株式会社岡田工務店,,株式会社,北海道,旭川市,忠和六条７丁目２番２３号,,01,204,0708046,,,2024-01-18,登記官による閉鎖,,,2015-10-05,1,,,,,,0
3014,9450001005408,登記記録の閉鎖等,0,2024-01-18,2024-01-18,そんぽサービス株式会社,,株式会社,北海道,旭川市,豊岡十三条５丁目５番地９,,01,204,0788243,,,2024-01-18,登記官による閉鎖,,,2015-10-05,1,,,,,,0
3015,9450001007453,登記記録の閉鎖等,0,2024-01-18,2024-01-18,株式会社大信開発,,株式会社,北海道,旭川市,神楽五条５丁目３番１９号,,01,204,0708005,,,2024-01-18,登記官による閉鎖,,,2015-10-05,1,,,,,,0
3016,9450001007957,登記記録の閉鎖等,0,2024-01-18,2024-01-18,株式会社士別瀬野鉄工,,株式会社,北海道,上川郡剣淵町,西町２番２号,,01,465,0980331,,,2024-01-18,登記官による閉鎖,,,2015-10-05,1,,,,,シベツセノテッコウ,0
3017,9450002003781,登記記録の閉鎖等,0,2024-01-18,2024-01-18,有限会社トータルプロ企画,,有限会社,北海道,旭川市,東鷹栖四線十号４番地１１,,01,204,0718154,,,2024-01-18,登記官による閉鎖,,,2015-10-05,1,,,,,,0
3018,9450002011330,登記記録の閉鎖等,0,2024-01-18,2024-01-18,丸サ笹内建設有限会社,,有限会社,北海道,天塩郡豊富町,字上サロベツ西十四線３１２番地,,01,516,0984100,,,2024-01-18,登記官による閉鎖,,,2015-10-05,1,,,,,,0
3019,9450002012634,登記記録の閉鎖等,0,2024-01-18,2024-01-18,有限会社佐藤左官,,有限会社,北海道,紋別市,緑町４丁目１４番８号,,01,219,0940014,,,2024-01-18,登記官による閉鎖,,,2015-10-05,1,,,,,,0
3020,9450005004141,登記記録の閉鎖等,0,2024-01-18,2024-01-18,上勇知第壹農事実行組合,,その他の設立登記法人,北海道,稚内市,大字抜海村字上勇知,,01,214,0984581,,,2024-01-18,登記官による閉鎖,,,2017-12-22,1,,,,,カミユウチダイイチ,0
3021,9450005004190,登記記録の閉鎖等,0,2024-01-18,2024-01-18,音江村第拾農事實行組合,,その他の設立登記法人,北海道,深川市,音江町字更進,,01,228,0741161,,,2024-01-18,登記官による閉鎖,,,2019-01-07,1,,,,,オトエムラダイジュウ,0
3022,9460002000167,登記記録の閉鎖等,0,2024-01-18,2024-01-18,有限会社阿寒ミンク場,,有限会社,北海道,釧路市,阿寒町富士見３丁目１８番２号,,01,206,0850214,,,2024-01-18,登記官による閉鎖,,,2015-10-05,1,,,,,,0
3024,9462502000613,登記記録の閉鎖等,0,2024-01-18,2024-01-18,有限会社弘建設,,有限会社,北海道,目梨郡羅臼町,富士見町８８番地１,,01,694,0861831,,,2024-01-18,登記官による閉鎖,,,2015-10-05,1,,,,,,0
