sequenceNumber,corporateNumber,process,correct,updateDate,changeDate,name,nameImageId,kind,prefectureName,cityName,streetNumber,addressImageId,prefectureCode,cityCode,postCode,addressOutside,addressOutsideImageId,closeDate,closeCause,successorCorporateNumber,changeCause,assignmentDate,latest,enName,enPrefectureName,enCityName,enAddressOutside,furigana,hihyoji
5,1010001251128,新規,0,2025-01-09,2025-01-09,ＤＯ株式会社,,株式会社,東京都,中央区,銀座１丁目１２番４号Ｎ＆ＥＢＬＤ．６Ｆ,,13,102,1040061,,,,,,,2025-01-09,1,,,,,ドゥ,0
6,1010001251144,新規,0,2025-01-09,2025-01-09,株式会社匠美,,株式会社,東京都,中央区,銀座１丁目２２番１１号銀座大竹ビジデンス２Ｆ,,13,102,1040061,,,,,,,2025-01-09,1,,,,,タクミ,0
7,1010001251169,新規,0,2025-01-09,2025-01-09,株式会社ＴＨＥ　ＢＡＬＭ　ＴＯＫＹＯ,,株式会社,東京都,中央区,銀座２丁目１１番１９号足柄ビル２Ｆ,,13,102,1040061,,,,,,,2025-01-09,1,,,,,ザバームトウキョウ,0
8,1010001251177,新規,0,2025-01-09,2025-01-09,株式会社ＢＫＳ,,株式会社,東京都,中央区,銀座１丁目１２番４号Ｎ＆ＥＢＬＤ．６Ｆ,,13,102,1040061,,,,,,,2025-01-09,1,,,,,ビーケーエス,0
9,1010001251235,新規,0,2025-01-09,2025-01-09,株式会社ＳＯＬＩＺＥ分割準備会社２,,株式会社,東京都,千代田区,三番町６番３号,,13,101,1020075,,,,,,,2025-01-09,1,,,,,ソライズブンカツジュンビガイシャニ,0
12,1010003045908,新規,0,2025-01-09,2025-01-09,合同会社Ａｒｃ　Ｔｒａｖｅｌ　Ａｇｅｎｃｙ,,合同会社,東京都,中央区,晴海５丁目５番３－９１５号,,13,102,1040053,,,,,,,2025-01-09,1,,,,,アークトラベルエージェンシー,0
13,1010003045949,新規,0,2025-01-09,2025-01-09,合同会社Ｎｕｋｉ　Ｗｏｒｌｄ　Ｔｒａｄｅ　Ｃｏｍｐａｎｙ,,合同会社,東京都,千代田区,麹町４丁目４番地４ＡＣＮ麹町ビル１２階,,13,101,1020083,,,,,,,2025-01-09,1,,,,,ヌキワールドトレードカンパニー,0
14,1010003045957,新規,0,2025-01-09,2025-01-09,合同会社エスエフレジ１,,合同会社,東京都,千代田区,神田神保町１丁目１１番地さくら綜合事務所内,,13,101,1010051,,,,,,,2025-01-09,1,,,,,エスエフレジワン,0
16,1010005039379,新規,0,2025-01-09,2025-01-09,一般社団法人アジアみらい文化交流協会,,その他の設立登記法人,東京都,千代田区,神田佐久間河岸８２番地５ＨＲＭ本社ビル,,13,101,1010026,,,,,,,2025-01-09,1,,,,,アジアミライブンカコウリュウキョウカイ,0
28,1010401187335,新規,0,2025-01-09,2025-01-09,プライムコード株式会社,,株式会社,東京都,港区,愛宕２丁目５番１号愛宕グリーンヒルズＭＯＲＩタワー２７階,,13,103,1050002,,,,,,,2025-01-09,1,,,,,プライムコード,0
29,1010401187418,新規,0,2025-01-09,2025-01-09,株式会社Ｔｏｐ　Ｅｆｆｉｃｉｅｎｃｙ　Ｔｅａｍ,,株式会社,東京都,港区,麻布十番１丁目５番１０号,,13,103,1060045,,,,,,,2025-01-09,1,,,,,トップエフィシェンシーチーム,0
30,1010401187434,新規,0,2025-01-09,2025-01-09,日本フリークギターラボ株式会社,,株式会社,東京都,港区,芝大門２丁目１番１６号,,13,103,1050012,,,,,,,2025-01-09,1,,,,,ニホンフリークギターラボ,0
31,1010401187467,新規,0,2025-01-09,2025-01-09,株式会社ＢＡＣＫＦＬＩＰ,,株式会社,東京都,港区,赤坂２丁目１４番３１号ウィンド赤坂ビル４Ｆ,,13,103,1070052,,,,,,,2025-01-09,1,,,,,バックフリップ,0
33,1010403034114,新規,0,2025-01-09,2025-01-09,合同会社Ｌｅａｒｎｉｎｇ　Ｔｈｒｏｕｇｈ　Ｐｌａｙ,,合同会社,東京都,港区,南青山３丁目１番３６号青山丸竹ビル６Ｆ,,13,103,1070062,,,,,,,2025-01-09,1,,,,,ラーニングスループレイ,0
34,1010403034122,新規,0,2025-01-09,2025-01-09,ＣｕｒｅＬｉｎｋ合同会社,,合同会社,東京都,港区,北青山１丁目３－１－３Ｆ,,13,103,1070061,,,,,,,2025-01-09,1,,,,,キュアリンク,0
35,1010403034130,新規,0,2025-01-09,2025-01-09,合同会社Ｒａｂｉ,,合同会社,東京都,港区,白金１丁目１４－３出雲白金７０２,,13,103,1080072,,,,,,,2025-01-09,1,,,,,ラビ,0
37,1010501053395,新規,0,2025-01-09,2025-01-09,＿禧株式会社,00137565,株式会社,東京都,台東区,上野６丁目７－１６川久保ビル８０６号室,,13,106,1100005,,,,,,,2025-01-09,1,,,,,トウキ,0
39,1010501053453,新規,0,2025-01-09,2025-01-09,ビューポイント株式会社,,株式会社,東京都,台東区,上野４丁目１番５号,,13,106,1100005,,,,,,,2025-01-09,1,,,,,ビューポイント,0
40,1010503007696,新規,0,2025-01-09,2025-01-09,合同会社グローバル・リキューハ,,合同会社,東京都,台東区,上野２丁目１２番１１号３Ｆ,,13,106,1100005,,,,,,,2025-01-09,1,,,,,グローバルリキューハ,0
42,1010703007521,新規,0,2025-01-09,2025-01-09,ＴＡＮＤＹ合同会社,,合同会社,東京都,品川区,東五反田５丁目１１番１７－２０２号,,13,109,1410022,,,,,,,2025-01-09,1,,,,,タンディ,0
44,1010901056618,新規,0,2025-01-09,2025-01-09,株式会社ＴＮＢ,,株式会社,東京都,世田谷区,野沢１丁目３５番７号,,13,112,1540003,,,,,,,2025-01-09,1,,,,,ティーエヌビー,0
45,1010903009631,新規,0,2025-01-09,2025-01-09,合同会社ＬＩＴＭＵＳ,,合同会社,東京都,世田谷区,玉川３丁目１２番４号,,13,112,1580094,,,,,,,2025-01-09,1,,,,,リトマス,0
49,1011001166786,新規,0,2025-01-09,2025-01-09,株式会社Ａｕｒｅｏｎ,,株式会社,東京都,渋谷区,恵比寿西２丁目４－８ウィンド恵比寿ビル８Ｆ,,13,113,1500021,,,,,,,2025-01-09,1,,,,,オリオン,0
52,1011003020702,新規,0,2025-01-09,2025-01-09,合同会社ルートダン,,合同会社,東京都,渋谷区,千駄ヶ谷２丁目７番５号,,13,113,1510051,,,,,,,2025-01-09,1,,,,,,0
53,1011003020768,新規,0,2025-01-09,2025-01-09,ＯＲＴＨＯＫ合同会社,,合同会社,東京都,渋谷区,千駄ヶ谷２丁目８―７,,13,113,1510051,,,,,,,2025-01-09,1,,,,,オルソック,0
58,1011101110017,新規,0,2025-01-09,2025-01-09,株式会社ＰＯＮＰＯＮ,,株式会社,東京都,新宿区,白銀町２番１－１０６号,,13,104,1620816,,,,,,,2025-01-09,1,,,,,ポンポン,0
60,1011301030254,新規,0,2025-01-09,2025-01-09,株式会社ＢＣＧ,,株式会社,東京都,杉並区,天沼２丁目６番１２号,,13,115,1670032,,,,,,,2025-01-09,1,,,,,ビジネスコンサルティンググループ,0
62,1011501031572,新規,0,2025-01-09,2025-01-09,株式会社八広,,株式会社,東京都,北区,滝野川３丁目１９番７号,,13,117,1140023,,,,,,,2025-01-09,1,,,,,ヤヒロ,0
63,1012301014222,新規,0,2025-01-09,2025-01-09,株式会社ビューティフルミュージックライフ,,株式会社,東京都,町田市,金井３丁目２３番地２,,13,209,1950072,,,,,,,2025-01-09,1,,,,,ビューティフルミュージックライフ,0
68,1012403006902,新規,0,2025-01-09,2025-01-09,ｅｎｔａｎｇｌｅ合同会社,,合同会社,東京都,府中市,宮西町２丁目４番地の４ザ・パークハウス府中９０３,,13,206,1830022,,,,,,,2025-01-09,1,,,,,エンタングル,0
69,1013101009602,新規,0,2025-01-09,2025-01-09,ＫＯＳＥ株式会社,,株式会社,東京都,福生市,大字福生８６７－１５グレース福生１Ｆ,,13,218,1970011,,,,,,,2025-01-09,1,,,,,コーセー,0
71,1013301053581,新規,0,2025-01-09,2025-01-09,国際梁株式会社,,株式会社,東京都,豊島区,池袋３丁目４４－１１大松ビル１０３室,,13,116,1710014,,,,,,,2025-01-09,1,,,,,コクサイリョウ,0
72,1013303007461,新規,0,2025-01-09,2025-01-09,合同会社劇団東京倶楽部,,合同会社,東京都,豊島区,高松２丁目２５番１５号,,13,116,1710042,,,,,,,2025-01-09,1,,,,,ゲキダントウキョウクラブ,0
79,1020001160823,新規,0,2025-01-09,2025-01-09,株式会社エス・アイ・シー,,株式会社,神奈川県,横浜市旭区,川島町２９８１番地１０,,14,112,2410011,,,,,,,2025-01-09,1,,,,,エスアイシー,0
80,1020001160848,新規,0,2025-01-09,2025-01-09,株式会社幸心,,株式会社,神奈川県,横浜市磯子区,森４丁目１番８号,,14,107,2350023,,,,,,,2025-01-09,1,,,,,ココ,0
83,1020003027517,新規,0,2025-01-09,2025-01-09,合同会社ナゴイ,,合同会社,神奈川県,川崎市宮前区,宮崎３丁目１０番地８フラワーリー宮崎台３０５,,14,136,2160033,,,,,,,2025-01-09,1,,,,,ナゴイ,0
84,1020003027624,新規,0,2025-01-09,2025-01-09,合同会社ｍｅｌｏｃｏｔｏｎ,,合同会社,神奈川県,横浜市西区,浅間町１丁目４－３ウィザードビル４０２,,14,103,2200072,,,,,,,2025-01-09,1,,,,,メロコトン,0
89,1021001084194,新規,0,2025-01-09,2025-01-09,株式会社ＲＡＫＵＡＮ,,株式会社,神奈川県,鎌倉市,坂ノ下１６－１１,,14,204,2480021,,,,,,,2025-01-09,1,,,,,ラクアン,0
91,1021003015420,新規,0,2025-01-09,2025-01-09,合同会社ヌサンタラジャパン,,合同会社,神奈川県,茅ヶ崎市,円蔵１丁目２１番３０－３号,,14,207,2530084,,,,,,,2025-01-09,1,,,,,ヌサンタラジャパン,0
92,1021003015429,新規,0,2025-01-09,2025-01-09,ＡＫＤ　Ｈｏｌｄｉｎｇｓ合同会社,,合同会社,神奈川県,鎌倉市,長谷１丁目１１番５１号,,14,204,2480016,,,,,,,2025-01-09,1,,,,,エーケイディホールディングス,0
93,1021003015437,新規,0,2025-01-09,2025-01-09,合同会社ＣＯＮＮＥＣＴ,,合同会社,神奈川県,藤沢市,辻堂東海岸１丁目６番２７号,,14,205,2510045,,,,,,,2025-01-09,1,,,,,コネクト,0
99,1030001164154,新規,0,2025-01-09,2025-01-09,株式会社颯,,株式会社,埼玉県,秩父市,滝の上町８番２９号,,11,207,3680012,,,,,,,2025-01-09,1,,,,,ハヤテ,0
100,1030001164253,新規,0,2025-01-09,2025-01-09,ダンデライオンホールディングス株式会社,,株式会社,埼玉県,さいたま市大宮区,大門町２丁目２２番１号ＴＡｉＧＡビル５階,,11,103,3300846,,,,,,,2025-01-09,1,,,,,ダンデライオンホールディングス,0
101,1030001164261,新規,0,2025-01-09,2025-01-09,株式会社古着．ＮＥＴ,,株式会社,埼玉県,川口市,朝日６丁目６－１８,,11,203,3320001,,,,,,,2025-01-09,1,,,,,フルギドットネット,0
102,1030001164278,新規,0,2025-01-09,2025-01-09,株式会社ｓａｎｆｏｒｔ,,株式会社,埼玉県,幸手市,大字上高野２１０７番地５,,11,240,3400155,,,,,,,2025-01-09,1,,,,,サンフォート,0
103,1030001164286,新規,0,2025-01-09,2025-01-09,株式会社Ｔ．Ｋ．ｃｏｍｐａｎｙ,,株式会社,埼玉県,さいたま市見沼区,大和田町１丁目１０００番地１,,11,104,3370053,,,,,,,2025-01-09,1,,,,,ティーケイカンパニー,0
104,1030001164303,新規,0,2025-01-09,2025-01-09,株式会社ユニコーン,,株式会社,埼玉県,北足立郡伊奈町,中央４丁目２１５番地,,11,301,3620809,,,,,,,2025-01-09,1,,,,,ユニコーン,0
105,1030001164344,新規,0,2025-01-09,2025-01-09,株式会社カラリダ,,株式会社,埼玉県,さいたま市南区,別所５丁目１５番地２,,11,108,3360021,,,,,,,2025-01-09,1,,,,,カラリダ,0
106,1030003025833,新規,0,2025-01-09,2025-01-09,Ｋｏｔｏｒｉｔａ合同会社,,合同会社,埼玉県,上尾市,西宮下４丁目２２９番地,,11,219,3620043,,,,,,,2025-01-09,1,,,,,コトリータ,0
111,1040001136870,新規,0,2025-01-09,2025-01-09,株式会社Ｌｉｖｅ　Ｌｉｆｅ　Ｃａｒｅ,,株式会社,千葉県,市原市,牛久４７番地１,,12,219,2900225,,,,,,,2025-01-09,1,,,,,リブライフケア,0
112,1040001136895,新規,0,2025-01-09,2025-01-09,株式会社ビーグラッゾ,,株式会社,千葉県,市川市,曽谷１丁目１０番９号,,12,203,2720832,,,,,,,2025-01-09,1,,,,,ビーグラッゾ,0
113,1040001136937,新規,0,2025-01-09,2025-01-09,株式会社ＬＵＮＮＡＫＯ,,株式会社,千葉県,白井市,根１７２９－１,,12,232,2701431,,,,,,,2025-01-09,1,,,,,ルナコ,0
118,1040003026574,新規,0,2025-01-09,2025-01-09,合同会社ＡｓｓｉｓＳｔｏｒｅ,,合同会社,千葉県,鎌ケ谷市,東中沢２丁目１８－７７,,12,224,2730112,,,,,,,2025-01-09,1,,,,,アシスストア,0
122,1060001037803,新規,0,2025-01-09,2025-01-09,茉桜電機株式会社,,株式会社,栃木県,河内郡上三川町,大字上三川３３９２番地１,,09,301,3290611,,,,,,,2025-01-09,1,,,,,マツオデンキ,0
125,1070001042513,新規,0,2025-01-09,2025-01-09,株式会社Ｍｉｎｔ,,株式会社,群馬県,館林市,栄町１９番１号レオネクストノーム２０４号室,,10,207,3740052,,,,,,,2025-01-09,1,,,,,ミント,0
126,1070001042521,新規,0,2025-01-09,2025-01-09,共栄土建株式会社,,株式会社,群馬県,沼田市,白沢町高平１３１６番地３,,10,206,3780121,,,,,,,2025-01-09,1,,,,,キョウエイドケン,0
127,1070003005740,新規,0,2025-01-09,2025-01-09,合同会社ＡＣＲＣ,,合同会社,群馬県,伊勢崎市,山王町１番地３８,,10,204,3720831,,,,,,,2025-01-09,1,,,,,エーシーアールシー,0
129,1080001026705,新規,0,2025-01-09,2025-01-09,株式会社ＫＯＫＯ,,株式会社,静岡県,静岡市葵区,栄町２番地５,,22,101,4200859,,,,,,,2025-01-09,1,,,,,ココ,0
130,1080401027666,新規,0,2025-01-09,2025-01-09,西澤会計株式会社,,株式会社,静岡県,湖西市,鷲津３３８７番地,,22,221,4310431,,,,,,,2025-01-09,1,,,,,ニシザワカイケイ,0
132,1090001019071,新規,0,2025-01-09,2025-01-09,株式会社飛進隊,,株式会社,山梨県,都留市,鹿留３２１番地３,,19,204,4020032,,,,,,,2025-01-09,1,,,,,ヒシンタイ,0
136,1100001038202,新規,0,2025-01-09,2025-01-09,株式会社Ｐｈｉｌｏｓｏｍｎｉａ,,株式会社,長野県,北佐久郡軽井沢町,大字長倉２１４７番地７６９,,20,321,3890111,,,,,,,2025-01-09,1,,,,,フィロソムニア,0
139,1110001038977,新規,0,2025-01-09,2025-01-09,ＭＡＹ　ＷＩＮＴ　ＳＥＲＶＩＣＥＳ　ＪＡＰＡＮ株式会社,,株式会社,新潟県,新潟市中央区,西湊町通１ノ町２６９３番地,,15,103,9518026,,,,,,,2025-01-09,1,,,,,メイウインサービスジャパン,0
140,1110001038985,新規,0,2025-01-09,2025-01-09,株式会社ワイズファーム,,株式会社,新潟県,上越市,大和４丁目１２番２７号,,15,222,9430861,,,,,,,2025-01-09,1,,,,,ワイズファーム,0
144,1110003005629,新規,0,2025-01-09,2025-01-09,合同会社ヨナオシ,,合同会社,新潟県,新潟市東区,豊１丁目１３番１９号エムズリッシュ３０１号,,15,102,9500812,,,,,,,2025-01-09,1,,,,,ヨナオシ,0
157,1120001271494,新規,0,2025-01-09,2025-01-09,へそ株式会社,,株式会社,大阪府,大阪市北区,天神橋２丁目４‐１７地下１階,,27,127,5300041,,,,,,,2025-01-09,1,,,,,ヘソ,0
158,1120001271619,新規,0,2025-01-09,2025-01-09,株式会社Ｒ‐Ｅラボ,,株式会社,大阪府,大阪市中央区,森ノ宮中央２丁目４－７永田ビル本館１０２号,,27,128,5400003,,,,,,,2025-01-09,1,,,,,アールイーラボ,0
159,1120001271635,新規,0,2025-01-09,2025-01-09,株式会社ＪＩＮ,,株式会社,大阪府,大阪市北区,梅田１丁目１番３号大阪駅前第３ビル２９階１－１－１号室,,27,127,5300001,,,,,,,2025-01-09,1,,,,,ジャパンイノベーションネットワーク,0
160,1120001271643,新規,0,2025-01-09,2025-01-09,株式会社アドサカス,,株式会社,大阪府,大阪市中央区,備後町３丁目６番２号,,27,128,5410051,,,,,,,2025-01-09,1,,,,,アドサカス,0
161,1120001271676,新規,0,2025-01-09,2025-01-09,株式会社イレブン創建,,株式会社,大阪府,大阪市中央区,東高麗橋２番３７－３０１号,,27,128,5400039,,,,,,,2025-01-09,1,,,,,イレブンソウケン,0
162,1120001271718,新規,0,2025-01-09,2025-01-09,宥宥株式会社,,株式会社,大阪府,大阪市西区,江之子島２丁目２－２１レジスコート阿波座３０１号,,27,106,5500006,,,,,,,2025-01-09,1,,,,,ユウユウ,0
163,1120001271767,新規,0,2025-01-09,2025-01-09,株式会社大阪恵比寿商会,,株式会社,大阪府,大阪市北区,梅田１丁目２番２号大阪駅前第２ビル１２‐１２,,27,127,5300001,,,,,,,2025-01-09,1,,,,,オオサカエビスショウカイ,0
165,1120003028307,新規,0,2025-01-09,2025-01-09,合同会社Ｋ２,,合同会社,大阪府,大阪市平野区,長吉出戸４丁目４番５４号,,27,126,5470011,,,,,,,2025-01-09,1,,,,,ケーツー,0
166,1120005024700,新規,0,2025-01-09,2025-01-09,一般社団法人ジャパン・ペアダンス協会,,その他の設立登記法人,大阪府,大阪市中央区,南船場１丁目１３番２９－１００１号,,27,128,5420081,,,,,,,2025-01-09,1,,,,,ジャパンペアダンスキョウカイ,0
170,1120103006220,新規,0,2025-01-09,2025-01-09,合同会社Ｋｅｎｙｕ　Ｐａｒｔｎｅｒｓ,,合同会社,大阪府,堺市北区,常磐町２丁２番地１０,,27,146,5918001,,,,,,,2025-01-09,1,,,,,ケンユウパートナーズ,0
171,1120901050279,新規,0,2025-01-09,2025-01-09,株式会社ムダラボ,,株式会社,大阪府,高槻市,日吉台六番町３９番１９号,,27,207,5691022,,,,,,,2025-01-09,1,,,,,ムダラボ,0
174,1130003010123,新規,0,2025-01-09,2025-01-09,ｃｈｉｃ合同会社,,合同会社,京都府,京都市伏見区,醍醐大畑町１７３番地,,26,109,6011303,,,,,,,2025-01-09,1,,,,,シック,0
175,1130005017265,新規,0,2025-01-09,2025-01-09,医療法人のぶはらクリニック,,その他の設立登記法人,京都府,京丹後市,峰山町新町３２１番地,,26,212,6270005,,,,,,,2025-01-09,1,,,,,ノブハラクリニック,0
181,1140001136919,新規,0,2025-01-09,2025-01-09,河原工業株式会社,,株式会社,兵庫県,姫路市,四郷町山脇４５０番地２０,,28,201,6710248,,,,,,,2025-01-09,1,,,,,カワハラコウギョウ,0
182,1140001136968,新規,0,2025-01-09,2025-01-09,株式会社フロンティアプラス,,株式会社,兵庫県,明石市,魚住町住吉３丁目１２４４－２－１Ｆ,,28,203,6740083,,,,,,,2025-01-09,1,,,,,フロンティアプラス,0
183,1140001137009,新規,0,2025-01-09,2025-01-09,株式会社ＢＲＥＡＤ　ＭＡＮ,,株式会社,兵庫県,神戸市垂水区,高丸８丁目１３－１２,,28,108,6550016,,,,,,,2025-01-09,1,,,,,ブレッドマン,0
184,1140001137041,新規,0,2025-01-09,2025-01-09,株式会社神都商会,,株式会社,兵庫県,神戸市兵庫区,荒田町１丁目９番３号,,28,105,6520032,,,,,,,2025-01-09,1,,,,,シントショウカイ,0
187,1140003021508,新規,0,2025-01-09,2025-01-09,ポートビジネスコンサルティング合同会社,,合同会社,兵庫県,西宮市,桜町１－２０－３１１,,28,204,6620071,,,,,,,2025-01-09,1,,,,,ポートビジネスコンサルティング,0
188,1160001026473,新規,0,2025-01-09,2025-01-09,ＴＫ株式会社,,株式会社,滋賀県,愛知郡愛荘町,市１４８５番地１,,25,425,5291313,,,,,,,2025-01-09,1,,,,,ティケイ,0
195,1180001164759,新規,0,2025-01-09,2025-01-09,株式会社ワキテック,,株式会社,愛知県,名古屋市天白区,向が丘１丁目１２１２番地,,23,116,4680012,,,,,,,2025-01-09,1,,,,,ワキテック,0
196,1180001164783,新規,0,2025-01-09,2025-01-09,株式会社Ｗｍｂｆ,,株式会社,愛知県,名古屋市名東区,高針荒田１６０７番地,,23,115,4650069,,,,,,,2025-01-09,1,,,,,ダブルエムビーエフ,0
197,1180001164791,新規,0,2025-01-09,2025-01-09,株式会社ビクトリー,,株式会社,愛知県,知多郡東浦町,大字生路字森腰６１番地の２,,23,442,4702104,,,,,,,2025-01-09,1,,,,,ビクトリー,0
198,1180001164800,新規,0,2025-01-09,2025-01-09,株式会社ＣＨＬ,,株式会社,愛知県,名古屋市西区,牛島町６番１号名古屋ルーセントタワー４０階,,23,104,4510046,,,,,,,2025-01-09,1,,,,,シーエイチエル,0
199,1180001164809,新規,0,2025-01-09,2025-01-09,株式会社ＡＧＫ,,株式会社,愛知県,名古屋市緑区,万場山２丁目８０９番地３,,23,114,4580043,,,,,,,2025-01-09,1,,,,,エージーケー,0
200,1180001164817,新規,0,2025-01-09,2025-01-09,株式会社ＣＯＲＲＥＣＴ,,株式会社,愛知県,名古屋市中村区,太閤３丁目７番７６号ジユウノハコ,,23,105,4530801,,,,,,,2025-01-09,1,,,,,コレクト,0
201,1180001164825,新規,0,2025-01-09,2025-01-09,株式会社ＢＩＮＧＯ,,株式会社,愛知県,名古屋市中村区,名駅３丁目４番１０号アルティメイト名駅１ｓｔ・２階,,23,105,4500002,,,,,,,2025-01-09,1,,,,,ビンゴ,0
202,1180001164874,新規,0,2025-01-09,2025-01-09,株式会社ＣＨＡＲＭＥＲ,,株式会社,愛知県,清須市,西枇杷島町南六軒１４番地８レフィシア枇杷島３０１,,23,233,4520044,,,,,,,2025-01-09,1,,,,,シャルメ,0
205,1180003027773,新規,0,2025-01-09,2025-01-09,合同会社ＲＡＢＯＮＡ,,合同会社,愛知県,半田市,青山３丁目２－１８－３０８,,23,205,4750836,,,,,,,2025-01-09,1,,,,,ラボーナ,0
206,1180003027831,新規,0,2025-01-09,2025-01-09,合同会社大笑,,合同会社,愛知県,名古屋市中区,新栄２丁目８番地９加藤ビル１階,,23,106,4600007,,,,,,,2025-01-09,1,,,,,タイショウ,0
211,1200001043308,新規,0,2025-01-09,2025-01-09,株式会社コアストーン,,株式会社,岐阜県,大垣市,昼飯町３８８番地２１,,21,202,5032216,,,,,,,2025-01-09,1,,,,,コアストーン,0
218,1240001064366,新規,0,2025-01-09,2025-01-09,株式会社五日市場,,株式会社,広島県,広島市中区,大手町１丁目１－２０相生橋ビル７階Ａ号室,,34,101,7300051,,,,,,,2025-01-09,1,,,,,イツカイチバ,0
225,1250005008970,新規,0,2025-01-09,2025-01-09,一般社団法人うみかぜ企画,,その他の設立登記法人,山口県,大島郡周防大島町,大字平野２７１番地１４,,35,305,7422512,,,,,,,2025-01-09,1,,,,,ウミカゼキカク,0
226,1260001039787,新規,0,2025-01-09,2025-01-09,株式会社ＳＫ２４６８,,株式会社,岡山県,岡山市中区,江崎１４６番地１２,,33,102,7028005,,,,,,,2025-01-09,1,,,,,エスケイニシロッパチ,0
227,1260001039795,新規,0,2025-01-09,2025-01-09,株式会社福田村,,株式会社,岡山県,岡山市南区,古新田４１１番地,,33,104,7010203,,,,,,,2025-01-09,1,,,,,フクダムラ,0
228,1260003005028,新規,0,2025-01-09,2025-01-09,合同会社はれくら,,合同会社,岡山県,倉敷市,中島１６１５番地２７,,33,202,7100803,,,,,,,2025-01-09,1,,,,,ハレクラ,0
229,1290001108572,新規,0,2025-01-09,2025-01-09,株式会社ＲＥＬＩＦＥ,,株式会社,福岡県,福岡市東区,香椎照葉５丁目１－１１－９０８,,40,131,8130017,,,,,,,2025-01-09,1,,,,,リライフ,0
230,1290003016261,新規,0,2025-01-09,2025-01-09,合同会社Ｅｉｇｈｔ　Ｗｏｎｄｅｒ,,合同会社,福岡県,福岡市東区,箱崎ふ頭３丁目４－２０－１００２,,40,131,8120051,,,,,,,2025-01-09,1,,,,,エイトワンダー,0
231,1290801031164,新規,0,2025-01-09,2025-01-09,株式会社ＳＤ,,株式会社,福岡県,宮若市,長井鶴４６８番地３,,40,226,8230012,,,,,,,2025-01-09,1,,,,,エスディー,0
232,1290805009801,新規,0,2025-01-09,2025-01-09,特定非営利活動法人筑豊地区ＰＯＳ連絡協議会,,その他の設立登記法人,福岡県,田川市,大字弓削田３４１番地１,,40,206,8260041,,,,,,,2025-01-09,1,,,,,チクホウチクピーオーエスレンラクキョウギカイ,0
235,1320001020889,新規,0,2025-01-09,2025-01-09,株式会社ＨＩＪ,,株式会社,大分県,大分市,六坊北町７番１１号,,44,201,8700841,,,,,,,2025-01-09,1,,,,,エイチアイジェイ,0
239,1330001032801,新規,0,2025-01-09,2025-01-09,株式会社ファミールプラス,,株式会社,熊本県,八代市,鏡町内田３０８番地２,,43,202,8694202,,,,,,,2025-01-09,1,,,,,ファミールプラス,0
241,1330003010714,新規,0,2025-01-09,2025-01-09,ラディスタント合同会社,,合同会社,熊本県,熊本市中央区,大江６丁目１番６６－１２０７号,,43,101,8620971,,,,,,,2025-01-09,1,,,,,ラディスタント,0
242,1330003010722,新規,0,2025-01-09,2025-01-09,合同会社ＫＡＮＡＥＬ,,合同会社,熊本県,菊池市,玉祥寺２３７番地１４,,43,210,8611322,,,,,,,2025-01-09,1,,,,,カナエル,0
243,1340001027049,新規,0,2025-01-09,2025-01-09,株式会社まぁーじんファーム名柄,,株式会社,鹿児島県,大島郡宇検村,大字名柄１３４３番地１,,46,524,8943521,,,,,,,2025-01-09,1,,,,,マァージンファームナガラ,0
244,1340003004715,新規,0,2025-01-09,2025-01-09,合同会社ｍ．,,合同会社,鹿児島県,鹿屋市,今坂町１２５６４番地２４,,46,203,8930057,,,,,,,2025-01-09,1,,,,,エムドット,0
245,1350003004813,新規,0,2025-01-09,2025-01-09,合同会社Ｃａｒａｖｅｌｌ,,合同会社,宮崎県,宮崎市,佐土原町下田島１２２１９番地５７,,45,201,8800211,,,,,,,2025-01-09,1,,,,,キャラヴェル,0
246,1360001034613,新規,0,2025-01-09,2025-01-09,あさクリーン株式会社,,株式会社,沖縄県,那覇市,壺屋１丁目７番１６号新城ビル２０３号,,47,201,9020065,,,,,,,2025-01-09,1,,,,,アサクリーン,0
247,1360001034638,新規,0,2025-01-09,2025-01-09,株式会社みやまさ,,株式会社,沖縄県,那覇市,首里石嶺町２丁目４３番地,,47,201,9030804,,,,,,,2025-01-09,1,,,,,ミヤマサ,0
250,1370001052110,新規,0,2025-01-09,2025-01-09,株式会社ＨｅａｒｔＷｏｒｋＨｏｍｅ,,株式会社,宮城県,仙台市青葉区,中央４丁目１０番３号ＪＭＦビル仙台０１,,04,101,9800021,,,,,,,2025-01-09,1,,,,,ハートワークホーム,0
256,1380001035015,新規,0,2025-01-09,2025-01-09,Ｇｒｏｗ会計株式会社,,株式会社,福島県,郡山市,七ツ池町１番２号ヴィラオートリ１０５,,07,203,9630000,,,,,,,2025-01-09,1,,,,,グロウカイケイ,0
258,1420001018972,新規,0,2025-01-09,2025-01-09,ＤＫＳ株式会社,,株式会社,青森県,三戸郡南部町,大字玉掛字前田１７９番地,,02,445,0390101,,,,,,,2025-01-09,1,,,,,ディーケーエス,0
260,1420003003048,新規,0,2025-01-09,2025-01-09,合同会社シアン,,合同会社,青森県,上北郡野辺地町,字坊ノ塚３番地６,,02,401,0393125,,,,,,,2025-01-09,1,,,,,シアン,0
264,1430001093412,新規,0,2025-01-09,2025-01-09,ＮＳハートフルサービス北日本株式会社,,株式会社,北海道,室蘭市,みゆき町２丁目１３番１号,,01,205,0500084,,,,,,,2025-01-09,1,,,,,エヌエスハートフルサービスキタニホン,0
265,1430001093437,新規,0,2025-01-09,2025-01-09,株式会社Ｍａｋｅ　Ｕｐ,,株式会社,北海道,札幌市中央区,大通西１丁目１４番地２,,01,101,0600042,,,,,,,2025-01-09,1,,,,,メイクアップ,0
268,1430003017146,新規,0,2025-01-09,2025-01-09,合同会社モノクローム,,合同会社,北海道,札幌市中央区,北一条東５丁目１０番地７,,01,101,0600031,,,,,,,2025-01-09,1,,,,,モノクローム,0
269,1430003017162,新規,0,2025-01-09,2025-01-09,合同会社あやひで,,合同会社,北海道,札幌市白石区,本郷通９丁目南４番１０－３０８号,,01,104,0030024,,,,,,,2025-01-09,1,,,,,アヤヒデ,0
271,1450003002583,新規,0,2025-01-09,2025-01-09,テイエルエス合同会社,,合同会社,北海道,旭川市,川端町一条４丁目１番４号,,01,204,0700811,,,,,,,2025-01-09,1,,,,,,0
273,1470003002788,新規,0,2025-01-09,2025-01-09,Ｓｏｌ合同会社,,合同会社,香川県,丸亀市,垂水町２０８４番地１,,37,202,7630095,,,,,,,2025-01-09,1,,,,,,0
276,1500001026083,新規,0,2025-01-09,2025-01-09,Ｗｏｒｌｄ　Ｇｌａｓｓ株式会社,,株式会社,愛媛県,松山市,三番町１丁目１０－６ＭＧＭプラザビル３階,,38,201,7900003,,,,,,,2025-01-09,1,,,,,ワールドグラス,0
279,1500003003403,新規,0,2025-01-09,2025-01-09,合同会社縁優総健,,合同会社,愛媛県,松山市,北斎院町７５１番地１メゾンジュネス１０５号,,38,201,7918031,,,,,,,2025-01-09,1,,,,,エンユウソウケン,0
281,2010001251077,新規,0,2025-01-09,2025-01-09,Ｌｅｎｚ株式会社,,株式会社,東京都,中央区,日本橋室町１丁目１１番１２号日本橋水野ビル７階,,13,102,1030022,,,,,,,2025-01-09,1,,,,,レンズ,0
282,2010001251102,新規,0,2025-01-09,2025-01-09,株式会社クラップライズ,,株式会社,東京都,中央区,晴海３丁目６番８－３６０２号,,13,102,1040053,,,,,,,2025-01-09,1,,,,,クラップライズ,0
283,2010001251119,新規,0,2025-01-09,2025-01-09,株式会社Ａｔｈｅｎａ,,株式会社,東京都,中央区,勝どき３丁目１番７－４０５号,,13,102,1040054,,,,,,,2025-01-09,1,,,,,アテナ,0
284,2010001251143,新規,0,2025-01-09,2025-01-09,株式会社ＢＡＮＣＨＯ　ＧＲＯＵＰ,,株式会社,東京都,千代田区,二番町１番地２番町ハイム８２４,,13,101,1020084,,,,,,,2025-01-09,1,,,,,バンチョウグループ,0
285,2010001251151,新規,0,2025-01-09,2025-01-09,株式会社ＣＥＢＩＲＯ,,株式会社,東京都,中央区,日本橋浜町２丁目４３番４号日本橋浜町２丁目ビル３Ｆ,,13,102,1030007,,,,,,,2025-01-09,1,,,,,セビロ,0
286,2010001251176,新規,0,2025-01-09,2025-01-09,株式会社Ｌ’ａｍｏｕｒ,,株式会社,東京都,千代田区,外神田４丁目４番３号小木曽ビル４Ｆ,,13,101,1010021,,,,,,,2025-01-09,1,,,,,ラムール,0
287,2010001251184,新規,0,2025-01-09,2025-01-09,株式会社Ｍｅｇｕｍｉ　Ｃｏｍｐａｎｙ　Ｇｒｏｕｐ,,株式会社,東京都,千代田区,麹町４丁目４番地４ＡＣＮ麹町ビル１２階,,13,101,1020083,,,,,,,2025-01-09,1,,,,,メグミカンパニーグループ,0
288,2010001251192,新規,0,2025-01-09,2025-01-09,株式会社ＡＩＳＯ,,株式会社,東京都,千代田区,九段南２丁目３番２５号平安堂ビル４階,,13,101,1020074,,,,,,,2025-01-09,1,,,,,アイソ,0
289,2010001251234,新規,0,2025-01-09,2025-01-09,株式会社ＳＯＬＩＺＥ分割準備会社１,,株式会社,東京都,千代田区,三番町６番３号,,13,101,1020075,,,,,,,2025-01-09,1,,,,,ソライズブンカツジュンビガイシャイチ,0
294,2010003045980,新規,0,2025-01-09,2025-01-09,ＬＥＶＥＣＨＹファンド２０号合同会社,,合同会社,東京都,千代田区,紀尾井町３－８第２紀尾井町ビル９０１アクシス綜合会計事務所内,,13,101,1020094,,,,,,,2025-01-09,1,,,,,レベチーファンドニジュウゴウ,0
296,2010005039378,新規,0,2025-01-09,2025-01-09,一般社団法人千歳ＰＶ,,その他の設立登記法人,東京都,千代田区,霞が関３丁目２番５号,,13,101,1000013,,,,,,,2025-01-09,1,,,,,チトセピーヴィー,0
299,2010101016470,新規,0,2025-01-09,2025-01-09,株式会社日本高級医療推進センター,,株式会社,東京都,八王子市,川口町４５９番３号,,13,201,1930801,,,,,,,2025-01-09,1,,,,,ニホンコウキュウイリョウスイシンセンター,0
300,2010101016479,新規,0,2025-01-09,2025-01-09,株式会社添野興業,,株式会社,東京都,八王子市,元八王子町２丁目１３２６番地７,,13,201,1930826,,,,,,,2025-01-09,1,,,,,ソエノコウギョウ,0
304,2010401187383,新規,0,2025-01-09,2025-01-09,株式会社ラクーンカンパニー,,株式会社,東京都,港区,北青山１丁目３番１号アールキューブ青山３階,,13,103,1070061,,,,,,,2025-01-09,1,,,,,,0
305,2010401187391,新規,0,2025-01-09,2025-01-09,株式会社ヨカクリエイト,,株式会社,東京都,港区,芝５丁目３６番４号札の辻スクエア９階,,13,103,1080014,,,,,,,2025-01-09,1,,,,,ヨカクリエイト,0
306,2010401187409,新規,0,2025-01-09,2025-01-09,株式会社ルビウス,,株式会社,東京都,港区,新橋４丁目１４番１新橋ＡＵＮＢＬＤＧ４階,,13,103,1050004,,,,,,,2025-01-09,1,,,,,ルビウス,0
307,2010401187425,新規,0,2025-01-09,2025-01-09,株式会社アドソル,,株式会社,東京都,港区,麻布十番３丁目８－４麻布Ｋ’ｓビル４階,,13,103,1060045,,,,,,,2025-01-09,1,,,,,アドソル,0
308,2010401187499,新規,0,2025-01-09,2025-01-09,株式会社モントゥーラジャパン,,株式会社,東京都,港区,南青山５丁目４番４８号,,13,103,1070062,,,,,,,2025-01-09,1,,,,,モントゥーラジャパン,0
311,2010403034121,新規,0,2025-01-09,2025-01-09,東京メディカル合同会社,,合同会社,東京都,港区,新橋４丁目１４番１新橋ＡＵＮＢＬＤＧ４階,,13,103,1050004,,,,,,,2025-01-09,1,,,,,トウキョウメディカル,0
312,2010403034162,新規,0,2025-01-09,2025-01-09,合同会社ＵＷＥＳＴ,,合同会社,東京都,港区,白金１丁目２番１－Ｅ２４１３号,,13,103,1080072,,,,,,,2025-01-09,1,,,,,ユーウエスト,0
313,2010501053444,新規,0,2025-01-09,2025-01-09,ＡＩ‐ＪＡＰＡＮ株式会社,,株式会社,東京都,台東区,東上野３丁目３７－１３ＴＯＭビル光優４階,,13,106,1100015,,,,,,,2025-01-09,1,,,,,エーアイジャパン,0
314,2010501053452,新規,0,2025-01-09,2025-01-09,ホームメンテナンス株式会社,,株式会社,東京都,台東区,上野５丁目２３番１１号４階,,13,106,1100005,,,,,,,2025-01-09,1,,,,,ホームメンテナンス,0
317,2010701047072,新規,0,2025-01-09,2025-01-09,Ｂｅａｔｒｉｃｅ株式会社,,株式会社,東京都,品川区,東五反田１丁目１０番９号ＳＴビル６Ｆ,,13,109,1410022,,,,,,,2025-01-09,1,,,,,ベアトリーチェ,0
318,2010801035729,新規,0,2025-01-09,2025-01-09,株式会社ｉＣｌｉｎｏ,,株式会社,東京都,大田区,西蒲田３丁目２番２号,,13,111,1440051,,,,,,,2025-01-09,1,,,,,アイクリノ,0
319,2010805003153,新規,0,2025-01-09,2025-01-09,一般社団法人ｗａｕｍ　ｏｏｏｋａｙａｍａ,,その他の設立登記法人,東京都,大田区,北千束２丁目１９番２号,,13,111,1450062,,,,,,,2025-01-09,1,,,,,ワウムオオオカヤマ,0
321,2010903009630,新規,0,2025-01-09,2025-01-09,合同会社Ｐｅｒｓｐｅｃｔｉｖｅｓ,,合同会社,東京都,世田谷区,中町４丁目３１番１８号,,13,112,1580091,,,,,,,2025-01-09,1,,,,,パースペクティブス,0
323,2011001166785,新規,0,2025-01-09,2025-01-09,株式会社ＡＩＭ　Ｅｎｔｅｒｔａｉｎｍｅｎｔ　Ｊａｐａｎ,,株式会社,東京都,渋谷区,神泉町５番２号塩入小路２ビル４階,,13,113,1500045,,,,,,,2025-01-09,1,,,,,エイムエンターテイメントジャパン,0
324,2011001166851,新規,0,2025-01-09,2025-01-09,Ｖａｌｏｏ株式会社,,株式会社,東京都,渋谷区,神南１丁目１１－４ＦＰＧリンクス神南５階,,13,113,1500041,,,,,,,2025-01-09,1,,,,,ヴァルー,0
325,2011003020767,新規,0,2025-01-09,2025-01-09,合同会社アヴァンス,,合同会社,東京都,目黒区,下目黒２丁目２０－８,,13,110,1530064,,,,,,,2025-01-09,1,,,,,アヴァンス,0
327,2011101110148,新規,0,2025-01-09,2025-01-09,ＪＹ　Ｈｏｌｄｉｎｇｓ株式会社,,株式会社,東京都,新宿区,西新宿８丁目１２番１号サンパレス新宿４０３,,13,104,1600023,,,,,,,2025-01-09,1,,,,,ジェイワイホールディングス,0
328,2011101110164,新規,0,2025-01-09,2025-01-09,株式会社Ａｕｐｉｏ,,株式会社,東京都,新宿区,西新宿３丁目３番１３号,,13,104,1600023,,,,,,,2025-01-09,1,,,,,アヴリオ,0
330,2011501031563,新規,0,2025-01-09,2025-01-09,株式会社Ｖａｉｂｕ,,株式会社,東京都,北区,田端新町３丁目３４番１１号,,13,117,1140012,,,,,,,2025-01-09,1,,,,,ヴァイブ,0
332,2011605002626,新規,0,2025-01-09,2025-01-09,一般社団法人和み,,その他の設立登記法人,東京都,練馬区,石神井台５丁目２６番１３号,,13,120,1770045,,,,,,,2025-01-09,1,,,,,ナゴミ,0
333,2011701027972,新規,0,2025-01-09,2025-01-09,株式会社ＦＵＮｔｏｍＣＯＤＥ,,株式会社,東京都,江戸川区,谷河内１丁目６番１４号サンライズ高木２０２,,13,123,1320002,,,,,,,2025-01-09,1,,,,,ファントムコード,0
334,2011703004078,新規,0,2025-01-09,2025-01-09,合同会社ツォーパーク,,合同会社,東京都,江戸川区,清新町１丁目４番９‐７０６号,,13,123,1340087,,,,,,,2025-01-09,1,,,,,ツォーパーク,0
337,2011805003424,新規,0,2025-01-09,2025-01-09,一般社団法人志伝流,,その他の設立登記法人,東京都,足立区,関原３丁目２７番１８号,,13,121,1230852,,,,,,,2025-01-09,1,,,,,シデンリュウ,0
338,2012401042642,新規,0,2025-01-09,2025-01-09,株式会社ＴＲＩＭｅｒ,,株式会社,東京都,小金井市,本町２丁目６番７号ペガサスマンション第二武蔵小金井７０３,,13,210,1840004,,,,,,,2025-01-09,1,,,,,トリマー,0
343,2013101009601,新規,0,2025-01-09,2025-01-09,ヤマシタデンタルアート株式会社,,株式会社,東京都,西多摩郡日の出町,大字平井８８２番１号地,,13,305,1900182,,,,,,,2025-01-09,1,,,,,ヤマシタデンタルアート,0
350,2013305003680,新規,0,2025-01-09,2025-01-09,行政書士法人国際法務事務所,,その他の設立登記法人,東京都,豊島区,池袋２丁目４５番１号アークシティ池袋４０１,,13,116,1710014,,,,,,,2025-01-09,1,,,,,コクサイホウムジムショ,0
356,2020001160772,新規,0,2025-01-09,2025-01-09,株式会社クラシア,,株式会社,神奈川県,川崎市高津区,末長１丁目２３番３１号大明梶ケ谷ビル３Ｆ－Ａ,,14,134,2130013,,,,,,,2025-01-09,1,,,,,クラシア,0
357,2020001160806,新規,0,2025-01-09,2025-01-09,株式会社美職工房,,株式会社,神奈川県,横浜市南区,宮元町１番地２１宮元町イズミビル２階,,14,105,2320000,,,,,,,2025-01-09,1,,,,,ビショクコウボウ,0
358,2020001160905,新規,0,2025-01-09,2025-01-09,株式会社ｒｅ・Ｍａｇｏ,,株式会社,神奈川県,横浜市中区,福富町東通３８石井ビル２階,,14,104,2310044,,,,,,,2025-01-09,1,,,,,リマーゴ,0
360,2020003027532,新規,0,2025-01-09,2025-01-09,合同会社インテリアス,,合同会社,神奈川県,川崎市幸区,新小倉２番５－３０１号,,14,132,2120031,,,,,,,2025-01-09,1,,,,,インテリアス,0
361,2020003027573,新規,0,2025-01-09,2025-01-09,合同会社Ｃａｎｔｉｋ,,合同会社,神奈川県,横浜市港北区,篠原町１２５７番地５７,,14,109,2220026,,,,,,,2025-01-09,1,,,,,チャンティー,0
362,2020003027623,新規,0,2025-01-09,2025-01-09,合同会社Ｏｆｆｉｃｅ　Ｈａｙａｓｈｉ,,合同会社,神奈川県,横浜市保土ケ谷区,西久保町１８８番地１０,,14,106,2400022,,,,,,,2025-01-09,1,,,,,オフィスハヤシ,0
363,2021001084177,新規,0,2025-01-09,2025-01-09,株式会社喜多村設備,,株式会社,神奈川県,平塚市,東真土２丁目１７番５４号,,14,203,2540018,,,,,,,2025-01-09,1,,,,,キタムラセツビ,0
364,2021001084185,新規,0,2025-01-09,2025-01-09,株式会社エスティー,,株式会社,神奈川県,相模原市南区,新戸２１１３番地２,,14,153,2520326,,,,,,,2025-01-09,1,,,,,エスティー,0
365,2021001084202,新規,0,2025-01-09,2025-01-09,株式会社エーコー,,株式会社,神奈川県,茅ヶ崎市,松が丘２丁目５番２５号,,14,207,2530025,,,,,,,2025-01-09,1,,,,,エーコー,0
367,2021003015436,新規,0,2025-01-09,2025-01-09,合同会社トマソンブラザーズ,,合同会社,神奈川県,藤沢市,渡内１丁目１６番１号,,14,205,2510011,,,,,,,2025-01-09,1,,,,,トマソンブラザーズ,0
368,2021005013256,新規,0,2025-01-09,2025-01-09,エスワイ行政書士法人,,その他の設立登記法人,神奈川県,平塚市,東豊田４８０－２３湘南代書センター内,,14,203,2540082,,,,,,,2025-01-09,1,,,,,エスワイ,0
374,2030001164194,新規,0,2025-01-09,2025-01-09,株式会社テイク,,株式会社,埼玉県,三郷市,早稲田２丁目１７番１５号,,11,237,3410018,,,,,,,2025-01-09,1,,,,,テイク,0
375,2030001164260,新規,0,2025-01-09,2025-01-09,久泰株式会社,,株式会社,埼玉県,幸手市,栄４番７－５０６号,,11,240,3400154,,,,,,,2025-01-09,1,,,,,ヒサヤス,0
376,2030001164277,新規,0,2025-01-09,2025-01-09,株式会社ハイジア,,株式会社,埼玉県,熊谷市,別府３丁目９番地グリーンベルマーレ１Ｆ,,11,202,3600856,,,,,,,2025-01-09,1,,,,,ハイジア,0
381,2030003025782,新規,0,2025-01-09,2025-01-09,合同会社アルテ,,合同会社,埼玉県,さいたま市浦和区,上木崎６丁目３６番４号,,11,107,3300071,,,,,,,2025-01-09,1,,,,,アルテ,0
382,2030003025840,新規,0,2025-01-09,2025-01-09,合同会社パズルパワー,,合同会社,埼玉県,さいたま市大宮区,桜木町２丁目３番地大宮マルイ７階,,11,103,3300854,,,,,,,2025-01-09,1,,,,,パズルパワー,0
383,2040001136804,新規,0,2025-01-09,2025-01-09,株式会社ＣＯＯＬ,,株式会社,千葉県,松戸市,小金原９丁目２６番地の７,,12,207,2700021,,,,,,,2025-01-09,1,,,,,クール,0
384,2040001136878,新規,0,2025-01-09,2025-01-09,株式会社ＬＵＸＳＴ,,株式会社,千葉県,市川市,新井３丁目６番１５－３０２号,,12,203,2720144,,,,,,,2025-01-09,1,,,,,ルクスト,0
385,2040001136894,新規,0,2025-01-09,2025-01-09,株式会社Ｍａｎａ　Ｌｅａ,,株式会社,千葉県,松戸市,中和倉１６４－１０４－１０２,,12,207,2700025,,,,,,,2025-01-09,1,,,,,マナレア,0
386,2040001136911,新規,0,2025-01-09,2025-01-09,Ｆ＆Ｂ　ＰＬＡＮＮＩＮＧ株式会社,,株式会社,千葉県,船橋市,上山町１丁目１８３番地１リブリ・千草２０９号,,12,204,2730046,,,,,,,2025-01-09,1,,,,,エフアンドビープランニング,0
390,2040003026524,新規,0,2025-01-09,2025-01-09,Ｓｏｒａ　Ｋｉｓｄｓ合同会社,,合同会社,千葉県,市川市,市川南５丁目２番１１号（グリーンテラス・ステラ１０２号）,,12,203,2720033,,,,,,,2025-01-09,1,,,,,ソラキッズ,0
391,2040003026549,新規,0,2025-01-09,2025-01-09,ｎｉｔｏ．合同会社,,合同会社,千葉県,市川市,福栄３丁目２番５－４０２号,,12,203,2720137,,,,,,,2025-01-09,1,,,,,ニト,0
394,2060001037802,新規,0,2025-01-09,2025-01-09,株式会社ＫＡＺＵ板金,,株式会社,栃木県,大田原市,蜂巣１２７番地２,,09,210,3240244,,,,,,,2025-01-09,1,,,,,カズバンキン,0
395,2060001037810,新規,0,2025-01-09,2025-01-09,株式会社ほんわか庭園,,株式会社,栃木県,河内郡上三川町,大字上三川４３８８番地１,,09,301,3290611,,,,,,,2025-01-09,1,,,,,ホンワカテイエン,0
397,2060003005385,新規,0,2025-01-09,2025-01-09,合同会社夢・未来,,合同会社,栃木県,栃木市,嘉右衛門町１２番１５号,,09,203,3280072,,,,,,,2025-01-09,1,,,,,ユメミライ,0
404,2070001042520,新規,0,2025-01-09,2025-01-09,株式会社ケーアンドエフ,,株式会社,群馬県,太田市,由良町１１７３番地４コーポ大和２０２号,,10,205,3730036,,,,,,,2025-01-09,1,,,,,ケーアンドエフ,0
405,2070001042529,新規,0,2025-01-09,2025-01-09,株式会社ＲＥＩＫＩ,,株式会社,群馬県,みどり市,大間々町桐原５１１番地１,,10,212,3760102,,,,,,,2025-01-09,1,,,,,レイキ,0
407,2070003005748,新規,0,2025-01-09,2025-01-09,合同会社松居屋,,合同会社,群馬県,高崎市,新町２８３７番地１,,10,202,3701301,,,,,,,2025-01-09,1,,,,,マツイヤ,0
409,2080001026695,新規,0,2025-01-09,2025-01-09,株式会社Ｂｅｓｔｆｌｏｗ,,株式会社,静岡県,藤枝市,高柳１９８５番地の７,,22,214,4260041,,,,,,,2025-01-09,1,,,,,ベストフロー,0
411,2080003003370,新規,0,2025-01-09,2025-01-09,合同会社司会事務所カノン,,合同会社,静岡県,島田市,中溝町１３８４番地の１０,,22,209,4270047,,,,,,,2025-01-09,1,,,,,シカイジムショカノン,0
417,2080401027665,新規,0,2025-01-09,2025-01-09,株式会社兼堀,,株式会社,静岡県,湖西市,ときわ３丁目１１番６９号,,22,221,4310428,,,,,,,2025-01-09,1,,,,,カネホリ,0
418,2090001019070,新規,0,2025-01-09,2025-01-09,株式会社ＪＯＷＡ,,株式会社,山梨県,南都留郡富士河口湖町,小立５６６０番地１,,19,430,4010302,,,,,,,2025-01-09,1,,,,,ジョワ,0
420,2090003002710,新規,0,2025-01-09,2025-01-09,合同会社バッカス,,合同会社,山梨県,山梨市,東後屋敷５２７番地１３,,19,205,4050012,,,,,,,2025-01-09,1,,,,,バッカス,0
436,2120001271584,新規,0,2025-01-09,2025-01-09,楽本株式会社,,株式会社,大阪府,大阪市北区,太融寺町２－２１ニュープラザビル５０１号室,,27,127,5300051,,,,,,,2025-01-09,1,,,,,ラクモト,0
437,2120001271601,新規,0,2025-01-09,2025-01-09,株式会社ＭＫＴ,,株式会社,大阪府,大阪市中央区,内久宝寺町２丁目２番２２－２１０３号,,27,128,5400013,,,,,,,2025-01-09,1,,,,,エムケイティ,0
438,2120001271659,新規,0,2025-01-09,2025-01-09,ココネトラスト株式会社,,株式会社,大阪府,大阪市北区,菅栄町７番１４号,,27,127,5300031,,,,,,,2025-01-09,1,,,,,ココネトラスト,0
439,2120001271691,新規,0,2025-01-09,2025-01-09,株式会社Ｈａｌａ,,株式会社,大阪府,大阪市西区,北堀江１丁目１番２３号養田ビル四ツ橋館４Ｂ,,27,106,5500014,,,,,,,2025-01-09,1,,,,,ハラ,0
440,2120001271709,新規,0,2025-01-09,2025-01-09,株式会社隆富,,株式会社,大阪府,大阪市住吉区,杉本２丁目１５番１２号,,27,120,5580022,,,,,,,2025-01-09,1,,,,,タカトミ,0
441,2120001271766,新規,0,2025-01-09,2025-01-09,株式会社アイビー建築工房,,株式会社,大阪府,大阪市西淀川区,佃３丁目２番２６号,,27,113,5550001,,,,,,,2025-01-09,1,,,,,アイビーケンチクコウボウ,0
442,2120001271790,新規,0,2025-01-09,2025-01-09,ＮＡＮＫＡＩ　ＮＥＸＴ　Ｖｅｎｔｕｒｅｓ株式会社,,株式会社,大阪府,大阪市中央区,難波５丁目１番６０号,,27,128,5420076,,,,,,,2025-01-09,1,,,,,ナンカイネクストベンチャーズ,0
447,2120003028297,新規,0,2025-01-09,2025-01-09,美の壽國際合同会社,,合同会社,大阪府,大阪市阿倍野区,相生通２丁目７番４５－２０２号,,27,119,5450033,,,,,,,2025-01-09,1,,,,,ミノトシコクサイ,0
451,2120101070861,新規,0,2025-01-09,2025-01-09,株式会社ＦＯＮＤＡＭ,,株式会社,大阪府,泉南市,信達市場３１－５２２,,27,228,5900504,,,,,,,2025-01-09,1,,,,,フォンダム,0
461,2140001136892,新規,0,2025-01-09,2025-01-09,ツービー株式会社,,株式会社,兵庫県,加古川市,平岡町土山３２５番地の１,,28,210,6750104,,,,,,,2025-01-09,1,,,,,ツービー,0
462,2140001136934,新規,0,2025-01-09,2025-01-09,株式会社ＩＲＩＺＥ,,株式会社,兵庫県,宝塚市,湯本町５番２１－５０２号,,28,214,6650003,,,,,,,2025-01-09,1,,,,,イリゼ,0
463,2140001136950,新規,0,2025-01-09,2025-01-09,株式会社スギタ技研,,株式会社,兵庫県,神戸市垂水区,本多聞１丁目１１番６号白峯グランドハイツＩＩ１０３号,00137580,28,108,6550006,,,,,,,2025-01-09,1,,,,,スギタギケン,0
464,2140001136959,新規,0,2025-01-09,2025-01-09,株式会社ヒコバエ,,株式会社,兵庫県,丹波篠山市,西古佐４９７番地３,,28,221,6692221,,,,,,,2025-01-09,1,,,,,ヒコバエ,0
465,2140001136983,新規,0,2025-01-09,2025-01-09,秀宝設備株式会社,,株式会社,兵庫県,三木市,別所町石野５４１番地,,28,215,6730452,,,,,,,2025-01-09,1,,,,,シュウホウセツビ,0
466,2140001136991,新規,0,2025-01-09,2025-01-09,株式会社データモデラーズ,,株式会社,兵庫県,神戸市中央区,元町通４丁目６番３－５０４号,,28,110,6500022,,,,,,,2025-01-09,1,,,,,データモデラーズ,0
469,2140003021507,新規,0,2025-01-09,2025-01-09,合同会社嘉辰工務店,,合同会社,兵庫県,姫路市,広畑区蒲田２１５,,28,201,6711102,,,,,,,2025-01-09,1,,,,,カシンコウムテン,0
470,2140003021515,新規,0,2025-01-09,2025-01-09,合同会社たびどき,,合同会社,兵庫県,伊丹市,御願塚１丁目６－３０－１,,28,207,6640855,,,,,,,2025-01-09,1,,,,,タビドキ,0
472,2140005027337,新規,0,2025-01-09,2025-01-09,医療法人社団沢岻美奈子女性医療クリニック,,その他の設立登記法人,兵庫県,神戸市西区,糀台５丁目６番３号,,28,111,6512273,,,,,,,2025-01-09,1,,,,,タクシミナコジョセイイリョウクリニック,0
474,2160001026472,新規,0,2025-01-09,2025-01-09,株式会社Ｋ・Ｊ　Ｗｏｏｄ　Ｗｏｒｋｓ,,株式会社,滋賀県,甲賀市,水口町今郷７７６番地２,,25,209,5280002,,,,,,,2025-01-09,1,,,,,ケイジェイウッドワークス,0
475,2160001026480,新規,0,2025-01-09,2025-01-09,イザヤビジネスツールズ株式会社,,株式会社,滋賀県,大津市,山百合の丘１７番,,25,201,5200357,,,,,,,2025-01-09,1,,,,,イザヤビジネスツールズ,0
476,2160003003370,新規,0,2025-01-09,2025-01-09,合同会社ＴＲＥ,,合同会社,滋賀県,高島市,安曇川町中央３丁目４番地１７,,25,212,5201216,,,,,,,2025-01-09,1,,,,,ティーアールイー,0
478,2170001018444,新規,0,2025-01-09,2025-01-09,株式会社道開,,株式会社,和歌山県,和歌山市,美園町２丁目９７番地,,30,201,6408331,,,,,,,2025-01-09,1,,,,,ドウカイ,0
486,2180001164799,新規,0,2025-01-09,2025-01-09,ＪＡＰＡＮ　ＡＴＯＳ株式会社,,株式会社,愛知県,名古屋市千種区,大島町２丁目９４番地,,23,101,4640833,,,,,,,2025-01-09,1,,,,,ジャパンエイトス,0
487,2180001164808,新規,0,2025-01-09,2025-01-09,株式会社インク,,株式会社,愛知県,春日井市,松本町１丁目３番地１６,,23,206,4870027,,,,,,,2025-01-09,1,,,,,インク,0
488,2180001164816,新規,0,2025-01-09,2025-01-09,株式会社商八,,株式会社,愛知県,名古屋市中川区,高杉町１０２番地エントピアヤダ１０５号室,,23,110,4540936,,,,,,,2025-01-09,1,,,,,アキナイヤ,0
489,2180001164840,新規,0,2025-01-09,2025-01-09,株式会社シールドプラス,,株式会社,愛知県,春日井市,勝川町１丁目７０,,23,206,4860945,,,,,,,2025-01-09,1,,,,,シールドプラス,0
490,2180001164849,新規,0,2025-01-09,2025-01-09,株式会社青木建設,,株式会社,愛知県,半田市,岩滑東町５丁目１１番地,,23,205,4750905,,,,,,,2025-01-09,1,,,,,アオキケンセツ,0
491,2180001164873,新規,0,2025-01-09,2025-01-09,株式会社える,,株式会社,愛知県,名古屋市北区,西味鋺１丁目５１１番地水野ビル２階,,23,103,4620016,,,,,,,2025-01-09,1,,,,,エル,0
497,2180003027822,新規,0,2025-01-09,2025-01-09,合同会社アセットコンサルティング,,合同会社,愛知県,長久手市,岩作落合３０２番地ローレル落合Ｉ２０２号,,23,238,4801103,,,,,,,2025-01-09,1,,,,,アセットコンサルティング,0
502,2190001031932,新規,0,2025-01-09,2025-01-09,株式会社Ｓｏｕ１,,株式会社,三重県,鈴鹿市,西条１丁目１３番３号,,24,207,5130809,,,,,,,2025-01-09,1,,,,,ソウイチ,0
504,2200001043298,新規,0,2025-01-09,2025-01-09,ＲＥＬＩＨＴ株式会社,,株式会社,岐阜県,山県市,洞田字街道東２番地４４,,21,215,5012125,,,,,,,2025-01-09,1,,,,,リライト,0
505,2210001020024,新規,0,2025-01-09,2025-01-09,スカイ株式会社,,株式会社,福井県,福井市,豊岡２丁目５番２５号,,18,201,9100027,,,,,,,2025-01-09,1,,,,,スカイ,0
506,2220001026417,新規,0,2025-01-09,2025-01-09,株式会社ｐｒｏｇｒｅｓｓ,,株式会社,石川県,能美市,緑が丘４丁目８３番地,,17,211,9231226,,,,,,,2025-01-09,1,,,,,プログレス,0
514,2240001064324,新規,0,2025-01-09,2025-01-09,株式会社ＨＹＡＫＵＭＡＮＢＥＮ,,株式会社,広島県,府中市,高木町１４６５番地１,,34,208,7260013,,,,,,,2025-01-09,1,,,,,ヒャクマンベン,0
515,2240001064357,新規,0,2025-01-09,2025-01-09,株式会社上吉ハウジング,,株式会社,広島県,広島市西区,南観音３丁目６番４５号２Ｆ,,34,104,7330035,,,,,,,2025-01-09,1,,,,,カミヨシハウジング,0
516,2240001064365,新規,0,2025-01-09,2025-01-09,Ｇｏｏｄ　Ｖｉｂｅｓ株式会社,,株式会社,広島県,安芸郡府中町,大須４丁目６番１６号,,34,302,7350021,,,,,,,2025-01-09,1,,,,,グッドバイブス,0
517,2240001064373,新規,0,2025-01-09,2025-01-09,ニアライフ株式会社,,株式会社,広島県,広島市南区,宇品神田３丁目５番６号,,34,103,7340004,,,,,,,2025-01-09,1,,,,,ニアライフ,0
519,2240003007000,新規,0,2025-01-09,2025-01-09,合同会社ＲＭ,,合同会社,広島県,福山市,水呑町三新田１丁目３９５番地,,34,207,7200830,,,,,,,2025-01-09,1,,,,,アールエム,0
520,2240003007009,新規,0,2025-01-09,2025-01-09,合同会社ボントレ珈琲店,,合同会社,広島県,福山市,南蔵王町３丁目５番１５号,,34,207,7210973,,,,,,,2025-01-09,1,,,,,ボントレコーヒーテン,0
525,2280001009333,新規,0,2025-01-09,2025-01-09,しする株式会社,,株式会社,島根県,松江市,嫁島町１０‐２８ラフェスタ嫁島５０１,,32,201,6900047,,,,,,,2025-01-09,1,,,,,シスル,0
529,2290001108522,新規,0,2025-01-09,2025-01-09,兮与株式会社,,株式会社,福岡県,福岡市中央区,赤坂２丁目２番９－６０５号,,40,133,8100042,,,,,,,2025-01-09,1,,,,,ケイヨ,0
530,2290001108539,新規,0,2025-01-09,2025-01-09,株式会社ＡＬＴＩＭＯ,,株式会社,福岡県,福岡市南区,清水１丁目８番６１号,,40,134,8150031,,,,,,,2025-01-09,1,,,,,アルティモ,0
531,2290001108563,新規,0,2025-01-09,2025-01-09,株式会社裕成,,株式会社,福岡県,飯塚市,中３５９番地１エデウスＡ・Ｙ２０１号室,,40,205,8200065,,,,,,,2025-01-09,1,,,,,ユウセイ,0
532,2290003016252,新規,0,2025-01-09,2025-01-09,合同会社Ｏｎｅ　Ｇｒｉｔ,,合同会社,福岡県,嘉麻市,千手１７９７番地,,40,227,8200332,,,,,,,2025-01-09,1,,,,,,0
533,2290003016260,新規,0,2025-01-09,2025-01-09,合同会社コトトリコ,,合同会社,福岡県,糟屋郡志免町,石橋台６番１号,,40,343,8112203,,,,,,,2025-01-09,1,,,,,コトトリコ,0
534,2290003016277,新規,0,2025-01-09,2025-01-09,合同会社明輝,,合同会社,福岡県,春日市,須玖北４丁目８７番,,40,218,8160864,,,,,,,2025-01-09,1,,,,,ハルキ,0
536,2290005019609,新規,0,2025-01-09,2025-01-09,一般社団法人愛結会,,その他の設立登記法人,福岡県,筑紫野市,天拝坂１丁目１－２,,40,217,8180053,,,,,,,2025-01-09,1,,,,,アユカイ,0
538,2290803004943,新規,0,2025-01-09,2025-01-09,合同会社ＭＭ企画,,合同会社,福岡県,北九州市八幡西区,光明１丁目１番８－２０２号,,40,109,8070824,,,,,,,2025-01-09,1,,,,,エムエムキカク,0
542,2300003002218,新規,0,2025-01-09,2025-01-09,合同会社ドリームタウン,,合同会社,佐賀県,三養基郡基山町,大字小倉５１３番地４,,41,341,8410201,,,,,,,2025-01-09,1,,,,,ドリームタウン,0
549,2330001032783,新規,0,2025-01-09,2025-01-09,株式会社ブルーミング阿蘇,,株式会社,熊本県,阿蘇郡西原村,大字小森６１８－３ありえす西原３号棟,,43,432,8612402,,,,,,,2025-01-09,1,,,,,ブルーミングアソ,0
550,2330001032800,新規,0,2025-01-09,2025-01-09,株式会社ドリームみすみ,,株式会社,熊本県,宇城市,三角町波多２３６９番地,,43,213,8693205,,,,,,,2025-01-09,1,,,,,ドリームミスミ,0
553,2350003004820,新規,0,2025-01-09,2025-01-09,ワークスにしはら合同会社,,合同会社,宮崎県,宮崎市,東大淀１丁目１番５号,,45,201,8800901,,,,,,,2025-01-09,1,,,,,ワークスニシハラ,0
556,2360001034637,新規,0,2025-01-09,2025-01-09,株式会社オキリゾ,,株式会社,沖縄県,島尻郡南風原町,字宮平６２０番地１,,47,350,9011104,,,,,,,2025-01-09,1,,,,,オキリゾ,0
558,2360003014579,新規,0,2025-01-09,2025-01-09,合同会社謝謝産業,,合同会社,沖縄県,沖縄市,与儀２丁目４番１２号,,47,211,9042174,,,,,,,2025-01-09,1,,,,,シェーシェーサンギョウ,0
559,2360003014587,新規,0,2025-01-09,2025-01-09,合同会社ケイリス,,合同会社,沖縄県,那覇市,真嘉比２丁目４番地１号スエヨシビル２０３,,47,201,9020068,,,,,,,2025-01-09,1,,,,,ケイリス,0
560,2370001052076,新規,0,2025-01-09,2025-01-09,株式会社ＮＡＧＡＭＵＲＡ,,株式会社,宮城県,黒川郡大衡村,奥田字上ノ沢２８番地５８,,04,424,9813607,,,,,,,2025-01-09,1,,,,,ナガムラ,0
562,2380001035014,新規,0,2025-01-09,2025-01-09,株式会社和,,株式会社,福島県,郡山市,富田町字向山４８番地,,07,203,9638041,,,,,,,2025-01-09,1,,,,,カズ,0
563,2380001035022,新規,0,2025-01-09,2025-01-09,株式会社ｓｐｏｒｔｓ　ｌａｂ　ａｎｋ,,株式会社,福島県,郡山市,富田町字上ノ台６１番地の１４,,07,203,9638041,,,,,,,2025-01-09,1,,,,,スポーツラボアンク,0
564,2380003005931,新規,0,2025-01-09,2025-01-09,合同会社寿七社,,合同会社,福島県,郡山市,字上亀田４番地の４,,07,203,9638031,,,,,,,2025-01-09,1,,,,,ジュナシャ,0
573,2430001093411,新規,0,2025-01-09,2025-01-09,ＴＡＣ株式会社,,株式会社,北海道,北広島市,虹ヶ丘６丁目７番地２６,,01,234,0611103,,,,,,,2025-01-09,1,,,,,ティーエーシー,0
578,2500001026074,新規,0,2025-01-09,2025-01-09,株式会社二宮造園,,株式会社,愛媛県,八幡浜市,保内町喜木１番耕地１３６番地６,,38,204,7960111,,,,,,,2025-01-09,1,,,,,ニノミヤゾウエン,0
580,2700150128568,新規,0,2025-01-09,2025-01-09,広州営光其科技有限公司,,外国会社等,,,,,,,,中国広州市天河区珠村大粒沙路３８号４棟３０１房之Ａ４６１房,,,,,,2025-01-09,1,,,,,コウシュウエイコウキカギユウゲンコウシ,0
583,3010001250961,新規,0,2025-01-09,2025-01-09,株式会社トラスト,,株式会社,東京都,文京区,白山１丁目６－４文京ＶＥＮＴＵＲＥＢＡＳＥ２階Ａ１０号室,,13,105,1130001,,,,,,,2025-01-09,1,,,,,トラスト,0
584,3010001250978,新規,0,2025-01-09,2025-01-09,株式会社Ｕｎｉｐｌｕｓ,,株式会社,東京都,千代田区,神田錦町２丁目９番地１５,,13,101,1010054,,,,,,,2025-01-09,1,,,,,ユニプラス,0
585,3010001251092,新規,0,2025-01-09,2025-01-09,盈泰株式会社,,株式会社,東京都,文京区,千石４丁目２６番２号ＳＡＮＳＡＮ千石ビル４Ｂ０７,,13,105,1120011,,,,,,,2025-01-09,1,,,,,エイタイ,0
586,3010001251126,新規,0,2025-01-09,2025-01-09,株式会社セントソフィア本郷,,株式会社,東京都,文京区,本郷５丁目２７－１１,,13,105,1130033,,,,,,,2025-01-09,1,,,,,セントソフィアホンゴウ,0
587,3010001251134,新規,0,2025-01-09,2025-01-09,株式会社ＭｙｃｏＧｅｎｏｍｅ,,株式会社,東京都,千代田区,富士見１丁目３番１１号富士見デュープレックスＢ’ｓ４Ｆ,,13,101,1020071,,,,,,,2025-01-09,1,,,,,マイコジェノム,0
588,3010001251142,新規,0,2025-01-09,2025-01-09,株式会社Ｌｕｎａ　Ｐｉｅｎａ,,株式会社,東京都,中央区,銀座１丁目１２－４Ｎ＆ＥＢＬＤ．６Ｆ,,13,102,1040061,,,,,,,2025-01-09,1,,,,,ルナピエーナ,0
589,3010001251159,新規,0,2025-01-09,2025-01-09,株式会社ｉＣＯＮ,,株式会社,東京都,中央区,銀座１丁目１２番４号Ｎ＆ＥＢＬＤ．６Ｆ,,13,102,1040061,,,,,,,2025-01-09,1,,,,,アイコン,0
590,3010001251183,新規,0,2025-01-09,2025-01-09,株式会社ＳＣ　Ｃａｐｉｔａｌ　Ｐａｒｔｎｅｒｓ,,株式会社,東京都,千代田区,麹町４丁目４番地４ＡＣＮ麹町ビル１２階,,13,101,1020083,,,,,,,2025-01-09,1,,,,,エスシーキャピタルパートナーズ,0
591,3010001251191,新規,0,2025-01-09,2025-01-09,ＩＷＴ人財株式会社,,株式会社,東京都,中央区,八丁堀４丁目１０番１号,,13,102,1040032,,,,,,,2025-01-09,1,,,,,アイダブルティージンザイ,0
597,3010003045971,新規,0,2025-01-09,2025-01-09,合同会社ＨＡＲＢ,,合同会社,東京都,中央区,勝どき５丁目５番１４－１２０７号,,13,102,1040054,,,,,,,2025-01-09,1,,,,,ハーブ,0
598,3010003046037,新規,0,2025-01-09,2025-01-09,ＡＢＣ　Ｌｉｇｈｔ合同会社,,合同会社,東京都,千代田区,神田和泉町１番地６－１６ヤマトビル４０５,,13,101,1010024,,,,,,,2025-01-09,1,,,,,エービーシーライト,0
600,3010401187440,新規,0,2025-01-09,2025-01-09,株式会社ｃｒｅａｇｉｎａｔｉｏｎ,,株式会社,東京都,港区,南青山２丁目２番１５号ＷｉｎＡｏｙａｍａビルＵＣＦ６３５,,13,103,1070062,,,,,,,2025-01-09,1,,,,,クリエイジネーション,0
602,3010403034145,新規,0,2025-01-09,2025-01-09,アッパーマネジメント合同会社,,合同会社,東京都,港区,港南４丁目６－３,,13,103,1080075,,,,,,,2025-01-09,1,,,,,アッパーマネジメント,0
605,3010701047088,新規,0,2025-01-09,2025-01-09,株式会社Ｂｏｒｄｅｒａｓｅｒ,,株式会社,東京都,品川区,平塚３丁目１番７号フォルトゥナート戸越４０２,,13,109,1420051,,,,,,,2025-01-09,1,,,,,ボーダレーサー,0
606,3010801035728,新規,0,2025-01-09,2025-01-09,株式会社リクリア,,株式会社,東京都,大田区,西蒲田３丁目２番２号,,13,111,1440051,,,,,,,2025-01-09,1,,,,,リクリア,0
609,3010901056624,新規,0,2025-01-09,2025-01-09,ＲＯＯＴ　Ｏｃｃｕｐａｔｉｏｎａｌ　Ｔｈｅｒａｐｙ　Ｓｅｒｖｉｃｅｓ株式会社,,株式会社,東京都,世田谷区,瀬田３丁目７番１３－３０１号,,13,112,1580095,,,,,,,2025-01-09,1,,,,,ルートオキュペーショナルセラピーサービスィズ,0
610,3010903009621,新規,0,2025-01-09,2025-01-09,合同会社Ｔｏ　Ｇｏ,,合同会社,東京都,世田谷区,三軒茶屋２丁目１５番３号寺尾ビル２０２,,13,112,1540024,,,,,,,2025-01-09,1,,,,,トゥーゴー,0
622,3011001166909,新規,0,2025-01-09,2025-01-09,口コミ評価研究所株式会社,,株式会社,東京都,渋谷区,南平台町３番８号渋谷ＴＳＫビル４階,,13,113,1500036,,,,,,,2025-01-09,1,,,,,クチコミヒョウカケンキュウジョ,0
623,3011001166966,新規,0,2025-01-09,2025-01-09,株式会社Ｌ’ａｍｉ,,株式会社,東京都,渋谷区,神宮前３丁目３６番１９号シェルブール１階,,13,113,1500001,,,,,,,2025-01-09,1,,,,,ラミ,0
624,3011001166982,新規,0,2025-01-09,2025-01-09,Ｇ‐Ｔｅｃｈ株式会社,,株式会社,東京都,渋谷区,渋谷２丁目１９番１５号宮益坂ビルディング６０９,,13,113,1500002,,,,,,,2025-01-09,1,,,,,ジーテック,0
625,3011001167023,新規,0,2025-01-09,2025-01-09,株式会社ｔａｓ,,株式会社,東京都,渋谷区,神宮前６丁目１４番６号ＩＮＯ５・３Ｆ,,13,113,1500001,,,,,,,2025-01-09,1,,,,,タス,0
626,3011001167031,新規,0,2025-01-09,2025-01-09,株式会社ミヤモト,,株式会社,東京都,渋谷区,恵比寿西１丁目３３番１８－５０２号,,13,113,1500021,,,,,,,2025-01-09,1,,,,,ミヤモト,0
627,3011001167072,新規,0,2025-01-09,2025-01-09,株式会社ユーソレイド,,株式会社,東京都,渋谷区,渋谷２丁目１９―１５宮益坂ビルディング６０９,,13,113,1500002,,,,,,,2025-01-09,1,,,,,ユーソレイド,0
628,3011003020642,新規,0,2025-01-09,2025-01-09,合同会社ｄｏｔ　ＵＰ,,合同会社,東京都,渋谷区,渋谷３丁目２－４帝都青山第２ビルＫＥＩＳＥＩＢＩＺｃｏｍｆｏｒｔ渋谷南,,13,113,1500002,,,,,,,2025-01-09,1,,,,,ドットアップ,0
629,3011003020717,新規,0,2025-01-09,2025-01-09,合同会社アフタ,,合同会社,東京都,目黒区,青葉台１丁目２９番６－１０６号,,13,110,1530042,,,,,,,2025-01-09,1,,,,,,0
642,3011501031570,新規,0,2025-01-09,2025-01-09,株式会社ケンカタオカ,,株式会社,東京都,荒川区,荒川５丁目７番１号スタープラチナＡｒｃ町屋１Ｆ,,13,118,1160002,,,,,,,2025-01-09,1,,,,,ケンカタオカ,0
644,3011703004077,新規,0,2025-01-09,2025-01-09,合同会社Ｎｏｒｔｈｅｒｎ　Ｌｉｇｈｔｓ,,合同会社,東京都,江戸川区,小松川１丁目２－２－５１８,,13,123,1320034,,,,,,,2025-01-09,1,,,,,ノーザンライツ,0
647,3011801045403,新規,0,2025-01-09,2025-01-09,株式会社ＤＯＵＢＬＥ．Ｎ,,株式会社,東京都,葛飾区,新小岩１丁目４９番３号第９４東京ビル２Ｆ,,13,122,1240024,,,,,,,2025-01-09,1,,,,,ダブルエヌ,0
648,3012301014220,新規,0,2025-01-09,2025-01-09,株式会社エイチ・ジェイ・インターナショナル,,株式会社,東京都,町田市,図師町１３３５番地１ライオンズガーデン町田の丘３１１,,13,209,1940203,,,,,,,2025-01-09,1,,,,,エイチジェイインターナショナル,0
654,3012401042600,新規,0,2025-01-09,2025-01-09,株式会社ＦＲＥＥ　ＳＴＹＬＥ,,株式会社,東京都,調布市,多摩川１丁目３番地２リッチハウス１０１号室,,13,208,1820025,,,,,,,2025-01-09,1,,,,,フリースタイル,0
655,3012401042641,新規,0,2025-01-09,2025-01-09,株式会社Ｗｅｅ’ｓ,,株式会社,東京都,府中市,四谷４丁目１６－９,,13,206,1830035,,,,,,,2025-01-09,1,,,,,ウィーズ,0
659,3012805003306,新規,0,2025-01-09,2025-01-09,特定非営利活動法人サードコミュニティ,,その他の設立登記法人,東京都,立川市,錦町１丁目４番４号サニービル２ＦＣＳ－１８９,,13,202,1900022,,,,,,,2025-01-09,1,,,,,サードコミュニティ,0
660,3013101009600,新規,0,2025-01-09,2025-01-09,株式会社イシダ精機,,株式会社,東京都,青梅市,友田町２丁目７６４番地,,13,205,1980051,,,,,,,2025-01-09,1,,,,,イシダセイキ,0
662,3013301053638,新規,0,2025-01-09,2025-01-09,株式会社Ｄ‐ｆｉｔｔ,,株式会社,東京都,豊島区,東池袋２丁目６２番地９号９０２,,13,116,1700013,,,,,,,2025-01-09,1,,,,,ディーフィット,0
668,3020001160796,新規,0,2025-01-09,2025-01-09,株式会社ＧＯＯＤ　ＦＯＬＫ　ＯＮＥ,,株式会社,神奈川県,横浜市鶴見区,上の宮１丁目３４番１７号,,14,101,2300075,,,,,,,2025-01-09,1,,,,,グッドフォークワン,0
669,3020001160870,新規,0,2025-01-09,2025-01-09,株式会社ＫＡＮＡＤＥ,,株式会社,神奈川県,横浜市港南区,下永谷５丁目６番２５号,,14,111,2330016,,,,,,,2025-01-09,1,,,,,カナデ,0
670,3020001160879,新規,0,2025-01-09,2025-01-09,美鷹ホールディングス株式会社,,株式会社,神奈川県,横浜市西区,みなとみらい２丁目２番１号横浜ランドマークタワー２０Ｆ,,14,103,2200012,,,,,,,2025-01-09,1,,,,,ミタカホールディングス,0
671,3020001160978,新規,0,2025-01-09,2025-01-09,株式会社ＡＷＡＲＤ,,株式会社,神奈川県,横浜市港北区,新羽町２１３０番地２,,14,109,2230057,,,,,,,2025-01-09,1,,,,,アワード,0
677,3020005016689,新規,0,2025-01-09,2025-01-09,ＳＡＴ１一般社団法人,,その他の設立登記法人,神奈川県,川崎市川崎区,東田町２番１９号エステムプラザ川崎９０１号室,,14,131,2100005,,,,,,,2025-01-09,1,,,,,エスエーティーワン,0
679,3021001084176,新規,0,2025-01-09,2025-01-09,株式会社福原自動車,,株式会社,神奈川県,大和市,渋谷８丁目７番地６アーバンネクスト１０１,,14,213,2420023,,,,,,,2025-01-09,1,,,,,フクハラジドウシャ,0
680,3021001084201,新規,0,2025-01-09,2025-01-09,株式会社ＧｒｅｅｎＲｏｏｍ　ＫＡＭＡＫＵＲＡ,,株式会社,神奈川県,鎌倉市,腰越５丁目１２－２,,14,204,2480033,,,,,,,2025-01-09,1,,,,,グリーンルームカマクラ,0
687,3030001164136,新規,0,2025-01-09,2025-01-09,株式会社泰,,株式会社,埼玉県,さいたま市北区,宮原町４丁目９９－１２第２８大宮ハイツ３０５,,11,102,3310812,,,,,,,2025-01-09,1,,,,,ヤスラギ,0
688,3030001164251,新規,0,2025-01-09,2025-01-09,株式会社ＡＲＳＨＡ,,株式会社,埼玉県,吉川市,大字三輪野江１９４３－３,,11,243,3420027,,,,,,,2025-01-09,1,,,,,アーシャ,0
689,3030001164268,新規,0,2025-01-09,2025-01-09,Ｗｅｌｌ‐Ｂｅｉｎｇ株式会社,,株式会社,埼玉県,白岡市,西８丁目４番２号,,11,246,3490205,,,,,,,2025-01-09,1,,,,,ウェルビーイング,0
690,3030001164276,新規,0,2025-01-09,2025-01-09,Ｃ．Ｓ．ＵＮＩＴ株式会社,,株式会社,埼玉県,さいたま市大宮区,桜木町２丁目３番大宮マルイ７階,,11,103,3300854,,,,,,,2025-01-09,1,,,,,シーエスユニット,0
691,3030001164284,新規,0,2025-01-09,2025-01-09,株式会社藤石,,株式会社,埼玉県,所沢市,中新井３丁目６番６号,,11,208,3590041,,,,,,,2025-01-09,1,,,,,フジセキ,0
697,3040001136737,新規,0,2025-01-09,2025-01-09,Ｗｈｅｅｌｓ株式会社,,株式会社,千葉県,市川市,福栄２丁目７番４―１０１号,,12,203,2720137,,,,,,,2025-01-09,1,,,,,ホイールズ,0
698,3040001136803,新規,0,2025-01-09,2025-01-09,株式会社スピネルＨＤ,,株式会社,千葉県,松戸市,新松戸１丁目４５０番地の１第２ニューハイツ３０２号室,,12,207,2700034,,,,,,,2025-01-09,1,,,,,スピネルホールディングス,0
699,3040001136860,新規,0,2025-01-09,2025-01-09,株式会社ハレいろ,,株式会社,千葉県,柏市,松葉町３丁目２番地５,,12,217,2770827,,,,,,,2025-01-09,1,,,,,ハレイロ,0
700,3040001136877,新規,0,2025-01-09,2025-01-09,株式会社ＤＹＳ,,株式会社,千葉県,千葉市中央区,栄町１１番３号,,12,101,2600016,,,,,,,2025-01-09,1,,,,,ディーワイエス,0
701,3040003026548,新規,0,2025-01-09,2025-01-09,合同会社山崎商会,00137582,合同会社,千葉県,茂原市,高田５５２番地７,,12,210,2994116,,,,,,,2025-01-09,1,,,,,ヤマサキショウカイ,0
702,3040003026564,新規,0,2025-01-09,2025-01-09,合同会社資産管理,,合同会社,千葉県,千葉市美浜区,真砂３丁目１８番地１号検見川マリンタウン８１０,,12,106,2610011,,,,,,,2025-01-09,1,,,,,シサンカンリ,0
705,3050003008909,新規,0,2025-01-09,2025-01-09,ＳＵＺＵＫＩＳＨＯＪＩ合同会社,,合同会社,茨城県,神栖市,深芝南２丁目９番地２雅荘９号室,,08,232,3140142,,,,,,,2025-01-09,1,,,,,スズキショウジ,0
711,3070001042503,新規,0,2025-01-09,2025-01-09,Ｈｙａｎｇｍｉ．Ｒｅｃｉｐｅ’ｓ株式会社,,株式会社,群馬県,前橋市,富士見町小暮１８６０番地９,,10,201,3710103,,,,,,,2025-01-09,1,,,,,ヒャンミレシピーズ,0
712,3070001042528,新規,0,2025-01-09,2025-01-09,株式会社ＡｌｋＵｎｅｌｍａ,,株式会社,群馬県,前橋市,前箱田町３８７番地１,,10,201,3710835,,,,,,,2025-01-09,1,,,,,アルクネルマ,0
715,3070003005739,新規,0,2025-01-09,2025-01-09,合同会社ビークライム,,合同会社,群馬県,伊勢崎市,境美原１２番地３１,,10,204,3700115,,,,,,,2025-01-09,1,,,,,ビークライム,0
716,3070003005747,新規,0,2025-01-09,2025-01-09,ムラサン合同会社,,合同会社,群馬県,伊勢崎市,堀下町１６７９番地アーキテクトハイツ３０５,,10,204,3792212,,,,,,,2025-01-09,1,,,,,ムラサン,0
717,3080001026694,新規,0,2025-01-09,2025-01-09,アポロテントジャパン株式会社,,株式会社,静岡県,焼津市,大住３７番地,,22,212,4250072,,,,,,,2025-01-09,1,,,,,アポロテントジャパン,0
718,3080001026711,新規,0,2025-01-09,2025-01-09,株式会社ネクストゲート,,株式会社,静岡県,静岡市葵区,清閑町９番５号,,22,101,4200047,,,,,,,2025-01-09,1,,,,,ネクストゲート,0
721,3080401027672,新規,0,2025-01-09,2025-01-09,株式会社Ｅａｒｔｈ　Ｐｅａｃｅ,,株式会社,静岡県,磐田市,福田５３９８番地,,22,211,4371203,,,,,,,2025-01-09,1,,,,,アースピース,0
731,3100003007921,新規,0,2025-01-09,2025-01-09,合同会社今川屋,,合同会社,長野県,飯山市,大字飯山２５７８番地２,,20,213,3892253,,,,,,,2025-01-09,1,,,,,イマガワヤ,0
732,3100005013281,新規,0,2025-01-09,2025-01-09,一般社団法人賛美,,その他の設立登記法人,長野県,松本市,大字今井５９５２番地２,,20,202,3901131,,,,,,,2025-01-09,1,,,,,サンビ,0
734,3110001038983,新規,0,2025-01-09,2025-01-09,株式会社燈,,株式会社,新潟県,新潟市北区,白新町２丁目２番１号,,15,101,9503325,,,,,,,2025-01-09,1,,,,,アカリ,0
735,3110003005627,新規,0,2025-01-09,2025-01-09,合同会社ＭＭ　ＪＡＰＡＮ　ＦＯＯＤＳ,,合同会社,新潟県,新潟市西区,内野西２丁目８番７４号,,15,107,9502151,,,,,,,2025-01-09,1,,,,,エムエムジャパンフーズ,0
742,3120001270676,新規,0,2025-01-09,2025-01-09,Ｓｏｌｅｉｌ株式会社,,株式会社,大阪府,大阪市西成区,千本中１丁目１６番１９号,,27,122,5570054,,,,,,,2025-01-09,1,,,,,ソレイル,0
743,3120001271518,新規,0,2025-01-09,2025-01-09,株式会社ＲｅａＣｈａｒｕ,,株式会社,大阪府,大阪市中央区,南本町２丁目５番１３－１００５号,,27,128,5410054,,,,,,,2025-01-09,1,,,,,リーチャル,0
744,3120001271625,新規,0,2025-01-09,2025-01-09,株式会社カクシン,,株式会社,大阪府,大阪市中央区,谷町７丁目６－１１ＷＩＬＬＤＯ谷町４０１号,,27,128,5420012,,,,,,,2025-01-09,1,,,,,カクシン,0
745,3120001271641,新規,0,2025-01-09,2025-01-09,株式会社こはく,,株式会社,大阪府,大阪市住之江区,御崎３丁目７番１７－４０５号,,27,125,5590013,,,,,,,2025-01-09,1,,,,,コハク,0
746,3120001271658,新規,0,2025-01-09,2025-01-09,Ａ‐ｉｍａｇｅ株式会社,,株式会社,大阪府,大阪市旭区,大宮２丁目７番２１号,,27,117,5350002,,,,,,,2025-01-09,1,,,,,エエイメージ,0
747,3120001271674,新規,0,2025-01-09,2025-01-09,株式会社Ｇｏｏｄ　Ｃｏ．,,株式会社,大阪府,大阪市北区,中之島６丁目１番３８－８１６号,,27,127,5300005,,,,,,,2025-01-09,1,,,,,グッドカンパニー,0
748,3120001271682,新規,0,2025-01-09,2025-01-09,とものや株式会社,,株式会社,大阪府,大阪市北区,梅田１丁目１－３大阪駅前第３ビル２９階１－１－１号室,,27,127,5300001,,,,,,,2025-01-09,1,,,,,トモノヤ,0
749,3120001271690,新規,0,2025-01-09,2025-01-09,Ａ．ｂｌｏｏｍ株式会社,,株式会社,大阪府,大阪市天王寺区,味原町７番２０号１階,,27,109,5430023,,,,,,,2025-01-09,1,,,,,エーブルーム,0
750,3120001271699,新規,0,2025-01-09,2025-01-09,株式会社ＡｉＨｉＲＯ,,株式会社,大阪府,大阪市都島区,毛馬町１丁目５番２２号,,27,102,5340001,,,,,,,2025-01-09,1,,,,,アイヒロ,0
751,3120001271757,新規,0,2025-01-09,2025-01-09,株式会社テクニカルヒューマン,,株式会社,大阪府,大阪市西区,新町４丁目１番１４号ＨＫ新町ビル４Ｆ,,27,106,5500013,,,,,,,2025-01-09,1,,,,,テクニカルヒューマン,0
752,3120001271872,新規,0,2025-01-09,2025-01-09,翡翠坊株式会社,,株式会社,大阪府,大阪市北区,中之島６丁目１番３８－３２１３,,27,127,5300005,,,,,,,2025-01-09,1,,,,,ヒスイボウ,0
755,3120003028305,新規,0,2025-01-09,2025-01-09,合同会社衣繊,,合同会社,大阪府,大阪市中央区,平野町１丁目４－１－２Ｆ,,27,128,5410046,,,,,,,2025-01-09,1,,,,,イッセン,0
760,3120101070836,新規,0,2025-01-09,2025-01-09,株式会社ＡＳＨＬＥＹ,,株式会社,大阪府,堺市北区,東上野芝町２丁５５８,,27,146,5918035,,,,,,,2025-01-09,1,,,,,アシュリー,0
761,3120101070860,新規,0,2025-01-09,2025-01-09,Ａ＆Ｔエナジー株式会社,,株式会社,大阪府,岸和田市,大工町１番２２号,,27,202,5960066,,,,,,,2025-01-09,1,,,,,エーアンドティエナジー,0
763,3120103006219,新規,0,2025-01-09,2025-01-09,ＢｏｄｙＤｅｓｉｇｎＷｏｒｋｓ合同会社,,合同会社,大阪府,岸和田市,上町４５番１９号,,27,202,5960077,,,,,,,2025-01-09,1,,,,,ボディーデザインワークス,0
764,3120901050260,新規,0,2025-01-09,2025-01-09,株式会社井上水道メンテナンス,,株式会社,大阪府,高槻市,芝生町２丁目１０番３号,,27,207,5690823,,,,,,,2025-01-09,1,,,,,イノウエスイドウメンテナンス,0
767,3122003003080,新規,0,2025-01-09,2025-01-09,Ｂｒｉｄｇｅ　Ｆｏｒ　Ｐｅａｃｅ合同会社,,合同会社,大阪府,八尾市,旭ケ丘１丁目３３番地の１７,,27,212,5810833,,,,,,,2025-01-09,1,,,,,ブリッジフォーピース,0
769,3130001078722,新規,0,2025-01-09,2025-01-09,株式会社京美堂,,株式会社,京都府,京都市伏見区,桃山井伊掃部西町２３番地４,,26,109,6120074,,,,,,,2025-01-09,1,,,,,キョウビドウ,0
771,3130003010121,新規,0,2025-01-09,2025-01-09,茶助合同会社,,合同会社,京都府,京田辺市,田辺中央６丁目７番地１３、３０３,,26,211,6100334,,,,,,,2025-01-09,1,,,,,チャスケ,0
772,3140001035202,新規,0,2025-01-09,2025-01-09,東洋化工機株式会社,,株式会社,兵庫県,明石市,大久保町八木字宮西４９４番地,,28,203,6740063,,,,,,,2025-01-09,1,,,,,トウヨウカコウキ,0
774,3140001136958,新規,0,2025-01-09,2025-01-09,ｎｏｎｆｌｉｃｔ株式会社,,株式会社,兵庫県,神戸市兵庫区,熊野町４丁目１４番２－２号－２Ｂ,,28,105,6520064,,,,,,,2025-01-09,1,,,,,ノンフリクト,0
775,3140001137048,新規,0,2025-01-09,2025-01-09,株式会社暁月,,株式会社,兵庫県,加古川市,東神吉町天下原２２１－９,,28,210,6750058,,,,,,,2025-01-09,1,,,,,アカツキ,0
776,3140001137056,新規,0,2025-01-09,2025-01-09,株式会社星野製作所,,株式会社,兵庫県,神戸市西区,神出町北３５０番地の２,,28,111,6512332,,,,,,,2025-01-09,1,,,,,ホシノセイサクショ,0
779,3140003021506,新規,0,2025-01-09,2025-01-09,合同会社ＫＣＨ,,合同会社,兵庫県,姫路市,本町１２７番地,,28,201,6700012,,,,,,,2025-01-09,1,,,,,ケーシーエイチ,0
781,3160001026471,新規,0,2025-01-09,2025-01-09,株式会社かずくんリフォーム,,株式会社,滋賀県,甲賀市,水口町今郷７７６番地２,,25,209,5280002,,,,,,,2025-01-09,1,,,,,カズクンリフォーム,0
789,3180001164798,新規,0,2025-01-09,2025-01-09,縁パートナー株式会社,,株式会社,愛知県,愛西市,本部田町本東１４０番地,,23,232,4960915,,,,,,,2025-01-09,1,,,,,エニシパートナー,0
790,3180001164815,新規,0,2025-01-09,2025-01-09,株式会社ＢＵＺＺ　ＲＡＲＩＴＹ,,株式会社,愛知県,名古屋市中村区,名駅４丁目２４番５号第２森ビル４０１,,23,105,4500002,,,,,,,2025-01-09,1,,,,,バズレリティ,0
791,3180001164864,新規,0,2025-01-09,2025-01-09,株式会社Ｎａｇａｔｏｍｏ,,株式会社,愛知県,名古屋市北区,若葉通４丁目２番地の１,,23,103,4620854,,,,,,,2025-01-09,1,,,,,ナガトモ,0
793,3180003027813,新規,0,2025-01-09,2025-01-09,しなの合同会社,,合同会社,愛知県,瀬戸市,品野町６丁目１３３－１,,23,204,4801207,,,,,,,2025-01-09,1,,,,,シナノ,0
798,3180303006392,新規,0,2025-01-09,2025-01-09,合同会社Ｎｅｘｕｓ,,合同会社,愛知県,豊橋市,小向町字北小向７４ドエルしかすが３０５,,23,201,4418003,,,,,,,2025-01-09,1,,,,,ネクサス,0
801,3190001031931,新規,0,2025-01-09,2025-01-09,株式会社Ａｃｔｉｏｎ　Ｃｏｍｐａｎｙ,,株式会社,三重県,松阪市,嬉野八田町１６５番地４,,24,204,5152352,,,,,,,2025-01-09,1,,,,,アクションカンパニー,0
805,3190005012011,新規,0,2025-01-09,2025-01-09,一般社団法人てあみ,,その他の設立登記法人,三重県,津市,雲出本郷町１２３６番地４,,24,201,5140304,,,,,,,2025-01-09,1,,,,,テアミ,0
807,3200001043306,新規,0,2025-01-09,2025-01-09,株式会社中口牧場,,株式会社,岐阜県,高山市,朝日町西洞３７７番地１,,21,203,5093314,,,,,,,2025-01-09,1,,,,,ナカグチボクジョウ,0
810,3210001020023,新規,0,2025-01-09,2025-01-09,株式会社きらきら不動産,,株式会社,福井県,福井市,高木中央１丁目３３０４番地７,,18,201,9100804,,,,,,,2025-01-09,1,,,,,キラキラフドウサン,0
812,3220001026408,新規,0,2025-01-09,2025-01-09,株式会社ＫＯＭＡＣ,,株式会社,石川県,小松市,符津町ム１６１番地１,,17,203,9230302,,,,,,,2025-01-09,1,,,,,コマック,0
815,3230001020698,新規,0,2025-01-09,2025-01-09,株式会社メガロソフト,,株式会社,富山県,富山市,三室荒屋５４１番地６４,,16,201,9301314,,,,,,,2025-01-09,1,,,,,メガロソフト,0
817,3240001064364,新規,0,2025-01-09,2025-01-09,Ａｉｄ　Ｇｒｏｕｐ株式会社,,株式会社,広島県,広島市佐伯区,五日市町石内作谷３３４４番地１,,34,108,7315100,,,,,,,2025-01-09,1,,,,,エイドグループ,0
820,3250005008969,新規,0,2025-01-09,2025-01-09,一般社団法人ＯＺ　Ｆｕｔｅｂｏｌ　Ｃｌｕｂｅ,,その他の設立登記法人,山口県,岩国市,車町１丁目１５番１９－４号,,35,208,7400026,,,,,,,2025-01-09,1,,,,,オズフットボールクラブ,0
821,3260001039785,新規,0,2025-01-09,2025-01-09,株式会社アンレーヴ,,株式会社,岡山県,岡山市北区,楢津６６６－５,,33,101,7011202,,,,,,,2025-01-09,1,,,,,アンレーヴ,0
822,3260003005026,新規,0,2025-01-09,2025-01-09,エリートワン合同会社,,合同会社,岡山県,岡山市北区,南方３丁目８番１０号プリエールｓａｙａ２０５,,33,101,7000807,,,,,,,2025-01-09,1,,,,,エリートワン,0
823,3270003001701,新規,0,2025-01-09,2025-01-09,合同会社アシプラテクノス,,合同会社,鳥取県,境港市,東雲町５２番地２,,31,204,6840015,,,,,,,2025-01-09,1,,,,,アシプラテクノスス,0
824,3290001108455,新規,0,2025-01-09,2025-01-09,株式会社ランス,,株式会社,福岡県,福岡市博多区,堅粕２丁目４番１１－２０８号アリビオ博多駅北,,40,132,8120043,,,,,,,2025-01-09,1,,,,,ランス,0
825,3290001108513,新規,0,2025-01-09,2025-01-09,株式会社クリスタル,,株式会社,福岡県,福岡市早良区,曙１丁目９番２１－１０１号ハイツフォーレスト,00137584,40,137,8140004,,,,,,,2025-01-09,1,,,,,クリスタル,0
826,3290001108554,新規,0,2025-01-09,2025-01-09,株式会社ウェルビーイングみずほ,,株式会社,福岡県,宗像市,三郎丸１丁目４番２７－１０２号,,40,220,8114143,,,,,,,2025-01-09,1,,,,,ウェルビーイングミズホ,0
829,3290003016268,新規,0,2025-01-09,2025-01-09,ＯｆｆｉｃｅＩＴＯ合同会社,,合同会社,福岡県,福岡市中央区,長浜２丁目２番２６－１４０４号,,40,133,8100072,,,,,,,2025-01-09,1,,,,,オフィスイトー,0
830,3290801031179,新規,0,2025-01-09,2025-01-09,株式会社宮城建設,,株式会社,福岡県,田川郡川崎町,大字川崎２４６－１１,,40,605,8270003,,,,,,,2025-01-09,1,,,,,ミヤギケンセツ,0
831,3290805009799,新規,0,2025-01-09,2025-01-09,司法書士法人井星事務所,,その他の設立登記法人,福岡県,北九州市小倉北区,大門２丁目１番４－６０５号,,40,106,8030811,,,,,,,2025-01-09,1,,,,,イボシジムショ,0
832,3310001019402,新規,0,2025-01-09,2025-01-09,株式会社ながさきマリンファーム,,株式会社,長崎県,長崎市,矢上町３２番１３号,,42,201,8510133,,,,,,,2025-01-09,1,,,,,ナガサキマリンファーム,0
834,3320001020887,新規,0,2025-01-09,2025-01-09,カメリア株式会社,,株式会社,大分県,大分市,星和台２丁目１８番１７号,,44,201,8701114,,,,,,,2025-01-09,1,,,,,カメリア,0
836,3340001027014,新規,0,2025-01-09,2025-01-09,株式会社ＭＮＴ,,株式会社,鹿児島県,熊毛郡南種子町,中之上字石ノ峯１７１１－１,,46,502,8913701,,,,,,,2025-01-09,1,,,,,ミント,0
840,3360001034636,新規,0,2025-01-09,2025-01-09,株式会社げんき,,株式会社,沖縄県,那覇市,字宇栄原６５４番地１,,47,201,9010153,,,,,,,2025-01-09,1,,,,,ゲンキ,0
842,3370001052075,新規,0,2025-01-09,2025-01-09,株式会社ギブ・アップ,,株式会社,宮城県,仙台市青葉区,八幡１丁目３番３０号エクレール広瀬１０３,,04,101,9800871,,,,,,,2025-01-09,1,,,,,ギブアップ,0
843,3370005010896,新規,0,2025-01-09,2025-01-09,一般社団法人ひかりの園,,その他の設立登記法人,宮城県,宮城郡利府町,利府字館３２番地,,04,406,9810112,,,,,,,2025-01-09,1,,,,,ヒカリノソノ,0
845,3380001035013,新規,0,2025-01-09,2025-01-09,株式会社Ｈ‐ＳＦＩＤＡ,,株式会社,福島県,会津若松市,神指町大字黒川字湯川東１５４番地の３,,07,202,9650064,,,,,,,2025-01-09,1,,,,,エイチスフィーダ,0
849,3380003005930,新規,0,2025-01-09,2025-01-09,ずない合同会社,,合同会社,福島県,郡山市,虎丸町１番１７号,,07,203,9638014,,,,,,,2025-01-09,1,,,,,ズナイ,0
855,3430001093360,新規,0,2025-01-09,2025-01-09,株式会社辻倉,,株式会社,北海道,江別市,新栄台６－２９,,01,217,0690806,,,,,,,2025-01-09,1,,,,,ツジクラ,0
856,3430001093410,新規,0,2025-01-09,2025-01-09,株式会社遠藤工業,,株式会社,北海道,札幌市清田区,真栄一条２丁目２４番１７号,,01,110,0040831,,,,,,,2025-01-09,1,,,,,エンドウコウギョウ,0
858,3430003017094,新規,0,2025-01-09,2025-01-09,Ｎ　Ｃｌｏｕｄ合同会社,,合同会社,北海道,札幌市白石区,本通１丁目南５番３１－２０８号,,01,104,0030026,,,,,,,2025-01-09,1,,,,,エヌクラウド,0
859,3430003017144,新規,0,2025-01-09,2025-01-09,合同会社Ｎｇ２,,合同会社,北海道,札幌市中央区,北三条東５丁目３５７番地ザ・タワーズフロンティア札幌１１１０号,,01,101,0600033,,,,,,,2025-01-09,1,,,,,エヌジーツー,0
860,3430003017169,新規,0,2025-01-09,2025-01-09,合同会社コアカレント,,合同会社,北海道,札幌市北区,北三十二条西３丁目１番２６号カーサフェリーチェＮ３２－３０７号室,,01,102,0010032,,,,,,,2025-01-09,1,,,,,コアカレント,0
861,3460101007647,新規,0,2025-01-09,2025-01-09,株式会社Ｏｒｂｉｓ,,株式会社,北海道,帯広市,西十六条南１丁目１０番３号,,01,207,0800026,,,,,,,2025-01-09,1,,,,,オルビス,0
866,3500001026081,新規,0,2025-01-09,2025-01-09,株式会社ＧＲＡＣＥ,,株式会社,愛媛県,松山市,小川甲２９６番地,,38,201,7992468,,,,,,,2025-01-09,1,,,,,グラース,0
873,4010001250977,新規,0,2025-01-09,2025-01-09,株式会社Ｍｅｔｈｏｄ‐Ｌａｂ,,株式会社,東京都,中央区,銀座１丁目１２－４Ｎ＆ＥＢＬＤ．７階,,13,102,1040061,,,,,,,2025-01-09,1,,,,,メソッドラボ,0
874,4010001251042,新規,0,2025-01-09,2025-01-09,株式会社ＷｅｌｌＡｇｅｎｔ,,株式会社,東京都,千代田区,神田須田町１丁目７番８号ＶＯＲＴ秋葉原ＩＶ２Ｆ,00137564,13,101,1010041,,,,,,,2025-01-09,1,,,,,ウェルエージェント,0
875,4010001251091,新規,0,2025-01-09,2025-01-09,プライムケイテイインシュランス株式会社,,株式会社,東京都,中央区,銀座８丁目１７番５号,,13,102,1040061,,,,,,,2025-01-09,1,,,,,プライムケイテイインシュランス,0
876,4010001251158,新規,0,2025-01-09,2025-01-09,株式会社ミコテック,,株式会社,東京都,中央区,日本橋堀留町１丁目１番９号久保井ビル６階,,13,102,1030012,,,,,,,2025-01-09,1,,,,,ミコテック,0
877,4010001251166,新規,0,2025-01-09,2025-01-09,株式会社クレ,,株式会社,東京都,中央区,銀座７丁目１３番１２号サクセス銀座７ビル７Ｆ,,13,102,1040061,,,,,,,2025-01-09,1,,,,,クレ,0
878,4010001251174,新規,0,2025-01-09,2025-01-09,株式会社ジオッズ,,株式会社,東京都,中央区,日本橋室町１丁目８番２号,,13,102,1030022,,,,,,,2025-01-09,1,,,,,ジオッズ,0
879,4010001251216,新規,0,2025-01-09,2025-01-09,シー・シックス・エイト株式会社,,株式会社,東京都,千代田区,丸の内２丁目４番１号,,13,101,1000005,,,,,,,2025-01-09,1,,,,,シーシックスエイト,0
880,4010001251240,新規,0,2025-01-09,2025-01-09,Ｍｏｏｒｅみらいコンサルティング株式会社,,株式会社,東京都,千代田区,有楽町１丁目５番２号,,13,101,1000006,,,,,,,2025-01-09,1,,,,,モーアミライコンサルティング,0
885,4010103002483,新規,0,2025-01-09,2025-01-09,合同会社りばーしてぃ,,合同会社,東京都,八王子市,明神町４丁目１１番１２号,,13,201,1920046,,,,,,,2025-01-09,1,,,,,リバーシティ,0
894,4010401187415,新規,0,2025-01-09,2025-01-09,株式会社ＲＡＶ　ＲＥＳＯＲＴ,,株式会社,東京都,港区,六本木３丁目１番３０号,,13,103,1060032,,,,,,,2025-01-09,1,,,,,ラブリゾート,0
895,4010401187423,新規,0,2025-01-09,2025-01-09,株式会社ＭＡＤＯ,,株式会社,東京都,港区,北青山１丁目３番１号アールキューブ青山３階,,13,103,1070061,,,,,,,2025-01-09,1,,,,,マド,0
896,4010401187497,新規,0,2025-01-09,2025-01-09,楽栄インターナショナル株式会社,,株式会社,東京都,港区,芝１丁目２番１号１２１４号室,,13,103,1050014,,,,,,,2025-01-09,1,,,,,ラクエイインターナショナル,0
899,4010403034144,新規,0,2025-01-09,2025-01-09,合同会社プライムメンテナンス,,合同会社,東京都,港区,南青山３丁目３番３号リビエラ南青山ビル１Ｆ,,13,103,1070062,,,,,,,2025-01-09,1,,,,,プライムメンテナンス,0
901,4010501053418,新規,0,2025-01-09,2025-01-09,Ｆ．Ｃ．ＥＤＧＥ株式会社,,株式会社,東京都,台東区,浅草２丁目７番１９号高橋ビル６Ｆ,,13,106,1110032,,,,,,,2025-01-09,1,,,,,エフシーエッジ,0
902,4010501053426,新規,0,2025-01-09,2025-01-09,株式会社エタ,,株式会社,東京都,台東区,元浅草４丁目５－６,,13,106,1110041,,,,,,,2025-01-09,1,,,,,エタ,0
903,4010501053434,新規,0,2025-01-09,2025-01-09,株式会社Ｄｏｕｒｕ,,株式会社,東京都,台東区,上野６丁目１番６号御徒町グリーンハイツ１００５号,,13,106,1100005,,,,,,,2025-01-09,1,,,,,ドウル,0
904,4010501053459,新規,0,2025-01-09,2025-01-09,栄盛株式会社,,株式会社,東京都,台東区,松が谷４丁目２５番７－５０１号,,13,106,1110036,,,,,,,2025-01-09,1,,,,,エイセイ,0
905,4010503007677,新規,0,2025-01-09,2025-01-09,合同会社カトレナハウス,,合同会社,東京都,台東区,鳥越２丁目１２番１１―６０２号カリーノ鳥越,,13,106,1110054,,,,,,,2025-01-09,1,,,,,カトレナハウス,0
906,4010503007693,新規,0,2025-01-09,2025-01-09,Ｓｕｍ　Ｌｉｇｈｔ合同会社,,合同会社,東京都,台東区,台東２丁目２３番１２－２０２号,,13,106,1100016,,,,,,,2025-01-09,1,,,,,サムライト,0
908,4010701047070,新規,0,2025-01-09,2025-01-09,株式会社コ・イ・ヌール,,株式会社,東京都,品川区,大井１丁目５５番６号,,13,109,1400014,,,,,,,2025-01-09,1,,,,,コイヌール,0
909,4010801035727,新規,0,2025-01-09,2025-01-09,株式会社ｓｉｎｃｅｒｉｔｙ,,株式会社,東京都,大田区,東馬込１丁目２３－１３－１０１,,13,111,1430022,,,,,,,2025-01-09,1,,,,,シンシアリティ,0
910,4010801035735,新規,0,2025-01-09,2025-01-09,株式会社ワールドトラストマネジメント,,株式会社,東京都,大田区,蒲田４丁目６番７号,,13,111,1440052,,,,,,,2025-01-09,1,,,,,ワールドトラストマネジメント,0
914,4010901056615,新規,0,2025-01-09,2025-01-09,株式会社フードソリューション,,株式会社,東京都,世田谷区,代田２丁目５番３号,,13,112,1550033,,,,,,,2025-01-09,1,,,,,フードソリューション,0
915,4010901056623,新規,0,2025-01-09,2025-01-09,株式会社アミルナ,,株式会社,東京都,世田谷区,玉川３丁目９番１号第３明友ビル１階,,13,112,1580094,,,,,,,2025-01-09,1,,,,,アミルナ,0
916,4010903009620,新規,0,2025-01-09,2025-01-09,世田谷浪漫合同会社,,合同会社,東京都,世田谷区,南烏山１丁目１２番地１８号,,13,112,1570062,,,,,,,2025-01-09,1,,,,,セタガヤロマン,0
920,4011001166965,新規,0,2025-01-09,2025-01-09,株式会社ｃｈａｎｃｈ,,株式会社,東京都,渋谷区,神宮前６丁目６番地４号山森ビル２Ｆ,,13,113,1500001,,,,,,,2025-01-09,1,,,,,チャンチ,0
921,4011001167006,新規,0,2025-01-09,2025-01-09,株式会社ＩｌＳｅｒｅｎｏ,,株式会社,東京都,渋谷区,渋谷２丁目７番１４号ＶＯＲＴＡＯＹＡＭＡ３０２,,13,113,1500002,,,,,,,2025-01-09,1,,,,,イルセレーノ,0
922,4011001167071,新規,0,2025-01-09,2025-01-09,株式会社ＤＩＧＩＹＥＬＬ,,株式会社,東京都,渋谷区,恵比寿南１丁目２０－２シェモア恵比寿４階,,13,113,1500022,,,,,,,2025-01-09,1,,,,,デジエール,0
923,4011003020716,新規,0,2025-01-09,2025-01-09,合同会社ＭＩＺＵＫＩ,,合同会社,東京都,目黒区,碑文谷３丁目３番２１号パレス碑文谷１０２,,13,110,1520003,,,,,,,2025-01-09,1,,,,,ミズキ,0
926,4011101110146,新規,0,2025-01-09,2025-01-09,株式会社フレア,,株式会社,東京都,新宿区,西新宿７丁目１７番１４号,,13,104,1600023,,,,,,,2025-01-09,1,,,,,フレア,0
927,4011101110154,新規,0,2025-01-09,2025-01-09,株式会社ＣｏＦＷ,,株式会社,東京都,新宿区,西新宿３丁目３－１３西新宿水間ビル２Ｆ,,13,104,1600023,,,,,,,2025-01-09,1,,,,,コフー,0
933,4011203004576,新規,0,2025-01-09,2025-01-09,合同会社サーチライフ,,合同会社,東京都,中野区,中野２丁目２２‐６クアドリフォリオ２Ａ,,13,114,1640001,,,,,,,2025-01-09,1,,,,,サーチライフ,0
940,4011503006371,新規,0,2025-01-09,2025-01-09,合同会社Ｆａｔｅ　Ｃｒｅａｔｉｏｎ,,合同会社,東京都,荒川区,西日暮里５丁目３５番４号真和ビル３階,,13,118,1160013,,,,,,,2025-01-09,1,,,,,フェイトクリエーション,0
947,4011603004564,新規,0,2025-01-09,2025-01-09,合同会社聖秀ソーシャルサービス,,合同会社,東京都,練馬区,東大泉１丁目２８番２－１１０２号,,13,120,1780063,,,,,,,2025-01-09,1,,,,,セイシュウソーシャルサービス,0
948,4011701027946,新規,0,2025-01-09,2025-01-09,株式会社オーロラ・テクノロジー,,株式会社,東京都,江戸川区,南篠崎町４丁目３０番３号,,13,123,1330065,,,,,,,2025-01-09,1,,,,,オーロラテクノロジー,0
949,4011803006633,新規,0,2025-01-09,2025-01-09,合同会社Ｃ‐ｅｎ,,合同会社,東京都,葛飾区,柴又１丁目３７－２,,13,122,1250052,,,,,,,2025-01-09,1,,,,,シーエン,0
950,4012303002098,新規,0,2025-01-09,2025-01-09,テックフェローコンサルティング合同会社,,合同会社,東京都,町田市,中町３丁目３番８号,,13,209,1940021,,,,,,,2025-01-09,1,,,,,テックフェローコンサルティング,0
953,4012803003595,新規,0,2025-01-09,2025-01-09,合同会社Ｈ２Ｏ,,合同会社,東京都,東大和市,向原５丁目１１４９番地の２,,13,220,2070013,,,,,,,2025-01-09,1,,,,,エイチツーオー,0
957,4020001160804,新規,0,2025-01-09,2025-01-09,株式会社杜友,,株式会社,神奈川県,横浜市中区,山元町４丁目１７７番地,,14,104,2310851,,,,,,,2025-01-09,1,,,,,モリトモ,0
958,4020001160993,新規,0,2025-01-09,2025-01-09,株式会社Ａｌｉｃｅ,,株式会社,神奈川県,横浜市戸塚区,平戸町４０１－２８２,,14,110,2440803,,,,,,,2025-01-09,1,,,,,アリス,0
959,4020001161001,新規,0,2025-01-09,2025-01-09,Ｅ‐ｊｏｙｅｒ株式会社,,株式会社,神奈川県,横浜市南区,井土ケ谷中町１３番地,,14,105,2320052,,,,,,,2025-01-09,1,,,,,イージョア,0
963,4021001084191,新規,0,2025-01-09,2025-01-09,ＳＨＴＲＫＴ株式会社,,株式会社,神奈川県,平塚市,札場町１６番３号,,14,203,2540802,,,,,,,2025-01-09,1,,,,,ストラクト,0
964,4021001084200,新規,0,2025-01-09,2025-01-09,ＮＥＸＵＳ　Ｃｒｏｗ株式会社,,株式会社,神奈川県,横須賀市,佐島１丁目１５番３０号,,14,201,2400103,,,,,,,2025-01-09,1,,,,,ネクサスクロー,0
965,4021001084209,新規,0,2025-01-09,2025-01-09,株式会社ＳＤＳ,,株式会社,神奈川県,藤沢市,辻堂新町１丁目１－２クロスポイント湘南５Ｆ,,14,205,2510042,,,,,,,2025-01-09,1,,,,,エスディエス,0
969,4021003015434,新規,0,2025-01-09,2025-01-09,合同会社プーラヴィーダ,,合同会社,神奈川県,横須賀市,平作２丁目３番６号,,14,201,2380032,,,,,,,2025-01-09,1,,,,,プーラヴィーダ,0
970,4021003015442,新規,0,2025-01-09,2025-01-09,合同会社Ｒｅ．ＡＣＴ,,合同会社,神奈川県,中郡大磯町,国府新宿７８５番地２２,,14,341,2590112,,,,,,,2025-01-09,1,,,,,リアクト,0
976,4030001164201,新規,0,2025-01-09,2025-01-09,株式会社トバトバインターナショナル,,株式会社,埼玉県,草加市,谷塚上町５２４番地１エスポワール草加１０２号,,11,221,3400024,,,,,,,2025-01-09,1,,,,,トバトバインターナショナル,0
977,4030001164250,新規,0,2025-01-09,2025-01-09,株式会社ＫＴＫ,,株式会社,埼玉県,八潮市,大字浮塚９６６番地７,,11,234,3400835,,,,,,,2025-01-09,1,,,,,ケーティーケー,0
978,4030001164275,新規,0,2025-01-09,2025-01-09,アコヤビューティー株式会社,,株式会社,埼玉県,新座市,野火止３丁目１６－２４,,11,230,3520011,,,,,,,2025-01-09,1,,,,,アコヤビューティー,0
979,4030001164283,新規,0,2025-01-09,2025-01-09,株式会社ＳＨＩＢＡＩＮＵ,,株式会社,埼玉県,所沢市,西新井町２０番１０号,,11,208,3590035,,,,,,,2025-01-09,1,,,,,シバイヌ,0
980,4030001164300,新規,0,2025-01-09,2025-01-09,ジーアンドエヌ株式会社,,株式会社,埼玉県,熊谷市,大原３丁目８番２号,,11,202,3600812,,,,,,,2025-01-09,1,,,,,ジーアンドエヌ,0
981,4030003025822,新規,0,2025-01-09,2025-01-09,合同会社ｎｅｏｎｏａｎ,,合同会社,埼玉県,草加市,金明町１２２番地６,,11,221,3400052,,,,,,,2025-01-09,1,,,,,ネオノアン,0
986,4040001136802,新規,0,2025-01-09,2025-01-09,七海株式会社,,株式会社,千葉県,松戸市,西馬橋１丁目１番地の１６中央ハイツ２０３号,,12,207,2710044,,,,,,,2025-01-09,1,,,,,ナナミ,0
987,4040001136884,新規,0,2025-01-09,2025-01-09,株式会社Ｌｉｅｎ,,株式会社,千葉県,船橋市,前貝塚町２７５番地３,,12,204,2730042,,,,,,,2025-01-09,1,,,,,リアン,0
988,4040001136901,新規,0,2025-01-09,2025-01-09,株式会社サイトエッジ,,株式会社,千葉県,流山市,大字中野久木５５９番地の３４,,12,220,2700116,,,,,,,2025-01-09,1,,,,,サイトエッジ,0
992,4040003026563,新規,0,2025-01-09,2025-01-09,合同会社ｗａｌｅａ,,合同会社,千葉県,千葉市若葉区,都賀２丁目１４番４号エクセレントシティ都賀５０１号,,12,104,2640025,,,,,,,2025-01-09,1,,,,,ワレア,0
994,4050001055968,新規,0,2025-01-09,2025-01-09,株式会社モアエモア,,株式会社,茨城県,つくば市,島名１１３７番地（香取台Ａ４４街区６）,,08,220,3002655,,,,,,,2025-01-09,1,,,,,モアエモア,0
995,4050001055976,新規,0,2025-01-09,2025-01-09,株式会社ＢＨＯＬＯＳ,,株式会社,茨城県,古河市,下大野２７２２番地４,,08,204,3060204,,,,,,,2025-01-09,1,,,,,ボロス,0
997,4060003005383,新規,0,2025-01-09,2025-01-09,合同会社ＦＪＰ,,合同会社,栃木県,栃木市,藤岡町都賀１７７１番地３,,09,203,3231106,,,,,,,2025-01-09,1,,,,,エフジェーピー,0
1000,4080001026702,新規,0,2025-01-09,2025-01-09,株式会社あおき,,株式会社,静岡県,静岡市清水区,北矢部町１丁目５番６号,,22,103,4240937,,,,,,,2025-01-09,1,,,,,アオキ,0
1002,4080003003369,新規,0,2025-01-09,2025-01-09,Ｔ＆ＩＷｏｒｋｓ合同会社,,合同会社,静岡県,藤枝市,南駿河台６丁目１番３－５９号,,22,214,4260078,,,,,,,2025-01-09,1,,,,,ティアンドアイワークス,0
1008,4090005007672,新規,0,2025-01-09,2025-01-09,一般社団法人あんしん相続支援協会,,その他の設立登記法人,山梨県,甲斐市,富竹新田２４５番地２昭和土地ビル２号館３階４,,19,210,4000113,,,,,,,2025-01-09,1,,,,,,0
1014,4110003005626,新規,0,2025-01-09,2025-01-09,合同会社マンタ,,合同会社,新潟県,新潟市中央区,女池上山４丁目９－１０,,15,103,9500945,,,,,,,2025-01-09,1,,,,,マンタ,0
1024,4120001271517,新規,0,2025-01-09,2025-01-09,株式会社ＢｌｏｏＭｅ,,株式会社,大阪府,大阪市天王寺区,東高津町１１番７号上本町ＩＢＰタワー４Ｅ,,27,109,5430021,,,,,,,2025-01-09,1,,,,,ブルーミー,0
1025,4120001271582,新規,0,2025-01-09,2025-01-09,株式会社Ｖｉｃｔｏｒｉａ,,株式会社,大阪府,大阪市天王寺区,南河堀町６番４０号リヴァディチ天王寺４０２号,,27,109,5430054,,,,,,,2025-01-09,1,,,,,ヴィクトリア,0
1026,4120001271640,新規,0,2025-01-09,2025-01-09,株式会社Ｍ’ｚ,,株式会社,大阪府,大阪市淀川区,十三東１丁目２０番３号グランビュー大阪７０１号室,,27,123,5320023,,,,,,,2025-01-09,1,,,,,エムズ,0
1027,4120001271649,新規,0,2025-01-09,2025-01-09,株式会社ベリリウム,,株式会社,大阪府,大阪市中央区,南船場３丁目２番２２号おおきに南船場ビル２０５,,27,128,5420081,,,,,,,2025-01-09,1,,,,,ベリリウム,0
1028,4120001271665,新規,0,2025-01-09,2025-01-09,株式会社ＳＴＡＣＫ,,株式会社,大阪府,寝屋川市,太秦中町１番３号高本マンション,,27,215,5720843,,,,,,,2025-01-09,1,,,,,スタック,0
1029,4120001271698,新規,0,2025-01-09,2025-01-09,株式会社ＳＨＩＮＯＫＩ,,株式会社,大阪府,大阪市西淀川区,大和田２丁目３番１７－１００４号,,27,113,5550032,,,,,,,2025-01-09,1,,,,,シノキ,0
1030,4120001271707,新規,0,2025-01-09,2025-01-09,万宝株式会社,,株式会社,大阪府,大阪市北区,天神橋４丁目７－１３イトーピア扇町ビル４０２号,,27,127,5300041,,,,,,,2025-01-09,1,,,,,マンポウ,0
1035,4120003028304,新規,0,2025-01-09,2025-01-09,ＳＲネット合同会社,,合同会社,大阪府,大阪市東淀川区,東中島１丁目１７－５－４０６,,27,114,5330033,,,,,,,2025-01-09,1,,,,,エスアールネット,0
1037,4120005024697,新規,0,2025-01-09,2025-01-09,一般社団法人スマートヴィーガン協会,,その他の設立登記法人,大阪府,大阪市中央区,瓦屋町２丁目４番１２号,,27,128,5420066,,,,,,,2025-01-09,1,,,,,スマートヴィーガンキョウカイ,0
1040,4120101070868,新規,0,2025-01-09,2025-01-09,順業株式会社,,株式会社,大阪府,高石市,取石１丁目７番５号,,27,225,5920013,,,,,,,2025-01-09,1,,,,,ジュンギョウ,0
1046,4130001078688,新規,0,2025-01-09,2025-01-09,株式会社アメイジングワールド,,株式会社,京都府,京都市中京区,中島町７８番地,,26,104,6048004,,,,,,,2025-01-09,1,,,,,アメイジングワールド,0
1047,4130001078738,新規,0,2025-01-09,2025-01-09,１２３ＷＡＮＴＯＦＲＥＥ株式会社,,株式会社,京都府,京都市中京区,御池通西洞院東入橋之町７３８番地プレミスト京都御池通１１階１１０２号室,,26,104,6040033,,,,,,,2025-01-09,1,,,,,ワントゥースリーワントゥーフリー,0
1051,4130003010104,新規,0,2025-01-09,2025-01-09,合同会社自然舎,,合同会社,京都府,京都市上京区,下清蔵口町１３３,,26,102,6020007,,,,,,,2025-01-09,1,,,,,シゼンシャ,0
1059,4140001136973,新規,0,2025-01-09,2025-01-09,イシカワ株式会社,,株式会社,兵庫県,加古川市,野口町野口２７１番地の１０,,28,210,6750012,,,,,,,2025-01-09,1,,,,,イシカワ,0
1060,4140001137030,新規,0,2025-01-09,2025-01-09,株式会社Ａｒｉ,,株式会社,兵庫県,西宮市,上甲東園３丁目１５－１６,,28,204,6620813,,,,,,,2025-01-09,1,,,,,アリ,0
1061,4140001137039,新規,0,2025-01-09,2025-01-09,ウツミ設備株式会社,,株式会社,兵庫県,尼崎市,南塚口町６丁目１番２３号,,28,202,6610012,,,,,,,2025-01-09,1,,,,,ウツミセツビ,0
1064,4140003021496,新規,0,2025-01-09,2025-01-09,合同会社アイランド倶楽部,,合同会社,兵庫県,洲本市,本町７丁目２番４１号,,28,205,6560025,,,,,,,2025-01-09,1,,,,,アイランドクラブ,0
1065,4140003021505,新規,0,2025-01-09,2025-01-09,未来創楽合同会社,,合同会社,兵庫県,神戸市垂水区,上高丸３丁目１１番２４号,,28,108,6550017,,,,,,,2025-01-09,1,,,,,ミライソウラク,0
1069,4150003003469,新規,0,2025-01-09,2025-01-09,合同会社Ｄ‐Ｓｔｙｌｅ　Ｌａｂ．,,合同会社,奈良県,橿原市,八木町１丁目８番１８号,,29,205,6340078,,,,,,,2025-01-09,1,,,,,ディースタイルラボ,0
1073,4160001026470,新規,0,2025-01-09,2025-01-09,株式会社上田工業,,株式会社,滋賀県,大津市,富士見台５１番９号,,25,201,5200846,,,,,,,2025-01-09,1,,,,,ウエダコウギョウ,0
1074,4160001026479,新規,0,2025-01-09,2025-01-09,株式会社ＭＪＧＲＯＵＰ,,株式会社,滋賀県,草津市,東矢倉２丁目１番１号５号室,,25,206,5250054,,,,,,,2025-01-09,1,,,,,エムジェイグループ,0
1075,4160003003377,新規,0,2025-01-09,2025-01-09,合同会社ハル・プラクティス,,合同会社,滋賀県,大津市,松本２丁目９番１３号,,25,201,5200807,,,,,,,2025-01-09,1,,,,,ハルプラクティス,0
1083,4180003027820,新規,0,2025-01-09,2025-01-09,合同会社豊総設,,合同会社,愛知県,名古屋市中区,栄５丁目２６番３９号ＧＳ栄ビル３Ｆ,,23,106,4600008,,,,,,,2025-01-09,1,,,,,ユタカソウセツ,0
1091,4180303006391,新規,0,2025-01-09,2025-01-09,合同会社こし山,,合同会社,愛知県,岡崎市,日名南町３番地２３,,23,202,4440915,,,,,,,2025-01-09,1,,,,,コシヤマ,0
1092,4180305009640,新規,0,2025-01-09,2025-01-09,一般社団法人海みなと蒲郡,,その他の設立登記法人,愛知県,蒲郡市,海陽町２丁目２番地,,23,214,4430014,,,,,,,2025-01-09,1,,,,,ウミミナトガマゴオリ,0
1095,4200001043305,新規,0,2025-01-09,2025-01-09,株式会社イケダ設備,,株式会社,岐阜県,土岐市,妻木町３００９番地の４３,,21,212,5095301,,,,,,,2025-01-09,1,,,,,イケダセツビ,0
1103,4230001020697,新規,0,2025-01-09,2025-01-09,松本資産管理株式会社,,株式会社,富山県,砺波市,秋元３８６番地,,16,208,9391304,,,,,,,2025-01-09,1,,,,,マツモトシサンカンリ,0
1109,4240001064355,新規,0,2025-01-09,2025-01-09,エスケーグローバル株式会社,,株式会社,広島県,広島市西区,山田町１７８番地２,,34,104,7330854,,,,,,,2025-01-09,1,,,,,エスケーグローバル,0
1110,4240001064363,新規,0,2025-01-09,2025-01-09,株式会社青山ストーリー,,株式会社,広島県,福山市,王子町１丁目３番５号,,34,207,7210965,,,,,,,2025-01-09,1,,,,,アオヤマストーリー,0
1117,4260001039776,新規,0,2025-01-09,2025-01-09,株式会社創彩中村,,株式会社,岡山県,倉敷市,児島味野３丁目５番１０号,,33,202,7110913,,,,,,,2025-01-09,1,,,,,ソウサイナカムラ,0
1118,4260001039784,新規,0,2025-01-09,2025-01-09,株式会社Ｙ’ｓ,,株式会社,岡山県,総社市,新本８３４０番地１,,33,208,7101203,,,,,,,2025-01-09,1,,,,,,0
1119,4270001009118,新規,0,2025-01-09,2025-01-09,株式会社Ｉシーリング,,株式会社,鳥取県,鳥取市,湖山町南３丁目１４１番地４３,,31,201,6800945,,,,,,,2025-01-09,1,,,,,アイシーリング,0
1120,4280001009331,新規,0,2025-01-09,2025-01-09,株式会社まつえ環境設計,,株式会社,島根県,松江市,東本町１丁目７番地,,32,201,6900842,,,,,,,2025-01-09,1,,,,,マツエカンキョウセッケイ,0
1123,4290003016250,新規,0,2025-01-09,2025-01-09,合同会社ＨＡＫ,,合同会社,福岡県,福岡市東区,美和台３丁目９番３号,,40,131,8110212,,,,,,,2025-01-09,1,,,,,ハク,0
1125,4290005019607,新規,0,2025-01-09,2025-01-09,一般財団法人レモングラス,,その他の設立登記法人,福岡県,糟屋郡篠栗町,大字若杉９８番地,,40,342,8112411,,,,,,,2025-01-09,1,,,,,レモングラス,0
1126,4290801031161,新規,0,2025-01-09,2025-01-09,株式会社ＬｉＯＮ,,株式会社,福岡県,京都郡苅田町,神田町１丁目１６－１２－８０３,,40,621,8000361,,,,,,,2025-01-09,1,,,,,リオン,0
1130,4330001032781,新規,0,2025-01-09,2025-01-09,株式会社グロウ,,株式会社,熊本県,熊本市中央区,上通町５番６号村上屋ビル２Ｆ,,43,101,8600845,,,,,,,2025-01-09,1,,,,,グロウ,0
1131,4340001027038,新規,0,2025-01-09,2025-01-09,株式会社Ｎ’ｓ,,株式会社,鹿児島県,鹿児島市,小野１丁目８－３２,,46,201,8900021,,,,,,,2025-01-09,1,,,,,エヌズ,0
1133,4350003004819,新規,0,2025-01-09,2025-01-09,合同会社大丸電工,,合同会社,宮崎県,宮崎市,恒久５丁目６番地１１,,45,201,8800913,,,,,,,2025-01-09,1,,,,,オオマルデンコウ,0
1135,4360001034635,新規,0,2025-01-09,2025-01-09,株式会社ＭＫリライジョン,,株式会社,沖縄県,沖縄市,泡瀬２丁目４５番２６号,,47,211,9042172,,,,,,,2025-01-09,1,,,,,エムケーリライジョン,0
1136,4360003014577,新規,0,2025-01-09,2025-01-09,合同会社ふじ大工,,合同会社,沖縄県,うるま市,石川嘉手苅７３番地,,47,213,9041114,,,,,,,2025-01-09,1,,,,,フジダイク,0
1138,4370001052108,新規,0,2025-01-09,2025-01-09,株式会社來煌,,株式会社,宮城県,気仙沼市,新田４番地８ルミエール２０３,,04,205,9880829,,,,,,,2025-01-09,1,,,,,ライコウ,0
1142,4370005010887,新規,0,2025-01-09,2025-01-09,一般社団法人あらいや,,その他の設立登記法人,宮城県,仙台市泉区,松森字新田１５９,,04,105,9813111,,,,,,,2025-01-09,1,,,,,アライヤ,0
1153,4380001035012,新規,0,2025-01-09,2025-01-09,株式会社ＲＥ３環境,,株式会社,福島県,双葉郡楢葉町,大字山田岡字カチグリ１７番地,,07,542,9790513,,,,,,,2025-01-09,1,,,,,アールイースリーカンキョウ,0
1154,4380001035020,新規,0,2025-01-09,2025-01-09,株式会社万代,,株式会社,福島県,郡山市,うねめ町１９０番地,,07,203,9638036,,,,,,,2025-01-09,1,,,,,バンダイ,0
1158,4420003003045,新規,0,2025-01-09,2025-01-09,合同会社安達自動車,,合同会社,青森県,八戸市,大字白銀町字八森３番地１,,02,203,0310822,,,,,,,2025-01-09,1,,,,,アダチジドウシャ,0
1163,4430001093442,新規,0,2025-01-09,2025-01-09,株式会社縁屋,,株式会社,北海道,札幌市中央区,南六条西３丁目６番地１４,,01,101,0640806,,,,,,,2025-01-09,1,,,,,エニシヤ,0
1164,4430001093450,新規,0,2025-01-09,2025-01-09,株式会社ワイズ不動産,,株式会社,北海道,札幌市中央区,南二十条西９丁目２番５－３０２号,,01,101,0640920,,,,,,,2025-01-09,1,,,,,ワイズフドウサン,0
1165,4430003017168,新規,0,2025-01-09,2025-01-09,合同会社ケイカ,,合同会社,北海道,札幌市東区,北二十八条東１３丁目２番９号,,01,103,0650028,,,,,,,2025-01-09,1,,,,,ケイカ,0
1170,4460101007654,新規,0,2025-01-09,2025-01-09,株式会社丸正エネルギー,,株式会社,北海道,帯広市,西二十三条南１丁目１３２番地１,,01,207,0802473,,,,,,,2025-01-09,1,,,,,マルショウエネルギー,0
1187,5010001250654,新規,0,2025-01-09,2025-01-09,ライフケアソリューションズ株式会社,,株式会社,東京都,千代田区,丸の内１丁目１１－１パシフィックセンチュリープレイス１３階,,13,101,1000005,,,,,,,2025-01-09,1,,,,,ライフケアソリューションズ,0
1188,5010001251000,新規,0,2025-01-09,2025-01-09,株式会社Ｌ．Ｆｕｎｃｔｉｏｎ再生工場,,株式会社,東京都,中央区,銀座１丁目１２－４Ｎ＆ＥＢＬＤ．７階,,13,102,1040061,,,,,,,2025-01-09,1,,,,,エルファンクションサイセイコウジョウ,0
1189,5010001251041,新規,0,2025-01-09,2025-01-09,株式会社シンプルライフ,,株式会社,東京都,千代田区,神田多町２丁目１－２３神田東山ビル７Ｆ・８Ｆ,,13,101,1010046,,,,,,,2025-01-09,1,,,,,シンプルライフ,0
1190,5010001251058,新規,0,2025-01-09,2025-01-09,株式会社ＬｕＴｉｎｏ,,株式会社,東京都,中央区,勝どき６丁目３番１－１８０３号,,13,102,1040054,,,,,,,2025-01-09,1,,,,,ルティノ,0
1191,5010001251074,新規,0,2025-01-09,2025-01-09,晟豊株式会社,,株式会社,東京都,千代田区,西神田２丁目７番４号,,13,101,1010065,,,,,,,2025-01-09,1,,,,,セイホウ,0
1192,5010001251090,新規,0,2025-01-09,2025-01-09,株式会社ティモアル,,株式会社,東京都,中央区,銀座１丁目１２－４Ｎ＆ＥＢＬＤ．６Ｆ,,13,102,1040061,,,,,,,2025-01-09,1,,,,,ティモアル,0
1193,5010001251108,新規,0,2025-01-09,2025-01-09,株式会社ツルハネ,,株式会社,東京都,中央区,日本橋室町１丁目１１番１２号日本橋水野ビル７階,,13,102,1030022,,,,,,,2025-01-09,1,,,,,ツルハネ,0
1194,5010001251116,新規,0,2025-01-09,2025-01-09,株式会社日本再生医療流通センター,,株式会社,東京都,中央区,銀座１丁目２２番１１号銀座大竹ビジデンス２Ｆ,,13,102,1040061,,,,,,,2025-01-09,1,,,,,ニホンサイセイイリョウリュウツウセンター,0
1195,5010001251132,新規,0,2025-01-09,2025-01-09,株式会社ＲＥＸコーポレーション,,株式会社,東京都,中央区,八丁堀４丁目１０番１号甲東ビル６０２,,13,102,1040032,,,,,,,2025-01-09,1,,,,,レックスコーポレーション,0
1196,5010001251173,新規,0,2025-01-09,2025-01-09,ジャスミン株式会社,,株式会社,東京都,文京区,本郷１丁目２５番９号斉藤ビル４Ｆ,,13,105,1130033,,,,,,,2025-01-09,1,,,,,ジャスミン,0
1202,5010003045937,新規,0,2025-01-09,2025-01-09,合同会社クラウドＫ,,合同会社,東京都,文京区,大塚５丁目３番１０マンション小石川台１３０３号,,13,105,1120012,,,,,,,2025-01-09,1,,,,,クラウドケイ,0
1203,5010003045945,新規,0,2025-01-09,2025-01-09,ａ‐ｃｏｍｐａｎｙ合同会社,,合同会社,東京都,中央区,新川２丁目２０番８－４０１号,,13,102,1040033,,,,,,,2025-01-09,1,,,,,アカンパニー,0
1204,5010003046035,新規,0,2025-01-09,2025-01-09,合同会社コリーナ,,合同会社,東京都,千代田区,丸の内１丁目４番１号東京共同会計事務所内,,13,101,1000005,,,,,,,2025-01-09,1,,,,,コリーナ,0
1208,5010101016476,新規,0,2025-01-09,2025-01-09,株式会社ＳＯＵＴＨ,,株式会社,東京都,八王子市,南町３２番１号,,13,201,1920072,,,,,,,2025-01-09,1,,,,,サウス,0
1211,5010103002482,新規,0,2025-01-09,2025-01-09,合同会社Ｅ‐ＮＥＸＴ,,合同会社,東京都,八王子市,堀之内２５６番地１２１東山２２‐４,,13,201,1920355,,,,,,,2025-01-09,1,,,,,イーネクスト,0
1215,5010401187406,新規,0,2025-01-09,2025-01-09,フェリスリンク株式会社,,株式会社,東京都,港区,赤坂１丁目１番１７号細川ビル６０５号室,,13,103,1070052,,,,,,,2025-01-09,1,,,,,フェリスリンク,0
1216,5010401187463,新規,0,2025-01-09,2025-01-09,株式会社Ｃｒｅｓｔｉｘ,,株式会社,東京都,港区,南青山３丁目１番３６号青山丸竹ビル６Ｆ,,13,103,1070062,,,,,,,2025-01-09,1,,,,,クレスティックス,0
1217,5010403034119,新規,0,2025-01-09,2025-01-09,合同会社Ｂｅｙｏｎｄ　ｔｈｅ　Ｄｒｅａｍ,,合同会社,東京都,港区,南青山２丁目２番１５号ウィン青山１２１４号,,13,103,1070062,,,,,,,2025-01-09,1,,,,,ビヨンドザドリーム,0
1218,5010403034143,新規,0,2025-01-09,2025-01-09,合同会社レジデンスアセットソリューション３号,,合同会社,東京都,港区,港南２丁目１５番３号,,13,103,1080075,,,,,,,2025-01-09,1,,,,,レジデンスアセットソリューションサンゴウ,0
1220,5010501053433,新規,0,2025-01-09,2025-01-09,株式会社フリカケ,,株式会社,東京都,台東区,浅草橋１丁目７番６号ＳＷ１ビル,,13,106,1110053,,,,,,,2025-01-09,1,,,,,フリカケ,0
1224,5010601066558,新規,0,2025-01-09,2025-01-09,京誠国際株式会社,,株式会社,東京都,江東区,亀戸３丁目６２番１０号３０６号室,,13,108,1360071,,,,,,,2025-01-09,1,,,,,ケイセイコクサイ,0
1229,5010701047103,新規,0,2025-01-09,2025-01-09,ＪＡＣＴ株式会社,,株式会社,東京都,品川区,中延６丁目２番５号,,13,109,1420053,,,,,,,2025-01-09,1,,,,,ジャクト,0
1234,5010901056606,新規,0,2025-01-09,2025-01-09,株式会社ホープスター,,株式会社,東京都,世田谷区,豪徳寺１丁目４２番５号,,13,112,1540021,,,,,,,2025-01-09,1,,,,,ホープスター,0
1235,5010901056622,新規,0,2025-01-09,2025-01-09,株式会社フォーエム,,株式会社,東京都,世田谷区,桜上水２丁目２１番１１号,,13,112,1560045,,,,,,,2025-01-09,1,,,,,フォーエム,0
1244,5011001167005,新規,0,2025-01-09,2025-01-09,株式会社ｈｏｒｏｓｃｏｐｅｓ,,株式会社,東京都,渋谷区,宇田川町１４番１３号宇田川町ビルディング３Ｆ,,13,113,1500042,,,,,,,2025-01-09,1,,,,,ホロスコープス,0
1245,5011001167013,新規,0,2025-01-09,2025-01-09,株式会社ＪＩＸ,,株式会社,東京都,目黒区,大岡山１丁目１７番４号,,13,110,1520033,,,,,,,2025-01-09,1,,,,,ジェイアイエックス,0
1246,5011003020756,新規,0,2025-01-09,2025-01-09,ＮｏＲａＫｕＲａ合同会社,,合同会社,東京都,渋谷区,道玄坂１丁目１０番８号渋谷道玄坂東急ビル２Ｆ－Ｃ,,13,113,1500043,,,,,,,2025-01-09,1,,,,,ノラクラ,0
1248,5011201026043,新規,0,2025-01-09,2025-01-09,Ｂｅｙｏｎｄ　Ｓｐｏｒｔｉｖａ　Ｊａｐａｎ株式会社,,株式会社,東京都,中野区,野方２丁目４９番７号,,13,114,1650027,,,,,,,2025-01-09,1,,,,,ビヨンドスポルティヴァジャパン,0
1249,5011203004575,新規,0,2025-01-09,2025-01-09,合同会社ヒマラヤ不動産,,合同会社,東京都,中野区,本町６丁目３６番５－１３０１号,,13,114,1640012,,,,,,,2025-01-09,1,,,,,ヒマラヤフドウサン,0
1250,5011301030267,新規,0,2025-01-09,2025-01-09,ＴＥＫＯＴＥ株式会社,,株式会社,東京都,杉並区,成田西２丁目１番６号,,13,115,1660016,,,,,,,2025-01-09,1,,,,,テコテ,0
1251,5011303005382,新規,0,2025-01-09,2025-01-09,合同会社優留里,,合同会社,東京都,杉並区,高井戸西２丁目３番４５号高井戸第２ハイホーム４１４,,13,115,1680071,,,,,,,2025-01-09,1,,,,,ユルリ,0
1252,5011401026719,新規,0,2025-01-09,2025-01-09,株式会社スタークリーン,,株式会社,東京都,板橋区,東山町３番２号,,13,119,1740073,,,,,,,2025-01-09,1,,,,,スタークリーン,0
1262,5011701027961,新規,0,2025-01-09,2025-01-09,株式会社藤田商事,,株式会社,東京都,江戸川区,中葛西１丁目１５番３号,,13,123,1340083,,,,,,,2025-01-09,1,,,,,フジタショウジ,0
1263,5012301014219,新規,0,2025-01-09,2025-01-09,株式会社ＫＥＮＳＨＩＮ,,株式会社,東京都,町田市,上小山田町１０５６番地３,,13,209,1940201,,,,,,,2025-01-09,1,,,,,ケンシン,0
1266,5012405005072,新規,0,2025-01-09,2025-01-09,一般社団法人ドイツ音楽療法センター,,その他の設立登記法人,東京都,武蔵野市,吉祥寺南町５丁目８番１０号,,13,203,1800003,,,,,,,2025-01-09,1,,,,,ドイツオンガクリョウホウセンター,0
1269,5012701018637,新規,0,2025-01-09,2025-01-09,Ｏｂｓｏｌｅｓｃｅｎｃｅ株式会社,,株式会社,東京都,西東京市,中町３丁目３番１０号,,13,229,2020013,,,,,,,2025-01-09,1,,,,,オブソレッソンス,0
1270,5012801023677,新規,0,2025-01-09,2025-01-09,リーゼントプロモーション株式会社,,株式会社,東京都,国立市,中１丁目１０番２号第二池田ビル４階,,13,215,1860004,,,,,,,2025-01-09,1,,,,,リーゼントプロモーション,0
1273,5013303007474,新規,0,2025-01-09,2025-01-09,合同会社シャニムニ,,合同会社,東京都,豊島区,東池袋１丁目３１番１０－１００９号,,13,116,1700013,,,,,,,2025-01-09,1,,,,,シャニムニ,0
1280,5020001160803,新規,0,2025-01-09,2025-01-09,株式会社成和サービス,,株式会社,神奈川県,横浜市都筑区,荏田南３丁目５番１４号,,14,118,2240007,,,,,,,2025-01-09,1,,,,,セイワサービス,0
1281,5020001160902,新規,0,2025-01-09,2025-01-09,株式会社イチカラ,,株式会社,神奈川県,川崎市中原区,苅宿１０番４５号ラウレアＡ２０１,,14,133,2110022,,,,,,,2025-01-09,1,,,,,イチカラ,0
1291,5021001084174,新規,0,2025-01-09,2025-01-09,株式会社ハーゼ,,株式会社,神奈川県,藤沢市,亀井野１丁目８番地の６,,14,205,2520813,,,,,,,2025-01-09,1,,,,,ハーゼ,0
1292,5021003015433,新規,0,2025-01-09,2025-01-09,合同会社ＢＯＴＡＮＩＴＩＸ,,合同会社,神奈川県,藤沢市,鵠沼石上１丁目５－９メガサンエスビル６Ｆ,,14,205,2510025,,,,,,,2025-01-09,1,,,,,ボタニティクス,0
1302,5030001164183,新規,0,2025-01-09,2025-01-09,株式会社ＥＮＩＳＨＩ,,株式会社,埼玉県,三郷市,早稲田１丁目１１番地１２,,11,237,3410018,,,,,,,2025-01-09,1,,,,,エニシ,0
1303,5030001164225,新規,0,2025-01-09,2025-01-09,ビリオンステージ株式会社,,株式会社,埼玉県,熊谷市,末広２丁目１０５番地,,11,202,3600031,,,,,,,2025-01-09,1,,,,,ビリオンステージ,0
1304,5030001164258,新規,0,2025-01-09,2025-01-09,株式会社スリーエイト,,株式会社,埼玉県,さいたま市見沼区,大字大谷８８番地８,,11,104,3370014,,,,,,,2025-01-09,1,,,,,スリーエイト,0
1305,5030001164266,新規,0,2025-01-09,2025-01-09,株式会社ＪＨＳＴ,,株式会社,埼玉県,蕨市,塚越５丁目２２番１２号クレイドルＩＩ－２０１号,00137572,11,223,3350002,,,,,,,2025-01-09,1,,,,,ジェスト,0
1306,5030001164316,新規,0,2025-01-09,2025-01-09,株式会社藤林,,株式会社,埼玉県,所沢市,若狭２丁目２５８０番地の２２,,11,208,3591151,,,,,,,2025-01-09,1,,,,,フジバヤシ,0
1310,5030003025805,新規,0,2025-01-09,2025-01-09,合同会社ＤＨ２Ａ,,合同会社,埼玉県,さいたま市浦和区,仲町４丁目５－１２,,11,107,3300062,,,,,,,2025-01-09,1,,,,,ディーエイチツーエー,0
1311,5030003025821,新規,0,2025-01-09,2025-01-09,合同会社ネットライフ,,合同会社,埼玉県,深谷市,上野台３２４３番地１０,,11,218,3660801,,,,,,,2025-01-09,1,,,,,ネットライフ,0
1317,5040001136801,新規,0,2025-01-09,2025-01-09,株式会社２４ｅｘｐｒｅｓｓ,,株式会社,千葉県,市川市,北方２丁目１７番２１号,,12,203,2720815,,,,,,,2025-01-09,1,,,,,トゥエンティフォーエクスプレス,0
1318,5040001136875,新規,0,2025-01-09,2025-01-09,株式会社Ｌｉｆｅｐｈｏｎｉｃ,,株式会社,千葉県,千葉市中央区,中央２丁目２番１６－２２１２号,,12,101,2600013,,,,,,,2025-01-09,1,,,,,ライフフォニック,0
1319,5040001136883,新規,0,2025-01-09,2025-01-09,株式会社９,,株式会社,千葉県,柏市,緑台３番地２クレシアＩ－２０１号,00137581,12,217,2770903,,,,,,,2025-01-09,1,,,,,ナイン,0
1320,5040001136891,新規,0,2025-01-09,2025-01-09,エーエム・テクノ株式会社,,株式会社,千葉県,八千代市,吉橋２０４１番地２,,12,221,2760047,,,,,,,2025-01-09,1,,,,,エーエムテクノ,0
1321,5040001136909,新規,0,2025-01-09,2025-01-09,株式会社光和,,株式会社,千葉県,船橋市,習志野台４丁目２番１３号,,12,204,2740063,,,,,,,2025-01-09,1,,,,,コウワ,0
1326,5040003026570,新規,0,2025-01-09,2025-01-09,ＳＰＩ‐Ｌａｂ．合同会社,,合同会社,千葉県,成田市,中台１丁目１－１サンコーポ中台３棟５０１号室,,12,211,2860015,,,,,,,2025-01-09,1,,,,,エスピーアイラボ,0
1329,5050001055975,新規,0,2025-01-09,2025-01-09,ＨＡＢＩＢ株式会社,,株式会社,茨城県,坂東市,長須５００４番地１,,08,228,3060645,,,,,,,2025-01-09,1,,,,,ハビブ,0
1331,5060003005374,新規,0,2025-01-09,2025-01-09,Ｋｉｎｕｔａ合同会社,,合同会社,栃木県,日光市,鬼怒川温泉滝５０７－３,,09,206,3212526,,,,,,,2025-01-09,1,,,,,キヌタ,0
1332,5060003005382,新規,0,2025-01-09,2025-01-09,合同会社Ａｌｅｓｔｅｑ,,合同会社,栃木県,那須塩原市,寺子２２２１,,09,213,3250011,,,,,,,2025-01-09,1,,,,,アレステック,0
1334,5070001042518,新規,0,2025-01-09,2025-01-09,株式会社ますだ塗装店,,株式会社,群馬県,みどり市,笠懸町阿左美３５８０番地５,,10,212,3792311,,,,,,,2025-01-09,1,,,,,マスダトソウテン,0
1338,5070003005745,新規,0,2025-01-09,2025-01-09,合同会社ＧｏｌｄＦｉｅｌｄ,,合同会社,群馬県,高崎市,山名町２２９４番地３５,,10,202,3701213,,,,,,,2025-01-09,1,,,,,ゴールドフィールド,0
1340,5080001026701,新規,0,2025-01-09,2025-01-09,株式会社Ｗｉｌｌｄｏｍパートナーズ,,株式会社,静岡県,静岡市清水区,由比北田１４２番地の４,,22,103,4213104,,,,,,,2025-01-09,1,,,,,ウィルダムパートナーズ,0
1342,5080401027679,新規,0,2025-01-09,2025-01-09,株式会社山奈商会,,株式会社,静岡県,浜松市浜名区,本沢合７８番地の１Ｍ＆Ｙ７８Ｂ－１,,22,139,4340014,,,,,,,2025-01-09,1,,,,,ヤマナショウカイ,0
1343,5090001019076,新規,0,2025-01-09,2025-01-09,株式会社ＲＭＹ,,株式会社,山梨県,北杜市,明野町上手７５５７番地２,,19,209,4080204,,,,,,,2025-01-09,1,,,,,アールエムワイ,0
1347,5100003007936,新規,0,2025-01-09,2025-01-09,合同会社ＨＡＳＳＡＮ　ＴＲＡＤＩＮＧ,,合同会社,長野県,東御市,和１５９３番地１,,20,219,3890505,,,,,,,2025-01-09,1,,,,,ハッサントレーディング,0
1350,5110003005625,新規,0,2025-01-09,2025-01-09,合同会社Ａ建築士事務所,,合同会社,新潟県,加茂市,上条１３番１３号,,15,209,9591332,,,,,,,2025-01-09,1,,,,,エーケンチクシジムショ,0
1358,5120001271499,新規,0,2025-01-09,2025-01-09,東宝商事株式会社,,株式会社,大阪府,大阪市生野区,中川西１丁目１７－１０テンシンビル３Ｈ,,27,116,5440032,,,,,,,2025-01-09,1,,,,,トウホウショウジ,0
1359,5120001271516,新規,0,2025-01-09,2025-01-09,Ｄｉｃｅ　Ｌｏｏｋ株式会社,,株式会社,大阪府,大阪市淀川区,西中島７丁目２番２号サンタワー新大阪ビル９Ｆ,,27,123,5320011,,,,,,,2025-01-09,1,,,,,ダイスルック,0
1360,5120001271680,新規,0,2025-01-09,2025-01-09,株式会社ｆｉｘ　ｌａｓｈ,,株式会社,大阪府,大阪市福島区,海老江８丁目１３番３号エムズコート１０１号室,,27,103,5530001,,,,,,,2025-01-09,1,,,,,フィックスラッシュ,0
1361,5120001271706,新規,0,2025-01-09,2025-01-09,永泰株式会社,,株式会社,大阪府,大阪市天王寺区,上汐４丁目５－３－７Ｂ,,27,109,5430002,,,,,,,2025-01-09,1,,,,,エイタイ,0
1364,5120003028360,新規,0,2025-01-09,2025-01-09,Ｒｅａｔｉｖｅ　ｌｉｎｋ合同会社,,合同会社,大阪府,大阪市東成区,東今里１丁目５‐４‐３０６,,27,115,5370011,,,,,,,2025-01-09,1,,,,,リエイティブリンク,0
1365,5120005024696,新規,0,2025-01-09,2025-01-09,Ｈａｒｅｌ税理士法人,,その他の設立登記法人,大阪府,大阪市中央区,南久宝寺町４丁目１－２御堂筋ダイビル４階,,27,128,5410058,,,,,,,2025-01-09,1,,,,,ハレル,0
1375,5130001078720,新規,0,2025-01-09,2025-01-09,株式会社京鹿子,,株式会社,京都府,京都市下京区,西七条北東野町６３番地,,26,106,6008871,,,,,,,2025-01-09,1,,,,,キョウカノコ,0
1376,5130001078729,新規,0,2025-01-09,2025-01-09,株式会社ＪＪＳ,,株式会社,京都府,京都市下京区,東洞院通五条下る３丁目和泉町５２９番地,,26,106,6008188,,,,,,,2025-01-09,1,,,,,ジェイジェイエス,0
1383,5140001136915,新規,0,2025-01-09,2025-01-09,株式会社Ｈｕｅ　Ｄｅｓｉｇｎ　Ｃｏｍｐａｎｙ,,株式会社,兵庫県,西宮市,甲陽園東山町６番４４号,,28,204,6620012,,,,,,,2025-01-09,1,,,,,ヒューデザインカンパニー,0
1384,5140001136931,新規,0,2025-01-09,2025-01-09,株式会社金井電設,,株式会社,兵庫県,三木市,末広１丁目３番地の１６,,28,215,6730403,,,,,,,2025-01-09,1,,,,,カナイデンセツ,0
1385,5140001136989,新規,0,2025-01-09,2025-01-09,株式会社安造園,,株式会社,兵庫県,西宮市,西宮浜４丁目９番３－３０４号,,28,204,6620934,,,,,,,2025-01-09,1,,,,,ヤスゾウエン,0
1390,5140003021504,新規,0,2025-01-09,2025-01-09,宝塚オートエンジニア合同会社,,合同会社,兵庫県,宝塚市,山本野里１丁目２４－１４－１０１,,28,214,6650814,,,,,,,2025-01-09,1,,,,,タカラヅカオートエンジニア,0
1391,5140005027334,新規,0,2025-01-09,2025-01-09,一般社団法人オリーブヴィレッジ,,その他の設立登記法人,兵庫県,三田市,武庫が丘７丁目２－３,,28,219,6691544,,,,,,,2025-01-09,1,,,,,オリーブヴィレッジ,0
1392,5150001027808,新規,0,2025-01-09,2025-01-09,株式会社アトリエＪｏＪｏ,,株式会社,奈良県,奈良市,大宮町１丁目１番７号三禄ビル２階,,29,201,6308115,,,,,,,2025-01-09,1,,,,,アトリエジョジョ,0
1393,5150003003468,新規,0,2025-01-09,2025-01-09,合同会社Ｔａｌｌ　Ｃｏｍｉｃｓ,,合同会社,奈良県,奈良市,中登美ヶ丘５丁目２４番１７号,,29,201,6310003,,,,,,,2025-01-09,1,,,,,トールコミックス,0
1394,5160001026486,新規,0,2025-01-09,2025-01-09,株式会社ＫＰｌｕｓ,,株式会社,滋賀県,守山市,古高町８１番１,,25,207,5240044,,,,,,,2025-01-09,1,,,,,ケープラス,0
1395,5160003003376,新規,0,2025-01-09,2025-01-09,猫的企画合同会社,,合同会社,滋賀県,甲賀市,水口町酒人８４３－３,,25,209,5280054,,,,,,,2025-01-09,1,,,,,ネコテキキカク,0
1398,5180001164417,新規,0,2025-01-09,2025-01-09,ＨＥＡＬＳ株式会社,,株式会社,愛知県,津島市,蛭間町字弁日８６番地１,,23,208,4960004,,,,,,,2025-01-09,1,,,,,ヒールズ,0
1399,5180001164714,新規,0,2025-01-09,2025-01-09,＿成株式会社,00137568,株式会社,愛知県,名古屋市天白区,古川町一丁目１番地名豊ビル４０１号,,23,116,4680046,,,,,,,2025-01-09,1,,,,,シンセイ,0
1400,5180001164854,新規,0,2025-01-09,2025-01-09,株式会社ジオン,,株式会社,愛知県,名古屋市中村区,名駅５丁目３番８号,,23,105,4500002,,,,,,,2025-01-09,1,,,,,ジオン,0
1401,5180001164895,新規,0,2025-01-09,2025-01-09,株式会社ｆｕｓＥ,,株式会社,愛知県,名古屋市中村区,名駅４丁目２４番５号第２森ビル４０１,,23,105,4500002,,,,,,,2025-01-09,1,,,,,フューズ,0
1402,5180001164904,新規,0,2025-01-09,2025-01-09,いちむら住販株式会社,,株式会社,愛知県,名古屋市北区,杉栄町５丁目１１９番地の２,,23,103,4620829,,,,,,,2025-01-09,1,,,,,イチムラジュウハン,0
1403,5180003027811,新規,0,2025-01-09,2025-01-09,合同会社Ｌｉａ,,合同会社,愛知県,丹羽郡扶桑町,大字柏森字郷前１番地,,23,362,4800103,,,,,,,2025-01-09,1,,,,,リア,0
1426,5240001064354,新規,0,2025-01-09,2025-01-09,株式会社Ａｔｅｌｉｅｒ　Ｓ,,株式会社,広島県,広島市東区,尾長西１丁目６番３７号メゾン・ドゥ・ツルヤ１０２,,34,102,7320047,,,,,,,2025-01-09,1,,,,,アトリエエス,0
1428,5240003007014,新規,0,2025-01-09,2025-01-09,合同会社Ｍｕｇｉ,,合同会社,広島県,福山市,千田町大字千田３４６３番地２,,34,207,7200013,,,,,,,2025-01-09,1,,,,,ムギ,0
1431,5260001039750,新規,0,2025-01-09,2025-01-09,株式会社ＨＭ金属,,株式会社,岡山県,総社市,西阿曽１５５９番地１,,33,208,7191103,,,,,,,2025-01-09,1,,,,,エイチエムキンゾク,0
1432,5260001039775,新規,0,2025-01-09,2025-01-09,株式会社ＰＬＥＡＳＵＲＥ　ＴＲＥＡＳＵＲＥ,,株式会社,岡山県,岡山市北区,今３丁目１８―２６クレール今Ｅ７０２,,33,101,7000975,,,,,,,2025-01-09,1,,,,,プレジャートレジャー,0
1433,5260001039783,新規,0,2025-01-09,2025-01-09,エイエイティーワールド株式会社,,株式会社,岡山県,岡山市北区,東古松２丁目１０番２２号サーパス東古松通り１１０９号,,33,101,7000921,,,,,,,2025-01-09,1,,,,,エイエイティーワールド,0
1439,5280005007636,新規,0,2025-01-09,2025-01-09,農事組合法人原添営農組合,,その他の設立登記法人,島根県,出雲市,灘分町２９１番地,,32,203,6910003,,,,,,,2025-01-09,1,,,,,ハラゾエエイノウクミアイ,0
1440,5290001108536,新規,0,2025-01-09,2025-01-09,株式会社アルメリア,,株式会社,福岡県,福岡市南区,大池２丁目１０－４２,,40,134,8150073,,,,,,,2025-01-09,1,,,,,アルメリア,0
1441,5290001108569,新規,0,2025-01-09,2025-01-09,株式会社松岡商店,,株式会社,福岡県,福岡市南区,長住２丁目１０番３０号,,40,134,8111362,,,,,,,2025-01-09,1,,,,,マツオカショウテン,0
1442,5290001108593,新規,0,2025-01-09,2025-01-09,株式会社ｆａｂｉｎｏ,,株式会社,福岡県,宗像市,田野１４３０－１４,,40,220,8113514,,,,,,,2025-01-09,1,,,,,ファビーノ,0
1443,5290001108610,新規,0,2025-01-09,2025-01-09,株式会社まさおか薬局,,株式会社,福岡県,福岡市博多区,綱場町１－１６,,40,132,8120024,,,,,,,2025-01-09,1,,,,,マサオカヤッキョク,0
1450,5320001020885,新規,0,2025-01-09,2025-01-09,高橋商事株式会社,,株式会社,大分県,大分市,大字佐野９８８番地の３,,44,201,8700315,,,,,,,2025-01-09,1,,,,,タカハシショウジ,0
1452,5330001032797,新規,0,2025-01-09,2025-01-09,メディカルコネクト株式会社,,株式会社,熊本県,合志市,幾久富１８６６番地１６８０,,43,216,8611112,,,,,,,2025-01-09,1,,,,,メディカルコネクト,0
1455,5330003010693,新規,0,2025-01-09,2025-01-09,合同会社ＵＮｉＵＮｉ,,合同会社,熊本県,菊池郡菊陽町,光の森７丁目２６番地１５,,43,404,8691108,,,,,,,2025-01-09,1,,,,,ウニウニ,0
1458,5350001019355,新規,0,2025-01-09,2025-01-09,株式会社舟井工業,,株式会社,宮崎県,串間市,大字市木２５３２番地１,,45,207,8893311,,,,,,,2025-01-09,1,,,,,フナイコウギョウ,0
1459,5350003004818,新規,0,2025-01-09,2025-01-09,合同会社ＳＪファーム,,合同会社,宮崎県,串間市,大字西方９３０３番地１,,45,207,8880001,,,,,,,2025-01-09,1,,,,,エスジェイファーム,0
1460,5360001034642,新規,0,2025-01-09,2025-01-09,株式会社Ｔ・Ｈ,,株式会社,沖縄県,那覇市,首里当蔵町１丁目３４番地,,47,201,9030812,,,,,,,2025-01-09,1,,,,,ティーエイチ,0
1461,5360003014584,新規,0,2025-01-09,2025-01-09,合同会社ＭＯＮＯＬＩ,,合同会社,沖縄県,南城市,玉城字喜良原２７番地,,47,215,9010607,,,,,,,2025-01-09,1,,,,,モノリ,0
1463,5370001052073,新規,0,2025-01-09,2025-01-09,株式会社ＴＯＮＰＯＲＩ,,株式会社,宮城県,仙台市太白区,八木山香澄町２５－４２,,04,104,9820831,,,,,,,2025-01-09,1,,,,,トンポリ,0
1464,5370001052107,新規,0,2025-01-09,2025-01-09,三浦海産株式会社,,株式会社,宮城県,東松島市,矢本字不動前２９７番地３,,04,214,9810503,,,,,,,2025-01-09,1,,,,,ミウラカイサン,0
1472,5380003005920,新規,0,2025-01-09,2025-01-09,合資会社村松商店,,合資会社,福島県,伊達郡桑折町,字本町８０番地,,07,301,9691614,,,,,,,2025-01-09,1,,,,,ムラマツショウテン,0
1473,5380003005929,新規,0,2025-01-09,2025-01-09,合同会社アイプランニング,,合同会社,福島県,郡山市,田村町金屋字上川原１６５番地クラールＶＩＩＩ２０２号,00137567,07,203,9630725,,,,,,,2025-01-09,1,,,,,アイプランニング,0
1478,5430001093441,新規,0,2025-01-09,2025-01-09,Ｒａｎａ株式会社,,株式会社,北海道,江別市,野幌住吉町３９番地の３,,01,217,0690816,,,,,,,2025-01-09,1,,,,,ラナ,0
1483,5430003017159,新規,0,2025-01-09,2025-01-09,合同会社立夏,,合同会社,北海道,札幌市豊平区,平岸四条１２丁目１２番１３号ｂｒｅｚｚａＩＩＩ－Ｃ号,00137579,01,105,0620934,,,,,,,2025-01-09,1,,,,,リッカ,0
1484,5430003017167,新規,0,2025-01-09,2025-01-09,合同会社Ｏ‐ＰＲＯＪＥＣＴ,,合同会社,北海道,小樽市,稲穂４丁目４番９号,,01,203,0470032,,,,,,,2025-01-09,1,,,,,オープロジェクト,0
1486,5460101007653,新規,0,2025-01-09,2025-01-09,株式会社ＹＡＭＡＭＵＲＡ,,株式会社,北海道,中川郡池田町,字常盤１０７番地,,01,644,0893156,,,,,,,2025-01-09,1,,,,,ヤマムラ,0
1487,5460303000852,新規,0,2025-01-09,2025-01-09,合同会社村岡住宅設備,,合同会社,北海道,北見市,桂町４丁目２１３番地２５,,01,208,0900053,,,,,,,2025-01-09,1,,,,,ムラオカジュウタクセツビ,0
1488,5470001020524,新規,0,2025-01-09,2025-01-09,の家株式会社,,株式会社,香川県,高松市,松並町９９１番地１,,37,201,7618052,,,,,,,2025-01-09,1,,,,,,0
1489,5480001012702,新規,0,2025-01-09,2025-01-09,株式会社ｗｉｔｈ　ｎｅｘｔ,,株式会社,徳島県,小松島市,小松島町字外開２３番地６,,36,203,7730001,,,,,,,2025-01-09,1,,,,,ウィズネクスト,0
1494,5500003003390,新規,0,2025-01-09,2025-01-09,合同会社Ｂｅｙｏｎｄ　ＪＡＰＡＮ,,合同会社,愛媛県,松山市,太山寺町８９４番地９５,,38,201,7992662,,,,,,,2025-01-09,1,,,,,ビヨンドジャパン,0
1495,5700150128573,新規,0,2025-01-09,2025-01-09,Ａｅｒｏｍｏｎｇｏｌｉａ　ＬＬＣ,,外国会社等,東京都,中央区,日本橋室町１丁目１１－１２日本橋水野ビル７階,,13,102,1030022,モンゴル国ウランバートル、スフバートル区、第１ホロー、モニスタワー１３階,,,,,,2025-01-09,1,,,,,アエロモンゴリアエルエルシー,0
1500,6010001251049,新規,0,2025-01-09,2025-01-09,株式会社ハミングバード,,株式会社,東京都,千代田区,外神田６丁目１５番１４号,,13,101,1010021,,,,,,,2025-01-09,1,,,,,ハミングバード,0
1501,6010001251115,新規,0,2025-01-09,2025-01-09,株式会社Ｍｉｙａｂｅｅ,,株式会社,東京都,千代田区,神田須田町１丁目７番地８ＶＯＲＴ秋葉原ＩＶ２Ｆ,00137574,13,101,1010041,,,,,,,2025-01-09,1,,,,,ミヤビー,0
1502,6010001251131,新規,0,2025-01-09,2025-01-09,株式会社リロク,,株式会社,東京都,中央区,銀座１丁目１２番４号Ｎ＆ＥＢＬＤ．６Ｆ,,13,102,1040061,,,,,,,2025-01-09,1,,,,,リロク,0
1503,6010001251148,新規,0,2025-01-09,2025-01-09,Ａｉｋｏｓｍｉｃ株式会社,,株式会社,東京都,千代田区,丸の内３丁目２番２号丸の内二重橋ビル３階,,13,101,1000005,,,,,,,2025-01-09,1,,,,,アイコズミック,0
1504,6010001251288,新規,0,2025-01-09,2025-01-09,ＣＥＪ株式会社,,株式会社,東京都,中央区,銀座１丁目１２番４号Ｎ＆Ｅ・ＢＬＤ．７階,,13,102,1040061,,,,,,,2025-01-09,1,,,,,シーイージェー,0
1505,6010001251296,新規,0,2025-01-09,2025-01-09,株式会社Ｓｗａｌｌｏ,,株式会社,東京都,中央区,銀座１丁目１２番４号Ｎ＆ＥＢＬＤ．６Ｆ,,13,102,1040061,,,,,,,2025-01-09,1,,,,,スワロー,0
1509,6010003045944,新規,0,2025-01-09,2025-01-09,ＡＹＰ合同会社,,合同会社,東京都,中央区,銀座１丁目２２番１１号銀座大竹ビジデンス２Ｆ,,13,102,1040061,,,,,,,2025-01-09,1,,,,,エーワイピー,0
1510,6010003045969,新規,0,2025-01-09,2025-01-09,御殿場東田中ホテルマネジメント合同会社,,合同会社,東京都,千代田区,霞が関３丁目２番１号,,13,101,1000013,,,,,,,2025-01-09,1,,,,,ゴテンバヒガシタナカホテルマネジメント,0
1512,6010101016475,新規,0,2025-01-09,2025-01-09,株式会社ＵＪＵ　ＪＡＰＡＮ,,株式会社,東京都,八王子市,明神町３丁目２０番５号エイトビル３階,,13,201,1920046,,,,,,,2025-01-09,1,,,,,ウジュジャパン,0
1513,6010103002481,新規,0,2025-01-09,2025-01-09,合同会社マルシェ,,合同会社,東京都,八王子市,小宮町１０１８番地１２,,13,201,1920031,,,,,,,2025-01-09,1,,,,,マルシェ,0
1517,6010401187355,新規,0,2025-01-09,2025-01-09,ＦＣＩ１株式会社,,株式会社,東京都,港区,六本木３丁目２番１号,,13,103,1060032,,,,,,,2025-01-09,1,,,,,エフシーアイワン,0
1518,6010401187396,新規,0,2025-01-09,2025-01-09,株式会社ＮＥＢＵＬＡ　Ｔｅｃｈｎｏｌｏｇｉｅｓ　ＩＮＣ．,,株式会社,東京都,港区,北青山３丁目６－７青山パラシオタワー１１階,,13,103,1070061,,,,,,,2025-01-09,1,,,,,ネビュラテクノロジーズインク,0
1519,6010401187413,新規,0,2025-01-09,2025-01-09,株式会社ＡＧ　ＳＴＡＹ,,株式会社,東京都,港区,高輪１丁目４番３号レキシントン・スクエア白金高輪６０５,,13,103,1080074,,,,,,,2025-01-09,1,,,,,エイジーステイ,0
1520,6010401187438,新規,0,2025-01-09,2025-01-09,株式会社Ｓｉｇｎホールディングス,,株式会社,東京都,港区,南青山６丁目１番２１号ピロティ南青山２０１号室,,13,103,1070062,,,,,,,2025-01-09,1,,,,,サインホールディングス,0
1521,6010403034118,新規,0,2025-01-09,2025-01-09,スクエアスリー合同会社,,合同会社,東京都,港区,赤坂４丁目８番１９号赤坂フロントタウン３階,,13,103,1070052,,,,,,,2025-01-09,1,,,,,スクエアスリー,0
1525,6010501053432,新規,0,2025-01-09,2025-01-09,株式会社錦波,,株式会社,東京都,台東区,元浅草３丁目６－２藤和仲御徒町コープ１０１号室,,13,106,1110041,,,,,,,2025-01-09,1,,,,,ニシキナミ,0
1526,6010501053457,新規,0,2025-01-09,2025-01-09,株式会社ハラル屋,,株式会社,東京都,台東区,浅草１丁目９番１号浅草一丁目ビル５階,,13,106,1110032,,,,,,,2025-01-09,1,,,,,ハラルヤ,0
1530,6010601066565,新規,0,2025-01-09,2025-01-09,株式会社亀井,,株式会社,東京都,江東区,木場２丁目１７番１３号,,13,108,1350042,,,,,,,2025-01-09,1,,,,,カメイ,0
1531,6010603011305,新規,0,2025-01-09,2025-01-09,合同会社時事ワークス,,合同会社,東京都,墨田区,向島３丁目４４番３号,,13,107,1310033,,,,,,,2025-01-09,1,,,,,ジジワークス,0
1532,6010701047060,新規,0,2025-01-09,2025-01-09,ＲＪソリューションズ株式会社,,株式会社,東京都,品川区,南大井１丁目１３番１６号７０４,,13,109,1400013,,,,,,,2025-01-09,1,,,,,アールジェイソリューションズ,0
1533,6010701047077,新規,0,2025-01-09,2025-01-09,ステラホールディングス株式会社,,株式会社,東京都,品川区,上大崎３丁目２番１号,,13,109,1410021,,,,,,,2025-01-09,1,,,,,ステラホールディングス,0
1534,6010701047085,新規,0,2025-01-09,2025-01-09,ドーンワースコム株式会社,,株式会社,東京都,品川区,大井４丁目１２番１８号,,13,109,1400014,,,,,,,2025-01-09,1,,,,,ドーンワースコム,0
1535,6010703007525,新規,0,2025-01-09,2025-01-09,合同会社ハーモニーキャピタル,,合同会社,東京都,品川区,東中延２丁目１番４号,,13,109,1420052,,,,,,,2025-01-09,1,,,,,ハーモニーキャピタル,0
1536,6010801035733,新規,0,2025-01-09,2025-01-09,株式会社ワコーテック,,株式会社,東京都,大田区,仲六郷４丁目３２番８－３０７号,,13,111,1440055,,,,,,,2025-01-09,1,,,,,ワコーテック,0
1539,6010901056605,新規,0,2025-01-09,2025-01-09,松株式会社,,株式会社,東京都,世田谷区,代沢５丁目１９番１２号１７号室,,13,112,1550032,,,,,,,2025-01-09,1,,,,,マツ,0
1540,6010903009619,新規,0,2025-01-09,2025-01-09,合同会社ＨＡＮＢＡ,,合同会社,東京都,世田谷区,奥沢３丁目３２番１６号,,13,112,1580083,,,,,,,2025-01-09,1,,,,,ハンバ,0
1550,6011001166848,新規,0,2025-01-09,2025-01-09,株式会社ＣＲＥ,,株式会社,東京都,渋谷区,上原２丁目４６番８号,,13,113,1510064,,,,,,,2025-01-09,1,,,,,シーアールイー,0
1551,6011001166856,新規,0,2025-01-09,2025-01-09,株式会社ＴＫＳ　Ｍａｒｉｔｉｍｅ,,株式会社,東京都,目黒区,碑文谷２丁目２１番６－９０２号キャッスル共進,,13,110,1520003,,,,,,,2025-01-09,1,,,,,ティーケーエスマリタイム,0
1552,6011001167012,新規,0,2025-01-09,2025-01-09,株式会社ミライディ,,株式会社,東京都,渋谷区,桜丘町１５番１４号フジビル４０・７０７号室,,13,113,1500031,,,,,,,2025-01-09,1,,,,,ミライディ,0
1559,6011201026042,新規,0,2025-01-09,2025-01-09,Ｅｎｈａｎｃｅ株式会社,,株式会社,東京都,中野区,中央５丁目４９番８号Ｓ＆Ｓ１階,,13,114,1640011,,,,,,,2025-01-09,1,,,,,エンハンス,0
1560,6011203004574,新規,0,2025-01-09,2025-01-09,ヘルス・ハーモニー合同会社,,合同会社,東京都,中野区,本町３丁目１５番１８号,,13,114,1640012,,,,,,,2025-01-09,1,,,,,ヘルスハーモニー,0
1564,6011301030282,新規,0,2025-01-09,2025-01-09,株式会社ＷＥＢＬＩＳＴ,,株式会社,東京都,杉並区,方南１丁目６－１２ＭＡＸＩＶ代田橋４０４,,13,115,1680062,,,,,,,2025-01-09,1,,,,,ウェブリスト,0
1567,6011401026718,新規,0,2025-01-09,2025-01-09,泰康国際株式会社,,株式会社,東京都,板橋区,坂下２丁目３３番１９号リヴィエール蓮根３０３号室,,13,119,1740043,,,,,,,2025-01-09,1,,,,,タイコウコクサイ,0
1571,6011501031568,新規,0,2025-01-09,2025-01-09,株式会社中澤商会,,株式会社,東京都,北区,中十条２丁目１２番９号,,13,117,1140032,,,,,,,2025-01-09,1,,,,,ナカザワショウカイ,0
1574,6011701027969,新規,0,2025-01-09,2025-01-09,ＴＲＢ　Ｃｏｒｐｏｒａｔｉｏｎ株式会社,,株式会社,東京都,江戸川区,南小岩４丁目１８番４号,,13,123,1330056,,,,,,,2025-01-09,1,,,,,,0
1578,6012301014218,新規,0,2025-01-09,2025-01-09,株式会社Ｎｕｔｒｉｔｉｏｎ　Ｌａｂｏｒａｔｏｒｙ,,株式会社,東京都,町田市,森野１丁目３６番２号セレステ町田,,13,209,1940022,,,,,,,2025-01-09,1,,,,,ニュートリションラボラトリー,0
1583,6012801023676,新規,0,2025-01-09,2025-01-09,株式会社ライフスタイル,,株式会社,東京都,昭島市,緑町５丁目１－２３,,13,207,1960004,,,,,,,2025-01-09,1,,,,,ライフスタイル,0
1591,6020001160744,新規,0,2025-01-09,2025-01-09,株式会社ポラリス,,株式会社,神奈川県,川崎市宮前区,南平台２０番２０号,,14,136,2160024,,,,,,,2025-01-09,1,,,,,ポラリス,0
1592,6020001160793,新規,0,2025-01-09,2025-01-09,株式会社ＲａｉｎｙＢｌｕｅＢｅｌｌ,,株式会社,神奈川県,横浜市港北区,日吉５丁目２５番２２－２０７号,,14,109,2230061,,,,,,,2025-01-09,1,,,,,レイニーブルーベル,0
1593,6020001160835,新規,0,2025-01-09,2025-01-09,株式会社Ｍｉｒａ　Ｑｕｅｓｔ,,株式会社,神奈川県,川崎市川崎区,渡田山王町２４番１５号,,14,131,2100845,,,,,,,2025-01-09,1,,,,,ミラクエスト,0
1594,6020001160901,新規,0,2025-01-09,2025-01-09,株式会社ＷＡＫＯホールディングス,,株式会社,神奈川県,川崎市麻生区,王禅寺西２丁目４番１号,,14,137,2150017,,,,,,,2025-01-09,1,,,,,ワコウホールディングス,0
1595,6020001160983,新規,0,2025-01-09,2025-01-09,株式会社不動産のオリーブ,,株式会社,神奈川県,横浜市港北区,新吉田町４００７番地８,,14,109,2230056,,,,,,,2025-01-09,1,,,,,フドウサンノオリーブ,0
1597,6020003027586,新規,0,2025-01-09,2025-01-09,合同会社ニニギス,,合同会社,神奈川県,横浜市西区,北幸２丁目１０番４８号むつみビル３階,,14,103,2200004,,,,,,,2025-01-09,1,,,,,ニニギス,0
1600,6021001084207,新規,0,2025-01-09,2025-01-09,株式会社ミノル,,株式会社,神奈川県,平塚市,大神６丁目１４番２０号,,14,203,2540012,,,,,,,2025-01-09,1,,,,,ミノル,0
1602,6021003015424,新規,0,2025-01-09,2025-01-09,合同会社レイヤード,,合同会社,神奈川県,相模原市南区,相模大野１丁目２５番３７号,,14,153,2520303,,,,,,,2025-01-09,1,,,,,レイヤード,0
1604,6030001164249,新規,0,2025-01-09,2025-01-09,株式会社Ｌｕｔｏｎ,,株式会社,埼玉県,戸田市,笹目４丁目３０－１シーレックスパルケ２０２号室,,11,224,3350034,,,,,,,2025-01-09,1,,,,,ルトン,0
1605,6030001164281,新規,0,2025-01-09,2025-01-09,株式会社Ｍアンビエンス,,株式会社,埼玉県,上尾市,栄町１番１７号,,11,219,3620033,,,,,,,2025-01-09,1,,,,,メディカルアンビエンス,0
1606,6030001164307,新規,0,2025-01-09,2025-01-09,株式会社カラベルワークス,,株式会社,埼玉県,新座市,石神５丁目９番４１号,,11,230,3520033,,,,,,,2025-01-09,1,,,,,カラベルワークス,0
1612,6030003025812,新規,0,2025-01-09,2025-01-09,合同会社ワールドトレード,,合同会社,埼玉県,川口市,安行出羽５丁目１２－６,,11,203,3340052,,,,,,,2025-01-09,1,,,,,ワールドトレード,0
1613,6030003025845,新規,0,2025-01-09,2025-01-09,エフアート合同会社,,合同会社,埼玉県,さいたま市中央区,大戸５丁目９―７,,11,105,3380012,,,,,,,2025-01-09,1,,,,,エフアート,0
1619,6040001136874,新規,0,2025-01-09,2025-01-09,株式会社光明,,株式会社,千葉県,千葉市中央区,都町１丁目４９番５号サンライズみやこ５０７号,,12,101,2600001,,,,,,,2025-01-09,1,,,,,コウメイ,0
1620,6040001136882,新規,0,2025-01-09,2025-01-09,株式会社ＴＡＭＡＫＩ,,株式会社,千葉県,いすみ市,大原台３０９番地１,,12,238,2980014,,,,,,,2025-01-09,1,,,,,タマキ,0
1621,6040001136899,新規,0,2025-01-09,2025-01-09,株式会社ＲＭｒｍ,,株式会社,千葉県,千葉市中央区,川崎町１－３４,,12,101,2600835,,,,,,,2025-01-09,1,,,,,アールエムアールエム,0
1626,6040005022617,新規,0,2025-01-09,2025-01-09,一般社団法人日本教育文化スポーツ振興協会,,その他の設立登記法人,千葉県,八千代市,上高野１５３７番地２０７,,12,221,2760022,,,,,,,2025-01-09,1,,,,,ニホンキョウイクブンカスポーツシンコウキョウカイ,0
1631,6060001037807,新規,0,2025-01-09,2025-01-09,株式会社ＬＩＳＭ　ＷＯＲＫＳ,,株式会社,栃木県,宇都宮市,中岡本町２５６９番地３８,,09,201,3291105,,,,,,,2025-01-09,1,,,,,リズムワークス,0
1633,6060003005381,新規,0,2025-01-09,2025-01-09,ＴＡＲＡ合同会社,,合同会社,栃木県,栃木市,岩舟町新里１３０４番地５４号室,,09,203,3294316,,,,,,,2025-01-09,1,,,,,タラ,0
1637,6070001042517,新規,0,2025-01-09,2025-01-09,株式会社Ｒｕｄｙ,,株式会社,群馬県,高崎市,檜物町１１６番地,,10,202,3700839,,,,,,,2025-01-09,1,,,,,ルーディー,0
1638,6070001042525,新規,0,2025-01-09,2025-01-09,株式会社ＮＩＢＥＮ．,,株式会社,群馬県,伊勢崎市,西久保町３丁目６３５番地１,,10,204,3792204,,,,,,,2025-01-09,1,,,,,ニベン,0
1639,6070002037796,新規,0,2025-01-09,2025-01-09,有限会社十全薬局,,有限会社,群馬県,安中市,板鼻１丁目６番１０号,,10,211,3790111,,,,,,,2025-01-09,1,,,,,ゼンジュウジヤッキョク,0
1640,6070003005744,新規,0,2025-01-09,2025-01-09,ＦＡＲＶＩＮ　ＣＯＲＰＯＲＡＴＩＯＮ　ＫＩＲＹＵ合同会社,,合同会社,群馬県,桐生市,相生町２丁目８７６番地カニヤハイツＡ－１０１号,,10,203,3760011,,,,,,,2025-01-09,1,,,,,ファルビンコーポレーションキリュウ,0
1643,6080001026700,新規,0,2025-01-09,2025-01-09,株式会社ＭＯＵＮＴＡＩＮ　ＢＡＳＥ,,株式会社,静岡県,静岡市清水区,袖師町７５６番地の１,,22,103,4240037,,,,,,,2025-01-09,1,,,,,マウンテンベース,0
1645,6080101025239,新規,0,2025-01-09,2025-01-09,株式会社鳶勝又組,,株式会社,静岡県,三島市,谷田９７５番地の５,,22,206,4110801,,,,,,,2025-01-09,1,,,,,トビカツマタグミ,0
1653,6100005013279,新規,0,2025-01-09,2025-01-09,司法書士法人みやざわ事務所,,その他の設立登記法人,長野県,須坂市,大字米持４３９番地１,,20,207,3820000,,,,,,,2025-01-09,1,,,,,ミヤザワジムショ,0
1662,6120001271432,新規,0,2025-01-09,2025-01-09,株式会社Ｐｌｕｓ　ｔａｔｅ　Ｇｒｏｕｐ,,株式会社,大阪府,大阪市北区,堂山町１０番７号ステージジュエルビル１０２号,,27,127,5300027,,,,,,,2025-01-09,1,,,,,プラステイトグループ,0
1663,6120001271481,新規,0,2025-01-09,2025-01-09,株式会社逸葉,,株式会社,大阪府,大阪市浪速区,湊町２丁目１番３４－４０４号,,27,111,5560017,,,,,,,2025-01-09,1,,,,,イツハ,0
1664,6120001271515,新規,0,2025-01-09,2025-01-09,株式会社福浜工務店,,株式会社,大阪府,大阪市住吉区,長居東４丁目１１番２４号門脇ビル５階,,27,120,5580004,,,,,,,2025-01-09,1,,,,,フクハマコウムテン,0
1665,6120001271639,新規,0,2025-01-09,2025-01-09,華遠株式会社,,株式会社,大阪府,大阪市住吉区,長居４丁目１０番２６－４０２号,,27,120,5580003,,,,,,,2025-01-09,1,,,,,カエン,0
1666,6120001271705,新規,0,2025-01-09,2025-01-09,株式会社由縁エステート,,株式会社,大阪府,大阪市東淀川区,下新庄３丁目１０－１３ファミール東淀川８０９号室,,27,114,5330021,,,,,,,2025-01-09,1,,,,,ユエンエステート,0
1667,6120003028310,新規,0,2025-01-09,2025-01-09,Ｗ　Ｊａｐａｎ合同会社,,合同会社,大阪府,大阪市天王寺区,生玉町２番３１－１２１１号,,27,109,5430071,,,,,,,2025-01-09,1,,,,,ダブリュージャパン,0
1668,6120003028327,新規,0,2025-01-09,2025-01-09,合同会社つむぎ,,合同会社,大阪府,大阪市平野区,平野上町２丁目５番１６号,,27,126,5470045,,,,,,,2025-01-09,1,,,,,ツムギ,0
1669,6120005024695,新規,0,2025-01-09,2025-01-09,一般社団法人アモーレ,,その他の設立登記法人,大阪府,大阪市中央区,久太郎町１丁目５番１０－２０４号,,27,128,5410056,,,,,,,2025-01-09,1,,,,,アモーレ,0
1671,6120105009951,新規,0,2025-01-09,2025-01-09,特定非営利活動法人ＳＥＦＡＬＵＡ・ＶＩＬＬＡＧＥ,,その他の設立登記法人,大阪府,泉大津市,昭和町５－４－１,,27,206,5950036,,,,,,,2025-01-09,1,,,,,セファルアヴィレッジ,0
1674,6130001078703,新規,0,2025-01-09,2025-01-09,株式会社ＳＰＡＣＥ,,株式会社,京都府,亀岡市,大井町並河坂井５０番地４,,26,206,6210013,,,,,,,2025-01-09,1,,,,,スペース,0
1675,6130001078728,新規,0,2025-01-09,2025-01-09,株式会社森工業所,,株式会社,京都府,亀岡市,千代川町小林前田１０６番地３,,26,206,6210043,,,,,,,2025-01-09,1,,,,,モリコウギョウショ,0
1677,6130005017269,新規,0,2025-01-09,2025-01-09,一般財団法人Ｂａｌｌｏｎｂｌｕｍｅ,,その他の設立登記法人,京都府,京都市上京区,猪熊通上立売下る藤木町７８１番地３,,26,102,6028423,,,,,,,2025-01-09,1,,,,,バロンブルーメ,0
1684,6140001136922,新規,0,2025-01-09,2025-01-09,株式会社隼実業,,株式会社,兵庫県,神戸市西区,学園東町６丁目１番地の１、１１２０号,,28,111,6512102,,,,,,,2025-01-09,1,,,,,ハヤブサジツギョウ,0
1685,6140001136955,新規,0,2025-01-09,2025-01-09,株式会社オカダ,,株式会社,兵庫県,姫路市,東今宿６丁目１３番５号,,28,201,6700056,,,,,,,2025-01-09,1,,,,,オカダ,0
1686,6140001137020,新規,0,2025-01-09,2025-01-09,株式会社ミモザブリーゼ,,株式会社,兵庫県,神戸市東灘区,向洋町中６丁目９番地,,28,101,6580032,,,,,,,2025-01-09,1,,,,,ミモザブリーゼ,0
1687,6140001137045,新規,0,2025-01-09,2025-01-09,株式会社ＭＯＡＢ,,株式会社,兵庫県,赤穂市,御崎１５１番地２,,28,212,6780215,,,,,,,2025-01-09,1,,,,,モアブ,0
1689,6140003021503,新規,0,2025-01-09,2025-01-09,合同会社Ｓ・ＴＵ,,合同会社,兵庫県,神戸市灘区,灘南通５丁目５番２－９０４号,,28,102,6570841,,,,,,,2025-01-09,1,,,,,エスティーユー,0
1693,6160001026469,新規,0,2025-01-09,2025-01-09,株式会社ＢＯＮ建設,,株式会社,滋賀県,長浜市,新庄寺町１００番地３０,,25,203,5260013,,,,,,,2025-01-09,1,,,,,ボンケンセツ,0
1694,6160001026477,新規,0,2025-01-09,2025-01-09,Ｍ．Ｄ．Ｆ株式会社,,株式会社,滋賀県,草津市,草津町１４６７番地１－８０３ベルヴィ草津,,25,206,5250036,,,,,,,2025-01-09,1,,,,,エムディーエフ,0
1697,6170003002153,新規,0,2025-01-09,2025-01-09,合同会社神前浩平建築研究所,,合同会社,和歌山県,和歌山市,吉田３２４番地１サンライズマンション和歌山ＩＩ１００２,00137571,30,201,6408343,,,,,,,2025-01-09,1,,,,,コウザキコウヘイケンチクケンキュウショ,0
1704,6180001164787,新規,0,2025-01-09,2025-01-09,株式会社Ｂｅ　Ｃａｒｅｅｒ,,株式会社,愛知県,名古屋市中区,栄３丁目２番３号名古屋日興證券ビル４Ｆ,,23,106,4600008,,,,,,,2025-01-09,1,,,,,ビーキャリア,0
1705,6180001164804,新規,0,2025-01-09,2025-01-09,株式会社つながる創研,,株式会社,愛知県,名古屋市中区,栄３丁目２番３号名古屋日興證券ビル４階,,23,106,4600008,,,,,,,2025-01-09,1,,,,,ツナガルソウケン,0
1706,6180001164812,新規,0,2025-01-09,2025-01-09,株式会社ＮＭＬＣ,,株式会社,愛知県,春日井市,鳥居松町４丁目５６２９番地４,,23,206,4860844,,,,,,,2025-01-09,1,,,,,エヌエムエルシー,0
1707,6180001164903,新規,0,2025-01-09,2025-01-09,Ｊａｙｓ　ＪＡＰＡＮ株式会社,,株式会社,愛知県,名古屋市千種区,松竹町１丁目１３番地コーポ稲名１０５号,,23,101,4640823,,,,,,,2025-01-09,1,,,,,ジェイズジャパン,0
1708,6180003027827,新規,0,2025-01-09,2025-01-09,合同会社岡川商店,,合同会社,愛知県,春日井市,鳥居松町６丁目５－１，２階,,23,206,4860844,,,,,,,2025-01-09,1,,,,,オカガワショウテン,0
1711,6180005020895,新規,0,2025-01-09,2025-01-09,一般社団法人Ｐｌａｙ　ｏｆ　Ｃｏｌｏｒ,,その他の設立登記法人,愛知県,海部郡蟹江町,八幡１丁目９７番２,,23,425,4970056,,,,,,,2025-01-09,1,,,,,プレイオブカラー,0
1715,6190003004908,新規,0,2025-01-09,2025-01-09,合同会社Ｒａｓｈｉｋ,,合同会社,三重県,津市,柳山津興１４５１‐１,,24,201,5140803,,,,,,,2025-01-09,1,,,,,ラシク,0
1717,6190005012009,新規,0,2025-01-09,2025-01-09,一般社団法人ＯＭＯＴＥＮＡＳＩ,,その他の設立登記法人,三重県,尾鷲市,矢浜２丁目２２番１５号,,24,209,5193671,,,,,,,2025-01-09,1,,,,,オモテナシ,0
1720,6200001043303,新規,0,2025-01-09,2025-01-09,株式会社ＴＲＵＸＩＡ,,株式会社,岐阜県,各務原市,川島松原町４４０番地１０,,21,213,5016026,,,,,,,2025-01-09,1,,,,,トラシア,0
1723,6210005010174,新規,0,2025-01-09,2025-01-09,一般社団法人開運ウェルネス脳美学協会ａｔｔｒａｃｔ,,その他の設立登記法人,福井県,小浜市,甲ケ崎２４－６－６,,18,204,9170107,,,,,,,2025-01-09,1,,,,,カイウンウェルネスノウビガクキョウカイアトラクト,0
1724,6220001026413,新規,0,2025-01-09,2025-01-09,ＡＴＳ株式会社,,株式会社,石川県,白山市,山島台６丁目１０１番地,,17,210,9240836,,,,,,,2025-01-09,1,,,,,エーティーエス,0
1725,6220001026421,新規,0,2025-01-09,2025-01-09,株式会社天野家,,株式会社,石川県,輪島市,河井町６部１３６番地７,,17,204,9280001,,,,,,,2025-01-09,1,,,,,テンノヤ,0
1726,6220003003930,新規,0,2025-01-09,2025-01-09,Ｍ　ｒｅａｌ　ｅｓｔａｔｅ村上合同会社,,合同会社,石川県,七尾市,和倉町ラ部２０番地,,17,202,9260175,,,,,,,2025-01-09,1,,,,,エムリールエステイトムラカミ,0
1731,6240003007013,新規,0,2025-01-09,2025-01-09,合同会社カーラー,,合同会社,広島県,福山市,柳津町５丁目７番４号,,34,207,7290114,,,,,,,2025-01-09,1,,,,,カーラー,0
1733,6260001039782,新規,0,2025-01-09,2025-01-09,株式会社高橋,00137570,株式会社,岡山県,倉敷市,児島元浜町１２３番地５ロワールＡ３０５号室,,33,202,7110922,,,,,,,2025-01-09,1,,,,,タカハシ,0
1734,6270001009116,新規,0,2025-01-09,2025-01-09,株式会社松井苗圃,,株式会社,鳥取県,東伯郡北栄町,妻波１５７７番地１,,31,372,6892224,,,,,,,2025-01-09,1,,,,,マツイビョウホ,0
1738,6290001108452,新規,0,2025-01-09,2025-01-09,株式会社ＴＳ,,株式会社,福岡県,福岡市中央区,大手門２丁目６番１６－９０１号ＭＪＲ大手門タワーレジデンス,,40,133,8100074,,,,,,,2025-01-09,1,,,,,ティーエス,0
1739,6290001108551,新規,0,2025-01-09,2025-01-09,株式会社マイズ,,株式会社,福岡県,糟屋郡粕屋町,大字仲原１８３２番１,,40,349,8112304,,,,,,,2025-01-09,1,,,,,マイズ,0
1740,6290001108601,新規,0,2025-01-09,2025-01-09,株式会社ｆｒｅｅｄｏｍ．ｃｏｍ,,株式会社,福岡県,宗像市,田熊４丁目４番３２号,,40,220,8113431,,,,,,,2025-01-09,1,,,,,フリーダムドットコム,0
1743,6290003016249,新規,0,2025-01-09,2025-01-09,ＲＫＭ合同会社,,合同会社,福岡県,那珂川市,西隈３丁目２番１９号,,40,231,8111242,,,,,,,2025-01-09,1,,,,,アールケイエム,0
1744,6290003016265,新規,0,2025-01-09,2025-01-09,合同会社イタケン,,合同会社,福岡県,福岡市南区,平和１丁目７番１－４０５号,,40,134,8150071,,,,,,,2025-01-09,1,,,,,イタケン,0
1745,6290801031176,新規,0,2025-01-09,2025-01-09,株式会社満室デザイン,,株式会社,福岡県,直方市,大字頓野３９００番地１,,40,204,8220002,,,,,,,2025-01-09,1,,,,,マンシツデザイン,0
1751,6350001019338,新規,0,2025-01-09,2025-01-09,株式会社ＳＯＵＴＨ　ＧＡＴＥ　ＨＯＬＤＩＮＧＳ,,株式会社,宮崎県,宮崎市,南花ケ島町６０番地２,,45,201,8800055,,,,,,,2025-01-09,1,,,,,サウスゲートホールディングス,0
1754,6360001034641,新規,0,2025-01-09,2025-01-09,株式会社フェアサポート,,株式会社,沖縄県,沖縄市,美里４丁目１７番７号,,47,211,9042153,,,,,,,2025-01-09,1,,,,,フェアサポート,0
1756,6370001052106,新規,0,2025-01-09,2025-01-09,システムテクニカル株式会社,,株式会社,宮城県,岩沼市,末広２丁目４番２２－１０２号,,04,211,9892426,,,,,,,2025-01-09,1,,,,,システムテクニカル,0
1757,6370003006885,新規,0,2025-01-09,2025-01-09,合同会社鏡,,合同会社,宮城県,仙台市太白区,土手内３丁目１２番２０号,,04,104,9820026,,,,,,,2025-01-09,1,,,,,キョウ,0
1759,6380001035019,新規,0,2025-01-09,2025-01-09,株式会社清野ガラス,,株式会社,福島県,福島市,南沢又字高木４番地の１１,,07,201,9608254,,,,,,,2025-01-09,1,,,,,セイノガラス,0
1760,6380001035027,新規,0,2025-01-09,2025-01-09,ＪＦＳ配送サービス株式会社,,株式会社,福島県,いわき市,勿来町窪田酒井原２番地の２,,07,204,9790141,,,,,,,2025-01-09,1,,,,,ジェイエフエスハイソウサービス,0
1761,6380003005928,新規,0,2025-01-09,2025-01-09,会津若松バッテリー事業合同会社,,合同会社,福島県,会津若松市,東栄町１番７７号スマートシティＡｉＣＴ,,07,202,9650872,,,,,,,2025-01-09,1,,,,,アイヅワカマツバッテリージギョウ,0
1776,6430001093432,新規,0,2025-01-09,2025-01-09,株式会社ソーシャルデザインサポート,,株式会社,北海道,札幌市中央区,大通西２０丁目３番１号,,01,101,0640820,,,,,,,2025-01-09,1,,,,,ソーシャルデザインサポート,0
1777,6430001093440,新規,0,2025-01-09,2025-01-09,一心株式会社,,株式会社,北海道,札幌市中央区,南七条西１８丁目３番１５号,,01,101,0640807,,,,,,,2025-01-09,1,,,,,イッシン,0
1778,6430001093457,新規,0,2025-01-09,2025-01-09,株式会社ミキテツ,,株式会社,北海道,札幌市北区,北二十五条西１５丁目４番３号,,01,102,0010025,,,,,,,2025-01-09,1,,,,,ミキテツ,0
1782,6430003017141,新規,0,2025-01-09,2025-01-09,合同会社サイドバイサイド,,合同会社,北海道,江別市,野幌末広町１３番地３,,01,217,0690815,,,,,,,2025-01-09,1,,,,,サイドバイサイド,0
1783,6430003017174,新規,0,2025-01-09,2025-01-09,合同会社ＲｉｔＡ,,合同会社,北海道,小樽市,銭函２丁目３６番２７号ＳｅａｓｉｄｅＶｉｌｌａｇｅＺＥＮＩＢＡＫＯ１号棟Ｅ号室,,01,203,0470261,,,,,,,2025-01-09,1,,,,,リタ,0
1786,6460303000851,新規,0,2025-01-09,2025-01-09,合同会社Ｃａｍｕｓ,,合同会社,北海道,北見市,美芳町１丁目６番３号プロヴァンス夕陽ヶ丘２０２号,,01,208,0900064,,,,,,,2025-01-09,1,,,,,カミュ,0
1787,6480003002221,新規,0,2025-01-09,2025-01-09,ＫＡＩＤＯ　ＧＲＯＵＰ合同会社,,合同会社,徳島県,阿南市,宝田町川原１５番地１,,36,204,7740045,,,,,,,2025-01-09,1,,,,,カイドウグループ,0
1793,6500001026062,新規,0,2025-01-09,2025-01-09,ＥＡＲＸ株式会社,,株式会社,愛媛県,松山市,和気町１丁目１７８３番地５,,38,201,7992656,,,,,,,2025-01-09,1,,,,,アークス,0
1794,6500001026079,新規,0,2025-01-09,2025-01-09,株式会社Ｂｉｒｉｔ,,株式会社,愛媛県,松山市,和田甲３７０番地１３,,38,201,7992465,,,,,,,2025-01-09,1,,,,,ビリット,0
1796,6700150128572,新規,0,2025-01-09,2025-01-09,深セン虎嗅微電子有限公司,,外国会社等,,,,,,,,深セン市龍崗区平湖街道禾花社区華南大道一号華南城環球物流中心１１２３,,,,,,2025-01-09,1,,,,,シンセンコキュウビデンシユウゲンコウシ,0
1797,7010001250999,新規,0,2025-01-09,2025-01-09,株式会社ＯｎｅＯＡＫ,,株式会社,東京都,文京区,後楽２丁目３番２１号住友不動産飯田橋ビル２Ｆ,,13,105,1120004,,,,,,,2025-01-09,1,,,,,ワンオーク,0
1798,7010001251130,新規,0,2025-01-09,2025-01-09,株式会社ダイレクトエージェンシー,,株式会社,東京都,千代田区,九段南１丁目５番６号りそな九段ビル５階ＫＳフロア,,13,101,1020074,,,,,,,2025-01-09,1,,,,,ダイレクトエージェンシー,0
1799,7010001251221,新規,0,2025-01-09,2025-01-09,吉永株式会社,,株式会社,東京都,中央区,銀座７丁目６番４号ＦｙｒａＧＩＮＺＡビル,,13,102,1040061,,,,,,,2025-01-09,1,,,,,ヨシナガ,0
1800,7010001251246,新規,0,2025-01-09,2025-01-09,株式会社Ｔｓｕｍｕｇｉ,,株式会社,東京都,千代田区,東神田３丁目４－１２,,13,101,1010031,,,,,,,2025-01-09,1,,,,,ツムギ,0
1801,7010001251254,新規,0,2025-01-09,2025-01-09,Ｂｉｏｃｏｍｐｏｓｉｔｅｓ株式会社,,株式会社,東京都,千代田区,霞が関３丁目２番６号東京倶楽部ビルディング１１階,,13,101,1000013,,,,,,,2025-01-09,1,,,,,バイオコンポジッツ,0
1806,7010003045919,新規,0,2025-01-09,2025-01-09,合同会社Ｋ,,合同会社,東京都,文京区,水道１丁目４番１３号ハイツ伸栄３０３,,13,105,1120005,,,,,,,2025-01-09,1,,,,,ケイ,0
1807,7010101016474,新規,0,2025-01-09,2025-01-09,０７８株式会社,,株式会社,東京都,八王子市,西片倉２丁目２３番４号ヌサドゥア２０２号,,13,201,1920917,,,,,,,2025-01-09,1,,,,,ゼロナナハチ,0
1810,7010401187420,新規,0,2025-01-09,2025-01-09,株式会社Ｓｙｎｅｒｇｙ　Ｃｏｎｎｅｃｔ,,株式会社,東京都,港区,芝浦２丁目６番１号,,13,103,1080023,,,,,,,2025-01-09,1,,,,,シナジーコネクト,0
1811,7010401187445,新規,0,2025-01-09,2025-01-09,株式会社Ｂｒｉｇｈｔｅｎ　Ｆｏｏｄｓ,,株式会社,東京都,港区,六本木４丁目１２番８号,,13,103,1060032,,,,,,,2025-01-09,1,,,,,ブライトンフーズ,0
1812,7010401187461,新規,0,2025-01-09,2025-01-09,リジェネラ株式会社,,株式会社,東京都,港区,北青山１丁目３番１号アールキューブ青山３階,,13,103,1070061,,,,,,,2025-01-09,1,,,,,リジェネラ,0
1814,7010403034100,新規,0,2025-01-09,2025-01-09,サシバクリーンエナジー合同会社,,合同会社,東京都,港区,海岸１丁目５番２０号,,13,103,1050022,,,,,,,2025-01-09,1,,,,,サシバクリーンエナジー,0
1815,7010403034133,新規,0,2025-01-09,2025-01-09,合同会社ＬＬＯＹＤ‐ＬＡＢ,,合同会社,東京都,港区,南青山１丁目１３番５－２０１号,,13,103,1070062,,,,,,,2025-01-09,1,,,,,ロイドラボ,0
1816,7010403034141,新規,0,2025-01-09,2025-01-09,エフジージャパン合同会社,,合同会社,東京都,港区,芝４丁目１０番１号,,13,103,1080014,,,,,,,2025-01-09,1,,,,,エフジージャパン,0
1820,7010601066556,新規,0,2025-01-09,2025-01-09,株式会社知域,,株式会社,東京都,江東区,富岡２丁目１１番１８号リードシー門前仲町ビル４階,,13,108,1350047,,,,,,,2025-01-09,1,,,,,チイキ,0
1821,7010601066564,新規,0,2025-01-09,2025-01-09,朝乃株式会社,,株式会社,東京都,江東区,猿江２丁目１３番３号,,13,108,1350003,,,,,,,2025-01-09,1,,,,,アサノ,0
1822,7010701047092,新規,0,2025-01-09,2025-01-09,ＳＤＦ　Ｓｐｅｅｄ株式会社,,株式会社,東京都,品川区,上大崎２丁目２５番２号新目黒東急ビル９階,,13,109,1410021,,,,,,,2025-01-09,1,,,,,エスディーエフスピード,0
1823,7010801035724,新規,0,2025-01-09,2025-01-09,株式会社ＮＹＫ,,株式会社,東京都,大田区,鵜の木３丁目１４番１３号,,13,111,1460091,,,,,,,2025-01-09,1,,,,,エヌワイケイ,0
1824,7010801035732,新規,0,2025-01-09,2025-01-09,株式会社ＴＴＥＰＵ,,株式会社,東京都,大田区,池上３丁目３６番１０号２階,,13,111,1460082,,,,,,,2025-01-09,1,,,,,テップ,0
1830,7010901056612,新規,0,2025-01-09,2025-01-09,株式会社ＳＴＥＩＧＨＴ,,株式会社,東京都,世田谷区,三宿１丁目２３－３ピアチェーレ三宿２０２,,13,112,1540005,,,,,,,2025-01-09,1,,,,,ステイト,0
1831,7010901056629,新規,0,2025-01-09,2025-01-09,株式会社ＡＵＤＲＥＹ,,株式会社,東京都,世田谷区,玉堤１丁目１６番８号東輝ビル２０２号室,,13,112,1580087,,,,,,,2025-01-09,1,,,,,オードリー,0
1835,7011001167011,新規,0,2025-01-09,2025-01-09,エナジーインベスト株式会社,,株式会社,東京都,渋谷区,恵比寿西２丁目４番８号ウィンド恵比寿ビル８Ｆ,,13,113,1500021,,,,,,,2025-01-09,1,,,,,エナジーインベスト,0
1836,7011001167028,新規,0,2025-01-09,2025-01-09,ＦＤＦ株式会社,,株式会社,東京都,渋谷区,神南１丁目１１番４号ＦＰＧリンクス神南５階,,13,113,1500041,,,,,,,2025-01-09,1,,,,,エフディーエフ,0
1837,7011001167044,新規,0,2025-01-09,2025-01-09,株式会社ＡｏＮａｎａ,,株式会社,東京都,渋谷区,渋谷２丁目１９番１５号宮益坂ビルディング６０９,,13,113,1500002,,,,,,,2025-01-09,1,,,,,アオナナ,0
1840,7011101110143,新規,0,2025-01-09,2025-01-09,株式会社Ｐｅｎｇｕｉｎ　Ｇｒｏｕｐ,,株式会社,東京都,新宿区,箪笥町３９番地ルネ神楽坂１６０４号室,,13,104,1620833,,,,,,,2025-01-09,1,,,,,ペンギングループ,0
1841,7011101110151,新規,0,2025-01-09,2025-01-09,Ｍｕｕ　Ｍｕｕ　Ｍａｒｋｅｔｉｎｇ株式会社,,株式会社,東京都,新宿区,西新宿３丁目３番１３号西新宿水間ビル６階,,13,104,1600023,,,,,,,2025-01-09,1,,,,,ムームーマーケティング,0
1845,7011301030265,新規,0,2025-01-09,2025-01-09,株式会社ネコリパウェルフェア,,株式会社,東京都,杉並区,堀ノ内２丁目３８番３号,,13,115,1660013,,,,,,,2025-01-09,1,,,,,ネコリパウェルフェア,0
1849,7011703004073,新規,0,2025-01-09,2025-01-09,ｒｉｔａ合同会社,,合同会社,東京都,江戸川区,西葛西２丁目１９番１３－３０２号グリーンパーク西葛西,,13,123,1340088,,,,,,,2025-01-09,1,,,,,リタ,0
1850,7011801045382,新規,0,2025-01-09,2025-01-09,株式会社ミライヴ,,株式会社,東京都,葛飾区,青戸７丁目３２番３号,,13,122,1250062,,,,,,,2025-01-09,1,,,,,ミライヴ,0
1853,7012403006905,新規,0,2025-01-09,2025-01-09,カルペディエム合同会社,,合同会社,東京都,小金井市,本町５丁目１６－４－３０２,,13,210,1840004,,,,,,,2025-01-09,1,,,,,カルペディエム,0
1856,7012701018635,新規,0,2025-01-09,2025-01-09,株式会社Ｋ’ｓライフ,,株式会社,東京都,小平市,花小金井南町１丁目５番５号,,13,211,1870003,,,,,,,2025-01-09,1,,,,,ケーズライフ,0
1858,7012801023675,新規,0,2025-01-09,2025-01-09,株式会社ｍａ　ＢＯＮＤ,,株式会社,東京都,立川市,砂川町７丁目２５番地の３４,,13,202,1900031,,,,,,,2025-01-09,1,,,,,エムエーボンド,0
1862,7013101009605,新規,0,2025-01-09,2025-01-09,株式会社ＳＴＵＤＹ　ＰＲＯ,,株式会社,東京都,青梅市,新町１丁目２９番地の７,,13,205,1980024,,,,,,,2025-01-09,1,,,,,スタディプロ,0
1867,7020003027528,新規,0,2025-01-09,2025-01-09,合同会社ワンチャンス,,合同会社,神奈川県,横浜市港北区,大曽根台３６番１３－３０１号,,14,109,2220004,,,,,,,2025-01-09,1,,,,,ワンチャンス,0
1868,7020003027536,新規,0,2025-01-09,2025-01-09,合同会社Ａｎｅｌａ,,合同会社,神奈川県,横浜市青葉区,黒須田１７番地７８,,14,117,2250022,,,,,,,2025-01-09,1,,,,,アネラ,0
1871,7021001084156,新規,0,2025-01-09,2025-01-09,株式会社Ｒｏｍａｘ,,株式会社,神奈川県,相模原市中央区,共和２丁目１番１６号,,14,152,2520234,,,,,,,2025-01-09,1,,,,,ロマックス,0
1872,7021001084172,新規,0,2025-01-09,2025-01-09,株式会社ＸｉＮ,,株式会社,神奈川県,藤沢市,片瀬海岸２丁目２０番１２号オハナテラス２Ｆ,,14,205,2510035,,,,,,,2025-01-09,1,,,,,シン,0
1873,7021001084197,新規,0,2025-01-09,2025-01-09,アーバングリーン株式会社,,株式会社,神奈川県,逗子市,沼間２丁目２３番９号,,14,208,2490004,,,,,,,2025-01-09,1,,,,,アーバングリーン,0
1875,7021003015415,新規,0,2025-01-09,2025-01-09,Ｉｋｕｒａ設計合同会社,,合同会社,神奈川県,茅ヶ崎市,本村３丁目７番２５号,,14,207,2530042,,,,,,,2025-01-09,1,,,,,イクラセッケイ,0
1881,7030001164207,新規,0,2025-01-09,2025-01-09,株式会社スマイルリンクス,,株式会社,埼玉県,吉川市,中川台２番４０３号,,11,243,3420047,,,,,,,2025-01-09,1,,,,,スマイルリンクス,0
1882,7030001164248,新規,0,2025-01-09,2025-01-09,株式会社創進,,株式会社,埼玉県,八潮市,大字大曽根３７２番地２,,11,234,3400834,,,,,,,2025-01-09,1,,,,,ソウシン,0
1883,7030001164289,新規,0,2025-01-09,2025-01-09,株式会社城北商会,,株式会社,埼玉県,川口市,八幡木３丁目３番７号,,11,203,3340012,,,,,,,2025-01-09,1,,,,,ジョウホクショウカイ,0
1886,7030003025836,新規,0,2025-01-09,2025-01-09,合同会社縁日屋,,合同会社,埼玉県,川口市,北原台２丁目１４番２５号レジデンス北原台１０２,,11,203,3330815,,,,,,,2025-01-09,1,,,,,エンニチヤ,0
1887,7030003025844,新規,0,2025-01-09,2025-01-09,ＴＮＣミライ合同会社,,合同会社,埼玉県,鴻巣市,広田３４３５番地１１,,11,217,3650005,,,,,,,2025-01-09,1,,,,,ティーエヌシーミライ,0
1895,7040003026494,新規,0,2025-01-09,2025-01-09,コークスマネジメント合同会社,,合同会社,千葉県,市川市,市川１丁目２６番９－１２０１号,,12,203,2720034,,,,,,,2025-01-09,1,,,,,コークスマネジメント,0
1896,7040003026536,新規,0,2025-01-09,2025-01-09,ＳＡＭＵＲＡＩ合同会社,,合同会社,千葉県,船橋市,二和東５丁目６２番３号２０２,,12,204,2740805,,,,,,,2025-01-09,1,,,,,サムライ,0
1897,7040003026560,新規,0,2025-01-09,2025-01-09,合同会社ＳＢＭＣ,,合同会社,千葉県,松戸市,松戸新田４８７番地の２１レオパレスエピナールＩＩ２０３号,00137575,12,207,2702241,,,,,,,2025-01-09,1,,,,,エスビーエムシー,0
1900,7050001055965,新規,0,2025-01-09,2025-01-09,ＧＯＥＮＬＩＮＫ株式会社,,株式会社,茨城県,笠間市,下市毛２１８番地１,,08,216,3091626,,,,,,,2025-01-09,1,,,,,ゴエンリンク,0
1906,7060001037780,新規,0,2025-01-09,2025-01-09,八木澤設備株式会社,,株式会社,栃木県,那須塩原市,石林８３８番地１３,,09,213,3292711,,,,,,,2025-01-09,1,,,,,ヤギサワセツビ,0
1907,7060001037806,新規,0,2025-01-09,2025-01-09,株式会社レリーズ,,株式会社,栃木県,宇都宮市,北若松原１丁目１１番４号,,09,201,3210153,,,,,,,2025-01-09,1,,,,,レリーズ,0
1910,7070001042516,新規,0,2025-01-09,2025-01-09,株式会社ピーエスジェー,,株式会社,群馬県,高崎市,箕郷町生原６６６番地１,,10,202,3703102,,,,,,,2025-01-09,1,,,,,ピーエスジェー,0
1911,7070001042532,新規,0,2025-01-09,2025-01-09,株式会社飯翔建設,,株式会社,群馬県,藤岡市,中大塚５８４番地３,,10,209,3750053,,,,,,,2025-01-09,1,,,,,イイショウケンセツ,0
1912,7080001026699,新規,0,2025-01-09,2025-01-09,ＪＥ　ＥＸＣＬＵＳＩＶＥ株式会社,,株式会社,静岡県,焼津市,坂本４３１番地の２,,22,212,4250004,,,,,,,2025-01-09,1,,,,,ジェイイーエクスクルーシブ,0
1913,7080401027677,新規,0,2025-01-09,2025-01-09,株式会社トウカイテイオウ,,株式会社,静岡県,浜松市中央区,舘山寺町１０２番地の１,,22,138,4311209,,,,,,,2025-01-09,1,,,,,トウカイテイオウ,0
1921,7100005013278,新規,0,2025-01-09,2025-01-09,一般社団法人ＡＣ長野パルセイロ,,その他の設立登記法人,長野県,長野市,大字屋島３３００番地,,20,201,3810021,,,,,,,2025-01-09,1,,,,,エーシーナガノパルセイロ,0
1932,7120001271588,新規,0,2025-01-09,2025-01-09,株式会社ジャパンプルベンチャー,,株式会社,大阪府,大阪市住之江区,御崎１丁目１１番１９号インキュセンタービル２０３室,,27,125,5590013,,,,,,,2025-01-09,1,,,,,ジャパンプルベンチャー,0
1933,7120001271687,新規,0,2025-01-09,2025-01-09,株式会社ミツケアパートナーズ,,株式会社,大阪府,大阪市旭区,高殿７丁目２番７号,,27,117,5350031,,,,,,,2025-01-09,1,,,,,ミツケアパートナーズ,0
1934,7120001271712,新規,0,2025-01-09,2025-01-09,株式会社シオントラスト,,株式会社,大阪府,大阪市天王寺区,小橋町９番２号２０１号,,27,109,5430028,,,,,,,2025-01-09,1,,,,,シオントラスト,0
1935,7120001271778,新規,0,2025-01-09,2025-01-09,積水ソーラーフィルム株式会社,,株式会社,大阪府,大阪市北区,西天満２丁目４番４号,,27,127,5300047,,,,,,,2025-01-09,1,,,,,セキスイソーラーフィルム,0
1938,7120003028268,新規,0,2025-01-09,2025-01-09,ケーアイリンク合同会社,,合同会社,大阪府,大阪市北区,梅田２丁目２番２号ヒルトンプラザウエスト１９階,,27,127,5300001,,,,,,,2025-01-09,1,,,,,ケーアイリンク,0
1939,7120003028292,新規,0,2025-01-09,2025-01-09,合同会社サクアンズＦａｃｔｏｒｉｙ,,合同会社,大阪府,大阪市中央区,瓦町３丁目４－１０日宝御堂ビル６Ｆ－４号,,27,128,5410048,,,,,,,2025-01-09,1,,,,,サクアンズファクトリー,0
1940,7120003028301,新規,0,2025-01-09,2025-01-09,合同会社ティーエヌケー・アンド・カンパニー,,合同会社,大阪府,大阪市東住吉区,西今川３丁目２５番１号,,27,121,5460042,,,,,,,2025-01-09,1,,,,,ティーエヌケーアンドカンパニー,0
1943,7120005024694,新規,0,2025-01-09,2025-01-09,一般社団法人イーヨ,,その他の設立登記法人,大阪府,大阪市北区,芝田１丁目１番２６号松本ビル６階,,27,127,5300012,,,,,,,2025-01-09,1,,,,,イーヨ,0
1947,7122001038769,新規,0,2025-01-09,2025-01-09,株式会社マツダ・ライフデザイン,,株式会社,大阪府,東大阪市,吉田６丁目３番２８号,,27,227,5780924,,,,,,,2025-01-09,1,,,,,マツダライフデザイン,0
1949,7130001078727,新規,0,2025-01-09,2025-01-09,副島興業株式会社,,株式会社,京都府,京都市伏見区,向島丸町４番地７向島市営住宅８－５棟６０１号,,26,109,6128131,,,,,,,2025-01-09,1,,,,,フクシマコウギョウ,0
1951,7130003010118,新規,0,2025-01-09,2025-01-09,ＳＡＳＨＩ合同会社,,合同会社,京都府,宇治市,莵道車田１５番地の７１,,26,204,6110013,,,,,,,2025-01-09,1,,,,,サシ,0
1952,7130003010126,新規,0,2025-01-09,2025-01-09,ＺＥＮＩＴＨ合同会社,,合同会社,京都府,京都市北区,紫野下柏野町５１番地６,,26,101,6038313,,,,,,,2025-01-09,1,,,,,ゼニス,0
1953,7130005017268,新規,0,2025-01-09,2025-01-09,税理士法人修成,,その他の設立登記法人,京都府,京都市中京区,三条通新町西入釜座町２２番地ストークビル三条烏丸４０１号,,26,104,6048241,,,,,,,2025-01-09,1,,,,,シュウセイ,0
1958,7140001136962,新規,0,2025-01-09,2025-01-09,株式会社龍桜,,株式会社,兵庫県,丹波市,氷上町上成松３２番地,,28,223,6693606,,,,,,,2025-01-09,1,,,,,リュウオウ,0
1959,7140001136970,新規,0,2025-01-09,2025-01-09,株式会社Ｓｗｅｅｔｓ　Ｌｉｆｅ　Ｄｅｓｉｇｎ,,株式会社,兵庫県,西宮市,相生町７番１２号,,28,204,6620063,,,,,,,2025-01-09,1,,,,,スイーツライフデザイン,0
1960,7140001137069,新規,0,2025-01-09,2025-01-09,株式会社ハンドメイクマメ,,株式会社,兵庫県,神戸市兵庫区,荒田町２丁目９番１５号,,28,105,6520032,,,,,,,2025-01-09,1,,,,,ハンドメイクマメ,0
1965,7160001026468,新規,0,2025-01-09,2025-01-09,株式会社Ｇｒａｃｅ,,株式会社,滋賀県,草津市,上笠１丁目１８番３１号,,25,206,5250028,,,,,,,2025-01-09,1,,,,,グレイス,0
1966,7160001026476,新規,0,2025-01-09,2025-01-09,株式会社明徳重機,,株式会社,滋賀県,蒲生郡竜王町,大字山之上２３２３番地,,25,384,5202531,,,,,,,2025-01-09,1,,,,,メイトクジュウキ,0
1972,7180001164737,新規,0,2025-01-09,2025-01-09,Ａｌｆａ　Ｄｅｖｉｃｅ株式会社,,株式会社,愛知県,名古屋市東区,白壁４丁目４４番地,,23,102,4610011,,,,,,,2025-01-09,1,,,,,アルファデバイス,0
1973,7180001164745,新規,0,2025-01-09,2025-01-09,株式会社Ｓ．ｙｏｓｈｉｄａ,,株式会社,愛知県,長久手市,塚田１００１番地,,23,238,4801154,,,,,,,2025-01-09,1,,,,,エスヨシダ,0
1974,7180001164860,新規,0,2025-01-09,2025-01-09,株式会社リノ,,株式会社,愛知県,名古屋市中区,錦３丁目１８番３１号クレバビルＢ１Ｆ,,23,106,4600003,,,,,,,2025-01-09,1,,,,,リノ,0
1975,7180001164919,新規,0,2025-01-09,2025-01-09,株式会社ＰＲＯＳＯＮＥ,,株式会社,愛知県,名古屋市中川区,下之一色町字古川１５１番地,,23,110,4540945,,,,,,,2025-01-09,1,,,,,プロスワン,0
1984,7180303006389,新規,0,2025-01-09,2025-01-09,合同会社三矢,,合同会社,愛知県,西尾市,一色町開正河原畑２０番地,,23,213,4440421,,,,,,,2025-01-09,1,,,,,ミツヤ,0
1985,7180305009638,新規,0,2025-01-09,2025-01-09,医療法人タケオ矯正歯科・歯科医院,,その他の設立登記法人,愛知県,豊橋市,飯村北２丁目１２番地の１１,,23,201,4400834,,,,,,,2025-01-09,1,,,,,タケオキョウセイシカシカイイン,0
1987,7190001031928,新規,0,2025-01-09,2025-01-09,株式会社Ｎａｔｕｒｉａ　Ｂｏｄｙ,,株式会社,三重県,津市,河芸町浜田５０２番地７,,24,201,5100314,,,,,,,2025-01-09,1,,,,,ナチュリアボディ,0
1988,7190003004907,新規,0,2025-01-09,2025-01-09,合同会社ルンルン,,合同会社,三重県,伊勢市,御薗町高向２０７６番地５,,24,203,5160805,,,,,,,2025-01-09,1,,,,,ルンルン,0
1989,7190005012008,新規,0,2025-01-09,2025-01-09,特定非営利活動法人シュエット,,その他の設立登記法人,三重県,名張市,美旗町中３番２７６番地,,24,208,5180619,,,,,,,2025-01-09,1,,,,,シュエット,0
1992,7200001043302,新規,0,2025-01-09,2025-01-09,ＷＥＬＬＮＥＳＳ　ＧＬＯＷ株式会社,,株式会社,岐阜県,各務原市,蘇原東栄町２丁目１３８番地,,21,213,5040815,,,,,,,2025-01-09,1,,,,,ウェルネスグロウ,0
1993,7200001043319,新規,0,2025-01-09,2025-01-09,ＫＡＮＩＤＥＮホールディングス株式会社,,株式会社,岐阜県,可児市,谷迫間９３番地３,,21,214,5090242,,,,,,,2025-01-09,1,,,,,カニデンホールディングス,0
1997,7220001026420,新規,0,2025-01-09,2025-01-09,株式会社Ｃｌｉｎｉｃ　Ｄ　Ｃｏｍｐａｎｙ,,株式会社,石川県,金沢市,新神田５丁目３４番地ア・レーズ２０２号,,17,201,9218013,,,,,,,2025-01-09,1,,,,,クリニックデーカンパニー,0
1998,7220003003921,新規,0,2025-01-09,2025-01-09,合同会社ＴｒｕｅＴｒｕｅ,,合同会社,石川県,羽咋郡志賀町,高浜町マ８５番地,,17,384,9250141,,,,,,,2025-01-09,1,,,,,トゥルートゥルー,0
2002,7240001064352,新規,0,2025-01-09,2025-01-09,株式会社クレビア,,株式会社,広島県,安芸高田市,吉田町上入江１１７８番地１,,34,214,7310532,,,,,,,2025-01-09,1,,,,,クレビア,0
2004,7250001020957,新規,0,2025-01-09,2025-01-09,株式会社Ｆｒｅｅｄｏｍ,,株式会社,山口県,下関市,安岡町３丁目５番３号,,35,201,7596603,,,,,,,2025-01-09,1,,,,,フリーダム,0
2008,7270001009123,新規,0,2025-01-09,2025-01-09,株式会社シンキ,,株式会社,鳥取県,岩美郡岩美町,大字新井５５５番地１,,31,302,6810065,,,,,,,2025-01-09,1,,,,,シンキ,0
2014,7290001108451,新規,0,2025-01-09,2025-01-09,株式会社テンプルマウンテン,,株式会社,福岡県,福岡市中央区,大手門２丁目６番１６－９０１号ＭＪＲ大手門タワーレジデンス,,40,133,8100074,,,,,,,2025-01-09,1,,,,,テンプルマウンテン,0
2015,7290001108550,新規,0,2025-01-09,2025-01-09,Ｉ’ＬＬＢＥ株式会社,,株式会社,福岡県,福岡市中央区,清川２丁目１８番１０号,,40,133,8100005,,,,,,,2025-01-09,1,,,,,アイルビー,0
2016,7290001108559,新規,0,2025-01-09,2025-01-09,株式会社モナミ,,株式会社,福岡県,福岡市城南区,南片江２丁目２７番１８号,,40,136,8140143,,,,,,,2025-01-09,1,,,,,モナミ,0
2017,7290003016223,新規,0,2025-01-09,2025-01-09,合同会社Ｃｕｒｒｅｎｔ,,合同会社,福岡県,小郡市,祇園１丁目１１－６,,40,216,8380144,,,,,,,2025-01-09,1,,,,,カレント,0
2018,7290003016256,新規,0,2025-01-09,2025-01-09,合同会社ジョイ,,合同会社,福岡県,古賀市,日吉３丁目２６－１,,40,223,8113106,,,,,,,2025-01-09,1,,,,,ジョイ,0
2020,7290801031175,新規,0,2025-01-09,2025-01-09,株式会社ＳｕｎＬｅａ,,株式会社,福岡県,中間市,中央５丁目１０番１９号,,40,215,8090030,,,,,,,2025-01-09,1,,,,,サンレア,0
2025,7320003004554,新規,0,2025-01-09,2025-01-09,アースアイ合同会社,,合同会社,大分県,別府市,石垣西１丁目３番２９－３０２号屋田第２養魚ビル,,44,202,8740910,,,,,,,2025-01-09,1,,,,,アースアイ,0
2027,7340001027051,新規,0,2025-01-09,2025-01-09,株式会社判田,,株式会社,鹿児島県,霧島市,隼人町東郷９３０番地,,46,218,8995115,,,,,,,2025-01-09,1,,,,,ハンダ,0
2035,7380001035026,新規,0,2025-01-09,2025-01-09,ヤマト商店株式会社,,株式会社,福島県,須賀川市,岩渕字笠木１９２番地１,,07,207,9620043,,,,,,,2025-01-09,1,,,,,ヤマトショウテン,0
2043,7430001093407,新規,0,2025-01-09,2025-01-09,Ｗａｒａｋｕ　Ａｒｔ　Ｍｕｓｉｃ株式会社,,株式会社,北海道,勇払郡安平町,追分若草２丁目２番地,,01,585,0591951,,,,,,,2025-01-09,1,,,,,ワラクアートミュージック,0
2044,7430001093431,新規,0,2025-01-09,2025-01-09,株式会社ＮＩＣＯ,,株式会社,北海道,石狩郡当別町,弥生５２番地,,01,303,0610223,,,,,,,2025-01-09,1,,,,,ニコ,0
2046,7430003017140,新規,0,2025-01-09,2025-01-09,合同会社ＭＡＲＣＯＭＡＲ,,合同会社,北海道,江別市,東野幌３番地３,,01,217,0690822,,,,,,,2025-01-09,1,,,,,マルコマール,0
2047,7430003017165,新規,0,2025-01-09,2025-01-09,合同会社Ｔｏｒｕｓ　Ｌａｎｇｕａｇｅ,,合同会社,北海道,札幌市中央区,北二条西２丁目３２番地第３７桂和ビル６階Ｓ－０３,,01,101,0600002,,,,,,,2025-01-09,1,,,,,トーラスランゲージ,0
2048,7430003017173,新規,0,2025-01-09,2025-01-09,合同会社遠藤板金,,合同会社,北海道,岩見沢市,南町七条５丁目７番４号,,01,210,0680807,,,,,,,2025-01-09,1,,,,,エンドウバンキン,0
2052,7470001020530,新規,0,2025-01-09,2025-01-09,株式会社ＳＴＵＤＩＯ　ＧＯＳＨＯＷ,,株式会社,香川県,高松市,田町９番地３,,37,201,7600053,,,,,,,2025-01-09,1,,,,,スタジオゴウショウ,0
2053,7480001012700,新規,0,2025-01-09,2025-01-09,株式会社ｕｚｕｋｉ,,株式会社,徳島県,阿南市,中大野町北傍示４５２番地１,,36,204,7740048,,,,,,,2025-01-09,1,,,,,ウズキ,0
2058,7500003003406,新規,0,2025-01-09,2025-01-09,ＫＬＡコンサルティング合同会社,,合同会社,愛媛県,西予市,宇和町新城７９７番地１,,38,214,7970006,,,,,,,2025-01-09,1,,,,,ケーエルエーコンサルティング,0
2059,7700150128571,新規,0,2025-01-09,2025-01-09,深セン市サ＿塔科技有限公司,00137577,外国会社等,,,,,,,,中国深セン市龍崗区坂田街道布龍路６０１号３棟５０８室,,,,,,2025-01-09,1,,,,,シンセンシサカタカギユウゲンコウシ,0
2066,8010001251088,新規,0,2025-01-09,2025-01-09,株式会社ｒａｇｔｉｍｅ,,株式会社,東京都,中央区,日本橋蛎殻町２丁目７－１２,,13,102,1030014,,,,,,,2025-01-09,1,,,,,ラグタイム,0
2067,8010001251105,新規,0,2025-01-09,2025-01-09,株式会社ハイダーインターナショナル,,株式会社,東京都,中央区,晴海１丁目８番１０号晴海アイランドトリトンスクエアオフィスタワーＸ棟８階,,13,102,1040053,,,,,,,2025-01-09,1,,,,,ハイダーインターナショナル,0
2068,8010001251154,新規,0,2025-01-09,2025-01-09,株式会社Ｌａｚｏ,,株式会社,東京都,中央区,銀座４丁目１０番１４号ＡＣＮ銀座４ビルディング１０－１１Ｆ,,13,102,1040061,,,,,,,2025-01-09,1,,,,,ラゾ,0
2069,8010001251229,新規,0,2025-01-09,2025-01-09,エーデルワイスキャピタル株式会社,,株式会社,東京都,千代田区,大手町１丁目４番２号,,13,101,1000004,,,,,,,2025-01-09,1,,,,,エーデルワイスキャピタル,0
2075,8010005039389,新規,0,2025-01-09,2025-01-09,斑尾ホールディングス一般社団法人,,その他の設立登記法人,東京都,中央区,銀座１丁目６番１１号土志田ビルディング３Ｆ,,13,102,1040061,,,,,,,2025-01-09,1,,,,,マダラオホールディングス,0
2078,8010101016473,新規,0,2025-01-09,2025-01-09,巨形株式会社,,株式会社,東京都,八王子市,子安町１丁目４８番９号２０２号室,,13,201,1920904,,,,,,,2025-01-09,1,,,,,,0
2083,8010401187337,新規,0,2025-01-09,2025-01-09,インフラゲート株式会社,,株式会社,東京都,港区,愛宕２丁目５番１号愛宕グリーンヒルズＭＯＲＩタワー２７階,,13,103,1050002,,,,,,,2025-01-09,1,,,,,インフラゲート,0
2084,8010401187411,新規,0,2025-01-09,2025-01-09,株式会社Ｄｅｓｔｉｎａｄｏ,,株式会社,東京都,港区,赤坂６丁目１１番２－８０１号,,13,103,1070052,,,,,,,2025-01-09,1,,,,,デスティネイド,0
2085,8010401187444,新規,0,2025-01-09,2025-01-09,株式会社Ｂｒｉｇｈｔｅｎ　Ｃｏｎｓｕｌｔｉｎｇ,,株式会社,東京都,港区,六本木４丁目１２番８号,,13,103,1060032,,,,,,,2025-01-09,1,,,,,ブライトンコンサルティング,0
2086,8010401187469,新規,0,2025-01-09,2025-01-09,株式会社チャータードイノベーションネクサス,,株式会社,東京都,港区,虎ノ門４丁目１番２８号,,13,103,1050001,,,,,,,2025-01-09,1,,,,,チャータードイノベーションネクサス,0
2087,8010401187502,新規,0,2025-01-09,2025-01-09,ｐａｌａｄｅａｌ株式会社,,株式会社,東京都,港区,赤坂２丁目２２番２０－２０１号,,13,103,1070052,,,,,,,2025-01-09,1,,,,,パラディール,0
2090,8010403034099,新規,0,2025-01-09,2025-01-09,ＲＹＭ市貝３太陽光発電合同会社,,合同会社,東京都,港区,海岸１丁目５番２０号,,13,103,1050022,,,,,,,2025-01-09,1,,,,,リムイチカイサンタイヨウコウハツデン,0
2091,8010403034124,新規,0,2025-01-09,2025-01-09,合同会社アース,,合同会社,東京都,港区,北青山１丁目３番１号アールキューブ青山３階,,13,103,1070061,,,,,,,2025-01-09,1,,,,,アース,0
2092,8010403034140,新規,0,2025-01-09,2025-01-09,ＹＫキャピタル合同会社,,合同会社,東京都,港区,六本木６丁目１２番４号,,13,103,1060032,,,,,,,2025-01-09,1,,,,,ワイケイキャピタル,0
2093,8010403034149,新規,0,2025-01-09,2025-01-09,ＲＢ合同会社,,合同会社,東京都,港区,西新橋１丁目２０番３号虎ノ門法曹ビルレジデンス１１０１,,13,103,1050003,,,,,,,2025-01-09,1,,,,,アールビー,0
2094,8010403034157,新規,0,2025-01-09,2025-01-09,合同会社ＧＡＲＢＡ　ＥＤＧＥ,,合同会社,東京都,港区,芝５丁目３６番４号,,13,103,1080014,,,,,,,2025-01-09,1,,,,,ガルバエッジ,0
2095,8010501053439,新規,0,2025-01-09,2025-01-09,サンセットセキュリティ株式会社,,株式会社,東京都,台東区,今戸２丁目３０－１０、１Ｆ,,13,106,1110024,,,,,,,2025-01-09,1,,,,,サンセットセキュリティ,0
2096,8010501053455,新規,0,2025-01-09,2025-01-09,ＳＡＴＩＳ株式会社,,株式会社,東京都,台東区,上野２丁目７番７号,,13,106,1100005,,,,,,,2025-01-09,1,,,,,サティス,0
2099,8010601066563,新規,0,2025-01-09,2025-01-09,株式会社前山銘木建材,,株式会社,東京都,江東区,平野３丁目４番３号,,13,108,1350023,,,,,,,2025-01-09,1,,,,,マエヤマメイボクケンザイ,0
2100,8010703007523,新規,0,2025-01-09,2025-01-09,ＴＨＥ　ＬＥＭＡＲＣＯ　ＧＲＯＵＰ合同会社,,合同会社,東京都,品川区,東品川４丁目１２番８号品川シーサイドイーストタワー１５Ｆ１５１３号,,13,109,1400002,,,,,,,2025-01-09,1,,,,,ザレマルコグループ,0
2103,8010803005237,新規,0,2025-01-09,2025-01-09,合同会社ＭＡＴ,,合同会社,東京都,大田区,西蒲田７丁目４番４号小山第二ビル６Ｆ,,13,111,1440051,,,,,,,2025-01-09,1,,,,,エムエーティー,0
2105,8010901056628,新規,0,2025-01-09,2025-01-09,ＰｒｏＮｅｔｉｘ株式会社,,株式会社,東京都,世田谷区,経堂５丁目２５番９－１０４号,,13,112,1560052,,,,,,,2025-01-09,1,,,,,プロネティックス,0
2113,8011001166813,新規,0,2025-01-09,2025-01-09,ＩＥ３‐Ｇｒｏｕｐ株式会社,,株式会社,東京都,渋谷区,神南１丁目１１－４ＦＰＧリンクス神南５階,,13,113,1500041,,,,,,,2025-01-09,1,,,,,アイイースリーグループ,0
2114,8011001166821,新規,0,2025-01-09,2025-01-09,株式会社ＷｉＺｅｂｒａ,,株式会社,東京都,渋谷区,鉢山町７番２２号アトリエール代官山１０２,,13,113,1500035,,,,,,,2025-01-09,1,,,,,ウィゼブラ,0
2119,8011101110159,新規,0,2025-01-09,2025-01-09,株式会社ＴＭＮ,,株式会社,東京都,新宿区,新宿１丁目３番８号ＹＫＢ新宿御苑２階,,13,104,1600022,,,,,,,2025-01-09,1,,,,,ティーエムエヌ,0
2120,8011103015389,新規,0,2025-01-09,2025-01-09,リアコンサルティング合同会社,,合同会社,東京都,新宿区,西新宿３丁目３番１３号西新宿水間ビル６階,,13,104,1600023,,,,,,,2025-01-09,1,,,,,リアコンサルティング,0
2124,8011301030264,新規,0,2025-01-09,2025-01-09,株式会社Ｓａｋｕｔｏｎｅｓ,,株式会社,東京都,杉並区,天沼３丁目１番５号Ｋビル２階,,13,115,1670032,,,,,,,2025-01-09,1,,,,,サクトーンズ,0
2127,8011501031566,新規,0,2025-01-09,2025-01-09,ＭＤＳ株式会社,,株式会社,東京都,北区,浮間１丁目１番２１－９１３号,,13,117,1150051,,,,,,,2025-01-09,1,,,,,エムディーエス,0
2132,8012401042645,新規,0,2025-01-09,2025-01-09,株式会社ＵＭＥＳＴ　ＢＲＡＮＤＩＮＧ,,株式会社,東京都,調布市,飛田給１丁目２８番地３ヒトトキアン飛田給１Ｆ,,13,208,1820036,,,,,,,2025-01-09,1,,,,,ウメストブランディング,0
2133,8012401042653,新規,0,2025-01-09,2025-01-09,株式会社ラスク,,株式会社,東京都,多摩市,永山５丁目１１番地７,,13,224,2060025,,,,,,,2025-01-09,1,,,,,ラスク,0
2135,8012801023674,新規,0,2025-01-09,2025-01-09,株式会社フロム・ジェネレーション,,株式会社,東京都,国分寺市,西町３丁目３１番地９,,13,214,1850035,,,,,,,2025-01-09,1,,,,,,0
2148,8020001160899,新規,0,2025-01-09,2025-01-09,株式会社トリバーシティ,,株式会社,神奈川県,横浜市鶴見区,下野谷町１丁目４５番地１０,,14,101,2300047,,,,,,,2025-01-09,1,,,,,トリバーシティ,0
2149,8020001160924,新規,0,2025-01-09,2025-01-09,ウィルハンドル株式会社,,株式会社,神奈川県,横浜市鶴見区,鶴見中央１丁目２１番１１号ＮＩＣハイム鶴見渡辺第一ビル９０２号,,14,101,2300051,,,,,,,2025-01-09,1,,,,,ウィルハンドル,0
2150,8020001160932,新規,0,2025-01-09,2025-01-09,株式会社エススタイル,,株式会社,神奈川県,川崎市中原区,市ノ坪４４９番地３シティタワー武蔵小杉５００３,,14,133,2110016,,,,,,,2025-01-09,1,,,,,エススタイル,0
2158,8021001084155,新規,0,2025-01-09,2025-01-09,株式会社富士ＳＴＥＰ,,株式会社,神奈川県,座間市,入谷東２丁目１６番４１号,,14,216,2520028,,,,,,,2025-01-09,1,,,,,フジステップ,0
2159,8021001084163,新規,0,2025-01-09,2025-01-09,株式会社紬,,株式会社,神奈川県,相模原市中央区,上溝１９２０番地６オリーブ１０２,,14,152,2520243,,,,,,,2025-01-09,1,,,,,ツムギ,0
2160,8021001084196,新規,0,2025-01-09,2025-01-09,株式会社ＷＡＮＺＵ,,株式会社,神奈川県,小田原市,浜町３丁目１１番２－１０１号メゾン浜町,,14,206,2500004,,,,,,,2025-01-09,1,,,,,ワンズ,0
2164,8021003015430,新規,0,2025-01-09,2025-01-09,合同会社ＰＡＮＴＥＲＡ　ＮＥＧＲＡ,,合同会社,神奈川県,茅ヶ崎市,元町４－１０五島ビル２－１階,,14,207,2530043,,,,,,,2025-01-09,1,,,,,パンテラネグラ,0
2165,8021003015439,新規,0,2025-01-09,2025-01-09,合同会社ＪＵＵＲＩ,,合同会社,神奈川県,茅ヶ崎市,矢畑７８２番地３－２－６０３号,,14,207,2530085,,,,,,,2025-01-09,1,,,,,ユーリ,0
2168,8030001164180,新規,0,2025-01-09,2025-01-09,株式会社ｅｎｉｌ,,株式会社,埼玉県,春日部市,中央１丁目８番２１号ニュー吉田ビル２０２,,11,214,3440067,,,,,,,2025-01-09,1,,,,,エニル,0
2169,8030001164255,新規,0,2025-01-09,2025-01-09,株式会社ＳＨＩＮＳＥＩ,,株式会社,埼玉県,草加市,瀬崎１丁目４－６,,11,221,3400022,,,,,,,2025-01-09,1,,,,,シンセイ,0
2170,8030001164263,新規,0,2025-01-09,2025-01-09,ＪＡＭＢＨＡＬＡ株式会社,,株式会社,埼玉県,川越市,大字下広谷９３１番地４７,,11,201,3500804,,,,,,,2025-01-09,1,,,,,ザンバラ,0
2171,8030001164321,新規,0,2025-01-09,2025-01-09,株式会社平岡建設興業,,株式会社,埼玉県,越谷市,伊原２丁目１２番２６号,,11,222,3430831,,,,,,,2025-01-09,1,,,,,ヒラオカケンセツコウギョウ,0
2176,8030003025827,新規,0,2025-01-09,2025-01-09,合同会社むつき,,合同会社,埼玉県,戸田市,上戸田２丁目３２番１５号,,11,224,3350022,,,,,,,2025-01-09,1,,,,,ムツキ,0
2177,8030003025835,新規,0,2025-01-09,2025-01-09,スピド合同会社,,合同会社,埼玉県,さいたま市南区,大字大谷口５４３５番地３棟４０８号,,11,108,3360042,,,,,,,2025-01-09,1,,,,,スピド,0
2178,8030003025843,新規,0,2025-01-09,2025-01-09,合同会社くまおテック,,合同会社,埼玉県,吉川市,保１丁目５－１５ラ・カメーリア４０１,,11,243,3420041,,,,,,,2025-01-09,1,,,,,クマオテック,0
2179,8030005021997,新規,0,2025-01-09,2025-01-09,特定非営利活動法人守身,,その他の設立登記法人,埼玉県,飯能市,美杉台３丁目１５番地１２,,11,209,3570041,,,,,,,2025-01-09,1,,,,,マモリミ,0
2184,8040001136889,新規,0,2025-01-09,2025-01-09,とくとく株式会社,,株式会社,千葉県,印西市,滝野２丁目１３番８号,,12,231,2702329,,,,,,,2025-01-09,1,,,,,トクトク,0
2185,8040001136897,新規,0,2025-01-09,2025-01-09,株式会社Ｍａｋｅ　Ａｃｔ,,株式会社,千葉県,松戸市,五香南３丁目１９番地の３,,12,207,2702212,,,,,,,2025-01-09,1,,,,,,0
2188,8040005022615,新規,0,2025-01-09,2025-01-09,土地家屋調査士法人ＧＲＥＥＮ,,その他の設立登記法人,千葉県,市川市,市川２丁目３２番４号,,12,203,2720034,,,,,,,2025-01-09,1,,,,,グリーン,0
2190,8050001055972,新規,0,2025-01-09,2025-01-09,アイジェント株式会社,,株式会社,茨城県,つくば市,吾妻１丁目５番地７ダイワロイネットホテルつくばビル２Ｆ,,08,220,3050031,,,,,,,2025-01-09,1,,,,,,0
2191,8050001055980,新規,0,2025-01-09,2025-01-09,鴻盛貿易株式会社,,株式会社,茨城県,牛久市,岡見町字越場２３９８番６,,08,219,3001204,,,,,,,2025-01-09,1,,,,,コウセイボウエキ,0
2192,8050003008912,新規,0,2025-01-09,2025-01-09,合同会社ＳＤＭ,,合同会社,茨城県,水戸市,上水戸１丁目１１番８号,,08,201,3100041,,,,,,,2025-01-09,1,,,,,エスディエム,0
2193,8050003008920,新規,0,2025-01-09,2025-01-09,幸英商事合同会社,,合同会社,茨城県,つくば市,小野崎１４２９番地１,,08,220,3050034,,,,,,,2025-01-09,1,,,,,コウエイショウジ,0
2196,8060001037805,新規,0,2025-01-09,2025-01-09,ＳｏＲ．Ａｄｖａｎｃｅ株式会社,,株式会社,栃木県,宇都宮市,宝木町１丁目８５番地８,,09,201,3200061,,,,,,,2025-01-09,1,,,,,エスオーアールアドバンス,0
2201,8070001042531,新規,0,2025-01-09,2025-01-09,ＣＡＳＡＮＡＬ株式会社,,株式会社,群馬県,前橋市,城東町２丁目１３番４号,,10,201,3710016,,,,,,,2025-01-09,1,,,,,カサナル,0
2202,8070003005742,新規,0,2025-01-09,2025-01-09,森トラスト合同会社,,合同会社,群馬県,邑楽郡大泉町,坂田６丁目１番５号,,10,524,3700532,,,,,,,2025-01-09,1,,,,,モリトラスト,0
2208,8080403005176,新規,0,2025-01-09,2025-01-09,合同会社Ｇ＆Ｏデンタルクリニック,,合同会社,静岡県,浜松市中央区,砂山町３５０番地の１,,22,138,4300926,,,,,,,2025-01-09,1,,,,,ジーアンドオーデンタルクリニック,0
2211,8100005013277,新規,0,2025-01-09,2025-01-09,あがたグローバル社会保険労務士法人,,その他の設立登記法人,長野県,長野市,南石堂町１２９３番地３長栄南石堂ビル,,20,201,3810000,,,,,,,2025-01-09,1,,,,,アガタグローバル,0
2212,8110001038987,新規,0,2025-01-09,2025-01-09,株式会社ウォルターホワイト,,株式会社,新潟県,長岡市,喜多町３１９２番地,,15,202,9402121,,,,,,,2025-01-09,1,,,,,ウォルターホワイト,0
2220,8120001271447,新規,0,2025-01-09,2025-01-09,株式会社万喜国際,,株式会社,大阪府,大阪市西区,江之子島１丁目８－２０－４Ｂ,,27,106,5500006,,,,,,,2025-01-09,1,,,,,マンキコクサイ,0
2221,8120001271629,新規,0,2025-01-09,2025-01-09,アークコネクト株式会社,,株式会社,大阪府,大阪市北区,芝田１丁目４番１７号梅田エステートビル９Ｆ,,27,127,5300012,,,,,,,2025-01-09,1,,,,,アークコネクト,0
2222,8120001271694,新規,0,2025-01-09,2025-01-09,株式会社ｏｉｍ,,株式会社,大阪府,大阪市中央区,安土町２丁目４番１１シティタワー大阪本町２３１２,,27,128,5410052,,,,,,,2025-01-09,1,,,,,オーアイエム,0
2223,8120001271703,新規,0,2025-01-09,2025-01-09,ユニピスソリューション株式会社,,株式会社,大阪府,寝屋川市,萱島桜園町１８番１８号フジパレス萱島桜園町１０１号室,,27,215,5720828,,,,,,,2025-01-09,1,,,,,ユニビスソリューション,0
2224,8120001271728,新規,0,2025-01-09,2025-01-09,エステラボラトリーズ株式会社,,株式会社,大阪府,大阪市北区,梅田１丁目２番２号大阪駅前第２ビル１２－１２,,27,127,5300001,,,,,,,2025-01-09,1,,,,,エステラボラトリーズ,0
2225,8120001271744,新規,0,2025-01-09,2025-01-09,株式会社ＬＩＧＨＴ　ＦＩＴ,,株式会社,大阪府,大阪市福島区,海老江２丁目９番１０号ＬＩＧＨＴＦＩＴ,,27,103,5530001,,,,,,,2025-01-09,1,,,,,ライトフィット,0
2226,8120003028283,新規,0,2025-01-09,2025-01-09,合同会社ＡＴＳ,,合同会社,大阪府,大阪市都島区,御幸町２丁目４番９号,,27,102,5340012,,,,,,,2025-01-09,1,,,,,エイティエス,0
2227,8120003028300,新規,0,2025-01-09,2025-01-09,Ｓｈｉｎｙ合同会社,,合同会社,大阪府,大阪市平野区,平野元町９番３０－１８０１号,,27,126,5470047,,,,,,,2025-01-09,1,,,,,シャイニー,0
2229,8120101070864,新規,0,2025-01-09,2025-01-09,株式会社Ｍｏｎｄｅ　Ｃｏｌｏｒｅ,,株式会社,大阪府,堺市堺区,中瓦町２－３－２９Ｋウエノビル４Ｆ,,27,141,5900000,,,,,,,2025-01-09,1,,,,,モンドコロレ,0
2232,8130001078718,新規,0,2025-01-09,2025-01-09,株式会社ＦＬＹｓｔｕｄｉｏｓ,,株式会社,京都府,京都市中京区,新京極通三条下る桜之町４０７－１カレッジタウン詩の小路ビル４Ｆ,,26,104,6048035,,,,,,,2025-01-09,1,,,,,フライスタジオズ,0
2239,8140001136920,新規,0,2025-01-09,2025-01-09,株式会社播星工業,,株式会社,兵庫県,姫路市,広畑区西蒲田１８４番地１１,,28,201,6711107,,,,,,,2025-01-09,1,,,,,バンセイコウギョウ,0
2243,8140003021484,新規,0,2025-01-09,2025-01-09,合同会社Ｄａｎｄｅｌｉｏｎ,,合同会社,兵庫県,淡路市,富島１２７８,,28,226,6561711,,,,,,,2025-01-09,1,,,,,ダンデライオン,0
2245,8150005009659,新規,0,2025-01-09,2025-01-09,一般社団法人小明水利組合資産管理機構,,その他の設立登記法人,奈良県,生駒市,小明町８０４番地１（小明町自治会館内）,,29,209,6300201,,,,,,,2025-01-09,1,,,,,コウミョウスイリクミアイシサンカンリキコウ,0
2246,8160005011366,新規,0,2025-01-09,2025-01-09,一般社団法人日本平和街道,,その他の設立登記法人,滋賀県,大津市,下阪本１丁目２９番１８号,,25,201,5200105,,,,,,,2025-01-09,1,,,,,ニホンヘイワカイドウ,0
2248,8170003002151,新規,0,2025-01-09,2025-01-09,合同会社池上商事,,合同会社,和歌山県,和歌山市,新在家１７３番地２,,30,201,6408345,,,,,,,2025-01-09,1,,,,,イケガミショウジ,0
2255,8180001164703,新規,0,2025-01-09,2025-01-09,ＴＯＣＩＮＤＥＲＬＬＡ株式会社,,株式会社,愛知県,名古屋市港区,甚兵衛通２丁目１番地の２,,23,111,4550822,,,,,,,2025-01-09,1,,,,,トゥーシンデレラ,0
2256,8180001164810,新規,0,2025-01-09,2025-01-09,株式会社紺屋田,,株式会社,愛知県,名古屋市千種区,仲田２丁目８番１７号,,23,101,4640074,,,,,,,2025-01-09,1,,,,,コンヤダ,0
2257,8180001164843,新規,0,2025-01-09,2025-01-09,株式会社Ｙｓｔ　Ｎｉｎｅ,,株式会社,愛知県,名古屋市中区,新栄１丁目１３－１６－２・８０１,,23,106,4600007,,,,,,,2025-01-09,1,,,,,ワイエスティーナイン,0
2258,8180001164901,新規,0,2025-01-09,2025-01-09,株式会社あおい設備,,株式会社,愛知県,春日井市,牛山町１８４４番地９,,23,206,4860901,,,,,,,2025-01-09,1,,,,,アオイセツビ,0
2259,8180003027800,新規,0,2025-01-09,2025-01-09,合同会社ｔｒｅｓ　ｓｅｐｔｅｃｈ,,合同会社,愛知県,常滑市,かじま台２丁目１３０番地,,23,216,4790873,,,,,,,2025-01-09,1,,,,,トレスセプテック,0
2263,8190001031927,新規,0,2025-01-09,2025-01-09,堀田営農株式会社,,株式会社,三重県,桑名市,大字下深谷部５３２１番地,,24,205,5110808,,,,,,,2025-01-09,1,,,,,ホッタエイノウ,0
2270,8220001026403,新規,0,2025-01-09,2025-01-09,クロネコジャック株式会社,,株式会社,石川県,金沢市,鞍月３丁目２７番地ＨＲビル１Ｃ,,17,201,9208203,,,,,,,2025-01-09,1,,,,,クロネコジャック,0
2274,8240001064368,新規,0,2025-01-09,2025-01-09,ｄａｉｍａ‐ｊｉｎ株式会社,,株式会社,広島県,広島市安佐南区,八木８丁目１８番４号迫本ビル１Ｆ,,34,105,7310101,,,,,,,2025-01-09,1,,,,,ダイマジン,0
2280,8250003003620,新規,0,2025-01-09,2025-01-09,合同会社クラフトマンシップ,,合同会社,山口県,下関市,上新地町３丁目３番３５号３０５,,35,201,7500061,,,,,,,2025-01-09,1,,,,,クラフトマンシップ,0
2283,8260001039780,新規,0,2025-01-09,2025-01-09,株式会社カワカツ建工,,株式会社,岡山県,倉敷市,西坂１７２１番地５,,33,202,7100004,,,,,,,2025-01-09,1,,,,,カワカツケンコウ,0
2288,8290001108418,新規,0,2025-01-09,2025-01-09,株式会社Ｒｅｂｏｒｎ　Ａｇｅｎｃｙ,,株式会社,福岡県,福岡市東区,香椎照葉３丁目４番１０号,,40,131,8130017,,,,,,,2025-01-09,1,,,,,リボーンエージェンシー,0
2289,8290003016255,新規,0,2025-01-09,2025-01-09,合同会社てらす,,合同会社,福岡県,久留米市,田主丸町益生田３６７番地１０,,40,203,8391213,,,,,,,2025-01-09,1,,,,,テラス,0
2290,8290003016263,新規,0,2025-01-09,2025-01-09,合同会社ｔｏｉ,,合同会社,福岡県,糟屋郡須惠町,大字上須惠７２８番地６,,40,344,8112114,,,,,,,2025-01-09,1,,,,,トイ,0
2292,8290801031174,新規,0,2025-01-09,2025-01-09,株式会社Ｔ‐Ｒｅｘ,,株式会社,福岡県,北九州市小倉南区,中吉田６丁目１８番５号,,40,107,8000204,,,,,,,2025-01-09,1,,,,,ティーレックス,0
2293,8290803004946,新規,0,2025-01-09,2025-01-09,合同会社万生福,,合同会社,福岡県,中間市,大字上底井野７６３番地１１,,40,215,8090003,,,,,,,2025-01-09,1,,,,,マンセイフク,0
2300,8350001019360,新規,0,2025-01-09,2025-01-09,株式会社幸進,,株式会社,宮崎県,宮崎市,大字内海１０４４番地２,,45,201,8892301,,,,,,,2025-01-09,1,,,,,コウシン,0
2303,8360001034607,新規,0,2025-01-09,2025-01-09,株式会社Ｓａｌｅｓ　Ｒｅｐ,,株式会社,沖縄県,名護市,宮里１丁目２８－８南西ビル２階,,47,209,9050011,,,,,,,2025-01-09,1,,,,,セールスレップ,0
2304,8360001034623,新規,0,2025-01-09,2025-01-09,ＡＮＡスカイビルサービス沖縄株式会社,,株式会社,沖縄県,那覇市,字鏡水４００番地那覇空港貨物ターミナルＢ棟３階,,47,201,9010142,,,,,,,2025-01-09,1,,,,,エーエヌエースカイビルサービスオキナワ,0
2306,8370005010891,新規,0,2025-01-09,2025-01-09,一般社団法人虹の端,,その他の設立登記法人,宮城県,石巻市,鮎川浜黒崎６３番地,,04,202,9862523,,,,,,,2025-01-09,1,,,,,ニジノハシ,0
2308,8380001035025,新規,0,2025-01-09,2025-01-09,株式会社大原林業,,株式会社,福島県,石川郡古殿町,大字松川字大原４４番地,,07,505,9638304,,,,,,,2025-01-09,1,,,,,ダイバラリンギョウ,0
2317,8430001093439,新規,0,2025-01-09,2025-01-09,株式会社ｈａｋｕｍｅｉ,,株式会社,北海道,札幌市北区,北四十条西５丁目５－３０,,01,102,0010040,,,,,,,2025-01-09,1,,,,,ハクメイ,0
2322,8430003017148,新規,0,2025-01-09,2025-01-09,アグリノムラフードサービス合同会社,,合同会社,北海道,虻田郡真狩村,字光１４５番地２,,01,396,0481611,,,,,,,2025-01-09,1,,,,,アグリノムラフードサービス,0
2323,8430003017156,新規,0,2025-01-09,2025-01-09,合同会社マルタケ,,合同会社,北海道,札幌市中央区,南五条西６丁目４番地多田ビル１Ｆ,,01,101,0640805,,,,,,,2025-01-09,1,,,,,マルタケ,0
2324,8430003017164,新規,0,2025-01-09,2025-01-09,ＬｉｔＣｒｅａｔｉｏｎ合同会社,,合同会社,北海道,札幌市西区,発寒十一条３丁目４の２３玉井ビル,,01,107,0630831,,,,,,,2025-01-09,1,,,,,リットクリエーション,0
2326,8440003001654,新規,0,2025-01-09,2025-01-09,ＫＭＲ合同会社,,合同会社,北海道,亀田郡七飯町,字豊田３１２―３,,01,337,0411132,,,,,,,2025-01-09,1,,,,,ケーエムアール,0
2328,8462503000225,新規,0,2025-01-09,2025-01-09,合同会社Ｓｕｎ　Ｌｉｆｅ,,合同会社,北海道,野付郡別海町,中春別南町２２番地の１（株）別海МＳ１０３号室,,01,691,0860652,,,,,,,2025-01-09,1,,,,,サンライフ,0
2329,8470001020521,新規,0,2025-01-09,2025-01-09,株式会社グイ,,株式会社,香川県,高松市,鍛冶屋町７番地１２,,37,201,7600028,,,,,,,2025-01-09,1,,,,,グイ,0
2335,8490001010941,新規,0,2025-01-09,2025-01-09,高知工具株式会社,,株式会社,高知県,高知市,高須新町１丁目１４番１４号,,39,201,7818122,,,,,,,2025-01-09,1,,,,,コウチコウグ,0
2337,8500001026077,新規,0,2025-01-09,2025-01-09,株式会社マール,,株式会社,愛媛県,今治市,唐子台東２丁目２番地１２,,38,202,7991531,,,,,,,2025-01-09,1,,,,,マール,0
2338,8500003003405,新規,0,2025-01-09,2025-01-09,合同会社ＩＴＯ医美,,合同会社,愛媛県,新居浜市,土橋１丁目５番７号,,38,205,7920043,,,,,,,2025-01-09,1,,,,,アイティーオーイビ,0
2342,9010001251013,新規,0,2025-01-09,2025-01-09,株式会社ＫＯＨＬＥＮ　ＪＡＰＡＮ,,株式会社,東京都,中央区,銀座１丁目１２番４号Ｎ＆ＥＢＬＤ．７階,,13,102,1040061,,,,,,,2025-01-09,1,,,,,コーレンジャパン,0
2343,9010001251070,新規,0,2025-01-09,2025-01-09,パラレルライフ株式会社,,株式会社,東京都,中央区,銀座７丁目１３番２０号銀座ＴＨビル９階,,13,102,1040061,,,,,,,2025-01-09,1,,,,,パラレルライフ,0
2344,9010001251137,新規,0,2025-01-09,2025-01-09,株式会社ＡＩ　Ｍａｎａｇｅｍｅｎｔ　Ｌａｂ,,株式会社,東京都,中央区,日本橋室町１丁目１１番１２号日本橋水野ビル７階,,13,102,1030022,,,,,,,2025-01-09,1,,,,,エイアイマネジメントラボ,0
2345,9010001251145,新規,0,2025-01-09,2025-01-09,株式会社芙縁サービス,,株式会社,東京都,中央区,銀座１丁目１２番４号Ｎ＆ＥＢＬＤ．６Ｆ,,13,102,1040061,,,,,,,2025-01-09,1,,,,,フエンサービス,0
2346,9010001251153,新規,0,2025-01-09,2025-01-09,ハウデンジャパン株式会社,,株式会社,東京都,千代田区,丸の内１丁目４番１号丸の内永楽ビルディング,,13,101,1000005,,,,,,,2025-01-09,1,,,,,ハウデンジャパン,0
2347,9010001251186,新規,0,2025-01-09,2025-01-09,エクスクラム株式会社,,株式会社,東京都,中央区,銀座７丁目１３番２０号銀座ＴＨビル９階,,13,102,1040061,,,,,,,2025-01-09,1,,,,,エクスクラム,0
2348,9010001251211,新規,0,2025-01-09,2025-01-09,株式会社スマートラウンド戦略事業準備会社,,株式会社,東京都,千代田区,丸の内１丁目６番５号,,13,101,1000005,,,,,,,2025-01-09,1,,,,,スマートラウンドセンリャクジギョウジュンビガイシャ,0
2349,9010001251236,新規,0,2025-01-09,2025-01-09,株式会社ＳＯＬＩＺＥ分割準備会社３,,株式会社,東京都,千代田区,三番町６番３号,,13,101,1020075,,,,,,,2025-01-09,1,,,,,ソライズブンカツジュンビガイシャサン,0
2351,9010003045941,新規,0,2025-01-09,2025-01-09,スーパー・リッチ・ホールディングス合同会社,,合同会社,東京都,千代田区,外神田３丁目２番１１号巴ビル６Ｆ,,13,101,1010021,,,,,,,2025-01-09,1,,,,,スーパーリッチホールディングス,0
2352,9010003045958,新規,0,2025-01-09,2025-01-09,ＡＨＡＨＡ合同会社,,合同会社,東京都,中央区,銀座４丁目１３番８号岩藤ビル５階,,13,102,1040061,,,,,,,2025-01-09,1,,,,,アハハ,0
2353,9010003045966,新規,0,2025-01-09,2025-01-09,ｌｉｌｉｓｈｉｂａ合同会社,,合同会社,東京都,千代田区,九段南３丁目９番４号エルハイム麹町６０２号,,13,101,1020074,,,,,,,2025-01-09,1,,,,,リリシバ,0
2354,9010003045982,新規,0,2025-01-09,2025-01-09,合同会社晴マチエステート,,合同会社,東京都,千代田区,丸の内１丁目８番３号,,13,101,1000005,,,,,,,2025-01-09,1,,,,,ハレマチエステート,0
2359,9010401187352,新規,0,2025-01-09,2025-01-09,株式会社パッショナイト,,株式会社,東京都,港区,六本木３丁目１番３０号Ａ・Ｂビル６階,,13,103,1060032,,,,,,,2025-01-09,1,,,,,パッショナイト,0
2360,9010401187393,新規,0,2025-01-09,2025-01-09,株式会社Ｉ　ＦＯＵＮＤ　ＩＴ,,株式会社,東京都,港区,南青山３丁目１番３６号,,13,103,1070062,,,,,,,2025-01-09,1,,,,,アイファウンドイット,0
2361,9010401187410,新規,0,2025-01-09,2025-01-09,株式会社Ｒａｌｌｙ,,株式会社,東京都,港区,元赤坂１丁目２－７赤坂Ｋタワー４Ｆ,,13,103,1070051,,,,,,,2025-01-09,1,,,,,ラリー,0
2362,9010401187443,新規,0,2025-01-09,2025-01-09,株式会社Ｂｒｉｇｈｔｅｎ　Ｆａｓｈｉｏｎ,,株式会社,東京都,港区,南青山５丁目７番１７号,,13,103,1070062,,,,,,,2025-01-09,1,,,,,ブライトンファッション,0
2363,9010401187476,新規,0,2025-01-09,2025-01-09,ＡＩＴＥＣジャパン株式会社,,株式会社,東京都,港区,新橋５丁目２３番１０号片山ビル８階,,13,103,1050004,,,,,,,2025-01-09,1,,,,,アイテックジャパン,0
2367,9010403034016,新規,0,2025-01-09,2025-01-09,ＧｏｒｉｎｓｈｏＨｏｌｄｉｎｇｓ合同会社,,合同会社,東京都,港区,虎ノ門５丁目１３番１号虎ノ門４０ＭＴビル７階,,13,103,1050001,,,,,,,2025-01-09,1,,,,,ゴリンショホールディングス,0
2368,9010403034131,新規,0,2025-01-09,2025-01-09,合同会社臣,,合同会社,東京都,港区,新橋３丁目８番８号ル・グラシエルビル７５－２階２号室,,13,103,1050004,,,,,,,2025-01-09,1,,,,,オミ,0
2370,9010501053413,新規,0,2025-01-09,2025-01-09,ＮＢＣホールディングス株式会社,,株式会社,東京都,台東区,上野３丁目２８番７号上野三丁目ビル４階,,13,106,1100005,,,,,,,2025-01-09,1,,,,,エヌビーシーホールディングス,0
2371,9010501053454,新規,0,2025-01-09,2025-01-09,株式会社羊貴妃,,株式会社,東京都,台東区,上野４丁目１番３号,,13,106,1100005,,,,,,,2025-01-09,1,,,,,ヨウキヒ,0
2372,9010503007697,新規,0,2025-01-09,2025-01-09,合同会社コリー,,合同会社,東京都,台東区,千束４丁目３１番１号,,13,106,1110031,,,,,,,2025-01-09,1,,,,,コリー,0
2376,9010701047066,新規,0,2025-01-09,2025-01-09,三創株式会社,,株式会社,東京都,品川区,荏原２丁目１７番１４号富士ビル,,13,109,1420063,,,,,,,2025-01-09,1,,,,,サンソウ,0
2378,9010901056619,新規,0,2025-01-09,2025-01-09,Ｆｉｖｅ＆Ｏｎｅ株式会社,,株式会社,東京都,世田谷区,経堂４丁目１６番１３号,,13,112,1560052,,,,,,,2025-01-09,1,,,,,ファイブアンドワン,0
2379,9010903009616,新規,0,2025-01-09,2025-01-09,Ｇｒａｎｄｅ　Ｐｅａｋ合同会社,,合同会社,東京都,世田谷区,太子堂２丁目９番１０号太子堂ハイツＤ,,13,112,1540004,,,,,,,2025-01-09,1,,,,,グランデピーク,0
2380,9010903009624,新規,0,2025-01-09,2025-01-09,合同会社福助,,合同会社,東京都,世田谷区,桜丘２丁目２９番１０号宮島ビル２Ｆ,,13,112,1560054,,,,,,,2025-01-09,1,,,,,フクスケ,0
2386,9011001166969,新規,0,2025-01-09,2025-01-09,株式会社ｓｔｕｄｉｏ　ｖａｎｄｒｅｒ,,株式会社,東京都,渋谷区,上原１丁目３３番１６号ラメール代々木上原４０７号室,,13,113,1510064,,,,,,,2025-01-09,1,,,,,スタジオヴァンドレル,0
2387,9011001167018,新規,0,2025-01-09,2025-01-09,株式会社ヴィジョンズ,,株式会社,東京都,渋谷区,猿楽町１２番３５号シャトレブランシェ代官山１０２,,13,113,1500033,,,,,,,2025-01-09,1,,,,,ヴィジョンズ,0
2388,9011001167075,新規,0,2025-01-09,2025-01-09,株式会社ＳＡＲＵＴＡ９,,株式会社,東京都,渋谷区,神泉町２２番９号２Ｆ,,13,113,1500045,,,,,,,2025-01-09,1,,,,,サルタナイン,0
2389,9011003020703,新規,0,2025-01-09,2025-01-09,ＳＫＧ合同会社,,合同会社,東京都,目黒区,碑文谷２丁目８番１７－１０６号グランシティ碑文谷,,13,110,1520003,,,,,,,2025-01-09,1,,,,,エスケージー,0
2390,9011003020711,新規,0,2025-01-09,2025-01-09,パーコール合同会社,,合同会社,東京都,目黒区,自由が丘２丁目１６番１２号ＲＪ３,,13,110,1520035,,,,,,,2025-01-09,1,,,,,パーコール,0
2394,9011101110224,新規,0,2025-01-09,2025-01-09,株式会社ＫＦサービス,,株式会社,東京都,新宿区,西新宿３丁目７番２５号山内ビル２階,,13,104,1600023,,,,,,,2025-01-09,1,,,,,ケイエフサービス,0
2397,9011303005379,新規,0,2025-01-09,2025-01-09,合同会社レアリダ,,合同会社,東京都,杉並区,本天沼１丁目８番５号,,13,115,1670031,,,,,,,2025-01-09,1,,,,,レアリダ,0
2399,9011401026715,新規,0,2025-01-09,2025-01-09,株式会社アイシス,,株式会社,東京都,板橋区,赤塚７丁目１３－２９－３０５,,13,119,1750092,,,,,,,2025-01-09,1,,,,,アイシス,0
2402,9011503006375,新規,0,2025-01-09,2025-01-09,合同会社ホワイトカンパニー,,合同会社,東京都,荒川区,町屋１丁目５番３号ライオンズ町屋レリアシティ２０３,,13,118,1160001,,,,,,,2025-01-09,1,,,,,ホワイトカンパニー,0
2410,9012303002093,新規,0,2025-01-09,2025-01-09,ＪＳＯ合同会社,,合同会社,東京都,町田市,南大谷１丁目３番２２号,,13,209,1940031,,,,,,,2025-01-09,1,,,,,ジェイエスオー,0
2411,9012401042636,新規,0,2025-01-09,2025-01-09,株式会社イセキリーガルコンサルティング,,株式会社,東京都,武蔵野市,吉祥寺本町１丁目１３番２号シラカバビルＢＩＺｃｏｍｆｏｒｔ吉祥寺５Ｆ－９号室,,13,203,1800004,,,,,,,2025-01-09,1,,,,,イセキリーガルコンサルティング,0
2412,9012401042652,新規,0,2025-01-09,2025-01-09,株式会社ポリゴンテクノロジーズ,,株式会社,東京都,三鷹市,下連雀５丁目１－１，６５７号室,,13,204,1810013,,,,,,,2025-01-09,1,,,,,ポリゴンテクノロジーズ,0
2418,9012701018633,新規,0,2025-01-09,2025-01-09,株式会社タップタップ,,株式会社,東京都,小平市,上水新町３丁目１１番１９－３号,,13,211,1870023,,,,,,,2025-01-09,1,,,,,タップタップ,0
2419,9012701018641,新規,0,2025-01-09,2025-01-09,株式会社三井設備,,株式会社,東京都,小平市,栄町１丁目１番５－２０３号,,13,211,1870034,,,,,,,2025-01-09,1,,,,,ミツイセツビ,0
2420,9012703003170,新規,0,2025-01-09,2025-01-09,合同会社一デリ,,合同会社,東京都,西東京市,東町２丁目１４番１３号東町二丁目ビル１階,,13,229,2020012,,,,,,,2025-01-09,1,,,,,ハジメデリ,0
2421,9013101009603,新規,0,2025-01-09,2025-01-09,福島工業株式会社,,株式会社,東京都,羽村市,栄町２丁目２０番地２９,,13,227,2050002,,,,,,,2025-01-09,1,,,,,フクシマコウギョウ,0
2432,9020001160741,新規,0,2025-01-09,2025-01-09,株式会社Ｃｕｂｅ　Ｓｕｇａｒ　Ｄｅｓｉｇｎ　Ｗｏｒｋｓ,,株式会社,神奈川県,横浜市中区,桜木町１丁目１０１番地１クロスゲート７階,,14,104,2310062,,,,,,,2025-01-09,1,,,,,キューブシュガーデザインワークス,0
2433,9020001160774,新規,0,2025-01-09,2025-01-09,Ｆｒｅｅｌｅｔｉｃｓ　Ｇｏａｌｓ株式会社,,株式会社,神奈川県,横浜市中区,太田町５丁目６９番地ＳＳＫＮＯＴ１０２,,14,104,2310011,,,,,,,2025-01-09,1,,,,,フリーレティックスゴールズ,0
2434,9020001160808,新規,0,2025-01-09,2025-01-09,アイタックホールディングス株式会社,,株式会社,神奈川県,川崎市多摩区,堰３丁目４番２７－３０３号,,14,135,2140022,,,,,,,2025-01-09,1,,,,,アイタックホールディングス,0
2435,9020001160898,新規,0,2025-01-09,2025-01-09,株式会社横浜ホテル,,株式会社,神奈川県,横浜市西区,北幸２丁目３番３号,,14,103,2200004,,,,,,,2025-01-09,1,,,,,ヨコハマホテル,0
2436,9020001160907,新規,0,2025-01-09,2025-01-09,株式会社ＵＰＬＡＳＴ,,株式会社,神奈川県,横浜市南区,井土ケ谷下町１６番地５－１０２,,14,105,2320053,,,,,,,2025-01-09,1,,,,,アップラスト,0
2437,9020001160923,新規,0,2025-01-09,2025-01-09,ライトハウス・ワークス株式会社,,株式会社,神奈川県,川崎市中原区,下小田中３丁目５番１８号,,14,133,2110041,,,,,,,2025-01-09,1,,,,,ライトハウスワークス,0
2440,9020003027583,新規,0,2025-01-09,2025-01-09,ＳＮＧ合同会社,,合同会社,神奈川県,横浜市西区,浅間町１丁目４番地３ウィザードビル４０２,,14,103,2200072,,,,,,,2025-01-09,1,,,,,エスエヌジー,0
2441,9020003027609,新規,0,2025-01-09,2025-01-09,合同会社ＡＳＵＫＡ,,合同会社,神奈川県,横浜市神奈川区,三ツ沢下町９番６号,,14,102,2210852,,,,,,,2025-01-09,1,,,,,アスカ,0
2443,9021001084187,新規,0,2025-01-09,2025-01-09,株式会社Ｔｈｉｎｋ＆Ｃａｍｐ,,株式会社,神奈川県,鎌倉市,笛田３丁目４０番２８号,,14,204,2480027,,,,,,,2025-01-09,1,,,,,シンクアンドキャンプ,0
2444,9021001084204,新規,0,2025-01-09,2025-01-09,株式会社凡電天電,,株式会社,神奈川県,茅ヶ崎市,中島８６９番地４７,,14,207,2530073,,,,,,,2025-01-09,1,,,,,ボンデンアマデン,0
2446,9021003015438,新規,0,2025-01-09,2025-01-09,Ｖａｌｕｅ合同会社,,合同会社,神奈川県,綾瀬市,蓼川１丁目５－２９アムール桜ヶ丘１０５,,14,218,2521105,,,,,,,2025-01-09,1,,,,,バリュー,0
2453,9030001164254,新規,0,2025-01-09,2025-01-09,株式会社Ｌｅａｌｅａ,,株式会社,埼玉県,戸田市,大字新曽１７７番地の２（リブリ・モンテーニュ１０７号室）,,11,224,3350021,,,,,,,2025-01-09,1,,,,,レアレア,0
2454,9030001164262,新規,0,2025-01-09,2025-01-09,株式会社メーイン,,株式会社,埼玉県,朝霞市,根岸台４丁目１３－１４,,11,227,3510005,,,,,,,2025-01-09,1,,,,,メーイン,0
2455,9030001164295,新規,0,2025-01-09,2025-01-09,株式会社勝成組,,株式会社,埼玉県,川口市,並木３丁目３２番１－１０２号エクセルコート第２並木,,11,203,3320034,,,,,,,2025-01-09,1,,,,,カツナリグミ,0
2456,9030001164312,新規,0,2025-01-09,2025-01-09,株式会社ケーアイスペース,,株式会社,埼玉県,戸田市,上戸田５丁目６－２－１０２,,11,224,3350022,,,,,,,2025-01-09,1,,,,,ケーアイスペース,0
2457,9030001164329,新規,0,2025-01-09,2025-01-09,Ｙｇｇｄｒａｓｉｌｌ株式会社,,株式会社,埼玉県,さいたま市大宮区,大門町３丁目１９０大宮豊田ビル３０２,,11,103,3300846,,,,,,,2025-01-09,1,,,,,イグドラシル,0
2462,9030003025834,新規,0,2025-01-09,2025-01-09,合同会社Ｍ＆Ｓ　Ｃｏｍｐａｎｙ,,合同会社,埼玉県,所沢市,松葉町２４－２パストラル松葉１０２号,,11,208,3590044,,,,,,,2025-01-09,1,,,,,エムアンドエスカンパニー,0
2463,9030003025842,新規,0,2025-01-09,2025-01-09,合同会社リフトアップ,,合同会社,埼玉県,草加市,清門２丁目２８番地７,,11,221,3400055,,,,,,,2025-01-09,1,,,,,リフトアップ,0
2466,9040001136896,新規,0,2025-01-09,2025-01-09,株式会社茂門,,株式会社,千葉県,鎌ケ谷市,東初富３丁目１－５,,12,224,2730122,,,,,,,2025-01-09,1,,,,,シゲモン,0
2467,9040001136905,新規,0,2025-01-09,2025-01-09,明神工業株式会社,,株式会社,千葉県,松戸市,樋野口５２５－７０１号,,12,207,2710067,,,,,,,2025-01-09,1,,,,,ミョウジンコウギョウ,0
2473,9040003026559,新規,0,2025-01-09,2025-01-09,ＡＲＴＬｕｎｅ合同会社,,合同会社,千葉県,鎌ケ谷市,南初富５丁目１番５号第二コーポ大伯１０２,,12,224,2730123,,,,,,,2025-01-09,1,,,,,アルトリューネ,0
2476,9050001055864,新規,0,2025-01-09,2025-01-09,浅野工業株式会社,,株式会社,茨城県,守谷市,みずき野７丁目９番地３,,08,224,3020121,,,,,,,2025-01-09,1,,,,,アサノコウギョウ,0
2477,9050001055996,新規,0,2025-01-09,2025-01-09,株式会社インテリアセキネ,,株式会社,茨城県,ひたちなか市,高場５丁目１７番地１３,,08,221,3120062,,,,,,,2025-01-09,1,,,,,インテリアセキネ,0
2483,9070001042514,新規,0,2025-01-09,2025-01-09,株式会社みつ和,,株式会社,群馬県,前橋市,江木町１３９番地６,,10,201,3710002,,,,,,,2025-01-09,1,,,,,ミツワ,0
2485,9080001026706,新規,0,2025-01-09,2025-01-09,Ｈｏｓｏｋａｗａ　Ｗａｔｅｒｗｏｒｋｓ株式会社,,株式会社,静岡県,焼津市,五ケ堀之内５５７番地の３,,22,212,4250077,,,,,,,2025-01-09,1,,,,,ホソカワウォーターワークス,0
2490,9090001019072,新規,0,2025-01-09,2025-01-09,株式会社くらしあ,,株式会社,山梨県,山梨市,上神内川１６７０番地,,19,205,4050018,,,,,,,2025-01-09,1,,,,,クラシア,0
2495,9100001038178,新規,0,2025-01-09,2025-01-09,株式会社箱根仙石原ホテルマネジメント,,株式会社,長野県,北佐久郡軽井沢町,大字長倉２１４８番地,,20,321,3890111,,,,,,,2025-01-09,1,,,,,ハコネセンゴクハラホテルマネジメント,0
2499,9110003005621,新規,0,2025-01-09,2025-01-09,合同会社やま,,合同会社,新潟県,岩船郡粟島浦村,１４７番地１シェアハウス２０４号室,,15,586,9580061,,,,,,,2025-01-09,1,,,,,ヤマ,0
2511,9120001271479,新規,0,2025-01-09,2025-01-09,経緯株式会社,,株式会社,大阪府,大阪市住吉区,遠里小野６丁目１７－１８プロスピリティー３０３号室,,27,120,5580032,,,,,,,2025-01-09,1,,,,,ケイイ,0
2512,9120001271702,新規,0,2025-01-09,2025-01-09,株式会社Ｒｅａｌ　Ｒｅａｃｈ,,株式会社,大阪府,大阪市北区,角田町８番１号大阪梅田ツインタワーズ・ノース１９Ｆ,,27,127,5300017,,,,,,,2025-01-09,1,,,,,リアルリーチ,0
2514,9120003028324,新規,0,2025-01-09,2025-01-09,晟＿合同会社,00137573,合同会社,大阪府,大阪市住之江区,安立３丁目３番２０号川瀬ビーンズハイツ３０３号室,,27,125,5590003,,,,,,,2025-01-09,1,,,,,セイキン,0
2515,9120103006221,新規,0,2025-01-09,2025-01-09,Ｄｉｖｅｒｓｉｔｙ合同会社,,合同会社,大阪府,河内長野市,野作町３番５０号カレーハウスＣｏＣｏ壱番屋内,,27,216,5860023,,,,,,,2025-01-09,1,,,,,ダイバーシティ,0
2519,9130001078667,新規,0,2025-01-09,2025-01-09,株式会社よるべ,,株式会社,京都府,京都市上京区,百万遍町８６－１,,26,102,6028276,,,,,,,2025-01-09,1,,,,,ヨルベ,0
2520,9130001078683,新規,0,2025-01-09,2025-01-09,株式会社ＭＩＡＶＩＥ,,株式会社,京都府,京都市中京区,裏寺町５９８番地,,26,104,6048041,,,,,,,2025-01-09,1,,,,,ミアヴィー,0
2521,9130001078717,新規,0,2025-01-09,2025-01-09,株式会社スリーサム,,株式会社,京都府,京都市伏見区,横大路富ノ森町１９番地,,26,109,6128257,,,,,,,2025-01-09,1,,,,,スリーサム,0
2522,9130001078741,新規,0,2025-01-09,2025-01-09,株式会社京都さしもぐさ,,株式会社,京都府,京都市北区,紫野上野町８５番地の１,,26,101,6038242,,,,,,,2025-01-09,1,,,,,キョウトサシモグサ,0
2523,9130001078766,新規,0,2025-01-09,2025-01-09,株式会社Ｎｅｘｕｓ　ｏｎｅ,,株式会社,京都府,京都市下京区,中堂寺坊城町２番地ＢＥＡＵＴＹＢＬＤＧＴＡＮＢＡＧＵＣＨＩ５Ｆ,,26,106,6008811,,,,,,,2025-01-09,1,,,,,ネクサスワン,0
2524,9130003010116,新規,0,2025-01-09,2025-01-09,合同会社ハピネスセブン,,合同会社,京都府,京都市左京区,修学院千万田町５番地の５８,,26,103,6068024,,,,,,,2025-01-09,1,,,,,ハピネスセブン,0
2529,9140001136960,新規,0,2025-01-09,2025-01-09,株式会社ラクダ,,株式会社,兵庫県,西宮市,今在家町２番１２号,,28,204,6620972,,,,,,,2025-01-09,1,,,,,ラクダ,0
2530,9140001136969,新規,0,2025-01-09,2025-01-09,ベイシックス株式会社,,株式会社,兵庫県,神戸市灘区,城内通２丁目１番２６号,,28,102,6570836,,,,,,,2025-01-09,1,,,,,ベイシックス,0
2531,9140001136977,新規,0,2025-01-09,2025-01-09,リアンビルサービス株式会社,,株式会社,兵庫県,西宮市,泉町５番１３号,,28,204,6620932,,,,,,,2025-01-09,1,,,,,リアンビルサービス,0
2532,9140001136985,新規,0,2025-01-09,2025-01-09,癒方鍼灸株式会社,,株式会社,兵庫県,神戸市灘区,王子町１丁目３番６号,,28,102,6570838,,,,,,,2025-01-09,1,,,,,ユファンシンキュウ,0
2533,9140001137034,新規,0,2025-01-09,2025-01-09,株式会社ＯＵＲ,,株式会社,兵庫県,神戸市北区,八多町下小名田６４８番地の３,,28,109,6511352,,,,,,,2025-01-09,1,,,,,アワー,0
2535,9140003021517,新規,0,2025-01-09,2025-01-09,合同会社エーワン,,合同会社,兵庫県,神戸市北区,鈴蘭台南町４丁目７－７－３１５号,,28,109,6511113,,,,,,,2025-01-09,1,,,,,エーワン,0
2536,9140003021525,新規,0,2025-01-09,2025-01-09,合同会社ＬＳＣパートナーズ,,合同会社,兵庫県,西宮市,神園町３－１３２－６０１,,28,204,6620027,,,,,,,2025-01-09,1,,,,,エルエスシーパートナーズ,0
2539,9150001027795,新規,0,2025-01-09,2025-01-09,株式会社田,,株式会社,奈良県,天理市,櫟本町４１７番地６,,29,204,6320004,,,,,,,2025-01-09,1,,,,,デン,0
2542,9160003003372,新規,0,2025-01-09,2025-01-09,合同会社ラフォース企画,,合同会社,滋賀県,近江八幡市,池田町３丁目２番地２,,25,204,5230877,,,,,,,2025-01-09,1,,,,,ラフォースキカク,0
2549,9180001164727,新規,0,2025-01-09,2025-01-09,株式会社ＢＥＬＵＳＡ,,株式会社,愛知県,名古屋市北区,楠３丁目３０７番地,,23,103,4620012,,,,,,,2025-01-09,1,,,,,ベルーサ,0
2550,9180001164751,新規,0,2025-01-09,2025-01-09,株式会社ＳＵＲＰＡＳＳ,,株式会社,愛知県,名古屋市中区,栄１丁目７番１６号,,23,106,4600008,,,,,,,2025-01-09,1,,,,,サーパス,0
2551,9180001164826,新規,0,2025-01-09,2025-01-09,株式会社ｏｍｏｍｏｍ,,株式会社,愛知県,常滑市,本町２丁目１番地,,23,216,4790829,,,,,,,2025-01-09,1,,,,,オムオムオム,0
2552,9180001164875,新規,0,2025-01-09,2025-01-09,株式会社アイチ運送,,株式会社,愛知県,春日井市,知多町３丁目１７１番地,,23,206,4860947,,,,,,,2025-01-09,1,,,,,アイチウンソウ,0
2554,9180003027799,新規,0,2025-01-09,2025-01-09,合同会社豊泉,,合同会社,愛知県,名古屋市天白区,元植田１丁目２００６番地,,23,116,4680009,,,,,,,2025-01-09,1,,,,,ホウセン,0
2555,9180003027849,新規,0,2025-01-09,2025-01-09,合同会社サリーチェ,,合同会社,愛知県,名古屋市北区,柳原３丁目１０番５号,,23,103,4620845,,,,,,,2025-01-09,1,,,,,サリーチェ,0
2559,9200001043309,新規,0,2025-01-09,2025-01-09,株式会社ありんこファーム,,株式会社,岐阜県,郡上市,白鳥町前谷５９９番地３,,21,219,5015101,,,,,,,2025-01-09,1,,,,,アリンコファーム,0
2560,9200001043317,新規,0,2025-01-09,2025-01-09,株式会社ＡＩＭソリューションズ,,株式会社,岐阜県,可児市,下恵土７３番地３,,21,214,5090203,,,,,,,2025-01-09,1,,,,,エーアイエムソリューションズ,0
2564,9200003006643,新規,0,2025-01-09,2025-01-09,合同会社次井電気,,合同会社,岐阜県,羽島郡岐南町,薬師寺２丁目１０番地の５,,21,302,5016014,,,,,,,2025-01-09,1,,,,,ツギイデンキ,0
2572,9230003002359,新規,0,2025-01-09,2025-01-09,合同会社福家,,合同会社,富山県,富山市,東岩瀬町５５１番地,,16,201,9318358,,,,,,,2025-01-09,1,,,,,フクヤ,0
2574,9240001064359,新規,0,2025-01-09,2025-01-09,株式会社エム・マリンコンサルティング,,株式会社,広島県,福山市,箕島町５８１６番地１８２,,34,207,7210957,,,,,,,2025-01-09,1,,,,,エムマリンコンサルティング,0
2576,9250005008971,新規,0,2025-01-09,2025-01-09,一般社団法人助産院Ｃｉｇｏｇｎｅ,,その他の設立登記法人,山口県,山口市,米屋町２－７,,35,203,7530087,,,,,,,2025-01-09,1,,,,,ジョサンインシゴーニュ,0
2578,9260001039788,新規,0,2025-01-09,2025-01-09,株式会社晃永工業,,株式会社,岡山県,岡山市南区,妹尾３３９４番地２８,,33,104,7010205,,,,,,,2025-01-09,1,,,,,コウエイコウギョウ,0
2583,9290001108508,新規,0,2025-01-09,2025-01-09,株式会社Ｆｏｔｅｃｈ,,株式会社,福岡県,福岡市博多区,堅粕３丁目１８番３２号,,40,132,8120043,,,,,,,2025-01-09,1,,,,,フォテック,0
2584,9290001108557,新規,0,2025-01-09,2025-01-09,株式会社ＡＴＲＡ,,株式会社,福岡県,小郡市,三沢２４２５番地６,,40,216,8380106,,,,,,,2025-01-09,1,,,,,アトラ,0
2585,9290001108573,新規,0,2025-01-09,2025-01-09,株式会社クルマジャパン,,株式会社,福岡県,福岡市西区,姪の浜５丁目３－２６－１２０３,,40,135,8190002,,,,,,,2025-01-09,1,,,,,クルマジャンパン,0
2586,9290005019610,新規,0,2025-01-09,2025-01-09,一般社団法人ホームランヘルパーズ,,その他の設立登記法人,福岡県,大野城市,東大利１丁目７番１０号,,40,219,8160941,,,,,,,2025-01-09,1,,,,,ホームランヘルパーズ,0
2588,9290801031181,新規,0,2025-01-09,2025-01-09,株式会社ｕ‐ｎａｖｉ,,株式会社,福岡県,北九州市小倉南区,石田町９－３,,40,107,8020838,,,,,,,2025-01-09,1,,,,,ユーナビ,0
2589,9310003004917,新規,0,2025-01-09,2025-01-09,合同会社薬味,,合同会社,長崎県,佐世保市,大潟町１５４番地３２,,42,202,8580926,,,,,,,2025-01-09,1,,,,,ヤクミ,0
2590,9310003004925,新規,0,2025-01-09,2025-01-09,合同会社はるさめ屋,,合同会社,長崎県,大村市,富の原２丁目１０１番地１,,42,205,8560806,,,,,,,2025-01-09,1,,,,,ハルサメヤ,0
2591,9320003004552,新規,0,2025-01-09,2025-01-09,合同会社Ｋ・Ｓ,,合同会社,大分県,大分市,大字鴛野９５９番地の２７,,44,201,8701121,,,,,,,2025-01-09,1,,,,,ケイエス,0
2593,9330001032793,新規,0,2025-01-09,2025-01-09,株式会社Ｍａｒｑｕｅ‐Ｐａｇｅ,,株式会社,熊本県,熊本市中央区,水前寺３丁目５番２０号コープ野村水前寺１０５号,,43,101,8620950,,,,,,,2025-01-09,1,,,,,マルクパージュ,0
2595,9330005010861,新規,0,2025-01-09,2025-01-09,一般社団法人熊本県日本拳法連盟,,その他の設立登記法人,熊本県,合志市,須屋１８９番地７,,43,216,8611102,,,,,,,2025-01-09,1,,,,,クマモトケンニッポンケンポウレンメイ,0
2600,9360001034606,新規,0,2025-01-09,2025-01-09,株式会社Ｒｏｙａｌ　Ｈｏｕｓｉｎｇ,,株式会社,沖縄県,中頭郡北谷町,字伊平４２１番地７大松ビル３Ｆ,,47,326,9040102,,,,,,,2025-01-09,1,,,,,ロイヤルハウジング,0
2601,9360001034622,新規,0,2025-01-09,2025-01-09,株式会社ＩＦＡＬ　ＧＲＯＵＰ　ＪＡＰＡＮ,,株式会社,沖縄県,名護市,大東１丁目７－１４,,47,209,9050016,,,,,,,2025-01-09,1,,,,,イファルグループジャパン,0
2604,9370001052103,新規,0,2025-01-09,2025-01-09,株式会社ＵＮＩＱ,,株式会社,宮城県,仙台市泉区,市名坂字町３２番地２０１,,04,105,9813117,,,,,,,2025-01-09,1,,,,,ユーエヌアイク,0
2609,9380001035024,新規,0,2025-01-09,2025-01-09,株式会社ハヤシアグリ,,株式会社,福島県,相馬郡新地町,大字真弓字小屋前５５－２,,07,561,9792707,,,,,,,2025-01-09,1,,,,,ハヤシアグリ,0
2613,9420001018965,新規,0,2025-01-09,2025-01-09,中泊リージョナルパワー株式会社,,株式会社,青森県,北津軽郡中泊町,大字中里字紅葉坂２１０番地,,02,387,0370305,,,,,,,2025-01-09,1,,,,,ナカドマリリージョナルパワー,0
2617,9430001093413,新規,0,2025-01-09,2025-01-09,株式会社ファームフジタ藤太農園,,株式会社,北海道,余市郡余市町,山田町５８３番地,,01,408,0460012,,,,,,,2025-01-09,1,,,,,ファームフジタトウタノウエン,0
2618,9430001093438,新規,0,2025-01-09,2025-01-09,株式会社Ｌａ　ｖｉｅきらり,,株式会社,北海道,札幌市西区,琴似二条２丁目６番３号,,01,107,0630812,,,,,,,2025-01-09,1,,,,,ラヴィキラリ,0
2619,9430001093446,新規,0,2025-01-09,2025-01-09,Ｙ＆Ｍ株式会社,,株式会社,北海道,札幌市北区,北三十七条西４丁目３番１２号,,01,102,0010037,,,,,,,2025-01-09,1,,,,,ワイアンドエム,0
2620,9430001093454,新規,0,2025-01-09,2025-01-09,株式会社Ｅｎｊｏｙａｂｌｅ　Ｌｉｆｅ,,株式会社,北海道,札幌市中央区,南二条西１０丁目１０００番地２４ＴＡＫＥＴＯビル２Ｆ,,01,101,0600062,,,,,,,2025-01-09,1,,,,,エンジョイアブルライフ,0
2622,9430003017147,新規,0,2025-01-09,2025-01-09,合同会社ＭＩＬ,,合同会社,北海道,江別市,東光町３５番地の１０,,01,217,0670023,,,,,,,2025-01-09,1,,,,,ミル,0
2623,9430003017171,新規,0,2025-01-09,2025-01-09,合同会社大翔建設,,合同会社,北海道,石狩市,親船町２５番９号,,01,235,0613377,,,,,,,2025-01-09,1,,,,,ダイトケンセツ,0
2630,9490001010940,新規,0,2025-01-09,2025-01-09,株式会社中越,,株式会社,高知県,高知市,南金田４番１５号,,39,201,7810074,,,,,,,2025-01-09,1,,,,,ナカゴシ,0
2632,9500001026084,新規,0,2025-01-09,2025-01-09,株式会社高橋建築工舎,00137583,株式会社,愛媛県,新居浜市,大生院３４７－３,,38,205,7920060,,,,,,,2025-01-09,1,,,,,タカハシケンチクコウシャ,0
2635,9500003003404,新規,0,2025-01-09,2025-01-09,合同会社湯川まちづくり研究所,,合同会社,愛媛県,今治市,拝志９番３号,,38,202,7991504,,,,,,,2025-01-09,1,,,,,ユカワマチヅクリケンキュウショ,0
