sequenceNumber,corporateNumber,process,correct,updateDate,changeDate,name,nameImageId,kind,prefectureName,cityName,streetNumber,addressImageId,prefectureCode,cityCode,postCode,addressOutside,addressOutsideImageId,closeDate,closeCause,successorCorporateNumber,changeCause,assignmentDate,latest,enName,enPrefectureName,enCityName,enAddressOutside,furigana,hihyoji
13,1010001259823,新規,0,2025-11-14,2025-11-14,托茲瓦軸承製造株式会社,,株式会社,東京都,文京区,千石４丁目１４番９号,,13,105,1120011,,,,,,,2025-11-14,1,,,,,トツワジクウケセイゾウ,0
14,1010001260095,新規,0,2025-11-14,2025-11-14,Ｅｖｅｒｓｔｏｎｅ　Ｇｒｏｕｐ株式会社,,株式会社,東京都,千代田区,神田佐久間町３丁目２８番星野ビル４Ｆ１５号,,13,101,1010025,,,,,,,2025-11-14,1,,,,,エバーストーングループ,0
15,1010001260112,新規,0,2025-11-14,2025-11-14,Ｓａｅ　ｆａ＆ｃｏ，ｐｒ‐ｒｅ，ｗｅｌ株式会社,,株式会社,東京都,中央区,銀座１丁目２２番１１号銀座大竹ビジデンス２Ｆ,,13,102,1040061,,,,,,,2025-11-14,1,,,,,サエファアンドカープラリウェル,0
16,1010001260228,新規,0,2025-11-14,2025-11-14,株式会社Ｐｅａｃｅ　Ａｒｒａｎｇｅ,,株式会社,東京都,千代田区,神田須田町１丁目７番８号ＶＯＲＴ秋葉原ＩＶ２Ｆ,00141541,13,101,1010041,,,,,,,2025-11-14,1,,,,,ピースアレンジ,0
17,1010001260327,新規,0,2025-11-14,2025-11-14,株式会社Ｂｏｎｄ　Ｏｎｅ,,株式会社,東京都,中央区,京橋２丁目７番８号ＦＰＧ・ｌｉｎｋｓ・ＫＹＯＢＡＳＨＩ,,13,102,1040031,,,,,,,2025-11-14,1,,,,,ボンドワン,0
24,1010401194570,新規,0,2025-11-14,2025-11-14,株式会社ヨンクチュアリ,,株式会社,東京都,港区,西麻布４丁目４番９号麻布ミヤハウス３０２,,13,103,1060031,,,,,,,2025-11-14,1,,,,,ヨンクチュアリ,0
29,1010405025020,新規,0,2025-11-14,2025-11-14,新市街ホールディング１一般社団法人,,その他の設立登記法人,東京都,港区,虎ノ門３丁目２２番１０－２０１号,,13,103,1050001,,,,,,,2025-11-14,1,,,,,シンシガイホールディングワン,0
30,1010405025037,新規,0,2025-11-14,2025-11-14,水納島リゾート特定目的会社,,その他の設立登記法人,東京都,港区,西新橋１丁目２番９号メンターキャピタル税理士法人内,,13,103,1050003,,,,,,,2025-11-14,1,,,,,ミンナジマリゾート,0
37,1010603011920,新規,0,2025-11-14,2025-11-14,合同会社まるシカク,,合同会社,東京都,墨田区,業平３丁目１６番１号嶌崎ビル１０１,,13,107,1300002,,,,,,,2025-11-14,1,,,,,マルシカク,0
41,1010701048575,新規,0,2025-11-14,2025-11-14,セーフィーフィールドワークス株式会社,,株式会社,東京都,品川区,西品川１丁目１番１号住友不動産大崎ガーデンタワー,,13,109,1410033,,,,,,,2025-11-14,1,,,,,セーフィーフィールドワークス,0
49,1011001173535,新規,0,2025-11-14,2025-11-14,株式会社Ｂ３Ｎｅｘｔ,,株式会社,東京都,渋谷区,道玄坂１丁目１０番８号渋谷道玄坂東急ビル２Ｆ－Ｃ,,13,113,1500043,,,,,,,2025-11-14,1,,,,,ビーネクスト,0
50,1011001173568,新規,0,2025-11-14,2025-11-14,玄探工房株式会社,,株式会社,東京都,渋谷区,桜丘町２３番１７号シティーコート桜丘４０４,,13,113,1500031,,,,,,,2025-11-14,1,,,,,ゲンタンコウボウ,0
51,1011001173816,新規,0,2025-11-14,2025-11-14,Ｄｏｔｉｆｙ株式会社,,株式会社,東京都,渋谷区,広尾１丁目２番地１号ヒカリビル４階,,13,113,1500012,,,,,,,2025-11-14,1,,,,,ドティファイ,0
54,1011003022855,新規,0,2025-11-14,2025-11-14,合同会社Ｔｈｕｎｄｅｒ,,合同会社,東京都,渋谷区,恵比寿西２丁目８－４ＥＸ恵比寿西ビル５Ｆ,,13,113,1500021,,,,,,,2025-11-14,1,,,,,サンダー,0
58,1011101113952,新規,0,2025-11-14,2025-11-14,株式会社ＳＵＮ,,株式会社,東京都,新宿区,左門町２０番地,,13,104,1600017,,,,,,,2025-11-14,1,,,,,サン,0
59,1011101113985,新規,0,2025-11-14,2025-11-14,株式会社大喜,,株式会社,東京都,新宿区,歌舞伎町２丁目３－２１明治通りビル５０４,,13,104,1600021,,,,,,,2025-11-14,1,,,,,ダイキ,0
60,1011103016484,新規,0,2025-11-14,2025-11-14,アンセム合同会社,,合同会社,東京都,新宿区,西新宿６丁目５番１号新宿アイランドタワー２階,,13,104,1600023,,,,,,,2025-11-14,1,,,,,アンセム,0
61,1011201026773,新規,0,2025-11-14,2025-11-14,ＬＥ　ＴＡＮＮＥＵＲ　ＪＡＰＡＮ株式会社,,株式会社,東京都,中野区,中野４丁目１０番２号中野セントラルパークサウス２Ｆ,,13,114,1640001,,,,,,,2025-11-14,1,,,,,ルタヌアジャパン,0
68,1011701028939,新規,0,2025-11-14,2025-11-14,株式会社和楽,,株式会社,東京都,江戸川区,船堀３丁目８番１－９１２号,,13,123,1340091,,,,,,,2025-11-14,1,,,,,ワラク,0
69,1011801047054,新規,0,2025-11-14,2025-11-14,株式会社マウンテンハウスホールディングス,,株式会社,東京都,足立区,新田３丁目１７番９号２Ｆ,,13,121,1230865,,,,,,,2025-11-14,1,,,,,マウンテンハウスホールディングス,0
84,1020001165789,新規,0,2025-11-14,2025-11-14,株式会社木原板金,,株式会社,神奈川県,横浜市戸塚区,戸塚町１２７１番地１００ＣａｓａＲｅｘｚｙ１０２号,,14,110,2440003,,,,,,,2025-11-14,1,,,,,キハラバンキン,0
89,1020003029760,新規,0,2025-11-14,2025-11-14,サプリゲームス合同会社,,合同会社,神奈川県,横浜市西区,浅間町１丁目４番３号ウィザードビル４０２,,14,103,2200072,,,,,,,2025-11-14,1,,,,,サプリゲームス,0
96,1021001086777,新規,0,2025-11-14,2025-11-14,株式会社ＩＡ　ＳＴＹＬＥ,,株式会社,神奈川県,茅ヶ崎市,円蔵２５９２番地の５,,14,207,2530084,,,,,,,2025-11-14,1,,,,,,0
103,1030001169681,新規,0,2025-11-14,2025-11-14,株式会社トラストマインド,,株式会社,埼玉県,さいたま市岩槻区,美幸町３番３４－２号,,11,110,3390063,,,,,,,2025-11-14,1,,,,,トラストマインド,0
104,1030001169698,新規,0,2025-11-14,2025-11-14,松井中央株式会社,,株式会社,埼玉県,志木市,本町６丁目２９番１８号,,11,228,3530004,,,,,,,2025-11-14,1,,,,,マツイチュウオウ,0
105,1030001169707,新規,0,2025-11-14,2025-11-14,日本通商株式会社,,株式会社,埼玉県,入間市,扇台５丁目１０番５号,,11,225,3580023,,,,,,,2025-11-14,1,,,,,ニホンツウショウ,0
106,1030001169715,新規,0,2025-11-14,2025-11-14,株式会社ＴＭマーケティング,,株式会社,埼玉県,さいたま市桜区,西堀２丁目１４－２７,,11,106,3380832,,,,,,,2025-11-14,1,,,,,ティーエムマーケティング,0
107,1030001169723,新規,0,2025-11-14,2025-11-14,株式会社西澤工務店,,株式会社,埼玉県,行田市,城西３丁目１５番７号,,11,206,3610057,,,,,,,2025-11-14,1,,,,,ニシザワコウムテン,0
109,1030003028068,新規,0,2025-11-14,2025-11-14,合同会社８７Ｔｏｋｙｏ,,合同会社,埼玉県,熊谷市,大麻生５０１番地１９,,11,202,3600835,,,,,,,2025-11-14,1,,,,,ハチナナトーキョー,0
110,1030003028076,新規,0,2025-11-14,2025-11-14,ハヴァ合同会社,,合同会社,埼玉県,草加市,神明１丁目２番２５号,,11,221,3400012,,,,,,,2025-11-14,1,,,,,ハヴァ,0
115,1040001141383,新規,0,2025-11-14,2025-11-14,ＴＯＵＹＡＯ株式会社,,株式会社,千葉県,松戸市,五香４丁目５９番地の４１,,12,207,2702213,,,,,,,2025-11-14,1,,,,,トーヨー,0
116,1040003028959,新規,0,2025-11-14,2025-11-14,合同会社龍美架設興業,,合同会社,千葉県,市原市,五井１７５８－１ルシェルブランＣ２０３,,12,219,2900056,,,,,,,2025-11-14,1,,,,,タツミカセツコウギョウ,0
122,1080101025904,新規,0,2025-11-14,2025-11-14,株式会社ＣＡＲＳ,,株式会社,静岡県,沼津市,大諏訪２５８－４,,22,203,4100873,,,,,,,2025-11-14,1,,,,,カーズ,0
123,1090001019609,新規,0,2025-11-14,2025-11-14,やまなしフードラボ株式会社,,株式会社,山梨県,山梨市,西７５番地４,,19,205,4050001,,,,,,,2025-11-14,1,,,,,ヤマナシフードラボ,0
145,1120001281989,新規,0,2025-11-14,2025-11-14,大阪大学フォーサイト・リフレーミングパートナーズ株式会社,,株式会社,大阪府,大阪市北区,中之島４丁目３番５３号大阪大学中之島センター５階,,27,127,5300005,,,,,,,2025-11-14,1,,,,,オオサカダイガクフォーサイトリフレーミングパートナーズ,0
146,1120001282013,新規,0,2025-11-14,2025-11-14,株式会社權,,株式会社,大阪府,大阪市阿倍野区,北畠１丁目８番３３号,,27,119,5450035,,,,,,,2025-11-14,1,,,,,ゴン,0
157,1120903005958,新規,0,2025-11-14,2025-11-14,Ｌｉｂｅｒｔｙ合同会社,,合同会社,大阪府,豊中市,緑丘１丁目３０－５,,27,203,5600002,,,,,,,2025-11-14,1,,,,,リバティ,0
159,1122005003857,新規,0,2025-11-14,2025-11-14,一般社団法人柏原市マイクロツーリズム推進協議会,,その他の設立登記法人,大阪府,柏原市,大字雁多尾畑６５２－９,,27,221,5820012,,,,,,,2025-11-14,1,,,,,カシワラシマイクロツーリズムスイシンキョウギカイ,0
162,1130001081034,新規,0,2025-11-14,2025-11-14,日本Ｉｍｅｄａｋａ株式会社,,株式会社,京都府,京都市北区,大将軍東鷹司町１５３番地,,26,101,6038333,,,,,,,2025-11-14,1,,,,,ニホンイメダカ,0
171,1140003022844,新規,0,2025-11-14,2025-11-14,ＭｒＫＵＢＯ合同会社,,合同会社,兵庫県,川西市,下加茂１２番９－５号,,28,217,6660000,,,,,,,2025-11-14,1,,,,,ミスタークボ,0
173,1140005027701,新規,0,2025-11-14,2025-11-14,一般社団法人にーず,,その他の設立登記法人,兵庫県,加古郡播磨町,南大中３丁目１２番２５号,,28,382,6750147,,,,,,,2025-11-14,1,,,,,ニーズ,0
185,1180001169469,新規,0,2025-11-14,2025-11-14,笑顔株式会社,,株式会社,愛知県,名古屋市中川区,露橋２丁目１５番１８号エバーグリーン八島二号棟５０８号,,23,110,4540022,,,,,,,2025-11-14,1,,,,,エガオ,0
186,1180001169519,新規,0,2025-11-14,2025-11-14,スマートリーフ株式会社,,株式会社,愛知県,名古屋市中村区,長筬町２丁目３９番地の３,,23,105,4530839,,,,,,,2025-11-14,1,,,,,スマートリーフ,0
187,1180001169543,新規,0,2025-11-14,2025-11-14,株式会社Ｒｕｐａｒｕｐａ,,株式会社,愛知県,名古屋市緑区,桶狭間清水山３０４番地,,23,114,4580921,,,,,,,2025-11-14,1,,,,,ルパルパ,0
191,1180301040420,新規,0,2025-11-14,2025-11-14,株式会社Ｋスクエア,,株式会社,愛知県,刈谷市,御幸町３丁目４０番地２,,23,210,4480821,,,,,,,2025-11-14,1,,,,,ケイスクエア,0
198,1200001044413,新規,0,2025-11-14,2025-11-14,株式会社日本ＭＡ,,株式会社,岐阜県,瑞浪市,上平町４丁目５７番地,,21,208,5096122,,,,,,,2025-11-14,1,,,,,ニホンエムエー,0
202,1230001021178,新規,0,2025-11-14,2025-11-14,株式会社グレース,,株式会社,富山県,高岡市,福岡町赤丸６５７番地,,16,202,9390101,,,,,,,2025-11-14,1,,,,,グレース,0
204,1240001065793,新規,0,2025-11-14,2025-11-14,株式会社ソラリス,,株式会社,広島県,福山市,松永町２丁目２番２０－３１１号,,34,207,7290104,,,,,,,2025-11-14,1,,,,,,0
211,1260001040712,新規,0,2025-11-14,2025-11-14,Ｋテクノリペア株式会社,,株式会社,岡山県,赤磐市,可真上５８７番地,,33,213,7090733,,,,,,,2025-11-14,1,,,,,ケイテクノリペア,0
213,1260005011544,新規,0,2025-11-14,2025-11-14,一般財団法人新見公立大学まんさく会,,その他の設立登記法人,岡山県,新見市,西方１２６３番地２,,33,210,7180017,,,,,,,2025-11-14,1,,,,,ニイミコウリツダイガクマンサクカイ,0
215,1270001009327,新規,0,2025-11-14,2025-11-14,株式会社海道,,株式会社,鳥取県,倉吉市,中河原３５５番地１,,31,203,6820856,,,,,,,2025-11-14,1,,,,,カイドウ,0
217,1290001112087,新規,0,2025-11-14,2025-11-14,株式会社たびおと,,株式会社,福岡県,福岡市城南区,鳥飼４丁目１２－２０,,40,136,8140103,,,,,,,2025-11-14,1,,,,,タビオト,0
221,1290003017697,新規,0,2025-11-14,2025-11-14,八女の小さな楽校合同会社,,合同会社,福岡県,八女市,本村４２５番地９６,,40,210,8340063,,,,,,,2025-11-14,1,,,,,ヤメノチイサナガッコウ,0
229,1330001033758,新規,0,2025-11-14,2025-11-14,株式会社ＲＥデザイン,,株式会社,熊本県,熊本市中央区,新屋敷２丁目２番１号,,43,101,8620975,,,,,,,2025-11-14,1,,,,,アールイーデザイン,0
231,1330003011316,新規,0,2025-11-14,2025-11-14,合同会社石扉,,合同会社,熊本県,熊本市東区,長嶺南６丁目９番１６－２０３号こがね荘２０３,,43,102,8618039,,,,,,,2025-11-14,1,,,,,イシトビラ,0
232,1330003011324,新規,0,2025-11-14,2025-11-14,合同会社ＲＯＣＣＡ,,合同会社,熊本県,熊本市中央区,新町２丁目４番１６－８０２号,,43,101,8600004,,,,,,,2025-11-14,1,,,,,ロッカ,0
233,1340001027783,新規,0,2025-11-14,2025-11-14,Ｓｕｎ．ｃｒａｆｔ株式会社,,株式会社,鹿児島県,鹿児島市,伊敷７丁目５番１３号,,46,201,8900008,,,,,,,2025-11-14,1,,,,,サンクラフト,0
243,1360001036031,新規,0,2025-11-14,2025-11-14,株式会社ファーストリリー・コーポレーション,,株式会社,沖縄県,石垣市,字宮良１０２５番地１２,,47,207,9070243,,,,,,,2025-11-14,1,,,,,ファーストリリーコーポレーション,0
246,1370003007368,新規,0,2025-11-14,2025-11-14,合同会社みちのく青華堂,,合同会社,宮城県,名取市,ゆりが丘５丁目５番地の２８,,04,207,9811245,,,,,,,2025-11-14,1,,,,,ミチノクセイカドウ,0
249,1370005011021,新規,0,2025-11-14,2025-11-14,特定非営利活動法人心晴ｋｏｋｏｒｏｂａ,,その他の設立登記法人,宮城県,仙台市青葉区,上杉３丁目９番６２号,,04,101,9800011,,,,,,,2025-11-14,1,,,,,ココロバ,0
257,1420001019343,新規,0,2025-11-14,2025-11-14,株式会社ＳＣ,,株式会社,青森県,上北郡おいらせ町,西下川原１６９－２,,02,412,0392161,,,,,,,2025-11-14,1,,,,,エスシー,0
264,1430001095656,新規,0,2025-11-14,2025-11-14,アライブメント株式会社,,株式会社,北海道,札幌市北区,屯田九条１丁目２番１号,,01,102,0020859,,,,,,,2025-11-14,1,,,,,アライブメント,0
265,1430001095672,新規,0,2025-11-14,2025-11-14,株式会社ＡＲＡＴＡＮＩ　ＢＡＳＥ,,株式会社,北海道,札幌市北区,北十二条西１丁目２番２４号,,01,102,0010012,,,,,,,2025-11-14,1,,,,,アラタニベース,0
267,1430003018326,新規,0,2025-11-14,2025-11-14,Ａ２合同会社,,合同会社,北海道,札幌市北区,北八条西６丁目２番地２０,,01,102,0600808,,,,,,,2025-11-14,1,,,,,エーツー,0
268,1470001020981,新規,0,2025-11-14,2025-11-14,株式会社ひかる,,株式会社,香川県,高松市,国分寺町新居１３０９番地６,,37,201,7690101,,,,,,,2025-11-14,1,,,,,ヒカル,0
274,1700150132942,新規,0,2025-11-14,2025-11-14,ＭＩＮＧＥＮＥＲＧＹＣＯ．，ＬＴＤ．,,外国会社等,,,,,,,,サモア独立国アピア市ヴァエア通りロテマウセンタービル２階,,,,,,2025-11-14,1,,,,,ミンエナジーカンパニーリミテツド,0
284,2010001260152,新規,0,2025-11-14,2025-11-14,コネスタ株式会社,,株式会社,東京都,中央区,銀座７丁目８－４,,13,102,1040061,,,,,,,2025-11-14,1,,,,,コネスタ,0
285,2010001260276,新規,0,2025-11-14,2025-11-14,株式会社Ａｉ　Ｍｉｚｕｋｉ,,株式会社,東京都,千代田区,飯田橋４丁目６番１０号,,13,101,1020072,,,,,,,2025-11-14,1,,,,,アイミズキ,0
289,2010003049387,新規,0,2025-11-14,2025-11-14,合同会社にほんばし不動産,,合同会社,東京都,中央区,日本橋室町１丁目１１番１２号日本橋水野ビル７階,,13,102,1030022,,,,,,,2025-11-14,1,,,,,ニホンバシフドウサン,0
290,2010003049395,新規,0,2025-11-14,2025-11-14,ホホホールディングス合同会社,,合同会社,東京都,中央区,佃２丁目２１番５－１１０１号,,13,102,1040051,,,,,,,2025-11-14,1,,,,,ホホホールディングス,0
292,2010005040939,新規,0,2025-11-14,2025-11-14,一般社団法人心音,,その他の設立登記法人,東京都,千代田区,麹町３丁目５番１７号,,13,101,1020083,,,,,,,2025-11-14,1,,,,,ココネ,0
303,2010405024913,新規,0,2025-11-14,2025-11-14,一般社団法人日本マルタ経済交流協会,,その他の設立登記法人,東京都,港区,六本木２丁目２番６号福吉町ビル６Ｆ,,13,103,1060032,,,,,,,2025-11-14,1,,,,,ニホンマルタケイザイコウリュウキョウカイ,0
307,2010603011886,新規,0,2025-11-14,2025-11-14,神泉合同会社,,合同会社,東京都,江東区,大島５丁目４３番８号,,13,108,1360072,,,,,,,2025-11-14,1,,,,,シンセン,0
317,2011001173550,新規,0,2025-11-14,2025-11-14,株式会社プロジェクトニュー,,株式会社,東京都,目黒区,自由が丘１丁目１６番１２‐４０１号,,13,110,1520035,,,,,,,2025-11-14,1,,,,,プロジェクトニュー,0
322,2011003022912,新規,0,2025-11-14,2025-11-14,ＡＳ＆Ｃｏ．合同会社,,合同会社,東京都,目黒区,柿の木坂２丁目８番１号,,13,110,1520022,,,,,,,2025-11-14,1,,,,,エイエスアンドカンパニー,0
332,2011301031045,新規,0,2025-11-14,2025-11-14,株式会社Ｉ　ｔｒｕｓｔ,,株式会社,東京都,杉並区,高円寺南２丁目２０番５号,,13,115,1660003,,,,,,,2025-11-14,1,,,,,アイトラスト,0
338,2011801047037,新規,0,2025-11-14,2025-11-14,株式会社タケシ建装,,株式会社,東京都,葛飾区,奥戸４丁目１５番６号,,13,122,1240022,,,,,,,2025-11-14,1,,,,,タケシケンソウ,0
339,2011801047045,新規,0,2025-11-14,2025-11-14,株式会社リアライズコンサルティング,,株式会社,東京都,葛飾区,四つ木４丁目１８番１７号,,13,122,1240011,,,,,,,2025-11-14,1,,,,,リアライズコンサルティング,0
344,2012401043814,新規,0,2025-11-14,2025-11-14,ＨＴ＆Ｃ株式会社,,株式会社,東京都,調布市,布田６丁目１１番７号ジオ調布３１２,,13,208,1820024,,,,,,,2025-11-14,1,,,,,エイチティーアンドシー,0
360,2013301055313,新規,0,2025-11-14,2025-11-14,株式会社Ｕｎｉｑｕｅ,,株式会社,東京都,豊島区,西池袋３丁目８－１６クリーンハウス２０３,,13,116,1710021,,,,,,,2025-11-14,1,,,,,ユニーク,0
385,2030001169656,新規,0,2025-11-14,2025-11-14,聖和トランスポート株式会社,,株式会社,埼玉県,川口市,安行出羽５丁目１０番１９号,,11,203,3340052,,,,,,,2025-11-14,1,,,,,セイワトランスポート,0
386,2030001169672,新規,0,2025-11-14,2025-11-14,株式会社Ｃａｒｅｌｙ,,株式会社,埼玉県,熊谷市,久保島６５８番地３３,,11,202,3600831,,,,,,,2025-11-14,1,,,,,ケアリー,0
387,2030001169697,新規,0,2025-11-14,2025-11-14,株式会社Ｂｕｉｌｄ８,,株式会社,埼玉県,川越市,大字的場２４１８番地１０，ＲＯ川越１０３号,,11,201,3501101,,,,,,,2025-11-14,1,,,,,ビルドエイト,0
388,2030001169730,新規,0,2025-11-14,2025-11-14,株式会社ヨシダ,,株式会社,埼玉県,川越市,大字今福３番地３,,11,201,3501151,,,,,,,2025-11-14,1,,,,,ヨシダ,0
391,2030003028091,新規,0,2025-11-14,2025-11-14,大丈夫ラボ合同会社,,合同会社,埼玉県,熊谷市,箱田１丁目１０番８－１号,,11,202,3600014,,,,,,,2025-11-14,1,,,,,ダイジョウブラボ,0
401,2040003028958,新規,0,2025-11-14,2025-11-14,合同会社Ｆｕｔｕｒｅ,,合同会社,千葉県,市川市,高谷２丁目４－１４－２０１,,12,203,2720013,,,,,,,2025-11-14,1,,,,,フューチャー,0
412,2060003005848,新規,0,2025-11-14,2025-11-14,合同会社Ｆｒａｎ,,合同会社,栃木県,宇都宮市,大塚町２番１３号,,09,201,3210161,,,,,,,2025-11-14,1,,,,,フラン,0
420,2080401028259,新規,0,2025-11-14,2025-11-14,株式会社ＬｉｖｅＭｏ,,株式会社,静岡県,浜松市中央区,助信町４４番３６号,,22,138,4300903,,,,,,,2025-11-14,1,,,,,リブモ,0
421,2100001039117,新規,0,2025-11-14,2025-11-14,株式会社しなのＬｉｎｋ,,株式会社,長野県,佐久市,岩村田１６２３－１８,,20,217,3850022,,,,,,,2025-11-14,1,,,,,シナノリンク,0
440,2120001281625,新規,0,2025-11-14,2025-11-14,Ｆｒｏｎｔｉｅｒ　Ｇｒｏｗｔｈ　Ｊａｐａｎ株式会社,,株式会社,大阪府,大阪市北区,大淀中４丁目１２番１２号,,27,127,5310076,,,,,,,2025-11-14,1,,,,,フロンティアグロースジャパン,0
441,2120001281897,新規,0,2025-11-14,2025-11-14,株式会社ＳＨＩＮＥＩ,,株式会社,大阪府,枚方市,尊延寺６丁目２８－６ＭＡＹＵＭＩハイツ枚方１５番館尊延寺１０３号,,27,210,5730112,,,,,,,2025-11-14,1,,,,,シンエイ,0
455,2120901051771,新規,0,2025-11-14,2025-11-14,株式会社クレヴィオン,,株式会社,大阪府,茨木市,彩都やまぶき３丁目６番８号,,27,211,5670086,,,,,,,2025-11-14,1,,,,,クレヴィオン,0
459,2122003003387,新規,0,2025-11-14,2025-11-14,合同会社ＯｕｒＬｉｆｅ,,合同会社,大阪府,東大阪市,足代北１丁目８－１２－５０６,,27,227,5770058,,,,,,,2025-11-14,1,,,,,アワーライフ,0
463,2130001081033,新規,0,2025-11-14,2025-11-14,株式会社カヨラボ,,株式会社,京都府,京都市左京区,岩倉中河原町１８４番地ＰＯＭ岩倉１８４、１－Ｃ号,,26,103,6060018,,,,,,,2025-11-14,1,,,,,カヨラボ,0
466,2140001140738,新規,0,2025-11-14,2025-11-14,ＧＭＳ株式会社,,株式会社,兵庫県,神戸市中央区,多聞通２丁目１番５号シグマコーポレーション神戸ビル４階,,28,110,6500015,,,,,,,2025-11-14,1,,,,,ジーエムエス,0
467,2140001140754,新規,0,2025-11-14,2025-11-14,ＴＡＬＩＮＫ株式会社,,株式会社,兵庫県,姫路市,広畑区蒲田１丁目１６番,,28,201,6711102,,,,,,,2025-11-14,1,,,,,タリンク,0
468,2140001140770,新規,0,2025-11-14,2025-11-14,株式会社クローバー,,株式会社,兵庫県,神戸市中央区,磯辺通４丁目１番５号,,28,110,6510084,,,,,,,2025-11-14,1,,,,,クローバー,0
472,2140003022835,新規,0,2025-11-14,2025-11-14,合同会社Ｈｏｎｅｓｔ‐２５,,合同会社,兵庫県,明石市,松江５６２番地の１プレステージ明石松江３０２,,28,203,6730036,,,,,,,2025-11-14,1,,,,,オネストニジュウゴ,0
476,2140005027691,新規,0,2025-11-14,2025-11-14,一般社団法人Ｍｅｓｈ　Ｐａｒｋ,,その他の設立登記法人,兵庫県,神戸市北区,山田町小河字上ノ山４番地の２,,28,109,6511105,,,,,,,2025-11-14,1,,,,,メッシュパーク,0
478,2170001018873,新規,0,2025-11-14,2025-11-14,ＳＭＡＩＬＩＮＫ株式会社,,株式会社,和歌山県,紀の川市,粉河９５番地,,30,208,6496531,,,,,,,2025-11-14,1,,,,,スマイルリンク,0
484,2180001169526,新規,0,2025-11-14,2025-11-14,株式会社プシュケビジョン,,株式会社,愛知県,一宮市,光明寺字神明前９３番地,,23,203,4910135,,,,,,,2025-11-14,1,,,,,プシュケビジョン,0
488,2180005021311,新規,0,2025-11-14,2025-11-14,一般社団法人セキュアベース,,その他の設立登記法人,愛知県,名古屋市瑞穂区,姫宮町１丁目３０番地,,23,108,4670834,,,,,,,2025-11-14,1,,,,,セキュアベース,0
490,2180301040428,新規,0,2025-11-14,2025-11-14,株式会社ＯＲＩＥＮＳ　ＴＩＤＡ　ＳＴＹＬＥ,,株式会社,愛知県,岡崎市,細川町字長原１３６番地,,23,202,4442149,,,,,,,2025-11-14,1,,,,,オリエンスティダスタイル,0
493,2190001032699,新規,0,2025-11-14,2025-11-14,ＨＩＫＡＲＵ株式会社,,株式会社,三重県,四日市市,諏訪栄町９番５号諏訪栄町店舗Ｈ２・３階,,24,202,5100086,,,,,,,2025-11-14,1,,,,,ヒカル,0
506,2260003005415,新規,0,2025-11-14,2025-11-14,ＬＫＪＰ合同会社,,合同会社,岡山県,岡山市北区,下石井２丁目１０番３０号,,33,101,7000907,,,,,,,2025-11-14,1,,,,,エルケージェイピー,0
518,2290005019872,新規,0,2025-11-14,2025-11-14,社会保険労務士法人Ｌａｂｏｒ　Ｍａｎａｇｅｍｅｎｔ,,その他の設立登記法人,福岡県,福岡市南区,大橋１丁目１５－５竹内ビル３階,,40,134,8150033,,,,,,,2025-11-14,1,,,,,レイバーマネジメント,0
521,2310005008880,新規,0,2025-11-14,2025-11-14,特定非営利活動法人長崎県ドローン協議会,,その他の設立登記法人,長崎県,南松浦郡新上五島町,有川郷５７８番地５７新上五島町産業支援センタービル２階,,42,411,8574211,,,,,,,2025-11-14,1,,,,,ナガサキケンドローンキョウギカイ,0
527,2330001033749,新規,0,2025-11-14,2025-11-14,株式会社ＥＲＥＮＡＳ,,株式会社,熊本県,熊本市中央区,花畑町１番１４号Ａ＆ＭＨＡＮＡＢＡＴＡ３０１号,,43,101,8600806,,,,,,,2025-11-14,1,,,,,エレナス,0
528,2330001033757,新規,0,2025-11-14,2025-11-14,株式会社益城ライス,,株式会社,熊本県,上益城郡益城町,大字惣領１２３７番地１シエロカーサＡ１０５号室,,43,443,8612233,,,,,,,2025-11-14,1,,,,,マシキライス,0
533,2360001036014,新規,0,2025-11-14,2025-11-14,株式会社ワク,,株式会社,沖縄県,うるま市,字川崎４７４番地７,,47,213,9042203,,,,,,,2025-11-14,1,,,,,ワク,0
534,2360001036039,新規,0,2025-11-14,2025-11-14,株式会社ワンセブン,,株式会社,沖縄県,那覇市,牧志１丁目４番５３－２０４号シティハウス牧志緑ケ丘公園,,47,201,9000013,,,,,,,2025-11-14,1,,,,,ワンセブン,0
538,2360003015387,新規,0,2025-11-14,2025-11-14,合同会社Ｄ．Ｋ　Ｓｅｒｖｉｃｅ,,合同会社,沖縄県,国頭郡恩納村,字冨着８９０－３喜納アパート２０５,,47,311,9040413,,,,,,,2025-11-14,1,,,,,ディケーサービス,0
539,2360003015395,新規,0,2025-11-14,2025-11-14,女性を幸せにする合同会社,,合同会社,沖縄県,那覇市,樋川２丁目１１番１号リバー・ヒル當山３０１,00141527,47,201,9000022,,,,,,,2025-11-14,1,,,,,ジョセイヲシアワセニスル,0
541,2370001053231,新規,0,2025-11-14,2025-11-14,株式会社１ｓｔ,,株式会社,宮城県,石巻市,門脇字青葉東１番地１,,04,202,9860853,,,,,,,2025-11-14,1,,,,,ファースト,0
549,2430001095647,新規,0,2025-11-14,2025-11-14,株式会社ファーム久保田,,株式会社,北海道,千歳市,長都１０３番地,,01,224,0660001,,,,,,,2025-11-14,1,,,,,ファームクボタ,0
557,2460005001598,新規,0,2025-11-14,2025-11-14,一般社団法人フェニックス釧路,,その他の設立登記法人,北海道,釧路市,新橋大通１丁目２番２０号,,01,206,0850046,,,,,,,2025-11-14,1,,,,,,0
563,2700150132941,新規,0,2025-11-14,2025-11-14,Ｋｏｎｇｄａｋ　Ｓｔｕｄｉｏ,,外国会社等,,,,,,,,６Ｆ，１４，Ｄａｅｗａｎｇｐａｎｇｙｏ－ｒｏ　６４５　ｂｅｏｎ－ｇｉｌ，Ｂｕｎｄａｎｇ－ｇｕ，Ｓｅｏｎｇｎａｍ－ｓｉ，Ｇｙｅｏｎｇｇｉ－ｄｏ，Ｒｅｐｕｂｌｉｃ　ｏｆ　Ｋｏｒｅａ,,,,,,2025-11-14,1,,,,,コンダツクスタジオ,0
573,3010001260119,新規,0,2025-11-14,2025-11-14,ドリームグローバル株式会社,,株式会社,東京都,中央区,銀座８丁目１４－５ＫＭビル６階,,13,102,1040061,,,,,,,2025-11-14,1,,,,,ドリームグローバル,0
574,3010001260135,新規,0,2025-11-14,2025-11-14,株式会社エイヤー,,株式会社,東京都,文京区,湯島４丁目４番６号ウェルシェア１Ｆ,,13,105,1130034,,,,,,,2025-11-14,1,,,,,,0
575,3010001260201,新規,0,2025-11-14,2025-11-14,株式会社ＭＥＬＩＳ　ＥＤＵＣＡＴＩＯＮ,,株式会社,東京都,中央区,八重洲２丁目１番１号ＹＡＮＭＡＲＴＯＫＹＯ１２階,,13,102,1040028,,,,,,,2025-11-14,1,,,,,メリスエデュケーション,0
576,3010001260218,新規,0,2025-11-14,2025-11-14,インダストリエイト株式会社,,株式会社,東京都,千代田区,神田須田町１丁目７番８号ＶＯＲＴ秋葉原ＩＶ２階,00141518,13,101,1010041,,,,,,,2025-11-14,1,,,,,インダストリエイト,0
577,3010001260234,新規,0,2025-11-14,2025-11-14,ビヨンドワン株式会社,,株式会社,東京都,千代田区,神田錦町３丁目１５番１,,13,101,1010054,,,,,,,2025-11-14,1,,,,,ビヨンドワン,0
578,3010001260333,新規,0,2025-11-14,2025-11-14,ＥＭＥＣ　Ｊａｐａｎ株式会社,,株式会社,東京都,中央区,銀座７丁目１５番８号タウンハイツ銀座４０６,,13,102,1040061,,,,,,,2025-11-14,1,,,,,イーメックジャパン,0
580,3010003049353,新規,0,2025-11-14,2025-11-14,合同会社ストラビア,,合同会社,東京都,中央区,晴海５丁目６番５号１１１０号室,,13,102,1040053,,,,,,,2025-11-14,1,,,,,ストラビア,0
581,3010003049403,新規,0,2025-11-14,2025-11-14,合同会社ＲＡＮＲＡＮ,,合同会社,東京都,中央区,勝どき６丁目３番２－３９０８号,,13,102,1040054,,,,,,,2025-11-14,1,,,,,ランラン,0
582,3010101016965,新規,0,2025-11-14,2025-11-14,株式会社ほっと工房睦,,株式会社,東京都,八王子市,片倉町１２２１番地１７,,13,201,1920914,,,,,,,2025-11-14,1,,,,,ホットコウボウムツミ,0
583,3010103002699,新規,0,2025-11-14,2025-11-14,合同会社ハイカーズプロモーション,,合同会社,東京都,八王子市,大和田町３丁目２１－７－６０４号,,13,201,1920045,,,,,,,2025-11-14,1,,,,,ハイカーズプロモーション,0
590,3010403036554,新規,0,2025-11-14,2025-11-14,合同会社Ａｐｐｒｏｓｅ,,合同会社,東京都,港区,虎ノ門５丁目１１番１２号虎ノ門ＡＣＴビル４０８号室,,13,103,1050001,,,,,,,2025-11-14,1,,,,,アプローズ,0
591,3010405025019,新規,0,2025-11-14,2025-11-14,表参道ホールディング２一般社団法人,,その他の設立登記法人,東京都,港区,虎ノ門３丁目２２番１０－２０１号,,13,103,1050001,,,,,,,2025-11-14,1,,,,,オモテサンドウホールディングツー,0
597,3010601068267,新規,0,2025-11-14,2025-11-14,城久株式会社,,株式会社,東京都,江東区,塩浜２丁目９番３－１１１０号,,13,108,1350043,,,,,,,2025-11-14,1,,,,,ジョウキュウ,0
598,3010701048532,新規,0,2025-11-14,2025-11-14,日本＿燦株式会社,00141522,株式会社,東京都,品川区,東品川２丁目２番４号天翔オフィス天王洲ファーストタワー７階７１４号室,,13,109,1400002,,,,,,,2025-11-14,1,,,,,ニホンシンサン,0
600,3010801036783,新規,0,2025-11-14,2025-11-14,株式会社ＧＫ　Ａｇｅｎｃｙ,,株式会社,東京都,大田区,田園調布５丁目４８番１号Ｏｒｃｈａｒｄ田園調布Ｂ棟１０１号室,,13,111,1450071,,,,,,,2025-11-14,1,,,,,ジーケーエージェンシー,0
613,3011001173434,新規,0,2025-11-14,2025-11-14,株式会社ダヴィンチ,,株式会社,東京都,目黒区,目黒本町３丁目１２番１７号,,13,110,1520002,,,,,,,2025-11-14,1,,,,,ダヴィンチ,0
614,3011001173624,新規,0,2025-11-14,2025-11-14,株式会社Ｆｅｂ．３０,,株式会社,東京都,渋谷区,神宮前２丁目１３番９号ＢＩＲＴＨ神宮前１０１号室,,13,113,1500001,,,,,,,2025-11-14,1,,,,,フェブサーティ,0
615,3011001173681,新規,0,2025-11-14,2025-11-14,株式会社Ｓｔｕｄｉｏ　Ｂａｂｅ,,株式会社,東京都,渋谷区,円山町５番３号ＭＩＥＵＸ渋谷ビル８階,,13,113,1500044,,,,,,,2025-11-14,1,,,,,スタジオベイブ,0
622,3011101113827,新規,0,2025-11-14,2025-11-14,株式会社ＭＵＳＣＬＥ　ＬＡＮＤ,,株式会社,東京都,新宿区,西新宿３丁目３番１３号西新宿水間ビル２Ｆ,,13,104,1600023,,,,,,,2025-11-14,1,,,,,マッスルランド,0
623,3011101113983,新規,0,2025-11-14,2025-11-14,ケンメイビルド株式会社,,株式会社,東京都,新宿区,新宿４丁目３番１５－６０７号,,13,104,1600022,,,,,,,2025-11-14,1,,,,,ケンメイビルド,0
624,3011203004882,新規,0,2025-11-14,2025-11-14,合同会社Ｇｒａｎｐｉａｎａ,,合同会社,東京都,中野区,東中野１丁目２０番６号,,13,114,1640003,,,,,,,2025-11-14,1,,,,,グランピアナ,0
628,3011401027578,新規,0,2025-11-14,2025-11-14,板橋じょうもん株式会社,,株式会社,東京都,板橋区,大山東町４４－２１,,13,119,1730014,,,,,,,2025-11-14,1,,,,,イタバシジョウモン,0
631,3011701028929,新規,0,2025-11-14,2025-11-14,株式会社ＪＦＭＥ,,株式会社,東京都,江戸川区,江戸川２丁目３１番１３号,,13,123,1320013,,,,,,,2025-11-14,1,,,,,ジェーエフミー,0
635,3011801047060,新規,0,2025-11-14,2025-11-14,株式会社ジェイエス,,株式会社,東京都,葛飾区,小菅２丁目２７番６号,,13,122,1240001,,,,,,,2025-11-14,1,,,,,ジェイエス,0
636,3011801047069,新規,0,2025-11-14,2025-11-14,Ｋ‐２工業株式会社,,株式会社,東京都,葛飾区,西亀有４丁目２３番２－１０１号,,13,122,1250002,,,,,,,2025-11-14,1,,,,,ケーツウコウギョウ,0
639,3012401043813,新規,0,2025-11-14,2025-11-14,株式会社ＥＭプロパティーズ,,株式会社,東京都,狛江市,岩戸北２丁目１１番１０―５０８号,,13,219,2010004,,,,,,,2025-11-14,1,,,,,イーエムプロパティーズ,0
640,3012401043821,新規,0,2025-11-14,2025-11-14,株式会社Ｒｅｖｅ,,株式会社,東京都,三鷹市,野崎３丁目１２－６－２０１,,13,204,1810014,,,,,,,2025-11-14,1,,,,,レーヴ,0
659,3020001165762,新規,0,2025-11-14,2025-11-14,株式会社Ｒｕｒｉ,,株式会社,神奈川県,横浜市西区,久保町２１－１２塚原第２ビル０２,,14,103,2200061,,,,,,,2025-11-14,1,,,,,ルリ,0
660,3020001165837,新規,0,2025-11-14,2025-11-14,株式会社Ｒｉｖｅｒ　Ｆａｒｍ　Ｏｎｅ,,株式会社,神奈川県,横浜市西区,久保町６番１号,,14,103,2200061,,,,,,,2025-11-14,1,,,,,リバーファームワン,0
666,3020003029668,新規,0,2025-11-14,2025-11-14,合同会社ＮａＳ,,合同会社,神奈川県,横浜市港北区,篠原台町３６番１３号びらかわべ１０１,,14,109,2220024,,,,,,,2025-11-14,1,,,,,エヌエーエス,0
673,3021001086750,新規,0,2025-11-14,2025-11-14,株式会社ＩＹコーポレーション,,株式会社,神奈川県,伊勢原市,西富岡４０１番地の２７,,14,214,2591111,,,,,,,2025-11-14,1,,,,,アイワイコーポレーション,0
681,3030001169688,新規,0,2025-11-14,2025-11-14,株式会社ＳＫＺ,,株式会社,埼玉県,さいたま市浦和区,上木崎４丁目９番２７号,,11,107,3300071,,,,,,,2025-11-14,1,,,,,エスケーゼット,0
682,3030001169696,新規,0,2025-11-14,2025-11-14,株式会社Ｃ・Ａ・Ｒ,,株式会社,埼玉県,朝霞市,本町１丁目１５番２９号,,11,227,3510011,,,,,,,2025-11-14,1,,,,,シーエーアール,0
683,3030001169705,新規,0,2025-11-14,2025-11-14,株式会社ＯＮＷＯＲＤ,,株式会社,埼玉県,朝霞市,根岸台２丁目９番１０号,,11,227,3510005,,,,,,,2025-11-14,1,,,,,オンワード,0
684,3030001169713,新規,0,2025-11-14,2025-11-14,株式会社ケアサービスななつぼし,,株式会社,埼玉県,桶川市,鴨川２丁目６－２フューチャー桶川Ｂ号棟１０２,,11,231,3630024,,,,,,,2025-11-14,1,,,,,ケアサービスナナツボシ,0
685,3030001169721,新規,0,2025-11-14,2025-11-14,株式会社ＡＳＡＫＡ　ＢＡＳＥ,,株式会社,埼玉県,朝霞市,栄町５丁目８番７号,,11,227,3510012,,,,,,,2025-11-14,1,,,,,アサカベース,0
686,3030001169738,新規,0,2025-11-14,2025-11-14,株式会社山口,,株式会社,埼玉県,入間市,河原町１１－９,,11,225,3580008,,,,,,,2025-11-14,1,,,,,ヤマグチ,0
687,3030001169746,新規,0,2025-11-14,2025-11-14,株式会社ＭＵＲＡＹＡＭＡ,,株式会社,埼玉県,入間市,大字下藤沢６５２番地２２,,11,225,3580011,,,,,,,2025-11-14,1,,,,,ムラヤマ,0
694,3030003028066,新規,0,2025-11-14,2025-11-14,光吉設備合同会社,,合同会社,埼玉県,戸田市,美女木北３丁目１５番地の２７,,11,224,3350038,,,,,,,2025-11-14,1,,,,,ミツヨシセツビ,0
695,3030003028082,新規,0,2025-11-14,2025-11-14,合同会社ａｙａｔｏｒｉ,,合同会社,埼玉県,本庄市,銀座１丁目６－２０,,11,211,3670052,,,,,,,2025-11-14,1,,,,,アヤトリ,0
703,3040001141332,新規,0,2025-11-14,2025-11-14,株式会社メドリ,,株式会社,千葉県,市川市,真間３丁目５－１９,,12,203,2720826,,,,,,,2025-11-14,1,,,,,メドリ,0
730,3080401028258,新規,0,2025-11-14,2025-11-14,株式会社ハラテック,,株式会社,静岡県,浜松市浜名区,染地台３丁目２３番３３号,,22,139,4340046,,,,,,,2025-11-14,1,,,,,ハラテック,0
738,3110001039726,新規,0,2025-11-14,2025-11-14,株式会社山田電設,,株式会社,新潟県,南蒲原郡田上町,大字吉田新田丙１５番地１,,15,361,9591511,,,,,,,2025-11-14,1,,,,,ヤマダデンセツ,0
742,3110003005957,新規,0,2025-11-14,2025-11-14,ｍｉｎｄｒｅｗｉｒｅ合同会社,,合同会社,新潟県,新潟市中央区,南笹口１丁目１‐３８コープオリンピア８０８,,15,103,9500912,,,,,,,2025-11-14,1,,,,,マインドリワイヤ,0
745,3120001043644,新規,0,2025-11-14,2025-11-14,株式会社産光,,株式会社,大阪府,大阪市西区,江戸堀１丁目４番２９号,,27,106,5500002,,,,,,,2025-11-14,1,,,,,,0
753,3120001281814,新規,0,2025-11-14,2025-11-14,株式会社テザリウム,,株式会社,大阪府,大阪市淀川区,西中島４丁目４番１６号ＮＬＣ新大阪６号館７０１,,27,123,5320011,,,,,,,2025-11-14,1,,,,,テザリウム,0
754,3120001281888,新規,0,2025-11-14,2025-11-14,株式会社日本アーティスト未来機構,,株式会社,大阪府,大阪市北区,梅田２丁目２番２号ヒルトンプラザウエストオフィスタワー１８階,,27,127,5300001,,,,,,,2025-11-14,1,,,,,ニホンアーティストミライキコウ,0
765,3120903005931,新規,0,2025-11-14,2025-11-14,Ｇｏｏｄ　Ｇａｒｄｅｎ合同会社,,合同会社,大阪府,池田市,東山町７２５番地,,27,204,5630012,,,,,,,2025-11-14,1,,,,,グッドガーデン,0
770,3130001081008,新規,0,2025-11-14,2025-11-14,ニューソイル株式会社,,株式会社,京都府,京都市下京区,間之町通高辻下る稲荷町５３６番地４,00141525,26,106,6008098,,,,,,,2025-11-14,1,,,,,ニューソイル,0
771,3130001081057,新規,0,2025-11-14,2025-11-14,株式会社ＤＸやまだ屋,,株式会社,京都府,京都市西京区,桂市ノ前町１３番地１２,,26,111,6158026,,,,,,,2025-11-14,1,,,,,ディーエックスヤマダヤ,0
772,3130003010872,新規,0,2025-11-14,2025-11-14,合同会社日興アスシード,,合同会社,京都府,京都市山科区,西野楳本町１２－７日興開発ビル山科Ｂ１Ａ,,26,110,6078358,,,,,,,2025-11-14,1,,,,,ニッコウアスシード,0
777,3140001140729,新規,0,2025-11-14,2025-11-14,株式会社エルベラン,,株式会社,兵庫県,西宮市,相生町７番１２号,,28,204,6620063,,,,,,,2025-11-14,1,,,,,エルベラン,0
778,3140001140737,新規,0,2025-11-14,2025-11-14,株式会社Ｔｏｒｃｈ,,株式会社,兵庫県,神戸市中央区,下山手通２丁目１３番１３号ＲＩＮＸビル３Ｆ,,28,110,6500011,,,,,,,2025-11-14,1,,,,,トーチ,0
779,3140003022834,新規,0,2025-11-14,2025-11-14,合同会社Ｄｒｅａｍ　Ｂａｓｅ,,合同会社,兵庫県,宝塚市,小林２丁目１２番５０号トレゾール小林１０６,,28,214,6650034,,,,,,,2025-11-14,1,,,,,ドリームベース,0
780,3140005027699,新規,0,2025-11-14,2025-11-14,特定非営利活動法人Ｔｅａｍ　Ｐｌｏｗ,,その他の設立登記法人,兵庫県,神戸市東灘区,青木３丁目５番１１号,,28,101,6580027,,,,,,,2025-11-14,1,,,,,チームプロウ,0
782,3160001027222,新規,0,2025-11-14,2025-11-14,株式会社Ｏｎｅ　Ｍｉｌｌｉｏｎ　Ｔｏ　Ｓｅｃｏｎｄ,,株式会社,滋賀県,大津市,今堅田２丁目２８番２０号,,25,201,5200241,,,,,,,2025-11-14,1,,,,,ワンミリオントゥセカンド,0
784,3170001018872,新規,0,2025-11-14,2025-11-14,株式会社ＡＱｕａＬｏｏＰ,,株式会社,和歌山県,和歌山市,新生町１番１０号,,30,201,6408325,,,,,,,2025-11-14,1,,,,,アクアループ,0
792,3180001169491,新規,0,2025-11-14,2025-11-14,株式会社ＩＰＰＯ,,株式会社,愛知県,名古屋市千種区,朝岡町３丁目３１番地の３,,23,101,4640811,,,,,,,2025-11-14,1,,,,,イッポ,0
795,3180003029355,新規,0,2025-11-14,2025-11-14,アラクネステッチ合同会社,,合同会社,愛知県,尾張旭市,城山町三ツ池６１１９番地９,,23,226,4880881,,,,,,,2025-11-14,1,,,,,アラクネステッチ,0
796,3180003029363,新規,0,2025-11-14,2025-11-14,合同会社ＦＯＲＴＲＥＫ,,合同会社,愛知県,名古屋市中区,栄１丁目２５－１４ゲストハウスレインボー伏見９０１,,23,106,4600008,,,,,,,2025-11-14,1,,,,,,0
801,3180301040419,新規,0,2025-11-14,2025-11-14,株式会社ランディア,,株式会社,愛知県,西尾市,中畑２丁目５３番地,,23,213,4440304,,,,,,,2025-11-14,1,,,,,ランディア,0
806,3190001032698,新規,0,2025-11-14,2025-11-14,株式会社ＦＡＲＥＡＤ,,株式会社,三重県,四日市市,桜町１１８９番地８,,24,202,5121211,,,,,,,2025-11-14,1,,,,,ファレード,0
807,3190005012085,新規,0,2025-11-14,2025-11-14,特定非営利活動法人桑名竹取物語,,その他の設立登記法人,三重県,桑名市,陽だまりの丘６丁目８０１番地,,24,205,5110867,,,,,,,2025-11-14,1,,,,,クワナタケトリモノガタリ,0
808,3200003007135,新規,0,2025-11-14,2025-11-14,メリー合同会社,,合同会社,岐阜県,恵那市,大井町７８７－２,,21,210,5097201,,,,,,,2025-11-14,1,,,,,メリー,0
811,3240003007486,新規,0,2025-11-14,2025-11-14,爲政合同会社,,合同会社,広島県,広島市中区,吉島新町２丁目３４番２７号サンハイツ美弥１０１号室,,34,101,7300824,,,,,,,2025-11-14,1,,,,,タメマサ,0
812,3250001021430,新規,0,2025-11-14,2025-11-14,株式会社楽狐島,,株式会社,山口県,萩市,大字椿東５４８０,,35,204,7580011,,,,,,,2025-11-14,1,,,,,ラッコジマ,0
821,3290001112102,新規,0,2025-11-14,2025-11-14,株式会社モノリスフクオカ,,株式会社,福岡県,福岡市博多区,諸岡６丁目３０番１２号,,40,132,8120894,,,,,,,2025-11-14,1,,,,,モノリスフクオカ,0
825,3290005019871,新規,0,2025-11-14,2025-11-14,一般社団法人世界とわたし,,その他の設立登記法人,福岡県,福岡市中央区,唐人町１丁目１１番１２－４０２号ダイアパレス唐人町,,40,133,8100063,,,,,,,2025-11-14,1,,,,,セカイトワタシ,0
833,3330001033756,新規,0,2025-11-14,2025-11-14,株式会社ｃｏｃｏｒｏｃｏｍｅｒ,,株式会社,熊本県,熊本市東区,月出８丁目１－４１月出マンション１階１号,,43,102,8620920,,,,,,,2025-11-14,1,,,,,ココロコメル,0
839,3350001019811,新規,0,2025-11-14,2025-11-14,株式会社ＦＵＮ．ＣＡＲＳ,,株式会社,宮崎県,宮崎市,大島町原ノ前１４４５番地２６,,45,201,8800824,,,,,,,2025-11-14,1,,,,,ファンカーズ,0
841,3350003005066,新規,0,2025-11-14,2025-11-14,合同会社小島建築設計,,合同会社,宮崎県,日南市,岩崎２丁目８番１７号,,45,204,8870014,,,,,,,2025-11-14,1,,,,,コジマケンチクセッケイ,0
845,3360001035972,新規,0,2025-11-14,2025-11-14,小満株式会社,,株式会社,沖縄県,宜野湾市,大山２丁目８－１２－１,,47,205,9012223,,,,,,,2025-11-14,1,,,,,ショウマン,0
869,3430003018324,新規,0,2025-11-14,2025-11-14,ＦＯＬプランニング札幌合同会社,,合同会社,北海道,札幌市中央区,南二条西１０丁目１番地１ブランズタワー札幌大通公園２４０６号,,01,101,0600062,,,,,,,2025-11-14,1,,,,,エフオーエルプランニングサッポロ,0
870,3440001009712,新規,0,2025-11-14,2025-11-14,株式会社ＢＯＮＺＵ,,株式会社,北海道,函館市,本町４番１８号２階,,01,202,0400011,,,,,,,2025-11-14,1,,,,,ボンズ,0
875,3700150132395,新規,0,2025-11-14,2025-11-14,ＲｏｂｏｔＳｈｏｐ　Ｉｎｃ．,,外国会社等,,,,,,,,１８００５　Ｌａｐｏｉｎｔｅ　Ｂｕｉｌｄｉｎｇ　３０５，Ｍｉｒａｂｅｌ　Ｑｕｅｂｅｃ　Ｊ７Ｊ　０Ｇ２，Ｃａｎａｄａ,,,,,,2025-11-14,1,,,,,ロボツトシヨツプインク,0
883,4010001260076,新規,0,2025-11-14,2025-11-14,株式会社八重洲テックソリューションズ,,株式会社,東京都,中央区,日本橋３丁目２番１４号新槇町ビル別館第一１階,,13,102,1030027,,,,,,,2025-11-14,1,,,,,,0
884,4010001260118,新規,0,2025-11-14,2025-11-14,オトノハ株式会社,,株式会社,東京都,中央区,銀座８丁目１４－５ＫＭビル６階,,13,102,1040061,,,,,,,2025-11-14,1,,,,,オトノハ,0
885,4010001260209,新規,0,2025-11-14,2025-11-14,グロサポ株式会社,,株式会社,東京都,中央区,銀座１丁目１２－４Ｎ＆ＥＢＬＤ．７階,,13,102,1040061,,,,,,,2025-11-14,1,,,,,グロサポ,0
886,4010001260340,新規,0,2025-11-14,2025-11-14,株式会社ＳＦＤ,,株式会社,東京都,千代田区,神田佐久間町２丁目３番地,,13,101,1010025,,,,,,,2025-11-14,1,,,,,エスエフディー,0
887,4010003049385,新規,0,2025-11-14,2025-11-14,合同会社Ｒｅｂｏｒｎｏ,,合同会社,東京都,千代田区,平河町２丁目３番１８号平河マンション２０６,,13,101,1020093,,,,,,,2025-11-14,1,,,,,リボルノ,0
888,4010003049402,新規,0,2025-11-14,2025-11-14,合同会社ＲＥＳＨ１,,合同会社,東京都,中央区,銀座１丁目２０番１１号１０Ｆ,,13,102,1040061,,,,,,,2025-11-14,1,,,,,アールイーエスエイチワン,0
889,4010003049435,新規,0,2025-11-14,2025-11-14,ピジョン合同会社,,合同会社,東京都,千代田区,丸の内１丁目４番１号東京共同会計事務所内,,13,101,1000005,,,,,,,2025-11-14,1,,,,,ピジョン,0
894,4010101016964,新規,0,2025-11-14,2025-11-14,株式会社Ｌｏｃａｌ　Ｅｎｔｅｒｐｒｉｓｅ,,株式会社,東京都,八王子市,元八王子町３丁目２２２９番地１,,13,201,1930826,,,,,,,2025-11-14,1,,,,,ローカルエンタープライズ,0
896,4010103002698,新規,0,2025-11-14,2025-11-14,ＡＳＣＡＸＩＡ合同会社,,合同会社,東京都,八王子市,東中野１５０４番地７,,13,201,1920351,,,,,,,2025-11-14,1,,,,,アスカシア,0
905,4010401194386,新規,0,2025-11-14,2025-11-14,株式会社ＢＲＵＮ　ＴＯＫＹＯ,,株式会社,東京都,港区,新橋６丁目１１番１３－１１０４号,,13,103,1050004,,,,,,,2025-11-14,1,,,,,ブラントウキョウ,0
906,4010401194519,新規,0,2025-11-14,2025-11-14,株式会社Ｍｅｄｉｌｕｘ,,株式会社,東京都,港区,芝１丁目２番１－１５０１号,,13,103,1050014,,,,,,,2025-11-14,1,,,,,メディルクス,0
911,4010405025018,新規,0,2025-11-14,2025-11-14,表参道ホールディング１一般社団法人,,その他の設立登記法人,東京都,港区,虎ノ門３丁目２２番１０－２０１号,,13,103,1050001,,,,,,,2025-11-14,1,,,,,オモテサンドウホールディングワン,0
913,4010503008072,新規,0,2025-11-14,2025-11-14,合同会社ｃａｍｉｎｏ,,合同会社,東京都,台東区,入谷１丁目１８番７－２０１号プライムメゾン入谷,,13,106,1100013,,,,,,,2025-11-14,1,,,,,カミノ,0
918,4010603011926,新規,0,2025-11-14,2025-11-14,太田テニス交流会合同会社,,合同会社,東京都,江東区,東雲１丁目９番４２―３１０４号,,13,108,1350062,,,,,,,2025-11-14,1,,,,,オオタテニスコウリュウカイ,0
921,4010801036790,新規,0,2025-11-14,2025-11-14,株式会社Ｇｉｖｅ,,株式会社,東京都,大田区,東馬込１丁目３８番１３号ブライトヒルズ馬込ＩＩ２０２,00141528,13,111,1430022,,,,,,,2025-11-14,1,,,,,ギブ,0
925,4010901058454,新規,0,2025-11-14,2025-11-14,株式会社ＴＳドリーム,,株式会社,東京都,世田谷区,等々力３丁目２２番２２号,,13,112,1580082,,,,,,,2025-11-14,1,,,,,ティーエスドリーム,0
934,4011001173508,新規,0,2025-11-14,2025-11-14,株式会社ｍｕｓｉｃ＆ｍｅ,,株式会社,東京都,渋谷区,渋谷２丁目１０番６号山田青山ビル３階,,13,113,1500002,,,,,,,2025-11-14,1,,,,,ミュージックアンドミー,0
935,4011001173722,新規,0,2025-11-14,2025-11-14,株式会社ネフリーティス,,株式会社,東京都,渋谷区,神南１丁目１１－４ＦＰＧリンクス神南５階,,13,113,1500041,,,,,,,2025-11-14,1,,,,,ネフリーティス,0
936,4011001173747,新規,0,2025-11-14,2025-11-14,株式会社Ｈｏｕｓｅｂａｎｋ,,株式会社,東京都,渋谷区,広尾４丁目１番９－３０２号,,13,113,1500012,,,,,,,2025-11-14,1,,,,,ハウスバンク,0
943,4011101113958,新規,0,2025-11-14,2025-11-14,株式会社ＡＣＴＩＶＡＴＯＲ,,株式会社,東京都,新宿区,新宿２丁目５番１５号小菅ビル６０１号室,,13,104,1600022,,,,,,,2025-11-14,1,,,,,アクティベイター,0
945,4011103016705,新規,0,2025-11-14,2025-11-14,合同会社ＡＵＮ,,合同会社,東京都,新宿区,四谷三栄町４番８号谷ケ崎ビル２階,00141520,13,104,1600008,,,,,,,2025-11-14,1,,,,,アウン,0
946,4011103016713,新規,0,2025-11-14,2025-11-14,合同会社花,,合同会社,東京都,新宿区,新宿５丁目１１番２０号伊土ビル３０３,00141538,13,104,1600022,,,,,,,2025-11-14,1,,,,,ハナ,0
951,4011301031051,新規,0,2025-11-14,2025-11-14,株式会社トニテツ,,株式会社,東京都,杉並区,成田東５丁目１５番２２号藤美荘２階７号室,,13,115,1660015,,,,,,,2025-11-14,1,,,,,トニテツ,0
953,4011403004938,新規,0,2025-11-14,2025-11-14,合同会社こねこね,,合同会社,東京都,板橋区,前野町５丁目５２番３号アネスタ前野１０１,,13,119,1740063,,,,,,,2025-11-14,1,,,,,コネコネ,0
958,4012401043820,新規,0,2025-11-14,2025-11-14,株式会社ボーノート,,株式会社,東京都,小金井市,本町６丁目５番３号シャトー小金井＃１０９,,13,210,1840004,,,,,,,2025-11-14,1,,,,,ボーノート,0
971,4020001165745,新規,0,2025-11-14,2025-11-14,株式会社ＵｎＦｒａｍｅ,,株式会社,神奈川県,川崎市宮前区,土橋２丁目７番地４ウェリス宮前平３０４,,14,136,2160005,,,,,,,2025-11-14,1,,,,,アンフレーム,0
975,4020005017034,新規,0,2025-11-14,2025-11-14,一般社団法人シングルファザー支援協会,,その他の設立登記法人,神奈川県,横浜市西区,北幸１丁目１１－１水信ビル７階,,14,103,2200004,,,,,,,2025-11-14,1,,,,,シングルファザーシエンキョウカイ,0
992,4030001169563,新規,0,2025-11-14,2025-11-14,株式会社ＲＥＢＯＯＴプロモーション,,株式会社,埼玉県,ふじみ野市,上福岡１丁目２番４号－Ｂ１階,,11,245,3560004,,,,,,,2025-11-14,1,,,,,リブートプロモーション,0
993,4030001169596,新規,0,2025-11-14,2025-11-14,株式会社Ａｑｕａ,,株式会社,埼玉県,川口市,南町２丁目４－２,,11,203,3320026,,,,,,,2025-11-14,1,,,,,アクア,0
994,4030001169670,新規,0,2025-11-14,2025-11-14,株式会社Ｈ３,,株式会社,埼玉県,ふじみ野市,亀久保１８００番地１,,11,245,3560051,,,,,,,2025-11-14,1,,,,,エイチスリー,0
995,4030001169679,新規,0,2025-11-14,2025-11-14,株式会社エムズサポート,,株式会社,埼玉県,越谷市,レイクタウン５丁目１８番地１０,,11,222,3430828,,,,,,,2025-11-14,1,,,,,エムズサポート,0
996,4030001169704,新規,0,2025-11-14,2025-11-14,株式会社ＮＥＸＵＳ,,株式会社,埼玉県,さいたま市大宮区,寿能町１丁目７５番２ー２０６号,,11,103,3300805,,,,,,,2025-11-14,1,,,,,ネクサス,0
997,4030001169712,新規,0,2025-11-14,2025-11-14,株式会社ニトーレ,,株式会社,埼玉県,戸田市,笹目８丁目１３番地の６,,11,224,3350034,,,,,,,2025-11-14,1,,,,,ニトーレ,0
998,4030001169720,新規,0,2025-11-14,2025-11-14,株式会社カウ,,株式会社,埼玉県,川越市,仙波町２丁目６－３４,,11,201,3500034,,,,,,,2025-11-14,1,,,,,カウ,0
999,4030003028049,新規,0,2025-11-14,2025-11-14,Ｒｏｓｅ．Ｆａｃｔ合同会社,,合同会社,埼玉県,入間市,大字新久８２０―１８３―７―６８,,11,225,3580031,,,,,,,2025-11-14,1,,,,,ローズファクト,0
1000,4030003028065,新規,0,2025-11-14,2025-11-14,合同会社綾音堂,,合同会社,埼玉県,朝霞市,岡２丁目１１番９－１１６号,,11,227,3510007,,,,,,,2025-11-14,1,,,,,アヤネドウ,0
1001,4030003028081,新規,0,2025-11-14,2025-11-14,ＵＳＨＡＮ　ＭＯＴＯＲＳ　ＪＡＰＡＮ合同会社,,合同会社,埼玉県,飯能市,本町１番１１号ＫＩＶオフィス飯能Ｂ号室,,11,209,3570032,,,,,,,2025-11-14,1,,,,,ユーシャンモーターズジャパン,0
1002,4030005022339,新規,0,2025-11-14,2025-11-14,医療法人社団かみぐちクリニック,,その他の設立登記法人,埼玉県,三郷市,上口１丁目２番地３,,11,237,3410055,,,,,,,2025-11-14,1,,,,,カミグチクリニック,0
1010,4050003009749,新規,0,2025-11-14,2025-11-14,合同会社Ｐ‐ＵＰ,,合同会社,茨城県,取手市,取手２丁目３番１９号,,08,217,3020004,,,,,,,2025-11-14,1,,,,,ピーアップ,0
1011,4060001038765,新規,0,2025-11-14,2025-11-14,株式会社あずみ産業,,株式会社,栃木県,佐野市,山形町２９４番地３,,09,204,3270324,,,,,,,2025-11-14,1,,,,,アズミサンギョウ,0
1012,4060001038773,新規,0,2025-11-14,2025-11-14,株式会社しらさぎ設備,,株式会社,栃木県,河内郡上三川町,大字多功１１６４番地１,,09,301,3290524,,,,,,,2025-11-14,1,,,,,シラサギセツビ,0
1015,4070001043558,新規,0,2025-11-14,2025-11-14,株式会社ＨＡＲＯ．,,株式会社,群馬県,伊勢崎市,曲輪町１４番２３号,,10,204,3720055,,,,,,,2025-11-14,1,,,,,ハロ,0
1020,4080403005394,新規,0,2025-11-14,2025-11-14,合同会社ＩＲＯＫＵＲＥ　ＬＡＢ,,合同会社,静岡県,浜松市浜名区,三ヶ日町三ヶ日５５１番地,,22,139,4311414,,,,,,,2025-11-14,1,,,,,イロクレラボ,0
1022,4100001039123,新規,0,2025-11-14,2025-11-14,株式会社６０６１,,株式会社,長野県,安曇野市,穂高６０６１番地,,20,220,3998303,,,,,,,2025-11-14,1,,,,,ロクゼロロクイチ,0
1024,4100005013421,新規,0,2025-11-14,2025-11-14,ＮＰＯ法人信州水力発電開発活用センター,,その他の設立登記法人,長野県,長野市,大字栗田２０２９番地,,20,201,3800921,,,,,,,2025-11-14,1,,,,,シンシュウスイリョクハツデンカイハツカツヨウセンター,0
1026,4110001039709,新規,0,2025-11-14,2025-11-14,株式会社フジックス,,株式会社,新潟県,新発田市,敦賀４２４番地１,,15,206,9570355,,,,,,,2025-11-14,1,,,,,フジックス,0
1038,4120001281879,新規,0,2025-11-14,2025-11-14,株式会社ｓｕｎ,,株式会社,大阪府,大阪市鶴見区,横堤１丁目１１番１－５０６号,,27,124,5380052,,,,,,,2025-11-14,1,,,,,サン,0
1039,4120001281912,新規,0,2025-11-14,2025-11-14,株式会社ＮＣ不動産販売,,株式会社,大阪府,大阪市生野区,小路東２丁目１０番２号リヴェール小路１０２号,,27,116,5440003,,,,,,,2025-11-14,1,,,,,エヌシーフドウサンハンバイ,0
1040,4120001281961,新規,0,2025-11-14,2025-11-14,ＬＩＢＥＲ株式会社,,株式会社,大阪府,大阪市北区,梅田１丁目１２番６号梅田Ｅ－ｍａ地下２階,,27,127,5300001,,,,,,,2025-11-14,1,,,,,リベル,0
1041,4120001282010,新規,0,2025-11-14,2025-11-14,株式会社ネクスト,,株式会社,大阪府,大阪市中央区,東心斎橋１丁目１５番２１－５０３号,,27,128,5420083,,,,,,,2025-11-14,1,,,,,ネクスト,0
1044,4120003031225,新規,0,2025-11-14,2025-11-14,合同会社ｒｅｌａｔｉｏｎｓｈｉｐ,,合同会社,大阪府,大阪市中央区,南船場３丁目２番２２号おおきに南船場ビル２０５,,27,128,5420081,,,,,,,2025-11-14,1,,,,,リレーションシップ,0
1045,4120003031233,新規,0,2025-11-14,2025-11-14,合同会社リーベル,,合同会社,大阪府,大阪市鶴見区,横堤２丁目６番３１号,,27,124,5380052,,,,,,,2025-11-14,1,,,,,リーベル,0
1048,4120005025233,新規,0,2025-11-14,2025-11-14,一般社団法人ＪＥＭＳ　Ｊａｐａｎ,,その他の設立登記法人,大阪府,大阪市都島区,中野町５丁目６番２号,,27,102,5340027,,,,,,,2025-11-14,1,,,,,ジェムズジャパン,0
1058,4130001080974,新規,0,2025-11-14,2025-11-14,株式会社ＥＡＳＴＢＯＵＮＤ,,株式会社,京都府,京都市左京区,仁王門通新高倉東入北門前町５０１－４三越仁王門ビル３階３０１号室,,26,103,6068352,,,,,,,2025-11-14,1,,,,,イーストバウンド,0
1059,4130003010913,新規,0,2025-11-14,2025-11-14,リスタン合同会社,,合同会社,京都府,宮津市,字鶴賀２０６０番地の１７,,26,205,6260041,,,,,,,2025-11-14,1,,,,,リスタン,0
1064,4140001140728,新規,0,2025-11-14,2025-11-14,株式会社ａｉｌｅ,,株式会社,兵庫県,高砂市,伊保３丁目１８－７,,28,216,6760078,,,,,,,2025-11-14,1,,,,,エール,0
1067,4140005027698,新規,0,2025-11-14,2025-11-14,一般社団法人量子波動ヒーリング協会,,その他の設立登記法人,兵庫県,芦屋市,大原町１１番２４号,,28,206,6590092,,,,,,,2025-11-14,1,,,,,リョウシハドウヒーリングキョウカイ,0
1071,4160001027221,新規,0,2025-11-14,2025-11-14,株式会社ジェイスピリッツ,,株式会社,滋賀県,近江八幡市,鷹飼町北３丁目８番地７,,25,204,5230896,,,,,,,2025-11-14,1,,,,,ジェイスピリッツ,0
1073,4170001018871,新規,0,2025-11-14,2025-11-14,株式会社鳳井組,,株式会社,和歌山県,和歌山市,福島７７７番地ラ・レユシイル２０１号,,30,201,6408401,,,,,,,2025-11-14,1,,,,,トリイグミ,0
1082,4180001169490,新規,0,2025-11-14,2025-11-14,藤健株式会社,,株式会社,愛知県,名古屋市中区,栄５丁目７番６号２階,,23,106,4600008,,,,,,,2025-11-14,1,,,,,フジケン,0
1083,4180001169499,新規,0,2025-11-14,2025-11-14,株式会社Ｆａｖｏｒ,,株式会社,愛知県,名古屋市中村区,名駅３丁目４番１０号アルティメイト名駅１ｓｔ２階,,23,105,4500002,,,,,,,2025-11-14,1,,,,,エフエーブイオーアール,0
1084,4180001169516,新規,0,2025-11-14,2025-11-14,株式会社Ｃａｍｐａｎａ,,株式会社,愛知県,名古屋市中区,大須４丁目１番４３号,,23,106,4600011,,,,,,,2025-11-14,1,,,,,カンパーナ,0
1085,4180001169524,新規,0,2025-11-14,2025-11-14,ＭＡＧＮＥＴＳ株式会社,,株式会社,愛知県,名古屋市緑区,西神の倉１丁目５０２番地,,23,114,4580809,,,,,,,2025-11-14,1,,,,,マグネッツ,0
1086,4180001169532,新規,0,2025-11-14,2025-11-14,ミズノコーポレーション株式会社,,株式会社,愛知県,一宮市,浅井町西海戸字東屋敷２１番地,,23,203,4910115,,,,,,,2025-11-14,1,,,,,ミズノコーポレーション,0
1087,4180001169557,新規,0,2025-11-14,2025-11-14,株式会社Ｉ．Ｃ．Ｓ．,,株式会社,愛知県,名古屋市東区,白壁１丁目２６番地,,23,102,4610011,,,,,,,2025-11-14,1,,,,,アイシーエス,0
1093,4180301040434,新規,0,2025-11-14,2025-11-14,株式会社兵藤ファーム,,株式会社,愛知県,安城市,和泉町南本郷２２４番地,,23,212,4441221,,,,,,,2025-11-14,1,,,,,,0
1096,4200003007134,新規,0,2025-11-14,2025-11-14,合同会社ａｍｉ,,合同会社,岐阜県,美濃加茂市,太田本町４丁目１０番６号,,21,211,5050042,,,,,,,2025-11-14,1,,,,,アミ,0
1108,4240001065782,新規,0,2025-11-14,2025-11-14,株式会社ＳＪ,,株式会社,広島県,広島市安佐南区,西原４丁目１４番１２－１１０２号,,34,105,7310113,,,,,,,2025-11-14,1,,,,,エスジェイ,0
1112,4260001040742,新規,0,2025-11-14,2025-11-14,ＡＵＲ株式会社,,株式会社,岡山県,岡山市北区,奥田西町９番９号,,33,101,7000931,,,,,,,2025-11-14,1,,,,,オール,0
1116,4280001009546,新規,0,2025-11-14,2025-11-14,株式会社英真電工,,株式会社,島根県,出雲市,斐川町荘原３８４３番地,,32,203,6990502,,,,,,,2025-11-14,1,,,,,エマデンコウ,0
1128,4290001112092,新規,0,2025-11-14,2025-11-14,株式会社ＳＯＩＧＩ,,株式会社,福岡県,福岡市中央区,大名１丁目４番３５－７０１号,,40,133,8100041,,,,,,,2025-11-14,1,,,,,ソイギ,0
1133,4290801032036,新規,0,2025-11-14,2025-11-14,株式会社ラマンド社,,株式会社,福岡県,北九州市八幡西区,上の原２丁目９番１２号,,40,109,8070071,,,,,,,2025-11-14,1,,,,,ラマンドシャ,0
1137,4310001019855,新規,0,2025-11-14,2025-11-14,株式会社日昇ストレージアセット,,株式会社,長崎県,長崎市,丸山町３番１４号,,42,201,8500902,,,,,,,2025-11-14,1,,,,,ニッショウストレージアセット,0
1139,4330001033747,新規,0,2025-11-14,2025-11-14,株式会社陽太,,株式会社,熊本県,熊本市南区,海路口町２５８７番地,,43,104,8614124,,,,,,,2025-11-14,1,,,,,ヒナタ,0
1143,4330003011321,新規,0,2025-11-14,2025-11-14,合同会社ｎａｎａｃｒａｆｔ,,合同会社,熊本県,熊本市北区,麻生田４丁目２－４０,,43,105,8618081,,,,,,,2025-11-14,1,,,,,ナナクラフト,0
1153,4380001035697,新規,0,2025-11-14,2025-11-14,東和ネクサス株式会社,,株式会社,福島県,東白川郡塙町,大字西河内字上福沢１番地５,,07,483,9635407,,,,,,,2025-11-14,1,,,,,トウワネクサス,0
1156,4390001018156,新規,0,2025-11-14,2025-11-14,株式会社ベニスプ,,株式会社,山形県,鶴岡市,日和田町２１番２０号,,06,203,9970016,,,,,,,2025-11-14,1,,,,,ベニスプ,0
1167,4490005007013,新規,0,2025-11-14,2025-11-14,一般社団法人幡多教職員組合,,その他の設立登記法人,高知県,四万十市,右山元町２丁目２番４８号,,39,210,7870011,,,,,,,2025-11-14,1,,,,,ハタキョウショクインクミアイ,0
1177,5010001260125,新規,0,2025-11-14,2025-11-14,ＷＤ‐４０Ｊａｐａｎ株式会社,,株式会社,東京都,中央区,日本橋室町４丁目３番９号,,13,102,1030022,,,,,,,2025-11-14,1,,,,,ダブリュディーフォーティージャパン,0
1178,5010001260190,新規,0,2025-11-14,2025-11-14,ほそみちキャピタル株式会社,,株式会社,東京都,中央区,日本橋浜町３丁目１９番１０－１３０２号,,13,102,1030007,,,,,,,2025-11-14,1,,,,,ホソミチキャピアル,0
1179,5010001260199,新規,0,2025-11-14,2025-11-14,株式会社さすが,,株式会社,東京都,千代田区,神田神保町３丁目１１番６号神保町ビル１０階,,13,101,1010051,,,,,,,2025-11-14,1,,,,,サスガ,0
1180,5010001260364,新規,0,2025-11-14,2025-11-14,コラー・キャピタル・ジャパン株式会社,,株式会社,東京都,千代田区,丸の内１丁目９番２号グラントウキョウサウスタワー９階,,13,101,1000005,,,,,,,2025-11-14,1,,,,,コラーキャピタルジャパン,0
1183,5010003049319,新規,0,2025-11-14,2025-11-14,合同会社鮨こばやし,,合同会社,東京都,中央区,銀座８丁目２－１０銀座誠和シルバービル１階,,13,102,1040061,,,,,,,2025-11-14,1,,,,,スシコバヤシ,0
1184,5010003049376,新規,0,2025-11-14,2025-11-14,合同会社エスエフレジ２,,合同会社,東京都,千代田区,霞が関３丁目２番５号,,13,101,1000013,,,,,,,2025-11-14,1,,,,,エスエフレジツー,0
1189,5010103002697,新規,0,2025-11-14,2025-11-14,合同会社インヴェストエー,,合同会社,東京都,八王子市,長房町２３４番２号,,13,201,1930824,,,,,,,2025-11-14,1,,,,,インヴェストエー,0
1193,5010401194385,新規,0,2025-11-14,2025-11-14,株式会社マタイ,,株式会社,東京都,港区,南麻布４丁目９番２２号,,13,103,1060047,,,,,,,2025-11-14,1,,,,,マタイ,0
1194,5010401194501,新規,0,2025-11-14,2025-11-14,株式会社エムティークラウド,,株式会社,東京都,港区,南青山３丁目１番３６号青山丸竹ビル６Ｆ,,13,103,1070062,,,,,,,2025-11-14,1,,,,,エムティークラウド,0
1196,5010405024885,新規,0,2025-11-14,2025-11-14,一般社団法人生命尊重政策機構,,その他の設立登記法人,東京都,港区,南青山２丁目２番地１５号ウィン青山１３０１号,,13,103,1070062,,,,,,,2025-11-14,1,,,,,セイメイソンチョウセイサクキコウ,0
1197,5010405025017,新規,0,2025-11-14,2025-11-14,住吉レジデンシャルホールディング２一般社団法人,,その他の設立登記法人,東京都,港区,虎ノ門３丁目２２番１０－２０１号,,13,103,1050001,,,,,,,2025-11-14,1,,,,,スミヨシレジデンシャルホールディングツー,0
1201,5010601068257,新規,0,2025-11-14,2025-11-14,株式会社ＳｅｏｕｌＢｅａｕｔｙＬａｂ,,株式会社,東京都,江東区,塩浜２丁目５番１－４１８号,,13,108,1350043,,,,,,,2025-11-14,1,,,,,ソウルビューティーラボ,0
1202,5010601068265,新規,0,2025-11-14,2025-11-14,エックスボード株式会社,,株式会社,東京都,墨田区,亀沢２丁目１７番３－４０７号,,13,107,1300014,,,,,,,2025-11-14,1,,,,,エックスボード,0
1226,5011001173449,新規,0,2025-11-14,2025-11-14,ＭＩＲＵＵＭ株式会社,,株式会社,東京都,渋谷区,道玄坂１丁目１０番８号渋谷道玄坂東急ビル２Ｆ－Ｃ,,13,113,1500043,,,,,,,2025-11-14,1,,,,,,0
1227,5011001173556,新規,0,2025-11-14,2025-11-14,株式会社Ｙ　Ｓｔｕｄｉｏ,,株式会社,東京都,渋谷区,東４丁目７番４－３０１号,,13,113,1500011,,,,,,,2025-11-14,1,,,,,ワイスタジオ,0
1228,5011001173564,新規,0,2025-11-14,2025-11-14,株式会社ＷＡｂｌｅ,,株式会社,東京都,渋谷区,道玄坂１丁目１０番８号渋谷道玄坂東急ビル２Ｆ－Ｃ,,13,113,1500043,,,,,,,2025-11-14,1,,,,,ウェーブル,0
1232,5011101113908,新規,0,2025-11-14,2025-11-14,ＫＡＩＳＥＲ　ＡＮＩＭＡＴＩＯＮ株式会社,,株式会社,東京都,新宿区,西新宿７丁目４番７号第一太田ビル３Ｆ,,13,104,1600023,,,,,,,2025-11-14,1,,,,,カイザーアニメーション,0
1233,5011101113957,新規,0,2025-11-14,2025-11-14,株式会社建人,,株式会社,東京都,新宿区,西新宿３丁目３番１３号西新宿水間ビル６階,,13,104,1600023,,,,,,,2025-11-14,1,,,,,ケント,0
1234,5011101113965,新規,0,2025-11-14,2025-11-14,石井薬品株式会社,,株式会社,東京都,新宿区,西新宿３丁目３番１３号西新宿水間ビル６階,,13,104,1600023,,,,,,,2025-11-14,1,,,,,イシイヤクヒン,0
1235,5011101113973,新規,0,2025-11-14,2025-11-14,株式会社ＳＫ　Ｇｒｏｕｐ,,株式会社,東京都,新宿区,歌舞伎町１丁目２３番１５号ＳＵＺＵＹＡビル４階,,13,104,1600021,,,,,,,2025-11-14,1,,,,,エスケーグループ,0
1236,5011103016662,新規,0,2025-11-14,2025-11-14,合同会社ＵＲＢＡＮ　Ｕ,,合同会社,東京都,新宿区,新宿３丁目１２番４号新宿Ｎタウンプラザ３０９号,,13,104,1600022,,,,,,,2025-11-14,1,,,,,アーバンユー,0
1237,5011105011661,新規,0,2025-11-14,2025-11-14,一般財団法人室瀬漆文化財団,,その他の設立登記法人,東京都,新宿区,下落合４丁目２２番１１号,,13,104,1610033,,,,,,,2025-11-14,1,,,,,ムロセウルシブンカザイダン,0
1251,5012301014598,新規,0,2025-11-14,2025-11-14,株式会社ＰＲＯＬＩＸ,,株式会社,東京都,町田市,中町２丁目２１－８,,13,209,1940021,,,,,,,2025-11-14,1,,,,,プロリックス,0
1256,5012801024345,新規,0,2025-11-14,2025-11-14,Ｆｒｅｖｉａ株式会社,,株式会社,東京都,日野市,三沢４丁目１９番１号,,13,212,1910032,,,,,,,2025-11-14,1,,,,,フレビア,0
1260,5013301055293,新規,0,2025-11-14,2025-11-14,株式会社Ｏｒｉｇｉｎ　Ｌｉｎｋ,,株式会社,東京都,豊島区,南池袋１丁目２１番５号第７野萩ビルＢ１Ｆ,,13,116,1710022,,,,,,,2025-11-14,1,,,,,オリジンリンク,0
1261,5013301055310,新規,0,2025-11-14,2025-11-14,株式会社リループ,,株式会社,東京都,豊島区,東池袋１丁目３６番７号,,13,116,1700013,,,,,,,2025-11-14,1,,,,,リループ,0
1269,5020001165505,新規,0,2025-11-14,2025-11-14,株式会社バンブーフライ,,株式会社,神奈川県,川崎市麻生区,下麻生１丁目３２番３７号,,14,137,2150022,,,,,,,2025-11-14,1,,,,,バンブーフライ,0
1270,5020001165810,新規,0,2025-11-14,2025-11-14,株式会社よしの,,株式会社,神奈川県,横浜市西区,高島２丁目５番１２号横浜ＤＫビル２階２０２号室,,14,103,2200011,,,,,,,2025-11-14,1,,,,,ヨシノ,0
1285,5030001169653,新規,0,2025-11-14,2025-11-14,株式会社Ｆｒａｎｋ,,株式会社,埼玉県,戸田市,美女木３丁目１１番地の１－２０２号,,11,224,3350031,,,,,,,2025-11-14,1,,,,,フランク,0
1286,5030001169686,新規,0,2025-11-14,2025-11-14,中大力徳日本智能伝動株式会社,,株式会社,埼玉県,川越市,大字今福１４４３番地１,,11,201,3501151,,,,,,,2025-11-14,1,,,,,チュウダイリキトクニホンチノウデンドウ,0
1287,5030001169694,新規,0,2025-11-14,2025-11-14,株式会社フード・デッサン,,株式会社,埼玉県,ふじみ野市,大原２丁目１番Ｂ－７１２号,,11,245,3560003,,,,,,,2025-11-14,1,,,,,フードデッサン,0
1288,5030001169728,新規,0,2025-11-14,2025-11-14,ライフカラー株式会社,,株式会社,埼玉県,和光市,白子１丁目２９番４５号,,11,229,3510101,,,,,,,2025-11-14,1,,,,,ライフカラー,0
1289,5030001169736,新規,0,2025-11-14,2025-11-14,株式会社Ｍｓｔｒ．,,株式会社,埼玉県,さいたま市中央区,上落合３丁目２番６号,,11,105,3380001,,,,,,,2025-11-14,1,,,,,マスター,0
1296,5030003028031,新規,0,2025-11-14,2025-11-14,合同会社サントル,,合同会社,埼玉県,三郷市,早稲田６丁目３２－３５,,11,237,3410018,,,,,,,2025-11-14,1,,,,,サントル,0
1297,5030003028072,新規,0,2025-11-14,2025-11-14,合同会社Ｄａｎｋｅ,,合同会社,埼玉県,ふじみ野市,霞ケ丘２丁目１番５号,,11,245,3560006,,,,,,,2025-11-14,1,,,,,ダンケ,0
1298,5030003028080,新規,0,2025-11-14,2025-11-14,合同会社ｂｏｎｄ,,合同会社,埼玉県,朝霞市,溝沼３丁目６番７号,,11,227,3510023,,,,,,,2025-11-14,1,,,,,ボンド,0
1299,5030003028097,新規,0,2025-11-14,2025-11-14,合同会社Ｇｌｏｗ　Ｂｒａｖｅ,,合同会社,埼玉県,さいたま市見沼区,島町２丁目７－４６,,11,104,3370006,,,,,,,2025-11-14,1,,,,,グロウブレイブ,0
1304,5040001141339,新規,0,2025-11-14,2025-11-14,株式会社ＣＤＬ,,株式会社,千葉県,市川市,本北方２丁目６番５号,,12,203,2720816,,,,,,,2025-11-14,1,,,,,シーディーエル,0
1309,5050001057583,新規,0,2025-11-14,2025-11-14,株式会社ｓｉｎｃｅｒｉｔｙ,,株式会社,茨城県,守谷市,御所ケ丘５丁目２２番地１１,,08,224,3020119,,,,,,,2025-11-14,1,,,,,シンセリティ,0
1310,5050001057591,新規,0,2025-11-14,2025-11-14,株式会社アフロディス,,株式会社,茨城県,守谷市,松ケ丘７丁目１番地５,,08,224,3020127,,,,,,,2025-11-14,1,,,,,アフロディス,0
1312,5050003009764,新規,0,2025-11-14,2025-11-14,合同会社Ｎ．Ｈカンパニー,,合同会社,茨城県,筑西市,女方６１番地６６,,08,227,3080854,,,,,,,2025-11-14,1,,,,,エヌエイチカンパニー,0
1317,5070001043557,新規,0,2025-11-14,2025-11-14,株式会社ＬＵＣＫＹＦＩＥＬＤ‐ＷｉｔｈＰｌｕｓ,,株式会社,群馬県,前橋市,大利根町２丁目２６番地８,,10,201,3710825,,,,,,,2025-11-14,1,,,,,ラッキーフィールドウィズプラス,0
1318,5080005007739,新規,0,2025-11-14,2025-11-14,一般社団法人ｋｏｅｎｏｗａ声の輪,,その他の設立登記法人,静岡県,藤枝市,田中１丁目１２番１１号,,22,214,4260012,,,,,,,2025-11-14,1,,,,,コエノワ,0
1322,5080403005393,新規,0,2025-11-14,2025-11-14,モーターデザイン合同会社,,合同会社,静岡県,掛川市,大渕７９５０番地,,22,213,4371302,,,,,,,2025-11-14,1,,,,,モーターデザイン,0
1324,5090003002930,新規,0,2025-11-14,2025-11-14,合同会社マッピーライフ,,合同会社,山梨県,甲府市,下小河原町２４８－１グレイスリー下小河原Ｇ,,19,201,4000853,,,,,,,2025-11-14,1,,,,,マッピーライフ,0
1326,5100001039114,新規,0,2025-11-14,2025-11-14,デザイン信州株式会社,,株式会社,長野県,松本市,大字島内３１４番地,,20,202,3900851,,,,,,,2025-11-14,1,,,,,デザインシンシュウ,0
1327,5110001039732,新規,0,2025-11-14,2025-11-14,株式会社シスネーテス,,株式会社,新潟県,新潟市中央区,笹口１丁目２番,,15,103,9500911,,,,,,,2025-11-14,1,,,,,シスネーテス,0
1330,5110003005971,新規,0,2025-11-14,2025-11-14,合同会社こばやし農園,,合同会社,新潟県,三条市,上須頃２６０７,,15,204,9550091,,,,,,,2025-11-14,1,,,,,コバヤシノウエン,0
1358,5120001281944,新規,0,2025-11-14,2025-11-14,金鑼株式会社,,株式会社,大阪府,大阪市東淀川区,菅原４丁目１１－２１ビスタ新庄ハイツＩＩＩ７０７室,00141544,27,114,5330022,,,,,,,2025-11-14,1,,,,,キンラ,0
1359,5120001281960,新規,0,2025-11-14,2025-11-14,株式会社Ａｓｕｃｒｅａｔｅ,,株式会社,大阪府,大阪市北区,梅田１丁目１２番６号梅田Ｅ－ｍａ地下２階,,27,127,5300001,,,,,,,2025-11-14,1,,,,,アスクリエイト,0
1360,5120001282001,新規,0,2025-11-14,2025-11-14,株式会社シンサコッケダンＪＡＰＡＮ,,株式会社,大阪府,大阪市北区,兎我野町５番１２号梅田グリーンビル４０５,,27,127,5300056,,,,,,,2025-11-14,1,,,,,シンサコッケダンジャパン,0
1364,5120003031240,新規,0,2025-11-14,2025-11-14,合同会社ＦＴ企画,,合同会社,大阪府,大阪市北区,豊崎１丁目１２番１３－５０４号,,27,127,5310072,,,,,,,2025-11-14,1,,,,,エフティーキカク,0
1378,5122001039868,新規,0,2025-11-14,2025-11-14,株式会社土天海冥,,株式会社,大阪府,東大阪市,岩田町６丁目６番１－５０４号,,27,227,5780941,,,,,,,2025-11-14,1,,,,,ドッテンカイメイ,0
1379,5122001039884,新規,0,2025-11-14,2025-11-14,株式会社Ｇｒａｎｄ　Ｃｏｒｅ,,株式会社,大阪府,八尾市,八尾木東３丁目３７番地の１２５,,27,212,5810028,,,,,,,2025-11-14,1,,,,,グランドコア,0
1386,5140001140818,新規,0,2025-11-14,2025-11-14,ジャパン‐ナビ‐メディカル株式会社,,株式会社,兵庫県,神戸市兵庫区,入江通１丁目２番２５号,,28,105,6520894,,,,,,,2025-11-14,1,,,,,ジャパンナビメディカル,0
1389,5150003003749,新規,0,2025-11-14,2025-11-14,宙の便ＣＯＣＯＲＯ舎合同会社,,合同会社,奈良県,奈良市,京終地方東側町４番地の７ローレルコート奈良南６０８号,,29,201,6308323,,,,,,,2025-11-14,1,,,,,ソラノタヨリココロシャ,0
1391,5160001027229,新規,0,2025-11-14,2025-11-14,Ｏｎｅ　Ｌａｋｅ株式会社,,株式会社,滋賀県,近江八幡市,中小森町６６２番地１（２０３号）,,25,204,5230041,,,,,,,2025-11-14,1,,,,,ワンレイク,0
1401,5180001169498,新規,0,2025-11-14,2025-11-14,株式会社Ｂｅ　Ｃｏｎｃｅｐｔ,,株式会社,愛知県,名古屋市中区,栄３丁目１１番１６号ＳＯＫ住吉ビル２Ｆ,,23,106,4600008,,,,,,,2025-11-14,1,,,,,ビーコンセプト,0
1402,5180001169515,新規,0,2025-11-14,2025-11-14,株式会社ＡＭＡＮＯ,,株式会社,愛知県,春日井市,田楽町１６５３番地１,,23,206,4860808,,,,,,,2025-11-14,1,,,,,アマノ,0
1403,5180001169523,新規,0,2025-11-14,2025-11-14,株式会社エルディーケープラス,,株式会社,愛知県,名古屋市東区,東桜１丁目５番１０号Ｕレジデンス東桜１２０３,,23,102,4610005,,,,,,,2025-11-14,1,,,,,エルディーケープラス,0
1404,5180001169531,新規,0,2025-11-14,2025-11-14,株式会社クーリエ,,株式会社,愛知県,名古屋市中区,丸の内１丁目１４番２４号ライオンズビル第二丸の内３０１,,23,106,4600002,,,,,,,2025-11-14,1,,,,,クーリエ,0
1405,5180001169556,新規,0,2025-11-14,2025-11-14,Ｏａｓｉｓ　Ｎｅｘｕｓ株式会社,,株式会社,愛知県,名古屋市北区,大蔵町１５番地,,23,103,4620858,,,,,,,2025-11-14,1,,,,,オアシスネクサス,0
1411,5180301040433,新規,0,2025-11-14,2025-11-14,株式会社Ｕ‐ＦＩＲＳＴ,,株式会社,愛知県,額田郡幸田町,大字久保田字上ノ山２７番地９,,23,501,4440102,,,,,,,2025-11-14,1,,,,,ユーファースト,0
1412,5180303006804,新規,0,2025-11-14,2025-11-14,合同会社ａ．ｇｆｉ,,合同会社,愛知県,岡崎市,康生通西３丁目１５番地２,,23,202,4440059,,,,,,,2025-11-14,1,,,,,アグフィ,0
1413,5190001032696,新規,0,2025-11-14,2025-11-14,株式会社ＨＯＴ　ＣＡＴ,,株式会社,三重県,鈴鹿市,須賀３丁目１３‐２７,,24,207,5130034,,,,,,,2025-11-14,1,,,,,ホットキャット,0
1415,5200005013815,新規,0,2025-11-14,2025-11-14,特定非営利活動法人里山クラブ可児,,その他の設立登記法人,岐阜県,可児市,久々利字大岩２７００－１－１,,21,214,5090224,,,,,,,2025-11-14,1,,,,,サトヤマクラブカニ,0
1424,5240001065798,新規,0,2025-11-14,2025-11-14,株式会社山工プラス,,株式会社,広島県,広島市安佐南区,緑井７丁目２７番９－８号,,34,105,7310103,,,,,,,2025-11-14,1,,,,,ヤマコウプラス,0
1429,5250001021420,新規,0,2025-11-14,2025-11-14,株式会社ＳＮＲＳ０１,,株式会社,山口県,周南市,中央町２番３号,,35,215,7460016,,,,,,,2025-11-14,1,,,,,エスエヌアールエスゼロイチ,0
1450,5290003017685,新規,0,2025-11-14,2025-11-14,楠エナジー合同会社,,合同会社,福岡県,福岡市博多区,博多駅前１丁目２３番２号ＰａｒｋＦｒｏｎｔ博多駅前１丁目５Ｆ－Ｂ,,40,132,8120011,,,,,,,2025-11-14,1,,,,,クスノキエナジー,0
1451,5290003017702,新規,0,2025-11-14,2025-11-14,合同会社ヘルパーステーション集楽,,合同会社,福岡県,福岡市南区,野間３丁目２番地５－３０３号,,40,134,8150041,,,,,,,2025-11-14,1,,,,,ヘルパーステーションシュウラク,0
1452,5290003017719,新規,0,2025-11-14,2025-11-14,ｍ．ｄｏｔ．ｄｅｓｉｇｎ合同会社,,合同会社,福岡県,福岡市中央区,天神２丁目２番１２号Ｔ＆Ｊビルディング７Ｆ,,40,133,8100001,,,,,,,2025-11-14,1,,,,,エムドットデザイン,0
1454,5290801032035,新規,0,2025-11-14,2025-11-14,株式会社建彰,,株式会社,福岡県,北九州市若松区,高須北１丁目２番１７号,,40,103,8080147,,,,,,,2025-11-14,1,,,,,ケンショウ,0
1457,5320001021438,新規,0,2025-11-14,2025-11-14,株式会社ＭｅｔａＥａｒｔｈＯＩＴＡ,,株式会社,大分県,中津市,大字島田３５２番地の７,,44,203,8710033,,,,,,,2025-11-14,1,,,,,メタアースオオイタ,0
1458,5330001033754,新規,0,2025-11-14,2025-11-14,株式会社とんぼ企画,,株式会社,熊本県,熊本市東区,長嶺南５丁目１番４０号,,43,102,8618039,,,,,,,2025-11-14,1,,,,,トンボキカク,0
1459,5330003011312,新規,0,2025-11-14,2025-11-14,熊本特殊重機合同会社,,合同会社,熊本県,阿蘇郡南阿蘇村,大字一関１３０２番７,,43,433,8691504,,,,,,,2025-11-14,1,,,,,クマモトトクシュジュウキ,0
1460,5330003011320,新規,0,2025-11-14,2025-11-14,合同会社Ｌｕｍｉｎｅａ,,合同会社,熊本県,熊本市東区,尾ノ上１丁目４４番２２号エステー薬品ビル１０３,,43,102,8620913,,,,,,,2025-11-14,1,,,,,ルミネア,0
1466,5360001036011,新規,0,2025-11-14,2025-11-14,株式会社ベルクール沖縄,,株式会社,沖縄県,浦添市,勢理客４丁目１５－１５号,,47,208,9012122,,,,,,,2025-11-14,1,,,,,ベルクールオキナワ,0
1467,5360001036028,新規,0,2025-11-14,2025-11-14,太陽工業株式会社,,株式会社,沖縄県,那覇市,宇栄原２丁目８番２３号赤嶺新栄店舗２０１,,47,201,9010153,,,,,,,2025-11-14,1,,,,,タイヨウコウギョウ,0
1470,5360003015401,新規,0,2025-11-14,2025-11-14,ＨＩＲＡＯＫＡ合同会社,,合同会社,沖縄県,宜野湾市,伊佐３丁目２９番２－３０８号リバーサイドマンション伊佐,,47,205,9012221,,,,,,,2025-11-14,1,,,,,ヒラオカ,0
1472,5370001053237,新規,0,2025-11-14,2025-11-14,藍青株式会社,,株式会社,宮城県,多賀城市,留ケ谷１丁目１７番１５号,,04,209,9850871,,,,,,,2025-11-14,1,,,,,ランジョウ,0
1475,5380001035696,新規,0,2025-11-14,2025-11-14,株式会社みくに,,株式会社,福島県,石川郡古殿町,大字竹貫字古町２６番地,,07,505,9638305,,,,,,,2025-11-14,1,,,,,ミクニ,0
1482,5430001095677,新規,0,2025-11-14,2025-11-14,株式会社４ＯＲＣＥ,,株式会社,北海道,札幌市東区,北三十条東６丁目２番１８－１１３号,,01,103,0650030,,,,,,,2025-11-14,1,,,,,フォース,0
1497,5500005008834,新規,0,2025-11-14,2025-11-14,特定非営利活動法人まさき生徒会,,その他の設立登記法人,愛媛県,伊予郡松前町,大字筒井１５７３番地１,,38,401,7913120,,,,,,,2025-11-14,1,,,,,マサキセイトカイ,0
1498,5700150132939,新規,0,2025-11-14,2025-11-14,ＥｎｖｉｓｉｏｎＪＰＩＶＬｉｍｉｔｅｄ,,外国会社等,,,,,,,,英領バージン諸島トルトラ、ロードタウン、私書箱１１１０、アジア・リーディング・チェンバース,,,,,,2025-11-14,1,,,,,エンビジヨンジエイピーフオーリミテツド,0
1507,6010001260149,新規,0,2025-11-14,2025-11-14,株式会社ＫＩＲＡＣ　Ｒｅｓｅａｒｃｈ,,株式会社,東京都,千代田区,九段南１丁目５番６号りそな九段ビル５階ＫＳフロア,,13,101,1020074,,,,,,,2025-11-14,1,,,,,キラークリサーチ,0
1508,6010001260207,新規,0,2025-11-14,2025-11-14,株式会社Ｅｄｉｔ　ｏｆｆｉｃｅ,,株式会社,東京都,千代田区,三番町７番地１０ＮＫ麹町コータース４０６号,,13,101,1020075,,,,,,,2025-11-14,1,,,,,エディットオフィス,0
1512,6010003049152,新規,0,2025-11-14,2025-11-14,合同会社Ｌｉｓ　Ｌｉｅｎ,,合同会社,東京都,千代田区,飯田橋１丁目９番５号,,13,101,1020072,,,,,,,2025-11-14,1,,,,,リスリアン,0
1513,6010003049400,新規,0,2025-11-14,2025-11-14,日本橋アドバイザーズ合同会社,,合同会社,東京都,中央区,日本橋人形町３丁目１１－２,,13,102,1030013,,,,,,,2025-11-14,1,,,,,ニホンバシアドバイザーズ,0
1515,6010005040935,新規,0,2025-11-14,2025-11-14,一般社団法人ＢＩＭ標準情報活用協会,,その他の設立登記法人,東京都,文京区,湯島１丁目１番２号,,13,105,1130034,,,,,,,2025-11-14,1,,,,,ビムヒョウジュンジョウホウカツヨウキョウカイ,0
1516,6010005040951,新規,0,2025-11-14,2025-11-14,一般社団法人Ｓｔｒａｉｔ　Ｐ　ＩＳＨ,,その他の設立登記法人,東京都,中央区,新川１丁目１７番１８号,,13,102,1040033,,,,,,,2025-11-14,1,,,,,ストレイトピーアイエスエイチ,0
1517,6010101016962,新規,0,2025-11-14,2025-11-14,株式会社リバーワン,,株式会社,東京都,八王子市,大和田町１丁目２４番１１号,,13,201,1920045,,,,,,,2025-11-14,1,,,,,リバーワン,0
1518,6010103002696,新規,0,2025-11-14,2025-11-14,合同会社Ｂｅｓ　ｇｅｎｉｃ,,合同会社,東京都,八王子市,鑓水２丁目８６－１－１０１３,,13,201,1920375,,,,,,,2025-11-14,1,,,,,ベスジェニック,0
1524,6010401194483,新規,0,2025-11-14,2025-11-14,株式会社ＡＩ　Ｓｃｈｏｏｌ,,株式会社,東京都,港区,芝２丁目２番１２号５階,,13,103,1050014,,,,,,,2025-11-14,1,,,,,エーアイスクール,0
1525,6010401194517,新規,0,2025-11-14,2025-11-14,株式会社Ｔｒｉａｒｋ＆Ｃｏｍｐａｎｙ,,株式会社,東京都,港区,虎ノ門１丁目１６番６号虎ノ門ＲＡＰＯ－ＴＯビルＵＣＦ７階,,13,103,1050001,,,,,,,2025-11-14,1,,,,,トライアークアンドカンパニー,0
1528,6010405025016,新規,0,2025-11-14,2025-11-14,住吉レジデンシャルホールディング１一般社団法人,,その他の設立登記法人,東京都,港区,虎ノ門３丁目２２番１０－２０１号,,13,103,1050001,,,,,,,2025-11-14,1,,,,,スミヨシレジデンシャルホールディングワン,0
1533,6010601068264,新規,0,2025-11-14,2025-11-14,Ｂｅｎｊｉ＆Ｃｏ．株式会社,,株式会社,東京都,墨田区,業平２丁目１２番３号プティアムススカイツリー前１０２,,13,107,1300002,,,,,,,2025-11-14,1,,,,,ベンジーアンドコー,0
1534,6010601068280,新規,0,2025-11-14,2025-11-14,日本トロマツ株式会社,,株式会社,東京都,江東区,有明３丁目７番１１有明パークビル２０階,,13,108,1350063,,,,,,,2025-11-14,1,,,,,,0
1538,6010703007995,新規,0,2025-11-14,2025-11-14,合同会社ＳＨＩＮＭＥＩ　ＰＬＵＳ,,合同会社,東京都,品川区,小山台１丁目１５番４号,,13,109,1420061,,,,,,,2025-11-14,1,,,,,シンメイプラス,0
1542,6010901058469,新規,0,2025-11-14,2025-11-14,株式会社ＤＡＹＤＵ　ＨＯＵＳＥ,,株式会社,東京都,世田谷区,宮坂３丁目４番地５号ＫＴハウス１Ｆ,,13,112,1560051,,,,,,,2025-11-14,1,,,,,デイドゥーハウス,0
1543,6010903010403,新規,0,2025-11-14,2025-11-14,合同会社Ｌｉｂｒｏｗ,,合同会社,東京都,世田谷区,太子堂４丁目１８番１５号マガザン三軒茶屋２３Ｆ－３,,13,112,1540004,,,,,,,2025-11-14,1,,,,,リブロー,0
1551,6011101113997,新規,0,2025-11-14,2025-11-14,株式会社サンリーク,,株式会社,東京都,新宿区,西新宿６丁目１２番６号,,13,104,1600023,,,,,,,2025-11-14,1,,,,,サンリーク,0
1552,6011103016703,新規,0,2025-11-14,2025-11-14,合同会社Ｃｈｅｒｒｙ１,,合同会社,東京都,新宿区,四谷２丁目９番地１５東京ユナイテッド綜合事務所内,,13,104,1600004,,,,,,,2025-11-14,1,,,,,チェリーワン,0
1553,6011105011660,新規,0,2025-11-14,2025-11-14,一般社団法人日本系統蓄電所評価協会,,その他の設立登記法人,東京都,新宿区,片町６番１０－８０２号,,13,104,1600001,,,,,,,2025-11-14,1,,,,,ニホンケイトウチクデンショヒョウカキョウカイ,0
1556,6011401027575,新規,0,2025-11-14,2025-11-14,株式会社高工業,00141526,株式会社,東京都,板橋区,高島平７丁目１４番４号,,13,119,1750082,,,,,,,2025-11-14,1,,,,,タカコウギョウ,0
1559,6011701028934,新規,0,2025-11-14,2025-11-14,株式会社マスターアセット,,株式会社,東京都,江戸川区,篠崎町２丁目５４番２号セインティア２０２,,13,123,1330061,,,,,,,2025-11-14,1,,,,,マスターアセット,0
1562,6011801047058,新規,0,2025-11-14,2025-11-14,株式会社青井商事,,株式会社,東京都,足立区,東和２丁目３－３－１０１号,,13,121,1200003,,,,,,,2025-11-14,1,,,,,アオイショウジ,0
1567,6012303002245,新規,0,2025-11-14,2025-11-14,福田環境開発合同会社,,合同会社,東京都,町田市,成瀬が丘１丁目１７番地２,,13,209,1940011,,,,,,,2025-11-14,1,,,,,フクダカンキョウカイハツ,0
1568,6012403007417,新規,0,2025-11-14,2025-11-14,Ｓｉｒｅｎｔ　Ｍｏｕｎｔ合同会社,,合同会社,東京都,武蔵野市,境南町４丁目１４番４号恵林ハイツ２０３,,13,203,1800023,,,,,,,2025-11-14,1,,,,,サイレントマウント,0
1569,6012701019188,新規,0,2025-11-14,2025-11-14,月実不動産株式会社,,株式会社,東京都,小平市,学園東町３丁目４番７－６０３号,,13,211,1870043,,,,,,,2025-11-14,1,,,,,ツキミフドウサン,0
1575,6020001165504,新規,0,2025-11-14,2025-11-14,株式会社タイムマシーン,,株式会社,神奈川県,川崎市麻生区,下麻生１丁目３２番３７号,,14,137,2150022,,,,,,,2025-11-14,1,,,,,タイムマシーン,0
1576,6020001165578,新規,0,2025-11-14,2025-11-14,株式会社ｅｑｕａｌｉｆｅ,,株式会社,神奈川県,川崎市川崎区,駅前本町１１番地２川崎フロンティアビル４階,,14,131,2100007,,,,,,,2025-11-14,1,,,,,イークアライフ,0
1577,6020001165768,新規,0,2025-11-14,2025-11-14,株式会社サイコイノベーション,,株式会社,神奈川県,横浜市中区,本牧町１丁目９６番地クリオ横濱本牧２０２号,,14,104,2310806,,,,,,,2025-11-14,1,,,,,サイコイノベーション,0
1578,6020001165784,新規,0,2025-11-14,2025-11-14,株式会社ヒットエンドラン,,株式会社,神奈川県,川崎市多摩区,菅馬場３丁目３３番地,,14,135,2140004,,,,,,,2025-11-14,1,,,,,ヒットエンドラン,0
1579,6020001165801,新規,0,2025-11-14,2025-11-14,株式会社Ｓｏｅｕｒｓ＆ｃｏ．,,株式会社,神奈川県,横浜市南区,榎町２丁目７６番地１,,14,105,2320044,,,,,,,2025-11-14,1,,,,,スールアンドコー,0
1584,6020003029715,新規,0,2025-11-14,2025-11-14,ジーリンク合同会社,,合同会社,神奈川県,横浜市青葉区,美しが丘２丁目７－１１－４０２,,14,117,2250002,,,,,,,2025-11-14,1,,,,,ジーリンク,0
1595,6021001086806,新規,0,2025-11-14,2025-11-14,株式会社森羅リゾート,,株式会社,神奈川県,足柄下郡湯河原町,城堀２０７番地,,14,384,2590305,,,,,,,2025-11-14,1,,,,,シンラリゾート,0
1597,6021005013459,新規,0,2025-11-14,2025-11-14,なかま行政書士法人,,その他の設立登記法人,神奈川県,厚木市,元町６番１２号カサデ元町ビル３０１,,14,212,2430002,,,,,,,2025-11-14,1,,,,,ナカマ,0
1604,6030001169652,新規,0,2025-11-14,2025-11-14,株式会社Ｂｒｉｇｈｔ,,株式会社,埼玉県,さいたま市浦和区,岸町７丁目２番９号,,11,107,3300064,,,,,,,2025-11-14,1,,,,,ブライト,0
1605,6030001169677,新規,0,2025-11-14,2025-11-14,株式会社澄み駒,,株式会社,埼玉県,川口市,戸塚東３丁目３７番２０号,,11,203,3330802,,,,,,,2025-11-14,1,,,,,スミコマ,0
1606,6030001169685,新規,0,2025-11-14,2025-11-14,株式会社エスライン,,株式会社,埼玉県,上尾市,仲町１丁目７番２７号アークエムビル７階－Ａ,,11,219,3620035,,,,,,,2025-11-14,1,,,,,エスライン,0
1607,6030001169693,新規,0,2025-11-14,2025-11-14,株式会社ＳＡＫＵＲＡ企画,,株式会社,埼玉県,さいたま市大宮区,大成町２丁目４１５番地１,,11,103,3300852,,,,,,,2025-11-14,1,,,,,サクラキカク,0
1608,6030001169702,新規,0,2025-11-14,2025-11-14,株式会社アユミ住建,,株式会社,埼玉県,さいたま市大宮区,三橋１丁目１２８３番地６,,11,103,3300856,,,,,,,2025-11-14,1,,,,,アユミジュウケン,0
1609,6030001169710,新規,0,2025-11-14,2025-11-14,株式会社カクゴ,,株式会社,埼玉県,本庄市,今井４５９番地２,,11,211,3670036,,,,,,,2025-11-14,1,,,,,カクゴ,0
1610,6030001169719,新規,0,2025-11-14,2025-11-14,株式会社Ｈｕｍｏｂｉｘ,,株式会社,埼玉県,さいたま市桜区,西堀３丁目２２番３３－４号,,11,106,3380832,,,,,,,2025-11-14,1,,,,,ヒューモビックス,0
1611,6030001169735,新規,0,2025-11-14,2025-11-14,株式会社ＮＩＷＡＴＯＷＡ,,株式会社,埼玉県,戸田市,美女木北３丁目５番地の５デュオコート武蔵浦和８０８号室,,11,224,3350038,,,,,,,2025-11-14,1,,,,,ニワトワ,0
1613,6030003028071,新規,0,2025-11-14,2025-11-14,合同会社Ｍ＆Ｓ,,合同会社,埼玉県,さいたま市岩槻区,大字徳力７２７番地,,11,110,3390004,,,,,,,2025-11-14,1,,,,,エムアンドエス,0
1614,6030003028105,新規,0,2025-11-14,2025-11-14,合同会社ＰｏｗｅｒＴａｋｅＯｆｆ,,合同会社,埼玉県,ふじみ野市,南台２丁目３番１９号エスポアール南台１０１,,11,245,3560036,,,,,,,2025-11-14,1,,,,,パワーテイクオフ,0
1619,6040001141395,新規,0,2025-11-14,2025-11-14,しにせゲームズ株式会社,,株式会社,千葉県,松戸市,松戸１３０７－１松戸ビル１３Ｆ松戸スタートアップオフィスＡ－６,,12,207,2710092,,,,,,,2025-11-14,1,,,,,シニセゲームズ,0
1620,6040003028954,新規,0,2025-11-14,2025-11-14,ＩＮＯＸインターナショナル合同会社,,合同会社,千葉県,市川市,南行徳１丁目２２番１５－５０１号Ｐｒｅｎｄｒｅ．Ｍ．Ｒ．Ｋ,,12,203,2720138,,,,,,,2025-11-14,1,,,,,イノックスインターナショナル,0
1624,6050001057475,新規,0,2025-11-14,2025-11-14,株式会社ＰＩＶＯＴ＆ＱＵＥＳＴ,,株式会社,茨城県,つくば市,谷田部１１４４番地３９２,,08,220,3050861,,,,,,,2025-11-14,1,,,,,ピボットアンドクエスト,0
1626,6050003009763,新規,0,2025-11-14,2025-11-14,合同会社まある,,合同会社,茨城県,稲敷郡美浦村,大字宮地８２番地,,08,442,3000412,,,,,,,2025-11-14,1,,,,,マアル,0
1632,6070001043556,新規,0,2025-11-14,2025-11-14,株式会社Ｒｅ　Ｃｒｅｄサポート,,株式会社,群馬県,太田市,鳥山下町４８６番地高和ビルＣ棟４号室,,10,205,3730063,,,,,,,2025-11-14,1,,,,,リクレドサポート,0
1638,6080403005392,新規,0,2025-11-14,2025-11-14,住合アセットマネジメント合同会社,,合同会社,静岡県,掛川市,城北２丁目２３番５号,,22,213,4360059,,,,,,,2025-11-14,1,,,,,スミアイアセットマネジメント,0
1641,6090001019612,新規,0,2025-11-14,2025-11-14,株式会社エッジスタイル,,株式会社,山梨県,中巨摩郡昭和町,西条５１４６番地,,19,384,4093866,,,,,,,2025-11-14,1,,,,,エッジスタイル,0
1654,6120001281943,新規,0,2025-11-14,2025-11-14,株式会社カープロデュース宇佐美,,株式会社,大阪府,守口市,大枝南町１４番７号,,27,209,5700051,,,,,,,2025-11-14,1,,,,,カープロデュースウサミ,0
1655,6120001281976,新規,0,2025-11-14,2025-11-14,ｇａｋｕＬＩＮＫ株式会社,,株式会社,大阪府,大阪市淀川区,東三国４丁目１９番１７号シャトー高山１Ｆ,,27,123,5320002,,,,,,,2025-11-14,1,,,,,ガクリンク,0
1656,6120001281992,新規,0,2025-11-14,2025-11-14,京和国際株式会社,,株式会社,大阪府,大阪市淀川区,木川東３丁目１番１０号１階,,27,123,5320012,,,,,,,2025-11-14,1,,,,,キョウワコクサイ,0
1657,6120001282000,新規,0,2025-11-14,2025-11-14,博華コンサル株式会社,,株式会社,大阪府,大阪市都島区,毛馬町２丁目５－８ナカジョウマンション２０６号,,27,102,5340001,,,,,,,2025-11-14,1,,,,,ハクカコンサル,0
1666,6120005025256,新規,0,2025-11-14,2025-11-14,一般社団法人日本神経発達症者協会,,その他の設立登記法人,大阪府,大阪市北区,黒崎町６番２０号,,27,127,5300023,,,,,,,2025-11-14,1,,,,,ニホンシンケイハッタツショウシャキョウカイ,0
1669,6120901051768,新規,0,2025-11-14,2025-11-14,柳想建株式会社,,株式会社,大阪府,豊中市,末広町３丁目１４－９－１０１,,27,203,5600024,,,,,,,2025-11-14,1,,,,,ヤナギソウケン,0
1671,6122001039917,新規,0,2025-11-14,2025-11-14,株式会社ゆえむ,,株式会社,大阪府,四條畷市,米崎町１０番１１号,,27,229,5750032,,,,,,,2025-11-14,1,,,,,ユエム,0
1672,6130001004808,新規,0,2025-11-14,2025-11-14,株式会社サン・トイズ,,株式会社,京都府,京都市北区,紫竹西桃ノ本町７０番地,,26,101,6038208,,,,,,,2025-11-14,1,,,,,サントイズ,0
1681,6130001081021,新規,0,2025-11-14,2025-11-14,株式会社清栄,,株式会社,京都府,京都市伏見区,横大路東裏町１０１番地,,26,109,6128481,,,,,,,2025-11-14,1,,,,,セイエイ,0
1688,6140001140759,新規,0,2025-11-14,2025-11-14,株式会社イタミゼロイチ,,株式会社,兵庫県,伊丹市,荒牧南２丁目６番２５号,,28,207,6640008,,,,,,,2025-11-14,1,,,,,イタミゼロイチ,0
1693,6140003022823,新規,0,2025-11-14,2025-11-14,杉言国際貿易合同会社,,合同会社,兵庫県,神戸市中央区,栄町通５丁目２－２ＥＲ神戸８０３号室,,28,110,6500023,,,,,,,2025-11-14,1,,,,,サンゲンコクサイボウエキ,0
1694,6140005027696,新規,0,2025-11-14,2025-11-14,一般社団法人ａｎ．ａｒｋ和ＰＬＵＳ,,その他の設立登記法人,兵庫県,神戸市兵庫区,金平町１丁目１－１０,,28,105,6520873,,,,,,,2025-11-14,1,,,,,アンアークワプラス,0
1704,6180001169497,新規,0,2025-11-14,2025-11-14,Ｓｔｅｐ　Ｏｎｅ株式会社,,株式会社,愛知県,あま市,本郷取替３９番地,,23,237,4901116,,,,,,,2025-11-14,1,,,,,ステップワン,0
1705,6180001169506,新規,0,2025-11-14,2025-11-14,ツカサアドヴァンス株式会社,,株式会社,愛知県,北名古屋市,大字中之郷字池田４３番地,,23,234,4810000,,,,,,,2025-11-14,1,,,,,ツカサアドヴァンス,0
1706,6180001169514,新規,0,2025-11-14,2025-11-14,ケアエステート株式会社,,株式会社,愛知県,名古屋市港区,川西通３丁目２７番地２,,23,111,4550073,,,,,,,2025-11-14,1,,,,,ケアエステート,0
1707,6180001169539,新規,0,2025-11-14,2025-11-14,株式会社ＢＥＡＴ　Ｘ,,株式会社,愛知県,大府市,共和町３丁目４番地の１８,,23,223,4740061,,,,,,,2025-11-14,1,,,,,ビートエックス,0
1713,6180003029360,新規,0,2025-11-14,2025-11-14,合同会社産業医の会,,合同会社,愛知県,名古屋市中村区,名駅４丁目２４番５号第２森ビル４０１,,23,105,4500002,,,,,,,2025-11-14,1,,,,,サンギョウイノカイ,0
1718,6190001032695,新規,0,2025-11-14,2025-11-14,株式会社Ｓｔｒａｔｉｖ,,株式会社,三重県,鈴鹿市,北江島町６番１９号,,24,207,5100232,,,,,,,2025-11-14,1,,,,,ストラティブ,0
1723,6200001044425,新規,0,2025-11-14,2025-11-14,株式会社杏味,,株式会社,岐阜県,羽島郡岐南町,八剣１丁目１１番地,,21,302,5016012,,,,,,,2025-11-14,1,,,,,アミ,0
1724,6200001044441,新規,0,2025-11-14,2025-11-14,クレア株式会社,,株式会社,岐阜県,多治見市,小泉町７丁目１５８番地の２,,21,204,5070073,,,,,,,2025-11-14,1,,,,,クレア,0
1726,6220001027023,新規,0,2025-11-14,2025-11-14,多幡工建株式会社,,株式会社,石川県,七尾市,小丸山台３丁目１７７番地,,17,202,9260855,,,,,,,2025-11-14,1,,,,,タバタコウケン,0
1727,6240001065780,新規,0,2025-11-14,2025-11-14,ＫＯＵＥＩ株式会社,,株式会社,広島県,広島市南区,東青崎町１５番７－１０１号,,34,103,7340051,,,,,,,2025-11-14,1,,,,,コウエイ,0
1728,6240001065789,新規,0,2025-11-14,2025-11-14,株式会社アルケストラ,,株式会社,広島県,福山市,春日町５丁目１番２１号,,34,207,7210907,,,,,,,2025-11-14,1,,,,,アルケストラ,0
1729,6240001065797,新規,0,2025-11-14,2025-11-14,株式会社１３,,株式会社,広島県,安芸郡府中町,鹿籠２丁目１１番６－１３号,,34,302,7350025,,,,,,,2025-11-14,1,,,,,ジュウサン,0
1732,6250001021428,新規,0,2025-11-14,2025-11-14,ＭｅｄＧｅｎｅｒａｔｅ株式会社,,株式会社,山口県,岩国市,廿木１１１７番地,,35,208,7400322,,,,,,,2025-11-14,1,,,,,メドジェネレイト,0
1736,6260001040732,新規,0,2025-11-14,2025-11-14,Ｇｏｏｆｉｃｅコンサルティング株式会社,,株式会社,岡山県,岡山市北区,問屋町１１番１０６－３０２号,,33,101,7000977,,,,,,,2025-11-14,1,,,,,グーフィスコンサルティング,0
1752,6290801032034,新規,0,2025-11-14,2025-11-14,株式会社ＦＵＪＩＥＮ,,株式会社,福岡県,北九州市門司区,吉志新町３丁目１６番１７号,,40,101,8000118,,,,,,,2025-11-14,1,,,,,フジエン,0
1755,6310001019853,新規,0,2025-11-14,2025-11-14,ＴＢＣ企画株式会社,,株式会社,長崎県,佐世保市,谷郷町３番１８号,,42,202,8570027,,,,,,,2025-11-14,1,,,,,ティービーシーキカク,0
1762,6330005010971,新規,0,2025-11-14,2025-11-14,一般社団法人くまもとこどもにやさしいまちづくりセンター,,その他の設立登記法人,熊本県,熊本市東区,桜木１丁目１０番２１号,,43,102,8612101,,,,,,,2025-11-14,1,,,,,クマモトコドモニヤサシイマチヅクリセンター,0
1767,6350003005071,新規,0,2025-11-14,2025-11-14,ＳＯＤＥＮ合同会社,,合同会社,宮崎県,宮崎市,祇園３丁目１０８番地,,45,201,8800024,,,,,,,2025-11-14,1,,,,,ソウデン,0
1769,6360001036019,新規,0,2025-11-14,2025-11-14,株式会社セラヴィ,,株式会社,沖縄県,那覇市,久茂地３丁目２６－３２ＹＳＣビル２０２,,47,201,9000015,,,,,,,2025-11-14,1,,,,,セラヴィ,0
1770,6360001036035,新規,0,2025-11-14,2025-11-14,株式会社ＴＲＵＳＴ防犯,,株式会社,沖縄県,那覇市,松川２丁目１６番１５号,,47,201,9020062,,,,,,,2025-11-14,1,,,,,トラストボウハン,0
1773,6360003015400,新規,0,2025-11-14,2025-11-14,合同会社ウチナーメディアラボ,,合同会社,沖縄県,宜野湾市,喜友名１丁目６番２,,47,205,9012222,,,,,,,2025-11-14,1,,,,,ウチナーメディアラボ,0
1784,6410001014324,新規,0,2025-11-14,2025-11-14,いわや映画株式会社,,株式会社,秋田県,秋田市,港北新町５番６号,,05,201,0110927,,,,,,,2025-11-14,1,,,,,イワヤエイガ,0
1794,6430001095651,新規,0,2025-11-14,2025-11-14,Ｌｉｂｅ’ｌｕｌａ株式会社,,株式会社,北海道,札幌市北区,新琴似五条５丁目８番３号,,01,102,0010905,,,,,,,2025-11-14,1,,,,,リベルラ,0
1795,6430001095676,新規,0,2025-11-14,2025-11-14,株式会社ＨＯＰＥ＆ＬＥＡＰ,,株式会社,北海道,札幌市清田区,清田二条１丁目１番２６号,,01,110,0040842,,,,,,,2025-11-14,1,,,,,ホープアンドリープ,0
1796,6430001095684,新規,0,2025-11-14,2025-11-14,イブリテック株式会社,,株式会社,北海道,登別市,登別東町１丁目１７番地４,,01,230,0590464,,,,,,,2025-11-14,1,,,,,イブリテック,0
1804,6480001013006,新規,0,2025-11-14,2025-11-14,免疫機能評価研究所株式会社,,株式会社,徳島県,徳島市,東沖洲２丁目１番７号,,36,201,7700873,,,,,,,2025-11-14,1,,,,,メンエキキノウヒョウカケンキュウショ,0
1809,6700150132938,新規,0,2025-11-14,2025-11-14,Ｙｕｎ　Ｓｈｅｎｇ　Ｃａｐｉｔａｌ　Ｃｏｍｐａｎｙ　Ｌｉｍｉｔｅｄ,,外国会社等,,,,,,,,２６／Ｆ，Ｔｈｒｅｅ　Ｅｘｃｈａｎｇｅ　Ｓｑｕａｒｅ，８　Ｃｏｎｎａｕｇｈｔ　Ｐｌａｃｅ，Ｃｅｎｔｒａｌ，Ｈｏｎｇ　Ｋｏｎｇ,,,,,,2025-11-14,1,,,,,ウンセイキヤピタルカンパニーリミテツド,0
1810,6700150132946,新規,0,2025-11-14,2025-11-14,ＳｈｉｓｈｉｔｏＮａｒａ　Ｌｉｍｉｔｅｄ,,外国会社等,,,,,,,,Ａｓｉａ　Ｌｅａｄｉｎｇ　Ｃｈａｍｂｅｒｓ，Ｒｏａｄ　Ｔｏｗｎ，Ｔｏｒｔｏｌａ　ＶＧ１１１０,,,,,,2025-11-14,1,,,,,シシトナラリミテツド,0
1811,6700150132954,新規,0,2025-11-14,2025-11-14,Ｅｎｖｉｓｉｏｎ　ＪＰ　ＶＩ　Ｌｉｍｉｔｅｄ,00141537,外国会社等,,,,,,,,英領バージン諸島トルトラ、ロードタウン、私書箱１１１０、アジア・リーディング・チェンバース,,,,,,2025-11-14,1,,,,,エンビジヨンジエイピーシツクスリミテツド,0
1823,7010001260180,新規,0,2025-11-14,2025-11-14,株式会社ティエムライフ,,株式会社,東京都,千代田区,神田神保町２丁目１０番地２０１号,,13,101,1010051,,,,,,,2025-11-14,1,,,,,ティエムライフ,0
1824,7010001260338,新規,0,2025-11-14,2025-11-14,株式会社奥田や,,株式会社,東京都,中央区,築地２丁目１５番１５号,,13,102,1040045,,,,,,,2025-11-14,1,,,,,オクダヤ,0
1825,7010001260370,新規,0,2025-11-14,2025-11-14,株式会社ＢＯＯＳＴ,,株式会社,東京都,中央区,日本橋堀留町１丁目７番１１号八光ビル２Ｆ,,13,102,1030012,,,,,,,2025-11-14,1,,,,,ブースト,0
1827,7010003049325,新規,0,2025-11-14,2025-11-14,グロリッチ合同会社,,合同会社,東京都,千代田区,神田須田町１丁目７番８号ＶＯＲＴ秋葉原ＩＶ２Ｆ,00141519,13,101,1010041,,,,,,,2025-11-14,1,,,,,グロリッチ,0
1829,7010005040942,新規,0,2025-11-14,2025-11-14,Ｓｐｒｉｎｔ　ＭＬ２一般社団法人,,その他の設立登記法人,東京都,千代田区,霞が関３丁目２番５号,,13,101,1000013,,,,,,,2025-11-14,1,,,,,スプリントエムエルツー,0
1836,7010401194524,新規,0,2025-11-14,2025-11-14,株式会社ＺｉＯＮ,,株式会社,東京都,港区,芝大門２丁目１番１６号,,13,103,1050012,,,,,,,2025-11-14,1,,,,,ザイオン,0
1837,7010403036542,新規,0,2025-11-14,2025-11-14,合同会社ＨＣＯ,,合同会社,東京都,港区,白金３丁目３番６号アーツ白金２０５,,13,103,1080072,,,,,,,2025-11-14,1,,,,,エイチシーオー,0
1839,7010405025015,新規,0,2025-11-14,2025-11-14,品川ホールディング２一般社団法人,,その他の設立登記法人,東京都,港区,虎ノ門３丁目２２番１０－２０１号,,13,103,1050001,,,,,,,2025-11-14,1,,,,,シナガワホールディングツー,0
1840,7010405025023,新規,0,2025-11-14,2025-11-14,一般社団法人審美再生医療機構,,その他の設立登記法人,東京都,港区,芝大門１丁目６－５－２Ｂ,,13,103,1050012,,,,,,,2025-11-14,1,,,,,シンビサイセイイリョウキコウ,0
1843,7010603011923,新規,0,2025-11-14,2025-11-14,トラスト合同会社,,合同会社,東京都,江東区,三好２丁目６－７,,13,108,1350022,,,,,,,2025-11-14,1,,,,,トラスト,0
1847,7010901058435,新規,0,2025-11-14,2025-11-14,ＡＬＴｅｒｎａｔｉｖｅ株式会社,,株式会社,東京都,世田谷区,若林３丁目３０番１号フォレスト９－１０２,,13,112,1540023,,,,,,,2025-11-14,1,,,,,オルタネイティブ,0
1848,7010901058468,新規,0,2025-11-14,2025-11-14,株式会社Ｌａｔｅｘ　Ｃｏｒｐｏｒａｔｉｏｎ,,株式会社,東京都,世田谷区,太子堂４丁目１８番１５号マガザン三軒茶屋２－３Ｆ－３,,13,112,1540004,,,,,,,2025-11-14,1,,,,,レイテックスコーポレーション,0
1859,7011001173538,新規,0,2025-11-14,2025-11-14,株式会社Ｓｔｕｄｉｏ　ＡｕＫｎｏｗ,,株式会社,東京都,渋谷区,初台２丁目３１番５－２０４号,,13,113,1510061,,,,,,,2025-11-14,1,,,,,スタジオアノウ,0
1863,7011101113947,新規,0,2025-11-14,2025-11-14,株式会社ＯｔｏＴｏ,,株式会社,東京都,新宿区,西早稲田３丁目１１番３号ＰＲＯＴＯＬＩＦＥ３１１３－１階,,13,104,1690051,,,,,,,2025-11-14,1,,,,,オトト,0
1864,7011103016710,新規,0,2025-11-14,2025-11-14,合同会社ＡｃｅＬｉｎｋ,,合同会社,東京都,新宿区,西新宿３丁目３番１３号西新宿水間ビル２Ｆ,,13,104,1600023,,,,,,,2025-11-14,1,,,,,エースリンク,0
1867,7011401027574,新規,0,2025-11-14,2025-11-14,株式会社Ｌｉｎｋ　Ｌｉｖｅ,,株式会社,東京都,板橋区,中丸町１２－４オークレジデンス３０６,,13,119,1730026,,,,,,,2025-11-14,1,,,,,リンクライブ,0
1877,7011801047065,新規,0,2025-11-14,2025-11-14,株式会社旅ストーリー,,株式会社,東京都,足立区,皿沼２丁目１４番７号,,13,121,1230862,,,,,,,2025-11-14,1,,,,,タビストーリー,0
1878,7012303002244,新規,0,2025-11-14,2025-11-14,星禾合同会社,,合同会社,東京都,町田市,森野４丁目１０番１２号,,13,209,1940022,,,,,,,2025-11-14,1,,,,,セイカ,0
1881,7012701019187,新規,0,2025-11-14,2025-11-14,株式会社ＴＯＳＨＩＨＩＲＯ不動産,,株式会社,東京都,西東京市,富士町５丁目７番１１号,,13,229,2020014,,,,,,,2025-11-14,1,,,,,トシヒロフドウサン,0
1894,7020001165503,新規,0,2025-11-14,2025-11-14,株式会社スモールライト,,株式会社,神奈川県,川崎市麻生区,下麻生１丁目３２番３７号,,14,137,2150022,,,,,,,2025-11-14,1,,,,,スモールライト,0
1895,7020001165759,新規,0,2025-11-14,2025-11-14,株式会社ＴＡＧ,,株式会社,神奈川県,横浜市神奈川区,六角橋５丁目２４番１２－１０３号,,14,102,2210802,,,,,,,2025-11-14,1,,,,,ティーエージー,0
1899,7020003029763,新規,0,2025-11-14,2025-11-14,合同会社和光ラボ,,合同会社,神奈川県,横浜市戸塚区,上倉田町２１４１番地１プライズ・ヒル２１０３号,,14,110,2440816,,,,,,,2025-11-14,1,,,,,ワコウラボ,0
1908,7021001086714,新規,0,2025-11-14,2025-11-14,株式会社ＫＩＯＲＩ,,株式会社,神奈川県,鎌倉市,二階堂７７３番地１１５,,14,204,2480002,,,,,,,2025-11-14,1,,,,,,0
1916,7030001169643,新規,0,2025-11-14,2025-11-14,ＳＩＳ株式会社,,株式会社,埼玉県,蕨市,北町１丁目１６番１３号本田マンション２－１１５,,11,223,3350001,,,,,,,2025-11-14,1,,,,,エスアイエス,0
1917,7030001169668,新規,0,2025-11-14,2025-11-14,株式会社カキヌマ,,株式会社,埼玉県,深谷市,東方２１１１番地８,,11,218,3660041,,,,,,,2025-11-14,1,,,,,カキヌマ,0
1918,7030001169684,新規,0,2025-11-14,2025-11-14,株式会社満越,,株式会社,埼玉県,さいたま市大宮区,桜木町１丁目１９５番地１,,11,103,3300854,,,,,,,2025-11-14,1,,,,,ミツコシ,0
1919,7030001169701,新規,0,2025-11-14,2025-11-14,株式会社ｍａｈａｌ,,株式会社,埼玉県,深谷市,上野台２７９９番地,,11,218,3660801,,,,,,,2025-11-14,1,,,,,マハル,0
1920,7030001169718,新規,0,2025-11-14,2025-11-14,株式会社達磨,,株式会社,埼玉県,新座市,新座１丁目１５番１号セントラル・フォレストＩＩ２０２号室,00141547,11,230,3520006,,,,,,,2025-11-14,1,,,,,ダルマ,0
1922,7030003028021,新規,0,2025-11-14,2025-11-14,ａｍｂｉｅｎｔｅ合同会社,,合同会社,埼玉県,坂戸市,溝端町１番地（２－１０１）,,11,239,3500274,,,,,,,2025-11-14,1,,,,,アンビエンテ,0
1923,7030003028046,新規,0,2025-11-14,2025-11-14,合同会社ガルシア幸縁コーポレーション,,合同会社,埼玉県,幸手市,大字幸手５３５９番地１－２０９号,,11,240,3400113,,,,,,,2025-11-14,1,,,,,ガルシアキエンコーポレーション,0
1924,7030003028070,新規,0,2025-11-14,2025-11-14,Ｍ‐ＡＢＩＬＩＴＹ合同会社,,合同会社,埼玉県,志木市,柏町５丁目１８番３－３号,,11,228,3530007,,,,,,,2025-11-14,1,,,,,エムアビリティ,0
1925,7030003028079,新規,0,2025-11-14,2025-11-14,合同会社渡邉電気,,合同会社,埼玉県,さいたま市見沼区,大字南中丸１００７番地１１,,11,104,3370041,,,,,,,2025-11-14,1,,,,,ワタナベデンキ,0
1926,7030003028087,新規,0,2025-11-14,2025-11-14,合同会社ＤｏＣＡＰ,,合同会社,埼玉県,さいたま市緑区,大字大門７６８－２,,11,109,3360963,,,,,,,2025-11-14,1,,,,,ドゥシーエーピー,0
1927,7030003028095,新規,0,2025-11-14,2025-11-14,Ｋ．Ｔ．Ｓ合同会社,,合同会社,埼玉県,さいたま市見沼区,東大宮４丁目３－７ロマーナ壱番館２０２,,11,104,3370051,,,,,,,2025-11-14,1,,,,,ケーティーエス,0
1930,7040001141378,新規,0,2025-11-14,2025-11-14,株式会社マルチメディア,,株式会社,千葉県,浦安市,港７７－３ＤＰＬ浦安４Ｆ,,12,227,2790024,,,,,,,2025-11-14,1,,,,,マルチメディア,0
1931,7040001141394,新規,0,2025-11-14,2025-11-14,ＡＸＩＯ株式会社,,株式会社,千葉県,白井市,十余一６０－３－１０,,12,232,2701411,,,,,,,2025-11-14,1,,,,,アクシオ,0
1937,7050001057565,新規,0,2025-11-14,2025-11-14,株式会社てぃーえむこーぽれーしょん,,株式会社,茨城県,守谷市,久保ケ丘２丁目５番１７号,,08,224,3020104,,,,,,,2025-11-14,1,,,,,ティーエムコーポレーション,0
1939,7050003009762,新規,0,2025-11-14,2025-11-14,合同会社和,,合同会社,茨城県,取手市,寺田４８１８－１０,,08,217,3020021,,,,,,,2025-11-14,1,,,,,ナゴミ,0
1942,7060001038770,新規,0,2025-11-14,2025-11-14,ＫＯＹＡＭＡ　ＨＯＬＤＩＮＧＳ　ＪＡＰＡＮ株式会社,,株式会社,栃木県,小山市,東間々田３丁目１９番３６号ヴィアーレＩＩ１０５,00141542,09,208,3290206,,,,,,,2025-11-14,1,,,,,コヤマホールディングスジャパン,0
1947,7070001043563,新規,0,2025-11-14,2025-11-14,スピアー＆シールド株式会社,,株式会社,群馬県,吾妻郡東吾妻町,大字本宿３２７６番地４４,,10,429,3770933,,,,,,,2025-11-14,1,,,,,スピアーアンドシールド,0
1952,7080001027276,新規,0,2025-11-14,2025-11-14,株式会社森田計算センター,,株式会社,静岡県,静岡市清水区,真砂町４番２３号,,22,103,4240816,,,,,,,2025-11-14,1,,,,,モリタケイサンセンター,0
1958,7080101025907,新規,0,2025-11-14,2025-11-14,株式会社Ｄｅ＆Ｆｕ,,株式会社,静岡県,沼津市,青野３４５番地の３,,22,203,4100307,,,,,,,2025-11-14,1,,,,,ディーアンドエフ,0
1960,7080403005391,新規,0,2025-11-14,2025-11-14,合同会社ＭＳＩコンサルティング,,合同会社,静岡県,浜松市中央区,鍛冶町１４０番地Ｃビル４階,,22,138,4300933,,,,,,,2025-11-14,1,,,,,エムエスアイコンサルティング,0
1961,7090001019611,新規,0,2025-11-14,2025-11-14,花風蔵蒸溜所株式会社,,株式会社,山梨県,南都留郡山中湖村,平野３４２８番地,,19,425,4010502,,,,,,,2025-11-14,1,,,,,ハナフゾウジョウリュウショ,0
1962,7100001039112,新規,0,2025-11-14,2025-11-14,マイオーベルジュ株式会社,,株式会社,長野県,茅野市,北山５５１３番地１９０蓼科ビレッジ白樺平３１０号,,20,214,3910301,,,,,,,2025-11-14,1,,,,,マイオーベルジュ,0
1963,7100001039120,新規,0,2025-11-14,2025-11-14,株式会社建築舎,,株式会社,長野県,佐久市,原９９番地２７,,20,217,3850052,,,,,,,2025-11-14,1,,,,,ケンチクシャ,0
1967,7110001039730,新規,0,2025-11-14,2025-11-14,ＢＥＡＮＤＹ株式会社,,株式会社,新潟県,三条市,下坂井９‐２０,,15,204,9550042,,,,,,,2025-11-14,1,,,,,ビーンディー,0
1979,7120001281942,新規,0,2025-11-14,2025-11-14,山松株式会社,,株式会社,大阪府,大阪市東淀川区,菅原４丁目１１－２１ビスタ新庄ハイツＩＩＩ８０７室,00141543,27,114,5330022,,,,,,,2025-11-14,1,,,,,ヤママツ,0
1980,7120001281975,新規,0,2025-11-14,2025-11-14,株式会社ＩＳＵＩ,,株式会社,大阪府,大阪市東淀川区,豊新４丁目１９番１７号ハイツサンライズ３０１号,,27,114,5330014,,,,,,,2025-11-14,1,,,,,アイスイ,0
1981,7120001281983,新規,0,2025-11-14,2025-11-14,クラストリンク株式会社,,株式会社,大阪府,大阪市淀川区,西中島５丁目６番１６号,,27,123,5320011,,,,,,,2025-11-14,1,,,,,クラストリンク,0
1982,7120001282008,新規,0,2025-11-14,2025-11-14,株式会社Ａｒｃｈｉ　Ｃｒｅｔｅ,,株式会社,大阪府,枚方市,北山１丁目４７番６号,,27,210,5730171,,,,,,,2025-11-14,1,,,,,アーキクリート,0
1983,7120001282024,新規,0,2025-11-14,2025-11-14,ＲＡＭ株式会社,,株式会社,大阪府,大阪市阿倍野区,阪南町５丁目５番１６号,,27,119,5450021,,,,,,,2025-11-14,1,,,,,ラム,0
1984,7120001282049,新規,0,2025-11-14,2025-11-14,株式会社Ｒｅｇｉｅｒｅｎ　ＨＲＴ,,株式会社,大阪府,大阪市此花区,伝法５丁目１２番３７－３０１号,,27,104,5540002,,,,,,,2025-11-14,1,,,,,レギーレンハート,0
1988,7120003031197,新規,0,2025-11-14,2025-11-14,岡設計合同会社,,合同会社,大阪府,寝屋川市,太間町６番１４－１号,,27,215,5720078,,,,,,,2025-11-14,1,,,,,オカセッケイ,0
2000,7122001039874,新規,0,2025-11-14,2025-11-14,株式会社オーシャンズ,,株式会社,大阪府,東大阪市,長堂１丁目２番３号布施駅前ナワショウビル４階,,27,227,5770056,,,,,,,2025-11-14,1,,,,,オーシャンズ,0
2002,7130001081020,新規,0,2025-11-14,2025-11-14,株式会社ＣＯＣＯＬ,,株式会社,京都府,宇治市,五ケ庄岡本２０番地,,26,204,6110011,,,,,,,2025-11-14,1,,,,,ココル,0
2003,7130003010927,新規,0,2025-11-14,2025-11-14,合同会社ｅＰＬＡＮ,,合同会社,京都府,京都市下京区,七条通油小路東入大黒町２２７番地第２キョートビル４０２,,26,106,6008223,,,,,,,2025-11-14,1,,,,,イープラン,0
2006,7130005017516,新規,0,2025-11-14,2025-11-14,税理士法人Ｓｏｂａｎｉ,,その他の設立登記法人,京都府,城陽市,久世北垣内４６番地の７,,26,207,6100102,,,,,,,2025-11-14,1,,,,,ソバニ,0
2014,7140003022839,新規,0,2025-11-14,2025-11-14,ＧＮ合同会社,,合同会社,兵庫県,伊丹市,伊丹１丁目８番１７－７０２号,,28,207,6640846,,,,,,,2025-11-14,1,,,,,ジーエヌ,0
2015,7140003022847,新規,0,2025-11-14,2025-11-14,合同会社グレートワークス,,合同会社,兵庫県,神戸市須磨区,千守町１丁目３番３９号,,28,107,6540072,,,,,,,2025-11-14,1,,,,,グレートワークス,0
2021,7150003003747,新規,0,2025-11-14,2025-11-14,合同会社和,,合同会社,奈良県,北葛城郡広陵町,大字寺戸１８番地７,,29,426,6350817,,,,,,,2025-11-14,1,,,,,ナゴム,0
2030,7180001169496,新規,0,2025-11-14,2025-11-14,株式会社彩ｉｒｏｄｏｒｉ,,株式会社,愛知県,稲沢市,祖父江町森上本郷六２２番地,,23,220,4950011,,,,,,,2025-11-14,1,,,,,イロドリ,0
2031,7180001169513,新規,0,2025-11-14,2025-11-14,株式会社風流設備,,株式会社,愛知県,清須市,阿原鴨池９１番地,,23,233,4520901,,,,,,,2025-11-14,1,,,,,フウリュウセツビ,0
2032,7180001169521,新規,0,2025-11-14,2025-11-14,ＬｉｏｎＥａｇｌｅ株式会社,,株式会社,愛知県,名古屋市中村区,名駅南２丁目７番８号ナゴヤ・ザ・タワー４２０５号,,23,105,4500003,,,,,,,2025-11-14,1,,,,,ライオンイーグル,0
2033,7180001169546,新規,0,2025-11-14,2025-11-14,株式会社ブルーウェーブ,,株式会社,愛知県,名古屋市中区,栄３丁目２７番３３号,,23,106,4600008,,,,,,,2025-11-14,1,,,,,ブルーウェーブ,0
2034,7180001169562,新規,0,2025-11-14,2025-11-14,株式会社ＫＡＭＯ設計,,株式会社,愛知県,犬山市,大字五郎丸字森上１番地３５,,23,215,4840066,,,,,,,2025-11-14,1,,,,,カモセッケイ,0
2037,7180003029368,新規,0,2025-11-14,2025-11-14,合同会社絆,,合同会社,愛知県,名古屋市南区,上浜町３７７番地,,23,112,4570067,,,,,,,2025-11-14,1,,,,,キズナ,0
2038,7180005021307,新規,0,2025-11-14,2025-11-14,特定非営利活動法人あいち健康長寿福祉会,,その他の設立登記法人,愛知県,名古屋市中村区,竹橋町１９番１号,,23,105,4530016,,,,,,,2025-11-14,1,,,,,アイチケンコウチョウジュフクシカイ,0
2041,7190003005269,新規,0,2025-11-14,2025-11-14,合同会社Ｋｉｓｅｋｉ,,合同会社,三重県,鈴鹿市,十宮町６７１番地の５,,24,207,5130038,,,,,,,2025-11-14,1,,,,,キセキ,0
2047,7200001044440,新規,0,2025-11-14,2025-11-14,Ｌｕｍｏｓ株式会社,,株式会社,岐阜県,岐阜市,五反田町１０番地３階,,21,201,5008328,,,,,,,2025-11-14,1,,,,,ルーモス,0
2069,7340001027778,新規,0,2025-11-14,2025-11-14,株式会社ｈｕｌｕ　ｆａｒｍ,,株式会社,鹿児島県,指宿市,西方２０７２番地８,,46,210,8910311,,,,,,,2025-11-14,1,,,,,フルファーム,0
2070,7340005009921,新規,0,2025-11-14,2025-11-14,一般社団法人Ｃｅｎｔｅｒ　Ｖｉｌｌａｇｅ,,その他の設立登記法人,鹿児島県,鹿児島市,中山町２０６９番地,,46,201,8910105,,,,,,,2025-11-14,1,,,,,センターヴィレッジ,0
2076,7360001036018,新規,0,2025-11-14,2025-11-14,株式会社沖栄技巧,,株式会社,沖縄県,うるま市,字田場１２１番地１コーポアゲナ１０２－２,,47,213,9042213,,,,,,,2025-11-14,1,,,,,オキエイギコウ,0
2082,7360003015399,新規,0,2025-11-14,2025-11-14,合同会社上原工業,,合同会社,沖縄県,宮古島市,平良字西仲宗根１５９９番地２,,47,214,9060006,,,,,,,2025-11-14,1,,,,,ウエハラコウギョウ,0
2085,7370001053235,新規,0,2025-11-14,2025-11-14,株式会社ＬＵＫＵＺ‐ＴＥＣ,,株式会社,宮城県,亘理郡亘理町,逢隈牛袋字長沼１９３番地,00141545,04,361,9892302,,,,,,,2025-11-14,1,,,,,ルクズテック,0
2095,7420001019338,新規,0,2025-11-14,2025-11-14,株式会社トラスト東北,,株式会社,青森県,青森市,大字浦町字奥野３７２番地８,,02,201,0300842,,,,,,,2025-11-14,1,,,,,トラストトウホク,0
2103,7490001011206,新規,0,2025-11-14,2025-11-14,株式会社明清館,,株式会社,高知県,高岡郡佐川町,甲１０５９番地１,,39,402,7891201,,,,,,,2025-11-14,1,,,,,メイセイカン,0
2104,7700150132920,新規,0,2025-11-14,2025-11-14,Ｓｃａｆｕｌ　Ｎｏ２　Ｓｕｐｅｒｆｕｎｄ　Ｐｔｙ．Ｌｔｄ．,,外国会社等,,,,,,,,オーストラリア連邦、ヴィクトリア州、サンバリー、ホワイトチャペル・ウェイ４,,,,,,2025-11-14,1,,,,,スカフルナンバーツースーパーフアンドピーテイーワイエルテイーデイー,0
2105,7700150132937,新規,0,2025-11-14,2025-11-14,ＭＩＮＴＲＯＣＫＥＴ,,外国会社等,,,,,,,,４ｔｈ　Ｆｌｏｏｒ　Ｂｌｏｃｋ　Ａ，２５３，Ｐａｎｇｙｏ－ｒｏ，Ｂｕｎｄａｎｇ－ｇｕ，Ｓｅｏｎｇｎａｍ－ｓｉ，Ｇｙｅｏｎｇｇｉ－ｄｏ，１３４８６,,,,,,2025-11-14,1,,,,,ミントロケツト,0
2106,7700150132945,新規,0,2025-11-14,2025-11-14,ＧＯ　Ｆｕｄｏｓａｎ　Ｃｏ．，Ｌｔｄ,,外国会社等,,,,,,,,Ｖｉｓｔｒａ　Ｃｏｒｐｏｒａｔｅ　Ｓｅｒｖｉｃｅｓ　Ｃｅｎｔｒｅ，Ｇｒｏｕｎｄ　Ｆｌｏｏｒ，ＮＰＦ　Ｂｕｉｌｄｉｎｇ，Ｂｅａｃｈ　Ｒｏａｄ，Ａｐｉａ，Ｓａｍｏａ,,,,,,2025-11-14,1,,,,,ゴフドウサンカンパニーリミテイツド,0
2107,7700150132953,新規,0,2025-11-14,2025-11-14,Ａ－Ｎｅｘｕｓ　Ｉｎｃｏｒｐｏｒａｔｅｄ,,外国会社等,東京都,渋谷区,松濤２丁目１－１７,,13,113,1500046,アメリカ合衆国ネバダ州ラスベガス市グランドモンテシオパークウェイ６６０５番１００号室,,,,,,2025-11-14,1,,,,,エーネクサスインコーポレイテツド,0
2116,8010001260130,新規,0,2025-11-14,2025-11-14,株式会社ｙｕｉｎｏｗａ,,株式会社,東京都,中央区,銀座１丁目２２番１１号銀座大竹ビジデンス２Ｆ,,13,102,1040061,,,,,,,2025-11-14,1,,,,,ユイノワ,0
2120,8010003049332,新規,0,2025-11-14,2025-11-14,合同会社まちのみのり,,合同会社,東京都,千代田区,外神田５丁目６－１５,,13,101,1010021,,,,,,,2025-11-14,1,,,,,マチノミノリ,0
2121,8010003049373,新規,0,2025-11-14,2025-11-14,合同会社オクト,,合同会社,東京都,中央区,佃１丁目１１番９－９１０号,,13,102,1040051,,,,,,,2025-11-14,1,,,,,オクト,0
2122,8010003049398,新規,0,2025-11-14,2025-11-14,合同会社Ｌｏｃａｌｅ２,,合同会社,東京都,千代田区,神田和泉町１番地６－１６ヤマトビル４０５,,13,101,1010024,,,,,,,2025-11-14,1,,,,,ロケールツー,0
2123,8010003049448,新規,0,2025-11-14,2025-11-14,合同会社ＨＵＢＥＸ浅草,,合同会社,東京都,千代田区,丸の内１丁目４番１号東京共同会計事務所内,,13,101,1000005,,,,,,,2025-11-14,1,,,,,ハベックスアサクサ,0
2128,8010401194424,新規,0,2025-11-14,2025-11-14,紺碧株式会社,,株式会社,東京都,港区,南麻布５丁目１１番１号,,13,103,1060047,,,,,,,2025-11-14,1,,,,,コンペキ,0
2129,8010401194498,新規,0,2025-11-14,2025-11-14,株式会社Ｅｎｔｒｅｌｅａｐ,,株式会社,東京都,港区,南青山３丁目１番３６号青山丸竹ビル６Ｆ,,13,103,1070062,,,,,,,2025-11-14,1,,,,,アントレリープ,0
2130,8010401194580,新規,0,2025-11-14,2025-11-14,ユーカラ企画株式会社,,株式会社,東京都,港区,北青山１丁目３―３三橋ビル３階,,13,103,1070061,,,,,,,2025-11-14,1,,,,,ユーカラキカク,0
2132,8010403036590,新規,0,2025-11-14,2025-11-14,ＬＳ‐ＣＭＰ第２号合同会社,,合同会社,東京都,港区,六本木１丁目６番１号,,13,103,1060032,,,,,,,2025-11-14,1,,,,,エルエスシーエムピーダイニゴウ,0
2133,8010405025014,新規,0,2025-11-14,2025-11-14,品川ホールディング１一般社団法人,,その他の設立登記法人,東京都,港区,虎ノ門３丁目２２番１０－２０１号,,13,103,1050001,,,,,,,2025-11-14,1,,,,,シナガワホールディングワン,0
2136,8010601068262,新規,0,2025-11-14,2025-11-14,株式会社スミエール,,株式会社,東京都,江東区,亀戸６丁目４１番５号,,13,108,1360071,,,,,,,2025-11-14,1,,,,,スミエール,0
2137,8010601068287,新規,0,2025-11-14,2025-11-14,株式会社ハッピーミー,,株式会社,東京都,江東区,有明３丁目７番２６号有明フロンティアビルＢ棟９階,,13,108,1350063,,,,,,,2025-11-14,1,,,,,ハッピーミー,0
2142,8010703008001,新規,0,2025-11-14,2025-11-14,コバヤシ４０１．Ａｓｓｅｔ　ｐｌａｃｅ合同会社,,合同会社,東京都,品川区,小山６丁目５－１０千代田ビル４Ｆ,,13,109,1420062,,,,,,,2025-11-14,1,,,,,コバヤシヨンマルイチアセットプレイス,0
2144,8010801036787,新規,0,2025-11-14,2025-11-14,株式会社ｃｅ,,株式会社,東京都,大田区,田園調布１丁目２３番１８号ＫＩＡＲＡＶＩＬＬＥ２０１,,13,111,1450071,,,,,,,2025-11-14,1,,,,,シーイー,0
2164,8011001173537,新規,0,2025-11-14,2025-11-14,株式会社ＧＲＡＭＩＸ,,株式会社,東京都,渋谷区,神南１丁目１１－４ＦＰＧリンクス神南５階,,13,113,1500041,,,,,,,2025-11-14,1,,,,,グラミックス,0
2165,8011001173628,新規,0,2025-11-14,2025-11-14,株式会社Ｍｅｄｉｅｎｃｅ,,株式会社,東京都,渋谷区,東１丁目３２番１２号,,13,113,1500011,,,,,,,2025-11-14,1,,,,,メディエンス,0
2166,8011001173693,新規,0,2025-11-14,2025-11-14,株式会社ＮＯＷ　ＰＥＡＫ,,株式会社,東京都,目黒区,三田２丁目７番２２－１１３号,,13,110,1530062,,,,,,,2025-11-14,1,,,,,ナウピーク,0
2180,8011101113970,新規,0,2025-11-14,2025-11-14,永誠株式会社,,株式会社,東京都,新宿区,新宿１丁目２４番７－１３１３号,,13,104,1600022,,,,,,,2025-11-14,1,,,,,エイセイ,0
2181,8011101113979,新規,0,2025-11-14,2025-11-14,株式会社ユーティー・キャピタル,,株式会社,東京都,新宿区,市谷加賀町１丁目２番１－７０３号,,13,104,1620062,,,,,,,2025-11-14,1,,,,,ユーティーキャピタル,0
2182,8011101113987,新規,0,2025-11-14,2025-11-14,株式会社元気,,株式会社,東京都,新宿区,歌舞伎町２丁目３－２１明治通りビル５０４,,13,104,1600021,,,,,,,2025-11-14,1,,,,,ゲンキ,0
2185,8011301031048,新規,0,2025-11-14,2025-11-14,株式会社Ｆｕｔｕｒｅ　Ｃｒｕｉｓｅ,,株式会社,東京都,杉並区,高井戸東１丁目１３番１８号,,13,115,1680072,,,,,,,2025-11-14,1,,,,,フューチャークルーズ,0
2186,8011401027581,新規,0,2025-11-14,2025-11-14,ブレス株式会社,,株式会社,東京都,板橋区,中台３丁目２７番Ｆ－９０７号,,13,119,1740064,,,,,,,2025-11-14,1,,,,,ブレス,0
2187,8011405002416,新規,0,2025-11-14,2025-11-14,一般社団法人日本改修設計建築士連合会,,その他の設立登記法人,東京都,板橋区,舟渡１丁目１３番１０号アイ・タワー２階板橋区企業活性化センターオフィス１２,,13,119,1740041,,,,,,,2025-11-14,1,,,,,ニホンカイシュウセッケイケンチクシレンゴウカイ,0
2202,8013303007934,新規,0,2025-11-14,2025-11-14,合同会社Ｃ＆Ａ,,合同会社,東京都,豊島区,上池袋３丁目１６番２４号－１０１,,13,116,1700012,,,,,,,2025-11-14,1,,,,,シーアンドエー,0
2210,8020001165650,新規,0,2025-11-14,2025-11-14,株式会社ふらっとけあ,,株式会社,神奈川県,川崎市川崎区,大島２丁目２番６号,,14,131,2100834,,,,,,,2025-11-14,1,,,,,フラットケア,0
2211,8020001165683,新規,0,2025-11-14,2025-11-14,ＳＡＩＳＡＩＣＯＯＭＩ　ＪＡＰＡＮ株式会社,,株式会社,神奈川県,横浜市港南区,日野南１丁目５番１号サンポート清水橋２０１,,14,111,2340055,,,,,,,2025-11-14,1,,,,,サイサイクーミジャパン,0
2212,8020001165741,新規,0,2025-11-14,2025-11-14,株式会社ＰＲＯＱ,,株式会社,神奈川県,横浜市港北区,箕輪町２丁目８番３号アンヴェル日吉２０１,,14,109,2230051,,,,,,,2025-11-14,1,,,,,プローク,0
2213,8020001165766,新規,0,2025-11-14,2025-11-14,株式会社ＬＩＦＥ　ＧＲＩＴ,,株式会社,神奈川県,川崎市幸区,戸手２丁目１１番１５号,,14,132,2120005,,,,,,,2025-11-14,1,,,,,ライフグリット,0
2215,8020003029770,新規,0,2025-11-14,2025-11-14,合同会社ＦＳＦ,,合同会社,神奈川県,川崎市中原区,井田２丁目７－４３－１０１,,14,133,2110035,,,,,,,2025-11-14,1,,,,,エフエスエフ,0
2221,8021001086713,新規,0,2025-11-14,2025-11-14,福隆株式会社,,株式会社,神奈川県,座間市,相模が丘１丁目３１－２－１０２号室,,14,216,2520001,,,,,,,2025-11-14,1,,,,,,0
2222,8021001086795,新規,0,2025-11-14,2025-11-14,株式会社ＣｏＣｏＳＴＡ,,株式会社,神奈川県,鎌倉市,台２丁目１９番５号,,14,204,2470061,,,,,,,2025-11-14,1,,,,,ココスタ,0
2236,8030001169361,新規,0,2025-11-14,2025-11-14,株式会社エヌアイプランニング,,株式会社,埼玉県,川口市,戸塚東４丁目２８番１号,,11,203,3330802,,,,,,,2025-11-14,1,,,,,エヌアイプランニング,0
2237,8030001169535,新規,0,2025-11-14,2025-11-14,ティエール株式会社,,株式会社,埼玉県,さいたま市浦和区,高砂２丁目１３番１９号Ｋ２ビル５Ｆ,,11,107,3300063,,,,,,,2025-11-14,1,,,,,ティエール,0
2238,8030001169667,新規,0,2025-11-14,2025-11-14,株式会社保険Ｗｏｒｋｅｒｓ,,株式会社,埼玉県,秩父市,吉田久長５５８番地２,,11,207,3691501,,,,,,,2025-11-14,1,,,,,ホケンワーカーズ,0
2239,8030001169675,新規,0,2025-11-14,2025-11-14,株式会社ＲＡＹ‐ＵＰ,,株式会社,埼玉県,さいたま市岩槻区,大字末田１８５番地１,,11,110,3390021,,,,,,,2025-11-14,1,,,,,レイアップ,0
2240,8030001169691,新規,0,2025-11-14,2025-11-14,株式会社ヴェルディ,,株式会社,埼玉県,和光市,下新倉４丁目２２番３２号,,11,229,3510111,,,,,,,2025-11-14,1,,,,,ヴェルディ,0
2241,8030001169700,新規,0,2025-11-14,2025-11-14,株式会社ＡＧ電気,,株式会社,埼玉県,さいたま市西区,大字西遊馬２０３３番地１１,,11,101,3310061,,,,,,,2025-11-14,1,,,,,エージーデンキ,0
2242,8030001169709,新規,0,2025-11-14,2025-11-14,株式会社ＶＩＮＮＩＴＡ　ＩＮＣ,,株式会社,埼玉県,加須市,久下１丁目１－１２,,11,210,3470063,,,,,,,2025-11-14,1,,,,,ヴィニタインク,0
2243,8030001169733,新規,0,2025-11-14,2025-11-14,株式会社福福,,株式会社,埼玉県,所沢市,大字久米１８１９番地,,11,208,3591131,,,,,,,2025-11-14,1,,,,,フクフク,0
2244,8030001169741,新規,0,2025-11-14,2025-11-14,株式会社ＪＳｕＴ,,株式会社,埼玉県,さいたま市見沼区,大字南中野３２２番地２,,11,104,3370042,,,,,,,2025-11-14,1,,,,,ジェーサット,0
2249,8030003028078,新規,0,2025-11-14,2025-11-14,染谷資産管理合同会社,,合同会社,埼玉県,秩父市,日野田町２丁目１－８,,11,207,3680034,,,,,,,2025-11-14,1,,,,,ソメヤシサンカンリ,0
2252,8040001141385,新規,0,2025-11-14,2025-11-14,株式会社Ｗａｒｍｌｙ,,株式会社,千葉県,千葉市花見川区,幕張本郷５丁目１７－１３アナベル１０３号,,12,102,2620033,,,,,,,2025-11-14,1,,,,,ウォームリー,0
2265,8080001027275,新規,0,2025-11-14,2025-11-14,株式会社道田電設,,株式会社,静岡県,榛原郡吉田町,住吉２６０９番地の１,,22,424,4210301,,,,,,,2025-11-14,1,,,,,ミチタデンセツ,0
2268,8080101025897,新規,0,2025-11-14,2025-11-14,株式会社リノヴァ,,株式会社,静岡県,沼津市,本字下一丁田８９０番地の９,,22,203,4100863,,,,,,,2025-11-14,1,,,,,リノヴァ,0
2272,8080103003471,新規,0,2025-11-14,2025-11-14,合同会社やまなか,,合同会社,静岡県,駿東郡清水町,中徳倉三丁目５番地,,22,341,4110916,,,,,,,2025-11-14,1,,,,,ヤマナカ,0
2274,8080401028253,新規,0,2025-11-14,2025-11-14,株式会社レナグ,,株式会社,静岡県,浜松市中央区,尾張町１２７番地１３,,22,138,4300949,,,,,,,2025-11-14,1,,,,,レナグ,0
2276,8090001019610,新規,0,2025-11-14,2025-11-14,株式会社ｋｅｙ不動産,,株式会社,山梨県,甲斐市,竜王１６６５－１Ｆ,,19,210,4000118,,,,,,,2025-11-14,1,,,,,キーフドウサン,0
2295,8120001281999,新規,0,2025-11-14,2025-11-14,株式会社亘生,,株式会社,大阪府,大阪市天王寺区,空堀町５－１５ベルアーバニティ天王寺真田山９０２,,27,109,5430012,,,,,,,2025-11-14,1,,,,,コウセイ,0
2296,8120001282007,新規,0,2025-11-14,2025-11-14,株式会社アシストコミュニティ,,株式会社,大阪府,大阪市中央区,谷町９丁目２番１０号９０１号,,27,128,5420012,,,,,,,2025-11-14,1,,,,,アシストコミュニティ,0
2297,8120001282031,新規,0,2025-11-14,2025-11-14,株式会社福山エンジニアリング,,株式会社,大阪府,大阪市生野区,巽東２丁目８番２２号,00141523,27,116,5440014,,,,,,,2025-11-14,1,,,,,フクヤマエンジニアリング,0
2298,8120001282056,新規,0,2025-11-14,2025-11-14,株式会社ＴＭＲプランニング,,株式会社,大阪府,大阪市淀川区,西中島６丁目３－２４北白石ビル西館７Ｆ,,27,123,5320011,,,,,,,2025-11-14,1,,,,,ティーエムアールプランニング,0
2305,8120003031238,新規,0,2025-11-14,2025-11-14,合同会社Ｓａｎｔｅ,,合同会社,大阪府,大阪市淀川区,西中島１丁目１３番９号４Ｆ,,27,123,5320011,,,,,,,2025-11-14,1,,,,,サンテ,0
2306,8120003031254,新規,0,2025-11-14,2025-11-14,合同会社優成,,合同会社,大阪府,大阪市北区,梅田１丁目１番３号大阪駅前第３ビル２９階１－１－１号室,,27,127,5300001,,,,,,,2025-11-14,1,,,,,ユウセイ,0
2307,8120005025254,新規,0,2025-11-14,2025-11-14,一般社団法人日本耳つぼセラピスト協会,,その他の設立登記法人,大阪府,大阪市中央区,安土町１丁目４番５号本町ビル４０４,,27,128,5410052,,,,,,,2025-11-14,1,,,,,,0
2311,8120901051774,新規,0,2025-11-14,2025-11-14,株式会社Ｈａｐｐｉｎｅｃｔ,,株式会社,大阪府,箕面市,森町中３丁目１６番１５号,,27,220,5630257,,,,,,,2025-11-14,1,,,,,ハピネクト,0
2313,8120903005943,新規,0,2025-11-14,2025-11-14,合同会社ネフリス,,合同会社,大阪府,豊中市,西泉丘１丁目３番７－６１８号,,27,203,5610862,,,,,,,2025-11-14,1,,,,,ネフリス,0
2315,8122001039881,新規,0,2025-11-14,2025-11-14,ｓｏｒａｌｉｎｋ　ｇｌｏｂａｌ株式会社,,株式会社,大阪府,柏原市,平野１丁目２番５号,,27,221,5820019,,,,,,,2025-11-14,1,,,,,ソラリンクグローバル,0
2327,8140003022846,新規,0,2025-11-14,2025-11-14,ＵＬＢＥＡ合同会社,,合同会社,兵庫県,明石市,大明石町１丁目７番３３－４１５号,,28,203,6730891,,,,,,,2025-11-14,1,,,,,アルビア,0
2329,8150001028547,新規,0,2025-11-14,2025-11-14,株式会社Ｔｒｅｎｇｙ,,株式会社,奈良県,生駒市,あすか野南３丁目２番３１号,,29,209,6300133,,,,,,,2025-11-14,1,,,,,トレンジー,0
2331,8160001027226,新規,0,2025-11-14,2025-11-14,株式会社Ｈｉｎｏｍｅ,,株式会社,滋賀県,草津市,西大路町２番２号草津ＢＡＳＥ－２,,25,206,5250037,,,,,,,2025-11-14,1,,,,,ヒノメ,0
2340,8180001169462,新規,0,2025-11-14,2025-11-14,株式会社ＨＡＦ　ｍａｎａｇｅｍｅｎｔ,,株式会社,愛知県,名古屋市千種区,茶屋が坂２丁目３番１７号プレミスト茶屋ヶ坂駅前１０６号,,23,101,4640092,,,,,,,2025-11-14,1,,,,,エイチエーエフマネージメント,0
2341,8180001169479,新規,0,2025-11-14,2025-11-14,株式会社リンドウ,,株式会社,愛知県,名古屋市中区,丸の内２丁目３番２１号リヴィエール長者町２０２,,23,106,4600002,,,,,,,2025-11-14,1,,,,,リンドウ,0
2342,8180001169537,新規,0,2025-11-14,2025-11-14,株式会社ＤＯＯＯＧＡ　Ｓｕｐｐｏｒｔ　Ｃｒｅｗ,,株式会社,愛知県,名古屋市中区,丸の内２丁目７番１７号ＡＲＥＸ丸の内ＩＩ７０３,00141524,23,106,4600002,,,,,,,2025-11-14,1,,,,,ドゥーガサポートクルー,0
2343,8180001169553,新規,0,2025-11-14,2025-11-14,株式会社ＹＡＳＨＩＲＯ,,株式会社,愛知県,名古屋市昭和区,南山町８番地の２,,23,107,4660835,,,,,,,2025-11-14,1,,,,,ヤシロ,0
2350,8180303006792,新規,0,2025-11-14,2025-11-14,合同会社ＦＵＳ,,合同会社,愛知県,豊橋市,東脇１丁目１９番地８,,23,201,4418083,,,,,,,2025-11-14,1,,,,,,0
2357,8200001044423,新規,0,2025-11-14,2025-11-14,株式会社あんず,,株式会社,岐阜県,羽島郡岐南町,八剣１丁目１１番地,,21,302,5016012,,,,,,,2025-11-14,1,,,,,アンズ,0
2358,8200003007130,新規,0,2025-11-14,2025-11-14,合同会社ＳＷＩＦＴ,,合同会社,岐阜県,羽島市,上中町長間１６８１－２,,21,209,5016311,,,,,,,2025-11-14,1,,,,,スウィフト,0
2367,8250003003843,新規,0,2025-11-14,2025-11-14,合同会社神田畜産,,合同会社,山口県,大島郡周防大島町,大字東安下庄１０８８番地１,,35,305,7422805,,,,,,,2025-11-14,1,,,,,コウダチクサン,0
2369,8260001040722,新規,0,2025-11-14,2025-11-14,株式会社リネックス,,株式会社,岡山県,総社市,岡谷１１８番地３,,33,208,7191162,,,,,,,2025-11-14,1,,,,,リネックス,0
2394,8290003017690,新規,0,2025-11-14,2025-11-14,合同会社Ｏｚｕｍｉ,,合同会社,福岡県,福岡市中央区,大名１丁目５番１３号３０３号室,,40,133,8100041,,,,,,,2025-11-14,1,,,,,オズミ,0
2399,8290801032032,新規,0,2025-11-14,2025-11-14,株式会社Ａｎｔｓ,,株式会社,福岡県,北九州市八幡西区,小嶺台１丁目１２－２ピアチューレ園３０１,,40,109,8070082,,,,,,,2025-11-14,1,,,,,アンツ,0
2402,8300003002377,新規,0,2025-11-14,2025-11-14,島二設計合同会社,,合同会社,佐賀県,武雄市,武雄町大字富岡１１２３３番地２,,41,206,8430024,,,,,,,2025-11-14,1,,,,,トウジセッケイ,0
2403,8310001019851,新規,0,2025-11-14,2025-11-14,株式会社松電,,株式会社,長崎県,北松浦郡佐々町,小浦免５番地６,,42,391,8570361,,,,,,,2025-11-14,1,,,,,マツデン,0
2407,8330001033751,新規,0,2025-11-14,2025-11-14,株式会社勇成,,株式会社,熊本県,熊本市中央区,帯山６丁目３番２５－２０２号,,43,101,8620924,,,,,,,2025-11-14,1,,,,,ユウセイ,0
2413,8350001019807,新規,0,2025-11-14,2025-11-14,株式会社ｅｎｉｌｙ,,株式会社,宮崎県,宮崎市,昭栄町２０ａｐａｒｔｍｅｎｔ結１０２,,45,201,8800833,,,,,,,2025-11-14,1,,,,,エニリー,0
2417,8360001035992,新規,0,2025-11-14,2025-11-14,株式会社ブルーケーブ沖縄,,株式会社,沖縄県,那覇市,楚辺２丁目３５－１４古波津商事ビル３０２,,47,201,9000023,,,,,,,2025-11-14,1,,,,,ブルーケーブオキナワ,0
2425,8420001019337,新規,0,2025-11-14,2025-11-14,株式会社ＭＡＨＡＬＯ,,株式会社,青森県,むつ市,金曲２丁目７番９号,,02,208,0350041,,,,,,,2025-11-14,1,,,,,マハロ,0
2426,8420001019345,新規,0,2025-11-14,2025-11-14,株式会社はなとひと,,株式会社,青森県,北津軽郡中泊町,大字薄市字玉清水６７番地２,,02,387,0370302,,,,,,,2025-11-14,1,,,,,ハナトヒト,0
2437,8440005002808,新規,0,2025-11-14,2025-11-14,一般社団法人ＤＳＨ,,その他の設立登記法人,北海道,二海郡八雲町,上八雲２９６－１,,01,346,0493121,,,,,,,2025-11-14,1,,,,,ディーエスエイチ,0
2438,8450001014789,新規,0,2025-11-14,2025-11-14,株式会社旭川みらい計画,,株式会社,北海道,旭川市,一条通７丁目２０２番地エンドレス１７,,01,204,0700031,,,,,,,2025-11-14,1,,,,,アサヒカワミライケイカク,0
2442,8490001011205,新規,0,2025-11-14,2025-11-14,マーク住宅株式会社,,株式会社,高知県,高知市,大川筋１丁目６番２１号,,39,201,7800052,,,,,,,2025-11-14,1,,,,,マークジュウタク,0
2444,8700150132746,新規,0,2025-11-14,2025-11-14,ＪＳＭ　ＩＮＶＥＳＴＭＥＮＴＳ　ＬＩＭＩＴＥＤ,,外国会社等,,,,,,,,ＯＭＣ　Ｃｈａｍｂｅｒｓ，Ｗｉｃｋｈａｍｓ　Ｃａｙ　１，Ｒｏａｄ　Ｔｏｗｎ，Ｔｏｒｔｏｌａ，Ｂｒｉｔｉｓｈ　Ｖｉｒｇｉｎ　Ｉｓｌａｎｄｓ,,,,,,2025-11-14,1,,,,,ジエーエスエムインベストメントリミテツド,0
2445,8700150132944,新規,0,2025-11-14,2025-11-14,ＳＫ　Ｉｍｐａｃｔ　Ｆｕｎｄ　Ｋｙｏｔｏ，ＬＬＣ,,外国会社等,,,,,,,,１６０７　２８ｔｈ　Ｓｔｒｅｅｔ　ＮＷ　Ｗａｓｈｉｎｇｔｏｎ，ＤＣ，２０００７　ＵＳＡ,,,,,,2025-11-14,1,,,,,エスケイインパクトフアンドキヨウトエルエルシー,0
2450,9010001260105,新規,0,2025-11-14,2025-11-14,株式会社Ｌｉｂｅｒｔａ,,株式会社,東京都,中央区,日本橋２丁目１６－４ｒｅｍｉｘ日本橋６階,,13,102,1030027,,,,,,,2025-11-14,1,,,,,リベルタ,0
2451,9010001260245,新規,0,2025-11-14,2025-11-14,株式会社ＭＴＫ,,株式会社,東京都,中央区,銀座１丁目１２－４Ｎ＆ＥＢＬＤ．７階,,13,102,1040061,,,,,,,2025-11-14,1,,,,,エムティーケー,0
2452,9010001260261,新規,0,2025-11-14,2025-11-14,株式会社エネマモ,,株式会社,東京都,中央区,銀座２丁目１５番２号ＫＲＧｉｎｚａＩＩ６階,00141540,13,102,1040061,,,,,,,2025-11-14,1,,,,,エネマモ,0
2453,9010001260328,新規,0,2025-11-14,2025-11-14,株式会社日本総合保証サービス,,株式会社,東京都,中央区,銀座１丁目１２番４号Ｎ＆ＥＢＬＤ．７階,,13,102,1040061,,,,,,,2025-11-14,1,,,,,ニホンソウゴウホショウサービス,0
2455,9010003049323,新規,0,2025-11-14,2025-11-14,Ｍａｒａｊ　Ｅｎｔｅｒｐｒｉｓｅｓ合同会社,,合同会社,東京都,千代田区,神田小川町３丁目１１番Ｅ／Ｆｒｏｎｔビル６階,,13,101,1010052,,,,,,,2025-11-14,1,,,,,マラジエンタープライズ,0
2456,9010003049397,新規,0,2025-11-14,2025-11-14,ＶＣＦ　Ｉｎｓｔｉｔｕｔｅ合同会社,,合同会社,東京都,中央区,日本橋室町１丁目１１番１２号日本橋水野ビル７階,,13,102,1030022,,,,,,,2025-11-14,1,,,,,ブイシーエフインスティテュート,0
2465,9010405024907,新規,0,2025-11-14,2025-11-14,一般社団法人Ｊａｐａｎｅｓｅ　Ｈｅｒｉｔａｇｅ　Ｓｏｃｉｅｔｙ,,その他の設立登記法人,東京都,港区,南青山３丁目１番３６号青山丸竹ビル６Ｆ,,13,103,1070062,,,,,,,2025-11-14,1,,,,,ジャパニーズヘリテージソサイエティ,0
2466,9010405024948,新規,0,2025-11-14,2025-11-14,一般社団法人ソーシャル・エックス総研,,その他の設立登記法人,東京都,港区,北青山１丁目３番３号三橋ビル３階,,13,103,1070061,,,,,,,2025-11-14,1,,,,,ソーシャルエックスソウケン,0
2467,9010405025021,新規,0,2025-11-14,2025-11-14,新市街ホールディング２一般社団法人,,その他の設立登記法人,東京都,港区,虎ノ門３丁目２２番１０－２０１号,,13,103,1050001,,,,,,,2025-11-14,1,,,,,シンシガイホールディングツー,0
2469,9010703008000,新規,0,2025-11-14,2025-11-14,波彩合同会社,,合同会社,東京都,品川区,大崎２丁目９－１,,13,109,1410032,,,,,,,2025-11-14,1,,,,,ハサイ,0
2479,9011001173593,新規,0,2025-11-14,2025-11-14,株式会社富士,,株式会社,東京都,渋谷区,神南１丁目１１番４号ＦＰＧリンクス神南５階,,13,113,1500041,,,,,,,2025-11-14,1,,,,,フジ,0
2480,9011003022996,新規,0,2025-11-14,2025-11-14,合同会社旅Ｇｏ,,合同会社,東京都,渋谷区,幡ヶ谷３丁目１６番４号伊藤コーポ１０３,,13,113,1510072,,,,,,,2025-11-14,1,,,,,タビゴー,0
2484,9011101113945,新規,0,2025-11-14,2025-11-14,株式会社ゾルゲンフライ,,株式会社,東京都,新宿区,新宿１丁目３６番２号新宿第七葉山ビル３Ｆ,,13,104,1600022,,,,,,,2025-11-14,1,,,,,ゾルゲンフライ,0
2485,9011101113986,新規,0,2025-11-14,2025-11-14,ＭｅｅＮａＣｏｓｍｅｔｉｃｓ株式会社,,株式会社,東京都,新宿区,西新宿３丁目４番４号京王西新宿南ビル８Ｆ,,13,104,1600023,,,,,,,2025-11-14,1,,,,,ミーナコスメティックス,0
2489,9011701028931,新規,0,2025-11-14,2025-11-14,株式会社ＫＨＡＮ　ＩＮＴＥＲＮＡＴＩＯＮＡＬ,,株式会社,東京都,江戸川区,鹿骨２丁目１１番２号高栄荘２０１,,13,123,1330073,,,,,,,2025-11-14,1,,,,,カーンインターナショナル,0
2493,9012301014603,新規,0,2025-11-14,2025-11-14,株式会社フクサワ建築,,株式会社,東京都,町田市,野津田町１８８９番地４,,13,209,1950063,,,,,,,2025-11-14,1,,,,,フクサワケンチク,0
2503,9020001165757,新規,0,2025-11-14,2025-11-14,株式会社ＮＥＸＴ,,株式会社,神奈川県,川崎市川崎区,宮本町６番地１２ＧＳ川崎ビル２２０,,14,131,2100004,,,,,,,2025-11-14,1,,,,,ネクスト,0
2510,9021001086794,新規,0,2025-11-14,2025-11-14,株式会社ソリッドパートナーズ,,株式会社,神奈川県,平塚市,豊原町９番１２号２階,,14,203,2540051,,,,,,,2025-11-14,1,,,,,ソリッドパートナーズ,0
2517,9030001169674,新規,0,2025-11-14,2025-11-14,株式会社ｆｒａｃｔａｌ,,株式会社,埼玉県,富士見市,水谷１丁目１１番地１５パルトゥネールみずほ台１０３,,11,235,3540014,,,,,,,2025-11-14,1,,,,,フラクタル,0
2518,9030001169699,新規,0,2025-11-14,2025-11-14,株式会社Ｒｕｄｙ,,株式会社,埼玉県,春日部市,下柳１０６３番地１,,11,214,3440122,,,,,,,2025-11-14,1,,,,,ルディ,0
2519,9030001169708,新規,0,2025-11-14,2025-11-14,株式会社口福,00141546,株式会社,埼玉県,蓮田市,大字閏戸２９１５番地２,,11,238,3490133,,,,,,,2025-11-14,1,,,,,コウフク,0
2520,9030001169724,新規,0,2025-11-14,2025-11-14,株式会社アクア,,株式会社,埼玉県,新座市,馬場２丁目１１番２２号,,11,230,3520016,,,,,,,2025-11-14,1,,,,,アクア,0
2521,9030001169732,新規,0,2025-11-14,2025-11-14,アンカー・ワン株式会社,,株式会社,埼玉県,北葛飾郡松伏町,大字築比地６４０番地,,11,465,3430102,,,,,,,2025-11-14,1,,,,,アンカーワン,0
2522,9030001169740,新規,0,2025-11-14,2025-11-14,株式会社大山設備,,株式会社,埼玉県,白岡市,太田新井３５－１,,11,246,3490225,,,,,,,2025-11-14,1,,,,,オオヤマセツビ,0
2526,9030003028069,新規,0,2025-11-14,2025-11-14,ＨＯＵＳＥ６１０合同会社,,合同会社,埼玉県,富士見市,ふじみ野東２丁目８番地１ライオンズふじみ野グランフォート４０１,,11,235,3540036,,,,,,,2025-11-14,1,,,,,ハウスロクイチマル,0
2527,9030003028077,新規,0,2025-11-14,2025-11-14,合同会社アルファ,,合同会社,埼玉県,新座市,大和田１丁目２８番２０号,,11,230,3520004,,,,,,,2025-11-14,1,,,,,アルファ,0
2528,9030003028093,新規,0,2025-11-14,2025-11-14,ＢｒｉｇｈｔＷａｙ合同会社,,合同会社,埼玉県,蕨市,塚越４丁目１２－２７東建ニューハイツ蕨市民公園７０８,,11,223,3350002,,,,,,,2025-11-14,1,,,,,ブライトウェイ,0
2529,9030003028102,新規,0,2025-11-14,2025-11-14,合同会社ナナイロ,,合同会社,埼玉県,川口市,飯塚２丁目１番３９－２７０７号,,11,203,3320023,,,,,,,2025-11-14,1,,,,,ナナイロ,0
2532,9040001141384,新規,0,2025-11-14,2025-11-14,株式会社子ども未来,,株式会社,千葉県,柏市,南柏中央１－４君塚ビル４Ｆ,,12,217,2770075,,,,,,,2025-11-14,1,,,,,コドモミライ,0
2536,9050001057605,新規,0,2025-11-14,2025-11-14,トキワＥ＆Ｃホールディングス株式会社,,株式会社,茨城県,水戸市,笠原町１４３０番地の１,,08,201,3100852,,,,,,,2025-11-14,1,,,,,トキワイーアンドシーホールディングス,0
2540,9060001038769,新規,0,2025-11-14,2025-11-14,株式会社ＫＵＵ,,株式会社,栃木県,宇都宮市,中岡本町２７３７番地１,,09,201,3291105,,,,,,,2025-11-14,1,,,,,クー,0
2545,9080001027282,新規,0,2025-11-14,2025-11-14,株式会社プラフィ,,株式会社,静岡県,静岡市駿河区,西脇４８７番地,,22,102,4228044,,,,,,,2025-11-14,1,,,,,プラフィ,0
2554,9110003005968,新規,0,2025-11-14,2025-11-14,合同会社にこふぁむ,,合同会社,新潟県,新潟市中央区,有明大橋町５番１７号,,15,103,9518146,,,,,,,2025-11-14,1,,,,,ニコファム,0
2555,9110005017284,新規,0,2025-11-14,2025-11-14,特定非営利活動法人フードバンクにいがた南,,その他の設立登記法人,新潟県,新潟市南区,大通黄金５丁目１７番地１９,,15,106,9501203,,,,,,,2025-11-14,1,,,,,フードバンクニイガタミナミ,0
2571,9120001281775,新規,0,2025-11-14,2025-11-14,ＭＭ社債投資株式会社,,株式会社,大阪府,大阪市中央区,博労町２丁目４番１１号中博ビル,,27,128,5410059,,,,,,,2025-11-14,1,,,,,エムエムシャサイトウシ,0
2572,9120001281874,新規,0,2025-11-14,2025-11-14,Ｓａｋｉ＆Ｎｅｏ貿易株式会社,,株式会社,大阪府,大阪市東成区,中道４丁目１６－２１山上ビル－４０７,,27,115,5370025,,,,,,,2025-11-14,1,,,,,サキトネオボウエキ,0
2573,9120001281899,新規,0,2025-11-14,2025-11-14,明輝国際諮詢株式会社,,株式会社,大阪府,大阪市西区,九条南４丁目７－５－５０２,,27,106,5500025,,,,,,,2025-11-14,1,,,,,メイキコクサイコンサルティング,0
2574,9120001281973,新規,0,2025-11-14,2025-11-14,株式会社ゼロ・ワン,,株式会社,大阪府,大阪市港区,池島３丁目６番１９号,,27,107,5520015,,,,,,,2025-11-14,1,,,,,ゼロワン,0
2575,9120001281981,新規,0,2025-11-14,2025-11-14,ベルデマール株式会社,,株式会社,大阪府,大阪市北区,梅田２丁目６番２０号パシフィックマークス西梅田４階,,27,127,5300001,,,,,,,2025-11-14,1,,,,,ベルデマール,0
2576,9120001281998,新規,0,2025-11-14,2025-11-14,ｂｒｉｌｉ　ｓｔａｙ株式会社,,株式会社,大阪府,大阪市北区,大淀中１丁目１５番８号ゼスト大淀５０３,,27,127,5310076,,,,,,,2025-11-14,1,,,,,ブリリステイ,0
2577,9120001282022,新規,0,2025-11-14,2025-11-14,ＲＥＴＯＭＯＴＨ株式会社,,株式会社,大阪府,大阪市北区,梅田１丁目２番２号大阪駅前第２ビル１２‐１２,,27,127,5300001,,,,,,,2025-11-14,1,,,,,レトモス,0
2578,9120001282055,新規,0,2025-11-14,2025-11-14,株式会社ＲｏｃｋＣａｐｅ,,株式会社,大阪府,大阪市淀川区,十三東１丁目２０番１１号セレッソコートリバーサイドＯＳＡＫＡ１１０５,,27,123,5320023,,,,,,,2025-11-14,1,,,,,ロックケープ,0
2582,9120003031229,新規,0,2025-11-14,2025-11-14,合同会社エブリス,,合同会社,大阪府,大阪市天王寺区,上本町４丁目１－１６上本町オレンジビル３０５,,27,109,5430001,,,,,,,2025-11-14,1,,,,,エブリス,0
2583,9120003031237,新規,0,2025-11-14,2025-11-14,Ｅｃｏ　Ｃｏｎｎｅｃｔ　Ｐｌｕｓ合同会社,,合同会社,大阪府,大阪市中央区,松屋町１番１６－９０３号,,27,128,5420067,,,,,,,2025-11-14,1,,,,,エココネクトプラス,0
2593,9130001081010,新規,0,2025-11-14,2025-11-14,Ｍハウジングサポート株式会社,,株式会社,京都府,京都市左京区,修学院鹿ノ下町１番地１,,26,103,6068082,,,,,,,2025-11-14,1,,,,,エムハウジングサポート,0
2594,9130001081035,新規,0,2025-11-14,2025-11-14,株式会社ｓｉｎｚａｎ,,株式会社,京都府,京都市右京区,太秦堀池町３０番地９６,,26,108,6168186,,,,,,,2025-11-14,1,,,,,シンザン,0
2602,9140001140748,新規,0,2025-11-14,2025-11-14,株式会社ａｒｃ,,株式会社,兵庫県,芦屋市,船戸町６－１９－１０５,,28,206,6590093,,,,,,,2025-11-14,1,,,,,アーク,0
2603,9140001140764,新規,0,2025-11-14,2025-11-14,株式会社建創,,株式会社,兵庫県,姫路市,広畑区西蒲田１０１６番地５,,28,201,6711107,,,,,,,2025-11-14,1,,,,,ケンソウ,0
2605,9140003022837,新規,0,2025-11-14,2025-11-14,合同会社創志,,合同会社,兵庫県,川西市,加茂３丁目３－９,,28,217,6660025,,,,,,,2025-11-14,1,,,,,ソウシ,0
2606,9140005027669,新規,0,2025-11-14,2025-11-14,特定非営利活動法人ｈａｐｐｙ　ｆｕｔｕｒｅｓ,,その他の設立登記法人,兵庫県,揖保郡太子町,鵤５４１番地１,,28,464,6711561,,,,,,,2025-11-14,1,,,,,ハッピーフューチャーズ,0
2607,9150001028554,新規,0,2025-11-14,2025-11-14,株式会社縁,,株式会社,奈良県,桜井市,大字河西７２５番地の３５,,29,206,6330051,,,,,,,2025-11-14,1,,,,,エニシ,0
2608,9160001027225,新規,0,2025-11-14,2025-11-14,株式会社ＥＮＴＯＴＳＵ,,株式会社,滋賀県,甲賀市,信楽町長野３１７番地２１,,25,209,5291851,,,,,,,2025-11-14,1,,,,,エントツ,0
2621,9180001169494,新規,0,2025-11-14,2025-11-14,株式会社コドモト,,株式会社,愛知県,名古屋市中村区,名駅４丁目２４番５号第２森ビル４０１,,23,105,4500002,,,,,,,2025-11-14,1,,,,,コドモト,0
2622,9180001169536,新規,0,2025-11-14,2025-11-14,カルネ不動産株式会社,,株式会社,愛知県,名古屋市中区,富士見町１３番１９号富士見町八木ビル７０９号,,23,106,4600014,,,,,,,2025-11-14,1,,,,,カルネフドウサン,0
2623,9180001169552,新規,0,2025-11-14,2025-11-14,株式会社ＲＥＶＡＲＣＨ,,株式会社,愛知県,名古屋市中川区,一色新町１丁目５０７番地ユニーブル伏屋南２０３号,,23,110,4540946,,,,,,,2025-11-14,1,,,,,レバーチ,0
2631,9180005021313,新規,0,2025-11-14,2025-11-14,一般社団法人Ｓｐｏｒｔｓ　Ａｉｃｈｉ,,その他の設立登記法人,愛知県,名古屋市中川区,松葉町２丁目１６番地２Ｆ,,23,110,4540818,,,,,,,2025-11-14,1,,,,,スポーツアイチ,0
2635,9180301040413,新規,0,2025-11-14,2025-11-14,碧ピッグファーム株式会社,,株式会社,愛知県,碧南市,川口町１丁目１６４番地,,23,209,4470823,,,,,,,2025-11-14,1,,,,,アオイピッグファーム,0
2637,9180303006809,新規,0,2025-11-14,2025-11-14,亮月合同会社,,合同会社,愛知県,新城市,中宇利字三社五所３３番地３,,23,221,4411334,,,,,,,2025-11-14,1,,,,,リョウゲツ,0
2643,9200001044430,新規,0,2025-11-14,2025-11-14,株式会社やわらぎ,,株式会社,岐阜県,岐阜市,茜部新所１丁目２３７番地,,21,201,5008263,,,,,,,2025-11-14,1,,,,,ヤワラギ,0
2645,9210001020389,新規,0,2025-11-14,2025-11-14,江守トレーディング株式会社,,株式会社,福井県,福井市,光陽２丁目２番３９号,,18,201,9100026,,,,,,,2025-11-14,1,,,,,エモリトレーディング,0
2648,9220001027020,新規,0,2025-11-14,2025-11-14,ＢＡＳＥＹＡＲＺ株式会社,,株式会社,石川県,加賀市,黒崎町ゆ１０５番地,,17,206,9220565,,,,,,,2025-11-14,1,,,,,ベースヤーズ,0
2656,9240001065778,新規,0,2025-11-14,2025-11-14,株式会社ＡｉｍＹ,,株式会社,広島県,福山市,曙町２丁目５番１０－２号,,34,207,7210952,,,,,,,2025-11-14,1,,,,,エイミー,0
2660,9250001021425,新規,0,2025-11-14,2025-11-14,株式会社静造園,,株式会社,山口県,美祢市,美東町真名８５０番地１,,35,213,7540122,,,,,,,2025-11-14,1,,,,,シズゾウエン,0
2666,9270001009328,新規,0,2025-11-14,2025-11-14,株式会社リガーレ,,株式会社,鳥取県,米子市,和田町２８１４番地,,31,202,6830102,,,,,,,2025-11-14,1,,,,,リガーレ,0
2677,9290001112138,新規,0,2025-11-14,2025-11-14,株式会社ＳＥＰＴ,,株式会社,福岡県,福岡市博多区,博多駅前１丁目８－７－１０１２,,40,132,8120011,,,,,,,2025-11-14,1,,,,,セプト,0
2682,9360001035959,新規,0,2025-11-14,2025-11-14,琉球コーヒーエナジーＨＤ株式会社,,株式会社,沖縄県,南城市,玉城字百名１１２８－１,,47,215,9010603,,,,,,,2025-11-14,1,,,,,リュウキュウコーヒーエナジーホールディングス,0
2683,9360003015397,新規,0,2025-11-14,2025-11-14,Ｌｕｍｉｅｒｅ合同会社,,合同会社,沖縄県,那覇市,字安里１１９番地,,47,201,9020067,,,,,,,2025-11-14,1,,,,,ルミエール,0
2686,9370003007369,新規,0,2025-11-14,2025-11-14,合同会社ねすとぷらす,,合同会社,宮城県,柴田郡大河原町,大谷字町向１３３番地１,,04,321,9891201,,,,,,,2025-11-14,1,,,,,ネストプラス,0
2691,9420001019336,新規,0,2025-11-14,2025-11-14,株式会社ユタカファーム,,株式会社,青森県,つがる市,柏玉水８番地,,02,209,0383106,,,,,,,2025-11-14,1,,,,,ユタカファーム,0
2696,9430001095649,新規,0,2025-11-14,2025-11-14,株式会社Ｎ,,株式会社,北海道,札幌市南区,川沿一条３丁目１０番５号,,01,106,0050801,,,,,,,2025-11-14,1,,,,,エヌ,0
2697,9430001095681,新規,0,2025-11-14,2025-11-14,株式会社零,,株式会社,北海道,札幌市北区,北二十七条西６丁目２番２９号,,01,102,0010027,,,,,,,2025-11-14,1,,,,,ゼロ,0
2699,9430005015355,新規,0,2025-11-14,2025-11-14,一般社団法人森ひとネット,,その他の設立登記法人,北海道,札幌市中央区,北一条西２８丁目１番５－１１０３号,,01,101,0640821,,,,,,,2025-11-14,1,,,,,モリヒトネット,0
2700,9450003002741,新規,0,2025-11-14,2025-11-14,合同会社末廣,,合同会社,北海道,旭川市,末広東二条８丁目７番１８号,,01,204,0718122,,,,,,,2025-11-14,1,,,,,スエヒロ,0
2708,9700150132943,新規,0,2025-11-14,2025-11-14,縱徳投資有限公司,00141517,外国会社等,,,,,,,,台湾台北市信義区永吉路１６８号８楼,,,,,,2025-11-14,1,,,,,ゾンデトウシユウゲンコウシ,0
