sequenceNumber,corporateNumber,process,correct,updateDate,changeDate,name,nameImageId,kind,prefectureName,cityName,streetNumber,addressImageId,prefectureCode,cityCode,postCode,addressOutside,addressOutsideImageId,closeDate,closeCause,successorCorporateNumber,changeCause,assignmentDate,latest,enName,enPrefectureName,enCityName,enAddressOutside,furigana,hihyoji
3,1010001060909,登記記録の閉鎖等,0,2022-05-18,2022-05-12,若林不動産株式会社,,株式会社,東京都,中央区,日本橋３丁目４番１５号,,13,102,1030027,,,2022-05-12,合併による解散等,8010001131934,令和４年５月２日東京都港区東新橋二丁目１４番１号株式会社ワールドレジデンシャル（8010001131934）に合併し解散,2015-10-05,1,,,,,ワカバヤシフドウサン,0
15,1010002027493,登記記録の閉鎖等,0,2022-05-18,2022-04-28,有限会社エスコート,,有限会社,東京都,小笠原村,父島字大村東町,,13,421,1002101,,,2022-04-28,清算の結了等,,,2015-10-05,1,,,,,エスコート,0
19,1010003029877,登記記録の閉鎖等,0,2022-05-18,2022-04-27,ＡＵＲＯＲＡ合同会社,,合同会社,東京都,中央区,日本橋兜町１７番２号兜町第６葉山ビル４階,,13,102,1030026,,,2022-04-27,清算の結了等,,,2019-05-22,1,,,,,オーロラ,0
134,1070002033585,登記記録の閉鎖等,0,2022-05-18,2022-05-11,有限会社平工務店,,有限会社,群馬県,館林市,松原３丁目１５番地の１４,,10,207,3740016,,,2022-05-11,清算の結了等,,,2015-10-05,1,,,,,タイラコウムテン,0
136,1070002034823,登記記録の閉鎖等,0,2022-05-18,2022-05-02,有限会社サンポウサービス,,有限会社,群馬県,沼田市,薄根町４４７０番地１,,10,206,3780031,,,2022-05-02,合併による解散等,4070001023799,令和４年５月１日群馬県吾妻郡高山村大字中山５５８３番地の１株式会社サンポウサービス（4070001023799）に合併し解散,2015-10-05,1,,,,,サンポウサービス,0
139,1080402000614,登記記録の閉鎖等,0,2022-05-18,2022-05-16,有限会社飯田建装,,有限会社,静岡県,浜松市東区,上西町９００番地の１１,,22,132,4350048,,,2022-05-16,清算の結了等,,,2015-10-05,1,,,,,,0
149,1110002011264,登記記録の閉鎖等,0,2022-05-18,2022-05-12,有限会社サノヤ,,有限会社,新潟県,新潟市西蒲区,曽根２２３番地,,15,108,9590422,,,2022-05-12,清算の結了等,,,2015-10-05,1,,,,,サノヤ,0
153,1120001075268,登記記録の閉鎖等,0,2022-05-18,2022-05-16,永和不動産株式会社,,株式会社,大阪府,大阪市中央区,上本町西２丁目５番４９－１１０号,,27,128,5420062,,,2022-05-16,清算の結了等,,,2015-10-05,1,,,,,エイワフドウサン,0
154,1120001133075,登記記録の閉鎖等,0,2022-05-18,2022-05-16,ベータ・スタイル株式会社,,株式会社,大阪府,大阪市北区,大淀中１丁目１６番１０号高石ビル５階,,27,127,5310076,,,2022-05-16,清算の結了等,,,2015-10-05,1,,,,,ベータスタイル,0
160,1120001197855,登記記録の閉鎖等,0,2022-05-18,2022-05-18,モダンソール株式会社,,株式会社,大阪府,大阪市天王寺区,勝山３丁目１４番３号,,27,109,5430043,,,2022-05-18,清算の結了等,,,2016-04-26,1,,,,,モダンソール,0
185,1130002025832,登記記録の閉鎖等,0,2022-05-18,2022-05-13,有限会社ストラトゲイト,,有限会社,京都府,長岡京市,天神２丁目２８番１０号,,26,209,6170824,,,2022-05-13,清算の結了等,,,2015-10-05,1,,,,,ストラトゲイト,0
230,1240001050894,登記記録の閉鎖等,0,2022-05-18,2022-05-16,株式会社ＥＳＳＯＲ,,株式会社,広島県,廿日市市,四季が丘６丁目９番地１,,34,213,7380036,,,2022-05-16,合併による解散等,9240001042579,令和４年４月２７日広島市西区商工センター六丁目６番２７号株式会社ＴＡＫＥＭＯＴＯ　Ｋｏｕｓｙａ（9240001042579）に合併し解散,2017-04-11,1,,,,,エソラ,0
235,1250002000724,登記記録の閉鎖等,0,2022-05-18,2022-05-16,有限会社加藤舞踊学院,,有限会社,山口県,山口市,後河原２４７番地の１,,35,203,7530083,,,2022-05-16,清算の結了等,,,2015-10-05,1,,,,,カトウブヨウガクイン,0
239,1260002029754,登記記録の閉鎖等,0,2022-05-18,2022-05-17,有限会社リブレット刺繍,,有限会社,岡山県,津山市,東一宮６７５番地の３,,33,203,7080814,,,2022-05-17,清算の結了等,,,2015-10-05,1,,,,,,0
244,1280001007734,登記記録の閉鎖等,0,2022-05-18,2022-05-13,株式会社ルミノー,,株式会社,島根県,出雲市,湖陵町三部８３１,,32,203,6990813,,,2022-05-13,清算の結了等,,,2018-05-15,1,,,,,ルミノー,0
252,1330003006308,登記記録の閉鎖等,0,2022-05-18,2022-05-13,合同会社ＹＵＩ企画,,合同会社,熊本県,熊本市東区,八反田２丁目６番９号,,43,102,8618034,,,2022-05-13,清算の結了等,,,2015-10-05,1,,,,,ユイキカク,0
254,1330005002569,登記記録の閉鎖等,0,2022-05-18,2022-05-12,熊本市酪農農業協同組合,,その他の設立登記法人,熊本県,菊池郡菊陽町,大字原水字南下原１３８９番地,,43,404,8691102,,,2022-05-12,清算の結了等,,,2015-10-05,1,,,,,クマモトシラクノウ,0
268,1430001011794,登記記録の閉鎖等,0,2022-05-18,2022-05-06,株式会社都市空間設計,,株式会社,北海道,札幌市南区,澄川五条１２丁目６番３４号,,01,106,0050005,,,2022-05-06,清算の結了等,,,2015-10-05,1,,,,,トシクウカンセッケイ,0
280,1430005007070,登記記録の閉鎖等,0,2022-05-18,2022-05-12,特定非営利活動法人美唄市文化協会,,その他の設立登記法人,北海道,美唄市,西四条南１丁目４番２号,,01,215,0720027,,,2022-05-12,清算の結了等,,,2015-10-05,1,,,,,ビバイシブンカキョウカイ,0
285,1470001016204,登記記録の閉鎖等,0,2022-05-18,2022-05-13,株式会社ＳＫ,,株式会社,香川県,高松市,新田町甲３００番地,,37,201,7610102,,,2022-05-13,合併による解散等,3500001007032,令和４年５月１日愛媛県伊予郡砥部町八倉１０８番地１摂陽明正株式会社（3500001007032）に合併し解散,2017-04-07,1,,,,,,0
325,2010401027639,登記記録の閉鎖等,0,2022-05-18,2022-04-25,ポピロン化成株式会社,,株式会社,東京都,港区,浜松町１丁目２番１７号,,13,103,1050013,,,2022-04-25,清算の結了等,,,2015-10-05,1,,,,,ポピロンカセイ,0
344,2010705001034,登記記録の閉鎖等,0,2022-05-18,2022-05-12,松栄戸越マンション管理組合法人,,その他の設立登記法人,東京都,品川区,平塚１丁目２１番８号,,13,109,1420051,,,2022-05-12,清算の結了等,,,2015-10-05,1,,,,,ショウエイトゴシ,0
353,2011001139345,登記記録の閉鎖等,0,2022-05-18,2022-04-27,株式会社ルートイノベーション,,株式会社,東京都,渋谷区,道玄坂１丁目１０番８号渋谷道玄坂東急ビル１Ｆ,,13,113,1500043,,,2022-04-27,清算の結了等,,,2021-03-30,1,,,,,ルートイノベーション,0
368,2011301008398,登記記録の閉鎖等,0,2022-05-18,2022-05-06,株式会社サンライズミュージック,,株式会社,東京都,杉並区,荻窪４丁目３０番１６号,,13,115,1670051,,,2022-05-06,合併による解散等,3010701021621,令和４年４月１日東京都渋谷区恵比寿一丁目１８番１４号株式会社バンダイナムコミュージックライブ（3010701021621）に合併し解散,2015-10-05,1,,,,,サンライズミュージック,0
369,2011401007416,登記記録の閉鎖等,0,2022-05-18,2022-05-16,株式会社アイ・エヌ・ジー,,株式会社,東京都,板橋区,大山東町２４番１６号,,13,119,1730014,,,2022-05-16,清算の結了等,,,2015-10-05,1,,,,,,0
380,2011802005811,登記記録の閉鎖等,0,2022-05-18,2022-05-11,有限会社中村酒店,,有限会社,東京都,葛飾区,堀切２丁目２２番１９号,,13,122,1240006,,,2022-05-11,清算の結了等,,,2015-10-05,1,,,,,ナカムラサケテン,0
381,2011802015827,登記記録の閉鎖等,0,2022-05-18,2022-05-11,有限会社土田工芸,,有限会社,東京都,足立区,青井３丁目３３番１号,,13,121,1200012,,,2022-05-11,清算の結了等,,,2015-10-05,1,,,,,ツチダコウゲイ,0
424,2040001088525,登記記録の閉鎖等,0,2022-05-18,2022-05-11,株式会社ネクストワン,,株式会社,千葉県,船橋市,二宮１丁目６２番７号,,12,204,2740823,,,2022-05-11,清算の結了等,,,2015-10-05,1,,,,,ネクストワン,0
430,2040002035955,登記記録の閉鎖等,0,2022-05-18,2022-05-10,有限会社橋本鋼業,,有限会社,千葉県,市川市,大野町１丁目４１１番５号,,12,203,2720805,,,2022-05-10,清算の結了等,,,2015-10-05,1,,,,,ハシモトコウギョウ,0
444,2080401010340,登記記録の閉鎖等,0,2022-05-18,2022-05-16,株式会社大栄製材所,,株式会社,静岡県,浜松市中区,広沢２丁目１３番１３号,,22,131,4328013,,,2022-05-16,清算の結了等,,,2015-10-05,1,,,,,ダイエイセイザイショ,0
448,2110001032616,登記記録の閉鎖等,0,2022-05-18,2022-05-13,邦栄建設株式会社,,株式会社,新潟県,新潟市東区,臨港町３丁目４９１４番地５９,,15,102,9500041,,,2022-05-13,清算の結了等,,,2017-08-04,1,,,,,ホウエイケンセツ,0
512,2220001023819,登記記録の閉鎖等,0,2022-05-18,2022-05-13,株式会社ＫＥＩＡＩリフォーム,,株式会社,石川県,金沢市,畝田西２丁目９２番地２,,17,201,9200342,,,2022-05-13,清算の結了等,,,2020-11-05,1,,,,,ケイアイリフォーム,0
565,2410002008915,登記記録の閉鎖等,0,2022-05-18,2022-05-13,三和木材工業有限会社,,有限会社,秋田県,大館市,早口字深沢岱５番地８,,05,204,0183505,,,2022-05-13,清算の結了等,,,2015-10-05,1,,,,,サンワモクザイコウギョウ,0
570,2430001051815,登記記録の閉鎖等,0,2022-05-18,2022-05-09,株式会社ノムラ,,株式会社,北海道,磯谷郡蘭越町,蘭越町１４８番地９,,01,394,0481301,,,2022-05-09,清算の結了等,,,2015-10-05,1,,,,,ノムラ,0
587,2500005001742,登記記録の閉鎖等,0,2022-05-18,2022-05-17,医療法人橘医院,,その他の設立登記法人,愛媛県,伊予市,灘町１３６番地の３,00008424,38,210,7993114,,,2022-05-17,清算の結了等,,,2015-10-05,1,,,,,タチバナイイン,0
592,3010001100522,登記記録の閉鎖等,0,2022-05-18,2022-05-12,株式会社アセットアロケーション,,株式会社,東京都,中央区,日本橋人形町３丁目４番１４号,,13,102,1030013,,,2022-05-12,合併による解散等,5120001073672,令和４年５月１日大阪市阿倍野区阪南町一丁目２７番２９号株式会社アスリート（5120001073672）に合併し解散,2015-10-05,1,,,,,アセットアロケーション,0
604,3010401013852,登記記録の閉鎖等,0,2022-05-18,2022-04-27,神谷町ビジネス管理株式会社,,株式会社,東京都,港区,虎ノ門３丁目１１番１５号（ＳＶＡＸ・ＴＴビル）,,13,103,1050001,,,2022-04-27,清算の結了等,,,2015-10-05,1,,,,,カミヤチョウビジネスカンリ,0
613,3010401159217,登記記録の閉鎖等,0,2022-05-18,2022-04-26,Ｐａｖｉｌｉｏｎｓ　Ｔｅｔｓｕｙａ　Ｋｏｍｕｒｏ株式会社,,株式会社,東京都,港区,西麻布４丁目５番１０号,,13,103,1060031,,,2022-04-26,清算の結了等,,,2021-04-09,1,,,,,パビリオンズテツヤコムロ,0
616,3010403022281,登記記録の閉鎖等,0,2022-05-18,2022-04-26,ＢｏｏｋＪａｃｋｅｔ合同会社,,合同会社,東京都,港区,浜松町２丁目２番１５号浜松町ダイヤビル２Ｆ,,13,103,1050013,,,2022-04-26,清算の結了等,,,2020-02-07,1,,,,,ブックジャケット,0
620,3010505002371,登記記録の閉鎖等,0,2022-05-18,2022-05-06,特定非営利活動法人日本サイパン文化交流会,,その他の設立登記法人,東京都,江東区,東砂３丁目２０番２１－１００１号,,13,108,1360074,,,2022-05-06,清算の結了等,,,2015-10-05,1,,,,,ニッポンサイパンブンカコウリュウカイ,0
622,3010603006654,登記記録の閉鎖等,0,2022-05-18,2022-05-06,合同会社ＦＤＭＪ,,合同会社,東京都,江東区,豊洲５丁目５番１－１６１１号,,13,108,1350061,,,2022-05-06,清算の結了等,,,2017-02-27,1,,,,,エフディーエムジェー,0
664,3012801000397,登記記録の閉鎖等,0,2022-05-18,2022-05-13,株式会社共立ピアノサービス,,株式会社,東京都,立川市,高松町１丁目１００番地、４６号棟,,13,202,1900011,,,2022-05-13,清算の結了等,,,2015-10-05,1,,,,,キョウリツピアノサービス,0
689,3021002035830,登記記録の閉鎖等,0,2022-05-18,2022-05-16,有限会社青柳機械工業,,有限会社,神奈川県,伊勢原市,岡崎６７４７番地３,,14,214,2591135,,,2022-05-16,清算の結了等,,,2015-10-05,1,,,,,アオヤギキカイコウギョウ,0
713,3070002031406,登記記録の閉鎖等,0,2022-05-18,2022-05-10,友和設備工業有限会社,,有限会社,群馬県,邑楽郡千代田町,大字舞木９７５番地の２,,10,523,3700504,,,2022-05-10,清算の結了等,,,2015-10-05,1,,,,,ユウワセツビコウギョウ,0
714,3070003004047,登記記録の閉鎖等,0,2022-05-18,2022-05-10,合同会社オナイオ,,合同会社,群馬県,高崎市,箕郷町矢原１６０番地１,,10,202,3703107,,,2022-05-10,清算の結了等,,,2021-03-23,1,,,,,オナイオ,0
743,3120002001741,登記記録の閉鎖等,0,2022-05-18,2022-05-16,絵川不動産有限会社,00030016,有限会社,大阪府,大阪市西成区,聖天下１丁目１番１２号,,27,122,5570012,,,2022-05-16,清算の結了等,,,2015-10-05,1,,,,,エガワフドウサン,0
791,3180002075499,登記記録の閉鎖等,0,2022-05-18,2022-05-02,愛北マネジメント有限会社,,有限会社,神奈川県,川崎市多摩区,生田４丁目１９番２号,,14,135,2140038,,,2022-05-02,清算の結了等,,,2015-10-05,1,,,,,アイホクマネジメント,0
793,3180003019728,登記記録の閉鎖等,0,2022-05-18,2022-05-06,合同会社ＢｉＣＥ,,合同会社,愛知県,名古屋市中区,丸の内３丁目１９番３号,,23,106,4600002,,,2022-05-06,清算の結了等,,,2019-02-27,1,,,,,ビーチェ,0
801,3200001010842,登記記録の閉鎖等,0,2022-05-18,2022-05-16,小野木商事株式会社,,株式会社,岐阜県,羽島郡岐南町,三宅７丁目１３２番地小野木ビル１０６号室,,21,302,5016002,,,2022-05-16,清算の結了等,,,2015-10-05,1,,,,,オノギショウジ,0
822,3290801025230,登記記録の閉鎖等,0,2022-05-18,2022-05-10,株式会社ＣＥＬＥＮＡＶＩ　ＪＡＰＡＮ,,株式会社,神奈川県,横浜市中区,太田町３丁目３５番３－８０６号,,14,104,2310011,,,2022-05-10,清算の結了等,,,2019-01-17,1,,,,,セレナビジャパン,0
828,3340002004557,登記記録の閉鎖等,0,2022-05-18,2022-05-16,有限会社三和ビル,,有限会社,鹿児島県,鹿児島市,平川町２４４４番地２２,,46,201,8910133,,,2022-05-16,清算の結了等,,,2015-10-05,1,,,,,サンワビル,0
836,3360005004239,登記記録の閉鎖等,0,2022-05-18,2022-05-02,特定非営利活動法人沖縄管弦楽団,,その他の設立登記法人,沖縄県,那覇市,天久２丁目１９番１７号,,47,201,9000005,,,2022-05-02,清算の結了等,,,2015-10-05,1,,,,,オキナワカンゲンガクダン,0
861,3500001006942,登記記録の閉鎖等,0,2022-05-18,2022-05-16,株式会社三洋,,株式会社,愛媛県,松山市,高山町２番１８号,,38,201,7918079,,,2022-05-16,清算の結了等,,,2015-10-05,1,,,,,サンヨウ,0
865,3700150077450,登記記録の閉鎖等,0,2022-05-18,2022-01-19,クレスト会,,その他,愛知県,名古屋市中区,錦３丁目１０－３３錦ＳＩＳビル３階,,23,106,4600003,,,2022-01-19,その他の清算の結了等,,,2016-11-17,1,,,,,クレストカイ,0
869,4010001110347,登記記録の閉鎖等,0,2022-05-18,2022-04-20,株式会社小ばなし,,株式会社,東京都,中央区,日本橋兜町７番地１２,,13,102,1030026,,,2022-04-20,清算の結了等,,,2015-10-05,1,,,,,コバナシ,0
893,4010405012180,登記記録の閉鎖等,0,2022-05-18,2022-04-27,いちごＥＣＯ発電所４一般社団法人,,その他の設立登記法人,東京都,港区,元赤坂１丁目１番７号,,13,103,1070051,,,2022-04-27,清算の結了等,,,2015-10-05,1,,,,,イチゴエコハツデンショヨン,0
897,4010601016927,登記記録の閉鎖等,0,2022-05-18,2022-05-02,スリーフォンテン株式会社,,株式会社,東京都,江東区,亀戸３丁目３０番１９号,,13,108,1360071,,,2022-05-02,清算の結了等,,,2015-10-05,1,,,,,スリーフォンテン,0
911,4011005000294,登記記録の閉鎖等,0,2022-05-18,2022-04-27,一般財団法人日本税務協会,,その他の設立登記法人,東京都,渋谷区,鶯谷町１９番１号,,13,113,1500032,,,2022-04-27,清算の結了等,,,2015-10-05,1,,,,,ニホンゼイムキョウカイ,0
913,4011101002979,登記記録の閉鎖等,0,2022-05-18,2022-05-11,株式会社エス・エヌ設計,,株式会社,東京都,豊島区,千川２丁目１番１３号,,13,116,1710041,,,2022-05-11,清算の結了等,,,2015-10-05,1,,,,,エスエヌセッケイ,0
914,4011101015931,登記記録の閉鎖等,0,2022-05-18,2022-05-16,株式会社日東橋梁設計事務所,,株式会社,東京都,新宿区,新宿２丁目９０番８号,,13,104,1600022,,,2022-05-16,清算の結了等,,,2015-10-05,1,,,,,ニットウキョウリョウセッケイジムショ,0
930,4011501003222,登記記録の閉鎖等,0,2022-05-18,2022-05-13,株式会社トイショップヘイワ,,株式会社,東京都,北区,上十条２丁目２４番１０号,,13,117,1140034,,,2022-05-13,清算の結了等,,,2015-10-05,1,,,,,トイショップヘイワ,0
938,4012402023193,登記記録の閉鎖等,0,2022-05-18,2022-05-12,有限会社ウィル,,有限会社,東京都,調布市,小島町１丁目３１－９調布ガーデンハウス２０４,,13,208,1820026,,,2022-05-12,清算の結了等,,,2015-10-05,1,,,,,ウィル,0
940,4012801006699,登記記録の閉鎖等,0,2022-05-18,2022-05-12,株式会社ケーテック,,株式会社,東京都,昭島市,美堀町２丁目１８番６号,,13,207,1960001,,,2022-05-12,清算の結了等,,,2015-10-05,1,,,,,ケーテック,0
944,4020001077973,登記記録の閉鎖等,0,2022-05-18,2022-05-10,株式会社ひかり社,,株式会社,神奈川県,川崎市宮前区,馬絹４丁目４番１３号,,14,136,2160035,,,2022-05-10,清算の結了等,,,2015-10-05,1,,,,,ヒカリシャ,0
983,4040005020176,登記記録の閉鎖等,0,2022-05-18,2022-05-06,一般社団法人まどか,,その他の設立登記法人,千葉県,千葉市稲毛区,天台３丁目２番１０号,,12,103,2630016,,,2022-05-06,清算の結了等,,,2018-11-07,1,,,,,マドカ,0
987,4070001009550,登記記録の閉鎖等,0,2022-05-18,2022-05-10,株式会社もりた商会,,株式会社,群馬県,高崎市,足門町１６６６番地の３,,10,202,3703531,,,2022-05-10,清算の結了等,,,2015-10-05,1,,,,,モリタショウカイ,0
993,4070002000772,登記記録の閉鎖等,0,2022-05-18,2022-05-12,鵜川商工有限会社,,有限会社,群馬県,前橋市,下小出町３丁目２７番地１,,10,201,3710031,,,2022-05-12,清算の結了等,,,2015-10-05,1,,,,,ウガワショウコウ,0
994,4070002011027,登記記録の閉鎖等,0,2022-05-18,2022-05-10,有限会社塚越建築設計事務所,,有限会社,群馬県,高崎市,上里見町５６番地の１,,10,202,3703345,,,2022-05-10,清算の結了等,,,2015-10-05,1,,,,,ツカゴシケンチクセッケイジムショ,0
996,4080001018278,登記記録の閉鎖等,0,2022-05-18,2022-05-16,株式会社天龍ビル,,株式会社,静岡県,静岡市葵区,上足洗２丁目５番１９号,,22,101,4200841,,,2022-05-16,清算の結了等,,,2015-10-05,1,,,,,テンリュウビル,0
1002,4080102001604,登記記録の閉鎖等,0,2022-05-18,2022-05-16,有限会社塩沢美容商会,,有限会社,静岡県,沼津市,高沢町１２番１９号,,22,203,4100057,,,2022-05-16,清算の結了等,,,2015-10-05,1,,,,,シオザワビヨウショウカイ,0
1003,4080401000273,登記記録の閉鎖等,0,2022-05-18,2022-05-16,渥美乳販株式会社,,株式会社,静岡県,浜松市北区,三方原町１７８８番地の５,,22,135,4338105,,,2022-05-16,清算の結了等,,,2015-10-05,1,,,,,アツミニュウハン,0
1007,4100001025115,登記記録の閉鎖等,0,2022-05-18,2022-05-12,株式会社シリカライム,,株式会社,東京都,千代田区,二番町５番地１,,13,101,1020084,,,2022-05-12,合併による解散等,3100001000597,令和４年５月１日長野市大字鶴賀緑町１４１５番地株式会社カクイチ（3100001000597）に合併し解散,2015-10-05,1,,,,,シリカライム,0
1014,4120001043684,登記記録の閉鎖等,0,2022-05-18,2022-05-16,株式会社サンシンコー,,株式会社,大阪府,大阪市西区,北堀江２丁目１５番９号,,27,106,5500014,,,2022-05-16,清算の結了等,,,2015-10-05,1,,,,,サンシンコー,0
1037,4120002013273,登記記録の閉鎖等,0,2022-05-18,2022-05-16,有限会社ツルヤテニス堂,,有限会社,大阪府,大阪市天王寺区,烏ケ辻１丁目１番７号,00030540,27,109,5430042,,,2022-05-16,清算の結了等,,,2015-10-05,1,,,,,ツルヤテニスドウ,0
1069,4180001145905,登記記録の閉鎖等,0,2022-05-18,2022-05-13,株式会社大泉コーポレーション,,株式会社,三重県,鈴鹿市,磯山１丁目８番３７号,,24,207,5100256,,,2022-05-13,清算の結了等,,,2021-04-30,1,,,,,オオイズミコーポレーション,0
1079,4180302002747,登記記録の閉鎖等,0,2022-05-18,2022-05-12,有限会社誠産業,,有限会社,愛知県,岡崎市,宮石町字トウモ４番地,,23,202,4442109,,,2022-05-12,清算の結了等,,,2015-10-05,1,,,,,マコトサンギョウ,0
1092,4240001026685,登記記録の閉鎖等,0,2022-05-18,2022-05-17,吉田産業株式会社,,株式会社,広島県,呉市,阿賀南２丁目８番１１号,,34,202,7370004,,,2022-05-17,清算の結了等,,,2015-10-05,1,,,,,ヨシダサンギョウ,0
1094,4250002016288,登記記録の閉鎖等,0,2022-05-18,2022-05-16,有限会社沼本商店,,有限会社,山口県,周南市,河東町６番１６号,,35,215,7450845,,,2022-05-16,清算の結了等,,,2015-10-05,1,,,,,ヌマモトショウテン,0
1110,4290003002713,登記記録の閉鎖等,0,2022-05-18,2022-05-12,合名会社東京堂製パン所,,合名会社,福岡県,久留米市,本町１３番地の１,,40,203,8300044,,,2022-05-12,清算の結了等,,,2015-10-05,1,,,,,トウキョウドウセイパンショ,0
1119,4330001011216,登記記録の閉鎖等,0,2022-05-18,2022-05-12,株式会社内田サービス,,株式会社,熊本県,上益城郡益城町,大字小谷４８０番地,,43,443,8612204,,,2022-05-12,清算の結了等,,,2015-10-05,1,,,,,ウチダサービス,0
1121,4330001014516,登記記録の閉鎖等,0,2022-05-18,2022-05-09,株式会社エム・ディ・ワイ企画,,株式会社,熊本県,水俣市,山手町１丁目６番８号,,43,205,8670046,,,2022-05-09,清算の結了等,,,2015-10-05,1,,,,,エムディワイキカク,0
1125,4330005002293,登記記録の閉鎖等,0,2022-05-18,2022-05-09,特定非営利活動法人地球緑化の会,,その他の設立登記法人,熊本県,熊本市東区,健軍１丁目３番１０号,,43,102,8620911,,,2022-05-09,清算の結了等,,,2015-10-05,1,,,,,チキュウリョッカノカイ,0
1135,4370005002901,登記記録の閉鎖等,0,2022-05-18,2022-05-11,特定非営利活動法人オリカ,,その他の設立登記法人,宮城県,仙台市若林区,上飯田１丁目３番２９号,,04,103,9840838,,,2022-05-11,清算の結了等,,,2015-10-05,1,,,,,オリカ,0
1144,4430002020180,登記記録の閉鎖等,0,2022-05-18,2022-05-06,有限会社森下地質,,有限会社,北海道,札幌市北区,篠路八条６丁目８番１６号,,01,102,0028028,,,2022-05-06,清算の結了等,,,2015-10-05,1,,,,,モリシタチシツ,0
1146,4430003008159,登記記録の閉鎖等,0,2022-05-18,2022-05-02,合同会社トリプルエー,,合同会社,北海道,札幌市中央区,北一条西３丁目３番地,,01,101,0600001,,,2022-05-02,合併による解散等,4430003008976,令和４年５月１日札幌市中央区北一条西三丁目３番地合同会社ビリーフード（4430003008976）に合併し解散,2017-01-26,1,,,,,トリプルエー,0
1152,4430005002408,登記記録の閉鎖等,0,2022-05-18,2022-05-02,札幌遊技業協同組合,,その他の設立登記法人,北海道,札幌市中央区,北一条東２丁目５番地８,,01,101,0600031,,,2022-05-02,合併による解散等,1430005002402,令和４年５月１日札幌市中央区北一条東二丁目５番地８札幌方面遊技事業協同組合（1430005002402）に合併し解散,2015-10-05,1,,,,,サッポロユウギギョウ,0
1160,4470001000857,登記記録の閉鎖等,0,2022-05-18,2022-05-12,株式会社オーケーフーズ,,株式会社,香川県,高松市,中新町１２番地１,,37,201,7600056,,,2022-05-12,清算の結了等,,,2015-10-05,1,,,,,オーケーフーズ,0
1187,5010002012153,登記記録の閉鎖等,0,2022-05-18,2022-05-16,有限会社泰栄堂書店,,有限会社,東京都,板橋区,大和町４１番１６号,,13,119,1730012,,,2022-05-16,清算の結了等,,,2015-10-05,1,,,,,,0
1210,5010602008336,登記記録の閉鎖等,0,2022-05-18,2022-04-28,有限会社三笠,,有限会社,東京都,江東区,亀戸５丁目１５番２号,,13,108,1360071,,,2022-04-28,清算の結了等,,,2015-10-05,1,,,,,,0
1217,5010801020488,登記記録の閉鎖等,0,2022-05-18,2022-05-11,スカイエアー７３７Ｔ株式会社,,株式会社,東京都,大田区,羽田空港３丁目５番１０号,,13,111,1440041,,,2022-05-11,清算の結了等,,,2015-10-05,1,,,,,スカイエアーナナサンナナティー,0
1218,5010802019876,登記記録の閉鎖等,0,2022-05-18,2022-05-11,有限会社ミキ編集工房,,有限会社,東京都,品川区,豊町２丁目１０番１９号,,13,109,1420042,,,2022-05-11,清算の結了等,,,2015-10-05,1,,,,,ミキヘンシュウコウボウ,0
1237,5011301021654,登記記録の閉鎖等,0,2022-05-18,2022-05-13,株式会社ＫＲＲクリエイツ,,株式会社,東京都,杉並区,下井草５丁目２０番７号,,13,115,1670022,,,2022-05-13,清算の結了等,,,2015-10-05,1,,,,,ケーアールアールクリエツ,0
1243,5011802012177,登記記録の閉鎖等,0,2022-05-18,2022-05-13,有限会社恵愛堂,,有限会社,東京都,足立区,西新井本町２丁目２番２９号,,13,121,1230845,,,2022-05-13,合併による解散等,9010002019616,令和４年４月１日東京都中央区月島四丁目３番地３号株式会社恵愛堂（9010002019616）に合併し解散,2015-10-05,1,,,,,,0
1271,5020002033140,登記記録の閉鎖等,0,2022-05-18,2022-05-09,有限会社梶山製作所,,有限会社,神奈川県,横浜市港北区,新吉田町２５４番地,,14,109,2230056,,,2022-05-09,清算の結了等,,,2015-10-05,1,,,,,カジヤマセイサクショ,0
1272,5020002062775,登記記録の閉鎖等,0,2022-05-18,2022-05-09,有限会社オオヤケ塗装,,有限会社,神奈川県,横浜市戸塚区,平戸１丁目１３番２５号,,14,110,2440802,,,2022-05-09,清算の結了等,,,2015-10-05,1,,,,,,0
1278,5021001061561,登記記録の閉鎖等,0,2022-05-18,2022-05-13,株式会社ＡＦＡオリジナル,,株式会社,神奈川県,小田原市,南町１丁目７番２４－３号,,14,206,2500013,,,2022-05-13,清算の結了等,,,2017-03-08,1,,,,,エーエフエーオリジナル,0
1283,5030003007869,登記記録の閉鎖等,0,2022-05-18,2022-05-17,合同会社ヒストリア,,合同会社,静岡県,賀茂郡西伊豆町,仁科２０２－１,,22,306,4103514,,,2022-05-17,清算の結了等,,,2015-10-05,1,,,,,ヒストリア,0
1288,5040001058228,登記記録の閉鎖等,0,2022-05-18,2022-05-10,花長ビル株式会社,,株式会社,千葉県,山武市,松尾町大堤３１８番地,,12,237,2891527,,,2022-05-10,合併による解散等,6040001058227,令和４年５月１日千葉県山武市松尾町大堤３１８番地花沢建材工業株式会社（6040001058227）に合併し解散,2015-10-05,1,,,,,ハナチョウビル,0
1307,5100001006733,登記記録の閉鎖等,0,2022-05-18,2022-05-16,株式会社アシスト長野,,株式会社,長野県,長野市,松代町松代３１７３番地４,,20,201,3811231,,,2022-05-16,清算の結了等,,,2015-10-05,1,,,,,アシストナガノ,0
1318,5120001008307,登記記録の閉鎖等,0,2022-05-18,2022-05-17,西村印刷株式会社,,株式会社,大阪府,大阪市都島区,都島本通５丁目１５番３号,,27,102,5340021,,,2022-05-17,清算の結了等,,,2015-10-05,1,,,,,ニシムラインサツ,0
1336,5120005020951,登記記録の閉鎖等,0,2022-05-18,2022-05-16,一般社団法人日本住宅耐震普及協会,,その他の設立登記法人,大阪府,大阪市西区,南堀江１丁目２１番１４号,,27,106,5500015,,,2022-05-16,合併による解散等,5030005019441,令和４年５月２日東京都大田区蒲田五丁目２１番１３号ペガサスステーションプラザ蒲田４１１一般社団法人日本住宅耐震普及協会（5030005019441）に合併し解散,2019-06-21,1,,,,,,0
1342,5120105005654,登記記録の閉鎖等,0,2022-05-18,2022-05-17,特定非営利活動法人ヒューマンプラス,,その他の設立登記法人,大阪府,豊中市,庄本町１丁目１１番２４号,,27,203,5610835,,,2022-05-17,清算の結了等,,,2015-10-05,1,,,,,ヒューマンプラス,0
1358,5140001085170,登記記録の閉鎖等,0,2022-05-18,2022-05-13,株式会社丸赤,,株式会社,兵庫県,淡路市,下司１１２０番地,,28,226,6562144,,,2022-05-13,清算の結了等,,,2015-10-05,1,,,,,マルアカ,0
1360,5140002023897,登記記録の閉鎖等,0,2022-05-18,2022-05-16,有限会社プランニング・イグチ,,有限会社,兵庫県,神戸市須磨区,東町２丁目１番１６号,,28,107,6540033,,,2022-05-16,清算の結了等,,,2015-10-05,1,,,,,プランニングイグチ,0
1364,5160001007288,登記記録の閉鎖等,0,2022-05-18,2022-05-16,株式会社日本セキュリティー工業,,株式会社,滋賀県,長浜市,余呉町下余呉８８５番地,,25,203,5290521,,,2022-05-16,清算の結了等,,,2015-10-05,1,,,,,ニホンセキュリティーコウギョウ,0
1368,5180001094960,登記記録の閉鎖等,0,2022-05-18,2022-05-12,株式会社プラス・エフ,,株式会社,愛知県,知多市,清水が丘１丁目６０３番地,,23,224,4780053,,,2022-05-12,清算の結了等,,,2015-10-05,1,,,,,プラスエフ,0
1387,5220001010310,登記記録の閉鎖等,0,2022-05-18,2022-05-13,株式会社宮崎,,株式会社,石川県,白山市,八田中町１１０４番地１,,17,210,9240002,,,2022-05-13,清算の結了等,,,2015-10-05,1,,,,,ミヤザキ,0
1389,5230001005375,登記記録の閉鎖等,0,2022-05-18,2022-05-16,株式会社ユニキャン,,株式会社,富山県,富山市,桜町２丁目１番１号,,16,201,9300003,,,2022-05-16,清算の結了等,,,2015-10-05,1,,,,,ユニキャン,0
1402,5280001006336,登記記録の閉鎖等,0,2022-05-18,2022-05-12,株式会社堀川,,株式会社,島根県,松江市,山代町２２１番地２,,32,201,6900031,,,2022-05-12,清算の結了等,,,2015-10-05,1,,,,,ホリカワ,0
1407,5290001069729,登記記録の閉鎖等,0,2022-05-18,2022-05-12,糸島絆ｎｅｔ株式会社,,株式会社,福岡県,糸島市,前原西４丁目６番１号,,40,230,8191117,,,2022-05-12,清算の結了等,,,2015-10-05,1,,,,,イトシマキズナネット,0
1408,5290001084694,登記記録の閉鎖等,0,2022-05-18,2022-05-13,株式会社ａｍａｒｅｖｅ,,株式会社,東京都,新宿区,新宿１丁目３６番２号新宿第七葉山ビル３階,,13,104,1600022,,,2022-05-13,合併による解散等,8020001135991,令和４年５月１日横浜市港北区篠原町１１０３番地１４金港ビル１Ｆ株式会社ａｍａｍａｌｌ（8020001135991）に合併し解散,2019-04-01,1,,,,,アマリブ,0
1409,5290002016985,登記記録の閉鎖等,0,2022-05-18,2022-05-12,有限会社ハマダ工芸,,有限会社,福岡県,福岡市博多区,春町１丁目１番１５号,,40,132,8120872,,,2022-05-12,清算の結了等,,,2015-10-05,1,,,,,ハマダコウゲイ,0
1442,5430003002243,登記記録の閉鎖等,0,2022-05-18,2022-05-02,合同会社アクトワン,,合同会社,北海道,札幌市豊平区,西岡三条４丁目１番１２号,,01,105,0620033,,,2022-05-02,清算の結了等,,,2015-10-05,1,,,,,アクトワン,0
1450,5500002011329,登記記録の閉鎖等,0,2022-05-18,2022-05-12,有限会社青木建設プロダクト,,有限会社,愛媛県,東温市,則之内乙１１６８番地１２,,38,215,7910312,,,2022-05-12,清算の結了等,,,2015-10-05,1,,,,,アオキケンセツプロダクト,0
1457,6010001065473,登記記録の閉鎖等,0,2022-05-18,2022-05-16,株式会社エースコンサルティング,,株式会社,東京都,中央区,日本橋茅場町３丁目２番１２号,,13,102,1030025,,,2022-05-16,合併による解散等,5180001088789,令和４年５月１日名古屋市中村区名駅四丁目７番１号東海東京証券株式会社（5180001088789）に合併し解散,2015-10-05,1,,,,,エースコンサルティング,0
1463,6010001202398,登記記録の閉鎖等,0,2022-05-18,2022-05-16,株式会社ＲＩＦＦＹＴ,,株式会社,広島県,福山市,引野町４丁目８番２７号,,34,207,7210942,,,2022-05-16,清算の結了等,,,2019-07-12,1,,,,,リフィート,0
1464,6010001219871,登記記録の閉鎖等,0,2022-05-18,2022-05-10,株式会社中央電力保安協会,,株式会社,東京都,中央区,日本橋蛎殻町１丁目３６番５号,,13,102,1030014,,,2022-05-10,合併による解散等,5122001025711,令和４年４月１日大阪府東大阪市瓜生堂一丁目２番１８号中央電力ソリューション株式会社（5122001025711）に合併し解散,2021-07-21,1,,,,,チュウオウデンリョクホアンキョウカイ,0
1470,6010003028370,登記記録の閉鎖等,0,2022-05-18,2022-04-27,ハーバーブリッジファンド合同会社,,合同会社,東京都,千代田区,九段南３丁目７番７号成和綜合会計事務所内,,13,101,1020074,,,2022-04-27,清算の結了等,,,2018-09-27,1,,,,,ハーバーブリッジファンド,0
1482,6010402023220,登記記録の閉鎖等,0,2022-05-18,2022-05-12,有限会社マリアインターナショナル,,有限会社,東京都,杉並区,浜田山３丁目３５番１９－３０５号,,13,115,1680065,,,2022-05-12,清算の結了等,,,2015-10-05,1,,,,,マリアインターナショナル,0
1535,6013302010354,登記記録の閉鎖等,0,2022-05-18,2022-05-12,有限会社山手製餡所,,有限会社,東京都,豊島区,南池袋１丁目１５番２２号,,13,116,1710022,,,2022-05-12,清算の結了等,,,2015-10-05,1,,,,,ヤマテセイアンジョ,0
1554,6030001081997,登記記録の閉鎖等,0,2022-05-18,2022-05-11,株式会社エヌ・エス・シー,,株式会社,埼玉県,川口市,本町４丁目３番６－２１３号,,11,203,3320012,,,2022-05-11,清算の結了等,,,2015-10-05,1,,,,,エヌエスシー,0
1555,6030001107711,登記記録の閉鎖等,0,2022-05-18,2022-05-12,株式会社ＮＳ,,株式会社,群馬県,伊勢崎市,田中島町５４２番地１,,10,204,3720802,,,2022-05-12,清算の結了等,,,2015-10-05,1,,,,,,0
1565,6040001005476,登記記録の閉鎖等,0,2022-05-18,2022-05-12,株式会社トステック,,株式会社,千葉県,佐倉市,上志津１２８５番地４,,12,212,2850846,,,2022-05-12,清算の結了等,,,2015-10-05,1,,,,,トステック,0
1590,6070001035297,登記記録の閉鎖等,0,2022-05-18,2022-05-10,株式会社高草木水産,00115155,株式会社,群馬県,みどり市,笠懸町阿左美２７６１番地ｌ,,10,212,3792311,,,2022-05-10,清算の結了等,,,2018-12-06,1,,,,,タカクサキスイサン,0
1613,6120001224621,登記記録の閉鎖等,0,2022-05-18,2022-05-16,株式会社オージャス,,株式会社,大阪府,大阪市中央区,南船場２丁目３番４号,,27,128,5420081,,,2022-05-16,清算の結了等,,,2019-10-24,1,,,,,オージャス,0
1624,6120101007075,登記記録の閉鎖等,0,2022-05-18,2022-05-13,株式会社福西工務店,,株式会社,大阪府,堺市南区,庭代台３丁９番１３号,,27,145,5900133,,,2022-05-13,清算の結了等,,,2015-10-05,1,,,,,フクニシコウムテン,0
1652,6140003011231,登記記録の閉鎖等,0,2022-05-18,2022-05-16,合同会社ｒ．ｋ．ｍ,,合同会社,兵庫県,姫路市,網干区興浜４３４番地１１,,28,201,6711241,,,2022-05-16,清算の結了等,,,2016-02-16,1,,,,,アールケイエム,0
1668,6180003022150,登記記録の閉鎖等,0,2022-05-18,2022-05-12,合同会社ｎａｎｏソリューション,,合同会社,愛知県,犬山市,大字橋爪字上海１５番地８,,23,215,4840076,,,2022-05-12,清算の結了等,,,2021-02-19,1,,,,,ナノソリューション,0
1709,6330001010100,登記記録の閉鎖等,0,2022-05-18,2022-05-12,株式会社池商,,株式会社,熊本県,合志市,豊岡２０００番地６６７,,43,216,8611115,,,2022-05-12,清算の結了等,,,2015-10-05,1,,,,,イケショウ,0
1712,6330005009337,登記記録の閉鎖等,0,2022-05-18,2022-05-09,一般社団法人九州荒尾オリーブ村,,その他の設立登記法人,熊本県,荒尾市,樺海行原１８４１番地１,,43,204,8640165,,,2022-05-09,清算の結了等,,,2015-10-28,1,,,,,キュウシュウアラオオリーブムラ,0
1731,6410003001205,登記記録の閉鎖等,0,2022-05-18,2022-05-12,合資会社プロジェクト．Ｈ,,合資会社,秋田県,湯沢市,桜通り２番８３号,,05,207,0120811,,,2022-05-12,清算の結了等,,,2015-10-05,1,,,,,プロジェクトエイチ,0
1779,7010001198801,登記記録の閉鎖等,0,2022-05-18,2022-05-12,株式会社アイ・ジー,,株式会社,東京都,中央区,日本橋室町１丁目８番３号,,13,102,1030022,,,2022-05-12,合併による解散等,8370001013931,令和４年４月３０日仙台市青葉区一番町一丁目１番４１号トライポッドワークス株式会社（8370001013931）に合併し解散,2019-02-27,1,,,,,アイジー,0
1782,7010003032990,登記記録の閉鎖等,0,2022-05-18,2022-04-22,ＫＩＺＣＬＵＥ合同会社,,合同会社,東京都,中央区,銀座１丁目２２番地１１銀座大竹ビジデンス２Ｆ,,13,102,1040061,,,2022-04-22,清算の結了等,,,2020-09-15,1,,,,,キヅクル,0
1809,7010802005040,登記記録の閉鎖等,0,2022-05-18,2022-05-11,有限会社香栄商事,,有限会社,東京都,大田区,大森南３丁目２６番２号,,13,111,1430013,,,2022-05-11,清算の結了等,,,2015-10-05,1,,,,,コウエイショウジ,0
1817,7010902026275,登記記録の閉鎖等,0,2022-05-18,2022-05-12,有限会社ケイアタック,,有限会社,東京都,世田谷区,羽根木１丁目２１番２３号,,13,112,1560042,,,2022-05-12,清算の結了等,,,2015-10-05,1,,,,,ケイアタック,0
1831,7011201001622,登記記録の閉鎖等,0,2022-05-18,2022-05-09,株式会社光映社,,株式会社,東京都,中野区,中央１丁目２８番２号メゾンロリエ２０１,,13,114,1640011,,,2022-05-09,清算の結了等,,,2015-10-05,1,,,,,コウエイシャ,0
1875,7021005005298,登記記録の閉鎖等,0,2022-05-18,2022-05-09,特定非営利活動法人福祉輸送事業連合会,,その他の設立登記法人,神奈川県,海老名市,上今泉５丁目４番地１７号,,14,215,2430431,,,2022-05-09,清算の結了等,,,2015-10-05,1,,,,,フクシユソウジギョウレンゴウカイ,0
1876,7021005010876,登記記録の閉鎖等,0,2022-05-18,2022-05-16,一般社団法人持永只仁アニメーションプロジェクト,,その他の設立登記法人,神奈川県,平塚市,宮の前９－９－４０１,,14,203,2540035,,,2022-05-16,清算の結了等,,,2017-02-14,1,,,,,,0
1902,7050002014508,登記記録の閉鎖等,0,2022-05-18,2022-05-13,有限会社ＡＫＩＲＡ,,有限会社,茨城県,土浦市,中高津２丁目１９３番地,,08,203,3000815,,,2022-05-13,清算の結了等,,,2015-10-05,1,,,,,アキラ,0
1924,7120001042832,登記記録の閉鎖等,0,2022-05-18,2022-05-16,株式会社空間評価研究所,,株式会社,大阪府,高槻市,寺谷町２３番８号,,27,207,5691024,,,2022-05-16,清算の結了等,,,2015-10-05,1,,,,,クウカンヒョウカケンキュウジョ,0
1945,7130002012692,登記記録の閉鎖等,0,2022-05-18,2022-05-16,有限会社ヒライ楽器店,,有限会社,京都府,京都市山科区,大塚北溝町１３番地,,26,110,6078134,,,2022-05-16,清算の結了等,,,2015-10-05,1,,,,,ヒライガッキテン,0
1953,7140002008260,登記記録の閉鎖等,0,2022-05-18,2022-05-16,有限会社エムサービス,,有限会社,兵庫県,神戸市長田区,大塚町２丁目３番６号,,28,106,6530811,,,2022-05-16,清算の結了等,,,2015-10-05,1,,,,,エムサービス,0
1954,7140002011248,登記記録の閉鎖等,0,2022-05-18,2022-05-17,有限会社国光商会,,有限会社,兵庫県,神戸市兵庫区,駅前通２丁目１番８－２０１２号,,28,105,6520898,,,2022-05-17,清算の結了等,,,2015-10-05,1,,,,,クニミツショウカイ,0
1958,7140003015537,登記記録の閉鎖等,0,2022-05-18,2022-05-17,合同会社ｂｒｏｔｈｅｒｈｏｏｄ,,合同会社,兵庫県,神戸市北区,惣山町３丁目１番地の７,,28,109,6511145,,,2022-05-17,清算の結了等,,,2020-10-23,1,,,,,ブラザーフッド,0
1994,7260001005429,登記記録の閉鎖等,0,2022-05-18,2022-05-16,株式会社花房食品,,株式会社,岡山県,岡山市南区,福島２丁目２番３号,,33,104,7028044,,,2022-05-16,清算の結了等,,,2015-10-05,1,,,,,ハナフサショクヒン,0
2001,7260002019460,登記記録の閉鎖等,0,2022-05-18,2022-05-17,有限会社たけもと,,有限会社,岡山県,倉敷市,児島稗田町２４１番地の３,00003658,33,202,7110937,,,2022-05-17,清算の結了等,,,2015-10-05,1,,,,,タケモト,0
2019,7310001016890,登記記録の閉鎖等,0,2022-05-18,2022-05-17,株式会社ＯＫＵＭＵＲＡ,,株式会社,長崎県,長崎市,宝町１２番２号,,42,201,8500045,,,2022-05-17,清算の結了等,,,2020-10-02,1,,,,,オクムラ,0
2034,7370001005921,登記記録の閉鎖等,0,2022-05-18,2022-05-12,株式会社ビガーコーポレーション,,株式会社,宮城県,仙台市青葉区,新坂町４番２１号,,04,101,9810934,,,2022-05-12,清算の結了等,,,2015-10-05,1,,,,,ビガーコーポレーション,0
2050,7440001005567,登記記録の閉鎖等,0,2022-05-18,2022-05-10,恵山工業株式会社,,株式会社,北海道,函館市,中道２丁目２６番３３－４０２号,,01,202,0410853,,,2022-05-10,清算の結了等,,,2015-10-05,1,,,,,エサンコウギョウ,0
2068,8010001060910,登記記録の閉鎖等,0,2022-05-18,2022-05-12,若林保全株式会社,,株式会社,東京都,中央区,日本橋３丁目４番１５号,,13,102,1030027,,,2022-05-12,合併による解散等,8010001131934,令和４年５月２日東京都港区東新橋二丁目１４番１号株式会社ワールドレジデンシャル（8010001131934）に合併し解散,2015-10-05,1,,,,,ワカバヤシホゼン,0
2103,8010701026351,登記記録の閉鎖等,0,2022-05-18,2022-04-15,株式会社ビュフォート,,株式会社,東京都,渋谷区,道玄坂１丁目１４番６号,,13,113,1500043,,,2022-04-15,合併による解散等,6011001005411,令和４年４月１日東京都渋谷区道玄坂一丁目２番３号ＧＭＯペイメントゲートウェイ株式会社（6011001005411）に合併し解散,2015-10-05,1,,,,,ビュフォート,0
2111,8011001072763,登記記録の閉鎖等,0,2022-05-18,2022-05-10,タイズ株式会社,,株式会社,埼玉県,和光市,本町３１番１２－２１６号,,11,229,3510114,,,2022-05-10,清算の結了等,,,2015-10-05,1,,,,,タイズ,0
2123,8011401002510,登記記録の閉鎖等,0,2022-05-18,2022-05-12,賛協商亊株式会社,,株式会社,東京都,板橋区,幸町５６番１３号,,13,119,1730034,,,2022-05-12,清算の結了等,,,2015-10-05,1,,,,,サンキョウショウジ,0
2137,8011602006244,登記記録の閉鎖等,0,2022-05-18,2022-05-17,有限会社ダコール,,有限会社,福岡県,京都郡みやこ町,犀川八ツ溝８８４番地１,,40,625,8240206,,,2022-05-17,清算の結了等,,,2015-10-05,1,,,,,ダコール,0
2140,8011802015631,登記記録の閉鎖等,0,2022-05-18,2022-05-10,有限会社タンブール商事,,有限会社,東京都,足立区,伊興３丁目１番２３－８０２号,,13,121,1210823,,,2022-05-10,清算の結了等,,,2015-10-05,1,,,,,タンブールショウジ,0
2143,8012801016819,登記記録の閉鎖等,0,2022-05-18,2022-05-12,株式会社輝,,株式会社,東京都,昭島市,玉川町５丁目１９番２号,,13,207,1960034,,,2022-05-12,清算の結了等,,,2015-10-22,1,,,,,カガヤキ,0
2152,8020002051214,登記記録の閉鎖等,0,2022-05-18,2022-05-10,有限会社裕泰行,,有限会社,神奈川県,横浜市栄区,小菅ケ谷２丁目３９番２５号,,14,115,2470007,,,2022-05-10,清算の結了等,,,2015-10-05,1,,,,,ユウタイコウ,0
2171,8040002025100,登記記録の閉鎖等,0,2022-05-18,2022-05-10,有限会社古谷建築設備研究所,,有限会社,千葉県,船橋市,緑台２丁目８番６棟３０３号,,12,204,2740818,,,2022-05-10,清算の結了等,,,2015-10-05,1,,,,,フルヤケンチクセツビケンキュウジョ,0
2191,8110001007595,登記記録の閉鎖等,0,2022-05-18,2022-05-16,株式会社松澤商店,,株式会社,新潟県,新潟市南区,白根３０７５番地３,,15,106,9501217,,,2022-05-16,清算の結了等,,,2015-10-05,1,,,,,マツザワショウテン,0
2194,8110001029887,登記記録の閉鎖等,0,2022-05-18,2022-04-27,株式会社関越ライン,,株式会社,群馬県,邑楽郡邑楽町,大字赤堀３５５２番地２,,10,525,3700614,,,2022-04-27,合併による解散等,3110001027458,令和４年４月２７日群馬県邑楽郡邑楽町大字赤堀３５５２番地２株式会社ＧＲＡＮＤ（3110001027458）に合併し解散,2015-10-05,1,,,,,カンエツライン,0
2197,8110002001589,登記記録の閉鎖等,0,2022-05-18,2022-05-13,有限会社カサアルバ,,有限会社,新潟県,新潟市西区,坂井東３丁目１２番２号,,15,107,9502041,,,2022-05-13,清算の結了等,,,2015-10-05,1,,,,,カサアルバ,0
2199,8120001031173,登記記録の閉鎖等,0,2022-05-18,2022-05-17,株式会社ヤマトプラスアイ,,株式会社,大阪府,大阪市浪速区,大国２丁目８番３号,,27,111,5560014,,,2022-05-17,清算の結了等,,,2015-10-05,1,,,,,ヤマトプラスアイ,0
2239,8140002048108,登記記録の閉鎖等,0,2022-05-18,2022-05-13,有限会社川口タンス店,,有限会社,兵庫県,姫路市,琴岡町２７８番地の１,,28,201,6700035,,,2022-05-13,清算の結了等,,,2015-10-05,1,,,,,カワグチタンステン,0
2254,8180002061718,登記記録の閉鎖等,0,2022-05-18,2022-05-11,有限会社あだち興建,,有限会社,愛知県,愛知郡東郷町,大字和合字南蚊谷２５番地の５（グローリアス和合東２１０号）,,23,302,4700153,,,2022-05-11,清算の結了等,,,2015-10-05,1,,,,,アダチコウケン,0
2262,8180005014094,登記記録の閉鎖等,0,2022-05-18,2022-05-12,一般社団法人アースパートナー協議会,,その他の設立登記法人,愛知県,名古屋市瑞穂区,瑞穂通５丁目２６番地,,23,108,4670806,,,2022-05-12,清算の結了等,,,2015-10-05,1,,,,,アースパートナーキョウギカイ,0
2270,8230002001759,登記記録の閉鎖等,0,2022-05-18,2022-05-17,有限会社スパツィオディナオキ,,有限会社,富山県,富山市,堀川小泉町１丁目４番１２号,,16,201,9398081,,,2022-05-17,清算の結了等,,,2015-10-05,1,,,,,スパツィオディナオキ,0
2273,8240001015379,登記記録の閉鎖等,0,2022-05-18,2022-05-16,株式会社メディカル・リンク,,株式会社,広島県,広島市東区,光町２丁目６番３１号,,34,102,7320052,,,2022-05-16,清算の結了等,,,2015-10-05,1,,,,,メディカルリンク,0
2283,8290001039712,登記記録の閉鎖等,0,2022-05-18,2022-05-12,株式会社コズエ,,株式会社,福岡県,糟屋郡宇美町,大字井野字野間２１８番地１,,40,341,8112104,,,2022-05-12,清算の結了等,,,2015-10-05,1,,,,,コズエ,0
2308,8360001011564,登記記録の閉鎖等,0,2022-05-18,2022-05-06,株式会社ｏｆｆｉｃｅアイデア,,株式会社,沖縄県,那覇市,首里寒川町１丁目５番地２－４号棟３０１,,47,201,9030826,,,2022-05-06,清算の結了等,,,2015-10-05,1,,,,,オフィスアイデア,0
2316,8390002003203,登記記録の閉鎖等,0,2022-05-18,2022-05-12,有限会社つばさ保険ライン,,有限会社,山形県,東村山郡中山町,大字長崎４６２９番地の８,,06,302,9900401,,,2022-05-12,清算の結了等,,,2015-10-05,1,,,,,ツバサホケンライン,0
2321,8410001011229,登記記録の閉鎖等,0,2022-05-18,2022-05-13,株式会社相場産業,,株式会社,秋田県,秋田市,新屋前野町１５番３２号,,05,201,0101635,,,2022-05-13,清算の結了等,,,2016-06-07,1,,,,,アイバサンギョウ,0
2323,8410002010031,登記記録の閉鎖等,0,2022-05-18,2022-05-11,有限会社パールソーイング,,有限会社,秋田県,大館市,長坂字坂地家後１００番地,,05,204,0183504,,,2022-05-11,清算の結了等,,,2015-10-05,1,,,,,パールソーイング,0
2330,8430001051776,登記記録の閉鎖等,0,2022-05-18,2022-05-09,株式会社田中,,株式会社,北海道,磯谷郡蘭越町,字大谷２４６番地,,01,394,0481305,,,2022-05-09,清算の結了等,,,2015-10-05,1,,,,,タナカ,0
2340,8700150064543,登記記録の閉鎖等,0,2022-05-18,2021-12-27,大浦干拓土地改良区,,その他,鹿児島県,南さつま市,大浦町３０１７６番地１３５,,46,220,8971201,,,2021-12-27,その他の清算の結了等,,,2015-10-09,1,,,,,オオウラカンタクトチカイリヨウク,0
2374,9010401147926,登記記録の閉鎖等,0,2022-05-18,2022-05-09,株式会社ウェアリー,,株式会社,東京都,港区,港南１丁目９－３６－１３Ｆ,,13,103,1080075,,,2022-05-09,合併による解散等,9010401075169,令和４年５月１日東京都港区港南１－９－３６－１３Ｆ株式会社アドベンチャーワークス（9010401075169）に合併し解散,2019-09-27,1,,,,,ウェアリー,0
2384,9010502018662,登記記録の閉鎖等,0,2022-05-18,2022-05-18,有限会社マーチエレメンツ,,有限会社,東京都,台東区,浅草橋３丁目２６番４号,,13,106,1110053,,,2022-05-18,清算の結了等,,,2015-10-05,1,,,,,マーチエレメンツ,0
2412,9011201013962,登記記録の閉鎖等,0,2022-05-18,2022-05-09,株式会社リベロコンサルティング,,株式会社,東京都,中野区,中央３丁目３２番２号,,13,114,1640011,,,2022-05-09,清算の結了等,,,2015-10-05,1,,,,,リベロコンサルティング,0
2422,9011501021302,登記記録の閉鎖等,0,2022-05-18,2022-05-16,株式会社東鵬,,株式会社,東京都,北区,豊島４丁目１８番地７号１４１３,,13,117,1140003,,,2022-05-16,清算の結了等,,,2016-02-08,1,,,,,トウホウ,0
2448,9020001125298,登記記録の閉鎖等,0,2022-05-18,2022-05-02,株式会社ケーズ商会,,株式会社,神奈川県,横浜市緑区,十日市場町９０１番地１８,,14,113,2260025,,,2022-05-02,清算の結了等,,,2018-03-01,1,,,,,ケーズショウカイ,0
2457,9021005010692,登記記録の閉鎖等,0,2022-05-18,2022-05-17,一般社団法人ＫＭ　ＤＯＧ　ＪＡＰＡＮ,,その他の設立登記法人,神奈川県,大和市,中央林間６丁目１３番８号,,14,213,2420007,,,2022-05-17,清算の結了等,,,2016-07-15,1,,,,,ケイエムドッグジャパン,0
2461,9030001030497,登記記録の閉鎖等,0,2022-05-18,2022-05-16,株式会社ビオ・ファーム福村,,株式会社,長野県,茅野市,北山４１４４番地,,20,214,3910301,,,2022-05-16,清算の結了等,,,2015-10-05,1,,,,,,0
2472,9030002003337,登記記録の閉鎖等,0,2022-05-18,2022-05-11,有限会社笠原商会,,有限会社,埼玉県,さいたま市浦和区,上木崎６丁目８番３号,,11,107,3300071,,,2022-05-11,清算の結了等,,,2015-10-05,1,,,,,カサハラショウカイ,0
2485,9040002049635,登記記録の閉鎖等,0,2022-05-18,2022-05-10,有限会社ルミエール企画,,有限会社,千葉県,松戸市,常盤平２丁目１１番地９,,12,207,2702261,,,2022-05-10,清算の結了等,,,2015-10-05,1,,,,,ルミエールキカク,0
2493,9060002001602,登記記録の閉鎖等,0,2022-05-18,2022-05-12,有限会社ウォークス,,有限会社,栃木県,下野市,下古山２９７５番地２,,09,216,3290502,,,2022-05-12,清算の結了等,,,2015-10-05,1,,,,,ウォークス,0
2504,9080402005845,登記記録の閉鎖等,0,2022-05-18,2022-05-16,有限会社ナンヨー電装,,有限会社,静岡県,浜松市南区,法枝町４００番地の５,,22,134,4328053,,,2022-05-16,清算の結了等,,,2015-10-05,1,,,,,ナンヨーデンソウ,0
2509,9110002017626,登記記録の閉鎖等,0,2022-05-18,2022-05-13,有限会社マスダコーポレーシヨン,,有限会社,新潟県,三条市,西裏館２丁目６番１４号,,15,204,9550082,,,2022-05-13,清算の結了等,,,2015-10-05,1,,,,,マスダコーポレーシヨン,0
2541,9140001103374,登記記録の閉鎖等,0,2022-05-18,2022-05-12,株式会社Ｂｌｕｅ　Ｓｋｙ,,株式会社,兵庫県,神戸市東灘区,鴨子ケ原３丁目２４番１１号,,28,101,6580064,,,2022-05-12,清算の結了等,,,2016-09-08,1,,,,,ブルースカイ,0
2544,9140003006328,登記記録の閉鎖等,0,2022-05-18,2022-05-16,株式会社辻鉄工所,00040303,株式会社,兵庫県,神戸市西区,狩場台３丁目５番地の５,,28,111,6512272,,,2022-05-16,清算の結了等,,,2015-10-05,1,,,,,ツジテッコウショ,0
2549,9160005008675,登記記録の閉鎖等,0,2022-05-18,2022-05-16,特定非営利活動法人ケアステーション一歩,,その他の設立登記法人,滋賀県,草津市,矢橋町１５５番地４,,25,206,5250066,,,2022-05-16,清算の結了等,,,2015-10-05,1,,,,,,0
2561,9180302017963,登記記録の閉鎖等,0,2022-05-18,2022-05-09,有限会社宇野電気工事,,有限会社,愛知県,刈谷市,泉田町法知山９５番地１,,23,210,4480004,,,2022-05-09,清算の結了等,,,2015-10-05,1,,,,,ウノデンキコウジ,0
2590,9260001024781,登記記録の閉鎖等,0,2022-05-18,2022-05-18,株式会社ＫＳランプ,,株式会社,岡山県,岡山市北区,厚生町２丁目１６番７号,,33,101,7000985,,,2022-05-18,清算の結了等,,,2015-10-05,1,,,,,ケイエスランプ,0
2593,9290001066268,登記記録の閉鎖等,0,2022-05-18,2022-05-16,株式会社ＮＴメタル,,株式会社,鹿児島県,鹿児島市,七ツ島１丁目４番９,,46,201,8910132,,,2022-05-16,清算の結了等,,,2015-10-05,1,,,,,エヌティメタル,0
2612,9320002020625,登記記録の閉鎖等,0,2022-05-18,2022-05-16,有限会社小林工務店,,有限会社,大分県,中津市,三光原口７２３番地の１,,44,203,8710105,,,2022-05-16,清算の結了等,,,2015-10-05,1,,,,,コバヤシコウムテン,0
2628,9370602000385,登記記録の閉鎖等,0,2022-05-18,2022-05-12,有限会社元気サポート,,有限会社,宮城県,宮城郡七ヶ浜町,汐見台５丁目１番地の３１,,04,404,9850821,,,2022-05-12,清算の結了等,,,2015-10-05,1,,,,,ゲンキサポート,0
2632,9402702000468,登記記録の閉鎖等,0,2022-05-18,2022-05-16,有限会社岩崎商事,,有限会社,岩手県,陸前高田市,小友町字茗荷１４７番地１,,03,210,0292207,,,2022-05-16,清算の結了等,,,2015-10-05,1,,,,,イワサキショウジ,0
