sequenceNumber,corporateNumber,process,correct,updateDate,changeDate,name,nameImageId,kind,prefectureName,cityName,streetNumber,addressImageId,prefectureCode,cityCode,postCode,addressOutside,addressOutsideImageId,closeDate,closeCause,successorCorporateNumber,changeCause,assignmentDate,latest,enName,enPrefectureName,enCityName,enAddressOutside,furigana,hihyoji
5,1010001223829,新規,0,2022-01-19,2022-01-19,株式会社ＲＳＳ,,株式会社,東京都,中央区,銀座４丁目１番先、北数寄屋ビル地下１階,,13,102,1040061,,,,,,,2022-01-19,1,,,,,アールエスエス,0
6,1010001223861,新規,0,2022-01-19,2022-01-19,ＨＡＹＡＢＵＳＡ　ＤＸ　ＧＯＧＯ株式会社,,株式会社,東京都,中央区,築地３丁目４番１３号,,13,102,1040045,,,,,,,2022-01-19,1,,,,,ハヤブサディーエックスゴーゴー,0
8,1010003036691,新規,0,2022-01-19,2022-01-19,タケノコカンパニー合同会社,,合同会社,東京都,千代田区,岩本町２丁目５－８パステルコート岩本町２１５号,,13,101,1010032,,,,,,,2022-01-19,1,,,,,タケノコカンパニー,0
9,1010003036782,新規,0,2022-01-19,2022-01-19,合同会社Ｃａｒｏｕｓｅｌ,,合同会社,東京都,中央区,銀座１丁目２２番１１号銀座大竹ビジデンス２階,,13,102,1040061,,,,,,,2022-01-19,1,,,,,カルーセル,0
25,1010701042082,新規,0,2022-01-19,2022-01-19,株式会社Ｊ．Ｍｏｕｓｅ,,株式会社,東京都,品川区,南大井１丁目２番９号,,13,109,1400013,,,,,,,2022-01-19,1,,,,,ジェイマウス,0
27,1010803004030,新規,0,2022-01-19,2022-01-19,合同会社裕仁,,合同会社,東京都,大田区,山王２丁目３４－２０,,13,111,1430023,,,,,,,2022-01-19,1,,,,,ユウジン,0
33,1010903007065,新規,0,2022-01-19,2022-01-19,合同会社ナチカ,,合同会社,東京都,世田谷区,北沢２丁目３６番１７号グリーンパーク下北沢２階,,13,112,1550031,,,,,,,2022-01-19,1,,,,,ナチカ,0
37,1011001144957,新規,0,2022-01-19,2022-01-19,株式会社エトワールプロモーション,,株式会社,東京都,渋谷区,道玄坂１丁目１０番８号渋谷道玄坂東急ビル２Ｆ－Ｃ,,13,113,1500043,,,,,,,2022-01-19,1,,,,,エトワールプロモーション,0
38,1011001145030,新規,0,2022-01-19,2022-01-19,株式会社ＫＡＭＡＫＵＲＡ,,株式会社,東京都,渋谷区,渋谷２丁目１９番１５号宮益坂ビルディング６０９,,13,113,1500002,,,,,,,2022-01-19,1,,,,,カマクラ,0
39,1011001145113,新規,0,2022-01-19,2022-01-19,株式会社ＴＭファースト,,株式会社,東京都,渋谷区,恵比寿４丁目９番１１号,,13,113,1500013,,,,,,,2022-01-19,1,,,,,ティーエムファースト,0
40,1011001145121,新規,0,2022-01-19,2022-01-19,恵比寿防災株式会社,,株式会社,東京都,渋谷区,恵比寿南１丁目８番１０号,,13,113,1500022,,,,,,,2022-01-19,1,,,,,エビスボウサイ,0
41,1011001145245,新規,0,2022-01-19,2022-01-19,株式会社ごんライフ,,株式会社,東京都,渋谷区,幡ヶ谷３丁目７５番１号コースト幡ヶ谷マンション４０３号室,,13,113,1510072,,,,,,,2022-01-19,1,,,,,ゴンライフ,0
44,1011101097551,新規,0,2022-01-19,2022-01-19,株式会社アシスト,,株式会社,東京都,新宿区,西新宿４丁目１６－１－３０８,,13,104,1600023,,,,,,,2022-01-19,1,,,,,アシスト,0
52,1011701024987,新規,0,2022-01-19,2022-01-19,株式会社リスタート,,株式会社,東京都,江戸川区,大杉５丁目２９番５号プレジャーコート３０３,,13,123,1320022,,,,,,,2022-01-19,1,,,,,リスタート,0
56,1011801040199,新規,0,2022-01-19,2022-01-19,ｍａｉａ株式会社,,株式会社,東京都,足立区,西新井栄町２丁目１９番１号,,13,121,1230843,,,,,,,2022-01-19,1,,,,,マイア,0
59,1012301012845,新規,0,2022-01-19,2022-01-19,株式会社ＲＥＮＡＣＩＭＩＥＮＴＯ,,株式会社,東京都,町田市,森野１丁目３６－２セレステ町田１階２階,,13,209,1940022,,,,,,,2022-01-19,1,,,,,レナシミエント,0
60,1012303001631,新規,0,2022-01-19,2022-01-19,合同会社ブルーニュイ,,合同会社,東京都,町田市,中町３丁目１９番３０号,,13,209,1940021,,,,,,,2022-01-19,1,,,,,ブルーニュイ,0
61,1012401038765,新規,0,2022-01-19,2022-01-19,株式会社Ｑｕｅｓｔ　Ｐａｙｒｏｌｌ,,株式会社,東京都,調布市,小島町３丁目６９番地３,,13,208,1820026,,,,,,,2022-01-19,1,,,,,クエストペイロール,0
62,1012401038773,新規,0,2022-01-19,2022-01-19,株式会社Ｊａｐａｎ’ｓ　Ｆｉｎｅｓｔ,,株式会社,東京都,三鷹市,井口４丁目５－３５－４０３,,13,204,1810011,,,,,,,2022-01-19,1,,,,,ジャパンズファイネスト,0
71,1013303005993,新規,0,2022-01-19,2022-01-19,合同会社Ｂｕｓｉｎｅｓｓ　Ｂａｎｋ,,合同会社,東京都,豊島区,東池袋１丁目１７番１１号パークハイツ池袋１１０５号,,13,116,1700013,,,,,,,2022-01-19,1,,,,,ビジネスバンク,0
74,1020001144826,新規,0,2022-01-19,2022-01-19,株式会社斎創,,株式会社,神奈川県,横浜市保土ケ谷区,藤塚町１２番１－Ｎ１０１号,,14,106,2400031,,,,,,,2022-01-19,1,,,,,サイソウ,0
75,1020001144834,新規,0,2022-01-19,2022-01-19,株式会社みつば,,株式会社,神奈川県,横浜市鶴見区,下末吉４丁目１５番１９号,,14,101,2300012,,,,,,,2022-01-19,1,,,,,ミツバ,0
76,1020001144842,新規,0,2022-01-19,2022-01-19,横浜ＩＴ会計ツールコンサルティング株式会社,,株式会社,神奈川県,横浜市神奈川区,羽沢南２丁目３７－２２,,14,102,2210866,,,,,,,2022-01-19,1,,,,,ヨコハマアイティーカイケイツールコンサルティング,0
77,1020001144850,新規,0,2022-01-19,2022-01-19,株式会社ＹＳＷ,,株式会社,神奈川県,横浜市西区,平沼１丁目４０番１７号,,14,103,2200023,,,,,,,2022-01-19,1,,,,,ワイエスダブリュー,0
78,1020001144859,新規,0,2022-01-19,2022-01-19,株式会社夢見ヶ崎プランナー,,株式会社,神奈川県,川崎市幸区,小倉１丁目３番２４号,,14,132,2120054,,,,,,,2022-01-19,1,,,,,ユメミガサキプランナー,0
89,1021001074996,新規,0,2022-01-19,2022-01-19,ＬＣ株式会社,,株式会社,神奈川県,横須賀市,本町１丁目１０番地吉田店舗２Ｆ,,14,201,2380041,,,,,,,2022-01-19,1,,,,,エルシー,0
95,1030001146409,新規,0,2022-01-19,2022-01-19,株式会社ＫＯＯＵ,,株式会社,埼玉県,さいたま市浦和区,岸町４丁目２０番４号,,11,107,3300064,,,,,,,2022-01-19,1,,,,,コオウ,0
100,1030003018655,新規,0,2022-01-19,2022-01-19,エーオージェーケー合同会社,,合同会社,埼玉県,狭山市,祇園２０番１２号,,11,215,3501307,,,,,,,2022-01-19,1,,,,,エーオージェーケー,0
101,1030003018671,新規,0,2022-01-19,2022-01-19,合同会社ＳＥＴ,,合同会社,埼玉県,川越市,野田町２丁目１番地２３,,11,201,3501115,,,,,,,2022-01-19,1,,,,,セット,0
113,1040003019314,新規,0,2022-01-19,2022-01-19,合同会社ＱＯＬ,,合同会社,千葉県,松戸市,馬橋２７３５番地の１大新ヒルズ５０３号,,12,207,2710051,,,,,,,2022-01-19,1,,,,,キューオーエル,0
114,1040003019322,新規,0,2022-01-19,2022-01-19,たいちゃ合同会社,,合同会社,千葉県,柏市,篠籠田１１０５－１２,,12,217,2770862,,,,,,,2022-01-19,1,,,,,タイチャ,0
115,1040005021490,新規,0,2022-01-19,2022-01-19,ＮＰＯ法人クラリコ,,その他の設立登記法人,千葉県,流山市,江戸川台西２丁目７８番地,,12,220,2700115,,,,,,,2022-01-19,1,,,,,クラリコ,0
126,1050001050492,新規,0,2022-01-19,2022-01-19,株式会社ロジロジ,,株式会社,茨城県,つくば市,東新井１３番地２関友ウェストビル４０２,,08,220,3050033,,,,,,,2022-01-19,1,,,,,ロジロジ,0
145,1050005012992,新規,0,2022-01-19,2022-01-19,特定非営利活動法人ＩＮＣＩＣＴ,,その他の設立登記法人,茨城県,那珂郡東海村,大字白方１５０２番地６,,08,341,3191106,,,,,,,2022-01-19,1,,,,,インシクト,0
200,1120001243270,新規,0,2022-01-19,2022-01-19,ボボコンサルティング株式会社,,株式会社,大阪府,大阪市西区,江戸堀３丁目５－２２－７０２,,27,106,5500002,,,,,,,2022-01-19,1,,,,,ボボコンサルティング,0
201,1120001243304,新規,0,2022-01-19,2022-01-19,ダブルエヌ株式会社,,株式会社,大阪府,大阪市港区,八幡屋２丁目８番５号,,27,107,5520014,,,,,,,2022-01-19,1,,,,,ダブルエヌ,0
217,1120901045469,新規,0,2022-01-19,2022-01-19,雅工房株式会社,,株式会社,大阪府,三島郡島本町,江川１丁目３番２６号,,27,301,6180013,,,,,,,2022-01-19,1,,,,,ミヤビコウボウ,0
235,1140001124601,新規,0,2022-01-19,2022-01-19,株式会社バンソウシャ,,株式会社,兵庫県,姫路市,北平野南の町１番１７号,,28,201,6700887,,,,,,,2022-01-19,1,,,,,バンソウシャ,0
238,1140003017200,新規,0,2022-01-19,2022-01-19,コロリドージャパン合同会社,,合同会社,兵庫県,伊丹市,大鹿１丁目１０３番地１,,28,207,6640899,,,,,,,2022-01-19,1,,,,,コロリドージャパン,0
239,1150001025253,新規,0,2022-01-19,2022-01-19,タイガ株式会社,,株式会社,奈良県,奈良市,中辻町２１番地の２,00125439,29,201,6308315,,,,,,,2022-01-19,1,,,,,タイガ,0
259,1180001149628,新規,0,2022-01-19,2022-01-19,株式会社Ｌ＆ｔ　ｓｑｕａｄ,,株式会社,愛知県,名古屋市中区,栄４丁目１５－１４栄ハイホーム６０１号,,23,106,4600008,,,,,,,2022-01-19,1,,,,,エルアンドティースクワッド,0
260,1180001149644,新規,0,2022-01-19,2022-01-19,株式会社製造業盛り上げ隊,,株式会社,愛知県,長久手市,東原山３４番地１,,23,238,4801158,,,,,,,2022-01-19,1,,,,,セイゾウギョウモリアゲタイ,0
284,1180303005231,新規,0,2022-01-19,2022-01-19,ＱＵＹ　ＨＡ合同会社,,合同会社,愛知県,安城市,御幸本町２番２号,,23,212,4460032,,,,,,,2022-01-19,1,,,,,クイハ,0
285,1180305009288,新規,0,2022-01-19,2022-01-19,一般社団法人ＣＴＯ　Ｃｌｕｂ,,その他の設立登記法人,愛知県,豊橋市,東小田原町４８番地セントラルレジデンス２０１アップローズ株式会社内,,23,201,4400886,,,,,,,2022-01-19,1,,,,,シーティーオークラブ,0
308,1210001018770,新規,0,2022-01-19,2022-01-19,株式会社Ｍａｔｓｕｋａｗａ．,,株式会社,福井県,敦賀市,砂流５０号３７番地の２４,,18,202,9140136,,,,,,,2022-01-19,1,,,,,マツカワ,0
317,1240001059218,新規,0,2022-01-19,2022-01-19,ネヴァーズ株式会社,,株式会社,広島県,安芸郡府中町,鶴江１丁目１６－６,,34,302,7350008,,,,,,,2022-01-19,1,,,,,ネヴァーズ,0
337,1290001096090,新規,0,2022-01-19,2022-01-19,株式会社ＹＦＳ,,株式会社,福岡県,福岡市中央区,渡辺通２丁目２‐１４Ｍ’ｓステージ渡辺通１階,,40,133,8100004,,,,,,,2022-01-19,1,,,,,ワイエフエス,0
338,1290001096124,新規,0,2022-01-19,2022-01-19,株式会社アーリークロスＩＦＡ,,株式会社,福岡県,福岡市中央区,天神４丁目２番３１号第２サンビル５階,,40,133,8100001,,,,,,,2022-01-19,1,,,,,アーリークロスアイエフエー,0
342,1290801028185,新規,0,2022-01-19,2022-01-19,株式会社ＬＥＧＥＮＤ,,株式会社,福岡県,北九州市八幡西区,割子川２丁目８番１６号,,40,109,8060064,,,,,,,2022-01-19,1,,,,,レジェンド,0
344,1300001012780,新規,0,2022-01-19,2022-01-19,株式会社ＮＥＸＵＳ,,株式会社,佐賀県,鹿島市,大字納富分５９４１番地６,,41,207,8491312,,,,,,,2022-01-19,1,,,,,ネクサス,0
355,1330005010456,新規,0,2022-01-19,2022-01-19,特定非営利活動法人やつしろ紡ぎの会,,その他の設立登記法人,熊本県,八代市,大村町５２５番地,,43,202,8660895,,,,,,,2022-01-19,1,,,,,ヤツシロツムギノカイ,0
356,1340001024434,新規,0,2022-01-19,2022-01-19,株式会社タカダ電気,,株式会社,鹿児島県,大島郡宇検村,大字湯湾１５０２番地,,46,524,8943301,,,,,,,2022-01-19,1,,,,,タカダデンキ,0
357,1340001024442,新規,0,2022-01-19,2022-01-19,株式会社Ｖａｎ　Ｍａｒｉｎｅ,,株式会社,鹿児島県,鹿児島市,西陵１丁目３９－８,,46,201,8900032,,,,,,,2022-01-19,1,,,,,バンマリン,0
359,1340005009398,新規,0,2022-01-19,2022-01-19,一般社団法人かいなどぅ,,その他の設立登記法人,鹿児島県,大島郡伊仙町,大字目手久１６８９番地１,,46,532,8918113,,,,,,,2022-01-19,1,,,,,カイナドゥ,0
360,1350001017544,新規,0,2022-01-19,2022-01-19,株式会社グロースステージ,,株式会社,宮崎県,宮崎市,大工２丁目１４７番地サーパス大工町４０９号,,45,201,8800015,,,,,,,2022-01-19,1,,,,,グロースステージ,0
364,1360001029902,新規,0,2022-01-19,2022-01-19,株式会社Ｙ＆Ｃ２Ｃ,,株式会社,沖縄県,中頭郡北谷町,字上勢頭８４０番地３ベアーズコート上勢頭４０６,,47,326,9040101,,,,,,,2022-01-19,1,,,,,ワイアンドシートゥーシー,0
370,1370001048083,新規,0,2022-01-19,2022-01-19,フロンティア２１株式会社,,株式会社,宮城県,仙台市泉区,福岡字森下３番地１０,,04,105,9813225,,,,,,,2022-01-19,1,,,,,フロンティアニジュウイチ,0
371,1370001048091,新規,0,2022-01-19,2022-01-19,株式会社ＧＡＲＡＧＥ　ＷＩＮＧ,,株式会社,宮城県,黒川郡大和町,鶴巣大平字鷹ノ巣８４番地の７,,04,421,9813411,,,,,,,2022-01-19,1,,,,,ガレージウイング,0
372,1370001048100,新規,0,2022-01-19,2022-01-19,株式会社アクトアライズ,,株式会社,宮城県,仙台市宮城野区,蒲生２丁目３番地の１２,,04,102,9830002,,,,,,,2022-01-19,1,,,,,アクトアライズ,0
376,1370003005545,新規,0,2022-01-19,2022-01-19,合同会社ＫＯＬ,,合同会社,宮城県,仙台市太白区,西多賀２丁目２番３８号エクセレントハイツＢ－１０１,,04,104,9820034,,,,,,,2022-01-19,1,,,,,コール,0
386,1380001032508,新規,0,2022-01-19,2022-01-19,４Ｒ株式会社,,株式会社,福島県,郡山市,大槻町字上西田１８番地の１０,,07,203,9630201,,,,,,,2022-01-19,1,,,,,ヨンアール,0
390,1400005008204,新規,0,2022-01-19,2022-01-19,農事組合法人川又,,その他の設立登記法人,岩手県,二戸市,浄法寺町川又１１番地２,,03,213,0286826,,,,,,,2022-01-19,1,,,,,カワマタ,0
402,1430001085797,新規,0,2022-01-19,2022-01-19,山田工業株式会社,,株式会社,北海道,勇払郡厚真町,字鯉沼１６０番地の１６,,01,581,0591751,,,,,,,2022-01-19,1,,,,,ヤマダコウギョウ,0
403,1430001085806,新規,0,2022-01-19,2022-01-19,株式会社１６　ＭＡＤ　ＭＯＮＫＥＹＳ,,株式会社,北海道,札幌市東区,北八条東４丁目１番２０号ＥＺＯＨＵＢ　ＳＡＰＰＯＲＯ　２Ｆ,,01,103,0600908,,,,,,,2022-01-19,1,,,,,シックスティーンマッドモンキーズ,0
404,1430001085822,新規,0,2022-01-19,2022-01-19,株式会社アミキャリエ,,株式会社,北海道,札幌市中央区,北二条東１丁目３番３サンマウンテンビル３階,,01,101,0600032,,,,,,,2022-01-19,1,,,,,アミキャリエ,0
405,1430001085830,新規,0,2022-01-19,2022-01-19,株式会社ＨＡＲＥＢＵＴＡＩ,,株式会社,北海道,札幌市中央区,北一条西３丁目３番地ばらと北一条ビル９Ｆ－７,,01,101,0600001,,,,,,,2022-01-19,1,,,,,ハレブタイ,0
408,1430003013541,新規,0,2022-01-19,2022-01-19,合同会社ＴＩＣＯ,,合同会社,北海道,浦河郡浦河町,堺町西６丁目２－９,,01,607,0570034,,,,,,,2022-01-19,1,,,,,ティコ,0
411,1450003002170,新規,0,2022-01-19,2022-01-19,合同会社エコバース,,合同会社,北海道,上川郡東川町,西町３丁目１２番１７号,,01,458,0711425,,,,,,,2022-01-19,1,,,,,エコバース,0
419,1500001023948,新規,0,2022-01-19,2022-01-19,つかむ株式会社,,株式会社,愛媛県,西予市,宇和町卯之町３丁目３２６番地,,38,214,7970015,,,,,,,2022-01-19,1,,,,,ツカム,0
420,1700150106707,新規,0,2022-01-19,2022-01-19,Ｕｎｉｑｕｅ　Ｍｏｔｏｒｓ,,外国会社等,千葉県,袖ケ浦市,蔵波２９３２番地（１０１）,,12,229,2990243,スリランカ民主社会主義共和国、キャンディ、マダワラバザール、キャンディロード、１３２,,,,,,2022-01-19,1,,,,,ユニークモータース,0
421,1700150106731,新規,0,2022-01-19,2022-01-19,株式会社エルワイディー　日本支店,,外国会社等,東京都,中央区,日本橋浜町２丁目６２番６号日本橋浜町Ｋビル２Ｆ,,13,102,1030007,大韓民国ソウル特別市麻浦区ワールドカップ北路５６ギル１９、１１階（上岩洞、ドリームタワー）,,,,,,2022-01-19,1,,,,,カブシキガイシヤエルワイデイーニホンシテン,0
436,2010001223778,新規,0,2022-01-19,2022-01-19,Ｔｒａｄｉｔｉｏｎａｌ株式会社,,株式会社,東京都,中央区,新富２丁目１２番７号,,13,102,1040041,,,,,,,2022-01-19,1,,,,,トラディショナル,0
437,2010001223910,新規,0,2022-01-19,2022-01-19,株式会社クリーティー,,株式会社,東京都,千代田区,岩本町２丁目１４番９号第２花輪ビル３階,,13,101,1010032,,,,,,,2022-01-19,1,,,,,クリーティー,0
438,2010001223943,新規,0,2022-01-19,2022-01-19,株式会社吉,,株式会社,東京都,中央区,銀座２丁目１４番１４－７０２号,,13,102,1040061,,,,,,,2022-01-19,1,,,,,キチ,0
439,2010001223951,新規,0,2022-01-19,2022-01-19,株式会社ＡＮＤＯ　Ｗｏｒｌｄ　Ｗｉｄｅ,,株式会社,東京都,千代田区,麹町６丁目４番地１６,,13,101,1020083,,,,,,,2022-01-19,1,,,,,アンドウワールドワイド,0
440,2010001223984,新規,0,2022-01-19,2022-01-19,いちごＳｉ株式会社,,株式会社,東京都,千代田区,内幸町１丁目１番１号,,13,101,1000011,,,,,,,2022-01-19,1,,,,,イチゴエスアイ,0
441,2010003036798,新規,0,2022-01-19,2022-01-19,合同会社マニマーニ,,合同会社,東京都,中央区,銀座１丁目２２番１１号銀座大竹ビジデンス２階,,13,102,1040061,,,,,,,2022-01-19,1,,,,,マニマーニ,0
449,2010401165018,新規,0,2022-01-19,2022-01-19,株式会社ＴＯＭＯＫＩ,,株式会社,東京都,港区,白金２丁目５番２０－２２０７号,,13,103,1080072,,,,,,,2022-01-19,1,,,,,トモキ,0
452,2010405020598,新規,0,2022-01-19,2022-01-19,一般社団法人ＡＫＪパートナーズ,,その他の設立登記法人,東京都,港区,愛宕２丁目５番１号,,13,103,1050002,,,,,,,2022-01-19,1,,,,,エイケイジェイパートナーズ,0
453,2010501048329,新規,0,2022-01-19,2022-01-19,株式会社ＣｏＣｏ,,株式会社,東京都,台東区,小島１丁目１５番１１－１２０３号,,13,106,1110056,,,,,,,2022-01-19,1,,,,,ココ,0
454,2010501048345,新規,0,2022-01-19,2022-01-19,セキュドライブジャパン株式会社,,株式会社,東京都,台東区,元浅草２丁目１－１４ランバレー元浅草２０２号室,,13,106,1110041,,,,,,,2022-01-19,1,,,,,セキュドライブジャパン,0
459,2010601060539,新規,0,2022-01-19,2022-01-19,株式会社ＴＧ,,株式会社,東京都,江東区,豊洲３丁目５番３号,,13,108,1350061,,,,,,,2022-01-19,1,,,,,ティージー,0
470,2011001144948,新規,0,2022-01-19,2022-01-19,株式会社スマート修繕,,株式会社,東京都,渋谷区,円山町２８－１渋谷道玄坂スカイビル１１階,,13,113,1500044,,,,,,,2022-01-19,1,,,,,スマートシュウゼン,0
471,2011001145070,新規,0,2022-01-19,2022-01-19,株式会社Ｅｌｉｐｈａｎｔ　Ｊａｐａｎ,,株式会社,東京都,渋谷区,恵比寿４丁目２０番３号恵比寿ガーデンプレイスタワー１８階,,13,113,1500013,,,,,,,2022-01-19,1,,,,,エレファントジャパン,0
472,2011001145104,新規,0,2022-01-19,2022-01-19,ＮＥＳ株式会社,,株式会社,東京都,渋谷区,渋谷２丁目１９番１５宮益坂ビルディング６０９号,,13,113,1500002,,,,,,,2022-01-19,1,,,,,エヌイーエス,0
473,2011001145120,新規,0,2022-01-19,2022-01-19,インフロレッセンス株式会社,,株式会社,東京都,渋谷区,恵比寿３丁目４６番７号,,13,113,1500013,,,,,,,2022-01-19,1,,,,,インフロレッセンス,0
474,2011001145145,新規,0,2022-01-19,2022-01-19,株式会社ＳＡＹＮ,,株式会社,東京都,渋谷区,渋谷３丁目１８番４号渋谷三丁目ビル７階,,13,113,1500002,,,,,,,2022-01-19,1,,,,,サイン,0
485,2011503005045,新規,0,2022-01-19,2022-01-19,リピナ合同会社,,合同会社,東京都,北区,赤羽北３丁目２６番５－１３０６号,,13,117,1150052,,,,,,,2022-01-19,1,,,,,リピナ,0
488,2011701024986,新規,0,2022-01-19,2022-01-19,株式会社神陽電設,,株式会社,東京都,江戸川区,西一之江３丁目１３番２６号,,13,123,1320023,,,,,,,2022-01-19,1,,,,,シンヨウデンセツ,0
490,2011801040198,新規,0,2022-01-19,2022-01-19,株式会社ガイセイホールディングス,,株式会社,東京都,葛飾区,細田５丁目２１番１５号,,13,122,1240021,,,,,,,2022-01-19,1,,,,,ガイセイホールディングス,0
491,2011801040215,新規,0,2022-01-19,2022-01-19,株式会社Ｋ２,,株式会社,東京都,足立区,西新井栄町２丁目１２番１１号,,13,121,1230843,,,,,,,2022-01-19,1,,,,,ケーツー,0
496,2013301048564,新規,0,2022-01-19,2022-01-19,プリード株式会社,,株式会社,東京都,豊島区,東池袋３丁目１番１号サンシャイン６０・４５階,,13,116,1700013,,,,,,,2022-01-19,1,,,,,プリード,0
504,2020001144833,新規,0,2022-01-19,2022-01-19,株式会社御幸測量,,株式会社,神奈川県,川崎市中原区,上平間３３５番地,,14,133,2110013,,,,,,,2022-01-19,1,,,,,ミユキソクリョウ,0
505,2020001144841,新規,0,2022-01-19,2022-01-19,株式会社Ｈｏｌｏｓ　Ｌａｂ,,株式会社,神奈川県,横浜市中区,山下町１０８番地１２,,14,104,2310023,,,,,,,2022-01-19,1,,,,,ホロスラボ,0
509,2020003021155,新規,0,2022-01-19,2022-01-19,合同会社アートディーシーコーポレーション,,合同会社,神奈川県,横浜市保土ケ谷区,西久保町１２５番地,,14,106,2400022,,,,,,,2022-01-19,1,,,,,アートディーシーコーポレーション,0
510,2020003021163,新規,0,2022-01-19,2022-01-19,アッパークリエイティブ合同会社,,合同会社,神奈川県,川崎市高津区,二子３丁目１６番２１号,,14,134,2130002,,,,,,,2022-01-19,1,,,,,アッパークリエイティブ,0
512,2020005015361,新規,0,2022-01-19,2022-01-19,一般財団法人Ｋｅｅｐ　ｒｉｇｈｔ,,その他の設立登記法人,神奈川県,横浜市旭区,善部町６４番地７セレーノ希望ヶ丘３０２号,,14,112,2410823,,,,,,,2022-01-19,1,,,,,キープライツ,0
516,2021001074979,新規,0,2022-01-19,2022-01-19,株式会社アースシフト,,株式会社,神奈川県,大和市,南林間４丁目１０番９号,,14,213,2420006,,,,,,,2022-01-19,1,,,,,アースシフト,0
518,2021003011311,新規,0,2022-01-19,2022-01-19,合同会社コンコルディア,,合同会社,神奈川県,中郡大磯町,東小磯１６３,,14,341,2550004,,,,,,,2022-01-19,1,,,,,コンコルディア,0
522,2030001146399,新規,0,2022-01-19,2022-01-19,株式会社Ｃｅｄａｒ　ｓｅｒｖｉｃｅ,,株式会社,埼玉県,越谷市,大間野町３丁目１９０番地６,,11,222,3430844,,,,,,,2022-01-19,1,,,,,シダーサービス,0
523,2030001146416,新規,0,2022-01-19,2022-01-19,株式会社モースプロジェクト,,株式会社,埼玉県,さいたま市大宮区,三橋２丁目６０６番地,,11,103,3300856,,,,,,,2022-01-19,1,,,,,モースプロジェクト,0
524,2030001146424,新規,0,2022-01-19,2022-01-19,フジイジャパン株式会社,,株式会社,埼玉県,川口市,並木１丁目２７－３,,11,203,3320034,,,,,,,2022-01-19,1,,,,,フジイジャパン,0
530,2030003018687,新規,0,2022-01-19,2022-01-19,合同会社ＯｐｅｎＣｒｕｃｉｂｌｅ,,合同会社,埼玉県,新座市,東北２丁目３９番地１０号ドゥーセット弐番館６Ｆ,,11,230,3520001,,,,,,,2022-01-19,1,,,,,オープンクルーシブル,0
537,2040001121723,新規,0,2022-01-19,2022-01-19,Ｔｈｅ　Ｏｃｅａｎ株式会社,,株式会社,千葉県,船橋市,旭町５丁目８番４０号,,12,204,2730041,,,,,,,2022-01-19,1,,,,,ジオーシャン,0
538,2040001121797,新規,0,2022-01-19,2022-01-19,株式会社ＣＧＭ,,株式会社,千葉県,松戸市,紙敷１丁目１０番地の１,,12,207,2702221,,,,,,,2022-01-19,1,,,,,シージーエム,0
539,2040001121822,新規,0,2022-01-19,2022-01-19,Ｓ－ｌｅａｆ株式会社,,株式会社,千葉県,山武市,蓮沼ニ－１９５２,,12,237,2891805,,,,,,,2022-01-19,1,,,,,エスーリーフ,0
540,2040001121863,新規,0,2022-01-19,2022-01-19,久我興業株式会社,,株式会社,千葉県,市原市,石川４５５番地９８,,12,219,2900511,,,,,,,2022-01-19,1,,,,,クガコウギョウ,0
548,2050001050491,新規,0,2022-01-19,2022-01-19,株式会社サムワン,,株式会社,茨城県,水戸市,東赤塚２０８６番地,,08,201,3114142,,,,,,,2022-01-19,1,,,,,サムワン,0
566,2070001038857,新規,0,2022-01-19,2022-01-19,株式会社ＨＡＲＫ,,株式会社,群馬県,前橋市,日吉町４丁目３０番地９,,10,201,3710017,,,,,,,2022-01-19,1,,,,,ハーク,0
595,2090001017371,新規,0,2022-01-19,2022-01-19,Ｂｏｃｃａｒｓ株式会社,,株式会社,山梨県,都留市,上谷２丁目２－１０,,19,204,4020053,,,,,,,2022-01-19,1,,,,,ボッカーズ,0
599,2110001036377,新規,0,2022-01-19,2022-01-19,株式会社ＡＢＥ,,株式会社,新潟県,南魚沼市,塩沢１２６番地,,15,226,9496408,,,,,,,2022-01-19,1,,,,,アベ,0
614,2120001243278,新規,0,2022-01-19,2022-01-19,株式会社ＥＲＲＡＮＤ,,株式会社,大阪府,大阪市淀川区,西中島４丁目５番１号５階,,27,123,5320011,,,,,,,2022-01-19,1,,,,,エランド,0
615,2120001243311,新規,0,2022-01-19,2022-01-19,株式会社ＩＧＳマネジメント,,株式会社,大阪府,大阪市北区,長柄東３丁目３番１２号,,27,127,5310063,,,,,,,2022-01-19,1,,,,,アイジーエスマネジメント,0
628,2120901045435,新規,0,2022-01-19,2022-01-19,株式会社ｔｒｉｇｇｅｒ,,株式会社,大阪府,豊中市,利倉西１丁目２番２３号,,27,203,5610844,,,,,,,2022-01-19,1,,,,,トリガー,0
629,2120901045484,新規,0,2022-01-19,2022-01-19,株式会社Ｌｕｘｉａ,,株式会社,大阪府,高槻市,城北町１丁目５－３０,,27,207,5690071,,,,,,,2022-01-19,1,,,,,ルクシア,0
633,2122001035515,新規,0,2022-01-19,2022-01-19,フロアー技建株式会社,,株式会社,大阪府,八尾市,福万寺町南２丁目２番地の６,,27,212,5810843,,,,,,,2022-01-19,1,,,,,フロアーギケン,0
637,2130001070969,新規,0,2022-01-19,2022-01-19,君銘株式会社,,株式会社,京都府,京都市東山区,本町６丁目１４コーポセブン１０３号室,,26,105,6050981,,,,,,,2022-01-19,1,,,,,クンメイ,0
645,2140001124567,新規,0,2022-01-19,2022-01-19,株式会社ＹＵＫＩＤＯＲＩ,,株式会社,兵庫県,加古川市,志方町上冨木６６８番地,,28,210,6750314,,,,,,,2022-01-19,1,,,,,ユキドリ,0
646,2140001124609,新規,0,2022-01-19,2022-01-19,株式会社三文社,,株式会社,兵庫県,尼崎市,北城内１１０番地,,28,202,6600826,,,,,,,2022-01-19,1,,,,,サンブンシャ,0
647,2140001124617,新規,0,2022-01-19,2022-01-19,株式会社ＳＯＪ４１８,,株式会社,兵庫県,尼崎市,武庫豊町３丁目４番１－６２４号,,28,202,6610045,,,,,,,2022-01-19,1,,,,,エスオージェイヨンイチハチ,0
654,2160001023949,新規,0,2022-01-19,2022-01-19,株式会社キムサト,,株式会社,滋賀県,近江八幡市,鷹飼町１０７９番地,,25,204,5230891,,,,,,,2022-01-19,1,,,,,キムサト,0
683,2180001149560,新規,0,2022-01-19,2022-01-19,Ｍ＆Ｍスペース株式会社,,株式会社,愛知県,名古屋市天白区,鴻の巣２丁目４０３番地シルク壱番館１０３号,,23,116,4680003,,,,,,,2022-01-19,1,,,,,エムアンドエムスペース,0
684,2180001149610,新規,0,2022-01-19,2022-01-19,株式会社ＮＤＫ,,株式会社,愛知県,常滑市,新田町１丁目６５,,23,216,4790855,,,,,,,2022-01-19,1,,,,,エヌディーケー,0
685,2180001149619,新規,0,2022-01-19,2022-01-19,ＭＳＲ産業株式会社,,株式会社,愛知県,名古屋市緑区,滝ノ水１丁目１８０８番地,,23,114,4580021,,,,,,,2022-01-19,1,,,,,エムエスアールサンギョウ,0
686,2180001149635,新規,0,2022-01-19,2022-01-19,株式会社ＮＤＭ,,株式会社,愛知県,名古屋市東区,矢田南１丁目６番２９号,,23,102,4610048,,,,,,,2022-01-19,1,,,,,エヌディーエム,0
687,2180001149651,新規,0,2022-01-19,2022-01-19,株式会社ピースホーム,,株式会社,愛知県,名古屋市港区,当知１丁目６０３番地,,23,111,4550804,,,,,,,2022-01-19,1,,,,,ピースホーム,0
699,2180003023391,新規,0,2022-01-19,2022-01-19,合同会社Ｂｉｔ・Ｍｅｔａｖｅｒｓｅ　Ｆｕｔｕｒｅ　Ｊａｐａｎ,,合同会社,愛知県,半田市,南大矢知町４丁目２０４番地の１６,,23,205,4750006,,,,,,,2022-01-19,1,,,,,ビットメタバースフューチャージャパン,0
704,2180303005230,新規,0,2022-01-19,2022-01-19,合同会社豊田タックス・マネージメント,,合同会社,愛知県,豊田市,四郷町六反田６番地２,,23,211,4700373,,,,,,,2022-01-19,1,,,,,トヨタタックスマネージメント,0
708,2190001029043,新規,0,2022-01-19,2022-01-19,ＩＷＡＳＡＫＩホールディングス株式会社,,株式会社,三重県,桑名郡木曽岬町,大字和富８番地５,,24,303,4980823,,,,,,,2022-01-19,1,,,,,イワサキホールディングス,0
733,2220003003190,新規,0,2022-01-19,2022-01-19,合同会社ステイオンザコース,,合同会社,石川県,金沢市,松村町ヌ２４番地７,,17,201,9200347,,,,,,,2022-01-19,1,,,,,ステイオンザコース,0
748,2290001096073,新規,0,2022-01-19,2022-01-19,Ｌｉｖｉｎｇ　ａｓ　Ｎａｔｕｒｅ株式会社,,株式会社,福岡県,福岡市博多区,博多駅前２丁目１番１号福岡朝日ビル１階,,40,132,8120011,,,,,,,2022-01-19,1,,,,,リビングアズネイチャー,0
749,2290001096123,新規,0,2022-01-19,2022-01-19,株式会社ＮＥＸＵＳ,,株式会社,福岡県,太宰府市,国分１丁目１０番３１号,,40,221,8180132,,,,,,,2022-01-19,1,,,,,ネクサス,0
750,2290001096131,新規,0,2022-01-19,2022-01-19,株式会社マーキーアンドマーキー,,株式会社,福岡県,大野城市,月の浦１丁目１１番１号,,40,219,8160983,,,,,,,2022-01-19,1,,,,,マーキーアンドマーキー,0
756,2290003012045,新規,0,2022-01-19,2022-01-19,エサキ設計合同会社,,合同会社,福岡県,みやま市,瀬高町下庄２０９５－１ｃｏｃｏｓｔａ１０２,,40,229,8350024,,,,,,,2022-01-19,1,,,,,エサキセッケイ,0
759,2290005018528,新規,0,2022-01-19,2022-01-19,一般社団法人糟屋青年会議所,,その他の設立登記法人,福岡県,糟屋郡粕屋町,大字仲原２８７４番地,,40,349,8112304,,,,,,,2022-01-19,1,,,,,カスヤセイネンカイギショ,0
766,2310001017679,新規,0,2022-01-19,2022-01-19,株式会社コネクト,,株式会社,長崎県,長崎市,新中川町４番２１号,,42,201,8500014,,,,,,,2022-01-19,1,,,,,コネクト,0
784,2330003009210,新規,0,2022-01-19,2022-01-19,合同会社プラス・ワン・サポート,,合同会社,熊本県,熊本市南区,八幡５丁目１４－３８コーポ野村２００号,,43,104,8614113,,,,,,,2022-01-19,1,,,,,プラスワンサポート,0
787,2350001017535,新規,0,2022-01-19,2022-01-19,株式会社甲斐溶接工業,,株式会社,宮崎県,延岡市,緑ケ丘４丁目２０番２２号,,45,203,8820863,,,,,,,2022-01-19,1,,,,,カイヨウセツコウギョウ,0
789,2360003011741,新規,0,2022-01-19,2022-01-19,合同会社Ｒｉｓｅ,,合同会社,沖縄県,中頭郡読谷村,字喜名３２３番地３,,47,324,9040302,,,,,,,2022-01-19,1,,,,,ライズ,0
792,2370001048074,新規,0,2022-01-19,2022-01-19,株式会社デン,,株式会社,宮城県,仙台市太白区,大野田１丁目１番２号,,04,104,9820014,,,,,,,2022-01-19,1,,,,,デン,0
793,2370001048099,新規,0,2022-01-19,2022-01-19,株式会社ＩＣＣＬ,,株式会社,宮城県,仙台市若林区,蒲町２９－１５、２Ｆ－Ｂ,,04,103,9840037,,,,,,,2022-01-19,1,,,,,アイシーシーエル,0
800,2380001032507,新規,0,2022-01-19,2022-01-19,株式会社ベース,,株式会社,福島県,福島市,笹谷字中谷地３番地の１エスポワール１０２,,07,201,9600241,,,,,,,2022-01-19,1,,,,,ベース,0
810,2430001085796,新規,0,2022-01-19,2022-01-19,株式会社ＳＦＮ,,株式会社,北海道,勇払郡厚真町,字美里４８番地,,01,581,0591625,,,,,,,2022-01-19,1,,,,,エスエフエヌ,0
811,2430001085821,新規,0,2022-01-19,2022-01-19,株式会社ララコンティ,,株式会社,北海道,札幌市中央区,北二条西２丁目３２番地,,01,101,0600002,,,,,,,2022-01-19,1,,,,,ララコンティ,0
818,2500001023939,新規,0,2022-01-19,2022-01-19,株式会社ひのまる工務店,,株式会社,愛媛県,伊予郡松前町,大字浜７７５番地１,,38,401,7913110,,,,,,,2022-01-19,1,,,,,ヒノマルコウムテン,0
819,2700150106706,新規,0,2022-01-19,2022-01-19,三田駅前Ｃブロック地区市街地再開発組合,,その他,兵庫県,三田市,駅前町８－３,,28,219,6691528,,,,,,,2022-01-19,1,,,,,サンダエキマエシーブロツクチクシガイチサイカイハツクミアイ,0
820,2700150106722,新規,0,2022-01-19,2022-01-19,Ｍ．Ａ．Ｓ．ＴＲＡＤＩＮＧ　ＣＯＭＰＡＮＹ（ＰＶＴ）ＬＴＤ．,,外国会社等,神奈川県,厚木市,上依知１５８８番地１コーポＰＢＢ８－１０３,,14,212,2430801,スリランカ民主社会主義共和国セントラル州カンディ市アクラナ－０６、ドダンゴダ１８８／２,,,,,,2022-01-19,1,,,,,エムエーエストレーデイングカンパニー,0
836,3010001223827,新規,0,2022-01-19,2022-01-19,株式会社ＥＲＡ,,株式会社,東京都,中央区,日本橋浜町３丁目８番１２－１００５号,,13,102,1030007,,,,,,,2022-01-19,1,,,,,エラ,0
838,3010003036797,新規,0,2022-01-19,2022-01-19,パイクポイント合同会社,,合同会社,東京都,文京区,大塚５丁目１０番３号,00125446,13,105,1120012,,,,,,,2022-01-19,1,,,,,パイクポイント,0
846,3010401164992,新規,0,2022-01-19,2022-01-19,株式会社六本木管理三号,,株式会社,東京都,港区,六本木３丁目２番１号,,13,103,1060032,,,,,,,2022-01-19,1,,,,,ロッポンギカンリサンゴウ,0
847,3010401165009,新規,0,2022-01-19,2022-01-19,Ｍｏｂｉｌｅｕｍ　Ｊａｐａｎ株式会社,,株式会社,東京都,港区,元麻布３丁目１番６号,,13,103,1060046,,,,,,,2022-01-19,1,,,,,モビリウムジャパン,0
851,3010403026893,新規,0,2022-01-19,2022-01-19,Ｄｉｖｅｒｓｉｔｙ　ｍａｎａｇｅｍｅｎｔ合同会社,,合同会社,東京都,港区,東新橋２丁目１０番７－２０２号,,13,103,1050021,,,,,,,2022-01-19,1,,,,,ダイバーシティマネジメント,0
855,3010405020589,新規,0,2022-01-19,2022-01-19,一般社団法人日本養生セルフケア協会,,その他の設立登記法人,東京都,港区,北青山３丁目１２番７－１００３号,,13,103,1070061,,,,,,,2022-01-19,1,,,,,ニホンヨウジョウヘルスケアキョウカイ,0
856,3010501048344,新規,0,2022-01-19,2022-01-19,日本ＰＭＣ株式会社,,株式会社,東京都,台東区,上野３丁目１４番２号,,13,106,1100005,,,,,,,2022-01-19,1,,,,,ニホンピーエムシー,0
857,3010601060546,新規,0,2022-01-19,2022-01-19,株式会社ＭｉｓｔＧｒｅｅｎ,,株式会社,東京都,墨田区,京島１丁目８番８号ＢｉｚＣｏｍｆｏｒｔ曳舟１４,,13,107,1310046,,,,,,,2022-01-19,1,,,,,ミストグリーン,0
862,3010703006075,新規,0,2022-01-19,2022-01-19,ねこの手合同会社,,合同会社,東京都,品川区,上大崎３丁目１４番１７－３０５号,,13,109,1410021,,,,,,,2022-01-19,1,,,,,ネコノテ,0
864,3010903007088,新規,0,2022-01-19,2022-01-19,合同会社ＭｓｋｙＪ,,合同会社,東京都,世田谷区,野沢４丁目６番６号,,13,112,1540003,,,,,,,2022-01-19,1,,,,,エムスカイジェイ,0
870,3011001145128,新規,0,2022-01-19,2022-01-19,株式会社クレドラスト,,株式会社,東京都,渋谷区,渋谷２丁目１９番１５号宮益坂ビルディング６０９,,13,113,1500002,,,,,,,2022-01-19,1,,,,,クレドラスト,0
872,3011003014000,新規,0,2022-01-19,2022-01-19,ＭＡＲＩＣ合同会社,,合同会社,東京都,渋谷区,東１丁目２８番１１号ｓｈｉｂｕｙａ・ｎｏｍａｄｏ５０１,,13,113,1500011,,,,,,,2022-01-19,1,,,,,マリック,0
875,3011005009378,新規,0,2022-01-19,2022-01-19,特定非営利活動法人ＫＯＮＮＥＫＴ　ＡＳＩＡ,,その他の設立登記法人,東京都,渋谷区,松濤１丁目１７番１７号,,13,113,1500046,,,,,,,2022-01-19,1,,,,,コネクトアジア,0
884,3011401023965,新規,0,2022-01-19,2022-01-19,株式会社ＷｉｎＳｔａｒ,,株式会社,東京都,板橋区,上板橋２丁目４８－２ＡＨ棟２０１号,,13,119,1740076,,,,,,,2022-01-19,1,,,,,ウィンスター,0
889,3011601025670,新規,0,2022-01-19,2022-01-19,株式会社徳丸,,株式会社,東京都,練馬区,高松６丁目１９番２６号プランドール・光が丘Ｃ号,,13,120,1790075,,,,,,,2022-01-19,1,,,,,トクマル,0
891,3011701024985,新規,0,2022-01-19,2022-01-19,正和株式会社,,株式会社,東京都,江戸川区,東小岩３丁目１７番１７号,,13,123,1330052,,,,,,,2022-01-19,1,,,,,ショウワ,0
894,3011801040197,新規,0,2022-01-19,2022-01-19,株式会社Ｍ,,株式会社,東京都,足立区,足立２丁目１６番１１号,,13,121,1200015,,,,,,,2022-01-19,1,,,,,エム,0
896,3012301012843,新規,0,2022-01-19,2022-01-19,株式会社ビヨンド,,株式会社,東京都,町田市,相原町２８５３－６,,13,209,1940211,,,,,,,2022-01-19,1,,,,,ビヨンド,0
897,3012301012851,新規,0,2022-01-19,2022-01-19,株式会社シャイニー,,株式会社,東京都,町田市,玉川学園７丁目１番６号,,13,209,1940041,,,,,,,2022-01-19,1,,,,,シャイニー,0
899,3012401038763,新規,0,2022-01-19,2022-01-19,Ｚｉｏｔｒｅｋｓ株式会社,,株式会社,東京都,稲城市,向陽台２丁目５番地の８１,,13,225,2060803,,,,,,,2022-01-19,1,,,,,ジオトレックス,0
900,3012403005200,新規,0,2022-01-19,2022-01-19,Ｗ合同会社,,合同会社,東京都,小金井市,東町３丁目２番１４号,,13,210,1840011,,,,,,,2022-01-19,1,,,,,ダブリュー,0
906,3012803002680,新規,0,2022-01-19,2022-01-19,合同会社ヒラシマ,,合同会社,東京都,国分寺市,北町４丁目１８番地３６,,13,214,1850001,,,,,,,2022-01-19,1,,,,,ヒラシマ,0
911,3013301048563,新規,0,2022-01-19,2022-01-19,ＳＡＲＥ株式会社,,株式会社,東京都,豊島区,南大塚２丁目１１番１０号ミモザビル３階,,13,116,1700005,,,,,,,2022-01-19,1,,,,,エスエーアールイー,0
923,3020001144808,新規,0,2022-01-19,2022-01-19,株式会社チェンジグロウ,,株式会社,神奈川県,横浜市神奈川区,松ケ丘３５番地２６－１１０４号,,14,102,2210843,,,,,,,2022-01-19,1,,,,,チェンジグロウ,0
924,3020001144832,新規,0,2022-01-19,2022-01-19,株式会社オフィスティーケー,,株式会社,神奈川県,川崎市宮前区,鷺沼２丁目１８番地２９,,14,136,2160004,,,,,,,2022-01-19,1,,,,,オフィスティーケー,0
925,3020001144840,新規,0,2022-01-19,2022-01-19,株式会社スリートーン,,株式会社,神奈川県,横浜市中区,桜木町１丁目１０１番地１クロスゲート７階,,14,104,2310062,,,,,,,2022-01-19,1,,,,,スリートーン,0
926,3020001144849,新規,0,2022-01-19,2022-01-19,株式会社ＭＯＵＮＴＨＩＬＬ,,株式会社,神奈川県,川崎市宮前区,宮崎６丁目８番地３－６１１,,14,136,2160033,,,,,,,2022-01-19,1,,,,,マウントヒル,0
928,3020003021154,新規,0,2022-01-19,2022-01-19,トニートニー合同会社,,合同会社,神奈川県,横浜市青葉区,新石川２丁目２０―１,,14,117,2250003,,,,,,,2022-01-19,1,,,,,トニートニー,0
931,3021003011293,新規,0,2022-01-19,2022-01-19,合同会社Ｓａｖａｇｅ,,合同会社,神奈川県,厚木市,戸室４丁目１番地３０号ウィンドプラザ３０９,,14,212,2430031,,,,,,,2022-01-19,1,,,,,,0
937,3030001146398,新規,0,2022-01-19,2022-01-19,彩の森動物病院狭山ヶ丘株式会社,,株式会社,埼玉県,所沢市,東狭山ケ丘３丁目７１９番地の１,,11,208,3591106,,,,,,,2022-01-19,1,,,,,サイノモリドウブツビョウインサヤマガオカ,0
950,3040001121821,新規,0,2022-01-19,2022-01-19,アペロジャパン株式会社,,株式会社,千葉県,千葉市中央区,川崎町５１番地１フェスティバルウォーク蘇我,,12,101,2600835,,,,,,,2022-01-19,1,,,,,アペロジャパン,0
954,3040005021489,新規,0,2022-01-19,2022-01-19,一般社団法人ビコーダイバーシティアカデミア,,その他の設立登記法人,千葉県,千葉市中央区,生実町１７４７番地１,,12,101,2600813,,,,,,,2022-01-19,1,,,,,ビコーダイバーシティアカデミア,0
974,3050003006318,新規,0,2022-01-19,2022-01-19,合同会社東風マンガＬａｂ．,,合同会社,茨城県,つくば市,吾妻３丁目８－１１デルフィビル２０３号,,08,220,3050031,,,,,,,2022-01-19,1,,,,,ハルカゼマンガラボ,0
990,3080101023039,新規,0,2022-01-19,2022-01-19,株式会社インバンカー,,株式会社,静岡県,沼津市,岡一色８１５番地の１,,22,203,4100012,,,,,,,2022-01-19,1,,,,,インバンカー,0
1003,3090001017370,新規,0,2022-01-19,2022-01-19,株式会社三笑,,株式会社,山梨県,富士吉田市,竜ケ丘３丁目５番６号,,19,202,4030014,,,,,,,2022-01-19,1,,,,,サンショウ,0
1008,3100003006378,新規,0,2022-01-19,2022-01-19,合同会社のの．,,合同会社,長野県,佐久市,布施２４７７番地１５０,,20,217,3842203,,,,,,,2022-01-19,1,,,,,ノノ,0
1012,3110001036376,新規,0,2022-01-19,2022-01-19,株式会社ＮＨホールディングス,,株式会社,新潟県,新潟市西区,みずき野１丁目１０番３０号,,15,107,9502264,,,,,,,2022-01-19,1,,,,,エヌエイチホールディングス,0
1018,3110003004686,新規,0,2022-01-19,2022-01-19,合同会社４－ｂｉｔ,,合同会社,新潟県,見附市,学校町２丁目４番３８号,,15,211,9540052,,,,,,,2022-01-19,1,,,,,フォービット,0
1035,3120901045483,新規,0,2022-01-19,2022-01-19,株式会社ゆたか不動産販売,,株式会社,大阪府,吹田市,片山町３丁目１８番２６号,,27,205,5640082,,,,,,,2022-01-19,1,,,,,ユタカフドウサンハンバイ,0
1038,3122001035514,新規,0,2022-01-19,2022-01-19,ヤシタ株式会社,,株式会社,大阪府,東大阪市,長田東２丁目２番３号長田エストビル,,27,227,5770012,,,,,,,2022-01-19,1,,,,,ヤシタ,0
1049,3140001124599,新規,0,2022-01-19,2022-01-19,株式会社ＬＩＦＥ　ＦｉＴ,,株式会社,兵庫県,尼崎市,南武庫之荘２丁目７番２３号,,28,202,6610033,,,,,,,2022-01-19,1,,,,,ライフフィット,0
1050,3140001124608,新規,0,2022-01-19,2022-01-19,関西ディグループ株式会社,,株式会社,兵庫県,神戸市中央区,海岸通６丁目１番１３－３１０８号,,28,110,6500024,,,,,,,2022-01-19,1,,,,,カンサイディグループ,0
1051,3140003017248,新規,0,2022-01-19,2022-01-19,Ｍ’ｓ　Ｔｒａｄｉｎｇ合同会社,,合同会社,兵庫県,西宮市,中屋町９番１１号,,28,204,6620868,,,,,,,2022-01-19,1,,,,,エムズトレーディング,0
1055,3160005011032,新規,0,2022-01-19,2022-01-19,一般社団法人彦根仏壇保存会,,その他の設立登記法人,滋賀県,彦根市,新町６０番地,,25,202,5220085,,,,,,,2022-01-19,1,,,,,ヒコネブツダンホゾンカイ,0
1076,3180001149618,新規,0,2022-01-19,2022-01-19,株式会社オイカゼ,,株式会社,愛知県,名古屋市緑区,桶狭間森前２０１４番地,,23,114,4580910,,,,,,,2022-01-19,1,,,,,オイカゼ,0
1077,3180001149626,新規,0,2022-01-19,2022-01-19,株式会社スタンダード,,株式会社,愛知県,名古屋市中区,丸の内１丁目１５２１番地ナビシティ丸の内２０３号,,23,106,4600002,,,,,,,2022-01-19,1,,,,,スタンダード,0
1078,3180001149642,新規,0,2022-01-19,2022-01-19,第一環境ホールディングス株式会社,,株式会社,愛知県,小牧市,久保一色南２丁目１２０番地,,23,219,4850007,,,,,,,2022-01-19,1,,,,,ダイイチカンキョウホールディングス,0
1098,3180003023408,新規,0,2022-01-19,2022-01-19,合同会社ドレスパート,,合同会社,愛知県,名古屋市中村区,二ツ橋町４丁目３０番地の１,,23,105,4530813,,,,,,,2022-01-19,1,,,,,ドレスパート,0
1118,3200003005428,新規,0,2022-01-19,2022-01-19,合同会社ＭＣＣ,,合同会社,岐阜県,岐阜市,東金宝町２丁目１２番地６,,21,201,5008167,,,,,,,2022-01-19,1,,,,,エムシーシー,0
1127,3240001059216,新規,0,2022-01-19,2022-01-19,Ｓｅｐｔｓｔｏｃｋ株式会社,,株式会社,広島県,広島市佐伯区,石内北２丁目３３－１８,,34,108,7315109,,,,,,,2022-01-19,1,,,,,セプトストック,0
1129,3240005015322,新規,0,2022-01-19,2022-01-19,農事組合法人志和堀七福神,,その他の設立登記法人,広島県,東広島市,志和町志和堀４６５０番地,,34,212,7390269,,,,,,,2022-01-19,1,,,,,シワホリシチフクジン,0
1133,3260001036452,新規,0,2022-01-19,2022-01-19,株式会社一尚,,株式会社,岡山県,岡山市南区,泉田５丁目３番１７号,,33,104,7000944,,,,,,,2022-01-19,1,,,,,イッショウ,0
1142,3290001096122,新規,0,2022-01-19,2022-01-19,株式会社Ｋａｎｏｎ,,株式会社,福岡県,太宰府市,国分１丁目１０番３１号,,40,221,8180132,,,,,,,2022-01-19,1,,,,,カノン,0
1147,3290801028183,新規,0,2022-01-19,2022-01-19,株式会社マルセイ,,株式会社,福岡県,築上郡築上町,大字築城１９１番地１,,40,647,8290102,,,,,,,2022-01-19,1,,,,,マルセイ,0
1161,3330005010454,新規,0,2022-01-19,2022-01-19,一般社団法人相良氏歴史文化基金,,その他の設立登記法人,熊本県,熊本市中央区,国府１丁目７－２０グランパーク国府５０１号,,43,101,8620949,,,,,,,2022-01-19,1,,,,,サガラシレキシブンカキキン,0
1163,3340001024440,新規,0,2022-01-19,2022-01-19,株式会社まるこう,,株式会社,鹿児島県,南九州市,知覧町塩屋１９３４１番地,,46,223,8910911,,,,,,,2022-01-19,1,,,,,マルコウ,0
1166,3360003011740,新規,0,2022-01-19,2022-01-19,合同会社あがりてぃーだ琉球,,合同会社,沖縄県,名護市,大東１丁目１８番１６号２Ｆ,,47,209,9050016,,,,,,,2022-01-19,1,,,,,アガリティーダリュウキュウ,0
1172,3380001032506,新規,0,2022-01-19,2022-01-19,株式会社隼,,株式会社,福島県,いわき市,平下神谷字岸前１３０番地の１,,07,204,9700101,,,,,,,2022-01-19,1,,,,,ハヤブサ,0
1173,3400003002883,新規,0,2022-01-19,2022-01-19,合同会社圭・コーポレーション,,合同会社,岩手県,盛岡市,みたけ３丁目２３番３号スペースＭＹＡＩＩ,00125455,03,201,0200122,,,,,,,2022-01-19,1,,,,,ケイコーポレーション,0
1185,3420001017709,新規,0,2022-01-19,2022-01-19,株式会社ジーエム工業,,株式会社,青森県,三戸郡階上町,大字赤保内字道仏道添２０番地８７,,02,446,0391202,,,,,,,2022-01-19,1,,,,,ジーエムコウギョウ,0
1188,3430001085795,新規,0,2022-01-19,2022-01-19,株式会社東設備管工,,株式会社,北海道,苫小牧市,拓勇東町６丁目７番２５号,,01,213,0591303,,,,,,,2022-01-19,1,,,,,アズマセツビカンコウ,0
1191,3450003002169,新規,0,2022-01-19,2022-01-19,合同会社クニベ,,合同会社,北海道,天塩郡遠別町,字本町３丁目６９番地２,,01,486,0983543,,,,,,,2022-01-19,1,,,,,クニベ,0
1210,4010001223776,新規,0,2022-01-19,2022-01-19,株式会社絢雅コネクション,,株式会社,東京都,中央区,銀座８丁目２番１０号銀座誠和シルバービル８階,,13,102,1040061,,,,,,,2022-01-19,1,,,,,アヤカコネクション,0
1211,4010001223909,新規,0,2022-01-19,2022-01-19,Ｔａｓ　Ｔａｓｔｅｆｕｌ株式会社,,株式会社,東京都,千代田区,神田神保町３丁目１１番地１,,13,101,1010051,,,,,,,2022-01-19,1,,,,,タステイストフル,0
1212,4010001223933,新規,0,2022-01-19,2022-01-19,株式会社アプテオン,,株式会社,東京都,中央区,日本橋２丁目７番１号,,13,102,1030027,,,,,,,2022-01-19,1,,,,,アプテオン,0
1213,4010001223966,新規,0,2022-01-19,2022-01-19,ＹＥＮ株式会社,,株式会社,東京都,文京区,本郷４丁目１－１菊花ビル７０１,,13,105,1130033,,,,,,,2022-01-19,1,,,,,エン,0
1216,4010003036788,新規,0,2022-01-19,2022-01-19,合同会社ソコソコカンパニー,,合同会社,東京都,中央区,日本橋浜町１丁目７番４号,,13,102,1030007,,,,,,,2022-01-19,1,,,,,ソコソコカンパニー,0
1217,4010003036796,新規,0,2022-01-19,2022-01-19,九段パートナーズ合同会社,,合同会社,東京都,中央区,銀座１丁目１２－４Ｎ＆ＥＢＬＤ．７階,,13,102,1040061,,,,,,,2022-01-19,1,,,,,クダンパートナーズ,0
1220,4010101015025,新規,0,2022-01-19,2022-01-19,株式会社ＫＤＦ,,株式会社,東京都,八王子市,美山町２１４６番地１,,13,201,1920152,,,,,,,2022-01-19,1,,,,,,0
1221,4010103001849,新規,0,2022-01-19,2022-01-19,合同会社あたらしいまち一級建築士事務所,,合同会社,東京都,八王子市,別所１丁目３０番地、２－４０４,,13,201,1920363,,,,,,,2022-01-19,1,,,,,アタラシイマチイッキュウケンチクシジムショ,0
1232,4010403026876,新規,0,2022-01-19,2022-01-19,合同会社Ｒｅｂｉｒｔｈ,,合同会社,東京都,港区,南青山２丁目２番１５号,,13,103,1070062,,,,,,,2022-01-19,1,,,,,リバース,0
1233,4010403026918,新規,0,2022-01-19,2022-01-19,合同会社田中マネジメント,,合同会社,東京都,港区,六本木５丁目１８番１９－５０６号,,13,103,1060032,,,,,,,2022-01-19,1,,,,,タナカマネジメント,0
1234,4010405020588,新規,0,2022-01-19,2022-01-19,一般社団法人環境保護ペット健診協会,,その他の設立登記法人,東京都,港区,虎ノ門１丁目１２番９号スズエ・アンド・スズエビル８Ｆ,,13,103,1050001,,,,,,,2022-01-19,1,,,,,カンキョウホゴペットケンシンキョウカイ,0
1235,4010503006480,新規,0,2022-01-19,2022-01-19,合同会社金子商店,,合同会社,東京都,台東区,浅草橋５丁目７－９－３０２,,13,106,1110053,,,,,,,2022-01-19,1,,,,,カネコショウテン,0
1243,4010701042022,新規,0,2022-01-19,2022-01-19,Ｒｅｎ株式会社,,株式会社,東京都,品川区,東五反田２丁目１０番１－４１０７号,,13,109,1410022,,,,,,,2022-01-19,1,,,,,レン,0
1244,4010801032666,新規,0,2022-01-19,2022-01-19,株式会社ゼロワン,,株式会社,東京都,大田区,久が原５丁目３３番４－１０７号,,13,111,1460085,,,,,,,2022-01-19,1,,,,,ゼロワン,0
1254,4011001144962,新規,0,2022-01-19,2022-01-19,Ｍ．ＳＴＯＣＫｓ株式会社,,株式会社,東京都,渋谷区,東３丁目６番２２号グラマシー恵比寿１０５,,13,113,1500011,,,,,,,2022-01-19,1,,,,,エムストックス,0
1255,4011001145102,新規,0,2022-01-19,2022-01-19,株式会社Ｆｒａｍｅｗｏｒｋ　Ｇｒａｐｈｉｃｓ,,株式会社,東京都,渋谷区,本町３丁目３７番４－１１０２号,,13,113,1510071,,,,,,,2022-01-19,1,,,,,フレームワークグラフィックス,0
1256,4011001145110,新規,0,2022-01-19,2022-01-19,株式会社ｃａｌｅｎｄａｒｓ．,,株式会社,東京都,渋谷区,神宮前５丁目３９番７号,,13,113,1500001,,,,,,,2022-01-19,1,,,,,カレンダース,0
1257,4011001145135,新規,0,2022-01-19,2022-01-19,株式会社Ｈａｍａ　Ｓｐｏ,,株式会社,東京都,渋谷区,神宮前６丁目２３番４号桑野ビル２階,,13,113,1500001,,,,,,,2022-01-19,1,,,,,ハマスポ,0
1258,4011003014008,新規,0,2022-01-19,2022-01-19,テルトニカジャパン合同会社,,合同会社,東京都,渋谷区,神宮前６丁目２８番９号東武ビル６階,,13,113,1500001,,,,,,,2022-01-19,1,,,,,テルトニカジャパン,0
1263,4011203003727,新規,0,2022-01-19,2022-01-19,アトリエ村ブック合同会社,,合同会社,東京都,中野区,中央４丁目２６番１３号,,13,114,1640011,,,,,,,2022-01-19,1,,,,,アトリエムラブック,0
1265,4011301027479,新規,0,2022-01-19,2022-01-19,株式会社ゼロナノテック,,株式会社,東京都,杉並区,今川４丁目６番１０号ユニ・ウェル１０３,,13,115,1670035,,,,,,,2022-01-19,1,,,,,ゼロナノテック,0
1278,4012301012842,新規,0,2022-01-19,2022-01-19,株式会社ＲＡＰＯＲＩＣＯ,,株式会社,東京都,町田市,原町田６丁目９番８号アエタ町田４階,,13,209,1940013,,,,,,,2022-01-19,1,,,,,ラポリコ,0
1279,4012401038754,新規,0,2022-01-19,2022-01-19,株式会社プラスシンク,,株式会社,東京都,三鷹市,井口４丁目５番６号,,13,204,1810011,,,,,,,2022-01-19,1,,,,,プラスシンク,0
1287,4020001144848,新規,0,2022-01-19,2022-01-19,株式会社ＤＡＺＺＬＡＴＩＯＮ,,株式会社,神奈川県,横浜市泉区,西が岡１丁目１４番地１,,14,116,2450006,,,,,,,2022-01-19,1,,,,,ダズレイション,0
1288,4020003021137,新規,0,2022-01-19,2022-01-19,合同会社シンプリー,,合同会社,神奈川県,横浜市西区,北幸１丁目１１番１号水信ビル７階,,14,103,2200004,,,,,,,2022-01-19,1,,,,,シンプリー,0
1289,4020003021161,新規,0,2022-01-19,2022-01-19,合同会社開再,,合同会社,神奈川県,横浜市青葉区,桂台１丁目８番地１６,,14,117,2270034,,,,,,,2022-01-19,1,,,,,カイサイ,0
1299,4030001146042,新規,0,2022-01-19,2022-01-19,株式会社Ｓ．Ｗ．Ｇ,,株式会社,埼玉県,久喜市,高柳２２５７番４,,11,232,3491125,,,,,,,2022-01-19,1,,,,,エスダブリュージー,0
1300,4030001146331,新規,0,2022-01-19,2022-01-19,ＭＩＲＡＩ株式会社,,株式会社,埼玉県,戸田市,本町４丁目４番６号ＴＢＣ１８７号,,11,224,3350023,,,,,,,2022-01-19,1,,,,,ミライ,0
1301,4030001146364,新規,0,2022-01-19,2022-01-19,株式会社石井板金工業,,株式会社,埼玉県,さいたま市西区,三橋６丁目３２４番地アゼリアヒルＩＩ１０１,00125447,11,101,3310052,,,,,,,2022-01-19,1,,,,,イシイバンキンコウギョウ,0
1302,4030001146406,新規,0,2022-01-19,2022-01-19,株式会社花菱,,株式会社,埼玉県,さいたま市岩槻区,加倉２丁目８番１２号,,11,110,3390056,,,,,,,2022-01-19,1,,,,,ハナビシ,0
1306,4030003018677,新規,0,2022-01-19,2022-01-19,合同会社欣海建設,,合同会社,埼玉県,川口市,並木３丁目１３番４号ダイトービル弐番館７階１３号室,,11,203,3320034,,,,,,,2022-01-19,1,,,,,キンカイケンセツ,0
1307,4030003018693,新規,0,2022-01-19,2022-01-19,合同会社ａｐｔ,,合同会社,埼玉県,春日部市,花積５０６番地３,,11,214,3440044,,,,,,,2022-01-19,1,,,,,アプト,0
1314,4040001121746,新規,0,2022-01-19,2022-01-19,株式会社Ｌａ　ｃｌｅ,,株式会社,千葉県,流山市,おおたかの森北３丁目１３番地の１２,,12,220,2700119,,,,,,,2022-01-19,1,,,,,ラクレ,0
1315,4040001121845,新規,0,2022-01-19,2022-01-19,株式会社サムズスカイ,,株式会社,千葉県,松戸市,小根本１０番地９０１号,,12,207,2710073,,,,,,,2022-01-19,1,,,,,サムズスカイ,0
1341,4050005012998,新規,0,2022-01-19,2022-01-19,税理士法人ＢＬＵＥ,,その他の設立登記法人,茨城県,土浦市,小岩田西２丁目６番３号,,08,203,3000833,,,,,,,2022-01-19,1,,,,,ブルー,0
1363,4080101023054,新規,0,2022-01-19,2022-01-19,株式会社Ｐｅｒｍａ　Ｆｕｔｕｒｅ,,株式会社,静岡県,沼津市,上土町１００番地の１ナティ沼津８０１,,22,203,4100802,,,,,,,2022-01-19,1,,,,,パーマフューチャー,0
1382,4080403004454,新規,0,2022-01-19,2022-01-19,ミリオンペタル合同会社,,合同会社,静岡県,周智郡森町,三倉２１１９番地の１,,22,461,4370208,,,,,,,2022-01-19,1,,,,,ミリオンペタル,0
1386,4110001036383,新規,0,2022-01-19,2022-01-19,株式会社ファンディー,,株式会社,新潟県,新発田市,諏訪町２丁目２番２４号,,15,206,9570055,,,,,,,2022-01-19,1,,,,,ファンディー,0
1387,4110003004685,新規,0,2022-01-19,2022-01-19,Ｍ’ｓ　ｃｏｍｐａｎｙ合同会社,,合同会社,新潟県,新潟市西区,坂井４６２番地３８,,15,107,9502042,,,,,,,2022-01-19,1,,,,,エムズカンパニー,0
1400,4120001243268,新規,0,2022-01-19,2022-01-19,株式会社ＣＨＡＮＭＯＭＯハウジング,,株式会社,大阪府,大阪市中央区,平野町４丁目７番８号,,27,128,5410046,,,,,,,2022-01-19,1,,,,,チャンモモハウジング,0
1404,4120003020962,新規,0,2022-01-19,2022-01-19,合同会社ＭＡＫＩ,,合同会社,大阪府,大阪市天王寺区,上汐５丁目７番１１号,,27,109,5430002,,,,,,,2022-01-19,1,,,,,,0
1405,4120003020979,新規,0,2022-01-19,2022-01-19,合同会社みらいインベストメント,,合同会社,大阪府,寝屋川市,寝屋１丁目５番１,,27,215,5720801,,,,,,,2022-01-19,1,,,,,ミライインベストメント,0
1406,4120003020987,新規,0,2022-01-19,2022-01-19,合同会社ＲＥＨＥＬＰ,,合同会社,大阪府,大阪市住之江区,安立２丁目３－６,,27,125,5590003,,,,,,,2022-01-19,1,,,,,リヘルプ,0
1410,4120101064969,新規,0,2022-01-19,2022-01-19,株式会社Ｔｉｅａｓｙ,,株式会社,大阪府,大阪狭山市,半田１丁目６番地の１４ＭｏｖｅＧｒＢｌｄｇ．１０１,,27,231,5890011,,,,,,,2022-01-19,1,,,,,ティージー,0
1412,4120901045482,新規,0,2022-01-19,2022-01-19,株式会社ＴＨＲＥＥ　ＴＯＰ,,株式会社,大阪府,豊中市,服部寿町１丁目５番８号,,27,203,5610857,,,,,,,2022-01-19,1,,,,,スリートップ,0
1416,4122005003598,新規,0,2022-01-19,2022-01-19,ＮＰＯ法人ペット防災サポート協会,,その他の設立登記法人,大阪府,東大阪市,角田２丁目３番３４号,,27,227,5780912,,,,,,,2022-01-19,1,,,,,ペットボウサイサポートキョウカイ,0
1425,4140001124607,新規,0,2022-01-19,2022-01-19,株式会社メタコミット,,株式会社,兵庫県,神戸市中央区,栄町通５丁目２－２－４０６,,28,110,6500023,,,,,,,2022-01-19,1,,,,,メタコミット,0
1426,4140001124631,新規,0,2022-01-19,2022-01-19,株式会社ＹＨ,,株式会社,兵庫県,伊丹市,梅ノ木５丁目４番２３号,,28,207,6640856,,,,,,,2022-01-19,1,,,,,ワイエイチ,0
1457,4180001149542,新規,0,2022-01-19,2022-01-19,ｇｏｆｕｋｕ株式会社,,株式会社,愛知県,半田市,桐ケ丘１丁目４６番地,,23,205,4750928,,,,,,,2022-01-19,1,,,,,ゴフク,0
1458,4180001149633,新規,0,2022-01-19,2022-01-19,株式会社Ａ＆Ｊ,,株式会社,愛知県,名古屋市中川区,春田３丁目１３４番地,,23,110,4540985,,,,,,,2022-01-19,1,,,,,エーアンドジェイ,0
1459,4180001149641,新規,0,2022-01-19,2022-01-19,株式会社Ｇｒａｃｅ,,株式会社,愛知県,名古屋市港区,木場町６番地の７ニューコーポ名南Ｂ棟１０１０号,,23,111,4550021,,,,,,,2022-01-19,1,,,,,グレイス,0
1483,4180003023398,新規,0,2022-01-19,2022-01-19,タチサン商経合同会社,,合同会社,愛知県,名古屋市中区,錦１丁目１０番１２号服部ビル１０Ｆ,,23,106,4600003,,,,,,,2022-01-19,1,,,,,タチサンショウキョウ,0
1485,4180301035855,新規,0,2022-01-19,2022-01-19,株式会社ＳＣ,,株式会社,愛知県,豊川市,三蔵子町一里塚５３番地,,23,207,4420006,,,,,,,2022-01-19,1,,,,,シーエス,0
1527,4250001019366,新規,0,2022-01-19,2022-01-19,株式会社キョウセイ,,株式会社,山口県,下関市,小月市原町３番１５号,,35,201,7501147,,,,,,,2022-01-19,1,,,,,キョウセイ,0
1528,4250003002989,新規,0,2022-01-19,2022-01-19,合同会社ＺＥＲＯ　ＣＡＦＥ,,合同会社,山口県,下関市,豊北町大字神田上３００番地８,,35,201,7596121,,,,,,,2022-01-19,1,,,,,ゼロカフェ,0
1535,4290001096113,新規,0,2022-01-19,2022-01-19,株式会社福岡測量設計,,株式会社,福岡県,大野城市,白木原３丁目１番１３号,,40,219,8160943,,,,,,,2022-01-19,1,,,,,フクオカソクリョウセッケイ,0
1536,4290001096146,新規,0,2022-01-19,2022-01-19,玄海興業ビル管理株式会社,,株式会社,福岡県,福岡市早良区,南庄２丁目７番２号,,40,137,8140031,,,,,,,2022-01-19,1,,,,,ゲンカイコウギョウビルカンリ,0
1540,4290005018534,新規,0,2022-01-19,2022-01-19,ＮＰＯ法人ＩＬＡＮＡ　ＯＭＯ　ＯＯＤＵＡ　ＪＡＰＡＮ,,その他の設立登記法人,福岡県,宗像市,田野４９３番５,,40,220,8113514,,,,,,,2022-01-19,1,,,,,イラナオモオーデュアジャパン,0
1543,4290801028182,新規,0,2022-01-19,2022-01-19,株式会社アース設備,,株式会社,福岡県,北九州市八幡西区,陣山２丁目９番２０号,,40,109,8060012,,,,,,,2022-01-19,1,,,,,アースセツビ,0
1558,4330003009209,新規,0,2022-01-19,2022-01-19,合同会社ファクトル,,合同会社,熊本県,天草市,中央新町１２－１３,,43,215,8630023,,,,,,,2022-01-19,1,,,,,ファクトル,0
1560,4350001017541,新規,0,2022-01-19,2022-01-19,株式会社井之上工業,,株式会社,宮崎県,都城市,若葉町１３街区２１号,,45,202,8850054,,,,,,,2022-01-19,1,,,,,イノウエコウギョウ,0
1562,4360001029908,新規,0,2022-01-19,2022-01-19,株式会社松住建,,株式会社,沖縄県,沖縄市,中央１丁目２７－９－１０１,,47,211,9040004,,,,,,,2022-01-19,1,,,,,マツジュウケン,0
1563,4360005006580,新規,0,2022-01-19,2022-01-19,一般社団法人学びデザイン,,その他の設立登記法人,沖縄県,那覇市,牧志２丁目１６－４６タカラマンションマキシー１－２階２０３号室,,47,201,9000013,,,,,,,2022-01-19,1,,,,,マナビデザイン,0
1568,4370001048080,新規,0,2022-01-19,2022-01-19,株式会社エムズ不動産,,株式会社,宮城県,富谷市,明石台７丁目２４番地１０,,04,216,9813332,,,,,,,2022-01-19,1,,,,,エムズフドウサン,0
1569,4370001048089,新規,0,2022-01-19,2022-01-19,ＳＭＩＬＥｃо計測株式会社,,株式会社,宮城県,仙台市青葉区,字青葉六丁目６－１０,,04,101,9800000,,,,,,,2022-01-19,1,,,,,スマイルエコケイソク,0
1570,4370001048097,新規,0,2022-01-19,2022-01-19,株式会社ｓａｆａｒｉ,,株式会社,宮城県,仙台市青葉区,大町１丁目１番１０－１１０５号,,04,101,9800804,,,,,,,2022-01-19,1,,,,,サファリ,0
1571,4370003005559,新規,0,2022-01-19,2022-01-19,合同会社オノデラファーム,,合同会社,宮城県,栗原市,若柳字川北田中５５番地１,,04,213,9895501,,,,,,,2022-01-19,1,,,,,オノデラファーム,0
1580,4380001032505,新規,0,2022-01-19,2022-01-19,株式会社ＢＥ,,株式会社,福島県,いわき市,四倉町狐塚字西原４２番地の１,,07,204,9790206,,,,,,,2022-01-19,1,,,,,ビーイー,0
1589,4430001085794,新規,0,2022-01-19,2022-01-19,エムデジグループ株式会社,,株式会社,北海道,小樽市,新光２丁目１７番１０号,,01,203,0470152,,,,,,,2022-01-19,1,,,,,エムデジグループ,0
1590,4430001085828,新規,0,2022-01-19,2022-01-19,株式会社ノアフーズ,,株式会社,北海道,札幌市西区,西野三条９丁目１０番３０－２０５号,,01,107,0630033,,,,,,,2022-01-19,1,,,,,ノアフーズ,0
1591,4450003002168,新規,0,2022-01-19,2022-01-19,合同会社ｓｏｌ,,合同会社,北海道,旭川市,豊岡十五条７丁目３番２号,,01,204,0788245,,,,,,,2022-01-19,1,,,,,ソル,0
1593,4490003001620,新規,0,2022-01-19,2022-01-19,合同会社Ｅ．ｃｏｎ,,合同会社,高知県,四万十市,駅前町１２番３１号ソレイユＩＩ１０２号,00125445,39,210,7870014,,,,,,,2022-01-19,1,,,,,イーコン,0
1595,4700150106704,新規,0,2022-01-19,2022-01-19,Ｆｕｊｉ　Ｉｎｄｉａ　Ｃｏｒｐｏｒａｔｉｏｎ　Ｐｒｉｖａｔｅ　Ｌｉｍｉｔｅｄ,,外国会社等,,,,,,,,Ｕｎｉｔ　４１４，４ｔｈ　Ｆｌｏｏｒ，Ｅｍａａｒ　Ｃａｐｉｔａｌ　Ｔｏｗｅｒ，Ｖｉｒｅｎｄｒａ　Ｇｒａｍ，Ｍｅｈｒａｕｌｉ　Ｇｕｒｇａｏｎ　Ｒｏａｄ，Ｓｉｋａｎｄｅｒｐｕｒ　Ｇｈｏｓｉ，Ｇｕｒｕｇｒａｍ－１２２０２２，Ｈａｒｙａｎａ，Ｉｎｄｉａ,,,,,,2022-01-19,1,,,,,フジインデイアコーポレーシヨンプライベートリミテツド,0
1610,5010001223800,新規,0,2022-01-19,2022-01-19,株式会社フロウカ,,株式会社,東京都,千代田区,九段南１丁目５番６号りそな九段ビル５Ｆ,,13,101,1020074,,,,,,,2022-01-19,1,,,,,フロウカ,0
1611,5010001223916,新規,0,2022-01-19,2022-01-19,株式会社オリオンエステート,,株式会社,東京都,中央区,銀座１丁目２２番１１号銀座大竹ビジデンス２階,,13,102,1040061,,,,,,,2022-01-19,1,,,,,オリオンエステート,0
1612,5010001223932,新規,0,2022-01-19,2022-01-19,株式会社アーケム,,株式会社,東京都,中央区,日本橋２丁目７番１号,,13,102,1030027,,,,,,,2022-01-19,1,,,,,アーケム,0
1613,5010001223965,新規,0,2022-01-19,2022-01-19,ソレイト株式会社,,株式会社,東京都,中央区,銀座７丁目１３番６号サガミビル２階,,13,102,1040061,,,,,,,2022-01-19,1,,,,,ソレイト,0
1621,5010403026909,新規,0,2022-01-19,2022-01-19,合同会社スパーク,,合同会社,東京都,港区,南青山３丁目５番２号南青山第一韮澤ビル３階,,13,103,1070062,,,,,,,2022-01-19,1,,,,,スパーク,0
1626,5010605004035,新規,0,2022-01-19,2022-01-19,一般社団法人新エネルギー開発機構,,その他の設立登記法人,東京都,江東区,越中島２丁目１番３２－８１４号,,13,108,1350044,,,,,,,2022-01-19,1,,,,,シンエネルギーカイハツキコウ,0
1630,5010701042087,新規,0,2022-01-19,2022-01-19,ＭＰソリューション株式会社,,株式会社,東京都,品川区,南大井２丁目７番９号３階,,13,109,1400013,,,,,,,2022-01-19,1,,,,,エムピーソリューション,0
1632,5010801032665,新規,0,2022-01-19,2022-01-19,株式会社澤屋,,株式会社,東京都,大田区,西蒲田７丁目６３番１０号,,13,111,1440051,,,,,,,2022-01-19,1,,,,,サワヤ,0
1634,5010901050179,新規,0,2022-01-19,2022-01-19,株式会社日本ホメオパシー総研,,株式会社,東京都,世田谷区,南烏山１丁目９番２０号Ｃ棟,,13,112,1570062,,,,,,,2022-01-19,1,,,,,ニホンホメオパシーソウケン,0
1636,5011001145134,新規,0,2022-01-19,2022-01-19,株式会社プロズプラス,,株式会社,東京都,渋谷区,桜丘町２９番１６－３１０号,,13,113,1500031,,,,,,,2022-01-19,1,,,,,プロズプラス,0
1637,5011001145167,新規,0,2022-01-19,2022-01-19,株式会社ケーワークス,,株式会社,東京都,渋谷区,神宮前６丁目２３番４号桑野ビル２階,,13,113,1500001,,,,,,,2022-01-19,1,,,,,ケーワークス,0
1638,5011001145200,新規,0,2022-01-19,2022-01-19,株式会社ＧＡＲＤＥＮ　ＴＸ,,株式会社,東京都,渋谷区,神宮前１丁目１１番１１号,,13,113,1500001,,,,,,,2022-01-19,1,,,,,ガーデンティーエックス,0
1639,5011003014031,新規,0,2022-01-19,2022-01-19,ヴォーグテラス千駄木合同会社,,合同会社,東京都,渋谷区,猿楽町１１番２４号,,13,113,1500033,,,,,,,2022-01-19,1,,,,,ヴォーグテラスセンダギ,0
1642,5011103011382,新規,0,2022-01-19,2022-01-19,合同会社Ｔ＆Ｋ,,合同会社,東京都,新宿区,歌舞伎町２丁目１７番４号コリンズ３７ビル４階Ｄ．Ｅ室,,13,104,1600021,,,,,,,2022-01-19,1,,,,,ティアンドケイ,0
1644,5011301027486,新規,0,2022-01-19,2022-01-19,株式会社ＮＳＰ－Ｔｅｃｈ,,株式会社,東京都,杉並区,善福寺２丁目１２番９号,,13,115,1670041,,,,,,,2022-01-19,1,,,,,エヌエスピーテック,0
1649,5011501027617,新規,0,2022-01-19,2022-01-19,株式会社ＩＣＢＲＥＡＫ,,株式会社,東京都,北区,滝野川５丁目１６番１号シャトー鶴２０６号,,13,117,1140023,,,,,,,2022-01-19,1,,,,,アイシーブレイク,0
1656,5011701024983,新規,0,2022-01-19,2022-01-19,ＪＩＮ経営コンサルタンツ株式会社,,株式会社,東京都,江戸川区,松島１丁目４１番１８号,,13,123,1320031,,,,,,,2022-01-19,1,,,,,ジンケイエイコンサルタンツ,0
1657,5011701024991,新規,0,2022-01-19,2022-01-19,株式会社アクシズ,,株式会社,東京都,江戸川区,上一色１丁目７番１１号,,13,123,1330041,,,,,,,2022-01-19,1,,,,,アクシズ,0
1660,5012301012841,新規,0,2022-01-19,2022-01-19,株式会社ひと粒の麦,,株式会社,東京都,町田市,原町田４丁目２６番３４号６,,13,209,1940013,,,,,,,2022-01-19,1,,,,,ヒトツブノムギ,0
1663,5012403005198,新規,0,2022-01-19,2022-01-19,ノアトレーディング合同会社,,合同会社,東京都,武蔵野市,御殿山２丁目２番１６号,,13,203,1800005,,,,,,,2022-01-19,1,,,,,ノアトレーディング,0
1674,5020001144863,新規,0,2022-01-19,2022-01-19,株式会社中道,,株式会社,神奈川県,横浜市青葉区,すすき野２丁目６番地７谷本ビル３０５,,14,117,2250021,,,,,,,2022-01-19,1,,,,,ナカミチ,0
1676,5020003021136,新規,0,2022-01-19,2022-01-19,合同会社ぷっきあ,,合同会社,神奈川県,横浜市青葉区,市ケ尾町１４６７－１８,,14,117,2250024,,,,,,,2022-01-19,1,,,,,プッキア,0
1677,5020003021160,新規,0,2022-01-19,2022-01-19,リヒト合同会社,,合同会社,神奈川県,横浜市青葉区,市ケ尾町１０６３番地１９ドレッセ市が尾ザ・フロント１０１,,14,117,2250024,,,,,,,2022-01-19,1,,,,,リヒト,0
1679,5021001074943,新規,0,2022-01-19,2022-01-19,株式会社祐圧送,,株式会社,神奈川県,平塚市,須賀２６２４番地の８,,14,203,2540022,,,,,,,2022-01-19,1,,,,,ユウアッソウ,0
1680,5021001074976,新規,0,2022-01-19,2022-01-19,株式会社善光不動産,,株式会社,神奈川県,伊勢原市,桜台４丁目１６番３６号田中ハイツＢ１０２号室,,14,214,2591132,,,,,,,2022-01-19,1,,,,,ヨシミツフドウサン,0
1686,5030001146355,新規,0,2022-01-19,2022-01-19,株式会社ＭＬ興業,,株式会社,埼玉県,川口市,西川口１丁目３０番２０－２１３号,,11,203,3320021,,,,,,,2022-01-19,1,,,,,エムエルコウギョウ,0
1687,5030001146388,新規,0,2022-01-19,2022-01-19,株式会社絆,,株式会社,埼玉県,越谷市,赤山町３丁目２８０番地１１,,11,222,3430807,,,,,,,2022-01-19,1,,,,,キズナ,0
1688,5030001146405,新規,0,2022-01-19,2022-01-19,東陽商事株式会社,,株式会社,埼玉県,戸田市,本町３丁目６番１６号,,11,224,3350023,,,,,,,2022-01-19,1,,,,,トウヨウショウジ,0
1695,5030003018692,新規,0,2022-01-19,2022-01-19,こづち合同会社,,合同会社,埼玉県,和光市,丸山台２丁目８－２９志幸５８ジャスミン１０１号室,,11,229,3510112,,,,,,,2022-01-19,1,,,,,コヅチ,0
1696,5030005020696,新規,0,2022-01-19,2022-01-19,弁護士法人畑法律事務所,,その他の設立登記法人,埼玉県,さいたま市浦和区,仲町１丁目１１番１３号,,11,107,3300062,,,,,,,2022-01-19,1,,,,,ハタホウリツジムショ,0
1701,5040001121729,新規,0,2022-01-19,2022-01-19,株式会社ミゾグチ,,株式会社,千葉県,銚子市,新生町２丁目２番地の２１向後ビル西側,,12,202,2880056,,,,,,,2022-01-19,1,,,,,ミゾグチ,0
1702,5040001121745,新規,0,2022-01-19,2022-01-19,株式会社イフ,,株式会社,千葉県,市川市,富浜２丁目１１番７号,,12,203,2720115,,,,,,,2022-01-19,1,,,,,イフ,0
1703,5040001121811,新規,0,2022-01-19,2022-01-19,理財実践塾株式会社,,株式会社,千葉県,千葉市花見川区,朝日ケ丘２丁目２番２７棟４０２号,,12,102,2620019,,,,,,,2022-01-19,1,,,,,リザイジッセンジュク,0
1709,5040003019302,新規,0,2022-01-19,2022-01-19,グースパーク合同会社,,合同会社,千葉県,柏市,大島田６２０番地１エスポワールＢ－２０２号,,12,217,2770922,,,,,,,2022-01-19,1,,,,,グースパーク,0
1710,5040005021495,新規,0,2022-01-19,2022-01-19,一般社団法人日本植育食楽協会,,その他の設立登記法人,千葉県,我孫子市,若松１５７番地の８,,12,222,2701147,,,,,,,2022-01-19,1,,,,,ニホンショクイクショクガクキョウカイ,0
1724,5050001050489,新規,0,2022-01-19,2022-01-19,株式会社佐藤事務所,,株式会社,茨城県,つくば市,学園南３丁目２５番地５,,08,220,3050818,,,,,,,2022-01-19,1,,,,,サトウジムショ,0
1740,5070001038846,新規,0,2022-01-19,2022-01-19,株式会社ＴＭＨ,,株式会社,群馬県,太田市,東本町３０番１号,,10,205,3730026,,,,,,,2022-01-19,1,,,,,ティーエムエイチ,0
1741,5070001038862,新規,0,2022-01-19,2022-01-19,株式会社ａｄｊｕｓｔ,,株式会社,群馬県,前橋市,高花台１丁目２３－９,,10,201,3710123,,,,,,,2022-01-19,1,,,,,アジャスト,0
1743,5070003004359,新規,0,2022-01-19,2022-01-19,Ｙａｍａｇｕｃｈｉ　Ｍｏｔｏｒｓ合同会社,,合同会社,群馬県,太田市,藪塚町１５８３番地１２,,10,205,3792301,,,,,,,2022-01-19,1,,,,,ヤマグチモーターズ,0
1745,5080001024696,新規,0,2022-01-19,2022-01-19,株式会社スロックプラス,,株式会社,静岡県,静岡市駿河区,高松２５７５番地の１,,22,102,4228034,,,,,,,2022-01-19,1,,,,,スロックプラス,0
1762,5080105006211,新規,0,2022-01-19,2022-01-19,一般社団法人マルベリー,,その他の設立登記法人,静岡県,田方郡函南町,桑原９６５番地の２１,,22,325,4190101,,,,,,,2022-01-19,1,,,,,マルベリー,0
1773,5090003002030,新規,0,2022-01-19,2022-01-19,合同会社モマ,,合同会社,山梨県,甲斐市,玉川５０番地５,,19,210,4000116,,,,,,,2022-01-19,1,,,,,モマ,0
1782,5110001036382,新規,0,2022-01-19,2022-01-19,株式会社大公組,,株式会社,新潟県,新潟市北区,美里１丁目４番地３,,15,101,9503342,,,,,,,2022-01-19,1,,,,,ダイコウグミ,0
1783,5110003004684,新規,0,2022-01-19,2022-01-19,合同会社さんいち,,合同会社,新潟県,見附市,三林町甲２２１番地,,15,211,9540101,,,,,,,2022-01-19,1,,,,,サンイチ,0
1792,5120003020895,新規,0,2022-01-19,2022-01-19,合同会社ＢＨＴ,,合同会社,大阪府,大阪市福島区,吉野４丁目２７－２３グランドハイツ野田６０２,,27,103,5530006,,,,,,,2022-01-19,1,,,,,ビイエイチティイ,0
1793,5120005022725,新規,0,2022-01-19,2022-01-19,医療法人悠美会,,その他の設立登記法人,大阪府,大阪市福島区,鷺洲５丁目９番８号,,27,103,5530002,,,,,,,2022-01-19,1,,,,,ユウビカイ,0
1798,5120901045457,新規,0,2022-01-19,2022-01-19,株式会社ペイ・イット・フォワード,,株式会社,大阪府,吹田市,千里山松が丘２番１１２０号,,27,205,5650843,,,,,,,2022-01-19,1,,,,,ペイイットフォワード,0
1799,5120901045481,新規,0,2022-01-19,2022-01-19,株式会社石田花店,,株式会社,大阪府,高槻市,城北町１丁目２番１０号,,27,207,5690071,,,,,,,2022-01-19,1,,,,,イシダハナテン,0
1804,5122003002254,新規,0,2022-01-19,2022-01-19,Ｓｔｕｄｉｏ　Ｌｙｃａｎ合同会社,,合同会社,大阪府,柏原市,国分本町７丁目１０番１８号,,27,221,5820021,,,,,,,2022-01-19,1,,,,,スタジオライカン,0
1819,5140001124614,新規,0,2022-01-19,2022-01-19,千伊アセット株式会社,,株式会社,兵庫県,伊丹市,千僧２丁目１３０番地,,28,207,6640898,,,,,,,2022-01-19,1,,,,,センイタミアセット,0
1820,5140001124622,新規,0,2022-01-19,2022-01-19,株式会社ビオラ,,株式会社,兵庫県,川西市,けやき坂４丁目１番地の６,,28,217,6660145,,,,,,,2022-01-19,1,,,,,ビオラ,0
1833,5150003002593,新規,0,2022-01-19,2022-01-19,ｗｅａｒ　ｐａｓｓｅｔｅｍｐｓ合同会社,,合同会社,奈良県,橿原市,見瀬町４番地の４グリーンコーポ橿原３０７号,,29,205,6340064,,,,,,,2022-01-19,1,,,,,ウェアパスタン,0
1834,5150003002602,新規,0,2022-01-19,2022-01-19,合同会社昌勝,,合同会社,奈良県,大和郡山市,小泉町２９９９番地４５,,29,203,6391042,,,,,,,2022-01-19,1,,,,,マサショウ,0
1855,5180001149624,新規,0,2022-01-19,2022-01-19,名城建設株式会社,,株式会社,愛知県,名古屋市中区,金山１丁目１１番１０号,,23,106,4600022,,,,,,,2022-01-19,1,,,,,メイジョウケンセツ,0
1856,5180001149632,新規,0,2022-01-19,2022-01-19,Ｗｉｒｅｌｅｓｓ　Ｐｏｗｅｒ　Ｔｒａｎｓｆｅｒ株式会社,,株式会社,愛知県,名古屋市中区,栄５丁目２７番３号,,23,106,4600008,,,,,,,2022-01-19,1,,,,,ワイヤレスパワートランスファー,0
1883,5190003003877,新規,0,2022-01-19,2022-01-19,合同会社ＴＥＳＯＲＯ,,合同会社,三重県,四日市市,富田栄町６７‐１ローレルコートライオンズ四日市富田１４０１,,24,202,5108025,,,,,,,2022-01-19,1,,,,,テゾーロ,0
1887,5200001039673,新規,0,2022-01-19,2022-01-19,株式会社濃尾コンサル,,株式会社,岐阜県,羽島市,竹鼻町錦町１０番地うらら２０２号,,21,209,5016242,,,,,,,2022-01-19,1,,,,,ノウビコンサル,0
1894,5210001018767,新規,0,2022-01-19,2022-01-19,株式会社エースカンパニー,,株式会社,福井県,福井市,浅水町第１２６号７番地３,,18,201,9188181,,,,,,,2022-01-19,1,,,,,エースカンパニー,0
1895,5210001018775,新規,0,2022-01-19,2022-01-19,株式会社良造,,株式会社,福井県,福井市,開発５丁目５０１番地,,18,201,9100842,,,,,,,2022-01-19,1,,,,,リョウゾウ,0
1896,5210003001449,新規,0,2022-01-19,2022-01-19,合同会社Ｎ’ｓコーポレーション,,合同会社,福井県,吉田郡永平寺町,栗住波第１号２１番地,,18,322,9101314,,,,,,,2022-01-19,1,,,,,エヌズコーポレーション,0
1902,5240001059222,新規,0,2022-01-19,2022-01-19,株式会社源ハウス,,株式会社,広島県,広島市安佐南区,川内４丁目１３番４８号,,34,105,7310102,,,,,,,2022-01-19,1,,,,,ミナモトハウス,0
1906,5270001008440,新規,0,2022-01-19,2022-01-19,株式会社Ｇｒｅｅｎ　Ｆａｒｍ　Ｖｉｌｌａｇｅ,,株式会社,鳥取県,西伯郡大山町,八重１７２番地,,31,386,6893104,,,,,,,2022-01-19,1,,,,,グリーンファームビレッジ,0
1913,5290001096095,新規,0,2022-01-19,2022-01-19,株式会社デシジョンワークス,,株式会社,福岡県,小郡市,二森４９７番地１,,40,216,8380126,,,,,,,2022-01-19,1,,,,,デシジョンワークス,0
1914,5290001096145,新規,0,2022-01-19,2022-01-19,株式会社優路,,株式会社,福岡県,太宰府市,大佐野３丁目８番４１号,,40,221,8180134,,,,,,,2022-01-19,1,,,,,ユウロ,0
1921,5290005018533,新規,0,2022-01-19,2022-01-19,あさくら行政書士法人,,その他の設立登記法人,福岡県,朝倉市,馬田１１１８番地１,,40,228,8380058,,,,,,,2022-01-19,1,,,,,アサクラ,0
1923,5290801028181,新規,0,2022-01-19,2022-01-19,株式会社ＳＨＩＢＡＴＡ,,株式会社,福岡県,中間市,桜台２丁目８番３号,,40,215,8090017,,,,,,,2022-01-19,1,,,,,シバタ,0
1932,5320003003698,新規,0,2022-01-19,2022-01-19,合同会社ＥＣ　Ｌｉｆｅ　Ｓｕｐｐｏｒｔ,,合同会社,大分県,大分市,王子南町５番２７号ユナイテッドクリエーションビル３０４,,44,201,8700007,,,,,,,2022-01-19,1,,,,,イーシーライフサポート,0
1941,5370005010432,新規,0,2022-01-19,2022-01-19,特定非営利活動法人ふるれっと,,その他の設立登記法人,宮城県,仙台市青葉区,新川字佐手山５番地の６０７,,04,101,9893434,,,,,,,2022-01-19,1,,,,,フルレット,0
1964,5430001085819,新規,0,2022-01-19,2022-01-19,株式会社アール・ダブル,,株式会社,北海道,札幌市白石区,北郷三条９丁目１番２６号,,01,104,0030833,,,,,,,2022-01-19,1,,,,,アールダブル,0
1965,5430001085827,新規,0,2022-01-19,2022-01-19,株式会社ニードハンズ,,株式会社,北海道,札幌市北区,屯田四条６丁目６番３３号,,01,102,0020854,,,,,,,2022-01-19,1,,,,,ニードハンズ,0
1967,5430003013546,新規,0,2022-01-19,2022-01-19,合同会社青木興業,,合同会社,北海道,札幌市東区,中沼西五条１丁目６番２２－４号ドミール４号,,01,103,0070895,,,,,,,2022-01-19,1,,,,,アオキコウギョウ,0
1970,5460101007125,新規,0,2022-01-19,2022-01-19,株式会社ＳＡＫＵＮＡ,,株式会社,北海道,帯広市,東十条南１２丁目１番地２９,,01,207,0800810,,,,,,,2022-01-19,1,,,,,サクナ,0
1984,5700150106703,新規,0,2022-01-19,2022-01-19,ＬＡＵＮＣＨＯ　ＶＥＮＴＵＲＥＳ　ＰＴＥ．ＬＴＤ．日本駐在員事務所,,外国会社等,東京都,渋谷区,代官山町８－７Ｄａｉｗａ代官山ビル２１５,,13,113,1500034,１６０　Ｒｏｂｉｎｓｏｎ　Ｒｏａｄ　＃１４－０４　Ｓｉｎｇａｐｏｒｅ（０６８９１４）,,,,,,2022-01-19,1,,,,,ローンチヨベンチヤーズプライベートリミテツドニホンチユウザイインジムシヨ,0
1992,6010001223948,新規,0,2022-01-19,2022-01-19,株式会社Ｙ’ｓホールディングス,,株式会社,東京都,千代田区,内神田２丁目５番５号,,13,101,1010047,,,,,,,2022-01-19,1,,,,,ワイズホールディングス,0
1993,6010001223972,新規,0,2022-01-19,2022-01-19,ＧＣホールディングス株式会社,,株式会社,東京都,千代田区,丸の内１丁目６番１号,,13,101,1000005,,,,,,,2022-01-19,1,,,,,ジーシーホールディングス,0
1999,6010003036778,新規,0,2022-01-19,2022-01-19,合同会社ＳＰＣ３,,合同会社,東京都,千代田区,平河町１丁目６番１５号シルスフィア会計事務所内,,13,101,1020093,,,,,,,2022-01-19,1,,,,,エスピーシースリー,0
2004,6010005034474,新規,0,2022-01-19,2022-01-19,一般社団法人日本花と緑の推進協会,,その他の設立登記法人,東京都,中央区,築地３丁目１１番６号,,13,102,1040045,,,,,,,2022-01-19,1,,,,,ニホンハナトミドリノスイシンキョウカイ,0
2005,6010101015031,新規,0,2022-01-19,2022-01-19,ｏｎｅ‐Ｒｅｃｏｒｄ株式会社,,株式会社,東京都,八王子市,北野町５１７－２,,13,201,1920906,,,,,,,2022-01-19,1,,,,,,0
2018,6010401165014,新規,0,2022-01-19,2022-01-19,株式会社グリーンコール技術研究所,,株式会社,東京都,港区,新橋５丁目３５番６号,,13,103,1050004,,,,,,,2022-01-19,1,,,,,,0
2019,6010503006479,新規,0,2022-01-19,2022-01-19,リンチョ合同会社,,合同会社,東京都,台東区,浅草橋３丁目３３番３号,,13,106,1110053,,,,,,,2022-01-19,1,,,,,リンチョ,0
2021,6010601060535,新規,0,2022-01-19,2022-01-19,Ｔｒｅｅ　Ｌｉｆｅ　Ｉｎｔｅｒｎａｔｉｏｎａｌ株式会社,,株式会社,東京都,墨田区,千歳２丁目１３番４号跳豊ビル３階,,13,107,1300025,,,,,,,2022-01-19,1,,,,,ツリーライフインターナショナル,0
2022,6010605004034,新規,0,2022-01-19,2022-01-19,一般社団法人ソーシャルサポートえん,,その他の設立登記法人,東京都,江東区,牡丹３丁目１０番６号,,13,108,1350046,,,,,,,2022-01-19,1,,,,,ソーシャルサポートエン,0
2023,6010701042086,新規,0,2022-01-19,2022-01-19,株式会社フェアリポア,,株式会社,東京都,品川区,東五反田４丁目１０番２２号３１０号室,,13,109,1410022,,,,,,,2022-01-19,1,,,,,フェアリポア,0
2025,6010801032664,新規,0,2022-01-19,2022-01-19,株式会社Ｍｅａｎ　Ｆｉｌｍｓ,,株式会社,東京都,大田区,南千束２丁目１０番１４－４０１号,,13,111,1450063,,,,,,,2022-01-19,1,,,,,ミーンフィルムズ,0
2027,6010803004034,新規,0,2022-01-19,2022-01-19,Ｆｏｒ　ｔｈｅ　ｐａｔｉｅｎｔ合同会社,,合同会社,東京都,大田区,南馬込６丁目２３番１号,,13,111,1430025,,,,,,,2022-01-19,1,,,,,フォーザペイシエント,0
2035,6011001145034,新規,0,2022-01-19,2022-01-19,株式会社ステラーフォース,,株式会社,東京都,渋谷区,千駄ヶ谷５丁目２３番１３号,,13,113,1510051,,,,,,,2022-01-19,1,,,,,ステラーフォース,0
2036,6011001145109,新規,0,2022-01-19,2022-01-19,ブラックバッジグループ株式会社,,株式会社,東京都,渋谷区,東１丁目２番２０号１４１１号室,,13,113,1500011,,,,,,,2022-01-19,1,,,,,ブラックバッジグループ,0
2037,6011001145117,新規,0,2022-01-19,2022-01-19,株式会社ＥａｒｔｈＢｒｉｄｇｅ,,株式会社,東京都,目黒区,下目黒１丁目８番１号アルコタワー７階,,13,110,1530064,,,,,,,2022-01-19,1,,,,,アースブリッジ,0
2038,6011001145125,新規,0,2022-01-19,2022-01-19,ｍｏｖ株式会社,,株式会社,東京都,渋谷区,富ヶ谷１丁目３５番２０号富ヶ谷スプリングス４０５,,13,113,1510063,,,,,,,2022-01-19,1,,,,,ムーブ,0
2039,6011001145133,新規,0,2022-01-19,2022-01-19,ネクティ株式会社,,株式会社,東京都,渋谷区,神宮前６丁目２３番４号桑野ビル２階,,13,113,1500001,,,,,,,2022-01-19,1,,,,,ネクティ,0
2040,6011001145224,新規,0,2022-01-19,2022-01-19,株式会社ＨＯＮＯ,,株式会社,東京都,渋谷区,広尾４丁目２番２０－３０８号,,13,113,1500012,,,,,,,2022-01-19,1,,,,,ホノ,0
2041,6011003014022,新規,0,2022-01-19,2022-01-19,Ｓａｖｏｉａ　Ｃａｐｉｔａｌ合同会社,,合同会社,東京都,目黒区,青葉台１丁目１０番１１－２３１号,,13,110,1530042,,,,,,,2022-01-19,1,,,,,サヴォイアキャピタル,0
2044,6011101097530,新規,0,2022-01-19,2022-01-19,株式会社ＳａｎＡ,,株式会社,東京都,新宿区,新宿２丁目１５番２６号第三玉屋ビル６Ｆ,,13,104,1600022,,,,,,,2022-01-19,1,,,,,サンエー,0
2046,6011103011373,新規,0,2022-01-19,2022-01-19,合同会社ＦＡＲＭ,,合同会社,東京都,新宿区,新宿６丁目３番８号ＰＡＳＥＯ新宿３丁目ＩＩ３０２,00125440,13,104,1600022,,,,,,,2022-01-19,1,,,,,ファーム,0
2047,6011201023568,新規,0,2022-01-19,2022-01-19,株式会社Ｋ．Ｔ＆Ｃｏ．,,株式会社,東京都,中野区,江古田３丁目１４番１３－１４１３号,,13,114,1650022,,,,,,,2022-01-19,1,,,,,ケーティーアンドコー,0
2048,6011303004284,新規,0,2022-01-19,2022-01-19,合同会社井上徳会計事務所,,合同会社,東京都,杉並区,上荻１丁目２４番２２－３０２号,,13,115,1670043,,,,,,,2022-01-19,1,,,,,イノウエアキラカイケイジムショ,0
2054,6011601025676,新規,0,2022-01-19,2022-01-19,天徳株式会社,,株式会社,東京都,練馬区,関町北５丁目６番７号関町マンション３０２Ｅ,,13,120,1770051,,,,,,,2022-01-19,1,,,,,テントク,0
2061,6012305001988,新規,0,2022-01-19,2022-01-19,一般社団法人ＯＭＵＳＵＢｉ,,その他の設立登記法人,東京都,町田市,玉川学園７丁目１３番１９号,,13,209,1940041,,,,,,,2022-01-19,1,,,,,オムスビ,0
2063,6012801021341,新規,0,2022-01-19,2022-01-19,ＦＤＤ株式会社,,株式会社,東京都,立川市,錦町３丁目１番１６号中野ＬＫビル２０２,,13,202,1900022,,,,,,,2022-01-19,1,,,,,エフディーディー,0
2068,6020001144771,新規,0,2022-01-19,2022-01-19,株式会社Ｒ－ｗｉｚ,,株式会社,神奈川県,川崎市中原区,木月１丁目３２番２４号藤原ビル４０１,,14,133,2110025,,,,,,,2022-01-19,1,,,,,アールウィズ,0
2069,6020001144805,新規,0,2022-01-19,2022-01-19,株式会社もぐもぐランド,,株式会社,神奈川県,横浜市中区,相生町５丁目９７番地,,14,104,2310012,,,,,,,2022-01-19,1,,,,,モグモグランド,0
2070,6020001144854,新規,0,2022-01-19,2022-01-19,株式会社ＧＬＷ,,株式会社,神奈川県,横浜市港北区,新横浜１丁目１９番２号,,14,109,2220033,,,,,,,2022-01-19,1,,,,,ジーエルダブュー,0
2071,6020001144862,新規,0,2022-01-19,2022-01-19,株式会社Ｈ．Ｋ．Ｉ,,株式会社,神奈川県,川崎市宮前区,神木本町２丁目２１番１号,,14,136,2160031,,,,,,,2022-01-19,1,,,,,エイチケイアイ,0
2073,6020005015358,新規,0,2022-01-19,2022-01-19,一般社団法人スマイルフットボール,,その他の設立登記法人,神奈川県,横浜市都筑区,荏田東２丁目１９番２－４０８号,,14,118,2240006,,,,,,,2022-01-19,1,,,,,スマイルフットボール,0
2075,6021003011290,新規,0,2022-01-19,2022-01-19,合同会社テン,,合同会社,神奈川県,藤沢市,片瀬海岸２丁目１３番１７～５０３クリオ片瀬江ノ島,,14,205,2510035,,,,,,,2022-01-19,1,,,,,テン,0
2076,6021003011308,新規,0,2022-01-19,2022-01-19,合同会社アルファプラス,,合同会社,神奈川県,横須賀市,野比３丁目３３番２－２０６号,,14,201,2390841,,,,,,,2022-01-19,1,,,,,アルファプラス,0
2086,6030001146379,新規,0,2022-01-19,2022-01-19,マル株式会社,,株式会社,埼玉県,鴻巣市,鎌塚２丁目１２番２９号,,11,217,3690112,,,,,,,2022-01-19,1,,,,,マル,0
2087,6030001146387,新規,0,2022-01-19,2022-01-19,株式会社ベアハンズ,,株式会社,埼玉県,川口市,北原台３丁目１６番４５号早舩第一倉庫,,11,203,3330815,,,,,,,2022-01-19,1,,,,,ベアハンズ,0
2092,6030003018675,新規,0,2022-01-19,2022-01-19,ＤＶＡＳ合同会社,,合同会社,埼玉県,深谷市,東方町４丁目１５番地２０,,11,218,3660042,,,,,,,2022-01-19,1,,,,,ディーバス,0
2093,6030003018691,新規,0,2022-01-19,2022-01-19,しま合同会社,,合同会社,埼玉県,川口市,赤井１丁目１１－６メゾン矢野１０８,,11,203,3340073,,,,,,,2022-01-19,1,,,,,シマ,0
2097,6040001121843,新規,0,2022-01-19,2022-01-19,株式会社スマイルカンパニー,,株式会社,千葉県,市原市,五井２４４２番地１,,12,219,2900056,,,,,,,2022-01-19,1,,,,,スマイルカンパニー,0
2100,6040003019301,新規,0,2022-01-19,2022-01-19,合同会社あろまなび,,合同会社,千葉県,千葉市中央区,問屋町５番２１,,12,101,2600025,,,,,,,2022-01-19,1,,,,,アロマナビ,0
2138,6080003002724,新規,0,2022-01-19,2022-01-19,合同会社エルズ,,合同会社,静岡県,静岡市清水区,三保松原町４番地の５,,22,103,4240908,,,,,,,2022-01-19,1,,,,,エルズ,0
2139,6080005007424,新規,0,2022-01-19,2022-01-19,社会保険労務士法人横田事務所,,その他の設立登記法人,静岡県,榛原郡吉田町,川尻２６３－１,,22,424,4210302,,,,,,,2022-01-19,1,,,,,ヨコタジムショ,0
2143,6080101023044,新規,0,2022-01-19,2022-01-19,ｋｉｂｉ株式会社,,株式会社,静岡県,裾野市,岩波２４９番地の１,,22,220,4101101,,,,,,,2022-01-19,1,,,,,キビ,0
2144,6080101023052,新規,0,2022-01-19,2022-01-19,株式会社エムアイファーム,,株式会社,静岡県,三島市,壱町田６番地の１,,22,206,4110025,,,,,,,2022-01-19,1,,,,,エムアイファーム,0
2148,6080103002500,新規,0,2022-01-19,2022-01-19,合同会社ＫＢＹ,,合同会社,静岡県,沼津市,大手町４丁目３番１３号,,22,203,4100801,,,,,,,2022-01-19,1,,,,,ケービーワイ,0
2161,6080403004452,新規,0,2022-01-19,2022-01-19,合同会社ｈａｐｐｉｎｅｓｓ,,合同会社,静岡県,掛川市,平野２５９番地の４ビィラ・ヴェルジュＩ１０３,00125442,22,213,4360032,,,,,,,2022-01-19,1,,,,,ハピネス,0
2164,6100001034989,新規,0,2022-01-19,2022-01-19,株式会社Ｃｏｎｔａｃｔ,,株式会社,長野県,北佐久郡軽井沢町,大字長倉２８０９－１,,20,321,3890111,,,,,,,2022-01-19,1,,,,,コンタクト,0
2179,6120001243299,新規,0,2022-01-19,2022-01-19,株式会社ＤＥＩＬＦ,,株式会社,大阪府,大阪市中央区,東心斎橋１丁目２番１－１５０６号,,27,128,5420083,,,,,,,2022-01-19,1,,,,,デルフ,0
2185,6120003020952,新規,0,2022-01-19,2022-01-19,合同会社スリーエイト８８８,,合同会社,大阪府,大阪市東成区,玉津２丁目１１番１２号,,27,115,5370023,,,,,,,2022-01-19,1,,,,,スリーエイトハハハ,0
2186,6120003020977,新規,0,2022-01-19,2022-01-19,Ｆａｍｉｌｙ合同会社,,合同会社,大阪府,大阪市城東区,今福西２丁目３番４号,,27,118,5360004,,,,,,,2022-01-19,1,,,,,ファミリー,0
2187,6120003020985,新規,0,2022-01-19,2022-01-19,合同会社Ｓｅｒｉｎａ　Ｗｅｓｔ,,合同会社,大阪府,大阪市淀川区,野中南１丁目９番５号,,27,123,5320022,,,,,,,2022-01-19,1,,,,,セリナウエスト,0
2197,6120901045480,新規,0,2022-01-19,2022-01-19,株式会社真輝ライン,,株式会社,大阪府,茨木市,若園町５番１５号,,27,211,5670894,,,,,,,2022-01-19,1,,,,,シンキライン,0
2199,6120903003998,新規,0,2022-01-19,2022-01-19,合同会社エヌエステート,,合同会社,大阪府,吹田市,竹谷町２７番４号,,27,205,5650835,,,,,,,2022-01-19,1,,,,,エヌエステート,0
2213,6130005016361,新規,0,2022-01-19,2022-01-19,一般社団法人日本こども新聞協会,,その他の設立登記法人,京都府,亀岡市,内丸町２６番地２３エミネンス内丸４０１号,,26,206,6210864,,,,,,,2022-01-19,1,,,,,ニホンコドモシンブンキョウカイ,0
2215,6140001124605,新規,0,2022-01-19,2022-01-19,株式会社三嶋,,株式会社,兵庫県,尼崎市,長洲西通２丁目８－３０,,28,202,6600807,,,,,,,2022-01-19,1,,,,,ミシマ,0
2216,6140001124613,新規,0,2022-01-19,2022-01-19,株式会社沖神カーゴ,,株式会社,兵庫県,神戸市東灘区,深江浜町１－１東部市場内管理棟１Ｆ,,28,101,6580023,,,,,,,2022-01-19,1,,,,,オキシンカーゴ,0
2217,6140001124621,新規,0,2022-01-19,2022-01-19,株式会社みずたま不動産,,株式会社,兵庫県,宝塚市,仁川北３丁目７番１４号ペガサスビル４０２号室,,28,214,6650061,,,,,,,2022-01-19,1,,,,,ミズタマフドウサン,0
2240,6180001149631,新規,0,2022-01-19,2022-01-19,株式会社西知多健康増進パートナーズ,,株式会社,愛知県,知多市,八幡字小根１４番地の２９,,23,224,4780001,,,,,,,2022-01-19,1,,,,,ニシチタケンコウゾウシンパートナーズ,0
2259,6180301035853,新規,0,2022-01-19,2022-01-19,林屋株式会社,,株式会社,愛知県,岡崎市,中伊西町字仮起道８－１,,23,202,4443449,,,,,,,2022-01-19,1,,,,,ハヤシヤ,0
2262,6190001029048,新規,0,2022-01-19,2022-01-19,株式会社未来ホーム,,株式会社,三重県,桑名市,長島町源部外面１８番地,,24,205,5111125,,,,,,,2022-01-19,1,,,,,ミライホーム,0
2263,6190003003876,新規,0,2022-01-19,2022-01-19,合同会社ＢＬＡＷ　ＣＯＭＰＡＮＹ,,合同会社,三重県,四日市市,海山道町１丁目３９番地,,24,202,5100845,,,,,,,2022-01-19,1,,,,,ブラウカンパニー,0
2275,6210001018774,新規,0,2022-01-19,2022-01-19,ミナミフードサービス株式会社,,株式会社,福井県,福井市,二の宮１丁目１番１０８号,,18,201,9100015,,,,,,,2022-01-19,1,,,,,ミナミフードサービス,0
2276,6210001018782,新規,0,2022-01-19,2022-01-19,シェ南ＲＩＣＨ株式会社,,株式会社,福井県,福井市,若杉浜３丁目６１３番地２,,18,201,9188056,,,,,,,2022-01-19,1,,,,,シェナンリッチ,0
2279,6220001024656,新規,0,2022-01-19,2022-01-19,株式会社カガプロ,,株式会社,石川県,加賀市,大聖寺上福田町ハ１０番地,,17,206,9220004,,,,,,,2022-01-19,1,,,,,カガプロ,0
2282,6220005008630,新規,0,2022-01-19,2022-01-19,一般社団法人心味成,,その他の設立登記法人,石川県,加賀市,山中温泉こおろぎ町イ５７番地９,,17,206,9220128,,,,,,,2022-01-19,1,,,,,シンミナル,0
2284,6240001059221,新規,0,2022-01-19,2022-01-19,株式会社上安曇,,株式会社,広島県,広島市安佐南区,山本４丁目２５番４１－３－２０１号,,34,105,7310137,,,,,,,2022-01-19,1,,,,,カミアズマ,0
2293,6290001096020,新規,0,2022-01-19,2022-01-19,ヴィルデザイン株式会社,,株式会社,福岡県,福岡市博多区,博多駅東２丁目５番２８号（博多偕成ビル２階）,,40,132,8120013,,,,,,,2022-01-19,1,,,,,ヴィルデザイン,0
2294,6290001096144,新規,0,2022-01-19,2022-01-19,株式会社Ｉｎ　ｔｈｉｓ　ｔｏｗｎ,,株式会社,福岡県,福岡市南区,長丘５丁目３番２号,,40,134,8150075,,,,,,,2022-01-19,1,,,,,インディスタウン,0
2300,6290801028180,新規,0,2022-01-19,2022-01-19,株式会社ＣＤＳ,,株式会社,福岡県,北九州市小倉南区,富士見１丁目３番１０号,,40,107,8020801,,,,,,,2022-01-19,1,,,,,シーディーエス,0
2303,6300001012776,新規,0,2022-01-19,2022-01-19,株式会社ＥＣＸＩＡ,,株式会社,佐賀県,佐賀市,大和町大字久池井４０４８番地,,41,201,8400202,,,,,,,2022-01-19,1,,,,,エクシア,0
2316,6320003003697,新規,0,2022-01-19,2022-01-19,かがみクリーニング合同会社,,合同会社,大分県,大分市,王子南町５番２７号ユナイテッドクリエーションビル３０５,,44,201,8700007,,,,,,,2022-01-19,1,,,,,カガミクリーニング,0
2322,6340001024438,新規,0,2022-01-19,2022-01-19,株式会社いなつきコーポレーション,,株式会社,鹿児島県,志布志市,有明町野井倉３８９４番地８,,46,221,8997402,,,,,,,2022-01-19,1,,,,,イナツキコーポレーション,0
2327,6350003004008,新規,0,2022-01-19,2022-01-19,合同会社ＭＯＲＥＧＲＯＵＰ,,合同会社,宮崎県,小林市,細野２１９８,,45,205,8860004,,,,,,,2022-01-19,1,,,,,モアグループ,0
2330,6360003011738,新規,0,2022-01-19,2022-01-19,合同会社沖縄ポケットシーシャ,,合同会社,沖縄県,糸満市,字賀数５－１０２,,47,210,9010313,,,,,,,2022-01-19,1,,,,,,0
2340,6400001015744,新規,0,2022-01-19,2022-01-19,株式会社日本都市商業開発,,株式会社,岩手県,盛岡市,名須川町１１番２６号,,03,201,0200016,,,,,,,2022-01-19,1,,,,,ニホントシショウギョウカイハツ,0
2351,6410003003606,新規,0,2022-01-19,2022-01-19,合同会社橘農産,,合同会社,秋田県,仙北郡美郷町,六郷東根字北明田地１１２番地,,05,434,0191403,,,,,,,2022-01-19,1,,,,,タチバナノウサン,0
2355,6430003013545,新規,0,2022-01-19,2022-01-19,合同会社ナナマル自動車,,合同会社,北海道,札幌市東区,中沼町１２７番地,,01,103,0070890,,,,,,,2022-01-19,1,,,,,ナナマルジドウシャ,0
2363,6700150106702,新規,0,2022-01-19,2022-01-19,ＢＧＭＣ　ＰＴＥ．ＬＴＤ．,,外国会社等,神奈川県,横須賀市,秋谷５３４７ヒルブックハウス秋谷ビーチ１０４,,14,201,2400105,１２　ＥＵ　ＴＯＮＧ　ＳＥＮ　ＳＴＲＥＥＴ，＃０７－１７２　Ｔｈｅ　Ｃｅｎｔｒａｌ，Ｓｉｎｇａｐｏｒｅ,,,,,,2022-01-19,1,,,,,ビージーエムシーピーテイーイーエルテイーデイー,0
2364,6700150106710,新規,0,2022-01-19,2022-01-19,香港威楽国際貿易有限公司,,外国会社等,東京都,中央区,日本橋兜町１６番４号島田ビル５階,,13,102,1030026,中華人民共和国香港特別行政区中環皇後大道中５号亨利大厦１２楼,,,,,,2022-01-19,1,,,,,ホンコンイラクコクサイボウエキユウゲンコウシ,0
2365,6700150106719,新規,0,2022-01-19,2022-01-19,遼寧大族冠華印刷科技股斌有限公司,00125451,外国会社等,東京都,荒川区,西日暮里６丁目７－２,,13,118,1160013,中国遼寧自由貿易試験区營口市新聯大街１３６号,00125452,,,,,2022-01-19,1,,,,,リヨウネイダイゾクカンカインサツカギマタフンユウゲンコンス,0
2374,7010001223831,新規,0,2022-01-19,2022-01-19,シャイン株式会社,,株式会社,東京都,中央区,銀座６丁目１０番１号,,13,102,1040061,,,,,,,2022-01-19,1,,,,,シャイン,0
2375,7010001223872,新規,0,2022-01-19,2022-01-19,株式会社ＬＯＯＰ,,株式会社,東京都,小笠原村,父島字東町,,13,421,1002101,,,,,,,2022-01-19,1,,,,,ループ,0
2376,7010001223889,新規,0,2022-01-19,2022-01-19,ロシア水産株式会社,,株式会社,東京都,中央区,築地４丁目８番２号３階,,13,102,1040045,,,,,,,2022-01-19,1,,,,,ロシアスイサン,0
2377,7010001223914,新規,0,2022-01-19,2022-01-19,株式会社オタすク,,株式会社,東京都,千代田区,神田佐久間町１丁目１６番地大橋ビル５０３,,13,101,1010025,,,,,,,2022-01-19,1,,,,,オタスク,0
2378,7010001223955,新規,0,2022-01-19,2022-01-19,株式会社ＭｕＫｕ,,株式会社,東京都,中央区,銀座８丁目６番１８号,,13,102,1040061,,,,,,,2022-01-19,1,,,,,ムク,0
2383,7010003036777,新規,0,2022-01-19,2022-01-19,アストロ・シックス合同会社,,合同会社,東京都,中央区,銀座１丁目６番１１号土志田ビルディング３Ｆ,,13,102,1040061,,,,,,,2022-01-19,1,,,,,アストロシックス,0
2385,7010005034465,新規,0,2022-01-19,2022-01-19,一般社団法人ＡＴＪ４,,その他の設立登記法人,東京都,千代田区,丸の内３丁目１番１号東京共同会計事務所内,,13,101,1000005,,,,,,,2022-01-19,1,,,,,エーティージェイフォー,0
2386,7010101015030,新規,0,2022-01-19,2022-01-19,株式会社３０６６,,株式会社,東京都,八王子市,鑓水８番地６３,,13,201,1920375,,,,,,,2022-01-19,1,,,,,ミレリリ,0
2396,7010403026907,新規,0,2022-01-19,2022-01-19,合同会社Ｔ＆Ｍアソシエイツ,,合同会社,東京都,港区,浜松町２丁目２－１５浜松町ダイヤビル２階,,13,103,1050013,,,,,,,2022-01-19,1,,,,,ティーアンドエムアソシエイツ,0
2399,7010603009356,新規,0,2022-01-19,2022-01-19,合同会社ＥＴマネジメント,,合同会社,東京都,江東区,有明１丁目４－１１ブリリアマーレ有明１６３３,,13,108,1350063,,,,,,,2022-01-19,1,,,,,イーティーマネジメント,0
2400,7010701042085,新規,0,2022-01-19,2022-01-19,株式会社Ｉｖｙ,,株式会社,東京都,品川区,西五反田１丁目２６番２号五反田サンハイツ９１１,,13,109,1410031,,,,,,,2022-01-19,1,,,,,アイビー,0
2402,7010803004025,新規,0,2022-01-19,2022-01-19,ＨＲＫ合同会社,,合同会社,東京都,大田区,山王２丁目７－２３,,13,111,1430023,,,,,,,2022-01-19,1,,,,,エイチアールケイ,0
2403,7010803004033,新規,0,2022-01-19,2022-01-19,合同会社シロテラス,,合同会社,東京都,大田区,中馬込１丁目１０番１１号,,13,111,1430027,,,,,,,2022-01-19,1,,,,,シロテラス,0
2406,7010903007092,新規,0,2022-01-19,2022-01-19,ＰＩＫＥＲＧＡＲＤＥＮ合同会社,,合同会社,東京都,世田谷区,上用賀４丁目１０番１５号コートアトリオ上用賀２０３,,13,112,1580098,,,,,,,2022-01-19,1,,,,,ピケルガーデン,0
2411,7011001144984,新規,0,2022-01-19,2022-01-19,株式会社メディツリー,,株式会社,東京都,渋谷区,代々木２丁目２３番１号ニューステートメナー１１１５号室,,13,113,1510053,,,,,,,2022-01-19,1,,,,,メディツリー,0
2412,7011001145082,新規,0,2022-01-19,2022-01-19,株式会社デジタルフューチャー,,株式会社,東京都,渋谷区,渋谷２丁目１９番１５号宮益坂ビルディング６０９,,13,113,1500002,,,,,,,2022-01-19,1,,,,,デジタルフューチャー,0
2413,7011001145108,新規,0,2022-01-19,2022-01-19,ＩＬＫ株式会社,,株式会社,東京都,渋谷区,南平台町１３番４－２０１号,,13,113,1500036,,,,,,,2022-01-19,1,,,,,アイエルケー,0
2414,7011001145116,新規,0,2022-01-19,2022-01-19,株式会社ムーヴ,,株式会社,東京都,目黒区,上目黒１丁目１４番６－３０４号,,13,110,1530051,,,,,,,2022-01-19,1,,,,,ムーヴ,0
2415,7011001145132,新規,0,2022-01-19,2022-01-19,株式会社シーファインド,,株式会社,東京都,渋谷区,神宮前６丁目１９番１５号,,13,113,1500001,,,,,,,2022-01-19,1,,,,,シーファインド,0
2416,7011001145198,新規,0,2022-01-19,2022-01-19,株式会社グノリンク,,株式会社,東京都,渋谷区,渋谷１丁目７番６号,,13,113,1500002,,,,,,,2022-01-19,1,,,,,グノリンク,0
2420,7011003013997,新規,0,2022-01-19,2022-01-19,合同会社ブランドロン,,合同会社,東京都,渋谷区,恵比寿４丁目２０番３号恵比寿ガーデンプレイスタワー１８階,,13,113,1500013,,,,,,,2022-01-19,1,,,,,ブランドロン,0
2421,7011003014021,新規,0,2022-01-19,2022-01-19,合同会社魁設計,,合同会社,東京都,渋谷区,南平台町２番６号,,13,113,1500036,,,,,,,2022-01-19,1,,,,,カイセッケイ,0
2427,7011303004283,新規,0,2022-01-19,2022-01-19,合同会社Ｔａｂｂｙ　Ｐｌａｎｎｉｎｇ,,合同会社,東京都,杉並区,和泉２丁目２７－８,,13,115,1680063,,,,,,,2022-01-19,1,,,,,タビープランニング,0
2430,7011501027680,新規,0,2022-01-19,2022-01-19,株式会社Ｓａｔｉｓ,,株式会社,東京都,荒川区,西日暮里５丁目３４番２号,,13,118,1160013,,,,,,,2022-01-19,1,,,,,サティス,0
2433,7011503005040,新規,0,2022-01-19,2022-01-19,ＳＴＦ合同会社,,合同会社,東京都,荒川区,東尾久２丁目２番９号三祥ビル２１１,,13,118,1160012,,,,,,,2022-01-19,1,,,,,,0
2435,7011601025642,新規,0,2022-01-19,2022-01-19,ホワイトスペース株式会社,,株式会社,東京都,練馬区,桜台３丁目１８番７－６０２号,,13,120,1760002,,,,,,,2022-01-19,1,,,,,ホワイトスペース,0
2438,7011703003050,新規,0,2022-01-19,2022-01-19,合同会社玉屋,,合同会社,東京都,江戸川区,東小岩２丁目９番１９号レオパレスリバーポイント小岩Ｉ２０９,,13,123,1330052,,,,,,,2022-01-19,1,,,,,タマヤ,0
2444,7012301012848,新規,0,2022-01-19,2022-01-19,株式会社にからす,,株式会社,東京都,町田市,成瀬台２丁目２９番地１９町田テラスＢ号,,13,209,1940043,,,,,,,2022-01-19,1,,,,,ニカラス,0
2445,7012305001987,新規,0,2022-01-19,2022-01-19,司法書士法人さえき事務所,,その他の設立登記法人,東京都,町田市,鶴間８丁目１１番３０号,,13,209,1940004,,,,,,,2022-01-19,1,,,,,サエキジムショ,0
2447,7012401038768,新規,0,2022-01-19,2022-01-19,サニー・パーツ株式会社,,株式会社,東京都,武蔵野市,境４丁目４－６,,13,203,1800022,,,,,,,2022-01-19,1,,,,,サニーパーツ,0
2448,7012403005196,新規,0,2022-01-19,2022-01-19,合同会社３ｐｏ,,合同会社,東京都,府中市,住吉町５丁目１７番地の３６Ｋ・Ｓビル１－Ａ号室,,13,206,1830034,,,,,,,2022-01-19,1,,,,,サンポ,0
2449,7012703002389,新規,0,2022-01-19,2022-01-19,合同会社イグニス,,合同会社,東京都,清瀬市,元町２丁目２０番５号,,13,221,2040021,,,,,,,2022-01-19,1,,,,,,0
2450,7012801021340,新規,0,2022-01-19,2022-01-19,株式会社クボグラフィックス,,株式会社,東京都,国立市,西３丁目１番地の４６,,13,215,1860005,,,,,,,2022-01-19,1,,,,,クボグラフィックス,0
2455,7013301048568,新規,0,2022-01-19,2022-01-19,株式会社ライフイン２４ｃｏｎｃｉｅｒｇｅ,,株式会社,東京都,豊島区,東池袋４丁目１４番２号,,13,116,1700013,,,,,,,2022-01-19,1,,,,,ライフインニジュウヨンコンシェルジュ,0
2459,7020001144829,新規,0,2022-01-19,2022-01-19,ＳＧレンタルサービス株式会社,,株式会社,神奈川県,横浜市鶴見区,鶴見中央２丁目２番４－２０３号,,14,101,2300051,,,,,,,2022-01-19,1,,,,,エスジーレンタルサービス,0
2460,7020001144845,新規,0,2022-01-19,2022-01-19,ティー・コンサル株式会社,,株式会社,神奈川県,川崎市高津区,久本３丁目６番５－１１１１号,,14,134,2130011,,,,,,,2022-01-19,1,,,,,ティーコンサル,0
2461,7020001144861,新規,0,2022-01-19,2022-01-19,株式会社ターコイズ,,株式会社,神奈川県,横浜市青葉区,しらとり台１番地１２,,14,117,2270054,,,,,,,2022-01-19,1,,,,,ターコイズ,0
2469,7021001074933,新規,0,2022-01-19,2022-01-19,株式会社ＲＯＪＩＵＲＡ　ＫＩＴＣＨＥＮ,,株式会社,神奈川県,鎌倉市,御成町１３番２３号２０２,,14,204,2480012,,,,,,,2022-01-19,1,,,,,ロジウラキッチン,0
2471,7021003011315,新規,0,2022-01-19,2022-01-19,合同会社ＴＡＩＧＡ,,合同会社,神奈川県,藤沢市,本町１丁目４－２レジデンシア湘南４０１,,14,205,2510053,,,,,,,2022-01-19,1,,,,,タイガ,0
2478,7030001146361,新規,0,2022-01-19,2022-01-19,株式会社オークハンズ,,株式会社,埼玉県,さいたま市北区,大成町４丁目７２９番地５,,11,102,3310815,,,,,,,2022-01-19,1,,,,,オークハンズ,0
2479,7030001146386,新規,0,2022-01-19,2022-01-19,株式会社Ｆｉｅｌｄ　Ｓｅｒｖｉｃｅ,,株式会社,埼玉県,川口市,戸塚東１丁目１番８号けやきコーポ２０５号室,,11,203,3330802,,,,,,,2022-01-19,1,,,,,フィールドサービス,0
2480,7030001146411,新規,0,2022-01-19,2022-01-19,株式会社儀作技建,,株式会社,埼玉県,大里郡寄居町,大字牟礼９４１番地９,,11,408,3691215,,,,,,,2022-01-19,1,,,,,ギサクギケン,0
2488,7030003018682,新規,0,2022-01-19,2022-01-19,ＣＡＹ　Ｇｌｉｔｔｅｒ合同会社,,合同会社,埼玉県,春日部市,中央１丁目４９番地２－５１０号,,11,214,3440067,,,,,,,2022-01-19,1,,,,,シーエーワイグリッター,0
2489,7030003018690,新規,0,2022-01-19,2022-01-19,合同会社サンロード,,合同会社,埼玉県,川口市,並木２丁目４１番９号九龍ビル５０１号室,,11,203,3320034,,,,,,,2022-01-19,1,,,,,サンロード,0
2497,7040001121850,新規,0,2022-01-19,2022-01-19,ＳＩＮＲＩＺＥ株式会社,,株式会社,千葉県,千葉市稲毛区,園生町３３７番地１サンクレイドル稲毛４０４号,,12,103,2630051,,,,,,,2022-01-19,1,,,,,シンライズ,0
2513,7050001050487,新規,0,2022-01-19,2022-01-19,株式会社Ｓ．Ａ．Ｓ,,株式会社,茨城県,水戸市,鯉淵町１６６６番地６,,08,201,3190323,,,,,,,2022-01-19,1,,,,,エスエーエス,0
2531,7060001034497,新規,0,2022-01-19,2022-01-19,株式会社百穀,,株式会社,栃木県,下野市,上川島４２番地,,09,216,3230103,,,,,,,2022-01-19,1,,,,,ヒャッコク,0
2565,7080403004451,新規,0,2022-01-19,2022-01-19,合同会社Ｌｅ　ｃｏｅｕｒ,,合同会社,静岡県,浜松市中区,菅原町８番４号クレフラスト新浜松駅西１０２,,22,131,4328041,,,,,,,2022-01-19,1,,,,,ルクール,0
2570,7110001036380,新規,0,2022-01-19,2022-01-19,株式会社アシストプラス,,株式会社,新潟県,新発田市,緑町２丁目２番１２号,,15,206,9570018,,,,,,,2022-01-19,1,,,,,アシストプラス,0
2571,7110003004682,新規,0,2022-01-19,2022-01-19,合同会社富士風,,合同会社,新潟県,五泉市,土深１６番地,,15,218,9591853,,,,,,,2022-01-19,1,,,,,,0
2579,7120001243224,新規,0,2022-01-19,2022-01-19,株式会社ＭｏＡ,,株式会社,大阪府,大阪市西区,新町２丁目５番１－４０６号,,27,106,5500013,,,,,,,2022-01-19,1,,,,,モア,0
2580,7120001243240,新規,0,2022-01-19,2022-01-19,株式会社ｏｎｅｐｏｐｏ,,株式会社,大阪府,大阪市西区,西本町２丁目１番２７号ＴＨＥＲＯＯＭＳＯＳＡＫＡ６０１,,27,106,5500005,,,,,,,2022-01-19,1,,,,,ワンポポ,0
2581,7120001243281,新規,0,2022-01-19,2022-01-19,慈繹伽株式会社,,株式会社,大阪府,大阪市中央区,松屋町９番２０号ローレルステート松屋町７０５Ｂ,,27,128,5420067,,,,,,,2022-01-19,1,,,,,ジエキカ,0
2582,7120001243298,新規,0,2022-01-19,2022-01-19,株式会社ＤＯＬ,,株式会社,大阪府,大阪市中央区,西心斎橋２丁目７－８,,27,128,5420086,,,,,,,2022-01-19,1,,,,,ディーオーエル,0
2586,7120003020984,新規,0,2022-01-19,2022-01-19,ＳＵＮＮＹ合同会社,,合同会社,大阪府,大阪市中央区,島之内２丁目１３番３１号島之内キャステール２０４号,,27,128,5420082,,,,,,,2022-01-19,1,,,,,サニー,0
2587,7120005022723,新規,0,2022-01-19,2022-01-19,一般社団法人大阪ベンチャー倶楽部,,その他の設立登記法人,大阪府,大阪市西区,京町堀１丁目４番９号京町橋八千代ビル３階株式会社エニシジャパン内,,27,106,5500003,,,,,,,2022-01-19,1,,,,,オオサカベンチャークラブ,0
2591,7120901045471,新規,0,2022-01-19,2022-01-19,ＭＴサポート株式会社,,株式会社,大阪府,池田市,栄本町１１番１２号,,27,204,5630058,,,,,,,2022-01-19,1,,,,,エムティーサポート,0
2594,7122001035510,新規,0,2022-01-19,2022-01-19,森金網株式会社,,株式会社,大阪府,柏原市,円明町１０００－２１,,27,221,5820027,,,,,,,2022-01-19,1,,,,,モリカナアミ,0
2605,7140001124604,新規,0,2022-01-19,2022-01-19,王子土地株式会社,,株式会社,兵庫県,明石市,西王子町二丁目５番地,,28,203,6730000,,,,,,,2022-01-19,1,,,,,オウジトチ,0
2606,7140001124612,新規,0,2022-01-19,2022-01-19,株式会社Ｇ－７・オートバックスつくば,,株式会社,兵庫県,神戸市須磨区,弥栄台２丁目１番地の３,,28,107,6540161,,,,,,,2022-01-19,1,,,,,ジーセブンオートバックスツクバ,0
2610,7140003017252,新規,0,2022-01-19,2022-01-19,合同会社サークルハート,,合同会社,兵庫県,川西市,緑台４丁目３番地の７３,,28,217,6660129,,,,,,,2022-01-19,1,,,,,サークルハート,0
2612,7140005025996,新規,0,2022-01-19,2022-01-19,ＮＰＯ法人ガルーダ・ジャパンコミュニティ,,その他の設立登記法人,兵庫県,神戸市灘区,薬師通１丁目２番５号,,28,102,6570815,,,,,,,2022-01-19,1,,,,,ガルーダジャパンコミュニティ,0
2616,7170001016947,新規,0,2022-01-19,2022-01-19,株式会社ＭＨＯＬＤＩＮＧＳ,,株式会社,和歌山県,和歌山市,松江東１丁目７番２７号,,30,201,6408422,,,,,,,2022-01-19,1,,,,,エムホールディングス,0
2629,7180001149639,新規,0,2022-01-19,2022-01-19,林住設株式会社,,株式会社,愛知県,春日井市,中新町２丁目７番地４４,,23,206,4860956,,,,,,,2022-01-19,1,,,,,ハヤシジュウセツ,0
2656,7190001029014,新規,0,2022-01-19,2022-01-19,株式会社本部,,株式会社,三重県,津市,安濃町清水１６２番地６,,24,201,5142305,,,,,,,2022-01-19,1,,,,,ホンブ,0
2659,7200001039671,新規,0,2022-01-19,2022-01-19,株式会社大辰美装,,株式会社,岐阜県,関市,迫間４３８番地,,21,205,5013924,,,,,,,2022-01-19,1,,,,,ダイシンビソウ,0
2663,7200003005432,新規,0,2022-01-19,2022-01-19,合同会社田中商会,,合同会社,岐阜県,岐阜市,蔵前４丁目８番７－１号,,21,201,5008233,,,,,,,2022-01-19,1,,,,,タナカショウカイ,0
2667,7210001018781,新規,0,2022-01-19,2022-01-19,株式会社ボスケ,,株式会社,福井県,鯖江市,川去町第１０号７番地２６,,18,207,9160088,,,,,,,2022-01-19,1,,,,,ボスケ,0
2672,7230003001791,新規,0,2022-01-19,2022-01-19,合同会社オフィスサポート,,合同会社,富山県,富山市,羽根１６３－４,,16,201,9300864,,,,,,,2022-01-19,1,,,,,,0
2678,7240003005453,新規,0,2022-01-19,2022-01-19,ＤＡＫＯＳＡ合同会社,,合同会社,広島県,廿日市市,平良山手７－１０,,34,213,7380027,,,,,,,2022-01-19,1,,,,,ダコサ,0
2679,7260001036399,新規,0,2022-01-19,2022-01-19,株式会社ＳＯＨＯ,,株式会社,岡山県,岡山市北区,中央町１０－２０１はるなガーデン１１０１,,33,101,7000836,,,,,,,2022-01-19,1,,,,,ソホ,0
2681,7270001008439,新規,0,2022-01-19,2022-01-19,ＭＦエンジニアリング株式会社,,株式会社,鳥取県,米子市,東福原６丁目７番１０－４０２号,,31,202,6830802,,,,,,,2022-01-19,1,,,,,エムエフエンジニアリング,0
2692,7290001096102,新規,0,2022-01-19,2022-01-19,株式会社シーエスアイ,,株式会社,福岡県,大野城市,白木原５丁目３番３２号,,40,219,8160943,,,,,,,2022-01-19,1,,,,,シーエスアイ,0
2693,7290003012024,新規,0,2022-01-19,2022-01-19,合同会社ゴトラボ,,合同会社,福岡県,久留米市,荒木町白口６６３番地８,,40,203,8300062,,,,,,,2022-01-19,1,,,,,ゴトラボ,0
2694,7290003012040,新規,0,2022-01-19,2022-01-19,ＭＯＯＮＬＩＧＨＴ　ＮＯＯＤＬＥ　ＷＯＲＫＳ合同会社,,合同会社,福岡県,福岡市南区,市崎１丁目１７－２７－１－１１０２,,40,134,8150084,,,,,,,2022-01-19,1,,,,,ムーンライトヌードルワークス,0
2702,7310003004258,新規,0,2022-01-19,2022-01-19,ラクシュミー合同会社,,合同会社,長崎県,佐世保市,横尾町１３８,,42,202,8570018,,,,,,,2022-01-19,1,,,,,ラクシュミー,0
2718,7340003003678,新規,0,2022-01-19,2022-01-19,合同会社平田コンサル,,合同会社,鹿児島県,鹿屋市,笠之原町２２番１６号,,46,203,8930023,,,,,,,2022-01-19,1,,,,,ヒラタコンサル,0
2722,7370001048094,新規,0,2022-01-19,2022-01-19,株式会社エフケー,,株式会社,宮城県,多賀城市,八幡３丁目１６番６号,,04,209,9850874,,,,,,,2022-01-19,1,,,,,エフケー,0
2723,7370001048103,新規,0,2022-01-19,2022-01-19,株式会社ＤＢＬ,,株式会社,宮城県,柴田郡大河原町,字新東２２－３,,04,321,9891246,,,,,,,2022-01-19,1,,,,,ダイヤモンドビューティーラウンジ,0
2724,7370003005556,新規,0,2022-01-19,2022-01-19,合同会社ラウレア,,合同会社,宮城県,仙台市泉区,南光台６丁目１１番２０号,,04,105,9818003,,,,,,,2022-01-19,1,,,,,ラウレア,0
2729,7380001032502,新規,0,2022-01-19,2022-01-19,株式会社あさか会計,,株式会社,福島県,郡山市,島２丁目４５番５号グランフィールド島１０１号室,,07,203,9638034,,,,,,,2022-01-19,1,,,,,アサカカイケイ,0
2733,7380003005092,新規,0,2022-01-19,2022-01-19,Ｈｉ　ｔｈｅｒｅ合同会社,,合同会社,福島県,福島市,清水町字東裏２０番地,,07,201,9608155,,,,,,,2022-01-19,1,,,,,ハイゼア,0
2743,7410003003605,新規,0,2022-01-19,2022-01-19,合同会社藤倉屋,,合同会社,秋田県,湯沢市,皆瀬字藤倉９０番地,,05,207,0120183,,,,,,,2022-01-19,1,,,,,フジクラヤ,0
2748,7450001013593,新規,0,2022-01-19,2022-01-19,株式会社Ｌｉｅｎｆａｒｍ,,株式会社,北海道,旭川市,西神楽南十六号３５６番地,,01,204,0710186,,,,,,,2022-01-19,1,,,,,リアンファーム,0
2757,7480001011628,新規,0,2022-01-19,2022-01-19,株式会社ルオント,,株式会社,徳島県,徳島市,万代町６丁目４１番２３号,,36,201,7700941,,,,,,,2022-01-19,1,,,,,ルオント,0
2759,7500001023950,新規,0,2022-01-19,2022-01-19,株式会社スカイウォーク,,株式会社,愛媛県,東温市,田窪２０６３番地６,,38,215,7910212,,,,,,,2022-01-19,1,,,,,スカイウォーク,0
2760,7700150106701,新規,0,2022-01-19,2022-01-19,Ｕｂｉｓｏｆｔ　ＥＭＥＡ,,外国会社等,,,,,,,,２　Ａｖｅｎｕｅ　Ｐａｓｔｅｕｒ，９４１６０Ｓａｉｎｔ－Ｍａｎｄｅ，Ｆｒａｎｃｅ,,,,,,2022-01-19,1,,,,,ユービーアイソフトイーエムイーエー,0
2761,7700150106718,新規,0,2022-01-19,2022-01-19,ＴＥＪ　ＪＯＢ　ＮＥＰＡＬ　ＰＶＴ．ＬＴＤ．,,外国会社等,埼玉県,鴻巣市,大間３丁目１０－２３ラデヴィーナ１０１,,11,217,3650054,ネパール国カトマンズ郡カトマンズメトロポリタンシティー第４区、スケダラ,,,,,,2022-01-19,1,,,,,テズジヨブネパールルプライベートリミテツド,0
2770,8010001223830,新規,0,2022-01-19,2022-01-19,ＴＯＰＲＡＮＫ　ＧＬＯＢＡＬ　ＰＡＲＴＮＥＲＳ株式会社,,株式会社,東京都,中央区,新川１丁目３番３号２Ｆ,,13,102,1040033,,,,,,,2022-01-19,1,,,,,トップランクグローバルパートナーズ,0
2771,8010001223839,新規,0,2022-01-19,2022-01-19,株式会社ブロックチェーン戦略政策研究所,,株式会社,東京都,千代田区,平河町２丁目５番３号,,13,101,1020093,,,,,,,2022-01-19,1,,,,,ブロックチェーンセンリャクセイサクケンキュウジョ,0
2772,8010001223863,新規,0,2022-01-19,2022-01-19,株式会社Ｌａｎｄｓｃａｐｅ．,,株式会社,東京都,中央区,銀座６丁目４番９号,,13,102,1040061,,,,,,,2022-01-19,1,,,,,ランドスケープ,0
2773,8010001223871,新規,0,2022-01-19,2022-01-19,株式会社プライバシーテック,,株式会社,東京都,千代田区,外神田２丁目１３番４号千代田ビル３０１,,13,101,1010021,,,,,,,2022-01-19,1,,,,,プライバシーテック,0
2774,8010001223970,新規,0,2022-01-19,2022-01-19,ニュー・フロンティア・キャピタル株式会社,,株式会社,東京都,千代田区,神田神保町１丁目１０５番地,,13,101,1010051,,,,,,,2022-01-19,1,,,,,ニューフロンティアキャピタル,0
2776,8010003036776,新規,0,2022-01-19,2022-01-19,アストロ・ファイブ合同会社,,合同会社,東京都,中央区,銀座１丁目６番１１号土志田ビルディング３Ｆ,,13,102,1040061,,,,,,,2022-01-19,1,,,,,アストロファイブ,0
2777,8010003036792,新規,0,2022-01-19,2022-01-19,合同会社ブリッジ,,合同会社,東京都,中央区,日本橋箱崎町４４－５Ａ２０１号,,13,102,1030015,,,,,,,2022-01-19,1,,,,,ブリッジ,0
2778,8010005034456,新規,0,2022-01-19,2022-01-19,弁護士法人レオユナイテッド銀座法律事務所,,その他の設立登記法人,東京都,中央区,銀座８丁目９番１７号ＫＤＸ銀座８丁目ビル１１階,,13,102,1040061,,,,,,,2022-01-19,1,,,,,レオユナイテッドギンザホウリツジムショ,0
2779,8010005034464,新規,0,2022-01-19,2022-01-19,一般社団法人ＡＴＪ３,,その他の設立登記法人,東京都,千代田区,丸の内３丁目１番１号東京共同会計事務所内,,13,101,1000005,,,,,,,2022-01-19,1,,,,,エーティージェイスリー,0
2781,8010103001853,新規,0,2022-01-19,2022-01-19,合同会社円結び,,合同会社,東京都,八王子市,南大沢４丁目１２番地１－４０３,,13,201,1920364,,,,,,,2022-01-19,1,,,,,,0
2786,8010401164988,新規,0,2022-01-19,2022-01-19,株式会社アンドカンパニー,,株式会社,東京都,港区,北青山２丁目７－１３,,13,103,1070061,,,,,,,2022-01-19,1,,,,,アンドカンパニー,0
2787,8010401165020,新規,0,2022-01-19,2022-01-19,株式会社ナカジマ,,株式会社,東京都,港区,海岸３丁目１９番２－３０３号,,13,103,1080022,,,,,,,2022-01-19,1,,,,,ナカジマ,0
2791,8010601060541,新規,0,2022-01-19,2022-01-19,瑚光総業株式会社,,株式会社,東京都,墨田区,江東橋５丁目１３番１１号,,13,107,1300022,,,,,,,2022-01-19,1,,,,,ゴコウソウギョウ,0
2793,8010605004032,新規,0,2022-01-19,2022-01-19,一般社団法人ＪＯＴＯ　ＷＡＲＲＩＯＲＳ,,その他の設立登記法人,東京都,江東区,清澄３丁目６番１４号,,13,108,1350024,,,,,,,2022-01-19,1,,,,,ジョウトウウォーリアーズ,0
2796,8010803004016,新規,0,2022-01-19,2022-01-19,ＭＩＮＬＡＢＯ合同会社,,合同会社,東京都,大田区,中馬込３丁目２２番１－２０７号,,13,111,1430027,,,,,,,2022-01-19,1,,,,,ミンラボ,0
2797,8010803004032,新規,0,2022-01-19,2022-01-19,合同会社ＮＯＤＡＴＥＣＨ,,合同会社,東京都,大田区,南六郷３丁目１０番１６号３０１,,13,111,1440045,,,,,,,2022-01-19,1,,,,,ノダテック,0
2798,8010901050176,新規,0,2022-01-19,2022-01-19,株式会社Ａｒｉｓｔｏｃｒａｔ,,株式会社,東京都,世田谷区,用賀１丁目１５番２０号,,13,112,1580097,,,,,,,2022-01-19,1,,,,,アリストクラット,0
2803,8011001144983,新規,0,2022-01-19,2022-01-19,株式会社矢澤アセット,,株式会社,東京都,目黒区,八雲５丁目１２－８,,13,110,1520023,,,,,,,2022-01-19,1,,,,,ヤザワアセット,0
2804,8011001145123,新規,0,2022-01-19,2022-01-19,株式会社ｂｏｏｓｔ,,株式会社,東京都,渋谷区,広尾１丁目３番１０号,,13,113,1500012,,,,,,,2022-01-19,1,,,,,ブースト,0
2808,8011101097529,新規,0,2022-01-19,2022-01-19,株式会社ＳＹＪ,,株式会社,東京都,新宿区,河田町２番３号,,13,104,1620054,,,,,,,2022-01-19,1,,,,,エスワイジェイ,0
2809,8011103011363,新規,0,2022-01-19,2022-01-19,Ｋｅｎｎｅｔｈ　Ｇｕｉｌｆｏｙｌｅ　ＣＰＡ合同会社,,合同会社,東京都,新宿区,新宿６丁目２７番２９－１９１０号,,13,104,1600022,,,,,,,2022-01-19,1,,,,,ケネスギルフォイルシーピーエイ,0
2810,8011201023566,新規,0,2022-01-19,2022-01-19,株式会社ＫＵＬＵＫＵＲＵ,,株式会社,東京都,中野区,沼袋３丁目１１番１４号パークサイドヴィラ３０５,,13,114,1650025,,,,,,,2022-01-19,1,,,,,クルクル,0
2821,8012301012839,新規,0,2022-01-19,2022-01-19,株式会社ＳＰＡＣＥ,,株式会社,東京都,町田市,高ヶ坂７丁目１２番１０号,,13,209,1940014,,,,,,,2022-01-19,1,,,,,スペース,0
2822,8012301012847,新規,0,2022-01-19,2022-01-19,株式会社カピリナアクア,,株式会社,東京都,町田市,原町田１丁目４番１０－９０１号,,13,209,1940013,,,,,,,2022-01-19,1,,,,,カピリナアクア,0
2823,8012305001986,新規,0,2022-01-19,2022-01-19,社会保険労務士法人アルコ,,その他の設立登記法人,東京都,町田市,南成瀬１丁目８番地１３サンライトビル,,13,209,1940045,,,,,,,2022-01-19,1,,,,,アルコ,0
2833,8020001144844,新規,0,2022-01-19,2022-01-19,株式会社８ＨＯＭＥ,,株式会社,神奈川県,横浜市磯子区,新杉田町８番地８クリオレジダンス横浜新杉田９０３号,,14,107,2350032,,,,,,,2022-01-19,1,,,,,エイトホーム,0
2834,8020001144860,新規,0,2022-01-19,2022-01-19,株式会社野口空調,,株式会社,神奈川県,横浜市都筑区,早渕３丁目４７番３０号,,14,118,2240025,,,,,,,2022-01-19,1,,,,,ノグチクウチョウ,0
2851,8030001146360,新規,0,2022-01-19,2022-01-19,木ノ葉株式会社,,株式会社,埼玉県,新座市,新堀１丁目４番７号,,11,230,3520032,,,,,,,2022-01-19,1,,,,,コノハ,0
2852,8030001146410,新規,0,2022-01-19,2022-01-19,令和販売株式会社,,株式会社,埼玉県,北本市,本町４丁目４７番５号２階,,11,233,3640033,,,,,,,2022-01-19,1,,,,,レイワハンバイ,0
2853,8030001146419,新規,0,2022-01-19,2022-01-19,株式会社ライフスタイル,,株式会社,埼玉県,所沢市,上新井１丁目３７番地の１２パピヨンハウスＡ－２０２,,11,208,3591142,,,,,,,2022-01-19,1,,,,,ライフスタイル,0
2863,8030003018673,新規,0,2022-01-19,2022-01-19,ｈａｎａ．Ｌｉｆｅ合同会社,,合同会社,埼玉県,八潮市,中央２丁目２０番地４,,11,234,3400816,,,,,,,2022-01-19,1,,,,,ハナライフ,0
2873,8040001121800,新規,0,2022-01-19,2022-01-19,株式会社ＪＯＹ　ＨＯＭＥ　ＳＥＲＶＩＣＥ,,株式会社,千葉県,野田市,山崎２０３５番地の７,,12,208,2780022,,,,,,,2022-01-19,1,,,,,ジョイホームサービス,0
2886,8050001050494,新規,0,2022-01-19,2022-01-19,株式会社ＫＡＬＧＯＮ,,株式会社,茨城県,つくば市,島名２４８３番地（諏訪Ｃ１２街区１８）アデニウムつくば万博記念公園１２０７号,,08,220,3002655,,,,,,,2022-01-19,1,,,,,カルゴン,0
2900,8050003006321,新規,0,2022-01-19,2022-01-19,合同会社プライム・エル,,合同会社,茨城県,那珂市,菅谷３３５８番地３ファミーリアＩ号館２０１号,00125441,08,226,3110105,,,,,,,2022-01-19,1,,,,,プライムエル,0
2904,8060002041161,新規,0,2022-01-19,2022-01-19,有限会社山幸左官店,,有限会社,栃木県,宇都宮市,東峰町３０１５番地３,,09,201,3210944,,,,,,,2022-01-19,1,,,,,ヤマコウサカンテン,0
2905,8060005009940,新規,0,2022-01-19,2022-01-19,一般社団法人あんしんライフサポート協会,,その他の設立登記法人,栃木県,宇都宮市,下岡本町４１８３番地,,09,201,3291104,,,,,,,2022-01-19,1,,,,,アンシンライフサポートキョウカイ,0
2966,8120001243272,新規,0,2022-01-19,2022-01-19,元保株式会社,,株式会社,大阪府,大阪市生野区,新今里３丁目４番１７号シャトー第４今里４０９Ａ,,27,116,5440001,,,,,,,2022-01-19,1,,,,,モトヤス,0
2967,8120001243280,新規,0,2022-01-19,2022-01-19,ヨシザワヨイモト株式会社,,株式会社,大阪府,大阪市中央区,松屋町９番２０号ローレルステート松屋町７０４Ａ,,27,128,5420067,,,,,,,2022-01-19,1,,,,,ヨシザワヨイモト,0
2968,8120001243297,新規,0,2022-01-19,2022-01-19,株式会社華星コンサルタント,,株式会社,大阪府,大阪市浪速区,恵美須西３丁目３番３６号,,27,111,5560003,,,,,,,2022-01-19,1,,,,,カセイコンサルタント,0
2970,8120003020975,新規,0,2022-01-19,2022-01-19,融迅合同会社,,合同会社,大阪府,大阪市西成区,千本中２丁目１番１８号シャーメゾンカーサベルデＡ１０３,,27,122,5570054,,,,,,,2022-01-19,1,,,,,ユウジン,0
2971,8120005022689,新規,0,2022-01-19,2022-01-19,いきいきスマイル労働組合,,その他の設立登記法人,大阪府,大阪市淀川区,西中島４丁目２－２６天神第一ビル１００５号室,,27,123,5320011,,,,,,,2022-01-19,1,,,,,イキイキスマイル,0
2999,8140003017251,新規,0,2022-01-19,2022-01-19,合同会社彩香,,合同会社,兵庫県,姫路市,勝原区勝原町４番地３０,,28,201,6711212,,,,,,,2022-01-19,1,,,,,アヤカ,0
3001,8150001025263,新規,0,2022-01-19,2022-01-19,株式会社Ｋｒｅｉｓ,,株式会社,奈良県,大和郡山市,筒井町６８１番地１べルシーダ筒井１０１,,29,203,6391123,,,,,,,2022-01-19,1,,,,,クライス,0
3006,8160001023951,新規,0,2022-01-19,2022-01-19,株式会社青空,,株式会社,滋賀県,大津市,朝日が丘１丁目２４－２０シャリエ大津朝日が丘１１０,,25,201,5200052,,,,,,,2022-01-19,1,,,,,アオゾラ,0
3026,8180001149613,新規,0,2022-01-19,2022-01-19,株式会社山中建装,,株式会社,愛知県,名古屋市港区,土古町４丁目８５番地,,23,111,4550068,,,,,,,2022-01-19,1,,,,,ヤマナカケンソウ,0
3027,8180001149646,新規,0,2022-01-19,2022-01-19,株式会社功伶動,,株式会社,愛知県,一宮市,松山町１番地８７,,23,203,4910085,,,,,,,2022-01-19,1,,,,,クレド,0
3044,8180003023403,新規,0,2022-01-19,2022-01-19,合同会社Ｉ　Ｐｒｏｊｅｃｔ,,合同会社,愛知県,名古屋市中区,栄１丁目６番１号,,23,106,4600008,,,,,,,2022-01-19,1,,,,,アイプロジェクト,0
3046,8180005019606,新規,0,2022-01-19,2022-01-19,Ｎａｎａｉｒｏ　Ｐａｒｔｎｅｒｓ協同組合,,その他の設立登記法人,愛知県,名古屋市港区,港栄３丁目１番９号,,23,111,4550015,,,,,,,2022-01-19,1,,,,,ナナイロパートナーズ,0
3060,8200001039662,新規,0,2022-01-19,2022-01-19,飛騨古川駅東開発株式会社,,株式会社,岐阜県,飛騨市,古川町若宮２丁目１番１号,,21,217,5094221,,,,,,,2022-01-19,1,,,,,ヒダフルカワヒガシカイハツ,0
3070,8210001018772,新規,0,2022-01-19,2022-01-19,株式会社帝国マーケティング,,株式会社,福井県,福井市,三郎丸町第２２号２番地８,,18,201,9100036,,,,,,,2022-01-19,1,,,,,テイコクマーケティング,0
3071,8210001018780,新規,0,2022-01-19,2022-01-19,新田鉄鋼株式会社,,株式会社,福井県,坂井市,丸岡町堀水第１０号１０番地,,18,210,9100271,,,,,,,2022-01-19,1,,,,,ニッタテッコウ,0
3072,8220005008629,新規,0,2022-01-19,2022-01-19,一般社団法人アセットファイナンス小松,,その他の設立登記法人,石川県,金沢市,新神田５丁目５番地,,17,201,9218013,,,,,,,2022-01-19,1,,,,,アセットファイナンスコマツ,0
3082,8290001096035,新規,0,2022-01-19,2022-01-19,ＴＡＫＥ　ｏｎ　ＰＬＡＮ株式会社,,株式会社,福岡県,福岡市博多区,博多駅中央街５番１１号,,40,132,8120012,,,,,,,2022-01-19,1,,,,,テイクオンプラン,0
3083,8290001096118,新規,0,2022-01-19,2022-01-19,株式会社Ｕｌｔｉｍａｔｅ,,株式会社,福岡県,福岡市博多区,中洲４丁目７番７号中洲リッチビル６階,,40,132,8100801,,,,,,,2022-01-19,1,,,,,アルティメット,0
3084,8290001096142,新規,0,2022-01-19,2022-01-19,株式会社優心,,株式会社,福岡県,福岡市中央区,舞鶴３丁目１番２２‐３０２号,,40,133,8100073,,,,,,,2022-01-19,1,,,,,ユウシン,0
3088,8290003012015,新規,0,2022-01-19,2022-01-19,合同会社Ｏｆｆｉｃｉａｌ　Ｒｅｃｏｒｄ,,合同会社,福岡県,福岡市早良区,原４丁目２５－２２－２０３,,40,137,8140022,,,,,,,2022-01-19,1,,,,,オフィシャルレコード,0
3089,8290003012048,新規,0,2022-01-19,2022-01-19,合同会社ＮＡＵＧＨＴＹＣＯＷ’Ｓ,,合同会社,福岡県,福岡市南区,大橋１丁目２番１９号伊藤ビル１階,,40,134,8150033,,,,,,,2022-01-19,1,,,,,ナッティーカウズ,0
3092,8290801028187,新規,0,2022-01-19,2022-01-19,大庭設備工業株式会社,,株式会社,福岡県,北九州市若松区,大字二島７９２番地２グローハイツＩ－１０２号,,40,103,8080103,,,,,,,2022-01-19,1,,,,,オオバセツビコウギョウ,0
3095,8300003001783,新規,0,2022-01-19,2022-01-19,合同会社古賀道場,,合同会社,佐賀県,佐賀市,長瀬町５番２１号,,41,201,8400853,,,,,,,2022-01-19,1,,,,,コガドウジョウ,0
3107,8320003003704,新規,0,2022-01-19,2022-01-19,合同会社美美会,,合同会社,大分県,日田市,田島１丁目５番４２号,,44,204,8770025,,,,,,,2022-01-19,1,,,,,ビビカイ,0
3115,8360001029904,新規,0,2022-01-19,2022-01-19,株式会社Ｔｈｅ　Ｃｏｍｐａｎｙ,,株式会社,沖縄県,糸満市,西崎２丁目３６－６,,47,210,9010305,,,,,,,2022-01-19,1,,,,,,0
3127,8380001032501,新規,0,2022-01-19,2022-01-19,株式会社ＷＡＮ,,株式会社,福島県,相馬市,中村字本町１７６番地の１,,07,209,9760042,,,,,,,2022-01-19,1,,,,,ワン,0
3128,8380003005091,新規,0,2022-01-19,2022-01-19,合同会社健陣工業,,合同会社,福島県,いわき市,常磐湯本町山ノ神９番地の１,,07,204,9728321,,,,,,,2022-01-19,1,,,,,ケンジンコウギョウ,0
3130,8380005012524,新規,0,2022-01-19,2022-01-19,一般社団法人Ｅｇｏｍａ　Ｅｖａｎｇｅｌｉｓｔ協会,,その他の設立登記法人,福島県,南会津郡只見町,大字亀岡字山崎２２５番地,,07,367,9680445,,,,,,,2022-01-19,1,,,,,エゴマエバンジェリストキョウカイ,0
3137,8410003003604,新規,0,2022-01-19,2022-01-19,合同会社梅川農産,,合同会社,秋田県,仙北郡美郷町,野荒町字西野田４０番地４,,05,434,0191301,,,,,,,2022-01-19,1,,,,,ウメカワノウサン,0
3139,8430001085790,新規,0,2022-01-19,2022-01-19,ヒーリングワークス・テルミナ株式会社,,株式会社,北海道,室蘭市,八丁平４丁目１７番４９号,,01,205,0500061,,,,,,,2022-01-19,1,,,,,ヒーリングワークステルミナ,0
3140,8430001085824,新規,0,2022-01-19,2022-01-19,株式会社Ｅホールディングス,,株式会社,北海道,札幌市中央区,南二条西３丁目１３番地,,01,101,0600062,,,,,,,2022-01-19,1,,,,,イーホールディングス,0
3153,8480003001782,新規,0,2022-01-19,2022-01-19,Ｋ．Ｐ　ＩＮＴＥＲＮＡＴＩＯＮＡＬ合同会社,,合同会社,徳島県,徳島市,大原町川添４－１大原ビジネスセンター１０４,,36,201,7708012,,,,,,,2022-01-19,1,,,,,ケーピーインターナショナル,0
3156,8500001023933,新規,0,2022-01-19,2022-01-19,株式会社ＩＫＥＤＡ,,株式会社,愛媛県,新居浜市,郷３丁目７番２８号,,38,205,7920886,,,,,,,2022-01-19,1,,,,,イケダ,0
3170,9010001223838,新規,0,2022-01-19,2022-01-19,法人番号株式会社,,株式会社,東京都,中央区,銀座１丁目１２番４号Ｎ＆ＥＢＬＤ．７階,,13,102,1040061,,,,,,,2022-01-19,1,,,,,ホウジンバンゴウ,0
3171,9010001223862,新規,0,2022-01-19,2022-01-19,ＮＥＣＫ　ＵＰ株式会社,,株式会社,東京都,中央区,日本橋室町１丁目２番６号日本橋大栄ビル７階,,13,102,1030022,,,,,,,2022-01-19,1,,,,,ネックアップ,0
3172,9010001223870,新規,0,2022-01-19,2022-01-19,株式会社さとっぷ,,株式会社,東京都,中央区,日本橋室町１丁目２番６号,,13,102,1030022,,,,,,,2022-01-19,1,,,,,サトップ,0
3173,9010001223920,新規,0,2022-01-19,2022-01-19,株式会社Ｉｋｅ’ｓＭｅｄｉｃａｌ,,株式会社,東京都,中央区,銀座７丁目１３番６号サガミビル２階,,13,102,1040061,,,,,,,2022-01-19,1,,,,,アイケスメディカル,0
3174,9010001223945,新規,0,2022-01-19,2022-01-19,ＳＴＴ　ＧＤＣ　Ｊａｐａｎ株式会社,,株式会社,東京都,千代田区,霞が関３丁目２番６号東京倶楽部ビルディング１１階,,13,101,1000013,,,,,,,2022-01-19,1,,,,,エスティティジーディーシージャパン,0
3178,9010003036759,新規,0,2022-01-19,2022-01-19,リベラルイーツ合同会社,,合同会社,東京都,中央区,京橋１丁目１２番７号,,13,102,1040031,,,,,,,2022-01-19,1,,,,,リベラルイーツ,0
3179,9010003036783,新規,0,2022-01-19,2022-01-19,合同会社クオドラント,,合同会社,東京都,中央区,月島１丁目２２番１－５０４号,,13,102,1040052,,,,,,,2022-01-19,1,,,,,クオドラント,0
3180,9010003036791,新規,0,2022-01-19,2022-01-19,輝陽賢合同会社,,合同会社,東京都,中央区,勝どき６丁目３番１－５４０７号,,13,102,1040054,,,,,,,2022-01-19,1,,,,,キヨウケン,0
3183,9010005034471,新規,0,2022-01-19,2022-01-19,一般社団法人ＯＣＰＦ,,その他の設立登記法人,東京都,中央区,日本橋１丁目４番１号,,13,102,1030027,,,,,,,2022-01-19,1,,,,,オーシーピーエフ,0
3189,9010401164970,新規,0,2022-01-19,2022-01-19,じぶんノート株式会社,,株式会社,東京都,港区,南青山１丁目１５番２７号ＹＭビル１階,,13,103,1070062,,,,,,,2022-01-19,1,,,,,ジブンノート,0
3192,9010403026896,新規,0,2022-01-19,2022-01-19,合同会社灯組,,合同会社,東京都,港区,白金３丁目１番１３号日恵ビル２階,,13,103,1080072,,,,,,,2022-01-19,1,,,,,トモルグミ,0
3196,9010701042083,新規,0,2022-01-19,2022-01-19,タニザワクリエイト株式会社,,株式会社,東京都,品川区,小山３丁目１５番２,,13,109,1420062,,,,,,,2022-01-19,1,,,,,タニザワクリエイト,0
3199,9010901050134,新規,0,2022-01-19,2022-01-19,株式会社福笑,,株式会社,東京都,世田谷区,深沢６丁目３番１４号,,13,112,1580081,,,,,,,2022-01-19,1,,,,,フクワライ,0
3200,9010905004251,新規,0,2022-01-19,2022-01-19,一般社団法人旧尾崎邸保存プロジェクト,,その他の設立登記法人,東京都,世田谷区,豪徳寺２丁目３０番１６号,,13,112,1540021,,,,,,,2022-01-19,1,,,,,キュウオザキテイホゾンプロジェクト,0
3210,9011001145122,新規,0,2022-01-19,2022-01-19,株式会社１,,株式会社,東京都,渋谷区,神宮前５丁目３９番７号,,13,113,1500001,,,,,,,2022-01-19,1,,,,,イチ,0
3214,9011101097552,新規,0,2022-01-19,2022-01-19,ケイワイケイ・マネジメント株式会社,,株式会社,東京都,新宿区,西新宿４丁目３２番４号,,13,104,1600023,,,,,,,2022-01-19,1,,,,,ケイワイケイマネジメント,0
3218,9011201023565,新規,0,2022-01-19,2022-01-19,株式会社リバース,,株式会社,東京都,中野区,上鷺宮５丁目１３番１１号上鷺オークハウス２０３,,13,114,1650031,,,,,,,2022-01-19,1,,,,,リバース,0
3230,9011601025673,新規,0,2022-01-19,2022-01-19,株式会社宏生,,株式会社,東京都,練馬区,南田中５丁目２４番８号,,13,120,1770035,,,,,,,2022-01-19,1,,,,,コウセイ,0
3232,9011701024988,新規,0,2022-01-19,2022-01-19,Ｙ’ｓインテリア株式会社,,株式会社,東京都,江戸川区,南葛西６丁目９番１３号,,13,123,1340085,,,,,,,2022-01-19,1,,,,,ワイズインテリア,0
3239,9012301012846,新規,0,2022-01-19,2022-01-19,株式会社プラタンヌ,,株式会社,東京都,町田市,成瀬台２丁目８番地５,,13,209,1940043,,,,,,,2022-01-19,1,,,,,プラタンヌ,0
3255,9020001144835,新規,0,2022-01-19,2022-01-19,株式会社ＡＴＯＣＡ,,株式会社,神奈川県,川崎市高津区,蟹ケ谷２７７番地１－９１１,,14,134,2130025,,,,,,,2022-01-19,1,,,,,アトカ,0
3256,9020001144843,新規,0,2022-01-19,2022-01-19,株式会社Ｌａ　Ｍｕｓｅ,,株式会社,神奈川県,横浜市中区,翁町１丁目５番地２,,14,104,2310028,,,,,,,2022-01-19,1,,,,,ラミューズ,0
3262,9021003011313,新規,0,2022-01-19,2022-01-19,ワタリオール合同会社,,合同会社,神奈川県,藤沢市,大庭５０５６番地の１湘南スカイハイツ１－５－５０６１,,14,205,2510861,,,,,,,2022-01-19,1,,,,,ワタリオール,0
3272,9030001146351,新規,0,2022-01-19,2022-01-19,ホヌパス株式会社,,株式会社,埼玉県,上尾市,二ツ宮１００３番地２６,,11,219,3620017,,,,,,,2022-01-19,1,,,,,ホヌパス,0
3278,9030003018680,新規,0,2022-01-19,2022-01-19,ＬＭＡ　Ｎｉｐｐｏｎ合同会社,,合同会社,埼玉県,羽生市,北１丁目２番１３号羽生ハウス,,11,216,3480057,,,,,,,2022-01-19,1,,,,,エルエムエニッポン,0
3284,9040001121758,新規,0,2022-01-19,2022-01-19,ＣＯＭＰＡＤＲＥ株式会社,,株式会社,千葉県,市川市,南大野１丁目４４番８号,,12,203,2720804,,,,,,,2022-01-19,1,,,,,コンパドーレ,0
3285,9040001121824,新規,0,2022-01-19,2022-01-19,株式会社ホワイトクリーク,,株式会社,千葉県,市原市,ちはら台西５丁目２３番６号千原台中央センター２０３,,12,219,2900143,,,,,,,2022-01-19,1,,,,,ホワイトクリーク,0
3300,9050001050428,新規,0,2022-01-19,2022-01-19,株式会社柴電工社,,株式会社,茨城県,下妻市,高道祖４２５８番地,,08,210,3040031,,,,,,,2022-01-19,1,,,,,シバデンコウシャ,0
3301,9050001050452,新規,0,2022-01-19,2022-01-19,グリットスタイル株式会社,,株式会社,茨城県,つくば市,二の宮１丁目２番地２,,08,220,3050051,,,,,,,2022-01-19,1,,,,,グリットスタイル,0
3302,9050001050493,新規,0,2022-01-19,2022-01-19,株式会社玉屋,,株式会社,茨城県,久慈郡大子町,大字大子７１８番地,,08,364,3193526,,,,,,,2022-01-19,1,,,,,タマヤ,0
3314,9050003006312,新規,0,2022-01-19,2022-01-19,未来の地図合同会社,,合同会社,茨城県,守谷市,本町１７３番地の２,,08,224,3020109,,,,,,,2022-01-19,1,,,,,ミライノチズ,0
3319,9070001038859,新規,0,2022-01-19,2022-01-19,株式会社Ｍ　ＮＡＺＥＥＲ　ＴＲＡＤＩＮＧ,,株式会社,群馬県,前橋市,石倉町３丁目１４番地８グリーンハイツ石倉Ａ－３,,10,201,3710841,,,,,,,2022-01-19,1,,,,,エムナズィールトレーディング,0
3324,9070005009939,新規,0,2022-01-19,2022-01-19,一般社団法人ＥＶｒｉｄｇｅ,,その他の設立登記法人,群馬県,前橋市,泉沢町７０５－２,,10,201,3792101,,,,,,,2022-01-19,1,,,,,エブリッジ,0
3357,9110001036379,新規,0,2022-01-19,2022-01-19,株式会社森本塗装,,株式会社,新潟県,上越市,中郷区藤沢１１６０番地１,,15,222,9492302,,,,,,,2022-01-19,1,,,,,モリモトトソウ,0
3366,9120001243247,新規,0,2022-01-19,2022-01-19,慈恩株式会社,,株式会社,大阪府,大阪市北区,紅梅町３－２４吉田マンション４０２号室,,27,127,5300038,,,,,,,2022-01-19,1,,,,,ジオン,0
3367,9120001243255,新規,0,2022-01-19,2022-01-19,株式会社ウエリバ,,株式会社,大阪府,大阪市淀川区,三津屋北１丁目４－２０ロイヤル三津屋３１３号室,,27,123,5320032,,,,,,,2022-01-19,1,,,,,ウエリバ,0
3368,9120001243271,新規,0,2022-01-19,2022-01-19,株式会社メイクスウェル,,株式会社,大阪府,大阪市北区,梅田１丁目１番３号,,27,127,5300001,,,,,,,2022-01-19,1,,,,,メイクスウェル,0
3372,9120005022721,新規,0,2022-01-19,2022-01-19,医療法人久遠会,,その他の設立登記法人,大阪府,大阪市住吉区,南住吉１丁目４番７号メディカルセンター長居１階,,27,120,5580041,,,,,,,2022-01-19,1,,,,,クオンカイ,0
3377,9120901045486,新規,0,2022-01-19,2022-01-19,株式会社ＴＳＵＭＩＫＩ,,株式会社,大阪府,茨木市,双葉町１０番１号茨木東阪急ビル４Ｆ,,27,211,5670829,,,,,,,2022-01-19,1,,,,,ツミキ,0
3392,9140001124610,新規,0,2022-01-19,2022-01-19,株式会社大門サービス商会,,株式会社,兵庫県,揖保郡太子町,原９２４番地８９,,28,464,6711502,,,,,,,2022-01-19,1,,,,,ダイモンサービスショウカイ,0
3393,9140001124619,新規,0,2022-01-19,2022-01-19,西神戸デジタル建築不動産販売株式会社,,株式会社,兵庫県,神戸市西区,井吹台東町５丁目６８番地の２１,,28,111,6512242,,,,,,,2022-01-19,1,,,,,ニシコウベデジタルケンチクフドウサンハンバイ,0
3394,9140001124627,新規,0,2022-01-19,2022-01-19,株式会社エステート希,,株式会社,兵庫県,神戸市中央区,熊内町７丁目６番１－１７０１号,,28,110,6510056,,,,,,,2022-01-19,1,,,,,エステートノゾミ,0
3400,9150001025262,新規,0,2022-01-19,2022-01-19,ビジョン株式会社,,株式会社,奈良県,橿原市,醍醐町５７５番地,,29,205,6340072,,,,,,,2022-01-19,1,,,,,ビジョン,0
3402,9160001023950,新規,0,2022-01-19,2022-01-19,ＴＭＮ株式会社,,株式会社,滋賀県,大津市,石山寺３丁目２６番１号,,25,201,5200861,,,,,,,2022-01-19,1,,,,,ティーエムエヌ,0
3404,9160003002473,新規,0,2022-01-19,2022-01-19,合同会社ＡＲＳ　ＬＩＦＥ,,合同会社,滋賀県,蒲生郡竜王町,大字弓削４８４番地,,25,384,5202501,,,,,,,2022-01-19,1,,,,,アルスライフ,0
3435,9180001149629,新規,0,2022-01-19,2022-01-19,Ｄ　Ｆａｃｅ株式会社,,株式会社,愛知県,一宮市,木曽川町黒田字下市場南１３２番地１モアグレース新木曽川駅前２０２号,,23,203,4930001,,,,,,,2022-01-19,1,,,,,ディーフェイス,0
3452,9180003023402,新規,0,2022-01-19,2022-01-19,合同会社テシ,,合同会社,愛知県,あま市,新居屋山１３１番地１,,23,237,4901105,,,,,,,2022-01-19,1,,,,,テシ,0
3457,9180303005232,新規,0,2022-01-19,2022-01-19,ＧＫ　Ｓｅｒｖｉｃｅ　Ｃｅｎｔｅｒ合同会社,,合同会社,愛知県,安城市,三河安城南町１丁目１５番地８サンテラス三河安城６階,,23,212,4460058,,,,,,,2022-01-19,1,,,,,ジーケーサービスセンター,0
3475,9210003001445,新規,0,2022-01-19,2022-01-19,合同会社セイザ,,合同会社,福井県,小浜市,木崎第３４号２６番地８,,18,204,9170025,,,,,,,2022-01-19,1,,,,,セイザ,0
3477,9230001019198,新規,0,2022-01-19,2022-01-19,株式会社高岡サブカルチャーズ,,株式会社,富山県,高岡市,佐野１１８７番地,,16,202,9330826,,,,,,,2022-01-19,1,,,,,タカオカサブカルチャーズ,0
3483,9240001059219,新規,0,2022-01-19,2022-01-19,株式会社あおぞら,,株式会社,広島県,広島市安佐南区,長楽寺１丁目３番５－３０１号,,34,105,7310143,,,,,,,2022-01-19,1,,,,,アオゾラ,0
3484,9260001036455,新規,0,2022-01-19,2022-01-19,サステナ・エナジージャパン株式会社,,株式会社,岡山県,岡山市北区,下石井２丁目１０番３０号,,33,101,7000907,,,,,,,2022-01-19,1,,,,,サステナエナジージャパン,0
3497,9290001096117,新規,0,2022-01-19,2022-01-19,株式会社リリーフ・Ｄ,,株式会社,福岡県,福岡市西区,小戸４丁目１４番２３－２０５号,,40,135,8190001,,,,,,,2022-01-19,1,,,,,リリーフディ,0
3498,9290001096125,新規,0,2022-01-19,2022-01-19,株式会社イワイフクオカ,,株式会社,福岡県,福岡市中央区,高砂１丁目９番３号２階,,40,133,8100011,,,,,,,2022-01-19,1,,,,,イワイフクオカ,0
3507,9300001012781,新規,0,2022-01-19,2022-01-19,株式会社江戸屋不動産,,株式会社,佐賀県,佐賀市,末広２丁目６番３０号スカーレット末広ビル２Ｆ,,41,201,8400032,,,,,,,2022-01-19,1,,,,,エドヤフドウサン,0
3529,9330005010457,新規,0,2022-01-19,2022-01-19,社会福祉法人＿州福祉会,00125453,その他の設立登記法人,熊本県,上天草市,大矢野町登立１４２６番地４,,43,212,8693601,,,,,,,2022-01-19,1,,,,,レイシュウフクシカイ,0
3535,9370001048043,新規,0,2022-01-19,2022-01-19,株式会社思季,,株式会社,宮城県,仙台市若林区,新寺１丁目５番地の２６レインボー仙台３１０,,04,103,9840051,,,,,,,2022-01-19,1,,,,,シキ,0
3538,9370003005562,新規,0,2022-01-19,2022-01-19,しあおろん合同会社,,合同会社,宮城県,多賀城市,八幡２丁目２２番３号,,04,209,9850874,,,,,,,2022-01-19,1,,,,,シアオロン,0
3554,9430001085807,新規,0,2022-01-19,2022-01-19,株式会社Ｕｎｉｔｅｄ　Ｏｎｅ,,株式会社,北海道,札幌市東区,北八条東４丁目１番２０号ＥＺＯＨＵＢ　ＳＡＰＰＯＲＯ　２Ｆ,,01,103,0600908,,,,,,,2022-01-19,1,,,,,ユナイテッドワン,0
3555,9430001085831,新規,0,2022-01-19,2022-01-19,株式会社ワイズ,,株式会社,北海道,札幌市東区,北十一条東１０丁目４番１号,,01,103,0650011,,,,,,,2022-01-19,1,,,,,ワイズ,0
3558,9430005014373,新規,0,2022-01-19,2022-01-19,一般社団法人菊地浩吉記念学術振興会,,その他の設立登記法人,北海道,札幌市北区,北四条西二十二丁目１番１０－１１０１号,,01,102,0010000,,,,,,,2022-01-19,1,,,,,,0
3560,9450003002171,新規,0,2022-01-19,2022-01-19,紋別太陽光発電合同会社,,合同会社,北海道,紋別市,弘道２４４８番３,,01,219,0996133,,,,,,,2022-01-19,1,,,,,モンベツタイヨウコウハツデン,0
3562,9470001018928,新規,0,2022-01-19,2022-01-19,香西建物株式会社,,株式会社,香川県,高松市,香西本町５７１番地,,37,201,7618012,,,,,,,2022-01-19,1,,,,,コウザイタテモノ,0
3567,9500003002760,新規,0,2022-01-19,2022-01-19,合同会社大入,,合同会社,愛媛県,松山市,溝辺町４５－１,00125444,38,201,7910101,,,,,,,2022-01-19,1,,,,,オオイリ,0
3571,9700150106724,新規,0,2022-01-19,2022-01-19,ウエスト・ストリート・リープ・イーイー・エイチケー・リミテッド,,外国会社等,東京都,港区,六本木６丁目１０番１号六本木ヒルズ森タワー,,13,103,1060032,中華人民共和国香港特別行政区コーズウェイベイ、３３ハイサンアベニュー、リーガーデンワン１９階１９０１,,,,,,2022-01-19,1,,,,,ウエストストリートリープイーイーエイチケーリミテツド,0
3572,9700150106732,新規,0,2022-01-19,2022-01-19,ＯＲＩＥＺ　ＬＡＮＫＡ　ＴＲＡＤＩＮＧ（ＰＲＩＶＡＴＥ）ＬＩＭＩＴＥＤ．,,外国会社等,神奈川県,藤沢市,長後２３９４番地Ｂ,,14,205,2520801,スリランカ民主社会主義共和国ケキラワ州ヤカラ町２８番地,,,,,,2022-01-19,1,,,,,オリエスランカトレーデイングプライベートリミテツド,0
