sequenceNumber,corporateNumber,process,correct,updateDate,changeDate,name,nameImageId,kind,prefectureName,cityName,streetNumber,addressImageId,prefectureCode,cityCode,postCode,addressOutside,addressOutsideImageId,closeDate,closeCause,successorCorporateNumber,changeCause,assignmentDate,latest,enName,enPrefectureName,enCityName,enAddressOutside,furigana,hihyoji
13,1010001226831,新規,0,2022-05-25,2022-05-25,株式会社アイリス,,株式会社,東京都,千代田区,神田紺屋町１７番地,,13,101,1010035,,,,,,,2022-05-25,1,,,,,アイリス,0
16,1010003037748,新規,0,2022-05-25,2022-05-25,合同会社ゆうき産業,,合同会社,東京都,中央区,築地７丁目９番１３－２０３号,,13,102,1040045,,,,,,,2022-05-25,1,,,,,ユウキサンギョウ,0
27,1010401167312,新規,0,2022-05-25,2022-05-25,株式会社メイフシー,,株式会社,東京都,港区,海岸１丁目１－１アクティ汐留３８０９,,13,103,1050022,,,,,,,2022-05-25,1,,,,,メイフシー,0
28,1010401167535,新規,0,2022-05-25,2022-05-25,株式会社ディーンアンドデルーカワインストア,,株式会社,東京都,港区,麻布十番１丁目５番３０号十番董友ビル,,13,103,1060045,,,,,,,2022-05-25,1,,,,,ディーンアンドデルーカワインストア,0
30,1010403027720,新規,0,2022-05-25,2022-05-25,合同会社ＴＳＭ１６０,,合同会社,東京都,港区,元赤坂１丁目１番７号,,13,103,1070051,,,,,,,2022-05-25,1,,,,,ティーエスエムヒャクロクジュウ,0
36,1010601061199,新規,0,2022-05-25,2022-05-25,株式会社レイズ,,株式会社,東京都,江東区,富岡１丁目２２番１６号,,13,108,1350047,,,,,,,2022-05-25,1,,,,,レイズ,0
39,1010705003361,新規,0,2022-05-25,2022-05-25,一般社団法人東京品川めし学会,,その他の設立登記法人,東京都,品川区,東大井２丁目６番８号,,13,109,1400011,,,,,,,2022-05-25,1,,,,,トウキョウシナガワメシガッカイ,0
42,1010903007395,新規,0,2022-05-25,2022-05-25,ＳＡＮＴＥＲＩＡ合同会社,,合同会社,東京都,世田谷区,代田３丁目２３番３８－７０６号,,13,112,1550033,,,,,,,2022-05-25,1,,,,,サンテリア,0
46,1011001147646,新規,0,2022-05-25,2022-05-25,株式会社ｉｔｄｆ,,株式会社,東京都,渋谷区,千駄ヶ谷３丁目３番８号,,13,113,1510051,,,,,,,2022-05-25,1,,,,,アイティーディーエフ,0
47,1011001147654,新規,0,2022-05-25,2022-05-25,株式会社ＨＯＮＯＮ,,株式会社,東京都,渋谷区,代官山町７番７－２０１号,,13,113,1500034,,,,,,,2022-05-25,1,,,,,ホノン,0
48,1011001147679,新規,0,2022-05-25,2022-05-25,株式会社Ｍ．Ｃ．Ｂ．Ｒ,,株式会社,東京都,渋谷区,円山町１３－９メゾン若林Ｂ１０２,,13,113,1500044,,,,,,,2022-05-25,1,,,,,エムシービーアール,0
49,1011001147712,新規,0,2022-05-25,2022-05-25,株式会社ｇｒｅｅ９,,株式会社,東京都,渋谷区,神宮前１丁目１４番３０号,,13,113,1500001,,,,,,,2022-05-25,1,,,,,グリーナイン,0
51,1011003014687,新規,0,2022-05-25,2022-05-25,合同会社ＳＣＪ　Ｍｅｄｉａ,,合同会社,東京都,渋谷区,道玄坂１丁目１０－８,,13,113,1500043,,,,,,,2022-05-25,1,,,,,,0
52,1011003014720,新規,0,2022-05-25,2022-05-25,合同会社ＳＡＵＰ,,合同会社,東京都,目黒区,碑文谷６丁目４番８号,,13,110,1520003,,,,,,,2022-05-25,1,,,,,サウップ,0
56,1011301027787,新規,0,2022-05-25,2022-05-25,蓮陽株式会社,,株式会社,東京都,杉並区,方南１丁目５２番６号ホワイトメゾン杉並２０２号室,,13,115,1680062,,,,,,,2022-05-25,1,,,,,レンヤ,0
57,1011301027795,新規,0,2022-05-25,2022-05-25,株式会社ホーアンドパートナーズ,,株式会社,東京都,杉並区,南荻窪３丁目２６番１６号,,13,115,1670052,,,,,,,2022-05-25,1,,,,,ホーアンドパートナーズ,0
66,1011501028049,新規,0,2022-05-25,2022-05-25,ＢＡＯＢＡＯ株式会社,,株式会社,東京都,荒川区,西日暮里５丁目２４－２,,13,118,1160013,,,,,,,2022-05-25,1,,,,,バオバオ,0
71,1011701025333,新規,0,2022-05-25,2022-05-25,ＲＫＳ株式会社,,株式会社,東京都,江戸川区,南小岩１丁目５番１０号,,13,123,1330056,,,,,,,2022-05-25,1,,,,,アールケィエス,0
72,1011801040760,新規,0,2022-05-25,2022-05-25,株式会社ＢＡＲＬＥＮ,,株式会社,東京都,葛飾区,鎌倉４丁目３０番７号,,13,122,1250053,,,,,,,2022-05-25,1,,,,,バーレン,0
74,1012401039235,新規,0,2022-05-25,2022-05-25,株式会社オルスタズ,,株式会社,東京都,武蔵野市,吉祥寺本町２丁目７－１３レディーバードビル１０４号,,13,203,1800004,,,,,,,2022-05-25,1,,,,,オルスタズ,0
75,1012403005391,新規,0,2022-05-25,2022-05-25,合同会社ユニテ,,合同会社,東京都,三鷹市,下連雀４丁目１７番１０号,,13,204,1810013,,,,,,,2022-05-25,1,,,,,ユニテ,0
92,1020001146599,新規,0,2022-05-25,2022-05-25,ダイシテクノ株式会社,,株式会社,神奈川県,横浜市南区,宿町２丁目４３番地－２０３号,,14,105,2320017,,,,,,,2022-05-25,1,,,,,ダイシテクノ,0
93,1020001146616,新規,0,2022-05-25,2022-05-25,株式会社ＱＵＡ,,株式会社,神奈川県,川崎市中原区,丸子通１丁目４６１番地１,,14,133,2110006,,,,,,,2022-05-25,1,,,,,クア,0
95,1020003021643,新規,0,2022-05-25,2022-05-25,合同会社ＷＦＳ,,合同会社,神奈川県,横浜市青葉区,美しが丘西１丁目２３－５７,,14,117,2250001,,,,,,,2022-05-25,1,,,,,ウーフーシン,0
96,1020003021800,新規,0,2022-05-25,2022-05-25,合同会社ＲＥＡＣＴＡ,,合同会社,神奈川県,横浜市港南区,港南台４丁目２２番９－３０４号,,14,111,2340054,,,,,,,2022-05-25,1,,,,,リアクタ,0
97,1020003021809,新規,0,2022-05-25,2022-05-25,キーソオス合同会社,,合同会社,神奈川県,横浜市緑区,西八朔町２３番地１７,,14,113,2260024,,,,,,,2022-05-25,1,,,,,キーソオス,0
101,1021001076035,新規,0,2022-05-25,2022-05-25,株式会社寅生,,株式会社,神奈川県,相模原市中央区,すすきの町４１番２２号,,14,152,2520213,,,,,,,2022-05-25,1,,,,,トラオ,0
102,1021001076043,新規,0,2022-05-25,2022-05-25,株式会社ハピネス,,株式会社,神奈川県,茅ヶ崎市,柳島１丁目２番１６号,,14,207,2530064,,,,,,,2022-05-25,1,,,,,,0
103,1021003011733,新規,0,2022-05-25,2022-05-25,合同会社大橋洋行,,合同会社,神奈川県,鎌倉市,大船２丁目４番６号,,14,204,2470056,,,,,,,2022-05-25,1,,,,,オオハシヨウコウ,0
111,1030001148330,新規,0,2022-05-25,2022-05-25,株式会社アライ音楽企画,,株式会社,埼玉県,さいたま市南区,根岸４丁目１５番２－１０１号,,11,108,3360024,,,,,,,2022-05-25,1,,,,,アライオンガクキカク,0
117,1040001123506,新規,0,2022-05-25,2022-05-25,ＶＩＳＩＯユニバーサルホーム株式会社,,株式会社,千葉県,船橋市,習志野台１丁目１９番１３号,,12,204,2740063,,,,,,,2022-05-25,1,,,,,ビシオユニバーサルホーム,0
118,1040001123530,新規,0,2022-05-25,2022-05-25,アイプロパティ株式会社,,株式会社,千葉県,船橋市,浜町２丁目３番３３－２１０２号,,12,204,2730012,,,,,,,2022-05-25,1,,,,,アイプロパティ,0
119,1040001123547,新規,0,2022-05-25,2022-05-25,株式会社赤羽Ｈ,,株式会社,千葉県,船橋市,芝山６丁目２８番７号,,12,204,2740816,,,,,,,2022-05-25,1,,,,,アカハネエイチ,0
122,1040003020081,新規,0,2022-05-25,2022-05-25,合同会社佐久間メンテナンスサービス,,合同会社,千葉県,木更津市,高柳１６９０番地５,,12,206,2920014,,,,,,,2022-05-25,1,,,,,サクマメンテナンスサービス,0
124,1050001051103,新規,0,2022-05-25,2022-05-25,友和株式会社,,株式会社,茨城県,石岡市,三村２５０９－１,,08,205,3150048,,,,,,,2022-05-25,1,,,,,ユウワ,0
125,1050003006550,新規,0,2022-05-25,2022-05-25,合同会社益田車輛保管,,合同会社,茨城県,坂東市,岩井２２３１－１３,,08,228,3060631,,,,,,,2022-05-25,1,,,,,マスダシャリョウホカン,0
135,1060003004082,新規,0,2022-05-25,2022-05-25,合同会社ＫＫＲ,,合同会社,栃木県,宇都宮市,大曽１丁目５－１０大曽店舗３号室,,09,201,3200014,,,,,,,2022-05-25,1,,,,,ケーケーアール,0
160,1120001246042,新規,0,2022-05-25,2022-05-25,株式会社泰興,,株式会社,大阪府,大阪市北区,浮田１丁目４番２号,,27,127,5300021,,,,,,,2022-05-25,1,,,,,タイコウ,0
161,1120001246091,新規,0,2022-05-25,2022-05-25,株式会社ヤーサトレーディング,,株式会社,大阪府,寝屋川市,明和２丁目２－４０,,27,215,5720863,,,,,,,2022-05-25,1,,,,,ヤーサトレーディング,0
167,1120003021749,新規,0,2022-05-25,2022-05-25,ＶＩＢＥＫ　ＧＬＯＢＡＬ合同会社,,合同会社,大阪府,大阪市淀川区,西中島４丁目２番４号妹尾ビル４階,,27,123,5320011,,,,,,,2022-05-25,1,,,,,ビベクグローバル,0
170,1120103004711,新規,0,2022-05-25,2022-05-25,ＨＡＰＰＹ　ＧＲＯＵＰ合同会社,,合同会社,大阪府,堺市堺区,甲斐町東１丁２番２０号,,27,141,5900953,,,,,,,2022-05-25,1,,,,,ハッピィーグループ,0
174,1120905006327,新規,0,2022-05-25,2022-05-25,一般社団法人スポーツの学校,,その他の設立登記法人,大阪府,茨木市,真砂１丁目２９－８－Ｂ,,27,211,5670851,,,,,,,2022-05-25,1,,,,,スポーツノガッコウ,0
178,1122001035887,新規,0,2022-05-25,2022-05-25,株式会社せきれい,,株式会社,大阪府,東大阪市,岸田堂南町１１番３号,,27,227,5770847,,,,,,,2022-05-25,1,,,,,セキレイ,0
181,1130001071836,新規,0,2022-05-25,2022-05-25,株式会社Ｊマネジメント,,株式会社,京都府,京都市中京区,御池通東洞院東入笹屋町４３６永和御池ビル６０６号,,26,104,6048187,,,,,,,2022-05-25,1,,,,,ジェイマネジメント,0
189,1140001126102,新規,0,2022-05-25,2022-05-25,明徳アセット株式会社,,株式会社,兵庫県,神戸市東灘区,住吉山手５丁目２－２２御影柏葉パークマンション２０３,,28,101,6580063,,,,,,,2022-05-25,1,,,,,メイトクアセット,0
190,1140001126110,新規,0,2022-05-25,2022-05-25,株式会社クレオ,,株式会社,兵庫県,神戸市灘区,八幡町３丁目４番２０号,,28,102,6570051,,,,,,,2022-05-25,1,,,,,クレオ,0
191,1140003017704,新規,0,2022-05-25,2022-05-25,合同会社ＭＯＭ,,合同会社,兵庫県,神戸市東灘区,本山北町１丁目１０番３－４０１号,,28,101,6580003,,,,,,,2022-05-25,1,,,,,マム,0
192,1150001025567,新規,0,2022-05-25,2022-05-25,株式会社トップリング,,株式会社,奈良県,天理市,楢町１９３番地２,,29,204,6320005,,,,,,,2022-05-25,1,,,,,トップリング,0
200,1180001151377,新規,0,2022-05-25,2022-05-25,株式会社あやめ,,株式会社,愛知県,大府市,桃山町２丁目２８６番地グリーンハイツ桃山１０６号室,,23,223,4740026,,,,,,,2022-05-25,1,,,,,アヤメ,0
201,1180001151402,新規,0,2022-05-25,2022-05-25,Ｒプラン株式会社,,株式会社,愛知県,名古屋市西区,五才美町１６４番地の１,,23,104,4520806,,,,,,,2022-05-25,1,,,,,アールプラン,0
216,1270001008527,新規,0,2022-05-25,2022-05-25,株式会社ｐｌｅａｓｕｒｅ,,株式会社,鳥取県,鳥取市,桜谷１１番地１１,,31,201,6800853,,,,,,,2022-05-25,1,,,,,プレジャー,0
223,1300001012938,新規,0,2022-05-25,2022-05-25,株式会社掃除王,,株式会社,佐賀県,佐賀市,松原４丁目３番３０－４０５号アーサー松原リベックス,,41,201,8400831,,,,,,,2022-05-25,1,,,,,ソウジオウ,0
224,1310003004370,新規,0,2022-05-25,2022-05-25,合同会社七彩,,合同会社,長崎県,佐世保市,花高２丁目１番１号Ａ３０３,,42,202,8593212,,,,,,,2022-05-25,1,,,,,,0
233,1360003012039,新規,0,2022-05-25,2022-05-25,ＣＣＣ沖縄合同会社,,合同会社,沖縄県,沖縄市,泡瀬６丁目３－４,,47,211,9042172,,,,,,,2022-05-25,1,,,,,シーシーシーオキナワ,0
257,1430001086713,新規,0,2022-05-25,2022-05-25,株式会社北祥,,株式会社,北海道,札幌市豊平区,月寒東一条４丁目１番２２－８０３号,,01,105,0620051,,,,,,,2022-05-25,1,,,,,ホクショウ,0
259,1430003013946,新規,0,2022-05-25,2022-05-25,ｍａｃｏ　ｃａｃａｏ合同会社,,合同会社,北海道,札幌市南区,豊滝２丁目４番７号,,01,106,0612273,,,,,,,2022-05-25,1,,,,,マコカカオ,0
260,1430003013962,新規,0,2022-05-25,2022-05-25,合同会社Ｒｏｔｉ,,合同会社,北海道,札幌市白石区,菊水六条１丁目５番１号,,01,104,0030806,,,,,,,2022-05-25,1,,,,,ロティ,0
280,2010001226855,新規,0,2022-05-25,2022-05-25,株式会社ＴＳ,,株式会社,東京都,中央区,日本橋人形町３丁目１番１３号コムラビル６階,,13,102,1030013,,,,,,,2022-05-25,1,,,,,,0
288,2010401167443,新規,0,2022-05-25,2022-05-25,株式会社ＪＯＩＮＴ,,株式会社,東京都,港区,赤坂６丁目６－４赤坂栄ビル２０２,,13,103,1070052,,,,,,,2022-05-25,1,,,,,ジョイント,0
289,2010401167559,新規,0,2022-05-25,2022-05-25,株式会社リーフ・テック・パートナーズ,,株式会社,東京都,港区,虎ノ門４丁目１番２８号虎ノ門タワーズオフィス１９Ｆ,,13,103,1050001,,,,,,,2022-05-25,1,,,,,リーフテックパートナーズ,0
290,2010401167575,新規,0,2022-05-25,2022-05-25,株式会社Ｅｖｏｌｕｔｉｏｎ,,株式会社,東京都,港区,麻布十番１丁目７番３号,,13,103,1060045,,,,,,,2022-05-25,1,,,,,エヴォルーション,0
291,2010403027736,新規,0,2022-05-25,2022-05-25,合同会社ＣＲＥＷＮＥＣＫ,,合同会社,東京都,港区,浜松町２丁目２番１５号浜松町ダイヤビル２Ｆ,,13,103,1050013,,,,,,,2022-05-25,1,,,,,クルーネック,0
294,2010405021002,新規,0,2022-05-25,2022-05-25,一般社団法人Ｊａｚｚ　Ａｒｔｓ　Ｅｎｓｅｍｂｌｅ　ｏｆ　Ｔｏｋｙｏ,,その他の設立登記法人,東京都,港区,芝浦２丁目１４番７－６０１号,,13,103,1080023,,,,,,,2022-05-25,1,,,,,ジャズアーツアンサンブルオブトウキョウ,0
296,2010601061207,新規,0,2022-05-25,2022-05-25,株式会社すばる合資,,株式会社,東京都,墨田区,吾妻橋３丁目４－８,,13,107,1300001,,,,,,,2022-05-25,1,,,,,スバルゴウシ,0
301,2010803004178,新規,0,2022-05-25,2022-05-25,ＰＲＥＭＯ合同会社,,合同会社,東京都,大田区,池上５丁目４番１０号,,13,111,1460082,,,,,,,2022-05-25,1,,,,,プレモ,0
306,2011001147570,新規,0,2022-05-25,2022-05-25,ＡＣＩ株式会社,,株式会社,東京都,渋谷区,本町３丁目４９－１５トップルーム新宿公園第２－５１０号室,,13,113,1510071,,,,,,,2022-05-25,1,,,,,,0
307,2011001147629,新規,0,2022-05-25,2022-05-25,株式会社Ａｇ　Ｍａｒｋｅｔｉｎｇ,,株式会社,東京都,目黒区,鷹番１丁目６－８シャルマントメゾン１階,,13,110,1520004,,,,,,,2022-05-25,1,,,,,アッグマーケテイング,0
308,2011001147637,新規,0,2022-05-25,2022-05-25,株式会社ＰＭ,,株式会社,東京都,渋谷区,神宮前５丁目９番２３号,,13,113,1500001,,,,,,,2022-05-25,1,,,,,,0
309,2011001147678,新規,0,2022-05-25,2022-05-25,株式会社オフィス菊地,,株式会社,東京都,渋谷区,広尾４丁目１番２９－１０２号,,13,113,1500012,,,,,,,2022-05-25,1,,,,,オフィスキクチ,0
314,2011101098929,新規,0,2022-05-25,2022-05-25,株式会社エヌ・エス・オー,,株式会社,東京都,新宿区,若葉１丁目８番地４ウィントンベリーハウス四谷２４,,13,104,1600011,,,,,,,2022-05-25,1,,,,,エヌエスオー,0
336,2013301049141,新規,0,2022-05-25,2022-05-25,ＶＣＶ　ＨＥＡＬＴＨ　ＢＥＡＵＴＹ株式会社,,株式会社,東京都,豊島区,北大塚２丁目８番１２号３０２,,13,116,1700004,,,,,,,2022-05-25,1,,,,,ヴィシィヴィヘルスビューティー,0
343,2020001146631,新規,0,2022-05-25,2022-05-25,Ｆグループ株式会社,,株式会社,神奈川県,横浜市鶴見区,菅沢町２１番１８号,,14,101,2300027,,,,,,,2022-05-25,1,,,,,エフグループ,0
356,2030001148288,新規,0,2022-05-25,2022-05-25,株式会社服部興業,,株式会社,埼玉県,さいたま市見沼区,東大宮２丁目５１番地２－３０３,,11,104,3370051,,,,,,,2022-05-25,1,,,,,ハットリコウギョウ,0
357,2030001148313,新規,0,2022-05-25,2022-05-25,Ｔ＆Ｔ　ＪＡＰＡＮ株式会社,,株式会社,埼玉県,川口市,西川口１丁目９番２号西川口１９２ビル地下１階Ｂ１号,,11,203,3320021,,,,,,,2022-05-25,1,,,,,ティアンドティジャパン,0
358,2030001148321,新規,0,2022-05-25,2022-05-25,株式会社花奏,,株式会社,埼玉県,久喜市,栗橋中央１丁目１４番１号,,11,232,3491102,,,,,,,2022-05-25,1,,,,,カナデ,0
359,2030001148338,新規,0,2022-05-25,2022-05-25,株式会社Ｄ‐ｗｏｒｋｓ,,株式会社,埼玉県,入間市,大字下藤沢６７１番地の１,,11,225,3580011,,,,,,,2022-05-25,1,,,,,ディーワークス,0
361,2030003019462,新規,0,2022-05-25,2022-05-25,合同会社ＮＯＷ３７,,合同会社,埼玉県,秩父市,大野原３３４番地５,,11,207,3680005,,,,,,,2022-05-25,1,,,,,ナウミナ,0
362,2030005020872,新規,0,2022-05-25,2022-05-25,一般社団法人明泰社,,その他の設立登記法人,埼玉県,越谷市,越ヶ谷１丁目３番８号１階,,11,222,3430813,,,,,,,2022-05-25,1,,,,,メイタイシャ,0
372,2040001123505,新規,0,2022-05-25,2022-05-25,株式会社ＮＯＣ,,株式会社,千葉県,千葉市若葉区,貝塚町５６５番地４,00126660,12,104,2640023,,,,,,,2022-05-25,1,,,,,エヌオーシー,0
373,2040003020072,新規,0,2022-05-25,2022-05-25,来令合同会社,,合同会社,千葉県,成田市,本城３３－６,,12,211,2860114,,,,,,,2022-05-25,1,,,,,ライレイ,0
374,2040003020080,新規,0,2022-05-25,2022-05-25,合同会社大善産業,,合同会社,千葉県,袖ケ浦市,今井２１９７番地５,,12,229,2990264,,,,,,,2022-05-25,1,,,,,ダイゼンサンギョウ,0
375,2040003020089,新規,0,2022-05-25,2022-05-25,合同会社Ｐ．Ｉ．Ｂ,,合同会社,千葉県,柏市,十余二２４８番地３２２（１０１）,,12,217,2770872,,,,,,,2022-05-25,1,,,,,ピーアイビー,0
381,2060001034898,新規,0,2022-05-25,2022-05-25,株式会社三浦鉄筋工業,,株式会社,栃木県,大田原市,鹿畑４番地４１,,09,210,3240013,,,,,,,2022-05-25,1,,,,,ミウラテッキンコウギョウ,0
388,2060003004081,新規,0,2022-05-25,2022-05-25,ＤｏｕｂｌｅＢａｒｒｅｌ合同会社,,合同会社,栃木県,宇都宮市,御幸本町４６５７番地５号,,09,201,3210983,,,,,,,2022-05-25,1,,,,,ダブルバレル,0
392,2070005009994,新規,0,2022-05-25,2022-05-25,特定非営利活動法人奥利根自然センター,,その他の設立登記法人,群馬県,利根郡みなかみ町,下津２９５３番地２,,10,449,3791314,,,,,,,2022-05-25,1,,,,,オクトネシゼンセンター,0
398,2100001035371,新規,0,2022-05-25,2022-05-25,株式会社大松,,株式会社,長野県,上田市,下塩尻１３１２番地,,20,203,3860043,,,,,,,2022-05-25,1,,,,,ダイマツ,0
412,2120001246066,新規,0,2022-05-25,2022-05-25,株式会社ココケア,,株式会社,大阪府,大阪市福島区,福島２丁目１０番１９－３１０号,,27,103,5530003,,,,,,,2022-05-25,1,,,,,ココケア,0
413,2120001246082,新規,0,2022-05-25,2022-05-25,グリーンホースリムジン株式会社,,株式会社,大阪府,大阪市都島区,片町１丁目３番１１号ＪＣ大阪ビル,,27,102,5340025,,,,,,,2022-05-25,1,,,,,グリーンホースリムジン,0
414,2120001246090,新規,0,2022-05-25,2022-05-25,株式会社栄プラスプロモーション,,株式会社,大阪府,大阪市中央区,南本町３丁目３番２２号本町エイトビル２Ｆ,,27,128,5410054,,,,,,,2022-05-25,1,,,,,サカエプラスプロモーション,0
415,2120001246099,新規,0,2022-05-25,2022-05-25,友良株式会社,,株式会社,大阪府,大阪市阿倍野区,天王寺町南２丁目６番３号,,27,119,5450002,,,,,,,2022-05-25,1,,,,,トモヨシ,0
417,2120003021748,新規,0,2022-05-25,2022-05-25,ＤＩＰＡ　ＧＬＯＢＡＬ合同会社,,合同会社,大阪府,大阪市生野区,桃谷２丁目２６番２０号,,27,116,5440034,,,,,,,2022-05-25,1,,,,,ディパグローバル,0
418,2120003021756,新規,0,2022-05-25,2022-05-25,合同会社中島,,合同会社,大阪府,大阪市港区,弁天３丁目１８番１号１００２号室,,27,107,5520007,,,,,,,2022-05-25,1,,,,,ナカジマ,0
420,2120101065630,新規,0,2022-05-25,2022-05-25,株式会社ＮＡＮＡ　ＡＵＴＯ,,株式会社,大阪府,富田林市,大字廿山６４１番地２,,27,214,5840081,,,,,,,2022-05-25,1,,,,,ナナオート,0
421,2120901045996,新規,0,2022-05-25,2022-05-25,株式会社ｕｎｖｉｇｉｎｔｉｌｌｉｏｎ,,株式会社,大阪府,高槻市,大和１丁目１番２８号,,27,207,5691047,,,,,,,2022-05-25,1,,,,,アンビジティリオン,0
426,2130001071819,新規,0,2022-05-25,2022-05-25,株式会社正工務店,,株式会社,京都府,京都市北区,西賀茂井ノ口町３５番地,,26,101,6038804,,,,,,,2022-05-25,1,,,,,マサコウムテン,0
429,2140001126092,新規,0,2022-05-25,2022-05-25,株式会社サンテクト,,株式会社,兵庫県,神戸市北区,鈴蘭台北町９丁目５－１,,28,109,6511111,,,,,,,2022-05-25,1,,,,,サンテクト,0
430,2140001126101,新規,0,2022-05-25,2022-05-25,３Ｆ株式会社,,株式会社,兵庫県,姫路市,忍町２０７番地シャトー三和３号館２０１,,28,201,6700917,,,,,,,2022-05-25,1,,,,,サンエフ,0
433,2150003002687,新規,0,2022-05-25,2022-05-25,合同会社ベッツフォース,,合同会社,奈良県,生駒市,白庭台３丁目１３番１号,,29,209,6300136,,,,,,,2022-05-25,1,,,,,ベッツフォース,0
444,2180003023838,新規,0,2022-05-25,2022-05-25,月下美人企画合同会社,,合同会社,愛知県,大府市,桃山町２丁目２８６グリーンハイツ桃山１０６号室,,23,223,4740026,,,,,,,2022-05-25,1,,,,,ゲッカビジンキカク,0
448,2190001029423,新規,0,2022-05-25,2022-05-25,ＢＥＴＯＮ　ＤＸ株式会社,,株式会社,三重県,四日市市,諏訪栄町４－１０アピカビル３Ｆ,,24,202,5100086,,,,,,,2022-05-25,1,,,,,ベトンディエックス,0
453,2220005008675,新規,0,2022-05-25,2022-05-25,一般社団法人手技療術研究所,,その他の設立登記法人,石川県,金沢市,入江２丁目１１番地,,17,201,9218011,,,,,,,2022-05-25,1,,,,,シュギリョウジュツケンキュウショ,0
464,2250005008747,新規,0,2022-05-25,2022-05-25,一般社団法人からまち,,その他の設立登記法人,山口県,下関市,唐戸町２番１２号プロートン泰平１階,,35,201,7500005,,,,,,,2022-05-25,1,,,,,カラマチ,0
470,2260001036866,新規,0,2022-05-25,2022-05-25,株式会社ＲＥＮ,,株式会社,岡山県,岡山市北区,下中野７０９番地１０７,,33,101,7000973,,,,,,,2022-05-25,1,,,,,レン,0
475,2290001097617,新規,0,2022-05-25,2022-05-25,株式会社満月の光,,株式会社,福岡県,みやま市,瀬高町下庄２４４３番地３,,40,229,8350024,,,,,,,2022-05-25,1,,,,,マンゲツノヒカリ,0
479,2310001017869,新規,0,2022-05-25,2022-05-25,酒井鉄筋株式会社,,株式会社,長崎県,島原市,有明町湯江丁３１３２番地,,42,203,8591404,,,,,,,2022-05-25,1,,,,,サカイテツキン,0
490,2370001048578,新規,0,2022-05-25,2022-05-25,株式会社ＣＨＡＮＤＲＡ,,株式会社,宮城県,仙台市青葉区,郷六字葛岡下４９番地の１２広瀬の杜１番館１０７,,04,101,9893121,,,,,,,2022-05-25,1,,,,,チャンドラ,0
492,2370003005701,新規,0,2022-05-25,2022-05-25,合同会社Ｖｉｔａ　Ｔｉｐｏ,,合同会社,宮城県,仙台市太白区,西多賀２丁目１４番２１号,,04,104,9820034,,,,,,,2022-05-25,1,,,,,ヴィータティーポ,0
502,2410001013189,新規,0,2022-05-25,2022-05-25,株式会社きらら・ノース・イースト,,株式会社,秋田県,大仙市,富士見町１１番１０号,,05,212,0140011,,,,,,,2022-05-25,1,,,,,キララノースイースト,0
510,2430001086720,新規,0,2022-05-25,2022-05-25,Ｍｙｂｅｌｌｅ株式会社,,株式会社,北海道,札幌市東区,北二十条東８丁目４番１１－２０２号,,01,103,0650020,,,,,,,2022-05-25,1,,,,,ミベル,0
511,2430003013945,新規,0,2022-05-25,2022-05-25,ＪＡＮＡＴ　ＴＲＡＤＩＮＧ合同会社,,合同会社,北海道,石狩市,花川北二条２丁目２０２番地４ラミアール石狩１０３号,,01,235,0613212,,,,,,,2022-05-25,1,,,,,,0
512,2430003013953,新規,0,2022-05-25,2022-05-25,ｐｅｒｒｏ合同会社,,合同会社,北海道,札幌市手稲区,富丘五条３丁目５－１０,,01,109,0060015,,,,,,,2022-05-25,1,,,,,ペロ,0
522,2490001010187,新規,0,2022-05-25,2022-05-25,株式会社まごころ不動産,,株式会社,高知県,土佐市,高岡町乙３３７３番地５,,39,205,7811102,,,,,,,2022-05-25,1,,,,,マゴコロフドウサン,0
526,2700150108900,新規,0,2022-05-25,2022-05-20,Ｍ　ｍｕｓｉｃ,,その他,神奈川県,川崎市宮前区,白幡台２丁目２－３－７－１０８,,14,136,2160025,,,,,,,2022-05-20,1,,,,,エムミユージツク,0
536,3010001226854,新規,0,2022-05-25,2022-05-25,株式会社Ｅ‐ＦＡＳ,,株式会社,東京都,中央区,晴海５丁目１－１７－９１０,,13,102,1040053,,,,,,,2022-05-25,1,,,,,イーファス,0
537,3010001226879,新規,0,2022-05-25,2022-05-25,ＩＬＳホールディングス株式会社,,株式会社,東京都,千代田区,永田町１丁目１１番３０号,,13,101,1000014,,,,,,,2022-05-25,1,,,,,アイエルエスホールディングス,0
542,3010401167269,新規,0,2022-05-25,2022-05-25,Ａｋｕｒ８　Ｊａｐａｎ株式会社,,株式会社,東京都,港区,東麻布１丁目２３番５号ＰＭＣビル２Ｆ,,13,103,1060044,,,,,,,2022-05-25,1,,,,,アキュレイトジャパン,0
543,3010401167418,新規,0,2022-05-25,2022-05-25,株式会社ＴＨＥ　ＭＡＮＡＧＥＭＥＮＴ,,株式会社,東京都,港区,北青山３丁目６－７青山パラシオタワー１１階,,13,103,1070061,,,,,,,2022-05-25,1,,,,,ザマネジメント,0
544,3010401167541,新規,0,2022-05-25,2022-05-25,鍼処ＳＨＩＲＡＫＡＷＡ株式会社,,株式会社,東京都,港区,浜松町１丁目３番２号,,13,103,1050013,,,,,,,2022-05-25,1,,,,,ハリドコロシラカワ,0
568,3011001147578,新規,0,2022-05-25,2022-05-25,株式会社アイウエオ,,株式会社,東京都,渋谷区,松濤２丁目１６番１号,,13,113,1500046,,,,,,,2022-05-25,1,,,,,アイウエオ,0
569,3011001147677,新規,0,2022-05-25,2022-05-25,ＨＴＭパートナーズ株式会社,,株式会社,東京都,目黒区,青葉台２丁目１番１８号,,13,110,1530042,,,,,,,2022-05-25,1,,,,,エイチティーエムパートナーズ,0
570,3011001147702,新規,0,2022-05-25,2022-05-25,株式会社ｉｉｂａ,,株式会社,東京都,渋谷区,円山町５番５号Ｎａｖｉ渋谷Ｖ３階,,13,113,1500044,,,,,,,2022-05-25,1,,,,,イイバ,0
571,3011001147719,新規,0,2022-05-25,2022-05-25,株式会社ＯＮＯ　ｃｏｒｐｏｒａｔｉｏｎ,,株式会社,東京都,渋谷区,渋谷１丁目１番３号アミーホール３－４Ｆ,,13,113,1500002,,,,,,,2022-05-25,1,,,,,オノコーポレーション,0
572,3011001147727,新規,0,2022-05-25,2022-05-25,株式会社ＹＯＲＩＩ,,株式会社,東京都,渋谷区,大山町１５番７－１０１号,,13,113,1510065,,,,,,,2022-05-25,1,,,,,ヨリイ,0
574,3011003014727,新規,0,2022-05-25,2022-05-25,ＤｅｘＣｏｍ　Ｊａｐａｎ合同会社,,合同会社,東京都,渋谷区,恵比寿南３丁目１番１号恵比寿グリーングラス９１０号室,,13,113,1500022,,,,,,,2022-05-25,1,,,,,デクスコムジャパン,0
578,3011101098936,新規,0,2022-05-25,2022-05-25,Ｐｒｉｍｅ　Ｔｒａｃｋ株式会社,,株式会社,東京都,新宿区,高田馬場４丁目３８番１７号,,13,104,1690075,,,,,,,2022-05-25,1,,,,,プライムトラック,0
579,3011101098952,新規,0,2022-05-25,2022-05-25,Ｍｅｔａ　Ｃｒｅａｔｉｖｅ株式会社,,株式会社,東京都,新宿区,北新宿１丁目１２番１１号エトワールビル北新宿６０１号室,,13,104,1690074,,,,,,,2022-05-25,1,,,,,メタクリエイティブ,0
580,3011101098960,新規,0,2022-05-25,2022-05-25,ＫＫｄａｙ　Ｈｏｌｄｉｎｇｓ株式会社,,株式会社,東京都,新宿区,四谷１丁目２２番地５ＷＥＳＴＡＬＬ四谷ビル２階,,13,104,1600004,,,,,,,2022-05-25,1,,,,,ケイケイディホールディングス,0
581,3011103011780,新規,0,2022-05-25,2022-05-25,トライフロンティア合同会社,,合同会社,東京都,新宿区,四谷三栄町４番１４号ラシクラス四谷２０１,,13,104,1600008,,,,,,,2022-05-25,1,,,,,トライフロンティア,0
589,3011601025976,新規,0,2022-05-25,2022-05-25,株式会社ＯＳＰ,,株式会社,東京都,練馬区,北町２丁目２７番８号,,13,120,1790081,,,,,,,2022-05-25,1,,,,,オーエスピー,0
591,3011801040759,新規,0,2022-05-25,2022-05-25,Ｆｉｊｉ　Ｅｎｅｒｇｙ＆Ｖｅｈｉｃｌｅ株式会社,,株式会社,東京都,葛飾区,青戸７丁目２３番１１号,,13,122,1250062,,,,,,,2022-05-25,1,,,,,フィジエナジーアンドビークル,0
596,3012401039225,新規,0,2022-05-25,2022-05-25,株式会社康樹園,,株式会社,東京都,府中市,紅葉丘３丁目２０－８,,13,206,1830004,,,,,,,2022-05-25,1,,,,,コウジュエン,0
597,3012401039233,新規,0,2022-05-25,2022-05-25,株式会社インターナショナルシステムパッケージング,,株式会社,東京都,多摩市,関戸４丁目１１番地の７,,13,224,2060011,,,,,,,2022-05-25,1,,,,,インターナショナルシステムパッケージング,0
601,3012805003124,新規,0,2022-05-25,2022-05-25,一般社団法人ＧＵＥＳＴＨＯＵＳＥ祥,,その他の設立登記法人,東京都,昭島市,美堀町２丁目９番３号,,13,207,1960001,,,,,,,2022-05-25,1,,,,,ゲストハウスショウ,0
602,3013301049132,新規,0,2022-05-25,2022-05-25,ＩＦＵＮ　ＴＥＣＨＮＯＬＯＧＹ　ＪＡＰＡＮ株式会社,,株式会社,東京都,豊島区,池袋４丁目１５番８号頭川ビル２０１号室,,13,116,1710014,,,,,,,2022-05-25,1,,,,,アイファンテクノロジージャパン,0
607,3020001146614,新規,0,2022-05-25,2022-05-25,株式会社ＢａｙＬｉｆｅＪａｐａｎ,,株式会社,神奈川県,横浜市中区,元町４丁目１６８番地,,14,104,2310861,,,,,,,2022-05-25,1,,,,,ベイライフジャパン,0
608,3020001146622,新規,0,2022-05-25,2022-05-25,株式会社センチュリオン,,株式会社,神奈川県,横浜市南区,共進町２丁目４６番地,,14,105,2320015,,,,,,,2022-05-25,1,,,,,センチュリオン,0
609,3020001146630,新規,0,2022-05-25,2022-05-25,株式会社Ｔｓｕｍｕｇｕ．５８,,株式会社,神奈川県,横浜市南区,別所１丁目５番２４号加藤ビル１０１号室,,14,105,2320064,,,,,,,2022-05-25,1,,,,,ツムグドットゴーハチ,0
612,3020002108737,新規,0,2022-05-25,2022-05-25,有限会社丸光住宅,,有限会社,神奈川県,川崎市高津区,二子６２０番地,,14,134,2130002,,,,,,,2022-05-25,1,,,,,マルコウジュウタク,0
614,3020003021781,新規,0,2022-05-25,2022-05-25,ｋｏｍｏＴｒａｄｅ合同会社,,合同会社,神奈川県,川崎市中原区,市ノ坪４４９番地３シティタワー武蔵小杉２３０５,,14,133,2110016,,,,,,,2022-05-25,1,,,,,コモトレード,0
615,3020003021815,新規,0,2022-05-25,2022-05-25,合同会社イナンナ,,合同会社,神奈川県,横浜市都筑区,勝田町１３７２番地１,,14,118,2240034,,,,,,,2022-05-25,1,,,,,イナンナ,0
623,3030001148320,新規,0,2022-05-25,2022-05-25,株式会社オウカ,,株式会社,埼玉県,川口市,領家２丁目１３－７,,11,203,3320004,,,,,,,2022-05-25,1,,,,,オウカ,0
624,3030001148329,新規,0,2022-05-25,2022-05-25,株式会社Ｗｉｌｌ,,株式会社,埼玉県,川口市,幸町３丁目９番１８号守屋ビル２階,,11,203,3320016,,,,,,,2022-05-25,1,,,,,ウィル,0
625,3030001148337,新規,0,2022-05-25,2022-05-25,株式会社大三住設,,株式会社,埼玉県,北葛飾郡杉戸町,杉戸２丁目１６番１５号,,11,464,3450036,,,,,,,2022-05-25,1,,,,,ダイサンジュウセツ,0
626,3030001148361,新規,0,2022-05-25,2022-05-25,ＮＲＬ株式会社,,株式会社,埼玉県,さいたま市大宮区,桜木町２丁目３番地大宮マルイ７階,,11,103,3300854,,,,,,,2022-05-25,1,,,,,エヌアールエル,0
634,3040001123512,新規,0,2022-05-25,2022-05-25,株式会社信義,,株式会社,千葉県,千葉市稲毛区,穴川３丁目５番２７号上総ビル３０３号,,12,103,2630024,,,,,,,2022-05-25,1,,,,,シンギ,0
635,3040001123537,新規,0,2022-05-25,2022-05-25,株式会社グラバス,,株式会社,千葉県,千葉市中央区,生実町１２１７番地１,,12,101,2600813,,,,,,,2022-05-25,1,,,,,グラバス,0
637,3040003020096,新規,0,2022-05-25,2022-05-25,合同会社エンライテンド,,合同会社,千葉県,柏市,若柴１７８－４パークアクシス柏の葉１０１０,,12,217,2770871,,,,,,,2022-05-25,1,,,,,エンライテンド,0
639,3050001051118,新規,0,2022-05-25,2022-05-25,ＭＡＬＩＫ　ＴＲＡＤＩＮＧ株式会社,,株式会社,茨城県,猿島郡境町,大字栗山４９０番地７,,08,546,3060412,,,,,,,2022-05-25,1,,,,,マリクトレイディング,0
644,3050003006573,新規,0,2022-05-25,2022-05-25,合同会社ＬＭＪ,,合同会社,茨城県,筑西市,下川島８１９の６１,,08,227,3080855,,,,,,,2022-05-25,1,,,,,エルエムジェー,0
648,3060001034897,新規,0,2022-05-25,2022-05-25,ＴＡライン株式会社,,株式会社,栃木県,足利市,八椚町１０５番地２,,09,202,3260015,,,,,,,2022-05-25,1,,,,,ティーエーライン,0
649,3060001034906,新規,0,2022-05-25,2022-05-25,イナズマ株式会社,,株式会社,栃木県,宇都宮市,上戸祭３丁目１－１５,,09,201,3200058,,,,,,,2022-05-25,1,,,,,イナズマ,0
654,3080003002801,新規,0,2022-05-25,2022-05-25,合同会社ＡＫプラス,,合同会社,静岡県,静岡市駿河区,下島３４５－１、３階,,22,102,4228037,,,,,,,2022-05-25,1,,,,,エーケープラス,0
655,3080103002585,新規,0,2022-05-25,2022-05-25,合同会社伊豆企画,,合同会社,静岡県,伊東市,吉田８３６番地の１２０レジデンス一碧１０１,,22,208,4140051,,,,,,,2022-05-25,1,,,,,イズキカク,0
656,3080103002593,新規,0,2022-05-25,2022-05-25,合同会社Ｅ＆Ｖ　ＥＸＰＯＲＴＥＲＳ,,合同会社,静岡県,富士宮市,舞々木町５４８番地,,22,207,4180015,,,,,,,2022-05-25,1,,,,,イーアンドヴィーエクスポータース,0
662,3100001035370,新規,0,2022-05-25,2022-05-25,株式会社ラフクラフト,,株式会社,長野県,長野市,上松２丁目２１番７号,,20,201,3800802,,,,,,,2022-05-25,1,,,,,ラフクラフト,0
684,3120001246032,新規,0,2022-05-25,2022-05-25,株式会社ＡＱＳコート,,株式会社,大阪府,大阪市此花区,島屋６丁目２－７－４１３,,27,104,5540024,,,,,,,2022-05-25,1,,,,,エーキューエスコート,0
685,3120001246098,新規,0,2022-05-25,2022-05-25,株式会社和泉,,株式会社,大阪府,大阪市西区,立売堀１丁目２番１４号,,27,106,5500012,,,,,,,2022-05-25,1,,,,,イズミ,0
687,3120003021755,新規,0,2022-05-25,2022-05-25,合同会社Ｆｉｎｅ　Ａｃｔ,,合同会社,大阪府,大阪市鶴見区,緑３丁目１２番１５号,,27,124,5380054,,,,,,,2022-05-25,1,,,,,ファインアクト,0
696,3130001071818,新規,0,2022-05-25,2022-05-25,株式会社Ｅ‐ＷＩＮＧ,,株式会社,京都府,京都市北区,紫野上柏野町４６番地２９,,26,101,6038311,,,,,,,2022-05-25,1,,,,,イーウイング,0
697,3130001071834,新規,0,2022-05-25,2022-05-25,株式会社ＩＫＩＺＡＭＡ,,株式会社,京都府,京都市伏見区,東堺町５４５－２,,26,109,6128066,,,,,,,2022-05-25,1,,,,,イキザマ,0
699,3130003007943,新規,0,2022-05-25,2022-05-25,合同会社Ｔ２,,合同会社,京都府,京都市南区,上鳥羽塔ノ森東向町１９－４,,26,107,6018151,,,,,,,2022-05-25,1,,,,,ティーツー,0
703,3140001126075,新規,0,2022-05-25,2022-05-25,グッドフィールド株式会社,,株式会社,兵庫県,神戸市中央区,北野町３丁目１１番８号,,28,110,6500002,,,,,,,2022-05-25,1,,,,,グッドフィールド,0
704,3140001126109,新規,0,2022-05-25,2022-05-25,株式会社フェニックス,,株式会社,兵庫県,神戸市垂水区,塩屋町６丁目３３番１０号,,28,108,6550872,,,,,,,2022-05-25,1,,,,,フェニックス,0
705,3140001126117,新規,0,2022-05-25,2022-05-25,株式会社エイビス,,株式会社,兵庫県,西宮市,馬場町６番２０－１００４号,,28,204,6620915,,,,,,,2022-05-25,1,,,,,エイビス,0
713,3150001025557,新規,0,2022-05-25,2022-05-25,セントラル商事株式会社,,株式会社,奈良県,生駒市,本町９番４号,,29,209,6300256,,,,,,,2022-05-25,1,,,,,セントラルショウジ,0
716,3170003001728,新規,0,2022-05-25,2022-05-25,合同会社ｍｉｎｄ３５８,,合同会社,和歌山県,和歌山市,新庄５１７番地１,,30,201,6496264,,,,,,,2022-05-25,1,,,,,マインドサンゴハチ,0
723,3180001151400,新規,0,2022-05-25,2022-05-25,ＵＰｏｎｅ株式会社,,株式会社,愛知県,名古屋市中川区,富船町３丁目１番地１ソーラスフロント富船１２０７号,,23,110,4540823,,,,,,,2022-05-25,1,,,,,アップワン,0
729,3190001029430,新規,0,2022-05-25,2022-05-25,株式会社オガワコーポレーション,,株式会社,三重県,伊賀市,服部町１６８０番地,,24,216,5180007,,,,,,,2022-05-25,1,,,,,オガワコーポレーション,0
731,3190003003994,新規,0,2022-05-25,2022-05-25,合同会社ＳＹＭＯＯＹ　Ｃａｔｓ,,合同会社,三重県,鈴鹿市,末広北２丁目１０番７号,,24,207,5130854,,,,,,,2022-05-25,1,,,,,シモーイキャッツ,0
743,3250003003071,新規,0,2022-05-25,2022-05-25,合同会社ＣＷＳ,,合同会社,山口県,下松市,大字末武中４１番６グランドソレイユ１－０２,,35,207,7440023,,,,,,,2022-05-25,1,,,,,シーダブリューエス,0
744,3250005008746,新規,0,2022-05-25,2022-05-25,一般社団法人ＹＵＭＥＰＲＯＪＥＣＴ,,その他の設立登記法人,山口県,宇部市,大字西岐波４１６７番地１０,,35,202,7550151,,,,,,,2022-05-25,1,,,,,ユメプロジェクト,0
747,3260001036873,新規,0,2022-05-25,2022-05-25,株式会社なりとも不動産,,株式会社,岡山県,岡山市中区,中納言町６番３６号ビ・ウェル中納言８０２号,,33,102,7038292,,,,,,,2022-05-25,1,,,,,ナリトモフドウサン,0
751,3290001097624,新規,0,2022-05-25,2022-05-25,メディライフ製薬株式会社,,株式会社,福岡県,福岡市中央区,渡辺通５丁目１４番１２号南天神ビル３Ｆ,,40,133,8100004,,,,,,,2022-05-25,1,,,,,メディライフセイヤク,0
752,3290001097649,新規,0,2022-05-25,2022-05-25,ＷＥＬＬ　ＭＹ　ＵＰ株式会社,,株式会社,福岡県,福岡市博多区,博多駅前３丁目１２番３号８Ｆ－Ａ,,40,132,8120011,,,,,,,2022-05-25,1,,,,,ウェルマイアップ,0
755,3290005018691,新規,0,2022-05-25,2022-05-25,一般社団法人食品安全認証機構,,その他の設立登記法人,福岡県,福岡市早良区,百道浜１丁目３番７０号,,40,137,8140001,,,,,,,2022-05-25,1,,,,,ショクヒンアンゼンニンショウキコウ,0
761,3330003009382,新規,0,2022-05-25,2022-05-25,合同会社ＭＯＭＯＴＡＲＯＯ,,合同会社,熊本県,熊本市北区,植木町平井９８７番地１,,43,105,8610121,,,,,,,2022-05-25,1,,,,,モモタロウ,0
764,3360003012029,新規,0,2022-05-25,2022-05-25,合同会社協熱,,合同会社,沖縄県,沖縄市,泡瀬５丁目３５番２２号,,47,211,9042172,,,,,,,2022-05-25,1,,,,,キョウネツ,0
765,3360003012037,新規,0,2022-05-25,2022-05-25,合同会社琉球ハウスクリーン,,合同会社,沖縄県,那覇市,字田原６６番地２２カトレアハイム１０２,,47,201,9010156,,,,,,,2022-05-25,1,,,,,リュウキュウハウスクリーン,0
781,3370001048577,新規,0,2022-05-25,2022-05-25,株式会社ＲＲＫ,,株式会社,宮城県,仙台市青葉区,折立１丁目１９番２７号,,04,101,9820261,,,,,,,2022-05-25,1,,,,,アールアールケー,0
792,3380005012586,新規,0,2022-05-25,2022-05-25,社会保険労務士法人ｏｆｆｉｃｅにへい,,その他の設立登記法人,福島県,会津若松市,中央１丁目５番２９号Ｂ．Ｓｔｅｐ２０２,,07,202,9650037,,,,,,,2022-05-25,1,,,,,オフィスニヘイ,0
801,3430003013936,新規,0,2022-05-25,2022-05-25,合同会社ｅｍｐ,,合同会社,北海道,札幌市北区,北二十七条西７丁目３―７―５,,01,102,0010027,,,,,,,2022-05-25,1,,,,,イーエムピー,0
808,3470001019089,新規,0,2022-05-25,2022-05-25,株式会社オクタニ,,株式会社,香川県,高松市,十川東町１８７５番地１,,37,201,7610434,,,,,,,2022-05-25,1,,,,,オクタニ,0
811,3490003001662,新規,0,2022-05-25,2022-05-25,合同会社みかづき,,合同会社,高知県,高知市,一宮中町３丁目２５番地１Ｍ’ｓＢｅｅ３１５号室,,39,201,7818134,,,,,,,2022-05-25,1,,,,,ミカヅキ,0
820,4010001226829,新規,0,2022-05-25,2022-05-25,株式会社ｄｙｂｅｒ,,株式会社,東京都,千代田区,二番町９－３ＴＨＥＢＡＳＥ麹町,,13,101,1020084,,,,,,,2022-05-25,1,,,,,ダイバー,0
823,4010003037745,新規,0,2022-05-25,2022-05-25,合同会社Ｍａｊｏｒ　Ｇｏｕｒｍｅｔ,,合同会社,東京都,文京区,湯島３丁目３５－９,,13,105,1130034,,,,,,,2022-05-25,1,,,,,メジャーグルメ,0
826,4010005035061,新規,0,2022-05-25,2022-05-25,一般社団法人ネットワーク・セキュリティ戦略研究所,,その他の設立登記法人,東京都,千代田区,神田駿河台１丁目７番地ＹＫ駿河台ビル７階,,13,101,1010062,,,,,,,2022-05-25,1,,,,,ネットワークセキュリティセンリャクケンキュウショ,0
832,4010401167532,新規,0,2022-05-25,2022-05-25,株式会社ＭＯＡＮＡ土肥産業医事務所,,株式会社,東京都,港区,芝浦４丁目２０番２号,,13,103,1080023,,,,,,,2022-05-25,1,,,,,モアナドヒサンギョウイジムショ,0
833,4010401167540,新規,0,2022-05-25,2022-05-25,株式会社Ｍｉｚｍｉｎ,,株式会社,東京都,港区,六本木４丁目８番７号六本木嶋田ビル３階,,13,103,1060032,,,,,,,2022-05-25,1,,,,,ミズミン,0
838,4010403027668,新規,0,2022-05-25,2022-05-25,合同会社ＦＯＮＤ,,合同会社,東京都,港区,赤坂３丁目６番１３号赤坂ＭＴビル２階,,13,103,1070052,,,,,,,2022-05-25,1,,,,,フォン,0
840,4010405020992,新規,0,2022-05-25,2022-05-25,一般社団法人ひだまり福祉会,,その他の設立登記法人,東京都,港区,港南２丁目１６番１号品川イーストワンタワー４階,,13,103,1080075,,,,,,,2022-05-25,1,,,,,ヒダマリフクシカイ,0
845,4010601061196,新規,0,2022-05-25,2022-05-25,株式会社七転八倒九起十駕,,株式会社,東京都,墨田区,八広４丁目１６番６－６０１号ノバ墨田,,13,107,1310041,,,,,,,2022-05-25,1,,,,,シチテンバットウキュウオキジュウガ,0
846,4010601061205,新規,0,2022-05-25,2022-05-25,株式会社Ｌｉｋｅ　Ｊａｐａｎ,,株式会社,東京都,墨田区,向島３丁目３４番５号北斗ビル１Ｆ,,13,107,1310033,,,,,,,2022-05-25,1,,,,,ライクジャパン,0
851,4010701042666,新規,0,2022-05-25,2022-05-25,株式会社トータルクリエイツ,,株式会社,東京都,品川区,東五反田２丁目８－５ＫＮビル５階,,13,109,1410022,,,,,,,2022-05-25,1,,,,,トータルクリエイツ,0
864,4011001146827,新規,0,2022-05-25,2022-05-25,ＮＣＫ　Ｊａｐａｎ株式会社,,株式会社,東京都,渋谷区,渋谷１丁目１９番１８－１４０３号,,13,113,1500002,,,,,,,2022-05-25,1,,,,,エヌシーケージャパン,0
865,4011001147635,新規,0,2022-05-25,2022-05-25,株式会社茅クリエーション,,株式会社,東京都,渋谷区,渋谷２丁目１９番１５号宮益坂ビルディング６０９,,13,113,1500002,,,,,,,2022-05-25,1,,,,,カヤクリエーション,0
866,4011001147676,新規,0,2022-05-25,2022-05-25,株式会社Ｒｅｂｏｏｔ　Ｎａｋｅｄ,,株式会社,東京都,渋谷区,渋谷２丁目１４番１３号,,13,113,1500002,,,,,,,2022-05-25,1,,,,,リブートネイキッド,0
867,4011001147684,新規,0,2022-05-25,2022-05-25,ｎｅｗｔｒａｃｅ株式会社,,株式会社,東京都,渋谷区,道玄坂２丁目１０番７号,,13,113,1500043,,,,,,,2022-05-25,1,,,,,ニュートレース,0
868,4011001147718,新規,0,2022-05-25,2022-05-25,株式会社Ｆｉｆｔｙ　Ｔｈｉｒｄ　Ｉｎｔｅｒｎａｔｉｏｎａｌ,,株式会社,東京都,渋谷区,神宮前２丁目２１番１４号プラザＦ３・２Ｆ,,13,113,1500001,,,,,,,2022-05-25,1,,,,,フィフティーサードインターナショナル,0
877,4011101098935,新規,0,2022-05-25,2022-05-25,ＡＴＯＸＩＯＳ株式会社,,株式会社,東京都,新宿区,百人町３丁目１０番２号,,13,104,1690073,,,,,,,2022-05-25,1,,,,,アトシオス,0
878,4011101098951,新規,0,2022-05-25,2022-05-25,株式会社ハイム,,株式会社,東京都,新宿区,西新宿３丁目３番１３号西新宿水間ビル６階,,13,104,1600023,,,,,,,2022-05-25,1,,,,,ハイム,0
894,4012401039232,新規,0,2022-05-25,2022-05-25,株式会社ＦＲＡＣＴＡＬ,,株式会社,東京都,稲城市,平尾２丁目１９番地の１ＳＩＣビル２Ｆ－Ｃ号室,,13,225,2060823,,,,,,,2022-05-25,1,,,,,フラクタル,0
895,4012703002458,新規,0,2022-05-25,2022-05-25,リオンクリエイション合同会社,,合同会社,東京都,東村山市,美住町２丁目２７番地３０,,13,213,1890023,,,,,,,2022-05-25,1,,,,,リオンクリエイション,0
896,4012805003123,新規,0,2022-05-25,2022-05-25,一般社団法人日本心理セラピー・カウンセリング普及協会,,その他の設立登記法人,東京都,日野市,落川７８６番地,,13,212,1910034,,,,,,,2022-05-25,1,,,,,ニホンシンリセラピーカウンセリングフキュウキョウカイ,0
903,4020001146621,新規,0,2022-05-25,2022-05-25,株式会社ステップトゥユー,,株式会社,神奈川県,横浜市中区,桜木町１丁目１０１番地１クロスゲート７階,,14,104,2310062,,,,,,,2022-05-25,1,,,,,ステップトゥユー,0
907,4020003021822,新規,0,2022-05-25,2022-05-25,ＪＨＵＴ合同会社,,合同会社,神奈川県,横浜市神奈川区,栄町５番地１横浜クリエーションスクエア１４階,,14,102,2210052,,,,,,,2022-05-25,1,,,,,ジェイハット,0
913,4021005012529,新規,0,2022-05-25,2022-05-25,一般社団法人ＡＬＴＡＭ,,その他の設立登記法人,神奈川県,平塚市,明石町１４番８号,,14,203,2540042,,,,,,,2022-05-25,1,,,,,オルタム,0
922,4030001148328,新規,0,2022-05-25,2022-05-25,株式会社Ｋ・Ｍエステート,,株式会社,埼玉県,川口市,大字安行藤八６２５番地,,11,203,3340051,,,,,,,2022-05-25,1,,,,,ケイエムエステート,0
923,4030001148360,新規,0,2022-05-25,2022-05-25,株式会社ＭＡＮＴＯ,,株式会社,埼玉県,新座市,東北２丁目１３番２４号,,11,230,3520001,,,,,,,2022-05-25,1,,,,,マント,0
937,4040001123494,新規,0,2022-05-25,2022-05-25,株式会社永龍宝,,株式会社,千葉県,山武郡芝山町,香山新田矢志ヶ谷４９番地３,,12,409,2891601,,,,,,,2022-05-25,1,,,,,エイリュウホウ,0
938,4040001123503,新規,0,2022-05-25,2022-05-25,株式会社小柴機工,,株式会社,千葉県,袖ケ浦市,奈良輪３６７番地１アグレアーブルＩＩ２０１号,00126652,12,229,2990263,,,,,,,2022-05-25,1,,,,,コシバキコウ,0
939,4040001123511,新規,0,2022-05-25,2022-05-25,株式会社ＫＷ,,株式会社,千葉県,船橋市,前原西１丁目２０番２１‐１０５号,,12,204,2740825,,,,,,,2022-05-25,1,,,,,ケーダブリュー,0
942,4040003020087,新規,0,2022-05-25,2022-05-25,合同会社５‐Ｒｏｓｅｓ,,合同会社,千葉県,我孫子市,高野山６１０番地,,12,222,2701145,,,,,,,2022-05-25,1,,,,,ファイブローゼズ,0
943,4040003020095,新規,0,2022-05-25,2022-05-25,ＤＳ　ＳＩＹＡＰＡＴＨ　ＩＮＴＥＲＮＡＴＩＯＮＡＬ合同会社,,合同会社,千葉県,千葉市若葉区,北谷津町３００番地７－２,,12,104,2650067,,,,,,,2022-05-25,1,,,,,ディエスシヤパスインターナショナル,0
946,4050001051117,新規,0,2022-05-25,2022-05-25,株式会社ＦＵＲＵ,,株式会社,茨城県,水戸市,大塚町１８８０番地アーバンコート大塚１０５号,00126658,08,201,3114143,,,,,,,2022-05-25,1,,,,,フル,0
951,4060001034896,新規,0,2022-05-25,2022-05-25,株式会社石崎組,00126649,株式会社,栃木県,栃木市,吹上町８３３番地１,,09,203,3280125,,,,,,,2022-05-25,1,,,,,イシザキグミ,0
952,4060001034905,新規,0,2022-05-25,2022-05-25,浩瑞株式会社,,株式会社,栃木県,那須烏山市,上川井８２９－１,,09,215,3210505,,,,,,,2022-05-25,1,,,,,コウスイ,0
960,4100003006559,新規,0,2022-05-25,2022-05-25,合同会社白樺経済研究所,,合同会社,長野県,北佐久郡軽井沢町,大字追分１５０５番地３,,20,321,3890115,,,,,,,2022-05-25,1,,,,,シラカバケイザイケンキュウショ,0
970,4120001246007,新規,0,2022-05-25,2022-05-25,株式会社Ｆｏｒｅｓｔ,,株式会社,大阪府,大阪市北区,西天満４丁目１２－１１プラザ梅新別館９０２,,27,127,5300047,,,,,,,2022-05-25,1,,,,,フォレスト,0
971,4120001246056,新規,0,2022-05-25,2022-05-25,株式会社Ｇｏｓｐｅｌ　ＡＩ,,株式会社,大阪府,大阪市中央区,安土町２丁目３－１３大阪国際ビルディング３１Ｆ,,27,128,5410052,,,,,,,2022-05-25,1,,,,,ゴスペルエーアイ,0
972,4120001246106,新規,0,2022-05-25,2022-05-25,株式会社ＯＭＴ,,株式会社,大阪府,大阪市中央区,東心斎橋１丁目１３番３号,,27,128,5420083,,,,,,,2022-05-25,1,,,,,オーエムティー,0
975,4120003021746,新規,0,2022-05-25,2022-05-25,Ｉｎｆｉｔ合同会社,,合同会社,大阪府,大阪市天王寺区,大道１丁目２－２８サンプラザ四天王寺８０２号,,27,109,5430052,,,,,,,2022-05-25,1,,,,,インフィット,0
981,4120103004709,新規,0,2022-05-25,2022-05-25,あすか薬品合同会社,,合同会社,大阪府,岸和田市,春木本町１４番２号,,27,202,5960034,,,,,,,2022-05-25,1,,,,,アスカヤクヒン,0
985,4130001071833,新規,0,2022-05-25,2022-05-25,株式会社宇治再開発,,株式会社,京都府,京都市伏見区,竹田中川原町３６６番地,,26,109,6128412,,,,,,,2022-05-25,1,,,,,ウジサイカイハツ,0
995,4140001126099,新規,0,2022-05-25,2022-05-25,信和貿易株式会社,,株式会社,兵庫県,姫路市,野里９３０番地２,,28,201,6700811,,,,,,,2022-05-25,1,,,,,シンワボウエキ,0
996,4150001025564,新規,0,2022-05-25,2022-05-25,株式会社Ｍ・アイランド,,株式会社,奈良県,奈良市,朱雀５丁目１６番地の１６,,29,201,6310806,,,,,,,2022-05-25,1,,,,,エムアイランド,0
1006,4180001151399,新規,0,2022-05-25,2022-05-25,ヨシコーポレーション株式会社,,株式会社,愛知県,日進市,藤塚７丁目１２０番地,,23,230,4700117,,,,,,,2022-05-25,1,,,,,ヨシコーポレーション,0
1007,4180001151416,新規,0,2022-05-25,2022-05-25,株式会社デイジー,,株式会社,愛知県,名古屋市中区,正木４丁目２０３第１８金山フクマルビル６０６,,23,106,4600024,,,,,,,2022-05-25,1,,,,,デイジー,0
1031,4250001019580,新規,0,2022-05-25,2022-05-25,株式会社ＴＲＡＶＥＬ　ＰＵＲＳＥＲ,,株式会社,山口県,下関市,阿弥陀寺町７番８号,,35,201,7500003,,,,,,,2022-05-25,1,,,,,トラベルパーサー,0
1032,4260001036872,新規,0,2022-05-25,2022-05-25,株式会社ヤマバン,,株式会社,岡山県,岡山市南区,若葉町９番８号,,33,104,7028047,,,,,,,2022-05-25,1,,,,,ヤマバン,0
1035,4290001097623,新規,0,2022-05-25,2022-05-25,株式会社ＫＸオンライン,,株式会社,福岡県,筑紫野市,天拝坂１丁目１０番地２９,,40,217,8180053,,,,,,,2022-05-25,1,,,,,ケーエックスオンライン,0
1036,4290001097648,新規,0,2022-05-25,2022-05-25,株式会社レモンレンタカー,,株式会社,福岡県,うきは市,浮羽町東隈上３６番地,,40,225,8391403,,,,,,,2022-05-25,1,,,,,レモンレンタカー,0
1037,4290003012539,新規,0,2022-05-25,2022-05-25,合同会社九計,,合同会社,福岡県,福岡市中央区,薬院３丁目１６番２６号西鉄薬院ビル５Ｆ,,40,133,8100022,,,,,,,2022-05-25,1,,,,,キュウケイ,0
1038,4290003012547,新規,0,2022-05-25,2022-05-25,合同会社エクセルオーシャン,,合同会社,福岡県,福岡市西区,愛宕浜４丁目１５番地８号,,40,135,8190013,,,,,,,2022-05-25,1,,,,,エクセルオーシャン,0
1047,4370001048584,新規,0,2022-05-25,2022-05-25,Ｆｒａｗ株式会社,,株式会社,宮城県,仙台市太白区,八木山東１丁目１２番３－１０６号,,04,104,9820802,,,,,,,2022-05-25,1,,,,,フロー,0
1055,4390001016903,新規,0,2022-05-25,2022-05-25,株式会社Ｋ・ワークス,,株式会社,山形県,南陽市,小岩沢３４３番地の１,,06,213,9992203,,,,,,,2022-05-25,1,,,,,ケイワークス,0
1061,4420005007812,新規,0,2022-05-25,2022-05-25,一般社団法人ウェルネス,,その他の設立登記法人,青森県,八戸市,湊高台４丁目１３番２０号,,02,203,0310823,,,,,,,2022-05-25,1,,,,,ウェルネス,0
1068,4430001086702,新規,0,2022-05-25,2022-05-25,ＩＢインベストメント株式会社,,株式会社,北海道,札幌市中央区,伏見３丁目８番１１号,,01,101,0640942,,,,,,,2022-05-25,1,,,,,アイビー,0
1069,4430001086710,新規,0,2022-05-25,2022-05-25,株式会社丸新荒又組,,株式会社,北海道,札幌市東区,伏古十条５丁目４番５－３０２号,,01,103,0070870,,,,,,,2022-05-25,1,,,,,マルシンアラマタグミ,0
1070,4430001086719,新規,0,2022-05-25,2022-05-25,株式会社ＴＭＭＲ,,株式会社,北海道,札幌市豊平区,月寒東四条１８丁目１番１３号,,01,105,0620054,,,,,,,2022-05-25,1,,,,,ティエムエムアール,0
1077,4460105002239,新規,0,2022-05-25,2022-05-25,一般社団法人十勝ベースボールコミュニティ,,その他の設立登記法人,北海道,帯広市,東七条南２０丁目１番地１１,,01,207,0800807,,,,,,,2022-05-25,1,,,,,トカチベースボールコミュニティ,0
1084,4700150109021,新規,0,2022-05-25,2022-05-25,柳津町地域農業再生協議会,,その他,福島県,河沼郡柳津町,大字柳津字下平乙２３４番地,,07,423,9697201,,,,,,,2022-05-25,1,,,,,ヤナイヅマチチイキノウギョウサイセイキョウギカイ,0
1106,5010001226274,新規,0,2022-05-25,2022-05-25,株式会社ＳＭＯ,,株式会社,東京都,千代田区,神田小川町３丁目１－１０メディカビル,,13,101,1010052,,,,,,,2022-05-25,1,,,,,エスエムオー,0
1108,5010003037637,新規,0,2022-05-25,2022-05-25,合同会社アイオライト・コンサルタンツ,,合同会社,東京都,中央区,新富１丁目１１番１０－６０７号,,13,102,1040041,,,,,,,2022-05-25,1,,,,,アイオライトコンサルタンツ,0
1110,5010005035052,新規,0,2022-05-25,2022-05-25,一般社団法人エフシー,,その他の設立登記法人,東京都,千代田区,神田小川町１丁目３番地１ＮＢＦ小川町ビルディング４階,,13,101,1010052,,,,,,,2022-05-25,1,,,,,エフシー,0
1117,5010401167531,新規,0,2022-05-25,2022-05-25,株式会社エイティセブン,,株式会社,東京都,港区,南青山２丁目２番１５号,,13,103,1070062,,,,,,,2022-05-25,1,,,,,エイティセブン,0
1118,5010401167556,新規,0,2022-05-25,2022-05-25,株式会社ＮＫキャピタル,,株式会社,東京都,港区,浜松町２丁目２番１５号,,13,103,1050013,,,,,,,2022-05-25,1,,,,,エヌケーキャピタル,0
1121,5010503006595,新規,0,2022-05-25,2022-05-25,合同会社石塚商事,00126653,合同会社,東京都,台東区,浅草２丁目１８番４－９０３号,,13,106,1110032,,,,,,,2022-05-25,1,,,,,イシヅカショウジ,0
1123,5010601061212,新規,0,2022-05-25,2022-05-25,京和マテリアル株式会社,,株式会社,東京都,江東区,大島７丁目１４番１－１００２号,,13,108,1360072,,,,,,,2022-05-25,1,,,,,キョウワマテリアル,0
1126,5010701042698,新規,0,2022-05-25,2022-05-25,株式会社Ｅｘ‐Ｐｅａｒｌ,,株式会社,東京都,品川区,大井１丁目６番３号,,13,109,1400014,,,,,,,2022-05-25,1,,,,,エクスパール,0
1131,5010903007400,新規,0,2022-05-25,2022-05-25,Ａ＆Ａデザイン合同会社,,合同会社,東京都,世田谷区,奥沢６丁目２８番１８号リムテラス自由が丘１０２,,13,112,1580083,,,,,,,2022-05-25,1,,,,,エーアンドエーデザイン,0
1143,5011001147345,新規,0,2022-05-25,2022-05-25,株式会社セットオン,,株式会社,東京都,渋谷区,千駄ヶ谷４丁目７番５号,,13,113,1510051,,,,,,,2022-05-25,1,,,,,,0
1144,5011001147428,新規,0,2022-05-25,2022-05-25,株式会社ＭＩＳＩＡ,,株式会社,東京都,渋谷区,神宮前５丁目３－１６ＣａｓａＤｅｌＲｅｙＯＭＯＴＥＳＡＮＤＯ・Ｃ号室,,13,113,1500001,,,,,,,2022-05-25,1,,,,,ミシア,0
1145,5011001147452,新規,0,2022-05-25,2022-05-25,ＫＩＲＩＫＡＥ株式会社,,株式会社,東京都,渋谷区,神宮前６丁目２３番４号桑野ビル２階,,13,113,1500001,,,,,,,2022-05-25,1,,,,,キリカエ,0
1146,5011001147642,新規,0,2022-05-25,2022-05-25,株式会社ＫＯＤＯＭＯＴＯＮＡ,,株式会社,東京都,渋谷区,松濤１丁目２８－２ワークコート渋谷松濤,,13,113,1500046,,,,,,,2022-05-25,1,,,,,,0
1147,5011001147725,新規,0,2022-05-25,2022-05-25,ＡｔｔＲａ‐ｇ株式会社,,株式会社,東京都,渋谷区,渋谷３丁目１５番５号グリームビルＢ１Ｆ,,13,113,1500002,,,,,,,2022-05-25,1,,,,,アトラジー,0
1149,5011003014725,新規,0,2022-05-25,2022-05-25,合同会社ＹＯＳＨＩＨＩＳＡ,,合同会社,東京都,渋谷区,広尾３丁目１１番１２号広尾レジデンス壱番館３０３,,13,113,1500012,,,,,,,2022-05-25,1,,,,,ヨシヒサ,0
1150,5011003014733,新規,0,2022-05-25,2022-05-25,合同会社Ｒ企画,,合同会社,東京都,渋谷区,渋谷２丁目１９番２０号ＶＯＲＴ渋谷宮益坂ＩＩ４階,00126650,13,113,1500002,,,,,,,2022-05-25,1,,,,,アールキカク,0
1155,5011101098959,新規,0,2022-05-25,2022-05-25,株式会社東京ニューメディア,,株式会社,東京都,新宿区,西新宿５丁目５番１－５６１０号,,13,104,1600023,,,,,,,2022-05-25,1,,,,,,0
1161,5011301027800,新規,0,2022-05-25,2022-05-25,株式会社企ての樹,,株式会社,東京都,杉並区,堀ノ内３丁目４８番２号,,13,115,1660013,,,,,,,2022-05-25,1,,,,,クワダテノキ,0
1165,5011601025982,新規,0,2022-05-25,2022-05-25,株式会社ＰＯＬＡＲＩＳ＆Ｍｅ．,,株式会社,東京都,練馬区,関町南４丁目１９－６,,13,120,1770053,,,,,,,2022-05-25,1,,,,,ポラリスアンドミー,0
1172,5012403005388,新規,0,2022-05-25,2022-05-25,合同会社Ｔ＆Ｍ,,合同会社,東京都,府中市,若松町４丁目６番地の２,,13,206,1830005,,,,,,,2022-05-25,1,,,,,ティーアンドエム,0
1175,5012801021598,新規,0,2022-05-25,2022-05-25,株式会社ジェーエス,,株式会社,東京都,立川市,幸町４丁目４８番地の５,,13,202,1900002,,,,,,,2022-05-25,1,,,,,ジェーエス,0
1176,5012803002786,新規,0,2022-05-25,2022-05-25,合同会社村上康成事務所,,合同会社,東京都,国立市,東１丁目７番地の６ヒルズ国立１１０３,,13,215,1860002,,,,,,,2022-05-25,1,,,,,ムラカミヤスナリジムショ,0
1181,5013301049139,新規,0,2022-05-25,2022-05-25,株式会社ＨＣＷ,,株式会社,東京都,豊島区,西池袋１丁目２９番５号山の手ビル７階Ａ２号室,,13,116,1710021,,,,,,,2022-05-25,1,,,,,エイチシーダブリュー,0
1182,5013303006170,新規,0,2022-05-25,2022-05-25,合同会社ＡＩＺＯＫＵ,,合同会社,東京都,豊島区,東池袋４丁目２１番１－５００９号,,13,116,1700013,,,,,,,2022-05-25,1,,,,,アイゾク,0
1187,5020001146587,新規,0,2022-05-25,2022-05-25,株式会社ＡＫエージェント,,株式会社,神奈川県,横浜市西区,浅間町３丁目２３８番地７,,14,103,2200072,,,,,,,2022-05-25,1,,,,,エーケーエージェント,0
1206,5030001148319,新規,0,2022-05-25,2022-05-25,初心商事株式会社,,株式会社,埼玉県,富士見市,山室２丁目１１番３１－５号,,11,235,3540022,,,,,,,2022-05-25,1,,,,,ショシンショウジ,0
1207,5030001148327,新規,0,2022-05-25,2022-05-25,株式会社加藤製作所,,株式会社,埼玉県,鶴ヶ島市,大字町屋２０６番地２,,11,241,3502224,,,,,,,2022-05-25,1,,,,,カトウセイサクショ,0
1208,5030001148335,新規,0,2022-05-25,2022-05-25,株式会社Ｎｅｗｉｔ,,株式会社,埼玉県,新座市,東３丁目７番１７－１０１号,,11,230,3520002,,,,,,,2022-05-25,1,,,,,ニューウィット,0
1209,5030001148343,新規,0,2022-05-25,2022-05-25,株式会社Ｄ．ｓｔｏｒｙ,,株式会社,埼玉県,さいたま市大宮区,下町３丁目７番地１グランドミッドタワーズ大宮Ｓ１４０７,,11,103,3300844,,,,,,,2022-05-25,1,,,,,ディーストーリー,0
1210,5030001148376,新規,0,2022-05-25,2022-05-25,株式会社Ｈ．Ｒ　ｒｅｐｒｏｄｕｃｔｉｏＮ,,株式会社,埼玉県,草加市,中根３丁目３１番２２号,,11,221,3400005,,,,,,,2022-05-25,1,,,,,エイチアールリプロダクション,0
1215,5030003019476,新規,0,2022-05-25,2022-05-25,ＢＴ合同会社,,合同会社,埼玉県,川越市,四都野台１０番地３,,11,201,3501163,,,,,,,2022-05-25,1,,,,,ビーテー,0
1225,5040001123493,新規,0,2022-05-25,2022-05-25,株式会社Ｎ‐Ｐｌａｎｎｉｎｇ,,株式会社,千葉県,柏市,大室１１２９番地５４,,12,217,2770813,,,,,,,2022-05-25,1,,,,,エヌプランニング,0
1226,5040001123535,新規,0,2022-05-25,2022-05-25,株式会社Ｇｏｏｄ　Ｆｒｉｅｎｄｓ,,株式会社,千葉県,山武市,蓮沼ハ４９３０番地１５,,12,237,2891806,,,,,,,2022-05-25,1,,,,,グッドフレンズ,0
1227,5040001123551,新規,0,2022-05-25,2022-05-25,オレズ株式会社,,株式会社,千葉県,市川市,南八幡４丁目４番１６－２０２号,,12,203,2720023,,,,,,,2022-05-25,1,,,,,オレズ,0
1229,5040003020078,新規,0,2022-05-25,2022-05-25,合同会社モリシタ,,合同会社,千葉県,市原市,五井西７丁目６番地２２,,12,219,2900038,,,,,,,2022-05-25,1,,,,,モリシタ,0
1231,5050001051108,新規,0,2022-05-25,2022-05-25,株式会社セブンエイト,,株式会社,茨城県,つくば市,学園の森３丁目２０番地１ＭｅｅＴｏｃｏＮ１階Ｅ号室,,08,220,3050816,,,,,,,2022-05-25,1,,,,,セブンエイト,0
1232,5050001051116,新規,0,2022-05-25,2022-05-25,ＫＥＴ　Ｊａｐａｎ株式会社,,株式会社,茨城県,北茨城市,中郷町日棚６４４番４６の２,,08,215,3191556,,,,,,,2022-05-25,1,,,,,ケーイーティージャパン,0
1234,5050002018725,新規,0,2022-05-25,2022-05-25,有限会社池田鉄工建設,,有限会社,茨城県,坂東市,菅谷７１８番地,,08,228,3060505,,,,,,,2022-05-25,1,,,,,イケダテッコウケンセツ,0
1244,5080005007458,新規,0,2022-05-25,2022-05-25,一般社団法人しずおか里山留学支援協会,,その他の設立登記法人,静岡県,静岡市葵区,緑町６番２２号－４０５号,,22,101,4200844,,,,,,,2022-05-25,1,,,,,シズオカサトヤマリュウガクシエンキョウカイ,0
1249,5100001035369,新規,0,2022-05-25,2022-05-25,株式会社ウィンベル,,株式会社,長野県,長野市,上松２丁目２１番７号,,20,201,3800802,,,,,,,2022-05-25,1,,,,,ウィンベル,0
1250,5110003004767,新規,0,2022-05-25,2022-05-25,合同会社１８００,,合同会社,新潟県,南魚沼郡湯沢町,大字湯沢３１８番地６シャインプレス一茶,,15,461,9496101,,,,,,,2022-05-25,1,,,,,センハッピャク,0
1259,5120001245981,新規,0,2022-05-25,2022-05-25,株式会社Ｐａｔｉｎａ,,株式会社,大阪府,大阪市東住吉区,住道矢田１丁目２１番６号,,27,121,5460022,,,,,,,2022-05-25,1,,,,,パティナ,0
1260,5120001246071,新規,0,2022-05-25,2022-05-25,株式会社大樹,,株式会社,大阪府,大阪市福島区,海老江６丁目７番１０号１Ｆ,,27,103,5530001,,,,,,,2022-05-25,1,,,,,タイジュ,0
1261,5120001246096,新規,0,2022-05-25,2022-05-25,日吉商事株式会社,,株式会社,大阪府,大阪市淀川区,西中島７丁目１番３号チサンマンション第８新大阪１１０７号室,,27,123,5320011,,,,,,,2022-05-25,1,,,,,ヒヨシショウジ,0
1262,5120001246105,新規,0,2022-05-25,2022-05-25,株式会社Ｔｒｅａｓｕｒｅ,,株式会社,大阪府,大阪市平野区,喜連２丁目５番８１－８０２号,,27,126,5470027,,,,,,,2022-05-25,1,,,,,トレジャー,0
1264,5120003021745,新規,0,2022-05-25,2022-05-25,合同会社リユース関西,,合同会社,大阪府,寝屋川市,美井町１３－７,,27,215,5720007,,,,,,,2022-05-25,1,,,,,リユースカンサイ,0
1266,5120101065611,新規,0,2022-05-25,2022-05-25,株式会社コミットプランニング,,株式会社,大阪府,堺市中区,深井北町３１６９番地第３誠ビル３階,,27,142,5998271,,,,,,,2022-05-25,1,,,,,コミットプランニング,0
1273,5130001071824,新規,0,2022-05-25,2022-05-25,株式会社ティーエスアーク,,株式会社,京都府,綴喜郡井手町,大字多賀小字下川３６番地,,26,343,6100301,,,,,,,2022-05-25,1,,,,,ティーエスアーク,0
1277,5140001126098,新規,0,2022-05-25,2022-05-25,株式会社ナビホーム,,株式会社,兵庫県,尼崎市,水堂町４丁目１１番１１号,,28,202,6610026,,,,,,,2022-05-25,1,,,,,ナビホーム,0
1278,5140001126107,新規,0,2022-05-25,2022-05-25,吉翔トレーディング株式会社,,株式会社,兵庫県,三田市,福島７１３番地１,,28,219,6691313,,,,,,,2022-05-25,1,,,,,キッショウトレーディング,0
1279,5140001126115,新規,0,2022-05-25,2022-05-25,株式会社一,,株式会社,兵庫県,明石市,魚住町住吉２丁目９番２２号,,28,203,6740083,,,,,,,2022-05-25,1,,,,,ハジメ,0
1283,5150001025563,新規,0,2022-05-25,2022-05-25,田原本みらい計画株式会社,,株式会社,奈良県,磯城郡田原本町,大字味間２９７番地,,29,363,6360245,,,,,,,2022-05-25,1,,,,,タワラモトミライケイカク,0
1294,5180001151324,新規,0,2022-05-25,2022-05-25,株式会社ＲＳＣ,,株式会社,愛知県,名古屋市中川区,服部４丁目８０１番地ジョイホリー２０２号,,23,110,4540976,,,,,,,2022-05-25,1,,,,,アールエスシー,0
1295,5180001151431,新規,0,2022-05-25,2022-05-25,株式会社ＬＥＣＯ,,株式会社,愛知県,名古屋市中区,大須１丁目１５番５３号,,23,106,4600011,,,,,,,2022-05-25,1,,,,,レコ,0
1314,5240001059809,新規,0,2022-05-25,2022-05-25,株式会社Ａ　ｃｒｅｓｔ,,株式会社,広島県,広島市南区,仁保１丁目３番１８‐２０１号,,34,103,7340026,,,,,,,2022-05-25,1,,,,,エークレスト,0
1323,5290001097622,新規,0,2022-05-25,2022-05-25,長栄工業株式会社,,株式会社,福岡県,飯塚市,若菜２６２番地１,,40,205,8200082,,,,,,,2022-05-25,1,,,,,ナガエイコウギョウ,0
1324,5290001097655,新規,0,2022-05-25,2022-05-25,株式会社ＮＡＯ企画カンパニー,,株式会社,福岡県,福岡市中央区,大手門３丁目１番８－３０６号,,40,133,8100074,,,,,,,2022-05-25,1,,,,,ナオキカクカンパニー,0
1330,5310005008614,新規,0,2022-05-25,2022-05-25,一般社団法人長崎県飲食観光業盛り上げ隊,,その他の設立登記法人,長崎県,長崎市,油木町５番７号,,42,201,8528035,,,,,,,2022-05-25,1,,,,,ナガサキケンインショクカンコウギョウモリアゲタイ,0
1338,5340001024744,新規,0,2022-05-25,2022-05-25,株式会社ｋａｔａｒａｓ,,株式会社,鹿児島県,姶良市,松原町１丁目３９番地１５,,46,225,8995422,,,,,,,2022-05-25,1,,,,,カタラス,0
1343,5360003012043,新規,0,2022-05-25,2022-05-25,Ｇｙｐｓｙ’ｓ　Ｂｏｕｔｉｑｕｅ合同会社,,合同会社,沖縄県,宜野湾市,大謝名２丁目３番５号１－Ａ,,47,205,9012225,,,,,,,2022-05-25,1,,,,,ジプシーズブティック,0
1360,5430003013942,新規,0,2022-05-25,2022-05-25,合同会社成徳水産,,合同会社,北海道,幌泉郡えりも町,字笛舞７１番地,,01,609,0580206,,,,,,,2022-05-25,1,,,,,セイトクスイサン,0
1361,5430003013950,新規,0,2022-05-25,2022-05-25,合同会社博商,,合同会社,北海道,北広島市,輪厚中央３丁目１０番地２１,,01,234,0611268,,,,,,,2022-05-25,1,,,,,ハクショウ,0
1369,6010003037719,新規,0,2022-05-25,2022-05-25,合同会社ＩｎＤｉｖｅ,,合同会社,東京都,中央区,銀座１丁目１２－４Ｎ＆Ｅ・ＢＬＤ．７階,,13,102,1040061,,,,,,,2022-05-25,1,,,,,インダイブ,0
1377,6010401167539,新規,0,2022-05-25,2022-05-25,ＴＮＹコネクト株式会社,,株式会社,東京都,港区,三田２丁目２１番１０号,,13,103,1080073,,,,,,,2022-05-25,1,,,,,ティーエヌワイコネクト,0
1379,6010403027732,新規,0,2022-05-25,2022-05-25,合同会社社内資源発掘カンパニー,,合同会社,東京都,港区,南青山２丁目１５番５号ＦＡＲＯ青山１階,,13,103,1070062,,,,,,,2022-05-25,1,,,,,シャナイシゲンハックツカンパニー,0
1380,6010403027740,新規,0,2022-05-25,2022-05-25,ハッチ合同会社,,合同会社,東京都,港区,北青山２丁目７番２０号猪瀬ビル２Ｆ,,13,103,1070061,,,,,,,2022-05-25,1,,,,,ハッチ,0
1381,6010403027749,新規,0,2022-05-25,2022-05-25,ＨＣＢインベストメント合同会社,,合同会社,東京都,港区,西新橋１丁目２番９号メンターキャピタル税理士法人内,,13,103,1050003,,,,,,,2022-05-25,1,,,,,エイチシービーインベストメント,0
1383,6010405021007,新規,0,2022-05-25,2022-05-25,ジー・ジェイ・レジデンス・テン特定目的会社,,その他の設立登記法人,東京都,港区,虎ノ門４丁目３番１号城山トラストタワー２７階ＳａｎｎｅＧｒｏｕｐＪａｐａｎ株式会社内,,13,103,1050001,,,,,,,2022-05-25,1,,,,,ジージェイレジデンステン,0
1389,6010601061211,新規,0,2022-05-25,2022-05-25,株式会社Ｎｅｅｍ,,株式会社,東京都,江東区,扇橋１丁目２１番５－２０６号,,13,108,1350011,,,,,,,2022-05-25,1,,,,,ニーム,0
1404,6011001147600,新規,0,2022-05-25,2022-05-25,株式会社鈴建,,株式会社,東京都,渋谷区,千駄ヶ谷５丁目２８番１０－３０３号,,13,113,1510051,,,,,,,2022-05-25,1,,,,,スズケン,0
1405,6011001147617,新規,0,2022-05-25,2022-05-25,ＥＰＴ株式会社,,株式会社,東京都,目黒区,目黒本町５丁目３１番９号,,13,110,1520002,,,,,,,2022-05-25,1,,,,,イーピーティー,0
1406,6011001147641,新規,0,2022-05-25,2022-05-25,株式会社ユーロフィア,,株式会社,東京都,渋谷区,恵比寿西１丁目３１番８号ヒルコート代官山２０１,,13,113,1500021,,,,,,,2022-05-25,1,,,,,,0
1407,6011001147690,新規,0,2022-05-25,2022-05-25,株式会社イワテバル,,株式会社,東京都,渋谷区,道玄坂２丁目２０番５号２Ｆ,,13,113,1500043,,,,,,,2022-05-25,1,,,,,イワテバル,0
1408,6011001147708,新規,0,2022-05-25,2022-05-25,株式会社マッスルラボ,,株式会社,東京都,渋谷区,渋谷２丁目１９番１５号宮益坂ビルディング６０９,,13,113,1500002,,,,,,,2022-05-25,1,,,,,マッスルラボ,0
1409,6011001147732,新規,0,2022-05-25,2022-05-25,株式会社ＳＭＢソリューションズ,,株式会社,東京都,渋谷区,幡ヶ谷３丁目７１番２１－１０３号,,13,113,1510072,,,,,,,2022-05-25,1,,,,,エスエムビーソリューションズ,0
1412,6011003014708,新規,0,2022-05-25,2022-05-25,合同会社Ｂｅ,,合同会社,東京都,渋谷区,道玄坂１丁目１０－８渋谷道玄坂東急ビル２Ｆ－Ｃ,,13,113,1500043,,,,,,,2022-05-25,1,,,,,,0
1413,6011003014724,新規,0,2022-05-25,2022-05-25,Ｒインベスト合同会社,,合同会社,東京都,目黒区,鷹番１丁目１４番２５号,,13,110,1520004,,,,,,,2022-05-25,1,,,,,アールインベスト,0
1417,6011101098933,新規,0,2022-05-25,2022-05-25,株式会社エクスパンド,,株式会社,東京都,新宿区,高田馬場３丁目２番１４号,,13,104,1690075,,,,,,,2022-05-25,1,,,,,エクスパンド,0
1418,6011101098941,新規,0,2022-05-25,2022-05-25,智匯千路道橋株式会社,,株式会社,東京都,新宿区,新宿３丁目１２番４号新宿Ｎタウンプラザ３０９号,,13,104,1600022,,,,,,,2022-05-25,1,,,,,チカイセンロドウバシ,0
1427,6011301027799,新規,0,2022-05-25,2022-05-25,株式会社ＩＣ,,株式会社,東京都,杉並区,下井草５丁目２０番７号,,13,115,1670022,,,,,,,2022-05-25,1,,,,,アイシー,0
1428,6011403003673,新規,0,2022-05-25,2022-05-25,合同会社ｎｉｋａ,,合同会社,東京都,板橋区,東新町２丁目１８番１４号,,13,119,1740074,,,,,,,2022-05-25,1,,,,,ニカ,0
1430,6011501028069,新規,0,2022-05-25,2022-05-25,朗越株式会社,,株式会社,東京都,荒川区,西日暮里２丁目２６番１０号－９Ｆ,,13,118,1160013,,,,,,,2022-05-25,1,,,,,ロウエツ,0
1439,6012801021597,新規,0,2022-05-25,2022-05-25,株式会社キャレクスハウス,,株式会社,東京都,昭島市,つつじが丘２丁目５番１７－８０９号,,13,207,1960012,,,,,,,2022-05-25,1,,,,,キャレクスハウス,0
1451,6020001146586,新規,0,2022-05-25,2022-05-25,株式会社ＭＡインポート,,株式会社,神奈川県,横浜市西区,浅間町３丁目２３８番地７,,14,103,2200072,,,,,,,2022-05-25,1,,,,,エムエーインポート,0
1452,6020001146603,新規,0,2022-05-25,2022-05-25,株式会社Ｌｉｚａｒｄｒｙ,,株式会社,神奈川県,横浜市金沢区,柴町２１番地５,,14,108,2360012,,,,,,,2022-05-25,1,,,,,リザードリー,0
1455,6021003011712,新規,0,2022-05-25,2022-05-25,合同会社こもり建築研究所,,合同会社,神奈川県,平塚市,真田４丁目７番１６号,,14,203,2591206,,,,,,,2022-05-25,1,,,,,コモリケンチクケンキュウジョ,0
1458,6030001148326,新規,0,2022-05-25,2022-05-25,株式会社Ｒ‐Ｍ,,株式会社,埼玉県,狭山市,祇園４６番４２号,,11,215,3501307,,,,,,,2022-05-25,1,,,,,アールエム,0
1459,6030001148342,新規,0,2022-05-25,2022-05-25,エスジーテクノス株式会社,,株式会社,埼玉県,川口市,大字道合２７９番地の４－１Ｆ,,11,203,3330835,,,,,,,2022-05-25,1,,,,,エスジーテクノス,0
1463,6030003019459,新規,0,2022-05-25,2022-05-25,合同会社ＩＭＫ,,合同会社,埼玉県,越谷市,大字大房９１７番地１１,,11,222,3430027,,,,,,,2022-05-25,1,,,,,アイエムケイ,0
1464,6030003019475,新規,0,2022-05-25,2022-05-25,合同会社ＷＨＥＲＥＡＢＯＵＴＳ,,合同会社,埼玉県,戸田市,本町２丁目１３番２３－２０５号,,11,224,3350023,,,,,,,2022-05-25,1,,,,,ウェアアバウツ,0
1465,6030005020869,新規,0,2022-05-25,2022-05-25,一般社団法人楽暮,,その他の設立登記法人,埼玉県,川越市,脇田新町１５番地８－１階,,11,201,3501121,,,,,,,2022-05-25,1,,,,,ラクラ,0
1468,6040001123501,新規,0,2022-05-25,2022-05-25,株式会社ミムラ,,株式会社,千葉県,千葉市若葉区,高品町１５８９番地６日神パレステージ高品公園２０５号,,12,104,2640024,,,,,,,2022-05-25,1,,,,,ミムラ,0
1469,6040001123526,新規,0,2022-05-25,2022-05-25,株式会社コントレイル,,株式会社,千葉県,松戸市,松戸１０１０番地の１８,,12,207,2710092,,,,,,,2022-05-25,1,,,,,コントレイル,0
1470,6040001123534,新規,0,2022-05-25,2022-05-25,株式会社プロノーバ,,株式会社,千葉県,千葉市中央区,中央２丁目５番１号千葉中央ツインビル２号館７階,,12,101,2600013,,,,,,,2022-05-25,1,,,,,プロノーバ,0
1472,6040003020077,新規,0,2022-05-25,2022-05-25,合同会社Ｋ．エージェンシー,,合同会社,千葉県,東金市,下武射田１５７３番地３６,,12,213,2830012,,,,,,,2022-05-25,1,,,,,ケイエージェンシー,0
1474,6050001051107,新規,0,2022-05-25,2022-05-25,クリエートつくば株式会社,,株式会社,茨城県,つくば市,東平塚５９３番地,00126648,08,220,3050812,,,,,,,2022-05-25,1,,,,,クリエートツクバ,0
1475,6050003006570,新規,0,2022-05-25,2022-05-25,合同会社ＮＤ電気,,合同会社,茨城県,つくば市,大曽根３４２７番地ララルー２０６号,,08,220,3003253,,,,,,,2022-05-25,1,,,,,エヌディーデンキ,0
1487,6100001035368,新規,0,2022-05-25,2022-05-25,エルシュテール株式会社,,株式会社,長野県,北佐久郡軽井沢町,大字長倉５６１５番地４,,20,321,3890111,,,,,,,2022-05-25,1,,,,,エルシュテール,0
1493,6120001246070,新規,0,2022-05-25,2022-05-25,株式会社プロキシ,,株式会社,大阪府,大阪市淀川区,西中島６丁目３番２４号Ｐ４０６,,27,123,5320011,,,,,,,2022-05-25,1,,,,,プロキシ,0
1494,6120001246095,新規,0,2022-05-25,2022-05-25,源豊貿易株式会社,,株式会社,大阪府,大阪市中央区,道頓堀１丁目東５－１９花昭ビル,,27,128,5420071,,,,,,,2022-05-25,1,,,,,ゲンホウボウエキ,0
1508,6120901046000,新規,0,2022-05-25,2022-05-25,株式会社シルフィー,,株式会社,大阪府,摂津市,鳥飼中１丁目３３番１９号,,27,224,5660064,,,,,,,2022-05-25,1,,,,,シルフィー,0
1512,6130001071773,新規,0,2022-05-25,2022-05-25,Ｏｋｉｎｉ　Ｊａｐｏｎ株式会社,,株式会社,京都府,京都市中京区,錦小路通油小路東入空也町４９０番地グランドール四条烏丸１００３,,26,104,6048232,,,,,,,2022-05-25,1,,,,,オキニジャポン,0
1513,6130001071815,新規,0,2022-05-25,2022-05-25,株式会社ｋｉｔａｓｕ,,株式会社,京都府,京都市東山区,三条通白川橋東入五軒町１０６－９,,26,105,6050036,,,,,,,2022-05-25,1,,,,,キタス,0
1514,6130001071823,新規,0,2022-05-25,2022-05-25,株式会社Ｓｏ　Ｓｗｅｅｔ,,株式会社,京都府,京都市中京区,御池通東洞院東入笹屋町４３６番地永和御池ビル６０６号,,26,104,6048187,,,,,,,2022-05-25,1,,,,,ソースウィート,0
1523,6140001126122,新規,0,2022-05-25,2022-05-25,株式会社ファーストニッチ,,株式会社,兵庫県,神戸市中央区,山本通１丁目３－２－３０２,,28,110,6500003,,,,,,,2022-05-25,1,,,,,ファーストニッチ,0
1525,6140003017690,新規,0,2022-05-25,2022-05-25,合同会社１０１,,合同会社,兵庫県,西宮市,松原町２番２０－６０２号,,28,204,6620912,,,,,,,2022-05-25,1,,,,,イチマルイチ,0
1527,6160001024225,新規,0,2022-05-25,2022-05-25,株式会社ケアスピリッツ,,株式会社,滋賀県,東近江市,下羽田町２２８番地,,25,213,5270085,,,,,,,2022-05-25,1,,,,,ケアスピリッツ,0
1533,6180001151298,新規,0,2022-05-25,2022-05-25,セーエー開発株式会社,,株式会社,愛知県,名古屋市守山区,小幡１丁目９番１２号,,23,113,4630011,,,,,,,2022-05-25,1,,,,,セーエーカイハツ,0
1534,6180001151414,新規,0,2022-05-25,2022-05-25,友紀株式会社,,株式会社,愛知県,名古屋市名東区,高間町３７６番地の５,,23,115,4650081,,,,,,,2022-05-25,1,,,,,ユウキ,0
1546,6200003005573,新規,0,2022-05-25,2022-05-25,合同会社ＷＡＮＤＳ,,合同会社,岐阜県,岐阜市,芋島４丁目５番１－１０１号,,21,201,5008234,,,,,,,2022-05-25,1,,,,,ワンズ,0
1548,6240001059808,新規,0,2022-05-25,2022-05-25,株式会社土井,,株式会社,広島県,三次市,東酒屋町１１５８番地６,,34,209,7280023,,,,,,,2022-05-25,1,,,,,ドイ,0
1550,6250003003077,新規,0,2022-05-25,2022-05-25,合同会社ＴＢＬ,,合同会社,山口県,山口市,徳地山畑２９４番地２,,35,203,7470521,,,,,,,2022-05-25,1,,,,,ティビィエル,0
1552,6260003003919,新規,0,2022-05-25,2022-05-25,合同会社ラヴィテラス,,合同会社,岡山県,新見市,大佐小阪部１０６３番地,,33,210,7193503,,,,,,,2022-05-25,1,,,,,ラヴィテラス,0
1556,6290001097654,新規,0,2022-05-25,2022-05-25,ＷｅｌｌＵｐ株式会社,,株式会社,福岡県,福岡市南区,和田３丁目２２－６,,40,134,8111343,,,,,,,2022-05-25,1,,,,,ウェルアップ,0
1559,6310001017865,新規,0,2022-05-25,2022-05-25,株式会社ｆｕｔｅｃｈ,,株式会社,長崎県,佐世保市,天神町三丁目４２１番地,,42,202,8571175,,,,,,,2022-05-25,1,,,,,フューテック,0
1563,6320001019084,新規,0,2022-05-25,2022-05-25,株式会社あま乃,,株式会社,大分県,豊後高田市,香々地４０１７番地,,44,209,8721202,,,,,,,2022-05-25,1,,,,,アマノ,0
1577,6390003001959,新規,0,2022-05-25,2022-05-25,合同会社ＭｏＭＡ,,合同会社,山形県,山形市,南二番町１２番１７号,,06,201,9902442,,,,,,,2022-05-25,1,,,,,モマ,0
1584,6420001017862,新規,0,2022-05-25,2022-05-25,ハナブサ不動産株式会社,,株式会社,青森県,黒石市,青山６７番地,,02,204,0360325,,,,,,,2022-05-25,1,,,,,ハナブサフドウサン,0
1590,6430001086717,新規,0,2022-05-25,2022-05-25,株式会社ＦＯＯＤ　ＰＲＯＣＥＳＳ,,株式会社,北海道,札幌市白石区,菊水八条４丁目２－２７・２Ｆ,,01,104,0030808,,,,,,,2022-05-25,1,,,,,フードプロセス,0
1594,6430005014475,新規,0,2022-05-25,2022-05-25,特定非営利活動法人ｔｏｕｃｈｅ　ＮＰＯ,,その他の設立登記法人,北海道,札幌市中央区,北四条西１４丁目１番地６ライオンズガーデン植物園４１４号室,,01,101,0600004,,,,,,,2022-05-25,1,,,,,トゥーシェエヌピーオー,0
1605,7010001226850,新規,0,2022-05-25,2022-05-25,株式会社Ｊ‐ＳＴＯＲＭ,,株式会社,東京都,千代田区,外神田１丁目３番４号第ＩＩＩナカジマビル２Ｆ,00126646,13,101,1010021,,,,,,,2022-05-25,1,,,,,ジェイストーム,0
1610,7010005035050,新規,0,2022-05-25,2022-05-25,大黒坂４４特定目的会社,,その他の設立登記法人,東京都,千代田区,丸の内１丁目８番２号鉄鋼ビルディング４階,,13,101,1000005,,,,,,,2022-05-25,1,,,,,ダイコクザカフォーティーフォー,0
1622,7010401167538,新規,0,2022-05-25,2022-05-25,株式会社アルジーホールディングス,,株式会社,東京都,港区,三田５丁目４番３号,,13,103,1080073,,,,,,,2022-05-25,1,,,,,アルジーホールディングス,0
1623,7010401167587,新規,0,2022-05-25,2022-05-25,ＹＫ　Ｈｅｒｉｔａｇｅ　Ｈａｗａｉｉ株式会社,,株式会社,東京都,港区,赤坂２丁目１７番５５号プライム赤坂２１５,,13,103,1070052,,,,,,,2022-05-25,1,,,,,ワイケーヘリテイジハワイ,0
1626,7010403027657,新規,0,2022-05-25,2022-05-25,合同会社ＴＩＬＴＯＷＡＩＴ,,合同会社,東京都,港区,南青山２丁目２番１５号,,13,103,1070062,,,,,,,2022-05-25,1,,,,,ティルトウェイト,0
1627,7010405021047,新規,0,2022-05-25,2022-05-25,一般社団法人ＴＳＭ１６０,,その他の設立登記法人,東京都,港区,元赤坂１丁目１番７号,,13,103,1070051,,,,,,,2022-05-25,1,,,,,ティーエスエムヒャクロクジュウ,0
1630,7010601061177,新規,0,2022-05-25,2022-05-25,エンハンスザックス株式会社,,株式会社,東京都,江東区,有明３丁目７番１１号,,13,108,1350063,,,,,,,2022-05-25,1,,,,,エンハンスザックス,0
1631,7010601061219,新規,0,2022-05-25,2022-05-25,ＡＭＫ株式会社,,株式会社,東京都,墨田区,横川５丁目９番１,,13,107,1300003,,,,,,,2022-05-25,1,,,,,エーエムケー,0
1644,7010901050912,新規,0,2022-05-25,2022-05-25,株式会社ＫＭスタイル,,株式会社,東京都,世田谷区,奥沢４丁目９番３号,,13,112,1580083,,,,,,,2022-05-25,1,,,,,ケーエムスタイル,0
1645,7010903007398,新規,0,2022-05-25,2022-05-25,合同会社ステージフライト,,合同会社,東京都,世田谷区,世田谷１丁目３７番４－２０４号,,13,112,1540017,,,,,,,2022-05-25,1,,,,,ステージフライト,0
1653,7011001147285,新規,0,2022-05-25,2022-05-25,株式会社投資用マンションＳＯＳ,,株式会社,東京都,目黒区,東山１丁目２１番１号ＣＡＳＡ中目黒東山３０２,,13,110,1530043,,,,,,,2022-05-25,1,,,,,トウシヨウマンションエスオーエス,0
1654,7011001147574,新規,0,2022-05-25,2022-05-25,Ｃｒｅａｄｉｔｓ株式会社,,株式会社,東京都,渋谷区,恵比寿１丁目１９番１５号,,13,113,1500013,,,,,,,2022-05-25,1,,,,,クレディッツ,0
1655,7011001147657,新規,0,2022-05-25,2022-05-25,株式会社Ｔｈｅ　ｗａｙ,,株式会社,東京都,目黒区,目黒２丁目１３番２８号,,13,110,1530063,,,,,,,2022-05-25,1,,,,,ザウェイ,0
1656,7011001147673,新規,0,2022-05-25,2022-05-25,ｒｕｉｒｕｉ株式会社,,株式会社,東京都,渋谷区,渋谷２丁目１９－１５宮益坂ビルディング６０９,,13,113,1500002,,,,,,,2022-05-25,1,,,,,ルイルイ,0
1657,7011001147707,新規,0,2022-05-25,2022-05-25,株式会社ヤマケンワークス,,株式会社,東京都,渋谷区,神南１丁目１１番３号,,13,113,1500041,,,,,,,2022-05-25,1,,,,,ヤマケンワークス,0
1658,7011003014673,新規,0,2022-05-25,2022-05-25,ｄｒｙ合同会社,,合同会社,東京都,渋谷区,神宮前６丁目２３－４桑野ビル２Ｆ,,13,113,1500001,,,,,,,2022-05-25,1,,,,,ドライ,0
1659,7011003014715,新規,0,2022-05-25,2022-05-25,さくら合同会社,,合同会社,東京都,渋谷区,道玄坂１丁目１０番８号渋谷道玄坂東急ビル２Ｆ－Ｃ,,13,113,1500043,,,,,,,2022-05-25,1,,,,,サクラ,0
1660,7011003014723,新規,0,2022-05-25,2022-05-25,合同会社ヤマダ,,合同会社,東京都,渋谷区,道玄坂１丁目１０番８号渋谷道玄坂東急ビル２Ｆ－Ｃ,,13,113,1500043,,,,,,,2022-05-25,1,,,,,ヤマダ,0
1661,7011003014731,新規,0,2022-05-25,2022-05-25,合同会社ＭＪ企画,,合同会社,東京都,目黒区,駒場４丁目３番９号,,13,110,1530041,,,,,,,2022-05-25,1,,,,,エムジェイキカク,0
1662,7011005009580,新規,0,2022-05-25,2022-05-25,一般社団法人木桶仕込み味噌輸出促進コンソーシアム,,その他の設立登記法人,東京都,渋谷区,渋谷３丁目１２番２５号渋谷のおうちギャラリー内,,13,113,1500002,,,,,,,2022-05-25,1,,,,,キオケジコミミソユシュツソクシンコンソーシアム,0
1671,7011601025980,新規,0,2022-05-25,2022-05-25,株式会社メディケアボーテ,,株式会社,東京都,練馬区,貫井２丁目２８番９－６０２号,,13,120,1760021,,,,,,,2022-05-25,1,,,,,メディケアボーテ,0
1679,7012405004741,新規,0,2022-05-25,2022-05-25,司法書士法人宮川事務所,,その他の設立登記法人,東京都,府中市,宮西町２丁目８番地の３,,13,206,1830022,,,,,,,2022-05-25,1,,,,,ミヤガワジムショ,0
1686,7013301049137,新規,0,2022-05-25,2022-05-25,株式会社ＰＨＯＴＯＰＲＩ,,株式会社,東京都,豊島区,池袋２丁目１６－１－２０２,,13,116,1710014,,,,,,,2022-05-25,1,,,,,フォトプリ,0
1698,7020001146602,新規,0,2022-05-25,2022-05-25,株式会社グッドスロプ,,株式会社,神奈川県,横浜市中区,寺久保６４番地１２,,14,104,2310855,,,,,,,2022-05-25,1,,,,,グッドスロプ,0
1700,7021001076046,新規,0,2022-05-25,2022-05-25,株式会社はた楽商会,,株式会社,神奈川県,鎌倉市,台２丁目９番５号,,14,204,2470061,,,,,,,2022-05-25,1,,,,,ハタラクショウカイ,0
1706,7030001148325,新規,0,2022-05-25,2022-05-25,株式会社Ｋ‐ＭＥＴＡＬ,,株式会社,埼玉県,八潮市,八潮５丁目１１番地７,,11,234,3400815,,,,,,,2022-05-25,1,,,,,ケーメタル,0
1707,7030001148358,新規,0,2022-05-25,2022-05-25,株式会社Ｃ．Ｕ．Ｍ．Ｅ,,株式会社,埼玉県,川口市,弥平１丁目７番１－７０８号川口弥平パーク・ホームズ,,11,203,3320002,,,,,,,2022-05-25,1,,,,,キュウム,0
1708,7030001148366,新規,0,2022-05-25,2022-05-25,株式会社りばすとエステート,,株式会社,埼玉県,さいたま市西区,西大宮３丁目１０番地８,,11,101,3310078,,,,,,,2022-05-25,1,,,,,リバストエステート,0
1712,7030003019441,新規,0,2022-05-25,2022-05-25,合同会社ワイアーヘッド,,合同会社,埼玉県,久喜市,菖蒲町菖蒲５０１３－４２５,,11,232,3460106,,,,,,,2022-05-25,1,,,,,ワイアーヘッド,0
1713,7030003019458,新規,0,2022-05-25,2022-05-25,合同会社ＢＳ　Ｉｎｔｅｒｎａｔｉｏｎａｌ,,合同会社,埼玉県,行田市,大字馬見塚１６３番地２,,11,206,3610082,,,,,,,2022-05-25,1,,,,,ビーエスインターナショナル,0
1714,7030003019466,新規,0,2022-05-25,2022-05-25,合同会社麦東香,,合同会社,埼玉県,所沢市,大字神米金３５８－９西武所沢団地郊外マンションＤ棟５０２,,11,208,3590005,,,,,,,2022-05-25,1,,,,,ムギトウコウ,0
1719,7040001123491,新規,0,2022-05-25,2022-05-25,株式会社ｈａｐｐｉｎｅｓｓ,,株式会社,千葉県,船橋市,七林町１２４番地３７－２０８,,12,204,2740821,,,,,,,2022-05-25,1,,,,,ハピネス,0
1720,7040001123517,新規,0,2022-05-25,2022-05-25,株式会社リベルタス,,株式会社,千葉県,流山市,大字上貝塚２０４番地,00126659,12,220,2700171,,,,,,,2022-05-25,1,,,,,リベルタス,0
1724,7040003020076,新規,0,2022-05-25,2022-05-25,合同会社ダンシングサーカス,,合同会社,千葉県,長生郡一宮町,東浪見８３３番地１１,,12,421,2994303,,,,,,,2022-05-25,1,,,,,ダンシングサーカス,0
1727,7050001051106,新規,0,2022-05-25,2022-05-25,株式会社ＫＨＡＬＩＤ　ＴＲＡＤＩＮＧ,,株式会社,茨城県,坂東市,桐木６１１番地２,,08,228,3060636,,,,,,,2022-05-25,1,,,,,ハリッドトレーディング,0
1730,7060001034902,新規,0,2022-05-25,2022-05-25,株式会社ＨＡＲＵＫＡ,,株式会社,栃木県,足利市,借宿町１丁目２１番地１３,,09,202,3260826,,,,,,,2022-05-25,1,,,,,ハルカ,0
1734,7080101023299,新規,0,2022-05-25,2022-05-25,株式会社ＢＥＲ,,株式会社,静岡県,富士市,日乃出町５番地,,22,210,4170056,,,,,,,2022-05-25,1,,,,,ビーイーアール,0
1737,7080401025821,新規,0,2022-05-25,2022-05-25,トレジャーチェスト株式会社,,株式会社,静岡県,浜松市中区,旭町６番１一条タワー１３０３,,22,131,4300927,,,,,,,2022-05-25,1,,,,,トレジャーチェスト,0
1740,7090001017581,新規,0,2022-05-25,2022-05-25,株式会社ＲＩＧＨＴＲＥＥ,,株式会社,山梨県,甲府市,下小河原町１７０番地パレスウィステリアＣ２０２,,19,201,4000853,,,,,,,2022-05-25,1,,,,,ライツリー,0
1742,7100001035367,新規,0,2022-05-25,2022-05-25,株式会社ハトジロー,,株式会社,長野県,長野市,大字稲葉２０７７番地,,20,201,3800911,,,,,,,2022-05-25,1,,,,,ハトジロー,0
1757,7120001246045,新規,0,2022-05-25,2022-05-25,株式会社ジェネラルエステート,,株式会社,大阪府,大阪市北区,梅田２丁目５番１３号桜橋第一ビル３０４号,,27,127,5300001,,,,,,,2022-05-25,1,,,,,ジェネラルエステート,0
1758,7120001246078,新規,0,2022-05-25,2022-05-25,株式会社Ｓｅａｉ,,株式会社,大阪府,大阪市西区,北堀江２丁目４番１１号サンライズビル１０階２２号室,,27,106,5500014,,,,,,,2022-05-25,1,,,,,シー,0
1759,7120001246111,新規,0,2022-05-25,2022-05-25,パックスエンジニアリング株式会社,,株式会社,大阪府,大阪市福島区,福島３丁目１番５７－６０７号,,27,103,5530003,,,,,,,2022-05-25,1,,,,,パックスエンジニアリング,0
1762,7120101065618,新規,0,2022-05-25,2022-05-25,株式会社カタオカ左官工業,,株式会社,大阪府,松原市,一津屋４丁目５番２号,,27,217,5800003,,,,,,,2022-05-25,1,,,,,カタオカサカンコウギョウ,0
1769,7122005003620,新規,0,2022-05-25,2022-05-25,一般社団法人そくさい,,その他の設立登記法人,大阪府,東大阪市,大蓮北２丁目１番２７号,00126645,27,227,5770826,,,,,,,2022-05-25,1,,,,,ソクサイ,0
1773,7130001071789,新規,0,2022-05-25,2022-05-25,株式会社ワークソーシング,,株式会社,京都府,京都市上京区,宮垣町９１まむあん荒神口１０２号,,26,102,6020853,,,,,,,2022-05-25,1,,,,,ワークソーシング,0
1774,7130001071830,新規,0,2022-05-25,2022-05-25,株式会社食スマイル,,株式会社,京都府,京都市伏見区,深草勧進橋町５０－３２,,26,109,6128405,,,,,,,2022-05-25,1,,,,,ショクスマイル,0
1782,7140001126030,新規,0,2022-05-25,2022-05-25,言靈やまと語出版株式会社,,株式会社,兵庫県,神戸市東灘区,深江南町１丁目１６番３３－３２４号,,28,101,6580022,,,,,,,2022-05-25,1,,,,,ゲンレイヤマトゴシュッパン,0
1784,7140003017707,新規,0,2022-05-25,2022-05-25,合名会社ハイストーン,,合名会社,兵庫県,高砂市,春日野町１番３５号,,28,216,6760814,,,,,,,2022-05-25,1,,,,,ハイストーン,0
1785,7150001025561,新規,0,2022-05-25,2022-05-25,Ｌｉｆｅ　Ｄｅｓｉｇｎ株式会社,,株式会社,奈良県,大和郡山市,小泉町東１丁目８番７号,,29,203,6391044,,,,,,,2022-05-25,1,,,,,ライフデザイン,0
1801,7190001029435,新規,0,2022-05-25,2022-05-25,株式会社林組,,株式会社,三重県,伊賀市,佐那具町１１００番地の７３,,24,216,5180001,,,,,,,2022-05-25,1,,,,,ハヤシグミ,0
1803,7200003005572,新規,0,2022-05-25,2022-05-25,合同会社ＥＮＴＲＵＳＴ,,合同会社,岐阜県,羽島市,福寿町平方１３２４,,21,209,5016257,,,,,,,2022-05-25,1,,,,,エントラスト,0
1806,7250003003076,新規,0,2022-05-25,2022-05-25,合同会社ＬＩＡ,,合同会社,山口県,光市,虹ケ浜３丁目２番９－１００２号,,35,210,7430022,,,,,,,2022-05-25,1,,,,,リア,0
1814,7290001097620,新規,0,2022-05-25,2022-05-25,株式会社Ｓ・Ｇ,,株式会社,福岡県,福岡市中央区,薬院４丁目１４番１－１１０６号,,40,133,8100022,,,,,,,2022-05-25,1,,,,,エスジー,0
1816,7290003012544,新規,0,2022-05-25,2022-05-25,合同会社音楽工房ＦＤＫ,,合同会社,福岡県,太宰府市,大佐野３丁目１３－３３,,40,221,8180134,,,,,,,2022-05-25,1,,,,,オンガクコウボウエフディーケイ,0
1822,7310003004365,新規,0,2022-05-25,2022-05-25,合同会社ＳＫＲ,,合同会社,長崎県,松浦市,志佐町浦免１４７７－１,,42,208,8594501,,,,,,,2022-05-25,1,,,,,エスケイアール,0
1842,7420001017861,新規,0,2022-05-25,2022-05-25,株式会社輝創舎,,株式会社,青森県,青森市,大字新城字山田３０１番地１８,,02,201,0380042,,,,,,,2022-05-25,1,,,,,キソウシャ,0
1846,7430001086708,新規,0,2022-05-25,2022-05-25,株式会社イット,,株式会社,北海道,小樽市,新光町３２４番地９０,,01,203,0470153,,,,,,,2022-05-25,1,,,,,イット,0
1847,7430001086716,新規,0,2022-05-25,2022-05-25,株式会社アセカ,,株式会社,北海道,札幌市手稲区,曙一条１丁目５番７号,,01,109,0060831,,,,,,,2022-05-25,1,,,,,アセカ,0
1848,7430001086732,新規,0,2022-05-25,2022-05-25,株式会社ＡＳＮ北海道,,株式会社,北海道,札幌市豊平区,月寒西四条７丁目２番１２号,,01,105,0620024,,,,,,,2022-05-25,1,,,,,エーエスエヌホッカイドウ,0
1851,7430003013949,新規,0,2022-05-25,2022-05-25,合同会社シーエスオー,,合同会社,北海道,浦河郡浦河町,潮見町１７番地の４５,,01,607,0570021,,,,,,,2022-05-25,1,,,,,シーエスオー,0
1862,7500001024222,新規,0,2022-05-25,2022-05-25,株式会社ｅ‐人財,,株式会社,愛媛県,松山市,山越４丁目５番３５号,,38,201,7918013,,,,,,,2022-05-25,1,,,,,イージンザイ,0
1863,7500001024230,新規,0,2022-05-25,2022-05-25,株式会社味楽斬,,株式会社,愛媛県,今治市,常盤町８丁目１－３５,,38,202,7940015,,,,,,,2022-05-25,1,,,,,アジラクザン,0
1864,7700150108904,新規,0,2022-05-25,2022-05-20,小さな能を広める会,,その他,静岡県,富士市,吉原５丁目１番１ー１１１１号エンゼルハイム吉原,,22,210,4170051,,,,,,,2022-05-20,1,,,,,チイサナノウヲヒロメルカイ,0
1873,8010001226429,新規,0,2022-05-25,2022-05-25,株式会社セレンディピティホールディングス,,株式会社,東京都,文京区,本郷１丁目１０番１４号加奈利屋館５階,,13,105,1130033,,,,,,,2022-05-25,1,,,,,セレンディピティホールディングス,0
1887,8010403027722,新規,0,2022-05-25,2022-05-25,サステナブルソーラー合同会社,,合同会社,東京都,港区,元赤坂１丁目１番７号,,13,103,1070051,,,,,,,2022-05-25,1,,,,,サステナブルソーラー,0
1891,8010805002942,新規,0,2022-05-25,2022-05-25,一般社団法人フローズンエコノミー協会,,その他の設立登記法人,東京都,大田区,上池台５丁目２０番１３号,,13,111,1450064,,,,,,,2022-05-25,1,,,,,フローズンエコノミーキョウカイ,0
1892,8010903007397,新規,0,2022-05-25,2022-05-25,合同会社Ｂｅｃｋｏｎ,,合同会社,東京都,世田谷区,豪徳寺２丁目２９番地９号,,13,112,1540021,,,,,,,2022-05-25,1,,,,,ベックオン,0
1898,8011001147680,新規,0,2022-05-25,2022-05-25,ネクレスシステム開発株式会社,,株式会社,東京都,渋谷区,南平台町１６番２９号グリーン南平台ビル６Ｆ,,13,113,1500036,,,,,,,2022-05-25,1,,,,,ネクレスシステムカイハツ,0
1899,8011001147706,新規,0,2022-05-25,2022-05-25,株式会社ＪＯＥ　Ｃｏｍｐａｎｙ,,株式会社,東京都,渋谷区,幡ヶ谷３丁目１７番６号,,13,113,1510072,,,,,,,2022-05-25,1,,,,,ジョーカンパニー,0
1900,8011003014714,新規,0,2022-05-25,2022-05-25,合同会社ｉｔｓｋｎ,,合同会社,東京都,渋谷区,千駄ヶ谷３丁目３番８号,,13,113,1510051,,,,,,,2022-05-25,1,,,,,アイティーエスケーエヌ,0
1901,8011003014730,新規,0,2022-05-25,2022-05-25,ビーアイインターナショナル合同会社,,合同会社,東京都,渋谷区,渋谷２丁目１９－１５宮益坂ビルディング６０９,,13,113,1500002,,,,,,,2022-05-25,1,,,,,ビーアイインターナショナル,0
1908,8011101098915,新規,0,2022-05-25,2022-05-25,株式会社伊邪那美,,株式会社,東京都,新宿区,下落合２丁目１番１７号,,13,104,1610033,,,,,,,2022-05-25,1,,,,,イザナミ,0
1919,8011803005103,新規,0,2022-05-25,2022-05-25,合同会社ラストマネージ,,合同会社,東京都,足立区,小台２丁目２０番１７号クレイノＯＤＡＩＹＯＵ１０４,,13,121,1200046,,,,,,,2022-05-25,1,,,,,ラストマネージ,0
1921,8012303001682,新規,0,2022-05-25,2022-05-25,合同会社Ｊｏｉｎ,,合同会社,東京都,町田市,能ヶ谷２丁目７番１９号アロハヴィラ鶴川１０２,,13,209,1950053,,,,,,,2022-05-25,1,,,,,ジョイン,0
1928,8013301049128,新規,0,2022-05-25,2022-05-25,株式会社アーストレーディング,,株式会社,東京都,豊島区,南大塚１丁目２３－１１三和荘２Ｆ,,13,116,1700005,,,,,,,2022-05-25,1,,,,,アーストレーディング,0
1934,8020001146601,新規,0,2022-05-25,2022-05-25,株式会社エボリューションコンサルティング,,株式会社,神奈川県,横浜市保土ケ谷区,鎌谷町２９９番地１,,14,106,2400063,,,,,,,2022-05-25,1,,,,,エボリューションコンサルティング,0
1939,8021002054818,新規,0,2022-05-25,2022-05-25,有限会社関野屋呉服店,,有限会社,神奈川県,南足柄市,関本５５４番地,,14,217,2500105,,,,,,,2022-05-25,1,,,,,セキノヤゴフクテン,0
1949,8030001148266,新規,0,2022-05-25,2022-05-25,株式会社彩与,,株式会社,埼玉県,川越市,旭町１丁目１５番地２２,,11,201,3501126,,,,,,,2022-05-25,1,,,,,サイヨ,0
1950,8030001148324,新規,0,2022-05-25,2022-05-25,株式会社Ｋ．Ｋ．Ｓｅｒｖｉｃｅ,,株式会社,埼玉県,上尾市,大字上１７３７番地４グランハイムＨＡＹＡＳＨＩ１０５,,11,219,3620001,,,,,,,2022-05-25,1,,,,,ケイケイサービス,0
1951,8030001148357,新規,0,2022-05-25,2022-05-25,株式会社ガナハ,,株式会社,埼玉県,川口市,元郷３丁目２３番１４号,,11,203,3320011,,,,,,,2022-05-25,1,,,,,ガナハ,0
1952,8030001148365,新規,0,2022-05-25,2022-05-25,株式会社山岸設備,,株式会社,埼玉県,川口市,三ツ和３丁目１０番地の２,,11,203,3340011,,,,,,,2022-05-25,1,,,,,ヤマギシセツビ,0
1955,8030003019449,新規,0,2022-05-25,2022-05-25,ＷＬ合同会社,,合同会社,埼玉県,行田市,中央１１―５クリダイビル１―Ｂ,,11,206,3610078,,,,,,,2022-05-25,1,,,,,ダブリューエル,0
1956,8030005020875,新規,0,2022-05-25,2022-05-25,一般社団法人農を起点,,その他の設立登記法人,埼玉県,幸手市,大字神明内９１２番地,,11,240,3400122,,,,,,,2022-05-25,1,,,,,ノウヲキテン,0
1959,8040001123499,新規,0,2022-05-25,2022-05-25,株式会社ａｍｂｉｔｉｏｎ,,株式会社,千葉県,柏市,泉町６番地５５柏グリーンコーポ４０１号室,,12,217,2770022,,,,,,,2022-05-25,1,,,,,アンビション,0
1960,8040001123508,新規,0,2022-05-25,2022-05-25,野田ビルメンテナンス株式会社,,株式会社,千葉県,野田市,つつみ野２丁目２６番地の１４,,12,208,2780038,,,,,,,2022-05-25,1,,,,,ノダビルメンテナンス,0
1961,8040001123516,新規,0,2022-05-25,2022-05-25,株式会社空,,株式会社,千葉県,旭市,東足洗２７７８番地７３,,12,215,2892512,,,,,,,2022-05-25,1,,,,,クウ,0
1962,8040001123540,新規,0,2022-05-25,2022-05-25,ワンワールド株式会社,,株式会社,千葉県,成田市,成井４２７番４５,,12,211,2890114,,,,,,,2022-05-25,1,,,,,ワンワールド,0
1970,8080401025820,新規,0,2022-05-25,2022-05-25,株式会社ＦＬＡＴ,,株式会社,静岡県,浜松市中区,泉３丁目１番２２号,,22,131,4338124,,,,,,,2022-05-25,1,,,,,フラット,0
1971,8090001017580,新規,0,2022-05-25,2022-05-25,株式会社ＡＭＡＴＥＲＡＳＵ,,株式会社,山梨県,甲府市,国母７丁目４番６号,,19,201,4000043,,,,,,,2022-05-25,1,,,,,アマテラス,0
1990,8120001246119,新規,0,2022-05-25,2022-05-25,株式会社弐分ノ壱‐ＴＵＲＢＯ　Ｐｌｕｓ,,株式会社,大阪府,枚方市,渚南町３番１６号,,27,210,5731183,,,,,,,2022-05-25,1,,,,,ニブンノイチターボプラス,0
1995,8120003021726,新規,0,2022-05-25,2022-05-25,合同会社ＫＵＷＡＥ　ＢＡＫＥＲＳ,,合同会社,大阪府,大阪市阿倍野区,阿倍野元町５番２７号,,27,119,5450034,,,,,,,2022-05-25,1,,,,,クワエベーカーズ,0
1996,8120005022961,新規,0,2022-05-25,2022-05-25,行政書士法人リーガルエスコート,,その他の設立登記法人,大阪府,大阪市西区,西本町１丁目１３番３２号,,27,106,5500005,,,,,,,2022-05-25,1,,,,,リーガルエスコート,0
2003,8120103004713,新規,0,2022-05-25,2022-05-25,合同会社ＹＣＯ,,合同会社,大阪府,松原市,上田３丁目９－４,,27,217,5800016,,,,,,,2022-05-25,1,,,,,ワイシーオー,0
2007,8130001071821,新規,0,2022-05-25,2022-05-25,ルミアルファ株式会社,,株式会社,京都府,京都市下京区,仏光寺通烏丸東入上柳町３３１番地タカノハスクエア４階,,26,106,6008099,,,,,,,2022-05-25,1,,,,,ルミアルファ,0
2011,8140001126087,新規,0,2022-05-25,2022-05-25,株式会社ＩＴＭ,,株式会社,兵庫県,芦屋市,東山町１２番３１－３０５号,,28,206,6590091,,,,,,,2022-05-25,1,,,,,アイティエム,0
2012,8140001126104,新規,0,2022-05-25,2022-05-25,松田組重量株式会社,,株式会社,兵庫県,尼崎市,尾浜町３丁目１１番１４号,,28,202,6610022,,,,,,,2022-05-25,1,,,,,マツダグミジュウリョウ,0
2013,8140001126112,新規,0,2022-05-25,2022-05-25,株式会社Ｒａｋｋ,,株式会社,兵庫県,西宮市,高木東町１３番３２－１号,,28,204,6638033,,,,,,,2022-05-25,1,,,,,ラック,0
2014,8140003017714,新規,0,2022-05-25,2022-05-25,ミライスター合同会社,,合同会社,兵庫県,姫路市,兼田９５１番地,,28,201,6728001,,,,,,,2022-05-25,1,,,,,ミライスター,0
2027,8180001151412,新規,0,2022-05-25,2022-05-25,株式会社ブル,,株式会社,愛知県,名古屋市千種区,星ケ丘２丁目７１番地シティハウス星ケ丘９０５号,,23,101,4640801,,,,,,,2022-05-25,1,,,,,ブル,0
2035,8180005019779,新規,0,2022-05-25,2022-05-25,一般社団法人アスカ,,その他の設立登記法人,愛知県,一宮市,木曽川町内割田二の通り１０７番地,,23,203,4930006,,,,,,,2022-05-25,1,,,,,アスカ,0
2040,8190003003998,新規,0,2022-05-25,2022-05-25,合同会社Ｆｏｓｔｏｎ　Ｂｏｏｌ,,合同会社,三重県,津市,白塚町４６２５番地２,,24,201,5140101,,,,,,,2022-05-25,1,,,,,フォストンブール,0
2044,8200001040083,新規,0,2022-05-25,2022-05-25,株式会社ＦＭＫ,,株式会社,岐阜県,各務原市,鵜沼南町６丁目２２５番地１,,21,213,5090125,,,,,,,2022-05-25,1,,,,,エフエムケー,0
2046,8220001024860,新規,0,2022-05-25,2022-05-25,株式会社カーサ・デ・ピーノ,,株式会社,石川県,金沢市,泉が丘１丁目３番５９号２０８号室,,17,201,9218035,,,,,,,2022-05-25,1,,,,,カーサデピーノ,0
2048,8240001059806,新規,0,2022-05-25,2022-05-25,株式会社ＧＬサポート,,株式会社,広島県,広島市西区,井口５丁目３１番４号,,34,104,7330842,,,,,,,2022-05-25,1,,,,,ジーエルサポート,0
2055,8290001097611,新規,0,2022-05-25,2022-05-25,ヨシムラ株式会社,,株式会社,福岡県,みやま市,瀬高町本郷６４番地１,,40,229,8350021,,,,,,,2022-05-25,1,,,,,ヨシムラ,0
2056,8290001097628,新規,0,2022-05-25,2022-05-25,株式会社エムケイシステム,,株式会社,福岡県,那珂川市,片縄１丁目５７番地１,,40,231,8111201,,,,,,,2022-05-25,1,,,,,エムケイシステム,0
2057,8290001097652,新規,0,2022-05-25,2022-05-25,Ｔｒｉａ　Ｅｎｔｅｒｔａｉｎｍｅｎｔ　Ａｇｅｎｃｙ株式会社,,株式会社,福岡県,福岡市博多区,東那珂３丁目１１－３４－１０９,,40,132,8120892,,,,,,,2022-05-25,1,,,,,トリアエンターテインメントエージェンシー,0
2060,8290801028559,新規,0,2022-05-25,2022-05-25,株式会社ＬＣトランス,,株式会社,福岡県,北九州市門司区,原町別院１３番１２－２０３号,,40,101,8000037,,,,,,,2022-05-25,1,,,,,エルシートランス,0
2088,8410001013191,新規,0,2022-05-25,2022-05-25,株式会社ＳＮＡＣ,,株式会社,秋田県,秋田市,牛島西３丁目７番２９号,,05,201,0100063,,,,,,,2022-05-25,1,,,,,スナック,0
2090,8420001017860,新規,0,2022-05-25,2022-05-25,株式会社ソーラーボックス,,株式会社,青森県,十和田市,東十五番町２８番３０－７号,,02,206,0340034,,,,,,,2022-05-25,1,,,,,ソーラーボックス,0
2093,8430001086707,新規,0,2022-05-25,2022-05-25,株式会社西田たたみ内装店,,株式会社,北海道,札幌市東区,北二十条東１２丁目１番６号,,01,103,0650020,,,,,,,2022-05-25,1,,,,,ニシダタタミナイソウテン,0
2094,8430001086715,新規,0,2022-05-25,2022-05-25,株式会社アクアホームズ,,株式会社,北海道,札幌市西区,八軒十条東４丁目２番１８号アクア八軒東ビル,,01,107,0630870,,,,,,,2022-05-25,1,,,,,アクアホームズ,0
2098,8430003013956,新規,0,2022-05-25,2022-05-25,合同会社ＰＳＫ,,合同会社,北海道,札幌市中央区,北五条西２１丁目２番１２－１３０１号,,01,101,0600005,,,,,,,2022-05-25,1,,,,,ピーエスケー,0
2102,8450005004340,新規,0,2022-05-25,2022-05-25,一般社団法人東川スタイル研究所,,その他の設立登記法人,北海道,上川郡東川町,南町１丁目３番１－２号,,01,458,0711424,,,,,,,2022-05-25,1,,,,,ヒガシカワスタイルケンキュウジョ,0
2104,8470003002187,新規,0,2022-05-25,2022-05-25,合同会社正栄工業,,合同会社,香川県,丸亀市,飯野町東分２５８７番地１エスポワール飯野中央１０２号,,37,202,7630085,,,,,,,2022-05-25,1,,,,,ショウエイコウギョウ,0
2111,8480005006904,新規,0,2022-05-25,2022-05-25,一般社団法人石井町藤を守る地域づくり協議会,,その他の設立登記法人,徳島県,名西郡石井町,石井字石井１３３５番地１０,,36,341,7793233,,,,,,,2022-05-25,1,,,,,イシイチョウフジヲマモルチイキヅクリキョウギカイ,0
2121,9010001226799,新規,0,2022-05-25,2022-05-25,株式会社オンサポート,,株式会社,東京都,中央区,晴海２丁目２番４２,,13,102,1040053,,,,,,,2022-05-25,1,,,,,オンサポート,0
2122,9010001226840,新規,0,2022-05-25,2022-05-25,株式会社Ｎｏｒｔｈｂｏｕｎｄ,,株式会社,東京都,文京区,音羽１丁目５番１３号音羽ホームズ４０３,,13,105,1120013,,,,,,,2022-05-25,1,,,,,ノースバウンド,0
2123,9010001226857,新規,0,2022-05-25,2022-05-25,Ｌａｗｙｅｒ’ｓＩＮＦＯ株式会社,,株式会社,東京都,中央区,日本橋横山町７番１９号第３５イチオクビル３Ｆ３－２４号室,,13,102,1030003,,,,,,,2022-05-25,1,,,,,ローヤーズインフォ,0
2126,9010005035049,新規,0,2022-05-25,2022-05-25,一般社団法人ＳＥＯＵ会,,その他の設立登記法人,東京都,千代田区,一番町１３番地１６,,13,101,1020082,,,,,,,2022-05-25,1,,,,,セオウカイ,0
2129,9010401167420,新規,0,2022-05-25,2022-05-25,株式会社オープンボックス,,株式会社,東京都,港区,芝５丁目３２番１２号,,13,103,1080014,,,,,,,2022-05-25,1,,,,,オープンボックス,0
2133,9010405021053,新規,0,2022-05-25,2022-05-25,川口安行特定目的会社,,その他の設立登記法人,東京都,港区,元赤坂１丁目１番８号株式会社赤坂国際会計内,,13,103,1070051,,,,,,,2022-05-25,1,,,,,カワグチアンギョウ,0
2135,9010601061200,新規,0,2022-05-25,2022-05-25,株式会社ＡＳＷ,,株式会社,東京都,江東区,森下５丁目２番１号,,13,108,1350004,,,,,,,2022-05-25,1,,,,,エーエスダブリュー,0
2145,9010901050919,新規,0,2022-05-25,2022-05-25,エピスコープ株式会社,,株式会社,東京都,世田谷区,成城１丁目４番１号東宝スタジオプロダクションセンター２０５,,13,112,1570066,,,,,,,2022-05-25,1,,,,,エピスコープ,0
2153,9011001147457,新規,0,2022-05-25,2022-05-25,株式会社キュンユー,,株式会社,東京都,渋谷区,神宮前６丁目２３番４号桑野ビル２階,,13,113,1500001,,,,,,,2022-05-25,1,,,,,キュンユー,0
2154,9011001147655,新規,0,2022-05-25,2022-05-25,株式会社芯城社,,株式会社,東京都,渋谷区,神宮前６丁目２３番４号桑野ビル２階,,13,113,1500001,,,,,,,2022-05-25,1,,,,,,0
2155,9011001147671,新規,0,2022-05-25,2022-05-25,株式会社ＮＦＴビジネス協会,,株式会社,東京都,渋谷区,渋谷３丁目５番１６号渋谷三丁目スクエアビル２階,,13,113,1500002,,,,,,,2022-05-25,1,,,,,エヌエフティービジネスキョウカイ,0
2156,9011001147688,新規,0,2022-05-25,2022-05-25,株式会社ＭＥＩＴ,,株式会社,東京都,渋谷区,恵比寿２丁目２８番１０号,,13,113,1500013,,,,,,,2022-05-25,1,,,,,メイト,0
2157,9011001147705,新規,0,2022-05-25,2022-05-25,株式会社Ｍｉｍｏｓａ,,株式会社,東京都,渋谷区,富ヶ谷２丁目２０番８号,,13,113,1510063,,,,,,,2022-05-25,1,,,,,ミモサ,0
2158,9011003014705,新規,0,2022-05-25,2022-05-25,ＺＥＥＲＦ合同会社,,合同会社,東京都,渋谷区,松濤１丁目１０－３－３Ｂ,,13,113,1500046,,,,,,,2022-05-25,1,,,,,ゼールフ,0
2166,9011303004414,新規,0,2022-05-25,2022-05-25,合同会社ココア,,合同会社,東京都,杉並区,荻窪１丁目４７番２号,,13,115,1670051,,,,,,,2022-05-25,1,,,,,ココア,0
2180,9011601025979,新規,0,2022-05-25,2022-05-25,オフィス白石株式会社,,株式会社,東京都,練馬区,上石神井２丁目２９番２号,,13,120,1770044,,,,,,,2022-05-25,1,,,,,オフィスシライシ,0
2181,9011701025334,新規,0,2022-05-25,2022-05-25,株式会社ユウシュウ,,株式会社,東京都,江戸川区,南葛西７丁目５番３７－６０１号,,13,123,1340085,,,,,,,2022-05-25,1,,,,,ユウシュウ,0
2190,9012403005392,新規,0,2022-05-25,2022-05-25,ｉＫＯＡ合同会社,,合同会社,東京都,小金井市,中町３丁目２４番４号,,13,210,1840012,,,,,,,2022-05-25,1,,,,,アイコア,0
2198,9013301049127,新規,0,2022-05-25,2022-05-25,株式会社エクシブ企画,,株式会社,東京都,豊島区,南大塚１丁目２３－１１三和荘２Ｆ,,13,116,1700005,,,,,,,2022-05-25,1,,,,,エクシブキカク,0
2199,9013301049143,新規,0,2022-05-25,2022-05-25,株式会社Ａｓｕｎｉｔｅ　Ｔｅｃｈｎｏｌｏｇｙ,,株式会社,東京都,豊島区,東池袋１丁目３６番３－１００８号,,13,116,1700013,,,,,,,2022-05-25,1,,,,,アスナイトテクノロジー,0
2200,9013301049151,新規,0,2022-05-25,2022-05-25,株式会社ＡＤ,,株式会社,東京都,豊島区,池袋３丁目４２番３号,,13,116,1710014,,,,,,,2022-05-25,1,,,,,アド,0
2201,9013303006167,新規,0,2022-05-25,2022-05-25,合同会社ＥＮＴＡＣＨＩＬＤ,,合同会社,東京都,豊島区,高松３丁目１０番１６号,,13,116,1710042,,,,,,,2022-05-25,1,,,,,エンタチャイルド,0
2214,9020001146609,新規,0,2022-05-25,2022-05-25,株式会社横浜サポートオフィス,,株式会社,神奈川県,横浜市中区,常盤町３丁目３０番地１,,14,104,2310014,,,,,,,2022-05-25,1,,,,,ヨコハマサポートオフィス,0
2229,9030001148315,新規,0,2022-05-25,2022-05-25,ＴＨＰファシリティーズ株式会社,,株式会社,埼玉県,さいたま市浦和区,上木崎１丁目１０番１７号三村Ｋ２ビル５Ｆ,,11,107,3300071,,,,,,,2022-05-25,1,,,,,ティーエイチピーファシリティーズ,0
2230,9030001148331,新規,0,2022-05-25,2022-05-25,たのしむこころ株式会社,,株式会社,埼玉県,さいたま市大宮区,桜木町１丁目３７８番地ＢＩＺｃｏｍｆｏｒｔ大宮西口ビル６Ｆ－３８,,11,103,3300854,,,,,,,2022-05-25,1,,,,,タノシムココロ,0
2231,9030001148348,新規,0,2022-05-25,2022-05-25,株式会社アネラ,,株式会社,埼玉県,川越市,大字的場２２０１番地２（サンクレストＩＩ－１０１号室）,00126651,11,201,3501101,,,,,,,2022-05-25,1,,,,,アネラ,0
2235,9030003019373,新規,0,2022-05-25,2022-05-25,合同会社ＴＧプラス,,合同会社,埼玉県,川口市,芝樋ノ爪１丁目１０－１１プレミアわらび１０３号室,,11,203,3330852,,,,,,,2022-05-25,1,,,,,ティージープラス,0
2246,9040001123498,新規,0,2022-05-25,2022-05-25,グルーウェーブ株式会社,,株式会社,千葉県,市川市,大和田３丁目１７番２５号,,12,203,2720025,,,,,,,2022-05-25,1,,,,,グルーウェーブ,0
2247,9040001123515,新規,0,2022-05-25,2022-05-25,株式会社よしみケア,,株式会社,千葉県,市川市,相之川４丁目１５番１１号大場第２ビル２階,,12,203,2720143,,,,,,,2022-05-25,1,,,,,ヨシミケア,0
2248,9040001123523,新規,0,2022-05-25,2022-05-25,株式会社リゼル,,株式会社,千葉県,松戸市,小金原４丁目４０番地の５,,12,207,2700021,,,,,,,2022-05-25,1,,,,,リゼル,0
2249,9040001123548,新規,0,2022-05-25,2022-05-25,株式会社赤羽Ｒ,,株式会社,千葉県,船橋市,芝山６丁目２８番７号,,12,204,2740816,,,,,,,2022-05-25,1,,,,,アカハネアール,0
2255,9050001051112,新規,0,2022-05-25,2022-05-25,株式会社岡野美電,,株式会社,茨城県,結城市,大字結城９８６２番地１８,,08,207,3070001,,,,,,,2022-05-25,1,,,,,オカノビデン,0
2257,9060001034900,新規,0,2022-05-25,2022-05-25,株式会社ＩＮＮＯＶＩＳ,,株式会社,栃木県,芳賀郡芳賀町,大字西高橋３７７５番地２,,09,345,3213315,,,,,,,2022-05-25,1,,,,,イノヴィス,0
2266,9080001024949,新規,0,2022-05-25,2022-05-25,株式会社Ｗｅｌｌ,,株式会社,静岡県,静岡市駿河区,小黒１丁目１０番３６号,,22,102,4228072,,,,,,,2022-05-25,1,,,,,ウェル,0
2280,9120001246051,新規,0,2022-05-25,2022-05-25,株式会社アドウエスト,,株式会社,大阪府,大阪市西区,九条１丁目２７番６号,,27,106,5500027,,,,,,,2022-05-25,1,,,,,アドウエスト,0
2281,9120001246068,新規,0,2022-05-25,2022-05-25,株式会社アフェクション,,株式会社,大阪府,大阪市北区,梅田１丁目２番２－２００号大阪駅前第２ビル２階３－１－２,,27,127,5300001,,,,,,,2022-05-25,1,,,,,アフェクション,0
2282,9120001246092,新規,0,2022-05-25,2022-05-25,大阪ガス都市開発アセットマネジメント株式会社,,株式会社,大阪府,大阪市中央区,高麗橋４丁目２番１６号,,27,128,5410043,,,,,,,2022-05-25,1,,,,,オオサカガストシカイハツアセットマネジメント,0
2285,9120003021741,新規,0,2022-05-25,2022-05-25,合同会社アルボル,,合同会社,大阪府,大阪市中央区,農人橋１丁目１番２９－２６０４号,,27,128,5400011,,,,,,,2022-05-25,1,,,,,アルボル,0
2291,9120103004712,新規,0,2022-05-25,2022-05-25,合同会社くりまろ,,合同会社,大阪府,和泉市,伏屋町３丁目１３番３９号,,27,219,5940031,,,,,,,2022-05-25,1,,,,,クリマロ,0
2295,9122001035888,新規,0,2022-05-25,2022-05-25,株式会社ＫＡＴＡＴＳＵＧＵ,,株式会社,大阪府,八尾市,高安町北３丁目２５番地,,27,212,5810871,,,,,,,2022-05-25,1,,,,,カタツグ,0
2296,9130001071820,新規,0,2022-05-25,2022-05-25,株式会社ｓｉｍｐｌｅ,,株式会社,京都府,京都市西京区,松尾木ノ曽町５４番地３,,26,111,6158281,,,,,,,2022-05-25,1,,,,,シンプル,0
2297,9130001071829,新規,0,2022-05-25,2022-05-25,株式会社ル・モンド・トラベル,,株式会社,京都府,京都市左京区,北白川地蔵谷町１番地京都北白川アーバンコンフォート２２４号,,26,103,6068294,,,,,,,2022-05-25,1,,,,,ルモンドトラベル,0
2298,9130001071837,新規,0,2022-05-25,2022-05-25,株式会社ＰＵＲＥ,,株式会社,京都府,京都市北区,上賀茂東後藤町３１番地３,,26,101,6038022,,,,,,,2022-05-25,1,,,,,ピュア,0
2304,9140001043422,新規,0,2022-05-25,2022-05-25,株式会社播州建機,,株式会社,兵庫県,加古川市,加古川町備後１０９番地の３,,28,210,6750032,,,,,,,2022-05-25,1,,,,,,0
2305,9140001126078,新規,0,2022-05-25,2022-05-25,ワカバヤシ商店株式会社,,株式会社,兵庫県,南あわじ市,市円行寺１９２番地,,28,224,6560461,,,,,,,2022-05-25,1,,,,,ワカバヤシショウテン,0
2306,9140001126086,新規,0,2022-05-25,2022-05-25,株式会社アドバリューエージェント,,株式会社,兵庫県,神戸市西区,大津和２丁目８番２号,,28,111,6512112,,,,,,,2022-05-25,1,,,,,アドバリューエージェント,0
2308,9150001025568,新規,0,2022-05-25,2022-05-25,株式会社Ｓｍｏｄｅ　Ｊａｐａｎ,,株式会社,奈良県,生駒市,菜畑町２３１４番地３５１,,29,209,6300231,,,,,,,2022-05-25,1,,,,,スモードジャパン,0
2317,9180005019778,新規,0,2022-05-25,2022-05-25,社会福祉法人愛知中央福祉会,,その他の設立登記法人,愛知県,名古屋市天白区,元植田１丁目１０７番地,,23,116,4680009,,,,,,,2022-05-25,1,,,,,アイチチュウオウフクシカイ,0
2326,9210001018937,新規,0,2022-05-25,2022-05-25,株式会社林機業場,,株式会社,福井県,福井市,月見５丁目３番３０号,,18,201,9188011,,,,,,,2022-05-25,1,,,,,ハヤシキギョウジョウ,0
2330,9220005008677,新規,0,2022-05-25,2022-05-25,農事組合法人下吉谷,,その他の設立登記法人,石川県,白山市,下吉谷町イ２４番地乙１,,17,210,9202342,,,,,,,2022-05-25,1,,,,,シモヨシタニ,0
2336,9240003005633,新規,0,2022-05-25,2022-05-25,柞磨電機工事合同会社,,合同会社,広島県,福山市,赤坂町早戸１７０９－１,,34,207,7210000,,,,,,,2022-05-25,1,,,,,タルマデンキコウジ,0
2340,9270001008528,新規,0,2022-05-25,2022-05-25,株式会社ｅｍｉｒｅ,,株式会社,鳥取県,鳥取市,雲山１４７番地４,,31,201,6800862,,,,,,,2022-05-25,1,,,,,エミレ,0
2342,9280001008700,新規,0,2022-05-25,2022-05-25,株式会社ＴＲＹＢＥ,,株式会社,島根県,出雲市,知井宮町６３５番地１０,,32,203,6930033,,,,,,,2022-05-25,1,,,,,トライブ,0
2349,9290001097619,新規,0,2022-05-25,2022-05-25,株式会社運動療育センター,,株式会社,福岡県,古賀市,青柳１６８８番地,,40,223,8113134,,,,,,,2022-05-25,1,,,,,ウンドウリョウイクセンター,0
2351,9310003004371,新規,0,2022-05-25,2022-05-25,合同会社まつお内装,,合同会社,長崎県,諫早市,飯盛町古場３８０番地,,42,204,8541121,,,,,,,2022-05-25,1,,,,,マツオナイソウ,0
2354,9330005010523,新規,0,2022-05-25,2022-05-25,一般社団法人利他会,,その他の設立登記法人,熊本県,熊本市中央区,九品寺６丁目６番３４号,,43,101,8620976,,,,,,,2022-05-25,1,,,,,リタカイ,0
2356,9340002009765,新規,0,2022-05-25,2022-05-25,有限会社本山商店,,有限会社,鹿児島県,鹿児島市,船津町１番２１号,,46,201,8920831,,,,,,,2022-05-25,1,,,,,モトヤマショウテン,0
2360,9350003004087,新規,0,2022-05-25,2022-05-25,合同会社ｉ‐ＢＡＳＥ,,合同会社,宮崎県,宮崎市,権現町９０番地１０,,45,201,8800822,,,,,,,2022-05-25,1,,,,,アイベース,0
2362,9370001048588,新規,0,2022-05-25,2022-05-25,グッドペイント株式会社,,株式会社,宮城県,岩沼市,中央４丁目１４番１５号サザンハイツ１０２号,,04,211,9892432,,,,,,,2022-05-25,1,,,,,グッドペイント,0
2366,9380001032839,新規,0,2022-05-25,2022-05-25,株式会社ワイエス・ワン,,株式会社,福島県,二本松市,上川崎字下種田１５５番地,,07,210,9691512,,,,,,,2022-05-25,1,,,,,ワイエスワン,0
2373,9430001086722,新規,0,2022-05-25,2022-05-25,株式会社ジオテクス,,株式会社,北海道,札幌市豊平区,平岸一条１９丁目２番３号,,01,105,0620931,,,,,,,2022-05-25,1,,,,,ジオテクス,0
2379,9440003001463,新規,0,2022-05-25,2022-05-25,合同会社秀光,,合同会社,北海道,函館市,本町３２番２７号,,01,202,0400011,,,,,,,2022-05-25,1,,,,,,0
2382,9460003000901,新規,0,2022-05-25,2022-05-25,合同会社愛悠会,,合同会社,北海道,釧路市,桜ケ岡６丁目２番２０号,,01,206,0850805,,,,,,,2022-05-25,1,,,,,アイユウカイ,0
2390,9470001019091,新規,0,2022-05-25,2022-05-25,株式会社エクラ人事労務パートナーズ,,株式会社,香川県,高松市,寿町２丁目２番１０号高松寿町プライムビル４階,,37,201,7600023,,,,,,,2022-05-25,1,,,,,エクラジンジロウムパートナーズ,0
