sequenceNumber,corporateNumber,process,correct,updateDate,changeDate,name,nameImageId,kind,prefectureName,cityName,streetNumber,addressImageId,prefectureCode,cityCode,postCode,addressOutside,addressOutsideImageId,closeDate,closeCause,successorCorporateNumber,changeCause,assignmentDate,latest,enName,enPrefectureName,enCityName,enAddressOutside,furigana,hihyoji
19,1010001244544,新規,0,2024-05-13,2024-05-13,株式会社フェスタ,,株式会社,東京都,中央区,八丁堀１丁目１２－４Ｂ１Ｆ,,13,102,1040032,,,,,,,2024-05-13,1,,,,,フェスタ,0
22,1010101016133,新規,0,2024-05-13,2024-05-13,株式会社ＲＥＡＬ　ＰＲＩＤＥ,,株式会社,東京都,八王子市,堀之内３丁目３１番地１６フェリカ・Ｋ－Ｌ号,,13,201,1920355,,,,,,,2024-05-13,1,,,,,リアルプライド,0
31,1010401182212,新規,0,2024-05-13,2024-05-13,株式会社ＶＬＯＯＭＹ,,株式会社,東京都,港区,北青山１丁目３番１号アールキューブ青山３階,,13,103,1070061,,,,,,,2024-05-13,1,,,,,ヴルーミィ,0
32,1010401182278,新規,0,2024-05-13,2024-05-13,盛和国際株式会社,,株式会社,東京都,港区,赤坂２丁目１５－１８西山興業赤　坂ビル２Ｆ,,13,103,1070052,,,,,,,2024-05-13,1,,,,,セイワコクサイ,0
36,1010403032555,新規,0,2024-05-13,2024-05-13,黒石あずましの里エナジー合同会社,,合同会社,東京都,港区,芝２丁目５番１０号芝公園ＮＤビル６階,,13,103,1050014,,,,,,,2024-05-13,1,,,,,クロイシアズマシノサトエナジー,0
37,1010403032605,新規,0,2024-05-13,2024-05-13,ＩＳＡ　ＪＡＰＡＮ合同会社,,合同会社,東京都,港区,芝大門２丁目４番８号メビウスビル４階,,13,103,1050012,,,,,,,2024-05-13,1,,,,,アイエスエージャパン,0
40,1010503007432,新規,0,2024-05-13,2024-05-13,合同会社ＫＯ・ＭＡ,,合同会社,東京都,台東区,上野６丁目７－１６川久保ビル４１８号室,,13,106,1100005,,,,,,,2024-05-13,1,,,,,コマ,0
47,1010801035036,新規,0,2024-05-13,2024-05-13,蒲田食品株式会社,,株式会社,東京都,大田区,南蒲田１丁目８番２４号,,13,111,1440035,,,,,,,2024-05-13,1,,,,,カマタショクヒン,0
51,1010903009045,新規,0,2024-05-13,2024-05-13,合同会社高倉屋,00134720,合同会社,東京都,世田谷区,船橋７丁目７番８号,,13,112,1560055,,,,,,,2024-05-13,1,,,,,タカクラヤ,0
62,1011301029610,新規,0,2024-05-13,2024-05-13,株式会社ＴＲＥＮＤＯ,,株式会社,東京都,杉並区,下高井戸３丁目３５－３３,,13,115,1680073,,,,,,,2024-05-13,1,,,,,トレンド,0
63,1011301029651,新規,0,2024-05-13,2024-05-13,株式会社Ｎｅｘｔｉｄｅ,,株式会社,東京都,杉並区,成田東３丁目２０番８号,,13,115,1660015,,,,,,,2024-05-13,1,,,,,ネクスタイド,0
71,1011701027263,新規,0,2024-05-13,2024-05-13,株式会社アユミ,,株式会社,東京都,江戸川区,中葛西３丁目３０番４号,,13,123,1340083,,,,,,,2024-05-13,1,,,,,アユミ,0
77,1012403006555,新規,0,2024-05-13,2024-05-13,ＲＡＩＯＮ　ＣＡＰＩＴＡＬ　ＪＡＰＡＮ　ＯＮＥ合同会社,,合同会社,東京都,狛江市,中和泉５丁目２１番１７号,,13,219,2010012,,,,,,,2024-05-13,1,,,,,ライオンキャピタルジャパンワン,0
80,1012801023169,新規,0,2024-05-13,2024-05-13,株式会社ＳＴサービス,,株式会社,東京都,立川市,西砂町２丁目１３番地の３７,,13,202,1900034,,,,,,,2024-05-13,1,,,,,エスティーサービス,0
83,1013301052484,新規,0,2024-05-13,2024-05-13,株式会社ＪＩＫＫＡ,,株式会社,東京都,豊島区,高田１丁目３５－４,,13,116,1710033,,,,,,,2024-05-13,1,,,,,ジッカ,0
86,1020001157142,新規,0,2024-05-13,2024-05-13,株式会社ＢｏｄｙＭａｋｅｒｓ,,株式会社,神奈川県,川崎市幸区,鹿島田１丁目１０番７号,,14,132,2120058,,,,,,,2024-05-13,1,,,,,ボディーメーカーズ,0
87,1020001157150,新規,0,2024-05-13,2024-05-13,丸小野工業株式会社,,株式会社,神奈川県,横浜市泉区,中田東４丁目４０番１３号,,14,116,2450013,,,,,,,2024-05-13,1,,,,,マルオノコウギョウ,0
88,1020001157159,新規,0,2024-05-13,2024-05-13,株式会社ＳＴＡＲＢＥＲＡ,,株式会社,神奈川県,横浜市港北区,箕輪町２丁目７番３６－２１３号,,14,109,2230051,,,,,,,2024-05-13,1,,,,,スターベラ,0
93,1020003026089,新規,0,2024-05-13,2024-05-13,合同会社はくあ塾,,合同会社,神奈川県,横浜市西区,北幸１丁目１１番１号水信ビル７階,,14,103,2200004,,,,,,,2024-05-13,1,,,,,ハクアジュク,0
94,1020003026097,新規,0,2024-05-13,2024-05-13,合同会社アルファビート,,合同会社,神奈川県,川崎市高津区,久本３丁目１４－１－４０４,,14,134,2130011,,,,,,,2024-05-13,1,,,,,アルファビート,0
100,1021003014463,新規,0,2024-05-13,2024-05-13,合同会社アートモータース,,合同会社,神奈川県,伊勢原市,上粕屋２６５番地の２１,,14,214,2591141,,,,,,,2024-05-13,1,,,,,アートモータース,0
107,1030001160269,新規,0,2024-05-13,2024-05-13,株式会社杉設計事務所,,株式会社,埼玉県,戸田市,本町３丁目１５番１６号サンコーポラス１０１,,11,224,3350023,,,,,,,2024-05-13,1,,,,,スギセッケイジムショ,0
110,1030003024216,新規,0,2024-05-13,2024-05-13,ＳＨＩＩＪＩ合同会社,,合同会社,埼玉県,さいたま市岩槻区,美園東２丁目２６番地１６,,11,110,3390028,,,,,,,2024-05-13,1,,,,,シイジ,0
111,1030003024265,新規,0,2024-05-13,2024-05-13,合同会社Ａｌｌ　Ｓｗａｌｌｏｗ,,合同会社,埼玉県,坂戸市,泉町３丁目３番地１３リーブルファイン坂戸泉町２０２号室,,11,239,3500231,,,,,,,2024-05-13,1,,,,,オールスワロー,0
125,1050001054758,新規,0,2024-05-13,2024-05-13,株式会社木村商事,,株式会社,茨城県,笠間市,平町１０４０番地１,,08,216,3091722,,,,,,,2024-05-13,1,,,,,キムラショウジ,0
129,1050003008349,新規,0,2024-05-13,2024-05-13,合同会社アイン,,合同会社,茨城県,つくばみらい市,紫峰ヶ丘３丁目２３番地２,,08,235,3002359,,,,,,,2024-05-13,1,,,,,アイン,0
130,1050005013446,新規,0,2024-05-13,2024-05-13,一般社団法人ウーノペンギンベース,,その他の設立登記法人,茨城県,鹿嶋市,大字荒野１４９４番地３,,08,222,3112221,,,,,,,2024-05-13,1,,,,,ウーノペンギンベース,0
136,1060003005072,新規,0,2024-05-13,2024-05-13,ラスティナ合同会社,,合同会社,栃木県,宇都宮市,三番町１－２０幸洋ハイツ三番町７０２号室,,09,201,3200814,,,,,,,2024-05-13,1,,,,,ラスティナ,0
139,1070001041721,新規,0,2024-05-13,2024-05-13,株式会社ＰＲＧ,,株式会社,群馬県,桐生市,本町５丁目５１番地東部桐生ビル１ＦＣＯＣＯＴＯＭＯＰＲＧ,,10,203,3760031,,,,,,,2024-05-13,1,,,,,ピーアールジー,0
143,1080001026300,新規,0,2024-05-13,2024-05-13,株式会社アストリー,,株式会社,静岡県,静岡市葵区,羽鳥５丁目２０番８号,,22,101,4211215,,,,,,,2024-05-13,1,,,,,アストリー,0
149,1090001018701,新規,0,2024-05-13,2024-05-13,株式会社Ｌａｎｇｕａｇｅ　Ｏｆｆｉｃｅ,,株式会社,山梨県,甲府市,東下条町５５番地２,,19,201,4000843,,,,,,,2024-05-13,1,,,,,ランゲージオフィス,0
151,1090003002562,新規,0,2024-05-13,2024-05-13,合同会社花梨,,合同会社,山梨県,甲府市,太田町２７番３号,,19,201,4000865,,,,,,,2024-05-13,1,,,,,カリン,0
155,1100001037427,新規,0,2024-05-13,2024-05-13,株式会社アイレガーレ,,株式会社,長野県,松本市,大字島立１６３９－１,,20,202,3900852,,,,,,,2024-05-13,1,,,,,アイレガーレ,0
158,1110005017093,新規,0,2024-05-13,2024-05-13,特定非営利活動法人Ｔｉｌｅ　Ｐｅａｃｅ,,その他の設立登記法人,新潟県,妙高市,大字西条４４８番地,,15,217,9440023,,,,,,,2024-05-13,1,,,,,タイルピース,0
168,1120001264746,新規,0,2024-05-13,2024-05-13,株式会社ＤＭＴ,,株式会社,大阪府,大阪市淀川区,塚本４丁目３－９－１０１号室,,27,123,5320026,,,,,,,2024-05-13,1,,,,,ディーエムティー,0
169,1120001264795,新規,0,2024-05-13,2024-05-13,株式会社ＣＹＴ,,株式会社,大阪府,大阪市中央区,南久宝寺町４丁目１３－２０２,,27,128,5410058,,,,,,,2024-05-13,1,,,,,シーワイティー,0
170,1120001264812,新規,0,2024-05-13,2024-05-13,東＿再生資源株式会社,00134711,株式会社,大阪府,大阪市淀川区,三津屋南２丁目５番１５号,,27,123,5320035,,,,,,,2024-05-13,1,,,,,トウシンサイセイシゲン,0
173,1120003026517,新規,0,2024-05-13,2024-05-13,ＸＥＮＯ合同会社,,合同会社,大阪府,大阪市福島区,吉野５丁目２番７号,,27,103,5530006,,,,,,,2024-05-13,1,,,,,ゼノ,0
174,1120003026558,新規,0,2024-05-13,2024-05-13,ＴＡＫＴ合同会社,,合同会社,大阪府,大阪市浪速区,浪速東２丁目２番１－４０４号,,27,111,5560025,,,,,,,2024-05-13,1,,,,,タクト,0
177,1120901049148,新規,0,2024-05-13,2024-05-13,浩崎株式会社,,株式会社,大阪府,豊中市,刀根山元町４番２号,,27,203,5600044,,,,,,,2024-05-13,1,,,,,ヒロサキ,0
178,1120905006608,新規,0,2024-05-13,2024-05-13,一般社団法人ＢＹＳＴＡＮＤＥＲ,,その他の設立登記法人,大阪府,豊中市,北条町３丁目４番１２号,,27,203,5610812,,,,,,,2024-05-13,1,,,,,バイスタンダー,0
181,1130001077024,新規,0,2024-05-13,2024-05-13,京都念珠株式会社,,株式会社,京都府,京都市左京区,吉田橘町３０番地４ｍａｉｓｏｎｄｅｔｏｒｉｏｋｙｏｔｏ３０２,,26,103,6068303,,,,,,,2024-05-13,1,,,,,キョウトネンジュ,0
184,1140001134328,新規,0,2024-05-13,2024-05-13,株式会社アサヒ工務店,,株式会社,兵庫県,西宮市,熊野町１１番１１号,,28,204,6638103,,,,,,,2024-05-13,1,,,,,,0
185,1140001134352,新規,0,2024-05-13,2024-05-13,株式会社オートパッション,,株式会社,兵庫県,三木市,志染町四合谷３３８番地,,28,215,6730506,,,,,,,2024-05-13,1,,,,,オートパッション,0
186,1140001134360,新規,0,2024-05-13,2024-05-13,ビオネスト資産管理株式会社,,株式会社,兵庫県,神戸市中央区,御幸通２丁目１番６号,,28,110,6510087,,,,,,,2024-05-13,1,,,,,ビオネストシサンカンリ,0
187,1140001134385,新規,0,2024-05-13,2024-05-13,株式会社ＵＮＩＯＮ,,株式会社,兵庫県,尼崎市,上坂部２丁目２０番２４号,,28,202,6610979,,,,,,,2024-05-13,1,,,,,ユニオン,0
188,1140001134393,新規,0,2024-05-13,2024-05-13,株式会社ＧＯＵＰ,,株式会社,兵庫県,伊丹市,昆陽３丁目１１７番地,,28,207,6640881,,,,,,,2024-05-13,1,,,,,ゴーアップ,0
190,1140003020567,新規,0,2024-05-13,2024-05-13,ハマダ店設合同会社,,合同会社,兵庫県,姫路市,香寺町須加院３３８－３１０,,28,201,6792132,,,,,,,2024-05-13,1,,,,,ハマダテンセツ,0
193,1150005009590,新規,0,2024-05-13,2024-05-13,医療法人越智歯科医院,,その他の設立登記法人,奈良県,生駒市,白庭台３丁目１５番３号,,29,209,6300136,,,,,,,2024-05-13,1,,,,,オチシカイイン,0
201,1180001161302,新規,0,2024-05-13,2024-05-13,株式会社Ｙ’ｓ電工,,株式会社,愛知県,犬山市,大字羽黒字小安１番地１,,23,215,4840894,,,,,,,2024-05-13,1,,,,,ワイズデンコウ,0
202,1180001161351,新規,0,2024-05-13,2024-05-13,株式会社ＧＥＮＫＡＩ　ＢＡＮＡＮＡ,,株式会社,愛知県,名古屋市中区,新栄２丁目３７番１７号,,23,106,4600007,,,,,,,2024-05-13,1,,,,,ゲンカイバナナ,0
203,1180001161368,新規,0,2024-05-13,2024-05-13,株式会社ＯＴＳエンジニアリング,,株式会社,愛知県,名古屋市中区,千代田３丁目１５番１２号,,23,106,4600012,,,,,,,2024-05-13,1,,,,,オーティエスエンジニアリング,0
204,1180001161418,新規,0,2024-05-13,2024-05-13,株式会社Ｂｒｉｄａｌ　Ｐｌｕｓ,,株式会社,愛知県,名古屋市中区,栄１丁目７番２５号,,23,106,4600008,,,,,,,2024-05-13,1,,,,,ブライダルプラス,0
215,1190001031339,新規,0,2024-05-13,2024-05-13,ＮＯＫＯＲＵ株式会社,,株式会社,三重県,四日市市,大字羽津丁２８９番地３２,,24,202,5100012,,,,,,,2024-05-13,1,,,,,ノコル,0
216,1190003004680,新規,0,2024-05-13,2024-05-13,合同会社イノリス,,合同会社,三重県,松阪市,中万町１０９番地１２,,24,204,5192143,,,,,,,2024-05-13,1,,,,,イノリス,0
217,1200001042499,新規,0,2024-05-13,2024-05-13,株式会社Ｂｅｖａｌｕｅ,,株式会社,岐阜県,可児市,広眺ケ丘６丁目７７番地,,21,214,5090221,,,,,,,2024-05-13,1,,,,,ビバリュー,0
223,1200005013620,新規,0,2024-05-13,2024-05-13,一般社団法人Ｒｅｏｎ,,その他の設立登記法人,岐阜県,岐阜市,上材木町３７３番地１０ライオンズマンション岐阜公園６０３号室,,21,201,5008005,,,,,,,2024-05-13,1,,,,,リオン,0
229,1220001025972,新規,0,2024-05-13,2024-05-13,森商事株式会社,,株式会社,石川県,羽咋市,大町ゐ５番地,,17,207,9250072,,,,,,,2024-05-13,1,,,,,モリショウジ,0
233,1230001020337,新規,0,2024-05-13,2024-05-13,株式会社有志,,株式会社,富山県,高岡市,末広町１４番４号,,16,202,9330023,,,,,,,2024-05-13,1,,,,,ユウシ,0
248,1260001039052,新規,0,2024-05-13,2024-05-13,株式会社風林,,株式会社,岡山県,津山市,国分寺５９８番地,,33,203,7080843,,,,,,,2024-05-13,1,,,,,フウリン,0
261,1280003001842,新規,0,2024-05-13,2024-05-13,合同会社マロン興業,,合同会社,島根県,雲南市,三刀屋町古城１１９８番地１,,32,209,6902405,,,,,,,2024-05-13,1,,,,,マロンコウギョウ,0
265,1290001105636,新規,0,2024-05-13,2024-05-13,株式会社ぽこのかい,,株式会社,福岡県,福岡市博多区,中洲５丁目３番２０－２０７号エンクレスト博多ハーモニー,,40,132,8100801,,,,,,,2024-05-13,1,,,,,ポコノカイ,0
266,1290001105727,新規,0,2024-05-13,2024-05-13,株式会社タカキン,,株式会社,福岡県,糟屋郡宇美町,ひばりが丘３丁目８番１６号,,40,341,8112106,,,,,,,2024-05-13,1,,,,,タカキン,0
268,1290003015247,新規,0,2024-05-13,2024-05-13,ニュークリエーション合同会社,,合同会社,福岡県,春日市,一の谷３丁目２７番地,,40,218,8160852,,,,,,,2024-05-13,1,,,,,ニュークリエーション,0
275,1290005019394,新規,0,2024-05-13,2024-05-13,一般社団法人おてて,,その他の設立登記法人,福岡県,久留米市,三潴町田川３５１番地,,40,203,8300102,,,,,,,2024-05-13,1,,,,,オテテ,0
276,1290801030562,新規,0,2024-05-13,2024-05-13,株式会社Ｏｎｅ．＆Ｃｏ,,株式会社,福岡県,北九州市八幡西区,光貞台１丁目６番２７号,,40,109,8070805,,,,,,,2024-05-13,1,,,,,ワンドットアンドコウ,0
277,1320003004361,新規,0,2024-05-13,2024-05-13,ニュートリノ合同会社,,合同会社,大分県,大分市,勢家町４丁目２番１５号,,44,201,8700031,,,,,,,2024-05-13,1,,,,,ニュートリノ,0
287,1370001051285,新規,0,2024-05-13,2024-05-13,株式会社大葛籠,,株式会社,宮城県,仙台市青葉区,本町１丁目５番２８号カーニープレイス仙台駅前通６０３号室,,04,101,9800014,,,,,,,2024-05-13,1,,,,,オオツヅラ,0
301,1420001018709,新規,0,2024-05-13,2024-05-13,株式会社快癒庵,,株式会社,青森県,八戸市,大字市川町字藁田柳６８番地２,,02,203,0392241,,,,,,,2024-05-13,1,,,,,カイユアン,0
309,1430001091787,新規,0,2024-05-13,2024-05-13,ＰＳＴ　Ｈｏｋｋａｉｄｏ株式会社,,株式会社,北海道,虻田郡ニセコ町,字中央通１４２－５番,,01,395,0481512,,,,,,,2024-05-13,1,,,,,ピーエスティホッカイドウ,0
310,1430001091795,新規,0,2024-05-13,2024-05-13,株式会社トライデント,,株式会社,北海道,札幌市西区,発寒一条３丁目１４番７号,,01,107,0630821,,,,,,,2024-05-13,1,,,,,トライデント,0
315,1430003016296,新規,0,2024-05-13,2024-05-13,ＧＲＯ　Ｖｅｎｔｕｒｅｓ　Ｊａｐａｎ合同会社,,合同会社,北海道,札幌市中央区,北四条西４丁目１番地７ＭＭＳ札幌駅前ビル１階,,01,101,0600004,,,,,,,2024-05-13,1,,,,,グロベンチャーズジャパン,0
316,1430003016313,新規,0,2024-05-13,2024-05-13,合同会社ＭＯキャピタル,,合同会社,北海道,札幌市西区,西町北７丁目１番２５号ＥＶＥＲＧＲＥＥＮ西町１０１号,,01,107,0630061,,,,,,,2024-05-13,1,,,,,エムオーキャピタル,0
319,1460301005221,新規,0,2024-05-13,2024-05-13,株式会社プライムテック,,株式会社,北海道,北見市,緑町４丁目２番６号,,01,208,0900055,,,,,,,2024-05-13,1,,,,,プライムテック,0
320,1470001020180,新規,0,2024-05-13,2024-05-13,株式会社直建,,株式会社,香川県,三豊市,高瀬町上高瀬１５２７番地２,,37,208,7670001,,,,,,,2024-05-13,1,,,,,ナオケン,0
322,1500001025622,新規,0,2024-05-13,2024-05-13,ＬＵＱＭＡＮ　ＴＲＡＤＩＮＧ株式会社,,株式会社,愛媛県,松山市,堀江町１５５６番地,,38,201,7992651,,,,,,,2024-05-13,1,,,,,ルックマントレーディング,0
326,1700150125293,新規,0,2024-05-13,2024-05-13,ＡＩＴＥＫ　ＳＥＲＶＩＣＥＳ　ＰＴＥ．ＬＴＤ．,,外国会社等,東京都,中央区,月島１丁目１４番１３－８０８号,,13,102,1040052,シンガポール共和国ペニンシュラプラザ＃２７－０１ノースブリッジロード１１１,,,,,,2024-05-13,1,,,,,アイテツクサービシズプライベートリミテツド,0
342,2010101016132,新規,0,2024-05-13,2024-05-13,株式会社Ｒｅ‐ｌａｘ,,株式会社,東京都,八王子市,片倉町４６１番地２,,13,201,1920914,,,,,,,2024-05-13,1,,,,,リラックス,0
345,2010401182285,新規,0,2024-05-13,2024-05-13,株式会社Ｒｅｆｉｎｅ,,株式会社,東京都,港区,虎ノ門４丁目３－２城山トラストコートＷ,,13,103,1050001,,,,,,,2024-05-13,1,,,,,リファイン,0
348,2010403032604,新規,0,2024-05-13,2024-05-13,合同会社ＣＯＭＭＯＳＵＳ　Ｉｎｖｅｓｔｍｅｎｔ,,合同会社,東京都,港区,北青山２丁目７－２２－３Ｆ,,13,103,1070061,,,,,,,2024-05-13,1,,,,,コモサスインベストメント,0
357,2010601065133,新規,0,2024-05-13,2024-05-13,株式会社ＮｏｒＮ,,株式会社,東京都,江東区,青海２丁目７－４－５０３,,13,108,1350064,,,,,,,2024-05-13,1,,,,,ノルン,0
362,2010703007173,新規,0,2024-05-13,2024-05-13,ウィットクラフト合同会社,,合同会社,東京都,品川区,上大崎３丁目１１番１０号オープンレジデンシア目黒花房山３０１,,13,109,1410021,,,,,,,2024-05-13,1,,,,,ウィットクラフト,0
367,2010903009028,新規,0,2024-05-13,2024-05-13,合同会社ナラティブ,,合同会社,東京都,世田谷区,上祖師谷３丁目６番７号,,13,112,1570065,,,,,,,2024-05-13,1,,,,,ナラティブ,0
378,2011003019157,新規,0,2024-05-13,2024-05-13,メディアワークス合同会社,,合同会社,東京都,渋谷区,道玄坂１丁目１０番８号渋谷道玄坂東急ビル２Ｆ－Ｃ,,13,113,1500043,,,,,,,2024-05-13,1,,,,,メディアワークス,0
382,2011101107292,新規,0,2024-05-13,2024-05-13,株式会社ＵＲ　Ｄｏｃｔｏｒ,,株式会社,東京都,新宿区,新宿７丁目２６番１８－９０５号,,13,104,1600022,,,,,,,2024-05-13,1,,,,,ユアドクター,0
383,2011101107318,新規,0,2024-05-13,2024-05-13,ＡＮＭＬ株式会社,,株式会社,東京都,新宿区,西新宿３丁目３番１３号西新宿水間ビル２Ｆ,,13,104,1600023,,,,,,,2024-05-13,1,,,,,アニマル,0
386,2011301029650,新規,0,2024-05-13,2024-05-13,株式会社ＩＲＯＤＯＬＩＮＫ,,株式会社,東京都,杉並区,荻窪５丁目３０番１２号グローリア荻窪７１３,,13,115,1670051,,,,,,,2024-05-13,1,,,,,イロドリンク,0
392,2012401041859,新規,0,2024-05-13,2024-05-13,株式会社ＷｉｌｅＥｓ,,株式会社,東京都,調布市,深大寺北町７丁目２９番地３・５－２号棟,,13,208,1820011,,,,,,,2024-05-13,1,,,,,ワイリーズ,0
393,2012403006554,新規,0,2024-05-13,2024-05-13,合同会社猫クリエイト,,合同会社,東京都,三鷹市,下連雀７丁目８番２－５０２号,,13,204,1810013,,,,,,,2024-05-13,1,,,,,ネコクリエイト,0
401,2013301052434,新規,0,2024-05-13,2024-05-13,株式会社Ｂｅｓｔ　Ｏｎｅ,,株式会社,東京都,豊島区,巣鴨４丁目５番１７号,,13,116,1700002,,,,,,,2024-05-13,1,,,,,ベストワン,0
402,2013301052475,新規,0,2024-05-13,2024-05-13,株式会社ＤｏｕｂｌｅＵ　Ｃ＆Ｃ　Ｊａｐａｎ,,株式会社,東京都,豊島区,東池袋５丁目７番３号アゼリア東池袋４０１,,13,116,1700013,,,,,,,2024-05-13,1,,,,,ダブルユーシーアンドシージャパン,0
403,2013301052491,新規,0,2024-05-13,2024-05-13,住環境プロデュース株式会社,,株式会社,東京都,豊島区,目白４丁目２１番３号,,13,116,1710031,,,,,,,2024-05-13,1,,,,,ジュウカンキョウプロデュース,0
405,2020001028722,新規,0,2024-05-13,2024-05-13,株式会社プラネット,,株式会社,神奈川県,横浜市中区,山手町２１番地の１－１０３号,,14,104,2310862,,,,,,,2024-05-13,1,,,,,プラネット,0
409,2020001157117,新規,0,2024-05-13,2024-05-13,株式会社中村舞台,,株式会社,神奈川県,川崎市多摩区,西生田５丁目１３番１３号,,14,135,2140037,,,,,,,2024-05-13,1,,,,,,0
410,2020001157158,新規,0,2024-05-13,2024-05-13,矢田堀総合会計事務所株式会社,,株式会社,神奈川県,横浜市戸塚区,矢部町１３５番地９,,14,110,2440002,,,,,,,2024-05-13,1,,,,,ヤタボリソウゴウカイケイジムショ,0
411,2020001157166,新規,0,2024-05-13,2024-05-13,株式会社ＭＲ　ｅｘｐｒｅｓｓ,,株式会社,神奈川県,横浜市中区,長者町５丁目４８番地５－２０１号室,,14,104,2310033,,,,,,,2024-05-13,1,,,,,エムアールエクスプレス,0
412,2020001157232,新規,0,2024-05-13,2024-05-13,株式会社インコムレイド,,株式会社,神奈川県,横浜市港北区,日吉本町４丁目２４番１５号,,14,109,2230062,,,,,,,2024-05-13,1,,,,,インコムレイド,0
435,2030001160326,新規,0,2024-05-13,2024-05-13,ＳＧアーキテクト株式会社,,株式会社,埼玉県,三郷市,中央１丁目３番地２三郷中央センターマークス４１６号室,,11,237,3410038,,,,,,,2024-05-13,1,,,,,エスジーアーキテクト,0
453,2040001133438,新規,0,2024-05-13,2024-05-13,株式会社新倉美化学研究所,,株式会社,千葉県,千葉市美浜区,打瀬１丁目６番地４ファーストウイングＤ１２０７号,,12,106,2610013,,,,,,,2024-05-13,1,,,,,ニイクラビカカガクケンキュウジョ,0
454,2040001133512,新規,0,2024-05-13,2024-05-13,株式会社ＤＦＧ,,株式会社,千葉県,千葉市緑区,あすみが丘２丁目１７番地１３,,12,105,2670066,,,,,,,2024-05-13,1,,,,,ディーエフジー,0
455,2040001133520,新規,0,2024-05-13,2024-05-13,株式会社スライス商事,,株式会社,千葉県,千葉市緑区,おゆみ野２丁目４３番地７,,12,105,2660031,,,,,,,2024-05-13,1,,,,,スライスショウジ,0
456,2040001133529,新規,0,2024-05-13,2024-05-13,株式会社ＴＨＥ　ＣＨＡＮＣＥＬＬＯＲＳ,,株式会社,千葉県,柏市,高柳字高野台８５９番１１,,12,217,2770941,,,,,,,2024-05-13,1,,,,,ザチャンセラーズ,0
457,2040001133545,新規,0,2024-05-13,2024-05-13,株式会社ＣＨＡＲＩＳ,,株式会社,千葉県,千葉市中央区,中央３丁目１６番１号デュオヒルズ千葉中央１４０３号,,12,101,2600013,,,,,,,2024-05-13,1,,,,,カリス,0
463,2040003024957,新規,0,2024-05-13,2024-05-13,合同会社ＣＮＣＣ,,合同会社,千葉県,八千代市,高津９８８番地２９,,12,221,2760036,,,,,,,2024-05-13,1,,,,,シーエヌシーシー,0
476,2050003008348,新規,0,2024-05-13,2024-05-13,合同会社ｃｈｉｌｌ,,合同会社,茨城県,那珂郡東海村,大字船場７３１番地１８,,08,341,3191115,,,,,,,2024-05-13,1,,,,,チル,0
477,2050003008356,新規,0,2024-05-13,2024-05-13,合同会社エヌケーエンジニアリング,,合同会社,茨城県,古河市,常盤町１４番３４号,,08,204,3060007,,,,,,,2024-05-13,1,,,,,エヌケーエンジニアリング,0
487,2090001018700,新規,0,2024-05-13,2024-05-13,千禧株式会社,,株式会社,山梨県,甲斐市,篠原１８２２番４,,19,210,4000115,,,,,,,2024-05-13,1,,,,,センキ,0
504,2120001264670,新規,0,2024-05-13,2024-05-13,株式会社Ｋ・サポート,,株式会社,大阪府,大阪市生野区,巽東３丁目１３番２８－８０２号,00134710,27,116,5440014,,,,,,,2024-05-13,1,,,,,ケーサポート,0
505,2120001264687,新規,0,2024-05-13,2024-05-13,株式会社七五三通,,株式会社,大阪府,大阪市旭区,新森１丁目７番２－６２８号,,27,117,5350022,,,,,,,2024-05-13,1,,,,,シメツウ,0
506,2120001264720,新規,0,2024-05-13,2024-05-13,頌株式会社,,株式会社,大阪府,大阪市生野区,林寺３丁目５番３号,,27,116,5440023,,,,,,,2024-05-13,1,,,,,ショウ,0
507,2120001264745,新規,0,2024-05-13,2024-05-13,メッセージ株式会社,,株式会社,大阪府,枚方市,岡南町６番２７－３１９号,,27,210,5730033,,,,,,,2024-05-13,1,,,,,メッセージ,0
508,2120001264778,新規,0,2024-05-13,2024-05-13,ＪＬＰキャピタルリース株式会社,,株式会社,大阪府,大阪市港区,夕凪２丁目１６－９,,27,107,5520004,,,,,,,2024-05-13,1,,,,,ジェイエルピーキャピタルリース,0
509,2120001264786,新規,0,2024-05-13,2024-05-13,ＭＩＹＵＫＩ株式会社,,株式会社,大阪府,大阪市北区,長柄中２丁目５番３０号,,27,127,5310062,,,,,,,2024-05-13,1,,,,,ミユキ,0
515,2120901049147,新規,0,2024-05-13,2024-05-13,昇輝株式会社,,株式会社,大阪府,豊中市,庄内宝町１丁目８番３－２０３号,,27,203,5610836,,,,,,,2024-05-13,1,,,,,ショウキ,0
516,2120901049155,新規,0,2024-05-13,2024-05-13,株式会社榊原自動車販売,,株式会社,大阪府,豊中市,曽根西町４丁目７番６号,,27,203,5610801,,,,,,,2024-05-13,1,,,,,サカキバラジドウシャハンバイ,0
519,2120905006607,新規,0,2024-05-13,2024-05-13,特定非営利活動法人四季協会,,その他の設立登記法人,大阪府,吹田市,佐竹台１丁目５番１０－８０７号,,27,205,5650855,,,,,,,2024-05-13,1,,,,,シキキョウカイ,0
528,2140001134384,新規,0,2024-05-13,2024-05-13,株式会社ティーディーエス,,株式会社,兵庫県,西宮市,甲陽園西山町５番６０号,,28,204,6620017,,,,,,,2024-05-13,1,,,,,ティーディーエス,0
534,2140003020558,新規,0,2024-05-13,2024-05-13,合同会社ｃｏｚｙ‐Ｍ,,合同会社,兵庫県,神戸市北区,筑紫が丘５丁目４番１６号,,28,109,6511212,,,,,,,2024-05-13,1,,,,,コージーエム,0
535,2160001025912,新規,0,2024-05-13,2024-05-13,株式会社日新,,株式会社,滋賀県,大津市,朝日が丘１丁目４番３１号村田ビル４Ｆ,,25,201,5200052,,,,,,,2024-05-13,1,,,,,ニッシン,0
542,2180001161318,新規,0,2024-05-13,2024-05-13,株式会社ＳＡＮＫＯ,,株式会社,愛知県,知多市,八幡字岩ノ脇９８番地の７,,23,224,4780001,,,,,,,2024-05-13,1,,,,,サンコー,0
543,2180001161359,新規,0,2024-05-13,2024-05-13,セルフカフェ株式会社,,株式会社,愛知県,名古屋市緑区,鴻仏目１丁目１０２番地,,23,114,4580023,,,,,,,2024-05-13,1,,,,,セルフカフェ,0
544,2180001161375,新規,0,2024-05-13,2024-05-13,株式会社Ｅｎ,,株式会社,愛知県,名古屋市中川区,前田西町３丁目７０５番地の５,,23,110,4540941,,,,,,,2024-05-13,1,,,,,エン,0
545,2180001161417,新規,0,2024-05-13,2024-05-13,株式会社ＹＯＣＣＨｉ,,株式会社,愛知県,春日井市,瑞穂通６丁目４２番地１,,23,206,4860845,,,,,,,2024-05-13,1,,,,,ヨッチ,0
551,2180301038637,新規,0,2024-05-13,2024-05-13,ＣＴＳコーポレーション株式会社,,株式会社,愛知県,西尾市,法光寺町北山６０番地４,,23,213,4450892,,,,,,,2024-05-13,1,,,,,シーティーエスコーポレーション,0
552,2180303006121,新規,0,2024-05-13,2024-05-13,合同会社つわぶき,,合同会社,愛知県,豊橋市,二川町字北裏７７番地,,23,201,4413151,,,,,,,2024-05-13,1,,,,,ツワブキ,0
553,2190001031321,新規,0,2024-05-13,2024-05-13,株式会社ＰＥＴＷＨＡＣ,,株式会社,三重県,四日市市,三ツ谷町９番２１号,,24,202,5100802,,,,,,,2024-05-13,1,,,,,ペトワック,0
554,2190001031338,新規,0,2024-05-13,2024-05-13,ＲＡＫＵＮＯＵ株式会社,,株式会社,三重県,鈴鹿市,深溝町３４０１,,24,207,5190321,,,,,,,2024-05-13,1,,,,,ラクノウ,0
557,2200001042498,新規,0,2024-05-13,2024-05-13,ＪＡＮ　ＴＲＡＤＩＮＧ株式会社,,株式会社,岐阜県,大垣市,長松町８８９番地１木下ビル２階,,21,202,5030997,,,,,,,2024-05-13,1,,,,,ジャントレーディング,0
560,2240001063210,新規,0,2024-05-13,2024-05-13,株式会社ミ・ライズ,,株式会社,広島県,福山市,熊野町乙１２３９番地,,34,207,7200411,,,,,,,2024-05-13,1,,,,,ミライズ,0
566,2260001039051,新規,0,2024-05-13,2024-05-13,アローズ株式会社,,株式会社,岡山県,倉敷市,玉島長尾３０７０番地,,33,202,7100251,,,,,,,2024-05-13,1,,,,,アローズ,0
569,2260003004680,新規,0,2024-05-13,2024-05-13,Ｆｒｏｘｙ合同会社,,合同会社,岡山県,岡山市東区,瀬戸町万富５９９－４,,33,103,7090841,,,,,,,2024-05-13,1,,,,,フロキシー,0
575,2290001105619,新規,0,2024-05-13,2024-05-13,株式会社ＳＴＵＤＩＯ　ＷＥＥＢ,,株式会社,福岡県,福岡市中央区,天神４丁目６番２８号天神ファーストビル７階,,40,133,8100001,,,,,,,2024-05-13,1,,,,,スタジオウィーブ,0
576,2290003015238,新規,0,2024-05-13,2024-05-13,合同会社ハレロケセア,,合同会社,福岡県,福岡市早良区,次郎丸６丁目５番４７号,,40,137,8140165,,,,,,,2024-05-13,1,,,,,ハレロケセア,0
582,2290005019393,新規,0,2024-05-13,2024-05-13,一般財団法人岩田産業グループ信楽喜財団,,その他の設立登記法人,福岡県,福岡市博多区,諸岡３丁目２６番３９号,,40,132,8120894,,,,,,,2024-05-13,1,,,,,イワタサンギョウグループシラキザイダン,0
583,2290005019402,新規,0,2024-05-13,2024-05-13,アテナ税理士法人,,その他の設立登記法人,福岡県,福岡市中央区,大名２丁目２番５０号,,40,133,8100041,,,,,,,2024-05-13,1,,,,,アテナ,0
591,2320001020450,新規,0,2024-05-13,2024-05-13,株式会社カイエ,,株式会社,大分県,杵築市,山香町大字久木野尾３９１５番地の１,,44,210,8791313,,,,,,,2024-05-13,1,,,,,カイエ,0
598,2360001033647,新規,0,2024-05-13,2024-05-13,聚興商事株式会社,,株式会社,沖縄県,豊見城市,字与根１６８番地,,47,212,9010224,,,,,,,2024-05-13,1,,,,,シュウコウショウジ,0
600,2370001051284,新規,0,2024-05-13,2024-05-13,株式会社ｓｕｇａｒ,,株式会社,宮城県,仙台市宮城野区,岩切字昭和北１８番地の７,,04,102,9830821,,,,,,,2024-05-13,1,,,,,シュガー,0
610,2420001018716,新規,0,2024-05-13,2024-05-13,株式会社ｅｎ,,株式会社,青森県,弘前市,大字末広４丁目５番地１フィールファイン末広Ｂ－１０２号,,02,202,0368085,,,,,,,2024-05-13,1,,,,,エン,0
611,2420003002916,新規,0,2024-05-13,2024-05-13,合同会社Ｈ＆Ｋ,,合同会社,青森県,三戸郡田子町,大字田子字矢田郎４番地の１,,02,443,0390201,,,,,,,2024-05-13,1,,,,,エイチアンドケー,0
622,2430001091786,新規,0,2024-05-13,2024-05-13,株式会社ダブリュープロモーション,,株式会社,北海道,札幌市中央区,南八条西６丁目７番地２ジュエルタワー２００２号,,01,101,0640808,,,,,,,2024-05-13,1,,,,,ダブリュープロモーション,0
629,2470003002647,新規,0,2024-05-13,2024-05-13,合同会社Ｍ＆Ｈ,,合同会社,香川県,綾歌郡綾川町,畑田９６４番地２３６,,37,387,7612101,,,,,,,2024-05-13,1,,,,,エムアンドエイチ,0
633,2700150125219,新規,0,2024-05-13,2024-05-13,ＳＨＥＮ　ＺＨＥＮ　ＳＨＩ　ＧＵＡＮ　ＨＡＩ　ＫＥ　ＪＩ　ＹＯＵ　ＸＩＡＮ　ＧＯＮＧ　ＳＩ,,外国会社等,,,,,,,,Ｑｉａｎｈａｉｓｈｅｎｇａｎｇｈｅｚｕｏｑｕ　ｎａｎｓｈａｎｊｉｅｄａｏ　ｇｕｉｗａｎｓａｎｌｕ９１ｈａｏ　ｊｉｎｇｘｉｎｇｈａｉｓｈａｎｇｄａｓｈａ　１０１０，ＳｈｅｎＺｈｅｎ，５１８０００,,,,,,2024-05-13,1,,,,,シェンジェンシグァンハイカージヨウシエンゴンスー,0
634,2700150125292,新規,0,2024-05-13,2024-05-13,Ｔｒｅｅ　Ｅｎｅｒｇｙ　Ｓｏｌｕｔｉｏｎｓ　Ｂ．Ｖ．,,外国会社等,東京都,千代田区,丸の内３丁目４番１号新国際ビル８階,,13,101,1000005,オランダ王国１１１８ＢＧスキポール、スキポール・ブルバード１２７、オフィスＧ４．２１,,,,,,2024-05-13,1,,,,,ツリーエナジーソリユーシヨンズビーヴイー,0
655,3010001244666,新規,0,2024-05-13,2024-05-13,株式会社Ｏｂｔｅｎｉｒ,,株式会社,東京都,中央区,銀座４丁目１３－１１松竹倶楽部ビル９階,,13,102,1040061,,,,,,,2024-05-13,1,,,,,オプトゥニール,0
656,3010001244757,新規,0,2024-05-13,2024-05-13,株式会社サイディーア,,株式会社,東京都,千代田区,神田三崎町２丁目２０番７号,,13,101,1010061,,,,,,,2024-05-13,1,,,,,サイディーア,0
665,3010401182235,新規,0,2024-05-13,2024-05-13,ＵＮＩＰＰＯ株式会社,,株式会社,東京都,港区,南青山２丁目２６番３７号ＶＯＲＴ外苑前Ｉ９Ｆ,,13,103,1070062,,,,,,,2024-05-13,1,,,,,ユニッポ,0
666,3010401182284,新規,0,2024-05-13,2024-05-13,株式会社ｅｘｃｅｒｉｘ,,株式会社,東京都,港区,南青山４丁目１７番３３号グランカーサ南青山２階Ｃ８,,13,103,1070062,,,,,,,2024-05-13,1,,,,,エクセリックス,0
667,3010401182301,新規,0,2024-05-13,2024-05-13,株式会社Ｌｅａｌｅ,,株式会社,東京都,港区,港南２丁目１７－１京王品川ビル２Ｆ,,13,103,1080075,,,,,,,2024-05-13,1,,,,,レアーレ,0
674,3010501052239,新規,0,2024-05-13,2024-05-13,東京国際第一交通株式会社,,株式会社,東京都,台東区,三ノ輪１丁目２８番１６号,,13,106,1100011,,,,,,,2024-05-13,1,,,,,トウキョウコクサイダイイチコウツウ,0
675,3010501052255,新規,0,2024-05-13,2024-05-13,株式会社デラトス,,株式会社,東京都,台東区,北上野２丁目２４－１２－６０１,,13,106,1100014,,,,,,,2024-05-13,1,,,,,デラトス,0
677,3010601065099,新規,0,2024-05-13,2024-05-13,協創情報システム株式会社,,株式会社,東京都,墨田区,江東橋１丁目１６番１－４００号,,13,107,1300022,,,,,,,2024-05-13,1,,,,,キョウソウジョウホウシステム,0
692,3011101107283,新規,0,2024-05-13,2024-05-13,Ｓｅｃｏｎｄ　Ｐａｇｅ株式会社,,株式会社,東京都,新宿区,東五軒町１番９号ＳＢＳ－Ｂ－９号,,13,104,1620813,,,,,,,2024-05-13,1,,,,,セカンドページ,0
703,3011401026092,新規,0,2024-05-13,2024-05-13,株式会社ＨＩＲＯ,,株式会社,東京都,板橋区,大谷口１丁目２３番２号,,13,119,1730035,,,,,,,2024-05-13,1,,,,,ヒロ,0
711,3011703003814,新規,0,2024-05-13,2024-05-13,Ｖｅｉｌｅｄ　Ｈａｖｅｎ合同会社,,合同会社,東京都,江戸川区,平井６丁目６３番１４号－３０６号室,,13,123,1320035,,,,,,,2024-05-13,1,,,,,ヴェイールドヘイヴン,0
718,3013301052482,新規,0,2024-05-13,2024-05-13,株式会社リダクション,,株式会社,東京都,豊島区,池袋２丁目１４－５丸十ビルＩＩ６階,00134709,13,116,1710014,,,,,,,2024-05-13,1,,,,,リダクション,0
719,3013301052490,新規,0,2024-05-13,2024-05-13,株式会社シーノコーポレーション,,株式会社,東京都,豊島区,南池袋２丁目４５番２－３３０４号,,13,116,1710022,,,,,,,2024-05-13,1,,,,,シーノコーポレーション,0
725,3020001157157,新規,0,2024-05-13,2024-05-13,株式会社ユーリカ・ワイヤレス,,株式会社,神奈川県,横浜市神奈川区,栄町５番地１横浜クリエーションスクエア１４階,,14,102,2210052,,,,,,,2024-05-13,1,,,,,ユーリカワイヤレス,0
726,3020001157165,新規,0,2024-05-13,2024-05-13,株式会社Ｃａｓｈｃａｄｅ　Ｅｎｔｅｒｔａｉｎｍｅｎｔ,,株式会社,神奈川県,川崎市中原区,丸子通１丁目４７５番１号,,14,133,2110006,,,,,,,2024-05-13,1,,,,,キャッシュケードエンターテインメント,0
729,3020003026095,新規,0,2024-05-13,2024-05-13,合同会社Ｌｉｂｒｅ,,合同会社,神奈川県,横浜市西区,北幸２丁目１０番４８号むつみビル３階,,14,103,2200004,,,,,,,2024-05-13,1,,,,,リーブル,0
743,3030001160267,新規,0,2024-05-13,2024-05-13,Ｗｈｉｔｅ　Ｅｌｅｐｈａｎｔ株式会社,,株式会社,埼玉県,新座市,新座２丁目１３番３－１６号,,11,230,3520006,,,,,,,2024-05-13,1,,,,,ホワイトエレファント,0
744,3030001160283,新規,0,2024-05-13,2024-05-13,株式会社豊宇国際,,株式会社,埼玉県,川口市,並木１丁目６番３５－１１６号,,11,203,3320034,,,,,,,2024-05-13,1,,,,,トヨタカコクサイ,0
752,3030003024214,新規,0,2024-05-13,2024-05-13,第一藤和合同会社,,合同会社,埼玉県,朝霞市,根岸台１丁目９番４０号１Ｆ,,11,227,3510005,,,,,,,2024-05-13,1,,,,,ダイイチトウワ,0
757,3040001133511,新規,0,2024-05-13,2024-05-13,株式会社ＺＥＡＬ,,株式会社,千葉県,千葉市緑区,あすみが丘２丁目１７番地１３－２Ｆ,,12,105,2670066,,,,,,,2024-05-13,1,,,,,ジール,0
759,3040003024634,新規,0,2024-05-13,2024-05-13,合同会社ＥｌｉｚａＣｏｓｍｏ,,合同会社,千葉県,船橋市,栄町１丁目６番１２－２号,,12,204,2730018,,,,,,,2024-05-13,1,,,,,エリザコスモ,0
760,3040003024980,新規,0,2024-05-13,2024-05-13,合同会社ｓｅｎａ,,合同会社,千葉県,袖ケ浦市,坂戸市場８７４,,12,229,2990262,,,,,,,2024-05-13,1,,,,,セナ,0
761,3040003024989,新規,0,2024-05-13,2024-05-13,合同会社共創カウンシル,,合同会社,千葉県,船橋市,二和東６丁目３１番１０号,,12,204,2740805,,,,,,,2024-05-13,1,,,,,キョウソウカウンシル,0
762,3050003008355,新規,0,2024-05-13,2024-05-13,ＦＭＡ　Ｔｒａｄｉｎｇ合同会社,,合同会社,茨城県,古河市,尾崎２６３２番地５０,,08,204,3060101,,,,,,,2024-05-13,1,,,,,エフエムエートレーディング,0
764,3060001037058,新規,0,2024-05-13,2024-05-13,ｋａｚｕ建装株式会社,,株式会社,栃木県,下都賀郡壬生町,大師町５番１４号大師ハイツＣ１０２,,09,361,3210228,,,,,,,2024-05-13,1,,,,,カズケンソウ,0
766,3070003005400,新規,0,2024-05-13,2024-05-13,アールエイト合同会社,,合同会社,群馬県,邑楽郡大泉町,仙石４丁目３－１富士見ハイツ２０２,,10,524,3700533,,,,,,,2024-05-13,1,,,,,アールエイト,0
774,3080101024747,新規,0,2024-05-13,2024-05-13,株式会社ジャパンフードサービス,,株式会社,静岡県,裾野市,千福２２６－１,,22,220,4101116,,,,,,,2024-05-13,1,,,,,ジャパンフードサービス,0
778,3090001018699,新規,0,2024-05-13,2024-05-13,株式会社ＫＤＳ,,株式会社,山梨県,甲斐市,竜王１１１９番地２,,19,210,4000118,,,,,,,2024-05-13,1,,,,,ケーディーエス,0
779,3090003002560,新規,0,2024-05-13,2024-05-13,合同会社ＨｏｏＨ,,合同会社,山梨県,中巨摩郡昭和町,築地新居８４０番地２,,19,384,4093853,,,,,,,2024-05-13,1,,,,,フーフ,0
781,3100003007533,新規,0,2024-05-13,2024-05-13,合同会社トップウォーター,,合同会社,長野県,下伊那郡松川町,大島２９９５番地,,20,402,3993304,,,,,,,2024-05-13,1,,,,,トップウォーター,0
793,3120001264265,新規,0,2024-05-13,2024-05-13,株式会社ＫＮロードサービス,,株式会社,大阪府,枚方市,長尾元町７丁目６６番２号,,27,210,5730163,,,,,,,2024-05-13,1,,,,,ケイエヌロードサービス,0
794,3120001264686,新規,0,2024-05-13,2024-05-13,株式会社Ａｒｍａｄｉｌｌｏ．,,株式会社,大阪府,枚方市,招提中町１丁目１１番１４号,,27,210,5731152,,,,,,,2024-05-13,1,,,,,アルマジロ,0
795,3120001264769,新規,0,2024-05-13,2024-05-13,株式会社祝栄,,株式会社,大阪府,大阪市西成区,天下茶屋北２丁目５番４号,,27,122,5570003,,,,,,,2024-05-13,1,,,,,シュウエイ,0
796,3120001264777,新規,0,2024-05-13,2024-05-13,ホワイトボックス株式会社,,株式会社,大阪府,大阪市西淀川区,姫島６丁目５番９号,,27,113,5550033,,,,,,,2024-05-13,1,,,,,ホワイトボックス,0
797,3120001264785,新規,0,2024-05-13,2024-05-13,柚子株式会社,,株式会社,大阪府,大阪市淀川区,東三国２丁目１８番１３号３０２号室,,27,123,5320002,,,,,,,2024-05-13,1,,,,,ユズ,0
798,3120001264793,新規,0,2024-05-13,2024-05-13,ＷＡＳＰ　ＪＰ株式会社,,株式会社,大阪府,大阪市北区,梅田１丁目２番２号大阪駅前第２ビル１２－１２,,27,127,5300001,,,,,,,2024-05-13,1,,,,,ワスプジェイピー,0
799,3120001264810,新規,0,2024-05-13,2024-05-13,株式会社Ａｐｏｌｌｏ,,株式会社,大阪府,大阪市中央区,久太郎町２丁目５番１９号トライハードビル５階,,27,128,5410056,,,,,,,2024-05-13,1,,,,,アポロ,0
800,3120003026564,新規,0,2024-05-13,2024-05-13,東吉合同会社,,合同会社,大阪府,大阪市旭区,新森２丁目２１番４－４０２号,,27,117,5350022,,,,,,,2024-05-13,1,,,,,トウヨシ,0
805,3120101069507,新規,0,2024-05-13,2024-05-13,彩和株式会社,,株式会社,大阪府,堺市堺区,住吉橋町１丁３－１１－１０１,,27,141,5900973,,,,,,,2024-05-13,1,,,,,サイワ,0
806,3120101069556,新規,0,2024-05-13,2024-05-13,株式会社上條林業,,株式会社,大阪府,南河内郡河南町,大字下河内１８４番地の１,,27,382,5850023,,,,,,,2024-05-13,1,,,,,ウエジョウリンギョウ,0
807,3120101069564,新規,0,2024-05-13,2024-05-13,株式会社古川総建,,株式会社,大阪府,堺市中区,福田７６３番地４,,27,142,5998241,,,,,,,2024-05-13,1,,,,,フルカワソウケン,0
808,3120101069572,新規,0,2024-05-13,2024-05-13,株式会社山田果樹,,株式会社,大阪府,堺市北区,南花田町５５６番地５,,27,146,5918011,,,,,,,2024-05-13,1,,,,,ヤマダカジュ,0
811,3120903005171,新規,0,2024-05-13,2024-05-13,合同会社みつばちＢｅａｕｔｙ＆Ｃａｒｅ,,合同会社,大阪府,茨木市,大池２丁目２７番２９号,,27,211,5670826,,,,,,,2024-05-13,1,,,,,ミツバチビューティーアンドケア,0
817,3130001077030,新規,0,2024-05-13,2024-05-13,株式会社ウェルスマイルズ,,株式会社,京都府,京都市北区,紫竹西北町４１番地,,26,101,6038426,,,,,,,2024-05-13,1,,,,,ウェルスマイルズ,0
822,3160003003188,新規,0,2024-05-13,2024-05-13,合同会社スクエアブライト,,合同会社,滋賀県,大津市,萱野浦２－３０ゼファー４０３,,25,201,5202143,,,,,,,2024-05-13,1,,,,,スクエアブライト,0
830,3180001161283,新規,0,2024-05-13,2024-05-13,ＧＭ　ＴＲＡＤＩＮＧ株式会社,,株式会社,愛知県,津島市,中地町３丁目１９番地１中惣ビル２Ｃ,,23,208,4960847,,,,,,,2024-05-13,1,,,,,ジーエムトレーディング,0
831,3180001161309,新規,0,2024-05-13,2024-05-13,株式会社Ｆｒａｎｃｅｓ,,株式会社,愛知県,名古屋市中区,丸の内３丁目１０番１２号,,23,106,4600002,,,,,,,2024-05-13,1,,,,,フランセス,0
832,3180001161317,新規,0,2024-05-13,2024-05-13,株式会社オフィスＷＡＫＯ,,株式会社,愛知県,清須市,一場１２８１番地,,23,233,4520931,,,,,,,2024-05-13,1,,,,,オフィスワコウ,0
833,3180001161325,新規,0,2024-05-13,2024-05-13,株式会社クリアコネクト,,株式会社,愛知県,名古屋市東区,大幸３丁目２番１５号,,23,102,4610043,,,,,,,2024-05-13,1,,,,,クリアコネクト,0
834,3180001161358,新規,0,2024-05-13,2024-05-13,株式会社ユニケミープラス,,株式会社,愛知県,名古屋市熱田区,伝馬１丁目１１番１号,,23,109,4560034,,,,,,,2024-05-13,1,,,,,ユニケミープラス,0
835,3180001161382,新規,0,2024-05-13,2024-05-13,株式会社名修,,株式会社,愛知県,あま市,篠田南分１８番地５,,23,237,4901211,,,,,,,2024-05-13,1,,,,,メイシュウ,0
836,3180001161416,新規,0,2024-05-13,2024-05-13,株式会社フォローアップ,,株式会社,愛知県,名古屋市中区,錦２丁目１５番１９号アゼット錦ビル２Ｆ,,23,106,4600003,,,,,,,2024-05-13,1,,,,,フォローアップ,0
837,3180001161424,新規,0,2024-05-13,2024-05-13,株式会社ＩＧＡ空調,,株式会社,愛知県,一宮市,奥町字南目草３６番地４,,23,203,4910201,,,,,,,2024-05-13,1,,,,,アイジーエイクウチョウ,0
844,3180303006120,新規,0,2024-05-13,2024-05-13,合同会社スターアッド,,合同会社,愛知県,岡崎市,井田町字４丁目１５９番地５,,23,202,4440076,,,,,,,2024-05-13,1,,,,,スターアッド,0
848,3190001031345,新規,0,2024-05-13,2024-05-13,株式会社おうそう,,株式会社,三重県,伊勢市,船江３丁目１２番９号,,24,203,5160008,,,,,,,2024-05-13,1,,,,,オウソウ,0
874,3290001105626,新規,0,2024-05-13,2024-05-13,ｎａｔｕｒａｌ　ｎａｔｕｒａｌ株式会社,,株式会社,福岡県,福岡市南区,長丘５丁目１６番８号,,40,134,8150075,,,,,,,2024-05-13,1,,,,,,0
876,3290003015237,新規,0,2024-05-13,2024-05-13,ＨＱ　ＪＡＰＡＮ合同会社,,合同会社,福岡県,福岡市博多区,美野島２丁目１６番１３号美野島Ａビル３０２号室,,40,132,8120017,,,,,,,2024-05-13,1,,,,,エイチキュージャパン,0
877,3290003015245,新規,0,2024-05-13,2024-05-13,ＳＨＲＥＳＴＨＡ合同会社,,合同会社,福岡県,小郡市,祇園２丁目６－５田中建設ビル２０１号,,40,216,8380144,,,,,,,2024-05-13,1,,,,,シュレスタ,0
878,3290003015278,新規,0,2024-05-13,2024-05-13,合同会社やじま商会,,合同会社,福岡県,福岡市中央区,唐人町３丁目２番２１－５０３号,,40,133,8100063,,,,,,,2024-05-13,1,,,,,ヤジマショウカイ,0
881,3290005019392,新規,0,2024-05-13,2024-05-13,ＮＰＯ法人柳川匠の会,,その他の設立登記法人,福岡県,柳川市,大和町明野５７５番地,,40,207,8390251,,,,,,,2024-05-13,1,,,,,ヤナガワタクミノカイ,0
882,3290005019401,新規,0,2024-05-13,2024-05-13,一般社団法人Ｃｏｍｐａｓｓ　ｆｏｒ　Ｄｒｅａｍ,,その他の設立登記法人,福岡県,福岡市中央区,大名２丁目９番２７号野村不動産赤坂センタービル５階,,40,133,8100041,,,,,,,2024-05-13,1,,,,,コンパスフォードリーム,0
889,3320001020474,新規,0,2024-05-13,2024-05-13,株式会社永松電気防災,,株式会社,大分県,中津市,三光諌山１３９２番地１オーリス三光Ｆ棟,,44,203,8710104,,,,,,,2024-05-13,1,,,,,ナガマツデンキボウサイ,0
890,3330001032056,新規,0,2024-05-13,2024-05-13,株式会社喜森,,株式会社,熊本県,人吉市,浪床町３２５０番地５８,,43,203,8680045,,,,,,,2024-05-13,1,,,,,キシン,0
891,3340001026494,新規,0,2024-05-13,2024-05-13,株式会社リンクアドベンチャーズ,,株式会社,鹿児島県,奄美市,名瀬朝仁新町１番地２０,,46,222,8940041,,,,,,,2024-05-13,1,,,,,リンクアドベンチャーズ,0
895,3350001018961,新規,0,2024-05-13,2024-05-13,株式会社リテラシー,,株式会社,宮崎県,宮崎市,橘通東２丁目６番２０号ジーピー１３番館３０１号,,45,201,8800805,,,,,,,2024-05-13,1,,,,,リテラシー,0
898,3360003013968,新規,0,2024-05-13,2024-05-13,合同会社ケアマネ相談所,,合同会社,沖縄県,豊見城市,字我那覇４０４番地６,,47,212,9010231,,,,,,,2024-05-13,1,,,,,ケアマネソウダンジョ,0
910,3420003002915,新規,0,2024-05-13,2024-05-13,ＳＡＭＵＲＡＩ　ＦＩＳＨ合同会社,,合同会社,青森県,弘前市,大字駅前町１２番地１虹のマート店内,,02,202,0368003,,,,,,,2024-05-13,1,,,,,サムライフィッシュ,0
917,3430001091793,新規,0,2024-05-13,2024-05-13,カインド警備株式会社,,株式会社,北海道,札幌市西区,八軒十条東２丁目１番４５号,,01,107,0630870,,,,,,,2024-05-13,1,,,,,カインドケイビ,0
918,3430001091802,新規,0,2024-05-13,2024-05-13,札幌アイティ・ソリューション株式会社,,株式会社,北海道,札幌市中央区,北一条東２丁目５－４パークヒルズ中央１２,,01,101,0600031,,,,,,,2024-05-13,1,,,,,サッポロアイティソリューション,0
927,3470001020179,新規,0,2024-05-13,2024-05-13,ＤＩＣＥ株式会社,,株式会社,香川県,仲多度郡多度津町,北鴨３丁目５番７９号２Ｆ,,37,404,7640022,,,,,,,2024-05-13,1,,,,,ダイス,0
928,3480005007023,新規,0,2024-05-13,2024-05-13,司法書士法人加島事務所,,その他の設立登記法人,徳島県,美馬市,脇町大字猪尻字若宮南９３番地２,,36,207,7793602,,,,,,,2024-05-13,1,,,,,カジマジムショ,0
929,3500001025620,新規,0,2024-05-13,2024-05-13,南江戸食品開発株式会社,,株式会社,愛媛県,松山市,南江戸３丁目３番７号,,38,201,7900062,,,,,,,2024-05-13,1,,,,,ミナミエドショクヒンカイハツ,0
932,3700150116588,新規,0,2024-05-13,2023-05-30,土岐市下石町阿庄１区自治会,,その他,岐阜県,土岐市,下石町３０７番地の２,,21,212,5095202,,,,,,,2023-05-30,1,,,,,トキシオロシチヨウアシヨウイツクジチカイ,0
933,3700150125218,新規,0,2024-05-13,2024-05-13,ＡＬＬＭＡＸ　ＢＡＴＴＥＲＹ　ＩＮＣ．,,外国会社等,,,,,,,,６　ＶＥＮＴＵＲＥ　ＳＴＥ　３５５，ＩＲＶＩＮＥ，ＣＡ　９２６１８－７３５０,,,,,,2024-05-13,1,,,,,オールマックスバッテリーインク,0
934,3700150125291,新規,0,2024-05-13,2024-05-13,ＨｅａｒｔＣｏｒｅ　Ｆｉｎａｎｃｉａｌ，Ｉｎｃ．,,外国会社等,東京都,千代田区,霞が関３丁目２番５号霞が関ビル６階,,13,101,1000013,アメリカ合衆国、カリフォルニア州、サラトガ、シャブリ・コート１９３０３,,,,,,2024-05-13,1,,,,,ハートコアフイナンシヤルインク,0
935,3700150125300,新規,0,2024-05-13,2024-05-13,ＧＳＣ　ＨＯＬＤＩＮＧＳ株式会社,,外国会社等,東京都,中央区,銀座７丁目１５－７－９０４,,13,102,1040061,南アフリカ共和国ハウテン州１６８５ハーフウェイガーデンＥＸＴ４、１アスパラガスロード、ハーフウェイガーデンズオフィスＰ、オフィスＢ３,,,,,,2024-05-13,1,,,,,ジーエスシーホールデイングスカブシキガイシヤ,0
949,4010001244681,新規,0,2024-05-13,2024-05-13,株式会社Ｃｒｏｓｓ　Ｓｐｉｒｅ,,株式会社,東京都,中央区,銀座１丁目１２番４号Ｎ＆ＥＢＬＤ．６Ｆ,,13,102,1040061,,,,,,,2024-05-13,1,,,,,クロススパイア,0
960,4010401182283,新規,0,2024-05-13,2024-05-13,ゼレンデジタル株式会社,,株式会社,東京都,港区,虎ノ門４丁目１番１号神谷町トラストタワー２３階,,13,103,1050001,,,,,,,2024-05-13,1,,,,,ゼレンデジタル,0
963,4010403032552,新規,0,2024-05-13,2024-05-13,合同会社データ工房昴,,合同会社,東京都,港区,赤坂６丁目１０番３３チュリス氷川坂２０５号,,13,103,1070052,,,,,,,2024-05-13,1,,,,,データコウボウスバル,0
974,4010901055237,新規,0,2024-05-13,2024-05-13,株式会社アイコム・ＭＳＥ,,株式会社,東京都,世田谷区,弦巻１丁目４８番２３号,,13,112,1540016,,,,,,,2024-05-13,1,,,,,アイコムエムエスイー,0
982,4011001161727,新規,0,2024-05-13,2024-05-13,株式会社ＭＩＴＳＵＧＵ,,株式会社,東京都,渋谷区,神宮前４丁目３－１５東京セントラル表参道５０２,,13,113,1500001,,,,,,,2024-05-13,1,,,,,ミツグ,0
983,4011001161792,新規,0,2024-05-13,2024-05-13,株式会社ＣＯＮＮＥＣＴＩＯＮ,,株式会社,東京都,渋谷区,千駄ヶ谷５丁目１番３－５０２号,,13,113,1510051,,,,,,,2024-05-13,1,,,,,,0
984,4011001161875,新規,0,2024-05-13,2024-05-13,株式会社Ｖｉｔａｌ　Ｗｏｒｋｓ,,株式会社,東京都,渋谷区,恵比寿１丁目５番７号,,13,113,1500013,,,,,,,2024-05-13,1,,,,,バイタルワークス,0
985,4011001161974,新規,0,2024-05-13,2024-05-13,株式会社リノバンス,,株式会社,東京都,渋谷区,恵比寿西２丁目４番８号ウィンド恵比寿ビル８Ｆ,,13,113,1500021,,,,,,,2024-05-13,1,,,,,リノバンス,0
986,4011001161982,新規,0,2024-05-13,2024-05-13,株式会社Ｃｈｅｅｒｆｕｌ,,株式会社,東京都,渋谷区,東１丁目１２－１１,,13,113,1500011,,,,,,,2024-05-13,1,,,,,チアフル,0
988,4011003019155,新規,0,2024-05-13,2024-05-13,合同会社ＡＭＡＣＫ,,合同会社,東京都,目黒区,駒場１丁目４４番１４－２２０号,,13,110,1530041,,,,,,,2024-05-13,1,,,,,エイマック,0
989,4011101107241,新規,0,2024-05-13,2024-05-13,株式会社シトラス,,株式会社,東京都,新宿区,西新宿３丁目３番１３号西新宿水間ビル６階,,13,104,1600023,,,,,,,2024-05-13,1,,,,,シトラス,0
990,4011101107266,新規,0,2024-05-13,2024-05-13,株式会社ＡＯＲＮ　ＰＬＡＴＦＯＲＭ,,株式会社,東京都,新宿区,新宿４丁目４番７号セブンビル３０３号,,13,104,1600022,,,,,,,2024-05-13,1,,,,,エーオンプラットフォーム,0
991,4011101107282,新規,0,2024-05-13,2024-05-13,株式会社ホシツキキカク,,株式会社,東京都,新宿区,喜久井町４６番地９松下ビル２０１,,13,104,1620044,,,,,,,2024-05-13,1,,,,,ホシツキキカク,0
992,4011101107299,新規,0,2024-05-13,2024-05-13,株式会社ＬＩＭＡＲＫＳ,,株式会社,東京都,新宿区,市谷八幡町１６番地市ヶ谷見附ハイム６０９,,13,104,1620844,,,,,,,2024-05-13,1,,,,,リマークス,0
993,4011101107316,新規,0,2024-05-13,2024-05-13,株式会社シュリンプ,,株式会社,東京都,新宿区,市谷台町２－１メゾン台町５０３,,13,104,1620066,,,,,,,2024-05-13,1,,,,,シュリンプ,0
996,4011103014403,新規,0,2024-05-13,2024-05-13,合同会社Ａｎｙ,,合同会社,東京都,新宿区,西新宿３丁目３番１３号西新宿水間ビル２Ｆ,,13,104,1600023,,,,,,,2024-05-13,1,,,,,エニー,0
998,4011301029649,新規,0,2024-05-13,2024-05-13,株式会社おかげさまでい,,株式会社,東京都,杉並区,下高井戸２丁目１０番６－８１２号,,13,115,1680073,,,,,,,2024-05-13,1,,,,,オカゲサマデイ,0
999,4011303005152,新規,0,2024-05-13,2024-05-13,合同会社ウエスト,,合同会社,東京都,杉並区,宮前５丁目７番２号,,13,115,1680081,,,,,,,2024-05-13,1,,,,,ウエスト,0
1016,4020001157164,新規,0,2024-05-13,2024-05-13,トナリズムホールディングス株式会社,,株式会社,神奈川県,川崎市川崎区,東田町１番地２いちご川崎ビル２階,,14,131,2100005,,,,,,,2024-05-13,1,,,,,トナリズムホールディングス,0
1017,4020001157172,新規,0,2024-05-13,2024-05-13,株式会社ＶＯＬＡＲＥ,,株式会社,神奈川県,横浜市中区,吉田町１０番地齋藤ビル１Ｆ－Ａ,,14,104,2310041,,,,,,,2024-05-13,1,,,,,ボラーレ,0
1022,4020003026061,新規,0,2024-05-13,2024-05-13,順翰合同会社,,合同会社,神奈川県,川崎市幸区,北加瀬２丁目５－９－１０９号,,14,132,2120057,,,,,,,2024-05-13,1,,,,,ジュンカン,0
1023,4020003026078,新規,0,2024-05-13,2024-05-13,ｅｘｉｓｔ合同会社,,合同会社,神奈川県,川崎市川崎区,小田２丁目１８－５メゾン第１９むさし１Ｆ,,14,131,2100846,,,,,,,2024-05-13,1,,,,,イグジスト,0
1024,4020003026094,新規,0,2024-05-13,2024-05-13,合同会社ａ　ｄｏｔ,,合同会社,神奈川県,川崎市多摩区,宿河原２丁目２３番１１－２号,,14,135,2140021,,,,,,,2024-05-13,1,,,,,エードット,0
1037,4030001160266,新規,0,2024-05-13,2024-05-13,株式会社自燈明,,株式会社,埼玉県,越谷市,宮本町１丁目９番地２,,11,222,3430806,,,,,,,2024-05-13,1,,,,,ジトウミョウ,0
1043,4040001133452,新規,0,2024-05-13,2024-05-13,フォレストロジテック株式会社,,株式会社,千葉県,千葉市美浜区,中瀬１丁目６エムベイポイント幕張,,12,106,2610023,,,,,,,2024-05-13,1,,,,,フォレストロジテック,0
1044,4040001133502,新規,0,2024-05-13,2024-05-13,株式会社ミノウラ商店,,株式会社,千葉県,流山市,平和台３丁目４番地の１２コーポ福澤１０１号室,,12,220,2700157,,,,,,,2024-05-13,1,,,,,ミノウラショウテン,0
1046,4040003024947,新規,0,2024-05-13,2024-05-13,合同会社プロテック,,合同会社,千葉県,柏市,豊四季６４５番地３５,,12,217,2770863,,,,,,,2024-05-13,1,,,,,プロテック,0
1047,4040003024988,新規,0,2024-05-13,2024-05-13,合同会社ＢｏｒｄｅｒＸ,,合同会社,千葉県,長生郡長南町,豊原２１５４－４８,,12,427,2970133,,,,,,,2024-05-13,1,,,,,ボーダーエックス,0
1050,4050001054747,新規,0,2024-05-13,2024-05-13,株式会社渡邉商事,,株式会社,茨城県,取手市,椚木１９５０番地,,08,217,3001511,,,,,,,2024-05-13,1,,,,,ワタナベショウジ,0
1056,4050003008346,新規,0,2024-05-13,2024-05-13,北畠建材合同会社,,合同会社,茨城県,かすみがうら市,稲吉東３丁目２番１号エスポアール神立１０９,,08,230,3150053,,,,,,,2024-05-13,1,,,,,キタバタケケンザイ,0
1057,4050003008354,新規,0,2024-05-13,2024-05-13,合同会社サイバークリエーション,,合同会社,茨城県,東茨城郡茨城町,大字下土師１４３０番地５,,08,302,3113155,,,,,,,2024-05-13,1,,,,,サイバークリエーション,0
1062,4080001026297,新規,0,2024-05-13,2024-05-13,イトーショップ株式会社,,株式会社,静岡県,静岡市清水区,江尻台町１番７号,,22,103,4240044,,,,,,,2024-05-13,1,,,,,イトーショップ,0
1065,4080103003054,新規,0,2024-05-13,2024-05-13,共栄工業合同会社,,合同会社,静岡県,裾野市,千福が丘２丁目２６番４,,22,220,4101115,,,,,,,2024-05-13,1,,,,,キョウエイコウギョウ,0
1067,4080405007637,新規,0,2024-05-13,2024-05-13,社会保険労務士法人坂本＆パートナー,,その他の設立登記法人,静岡県,浜松市中央区,高丘西２丁目９番２７号,,22,138,4338118,,,,,,,2024-05-13,1,,,,,サカモトアンドパートナー,0
1069,4100001037424,新規,0,2024-05-13,2024-05-13,株式会社片野坂,,株式会社,長野県,岡谷市,川岸上２丁目４番１８号,,20,204,3940048,,,,,,,2024-05-13,1,,,,,カタノサカ,0
1093,4120001264677,新規,0,2024-05-13,2024-05-13,株式会社スカイ,,株式会社,大阪府,大阪市住之江区,南港北１丁目１４番１６号,,27,125,5590034,,,,,,,2024-05-13,1,,,,,スカイ,0
1094,4120001264768,新規,0,2024-05-13,2024-05-13,ＹＩＮＫ株式会社,,株式会社,大阪府,大阪市北区,中津６丁目４番１０号ウェーブイン中津４０５号,,27,127,5310071,,,,,,,2024-05-13,1,,,,,インク,0
1097,4120003026563,新規,0,2024-05-13,2024-05-13,合同会社ＳＨＯＷ‐ＴＥＮ,,合同会社,大阪府,大阪市北区,本庄東２丁目２番２－４０１号,,27,127,5310074,,,,,,,2024-05-13,1,,,,,ショウテン,0
1101,4120101069555,新規,0,2024-05-13,2024-05-13,株式会社ＩＤＥＡＬ,,株式会社,大阪府,堺市西区,上６７０番地４０,,27,144,5938311,,,,,,,2024-05-13,1,,,,,アイディール,0
1103,4120103005822,新規,0,2024-05-13,2024-05-13,合同会社みんなみ家,,合同会社,大阪府,和泉市,いぶき野３丁目５番１３－２０２号,,27,219,5940041,,,,,,,2024-05-13,1,,,,,ミンナミヤ,0
1106,4120903005170,新規,0,2024-05-13,2024-05-13,ＭＳＮ合同会社,,合同会社,大阪府,摂津市,鳥飼西４丁目２０番４号,,27,224,5660072,,,,,,,2024-05-13,1,,,,,エムエスエヌ,0
1108,4122003002882,新規,0,2024-05-13,2024-05-13,合同会社ゲンキノ,,合同会社,大阪府,四條畷市,岡山東２丁目２番１２号,,27,229,5750003,,,,,,,2024-05-13,1,,,,,ゲンキノ,0
1110,4130001077021,新規,0,2024-05-13,2024-05-13,株式会社ビヨンド,,株式会社,京都府,京都市中京区,壬生東土居ノ内町３２番地１,,26,104,6048841,,,,,,,2024-05-13,1,,,,,ビヨンド,0
1111,4130001077038,新規,0,2024-05-13,2024-05-13,株式会社源鳳院,,株式会社,京都府,京都市中京区,河原町通御池下る下丸屋町３９０番地２ＱＵＥＳＴＩＯＮ内,,26,104,6048006,,,,,,,2024-05-13,1,,,,,ゲンホウイン,0
1113,4130005017089,新規,0,2024-05-13,2024-05-13,一般社団法人京都府卓球協会,,その他の設立登記法人,京都府,京都市南区,東九条下殿田町７０番地京都府スポーツセンター内,,26,107,6018047,,,,,,,2024-05-13,1,,,,,キョウトフタッキュウキョウカイ,0
1122,4140005027079,新規,0,2024-05-13,2024-05-13,一般社団法人福の神,,その他の設立登記法人,兵庫県,神戸市西区,王塚台２丁目５０番２号マンションロア３０５号,,28,111,6512135,,,,,,,2024-05-13,1,,,,,フクノカミ,0
1130,4180001161316,新規,0,2024-05-13,2024-05-13,株式会社Ｄ‐Ｓｔａｒ　Ａｒｃｈｉｔｅｃｔｕｒｅ,,株式会社,愛知県,名古屋市北区,大曽根１丁目３０番２９号,,23,103,4620825,,,,,,,2024-05-13,1,,,,,ディースターアーキテクチャ,0
1131,4180001161340,新規,0,2024-05-13,2024-05-13,株式会社ＭＡＲＳＨ,,株式会社,愛知県,名古屋市南区,呼続５丁目２番３０号,,23,112,4570014,,,,,,,2024-05-13,1,,,,,マーシュ,0
1132,4180001161373,新規,0,2024-05-13,2024-05-13,株式会社ＨＯＬｉ　ＷＯＲＫＳ,,株式会社,愛知県,尾張旭市,東山町１丁目１番地８,,23,226,4880825,,,,,,,2024-05-13,1,,,,,ホリワークス,0
1133,4180001161407,新規,0,2024-05-13,2024-05-13,株式会社ハピネス,,株式会社,愛知県,名古屋市名東区,上社５丁目１６１１番地中棟,,23,115,4650025,,,,,,,2024-05-13,1,,,,,ハピネス,0
1138,4180003026748,新規,0,2024-05-13,2024-05-13,ＭＤ合同会社,,合同会社,愛知県,一宮市,千秋町佐野字強戸４２０番地１６,,23,203,4910804,,,,,,,2024-05-13,1,,,,,エムデー,0
1141,4180005020625,新規,0,2024-05-13,2024-05-13,一般社団法人愛知ベンチャー支援協会,,その他の設立登記法人,愛知県,名古屋市中村区,則武１丁目２２番４号,,23,105,4530014,,,,,,,2024-05-13,1,,,,,アイチベンチャーシエンキョウカイ,0
1147,4190001031344,新規,0,2024-05-13,2024-05-13,株式会社Ｃａｎ　ｄｅ　ｓｍｉｌｅ,,株式会社,三重県,三重郡菰野町,大字永井３０９５番地２５４,,24,341,5101311,,,,,,,2024-05-13,1,,,,,キャンデスマイル,0
1148,4200001042496,新規,0,2024-05-13,2024-05-13,株式会社瑞佐,,株式会社,岐阜県,瑞浪市,北小田町１丁目４７番地,,21,208,5096115,,,,,,,2024-05-13,1,,,,,ミズサ,0
1150,4200003006342,新規,0,2024-05-13,2024-05-13,サヒ・トレーディング合同会社,,合同会社,岐阜県,美濃加茂市,加茂野町鷹之巣８９８番地２,,21,211,5050051,,,,,,,2024-05-13,1,,,,,サヒトレーディング,0
1152,4230001020342,新規,0,2024-05-13,2024-05-13,株式会社Ｊｕｉｃｙ,,株式会社,富山県,黒部市,金屋７７番地２,,16,207,9380022,,,,,,,2024-05-13,1,,,,,ジューシー,0
1161,4260001039058,新規,0,2024-05-13,2024-05-13,株式会社Ｅフーズ,,株式会社,岡山県,浅口市,鴨方町六条院中５１３８番地,,33,216,7190252,,,,,,,2024-05-13,1,,,,,イーフーズ,0
1167,4290001105633,新規,0,2024-05-13,2024-05-13,株式会社ＮＯＭＡＤＳＳ,,株式会社,福岡県,福岡市博多区,千代３丁目５‐３６ネストピア県庁口駅前３０１号,,40,132,8120044,,,,,,,2024-05-13,1,,,,,ノマッズ,0
1168,4290001105765,新規,0,2024-05-13,2024-05-13,株式会社ｕｄｅａ,,株式会社,福岡県,福岡市博多区,博多駅前１丁目２３番２号ＰａｒｋＦｒｏｎｔ博多駅前１丁目５Ｆ－Ｂ,,40,132,8120011,,,,,,,2024-05-13,1,,,,,ユーディア,0
1171,4290003015244,新規,0,2024-05-13,2024-05-13,合同会社うえの,,合同会社,福岡県,福岡市中央区,警固１丁目１番１７号,,40,133,8100023,,,,,,,2024-05-13,1,,,,,ウエノ,0
1172,4290005019391,新規,0,2024-05-13,2024-05-13,一般社団法人凸＆凹,,その他の設立登記法人,福岡県,福津市,上西郷１６７７,,40,224,8113207,,,,,,,2024-05-13,1,,,,,デコアンドボコ,0
1173,4290005019409,新規,0,2024-05-13,2024-05-13,医療法人尚友会,,その他の設立登記法人,福岡県,嘉麻市,漆生１４１６番地３,,40,227,8200201,,,,,,,2024-05-13,1,,,,,ショウユウカイ,0
1178,4320001020457,新規,0,2024-05-13,2024-05-13,ＩＣ株式会社,,株式会社,大分県,大分市,季の坂２丁目３番８号,,44,201,8700870,,,,,,,2024-05-13,1,,,,,アイシー,0
1181,4340001026469,新規,0,2024-05-13,2024-05-13,ＡＢＥＬ牧場株式会社,,株式会社,鹿児島県,曽於市,末吉町南之郷字野久尾１０２６０番２,,46,217,8998608,,,,,,,2024-05-13,1,,,,,アベルボクジョウ,0
1189,4350001018960,新規,0,2024-05-13,2024-05-13,株式会社ＷＡＦＥ,,株式会社,宮崎県,宮崎市,大淀３丁目１番２２号,,45,201,8800902,,,,,,,2024-05-13,1,,,,,ワフェ,0
1190,4360001033645,新規,0,2024-05-13,2024-05-13,株式会社ＫＩＮＪＯ,,株式会社,沖縄県,那覇市,久茂地２丁目１１番１６号花ビル２Ｆ,,47,201,9000015,,,,,,,2024-05-13,1,,,,,キンジョウ,0
1191,4370001051282,新規,0,2024-05-13,2024-05-13,株式会社南方クリーンセンター,,株式会社,宮城県,登米市,迫町佐沼字南佐沼１丁目３番地の１２,,04,212,9870511,,,,,,,2024-05-13,1,,,,,ミナミカタクリーンセンター,0
1192,4370001051290,新規,0,2024-05-13,2024-05-13,株式会社マスース,,株式会社,宮城県,仙台市青葉区,中央４丁目７－２５ライオンズマンション中央３０１,,04,101,9800021,,,,,,,2024-05-13,1,,,,,マスース,0
1198,4380001034518,新規,0,2024-05-13,2024-05-13,株式会社ＡＹＥＬＬ,,株式会社,福島県,伊達市,保原町字宮下８２番地１,,07,213,9600612,,,,,,,2024-05-13,1,,,,,アエル,0
1206,4420001018722,新規,0,2024-05-13,2024-05-13,株式会社ＡＬ‐ＪＡＲＥＥＲ　ＭＯＲＴＯＲＳ,,株式会社,青森県,上北郡七戸町,字二ツ森家ノ後１９番地３,,02,402,0392761,,,,,,,2024-05-13,1,,,,,アルジャリールモーターズ,0
1212,4430001091784,新規,0,2024-05-13,2024-05-13,ＦＬＡＧ株式会社,,株式会社,北海道,石狩市,新港南１丁目１９番地３８,,01,235,0613244,,,,,,,2024-05-13,1,,,,,フラッグ,0
1217,4430003016310,新規,0,2024-05-13,2024-05-13,令和のだぶるいー合同会社,,合同会社,北海道,札幌市東区,北十五条東７丁目１番２０号ＡＪ室,,01,103,0650015,,,,,,,2024-05-13,1,,,,,レイワノダブルイー,0
1220,4460101007547,新規,0,2024-05-13,2024-05-13,株式会社アルブル,,株式会社,北海道,河東郡鹿追町,瓜幕西２６線２４番地,,01,634,0810341,,,,,,,2024-05-13,1,,,,,,0
1231,4700150125225,新規,0,2024-05-13,2024-05-13,Ｎｅｗ　Ｔｒｅｎｄ　Ｔｒａｄｉｎｇ　Ｌｉｍｉｔｅｄ,,外国会社等,,,,,,,,Ｒｏｏｍ　０８，１０Ｆ　Ｔｏｗｅｒ１　Ｈａｒｂｏｕｒ　Ｃｅｎｔｒｅ　１　Ｈｏｋ　Ｃｈｅｕｎｇ　Ｓｔｒｅｅｔ　Ｈｕｎｇｈｏｍ　Ｋｏｗｌｏｏｎ　Ｈｏｎｇ　Ｋｏｎｇ,,,,,,2024-05-13,1,,,,,ニユートレンドトレーデイングリミテツド,0
1232,4700150125290,新規,0,2024-05-13,2024-05-13,ＧＬＯＢＡＬ　ＭＡＸ　ＧＥＮＥＲＡＬ　ＴＲＡＤＩＮＧ　ＰＶＴ　ＬＴＤ,,外国会社等,千葉県,千葉市緑区,高田町１８４番地４Ｂ,,12,105,2660003,スリランカ民主社会主義共和国、キャンディ、アクラナ、テルンブガハワッタ、デルガハゴダロード、Ｎｏ．２８５／１,,,,,,2024-05-13,1,,,,,グローバルマツクスゼネラルトレーデイングプライベートリミテツド,0
1233,4700150125299,新規,0,2024-05-13,2024-05-13,ＺＥＳＰＲＯ　株式会社,,外国会社等,東京都,江戸川区,平井４丁目２０番１５号５２７,,13,123,1320035,大韓民国ソウル特別市九老区デジタル路３０キル２８,,,,,,2024-05-13,1,,,,,ゼスプロカブシキガイシヤ,0
1245,5010001244490,新規,0,2024-05-13,2024-05-13,日本放送映画株式会社,,株式会社,東京都,中央区,銀座６丁目７番１２号,,13,102,1040061,,,,,,,2024-05-13,1,,,,,ニホンホウソウエイガ,0
1246,5010001244697,新規,0,2024-05-13,2024-05-13,株式会社ｍｕｕ,,株式会社,東京都,文京区,白山１丁目５－４ＨＡＫＵＴＳＵＢＯ３Ｆ,,13,105,1130001,,,,,,,2024-05-13,1,,,,,ムー,0
1250,5010003043701,新規,0,2024-05-13,2024-05-13,ＦＡＲＯＯＱ　ＬＥＡＴＨＥＲ　ＰＲＯＤＵＣＴＳ合同会社,,合同会社,東京都,中央区,日本橋箱崎町２７番９号,,13,102,1030015,,,,,,,2024-05-13,1,,,,,ファロークレザープロダクツ,0
1251,5010101016121,新規,0,2024-05-13,2024-05-13,喜迪株式会社,,株式会社,東京都,八王子市,大塚６４５－１ユーカリハイツ八王子１０３号室,,13,201,1920352,,,,,,,2024-05-13,1,,,,,キテキ,0
1261,5010401182217,新規,0,2024-05-13,2024-05-13,株式会社ｉＣＴＡ,,株式会社,東京都,港区,元赤坂１丁目２番７号,,13,103,1070051,,,,,,,2024-05-13,1,,,,,アイシーティーエイ,0
1262,5010401182324,新規,0,2024-05-13,2024-05-13,株式会社Ｃｕｒｅ,,株式会社,東京都,港区,麻布十番２丁目４－１５－３Ｆ,,13,103,1060045,,,,,,,2024-05-13,1,,,,,キュア,0
1263,5010405023185,新規,0,2024-05-13,2024-05-13,一般社団法人日本障がい者就労雇用支援協会,,その他の設立登記法人,東京都,港区,芝５丁目１７－１,,13,103,1080014,,,,,,,2024-05-13,1,,,,,ニホンショウガイシャシュウロウコヨウシエンキョウカイ,0
1265,5010501052187,新規,0,2024-05-13,2024-05-13,三同国際貿易株式会社,,株式会社,東京都,台東区,浅草橋５丁目１７－１,,13,106,1110053,,,,,,,2024-05-13,1,,,,,サンドウコクサイボウエキ,0
1266,5010501052245,新規,0,2024-05-13,2024-05-13,株式会社ＯＮＥＫコーポレーション,,株式会社,東京都,台東区,西浅草３丁目２４番８－６０４号,,13,106,1110035,,,,,,,2024-05-13,1,,,,,ワンケーコーポレーション,0
1270,5010701045973,新規,0,2024-05-13,2024-05-13,株式会社オンリーアップ,,株式会社,東京都,品川区,南品川５丁目１６－７Ｕ－ｍａｋｅ南品川１Ｆ,,13,109,1400004,,,,,,,2024-05-13,1,,,,,オンリーアップ,0
1271,5010703007170,新規,0,2024-05-13,2024-05-13,合同会社８ｎｄ　ＳＵ,,合同会社,東京都,品川区,東五反田１丁目１０番１１－９０３号,,13,109,1410022,,,,,,,2024-05-13,1,,,,,エンドスー,0
1287,5011003019154,新規,0,2024-05-13,2024-05-13,ブルプロ合同会社,,合同会社,東京都,渋谷区,恵比寿西１丁目３０番８号代官山桜の丘２０４,,13,113,1500021,,,,,,,2024-05-13,1,,,,,ブルプロ,0
1288,5011005010499,新規,0,2024-05-13,2024-05-13,一般財団法人安田侃財団,,その他の設立登記法人,東京都,渋谷区,松濤１丁目２３番３号２０１号室,,13,113,1500046,,,,,,,2024-05-13,1,,,,,ヤスダカンザイダン,0
1293,5011101107133,新規,0,2024-05-13,2024-05-13,ビスタホールディングス株式会社,,株式会社,東京都,新宿区,西新宿２丁目６番１号新宿住友ビル,,13,104,1600023,,,,,,,2024-05-13,1,,,,,ビスタホールディングス,0
1294,5011101107265,新規,0,2024-05-13,2024-05-13,株式会社ＬｅｏＳｔａｒ,,株式会社,東京都,新宿区,西新宿４丁目２９－６ＷＩＳビル６Ｆ,,13,104,1600023,,,,,,,2024-05-13,1,,,,,レオスター,0
1295,5011101107281,新規,0,2024-05-13,2024-05-13,株式会社ノーム・コミュニケーションズ,,株式会社,東京都,新宿区,若松町２１番６号,,13,104,1620056,,,,,,,2024-05-13,1,,,,,ノームコミュニケーションズ,0
1296,5011101107298,新規,0,2024-05-13,2024-05-13,ＴＩＲ株式会社,,株式会社,東京都,新宿区,西新宿７丁目５番５号Ｐｌａｚａ西新宿ＵＣＦ４階,,13,104,1600023,,,,,,,2024-05-13,1,,,,,ティーアイアール,0
1300,5011301029656,新規,0,2024-05-13,2024-05-13,ピクセレンズ株式会社,,株式会社,東京都,杉並区,阿佐谷北２丁目１４番９－６０３号,,13,115,1660001,,,,,,,2024-05-13,1,,,,,ピクセレンズ,0
1317,5011703003820,新規,0,2024-05-13,2024-05-13,ｐｕｐｕそれいゆ合同会社,,合同会社,東京都,江戸川区,北葛西４丁目１３番２７－４０７号,,13,123,1340081,,,,,,,2024-05-13,1,,,,,ププソレイユ,0
1323,5012701018257,新規,0,2024-05-13,2024-05-13,Ｒｉｏホールディングス株式会社,,株式会社,東京都,清瀬市,下宿２丁目４４１番地９,,13,221,2040001,,,,,,,2024-05-13,1,,,,,リオホールディングス,0
1331,5013301052398,新規,0,2024-05-13,2024-05-13,株式会社エフアーニングス,,株式会社,東京都,豊島区,池袋２丁目１６－１２ウオマタビル１階,,13,116,1710014,,,,,,,2024-05-13,1,,,,,エフアーニングス,0
1332,5013301052480,新規,0,2024-05-13,2024-05-13,防設検工株式会社,,株式会社,東京都,豊島区,北大塚３丁目３２番２６号小林アパート１Ｆ,,13,116,1700004,,,,,,,2024-05-13,1,,,,,ボウセツケンコウ,0
1340,5020001157130,新規,0,2024-05-13,2024-05-13,株式会社ＭＩＫＡＺＵＫＩ　ＡＩ,,株式会社,神奈川県,横浜市神奈川区,西寺尾２丁目３３－９ヴィラＭＧＩＩ２０２,00134713,14,102,2210001,,,,,,,2024-05-13,1,,,,,ミカヅキエーアイ,0
1341,5020001157147,新規,0,2024-05-13,2024-05-13,株式会社咲月丸,,株式会社,神奈川県,横浜市神奈川区,子安通１丁目１７４番地,,14,102,2210021,,,,,,,2024-05-13,1,,,,,サツキマル,0
1342,5020001157171,新規,0,2024-05-13,2024-05-13,株式会社ｔａｂｉｓｕｒｕ,,株式会社,神奈川県,横浜市戸塚区,深谷町６９２－１３,,14,110,2450067,,,,,,,2024-05-13,1,,,,,タビスル,0
1350,5020003026085,新規,0,2024-05-13,2024-05-13,ＬＷＢＲ合同会社,,合同会社,神奈川県,横浜市中区,山下町３７－８グローリオタワー横浜元町１５０６号室,,14,104,2310023,,,,,,,2024-05-13,1,,,,,エルダブリュビーアール,0
1364,5030001160298,新規,0,2024-05-13,2024-05-13,株式会社こしたに,,株式会社,埼玉県,越谷市,東越谷８丁目１７－１,,11,222,3430023,,,,,,,2024-05-13,1,,,,,コシタニ,0
1372,5030005021694,新規,0,2024-05-13,2024-05-13,医療法人社団緑青会,,その他の設立登記法人,埼玉県,川口市,鳩ヶ谷緑町２丁目２０番地４,,11,203,3340015,,,,,,,2024-05-13,1,,,,,リョクセイカイ,0
1380,5040001133534,新規,0,2024-05-13,2024-05-13,株式会社ｌｉｅｎｓ,,株式会社,千葉県,船橋市,古和釜町５２０－３,,12,204,2740061,,,,,,,2024-05-13,1,,,,,リアンズ,0
1387,5040003024772,新規,0,2024-05-13,2024-05-13,合同会社Ｂｅｙｏｎｄ,,合同会社,千葉県,千葉市稲毛区,千草台２丁目２番１６棟５０７号,,12,103,2630013,,,,,,,2024-05-13,1,,,,,ビヨンド,0
1388,5040003024954,新規,0,2024-05-13,2024-05-13,合同会社大久保経営,,合同会社,千葉県,千葉市若葉区,若松台３丁目１２番１号,,12,104,2640027,,,,,,,2024-05-13,1,,,,,オオクボケイエイ,0
1389,5040003024962,新規,0,2024-05-13,2024-05-13,合同会社大槻ビル,,合同会社,千葉県,船橋市,西習志野３丁目２０番４号,,12,204,2740815,,,,,,,2024-05-13,1,,,,,オオツキビル,0
1397,5080001026296,新規,0,2024-05-13,2024-05-13,関塗装株式会社,,株式会社,静岡県,静岡市清水区,新富町２番１０号,,22,103,4240833,,,,,,,2024-05-13,1,,,,,セキトソウ,0
1398,5080101024737,新規,0,2024-05-13,2024-05-13,かっぱ橋食肉卸株式会社,,株式会社,静岡県,三島市,松本６８番地の１,,22,206,4110822,,,,,,,2024-05-13,1,,,,,カッパバシショクニクオロシ,0
1399,5080103003061,新規,0,2024-05-13,2024-05-13,合同会社Ｓ‐１スポーツキッズ,,合同会社,静岡県,富士宮市,野中町６７１番地,,22,207,4180038,,,,,,,2024-05-13,1,,,,,エスワンスポーツキッズ,0
1400,5080405007636,新規,0,2024-05-13,2024-05-13,特定非営利活動法人コノサキニ,,その他の設立登記法人,静岡県,菊川市,堀之内高田５８番地の１,,22,224,4390006,,,,,,,2024-05-13,1,,,,,コノサキニ,0
1401,5100001037431,新規,0,2024-05-13,2024-05-13,たけちゃん食品株式会社,,株式会社,長野県,須坂市,臥竜６丁目５番３号,,20,207,3820028,,,,,,,2024-05-13,1,,,,,タケチャンショクヒン,0
1416,5120001264775,新規,0,2024-05-13,2024-05-13,株式会社ＷＡＴＩＥＳ,,株式会社,大阪府,大阪市東淀川区,瑞光３丁目１０番２０号,,27,114,5330005,,,,,,,2024-05-13,1,,,,,ワタイズ,0
1417,5120001264791,新規,0,2024-05-13,2024-05-13,株式会社カルゴ,,株式会社,大阪府,大阪市浪速区,難波中２丁目８番６５号６階,,27,111,5560011,,,,,,,2024-05-13,1,,,,,カルゴ,0
1418,5120001264809,新規,0,2024-05-13,2024-05-13,株式会社ＳＴＯＹ,,株式会社,大阪府,大阪市西区,北堀江１丁目１３番５号２階,,27,106,5500014,,,,,,,2024-05-13,1,,,,,ストイ,0
1419,5120001264882,新規,0,2024-05-13,2024-05-13,株式会社ｆｅｍｐｌｕｓ,,株式会社,大阪府,大阪市浪速区,桜川１丁目７番３１号ＮＡＤＩＡビル,,27,111,5560022,,,,,,,2024-05-13,1,,,,,フェムプリュ,0
1423,5120003026546,新規,0,2024-05-13,2024-05-13,ＳＭＦＤ合同会社,,合同会社,大阪府,大阪市東淀川区,豊新１丁目４番１８号アルティオ２０５号,,27,114,5330014,,,,,,,2024-05-13,1,,,,,エスエムエフディー,0
1433,5130001077037,新規,0,2024-05-13,2024-05-13,株式会社サンクスマイル,,株式会社,京都府,福知山市,大江町字二箇２０２７番地,,26,201,6200000,,,,,,,2024-05-13,1,,,,,サンクスマイル,0
1440,5140001134373,新規,0,2024-05-13,2024-05-13,株式会社クリエイトユウ,,株式会社,兵庫県,神戸市中央区,磯辺通４丁目２番８号田嶋ビル８階,,28,110,6510084,,,,,,,2024-05-13,1,,,,,クリエイトユウ,0
1441,5140001134381,新規,0,2024-05-13,2024-05-13,ブルー不動産流通株式会社,,株式会社,兵庫県,神戸市長田区,御屋敷通６丁目２番１４－１０１号,,28,106,6530843,,,,,,,2024-05-13,1,,,,,ブルーフドウサンリュウツウ,0
1442,5140003020563,新規,0,2024-05-13,2024-05-13,合同会社ＮＥＸＵＳ,,合同会社,兵庫県,西宮市,産所町１４－１１－５Ｆ,,28,204,6620978,,,,,,,2024-05-13,1,,,,,ネクサス,0
1445,5140005027078,新規,0,2024-05-13,2024-05-13,一般社団法人Ｈ２Ｏ,,その他の設立登記法人,兵庫県,姫路市,北平野５丁目１４番８号,,28,201,6700893,,,,,,,2024-05-13,1,,,,,エイチツーオー,0
1448,5170003002039,新規,0,2024-05-13,2024-05-13,合同会社ＴＤＣサポート,,合同会社,和歌山県,田辺市,東山１丁目１８番１０号,,30,206,6460022,,,,,,,2024-05-13,1,,,,,ティーディーシーサポート,0
1455,5180001161348,新規,0,2024-05-13,2024-05-13,Ｏｎｅ　Ａｉｒ　Ｓｅｒｖｉｃｅ株式会社,,株式会社,愛知県,稲沢市,朝府町１６番１号,,23,220,4928268,,,,,,,2024-05-13,1,,,,,ワンエアーサービス,0
1456,5180001161364,新規,0,2024-05-13,2024-05-13,株式会社Ａ　ＲＩＣＨ　ＬＩＦＥ,,株式会社,愛知県,名古屋市瑞穂区,下坂町３丁目４番地の１,,23,108,4670827,,,,,,,2024-05-13,1,,,,,アリッチライフ,0
1457,5180001161380,新規,0,2024-05-13,2024-05-13,株式会社柴田工業,,株式会社,愛知県,小牧市,久保一色南１丁目２４５番地,,23,219,4850007,,,,,,,2024-05-13,1,,,,,シバタコウギョウ,0
1458,5180001161414,新規,0,2024-05-13,2024-05-13,株式会社ＳＵＭＩ建築設計,,株式会社,愛知県,名古屋市昭和区,白金２丁目１０番１８号１,,23,107,4660058,,,,,,,2024-05-13,1,,,,,スミケンチクセッケイ,0
1460,5180003026747,新規,0,2024-05-13,2024-05-13,合同会社カーズ,,合同会社,愛知県,春日井市,杁ケ島町１０番地１０,,23,206,4860921,,,,,,,2024-05-13,1,,,,,カーズ,0
1466,5180303006119,新規,0,2024-05-13,2024-05-13,合同会社ＯＫＮ,,合同会社,愛知県,豊橋市,船渡町字高打場３１番地,,23,201,4418072,,,,,,,2024-05-13,1,,,,,オーケーエヌ,0
1470,5200001042495,新規,0,2024-05-13,2024-05-13,株式会社サンタはじめます,,株式会社,岐阜県,大垣市,笠木町１０３番地３,,21,202,5030023,,,,,,,2024-05-13,1,,,,,サンタハジメマス,0
1484,5260001039057,新規,0,2024-05-13,2024-05-13,株式会社もも,,株式会社,岡山県,岡山市中区,今在家３７４番地１Ｆｏｒｅｓｔ（Ｃ棟）,,33,102,7038208,,,,,,,2024-05-13,1,,,,,モモ,0
1488,5280001009173,新規,0,2024-05-13,2024-05-13,株式会社ナノガーデン,,株式会社,島根県,松江市,西川津町６３７番地１,,32,201,6900823,,,,,,,2024-05-13,1,,,,,ナノガーデン,0
1495,5290001105616,新規,0,2024-05-13,2024-05-13,ＢＦＦｓ株式会社,,株式会社,福岡県,福岡市東区,香椎台３丁目２６番９号,,40,131,8130014,,,,,,,2024-05-13,1,,,,,ビーエフ,0
1496,5290001105624,新規,0,2024-05-13,2024-05-13,株式会社サイバーリレーションズ,,株式会社,福岡県,福岡市中央区,天神４丁目６番２８号天神ファーストビル７階,,40,133,8100001,,,,,,,2024-05-13,1,,,,,サイバーリレーションズ,0
1497,5290001105640,新規,0,2024-05-13,2024-05-13,Ｔ・Ｅ・Ｐ株式会社,,株式会社,福岡県,福岡市早良区,次郎丸５丁目１１番５２号,,40,137,8140165,,,,,,,2024-05-13,1,,,,,ティーイーピー,0
1498,5290003015243,新規,0,2024-05-13,2024-05-13,合同会社ようたっく,,合同会社,福岡県,福岡市博多区,月隈２丁目３番８号,,40,132,8120858,,,,,,,2024-05-13,1,,,,,ヨウタック,0
1500,5290801030559,新規,0,2024-05-13,2024-05-13,株式会社百坂,,株式会社,福岡県,京都郡みやこ町,勝山宮原５７７番地,,40,625,8240813,,,,,,,2024-05-13,1,,,,,ヒャクサカ,0
1504,5320001020472,新規,0,2024-05-13,2024-05-13,株式会社いろどりのまち,,株式会社,大分県,別府市,石垣西７丁目４番３４－２号,,44,202,8740910,,,,,,,2024-05-13,1,,,,,イロドリノマチ,0
1509,5350001018943,新規,0,2024-05-13,2024-05-13,ども安株式会社,,株式会社,宮崎県,延岡市,北町２丁目２番地１４,,45,203,8820814,,,,,,,2024-05-13,1,,,,,ドモヤス,0
1513,5360003013966,新規,0,2024-05-13,2024-05-13,合同会社ワイアール工業,,合同会社,沖縄県,宮古島市,伊良部字国仲５１５－１,,47,214,9060505,,,,,,,2024-05-13,1,,,,,ワイアールコウギョウ,0
1524,5420001018721,新規,0,2024-05-13,2024-05-13,株式会社プラスアルファ,,株式会社,青森県,南津軽郡藤崎町,大字水木字水元１１１番地１,,02,361,0381204,,,,,,,2024-05-13,1,,,,,プラスアルファ,0
1525,5420005007902,新規,0,2024-05-13,2024-05-13,一般社団法人今ここねっと八戸,,その他の設立登記法人,青森県,八戸市,類家３丁目１１番２号,,02,203,0310001,,,,,,,2024-05-13,1,,,,,,0
1538,5430003016318,新規,0,2024-05-13,2024-05-13,合同会社恵比寿,,合同会社,北海道,千歳市,幸福２丁目１番１４号,,01,224,0660082,,,,,,,2024-05-13,1,,,,,エビス,0
1545,5470001020185,新規,0,2024-05-13,2024-05-13,株式会社Ｏｒｉｖｅｒｓ,,株式会社,香川県,高松市,仏生山町甲８１７番地１,,37,201,7618078,,,,,,,2024-05-13,1,,,,,オリバーズ,0
1550,5500001025619,新規,0,2024-05-13,2024-05-13,株式会社クローバー,,株式会社,愛媛県,松山市,古三津６丁目１３番１８号,,38,201,7918067,,,,,,,2024-05-13,1,,,,,クローバー,0
1551,5700150125224,新規,0,2024-05-13,2024-05-13,Ｋｅｎ　Ｆｏｒｃｅ　Ｉｎｔｅｒｎａｔｉｏｎａｌ　Ｌｔｄ,,外国会社等,,,,,,,,１３Ａ　Ｔｈｅ　Ｃａｒｍｉｎａ，７９Ｄｅｅｐ　Ｗａｔｅｒ　Ｂａｙ　Ｄｒｉｖｅ，Ｓｏｕｔｈｅｒｎ　Ｄｉｓｔｒｉｃｔ，Ｈｏｎｇ　Ｋｏｎｇ,,,,,,2024-05-13,1,,,,,ケンフオースインターナシヨナルリミテツド,0
1552,5700150125298,新規,0,2024-05-13,2024-05-13,ＢＥＲＫＳＨＩＲＥ　ＰＶＴ　ＬＴＤ,,外国会社等,千葉県,山武市,埴谷２４６３番地１８－１,,12,237,2891223,スリランカ民主社会主義共和国、ウェランボダ、キャンディロード、Ｎｏ．１６４／２,,,,,,2024-05-13,1,,,,,バークシヤープライベートリミテツド,0
1572,6010001244548,新規,0,2024-05-13,2024-05-13,ＩＦＢテクノロジーズ株式会社,,株式会社,東京都,中央区,銀座７丁目１３番２０号銀座ＴＨビル９階,,13,102,1040061,,,,,,,2024-05-13,1,,,,,アイエフビーテクノロジーズ,0
1573,6010001244705,新規,0,2024-05-13,2024-05-13,信也株式会社,,株式会社,東京都,文京区,大塚５丁目９－２新大塚プラザ８Ｆ,,13,105,1120012,,,,,,,2024-05-13,1,,,,,シンヤ,0
1575,6010003043709,新規,0,2024-05-13,2024-05-13,合同会社坂本企画,,合同会社,東京都,中央区,銀座１丁目１２番４号Ｎ＆ＥＢＬＤ．６Ｆ,,13,102,1040061,,,,,,,2024-05-13,1,,,,,サカモトキカク,0
1584,6010403032609,新規,0,2024-05-13,2024-05-13,合同会社縁軸,,合同会社,東京都,港区,北青山１丁目３番１号アールキューブ青山３階,,13,103,1070061,,,,,,,2024-05-13,1,,,,,エンジク,0
1585,6010501052252,新規,0,2024-05-13,2024-05-13,株式会社貴秀,,株式会社,東京都,台東区,松が谷３丁目７番２号,,13,106,1110036,,,,,,,2024-05-13,1,,,,,キシュウ,0
1589,6010701045964,新規,0,2024-05-13,2024-05-13,ＭＴＭ　Ｈｅｒｉｔａｇｅ株式会社,,株式会社,東京都,品川区,東大井６丁目５番１号Ｈａｌｅｌｅａ．Ｍ３０１,,13,109,1400011,,,,,,,2024-05-13,1,,,,,エムティエムヘリテージ,0
1601,6011003019145,新規,0,2024-05-13,2024-05-13,合同会社まちの計画研究所,,合同会社,東京都,渋谷区,渋谷２丁目１９－１５宮益坂ビルディング６０９,,13,113,1500002,,,,,,,2024-05-13,1,,,,,マチノケイカクケンキュウジョ,0
1607,6011301029622,新規,0,2024-05-13,2024-05-13,株式会社ＲＥＲＩＳＥ,,株式会社,東京都,杉並区,西荻北２丁目１１番７号浅野ビル２階,,13,115,1670042,,,,,,,2024-05-13,1,,,,,リライズ,0
1611,6011601027739,新規,0,2024-05-13,2024-05-13,東京ＩＴ智助株式会社,,株式会社,東京都,練馬区,北町５丁目１１－１４双葉クラウンハイツ２０３,,13,120,1790081,,,,,,,2024-05-13,1,,,,,トウキョウアイティーチジョ,0
1615,6011801044204,新規,0,2024-05-13,2024-05-13,株式会社バリキワークス,,株式会社,東京都,葛飾区,青戸７丁目５番２号,,13,122,1250062,,,,,,,2024-05-13,1,,,,,バリキワークス,0
1619,6012701018256,新規,0,2024-05-13,2024-05-13,株式会社Ｇｒｏｗｔｈ　Ｗｉｎ,,株式会社,東京都,西東京市,東伏見４丁目１０番９号ガーデンハウス秋元２,,13,229,2020021,,,,,,,2024-05-13,1,,,,,グロースウィン,0
1622,6012803003387,新規,0,2024-05-13,2024-05-13,合同会社ｍｉｌｙｙ,,合同会社,東京都,国分寺市,並木町１丁目１６番２,,13,214,1850005,,,,,,,2024-05-13,1,,,,,ミリー,0
1626,6013301052471,新規,0,2024-05-13,2024-05-13,恒泰翼峰株式会社,,株式会社,東京都,豊島区,高田２丁目１１番１９号リエス目白宿坂１０２号室,,13,116,1710033,,,,,,,2024-05-13,1,,,,,コウタイヨクミネ,0
1637,6020003026084,新規,0,2024-05-13,2024-05-13,Ｔｒａｃｅ合同会社,,合同会社,神奈川県,横浜市西区,北幸１丁目１１番１号水信ビル７階,,14,103,2200004,,,,,,,2024-05-13,1,,,,,トレース,0
1645,6021005013104,新規,0,2024-05-13,2024-05-13,一般社団法人ミラクルギフト,,その他の設立登記法人,神奈川県,相模原市緑区,町屋２丁目１７番１７号,,14,151,2520101,,,,,,,2024-05-13,1,,,,,ミラクルギフト,0
1648,6030001160041,新規,0,2024-05-13,2024-05-13,株式会社ＵＮＤＥＲ　ＴＨＥ　ＭＯＵＮＴＡＩＮ,,株式会社,埼玉県,川越市,旭町２丁目２１番地９カーサソラール３０１号室,,11,201,3501126,,,,,,,2024-05-13,1,,,,,アンダーザマウンテン,0
1649,6030001160248,新規,0,2024-05-13,2024-05-13,田崎株式会社,,株式会社,埼玉県,北足立郡伊奈町,栄１丁目９５－２０３,,11,301,3620805,,,,,,,2024-05-13,1,,,,,タサキ,0
1658,6030005021669,新規,0,2024-05-13,2024-05-13,特定非営利活動法人日本栄養ネットワーク,,その他の設立登記法人,埼玉県,戸田市,新曽南２丁目９番５号１階,,11,224,3350026,,,,,,,2024-05-13,1,,,,,ニホンエイヨウネットワーク,0
1660,6040001133467,新規,0,2024-05-13,2024-05-13,ＧＲＥＥＮ　ＳＯＬＵＴＩＯＮ株式会社,,株式会社,千葉県,市川市,曽谷８丁目１３番８号,,12,203,2720832,,,,,,,2024-05-13,1,,,,,グリーンソリューション,0
1661,6040001133541,新規,0,2024-05-13,2024-05-13,株式会社晴一商事,,株式会社,千葉県,千葉市若葉区,高品町１０６２番地６２,,12,104,2640024,,,,,,,2024-05-13,1,,,,,ハルイチショウジ,0
1671,6060001037088,新規,0,2024-05-13,2024-05-13,株式会社ＰｅＭｉｌ,,株式会社,栃木県,宇都宮市,中岡本町４００８番地１,,09,201,3291105,,,,,,,2024-05-13,1,,,,,ペミル,0
1674,6070001041700,新規,0,2024-05-13,2024-05-13,株式会社ティープラン,,株式会社,群馬県,安中市,原市２丁目９番４１号,,10,211,3790133,,,,,,,2024-05-13,1,,,,,ティープラン,0
1675,6070001041741,新規,0,2024-05-13,2024-05-13,コトリ工業株式会社,,株式会社,群馬県,高崎市,沖町２２８番地７,,10,202,3700086,,,,,,,2024-05-13,1,,,,,コトリコウギョウ,0
1679,6080101024736,新規,0,2024-05-13,2024-05-13,株式会社インフィニティ,,株式会社,静岡県,沼津市,大岡２１２番地の１,,22,203,4100022,,,,,,,2024-05-13,1,,,,,インフィニティ,0
1681,6080401027182,新規,0,2024-05-13,2024-05-13,テクノサービス株式会社,,株式会社,静岡県,浜松市中央区,三新町７３番地の１,,22,138,4300833,,,,,,,2024-05-13,1,,,,,テクノサービス,0
1688,6100003007530,新規,0,2024-05-13,2024-05-13,合同会社和花,,合同会社,長野県,長野市,平林２丁目３－１７,,20,201,3810036,,,,,,,2024-05-13,1,,,,,ノドカ,0
1700,6120001264725,新規,0,2024-05-13,2024-05-13,株式会社Ｋｉｔａｃｏｒｐ,,株式会社,大阪府,大阪市淀川区,東三国４丁目２３番５号,,27,123,5320002,,,,,,,2024-05-13,1,,,,,キタコープ,0
1701,6120001264758,新規,0,2024-05-13,2024-05-13,ＫＬＯＤＩＮＧ　ＪＡＰＡＮ株式会社,,株式会社,大阪府,大阪市中央区,西心斎橋１丁目５番１２号７０３号室,,27,128,5420086,,,,,,,2024-05-13,1,,,,,クローディングジャパン,0
1702,6120001264782,新規,0,2024-05-13,2024-05-13,株式会社東源,,株式会社,大阪府,大阪市西区,江之子島１丁目７番３号奥内阿波座駅前ビル１５０６号,,27,106,5500006,,,,,,,2024-05-13,1,,,,,トウゲン,0
1703,6120001264816,新規,0,2024-05-13,2024-05-13,Ｓｋｙｔｉｄｅ株式会社,,株式会社,大阪府,大阪市中央区,島之内２丁目９番１５－２０７号,,27,128,5420082,,,,,,,2024-05-13,1,,,,,スカイタイド,0
1704,6120001264898,新規,0,2024-05-13,2024-05-13,宮クリーン株式会社,,株式会社,大阪府,大阪市淀川区,木川西２丁目２番１７号,,27,123,5320013,,,,,,,2024-05-13,1,,,,,ミヤクリーン,0
1710,6120103005820,新規,0,2024-05-13,2024-05-13,合同会社ジェイ・リカーズ,,合同会社,大阪府,堺市西区,上野芝向ヶ丘町５丁１０－９,,27,144,5938303,,,,,,,2024-05-13,1,,,,,ジェイリカーズ,0
1715,6122001038084,新規,0,2024-05-13,2024-05-13,株式会社Ｏ’ｚ　ＢＵＩＬＤ,,株式会社,大阪府,東大阪市,若江西新町３丁目４番２３号,,27,227,5780944,,,,,,,2024-05-13,1,,,,,オーズビルド,0
1718,6130001077044,新規,0,2024-05-13,2024-05-13,京都柏の葉トラスト企画株式会社,,株式会社,京都府,京田辺市,河原御影３６番地の２０,,26,211,6100361,,,,,,,2024-05-13,1,,,,,キョウトカシワノハトラストキカク,0
1720,6130003009557,新規,0,2024-05-13,2024-05-13,Ｍｉｄｏｒｉ　Ｓｔｕｄｉｏ合同会社,,合同会社,京都府,向日市,寺戸町西田中瀬２０－１６,,26,208,6170002,,,,,,,2024-05-13,1,,,,,ミドリスタジオ,0
1724,6140001134380,新規,0,2024-05-13,2024-05-13,株式会社高部,,株式会社,兵庫県,加西市,北条町古坂１２０８番地,,28,220,6752303,,,,,,,2024-05-13,1,,,,,タカベ,0
1726,6140003020471,新規,0,2024-05-13,2024-05-13,合同会社ＴＥＭＰＥＳＴ,,合同会社,兵庫県,西宮市,西福町７番２－３０１号,,28,204,6620844,,,,,,,2024-05-13,1,,,,,テンペスト,0
1727,6140003020554,新規,0,2024-05-13,2024-05-13,合同会社あん川西,,合同会社,兵庫県,川西市,中央町１８番９号,,28,217,6660016,,,,,,,2024-05-13,1,,,,,アンカワニシ,0
1740,6180001161347,新規,0,2024-05-13,2024-05-13,株式会社コウセイ電気,,株式会社,愛知県,知多郡東浦町,大字石浜字吹付２番地の１３５,,23,442,4702103,,,,,,,2024-05-13,1,,,,,コウセイデンキ,0
1741,6180001161355,新規,0,2024-05-13,2024-05-13,株式会社ユタックス,,株式会社,愛知県,名古屋市北区,新沼町１１３番地,,23,103,4620062,,,,,,,2024-05-13,1,,,,,ユタックス,0
1742,6180001161405,新規,0,2024-05-13,2024-05-13,ニッキー株式会社,,株式会社,愛知県,名古屋市北区,大曽根２丁目９番６４号,,23,103,4620825,,,,,,,2024-05-13,1,,,,,ニッキー,0
1754,6180003026770,新規,0,2024-05-13,2024-05-13,合同会社放課後スクールＴＯＰ,,合同会社,愛知県,東海市,加木屋町内堀１３６番地２号なかよし保育園２階,,23,222,4770032,,,,,,,2024-05-13,1,,,,,ホウカゴスクールトップ,0
1757,6180005020623,新規,0,2024-05-13,2024-05-13,一般社団法人東アジア音楽文化振興機構,,その他の設立登記法人,愛知県,名古屋市天白区,島田２丁目５１７番地,,23,116,4680056,,,,,,,2024-05-13,1,,,,,ヒガシアジアオンガクブンカシンコウキコウ,0
1761,6180303006118,新規,0,2024-05-13,2024-05-13,合同会社Ｗｉｔｈ,,合同会社,愛知県,豊田市,朝日ケ丘２丁目３番地１ライオンズヒルズ豊田１００３号,,23,211,4710858,,,,,,,2024-05-13,1,,,,,ウィズ,0
1768,6200001042412,新規,0,2024-05-13,2024-05-13,東亜窯業原料株式会社,,株式会社,岐阜県,多治見市,市之倉町１丁目１６３番地,,21,204,5070814,,,,,,,2024-05-13,1,,,,,トウアヨウギョウゲンリョウ,0
1773,6220001026000,新規,0,2024-05-13,2024-05-13,ＫＡＬＡＮＣＨＯＥ株式会社,,株式会社,石川県,白山市,森島町あ４４番地５,,17,210,9202131,,,,,,,2024-05-13,1,,,,,カランコエ,0
1778,6240001063207,新規,0,2024-05-13,2024-05-13,株式会社ＵＵ,,株式会社,広島県,福山市,多治米町２丁目１４番２２号,,34,207,7200824,,,,,,,2024-05-13,1,,,,,ユーユー,0
1788,6280005007610,新規,0,2024-05-13,2024-05-13,特定非営利活動法人たかはらんど,,その他の設立登記法人,島根県,邑智郡邑南町,高見２９９６－７,,32,449,6960406,,,,,,,2024-05-13,1,,,,,タカハランド,0
1790,6290001105631,新規,0,2024-05-13,2024-05-13,株式会社クルーセ,,株式会社,福岡県,糟屋郡篠栗町,大字尾仲７１４番地１０,,40,342,8112413,,,,,,,2024-05-13,1,,,,,クルーセ,0
1791,6290001105771,新規,0,2024-05-13,2024-05-13,株式会社トリプルバレル,,株式会社,福岡県,太宰府市,青山２丁目１５番２７号,,40,221,8180121,,,,,,,2024-05-13,1,,,,,トリプルバレル,0
1793,6290003015242,新規,0,2024-05-13,2024-05-13,黒白屋合同会社,,合同会社,福岡県,大野城市,乙金東２丁目２４番７号,,40,219,8160901,,,,,,,2024-05-13,1,,,,,クロシロヤ,0
1798,6290005019398,新規,0,2024-05-13,2024-05-13,一般社団法人まち育ミライｌａｂ．,,その他の設立登記法人,福岡県,福岡市博多区,博多駅前２丁目１９番１７号トーカン博多第５ビル３１２号室,,40,132,8120011,,,,,,,2024-05-13,1,,,,,マチイクミライラボ,0
1799,6290803004725,新規,0,2024-05-13,2024-05-13,合同会社南企画,,合同会社,福岡県,京都郡みやこ町,国作６０９番地,,40,625,8240125,,,,,,,2024-05-13,1,,,,,ミナミキカク,0
1802,6310001019011,新規,0,2024-05-13,2024-05-13,株式会社ＣＲＡＴ,,株式会社,長崎県,佐世保市,早苗町４４３番地２,,42,202,8593211,,,,,,,2024-05-13,1,,,,,カラット,0
1803,6320001020455,新規,0,2024-05-13,2024-05-13,株式会社小春日和,,株式会社,大分県,日田市,中本町７番１２号,,44,204,8770047,,,,,,,2024-05-13,1,,,,,コハルビヨリ,0
1804,6330001032061,新規,0,2024-05-13,2024-05-13,アラキ総合建築株式会社,,株式会社,熊本県,荒尾市,樺１７９８番地,,43,204,8640165,,,,,,,2024-05-13,1,,,,,アラキソウゴウケンチク,0
1810,6340005009732,新規,0,2024-05-13,2024-05-13,一般社団法人ｉＢＡＳＨＯ,,その他の設立登記法人,鹿児島県,日置市,吹上町中之里１５２１番地３,,46,216,8993302,,,,,,,2024-05-13,1,,,,,イバショ,0
1813,6360001033643,新規,0,2024-05-13,2024-05-13,ＭＳＫ医療コンサルティング株式会社,,株式会社,沖縄県,中頭郡北谷町,美浜１丁目６番地７,,47,326,9040115,,,,,,,2024-05-13,1,,,,,エムエスケイイリョウコンサルティング,0
1826,6420001018720,新規,0,2024-05-13,2024-05-13,株式会社スカイ,,株式会社,青森県,青森市,花園２丁目４３番１５号,,02,201,0300966,,,,,,,2024-05-13,1,,,,,スカイ,0
1829,6430001091782,新規,0,2024-05-13,2024-05-13,札幌井伊旅行サービス株式会社,,株式会社,北海道,札幌市中央区,南四条東５丁目１番地２９豊ビル５０５号,,01,101,0600054,,,,,,,2024-05-13,1,,,,,サッポロイイリョコウサービス,0
1830,6430001091790,新規,0,2024-05-13,2024-05-13,株式会社エタノルグレス,,株式会社,北海道,札幌市中央区,南九条西２３丁目３番１０－２０７号,,01,101,0640809,,,,,,,2024-05-13,1,,,,,エタノルグレス,0
1831,6430001091799,新規,0,2024-05-13,2024-05-13,エコノベーション株式会社,,株式会社,北海道,札幌市東区,北三十八条東１丁目１番１５号,,01,103,0070838,,,,,,,2024-05-13,1,,,,,エコノベーション,0
1837,6500001025618,新規,0,2024-05-13,2024-05-13,株式会社ｕｌｕｃｕｓ,,株式会社,愛媛県,松山市,生石町６４０番地ハイライズビュー２０３号,,38,201,7900051,,,,,,,2024-05-13,1,,,,,ウルクス,0
1838,6500001025626,新規,0,2024-05-13,2024-05-13,株式会社白石林業,,株式会社,愛媛県,上浮穴郡久万高原町,露峰甲１７８４番地,,38,386,7911221,,,,,,,2024-05-13,1,,,,,シライシリンギョウ,0
1841,6700150125223,新規,0,2024-05-13,2024-05-13,Ｄｉａｍｏｎｄ　Ｗｏｒｌｄ　Ｉｎｖｅｓｔｍｅｎｔｓ　Ｌｉｍｉｔｅｄ,,外国会社等,,,,,,,,Ｖｉｓｔｒａ　Ｃｏｒｐｏｒａｔｅ　Ｓｅｒｖｉｃｅｓ　Ｃｅｎｔｅｒ，Ｓｕｉｔｅ　２３，１ｓｔ　Ｆｌ，Ｅｄｅｎ　Ｐｌａｚａ，Ｅｄｅｎ　Ｉｓｌａｎｄ，Ｍａｈｅ，Ｒｅｐｕｂｌｉｃ　ｏｆ　Ｓｅｙｃｈｅｌｌｅｓ,,,,,,2024-05-13,1,,,,,ダイヤモンドワールドインベストメンツリミテツド,0
1842,6700150125297,新規,0,2024-05-13,2024-05-13,深＿市金斯電子商務有限公司,00134706,外国会社等,千葉県,山武市,松尾町八田８７番地２,,12,237,2891512,中国広東省深＿市龍華区民治街道民楽社区星河ＷＯＲＬＤ二期Ｄ棟８１３－２,00134707,,,,,2024-05-13,1,,,,,シンセンシキンスデンシシヨウムユウゲンコウシ,0
1885,7010003043690,新規,0,2024-05-13,2024-05-13,ＯＰＲ　ＳＥＮＺＯＫＵ合同会社,,合同会社,東京都,千代田区,霞が関３丁目２番５号,,13,101,1000013,,,,,,,2024-05-13,1,,,,,オーピーアールセンゾク,0
1889,7010005038301,新規,0,2024-05-13,2024-05-13,一般社団法人武蔵の杜ホールディング,,その他の設立登記法人,東京都,千代田区,丸の内３丁目１番１号東京共同会計事務所内,,13,101,1000005,,,,,,,2024-05-13,1,,,,,ムサシノモリホールディング,0
1895,7010401182289,新規,0,2024-05-13,2024-05-13,株式会社アイエイチダブリュイノベーションアンドコンサルティング,,株式会社,東京都,港区,南青山１丁目２４番１号,,13,103,1070062,,,,,,,2024-05-13,1,,,,,アイエイチダブリュイノベーションアンドコンサルティング,0
1896,7010401182297,新規,0,2024-05-13,2024-05-13,株式会社ＢＥＬＬＯＲＣＨＩＤ,,株式会社,東京都,港区,南青山３丁目１番３６号青山丸竹ビル６Ｆ,,13,103,1070062,,,,,,,2024-05-13,1,,,,,ベルオーキッド,0
1903,7010403032599,新規,0,2024-05-13,2024-05-13,合同会社いずもライフテック,,合同会社,東京都,港区,浜松町２丁目２番１５号浜松町ダイヤビル２Ｆ,,13,103,1050013,,,,,,,2024-05-13,1,,,,,イズモライフテック,0
1919,7011001161872,新規,0,2024-05-13,2024-05-13,株式会社Ｐｒａｎｋｓｔｅｒｓ,,株式会社,東京都,目黒区,下目黒１丁目１番１４号コノトラビル７Ｆ,,13,110,1530064,,,,,,,2024-05-13,1,,,,,プランクスターズ,0
1920,7011001161914,新規,0,2024-05-13,2024-05-13,株式会社テトルツ,,株式会社,東京都,渋谷区,円山町１０番１８号マイキャッスル渋谷ＪＰ１０２,,13,113,1500044,,,,,,,2024-05-13,1,,,,,テトルツ,0
1921,7011001161930,新規,0,2024-05-13,2024-05-13,ＮＴ４１株式会社,,株式会社,東京都,渋谷区,神宮前３丁目１４番１４号,,13,113,1500001,,,,,,,2024-05-13,1,,,,,エヌティフォーティワン,0
1929,7011105011024,新規,0,2024-05-13,2024-05-13,一般社団法人日本アジア貿易促進協会,,その他の設立登記法人,東京都,新宿区,高田馬場３丁目３７番４号,,13,104,1690075,,,,,,,2024-05-13,1,,,,,ニホンアジアボウエキソクシンキョウカイ,0
1937,7011503006055,新規,0,2024-05-13,2024-05-13,合同会社大玉,,合同会社,東京都,荒川区,東日暮里２丁目４番１１－４０１号,,13,118,1160014,,,,,,,2024-05-13,1,,,,,オオダマ,0
1941,7011701027258,新規,0,2024-05-13,2024-05-13,鈴大株式会社,,株式会社,東京都,江戸川区,瑞江２丁目２３番１号コズミックビル田村１階,,13,123,1320011,,,,,,,2024-05-13,1,,,,,スズダイ,0
1943,7011703003819,新規,0,2024-05-13,2024-05-13,合同会社ＫＯＴＡＲＯ,,合同会社,東京都,江戸川区,清新町２丁目４番１１－２０２号,,13,123,1340087,,,,,,,2024-05-13,1,,,,,コウタロウ,0
1946,7011803006234,新規,0,2024-05-13,2024-05-13,合同会社Ｌ．Ｔ．Ｓ,,合同会社,東京都,足立区,梅島２丁目４番１０号,,13,121,1210816,,,,,,,2024-05-13,1,,,,,エルティエス,0
1955,7013301052479,新規,0,2024-05-13,2024-05-13,ＹＡＫＵＭＥＤ　ＪＡＰＡＮ株式会社,,株式会社,東京都,豊島区,南池袋１丁目１６番２０号ぬかりやビル６階,,13,116,1710022,,,,,,,2024-05-13,1,,,,,ヤクメドジャパン,0
1956,7013303007134,新規,0,2024-05-13,2024-05-13,合同会社ＰｏｐｅＰｒｏｐｅｒｔｙ,,合同会社,東京都,豊島区,西池袋２丁目３６番１－１１０１号,,13,116,1710021,,,,,,,2024-05-13,1,,,,,ポペプロパティ,0
1964,7020001157145,新規,0,2024-05-13,2024-05-13,株式会社ｇｉｆｔ,,株式会社,神奈川県,横浜市西区,みなとみらい４丁目４番２号横浜ブルーアベニュー１２Ｆ,,14,103,2200012,,,,,,,2024-05-13,1,,,,,ギフト,0
1965,7020001157153,新規,0,2024-05-13,2024-05-13,株式会社ミルク＆ココア,,株式会社,神奈川県,横浜市港北区,新横浜２丁目６番地１８－８Ｆ,,14,109,2220033,,,,,,,2024-05-13,1,,,,,ミルクアンドココア,0
1966,7020001157161,新規,0,2024-05-13,2024-05-13,ＤＯＣｓ株式会社,,株式会社,神奈川県,横浜市港北区,箕輪町２丁目７番３６－１９１４号,,14,109,2230051,,,,,,,2024-05-13,1,,,,,ドックス,0
1967,7020001157186,新規,0,2024-05-13,2024-05-13,株式会社ＹＤ‐Ｐｌａｎｔｓ,,株式会社,神奈川県,横浜市鶴見区,鶴見中央５丁目１６－１３モダンルイーズ鶴見２０５,,14,101,2300051,,,,,,,2024-05-13,1,,,,,ワイディープランツ,0
1968,7020001157194,新規,0,2024-05-13,2024-05-13,株式会社おおきなかぶ,,株式会社,神奈川県,川崎市中原区,木月２丁目１３番３５号渋江ビル４０２,,14,133,2110025,,,,,,,2024-05-13,1,,,,,オオキナカブ,0
1971,7020003026091,新規,0,2024-05-13,2024-05-13,合同会社Ｗｅｌｌ　Ｃｒｅａｔｉｏｎ,,合同会社,神奈川県,川崎市幸区,下平間１１２６番１ヴィークコート新川崎４０６,,14,132,2120053,,,,,,,2024-05-13,1,,,,,ウェルクリエイション,0
1972,7020005016413,新規,0,2024-05-13,2024-05-13,一般社団法人ＯＮ　ＴＨＥ　ＦＩＥＬＤ,,その他の設立登記法人,神奈川県,横浜市青葉区,さつきが丘１５番地９１－３０３,,14,117,2270053,,,,,,,2024-05-13,1,,,,,オンザフィールド,0
1980,7021001082201,新規,0,2024-05-13,2024-05-13,株式会社ＮｅｘｔＬｉｎｅ,,株式会社,神奈川県,平塚市,宮松町１５番１９－２０３号シエル・Ｄ・湘南,,14,203,2540036,,,,,,,2024-05-13,1,,,,,ネクストライン,0
2004,7040001133540,新規,0,2024-05-13,2024-05-13,ＭＡＴＡＫＩ　ＴＥＣＨＮＥ株式会社,,株式会社,千葉県,千葉市中央区,矢作町３２６－２,,12,101,2600851,,,,,,,2024-05-13,1,,,,,マタキテクネ,0
2005,7040003024977,新規,0,2024-05-13,2024-05-13,グッドウィングス合同会社,,合同会社,千葉県,松戸市,五香６丁目２０－１,,12,207,2702213,,,,,,,2024-05-13,1,,,,,グッドウィングス,0
2020,7070001041740,新規,0,2024-05-13,2024-05-13,株式会社Ｚ．Ａ　ＴＲＡＤＩＮＧ,,株式会社,群馬県,太田市,大原町２０９番地１ファミールメゾンＩ・Ｂ－２０３号,00134722,10,205,3792304,,,,,,,2024-05-13,1,,,,,ゼットエイトレーディング,0
2025,7080001026303,新規,0,2024-05-13,2024-05-13,株式会社ＳＡＫＵＲＡＧＵＭＩ,,株式会社,静岡県,藤枝市,駅前１丁目７番９号３階,,22,214,4260034,,,,,,,2024-05-13,1,,,,,サクラグミ,0
2030,7080401027181,新規,0,2024-05-13,2024-05-13,株式会社エンシュウ空調設備,,株式会社,静岡県,浜松市中央区,曳馬２丁目１３番７５－１号,,22,138,4300901,,,,,,,2024-05-13,1,,,,,エンシュウクウチョウセツビ,0
2036,7100001037446,新規,0,2024-05-13,2024-05-13,株式会社ＯＮＥ　ＷＯＢ住吉,,株式会社,長野県,北安曇郡松川村,５７２１番地３１４,,20,482,3998501,,,,,,,2024-05-13,1,,,,,ワンウォブスミヨシ,0
2039,7100003007554,新規,0,2024-05-13,2024-05-13,合同会社Ｔｒｅｅ,,合同会社,長野県,佐久市,布施８番地３１９,,20,217,3842203,,,,,,,2024-05-13,1,,,,,ツリー,0
2041,7110001038402,新規,0,2024-05-13,2024-05-13,株式会社エムファクトリー,,株式会社,新潟県,燕市,杣木３４７５番地１７,,15,213,9591284,,,,,,,2024-05-13,1,,,,,,0
2045,7110005017096,新規,0,2024-05-13,2024-05-13,医療法人社団ＴＤＣ,,その他の設立登記法人,新潟県,新潟市中央区,白山浦２丁目６４６番地９７－２Ｆ,,15,103,9518131,,,,,,,2024-05-13,1,,,,,ティーディーシー,0
2053,7120001264682,新規,0,2024-05-13,2024-05-13,ＫａｎＯｎ　Ｓｗｅｅｔｓ株式会社,,株式会社,大阪府,枚方市,養父丘２丁目３番２８号,,27,210,5731134,,,,,,,2024-05-13,1,,,,,カンノンスイーツ,0
2054,7120001264757,新規,0,2024-05-13,2024-05-13,株式会社ＬＩＮＫ　ＡＬＬ,,株式会社,大阪府,大阪市中央区,南船場４丁目１０番５号南船場ＳＯＨＯビル７０２,,27,128,5420081,,,,,,,2024-05-13,1,,,,,リンクオール,0
2055,7120001264815,新規,0,2024-05-13,2024-05-13,Ｓｔｕｒｍ　Ｖｏｇｅｌ株式会社,,株式会社,大阪府,大阪市西区,本田３丁目１番１９－７０２号,,27,106,5500022,,,,,,,2024-05-13,1,,,,,シュツルムフォーゲル,0
2057,7120003026560,新規,0,2024-05-13,2024-05-13,アイティビジネス合同会社,,合同会社,大阪府,大阪市北区,梅田１丁目２番２号大阪駅前第２ビル１２－１２,,27,127,5300001,,,,,,,2024-05-13,1,,,,,アイティビジネス,0
2060,7120103005828,新規,0,2024-05-13,2024-05-13,合同会社Ｍｉｄｏｒｉ,,合同会社,大阪府,富田林市,小金台２丁目８番３－１０３号,,27,214,5840083,,,,,,,2024-05-13,1,,,,,ミドリ,0
2064,7130001076978,新規,0,2024-05-13,2024-05-13,株式会社林,,株式会社,京都府,京都市東山区,五条橋東西大谷前東入白系町５７２番地１１,,26,105,6050000,,,,,,,2024-05-13,1,,,,,ハヤシ,0
2065,7130001077027,新規,0,2024-05-13,2024-05-13,株式会社ＦＥＮＩＣＥ,,株式会社,京都府,京都市西京区,下津林前泓町２６番地１１,,26,111,6158062,,,,,,,2024-05-13,1,,,,,フェニーチェ,0
2071,7140001134289,新規,0,2024-05-13,2024-05-13,スターズ神戸株式会社,,株式会社,兵庫県,神戸市灘区,畑原通２丁目２番２２－２号,,28,102,6570822,,,,,,,2024-05-13,1,,,,,スターズコウベ,0
2075,7140003020553,新規,0,2024-05-13,2024-05-13,ＹＯＮ’ｓ　ＬＡＢＯ合同会社,,合同会社,兵庫県,芦屋市,山手町１２番１５－３０２号,,28,206,6590096,,,,,,,2024-05-13,1,,,,,ヨンズラボ,0
2082,7180001161346,新規,0,2024-05-13,2024-05-13,ＮＨＲ株式会社,,株式会社,愛知県,名古屋市西区,市場木町２５４番地１,,23,104,4520805,,,,,,,2024-05-13,1,,,,,エヌエイチアール,0
2083,7180001161362,新規,0,2024-05-13,2024-05-13,東海廣告ホールディングス株式会社,,株式会社,愛知県,名古屋市中区,千代田３丁目４番１１号,,23,106,4600012,,,,,,,2024-05-13,1,,,,,トウカイコウコクホールディングス,0
2084,7180001161379,新規,0,2024-05-13,2024-05-13,株式会社ポニーライフ,,株式会社,愛知県,弥富市,東末広１丁目８３番地,,23,235,4980063,,,,,,,2024-05-13,1,,,,,ポニーライフ,0
2085,7180001161387,新規,0,2024-05-13,2024-05-13,株式会社エスリー・ＳＳＳ,,株式会社,愛知県,名古屋市守山区,森孝４丁目５２０番地新森孝住宅１０２号,,23,113,4630035,,,,,,,2024-05-13,1,,,,,エスリー,0
2086,7180001161412,新規,0,2024-05-13,2024-05-13,ＲＡＩＮＢＯＷ株式会社,,株式会社,愛知県,名古屋市中村区,名駅３丁目４番１０号アルティメイト名駅１ｓｔ２階,,23,105,4500002,,,,,,,2024-05-13,1,,,,,レインボー,0
2090,7180003026745,新規,0,2024-05-13,2024-05-13,合同会社典智,,合同会社,愛知県,稲沢市,平和町勝幡新田２８０番地,,23,220,4901323,,,,,,,2024-05-13,1,,,,,ノリトモ,0
2091,7180003026753,新規,0,2024-05-13,2024-05-13,合同会社ＭＮＭ,,合同会社,愛知県,名古屋市北区,大曽根３丁目１４番３８号,,23,103,4620825,,,,,,,2024-05-13,1,,,,,エムエヌエム,0
2092,7180005020622,新規,0,2024-05-13,2024-05-13,一般社団法人津島観光コンベンション協会,,その他の設立登記法人,愛知県,愛西市,西川端町住田前８０番地２,,23,232,4968019,,,,,,,2024-05-13,1,,,,,ツシマカンコウコンベンションキョウカイ,0
2096,7180301038632,新規,0,2024-05-13,2024-05-13,日々和工業株式会社,,株式会社,愛知県,安城市,法連町１３番地１６,,23,212,4460021,,,,,,,2024-05-13,1,,,,,ヒビワコウギョウ,0
2097,7180301038640,新規,0,2024-05-13,2024-05-13,株式会社ｈｉｋａｒｉｙａ,,株式会社,愛知県,碧南市,中松町４丁目８０番地,,23,209,4470859,,,,,,,2024-05-13,1,,,,,ヒカリヤ,0
2100,7200001042502,新規,0,2024-05-13,2024-05-13,株式会社センファルクリエイト,,株式会社,岐阜県,羽島郡笠松町,田代８５２番地の１７,,21,303,5016062,,,,,,,2024-05-13,1,,,,,センファルクリエイト,0
2104,7230003002204,新規,0,2024-05-13,2024-05-13,合同会社ロード,,合同会社,富山県,富山市,水落１１９番地３０,,16,201,9318301,,,,,,,2024-05-13,1,,,,,ロード,0
2108,7240001063206,新規,0,2024-05-13,2024-05-13,株式会社かいち不動産,,株式会社,広島県,福山市,郷分町５５０番地１,,34,207,7200093,,,,,,,2024-05-13,1,,,,,カイチフドウサン,0
2112,7240005015772,新規,0,2024-05-13,2024-05-13,一般社団法人ＡＮＤ　ＨＯＯＤ,,その他の設立登記法人,広島県,呉市,焼山松ヶ丘１丁目６番２５号,,34,202,7370932,,,,,,,2024-05-13,1,,,,,アンドフッド,0
2115,7250005008916,新規,0,2024-05-13,2024-05-13,協同組合リンク・ナビ,,その他の設立登記法人,山口県,周南市,大字栗屋７５９番地の２９,,35,215,7450802,,,,,,,2024-05-13,1,,,,,リンクナビ,0
2122,7260005011357,新規,0,2024-05-13,2024-05-13,一般社団法人親子交流支援ぷち・ぷらんす,,その他の設立登記法人,岡山県,岡山市北区,奉還町３丁目１５番８号岩田事務所内,,33,101,7000026,,,,,,,2024-05-13,1,,,,,オヤココウリュウシエンプチプランス,0
2124,7270001008975,新規,0,2024-05-13,2024-05-13,いまココ株式会社,,株式会社,鳥取県,岩美郡岩美町,大字牧谷６９０番地１１６,,31,302,6810001,,,,,,,2024-05-13,1,,,,,イマココ,0
2129,7290001105622,新規,0,2024-05-13,2024-05-13,ＪＩＧ株式会社,,株式会社,福岡県,福岡市博多区,麦野６丁目１７番２５号,,40,132,8120882,,,,,,,2024-05-13,1,,,,,ジェイアイジー,0
2130,7290001105770,新規,0,2024-05-13,2024-05-13,株式会社ＤＣ,,株式会社,福岡県,福岡市中央区,赤坂１丁目７番１０号リアン赤坂ビル７階,,40,133,8100042,,,,,,,2024-05-13,1,,,,,ディーシー,0
2136,7290005019397,新規,0,2024-05-13,2024-05-13,一般社団法人オムニア自然療法ペットケア協会,,その他の設立登記法人,福岡県,太宰府市,高雄５丁目１２番５号,,40,221,8180122,,,,,,,2024-05-13,1,,,,,オムニアシゼンリョウホウペットケアキョウカイ,0
2140,7290803004724,新規,0,2024-05-13,2024-05-13,合同会社ミナミ建設,,合同会社,福岡県,北九州市小倉南区,大字新道寺１２０７番地,,40,107,8030186,,,,,,,2024-05-13,1,,,,,ミナミケンセツ,0
2143,7320001020462,新規,0,2024-05-13,2024-05-13,株式会社Ｗｏｎｄｅｒ　ｅｄｇｅ,,株式会社,大分県,大分市,金池町５丁目２番５号,,44,201,8700026,,,,,,,2024-05-13,1,,,,,ワンダーエッジ,0
2145,7340005009731,新規,0,2024-05-13,2024-05-13,一般社団法人サリシェ,,その他の設立登記法人,鹿児島県,鹿児島市,真砂本町２３番１６号,,46,201,8900067,,,,,,,2024-05-13,1,,,,,サリシェ,0
2165,7430003016316,新規,0,2024-05-13,2024-05-13,合同会社ｉｃｈｉ,,合同会社,北海道,小樽市,桜３丁目１９番４５号,,01,203,0470156,,,,,,,2024-05-13,1,,,,,イチ,0
2166,7430005014978,新規,0,2024-05-13,2024-05-13,一般社団法人東京コンシェルジュ協会,,その他の設立登記法人,北海道,札幌市中央区,南二条西３丁目１３番４号カタオカビル３階,,01,101,0600062,,,,,,,2024-05-13,1,,,,,トウキョウコンシェルジュキョウカイ,0
2167,7440001009436,新規,0,2024-05-13,2024-05-13,株式会社作哉工務店,,株式会社,北海道,函館市,山の手１丁目４０番１１号,,01,202,0410836,,,,,,,2024-05-13,1,,,,,サクヤコウムテン,0
2176,7480001012469,新規,0,2024-05-13,2024-05-13,Ｈ＆Ｋ株式会社,,株式会社,徳島県,板野郡北島町,鯛浜字西ノ須５１番地１１７,,36,402,7710204,,,,,,,2024-05-13,1,,,,,エイチアンドケイ,0
2178,7500001025617,新規,0,2024-05-13,2024-05-13,株式会社ＳＨＩＢＡＴＡＫＵ,,株式会社,愛媛県,松山市,土居田町３２７－７ＳｈｉｂａｔａＴ・Ｔスタジオ,,38,201,7900056,,,,,,,2024-05-13,1,,,,,シバタク,0
2183,7700150125016,新規,0,2024-05-13,2024-04-22,パークシティ堺東タワーズブライト管理組合,,その他,大阪府,堺市堺区,北花田口町１丁２－１５,,27,141,5900074,,,,,,,2024-04-22,1,,,,,パークシテイサカイヒガシタワーズブライトカンリクミアイ,0
2184,7700150125222,新規,0,2024-05-13,2024-05-13,ＡＴ　ＴＨＥＲＭ　ＳＯＬＵＴＩＯＮＳ　ＬＴＤ,,外国会社等,,,,,,,,１２８　Ｃｉｔｙ　Ｒｏａｄ，Ｌｏｎｄｏｎ，Ｕｎｉｔｅｄ　Ｋｉｎｇｄｏｍ　ＥＣ１Ｖ　２ＮＸ,,,,,,2024-05-13,1,,,,,アットサームソリューションズリミテッド,0
2185,7700150125288,新規,0,2024-05-13,2024-05-13,メドトロニック健康保険組合,,その他,東京都,千代田区,紀尾井町３番６号,,13,101,1020094,,,,,,,2024-05-13,1,,,,,メドトロニックケンコウホケンクミアイ,0
2186,7700150125296,新規,0,2024-05-13,2024-05-13,株式会社扁康韓方皮膚科学研究所,,外国会社等,東京都,荒川区,東日暮里５丁目４９番８－２０１号,,13,118,1160014,大韓民国大邱広城市達城郡多斯邑達句伐大路１７４ギル１０－９、４階,,,,,,2024-05-13,1,,,,,カブシキガイシヤヘンガンカンポウヒフカガクケンキユウシヨ,0
2208,8010001244629,新規,0,2024-05-13,2024-05-13,株式会社ＤＴ　Ｇｌｏｂａｌ　Ｊａｐａｎ,,株式会社,東京都,中央区,銀座１丁目２２番１１号２階,,13,102,1040061,,,,,,,2024-05-13,1,,,,,ディーティーグローバルジャパン,0
2209,8010001244752,新規,0,2024-05-13,2024-05-13,やまとリアルエステート株式会社,,株式会社,東京都,中央区,入船１丁目１番２６号,,13,102,1040042,,,,,,,2024-05-13,1,,,,,ヤマトリアルエステート,0
2210,8010001244785,新規,0,2024-05-13,2024-05-13,株式会社ＡＤＭ,,株式会社,東京都,千代田区,六番町１５番２号,,13,101,1020085,,,,,,,2024-05-13,1,,,,,,0
2220,8010401182189,新規,0,2024-05-13,2024-05-13,株式会社Ｚｅａｌ,,株式会社,東京都,港区,六本木３丁目８番５号８０２号,,13,103,1060032,,,,,,,2024-05-13,1,,,,,ジール,0
2221,8010401182230,新規,0,2024-05-13,2024-05-13,Ｖｉｎｔａｇｅ　Ｃａｐｉｔａｌ株式会社,,株式会社,東京都,港区,北青山１丁目３－１アールキューブ青山３階,,13,103,1070061,,,,,,,2024-05-13,1,,,,,ヴィンテージキャピタル,0
2222,8010401182305,新規,0,2024-05-13,2024-05-13,株式会社ＴｒａｄｅＸ,,株式会社,東京都,港区,北青山１丁目４番６号,,13,103,1070061,,,,,,,2024-05-13,1,,,,,トレードエックス,0
2223,8010401182379,新規,0,2024-05-13,2024-05-13,株式会社ＣＪＡ　ＪＡＰＡＮ,,株式会社,東京都,港区,赤坂２丁目２１番８号ＲＩＦＡ５ビル２Ｆ,,13,103,1070052,,,,,,,2024-05-13,1,,,,,シージェイエージャパン,0
2224,8010401182395,新規,0,2024-05-13,2024-05-13,ＣＪ　Ｏｌｉｖｅ　Ｙｏｕｎｇ　Ｊａｐａｎ株式会社,,株式会社,東京都,港区,西新橋２丁目７番４号,,13,103,1050003,,,,,,,2024-05-13,1,,,,,シージェイオリーブヤングジャパン,0
2231,8010403032565,新規,0,2024-05-13,2024-05-13,合同会社ゴーイングベスティ,,合同会社,東京都,港区,芝５丁目２９番３号三田永谷マンション６０３号室,,13,103,1080014,,,,,,,2024-05-13,1,,,,,ゴーイングベスティ,0
2232,8010405023199,新規,0,2024-05-13,2024-05-13,一般社団法人日本アートメイクアーティスト協会,,その他の設立登記法人,東京都,港区,南青山２丁目２番８号ＤＦビル５階,,13,103,1070062,,,,,,,2024-05-13,1,,,,,ニホンアートメイクアーティストキョウカイ,0
2234,8010501052226,新規,0,2024-05-13,2024-05-13,盛禾株式会社,,株式会社,東京都,台東区,台東３丁目５番１０号－１０２－２Ｆ室,,13,106,1100016,,,,,,,2024-05-13,1,,,,,セイキ,0
2235,8010505003522,新規,0,2024-05-13,2024-05-13,一般社団法人ソーシャルインパクト全国英語スピーチコンテスト,,その他の設立登記法人,東京都,台東区,浅草橋４丁目１０番８号ＴＦＡビル９階,,13,106,1110053,,,,,,,2024-05-13,1,,,,,ソーシャルインパクトゼンコクエイゴスピーチコンテスト,0
2239,8010701045962,新規,0,2024-05-13,2024-05-13,株式会社おと,,株式会社,東京都,品川区,大井６丁目１２番７号,,13,109,1400014,,,,,,,2024-05-13,1,,,,,オト,0
2247,8010901055233,新規,0,2024-05-13,2024-05-13,ＫＢアセット株式会社,,株式会社,東京都,世田谷区,三軒茶屋１丁目１５番１０－３０５号,,13,112,1540024,,,,,,,2024-05-13,1,,,,,ケイビーアセット,0
2249,8010903009047,新規,0,2024-05-13,2024-05-13,ＸＹＺ合同会社,,合同会社,東京都,世田谷区,中町２丁目１－１２－２０６,,13,112,1580091,,,,,,,2024-05-13,1,,,,,エックスワイゼット,0
2257,8011001161954,新規,0,2024-05-13,2024-05-13,ＡＺＵＫＩ　Ｈｏｌｄｉｎｇｓ株式会社,,株式会社,東京都,目黒区,下目黒２丁目２１番２０号,,13,110,1530064,,,,,,,2024-05-13,1,,,,,アズキホールディングス,0
2266,8011401026088,新規,0,2024-05-13,2024-05-13,株式会社夢家,,株式会社,東京都,板橋区,大谷口北町１１番１－１１０１号中板橋サニーコーポ,,13,119,1730031,,,,,,,2024-05-13,1,,,,,ドリームハウス,0
2267,8011403004380,新規,0,2024-05-13,2024-05-13,合同会社レクセル,,合同会社,東京都,板橋区,仲町２５番２号ｔｒｉａｓ２５３、４０１,,13,119,1730022,,,,,,,2024-05-13,1,,,,,レクセル,0
2281,8012803003393,新規,0,2024-05-13,2024-05-13,合同会社ｘｉｃａｒａ,,合同会社,東京都,立川市,曙町２丁目３３番１号武蔵野ビル２Ｆ－１,00134712,13,202,1900012,,,,,,,2024-05-13,1,,,,,チカラ,0
2282,8013101009414,新規,0,2024-05-13,2024-05-13,株式会社ＴＳＣ,,株式会社,東京都,あきる野市,伊奈８２６番地１,,13,228,1900142,,,,,,,2024-05-13,1,,,,,ティーエスシー,0
2283,8013301052478,新規,0,2024-05-13,2024-05-13,パロン株式会社,,株式会社,東京都,豊島区,池袋本町２丁目１３番７号,,13,116,1700011,,,,,,,2024-05-13,1,,,,,パロン,0
2284,8013301052486,新規,0,2024-05-13,2024-05-13,蒼建築株式会社,,株式会社,東京都,豊島区,巣鴨５丁目４４番１号,,13,116,1700002,,,,,,,2024-05-13,1,,,,,ソウケンチク,0
2288,8020001157128,新規,0,2024-05-13,2024-05-13,株式会社伊志嶺商会,,株式会社,神奈川県,横浜市旭区,市沢町７０２番地８２,,14,112,2410014,,,,,,,2024-05-13,1,,,,,イシミネショウカイ,0
2289,8020001157152,新規,0,2024-05-13,2024-05-13,株式会社Ｃｌｏｕｄ,,株式会社,神奈川県,川崎市川崎区,東田町１０番地２－２０５,,14,131,2100005,,,,,,,2024-05-13,1,,,,,クラウド,0
2290,8020001157160,新規,0,2024-05-13,2024-05-13,株式会社うんぱん,,株式会社,神奈川県,横浜市都筑区,桜並木１２－１５アイランドＩＩ１０２,00134714,14,118,2240046,,,,,,,2024-05-13,1,,,,,ウンパン,0
2291,8020001157193,新規,0,2024-05-13,2024-05-13,瀬谷エンタープライセス株式会社,,株式会社,神奈川県,横浜市瀬谷区,阿久和南１丁目２４番１６号,,14,114,2460026,,,,,,,2024-05-13,1,,,,,セヤエンタープライセス,0
2294,8020003026090,新規,0,2024-05-13,2024-05-13,デサート合同会社,,合同会社,神奈川県,横浜市瀬谷区,五貫目町１０番地１３５,,14,114,2460008,,,,,,,2024-05-13,1,,,,,デサート,0
2295,8020003026099,新規,0,2024-05-13,2024-05-13,１ｖｉｓｉｏｎ合同会社,,合同会社,神奈川県,川崎市多摩区,宿河原７丁目１０－６クロノス宿河原２０２,,14,135,2140021,,,,,,,2024-05-13,1,,,,,ワンビジョン,0
2296,8020005016412,新規,0,2024-05-13,2024-05-13,一般財団法人エタニティ,,その他の設立登記法人,神奈川県,横浜市戸塚区,汲沢町３０５番地２１,,14,110,2450062,,,,,,,2024-05-13,1,,,,,エタニティ,0
2316,8030001160304,新規,0,2024-05-13,2024-05-13,株式会社大河原電気,,株式会社,埼玉県,狭山市,中央２丁目４２番２２号,,11,215,3501308,,,,,,,2024-05-13,1,,,,,オオカワラデンキ,0
2328,8040001133325,新規,0,2024-05-13,2024-05-13,株式会社ビルオプト,,株式会社,千葉県,千葉市中央区,中央２丁目５―１,,12,101,2600013,,,,,,,2024-05-13,1,,,,,ビルオプト,0
2329,8040001133390,新規,0,2024-05-13,2024-05-13,宣益国際株式会社,,株式会社,千葉県,山武市,中津田５８４番１号,,12,237,2891202,,,,,,,2024-05-13,1,,,,,センマスコクサイ,0
2330,8040001133515,新規,0,2024-05-13,2024-05-13,株式会社ＬＩＧＨＴ　ＰＲＯ,,株式会社,千葉県,市川市,東国分１丁目２８番９号（メゾンヴランシュ１０３号）,,12,203,2720833,,,,,,,2024-05-13,1,,,,,ライトプロ,0
2332,8040003024976,新規,0,2024-05-13,2024-05-13,ウカイオート合同会社,,合同会社,千葉県,いすみ市,高谷８６番地１０号,,12,238,2980021,,,,,,,2024-05-13,1,,,,,ウカイオート,0
2336,8050001054751,新規,0,2024-05-13,2024-05-13,エコパレ梱包資材株式会社,,株式会社,茨城県,結城郡八千代町,大字沼森７８９－１,,08,521,3003525,,,,,,,2024-05-13,1,,,,,エコパレコンポウシザイ,0
2338,8050003008367,新規,0,2024-05-13,2024-05-13,合同会社遊心,,合同会社,茨城県,ひたちなか市,大字馬渡３１８ー１,,08,221,3120012,,,,,,,2024-05-13,1,,,,,ユウシン,0
2347,8080001026302,新規,0,2024-05-13,2024-05-13,千代田建設株式会社,,株式会社,静岡県,静岡市葵区,沓谷４丁目１６番２号,,22,101,4200816,,,,,,,2024-05-13,1,,,,,チヨダケンセツ,0
2349,8080101024742,新規,0,2024-05-13,2024-05-13,株式会社Ｔａｉｌｏｒ　Ｗｏｒｋｓ,,株式会社,静岡県,富士市,神谷新町５９番地,,22,210,4170822,,,,,,,2024-05-13,1,,,,,テーラーワークス,0
2354,8100001037429,新規,0,2024-05-13,2024-05-13,信州スプリングファーム株式会社,,株式会社,長野県,小県郡長和町,和田２３９５番地,,20,350,3860701,,,,,,,2024-05-13,1,,,,,シンシュウスプリングファーム,0
2357,8110003005390,新規,0,2024-05-13,2024-05-13,合同会社北陸ぺにい,,合同会社,新潟県,長岡市,喜多町１４３５番,,15,202,9402121,,,,,,,2024-05-13,1,,,,,ホクリクペニイ,0
2367,8120001264772,新規,0,2024-05-13,2024-05-13,株式会社Ｅｔｏｉｌｅ,,株式会社,大阪府,大阪市天王寺区,味原町１４番１３号エスリード上本町グリーズ１３０１号,,27,109,5430023,,,,,,,2024-05-13,1,,,,,エトワール,0
2368,8120001264780,新規,0,2024-05-13,2024-05-13,株式会社ＣＯＮＮＥＣＴ,,株式会社,大阪府,大阪市北区,梅田１丁目２番２号大阪駅前第２ビル１２－１２,,27,127,5300001,,,,,,,2024-05-13,1,,,,,コネクト,0
2369,8120001264789,新規,0,2024-05-13,2024-05-13,株式会社ジャンクション・大阪,,株式会社,大阪府,大阪市北区,芝田２丁目８番１１号共栄ビル３Ｆ,,27,127,5300012,,,,,,,2024-05-13,1,,,,,ジャンクションオオサカ,0
2370,8120001264797,新規,0,2024-05-13,2024-05-13,共成株式会社,,株式会社,大阪府,大阪市中央区,上町１丁目２５－２－４０２,,27,128,5400005,,,,,,,2024-05-13,1,,,,,キョウセイ,0
2371,8120001264806,新規,0,2024-05-13,2024-05-13,株式会社リバリュー,,株式会社,大阪府,大阪市鶴見区,鶴見２丁目５番２４号,,27,124,5380053,,,,,,,2024-05-13,1,,,,,リバリュー,0
2375,8120003026584,新規,0,2024-05-13,2024-05-13,合同会社あんずシュワワ,,合同会社,大阪府,大阪市北区,兎我野町１０‐６平田第二レジャービルＢ１,,27,127,5300056,,,,,,,2024-05-13,1,,,,,アンズシュワワ,0
2380,8120101069527,新規,0,2024-05-13,2024-05-13,株式会社Ｏｎｅｎｅｓｓ,,株式会社,大阪府,堺市堺区,向陵西町４丁３番８－９０８号,,27,141,5900026,,,,,,,2024-05-13,1,,,,,ワンネス,0
2392,8130001077034,新規,0,2024-05-13,2024-05-13,株式会社ｍｙ　ｅｓｔａｔｅ,,株式会社,京都府,京都市北区,上賀茂坂口町１２番地１７,,26,101,6038016,,,,,,,2024-05-13,1,,,,,マイエステート,0
2393,8130001077042,新規,0,2024-05-13,2024-05-13,株式会社晴美代,,株式会社,京都府,京都市中京区,西洞院通姉小路下る姉西洞院町５３０番地１アンビエント御池１００４号,,26,104,6048273,,,,,,,2024-05-13,1,,,,,ハレミヨ,0
2399,8140001134313,新規,0,2024-05-13,2024-05-13,インターアーバン株式会社,,株式会社,兵庫県,神戸市兵庫区,上沢通５丁目４番３号,,28,105,6520046,,,,,,,2024-05-13,1,,,,,インターアーバン,0
2402,8140003020552,新規,0,2024-05-13,2024-05-13,合同会社サンエス工業,,合同会社,兵庫県,神戸市灘区,桜口町４丁目５番１２―３０４号,,28,102,6570036,,,,,,,2024-05-13,1,,,,,サンエスコウギョウ,0
2406,8140005027075,新規,0,2024-05-13,2024-05-13,特定非営利活動法人祭りの和落合横丁,,その他の設立登記法人,兵庫県,神戸市須磨区,東落合３丁目２９番１８号エスト落合１０１号,,28,107,6540152,,,,,,,2024-05-13,1,,,,,マツリノワオチアイヨコチョウ,0
2409,8170005007082,新規,0,2024-05-13,2024-05-13,和歌山ＳＴＫ事業協同組合,,その他の設立登記法人,和歌山県,和歌山市,大垣内５９２番地３,,30,201,6496272,,,,,,,2024-05-13,1,,,,,ワカヤマエスティーケー,0
2412,8180001161320,新規,0,2024-05-13,2024-05-13,株式会社ＳＯＲＴＥ,,株式会社,愛知県,名古屋市西区,貴生町１８４番地,,23,104,4520816,,,,,,,2024-05-13,1,,,,,ソルテ,0
2413,8180001161353,新規,0,2024-05-13,2024-05-13,ｈａｌｌｅｌｕｊａｈ　ｃｏｎｓｕｌｔｉｎｇ株式会社,,株式会社,愛知県,名古屋市名東区,山の手１丁目４２４番地（上宝ハイツ２０２号）,,23,115,4650011,,,,,,,2024-05-13,1,,,,,ハレルヤコンサルティング,0
2414,8180001161394,新規,0,2024-05-13,2024-05-13,株式会社斉藤建築,,株式会社,愛知県,大府市,東新町２丁目２６番地の１,,23,223,4740073,,,,,,,2024-05-13,1,,,,,サイトウケンチク,0
2415,8180001161428,新規,0,2024-05-13,2024-05-13,株式会社Ｇｒａｆｆｉｔｉ,,株式会社,愛知県,名古屋市中村区,森田町１丁目１番２８号メゾンドモリタ２、１０２号室,,23,105,4530036,,,,,,,2024-05-13,1,,,,,グラフィティ,0
2416,8180001161436,新規,0,2024-05-13,2024-05-13,株式会社ＴＮＰＰ．ＮＫ,,株式会社,愛知県,常滑市,北条２丁目６９番地の２,,23,216,4790833,,,,,,,2024-05-13,1,,,,,ティエヌピーピードットエヌケイ,0
2423,8180003026744,新規,0,2024-05-13,2024-05-13,合同会社ビーマップ,,合同会社,愛知県,名古屋市中村区,名駅３丁目４－１０アルティメイト名駅１ｓｔ２階,,23,105,4500002,,,,,,,2024-05-13,1,,,,,ビーマップ,0
2424,8180003026769,新規,0,2024-05-13,2024-05-13,合同会社金寳堂はり灸院,,合同会社,愛知県,名古屋市瑞穂区,膳棚町１丁目５２番地の２,,23,108,4670013,,,,,,,2024-05-13,1,,,,,キンポウドウハリキュウイン,0
2429,8180303006116,新規,0,2024-05-13,2024-05-13,合同会社ＭＳＤ,,合同会社,愛知県,岡崎市,六名本町１２番地１８,,23,202,4440854,,,,,,,2024-05-13,1,,,,,エムエスディ,0
2439,8240001063205,新規,0,2024-05-13,2024-05-13,株式会社ＳＥＩＤＥＮホールディングス,,株式会社,広島県,福山市,曙町６丁目９番１６号,,34,207,7210952,,,,,,,2024-05-13,1,,,,,セイデンホールディングス,0
2442,8240005015771,新規,0,2024-05-13,2024-05-13,テクタス社会保険労務士法人,,その他の設立登記法人,広島県,広島市中区,広瀬北町３－１１和光広瀬ビルＳＯ＠Ｒビジネスポート,,34,101,7300803,,,,,,,2024-05-13,1,,,,,,0
2445,8260001039054,新規,0,2024-05-13,2024-05-13,株式会社Ｓｉｒｉｕｓ,,株式会社,岡山県,倉敷市,西富井６３６番地３０,,33,202,7100845,,,,,,,2024-05-13,1,,,,,シリウス,0
2453,8270001008974,新規,0,2024-05-13,2024-05-13,株式会社裕建,,株式会社,鳥取県,西伯郡大山町,高田１１００番地３,,31,386,6893224,,,,,,,2024-05-13,1,,,,,ユウケン,0
2461,8290001105596,新規,0,2024-05-13,2024-05-13,株式会社クリフエッジ,,株式会社,福岡県,福岡市博多区,中洲３丁目１番８号ＴＭ‐３２ＢＵＩＬＤＩＮＧ３階,,40,132,8100801,,,,,,,2024-05-13,1,,,,,クリフエッジ,0
2462,8290001105621,新規,0,2024-05-13,2024-05-13,株式会社南設備,,株式会社,福岡県,福岡市南区,柏原１丁目４７番１６号,,40,134,8111353,,,,,,,2024-05-13,1,,,,,ミナミセツビ,0
2463,8290001105794,新規,0,2024-05-13,2024-05-13,ｓｏｌａ建築工房株式会社,,株式会社,福岡県,福岡市東区,香椎２丁目８番６号,,40,131,8130011,,,,,,,2024-05-13,1,,,,,ソラケンチクコウボウ,0
2464,8290003015208,新規,0,2024-05-13,2024-05-13,ラディアンス合同会社,,合同会社,福岡県,福岡市中央区,今泉１丁目７－１９ティアラ今泉８０３,,40,133,8100021,,,,,,,2024-05-13,1,,,,,ラディアンス,0
2465,8290003015240,新規,0,2024-05-13,2024-05-13,合同会社サンプラス,,合同会社,福岡県,大牟田市,有明町１丁目２－７－５０５,,40,202,8360842,,,,,,,2024-05-13,1,,,,,サンプラス,0
2466,8290003015249,新規,0,2024-05-13,2024-05-13,星野合同会社,,合同会社,福岡県,福岡市早良区,室見３丁目８－６モア室見３０２号室,,40,137,8140015,,,,,,,2024-05-13,1,,,,,ホシノ,0
2472,8290005019388,新規,0,2024-05-13,2024-05-13,ＮＰＯ法人コトマチらいと,,その他の設立登記法人,福岡県,福岡市中央区,六本松３丁目１６番２８号オオホリハイツ５０３,,40,133,8100044,,,,,,,2024-05-13,1,,,,,コトマチライト,0
2473,8290005019396,新規,0,2024-05-13,2024-05-13,一般社団法人障がい者支援マーベラス,,その他の設立登記法人,福岡県,柳川市,三橋町高畑２０４番地２,,40,207,8320826,,,,,,,2024-05-13,1,,,,,ショウガイシャシエンマーベラス,0
2474,8290005019405,新規,0,2024-05-13,2024-05-13,医療法人Ｋｅｉｙｕ,,その他の設立登記法人,福岡県,大野城市,紫台２番１０号－１Ｆ,,40,219,8160954,,,,,,,2024-05-13,1,,,,,ケイユウ,0
2480,8320001020453,新規,0,2024-05-13,2024-05-13,ＢＲＳ株式会社,,株式会社,大分県,大分市,千代町４丁目１番１０－２０２号,,44,201,8700033,,,,,,,2024-05-13,1,,,,,ブレス,0
2481,8320001020461,新規,0,2024-05-13,2024-05-13,株式会社ＴＯＩＲＯ,,株式会社,大分県,大分市,金池町５丁目２番５号,,44,201,8700026,,,,,,,2024-05-13,1,,,,,トイロ,0
2483,8330001032019,新規,0,2024-05-13,2024-05-13,株式会社ＪＯＹＧｒｏｕｐ,,株式会社,熊本県,熊本市中央区,下通１丁目２－１８ロンドンビル４階,,43,101,8600807,,,,,,,2024-05-13,1,,,,,ジョイグループ,0
2484,8330003010360,新規,0,2024-05-13,2024-05-13,リデザインドジェーピー合同会社,,合同会社,熊本県,天草市,有明町大浦３３３番地２,,43,215,8617203,,,,,,,2024-05-13,1,,,,,リデザインドジェーピー,0
2485,8330003010369,新規,0,2024-05-13,2024-05-13,合同会社ミッシェルプラン,,合同会社,熊本県,熊本市東区,健軍本町２番１７号,,43,102,8620910,,,,,,,2024-05-13,1,,,,,ミッシェルプラン,0
2486,8340001026498,新規,0,2024-05-13,2024-05-13,株式会社サンライズ,,株式会社,鹿児島県,熊毛郡南種子町,中之上２４７６番地１,,46,502,8913701,,,,,,,2024-05-13,1,,,,,サンライズ,0
2488,8340003004477,新規,0,2024-05-13,2024-05-13,合同会社フレンドシアター,,合同会社,鹿児島県,鹿児島市,中央町３１番地７セントラルヒルズ８０３号,,46,201,8900053,,,,,,,2024-05-13,1,,,,,フレンドシアター,0
2489,8360001033641,新規,0,2024-05-13,2024-05-13,わらびぃ株式会社,,株式会社,沖縄県,国頭郡今帰仁村,字兼次９３番地,,47,306,9050427,,,,,,,2024-05-13,1,,,,,ワラビィ,0
2496,8370003006611,新規,0,2024-05-13,2024-05-13,合同会社けびんネットワーク,,合同会社,宮城県,白石市,字幸３０,,04,206,9890264,,,,,,,2024-05-13,1,,,,,ケビンネットワーク,0
2505,8420001007267,新規,0,2024-05-13,2024-05-13,東北電子工業株式会社,,株式会社,青森県,三戸郡南部町,大字斗賀字上明戸４番地,,02,445,0390611,,,,,,,2024-05-13,1,,,,,,0
2506,8420001018719,新規,0,2024-05-13,2024-05-13,株式会社Ｂｒｏｓ．ｍｏｔｏｒ,,株式会社,青森県,青森市,大字安田字近野３８４番地１,,02,201,0380021,,,,,,,2024-05-13,1,,,,,ブロスモーター,0
2509,8430001091780,新規,0,2024-05-13,2024-05-13,ホッカイドウラグジュアリーコンシェルジュ株式会社,,株式会社,北海道,札幌市北区,北八条西６丁目２番地３,,01,102,0600808,,,,,,,2024-05-13,1,,,,,ホッカイドウラグジュアリーコンシェルジュ,0
2530,8700150124999,新規,0,2024-05-13,2024-04-22,あまくさ苓北観光協会,,その他,熊本県,天草郡苓北町,志岐６６０,,43,531,8632503,,,,,,,2024-04-22,1,,,,,アマクサレイホクカンコウキヨウカイ,0
2531,8700150125221,新規,0,2024-05-13,2024-05-13,ＺＨＥＪＩＡＮＧ　ＳＯＦＬＹ　ＳＣＩ．＆ＴＥＣＨ．ＣＯ．，ＬＴＤ,,外国会社等,,,,,,,,ＥＲＬＩＵＳＨＩ　ＶＩＬＬＡＧＥ，ＳＡＮＱＩＳＨＩ　ＴＯＷＮ，ＹＵＹＡＯ，ＺＨＥＪＩＡＮＧ，ＣＨＩＮＡ,,,,,,2024-05-13,1,,,,,ジョアジャンシューフェイエスシーアイアンドテックカンパニーリミテッド,0
2532,8700150125295,新規,0,2024-05-13,2024-05-13,ＸＰＥＲＴＳ　ＭＯＴＯ　ＥＮＴＥＲＰＲＩＳＥＳ,,外国会社等,千葉県,東金市,極楽寺５３８番地９,,12,213,2830835,スリランカ民主社会主義共和国、キャンディ、アクラナ、マタレロード、Ｎｏ．５７／３,,,,,,2024-05-13,1,,,,,エツクスパーツモトエンタープライゼス,0
2543,9010001244751,新規,0,2024-05-13,2024-05-13,ニッカ電子株式会社,,株式会社,東京都,千代田区,岩本町３丁目１番５号,,13,101,1010032,,,,,,,2024-05-13,1,,,,,ニッカデンシ,0
2545,9010003043722,新規,0,2024-05-13,2024-05-13,武蔵の杜合同会社,,合同会社,東京都,千代田区,丸の内３丁目１番１号東京共同会計事務所内,,13,101,1000005,,,,,,,2024-05-13,1,,,,,ムサシノモリ,0
2546,9010005038241,新規,0,2024-05-13,2024-05-13,一般社団法人日本脳科学教育協会,,その他の設立登記法人,東京都,千代田区,神田和泉町１番地６－１６ヤマトビル４０５,,13,101,1010024,,,,,,,2024-05-13,1,,,,,ニホンノウカガクキョウイクキョウカイ,0
2548,9010401182221,新規,0,2024-05-13,2024-05-13,株式会社ＡＳ,,株式会社,東京都,港区,六本木７丁目２１－２４モジュール六本木５０５,,13,103,1060032,,,,,,,2024-05-13,1,,,,,エース,0
2549,9010401182262,新規,0,2024-05-13,2024-05-13,株式会社Ｆｕｔｕｒｏ,,株式会社,東京都,港区,虎ノ門４丁目１番２０－３０１号,,13,103,1050001,,,,,,,2024-05-13,1,,,,,フトゥロ,0
2550,9010401182279,新規,0,2024-05-13,2024-05-13,株式会社ＡＩ　ＣＲＥＡＴＥ,,株式会社,東京都,港区,港南４丁目１番１０号－１１０２,,13,103,1080075,,,,,,,2024-05-13,1,,,,,エーアイクリエイト,0
2551,9010401182287,新規,0,2024-05-13,2024-05-13,ＭＡＫＥ　ＵＳ　ＪＡＰＡＮ株式会社,,株式会社,東京都,港区,虎ノ門３丁目１９番１０－９０２号,,13,103,1050001,,,,,,,2024-05-13,1,,,,,メイクアスジャパン,0
2564,9010701045953,新規,0,2024-05-13,2024-05-13,株式会社Ｇｌｏ　Ｔｒａｄｉｎｇ,,株式会社,東京都,品川区,大井１丁目１６－１－２８０１,,13,109,1400014,,,,,,,2024-05-13,1,,,,,グロートレーディング,0
2567,9010801035045,新規,0,2024-05-13,2024-05-13,株式会社伊佐フロアー,,株式会社,東京都,大田区,北糀谷１丁目３番１号,,13,111,1440032,,,,,,,2024-05-13,1,,,,,イサフロアー,0
2575,9010903009046,新規,0,2024-05-13,2024-05-13,ＢＯＮＳＡＩ　ＩＮＴＥＲＮＡＴＩＯＮＡＬ合同会社,,合同会社,東京都,世田谷区,赤堤３丁目２２番２０号,,13,112,1560044,,,,,,,2024-05-13,1,,,,,ボンサイインターナショナル,0
2582,9011001161821,新規,0,2024-05-13,2024-05-13,カストーロ株式会社,,株式会社,東京都,渋谷区,恵比寿２丁目２８番１０号,,13,113,1500013,,,,,,,2024-05-13,1,,,,,カストーロ,0
2583,9011001161846,新規,0,2024-05-13,2024-05-13,株式会社トレカジ,,株式会社,東京都,渋谷区,渋谷２丁目１９－１５宮益坂ビルディング６０９,,13,113,1500002,,,,,,,2024-05-13,1,,,,,トレカジ,0
2584,9011001161895,新規,0,2024-05-13,2024-05-13,株式会社２４,,株式会社,東京都,渋谷区,渋谷２丁目１９番１５号宮益坂ビルディング６０９,,13,113,1500002,,,,,,,2024-05-13,1,,,,,ニーヨン,0
2602,9011701027264,新規,0,2024-05-13,2024-05-13,株式会社Ａ‐Ｌｉｆｅ,,株式会社,東京都,江戸川区,東葛西５丁目３７番５号１階,,13,123,1340084,,,,,,,2024-05-13,1,,,,,エーライフ,0
2603,9012303001987,新規,0,2024-05-13,2024-05-13,Ｔｏｋｙｏ　Ｄｏｗｎ　Ｕｎｄｅｒ合同会社,,合同会社,東京都,町田市,森野１丁目３６番２号,,13,209,1940022,,,,,,,2024-05-13,1,,,,,トウキョウダウンアンダー,0
2611,9013301052485,新規,0,2024-05-13,2024-05-13,Ｓｔａｒｒｙ　Ｃａｐｉｔａｌ株式会社,,株式会社,東京都,豊島区,池袋２丁目５１番９号東建シティハイツ池袋８０３号室,,13,116,1710014,,,,,,,2024-05-13,1,,,,,スターリーキャピタル,0
2618,9020001157119,新規,0,2024-05-13,2024-05-13,株式会社武蔵,,株式会社,神奈川県,川崎市川崎区,渡田東町９番９号メゾン・ブラーヴ２０１,,14,131,2100842,,,,,,,2024-05-13,1,,,,,ムサシ,0
2619,9020001157127,新規,0,2024-05-13,2024-05-13,株式会社ジャック,,株式会社,神奈川県,横浜市緑区,青砥町５６４番地３,,14,113,2260022,,,,,,,2024-05-13,1,,,,,ジャック,0
2620,9020001157168,新規,0,2024-05-13,2024-05-13,株式会社ＫＡＭＥ　ＥＮＴＥＲＴＡＩＮＭＥＮＴ,,株式会社,神奈川県,川崎市宮前区,宮崎２丁目３－２８－６０２,,14,136,2160033,,,,,,,2024-05-13,1,,,,,ケイムエンターテインメント,0
2621,9020001157234,新規,0,2024-05-13,2024-05-13,株式会社Ｈｏｌｄｉｎｇ　Ｈａｎｄｓ,,株式会社,神奈川県,横浜市青葉区,大場町１７４－１２０,,14,117,2250023,,,,,,,2024-05-13,1,,,,,ホールディングハンズ,0
2635,9030001160212,新規,0,2024-05-13,2024-05-13,星和株式会社,,株式会社,埼玉県,蕨市,北町１丁目１１番７号,,11,223,3350001,,,,,,,2024-05-13,1,,,,,セイワ,0
2640,9030003024274,新規,0,2024-05-13,2024-05-13,盛泰商事合同会社,,合同会社,埼玉県,川口市,並木２丁目２８－２川口ビル４０３,,11,203,3320034,,,,,,,2024-05-13,1,,,,,セイタイショウジ,0
2644,9040001133514,新規,0,2024-05-13,2024-05-13,Ｔ・Ｏ　ＧＲＯＵＰ株式会社,,株式会社,千葉県,千葉市若葉区,金親町８５０番地１,,12,104,2640001,,,,,,,2024-05-13,1,,,,,ティーオーグループ,0
2650,9040003024950,新規,0,2024-05-13,2024-05-13,合同会社ＤＭ９号,,合同会社,千葉県,柏市,柏４丁目５番１０号,,12,217,2770005,,,,,,,2024-05-13,1,,,,,ディーエムキュウゴウ,0
2653,9050003008358,新規,0,2024-05-13,2024-05-13,合同会社グリーンパーク２号,,合同会社,茨城県,古河市,大字中田３７３－１,,08,204,3060000,,,,,,,2024-05-13,1,,,,,グリーンパークニゴウ,0
2655,9060001037085,新規,0,2024-05-13,2024-05-13,株式会社ＭＯＭＩＪＩＫＡ,,株式会社,栃木県,日光市,鬼怒川温泉大原１３９３番地１２,,09,206,3212522,,,,,,,2024-05-13,1,,,,,モミジカ,0
2660,9070001041739,新規,0,2024-05-13,2024-05-13,ＪＡＳＰＩＹＡ株式会社,,株式会社,群馬県,伊勢崎市,西小保方町１番地５,,10,204,3792224,,,,,,,2024-05-13,1,,,,,ジャスピヤ,0
2661,9070001041747,新規,0,2024-05-13,2024-05-13,株式会社ＫＢＳＷ　Ａｒｃｈｉｔｅｃｔｓ＆Ｄｅｓｉｇｎ,,株式会社,群馬県,前橋市,富士見町石井１４３４,,10,201,3710105,,,,,,,2024-05-13,1,,,,,ケービーエスダブリュウアーキテクツアンドデザイン,0
2663,9080001026301,新規,0,2024-05-13,2024-05-13,株式会社レック,,株式会社,静岡県,静岡市駿河区,西脇５８９番地の４,,22,102,4228044,,,,,,,2024-05-13,1,,,,,レック,0
2667,9080101024741,新規,0,2024-05-13,2024-05-13,株式会社蒼天ホールディングス,,株式会社,静岡県,伊豆の国市,韮山多田９３番地の２,,22,225,4102133,,,,,,,2024-05-13,1,,,,,ソウテンホールディングス,0
2670,9080103003058,新規,0,2024-05-13,2024-05-13,合同会社ＹＭＧＴ,,合同会社,静岡県,駿東郡清水町,久米田１２８番地の１７,,22,341,4110911,,,,,,,2024-05-13,1,,,,,ワイエムジーティー,0
2672,9090003002563,新規,0,2024-05-13,2024-05-13,合同会社ネクスト,,合同会社,山梨県,西八代郡市川三郷町,市川大門１７９－１,,19,346,4093601,,,,,,,2024-05-13,1,,,,,ネクスト,0
2689,9120001264490,新規,0,2024-05-13,2024-05-13,株式会社ｃｏｌｏｒ,,株式会社,大阪府,大阪市西区,新町１丁目２１番８－３３０１号,,27,106,5500013,,,,,,,2024-05-13,1,,,,,カラー,0
2690,9120001264648,新規,0,2024-05-13,2024-05-13,株式会社粒彩画美術館,,株式会社,大阪府,大阪市住吉区,長峡町５番１２号,,27,120,5580044,,,,,,,2024-05-13,1,,,,,リュウサイガビジュツカン,0
2691,9120001264656,新規,0,2024-05-13,2024-05-13,株式会社フードＴｈｉｎｋｅｒｓ,,株式会社,大阪府,大阪市此花区,酉島１丁目１４番１７号,,27,104,5540051,,,,,,,2024-05-13,1,,,,,フードシンカーズ,0
2692,9120001264706,新規,0,2024-05-13,2024-05-13,株式会社ＮｏＲｉ構造設計,,株式会社,大阪府,大阪市北区,西天満６丁目８番７号８０１号室,,27,127,5300047,,,,,,,2024-05-13,1,,,,,ノリコウゾウセッケイ,0
2693,9120001264714,新規,0,2024-05-13,2024-05-13,株式会社ＴＲＩＮＩＴＹ,,株式会社,大阪府,大阪市東成区,東中本１丁目１６番１５号３Ｆ,,27,115,5370021,,,,,,,2024-05-13,1,,,,,トリニティー,0
2694,9120001264730,新規,0,2024-05-13,2024-05-13,株式会社ダイレクト,,株式会社,大阪府,大阪市天王寺区,城南寺町５番３４号７１０,,27,109,5430017,,,,,,,2024-05-13,1,,,,,ダイレクト,0
2695,9120001264796,新規,0,2024-05-13,2024-05-13,永楽株式会社,,株式会社,大阪府,大阪市中央区,上町１丁目２５－２－４０１,,27,128,5400005,,,,,,,2024-05-13,1,,,,,エイラク,0
2696,9120001264805,新規,0,2024-05-13,2024-05-13,株式会社ｔｏ　Ｃ,,株式会社,大阪府,大阪市北区,東天満２丁目８番１１号,,27,127,5300044,,,,,,,2024-05-13,1,,,,,トゥシー,0
2697,9120001264813,新規,0,2024-05-13,2024-05-13,株式会社Ａｆｆｅｃｔ,,株式会社,大阪府,大阪市西区,北堀江１丁目２－２７,,27,106,5500014,,,,,,,2024-05-13,1,,,,,アフェクト,0
2699,9120101069567,新規,0,2024-05-13,2024-05-13,株式会社エクスクルーシブ,,株式会社,大阪府,堺市美原区,平尾４５２番地,,27,147,5870022,,,,,,,2024-05-13,1,,,,,エクスクルーシブ,0
2707,9130001077025,新規,0,2024-05-13,2024-05-13,連財記株式会社,,株式会社,京都府,宇治市,槇島町北内３１－１０５号,,26,204,6110041,,,,,,,2024-05-13,1,,,,,レンザイキ,0
2717,9140001134386,新規,0,2024-05-13,2024-05-13,株式会社Ｂｌａｎｃ,,株式会社,兵庫県,神崎郡市川町,甘池６４番地の３,,28,442,6792300,,,,,,,2024-05-13,1,,,,,ブラン,0
2723,9160001025914,新規,0,2024-05-13,2024-05-13,結心株式会社,,株式会社,滋賀県,守山市,播磨田町１２４４番地２０,,25,207,5240012,,,,,,,2024-05-13,1,,,,,ユイシン,0
2731,9180001161294,新規,0,2024-05-13,2024-05-13,株式会社ソラマテリアル,,株式会社,愛知県,名古屋市中村区,平池町４丁目６０番地の１２グローバルゲート名古屋１１Ｆ,,23,105,4530872,,,,,,,2024-05-13,1,,,,,ソラマテリアル,0
2732,9180001161328,新規,0,2024-05-13,2024-05-13,株式会社ＯＲＩＮＡＳＵ,,株式会社,愛知県,名古屋市千種区,見附町１丁目１２番地,,23,101,4640817,,,,,,,2024-05-13,1,,,,,オリナス,0
2733,9180001161344,新規,0,2024-05-13,2024-05-13,株式会社富永屋,,株式会社,愛知県,名古屋市名東区,陸前町２２０１番地の２,,23,115,4650057,,,,,,,2024-05-13,1,,,,,トミナガヤ,0
2734,9180001161369,新規,0,2024-05-13,2024-05-13,ＴＤＳ株式会社,,株式会社,愛知県,名古屋市港区,十一屋２丁目２８番地,,23,111,4550831,,,,,,,2024-05-13,1,,,,,ティーディーエス,0
2743,9180005020620,新規,0,2024-05-13,2024-05-13,一般社団法人カトー事務所,,その他の設立登記法人,愛知県,名古屋市名東区,上社１丁目６１１サンシスカビル１Ｆ,,23,115,4650025,,,,,,,2024-05-13,1,,,,,カトージムショ,0
2745,9180301038639,新規,0,2024-05-13,2024-05-13,株式会社カワイデンキ,,株式会社,愛知県,西尾市,一色町千間上通西３３番地４,,23,213,4440411,,,,,,,2024-05-13,1,,,,,カワイデンキ,0
2750,9230001020338,新規,0,2024-05-13,2024-05-13,株式会社壱,,株式会社,富山県,中新川郡上市町,森尻２０１番地,,16,322,9300304,,,,,,,2024-05-13,1,,,,,イチ,0
2761,9260001039004,新規,0,2024-05-13,2024-05-13,高橋商事株式会社,,株式会社,岡山県,苫田郡鏡野町,久田下原１５４３番地８,,33,606,7080433,,,,,,,2024-05-13,1,,,,,タカハシショウジ,0
2767,9260005011355,新規,0,2024-05-13,2024-05-13,ＫＩ・ＪＡＰＡＮ協同組合,,その他の設立登記法人,岡山県,岡山市北区,柳町１丁目３番５号金光ビル３階,,33,101,7000904,,,,,,,2024-05-13,1,,,,,ケイアイジャパン,0
2773,9290001105562,新規,0,2024-05-13,2024-05-13,株式会社Ｇｓ建創,,株式会社,福岡県,福岡市城南区,梅林３丁目２番５号－５,,40,136,8140144,,,,,,,2024-05-13,1,,,,,ジーズケンソウ,0
2774,9290001105637,新規,0,2024-05-13,2024-05-13,万月株式会社,,株式会社,福岡県,福岡市中央区,警固１丁目８番６号２階,,40,133,8100023,,,,,,,2024-05-13,1,,,,,マンゲツ,0
2775,9290003015248,新規,0,2024-05-13,2024-05-13,ＲＡＤＩＳＨ合同会社,,合同会社,福岡県,福岡市博多区,立花寺２丁目２番３３号,,40,132,8120862,,,,,,,2024-05-13,1,,,,,ラディッシュ,0
2778,9290005019395,新規,0,2024-05-13,2024-05-13,医療法人トータルケアやまさきクリニック,,その他の設立登記法人,福岡県,福岡市城南区,茶山４丁目１４番１５号,,40,136,8140111,,,,,,,2024-05-13,1,,,,,トータルケアヤマサキクリニック,0
2779,9290005019404,新規,0,2024-05-13,2024-05-13,医療法人まさ乳腺クリニック,,その他の設立登記法人,福岡県,久留米市,花畑３丁目３番地１０,,40,203,8300039,,,,,,,2024-05-13,1,,,,,マサニュウセンクリニック,0
2781,9300003002120,新規,0,2024-05-13,2024-05-13,合同会社Ｔａｔｅ,,合同会社,佐賀県,杵島郡江北町,大字山口１７１８番地,,41,424,8490501,,,,,,,2024-05-13,1,,,,,タテ,0
2783,9320001020477,新規,0,2024-05-13,2024-05-13,株式会社Ｐｌａｙｆｕｌ,,株式会社,大分県,玖珠郡九重町,大字湯坪２の５０６番地の２０,,44,461,8794912,,,,,,,2024-05-13,1,,,,,プレイフル,0
2785,9330001032042,新規,0,2024-05-13,2024-05-13,株式会社ナカニシ,,株式会社,熊本県,熊本市東区,長嶺町２１５６番地７８,,43,102,8610000,,,,,,,2024-05-13,1,,,,,ナカニシ,0
2788,9330003010368,新規,0,2024-05-13,2024-05-13,合同会社Ｕｎｅ　ＭＩＲＡＩ,,合同会社,熊本県,熊本市東区,月出３丁目４番３１－１号,,43,102,8620920,,,,,,,2024-05-13,1,,,,,アンミライ,0
2789,9340001026497,新規,0,2024-05-13,2024-05-13,ノイアファング株式会社,,株式会社,鹿児島県,姶良市,池島町３８番地４,,46,225,8995653,,,,,,,2024-05-13,1,,,,,ノイアファング,0
2792,9340003004476,新規,0,2024-05-13,2024-05-13,合同会社ＭＯＦ,,合同会社,鹿児島県,姶良市,加治木町木田１２０５番地１ＣＲＥＡ　ＳＴＹＬＥ　Ｂ２０１号,,46,225,8995241,,,,,,,2024-05-13,1,,,,,モフ,0
2799,9360003013962,新規,0,2024-05-13,2024-05-13,Ｃａｐｒｉｃｏｒｎ　Ｃｏｎｓｕｌｔｉｎｇ合同会社,,合同会社,沖縄県,沖縄市,比屋根６丁目２０－３４Ｆｅｌｉｃｅ３０２,,47,211,9042173,,,,,,,2024-05-13,1,,,,,カプリコーンコンサルティング,0
2801,9370001051286,新規,0,2024-05-13,2024-05-13,株式会社マインドリンクス,,株式会社,宮城県,仙台市青葉区,本町１丁目１２番３１号ライオンズマンション本町鈴木ビル２０３号室,,04,101,9800014,,,,,,,2024-05-13,1,,,,,マインドリンクス,0
2803,9370003006610,新規,0,2024-05-13,2024-05-13,合同会社ＳＡＫＵ,,合同会社,宮城県,仙台市若林区,舟丁６３番地の２ＳＡＳＨＩＮ河原町１０３,,04,103,9840806,,,,,,,2024-05-13,1,,,,,サク,0
2811,9420003002918,新規,0,2024-05-13,2024-05-13,合同会社ユタカ,,合同会社,青森県,三沢市,大字三沢字大津５８番地２４３号,,02,207,0330022,,,,,,,2024-05-13,1,,,,,ユタカ,0
2817,9430001091788,新規,0,2024-05-13,2024-05-13,株式会社Ｔ’ｓ,,株式会社,北海道,札幌市中央区,大通西６丁目５番１号２階,,01,101,0600042,,,,,,,2024-05-13,1,,,,,,0
2821,9430005014984,新規,0,2024-05-13,2024-05-13,一般社団法人デジタルスキル教育協会,,その他の設立登記法人,北海道,札幌市白石区,菊水元町一条１丁目５番２６号,,01,104,0030821,,,,,,,2024-05-13,1,,,,,デジタルスキルキョウイクキョウカイ,0
2823,9440001009434,新規,0,2024-05-13,2024-05-13,株式会社Ｎｉｎｅ　Ｌｉｖｅｓ,,株式会社,北海道,函館市,湯川町１丁目３番１７号,,01,202,0420932,,,,,,,2024-05-13,1,,,,,ナインライブス,0
2824,9450001014318,新規,0,2024-05-13,2024-05-13,株式会社ＢＲＩＬＬＥＲ,,株式会社,北海道,旭川市,神楽六条１３丁目５番５号,,01,204,0708006,,,,,,,2024-05-13,1,,,,,ブリエ,0
2825,9450003002485,新規,0,2024-05-13,2024-05-13,合同会社ＳＵＮＳＨＩＮＥ　ＩＮＴＥＲＮＡＴＩＯＮＡＬ,,合同会社,北海道,旭川市,流通団地三条５丁目５番５号,,01,204,0798443,,,,,,,2024-05-13,1,,,,,サンシャインインターナショナル,0
2826,9470001020181,新規,0,2024-05-13,2024-05-13,株式会社古市建具店,,株式会社,香川県,三豊市,三野町下高瀬２００３番地７,,37,208,7670032,,,,,,,2024-05-13,1,,,,,フルイチタテグテン,0
2834,9700150125220,新規,0,2024-05-13,2024-05-13,ｘｉａｍｅｎ　ｈｅｉｘｉｅｚｉ　ｔｉｙｕｗｅｎｈｕａ　ｙｏｕｘｉａｎｇｏｎｇｓｉ,,外国会社等,,,,,,,,ｔｏｎｇａｎｑｕ　ｈｏｎｇｔａｎｇｚｈｅｎ　ｓｈｉｘｕｎｃｕｎ　ｄｉｎｇｇｏｎｇｑｉａｎｌｉ１２２ｈａｏ　ｘｉａｍｅｎｓｈｉ　ｆｕｊｉａｎｓｈｅｎｇ　３６１１９９　ＣＮ,,,,,,2024-05-13,1,,,,,シャーメンヘイシエズーティーユイウエンホアヨウシエンゴンスー,0
2835,9700150125294,新規,0,2024-05-13,2024-05-13,ＯＮＥ　ＳＴＡＲ　ＴＲＡＤＩＮＧ　ＰＴＹ　ＬＴＤ,,外国会社等,千葉県,山武郡横芝光町,木戸６８３６番地２－３,,12,410,2891726,レソト王国、マセル１００、マセル、ネクストトゥーフーロプライマリースクール、ハフーラ、トラリセクハイラ,,,,,,2024-05-13,1,,,,,ワンスタートレーデイングピーテイワイリミテツド,0
