sequenceNumber,corporateNumber,process,correct,updateDate,changeDate,name,nameImageId,kind,prefectureName,cityName,streetNumber,addressImageId,prefectureCode,cityCode,postCode,addressOutside,addressOutsideImageId,closeDate,closeCause,successorCorporateNumber,changeCause,assignmentDate,latest,enName,enPrefectureName,enCityName,enAddressOutside,furigana,hihyoji
11,1010001229009,新規,0,2022-08-29,2022-08-29,株式会社Ｆｌｏｘ　Ｂｉｏ,,株式会社,東京都,中央区,東日本橋２丁目２８番４号日本橋ＣＥＴビル２階,,13,102,1030004,,,,,,,2022-08-29,1,,,,,フロックスバイオ,0
12,1010001229033,新規,0,2022-08-29,2022-08-29,株式会社新創,,株式会社,東京都,千代田区,丸の内１丁目１１番１号,,13,101,1000005,,,,,,,2022-08-29,1,,,,,シンソウ,0
18,1010401169325,新規,0,2022-08-29,2022-08-29,株式会社ＳＴＵＮ,,株式会社,東京都,港区,赤坂３丁目７番１３号５階,,13,103,1070052,,,,,,,2022-08-29,1,,,,,スタン,0
27,1010501049294,新規,0,2022-08-29,2022-08-29,Ｂ＆Ｒ物流テクノロジー株式会社,,株式会社,東京都,台東区,台東１丁目２２番４号アストロン台東ビル,,13,106,1100016,,,,,,,2022-08-29,1,,,,,ビアンドアルブツリュウテクノロジー,0
30,1010701043106,新規,0,2022-08-29,2022-08-29,株式会社ＳＵＮＲＩＳＥ,,株式会社,東京都,品川区,北品川５丁目１２番４号リードシー御殿山ビル７Ｆ－０３,,13,109,1410001,,,,,,,2022-08-29,1,,,,,サンライズ,0
32,1010901051511,新規,0,2022-08-29,2022-08-29,株式会社Ｗｅｌｌｎｅｓｓ　Ｔｒａｄｅ　Ｊａｐａｎ,,株式会社,東京都,世田谷区,二丁目３１番７－８０６号,,13,112,1540000,,,,,,,2022-08-29,1,,,,,ウェルネストレードジャパン,0
33,1010903007593,新規,0,2022-08-29,2022-08-29,ｔｓｕｍｅｍａｒｕ　ｄｅｓｉｇｎ合同会社,,合同会社,東京都,世田谷区,松原５丁目１３番２号メイプルテラス１０２,,13,112,1560043,,,,,,,2022-08-29,1,,,,,ツメマルデザイン,0
34,1010903007602,新規,0,2022-08-29,2022-08-29,合同会社アンノーン,,合同会社,東京都,世田谷区,等々力１丁目２番１５号,,13,112,1580082,,,,,,,2022-08-29,1,,,,,アンノーン,0
35,1010903007610,新規,0,2022-08-29,2022-08-29,合同会社ステイト３０３,,合同会社,東京都,世田谷区,桜２丁目４番１－２２５号,,13,112,1560053,,,,,,,2022-08-29,1,,,,,ステイトサンマルサン,0
46,1011403003760,新規,0,2022-08-29,2022-08-29,合同会社ＣＯＺＹ,,合同会社,東京都,板橋区,板橋３丁目５番１号,,13,119,1730004,,,,,,,2022-08-29,1,,,,,コージ,0
48,1011701025564,新規,0,2022-08-29,2022-08-29,ＭＫ　Ｊａｐａｎ株式会社,,株式会社,東京都,江戸川区,南篠崎町１丁目１１番１３号,,13,123,1330065,,,,,,,2022-08-29,1,,,,,エムケージャパン,0
53,1012701017221,新規,0,2022-08-29,2022-08-29,Ｔｏｋｙｏ　Ａｕｔｏ　Ｉｎｓｐｅｃｔｉｏｎ株式会社,,株式会社,東京都,小平市,学園西町２丁目１７－１１,,13,211,1870045,,,,,,,2022-08-29,1,,,,,トウキョウオートインスペクション,0
60,1020001147944,新規,0,2022-08-29,2022-08-29,株式会社アスミライト,,株式会社,神奈川県,横浜市瀬谷区,竹村町８番地２３,,14,114,2460005,,,,,,,2022-08-29,1,,,,,アスミライト,0
61,1020001147960,新規,0,2022-08-29,2022-08-29,サイエンスミッション株式会社,,株式会社,神奈川県,川崎市中原区,下小田中３丁目２０番３６号,,14,133,2110041,,,,,,,2022-08-29,1,,,,,サイエンスミッション,0
72,1021003012070,新規,0,2022-08-29,2022-08-29,合同会社ＣＮＥＬａｂ,,合同会社,神奈川県,海老名市,杉久保北４丁目１８－２４,,14,215,2430410,,,,,,,2022-08-29,1,,,,,シーエヌイーラボ,0
81,1030001149808,新規,0,2022-08-29,2022-08-29,株式会社オリベ商事,,株式会社,埼玉県,入間市,鍵山２丁目１２番１８号宮前荘ＩＩ－２０２,00127641,11,225,3580004,,,,,,,2022-08-29,1,,,,,オリベショウジ,0
82,1030001149849,新規,0,2022-08-29,2022-08-29,株式会社ティーアイ,,株式会社,埼玉県,草加市,両新田東町１４４番地６,,11,221,3400026,,,,,,,2022-08-29,1,,,,,ティーアイ,0
84,1030003020074,新規,0,2022-08-29,2022-08-29,合同会社ナラユカンパニー,,合同会社,埼玉県,蓮田市,椿山３丁目２０番４号,,11,238,3490144,,,,,,,2022-08-29,1,,,,,ナラユカンパニー,0
91,1040001124818,新規,0,2022-08-29,2022-08-29,株式会社フォレストホールディングス,,株式会社,千葉県,千葉市中央区,登戸２丁目３番１５号川村ビル１階,,12,101,2600032,,,,,,,2022-08-29,1,,,,,フォレストホールディングス,0
92,1040001124834,新規,0,2022-08-29,2022-08-29,株式会社翔プランニング,,株式会社,千葉県,印西市,大森３８１２番地６エリール木下Ａ１０２,,12,231,2701327,,,,,,,2022-08-29,1,,,,,ショウプランニング,0
101,1050003006798,新規,0,2022-08-29,2022-08-29,合同会社Ｌｉｅｎ　ｄｅ　ｆａｍｉｌｌｅ,,合同会社,茨城県,古河市,けやき平１丁目１２番地８,,08,204,3060055,,,,,,,2022-08-29,1,,,,,リヤンドファミーユ,0
106,1070001039575,新規,0,2022-08-29,2022-08-29,株式会社ＭＩＡＬＩ,,株式会社,群馬県,高崎市,新町１７１４番地１センチュリー新町３０７号,,10,202,3701301,,,,,,,2022-08-29,1,,,,,ミアリ,0
107,1070003004602,新規,0,2022-08-29,2022-08-29,合同会社Ｊ’ｓプラン,,合同会社,群馬県,高崎市,並榎町１８３番地１０,,10,202,3700802,,,,,,,2022-08-29,1,,,,,ジェイズプラン,0
109,1080001025153,新規,0,2022-08-29,2022-08-29,株式会社オカダ,,株式会社,静岡県,静岡市駿河区,西脇６９２番地,,22,102,4228044,,,,,,,2022-08-29,1,,,,,オカダ,0
141,1120001248419,新規,0,2022-08-29,2022-08-29,株式会社ＪＫＡＳ,,株式会社,大阪府,大阪市中央区,南船場４丁目１０番４号,,27,128,5420081,,,,,,,2022-08-29,1,,,,,ジェイカス,0
142,1120001248435,新規,0,2022-08-29,2022-08-29,株式会社スリーアシスト,,株式会社,大阪府,大阪市都島区,都島南通２丁目１番７－８０３号,,27,102,5340023,,,,,,,2022-08-29,1,,,,,スリーアシスト,0
143,1120001248468,新規,0,2022-08-29,2022-08-29,株式会社Ｌｉｂｅｒｔｙ,,株式会社,大阪府,大阪市福島区,鷺洲３丁目６番１０－３７０７号,,27,103,5530002,,,,,,,2022-08-29,1,,,,,リバティ,0
144,1120001248476,新規,0,2022-08-29,2022-08-29,株式会社ＭＩＩＭＯＯ,,株式会社,大阪府,大阪市淀川区,野中北１丁目４番４１号メゾン・ド・ソアレ５０３,,27,123,5320034,,,,,,,2022-08-29,1,,,,,ミーモ,0
145,1120001248501,新規,0,2022-08-29,2022-08-29,瑞和商事株式会社,,株式会社,大阪府,大阪市東成区,東小橋２丁目２番１６号金沢ビル１階西側,,27,115,5370024,,,,,,,2022-08-29,1,,,,,ミズワショウジ,0
152,1120103004827,新規,0,2022-08-29,2022-08-29,合同会社ＬＩＮＫ,,合同会社,大阪府,泉南市,樽井７丁目２１番１３号,,27,228,5900521,,,,,,,2022-08-29,1,,,,,リンク,0
155,1120901046401,新規,0,2022-08-29,2022-08-29,株式会社エス・エー・アイ・インターナショナル,,株式会社,大阪府,摂津市,千里丘新町５番２２－９３５号,,27,224,5660002,,,,,,,2022-08-29,1,,,,,エスエーアイインターナショナル,0
156,1120903004282,新規,0,2022-08-29,2022-08-29,合同会社Ｉｎｆｉｎｉｔｙ,,合同会社,大阪府,豊中市,本町１丁目９番１０－８０７号,,27,203,5600021,,,,,,,2022-08-29,1,,,,,インフィニティ,0
157,1122003002407,新規,0,2022-08-29,2022-08-29,合同会社猪之鼻,,合同会社,大阪府,八尾市,木の本３丁目２２番地の１４,,27,212,5810044,,,,,,,2022-08-29,1,,,,,イノハナ,0
169,1130003008150,新規,0,2022-08-29,2022-08-29,Ｒ３フードコンサルティング合同会社,,合同会社,京都府,京都市北区,紫竹上長目町１番地１メゾン紫竹１０２,,26,101,6038102,,,,,,,2022-08-29,1,,,,,アールスリーフードコンサルティング,0
175,1140005026298,新規,0,2022-08-29,2022-08-29,一般社団法人ブリリアンス心理学協会,,その他の設立登記法人,兵庫県,芦屋市,大原町２７番１－３０３号,,28,206,6590092,,,,,,,2022-08-29,1,,,,,ブリリアンスシンリガクキョウカイ,0
183,1180003024184,新規,0,2022-08-29,2022-08-29,合同会社よこや,,合同会社,愛知県,津島市,下新田町３丁目１０２番地,,23,208,4960875,,,,,,,2022-08-29,1,,,,,ヨコヤ,0
189,1200001040395,新規,0,2022-08-29,2022-08-29,株式会社ａｉｒｙ,,株式会社,岐阜県,海津市,海津町馬目４２２番地２,,21,221,5030652,,,,,,,2022-08-29,1,,,,,エアリー,0
194,1200003005652,新規,0,2022-08-29,2022-08-29,合同会社Ｍ‐ＳＴＡＧＥ,,合同会社,岐阜県,羽島市,堀津町前谷１２９番地,,21,209,5016334,,,,,,,2022-08-29,1,,,,,エムステージ,0
216,1290001098731,新規,0,2022-08-29,2022-08-29,ＧＥＯＰＯＲＴ株式会社,,株式会社,福岡県,福岡市南区,柏原６丁目６２番６－１２０１号,,40,134,8111353,,,,,,,2022-08-29,1,,,,,ゲオポート,0
221,1290801028846,新規,0,2022-08-29,2022-08-29,株式会社Ｔｏｒｔｏｉｓｅ,,株式会社,福岡県,北九州市小倉北区,浅野１丁目１番１号ビエラ小倉１Ｆ,,40,106,8020001,,,,,,,2022-08-29,1,,,,,トータス,0
229,1330005010547,新規,0,2022-08-29,2022-08-29,医療法人久和会,,その他の設立登記法人,熊本県,熊本市東区,月出７丁目１番１２号エレガンス月出１階,,43,102,8620920,,,,,,,2022-08-29,1,,,,,キュウワカイ,0
233,1350003004152,新規,0,2022-08-29,2022-08-29,ＩｎｓｉｄｅＯｕｔＷｏｒｋｓ合同会社,,合同会社,宮崎県,東諸県郡綾町,大字北俣吉井原２２６７－１,,45,383,8801302,,,,,,,2022-08-29,1,,,,,インサイドアウトワークス,0
237,1370001048975,新規,0,2022-08-29,2022-08-29,ＬＩＦＥ　ＣＲＯＳＳＩＮＧ株式会社,,株式会社,宮城県,仙台市泉区,加茂４丁目１１番地の４,,04,105,9813122,,,,,,,2022-08-29,1,,,,,ライフクロッスィング,0
251,1500001024426,新規,0,2022-08-29,2022-08-29,株式会社Ｋ’ｓ　Ｆａｃｔｏｒｙ,,株式会社,愛媛県,四国中央市,豊岡町長田１７２２番地１,,38,213,7990435,,,,,,,2022-08-29,1,,,,,ケーズファクトリー,0
264,2010001229065,新規,0,2022-08-29,2022-08-29,ミットエスイーエルインベストメント株式会社,,株式会社,東京都,千代田区,大手町１丁目２番１号,,13,101,1000004,,,,,,,2022-08-29,1,,,,,ミットエスイーエルインベストメント,0
277,2010401169332,新規,0,2022-08-29,2022-08-29,株式会社Ｆｌｙｌｅａｆ,,株式会社,東京都,港区,浜松町２丁目２番１５号,,13,103,1050013,,,,,,,2022-08-29,1,,,,,フライリーフ,0
285,2010701043113,新規,0,2022-08-29,2022-08-29,株式会社ＮＡＳＵＫＡＷＡ　ＧＲＯＵＰ　ＨＤ,,株式会社,東京都,品川区,上大崎２丁目１５－１９ＭＧ目黒駅前２階,,13,109,1410021,,,,,,,2022-08-29,1,,,,,ナスカワグループホールディングス,0
293,2010901051493,新規,0,2022-08-29,2022-08-29,株式会社エヌケーエナジーシステム,,株式会社,東京都,世田谷区,用賀１丁目１８番１２号ホーエ・ブルック用賀３０５,,13,112,1580097,,,,,,,2022-08-29,1,,,,,エヌケーエナジーシステム,0
294,2010901051527,新規,0,2022-08-29,2022-08-29,サクラカンパニー株式会社,,株式会社,東京都,世田谷区,中町５丁目２８番４号,,13,112,1580091,,,,,,,2022-08-29,1,,,,,サクラカンパニー,0
299,2011001149451,新規,0,2022-08-29,2022-08-29,株式会社ａｎｄｔ,,株式会社,東京都,渋谷区,神宮前４丁目２２－１８ＬＥＡＦ表参道１Ｆ,,13,113,1500001,,,,,,,2022-08-29,1,,,,,アンドティー,0
302,2011101100000,新規,0,2022-08-29,2022-08-29,株式会社ＴｈｒｅｅＦｏｌｄ,,株式会社,東京都,新宿区,高田馬場３丁目２０番３－２０１号,,13,104,1690075,,,,,,,2022-08-29,1,,,,,スリーフォールド,0
312,2011801041196,新規,0,2022-08-29,2022-08-29,株式会社ＳＵＭＩＣＡ,,株式会社,東京都,葛飾区,青戸５丁目１９番３号,,13,122,1250062,,,,,,,2022-08-29,1,,,,,スミカ,0
317,2013301049562,新規,0,2022-08-29,2022-08-29,株式会社ディノスシネマ,,株式会社,東京都,豊島区,東池袋１丁目１４番３号,,13,116,1700013,,,,,,,2022-08-29,1,,,,,ディノスシネマ,0
322,2020001147927,新規,0,2022-08-29,2022-08-29,株式会社クロスバリュークリエイト,,株式会社,神奈川県,横浜市中区,桜木町１丁目１０１番地１クロスゲート７階,,14,104,2310062,,,,,,,2022-08-29,1,,,,,クロスバリュークリエイト,0
323,2020001147935,新規,0,2022-08-29,2022-08-29,株式会社サムシングプラス,,株式会社,神奈川県,横浜市緑区,長津田４丁目２０番Ａ－７０９号,,14,113,2260027,,,,,,,2022-08-29,1,,,,,サムシングプラス,0
324,2020001147943,新規,0,2022-08-29,2022-08-29,株式会社竹川工業,,株式会社,神奈川県,横浜市都筑区,大熊町４９番地ブレッザ２－１０２号,,14,118,2240042,,,,,,,2022-08-29,1,,,,,タケガワコウギョウ,0
343,2030001149807,新規,0,2022-08-29,2022-08-29,株式会社ＡＫＷｏｗ,,株式会社,埼玉県,八潮市,大字伊勢野９６番地１Ｆ－ＬＯＧフォレストＥ棟,,11,234,3400821,,,,,,,2022-08-29,1,,,,,エーケーワウ,0
344,2030001149815,新規,0,2022-08-29,2022-08-29,株式会社エバーファインド,,株式会社,埼玉県,三郷市,中央５丁目２８番地３２,,11,237,3410038,,,,,,,2022-08-29,1,,,,,エバーファインド,0
347,2030003020107,新規,0,2022-08-29,2022-08-29,リザイアカント合同会社,,合同会社,埼玉県,新座市,栄５丁目８番４号パルティアＩ２０２号室,,11,230,3520014,,,,,,,2022-08-29,1,,,,,リザイアカント,0
366,2050001051589,新規,0,2022-08-29,2022-08-29,サンワークホールディングス株式会社,,株式会社,茨城県,常総市,豊岡町丙２１４７番地,,08,211,3030041,,,,,,,2022-08-29,1,,,,,サンワークホールディングス,0
367,2050003006797,新規,0,2022-08-29,2022-08-29,アート・エージェンシー・ジャパン合同会社,,合同会社,茨城県,取手市,上萱場２５２番地,,08,217,3001506,,,,,,,2022-08-29,1,,,,,アートエージェンシージャパン,0
371,2070001039574,新規,0,2022-08-29,2022-08-29,株式会社Ｅ．Ｐ．Ｓ．群馬,,株式会社,群馬県,高崎市,西国分町３２５番地２フジコーハイツ１０２,,10,202,3703512,,,,,,,2022-08-29,1,,,,,イーピーエスグンマ,0
372,2070001039582,新規,0,2022-08-29,2022-08-29,寅和プラント株式会社,,株式会社,群馬県,前橋市,城東町５丁目３番８号,,10,201,3710016,,,,,,,2022-08-29,1,,,,,インワプラント,0
379,2100003006668,新規,0,2022-08-29,2022-08-29,スミレ堂企画合同会社,,合同会社,長野県,岡谷市,御倉町２番２１号,,20,204,3940043,,,,,,,2022-08-29,1,,,,,スミレドウキカク,0
387,2120001248467,新規,0,2022-08-29,2022-08-29,株式会社ＥｉＺＯ,,株式会社,大阪府,大阪市北区,錦町２番２号国労大阪会館３階,,27,127,5300034,,,,,,,2022-08-29,1,,,,,エイゾ,0
388,2120001248475,新規,0,2022-08-29,2022-08-29,瑞達株式会社,,株式会社,大阪府,大阪市住之江区,安立２丁目１０番１４号三坂ビル３０４号室,,27,125,5590003,,,,,,,2022-08-29,1,,,,,ズイタツ,0
390,2120005023156,新規,0,2022-08-29,2022-08-29,セブンスターマンション香里園管理組合法人,,その他の設立登記法人,大阪府,寝屋川市,香里南之町１９番２５号,,27,215,5720084,,,,,,,2022-08-29,1,,,,,セブンスターマンションコオリエン,0
405,2130001072503,新規,0,2022-08-29,2022-08-29,株式会社オフィスタケイチ,,株式会社,京都府,京都市左京区,田中大久保町１１番地ハイツタケイチ１Ｆ,,26,103,6068236,,,,,,,2022-08-29,1,,,,,オフィスタケイチ,0
422,2180001152762,新規,0,2022-08-29,2022-08-29,株式会社晄衣,,株式会社,愛知県,名古屋市中区,錦２丁目５番５号八木兵伝馬町ビル３階３４２号室,,23,106,4600003,,,,,,,2022-08-29,1,,,,,キゴロモ,0
424,2180005019909,新規,0,2022-08-29,2022-08-29,特定非営利活動法人ＡＹＵＤＡＭＥ　Ａ　ＡＹＵＤＡＲ,,その他の設立登記法人,愛知県,半田市,岩滑中町４丁目１８５番地の４,,23,205,4750961,,,,,,,2022-08-29,1,,,,,アユダメアアユダル,0
427,2180303005429,新規,0,2022-08-29,2022-08-29,合同会社ＴＤ,,合同会社,愛知県,刈谷市,小垣江町下松１番地５,,23,210,4480813,,,,,,,2022-08-29,1,,,,,ティーディー,0
429,2200001040386,新規,0,2022-08-29,2022-08-29,スティルウィーライズ株式会社,,株式会社,岐阜県,大垣市,外渕２丁目１５７番地２セジュール近藤１０７,,21,202,5030934,,,,,,,2022-08-29,1,,,,,スティルウィーライズ,0
432,2200003005651,新規,0,2022-08-29,2022-08-29,合同会社スーパーニッチ,,合同会社,岐阜県,岐阜市,コモンヒルズ北山８番地２７,,21,201,5013117,,,,,,,2022-08-29,1,,,,,スーパーニッチ,0
443,2260001037187,新規,0,2022-08-29,2022-08-29,ＭＩＫＡＴＡ株式会社,,株式会社,岡山県,津山市,河辺１８５８番地８,,33,203,7080842,,,,,,,2022-08-29,1,,,,,ミカタ,0
444,2270001008617,新規,0,2022-08-29,2022-08-29,株式会社フォーワード,,株式会社,鳥取県,米子市,両三柳３８６３番地１,,31,202,6830853,,,,,,,2022-08-29,1,,,,,フォーワード,0
452,2290005018791,新規,0,2022-08-29,2022-08-29,一般社団法人ＤＯ・ＬＡ・ＱＵ・ＭＯＮＴ,,その他の設立登記法人,福岡県,小郡市,大保１５４２番地１Ｂ－２０２号室,,40,216,8380115,,,,,,,2022-08-29,1,,,,,ドウラクモン,0
456,2330005010546,新規,0,2022-08-29,2022-08-29,一般社団法人ファンツリー協会,,その他の設立登記法人,熊本県,熊本市中央区,九品寺１丁目１番５－３１１号,,43,101,8620976,,,,,,,2022-08-29,1,,,,,ファンツリーキョウカイ,0
465,2390003001987,新規,0,2022-08-29,2022-08-29,合同会社ＳＴＥＡＬ,,合同会社,山形県,鶴岡市,道形町２２番１０号,,06,203,9970013,,,,,,,2022-08-29,1,,,,,スティール,0
474,2460001005727,新規,0,2022-08-29,2022-08-29,博樹心株式会社,,株式会社,北海道,釧路市,鳥取南８丁目７番１３号,,01,206,0840905,,,,,,,2022-08-29,1,,,,,ハクジュシン,0
476,2470001019230,新規,0,2022-08-29,2022-08-29,株式会社トレーニングレース・ジャパン,,株式会社,香川県,高松市,屋島西町２３２４番地４ラフィーネＡ棟２０１号,,37,201,7610113,,,,,,,2022-08-29,1,,,,,トレーニングレースジャパン,0
507,3010401169331,新規,0,2022-08-29,2022-08-29,ＭＭアセットマネジメント株式会社,,株式会社,東京都,港区,西新橋１丁目１８番６号クロスオフィス内幸町１１Ｆ,,13,103,1050003,,,,,,,2022-08-29,1,,,,,エムエムアセットマネジメント,0
508,3010401169380,新規,0,2022-08-29,2022-08-29,株式会社ワングリップ,,株式会社,東京都,港区,北青山３丁目５番４３号表参道ＬＡＢ２Ｆ,,13,103,1070061,,,,,,,2022-08-29,1,,,,,ワングリップ,0
512,3010403028378,新規,0,2022-08-29,2022-08-29,合同会社ｎｕｎ,,合同会社,東京都,港区,芝浦４丁目２１番１－４８０４号,,13,103,1080023,,,,,,,2022-08-29,1,,,,,ナウン,0
522,3010903007609,新規,0,2022-08-29,2022-08-29,ＢＨＯＣ合同会社,,合同会社,東京都,世田谷区,祖師谷１丁目２８－９ソルナクレイシア１０１,,13,112,1570072,,,,,,,2022-08-29,1,,,,,ビーホック,0
526,3011001149434,新規,0,2022-08-29,2022-08-29,株式会社ＳＵＲＹＡ　Ｃｏｎｓｕｌｔｉｎｇ　Ｇｒｏｕｐ,,株式会社,東京都,渋谷区,恵比寿南１丁目１－１ＨｕｍａｘＥｂｉｓｕビル８Ｆ,,13,113,1500022,,,,,,,2022-08-29,1,,,,,スーリヤコンサルティンググループ,0
528,3011003015279,新規,0,2022-08-29,2022-08-29,合同会社Ｒｅｉｃｏｄｅ,,合同会社,東京都,渋谷区,神宮前６丁目２３番４号桑野ビル２階,,13,113,1500001,,,,,,,2022-08-29,1,,,,,レイコード,0
530,3011101099991,新規,0,2022-08-29,2022-08-29,ＰＭＰ株式会社,,株式会社,東京都,新宿区,西新宿３丁目３番１３号西新宿水間ビル６階,,13,104,1600023,,,,,,,2022-08-29,1,,,,,ピーエムピー,0
532,3011103012110,新規,0,2022-08-29,2022-08-29,合同会社Ｅｘｔｒａ　Ｓｐａｃｅ,,合同会社,東京都,新宿区,西新宿３丁目３番１３号西新宿水間ビル２Ｆ,,13,104,1600023,,,,,,,2022-08-29,1,,,,,エクストラスペース,0
539,3011603003690,新規,0,2022-08-29,2022-08-29,ＣｏｌｏｒｆｕｌＪａｐａｎ合同会社,,合同会社,東京都,練馬区,富士見台４丁目３３－３ブリランテＢ１０２,,13,120,1770034,,,,,,,2022-08-29,1,,,,,カラフルジャパン,0
542,3011701025562,新規,0,2022-08-29,2022-08-29,株式会社ＢＮＫ,,株式会社,東京都,江戸川区,篠崎町４丁目３１番９号,,13,123,1330061,,,,,,,2022-08-29,1,,,,,ビーエヌケー,0
546,3011801041195,新規,0,2022-08-29,2022-08-29,株式会社Ｏｐｓｙｓ,,株式会社,東京都,葛飾区,鎌倉３丁目２５番８－１０８号ウィンドテラス新柴又Ｉ,00127648,13,122,1250053,,,,,,,2022-08-29,1,,,,,オプシス,0
565,3020001147942,新規,0,2022-08-29,2022-08-29,株式会社ＤＲＥＡＭＣＯＮＮＥＣＴ,,株式会社,神奈川県,横浜市鶴見区,駒岡３丁目１番１－５０２号,,14,101,2300071,,,,,,,2022-08-29,1,,,,,ドリームコネクト,0
571,3030001149822,新規,0,2022-08-29,2022-08-29,株式会社トータルサイド,,株式会社,埼玉県,所沢市,大字下安松８７８番地の１１,,11,208,3590024,,,,,,,2022-08-29,1,,,,,トータルサイド,0
574,3030003020056,新規,0,2022-08-29,2022-08-29,Ａ．Ｍ．Ｍ．合同会社,,合同会社,埼玉県,川口市,並木３丁目２７番２号,,11,203,3320034,,,,,,,2022-08-29,1,,,,,エーエムーエム,0
575,3030003020097,新規,0,2022-08-29,2022-08-29,合同会社エムテン,,合同会社,埼玉県,川口市,川口１丁目３番１－４０４号ライオンズマンション,,11,203,3320015,,,,,,,2022-08-29,1,,,,,エムテン,0
584,3040001124741,新規,0,2022-08-29,2022-08-29,株式会社Ｑｕａｂａｎ　ｚａｄａ,,株式会社,千葉県,市原市,立野３５７番地３,,12,219,2990121,,,,,,,2022-08-29,1,,,,,クァバンザダ,0
585,3040001124808,新規,0,2022-08-29,2022-08-29,株式会社ミライバシ,,株式会社,千葉県,柏市,藤ケ谷１１９１－１３,,12,217,2770931,,,,,,,2022-08-29,1,,,,,ミライバシ,0
586,3040001124816,新規,0,2022-08-29,2022-08-29,株式会社ミドルフィールド,,株式会社,千葉県,船橋市,若松２丁目６番１棟－１１２号,,12,204,2730013,,,,,,,2022-08-29,1,,,,,ミドルフィールド,0
590,3040002072873,新規,0,2022-08-29,2022-08-29,苅田計装有限会社,,有限会社,千葉県,市原市,五井西２丁目１８番地８,,12,219,2900038,,,,,,,2022-08-29,1,,,,,カリタケイソウ,0
592,3040003020708,新規,0,2022-08-29,2022-08-29,日信商事合同会社,,合同会社,千葉県,松戸市,北松戸３丁目７番地１,,12,207,2710063,,,,,,,2022-08-29,1,,,,,ニッシンショウジ,0
593,3050001051605,新規,0,2022-08-29,2022-08-29,日本絵金株式会社,,株式会社,茨城県,つくば市,金田９０１,,08,220,3050018,,,,,,,2022-08-29,1,,,,,ニホンエキン,0
601,3080101023484,新規,0,2022-08-29,2022-08-29,株式会社岩田家具店,,株式会社,静岡県,沼津市,上土町１１番地の１,,22,203,4100802,,,,,,,2022-08-29,1,,,,,イワタカグテン,0
618,3120001248458,新規,0,2022-08-29,2022-08-29,株式会社Ｅｖａｌ,,株式会社,大阪府,大阪市北区,西天満３丁目４番５号西天満ワークビル,,27,127,5300047,,,,,,,2022-08-29,1,,,,,イーバル,0
632,3130001072502,新規,0,2022-08-29,2022-08-29,株式会社辻貴,00127640,株式会社,京都府,京都市右京区,山ノ内山ノ下町１２番地,,26,108,6150084,,,,,,,2022-08-29,1,,,,,ツジタカ,0
641,3140001127197,新規,0,2022-08-29,2022-08-29,株式会社ゆとり建築,,株式会社,兵庫県,丹波市,春日町黒井１４５７番地,,28,223,6694141,,,,,,,2022-08-29,1,,,,,ユトリケンチク,0
651,3180001152745,新規,0,2022-08-29,2022-08-29,Ｕｎｉｖｅｒｓａｌ　ＭＵＳＥ株式会社,,株式会社,愛知県,名古屋市千種区,鹿子町６丁目６番地の１,,23,101,4640033,,,,,,,2022-08-29,1,,,,,ユニバーサルミューズ,0
652,3180001152753,新規,0,2022-08-29,2022-08-29,株式会社ＩＴＭ,,株式会社,愛知県,清須市,西枇杷島町小田井１丁目３番地１５,,23,233,4520021,,,,,,,2022-08-29,1,,,,,アイティーエム,0
653,3180001152786,新規,0,2022-08-29,2022-08-29,株式会社晨明,,株式会社,愛知県,名古屋市緑区,四本木１１６番地の３,,23,114,4580039,,,,,,,2022-08-29,1,,,,,シンメイ,0
657,3180005019908,新規,0,2022-08-29,2022-08-29,一般社団法人音楽・アートプロジェクト,,その他の設立登記法人,愛知県,名古屋市中村区,鳥居通２丁目１２番地本陣センタービル２階,,23,105,4530044,,,,,,,2022-08-29,1,,,,,オンガクアートプロジェクト,0
673,3240005015438,新規,0,2022-08-29,2022-08-29,一般社団法人幸崎丸山の里,,その他の設立登記法人,広島県,三原市,幸崎能地７丁目７番３８号,,34,204,7292252,,,,,,,2022-08-29,1,,,,,サイザキマルヤマノサト,0
676,3260001037186,新規,0,2022-08-29,2022-08-29,株式会社シネマファクトリー,,株式会社,岡山県,岡山市北区,花尻ききょう町１８番地１００,,33,101,7010132,,,,,,,2022-08-29,1,,,,,シネマファクトリー,0
677,3270003001437,新規,0,2022-08-29,2022-08-29,合同会社Ａｆｔｅｒｇｒｏｗ,,合同会社,鳥取県,鳥取市,末広温泉町５５４番地,,31,201,6800833,,,,,,,2022-08-29,1,,,,,アフターグロウ,0
678,3280001008771,新規,0,2022-08-29,2022-08-29,与倉運送株式会社,,株式会社,島根県,松江市,八幡町３３０番地１,,32,201,6900025,,,,,,,2022-08-29,1,,,,,ヨクラウンソウ,0
681,3290001098696,新規,0,2022-08-29,2022-08-29,株式会社誠,,株式会社,福岡県,みやま市,瀬高町本郷９４２番地１,,40,229,8350021,,,,,,,2022-08-29,1,,,,,マコト,0
683,3300001013050,新規,0,2022-08-29,2022-08-29,株式会社ふじＭＩＲＡＩ,,株式会社,佐賀県,伊万里市,二里町大里甲２０７８番地６フルスミッテＡ－１０１,,41,205,8480032,,,,,,,2022-08-29,1,,,,,フジミライ,0
705,3700150111333,新規,0,2022-08-29,2022-08-19,常滑市地域公共交通協議会,,その他,愛知県,常滑市,飛香台３丁目３番地の５常滑市役所企画課内,,23,216,4790868,,,,,,,2022-08-19,1,,,,,トコナメシチイキコウキヨウコウツウキヨウギカイ,0
712,4010003038487,新規,0,2022-08-29,2022-08-29,合同会社Ｋａｎｏｅｎ,,合同会社,東京都,中央区,日本橋堀留町２丁目７番２－１３１１号,,13,102,1030012,,,,,,,2022-08-29,1,,,,,カノエン,0
722,4010405021289,新規,0,2022-08-29,2022-08-29,一般社団法人再生因子研究会,,その他の設立登記法人,東京都,港区,南青山３丁目１５番６号,,13,103,1070062,,,,,,,2022-08-29,1,,,,,サイセイインシケンキュウカイ,0
727,4010601061741,新規,0,2022-08-29,2022-08-29,株式会社ＦｏｒｔｕｎｅＧｒｏｗｔｈ,,株式会社,東京都,江東区,有明３丁目７－１１有明パークビル２０Ｆ,,13,108,1350063,,,,,,,2022-08-29,1,,,,,フォーチュングロース,0
728,4010701043111,新規,0,2022-08-29,2022-08-29,株式会社ｔａｇａ,,株式会社,東京都,品川区,南大井３丁目３５番１０号大森Ｇスクエア３階Ｂ号室,,13,109,1400013,,,,,,,2022-08-29,1,,,,,タガ,0
729,4010703006371,新規,0,2022-08-29,2022-08-29,合同会社Ｐｅｔｉｔ　Ｓｏｕｒｉｒｅ,,合同会社,東京都,品川区,中延５丁目１０番１０－３０６号,,13,109,1420053,,,,,,,2022-08-29,1,,,,,プティスゥリール,0
732,4010801033227,新規,0,2022-08-29,2022-08-29,株式会社Ｉｒｉｓ企画,,株式会社,東京都,大田区,北馬込１丁目３番１号,,13,111,1430021,,,,,,,2022-08-29,1,,,,,イリスキカク,0
734,4010903007599,新規,0,2022-08-29,2022-08-29,ＡＡＭＫＡ合同会社,,合同会社,東京都,世田谷区,野沢２丁目３４番２号サンワイズ野沢１Ｆ－Ａ,,13,112,1540003,,,,,,,2022-08-29,1,,,,,アームカ,0
735,4010905004363,新規,0,2022-08-29,2022-08-29,医療法人社団ＴＣＭＡ,,その他の設立登記法人,東京都,世田谷区,太子堂４丁目３０番２５号澤村カスケーダ１階１０１号,,13,112,1540004,,,,,,,2022-08-29,1,,,,,ティーシーエムエー,0
740,4011001149243,新規,0,2022-08-29,2022-08-29,プロージット株式会社,,株式会社,東京都,目黒区,目黒３丁目６－２１－２０２,,13,110,1530063,,,,,,,2022-08-29,1,,,,,プロージット,0
741,4011001149433,新規,0,2022-08-29,2022-08-29,株式会社山桜彩,,株式会社,東京都,渋谷区,恵比寿２丁目３３－１３－６０１,,13,113,1500013,,,,,,,2022-08-29,1,,,,,サンオウザイ,0
746,4011101099999,新規,0,2022-08-29,2022-08-29,株式会社３３,,株式会社,東京都,新宿区,中落合１丁目１７番１２号三井レジデンス２０３,,13,104,1610032,,,,,,,2022-08-29,1,,,,,サンサン,0
747,4011101100007,新規,0,2022-08-29,2022-08-29,大超株式会社,,株式会社,東京都,新宿区,西新宿３丁目３番－１３号西新宿水間ビル６階,,13,104,1600023,,,,,,,2022-08-29,1,,,,,ダイチョウ,0
749,4011301028072,新規,0,2022-08-29,2022-08-29,株式会社都心不動産,,株式会社,東京都,杉並区,下井草２丁目３６番９号,,13,115,1670022,,,,,,,2022-08-29,1,,,,,トシンフドウサン,0
758,4013301049577,新規,0,2022-08-29,2022-08-29,株式会社ルークレイア,,株式会社,東京都,豊島区,池袋２丁目４８番２号ザ・バレル池袋２０１号,,13,116,1710014,,,,,,,2022-08-29,1,,,,,ルークレイア,0
763,4020001147941,新規,0,2022-08-29,2022-08-29,株式会社たつみや,,株式会社,神奈川県,横浜市中区,山下町１２８番地ラ・トゥール前田３０１,,14,104,2310023,,,,,,,2022-08-29,1,,,,,タツミヤ,0
776,4021001076858,新規,0,2022-08-29,2022-08-29,株式会社エイチシーアイ,,株式会社,神奈川県,逗子市,久木４丁目２１番１７号,,14,208,2490001,,,,,,,2022-08-29,1,,,,,エイチシーアイ,0
777,4021001076866,新規,0,2022-08-29,2022-08-29,株式会社名北エクステリア,,株式会社,神奈川県,相模原市南区,磯部４８１０番地３,,14,153,2520327,,,,,,,2022-08-29,1,,,,,メイホクエクステリア,0
780,4021003012076,新規,0,2022-08-29,2022-08-29,合同会社フライツァイト,,合同会社,神奈川県,逗子市,逗子７丁目１２－９,,14,208,2490006,,,,,,,2022-08-29,1,,,,,フライツァイト,0
797,4050001051579,新規,0,2022-08-29,2022-08-29,株式会社龍の米,,株式会社,茨城県,龍ケ崎市,５３５１番地,,08,208,3010000,,,,,,,2022-08-29,1,,,,,リュウノマイ,0
799,4050003006795,新規,0,2022-08-29,2022-08-29,合同会社ＫＤ　ＩＮＴＥＲＮＡＴＩＯＮＡＬ,,合同会社,茨城県,龍ケ崎市,野原町６１番地３ロイヤル・コート野原第１０５号室,,08,208,3010831,,,,,,,2022-08-29,1,,,,,ケーディーインターナショナル,0
808,4080101023500,新規,0,2022-08-29,2022-08-29,株式会社みしま,,株式会社,静岡県,沼津市,添地町１２３番地１２３ビル２階,,22,203,4100803,,,,,,,2022-08-29,1,,,,,ミシマ,0
827,4120001248366,新規,0,2022-08-29,2022-08-29,広路株式会社,,株式会社,大阪府,大阪市東住吉区,今林４丁目１０－２５,,27,121,5460001,,,,,,,2022-08-29,1,,,,,ヒロロ,0
828,4120001248498,新規,0,2022-08-29,2022-08-29,株式会社ルーム,,株式会社,大阪府,大阪市中央区,南本町３丁目４番７号,,27,128,5410054,,,,,,,2022-08-29,1,,,,,ルーム,0
834,4120101066123,新規,0,2022-08-29,2022-08-29,株式会社翔流通,,株式会社,大阪府,堺市堺区,一条通１９番１３号,,27,141,5900048,,,,,,,2022-08-29,1,,,,,カケルリュウツウ,0
835,4120101066148,新規,0,2022-08-29,2022-08-29,株式会社ＹＡＮＢＡＬ,,株式会社,大阪府,貝塚市,三ツ松７０６番地１３,,27,208,5970105,,,,,,,2022-08-29,1,,,,,ヤンバル,0
845,4130001072501,新規,0,2022-08-29,2022-08-29,株式会社Ａｇｒｉｔｕｒｅ,,株式会社,京都府,京都市下京区,玉津島町２９４,,26,106,6008427,,,,,,,2022-08-29,1,,,,,アグリチャー,0
847,4130003008148,新規,0,2022-08-29,2022-08-29,合同会社吉星商事,,合同会社,京都府,京都市中京区,西ノ京永本町５番地３１,,26,104,6048421,,,,,,,2022-08-29,1,,,,,キッセイショウジ,0
860,4150003002768,新規,0,2022-08-29,2022-08-29,合同会社Ｌｉｎｅ　Ｒｉｖｅｒ,,合同会社,奈良県,奈良市,西登美ヶ丘７丁目１１番１号,,29,201,6310006,,,,,,,2022-08-29,1,,,,,ラインリバー,0
864,4180001152752,新規,0,2022-08-29,2022-08-29,株式会社ＭＫＴ１９８,,株式会社,愛知県,岩倉市,八剱町大塚１９９番地１,00127639,23,228,4820031,,,,,,,2022-08-29,1,,,,,エムケーティイチキュウハチ,0
865,4180001152785,新規,0,2022-08-29,2022-08-29,株式会社街づくりデザインファクトリー,,株式会社,愛知県,知多市,長浦３丁目８４番地,,23,224,4780042,,,,,,,2022-08-29,1,,,,,マチヅクリデザインファクトリー,0
872,4190001029719,新規,0,2022-08-29,2022-08-29,ＳＴＹＥＦ株式会社,,株式会社,三重県,鈴鹿市,稲生西２丁目１１番１１号,,24,207,5100204,,,,,,,2022-08-29,1,,,,,ステイフ,0
884,4240003005761,新規,0,2022-08-29,2022-08-29,合同会社万葉,,合同会社,広島県,東広島市,安芸津町三津１２８９番地１,,34,212,7392402,,,,,,,2022-08-29,1,,,,,マンヨウ,0
891,4290001098704,新規,0,2022-08-29,2022-08-29,株式会社ｔｏｐｏ,,株式会社,福岡県,那珂川市,大字山田４６８番地１,,40,231,8111244,,,,,,,2022-08-29,1,,,,,トーポ,0
892,4290001098712,新規,0,2022-08-29,2022-08-29,株式会社寅二,,株式会社,福岡県,福岡市中央区,大名１丁目３番３５号,,40,133,8100041,,,,,,,2022-08-29,1,,,,,トラジ,0
895,4290003012885,新規,0,2022-08-29,2022-08-29,ＮＬ合同会社,,合同会社,福岡県,福岡市博多区,堅粕４丁目２１－１７,,40,132,8120043,,,,,,,2022-08-29,1,,,,,エヌエル,0
896,4290801028843,新規,0,2022-08-29,2022-08-29,株式会社正豊商事,,株式会社,福岡県,行橋市,大字上稗田１１１番地４,,40,213,8240055,,,,,,,2022-08-29,1,,,,,セイホウショウジ,0
901,4310001018007,新規,0,2022-08-29,2022-08-29,株式会社ＣＯＭ　ＴＡＣＴ,,株式会社,長崎県,佐世保市,広田１丁目６－１９,,42,202,8593223,,,,,,,2022-08-29,1,,,,,,0
903,4330005010544,新規,0,2022-08-29,2022-08-29,清薫寺,,その他の設立登記法人,熊本県,合志市,須屋２６９５番地７６,,43,216,8611102,,,,,,,2022-08-29,1,,,,,セイクンジ,0
933,4480003001869,新規,0,2022-08-29,2022-08-29,合同会社視覚言語研究所０６２５,,合同会社,徳島県,徳島市,南田宮１丁目５番４３号,,36,201,7700004,,,,,,,2022-08-29,1,,,,,シカクゲンゴケンキュウショゼロロクニーゴー,0
938,4700150110994,新規,0,2022-08-29,2022-08-03,にんぎょい会たくま,,その他,香川県,三豊市,詫間町詫間１３５５番地１,,37,208,7691101,,,,,,,2022-08-03,1,,,,,ニンギヨイカイタクマ,0
949,5010001228469,新規,0,2022-08-29,2022-08-29,Ａｎｄ　ｍｏｒｅ株式会社,,株式会社,東京都,中央区,銀座１丁目２２番１１号銀座大竹ビジデンス２階,,13,102,1040061,,,,,,,2022-08-29,1,,,,,アンドモア,0
963,5010401169313,新規,0,2022-08-29,2022-08-29,株式会社ＣＥＯコンシェルジュ,,株式会社,東京都,港区,芝浦４丁目２０番２－３４０５号,,13,103,1080023,,,,,,,2022-08-29,1,,,,,シーイーオーコンシェルジュ,0
967,5010403028260,新規,0,2022-08-29,2022-08-29,ＮＳＩＴインストラクション合同会社,,合同会社,東京都,港区,南青山２丁目２番１５号,,13,103,1070062,,,,,,,2022-08-29,1,,,,,エヌエスアイティーインストラクション,0
972,5010901051516,新規,0,2022-08-29,2022-08-29,株式会社森義仁事務所,,株式会社,東京都,世田谷区,若林２丁目１番１０号,,13,112,1540023,,,,,,,2022-08-29,1,,,,,モリヨシヒロジムショ,0
978,5011001149424,新規,0,2022-08-29,2022-08-29,株式会社ＥＧＧ’ｓ,,株式会社,東京都,渋谷区,神宮前１丁目１５番１４号,,13,113,1500001,,,,,,,2022-08-29,1,,,,,エッグス,0
979,5011001149432,新規,0,2022-08-29,2022-08-29,日美商事株式会社,,株式会社,東京都,渋谷区,代々木１丁目３７－７勝栄ビル３０３号室,,13,113,1510053,,,,,,,2022-08-29,1,,,,,ヒミショウジ,0
980,5011001149473,新規,0,2022-08-29,2022-08-29,株式会社ＤＡＮＧＡＮ　ＦＩＬＭ,,株式会社,東京都,渋谷区,桜丘町１５番８号高木産業会館２０６,,13,113,1500031,,,,,,,2022-08-29,1,,,,,ダンガンフィルム,0
984,5011101100006,新規,0,2022-08-29,2022-08-29,大祥株式会社,,株式会社,東京都,新宿区,西新宿３丁目３番－１３号西新宿水間ビル６階,,13,104,1600023,,,,,,,2022-08-29,1,,,,,ダイショウ,0
986,5011203003899,新規,0,2022-08-29,2022-08-29,合同会社ｙｃ,,合同会社,東京都,中野区,野方４丁目７番１３号,,13,114,1650027,,,,,,,2022-08-29,1,,,,,ワイシー,0
991,5011403003757,新規,0,2022-08-29,2022-08-29,合同会社両方,,合同会社,東京都,板橋区,西台３丁目１５番３号,,13,119,1750045,,,,,,,2022-08-29,1,,,,,リョウホウ,0
993,5011601026196,新規,0,2022-08-29,2022-08-29,株式会社Ｍａｔｅ,,株式会社,東京都,練馬区,中村北２丁目２番３号コンパルティア練馬１０５,,13,120,1760023,,,,,,,2022-08-29,1,,,,,メイト,0
994,5011701025544,新規,0,2022-08-29,2022-08-29,ワンヒッター株式会社,,株式会社,東京都,江戸川区,北葛西５丁目１４－１１クオーディア西葛西５０３,,13,123,1340081,,,,,,,2022-08-29,1,,,,,ワンヒッター,0
996,5012301013113,新規,0,2022-08-29,2022-08-29,株式会社ＲｏｏｍＣｏｎｎｅｃｔ,,株式会社,東京都,町田市,小山ヶ丘６丁目５番地１,,13,209,1940215,,,,,,,2022-08-29,1,,,,,ルームコネクト,0
1011,5030001149820,新規,0,2022-08-29,2022-08-29,株式会社Ｃｉｖａｎ　Ｊａｐａｎ,,株式会社,埼玉県,さいたま市浦和区,常盤３丁目１番１３号,,11,107,3300061,,,,,,,2022-08-29,1,,,,,シヴァンジャパン,0
1012,5030001149837,新規,0,2022-08-29,2022-08-29,株式会社ＴｅｔｒａＴｅｃｈ,,株式会社,埼玉県,さいたま市中央区,円阿弥７丁目１１番７－２０２号,,11,105,3380007,,,,,,,2022-08-29,1,,,,,テトラテック,0
1022,5040001124780,新規,0,2022-08-29,2022-08-29,株式会社ＣＯＣＯＲＯ,,株式会社,千葉県,富津市,青木２丁目１６番１３号,,12,226,2930012,,,,,,,2022-08-29,1,,,,,ココロ,0
1023,5040001124822,新規,0,2022-08-29,2022-08-29,株式会社葵会,,株式会社,千葉県,我孫子市,天王台１丁目５番１号,,12,222,2701143,,,,,,,2022-08-29,1,,,,,アオイカイ,0
1024,5040001124830,新規,0,2022-08-29,2022-08-29,オフィスウォルター株式会社,,株式会社,千葉県,松戸市,上本郷３４２９番地,,12,207,2710064,,,,,,,2022-08-29,1,,,,,オフィスウォルター,0
1026,5040003020706,新規,0,2022-08-29,2022-08-29,合同会社ｍｏｎａｓｅａ,,合同会社,千葉県,柏市,柏７０８番地２６,,12,217,2770005,,,,,,,2022-08-29,1,,,,,モナシー,0
1038,5090005007507,新規,0,2022-08-29,2022-08-29,特定非営利活動法人一路,,その他の設立登記法人,山梨県,甲府市,武田２丁目１２番８号,,19,201,4000016,,,,,,,2022-08-29,1,,,,,イチロ,0
1055,5120001248464,新規,0,2022-08-29,2022-08-29,株式会社ユビキタス,,株式会社,大阪府,大阪市天王寺区,上汐３丁目２番１６号アリビオ上本町７０２号室,,27,109,5430002,,,,,,,2022-08-29,1,,,,,ユビキタス,0
1056,5120001248489,新規,0,2022-08-29,2022-08-29,ＪＭＣホールディングス株式会社,,株式会社,大阪府,大阪市北区,大深町４番２０号グランフロント大阪タワーＡ２９Ｆ,,27,127,5300011,,,,,,,2022-08-29,1,,,,,ジェイエムシーホールディングス,0
1058,5120003022347,新規,0,2022-08-29,2022-08-29,合同会社ＴＩＥＵ　ＹＥＮ,,合同会社,大阪府,大阪市阿倍野区,丸山通１丁目６番１６号松虫ハイツ１階１０３号室,,27,119,5450042,,,,,,,2022-08-29,1,,,,,ティエウイェン,0
1072,5130001072509,新規,0,2022-08-29,2022-08-29,株式会社談酒館,,株式会社,京都府,船井郡京丹波町,上大久保下地２６番地,,26,407,6220452,,,,,,,2022-08-29,1,,,,,ダンシュカン,0
1073,5130001072517,新規,0,2022-08-29,2022-08-29,株式会社ＯＭＵＳＵＢＩ,,株式会社,京都府,久世郡久御山町,大橋辺北島２２番地９,,26,322,6130046,,,,,,,2022-08-29,1,,,,,オムスビ,0
1077,5140001127179,新規,0,2022-08-29,2022-08-29,株式会社フドウ,,株式会社,兵庫県,加古川市,加古川町北在家６９９番地の３,,28,210,6750031,,,,,,,2022-08-29,1,,,,,フドウ,0
1078,5140001127204,新規,0,2022-08-29,2022-08-29,Ｐａｒｉｔｙ株式会社,,株式会社,兵庫県,西宮市,上甲東園１丁目８番１８号,,28,204,6620813,,,,,,,2022-08-29,1,,,,,パリティ,0
1083,5140003018062,新規,0,2022-08-29,2022-08-29,合同会社桜花,,合同会社,兵庫県,伊丹市,中野西３丁目４９番地,,28,207,6640023,,,,,,,2022-08-29,1,,,,,オウカ,0
1096,5180001152792,新規,0,2022-08-29,2022-08-29,株式会社友遊商会,,株式会社,愛知県,一宮市,萩原町串作字荒神浦５２番地１,,23,203,4910376,,,,,,,2022-08-29,1,,,,,ユウユウショウカイ,0
1098,5180003024189,新規,0,2022-08-29,2022-08-29,合同会社にじと森,,合同会社,愛知県,名古屋市名東区,にじが丘１丁目１２番地の２星ケ丘スカイマンション７０３号,,23,115,4650078,,,,,,,2022-08-29,1,,,,,ニジトモリ,0
1113,5240001060254,新規,0,2022-08-29,2022-08-29,株式会社ヒーラー,,株式会社,広島県,廿日市市,佐方３丁目８番２８号,,34,213,7380001,,,,,,,2022-08-29,1,,,,,ヒーラー,0
1114,5240001060270,新規,0,2022-08-29,2022-08-29,Ｍａｚｄａ　Ｉｍａｓｅｎ　Ｅｌｅｃｔｒｉｃ　Ｄｒｉｖｅ株式会社,,株式会社,広島県,東広島市,八本松飯田２丁目１４番１号,,34,212,7390146,,,,,,,2022-08-29,1,,,,,マツダイマセンエレクトリックドライブ,0
1118,5250001019745,新規,0,2022-08-29,2022-08-29,株式会社みらい,,株式会社,山口県,山口市,阿知須１０６７５番地５,,35,203,7541277,,,,,,,2022-08-29,1,,,,,ミライ,0
1125,5260001037176,新規,0,2022-08-29,2022-08-29,株式会社もち山金魚,,株式会社,岡山県,津山市,林田６８２－１,,33,203,7080822,,,,,,,2022-08-29,1,,,,,モチヤマキンギョ,0
1126,5260001037184,新規,0,2022-08-29,2022-08-29,株式会社良建技巧,,株式会社,岡山県,岡山市南区,当新田４４４番地２１,,33,104,7000956,,,,,,,2022-08-29,1,,,,,リョウケンギコウ,0
1133,5290003012884,新規,0,2022-08-29,2022-08-29,ＤＮ　Ｊａｐａｎ合同会社,,合同会社,福岡県,福岡市東区,馬出５丁目２番２－３０２号パインヒルズ馬出,,40,131,8120054,,,,,,,2022-08-29,1,,,,,ディーエヌジャパン,0
1134,5290003012892,新規,0,2022-08-29,2022-08-29,Ｓ　ＧＲＯＵＰ合同会社,,合同会社,福岡県,福岡市博多区,吉塚１丁目１６番７号,,40,132,8120041,,,,,,,2022-08-29,1,,,,,エスグループ,0
1141,5350005006093,新規,0,2022-08-29,2022-08-29,特定非営利活動法人宮崎の海の歴史と文化を紡ぐ会,,その他の設立登記法人,宮崎県,延岡市,赤水町５２６－ロ,,45,203,8890517,,,,,,,2022-08-29,1,,,,,ミヤザキノウミノレキシトブンカヲツムグカイ,0
1148,5400001015984,新規,0,2022-08-29,2022-08-29,株式会社大坪興業,,株式会社,岩手県,滝沢市,鵜飼白石５２番地１,,03,216,0200661,,,,,,,2022-08-29,1,,,,,オオツボコウギョウ,0
1158,5700150110936,新規,0,2022-08-29,2022-07-15,やよいクラシックバレエ教室,,その他,埼玉県,越谷市,新越谷１丁目３３－４,,11,222,3430857,,,,,,,2022-07-15,1,,,,,ヤヨイクラシツクバレエキヨウシツ,0
1159,5700150111538,新規,0,2022-08-29,2022-08-29,Ｍａｒｆｏｒｄ　Ｉｎｔｅｒｎａｔｉｏｎａｌ　Ｐｔｙ　Ｌｔｄ　,,外国会社等,北海道,虻田郡倶知安町,字山田８３番地５８,,01,400,0440081,オーストラリア連邦、西オーストラリア州、スピアコ、スピアコロード４０、レベル２,,,,,,2022-08-29,1,,,,,マーフオードインターナシヨナルピーテイーワイリミテツド,0
1175,6010401169320,新規,0,2022-08-29,2022-08-29,株式会社ｓｏｎｏ,,株式会社,東京都,港区,南青山６丁目２番１３号ファイン青山５Ｆ,,13,103,1070062,,,,,,,2022-08-29,1,,,,,ソノ,0
1176,6010401169337,新規,0,2022-08-29,2022-08-29,Ｄｒ．Ｂｅｎｒｉ株式会社,,株式会社,東京都,港区,白金１丁目２５番２０－３０２号,,13,103,1080072,,,,,,,2022-08-29,1,,,,,ドクターベンリ,0
1210,6011003015284,新規,0,2022-08-29,2022-08-29,ｌａｎｉｂｏｏｋｓ合同会社,,合同会社,東京都,渋谷区,神宮前６丁目２３番４号桑野ビル２階,,13,113,1500001,,,,,,,2022-08-29,1,,,,,ラニブックス,0
1212,6011101012670,新規,0,2022-08-29,2022-08-29,株式会社第一興産,,株式会社,東京都,新宿区,西新宿８丁目２番２０号,,13,104,1600023,,,,,,,2022-08-29,1,,,,,ダイイチコウサン,0
1216,6011101100005,新規,0,2022-08-29,2022-08-29,大通農牧科技株式会社,,株式会社,東京都,新宿区,西新宿３丁目３番－１３号西新宿水間ビル６階,,13,104,1600023,,,,,,,2022-08-29,1,,,,,タイツウノウモクカギ,0
1217,6011103012090,新規,0,2022-08-29,2022-08-29,合同会社ＮｅｕｒｏｔｅｃｈＪＰ,,合同会社,東京都,新宿区,新宿１丁目３６番２号新宿第七葉山ビル３階,,13,104,1600022,,,,,,,2022-08-29,1,,,,,ニューロテックジェーピー,0
1218,6011103012108,新規,0,2022-08-29,2022-08-29,合同会社Ｃｌｏｖ,,合同会社,東京都,新宿区,赤城下町４５番地ＫＢＣ、Ｂ－２号室,,13,104,1620803,,,,,,,2022-08-29,1,,,,,クロブ,0
1230,6012401039577,新規,0,2022-08-29,2022-08-29,樹都市デザイン株式会社,,株式会社,東京都,武蔵野市,吉祥寺東町１丁目２番３号,,13,203,1800002,,,,,,,2022-08-29,1,,,,,イツキトシデザイン,0
1231,6012403005560,新規,0,2022-08-29,2022-08-29,合同会社ＩＮＮＩ,,合同会社,東京都,小金井市,本町１丁目６－１７,,13,210,1840004,,,,,,,2022-08-29,1,,,,,イニ,0
1237,6013303006277,新規,0,2022-08-29,2022-08-29,ＡＬＴＡＩ合同会社,,合同会社,東京都,豊島区,南池袋１丁目９番１８号－２０８号室,,13,116,1710022,,,,,,,2022-08-29,1,,,,,アルタイ,0
1246,6021005012592,新規,0,2022-08-29,2022-08-29,一般社団法人ドッグデンタルマイスター協会,,その他の設立登記法人,神奈川県,藤沢市,鵠沼藤が谷３丁目４番３号,,14,205,2510031,,,,,,,2022-08-29,1,,,,,ドッグデンタルマイスターキョウカイ,0
1249,6030001149828,新規,0,2022-08-29,2022-08-29,株式会社Ｙｏｓｈｉｍｉｔｓｕ,,株式会社,埼玉県,入間市,大字下藤沢５０４番地１,,11,225,3580011,,,,,,,2022-08-29,1,,,,,ヨシミツ,0
1251,6030003020053,新規,0,2022-08-29,2022-08-29,合同会社ＭＫＳ,,合同会社,埼玉県,川口市,大字東本郷６６０－１,,11,203,3340063,,,,,,,2022-08-29,1,,,,,エムケーエス,0
1252,6030003020078,新規,0,2022-08-29,2022-08-29,合同会社クローバー,,合同会社,埼玉県,所沢市,大字山口２８５８－６,,11,208,3591145,,,,,,,2022-08-29,1,,,,,クローバー,0
1271,6070001039579,新規,0,2022-08-29,2022-08-29,タスク工業株式会社,,株式会社,群馬県,安中市,岩井４３７番地１,,10,211,3790112,,,,,,,2022-08-29,1,,,,,タスクコウギョウ,0
1286,6120001248397,新規,0,2022-08-29,2022-08-29,株式会社高盛,,株式会社,大阪府,大阪市生野区,巽北１丁目１番１号２Ｆ－Ｃ,,27,116,5440004,,,,,,,2022-08-29,1,,,,,コウセイ,0
1287,6120001248439,新規,0,2022-08-29,2022-08-29,株式会社ハイブリッドファーム,,株式会社,大阪府,大阪市中央区,南船場４丁目１０番１８号ナサプライムハウス別館５階,,27,128,5420081,,,,,,,2022-08-29,1,,,,,ハイブリッドファーム,0
1288,6120001248447,新規,0,2022-08-29,2022-08-29,福祉住宅株式会社,,株式会社,大阪府,大阪市北区,梅田２丁目６番２０号パシフィックマークス西梅田４Ｆ,,27,127,5300001,,,,,,,2022-08-29,1,,,,,フクシジュウタク,0
1289,6120001248463,新規,0,2022-08-29,2022-08-29,成広商事株式会社,,株式会社,大阪府,大阪市西淀川区,柏里２丁目７番２６号ラ・ピース塚本７０５号室,00127643,27,113,5550022,,,,,,,2022-08-29,1,,,,,セイコウショウジ,0
1290,6120103004830,新規,0,2022-08-29,2022-08-29,合同会社ＢＰＯサービスセンター,,合同会社,大阪府,羽曳野市,尺度１６－１,,27,222,5830862,,,,,,,2022-08-29,1,,,,,,0
1307,6130001072499,新規,0,2022-08-29,2022-08-29,株式会社エクシコ,,株式会社,京都府,京都市伏見区,石田森南町７１番地５号ハイツ一里塚２０５号室,,26,109,6011434,,,,,,,2022-08-29,1,,,,,エクシコ,0
1308,6130001072516,新規,0,2022-08-29,2022-08-29,株式会社ＶＡＮＴＡＲ,,株式会社,京都府,京都市下京区,米屋町１６９ナカガワビル３Ｆ,,26,106,6008229,,,,,,,2022-08-29,1,,,,,,0
1311,6130003008146,新規,0,2022-08-29,2022-08-29,合同会社ラピスプライベート,,合同会社,京都府,京都市右京区,常盤西町４,,26,108,6168223,,,,,,,2022-08-29,1,,,,,ラピスプライベート,0
1323,6140003018061,新規,0,2022-08-29,2022-08-29,ＡＳ合同会社,,合同会社,兵庫県,西宮市,二見町１３番１４号,,28,204,6638111,,,,,,,2022-08-29,1,,,,,エーエス,0
1332,6180001152742,新規,0,2022-08-29,2022-08-29,株式会社３ＭＩＮＤ,,株式会社,愛知県,名古屋市中川区,愛知町１１番４号,,23,110,4540807,,,,,,,2022-08-29,1,,,,,スリーマインド,0
1333,6180001152767,新規,0,2022-08-29,2022-08-29,株式会社レオネクト,,株式会社,愛知県,名古屋市中村区,烏森町５丁目４４番地の１,,23,105,4530855,,,,,,,2022-08-29,1,,,,,レオネクト,0
1336,6180003024188,新規,0,2022-08-29,2022-08-29,レザーテック合同会社,,合同会社,愛知県,名古屋市中区,錦１丁目１７番１３号,,23,106,4600003,,,,,,,2022-08-29,1,,,,,レザーテック,0
1337,6190001029725,新規,0,2022-08-29,2022-08-29,株式会社モアライド,,株式会社,三重県,津市,夢が丘２丁目２８番地４,,24,201,5140116,,,,,,,2022-08-29,1,,,,,モアライド,0
1343,6200005013384,新規,0,2022-08-29,2022-08-29,特定非営利活動法人キミノミライ,,その他の設立登記法人,岐阜県,多治見市,大針町６番４７,,21,204,5070062,,,,,,,2022-08-29,1,,,,,キミノミライ,0
1355,6240001060278,新規,0,2022-08-29,2022-08-29,株式会社蒼穹,,株式会社,広島県,広島市中区,中町７－１６ポレスター広島２Ｆ,,34,101,7300037,,,,,,,2022-08-29,1,,,,,アオゾラ,0
1357,6260005011127,新規,0,2022-08-29,2022-08-29,ＮＰＯ法人倉敷猫まもりの会,,その他の設立登記法人,岡山県,倉敷市,玉島乙島８２５６番地３７株式会社マキシマ電業１階,,33,202,7138103,,,,,,,2022-08-29,1,,,,,クラシキネコマモリノカイ,0
1360,6290001098719,新規,0,2022-08-29,2022-08-29,リーレン・ジャパン株式会社,,株式会社,福岡県,福岡市博多区,東那珂２丁目１３番６号,,40,132,8120892,,,,,,,2022-08-29,1,,,,,リーレンジャパン,0
1362,6290003012883,新規,0,2022-08-29,2022-08-29,合同会社ストーリー,,合同会社,福岡県,福岡市東区,香椎駅前３丁目３３番３３－５０４号ＭＪＲ香椎,,40,131,8130013,,,,,,,2022-08-29,1,,,,,ストーリー,0
1368,6310001018005,新規,0,2022-08-29,2022-08-29,株式会社タイム,,株式会社,長崎県,西彼杵郡時津町,浦郷２７１番地３　１００４号,,42,308,8512105,,,,,,,2022-08-29,1,,,,,タイム,0
1372,6320001019290,新規,0,2022-08-29,2022-08-29,株式会社プランタン,,株式会社,大分県,大分市,大道町４丁目５番２７号第５ブンゴヤビル４０１,,44,201,8700822,,,,,,,2022-08-29,1,,,,,プランタン,0
1375,6330001030049,新規,0,2022-08-29,2022-08-29,株式会社花,,株式会社,熊本県,人吉市,鶴田町８６７番地３,,43,203,8680024,,,,,,,2022-08-29,1,,,,,ハナ,0
1376,6330001030057,新規,0,2022-08-29,2022-08-29,株式会社Ｅｘ　Ｔｅｃｈ,,株式会社,熊本県,玉名市,中１６８６番地１西村ビル１階,,43,206,8650064,,,,,,,2022-08-29,1,,,,,エクステック,0
1400,6700150111537,新規,0,2022-08-29,2022-08-29,ＺｈｏｎｇｓｈａｎＳｈｉＨｏｎｇＹｅＺｈｕａｎｇＸｉｕＧｏｎｇＣｈｅｎｇＹｏｕＸｉａｎＧｏｎｇＳｉ,,外国会社等,,,,,,,,ＨｕｏｊｕＱｕＣｕｉｌｉｎｇＬｕ２Ｈａｏ，ＴｉａｎｑｉｎＨｕｉｆｕ２ＺｈｕａｎｇＳｉＣｅｎｇ１３ｋａＺｈｏｎｇｓｈａｎＧｕａｎｇｄｏｎｇＣｈｉｎａ,,,,,,2022-08-29,1,,,,,ゾンサンシホンイエツアンシユゴングチエンユウゲンコウシ,0
1418,7010403028366,新規,0,2022-08-29,2022-08-29,Ｖｏｔｉｏｎ　Ｌｉｍｉｔｅｄ合同会社,,合同会社,東京都,港区,西新橋３丁目２４番８号山内ビル３階,,13,103,1050003,,,,,,,2022-08-29,1,,,,,ボーションリミテッド,0
1425,7010701043133,新規,0,2022-08-29,2022-08-29,株式会社ＰＲＥＭＩＥＲ　ＧＡＲＤＥＮ　ＨＯＬＤＩＮＧＳ,,株式会社,東京都,品川区,平塚１丁目１７番６号,,13,109,1420051,,,,,,,2022-08-29,1,,,,,プレミアガーデンホールディングス,0
1445,7011001149439,新規,0,2022-08-29,2022-08-29,ＮＥＷ　ＷＨＩＴＥ株式会社,,株式会社,東京都,渋谷区,代々木５丁目２９番８号,,13,113,1510053,,,,,,,2022-08-29,1,,,,,ニューホワイト,0
1450,7011101099988,新規,0,2022-08-29,2022-08-29,株式会社絆‐ＫＩＺＵＮＡ,,株式会社,東京都,新宿区,中落合４丁目２３番２２号コートブリーズＢ１０３,,13,104,1610032,,,,,,,2022-08-29,1,,,,,キズナ,0
1451,7011101100004,新規,0,2022-08-29,2022-08-29,三一科技株式会社,,株式会社,東京都,新宿区,西新宿３丁目３番－１３号西新宿水間ビル６階,,13,104,1600023,,,,,,,2022-08-29,1,,,,,サンイチカギ,0
1461,7012701017224,新規,0,2022-08-29,2022-08-29,株式会社ＲＩＤＥＲＡ,,株式会社,東京都,東村山市,美住町２丁目１８－３９レクシオ東村山ティアーズガーデン５０８号,,13,213,1890023,,,,,,,2022-08-29,1,,,,,,0
1462,7012801021803,新規,0,2022-08-29,2022-08-29,株式会社ブホウ,,株式会社,東京都,立川市,柴崎町３丁目５番２０号,,13,202,1900023,,,,,,,2022-08-29,1,,,,,,0
1463,7012805003145,新規,0,2022-08-29,2022-08-29,一般社団法人Ｆｌｏｗｎｅｓｓ　ａｓｓｏｃｉａｔｉｏｎ,,その他の設立登記法人,東京都,昭島市,玉川町５丁目１１番１８号,,13,207,1960034,,,,,,,2022-08-29,1,,,,,フローネスアソシエイション,0
1466,7013301049574,新規,0,2022-08-29,2022-08-29,株式会社旭,,株式会社,東京都,豊島区,巣鴨４丁目２９番５号,,13,116,1700002,,,,,,,2022-08-29,1,,,,,アサヒ,0
1467,7013303006276,新規,0,2022-08-29,2022-08-29,イリゼ教育合同会社,,合同会社,東京都,豊島区,池袋２丁目６８－１０池袋ダイカンプラザビル８１０,,13,116,1710014,,,,,,,2022-08-29,1,,,,,イリゼキョウイク,0
1471,7020001147939,新規,0,2022-08-29,2022-08-29,株式会社Ｆａｃｅ　ｕｐ,,株式会社,神奈川県,横浜市青葉区,新石川１丁目１６－２５－Ａ２０１,,14,117,2250003,,,,,,,2022-08-29,1,,,,,フェイスアップ,0
1482,7030003020085,新規,0,2022-08-29,2022-08-29,合同会社ステレオ時代,,合同会社,埼玉県,比企郡吉見町,大字長谷１７５７－１５４,,11,347,3550156,,,,,,,2022-08-29,1,,,,,ステレオジダイ,0
1487,7050003006792,新規,0,2022-08-29,2022-08-29,杜の栖合同会社,,合同会社,茨城県,神栖市,息栖２８８２番地,,08,232,3140133,,,,,,,2022-08-29,1,,,,,モリノスミカ,0
1489,7070001039578,新規,0,2022-08-29,2022-08-29,株式会社Ｓｕｐｐｏｒｔ,,株式会社,群馬県,吾妻郡嬬恋村,大字大前２１３６番地２,,10,425,3771612,,,,,,,2022-08-29,1,,,,,サポート,0
1503,7120001248470,新規,0,2022-08-29,2022-08-29,Ｉｎｆｉｎｉｔｅ株式会社,,株式会社,大阪府,大阪市天王寺区,味原町７－７－４０２号室,,27,109,5430023,,,,,,,2022-08-29,1,,,,,インフィニティ,0
1505,7120003022345,新規,0,2022-08-29,2022-08-29,合同会社輪,,合同会社,大阪府,大阪市旭区,生江１丁目９番２０―２０１号,,27,117,5350004,,,,,,,2022-08-29,1,,,,,リン,0
1506,7120005023151,新規,0,2022-08-29,2022-08-29,一般社団法人コーラスリハビリ協会,,その他の設立登記法人,大阪府,大阪市北区,梅田２丁目５－１３桜橋第一ビル３０４号,,27,127,5300001,,,,,,,2022-08-29,1,,,,,コーラスリハビリキョウカイ,0
1513,7122001036203,新規,0,2022-08-29,2022-08-29,株式会社フレンドシップリング,,株式会社,大阪府,東大阪市,荒本北２丁目２番１７号,,27,227,5770011,,,,,,,2022-08-29,1,,,,,フレンドシップリング,0
1522,7130001072507,新規,0,2022-08-29,2022-08-29,株式会社Ｒｕｄｏｌｆ,,株式会社,京都府,城陽市,寺田正道１４８番地の１５,,26,207,6100121,,,,,,,2022-08-29,1,,,,,ルドルフ,0
1523,7130001072523,新規,0,2022-08-29,2022-08-29,株式会社ｋ＆ｋ,,株式会社,京都府,京都市南区,唐橋平垣町１３番地,,26,107,6018469,,,,,,,2022-08-29,1,,,,,ケイアンドケイ,0
1527,7130003008153,新規,0,2022-08-29,2022-08-29,ＭｅｔａＧａｔｅ合同会社,,合同会社,京都府,京都市下京区,朱雀宝蔵町４４番地協栄ビル２階京都朱雀スタジオ,,26,106,6008846,,,,,,,2022-08-29,1,,,,,メタゲート,0
1529,7140001127185,新規,0,2022-08-29,2022-08-29,株式会社ｔｈｅ　ｒｏｏｔｓ,,株式会社,兵庫県,姫路市,北今宿２丁目４番５２号北今宿ビル３階,,28,201,6700057,,,,,,,2022-08-29,1,,,,,ザルーツ,0
1530,7140001127202,新規,0,2022-08-29,2022-08-29,あるくを考える株式会社,,株式会社,兵庫県,尼崎市,開明町３丁目６－４Ｅ２,,28,202,6600862,,,,,,,2022-08-29,1,,,,,アルクヲカンガエル,0
1532,7140003018060,新規,0,2022-08-29,2022-08-29,合同会社エクステリア未来,,合同会社,兵庫県,加東市,梶原２６０番地６,,28,228,6731463,,,,,,,2022-08-29,1,,,,,エクステリアミライ,0
1538,7170001017251,新規,0,2022-08-29,2022-08-29,株式会社Ｉｓｌａｎｄ　Ｈ,,株式会社,和歌山県,和歌山市,有本５３６エスポワール紀の川４０７,,30,201,6408390,,,,,,,2022-08-29,1,,,,,アイランドエイチ,0
1541,7180001152733,新規,0,2022-08-29,2022-08-29,株式会社マンマミーヤ,,株式会社,愛知県,名古屋市北区,中味鋺３丁目１２８番地フォーブル幸１０１号,,23,103,4620015,,,,,,,2022-08-29,1,,,,,マンマミーヤ,0
1542,7180001152774,新規,0,2022-08-29,2022-08-29,カプセルコーポレーション株式会社,,株式会社,愛知県,名古屋市西区,牛島町６－１名古屋ルーセントタワー４０階,,23,104,4510046,,,,,,,2022-08-29,1,,,,,カプセルコーポレーション,0
1545,7180003024195,新規,0,2022-08-29,2022-08-29,合同会社紬,,合同会社,愛知県,名古屋市緑区,乗鞍２丁目１６０６番地の７,,23,114,4580004,,,,,,,2022-08-29,1,,,,,ツムギ,0
1546,7190001029716,新規,0,2022-08-29,2022-08-29,株式会社ＧＹＸＵＳ,,株式会社,三重県,四日市市,住吉町１５番１５号,,24,202,5108003,,,,,,,2022-08-29,1,,,,,ジクサス,0
1555,7240003005767,新規,0,2022-08-29,2022-08-29,ハビットソフト合同会社,,合同会社,広島県,東広島市,高屋高美が丘１丁目１５番３号,,34,212,7392115,,,,,,,2022-08-29,1,,,,,ハビットソフト,0
1561,7260001037182,新規,0,2022-08-29,2022-08-29,株式会社Ｏｓａｎｐｏ,,株式会社,岡山県,岡山市北区,下伊福１丁目７番２４号,,33,101,7000052,,,,,,,2022-08-29,1,,,,,オサンポ,0
1570,7290001098701,新規,0,2022-08-29,2022-08-29,株式会社ＥＡＳＴ,,株式会社,福岡県,八女市,馬場４９１番地３,,40,210,8340023,,,,,,,2022-08-29,1,,,,,イースト,0
1571,7290003012882,新規,0,2022-08-29,2022-08-29,Ｗｉｓｔｅｒｉａコンサルタント合同会社,,合同会社,福岡県,福岡市早良区,田村４丁目１１番６１号,,40,137,8140175,,,,,,,2022-08-29,1,,,,,ウィステリアコンサルタント,0
1575,7330001030056,新規,0,2022-08-29,2022-08-29,株式会社ＳＤＪ,,株式会社,熊本県,菊池郡大津町,大字大津９７７番地,,43,403,8691233,,,,,,,2022-08-29,1,,,,,エスディージェー,0
1580,7340005009491,新規,0,2022-08-29,2022-08-29,一般社団法人ボナンザシー,,その他の設立登記法人,鹿児島県,出水市,高尾野町大久保１５５番地２,,46,208,8990401,,,,,,,2022-08-29,1,,,,,ボナンザシー,0
1586,7370001048986,新規,0,2022-08-29,2022-08-29,株式会社グランキオ,,株式会社,宮城県,塩竈市,石堂５番８号,,04,203,9850031,,,,,,,2022-08-29,1,,,,,グランキオ,0
1587,7370003005812,新規,0,2022-08-29,2022-08-29,合同会社ハスラー,,合同会社,宮城県,仙台市宮城野区,鉄砲町２番地の２,,04,102,9830861,,,,,,,2022-08-29,1,,,,,ハスラー,0
1591,7410001013267,新規,0,2022-08-29,2022-08-29,株式会社きららオートモビル,,株式会社,秋田県,秋田市,柳田字柳田５９番地２,,05,201,0100825,,,,,,,2022-08-29,1,,,,,キララオートモビル,0
1598,7700150111536,新規,0,2022-08-29,2022-08-29,Ｎｉｎｇｂｏｓｈｉ　ＹｉｎＺｈｏｕ　Ｄｏｎｇｆａｎｇ　ｘｉｕｘｉａｎｙｏｎｇｐｉｎ　Ｃｏ．，Ｌｔｄ．,,外国会社等,,,,,,,,Ｊｉａｎｇｓｈａｎｚｈｅｎ　Ｋｅｊｉｙｕａｎｑｕ，Ｙｉｎｚｈｏｕｑｕ，Ｎｉｎｇｂｏｓｈｉ,,,,,,2022-08-29,1,,,,,ニンボーシインゾウドンフアンシユーシエンヨンピンカンパニーリミテツド,0
1622,8010701043124,新規,0,2022-08-29,2022-08-29,インフィニティフーズジャパン株式会社,,株式会社,東京都,品川区,大井１丁目３１番１号,,13,109,1400014,,,,,,,2022-08-29,1,,,,,インフィニティフーズジャパン,0
1623,8010801033231,新規,0,2022-08-29,2022-08-29,エムズコンサル株式会社,,株式会社,東京都,大田区,矢口２丁目２４番５号,,13,111,1460093,,,,,,,2022-08-29,1,,,,,エムズコンサル,0
1628,8010901051521,新規,0,2022-08-29,2022-08-29,ビルダブリッジ株式会社,,株式会社,東京都,世田谷区,世田谷１丁目４番１９号,,13,112,1540017,,,,,,,2022-08-29,1,,,,,ビルダブリッジ,0
1635,8011001149438,新規,0,2022-08-29,2022-08-29,株式会社ファントムデザイン,,株式会社,東京都,渋谷区,代々木５丁目１４番３－３０８号,,13,113,1510053,,,,,,,2022-08-29,1,,,,,ファントムデザイン,0
1645,8011101099979,新規,0,2022-08-29,2022-08-29,株式会社Ｒｉｐｔｉｄｅ　Ｓｔｕｄｉｏ,,株式会社,東京都,新宿区,新宿２丁目１３番１０号武蔵野ビル,,13,104,1600022,,,,,,,2022-08-29,1,,,,,リップタイドスタジオ,0
1646,8011101100011,新規,0,2022-08-29,2022-08-29,株式会社ＬＡＮＤＳ,,株式会社,東京都,新宿区,西新宿７丁目２１－９天翔西新宿ビル３０４,,13,104,1600023,,,,,,,2022-08-29,1,,,,,ランズ,0
1653,8011401024505,新規,0,2022-08-29,2022-08-29,株式会社ＪＢＰ,,株式会社,東京都,板橋区,高島平１丁目７９番３号,,13,119,1750082,,,,,,,2022-08-29,1,,,,,ジェイビーピー,0
1654,8011403003754,新規,0,2022-08-29,2022-08-29,合同会社陽暉,,合同会社,東京都,板橋区,高島平７丁目１９－１２－５０２,,13,119,1750082,,,,,,,2022-08-29,1,,,,,ヨウキ,0
1658,8011803005235,新規,0,2022-08-29,2022-08-29,合同会社ＳＯＬ,,合同会社,東京都,足立区,千住５丁目２７番１号ＣＡＳＡＲ北千住２０３,,13,121,1200034,,,,,,,2022-08-29,1,,,,,ソル,0
1663,8012703002520,新規,0,2022-08-29,2022-08-29,プロトタイプ合同会社,,合同会社,東京都,小平市,小川町２丁目１１５７－１２,,13,211,1870032,,,,,,,2022-08-29,1,,,,,プロトタイプ,0
1664,8012805003144,新規,0,2022-08-29,2022-08-29,特定非営利活動法人ＭｕｌｔｉＰｒｉｄｅ,,その他の設立登記法人,東京都,昭島市,緑町４丁目４番３３号グリーンヒルズ２０１号,,13,207,1960004,,,,,,,2022-08-29,1,,,,,マルチプライド,0
1675,8020001147962,新規,0,2022-08-29,2022-08-29,アミューズデザイン株式会社,,株式会社,神奈川県,横浜市戸塚区,戸塚町３５０８番地,,14,110,2440003,,,,,,,2022-08-29,1,,,,,アミューズデザイン,0
1684,8021001076846,新規,0,2022-08-29,2022-08-29,株式会社進道,,株式会社,神奈川県,座間市,相模が丘１丁目３５番６０号１０１号,,14,216,2520001,,,,,,,2022-08-29,1,,,,,シンドウ,0
1690,8030001149818,新規,0,2022-08-29,2022-08-29,株式会社ＨＯＬＬＹＧＯＯＤ,,株式会社,埼玉県,さいたま市南区,文蔵３丁目２９番地１０号,,11,108,3360025,,,,,,,2022-08-29,1,,,,,ハリグッド,0
1691,8030001149826,新規,0,2022-08-29,2022-08-29,鴻昇株式会社,,株式会社,埼玉県,戸田市,喜沢１丁目１５番地の１８,,11,224,3350013,,,,,,,2022-08-29,1,,,,,コウショウ,0
1701,8040003020703,新規,0,2022-08-29,2022-08-29,ＨＡＴＴＯ合同会社,,合同会社,千葉県,富里市,七栄５３２番地１９４さくらハイツＢ－１０２,,12,233,2860221,,,,,,,2022-08-29,1,,,,,ハット,0
1702,8040003020711,新規,0,2022-08-29,2022-08-29,ＡＡＬＡＡＰ合同会社,,合同会社,千葉県,市川市,行徳駅前１丁目２０番１８－１０３号（メゾン行徳駅前）,,12,203,2720133,,,,,,,2022-08-29,1,,,,,アラープ,0
1712,8050003006791,新規,0,2022-08-29,2022-08-29,合同会社結び,,合同会社,茨城県,稲敷郡阿見町,大字阿見２２２３番地４フェリーチェＥ棟,,08,443,3000331,,,,,,,2022-08-29,1,,,,,,0
1718,8080001025147,新規,0,2022-08-29,2022-08-29,株式会社ＲｅＴｉｍｅ,,株式会社,静岡県,静岡市清水区,梅が岡２番３６号,,22,103,4240938,,,,,,,2022-08-29,1,,,,,リタイム,0
1719,8080003002862,新規,0,2022-08-29,2022-08-29,Ｃｏｎｏｋｏ合同会社,,合同会社,静岡県,静岡市葵区,大岩町１１番１４号,,22,101,4200885,,,,,,,2022-08-29,1,,,,,コノコ,0
1745,8120003022344,新規,0,2022-08-29,2022-08-29,合同会社サクエム,,合同会社,大阪府,枚方市,黄金野２丁目９－２７,,27,210,5731145,,,,,,,2022-08-29,1,,,,,サクエム,0
1746,8120003022360,新規,0,2022-08-29,2022-08-29,アベイユ合同会社,,合同会社,大阪府,大阪市北区,浪花町１０－１４メゾン・ド・ゴトウ５０５号,,27,127,5300022,,,,,,,2022-08-29,1,,,,,アベイユ,0
1748,8120101066136,新規,0,2022-08-29,2022-08-29,株式会社フリーインダストリー,,株式会社,大阪府,岸和田市,中井町３丁目５番２０号,,27,202,5960003,,,,,,,2022-08-29,1,,,,,フリーインダストリー,0
1750,8120903004284,新規,0,2022-08-29,2022-08-29,合同会社鳳翔実業,,合同会社,大阪府,箕面市,牧落５丁目１番１３号,,27,220,5620004,,,,,,,2022-08-29,1,,,,,ホウショウジツギョウ,0
1753,8122001036202,新規,0,2022-08-29,2022-08-29,株式会社ハイフィールドオフィス,,株式会社,大阪府,東大阪市,横沼町１丁目１４番５号中西ビル３Ｆ,,27,227,5770808,,,,,,,2022-08-29,1,,,,,ハイフィールドオフィス,0
1754,8122003002409,新規,0,2022-08-29,2022-08-29,合同会社根っこや,,合同会社,大阪府,柏原市,大正３丁目１番３５号,,27,221,5820009,,,,,,,2022-08-29,1,,,,,ネッコヤ,0
1764,8140001127184,新規,0,2022-08-29,2022-08-29,株式会社アステック,,株式会社,兵庫県,神崎郡福崎町,西田原１７４７番地１,,28,443,6792204,,,,,,,2022-08-29,1,,,,,アステック,0
1774,8180001152773,新規,0,2022-08-29,2022-08-29,株式会社至柏,,株式会社,愛知県,名古屋市中区,新栄２丁目４０番６号グランルクレ新栄ウエスト７１２号,,23,106,4600007,,,,,,,2022-08-29,1,,,,,シハク,0
1789,8240001060268,新規,0,2022-08-29,2022-08-29,株式会社ＹＫプランニング,,株式会社,広島県,広島市中区,国泰寺町２丁目３－１８－１９０４,,34,101,7300042,,,,,,,2022-08-29,1,,,,,ワイケイプランニング,0
1792,8240003005766,新規,0,2022-08-29,2022-08-29,合同会社双和商店,,合同会社,広島県,東広島市,西条西本町１１番１－８０２号,,34,212,7390043,,,,,,,2022-08-29,1,,,,,フタワショウテン,0
1793,8250001019742,新規,0,2022-08-29,2022-08-29,いも太郎株式会社,,株式会社,山口県,下関市,富任町５丁目１番２４号,,35,201,7596613,,,,,,,2022-08-29,1,,,,,イモタロウ,0
1796,8260001037181,新規,0,2022-08-29,2022-08-29,しょうおう高原牧場株式会社,,株式会社,岡山県,勝田郡勝央町,植月中９０４番地,,33,622,7094335,,,,,,,2022-08-29,1,,,,,ショウオウコウゲンボクジョウ,0
1803,8290001098700,新規,0,2022-08-29,2022-08-29,株式会社イマココ,,株式会社,福岡県,筑後市,大字山ノ井２３３－４,,40,211,8330031,,,,,,,2022-08-29,1,,,,,イマココ,0
1804,8290001098709,新規,0,2022-08-29,2022-08-29,株式会社ユーアンドアイ,,株式会社,福岡県,福岡市博多区,那珂５丁目３番３６号,,40,132,8120893,,,,,,,2022-08-29,1,,,,,ユーアンドアイ,0
1808,8310003004430,新規,0,2022-08-29,2022-08-29,合同会社ｋｉｎｏｍｉ,,合同会社,長崎県,長崎市,金堀町８番２号,,42,201,8528026,,,,,,,2022-08-29,1,,,,,キノミ,0
1811,8330005010549,新規,0,2022-08-29,2022-08-29,医療法人ｌｉｎｏ‐ｓｍｉｌｅ,,その他の設立登記法人,熊本県,菊池郡菊陽町,大字津久礼字下沖野２９５０－１４,,43,404,8691101,,,,,,,2022-08-29,1,,,,,リノスマイル,0
1814,8360001030878,新規,0,2022-08-29,2022-08-29,株式会社Ｌｉｔｔｌｅ　Ｌｏｔｕｓ,,株式会社,沖縄県,那覇市,おもろまち１丁目１番２５－２１０２号,,47,201,9000006,,,,,,,2022-08-29,1,,,,,リトルロータス,0
1815,8360001030886,新規,0,2022-08-29,2022-08-29,株式会社東苑喜覚,,株式会社,沖縄県,那覇市,首里崎山町１丁目２６シャトレ照屋２０１,,47,201,9030814,,,,,,,2022-08-29,1,,,,,トウエンキカク,0
1820,8370001048985,新規,0,2022-08-29,2022-08-29,株式会社ＴＳＪ,,株式会社,宮城県,仙台市青葉区,八幡７丁目１０番１号,,04,101,9800871,,,,,,,2022-08-29,1,,,,,ティーエスジェー,0
1835,8450001013782,新規,0,2022-08-29,2022-08-29,株式会社リアライブ,,株式会社,北海道,旭川市,末広東一条３丁目１４８番地２３,,01,204,0718121,,,,,,,2022-08-29,1,,,,,リアライブ,0
1836,8470001019233,新規,0,2022-08-29,2022-08-29,株式会社マーズホーム,,株式会社,香川県,坂出市,高屋町４８４番地１,,37,203,7620017,,,,,,,2022-08-29,1,,,,,マーズホーム,0
1840,8700150111535,新規,0,2022-08-29,2022-08-29,Ｐｌａｙｄｏｔｓ，ＬＬＣ,,外国会社等,,,,,,,,４１６　Ｗ　１３ｔｈ　Ｓｔ，Ｓｕｉｔｅ　２０３，Ｎｅｗ　Ｙｏｒｋ，ＮＹ　１００１４，ＵＳＡ,,,,,,2022-08-29,1,,,,,プレイドツツエルエルシー,0
1858,9010003038490,新規,0,2022-08-29,2022-08-29,合同会社ｈｕｍｏｒｉｓｔｉｑｕｅ,,合同会社,東京都,中央区,銀座１丁目２２番１１号銀座大竹ビジデンス２階,,13,102,1040061,,,,,,,2022-08-29,1,,,,,ユーモリスティック,0
1868,9010401169342,新規,0,2022-08-29,2022-08-29,株式会社くすのき不動産コンサルティング,,株式会社,東京都,港区,赤坂４丁目８番１９号赤坂フロントタウン３階,,13,103,1070052,,,,,,,2022-08-29,1,,,,,クスノキフドウサンコンサルティング,0
1869,9010401169391,新規,0,2022-08-29,2022-08-29,耀陽商事株式会社,,株式会社,東京都,港区,南青山４丁目１７番１３号１０５室,,13,103,1070062,,,,,,,2022-08-29,1,,,,,ヨウヨウショウジ,0
1870,9010401169433,新規,0,2022-08-29,2022-08-29,株式会社めろめろ,,株式会社,東京都,港区,虎ノ門１丁目１７番１号虎ノ門ヒルズビジネスタワー５階,,13,103,1050001,,,,,,,2022-08-29,1,,,,,メロメロ,0
1876,9010405021243,新規,0,2022-08-29,2022-08-29,一般社団法人シンシキプロファイラー研究所,,その他の設立登記法人,東京都,港区,虎ノ門３丁目８番２５号日総第２３ビル８０３,,13,103,1050001,,,,,,,2022-08-29,1,,,,,シンシキプロファイラーケンキュウショ,0
1883,9010701043115,新規,0,2022-08-29,2022-08-29,株式会社望月商店,,株式会社,東京都,品川区,西五反田７丁目１３番５号ＤＫ五反田４１７号室,,13,109,1410031,,,,,,,2022-08-29,1,,,,,モチヅキショウテン,0
1890,9010901051479,新規,0,2022-08-29,2022-08-29,株式会社Ａｌｍｏｎｄ　Ｄｅｓｉｇｎ,,株式会社,東京都,世田谷区,玉川台２丁目２１－１５フレップ１０３号室,,13,112,1580096,,,,,,,2022-08-29,1,,,,,アーモンドデザイン,0
1891,9010901051520,新規,0,2022-08-29,2022-08-29,株式会社ＲＥ・Ｈ,,株式会社,東京都,世田谷区,宮坂１丁目３８番１９号,,13,112,1560051,,,,,,,2022-08-29,1,,,,,アールイーエイチ,0
1892,9010901051529,新規,0,2022-08-29,2022-08-29,株式会社ＢＩＧ．Ｊ,,株式会社,東京都,世田谷区,岡本３丁目１３番７号,,13,112,1570076,,,,,,,2022-08-29,1,,,,,ビッグジェイ,0
1896,9011001149420,新規,0,2022-08-29,2022-08-29,株式会社Ａｍａｚｉｎｇ　Ｅｎｔｅｒｔａｉｎｍｅｎｔ,,株式会社,東京都,渋谷区,渋谷２丁目１０番１５号,,13,113,1500002,,,,,,,2022-08-29,1,,,,,アメイジングエンターテインメント,0
1897,9011001149429,新規,0,2022-08-29,2022-08-29,株式会社ｆｌｏｗ,,株式会社,東京都,渋谷区,代々木４丁目２５番１－５０３号,,13,113,1510053,,,,,,,2022-08-29,1,,,,,フロー,0
1898,9011001149437,新規,0,2022-08-29,2022-08-29,株式会社ＨＩＲＯエンタープライズ,,株式会社,東京都,目黒区,緑が丘１丁目６番９号,,13,110,1520034,,,,,,,2022-08-29,1,,,,,ヒロエンタープライズ,0
1902,9011101099986,新規,0,2022-08-29,2022-08-29,Ｐｏｐｐｙ株式会社,,株式会社,東京都,新宿区,西新宿１丁目４番１１号全研プラザＳＰＡＣＥＳ新宿,,13,104,1600023,,,,,,,2022-08-29,1,,,,,ポピー,0
1903,9011101100010,新規,0,2022-08-29,2022-08-29,ＰＲＯＣＣＡ　Ｃｏｎｓｕｌｔ　Ｊａｐａｎ株式会社,,株式会社,東京都,新宿区,高田馬場１丁目３２－１０,,13,104,1690075,,,,,,,2022-08-29,1,,,,,プロカコンサルトジャパン,0
1906,9011103012105,新規,0,2022-08-29,2022-08-29,合同会社シーアイエスホールディングス,,合同会社,東京都,新宿区,西早稲田１丁目８番１９号,,13,104,1690051,,,,,,,2022-08-29,1,,,,,シーアイエスホールディングス,0
1908,9011201024068,新規,0,2022-08-29,2022-08-29,株式会社ｋｉｎｈａｇｅ,,株式会社,東京都,中野区,新井２丁目１５－６ｅｕｐｈｏｒｉａ中野３０２,,13,114,1650026,,,,,,,2022-08-29,1,,,,,キンハゲ,0
1920,9011803005234,新規,0,2022-08-29,2022-08-29,合同会社サンフラワー,,合同会社,東京都,足立区,東綾瀬１丁目２９番５－２０２号,,13,121,1200004,,,,,,,2022-08-29,1,,,,,サンフラワー,0
1923,9012403005558,新規,0,2022-08-29,2022-08-29,東家商店合同会社,,合同会社,東京都,三鷹市,北野４丁目５番４１号,,13,204,1810003,,,,,,,2022-08-29,1,,,,,トウヤショウテン,0
1941,9021001076845,新規,0,2022-08-29,2022-08-29,株式会社Ａｒｃｈ　Ｒｉｓｅ　Ｃｏｍｍｕｎｉｃａｔｉｏｎｓ,,株式会社,神奈川県,大和市,福田７丁目１２番地２７,,14,213,2420024,,,,,,,2022-08-29,1,,,,,アーチライズコミュニケーションズ,0
1960,9040001124827,新規,0,2022-08-29,2022-08-29,株式会社よつば,,株式会社,千葉県,松戸市,新松戸３丁目３番地１,,12,207,2700034,,,,,,,2022-08-29,1,,,,,ヨツバ,0
1971,9050001051599,新規,0,2022-08-29,2022-08-29,三協株式会社,,株式会社,茨城県,常総市,本石下３番１,,08,211,3002707,,,,,,,2022-08-29,1,,,,,サンキョウ,0
1972,9070001039576,新規,0,2022-08-29,2022-08-29,株式会社宇宙,,株式会社,群馬県,高崎市,中尾町１２５２番地１０号,,10,202,3700001,,,,,,,2022-08-29,1,,,,,ソラ,0
1977,9070003004578,新規,0,2022-08-29,2022-08-29,アグリサービス合同会社,,合同会社,群馬県,邑楽郡邑楽町,大字中野４９０６－４,,10,525,3700603,,,,,,,2022-08-29,1,,,,,アグリサービス,0
1978,9080001025146,新規,0,2022-08-29,2022-08-29,株式会社山電,,株式会社,静岡県,島田市,竹下４９９番地の３,,22,209,4280008,,,,,,,2022-08-29,1,,,,,ヤマデン,0
1979,9080001025154,新規,0,2022-08-29,2022-08-29,株式会社さわ不動産,,株式会社,静岡県,静岡市駿河区,下島１８８番地の１コーポラス下島１０３号室,,22,102,4228037,,,,,,,2022-08-29,1,,,,,サワフドウサン,0
1982,9080005007479,新規,0,2022-08-29,2022-08-29,社会保険労務士法人小倉事務所,,その他の設立登記法人,静岡県,焼津市,焼津４丁目１３番１７号,,22,212,4250026,,,,,,,2022-08-29,1,,,,,オグラジムショ,0
1983,9080101023495,新規,0,2022-08-29,2022-08-29,株式会社ＭＫＬＩＦＥ,,株式会社,静岡県,伊東市,川奈１２２５番地の１３５,,22,208,4140044,,,,,,,2022-08-29,1,,,,,エムケイライフ,0
2004,9120001248460,新規,0,2022-08-29,2022-08-29,頂川株式会社,,株式会社,大阪府,大阪市東成区,深江北３丁目４番２１号エクラ深江橋６０７Ａ,,27,115,5370001,,,,,,,2022-08-29,1,,,,,チョウカワ,0
2012,9120901046410,新規,0,2022-08-29,2022-08-29,株式会社総建,,株式会社,大阪府,高槻市,梶原６丁目５番８号,,27,207,5690091,,,,,,,2022-08-29,1,,,,,ソウケン,0
2020,9130001072505,新規,0,2022-08-29,2022-08-29,株式会社Ｏｖｅｒｌａｐ,,株式会社,京都府,宇治市,小倉町堀池１２－３０,,26,204,6110042,,,,,,,2022-08-29,1,,,,,オーバーラップ,0
2021,9130001072513,新規,0,2022-08-29,2022-08-29,株式会社コムピーク,,株式会社,京都府,宇治市,小倉町南堀池５６－３９,,26,204,6110042,,,,,,,2022-08-29,1,,,,,コムピーク,0
2023,9130003008151,新規,0,2022-08-29,2022-08-29,ｉｔａｋ合同会社,,合同会社,京都府,京都市左京区,一乗寺里ノ西町５７番地,,26,103,6068115,,,,,,,2022-08-29,1,,,,,イタック,0
2034,9180003024193,新規,0,2022-08-29,2022-08-29,マミー合同会社,,合同会社,愛知県,西春日井郡豊山町,大字豊場字四ツ塚６１番地１,,23,342,4800202,,,,,,,2022-08-29,1,,,,,マミー,0
2036,9180301036576,新規,0,2022-08-29,2022-08-29,岡崎ビール株式会社,,株式会社,愛知県,岡崎市,竜美東３丁目１２番地１４,,23,202,4440878,,,,,,,2022-08-29,1,,,,,オカザキビール,0
2040,9230001019504,新規,0,2022-08-29,2022-08-29,株式会社オフィスアンサー,,株式会社,富山県,富山市,黒瀬２９８番地１ＩＢＢビル３０１号室,,16,201,9398213,,,,,,,2022-08-29,1,,,,,オフィスアンサー,0
2042,9240001060275,新規,0,2022-08-29,2022-08-29,株式会社日亀屋,,株式会社,広島県,広島市安佐南区,東野１丁目２１番４７号,,34,105,7310111,,,,,,,2022-08-29,1,,,,,ヒガメヤ,0
2043,9240005015440,新規,0,2022-08-29,2022-08-29,一般社団法人つないだ手と手,,その他の設立登記法人,広島県,広島市西区,古江新町１１番１５号,,34,104,7330873,,,,,,,2022-08-29,1,,,,,ツナイダテトテ,0
2047,9260001037180,新規,0,2022-08-29,2022-08-29,株式会社ＧＮＷホールディングス,,株式会社,岡山県,岡山市南区,植松４８７番地,,33,104,7100151,,,,,,,2022-08-29,1,,,,,ジーエヌダブリュホールディングス,0
2055,9290003012872,新規,0,2022-08-29,2022-08-29,合同会社シアライズ,,合同会社,福岡県,みやま市,瀬高町上庄５２１－１,,40,229,8350025,,,,,,,2022-08-29,1,,,,,シアライズ,0
2056,9290003012889,新規,0,2022-08-29,2022-08-29,合同会社筑後建設,,合同会社,福岡県,筑後市,大字西牟田６３９３番地６,,40,211,8330053,,,,,,,2022-08-29,1,,,,,チクゴケンセツ,0
2060,9290801028847,新規,0,2022-08-29,2022-08-29,株式会社ＺＥＲＵＣＨ　ＩＮＦＩＮＩＴＹ,,株式会社,福岡県,北九州市小倉南区,日の出町１丁目３番２０号,,40,107,8020842,,,,,,,2022-08-29,1,,,,,ゼルクインフィニティ,0
2072,9350003004153,新規,0,2022-08-29,2022-08-29,ＷＩＮ．Ｄ合同会社,,合同会社,宮崎県,東諸県郡国富町,大字本庄４７１８番地７,,45,382,8801101,,,,,,,2022-08-29,1,,,,,ウィンド,0
2081,9390001017005,新規,0,2022-08-29,2022-08-29,株式会社ＬＵＣＫＹ　ＫＥＮＳＯ,,株式会社,山形県,上山市,金谷７６番地,,06,207,9993103,,,,,,,2022-08-29,1,,,,,ラッキーケンソー,0
2091,9470003002236,新規,0,2022-08-29,2022-08-29,合同会社ＴＥＮ,,合同会社,香川県,高松市,鬼無町佐藤６５番地１,,37,201,7618023,,,,,,,2022-08-29,1,,,,,テン,0
2094,9500001024427,新規,0,2022-08-29,2022-08-29,株式会社とじまかしまＦａｒｍ,,株式会社,愛媛県,宇和島市,寄松甲１３８５番地,,38,203,7980084,,,,,,,2022-08-29,1,,,,,トジマカシマファーム,0
2096,9700150111360,新規,0,2022-08-29,2022-08-19,生涯活躍のまち静岡推進協議会,,その他,静岡県,静岡市葵区,追手町５番１号,,22,101,4200853,,,,,,,2022-08-19,1,,,,,シヨウガイカツヤクノマチシズオカスイシンキヨウギカイ,0
2097,9700150111534,新規,0,2022-08-29,2022-08-29,Ｇｌｏｂａｌ　Ｐｏｗｅｒ　Ｓｙｎｅｒｇｙ　Ｐｕｂｌｉｃ　Ｃｏｍｐａｎｙ　Ｌｉｍｉｔｅｄ,,外国会社等,,,,,,,,Ｖｉｂｈｖａｄｉ－Ｒａｎｇｓｉｔ　Ｒｏａｄ，Ｋｗａｅｎｇ　Ｃｈａｔｕｃｈａｋ，Ｋｈｅｔ　Ｃｈａｔｕｃｈａｋ，Ｂａｎｇｋｏｋ，Ｔｈａｉｌａｎｄ,,,,,,2022-08-29,1,,,,,グローバルパワーシナジーパブリツクカンパニーリミテッド,0
