sequenceNumber,corporateNumber,process,correct,updateDate,changeDate,name,nameImageId,kind,prefectureName,cityName,streetNumber,addressImageId,prefectureCode,cityCode,postCode,addressOutside,addressOutsideImageId,closeDate,closeCause,successorCorporateNumber,changeCause,assignmentDate,latest,enName,enPrefectureName,enCityName,enAddressOutside,furigana,hihyoji
10,1010001230395,新規,0,2022-10-28,2022-10-28,ＧＬＯＷ　ＪＡＰＡＮ株式会社,,株式会社,東京都,中央区,銀座８丁目１０番４号６階,,13,102,1040061,,,,,,,2022-10-28,1,,,,,グロウジャパン,0
11,1010003038944,新規,0,2022-10-28,2022-10-28,合同会社ＺＥＨＰＪ３,,合同会社,東京都,中央区,銀座４丁目６番１号三幸オフィスマネジメント株式会社内,,13,102,1040061,,,,,,,2022-10-28,1,,,,,ゼッチピージェースリー,0
12,1010005035717,新規,0,2022-10-28,2022-10-28,一般社団法人ＫＳＦＲ４,,その他の設立登記法人,東京都,千代田区,内幸町２丁目１番６号,,13,101,1000011,,,,,,,2022-10-28,1,,,,,ケイエスエフアールフォー,0
18,1010401170464,新規,0,2022-10-28,2022-10-28,株式会社ＢＩＳＣＯコンサルティングファーム,,株式会社,東京都,港区,六本木４丁目３番１１号六本木ユニハウス２２３,,13,103,1060032,,,,,,,2022-10-28,1,,,,,ビスココンサルティングファーム,0
19,1010401170506,新規,0,2022-10-28,2022-10-28,株式会社ｍｏｕ,,株式会社,東京都,港区,南青山１丁目１４番７号ＢＥＬＬＥＭＡＩＳＯＮ２０２,,13,103,1070062,,,,,,,2022-10-28,1,,,,,ムー,0
25,1010601062073,新規,0,2022-10-28,2022-10-28,娯楽のすゝめ株式会社,,株式会社,東京都,墨田区,向島３丁目３９番１２号パークアクシス押上テラス９１０,,13,107,1310033,,,,,,,2022-10-28,1,,,,,ゴラクノススメ,0
26,1010603009799,新規,0,2022-10-28,2022-10-28,アイファイ合同会社,,合同会社,東京都,墨田区,東向島１丁目１８番１５号,,13,107,1310032,,,,,,,2022-10-28,1,,,,,アイファイ,0
27,1010603009808,新規,0,2022-10-28,2022-10-28,Ｌｕｐｉｎｕｓ合同会社,,合同会社,東京都,墨田区,文花１丁目１８－１３,,13,107,1310044,,,,,,,2022-10-28,1,,,,,ルピナス,0
28,1010705003444,新規,0,2022-10-28,2022-10-28,一般社団法人パルクール鬼ごっこ協会,,その他の設立登記法人,東京都,品川区,西五反田８丁目６番１５号,,13,109,1410031,,,,,,,2022-10-28,1,,,,,パルクールオニゴッコキョウカイ,0
30,1010803004328,新規,0,2022-10-28,2022-10-28,合同会社ＯＴＡＭＯＴＯ,,合同会社,東京都,大田区,大森中１丁目１０番７号４０１号室,,13,111,1430014,,,,,,,2022-10-28,1,,,,,オタモト,0
34,1011001150526,新規,0,2022-10-28,2022-10-28,エバーホールディングス株式会社,,株式会社,東京都,渋谷区,道玄坂１丁目１８番３号,,13,113,1500043,,,,,,,2022-10-28,1,,,,,エバーホールディングス,0
35,1011001150550,新規,0,2022-10-28,2022-10-28,株式会社なぎさ,,株式会社,東京都,渋谷区,千駄ヶ谷１丁目１３－１１ＪＦ千駄ヶ谷４階,,13,113,1510051,,,,,,,2022-10-28,1,,,,,ナギサ,0
38,1011101100661,新規,0,2022-10-28,2022-10-28,株式会社ＴＯＰ　ＦＯＣＵＳ,,株式会社,東京都,新宿区,西新宿３丁目３番１３号西新宿水間ビル６Ｆ,,13,104,1600023,,,,,,,2022-10-28,1,,,,,トップフォーカス,0
39,1011103012310,新規,0,2022-10-28,2022-10-28,合同会社リンクス,,合同会社,東京都,新宿区,西新宿３丁目３番１３号西新宿水間ビル２Ｆ,,13,104,1600023,,,,,,,2022-10-28,1,,,,,リンクス,0
46,1011503005343,新規,0,2022-10-28,2022-10-28,ＳＡＲＫＥＲ　ＩＮＴＥＲＮＡＴＩＯＮＡＬ合同会社,,合同会社,東京都,北区,中十条３丁目１２番地９エムワンビル２０１号室,,13,117,1140032,,,,,,,2022-10-28,1,,,,,サルケルインターナショナル,0
48,1011701025738,新規,0,2022-10-28,2022-10-28,株式会社ｏｎｅ８,,株式会社,東京都,江戸川区,清新町２丁目４番２号,,13,123,1340087,,,,,,,2022-10-28,1,,,,,ワンエイト,0
49,1011803005332,新規,0,2022-10-28,2022-10-28,合同会社Ｎａ‐Ｃｈｏｒｄ,,合同会社,東京都,足立区,西新井７丁目５番２０－３０５号,,13,121,1230841,,,,,,,2022-10-28,1,,,,,ナコード,0
50,1011803005340,新規,0,2022-10-28,2022-10-28,合同会社リトルスター,,合同会社,東京都,葛飾区,高砂１丁目１２番１４号,,13,122,1250054,,,,,,,2022-10-28,1,,,,,リトルスター,0
52,1012701017320,新規,0,2022-10-28,2022-10-28,ＦＭメディカルジャパン株式会社,,株式会社,東京都,清瀬市,中清戸２丁目６９０番地６,,13,221,2040012,,,,,,,2022-10-28,1,,,,,エフエムメディカルジャパン,0
53,1012801021916,新規,0,2022-10-28,2022-10-28,株式会社Ｋｎｏｃｋ　Ｕｐ　Ｓｔｒｅａｍ,,株式会社,東京都,国立市,青柳２丁目１０番地の３６ハル・ヴィレッジ１０２,,13,215,1860013,,,,,,,2022-10-28,1,,,,,ノックアップストリーム,0
55,1013101009040,新規,0,2022-10-28,2022-10-28,興盛株式会社,,株式会社,東京都,福生市,南田園１丁目９－１１パークハイツ田園１０２,,13,218,1970004,,,,,,,2022-10-28,1,,,,,コウセイ,0
67,1020001148703,新規,0,2022-10-28,2022-10-28,株式会社ＹＥＬＬＯＷ,,株式会社,神奈川県,横浜市神奈川区,栄町５番地１横浜クリエーションスクエア１４階,,14,102,2210052,,,,,,,2022-10-28,1,,,,,イエロー,0
84,1030001150781,新規,0,2022-10-28,2022-10-28,株式会社エイチエス,,株式会社,埼玉県,さいたま市北区,土呂町２丁目８６番地１５,,11,102,3310804,,,,,,,2022-10-28,1,,,,,エイチエス,0
91,1040001125568,新規,0,2022-10-28,2022-10-28,Ｔ＆Ｐ　ＪＡＰＡＮ株式会社,,株式会社,千葉県,船橋市,習志野台２丁目７２番１７号,,12,204,2740063,,,,,,,2022-10-28,1,,,,,ティーアンドピージャパン,0
98,1050001051870,新規,0,2022-10-28,2022-10-28,株式会社ＲＡＮＫ,,株式会社,茨城県,水戸市,千波町２８３０番地の５,,08,201,3100851,,,,,,,2022-10-28,1,,,,,ランク,0
106,1080101023593,新規,0,2022-10-28,2022-10-28,株式会社静城,,株式会社,静岡県,沼津市,高沢町９番１号高沢パークヒルズ３０３号,,22,203,4100057,,,,,,,2022-10-28,1,,,,,セイジョウ,0
110,1080401026123,新規,0,2022-10-28,2022-10-28,株式会社コトコミュニティ,,株式会社,静岡県,浜松市南区,三島町７９６番地,,22,134,4300853,,,,,,,2022-10-28,1,,,,,コトコミュニティ,0
113,1100001035819,新規,0,2022-10-28,2022-10-28,株式会社ＦＳトレーディング,,株式会社,長野県,長野市,松岡２丁目４番４７号,,20,201,3810026,,,,,,,2022-10-28,1,,,,,エフエストレーディング,0
131,1120001249813,新規,0,2022-10-28,2022-10-28,ジーエイチ株式会社,,株式会社,大阪府,大阪市浪速区,難波中３丁目１２番３－１１０３号,,27,111,5560011,,,,,,,2022-10-28,1,,,,,ジーエイチ,0
132,1120001249870,新規,0,2022-10-28,2022-10-28,株式会社タスクトラスト,,株式会社,大阪府,大阪市北区,紅梅町２－６昭和ビル３０１号室,,27,127,5300038,,,,,,,2022-10-28,1,,,,,タスクトラスト,0
139,1120101066431,新規,0,2022-10-28,2022-10-28,ハマグチ株式会社,,株式会社,大阪府,堺市北区,北花田町２丁２０６番地５,,27,146,5918002,,,,,,,2022-10-28,1,,,,,ハマグチ,0
146,1130003008274,新規,0,2022-10-28,2022-10-28,合同会社オーミン,,合同会社,京都府,京都市中京区,中島町９０－２フェリチタ三条木屋町９階／１０階,,26,104,6048004,,,,,,,2022-10-28,1,,,,,オーミン,0
151,1140001127827,新規,0,2022-10-28,2022-10-28,株式会社ｓｅａｓｉｄｅ　ｈｕｂ,,株式会社,兵庫県,洲本市,五色町都志５０番地,,28,205,6561301,,,,,,,2022-10-28,1,,,,,シーサイドハブ,0
152,1140001127835,新規,0,2022-10-28,2022-10-28,株式会社ＩＺＵＭＩ塗装,,株式会社,兵庫県,尼崎市,西昆陽２丁目８番２４号,,28,202,6610047,,,,,,,2022-10-28,1,,,,,イズミトソウ,0
153,1140001127843,新規,0,2022-10-28,2022-10-28,株式会社ＭＯＲＥ,,株式会社,兵庫県,美方郡香美町,香住区香住１２７７番地の１,,28,585,6696544,,,,,,,2022-10-28,1,,,,,モア,0
154,1140001127851,新規,0,2022-10-28,2022-10-28,株式会社くにひろ農産,,株式会社,兵庫県,多可郡多可町,加美区山口４８番地,,28,365,6791325,,,,,,,2022-10-28,1,,,,,クニヒロノウサン,0
160,1150003002804,新規,0,2022-10-28,2022-10-28,合同会社ＹＴＢ,,合同会社,奈良県,生駒郡平群町,光ケ丘１丁目５－１６,,29,342,6360935,,,,,,,2022-10-28,1,,,,,ワイティービー,0
163,1160001024592,新規,0,2022-10-28,2022-10-28,株式会社ＦＬＯＲＡ　ＦＥＲＭＥＮＴＡＴＩＯＮ,,株式会社,滋賀県,東近江市,北花沢町２９４番地,,25,213,5270111,,,,,,,2022-10-28,1,,,,,フローラファーメンテーション,0
170,1180001153555,新規,0,2022-10-28,2022-10-28,株式会社山恵建設,,株式会社,愛知県,あま市,七宝町川部四反田４９,,23,237,4970013,,,,,,,2022-10-28,1,,,,,サンケイケンセツ,0
174,1180003024408,新規,0,2022-10-28,2022-10-28,合同会社プラスファ,,合同会社,愛知県,名古屋市南区,本地通３丁目１０番地５バンベール本地通１０１,,23,112,4570074,,,,,,,2022-10-28,1,,,,,プラスファ,0
182,1200001040585,新規,0,2022-10-28,2022-10-28,株式会社岩井設計事務所,,株式会社,岐阜県,揖斐郡池田町,六之井４３４－３,,21,404,5032425,,,,,,,2022-10-28,1,,,,,イワイセッケイジムショ,0
183,1200001040593,新規,0,2022-10-28,2022-10-28,株式会社ＹＭＳ,,株式会社,岐阜県,羽島郡岐南町,上印食８丁目１１１番地,,21,302,5016001,,,,,,,2022-10-28,1,,,,,ワイエムエス,0
186,1220001025106,新規,0,2022-10-28,2022-10-28,株式会社ＴＫ,,株式会社,石川県,小松市,南浅井町イ１２８‐１‐１０２,,17,203,9230852,,,,,,,2022-10-28,1,,,,,ティーケ,0
188,1240001060555,新規,0,2022-10-28,2022-10-28,株式会社Ｒｉｓｉｎ,,株式会社,広島県,広島市西区,楠木町２丁目６番７－２０１号,,34,104,7330002,,,,,,,2022-10-28,1,,,,,リシン,0
189,1240001060563,新規,0,2022-10-28,2022-10-28,ｉｔｓｕｋａ　ＫＩＴ　ＤＥＳＩＧＮ株式会社,,株式会社,広島県,広島市佐伯区,五日市中央４丁目１６番７－７０１号,,34,108,7315128,,,,,,,2022-10-28,1,,,,,イツカキットデザイン,0
196,1260003004079,新規,0,2022-10-28,2022-10-28,合同会社ＴＫＯアクア,,合同会社,岡山県,倉敷市,児島上の町３４２５番地２６,,33,202,7110907,,,,,,,2022-10-28,1,,,,,ティーケーオーアクア,0
202,1290001099333,新規,0,2022-10-28,2022-10-28,Ａ＆Ｓ株式会社,,株式会社,福岡県,糟屋郡篠栗町,大字若杉２０番地１,,40,342,8112411,,,,,,,2022-10-28,1,,,,,エーアンドエス,0
203,1290001099358,新規,0,2022-10-28,2022-10-28,株式会社エフ・プラス,,株式会社,福岡県,福岡市中央区,大名２丁目１２番１５号７階,,40,133,8100041,,,,,,,2022-10-28,1,,,,,エフプラス,0
204,1290001099366,新規,0,2022-10-28,2022-10-28,株式会社小石原エステート,,株式会社,福岡県,福岡市早良区,南庄２丁目１番１号小石原ビル１０９号,,40,137,8140031,,,,,,,2022-10-28,1,,,,,コイシハラエステート,0
205,1290001099374,新規,0,2022-10-28,2022-10-28,株式会社ＩＲＥＭ２,,株式会社,福岡県,福岡市東区,箱崎１丁目６番１６号,,40,131,8120053,,,,,,,2022-10-28,1,,,,,アイアールイーエムニ,0
209,1290005018842,新規,0,2022-10-28,2022-10-28,ＮＰＯ法人咲良,,その他の設立登記法人,福岡県,糟屋郡志免町,南里３丁目１１番５号,,40,343,8112207,,,,,,,2022-10-28,1,,,,,サクラ,0
210,1290801028986,新規,0,2022-10-28,2022-10-28,ＢＥ　ＫＮＯＴ株式会社,,株式会社,福岡県,北九州市小倉南区,下吉田３丁目１３番２１号,,40,107,8000203,,,,,,,2022-10-28,1,,,,,ビーノット,0
212,1300001013110,新規,0,2022-10-28,2022-10-28,あおき農園株式会社,,株式会社,佐賀県,唐津市,半田２４５３番地,,41,202,8470023,,,,,,,2022-10-28,1,,,,,アオキノウエン,0
214,1320001019394,新規,0,2022-10-28,2022-10-28,株式会社藤田組,,株式会社,大分県,大分市,大字金谷迫１５５４番地の２,,44,201,8700879,,,,,,,2022-10-28,1,,,,,フジタグミ,0
215,1320003003933,新規,0,2022-10-28,2022-10-28,合同会社ＳＰＥＣ建設,,合同会社,大分県,大分市,東原１丁目１３番６号,,44,201,8700150,,,,,,,2022-10-28,1,,,,,スペックケンセツ,0
218,1330001030227,新規,0,2022-10-28,2022-10-28,株式会社６０‐０８,,株式会社,熊本県,熊本市南区,白石町２７８番地１,,43,104,8615264,,,,,,,2022-10-28,1,,,,,ロクマル,0
225,1370001049180,新規,0,2022-10-28,2022-10-28,株式会社八木組,,株式会社,宮城県,東松島市,牛網字駅前二丁目３２番地１４,,04,214,9810301,,,,,,,2022-10-28,1,,,,,ヤギグミ,0
227,1370005010543,新規,0,2022-10-28,2022-10-28,一般社団法人大川竹あかり,,その他の設立登記法人,宮城県,石巻市,針岡字昭和２２６番地１,,04,202,9860114,,,,,,,2022-10-28,1,,,,,オオカワタケアカリ,0
231,1380001033209,新規,0,2022-10-28,2022-10-28,株式会社ＣｏＮｅｔ,,株式会社,福島県,郡山市,島２丁目８番３０号,,07,203,9638034,,,,,,,2022-10-28,1,,,,,,0
235,1430001087736,新規,0,2022-10-28,2022-10-28,株式会社リソー,,株式会社,北海道,札幌市白石区,東札幌二条６丁目５番１－５０１号,,01,104,0030002,,,,,,,2022-10-28,1,,,,,リソー,0
245,1700150107589,新規,0,2022-10-28,2022-03-31,スタジオパフォ,,その他,沖縄県,那覇市,久茂地２丁目４番１６号,,47,201,9000015,,,,,,,2022-03-31,1,,,,,スタジオパフオ,0
256,2010001230394,新規,0,2022-10-28,2022-10-28,株式会社ｉｎｔｅｒｖｏｉｃｅ,,株式会社,東京都,千代田区,九段南１丁目５番６号りそな九段ビル５階ＫＳフロア,,13,101,1020074,,,,,,,2022-10-28,1,,,,,インターボイス,0
257,2010003038919,新規,0,2022-10-28,2022-10-28,合同会社プランニング・デポ社,,合同会社,東京都,千代田区,神田須田町１丁目２４－２１加瀬ビル９０６号室,,13,101,1010041,,,,,,,2022-10-28,1,,,,,プランニングデポシャ,0
258,2010003038943,新規,0,2022-10-28,2022-10-28,合同会社ＺＥＨＰＪ２,,合同会社,東京都,中央区,銀座４丁目６番１号三幸オフィスマネジメント株式会社内,,13,102,1040061,,,,,,,2022-10-28,1,,,,,ゼッチピージェーツー,0
259,2010005035716,新規,0,2022-10-28,2022-10-28,一般財団法人野田育英財団,,その他の設立登記法人,東京都,中央区,京橋２丁目４番１５号,,13,102,1040031,,,,,,,2022-10-28,1,,,,,ノダイクエイザイダン,0
260,2010101015381,新規,0,2022-10-28,2022-10-28,株式会社広源,,株式会社,東京都,八王子市,寺田町１１２０－１,,13,201,1930943,,,,,,,2022-10-28,1,,,,,コウゲン,0
261,2010103002015,新規,0,2022-10-28,2022-10-28,ＳＡＷＡ　ＧＲＯＵＰ合同会社,,合同会社,東京都,八王子市,東中野２０００－４テラスＫ＆Ｋ２０１,,13,201,1920351,,,,,,,2022-10-28,1,,,,,サワグループ,0
269,2010401170521,新規,0,2022-10-28,2022-10-28,株式会社ＲＩＡＮ　ＣＡＲＲＹ,,株式会社,東京都,港区,東麻布２丁目４番２号,,13,103,1060044,,,,,,,2022-10-28,1,,,,,ライアンキャリー,0
272,2010403028759,新規,0,2022-10-28,2022-10-28,合同会社トライトラスト,,合同会社,東京都,港区,西麻布４丁目１１－２９西麻布ヒルズ３階,,13,103,1060031,,,,,,,2022-10-28,1,,,,,トライトラスト,0
274,2010501049558,新規,0,2022-10-28,2022-10-28,株式会社ＫＡＷＡＩＩ　ＨＯＬＤＩＮＧＳ,,株式会社,東京都,台東区,上野３丁目１２番２号２Ｆ,,13,106,1100005,,,,,,,2022-10-28,1,,,,,カワイイホールディングス,0
277,2010601062064,新規,0,2022-10-28,2022-10-28,株式会社Ｇｒｏｗｔｈ,,株式会社,東京都,江東区,富岡１丁目４番１４号櫛原ビル１Ｆ,,13,108,1350047,,,,,,,2022-10-28,1,,,,,グロース,0
279,2010603009807,新規,0,2022-10-28,2022-10-28,合同会社ＴＯＫＩ,,合同会社,東京都,江東区,亀戸２丁目６－３０－５１６,,13,108,1360071,,,,,,,2022-10-28,1,,,,,トキ,0
291,2011001150525,新規,0,2022-10-28,2022-10-28,株式会社おもすく,,株式会社,東京都,渋谷区,渋谷２丁目１９－１５宮益坂ビルディング６０９,,13,113,1500002,,,,,,,2022-10-28,1,,,,,オモスク,0
292,2011001150590,新規,0,2022-10-28,2022-10-28,株式会社Ｅｎａｇｅ,,株式会社,東京都,渋谷区,道玄坂１丁目１０番８号渋谷道玄坂東急ビル２Ｆ－Ｃ,,13,113,1500043,,,,,,,2022-10-28,1,,,,,エネージ,0
293,2011003015602,新規,0,2022-10-28,2022-10-28,合同会社ウェルパスト,,合同会社,東京都,目黒区,目黒本町２丁目９番８－３０１,,13,110,1520002,,,,,,,2022-10-28,1,,,,,ウェルパスト,0
299,2011101100660,新規,0,2022-10-28,2022-10-28,株式会社Ｌｅｏｎ　Ｇａｍｅｗｏｒｋｓ,,株式会社,東京都,新宿区,西新宿３丁目３番１３号西新宿水間ビル２Ｆ,,13,104,1600023,,,,,,,2022-10-28,1,,,,,レオンゲームワークス,0
300,2011103012276,新規,0,2022-10-28,2022-10-28,ＰＨＡＭ　ＤＵＯＮＧ　ＭＯＢＩＬＥ合同会社,,合同会社,東京都,新宿区,高田馬場３丁目１番５サンパティオ高田馬場５２１号,,13,104,1690075,,,,,,,2022-10-28,1,,,,,ファンドゥオンモバイル,0
301,2011103012301,新規,0,2022-10-28,2022-10-28,合同会社ＤＡＬＢＩＴ,,合同会社,東京都,新宿区,高田馬場３丁目２０－１１第二林ビル１０１号,,13,104,1690075,,,,,,,2022-10-28,1,,,,,ダルビット,0
303,2011201024173,新規,0,2022-10-28,2022-10-28,株式会社エヌシード,,株式会社,東京都,中野区,大和町３丁目３７番３号,,13,114,1650034,,,,,,,2022-10-28,1,,,,,エヌシード,0
307,2011701025737,新規,0,2022-10-28,2022-10-28,フナミコンサルティング株式会社,,株式会社,東京都,江戸川区,西瑞江３丁目１４番地１５,,13,123,1320015,,,,,,,2022-10-28,1,,,,,フナミコンサルティング,0
310,2011801041452,新規,0,2022-10-28,2022-10-28,株式会社クロスＥＳＴ,,株式会社,東京都,足立区,千住仲町３番１７号,,13,121,1200036,,,,,,,2022-10-28,1,,,,,クロスイーエスティー,0
311,2011803005331,新規,0,2022-10-28,2022-10-28,合同会社アジト,,合同会社,東京都,足立区,青井２丁目１６番４－１１０３号,,13,121,1200012,,,,,,,2022-10-28,1,,,,,アジト,0
333,2020003022632,新規,0,2022-10-28,2022-10-28,ネクステック合同会社,,合同会社,神奈川県,横浜市保土ケ谷区,西谷町１０１１番地２６,,14,106,2400052,,,,,,,2022-10-28,1,,,,,ネクステック,0
343,2030001150574,新規,0,2022-10-28,2022-10-28,株式会社アスリーフ,,株式会社,埼玉県,鴻巣市,鎌塚５丁目５－３８,,11,217,3690112,,,,,,,2022-10-28,1,,,,,アスリーフ,0
344,2030001150715,新規,0,2022-10-28,2022-10-28,京明株式会社,,株式会社,埼玉県,戸田市,大字新曽１９３８番地２０１号室,,11,224,3350021,,,,,,,2022-10-28,1,,,,,ケイメイ,0
345,2030001150764,新規,0,2022-10-28,2022-10-28,株式会社三軒家,,株式会社,埼玉県,狭山市,祇園４４番１号,,11,215,3501307,,,,,,,2022-10-28,1,,,,,サンゲンヤ,0
346,2030001150789,新規,0,2022-10-28,2022-10-28,株式会社ＩＭＥ３,,株式会社,埼玉県,戸田市,上戸田２丁目３８－１９マ・メゾン２０３,,11,224,3350022,,,,,,,2022-10-28,1,,,,,アイムスリー,0
351,2030003020478,新規,0,2022-10-28,2022-10-28,合同会社あずき,,合同会社,埼玉県,さいたま市見沼区,大字上山口新田１７３,,11,104,3370044,,,,,,,2022-10-28,1,,,,,アズキ,0
353,2030005021045,新規,0,2022-10-28,2022-10-28,特定非営利活動法人Ｈｕｍａｔｃｈ,,その他の設立登記法人,埼玉県,さいたま市大宮区,桜木町１丁目３７８番地ＢＩＺｃｏｍｆｏｒｔ大宮６Ｆ－３０,,11,103,3300854,,,,,,,2022-10-28,1,,,,,ヒューマッチ,0
357,2040001125600,新規,0,2022-10-28,2022-10-28,株式会社ＧＯ,,株式会社,千葉県,佐倉市,城字杉山４２６番地２,,12,212,2850815,,,,,,,2022-10-28,1,,,,,ゴー,0
367,2050001051861,新規,0,2022-10-28,2022-10-28,ＥＭＰＩＲＥ　ＴＲＡＤＩＮＧ株式会社,,株式会社,茨城県,坂東市,逆井３５３９番地２０,,08,228,3060501,,,,,,,2022-10-28,1,,,,,エンパイアトレーディング,0
368,2050003006954,新規,0,2022-10-28,2022-10-28,ひかりホワイトホールディングス合同会社,,合同会社,茨城県,常総市,水街道山田町４５５５番地,,08,211,3030000,,,,,,,2022-10-28,1,,,,,ヒカリホワイトホールディングス,0
371,2070001039756,新規,0,2022-10-28,2022-10-28,株式会社ピーステーション,,株式会社,群馬県,前橋市,下沖町１７２番地１,,10,201,3710011,,,,,,,2022-10-28,1,,,,,ピーステーション,0
375,2080101023592,新規,0,2022-10-28,2022-10-28,塩川電工株式会社,,株式会社,静岡県,富士宮市,山本７３３番地の２４,,22,207,4180023,,,,,,,2022-10-28,1,,,,,シオカワデンコウ,0
382,2100001035818,新規,0,2022-10-28,2022-10-28,デザイン工房ＦｕｌｌＨｏｕｓｅ株式会社,,株式会社,長野県,長野市,吉田３丁目２２番４１－５１１号,,20,201,3810043,,,,,,,2022-10-28,1,,,,,デザインコウボウフルハウス,0
391,2120001249845,新規,0,2022-10-28,2022-10-28,株式会社Ｈｅａｒｔ　Ｄｅｓｉｇｎ,,株式会社,大阪府,枚方市,伊加賀西町３番２６号,,27,210,5730066,,,,,,,2022-10-28,1,,,,,ハートデザイン,0
392,2120001249853,新規,0,2022-10-28,2022-10-28,株式会社轟総建,,株式会社,大阪府,大阪市北区,長柄東１丁目４番２３－３０７号,,27,127,5310063,,,,,,,2022-10-28,1,,,,,トドロキソウケン,0
393,2120001249878,新規,0,2022-10-28,2022-10-28,株式会社ボギー,,株式会社,大阪府,大阪市鶴見区,鶴見５丁目４番６号３０２,,27,124,5380053,,,,,,,2022-10-28,1,,,,,ボギー,0
394,2120001249886,新規,0,2022-10-28,2022-10-28,株式会社ＭＩＺＡＩ,,株式会社,大阪府,大阪市北区,堂山町１７番１号,,27,127,5300027,,,,,,,2022-10-28,1,,,,,ミザイ,0
395,2120001249903,新規,0,2022-10-28,2022-10-28,Ｋ．Ｉ．Ｔ株式会社,,株式会社,大阪府,大阪市北区,大淀中２丁目６番２０号,,27,127,5310076,,,,,,,2022-10-28,1,,,,,キット,0
407,2122003002439,新規,0,2022-10-28,2022-10-28,ｃｏｍｆｏｒｔ　ｃｏｖｅｒ合同会社,,合同会社,大阪府,東大阪市,御厨南１丁目１番３２－１００１号,,27,227,5770034,,,,,,,2022-10-28,1,,,,,コンフォートカバー,0
409,2130001072890,新規,0,2022-10-28,2022-10-28,株式会社Ｓａｎ　Ｆａｔｏ,,株式会社,京都府,京都市中京区,聚楽廻東町２２,,26,104,6048404,,,,,,,2022-10-28,1,,,,,サンファート,0
414,2130003008208,新規,0,2022-10-28,2022-10-28,合同会社ＳＡＮＡ’ｓ,,合同会社,京都府,京都市伏見区,深草西伊達町８７－９２,,26,109,6120876,,,,,,,2022-10-28,1,,,,,サナズ,0
416,2140001127842,新規,0,2022-10-28,2022-10-28,ＡＭＢＩ株式会社,,株式会社,兵庫県,神戸市中央区,磯辺通２丁目２番１０号ワンノットトレーズビル４０３,,28,110,6510084,,,,,,,2022-10-28,1,,,,,アンビ,0
417,2140003018296,新規,0,2022-10-28,2022-10-28,合同会社ＨＹＭコーポレーション,,合同会社,兵庫県,加古川市,別府町別府６５１,,28,210,6750122,,,,,,,2022-10-28,1,,,,,エイチワイエムコーポレーション,0
419,2150003002803,新規,0,2022-10-28,2022-10-28,合名会社宇陀牧場,,合名会社,奈良県,宇陀市,大宇陀小和田１３２番地,,29,212,6332134,,,,,,,2022-10-28,1,,,,,ウダボクジョウ,0
421,2160001024591,新規,0,2022-10-28,2022-10-28,株式会社ＡＯＹＡＭＡ,,株式会社,滋賀県,大津市,大萱７丁目１７番１１号,,25,201,5202144,,,,,,,2022-10-28,1,,,,,アオヤマ,0
440,2180003024415,新規,0,2022-10-28,2022-10-28,鴻途合同会社,,合同会社,愛知県,名古屋市中区,新栄１丁目１４番２４号,,23,106,4600007,,,,,,,2022-10-28,1,,,,,コウト,0
441,2190001029869,新規,0,2022-10-28,2022-10-28,株式会社森村建設,,株式会社,三重県,松阪市,伊勢寺町２７８３番地１,,24,204,5150845,,,,,,,2022-10-28,1,,,,,モリムラケンセツ,0
445,2200001040584,新規,0,2022-10-28,2022-10-28,株式会社末広自動車,,株式会社,岐阜県,中津川市,蛭川２３４９番地１,,21,206,5098301,,,,,,,2022-10-28,1,,,,,スエヒロジドウシャ,0
446,2200001040592,新規,0,2022-10-28,2022-10-28,株式会社ＤＯＲ,,株式会社,岐阜県,揖斐郡池田町,六之井１５７０番地の１,,21,404,5032425,,,,,,,2022-10-28,1,,,,,デーオア,0
455,2240001060562,新規,0,2022-10-28,2022-10-28,株式会社ＫＵＳＵＫＥ,,株式会社,広島県,福山市,南本庄４丁目９番２７号,,34,207,7200077,,,,,,,2022-10-28,1,,,,,クスケ,0
458,2260001037344,新規,0,2022-10-28,2022-10-28,株式会社植清,,株式会社,岡山県,都窪郡早島町,前潟１０７３番地１,,33,423,7010303,,,,,,,2022-10-28,1,,,,,ウエキヨ,0
461,2290001099332,新規,0,2022-10-28,2022-10-28,株式会社あんらんど,,株式会社,福岡県,久留米市,長門石２丁目８番３号メディカルコーポ１号,,40,203,8300027,,,,,,,2022-10-28,1,,,,,アンランド,0
462,2290001099349,新規,0,2022-10-28,2022-10-28,株式会社ＶＩＬＬＡＧＥ,,株式会社,福岡県,糸島市,板持５７９番地１８,,40,230,8191101,,,,,,,2022-10-28,1,,,,,,0
463,2290001099357,新規,0,2022-10-28,2022-10-28,株式会社福岡総合不動産Ｒｅ．ｒｏｏｍ,,株式会社,福岡県,福岡市博多区,対馬小路９番４－１０２号,,40,132,8120020,,,,,,,2022-10-28,1,,,,,フクオカソウゴウフドウサンリルーム,0
464,2290001099365,新規,0,2022-10-28,2022-10-28,株式会社ＷＯＺＥＮ‐ＵＰ,,株式会社,福岡県,糟屋郡志免町,南里６丁目３番１３号,,40,343,8112207,,,,,,,2022-10-28,1,,,,,ウォゼンアップ,0
471,2290005018841,新規,0,2022-10-28,2022-10-28,ＮＰＯ法人Ｋａｕｈｏｒａ,,その他の設立登記法人,福岡県,糟屋郡新宮町,大字原上１５７９番地１８,,40,345,8110101,,,,,,,2022-10-28,1,,,,,カウホラ,0
474,2290802013136,新規,0,2022-10-28,2022-10-28,有限会社エイチワイシステムプランニング,,有限会社,福岡県,北九州市八幡西区,瀬板１丁目１番２０号,,40,109,8070822,,,,,,,2022-10-28,1,,,,,エイチワイシステムプランニング,0
478,2330001030226,新規,0,2022-10-28,2022-10-28,株式会社ｆａｎ,,株式会社,熊本県,人吉市,相良町１２２６番地１リヴェール３０３号,,43,203,8680012,,,,,,,2022-10-28,1,,,,,ファン,0
482,2330003009565,新規,0,2022-10-28,2022-10-28,パルセーション合同会社,,合同会社,熊本県,球磨郡五木村,甲２６７２番地８,,43,511,8680201,,,,,,,2022-10-28,1,,,,,パルセーション,0
498,2390001017052,新規,0,2022-10-28,2022-10-28,株式会社ちいきアグリプロテクションズ,,株式会社,山形県,最上郡鮭川村,大字川口３４００番地１,,06,366,9995203,,,,,,,2022-10-28,1,,,,,,0
499,2390001017060,新規,0,2022-10-28,2022-10-28,株式会社オフィス菊地,,株式会社,山形県,米沢市,城西２丁目３番６２号,,06,202,9920054,,,,,,,2022-10-28,1,,,,,オフィスキクチ,0
508,2430001087727,新規,0,2022-10-28,2022-10-28,株式会社ＳＦＬＯ,,株式会社,北海道,札幌市北区,北七条西４丁目１番１号トーカン札幌第一キャステール６０７,,01,102,0600807,,,,,,,2022-10-28,1,,,,,スフロ,0
512,2480003001887,新規,0,2022-10-28,2022-10-28,合同会社ＰＯＭＯＤＳ　Ｌａｂｏｒａｔｏｒｙ,,合同会社,徳島県,徳島市,南島田町４丁目５４番地１,,36,201,7700053,,,,,,,2022-10-28,1,,,,,ポモズラボラトリー,0
525,3010001230435,新規,0,2022-10-28,2022-10-28,株式会社Ｓｐｒｉｎｇホールディングス,,株式会社,東京都,千代田区,岩本町２丁目３番３号,,13,101,1010032,,,,,,,2022-10-28,1,,,,,スプリングホールディングス,0
526,3010001230443,新規,0,2022-10-28,2022-10-28,株式会社Ｃｕｅｌ,,株式会社,東京都,中央区,銀座１丁目２２番１１号銀座大竹ビジデンス２階,,13,102,1040061,,,,,,,2022-10-28,1,,,,,キュエル,0
528,3010003038934,新規,0,2022-10-28,2022-10-28,Ｏｐｅｎ　Ｓｐａｃｅ　Ｌａｂｓ　Ｊａｐａｎ合同会社,,合同会社,東京都,中央区,築地５丁目４番１９号,,13,102,1040045,,,,,,,2022-10-28,1,,,,,オープンスペースラブズジャパン,0
531,3010101015380,新規,0,2022-10-28,2022-10-28,株式会社遊山,,株式会社,東京都,八王子市,みなみ野４丁目３３番１号,,13,201,1920916,,,,,,,2022-10-28,1,,,,,ユウザン,0
533,3010103002014,新規,0,2022-10-28,2022-10-28,１９９９店合同会社,,合同会社,東京都,八王子市,本郷町２－３グランドール八王子１０３号室,,13,201,1920052,,,,,,,2022-10-28,1,,,,,イチキューキューキューテン,0
549,3010503006770,新規,0,2022-10-28,2022-10-28,合同会社ｅｕｎｏ,,合同会社,東京都,台東区,根岸５丁目１９番１０－２０１号,,13,106,1100003,,,,,,,2022-10-28,1,,,,,ユーノ,0
551,3010601062071,新規,0,2022-10-28,2022-10-28,株式会社ｉｃｃｏ,,株式会社,東京都,墨田区,緑１丁目１５番１２－１４０５号,,13,107,1300021,,,,,,,2022-10-28,1,,,,,イッコー,0
556,3010701043376,新規,0,2022-10-28,2022-10-28,株式会社コスモス,,株式会社,東京都,品川区,大井２丁目２３番１２号,,13,109,1400014,,,,,,,2022-10-28,1,,,,,コスモス,0
580,3011101100668,新規,0,2022-10-28,2022-10-28,地域企業成長支援パートナーズ株式会社,,株式会社,東京都,新宿区,西新宿３丁目７番１号新宿パークタワーＮ３０階,,13,104,1600023,,,,,,,2022-10-28,1,,,,,チイキキギョウセイチョウシエンパートナーズ,0
584,3011203003934,新規,0,2022-10-28,2022-10-28,アミカル合同会社,,合同会社,東京都,中野区,鷺宮１丁目５番７号オリエンタルビジネスセンター１０１,,13,114,1650032,,,,,,,2022-10-28,1,,,,,アミカル,0
591,3011801041435,新規,0,2022-10-28,2022-10-28,森本建設工業株式会社,,株式会社,東京都,足立区,千住仲町３８番２号,,13,121,1200036,,,,,,,2022-10-28,1,,,,,,0
597,3013301049792,新規,0,2022-10-28,2022-10-28,ＴＡＯ株式会社,,株式会社,東京都,豊島区,池袋３丁目４４－１０Ｋハイム３０１号室,,13,116,1710014,,,,,,,2022-10-28,1,,,,,トウ,0
610,3020001148734,新規,0,2022-10-28,2022-10-28,Ｔ・Ｋ・Ｌ株式会社,,株式会社,神奈川県,横浜市鶴見区,矢向４丁目１４番１０号,,14,101,2300001,,,,,,,2022-10-28,1,,,,,ティーケーエル,0
614,3020003022565,新規,0,2022-10-28,2022-10-28,合同会社ＴＭ‐Ｋｉｎｇ,,合同会社,神奈川県,横浜市南区,高砂町１丁目１６番地４コーポ高砂４０７,,14,105,2320025,,,,,,,2022-10-28,1,,,,,ティーエムキング,0
615,3020003022631,新規,0,2022-10-28,2022-10-28,合同会社こくしょう,,合同会社,神奈川県,川崎市宮前区,犬蔵２丁目３０番１－１０１号,,14,136,2160011,,,,,,,2022-10-28,1,,,,,コクショウ,0
636,3040001125442,新規,0,2022-10-28,2022-10-28,株式会社有言舎,,株式会社,千葉県,市川市,大和田３丁目１番１３号,,12,203,2720025,,,,,,,2022-10-28,1,,,,,ユウゲンシャ,0
639,3040003021152,新規,0,2022-10-28,2022-10-28,合同会社Ｓｔｅａｄｉｌｙ,,合同会社,千葉県,流山市,野々下４丁目８６３番地の７,,12,220,2700135,,,,,,,2022-10-28,1,,,,,ステディリー,0
641,3050001051852,新規,0,2022-10-28,2022-10-28,世和株式会社,,株式会社,茨城県,常陸大宮市,上小瀬２０８４－２０５号室,,08,225,3192401,,,,,,,2022-10-28,1,,,,,セワ,0
642,3050001051860,新規,0,2022-10-28,2022-10-28,ＭＺＲ　ＴＲＡＤＩＮＧ株式会社,,株式会社,茨城県,猿島郡境町,大字伏木１２７８番地３,,08,546,3060416,,,,,,,2022-10-28,1,,,,,エムゼットアールトレーディング,0
643,3050001051869,新規,0,2022-10-28,2022-10-28,株式会社ＳＯＲＡ,,株式会社,茨城県,土浦市,沢辺５５９番地５,,08,203,3004104,,,,,,,2022-10-28,1,,,,,ソラ,0
645,3050003006961,新規,0,2022-10-28,2022-10-28,ＲＡＩ　ＴＲＡＤＩＮＧ合同会社,,合同会社,茨城県,古河市,東山田５８１番地８,,08,204,3060112,,,,,,,2022-10-28,1,,,,,ライトレーディング,0
653,3080401026121,新規,0,2022-10-28,2022-10-28,株式会社ｅコード掛川,,株式会社,静岡県,浜松市北区,初生町１４０４番地,,22,135,4338112,,,,,,,2022-10-28,1,,,,,イーコードカケガワ,0
654,3090003002189,新規,0,2022-10-28,2022-10-28,アニカグローバルズ合同会社,,合同会社,山梨県,中央市,浅利３４２２番地８,,19,214,4001514,,,,,,,2022-10-28,1,,,,,アニカグローバルズ,0
655,3100001035817,新規,0,2022-10-28,2022-10-28,株式会社紅征,,株式会社,長野県,松本市,浅間温泉１丁目１９番７－２号,,20,202,3900303,,,,,,,2022-10-28,1,,,,,コウセイ,0
671,3120001249828,新規,0,2022-10-28,2022-10-28,株式会社真陽,,株式会社,大阪府,大阪市天王寺区,烏ケ辻１丁目２－８－５０６号室,00128274,27,109,5430042,,,,,,,2022-10-28,1,,,,,シンヨウ,0
672,3120001249836,新規,0,2022-10-28,2022-10-28,株式会社伊藤,,株式会社,大阪府,大阪市港区,磯路１丁目１番１７号野村ビル２Ｆ,,27,107,5520003,,,,,,,2022-10-28,1,,,,,イトウ,0
673,3120001249852,新規,0,2022-10-28,2022-10-28,株式会社東洋工業,,株式会社,大阪府,大阪市天王寺区,上本町６丁目９番１９号ｆｌａｔ３４上本町７０３号,,27,109,5430001,,,,,,,2022-10-28,1,,,,,トウヨウコウギョウ,0
676,3120003022737,新規,0,2022-10-28,2022-10-28,裕達貿易合同会社,,合同会社,大阪府,大阪市大正区,小林東３丁目１１番１－４０３号,,27,108,5510011,,,,,,,2022-10-28,1,,,,,ユウタツボウエキ,0
677,3120003022745,新規,0,2022-10-28,2022-10-28,合同会社ＳＥＮＳＩＬ,,合同会社,大阪府,枚方市,山之上北町６０番１－７０２号,,27,210,5730049,,,,,,,2022-10-28,1,,,,,センシル,0
684,3120903004347,新規,0,2022-10-28,2022-10-28,合同会社松岡,,合同会社,大阪府,池田市,旭丘２丁目６番１４号,,27,204,5630022,,,,,,,2022-10-28,1,,,,,マツオカ,0
686,3130001072923,新規,0,2022-10-28,2022-10-28,田中実業株式会社,,株式会社,京都府,京都市西京区,大原野上里北ノ町１２１１－２,,26,111,6101121,,,,,,,2022-10-28,1,,,,,タナカジツギョウ,0
693,3140001127775,新規,0,2022-10-28,2022-10-28,株式会社サイト‐ファクト,,株式会社,兵庫県,神戸市中央区,港島南町１丁目５番地の４ＴＲＩ３Ｆ,,28,110,6500047,,,,,,,2022-10-28,1,,,,,サイトファクト,0
694,3140001127800,新規,0,2022-10-28,2022-10-28,潁川堂国際貿易株式会社,,株式会社,兵庫県,芦屋市,陽光町８番２０号エスリード芦屋陽光町９１０号室,00128275,28,206,6590034,,,,,,,2022-10-28,1,,,,,インセンドウコクサイボウエキ,0
695,3140001127817,新規,0,2022-10-28,2022-10-28,ＪＭＣ株式会社,,株式会社,兵庫県,神戸市東灘区,住吉山手２丁目１番３号,,28,101,6580063,,,,,,,2022-10-28,1,,,,,ジェイエムシー,0
696,3140001127825,新規,0,2022-10-28,2022-10-28,株式会社ラッキーピーチ,,株式会社,兵庫県,たつの市,揖西町北山４７９番地５,,28,229,6794013,,,,,,,2022-10-28,1,,,,,ラッキーピーチ,0
699,3140003018295,新規,0,2022-10-28,2022-10-28,ＭＨＳ合同会社,,合同会社,兵庫県,神戸市灘区,灘南通５丁目４番２７号,,28,102,6570841,,,,,,,2022-10-28,1,,,,,エムエイチエス,0
706,3160001024590,新規,0,2022-10-28,2022-10-28,株式会社クリニックプラス,,株式会社,滋賀県,草津市,野路４丁目３番３５－３号,,25,206,5250059,,,,,,,2022-10-28,1,,,,,クリニックプラス,0
715,3180001153578,新規,0,2022-10-28,2022-10-28,株式会社ＡＧＡＩＮ,,株式会社,愛知県,名古屋市西区,上名古屋２丁目３番１号,,23,104,4510025,,,,,,,2022-10-28,1,,,,,アゲイン,0
726,3200001040583,新規,0,2022-10-28,2022-10-28,ゼスト株式会社,,株式会社,岐阜県,岐阜市,岩崎９５２番地１３,,21,201,5020005,,,,,,,2022-10-28,1,,,,,ゼスト,0
727,3200001040591,新規,0,2022-10-28,2022-10-28,株式会社Ｒ・Ｒ,,株式会社,岐阜県,羽島郡岐南町,平島８丁目６５番地１－１Ｂ,,21,302,5016003,,,,,,,2022-10-28,1,,,,,アールアール,0
732,3240001060561,新規,0,2022-10-28,2022-10-28,ブライフ株式会社,,株式会社,広島県,広島市西区,中広町１丁目４番８－２０２号,,34,104,7330012,,,,,,,2022-10-28,1,,,,,ブライフ,0
744,3280001008805,新規,0,2022-10-28,2022-10-28,株式会社ＮＥＯプランニング,,株式会社,島根県,出雲市,斐川町出西１７７７番地９,,32,203,6990612,,,,,,,2022-10-28,1,,,,,ネオプランニング,0
756,3330001030225,新規,0,2022-10-28,2022-10-28,株式会社アレッタ,,株式会社,熊本県,熊本市中央区,八王寺町９番６０号,,43,101,8600831,,,,,,,2022-10-28,1,,,,,アレッタ,0
757,3330003009564,新規,0,2022-10-28,2022-10-28,合同会社もり事務所,,合同会社,熊本県,熊本市中央区,手取本町１０番１号,,43,101,8600808,,,,,,,2022-10-28,1,,,,,モリジムショ,0
762,3350001018004,新規,0,2022-10-28,2022-10-28,株式会社ジョイぷら,,株式会社,宮崎県,宮崎市,曽師町２６１番地２,,45,201,8800875,,,,,,,2022-10-28,1,,,,,ジョイプラ,0
763,3350001018012,新規,0,2022-10-28,2022-10-28,株式会社ＫＡＰホールディングス,,株式会社,宮崎県,宮崎市,大字細江字板川４２３１番地,,45,201,8802116,,,,,,,2022-10-28,1,,,,,ケーエーピーホールディングス,0
765,3360001031121,新規,0,2022-10-28,2022-10-28,株式会社ケーティーワイ企画,,株式会社,沖縄県,島尻郡与那原町,字与那原３６１３番地の５,,47,348,9011303,,,,,,,2022-10-28,1,,,,,ケーティーワイキカク,0
768,3370003005873,新規,0,2022-10-28,2022-10-28,合同会社マルショウ,,合同会社,宮城県,本吉郡南三陸町,志津川字大森１５４番地３,,04,606,9860731,,,,,,,2022-10-28,1,,,,,マルショウ,0
771,3380001033207,新規,0,2022-10-28,2022-10-28,株式会社ＯＮＥ’Ｓ　ＦＩＲＳＴ,,株式会社,福島県,郡山市,安積北井１丁目２３番地,,07,203,9630118,,,,,,,2022-10-28,1,,,,,ワンズファースト,0
777,3420001018046,新規,0,2022-10-28,2022-10-28,岩木山建装株式会社,,株式会社,青森県,青森市,長島２丁目１３番１４号ニルヴァーナ１階,,02,201,0300861,,,,,,,2022-10-28,1,,,,,イワキヤマケンソウ,0
779,3430001087718,新規,0,2022-10-28,2022-10-28,株式会社稲毛メンテナンス,,株式会社,北海道,江別市,野幌寿町２８番地の２,,01,217,0690802,,,,,,,2022-10-28,1,,,,,イナゲメンテナンス,0
780,3430001087726,新規,0,2022-10-28,2022-10-28,株式会社ヨシナリデザイン室,,株式会社,北海道,札幌市西区,山の手一条３丁目４番１－４０２号,,01,107,0630001,,,,,,,2022-10-28,1,,,,,ヨシナリデザインシツ,0
782,3430003014414,新規,0,2022-10-28,2022-10-28,リモートワークスコンサルティング合同会社,,合同会社,北海道,札幌市西区,琴似一条６丁目３番２４－２０６号,,01,107,0630811,,,,,,,2022-10-28,1,,,,,リモートワークスコンサルティング,0
790,3470001019304,新規,0,2022-10-28,2022-10-28,株式会社ＫＭＴ,,株式会社,香川県,高松市,成合町９５２番地２３,,37,201,7618081,,,,,,,2022-10-28,1,,,,,ケーエムティー,0
799,4010001230401,新規,0,2022-10-28,2022-10-28,株式会社フォートレス,,株式会社,東京都,千代田区,二番町５番地２麹町駅プラザ９０１,,13,101,1020084,,,,,,,2022-10-28,1,,,,,フォートレス,0
805,4010103002013,新規,0,2022-10-28,2022-10-28,合同会社ＴＭＴ,,合同会社,東京都,八王子市,北野町５７４－１１グランドフォーラム北野１０３,,13,201,1920906,,,,,,,2022-10-28,1,,,,,ティーエムティー,0
811,4010401170528,新規,0,2022-10-28,2022-10-28,株式会社ＴＯＲＩＸ,,株式会社,東京都,港区,南麻布４丁目１４番４号第２幸ビル３階,,13,103,1060047,,,,,,,2022-10-28,1,,,,,トリックス,0
830,4010901051855,新規,0,2022-10-28,2022-10-28,株式会社ＣＡＣＴＵＳ　ＴＯＫＹＯ,,株式会社,東京都,世田谷区,上北沢５丁目３８－６上北沢ＪＡコーポ２０５,,13,112,1560057,,,,,,,2022-10-28,1,,,,,,0
831,4010901051863,新規,0,2022-10-28,2022-10-28,株式会社オネスト,,株式会社,東京都,世田谷区,砧３丁目９番２０号ラポール成城３０２,,13,112,1570073,,,,,,,2022-10-28,1,,,,,オネスト,0
832,4010905004388,新規,0,2022-10-28,2022-10-28,特定非営利活動法人塚原体操センター,,その他の設立登記法人,東京都,世田谷区,北烏山７丁目３２番１０号,,13,112,1570061,,,,,,,2022-10-28,1,,,,,ツカハラタイソウセンター,0
839,4011001150523,新規,0,2022-10-28,2022-10-28,株式会社Ａｍｙ’ｓ,,株式会社,東京都,渋谷区,恵比寿南３丁目４番１６号,,13,113,1500022,,,,,,,2022-10-28,1,,,,,エイミーズ,0
840,4011001150589,新規,0,2022-10-28,2022-10-28,株式会社ｚａｐａｔｈ,,株式会社,東京都,渋谷区,渋谷２丁目１９－１５宮益坂ビルディング６０９,,13,113,1500002,,,,,,,2022-10-28,1,,,,,ザパス,0
842,4011101100667,新規,0,2022-10-28,2022-10-28,新興Ｇホールディングス株式会社,,株式会社,東京都,新宿区,市谷砂土原町２丁目１番地４クレストコート砂土原１０１,,13,104,1620842,,,,,,,2022-10-28,1,,,,,シンコウジーホールディングス,0
844,4011103012324,新規,0,2022-10-28,2022-10-28,レーベンエナジー２号合同会社,,合同会社,東京都,新宿区,揚場町１番１８号,,13,104,1620824,,,,,,,2022-10-28,1,,,,,レーベンエナジーニゴウ,0
847,4011201024196,新規,0,2022-10-28,2022-10-28,ＮＳマネジメント株式会社,,株式会社,東京都,中野区,若宮２丁目５５番５号,,13,114,1650033,,,,,,,2022-10-28,1,,,,,エヌエスマネジメント,0
858,4011801041459,新規,0,2022-10-28,2022-10-28,ＳＵＮＬＩＫＥ株式会社,,株式会社,東京都,足立区,西新井本町５丁目２番４－１０４号,,13,121,1230845,,,,,,,2022-10-28,1,,,,,サンライク,0
859,4011801041467,新規,0,2022-10-28,2022-10-28,株式会社ＡＺ‐ＫＡＩＴＡＸ,,株式会社,東京都,足立区,西新井栄町１丁目１８番１－１１２４号,,13,121,1230843,,,,,,,2022-10-28,1,,,,,アズカイタックス,0
861,4012401039802,新規,0,2022-10-28,2022-10-28,株式会社リフト,,株式会社,東京都,調布市,西つつじケ丘１丁目１４番地３マティーコートつつじケ丘１０４,,13,208,1820006,,,,,,,2022-10-28,1,,,,,リフト,0
862,4012701017318,新規,0,2022-10-28,2022-10-28,株式会社Ｎ‐ａｒｃｈｉｔｅｃｔ,,株式会社,東京都,東村山市,富士見町３丁目２番地３,,13,213,1890024,,,,,,,2022-10-28,1,,,,,エヌアーキテクト,0
863,4012801021921,新規,0,2022-10-28,2022-10-28,株式会社ｒｏｏｔ,,株式会社,東京都,立川市,砂川町８丁目３８番地の８,,13,202,1900031,,,,,,,2022-10-28,1,,,,,,0
864,4012803002911,新規,0,2022-10-28,2022-10-28,合同会社ＪＴＫ,,合同会社,東京都,国分寺市,東恋ヶ窪４丁目２５番地６国分寺ビューハイツ６０２,,13,214,1850014,,,,,,,2022-10-28,1,,,,,ジェーティーケー,0
865,4013201002470,新規,0,2022-10-28,2022-10-28,ジェーエムシーイグジムポート株式会社,,株式会社,東京都,目黒区,碑文谷１丁目１２番１６号,,13,110,1520003,,,,,,,2022-10-28,1,,,,,ジェーエムシーイグジムポート,0
867,4013301049858,新規,0,2022-10-28,2022-10-28,株式会社ｓａｉｔｏ,,株式会社,東京都,豊島区,西池袋３丁目２２番９－４０１号,,13,116,1710021,,,,,,,2022-10-28,1,,,,,エスエーアイティーオー,0
883,4020001148709,新規,0,2022-10-28,2022-10-28,株式会社ＫＲＩＴＡＭ,,株式会社,神奈川県,横浜市西区,岡野１丁目１９番２３号前田荘２０２号,,14,103,2200073,,,,,,,2022-10-28,1,,,,,キリタム,0
884,4020001148717,新規,0,2022-10-28,2022-10-28,株式会社Ｓｅａｈｏｒｓｅ,,株式会社,神奈川県,横浜市港北区,錦が丘２３番７号,,14,109,2220013,,,,,,,2022-10-28,1,,,,,シーホース,0
885,4020001148733,新規,0,2022-10-28,2022-10-28,株式会社ＡＧＯＧ,,株式会社,神奈川県,横浜市西区,北幸２丁目１０番２８号むつみビル３Ｆ,,14,103,2200004,,,,,,,2022-10-28,1,,,,,アゴッグ,0
886,4020001148741,新規,0,2022-10-28,2022-10-28,株式会社サイテキ,,株式会社,神奈川県,川崎市多摩区,登戸新町３０１番地１Ｋ′ｓコンバート１０１号,,14,135,2140013,,,,,,,2022-10-28,1,,,,,サイテキ,0
890,4020003022630,新規,0,2022-10-28,2022-10-28,トールストン合同会社,,合同会社,神奈川県,川崎市麻生区,高石４丁目８番２号,,14,137,2150003,,,,,,,2022-10-28,1,,,,,トールストン,0
902,4030001150779,新規,0,2022-10-28,2022-10-28,株式会社武蔵リフォームスタイル,,株式会社,埼玉県,さいたま市南区,辻５丁目１０番１３号,00128288,11,108,3360026,,,,,,,2022-10-28,1,,,,,ムサシリフォームスタイル,0
919,4050003006960,新規,0,2022-10-28,2022-10-28,ＡＡＨＩＬ　ＭＯＴＯＲＳ合同会社,,合同会社,茨城県,結城市,大字大谷瀬６１２－１,,08,207,3070002,,,,,,,2022-10-28,1,,,,,アーヒルモータース,0
922,4060001035382,新規,0,2022-10-28,2022-10-28,株式会社ＴＥＲＡファーム,,株式会社,栃木県,栃木市,高谷町１９１番地,,09,203,3280023,,,,,,,2022-10-28,1,,,,,テラファーム,0
923,4060001035390,新規,0,2022-10-28,2022-10-28,株式会社加藤電設,,株式会社,栃木県,那須塩原市,東原３番地１３３４,,09,213,3250034,,,,,,,2022-10-28,1,,,,,カトウデンセツ,0
924,4070005010042,新規,0,2022-10-28,2022-10-28,特定非営利活動法人生活補助サービスどんぐり,,その他の設立登記法人,群馬県,桐生市,本町４丁目３１９番地,,10,203,3760031,,,,,,,2022-10-28,1,,,,,セイカツホジョサービスドングリ,0
926,4080005007491,新規,0,2022-10-28,2022-10-28,特定非営利活動法人子育てサポート・クリア,,その他の設立登記法人,静岡県,静岡市葵区,大岩３丁目１５番２号,,22,101,4200886,,,,,,,2022-10-28,1,,,,,サポートクリア,0
929,4090001017824,新規,0,2022-10-28,2022-10-28,株式会社マッケンジー研究所,,株式会社,山梨県,南都留郡富士河口湖町,船津５０３６－４,,19,430,4010301,,,,,,,2022-10-28,1,,,,,マッケンジーケンキュウショ,0
940,4120001249843,新規,0,2022-10-28,2022-10-28,株式会社Ｅｖｅｒ　Ｃｒａｆｔ,,株式会社,大阪府,守口市,東郷通２丁目１３番６号,,27,209,5700041,,,,,,,2022-10-28,1,,,,,エバークラフト,0
941,4120001249851,新規,0,2022-10-28,2022-10-28,株式会社和ＮＯＳＨ,,株式会社,大阪府,守口市,寺方錦通２丁目３番１０号,,27,209,5700042,,,,,,,2022-10-28,1,,,,,ワナッシュ,0
949,4120003022703,新規,0,2022-10-28,2022-10-28,順祥合同会社,,合同会社,大阪府,大阪市中央区,島之内１丁目３－１１－１００１号,,27,128,5420082,,,,,,,2022-10-28,1,,,,,ジュンショウ,0
950,4120003022744,新規,0,2022-10-28,2022-10-28,合同会社ＥＵＬＩＴＥ,,合同会社,大阪府,大阪市淀川区,西中島１丁目１３番６号,,27,123,5320011,,,,,,,2022-10-28,1,,,,,ユーライト,0
956,4120103004898,新規,0,2022-10-28,2022-10-28,合同会社ワールドレーシングパーツ,,合同会社,大阪府,和泉市,葛の葉町１丁目１０番８０号,,27,219,5940081,,,,,,,2022-10-28,1,,,,,ワールドレーシングパーツ,0
958,4120901046662,新規,0,2022-10-28,2022-10-28,株式会社トータル・ウィン,,株式会社,大阪府,摂津市,鳥飼上４丁目３番４１号,,27,224,5660062,,,,,,,2022-10-28,1,,,,,トータルウィン,0
969,4130001072922,新規,0,2022-10-28,2022-10-28,長盛株式会社,,株式会社,京都府,京都市伏見区,深草下川原町５１－６安田マンション１０１,,26,109,6128401,,,,,,,2022-10-28,1,,,,,チョウセイ,0
977,4140001127799,新規,0,2022-10-28,2022-10-28,新策株式会社,,株式会社,兵庫県,揖保郡太子町,東出７９－１,,28,464,6711521,,,,,,,2022-10-28,1,,,,,シンサク,0
978,4140001127816,新規,0,2022-10-28,2022-10-28,株式会社ハークス,,株式会社,兵庫県,神戸市中央区,加納町２丁目７番１４,,28,110,6500001,,,,,,,2022-10-28,1,,,,,ハークス,0
979,4140001127849,新規,0,2022-10-28,2022-10-28,株式会社Ｌｕｎｏｎ　ｌｅ　Ｍｉｅｕｘ,,株式会社,兵庫県,姫路市,福沢町１３番地,,28,201,6700992,,,,,,,2022-10-28,1,,,,,ルノンルミュー,0
980,4140001127857,新規,0,2022-10-28,2022-10-28,株式会社あんじゅ,,株式会社,兵庫県,姫路市,青山１丁目２５番５号,,28,201,6712222,,,,,,,2022-10-28,1,,,,,アンジュ,0
984,4140003018278,新規,0,2022-10-28,2022-10-28,リバーサルライフ合同会社,,合同会社,兵庫県,神戸市西区,大津和２丁目９番６号ハイツプランタン２０６,,28,111,6512112,,,,,,,2022-10-28,1,,,,,リバーサルライフ,0
985,4140005026353,新規,0,2022-10-28,2022-10-28,特定非営利活動法人ウクライーナ・ウクライーナ,,その他の設立登記法人,兵庫県,神戸市灘区,日尾町３丁目１番２５－１０５号,,28,102,6570029,,,,,,,2022-10-28,1,,,,,ウクライーナウクライーナ,0
987,4150001025911,新規,0,2022-10-28,2022-10-28,株式会社ｔｏ　Ｕ,,株式会社,奈良県,橿原市,八木町３丁目９番１５号,,29,205,6340078,,,,,,,2022-10-28,1,,,,,トゥーユー,0
999,4180001153503,新規,0,2022-10-28,2022-10-28,株式会社インフィニティトレーディング,,株式会社,愛知県,小牧市,大字下末１４９６番地の１,,23,219,4850825,,,,,,,2022-10-28,1,,,,,インフィニティトレーディング,0
1007,4180301036762,新規,0,2022-10-28,2022-10-28,株式会社シバテック,,株式会社,愛知県,安城市,福釜町里添３０番地６,,23,212,4460052,,,,,,,2022-10-28,1,,,,,シバテック,0
1010,4190001029867,新規,0,2022-10-28,2022-10-28,株式会社エコサイズ,,株式会社,三重県,松阪市,川井町２６０５番地,,24,204,5150818,,,,,,,2022-10-28,1,,,,,エコサイズ,0
1014,4210001019139,新規,0,2022-10-28,2022-10-28,株式会社ｍｕｍｍ,,株式会社,福井県,福井市,文京３丁目６－１７,,18,201,9100017,,,,,,,2022-10-28,1,,,,,ムーム,0
1019,4240001060544,新規,0,2022-10-28,2022-10-28,ひろしまエコグリーン株式会社,,株式会社,広島県,広島市中区,袋町３番１７号,,34,101,7300036,,,,,,,2022-10-28,1,,,,,ヒロシマエコグリーン,0
1021,4240003005869,新規,0,2022-10-28,2022-10-28,白金合同会社,,合同会社,広島県,広島市佐伯区,五日市中央３丁目１６番７号,,34,108,7315128,,,,,,,2022-10-28,1,,,,,シロカネ,0
1032,4290001099363,新規,0,2022-10-28,2022-10-28,Ｔ＆Ｍ　ＵＴＩＬＩＴＹ’Ｓ株式会社,,株式会社,福岡県,福岡市城南区,樋井川１丁目１４番３５号,,40,136,8140153,,,,,,,2022-10-28,1,,,,,ティーアンドエムユーティリティーズ,0
1035,4300003001894,新規,0,2022-10-28,2022-10-28,ＴＲＵＯＮＧ　ＰＨＡＴ合同会社,,合同会社,佐賀県,鳥栖市,今泉町２３９１番地１,,41,203,8410047,,,,,,,2022-10-28,1,,,,,チュオンパット,0
1036,4330001030216,新規,0,2022-10-28,2022-10-28,金峰山ビレッジ株式会社,,株式会社,熊本県,熊本市東区,健軍本町２３番５号,,43,102,8620910,,,,,,,2022-10-28,1,,,,,キンボウザンビレッジ,0
1039,4350001018011,新規,0,2022-10-28,2022-10-28,株式会社小西工業,,株式会社,宮崎県,宮崎市,大塚町浜川田４８８４番地１,,45,201,8800951,,,,,,,2022-10-28,1,,,,,コニシコウギョウ,0
1046,4360005006738,新規,0,2022-10-28,2022-10-28,医療法人尚白,,その他の設立登記法人,沖縄県,名護市,城２丁目１０－２０、１Ｆ,,47,209,9050013,,,,,,,2022-10-28,1,,,,,ショウハク,0
1048,4370001049178,新規,0,2022-10-28,2022-10-28,株式会社よつばエステート,,株式会社,宮城県,仙台市青葉区,花京院１丁目２番－１５号ソララプラザ３階,,04,101,9800013,,,,,,,2022-10-28,1,,,,,ヨツバエステート,0
1053,4390001017059,新規,0,2022-10-28,2022-10-28,マックス不動産株式会社,,株式会社,山形県,山形市,鈴川町３丁目４番９号,,06,201,9900062,,,,,,,2022-10-28,1,,,,,マックスフドウサン,0
1058,4420001018045,新規,0,2022-10-28,2022-10-28,株式会社ｔｏｗａｒｄｓ,,株式会社,青森県,平川市,新館藤山６２番地１３,,02,210,0360115,,,,,,,2022-10-28,1,,,,,トワーズ,0
1065,4430001087675,新規,0,2022-10-28,2022-10-28,丸和建設株式会社,,株式会社,北海道,札幌市中央区,南七条西１０丁目１０２５番地,,01,101,0640807,,,,,,,2022-10-28,1,,,,,マルワケンセツ,0
1066,4430001087758,新規,0,2022-10-28,2022-10-28,株式会社白石左官工業,,株式会社,北海道,札幌市白石区,本郷通１０丁目北２番９－１０１号,,01,104,0030025,,,,,,,2022-10-28,1,,,,,シライシサカンコウギョウ,0
1067,4430001087766,新規,0,2022-10-28,2022-10-28,株式会社ＭＥＤＩＬＬ,,株式会社,北海道,札幌市中央区,南十八条西１０丁目１番２０号,,01,101,0640918,,,,,,,2022-10-28,1,,,,,メディル,0
1070,4430003014413,新規,0,2022-10-28,2022-10-28,オールコネクト合同会社,,合同会社,北海道,樺戸郡月形町,字知来乙３９０番地１８,,01,430,0610516,,,,,,,2022-10-28,1,,,,,オールコネクト,0
1071,4450001013828,新規,0,2022-10-28,2022-10-28,株式会社農場樹乃舎,,株式会社,北海道,雨竜郡北竜町,字碧水１４０番地１,,01,437,0782503,,,,,,,2022-10-28,1,,,,,ノウジョウキノヤ,0
1076,4490003001711,新規,0,2022-10-28,2022-10-28,合同会社３Ｂ　ｌａｂ．,,合同会社,高知県,高知市,鷹匠町１丁目２番５１号木本ビル３０３,,39,201,7800862,,,,,,,2022-10-28,1,,,,,スリービーラボ,0
1086,5010001230086,新規,0,2022-10-28,2022-10-28,株式会社エムワイデザイン,,株式会社,東京都,文京区,千石４丁目１６番１１号,,13,105,1120011,,,,,,,2022-10-28,1,,,,,エムワイデザイン,0
1088,5010005035713,新規,0,2022-10-28,2022-10-28,一般社団法人日本口腔医学会,,その他の設立登記法人,東京都,千代田区,神田西福田町４番地Ｄ’ｓＶＡＲＩＥ神田ビル８階,,13,101,1010037,,,,,,,2022-10-28,1,,,,,ニホンコウクウイガッカイ,0
1095,5010401170452,新規,0,2022-10-28,2022-10-28,株式会社２４,,株式会社,東京都,港区,北青山１丁目４番５号ＶＯＲＴ青山一丁目Ｄｕａｌ’ｓ３０３,,13,103,1070061,,,,,,,2022-10-28,1,,,,,ニイヨン,0
1110,5010901051854,新規,0,2022-10-28,2022-10-28,株式会社ＴＥＬＡＳ,,株式会社,東京都,世田谷区,喜多見９丁目１１番９－２２０号,,13,112,1570067,,,,,,,2022-10-28,1,,,,,テラス,0
1113,5010903007747,新規,0,2022-10-28,2022-10-28,ａｎｔクリーンサービス合同会社,,合同会社,東京都,世田谷区,船橋４丁目３９番３１号,,13,112,1560055,,,,,,,2022-10-28,1,,,,,アントクリーンサービス,0
1119,5011001150530,新規,0,2022-10-28,2022-10-28,株式会社ＧＳＳＬＡＢ,,株式会社,東京都,渋谷区,桜丘町２３番１７号シティコート桜丘４０８,,13,113,1500031,,,,,,,2022-10-28,1,,,,,ジーエスエスラボ,0
1120,5011001150547,新規,0,2022-10-28,2022-10-28,株式会社ミンナシアワセ,,株式会社,東京都,渋谷区,代々木４丁目３３番１０号トーシンビル,,13,113,1510053,,,,,,,2022-10-28,1,,,,,ミンナシアワセ,0
1121,5011001150563,新規,0,2022-10-28,2022-10-28,株式会社ＮＯＭ,,株式会社,東京都,渋谷区,上原１丁目３７番５号,,13,113,1510064,,,,,,,2022-10-28,1,,,,,ノム,0
1130,5011101100658,新規,0,2022-10-28,2022-10-28,株式会社ＬＩＢ,,株式会社,東京都,新宿区,大久保１丁目７番１号プレール・ドゥーク東新宿ＩＩ１０８,00128289,13,104,1690072,,,,,,,2022-10-28,1,,,,,リブ,0
1146,5011701025734,新規,0,2022-10-28,2022-10-28,機械細胞株式会社,,株式会社,東京都,江戸川区,松江２丁目１－１３－３０１号室,,13,123,1320025,,,,,,,2022-10-28,1,,,,,キカイサイボウ,0
1153,5012401039801,新規,0,2022-10-28,2022-10-28,株式会社ブロリー,,株式会社,東京都,調布市,西つつじケ丘１丁目１４番地３マティーコートつつじケ丘１０４,,13,208,1820006,,,,,,,2022-10-28,1,,,,,ブロリー,0
1154,5012701017317,新規,0,2022-10-28,2022-10-28,株式会社大渡,,株式会社,東京都,小平市,小川町２丁目１１５３番地の３クロノス１０１号,,13,211,1870032,,,,,,,2022-10-28,1,,,,,オオワタリ,0
1157,5012803002910,新規,0,2022-10-28,2022-10-28,合同会社ＴＭ,,合同会社,東京都,国立市,東１丁目１４－１１ヴルーム国立５０３号,,13,215,1860002,,,,,,,2022-10-28,1,,,,,ティーエム,0
1162,5013301049857,新規,0,2022-10-28,2022-10-28,神啓株式会社,,株式会社,東京都,豊島区,東池袋１丁目３３番４号ニュー池袋ハイツ４１１号室,,13,116,1700013,,,,,,,2022-10-28,1,,,,,ジンケイ,0
1181,5020001148708,新規,0,2022-10-28,2022-10-28,株式会社クローバープランニング,,株式会社,神奈川県,横浜市緑区,青砥町１７２番地２３,,14,113,2260022,,,,,,,2022-10-28,1,,,,,クローバープランニング,0
1192,5020003022638,新規,0,2022-10-28,2022-10-28,テラ・コンサルティング合同会社,,合同会社,神奈川県,川崎市宮前区,西野川３丁目２８番３９号,,14,136,2160044,,,,,,,2022-10-28,1,,,,,テラコンサルティング,0
1205,5030001150720,新規,0,2022-10-28,2022-10-28,株式会社アライ,,株式会社,埼玉県,川口市,戸塚南３丁目８番２０号,,11,203,3330817,,,,,,,2022-10-28,1,,,,,アライ,0
1213,5030003020467,新規,0,2022-10-28,2022-10-28,合同会社エニシングストアジャパン,,合同会社,埼玉県,戸田市,下前１丁目１１番２０－１３４号,,11,224,3350016,,,,,,,2022-10-28,1,,,,,エニシングストアジャパン,0
1214,5030003020475,新規,0,2022-10-28,2022-10-28,合同会社たちかわ管理,,合同会社,埼玉県,八潮市,中央２丁目１７番地１,,11,234,3400816,,,,,,,2022-10-28,1,,,,,タチカワカンリ,0
1219,5040001125614,新規,0,2022-10-28,2022-10-28,株式会社スライブファーム,,株式会社,千葉県,千葉市若葉区,桜木６丁目２６番１８号,,12,104,2640028,,,,,,,2022-10-28,1,,,,,スライブファーム,0
1223,5050001051859,新規,0,2022-10-28,2022-10-28,株式会社ＲＡＶＩＤＵ　ＴＲＡＤＩＮＧ,,株式会社,茨城県,結城郡八千代町,大字村貫８５３番地２,,08,521,3003563,,,,,,,2022-10-28,1,,,,,ラヴィドゥトレーディング,0
1225,5060001035381,新規,0,2022-10-28,2022-10-28,令和エンジニアリング株式会社,,株式会社,栃木県,小山市,大字下生井９２６番地２－Ａ,,09,208,3290223,,,,,,,2022-10-28,1,,,,,レイワエンジニアリング,0
1228,5070003004672,新規,0,2022-10-28,2022-10-28,ｍｔ．Ｇ合同会社,,合同会社,群馬県,桐生市,相生町５丁目６０８－４,,10,203,3760011,,,,,,,2022-10-28,1,,,,,,0
1230,5080401026128,新規,0,2022-10-28,2022-10-28,加藤住設株式会社,,株式会社,静岡県,浜松市南区,白羽町１３３８番地の７,,22,134,4300846,,,,,,,2022-10-28,1,,,,,カトウジュウセツ,0
1236,5110001037067,新規,0,2022-10-28,2022-10-28,株式会社ＳＡＮ‐ＡＮＤ,,株式会社,新潟県,新潟市中央区,本町通８番町１３５２番地２Ｆ,,15,103,9518067,,,,,,,2022-10-28,1,,,,,サンアンド,0
1239,5110003004899,新規,0,2022-10-28,2022-10-28,とかいなか合同会社,,合同会社,新潟県,三条市,麻布１６―１５―２,,15,204,9550034,,,,,,,2022-10-28,1,,,,,トカイナカ,0
1240,5110005016868,新規,0,2022-10-28,2022-10-28,特定非営利活動法人あいあう,,その他の設立登記法人,新潟県,妙高市,大字長森１８５４,,15,217,9440073,,,,,,,2022-10-28,1,,,,,アイアウ,0
1246,5120001249867,新規,0,2022-10-28,2022-10-28,ａｔｔｏ株式会社,,株式会社,大阪府,大阪市西区,西本町３丁目１番２０－１５０９号セレニテ本町ルフレ１５０９,,27,106,5500005,,,,,,,2022-10-28,1,,,,,アット,0
1247,5120001249883,新規,0,2022-10-28,2022-10-28,岡田設備工業株式会社,,株式会社,大阪府,大阪市西区,川口４丁目３番２４号,,27,106,5500021,,,,,,,2022-10-28,1,,,,,オカダセツビコウギョウ,0
1253,5120003022735,新規,0,2022-10-28,2022-10-28,合同会社ＩＮＦＩＮＩＴＹ　ＧＬＯＢＡＬ,,合同会社,大阪府,大阪市生野区,中川４丁目１４番２２号,,27,116,5440005,,,,,,,2022-10-28,1,,,,,インフィニティグローバル,0
1255,5120101066428,新規,0,2022-10-28,2022-10-28,株式会社ＴＳＵＫＵＭＯ,,株式会社,大阪府,松原市,阿保４丁目１番５号,,27,217,5800043,,,,,,,2022-10-28,1,,,,,ツクモ,0
1259,5120903004345,新規,0,2022-10-28,2022-10-28,合同会社ＦＳＳ,,合同会社,大阪府,茨木市,上中条２丁目４番２１号セレニテ上中条３０５号,,27,211,5670881,,,,,,,2022-10-28,1,,,,,エフエスエス,0
1260,5122001036353,新規,0,2022-10-28,2022-10-28,株式会社スピカ,,株式会社,大阪府,東大阪市,吉田６丁目４番２６号,,27,227,5780924,,,,,,,2022-10-28,1,,,,,スピカ,0
1269,5130001072921,新規,0,2022-10-28,2022-10-28,株式会社ＡＬ　ＳＡＮＥＡ　ＴＲＡＤＩＮＧ,,株式会社,京都府,舞鶴市,字上福井１６８２番地４,,26,202,6240951,,,,,,,2022-10-28,1,,,,,アルサニアトレーニング,0
1277,5140003018285,新規,0,2022-10-28,2022-10-28,合同会社ＨＡＲＥＢＡＲＥ,,合同会社,兵庫県,神戸市長田区,水笠通３丁目２番１２号,,28,106,6530842,,,,,,,2022-10-28,1,,,,,ハレバレ,0
1278,5140003018293,新規,0,2022-10-28,2022-10-28,合同会社エンドレスサマー,,合同会社,兵庫県,神戸市中央区,北長狭通８丁目４番１号,,28,110,6500012,,,,,,,2022-10-28,1,,,,,エンドレスサマー,0
1280,5140005026352,新規,0,2022-10-28,2022-10-28,特定非営利活動法人モンターニュ,,その他の設立登記法人,兵庫県,朝来市,多々良木２１３－１,,28,225,6793423,,,,,,,2022-10-28,1,,,,,モンターニュ,0
1284,5150005009430,新規,0,2022-10-28,2022-10-28,一般社団法人奈良県ｅスポーツ協会,,その他の設立登記法人,奈良県,奈良市,芝辻町３丁目９番３８号リヴィエールナッツパティオ１Ｆ,00128290,29,201,6308114,,,,,,,2022-10-28,1,,,,,ナラケンイースポーツキョウカイ,0
1285,5160001024589,新規,0,2022-10-28,2022-10-28,株式会社松井工務店,,株式会社,滋賀県,草津市,山寺町字北谷２３３番地１０,,25,206,5250042,,,,,,,2022-10-28,1,,,,,マツイコウムテン,0
1288,5160005011138,新規,0,2022-10-28,2022-10-28,医療法人野上歯科医院,,その他の設立登記法人,滋賀県,高島市,新旭町旭２丁目２番地４,,25,212,5201501,,,,,,,2022-10-28,1,,,,,ノガミシカイイン,0
1297,5180001153535,新規,0,2022-10-28,2022-10-28,株式会社Ｇｒｏｗｔｈ・Ｓｔａｇｅ,,株式会社,愛知県,尾張旭市,狩宿町１丁目１０６番地１,,23,226,4880021,,,,,,,2022-10-28,1,,,,,グロウスステージ,0
1300,5190001029858,新規,0,2022-10-28,2022-10-28,株式会社ＨＴＹ,,株式会社,三重県,四日市市,釆女が丘４丁目７１番地,,24,202,5100953,,,,,,,2022-10-28,1,,,,,エイチティーワイ,0
1304,5200001040598,新規,0,2022-10-28,2022-10-28,建家さぶり株式会社,,株式会社,岐阜県,不破郡垂井町,大滝２７４番地の２の１,,21,361,5032101,,,,,,,2022-10-28,1,,,,,タテヤサブリ,0
1307,5210001019138,新規,0,2022-10-28,2022-10-28,ｒｉｂｂｏｎ　Ｕ株式会社,,株式会社,福井県,福井市,上北野１丁目１４番１４号,,18,201,9188203,,,,,,,2022-10-28,1,,,,,リボンユー,0
1308,5220001025110,新規,0,2022-10-28,2022-10-28,株式会社アルティズム,,株式会社,石川県,金沢市,米泉町４丁目５０番地（シャルマン・２０３号）,,17,201,9218044,,,,,,,2022-10-28,1,,,,,アルティズム,0
1310,5220003003386,新規,0,2022-10-28,2022-10-28,合同会社石倉薬局,,合同会社,石川県,小松市,粟津町ワ３９番地２,,17,203,9230326,,,,,,,2022-10-28,1,,,,,イシクラヤッキョク,0
1313,5230001019557,新規,0,2022-10-28,2022-10-28,野山産興株式会社,,株式会社,富山県,富山市,緑町１丁目３番１８号,,16,201,9300038,,,,,,,2022-10-28,1,,,,,,0
1315,5240003005868,新規,0,2022-10-28,2022-10-28,合同会社Ｌｉｆｅ,,合同会社,広島県,広島市中区,舟入町２－２０三栄広島ビル９０５,,34,101,7300841,,,,,,,2022-10-28,1,,,,,ライフ,0
1319,5260003004083,新規,0,2022-10-28,2022-10-28,合同会社うったて,,合同会社,岡山県,岡山市中区,古京町２丁目６‐１７,,33,102,7038278,,,,,,,2022-10-28,1,,,,,ウッタテ,0
1330,5290005018839,新規,0,2022-10-28,2022-10-28,労働者協同組合ワーカーズコープありあけ,,その他の設立登記法人,福岡県,大牟田市,姫島町３８－４,,40,202,8360056,,,,,,,2022-10-28,1,,,,,ワーカーズコープアリアケ,0
1331,5290803004239,新規,0,2022-10-28,2022-10-28,合同会社英治興業,,合同会社,福岡県,北九州市門司区,大字吉志１９６番地２,,40,101,8000114,,,,,,,2022-10-28,1,,,,,ヒデハルコウギョウ,0
1332,5300001013107,新規,0,2022-10-28,2022-10-28,株式会社アークプロジェクト,,株式会社,佐賀県,佐賀市,嘉瀬町扇町２４４７番地１,,41,201,8400862,,,,,,,2022-10-28,1,,,,,アークプロジェクト,0
1345,5340005009519,新規,0,2022-10-28,2022-10-28,一般社団法人鹿児島トラスト,,その他の設立登記法人,鹿児島県,鹿児島市,金生町４番１０号アーバンスクエア鹿児島ビル,,46,201,8920828,,,,,,,2022-10-28,1,,,,,カゴシマトラスト,0
1347,5350001018010,新規,0,2022-10-28,2022-10-28,株式会社グローバルコネクト,,株式会社,宮崎県,宮崎市,青葉町７４番地１号青葉ビル２０２号,,45,201,8800842,,,,,,,2022-10-28,1,,,,,グローバルコネクト,0
1350,5350003004207,新規,0,2022-10-28,2022-10-28,合同会社ＲＩＯＳ,,合同会社,宮崎県,宮崎市,橘通東３丁目２番１６号,,45,201,8800805,,,,,,,2022-10-28,1,,,,,リオス,0
1354,5370001049185,新規,0,2022-10-28,2022-10-28,株式会社セブンマリン,,株式会社,宮城県,宮城郡七ヶ浜町,東宮浜字左道６６番地の６,,04,404,9850804,,,,,,,2022-10-28,1,,,,,セブンマリン,0
1361,5390001017058,新規,0,2022-10-28,2022-10-28,株式会社Ｋａｍｕｉ４８,,株式会社,山形県,鶴岡市,藤の花２丁目１１番地１２,,06,203,9997602,,,,,,,2022-10-28,1,,,,,カムイフォーティーエイト,0
1362,5390003002009,新規,0,2022-10-28,2022-10-28,合同会社ともに,,合同会社,山形県,山形市,鉄砲町２丁目７番２９号,,06,201,9902492,,,,,,,2022-10-28,1,,,,,トモニ,0
1365,5410001013310,新規,0,2022-10-28,2022-10-28,株式会社Ｍホールディングス,,株式会社,秋田県,大仙市,花館字間倉１５７番地６,,05,212,0140001,,,,,,,2022-10-28,1,,,,,エムホールディングス,0
1368,5420005007828,新規,0,2022-10-28,2022-10-28,ＮＰＯ法人しののベース,,その他の設立登記法人,青森県,弘前市,大字八幡町２丁目７番地１０,,02,202,0368057,,,,,,,2022-10-28,1,,,,,エヌピーオーホウジンシノノベース,0
1384,5470001019310,新規,0,2022-10-28,2022-10-28,株式会社ＳＴＥＰ,,株式会社,香川県,高松市,常磐町１丁目６番地６,,37,201,7600054,,,,,,,2022-10-28,1,,,,,ステップ,0
1389,5500001024554,新規,0,2022-10-28,2022-10-28,株式会社ＫＯＳＨＩＮＯ,,株式会社,愛媛県,西条市,大町１６０４番地,,38,206,7930030,,,,,,,2022-10-28,1,,,,,コシノ,0
1405,6010001230416,新規,0,2022-10-28,2022-10-28,株式会社フェルディナンドキャピタル,,株式会社,東京都,中央区,銀座１丁目２２番１１号銀座大竹ビジデンス２階,,13,102,1040061,,,,,,,2022-10-28,1,,,,,フェルディナンドキャピタル,0
1406,6010001230440,新規,0,2022-10-28,2022-10-28,株式会社Ｃｏｒｅｔ,,株式会社,東京都,千代田区,丸の内１丁目１１番１号,,13,101,1000005,,,,,,,2022-10-28,1,,,,,コレット,0
1407,6010001230457,新規,0,2022-10-28,2022-10-28,株式会社日本進学サポート,,株式会社,東京都,千代田区,大手町１丁目５－１大手町ファーストスクエアイーストタワー４階,,13,101,1000004,,,,,,,2022-10-28,1,,,,,ニホンシンガクサポート,0
1409,6010005035704,新規,0,2022-10-28,2022-10-28,特定非営利活動法人Ｔｅａｍ　ＷＡＤＡ,,その他の設立登記法人,東京都,中央区,日本橋堀留町１丁目１０番１号カクタビル２Ｆ,,13,102,1030012,,,,,,,2022-10-28,1,,,,,チームワダ,0
1433,6011001150521,新規,0,2022-10-28,2022-10-28,株式会社ワンエイトスポーツ,,株式会社,東京都,渋谷区,恵比寿４丁目２７番７号ＳＨＩＢＡＴＡＢＬＤＩＩＩ７階,00128278,13,113,1500013,,,,,,,2022-10-28,1,,,,,ワンエイトスポーツ,0
1434,6011003015598,新規,0,2022-10-28,2022-10-28,合同会社ＤＡＹ,,合同会社,東京都,渋谷区,恵比寿南１丁目１９番１１－３０２号ＫｅｙａｋｉＴｅｒｒａｃｅ恵比寿南,,13,113,1500022,,,,,,,2022-10-28,1,,,,,デイ,0
1440,6011101100657,新規,0,2022-10-28,2022-10-28,三＿地産株式会社,00128286,株式会社,東京都,新宿区,高田馬場４丁目９－１１藤和高田馬場コープＩＩ４０５,00128287,13,104,1690075,,,,,,,2022-10-28,1,,,,,サンキンチサン,0
1441,6011101100665,新規,0,2022-10-28,2022-10-28,Ｎ．Ｅ．Ｗ　Ｖｅｒｓｅ株式会社,,株式会社,東京都,新宿区,四谷２丁目８番地藤井ビル５Ｆ,,13,104,1600004,,,,,,,2022-10-28,1,,,,,ニューバース,0
1445,6011501028589,新規,0,2022-10-28,2022-10-28,株式会社日藝,,株式会社,東京都,荒川区,東日暮里４丁目１３－１５,,13,118,1160014,,,,,,,2022-10-28,1,,,,,ニチゲイ,0
1446,6011503005339,新規,0,2022-10-28,2022-10-28,合同会社エヌ・ピー,,合同会社,東京都,北区,滝野川６丁目６４番１０号,,13,117,1140023,,,,,,,2022-10-28,1,,,,,エヌピー,0
1452,6011701025741,新規,0,2022-10-28,2022-10-28,燕興業株式会社,,株式会社,東京都,江戸川区,鹿骨３丁目１番２号,,13,123,1330073,,,,,,,2022-10-28,1,,,,,ツバメコウギョウ,0
1455,6012305002029,新規,0,2022-10-28,2022-10-28,一般社団法人亜細亜進化設計協会,,その他の設立登記法人,東京都,町田市,森野４丁目１０番１７号,,13,209,1940022,,,,,,,2022-10-28,1,,,,,アジアシンカセッケイキョウカイ,0
1468,6020001148748,新規,0,2022-10-28,2022-10-28,株式会社ｂｌｏｓｓｏｍ,,株式会社,神奈川県,川崎市川崎区,大川町１０番５号,,14,131,2100858,,,,,,,2022-10-28,1,,,,,ブロッサム,0
1470,6020003022637,新規,0,2022-10-28,2022-10-28,合同会社Ａｉｄｍ,,合同会社,神奈川県,川崎市宮前区,犬蔵１丁目１番２４号,,14,136,2160011,,,,,,,2022-10-28,1,,,,,アイディーエム,0
1482,6030001150793,新規,0,2022-10-28,2022-10-28,イエリス株式会社,,株式会社,埼玉県,さいたま市大宮区,下町３丁目７番地１Ｓ７１７号,,11,103,3300844,,,,,,,2022-10-28,1,,,,,イエリス,0
1485,6030003020474,新規,0,2022-10-28,2022-10-28,ＬａｎｄＢｒｉｄｇｅ合同会社,,合同会社,埼玉県,越谷市,川柳町２丁目４０１,,11,222,3430827,,,,,,,2022-10-28,1,,,,,ランドブリッジ,0
1488,6040001125605,新規,0,2022-10-28,2022-10-28,株式会社Ｂａｓｈｅ’ｓ,,株式会社,千葉県,千葉市若葉区,原町２４１番地,,12,104,2640034,,,,,,,2022-10-28,1,,,,,バーシーズ,0
1496,6050001051866,新規,0,2022-10-28,2022-10-28,株式会社栗田農園,,株式会社,茨城県,鉾田市,樅山５７６番地３１号,,08,234,3111426,,,,,,,2022-10-28,1,,,,,クリタノウエン,0
1497,6050003006959,新規,0,2022-10-28,2022-10-28,合同会社ＬＵＣＫＹ　ＬＡＮＤ　ＩＮＴＥＲＮＡＴＩＯＮＡＬ,,合同会社,茨城県,坂東市,菅谷１１４５番地１２,,08,228,3060505,,,,,,,2022-10-28,1,,,,,ラッキーランドインターナショナル,0
1521,6120001249874,新規,0,2022-10-28,2022-10-28,株式会社Ｋ・ＳＷＡＧ,,株式会社,大阪府,大阪市鶴見区,浜４丁目８番１６号,,27,124,5380035,,,,,,,2022-10-28,1,,,,,ケースワッグ,0
1528,6120901046660,新規,0,2022-10-28,2022-10-28,株式会社Ｕｉｒｉｓ,,株式会社,大阪府,豊能郡豊能町,希望ケ丘５丁目８番地の１１,,27,321,5630214,,,,,,,2022-10-28,1,,,,,ユイリス,0
1537,6140001127830,新規,0,2022-10-28,2022-10-28,株式会社ＩＳＯＴＯＰＥ,,株式会社,兵庫県,西宮市,南甲子園１丁目９番１－１４０９号,,28,204,6638153,,,,,,,2022-10-28,1,,,,,アイソトープ,0
1538,6140003018284,新規,0,2022-10-28,2022-10-28,合同会社マウマウ,,合同会社,兵庫県,神戸市須磨区,車字古川１３３３番地の１グレーシィ須磨弐番館１２２号,,28,107,6540111,,,,,,,2022-10-28,1,,,,,マウマウ,0
1543,6160001024588,新規,0,2022-10-28,2022-10-28,翔誠貿易株式会社,,株式会社,滋賀県,近江八幡市,安土町桑実寺１６９－５,,25,204,5211321,,,,,,,2022-10-28,1,,,,,ショウセイボウエキ,0
1547,6170001017343,新規,0,2022-10-28,2022-10-28,株式会社なごみ,,株式会社,和歌山県,西牟婁郡上富田町,朝来１１１４番地,,30,404,6492105,,,,,,,2022-10-28,1,,,,,ナゴミ,0
1555,6180001153542,新規,0,2022-10-28,2022-10-28,双子商事株式会社,,株式会社,愛知県,名古屋市中村区,黄金通２丁目３２番地メゾン黄金３１５,,23,105,4530804,,,,,,,2022-10-28,1,,,,,フタゴショウジ,0
1561,6190005011753,新規,0,2022-10-28,2022-10-28,労働者協同組合コモンウェーブ,,その他の設立登記法人,三重県,鈴鹿市,長太栄町４丁目３番１号,,24,207,5130043,,,,,,,2022-10-28,1,,,,,コモンウェーブ,0
1562,6200001040580,新規,0,2022-10-28,2022-10-28,株式会社アラタ,,株式会社,岐阜県,各務原市,小佐野町４丁目２１５番地,,21,213,5040942,,,,,,,2022-10-28,1,,,,,アラタ,0
1563,6200001040589,新規,0,2022-10-28,2022-10-28,株式会社つ・な・ぐ,,株式会社,岐阜県,高山市,上岡本町７丁目１１５番地,,21,203,5060055,,,,,,,2022-10-28,1,,,,,ツナグ,0
1572,6290001099353,新規,0,2022-10-28,2022-10-28,株式会社Ｉ・Ｋ,,株式会社,福岡県,春日市,須玖南１丁目１４９番地アール春日３１１号,,40,218,8160863,,,,,,,2022-10-28,1,,,,,アイケー,0
1576,6290803004238,新規,0,2022-10-28,2022-10-28,合同会社Ｂｌｕｅ　Ｓｔａｒ,,合同会社,福岡県,中間市,中央４丁目２６番１１号,,40,215,8090030,,,,,,,2022-10-28,1,,,,,ブルースター,0
1578,6310003004473,新規,0,2022-10-28,2022-10-28,合同会社グラウン,,合同会社,長崎県,諫早市,福田町１６１１－１５７,,42,204,8540001,,,,,,,2022-10-28,1,,,,,,0
1583,6340001025114,新規,0,2022-10-28,2022-10-28,株式会社一六工業,,株式会社,鹿児島県,志布志市,有明町野神３６１９番地,,46,221,8997512,,,,,,,2022-10-28,1,,,,,イチロクコウギョウ,0
1585,6360003012406,新規,0,2022-10-28,2022-10-28,合同会社ＵＮＯＳ,,合同会社,沖縄県,沖縄市,中央２丁目１番１号,,47,211,9040004,,,,,,,2022-10-28,1,,,,,ウノス,0
1590,6370003005870,新規,0,2022-10-28,2022-10-28,ＵＭＭＡＲ　ＴＲＡＤＥＲＳ合同会社,,合同会社,宮城県,大崎市,岩出山字浦小路１６番地岩出山オフィスビルＣ－１号室,,04,215,9896435,,,,,,,2022-10-28,1,,,,,ウマールトレーダーズ,0
1598,6380001033212,新規,0,2022-10-28,2022-10-28,まつ山株式会社,,株式会社,福島県,西白河郡矢吹町,三城目１２５番地,,07,466,9690242,,,,,,,2022-10-28,1,,,,,マツヤマ,0
1606,6420005007827,新規,0,2022-10-28,2022-10-28,特定非営利活動法人ひがしの杜,,その他の設立登記法人,青森県,十和田市,大字三本木字里ノ沢１番地２４０,,02,206,0340001,,,,,,,2022-10-28,1,,,,,ヒガシノモリ,0
1623,7010001230423,新規,0,2022-10-28,2022-10-28,ＴＡＫＥＯＮＥ株式会社,,株式会社,東京都,中央区,晴海２丁目３番２－４８１３号,,13,102,1040053,,,,,,,2022-10-28,1,,,,,テイクワン,0
1628,7010003038930,新規,0,2022-10-28,2022-10-28,合同会社ｃｅｌｌｅｎｔ　ｈｏｌｄｉｎｇｓ,,合同会社,東京都,中央区,銀座１丁目２２番１１号銀座大竹ビジデンス２Ｆ,,13,102,1040061,,,,,,,2022-10-28,1,,,,,セレントホールディングス,0
1647,7010701043273,新規,0,2022-10-28,2022-10-28,株式会社資金調達の仲人,,株式会社,東京都,品川区,西五反田１丁目２３番７号五反田シティトラストビル５階,,13,109,1410031,,,,,,,2022-10-28,1,,,,,シキンチョウタツノナコウド,0
1650,7010801033372,新規,0,2022-10-28,2022-10-28,小泉不動産管理株式会社,,株式会社,東京都,大田区,南六郷３丁目４番９号,,13,111,1440045,,,,,,,2022-10-28,1,,,,,コイズミフドウサンカンリ,0
1654,7010901051860,新規,0,2022-10-28,2022-10-28,株式会社ビュロー菊地ミュージック,,株式会社,東京都,世田谷区,奥沢７丁目１０番５号,,13,112,1580083,,,,,,,2022-10-28,1,,,,,ビュローキクチミュージック,0
1655,7010903007745,新規,0,2022-10-28,2022-10-28,合同会社ＫＡＢＵＴＯＭＵＳＨＩ,,合同会社,東京都,世田谷区,北沢２丁目２５番８号１Ｆ,,13,112,1550031,,,,,,,2022-10-28,1,,,,,カブトムシ,0
1665,7011001150545,新規,0,2022-10-28,2022-10-28,株式会社アスビ,,株式会社,東京都,渋谷区,恵比寿南１丁目１－１ヒューマックス恵比寿ビル７Ｆ，８Ｆ,,13,113,1500022,,,,,,,2022-10-28,1,,,,,アスビ,0
1666,7011001150611,新規,0,2022-10-28,2022-10-28,株式会社カシカ・コンサルティング,,株式会社,東京都,渋谷区,神南１丁目１１－３ＰＯＲＴＡＬＰＯＩＮＴＳＨＩＢＵＹＡ３０３,,13,113,1500041,,,,,,,2022-10-28,1,,,,,カシカコンサルティング,0
1667,7011005009795,新規,0,2022-10-28,2022-10-28,一般社団法人ＥＣスキル認定協会,,その他の設立登記法人,東京都,渋谷区,宇田川町１９－５ＹＡＭＡＴＥｍａｎｓｉｏｎ８０６,,13,113,1500042,,,,,,,2022-10-28,1,,,,,イーシースキルニンテイキョウカイ,0
1669,7011101100664,新規,0,2022-10-28,2022-10-28,株式会社えるじぇーぴー,,株式会社,東京都,新宿区,西新宿３丁目３番１３号,,13,104,1600023,,,,,,,2022-10-28,1,,,,,エルジェーピー,0
1671,7011103012313,新規,0,2022-10-28,2022-10-28,合同会社カーディオイド,,合同会社,東京都,新宿区,西新宿３丁目３番１３号西新宿水間ビル６階,,13,104,1600023,,,,,,,2022-10-28,1,,,,,カーディオイド,0
1672,7011105010455,新規,0,2022-10-28,2022-10-28,一般財団法人国家戦略研究会,,その他の設立登記法人,東京都,新宿区,西新宿１丁目２５番１号新宿センタービル３７階,,13,104,1600023,,,,,,,2022-10-28,1,,,,,コッカセンリャクケンキュウカイ,0
1673,7011201024193,新規,0,2022-10-28,2022-10-28,株式会社ブライトホーム,,株式会社,東京都,中野区,鷺宮４丁目３２番１号,,13,114,1650032,,,,,,,2022-10-28,1,,,,,ブライトホーム,0
1678,7011601026327,新規,0,2022-10-28,2022-10-28,株式会社ｏｃｔｏｒｂ,,株式会社,東京都,練馬区,練馬２丁目２８番２０号,,13,120,1760001,,,,,,,2022-10-28,1,,,,,オクトーブ,0
1679,7011603003737,新規,0,2022-10-28,2022-10-28,合同会社マグノリア福祉会計,,合同会社,東京都,練馬区,光が丘３丁目９番３号,,13,120,1790072,,,,,,,2022-10-28,1,,,,,マグノリアフクシカイケイ,0
1684,7011801041448,新規,0,2022-10-28,2022-10-28,Ｒａｋｕｙｕ株式会社,,株式会社,東京都,足立区,古千谷本町２丁目１番１８号メゾネットフォルテＢ号室,,13,121,1210832,,,,,,,2022-10-28,1,,,,,ラクユ,0
1685,7011801041456,新規,0,2022-10-28,2022-10-28,ＳＫ　ＧＲＯＵＰ株式会社,,株式会社,東京都,足立区,東保木間１丁目１４番１３号,,13,121,1210063,,,,,,,2022-10-28,1,,,,,エスケーグループ,0
1686,7011803005335,新規,0,2022-10-28,2022-10-28,合同会社Ｒｉｎｇ,,合同会社,東京都,足立区,西新井３丁目６番１７－２０３号,,13,121,1230841,,,,,,,2022-10-28,1,,,,,リング,0
1694,7012403005642,新規,0,2022-10-28,2022-10-28,合同会社ルーツ,,合同会社,東京都,調布市,深大寺南町３丁目１４－８,,13,208,1820013,,,,,,,2022-10-28,1,,,,,ルーツ,0
1696,7013101009043,新規,0,2022-10-28,2022-10-28,ＨＯＡＮＧ　ＮＡＭ　ＧＲＯＵＰ株式会社,,株式会社,東京都,福生市,大字福生８８２番地２３Ｋ×Ｋ３０２号室,,13,218,1970011,,,,,,,2022-10-28,1,,,,,ホアンナムグループ,0
1710,7020001148697,新規,0,2022-10-28,2022-10-28,株式会社ＢＧＢ,,株式会社,神奈川県,横浜市港北区,高田東２丁目４－１０シャンベールＩ２０５,00128276,14,109,2230065,,,,,,,2022-10-28,1,,,,,ビージービー,0
1711,7020001148730,新規,0,2022-10-28,2022-10-28,株式会社中華街不動産,,株式会社,神奈川県,横浜市中区,山下町１０６番地１３,,14,104,2310023,,,,,,,2022-10-28,1,,,,,チュウカガイフドウサン,0
1716,7021001077300,新規,0,2022-10-28,2022-10-28,株式会社アザレア,,株式会社,神奈川県,三浦郡葉山町,堀内８１０番地,,14,301,2400112,,,,,,,2022-10-28,1,,,,,アザレア,0
1720,7030001150776,新規,0,2022-10-28,2022-10-28,株式会社彩いろまち研究所,,株式会社,埼玉県,川越市,新宿町６丁目４番地４,,11,201,3501124,,,,,,,2022-10-28,1,,,,,アヤイロマチケンキュウジョ,0
1725,7030005021024,新規,0,2022-10-28,2022-10-28,一般財団法人浦和北ロータリー未来の子ども基金,,その他の設立登記法人,埼玉県,さいたま市浦和区,北浦和１丁目１番２号ＹＫ－２１ビル２階,,11,107,3300074,,,,,,,2022-10-28,1,,,,,ウラワキタロータリーミライノコドモキキン,0
1736,7050001051865,新規,0,2022-10-28,2022-10-28,株式会社ＯＧＡＷＡ　ＳＨＯＵＴＥＮ,,株式会社,茨城県,小美玉市,佐才４０５番地１,,08,236,3113402,,,,,,,2022-10-28,1,,,,,オガワショウテン,0
1737,7050003006917,新規,0,2022-10-28,2022-10-28,ＳＧ　ＴＲＡＤＩＮＧ合同会社,,合同会社,茨城県,つくば市,手子生９２４－１,,08,220,3002647,,,,,,,2022-10-28,1,,,,,エスジートレーディング,0
1744,7070003004670,新規,0,2022-10-28,2022-10-28,クインスメープル合同会社,,合同会社,群馬県,前橋市,南町３丁目５０番地２プラザアン２階Ｄ－１９,,10,201,3710805,,,,,,,2022-10-28,1,,,,,クインスメープル,0
1748,7080401026126,新規,0,2022-10-28,2022-10-28,株式会社唯,,株式会社,静岡県,浜松市中区,船越町６番２１号,,22,131,4300913,,,,,,,2022-10-28,1,,,,,ユイ,0
1752,7100001035813,新規,0,2022-10-28,2022-10-28,Ｃｈｅｓｔｅｒｓｋｉ株式会社,,株式会社,長野県,飯山市,大字飯山１１４９２番地３３１,,20,213,3892253,,,,,,,2022-10-28,1,,,,,チェスタースキー,0
1755,7110003004897,新規,0,2022-10-28,2022-10-28,合同会社ｏｍｕｓｕｂｉ,,合同会社,新潟県,新潟市中央区,天神１丁目１プラーカ３・２Ｆ,,15,103,9500917,,,,,,,2022-10-28,1,,,,,オムスビ,0
1766,7120001249840,新規,0,2022-10-28,2022-10-28,川外川株式会社,,株式会社,大阪府,大阪市中央区,島之内２丁目６番３２号３０５号室,,27,128,5420082,,,,,,,2022-10-28,1,,,,,センゲセン,0
1783,7122003002442,新規,0,2022-10-28,2022-10-28,合同会社ＳＥＤ,,合同会社,大阪府,東大阪市,小若江２丁目９番３３－４０２号,,27,227,5770818,,,,,,,2022-10-28,1,,,,,エスイーディー,0
1793,7140001127838,新規,0,2022-10-28,2022-10-28,株式会社阿部総建,,株式会社,兵庫県,神戸市長田区,本庄町３丁目６番６号,,28,106,6530053,,,,,,,2022-10-28,1,,,,,,0
1794,7140001127846,新規,0,2022-10-28,2022-10-28,株式会社琴十和,,株式会社,兵庫県,神戸市東灘区,本山北町４丁目９番４１号,,28,101,6580003,,,,,,,2022-10-28,1,,,,,コトトワ,0
1801,7150001025909,新規,0,2022-10-28,2022-10-28,株式会社ノアズ・アーク,,株式会社,奈良県,奈良市,七条町８４番地の１オリエント奈良西の京５１２,,29,201,6308051,,,,,,,2022-10-28,1,,,,,ノアズアーク,0
1802,7160001024587,新規,0,2022-10-28,2022-10-28,株式会社綿向き屋,,株式会社,滋賀県,蒲生郡日野町,中道１丁目２２番地,,25,383,5291609,,,,,,,2022-10-28,1,,,,,ワタムキヤ,0
1826,7220001025109,新規,0,2022-10-28,2022-10-28,株式会社ニコラスｗｏｒｋｅｒ,,株式会社,石川県,金沢市,稚日野町南２５７番地１,,17,201,9200355,,,,,,,2022-10-28,1,,,,,ニコラスワーカー,0
1830,7230001019563,新規,0,2022-10-28,2022-10-28,株式会社シマテック,,株式会社,富山県,射水市,堀岡８番地２,,16,211,9330223,,,,,,,2022-10-28,1,,,,,シマテック,0
1835,7240001060566,新規,0,2022-10-28,2022-10-28,株式会社賢美グループ,,株式会社,広島県,広島市佐伯区,五日市中央２丁目４番１８－３０５号ビレッジ中央,,34,108,7315128,,,,,,,2022-10-28,1,,,,,ケンビグループ,0
1836,7240002054897,新規,0,2022-10-28,2022-10-28,有限会社古川クリーニング,,有限会社,広島県,尾道市,美ノ郷町三成１５７１番地の１,,34,205,7220215,,,,,,,2022-10-28,1,,,,,フルカワクリーニング,0
1838,7250001019818,新規,0,2022-10-28,2022-10-28,株式会社ＯＧ,,株式会社,山口県,周南市,久米中央１丁目１７番３号,,35,215,7450809,,,,,,,2022-10-28,1,,,,,オージー,0
1840,7260002005956,新規,0,2022-10-28,2022-10-28,大有技術有限会社,,有限会社,岡山県,岡山市北区,一宮１８１番地の１２,,33,101,7011211,,,,,,,2022-10-28,1,,,,,ダイユウギジュツ,0
1842,7260003004081,新規,0,2022-10-28,2022-10-28,おおぞら設計事務所合同会社,,合同会社,岡山県,岡山市南区,大福７２１－６３－４０１,,33,104,7010204,,,,,,,2022-10-28,1,,,,,オオゾラセッケイジムショ,0
1845,7280005007510,新規,0,2022-10-28,2022-10-28,一般社団法人日本手しごと研究会,,その他の設立登記法人,島根県,松江市,奥谷町８５番地６,,32,201,6900872,,,,,,,2022-10-28,1,,,,,ニホンテシゴトケンキュウカイ,0
1849,7290001099352,新規,0,2022-10-28,2022-10-28,株式会社アームテック,,株式会社,福岡県,福岡市南区,三宅３丁目２３番１０－１号,,40,134,8111344,,,,,,,2022-10-28,1,,,,,アームテック,0
1853,7290801028989,新規,0,2022-10-28,2022-10-28,株式会社ｍｇ‐ＫＲＴホールディングス,,株式会社,福岡県,北九州市小倉北区,東篠崎２丁目４番１－５１２号,,40,106,8020072,,,,,,,2022-10-28,1,,,,,エムジーケーアールティーホールディングス,0
1859,7310003004472,新規,0,2022-10-28,2022-10-28,合同会社ペイントライフ,,合同会社,長崎県,長崎市,深堀町２丁目１１５番地,,42,201,8510301,,,,,,,2022-10-28,1,,,,,ペイントライフ,0
1863,7340001025113,新規,0,2022-10-28,2022-10-28,共力電設株式会社,,株式会社,鹿児島県,薩摩川内市,東郷町斧渕３１番地,,46,215,8951106,,,,,,,2022-10-28,1,,,,,キョウリョクデンセツ,0
1884,7430003014402,新規,0,2022-10-28,2022-10-28,合同会社ＹＯＬ,,合同会社,北海道,札幌市中央区,南八条西６丁目４２０番地３マクダミド５０７号,,01,101,0640808,,,,,,,2022-10-28,1,,,,,ヨル,0
1885,7470001019309,新規,0,2022-10-28,2022-10-28,ＳＥＣＲＥＴ株式会社,,株式会社,香川県,綾歌郡綾川町,滝宮２８５番地６,,37,387,7612305,,,,,,,2022-10-28,1,,,,,シークレット,0
1889,7700150111718,新規,0,2022-10-28,2022-10-28,ＡＰＴＲＥＥ　Ａｖｉａｔｉｏｎ　Ｔｒａｄｉｎｇ　１　Ｃｏ．，Ｌｉｍｉｔｅｄ,,外国会社等,,,,,,,,１ＧＱ，Ｇｅｏｒｇｅ’ｓ　Ｑｕａｙ　Ｄｕｂｌｉｎ２，Ｉｒｅｌａｎｄ,,,,,,2022-10-28,1,,,,,アプトリーアビエイシヨントレーデイングワンコーリミテツド,0
1895,8010001230439,新規,0,2022-10-28,2022-10-28,ＭＴオプティクス株式会社,,株式会社,東京都,千代田区,丸の内２丁目５番２号,,13,101,1000005,,,,,,,2022-10-28,1,,,,,エムティーオプティクス,0
1899,8010101015376,新規,0,2022-10-28,2022-10-28,株式会社緑化商事,,株式会社,東京都,八王子市,北野町５８２番地１,,13,201,1920906,,,,,,,2022-10-28,1,,,,,リョクカショウジ,0
1908,8010401170482,新規,0,2022-10-28,2022-10-28,株式会社直観,,株式会社,東京都,港区,愛宕１丁目３番２号愛宕ビューアパートメント１６０３,,13,103,1050002,,,,,,,2022-10-28,1,,,,,チョッカン,0
1909,8010401170532,新規,0,2022-10-28,2022-10-28,Ｄｒｅａｍｈｕｂ株式会社,,株式会社,東京都,港区,麻布十番２丁目１１番５－５０１号,,13,103,1060045,,,,,,,2022-10-28,1,,,,,ドリームハブ,0
1920,8010601062050,新規,0,2022-10-28,2022-10-28,瑞奇第株式会社,,株式会社,東京都,江東区,東砂５丁目５番６－２０８号,,13,108,1360074,,,,,,,2022-10-28,1,,,,,ズイキダイ,0
1925,8010801033388,新規,0,2022-10-28,2022-10-28,株式会社ファーストプレミアム,,株式会社,東京都,大田区,山王３丁目３０番６号,,13,111,1430023,,,,,,,2022-10-28,1,,,,,ファーストプレミアム,0
1926,8010805002983,新規,0,2022-10-28,2022-10-28,リージョンパートナー税理士法人,,その他の設立登記法人,東京都,大田区,蒲田５丁目１５番８号,,13,111,1440052,,,,,,,2022-10-28,1,,,,,リージョンパートナー,0
1927,8010901051868,新規,0,2022-10-28,2022-10-28,株式会社ＫＩＤ　Ｊ,,株式会社,東京都,世田谷区,玉川３丁目２０番２号マノア玉川第３ビル５０１号室,,13,112,1580094,,,,,,,2022-10-28,1,,,,,キッドジェイ,0
1930,8010903007744,新規,0,2022-10-28,2022-10-28,合同会社Ｒｉ’ｓ　Ａｇｅｎｔ,,合同会社,東京都,世田谷区,代田５丁目３２番１５号アンソレイエ下北沢１０５号室,,13,112,1550033,,,,,,,2022-10-28,1,,,,,リースエージェント,0
1938,8011001150593,新規,0,2022-10-28,2022-10-28,キックスターツ株式会社,,株式会社,東京都,渋谷区,代々木５丁目１７番１１号代々木パークガーデン２０２,,13,113,1510053,,,,,,,2022-10-28,1,,,,,キックスターツ,0
1947,8011501028604,新規,0,2022-10-28,2022-10-28,易科株式会社,,株式会社,東京都,北区,浮間３丁目１０番２３－２０２号のぞみハイツ,,13,117,1150051,,,,,,,2022-10-28,1,,,,,イカ,0
1950,8011801041447,新規,0,2022-10-28,2022-10-28,株式会社エビサワ,,株式会社,東京都,足立区,江北４丁目２９番１２号西新井スカイハイツ３０８号,,13,121,1230872,,,,,,,2022-10-28,1,,,,,エビサワ,0
1951,8012301013184,新規,0,2022-10-28,2022-10-28,株式会社グローワークス,,株式会社,東京都,町田市,金森東１丁目５番２４号,,13,209,1940015,,,,,,,2022-10-28,1,,,,,グローワークス,0
1954,8012405004798,新規,0,2022-10-28,2022-10-28,リエゾンブリッジ協同組合,,その他の設立登記法人,東京都,武蔵野市,関前３丁目２２番１０号,,13,203,1800014,,,,,,,2022-10-28,1,,,,,リエゾンブリッジ,0
1955,8012801021918,新規,0,2022-10-28,2022-10-28,株式会社井ろは,,株式会社,東京都,昭島市,宮沢町３丁目４番１３号,,13,207,1960024,,,,,,,2022-10-28,1,,,,,イロハ,0
1956,8012803002908,新規,0,2022-10-28,2022-10-28,合同会社ハヤシライス,,合同会社,東京都,日野市,三沢２丁目３８番地の６,,13,212,1910032,,,,,,,2022-10-28,1,,,,,ハヤシライス,0
1957,8013101009042,新規,0,2022-10-28,2022-10-28,田代不動産株式会社,,株式会社,東京都,西多摩郡瑞穂町,大字箱根ケ崎９３番地１０,,13,303,1901221,,,,,,,2022-10-28,1,,,,,タシロフドウサン,0
1964,8020001148738,新規,0,2022-10-28,2022-10-28,株式会社Ｗｉｓｅ　Ｌｉｖｅ,,株式会社,神奈川県,横浜市青葉区,つつじが丘１７番地２,,14,117,2270055,,,,,,,2022-10-28,1,,,,,ワイズライブ,0
1973,8021001077274,新規,0,2022-10-28,2022-10-28,相模木材株式会社,,株式会社,神奈川県,相模原市緑区,千木良１０４４番地,,14,151,2520174,,,,,,,2022-10-28,1,,,,,,0
1997,8040001125603,新規,0,2022-10-28,2022-10-28,株式会社Ｎｏｂｅｌ　Ｗｏｒｋ　Ｓｔｙｌｅｓ,,株式会社,千葉県,浦安市,北栄３丁目１９番５号,,12,227,2790002,,,,,,,2022-10-28,1,,,,,ノーベルワークスタイルズ,0
1998,8040001125628,新規,0,2022-10-28,2022-10-28,株式会社Ｂ・Ｌ・Ｏ・Ｍ,,株式会社,千葉県,千葉市稲毛区,萩台町４１４番地１９,,12,103,2630012,,,,,,,2022-10-28,1,,,,,ビーエルオーエム,0
2004,8040005021798,新規,0,2022-10-28,2022-10-28,医療法人社団かなめ会,,その他の設立登記法人,千葉県,柏市,南柏中央１番地６宇佐美ビル２階,,12,217,2770075,,,,,,,2022-10-28,1,,,,,カナメカイ,0
2012,8060003004282,新規,0,2022-10-28,2022-10-28,合同会社ｗｅｌｌｐｙ,,合同会社,栃木県,下野市,下古山８２－３リリアコート７０１,,09,216,3290502,,,,,,,2022-10-28,1,,,,,ウェルピー,0
2017,8080101023595,新規,0,2022-10-28,2022-10-28,望月サッシ株式会社,,株式会社,静岡県,富士市,入山瀬６８２番地の５,,22,210,4190204,,,,,,,2022-10-28,1,,,,,モチヅキサッシ,0
2022,8080401026125,新規,0,2022-10-28,2022-10-28,株式会社ジェネミー,,株式会社,静岡県,浜松市北区,三ヶ日町津々崎７４９番地の１,,22,135,4311405,,,,,,,2022-10-28,1,,,,,ジェネミー,0
2023,8100001035820,新規,0,2022-10-28,2022-10-28,ジェイレック株式会社,,株式会社,長野県,長野市,大字安茂里８２３番地３,,20,201,3800941,,,,,,,2022-10-28,1,,,,,ジェイレック,0
2024,8100003006745,新規,0,2022-10-28,2022-10-28,イースタンクラシック合同会社,,合同会社,長野県,茅野市,玉川６５０９番地,,20,214,3910011,,,,,,,2022-10-28,1,,,,,イースタンクラシック,0
2026,8110001037064,新規,0,2022-10-28,2022-10-28,株式会社Ｒ‐Ｐｒｏ,,株式会社,新潟県,燕市,笈ケ島３６０３番地５,,15,213,9590113,,,,,,,2022-10-28,1,,,,,リプロ,0
2038,8120001249889,新規,0,2022-10-28,2022-10-28,株式会社ｇｉｆｔｅｄ,,株式会社,大阪府,大阪市北区,堂山町１番２号,,27,127,5300027,,,,,,,2022-10-28,1,,,,,ギフテッド,0
2044,8120003022740,新規,0,2022-10-28,2022-10-28,合同会社ＤＵＫＩＮ,,合同会社,大阪府,大阪市中央区,南船場２丁目１０番１７－３０３号,,27,128,5420081,,,,,,,2022-10-28,1,,,,,ドゥキン,0
2045,8120003022749,新規,0,2022-10-28,2022-10-28,Ｓｉｓｔｅｍａ　Ｓｏｌｕｓｙｏｎ合同会社,,合同会社,大阪府,門真市,三ツ島４丁目１４番１０号,,27,223,5710015,,,,,,,2022-10-28,1,,,,,システマソリュウシヨン,0
2049,8120901046659,新規,0,2022-10-28,2022-10-28,株式会社ＮＯＲＴＨ　ＦＩＥＬＤ,,株式会社,大阪府,吹田市,南吹田１丁目３番１５－２１２号,,27,205,5640043,,,,,,,2022-10-28,1,,,,,ノースフィールド,0
2056,8130001072919,新規,0,2022-10-28,2022-10-28,株式会社ＭＯＳＴＴ,,株式会社,京都府,京都市伏見区,上油掛町４０番地２ハイツ伏見桃山６０７,,26,109,6128047,,,,,,,2022-10-28,1,,,,,モスティ,0
2078,8180001153490,新規,0,2022-10-28,2022-10-28,エルアンドピー株式会社,,株式会社,愛知県,名古屋市南区,豊４丁目６番５号,,23,112,4570863,,,,,,,2022-10-28,1,,,,,エルアンドピー,0
2084,8180005019977,新規,0,2022-10-28,2022-10-28,一般社団法人日本頭皮環境改善研究所,,その他の設立登記法人,愛知県,名古屋市中川区,野田１丁目２２７番地八田ビル２階,,23,110,4540912,,,,,,,2022-10-28,1,,,,,ニホントウヒカンキョウカイゼンケンキュウジョ,0
2086,8180303005489,新規,0,2022-10-28,2022-10-28,Ｅ‐ＫＩＲＡＮ　ＣＯＲＰＯＲＡＴＩＯＮ合同会社,,合同会社,愛知県,刈谷市,若松町３丁目９番地ＹＦ　ＢＬＤＧ　３Ｆ,,23,210,4480858,,,,,,,2022-10-28,1,,,,,イーキランコーポレーション,0
2087,8190001029863,新規,0,2022-10-28,2022-10-28,株式会社ｃｌｅａｒ,,株式会社,三重県,四日市市,滝川町９番１５号アルカディア２Ａ,,24,202,5100034,,,,,,,2022-10-28,1,,,,,クリア,0
2089,8220001025108,新規,0,2022-10-28,2022-10-28,株式会社北陸都市開発研究所,,株式会社,石川県,金沢市,神宮寺町１番地８７,,17,201,9200803,,,,,,,2022-10-28,1,,,,,ホクリクトシカイハツケンキュウショ,0
2092,8240001060565,新規,0,2022-10-28,2022-10-28,株式会社ロータス,,株式会社,広島県,広島市西区,己斐大迫１丁目１５番１８号,,34,104,7330816,,,,,,,2022-10-28,1,,,,,ロータス,0
2110,8340001025112,新規,0,2022-10-28,2022-10-28,株式会社小宮路建装,,株式会社,鹿児島県,鹿児島市,吉野町３７３０番地４２,,46,201,8920871,,,,,,,2022-10-28,1,,,,,コミヤジケンソウ,0
2112,8350005006108,新規,0,2022-10-28,2022-10-28,一般社団法人めぐり舎,,その他の設立登記法人,宮崎県,延岡市,下三輪町１３２０番地,,45,203,8820883,,,,,,,2022-10-28,1,,,,,メグリシャ,0
2114,8360003012404,新規,0,2022-10-28,2022-10-28,セレクトショップＫ合同会社,,合同会社,沖縄県,沖縄市,室川２丁目７番３２号１階,,47,211,9040013,,,,,,,2022-10-28,1,,,,,セレクトショップケイ,0
2119,8370003005869,新規,0,2022-10-28,2022-10-28,ＭＩＡＮ　ＪＥＥ　ＴＲＡＤＩＮＧ合同会社,,合同会社,宮城県,大崎市,岩出山字浦小路１６番地岩出山オフィスビルＣ－２号室,,04,215,9896435,,,,,,,2022-10-28,1,,,,,ミアンジートレーディング,0
2120,8370003005877,新規,0,2022-10-28,2022-10-28,合同会社仙台門馬会,,合同会社,宮城県,仙台市青葉区,国分町２丁目５番３号ゴロク壱番館５Ｆ,,04,101,9800803,,,,,,,2022-10-28,1,,,,,センダイモンマカイ,0
2121,8370005010545,新規,0,2022-10-28,2022-10-28,一般社団法人岩沼建設産業同友会,,その他の設立登記法人,宮城県,岩沼市,下野郷字新拓１７０番地１,,04,211,9892421,,,,,,,2022-10-28,1,,,,,イワヌマケンセツサンギョウドウユウカイ,0
2125,8380001033210,新規,0,2022-10-28,2022-10-28,京林建設工業株式会社,,株式会社,福島県,会津若松市,飯盛３丁目５番１号,,07,202,9650007,,,,,,,2022-10-28,1,,,,,キョウリンケンセツコウギョウ,0
2135,8430001087721,新規,0,2022-10-28,2022-10-28,楽生活株式会社,,株式会社,北海道,小樽市,長橋２丁目２３番３０号,,01,203,0470036,,,,,,,2022-10-28,1,,,,,ラクセイカツ,0
2136,8430001087738,新規,0,2022-10-28,2022-10-28,株式会社ＳＲＹ,,株式会社,北海道,札幌市中央区,南七条西１丁目２０番地１グレートヒルアクアフロント５０１号,,01,101,0640807,,,,,,,2022-10-28,1,,,,,エスアールワイ,0
2137,8430001087746,新規,0,2022-10-28,2022-10-28,株式会社Ｈａｒｗｏｏｄ,,株式会社,北海道,札幌市中央区,北三条西２３丁目２番５－３０１号,,01,101,0640823,,,,,,,2022-10-28,1,,,,,ハーウッド,0
2139,8430003014401,新規,0,2022-10-28,2022-10-28,合同会社ＹＥＳ　ＪＡＰＡＮ,,合同会社,北海道,札幌市中央区,南一条西１１丁目３２７番地２０,,01,101,0600061,,,,,,,2022-10-28,1,,,,,イエスジャパン,0
2140,8430003014418,新規,0,2022-10-28,2022-10-28,合同会社ムラサキ,,合同会社,北海道,北広島市,中央６丁目３－１,,01,234,0611121,,,,,,,2022-10-28,1,,,,,ムラサキ,0
2141,8430005014589,新規,0,2022-10-28,2022-10-28,特定非営利活動法人北海道スノースポーツ振興協議会,,その他の設立登記法人,北海道,札幌市中央区,南十条西１０丁目１番２０号,,01,101,0640810,,,,,,,2022-10-28,1,,,,,ホッカイドウスノースポーツシンコウキョウギカイ,0
2152,9010001230454,新規,0,2022-10-28,2022-10-28,ＭＣＴ　ＪＡＰＡＮ株式会社,,株式会社,東京都,中央区,日本橋小網町１９番８－７０１号,,13,102,1030016,,,,,,,2022-10-28,1,,,,,エムシティジャパン,0
2156,9010005035718,新規,0,2022-10-28,2022-10-28,一般社団法人ＫＳＦＲ５,,その他の設立登記法人,東京都,千代田区,内幸町２丁目１番６号,,13,101,1000011,,,,,,,2022-10-28,1,,,,,ケイエスエフアールファイブ,0
2167,9010401170465,新規,0,2022-10-28,2022-10-28,Ｄｏｒｃｈｅｓｔｅｒ　Ｃｏｌｌｅｃｔｉｏｎ　Ｊａｐａｎ株式会社,,株式会社,東京都,港区,白金台３丁目１０番１０号,,13,103,1080071,,,,,,,2022-10-28,1,,,,,ドーチェスターコレクションジャパン,0
2168,9010401170531,新規,0,2022-10-28,2022-10-28,株式会社ブリッジマスター,,株式会社,東京都,港区,赤坂３丁目８番８号,,13,103,1070052,,,,,,,2022-10-28,1,,,,,ブリッジマスター,0
2169,9010405021524,新規,0,2022-10-28,2022-10-28,一般社団法人日本再生医療推進機構,,その他の設立登記法人,東京都,港区,麻布十番１丁目５番１８号カートブラン麻布十番７階,,13,103,1060045,,,,,,,2022-10-28,1,,,,,ニホンサイセイイリョウスイシンキコウ,0
2172,9010603009809,新規,0,2022-10-28,2022-10-28,ひまわり文化合同会社,,合同会社,東京都,江東区,豊洲５丁目１番１３－１６０１号,,13,108,1350061,,,,,,,2022-10-28,1,,,,,ヒマワリブンカ,0
2175,9010703006433,新規,0,2022-10-28,2022-10-28,合同会社ＦＯＣ,,合同会社,東京都,品川区,荏原１丁目２１番１１号Ｎ－ｆｉｒｓｔＥＢＡＲＡ３０１,,13,109,1420063,,,,,,,2022-10-28,1,,,,,エフオーシー,0
2180,9010901051850,新規,0,2022-10-28,2022-10-28,株式会社ＡＳＯＭＡＮＡＢＯ,,株式会社,東京都,世田谷区,下馬２丁目１３－１５,,13,112,1540002,,,,,,,2022-10-28,1,,,,,アソマナボ,0
2181,9010901051867,新規,0,2022-10-28,2022-10-28,株式会社和,,株式会社,東京都,世田谷区,経堂１丁目４番１０号相原ビル３０１,,13,112,1560052,,,,,,,2022-10-28,1,,,,,ナゴミ,0
2186,9011001150568,新規,0,2022-10-28,2022-10-28,株式会社ｅ‐ｌａｍｐ．,,株式会社,東京都,渋谷区,渋谷２丁目１６－８ＶＥＩＬＳＨＩＢＵＹＡ４階,,13,113,1500002,,,,,,,2022-10-28,1,,,,,イーランプ,0
2187,9011001150592,新規,0,2022-10-28,2022-10-28,株式会社ＣＨＡＩＮＳＯＤＡ,,株式会社,東京都,渋谷区,神宮前６丁目２３－４桑野ビル２Ｆ,,13,113,1500001,,,,,,,2022-10-28,1,,,,,チェインソーダ,0
2190,9011003015604,新規,0,2022-10-28,2022-10-28,合同会社ＬＡ　ＴＯＵＣＨＥ,,合同会社,東京都,目黒区,鷹番１丁目９番１６号パレスマンション３０３,,13,110,1520004,,,,,,,2022-10-28,1,,,,,ラトゥシュ,0
2203,9011501028603,新規,0,2022-10-28,2022-10-28,ＣＢＴ株式会社,,株式会社,東京都,北区,堀船２丁目２１番１－６１１号,,13,117,1140004,,,,,,,2022-10-28,1,,,,,シービーティー,0
2204,9011501028611,新規,0,2022-10-28,2022-10-28,株式会社ライトフィールド,,株式会社,東京都,荒川区,東日暮里１丁目４２番１０－８０１号,,13,118,1160014,,,,,,,2022-10-28,1,,,,,ライトフィールド,0
2208,9011801041462,新規,0,2022-10-28,2022-10-28,アンサン株式会社,,株式会社,東京都,足立区,中川４丁目３７－１６レジデンスプルームＢ２０２,,13,121,1200002,,,,,,,2022-10-28,1,,,,,アンサン,0
2210,9012301013183,新規,0,2022-10-28,2022-10-28,株式会社ＷＡＬＬ　ＤＡＮ　ＩＮＴＥＲＩＯＲ,,株式会社,東京都,町田市,木曽西４丁目２２番１５号２,,13,209,1940037,,,,,,,2022-10-28,1,,,,,ウオールダンインテリア,0
2216,9012801021917,新規,0,2022-10-28,2022-10-28,しあわせ街道株式会社,,株式会社,東京都,立川市,曙町１丁目３０番１２号ＪＰトラストビル１Ｆ,,13,202,1900012,,,,,,,2022-10-28,1,,,,,シアワセカイドウ,0
2217,9012803002907,新規,0,2022-10-28,2022-10-28,合同会社Ｒ．Ｆ．Ｓ,,合同会社,東京都,立川市,錦町２丁目１番３１号ＳＴビル３階,,13,202,1900022,,,,,,,2022-10-28,1,,,,,アールエフエス,0
2225,9013301049787,新規,0,2022-10-28,2022-10-28,株式会社ピクレスタ,,株式会社,東京都,豊島区,池袋３丁目２８番２９号,,13,116,1710014,,,,,,,2022-10-28,1,,,,,ピクレスタ,0
2239,9020001148745,新規,0,2022-10-28,2022-10-28,株式会社大藤,,株式会社,神奈川県,川崎市川崎区,砂子２丁目３番地１７仲見世金井ビル３Ｆ,,14,131,2100006,,,,,,,2022-10-28,1,,,,,ダイトウ,0
2246,9020003022626,新規,0,2022-10-28,2022-10-28,横浜グリーンライン合同会社,,合同会社,神奈川県,横浜市緑区,台村町１８６,,14,113,2260014,,,,,,,2022-10-28,1,,,,,ヨコハマグリーンライン,0
2254,9030001150766,新規,0,2022-10-28,2022-10-28,株式会社スマイリー,,株式会社,埼玉県,川越市,宮下町１丁目２番地３９,,11,201,3500052,,,,,,,2022-10-28,1,,,,,スマイリー,0
2255,9030001150782,新規,0,2022-10-28,2022-10-28,株式会社百発屋,,株式会社,埼玉県,狭山市,富士見２丁目２２番地１２レジデンス狭山Ａ１０２号室,,11,215,3501306,,,,,,,2022-10-28,1,,,,,ヒャッパツヤ,0
2261,9030003020455,新規,0,2022-10-28,2022-10-28,合同会社Ｍａｇｎｅｔｔｙ,,合同会社,埼玉県,朝霞市,溝沼４丁目１－１１－３,,11,227,3510023,,,,,,,2022-10-28,1,,,,,マグネッティ,0
2269,9040001125544,新規,0,2022-10-28,2022-10-28,株式会社海老澤工務店,,株式会社,千葉県,松戸市,稔台５３９番地,,12,207,2702231,,,,,,,2022-10-28,1,,,,,エビサワコウムテン,0
2271,9040003021147,新規,0,2022-10-28,2022-10-28,ＫＨＡＴＡＮＡ　ＴＲＡＤＩＮＧ合同会社,,合同会社,千葉県,野田市,木間ケ瀬４７９０番地２,,12,208,2700222,,,,,,,2022-10-28,1,,,,,カタナトレーディング,0
2273,9040005021797,新規,0,2022-10-28,2022-10-28,医療法人社団隆弥会,,その他の設立登記法人,千葉県,市原市,八幡３番地１,,12,219,2900062,,,,,,,2022-10-28,1,,,,,リュウヤカイ,0
2280,9060001035386,新規,0,2022-10-28,2022-10-28,株式会社おおるり会,,株式会社,栃木県,下都賀郡壬生町,緑町１丁目１１番５号,,09,361,3210204,,,,,,,2022-10-28,1,,,,,オオルリカイ,0
2286,9080401026124,新規,0,2022-10-28,2022-10-28,株式会社ＴＯＭＩ’Ｓ,,株式会社,静岡県,掛川市,駅前３番地の１４,,22,213,4360077,,,,,,,2022-10-28,1,,,,,トミーズ,0
2290,9100003006744,新規,0,2022-10-28,2022-10-28,合同会社富士見森林発電所,,合同会社,長野県,諏訪郡富士見町,富士見２６１番地４,,20,362,3990211,,,,,,,2022-10-28,1,,,,,フジミシンリンハツデンショ,0
2306,9120001249830,新規,0,2022-10-28,2022-10-28,昂星株式会社,,株式会社,大阪府,大阪市住之江区,安立２丁目１０番１４号三坂ビル２０２号室,,27,125,5590003,,,,,,,2022-10-28,1,,,,,コウセイ,0
2307,9120001249839,新規,0,2022-10-28,2022-10-28,株式会社百金,,株式会社,大阪府,大阪市中央区,日本橋１丁目１５番８号吉雅クレシェンド４０２号室,,27,128,5420073,,,,,,,2022-10-28,1,,,,,ヒャッキン,0
2308,9120001249905,新規,0,2022-10-28,2022-10-28,株式会社ＤＩＦＦ．,,株式会社,大阪府,大阪市北区,梅田１丁目１－３大阪駅前第３ビル２９階１－１－１号室,,27,127,5300001,,,,,,,2022-10-28,1,,,,,ディフ,0
2316,9120003022748,新規,0,2022-10-28,2022-10-28,合同会社ゆたかトラスト,,合同会社,大阪府,大阪市中央区,南本町２丁目３番８号ゆたか税理士法人内,,27,128,5410054,,,,,,,2022-10-28,1,,,,,ユタカトラスト,0
2320,9120103004902,新規,0,2022-10-28,2022-10-28,合同会社Ｇ‐ＨＯＭＥＳ,,合同会社,大阪府,堺市北区,金岡町１４２３番地３なかもずオールズ２２６号,,27,146,5918022,,,,,,,2022-10-28,1,,,,,ジーホームズ,0
2322,9120901046658,新規,0,2022-10-28,2022-10-28,株式会社エスサーフェステクノロジーズ,,株式会社,大阪府,茨木市,彩都やまぶき２丁目５番３８号,,27,211,5670086,,,,,,,2022-10-28,1,,,,,エスサーフェステクノロジーズ,0
2331,9140001127828,新規,0,2022-10-28,2022-10-28,ＫＯＢＥバイオスウェッジ株式会社,,株式会社,兵庫県,神戸市中央区,脇浜町１丁目４番７８号,,28,110,6510072,,,,,,,2022-10-28,1,,,,,コウベバイオスウェッジ,0
2332,9140001127844,新規,0,2022-10-28,2022-10-28,永田不動産株式会社,,株式会社,兵庫県,神戸市須磨区,月見山本町１丁目６番２３号すずビル２階,,28,107,6540051,,,,,,,2022-10-28,1,,,,,ナガタフドウサン,0
2333,9140003018281,新規,0,2022-10-28,2022-10-28,Ｅｎｔｒｅｚ　ＷＯＲＬＤ合同会社,,合同会社,兵庫県,伊丹市,広畑２丁目１７番地１,,28,207,6640014,,,,,,,2022-10-28,1,,,,,アントレワールド,0
2354,9200001040594,新規,0,2022-10-28,2022-10-28,株式会社ＪＯＭ,,株式会社,岐阜県,羽島郡岐南町,上印食８丁目１１１番地,,21,302,5016001,,,,,,,2022-10-28,1,,,,,ジェイオウエム,0
2356,9210005010064,新規,0,2022-10-28,2022-10-28,一般社団法人アフレア,,その他の設立登記法人,福井県,あわら市,春宮１丁目１２番１８号,,18,208,9190632,,,,,,,2022-10-28,1,,,,,アフレア,0
2362,9240001060556,新規,0,2022-10-28,2022-10-28,株式会社国重設備,,株式会社,広島県,三次市,十日市南４丁目１２３番８号,,34,209,7280014,,,,,,,2022-10-28,1,,,,,クニシゲセツビ,0
2363,9240001060564,新規,0,2022-10-28,2022-10-28,株式会社ＫＡＳＯ,,株式会社,広島県,東広島市,西条中央３丁目２４番２７号ＴＫビル３０３号,,34,212,7390025,,,,,,,2022-10-28,1,,,,,カソー,0
2370,9260001037346,新規,0,2022-10-28,2022-10-28,株式会社Ｍ．Ｓ．Ｅ．,,株式会社,岡山県,倉敷市,玉島乙島６３６０番地７,,33,202,7138103,,,,,,,2022-10-28,1,,,,,エムエスイー,0
2372,9270003001456,新規,0,2022-10-28,2022-10-28,カラフル合同会社,,合同会社,鳥取県,鳥取市,面影２丁目１５番１６号,,31,201,6800855,,,,,,,2022-10-28,1,,,,,カラフル,0
2377,9290001099359,新規,0,2022-10-28,2022-10-28,株式会社Ｋ　ＭＯＴＯＲＳ,,株式会社,福岡県,福岡市東区,土井４丁目１９番１１号,,40,131,8130032,,,,,,,2022-10-28,1,,,,,ケイモータース,0
2385,9290005018843,新規,0,2022-10-28,2022-10-28,一般社団法人ラライト,,その他の設立登記法人,福岡県,福岡市中央区,大名２丁目２番２－４０７号,,40,133,8100041,,,,,,,2022-10-28,1,,,,,ラライト,0
2388,9320003003934,新規,0,2022-10-28,2022-10-28,合同会社ろんり,,合同会社,大分県,臼杵市,野津町大字落谷１４３６番地,,44,206,8750342,,,,,,,2022-10-28,1,,,,,ロンリ,0
2391,9330003009567,新規,0,2022-10-28,2022-10-28,玉東町役場庁舎建設事業共同企業体合同会社,,合同会社,熊本県,熊本市南区,御幸笛田２丁目１５番１号,,43,104,8614172,,,,,,,2022-10-28,1,,,,,ギョクトウマチヤクバチョウシャケンセツジギョウキョウドウキギョウタイ,0
2398,9360003012403,新規,0,2022-10-28,2022-10-28,島国ブルワリー合同会社,,合同会社,沖縄県,うるま市,字高江洲１０５０番地３,,47,213,9042242,,,,,,,2022-10-28,1,,,,,シマグニブルワリー,0
2402,9370003005876,新規,0,2022-10-28,2022-10-28,合同会社ＳｔａｙＧｏｌｄ,,合同会社,宮城県,仙台市青葉区,青葉町１６番８号,,04,101,9810916,,,,,,,2022-10-28,1,,,,,ステイゴールド,0
2428,9470001019307,新規,0,2022-10-28,2022-10-28,株式会社スカイ,,株式会社,香川県,小豆郡土庄町,甲１１３５番地,,37,322,7614101,,,,,,,2022-10-28,1,,,,,スカイ,0
