sequenceNumber,corporateNumber,process,correct,updateDate,changeDate,name,nameImageId,kind,prefectureName,cityName,streetNumber,addressImageId,prefectureCode,cityCode,postCode,addressOutside,addressOutsideImageId,closeDate,closeCause,successorCorporateNumber,changeCause,assignmentDate,latest,enName,enPrefectureName,enCityName,enAddressOutside,furigana,hihyoji
9,1010001235502,新規,0,2023-05-30,2023-05-30,エイコーン株式会社,,株式会社,東京都,中央区,日本橋横山町４番１３号太田ビル３階,,13,102,1030003,,,,,,,2023-05-30,1,,,,,エイコーン,0
10,1010001235634,新規,0,2023-05-30,2023-05-30,株式会社アールグラシア,,株式会社,東京都,中央区,銀座８丁目１５番１０号８１１,,13,102,1040061,,,,,,,2023-05-30,1,,,,,アールグラシア,0
11,1010001235659,新規,0,2023-05-30,2023-05-30,株式会社Ｆｕｎｋ　Ｂｏｗｌｉｎｇ　Ｊａｐａｎ,,株式会社,東京都,中央区,銀座１丁目２２番１１号銀座大竹ビジデンス２Ｆ,,13,102,1040061,,,,,,,2023-05-30,1,,,,,ファンクボウリングジャパン,0
12,1010001235675,新規,0,2023-05-30,2023-05-30,株式会社ＳＴＯＣＫ１２３,,株式会社,東京都,千代田区,永田町２丁目１２番４号,,13,101,1000014,,,,,,,2023-05-30,1,,,,,ストックヒャクニジュウサン,0
13,1010001235691,新規,0,2023-05-30,2023-05-30,株式会社Ｋｏｇｅｒａ,,株式会社,東京都,中央区,銀座１丁目１２番４号Ｎ＆ＥＢＬＤ．６Ｆ,,13,102,1040061,,,,,,,2023-05-30,1,,,,,コゲラ,0
14,1010001235709,新規,0,2023-05-30,2023-05-30,株式会社Ｎｕｍｂｅｒ２,,株式会社,東京都,中央区,日本橋小舟町１５－１３ＸＥＢＥＣ人形町ｅｘｚ．４０２,,13,102,1030024,,,,,,,2023-05-30,1,,,,,ナンバーツー,0
15,1010001235717,新規,0,2023-05-30,2023-05-30,株式会社エキスパート・ナーシング,,株式会社,東京都,中央区,銀座２丁目１１番８号,,13,102,1040061,,,,,,,2023-05-30,1,,,,,エキスパートナーシング,0
16,1010003040702,新規,0,2023-05-30,2023-05-30,Ｍｉｎｄｂｏｘ合同会社,,合同会社,東京都,中央区,日本橋２丁目２番３号ＲＩＳＨＥビルＵＣＦ４階,,13,102,1030027,,,,,,,2023-05-30,1,,,,,マインドボックス,0
17,1010003040710,新規,0,2023-05-30,2023-05-30,合同会社ノラントッペ,,合同会社,東京都,中央区,日本橋２丁目１番１７号丹生ビル２階・３階,,13,102,1030027,,,,,,,2023-05-30,1,,,,,ノラントッペ,0
18,1010003040719,新規,0,2023-05-30,2023-05-30,合同会社Ｄｏｔ　Ｃａｍｐ,,合同会社,東京都,文京区,水道１丁目１１－９ハイネス小石川３０４,,13,105,1120005,,,,,,,2023-05-30,1,,,,,ドットキャンプ,0
21,1010401174556,新規,0,2023-05-30,2023-05-30,株式会社ＹＵＪ,,株式会社,東京都,港区,西麻布１丁目１１番６号９０４,,13,103,1060031,,,,,,,2023-05-30,1,,,,,ユジュ,0
22,1010401174622,新規,0,2023-05-30,2023-05-30,ＢＯＵＹＡ　ＣＲＥＡＳ株式会社,,株式会社,東京都,港区,南麻布２丁目８番１７号渡辺ビル１階,,13,103,1060047,,,,,,,2023-05-30,1,,,,,ボウヤクレアス,0
23,1010401174630,新規,0,2023-05-30,2023-05-30,株式会社Ｆｉｌａｍｅｎｔ　Ｈｏｌｄｉｎｇｓ,,株式会社,東京都,港区,南青山２丁目４番８号ＬＡＰｉＳ青山ＩＩ４０２号室,00130662,13,103,1070062,,,,,,,2023-05-30,1,,,,,フィラメントホールディングス,0
25,1010403030187,新規,0,2023-05-30,2023-05-30,合同会社Ｍａｒｉｌｙｎ,,合同会社,東京都,港区,海岸２丁目５番１号,,13,103,1050022,,,,,,,2023-05-30,1,,,,,マリリン,0
26,1010403030195,新規,0,2023-05-30,2023-05-30,合同会社Ｋａｌａｎｃｈｏｅ　Ｅｎｔｅｒｔａｉｎｍｅｎｔ,,合同会社,東京都,港区,南青山３丁目１番３６号青山丸竹ビル６Ｆ,,13,103,1070062,,,,,,,2023-05-30,1,,,,,カランコエエンターテインメント,0
29,1010601063179,新規,0,2023-05-30,2023-05-30,アンドリットワークス株式会社,,株式会社,東京都,墨田区,業平３丁目１６－１,,13,107,1300002,,,,,,,2023-05-30,1,,,,,アンドリットワークス,0
30,1010603010170,新規,0,2023-05-30,2023-05-30,合同会社三剱,,合同会社,東京都,江東区,森下２丁目６番９号,,13,108,1350004,,,,,,,2023-05-30,1,,,,,ミツルギ,0
32,1010701044327,新規,0,2023-05-30,2023-05-30,株式会社ＪｉＨＡＮ　Ｐｒｉｍｅ,,株式会社,東京都,品川区,北品川５丁目５番１５号大崎ブライトコア３Ｆ－４Ｆ,,13,109,1410001,,,,,,,2023-05-30,1,,,,,ジハンプライム,0
33,1010703006713,新規,0,2023-05-30,2023-05-30,合同会社Ｅ．Ｇ．Ｈ．第三発電所,,合同会社,東京都,品川区,大崎１丁目２番２号アートヴィレッジ大崎セントラルタワー１２階,,13,109,1410032,,,,,,,2023-05-30,1,,,,,イージーエイチダイサンハツデンショ,0
41,1011001154667,新規,0,2023-05-30,2023-05-30,株式会社フォーイーストクリエイティブス,,株式会社,東京都,渋谷区,神宮前２丁目２３－１神宮前ことぶきビル２Ｆ,,13,113,1500001,,,,,,,2023-05-30,1,,,,,フォーイーストクリエイティブス,0
42,1011001154675,新規,0,2023-05-30,2023-05-30,株式会社藤山,,株式会社,東京都,渋谷区,渋谷２丁目１９番１５号宮益坂ビルディング６０９,,13,113,1500002,,,,,,,2023-05-30,1,,,,,フジヤマ,0
43,1011001154683,新規,0,2023-05-30,2023-05-30,株式会社ＮＧＴＧ１０,,株式会社,東京都,渋谷区,渋谷１丁目３－１８ビラ・モデルナＡ４０２,,13,113,1500002,,,,,,,2023-05-30,1,,,,,エヌジーティージーイチゼロ,0
49,1011303004768,新規,0,2023-05-30,2023-05-30,Ｇｏｏｄ　Ｏｎｅｓ合同会社,,合同会社,東京都,杉並区,高円寺北２丁目３番１５号オフィス・アイ４０２,,13,115,1660002,,,,,,,2023-05-30,1,,,,,グッドワンズ,0
50,1011601026852,新規,0,2023-05-30,2023-05-30,株式会社ＪＮ　Ｗｏｒｋｓ,,株式会社,東京都,練馬区,豊玉北３丁目５－２,,13,120,1760012,,,,,,,2023-05-30,1,,,,,,0
52,1011801042476,新規,0,2023-05-30,2023-05-30,株式会社ＰＡＸ,,株式会社,東京都,足立区,鹿浜５丁目２８番３号渡邉宅,,13,121,1230864,,,,,,,2023-05-30,1,,,,,パックス,0
53,1011801042484,新規,0,2023-05-30,2023-05-30,株式会社ＷＩＥＲＯ,,株式会社,東京都,足立区,千住１丁目３０番３－２７０２号,,13,121,1200034,,,,,,,2023-05-30,1,,,,,ウィーロー,0
56,1012301013463,新規,0,2023-05-30,2023-05-30,株式会社まる,,株式会社,東京都,町田市,成瀬が丘２丁目１９番地１８,,13,209,1940011,,,,,,,2023-05-30,1,,,,,マル,0
58,1012703002709,新規,0,2023-05-30,2023-05-30,ＬｉｖｉｎｇＧａｉｊｉｎ合同会社,,合同会社,東京都,小平市,学園西町３丁目１１―３１０,,13,211,1870045,,,,,,,2023-05-30,1,,,,,リビンガイジン,0
68,1020001151780,新規,0,2023-05-30,2023-05-30,株式会社ベンチマーク,,株式会社,神奈川県,横浜市青葉区,柿の木台４５番地２９,,14,117,2270048,,,,,,,2023-05-30,1,,,,,ベンチマーク,0
71,1020003023945,新規,0,2023-05-30,2023-05-30,ハイレバ合同会社,,合同会社,神奈川県,横浜市西区,浅間町１丁目４番３号ウィザードビル４０２,,14,103,2200072,,,,,,,2023-05-30,1,,,,,ハイレバ,0
96,1040003022697,新規,0,2023-05-30,2023-05-30,合同会社Ｓａｌｅｓ３６５,,合同会社,千葉県,印旛郡酒々井町,ふじき野２丁目１０番地３,,12,322,2850928,,,,,,,2023-05-30,1,,,,,セールスサンロクゴ,0
97,1040003022714,新規,0,2023-05-30,2023-05-30,合同会社ＯＫＺ,,合同会社,千葉県,成田市,土屋１９８４番地（ブランシェール壱番館１０３）,,12,211,2860021,,,,,,,2023-05-30,1,,,,,オーケーゼット,0
99,1040005022019,新規,0,2023-05-30,2023-05-30,一般社団法人アルマダニ,,その他の設立登記法人,千葉県,白井市,冨士１番地の８４,,12,232,2701432,,,,,,,2023-05-30,1,,,,,アルマダニ,0
114,1100001036453,新規,0,2023-05-30,2023-05-30,株式会社ＥＮ,,株式会社,長野県,長野市,大字北堀７３０番地１,,20,201,3810005,,,,,,,2023-05-30,1,,,,,エン,0
125,1120003024173,新規,0,2023-05-30,2023-05-30,合同会社ハシモト,,合同会社,大阪府,大阪市東淀川区,小松２丁目１３番２８号エラスモハイツ１階,,27,114,5330004,,,,,,,2023-05-30,1,,,,,ハシモト,0
127,1120901047580,新規,0,2023-05-30,2023-05-30,株式会社アンノンロジ,,株式会社,大阪府,豊中市,庄内東町５丁目６番１０号,,27,203,5610831,,,,,,,2023-05-30,1,,,,,アンノンロジ,0
132,1122003002596,新規,0,2023-05-30,2023-05-30,合同会社ＷＡＬＤＥＮ,,合同会社,大阪府,東大阪市,川田２丁目２５番２号,,27,227,5780905,,,,,,,2023-05-30,1,,,,,ウォールデン,0
135,1130001074401,新規,0,2023-05-30,2023-05-30,株式会社ｂｅｒｒｙ,,株式会社,京都府,京都市伏見区,桃山与五郎町１番地４６,,26,109,6128025,,,,,,,2023-05-30,1,,,,,ベリー,0
150,1190003004334,新規,0,2023-05-30,2023-05-30,合同会社雅,,合同会社,三重県,四日市市,あがたが丘３丁目１１番地１４,,24,202,5121202,,,,,,,2023-05-30,1,,,,,ミヤビ,0
165,1290001101651,新規,0,2023-05-30,2023-05-30,株式会社Ａ＆Ｍ,,株式会社,福岡県,福岡市博多区,東光寺町１丁目４０７－２－１階,,40,132,8120896,,,,,,,2023-05-30,1,,,,,エーアンドエム,0
175,1360001032030,新規,0,2023-05-30,2023-05-30,株式会社ＪＩＧＶＡＮ,,株式会社,沖縄県,国頭郡今帰仁村,字諸志２００９番地２,,47,306,9050426,,,,,,,2023-05-30,1,,,,,ジグヴァン,0
179,1370001050007,新規,0,2023-05-30,2023-05-30,拓陽瓦株式会社,,株式会社,宮城県,東松島市,新東名２丁目１２番地７,,04,214,9810413,,,,,,,2023-05-30,1,,,,,タクヨウカワラ,0
193,1430001089229,新規,0,2023-05-30,2023-05-30,株式会社ＴＥＲＡＭＯＴＯ,,株式会社,北海道,札幌市西区,西野九条５丁目８番２１号,,01,107,0630039,,,,,,,2023-05-30,1,,,,,テラモト,0
206,1700150116565,新規,0,2023-05-30,2023-05-30,Ｙｕｅｑｉｎｇ　Ｈｅｚｈｉｙｕａｎ　Ｄｉａｎｚｈｉｓｈａｎｇｗｕ　Ｃｏ．，Ｌｔｄ．,,外国会社等,,,,,,,,Ｚｈｅｊｉａｎｇｓｈｅｎｇ　Ｙｕｅｑｉｎｇｓｈｉ　ＨｏｎｇＱｉａｏＺｈｅｎ　Ｓｈａｏｄｏｎｇｌｖｃｕｎ　ｌｖｚｈａｉｚｈｏｎｇｌｕ　２７　ｈａｏ,,,,,,2023-05-30,1,,,,,ユエチンヘジユェンデンシシャンウカンパニーリミテッド,0
207,1700150116573,新規,0,2023-05-30,2023-05-30,Ｇｕａｎｇｚｈｏｕ　Ａｉｃａｎ　Ｃｏ．，Ｌｉｍｉｔｅｄ,,外国会社等,,,,,,,,Ｒｏｏｍ　３０１，Ｂｕｉｌｄｉｎｇ　２，Ｎｏ．１０９，Ｈｅｔａｉ　Ｒｏａｄ，Ｈｅｌｏｎｇ　Ｓｔｒｅｅｔ，Ｂａｉｙｕｎ　Ｇｕａｎｇｚｈｏｕ　Ｇｕａｎｇｄｏｎｇ　ＣＮ,,,,,,2023-05-30,1,,,,,グアンヂョウアイケンカンパニーリミテッド,0
208,1700150116581,新規,0,2023-05-30,2023-05-30,Ｓｈｅｎｚｈｅｎ　Ｂａｗｏ　Ｔｅｃｈｎｏｌｏｇｙ　Ｃｏ．，Ｌｔｄ．,,外国会社等,,,,,,,,Ｎｏ．１２，Ｎｏ．５－１６，Ｆｕｘｉａｎｇ　Ｓｔｒｅｅｔ，Ｂｕｉｌｄｉｎｇ　ＡＢ，Ｆｕｘｉａｎｇ　Ｓｔｒｅｅｔ，Ｎｏ．５，Ｆｕｘｉａｎｇ　Ｓｔｒｅｅｔ，Ｆｕｔｉａｎ　Ｃｏｍｍｕｎｉｔｙ，Ｆｕｔｉａｎ　Ｓｔｒｅｅｔ，Ｆｕｔｉａｎ　Ｄｉｓｔｒｉｃｔ，Ｓｈｅｎｚｈｅｎ，Ｇｕａｎｇｄｏｎｇ，Ｃｈｉｎａ,,,,,,2023-05-30,1,,,,,シェンゼェンバヲテクノロジーカンパニーリミテッド,0
214,2010001235633,新規,0,2023-05-30,2023-05-30,ＧｏＧｏフードサービス株式会社,,株式会社,東京都,中央区,明石町７－１４,,13,102,1040044,,,,,,,2023-05-30,1,,,,,ゴーゴーフードサービス,0
215,2010001235666,新規,0,2023-05-30,2023-05-30,株式会社シーライン,,株式会社,東京都,千代田区,鍛冶町２丁目７番１５号ＡＤ神田駅東口ビル,,13,101,1010044,,,,,,,2023-05-30,1,,,,,シーライン,0
216,2010001235674,新規,0,2023-05-30,2023-05-30,ｆｕｌｌ株式会社,,株式会社,東京都,千代田区,外神田３丁目１４番３号,,13,101,1010021,,,,,,,2023-05-30,1,,,,,フル,0
219,2010005036739,新規,0,2023-05-30,2023-05-30,ＮＰＯ法人いじめ・ストーカー撲滅協会,,その他の設立登記法人,東京都,千代田区,有楽町２丁目２番１号Ｘ－ＰＲＥＳＳ有楽町９階株式会社ＭｏｒｉＸ内,,13,101,1000006,,,,,,,2023-05-30,1,,,,,エヌピーオーホウジンイジメストーカーボクメツキョウカイ,0
225,2010401174654,新規,0,2023-05-30,2023-05-30,山菱エンジニアリング株式会社,,株式会社,東京都,港区,浜松町２丁目２番１５号浜松町ダイヤビル２階,,13,103,1050013,,,,,,,2023-05-30,1,,,,,ヤマビシエンジニアリング,0
228,2010403030186,新規,0,2023-05-30,2023-05-30,泰晴日本合同会社,,合同会社,東京都,港区,虎ノ門３丁目７番８号ランディック第２虎ノ門ビル,,13,103,1050001,,,,,,,2023-05-30,1,,,,,タイセイニッポン,0
229,2010403030194,新規,0,2023-05-30,2023-05-30,ＣＲＵＹＳＥＮ　ＫＬＩＮＫＥＲＳ合同会社,,合同会社,東京都,港区,南青山６丁目１番６号パレス青山２０９,,13,103,1070062,,,,,,,2023-05-30,1,,,,,クルイセンクリンカース,0
230,2010405022157,新規,0,2023-05-30,2023-05-30,一般財団法人ヤマト科学技術振興協会,,その他の設立登記法人,東京都,港区,浜松町２丁目２番１５号,,13,103,1050013,,,,,,,2023-05-30,1,,,,,ヤマトカガクギジュツシンコウキョウカイ,0
248,2011001154682,新規,0,2023-05-30,2023-05-30,株式会社ＮＧＴＧ０９,,株式会社,東京都,渋谷区,渋谷１丁目３－１８ビラ・モデルナＡ４０２,,13,113,1500002,,,,,,,2023-05-30,1,,,,,エヌジーティージーゼロキュー,0
249,2011001154716,新規,0,2023-05-30,2023-05-30,株式会社ｗａｔａｔｓｕｍｉ,,株式会社,東京都,渋谷区,渋谷２丁目１９ー１５宮益坂ビルディング６０９,,13,113,1500002,,,,,,,2023-05-30,1,,,,,ワタツミ,0
250,2011001154724,新規,0,2023-05-30,2023-05-30,株式会社マリックコーポレーション,,株式会社,東京都,目黒区,下目黒５丁目２４番２号,,13,110,1530064,,,,,,,2023-05-30,1,,,,,マリックコーポレーション,0
252,2011003016914,新規,0,2023-05-30,2023-05-30,合同会社スリーランド,,合同会社,東京都,渋谷区,初台２丁目７番１４号マートルコート５０３,,13,113,1510061,,,,,,,2023-05-30,1,,,,,スリーランド,0
258,2011101103044,新規,0,2023-05-30,2023-05-30,株式会社ＬＡＳＴＰＬＡＮ,,株式会社,東京都,新宿区,住吉町８－２３富井ビル２Ｆ－Ｂ室,,13,104,1620065,,,,,,,2023-05-30,1,,,,,ラストプラン,0
259,2011101103052,新規,0,2023-05-30,2023-05-30,株式会社ｗｉｔｈ‐ｓｈ,,株式会社,東京都,新宿区,新宿２丁目１１－７Ｂ０２,,13,104,1600022,,,,,,,2023-05-30,1,,,,,ウィズエスエイチ,0
264,2011401025161,新規,0,2023-05-30,2023-05-30,Ｅｎｓｏ株式会社,,株式会社,東京都,板橋区,小茂根１丁目２７番１６－４０１号,,13,119,1730037,,,,,,,2023-05-30,1,,,,,エンソ,0
273,2013301050842,新規,0,2023-05-30,2023-05-30,Ｋｏｎｎｅｃｔ株式会社,,株式会社,東京都,豊島区,目白４丁目３１－３,,13,116,1710031,,,,,,,2023-05-30,1,,,,,コネクト,0
274,2013305003482,新規,0,2023-05-30,2023-05-30,一般社団法人よろずパートナーズ,,その他の設立登記法人,東京都,豊島区,東池袋１丁目３４番５号いちご東池袋ビル６階,,13,116,1700013,,,,,,,2023-05-30,1,,,,,ヨロズパートナーズ,0
275,2020001151805,新規,0,2023-05-30,2023-05-30,楓の風在宅療養支援株式会社,,株式会社,神奈川県,横浜市神奈川区,鶴屋町３丁目３２番地１３,,14,102,2210835,,,,,,,2023-05-30,1,,,,,カエデノカゼザイタクリョウヨウシエン,0
276,2020001151813,新規,0,2023-05-30,2023-05-30,永瀬商事株式会社,,株式会社,神奈川県,川崎市川崎区,大師駅前２丁目１番１－１５０８号,,14,131,2100802,,,,,,,2023-05-30,1,,,,,ナガセショウジ,0
287,2030003021831,新規,0,2023-05-30,2023-05-30,ｔｒａｕｍｅｒｅｉ合同会社,,合同会社,埼玉県,さいたま市大宮区,大成町２丁目３６５番地１６,,11,103,3300852,,,,,,,2023-05-30,1,,,,,,0
290,2030005021284,新規,0,2023-05-30,2023-05-30,一般社団法人日本ＡＩ対話検定協会,,その他の設立登記法人,埼玉県,上尾市,中妻１丁目５番地８,,11,219,3620072,,,,,,,2023-05-30,1,,,,,ニホンエーアイタイワケンテイキョウカイ,0
299,2040001128586,新規,0,2023-05-30,2023-05-30,泰順国際株式会社,,株式会社,千葉県,千葉市中央区,南町２丁目２３番地１０号,,12,101,2600842,,,,,,,2023-05-30,1,,,,,タイジュンコクサイ,0
300,2040001128594,新規,0,2023-05-30,2023-05-30,株式会社エス・ピ・エスジャパン,,株式会社,千葉県,松戸市,五香南１丁目１０－１,,12,207,2702212,,,,,,,2023-05-30,1,,,,,エスピエスジャパン,0
304,2040003022713,新規,0,2023-05-30,2023-05-30,合同会社稔コーポレーション,,合同会社,千葉県,千葉市中央区,仁戸名町６３５番地１カインドステージ千葉大森台７０１号,,12,101,2600801,,,,,,,2023-05-30,1,,,,,ミノルコーポレーション,0
311,2070001040490,新規,0,2023-05-30,2023-05-30,ＳＮＢＮＩＰＰＯＮ株式会社,,株式会社,群馬県,高崎市,北原町１７３番地２,,10,202,3703513,,,,,,,2023-05-30,1,,,,,エスエヌビーニッポン,0
326,2120001255265,新規,0,2023-05-30,2023-05-30,玉之堂株式会社,,株式会社,大阪府,大阪市大正区,三軒家西３丁目４番１６号中山ビル３０１Ｂ,,27,108,5510001,,,,,,,2023-05-30,1,,,,,ギョクノドウ,0
328,2120003024164,新規,0,2023-05-30,2023-05-30,合同会社アイエス,,合同会社,大阪府,寝屋川市,豊野町７番４号,,27,215,5720831,,,,,,,2023-05-30,1,,,,,アイエス,0
329,2120005023619,新規,0,2023-05-30,2023-05-30,一般社団法人Ｈｅａｒｔカラー協会,,その他の設立登記法人,大阪府,枚方市,長尾家具町４丁目１８－６１,,27,210,5730102,,,,,,,2023-05-30,1,,,,,ハートカラーキョウカイ,0
331,2122005003682,新規,0,2023-05-30,2023-05-30,一般社団法人善根寺春日神社敬神会,,その他の設立登記法人,大阪府,東大阪市,善根寺町６丁目７番６７号,,27,227,5798001,,,,,,,2023-05-30,1,,,,,ゼンゴンジカスガジンジャケイシンカイ,0
334,2130001074391,新規,0,2023-05-30,2023-05-30,株式会社ホクジョー,,株式会社,京都府,京都市下京区,四条通油小路東入傘鉾町４３番地,,26,106,6008494,,,,,,,2023-05-30,1,,,,,ホクジョー,0
335,2130001074409,新規,0,2023-05-30,2023-05-30,株式会社ＴＲＩＰＳ,,株式会社,京都府,京都市下京区,朱雀分木町４５番地２ル・パルトネール京都丹波口３０３,,26,106,6008847,,,,,,,2023-05-30,1,,,,,トリップス,0
340,2140001130318,新規,0,2023-05-30,2023-05-30,株式会社タレントフォースケイ,,株式会社,兵庫県,尼崎市,塚口町１丁目２４番地の１１－３０１号,,28,202,6610002,,,,,,,2023-05-30,1,,,,,タレントフォースケイ,0
341,2140003019138,新規,0,2023-05-30,2023-05-30,ＨＯＮＳＨＵ　ＥＮＴＥＲＰＲＩＳＥＳ合同会社,,合同会社,兵庫県,姫路市,飾磨区今在家１４０５番地１,,28,201,6728079,,,,,,,2023-05-30,1,,,,,ホンシュウエンタープライズ,0
348,2180001156458,新規,0,2023-05-30,2023-05-30,株式会社東海ホーム,,株式会社,愛知県,名古屋市千種区,池下１丁目１番１２号Ｓ－ＲＥＳＩＤＥＮＣＥ池下駅前６０１,,23,101,4640067,,,,,,,2023-05-30,1,,,,,トウカイホーム,0
353,2190005011823,新規,0,2023-05-30,2023-05-30,長島信用金庫,,その他の設立登記法人,三重県,北牟婁郡紀北町,長島１００５番地,,24,543,5193205,,,,,,,2023-05-30,1,,,,,ナガシマ,0
356,2230003002019,新規,0,2023-05-30,2023-05-30,合同会社アサマ,,合同会社,富山県,高岡市,中曽根２２０番地３,,16,202,9340092,,,,,,,2023-05-30,1,,,,,アサマ,0
362,2270003001529,新規,0,2023-05-30,2023-05-30,合同会社奏カルテット,,合同会社,鳥取県,東伯郡湯梨浜町,大字下浅津１５９番地１,,31,370,6820711,,,,,,,2023-05-30,1,,,,,カナデカルテット,0
368,2290001101683,新規,0,2023-05-30,2023-05-30,ＴＥＮＪＯＹ‐ＴＯＵＲ株式会社,,株式会社,福岡県,福岡市東区,和白６丁目２３－３８－５２１,,40,131,8110202,,,,,,,2023-05-30,1,,,,,テンジョイツア,0
380,2340001025605,新規,0,2023-05-30,2023-05-30,株式会社いずみみらい,,株式会社,鹿児島県,出水市,緑町１番３号,,46,208,8990201,,,,,,,2023-05-30,1,,,,,イズミミライ,0
381,2340003004136,新規,0,2023-05-30,2023-05-30,合同会社胡桃,,合同会社,鹿児島県,鹿児島市,東谷山５丁目３５番１号スカイハイツ福留２０５号,,46,201,8910113,,,,,,,2023-05-30,1,,,,,クルミ,0
392,2400005008335,新規,0,2023-05-30,2023-05-30,一般社団法人ティーレリスファルト,,その他の設立登記法人,岩手県,北上市,鬼柳町田の神９６番地３,,03,206,0240056,,,,,,,2023-05-30,1,,,,,ティーレリスファルト,0
405,2460103001533,新規,0,2023-05-30,2023-05-30,合同会社ＹＵＫＩ,,合同会社,北海道,河西郡中札内村,中札内西１線２１９番地１３,,01,638,0891313,,,,,,,2023-05-30,1,,,,,ユキ,0
407,2700150116572,新規,0,2023-05-30,2023-05-30,ＮＡＮＹＡＮＧＳＨＩ　ＴＡＩＸＩＮＳＨＡＮＧＭＡＯ　ＹＯＵＸＩＡＮＧＯＮＧＳＩ,,外国会社等,,,,,,,,ｈｅｎａｎｓｈｅｎｇ　ｎａｎｙａｎｇｓｈｉ　ｗｏｌｏｎｇｑｕｌｕｙｉｎｇｚｈｅｎｌｕｙｉｎｇｊｉｅ　ｎａｎｙａｎｇ　ｈｅｎａｎ　ＣＮ,,,,,,2023-05-30,1,,,,,ナンヤンシタイシンシャンマオユウゲンコウシ,0
408,2700150116580,新規,0,2023-05-30,2023-05-30,Ｓｈｅｎｚｈｅｎ　Ｄｉｇｉｔｉｚｉｎｇ　Ｆｌｕｉｄ　Ｔｅｃｈｎｏｌｏｇｙ　Ｃｏ．，Ｌｔｄ,,外国会社等,,,,,,,,１６０２，Ｔａｏｘｉａｏｊｉｎｈｕａ　Ｂｕｉｌｄｉｎｇ　Ｔａｏｙｕａｎ　Ｃｏｍｍｕｎｉｔｙ，Ｄａｌａｎｇ　Ｓｔｒｅｅｔ，Ｌｏｎｇｈｕａ　Ｄｉｓｔｒｉｃｔ　Ｓｈｅｎｚｈｅｎ　Ｇｕａｎｇｄｏｎｇ　ＣＮ,,,,,,2023-05-30,1,,,,,シェンゼェンディジタイズンフルイッドテクノロジーカンパニーリミテッド,0
418,3010001235590,新規,0,2023-05-30,2023-05-30,株式会社２２２,,株式会社,東京都,千代田区,飯田橋２丁目５番３号,,13,101,1020072,,,,,,,2023-05-30,1,,,,,ツースリー,0
419,3010001235624,新規,0,2023-05-30,2023-05-30,株式会社Ｒｅｓｐｅｃｔｉｆｙ,,株式会社,東京都,中央区,日本橋兜町１７番１号日本橋ロイヤルプラザ７０６,,13,102,1030026,,,,,,,2023-05-30,1,,,,,リスペクティファイ,0
420,3010001235657,新規,0,2023-05-30,2023-05-30,株式会社ＬＥＡＰＳ,,株式会社,東京都,千代田区,富士見１丁目３－１１富士見デュープレックスＢ‘ｓ４Ｆ,,13,101,1020071,,,,,,,2023-05-30,1,,,,,リープス,0
421,3010001235673,新規,0,2023-05-30,2023-05-30,株式会社タイザン,,株式会社,東京都,千代田区,鍛冶町２丁目９番１８号,,13,101,1010044,,,,,,,2023-05-30,1,,,,,タイザン,0
422,3010001235715,新規,0,2023-05-30,2023-05-30,グッデイ株式会社,,株式会社,東京都,千代田区,九段南１丁目５番６号りそな九段ビル５階ＫＳフロア,,13,101,1020074,,,,,,,2023-05-30,1,,,,,グッデイ,0
429,3010401174653,新規,0,2023-05-30,2023-05-30,株式会社ＴｅｒｒａＦｕｎ,,株式会社,東京都,港区,芝大門１丁目４番４号ノア芝大門５０１,,13,103,1050012,,,,,,,2023-05-30,1,,,,,テラフン,0
430,3010401174661,新規,0,2023-05-30,2023-05-30,株式会社クロスコネクト,,株式会社,東京都,港区,赤坂３丁目２番６号赤坂中央ビルＢ１Ｆ,,13,103,1070052,,,,,,,2023-05-30,1,,,,,クロスコネクト,0
434,3010403030193,新規,0,2023-05-30,2023-05-30,ＫＵＬＡＢＯ合同会社,,合同会社,東京都,港区,南青山２丁目２番１５号,,13,103,1070062,,,,,,,2023-05-30,1,,,,,クラボ,0
436,3010501050283,新規,0,2023-05-30,2023-05-30,ＧＣＬインターナショナルジャパン株式会社,,株式会社,東京都,台東区,台東１丁目２９番３号イースタンクロスアキバ,,13,106,1100016,,,,,,,2023-05-30,1,,,,,ジーシーエルインターナショナルジャパン,0
437,3010501050515,新規,0,2023-05-30,2023-05-30,株式会社シャバーニ,,株式会社,東京都,台東区,今戸１丁目７番４号,,13,106,1110024,,,,,,,2023-05-30,1,,,,,シャバーニ,0
439,3010601063177,新規,0,2023-05-30,2023-05-30,株式会社丸毛電工,,株式会社,東京都,墨田区,立川１丁目１６番１８－７０２号,,13,107,1300023,,,,,,,2023-05-30,1,,,,,マルモデンコウ,0
444,3010701044325,新規,0,2023-05-30,2023-05-30,株式会社ＪＮＢインベストメント,,株式会社,東京都,品川区,西五反田２丁目１３番１号,,13,109,1410031,,,,,,,2023-05-30,1,,,,,ジェイエヌビーインベストメント,0
449,3011001154599,新規,0,2023-05-30,2023-05-30,ＬＡＮＤ　ＮＫ株式会社,,株式会社,東京都,渋谷区,恵比寿３丁目６番９号,,13,113,1500013,,,,,,,2023-05-30,1,,,,,ランドエヌケー,0
450,3011001154681,新規,0,2023-05-30,2023-05-30,オレンジ管理株式会社,,株式会社,東京都,渋谷区,神宮前３丁目２０番３号,,13,113,1500001,,,,,,,2023-05-30,1,,,,,オレンジカンリ,0
451,3011001154707,新規,0,2023-05-30,2023-05-30,株式会社Ｔｈｉｒｄ　Ｂａｓｅ,,株式会社,東京都,渋谷区,渋谷２丁目１９ー１５宮益坂ビルディング６０９,,13,113,1500002,,,,,,,2023-05-30,1,,,,,サードベース,0
455,3011303004774,新規,0,2023-05-30,2023-05-30,ＢＪＨ合同会社,,合同会社,東京都,杉並区,高円寺南３丁目７番７号フラット新高円寺ＩＩ２０１,00130659,13,115,1660003,,,,,,,2023-05-30,1,,,,,ビージェイエイチ,0
460,3011801042458,新規,0,2023-05-30,2023-05-30,株式会社快晴,,株式会社,東京都,足立区,千住中居町１９－３,,13,121,1200035,,,,,,,2023-05-30,1,,,,,カイセイ,0
461,3011801042490,新規,0,2023-05-30,2023-05-30,株式会社敬愛総業,,株式会社,東京都,足立区,千住桜木２丁目９番１３号,,13,121,1200045,,,,,,,2023-05-30,1,,,,,ケイアイソウギョウ,0
466,3012403005992,新規,0,2023-05-30,2023-05-30,ＤＩＨ　Ｃｒｅａｔｉｏｎ合同会社,,合同会社,東京都,三鷹市,下連雀６丁目６－５９アンソレイエ１０８,,13,204,1810013,,,,,,,2023-05-30,1,,,,,ディーアイエイチクリエーション,0
478,3020003023968,新規,0,2023-05-30,2023-05-30,合同会社ＮＡＫＩ,,合同会社,神奈川県,横浜市金沢区,寺前２丁目２５－１５,,14,108,2360014,,,,,,,2023-05-30,1,,,,,ナキ,0
488,3030001154112,新規,0,2023-05-30,2023-05-30,株式会社Ｆｉｒｓｔ　Ｓｔｅｐ　Ｇｒｏｕｐ,,株式会社,埼玉県,川口市,南鳩ヶ谷２丁目１９番３号,,11,203,3340013,,,,,,,2023-05-30,1,,,,,ファーストステップグループ,0
494,3030005021283,新規,0,2023-05-30,2023-05-30,一般社団法人日本クリームシチュー普及協会,,その他の設立登記法人,埼玉県,朝霞市,泉水１丁目５番１２号サンライトステージ１０３号,,11,227,3510024,,,,,,,2023-05-30,1,,,,,ニホンクリームシチューフキュウキョウカイ,0
499,3040001128585,新規,0,2023-05-30,2023-05-30,Ｍ．Ｈ　ｔｒａｄｉｎｇ株式会社,,株式会社,千葉県,流山市,長崎１丁目１６６番地５アパートメントべる１階１０１号,,12,220,2700134,,,,,,,2023-05-30,1,,,,,エムエイチトレーディング,0
500,3040001128593,新規,0,2023-05-30,2023-05-30,株式会社カラーパレット,,株式会社,千葉県,船橋市,海神６丁目１５番５号,,12,204,2730021,,,,,,,2023-05-30,1,,,,,カラーパレット,0
501,3040003022679,新規,0,2023-05-30,2023-05-30,合同会社雅,,合同会社,千葉県,富津市,八幡１４４－１,,12,226,2930056,,,,,,,2023-05-30,1,,,,,ミヤビ,0
502,3040003022695,新規,0,2023-05-30,2023-05-30,小笠原合同会社,,合同会社,千葉県,野田市,野田８１５番地豊進ビル３０２号,,12,208,2780037,,,,,,,2023-05-30,1,,,,,オガサワラ,0
503,3040005022009,新規,0,2023-05-30,2023-05-30,医療法人社団鎌ヶ谷ファミリー歯科,,その他の設立登記法人,千葉県,鎌ケ谷市,東鎌ケ谷２丁目１番４５号,,12,224,2730104,,,,,,,2023-05-30,1,,,,,カマガヤファミリーシカ,0
523,3120001255272,新規,0,2023-05-30,2023-05-30,株式会社Ｎｏｓｔａｌｇｉｅ　ｅｔ　ｃｏｎｔｅｍｐｏｒａｉｎ,,株式会社,大阪府,大阪市福島区,鷺洲１丁目１１番３号,,27,103,5530002,,,,,,,2023-05-30,1,,,,,ノスタルジーエコンテンポロン,0
524,3120001255280,新規,0,2023-05-30,2023-05-30,スイフト株式会社,,株式会社,大阪府,大阪市天王寺区,上汐５丁目６番１６－５０３号,,27,109,5430002,,,,,,,2023-05-30,1,,,,,スイフト,0
526,3120003024155,新規,0,2023-05-30,2023-05-30,合同会社オーエン,,合同会社,大阪府,大阪市平野区,流町３丁目１番１号パセオ平野６０３,,27,126,5470032,,,,,,,2023-05-30,1,,,,,オーエン,0
527,3120003024171,新規,0,2023-05-30,2023-05-30,ｍａｙ合同会社,,合同会社,大阪府,大阪市城東区,関目４丁目４番３０号,,27,118,5360008,,,,,,,2023-05-30,1,,,,,メイ,0
539,3140001130317,新規,0,2023-05-30,2023-05-30,株式会社三輪工業,,株式会社,兵庫県,たつの市,御津町朝臣３１８番地１,,28,229,6711342,,,,,,,2023-05-30,1,,,,,ミワコウギョウ,0
540,3140003019129,新規,0,2023-05-30,2023-05-30,合同会社エムズ,,合同会社,兵庫県,加古川市,加古川町大野１５番地の３,,28,210,6750061,,,,,,,2023-05-30,1,,,,,エムズ,0
564,3190003004332,新規,0,2023-05-30,2023-05-30,ＴＫＰ合同会社,,合同会社,三重県,鈴鹿市,自由ヶ丘１丁目１９番３２号,,24,207,5131124,,,,,,,2023-05-30,1,,,,,ティケイピー,0
572,3230005009300,新規,0,2023-05-30,2023-05-30,一般社団法人ＧＲＥＥＮｓｐｅａｒｆｉｓｈｅｒｓ,,その他の設立登記法人,富山県,富山市,上大久保８１４番地７,,16,201,9392252,,,,,,,2023-05-30,1,,,,,グリーンスピアフィッシャーズ,0
574,3240001061584,新規,0,2023-05-30,2023-05-30,株式会社Ｋ’ｓファクトリー,,株式会社,広島県,安芸郡熊野町,呉地２丁目８番１７号,,34,307,7314222,,,,,,,2023-05-30,1,,,,,ケーズファクトリー,0
575,3240005015586,新規,0,2023-05-30,2023-05-30,一般社団法人オートクチュール,,その他の設立登記法人,広島県,福山市,新涯町６丁目１５番１２号,,34,207,7210955,,,,,,,2023-05-30,1,,,,,オートクチュール,0
585,3290001101690,新規,0,2023-05-30,2023-05-30,初川株式会社,,株式会社,福岡県,福岡市西区,姪の浜６丁目１４番２８号ユーライフパーク３０２号室,,40,135,8190002,,,,,,,2023-05-30,1,,,,,ハツカワ,0
593,3350001018284,新規,0,2023-05-30,2023-05-30,江田畜産株式会社,,株式会社,宮崎県,西諸県郡高原町,大字広原２０２５－２,,45,361,8894411,,,,,,,2023-05-30,1,,,,,エダチクサン,0
594,3360001032078,新規,0,2023-05-30,2023-05-30,株式会社結伊アイランド,,株式会社,沖縄県,那覇市,首里石嶺町４丁目２４０番地１,,47,201,9030804,,,,,,,2023-05-30,1,,,,,ユイアイランド,0
598,3380003005468,新規,0,2023-05-30,2023-05-30,合同会社シード,,合同会社,福島県,福島市,南向台２丁目９－２,,07,201,9608143,,,,,,,2023-05-30,1,,,,,シード,0
607,3700150116563,新規,0,2023-05-30,2023-05-30,ＴＥＬＦ　ＡＧ　Ｃｏａｌ日本駐在員事務所,,外国会社等,東京都,中央区,銀座１丁目１２番４号Ｎ＆Ｅ　ＢＬＤ．７階,,13,102,1040061,Ｖｉａ　Ｓｏｒｅｎｇｏ　１，ＣＨ－６９００，Ｌｕｇａｎｏ，Ｓｗｉｔｚｅｒｌａｎｄ,,,,,,2023-05-30,1,,,,,テルフエージーコールニホンチユウザイインジムシヨ,0
608,3700150116571,新規,0,2023-05-30,2023-05-30,ｓｈｅｎｚｈｅｎｓｈｉ　ｘｉａｎｇｌｅｍａｏｙｉ　ｙｏｕｘｉａｎｇｏｎｇｓｉ,,外国会社等,,,,,,,,ｓｈｅｎｚｈｅｎｓｈｉｆｕｔｉａｎｑｕｓｈａｔｏｕｊｉｅｄａｏｔｉａｎａｎｓｈｅｑｕｔａｉｒａｎｌｉｕｌｕ　ｔａｉｒａｎｃａｎｇｓｏｎｇｄａｓｈａｓｈｉｑｉｃｅｎｇ１７０１－Ｅ８　ｓｈｅｎｚｈｅｎｓｈｉ　ｇｕａｎｇｄｏｎｇｓｈｅｎｇ,,,,,,2023-05-30,1,,,,,シンセンシシャンレマオイユウゲンコウシ,0
627,4010401174652,新規,0,2023-05-30,2023-05-30,株式会社マーキュリー,,株式会社,東京都,港区,南青山２丁目２－８ＤＦビル１０Ｆ,,13,103,1070062,,,,,,,2023-05-30,1,,,,,マーキュリー,0
628,4010401174677,新規,0,2023-05-30,2023-05-30,株式会社ブラックベリー,,株式会社,東京都,港区,南青山３丁目１番３６号青山丸竹ビル６Ｆ,,13,103,1070062,,,,,,,2023-05-30,1,,,,,ブラックベリー,0
630,4010501050514,新規,0,2023-05-30,2023-05-30,株式会社Ｎ’ｓカンパニー,,株式会社,東京都,台東区,千束４丁目２８番１１－１０２号,,13,106,1110031,,,,,,,2023-05-30,1,,,,,エヌズカンパニー,0
634,4010701044332,新規,0,2023-05-30,2023-05-30,株式会社グリーノベーター・ジャパン,,株式会社,東京都,品川区,東五反田１丁目１３番１２号,,13,109,1410022,,,,,,,2023-05-30,1,,,,,グリーノベータージャパン,0
636,4010801034002,新規,0,2023-05-30,2023-05-30,株式会社スターワーク,,株式会社,東京都,大田区,上池台２丁目３２番１号小林ビル６Ｄ,,13,111,1450064,,,,,,,2023-05-30,1,,,,,スターワーク,0
639,4010901053133,新規,0,2023-05-30,2023-05-30,ＺＩＯＮ株式会社,,株式会社,東京都,世田谷区,玉川３丁目２０番２号マノア玉川第３ビル５０１号室,,13,112,1580094,,,,,,,2023-05-30,1,,,,,ジオン,0
644,4011001154680,新規,0,2023-05-30,2023-05-30,株式会社みずきインベストメント,,株式会社,東京都,渋谷区,恵比寿４丁目５番２８恵比寿ガーデン２１２号,,13,113,1500013,,,,,,,2023-05-30,1,,,,,ミズキインベストメント,0
649,4011101103018,新規,0,2023-05-30,2023-05-30,株式会社Ｈ２Ｃ技研,,株式会社,東京都,新宿区,西落合３丁目２－２９,,13,104,1610031,,,,,,,2023-05-30,1,,,,,エイチツーシーギケン,0
650,4011103013090,新規,0,2023-05-30,2023-05-30,合同会社ＳＮリビング１号,,合同会社,東京都,新宿区,西新宿８丁目５番１号,,13,104,1600023,,,,,,,2023-05-30,1,,,,,エスエヌリビングイチゴウ,0
657,4011605002525,新規,0,2023-05-30,2023-05-30,特定非営利活動法人ｅ場所,,その他の設立登記法人,東京都,練馬区,北町５丁目８番４－２０１号,,13,120,1790081,,,,,,,2023-05-30,1,,,,,イーバショ,0
672,4020001151803,新規,0,2023-05-30,2023-05-30,株式会社Ｌａｎｄ．,,株式会社,神奈川県,横浜市港南区,港南４丁目１２－１８－３,,14,111,2330003,,,,,,,2023-05-30,1,,,,,ランドット,0
675,4020003023967,新規,0,2023-05-30,2023-05-30,合同会社ニケ,,合同会社,神奈川県,横浜市鶴見区,豊岡町１７番１０号ＫＲＭ鶴見４階,,14,101,2300062,,,,,,,2023-05-30,1,,,,,ニケ,0
682,4030001154004,新規,0,2023-05-30,2023-05-30,クリエイティブ・コネクション株式会社,,株式会社,埼玉県,さいたま市浦和区,常盤９丁目１１番１１－１２０１号,,11,107,3300061,,,,,,,2023-05-30,1,,,,,クリエイティブコネクション,0
683,4030001154152,新規,0,2023-05-30,2023-05-30,株式会社メンテナンスファクトリー草加,,株式会社,埼玉県,草加市,金明町１０９８番地１,,11,221,3400052,,,,,,,2023-05-30,1,,,,,メンテナンスファクトリーソウカ,0
688,4030005021290,新規,0,2023-05-30,2023-05-30,一般社団法人日本口腔カウンセラー協会,,その他の設立登記法人,埼玉県,鴻巣市,筑波１丁目４番１号,,11,217,3690114,,,,,,,2023-05-30,1,,,,,ニホンコウクウカウンセラーキョウカイ,0
695,4040001128584,新規,0,2023-05-30,2023-05-30,日中貿易株式会社,,株式会社,千葉県,佐倉市,瓜坪新田１０５,,12,212,2850055,,,,,,,2023-05-30,1,,,,,ニッチュウボウエキ,0
700,4040003022694,新規,0,2023-05-30,2023-05-30,合同会社ｙｕｙｕ,,合同会社,千葉県,松戸市,五香６丁目１番地の１６,,12,207,2702213,,,,,,,2023-05-30,1,,,,,ユウユ,0
703,4060001036034,新規,0,2023-05-30,2023-05-30,株式会社ミレニアル,,株式会社,栃木県,宇都宮市,川田町１３７８番地２リバーサイドふじ１０２,,09,201,3210111,,,,,,,2023-05-30,1,,,,,ミレニアル,0
711,4080005007541,新規,0,2023-05-30,2023-05-30,労働者協同組合法人ほっと会,,その他の設立登記法人,静岡県,藤枝市,南駿河台２丁目２番３号,,22,214,4260078,,,,,,,2023-05-30,1,,,,,ホットカイ,0
730,4120003024170,新規,0,2023-05-30,2023-05-30,合同会社ＲＥＡ,,合同会社,大阪府,大阪市淀川区,西中島３丁目１３番５号,,27,123,5320011,,,,,,,2023-05-30,1,,,,,リア,0
739,4130001074398,新規,0,2023-05-30,2023-05-30,株式会社青風語学学院,,株式会社,京都府,京都市中京区,三条通東洞院東入菱屋町３３番地珠光ビル三条４０３,,26,104,6048131,,,,,,,2023-05-30,1,,,,,セイフウゴガクガクイン,0
750,4140001130324,新規,0,2023-05-30,2023-05-30,ＥＸｐｌｏｒｅｒ株式会社,,株式会社,兵庫県,西宮市,南昭和町５番３３－２０３号,,28,204,6620834,,,,,,,2023-05-30,1,,,,,エクスプローラー,0
754,4140005026626,新規,0,2023-05-30,2023-05-30,一般社団法人Ｔｕｍｕｇｕ,,その他の設立登記法人,兵庫県,神戸市西区,王塚台１丁目５３番地,,28,111,6512135,,,,,,,2023-05-30,1,,,,,ツムグ,0
792,4290001101624,新規,0,2023-05-30,2023-05-30,彩翔株式会社,,株式会社,福岡県,福岡市中央区,舞鶴１丁目２番３３号,,40,133,8100073,,,,,,,2023-05-30,1,,,,,サイショウ,0
805,4340003004134,新規,0,2023-05-30,2023-05-30,合同会社スクラム,,合同会社,鹿児島県,霧島市,隼人町小浜１７８番地２,,46,218,8995103,,,,,,,2023-05-30,1,,,,,スクラム,0
807,4350001018374,新規,0,2023-05-30,2023-05-30,株式会社ファイブワークス,,株式会社,宮崎県,宮崎市,清水２丁目３番地３シンワＯＡビル５Ｆ,,45,201,8800021,,,,,,,2023-05-30,1,,,,,ファイブワークス,0
813,4370001050012,新規,0,2023-05-30,2023-05-30,ＴＫＭ株式会社,,株式会社,宮城県,仙台市青葉区,川平５丁目７番１号１階,,04,101,9810954,,,,,,,2023-05-30,1,,,,,ティーケーエム,0
816,4420001018276,新規,0,2023-05-30,2023-05-30,テラファームジャパン株式会社,,株式会社,青森県,八戸市,根城１丁目８番１８号,,02,203,0391166,,,,,,,2023-05-30,1,,,,,テラファームジャパン,0
817,4420003002732,新規,0,2023-05-30,2023-05-30,合同会社紡祈,,合同会社,青森県,三戸郡五戸町,大字浅水字川向３３番地,,02,442,0391528,,,,,,,2023-05-30,1,,,,,ツムギ,0
820,4430001089250,新規,0,2023-05-30,2023-05-30,株式会社Ｅｎｆｅｌ,,株式会社,北海道,札幌市中央区,南二十七条西１３丁目１－１２－２０３,,01,101,0640927,,,,,,,2023-05-30,1,,,,,エンフェル,0
823,4430005014725,新規,0,2023-05-30,2023-05-30,特定非営利活動法人わくもふのいえ,,その他の設立登記法人,北海道,石狩郡当別町,太美南８１８番地９１,,01,303,0613778,,,,,,,2023-05-30,1,,,,,ワクモフノイエ,0
824,4470001019633,新規,0,2023-05-30,2023-05-30,株式会社三協,,株式会社,香川県,高松市,御厩町８５０番地１,00130593,37,201,7618042,,,,,,,2023-05-30,1,,,,,,0
829,4500001024951,新規,0,2023-05-30,2023-05-30,株式会社ＨＯＰＥ,,株式会社,愛媛県,松山市,保免中２丁目１１番１４号,,38,201,7900042,,,,,,,2023-05-30,1,,,,,ホープ,0
832,4700150116570,新規,0,2023-05-30,2023-05-30,ｓｈｅｎｚｈｅｎｓｈｉ　ｄｏｎｇｄａｍｅｉｙｉｎｋｅｊｉ　ｙｏｕｘｉａｎｇｏｎｇｓｉ,,外国会社等,,,,,,,,ｓｈｅｎｚｈｅｎｓｈｉｂａｏａｎｑｕｘｉｘｉａｎｇｊｉｅｄａｏｇｕｓｈｕｋａｎｇｙｕａｎｇｏｎｇｙｅｑｕ　ｒｕｉｌｉａｎｄａｓｈａ１０ｌｏｕ　ｓｈｅｎｚｈｅｎｓｈｉ　ｇｕａｎｇｄｏｎｇｓｈｅｎｇ　ＣＮ,,,,,,2023-05-30,1,,,,,シンセンシドンダメイインケジユウゲンコウシ,0
833,4700150116579,新規,0,2023-05-30,2023-05-30,ｓｈｅｎｚｈｅｎｓｈｉ　ｘｕａｎｙｕｅｃｈｅｎｇｋｅｊｉ　ｙｏｕｘｉａｎｇｏｎｇｓｉ,,外国会社等,,,,,,,,ｂａｏａｎｑｕ　ｘｉｎａｎｊｉｅｄａｏ　ｂａｏａｎ９ｑｕｂａｉｊｉｎｇｏｎｇｙｕ２５１６　ｓｈｅｎｚｈｅｎｓｈｉ　ｇｕａｎｇｄｏｎｇｓｈｅｎｇ　ＣＮ,,,,,,2023-05-30,1,,,,,シンセンシシユェンユエチェンケジユウゲンコウシ,0
845,5010401174635,新規,0,2023-05-30,2023-05-30,日興株式会社,,株式会社,東京都,港区,赤坂３丁目１１番８号コンチネンタルアパートメント赤坂２Ｆ,,13,103,1070052,,,,,,,2023-05-30,1,,,,,ニッコウ,0
846,5010401174651,新規,0,2023-05-30,2023-05-30,ＷＥホールディングス株式会社,,株式会社,東京都,港区,浜松町２丁目４番１号,,13,103,1050013,,,,,,,2023-05-30,1,,,,,ダブリューイーホールディングス,0
848,5010403030191,新規,0,2023-05-30,2023-05-30,合同会社シーグ,,合同会社,東京都,港区,三田５丁目２０番９号１００２,,13,103,1080073,,,,,,,2023-05-30,1,,,,,シーグ,0
849,5010405022187,新規,0,2023-05-30,2023-05-30,一般社団法人アセット投資事業１０号,,その他の設立登記法人,東京都,港区,西新橋１丁目２番９号メンターキャピタル税理士法人内,,13,103,1050003,,,,,,,2023-05-30,1,,,,,アセットトウシジギョウジュウゴウ,0
850,5010501050513,新規,0,2023-05-30,2023-05-30,株式会社ａｔｉｏｎ,,株式会社,東京都,台東区,谷中２丁目５番２４号ダイワマンション３０３,,13,106,1100001,,,,,,,2023-05-30,1,,,,,アション,0
855,5010901053140,新規,0,2023-05-30,2023-05-30,株式会社ＭＯＮＤＥＬＬＯ,,株式会社,東京都,世田谷区,太子堂５丁目５番１８号,,13,112,1540004,,,,,,,2023-05-30,1,,,,,モンデッロ,0
860,5011003016903,新規,0,2023-05-30,2023-05-30,ＹｏｕｔｏＢｒｉｄｇｅ合同会社,,合同会社,東京都,渋谷区,円山町５番５号ＮＡＶＩ渋谷Ｖ３階,,13,113,1500044,,,,,,,2023-05-30,1,,,,,ユーツブリッジ,0
862,5011101103033,新規,0,2023-05-30,2023-05-30,Ｙｏｕｌｉｓｔ株式会社,,株式会社,東京都,新宿区,水道町４番７号グランテバッハ神楽坂２０３,,13,104,1620811,,,,,,,2023-05-30,1,,,,,ユーリスト,0
865,5011401025159,新規,0,2023-05-30,2023-05-30,日本＿点医美研究院株式会社,00130657,株式会社,東京都,板橋区,大谷口２丁目４９－１２ヒルトップマンション２０３,,13,119,1730035,,,,,,,2023-05-30,1,,,,,ニホンセイテンイビケンキュウイン,0
875,5011603003937,新規,0,2023-05-30,2023-05-30,スマイル商事合同会社,,合同会社,東京都,練馬区,中村３丁目１７番１１－４０２号,,13,120,1760024,,,,,,,2023-05-30,1,,,,,スマイルショウジ,0
878,5011801042480,新規,0,2023-05-30,2023-05-30,株式会社アーキリアルティ,,株式会社,東京都,葛飾区,新小岩２丁目２７番１０－２０１号,,13,122,1240024,,,,,,,2023-05-30,1,,,,,アーキリアルティ,0
879,5011801042489,新規,0,2023-05-30,2023-05-30,株式会社Ｒ．Ｄコーポレーション,,株式会社,東京都,葛飾区,西水元１丁目１５番５号三和マンション２０１,,13,122,1250031,,,,,,,2023-05-30,1,,,,,アールディコーポレーション,0
880,5011803005667,新規,0,2023-05-30,2023-05-30,合同会社ＫＰＧ,,合同会社,東京都,足立区,新田３丁目１８番４―１０３号,,13,121,1230865,,,,,,,2023-05-30,1,,,,,ケイピージー,0
898,5013303006641,新規,0,2023-05-30,2023-05-30,悦自然合同会社,,合同会社,東京都,豊島区,長崎４丁目９－２,,13,116,1710051,,,,,,,2023-05-30,1,,,,,エツシゼン,0
902,5020001151769,新規,0,2023-05-30,2023-05-30,Ｏｒｉｅｎｔａｌ株式会社,,株式会社,神奈川県,横浜市戸塚区,上矢部町９７２ナイスパークステージ東戸塚３０８,,14,110,2450053,,,,,,,2023-05-30,1,,,,,オリエンタル,0
905,5021001079182,新規,0,2023-05-30,2023-05-30,ＳＡＧＡＭＩＨＡＲＡ　Ｒ．Ｃ株式会社,,株式会社,神奈川県,相模原市緑区,上九沢１１３番地１,,14,151,2520136,,,,,,,2023-05-30,1,,,,,サガミハラアールシー,0
914,5030001154093,新規,0,2023-05-30,2023-05-30,東友管理株式会社,,株式会社,埼玉県,蕨市,中央４丁目１番１号,,11,223,3350004,,,,,,,2023-05-30,1,,,,,トウユウカンリ,0
915,5030001154135,新規,0,2023-05-30,2023-05-30,Ｅｍｐｉｒｅ　ｏｆ　Ａｂｄｕｌｌａｈ株式会社,,株式会社,埼玉県,八潮市,大字鶴ケ曽根７７４番地９片山荘２０３,,11,234,3400802,,,,,,,2023-05-30,1,,,,,エンパイアオブアブドゥッラー,0
930,5040001128575,新規,0,2023-05-30,2023-05-30,株式会社湊景亮建築設計事務所,,株式会社,千葉県,船橋市,夏見３丁目１３番３０号,,12,204,2730865,,,,,,,2023-05-30,1,,,,,ミナトケイスケケンチクセッケイジムショ,0
937,5040005022015,新規,0,2023-05-30,2023-05-30,弁理士法人エピファニー特許事務所,,その他の設立登記法人,千葉県,船橋市,旭町５丁目９番１４号,,12,204,2730041,,,,,,,2023-05-30,1,,,,,エピファニートッキョジムショ,0
940,5050003007537,新規,0,2023-05-30,2023-05-30,合同会社ＳＡＭＡＧＩ　ＴＲＡＤＩＮＧ,,合同会社,茨城県,常総市,花島町８２８,,08,211,3002511,,,,,,,2023-05-30,1,,,,,サマギトレーディング,0
943,5060005010100,新規,0,2023-05-30,2023-05-30,特定非営利活動法人ハロハロラボ,,その他の設立登記法人,栃木県,真岡市,下大沼１丁目１９番地４,,09,209,3214357,,,,,,,2023-05-30,1,,,,,ハロハロラボ,0
950,5080101024035,新規,0,2023-05-30,2023-05-30,ＡＥ＆Ｃ株式会社,,株式会社,静岡県,沼津市,戸田字中上１７４３‐１,,22,203,4103402,,,,,,,2023-05-30,1,,,,,エーイーアンドシー,0
951,5080103002815,新規,0,2023-05-30,2023-05-30,合同会社ケイエムティー,,合同会社,静岡県,沼津市,大諏訪８５６‐１,,22,203,4100873,,,,,,,2023-05-30,1,,,,,ケイエムティー,0
959,5110003005063,新規,0,2023-05-30,2023-05-30,合同会社Ｌｉｖｅ　Ｆｏｒｇｅ,,合同会社,新潟県,新潟市秋葉区,西島１４‐３,,15,105,9560842,,,,,,,2023-05-30,1,,,,,ライブフォージ,0
965,5120001255254,新規,0,2023-05-30,2023-05-30,株式会社Ｐｅｋａｔａ,,株式会社,大阪府,大阪市阿倍野区,天王寺町北３丁目１番８号,,27,119,5450001,,,,,,,2023-05-30,1,,,,,ピカタ,0
966,5120001255287,新規,0,2023-05-30,2023-05-30,株式会社アイリン,,株式会社,大阪府,大阪市北区,梅田１丁目２番２号大阪駅前第２ビル１２－１２,,27,127,5300001,,,,,,,2023-05-30,1,,,,,アイリン,0
967,5120003024129,新規,0,2023-05-30,2023-05-30,プロコン合同会社,,合同会社,大阪府,枚方市,堂山３丁目１８番３０号,,27,210,5730007,,,,,,,2023-05-30,1,,,,,プロコン,0
968,5120003024178,新規,0,2023-05-30,2023-05-30,合同会社ベルッチ,,合同会社,大阪府,門真市,御堂町２５－２ロジュマンドゥソラーナ古川橋８０５号,,27,223,5710064,,,,,,,2023-05-30,1,,,,,ベルッチ,0
972,5140001130323,新規,0,2023-05-30,2023-05-30,株式会社エイアンドイー,,株式会社,兵庫県,西宮市,日野町６番２号,,28,204,6638022,,,,,,,2023-05-30,1,,,,,エイアンドイー,0
976,5140005026633,新規,0,2023-05-30,2023-05-30,特定非営利活動法人コントロールＰＤ,,その他の設立登記法人,兵庫県,神戸市北区,鈴蘭台北町４丁目１番２０－１０５,,28,109,6511111,,,,,,,2023-05-30,1,,,,,コントロールピーディー,0
983,5180003025286,新規,0,2023-05-30,2023-05-30,合同会社桜天,,合同会社,愛知県,名古屋市千種区,山添町１丁目６２,,23,101,4640832,,,,,,,2023-05-30,1,,,,,サクラテン,0
986,5200001041349,新規,0,2023-05-30,2023-05-30,株式会社アモーチュリパ,,株式会社,岐阜県,各務原市,鵜沼三ツ池町４丁目１１０番地,,21,213,5090146,,,,,,,2023-05-30,1,,,,,アモーチュリパ,0
996,5250001020117,新規,0,2023-05-30,2023-05-30,株式会社トライプル,,株式会社,山口県,宇部市,常盤台１丁目１２番２１号,,35,202,7550097,,,,,,,2023-05-30,1,,,,,トライプル,0
1005,5290001101680,新規,0,2023-05-30,2023-05-30,株式会社ＭＡＲＩＮＫＡ,,株式会社,福岡県,福岡市博多区,東光寺町１丁目２３番１４号,,40,132,8120896,,,,,,,2023-05-30,1,,,,,マリンカ,0
1006,5290001101689,新規,0,2023-05-30,2023-05-30,丸金商事株式会社,,株式会社,福岡県,福岡市博多区,美野島３丁目５番２０号１０４号,,40,132,8120017,,,,,,,2023-05-30,1,,,,,マルカネショウジ,0
1013,5330001030867,新規,0,2023-05-30,2023-05-30,株式会社千里,,株式会社,熊本県,天草市,港町２０番３号ディアコートＦ３０１,,43,215,8630021,,,,,,,2023-05-30,1,,,,,センリ,0
1014,5330001030891,新規,0,2023-05-30,2023-05-30,ＡＭＢＩＡＮＣＥ株式会社,,株式会社,熊本県,上益城郡益城町,大字赤井２１３９番地１,,43,443,8612221,,,,,,,2023-05-30,1,,,,,アンビアンス,0
1017,5340001025602,新規,0,2023-05-30,2023-05-30,南建建設株式会社,,株式会社,鹿児島県,肝属郡南大隅町,根占川北１７９９番地,,46,491,8932501,,,,,,,2023-05-30,1,,,,,ナンケンケンセツ,0
1020,5360003012992,新規,0,2023-05-30,2023-05-30,仲宗根合同会社,,合同会社,沖縄県,那覇市,松山２丁目１０－１３松山沖商マンション３１０,,47,201,9000032,,,,,,,2023-05-30,1,,,,,ナカソネ,0
1021,5360003013009,新規,0,2023-05-30,2023-05-30,合同会社司,,合同会社,沖縄県,糸満市,西崎２丁目１７番９号,,47,210,9010305,,,,,,,2023-05-30,1,,,,,ツカサ,0
1022,5370001050011,新規,0,2023-05-30,2023-05-30,株式会社大丸建設,,株式会社,宮城県,仙台市青葉区,落合５丁目２１番２７号１０３号室,,04,101,9893126,,,,,,,2023-05-30,1,,,,,ダイマルケンセツ,0
1031,5420001018275,新規,0,2023-05-30,2023-05-30,エイトｗｏｒｋｓ株式会社,,株式会社,青森県,青森市,大字新城字平岡２２５番地５７,,02,201,0380042,,,,,,,2023-05-30,1,,,,,エイトワークス,0
1033,5420005007852,新規,0,2023-05-30,2023-05-30,ＮＰＯ法人ココキャン,,その他の設立登記法人,青森県,弘前市,大字銅屋町５８番地１アサヒハイツ２０３号室,,02,202,0368196,,,,,,,2023-05-30,1,,,,,,0
1037,5430001089233,新規,0,2023-05-30,2023-05-30,株式会社エイチ・エフ,,株式会社,北海道,石狩市,親船東三条１丁目７９番,,01,235,0613367,,,,,,,2023-05-30,1,,,,,エイチエフ,0
1039,5430003015096,新規,0,2023-05-30,2023-05-30,合同会社国際労働者支援協会,,合同会社,北海道,小樽市,住吉町１２番１８号,,01,203,0470015,,,,,,,2023-05-30,1,,,,,コクサイロウドウシャシエンキョウカイ,0
1051,5700150116578,新規,0,2023-05-30,2023-05-30,ｙｏｎｇｋａｎｇｓｈｉ　ａｎｒｏｎｇｇｏｎｇｍａｏ　ｙｏｕｘｉａｎｇｏｎｇｓｉ,,外国会社等,,,,,,,,ｙｏｎｇｋａｎｇｓｈｉ　ｇｕｓｈａｎｚｈｅｎ　ｈｏｕｌｉｎｃｕｎ　ｊｉｎｌｉｎｇｌｕ　ｓｈｉｎｏｎｇ８６ｈａｏ　ｊｉｎｈｕａｓｈｉ　ｚｈｅｊｉａｎｇｓｈｅｎｇ　ＣＮ,,,,,,2023-05-30,1,,,,,ヨンカンシアンロンゴンマオユウゲンコウシ,0
1052,5700150116603,新規,0,2023-05-30,2023-05-30,Ｙｉｗｕ　Ｇｕｌｉ　Ｅ－ｃｏｍｍｅｒｃｅ　Ｃｏ．Ｌｔｄ,,外国会社等,,,,,,,,Ｒｏｏｍ　２０２，Ｕｎｉｔ　５，Ｂｕｉｌｄｉｎｇ　１０７，Ｈｕａｎｇｙａｎｇｍｅｉ　Ｄｉｓｔｒｉｃｔ　１，Ｂｅｉｙｕａｎ　Ｓｔｒｅｅｔ，Ｙｉｗｕ　Ｃｉｔｙ，Ｚｈｅｊｉａｎｇ　Ｐｒｏｖｉｎｃｅ,,,,,,2023-05-30,1,,,,,イーウーシコクリヨクデンシシヨウムユウゲンコウシ,0
1069,6010001235638,新規,0,2023-05-30,2023-05-30,株式会社タフ＆ジョイ,,株式会社,東京都,中央区,銀座１丁目１２番４号Ｎ＆ＥＢＬＤ．６Ｆ,,13,102,1040061,,,,,,,2023-05-30,1,,,,,タフアンドジョイ,0
1070,6010001235654,新規,0,2023-05-30,2023-05-30,Ｔｒｅｎｄｓｃａｐｅ株式会社,,株式会社,東京都,中央区,銀座３丁目１１番１６号４Ｆ,,13,102,1040061,,,,,,,2023-05-30,1,,,,,トレンドスケープ,0
1071,6010001235679,新規,0,2023-05-30,2023-05-30,株式会社ＳＴＯＣＫ１２７,,株式会社,東京都,千代田区,永田町２丁目１２番４号,,13,101,1000014,,,,,,,2023-05-30,1,,,,,ストックヒャクニジュウナナ,0
1072,6010001235687,新規,0,2023-05-30,2023-05-30,善工通商株式会社,,株式会社,東京都,中央区,京橋２丁目７番１４号,,13,102,1040031,,,,,,,2023-05-30,1,,,,,ゼンコウツウショウ,0
1074,6010003040722,新規,0,2023-05-30,2023-05-30,合同会社ビートル,,合同会社,東京都,千代田区,神田佐久間町１丁目１６番地大橋ビル５０３,,13,101,1010025,,,,,,,2023-05-30,1,,,,,ビートル,0
1078,6010401174642,新規,0,2023-05-30,2023-05-30,株式会社さくらエージェント,,株式会社,東京都,港区,赤坂２丁目１４番５号Ｄａｉｗａ赤坂ビル７階,,13,103,1070052,,,,,,,2023-05-30,1,,,,,サクラエージェント,0
1079,6010401174650,新規,0,2023-05-30,2023-05-30,養源生命株式会社,,株式会社,東京都,港区,新橋３丁目９－１０天翔新橋ビル５０７室,,13,103,1050004,,,,,,,2023-05-30,1,,,,,ヨウゲンセイメイ,0
1080,6010401174659,新規,0,2023-05-30,2023-05-30,ＡＲＣＨ‐ＥＲ株式会社,,株式会社,東京都,港区,南青山３丁目１番３６号青山丸竹ビル６階,,13,103,1070062,,,,,,,2023-05-30,1,,,,,アーチャー,0
1083,6010403030190,新規,0,2023-05-30,2023-05-30,合同会社Ｅｐｉｃ,,合同会社,東京都,港区,青山三丁目１番３６号青山丸竹ビル６Ｆ,,13,103,1050000,,,,,,,2023-05-30,1,,,,,エピック,0
1085,6010405022186,新規,0,2023-05-30,2023-05-30,ＳＣＧ６２一般社団法人,,その他の設立登記法人,東京都,港区,虎ノ門４丁目１番２８号,,13,103,1050001,,,,,,,2023-05-30,1,,,,,エスシージーシックスティツー,0
1086,6010501050520,新規,0,2023-05-30,2023-05-30,フライング株式会社,,株式会社,東京都,台東区,台東１丁目２９番３号イースタンクロスアキバ３０６号室,,13,106,1100016,,,,,,,2023-05-30,1,,,,,フライング,0
1089,6010801034000,新規,0,2023-05-30,2023-05-30,Ａｒｔｃｏｌ株式会社,,株式会社,東京都,大田区,下丸子２丁目２０－１８,,13,111,1460092,,,,,,,2023-05-30,1,,,,,アートコル,0
1096,6011001154679,新規,0,2023-05-30,2023-05-30,株式会社ＨＵＳＫ,,株式会社,東京都,渋谷区,神宮前６丁目２３番４号桑野ビル２階,,13,113,1500001,,,,,,,2023-05-30,1,,,,,ハスク,0
1097,6011001154687,新規,0,2023-05-30,2023-05-30,株式会社ＣＬＯＳ,,株式会社,東京都,渋谷区,渋谷２丁目１９－１５,,13,113,1500002,,,,,,,2023-05-30,1,,,,,クロス,0
1099,6011101103057,新規,0,2023-05-30,2023-05-30,株式会社Ｓｕｎ　Ｆｉｒｓｔ,,株式会社,東京都,新宿区,高田馬場４丁目４０番１１号ユニゾ高田馬場看山ビル１０Ｆ,,13,104,1690075,,,,,,,2023-05-30,1,,,,,サンファースト,0
1102,6011103013089,新規,0,2023-05-30,2023-05-30,合同会社Ｎｕｍｂｅｒｓ　ｂｅａｔ,,合同会社,東京都,新宿区,西新宿８丁目１８番１２号ＨＯＳＯＹＡＭＡＮＯＲＴＷＯ３０３,,13,104,1600023,,,,,,,2023-05-30,1,,,,,ナンバーズビート,0
1106,6011401025158,新規,0,2023-05-30,2023-05-30,福勝株式会社,,株式会社,東京都,板橋区,赤塚５丁目７番４号ハイムつちや２０６,,13,119,1750092,,,,,,,2023-05-30,1,,,,,フクショウ,0
1110,6011801042471,新規,0,2023-05-30,2023-05-30,一番不動産株式会社,,株式会社,東京都,葛飾区,東新小岩７丁目２９番１３号,,13,122,1240023,,,,,,,2023-05-30,1,,,,,イチバンフドウサン,0
1111,6011801042488,新規,0,2023-05-30,2023-05-30,Ｃｈａｒｍｉｎｇ　Ｖａｃａｔｉｏｎ株式会社,,株式会社,東京都,足立区,千住２丁目５－１４ＭＫビル８０１,,13,121,1200034,,,,,,,2023-05-30,1,,,,,チャーミングバケーション,0
1142,6040003022478,新規,0,2023-05-30,2023-05-30,合同会社Ｔａｌｋｉｎ,,合同会社,千葉県,成田市,花崎町８－１６－９信水舎ビル２Ｆ,,12,211,2860033,,,,,,,2023-05-30,1,,,,,トーキン,0
1143,6040003022676,新規,0,2023-05-30,2023-05-30,ＡＮＤ　ＣＬＥＡＲ合同会社,,合同会社,千葉県,松戸市,東平賀３１９－３トップ北小金１－４１２,,12,207,2700003,,,,,,,2023-05-30,1,,,,,アンドクリア,0
1169,6090001018143,新規,0,2023-05-30,2023-05-30,次世代金属加工株式会社,,株式会社,山梨県,南都留郡西桂町,倉見１５番地１,,19,423,4030023,,,,,,,2023-05-30,1,,,,,ジセダイキンゾクカコウ,0
1177,6120001255278,新規,0,2023-05-30,2023-05-30,京和株式会社,,株式会社,大阪府,大阪市西成区,天下茶屋東２丁目１３番１１号中川ハイツ２階５号室,,27,122,5570011,,,,,,,2023-05-30,1,,,,,キョウワ,0
1179,6120003024177,新規,0,2023-05-30,2023-05-30,合同会社グランバース,,合同会社,大阪府,大阪市北区,梅田１丁目２番２号大阪駅前第２ビル１２‐１２,,27,127,5300001,,,,,,,2023-05-30,1,,,,,グランバース,0
1181,6120101067615,新規,0,2023-05-30,2023-05-30,株式会社鳳クリエイツ,,株式会社,大阪府,堺市中区,八田西町２丁９－２７,,27,142,5998265,,,,,,,2023-05-30,1,,,,,オオトリクリエイツ,0
1185,6130001074396,新規,0,2023-05-30,2023-05-30,株式会社松本工房,,株式会社,京都府,京都市西京区,大原野小塩町１０７番地,,26,111,6101133,,,,,,,2023-05-30,1,,,,,マツモトコウボウ,0
1186,6130001074405,新規,0,2023-05-30,2023-05-30,株式会社芳田設備,,株式会社,京都府,久世郡久御山町,野村村東２５－１,,26,322,6130023,,,,,,,2023-05-30,1,,,,,ヨシダセツビ,0
1194,6140003019150,新規,0,2023-05-30,2023-05-30,ドローンモンスター合同会社,,合同会社,兵庫県,神戸市中央区,磯上通４丁目１－１２サンビルダー磯上公園３０２号室,,28,110,6510086,,,,,,,2023-05-30,1,,,,,ドローンモンスター,0
1206,6210003001654,新規,0,2023-05-30,2023-05-30,合同会社香華,,合同会社,福井県,あわら市,河原井手第７号５番地,,18,208,9190616,,,,,,,2023-05-30,1,,,,,コウカ,0
1215,6240005015583,新規,0,2023-05-30,2023-05-30,一般社団法人鳥獣被害対策ジビエ利活用協会,,その他の設立登記法人,広島県,広島市中区,吉島東２丁目５番２１号,,34,101,7300822,,,,,,,2023-05-30,1,,,,,チョウジュウヒガイタイサクジビエリカツヨウキョウカイ,0
1216,6250001020116,新規,0,2023-05-30,2023-05-30,株式会社デルクイ,,株式会社,山口県,下関市,古屋町１丁目４番３９号,,35,201,7510847,,,,,,,2023-05-30,1,,,,,デルクイ,0
1220,6290001101688,新規,0,2023-05-30,2023-05-30,三源生活株式会社,,株式会社,福岡県,福岡市東区,和白４丁目２７－８,,40,131,8110202,,,,,,,2023-05-30,1,,,,,サンゲンセイカツ,0
1228,6290005019051,新規,0,2023-05-30,2023-05-30,一般社団法人天神ウオーキング協会,,その他の設立登記法人,福岡県,福岡市中央区,天神４丁目２番２０号,,40,133,8100001,,,,,,,2023-05-30,1,,,,,テンジンウオーキングキョウカイ,0
1229,6290801029559,新規,0,2023-05-30,2023-05-30,正和株式会社,,株式会社,福岡県,北九州市八幡東区,春の町５丁目１１番１４号,,40,108,8050050,,,,,,,2023-05-30,1,,,,,セイワ,0
1239,6370001050010,新規,0,2023-05-30,2023-05-30,株式会社Ａｌｌｒｏｕｎｄ,,株式会社,宮城県,富谷市,成田４丁目１番地１３,,04,216,9813341,,,,,,,2023-05-30,1,,,,,オールラウンド,0
1243,6400001016263,新規,0,2023-05-30,2023-05-30,株式会社キーツジャパン,,株式会社,岩手県,紫波郡紫波町,北沢字御前２０,,03,321,0283323,,,,,,,2023-05-30,1,,,,,キーツジャパン,0
1251,6430001089249,新規,0,2023-05-30,2023-05-30,株式会社Ｓｉｇｎｓ‐Ｕ,,株式会社,北海道,札幌市東区,北三十六条東２９丁目１０番１８号,,01,103,0070836,,,,,,,2023-05-30,1,,,,,サインズユー,0
1257,6490003001783,新規,0,2023-05-30,2023-05-30,合同会社くりば,,合同会社,高知県,安芸郡芸西村,西分甲２７６７番地２,,39,307,7815703,,,,,,,2023-05-30,1,,,,,クリバ,0
1259,6500003003043,新規,0,2023-05-30,2023-05-30,合同会社Ｃａｔ’ｓ　Ｐａｄ,,合同会社,愛媛県,四国中央市,三島宮川３丁目１０番４８号,,38,213,7990404,,,,,,,2023-05-30,1,,,,,キャッツパッド,0
1260,6700150116569,新規,0,2023-05-30,2023-05-30,Ｎｉｎｇｂｏ　ｓｈａｎｇｚｈａｏｄｉａｎｚｉｓｈａｎｇｗｕ　ｙｏｕｘｉａｎｇｏｎｇｓｉ,,外国会社等,,,,,,,,Ｙｉｎｚｈｏｕｑｕ　Ｇｕｌｉｎｚｈｅｎｇｕｌｉｎｃａｉｃｈａｎｇ　Ｎｉｎｇｂｏ　Ｚｈｅｊｉａｎｇ　ＣＮ,,,,,,2023-05-30,1,,,,,ニンボシャンザオデンシシャンウユウゲンコウシ,0
1261,6700150116577,新規,0,2023-05-30,2023-05-30,Ｓｈｅｎ　Ｚｈｅｎ　Ｓｈｉ　Ｂａｉ　Ｓｈｉ　Ｋｅ　Ｋｅ　Ｊｉ　Ｙｏｕ　Ｘｉａｎ　Ｇｏｎｇ　Ｓｉ,,外国会社等,,,,,,,,ＳｈｅｎｚｈｅｎｓｈｉｂａｏａｎｑｕｘｉｘｉａｎｇｊｉｅｄａｏｇｕｓｈｕｓｈｅｑｕｓｈｉｊｉｅｇｕｆｅｎｇｏｎｇｓｉｂａｃｈａｎｇＢｄｏｎｇｈｕｉｃｈｕａｎｇｇｏｎｇｆａｎｇ５０２,,,,,,2023-05-30,1,,,,,シェンゼェンシバイシケケジユウゲンコウシ,0
1262,6700150116602,新規,0,2023-05-30,2023-05-30,ｓｈｅｎｚｈｅｎｓｈｉｓｈｅｎｄｕｊｉｎｇｍｉｍｕｊｕｙｏｕｘｉａｎｇｏｎｇｓｉ,,外国会社等,,,,,,,,ｂａｏａｎｑｕｓｈａｊｉｎｇｊｉｅｄａｏｓｈａｔｏｕｓｏｎｇｓｈａｎｇｏｎｇｙｅｑｕｄｉｅｒｄｏｎｇ　ｓｈｅｎｚｈｅｎｓｈｉ　ｇｕａｎｇｄｏｎｇｓｈｅｎｇ　ＣＮ　５１８１０４,,,,,,2023-05-30,1,,,,,シンセンシシンドセイミツモグユウゲンコウシ,0
1275,7010001235380,新規,0,2023-05-30,2023-05-30,ハイペリオン株式会社,,株式会社,東京都,千代田区,神田神保町２丁目４６赤石建設ビル４０１,,13,101,1010051,,,,,,,2023-05-30,1,,,,,ハイペリオン,0
1276,7010001235653,新規,0,2023-05-30,2023-05-30,株式会社酉たけ,,株式会社,東京都,千代田区,神田神保町１丁目４６番地１階,,13,101,1010051,,,,,,,2023-05-30,1,,,,,トリタケ,0
1277,7010001235678,新規,0,2023-05-30,2023-05-30,株式会社ＳＴＯＣＫ１２６,,株式会社,東京都,千代田区,永田町２丁目１２番４号,,13,101,1000014,,,,,,,2023-05-30,1,,,,,ストックヒャクニジュウロク,0
1290,7010401174641,新規,0,2023-05-30,2023-05-30,株式会社Ｃｅｎｔｒａｌ　Ｅｓｔａｔｅ,,株式会社,東京都,港区,赤坂９丁目６番２３－６０１号,,13,103,1070052,,,,,,,2023-05-30,1,,,,,セントラルエステート,0
1291,7010401174658,新規,0,2023-05-30,2023-05-30,株式会社高輪メディカルコンサルタント,,株式会社,東京都,港区,高輪４丁目２４番２９－５０５号,,13,103,1080074,,,,,,,2023-05-30,1,,,,,タカナワメディカルコンサルタント,0
1292,7010401174674,新規,0,2023-05-30,2023-05-30,ＡＷＲ　Ｍｇｍｔ　Ｊａｐａｎ株式会社,,株式会社,東京都,港区,南麻布５丁目１６番１３－３０２号,,13,103,1060047,,,,,,,2023-05-30,1,,,,,エーダブリューアールマネジメントジャパン,0
1293,7010401174716,新規,0,2023-05-30,2023-05-30,Ｈ＆Ｈ株式会社,,株式会社,東京都,港区,虎ノ門５丁目１３番１号虎ノ門４０ＭＴビル７階,,13,103,1050001,,,,,,,2023-05-30,1,,,,,エイチアンドエイチ,0
1298,7010405022144,新規,0,2023-05-30,2023-05-30,一般社団法人和道協会,,その他の設立登記法人,東京都,港区,赤坂２丁目１７－５０赤坂タワーレジデンス,,13,103,1070052,,,,,,,2023-05-30,1,,,,,ワドウキョウカイ,0
1299,7010405022185,新規,0,2023-05-30,2023-05-30,一般社団法人Ｈａｌｅ,,その他の設立登記法人,東京都,港区,西新橋１丁目２番９号メンターキャピタル税理士法人内,,13,103,1050003,,,,,,,2023-05-30,1,,,,,ハレ,0
1301,7010501050503,新規,0,2023-05-30,2023-05-30,百文株式会社,,株式会社,東京都,台東区,北上野２丁目２５番９号－２０５号室,,13,106,1100014,,,,,,,2023-05-30,1,,,,,ヒャクブン,0
1309,7010901053130,新規,0,2023-05-30,2023-05-30,株式会社レクター,,株式会社,東京都,世田谷区,八幡山３丁目１１番１５号,,13,112,1560056,,,,,,,2023-05-30,1,,,,,レクター,0
1320,7011101102900,新規,0,2023-05-30,2023-05-30,株式会社ベプコジャパン,,株式会社,東京都,新宿区,高田馬場２丁目１４番５号第２いさみやビル２Ｆ,,13,104,1690075,,,,,,,2023-05-30,1,,,,,ベプコジャパン,0
1321,7011101103064,新規,0,2023-05-30,2023-05-30,ｂｌｏｏｍ株式会社,,株式会社,東京都,新宿区,西新宿３丁目３番１３号西新宿水間ビル６階,,13,104,1600023,,,,,,,2023-05-30,1,,,,,ブルーム,0
1325,7011103013088,新規,0,2023-05-30,2023-05-30,合同会社アオグル,,合同会社,東京都,新宿区,新宿５丁目１８番１０号メイクスデザイン６０７,,13,104,1600022,,,,,,,2023-05-30,1,,,,,アオグル,0
1327,7011301028739,新規,0,2023-05-30,2023-05-30,東宝物産株式会社,,株式会社,東京都,杉並区,荻窪３丁目３６番８号,,13,115,1670051,,,,,,,2023-05-30,1,,,,,トウホウブッサン,0
1330,7011601026847,新規,0,2023-05-30,2023-05-30,ＳＩホールディングス株式会社,,株式会社,東京都,練馬区,高野台２丁目１１番１５－４０８号,,13,120,1770033,,,,,,,2023-05-30,1,,,,,エスアイホールディングス,0
1331,7011701026268,新規,0,2023-05-30,2023-05-30,ＭＯＧＬＯ株式会社,,株式会社,東京都,江戸川区,南小岩６丁目３１番１０－１２１０号,,13,123,1330056,,,,,,,2023-05-30,1,,,,,モグロ,0
1333,7011801042487,新規,0,2023-05-30,2023-05-30,株式会社西北のもり,,株式会社,東京都,足立区,伊興本町１丁目３番１１号第一佐藤ビル２０１号,,13,121,1210807,,,,,,,2023-05-30,1,,,,,セイホクノモリ,0
1342,7013101009183,新規,0,2023-05-30,2023-05-30,株式会社ミドウ,,株式会社,東京都,福生市,南田園３丁目５番地２１森田ビルＡ号,,13,218,1970004,,,,,,,2023-05-30,1,,,,,ミドウ,0
1347,7020001151791,新規,0,2023-05-30,2023-05-30,株式会社ｋｉｒａｍｅｋｉ,,株式会社,神奈川県,横浜市神奈川区,羽沢南３丁目３４番３号１０２,,14,102,2210866,,,,,,,2023-05-30,1,,,,,キラメキ,0
1348,7020001151809,新規,0,2023-05-30,2023-05-30,株式会社アンク,,株式会社,神奈川県,横浜市鶴見区,矢向５丁目９番４８号１Ｆ,,14,101,2300001,,,,,,,2023-05-30,1,,,,,アンク,0
1354,7030001154125,新規,0,2023-05-30,2023-05-30,株式会社海内,,株式会社,埼玉県,川口市,芝４丁目２０番２２号大沢アパート１０１,,11,203,3330866,,,,,,,2023-05-30,1,,,,,カイナイ,0
1360,7030005021247,新規,0,2023-05-30,2023-05-30,永観院,,その他の設立登記法人,埼玉県,所沢市,北原町９６３番２,,11,208,3590004,,,,,,,2023-05-30,1,,,,,エイカンイン,0
1371,7040005022021,新規,0,2023-05-30,2023-05-30,一般社団法人ウェストアライアンス,,その他の設立登記法人,千葉県,柏市,旭町１丁目１０番５号島根ビル５Ｆ,,12,217,2770852,,,,,,,2023-05-30,1,,,,,ウェストアライアンス,0
1373,7050001052896,新規,0,2023-05-30,2023-05-30,株式会社ドリームチャレンジ,,株式会社,茨城県,つくば市,天久保１丁目６番地１５細田ビル２階,,08,220,3050005,,,,,,,2023-05-30,1,,,,,ドリームチャレンジ,0
1378,7070001040486,新規,0,2023-05-30,2023-05-30,株式会社ＢＥＴＴＥＲ　ＤＡＹＳ,,株式会社,群馬県,高崎市,砂賀町４番地３東光堂ビル２階,,10,202,3700832,,,,,,,2023-05-30,1,,,,,ベターデイズ,0
1386,7090001018142,新規,0,2023-05-30,2023-05-30,株式会社森と生きる,,株式会社,山梨県,南巨摩郡身延町,中山１８０８番地,,19,365,4093432,,,,,,,2023-05-30,1,,,,,モリトイキル,0
1395,7120001255269,新規,0,2023-05-30,2023-05-30,株式会社ＳＫ　Ｂｅｙｏｎｄ,,株式会社,大阪府,大阪市中央区,平野町２丁目６－５みすやビル６階,,27,128,5410046,,,,,,,2023-05-30,1,,,,,エスケービヨンド,0
1396,7120001255285,新規,0,2023-05-30,2023-05-30,株式会社Ｊｕｓｔ　Ｒｉｇｈｔ,,株式会社,大阪府,大阪市中央区,博労町４丁目７番５号,,27,128,5410059,,,,,,,2023-05-30,1,,,,,ジャストライト,0
1397,7120003024168,新規,0,2023-05-30,2023-05-30,合同会社ＢＬＵＥ,,合同会社,大阪府,大阪市北区,天神橋７丁目１３番９号セレーナコンフォルト天神橋３０２号室,,27,127,5310041,,,,,,,2023-05-30,1,,,,,ブルー,0
1399,7120103005233,新規,0,2023-05-30,2023-05-30,合同会社還る我が家,,合同会社,大阪府,河内長野市,錦町３３番１２号,,27,216,5860031,,,,,,,2023-05-30,1,,,,,カエルワガヤ,0
1400,7120901047575,新規,0,2023-05-30,2023-05-30,株式会社千原,,株式会社,大阪府,豊中市,桜の町３丁目３番１号,,27,203,5600054,,,,,,,2023-05-30,1,,,,,チハラ,0
1404,7130001074412,新規,0,2023-05-30,2023-05-30,株式会社高電建,,株式会社,京都府,京都市右京区,嵯峨野西ノ藤町１７番地１９,,26,108,6168333,,,,,,,2023-05-30,1,,,,,タカデンケン,0
1413,7140001130288,新規,0,2023-05-30,2023-05-30,Ｂｒｉｇｈｔ　Ｓｔｏｎｅ株式会社,,株式会社,兵庫県,明石市,本町１丁目２－３３興生ビル４Ｆ,,28,203,6730892,,,,,,,2023-05-30,1,,,,,ブライトストーン,0
1414,7140001130321,新規,0,2023-05-30,2023-05-30,株式会社コロメディア,,株式会社,兵庫県,神戸市兵庫区,神田町３０番８号,,28,105,6520006,,,,,,,2023-05-30,1,,,,,コロメディア,0
1417,7140003019141,新規,0,2023-05-30,2023-05-30,ＳＯＵＴＨ　ＦＡＶＯＲ合同会社,,合同会社,兵庫県,川西市,水明台４丁目８番２号,,28,217,6660116,,,,,,,2023-05-30,1,,,,,サウスフェイバー,0
1430,7180001156206,新規,0,2023-05-30,2023-05-30,株式会社氏鉄,,株式会社,愛知県,一宮市,緑４丁目７番７－２号,,23,203,4910862,,,,,,,2023-05-30,1,,,,,ウジテツ,0
1439,7220001025430,新規,0,2023-05-30,2023-05-30,株式会社木の彩,,株式会社,石川県,かほく市,高松ノ６３番地２,,17,209,9291215,,,,,,,2023-05-30,1,,,,,キノイロ,0
1440,7220003003517,新規,0,2023-05-30,2023-05-30,ヨハクビジネスディベロップメント合同会社,,合同会社,石川県,金沢市,久安１丁目１８７番地２,,17,201,9218164,,,,,,,2023-05-30,1,,,,,ヨハクビジネスディベロップメント,0
1442,7220005008761,新規,0,2023-05-30,2023-05-30,一般社団法人ＮＯＴＯＲＮ,,その他の設立登記法人,石川県,七尾市,生駒町３‐３,,17,202,9260804,,,,,,,2023-05-30,1,,,,,ノターン,0
1447,7240001061572,新規,0,2023-05-30,2023-05-30,株式会社ｒｓ　ｐｌａｃｅ．,,株式会社,広島県,福山市,神辺町大字川南１７３８番地１５,,34,207,7202124,,,,,,,2023-05-30,1,,,,,アールエスプレイス,0
1454,7250001020115,新規,0,2023-05-30,2023-05-30,株式会社ＦＣフーズコンサルティング,,株式会社,山口県,下関市,山手町１３番１６号,,35,201,7500033,,,,,,,2023-05-30,1,,,,,エフシーフーズコンサルティング,0
1469,7290001101687,新規,0,2023-05-30,2023-05-30,ＮＹ株式会社,,株式会社,福岡県,福岡市南区,大橋１丁目２５ー１６ドリーム大橋２Ｆ,,40,134,8150033,,,,,,,2023-05-30,1,,,,,エヌワイ,0
1471,7290003013955,新規,0,2023-05-30,2023-05-30,合同会社Ｔｗｏ　Ｔｈｒｅｅ,,合同会社,福岡県,糟屋郡新宮町,美咲２丁目８番６－１０３号,,40,345,8110121,,,,,,,2023-05-30,1,,,,,トゥースリー,0
1474,7290801029558,新規,0,2023-05-30,2023-05-30,株式会社幸和,,株式会社,福岡県,北九州市小倉北区,泉台３丁目１４番５号,,40,106,8030842,,,,,,,2023-05-30,1,,,,,コウワ,0
1477,7310001018433,新規,0,2023-05-30,2023-05-30,株式会社大福,,株式会社,長崎県,大村市,諏訪２丁目５２１－１将ビル１Ｆ,,42,205,8560024,,,,,,,2023-05-30,1,,,,,,0
1481,7320003004091,新規,0,2023-05-30,2023-05-30,合同会社ｉｎｉｚｉｏ,,合同会社,大分県,中津市,大字大塚３８０番地７,,44,203,8710008,,,,,,,2023-05-30,1,,,,,イニッツィオ,0
1486,7350003004361,新規,0,2023-05-30,2023-05-30,合同会社ＳＵＧＩＭＯＴＯ,,合同会社,宮崎県,小林市,真方５１２－４８,,45,205,8860007,,,,,,,2023-05-30,1,,,,,スギモト,0
1490,7360001032066,新規,0,2023-05-30,2023-05-30,Ａｇｒｉｈａｃｋ　Ｆａｒｍｅｒｓ株式会社,,株式会社,沖縄県,浦添市,内間４丁目５番３７号１Ｆ,,47,208,9012121,,,,,,,2023-05-30,1,,,,,アグリハックファーマーズ,0
1493,7370001050001,新規,0,2023-05-30,2023-05-30,株式会社ＮＡＮＡ　ｉｓｈｉｗａｔａ,,株式会社,宮城県,気仙沼市,松崎地生４番地,,04,205,9880143,,,,,,,2023-05-30,1,,,,,ナナイシワタ,0
1501,7430003015094,新規,0,2023-05-30,2023-05-30,合同会社ＳＥＮＹＡ,,合同会社,北海道,札幌市北区,新琴似一条１３丁目７番７号,,01,102,0010901,,,,,,,2023-05-30,1,,,,,センヤ,0
1506,7490001010488,新規,0,2023-05-30,2023-05-30,株式会社リレア,,株式会社,高知県,高知市,北川添２４番地１０,,39,201,7810081,,,,,,,2023-05-30,1,,,,,リレア,0
1510,7500003003042,新規,0,2023-05-30,2023-05-30,合同会社ＦＴＬｉｎｋ,,合同会社,愛媛県,四国中央市,下柏町１３０３番地ストーン・リヴァー下柏２０５号,,38,213,7990411,,,,,,,2023-05-30,1,,,,,エフティーリンク,0
1511,7700150116568,新規,0,2023-05-30,2023-05-30,ＳｈｅｎＺｈｅｎ　ＤｅＰｕＬｅ　ＫｅＪｉ　ＹｏｕＸｉａｎＧｏｎｇＳｉ,,外国会社等,,,,,,,,Ｂ９，７Ｌｏｕ，ＺｏｎｇＨｅＬｏｕ，ＮａｎＳｈａｎＹｕｎＧｕＹｉＱｉ，１１８３Ｈａｏ，ＬｉｕＸｉａｎＤａＤａｏ　ＴａｏＹｕａｎＪｉｅＤａｏ，ＮａｎＳｈａｎＱｕ，ＳｈｅｎＺｈｅｎＳｈｉ　ＧｕａｎｇＤｏｎｇＳｈｅｎｇ　ＣＮ,,,,,,2023-05-30,1,,,,,シンセンデプレケジユウゲンコウシ,0
1512,7700150116576,新規,0,2023-05-30,2023-05-30,Ｓｈｅｎｚｈｅｎ　Ｆｅｉｗｅｎｅｒ　Ｔｅｃｈｎｏｌｏｇｙ　Ｃｏｍｐａｎｙ　Ｌｉｍｉｔｅｄ,,外国会社等,,,,,,,,１１０９，１　Ｄｏｎｇ　１　Ｌｏｕ，ＭｅｉＬｉｎＤｕｏＬｉＧｏｎｇＹｅＱｕ　ＭｅｉＨｕａＬｕ，ＦｕｔｉａｎＱｕ　Ｓｈｅｎｚｈｅｎ　Ｇｕａｎｇｄｏｎｇ,,,,,,2023-05-30,1,,,,,シンセンフェイウェンエテクノロジーカンパニーリミテッド,0
1513,7700150116584,新規,0,2023-05-30,2023-05-30,ｂａｉｋｅｗｕ　ｔｉａｎｊｉｎ　ｋｅｊｉｙｏｕｘｉａｎｇｏｎｇｓｉ,,外国会社等,,,,,,,,ｗｕｑｉｎｇｋａｉｆａｑｕｆｕｙｕａｎｄａｏｃｈｕａｎｇｙｅｚｏｎｇｂｕｊｉｄｉ　Ｃ０５ｈａｏｌｏｕ１０１ｓｈｉ　ｔａｉｎｊｉｎ　ＣＮ,,,,,,2023-05-30,1,,,,,バイケウテェンジンケジユウゲンコウシ,0
1518,8010001235660,新規,0,2023-05-30,2023-05-30,ＰＬＡＣＨ株式会社,,株式会社,東京都,千代田区,神田和泉町１番地６－１６ヤマトビル４０５,,13,101,1010024,,,,,,,2023-05-30,1,,,,,プラッチ,0
1519,8010001235677,新規,0,2023-05-30,2023-05-30,株式会社ＳＴＯＣＫ１２５,,株式会社,東京都,千代田区,永田町２丁目１２番４号,,13,101,1000014,,,,,,,2023-05-30,1,,,,,ストックヒャクニジュウゴ,0
1520,8010001235685,新規,0,2023-05-30,2023-05-30,恒潤投資株式会社,,株式会社,東京都,千代田区,霞が関３丁目２番５号,,13,101,1000013,,,,,,,2023-05-30,1,,,,,コウジュントウシ,0
1523,8010003040704,新規,0,2023-05-30,2023-05-30,合同会社ＴＲＵＳＴ,,合同会社,東京都,千代田区,岩本町３丁目８番８号中和秋葉原ビル７－３１,,13,101,1010032,,,,,,,2023-05-30,1,,,,,トラスト,0
1530,8010401174640,新規,0,2023-05-30,2023-05-30,Ａｕｒｏｒａｅ　Ｊａｐａｎ株式会社,,株式会社,東京都,港区,元麻布３丁目１番６号,,13,103,1060046,,,,,,,2023-05-30,1,,,,,オーロリージャパン,0
1531,8010401174649,新規,0,2023-05-30,2023-05-30,Ｎｅｏｃｌｉｐｓｅ株式会社,,株式会社,東京都,港区,虎ノ門３丁目１８番６号朝日虎ノ門マンション６１４号室,,13,103,1050001,,,,,,,2023-05-30,1,,,,,ネオクリプス,0
1532,8010401174673,新規,0,2023-05-30,2023-05-30,株式会社Ｂｒｉｄｇｅ　Ｆｏｒ　Ｆｕｔｕｒｅ,,株式会社,東京都,港区,三田４丁目４番１７－３０８号,,13,103,1080073,,,,,,,2023-05-30,1,,,,,ブリッジフォーフューチャー,0
1540,8010403030189,新規,0,2023-05-30,2023-05-30,ＫアンドＭ合同会社,,合同会社,東京都,港区,芝大門２丁目１番１８号,,13,103,1050012,,,,,,,2023-05-30,1,,,,,ケーアンドエム,0
1541,8010403030197,新規,0,2023-05-30,2023-05-30,トタルエナジーズ・リニューアブルズ・ジャパン合同会社,,合同会社,東京都,港区,赤坂４丁目２番１９号赤坂シャスタ・イースト２階,,13,103,1070052,,,,,,,2023-05-30,1,,,,,トタルエナジーズリニューアブルズジャパン,0
1542,8010403030214,新規,0,2023-05-30,2023-05-30,合同会社アセット投資事業１０号,,合同会社,東京都,港区,西新橋１丁目２番９号メンターキャピタル税理士法人内,,13,103,1050003,,,,,,,2023-05-30,1,,,,,アセットトウシジギョウジュウゴウ,0
1543,8010501050502,新規,0,2023-05-30,2023-05-30,Ｔｉｍｅｌａｒｋ株式会社,,株式会社,東京都,台東区,北上野２丁目２５番９号－２０１号室,,13,106,1100014,,,,,,,2023-05-30,1,,,,,タイムラーク,0
1548,8010903008197,新規,0,2023-05-30,2023-05-30,合同会社鮨西崎,,合同会社,東京都,世田谷区,北沢５丁目３番１２号Ｂ１,,13,112,1550031,,,,,,,2023-05-30,1,,,,,スシニシザキ,0
1551,8011001154693,新規,0,2023-05-30,2023-05-30,株式会社ＳＰＣ,,株式会社,東京都,渋谷区,神宮前６丁目２３番４号桑野ビル２階,,13,113,1500001,,,,,,,2023-05-30,1,,,,,エスピーシー,0
1552,8011001154710,新規,0,2023-05-30,2023-05-30,株式会社リクロマート,,株式会社,東京都,渋谷区,道玄坂１丁目１０番８号渋谷道玄坂東急ビル２Ｆ－Ｃ,,13,113,1500043,,,,,,,2023-05-30,1,,,,,リクロマート,0
1555,8011003016891,新規,0,2023-05-30,2023-05-30,合同会社クロスコム,,合同会社,東京都,渋谷区,円山町５番５号Ｎａｖｉ渋谷Ｖ３階,,13,113,1500044,,,,,,,2023-05-30,1,,,,,クロスコム,0
1563,8011101103022,新規,0,2023-05-30,2023-05-30,株式会社財友アセットマネジメント,,株式会社,東京都,新宿区,北新宿１丁目９番１０号,,13,104,1690074,,,,,,,2023-05-30,1,,,,,ザイユウアセットマネジメント,0
1564,8011101103047,新規,0,2023-05-30,2023-05-30,ＮＯＷＲＥ　ＪＡＰＡＮ株式会社,,株式会社,東京都,新宿区,大久保１丁目１２番地３カーサ第２新宿７０７号,,13,104,1690072,,,,,,,2023-05-30,1,,,,,ナウリジャパン,0
1574,8012303001831,新規,0,2023-05-30,2023-05-30,合同会社伽羅,,合同会社,東京都,町田市,大蔵町１７５１番地,,13,209,1950062,,,,,,,2023-05-30,1,,,,,キャラ,0
1575,8012801022387,新規,0,2023-05-30,2023-05-30,株式会社アスリフォーム,,株式会社,東京都,昭島市,緑町４丁目２７－３３,,13,207,1960004,,,,,,,2023-05-30,1,,,,,アスリフォーム,0
1582,8020001151808,新規,0,2023-05-30,2023-05-30,清水コンサルティング株式会社,,株式会社,神奈川県,横浜市泉区,領家３丁目２番地１－３０２号,,14,116,2450004,,,,,,,2023-05-30,1,,,,,シミズコンサルティング,0
1616,8040005022020,新規,0,2023-05-30,2023-05-30,ＡＯ事業協同組合,,その他の設立登記法人,千葉県,松戸市,東平賀２４１番２号,,12,207,2700003,,,,,,,2023-05-30,1,,,,,エーオー,0
1617,8050001052895,新規,0,2023-05-30,2023-05-30,株式会社ＤＯＫＩ,,株式会社,茨城県,牛久市,ひたち野東５丁目２５番地２２,,08,219,3001207,,,,,,,2023-05-30,1,,,,,ドキ,0
1619,8060001036030,新規,0,2023-05-30,2023-05-30,Ｆｕｔｕｒｅ　Ｐａｇｅ株式会社,,株式会社,栃木県,小山市,東城南４丁目３２番地８サニープレイスＩＩ３０６号,00130660,09,208,3230829,,,,,,,2023-05-30,1,,,,,フューチャーページ,0
1633,8120001255251,新規,0,2023-05-30,2023-05-30,株式会社サクラロジテック,,株式会社,大阪府,大阪市浪速区,難波中２丁目１０番７０号パークスタワー１９階,,27,111,5560011,,,,,,,2023-05-30,1,,,,,サクラロジテック,0
1634,8120001255268,新規,0,2023-05-30,2023-05-30,新天地株式会社,,株式会社,大阪府,大阪市東住吉区,矢田１丁目２６－７ＵＩＩＴビル矢田２０１Ａ,,27,121,5460023,,,,,,,2023-05-30,1,,,,,シンテンチ,0
1645,8140001130329,新規,0,2023-05-30,2023-05-30,株式会社ティープラン,,株式会社,兵庫県,川西市,栄町１１番１－１５０３号,,28,217,6660033,,,,,,,2023-05-30,1,,,,,ティープラン,0
1647,8140003019140,新規,0,2023-05-30,2023-05-30,イルグローネ合同会社,,合同会社,兵庫県,尼崎市,武庫川町３丁目６９番地,,28,202,6600084,,,,,,,2023-05-30,1,,,,,イルグローネ,0
1649,8150003002970,新規,0,2023-05-30,2023-05-30,合同会社レオン,,合同会社,奈良県,奈良市,菅原東１丁目１１番１３号,,29,201,6310842,,,,,,,2023-05-30,1,,,,,レオン,0
1658,8180001156493,新規,0,2023-05-30,2023-05-30,株式会社Ｂ・Ｂ　ｃｏｌｌｅｚｉｏｎｅ,,株式会社,愛知県,日進市,岩崎台３丁目１３０３番地,,23,230,4700135,,,,,,,2023-05-30,1,,,,,ビービーコレツィオーネ,0
1667,8190001030441,新規,0,2023-05-30,2023-05-30,株式会社鴻運商事,,株式会社,三重県,四日市市,朝日町１１番７号交邦ビル１Ｂ,,24,202,5100061,,,,,,,2023-05-30,1,,,,,コウウンショウジ,0
1673,8220005008760,新規,0,2023-05-30,2023-05-30,一般社団法人鶴の恩返し,,その他の設立登記法人,石川県,金沢市,才田町丁６５番地１,,17,201,9203101,,,,,,,2023-05-30,1,,,,,ツルノオンガエシ,0
1690,8290003013954,新規,0,2023-05-30,2023-05-30,合同会社ゼロトイチカラ,,合同会社,福岡県,福岡市南区,清水３丁目２２番１４号,,40,134,8150031,,,,,,,2023-05-30,1,,,,,ゼロトイチカラ,0
1695,8320001019784,新規,0,2023-05-30,2023-05-30,株式会社Ｆ　ｃｏｍｐａｎｙ,,株式会社,大分県,大分市,大字津守３３０番地の５,,44,201,8700945,,,,,,,2023-05-30,1,,,,,エフカンパニー,0
1696,8320003004090,新規,0,2023-05-30,2023-05-30,合同会社バンザン,,合同会社,大分県,大分市,大字上宗方５６０番地１４宗方サンプラザ１０２,,44,201,8701152,,,,,,,2023-05-30,1,,,,,バンザン,0
1710,8410001013489,新規,0,2023-05-30,2023-05-30,シビルエンジニア株式会社,,株式会社,秋田県,秋田市,手形字中谷地１０番地１－１００２号,,05,201,0100851,,,,,,,2023-05-30,1,,,,,,0
1720,8430003015093,新規,0,2023-05-30,2023-05-30,札幌水道メンテナンス合同会社,,合同会社,北海道,札幌市北区,屯田八条１０丁目３番９号,,01,102,0020858,,,,,,,2023-05-30,1,,,,,サッポロスイドウメンテナンス,0
1727,8700150116567,新規,0,2023-05-30,2023-05-30,ＳＨＥＮＺＨＥＮ　ＱＩＡＮＨＡＩＫＥＹＩＮＧＷＥＮＨＵＡＫＥＪＩ　ＹＯＵＸＩＡＮＧＯＮＧＳＩ,,外国会社等,,,,,,,,Ｒｏｏｍ　２０１，Ｂｕｉｌｄｉｎｇ　Ａ，Ｎｏ．１　Ｑｉａｎｗａｎ　Ｆｉｒｓｔ　Ｒｏａｄ，Ｑｉａｎｈａｉ　Ｓｈｅｎｚｈｅｎ－Ｈｏｎｇ　Ｋｏｎｇ　Ｃｏｏｐｅｒａｔｉｏｎ　Ｚｏｎｅ　Ｓｈｅｎｚｈｅｎ　Ｇｕａｎｇｄｏｎｇ,,,,,,2023-05-30,1,,,,,シンセンチェンハイケインウェンファケジユウゲンコウシ,0
1728,8700150116575,新規,0,2023-05-30,2023-05-30,Ｎａｎｊｉｎｇ　Ｙｉｘｉａｏ　Ｄｉａｎｚｉｋｅｊｉ　Ｙｏｕｘｉａｎ　Ｇｏｎｇｓｉ,,外国会社等,,,,,,,,Ｍｏ　Ｌｉｎｇ　Ｋｅ　Ｃｈｕａｎｇ　Ｚｈｏｎｇ　Ｘｉｎ，Ｊｉａｎｇｎｉｎｇ　Ｄｉｓｔｒｉｃｔ，ＮＡＮＪＩＮＧ　ＪＩＡＮＧＳＵ,,,,,,2023-05-30,1,,,,,ナンジンイシャオデンシケジユウゲンコウシ,0
1729,8700150116583,新規,0,2023-05-30,2023-05-30,Ｓｈｅｎｚｈｅｎ　Ｓｈｉ　Ｔａｉ　Ｓｉ　Ｋａ　Ｋｅ　Ｊｉ　Ｙｏｕ　Ｘｉａｎ　Ｇｏｎｇ　Ｓｉ,,外国会社等,,,,,,,,Ｓｈｅｎｚｈｅｎ　Ｓｈｉ　Ｌｏｎｇｈｕａ　Ｑｕ　Ｄａｌａｎｇ　Ｊｉｅ　Ｄａｏ　Ｆｕ　Ｘｕａｎ　Ｘｉｎ　Ｃｕｎ　Ｆｕ　Ｘｕａｎ　Ｄａ　Ｓｈａ　Ｂ　Ｄｏｎｇ　６０６,,,,,,2023-05-30,1,,,,,シェンゼェンシタイスカケジユウゲンコウシ,0
1737,9010001235585,新規,0,2023-05-30,2023-05-30,北秀商事株式会社,,株式会社,東京都,中央区,日本橋浜町２丁目３４番１号,,13,102,1030007,,,,,,,2023-05-30,1,,,,,キタヒデショウジ,0
1738,9010001235676,新規,0,2023-05-30,2023-05-30,株式会社ＳＴＯＣＫ１２４,,株式会社,東京都,千代田区,永田町２丁目１２番４号,,13,101,1000014,,,,,,,2023-05-30,1,,,,,ストックヒャクニジュウヨン,0
1739,9010003040686,新規,0,2023-05-30,2023-05-30,合同会社Ｅ２Ｅ　Ｃｏｎｓｕｌｔｉｎｇ,,合同会社,東京都,中央区,銀座７丁目１３番２０号銀座ＴＨビル９階,,13,102,1040061,,,,,,,2023-05-30,1,,,,,イーツーイーコンサルティング,0
1740,9010005036757,新規,0,2023-05-30,2023-05-30,一般社団法人あさがお,,その他の設立登記法人,東京都,千代田区,一ツ橋２丁目６番３号アクシスインベストメントアドバイザーズ株式会社内,,13,101,1010003,,,,,,,2023-05-30,1,,,,,アサガオ,0
1754,9010401174648,新規,0,2023-05-30,2023-05-30,株式会社エクセワン,,株式会社,東京都,港区,三田１丁目２番１８号ＴＴＤビル,,13,103,1080073,,,,,,,2023-05-30,1,,,,,エクセワン,0
1755,9010401174697,新規,0,2023-05-30,2023-05-30,株式会社ＧＷ　ＧＲＯＵＰ,,株式会社,東京都,港区,虎ノ門３丁目２２番１４エミタス虎ノ門ビル１２０１,,13,103,1050001,,,,,,,2023-05-30,1,,,,,ジーダブリューグループ,0
1758,9010403030188,新規,0,2023-05-30,2023-05-30,福岡小郡合同会社,,合同会社,東京都,港区,元赤坂１丁目１番８号株式会社赤坂国際会計内,,13,103,1070051,,,,,,,2023-05-30,1,,,,,フクオカオゴオリ,0
1764,9010501050518,新規,0,2023-05-30,2023-05-30,株式会社ＣＬＥＮＡ,,株式会社,東京都,台東区,浅草１丁目１番１６号,,13,106,1110032,,,,,,,2023-05-30,1,,,,,クレナ,0
1765,9010503007012,新規,0,2023-05-30,2023-05-30,ＪＮ　Ｇｅｍｓ合同会社,,合同会社,東京都,台東区,上野３丁目１５番７号,,13,106,1100005,,,,,,,2023-05-30,1,,,,,ジェイエヌジェムズ,0
1766,9010601063171,新規,0,2023-05-30,2023-05-30,ミライフィット株式会社,,株式会社,東京都,江東区,豊洲６丁目２番３１－６０１号,,13,108,1350061,,,,,,,2023-05-30,1,,,,,ミライフィット,0
1780,9011001154726,新規,0,2023-05-30,2023-05-30,株式会社ＭＡＮＦＲＥＤＩ,,株式会社,東京都,渋谷区,恵比寿２丁目９－９クリスタルスクエア代官山３－Ｂ,,13,113,1500013,,,,,,,2023-05-30,1,,,,,マンフレディ,0
1782,9011003016908,新規,0,2023-05-30,2023-05-30,合同会社サーカステント,,合同会社,東京都,目黒区,目黒１丁目１２番２２号,,13,110,1530063,,,,,,,2023-05-30,1,,,,,サーカステント,0
1787,9011101103021,新規,0,2023-05-30,2023-05-30,株式会社財友ホールディングス,,株式会社,東京都,新宿区,北新宿１丁目９番１０号,,13,104,1690074,,,,,,,2023-05-30,1,,,,,ザイユウホールディングス,0
1788,9011101103046,新規,0,2023-05-30,2023-05-30,株式会社カングール,,株式会社,東京都,新宿区,新宿３丁目１０番１１号国久ビル４ＦＢ,,13,104,1600022,,,,,,,2023-05-30,1,,,,,カングール,0
1791,9011403004009,新規,0,2023-05-30,2023-05-30,合同会社フルペイント,,合同会社,東京都,板橋区,上板橋２丁目５２番６号メゾン・ド・和２０４,,13,119,1740076,,,,,,,2023-05-30,1,,,,,フルペイント,0
1794,9011701026274,新規,0,2023-05-30,2023-05-30,株式会社Ａ・Ｒ　Ｃａｒ　Ｃｒａｆｔ,,株式会社,東京都,江戸川区,東小松川４丁目１５番１１号,,13,123,1320033,,,,,,,2023-05-30,1,,,,,エーアールカークラフト,0
1796,9011801042477,新規,0,2023-05-30,2023-05-30,株式会社ＨＷＭ,,株式会社,東京都,足立区,千住５丁目１１番３号,,13,121,1200034,,,,,,,2023-05-30,1,,,,,エイチダブリューエム,0
1802,9012401040581,新規,0,2023-05-30,2023-05-30,株式会社トナリティパートナーズ,,株式会社,東京都,府中市,寿町３丁目４番地２マイキャッスル府中寿町９０１,,13,206,1830056,,,,,,,2023-05-30,1,,,,,トナリティパートナーズ,0
1804,9012703002718,新規,0,2023-05-30,2023-05-30,合同会社サトウ,,合同会社,東京都,西東京市,向台町３丁目５番２７－８２８号,,13,229,1880013,,,,,,,2023-05-30,1,,,,,サトウ,0
1809,9021003013111,新規,0,2023-05-30,2023-05-30,合同会社大人文化祭,,合同会社,神奈川県,藤沢市,鵠沼海岸１丁目２－１８シーサイド鵠沼３０５,,14,205,2510037,,,,,,,2023-05-30,1,,,,,オトナブンカサイ,0
1827,9030001154131,新規,0,2023-05-30,2023-05-30,株式会社ロジスティクス・パートナーズ,,株式会社,埼玉県,吉川市,大字関６００番地の１,,11,243,3420053,,,,,,,2023-05-30,1,,,,,ロジスティクスパートナーズ,0
1846,9040001128555,新規,0,2023-05-30,2023-05-30,株式会社幸之助ファーム,,株式会社,千葉県,船橋市,三咲２丁目１０番１３号,,12,204,2740812,,,,,,,2023-05-30,1,,,,,コウノスケファーム,0
1847,9040001128588,新規,0,2023-05-30,2023-05-30,煌福興業株式会社,,株式会社,千葉県,八千代市,島田台１０４０番地８ジェルメＸ１０１,,12,221,2760004,,,,,,,2023-05-30,1,,,,,コウフクコウギョウ,0
1851,9050001052894,新規,0,2023-05-30,2023-05-30,株式会社ＮＩＰＰＯＮ　ＴＲＡＤＩＮＧ,,株式会社,茨城県,猿島郡境町,大字内門１１１５番地１２－Ａ棟,,08,546,3060414,,,,,,,2023-05-30,1,,,,,ニッポントレーディング,0
1852,9050001052903,新規,0,2023-05-30,2023-05-30,株式会社つなぐ,,株式会社,茨城県,北茨城市,中郷町粟野１２１１番１,,08,215,3191554,,,,,,,2023-05-30,1,,,,,,0
1869,9100001036388,新規,0,2023-05-30,2023-05-30,株式会社西内銀行,,株式会社,長野県,上田市,平井１７００番地,,20,203,3860321,,,,,,,2023-05-30,1,,,,,ニシウチギンコウ,0
1879,9120001255168,新規,0,2023-05-30,2023-05-30,ＤｒｉｆｔｅｃｈＲａｃｉｎｇ株式会社,,株式会社,大阪府,大阪市生野区,巽北１丁目１番１号２Ｆ－Ｊ,,27,116,5440004,,,,,,,2023-05-30,1,,,,,ドリフテックレーシング,0
1880,9120001255242,新規,0,2023-05-30,2023-05-30,株式会社天喜,,株式会社,大阪府,大阪市北区,野崎町６番８号,,27,127,5300055,,,,,,,2023-05-30,1,,,,,テンギ,0
1881,9120003024109,新規,0,2023-05-30,2023-05-30,合同会社ミリーズ,,合同会社,大阪府,枚方市,長尾東町３丁目８番１１号,,27,210,5730105,,,,,,,2023-05-30,1,,,,,ミリーズ,0
1882,9120101067612,新規,0,2023-05-30,2023-05-30,株式会社ＳＴＳ　ＣＨＡＩＮＯＮ,,株式会社,大阪府,松原市,天美東７丁目６番６号,,27,217,5800032,,,,,,,2023-05-30,1,,,,,エスティエスシェノン,0
1888,9130003008754,新規,0,2023-05-30,2023-05-30,ａｂｅｂｅｂｅｂｅｂｅｂｅｂｅｂｅ合同会社,,合同会社,京都府,京都市西京区,川島梅園町８４－１,,26,111,6158113,,,,,,,2023-05-30,1,,,,,アベベベベベベベベ,0
1893,9140001130311,新規,0,2023-05-30,2023-05-30,海洋国際株式会社,,株式会社,兵庫県,尼崎市,道意町５丁目３０番地,,28,202,6600083,,,,,,,2023-05-30,1,,,,,カイヨウコクサイ,0
1896,9140003019131,新規,0,2023-05-30,2023-05-30,合同会社Ａ．Ｔ　ＬＡＢＯ,,合同会社,兵庫県,尼崎市,塚口本町４丁目２番８－３０３号,,28,202,6610001,,,,,,,2023-05-30,1,,,,,エーティーラボ,0
1916,9270003001530,新規,0,2023-05-30,2023-05-30,合同会社タイラ商会,,合同会社,鳥取県,米子市,米原２丁目３番１５－２０１号,,31,202,6830804,,,,,,,2023-05-30,1,,,,,タイラショウカイ,0
1920,9290801029556,新規,0,2023-05-30,2023-05-30,株式会社ＢＥＸ,,株式会社,福岡県,北九州市八幡西区,熊手１丁目１－３４－２Ｆ,,40,109,8060028,,,,,,,2023-05-30,1,,,,,ベックス,0
1921,9300003001972,新規,0,2023-05-30,2023-05-30,ｃｏｎｎｅｃｔＫＨＡ合同会社,,合同会社,佐賀県,鳥栖市,田代本町１１９２番地２,,41,203,8410018,,,,,,,2023-05-30,1,,,,,コネクトケーエッチエー,0
1938,9380001033721,新規,0,2023-05-30,2023-05-30,株式会社Ｍｔ．ｇａｐｐｕ,,株式会社,福島県,郡山市,安積町日出山字大洲河原１９－６,,07,203,9630101,,,,,,,2023-05-30,1,,,,,マウントギャップ,0
1941,9410001013488,新規,0,2023-05-30,2023-05-30,株式会社グラデーション,,株式会社,秋田県,秋田市,飯島道東２丁目１４番１５号,,05,201,0110917,,,,,,,2023-05-30,1,,,,,グラデーション,0
1943,9430001089238,新規,0,2023-05-30,2023-05-30,株式会社ジャンクパワーズ,,株式会社,北海道,札幌市豊平区,平岸四条９丁目２－１４シャペル平岸１０２号室,,01,105,0620934,,,,,,,2023-05-30,1,,,,,ジャンクパワーズ,0
1952,9700150116566,新規,0,2023-05-30,2023-05-30,ＳｈｅｎＺｈｅｎＳｈｉ　ＺｈａｎｇＺｅＹｕａｎＤａＤｉａｎＺｉＳｈａｎｇＷｕ　ＹｏｕＸｉａｎＧｏｎｇＳｉ,,外国会社等,,,,,,,,３Ｄｏｎｇ　８ＤａｎＹｕａｎ　２３Ｃ　Ｆａｎｇ，ＨｕａＦｕＧｕｏＪｉ　ＧｕａｎＫｏｕＹｉＬｕ　１０Ｈａｏ，ＮａｎＳｈａｎＱｕ　ＳｈｅｎＺｈｅｎ　ＧｕａｎｇＤｏｎｇ　ＣＮ,,,,,,2023-05-30,1,,,,,シンセンシザンゼユェンダデンシシャンウユウゲンコウシ,0
1953,9700150116574,新規,0,2023-05-30,2023-05-30,ｓｈａｎｇ　ｈａｉ　ｈｕ　ｈｏｎｇ　ｇｕｏ　ｊｉ　ｍａｏ　ｙｉ　ｙｏｕ　ｘｉａｎ　ｇｏｎｇ　ｓｉ,,外国会社等,,,,,,,,ｄａ　ｌｉａｎ　ｌｕ　２７７　ｈａｏ　７５　ｚｈｕａｎｇ　４１７　ｓｈｉ　ｈｏｎｇ　ｋｏｕ　ｑｕ　ｓｈａｎｇ　ｈａｉ　ＣＮ,,,,,,2023-05-30,1,,,,,シャンハイフホンゴウジマオイユウゲンコウシ,0
1954,9700150116582,新規,0,2023-05-30,2023-05-30,Ｓｈｅｎｚｈｅｎ　Ｔｕａｎ　Ｃｈｕａｎｇ　Ｈｕｉ　Ｔｅｃｈｎｏｌｏｇｙ　Ｃｏ．，Ｌｔｄ．,,外国会社等,,,,,,,,４０３Ａ，４／Ｆ，Ｂｌｏｃｋ　Ａ，Ｎｏ．１６　Ｌｏｎｇｓｈｅｎｇ　Ｒｄ，ＢａｏｌｏｎｇＳｔ　Ｓｈｅｎｚｈｅｎ　Ｇｕａｎｇｄｏｎｇ　Ｐｒｏｖｉｎｃｅ　Ｃｈｉｎａ,,,,,,2023-05-30,1,,,,,シェンゼェンテゥアンチゥアンフイテクノロジーカンパニーリミテッド,0
