sequenceNumber,corporateNumber,process,correct,updateDate,changeDate,name,nameImageId,kind,prefectureName,cityName,streetNumber,addressImageId,prefectureCode,cityCode,postCode,addressOutside,addressOutsideImageId,closeDate,closeCause,successorCorporateNumber,changeCause,assignmentDate,latest,enName,enPrefectureName,enCityName,enAddressOutside,furigana,hihyoji
6,1010001234537,新規,0,2023-04-18,2023-04-18,株式会社ネオシステムズ,,株式会社,東京都,千代田区,丸の内２丁目３番２号郵船ビルディング,,13,101,1000005,,,,,,,2023-04-18,1,,,,,ネオシステムズ,0
9,1010005036533,新規,0,2023-04-18,2023-04-18,ＲＢソーラーフレイムホールディングス一般社団法人,,その他の設立登記法人,東京都,中央区,八丁堀４丁目２番１０号ＡＯＪ税理士法人内,,13,102,1040032,,,,,,,2023-04-18,1,,,,,アールビーソーラーフレイムホールディングス,0
10,1010103002123,新規,0,2023-04-18,2023-04-18,合同会社Ｌｅｓｌｉｅｎｓ,,合同会社,東京都,八王子市,三崎町９番１１号ホームマックスＢＬＤＧＩＩ２階,00130148,13,201,1920084,,,,,,,2023-04-18,1,,,,,レリアン,0
13,1010401173772,新規,0,2023-04-18,2023-04-18,株式会社アイビーエイト,,株式会社,東京都,港区,西麻布３丁目２１番３号オリンピアード麻布霞坂３０６,,13,103,1060031,,,,,,,2023-04-18,1,,,,,アイビーエイト,0
14,1010401173789,新規,0,2023-04-18,2023-04-18,株式会社Ｎａｔｕｒａｌ　Ｓｐａｃｅ,,株式会社,東京都,港区,新橋１丁目５番２号地下１階,,13,103,1050004,,,,,,,2023-04-18,1,,,,,ナチュラルスペース,0
15,1010401173806,新規,0,2023-04-18,2023-04-18,株式会社ＡＣＥ・Ｈｏｌｄｉｎｇｓ,,株式会社,東京都,港区,西新橋１丁目１８番６号１００１号室,,13,103,1050003,,,,,,,2023-04-18,1,,,,,エースホールディングス,0
18,1010405021993,新規,0,2023-04-18,2023-04-18,一般社団法人日本ＣＢＲＮＥ学会,,その他の設立登記法人,東京都,港区,赤坂４丁目９番２５号新東洋赤坂ビル３階,,13,103,1070052,,,,,,,2023-04-18,1,,,,,ニホンシーバーンガッカイ,0
19,1010405022001,新規,0,2023-04-18,2023-04-18,一般社団法人ファーストレコード,,その他の設立登記法人,東京都,港区,港南１丁目９－３６－１３Ｆ,,13,103,1080075,,,,,,,2023-04-18,1,,,,,ファーストレコード,0
20,1010405022067,新規,0,2023-04-18,2023-04-18,Ｍａｒｔａ特定目的会社,,その他の設立登記法人,東京都,港区,西新橋１丁目１番１号ＥＰコンサルティングサービス内,,13,103,1050003,,,,,,,2023-04-18,1,,,,,マルタ,0
23,1010503006962,新規,0,2023-04-18,2023-04-18,合同会社ウイング,,合同会社,東京都,台東区,千束４丁目２３番４号,,13,106,1110031,,,,,,,2023-04-18,1,,,,,ウイング,0
24,1010601062957,新規,0,2023-04-18,2023-04-18,株式会社ワイディーケー,,株式会社,東京都,墨田区,八広６丁目４２番６号,,13,107,1310041,,,,,,,2023-04-18,1,,,,,ワイディーケー,0
30,1010701044120,新規,0,2023-04-18,2023-04-18,株式会社Ｌｅａｐｓｅｃ,,株式会社,東京都,品川区,東中延１丁目９番１３号ザ・パークハビオ荏原中延駅前１Ｆ,,13,109,1420052,,,,,,,2023-04-18,1,,,,,リープセック,0
32,1010703006663,新規,0,2023-04-18,2023-04-18,Ｊａｐａｎ　Ｅｎｅｒｇｙ　Ｄｅｖｅｌｏｐｍｅｎｔ合同会社,,合同会社,東京都,品川区,平塚２丁目５番８号,,13,109,1420051,,,,,,,2023-04-18,1,,,,,ジャパンエネルギーデベロップメント,0
33,1010705003502,新規,0,2023-04-18,2023-04-18,一般社団法人ｅＣｌｉｎｉｃ,,その他の設立登記法人,東京都,品川区,西五反田３丁目１１番６号,,13,109,1410031,,,,,,,2023-04-18,1,,,,,イークリニック,0
35,1010801033865,新規,0,2023-04-18,2023-04-18,株式会社フレックス・リンケージ,,株式会社,東京都,大田区,西蒲田７丁目４－４小山第二ビル６Ｆ,,13,111,1440051,,,,,,,2023-04-18,1,,,,,フレックスリンケージ,0
37,1010901052880,新規,0,2023-04-18,2023-04-18,株式会社３ｓｉｄｅ　ｇｏｏｄ,,株式会社,東京都,世田谷区,経堂４丁目２３番１号ファインヴィラ２０１,,13,112,1560052,,,,,,,2023-04-18,1,,,,,スリーサイドグッド,0
46,1011001153719,新規,0,2023-04-18,2023-04-18,株式会社山和,,株式会社,東京都,渋谷区,渋谷２丁目９番１１号,,13,113,1500002,,,,,,,2023-04-18,1,,,,,サンワ,0
47,1011001153801,新規,0,2023-04-18,2023-04-18,株式会社ｓｐＮＯＶＡ,,株式会社,東京都,目黒区,青葉台１丁目２４番６ー３０３号マイキャッスル中目黒,,13,110,1530042,,,,,,,2023-04-18,1,,,,,スーパーノバ,0
48,1011001153834,新規,0,2023-04-18,2023-04-18,株式会社Ｌｅｇｉｘ,,株式会社,東京都,渋谷区,円山町５番５号Ｎａｖｉ渋谷Ｖ３階,,13,113,1500044,,,,,,,2023-04-18,1,,,,,レジックス,0
49,1011001153883,新規,0,2023-04-18,2023-04-18,株式会社ＣＯＳＭＯＳ,,株式会社,東京都,渋谷区,千駄ヶ谷３丁目５１番１０号,,13,113,1510051,,,,,,,2023-04-18,1,,,,,コスモス,0
51,1011003016659,新規,0,2023-04-18,2023-04-18,合同会社イングリッシュ・フォース,,合同会社,東京都,渋谷区,円山町５番５号Ｎａｖｉ渋谷Ｖ３階,,13,113,1500044,,,,,,,2023-04-18,1,,,,,イングリッシュフォース,0
56,1011101102583,新規,0,2023-04-18,2023-04-18,ＪＡＰＡＮ　ＡＩ株式会社,,株式会社,東京都,新宿区,西新宿６丁目８番１号,,13,104,1600023,,,,,,,2023-04-18,1,,,,,ジャパンエーアイ,0
59,1011103012954,新規,0,2023-04-18,2023-04-18,Ｄ‐ＢＢ　Ｐａｒｔｎｅｒ合同会社,,合同会社,東京都,新宿区,西新宿３丁目３番１３号西新宿水間ビル６階,,13,104,1600023,,,,,,,2023-04-18,1,,,,,ディービービーパートナー,0
61,1011201024587,新規,0,2023-04-18,2023-04-18,やまひと株式会社,,株式会社,東京都,中野区,東中野５丁目１１番８号,,13,114,1640003,,,,,,,2023-04-18,1,,,,,ヤマヒト,0
64,1011501029179,新規,0,2023-04-18,2023-04-18,ＡＩＴ技総研株式会社,,株式会社,東京都,北区,滝野川７丁目９番５号,,13,117,1140023,,,,,,,2023-04-18,1,,,,,エーアイティーギソウケン,0
68,1011701026158,新規,0,2023-04-18,2023-04-18,株式会社ＯＲＩＶＥＲＳ,,株式会社,東京都,江戸川区,東葛西６丁目１４番１４号,,13,123,1340084,,,,,,,2023-04-18,1,,,,,オリバーズ,0
72,1011801042245,新規,0,2023-04-18,2023-04-18,株式会社むすびつき,,株式会社,東京都,足立区,花畑５丁目１番３号,,13,121,1210061,,,,,,,2023-04-18,1,,,,,ムスビツキ,0
75,1012401040424,新規,0,2023-04-18,2023-04-18,株式会社Ｌｉｎ‐Ｋ,,株式会社,東京都,調布市,入間町２丁目２８番地１８ウエリス仙川調布の森１１３号,,13,208,1820004,,,,,,,2023-04-18,1,,,,,リンク,0
83,1013301050604,新規,0,2023-04-18,2023-04-18,壹君株式会社,,株式会社,東京都,豊島区,上池袋３丁目４７－９－４Ｆ－８号室,,13,116,1700012,,,,,,,2023-04-18,1,,,,,イックン,0
86,1020001151145,新規,0,2023-04-18,2023-04-18,株式会社Ｓｉｇｈｔ,,株式会社,神奈川県,川崎市多摩区,西生田４丁目３番２９号マイタウン西生田３０２,,14,135,2140037,,,,,,,2023-04-18,1,,,,,サイト,0
87,1020001151153,新規,0,2023-04-18,2023-04-18,株式会社灰泥資源研究所,,株式会社,神奈川県,横浜市港北区,菊名５丁目２４番２０－４０１号,,14,109,2220011,,,,,,,2023-04-18,1,,,,,ハイドロシゲンケンキュウジョ,0
88,1020001151194,新規,0,2023-04-18,2023-04-18,株式会社Ｅ＆Ｙｃｏｍｐａｎｙ,,株式会社,神奈川県,横浜市西区,北幸１丁目１１－１－７Ｆ,,14,103,2200004,,,,,,,2023-04-18,1,,,,,イーアンドワイカンパニー,0
95,1021001078733,新規,0,2023-04-18,2023-04-18,株式会社植誠,,株式会社,神奈川県,相模原市緑区,根小屋１２７番地６,,14,151,2520153,,,,,,,2023-04-18,1,,,,,ウエセイ,0
96,1021001078741,新規,0,2023-04-18,2023-04-18,株式会社シーシェル,,株式会社,神奈川県,座間市,相武台４丁目１６番１９号,,14,216,2520011,,,,,,,2023-04-18,1,,,,,シーシェル,0
99,1030001153396,新規,0,2023-04-18,2023-04-18,株式会社ＳＨＩＮ　ＬＯＣＡＬ,,株式会社,埼玉県,秩父郡長瀞町,大字長瀞５４６番地３－１０６,,11,363,3691305,,,,,,,2023-04-18,1,,,,,シンローカル,0
100,1030001153405,新規,0,2023-04-18,2023-04-18,株式会社Ｇ‐ｕｐ,,株式会社,埼玉県,川口市,大字赤井１１４９－３,,11,203,3340073,,,,,,,2023-04-18,1,,,,,ジーアップ,0
101,1030001153454,新規,0,2023-04-18,2023-04-18,株式会社吉田建創,,株式会社,埼玉県,所沢市,大字下富６５１番地の４０,,11,208,3590001,,,,,,,2023-04-18,1,,,,,ヨシダケンソウ,0
102,1030001153470,新規,0,2023-04-18,2023-04-18,武匠クリーフ株式会社,,株式会社,埼玉県,草加市,谷塚町１７２０番地１号,,11,221,3400023,,,,,,,2023-04-18,1,,,,,タケショウクリーフ,0
105,1030003021551,新規,0,2023-04-18,2023-04-18,合同会社スミ,,合同会社,埼玉県,東松山市,大字西本宿２２３６番地２,,11,212,3550062,,,,,,,2023-04-18,1,,,,,スミ,0
106,1030003021584,新規,0,2023-04-18,2023-04-18,合同会社神風Ｆａｃｉｌｉｔｙ,,合同会社,埼玉県,鴻巣市,関新田４４５番地１１,,11,217,3650004,,,,,,,2023-04-18,1,,,,,カミカゼファシリティ,0
107,1030003021592,新規,0,2023-04-18,2023-04-18,合同会社みさとプロモーション,,合同会社,埼玉県,三郷市,谷中１１８番地４,,11,237,3410032,,,,,,,2023-04-18,1,,,,,ミサトプロモーション,0
110,1040001127969,新規,0,2023-04-18,2023-04-18,株式会社Ｌｉｄｅｒａｒ,,株式会社,千葉県,千葉市花見川区,南花園２丁目５番１８号パディントンハウス３０５号室,,12,102,2620022,,,,,,,2023-04-18,1,,,,,リデラ,0
111,1040001127977,新規,0,2023-04-18,2023-04-18,株式会社Ｓｕｚｕｋｉ,,株式会社,千葉県,柏市,新富町２丁目１５番３号,,12,217,2770856,,,,,,,2023-04-18,1,,,,,スズキ,0
112,1040001127985,新規,0,2023-04-18,2023-04-18,株式会社リバティ,,株式会社,千葉県,船橋市,東船橋４丁目２１番１７号,,12,204,2730002,,,,,,,2023-04-18,1,,,,,リバティ,0
113,1040001128018,新規,0,2023-04-18,2023-04-18,Ｎ＆Ｊ　Ｃｏｍｐａｎｙ株式会社,,株式会社,千葉県,四街道市,四街道１４７４番地８－１０１号,,12,228,2840005,,,,,,,2023-04-18,1,,,,,エヌアンドジェイカンパニー,0
116,1040002049205,新規,0,2023-04-18,2023-04-18,有限会社八百勝,,有限会社,千葉県,松戸市,河原塚３９９番地,,12,207,2702254,,,,,,,2023-04-18,1,,,,,ヤオカツ,0
120,1040003022425,新規,0,2023-04-18,2023-04-18,合同会社Ｎｙｕ,,合同会社,千葉県,船橋市,本町６丁目１８－１９第３山中ビル４０１号室,,12,204,2730005,,,,,,,2023-04-18,1,,,,,ニュー,0
121,1050001052695,新規,0,2023-04-18,2023-04-18,株式会社大地食源,,株式会社,茨城県,古河市,久能９１４番地,,08,204,3060212,,,,,,,2023-04-18,1,,,,,ダイチショクゲン,0
122,1050003007417,新規,0,2023-04-18,2023-04-18,ＡＺＳＪＡＴＴ　ＴＲＡＤＩＮＧ合同会社,,合同会社,茨城県,古河市,小堤１８８１番地２１サルビアハイツ１０１,,08,204,3060231,,,,,,,2023-04-18,1,,,,,アズジャットトレーディング,0
123,1050003007425,新規,0,2023-04-18,2023-04-18,合同会社あおぞら会計,,合同会社,茨城県,土浦市,乙戸南２丁目２３番１４号,,08,203,3000845,,,,,,,2023-04-18,1,,,,,アオゾラカイケイ,0
125,1050005013256,新規,0,2023-04-18,2023-04-18,一般社団法人茨城アストロプラネッツスポーツ振興センター,,その他の設立登記法人,茨城県,笠間市,福田９０６－６,,08,216,3091603,,,,,,,2023-04-18,1,,,,,,0
130,1070001040335,新規,0,2023-04-18,2023-04-18,株式会社宮地重量,,株式会社,群馬県,太田市,東矢島町１６８番地４,,10,205,3730816,,,,,,,2023-04-18,1,,,,,ミヤチジュウリョウ,0
131,1070001040343,新規,0,2023-04-18,2023-04-18,株式会社ＯＷＬ,,株式会社,群馬県,伊勢崎市,東本町１１２番地６伊勢崎第１コートハウス５０２,,10,204,3720025,,,,,,,2023-04-18,1,,,,,オウル,0
137,1070003004908,新規,0,2023-04-18,2023-04-18,グローバルコネクト合同会社,,合同会社,群馬県,太田市,世良田町１２１５番地１,,10,205,3700426,,,,,,,2023-04-18,1,,,,,グローバルコネクト,0
171,1120001253856,新規,0,2023-04-18,2023-04-18,大成功株式会社,,株式会社,大阪府,大阪市中央区,船場中央２丁目１番４号船場センタービル４号館地下一階Ｂ１０８ＲＯＹＡＬＯＦＦＩＣＥ内,,27,128,5410055,,,,,,,2023-04-18,1,,,,,ダイセイコウ,0
172,1120001254029,新規,0,2023-04-18,2023-04-18,株式会社リーヴスフラット,,株式会社,大阪府,大阪市中央区,久太郎町１丁目９番１７号,,27,128,5410056,,,,,,,2023-04-18,1,,,,,リーヴスフラット,0
173,1120001254053,新規,0,2023-04-18,2023-04-18,ＪＳホールディングス株式会社,,株式会社,大阪府,大阪市中央区,南船場１丁目１２番３－１１０１号,,27,128,5420081,,,,,,,2023-04-18,1,,,,,ジェイエスホールディングス,0
174,1120001254086,新規,0,2023-04-18,2023-04-18,株式会社アフェクティオ,,株式会社,大阪府,守口市,八雲東町２丁目８２番１５－３０６号,,27,209,5700021,,,,,,,2023-04-18,1,,,,,アフェクティオ,0
175,1120001254094,新規,0,2023-04-18,2023-04-18,株式会社ストレンジループ,,株式会社,大阪府,大阪市中央区,本町橋５番１４号,,27,128,5400029,,,,,,,2023-04-18,1,,,,,ストレンジループ,0
176,1120001254136,新規,0,2023-04-18,2023-04-18,株式会社寛建設,,株式会社,大阪府,寝屋川市,高柳７丁目１２番６号,,27,215,5720051,,,,,,,2023-04-18,1,,,,,ヒロケンセツ,0
177,1120001254169,新規,0,2023-04-18,2023-04-18,佐吏偉ハウス株式会社,,株式会社,大阪府,大阪市中央区,本町２丁目３番４号アソルティ本町４階,,27,128,5410053,,,,,,,2023-04-18,1,,,,,サリイハウス,0
180,1120003023836,新規,0,2023-04-18,2023-04-18,ＪＲＭ　Ｗａｔｃｈｅｓ合同会社,,合同会社,大阪府,大阪市東住吉区,鷹合４丁目２３番１２号,,27,121,5460014,,,,,,,2023-04-18,1,,,,,ジェイアールエムウォッチズ,0
182,1120101067388,新規,0,2023-04-18,2023-04-18,株式会社恵星,,株式会社,大阪府,泉南郡熊取町,大久保南１丁目１６１３番地の１２（９０１）,,27,361,5900405,,,,,,,2023-04-18,1,,,,,ケイセイ,0
183,1120101067396,新規,0,2023-04-18,2023-04-18,株式会社アルズ,,株式会社,大阪府,藤井寺市,藤井寺３丁目４番４２号,,27,226,5830024,,,,,,,2023-04-18,1,,,,,アルズ,0
184,1120103005180,新規,0,2023-04-18,2023-04-18,合同会社ＳＡＮＫＹＵ,,合同会社,大阪府,堺市堺区,今池町６丁４番１４号,,27,141,5900018,,,,,,,2023-04-18,1,,,,,サンキュウ,0
192,1120901047424,新規,0,2023-04-18,2023-04-18,株式会社宮田,,株式会社,大阪府,高槻市,大字原１８８９番地の１,,27,207,5691051,,,,,,,2023-04-18,1,,,,,ミヤタ,0
194,1130001074087,新規,0,2023-04-18,2023-04-18,株式会社Ｍｏｂｉｌｅ‐Ｈｏｕｓｅ,,株式会社,京都府,京都市右京区,太秦唐渡町２２番地１１,,26,108,6168134,,,,,,,2023-04-18,1,,,,,モービルハウス,0
197,1130003008662,新規,0,2023-04-18,2023-04-18,合同会社ＬＳＶＩコンサルティング,,合同会社,京都府,京都市上京区,椹木町通油小路東入東魚屋町３５５番地１,,26,102,6028038,,,,,,,2023-04-18,1,,,,,エルエスブイアイコンサルティング,0
200,1140001129699,新規,0,2023-04-18,2023-04-18,株式会社テラス井上,,株式会社,兵庫県,尼崎市,長洲中通２丁目１３番１７号,,28,202,6600802,,,,,,,2023-04-18,1,,,,,テラスイノウエ,0
201,1140001129831,新規,0,2023-04-18,2023-04-18,大野工業株式会社,,株式会社,兵庫県,神戸市北区,北五葉４丁目３番１５－１０２号,,28,109,6511131,,,,,,,2023-04-18,1,,,,,オオノコウギョウ,0
202,1140001129856,新規,0,2023-04-18,2023-04-18,株式会社エイトリンク,,株式会社,兵庫県,尼崎市,昭和通４丁目１２８－４Ｆ,,28,202,6600881,,,,,,,2023-04-18,1,,,,,エイトリンク,0
203,1140001129864,新規,0,2023-04-18,2023-04-18,株式会社ＭＯＮＯ設計室,,株式会社,兵庫県,明石市,明南町２丁目６番２０号,,28,203,6730001,,,,,,,2023-04-18,1,,,,,モノセッケイシツ,0
204,1140001129872,新規,0,2023-04-18,2023-04-18,日本総合鑑定株式会社,,株式会社,兵庫県,西宮市,仁川百合野町７番３８号,,28,204,6620815,,,,,,,2023-04-18,1,,,,,ニホンソウゴウカンテイ,0
210,1160001024980,新規,0,2023-04-18,2023-04-18,ソトン株式会社,,株式会社,滋賀県,草津市,南山田町９６０番地９,,25,206,5250063,,,,,,,2023-04-18,1,,,,,ソトン,0
217,1180001155873,新規,0,2023-04-18,2023-04-18,株式会社エテルノ,,株式会社,愛知県,名古屋市名東区,勢子坊２丁目１０９番地,,23,115,4650055,,,,,,,2023-04-18,1,,,,,エテルノ,0
218,1180001155881,新規,0,2023-04-18,2023-04-18,ＮＫセキュリティ株式会社,,株式会社,愛知県,あま市,七宝町遠島上江越１５２４番地２,,23,237,4970002,,,,,,,2023-04-18,1,,,,,エヌケーセキュリティ,0
219,1180001155898,新規,0,2023-04-18,2023-04-18,株式会社ナカタフードサービス,,株式会社,愛知県,春日井市,松河戸町６丁目５番地１,,23,206,4860932,,,,,,,2023-04-18,1,,,,,ナカタフードサービス,0
220,1180001155923,新規,0,2023-04-18,2023-04-18,株式会社コンフィデンス,,株式会社,愛知県,名古屋市東区,葵１丁目２番２０号シティータワー葵２０１２,,23,102,4610004,,,,,,,2023-04-18,1,,,,,コンフィデンス,0
226,1190001030332,新規,0,2023-04-18,2023-04-18,ＬＯＡ　Ｅｘｃｅｌ株式会社,,株式会社,三重県,伊勢市,小俣町元町７３５番地,,24,203,5190503,,,,,,,2023-04-18,1,,,,,エルオーエーエクセル,0
227,1190003004292,新規,0,2023-04-18,2023-04-18,ＰＳＧ合同会社,,合同会社,三重県,四日市市,富田３丁目２３５番４,,24,202,5108014,,,,,,,2023-04-18,1,,,,,ピーエスジー,0
231,1200001041212,新規,0,2023-04-18,2023-04-18,一輪株式会社,,株式会社,岐阜県,羽島市,福寿町本郷５０５,,21,209,5016254,,,,,,,2023-04-18,1,,,,,イチリン,0
235,1200005013471,新規,0,2023-04-18,2023-04-18,一般社団法人プルヌス・ペルシカ,,その他の設立登記法人,岐阜県,岐阜市,加納本石町３丁目７番地テイクオフビル３,,21,201,5008466,,,,,,,2023-04-18,1,,,,,プルヌスペルシカ,0
237,1230005009293,新規,0,2023-04-18,2023-04-18,一般社団法人馬場島愛好会,,その他の設立登記法人,富山県,中新川郡上市町,伊折１,,16,322,9300437,,,,,,,2023-04-18,1,,,,,バンバジマアイコウカイ,0
240,1240001061363,新規,0,2023-04-18,2023-04-18,株式会社ＲＯ,,株式会社,広島県,広島市中区,袋町８番１４号１階,,34,101,7300036,,,,,,,2023-04-18,1,,,,,アールオー,0
249,1290001101214,新規,0,2023-04-18,2023-04-18,株式会社アートクラフト,,株式会社,福岡県,福岡市西区,大字太郎丸８８２番地,,40,135,8190384,,,,,,,2023-04-18,1,,,,,アートクラフト,0
250,1290001101230,新規,0,2023-04-18,2023-04-18,ＮＭＧ株式会社,,株式会社,福岡県,福岡市博多区,博多駅前１丁目１２番８号ＨＯＰＥビル４階,,40,132,8120011,,,,,,,2023-04-18,1,,,,,エヌエムジー,0
251,1290001101263,新規,0,2023-04-18,2023-04-18,株式会社江上組,,株式会社,福岡県,八女郡広川町,大字長延７４３番地１０,,40,544,8340105,,,,,,,2023-04-18,1,,,,,,0
252,1290003013795,新規,0,2023-04-18,2023-04-18,ＧＯＬＤ　ＷＩＮＧＳ合同会社,,合同会社,福岡県,福岡市中央区,平尾２丁目１２番８－３０６号,,40,133,8100014,,,,,,,2023-04-18,1,,,,,ゴールドウイングス,0
253,1290003013812,新規,0,2023-04-18,2023-04-18,合同会社ＳＫＹ,,合同会社,福岡県,福岡市中央区,天神２丁目２番１２号Ｔ＆Ｊビルディング７Ｆ,,40,133,8100001,,,,,,,2023-04-18,1,,,,,スカイ,0
268,1370001049858,新規,0,2023-04-18,2023-04-18,株式会社ＰＯＲＴＯＮＥ,,株式会社,宮城県,仙台市青葉区,立町１４番３号パリスビル６０４号室,,04,101,9800822,,,,,,,2023-04-18,1,,,,,ポートワン,0
273,1380005012704,新規,0,2023-04-18,2023-04-18,一般社団法人エン・ジェル,,その他の設立登記法人,福島県,郡山市,久留米４丁目１００番地の２,,07,203,9638846,,,,,,,2023-04-18,1,,,,,エンジェル,0
288,1430001088874,新規,0,2023-04-18,2023-04-18,ｉ‐Ｆａｃｅ株式会社,,株式会社,北海道,札幌市中央区,南一条西１０丁目４－１６７小六第一ビル８Ｆ,,01,101,0600061,,,,,,,2023-04-18,1,,,,,アイフェース,0
295,1430003014944,新規,0,2023-04-18,2023-04-18,合同会社ｔａｋ．,,合同会社,北海道,札幌市中央区,北五条西８丁目１－１－１５０１,,01,101,0600005,,,,,,,2023-04-18,1,,,,,タック,0
300,1480003001970,新規,0,2023-04-18,2023-04-18,合同会社徳豊,,合同会社,徳島県,美馬市,脇町大字猪尻字若宮南１３９番地１,,36,207,7793602,,,,,,,2023-04-18,1,,,,,トクトヨ,0
301,1480005006951,新規,0,2023-04-18,2023-04-18,一般社団法人ふらっと,,その他の設立登記法人,徳島県,海部郡海陽町,大里字飯持５８番地２,,36,388,7750203,,,,,,,2023-04-18,1,,,,,フラット,0
303,1700150115518,新規,0,2023-04-18,2023-04-18,Ｒ，Ｊ，ＭＯＴＯＲＳ,,外国会社等,神奈川県,厚木市,妻田東２丁目１６番１２号本厚木第７－１０１,,14,212,2430813,スリランカ民主社会主義共和国、サマンチュライ、アンパラロード、１１クロスストリート、Ａ、Ｎｏ．３６／２,,,,,,2023-04-18,1,,,,,アールジエイモータース,0
304,1700150115559,新規,0,2023-04-18,2023-04-18,ＳＡＭＵＲＡＩ　ＪＡＰＡＮＥＳＥ　ＬＡＮＧＵＡＧＥ　ＩＮＳＴＩＴＵＴＥ　ＰＶＴ　ＬＴＤ,,外国会社等,千葉県,千葉市若葉区,金親町９７４－６４,,12,104,2640001,スリランカ民主社会主義共和国クリヤピティヤ・ミーガハコトゥワ・マダンペ通り・４８２Ａ１／１,,,,,,2023-04-18,1,,,,,サムライジヤパニーズランゲツジインステイテユートリミテツド,0
305,1700150115567,新規,0,2023-04-18,2023-04-18,ｃｈｉｎａ　ｓｈａｎｇｈａｉｃｅｙｉ　ｔｒａｄｉｎｇ　ｃｏｍｐａｎｙ,,外国会社等,,,,,,,,Ｒｏｏｍ　１３３６，Ｂｕｉｌｄｉｎｇ　２，Ｎｏ．４６９　Ｆｅｎｇｊｉｎ　Ｒｏａｄ，Ｆｅｎｇｘｉａｎ　Ｄｉｓｔｒｉｃｔ，Ｓｈａｎｇｈａｉ,,,,,,2023-04-18,1,,,,,シャンハイツォーイーシャンマオヨウシエンゴンスー,0
306,1700150115575,新規,0,2023-04-18,2023-04-18,ＨＡＩＮＡＮＸＩＮＬＵＤＩＡＮＺＩＳＨＡＮＧＷＵＹＯＵＸＩＡＮＧＯＮＧＳＩ,,外国会社等,,,,,,,,Ｈａｉｄｉａｎ　Ｓｉｄｏｎｇ　Ｒｏａｄ，Ｍｅｉｌａｎ　Ｄｉｓｔｒｉｃｔ，Ｈａｉｋｏｕ　Ｃｉｔｙ，Ｈａｉｎａｎ　Ｐｒ　Ｒｏｏｍ　８Ａ－Ｄ２２，Ｚｉｄｏｎｇ　Ｃｏｕｒｔ，Ｈｕａｎｄａｏ　Ｍａｎｓｉｏｎ　Ｈａｉｋｏｕ　Ｃｉｔｙ　Ｈａｉｎａｎ　Ｐｒｏｖｉｎｃｅ　５７０１００　Ｃｈｉｎａ,,,,,,2023-04-18,1,,,,,ハイナンシンルウデイエンズシヤンウヨウシエンゴンスー,0
318,2010001234536,新規,0,2023-04-18,2023-04-18,株式会社かわかん,,株式会社,東京都,中央区,銀座１丁目１２－４－６Ｆ,,13,102,1040061,,,,,,,2023-04-18,1,,,,,カワカン,0
319,2010001234627,新規,0,2023-04-18,2023-04-18,株式会社Ｒａｉｎｅｔｔｅ,,株式会社,東京都,中央区,銀座１丁目２２番１１号銀座大竹ビジデンス２Ｆ,,13,102,1040061,,,,,,,2023-04-18,1,,,,,レネット,0
322,2010005036532,新規,0,2023-04-18,2023-04-18,ＲＢソーラーオーロラホールディングス一般社団法人,,その他の設立登記法人,東京都,中央区,八丁堀４丁目２番１０号ＡＯＪ税理士法人内,,13,102,1040032,,,,,,,2023-04-18,1,,,,,アールビーソーラーオーロラホールディングス,0
331,2010401173771,新規,0,2023-04-18,2023-04-18,株式会社Ｇｉｖｉｎｇ　Ｂａｃｋ,,株式会社,東京都,港区,六本木１丁目１１番６‐７１１号,,13,103,1060032,,,,,,,2023-04-18,1,,,,,ギビングバック,0
332,2010401173805,新規,0,2023-04-18,2023-04-18,株式会社Ｗｏｎｄｅｒ　Ｃａｍｅｌ　Ｒａｉｓｅ,,株式会社,東京都,港区,赤坂２丁目２１－５ＡＢＣ,,13,103,1070052,,,,,,,2023-04-18,1,,,,,ワンダーキャメルレイズ,0
333,2010401173813,新規,0,2023-04-18,2023-04-18,株式会社２１２,,株式会社,東京都,港区,麻布十番２丁目１２番１０号,,13,103,1060045,,,,,,,2023-04-18,1,,,,,ニーイチニ,0
334,2010401173854,新規,0,2023-04-18,2023-04-18,株式会社港会計事務所,,株式会社,東京都,港区,西新橋２丁目２番２号,,13,103,1050003,,,,,,,2023-04-18,1,,,,,ミナトカイケイジムショ,0
335,2010403029939,新規,0,2023-04-18,2023-04-18,Ｖｅｒｌａｔａ　Ｃｏｎｓｕｌｔｉｎｇ　Ｊａｐａｎ合同会社,,合同会社,東京都,港区,元麻布３丁目１番６号,,13,103,1060046,,,,,,,2023-04-18,1,,,,,ヴェルラータコンサルティングジャパン,0
336,2010403029947,新規,0,2023-04-18,2023-04-18,白馬咲花開発合同会社,,合同会社,東京都,港区,赤坂２丁目１７番７号赤坂溜池タワー９階,,13,103,1070052,,,,,,,2023-04-18,1,,,,,ハクバサッカカイハツ,0
337,2010405022000,新規,0,2023-04-18,2023-04-18,一般社団法人西崎流若葉会,00130145,その他の設立登記法人,東京都,港区,高輪２丁目１２番１５号,,13,103,1080074,,,,,,,2023-04-18,1,,,,,ニシザキリュウワカバカイ,0
338,2010405022066,新規,0,2023-04-18,2023-04-18,花菱一般社団法人,,その他の設立登記法人,東京都,港区,西新橋１丁目１番１号ＥＰコンサルティングサービス内,,13,103,1050003,,,,,,,2023-04-18,1,,,,,ハナビシ,0
340,2010503006961,新規,0,2023-04-18,2023-04-18,合同会社華麗,,合同会社,東京都,台東区,寿３丁目２０－７－１０１,,13,106,1110042,,,,,,,2023-04-18,1,,,,,カレイ,0
343,2010601062956,新規,0,2023-04-18,2023-04-18,株式会社アルトレオス,,株式会社,東京都,江東区,豊洲３丁目６番８－１７１６号,,13,108,1350061,,,,,,,2023-04-18,1,,,,,アルトレオス,0
346,2010701044103,新規,0,2023-04-18,2023-04-18,ＰＲＯＢＡＲＥ株式会社,,株式会社,東京都,品川区,旗の台２丁目４－２１－２Ｆ,,13,109,1420064,,,,,,,2023-04-18,1,,,,,プロバレ,0
347,2010801033856,新規,0,2023-04-18,2023-04-18,株式会社ＯＫｉＢｉ,,株式会社,東京都,大田区,西蒲田４丁目２－２,,13,111,1440051,,,,,,,2023-04-18,1,,,,,オキビ,0
348,2010903008112,新規,0,2023-04-18,2023-04-18,Ｑｕｌｕ合同会社,,合同会社,東京都,世田谷区,松原４丁目３４番２０号グラウ１０５,,13,112,1560043,,,,,,,2023-04-18,1,,,,,クル,0
357,2011001153825,新規,0,2023-04-18,2023-04-18,ＩＣＨＩＧＯ　ＵＮＩＶＥＲＳＥ株式会社,,株式会社,東京都,渋谷区,道玄坂１丁目１０番８号渋谷道玄坂東急ビル２Ｆ－Ｃ,,13,113,1500043,,,,,,,2023-04-18,1,,,,,イチゴユニバース,0
358,2011001153858,新規,0,2023-04-18,2023-04-18,株式会社ＦｉｒｓｔＬ,,株式会社,東京都,渋谷区,渋谷１丁目１９番１８号,,13,113,1500002,,,,,,,2023-04-18,1,,,,,ファーストエル,0
360,2011003016658,新規,0,2023-04-18,2023-04-18,合同会社ＳＵＮ,,合同会社,東京都,渋谷区,円山町５番５号Ｎａｖｉ渋谷Ｖ３階,,13,113,1500044,,,,,,,2023-04-18,1,,,,,サン,0
361,2011003016666,新規,0,2023-04-18,2023-04-18,合同会社テラライト,,合同会社,東京都,渋谷区,西原３丁目４８番６号クレール代々木上原２０２,,13,113,1510066,,,,,,,2023-04-18,1,,,,,テラライト,0
362,2011003016674,新規,0,2023-04-18,2023-04-18,合同会社Ｌａｌａｖａｎｔ,,合同会社,東京都,渋谷区,道玄坂１丁目１０番８号渋谷道玄坂東急ビル２Ｆ－Ｃ,,13,113,1500043,,,,,,,2023-04-18,1,,,,,ララバント,0
365,2011101102574,新規,0,2023-04-18,2023-04-18,株式会社ポーチ,,株式会社,東京都,新宿区,新宿３丁目４番８号４階,,13,104,1600022,,,,,,,2023-04-18,1,,,,,ポーチ,0
368,2011201024586,新規,0,2023-04-18,2023-04-18,株式会社ＪＰＲ,,株式会社,東京都,中野区,本町３丁目２０番１９－１０７号メゾン・ド・ルメード,,13,114,1640012,,,,,,,2023-04-18,1,,,,,ジェイピーアール,0
369,2011203004058,新規,0,2023-04-18,2023-04-18,ＭＦコンサルティング合同会社,,合同会社,東京都,中野区,江古田３丁目１４－１３－１３０４,,13,114,1650022,,,,,,,2023-04-18,1,,,,,エムエフコンサルティング,0
370,2011205002547,新規,0,2023-04-18,2023-04-18,一般財団法人身元保証等高齢者サポート機能評価機構,,その他の設立登記法人,東京都,中野区,中野２丁目２番３号株式会社へるす出版内,,13,114,1640001,,,,,,,2023-04-18,1,,,,,ミモトホショウトウコウレイシャサポートキノウヒョウカキコウ,0
372,2011301028636,新規,0,2023-04-18,2023-04-18,富士株式会社,,株式会社,東京都,杉並区,浜田山１丁目２１番８号ベルミー浜田山３０５,,13,115,1680065,,,,,,,2023-04-18,1,,,,,フジ,0
376,2011403003966,新規,0,2023-04-18,2023-04-18,合同会社Ｒ＆Ａ,,合同会社,東京都,板橋区,西台４丁目６番３号黒澤ビル１Ｆ,,13,119,1750045,,,,,,,2023-04-18,1,,,,,アールアンドエイ,0
383,2011701026132,新規,0,2023-04-18,2023-04-18,いえむすび株式会社,,株式会社,東京都,江戸川区,瑞江２丁目１－１４長塚第２ビル６０７,,13,123,1320011,,,,,,,2023-04-18,1,,,,,イエムスビ,0
384,2011701026149,新規,0,2023-04-18,2023-04-18,株式会社ｌｉｔ　ｌｉｔ,,株式会社,東京都,江戸川区,平井４丁目１３番１１－８０３号,,13,123,1320035,,,,,,,2023-04-18,1,,,,,リットリット,0
387,2011801042236,新規,0,2023-04-18,2023-04-18,株式会社Ａ．Ｓ．Ａ．Ｐ．,,株式会社,東京都,足立区,皿沼３丁目２６番９号,,13,121,1230862,,,,,,,2023-04-18,1,,,,,エイサップ,0
388,2011801042244,新規,0,2023-04-18,2023-04-18,株式会社ＪＵＮ,,株式会社,東京都,葛飾区,四つ木５丁目２３－１６,,13,122,1240011,,,,,,,2023-04-18,1,,,,,ジュン,0
400,2013301050603,新規,0,2023-04-18,2023-04-18,潔誠貿易株式会社,,株式会社,東京都,豊島区,上池袋３丁目４７－９－４Ｆ－２号室,,13,116,1700012,,,,,,,2023-04-18,1,,,,,ケツセイボウエキ,0
405,2020001151103,新規,0,2023-04-18,2023-04-18,株式会社鈴木商店,,株式会社,神奈川県,川崎市幸区,古市場１丁目６２番地２ベルズ鹿島田３０１,,14,132,2120052,,,,,,,2023-04-18,1,,,,,スズキショウテン,0
406,2020001151169,新規,0,2023-04-18,2023-04-18,株式会社ＦＲＯＭ　ＮＯＷ　ＯＮ,,株式会社,神奈川県,横浜市中区,吉田町７５番地１－７０１号,,14,104,2310041,,,,,,,2023-04-18,1,,,,,フロムナウオン,0
407,2020001151185,新規,0,2023-04-18,2023-04-18,Ｓｗｅｅｔ　Ｎｉｇｈｔ　Ｉｎｎｏｖａｔｉｏｎ　ＪＰ株式会社,,株式会社,神奈川県,横浜市南区,真金町２丁目２２番１２号,,14,105,2320021,,,,,,,2023-04-18,1,,,,,スウィートナイトイノベーションジェイピー,0
408,2020001151219,新規,0,2023-04-18,2023-04-18,白眉株式会社,,株式会社,神奈川県,横浜市旭区,若葉台４丁目２９番７０５号,,14,112,2410801,,,,,,,2023-04-18,1,,,,,ハクビ,0
411,2020003023721,新規,0,2023-04-18,2023-04-18,合同会社ＯＵＴ＆ＧＯ,,合同会社,神奈川県,横浜市都筑区,牛久保１丁目２０番１５号,,14,118,2240012,,,,,,,2023-04-18,1,,,,,アウトアンドゴー,0
412,2020003023754,新規,0,2023-04-18,2023-04-18,合同会社オフィスＴＫＮ,,合同会社,神奈川県,川崎市多摩区,堰２丁目１１番５２ー１１３号,,14,135,2140022,,,,,,,2023-04-18,1,,,,,オフィスティーケイエヌ,0
420,2021001078732,新規,0,2023-04-18,2023-04-18,株式会社ＥＥ‐ＥＮ,,株式会社,神奈川県,鎌倉市,材木座３丁目８番３２号,,14,204,2480013,,,,,,,2023-04-18,1,,,,,イーエン,0
423,2021003012986,新規,0,2023-04-18,2023-04-18,合同会社Ｏｎｅ　Ｈｕｎｄｒｅｄｔｈ,,合同会社,神奈川県,座間市,相模が丘３丁目５５番２４号,,14,216,2520001,,,,,,,2023-04-18,1,,,,,ワンハンドレッド,0
424,2021005012786,新規,0,2023-04-18,2023-04-18,ＮＰＯ法人くれば,,その他の設立登記法人,神奈川県,横須賀市,小矢部４丁目９番３－５号,,14,201,2380026,,,,,,,2023-04-18,1,,,,,クレバ,0
429,2030001153395,新規,0,2023-04-18,2023-04-18,株式会社リッコファブリカ,,株式会社,埼玉県,川越市,大字南田島８４３番地１小泉ホームビル１Ｆ,,11,201,3500027,,,,,,,2023-04-18,1,,,,,リッコファブリカ,0
430,2030001153412,新規,0,2023-04-18,2023-04-18,株式会社柔兵衛組,,株式会社,埼玉県,富士見市,大字下南畑３９２７－１,,11,235,3540004,,,,,,,2023-04-18,1,,,,,ジュウベエグミ,0
431,2030001153445,新規,0,2023-04-18,2023-04-18,株式会社深井工業,,株式会社,埼玉県,越谷市,花田４丁目７番地１１メゾンドール１０１,,11,222,3430015,,,,,,,2023-04-18,1,,,,,フカイコウギョウ,0
432,2030001153453,新規,0,2023-04-18,2023-04-18,株式会社イーストアイ,,株式会社,埼玉県,川口市,芝中田１丁目２１番９号,,11,203,3330847,,,,,,,2023-04-18,1,,,,,イーストアイ,0
433,2030001153461,新規,0,2023-04-18,2023-04-18,ＵｌｔｉｍａｔｅＭａｔｅｒｉａｌｓ株式会社,,株式会社,埼玉県,さいたま市緑区,原山２丁目１４番１０－１号,,11,109,3360931,,,,,,,2023-04-18,1,,,,,アルティメットマテリアルズ,0
437,2030003021583,新規,0,2023-04-18,2023-04-18,Ｔｗｉｎｓ合同会社,,合同会社,埼玉県,深谷市,見晴町１０番地２０,,11,218,3660819,,,,,,,2023-04-18,1,,,,,ツインズ,0
438,2030005021227,新規,0,2023-04-18,2023-04-18,一般社団法人埼玉予防医療研究所,,その他の設立登記法人,埼玉県,川越市,新宿町１丁目１７番地１,,11,201,3501124,,,,,,,2023-04-18,1,,,,,サイタマヨボウイリョウケンキュウショ,0
441,2040001127803,新規,0,2023-04-18,2023-04-18,株式会社ＫｏｕＳｈｉｎ,,株式会社,千葉県,袖ケ浦市,神納３０７５番地１,,12,229,2990257,,,,,,,2023-04-18,1,,,,,コウシン,0
442,2040001127992,新規,0,2023-04-18,2023-04-18,成和企業株式会社,,株式会社,千葉県,南房総市,久枝４９６番地５,,12,234,2992216,,,,,,,2023-04-18,1,,,,,セイワキギョウ,0
443,2040001128009,新規,0,2023-04-18,2023-04-18,株式会社山口工務店,,株式会社,千葉県,千葉市美浜区,高浜３丁目５番２３棟４０３号,,12,106,2610003,,,,,,,2023-04-18,1,,,,,ヤマグチコウムテン,0
446,2040003022424,新規,0,2023-04-18,2023-04-18,合同会社アベイユシステム,,合同会社,千葉県,市原市,姉崎９４６番地６出光姉崎寮,,12,219,2990111,,,,,,,2023-04-18,1,,,,,アベイユシステム,0
447,2050001052711,新規,0,2023-04-18,2023-04-18,サニーラボ株式会社,,株式会社,茨城県,日立市,東成沢町３丁目１４番５２－２０１号,,08,202,3160034,,,,,,,2023-04-18,1,,,,,サニーラボ,0
452,2060003004511,新規,0,2023-04-18,2023-04-18,合同会社スペイン料理ａｔｅ,,合同会社,栃木県,栃木市,皆川城内町１８６３番地１,,09,203,3280067,,,,,,,2023-04-18,1,,,,,スペインリョウリエート,0
478,2120001253979,新規,0,2023-04-18,2023-04-18,株式会社ライフペット,,株式会社,大阪府,大阪市福島区,吉野１丁目５－１７野田庄ビル２Ｆ,,27,103,5530006,,,,,,,2023-04-18,1,,,,,ライフペット,0
479,2120001253995,新規,0,2023-04-18,2023-04-18,株式会社サルヂエ,,株式会社,大阪府,大阪市北区,大淀南３丁目６番１６号,,27,127,5310075,,,,,,,2023-04-18,1,,,,,サルヂエ,0
480,2120001254028,新規,0,2023-04-18,2023-04-18,Ｐｈｏｅｂｅ株式会社,,株式会社,大阪府,大阪市中央区,島之内１丁目１４－２０プレサンス心斎橋ＥＡＳＴ７０１号,,27,128,5420082,,,,,,,2023-04-18,1,,,,,フォービ,0
481,2120001254110,新規,0,2023-04-18,2023-04-18,株式会社ｇｒｏｗ,,株式会社,大阪府,大阪市北区,堂山町１番２号,,27,127,5300027,,,,,,,2023-04-18,1,,,,,グロー,0
484,2120003023785,新規,0,2023-04-18,2023-04-18,合同会社フロンティア,,合同会社,大阪府,大阪市淀川区,田川２丁目１番１９号,,27,123,5320027,,,,,,,2023-04-18,1,,,,,フロンティア,0
485,2120003023827,新規,0,2023-04-18,2023-04-18,合同会社燕,,合同会社,大阪府,大阪市住吉区,苅田５丁目１５番１８－１０２号,,27,120,5580011,,,,,,,2023-04-18,1,,,,,ツバメ,0
491,2120101067387,新規,0,2023-04-18,2023-04-18,株式会社キオテック,,株式会社,大阪府,南河内郡太子町,大字山田６７番地の５,,27,381,5830992,,,,,,,2023-04-18,1,,,,,キオテック,0
493,2120901047423,新規,0,2023-04-18,2023-04-18,株式会社三成産業,,株式会社,大阪府,吹田市,山田東３丁目１８番１－１１１４号,,27,205,5650821,,,,,,,2023-04-18,1,,,,,ミツナリサンギョウ,0
494,2120901047431,新規,0,2023-04-18,2023-04-18,株式会社ＫＯＴＴ,,株式会社,大阪府,茨木市,三島丘２丁目１９－５－２,,27,211,5670021,,,,,,,2023-04-18,1,,,,,コット,0
497,2130001074103,新規,0,2023-04-18,2023-04-18,株式会社Ｄｏｉｔ,,株式会社,京都府,京都市伏見区,深草泓ノ壺町１番地１リバティハイツ３０１,,26,109,6128435,,,,,,,2023-04-18,1,,,,,ドゥイット,0
500,2130003008661,新規,0,2023-04-18,2023-04-18,合同会社グリーンフィールド,,合同会社,京都府,京都市上京区,上御霊中町４５５番地４,,26,102,6020894,,,,,,,2023-04-18,1,,,,,グリーンフィールド,0
504,2140001129871,新規,0,2023-04-18,2023-04-18,株式会社サニーグローブ,,株式会社,兵庫県,神戸市中央区,加納町４丁目９番２４号,,28,110,6500001,,,,,,,2023-04-18,1,,,,,サニーグローブ,0
510,2140003018973,新規,0,2023-04-18,2023-04-18,合同会社グランフォール,,合同会社,兵庫県,神戸市垂水区,舞多聞東２丁目２番１１号,,28,108,6550052,,,,,,,2023-04-18,1,,,,,グランフォール,0
513,2140005026578,新規,0,2023-04-18,2023-04-18,医療法人社団せき川クリニック,,その他の設立登記法人,兵庫県,神戸市東灘区,田中町１丁目６番１１号,,28,101,6580081,,,,,,,2023-04-18,1,,,,,セキカワクリニック,0
515,2170003001860,新規,0,2023-04-18,2023-04-18,合同会社こはく会計研究所,,合同会社,和歌山県,田辺市,高雄２丁目８番８号,,30,206,6460028,,,,,,,2023-04-18,1,,,,,コハクカイケイケンキュウジョ,0
520,2180001155864,新規,0,2023-04-18,2023-04-18,株式会社いむら空調,,株式会社,愛知県,春日井市,南下原町４丁目３番地１４,,23,206,4860841,,,,,,,2023-04-18,1,,,,,イムラクウチョウ,0
521,2180001155872,新規,0,2023-04-18,2023-04-18,ＫＰソリューションズ株式会社,,株式会社,愛知県,名古屋市中区,千代田３丁目１４番１９号千代田ツカサビル３階,,23,106,4600012,,,,,,,2023-04-18,1,,,,,ケーピーソリューションズ,0
522,2180001155889,新規,0,2023-04-18,2023-04-18,株式会社いちか,,株式会社,愛知県,一宮市,緑５丁目２－１８,,23,203,4910862,,,,,,,2023-04-18,1,,,,,イチカ,0
523,2180001155906,新規,0,2023-04-18,2023-04-18,株式会社ｄｃ　Ｒｅｇｎｏｈ,,株式会社,愛知県,名古屋市中区,錦３丁目１０番１６号大河内ビル２Ｂ,,23,106,4600003,,,,,,,2023-04-18,1,,,,,ディーシーレグノ,0
524,2180001155922,新規,0,2023-04-18,2023-04-18,株式会社ＮＥＸＴ　ＣＥＬＬＡＲ,,株式会社,愛知県,知多郡武豊町,大字東大高字土穴６６番地１,,23,447,4702521,,,,,,,2023-04-18,1,,,,,ネクストセラー,0
525,2180001155939,新規,0,2023-04-18,2023-04-18,ＤＯＭ株式会社,,株式会社,愛知県,名古屋市中区,栄３丁目９番２号ＧＥＭＳ栄６階,,23,106,4600008,,,,,,,2023-04-18,1,,,,,ディーオーエム,0
532,2180003025124,新規,0,2023-04-18,2023-04-18,合同会社Ｖｅｒｔ,,合同会社,愛知県,一宮市,開明字墓所北８番地２,,23,203,4940001,,,,,,,2023-04-18,1,,,,,ヴェール,0
534,2180303005684,新規,0,2023-04-18,2023-04-18,合同会社マルミコーポレーション,,合同会社,愛知県,岡崎市,中島町字上町下ノ切５－４,,23,202,4440226,,,,,,,2023-04-18,1,,,,,マルミコーポレーション,0
536,2190001030307,新規,0,2023-04-18,2023-04-18,株式会社ＬＯＯＤＩ　ＧＲＯＵＰ,,株式会社,三重県,亀山市,高塚町１０番９号３,,24,210,5190119,,,,,,,2023-04-18,1,,,,,ルディグループ,0
541,2200003005932,新規,0,2023-04-18,2023-04-18,合同会社マエダ,,合同会社,岐阜県,郡上市,八幡町小野７２５番地,,21,219,5014221,,,,,,,2023-04-18,1,,,,,マエダ,0
544,2240001061362,新規,0,2023-04-18,2023-04-18,株式会社ｓｕｎｏｍａ,,株式会社,広島県,東広島市,黒瀬町兼広４５６番地２,,34,212,7392616,,,,,,,2023-04-18,1,,,,,スノマ,0
545,2240001061387,新規,0,2023-04-18,2023-04-18,株式会社タケダ,,株式会社,広島県,広島市西区,南観音８丁目１３番３１号アルカーサル谷本４０２,,34,104,7330035,,,,,,,2023-04-18,1,,,,,タケダ,0
546,2240001061395,新規,0,2023-04-18,2023-04-18,株式会社ＣａｎＣｙ,,株式会社,広島県,広島市中区,鶴見町７番１８－６０２号,,34,101,7300045,,,,,,,2023-04-18,1,,,,,キャンシー,0
548,2250001020053,新規,0,2023-04-18,2023-04-18,株式会社Ｌ．Ｏ．Ｅ　Ｊａｐａｎ,,株式会社,山口県,防府市,多々良２丁目１３番２７号,,35,206,7470023,,,,,,,2023-04-18,1,,,,,エルオーイージャパン,0
558,2290001101246,新規,0,2023-04-18,2023-04-18,ＢＥ３ＩＮＮＯＶＡＴＩＯＮ株式会社,,株式会社,福岡県,福岡市博多区,東那珂２丁目１０－５５原まるまん第一ビル２０２号,,40,132,8120892,,,,,,,2023-04-18,1,,,,,ビースリーイノベーション,0
559,2290003013803,新規,0,2023-04-18,2023-04-18,ｒｉｃｈｅｓｓｅ　ｃｈａｔｏｙａｎｔｅ合同会社,,合同会社,福岡県,福岡市早良区,高取１丁目５番３６－５０２号コープ野村高取,,40,137,8140011,,,,,,,2023-04-18,1,,,,,リシェッセシャトヤンテ,0
566,2310001018371,新規,0,2023-04-18,2023-04-18,株式会社ライラック,,株式会社,長崎県,佐世保市,相浦町９０１番地３フドーザキュービック１０３号,,42,202,8580918,,,,,,,2023-04-18,1,,,,,ライラック,0
570,2330001030779,新規,0,2023-04-18,2023-04-18,株式会社ＫＣモバイル,,株式会社,熊本県,八代市,田中町３２８－１４,,43,202,8660872,,,,,,,2023-04-18,1,,,,,ケイシーモバイル,0
576,2360001031898,新規,0,2023-04-18,2023-04-18,株式会社ＹＵ‐ＡＮ,,株式会社,沖縄県,島尻郡与那原町,字与那原３０４５番地の１、３Ｆ,,47,348,9011303,,,,,,,2023-04-18,1,,,,,ユウエン,0
584,2380005012703,新規,0,2023-04-18,2023-04-18,一般社団法人アトリエキララ,,その他の設立登記法人,福島県,いわき市,平六町目５番地の６サンシティいわき駅前８０１,,07,204,9708051,,,,,,,2023-04-18,1,,,,,アトリエキララ,0
589,2420003002701,新規,0,2023-04-18,2023-04-18,合同会社Ａｍｉｔｙ,,合同会社,青森県,つがる市,木造出来島雉子森１０２番地,,02,209,0383288,,,,,,,2023-04-18,1,,,,,アミティー,0
594,2430001088881,新規,0,2023-04-18,2023-04-18,株式会社北海地所,,株式会社,北海道,札幌市中央区,南一条東３丁目１０番６号,,01,101,0600051,,,,,,,2023-04-18,1,,,,,ホッカイジショ,0
595,2430003014910,新規,0,2023-04-18,2023-04-18,うりゅう暑寒漬合同会社,,合同会社,北海道,雨竜郡雨竜町,字満寿５１２番地５０,,01,436,0782600,,,,,,,2023-04-18,1,,,,,ウリュウショカンヅケ,0
596,2430003014935,新規,0,2023-04-18,2023-04-18,Ｓｅｔｓｕ合同会社,,合同会社,北海道,札幌市中央区,南二条西１０丁目１０００－２４ＴＡＫＥＴＯビル２Ｆ,,01,101,0600062,,,,,,,2023-04-18,1,,,,,セツ,0
600,2450001013961,新規,0,2023-04-18,2023-04-18,ノイルテックス株式会社,,株式会社,北海道,旭川市,八条通１１丁目２１９１番地の３７９ＷＥＬＣＯＭＥ２　１０６号室,,01,204,0700038,,,,,,,2023-04-18,1,,,,,ノイルテックス,0
602,2470001019577,新規,0,2023-04-18,2023-04-18,株式会社ＴＯＲＩＫＡＩリアルティ,,株式会社,香川県,高松市,上福岡町２０３１番地６,,37,201,7600077,,,,,,,2023-04-18,1,,,,,トリカイリアルティ,0
604,2470003002399,新規,0,2023-04-18,2023-04-18,ＴＩマネージメント合同会社,,合同会社,香川県,高松市,木太町２７７５番地１クレスト木太Ｂ棟１０１,,37,201,7600080,,,,,,,2023-04-18,1,,,,,ティーアイマネージメント,0
616,2700150115509,新規,0,2023-04-18,2023-04-18,Ｃ．Ｓｉｍｕｍ　Ｃｏ．，Ｌｉｍｉｔｅｄ,,外国会社等,,,,,,,,３／Ｆ．，Ｃｏｓｃｏ　Ｔｏｗｅｒ，Ｇｒａｎｄ　Ｍｉｌｌｅｎｎｉｕｍ　Ｐｌａｚａ，１８３　Ｑｕｅｅｎ’ｓ　Ｒｏａｄ　Ｃｅｎｔｒａｌ，Ｈｏｎｇ　Ｋｏｎｇ,,,,,,2023-04-18,1,,,,,シーエスアイエムユーエムシーオーエルアイエムアイティーイーディー,0
617,2700150115517,新規,0,2023-04-18,2023-04-18,ＴＬＯ　ＴＲＡＤＥＲＳ　ＰＲＩＶＡＴＥ　ＬＩＭＩＴＥＤ,,外国会社等,茨城県,行方市,麻生１２９８番地１,,08,233,3113832,スリランカ民主社会主義共和国ゴール市アクミーマナ、トタゴダ３０１－Ａ,,,,,,2023-04-18,1,,,,,テイエルオートレイダースプライベートリミテツド,0
618,2700150115525,新規,0,2023-04-18,2023-04-18,ＳＡＶＩＳＩ　ＭＯＴＯＲＳ　ＰＲＩＶＡＴＥ　ＬＩＭＩＴＥＤ,,外国会社等,茨城県,つくば市,春日４丁目２４番地１ライクマンション春日１１３,,08,220,3050821,スリランカ民主社会主義共和国セントラル州キャンディ県キャンディ市カツガストタ２０４,,,,,,2023-04-18,1,,,,,サビシモータースプライベートリミテツド,0
619,2700150115566,新規,0,2023-04-18,2023-04-18,Ｈａｎｇｚｈｏｕ　Ｗｕｊｉａｎ　Ｆｕｒｎｉｔｕｒｅ　Ｃｏ．，Ｌｔｄ,,外国会社等,,,,,,,,Ｒｏｏｍ　２００１，Ｂｕｉｌｄｉｎｇ　１，Ｘｉｎｇｑｉ　Ｂｕｉｌｄｉｎｇ，Ｎｏ．１９１６，Ｊｉａｎｇｌｉｎｇ　Ｒｏａｄ，Ｘｉｘｉｎｇ　Ｓｔｒｅｅｔ，Ｂｉｎｊｉａｎｇ　Ｄｉｓｔｒｉｃｔ，Ｈａｎｇｚｈｏｕ，Ｚｈｅｊｉａｎｇ　Ｐｒｏｖｉｎｃｅ,,,,,,2023-04-18,1,,,,,ハンジョウウージエンジャージーヨウシエンゴンスー,0
625,3010001234568,新規,0,2023-04-18,2023-04-18,株式会社三笑,,株式会社,東京都,千代田区,一番町１６番地３パークハウス一番町１３０１号,,13,101,1020082,,,,,,,2023-04-18,1,,,,,ミショウ,0
626,3010001234584,新規,0,2023-04-18,2023-04-18,ＬＣＥ株式会社,,株式会社,東京都,中央区,京橋２丁目１２番２号ＮＥＷＳＸビル９Ｆ,,13,102,1040031,,,,,,,2023-04-18,1,,,,,エルシーイー,0
629,3010005036531,新規,0,2023-04-18,2023-04-18,ＲＢソーラーオーシャンホールディングス一般社団法人,,その他の設立登記法人,東京都,中央区,八丁堀４丁目２番１０号ＡＯＪ税理士法人内,,13,102,1040032,,,,,,,2023-04-18,1,,,,,アールビーソーラーオーシャンホールディングス,0
640,3010401173770,新規,0,2023-04-18,2023-04-18,内田企画株式会社,,株式会社,東京都,港区,海岸１丁目２番３号汐留芝離宮ビルディング２１階,,13,103,1050022,,,,,,,2023-04-18,1,,,,,ウチダキカク,0
641,3010401173812,新規,0,2023-04-18,2023-04-18,株式会社アイフォレスト,,株式会社,東京都,港区,南青山２丁目２番１５号,,13,103,1070062,,,,,,,2023-04-18,1,,,,,アイフォレスト,0
642,3010401173845,新規,0,2023-04-18,2023-04-18,株式会社Ｃｏｃｏｒｅｓ,,株式会社,東京都,港区,芝５丁目３２－１２シャーメゾンステージ田町３階,,13,103,1080014,,,,,,,2023-04-18,1,,,,,ココリス,0
645,3010403029888,新規,0,2023-04-18,2023-04-18,合同会社ＹＡＳ,,合同会社,東京都,港区,南青山５丁目１２番２４号８０１,,13,103,1070062,,,,,,,2023-04-18,1,,,,,ヤス,0
646,3010403029938,新規,0,2023-04-18,2023-04-18,合同会社うまくいく,,合同会社,東京都,港区,芝浦４丁目１９番１－２１０５号,,13,103,1080023,,,,,,,2023-04-18,1,,,,,ウマクイク,0
647,3010405022065,新規,0,2023-04-18,2023-04-18,南天一般社団法人,,その他の設立登記法人,東京都,港区,西新橋１丁目１番１号ＥＰコンサルティングサービス内,,13,103,1050003,,,,,,,2023-04-18,1,,,,,ナンテン,0
652,3010601062963,新規,0,2023-04-18,2023-04-18,株式会社Ｏｐｅｎｆｉｔ,,株式会社,東京都,江東区,東雲１丁目１０－１４,,13,108,1350062,,,,,,,2023-04-18,1,,,,,オープンフィット,0
654,3010701044110,新規,0,2023-04-18,2023-04-18,株式会社ＢＬＡＣＫ　ＡＲＲＯＷＳ,,株式会社,東京都,品川区,大崎３丁目１－１パークハウスオータワー１７０４,,13,109,1410032,,,,,,,2023-04-18,1,,,,,ブラックアローズ,0
655,3010701044127,新規,0,2023-04-18,2023-04-18,株式会社ＤＸプロ,,株式会社,東京都,品川区,南品川５丁目１６番７号Ｕ－ｍａｋｅ南品川２階,,13,109,1400004,,,,,,,2023-04-18,1,,,,,ディーエックスプロ,0
656,3010701044135,新規,0,2023-04-18,2023-04-18,株式会社ｓｙｎｃ,,株式会社,東京都,品川区,西五反田５丁目３０番９号,,13,109,1410031,,,,,,,2023-04-18,1,,,,,シンク,0
657,3010705003500,新規,0,2023-04-18,2023-04-18,スカイパレス中延管理組合法人,,その他の設立登記法人,東京都,品川区,二葉４丁目３番１２号,,13,109,1420043,,,,,,,2023-04-18,1,,,,,スカイパレスナカノブ,0
659,3010901052879,新規,0,2023-04-18,2023-04-18,株式会社Ｈ＆Ｔコーポレーション,,株式会社,東京都,世田谷区,砧４丁目２８番３号,,13,112,1570073,,,,,,,2023-04-18,1,,,,,エイチアンドティーコーポレーション,0
666,3011001153857,新規,0,2023-04-18,2023-04-18,株式会社Ｒｅａｃｈ,,株式会社,東京都,渋谷区,宇田川町３７番１６号レジディア渋谷６０４,,13,113,1500042,,,,,,,2023-04-18,1,,,,,リーチ,0
667,3011001153881,新規,0,2023-04-18,2023-04-18,株式会社プリュム,,株式会社,東京都,渋谷区,道玄坂１丁目１０番８号渋谷道玄坂東急ビル２Ｆ－Ｃ,,13,113,1500043,,,,,,,2023-04-18,1,,,,,プリュム,0
668,3011003016665,新規,0,2023-04-18,2023-04-18,ミックスナッツ合同会社,,合同会社,東京都,渋谷区,道玄坂１丁目１０番８号,,13,113,1500043,,,,,,,2023-04-18,1,,,,,ミックスナッツ,0
672,3011101102549,新規,0,2023-04-18,2023-04-18,ＦｉＬＬ’ｓホールディングス株式会社,,株式会社,東京都,新宿区,新小川町５番４号ＮＩＣビル３階,,13,104,1620814,,,,,,,2023-04-18,1,,,,,フィルズホールディングス,0
673,3011101102565,新規,0,2023-04-18,2023-04-18,未来人株式会社,,株式会社,東京都,新宿区,西新宿７丁目５番５－４０７号,,13,104,1600023,,,,,,,2023-04-18,1,,,,,ミライビト,0
674,3011101102573,新規,0,2023-04-18,2023-04-18,株式会社１ｎｅｓｓ,,株式会社,東京都,新宿区,新宿２丁目１１番１３号,,13,104,1600022,,,,,,,2023-04-18,1,,,,,ワンネス,0
679,3011303004725,新規,0,2023-04-18,2023-04-18,合同会社熊澤安子建築設計室,,合同会社,東京都,杉並区,宮前３丁目１７番１０号,,13,115,1680081,,,,,,,2023-04-18,1,,,,,クマザワヤスコケンチクセッケイシツ,0
680,3011401025053,新規,0,2023-04-18,2023-04-18,株式会社ＴＫ‐Ｎｅｘｔ,,株式会社,東京都,板橋区,板橋２丁目５３番１５号グラン・アルポルト３０１,,13,119,1730004,,,,,,,2023-04-18,1,,,,,ティーケーネクスト,0
684,3011501029177,新規,0,2023-04-18,2023-04-18,株式会社ＫＹＯＪＩ,,株式会社,東京都,北区,王子４丁目１７番３－７０４号ＨＣＳ王子パレス,,13,117,1140002,,,,,,,2023-04-18,1,,,,,キョウジ,0
686,3011503005564,新規,0,2023-04-18,2023-04-18,合同会社ナカヤマ,,合同会社,東京都,北区,浮間３丁目１０番１２－５０７号,,13,117,1150051,,,,,,,2023-04-18,1,,,,,ナカヤマ,0
691,3011701026156,新規,0,2023-04-18,2023-04-18,株式会社藤吉工業,00130150,株式会社,東京都,江戸川区,西葛西３丁目１８番７－４０４号,,13,123,1340088,,,,,,,2023-04-18,1,,,,,フジヨシコウギョウ,0
692,3011701026164,新規,0,2023-04-18,2023-04-18,株式会社潤發,,株式会社,東京都,江戸川区,船堀１丁目１番２６－２２４号,,13,123,1340091,,,,,,,2023-04-18,1,,,,,ジュンパツ,0
699,3011801042243,新規,0,2023-04-18,2023-04-18,株式会社ケンコロ,,株式会社,東京都,足立区,千住東２丁目６番８号１Ｆ,,13,121,1200025,,,,,,,2023-04-18,1,,,,,ケンコロ,0
701,3011803005611,新規,0,2023-04-18,2023-04-18,合同会社Ｃｕｏｒｅ,,合同会社,東京都,足立区,日ノ出町１７番１号,,13,121,1200021,,,,,,,2023-04-18,1,,,,,クオーレ,0
702,3012303001811,新規,0,2023-04-18,2023-04-18,合同会社石川建装,,合同会社,東京都,町田市,小川６丁目１３－４１ソルテカトレア２０３,,13,209,1940003,,,,,,,2023-04-18,1,,,,,イシカワケンソウ,0
705,3012401040422,新規,0,2023-04-18,2023-04-18,株式会社ＣｏｍｅＵｍｅ,,株式会社,東京都,三鷹市,下連雀３丁目３５番１号Ｎ・Ｅ・ＯＣＩＴＹＭＩＴＡＫＡ６Ｆ,,13,204,1810013,,,,,,,2023-04-18,1,,,,,コメウメ,0
706,3012401040439,新規,0,2023-04-18,2023-04-18,株式会社共栄建創,,株式会社,東京都,調布市,西つつじケ丘４丁目３３－１２アピアつつじケ丘１０５,,13,208,1820006,,,,,,,2023-04-18,1,,,,,キョウエイケンソウ,0
723,3020001151093,新規,0,2023-04-18,2023-04-18,株式会社セルテック,,株式会社,神奈川県,川崎市川崎区,駅前本町１８番１号メルスサイトー７０２,,14,131,2100007,,,,,,,2023-04-18,1,,,,,セルテック,0
724,3020001151143,新規,0,2023-04-18,2023-04-18,株式会社ｍａｒｕｎｏｗａホールディングス,,株式会社,神奈川県,横浜市港北区,新羽町８９６番地,,14,109,2230057,,,,,,,2023-04-18,1,,,,,マルノワホールディングス,0
725,3020001151151,新規,0,2023-04-18,2023-04-18,株式会社エコルデザイン,,株式会社,神奈川県,横浜市港北区,小机町１１３８番地１３,,14,109,2220036,,,,,,,2023-04-18,1,,,,,エコルデザイン,0
726,3020001151184,新規,0,2023-04-18,2023-04-18,株式会社Ｂｅｌｌ　ｔｒｅｅ,,株式会社,神奈川県,横浜市磯子区,磯子３丁目１２－１２,,14,107,2350016,,,,,,,2023-04-18,1,,,,,ベルトゥリー,0
727,3020001151192,新規,0,2023-04-18,2023-04-18,株式会社Ｒｅｎｏｖａｅｅ,,株式会社,神奈川県,横浜市西区,北幸２丁目１０番地２８むつみビル３Ｆ,,14,103,2200004,,,,,,,2023-04-18,1,,,,,レノウェー,0
728,3020001151218,新規,0,2023-04-18,2023-04-18,株式会社ｔｒａｖａｉｌ,,株式会社,神奈川県,川崎市高津区,久末１７７８番地１－４１５,,14,134,2130026,,,,,,,2023-04-18,1,,,,,トラバイユ,0
729,3020003023687,新規,0,2023-04-18,2023-04-18,合同会社ＬＯＨＡＤＡ建,,合同会社,神奈川県,横浜市保土ケ谷区,岩井町１０３－５スカイピア保土ヶ谷Ｃ棟１０１,,14,106,2400023,,,,,,,2023-04-18,1,,,,,ロハダケン,0
730,3020003023737,新規,0,2023-04-18,2023-04-18,合同会社サトシン,,合同会社,神奈川県,横浜市戸塚区,秋葉町２５３番地２４４,,14,110,2450052,,,,,,,2023-04-18,1,,,,,サトシン,0
731,3021001078731,新規,0,2023-04-18,2023-04-18,株式会社カサイ金属,,株式会社,神奈川県,大和市,深見台３丁目５番２５号アーバンイースト２０１号,,14,213,2420013,,,,,,,2023-04-18,1,,,,,カサイキンゾク,0
740,3030003021599,新規,0,2023-04-18,2023-04-18,Ｆｒｅｅ＆Ｃｌｅａｒ合同会社,,合同会社,埼玉県,さいたま市岩槻区,本町２丁目８番９－２号,,11,110,3390057,,,,,,,2023-04-18,1,,,,,フリーアンドクリア,0
747,3040001127975,新規,0,2023-04-18,2023-04-18,株式会社カーズネットワークス,,株式会社,千葉県,柏市,藤ケ谷５８８番地３,,12,217,2770931,,,,,,,2023-04-18,1,,,,,カーズネットワークス,0
748,3040001127983,新規,0,2023-04-18,2023-04-18,株式会社ネクストラクト,,株式会社,千葉県,市川市,菅野４丁目１２番３号,,12,203,2720824,,,,,,,2023-04-18,1,,,,,ネクストラクト,0
749,3040001127991,新規,0,2023-04-18,2023-04-18,株式会社ｅｎＥＳＴ,,株式会社,千葉県,柏市,末広町４番５号金子ビルＡ棟２ＦＢ号室,,12,217,2770842,,,,,,,2023-04-18,1,,,,,エネスト,0
750,3040001128008,新規,0,2023-04-18,2023-04-18,ミューズメディカルサービス株式会社,,株式会社,千葉県,流山市,西平井２丁目６番地の１,,12,220,2700156,,,,,,,2023-04-18,1,,,,,ミューズメディカルサービス,0
753,3040003022407,新規,0,2023-04-18,2023-04-18,ＴＹエンジニアリング合同会社,,合同会社,千葉県,船橋市,二子町４９２番地１５,,12,204,2730034,,,,,,,2023-04-18,1,,,,,テイワイエンジニアリング,0
755,3050001052702,新規,0,2023-04-18,2023-04-18,株式会社杉本商事,,株式会社,茨城県,坂東市,岩井３４４２番地３,,08,228,3060631,,,,,,,2023-04-18,1,,,,,スギモトショウジ,0
761,3060001035912,新規,0,2023-04-18,2023-04-18,ベツイリテイリング株式会社,,株式会社,栃木県,栃木市,大宮町１５７９番地１,,09,203,3280011,,,,,,,2023-04-18,1,,,,,ベツイリテイリング,0
764,3080001025580,新規,0,2023-04-18,2023-04-18,株式会社ヒラソルカンパニー,,株式会社,静岡県,静岡市清水区,蜂ヶ谷４１１,,22,103,4240003,,,,,,,2023-04-18,1,,,,,ヒラソルカンパニー,0
766,3080105006329,新規,0,2023-04-18,2023-04-18,医療法人社団さくら,,その他の設立登記法人,静岡県,沼津市,大手町３丁目２番１９号,,22,203,4100801,,,,,,,2023-04-18,1,,,,,サクラ,0
776,3110005016928,新規,0,2023-04-18,2023-04-18,医療法人社団佐々木歯科医院,,その他の設立登記法人,新潟県,新潟市東区,紫竹７丁目１２番１０号,,15,102,9500864,,,,,,,2023-04-18,1,,,,,ササキシカイイン,0
789,3120001254027,新規,0,2023-04-18,2023-04-18,千川株式会社,,株式会社,大阪府,大阪市東成区,神路４丁目３－１０スターレジデンス新深江４０３,,27,115,5370003,,,,,,,2023-04-18,1,,,,,センカワ,0
790,3120001254159,新規,0,2023-04-18,2023-04-18,株式会社肉のマルサ,,株式会社,大阪府,大阪市旭区,千林２丁目１０番２７号,,27,117,5350012,,,,,,,2023-04-18,1,,,,,ニクノマルサ,0
797,3120003023834,新規,0,2023-04-18,2023-04-18,合同会社ストラート,,合同会社,大阪府,大阪市北区,菅栄町１３番１９号アーカスシティ天六別館１Ｃ号室,,27,127,5300031,,,,,,,2023-04-18,1,,,,,ストラート,0
800,3120005023576,新規,0,2023-04-18,2023-04-18,ＮＰＯ法人ＣＡＴＳ　ＷＥＬＣＡＲＥ,,その他の設立登記法人,大阪府,大阪市西区,千代崎２丁目１２番８号,,27,106,5500023,,,,,,,2023-04-18,1,,,,,キャッツウェルケア,0
805,3120101067378,新規,0,2023-04-18,2023-04-18,株式会社アウル,,株式会社,大阪府,堺市北区,東浅香山町４丁１番地１５,,27,146,5918008,,,,,,,2023-04-18,1,,,,,アウル,0
806,3120101067386,新規,0,2023-04-18,2023-04-18,株式会社ぎんなん,,株式会社,大阪府,岸和田市,塔原町２２８番地,,27,202,5960116,,,,,,,2023-04-18,1,,,,,ギンナン,0
807,3120105009715,新規,0,2023-04-18,2023-04-18,一般社団法人医農ＷＥＬＬ,,その他の設立登記法人,大阪府,堺市堺区,香ヶ丘町５丁４番２３－５号,,27,141,5900011,,,,,,,2023-04-18,1,,,,,イノウェル,0
809,3120901047414,新規,0,2023-04-18,2023-04-18,株式会社ソートスタジオ,,株式会社,大阪府,豊中市,穂積１丁目１番１８－４０１号,,27,203,5610856,,,,,,,2023-04-18,1,,,,,ソートスタジオ,0
811,3120903004586,新規,0,2023-04-18,2023-04-18,合同会社英光幼学舎,,合同会社,大阪府,豊中市,桜の町７丁目１０番７号３階,,27,203,5600054,,,,,,,2023-04-18,1,,,,,エイコウヨウガクシャ,0
814,3130001074110,新規,0,2023-04-18,2023-04-18,Ｒａｂａｄ　Ｅｎｔｅｒ株式会社,,株式会社,京都府,京都市山科区,川田前畑町３０番地,,26,110,6078333,,,,,,,2023-04-18,1,,,,,ラバドエンター,0
815,3130003008660,新規,0,2023-04-18,2023-04-18,エッジアクセス合同会社,,合同会社,京都府,京都市伏見区,石田大受町２１番地１２,,26,109,6011431,,,,,,,2023-04-18,1,,,,,エッジアクセス,0
816,3130005016752,新規,0,2023-04-18,2023-04-18,一般社団法人ＬＥＯ‐Ｇ,,その他の設立登記法人,京都府,京都市左京区,高野西開町１８番地１－３０６号,,26,103,6068103,,,,,,,2023-04-18,1,,,,,レオジー,0
824,3140003018980,新規,0,2023-04-18,2023-04-18,合同会社ＢＵＲＵＤＡ,,合同会社,兵庫県,宝塚市,川面６丁目１－２７,,28,214,6650842,,,,,,,2023-04-18,1,,,,,ブルーダ,0
835,3180001155863,新規,0,2023-04-18,2023-04-18,チアキテクノ株式会社,,株式会社,愛知県,春日井市,割塚町７４番地,,23,206,4860824,,,,,,,2023-04-18,1,,,,,チアキテクノ,0
836,3180001155888,新規,0,2023-04-18,2023-04-18,株式会社ビルドリペアＨ３,,株式会社,愛知県,東海市,名和町平山５番地の９,,23,222,4760002,,,,,,,2023-04-18,1,,,,,ビルドリペアエイチスリー,0
837,3180001155913,新規,0,2023-04-18,2023-04-18,株式会社テンポリース,,株式会社,愛知県,名古屋市中区,栄２丁目９番３号,,23,106,4600008,,,,,,,2023-04-18,1,,,,,テンポリース,0
838,3180001155921,新規,0,2023-04-18,2023-04-18,株式会社林商事,,株式会社,愛知県,春日井市,鷹来町４９３２番地６,,23,206,4860804,,,,,,,2023-04-18,1,,,,,ハヤシショウジ,0
839,3180001155938,新規,0,2023-04-18,2023-04-18,株式会社ＳｕｎＴａｉｌ,,株式会社,愛知県,名古屋市緑区,八つ松１丁目２００６番地（プランドールＩＩＩ３０６号）,00130149,23,114,4580810,,,,,,,2023-04-18,1,,,,,サンテイル,0
843,3180003025123,新規,0,2023-04-18,2023-04-18,ＳＰＩＣＥ　ＵＰ合同会社,,合同会社,愛知県,名古屋市中区,上前津２丁目５番２５号,,23,106,4600013,,,,,,,2023-04-18,1,,,,,スパイスアップ,0
844,3180003025131,新規,0,2023-04-18,2023-04-18,合同会社ＷＡＤＯＮＡ,,合同会社,愛知県,津島市,宇治町字亀田１６５番地１,,23,208,4960008,,,,,,,2023-04-18,1,,,,,ワドナ,0
845,3180005020188,新規,0,2023-04-18,2023-04-18,一般社団法人ＴＯＷＡＩＬＯ,,その他の設立登記法人,愛知県,名古屋市中区,千代田２丁目８番７号モテット鶴舞公園,,23,106,4600012,,,,,,,2023-04-18,1,,,,,トワイロ,0
846,3180301037316,新規,0,2023-04-18,2023-04-18,株式会社ＩＲＯＨＡ　Ｇｒｅｅｎ,,株式会社,愛知県,豊橋市,吉前町字東吉前新田８６番地１６,,23,201,4418004,,,,,,,2023-04-18,1,,,,,イロハグリーン,0
847,3180301037324,新規,0,2023-04-18,2023-04-18,株式会社ファータイル,,株式会社,愛知県,安城市,高棚町井池１９２番地２,,23,212,4460053,,,,,,,2023-04-18,1,,,,,ファータイル,0
855,3240001061386,新規,0,2023-04-18,2023-04-18,株式会社ディスカバリー,,株式会社,広島県,広島市中区,東千田町１丁目１番１０４－３－３１０１号,,34,101,7300053,,,,,,,2023-04-18,1,,,,,ディスカバリー,0
856,3240005015561,新規,0,2023-04-18,2023-04-18,資産総研税理士法人,,その他の設立登記法人,広島県,広島市中区,上八丁堀４番２８号,,34,101,7300012,,,,,,,2023-04-18,1,,,,,シサンソウケン,0
857,3250001020052,新規,0,2023-04-18,2023-04-18,株式会社ヴァリアスキャピタル,,株式会社,山口県,岩国市,麻里布町２丁目７番９号岩国ＹＳビル２階,,35,208,7400018,,,,,,,2023-04-18,1,,,,,ヴァリアスキャピタル,0
866,3290001101195,新規,0,2023-04-18,2023-04-18,株式会社興達,,株式会社,福岡県,福岡市東区,箱崎２丁目１６番１６－１０１号ＫＫ・ＦＬＡＴ・ＨＯＵＳＥ,,40,131,8120053,,,,,,,2023-04-18,1,,,,,,0
867,3290001101229,新規,0,2023-04-18,2023-04-18,株式会社Ｒｅｂｌｏｏｄ,,株式会社,福岡県,福岡市中央区,薬院２丁目１３－２６－６０２,,40,133,8100022,,,,,,,2023-04-18,1,,,,,リブラッド,0
868,3290001101245,新規,0,2023-04-18,2023-04-18,株式会社アニュラス,,株式会社,福岡県,福岡市中央区,天神２丁目２番１２号Ｔ＆Ｊビルディング７Ｆ,,40,133,8100001,,,,,,,2023-04-18,1,,,,,アニュラス,0
869,3290001101253,新規,0,2023-04-18,2023-04-18,株式会社ＲＥＭＡＫＥ,,株式会社,福岡県,福岡市東区,和白東２丁目２８－２１－２０５,,40,131,8110214,,,,,,,2023-04-18,1,,,,,リメイク,0
872,3290803004397,新規,0,2023-04-18,2023-04-18,合同会社Ｔｗｏ　ｗａｙ　ｄｏｏｒ,,合同会社,福岡県,遠賀郡岡垣町,松ケ台４丁目１８‐９,,40,383,8114214,,,,,,,2023-04-18,1,,,,,トゥーウェイドア,0
873,3310003004550,新規,0,2023-04-18,2023-04-18,合同会社Ｐｒｏｄｕｃｅ．Ｎ．ｐｌｕｓ,,合同会社,長崎県,長崎市,琴海大平町１９０２番地１,,42,201,8513214,,,,,,,2023-04-18,1,,,,,プロデュースエヌプラス,0
886,3370001049848,新規,0,2023-04-18,2023-04-18,株式会社藤縁,,株式会社,宮城県,仙台市青葉区,本町１丁目５番２８号カーニープレイス仙台駅前通６０３号室,,04,101,9800014,,,,,,,2023-04-18,1,,,,,フジエン,0
890,3370005010624,新規,0,2023-04-18,2023-04-18,一般社団法人ＳＰＯＲＴＳ　ＳＯＣＩＡＬ　ＩＮＮＯＶＡＴＩＯＮ,,その他の設立登記法人,宮城県,仙台市若林区,荒井６丁目１２番２号ヤマカビル４０８,,04,103,9840032,,,,,,,2023-04-18,1,,,,,スポーツソーシャルイノベーション,0
908,3420001018228,新規,0,2023-04-18,2023-04-18,株式会社ヤブシタメタルワークス,,株式会社,青森県,青森市,第二問屋町３丁目３番２１号,,02,201,0300113,,,,,,,2023-04-18,1,,,,,ヤブシタメタルワークス,0
910,3420005007846,新規,0,2023-04-18,2023-04-18,一般社団法人ｇｌａｓｓｅｓ,,その他の設立登記法人,青森県,青森市,旭町１丁目１１番８号,,02,201,0300851,,,,,,,2023-04-18,1,,,,,,0
918,3430001088848,新規,0,2023-04-18,2023-04-18,株式会社ボアソルテ,,株式会社,北海道,札幌市中央区,南十条西１２丁目２番２３号,,01,101,0640810,,,,,,,2023-04-18,1,,,,,ボアソルテ,0
922,3430003014934,新規,0,2023-04-18,2023-04-18,合同会社Ｍ,,合同会社,北海道,札幌市北区,新琴似四条１丁目５番１２号,,01,102,0010904,,,,,,,2023-04-18,1,,,,,エム,0
924,3470001019576,新規,0,2023-04-18,2023-04-18,株式会社ビクトリア観光,,株式会社,香川県,小豆郡土庄町,大部甲３０４５番地１,,37,322,7614145,,,,,,,2023-04-18,1,,,,,ビクトリアカンコウ,0
926,3480003001969,新規,0,2023-04-18,2023-04-18,合同会社ＴＲＯＦＥＯ,,合同会社,徳島県,徳島市,中通町１丁目３３Ｐｒｏｕｄ－ｇ中通町８０２,,36,201,7700844,,,,,,,2023-04-18,1,,,,,トロフェオ,0
927,3490005006890,新規,0,2023-04-18,2023-04-18,特定非営利活動法人子どもシェルターおるき,,その他の設立登記法人,高知県,南国市,前浜２５２３番地,,39,204,7830094,,,,,,,2023-04-18,1,,,,,,0
928,3700150115516,新規,0,2023-04-18,2023-04-18,Ｓｈｅｎｚｈｅｎ　Ｈｕｉｇｅ　Ｔｅｃｈｎｏｌｏｇｙ　Ｃｏ．，Ｌｔｄ,,外国会社等,,,,,,,,ｇｕａｎｇｄｏｎｇｓｈｅｎｇ，ｓｈｅｎｚｈｅｎｓｈｉ，ｌｏｎｇｇａｎｇｑｕ，ｂａｎｔｉａｎｊｉｅｄａｏ，ｗｕｈｅｓｈｅｑｕ，ｈｅｋａｎ　ｃｕｎ，ｓａｎｘｉａｎｇ１４－１５ｈａｏ１５０１,,,,,,2023-04-18,1,,,,,シンセンシオウカクカギユウゲンコウシ,0
929,3700150115524,新規,0,2023-04-18,2023-04-18,ＴＨＥ　ＡＴＲＩＵＭ　ＰＲＩＶＡＴＥ　ＬＩＭＩＴＥＤ,,外国会社等,愛知県,名古屋市守山区,小幡１丁目７番１５号,,23,113,4630011,スリランカ民主社会主義共和国、ディックウェラ市、ドーダンパハラ区、ヒリケティヤ町、キリンダゲワッタ通り,,,,,,2023-04-18,1,,,,,ザアトリウムプライベートリミテツド,0
930,3700150115540,新規,0,2023-04-18,2023-04-18,ＳｈａｎｇＨａｉＪｉａＢｉｎＤｉａｎＺｉＳｈａｎｇＷｕＹｏｕＸｉａｎＧｏｎｇＳｉ,,外国会社等,,,,,,,,ＭｉｎｇＣｈｅｎｇＬｕ１０８８Ｎｏｎｇ７Ｈａｏ１－２Ｃｅｎｇ　ＦｅｎｇＸｉａｎＱｕ　ＳｈａｎｇＨａｉＳｈｉ　２０１４１９　ＣＮ,,,,,,2023-04-18,1,,,,,シヤンハイジアビデイアンジシヤンウヨウシヤンゴンシ,0
931,3700150115557,新規,0,2023-04-18,2023-04-18,フライカンウォン株式会社,,外国会社等,千葉県,成田市,古込字古込１番地１,,12,211,2860104,大韓民国江原道襄陽郡襄陽邑朝山里３８８,,,,,,2023-04-18,1,,,,,フライカンウオンカブシキガイシヤ,0
932,3700150115565,新規,0,2023-04-18,2023-04-18,Ｄｏｎｇｇｕａｎ　Ｈｕｉｚｅｔｏｎｇ　Ｓｕｐｐｌｙ　Ｃｈａｉｎ　Ｃｏ．，ＬＴＤ,,外国会社等,,,,,,,,Ｒｏｏｍ　６０３，Ｎｏ．６７６，Ｇｕａｎ　Ｔａｉ　Ｒｏａｄ，Ｈｏｕｊｉｅ　Ｔｏｗｎ，Ｄｏｎｇｇｕａｎ，Ｇｕａｎｇｄｏｎｇ，Ｃｈｉｎａ,,,,,,2023-04-18,1,,,,,ドングワンシーフイゾートンゴンインリエンヨウシエンゴンスー,0
941,4010001234559,新規,0,2023-04-18,2023-04-18,株式会社バコタ,,株式会社,東京都,千代田区,丸の内３丁目７番１５号,,13,101,1000005,,,,,,,2023-04-18,1,,,,,バコタ,0
943,4010003040113,新規,0,2023-04-18,2023-04-18,合同会社アドバンス,,合同会社,東京都,中央区,銀座１丁目１２番４号Ｎ＆ＥＢＬＤ６階,,13,102,1040061,,,,,,,2023-04-18,1,,,,,アドバンス,0
944,4010003040360,新規,0,2023-04-18,2023-04-18,合同会社ローズマリー,,合同会社,東京都,千代田区,平河町１丁目３番１３号平河町フロントビル７階株式会社シリウス・アドバイザリー内,,13,101,1020093,,,,,,,2023-04-18,1,,,,,ローズマリー,0
945,4010003040369,新規,0,2023-04-18,2023-04-18,合同会社ブランシャール軽井沢ＭＡＴＯＲＩＳＫＢ,,合同会社,東京都,千代田区,大手町１丁目７番２号東京サンケイビル１６Ｆ,,13,101,1000004,,,,,,,2023-04-18,1,,,,,ブランシャールカルイザワマトリエスケービー,0
947,4010101015603,新規,0,2023-04-18,2023-04-18,株式会社レジェンド・エンタープライズ,,株式会社,東京都,八王子市,元横山町２丁目６－２３－２０６,,13,201,1920063,,,,,,,2023-04-18,1,,,,,レジェンドエンタープライズ,0
962,4010401173786,新規,0,2023-04-18,2023-04-18,ＧＲＡＮＦＡＣＥ株式会社,,株式会社,東京都,港区,港南１丁目９番３６号,,13,103,1080075,,,,,,,2023-04-18,1,,,,,グランフェイス,0
963,4010401173803,新規,0,2023-04-18,2023-04-18,株式会社ＰＭＩ総合研究所,,株式会社,東京都,港区,元赤坂１丁目７番１８号,,13,103,1070051,,,,,,,2023-04-18,1,,,,,ピーエムアイソウゴウケンキュウジョ,0
964,4010401173852,新規,0,2023-04-18,2023-04-18,株式会社六本木管理八号,,株式会社,東京都,港区,六本木３丁目２番１号,,13,103,1060032,,,,,,,2023-04-18,1,,,,,ロッポンギカンリハチゴウ,0
967,4010405022064,新規,0,2023-04-18,2023-04-18,Ａｌｂｕｌａ一般社団法人,,その他の設立登記法人,東京都,港区,西新橋１丁目１番１号ＥＰコンサルティングサービス内,,13,103,1050003,,,,,,,2023-04-18,1,,,,,アルブラ,0
970,4010501050324,新規,0,2023-04-18,2023-04-18,株式会社Ｔｏｍｓｋｙ　Ｅｘｐｅｒｉｅｎｃｅ,,株式会社,東京都,台東区,元浅草３丁目１９番９号,,13,106,1110041,,,,,,,2023-04-18,1,,,,,トムスキーエクスペリエンス,0
978,4010701044126,新規,0,2023-04-18,2023-04-18,株式会社レディーゴー,,株式会社,東京都,品川区,大井１丁目３１番１号,,13,109,1400014,,,,,,,2023-04-18,1,,,,,レディーゴー,0
979,4010701044134,新規,0,2023-04-18,2023-04-18,株式会社サミ,,株式会社,東京都,品川区,東大井５丁目５番８号ムカドビル２・３階,,13,109,1400011,,,,,,,2023-04-18,1,,,,,サミ,0
981,4010703006660,新規,0,2023-04-18,2023-04-18,合同会社ＷＡＳＡＢＩ,,合同会社,東京都,品川区,荏原６丁目４番１１号Ｍ．ハピネス１０１,,13,109,1420063,,,,,,,2023-04-18,1,,,,,ワサビ,0
982,4010705003499,新規,0,2023-04-18,2023-04-18,特定非営利活動法人東海道品川宿なすびの花,,その他の設立登記法人,東京都,品川区,北品川１丁目２２番１８－３１０号,,13,109,1400001,,,,,,,2023-04-18,1,,,,,トウカイドウシナガワジュクナスビノハナ,0
984,4010801033862,新規,0,2023-04-18,2023-04-18,株式会社Ｗａｓ,,株式会社,東京都,大田区,西蒲田４丁目２８番９号,,13,111,1440051,,,,,,,2023-04-18,1,,,,,ワズ,0
997,4011003016664,新規,0,2023-04-18,2023-04-18,合同会社オンレシーブ,,合同会社,東京都,目黒区,目黒本町２丁目２３番６号,,13,110,1520002,,,,,,,2023-04-18,1,,,,,オンレシーブ,0
999,4011101102572,新規,0,2023-04-18,2023-04-18,株式会社Ｔ‐ＬＡＢ,,株式会社,東京都,新宿区,西新宿３丁目１番５号新宿嘉泉ビル８階,,13,104,1600023,,,,,,,2023-04-18,1,,,,,ティーラボ,0
1000,4011101102589,新規,0,2023-04-18,2023-04-18,株式会社Ｈｏｌｉｄａｙ　ｉｎ　Ｊａｐａｎ,,株式会社,東京都,新宿区,中落合１丁目１８番６－２０３号,,13,104,1610032,,,,,,,2023-04-18,1,,,,,ホリデーインジャパン,0
1002,4011103012943,新規,0,2023-04-18,2023-04-18,合同会社ＡＫクリエイティブ,,合同会社,東京都,新宿区,西新宿３丁目３－１３－２階,,13,104,1600023,,,,,,,2023-04-18,1,,,,,エーケークリエイティブ,0
1006,4011501029151,新規,0,2023-04-18,2023-04-18,株式会社ダイデン建設,,株式会社,東京都,北区,岩淵町３７番６号リブレ赤羽岩淵１０１号,,13,117,1150041,,,,,,,2023-04-18,1,,,,,ダイデンケンセツ,0
1007,4011501029176,新規,0,2023-04-18,2023-04-18,株式会社ＦＵＬＬ　ＳＥＮＤ,,株式会社,東京都,荒川区,東尾久４丁目１５番１１号１階,,13,118,1160012,,,,,,,2023-04-18,1,,,,,フルセンド,0
1008,4011503005563,新規,0,2023-04-18,2023-04-18,ｓｔｕｄｉｏ９６２１合同会社,,合同会社,東京都,北区,滝野川７丁目３５番６号滝野川プレイス７０１号,,13,117,1140023,,,,,,,2023-04-18,1,,,,,スタジオキュウロクニイチ,0
1010,4011601026750,新規,0,2023-04-18,2023-04-18,株式会社ＢＬＵＥ,,株式会社,東京都,練馬区,東大泉１丁目３２番３号栄ビル１階,,13,120,1780063,,,,,,,2023-04-18,1,,,,,ブルー,0
1011,4011603003896,新規,0,2023-04-18,2023-04-18,合同会社ｍｉｎｄ,,合同会社,東京都,練馬区,上石神井３丁目１４番７号,,13,120,1770044,,,,,,,2023-04-18,1,,,,,マインド,0
1015,4011701026163,新規,0,2023-04-18,2023-04-18,株式会社誠タイル工業,,株式会社,東京都,江戸川区,南篠崎町２丁目３８番３号,,13,123,1330065,,,,,,,2023-04-18,1,,,,,マコトタイルコウギョウ,0
1018,4011801042242,新規,0,2023-04-18,2023-04-18,株式会社マッチングライト,,株式会社,東京都,足立区,梅島３丁目３３番６号エンブレム西新井２Ｆ・３Ｆ,,13,121,1210816,,,,,,,2023-04-18,1,,,,,マッチングライト,0
1036,4020001151134,新規,0,2023-04-18,2023-04-18,Ｗｉｇｇｌｙ株式会社,,株式会社,神奈川県,川崎市川崎区,小川町１５番地１３,,14,131,2100023,,,,,,,2023-04-18,1,,,,,ウィグリー,0
1037,4020001151167,新規,0,2023-04-18,2023-04-18,株式会社ｔｒａｃｋｓ,,株式会社,神奈川県,川崎市中原区,下小田中６丁目２番３９号マロニエ武蔵中原２０１,,14,133,2110041,,,,,,,2023-04-18,1,,,,,トラックス,0
1038,4020001151183,新規,0,2023-04-18,2023-04-18,株式会社Ｔｒｕｓｔ　ｂｒｉｄｇｅ,,株式会社,神奈川県,横浜市中区,山下町２８番地２ライオンズプラザ山下公園９０４号室,,14,104,2310023,,,,,,,2023-04-18,1,,,,,トラストブリッジ,0
1039,4020001151200,新規,0,2023-04-18,2023-04-18,ＣＯＮＳＴ　ＥＸＰＲＥＳＳ株式会社,,株式会社,神奈川県,川崎市中原区,今井西町１番１６－６０１号バージュアル武蔵小杉,,14,133,2110066,,,,,,,2023-04-18,1,,,,,コンストエクスプレス,0
1040,4020001151209,新規,0,2023-04-18,2023-04-18,株式会社ｋｏｎｔａ　ｈｏｕｓｅ,,株式会社,神奈川県,川崎市宮前区,平２丁目３番３－２０１号,,14,136,2160022,,,,,,,2023-04-18,1,,,,,コンタハウス,0
1044,4020003023728,新規,0,2023-04-18,2023-04-18,合同会社サカイアセットマネジメント,,合同会社,神奈川県,横浜市青葉区,美しが丘２丁目２１番地９－２０２号,,14,117,2250002,,,,,,,2023-04-18,1,,,,,サカイアセットマネジメント,0
1045,4020003023744,新規,0,2023-04-18,2023-04-18,鎌田物産合同会社,,合同会社,神奈川県,横浜市西区,平沼１丁目４０番１７号モンテベルデ横浜７０９号室,,14,103,2200023,,,,,,,2023-04-18,1,,,,,カマダブッサン,0
1046,4020003023752,新規,0,2023-04-18,2023-04-18,ウキヨホテルプロジェクト合同会社,,合同会社,神奈川県,川崎市川崎区,小田４丁目９―９,,14,131,2100846,,,,,,,2023-04-18,1,,,,,ウキヨホテルプロジェクト,0
1051,4021001078648,新規,0,2023-04-18,2023-04-18,株式会社戸祭工務店,,株式会社,神奈川県,中郡二宮町,山西４０番地の１８,,14,342,2590124,,,,,,,2023-04-18,1,,,,,トマツリコウムテン,0
1052,4021001078739,新規,0,2023-04-18,2023-04-18,株式会社Ａｎｎ’ｓ,,株式会社,神奈川県,中郡大磯町,生沢３８３番地１・３棟３２５号,,14,341,2590102,,,,,,,2023-04-18,1,,,,,アンズ,0
1053,4021001078747,新規,0,2023-04-18,2023-04-18,株式会社ＩＮＴＩ,,株式会社,神奈川県,藤沢市,長後１１５４番地の１ポラリスＦ２－１０２,,14,205,2520801,,,,,,,2023-04-18,1,,,,,インティ,0
1058,4030001153360,新規,0,2023-04-18,2023-04-18,株式会社ナイコー,,株式会社,埼玉県,桶川市,大字川田谷４８５３番地の１,,11,231,3630027,,,,,,,2023-04-18,1,,,,,ナイコー,0
1059,4030001153410,新規,0,2023-04-18,2023-04-18,株式会社ＡＯ,,株式会社,埼玉県,坂戸市,大字紺屋２０５番地１,,11,239,3500204,,,,,,,2023-04-18,1,,,,,アオ,0
1062,4040001127982,新規,0,2023-04-18,2023-04-18,株式会社Ｇｏｏｄ　ｐｌａｃｅ,,株式会社,千葉県,柏市,増尾１００１番地,,12,217,2770033,,,,,,,2023-04-18,1,,,,,グッドプレイス,0
1063,4040001128015,新規,0,2023-04-18,2023-04-18,株式会社Ｅ‐ＮＡ,,株式会社,千葉県,松戸市,松戸１２４０－３エクセル松戸６０３,,12,207,2710092,,,,,,,2023-04-18,1,,,,,イーナ,0
1065,4040003022406,新規,0,2023-04-18,2023-04-18,合同会社ＰＡＲＴＡＧＥ,,合同会社,千葉県,市川市,鬼越１丁目６番１４号,,12,203,2720022,,,,,,,2023-04-18,1,,,,,パタージュ,0
1066,4040005021950,新規,0,2023-04-18,2023-04-18,医療法人社団ｆａｍｉｃａｒｅ,,その他の設立登記法人,千葉県,柏市,松葉町２丁目１番２１号,,12,217,2770827,,,,,,,2023-04-18,1,,,,,ファミケア,0
1071,4050003007422,新規,0,2023-04-18,2023-04-18,合同会社巧鳥,,合同会社,茨城県,猿島郡境町,大字若林２３９４番地１４,,08,546,3060417,,,,,,,2023-04-18,1,,,,,タクミチョウ,0
1072,4060001035903,新規,0,2023-04-18,2023-04-18,株式会社Ａｔｅｌｉｅｒ　ｅｆｆｅ,,株式会社,栃木県,芳賀郡益子町,大字益子２４４番地１,,09,342,3214217,,,,,,,2023-04-18,1,,,,,アトリエエフェ,0
1073,4060001035911,新規,0,2023-04-18,2023-04-18,株式会社優もあ,,株式会社,栃木県,栃木市,大平町新１０３４番地１ハイツ緑ヶ丘Ａ棟２０２,,09,203,3294425,,,,,,,2023-04-18,1,,,,,ユウモア,0
1074,4060003004518,新規,0,2023-04-18,2023-04-18,合同会社ＤＲＩＶＡＬ,,合同会社,栃木県,下都賀郡野木町,大字丸林４０４番地４５,,09,364,3290111,,,,,,,2023-04-18,1,,,,,ドライバル,0
1075,4070001040340,新規,0,2023-04-18,2023-04-18,株式会社総食,,株式会社,群馬県,高崎市,下大類町１２５８番地高崎市総合地方卸売市場内店舗Ｎｏ．４２１,00130152,10,202,3700034,,,,,,,2023-04-18,1,,,,,ソウショク,0
1079,4080105006328,新規,0,2023-04-18,2023-04-18,医療法人社団あかつき,,その他の設立登記法人,静岡県,田方郡函南町,間宮６４３番地１,,22,325,4190123,,,,,,,2023-04-18,1,,,,,アカツキ,0
1080,4080401026442,新規,0,2023-04-18,2023-04-18,株式会社ｍｋ,,株式会社,静岡県,浜松市中区,葵西２丁目２３番１５号１階,,22,131,4338111,,,,,,,2023-04-18,1,,,,,エムケイ,0
1085,4110005016927,新規,0,2023-04-18,2023-04-18,医療法人社団白雪会,,その他の設立登記法人,新潟県,新潟市中央区,天神尾１丁目１６番９号,,15,103,9500905,,,,,,,2023-04-18,1,,,,,シラユキカイ,0
1098,4120001254001,新規,0,2023-04-18,2023-04-18,クマダイ株式会社,,株式会社,大阪府,大阪市住吉区,南住吉２丁目２番２５号,,27,120,5580041,,,,,,,2023-04-18,1,,,,,クマダイ,0
1099,4120001254026,新規,0,2023-04-18,2023-04-18,旭輝株式会社,,株式会社,大阪府,大阪市天王寺区,悲田院町９－１７阪和ビル３０２号室,,27,109,5430055,,,,,,,2023-04-18,1,,,,,アサキ,0
1100,4120001254075,新規,0,2023-04-18,2023-04-18,株式会社ｎｏｎａ,,株式会社,大阪府,大阪市城東区,古市３丁目８番１１－３０６号,,27,118,5360001,,,,,,,2023-04-18,1,,,,,ノナ,0
1101,4120001254083,新規,0,2023-04-18,2023-04-18,ＷＯＲＫ株式会社,,株式会社,大阪府,大阪市生野区,舎利寺３丁目１４－２５,,27,116,5440022,,,,,,,2023-04-18,1,,,,,ワーク,0
1102,4120001254174,新規,0,2023-04-18,2023-04-18,株式会社Ｒａｙｍｏｎｄ,,株式会社,大阪府,大阪市中央区,淡路町１丁目６番９号８階,,27,128,5410047,,,,,,,2023-04-18,1,,,,,レイモンド,0
1103,4120002080826,新規,0,2023-04-18,2023-04-18,有限会社山川,,有限会社,大阪府,守口市,金下町２丁目１２番５－５０１号,,27,209,5700079,,,,,,,2023-04-18,1,,,,,ヤマカワ,0
1104,4120003023841,新規,0,2023-04-18,2023-04-18,Ｉｓｉｓ合同会社,,合同会社,大阪府,大阪市中央区,東心斎橋１丁目６－１５－４０２,,27,128,5420083,,,,,,,2023-04-18,1,,,,,アイシス,0
1106,4120101067385,新規,0,2023-04-18,2023-04-18,株式会社Ａｌｉｖｉｏ,,株式会社,大阪府,松原市,東新町２丁目６番２４号,,27,217,5800024,,,,,,,2023-04-18,1,,,,,アリビオ,0
1107,4120101067393,新規,0,2023-04-18,2023-04-18,株式会社星翔,,株式会社,大阪府,阪南市,尾崎町１丁目４４番８号サンセットビュー阪南１０４号,,27,232,5990201,,,,,,,2023-04-18,1,,,,,セイショウ,0
1109,4120901047438,新規,0,2023-04-18,2023-04-18,株式会社ＯＣＨ,,株式会社,大阪府,豊能郡能勢町,下田９３番１,,27,322,5630355,,,,,,,2023-04-18,1,,,,,オーシーエイチ,0
1110,4120903004593,新規,0,2023-04-18,2023-04-18,合同会社Ｙこねくと,,合同会社,大阪府,豊中市,玉井町２丁目１２番２２号,,27,203,5600026,,,,,,,2023-04-18,1,,,,,ワイコネクト,0
1113,4122001036899,新規,0,2023-04-18,2023-04-18,株式会社ＩＴ　ＳＯＬＵＴＩＯＮＳ,,株式会社,大阪府,東大阪市,東石切町２丁目５番４３号,,27,227,5798011,,,,,,,2023-04-18,1,,,,,アイティーソリューションズ,0
1115,4130001074076,新規,0,2023-04-18,2023-04-18,株式会社桜京,,株式会社,京都府,京都市東山区,白糸町５６９－９,,26,105,6050865,,,,,,,2023-04-18,1,,,,,オウケイ,0
1116,4130001074092,新規,0,2023-04-18,2023-04-18,奥中情報システム株式会社,,株式会社,京都府,木津川市,加茂町高田奥畑７番地,,26,214,6191144,,,,,,,2023-04-18,1,,,,,オクナカジョウホウシステム,0
1117,4130003008668,新規,0,2023-04-18,2023-04-18,合同会社笹川,,合同会社,京都府,京都市左京区,上高野上荒蒔町４番地９,,26,103,6060093,,,,,,,2023-04-18,1,,,,,ササガワ,0
1118,4130003008676,新規,0,2023-04-18,2023-04-18,合同会社ＴＡＮＹ,,合同会社,京都府,福知山市,駅前町３番地銀鈴ビル２階,,26,201,6200045,,,,,,,2023-04-18,1,,,,,タニー,0
1135,4180001155747,新規,0,2023-04-18,2023-04-18,株式会社爽風・尾張,,株式会社,愛知県,あま市,七宝町桂河原９９番地,,23,237,4970004,,,,,,,2023-04-18,1,,,,,ソウフウオワリ,0
1136,4180001155879,新規,0,2023-04-18,2023-04-18,株式会社エムテック,,株式会社,愛知県,春日井市,東山町５丁目１０番１７号,,23,206,4860811,,,,,,,2023-04-18,1,,,,,エムテック,0
1137,4180001155895,新規,0,2023-04-18,2023-04-18,株式会社ＷＩＳ,,株式会社,愛知県,名古屋市港区,秋葉３丁目３０番地の３,,23,111,4550857,,,,,,,2023-04-18,1,,,,,ダブルアイエス,0
1138,4180001155920,新規,0,2023-04-18,2023-04-18,株式会社ＭＵＧＩ　ＧＲＯＵＰ,,株式会社,愛知県,名古屋市瑞穂区,下山町１丁目９８,,23,108,4670049,,,,,,,2023-04-18,1,,,,,ムギグループ,0
1139,4180001155945,新規,0,2023-04-18,2023-04-18,株式会社Ｌｅｓ　Ａｒｔｉｓａｎｓ,,株式会社,愛知県,名古屋市中区,千代田２丁目１４番２４号キャノンピア鶴舞１Ｆ,,23,106,4600012,,,,,,,2023-04-18,1,,,,,レザルティザン,0
1149,4180003025122,新規,0,2023-04-18,2023-04-18,オフィスＦ合同会社,,合同会社,愛知県,名古屋市東区,芳野３丁目１番２０号,,23,102,4610027,,,,,,,2023-04-18,1,,,,,オフィスエフ,0
1150,4180003025130,新規,0,2023-04-18,2023-04-18,合同会社ハピネス企画,,合同会社,愛知県,愛西市,東保町大割２４,,23,232,4960912,,,,,,,2023-04-18,1,,,,,ハピネスキカク,0
1151,4180003025139,新規,0,2023-04-18,2023-04-18,ＣＯＦ合同会社,,合同会社,愛知県,春日井市,中央台７丁目２－１９,,23,206,4870011,,,,,,,2023-04-18,1,,,,,シーオーエフ,0
1152,4180301037323,新規,0,2023-04-18,2023-04-18,株式会社ＪＯＨＮ,,株式会社,愛知県,豊橋市,二川町字南裏１２５番地１（２－２０２）,,23,201,4413152,,,,,,,2023-04-18,1,,,,,ジョン,0
1154,4180303005682,新規,0,2023-04-18,2023-04-18,ＤＹＮＡＭＩＣ　ＩＭＰＥＸ合同会社,,合同会社,愛知県,豊田市,曙町５丁目７４番サンハイツＡＫＥＢＯＮＯ１０９号,,23,211,4710835,,,,,,,2023-04-18,1,,,,,ダイナミックインペックス,0
1166,4240001061360,新規,0,2023-04-18,2023-04-18,株式会社出雲工業,,株式会社,広島県,安芸郡府中町,桜ケ丘１４番１６号,,34,302,7350001,,,,,,,2023-04-18,1,,,,,イズモコウギョウ,0
1167,4240001061393,新規,0,2023-04-18,2023-04-18,株式会社ＣＹＳ,,株式会社,広島県,広島市安佐南区,大町東３丁目３１－２４－６植木ビル２０１,,34,105,7310124,,,,,,,2023-04-18,1,,,,,シーワイエス,0
1177,4290001101203,新規,0,2023-04-18,2023-04-18,株式会社ＶＯＬＴＳ,,株式会社,福岡県,八女市,室岡４９１番地７,,40,210,8340066,,,,,,,2023-04-18,1,,,,,ボルツ,0
1178,4290001101211,新規,0,2023-04-18,2023-04-18,株式会社エス・アール・ケイ,,株式会社,福岡県,福岡市南区,井尻５丁目２４番２０号,,40,134,8111302,,,,,,,2023-04-18,1,,,,,エスアールケイ,0
1179,4290001101228,新規,0,2023-04-18,2023-04-18,株式会社ＯＫ本舗,,株式会社,福岡県,糟屋郡宇美町,ゆりが丘５丁目１番３３号,,40,341,8112108,,,,,,,2023-04-18,1,,,,,オッケーホンポ,0
1182,4290003013792,新規,0,2023-04-18,2023-04-18,桜川ケアプランセンター合同会社,,合同会社,福岡県,福岡市早良区,大字内野８１２番地４,,40,137,8111123,,,,,,,2023-04-18,1,,,,,サクラガワケアプランセンター,0
1183,4290003013801,新規,0,2023-04-18,2023-04-18,合同会社楽,,合同会社,福岡県,糟屋郡志免町,王子１丁目２番６号アミューズメント志免１０１号,,40,343,8112209,,,,,,,2023-04-18,1,,,,,タノ,0
1185,4290801029478,新規,0,2023-04-18,2023-04-18,株式会社ＢＥＦＳ,,株式会社,福岡県,遠賀郡遠賀町,田園１丁目１０番１４号,,40,384,8114343,,,,,,,2023-04-18,1,,,,,ベフス,0
1186,4290803004396,新規,0,2023-04-18,2023-04-18,高倉住環境合同会社,,合同会社,福岡県,遠賀郡岡垣町,東高倉１丁目２番７号,,40,383,8114237,,,,,,,2023-04-18,1,,,,,タカクラジュウカンキョウ,0
1203,4390001017232,新規,0,2023-04-18,2023-04-18,グラッシーデザイン株式会社,,株式会社,山形県,新庄市,大町２－２０,,06,205,9960026,,,,,,,2023-04-18,1,,,,,グラッシーデザイン,0
1216,4430001088871,新規,0,2023-04-18,2023-04-18,株式会社ＫＯＧ,,株式会社,北海道,北広島市,大曲南ヶ丘２丁目９番１１号ハイツたかはし２０３,,01,234,0611275,,,,,,,2023-04-18,1,,,,,ケーオージー,0
1217,4430001088888,新規,0,2023-04-18,2023-04-18,ケイエス工業株式会社,,株式会社,北海道,石狩市,花川南三条１丁目７４番地,,01,235,0613203,,,,,,,2023-04-18,1,,,,,ケイエスコウギョウ,0
1221,4430003014933,新規,0,2023-04-18,2023-04-18,合同会社おてつだい家,,合同会社,北海道,札幌市豊平区,豊平三条９丁目３番７号エムズスクエア３０５号室,,01,105,0620903,,,,,,,2023-04-18,1,,,,,オテツダイヤ,0
1222,4430003014941,新規,0,2023-04-18,2023-04-18,和ぎ合同会社,,合同会社,北海道,三笠市,多賀町１２番地６,,01,222,0682152,,,,,,,2023-04-18,1,,,,,ナギ,0
1225,4450003002325,新規,0,2023-04-18,2023-04-18,合同会社マサテック,,合同会社,北海道,留萌市,東雲町２丁目８５番地の２４,,01,212,0770011,,,,,,,2023-04-18,1,,,,,マサテック,0
1226,4470001019567,新規,0,2023-04-18,2023-04-18,株式会社Ｄａｃｔｉｏｎ,,株式会社,香川県,高松市,郷東町９番地１３,,37,201,7618031,,,,,,,2023-04-18,1,,,,,ダクション,0
1227,4470001019575,新規,0,2023-04-18,2023-04-18,株式会社無添加デザイン工房,,株式会社,香川県,丸亀市,綾歌町富熊２８６２番地,,37,202,7612407,,,,,,,2023-04-18,1,,,,,ムテンカデザインコウボウ,0
1233,4700150115556,新規,0,2023-04-18,2023-04-18,ジャヤコディ・オート・プラザ・ファーム,,外国会社等,千葉県,佐倉市,上勝田６６３番地,,12,212,2850054,スリランカ民主社会主義共和国ガンパハ、マデルガムワ、３８－２,,,,,,2023-04-18,1,,,,,ジヤヤコデイオートプラザフアーム,0
1234,4700150115564,新規,0,2023-04-18,2023-04-18,Ｓｈｅｎ　Ｚｈｅｎ　Ｓｈｉ　Ｚｏｎｇ　Ｔｕｏ　Ｋｅ　Ｊｉ　Ｙｏｕ　Ｘｉａｎ　Ｇｏｎｇ　Ｓｉ,,外国会社等,,,,,,,,ｆｕｔｉａｎｑｕ　ｈｕａｑｉａｎｇｂｅｉｊｉｅｄａｏ　ｚｈｅｎｘｉｎｇｌｕ　ｊｉｎｍａｏｌｉｄｕｑｕｎｌｏｕ　２１１Ｂ　ｓｈｅｎｚｈｅｎ　ｇｕａｎｇｄｏｎｇ　５１８０００　ＣＮ,,,,,,2023-04-18,1,,,,,シェンジェンシーゾントゥオコージーヨウシエンゴンスー,0
1235,4700150115572,新規,0,2023-04-18,2023-04-18,Ｓｈｅｎ　ｚｈｅｎ　ｓｈｉ　ｌａｎｇ　ｙｕａｎ　ｋｅ　ｊｉ　ｙｏｕ　ｘｉａｎ　ｇｏｎｇ　ｓｉ,,外国会社等,,,,,,,,Ｓｈｅｎ　ｚｈｅｎ　ｓｈｉ　ｌｏｎｇ　ｇａｎｇ　ｑｕ　ｂａｎ　ｔｉａｎ　ｊｉｅ　ｄａｏ　ｗｕ　ｈｅ　ｓｈｅ　ｑｕ　ｇｕａｎｇ　ｙａ　ｙｕａｎ　ｊｉｕ　ｑｕ　１２　ｈａｏ　２２ｈａｏ１０４,,,,,,2023-04-18,1,,,,,シェンジェンシーランユエンコージーヨウシエンゴンスー,0
1243,5010001234582,新規,0,2023-04-18,2023-04-18,株式会社メゾンデリス,,株式会社,東京都,千代田区,三番町２４番地２５,,13,101,1020075,,,,,,,2023-04-18,1,,,,,メゾンデリス,0
1245,5010003040112,新規,0,2023-04-18,2023-04-18,合同会社アドバンス,,合同会社,東京都,中央区,銀座１丁目１２番４号Ｎ＆ＥＢＬＤ．７階,,13,102,1040061,,,,,,,2023-04-18,1,,,,,アドバンス,0
1246,5010003040343,新規,0,2023-04-18,2023-04-18,合同会社ＴＡＭＢＯ２,,合同会社,東京都,中央区,日本橋小伝馬町２０番３号Ｗ２ＫＯＤＥＮＭＡＣＨＯ５Ｆ,,13,102,1030001,,,,,,,2023-04-18,1,,,,,タンボニ,0
1256,5010401173793,新規,0,2023-04-18,2023-04-18,ｍｉｎｅｒａｌ株式会社,,株式会社,東京都,港区,西麻布３丁目２４番２２号プラザ西麻布３Ｆ,,13,103,1060031,,,,,,,2023-04-18,1,,,,,ミネラル,0
1257,5010401173802,新規,0,2023-04-18,2023-04-18,スケット株式会社,,株式会社,東京都,港区,西麻布４丁目５番１０号,,13,103,1060031,,,,,,,2023-04-18,1,,,,,スケット,0
1258,5010401173851,新規,0,2023-04-18,2023-04-18,株式会社六本木管理九号,,株式会社,東京都,港区,六本木３丁目２番１号,,13,103,1060032,,,,,,,2023-04-18,1,,,,,ロッポンギカンリキュウゴウ,0
1259,5010403029936,新規,0,2023-04-18,2023-04-18,ＴＫＲ．ＳＯＬＥ合同会社,,合同会社,東京都,港区,南青山３丁目１番３６号青山丸竹ビル６Ｆ,,13,103,1070062,,,,,,,2023-04-18,1,,,,,ティーケイアールドットソーレ,0
1262,5010405022006,新規,0,2023-04-18,2023-04-18,一般社団法人浜松町芝大門エリアマネジメント,,その他の設立登記法人,東京都,港区,浜松町２丁目４番１号,,13,103,1050013,,,,,,,2023-04-18,1,,,,,ハママツチョウシバダイモンエリアマネジメント,0
1265,5010501050307,新規,0,2023-04-18,2023-04-18,株式会社ティアイ・コネクト,,株式会社,東京都,台東区,浅草橋３丁目２２番９号,,13,106,1110053,,,,,,,2023-04-18,1,,,,,ティアイコネクト,0
1285,5011001153830,新規,0,2023-04-18,2023-04-18,株式会社ｍａｃａｒｏｎｉ,,株式会社,東京都,渋谷区,東３丁目１６番３号,,13,113,1500011,,,,,,,2023-04-18,1,,,,,マカロニ,0
1286,5011001153871,新規,0,2023-04-18,2023-04-18,株式会社東京リエイチ整体アカデミー,,株式会社,東京都,渋谷区,代々木１丁目２１番１０号インターパーク代々木９階,,13,113,1510053,,,,,,,2023-04-18,1,,,,,トウキョウリエイチセイタイアカデミー,0
1289,5011003016663,新規,0,2023-04-18,2023-04-18,合同会社にゅみらー,,合同会社,東京都,渋谷区,千駄ヶ谷５丁目３３番１－４０２号,,13,113,1510051,,,,,,,2023-04-18,1,,,,,ニュミラー,0
1295,5011101102563,新規,0,2023-04-18,2023-04-18,ジェームズ商事株式会社,,株式会社,東京都,新宿区,富久町８番１６号７０３号室日神パレステージ市ヶ谷富久町,,13,104,1620067,,,,,,,2023-04-18,1,,,,,ジェームズショウジ,0
1298,5011103012950,新規,0,2023-04-18,2023-04-18,合同会社ＴＥＮＳＥＩ,,合同会社,東京都,新宿区,西新宿３丁目３番１３号西新宿水間ビル６階,,13,104,1600023,,,,,,,2023-04-18,1,,,,,テンセイ,0
1306,5011301028633,新規,0,2023-04-18,2023-04-18,株式会社ツーシュガー,,株式会社,東京都,杉並区,天沼３丁目２８番９号山元ビル１階,,13,115,1670032,,,,,,,2023-04-18,1,,,,,ツーシュガー,0
1309,5011403003971,新規,0,2023-04-18,2023-04-18,繁盛合同会社,,合同会社,東京都,板橋区,成増２丁目２２－９ハヤブサビル１階,,13,119,1750094,,,,,,,2023-04-18,1,,,,,ハンジョウ,0
1313,5011701026154,新規,0,2023-04-18,2023-04-18,株式会社大にし,,株式会社,東京都,江戸川区,松江７丁目２１番１２号,,13,123,1320025,,,,,,,2023-04-18,1,,,,,オオニシ,0
1314,5011701026162,新規,0,2023-04-18,2023-04-18,エム・アイシステム株式会社,,株式会社,東京都,江戸川区,南小岩８丁目１９番１４号,,13,123,1330056,,,,,,,2023-04-18,1,,,,,エムアイシステム,0
1316,5012401040437,新規,0,2023-04-18,2023-04-18,株式会社Ｓｕｎｒｉｓｅ,,株式会社,東京都,武蔵野市,吉祥寺北町３丁目２番２４号コーポよしざわ２号１０１,,13,203,1800001,,,,,,,2023-04-18,1,,,,,サンライズ,0
1318,5012403005941,新規,0,2023-04-18,2023-04-18,合同会社ｆｉｂｅｒ,,合同会社,東京都,調布市,国領町１丁目１８番地９１,,13,208,1820022,,,,,,,2023-04-18,1,,,,,ファイバー,0
1321,5012801022282,新規,0,2023-04-18,2023-04-18,株式会社ジェーエクスディー,,株式会社,東京都,立川市,一番町６丁目２２番地の６,,13,202,1900033,,,,,,,2023-04-18,1,,,,,ジェーエクスディー,0
1322,5012801022290,新規,0,2023-04-18,2023-04-18,Ｄｏｕｂｌｅ　Ｕ株式会社,,株式会社,東京都,日野市,平山３丁目５番地の７ＭＡＣ平山城址公園Ｃｏｕｒｔ２０９,,13,212,1910043,,,,,,,2023-04-18,1,,,,,ダブルユー,0
1332,5020001151158,新規,0,2023-04-18,2023-04-18,ｗｈｙｍｅ株式会社,,株式会社,神奈川県,横浜市戸塚区,前田町１８０番地１６,,14,110,2440804,,,,,,,2023-04-18,1,,,,,ファイミー,0
1333,5020001151166,新規,0,2023-04-18,2023-04-18,株式会社勝Ｃｈａｎｋｏ,,株式会社,神奈川県,川崎市川崎区,東田町８パレール川崎イエロー館１３８区画,,14,131,2100005,,,,,,,2023-04-18,1,,,,,カチチャンコ,0
1334,5020001151199,新規,0,2023-04-18,2023-04-18,株式会社ｉｒｏｄｏｒｉ,,株式会社,神奈川県,横浜市鶴見区,北寺尾６丁目８番１７号,,14,101,2300074,,,,,,,2023-04-18,1,,,,,イロドリ,0
1339,5020003023719,新規,0,2023-04-18,2023-04-18,合同会社みらいデザイン,,合同会社,神奈川県,横浜市神奈川区,松ケ丘３５－２６－１００４,,14,102,2210843,,,,,,,2023-04-18,1,,,,,ミライデザイン,0
1340,5020003023768,新規,0,2023-04-18,2023-04-18,合同会社ＵＮＤＥＲ　ＴＨＥ　ＴＲＥＥ,,合同会社,神奈川県,川崎市多摩区,登戸１９１９エムアンドアールビル３階,,14,135,2140014,,,,,,,2023-04-18,1,,,,,アンダーザツリー,0
1343,5021001078738,新規,0,2023-04-18,2023-04-18,株式会社ｅｖｅｒｇｒｅｅｎ,,株式会社,神奈川県,横須賀市,桜が丘２丁目２０番２１－２１２３号,,14,201,2390803,,,,,,,2023-04-18,1,,,,,エバーグリーン,0
1350,5030001153327,新規,0,2023-04-18,2023-04-18,株式会社Ｆｒｅｉｈｅｉｔ,,株式会社,埼玉県,和光市,新倉１丁目３０－５８ＭｙＳｔｙｌｅ和光３０３,,11,229,3510115,,,,,,,2023-04-18,1,,,,,フライハイト,0
1351,5030001153401,新規,0,2023-04-18,2023-04-18,株式会社ＣＯＮＮＥＣＴ,,株式会社,埼玉県,さいたま市中央区,新中里３丁目１７番２号与野本町ローヤルコーポ２０６号,,11,105,3380011,,,,,,,2023-04-18,1,,,,,コネクト,0
1352,5030001153418,新規,0,2023-04-18,2023-04-18,株式会社Ｓｈｅｌｌｓｅｅ,,株式会社,埼玉県,上尾市,富士見２丁目２０番２８号サイトウビル１－１,,11,219,3620041,,,,,,,2023-04-18,1,,,,,シェルシー,0
1353,5030001153434,新規,0,2023-04-18,2023-04-18,株式会社エンワエステート,,株式会社,埼玉県,さいたま市北区,宮原町４丁目９３番地１,,11,102,3310812,,,,,,,2023-04-18,1,,,,,エンワエステート,0
1354,5030001153450,新規,0,2023-04-18,2023-04-18,株式会社島コーポレーション,,株式会社,埼玉県,さいたま市大宮区,三橋３丁目２４５番地島田ビル３０３,,11,103,3300856,,,,,,,2023-04-18,1,,,,,シマコーポレーション,0
1355,5030001153467,新規,0,2023-04-18,2023-04-18,ＮＤＫコンサルティング株式会社,,株式会社,埼玉県,春日部市,武里中野２３２番地１０,,11,214,3440026,,,,,,,2023-04-18,1,,,,,エヌディケーコンサルティング,0
1359,5030003021556,新規,0,2023-04-18,2023-04-18,合同会社ドルフィンコード,,合同会社,埼玉県,さいたま市南区,白幡６丁目４番１３号プレジールグランデ１０２,,11,108,3360022,,,,,,,2023-04-18,1,,,,,ドルフィンコード,0
1367,5040001128006,新規,0,2023-04-18,2023-04-18,株式会社ソリクス,,株式会社,千葉県,千葉市花見川区,畑町８７９番地６,,12,102,2620018,,,,,,,2023-04-18,1,,,,,ソリクス,0
1368,5040001128022,新規,0,2023-04-18,2023-04-18,株式会社市川八幡,,株式会社,千葉県,市川市,南八幡４丁目１２番１４－１０１号（キャニオンマンション本八幡）,,12,203,2720023,,,,,,,2023-04-18,1,,,,,イチカワヤワタ,0
1372,5040003022405,新規,0,2023-04-18,2023-04-18,合同会社ＤＩＳＣＯＶＥＲＹ,,合同会社,千葉県,市川市,鬼越２丁目３番２号,,12,203,2720022,,,,,,,2023-04-18,1,,,,,ディスカバリー,0
1373,5040003022421,新規,0,2023-04-18,2023-04-18,合同会社横田空調設備,,合同会社,千葉県,船橋市,滝台１丁目６－１－１１９,,12,204,2740074,,,,,,,2023-04-18,1,,,,,ヨコタクウチョウセツビ,0
1378,5050001052700,新規,0,2023-04-18,2023-04-18,井上工業株式会社,,株式会社,茨城県,那珂市,菅谷２４６８番地１７,,08,226,3110105,,,,,,,2023-04-18,1,,,,,イノウエコウギョウ,0
1379,5050001052709,新規,0,2023-04-18,2023-04-18,株式会社７０,,株式会社,茨城県,つくば市,島名１６６６番地４（香取台Ｂ４１街区１４）,,08,220,3002655,,,,,,,2023-04-18,1,,,,,ナナマル,0
1380,5050005013252,新規,0,2023-04-18,2023-04-18,一般社団法人霞ヶ浦ＦＣ,,その他の設立登記法人,茨城県,稲敷郡阿見町,大字大室１１３７,,08,443,3000303,,,,,,,2023-04-18,1,,,,,カスミガウラエフシー,0
1381,5060001035902,新規,0,2023-04-18,2023-04-18,株式会社匠屋,,株式会社,栃木県,下野市,小金井２丁目６番地１０,,09,216,3290414,,,,,,,2023-04-18,1,,,,,タクミヤ,0
1388,5070001040323,新規,0,2023-04-18,2023-04-18,ＲＯＴＴ株式会社,,株式会社,群馬県,藤岡市,中栗須２３７番地６山田ビル１Ｆ,,10,209,3750015,,,,,,,2023-04-18,1,,,,,ロット,0
1410,5120001254066,新規,0,2023-04-18,2023-04-18,株式会社サーチエグゼ,,株式会社,大阪府,大阪市北区,梅田２丁目４番９号,,27,127,5300001,,,,,,,2023-04-18,1,,,,,サーチエグゼ,0
1411,5120001254090,新規,0,2023-04-18,2023-04-18,株式会社ＡＲＫ,,株式会社,大阪府,大阪市西区,南堀江１丁目１１番２１号,,27,106,5500015,,,,,,,2023-04-18,1,,,,,アーク,0
1412,5120001254140,新規,0,2023-04-18,2023-04-18,株式会社蔦工業,00130158,株式会社,大阪府,大阪市平野区,加美北８丁目１１番１７号,,27,126,5470001,,,,,,,2023-04-18,1,,,,,ツタコウギョウ,0
1413,5120001254149,新規,0,2023-04-18,2023-04-18,株式会社ＲＩＳＯ,,株式会社,大阪府,大阪市平野区,瓜破１丁目１番３７号１階,,27,126,5470024,,,,,,,2023-04-18,1,,,,,リソー,0
1414,5120001254173,新規,0,2023-04-18,2023-04-18,株式会社ジルコン,,株式会社,大阪府,大阪市東淀川区,東淡路２丁目１８番１４号,,27,114,5330023,,,,,,,2023-04-18,1,,,,,ジルコン,0
1422,5120003023873,新規,0,2023-04-18,2023-04-18,合同会社Ｌｕｎａ,,合同会社,大阪府,大阪市北区,天神橋７丁目１‐１６‐２８０７,,27,127,5310041,,,,,,,2023-04-18,1,,,,,ルナ,0
1423,5120005023582,新規,0,2023-04-18,2023-04-18,一般社団法人ｄｅｍｏｅｘｐｏ,,その他の設立登記法人,大阪府,大阪市西区,京町堀１丁目１２－１１愛晃ビル４Ｆ,,27,106,5500003,,,,,,,2023-04-18,1,,,,,デモエキスポ,0
1425,5120101067392,新規,0,2023-04-18,2023-04-18,株式会社Ｓ．Ｒ．Ｓ工業,,株式会社,大阪府,高石市,西取石１丁目２２番３９号Ｃ号室,,27,225,5920012,,,,,,,2023-04-18,1,,,,,エスアールエスコウギョウ,0
1426,5120901047420,新規,0,2023-04-18,2023-04-18,株式会社Ｃｏｃｏ　Ｐｌｕｓ,,株式会社,大阪府,豊中市,本町３丁目７－６０－２,,27,203,5600021,,,,,,,2023-04-18,1,,,,,ココプラス,0
1430,5122005003671,新規,0,2023-04-18,2023-04-18,一般社団法人近畿クラブスフィーダ,,その他の設立登記法人,大阪府,東大阪市,下小阪４丁目１０番１６号,,27,227,5770803,,,,,,,2023-04-18,1,,,,,キンキクラブスフィーダ,0
1431,5130001074100,新規,0,2023-04-18,2023-04-18,株式会社ＴＲＩＰ,,株式会社,京都府,長岡京市,長法寺中畠１８番地３２,,26,209,6170812,,,,,,,2023-04-18,1,,,,,トリップ,0
1432,5130001074125,新規,0,2023-04-18,2023-04-18,株式会社ユメメプロジェクト,,株式会社,京都府,京都市南区,東九条宇賀辺町１９番地１,,26,107,6018021,,,,,,,2023-04-18,1,,,,,ユメメプロジェクト,0
1433,5130003008659,新規,0,2023-04-18,2023-04-18,合同会社小島テナント,,合同会社,京都府,京都市中京区,河原町通二条下る二丁目下丸屋町４０３番地,,26,104,6040000,,,,,,,2023-04-18,1,,,,,コジマテナント,0
1438,5140001129811,新規,0,2023-04-18,2023-04-18,株式会社千石トレーディング,,株式会社,兵庫県,加西市,別所町３９５番地,,28,220,6752462,,,,,,,2023-04-18,1,,,,,センゴクトレーディング,0
1439,5140001129828,新規,0,2023-04-18,2023-04-18,株式会社Ｃｏ＆ｂｅ,,株式会社,兵庫県,神戸市西区,岩岡町岩岡字中筋１６３７番２,,28,111,6512401,,,,,,,2023-04-18,1,,,,,シーオービー,0
1442,5140003018979,新規,0,2023-04-18,2023-04-18,合同会社ベストバディ,,合同会社,兵庫県,神戸市垂水区,塩屋北町２丁目１０番８号,,28,108,6550863,,,,,,,2023-04-18,1,,,,,ベストバディ,0
1445,5140005026583,新規,0,2023-04-18,2023-04-18,一般社団法人丹波篠山活性化協会,,その他の設立登記法人,兵庫県,丹波篠山市,大山新８０,,28,221,6692827,,,,,,,2023-04-18,1,,,,,タンバササヤマカッセイカキョウカイ,0
1461,5180001155861,新規,0,2023-04-18,2023-04-18,ＹＳプラス株式会社,,株式会社,愛知県,一宮市,木曽川町黒田十二ノ通り７８番地,,23,203,4930001,,,,,,,2023-04-18,1,,,,,ワイエスプラス,0
1462,5180001155894,新規,0,2023-04-18,2023-04-18,株式会社ＭＡＳＡＫＩ,,株式会社,愛知県,江南市,中奈良町熊野４８番地,,23,217,4838256,,,,,,,2023-04-18,1,,,,,マサキ,0
1463,5180001155903,新規,0,2023-04-18,2023-04-18,株式会社ナツネ,,株式会社,愛知県,名古屋市南区,豊１丁目３４番１６号,,23,112,4570863,,,,,,,2023-04-18,1,,,,,ナツネ,0
1467,5180003025138,新規,0,2023-04-18,2023-04-18,テックサービス合同会社,,合同会社,愛知県,一宮市,島崎１丁目１３番６号アルモニーシマザキ１０２号,,23,203,4910834,,,,,,,2023-04-18,1,,,,,テックサービス,0
1469,5180303005681,新規,0,2023-04-18,2023-04-18,合同会社ＡＬＴＥＲ　ＥＹＥＳ,,合同会社,愛知県,安城市,東栄町５丁目１４番１号,,23,212,4460007,,,,,,,2023-04-18,1,,,,,アルターアイズ,0
1471,5180305009466,新規,0,2023-04-18,2023-04-18,一般社団法人日本空調技術者協会,,その他の設立登記法人,愛知県,刈谷市,重原本町２丁目８番地,,23,210,4480023,,,,,,,2023-04-18,1,,,,,ニホンクウチョウギジュツシャキョウカイ,0
1476,5200001041191,新規,0,2023-04-18,2023-04-18,株式会社ｐｌａｎ　ｐｌａｎ,,株式会社,岐阜県,郡上市,高鷲町ひるがの４６７０番地２９０２,,21,219,5015301,,,,,,,2023-04-18,1,,,,,プランプラン,0
1477,5200001041209,新規,0,2023-04-18,2023-04-18,株式会社ＲＥＮＥＲＧＹ,,株式会社,岐阜県,岐阜市,領下７丁目６番地,,21,201,5008241,,,,,,,2023-04-18,1,,,,,リナジィ,0
1478,5200003002225,新規,0,2023-04-18,2023-04-18,合名会社太糸屋酒造場,,合名会社,岐阜県,美濃市,曾代１０３４番地の１の１,,21,207,5013701,,,,,,,2023-04-18,1,,,,,タイシヤシュゾウジョウ,0
1479,5200003005913,新規,0,2023-04-18,2023-04-18,合同会社ＲＩＢ,,合同会社,岐阜県,土岐市,泉町大富２１５番地の１０,,21,212,5095132,,,,,,,2023-04-18,1,,,,,リブ,0
1482,5210005010092,新規,0,2023-04-18,2023-04-18,一般社団法人ピースオブキッズ,,その他の設立登記法人,福井県,勝山市,本町３丁目１番３号,,18,206,9110806,,,,,,,2023-04-18,1,,,,,ピースオブキッズ,0
1486,5240001061368,新規,0,2023-04-18,2023-04-18,株式会社岡田,,株式会社,広島県,呉市,西中央４丁目２番１号,,34,202,7370811,,,,,,,2023-04-18,1,,,,,オカダ,0
1487,5240001061376,新規,0,2023-04-18,2023-04-18,株式会社サン・エクステリア,,株式会社,広島県,三原市,深町１８０９番地１３,,34,204,7230001,,,,,,,2023-04-18,1,,,,,サンエクステリア,0
1490,5250003003251,新規,0,2023-04-18,2023-04-18,合同会社明生華,,合同会社,山口県,岩国市,牛野谷町２丁目２２－１５,,35,208,7410071,,,,,,,2023-04-18,1,,,,,メイセイカ,0
1500,5290001101235,新規,0,2023-04-18,2023-04-18,株式会社ローズミュージックコンサルティング,,株式会社,福岡県,福岡市南区,井尻４丁目３番４５号西川ビル２０１,,40,134,8111302,,,,,,,2023-04-18,1,,,,,ローズミュージックコンサルティング,0
1501,5290001101243,新規,0,2023-04-18,2023-04-18,株式会社ＫＳ,,株式会社,福岡県,福岡市中央区,草香江２丁目１２番１６－７０２号,,40,133,8100045,,,,,,,2023-04-18,1,,,,,ケイエス,0
1502,5290003013775,新規,0,2023-04-18,2023-04-18,合同会社ハッシュタグ,,合同会社,福岡県,久留米市,京町３０４－５,,40,203,8300028,,,,,,,2023-04-18,1,,,,,ハッシュタグ,0
1503,5290003013809,新規,0,2023-04-18,2023-04-18,合同会社にこにこファーム,,合同会社,福岡県,福岡市城南区,片江５丁目１４番２３－１１０号,,40,136,8140142,,,,,,,2023-04-18,1,,,,,ニコニコファーム,0
1506,5300003001951,新規,0,2023-04-18,2023-04-18,合同会社ＪＳ企画,,合同会社,佐賀県,伊万里市,二里町八谷搦２３番地１,,41,205,8480031,,,,,,,2023-04-18,1,,,,,ジェイエスキカク,0
1510,5330005010650,新規,0,2023-04-18,2023-04-18,協同組合ミライエール,,その他の設立登記法人,熊本県,熊本市中央区,本荘町６７４番地１２,,43,101,8600816,,,,,,,2023-04-18,1,,,,,,0
1513,5340005009592,新規,0,2023-04-18,2023-04-18,一般社団法人日本ファミリー・チャイルドケア協会,,その他の設立登記法人,鹿児島県,鹿児島市,高麗町４０番３９号,,46,201,8900051,,,,,,,2023-04-18,1,,,,,ニホンファミリーチャイルドケアキョウカイ,0
1516,5360001031904,新規,0,2023-04-18,2023-04-18,株式会社ブロスエンジニアリング,,株式会社,沖縄県,那覇市,字国場１１８２番地１１,,47,201,9020075,,,,,,,2023-04-18,1,,,,,ブロスエンジニアリング,0
1520,5370001049838,新規,0,2023-04-18,2023-04-18,株式会社トラステートライフ,,株式会社,宮城県,仙台市泉区,七北田字東裏１４８番地の４,,04,105,9813131,,,,,,,2023-04-18,1,,,,,トラステートライフ,0
1521,5370001049862,新規,0,2023-04-18,2023-04-18,レゼル株式会社,,株式会社,宮城県,仙台市青葉区,水の森３丁目３０番７号,,04,101,9810962,,,,,,,2023-04-18,1,,,,,レゼル,0
1523,5370003006069,新規,0,2023-04-18,2023-04-18,合同会社ｒｉｎｏｒｙ,,合同会社,宮城県,仙台市若林区,一本杉町２５番５‐２０８号,,04,103,9840828,,,,,,,2023-04-18,1,,,,,リノリー,0
1524,5370003006077,新規,0,2023-04-18,2023-04-18,合同会社ビッキ,,合同会社,宮城県,仙台市青葉区,芋沢字林下１３番地,,04,101,9893212,,,,,,,2023-04-18,1,,,,,ビッキ,0
1527,5380003005441,新規,0,2023-04-18,2023-04-18,スマイル合同会社,,合同会社,福島県,本宮市,糠沢字小田部２７番地７号,,07,214,9691204,,,,,,,2023-04-18,1,,,,,スマイル,0
1531,5400005008324,新規,0,2023-04-18,2023-04-18,一般社団法人キラキラ越喜来,,その他の設立登記法人,岩手県,大船渡市,三陸町越喜来字肥の田２９番地３,,03,203,0220101,,,,,,,2023-04-18,1,,,,,キラキラオキライ,0
1534,5430001088805,新規,0,2023-04-18,2023-04-18,株式会社ＫＷホールディングス,,株式会社,北海道,札幌市白石区,流通センター１丁目９番３１号,,01,104,0030030,,,,,,,2023-04-18,1,,,,,ケイダブルホールディングス,0
1535,5430003014932,新規,0,2023-04-18,2023-04-18,ジャッジメント合同会社,,合同会社,北海道,札幌市手稲区,手稲前田６１３－４１,,01,109,0060829,,,,,,,2023-04-18,1,,,,,ジャッジメント,0
1538,5450001013959,新規,0,2023-04-18,2023-04-18,株式会社２１ＳＣＯＲＰＩＯＮ,,株式会社,北海道,上川郡美瑛町,栄町１丁目２番２５号,,01,459,0710205,,,,,,,2023-04-18,1,,,,,トゥーワンスコーピオン,0
1541,5470001019574,新規,0,2023-04-18,2023-04-18,株式会社ＫＦ,,株式会社,香川県,坂出市,元町４丁目３番２８号,,37,203,7620045,,,,,,,2023-04-18,1,,,,,ケーエフ,0
1543,5470005006503,新規,0,2023-04-18,2023-04-18,特定非営利活動法人香川進空会,,その他の設立登記法人,香川県,高松市,多賀町３丁目１２番地４,,37,201,7600063,,,,,,,2023-04-18,1,,,,,カガワシンクウカイ,0
1549,5700150115563,新規,0,2023-04-18,2023-04-18,ＰＨＩＬＬＩＰ　ＮＯＶＡ　ＰＴＥ．ＬＴＤ．,,外国会社等,,,,,,,,２５０　ＮＯＲＴＨ　ＢＲＩＤＧＥ　ＲＯＡＤ　＃０６－００　ＲＡＦＦＬＥＳ　ＣＩＴＹ　ＴＯＷＥＲ　ＳＩＮＧＡＰＯＲＥ（１７９１０１）,,,,,,2023-04-18,1,,,,,フィリップノバプライベートリミテッド,0
1550,5700150115571,新規,0,2023-04-18,2023-04-18,Ｓｈｅｎｚｈｅｎ　Ｙｏｕｓｉｍｉ　Ｉｎｄｕｓｔｒｉａｌ　Ｃｏ．，Ｌｔｄ,,外国会社等,,,,,,,,Ａｉｑｕｎ　Ｇａｒｄｅｎ　Ａｉｑｕｎ　Ｒｏａｄ　Ｒｏｏｍ　Ａ　Ｆｌｏｏｒ　１７　Ｂｕｉｌｄｉｎｇ　３　Ｓｈｉｙａｎ　Ｓｔｒｅｅｔ　Ｂａｏａｎ　Ｄｉｓｔｒｉｃｔ　Ｓｈｅｎｚｈｅｎ　５１８１０８　ＣＮ,,,,,,2023-04-18,1,,,,,シェンジェンヨウスーミーシーイエヨウシエンゴンスー,0
1559,6010001234342,新規,0,2023-04-18,2023-04-18,弘和株式会社,,株式会社,東京都,中央区,銀座６丁目１３番７号新保ビル６階６１２,,13,102,1040061,,,,,,,2023-04-18,1,,,,,コウワ,0
1560,6010001234573,新規,0,2023-04-18,2023-04-18,デアリップ株式会社,,株式会社,東京都,中央区,八丁堀４丁目８番１号,,13,102,1040032,,,,,,,2023-04-18,1,,,,,デアリップ,0
1561,6010001234581,新規,0,2023-04-18,2023-04-18,白鳳化学株式会社,,株式会社,東京都,中央区,日本橋２丁目２番３号ＲＩＳＨＥビルＵＣＦ４階,,13,102,1030027,,,,,,,2023-04-18,1,,,,,ハクホウカガク,0
1564,6010003040350,新規,0,2023-04-18,2023-04-18,ＨＫＲＪ　Ｒｅｓｏｒｔ合同会社,,合同会社,東京都,千代田区,平河町１丁目６番１５号シルスフィア会計事務所内,,13,101,1020093,,,,,,,2023-04-18,1,,,,,エイチケーアールジェイリゾート,0
1577,6010401173818,新規,0,2023-04-18,2023-04-18,株式会社虎麻,,株式会社,東京都,港区,六本木３丁目１６番１３号アンバサダー六本木５１０号,,13,103,1060032,,,,,,,2023-04-18,1,,,,,トラアサ,0
1578,6010401173850,新規,0,2023-04-18,2023-04-18,株式会社Ａｌｇｏｍａｔｉｃ,,株式会社,東京都,港区,六本木３丁目２番１号,,13,103,1060032,,,,,,,2023-04-18,1,,,,,アルゴマティック,0
1579,6010401173859,新規,0,2023-04-18,2023-04-18,株式会社エンドファイト,,株式会社,東京都,港区,虎ノ門１丁目１７番１号虎ノ門ビジネスタワー１５階,,13,103,1050001,,,,,,,2023-04-18,1,,,,,エンドファイト,0
1580,6010403029943,新規,0,2023-04-18,2023-04-18,合同会社Ｍ．Ｅ．Ｓ,,合同会社,東京都,港区,東麻布３丁目２番６号フェニックス麻布狸穴公園４０２,,13,103,1060044,,,,,,,2023-04-18,1,,,,,エムイーエス,0
1586,6010601062960,新規,0,2023-04-18,2023-04-18,ワクワクコラボレーションズ株式会社,,株式会社,東京都,墨田区,菊川３丁目１８番２－６０５号,,13,107,1300024,,,,,,,2023-04-18,1,,,,,ワクワクコラボレーションズ,0
1591,6010803004513,新規,0,2023-04-18,2023-04-18,合同会社ＫＡＫＵ,,合同会社,東京都,大田区,蒲田５丁目１９番１５号蒲田東口中央ビル４階,,13,111,1440052,,,,,,,2023-04-18,1,,,,,カク,0
1594,6010901052884,新規,0,2023-04-18,2023-04-18,株式会社ＷＩＴＨ　Ｂａｒｅ　Ｓｋｉｎ　Ｆｉｔ．,,株式会社,東京都,世田谷区,奥沢６丁目２２番１２号自由が丘コート１０１号,,13,112,1580083,,,,,,,2023-04-18,1,,,,,ウィズベアースキンフィット,0
1606,6011001153854,新規,0,2023-04-18,2023-04-18,株式会社Ｄ．Ｓｈａｒｐ,,株式会社,東京都,渋谷区,渋谷２丁目１９－１５宮益坂ビルディング６０９,,13,113,1500002,,,,,,,2023-04-18,1,,,,,ディーシャープ,0
1607,6011001153862,新規,0,2023-04-18,2023-04-18,株式会社Ｄａｉｒｉ,,株式会社,東京都,目黒区,碑文谷５丁目２番５号Ｔ＆Ａビル５階,,13,110,1520003,,,,,,,2023-04-18,1,,,,,ダイリ,0
1608,6011001153870,新規,0,2023-04-18,2023-04-18,ｇａｇａ　ｃｒｅａｔｉｖｅ株式会社,,株式会社,東京都,渋谷区,渋谷２丁目２４番１２号渋谷スクランブルスクエア２６階,,13,113,1500002,,,,,,,2023-04-18,1,,,,,ガガクリエティブ,0
1609,6011003016638,新規,0,2023-04-18,2023-04-18,Ｋｅｉｐｒｏ合同会社,,合同会社,東京都,渋谷区,宇田川町３６－２ノア渋谷５０１,,13,113,1500042,,,,,,,2023-04-18,1,,,,,ケイプロ,0
1610,6011003016646,新規,0,2023-04-18,2023-04-18,合同会社ＬａｎｄＳ,,合同会社,東京都,目黒区,大橋１丁目１－１１パラスト上目黒９０７,,13,110,1530044,,,,,,,2023-04-18,1,,,,,ランズ,0
1612,6011101102562,新規,0,2023-04-18,2023-04-18,エムカルチャー株式会社,,株式会社,東京都,新宿区,新宿２丁目１６番８号北斗ビル地下１階,,13,104,1600022,,,,,,,2023-04-18,1,,,,,エムカルチャー,0
1613,6011101102570,新規,0,2023-04-18,2023-04-18,萬大計画株式会社,,株式会社,東京都,新宿区,新宿２丁目１番８号,,13,104,1600022,,,,,,,2023-04-18,1,,,,,バンダイケイカク,0
1614,6011101102587,新規,0,2023-04-18,2023-04-18,株式会社ＷＡＬＬ,,株式会社,東京都,新宿区,荒木町５－７－１０４,,13,104,1600007,,,,,,,2023-04-18,1,,,,,ウォール,0
1617,6011201024582,新規,0,2023-04-18,2023-04-18,株式会社ＩＴＯＷＯＫＡＳＨＩ,,株式会社,東京都,中野区,中央３丁目１２番１７号グランヴィル中野７０１,,13,114,1640011,,,,,,,2023-04-18,1,,,,,イトヲカシ,0
1620,6011403003970,新規,0,2023-04-18,2023-04-18,ＴＳコンサルティング合同会社,,合同会社,東京都,板橋区,大山西町４６番６号,,13,119,1730033,,,,,,,2023-04-18,1,,,,,ティーエスコンサルティング,0
1621,6011501029182,新規,0,2023-04-18,2023-04-18,瑞橙日本株式会社,,株式会社,東京都,荒川区,南千住４丁目９番１－７０３号,,13,118,1160003,,,,,,,2023-04-18,1,,,,,ズイトウニホン,0
1622,6011501029190,新規,0,2023-04-18,2023-04-18,株式会社ヘルシーノート,,株式会社,東京都,北区,東十条４丁目９番６号,,13,117,1140001,,,,,,,2023-04-18,1,,,,,ヘルシーノート,0
1625,6011601026749,新規,0,2023-04-18,2023-04-18,株式会社Ｔｅａｍ　Ｔａｍａｗａｓｈｉ,,株式会社,東京都,練馬区,高松３丁目６番２号,,13,120,1790075,,,,,,,2023-04-18,1,,,,,チームタマワシ,0
1628,6011701026153,新規,0,2023-04-18,2023-04-18,株式会社オフィスチエコ,,株式会社,東京都,江戸川区,東葛西２丁目８番１０号,,13,123,1340084,,,,,,,2023-04-18,1,,,,,オフィスチエコ,0
1629,6011701026161,新規,0,2023-04-18,2023-04-18,株式会社ＫＯＳ,,株式会社,東京都,江戸川区,松江３丁目４番３号１Ｆ,,13,123,1320025,,,,,,,2023-04-18,1,,,,,ケイオーエス,0
1636,6011803005609,新規,0,2023-04-18,2023-04-18,まなすみ合同会社,,合同会社,東京都,足立区,千住桜木１丁目１５－１０－８０１,,13,121,1200045,,,,,,,2023-04-18,1,,,,,マナスミ,0
1637,6011803005617,新規,0,2023-04-18,2023-04-18,Ｐｉｌｉｎａ合同会社,,合同会社,東京都,葛飾区,高砂７丁目１４番９号,,13,122,1250054,,,,,,,2023-04-18,1,,,,,ピリナ,0
1643,6012401040378,新規,0,2023-04-18,2023-04-18,株式会社Ｌｉｎｋｓ　Ｃａｐｉｔａｌ,,株式会社,東京都,三鷹市,大沢６丁目３番５０号,,13,204,1810015,,,,,,,2023-04-18,1,,,,,リンクスキャピタル,0
1644,6012401040436,新規,0,2023-04-18,2023-04-18,六建工業株式会社,,株式会社,東京都,調布市,仙川町２丁目７番地２２－４１３,,13,208,1820002,,,,,,,2023-04-18,1,,,,,ロッケンコウギョウ,0
1646,6012403005940,新規,0,2023-04-18,2023-04-18,ＳＪＳ合同会社,,合同会社,東京都,調布市,多摩川３丁目１１番地５,,13,208,1820025,,,,,,,2023-04-18,1,,,,,エスジェーエス,0
1658,6020001151157,新規,0,2023-04-18,2023-04-18,株式会社たからや,,株式会社,神奈川県,横浜市金沢区,六浦東１丁目１５番１６号,,14,108,2360037,,,,,,,2023-04-18,1,,,,,タカラヤ,0
1659,6020001151215,新規,0,2023-04-18,2023-04-18,株式会社ワールドトレードプランニング,,株式会社,神奈川県,横浜市中区,尾上町３丁目３５番地,,14,104,2310015,,,,,,,2023-04-18,1,,,,,ワールドトレードプランニング,0
1663,6020003023651,新規,0,2023-04-18,2023-04-18,プラネットグループジャパン合同会社,,合同会社,神奈川県,横浜市西区,北幸２丁目１０番地２８むつみビル３Ｆ,,14,103,2200004,,,,,,,2023-04-18,1,,,,,プラネットグループジャパン,0
1664,6020003023742,新規,0,2023-04-18,2023-04-18,合同会社ＰＲＥＭＡ,,合同会社,神奈川県,横浜市中区,桜木町１丁目１０１番地１クロスゲート７階,,14,104,2310062,,,,,,,2023-04-18,1,,,,,プレマ,0
1666,6021001078737,新規,0,2023-04-18,2023-04-18,ファイブテック株式会社,,株式会社,神奈川県,平塚市,見附町６番３－１００２号,,14,203,2540045,,,,,,,2023-04-18,1,,,,,ファイブテック,0
1667,6021001078745,新規,0,2023-04-18,2023-04-18,株式会社旭巧芸,,株式会社,神奈川県,横須賀市,佐野町３丁目１７番地,,14,201,2380052,,,,,,,2023-04-18,1,,,,,アサヒコウゲイ,0
1668,6021001078753,新規,0,2023-04-18,2023-04-18,株式会社ＴＡＩＬＯＲ,,株式会社,神奈川県,厚木市,上依知１３０２番地２,,14,212,2430801,,,,,,,2023-04-18,1,,,,,テイラー,0
1670,6021003012990,新規,0,2023-04-18,2023-04-18,合同会社Ｔｒｙ‐ｆｉｔ,,合同会社,神奈川県,藤沢市,藤沢４丁目１６番２１号,,14,205,2510052,,,,,,,2023-04-18,1,,,,,トライフィット,0
1675,6030001153144,新規,0,2023-04-18,2023-04-18,株式会社Ｍａｔｃｈｉ,,株式会社,埼玉県,さいたま市大宮区,桜木町２丁目４－２０,,11,103,3300854,,,,,,,2023-04-18,1,,,,,マッチ,0
1676,6030001153318,新規,0,2023-04-18,2023-04-18,株式会社エリートバンク,,株式会社,埼玉県,熊谷市,広瀬１２２－１Ｆ,,11,202,3600833,,,,,,,2023-04-18,1,,,,,エリートバンク,0
1677,6030001153367,新規,0,2023-04-18,2023-04-18,株式会社懸崎,,株式会社,埼玉県,さいたま市南区,大字大谷口９９５番地３‐１０３号,,11,108,3360042,,,,,,,2023-04-18,1,,,,,カケザキ,0
1678,6030001153383,新規,0,2023-04-18,2023-04-18,株式会社ＫＥＮＳＯ,,株式会社,埼玉県,川口市,東領家２丁目２６番１号,,11,203,3320003,,,,,,,2023-04-18,1,,,,,ケンソー,0
1679,6030001153409,新規,0,2023-04-18,2023-04-18,株式会社ベリー,,株式会社,埼玉県,本庄市,東台２丁目３番１号ＫＲＳ本庄ビル１Ｆ,,11,211,3670021,,,,,,,2023-04-18,1,,,,,ベリー,0
1680,6030001153417,新規,0,2023-04-18,2023-04-18,株式会社シエンプレ,,株式会社,埼玉県,さいたま市西区,大字指扇領別所２７０番地１ミルボヌーＩＩ３０２号室,00130147,11,101,3310073,,,,,,,2023-04-18,1,,,,,シエンプレ,0
1681,6030001153433,新規,0,2023-04-18,2023-04-18,株式会社Ｓ‐ＧＲＯＷ,,株式会社,埼玉県,越谷市,東大沢４丁目３番地１２,,11,222,3430022,,,,,,,2023-04-18,1,,,,,エスグロウ,0
1682,6030001153466,新規,0,2023-04-18,2023-04-18,ＡＬＩ　ＴＲＡＤＩＮＧ株式会社,,株式会社,埼玉県,越谷市,宮本町２丁目１５８番地４,,11,222,3430806,,,,,,,2023-04-18,1,,,,,アリトレーディング,0
1687,6030003021588,新規,0,2023-04-18,2023-04-18,合同会社Ｓｈｉｎｉｎｇ　Ｓｕｎ,,合同会社,埼玉県,川口市,西川口１丁目１３－１２－２０３,,11,203,3320021,,,,,,,2023-04-18,1,,,,,シャイニングサン,0
1690,6030005021207,新規,0,2023-04-18,2023-04-18,医療法人隼真会,,その他の設立登記法人,埼玉県,蕨市,塚越１丁目６番１４号第一商事ビル２階,,11,223,3350002,,,,,,,2023-04-18,1,,,,,シュンシンカイ,0
1692,6040001127972,新規,0,2023-04-18,2023-04-18,株式会社ワイ・プラン,,株式会社,千葉県,松戸市,日暮２丁目５番地３ソレイユ八柱３０２号,,12,207,2702253,,,,,,,2023-04-18,1,,,,,ワイプラン,0
1693,6040001128005,新規,0,2023-04-18,2023-04-18,株式会社ＭＫ電工,,株式会社,千葉県,市原市,飯沼１０６番地１,,12,219,2900037,,,,,,,2023-04-18,1,,,,,エムケイデンコウ,0
1694,6040003022395,新規,0,2023-04-18,2023-04-18,合同会社詠進,,合同会社,千葉県,船橋市,栄町１丁目９番１－１３０６号,,12,204,2730018,,,,,,,2023-04-18,1,,,,,エイシン,0
1696,6050001052699,新規,0,2023-04-18,2023-04-18,株式会社一輝,,株式会社,茨城県,かすみがうら市,稲吉南２丁目１２番１３号,,08,230,3150055,,,,,,,2023-04-18,1,,,,,イッキ,0
1698,6050003007420,新規,0,2023-04-18,2023-04-18,ＷＩ　Ａｕｔｏ　Ｔｒａｄｉｎｇ合同会社,,合同会社,茨城県,結城市,大字結城１１３９７番地１アーバニティー２４－２０７号室,,08,207,3070001,,,,,,,2023-04-18,1,,,,,ダブリューアイオートトレーディング,0
1700,6060001035901,新規,0,2023-04-18,2023-04-18,株式会社すずき内装,,株式会社,栃木県,小山市,犬塚３丁目３６番地１４,,09,208,3230811,,,,,,,2023-04-18,1,,,,,スズキナイソウ,0
1701,6060001035918,新規,0,2023-04-18,2023-04-18,株式会社ＮＥＥＤ,,株式会社,栃木県,足利市,助戸東山町８９６番地,,09,202,3260042,,,,,,,2023-04-18,1,,,,,ニード,0
1702,6060005010082,新規,0,2023-04-18,2023-04-18,医療法人社団パトス,,その他の設立登記法人,栃木県,宇都宮市,中央１丁目５番７号,,09,201,3200806,,,,,,,2023-04-18,1,,,,,パトス,0
1705,6070001040322,新規,0,2023-04-18,2023-04-18,株式会社ＡＴＴＮＯＥＬ,,株式会社,群馬県,高崎市,貝沢町９５５－４はぴマーブル,,10,202,3700042,,,,,,,2023-04-18,1,,,,,,0
1725,6120001253827,新規,0,2023-04-18,2023-04-18,安興科技株式会社,,株式会社,大阪府,大阪市東淀川区,小松１丁目１４番１８号ハイツ上新第五小松４０７号,,27,114,5330004,,,,,,,2023-04-18,1,,,,,アンコウカギ,0
1726,6120001253901,新規,0,2023-04-18,2023-04-18,嘉誠株式会社,,株式会社,大阪府,大阪市浪速区,日本橋東１丁目２番１７号,,27,111,5560006,,,,,,,2023-04-18,1,,,,,カセイ,0
1727,6120001253975,新規,0,2023-04-18,2023-04-18,Ｊａｐａｎ’ｓ　Ｈｏｍｅ株式会社,,株式会社,大阪府,大阪市西区,立売堀１丁目６番１５号日宝四ツ橋中央ビル４Ｆ１・４号室,,27,106,5500012,,,,,,,2023-04-18,1,,,,,ジャパンズホーム,0
1728,6120001254057,新規,0,2023-04-18,2023-04-18,株式会社２７Ｃａｐｉｔａｌ,,株式会社,大阪府,大阪市中央区,内淡路町２丁目４番１０号２０１,,27,128,5400038,,,,,,,2023-04-18,1,,,,,トゥウェンティーセブンキャピタル,0
1729,6120001254081,新規,0,2023-04-18,2023-04-18,株式会社ＡＭＩエステート,,株式会社,大阪府,大阪市天王寺区,玉造本町４番１５号,,27,109,5430013,,,,,,,2023-04-18,1,,,,,エーエムアイエステート,0
1730,6120001254123,新規,0,2023-04-18,2023-04-18,株式会社グラン,,株式会社,大阪府,大阪市阿倍野区,旭町２丁目１－１－１４４,,27,119,5450051,,,,,,,2023-04-18,1,,,,,グラン,0
1731,6120001254131,新規,0,2023-04-18,2023-04-18,株式会社全島,,株式会社,大阪府,大阪市天王寺区,悲田院町９－１７阪和ビル４０１,,27,109,5430055,,,,,,,2023-04-18,1,,,,,ゼントウ,0
1732,6120001254148,新規,0,2023-04-18,2023-04-18,ＤＮＲオフィス株式会社,,株式会社,大阪府,寝屋川市,池田旭町９－２２,,27,215,5720035,,,,,,,2023-04-18,1,,,,,ディーエヌアールオフィス,0
1733,6120001254156,新規,0,2023-04-18,2023-04-18,株式会社Ｒａｔｅｒｕ,,株式会社,大阪府,大阪市平野区,加美北３丁目１１－３－１,,27,126,5470001,,,,,,,2023-04-18,1,,,,,ラーテル,0
1735,6120003023690,新規,0,2023-04-18,2023-04-18,合同会社あれそれ,,合同会社,大阪府,大阪市中央区,西心斎橋２丁目９－３５－６０７号,,27,128,5420086,,,,,,,2023-04-18,1,,,,,アレソレ,0
1736,6120003023823,新規,0,2023-04-18,2023-04-18,ＬＥＸＡ商事合同会社,,合同会社,大阪府,大阪市阿倍野区,天王寺町南１丁目１－９,,27,119,5450002,,,,,,,2023-04-18,1,,,,,エルイーエックスエイショウジ,0
1737,6120003023831,新規,0,2023-04-18,2023-04-18,ａｎｄ　ｋａｋｏ合同会社,,合同会社,大阪府,大阪市大正区,三軒家西１丁目１６番９号,,27,108,5510001,,,,,,,2023-04-18,1,,,,,アンドカコ,0
1738,6120003023856,新規,0,2023-04-18,2023-04-18,合同会社ウィメンズセンター大阪,,合同会社,大阪府,大阪市阿倍野区,旭町２丁目１番１号１２３号室,,27,119,5450051,,,,,,,2023-04-18,1,,,,,ウィメンズセンターオオサカ,0
1742,6120101067391,新規,0,2023-04-18,2023-04-18,株式会社竹田鍍金工業所,,株式会社,大阪府,貝塚市,二色中町６番７,,27,208,5970093,,,,,,,2023-04-18,1,,,,,タケダメッキコウギョウショ,0
1743,6120103005184,新規,0,2023-04-18,2023-04-18,合同会社Ｇｅｎｅｒａｌ　ａｒｅａ,,合同会社,大阪府,松原市,東新町３丁目１１番１２号,,27,217,5800024,,,,,,,2023-04-18,1,,,,,ジェネラルエリア,0
1748,6120901047411,新規,0,2023-04-18,2023-04-18,株式会社聖建装,,株式会社,大阪府,茨木市,丑寅２丁目７番２３号,,27,211,5670877,,,,,,,2023-04-18,1,,,,,ヒジリケンソウ,0
1749,6122005003670,新規,0,2023-04-18,2023-04-18,一般社団法人ＹＴスポーツアカデミー,,その他の設立登記法人,大阪府,東大阪市,渋川町１丁目２番１０号,,27,227,5770836,,,,,,,2023-04-18,1,,,,,ワイティースポーツアカデミー,0
1750,6130001074108,新規,0,2023-04-18,2023-04-18,株式会社カミングケア,,株式会社,京都府,京都市山科区,音羽珍事町８番地１７,,26,110,6078062,,,,,,,2023-04-18,1,,,,,カミングケア,0
1752,6130005016758,新規,0,2023-04-18,2023-04-18,一般社団法人東栄,,その他の設立登記法人,京都府,京都市右京区,西院西矢掛町１８番地,,26,108,6150025,,,,,,,2023-04-18,1,,,,,トウエイ,0
1756,6140001129810,新規,0,2023-04-18,2023-04-18,株式会社ヒロアセットマネジメント,,株式会社,兵庫県,芦屋市,船戸町３番２３－１０２号,,28,206,6590093,,,,,,,2023-04-18,1,,,,,ヒロアセットマネジメント,0
1757,6140001129827,新規,0,2023-04-18,2023-04-18,Ｓｉｄｅｙｏｕ株式会社,,株式会社,兵庫県,神戸市中央区,東川崎町１丁目８番４号,,28,110,6500044,,,,,,,2023-04-18,1,,,,,サイドユー,0
1761,6150001026313,新規,0,2023-04-18,2023-04-18,藤岡帝国化成株式会社,,株式会社,奈良県,磯城郡田原本町,大字秦庄５０６番地,,29,363,6360343,,,,,,,2023-04-18,1,,,,,フジオカテイコクカセイ,0
1762,6150001026321,新規,0,2023-04-18,2023-04-18,ＥＶＡＮ　ＤＥＳＩＧＮ株式会社,,株式会社,奈良県,奈良市,青野町１丁目４番２７－１０８号,,29,201,6310841,,,,,,,2023-04-18,1,,,,,エヴァンデザイン,0
1766,6160001024976,新規,0,2023-04-18,2023-04-18,株式会社テラス,,株式会社,滋賀県,大津市,御陵町６番１３号,,25,201,5200037,,,,,,,2023-04-18,1,,,,,テラス,0
1777,6180001155745,新規,0,2023-04-18,2023-04-18,株式会社アイセル企画,,株式会社,愛知県,一宮市,奥町字三出西５４番地１,,23,203,4910201,,,,,,,2023-04-18,1,,,,,アイセルキカク,0
1778,6180001155860,新規,0,2023-04-18,2023-04-18,双木株式会社,,株式会社,愛知県,名古屋市中区,千代田２丁目２５番１３号ダイアパレス上前津８０５号室,,23,106,4600012,,,,,,,2023-04-18,1,,,,,ソウキ,0
1779,6180001155877,新規,0,2023-04-18,2023-04-18,グローバルコミュニケーション株式会社,,株式会社,愛知県,名古屋市北区,光音寺町字野方１９０７番地の２３９,,23,103,4620053,,,,,,,2023-04-18,1,,,,,グローバルコミュニケーション,0
1780,6180001155910,新規,0,2023-04-18,2023-04-18,株式会社ＳＰＩＲＡＬ,,株式会社,愛知県,名古屋市中村区,名駅４丁目２４番５号第２森ビル４０１,,23,105,4500002,,,,,,,2023-04-18,1,,,,,スパイラル,0
1788,6180003025104,新規,0,2023-04-18,2023-04-18,合同会社ホソカワ,,合同会社,愛知県,名古屋市守山区,小幡３丁目１８番１７－８０３号,,23,113,4630011,,,,,,,2023-04-18,1,,,,,ホソカワ,0
1789,6180003025137,新規,0,2023-04-18,2023-04-18,合同会社Ｏｎサービス,,合同会社,愛知県,名古屋市中村区,宿跡町３丁目８番地の３,,23,105,4530067,,,,,,,2023-04-18,1,,,,,オンサービス,0
1790,6180005020185,新規,0,2023-04-18,2023-04-18,ＮＰＯ法人知多半島元氣隊,,その他の設立登記法人,愛知県,半田市,宮本町６丁目２０４番地の１０,,23,205,4750925,,,,,,,2023-04-18,1,,,,,チタハントウゲンキタイ,0
1791,6180005020193,新規,0,2023-04-18,2023-04-18,一般社団法人浅野家財産管理,,その他の設立登記法人,愛知県,名古屋市中区,丸の内１丁目８番２４号,,23,106,4600002,,,,,,,2023-04-18,1,,,,,アサノケザイサンカンリ,0
1797,6190001030336,新規,0,2023-04-18,2023-04-18,ＬＰサポート株式会社,,株式会社,三重県,松阪市,久保町１８８１番地７９,,24,204,5150044,,,,,,,2023-04-18,1,,,,,エルピーサポート,0
1807,6240001061359,新規,0,2023-04-18,2023-04-18,ＦＭＬ株式会社,,株式会社,広島県,広島市東区,東蟹屋町１０番１８号,,34,102,7320055,,,,,,,2023-04-18,1,,,,,エフエムエル,0
1810,6250003003250,新規,0,2023-04-18,2023-04-18,合同会社七福,,合同会社,山口県,山口市,大内矢田南６丁目１４番２８号,,35,203,7530222,,,,,,,2023-04-18,1,,,,,シチフク,0
1817,6290001101218,新規,0,2023-04-18,2023-04-18,株式会社Ａｃｅ　Ａｓｓｉｓｔ,,株式会社,福岡県,大牟田市,中島町４番地３,,40,202,8360023,,,,,,,2023-04-18,1,,,,,エースアシスト,0
1818,6290003013790,新規,0,2023-04-18,2023-04-18,合同会社ＴＳエンタテインメント,,合同会社,福岡県,福岡市城南区,堤１丁目８番３３号,,40,136,8140151,,,,,,,2023-04-18,1,,,,,ティーエスエンタテインメント,0
1825,6310003004548,新規,0,2023-04-18,2023-04-18,イワモトビルドマネージ合同会社,,合同会社,長崎県,長崎市,樺島町７番９号パインパレス４０１号,,42,201,8500034,,,,,,,2023-04-18,1,,,,,イワモトビルドマネージ,0
1826,6330001030775,新規,0,2023-04-18,2023-04-18,株式会社はなぶさデザイン,,株式会社,熊本県,熊本市中央区,水前寺４丁目５２番４８号ブロッサムビル水前寺２階,,43,101,8620950,,,,,,,2023-04-18,1,,,,,ハナブサデザイン,0
1828,6340001025519,新規,0,2023-04-18,2023-04-18,株式会社満輝江,,株式会社,鹿児島県,肝属郡肝付町,前田１１３５番地３,,46,492,8931206,,,,,,,2023-04-18,1,,,,,ミツキエ,0
1829,6350001018307,新規,0,2023-04-18,2023-04-18,Ｋマック株式会社,,株式会社,宮崎県,串間市,大字西方１４７６９番地,,45,207,8880001,,,,,,,2023-04-18,1,,,,,ケイマック,0
1836,6360005006835,新規,0,2023-04-18,2023-04-18,一般社団法人沖縄脳力開発研究会,,その他の設立登記法人,沖縄県,中頭郡北中城村,字熱田２８３番地,,47,327,9012313,,,,,,,2023-04-18,1,,,,,オキナワノウリョクカイハツケンキュウカイ,0
1841,6380001033617,新規,0,2023-04-18,2023-04-18,株式会社ＳＰＥＳ,,株式会社,福島県,郡山市,安積町日出山２丁目１１８番地,,07,203,9630101,,,,,,,2023-04-18,1,,,,,スペース,0
1843,6380003005440,新規,0,2023-04-18,2023-04-18,合同会社ロイｓｔｅｐ,,合同会社,福島県,喜多方市,岩月町橿野字中堀１７２８番地１３,,07,208,9660003,,,,,,,2023-04-18,1,,,,,ロイステップ,0
1862,6430003014923,新規,0,2023-04-18,2023-04-18,合同会社ＴＲＩ　ｗｉｎ,,合同会社,北海道,札幌市中央区,南五条西６丁目９番地３ニュー桂和ビル７階１０号,,01,101,0640805,,,,,,,2023-04-18,1,,,,,トライウィン,0
1863,6450001013958,新規,0,2023-04-18,2023-04-18,株式会社ヴィーエイト,,株式会社,北海道,紋別市,幸町４丁目２番２４号,,01,219,0940005,,,,,,,2023-04-18,1,,,,,ヴィーエイト,0
1864,6450003002323,新規,0,2023-04-18,2023-04-18,合同会社ＳＮ技建,,合同会社,北海道,旭川市,永山五条８丁目２番５号,,01,204,0798415,,,,,,,2023-04-18,1,,,,,エスエヌギケン,0
1866,6460303000793,新規,0,2023-04-18,2023-04-18,合同会社ＫＩＴＡＭＩ　ＢＬＵＥ　ＦＬＡＧ,,合同会社,北海道,北見市,常盤町３丁目１６‐７５,,01,208,0900817,,,,,,,2023-04-18,1,,,,,キタミブルーフラッグ,0
1868,6500003003019,新規,0,2023-04-18,2023-04-18,合同会社ネクストユー,,合同会社,愛媛県,松山市,土居田町６１１番地８,,38,201,7900056,,,,,,,2023-04-18,1,,,,,ネクストユー,0
1869,6700150115538,新規,0,2023-04-18,2023-04-18,イハラブラス・エスエー・インダストリアス・キミカス,,外国会社等,東京都,港区,赤坂１丁目１１－４４赤坂インターシティ５階,,13,103,1070052,ブラジル連邦共和国、サン・パウロ、ソロカバ、カジュル・ド・スー、リベルダーデ通り１７０１,,,,,,2023-04-18,1,,,,,イハラブラスエスエーインダストリアスキミカス,0
1870,6700150115570,新規,0,2023-04-18,2023-04-18,Ｓｈｅｎｚｈｅｎ　Ｓａｎｊｉａｎｇ　Ｅ－Ｂｕｓｉｎｅｓｓ　Ｃｏ．，Ｌｔｄ,,外国会社等,,,,,,,,２４０１，Ｆｌｏｏｒ　２４，Ｊｉｎｌｕａｎ　Ｉｎｔｅｒｎａｔｉｏｎａｌ　Ｂｕｓｉｎｅｓｓ　Ｂｕｉｌｄｉｎｇ，Ｎｏ．９８，Ｅａｓｔ　Ｈｅｐｉｎｇ　Ｒｏａｄ，Ｓａｎｌｉａｎ　Ｃｏｍｍｕｎｉｔｙ，Ｌｏｎｇｈｕａ　Ｓｔｒｅｅｔ，Ｌｏｎｇｈｕａ　Ｄｉｓｔｒｉｃｔ，Ｓｈｅｎｚｈｅｎ,,,,,,2023-04-18,1,,,,,シェンジェンシーサンジャンディエンズーシャンウーヨウシエンゴンスー,0
1886,7010401173775,新規,0,2023-04-18,2023-04-18,Ｈ株式会社,,株式会社,東京都,港区,南青山３丁目１番３６号,,13,103,1070062,,,,,,,2023-04-18,1,,,,,エイチ,0
1887,7010401173783,新規,0,2023-04-18,2023-04-18,株式会社ＭＩＳＳＹＯＵ,,株式会社,東京都,港区,赤坂６丁目１０番４５号,,13,103,1070052,,,,,,,2023-04-18,1,,,,,ミスユー,0
1888,7010401173817,新規,0,2023-04-18,2023-04-18,株式会社ｅｃｈｏｏｏ,,株式会社,東京都,港区,南青山３丁目１番３号スプライン青山東急ビル３階,,13,103,1070062,,,,,,,2023-04-18,1,,,,,エコー,0
1889,7010401173825,新規,0,2023-04-18,2023-04-18,株式会社日本先進医療,,株式会社,東京都,港区,北青山３丁目２番２号７階,,13,103,1070061,,,,,,,2023-04-18,1,,,,,ニホンセンシンイリョウ,0
1904,7010701044107,新規,0,2023-04-18,2023-04-18,株式会社ＩＮＮＡＴＩＯＮ,,株式会社,東京都,品川区,西大井１丁目４－２９,,13,109,1400015,,,,,,,2023-04-18,1,,,,,イネーション,0
1905,7010701044123,新規,0,2023-04-18,2023-04-18,Ａｅｏｌｕｓ株式会社,,株式会社,東京都,品川区,東大井１丁目１３番１２号クレーメゾン品川１００５,,13,109,1400011,,,,,,,2023-04-18,1,,,,,アイオロス,0
1906,7010701044131,新規,0,2023-04-18,2023-04-18,ＷＯＮＤＲＥＳ株式会社,,株式会社,東京都,品川区,西五反田１丁目２６番２号五反田サンハイツ９１１,,13,109,1410031,,,,,,,2023-04-18,1,,,,,ワンドレス,0
1915,7011001153795,新規,0,2023-04-18,2023-04-18,ＷｉｌｌＡｒｃｈ株式会社,,株式会社,東京都,渋谷区,千駄ヶ谷５丁目２－１５ＳｕｎＰａｒｋＨｅｉｇｈｔｓ６Ｆ,,13,113,1510051,,,,,,,2023-04-18,1,,,,,ウィルアーチ,0
1918,7011005010027,新規,0,2023-04-18,2023-04-18,一般社団法人デザインフィル社会文化貢献基金,,その他の設立登記法人,東京都,渋谷区,恵比寿１丁目１９番１９号恵比寿ビジネスタワー９Ｆ,,13,113,1500013,,,,,,,2023-04-18,1,,,,,デザインフィルシャカイブンカコウケンキキン,0
1922,7011101102529,新規,0,2023-04-18,2023-04-18,株式会社ＮＥＤＡ,,株式会社,東京都,新宿区,歌舞伎町２丁目９－１５ダイヤモンドパレス１０７号室,,13,104,1600021,,,,,,,2023-04-18,1,,,,,ネダー,0
1924,7011201024573,新規,0,2023-04-18,2023-04-18,株式会社Ｎａｕｔｉｌｅ,,株式会社,東京都,中野区,南台２丁目９－１－１３０１,,13,114,1640014,,,,,,,2023-04-18,1,,,,,ノティール,0
1935,7011701026136,新規,0,2023-04-18,2023-04-18,ライズオット株式会社,,株式会社,東京都,江戸川区,南篠崎町５丁目１３－４１－１００８,,13,123,1330065,,,,,,,2023-04-18,1,,,,,ライズオット,0
1936,7011701026152,新規,0,2023-04-18,2023-04-18,株式会社Ｃｌｉｅｖｅ,,株式会社,東京都,江戸川区,瑞江２丁目２２番５－２０７号グリーンハウス下鎌田,,13,123,1320011,,,,,,,2023-04-18,1,,,,,,0
1938,7011703003439,新規,0,2023-04-18,2023-04-18,合同会社３１１ＢＡＮＣＨＩ,,合同会社,東京都,江戸川区,鹿骨１丁目５５番１４号グラントールＩＩ２０４,00130146,13,123,1330073,,,,,,,2023-04-18,1,,,,,サンビャクジュウイチバンチ,0
1939,7011801042248,新規,0,2023-04-18,2023-04-18,株式会社サクラカンパニー,,株式会社,東京都,葛飾区,立石６丁目３６番１５号,,13,122,1240012,,,,,,,2023-04-18,1,,,,,サクラカンパニー,0
1943,7012401040427,新規,0,2023-04-18,2023-04-18,株式会社ＮＥＷＭＡ,,株式会社,東京都,府中市,宮西町１丁目１５番地の１５プラウド府中マークス１７０６,,13,206,1830022,,,,,,,2023-04-18,1,,,,,ニューマ,0
1945,7012403005931,新規,0,2023-04-18,2023-04-18,合同会社ＨＫフロンティア,,合同会社,東京都,小金井市,前原町４丁目１６番１５号,,13,210,1840013,,,,,,,2023-04-18,1,,,,,エイチケーフロンティア,0
1946,7012801022256,新規,0,2023-04-18,2023-04-18,株式会社みんなのコンビニ,,株式会社,東京都,国立市,西２丁目２０－１０第２村上ビル１階,,13,215,1860005,,,,,,,2023-04-18,1,,,,,ミンナノコンビニ,0
1947,7012801022289,新規,0,2023-04-18,2023-04-18,株式会社ユニークＫ,,株式会社,東京都,日野市,平山１丁目７番地の１８,,13,212,1910043,,,,,,,2023-04-18,1,,,,,ユニークケイ,0
1952,7020001151131,新規,0,2023-04-18,2023-04-18,株式会社ＤＯ‐ＤＯ,,株式会社,神奈川県,横浜市西区,浅間町１丁目４番３号ウィザードビル４０２,,14,103,2200072,,,,,,,2023-04-18,1,,,,,ドゥードゥー,0
1953,7020001151156,新規,0,2023-04-18,2023-04-18,株式会社ＩＳＣＪＡＰＡＮ,,株式会社,神奈川県,横浜市中区,弁天通２丁目２５関内キャピタルビル３０３号室,,14,104,2310007,,,,,,,2023-04-18,1,,,,,アイエスシージャパン,0
1954,7020001151172,新規,0,2023-04-18,2023-04-18,株式会社エーアイセル,,株式会社,神奈川県,川崎市川崎区,駅前本町１１番地２,,14,131,2100007,,,,,,,2023-04-18,1,,,,,エーアイセル,0
1955,7020001151180,新規,0,2023-04-18,2023-04-18,株式会社ＨＡＮＡｓｈｉｋａｎ,,株式会社,神奈川県,横浜市金沢区,富岡西４丁目３９番７号,,14,108,2360052,,,,,,,2023-04-18,1,,,,,ハナシカン,0
1958,7020003023741,新規,0,2023-04-18,2023-04-18,のなやＴｏｋｙｏ合同会社,,合同会社,神奈川県,川崎市高津区,久本３丁目２番１４－２０３号,,14,134,2130011,,,,,,,2023-04-18,1,,,,,ノナヤトウキョウ,0
1963,7021001078736,新規,0,2023-04-18,2023-04-18,みらい企画株式会社,,株式会社,神奈川県,足柄上郡中井町,松本４１０番地９,,14,361,2590155,,,,,,,2023-04-18,1,,,,,ミライキカク,0
1968,7030001153226,新規,0,2023-04-18,2023-04-18,株式会社ミズカミ,,株式会社,埼玉県,東松山市,大字新郷４４５番地,,11,212,3550071,,,,,,,2023-04-18,1,,,,,ミズカミ,0
1969,7030001153408,新規,0,2023-04-18,2023-04-18,株式会社フロントライン,,株式会社,埼玉県,川口市,戸塚東２丁目３０番２４号,,11,203,3330802,,,,,,,2023-04-18,1,,,,,フロントライン,0
1970,7030001153424,新規,0,2023-04-18,2023-04-18,ＡＩＲ　ＧＯＬＤ株式会社,,株式会社,埼玉県,八潮市,大字鶴ケ曽根２３９番地５,,11,234,3400802,,,,,,,2023-04-18,1,,,,,エアーゴールド,0
1971,7030001153432,新規,0,2023-04-18,2023-04-18,家和株式会社,,株式会社,埼玉県,草加市,弁天２丁目２７番４５号３Ｅ号室,,11,221,3400004,,,,,,,2023-04-18,1,,,,,イエワ,0
1972,7030001153440,新規,0,2023-04-18,2023-04-18,株式会社ＴＲＹｅｓｔａｔｅ,,株式会社,埼玉県,狭山市,狭山１９番２６号２,,11,215,3501334,,,,,,,2023-04-18,1,,,,,トライエステート,0
1973,7030001153449,新規,0,2023-04-18,2023-04-18,株式会社ファーナリュッカ,,株式会社,埼玉県,越谷市,大字平方４４－１４,,11,222,3430002,,,,,,,2023-04-18,1,,,,,ファーナリュッカ,0
1977,7030003021595,新規,0,2023-04-18,2023-04-18,合同会社トラスト,,合同会社,埼玉県,さいたま市大宮区,桜木町２丁目３番地大宮マルイ７階,,11,103,3300854,,,,,,,2023-04-18,1,,,,,トラスト,0
1979,7040001127971,新規,0,2023-04-18,2023-04-18,株式会社Ｔｏｍ　Ｉｎｖｅｓｔｍｅｎｔ,,株式会社,千葉県,我孫子市,白山３丁目１０番１３号,,12,222,2701154,,,,,,,2023-04-18,1,,,,,トムインベストメント,0
2016,7120001253933,新規,0,2023-04-18,2023-04-18,士帰株式会社,,株式会社,大阪府,大阪市中央区,千日前１丁目５－１９寿楽ビル１００１号室,,27,128,5420074,,,,,,,2023-04-18,1,,,,,シキ,0
2019,7120003023855,新規,0,2023-04-18,2023-04-18,合同会社あいの,,合同会社,大阪府,大阪市西淀川区,千舟２丁目１５番８号－１００２,,27,113,5550013,,,,,,,2023-04-18,1,,,,,アイノ,0
2020,7120003023863,新規,0,2023-04-18,2023-04-18,合同会社Ｌｉｖｑｕｅｕｒ　Ｒｅｃｏｒｄｓ,,合同会社,大阪府,大阪市浪速区,元町３丁目６番１０－３０６号,,27,111,5560016,,,,,,,2023-04-18,1,,,,,リヴァキュールレコード,0
2026,7120101067382,新規,0,2023-04-18,2023-04-18,株式会社バッファ,,株式会社,大阪府,和泉市,鍛治屋町２６番地の２,,27,219,5941117,,,,,,,2023-04-18,1,,,,,バッファ,0
2027,7120101067390,新規,0,2023-04-18,2023-04-18,株式会社ロボティクスセーリングラボ,,株式会社,大阪府,松原市,天美我堂２丁目４６８－１（Ｄ号）,,27,217,5800026,,,,,,,2023-04-18,1,,,,,ロボティクスセーリングラボ,0
2028,7120901047427,新規,0,2023-04-18,2023-04-18,株式会社ＴＳＵＮＡＧＵ,,株式会社,大阪府,豊中市,中桜塚２丁目２０番３－３０２号,,27,203,5610881,,,,,,,2023-04-18,1,,,,,ツナグ,0
2029,7120901047435,新規,0,2023-04-18,2023-04-18,株式会社Ｍｉ　Ｃｏｎｎｅｃｔ,,株式会社,大阪府,高槻市,藤の里町３－１６,,27,207,5690025,,,,,,,2023-04-18,1,,,,,ミーコネクト,0
2031,7120903004599,新規,0,2023-04-18,2023-04-18,合同会社ＣＲＤ,,合同会社,大阪府,吹田市,古江台１丁目２－１５－２,,27,205,5650874,,,,,,,2023-04-18,1,,,,,シーアールディー,0
2033,7122001036896,新規,0,2023-04-18,2023-04-18,株式会社ルーツ,,株式会社,大阪府,大東市,住道１丁目１番４号１０１号室,,27,218,5740026,,,,,,,2023-04-18,1,,,,,ルーツ,0
2036,7130001074098,新規,0,2023-04-18,2023-04-18,株式会社リブート,,株式会社,京都府,長岡京市,神足３丁目１２番７号,,26,209,6170833,,,,,,,2023-04-18,1,,,,,リブート,0
2037,7130005016757,新規,0,2023-04-18,2023-04-18,中央京都生コンクリート協同組合,,その他の設立登記法人,京都府,京都市下京区,七条通東洞院東入る材木町４９９－２第一キョートビル８０２号室,,26,106,6000000,,,,,,,2023-04-18,1,,,,,チュウオウキョウトナマコンクリート,0
2041,7140003018977,新規,0,2023-04-18,2023-04-18,ＳＴＡＴ　Ａｓｉａ　Ｃｏｎｓｕｌｔｉｎｇ合同会社,,合同会社,兵庫県,神戸市東灘区,向洋町中５丁目１５番地９０３号,,28,101,6580032,,,,,,,2023-04-18,1,,,,,スタットアジアコンサルティング,0
2044,7150003002939,新規,0,2023-04-18,2023-04-18,合同会社ＮＥＲＵ’ｓ,,合同会社,奈良県,大和高田市,大字市場８０８－７,,29,202,6350074,,,,,,,2023-04-18,1,,,,,ネルズ,0
2053,7180001155918,新規,0,2023-04-18,2023-04-18,株式会社ｈｏｐ,,株式会社,愛知県,名古屋市南区,砂口町５２番地の１３,,23,112,4570054,,,,,,,2023-04-18,1,,,,,ホップ,0
2054,7180001155942,新規,0,2023-04-18,2023-04-18,株式会社本山クリニカルラボ,,株式会社,愛知県,名古屋市千種区,楠元町２丁目１２番地,,23,101,4640037,,,,,,,2023-04-18,1,,,,,モトヤマクリニカルラボ,0
2059,7180003025111,新規,0,2023-04-18,2023-04-18,永昌不動産サービス合同会社,,合同会社,愛知県,名古屋市中区,松原２丁目２番１１号,,23,106,4600017,,,,,,,2023-04-18,1,,,,,エイショウフドウサンサービス,0
2060,7180005020184,新規,0,2023-04-18,2023-04-18,医療法人白歌会,,その他の設立登記法人,愛知県,名古屋市昭和区,隼人町３番地の４アルページュ杁中１階,,23,107,4660833,,,,,,,2023-04-18,1,,,,,シラウタカイ,0
2063,7180301037329,新規,0,2023-04-18,2023-04-18,株式会社ＷＥＬＬ　Ｓ,,株式会社,愛知県,碧南市,志貴崎町１丁目５番地２０,,23,209,4470816,,,,,,,2023-04-18,1,,,,,ウェルエス,0
2068,7190001030335,新規,0,2023-04-18,2023-04-18,株式会社やなぎだ屋,,株式会社,三重県,志摩市,大王町波切１２４９番地２１,,24,215,5170603,,,,,,,2023-04-18,1,,,,,ヤナギダヤ,0
2073,7200005013474,新規,0,2023-04-18,2023-04-18,一般社団法人みんなのいえ,,その他の設立登記法人,岐阜県,岐阜市,西鶉３丁目８４番地１,,21,201,5008286,,,,,,,2023-04-18,1,,,,,ミンナノイエ,0
2077,7220003003500,新規,0,2023-04-18,2023-04-18,ＩＭＤ合同会社,,合同会社,石川県,金沢市,東蚊爪町ヌ３２番地３,,17,201,9200209,,,,,,,2023-04-18,1,,,,,アイエムディ,0
2082,7240001061366,新規,0,2023-04-18,2023-04-18,株式会社Ｐ‐Ｃｏｍｐａｎｙ,,株式会社,広島県,廿日市市,大野１丁目５番３号,,34,213,7390434,,,,,,,2023-04-18,1,,,,,ピーカンパニー,0
2083,7240001061374,新規,0,2023-04-18,2023-04-18,エスオーコンサルティング株式会社,,株式会社,広島県,広島市南区,的場町１丁目１番２１号クリスタルタワー１００５,,34,103,7320824,,,,,,,2023-04-18,1,,,,,エスオーコンサルティング,0
2092,7240005015558,新規,0,2023-04-18,2023-04-18,社会福祉法人ゆず,,その他の設立登記法人,広島県,東広島市,西条下見６丁目４番３６号,,34,212,7390047,,,,,,,2023-04-18,1,,,,,ユズ,0
2097,7270001008760,新規,0,2023-04-18,2023-04-18,株式会社３６０,,株式会社,鳥取県,鳥取市,元町１２３番地,,31,201,6800037,,,,,,,2023-04-18,1,,,,,ミロク,0
2104,7290001101209,新規,0,2023-04-18,2023-04-18,株式会社エブリシング,,株式会社,福岡県,福岡市中央区,薬院１丁目４番８号あずまビル１Ｆ,,40,133,8100022,,,,,,,2023-04-18,1,,,,,エブリシング,0
2105,7290001101241,新規,0,2023-04-18,2023-04-18,株式会社Ｎｕｒｔｕｒｅ,,株式会社,福岡県,春日市,天神山５丁目１番地１,,40,218,8160855,,,,,,,2023-04-18,1,,,,,ニューチャー,0
2106,7290003013740,新規,0,2023-04-18,2023-04-18,ＨＹプランニング合同会社,,合同会社,福岡県,福岡市中央区,大手門１丁目４番１５－１１０１号アトリエ平和台,,40,133,8100074,,,,,,,2023-04-18,1,,,,,エイチワイプランニング,0
2107,7290003013798,新規,0,2023-04-18,2023-04-18,Ａ＆ｄ合同会社,,合同会社,福岡県,久留米市,通町１０９―９田中ビル１Ｆ,,40,203,8300018,,,,,,,2023-04-18,1,,,,,エーアンドディー,0
2118,7330003009809,新規,0,2023-04-18,2023-04-18,合同会社日本の端から日本を元気に,,合同会社,熊本県,天草市,志柿町４４３４－１２,,43,215,8630041,,,,,,,2023-04-18,1,,,,,ニホンノハシカラニホンヲゲンキニ,0
2119,7340001025518,新規,0,2023-04-18,2023-04-18,株式会社江川総業,,株式会社,鹿児島県,鹿児島市,皇徳寺台３丁目２０番１５号,,46,201,8910103,,,,,,,2023-04-18,1,,,,,エガワソウギョウ,0
2123,7360001031869,新規,0,2023-04-18,2023-04-18,万株式会社,,株式会社,沖縄県,宜野湾市,真志喜１丁目１１－１２,,47,205,9012224,,,,,,,2023-04-18,1,,,,,バン,0
2124,7360001031877,新規,0,2023-04-18,2023-04-18,株式会社ＲＫシステム,,株式会社,沖縄県,沖縄市,美里３丁目６番２号（２－Ｂ）,,47,211,9042153,,,,,,,2023-04-18,1,,,,,アールケイシステム,0
2125,7360003012891,新規,0,2023-04-18,2023-04-18,合同会社ＭＩＹＡ　ＣＲＥＡＴＥ．,,合同会社,沖縄県,那覇市,字国場９８１番地,,47,201,9020075,,,,,,,2023-04-18,1,,,,,ミヤクリエイト,0
2139,7420001018232,新規,0,2023-04-18,2023-04-18,株式会社フライハイト,,株式会社,青森県,弘前市,大字青山１丁目１９番地２,,02,202,0368062,,,,,,,2023-04-18,1,,,,,フライハイト,0
2142,7420003002705,新規,0,2023-04-18,2023-04-18,合同会社ＡＲＡＹＡ,,合同会社,青森県,下北郡大間町,大字奥戸字小奥戸２番地３,,02,423,0394602,,,,,,,2023-04-18,1,,,,,アラヤ,0
2144,7430001088794,新規,0,2023-04-18,2023-04-18,株式会社Ｈｉｂａｎｙ,,株式会社,北海道,苫小牧市,新明町４丁目１８番３－３０２号,,01,213,0530055,,,,,,,2023-04-18,1,,,,,ヒバニー,0
2145,7430001088877,新規,0,2023-04-18,2023-04-18,株式会社アンリミット,,株式会社,北海道,札幌市中央区,北一条西１０丁目１－２８－５０５,,01,101,0600001,,,,,,,2023-04-18,1,,,,,アンリミット,0
2154,7470001019572,新規,0,2023-04-18,2023-04-18,株式会社ＳＨＩＲＯＴＡＹＡ．,,株式会社,香川県,観音寺市,観音寺町甲１１３６番地,,37,205,7680060,,,,,,,2023-04-18,1,,,,,シロタヤ,0
2155,7470001019580,新規,0,2023-04-18,2023-04-18,株式会社和サロンプロジェクト,,株式会社,香川県,高松市,多肥上町１３６１－１２,,37,201,7618076,,,,,,,2023-04-18,1,,,,,,0
2157,7470005006501,新規,0,2023-04-18,2023-04-18,香川県森林整備協同組合,,その他の設立登記法人,香川県,高松市,塩江町安原上東４７２番地１,,37,201,7611612,,,,,,,2023-04-18,1,,,,,カガワケンシンリンセイビ,0
2160,7700150115512,新規,0,2023-04-18,2023-04-18,ＡＲＵＮＡＬＩ　ＣＡＲ　ＭＡＲＴ,,外国会社等,茨城県,取手市,配松４７８－２０７,,08,217,3001541,スリランカ民主社会主義共和国、マハラガマ、ハイレブルロード、１３８／１Ａ,,,,,,2023-04-18,1,,,,,アルナリカーマート,0
2161,7700150115520,新規,0,2023-04-18,2023-04-18,株式会社アイメックインダストリー,,外国会社等,東京都,港区,虎ノ門２丁目３番１７号虎ノ門２丁目タワー１９階,,13,103,1050001,大韓民国京畿道龍仁市水枝区新水路７６７，Ａ棟９０８号（東川洞，盆唐水枝Ｕタワー）,,,,,,2023-04-18,1,,,,,カブシキガイシヤアイメツクインダストリー,0
2169,8010001234522,新規,0,2023-04-18,2023-04-18,株式会社Ａｄ　Ｃｌｉｐ,,株式会社,東京都,中央区,銀座１丁目１２番４号Ｎ＆ＥＢＬＤ．６Ｆ,,13,102,1040061,,,,,,,2023-04-18,1,,,,,アドクリップ,0
2170,8010001234530,新規,0,2023-04-18,2023-04-18,株式会社ＨＯＬＯＫＡＩ,,株式会社,東京都,中央区,京橋２丁目１２番３号,,13,102,1040031,,,,,,,2023-04-18,1,,,,,ホロカイ,0
2171,8010001234613,新規,0,2023-04-18,2023-04-18,パシフィックインターナショナル株式会社,,株式会社,東京都,千代田区,丸の内３丁目２番２号丸の内二重橋ビル２Ｆ,,13,101,1000005,,,,,,,2023-04-18,1,,,,,パシフィックインターナショナル,0
2175,8010003040349,新規,0,2023-04-18,2023-04-18,合同会社ＲＫＭ,,合同会社,東京都,文京区,本駒込１丁目３番１８号,,13,105,1130021,,,,,,,2023-04-18,1,,,,,アールケーエム,0
2176,8010003040357,新規,0,2023-04-18,2023-04-18,合同会社ウェルストーン,,合同会社,東京都,中央区,銀座１丁目２２番１１号,,13,102,1040061,,,,,,,2023-04-18,1,,,,,ウェルストーン,0
2188,8010401173808,新規,0,2023-04-18,2023-04-18,フォーグッド株式会社,,株式会社,東京都,港区,芝５丁目３６番４号札の辻スクエア９階,,13,103,1080014,,,,,,,2023-04-18,1,,,,,フォーグッド,0
2189,8010401173816,新規,0,2023-04-18,2023-04-18,株式会社Ｂｒｉｓｔｏｌ,,株式会社,東京都,港区,赤坂４丁目８番１９号赤坂フロントタウン３階,,13,103,1070052,,,,,,,2023-04-18,1,,,,,ブリストル,0
2190,8010401173840,新規,0,2023-04-18,2023-04-18,株式会社Ｂ．ＲＩＮＧ,,株式会社,東京都,港区,白金台５丁目１８－２,,13,103,1080071,,,,,,,2023-04-18,1,,,,,ビーリング,0
2191,8010401173857,新規,0,2023-04-18,2023-04-18,株式会社ＩＮＦＵＮＤＳ,,株式会社,東京都,港区,六本木６丁目１０番１号六本木ヒルズ森タワー１６階,,13,103,1060032,,,,,,,2023-04-18,1,,,,,インファンズ,0
2192,8010401173865,新規,0,2023-04-18,2023-04-18,ＫＩコンサルティング株式会社,,株式会社,東京都,港区,北青山２丁目１０番１６－３０３号,,13,103,1070061,,,,,,,2023-04-18,1,,,,,ケイアイコンサルティング,0
2194,8010403029958,新規,0,2023-04-18,2023-04-18,ＡＺｐｌｕｓ合同会社,,合同会社,東京都,港区,白金台２丁目２６‐１２ルフォン白金台１２０３,,13,103,1080071,,,,,,,2023-04-18,1,,,,,アスプラス,0
2195,8010405021995,新規,0,2023-04-18,2023-04-18,一般社団法人日本がん・リンパ浮腫理学療法学会,,その他の設立登記法人,東京都,港区,六本木７丁目１１番１０号,,13,103,1060032,,,,,,,2023-04-18,1,,,,,ニホンガンリンパフシュリガクリョウホウガッカイ,0
2206,8010701044114,新規,0,2023-04-18,2023-04-18,グリーンタレントハブ株式会社,,株式会社,東京都,品川区,上大崎２丁目１５－１９,,13,109,1410021,,,,,,,2023-04-18,1,,,,,グリーンタレントハブ,0
2207,8010701044130,新規,0,2023-04-18,2023-04-18,株式会社マクミクロ,,株式会社,東京都,品川区,西五反田２丁目１７番６号ザ・パークハビオ五反田３０１,,13,109,1410031,,,,,,,2023-04-18,1,,,,,マクミクロ,0
2208,8010703006665,新規,0,2023-04-18,2023-04-18,合同会社ＵＭＹ,,合同会社,東京都,品川区,旗の台４丁目４－１カーサ旗の台５０１,,13,109,1420064,,,,,,,2023-04-18,1,,,,,ユウエムワイ,0
2213,8010901052899,新規,0,2023-04-18,2023-04-18,株式会社ＰＬＡＹ　ＷＯＲＫ　ＧＲＯＵＮＤ,,株式会社,東京都,世田谷区,北沢２丁目５番２号下北沢ビッグベンビル１Ｆ,,13,112,1550031,,,,,,,2023-04-18,1,,,,,プレイワークグラウンド,0
2214,8010901052916,新規,0,2023-04-18,2023-04-18,株式会社アーキテクト・スタジオ,,株式会社,東京都,世田谷区,三軒茶屋２丁目３１番２号,,13,112,1540024,,,,,,,2023-04-18,1,,,,,アーキテクトスタジオ,0
2219,8011001153828,新規,0,2023-04-18,2023-04-18,株式会社Ａｒａｍｉｄａ,,株式会社,東京都,目黒区,八雲２丁目５番９－１０４号,,13,110,1520023,,,,,,,2023-04-18,1,,,,,アラミダ,0
2220,8011001153836,新規,0,2023-04-18,2023-04-18,株式会社ＬＩＢＥＲＴＹＦＩＬＭＳ,,株式会社,東京都,目黒区,青葉台３丁目６－２８住友不動産青葉台タワー８Ｆ,,13,110,1530042,,,,,,,2023-04-18,1,,,,,リバティフィルムズ,0
2221,8011001153852,新規,0,2023-04-18,2023-04-18,株式会社Ｗｅｄｇｅ,,株式会社,東京都,渋谷区,東２丁目２３番８号,,13,113,1500011,,,,,,,2023-04-18,1,,,,,ウェッジ,0
2222,8011003016660,新規,0,2023-04-18,2023-04-18,ｍｅｒｃｉ合同会社,,合同会社,東京都,渋谷区,道玄坂１丁目１０番８号,,13,113,1500043,,,,,,,2023-04-18,1,,,,,メルシー,0
2226,8011101102544,新規,0,2023-04-18,2023-04-18,ｄａｙ株式会社,,株式会社,東京都,新宿区,市谷柳町１５－１－１３０５,,13,104,1620061,,,,,,,2023-04-18,1,,,,,デイ,0
2229,8011401025057,新規,0,2023-04-18,2023-04-18,株式会社オールイン,,株式会社,東京都,板橋区,成増４丁目２６番１１号グリーンハイツ２０３,,13,119,1750094,,,,,,,2023-04-18,1,,,,,オールイン,0
2230,8011501029180,新規,0,2023-04-18,2023-04-18,株式会社クリエイションハイブ,,株式会社,東京都,北区,志茂３丁目４３番１６－５１７号,,13,117,1150042,,,,,,,2023-04-18,1,,,,,クリエイションハイブ,0
2232,8011701026151,新規,0,2023-04-18,2023-04-18,株式会社ＭＡＲＵＧＡ,,株式会社,東京都,江戸川区,中央２丁目１８番３号,,13,123,1320021,,,,,,,2023-04-18,1,,,,,マルガ,0
2237,8011803005615,新規,0,2023-04-18,2023-04-18,合同会社ＢＥＬＩＥＶＥ＆ＰＥＡＣＥ,,合同会社,東京都,葛飾区,立石７丁目６番１３号,,13,122,1240012,,,,,,,2023-04-18,1,,,,,ビリーブアンドピース,0
2242,8012401040418,新規,0,2023-04-18,2023-04-18,株式会社秀建,,株式会社,東京都,府中市,四谷１丁目７番地の１０ビラ・タマガワ２０１,,13,206,1830035,,,,,,,2023-04-18,1,,,,,シュウケン,0
2243,8012401040434,新規,0,2023-04-18,2023-04-18,府中まちづくり不動産株式会社,,株式会社,東京都,府中市,晴見町１丁目２７番地の３４、１Ａ,,13,206,1830057,,,,,,,2023-04-18,1,,,,,フチュウマチヅクリフドウサン,0
2244,8012403005947,新規,0,2023-04-18,2023-04-18,合同会社大久保売電,,合同会社,東京都,小金井市,本町５丁目１７－３パレステージ武蔵小金井ＩＩ６０２号,00130151,13,210,1840004,,,,,,,2023-04-18,1,,,,,オオクボバイデン,0
2246,8013301050622,新規,0,2023-04-18,2023-04-18,Ｄｅｌｐｈｉ　Ｇｒｏｗｔｈ株式会社,,株式会社,東京都,豊島区,西池袋３丁目３１番８号池袋ウエストビル５階,,13,116,1710021,,,,,,,2023-04-18,1,,,,,デルファイグロース,0
2252,8020001151139,新規,0,2023-04-18,2023-04-18,トラガス・キャピタル株式会社,,株式会社,神奈川県,横浜市西区,北幸２丁目１０番地２８むつみビル３Ｆ,,14,103,2200004,,,,,,,2023-04-18,1,,,,,トラガスキャピタル,0
2253,8020001151155,新規,0,2023-04-18,2023-04-18,株式会社Ｋスタジオ東京,,株式会社,神奈川県,川崎市幸区,北加瀬２丁目１３番１号２階,,14,132,2120057,,,,,,,2023-04-18,1,,,,,ケイスタジオトウキョウ,0
2254,8020001151163,新規,0,2023-04-18,2023-04-18,株式会社ｌａｃｅ,,株式会社,神奈川県,川崎市川崎区,砂子２丁目８番地１,,14,131,2100006,,,,,,,2023-04-18,1,,,,,レース,0
2255,8020001151171,新規,0,2023-04-18,2023-04-18,株式会社ＦＵＬＣＯＤＥ,,株式会社,神奈川県,川崎市幸区,南加瀬４丁目１５番３８－１号,,14,132,2120055,,,,,,,2023-04-18,1,,,,,フルコード,0
2256,8020001151196,新規,0,2023-04-18,2023-04-18,健保メリット株式会社,,株式会社,神奈川県,川崎市多摩区,登戸２６９８番地クレール向ヶ丘３０５号室,,14,135,2140014,,,,,,,2023-04-18,1,,,,,ケンポメリット,0
2257,8020001151205,新規,0,2023-04-18,2023-04-18,株式会社ヤマダ,,株式会社,神奈川県,川崎市川崎区,本町２丁目１１－１１ビューライド川崎,,14,131,2100001,,,,,,,2023-04-18,1,,,,,ヤマダ,0
2262,8020003023716,新規,0,2023-04-18,2023-04-18,合同会社Ｈｉｇｈ　Ｌｉｆｅ,,合同会社,神奈川県,横浜市港北区,篠原台町３８－７－２フラワリーヒル壱番館２０２,,14,109,2220024,,,,,,,2023-04-18,1,,,,,ハイライフ,0
2267,8021001078735,新規,0,2023-04-18,2023-04-18,株式会社Ｄ・Ｂ・Ｏ,,株式会社,神奈川県,厚木市,旭町１丁目８番１１号,,14,212,2430014,,,,,,,2023-04-18,1,,,,,ディービーオー,0
2274,8030001153299,新規,0,2023-04-18,2023-04-18,株式会社トプラス,,株式会社,埼玉県,南埼玉郡宮代町,宮代台１丁目１２番８号,,11,442,3450835,,,,,,,2023-04-18,1,,,,,トプラス,0
2275,8030001153431,新規,0,2023-04-18,2023-04-18,株式会社ステーク,,株式会社,埼玉県,さいたま市南区,曲本４丁目１０－９－１０３,,11,108,3360033,,,,,,,2023-04-18,1,,,,,ステーク,0
2276,8030001153448,新規,0,2023-04-18,2023-04-18,ｏｎＥａｒｔｈ株式会社,,株式会社,埼玉県,川越市,藤木町１３番地１７,,11,201,3500018,,,,,,,2023-04-18,1,,,,,オンアース,0
2277,8030001153464,新規,0,2023-04-18,2023-04-18,ＳＡＲＴＨＡＫ株式会社,,株式会社,埼玉県,ふじみ野市,西２丁目１番地２３（２階Ｃ号室）,,11,245,3560005,,,,,,,2023-04-18,1,,,,,サルタク,0
2279,8030003021586,新規,0,2023-04-18,2023-04-18,ＦＪ　Ｉｎｖｅｓｔｍｅｎｔｓ合同会社,,合同会社,埼玉県,桶川市,坂田西２丁目２６番地の２９,,11,231,3630018,,,,,,,2023-04-18,1,,,,,エフジェイインベストメント,0
2280,8030003021594,新規,0,2023-04-18,2023-04-18,合同会社ＦＲＡＮＫ,,合同会社,埼玉県,所沢市,大字山口１１４６番地の３０,,11,208,3591145,,,,,,,2023-04-18,1,,,,,フランク,0
2284,8040001127921,新規,0,2023-04-18,2023-04-18,株式会社Ｙコンサルティング,,株式会社,千葉県,柏市,若柴３４１番地５,,12,217,2770871,,,,,,,2023-04-18,1,,,,,ワイコンサルティング,0
2285,8040001127970,新規,0,2023-04-18,2023-04-18,株式会社Ｐｒｏｊｅｃｔ・ＵＢＫ,,株式会社,千葉県,袖ケ浦市,袖ケ浦駅前１丁目１５番地１アルモ１０２号,,12,229,2990269,,,,,,,2023-04-18,1,,,,,プロジェクトユービーケー,0
2286,8040001128003,新規,0,2023-04-18,2023-04-18,株式会社Ｆ＆Ｈ技術研究所,,株式会社,千葉県,柏市,柏インター南９番地３,,12,217,2770874,,,,,,,2023-04-18,1,,,,,エフアンドエイチギジュツケンキュウジョ,0
2290,8040003022419,新規,0,2023-04-18,2023-04-18,ＴＡＮ　ＴＲＩＥＵ合同会社,,合同会社,千葉県,船橋市,丸山１丁目３８番６号ＪａｓｍｉｎｅＣｏｕｒｔ－１０１号,,12,204,2730048,,,,,,,2023-04-18,1,,,,,タンチョウ,0
2295,8060001035899,新規,0,2023-04-18,2023-04-18,アルファ日本株式会社,,株式会社,栃木県,小山市,大字荒井６６番地２,,09,208,3230013,,,,,,,2023-04-18,1,,,,,アルファニホン,0
2296,8060001035908,新規,0,2023-04-18,2023-04-18,株式会社聖宝,,株式会社,栃木県,足利市,山下町１０６９番地,,09,202,3260846,,,,,,,2023-04-18,1,,,,,セイホウ,0
2297,8060001035916,新規,0,2023-04-18,2023-04-18,Ａ・Ｈ・Ｓ　ＩＮＴＥＲＮＡＴＩＯＮＡＬ　ＴＲＡＤＥＲＳ株式会社,,株式会社,栃木県,日光市,小代５１０番地１９５,,09,206,3211107,,,,,,,2023-04-18,1,,,,,エーエイチエスインターナショナルトレーダース,0
2301,8070001040337,新規,0,2023-04-18,2023-04-18,株式会社ｂｌｕｅ　ｗａｌｌ,,株式会社,群馬県,太田市,西新町９番地１４フレーズＢ－２０１号,,10,205,3730847,,,,,,,2023-04-18,1,,,,,ブルーウォール,0
2325,8120001254088,新規,0,2023-04-18,2023-04-18,株式会社ダウンアップ,,株式会社,大阪府,大阪市西成区,潮路１丁目９番１９号１００９,,27,122,5570052,,,,,,,2023-04-18,1,,,,,ダウンアップ,0
2326,8120001254138,新規,0,2023-04-18,2023-04-18,スリーアロー株式会社,,株式会社,大阪府,大阪市北区,中崎西１丁目８番２４号,,27,127,5300015,,,,,,,2023-04-18,1,,,,,スリーアロー,0
2328,8120003023821,新規,0,2023-04-18,2023-04-18,Ｔａｉｇａ　Ｊａｃｋエンタープライズ合同会社,,合同会社,大阪府,大阪市北区,西天満５丁目１－３南森町パークビル７階,,27,127,5300047,,,,,,,2023-04-18,1,,,,,タイガジャックエンタープライズ,0
2330,8120101067381,新規,0,2023-04-18,2023-04-18,株式会社ＯＦＦＩＣＥ　ＳＡＫＡＩ,,株式会社,大阪府,堺市西区,鳳南町１丁３番地３アーバンプラザウエスト３号室,,27,144,5938325,,,,,,,2023-04-18,1,,,,,オフィスサカイ,0
2332,8120905006452,新規,0,2023-04-18,2023-04-18,一般社団法人ＤａｎｃｅＳｐｏｒｔ　Ｈｅｒｉｔａｇｅ　Ｊａｐａｎ,,その他の設立登記法人,大阪府,豊中市,穂積１丁目３－１,,27,203,5610856,,,,,,,2023-04-18,1,,,,,ダンススポーツヘリテージジャパン,0
2336,8122001036895,新規,0,2023-04-18,2023-04-18,エヌテック株式会社,,株式会社,大阪府,東大阪市,中新開１丁目１５番９号,,27,227,5780911,,,,,,,2023-04-18,1,,,,,エヌテック,0
2338,8130005016748,新規,0,2023-04-18,2023-04-18,一般社団法人Ｓｅｌｆ＆Ｌｉｆｅコンディショニング協会,,その他の設立登記法人,京都府,京都市下京区,仏光寺通烏丸東入上柳町３３１番地タカノハスクエア,,26,106,6008099,,,,,,,2023-04-18,1,,,,,セルフアンドライフコンディショニングキョウカイ,0
2343,8140001129809,新規,0,2023-04-18,2023-04-18,株式会社ケーデザインネットワーク,,株式会社,兵庫県,神戸市西区,丸塚１丁目１１番５号,,28,111,6512143,,,,,,,2023-04-18,1,,,,,ケーデザインネットワーク,0
2349,8150005009469,新規,0,2023-04-18,2023-04-18,一般社団法人奈良県身体障がい者団体連合会,,その他の設立登記法人,奈良県,橿原市,大久保町３２０番地の１１奈良県社会福祉総合センター内,,29,205,6340061,,,,,,,2023-04-18,1,,,,,ナラケンシンタイショウガイシャダンタイレンゴウカイ,0
2359,8180001155867,新規,0,2023-04-18,2023-04-18,株式会社リトアス,,株式会社,愛知県,知多市,八幡字筒岡１６番地７,,23,224,4780001,,,,,,,2023-04-18,1,,,,,リトアス,0
2360,8180001155891,新規,0,2023-04-18,2023-04-18,ＯＮ株式会社,,株式会社,愛知県,名古屋市中区,栄３丁目１５番３３号栄ガスビル１３階,,23,106,4600008,,,,,,,2023-04-18,1,,,,,オン,0
2361,8180001155917,新規,0,2023-04-18,2023-04-18,株式会社マサゴニア,,株式会社,愛知県,知多郡東浦町,大字森岡字前田２４番地の６,,23,442,4702101,,,,,,,2023-04-18,1,,,,,マサゴニア,0
2362,8180001155925,新規,0,2023-04-18,2023-04-18,株式会社じぶんごと,,株式会社,愛知県,名古屋市千種区,桜が丘５０桜が丘プレイス２階,,23,101,4640025,,,,,,,2023-04-18,1,,,,,ジブンゴト,0
2363,8180001155941,新規,0,2023-04-18,2023-04-18,株式会社ベルプラマー,,株式会社,愛知県,名古屋市守山区,新守町２５４番地,,23,113,4630071,,,,,,,2023-04-18,1,,,,,ベルプラマー,0
2371,8180003025102,新規,0,2023-04-18,2023-04-18,合同会社ｄｅｌｉｇｈｔ,,合同会社,愛知県,名古屋市中村区,名駅４丁目２４番５号第２森ビル４０１,,23,105,4500002,,,,,,,2023-04-18,1,,,,,ディライト,0
2372,8180003025135,新規,0,2023-04-18,2023-04-18,合同会社コトブキ,,合同会社,愛知県,海部郡飛島村,大宝６丁目３８番地の２,,23,427,4901438,,,,,,,2023-04-18,1,,,,,コトブキ,0
2374,8180303005679,新規,0,2023-04-18,2023-04-18,合資会社ＷｉｌｌＯ,,合資会社,愛知県,豊橋市,南大清水町字元町１９２番地の７,,23,201,4418132,,,,,,,2023-04-18,1,,,,,ウィロ,0
2375,8180305009463,新規,0,2023-04-18,2023-04-18,一般社団法人空き家・空き地管理活用支援協会,,その他の設立登記法人,愛知県,高浜市,沢渡町３丁目７番地１３岩角ビル１Ｆ,,23,227,4441333,,,,,,,2023-04-18,1,,,,,アキヤアキチカンリカツヨウシエンキョウカイ,0
2378,8190001030334,新規,0,2023-04-18,2023-04-18,株式会社サムズオフィス,,株式会社,三重県,いなべ市,大安町丹生川中７０１番地,,24,214,5110262,,,,,,,2023-04-18,1,,,,,サムズオフィス,0
2379,8190001030342,新規,0,2023-04-18,2023-04-18,株式会社２ｎｄ,,株式会社,三重県,伊賀市,守田町１０２６番地,,24,216,5180824,,,,,,,2023-04-18,1,,,,,セカンド,0
2389,8220005008744,新規,0,2023-04-18,2023-04-18,医療法人社団たきの整形外科クリニック,,その他の設立登記法人,石川県,金沢市,疋田２丁目４６番地,,17,201,9200003,,,,,,,2023-04-18,1,,,,,タキノセイケイゲカクリニック,0
2396,8250003003249,新規,0,2023-04-18,2023-04-18,合同会社ｂｙｓｙｓｔｅｍ,,合同会社,山口県,山口市,平井４１１番地１－２０７,,35,203,7530831,,,,,,,2023-04-18,1,,,,,ビーワイシステム,0
2398,8260001037875,新規,0,2023-04-18,2023-04-18,Ｌｙｏｓ株式会社,,株式会社,岡山県,倉敷市,玉島長尾２３番地４サンライズ長尾Ａ２０２,,33,202,7100251,,,,,,,2023-04-18,1,,,,,ライオス,0
2399,8260002016226,新規,0,2023-04-18,2023-04-18,有限会社アサノ企画,,有限会社,岡山県,倉敷市,有城５９３番地,,33,202,7100031,,,,,,,2023-04-18,1,,,,,アサノキカク,0
2403,8290001101174,新規,0,2023-04-18,2023-04-18,株式会社ＮＲコーポレーション,,株式会社,福岡県,福岡市東区,みなと香椎３丁目４番１号,,40,131,8130019,,,,,,,2023-04-18,1,,,,,エヌアールコーポレーション,0
2404,8290001101182,新規,0,2023-04-18,2023-04-18,株式会社エステートパートナー,,株式会社,福岡県,福津市,中央２丁目５番１０号エクセレントセンチュリーＩＩ１０１号室,00130156,40,224,8113217,,,,,,,2023-04-18,1,,,,,エステートパートナー,0
2405,8290001101208,新規,0,2023-04-18,2023-04-18,株式会社ＫＨＬ,,株式会社,福岡県,福岡市中央区,薬院１丁目６番２７号エーデル薬院２Ｆ,,40,133,8100022,,,,,,,2023-04-18,1,,,,,ケーエイチエル,0
2408,8310005008677,新規,0,2023-04-18,2023-04-18,社会保険労務士法人ながさき宝町事務所,,その他の設立登記法人,長崎県,長崎市,宝町５番２号竹馬ビル４階,,42,201,8500045,,,,,,,2023-04-18,1,,,,,ナガサキタカラマチジムショ,0
2410,8320005010070,新規,0,2023-04-18,2023-04-18,ＮＰＯ法人１０８猫,,その他の設立登記法人,大分県,大分市,田尻南２丁目５番１０号,,44,201,8701145,,,,,,,2023-04-18,1,,,,,トワネコ,0
2422,8380001033615,新規,0,2023-04-18,2023-04-18,株式会社ＳＡＳＡＹＡ商会,,株式会社,福島県,福島市,野田町４丁目１０番４８号,,07,201,9608055,,,,,,,2023-04-18,1,,,,,ササヤショウカイ,0
2428,8410001013464,新規,0,2023-04-18,2023-04-18,株式会社サイバーインターフェース,,株式会社,秋田県,能代市,畠町１１－２３,,05,202,0160821,,,,,,,2023-04-18,1,,,,,サイバーインターフェース,0
2429,8410005006514,新規,0,2023-04-18,2023-04-18,特定非営利活動法人Ｋｕｌｉｍａ　Ｊｕｕ,,その他の設立登記法人,秋田県,能代市,二ツ井町梅内字窓山１０３番地,,05,202,0183131,,,,,,,2023-04-18,1,,,,,クリマジュウ,0
2434,8430001088728,新規,0,2023-04-18,2023-04-18,株式会社ササジマ,,株式会社,北海道,日高郡新ひだか町,静内青柳町２丁目１１番１号,,01,610,0560019,,,,,,,2023-04-18,1,,,,,ササジマ,0
2435,8430001088876,新規,0,2023-04-18,2023-04-18,株式会社ファーストクリーンシステム,,株式会社,北海道,小樽市,東雲町１番ＡＭＳ　ｋａｉｈｏｕｒｏｕ８０７号,,01,203,0470026,,,,,,,2023-04-18,1,,,,,ファーストクリーンシステム,0
2438,8430003014905,新規,0,2023-04-18,2023-04-18,合同会社壮明,,合同会社,北海道,苫小牧市,澄川町４丁目１４番２６号,,01,213,0591271,,,,,,,2023-04-18,1,,,,,ソウメイ,0
2439,8430003014938,新規,0,2023-04-18,2023-04-18,北海道幸和化成合同会社,,合同会社,北海道,札幌市北区,二十五条西四丁目１番２４－５０９号,,01,102,0010000,,,,,,,2023-04-18,1,,,,,ホッカイドウコウワカセイ,0
2443,8460005001568,新規,0,2023-04-18,2023-04-18,行政書士法人加藤事務所,,その他の設立登記法人,北海道,釧路市,末広町１０丁目１番地６サンエス釧路駅前ビル４階,,01,206,0850014,,,,,,,2023-04-18,1,,,,,カトウジムショ,0
2444,8470001019571,新規,0,2023-04-18,2023-04-18,株式会社ＷＥＬＬ　ＢＥＩＮＧ,,株式会社,香川県,高松市,中野町１９番２１号,,37,201,7600008,,,,,,,2023-04-18,1,,,,,ウェルビーイング,0
2445,8470003002402,新規,0,2023-04-18,2023-04-18,Ｓｃｅｎｔｅｒａｓ合同会社,,合同会社,香川県,善通寺市,碑殿町７３番地,,37,204,7650062,,,,,,,2023-04-18,1,,,,,センテラス,0
2446,8480001012071,新規,0,2023-04-18,2023-04-18,株式会社すこやかいろは研究所,,株式会社,徳島県,鳴門市,大麻町萩原字姥ケ懐５２番地,,36,202,7790221,,,,,,,2023-04-18,1,,,,,スコヤカイロハケンキュウショ,0
2452,8700150115569,新規,0,2023-04-18,2023-04-18,ｓｈｅｎｚｈｅｎｓｈｉｐｉｎｇｙｏｕｋｅｊｉｙｏｕｘｉａｎｇｏｎｇｓｉ,,外国会社等,,,,,,,,ｍｉｎ　ｚｈｉ　ｊｉｅ　ｄａｏ　ｂｅｉ　ｚｈａｎ　ｓｈｅ　ｑｕ　ｃｈｕａｎｇ　ｙｅ　ｈｕａ　ｙｕａｎ　１７７－１８０　ｄｏｎｇ　１００９　ｓｈｅｎ　ｚｈｅｎ　ｓｈｉ　ｌｏｎｇ　ｈｕａ　ｑｕ　ｇｕａｎｇ　ｄｏｎｇ　ｓｈｅｎｇ　５１８１１０　ＣＮ,,,,,,2023-04-18,1,,,,,シェンジェンシーピンヨウコージーヨウシエンゴンスー,0
2458,9010001234538,新規,0,2023-04-18,2023-04-18,株式会社ＦＬＵＯＲＩＴＥ,,株式会社,東京都,千代田区,内神田１丁目２番１５号,,13,101,1010047,,,,,,,2023-04-18,1,,,,,フローライト,0
2459,9010001234554,新規,0,2023-04-18,2023-04-18,リクシア株式会社,,株式会社,東京都,千代田区,大手町１丁目４番２号,,13,101,1000004,,,,,,,2023-04-18,1,,,,,リクシア,0
2460,9010001234570,新規,0,2023-04-18,2023-04-18,株式会社ＬＥＡＰ‐ＰＯＷＥＲ,,株式会社,東京都,中央区,日本橋横山町７番１９号第３５イチオクビル３－１４,,13,102,1030003,,,,,,,2023-04-18,1,,,,,リープパワー,0
2461,9010001234579,新規,0,2023-04-18,2023-04-18,株式会社Ｐ＆Ｆ,,株式会社,東京都,千代田区,霞が関１丁目４番地１日土地ビル４階,,13,101,1000013,,,,,,,2023-04-18,1,,,,,ピーアンドエフ,0
2462,9010001234587,新規,0,2023-04-18,2023-04-18,さくらコンサルティング株式会社,,株式会社,東京都,千代田区,岩本町２丁目４番５－Ｒ１００７号,,13,101,1010032,,,,,,,2023-04-18,1,,,,,サクラコンサルティング,0
2463,9010001234612,新規,0,2023-04-18,2023-04-18,ＭＣエコノミック・エステート・ディベロップメント・ベトナム株式会社,,株式会社,東京都,千代田区,大手町１丁目４番２号,,13,101,1000004,,,,,,,2023-04-18,1,,,,,エムシーエコノミックエステートディベロップメントベトナム,0
2464,9010001234637,新規,0,2023-04-18,2023-04-18,Ｔｅｃｈ　ＲＥＧＡＬＯ株式会社,,株式会社,東京都,千代田区,神田駿河台４丁目２番地３ブリザイド御茶ノ水８０１,,13,101,1010062,,,,,,,2023-04-18,1,,,,,テックレガーロ,0
2466,9010003040348,新規,0,2023-04-18,2023-04-18,合同会社柱,,合同会社,東京都,中央区,日本橋横山町９番１４号カスタリア東日本橋４０４,,13,102,1030003,,,,,,,2023-04-18,1,,,,,ハシラ,0
2468,9010005036534,新規,0,2023-04-18,2023-04-18,ＲＢソーラーミストホールディングス一般社団法人,,その他の設立登記法人,東京都,中央区,八丁堀４丁目２番１０号ＡＯＪ税理士法人内,,13,102,1040032,,,,,,,2023-04-18,1,,,,,アールビーソーラーミストホールディングス,0
2478,9010401173807,新規,0,2023-04-18,2023-04-18,株式会社ＳＷＥＬＬ,,株式会社,東京都,港区,南青山１丁目３番１－９０５号,,13,103,1070062,,,,,,,2023-04-18,1,,,,,スウェル,0
2479,9010401173823,新規,0,2023-04-18,2023-04-18,株式会社よしの,,株式会社,東京都,港区,六本木４丁目１０番５号,,13,103,1060032,,,,,,,2023-04-18,1,,,,,ヨシノ,0
2480,9010401173864,新規,0,2023-04-18,2023-04-18,株式会社ＥＤＥＸ企画,,株式会社,東京都,港区,六本木７丁目２番２８号,,13,103,1060032,,,,,,,2023-04-18,1,,,,,エデックスキカク,0
2483,9010403029949,新規,0,2023-04-18,2023-04-18,Ｍａｌｔｏｎ　Ｊａｐａｎ合同会社,,合同会社,東京都,港区,元麻布３丁目１２番２０号,,13,103,1060046,,,,,,,2023-04-18,1,,,,,マルトンジャパン,0
2484,9010405021994,新規,0,2023-04-18,2023-04-18,一般社団法人日本理学療法管理学会,,その他の設立登記法人,東京都,港区,六本木７丁目１１番１０号,,13,103,1060032,,,,,,,2023-04-18,1,,,,,ニホンリガクリョウホウカンリガッカイ,0
2485,9010405022002,新規,0,2023-04-18,2023-04-18,一般社団法人日本心理ＦＴ協会,,その他の設立登記法人,東京都,港区,南青山２丁目２番１５号,,13,103,1070062,,,,,,,2023-04-18,1,,,,,ニホンシンリエフティーキョウカイ,0
2486,9010405022068,新規,0,2023-04-18,2023-04-18,Ａｌｂｕｌａ特定目的会社,,その他の設立登記法人,東京都,港区,西新橋１丁目１番１号ＥＰコンサルティングサービス内,,13,103,1050003,,,,,,,2023-04-18,1,,,,,アルブラ,0
2494,9010503006955,新規,0,2023-04-18,2023-04-18,辰宇合同会社,,合同会社,東京都,台東区,上野３丁目１６－２天翔ビル上野末広町４０９号室,,13,106,1100005,,,,,,,2023-04-18,1,,,,,タツウ,0
2497,9010605004188,新規,0,2023-04-18,2023-04-18,一般社団法人クルーズイズム,,その他の設立登記法人,東京都,江東区,東雲１丁目９番１４－６０３号,,13,108,1350062,,,,,,,2023-04-18,1,,,,,クルーズイズム,0
2499,9010701044121,新規,0,2023-04-18,2023-04-18,ほんのきもち株式会社,,株式会社,東京都,品川区,東大井２丁目１４番１－３０６号,,13,109,1400011,,,,,,,2023-04-18,1,,,,,ホンノキモチ,0
2500,9010701044146,新規,0,2023-04-18,2023-04-18,株式会社コンテレノ,,株式会社,東京都,品川区,西五反田１丁目５番１号,,13,109,1410031,,,,,,,2023-04-18,1,,,,,コンテレノ,0
2504,9010801033874,新規,0,2023-04-18,2023-04-18,株式会社Ｂｅａｕｔｙ＆Ｗｅｌｌｎｅｓｓ,,株式会社,東京都,大田区,西糀谷４丁目９番２４号,,13,111,1440034,,,,,,,2023-04-18,1,,,,,ビュウティーアンドウエルネス,0
2505,9010803004510,新規,0,2023-04-18,2023-04-18,合同会社レゼル,,合同会社,東京都,大田区,田園調布２丁目２３番９号,,13,111,1450071,,,,,,,2023-04-18,1,,,,,レゼル,0
2515,9011001153769,新規,0,2023-04-18,2023-04-18,Ａｐｐｌｉｖｅｒ株式会社,,株式会社,東京都,渋谷区,神宮前６丁目２３番４号桑野ビル２階,,13,113,1500001,,,,,,,2023-04-18,1,,,,,アップライバー,0
2516,9011001153802,新規,0,2023-04-18,2023-04-18,ＮＹメンタルケアサロン株式会社,,株式会社,東京都,渋谷区,猿楽町１４番２８号ヒルハイツ代官山,,13,113,1500033,,,,,,,2023-04-18,1,,,,,エヌワイメンタルケアサロン,0
2517,9011001153884,新規,0,2023-04-18,2023-04-18,株式会社Ｍｅｄｉｃｕｓ　Ｉｎｎｏｖａｔｉｏｎ,,株式会社,東京都,渋谷区,恵比寿西２丁目１９番９号フランセスビル１階,,13,113,1500021,,,,,,,2023-04-18,1,,,,,メディカスイノベーション,0
2520,9011003016643,新規,0,2023-04-18,2023-04-18,合同会社ＵｐｓＬｅａｄ,,合同会社,東京都,渋谷区,神宮前６丁目２３番４号桑野ビル２階,,13,113,1500001,,,,,,,2023-04-18,1,,,,,アップスリード,0
2521,9011003016651,新規,0,2023-04-18,2023-04-18,ＤＲＡＧＯＮプロジェクト合同会社,,合同会社,東京都,渋谷区,渋谷２丁目１０番１５号,,13,113,1500002,,,,,,,2023-04-18,1,,,,,ドラゴンプロジェクト,0
2528,9011103012939,新規,0,2023-04-18,2023-04-18,ＮＫフラメンコ合同会社,,合同会社,東京都,新宿区,上落合１丁目３０－１１ハウス多鹿１０２,,13,104,1610034,,,,,,,2023-04-18,1,,,,,ニホンニコイシタフラメンコ,0
2531,9011301028613,新規,0,2023-04-18,2023-04-18,株式会社ＫＳ構造デザイン,,株式会社,東京都,杉並区,荻窪５丁目１１番１２号,,13,115,1670051,,,,,,,2023-04-18,1,,,,,ケーエスコウゾウデザイン,0
2536,9011503005575,新規,0,2023-04-18,2023-04-18,合同会社Ｂｒｉｇｈｔ　Ｌｉｖｉｎｇ　Ｅｓｔａｔｅ,,合同会社,東京都,荒川区,町屋２丁目１９番１４号,,13,118,1160001,,,,,,,2023-04-18,1,,,,,ブライトリビングエステート,0
2538,9011701026159,新規,0,2023-04-18,2023-04-18,株式会社Ｈａｖｅ　ｉｔ　ａｌｌ,,株式会社,東京都,江戸川区,船堀７丁目２０番１９号,,13,123,1340091,,,,,,,2023-04-18,1,,,,,ハブイットオール,0
2539,9011701026167,新規,0,2023-04-18,2023-04-18,株式会社ＬＩＶＥ　ＣＯＬＯＲ,,株式会社,東京都,江戸川区,西小岩４丁目１番２０－９０２号千成ビル,,13,123,1330057,,,,,,,2023-04-18,1,,,,,リブカラー,0
2542,9011803005606,新規,0,2023-04-18,2023-04-18,八白合同会社,,合同会社,東京都,葛飾区,堀切６丁目１９番３号,,13,122,1240006,,,,,,,2023-04-18,1,,,,,ハッパク,0
2543,9011803005614,新規,0,2023-04-18,2023-04-18,藏田建設合同会社,,合同会社,東京都,足立区,東伊興２丁目６番３号,,13,121,1210801,,,,,,,2023-04-18,1,,,,,クラタケンセツ,0
2547,9012401040425,新規,0,2023-04-18,2023-04-18,株式会社ｂｅｅｔａｉｌｏｒ,,株式会社,東京都,武蔵野市,吉祥寺本町１丁目２０番１号吉祥寺永谷シティプラザ１００２,,13,203,1800004,,,,,,,2023-04-18,1,,,,,ビーテイラー,0
2548,9012401040433,新規,0,2023-04-18,2023-04-18,株式会社スターセキュリティ,,株式会社,東京都,多摩市,永山２丁目１６番地の２４ストークマンション小礒２、４０３,,13,224,2060025,,,,,,,2023-04-18,1,,,,,スターセキュリティ,0
2549,9012403005946,新規,0,2023-04-18,2023-04-18,合同会社石黒,,合同会社,東京都,三鷹市,井の頭４丁目５‐８コーポ石黒２０６,,13,204,1810001,,,,,,,2023-04-18,1,,,,,イシグロ,0
2550,9012805003192,新規,0,2023-04-18,2023-04-18,特定非営利活動法人ふぁそら,,その他の設立登記法人,東京都,日野市,落川６３６番地,,13,212,1910034,,,,,,,2023-04-18,1,,,,,ファソラ,0
2553,9013303006588,新規,0,2023-04-18,2023-04-18,世光住宅設備合同会社,,合同会社,東京都,豊島区,南池袋１丁目１６－２０ぬかりやビル６階,,13,116,1710022,,,,,,,2023-04-18,1,,,,,セコウジュウタクセツビ,0
2561,9020001151138,新規,0,2023-04-18,2023-04-18,株式会社ブリーズマスト,,株式会社,神奈川県,横浜市西区,西戸部町２丁目１１９番地１５,,14,103,2200046,,,,,,,2023-04-18,1,,,,,ブリーズマスト,0
2562,9020001151146,新規,0,2023-04-18,2023-04-18,株式会社リベルテ,,株式会社,神奈川県,横浜市西区,中央１丁目２９番１６号ＲＯＧＯＳ２１戸部３階,,14,103,2200051,,,,,,,2023-04-18,1,,,,,リベルテ,0
2563,9020001151187,新規,0,2023-04-18,2023-04-18,株式会社バグスエンターテイメント,,株式会社,神奈川県,川崎市多摩区,東生田２丁目５番８号,,14,135,2140031,,,,,,,2023-04-18,1,,,,,バグスエンターテイメント,0
2564,9020001151212,新規,0,2023-04-18,2023-04-18,高勇建設株式会社,00130159,株式会社,神奈川県,横浜市港南区,日野南６丁目１番４３－２０６号,,14,111,2340055,,,,,,,2023-04-18,1,,,,,コウユウケンセツ,0
2566,9020003023723,新規,0,2023-04-18,2023-04-18,合同会社ラグーナハッチ,,合同会社,神奈川県,横浜市中区,本郷町３丁目１５８番地１,,14,104,2310843,,,,,,,2023-04-18,1,,,,,ラグーナハッチ,0
2574,9021001078684,新規,0,2023-04-18,2023-04-18,株式会社在宅獣医療Ｃｏｃｃｏｌｅ,,株式会社,神奈川県,伊勢原市,高森台２丁目１１番１号,,14,214,2591115,,,,,,,2023-04-18,1,,,,,ザイタクジュウイリョウコッコレ,0
2575,9021001078734,新規,0,2023-04-18,2023-04-18,株式会社ＡＬＨＡＬＩ,,株式会社,神奈川県,中郡二宮町,山西８５７番地,,14,342,2590124,,,,,,,2023-04-18,1,,,,,アルハリ,0
2577,9021003012988,新規,0,2023-04-18,2023-04-18,合同会社人の価値,,合同会社,神奈川県,海老名市,扇町１４番２－１９０１号,,14,215,2430436,,,,,,,2023-04-18,1,,,,,ヒトノカチ,0
2579,9030001153372,新規,0,2023-04-18,2023-04-18,株式会社永井情報企画,,株式会社,埼玉県,さいたま市中央区,本町西３丁目１５番３－１０７号,,11,105,3380004,,,,,,,2023-04-18,1,,,,,ナガイジョウホウキカク,0
2580,9030001153397,新規,0,2023-04-18,2023-04-18,株式会社エフダイレクト,,株式会社,埼玉県,さいたま市北区,宮原町１丁目１０２番地１－３０１号,,11,102,3310812,,,,,,,2023-04-18,1,,,,,エフダイレクト,0
2581,9030001153414,新規,0,2023-04-18,2023-04-18,株式会社ＳＥＮＦＩＮＩＴＹ,,株式会社,埼玉県,草加市,旭町２丁目５番３７－６０２号,,11,221,3400053,,,,,,,2023-04-18,1,,,,,センフィニティ,0
2582,9030001153422,新規,0,2023-04-18,2023-04-18,株式会社御代川,,株式会社,埼玉県,朝霞市,本町１丁目３７番１２号,,11,227,3510011,,,,,,,2023-04-18,1,,,,,ミヨカワ,0
2583,9030001153430,新規,0,2023-04-18,2023-04-18,ＩＳＡトラック販売株式会社,,株式会社,埼玉県,八潮市,八潮７丁目１０－１８,,11,234,3400815,,,,,,,2023-04-18,1,,,,,アイエスエイトラックハンバイ,0
2584,9030001153439,新規,0,2023-04-18,2023-04-18,株式会社ＡＯＩ,,株式会社,埼玉県,所沢市,星の宮１丁目２番８号,,11,208,3591127,,,,,,,2023-04-18,1,,,,,アオイ,0
2589,9030003021602,新規,0,2023-04-18,2023-04-18,オプスラボ合同会社,,合同会社,埼玉県,川口市,大字小谷場５３２番地１,,11,203,3330857,,,,,,,2023-04-18,1,,,,,オプスラボ,0
2593,9040001128019,新規,0,2023-04-18,2023-04-18,株式会社きらら,,株式会社,千葉県,習志野市,津田沼１丁目３番１１号昭和第三ビル６階,,12,216,2750016,,,,,,,2023-04-18,1,,,,,キララ,0
2597,9040003022426,新規,0,2023-04-18,2023-04-18,合同会社Ｔａｃｋ,,合同会社,千葉県,船橋市,田喜野井４丁目２９－６－５０７,,12,204,2740073,,,,,,,2023-04-18,1,,,,,タック,0
2601,9050001052713,新規,0,2023-04-18,2023-04-18,株式会社商道,,株式会社,茨城県,龍ケ崎市,川原代町４０００番地１,,08,208,3010005,,,,,,,2023-04-18,1,,,,,ショウドウ,0
2609,9070001040336,新規,0,2023-04-18,2023-04-18,Ｒｅｓｏｎａｔｅ株式会社,,株式会社,群馬県,高崎市,矢中町４４番地１５,,10,202,3701203,,,,,,,2023-04-18,1,,,,,レゾネイト,0
2610,9070001040344,新規,0,2023-04-18,2023-04-18,株式会社須藤電気商会,,株式会社,群馬県,前橋市,富士見町石井２１３５番地２６,,10,201,3710105,,,,,,,2023-04-18,1,,,,,ストウデンキショウカイ,0
2611,9070003004909,新規,0,2023-04-18,2023-04-18,ファームハンド合同会社,,合同会社,群馬県,沼田市,桜町１９６７番地１９ポムドールＥ号,,10,206,3780052,,,,,,,2023-04-18,1,,,,,ファームハンド,0
2625,9100003006975,新規,0,2023-04-18,2023-04-18,合同会社木ＫＵＢＡＲＩ,,合同会社,長野県,上田市,神畑３１番地４,,20,203,3861103,,,,,,,2023-04-18,1,,,,,キクバリ,0
2633,9120001254054,新規,0,2023-04-18,2023-04-18,株式会社ＴＳＵＲＩＤＯＲＡ,,株式会社,大阪府,大阪市中央区,内平野町２丁目２番４号,,27,128,5400037,,,,,,,2023-04-18,1,,,,,ツリドラ,0
2634,9120001254145,新規,0,2023-04-18,2023-04-18,Ｍｅａｔ株式会社,,株式会社,大阪府,大阪市中央区,大手前１丁目７－３１ＯＭＭ１階ＳｅｒｖｉｃｅＯｆｆｉｃｅＷ天満橋,,27,128,5400008,,,,,,,2023-04-18,1,,,,,ミート,0
2635,9120001254153,新規,0,2023-04-18,2023-04-18,株式会社マイン,,株式会社,大阪府,大阪市中央区,備後町３丁目１番２－２ＦＦ号,,27,128,5410051,,,,,,,2023-04-18,1,,,,,マイン,0
2638,9120003023762,新規,0,2023-04-18,2023-04-18,合同会社Ｐａｔａｔａ,,合同会社,大阪府,大阪市北区,梅田１丁目２番２号大阪駅前第２ビル１２－１２,,27,127,5300001,,,,,,,2023-04-18,1,,,,,パタタ,0
2639,9120003023861,新規,0,2023-04-18,2023-04-18,合同会社Ｒ　ｉｎｔｅｒｉｏｒ,,合同会社,大阪府,大阪市西成区,松３丁目９番２８号,,27,122,5570034,,,,,,,2023-04-18,1,,,,,アールインテリア,0
2643,9120103005173,新規,0,2023-04-18,2023-04-18,合同会社Ｈ　ｔｈｒｅｅ,,合同会社,大阪府,泉南郡岬町,深日２６０９番地,,27,366,5990303,,,,,,,2023-04-18,1,,,,,エイチスリー,0
2648,9120901047391,新規,0,2023-04-18,2023-04-18,株式会社リキスポーツ,,株式会社,大阪府,箕面市,船場西２丁目２番１号,,27,220,5620036,,,,,,,2023-04-18,1,,,,,リキスポーツ,0
2649,9120901047425,新規,0,2023-04-18,2023-04-18,ＧＬＡＤＥＮ株式会社,,株式会社,大阪府,茨木市,新和町６番３号グリーンハイツ１Ｂ,,27,211,5670855,,,,,,,2023-04-18,1,,,,,グラデン,0
2655,9130001074088,新規,0,2023-04-18,2023-04-18,株式会社都いんてりあ,,株式会社,京都府,京都市上京区,上ノ下立売通御前通西入二丁目上る堀川町５４３番地,,26,102,6020000,,,,,,,2023-04-18,1,,,,,ミヤコインテリア,0
2662,9140003018983,新規,0,2023-04-18,2023-04-18,Ｄ．Ｄ．Ｊａｐａｎ合同会社,,合同会社,兵庫県,神戸市中央区,多聞通５丁目１番１３号,,28,110,6500015,,,,,,,2023-04-18,1,,,,,ディーディージャパン,0
2663,9140003018991,新規,0,2023-04-18,2023-04-18,Ｓｔｅｐ　ｕｐ合同会社,,合同会社,兵庫県,宝塚市,武庫山２丁目１８番２－１号,,28,214,6650005,,,,,,,2023-04-18,1,,,,,ステップアップ,0
2675,9180001155833,新規,0,2023-04-18,2023-04-18,株式会社サン・ベルツリー,,株式会社,愛知県,瀬戸市,八幡台６丁目７番地,,23,204,4890861,,,,,,,2023-04-18,1,,,,,サンベルツリー,0
2676,9180001155882,新規,0,2023-04-18,2023-04-18,株式会社ライフスタイル,,株式会社,愛知県,瀬戸市,南山町２丁目１３４番地の７,,23,204,4890986,,,,,,,2023-04-18,1,,,,,ライフスタイル,0
2677,9180001155908,新規,0,2023-04-18,2023-04-18,株式会社街工房,,株式会社,愛知県,常滑市,西之口３丁目８番地の１,,23,216,4790863,,,,,,,2023-04-18,1,,,,,マチコウボウ,0
2678,9180001155924,新規,0,2023-04-18,2023-04-18,株式会社Ｕｎｉｑｕｅ　Ｐａｒｔｎｅｒｓ,,株式会社,愛知県,名古屋市西区,城西２丁目１７番１８号グランデ城西４０１号,,23,104,4510031,,,,,,,2023-04-18,1,,,,,ユニークパートナーズ,0
2679,9180001155932,新規,0,2023-04-18,2023-04-18,株式会社Ｅｘｉｔ　Ｐｌａｎ,,株式会社,愛知県,一宮市,花池１丁目２６番６号リネット大和花池２０３,,23,203,4910914,,,,,,,2023-04-18,1,,,,,イグジットプラン,0
2683,9180005020190,新規,0,2023-04-18,2023-04-18,一般社団法人脳育ギフトアカデミー,,その他の設立登記法人,愛知県,名古屋市西区,那古野２丁目１９番１８号シティハウス名駅那古野３０３号,,23,104,4510042,,,,,,,2023-04-18,1,,,,,ノウイクギフトアカデミー,0
2687,9190001030341,新規,0,2023-04-18,2023-04-18,株式会社すぎもと,,株式会社,三重県,桑名市,大字矢田７１３番地１５,,24,205,5110821,,,,,,,2023-04-18,1,,,,,スギモト,0
2688,9190003004302,新規,0,2023-04-18,2023-04-18,合同会社はるか,,合同会社,三重県,四日市市,三滝台３丁目５番地１４,,24,202,5120933,,,,,,,2023-04-18,1,,,,,ハルカ,0
2695,9230001019792,新規,0,2023-04-18,2023-04-18,株式会社狩野工業,,株式会社,富山県,富山市,小杉４２番地９,,16,201,9398063,,,,,,,2023-04-18,1,,,,,カノコウギョウ,0
2696,9230003002004,新規,0,2023-04-18,2023-04-18,合同会社リンクサカモト,,合同会社,富山県,小矢部市,埴生４７８８番地２上の台ハイツ２０１号室,,16,209,9320836,,,,,,,2023-04-18,1,,,,,リンクサカモト,0
2700,9240001061364,新規,0,2023-04-18,2023-04-18,株式会社ゴダイ,,株式会社,広島県,東広島市,河内町入野４１８番地,,34,212,7392208,,,,,,,2023-04-18,1,,,,,ゴダイ,0
2701,9240001061372,新規,0,2023-04-18,2023-04-18,東洋フリート株式会社,,株式会社,広島県,広島市西区,己斐東１丁目４番３号,,34,104,7330811,,,,,,,2023-04-18,1,,,,,トウヨウフリート,0
2711,9290001101207,新規,0,2023-04-18,2023-04-18,株式会社貴塗装,,株式会社,福岡県,福岡市南区,長住２丁目３番２３－１０１号,,40,134,8111362,,,,,,,2023-04-18,1,,,,,タカトソウ,0
2712,9290001101256,新規,0,2023-04-18,2023-04-18,株式会社ウェルビート,,株式会社,福岡県,飯塚市,新飯塚４番１８号,,40,205,8200005,,,,,,,2023-04-18,1,,,,,ウェルビート,0
2715,9290003013763,新規,0,2023-04-18,2023-04-18,九州インダストリー合同会社,,合同会社,福岡県,福岡市西区,今宿上ノ原２０２－１７３,,40,135,8190163,,,,,,,2023-04-18,1,,,,,キュウシュウインダストリー,0
2716,9290003013805,新規,0,2023-04-18,2023-04-18,合同会社松本家,,合同会社,福岡県,福岡市博多区,諸岡４丁目３－１,,40,132,8120894,,,,,,,2023-04-18,1,,,,,マツモトケ,0
2717,9290003013813,新規,0,2023-04-18,2023-04-18,合同会社エムアクトワークス,,合同会社,福岡県,福岡市中央区,警固１丁目１０番４－８０５号,,40,133,8100023,,,,,,,2023-04-18,1,,,,,エムアクトワークス,0
2722,9320001019684,新規,0,2023-04-18,2023-04-18,株式会社ＢｌａＤｕｎ,,株式会社,大分県,大分市,古国府５丁目２番７号,,44,201,8700844,,,,,,,2023-04-18,1,,,,,ブラダン,0
2723,9320001019701,新規,0,2023-04-18,2023-04-18,株式会社グレイスプラス,,株式会社,大分県,大分市,大手町３丁目３番１０号,,44,201,8700022,,,,,,,2023-04-18,1,,,,,グレイスプラス,0
2730,9330001030764,新規,0,2023-04-18,2023-04-18,株式会社フロムアース,,株式会社,熊本県,球磨郡相良村,大字川辺７２６番地１,,43,510,8680093,,,,,,,2023-04-18,1,,,,,フロムアース,0
2737,9370001049850,新規,0,2023-04-18,2023-04-18,ルシエヴ株式会社,,株式会社,宮城県,石巻市,あゆみ野２丁目１番７号,,04,202,9860850,,,,,,,2023-04-18,1,,,,,ルシエヴ,0
2745,9380002021997,新規,0,2023-04-18,2023-04-18,有限会社東電設,,有限会社,福島県,いわき市,東田町金子平７６番地,,07,204,9748212,,,,,,,2023-04-18,1,,,,,アズマデンセツ,0
2753,9430001088801,新規,0,2023-04-18,2023-04-18,エスティープラント株式会社,,株式会社,北海道,苫小牧市,小糸井町１丁目５番１５号,,01,213,0530813,,,,,,,2023-04-18,1,,,,,エスティープラント,0
2754,9430001088859,新規,0,2023-04-18,2023-04-18,株式会社ＬＯＡ,,株式会社,北海道,石狩市,緑苑台東三条３丁目８５番地,,01,235,0613223,,,,,,,2023-04-18,1,,,,,エルオーエー,0
2759,9470003002401,新規,0,2023-04-18,2023-04-18,合同会社ＡＮＴＩ　ＪＡＰＡＮ,,合同会社,香川県,高松市,木太町１８４９番地,,37,201,7600080,,,,,,,2023-04-18,1,,,,,アンチジャパン,0
2760,9480001012070,新規,0,2023-04-18,2023-04-18,Ｒｅ‐Ｌｉｆｅ株式会社,,株式会社,徳島県,海部郡海陽町,大里字松ノ本６４番地,,36,388,7750203,,,,,,,2023-04-18,1,,,,,リライフ,0
2765,9700150115519,新規,0,2023-04-18,2023-04-18,ＣｏｓＢＥ　ｉｎｃｏｒｐｏｒａｔｅｄ,,外国会社等,宮城県,仙台市青葉区,錦ケ丘２丁目１０番地の１０,,04,101,9893123,アメリカ合衆国デラウェア州ドーバー市ストリートエイザグリーン８番地,,,,,,2023-04-18,1,,,,,コスビーインコーポレイテツド,0
2766,9700150115568,新規,0,2023-04-18,2023-04-18,ｓｈｅｎｚｈｅｎｓｈｉｑｉｑｉｌｅｋｅｊｉｙｏｕｘｉａｎｇｏｎｇｓｉ,,外国会社等,,,,,,,,ｌｏｎｇｇａｎｇｑｕｐｉｎｇｈｕｊｉｅｄａｏｈｅｈｕａｓｈｅｑｕｈｕａｎａｎｄａｄａｏｙｉｈａｏ　ｈｕａｎａｎｇｕｏｊｉｐｉｇｅｐｉｊｕｙｕａｎｆｕｌｉａｏｗｕｌｉｕｑｕｅｒｑｉ４Ｇ－１５９　ｓｈｅｎｚｈｅｎｓｈｉ　ｇｕａｎｇｄｏｎｇｓｈｅｎｇ　５１８１１６　ＣＮ,,,,,,2023-04-18,1,,,,,シェンジェンシーチーチーラーコージーヨウシエンゴンスー,0
