sequenceNumber,corporateNumber,process,correct,updateDate,changeDate,name,nameImageId,kind,prefectureName,cityName,streetNumber,addressImageId,prefectureCode,cityCode,postCode,addressOutside,addressOutsideImageId,closeDate,closeCause,successorCorporateNumber,changeCause,assignmentDate,latest,enName,enPrefectureName,enCityName,enAddressOutside,furigana,hihyoji
12,1010001124416,登記記録の閉鎖等,0,2021-08-04,2021-07-20,株式会社ＨＭＲＩ,,株式会社,東京都,台東区,台東４丁目７番５号,,13,106,1100016,,,2021-07-20,清算の結了等,,,2015-10-05,1,,,,,エイチエムアールアイ,0
24,1010005013573,登記記録の閉鎖等,0,2021-08-04,2021-07-21,一般社団法人メディカル・ホールディング・ワン,,その他の設立登記法人,東京都,千代田区,外神田６丁目８番１０号牧公認会計士事務所内,,13,101,1010021,,,2021-07-21,清算の結了等,,,2015-10-05,1,,,,,メディカルホールディングワン,0
35,1010403010180,登記記録の閉鎖等,0,2021-08-04,2021-08-03,シグマパワーホールディングス合同会社,,合同会社,東京都,港区,芝浦１丁目１番１号,,13,103,1050023,,,2021-08-03,合併による解散等,7020001121200,令和３年７月１日神奈川県川崎市幸区堀川町７２番地３４東芝エネルギーシステムズ株式会社（7020001121200）に合併し解散,2015-10-05,1,,,,,シグマパワーホールディングス,0
39,1010405019294,登記記録の閉鎖等,0,2021-08-04,2021-07-20,一般社団法人多摩センター,,その他の設立登記法人,東京都,港区,元赤坂１丁目１番８号赤坂コミュニティビル４階,,13,103,1070051,,,2021-07-20,清算の結了等,,,2020-11-30,1,,,,,タマセンター,0
68,1011101033399,登記記録の閉鎖等,0,2021-08-04,2021-07-26,株式会社フリースペース,,株式会社,神奈川県,横浜市神奈川区,台町１３番地１１ヒルトップ横浜５０１号,,14,102,2210834,,,2021-07-26,清算の結了等,,,2015-10-05,1,,,,,フリースペース,0
89,1012405002676,登記記録の閉鎖等,0,2021-08-04,2021-07-26,特定非営利活動法人みつばち百花,,その他の設立登記法人,神奈川県,相模原市南区,上鶴間本町３丁目２番２１－４０２号,,14,153,2520318,,,2021-07-26,清算の結了等,,,2015-10-05,1,,,,,ミツバチヒャッカ,0
98,1013401001465,登記記録の閉鎖等,0,2021-08-04,2021-07-28,西東京電子工業株式会社,,株式会社,東京都,多摩市,南野２丁目９番地の６,,13,224,2060032,,,2021-07-28,清算の結了等,,,2015-10-05,1,,,,,ニシトウキョウデンシコウギョウ,0
105,1020001129397,登記記録の閉鎖等,0,2021-08-04,2021-07-27,株式会社ピサラ,,株式会社,神奈川県,川崎市高津区,向ケ丘２２番地７,,14,134,2130035,,,2021-07-27,清算の結了等,,,2019-01-09,1,,,,,ピサラ,0
108,1020002100357,登記記録の閉鎖等,0,2021-08-04,2021-07-26,有限会社エイグル,,有限会社,神奈川県,川崎市中原区,下沼部１７６５番地,,14,133,2110011,,,2021-07-26,清算の結了等,,,2015-10-05,1,,,,,エイグル,0
121,1021005005485,登記記録の閉鎖等,0,2021-08-04,2021-07-15,小田原木工団地協同組合,,その他の設立登記法人,神奈川県,小田原市,桑原８６７番地,,14,206,2500861,,,2021-07-15,清算の結了等,,,2015-10-05,1,,,,,オダワラモッコウダンチ,0
137,1040001094862,登記記録の閉鎖等,0,2021-08-04,2021-07-27,株式会社大松工業,,株式会社,千葉県,銚子市,黒生町６８６５番地の１１,,12,202,2880003,,,2021-07-27,清算の結了等,,,2016-04-18,1,,,,,ダイマツコウギョウ,0
147,1050001015818,登記記録の閉鎖等,0,2021-08-04,2021-07-28,株式会社筑波光化学,,株式会社,茨城県,つくば市,倉掛１１７６番地の３,,08,220,3050024,,,2021-07-28,清算の結了等,,,2015-10-05,1,,,,,,0
157,1070002028354,登記記録の閉鎖等,0,2021-08-04,2021-07-01,有限会社太田剪断所,,有限会社,群馬県,太田市,大字内ケ島５７０番地,,10,205,,,,2021-07-01,清算の結了等,,,2015-10-05,1,,,,,オオタセンダンショ,0
158,1070005005573,登記記録の閉鎖等,0,2021-08-04,2021-08-02,医療法人めぐみこどもクリニック,,その他の設立登記法人,群馬県,渋川市,行幸田２８番地５,,10,208,3770006,,,2021-08-02,清算の結了等,,,2015-10-05,1,,,,,メグミコドモクリニック,0
168,1090002012455,登記記録の閉鎖等,0,2021-08-04,2021-07-29,有限会社堀内農機,,有限会社,山梨県,富士吉田市,上吉田７丁目５番９号,,19,202,4030005,,,2021-07-29,清算の結了等,,,2015-10-05,1,,,,,ホリウチノウキ,0
176,1110005000347,登記記録の閉鎖等,0,2021-08-04,2021-07-29,新潟市青果商業協同組合,,その他の設立登記法人,新潟県,新潟市江南区,茗荷谷７１１番地,,15,104,9500114,,,2021-07-29,清算の結了等,,,2015-10-05,1,,,,,ニイガタシセイカショウギョウ,0
184,1120002066019,登記記録の閉鎖等,0,2021-08-04,2021-07-27,有限会社トラン,,有限会社,大阪府,大阪市北区,西天満３丁目３番２１－１００５号,,27,127,5300047,,,2021-07-27,清算の結了等,,,2015-10-05,1,,,,,トラン,0
201,1140001117547,登記記録の閉鎖等,0,2021-08-04,2021-07-30,ＴＴＶ　ＪＡＰＡＮ貿易株式会社,,株式会社,兵庫県,姫路市,花田町勅旨１３０番地８,,28,201,6710254,,,2021-07-30,清算の結了等,,,2020-06-02,1,,,,,ティーティーブイジャパンボウエキ,0
222,1180002028681,登記記録の閉鎖等,0,2021-08-04,2021-07-28,有限会社ニユーバンビー,,有限会社,愛知県,名古屋市中村区,太閣通六丁目１１番地の２,,23,105,4530000,,,2021-07-28,清算の結了等,,,2015-10-05,1,,,,,ニユーバンビー,0
229,1180005013441,登記記録の閉鎖等,0,2021-08-04,2021-08-02,医療法人谷本医院,,その他の設立登記法人,愛知県,愛西市,戸倉町中屋敷６番地,,23,232,4960933,,,2021-08-02,清算の結了等,,,2015-10-05,1,,,,,タニモトイイン,0
235,1180303001420,登記記録の閉鎖等,0,2021-08-04,2021-08-02,合名会社花井商店,,合名会社,愛知県,豊橋市,石巻本町字出口１番地３９,,23,201,4411115,,,2021-08-02,合併による解散等,6180301006805,令和３年８月１日愛知県豊橋市石巻本町字西野３０番地９８はない株式会社（6180301006805）に合併し解散,2015-10-05,1,,,,,ハナイショウテン,0
241,1200001001595,登記記録の閉鎖等,0,2021-08-04,2021-08-02,株式会社キタガワ商事,,株式会社,岐阜県,岐阜市,長良小松町２丁目２５番地,,21,201,5020052,,,2021-08-02,清算の結了等,,,2015-10-05,1,,,,,キタガワショウジ,0
261,1240002042164,登記記録の閉鎖等,0,2021-08-04,2021-07-15,有限会社西方,,有限会社,広島県,福山市,木之庄町１丁目１３番４１号,,34,207,7200082,,,2021-07-15,清算の結了等,,,2015-10-05,1,,,,,ニシカタ,0
266,1250001014592,登記記録の閉鎖等,0,2021-08-04,2021-07-28,株式会社フジケン,,株式会社,山口県,宇部市,西宇部南２丁目１２番２０号,,35,202,7590208,,,2021-07-28,清算の結了等,,,2015-10-05,1,,,,,,0
278,1280005000347,登記記録の閉鎖等,0,2021-08-04,2021-07-30,恵曇水産加工協同組合,,その他の設立登記法人,島根県,松江市,鹿島町古浦６０７番地３,,32,201,6900333,,,2021-07-30,清算の結了等,,,2015-10-05,1,,,,,エトモスイサンカコウ,0
300,1330002006523,登記記録の閉鎖等,0,2021-08-04,2021-07-28,有限会社竹本プロパン,,有限会社,熊本県,熊本市南区,元三町３丁目１０番２９号,,43,104,8614105,,,2021-07-28,清算の結了等,,,2015-10-05,1,,,,,タケモトプロパン,0
353,2010003030033,登記記録の閉鎖等,0,2021-08-04,2021-07-28,ファーロ・パートナーズ合同会社,,合同会社,東京都,中央区,勝どき６丁目３番１－５４１５号,,13,102,1040054,,,2021-07-28,清算の結了等,,,2019-06-17,1,,,,,ファーロパートナーズ,0
357,2010005012962,登記記録の閉鎖等,0,2021-08-04,2021-07-20,特定非営利活動法人日本ヘリテージング協会,,その他の設立登記法人,東京都,中央区,日本橋箱崎町１９番２５号箱崎パールプレイス,,13,102,1030015,,,2021-07-20,清算の結了等,,,2015-10-05,1,,,,,ニホンヘリテージングキョウカイ,0
358,2010401007194,登記記録の閉鎖等,0,2021-08-04,2021-07-30,兜工業株式会社,,株式会社,東京都,港区,芝浦４丁目１２番３３号,,13,103,1080023,,,2021-07-30,合併による解散等,5010001050807,令和３年７月１日東京都中央区銀座四丁目３番９号株式会社天賞堂エム・エス（5010001050807）に合併し解散,2015-10-05,1,,,,,カブトコウギョウ,0
360,2010401105799,登記記録の閉鎖等,0,2021-08-04,2021-07-21,株式会社ディアモルト,,株式会社,東京都,港区,北青山３丁目８番３号,,13,103,1070061,,,2021-07-21,清算の結了等,,,2015-10-05,1,,,,,ディアモルト,0
465,2050002003168,登記記録の閉鎖等,0,2021-08-04,2021-07-28,有限会社もがき,,有限会社,茨城県,水戸市,城東１丁目７番４号,,08,201,3100012,,,2021-07-28,清算の結了等,,,2015-10-05,1,,,,,,0
467,2050002024643,登記記録の閉鎖等,0,2021-08-04,2021-07-29,有限会社関口ホーム,,有限会社,茨城県,古河市,上辺見１３０９番地,,08,204,3060234,,,2021-07-29,清算の結了等,,,2015-10-05,1,,,,,セキグチホーム,0
485,2080401014291,登記記録の閉鎖等,0,2021-08-04,2021-07-30,株式会社キヤツプ,,株式会社,静岡県,掛川市,駅前４番地の６,,22,213,4360077,,,2021-07-30,清算の結了等,,,2015-10-05,1,,,,,キャップ,0
486,2080405004297,登記記録の閉鎖等,0,2021-08-04,2021-08-02,特定非営利活動法人ゆい佐久間,,その他の設立登記法人,静岡県,浜松市天竜区,佐久間町相月２０６２番地,,22,137,4314111,,,2021-08-02,清算の結了等,,,2015-10-05,1,,,,,ユイサクマ,0
496,2120001058461,登記記録の閉鎖等,0,2021-08-04,2021-07-27,株式会社松浦組,,株式会社,大阪府,大阪市淀川区,東三国５丁目１５番３１号,,27,123,5320002,,,2021-07-27,清算の結了等,,,2015-10-05,1,,,,,マツウラグミ,0
522,2120901027615,登記記録の閉鎖等,0,2021-08-04,2021-07-29,株式会社パルシステム,,株式会社,大阪府,大阪市大正区,平尾４丁目４番２１号,,27,108,5510012,,,2021-07-29,清算の結了等,,,2015-10-05,1,,,,,パルシステム,0
540,2140002020798,登記記録の閉鎖等,0,2021-08-04,2021-07-30,有限会社　大松電気工業所,,有限会社,兵庫県,神戸市須磨区,妙法寺字円満林２番地６７,,28,107,6540121,,,2021-07-30,清算の結了等,,,2015-10-05,1,,,,,ダイマツデンキコウギョウショ,0
558,2180001132351,登記記録の閉鎖等,0,2021-08-04,2021-07-30,株式会社ＦＫＫ,,株式会社,愛知県,春日井市,鳥居松町１丁目３２２番地,,23,206,4860844,,,2021-07-30,清算の結了等,,,2018-05-18,1,,,,,,0
579,2190002015587,登記記録の閉鎖等,0,2021-08-04,2021-08-02,有限会社やまと工務店,,有限会社,三重県,多気郡大台町,新田５７８番地３,,24,443,5192423,,,2021-08-02,清算の結了等,,,2015-10-05,1,,,,,ヤマトコウムテン,0
604,2260001024292,登記記録の閉鎖等,0,2021-08-04,2021-08-02,株式会社プロジェネット,,株式会社,岡山県,小田郡矢掛町,東三成３５８７番地,,33,461,7141211,,,2021-08-02,合併による解散等,1260001018122,令和３年８月１日岡山県小田郡矢掛町東三成３５８７番地株式会社モリワキ（1260001018122）に合併し解散,2015-10-05,1,,,,,プロジェネット,0
624,2290005005229,登記記録の閉鎖等,0,2021-08-04,2021-08-02,南総協同組合,,その他の設立登記法人,福岡県,福岡市南区,野間３丁目１０番３０号双竜鮮魚店内,,40,134,8150041,,,2021-08-02,清算の結了等,,,2015-10-05,1,,,,,ナンソウ,0
634,2310005008113,登記記録の閉鎖等,0,2021-08-04,2021-07-30,一般社団法人島原総合企画センター,,その他の設立登記法人,長崎県,島原市,弁天町２丁目７３９６番地４,,42,203,8550802,,,2021-07-30,清算の結了等,,,2017-07-13,1,,,,,シマバラソウゴウキカクセンター,0
665,2430005011674,登記記録の閉鎖等,0,2021-08-04,2021-07-19,ＮＰＯ法人マジックアワー,,その他の設立登記法人,北海道,札幌市北区,屯田二条２丁目１３番１号,,01,102,0020852,,,2021-07-19,清算の結了等,,,2015-10-05,1,,,,,マジックアワー,0
673,2490001001649,登記記録の閉鎖等,0,2021-08-04,2021-08-02,株式会社南海物流,,株式会社,高知県,高知市,南竹島町１６番１１号,,39,201,7808017,,,2021-08-02,合併による解散等,3490001001895,令和３年８月２日高知市介良丙７１５番地株式会社高知物流（3490001001895）に合併し解散,2015-10-05,1,,,,,ナンカイブツリュウ,0
702,3010003021592,登記記録の閉鎖等,0,2021-08-04,2021-07-20,ＴｈｒｅａｔＭｅｔｒｉｘ合同会社,,合同会社,東京都,港区,東麻布１丁目９番１５号,,13,103,1060044,,,2021-07-20,清算の結了等,,,2015-10-05,1,,,,,スレットメトリックス,0
720,3010802012180,登記記録の閉鎖等,0,2021-08-04,2021-07-26,有限会社平山,,有限会社,東京都,大田区,上池台１丁目１６番８号,,13,111,1450064,,,2021-07-26,清算の結了等,,,2015-10-05,1,,,,,ヒラヤマ,0
743,3011105008032,登記記録の閉鎖等,0,2021-08-04,2021-07-27,一般社団法人舞台技術者連合,,その他の設立登記法人,東京都,新宿区,西新宿６丁目１２番３０号,,13,104,1600023,,,2021-07-27,清算の結了等,,,2017-10-06,1,,,,,ブタイギジュツシャレンゴウ,0
747,3011501002761,登記記録の閉鎖等,0,2021-08-04,2021-08-02,高千穂産業株式会社,,株式会社,東京都,北区,田端２丁目４番１２号,,13,117,1140014,,,2021-08-02,清算の結了等,,,2015-10-05,1,,,,,タカチホサンギョウ,0
775,3020002080028,登記記録の閉鎖等,0,2021-08-04,2021-07-21,有限会社ＯＣＥＡＮＳ,,有限会社,神奈川県,横浜市金沢区,能見台１丁目３１番５号,,14,108,2360057,,,2021-07-21,清算の結了等,,,2015-10-05,1,,,,,,0
785,3030001048082,登記記録の閉鎖等,0,2021-08-04,2021-07-19,株式会社木選,,株式会社,埼玉県,新座市,あたご３丁目４番７号,,11,230,3520021,,,2021-07-19,清算の結了等,,,2015-10-05,1,,,,,キセン,0
791,3030002053957,登記記録の閉鎖等,0,2021-08-04,2021-07-20,有限会社シムラ,,有限会社,埼玉県,上尾市,大字戸崎４８４番地の３,,11,219,3620053,,,2021-07-20,清算の結了等,,,2015-10-05,1,,,,,,0
809,3040005003537,登記記録の閉鎖等,0,2021-08-04,2021-07-27,医療法人社団凛有会,,その他の設立登記法人,千葉県,八千代市,緑が丘２丁目２０番地７,,12,221,2760049,,,2021-07-27,清算の結了等,,,2015-10-05,1,,,,,リンユウカイ,0
816,3050002026060,登記記録の閉鎖等,0,2021-08-04,2021-07-28,有限会社古河産業,,有限会社,茨城県,古河市,長谷町１０番４０号,,08,204,3060034,,,2021-07-28,清算の結了等,,,2015-10-05,1,,,,,コガサンギョウ,0
826,3080001013619,登記記録の閉鎖等,0,2021-08-04,2021-08-02,近江産業株式会社,,株式会社,静岡県,牧之原市,福岡５－３,,22,226,4210521,,,2021-08-02,清算の結了等,,,2015-10-05,1,,,,,オウミサンギョウ,0
847,3120001214815,登記記録の閉鎖等,0,2021-08-04,2021-07-27,ＳＭＩホールディングス株式会社,,株式会社,大阪府,守口市,寺方本通２丁目１３番１７号,,27,209,5700048,,,2021-07-27,清算の結了等,,,2018-08-02,1,,,,,,0
853,3120002071875,登記記録の閉鎖等,0,2021-08-04,2021-07-27,有限会社栄伸工業,,有限会社,大阪府,寝屋川市,初町２番１７－４０４号,,27,215,5720833,,,2021-07-27,清算の結了等,,,2015-10-05,1,,,,,エイシンコウギョウ,0
864,3120901040170,登記記録の閉鎖等,0,2021-08-04,2021-08-02,株式会社ＡＣＰ,,株式会社,大阪府,箕面市,船場東１丁目２番２０号,,27,220,5620035,,,2021-08-02,清算の結了等,,,2018-07-25,1,,,,,エーシーピー,0
890,3180001009202,登記記録の閉鎖等,0,2021-08-04,2021-08-02,ジー・ジェイ株式会社,,株式会社,愛知県,名古屋市東区,葵２丁目３番５号グリーンシティ葵１３０１号,,23,102,4610004,,,2021-08-02,清算の結了等,,,2015-10-05,1,,,,,ジージェイ,0
896,3180001096001,登記記録の閉鎖等,0,2021-08-04,2021-07-30,株式会社歌花,,株式会社,愛知県,知多市,八幡字北屋敷９５番地の６,,23,224,4780001,,,2021-07-30,清算の結了等,,,2015-10-05,1,,,,,ウタハナ,0
898,3180001119546,登記記録の閉鎖等,0,2021-08-04,2021-07-29,株式会社ヴィクトリーサイクル,,株式会社,愛知県,名古屋市天白区,元植田１丁目２５０３番地ヒルズシンフォニー１１０,,23,116,4680009,,,2021-07-29,清算の結了等,,,2015-10-05,1,,,,,ヴィクトリーサイクル,0
901,3180001136467,登記記録の閉鎖等,0,2021-08-04,2021-07-28,株式会社幸禛,00116504,株式会社,愛知県,名古屋市中川区,長良町４丁目２５番地メゾン長良１０１号,,23,110,4540815,,,2021-07-28,清算の結了等,,,2019-05-10,1,,,,,コウシン,0
924,3210005004641,登記記録の閉鎖等,0,2021-08-04,2021-07-27,特定非営利活動法人加越たたら研究会,,その他の設立登記法人,福井県,あわら市,前谷第１９号２３番地２,,18,208,9190725,,,2021-07-27,清算の結了等,,,2015-10-05,1,,,,,カエツタタラケンキュウカイ,0
931,3240001008189,登記記録の閉鎖等,0,2021-08-04,2021-07-15,株式会社日本油圧電業,,株式会社,広島県,広島市西区,東観音町６番８号,,34,104,7330032,,,2021-07-15,清算の結了等,,,2015-10-05,1,,,,,ニホンユアツデンギョウ,0
943,3250005001676,登記記録の閉鎖等,0,2021-08-04,2021-06-28,天理教多々良分教会,,その他の設立登記法人,山口県,防府市,東松崎町６番１２号,,35,206,7470028,,,2021-06-28,合併による解散等,1250005001678,令和３年６月２８日山口県防府市大字浜方第１９８番地の３７天理教中関分教会（1250005001678）に合併し解散,2015-10-05,1,,,,,テンリキョウタタラブンキョウカイ,0
945,3260001028251,登記記録の閉鎖等,0,2021-08-04,2021-08-02,株式会社オカダコーポレーション,,株式会社,岡山県,岡山市南区,新福２丁目２番１３号,,33,104,7000943,,,2021-08-02,合併による解散等,1260001001573,令和３年８月１日岡山市南区新福二丁目２番１３号岡田木材商事株式会社（1260001001573）に合併し解散,2015-10-05,1,,,,,オカダコーポレーション,0
951,3260002011339,登記記録の閉鎖等,0,2021-08-04,2021-08-02,有限会社藤井装飾,,有限会社,岡山県,岡山市東区,瀬戸町下５２９番地の６,,33,103,7090856,,,2021-08-02,清算の結了等,,,2015-10-05,1,,,,,フジイソウショク,0
965,3290003009924,登記記録の閉鎖等,0,2021-08-04,2021-07-12,ポジラボ合同会社,,合同会社,福岡県,福岡市中央区,桜坂３丁目７番１４号アトリエ３７１４Ｅ号室,,40,133,8100024,,,2021-07-12,清算の結了等,,,2020-04-17,1,,,,,ポジラボ,0
978,3310002020532,登記記録の閉鎖等,0,2021-08-04,2021-07-28,有限会社テクニカルサーベイ,,有限会社,長崎県,五島市,大荒町４７８番地３,,42,211,8530032,,,2021-07-28,清算の結了等,,,2015-10-05,1,,,,,テクニカルサーベイ,0
1029,3470001007044,登記記録の閉鎖等,0,2021-08-04,2021-08-02,株式会社おおくら企画,,株式会社,香川県,木田郡三木町,大字鹿伏２０５番地３,,37,341,7610703,,,2021-08-02,清算の結了等,,,2015-10-05,1,,,,,オオクラキカク,0
1035,3470002015120,登記記録の閉鎖等,0,2021-08-04,2021-07-30,有限会社タカオ,,有限会社,香川県,坂出市,林田町１１７０番地１,,37,203,7620012,,,2021-07-30,清算の結了等,,,2015-10-05,1,,,,,タカオ,0
1046,3500002009903,登記記録の閉鎖等,0,2021-08-04,2021-08-03,有限会社エイト会計事務所,,有限会社,愛媛県,松山市,高岡町７４７番地２第３Ｓビル１０３,,38,201,7918036,,,2021-08-03,清算の結了等,,,2015-10-05,1,,,,,エイトカイケイジムショ,0
1062,4010401003480,登記記録の閉鎖等,0,2021-08-04,2021-07-20,株式会社魚新,,株式会社,東京都,港区,西麻布１丁目１２番１０号岩田ビル２階,,13,103,1060031,,,2021-07-20,清算の結了等,,,2015-10-05,1,,,,,ウオシン,0
1098,4011103005014,登記記録の閉鎖等,0,2021-08-04,2021-07-21,合同会社パルマ,,合同会社,東京都,新宿区,新宿５丁目１８番２０号,,13,104,1600022,,,2021-07-21,清算の結了等,,,2015-10-05,1,,,,,パルマ,0
1101,4011301015269,登記記録の閉鎖等,0,2021-08-04,2021-07-29,株式会社ＪＥＩＬ,,株式会社,東京都,杉並区,高円寺北３丁目３４番１４号,,13,115,1660002,,,2021-07-29,清算の結了等,,,2015-10-05,1,,,,,ジェイル,0
1115,4012402018235,登記記録の閉鎖等,0,2021-08-04,2021-07-29,有限会社アルス,,有限会社,東京都,三鷹市,井の頭４丁目１６番６号,,13,204,1810001,,,2021-07-29,清算の結了等,,,2015-10-05,1,,,,,アルス,0
1134,4020002054872,登記記録の閉鎖等,0,2021-08-04,2021-07-14,有限会社総合住宅研究所,,有限会社,神奈川県,横浜市泉区,和泉中央南１丁目２６番１７号,,14,116,2450023,,,2021-07-14,清算の結了等,,,2015-10-05,1,,,,,ソウゴウジュウタクケンキュウジョ,0
1142,4021003005815,登記記録の閉鎖等,0,2021-08-04,2021-07-19,合同会社ソフトウェアワークス,,合同会社,神奈川県,茅ヶ崎市,香川４丁目１７番７号,,14,207,2530082,,,2021-07-19,清算の結了等,,,2016-02-22,1,,,,,ソフトウェアワークス,0
1158,4040001035260,登記記録の閉鎖等,0,2021-08-04,2021-07-27,株式会社クック丸栄,,株式会社,千葉県,松戸市,紙敷８０７番地７,,12,207,2702221,,,2021-07-27,清算の結了等,,,2015-10-05,1,,,,,,0
1166,4040002032736,登記記録の閉鎖等,0,2021-08-04,2021-07-26,有限会社宇佐美,,有限会社,千葉県,市川市,八幡４丁目４番７－１０１号（シュラインサイド・ビル）,,12,203,2720021,,,2021-07-26,清算の結了等,,,2015-10-05,1,,,,,ウサミ,0
1183,4070001024021,登記記録の閉鎖等,0,2021-08-04,2021-08-02,株式会社若月工務店,,株式会社,群馬県,吾妻郡高山村,大字尻高２７０２番地の１,,10,428,3770701,,,2021-08-02,清算の結了等,,,2015-10-05,1,,,,,ワカツキコウムテン,0
1208,4120001066891,登記記録の閉鎖等,0,2021-08-04,2021-07-27,株式会社多田商事,,株式会社,大阪府,大阪市北区,本庄東２丁目７番１０号,,27,127,5310074,,,2021-07-27,清算の結了等,,,2015-10-05,1,,,,,,0
1213,4120001162022,登記記録の閉鎖等,0,2021-08-04,2021-07-26,株式会社プログレスアカデミー,,株式会社,大阪府,大阪市北区,梅田１丁目１１番４号大阪駅前第４ビル９階,,27,127,5300001,,,2021-07-26,清算の結了等,,,2015-10-05,1,,,,,プログレスアカデミー,0
1222,4120001222494,登記記録の閉鎖等,0,2021-08-04,2021-07-28,株式会社ＢＬＵＥ　ＢＩＲＤ,,株式会社,大阪府,大阪市中央区,南船場４丁目１０番５号南船場ＳＯＨＯビル７０２,,27,128,5420081,,,2021-07-28,清算の結了等,,,2019-07-12,1,,,,,ブルーバード,0
1227,4120002024865,登記記録の閉鎖等,0,2021-08-04,2021-07-27,株式会社貴和,,株式会社,大阪府,大阪市東淀川区,下新庄５丁目６番４３号,,27,114,5330021,,,2021-07-27,清算の結了等,,,2015-10-05,1,,,,,キワ,0
1241,4122002003683,登記記録の閉鎖等,0,2021-08-04,2021-07-28,有限会社ナガセ保健薬局,,有限会社,大阪府,東大阪市,小若江１丁目５番１号,,27,227,5770818,,,2021-07-28,清算の結了等,,,2015-10-05,1,,,,,ナガセホケンヤッキョク,0
1262,4180001016619,登記記録の閉鎖等,0,2021-08-04,2021-07-29,株式会社興藩,,株式会社,愛知県,名古屋市東区,東桜１丁目６番３号,,23,102,4610005,,,2021-07-29,清算の結了等,,,2015-10-05,1,,,,,コウハン,0
1271,4180001131087,登記記録の閉鎖等,0,2021-08-04,2021-07-30,株式会社ＫＯＢＡＰＬＵＳ,,株式会社,愛知県,春日井市,鳥居松町１丁目３２２番地,,23,206,4860844,,,2021-07-30,清算の結了等,,,2018-02-06,1,,,,,,0
1287,4180302017217,登記記録の閉鎖等,0,2021-08-04,2021-08-02,有限会社マルコウ酒店,,有限会社,愛知県,安城市,美園町１丁目７番地８,,23,212,4460076,,,2021-08-02,清算の結了等,,,2015-10-05,1,,,,,マルコウサケテン,0
1306,4230002014153,登記記録の閉鎖等,0,2021-08-04,2021-07-20,株式会社ふきのとう,,株式会社,富山県,高岡市,向野町４丁目１４番地１,,16,202,9330902,,,2021-07-20,清算の結了等,,,2015-10-05,1,,,,,フキノトウ,0
1322,4280001003342,登記記録の閉鎖等,0,2021-08-04,2021-08-02,やまもと商事株式会社,,株式会社,島根県,出雲市,知井宮町３１５番地,,32,203,6930033,,,2021-08-02,清算の結了等,,,2015-10-05,1,,,,,ヤマモトショウジ,0
1333,4290805006936,登記記録の閉鎖等,0,2021-08-04,2021-07-19,行橋青果協同組合,,その他の設立登記法人,福岡県,行橋市,大字辻垣２２４番地の１,00095008,40,213,8240028,,,2021-07-19,清算の結了等,,,2015-10-05,1,,,,,ユクハシセイカ,0
1361,4370001023934,登記記録の閉鎖等,0,2021-08-04,2021-07-15,株式会社ＲＯＯＫＩＥ,,株式会社,宮城県,仙台市宮城野区,新田東２丁目８番地の１０,,04,102,9830039,,,2021-07-15,清算の結了等,,,2015-10-05,1,,,,,ルーキー,0
1370,4390002008734,登記記録の閉鎖等,0,2021-08-04,2021-07-26,有限会社タイヤネットワーク,,有限会社,山形県,飽海郡遊佐町,藤崎字簀垣下７０番地１,,06,461,9998437,,,2021-07-26,清算の結了等,,,2015-10-05,1,,,,,,0
1372,4420002017228,登記記録の閉鎖等,0,2021-08-04,2021-07-27,有限会社ファミリープラザろくのへ,,有限会社,青森県,十和田市,元町西４丁目３番３０号,,02,206,0340002,,,2021-07-27,清算の結了等,,,2015-10-05,1,,,,,,0
1375,4430002015263,登記記録の閉鎖等,0,2021-08-04,2021-07-19,有限会社ネセック,,有限会社,北海道,札幌市白石区,菊水上町一条１丁目１００番地２５,,01,104,0030811,,,2021-07-19,清算の結了等,,,2015-10-05,1,,,,,ネセック,0
1387,4490001007017,登記記録の閉鎖等,0,2021-08-04,2021-08-02,株式会社アクワネクス,,株式会社,高知県,南国市,田村甲５８番地の１,,39,204,7830092,,,2021-08-02,清算の結了等,,,2015-10-05,1,,,,,アクワネクス,0
1402,5010002004068,登記記録の閉鎖等,0,2021-08-04,2021-07-19,有限会社テンプレート企画,,有限会社,東京都,文京区,湯島３丁目４５番１号,,13,105,1130034,,,2021-07-19,清算の結了等,,,2015-10-05,1,,,,,テンプレートキカク,0
1422,5010403009467,登記記録の閉鎖等,0,2021-08-04,2021-07-19,アドバンスワイダブリュ合同会社,,合同会社,東京都,港区,六本木７丁目１５番１７号７－Ｆ,,13,103,1060032,,,2021-07-19,清算の結了等,,,2015-10-05,1,,,,,アドバンスワイダブリュ,0
1468,5011302001028,登記記録の閉鎖等,0,2021-08-04,2021-07-28,有限会社和泉,,有限会社,東京都,杉並区,永福３丁目５６番３２号,,13,115,1680064,,,2021-07-28,清算の結了等,,,2015-10-05,1,,,,,イズミ,0
1491,5020001085166,登記記録の閉鎖等,0,2021-08-04,2021-07-26,株式会社ヒーリングの森,,株式会社,神奈川県,横浜市戸塚区,上矢部町１５６富士橋ビル２階,,14,110,2450053,,,2021-07-26,清算の結了等,,,2015-10-05,1,,,,,,0
1515,5030002100708,登記記録の閉鎖等,0,2021-08-04,2021-07-29,上成運輸有限会社,,有限会社,埼玉県,川口市,大字安行原１９０３番地の２,,11,203,3340057,,,2021-07-29,清算の結了等,,,2015-10-05,1,,,,,カミナリウンユ,0
1553,5080002017988,登記記録の閉鎖等,0,2021-08-04,2021-08-02,株式会社藤枝オリコミピーアール,,株式会社,静岡県,藤枝市,藤枝１丁目４番１３号,,22,214,4260025,,,2021-08-02,合併による解散等,6080001016759,令和３年８月１日静岡県藤枝市藤枝一丁目４番１２号株式会社藤枝江崎新聞店（6080001016759）に合併し解散,2015-10-05,1,,,,,フジエダオリコミピーアール,0
1555,5080402006582,登記記録の閉鎖等,0,2021-08-04,2021-07-30,有限会社ピーシーサポート,,有限会社,静岡県,浜松市中区,富塚町１９３３番地の１佐鳴湖パークタウンサウス２Ｆ,00080002,22,131,4328002,,,2021-07-30,清算の結了等,,,2015-10-05,1,,,,,ピーシーサポート,0
1574,5120005010358,登記記録の閉鎖等,0,2021-08-04,2021-07-30,特定非営利活動法人ＳＵＮ,,その他の設立登記法人,大阪府,大阪市東成区,大今里１丁目１０番２０号,,27,115,5370012,,,2021-07-30,清算の結了等,,,2015-10-05,1,,,,,サン,0
1599,5160005005461,登記記録の閉鎖等,0,2021-08-04,2021-08-02,寳蓮寺,,その他の設立登記法人,滋賀県,犬上郡甲良町,大字下之郷１４５９番地,,25,442,5220271,,,2021-08-02,清算の結了等,,,2015-10-05,1,,,,,ホウレンジ,0
1618,5180003021079,登記記録の閉鎖等,0,2021-08-04,2021-08-02,Ｍ・ＲＥＮＴ合同会社,,合同会社,愛知県,名古屋市千種区,今池５丁目１７番９号４０１,,23,101,4640850,,,2021-08-02,清算の結了等,,,2020-04-13,1,,,,,エムレント,0
1634,5200001021937,登記記録の閉鎖等,0,2021-08-04,2021-07-30,瑞浪車体株式会社,,株式会社,岐阜県,瑞浪市,土岐町６９８５番地の１,,21,208,5096101,,,2021-07-30,清算の結了等,,,2015-10-05,1,,,,,ミズナミシャタイ,0
1663,5250002004498,登記記録の閉鎖等,0,2021-08-04,2021-07-29,有限会社柏井設計,,有限会社,山口県,宇部市,大字際波６３３番地１,,35,202,7590207,,,2021-07-29,清算の結了等,,,2015-10-05,1,,,,,カシワイセッケイ,0
1711,5380001027280,登記記録の閉鎖等,0,2021-08-04,2021-07-27,みらい建物診断株式会社,,株式会社,福島県,福島市,泉字宮内前１番地の８,,07,201,9608253,,,2021-07-27,清算の結了等,,,2016-09-06,1,,,,,ミライタテモノシンダン,0
1717,5390002009558,登記記録の閉鎖等,0,2021-08-04,2021-07-27,有限会社朝暘宅建,,有限会社,山形県,鶴岡市,上畑町８番３０号,,06,203,9970032,,,2021-07-27,清算の結了等,,,2015-10-05,1,,,,,,0
1718,5390003001654,登記記録の閉鎖等,0,2021-08-04,2021-07-26,Ｍ．Ｗ．Ｅ合同会社,,合同会社,山形県,東田川郡庄内町,余目字下梵天塚３５番地９,,06,428,9997781,,,2021-07-26,清算の結了等,,,2019-10-01,1,,,,,エムダブリュイー,0
1721,5400002006207,登記記録の閉鎖等,0,2021-08-04,2021-07-29,有限会社東販,,有限会社,岩手県,盛岡市,上田字東黒石野８３,,03,201,0200102,,,2021-07-29,清算の結了等,,,2015-10-05,1,,,,,トウハン,0
1722,5420001012311,登記記録の閉鎖等,0,2021-08-04,2021-07-28,宮古不動産株式会社,,株式会社,青森県,三沢市,岡三沢６丁目１１０番地２号,,02,207,0330021,,,2021-07-28,清算の結了等,,,2015-10-05,1,,,,,ミヤコフドウサン,0
1730,5430002046869,登記記録の閉鎖等,0,2021-08-04,2021-07-20,有限会社サクラプレイス,,有限会社,北海道,江別市,野幌美幸町２番地の１０,,01,217,0690804,,,2021-07-20,清算の結了等,,,2015-10-05,1,,,,,サクラプレイス,0
1752,6010001174596,登記記録の閉鎖等,0,2021-08-04,2021-07-30,Ｑｎａｒｙ　Ｊａｐａｎ株式会社,,株式会社,東京都,品川区,西五反田１丁目２３番７号,,13,109,1410031,,,2021-07-30,清算の結了等,,,2016-04-01,1,,,,,カーナリージャパン,0
1771,6010601042087,登記記録の閉鎖等,0,2021-08-04,2021-07-19,株式会社コマキ重機,,株式会社,東京都,江東区,木場３丁目６番１８号,,13,108,1350042,,,2021-07-19,清算の結了等,,,2015-10-05,1,,,,,コマキジュウキ,0
1776,6010802010173,登記記録の閉鎖等,0,2021-08-04,2021-07-27,有限会社東邦エンジニアリング,00052425,有限会社,東京都,大田区,大森北１丁目１９番６号,,13,111,1430016,,,2021-07-27,清算の結了等,,,2015-10-05,1,,,,,トウホウエンジニアリング,0
1785,6011001063285,登記記録の閉鎖等,0,2021-08-04,2021-07-16,株式会社パブロフ．,,株式会社,東京都,渋谷区,神宮前２丁目２７番５号,,13,113,1500001,,,2021-07-16,清算の結了等,,,2015-10-05,1,,,,,パブロフ,0
1791,6011101056016,登記記録の閉鎖等,0,2021-08-04,2021-07-19,高速バスツアーズ株式会社,,株式会社,東京都,渋谷区,代々木２丁目２３－１ニューステートメナー８３６号,,13,113,1510053,,,2021-07-19,清算の結了等,,,2015-10-05,1,,,,,コウソクバスツアーズ,0
1819,6020001002681,登記記録の閉鎖等,0,2021-08-04,2021-07-26,株式会社植田写真機店,,株式会社,神奈川県,横浜市磯子区,洋光台３丁目１３番２－１０５号,,14,107,2350045,,,2021-07-26,清算の結了等,,,2015-10-05,1,,,,,,0
1820,6020001040129,登記記録の閉鎖等,0,2021-08-04,2021-07-26,豊原産業株式会社,,株式会社,神奈川県,横浜市西区,平沼１丁目２９番１１大忠ビル３０２号,,14,103,2200023,,,2021-07-26,清算の結了等,,,2015-10-05,1,,,,,,0
1836,6021001055273,登記記録の閉鎖等,0,2021-08-04,2021-07-21,株式会社一真園,,株式会社,神奈川県,藤沢市,高倉２６７２番地メゾン高倉２０４号,,14,205,2520802,,,2021-07-21,清算の結了等,,,2015-10-05,1,,,,,イッシンエン,0
1848,6030001112199,登記記録の閉鎖等,0,2021-08-04,2021-07-16,ＡＳＡ長尾新聞販売株式会社,,株式会社,埼玉県,東松山市,元宿２丁目２６番地１４,,11,212,3550063,,,2021-07-16,清算の結了等,,,2016-01-08,1,,,,,エーエスエーナガオシンブンハンバイ,0
1861,6030005011348,登記記録の閉鎖等,0,2021-08-04,2021-07-16,オッスイレブンテクニカル協同組合,,その他の設立登記法人,埼玉県,東松山市,日吉町２番６５号,,11,212,3550012,,,2021-07-16,清算の結了等,,,2015-10-05,1,,,,,オッスイレブンテクニカル,0
1864,6040001102265,登記記録の閉鎖等,0,2021-08-04,2021-07-27,株式会社ＪＣＭビジネス企画,,株式会社,千葉県,夷隅郡御宿町,浜２０８番地２センチュリー御宿１号館２０１,,12,443,2995107,,,2021-07-27,清算の結了等,,,2017-10-20,1,,,,,ジェイシエムビジネスキカク,0
1884,6060002030059,登記記録の閉鎖等,0,2021-08-04,2021-07-26,有限会社山下,,有限会社,栃木県,下都賀郡野木町,大字友沼６５０６番地７,,09,364,3290101,,,2021-07-26,清算の結了等,,,2015-10-05,1,,,,,ヤマシタ,0
1885,6060002035347,登記記録の閉鎖等,0,2021-08-04,2021-07-26,有限会社荒屋ニット,,有限会社,栃木県,足利市,今福町４０１番地１,,09,202,3260842,,,2021-07-26,清算の結了等,,,2015-10-05,1,,,,,アラヤニット,0
1893,6070002002750,登記記録の閉鎖等,0,2021-08-04,2021-08-03,有限会社清水自動車整備工場,,有限会社,群馬県,前橋市,駒形町１９０番地の１,,10,201,3792122,,,2021-08-03,清算の結了等,,,2015-10-05,1,,,,,シミズジドウシャセイビコウジョウ,0
1897,6080001008797,登記記録の閉鎖等,0,2021-08-04,2021-08-02,同栄開発株式会社,,株式会社,静岡県,静岡市清水区,長崎６９番地の１,,22,103,4240065,,,2021-08-02,合併による解散等,2080001007646,令和３年８月１日静岡市清水区長崎６９番地の１イハラ建成工業株式会社（2080001007646）に合併し解散,2015-10-05,1,,,,,ドウエイカイハツ,0
1909,6090001005380,登記記録の閉鎖等,0,2021-08-04,2021-07-28,株式会社環境エンジニア,,株式会社,山梨県,甲府市,西下条町１０００番地８,,19,201,4000054,,,2021-07-28,清算の結了等,,,2015-10-05,1,,,,,,0
1935,6120002023832,登記記録の閉鎖等,0,2021-08-04,2021-07-27,有限会社産有放電工業,,有限会社,大阪府,大阪市西淀川区,姫島２丁目４番２５号,,27,113,5550033,,,2021-07-27,清算の結了等,,,2015-10-05,1,,,,,サンユウホウデンコウギョウ,0
1957,6130005012303,登記記録の閉鎖等,0,2021-08-04,2021-07-30,特定目的会社けやき,,その他の設立登記法人,京都府,京都市上京区,寺町通今出川上る鶴山町３番地,,26,102,6020802,,,2021-07-30,清算の結了等,,,2015-10-05,1,,,,,ケヤキ,0
1960,6140001030877,登記記録の閉鎖等,0,2021-08-04,2021-08-02,株式会社布引美装,,株式会社,兵庫県,神戸市兵庫区,夢野町３丁目４番５号,,28,105,6520063,,,2021-08-02,清算の結了等,,,2015-10-05,1,,,,,ヌノビキビソウ,0
1970,6140005004464,登記記録の閉鎖等,0,2021-08-04,2021-08-02,特定非営利活動法人輝ふくだ,,その他の設立登記法人,兵庫県,神戸市垂水区,向陽１丁目３番１９号,,28,108,6550012,,,2021-08-02,清算の結了等,,,2015-10-05,1,,,,,カガヤキフクダ,0
1972,6150002010992,登記記録の閉鎖等,0,2021-08-04,2021-07-28,有限会社テクノコンサルタント,,有限会社,奈良県,五條市,大澤町１１１２番地,,29,207,6370077,,,2021-07-28,清算の結了等,,,2015-10-05,1,,,,,テクノコンサルタント,0
1982,6170002001643,登記記録の閉鎖等,0,2021-08-04,2021-08-02,有限会社佐藤元,,有限会社,和歌山県,和歌山市,新生町７番２０号イズミヤ和歌山店内,,30,201,6408325,,,2021-08-02,清算の結了等,,,2015-10-05,1,,,,,サトウモト,0
1995,6180002004793,登記記録の閉鎖等,0,2021-08-04,2021-07-28,有限会社テトラヴァレイ,,有限会社,愛知県,名古屋市千種区,赤坂町６丁目６７番地,,23,101,4640094,,,2021-07-28,清算の結了等,,,2015-10-05,1,,,,,テトラヴァレイ,0
1996,6180002034741,登記記録の閉鎖等,0,2021-08-04,2021-07-30,ピーアンドオー・きぼう有限会社,,有限会社,愛知県,名古屋市南区,豊４丁目３番１５号,,23,112,4570863,,,2021-07-30,清算の結了等,,,2015-10-05,1,,,,,ピーアンドオーキボウ,0
1998,6180002041515,登記記録の閉鎖等,0,2021-08-04,2021-07-29,有限会社友希,,有限会社,愛知県,名古屋市東区,泉１丁目５番１４号,,23,102,4610001,,,2021-07-29,清算の結了等,,,2015-10-05,1,,,,,トモキ,0
1999,6180002063963,登記記録の閉鎖等,0,2021-08-04,2021-07-29,キヨモト企画有限会社,,有限会社,愛知県,豊明市,大久伝町中２番地５,,23,229,4701111,,,2021-07-29,清算の結了等,,,2015-10-05,1,,,,,キヨモトキカク,0
2000,6180003001303,登記記録の閉鎖等,0,2021-08-04,2021-07-29,合資会社伊藤礒材木店,,合資会社,愛知県,名古屋市北区,上飯田通１丁目２０番地,,23,103,4620808,,,2021-07-29,清算の結了等,,,2015-10-05,1,,,,,イトウイソザイモクテン,0
2015,6190002014453,登記記録の閉鎖等,0,2021-08-04,2021-08-02,有限会社前川自動車工業,,有限会社,三重県,松阪市,松ヶ島町２１３番地１,,24,204,5152133,,,2021-08-02,清算の結了等,,,2015-10-05,1,,,,,マエガワジドウシャコウギョウ,0
2023,6200002004725,登記記録の閉鎖等,0,2021-08-04,2021-08-02,有限会社夢源,,有限会社,岐阜県,岐阜市,加納高柳町４丁目８番地２,,21,201,5008459,,,2021-08-02,清算の結了等,,,2015-10-05,1,,,,,ムゲン,0
2036,6240001004557,登記記録の閉鎖等,0,2021-08-04,2021-07-20,株式会社しげど,,株式会社,広島県,広島市中区,本通４番１２号,,34,101,7300035,,,2021-07-20,清算の結了等,,,2015-10-05,1,,,,,シゲド,0
2037,6240001008574,登記記録の閉鎖等,0,2021-08-04,2021-07-15,日東ガス株式会社,,株式会社,広島県,広島市西区,商工センター８丁目４番２１号,,34,104,7330833,,,2021-07-15,清算の結了等,,,2015-10-05,1,,,,,ニットウガス,0
2051,6260002025765,登記記録の閉鎖等,0,2021-08-04,2021-08-02,有限会社津組縫製,,有限会社,岡山県,井原市,岩倉町１５９５番地,,33,207,7150016,,,2021-08-02,清算の結了等,,,2015-10-05,1,,,,,ツグミホウセイ,0
2053,6280001006797,登記記録の閉鎖等,0,2021-08-04,2021-08-02,株式会社中村,,株式会社,島根県,松江市,東本町４丁目８番地,,32,201,6900842,,,2021-08-02,清算の結了等,,,2015-10-05,1,,,,,ナカムラ,0
2104,6450001009799,登記記録の閉鎖等,0,2021-08-04,2021-07-30,株式会社エーコープ来夢,,株式会社,北海道,紋別郡西興部村,字西興部６５番地,,01,562,0981501,,,2021-07-30,清算の結了等,,,2015-10-05,1,,,,,エーコープライム,0
2107,6450002003958,登記記録の閉鎖等,0,2021-08-04,2021-08-02,有限会社西塚パン教室,,有限会社,北海道,旭川市,宮下通１９丁目１１１０番地,,01,204,0788330,,,2021-08-02,清算の結了等,,,2015-10-05,1,,,,,ニシヅカパンキョウシツ,0
2114,6470002018038,登記記録の閉鎖等,0,2021-08-04,2021-08-02,泰平商事有限会社,,有限会社,香川県,高松市,番町１丁目４番１３号,,37,201,7600017,,,2021-08-02,合併による解散等,8470001015802,令和３年８月１日香川県高松市番町二丁目２番９号一空株式会社（8470001015802）に合併し解散,2015-10-05,1,,,,,タイヘイショウジ,0
2124,7010001189486,登記記録の閉鎖等,0,2021-08-04,2021-07-19,株式会社しゅうとう,,株式会社,東京都,千代田区,丸の内１丁目１１番１号パシフィックセンチュリープレイス丸の内８階,,13,101,1000005,,,2021-07-19,清算の結了等,,,2018-02-07,1,,,,,シュウトウ,0
2130,7010105001489,登記記録の閉鎖等,0,2021-08-04,2021-07-21,特定非営利活動法人パーキンソン病完治基金,,その他の設立登記法人,東京都,八王子市,西寺方町１０１９番地２２９,,13,201,1920153,,,2021-07-21,清算の結了等,,,2015-10-05,1,,,,,,0
2137,7010401134034,登記記録の閉鎖等,0,2021-08-04,2021-08-03,セガサミープランニング株式会社,,株式会社,東京都,品川区,西品川１丁目１番１号住友不動産大崎ガーデンタワー,,13,109,1410033,,,2021-08-03,清算の結了等,,,2017-10-04,1,,,,,セガサミープランニング,0
2157,7010802001411,登記記録の閉鎖等,0,2021-08-04,2021-07-26,有限会社井田ビルデイング,,有限会社,東京都,大田区,田園調布２丁目４０番１号,,13,111,1450071,,,2021-07-26,清算の結了等,,,2015-10-05,1,,,,,イダビルデイング,0
2187,7011802019872,登記記録の閉鎖等,0,2021-08-04,2021-07-30,有限会社山田商店,,有限会社,東京都,足立区,加平２丁目９番６号,,13,121,1210055,,,2021-07-30,清算の結了等,,,2015-10-05,1,,,,,ヤマダショウテン,0
2195,7013201000612,登記記録の閉鎖等,0,2021-08-04,2021-07-12,株式会社市川不動産鑑定事務所,,株式会社,東京都,目黒区,鷹番２丁目５番２１号グリーンヒルズ鷹番Ｓ１０１号,,13,110,1520004,,,2021-07-12,清算の結了等,,,2015-10-05,1,,,,,イチカワフドウサンカンテイジムショ,0
2200,7020002015418,登記記録の閉鎖等,0,2021-08-04,2021-07-26,有限会社ベアーデンタルラボラトリー,,有限会社,神奈川県,横浜市青葉区,新石川２丁目５番地１０,,14,117,2250003,,,2021-07-26,清算の結了等,,,2015-10-05,1,,,,,ベアーデンタルラボラトリー,0
2209,7021002054488,登記記録の閉鎖等,0,2021-08-04,2021-07-26,有限会社田村興産,,有限会社,東京都,世田谷区,等々力６丁目２６番１０号,,13,112,1580082,,,2021-07-26,合併による解散等,3010901040215,令和３年５月２５日東京都世田谷区等々力六丁目２６番１０号ＡＥＢＡ．ＳＴＵＤＩＯ株式会社（3010901040215）に合併し解散,2015-10-05,1,,,,,タムラコウサン,0
2210,7021005005075,登記記録の閉鎖等,0,2021-08-04,2021-07-19,医療法人仁成会,,その他の設立登記法人,神奈川県,綾瀬市,寺尾中１丁目８番１１号カタノビル２Ｆ,,14,218,2521132,,,2021-07-19,清算の結了等,,,2015-10-05,1,,,,,ジンセイカイ,0
2211,7030001023957,登記記録の閉鎖等,0,2021-08-04,2021-07-20,オール・エイド企画株式会社,,株式会社,埼玉県,所沢市,東狭山ケ丘１丁目８番地の２０,,11,208,3591106,,,2021-07-20,清算の結了等,,,2015-10-05,1,,,,,オールエイドキカク,0
2213,7030001070256,登記記録の閉鎖等,0,2021-08-04,2021-07-19,株式会社地域協働推進機構,,株式会社,埼玉県,鶴ヶ島市,大字三ツ木１６番地１,,11,241,3502217,,,2021-07-19,清算の結了等,,,2015-10-05,1,,,,,チイキキョウドウスイシンキコウ,0
2220,7030002036751,登記記録の閉鎖等,0,2021-08-04,2021-07-19,株式会社ジーピーエス入間,,株式会社,埼玉県,入間市,小谷田３丁目８番１１号,,11,225,3580026,,,2021-07-19,清算の結了等,,,2015-10-05,1,,,,,ジーピーエスイルマ,0
2244,7060001014251,登記記録の閉鎖等,0,2021-08-04,2021-07-27,株式会社コーテツ起業,,株式会社,栃木県,小山市,城北４丁目３８番地１,,09,208,3230029,,,2021-07-27,合併による解散等,1010001034144,令和３年７月１日東京都中央区八重洲一丁目８番１７号東京鋼鐵株式会社（1010001034144）に合併し解散,2015-10-05,1,,,,,コーテツキギョウ,0
2267,7100002009287,登記記録の閉鎖等,0,2021-08-04,2021-08-02,有限会社内山ポンプ店,,有限会社,長野県,千曲市,大字粟佐１５３７番地,,20,218,3870006,,,2021-08-02,清算の結了等,,,2015-10-05,1,,,,,ウチヤマポンプテン,0
2270,7110001027322,登記記録の閉鎖等,0,2021-08-04,2021-07-30,株式会社Ｏｌｉｖｅ,,株式会社,新潟県,新潟市中央区,東大通２丁目７番２８号,,15,103,9500087,,,2021-07-30,清算の結了等,,,2015-10-05,1,,,,,,0
2271,7110002002943,登記記録の閉鎖等,0,2021-08-04,2021-07-28,有限会社新光食品,,有限会社,新潟県,新潟市江南区,江口２１３６番地４,,15,104,9500101,,,2021-07-28,清算の結了等,,,2015-10-05,1,,,,,シンコウショクヒン,0
2275,7110005014928,登記記録の閉鎖等,0,2021-08-04,2021-07-30,一般社団法人杉本鉞子研究会,,その他の設立登記法人,新潟県,長岡市,四郎丸３丁目５番３７号,,15,202,9400046,,,2021-07-30,清算の結了等,,,2015-10-05,1,,,,,スギモトエツコケンキュウカイ,0
2292,7120903002834,登記記録の閉鎖等,0,2021-08-04,2021-08-02,Ｓｕｇａｒ　Ｂｅａｔ合同会社,,合同会社,大阪府,吹田市,津雲台１丁目１番２号アーバス南千里１０２号室,,27,205,5650862,,,2021-08-02,清算の結了等,,,2019-05-22,1,,,,,シュガービート,0
2316,7150005007985,登記記録の閉鎖等,0,2021-08-04,2021-07-29,司法書士法人小川・北岡法務事務所,,その他の設立登記法人,奈良県,橿原市,八木町１丁目８番１５号ヤマトー八木４階,,29,205,6340078,,,2021-07-29,清算の結了等,,,2015-10-05,1,,,,,オガワキタオカホウムジムショ,0
2324,7180001071470,登記記録の閉鎖等,0,2021-08-04,2021-08-02,株式会社リージョンジャパン,,株式会社,愛知県,名古屋市熱田区,神宮２丁目６番１６号,,23,109,4560031,,,2021-08-02,清算の結了等,,,2015-10-05,1,,,,,リージョンジャパン,0
2341,7180002089925,登記記録の閉鎖等,0,2021-08-04,2021-07-30,有限会社エイナン,,有限会社,愛知県,弥富市,鍋田町稲山３９３番地の１３,,23,235,4980068,,,2021-07-30,清算の結了等,,,2015-10-05,1,,,,,エイナン,0
2349,7180302027238,登記記録の閉鎖等,0,2021-08-04,2021-08-02,有限会社冨士工業,,有限会社,愛知県,西尾市,一色町中外沢下長割２６番地２,,23,213,4440428,,,2021-08-02,清算の結了等,,,2015-10-05,1,,,,,フジコウギョウ,0
2368,7240001017054,登記記録の閉鎖等,0,2021-08-04,2021-07-16,シーエス企画株式会社,,株式会社,広島県,広島市佐伯区,五日市５丁目１６番１６号,,34,108,7315127,,,2021-07-16,清算の結了等,,,2021-07-14,1,,,,,シーエスキカク,0
2404,7340001020023,登記記録の閉鎖等,0,2021-08-04,2021-07-21,株式会社ラブリー不動産,,株式会社,鹿児島県,鹿児島市,慈眼寺町１０番１４号,,46,201,8910146,,,2021-07-21,清算の結了等,,,2017-02-03,1,,,,,,0
2407,7350001005725,登記記録の閉鎖等,0,2021-08-04,2021-08-02,株式会社キングサービス,,株式会社,宮崎県,児湯郡新富町,大字上富田３２０４番地１,,45,402,8891403,,,2021-08-02,合併による解散等,7350001000437,令和３年８月１日宮崎市大字本郷南方２２３番地１株式会社キング（7350001000437）に合併し解散,2015-10-05,1,,,,,キングサービス,0
2419,7400001014539,登記記録の閉鎖等,0,2021-08-04,2021-07-29,株式会社八十八,,株式会社,岩手県,盛岡市,湯沢南１丁目１６番１８号,,03,201,0200845,,,2021-07-29,清算の結了等,,,2019-03-25,1,,,,,ハチジュウハチ,0
2428,7430001052718,登記記録の閉鎖等,0,2021-08-04,2021-07-20,株式会社オーロラエンタープライズ,,株式会社,北海道,苫小牧市,元中野町４丁目１番７号,,01,213,0530005,,,2021-07-20,合併による解散等,6430001053436,令和３年７月１日北海道苫小牧市元中野町四丁目１番７号北洋海運株式会社（6430001053436）に合併し解散,2015-10-05,1,,,,,オーロラエンタープライズ,0
2437,7440005000911,登記記録の閉鎖等,0,2021-08-04,2021-07-30,福島町するめ加工協同組合,,その他の設立登記法人,北海道,松前郡福島町,字三岳８番地の９,,01,332,0491331,,,2021-07-30,清算の結了等,,,2015-10-05,1,,,,,フクシマチョウスルメカコウ,0
2442,7460301003830,登記記録の閉鎖等,0,2021-08-04,2021-07-30,セキュリティシステム株式会社,,株式会社,北海道,北見市,東相内町２３番地４プリオール１０７号室,,01,208,0990878,,,2021-07-30,清算の結了等,,,2015-10-05,1,,,,,,0
2445,7470002001257,登記記録の閉鎖等,0,2021-08-04,2021-08-02,有限会社梅村歯科技工所,,有限会社,香川県,高松市,川島東町９５６番地１,,37,201,7610443,,,2021-08-02,清算の結了等,,,2015-10-05,1,,,,,ウメムラシカギコウショ,0
2447,7470002004111,登記記録の閉鎖等,0,2021-08-04,2021-07-30,有限会社高松総合保険事務所,,有限会社,香川県,高松市,高松町３００３番地３,,37,201,7610104,,,2021-07-30,清算の結了等,,,2015-10-05,1,,,,,タカマツソウゴウホケンジムショ,0
2450,7500001000495,登記記録の閉鎖等,0,2021-08-04,2021-08-02,株式会社９１９愛媛,,株式会社,愛媛県,松山市,堀江町番外２２２番地３２,,38,201,7992651,,,2021-08-02,清算の結了等,,,2015-10-05,1,,,,,クイックエヒメ,0
2482,8010501006090,登記記録の閉鎖等,0,2021-08-04,2021-07-26,株式会社トスマット,,株式会社,東京都,台東区,東浅草２丁目２０番１号,,13,106,1110025,,,2021-07-26,清算の結了等,,,2015-10-05,1,,,,,トスマット,0
2505,8011301024935,登記記録の閉鎖等,0,2021-08-04,2021-07-01,ｗａｃｋｗａｃｋ　ｃｒｅａｔｉｖｅ株式会社,,株式会社,東京都,千代田区,神田司町２丁目１７番地１０,,13,101,1010048,,,2021-07-01,合併による解散等,1010901033641,令和３年７月１日東京都千代田区神田司町二丁目１７番地１０ｗａｃｋｗａｃｋ　ｃｒｅａｔｉｖｅ株式会社（1010901033641）に合併し解散,2019-04-03,1,,,,,ワクワククリエイティブ,0
2510,8011501016492,登記記録の閉鎖等,0,2021-08-04,2021-07-30,株式会社ダンデライオン,,株式会社,東京都,北区,中十条４丁目１番１０号福寿ハイム２０１号室,,13,117,1140032,,,2021-07-30,清算の結了等,,,2015-10-05,1,,,,,ダンデライオン,0
2512,8011601012879,登記記録の閉鎖等,0,2021-08-04,2021-08-03,株式会社トーコー印刷,,株式会社,東京都,練馬区,貫井３丁目１９番６号,,13,120,1760021,,,2021-08-03,清算の結了等,,,2015-10-05,1,,,,,トーコーインサツ,0
2534,8020003013881,登記記録の閉鎖等,0,2021-08-04,2021-07-26,合同会社ストリートビートトレーディング,,合同会社,神奈川県,横浜市都筑区,荏田東２丁目１番２７号,,14,118,2240006,,,2021-07-26,清算の結了等,,,2018-02-01,1,,,,,ストリートビートトレーデイング,0
2538,8021001042385,登記記録の閉鎖等,0,2021-08-04,2021-07-27,株式会社ネーブルマーケット,,株式会社,神奈川県,横須賀市,上町３丁目９番地,,14,201,2380017,,,2021-07-27,清算の結了等,,,2015-10-05,1,,,,,ネーブルマーケット,0
2540,8021002011091,登記記録の閉鎖等,0,2021-08-04,2021-07-21,有限会社駒井板金製作所,,有限会社,神奈川県,茅ヶ崎市,萩園７４２番地,,14,207,2530071,,,2021-07-21,清算の結了等,,,2015-10-05,1,,,,,コマイバンキンセイサクショ,0
2550,8030003003130,登記記録の閉鎖等,0,2021-08-04,2021-07-20,合資会社クローバーシステム,,合資会社,埼玉県,鴻巣市,松原３丁目６番１５号,,11,217,3650042,,,2021-07-20,清算の結了等,,,2015-10-05,1,,,,,クローバーシステム,0
2557,8040002069568,登記記録の閉鎖等,0,2021-08-04,2021-07-27,有限会社安藤建築所,,有限会社,千葉県,君津市,平山７２９番地,,12,225,2920502,,,2021-07-27,清算の結了等,,,2015-10-05,1,,,,,アンドウケンチクジョ,0
2588,8110001015961,登記記録の閉鎖等,0,2021-08-04,2021-07-28,株式会社田中商店,,株式会社,新潟県,燕市,東太田２９７２番地２,,15,213,9591289,,,2021-07-28,清算の結了等,,,2015-10-05,1,,,,,タナカショウテン,0
2632,8140001018549,登記記録の閉鎖等,0,2021-08-04,2021-08-02,太平産業株式会社,,株式会社,兵庫県,神戸市垂水区,塩屋町２丁目５番６号,,28,108,6550872,,,2021-08-02,清算の結了等,,,2015-10-05,1,,,,,タイヘイサンギョウ,0
2659,8180003011242,登記記録の閉鎖等,0,2021-08-04,2021-07-29,合資会社鈴井,,合資会社,愛知県,犬山市,大字犬山字高見町９番地,,23,215,4840081,,,2021-07-29,清算の結了等,,,2015-10-05,1,,,,,スズイ,0
2681,8200002022106,登記記録の閉鎖等,0,2021-08-04,2021-07-30,有限会社畠中土木,,有限会社,岐阜県,瑞浪市,稲津町小里４４番地の１の１,,21,208,5096103,,,2021-07-30,清算の結了等,,,2015-10-05,1,,,,,ハタナカドボク,0
2707,8270002001053,登記記録の閉鎖等,0,2021-08-04,2021-07-26,有限会社新栄被服,,有限会社,鳥取県,鳥取市,湖山町東３丁目６３番地,,31,201,6800942,,,2021-07-26,清算の結了等,,,2015-10-05,1,,,,,シンエイヒフク,0
2712,8290001064553,登記記録の閉鎖等,0,2021-08-04,2021-07-09,ナムプラントシステム株式会社,,株式会社,福岡県,飯塚市,下三緒３５番地５７２,,40,205,8200012,,,2021-07-09,清算の結了等,,,2015-10-05,1,,,,,ナムプラントシステム,0
2742,8370001019409,登記記録の閉鎖等,0,2021-08-04,2021-07-15,アーバンキャステール株式会社,,株式会社,宮城県,仙台市青葉区,川内大工町５６番地,,04,101,9800853,,,2021-07-15,清算の結了等,,,2015-10-05,1,,,,,アーバンキャステール,0
2750,8390001005654,登記記録の閉鎖等,0,2021-08-04,2021-07-26,株式会社グリーンブルー,,株式会社,山形県,山形市,飯塚町字中河原１６２９番地の５,,06,201,9900845,,,2021-07-26,清算の結了等,,,2015-10-05,1,,,,,グリーンブルー,0
2768,8430001062914,登記記録の閉鎖等,0,2021-08-04,2021-07-28,チトセ浜理薬品株式会社,,株式会社,北海道,千歳市,泉沢１００７番地８１,,01,224,0660051,,,2021-07-28,合併による解散等,3120001186617,令和３年７月１６日大阪市住之江区南港北一丁目１９番４０号浜理ＰＦＳＴ株式会社（3120001186617）に合併し解散,2015-10-05,1,,,,,チトセハマリヤクヒン,0
2789,8500001000742,登記記録の閉鎖等,0,2021-08-04,2021-08-02,愛媛繊維工業株式会社,,株式会社,愛媛県,松山市,堀江町番外２２２番地３２,,38,201,7992651,,,2021-08-02,清算の結了等,,,2015-10-05,1,,,,,エヒメセンイコウギョウ,0
2814,9010401138215,登記記録の閉鎖等,0,2021-08-04,2021-07-27,株式会社リパレット,,株式会社,東京都,中央区,銀座６丁目１３－１６銀座ＷａｌｌビルＵＣＦ５階,,13,102,1040061,,,2021-07-27,清算の結了等,,,2018-05-10,1,,,,,リパレット,0
2830,9010901001491,登記記録の閉鎖等,0,2021-08-04,2021-07-26,株式会社臼井自動車,,株式会社,神奈川県,川崎市宮前区,神木２丁目５番地４２,,14,136,2160032,,,2021-07-26,清算の結了等,,,2015-10-05,1,,,,,ウスイジドウシャ,0
2833,9011001066649,登記記録の閉鎖等,0,2021-08-04,2021-07-14,ビッグハートトラベルエージェンシー株式会社,,株式会社,東京都,渋谷区,恵比寿４丁目２０－３恵比寿ガーデンプレイスタワー２４Ｆ,,13,113,1500013,,,2021-07-14,清算の結了等,,,2015-10-05,1,,,,,ビッグハートトラベルエージェンシー,0
2861,9013101007251,登記記録の閉鎖等,0,2021-08-04,2021-07-30,株式会社翔健企画,,株式会社,東京都,福生市,加美平４丁目１番地,,13,218,1970012,,,2021-07-30,清算の結了等,,,2016-03-02,1,,,,,,0
2866,9020001081426,登記記録の閉鎖等,0,2021-08-04,2021-07-21,株式会社Ｖｎｅｘ,,株式会社,神奈川県,川崎市高津区,二子４丁目２０番４８号,,14,134,2130002,,,2021-07-21,清算の結了等,,,2015-10-05,1,,,,,ブイネックス,0
2871,9020002021199,登記記録の閉鎖等,0,2021-08-04,2021-07-26,有限会社小林精機,,有限会社,神奈川県,横浜市旭区,西川島町１１６番地の８,,14,112,2410012,,,2021-07-26,清算の結了等,,,2015-10-05,1,,,,,コバヤシセイキ,0
2873,9020003008971,登記記録の閉鎖等,0,2021-08-04,2021-07-26,合同会社セルフコンセプト,,合同会社,神奈川県,川崎市中原区,上平間１７００－２２１－１０２,,14,133,2110013,,,2021-07-26,清算の結了等,,,2015-10-05,1,,,,,セルフコンセプト,0
2887,9040001050494,登記記録の閉鎖等,0,2021-08-04,2021-07-26,株式会社木更津食品卸売センター,,株式会社,千葉県,木更津市,新田３丁目３番１２号,,12,206,2920832,,,2021-07-26,清算の結了等,,,2015-10-05,1,,,,,キサラヅショクヒンオロシウリセンター,0
2892,9040002057753,登記記録の閉鎖等,0,2021-08-04,2021-07-21,有限会社パテントマネージメント,,有限会社,千葉県,印西市,木刈３丁目８番地の５,,12,231,2701359,,,2021-07-21,清算の結了等,,,2015-10-05,1,,,,,パテントマネージメント,0
2928,9080401014979,登記記録の閉鎖等,0,2021-08-04,2021-08-02,株式会社アクト,,株式会社,静岡県,御前崎市,池新田８０７２番地の３,,22,223,4371612,,,2021-08-02,清算の結了等,,,2015-10-05,1,,,,,アクト,0
2946,9120002077272,登記記録の閉鎖等,0,2021-08-04,2021-07-27,有限会社Ｃｌｅａｒ　Ｓｋｙ　Ｃｏｒｐｏｒａｔｉｏｎ,,有限会社,大阪府,寝屋川市,点野３丁目２６番７号,,27,215,5720077,,,2021-07-27,清算の結了等,,,2015-10-05,1,,,,,,0
2947,9120005008514,登記記録の閉鎖等,0,2021-08-04,2021-07-30,ＮＰＯ法人伝統文化みおつくし倶楽部,,その他の設立登記法人,大阪府,大阪市西成区,山王２丁目１１番１３号,,27,122,5570001,,,2021-07-30,清算の結了等,,,2015-10-05,1,,,,,デントウブンカミオツクシクラブ,0
2956,9140001003938,登記記録の閉鎖等,0,2021-08-04,2021-07-30,株式会社ビルアンドビル,,株式会社,兵庫県,神戸市灘区,大石東町５丁目２番５号,,28,102,6570043,,,2021-07-30,清算の結了等,,,2015-10-05,1,,,,,ビルアンドビル,0
2958,9140002062413,登記記録の閉鎖等,0,2021-08-04,2021-07-29,有限会社高見電工,,有限会社,兵庫県,加西市,北条町北条２８３番地の１５,,28,220,6752312,,,2021-07-29,清算の結了等,,,2015-10-05,1,,,,,タカミデンコウ,0
2967,9180001072335,登記記録の閉鎖等,0,2021-08-04,2021-07-27,株式会社ウノ建装,,株式会社,愛知県,名古屋市港区,秋葉１丁目４１番地,,23,111,4550857,,,2021-07-27,清算の結了等,,,2015-10-05,1,,,,,ウノケンソウ,0
2970,9180001078910,登記記録の閉鎖等,0,2021-08-04,2021-07-27,杉山プラントエンジニアリング株式会社,,株式会社,愛知県,瀬戸市,穴田町９７０番地２,,23,204,4890003,,,2021-07-27,清算の結了等,,,2015-10-05,1,,,,,スギヤマプラントエンジニアリング,0
2976,9180001141924,登記記録の閉鎖等,0,2021-08-04,2021-07-28,株式会社８,,株式会社,愛知県,名古屋市北区,田幡２丁目１２番５号丸昌ビル２Ｃ,,23,103,4620843,,,2021-07-28,清算の結了等,,,2020-07-09,1,,,,,エイト,0
2985,9180002001994,登記記録の閉鎖等,0,2021-08-04,2021-07-30,原企画有限会社,,有限会社,愛知県,名古屋市北区,田幡２丁目５番１２号,,23,103,4620843,,,2021-07-30,清算の結了等,,,2015-10-05,1,,,,,ハラキカク,0
2986,9180002048540,登記記録の閉鎖等,0,2021-08-04,2021-07-30,有限会社ウワギ,,有限会社,愛知県,名古屋市南区,忠次２丁目１番１号,,23,112,4570843,,,2021-07-30,清算の結了等,,,2015-10-05,1,,,,,ウワギ,0
2987,9180002072846,登記記録の閉鎖等,0,2021-08-04,2021-07-29,有限会社宝商事,,有限会社,愛知県,尾張旭市,東大道町曽我廻間２３８１番地,,23,226,4880802,,,2021-07-29,清算の結了等,,,2015-10-05,1,,,,,タカラショウジ,0
3009,9240001024239,登記記録の閉鎖等,0,2021-08-04,2021-07-14,株式会社アクセント広島,,株式会社,広島県,広島市東区,戸坂大上４丁目２６番１７－２号,,34,102,7320014,,,2021-07-14,清算の結了等,,,2015-10-05,1,,,,,アクセントヒロシマ,0
3025,9260003001861,登記記録の閉鎖等,0,2021-08-04,2021-08-02,ＳＡＮＳ不動産合同会社,,合同会社,岡山県,岡山市中区,藤原光町１丁目９－８　１階Ｂ－２号室,,33,102,7038246,,,2021-08-02,清算の結了等,,,2015-10-26,1,,,,,サンズフドウサン,0
3027,9270002001622,登記記録の閉鎖等,0,2021-08-04,2021-07-27,有限会社仲屋呉服店,,有限会社,鳥取県,鳥取市,戎町５１２番地,,31,201,6800055,,,2021-07-27,清算の結了等,,,2015-10-05,1,,,,,ナカヤゴフクテン,0
3037,9300001006065,登記記録の閉鎖等,0,2021-08-04,2021-07-27,株式会社炭火焼肉匠,,株式会社,佐賀県,伊万里市,大坪町甲２８５９番地９,,41,205,8480021,,,2021-07-27,清算の結了等,,,2015-10-05,1,,,,,スミビヤキニクタクミ,0
3051,9360001007941,登記記録の閉鎖等,0,2021-08-04,2021-07-27,株式会社ＧＯＹＡ,,株式会社,沖縄県,沖縄市,高原６丁目１３番２８号,,47,211,9042171,,,2021-07-27,清算の結了等,,,2015-10-05,1,,,,,ゴヤ,0
3060,9420002001747,登記記録の閉鎖等,0,2021-08-04,2021-07-26,有限会社大光食品,,有限会社,青森県,青森市,大字油川字千刈１２３番地３,,02,201,0380059,,,2021-07-26,清算の結了等,,,2015-10-05,1,,,,,,0
3061,9420002018907,登記記録の閉鎖等,0,2021-08-04,2021-07-28,第一重機整備有限会社,,有限会社,青森県,上北郡東北町,字内蛯沢向７１番地の７,,02,408,0392656,,,2021-07-28,清算の結了等,,,2015-10-05,1,,,,,ダイイチジュウキセイビ,0
3062,9430005001058,登記記録の閉鎖等,0,2021-08-04,2021-07-21,一般社団法人北海道退職公務員連盟,,その他の設立登記法人,北海道,札幌市中央区,南四条西６丁目８番３,,01,101,0640804,,,2021-07-21,清算の結了等,,,2015-10-05,1,,,,,ホッカイドウタイショクコウムインレンメイ,0
3065,9450002005547,登記記録の閉鎖等,0,2021-08-04,2021-08-03,有限会社ミシマ,,有限会社,北海道,旭川市,緑が丘三条１丁目２番地の１５,,01,204,0788303,,,2021-08-03,清算の結了等,,,2015-10-05,1,,,,,ミシマ,0
3077,9500001008826,登記記録の閉鎖等,0,2021-08-04,2021-07-15,株式会社今出銀行,,株式会社,愛媛県,松山市,大字湊町四丁目８６番地,,38,201,7910000,,,2021-07-15,清算の結了等,,,2020-01-28,1,,,,,イマヅギンコウ,0
