sequenceNumber,corporateNumber,process,correct,updateDate,changeDate,name,nameImageId,kind,prefectureName,cityName,streetNumber,addressImageId,prefectureCode,cityCode,postCode,addressOutside,addressOutsideImageId,closeDate,closeCause,successorCorporateNumber,changeCause,assignmentDate,latest,enName,enPrefectureName,enCityName,enAddressOutside,furigana,hihyoji
6,1010001145585,登記記録の閉鎖等,0,2022-08-17,2022-08-05,株式会社さくら,,株式会社,東京都,中央区,銀座１丁目９番５号,,13,102,1040061,,,2022-08-05,清算の結了等,,,2015-10-05,1,,,,,サクラ,0
13,1010005015256,登記記録の閉鎖等,0,2022-08-17,2022-07-20,ソフトウェア開発販売関東協同組合,,その他の設立登記法人,東京都,港区,三田３丁目１番１７号,,13,103,1080073,,,2022-07-20,清算の結了等,,,2015-10-05,1,,,,,ソフトウェアカイハツハンバイカントウ,0
23,1010405000378,登記記録の閉鎖等,0,2022-08-17,2022-07-28,一般社団法人全国樺太連盟,,その他の設立登記法人,東京都,港区,麻布台３丁目１番６号,,13,103,1060041,,,2022-07-28,清算の結了等,,,2015-10-05,1,,,,,ゼンコクカラフトレンメイ,0
41,1010901025325,登記記録の閉鎖等,0,2022-08-17,2022-08-10,株式会社マイル,,株式会社,東京都,世田谷区,宮坂１丁目２６番６号,,13,112,1560051,,,2022-08-10,清算の結了等,,,2015-10-05,1,,,,,マイル,0
49,1011101053595,登記記録の閉鎖等,0,2022-08-17,2022-08-10,株式会社ＴＢ管財,,株式会社,東京都,新宿区,下落合２丁目５番３号千成ビル２０３,,13,104,1610033,,,2022-08-10,清算の結了等,,,2015-10-05,1,,,,,ティービーカンザイ,0
75,1012703001339,登記記録の閉鎖等,0,2022-08-17,2022-08-16,ＮＲ合同会社,,合同会社,東京都,西東京市,南町１丁目１５番１０号,,13,229,1880012,,,2022-08-16,清算の結了等,,,2016-08-12,1,,,,,エヌアール,0
84,1020001117625,登記記録の閉鎖等,0,2022-08-17,2022-08-09,株式会社山本電設,,株式会社,神奈川県,横浜市鶴見区,駒岡３丁目３４番３１号,,14,101,2300071,,,2022-08-09,清算の結了等,,,2016-08-30,1,,,,,ヤマモトデンセツ,0
113,1040002053248,登記記録の閉鎖等,0,2022-08-17,2022-08-04,Ｎ－Ｉｎｃ有限会社,,有限会社,千葉県,松戸市,高塚新田３４５番地２,,12,207,2702222,,,2022-08-04,清算の結了等,,,2015-10-05,1,,,,,エヌインク,0
151,1120001243667,登記記録の閉鎖等,0,2022-08-17,2022-08-08,西村産業株式会社,,株式会社,大阪府,寝屋川市,葛原２丁目１４番１２号,,27,215,5720075,,,2022-08-08,清算の結了等,,,2022-02-07,1,,,,,,0
157,1120003014868,登記記録の閉鎖等,0,2022-08-17,2022-08-10,合同会社ｇｒａｃｅ,,合同会社,大阪府,大阪市東成区,大今里南３丁目１２番１号フェルティシャトー今里５０２号,,27,115,5370013,,,2022-08-10,清算の結了等,,,2018-10-19,1,,,,,グレイス,0
164,1120105004379,登記記録の閉鎖等,0,2022-08-17,2022-08-15,特定非営利活動法人ＭｉｓｓｉｏｎＧｒａｃｅ,,その他の設立登記法人,大阪府,大阪狭山市,茱萸木３丁目１３１１－１,00046993,27,231,5890013,,,2022-08-15,清算の結了等,,,2015-10-05,1,,,,,ミッショングレース,0
174,1130002001511,登記記録の閉鎖等,0,2022-08-17,2022-08-10,有限会社ホリーウエスト,,有限会社,京都府,京都市右京区,嵯峨甲塚町１７番地の５,,26,108,6168341,,,2022-08-10,清算の結了等,,,2015-10-05,1,,,,,ホリーウエスト,0
176,1130003002756,登記記録の閉鎖等,0,2022-08-17,2022-08-10,合同会社喜楽房,,合同会社,京都府,京都市中京区,中筋通竹屋町上る末丸町５４１番地リソシエ鴨川グランディス３０６号,,26,104,6040901,,,2022-08-10,清算の結了等,,,2015-10-05,1,,,,,キラクボウ,0
204,1200005011954,登記記録の閉鎖等,0,2022-08-17,2022-08-16,一般社団法人レスタースポーツクラブ,,その他の設立登記法人,岐阜県,大垣市,荒川町３０２番地１,,21,202,5030993,,,2022-08-16,清算の結了等,,,2015-10-05,1,,,,,レスタースポーツクラブ,0
207,1240001034170,登記記録の閉鎖等,0,2022-08-17,2022-08-15,川平木材株式会社,,株式会社,広島県,府中市,元町２７番地の１,,34,208,7260003,,,2022-08-15,清算の結了等,,,2015-10-05,1,,,,,カワヒラモクザイ,0
230,1330003008246,登記記録の閉鎖等,0,2022-08-17,2022-08-01,ひかり合同会社,,合同会社,熊本県,合志市,豊岡２０００番地１７７４,,43,216,8611115,,,2022-08-01,合併による解散等,5330003005801,令和４年８月１日熊本県合志市豊岡２０００番地１７７４マルス合同会社（5330003005801）に合併し解散,2020-01-28,1,,,,,ヒカリ,0
240,1410002011903,登記記録の閉鎖等,0,2022-08-17,2022-08-10,有限会社柳田組,00086878,有限会社,秋田県,大仙市,高梨字於園５１番地,,05,212,0140805,,,2022-08-10,清算の結了等,,,2015-10-05,1,,,,,ヤナギダグミ,0
274,2010103000720,登記記録の閉鎖等,0,2022-08-17,2022-08-09,Ｋ　ＣＯＭｍＥＲＣＥ合同会社,,合同会社,東京都,八王子市,石川町２５１１番地２６,,13,201,1920032,,,2022-08-09,清算の結了等,,,2015-10-05,1,,,,,ケーコンマース,0
328,2020001124034,登記記録の閉鎖等,0,2022-08-17,2022-08-08,日本未来興産株式会社,,株式会社,神奈川県,横浜市中区,扇町２丁目５番地１４Ｙ′ｓトレゾワ関内６０２号,,14,104,2310027,,,2022-08-08,清算の結了等,,,2017-11-28,1,,,,,ニホンミライコウサン,0
337,2021003007664,登記記録の閉鎖等,0,2022-08-17,2022-08-12,アドバンス鎌倉合同会社,,合同会社,神奈川県,鎌倉市,梶原２丁目７番１４号,,14,204,2470063,,,2022-08-12,清算の結了等,,,2018-07-26,1,,,,,アドバンスカマクラ,0
338,2021005007167,登記記録の閉鎖等,0,2022-08-17,2022-08-15,特定非営利活動法人オアシス,,その他の設立登記法人,神奈川県,平塚市,万田９４９番地の１,,14,203,2540913,,,2022-08-15,清算の結了等,,,2015-10-05,1,,,,,オアシス,0
344,2030002040972,登記記録の閉鎖等,0,2022-08-17,2022-08-02,有限会社大島商店,,有限会社,埼玉県,加須市,向川岸町５番４６号,,11,210,3470067,,,2022-08-02,清算の結了等,,,2015-10-05,1,,,,,オオシマショウテン,0
365,2070002004692,登記記録の閉鎖等,0,2022-08-17,2022-08-08,有限会社古沢自動車修理工場,,有限会社,群馬県,前橋市,上細井町８６８番地の７,,10,201,3710051,,,2022-08-08,清算の結了等,,,2015-10-05,1,,,,,フルサワジドウシャシュウリコウジョウ,0
383,2120002039056,登記記録の閉鎖等,0,2022-08-17,2022-08-12,有限会社保田ラジオ電機商会,,有限会社,大阪府,大阪市中央区,（大阪市南区道頓堀一丁目東５番２４号）,,27,128,5390000,,,2022-08-12,清算の結了等,,,2015-10-05,1,,,,,,1
410,2150003002225,登記記録の閉鎖等,0,2022-08-17,2022-08-15,合同会社ＳＫＳ,,合同会社,奈良県,高市郡高取町,大字清水谷１３００番地４９１,,29,401,6350103,,,2022-08-15,清算の結了等,,,2020-09-23,1,,,,,エスケイエス,0
435,2280003001296,登記記録の閉鎖等,0,2022-08-17,2022-08-15,合同会社ＴＳＵＧＵ,,合同会社,島根県,雲南市,木次町木次７５４番地６ベルポート八日市１号棟１１１号,,32,209,6991332,,,2022-08-15,清算の結了等,,,2019-06-03,1,,,,,ツグ,0
442,2310001003613,登記記録の閉鎖等,0,2022-08-17,2022-08-15,株式会社長崎シティＦＭ,,株式会社,長崎県,長崎市,江戸町２番２８号,,42,201,8500861,,,2022-08-15,清算の結了等,,,2015-10-05,1,,,,,,0
444,2330003005300,登記記録の閉鎖等,0,2022-08-17,2022-08-05,合同会社Ｔｏｍｏｔｔｏ,,合同会社,熊本県,山鹿市,鹿本町来民１２０２－１,,43,208,8610331,,,2022-08-05,清算の結了等,,,2015-10-05,1,,,,,トモット,0
457,2430001033045,登記記録の閉鎖等,0,2022-08-17,2022-08-01,富士産業株式会社,,株式会社,北海道,石狩市,花川北一条２丁目２４９番地,,01,235,0613211,,,2022-08-01,清算の結了等,,,2015-10-05,1,,,,,フジサンギョウ,0
461,2430002022212,登記記録の閉鎖等,0,2022-08-17,2022-08-04,有限会社レオンおおうら,,有限会社,北海道,札幌市手稲区,前田六条１４丁目１１番１０号,,01,109,0060816,,,2022-08-04,清算の結了等,,,2015-10-05,1,,,,,レオンオオウラ,0
489,3010003027441,登記記録の閉鎖等,0,2022-08-17,2022-08-05,合同会社有明ワン,,合同会社,東京都,千代田区,丸の内３丁目１番１号東京共同会計事務所内,,13,101,1000005,,,2022-08-05,清算の結了等,,,2018-05-01,1,,,,,アリアケワン,0
496,3010401080769,登記記録の閉鎖等,0,2022-08-17,2022-07-28,株式会社スタジオヤマト,,株式会社,東京都,港区,白金台３丁目１４番４号,,13,103,1080071,,,2022-07-28,清算の結了等,,,2015-10-05,1,,,,,スタジオヤマト,0
513,3010901021693,登記記録の閉鎖等,0,2022-08-17,2022-08-09,株式会社シャンブル,,株式会社,東京都,世田谷区,北沢３丁目５番９号,,13,112,1550031,,,2022-08-09,合併による解散等,5010901013425,令和４年８月１日東京都世田谷区北沢三丁目５番９号株式会社ニュー・エイジ・トレーディング（5010901013425）に合併し解散,2015-10-05,1,,,,,シャンブル,0
527,3011202000305,登記記録の閉鎖等,0,2022-08-17,2022-08-02,有限会社アズマ工務店,,有限会社,東京都,中野区,新井３丁目３５番１６号,,13,114,1650026,,,2022-08-02,清算の結了等,,,2015-10-05,1,,,,,アズマコウムテン,0
529,3011401019385,登記記録の閉鎖等,0,2022-08-17,2022-08-12,東匠ＴＥＣ株式会社,,株式会社,東京都,葛飾区,立石５丁目５番２３号,,13,122,1240012,,,2022-08-12,清算の結了等,,,2016-04-19,1,,,,,トウショウテック,0
532,3011701020448,登記記録の閉鎖等,0,2022-08-17,2022-08-15,廣藤建設株式会社,,株式会社,東京都,江戸川区,東葛西６丁目１８番８－４０１号,,13,123,1340084,,,2022-08-15,清算の結了等,,,2016-12-20,1,,,,,ヒロフジケンセツ,0
542,3012405001783,登記記録の閉鎖等,0,2022-08-17,2022-08-09,特定非営利活動法人むさしのみたか市民テレビ局,,その他の設立登記法人,東京都,三鷹市,下連雀３丁目３８番４号三鷹産業プラザ,,13,204,1810013,,,2022-08-09,清算の結了等,,,2015-10-05,1,,,,,ムサシノミタカシミンテレビキョク,0
546,3020001053430,登記記録の閉鎖等,0,2022-08-17,2022-08-08,株式会社才茂,,株式会社,神奈川県,横浜市港南区,最戸２丁目１１番１１号,,14,111,2330008,,,2022-08-08,清算の結了等,,,2015-10-05,1,,,,,サイシゲ,0
547,3020001093889,登記記録の閉鎖等,0,2022-08-17,2022-08-08,株式会社博和,,株式会社,神奈川県,横浜市泉区,中田南２丁目１１番４６号,,14,116,2450014,,,2022-08-08,清算の結了等,,,2015-10-05,1,,,,,ハクワ,0
565,3030001145045,登記記録の閉鎖等,0,2022-08-17,2022-08-02,株式会社プチボヌール,,株式会社,埼玉県,所沢市,くすのき台３丁目１８番地５,,11,208,3590037,,,2022-08-02,清算の結了等,,,2021-11-01,1,,,,,プチボヌール,0
566,3030002061852,登記記録の閉鎖等,0,2022-08-17,2022-08-03,長育舍商事有限会社,,有限会社,埼玉県,新座市,北野２丁目１１番７号,,11,230,3520003,,,2022-08-03,清算の結了等,,,2015-10-05,1,,,,,チョウイクシャショウジ,0
573,3040001081958,登記記録の閉鎖等,0,2022-08-17,2022-08-02,株式会社フジケア,,株式会社,千葉県,市川市,市川１丁目２３番９号,,12,203,2720034,,,2022-08-02,清算の結了等,,,2015-10-05,1,,,,,フジケア,0
575,3040001089480,登記記録の閉鎖等,0,2022-08-17,2022-08-03,株式会社ＯＣＲＯＳＳ,,株式会社,千葉県,八千代市,大和田新田４７７番地の１４６アルファグランデ八千代中央弐番街１２０５,,12,221,2760046,,,2022-08-03,清算の結了等,,,2015-10-05,1,,,,,オクロス,0
586,3060002011400,登記記録の閉鎖等,0,2022-08-17,2022-08-08,有限会社菊池工業,,有限会社,栃木県,宇都宮市,東岡本町７４２番地３１３,,09,201,3291103,,,2022-08-08,清算の結了等,,,2015-10-05,1,,,,,キクチコウギョウ,0
587,3060002015145,登記記録の閉鎖等,0,2022-08-17,2022-08-08,有限会社角田電機工業所,,有限会社,栃木県,日光市,瀬川１８５番地,,09,206,3211263,,,2022-08-08,清算の結了等,,,2015-10-05,1,,,,,ツノダデンキコウギョウショ,0
615,3120002008646,登記記録の閉鎖等,0,2022-08-17,2022-08-12,有限会社古市住宅,,有限会社,大阪府,大阪市城東区,古市１丁目１３番１６号,,27,118,5360001,,,2022-08-12,清算の結了等,,,2015-10-05,1,,,,,フルイチジュウタク,0
616,3120002067188,登記記録の閉鎖等,0,2022-08-17,2022-08-12,有限会社ゲッツ・関西,,有限会社,大阪府,大阪市港区,港晴２丁目８番５号,,27,107,5520023,,,2022-08-12,清算の結了等,,,2015-10-05,1,,,,,ゲッツカンサイ,0
621,3120101051968,登記記録の閉鎖等,0,2022-08-17,2022-08-10,加藤商事株式会社,,株式会社,大阪府,堺市堺区,甲斐町東６丁１番２６号,,27,141,5900953,,,2022-08-10,清算の結了等,,,2015-10-05,1,,,,,カトウショウジ,0
634,3150001015252,登記記録の閉鎖等,0,2022-08-17,2022-08-15,株式会社タッククリエイト,,株式会社,奈良県,北葛城郡広陵町,馬見中３丁目１番３８号,,29,426,6350832,,,2022-08-15,清算の結了等,,,2015-10-05,1,,,,,タッククリエイト,0
637,3180001113904,登記記録の閉鎖等,0,2022-08-17,2022-08-12,株式会社ヒューマンコラボレーション,,株式会社,愛知県,名古屋市中区,錦２丁目１７番１１号,,23,106,4600003,,,2022-08-12,清算の結了等,,,2015-10-05,1,,,,,ヒューマンコラボレーション,0
652,3180301032985,登記記録の閉鎖等,0,2022-08-17,2022-08-09,株式会社ＨＲ,,株式会社,愛知県,豊田市,本新町７丁目３７番地,,23,211,4710046,,,2022-08-09,清算の結了等,,,2019-10-03,1,,,,,エイチアール,0
659,3260001005275,登記記録の閉鎖等,0,2022-08-17,2022-08-15,株式会社ネオス,,株式会社,岡山県,岡山市中区,清水２丁目７番１９号,,33,102,7038243,,,2022-08-15,清算の結了等,,,2015-10-05,1,,,,,ネオス,0
662,3280002002071,登記記録の閉鎖等,0,2022-08-17,2022-08-16,有限会社ホロンキミヤ,,有限会社,島根県,松江市,西浜佐陀町５４６番地６,,32,201,6900122,,,2022-08-16,清算の結了等,,,2015-10-05,1,,,,,ホロンキミヤ,0
696,4010001057126,登記記録の閉鎖等,0,2022-08-17,2022-07-20,ホンダレージャパン株式会社,,株式会社,東京都,中央区,銀座１丁目５番１５号,,13,102,1040061,,,2022-07-20,清算の結了等,,,2015-10-05,1,,,,,ホンダレージャパン,0
703,4010001198894,登記記録の閉鎖等,0,2022-08-17,2022-08-05,株式会社ひよこ,,株式会社,東京都,千代田区,神田佐久間町２丁目２２秋葉原再開発ビル２Ｆ,,13,101,1010025,,,2022-08-05,清算の結了等,,,2019-03-04,1,,,,,ヒヨコ,0
709,4010002043967,登記記録の閉鎖等,0,2022-08-17,2022-08-04,有限会社ＹＳインベストメント,,有限会社,東京都,千代田区,丸の内２丁目１番１号,,13,101,1000005,,,2022-08-04,清算の結了等,,,2015-10-05,1,,,,,ワイエスインベストメント,0
711,4010003024990,登記記録の閉鎖等,0,2022-08-17,2022-08-01,合同会社ＳＴＫ,,合同会社,東京都,中央区,銀座５丁目１４－９石和田ビル３階,,13,102,1040061,,,2022-08-01,清算の結了等,,,2017-03-07,1,,,,,エスティーケー,0
717,4010401025681,登記記録の閉鎖等,0,2022-08-17,2022-07-28,フォガシステム株式会社,,株式会社,東京都,港区,六本木３丁目１８番１２号,,13,103,1060032,,,2022-07-28,清算の結了等,,,2015-10-05,1,,,,,,0
718,4010401028123,登記記録の閉鎖等,0,2022-08-17,2022-07-28,株式会社マッセルバラ,,株式会社,東京都,港区,南青山６丁目１２番１２号,,13,103,1070062,,,2022-07-28,清算の結了等,,,2015-10-05,1,,,,,マッセルバラ,0
735,4010802018235,登記記録の閉鎖等,0,2022-08-17,2022-08-09,有限会社ＡＣＳオフィス,,有限会社,東京都,大田区,蒲田５丁目３６番８－５０４号,,13,111,1440052,,,2022-08-09,清算の結了等,,,2015-10-05,1,,,,,アクスオフィス,0
742,4011001060722,登記記録の閉鎖等,0,2022-08-17,2022-07-28,ＣＡＯ株式会社,,株式会社,東京都,港区,南麻布１丁目１番５号,,13,103,1060047,,,2022-07-28,清算の結了等,,,2015-10-05,1,,,,,シーエーオー,0
760,4011503001892,登記記録の閉鎖等,0,2022-08-17,2022-08-16,合同会社ナシダ,,合同会社,東京都,北区,赤羽西４丁目４１番８号,,13,117,1150055,,,2022-08-16,清算の結了等,,,2015-10-05,1,,,,,ナシダ,0
790,4030003006715,登記記録の閉鎖等,0,2022-08-17,2022-07-29,合同会社オーキッド,,合同会社,埼玉県,さいたま市緑区,宮本２丁目４番４号,,11,109,3360916,,,2022-07-29,合併による解散等,6030003006713,令和４年７月２９日さいたま市緑区宮本二丁目４番４号インベスターグリーン合同会社（6030003006713）に合併し解散,2015-10-05,1,,,,,オーキッド,0
797,4040001102548,登記記録の閉鎖等,0,2022-08-17,2022-08-03,株式会社アザラシ,,株式会社,千葉県,千葉市美浜区,磯辺２丁目１６番１号,,12,106,2610012,,,2022-08-03,清算の結了等,,,2017-11-17,1,,,,,アザラシ,0
801,4060001013669,登記記録の閉鎖等,0,2022-08-17,2022-08-08,株式会社サカガミ,,株式会社,栃木県,大田原市,紫塚２丁目２６０９番地４２,,09,210,3240058,,,2022-08-08,清算の結了等,,,2015-10-05,1,,,,,サカガミ,0
809,4080401016864,登記記録の閉鎖等,0,2022-08-17,2022-08-12,グリーンヘルス株式会社,,株式会社,静岡県,磐田市,国府台１１７番地２１,,22,211,4380077,,,2022-08-12,清算の結了等,,,2015-10-05,1,,,,,グリーンヘルス,0
832,4120005015787,登記記録の閉鎖等,0,2022-08-17,2022-08-15,一般社団法人留学生教育就職支援協会,,その他の設立登記法人,大阪府,大阪市中央区,内淡路町２丁目１番７号,,27,128,5400038,,,2022-08-15,清算の結了等,,,2015-10-05,1,,,,,リュウガクセイキョウイクシュウショクシエンキョウカイ,0
865,4280003001105,登記記録の閉鎖等,0,2022-08-17,2022-08-15,合同会社ウィステリアフィールド,,合同会社,島根県,雲南市,大東町養賀４３４番地,,32,209,6991245,,,2022-08-15,清算の結了等,,,2016-08-04,1,,,,,ウィステリアフィールド,0
880,4340002019918,登記記録の閉鎖等,0,2022-08-17,2022-08-12,有限会社オフィストゥエンティナィン,,有限会社,鹿児島県,大島郡徳之島町,亀津２９９４番地１,,46,530,8917101,,,2022-08-12,清算の結了等,,,2015-10-05,1,,,,,,0
943,5010702001711,登記記録の閉鎖等,0,2022-08-17,2022-08-12,有限会社サンオオモリ,,有限会社,東京都,品川区,小山３丁目２６番２号,,13,109,1420062,,,2022-08-12,清算の結了等,,,2015-10-05,1,,,,,,0
959,5011101017968,登記記録の閉鎖等,0,2022-08-17,2022-08-12,株式会社ビスカムクリエイテイブ,,株式会社,東京都,新宿区,神楽坂６丁目２２番地,,13,104,1620825,,,2022-08-12,清算の結了等,,,2015-10-05,1,,,,,ビスカムクリエイティブ,0
969,5011401016224,登記記録の閉鎖等,0,2022-08-17,2022-08-12,株式会社樹,,株式会社,東京都,板橋区,成増１丁目６番３－３０３号,,13,119,1750094,,,2022-08-12,清算の結了等,,,2015-10-05,1,,,,,タツキ,0
978,5011802012672,登記記録の閉鎖等,0,2022-08-17,2022-08-09,有限会社小高内裝,00057390,有限会社,東京都,足立区,谷中４丁目１４番６号,,13,121,1200006,,,2022-08-09,清算の結了等,,,2015-10-05,1,,,,,オタカナイソウ,0
990,5021001016210,登記記録の閉鎖等,0,2022-08-17,2022-08-12,株式会社マネジメントシステムリサーチ,,株式会社,神奈川県,相模原市緑区,鳥屋９０３番地１０,,14,151,2520155,,,2022-08-12,清算の結了等,,,2015-10-05,1,,,,,マネジメントシステムリサーチ,0
1002,5030002120672,登記記録の閉鎖等,0,2022-08-17,2022-08-02,有限会社佐々木宝飾,,有限会社,埼玉県,飯能市,美杉台７丁目７番地５,,11,209,3570041,,,2022-08-02,清算の結了等,,,2015-10-05,1,,,,,ササキホウショク,0
1008,5040001098083,登記記録の閉鎖等,0,2022-08-17,2022-08-03,株式会社Ｊａｐａｎｅｓｅ　Ｔｒａｄｉｔｉｏｎ,,株式会社,千葉県,船橋市,前原西２丁目１４番２号津田沼駅前安田ビル６Ｆ,,12,204,2740825,,,2022-08-03,清算の結了等,,,2016-12-16,1,,,,,ジャパニーズトラディション,0
1057,5150002009078,登記記録の閉鎖等,0,2022-08-17,2022-08-12,有限会社大恵油化,,有限会社,奈良県,北葛城郡上牧町,下牧１丁目２番１２号,,29,424,6390205,,,2022-08-12,清算の結了等,,,2015-10-05,1,,,,,ダイケイユカ,0
1077,5200001006137,登記記録の閉鎖等,0,2022-08-17,2022-08-12,日本プロパワー株式会社,,株式会社,岐阜県,岐阜市,吉野町６丁目１６番地,,21,201,5008844,,,2022-08-12,合併による解散等,7370001009526,令和４年８月１日仙台市青葉区国分町一丁目７番１８号東洋ワーク株式会社（7370001009526）に合併し解散,2015-10-05,1,,,,,,0
1078,5200001039855,登記記録の閉鎖等,0,2022-08-17,2022-08-16,株式会社松阪,,株式会社,岐阜県,瑞穂市,十九条字石塚３７８番地の１,,21,216,5010235,,,2022-08-16,清算の結了等,,,2022-03-22,1,,,,,マツザカ,0
1089,5260002013977,登記記録の閉鎖等,0,2022-08-17,2022-08-16,有限会社ＬＵＶＫＮＯＴ,,有限会社,岡山県,岡山市南区,西高崎９３番９３号,,33,104,7091204,,,2022-08-16,清算の結了等,,,2015-10-05,1,,,,,ラヴナット,0
1117,5380001011540,登記記録の閉鎖等,0,2022-08-17,2022-08-02,株式会社ピーシージャパン,,株式会社,福島県,須賀川市,大久保字室貫２６番地５３,,07,207,9620312,,,2022-08-02,清算の結了等,,,2015-10-05,1,,,,,ピーシージャパン,0
1126,5430002011014,登記記録の閉鎖等,0,2022-08-17,2022-08-03,有限会社せきどう,,有限会社,北海道,札幌市中央区,北一条西２０丁目１番６－１１０号,,01,101,0640821,,,2022-08-03,清算の結了等,,,2015-10-05,1,,,,,セキドウ,0
1127,5430002013489,登記記録の閉鎖等,0,2022-08-17,2022-08-04,有限会社道央安田宅建,,有限会社,北海道,札幌市中央区,南十条西９丁目１番３号,,01,101,0640810,,,2022-08-04,清算の結了等,,,2015-10-05,1,,,,,ドウオウヤスダタッケン,0
1133,5480001009624,登記記録の閉鎖等,0,2022-08-17,2022-08-10,株式会社ルチア,,株式会社,徳島県,徳島市,紺屋町１３番地１,,36,201,7700918,,,2022-08-10,合併による解散等,4480001009311,令和４年８月１０日徳島県徳島市紺屋町１３番地１株式会社ＨＡＬＵ（4480001009311）に合併し解散,2016-04-19,1,,,,,ルチア,0
1200,6011201002687,登記記録の閉鎖等,0,2022-08-17,2022-08-03,株式会社杉浦タイル,,株式会社,東京都,中野区,南台５丁目１９番２号,,13,114,1640014,,,2022-08-03,清算の結了等,,,2015-10-05,1,,,,,スギウラタイル,0
1207,6011702006955,登記記録の閉鎖等,0,2022-08-17,2022-08-12,有限会社ダイマル錺工業,,有限会社,東京都,江戸川区,北小岩２丁目２６番１８号,,13,123,1330051,,,2022-08-12,清算の結了等,,,2015-10-05,1,,,,,ダイマルカザリコウギョウ,0
1219,6012701000809,登記記録の閉鎖等,0,2022-08-17,2022-08-17,日本弗素工業株式会社,,株式会社,東京都,小平市,大沼町５丁目１９番２０号,,13,211,1870001,,,2022-08-17,清算の結了等,,,2015-10-05,1,,,,,ニホンフッソコウギョウ,0
1220,6012801002556,登記記録の閉鎖等,0,2022-08-17,2022-08-05,清水門管理株式会社,,株式会社,東京都,千代田区,丸の内３丁目１番１号,,13,101,1000005,,,2022-08-05,清算の結了等,,,2015-10-05,1,,,,,シミズモンカンリ,0
1229,6021001034269,登記記録の閉鎖等,0,2022-08-17,2022-08-12,株式会社Ｗｉｓｈ　Ｃｏｍｐａｎｙ,,株式会社,神奈川県,小田原市,中里４０８番地の６,,14,206,2500872,,,2022-08-12,清算の結了等,,,2015-10-05,1,,,,,ウイッシュカンパニー,0
1230,6021002017561,登記記録の閉鎖等,0,2022-08-17,2022-08-12,有限会社アサミゾモータース,,有限会社,神奈川県,相模原市南区,下溝７５８番地の１,,14,153,2520335,,,2022-08-12,清算の結了等,,,2015-10-05,1,,,,,アサミゾモータース,0
1252,6040002046701,登記記録の閉鎖等,0,2022-08-17,2022-08-03,有限会社星光手芸,,有限会社,千葉県,松戸市,西馬橋１丁目９番地の３,,12,207,2710044,,,2022-08-03,清算の結了等,,,2015-10-05,1,,,,,セイコウシュゲイ,0
1262,6080002017533,登記記録の閉鎖等,0,2022-08-17,2022-08-15,有限会社三晃商事,,有限会社,静岡県,藤枝市,青葉町１丁目２２番１号,,22,214,4260066,,,2022-08-15,清算の結了等,,,2015-10-05,1,,,,,サンコウショウジ,0
1264,6080005006558,登記記録の閉鎖等,0,2022-08-17,2022-08-15,特定非営利活動法人駒越地区社会福祉協議会,,その他の設立登記法人,静岡県,静岡市清水区,駒越中２丁目２番２７号,,22,103,4240904,,,2022-08-15,清算の結了等,,,2015-10-05,1,,,,,コマゴエチクシャカイフクシキョウギカイ,0
1272,6090005002713,登記記録の閉鎖等,0,2022-08-17,2022-08-10,特定非営利活動法人さくらハウス石和,,その他の設立登記法人,山梨県,笛吹市,石和町市部４４８番地,,19,211,4060031,,,2022-08-10,清算の結了等,,,2015-10-05,1,,,,,サクラハウスイサワ,0
1285,6120002010277,登記記録の閉鎖等,0,2022-08-17,2022-08-10,有限会社松川紙工,,有限会社,大阪府,大阪市生野区,勝山北３丁目３番８号,,27,116,5440033,,,2022-08-10,清算の結了等,,,2015-10-05,1,,,,,,0
1289,6120902020920,登記記録の閉鎖等,0,2022-08-17,2022-08-03,有限会社総合保険システム,,有限会社,兵庫県,川辺郡猪名川町,伏見台２丁目４番地６０,,28,301,6660262,,,2022-08-03,清算の結了等,,,2015-10-05,1,,,,,ソウゴウホケンシステム,0
1291,6130001002209,登記記録の閉鎖等,0,2022-08-17,2022-08-10,株式会社ラトリエボザール,,株式会社,京都府,京都市右京区,龍安寺西ノ川町８番地の１２４,,26,108,6168016,,,2022-08-10,清算の結了等,,,2015-10-05,1,,,,,ラトリエボザール,0
1296,6130003005449,登記記録の閉鎖等,0,2022-08-17,2022-08-10,合同会社野口コーポレーション,,合同会社,京都府,京都市右京区,西院笠目町２４－３－６０８,,26,108,6150058,,,2022-08-10,清算の結了等,,,2018-04-03,1,,,,,ノグチコーポレーション,0
1304,6150001010275,登記記録の閉鎖等,0,2022-08-17,2022-08-10,株式会社アスカオート,,株式会社,奈良県,高市郡明日香村,大字平田１４０９番地,,29,402,6340144,,,2022-08-10,清算の結了等,,,2015-10-05,1,,,,,アスカオート,0
1315,6180303001952,登記記録の閉鎖等,0,2022-08-17,2022-08-09,和泉屋合資会社,,合資会社,愛知県,安城市,明治本町１４番１６号,,23,212,4460062,,,2022-08-09,清算の結了等,,,2015-10-05,1,,,,,イズミヤ,0
1317,6190002019709,登記記録の閉鎖等,0,2022-08-17,2022-08-10,有限会社カトーファクトリー,,有限会社,三重県,四日市市,中野町１５５５番地の５４,,24,202,5121304,,,2022-08-10,清算の結了等,,,2015-10-05,1,,,,,カトーファクトリー,0
1325,6260001029197,登記記録の閉鎖等,0,2022-08-17,2022-08-15,株式会社ウィン,,株式会社,岡山県,倉敷市,川西町１１番２７号,,33,202,7100821,,,2022-08-15,合併による解散等,5120002060851,令和４年８月８日大阪市旭区大宮一丁目２１番１６号株式会社ミラージュ（5120002060851）に合併し解散,2016-02-03,1,,,,,,0
1326,6280002008974,登記記録の閉鎖等,0,2022-08-17,2022-08-15,有限会社たなかや,,有限会社,島根県,浜田市,朝日町１４４２番地,,32,202,6970033,,,2022-08-15,清算の結了等,,,2015-10-05,1,,,,,タナカヤ,0
1346,6370002000963,登記記録の閉鎖等,0,2022-08-17,2022-08-10,有限会社白沢ガラス店,,有限会社,宮城県,仙台市泉区,旭丘堤２丁目１９番１７号,,04,105,9818004,,,2022-08-10,清算の結了等,,,2015-10-05,1,,,,,シラサワガラステン,0
1355,6430002055051,登記記録の閉鎖等,0,2022-08-17,2022-08-04,有限会社平田商店,,有限会社,北海道,小樽市,若松２丁目５番８号,,01,203,0470017,,,2022-08-04,清算の結了等,,,2015-10-05,1,,,,,ヒラタショウテン,0
1356,6470001005862,登記記録の閉鎖等,0,2022-08-17,2022-08-16,株式会社トラスティー,,株式会社,香川県,高松市,川部町１３７３番地２,,37,201,7618046,,,2022-08-16,清算の結了等,,,2015-10-05,1,,,,,トラスティー,0
1363,7010001033628,登記記録の閉鎖等,0,2022-08-17,2022-08-02,株式会社日本ピノー社,,株式会社,東京都,千代田区,麹町４丁目２番地１２,00060564,13,101,1020083,,,2022-08-02,清算の結了等,,,2015-10-05,1,,,,,ニホンピノーシャ,0
1374,7010002047602,登記記録の閉鎖等,0,2022-08-17,2022-08-04,有限会社スターフィールドインベストメント,,有限会社,東京都,千代田区,丸の内２丁目１番１号,,13,101,1000005,,,2022-08-04,清算の結了等,,,2015-10-05,1,,,,,スターフィールドインベストメント,0
1415,7011501007971,登記記録の閉鎖等,0,2022-08-17,2022-08-16,中井工機株式会社,,株式会社,東京都,荒川区,荒川３丁目５２番５号,,13,118,1160002,,,2022-08-16,清算の結了等,,,2015-10-05,1,,,,,ナカイコウキ,0
1432,7020001046439,登記記録の閉鎖等,0,2022-08-17,2022-08-08,株式会社太設計,,株式会社,神奈川県,横浜市戸塚区,名瀬町２０７４番地２０,,14,110,2450051,,,2022-08-08,清算の結了等,,,2015-10-05,1,,,,,タイセッケイ,0
1468,7030002049927,登記記録の閉鎖等,0,2022-08-17,2022-08-04,三島商事有限会社,,有限会社,埼玉県,三郷市,新和２丁目３５８番地４,,11,237,3410034,,,2022-08-04,清算の結了等,,,2015-10-05,1,,,,,ミシマショウジ,0
1471,7030002077853,登記記録の閉鎖等,0,2022-08-17,2022-07-25,有限会社福岡住建,,有限会社,埼玉県,川越市,大字大袋３６２番地１,,11,201,3501168,,,2022-07-25,清算の結了等,,,2015-10-05,1,,,,,フクオカジュウケン,0
1479,7030005020653,登記記録の閉鎖等,0,2022-08-17,2022-07-28,ＮＰＯ法人はらチョク,,その他の設立登記法人,埼玉県,久喜市,西大輪１９４３番地２,,11,232,3400206,,,2022-07-28,清算の結了等,,,2021-12-07,1,,,,,ハラチョク,0
1490,7060001032848,登記記録の閉鎖等,0,2022-08-17,2022-08-08,株式会社星野電気管理事務所,,株式会社,栃木県,下野市,小金井１丁目６番地１３,,09,216,3290414,,,2022-08-08,清算の結了等,,,2020-08-05,1,,,,,ホシノデンキカンリジムショ,0
1493,7070002020041,登記記録の閉鎖等,0,2022-08-17,2022-08-05,有限会社レストランやまと,,有限会社,群馬県,伊勢崎市,北千木町９２３番地,,10,204,3720032,,,2022-08-05,清算の結了等,,,2015-10-05,1,,,,,レストランヤマト,0
1499,7100001020749,登記記録の閉鎖等,0,2022-08-17,2022-08-08,しなのみやま食品株式会社,,株式会社,長野県,伊那市,西春近５２４５番地４,,20,209,3994431,,,2022-08-08,清算の結了等,,,2015-10-05,1,,,,,シナノミヤマショクヒン,0
1501,7110002014765,登記記録の閉鎖等,0,2022-08-17,2022-08-15,有限会社アイ・システム,,有限会社,新潟県,新発田市,諏訪町２丁目２番２４号,,15,206,9570055,,,2022-08-15,清算の結了等,,,2015-10-05,1,,,,,アイシステム,0
1502,7120001018907,登記記録の閉鎖等,0,2022-08-17,2022-08-10,丸和商事株式会社,,株式会社,大阪府,大阪市生野区,巽北１丁目３０番地,00027636,27,116,5440004,,,2022-08-10,清算の結了等,,,2015-10-05,1,,,,,マルワショウジ,0
1537,7130001054703,登記記録の閉鎖等,0,2022-08-17,2022-08-15,株式会社ボトルオフ,,株式会社,大阪府,大阪市北区,天神橋５丁目６番５号,,27,127,5300041,,,2022-08-15,合併による解散等,6130001018691,令和４年８月１日京都市下京区四条通高倉西入立売西町８２番地京都恒和ビル４階株式会社高倉不動産（6130001018691）に合併し解散,2015-10-05,1,,,,,ボトルオフ,0
1544,7140001082868,登記記録の閉鎖等,0,2022-08-17,2022-08-15,株式会社ＭＯＳＴ,,株式会社,大阪府,大阪市中央区,南船場４丁目１０番５号南船場ＳＯＨＯビル７０２,,27,128,5420081,,,2022-08-15,清算の結了等,,,2015-10-05,1,,,,,,0
1554,7160001019273,登記記録の閉鎖等,0,2022-08-17,2022-08-15,株式会社クロエ,,株式会社,滋賀県,守山市,水保町北川２８９１番２２２号,,25,207,5240102,,,2022-08-15,合併による解散等,5120002060851,令和４年８月８日大阪市旭区大宮一丁目２１番１６号株式会社ミラージュ（5120002060851）に合併し解散,2016-01-29,1,,,,,,0
1568,7220002015694,登記記録の閉鎖等,0,2022-08-17,2022-08-10,有限会社コスモプリント,,有限会社,石川県,鳳珠郡能登町,字笹川余２５番地２,,17,463,9280314,,,2022-08-10,清算の結了等,,,2015-10-05,1,,,,,コスモプリント,0
1572,7230005003456,登記記録の閉鎖等,0,2022-08-17,2022-08-12,一般社団法人イーニクス環境保護協会,,その他の設立登記法人,富山県,富山市,城村１０番地,,16,201,9398114,,,2022-08-12,清算の結了等,,,2015-10-05,1,,,,,,0
1574,7240002025535,登記記録の閉鎖等,0,2022-08-17,2022-08-12,有限会社ベストライフ,,有限会社,広島県,広島市西区,三滝町１９番７－１０１号,,34,104,7330005,,,2022-08-12,清算の結了等,,,2015-10-05,1,,,,,,0
1601,7370001019525,登記記録の閉鎖等,0,2022-08-17,2022-08-15,株式会社オリーブワン,,株式会社,宮城県,仙台市若林区,六丁の目北町３番４０号,,04,103,9840003,,,2022-08-15,合併による解散等,6010001109965,令和４年７月３１日東京都墨田区東駒形二丁目１９－３サン・オリーブ株式会社（6010001109965）に合併し解散,2015-10-05,1,,,,,オリーブワン,0
1616,7490001004226,登記記録の閉鎖等,0,2022-08-17,2022-08-10,ジョンマン・エンジニアリング株式会社,,株式会社,高知県,高知市,天神町４番２１号,,39,201,7808012,,,2022-08-10,合併による解散等,1490002002523,令和４年７月１日高知市天神町４番２１号ジョンマン・コーポレーション株式会社（1490002002523）に合併し解散,2015-10-05,1,,,,,ジョンマンエンジニアリング,0
1622,8010001190047,登記記録の閉鎖等,0,2022-08-17,2022-08-02,株式会社道慈キャピタルホールディングス,,株式会社,東京都,千代田区,丸の内３丁目４番１号,,13,101,1000005,,,2022-08-02,合併による解散等,2010001165483,令和４年７月２８日東京都千代田区丸の内三丁目４番１号道慈キャピタル株式会社（2010001165483）に合併し解散,2018-03-05,1,,,,,ドウジキャピタルホールディングス,0
1641,8010401158841,登記記録の閉鎖等,0,2022-08-17,2022-07-27,株式会社Ｔｈｒｅｅ,,株式会社,東京都,港区,南麻布４丁目１１番２７号オリエンタル南麻布２０４,,13,103,1060047,,,2022-07-27,清算の結了等,,,2021-03-17,1,,,,,スリー,0
1644,8010402028928,登記記録の閉鎖等,0,2022-08-17,2022-07-28,有限会社ａｍｕｒａ,,有限会社,東京都,港区,六本木７丁目１７番１６号,,13,103,1060032,,,2022-07-28,清算の結了等,,,2015-10-05,1,,,,,アムラ,0
1651,8010801009999,登記記録の閉鎖等,0,2022-08-17,2022-08-08,株式会社ビセイズトラスト,,株式会社,東京都,大田区,東矢口３丁目３０番１２号,,13,111,1460094,,,2022-08-08,合併による解散等,4010801012692,令和４年８月８日東京都大田区東矢口三丁目３０番１２号麗宝保健品製造株式会社（4010801012692）に合併し解散,2015-10-05,1,,,,,ビセイズトラスト,0
1667,8011501022739,登記記録の閉鎖等,0,2022-08-17,2022-08-15,株式会社フォルム,,株式会社,東京都,北区,神谷１丁目３番１号,,13,117,1150043,,,2022-08-15,清算の結了等,,,2017-06-12,1,,,,,フォルム,0
1678,8011801032438,登記記録の閉鎖等,0,2022-08-17,2022-08-08,株式会社大岸ホールディングス,,株式会社,東京都,足立区,新田３丁目１０番６号,,13,121,1230865,,,2022-08-08,合併による解散等,8011801006516,令和４年８月１日東京都足立区新田三丁目１０番６号株式会社大岸製作所（8011801006516）に合併し解散,2016-10-25,1,,,,,オオギシホールディングス,0
1696,8021002044769,登記記録の閉鎖等,0,2022-08-17,2022-08-08,小野工業有限会社,,有限会社,神奈川県,海老名市,上今泉５丁目５番３２号,,14,215,2430431,,,2022-08-08,清算の結了等,,,2015-10-05,1,,,,,オノコウギョウ,0
1697,8021002063075,登記記録の閉鎖等,0,2022-08-17,2022-08-15,有限会社エーデン,,有限会社,神奈川県,横須賀市,不入斗町３丁目１番地,,14,201,2380051,,,2022-08-15,清算の結了等,,,2015-10-05,1,,,,,エーデン,0
1707,8030002015374,登記記録の閉鎖等,0,2022-08-17,2022-08-04,有限会社ヨークホーム,,有限会社,埼玉県,さいたま市中央区,下落合６丁目１６番１４号,,11,105,3380002,,,2022-08-04,清算の結了等,,,2015-10-05,1,,,,,ヨークホーム,0
1709,8030002080435,登記記録の閉鎖等,0,2022-08-17,2022-08-04,有限会社アールシー,,有限会社,埼玉県,本庄市,朝日町３丁目１２番５号,,11,211,3670026,,,2022-08-04,清算の結了等,,,2015-10-05,1,,,,,アールシー,0
1742,8110002026561,登記記録の閉鎖等,0,2022-08-17,2022-08-10,有限会社オオフチフーズ,,有限会社,新潟県,上越市,南高田町５番８号,,15,222,9430846,,,2022-08-10,清算の結了等,,,2015-10-05,1,,,,,,0
1784,8180301011662,登記記録の閉鎖等,0,2022-08-17,2022-08-15,株式会社ＧＯＬＤＥＮ　ＡＧＥ,,株式会社,愛知県,豊川市,御油町西沢７０番地メゾン西沢Ａ棟１０２号,,23,207,4410211,,,2022-08-15,清算の結了等,,,2015-10-05,1,,,,,,0
1796,8210001008534,登記記録の閉鎖等,0,2022-08-17,2022-08-12,株式会社コバヤシ測量設計,,株式会社,福井県,福井市,運動公園２丁目５１０番地,,18,201,9188046,,,2022-08-12,清算の結了等,,,2015-10-05,1,,,,,コバヤシソクリョウセッケイ,0
1800,8220002004250,登記記録の閉鎖等,0,2022-08-17,2022-08-01,有限会社中嶋企業,,有限会社,石川県,金沢市,旭町２丁目７番１６号,,17,201,9200941,,,2022-08-01,清算の結了等,,,2015-10-05,1,,,,,ナカジマキギョウ,0
1801,8240001027787,登記記録の閉鎖等,0,2022-08-17,2022-08-12,株式会社ＴＣＳ,,株式会社,広島県,呉市,広古新開７丁目３６番３５号,,34,202,7370112,,,2022-08-12,清算の結了等,,,2015-10-05,1,,,,,ティーシーエス,0
1802,8240002018901,登記記録の閉鎖等,0,2022-08-17,2022-08-12,有限会社トミタライン,,有限会社,広島県,広島市安佐北区,亀山５丁目３９番１８号,,34,106,7310231,,,2022-08-12,清算の結了等,,,2015-10-05,1,,,,,トミタライン,0
1806,8290005010801,登記記録の閉鎖等,0,2022-08-17,2022-08-10,医療法人天寿堂医院,,その他の設立登記法人,福岡県,久留米市,御井町１６７２番地１,,40,203,8390851,,,2022-08-10,清算の結了等,,,2015-10-05,1,,,,,テンジュドウイイン,0
1836,8450001004625,登記記録の閉鎖等,0,2022-08-17,2022-08-15,オリスインター株式会社,,株式会社,北海道,深川市,四条２番８号,,01,228,0740004,,,2022-08-15,清算の結了等,,,2015-10-05,1,,,,,オリスインター,0
1837,8470001000804,登記記録の閉鎖等,0,2022-08-17,2022-08-10,大崎不動産株式会社,,株式会社,東京都,杉並区,堀ノ内１丁目７番９－２１１号,,13,115,1660013,,,2022-08-10,清算の結了等,,,2015-10-05,1,,,,,オオサキフドウサン,0
1877,9010901022199,登記記録の閉鎖等,0,2022-08-17,2022-08-10,ミエーレ・ジャパン株式会社,,株式会社,東京都,世田谷区,給田４丁目２４番１３号,,13,112,1570064,,,2022-08-10,清算の結了等,,,2015-10-05,1,,,,,ミエーレジャパン,0
1891,9011503004131,登記記録の閉鎖等,0,2022-08-17,2022-08-15,合同会社ＪＣイノベーション,,合同会社,東京都,荒川区,東尾久４丁目１５番２１号,,13,118,1160012,,,2022-08-15,清算の結了等,,,2019-10-02,1,,,,,ジェイシーイノベーション,0
1896,9011701019922,登記記録の閉鎖等,0,2022-08-17,2022-08-12,株式会社オバタ商事,,株式会社,東京都,江戸川区,西小岩４丁目５番３－３０３号,,13,123,1330057,,,2022-08-12,清算の結了等,,,2016-06-01,1,,,,,オバタショウジ,0
1897,9011801025011,登記記録の閉鎖等,0,2022-08-17,2022-08-10,株式会社イルドリシェス,,株式会社,東京都,葛飾区,水元２丁目１３番６号,,13,122,1250032,,,2022-08-10,清算の結了等,,,2015-10-05,1,,,,,イルドリシェス,0
1901,9012402016176,登記記録の閉鎖等,0,2022-08-17,2022-08-09,生雲有限会社,,有限会社,東京都,武蔵野市,御殿山２丁目２１番３－４０１号,,13,203,1800005,,,2022-08-09,清算の結了等,,,2015-10-05,1,,,,,イクモ,0
1904,9012702012841,登記記録の閉鎖等,0,2022-08-17,2022-08-08,有限会社ＥＷＰ,,有限会社,東京都,西東京市,ひばりが丘北３丁目７番１４号,,13,229,2020002,,,2022-08-08,清算の結了等,,,2015-10-05,1,,,,,イーダブルピー,0
1905,9012802004053,登記記録の閉鎖等,0,2022-08-17,2022-08-09,有限会社安西硝子建材,,有限会社,東京都,武蔵村山市,学園１丁目２６番地の１,,13,223,2080011,,,2022-08-09,清算の結了等,,,2015-10-05,1,,,,,,0
1931,9030001128341,登記記録の閉鎖等,0,2022-08-17,2022-08-02,株式会社ｍｏｍｏ’ｚ,,株式会社,埼玉県,熊谷市,筑波２丁目６６番地４ジュエルコート熊谷１５０４,,11,202,3600037,,,2022-08-02,合併による解散等,8030001087943,令和４年７月３１日埼玉県熊谷市久保島６８５番地４株式会社Ｊ－ＰＬＵＳ（8030001087943）に合併し解散,2018-11-20,1,,,,,モモズ,0
1934,9030002038127,登記記録の閉鎖等,0,2022-08-17,2022-07-28,有限会社ショウエイ,,有限会社,埼玉県,久喜市,久喜東３丁目２５番２１号,,11,232,3460016,,,2022-07-28,清算の結了等,,,2015-10-05,1,,,,,ショウエイ,0
1935,9030002110538,登記記録の閉鎖等,0,2022-08-17,2022-08-03,有限会社南埼玉ファーマシー,,有限会社,埼玉県,川越市,並木新町１６番地７,,11,201,3500024,,,2022-08-03,清算の結了等,,,2015-10-05,1,,,,,ミナミサイタマファーマシー,0
1939,9040001050420,登記記録の閉鎖等,0,2022-08-17,2022-08-03,岡本機工建設株式会社,,株式会社,千葉県,木更津市,清見台南５丁目９番１２号,,12,206,2920042,,,2022-08-03,清算の結了等,,,2015-10-05,1,,,,,オカモトキコウケンセツ,0
1960,9070001003136,登記記録の閉鎖等,0,2022-08-17,2022-08-05,株式会社美鶴,,株式会社,群馬県,前橋市,三河町１丁目１２番４号,,10,201,3710015,,,2022-08-05,清算の結了等,,,2015-10-05,1,,,,,ミツル,0
1962,9070001021724,登記記録の閉鎖等,0,2022-08-17,2022-08-03,坂田工業株式会社,,株式会社,群馬県,館林市,足次町１０８０番地,,10,207,3740073,,,2022-08-03,清算の結了等,,,2015-10-05,1,,,,,サカタコウギョウ,0
1969,9100001013214,登記記録の閉鎖等,0,2022-08-17,2022-08-08,信州印刷株式会社,,株式会社,長野県,松本市,大字島立６１９番地７,,20,202,3900852,,,2022-08-08,清算の結了等,,,2015-10-05,1,,,,,シンシュウインサツ,0
1971,9110001036692,登記記録の閉鎖等,0,2022-08-17,2022-08-08,株式会社大地,,株式会社,新潟県,胎内市,野中字江下４９０番地３,,15,227,9592627,,,2022-08-08,清算の結了等,,,2022-06-10,1,,,,,ダイチ,0
2010,9140002062859,登記記録の閉鎖等,0,2022-08-17,2022-08-15,徳永木材建設有限会社,,有限会社,兵庫県,小野市,王子町８６１番地,,28,218,6751378,,,2022-08-15,清算の結了等,,,2015-10-05,1,,,,,トクナガモクザイケンセツ,0
2022,9200005012648,登記記録の閉鎖等,0,2022-08-17,2022-08-16,特定非営利活動法人ｍｅ，ｔｏｏ,,その他の設立登記法人,岐阜県,揖斐郡池田町,般若畑６９０番地の３,,21,404,5032407,,,2022-08-16,清算の結了等,,,2017-04-11,1,,,,,ミーツー,0
2034,9280005002724,登記記録の閉鎖等,0,2022-08-17,2022-08-15,出雲医薬品商業協同組合,,その他の設立登記法人,島根県,出雲市,今市町５３２番地,,32,203,6930001,,,2022-08-15,清算の結了等,,,2015-10-05,1,,,,,イズモイヤクヒンショウギョウ,0
2050,9330001025640,登記記録の閉鎖等,0,2022-08-17,2022-08-08,グラウト工業株式会社,,株式会社,熊本県,人吉市,蟹作町１６０番地９,,43,203,8680042,,,2022-08-08,清算の結了等,,,2018-08-31,1,,,,,グラウトコウギョウ,0
2054,9370002002750,登記記録の閉鎖等,0,2022-08-17,2022-08-09,有限会社くすりの安心堂,,有限会社,宮城県,仙台市太白区,東中田４丁目６番６０号,,04,104,9811107,,,2022-08-09,清算の結了等,,,2015-10-05,1,,,,,クスリノアンシンドウ,0
2055,9390002009728,登記記録の閉鎖等,0,2022-08-17,2022-08-08,有限会社宝蔵産業,,有限会社,山形県,鶴岡市,友江字川向４３番地の６,,06,203,9971122,,,2022-08-08,清算の結了等,,,2015-10-05,1,,,,,ホウゾウサンギョウ,0
2056,9420001006466,登記記録の閉鎖等,0,2022-08-17,2022-08-10,株式会社アキヨシ,,株式会社,青森県,八戸市,根城７丁目９番２２号,,02,203,0391166,,,2022-08-10,清算の結了等,,,2015-10-05,1,,,,,アキヨシ,0
2060,9430002036379,登記記録の閉鎖等,0,2022-08-17,2022-08-02,有限会社エコマテリアル,,有限会社,北海道,札幌市南区,北ノ沢５丁目９番２３号,,01,106,0050832,,,2022-08-02,清算の結了等,,,2015-10-05,1,,,,,エコマテリアル,0
