sequenceNumber,corporateNumber,process,correct,updateDate,changeDate,name,nameImageId,kind,prefectureName,cityName,streetNumber,addressImageId,prefectureCode,cityCode,postCode,addressOutside,addressOutsideImageId,closeDate,closeCause,successorCorporateNumber,changeCause,assignmentDate,latest,enName,enPrefectureName,enCityName,enAddressOutside,furigana,hihyoji
7,1010001227755,新規,0,2022-07-05,2022-07-05,株式会社トケタ,,株式会社,東京都,千代田区,神田佐久間町１丁目８番４号アルテール秋葉原７０８,,13,101,1010025,,,,,,,2022-07-05,1,,,,,トケタ,0
8,1010001227821,新規,0,2022-07-05,2022-07-05,ＮｏｎＥｎｔｒｏｐｙ　Ｃａｐｉｔａｌ株式会社,,株式会社,東京都,千代田区,内幸町１丁目１番１号,,13,101,1000011,,,,,,,2022-07-05,1,,,,,ノンエントロピーキャピタル,0
9,1010003038060,新規,0,2022-07-05,2022-07-05,バーシーズ合同会社,,合同会社,東京都,中央区,銀座５丁目４番７号銀座サワモトビル４階,,13,102,1040061,,,,,,,2022-07-05,1,,,,,バーシーズ,0
17,1010401168285,新規,0,2022-07-05,2022-07-05,Ｌｅｏ　Ｗｅａｌｔｈ　Ｊａｐａｎ株式会社,,株式会社,東京都,港区,元麻布３丁目１番６号,,13,103,1060046,,,,,,,2022-07-05,1,,,,,リオウェルスジャパン,0
18,1010401168293,新規,0,2022-07-05,2022-07-05,株式会社アップアロー・エレクトロ,,株式会社,東京都,港区,芝大門２丁目３－７,,13,103,1050012,,,,,,,2022-07-05,1,,,,,アップアローエレクトロ,0
19,1010401168335,新規,0,2022-07-05,2022-07-05,メディプレイス株式会社,,株式会社,東京都,港区,赤坂８丁目３番３―５０２号,,13,103,1070052,,,,,,,2022-07-05,1,,,,,メディプレイス,0
20,1010401168343,新規,0,2022-07-05,2022-07-05,株式会社プロジェクトデジタルマーケティング,,株式会社,東京都,港区,六本木１丁目６番１号,,13,103,1060032,,,,,,,2022-07-05,1,,,,,プロジェクトデジタルマーケティング,0
21,1010401168376,新規,0,2022-07-05,2022-07-05,株式会社Ａ２Ｔ,,株式会社,東京都,港区,南青山２丁目２２番４号秀和南青山レジデンス６０５,,13,103,1070062,,,,,,,2022-07-05,1,,,,,エーツーティー,0
23,1010403028025,新規,0,2022-07-05,2022-07-05,合同会社ＫＩ　Ｃｏｎｓｕｌｔｉｎｇ,,合同会社,東京都,港区,虎ノ門５丁目１３－１虎ノ門４０ＭＴビル７Ｆ,,13,103,1050001,,,,,,,2022-07-05,1,,,,,ケイアイコンサルティング,0
24,1010405021168,新規,0,2022-07-05,2022-07-05,Ｍｕｎａｋａｔａ一般社団法人,,その他の設立登記法人,東京都,港区,西新橋１丁目１番１号ＥＰコンサルティングサービス内,,13,103,1050003,,,,,,,2022-07-05,1,,,,,ムナカタ,0
26,1010501049055,新規,0,2022-07-05,2022-07-05,Ｏｖｅｒ　Ｌａｎｄ株式会社,,株式会社,東京都,台東区,浅草橋２丁目２番７号ＳＩＮＱＳビル２階,,13,106,1110053,,,,,,,2022-07-05,1,,,,,オーバーランド,0
27,1010701042909,新規,0,2022-07-05,2022-07-05,株式会社リモメット,,株式会社,東京都,品川区,大崎１丁目１１番２号,,13,109,1410032,,,,,,,2022-07-05,1,,,,,リモメット,0
28,1010903007494,新規,0,2022-07-05,2022-07-05,合同会社クレイジータンク,,合同会社,東京都,世田谷区,岡本２丁目１１番２０号４０５号室,,13,112,1570076,,,,,,,2022-07-05,1,,,,,クレイジータンク,0
39,1011003014968,新規,0,2022-07-05,2022-07-05,合同会社恩加達,,合同会社,東京都,渋谷区,道玄坂１丁目１０番８号渋谷道玄坂東急ビル２Ｆ－Ｃ,,13,113,1500043,,,,,,,2022-07-05,1,,,,,オンカタツ,0
48,1011103011931,新規,0,2022-07-05,2022-07-05,合同会社ＰＰＰ,,合同会社,東京都,新宿区,新宿５丁目１０番１０号海老沢ビル２０２,,13,104,1600022,,,,,,,2022-07-05,1,,,,,ピーピーピー,0
49,1011301027903,新規,0,2022-07-05,2022-07-05,株式会社Ｙｏｉ,,株式会社,東京都,杉並区,和田２丁目３１番３５号,,13,115,1660012,,,,,,,2022-07-05,1,,,,,ヨイ,0
55,1011701025440,新規,0,2022-07-05,2022-07-05,ターミナル株式会社,,株式会社,東京都,江戸川区,上篠崎３丁目３番２３号,,13,123,1330054,,,,,,,2022-07-05,1,,,,,ターミナル,0
61,1012303001697,新規,0,2022-07-05,2022-07-05,合同会社ＣＨＩＹＡ,,合同会社,東京都,町田市,南大谷１２９２－３,,13,209,1940031,,,,,,,2022-07-05,1,,,,,チヤ,0
63,1012401039350,新規,0,2022-07-05,2022-07-05,株式会社サードスペース,,株式会社,東京都,多摩市,一ノ宮４丁目２４番地の１２,,13,224,2060002,,,,,,,2022-07-05,1,,,,,サードスペース,0
64,1012401039359,新規,0,2022-07-05,2022-07-05,ポジドライヴ株式会社,,株式会社,東京都,府中市,白糸台２丁目６３番地の６５スカイコート１０５,,13,206,1830011,,,,,,,2022-07-05,1,,,,,ポジドライヴ,0
65,1012401039375,新規,0,2022-07-05,2022-07-05,株式会社コスモステラ,,株式会社,東京都,三鷹市,下連雀３丁目２１番７号,,13,204,1810013,,,,,,,2022-07-05,1,,,,,コスモステラ,0
69,1012801021692,新規,0,2022-07-05,2022-07-05,株式会社たま館,,株式会社,東京都,立川市,錦町１丁目２番１６号,,13,202,1900022,,,,,,,2022-07-05,1,,,,,タマヤカタ,0
70,1012801021701,新規,0,2022-07-05,2022-07-05,株式会社Ｔｉｄｙ,,株式会社,東京都,日野市,新町４丁目７番地の２５,,13,212,1910002,,,,,,,2022-07-05,1,,,,,タイディ,0
74,1013301049332,新規,0,2022-07-05,2022-07-05,株式会社プラタナス,,株式会社,東京都,豊島区,駒込２丁目４－９,,13,116,1700003,,,,,,,2022-07-05,1,,,,,プラタナス,0
82,1020001147168,新規,0,2022-07-05,2022-07-05,株式会社天海ラボ,,株式会社,神奈川県,横浜市西区,北幸１丁目１１番１号水信ビル７階,,14,103,2200004,,,,,,,2022-07-05,1,,,,,テンカイラボ,0
83,1020001147192,新規,0,2022-07-05,2022-07-05,車屋アルトワークス株式会社,,株式会社,神奈川県,川崎市幸区,戸手本町２丁目２４３番地１オーチャードプラザ８３８,,14,132,2120023,,,,,,,2022-07-05,1,,,,,クルマヤアルトワークス,0
84,1020001147234,新規,0,2022-07-05,2022-07-05,株式会社多田企画,,株式会社,神奈川県,横浜市南区,新川町５丁目２９番地７新川町ビル３階,,14,105,2320027,,,,,,,2022-07-05,1,,,,,タダキカク,0
89,1021001076423,新規,0,2022-07-05,2022-07-05,ＨＯＬＩＣ株式会社,,株式会社,神奈川県,相模原市中央区,田名塩田２丁目１２番１２号,,14,152,2520245,,,,,,,2022-07-05,1,,,,,ホリック,0
94,1030001149007,新規,0,2022-07-05,2022-07-05,株式会社バード１,,株式会社,埼玉県,新座市,東２丁目５番２９号,,11,230,3520002,,,,,,,2022-07-05,1,,,,,バードワン,0
105,1040001124157,新規,0,2022-07-05,2022-07-05,株式会社動画丸,,株式会社,千葉県,東金市,東金１１８７番地１、２Ｆ,,12,213,2830802,,,,,,,2022-07-05,1,,,,,ドウガマル,0
107,1060001035055,新規,0,2022-07-05,2022-07-05,株式会社レリーフ,,株式会社,栃木県,宇都宮市,鶴田町３６６６番地１４,,09,201,3200851,,,,,,,2022-07-05,1,,,,,レリーフ,0
111,1060003004116,新規,0,2022-07-05,2022-07-05,ＡＳＨＩＭ　ＩＮＴＥＲＮＡＴＩＯＮＡＬ　ＧＫ合同会社,,合同会社,栃木県,栃木市,大平町新１５４０－１４３サンプローズ２０２,,09,203,3294425,,,,,,,2022-07-05,1,,,,,アシムインターナショナルジケ,0
112,1060003004132,新規,0,2022-07-05,2022-07-05,谷田貝建築工房合同会社,,合同会社,栃木県,塩谷郡高根沢町,大字石末５０２番地２,,09,386,3291225,,,,,,,2022-07-05,1,,,,,ヤタガイケンチクコウボウ,0
115,1080001025054,新規,0,2022-07-05,2022-07-05,株式会社フジ美装,,株式会社,静岡県,藤枝市,瀬戸新屋２６８番地６,,22,214,4260075,,,,,,,2022-07-05,1,,,,,フジビソウ,0
119,1080101023387,新規,0,2022-07-05,2022-07-05,株式会社税理士のミカタ,,株式会社,静岡県,伊豆の国市,原木６３０番地の２,,22,225,4102124,,,,,,,2022-07-05,1,,,,,ゼイリシノミカタ,0
120,1080101023395,新規,0,2022-07-05,2022-07-05,株式会社Ｏｆｆｉｃｅ　ＨＹ,,株式会社,静岡県,御殿場市,竈１９６０番地の１,,22,215,4120039,,,,,,,2022-07-05,1,,,,,オフィスエイチワイ,0
121,1080101023404,新規,0,2022-07-05,2022-07-05,株式会社ＤｅｅｅＲ,,株式会社,静岡県,賀茂郡河津町,川津筏場９１５番地の１,,22,302,4130502,,,,,,,2022-07-05,1,,,,,ディアー,0
124,1090003002125,新規,0,2022-07-05,2022-07-05,合同会社トーヨーＢ．Ｈ．Ｃ,,合同会社,山梨県,甲斐市,大下条３１０番地１,,19,210,4000126,,,,,,,2022-07-05,1,,,,,トーヨービーエイチシー,0
142,1120001247073,新規,0,2022-07-05,2022-07-05,株式会社未來医農縁,,株式会社,大阪府,大阪市北区,中之島４丁目２番２８号,,27,127,5300005,,,,,,,2022-07-05,1,,,,,ミライノウエン,0
143,1120001247081,新規,0,2022-07-05,2022-07-05,株式会社ＵＧＡＴＳＵ,,株式会社,大阪府,大阪市浪速区,元町２丁目１２番２４号,,27,111,5560016,,,,,,,2022-07-05,1,,,,,ウガツ,0
144,1120001247123,新規,0,2022-07-05,2022-07-05,株式会社イースマイル不動産,,株式会社,大阪府,大阪市中央区,瓦屋町３丁目７番３号,,27,128,5420066,,,,,,,2022-07-05,1,,,,,イースマイルフドウサン,0
147,1120003022004,新規,0,2022-07-05,2022-07-05,合同会社ＡＸＹＡ,,合同会社,大阪府,大阪市此花区,伝法５丁目１１番４号,,27,104,5540002,,,,,,,2022-07-05,1,,,,,アクシア,0
153,1120101065854,新規,0,2022-07-05,2022-07-05,株式会社明山土建,,株式会社,大阪府,泉佐野市,高松東１丁目７番１９号,,27,213,5980012,,,,,,,2022-07-05,1,,,,,アキヤマドケン,0
154,1120103004760,新規,0,2022-07-05,2022-07-05,合同会社大阪泉州エレベーター,,合同会社,大阪府,大阪狭山市,今熊１丁目５５０番地の４,,27,231,5890021,,,,,,,2022-07-05,1,,,,,オオサカセンシュウエレベーター,0
156,1120901046186,新規,0,2022-07-05,2022-07-05,株式会社センタープランニング,,株式会社,大阪府,摂津市,別府１丁目１６番９号,,27,224,5660046,,,,,,,2022-07-05,1,,,,,センタープランニング,0
157,1120901046203,新規,0,2022-07-05,2022-07-05,ココテラス商事株式会社,,株式会社,大阪府,豊中市,上野東２丁目７番１２号,,27,203,5600013,,,,,,,2022-07-05,1,,,,,ココテラスショウジ,0
158,1120905006343,新規,0,2022-07-05,2022-07-05,税理士法人蓮池会計事務所,,その他の設立登記法人,大阪府,茨木市,上中条１丁目６番２２号,,27,211,5670881,,,,,,,2022-07-05,1,,,,,ハスイケカイケイジムショ,0
164,1130001072090,新規,0,2022-07-05,2022-07-05,株式会社ネイグローブネットワークス,,株式会社,京都府,相楽郡精華町,桜が丘３丁目１０－８－Ａ１０２,,26,366,6190232,,,,,,,2022-07-05,1,,,,,ネイグローブネットワークス,0
165,1130001072116,新規,0,2022-07-05,2022-07-05,野間設備工業株式会社,,株式会社,京都府,京都市右京区,龍安寺西ノ川町１５番地５６,,26,108,6168016,,,,,,,2022-07-05,1,,,,,ノマセツビコウギョウ,0
166,1130003008043,新規,0,2022-07-05,2022-07-05,合同会社ＩｎｆｉｎｉｔｙＭ,,合同会社,京都府,京都市左京区,岩倉南平岡町２５番地５,,26,103,6060032,,,,,,,2022-07-05,1,,,,,インフィニティエム,0
174,1150003002721,新規,0,2022-07-05,2022-07-05,ＣＡジャパン合同会社,,合同会社,奈良県,奈良市,西登美ヶ丘２丁目１５番Ｄ－５１１号,,29,201,6310006,,,,,,,2022-07-05,1,,,,,シーエージャパン,0
176,1160001024337,新規,0,2022-07-05,2022-07-05,株式会社リライトコンサルティング,,株式会社,滋賀県,甲賀市,水口町名坂１２３４番地３,,25,209,5280035,,,,,,,2022-07-05,1,,,,,リライトコンサルティング,0
178,1160003002613,新規,0,2022-07-05,2022-07-05,合同会社百合愛,,合同会社,滋賀県,草津市,渋川２丁目６番２４－１００１号グランドメゾン草津東,,25,206,5250026,,,,,,,2022-07-05,1,,,,,ユリア,0
180,1170001017182,新規,0,2022-07-05,2022-07-05,和商開発株式会社,,株式会社,和歌山県,田辺市,上の山１丁目１４番１５号,,30,206,6460061,,,,,,,2022-07-05,1,,,,,ワショウカイハツ,0
192,1180001152037,新規,0,2022-07-05,2022-07-05,新順株式会社,,株式会社,愛知県,名古屋市中区,大須２丁目２７番４０号,,23,106,4600011,,,,,,,2022-07-05,1,,,,,シンジュン,0
193,1180001152045,新規,0,2022-07-05,2022-07-05,日本アジアファンド株式会社,,株式会社,愛知県,名古屋市中区,栄５丁目２６番３９号ＧＳ栄ビル３Ｆ,,23,106,4600008,,,,,,,2022-07-05,1,,,,,ニホンアジアファンド,0
201,1180301036402,新規,0,2022-07-05,2022-07-05,株式会社岩下新聞店,,株式会社,愛知県,碧南市,田尻町２丁目５４番地,,23,209,4470867,,,,,,,2022-07-05,1,,,,,イワシタシンブンテン,0
204,1220001024933,新規,0,2022-07-05,2022-07-05,株式会社プラチナ,,株式会社,石川県,金沢市,田上の里２丁目１３２番地,,17,201,9201156,,,,,,,2022-07-05,1,,,,,プラチナ,0
205,1220001024941,新規,0,2022-07-05,2022-07-05,株式会社ピースサイン,,株式会社,石川県,七尾市,泉南台２０２番地,,17,202,9260179,,,,,,,2022-07-05,1,,,,,ピースサイン,0
208,1230001019437,新規,0,2022-07-05,2022-07-05,株式会社ＩｏＴＲＹ,,株式会社,富山県,射水市,三ケ２２２４番地１パークハウス一番町３０６,,16,211,9390341,,,,,,,2022-07-05,1,,,,,アイオートライ,0
212,1240001060027,新規,0,2022-07-05,2022-07-05,株式会社Ｎｅｋｉ,,株式会社,広島県,福山市,神辺町字十九軒屋２５３番地２,,34,207,7202106,,,,,,,2022-07-05,1,,,,,ネキ,0
217,1260001037007,新規,0,2022-07-05,2022-07-05,株式会社黎明商店,,株式会社,岡山県,岡山市北区,十日市西町１３番１号ミヤコハイツ１０２号室,,33,101,7000856,,,,,,,2022-07-05,1,,,,,レイメイショウテン,0
218,1260003003972,新規,0,2022-07-05,2022-07-05,合同会社ＥＮＴＡＭＥ　ＪＡＰＡＮ,,合同会社,岡山県,岡山市北区,中島田町１丁目２－２,,33,101,7000982,,,,,,,2022-07-05,1,,,,,エンタメジャパン,0
229,1290001098112,新規,0,2022-07-05,2022-07-05,株式会社ＴＫＹ　ｃｏｎｓｔｒｕｃｔｉｏｎ,,株式会社,福岡県,古賀市,舞の里１丁目１２番２号,,40,223,8113114,,,,,,,2022-07-05,1,,,,,ティーケーワイコンストラクション,0
230,1290001098137,新規,0,2022-07-05,2022-07-05,株式会社Ｍｉｑ,,株式会社,福岡県,福岡市博多区,板付５丁目１２番２６－４０２号サングレート博多イーエックス,,40,132,8120888,,,,,,,2022-07-05,1,,,,,ミッキュー,0
231,1290001098145,新規,0,2022-07-05,2022-07-05,株式会社グレスパブリック,,株式会社,福岡県,福岡市博多区,博多駅前１丁目１８番６号,,40,132,8120011,,,,,,,2022-07-05,1,,,,,グレスパブリック,0
232,1290001098186,新規,0,2022-07-05,2022-07-05,株式会社Ｖａｕｌｔｅｃｈ,,株式会社,福岡県,福岡市東区,馬出１丁目２９番１２号,,40,131,8120054,,,,,,,2022-07-05,1,,,,,ヴォルテック,0
233,1290801028714,新規,0,2022-07-05,2022-07-05,株式会社Ｎ．Ｋ,,株式会社,福岡県,直方市,大字上頓野１９６８番３,,40,204,8220003,,,,,,,2022-07-05,1,,,,,エヌケー,0
241,1310001017936,新規,0,2022-07-05,2022-07-05,株式会社Ｍサポート,,株式会社,長崎県,長崎市,大園町７番４１号,,42,201,8528062,,,,,,,2022-07-05,1,,,,,エムサポート,0
245,1320001019171,新規,0,2022-07-05,2022-07-05,ラブリーな株式会社,,株式会社,大分県,別府市,石垣東４丁目４番２２号,,44,202,8740919,,,,,,,2022-07-05,1,,,,,ラブリーナ,0
247,1320003003842,新規,0,2022-07-05,2022-07-05,合同会社Ｓａｒｋ,,合同会社,大分県,大分市,大字下戸次１６４０番地,,44,201,8797763,,,,,,,2022-07-05,1,,,,,サーク,0
249,1330001029888,新規,0,2022-07-05,2022-07-05,株式会社前田工業,,株式会社,熊本県,荒尾市,増永２５９１番地８,,43,204,8640032,,,,,,,2022-07-05,1,,,,,マエダコウギョウ,0
257,1350001017841,新規,0,2022-07-05,2022-07-05,株式会社しんせい,,株式会社,宮崎県,日向市,高砂町１１６番地２,,45,206,8830042,,,,,,,2022-07-05,1,,,,,シンセイ,0
260,1360001030637,新規,0,2022-07-05,2022-07-05,株式会社ＤＡＴＡＬＥ,,株式会社,沖縄県,那覇市,辻１丁目１６－９サングリーンビル１階,,47,201,9000037,,,,,,,2022-07-05,1,,,,,データレ,0
261,1370001048769,新規,0,2022-07-05,2022-07-05,株式会社ＡＯＢ,,株式会社,宮城県,仙台市宮城野区,原町２丁目２番１７号,,04,102,9830841,,,,,,,2022-07-05,1,,,,,エーオービー,0
268,1390005008965,新規,0,2022-07-05,2022-07-05,特定非営利活動法人いとしあ,,その他の設立登記法人,山形県,米沢市,大字笹野６３６番地の５,,06,202,9921443,,,,,,,2022-07-05,1,,,,,イトシア,0
293,1470001019149,新規,0,2022-07-05,2022-07-05,株式会社Ｌｉｆｅ　Ｐｒｅｓｅｎｔ,,株式会社,香川県,観音寺市,港町２丁目９番３１号,,37,205,7680076,,,,,,,2022-07-05,1,,,,,ライフプレゼント,0
298,1500001024310,新規,0,2022-07-05,2022-07-05,株式会社アイコーポレーション,,株式会社,愛媛県,新居浜市,江口町２番２６号,,38,205,7920005,,,,,,,2022-07-05,1,,,,,アイコーポレーション,0
299,1500003002859,新規,0,2022-07-05,2022-07-05,合同会社ＡＩＭＥＲ,,合同会社,愛媛県,松山市,南吉田町１７番地７,,38,201,7918042,,,,,,,2022-07-05,1,,,,,アイマー,0
300,1700150110709,新規,0,2022-07-05,2022-07-05,Ａｓｓｕｒａｎｃｅｆｏｒｅｎｉｎｇｅｎ　ＳＫＵＬＤ　Ｇｊｅｎｓｉｄｉｇ,,外国会社等,東京都,千代田区,丸の内１丁目８番３号丸の内トラストタワー,,13,101,1000005,ノルウェー王国オスロ市ロードフスガテン２７番地,,,,,,2022-07-05,1,,,,,アシュアランスフォアニンゲンスクルドイェンシディグ,0
309,2010001227820,新規,0,2022-07-05,2022-07-05,ＮｏｎＥｎｔｒｏｐｙ　Ｍａｒｋｅｔｉｎｇ株式会社,,株式会社,東京都,千代田区,内幸町１丁目１番１号,,13,101,1000011,,,,,,,2022-07-05,1,,,,,ノンエントロピーマーケティング,0
312,2010005035195,新規,0,2022-07-05,2022-07-05,特定非営利活動法人アクト・フォー,,その他の設立登記法人,東京都,中央区,明石町７番１３－４０７号,,13,102,1040044,,,,,,,2022-07-05,1,,,,,アクトフォー,0
315,2010401168334,新規,0,2022-07-05,2022-07-05,株式会社ＩＢ＆Ｃｏ．,,株式会社,東京都,港区,六本木７丁目７番７号トライセブンロッポンギ８階,,13,103,1060032,,,,,,,2022-07-05,1,,,,,イブアンドコー,0
316,2010401168342,新規,0,2022-07-05,2022-07-05,株式会社プロジェクトパートナーズ,,株式会社,東京都,港区,六本木１丁目６番１号,,13,103,1060032,,,,,,,2022-07-05,1,,,,,プロジェクトパートナーズ,0
319,2010405021167,新規,0,2022-07-05,2022-07-05,Ｏｇａｓａｗａｒａ一般社団法人,,その他の設立登記法人,東京都,港区,西新橋１丁目１番１号ＥＰコンサルティングサービス内,,13,103,1050003,,,,,,,2022-07-05,1,,,,,オガサワラ,0
322,2010703006290,新規,0,2022-07-05,2022-07-05,合同会社ｐｒｉｎｃｉｐｌｅ,,合同会社,東京都,品川区,小山台１丁目３０番６号小山台サニーハイツ２０１号室,,13,109,1420061,,,,,,,2022-07-05,1,,,,,プリンシプル,0
324,2010903007493,新規,0,2022-07-05,2022-07-05,合同会社Ｔ＆Ｓ,,合同会社,東京都,世田谷区,宮坂２丁目１８番２号メゾン・ド・経堂２０３,,13,112,1560051,,,,,,,2022-07-05,1,,,,,ティーアンドエス,0
340,2011305002827,新規,0,2022-07-05,2022-07-05,一般社団法人旅する学校,,その他の設立登記法人,東京都,杉並区,成田東２丁目３９番２０－２０９号ザ・ライオンズ杉並善福寺川緑地,,13,115,1660015,,,,,,,2022-07-05,1,,,,,タビスルガッコウ,0
345,2011501028221,新規,0,2022-07-05,2022-07-05,サイｔｓａｉ株式会社,,株式会社,東京都,荒川区,荒川６丁目６４番９号,,13,118,1160002,,,,,,,2022-07-05,1,,,,,サイサイ,0
354,2012403005465,新規,0,2022-07-05,2022-07-05,合同会社Ｌａｕｇｈｓ,,合同会社,東京都,調布市,西つつじケ丘３丁目２６番地７－１階,,13,208,1820006,,,,,,,2022-07-05,1,,,,,ラフス,0
357,2012801021700,新規,0,2022-07-05,2022-07-05,株式会社ハハトコ,,株式会社,東京都,日野市,三沢５丁目５番地の２,,13,212,1910032,,,,,,,2022-07-05,1,,,,,ハハトコ,0
359,2013301049323,新規,0,2022-07-05,2022-07-05,ＯＭＩＴＥＣＨ　ＪＡＰＡＮ株式会社,,株式会社,東京都,豊島区,駒込１丁目１９番５号ＤＧ駒込５０１室,,13,116,1700003,,,,,,,2022-07-05,1,,,,,オミテックジャパン,0
360,2020001147167,新規,0,2022-07-05,2022-07-05,株式会社ナチュラルフィールド,,株式会社,神奈川県,横浜市港北区,綱島東２丁目１番１０号,,14,109,2230052,,,,,,,2022-07-05,1,,,,,ナチュラルフィールド,0
361,2020001147175,新規,0,2022-07-05,2022-07-05,株式会社ＧＲＡＣＥ,,株式会社,神奈川県,横浜市中区,山田町７番地１２エステハイム横浜６０３,,14,104,2310036,,,,,,,2022-07-05,1,,,,,グレイス,0
362,2020001147200,新規,0,2022-07-05,2022-07-05,株式会社やと,,株式会社,神奈川県,横浜市神奈川区,神大寺２丁目１６番２１号,,14,102,2210801,,,,,,,2022-07-05,1,,,,,ヤト,0
366,2020003022038,新規,0,2022-07-05,2022-07-05,ＳａｎＳａａａｎ合同会社,,合同会社,神奈川県,川崎市多摩区,菅稲田堤３丁目８番２－４０３号,,14,135,2140003,,,,,,,2022-07-05,1,,,,,サンサーン,0
376,2030001148998,新規,0,2022-07-05,2022-07-05,株式会社ナイス,,株式会社,埼玉県,川口市,並木３丁目４－２３レインボー並木ビル５Ｆ,,11,203,3320034,,,,,,,2022-07-05,1,,,,,ナイス,0
377,2030001149006,新規,0,2022-07-05,2022-07-05,エアーテクノ株式会社,,株式会社,埼玉県,春日部市,大沼４丁目４５番地１,,11,214,3440038,,,,,,,2022-07-05,1,,,,,エアーテクノ,0
379,2030003019710,新規,0,2022-07-05,2022-07-05,青沐合同会社,,合同会社,埼玉県,川口市,並木３丁目１３－４－５０５ダイトービル２番館,,11,203,3320034,,,,,,,2022-07-05,1,,,,,セイモク,0
384,2040001124131,新規,0,2022-07-05,2022-07-05,株式会社葵工業,,株式会社,千葉県,市原市,八幡７７７番地２メルベーユ八幡１０１号室,,12,219,2900062,,,,,,,2022-07-05,1,,,,,アオイコウギョウ,0
387,2040003020361,新規,0,2022-07-05,2022-07-05,合同会社ながみね設計,,合同会社,千葉県,茂原市,下永吉５０２番地９,,12,210,2970035,,,,,,,2022-07-05,1,,,,,ナガミネセッケイ,0
391,2060001035046,新規,0,2022-07-05,2022-07-05,株式会社山下エンジニアリング,,株式会社,栃木県,宇都宮市,西刑部町２５４４番地１１６,,09,201,3210917,,,,,,,2022-07-05,1,,,,,ヤマシタエンジニアリング,0
392,2060001035054,新規,0,2022-07-05,2022-07-05,株式会社エムズ,,株式会社,栃木県,小山市,大字犬塚９９８番地４７０,,09,208,3230811,,,,,,,2022-07-05,1,,,,,エムズ,0
394,2080001025061,新規,0,2022-07-05,2022-07-05,株式会社ＮＯ　ＮＡＭＥ,,株式会社,静岡県,静岡市駿河区,国吉田６丁目９番１３号,,22,102,4228004,,,,,,,2022-07-05,1,,,,,ノーネーム,0
396,2080101023403,新規,0,2022-07-05,2022-07-05,株式会社山田テクノス,,株式会社,静岡県,熱海市,上多賀９６４番地の１２,,22,205,4130101,,,,,,,2022-07-05,1,,,,,ヤマダテクノス,0
398,2080401025925,新規,0,2022-07-05,2022-07-05,株式会社ＯＲＳ　ｃｒｅａｔｉｖｅ　ｄｉｓｔｒｉｂｕｔｉｏｎ,,株式会社,静岡県,浜松市中区,船越町３２番２６号,,22,131,4300913,,,,,,,2022-07-05,1,,,,,オーアールエスクリエイティブディストリビューション,0
399,2080401025933,新規,0,2022-07-05,2022-07-05,光ロジネクスト株式会社,,株式会社,静岡県,磐田市,中野１１８番地,,22,211,4380053,,,,,,,2022-07-05,1,,,,,ヒカリロジネクスト,0
401,2090001017652,新規,0,2022-07-05,2022-07-05,さくら教育支援株式会社,,株式会社,山梨県,大月市,大月町真木７７０番地５,,19,206,4010016,,,,,,,2022-07-05,1,,,,,,0
402,2090001017660,新規,0,2022-07-05,2022-07-05,株式会社建築日和,,株式会社,山梨県,南アルプス市,鮎沢１０１８番地３,,19,208,4000403,,,,,,,2022-07-05,1,,,,,ケンチクビヨリ,0
404,2110001036798,新規,0,2022-07-05,2022-07-05,株式会社川中村,,株式会社,新潟県,新潟市西区,坂井８６７番地リバティプラザ新大駅前１階,,15,107,9502042,,,,,,,2022-07-05,1,,,,,カワナカムラ,0
417,2120001247080,新規,0,2022-07-05,2022-07-05,株式会社ささえーる,,株式会社,大阪府,大阪市中央区,森ノ宮中央１丁目９番２号,,27,128,5400003,,,,,,,2022-07-05,1,,,,,ササエール,0
418,2120001247106,新規,0,2022-07-05,2022-07-05,株式会社人の架け橋,,株式会社,大阪府,大阪市中央区,久太郎町４丁目１番３号大阪センタービル６階－１７６,,27,128,5410056,,,,,,,2022-07-05,1,,,,,ヒトノカケハシ,0
419,2120001247130,新規,0,2022-07-05,2022-07-05,株式会社Ｕｐ　Ｆｉｅｌｄ,,株式会社,大阪府,大阪市東住吉区,住道矢田８丁目１３番２７号アビデサントル２０７号,,27,121,5460022,,,,,,,2022-07-05,1,,,,,アップフィールド,0
424,2120901046193,新規,0,2022-07-05,2022-07-05,株式会社Ｍａｔｕｍ,,株式会社,大阪府,摂津市,南別府町８番４７号,,27,224,5660045,,,,,,,2022-07-05,1,,,,,メイタム,0
431,2130001072156,新規,0,2022-07-05,2022-07-05,株式会社京都石原,,株式会社,京都府,京都市中京区,柳馬場通姉小路上る柳八幡町７６番地,,26,104,6048101,,,,,,,2022-07-05,1,,,,,キョウトイシハラ,0
432,2130003008042,新規,0,2022-07-05,2022-07-05,合同会社ａｐｐ．２,,合同会社,京都府,京都市中京区,壬生御所ノ内町１８－４ドマーニ壬生１０６,,26,104,6048872,,,,,,,2022-07-05,1,,,,,アップツー,0
437,2160001024336,新規,0,2022-07-05,2022-07-05,株式会社レパンズ,,株式会社,滋賀県,大津市,下阪本３丁目１２番９１号,,25,201,5200105,,,,,,,2022-07-05,1,,,,,レパンズ,0
438,2160003002612,新規,0,2022-07-05,2022-07-05,合同会社Ｄｈａｒｕｍａ　ＪＰ,,合同会社,滋賀県,草津市,大路１丁目１１－１４フロント草津ビル５Ｆ,,25,206,5250032,,,,,,,2022-07-05,1,,,,,ダルマジェイビー,0
439,2170001017173,新規,0,2022-07-05,2022-07-05,モノデジタル株式会社,,株式会社,和歌山県,和歌山市,中之島７７５－３,,30,201,6408392,,,,,,,2022-07-05,1,,,,,モノデジタル,0
444,2180001151995,新規,0,2022-07-05,2022-07-05,株式会社ＭＡＲＯ,,株式会社,愛知県,日進市,岩崎町芦廻間１１２番地１６４１,,23,230,4700131,,,,,,,2022-07-05,1,,,,,マロ,0
462,2220001024932,新規,0,2022-07-05,2022-07-05,株式会社ＲＩＮＧ　ＣＯＳＭＥ　ＰＲＯＤＵＣＥ,,株式会社,石川県,能美市,旭台２丁目５番地３,,17,211,9231211,,,,,,,2022-07-05,1,,,,,リングコスメプロデュース,0
465,2230001019436,新規,0,2022-07-05,2022-07-05,株式会社泉製作所,,株式会社,富山県,下新川郡入善町,道市２８６番地,,16,342,9390675,,,,,,,2022-07-05,1,,,,,イズミセイサクショ,0
466,2230003001879,新規,0,2022-07-05,2022-07-05,合同会社ＰＥＲＣＩＶ,,合同会社,富山県,射水市,本町１丁目１４－４,,16,211,9340011,,,,,,,2022-07-05,1,,,,,パーシブ,0
469,2240001060026,新規,0,2022-07-05,2022-07-05,株式会社住幸,,株式会社,広島県,廿日市市,宮島口東２丁目１０番１３号,,34,213,7390414,,,,,,,2022-07-05,1,,,,,ジュウコウ,0
470,2240001060034,新規,0,2022-07-05,2022-07-05,株式会社ｉｃ,,株式会社,広島県,福山市,多治米町３丁目２７番１０号,,34,207,7200824,,,,,,,2022-07-05,1,,,,,アイシー,0
477,2260003003971,新規,0,2022-07-05,2022-07-05,くらサポプラス合同会社,,合同会社,岡山県,倉敷市,児島下の町２丁目１５番３５号,,33,202,7110906,,,,,,,2022-07-05,1,,,,,クラサポプラス,0
480,2290001098160,新規,0,2022-07-05,2022-07-05,清豊産業株式会社,,株式会社,福岡県,飯塚市,下三緒３５番地３２５－１Ｆ１０３号,,40,205,8200012,,,,,,,2022-07-05,1,,,,,セイホウサンギョウ,0
481,2290001098185,新規,0,2022-07-05,2022-07-05,株式会社Ｄｉｇｉｔａｌ　Ｗｉｎｇ,,株式会社,福岡県,福岡市中央区,大名２丁目６番１１号,,40,133,8100041,,,,,,,2022-07-05,1,,,,,デジタルウィング,0
489,2290005018734,新規,0,2022-07-05,2022-07-05,一般社団法人ＡｒｔＨｏｌｉｃ,,その他の設立登記法人,福岡県,福岡市中央区,今泉１丁目１６－１２西坂ビル３階,,40,133,8100021,,,,,,,2022-07-05,1,,,,,アートホリック,0
491,2290801028705,新規,0,2022-07-05,2022-07-05,株式会社ＳＡＫＡＭＯＴＯ,,株式会社,福岡県,北九州市門司区,大字大積７２８番地１５,,40,101,8010811,,,,,,,2022-07-05,1,,,,,サカモト,0
496,2310001017935,新規,0,2022-07-05,2022-07-05,株式会社渚,,株式会社,長崎県,佐世保市,崎岡町１０４５－１エストゥベンダ濱本Ａ－１０５,,42,202,8593226,,,,,,,2022-07-05,1,,,,,ナギサ,0
500,2320001019170,新規,0,2022-07-05,2022-07-05,株式会社Ｔｏｍ．Ｗｏｒｋｅｒ,,株式会社,大分県,大分市,大字政所２６２５番地の２７Ｒ４０番館Ａ－４,,44,201,8700268,,,,,,,2022-07-05,1,,,,,トムワーカー,0
503,2330001029887,新規,0,2022-07-05,2022-07-05,株式会社土山建設,,株式会社,熊本県,山鹿市,南島１１５番地２,,43,208,8610535,,,,,,,2022-07-05,1,,,,,ツチヤマケンセツ,0
504,2330001029895,新規,0,2022-07-05,2022-07-05,株式会社Ｖａｌｌｅｙ,,株式会社,熊本県,熊本市北区,飛田４丁目２番３０号,,43,105,8615514,,,,,,,2022-07-05,1,,,,,バレイ,0
505,2330001029904,新規,0,2022-07-05,2022-07-05,株式会社コーチク,,株式会社,熊本県,上益城郡嘉島町,大字鯰１６１３番地１,,43,442,8613101,,,,,,,2022-07-05,1,,,,,コーチク,0
506,2340003003848,新規,0,2022-07-05,2022-07-05,合同会社三善エステート,,合同会社,鹿児島県,鹿児島市,上荒田町４０番５号,,46,201,8900055,,,,,,,2022-07-05,1,,,,,ミツヨシエステート,0
507,2350001017840,新規,0,2022-07-05,2022-07-05,公和株式会社,,株式会社,宮崎県,日向市,大字財光寺２７４０番地６,,45,206,8830021,,,,,,,2022-07-05,1,,,,,コウワ,0
516,2380003005213,新規,0,2022-07-05,2022-07-05,日本アクアテックグループ合同会社,,合同会社,福島県,郡山市,亀田１丁目４５番地の２６,,07,203,9638033,,,,,,,2022-07-05,1,,,,,ニホンアクアテックグループ,0
536,2480001011780,新規,0,2022-07-05,2022-07-05,株式会社ＬＯＨＡＳ,,株式会社,徳島県,板野郡北島町,中村字蛇池２７番地７,,36,402,7710203,,,,,,,2022-07-05,1,,,,,ロハス,0
541,2700150110708,新規,0,2022-07-05,2022-07-05,ＩＳＵＺＵ　ＭＯＴＯＲＳ　ＩＮＴＥＲＮＡＴＩＯＮＡＬ　ＦＺＥ,,外国会社等,,,,,,,,Ｓ５０９０９　Ｊａｆｚａ　Ｓｏｕｔｈ，　Ｊｅｂｅｌ　Ａｌｉ　Ｆｒｅｅ　Ｚｏｎｅ，　Ｄｕｂａｉ　Ｕｎｉｔｅｄ　Ａｒａｂ　Ｅｍｉｒａｔｅｓ,,,,,,2022-07-05,1,,,,,イスズモーターズインターナシヨナル,0
542,2700150110716,新規,0,2022-07-05,2022-07-05,Ｊ．Ａ．ＭＯＴＯＲＳ,,外国会社等,神奈川県,藤沢市,葛原１３９番地,,14,205,2520822,スリランカ民主社会主義共和国、マータレ、コタラウェラコロニーＮＯ．５０／２５,,,,,,2022-07-05,1,,,,,ジエイエーモータース,0
551,3010001227811,新規,0,2022-07-05,2022-07-05,レジデントインシュアランス株式会社,,株式会社,東京都,千代田区,神田錦町１丁目１３番地,,13,101,1010054,,,,,,,2022-07-05,1,,,,,レジデントインシュアランス,0
552,3010001227852,新規,0,2022-07-05,2022-07-05,株式会社ＫＩＴネットワーク,,株式会社,東京都,中央区,新川１丁目２３番４号ＩＳリバーサイドビル１２０１号室,,13,102,1040033,,,,,,,2022-07-05,1,,,,,キットネットワーク,0
557,3010003038042,新規,0,2022-07-05,2022-07-05,Ｉｎ　ａ　Ｂａｌｌｏｏｎ合同会社,,合同会社,東京都,中央区,月島１丁目２２番１－２７１２号,,13,102,1040052,,,,,,,2022-07-05,1,,,,,インアバルーン,0
565,3010405021133,新規,0,2022-07-05,2022-07-05,一般社団法人心栄会,,その他の設立登記法人,東京都,港区,六本木３丁目７番１－３０１２号,,13,103,1060032,,,,,,,2022-07-05,1,,,,,シンエイカイ,0
568,3010501049061,新規,0,2022-07-05,2022-07-05,Ｓａｆｆｒｏｎｃａｓａ　Ｊａｐａｎ株式会社,,株式会社,東京都,台東区,浅草橋２丁目２４番３号－１０２室,,13,106,1110053,,,,,,,2022-07-05,1,,,,,サフロンカサジャパン,0
571,3010503006639,新規,0,2022-07-05,2022-07-05,合同会社プロティノス,,合同会社,東京都,台東区,蔵前１丁目３番９号蔵前深田ビル３０３,,13,106,1110051,,,,,,,2022-07-05,1,,,,,プロティノス,0
572,3010505003320,新規,0,2022-07-05,2022-07-05,一般社団法人健康保険協会,,その他の設立登記法人,東京都,台東区,上野７丁目１０番１２号安達ビル３階,,13,106,1100005,,,,,,,2022-07-05,1,,,,,ケンコウホケンキョウカイ,0
581,3010901051154,新規,0,2022-07-05,2022-07-05,株式会社Ｓｈａｍｏｊｉ,,株式会社,東京都,世田谷区,代沢３丁目１９－１６,,13,112,1550032,,,,,,,2022-07-05,1,,,,,シャモジ,0
582,3010903007501,新規,0,2022-07-05,2022-07-05,宝メディカルサービス合同会社,,合同会社,東京都,世田谷区,中町４丁目１２番１２号,,13,112,1580091,,,,,,,2022-07-05,1,,,,,タカラメディカルサービス,0
592,3011303004460,新規,0,2022-07-05,2022-07-05,ＳＹＰ合同会社,,合同会社,東京都,杉並区,和泉１丁目２６番３号,,13,115,1680063,,,,,,,2022-07-05,1,,,,,エスワイピー,0
597,3011501028220,新規,0,2022-07-05,2022-07-05,ＲＣＭ株式会社,,株式会社,東京都,荒川区,南千住６丁目３７番３－１２０７号,,13,118,1160003,,,,,,,2022-07-05,1,,,,,アーシーエム,0
602,3011701025430,新規,0,2022-07-05,2022-07-05,株式会社ヴィルズ,,株式会社,東京都,江戸川区,西瑞江４丁目１５番地２プレミスト一之江３０６,,13,123,1340015,,,,,,,2022-07-05,1,,,,,ヴィルズ,0
603,3011703003186,新規,0,2022-07-05,2022-07-05,いまるグループ合同会社,,合同会社,東京都,江戸川区,松江４丁目２２番１８号,,13,123,1320025,,,,,,,2022-07-05,1,,,,,イマルグループ,0
605,3011803005157,新規,0,2022-07-05,2022-07-05,合同会社ライムワンド,,合同会社,東京都,葛飾区,東四つ木３丁目３３番３号,,13,122,1240014,,,,,,,2022-07-05,1,,,,,ライムワンド,0
609,3012401039357,新規,0,2022-07-05,2022-07-05,Ｕ．Ｍ株式会社,,株式会社,東京都,狛江市,中和泉４丁目２５番９号,,13,219,2010012,,,,,,,2022-07-05,1,,,,,ユードットエム,0
612,3012403005464,新規,0,2022-07-05,2022-07-05,合同会社プロジェクトドリーマーズプロダクション,,合同会社,東京都,調布市,飛田給２丁目３４番地７ハイム牧丘２０３,,13,208,1820036,,,,,,,2022-07-05,1,,,,,プロジェクトドリーマーズプロダクション,0
613,3012701017129,新規,0,2022-07-05,2022-07-05,株式会社宮崎硝子店,00127099,株式会社,東京都,西東京市,北原町１丁目２６番２０号,,13,229,1880003,,,,,,,2022-07-05,1,,,,,ミヤザキガラステン,0
615,3013101008965,新規,0,2022-07-05,2022-07-05,株式会社Ｔｏｔａｌ　Ｓｔｙｌｅ,,株式会社,東京都,羽村市,富士見平２丁目１４番地２４,,13,227,2050013,,,,,,,2022-07-05,1,,,,,トータルスタイル,0
627,3020001147182,新規,0,2022-07-05,2022-07-05,株式会社オネストワン,,株式会社,神奈川県,横浜市港北区,新羽町１２９３番地１ラ・ハーブ１０２,,14,109,2230057,,,,,,,2022-07-05,1,,,,,オネストワン,0
628,3020001147199,新規,0,2022-07-05,2022-07-05,株式会社コレパン,,株式会社,神奈川県,横浜市青葉区,市ケ尾町４９７番地１６,,14,117,2250024,,,,,,,2022-07-05,1,,,,,コレパン,0
629,3020001147224,新規,0,2022-07-05,2022-07-05,プラスワンヨコハマ株式会社,,株式会社,神奈川県,横浜市旭区,川井宿町１３８番地３,,14,112,2410804,,,,,,,2022-07-05,1,,,,,プラスワンヨコハマ,0
637,3020003022037,新規,0,2022-07-05,2022-07-05,合同会社ＵＴ,,合同会社,神奈川県,横浜市港北区,新横浜１丁目１２番地４ソルティア新横浜９０６,,14,109,2220033,,,,,,,2022-07-05,1,,,,,ユーティー,0
640,3020005015591,新規,0,2022-07-05,2022-07-05,ユニバーリンク協同組合,,その他の設立登記法人,神奈川県,横浜市戸塚区,矢部町１１００番地,,14,110,2440002,,,,,,,2022-07-05,1,,,,,ユニバーリンク,0
642,3021001076421,新規,0,2022-07-05,2022-07-05,株式会社みんなのまち,,株式会社,神奈川県,横須賀市,衣笠栄町１丁目５番地寿ビル２Ｆ,,14,201,2380031,,,,,,,2022-07-05,1,,,,,ミンナノマチ,0
650,3030003019692,新規,0,2022-07-05,2022-07-05,合同会社ａｎｄ　ＭＯＲＥ,,合同会社,埼玉県,朝霞市,本町２丁目２６番地９号,,11,227,3510011,,,,,,,2022-07-05,1,,,,,アンドモア,0
655,3040003020360,新規,0,2022-07-05,2022-07-05,ジャースリード合同会社,,合同会社,千葉県,茂原市,中部１０番地１１,,12,210,2970027,,,,,,,2022-07-05,1,,,,,ジャースリード,0
657,3050001051324,新規,0,2022-07-05,2022-07-05,株式会社山崎工業,00127089,株式会社,茨城県,神栖市,波崎８３１２番地２５,,08,232,3140408,,,,,,,2022-07-05,1,,,,,ヤマザキコウギョウ,0
661,3060001035045,新規,0,2022-07-05,2022-07-05,株式会社ねず吉,,株式会社,栃木県,日光市,森友１５６１番地６,,09,206,3212335,,,,,,,2022-07-05,1,,,,,ネズキチ,0
666,3080001025052,新規,0,2022-07-05,2022-07-05,株式会社ＧＥＮＣＯＢＬＡＮＤ,,株式会社,静岡県,静岡市葵区,両替町２丁目５番地の２０,,22,101,4200032,,,,,,,2022-07-05,1,,,,,ジェンコブランド,0
667,3080003002826,新規,0,2022-07-05,2022-07-05,グッドステーション合同会社,,合同会社,静岡県,藤枝市,下藪田７３５番地の２,,22,214,4260201,,,,,,,2022-07-05,1,,,,,グッドステーション,0
670,3080401025932,新規,0,2022-07-05,2022-07-05,伊藤さく泉株式会社,,株式会社,静岡県,磐田市,東小島１９０番地１,,22,211,4371208,,,,,,,2022-07-05,1,,,,,イトウサクセン,0
672,3090001017651,新規,0,2022-07-05,2022-07-05,ＧＲＡＮＤ　ＮＩＭＯＮ株式会社,,株式会社,山梨県,富士吉田市,上吉田５３６８番地の１－６号室,,19,202,4030005,,,,,,,2022-07-05,1,,,,,グランドニモン,0
675,3100003006601,新規,0,2022-07-05,2022-07-05,長野市求人情報合同会社,,合同会社,長野県,長野市,中御所２丁目２４番地１１号,,20,201,3800935,,,,,,,2022-07-05,1,,,,,ナガノシキュウジンジョウホウ,0
676,3110001036780,新規,0,2022-07-05,2022-07-05,島津工業株式会社,,株式会社,新潟県,上越市,大字福田３２９番地,,15,222,9420032,,,,,,,2022-07-05,1,,,,,シマヅコウギョウ,0
677,3110001036797,新規,0,2022-07-05,2022-07-05,株式会社さくらメディテイト,,株式会社,新潟県,長岡市,上除町西２丁目２７番地,,15,202,9402034,,,,,,,2022-07-05,1,,,,,サクラメディテイト,0
692,3120001247055,新規,0,2022-07-05,2022-07-05,日昇商事株式会社,,株式会社,大阪府,大阪市浪速区,元町２丁目７番１号福桜ビル３０１号,,27,111,5560016,,,,,,,2022-07-05,1,,,,,ニッショウショウジ,0
693,3120001247113,新規,0,2022-07-05,2022-07-05,鳥井設計株式会社,,株式会社,大阪府,枚方市,田口山３丁目２３番１２号,,27,210,5730001,,,,,,,2022-07-05,1,,,,,トリイセッケイ,0
694,3120001247146,新規,0,2022-07-05,2022-07-05,株式会社コンサルタントＭ＆Ｋ,,株式会社,大阪府,大阪市北区,西天満６丁目２番１４号,,27,127,5300047,,,,,,,2022-07-05,1,,,,,コンサルタントエムアンドケイ,0
701,3120101065852,新規,0,2022-07-05,2022-07-05,株式会社アートテック,,株式会社,大阪府,和泉市,府中町８丁目３番３０号,,27,219,5940071,,,,,,,2022-07-05,1,,,,,アートテック,0
702,3120101065860,新規,0,2022-07-05,2022-07-05,株式会社和田設備,,株式会社,大阪府,羽曳野市,野々上４丁目４番５号,,27,222,5830871,,,,,,,2022-07-05,1,,,,,ワダセツビ,0
703,3120103004767,新規,0,2022-07-05,2022-07-05,合同会社ブルーム,,合同会社,大阪府,堺市堺区,南安井町５丁１番１１号,,27,141,5900064,,,,,,,2022-07-05,1,,,,,ブルーム,0
710,3130001072147,新規,0,2022-07-05,2022-07-05,グッドモーニング株式会社,,株式会社,京都府,京都市中京区,河原町通二条下る二丁目下丸屋町４０３番地,,26,104,6040000,,,,,,,2022-07-05,1,,,,,グッドモーニング,0
716,3160001024351,新規,0,2022-07-05,2022-07-05,株式会社レガリア,,株式会社,滋賀県,守山市,勝部４丁目１番７１－２号,,25,207,5240041,,,,,,,2022-07-05,1,,,,,レガリア,0
728,3180001151994,新規,0,2022-07-05,2022-07-05,株式会社Ｔ＆Ｙ花椿,,株式会社,愛知県,名古屋市西区,花の木１丁目２番２号,,23,104,4510062,,,,,,,2022-07-05,1,,,,,ティーアンドワイハナツバキ,0
729,3180001152019,新規,0,2022-07-05,2022-07-05,株式会社ワイズ鋼板,,株式会社,愛知県,名古屋市港区,宝神１丁目１１５番地,,23,111,4550832,,,,,,,2022-07-05,1,,,,,ワイズコウハン,0
730,3180001152076,新規,0,2022-07-05,2022-07-05,株式会社ＴＡＤＡＩＣＨＩ,,株式会社,愛知県,海部郡飛島村,大宝２丁目１７５番地,,23,427,4901438,,,,,,,2022-07-05,1,,,,,タダイチ,0
738,3180303005378,新規,0,2022-07-05,2022-07-05,合同会社ＡＫＩＫＯ,,合同会社,愛知県,豊橋市,多米西町３丁目４番地８（２Ｃ）,,23,201,4400026,,,,,,,2022-07-05,1,,,,,アキコ,0
739,3190001029595,新規,0,2022-07-05,2022-07-05,アイケーイー株式会社,,株式会社,三重県,津市,高茶屋５丁目７番７号,,24,201,5140819,,,,,,,2022-07-05,1,,,,,アイケーイー,0
741,3200001040229,新規,0,2022-07-05,2022-07-05,株式会社ハリスコート,,株式会社,岐阜県,揖斐郡大野町,大字黒野２０６４番地１,,21,403,5010521,,,,,,,2022-07-05,1,,,,,ハリスコート,0
747,3230001019427,新規,0,2022-07-05,2022-07-05,Ｔ・Ｍテック株式会社,,株式会社,富山県,富山市,婦中町長沢３０６０番地１,,16,201,9392606,,,,,,,2022-07-05,1,,,,,ティーエムテック,0
752,3240001060033,新規,0,2022-07-05,2022-07-05,株式会社ＭＹ　ＷＡＹ,,株式会社,広島県,広島市中区,堀川町１番１４号第１レックスビル４Ｆ,,34,101,7300033,,,,,,,2022-07-05,1,,,,,マイウェイ,0
764,3260001037013,新規,0,2022-07-05,2022-07-05,株式会社ＫＬＥＩＤ,,株式会社,岡山県,岡山市北区,問屋町２６番地１０７,,33,101,7000977,,,,,,,2022-07-05,1,,,,,クライド,0
773,3290001098127,新規,0,2022-07-05,2022-07-05,株式会社ｎｅｓｔ,,株式会社,福岡県,福岡市博多区,美野島３丁目２１番１５－６０４号,,40,132,8120017,,,,,,,2022-07-05,1,,,,,ネスト,0
774,3290001098151,新規,0,2022-07-05,2022-07-05,株式会社ファーストエンパシー,,株式会社,福岡県,福岡市西区,大字千里７０６－６,,40,135,8190374,,,,,,,2022-07-05,1,,,,,ファーストエンパシー,0
775,3290001098176,新規,0,2022-07-05,2022-07-05,株式会社和,,株式会社,福岡県,福岡市南区,皿山２丁目８番２９号,,40,134,8111365,,,,,,,2022-07-05,1,,,,,ワ,0
779,3290005018733,新規,0,2022-07-05,2022-07-05,一般社団法人優駿福祉会,,その他の設立登記法人,福岡県,嘉麻市,鴨生３０番地２９,,40,227,8200206,,,,,,,2022-07-05,1,,,,,ユウシュンフクシカイ,0
781,3290801028687,新規,0,2022-07-05,2022-07-05,きむらホールディングス株式会社,,株式会社,福岡県,北九州市小倉南区,下城野２丁目２番１１号テクノプラザ中央２号,,40,107,8020804,,,,,,,2022-07-05,1,,,,,キムラホールディングス,0
782,3290801028704,新規,0,2022-07-05,2022-07-05,株式会社マルチプライムソリューションズ,,株式会社,福岡県,北九州市八幡西区,鷹見台１丁目１０番１０号,,40,109,8070853,,,,,,,2022-07-05,1,,,,,マルチプライムソリューションズ,0
787,3310001017934,新規,0,2022-07-05,2022-07-05,株式会社魁偉,,株式会社,長崎県,平戸市,田平町下寺免６５６番地１,,42,207,8594815,,,,,,,2022-07-05,1,,,,,カイイ,0
790,3330001029886,新規,0,2022-07-05,2022-07-05,株式会社松多工業,,株式会社,熊本県,熊本市西区,城山半田２丁目１０番４０号,,43,103,8600064,,,,,,,2022-07-05,1,,,,,マツダコウギョウ,0
791,3330003009432,新規,0,2022-07-05,2022-07-05,ＨａＮａＨ合同会社,,合同会社,熊本県,人吉市,願成寺町４８５番地３,,43,203,8680022,,,,,,,2022-07-05,1,,,,,ハナ,0
796,3340003003839,新規,0,2022-07-05,2022-07-05,合同会社ライフワーク,,合同会社,鹿児島県,姶良市,加治木町木田５８１番地１,,46,225,8995241,,,,,,,2022-07-05,1,,,,,ライフワーク,0
797,3340003003847,新規,0,2022-07-05,2022-07-05,合同会社ＭＡＳＡ,,合同会社,鹿児島県,鹿児島市,加治屋町１１番２０－５０３号,,46,201,8920846,,,,,,,2022-07-05,1,,,,,マーサ,0
802,3350001017848,新規,0,2022-07-05,2022-07-05,フィジビリティスタディ株式会社,,株式会社,宮崎県,宮崎市,下原町３６８－６,,45,201,8800843,,,,,,,2022-07-05,1,,,,,フィジビリティスタディ,0
808,3360003012128,新規,0,2022-07-05,2022-07-05,ＯＮＥ‐ＳＴＯＲＹ合同会社,,合同会社,沖縄県,糸満市,字糸満１００５,,47,210,9010361,,,,,,,2022-07-05,1,,,,,ワンストリー,0
811,3370001048734,新規,0,2022-07-05,2022-07-05,株式会社アクロス東北,,株式会社,宮城県,仙台市青葉区,荒巻字青葉４６８－１東北大学マテリアル・イノベーション・センター青葉山ガレージ内,,04,101,9800845,,,,,,,2022-07-05,1,,,,,アクロストウホク,0
813,3370003005725,新規,0,2022-07-05,2022-07-05,やしのきデザイン合同会社,,合同会社,宮城県,大崎市,古川駅前大通１丁目４―４３よしかわビル２階,,04,215,9896162,,,,,,,2022-07-05,1,,,,,ヤシノキデザイン,0
814,3370003005758,新規,0,2022-07-05,2022-07-05,合同会社甲子園９８,,合同会社,宮城県,仙台市青葉区,花京院１丁目５－２１－Ｂ１,,04,101,9800013,,,,,,,2022-07-05,1,,,,,コウシエンキューハチ,0
818,3390001016953,新規,0,2022-07-05,2022-07-05,株式会社みやび,,株式会社,山形県,山形市,大字風間１２５７番地１,,06,201,9902221,,,,,,,2022-07-05,1,,,,,ミヤビ,0
828,3430001086950,新規,0,2022-07-05,2022-07-05,株式会社インテリア相澤,,株式会社,北海道,北広島市,西の里北１丁目２番地７サニーコート１０５号,,01,234,0611104,,,,,,,2022-07-05,1,,,,,インテリアアイザワ,0
829,3430001086967,新規,0,2022-07-05,2022-07-05,ＲＡＭＺＡＮ　ＴＲＡＤＩＮＧ株式会社,,株式会社,北海道,苫小牧市,新明町２丁目５番７号,,01,213,0530055,,,,,,,2022-07-05,1,,,,,ラマザントレーディング,0
830,3430001087032,新規,0,2022-07-05,2022-07-05,セイダイ産業株式会社,,株式会社,北海道,札幌市西区,八軒六条西４丁目１番３５号,,01,107,0630846,,,,,,,2022-07-05,1,,,,,セイダイサンギョウ,0
832,3430003014067,新規,0,2022-07-05,2022-07-05,合同会社ｉｄｉｏｔ,,合同会社,北海道,札幌市中央区,南五条東３丁目１１番地１札幌ビオス館１１０８号,,01,101,0600055,,,,,,,2022-07-05,1,,,,,イディオット,0
844,3500001024309,新規,0,2022-07-05,2022-07-05,株式会社ＪＯＵＳＨＯＷ,,株式会社,愛媛県,今治市,本町７丁目３番４７号,,38,202,7940018,,,,,,,2022-07-05,1,,,,,ジョウショー,0
846,3500003002857,新規,0,2022-07-05,2022-07-05,合同会社カークリーニングＭＯＲＩＮＡＫＡ,,合同会社,愛媛県,四国中央市,妻鳥町１１６８番地１,,38,213,7990113,,,,,,,2022-07-05,1,,,,,カークリーニングモリナカ,0
847,3700150110707,新規,0,2022-07-05,2022-07-05,Ｍａｎ　Ｋａ　Ｌｉｍｉｔｅｄ,,外国会社等,東京都,港区,愛宕１丁目虎ノ門ヒルズレジデンシャルタワー２５１１,,13,103,1050002,Ｒｏｏｍ　１５０１－２　ＣＣ　Ｗｕ　Ｂｕｉｌｄｉｎｇ　３０２－３０８　Ｈｅｎｎｅｓｓｙ　Ｒｏａｄ，　Ｗａｎｃｈａｉ,,,,,,2022-07-05,1,,,,,マンカリミテツド,0
858,4010001227760,新規,0,2022-07-05,2022-07-05,株式会社ＳＳＳ　Ｅｄｕｃａｔｉｏｎ,,株式会社,東京都,文京区,西片２丁目２２番４号コンフォート西片３０５,,13,105,1130024,,,,,,,2022-07-05,1,,,,,エスエスエスエデュケーション,0
859,4010001227827,新規,0,2022-07-05,2022-07-05,株式会社やくばと,,株式会社,東京都,中央区,築地１丁目１３番１号,,13,102,1040045,,,,,,,2022-07-05,1,,,,,ヤクバト,0
860,4010001227835,新規,0,2022-07-05,2022-07-05,株式会社ＥＮＩＣＯＮ,,株式会社,東京都,中央区,日本橋富沢町１０番１１号ＬＤＢ日本橋富沢町１階,,13,102,1030006,,,,,,,2022-07-05,1,,,,,エニコン,0
862,4010003038041,新規,0,2022-07-05,2022-07-05,ｉプロパティ１０合同会社,,合同会社,東京都,千代田区,永田町２丁目１４番２号－３階スリーアイズキャピタル株式会社内,,13,101,1000014,,,,,,,2022-07-05,1,,,,,アイプロパティテン,0
869,4010401168316,新規,0,2022-07-05,2022-07-05,ＳＴＡＴＩＯＮＥＲＹ　ＳＴＡＴＩＯＮ株式会社,,株式会社,東京都,港区,芝浦１丁目９番７号,,13,103,1050023,,,,,,,2022-07-05,1,,,,,ステーショナリーステーション,0
870,4010401168365,新規,0,2022-07-05,2022-07-05,マジックアワー株式会社,,株式会社,東京都,港区,南青山２丁目２番１５号ウィン青山９４２,,13,103,1070062,,,,,,,2022-07-05,1,,,,,マジックアワー,0
871,4010401168407,新規,0,2022-07-05,2022-07-05,株式会社大手総合通販大和心設立準備室,,株式会社,東京都,港区,南麻布２丁目７番１号,,13,103,1060047,,,,,,,2022-07-05,1,,,,,オオテソウゴウツウハンヤマトゴコロセツリツジュンビシツ,0
875,4010403028047,新規,0,2022-07-05,2022-07-05,合同会社ポラリス,,合同会社,東京都,港区,北青山３丁目６番１０号,,13,103,1070061,,,,,,,2022-07-05,1,,,,,ポラリス,0
878,4010501049060,新規,0,2022-07-05,2022-07-05,株式会社橋本システム,,株式会社,東京都,台東区,今戸１丁目３－１５セジョリ浅草桜橋１１０１,,13,106,1110024,,,,,,,2022-07-05,1,,,,,ハシモトシステム,0
881,4010601061428,新規,0,2022-07-05,2022-07-05,株式会社Ｌｏｃｏ　Ｄｏｏｒ,,株式会社,東京都,江東区,木場１丁目５番２５号,,13,108,1350042,,,,,,,2022-07-05,1,,,,,ロコドア,0
889,4010901051129,新規,0,2022-07-05,2022-07-05,ＰＡＮＤＡコンサル株式会社,,株式会社,東京都,世田谷区,給田１丁目５番７号,,13,112,1570064,,,,,,,2022-07-05,1,,,,,パンダコンサル,0
890,4010901051153,新規,0,2022-07-05,2022-07-05,株式会社ｅｍｍａ,,株式会社,東京都,世田谷区,三軒茶屋１丁目１８番１１号,,13,112,1540024,,,,,,,2022-07-05,1,,,,,エマ,0
896,4011001148451,新規,0,2022-07-05,2022-07-05,リフレム・アセットマネジメント株式会社,,株式会社,東京都,渋谷区,代々木１丁目２５番５号,,13,113,1510053,,,,,,,2022-07-05,1,,,,,リフレムアセットマネジメント,0
899,4011101099413,新規,0,2022-07-05,2022-07-05,ＡＬＪ　ＮＥＸＴ　ＢＲＩＤＧＥ株式会社,,株式会社,東京都,新宿区,新宿３丁目２番１号,,13,104,1600022,,,,,,,2022-07-05,1,,,,,エーエルジェイネクストブリッジ,0
901,4011103011929,新規,0,2022-07-05,2022-07-05,合同会社Ｓ,,合同会社,東京都,新宿区,新宿５丁目１８番１６号新宿伊藤ビル６階,,13,104,1600022,,,,,,,2022-07-05,1,,,,,エス,0
913,4011501028211,新規,0,2022-07-05,2022-07-05,株式会社ＫＡＫＩ研究所,,株式会社,東京都,荒川区,西日暮里２丁目２６番５号,,13,118,1160013,,,,,,,2022-07-05,1,,,,,カキケンキュウショ,0
915,4011601026073,新規,0,2022-07-05,2022-07-05,株式会社ＫａｏＬａ,,株式会社,東京都,練馬区,田柄５丁目１０番６号,,13,120,1790073,,,,,,,2022-07-05,1,,,,,カオラ,0
919,4011701025438,新規,0,2022-07-05,2022-07-05,株式会社櫂アドバイザリー,,株式会社,東京都,江戸川区,篠崎町７丁目２１番５－５０６号,,13,123,1330061,,,,,,,2022-07-05,1,,,,,カイアドバイザリー,0
925,4011801040948,新規,0,2022-07-05,2022-07-05,株式会社アムリンクス,,株式会社,東京都,葛飾区,青戸５丁目２３番２－１０２号,,13,122,1250062,,,,,,,2022-07-05,1,,,,,アムリンクス,0
929,4012401039372,新規,0,2022-07-05,2022-07-05,株式会社ｋｉｃｋｙ,,株式会社,東京都,府中市,宮西町３丁目８－１セザールプラザ府中６１２号,,13,206,1830022,,,,,,,2022-07-05,1,,,,,キッキー,0
931,4012403005463,新規,0,2022-07-05,2022-07-05,ストーリーチェンジ合同会社,,合同会社,東京都,三鷹市,井の頭４丁目５番５号,,13,204,1810001,,,,,,,2022-07-05,1,,,,,ストーリーチェンジ,0
934,4012701017128,新規,0,2022-07-05,2022-07-05,双洋株式会社,,株式会社,東京都,小平市,学園西町３丁目２２番１６号１階,,13,211,1870045,,,,,,,2022-07-05,1,,,,,ソウヨウ,0
938,4012801021698,新規,0,2022-07-05,2022-07-05,株式会社関パッケージセンター,,株式会社,東京都,国立市,富士見台１丁目１９番地の４,,13,215,1860003,,,,,,,2022-07-05,1,,,,,セキパッケージセンター,0
940,4013101008964,新規,0,2022-07-05,2022-07-05,株式会社塩野測量設計,,株式会社,東京都,青梅市,今寺４丁目５番地の１４,,13,205,1980021,,,,,,,2022-07-05,1,,,,,シオノソクリョウセッケイ,0
943,4013301049338,新規,0,2022-07-05,2022-07-05,Ｓｕｆｉａ株式会社,,株式会社,東京都,豊島区,東池袋１丁目３１番１５号,,13,116,1700013,,,,,,,2022-07-05,1,,,,,スフィア,0
948,4020001147173,新規,0,2022-07-05,2022-07-05,プリファード・デザイン株式会社,,株式会社,神奈川県,横浜市港北区,篠原西町３番４号,,14,109,2220025,,,,,,,2022-07-05,1,,,,,プリファードデザイン,0
949,4020001147181,新規,0,2022-07-05,2022-07-05,株式会社ＴＫＲ,,株式会社,神奈川県,川崎市高津区,子母口２７１番地１フレシール６０１,,14,134,2130023,,,,,,,2022-07-05,1,,,,,ティーケイアール,0
951,4020003022044,新規,0,2022-07-05,2022-07-05,ＦｌｙｉｎｇＴｏｗａｒｄｓＨｏｐｅ合同会社,,合同会社,神奈川県,川崎市高津区,久末３００番地３３ベルテンポ２Ｆ,,14,134,2130026,,,,,,,2022-07-05,1,,,,,フライングトワーズホープ,0
956,4021001076412,新規,0,2022-07-05,2022-07-05,株式会社ｐａｔｈ,,株式会社,神奈川県,平塚市,万田９６２番地３,,14,203,2540913,,,,,,,2022-07-05,1,,,,,パス,0
957,4021001076420,新規,0,2022-07-05,2022-07-05,株式会社シーウィーズ,,株式会社,神奈川県,三浦市,三崎町小網代１２８６番地Ａ－５０３,,14,210,2380225,,,,,,,2022-07-05,1,,,,,シーウィーズ,0
960,4021003011904,新規,0,2022-07-05,2022-07-05,合同会社トーチ,,合同会社,神奈川県,中郡大磯町,大磯１６７５番地,,14,341,2550003,,,,,,,2022-07-05,1,,,,,,0
966,4030001148939,新規,0,2022-07-05,2022-07-05,株式会社池田工業,,株式会社,埼玉県,さいたま市桜区,桜田２丁目８番３－３号,,11,106,3380833,,,,,,,2022-07-05,1,,,,,イケダコウギョウ,0
967,4030001148996,新規,0,2022-07-05,2022-07-05,株式会社ｉｎｆｉｔ,,株式会社,埼玉県,川口市,北原台２丁目６番２６号,,11,203,3330815,,,,,,,2022-07-05,1,,,,,インフィット,0
972,4040001124138,新規,0,2022-07-05,2022-07-05,株式会社能勢建装,,株式会社,千葉県,市川市,北国分４丁目２３番６号,,12,203,2720836,,,,,,,2022-07-05,1,,,,,ノセケンソウ,0
980,4040005021661,新規,0,2022-07-05,2022-07-05,特定非営利活動法人まちの保健室やちよ,,その他の設立登記法人,千葉県,八千代市,勝田台北１丁目１０－９ＣＲＥＡ勝田台３０２,,12,221,2760020,,,,,,,2022-07-05,1,,,,,マチノホケンシツヤチヨ,0
991,4080001025051,新規,0,2022-07-05,2022-07-05,株式会社勝弥商店,,株式会社,静岡県,静岡市清水区,宮下町１０番２０号,,22,103,4240803,,,,,,,2022-07-05,1,,,,,カツヤショウテン,0
992,4080101023392,新規,0,2022-07-05,2022-07-05,株式会社ｅｔ　Ｌ,,株式会社,静岡県,沼津市,岡一色３８９番地の１ながたビル２階,,22,203,4100012,,,,,,,2022-07-05,1,,,,,エエル,0
994,4080401025923,新規,0,2022-07-05,2022-07-05,株式会社ＤＹＴ,,株式会社,静岡県,浜松市東区,北島町７８番地,,22,132,4350041,,,,,,,2022-07-05,1,,,,,ディーワイティー,0
997,4100003006600,新規,0,2022-07-05,2022-07-05,長野市転職合同会社,,合同会社,長野県,長野市,中御所２丁目２４番地１１号,,20,201,3800935,,,,,,,2022-07-05,1,,,,,ナガノシテンショク,0
999,4110003004801,新規,0,2022-07-05,2022-07-05,Ｐｈｏｅｎｉｘ　Ｌｏｄｇｅ　Ｊａｐａｎ合同会社,,合同会社,新潟県,妙高市,大字田口１４５１番地６,,15,217,9492106,,,,,,,2022-07-05,1,,,,,フィニックスロッジジャパン,0
1004,4120001247112,新規,0,2022-07-05,2022-07-05,南海システムソリューションズ株式会社,,株式会社,大阪府,大阪市中央区,難波５丁目１番６０号,,27,128,5420076,,,,,,,2022-07-05,1,,,,,ナンカイシステムソリューションズ,0
1008,4120101065827,新規,0,2022-07-05,2022-07-05,きらり株式会社,,株式会社,大阪府,泉南郡熊取町,自由が丘１丁目５番６号,,27,361,5900423,,,,,,,2022-07-05,1,,,,,キラリ,0
1009,4120101065835,新規,0,2022-07-05,2022-07-05,株式会社友共テクニカル,,株式会社,大阪府,堺市堺区,東湊町３丁１７５番地１,,27,141,5900829,,,,,,,2022-07-05,1,,,,,ユウキョウテクニカル,0
1010,4120101065868,新規,0,2022-07-05,2022-07-05,株式会社貢献,,株式会社,大阪府,堺市西区,鶴田町３０番６８号,,27,144,5938323,,,,,,,2022-07-05,1,,,,,コウケン,0
1011,4120103004766,新規,0,2022-07-05,2022-07-05,合同会社Ｅｄｉｔｏｒ,,合同会社,大阪府,河内長野市,松ケ丘東町１３６２番地の６,,27,216,5860007,,,,,,,2022-07-05,1,,,,,エディター,0
1015,4120901046183,新規,0,2022-07-05,2022-07-05,株式会社淀川電機製作所,,株式会社,大阪府,豊中市,走井２丁目１番８号,,27,203,5610891,,,,,,,2022-07-05,1,,,,,ヨドガワデンキセイサクショ,0
1017,4122005003623,新規,0,2022-07-05,2022-07-05,特定非営利活動法人笑い扶,,その他の設立登記法人,大阪府,四條畷市,雁屋南町２７番３号,,27,229,5750036,,,,,,,2022-07-05,1,,,,,ワライフ,0
1019,4130003008040,新規,0,2022-07-05,2022-07-05,ＪＦＥフーズ合同会社,,合同会社,京都府,京都市中京区,西ノ京中御門東町７３番地２,,26,104,6048471,,,,,,,2022-07-05,1,,,,,ジェイエフイーフーズ,0
1026,4150003002702,新規,0,2022-07-05,2022-07-05,ｆａｉｒｙ　ｒｏｓｅ合同会社,,合同会社,奈良県,天理市,杣之内町９１７親里５号館２０２,,29,204,6320032,,,,,,,2022-07-05,1,,,,,フェアリーローズ,0
1028,4170001017171,新規,0,2022-07-05,2022-07-05,株式会社中岸組,,株式会社,和歌山県,新宮市,新宮３６０６番地,,30,207,6470081,,,,,,,2022-07-05,1,,,,,ナカギシグミ,0
1034,4180001151993,新規,0,2022-07-05,2022-07-05,株式会社心凰,,株式会社,愛知県,名古屋市守山区,白山２丁目１５０３番地メゾン柊館３階Ａ号,,23,113,4630032,,,,,,,2022-07-05,1,,,,,ミオウ,0
1035,4180005019824,新規,0,2022-07-05,2022-07-05,医療法人はんじこどもクリニック,,その他の設立登記法人,愛知県,一宮市,定水寺字小脇７番地,,23,203,4910004,,,,,,,2022-07-05,1,,,,,ハンジコドモクリニック,0
1037,4180301019313,新規,0,2022-07-05,2022-07-05,株式会社松平やな,,株式会社,愛知県,豊田市,穂積町高瀬１０番地,,23,211,4442222,,,,,,,2022-07-05,1,,,,,マツダイラヤナ,0
1038,4180301036374,新規,0,2022-07-05,2022-07-05,Ｎプラスワン株式会社,,株式会社,愛知県,刈谷市,一ツ木町７丁目３番地１０,,23,210,4480003,,,,,,,2022-07-05,1,,,,,エヌプラスワン,0
1039,4180301036390,新規,0,2022-07-05,2022-07-05,株式会社徳倉工業,,株式会社,愛知県,西尾市,一色町生田案子東５番地２,,23,213,4440412,,,,,,,2022-07-05,1,,,,,トクラコウギョウ,0
1042,4200001040252,新規,0,2022-07-05,2022-07-05,株式会社ひらく,,株式会社,岐阜県,岐阜市,前一色２丁目１７番７号,,21,201,5008232,,,,,,,2022-07-05,1,,,,,ヒラク,0
1045,4200003005609,新規,0,2022-07-05,2022-07-05,住アーツ合同会社,,合同会社,岐阜県,岐阜市,諏訪山１丁目４番１０号,,21,201,5013142,,,,,,,2022-07-05,1,,,,,ジュウアーツ,0
1051,4220003003321,新規,0,2022-07-05,2022-07-05,ＵＳデザイン合同会社,,合同会社,石川県,金沢市,上安原２丁目１５３番地,,17,201,9200370,,,,,,,2022-07-05,1,,,,,アスデザイン,0
1057,4240001060016,新規,0,2022-07-05,2022-07-05,ｅｔｏｏｔｏ株式会社,,株式会社,広島県,福山市,引野町２丁目４４番２４－１号,,34,207,7210942,,,,,,,2022-07-05,1,,,,,エトオト,0
1058,4240001060032,新規,0,2022-07-05,2022-07-05,株式会社リープカンパニー,,株式会社,広島県,広島市中区,住吉町２１番７‐１０１号,,34,101,7300813,,,,,,,2022-07-05,1,,,,,リープカンパニー,0
1060,4240003005695,新規,0,2022-07-05,2022-07-05,合同会社Ｑｕａｌｉｔｙ　Ｏｆ　Ｌｉｆｅ,,合同会社,広島県,福山市,津之郷町大字加屋１１１番地４,,34,207,7200842,,,,,,,2022-07-05,1,,,,,クオリティオブライフ,0
1065,4260001037020,新規,0,2022-07-05,2022-07-05,株式会社ソーゴープロダクツ,,株式会社,岡山県,倉敷市,南畝１丁目９０番９,,33,202,7128055,,,,,,,2022-07-05,1,,,,,ソーゴープロダクツ,0
1067,4270001008573,新規,0,2022-07-05,2022-07-05,株式会社トライス,,株式会社,鳥取県,鳥取市,湖山町西３丁目１１７番地３,,31,201,6800947,,,,,,,2022-07-05,1,,,,,トライス,0
1074,4290801028686,新規,0,2022-07-05,2022-07-05,株式会社ハニーミエルグループ,,株式会社,福岡県,北九州市八幡西区,木屋瀬４丁目５番６号,,40,109,8071261,,,,,,,2022-07-05,1,,,,,ハニーミエルグループ,0
1075,4290801028694,新規,0,2022-07-05,2022-07-05,株式会社金のバンズ,,株式会社,福岡県,遠賀郡遠賀町,大字別府４１０７番地の１,,40,384,8114331,,,,,,,2022-07-05,1,,,,,キンノバンズ,0
1076,4290801028703,新規,0,2022-07-05,2022-07-05,株式会社Ｓ．Ｉ．Ｃ,,株式会社,福岡県,宮若市,本城５４４番地２,,40,226,8230003,,,,,,,2022-07-05,1,,,,,エスアイシー,0
1077,4290803004157,新規,0,2022-07-05,2022-07-05,合同会社畑中商事,,合同会社,福岡県,北九州市八幡西区,鷹の巣１丁目１３番１９－３０１号,,40,109,8060047,,,,,,,2022-07-05,1,,,,,ハタナカショウジ,0
1080,4310001017933,新規,0,2022-07-05,2022-07-05,株式会社ガレージケンズ,,株式会社,長崎県,佐世保市,吉岡町１５２５,,42,202,8570143,,,,,,,2022-07-05,1,,,,,ガレージケンズ,0
1081,4310001017941,新規,0,2022-07-05,2022-07-05,株式会社岡田住建,,株式会社,長崎県,長崎市,東小島町９番１４号,,42,201,8500833,,,,,,,2022-07-05,1,,,,,オカダジュウケン,0
1082,4320001019169,新規,0,2022-07-05,2022-07-05,株式会社ハルク,,株式会社,大分県,大分市,田中町２丁目５番１０号,,44,201,8700852,,,,,,,2022-07-05,1,,,,,ハルク,0
1083,4330001029893,新規,0,2022-07-05,2022-07-05,株式会社佐藤商店,,株式会社,熊本県,熊本市中央区,新屋敷１丁目１１番１号１０３号,,43,101,8620975,,,,,,,2022-07-05,1,,,,,サトウショウテン,0
1084,4340001024869,新規,0,2022-07-05,2022-07-05,株式会社ストーリーガーデン,,株式会社,鹿児島県,鹿児島市,吉野町６９６番地３,,46,201,8920871,,,,,,,2022-07-05,1,,,,,ストーリーガーデン,0
1089,4350001017839,新規,0,2022-07-05,2022-07-05,株式会社山河,,株式会社,宮崎県,東臼杵郡美郷町,北郷宇納間６２４番地１,,45,431,8890901,,,,,,,2022-07-05,1,,,,,サンガ,0
1090,4350001017847,新規,0,2022-07-05,2022-07-05,株式会社一心ｉｎｖｅｓｔｍｅｎｔ,,株式会社,宮崎県,宮崎市,橘通東１丁目１４番２６号プレミスト宮崎アクアリゾート１００７号,,45,201,8800805,,,,,,,2022-07-05,1,,,,,イッシンインベストメント,0
1091,4350003004117,新規,0,2022-07-05,2022-07-05,合同会社ＹＵＵ,,合同会社,宮崎県,東諸県郡国富町,大字塚原３７２番地７,,45,382,8801112,,,,,,,2022-07-05,1,,,,,ワイユーユー,0
1093,4360003012135,新規,0,2022-07-05,2022-07-05,合同会社城建設,,合同会社,沖縄県,糸満市,字南波平６０番地１,,47,210,9010343,,,,,,,2022-07-05,1,,,,,シロケンセツ,0
1094,4360005006688,新規,0,2022-07-05,2022-07-05,税理士法人たいよう会計事務所,,その他の設立登記法人,沖縄県,浦添市,当山２丁目２８番１号メゾン太陽２－Ａ,,47,208,9012104,,,,,,,2022-07-05,1,,,,,タイヨウカイケイジムショ,0
1095,4370001048758,新規,0,2022-07-05,2022-07-05,株式会社平和リサイクルセンター,,株式会社,宮城県,富谷市,富ケ丘２丁目３７番４号,,04,216,9813352,,,,,,,2022-07-05,1,,,,,ヘイワリサイクルセンター,0
1096,4370001048766,新規,0,2022-07-05,2022-07-05,株式会社エースオブエデュケーション,,株式会社,宮城県,仙台市若林区,上飯田３丁目１７－２６,,04,103,9840838,,,,,,,2022-07-05,1,,,,,エースオブエデュケーション,0
1112,4400003002957,新規,0,2022-07-05,2022-07-05,合同会社佐々木畜産,,合同会社,岩手県,岩手郡岩手町,大字黒内第２地割３０番地,,03,303,0284426,,,,,,,2022-07-05,1,,,,,ササキチクサン,0
1125,4430001086966,新規,0,2022-07-05,2022-07-05,ノース技研株式会社,,株式会社,北海道,札幌市東区,北二十三条東７丁目５番１８－１０３号,,01,103,0650023,,,,,,,2022-07-05,1,,,,,ノースギケン,0
1128,4460301005078,新規,0,2022-07-05,2022-07-05,相馬興業株式会社,,株式会社,北海道,紋別郡湧別町,中湧別南町７１９番地,,01,559,0996328,,,,,,,2022-07-05,1,,,,,ソウマコウギョウ,0
1131,4470001019138,新規,0,2022-07-05,2022-07-05,あかつき美装株式会社,,株式会社,香川県,高松市,香川町大野１４７５番地４,,37,201,7611701,,,,,,,2022-07-05,1,,,,,アカツキビソウ,0
1132,4470001019146,新規,0,2022-07-05,2022-07-05,株式会社武田農園,,株式会社,香川県,高松市,香南町由佐１６８８番地,,37,201,7611402,,,,,,,2022-07-05,1,,,,,タケダノウエン,0
1138,4500001024316,新規,0,2022-07-05,2022-07-05,トヨタカローラ愛媛ホールディングス株式会社,,株式会社,愛媛県,松山市,中央１丁目１６番５号,,38,201,7918015,,,,,,,2022-07-05,1,,,,,トヨタカローラエヒメホールディングス,0
1158,5010401168240,新規,0,2022-07-05,2022-07-05,株式会社ＣＬＡＮ,,株式会社,東京都,港区,三田１丁目４番２８号,,13,103,1080073,,,,,,,2022-07-05,1,,,,,クラン,0
1159,5010401168315,新規,0,2022-07-05,2022-07-05,ＡＥＳＰＥＲ　ＧＲＯＵＰ株式会社,,株式会社,東京都,港区,六本木７丁目１２番２号Ｒ７ビルディング,,13,103,1060032,,,,,,,2022-07-05,1,,,,,アエスパーグループ,0
1164,5010501049051,新規,0,2022-07-05,2022-07-05,タブノキ株式会社,,株式会社,東京都,台東区,寿１丁目１１番６号,,13,106,1110042,,,,,,,2022-07-05,1,,,,,タブノキ,0
1165,5010505003319,新規,0,2022-07-05,2022-07-05,一般社団法人全国社会保険協会,,その他の設立登記法人,東京都,台東区,上野７丁目１０番１２号安達ビル３階,,13,106,1100005,,,,,,,2022-07-05,1,,,,,ゼンコクシャカイホケンキョウカイ,0
1170,5010803004225,新規,0,2022-07-05,2022-07-05,Ｊ４合同会社,,合同会社,東京都,大田区,千鳥１丁目２３番１号,,13,111,1460083,,,,,,,2022-07-05,1,,,,,ジェイフォー,0
1171,5010901009258,新規,0,2022-07-05,2022-07-05,日精化学株式会社,,株式会社,東京都,世田谷区,深沢５丁目３２番１２号,,13,112,1580081,,,,,,,2022-07-05,1,,,,,ニッセイカガク,0
1172,5010901051152,新規,0,2022-07-05,2022-07-05,ロールモデル株式会社,,株式会社,東京都,世田谷区,南烏山６丁目２５番１１号セラグリオ烏山５０８,,13,112,1570062,,,,,,,2022-07-05,1,,,,,ロールモデル,0
1182,5011101099230,新規,0,2022-07-05,2022-07-05,株式会社Ａ‐Ｄｅｓｉｇｎ,,株式会社,東京都,新宿区,西新宿３丁目３番１３号西新宿水間ビル６階,,13,104,1600023,,,,,,,2022-07-05,1,,,,,エーデザイン,0
1183,5011101099412,新規,0,2022-07-05,2022-07-05,株式会社プラントゥ,,株式会社,東京都,新宿区,西新宿８丁目１１番１０号星野ビル３階,,13,104,1600023,,,,,,,2022-07-05,1,,,,,プラントゥ,0
1185,5011103011928,新規,0,2022-07-05,2022-07-05,合同会社グローアップ,,合同会社,東京都,新宿区,四谷３丁目１１番,,13,104,1600004,,,,,,,2022-07-05,1,,,,,グローアップ,0
1190,5011401024375,新規,0,2022-07-05,2022-07-05,ＰｗＤパートナーズ株式会社,,株式会社,東京都,板橋区,赤塚２丁目１番１２号,,13,119,1750092,,,,,,,2022-07-05,1,,,,,ピーダブリューディーパートナーズ,0
1195,5011701025429,新規,0,2022-07-05,2022-07-05,ＴＫＮ機工株式会社,,株式会社,東京都,江戸川区,春江町３丁目１０番４号,,13,123,1320003,,,,,,,2022-07-05,1,,,,,ティーケーエヌキコウ,0
1201,5012403005462,新規,0,2022-07-05,2022-07-05,合同会社チャント,,合同会社,東京都,武蔵野市,関前５丁目１２番４号,,13,203,1800014,,,,,,,2022-07-05,1,,,,,チャント,0
1202,5012701017127,新規,0,2022-07-05,2022-07-05,株式会社ＡＲＴ　ＲＯＣＫ　ＷＯＯＤ,,株式会社,東京都,小平市,小川町１丁目８２７番地の２クレールメゾンＣ２０３号,,13,211,1870032,,,,,,,2022-07-05,1,,,,,アートロックウッド,0
1203,5012701017135,新規,0,2022-07-05,2022-07-05,株式会社ピュアフィールド,,株式会社,東京都,清瀬市,下宿３丁目１４２４番地１５,,13,221,2040001,,,,,,,2022-07-05,1,,,,,ピュアフィールド,0
1212,5013301049337,新規,0,2022-07-05,2022-07-05,ＴＡＭＵＹＡ株式会社,,株式会社,東京都,豊島区,池袋２丁目７１番９号エクセルコート１０４号室,,13,116,1710014,,,,,,,2022-07-05,1,,,,,タムヤ,0
1215,5020001147206,新規,0,2022-07-05,2022-07-05,株式会社Ｏｃｔａｇｒａｍ,,株式会社,神奈川県,横浜市西区,北幸１丁目１１番１号水信ビル７階,,14,103,2200004,,,,,,,2022-07-05,1,,,,,オクタグラム,0
1216,5020003022035,新規,0,2022-07-05,2022-07-05,合同会社ＮＥＸＴ　ＰＨＡＳＥ,,合同会社,神奈川県,川崎市高津区,二子３丁目２７－６ベルシオンＭ２,,14,134,2130002,,,,,,,2022-07-05,1,,,,,ネクストフェーズ,0
1217,5020003022051,新規,0,2022-07-05,2022-07-05,合同会社Ｇｏｕｖｅｒｎｅ,,合同会社,神奈川県,横浜市鶴見区,平安町２丁目１９番地の１パークサイド平安３１２号,,14,101,2300031,,,,,,,2022-07-05,1,,,,,グーベンヌ,0
1233,5040001124112,新規,0,2022-07-05,2022-07-05,ブルーサポ株式会社,,株式会社,千葉県,千葉市中央区,稲荷町１丁目１２番２１号,,12,101,2600833,,,,,,,2022-07-05,1,,,,,ブルーサポ,0
1238,5050001051322,新規,0,2022-07-05,2022-07-05,株式会社マーチタイガー,,株式会社,茨城県,取手市,椚木１７２番地,,08,217,3001511,,,,,,,2022-07-05,1,,,,,マーチタイガー,0
1241,5080001025050,新規,0,2022-07-05,2022-07-05,株式会社受増,,株式会社,静岡県,牧之原市,相良２３３番地３浜砂ビル１０４号室,,22,226,4210522,,,,,,,2022-07-05,1,,,,,ジュゾウ,0
1244,5080101023400,新規,0,2022-07-05,2022-07-05,株式会社富士シノワ,,株式会社,静岡県,裾野市,深良２３４０番地の１,,22,220,4101102,,,,,,,2022-07-05,1,,,,,フジシノワ,0
1247,5080401025930,新規,0,2022-07-05,2022-07-05,株式会社Ｄｒｅａｍｅｒ,,株式会社,静岡県,浜松市東区,有玉台４丁目７番７号,,22,132,4313126,,,,,,,2022-07-05,1,,,,,ドリーマー,0
1251,5100003006599,新規,0,2022-07-05,2022-07-05,松本市求人情報合同会社,,合同会社,長野県,松本市,大字島立８３０番地１１,,20,202,3900852,,,,,,,2022-07-05,1,,,,,マツモトシキュウジンジョウホウ,0
1253,5110001036787,新規,0,2022-07-05,2022-07-05,株式会社Ｋ,,株式会社,新潟県,新潟市秋葉区,新津本町１丁目８番１１号,,15,105,9560864,,,,,,,2022-07-05,1,,,,,ケイ,0
1254,5110001036795,新規,0,2022-07-05,2022-07-05,株式会社ＭＯＮＪＩ　ＦＡＲＭ,,株式会社,新潟県,新潟市西区,山崎１０６３番地,,15,107,9502256,,,,,,,2022-07-05,1,,,,,モンジファーム,0
1255,5110001036804,新規,0,2022-07-05,2022-07-05,株式会社やよい,,株式会社,新潟県,村上市,山居町１丁目５番３６号,,15,212,9580853,,,,,,,2022-07-05,1,,,,,ヤヨイ,0
1258,5110005016827,新規,0,2022-07-05,2022-07-05,一般社団法人地域創生プラットフォームＳＤＧｓにいがた,,その他の設立登記法人,新潟県,新潟市中央区,万代３丁目１番１号,,15,103,9500088,,,,,,,2022-07-05,1,,,,,チイキソウセイプラットフォームエスディージーズニイガタ,0
1268,5120001247136,新規,0,2022-07-05,2022-07-05,株式会社Ｄｅｌｉｇｈｔ,,株式会社,大阪府,枚方市,香里園山之手町３７番１９号,,27,210,5730087,,,,,,,2022-07-05,1,,,,,ディライト,0
1269,5120001247160,新規,0,2022-07-05,2022-07-05,株式会社Ｎｅｗ　Ｃｒｅａｔｅ　Ｇｒｏｕｐ,,株式会社,大阪府,大阪市北区,南森町１丁目３番２７号南森町丸井ビル７Ｆ,,27,127,5300054,,,,,,,2022-07-05,1,,,,,ニュークリエイトグループ,0
1278,5120101065834,新規,0,2022-07-05,2022-07-05,株式会社ＴＫＤ,,株式会社,大阪府,堺市西区,浜寺元町３丁２８８番地６,,27,144,5928343,,,,,,,2022-07-05,1,,,,,ティーケーディー,0
1279,5120901046182,新規,0,2022-07-05,2022-07-05,株式会社ＳＰＩＣＡ　ＡＵＴＯ,,株式会社,大阪府,箕面市,彩都粟生北７丁目３番２３号,,27,220,5620029,,,,,,,2022-07-05,1,,,,,スピカオート,0
1290,5130001072112,新規,0,2022-07-05,2022-07-05,Ｏｍｎｉｐｒｅｓｅｎｔ　Ｃｏｎｓｕｌｔｉｎｇ　Ｊａｐａｎ株式会社,,株式会社,京都府,京都市下京区,四条通室町東入函谷鉾町１０１アーバンネット四条烏丸ビル６階・７階,,26,106,6008009,,,,,,,2022-07-05,1,,,,,オムニプレゼントコンサルティングジャパン,0
1291,5130001072137,新規,0,2022-07-05,2022-07-05,株式会社Ｆｌｅｕｒ,,株式会社,京都府,京都市伏見区,深草僧坊町７１番地,,26,109,6120877,,,,,,,2022-07-05,1,,,,,フルール,0
1302,5150001025662,新規,0,2022-07-05,2022-07-05,株式会社鰻真,,株式会社,奈良県,橿原市,醍醐町２６３－１,,29,205,6340072,,,,,,,2022-07-05,1,,,,,ウナシン,0
1303,5160001024333,新規,0,2022-07-05,2022-07-05,株式会社ＡＧＥＬＥＳＳ,,株式会社,滋賀県,大津市,皇子が丘１丁目１１番２８号,,25,201,5200025,,,,,,,2022-07-05,1,,,,,エイジレス,0
1313,5180001151992,新規,0,2022-07-05,2022-07-05,ＰＬＵＳ　ＡＩＲ株式会社,,株式会社,愛知県,名古屋市緑区,桶狭間南６４１番地,,23,114,4580927,,,,,,,2022-07-05,1,,,,,プラスエア,0
1314,5180002011155,新規,0,2022-07-05,2022-07-05,有限会社カネ勝食品,,有限会社,愛知県,名古屋市北区,平手町１丁目５番地,,23,103,4620057,,,,,,,2022-07-05,1,,,,,カネカツショクヒン,0
1317,5200005013360,新規,0,2022-07-05,2022-07-05,一般財団法人飛騨山脈ジオパーク推進協会,,その他の設立登記法人,岐阜県,高山市,奥飛騨温泉郷村上１６８９番地３,,21,203,5061431,,,,,,,2022-07-05,1,,,,,ヒダサンミャクジオパークスイシンキョウカイ,0
1321,5220001024938,新規,0,2022-07-05,2022-07-05,株式会社プラスファクトリー,,株式会社,石川県,河北郡内灘町,白帆台２丁目６１番地,,17,365,9200269,,,,,,,2022-07-05,1,,,,,プラスファクトリー,0
1328,5240001060031,新規,0,2022-07-05,2022-07-05,株式会社ＨＡＮＤ,,株式会社,広島県,広島市東区,戸坂くるめ木１丁目１７番３１号,,34,102,7320008,,,,,,,2022-07-05,1,,,,,ハンド,0
1329,5240001060048,新規,0,2022-07-05,2022-07-05,リファインド株式会社,,株式会社,広島県,東広島市,八本松南７丁目１２番７号,,34,212,7390144,,,,,,,2022-07-05,1,,,,,リファインド,0
1335,5260003003969,新規,0,2022-07-05,2022-07-05,小谷工業合同会社,,合同会社,岡山県,新見市,大佐田治部２３９９番地１,,33,210,7193506,,,,,,,2022-07-05,1,,,,,オダニコウギョウ,0
1341,5290001098125,新規,0,2022-07-05,2022-07-05,株式会社ＮＯＤＡ,,株式会社,福岡県,福岡市博多区,博多駅南２丁目１１－１７－５０１,,40,132,8120016,,,,,,,2022-07-05,1,,,,,ノダ,0
1342,5290001098166,新規,0,2022-07-05,2022-07-05,株式会社ネクストライン,,株式会社,福岡県,うきは市,浮羽町東隈上３４２番地２,,40,225,8391403,,,,,,,2022-07-05,1,,,,,ネクストライン,0
1344,5290801028685,新規,0,2022-07-05,2022-07-05,株式会社唯の月,,株式会社,福岡県,遠賀郡遠賀町,大字鬼津１４３４番地の２５,,40,384,8114341,,,,,,,2022-07-05,1,,,,,ユイノツキ,0
1345,5290801028710,新規,0,2022-07-05,2022-07-05,株式会社早川技建,,株式会社,福岡県,中間市,大字下大隈１６０４番地２,,40,215,8090004,,,,,,,2022-07-05,1,,,,,ハヤカワギケン,0
1352,5310001017940,新規,0,2022-07-05,2022-07-05,株式会社伸栄,,株式会社,長崎県,佐世保市,黒髪町６１６番地４,,42,202,8571152,,,,,,,2022-07-05,1,,,,,シンエイ,0
1353,5320001019176,新規,0,2022-07-05,2022-07-05,株式会社倉掛堂,,株式会社,大分県,大分市,坂ノ市南１丁目１０番３号,,44,201,8700308,,,,,,,2022-07-05,1,,,,,クラカケドウ,0
1355,5330001029876,新規,0,2022-07-05,2022-07-05,ロココ株式会社,,株式会社,熊本県,熊本市中央区,花畑町１番１４号Ａ＆Ｍ・ＨＡＮＡＢＡＴＡ３０１号,,43,101,8600806,,,,,,,2022-07-05,1,,,,,ロココ,0
1356,5330001029892,新規,0,2022-07-05,2022-07-05,Ｙｏｏｓ株式会社,,株式会社,熊本県,菊池郡菊陽町,光の森５丁目１９番地５エクセラン光の森３０５号,,43,404,8691108,,,,,,,2022-07-05,1,,,,,ユーズ,0
1357,5330001029901,新規,0,2022-07-05,2022-07-05,株式会社Ｃｒｅａｔｉｖｅ　Ｄｅｓｉｇｎ　Ｏｆｆｉｃｅ　ｎｉｍａ,,株式会社,熊本県,熊本市東区,若葉６丁目３番５８号,,43,102,8612103,,,,,,,2022-07-05,1,,,,,クリエイティブデザインオフィスニマ,0
1358,5340001024851,新規,0,2022-07-05,2022-07-05,株式会社Ｂｏｎｈｅｕｒ,,株式会社,鹿児島県,鹿児島市,田上３丁目１８番５号,,46,201,8900034,,,,,,,2022-07-05,1,,,,,ボヌール,0
1359,5340001024868,新規,0,2022-07-05,2022-07-05,株式会社ＴＡＫ,,株式会社,鹿児島県,鹿児島市,武岡４丁目２０番１号,,46,201,8900031,,,,,,,2022-07-05,1,,,,,タック,0
1362,5350001017838,新規,0,2022-07-05,2022-07-05,株式会社野別養鶏場,,株式会社,宮崎県,日向市,東郷町山陰乙３１７９番地１,,45,206,8830101,,,,,,,2022-07-05,1,,,,,ノベツヨウケイジョウ,0
1363,5350001017846,新規,0,2022-07-05,2022-07-05,グリーンナッジ株式会社,,株式会社,宮崎県,日向市,原町４丁目５－１１,,45,206,8830014,,,,,,,2022-07-05,1,,,,,グリーンナッジ,0
1364,5350003004116,新規,0,2022-07-05,2022-07-05,合同会社プラスデバイス,,合同会社,宮崎県,宮崎市,清水１丁目１４番２０号,,45,201,8800021,,,,,,,2022-07-05,1,,,,,プラスデバイス,0
1365,5360003012126,新規,0,2022-07-05,2022-07-05,アルテマウェポン合同会社,,合同会社,沖縄県,沖縄市,山内４丁目２０番１号フエタビル２階,,47,211,9040034,,,,,,,2022-07-05,1,,,,,アルテマウェポン,0
1366,5360003012150,新規,0,2022-07-05,2022-07-05,合同会社ｅｃｏ．プラン,,合同会社,沖縄県,那覇市,樋川２丁目６番１０号ロイヤルシャトレかみはら８０３号,,47,201,9000022,,,,,,,2022-07-05,1,,,,,エコプラン,0
1378,5390001016951,新規,0,2022-07-05,2022-07-05,株式会社八木橋久兵衛,,株式会社,山形県,尾花沢市,大字銀山新畑４４８番地,,06,212,9994333,,,,,,,2022-07-05,1,,,,,ヤギハシキュウベイ,0
1379,5390003001976,新規,0,2022-07-05,2022-07-05,合同会社ＢＯＷＩＥ,,合同会社,山形県,酒田市,みずほ２丁目２０番５,,06,204,9980853,,,,,,,2022-07-05,1,,,,,ボウイ,0
1384,5420001017921,新規,0,2022-07-05,2022-07-05,株式会社美里建工,,株式会社,青森県,青森市,茶屋町４番１０号,,02,201,0300904,,,,,,,2022-07-05,1,,,,,ミサトケンコウ,0
1386,5430001086957,新規,0,2022-07-05,2022-07-05,株式会社新成建材,,株式会社,北海道,札幌市東区,東苗穂三条３丁目２番７４号,,01,103,0070803,,,,,,,2022-07-05,1,,,,,シンセイケンザイ,0
1391,5430003014073,新規,0,2022-07-05,2022-07-05,合同会社アクトシステム,,合同会社,北海道,札幌市北区,屯田九条８丁目１番７号,,01,102,0020859,,,,,,,2022-07-05,1,,,,,アクトシステム,0
1392,5430003014107,新規,0,2022-07-05,2022-07-05,合同会社Ｎｏｒｔｈ　Ｖｅｎｔｕｓ,,合同会社,北海道,札幌市北区,新琴似七条１６丁目５番２５号,,01,102,0010907,,,,,,,2022-07-05,1,,,,,ノースベンタス,0
1393,5440001009108,新規,0,2022-07-05,2022-07-05,株式会社シルクロード,,株式会社,北海道,函館市,末広町８番１１号,,01,202,0400053,,,,,,,2022-07-05,1,,,,,シルクロード,0
1396,5450001013736,新規,0,2022-07-05,2022-07-05,株式会社トラスト技建,,株式会社,北海道,旭川市,高砂台７丁目１０番４号,,01,204,0708061,,,,,,,2022-07-05,1,,,,,トラストギケン,0
1400,5450003002225,新規,0,2022-07-05,2022-07-05,合同会社Ｇｒａｎｄｅｕｒ,,合同会社,北海道,旭川市,宮下通１４丁目１４４１番地７ステラガーデン北彩都１階,,01,204,0700030,,,,,,,2022-07-05,1,,,,,グランドゥール,0
1407,5480001011778,新規,0,2022-07-05,2022-07-05,株式会社Ｆｒｕｉｔｓ　Ｌｉｆｅ,,株式会社,徳島県,徳島市,大松町上野神３６番地,,36,201,7708022,,,,,,,2022-07-05,1,,,,,フルーツライフ,0
1408,5490003001677,新規,0,2022-07-05,2022-07-05,合同会社弘光技建,,合同会社,高知県,南国市,稲生７３６番地２,,39,204,7830084,,,,,,,2022-07-05,1,,,,,ヒロミツギケン,0
1411,5500001024315,新規,0,2022-07-05,2022-07-05,土井田工業株式会社,,株式会社,愛媛県,西条市,北条１５６６番地１ＴＳＹハピネス１０１号,,38,206,7991354,,,,,,,2022-07-05,1,,,,,ドイダコウギョウ,0
1412,5500001024323,新規,0,2022-07-05,2022-07-05,株式会社Ｆｏｒｔｈ‐Ｍｉｒａｉ,,株式会社,愛媛県,松山市,山越４丁目２番７号,,38,201,7918013,,,,,,,2022-07-05,1,,,,,フォースミライ,0
1414,5700150110721,新規,0,2022-07-05,2022-07-05,北京世紀大亜科技有限公司,,外国会社等,東京都,台東区,千束３丁目２１－１２キーストビル４０５,,13,106,1110031,北京市通州区張家湾鎮南火＿村１０５号,00127094,,,,,2022-07-05,1,,,,,ペキンセイキダイアカギユウゲンコウシ,0
1422,6010001227759,新規,0,2022-07-05,2022-07-05,株式会社グレイトフルスタイル,,株式会社,東京都,中央区,東日本橋１丁目４番６－３０１号,,13,102,1030004,,,,,,,2022-07-05,1,,,,,グレイトフルスタイル,0
1429,6010401168363,新規,0,2022-07-05,2022-07-05,ＥＮＴＥＲ　ＢＲＡＩＮ株式会社,,株式会社,東京都,港区,赤坂４丁目１２－７ピア赤坂５０６,,13,103,1070052,,,,,,,2022-07-05,1,,,,,エンターブレイン,0
1435,6010501049050,新規,0,2022-07-05,2022-07-05,株式会社モンドビジュー,,株式会社,東京都,台東区,上野５丁目１３番４号,,13,106,1100005,,,,,,,2022-07-05,1,,,,,モンドビジュー,0
1436,6010501049059,新規,0,2022-07-05,2022-07-05,株式会社Ｓｍｉｌｅ　Ｄｉｎｉｎｇ,,株式会社,東京都,台東区,東上野３丁目２４番９号ＭＩＴＡビル５階,,13,106,1100015,,,,,,,2022-07-05,1,,,,,スマイルダイニング,0
1441,6010701042912,新規,0,2022-07-05,2022-07-05,セーフィーベンチャーズ株式会社,,株式会社,東京都,品川区,西五反田１丁目５番１号Ａ－ＰＬＡＣＥ五反田駅前,,13,109,1410031,,,,,,,2022-07-05,1,,,,,セーフィーベンチャーズ,0
1443,6010803004224,新規,0,2022-07-05,2022-07-05,Ｊ３合同会社,,合同会社,東京都,大田区,千鳥１丁目２３番１号,,13,111,1460083,,,,,,,2022-07-05,1,,,,,ジェイスリー,0
1444,6010901051151,新規,0,2022-07-05,2022-07-05,株式会社スマートビジョン,,株式会社,東京都,世田谷区,北沢５丁目２７番１６号ブリーズインザフォレスト２０２,,13,112,1550031,,,,,,,2022-07-05,1,,,,,スマートビジョン,0
1452,6011001148053,新規,0,2022-07-05,2022-07-05,株式会社ＰＥＲＳＯＮＡＬ　ＣＵＬＴＵＲＥ,,株式会社,東京都,渋谷区,本町４丁目４８－１３－２０１,,13,113,1510071,,,,,,,2022-07-05,1,,,,,パーソナルカルチャー,0
1461,6011101099403,新規,0,2022-07-05,2022-07-05,株式会社小柳右吏,00127090,株式会社,東京都,新宿区,市谷田町２丁目２１番地４,,13,104,1620843,,,,,,,2022-07-05,1,,,,,コヤナギユウリ,0
1462,6011101099428,新規,0,2022-07-05,2022-07-05,リンクテラス株式会社,,株式会社,東京都,新宿区,西新宿３丁目３番１３号,,13,104,1600023,,,,,,,2022-07-05,1,,,,,リンクテラス,0
1463,6011101099436,新規,0,2022-07-05,2022-07-05,Ｓｉｍ株式会社,,株式会社,東京都,新宿区,信濃町４番地,,13,104,1600016,,,,,,,2022-07-05,1,,,,,シム,0
1465,6011103011935,新規,0,2022-07-05,2022-07-05,聖光管財合同会社,,合同会社,東京都,新宿区,中落合１丁目１１番８号,,13,104,1610032,,,,,,,2022-07-05,1,,,,,セイコウカンザイ,0
1467,6011105010316,新規,0,2022-07-05,2022-07-05,一般社団法人日本呼吸筋トレーニング研究会,,その他の設立登記法人,東京都,新宿区,新宿６丁目１２番５号新宿松喜ビル,,13,104,1600022,,,,,,,2022-07-05,1,,,,,ニホンコキュウキントレーニングケンキュウカイ,0
1479,6011701025428,新規,0,2022-07-05,2022-07-05,ＨＹＣＫ株式会社,,株式会社,東京都,江戸川区,松江４丁目３０番１０号,,13,123,1320025,,,,,,,2022-07-05,1,,,,,エイチワイシーケー,0
1481,6012401039370,新規,0,2022-07-05,2022-07-05,株式会社Ｍｏｕｎｔａｉｎ　ｆｅａｔｕｒｅ,,株式会社,東京都,小金井市,本町５丁目１０番１８－２００号ラ・メゾンヴェール,,13,210,1840004,,,,,,,2022-07-05,1,,,,,マウンテンフィーチャー,0
1482,6012401039379,新規,0,2022-07-05,2022-07-05,リビルド株式会社,,株式会社,東京都,多摩市,関戸４丁目２７番７号パルフェホワイト２０１号室,,13,224,2060011,,,,,,,2022-07-05,1,,,,,リビルド,0
1483,6012403005437,新規,0,2022-07-05,2022-07-05,合同会社Ｇｒａｐｈ　Ｍａｒｋｅｔｉｎｇ　Ｌａｂ,,合同会社,東京都,多摩市,一ノ宮４丁目３４番地の２２,,13,224,2060002,,,,,,,2022-07-05,1,,,,,グラフマーケティングラボ,0
1496,6020001147171,新規,0,2022-07-05,2022-07-05,株式会社Ｃｈｒｏｒｏｓ,,株式会社,神奈川県,川崎市高津区,東野川１丁目１７－４,,14,134,2130029,,,,,,,2022-07-05,1,,,,,クロロス,0
1497,6020001147188,新規,0,2022-07-05,2022-07-05,株式会社ミサオプロモーション,,株式会社,神奈川県,横浜市南区,宮元町１丁目２３番地６第三東和ビル１Ｆ,,14,105,2320016,,,,,,,2022-07-05,1,,,,,ミサオプロモーション,0
1498,6020001147196,新規,0,2022-07-05,2022-07-05,株式会社ＮＳホールディングス,,株式会社,神奈川県,横浜市西区,浅間町１丁目２番６号ハイズヨコハマフェリーチェ２０２号,,14,103,2200072,,,,,,,2022-07-05,1,,,,,エヌエスホールディングス,0
1501,6020003022034,新規,0,2022-07-05,2022-07-05,Ｒｉｃｈｍｏｎｄ合同会社,,合同会社,神奈川県,川崎市宮前区,神木本町４丁目３番２８－１号,,14,136,2160031,,,,,,,2022-07-05,1,,,,,リッチモンド,0
1508,6021001076435,新規,0,2022-07-05,2022-07-05,株式会社ＷＡＴＯ,,株式会社,神奈川県,三浦郡葉山町,一色３７１番地の６,,14,301,2400111,,,,,,,2022-07-05,1,,,,,ワト,0
1513,6030001148937,新規,0,2022-07-05,2022-07-05,歓至インタラクティブ株式会社,,株式会社,埼玉県,さいたま市南区,神明１丁目１２番１２号コーポリラ１０１号室,,11,108,3360023,,,,,,,2022-07-05,1,,,,,カンイインタラクティブ,0
1525,6060001035042,新規,0,2022-07-05,2022-07-05,株式会社手塚郁夫りんご園,00127098,株式会社,栃木県,矢板市,長井９５２番地,,09,211,3292514,,,,,,,2022-07-05,1,,,,,テツカイクオリンゴエン,0
1526,6060001035050,新規,0,2022-07-05,2022-07-05,株式会社ケイ・リンク,,株式会社,栃木県,那須郡那珂川町,恩田３０５番地,,09,411,3240503,,,,,,,2022-07-05,1,,,,,ケイリンク,0
1527,6060003004128,新規,0,2022-07-05,2022-07-05,トムズコンサルティング合同会社,,合同会社,栃木県,宇都宮市,中今泉３丁目１５番３０号ナイスアーバン今泉ウイングスクエア１０２号室,,09,201,3210968,,,,,,,2022-07-05,1,,,,,トムズコンサルティング,0
1532,6080001025066,新規,0,2022-07-05,2022-07-05,株式会社ヤマダ,,株式会社,静岡県,静岡市清水区,北矢部町１丁目１番２３号,,22,103,4240937,,,,,,,2022-07-05,1,,,,,ヤマダ,0
1536,6100001035483,新規,0,2022-07-05,2022-07-05,株式会社くま館,,株式会社,長野県,北佐久郡軽井沢町,大字長倉４０１５番地１,,20,321,3890111,,,,,,,2022-07-05,1,,,,,クマダテ,0
1539,6100003006598,新規,0,2022-07-05,2022-07-05,松本市転職合同会社,,合同会社,長野県,松本市,大字島立８３０番地１１,,20,202,3900852,,,,,,,2022-07-05,1,,,,,マツモトシテンショク,0
1544,6110001036778,新規,0,2022-07-05,2022-07-05,株式会社エムティー,,株式会社,新潟県,柏崎市,新赤坂４丁目４番１３号,,15,205,9450845,,,,,,,2022-07-05,1,,,,,エムティー,0
1545,6110001036786,新規,0,2022-07-05,2022-07-05,株式会社シーオーマスター,,株式会社,新潟県,新潟市西区,東青山２丁目８番地２,,15,107,9502003,,,,,,,2022-07-05,1,,,,,シーオーマスター,0
1546,6110001036794,新規,0,2022-07-05,2022-07-05,株式会社ＦＫコーポレイション,,株式会社,新潟県,佐渡市,河原田諏訪町９０番地２,,15,224,9521315,,,,,,,2022-07-05,1,,,,,エフケイコーポレイション,0
1562,6120001247110,新規,0,2022-07-05,2022-07-05,ＳＨＯＷＡ　ＡＵＴＯ　ＨＯＬＤＩＮＧＳ株式会社,,株式会社,大阪府,大阪市西区,立売堀３丁目１番１号,,27,106,5500012,,,,,,,2022-07-05,1,,,,,ショウワオートホールディングス,0
1563,6120001247127,新規,0,2022-07-05,2022-07-05,株式会社ｓｔａｒｔｅｒ,,株式会社,大阪府,大阪市北区,大淀南２丁目２番４３,,27,127,5310075,,,,,,,2022-07-05,1,,,,,スターター,0
1564,6120001247135,新規,0,2022-07-05,2022-07-05,イープロダクト株式会社,,株式会社,大阪府,大阪市北区,本庄西２丁目１２番１６号,,27,127,5310073,,,,,,,2022-07-05,1,,,,,イープロダクト,0
1565,6120001247218,新規,0,2022-07-05,2022-07-05,吉安株式会社,,株式会社,大阪府,大阪市西成区,花園南１丁目１１番１８号２０１号室,,27,122,5570015,,,,,,,2022-07-05,1,,,,,,0
1570,6120003022008,新規,0,2022-07-05,2022-07-05,日碩合同会社,,合同会社,大阪府,大阪市住之江区,東加賀屋３丁目８番３号,,27,125,5590012,,,,,,,2022-07-05,1,,,,,ニチセキ,0
1574,6120101065825,新規,0,2022-07-05,2022-07-05,株式会社ｔａｇ,,株式会社,大阪府,貝塚市,王子８２８番地６４,,27,208,5970051,,,,,,,2022-07-05,1,,,,,タッグ,0
1575,6120101065858,新規,0,2022-07-05,2022-07-05,株式会社オネストエンジニア,,株式会社,大阪府,堺市西区,上５４９番地１７,,27,144,5938311,,,,,,,2022-07-05,1,,,,,オネストエンジニア,0
1579,6120903004212,新規,0,2022-07-05,2022-07-05,合同会社水花,,合同会社,大阪府,高槻市,塚原１丁目３番６号,,27,207,5691046,,,,,,,2022-07-05,1,,,,,スイカ,0
1587,6160001024332,新規,0,2022-07-05,2022-07-05,株式会社甲西モータース,,株式会社,滋賀県,湖南市,下田１４４９番地１０,,25,211,5203201,,,,,,,2022-07-05,1,,,,,コウセイモータース,0
1588,6160001024340,新規,0,2022-07-05,2022-07-05,株式会社樹生工業,,株式会社,滋賀県,長浜市,口分田町４００番地３１,,25,203,5260014,,,,,,,2022-07-05,1,,,,,イツキコウギョウ,0
1595,6180001151991,新規,0,2022-07-05,2022-07-05,株式会社Ｂｅ　Ｋｉｎｄ,,株式会社,愛知県,名古屋市中区,平和２丁目４番１１号（ヤマトシャンポール５０３号）,,23,106,4600021,,,,,,,2022-07-05,1,,,,,ビィカインド,0
1599,6190001029576,新規,0,2022-07-05,2022-07-05,株式会社グッド・ガード,,株式会社,三重県,津市,河芸町東千里２６４番地１,,24,201,5100303,,,,,,,2022-07-05,1,,,,,グッドガード,0
1603,6220001024937,新規,0,2022-07-05,2022-07-05,株式会社シークレット,,株式会社,石川県,野々市市,藤平田２丁目１１３番地１,,17,212,9218832,,,,,,,2022-07-05,1,,,,,シークレット,0
1612,6240001060030,新規,0,2022-07-05,2022-07-05,中栄建設株式会社,,株式会社,広島県,安芸郡府中町,本町４丁目１１番２号,,34,302,7350006,,,,,,,2022-07-05,1,,,,,チュウエイケンセツ,0
1613,6240001060039,新規,0,2022-07-05,2022-07-05,株式会社シンセンス,,株式会社,広島県,広島市安佐南区,緑井２丁目２８番３１号,,34,105,7310103,,,,,,,2022-07-05,1,,,,,シンセンス,0
1627,6270001008571,新規,0,2022-07-05,2022-07-05,ＵＫ貿易株式会社,,株式会社,鳥取県,米子市,西福原４丁目７－６７,,31,202,6830805,,,,,,,2022-07-05,1,,,,,ユーケーボウエキ,0
1628,6280001008736,新規,0,2022-07-05,2022-07-05,Ｅネット・コム株式会社,,株式会社,島根県,松江市,上乃木４丁目３２番１号,,32,201,6900015,,,,,,,2022-07-05,1,,,,,,0
1633,6290001098124,新規,0,2022-07-05,2022-07-05,新田エンジ株式会社,,株式会社,福岡県,福岡市中央区,黒門８番１２号,,40,133,8100055,,,,,,,2022-07-05,1,,,,,ニッタエンジ,0
1634,6290001098165,新規,0,2022-07-05,2022-07-05,株式会社リテック,,株式会社,福岡県,福岡市南区,西長住１丁目１番４６号,,40,134,8111361,,,,,,,2022-07-05,1,,,,,リテック,0
1635,6290001098173,新規,0,2022-07-05,2022-07-05,株式会社ＥＲライフソリューションズ,,株式会社,福岡県,福岡市博多区,博多駅東２丁目５番１９号サンライフ第３ビル６Ｆ,,40,132,8120013,,,,,,,2022-07-05,1,,,,,イーアールライフソリューションズ,0
1637,6290003012693,新規,0,2022-07-05,2022-07-05,合同会社アグロテック,,合同会社,福岡県,福岡市中央区,那の津４丁目２番２２号,,40,133,8100071,,,,,,,2022-07-05,1,,,,,アグロテック,0
1641,6290801028684,新規,0,2022-07-05,2022-07-05,株式会社ＥＭＩ,,株式会社,福岡県,中間市,大字上底井野７３２番１,,40,215,8090003,,,,,,,2022-07-05,1,,,,,イーエムアイ,0
1642,6290801028692,新規,0,2022-07-05,2022-07-05,株式会社松浦工業,,株式会社,福岡県,遠賀郡遠賀町,浅木１丁目９番６号,,40,384,8114312,,,,,,,2022-07-05,1,,,,,マツウラコウギョウ,0
1643,6290801028701,新規,0,2022-07-05,2022-07-05,株式会社酒の筑後屋,,株式会社,福岡県,北九州市小倉北区,日明４丁目２番１号,,40,106,8030831,,,,,,,2022-07-05,1,,,,,サケノチクゴヤ,0
1644,6290803004155,新規,0,2022-07-05,2022-07-05,合同会社Ｎｏｚａａａ,,合同会社,福岡県,北九州市小倉北区,京町２丁目１番２２号,,40,106,8020002,,,,,,,2022-07-05,1,,,,,ノザー,0
1649,6330001029883,新規,0,2022-07-05,2022-07-05,株式会社ｂｅ．,,株式会社,熊本県,熊本市東区,戸島西４丁目２番５５号,,43,102,8618043,,,,,,,2022-07-05,1,,,,,ビードット,0
1650,6330001029891,新規,0,2022-07-05,2022-07-05,株式会社藤光建機,,株式会社,熊本県,上益城郡御船町,大字高木１９７０番地１,,43,441,8613203,,,,,,,2022-07-05,1,,,,,フジミツケンキ,0
1651,6340001024867,新規,0,2022-07-05,2022-07-05,株式会社芝電工,,株式会社,鹿児島県,鹿児島市,鴨池２丁目１１番１３号シャトー鴨池１０１号,,46,201,8900063,,,,,,,2022-07-05,1,,,,,シバデンコウ,0
1652,6340001024875,新規,0,2022-07-05,2022-07-05,株式会社林生花,,株式会社,鹿児島県,日置市,伊集院町下谷口１８２３番地,,46,216,8992501,,,,,,,2022-07-05,1,,,,,ハヤシセイカ,0
1653,6340001024883,新規,0,2022-07-05,2022-07-05,株式会社シュエット,,株式会社,鹿児島県,鹿児島市,中山町２５７６番地１,,46,201,8910105,,,,,,,2022-07-05,1,,,,,シュエット,0
1656,6340003003844,新規,0,2022-07-05,2022-07-05,ＹＭＲ合同会社,,合同会社,鹿児島県,鹿屋市,寿３丁目３番１１号,,46,203,8930014,,,,,,,2022-07-05,1,,,,,ワイエムアール,0
1659,6350003004115,新規,0,2022-07-05,2022-07-05,合同会社勝偉メンテナンス,,合同会社,宮崎県,日向市,東郷町山陰乙９７８番地５,,45,206,8830101,,,,,,,2022-07-05,1,,,,,カツイメンテナンス,0
1660,6370003005755,新規,0,2022-07-05,2022-07-05,合同会社Ｅａｓｙｇｏｉｎｇ,,合同会社,宮城県,仙台市青葉区,吉成１丁目２２番２３号,,04,101,9893205,,,,,,,2022-07-05,1,,,,,イージーゴーイング,0
1666,6400001015934,新規,0,2022-07-05,2022-07-05,株式会社長澤ホーム,,株式会社,岩手県,遠野市,青笹町中沢２１地割９０番地１,,03,208,0280502,,,,,,,2022-07-05,1,,,,,ナガサワホーム,0
1667,6400001015942,新規,0,2022-07-05,2022-07-05,株式会社南企画,,株式会社,岩手県,九戸郡洋野町,小子内第３地割４２番地２,,03,507,0287904,,,,,,,2022-07-05,1,,,,,,0
1677,6460001005715,新規,0,2022-07-05,2022-07-05,株式会社白糠精肉加工場,,株式会社,北海道,白糠郡白糠町,工業団地２丁目２番地５,,01,668,0880569,,,,,,,2022-07-05,1,,,,,シラヌカセイニクカコウジョウ,0
1682,6500001024306,新規,0,2022-07-05,2022-07-05,株式会社ドッと．タウン,,株式会社,愛媛県,松山市,朝生田町６丁目１番２３号,,38,201,7900952,,,,,,,2022-07-05,1,,,,,ドットタウン,0
1683,6500001024314,新規,0,2022-07-05,2022-07-05,アイシン株式会社,,株式会社,愛媛県,南宇和郡愛南町,城辺甲１９８４番地,,38,506,7984131,,,,,,,2022-07-05,1,,,,,アイシン,0
1684,6500001024322,新規,0,2022-07-05,2022-07-05,株式会社白石技建,,株式会社,愛媛県,新居浜市,阿島４丁目６番３２号,,38,205,7920896,,,,,,,2022-07-05,1,,,,,シライシギケン,0
1687,6700150110720,新規,0,2022-07-05,2022-07-05,杭州武減武文化創意有限公司,,外国会社等,東京都,台東区,千束３丁目２１－１２キートスビル４０２号,,13,106,1110031,浙江省杭州市拱墅区中花路３３号漢之＿商北中心１幢４１０室－Ｓ,00127093,,,,,2022-07-05,1,,,,,コウシユウブゲンブブンカソウイユウゲンコウシ,0
1688,6700150110737,新規,0,2022-07-05,2022-07-05,青島鼎欣包装有限公司,,外国会社等,京都府,京都市中京区,西ノ京笠殿町１２１－１,,26,104,6048482,中華人民共和国山東省青島市即墨区青威路１６１６－１号,00126705,,,,,2022-07-05,1,,,,,チンダオデインシンバオジユウアンヨウシイエンゴンスー,0
1695,7010001227758,新規,0,2022-07-05,2022-07-05,株式会社ジェイイーエム,,株式会社,東京都,中央区,東日本橋１丁目４番６－３０１号,,13,102,1030004,,,,,,,2022-07-05,1,,,,,ジェイイーエム,0
1696,7010001227799,新規,0,2022-07-05,2022-07-05,株式会社ＴＦビジネスサービス,,株式会社,東京都,千代田区,九段南３丁目３番４号,,13,101,1020074,,,,,,,2022-07-05,1,,,,,ティーエフビジネスサービス,0
1697,7010001227865,新規,0,2022-07-05,2022-07-05,ｉｎ株式会社,,株式会社,東京都,中央区,銀座７丁目１３番６号サガミビル２階,,13,102,1040061,,,,,,,2022-07-05,1,,,,,イン,0
1698,7010001227873,新規,0,2022-07-05,2022-07-05,デルタリスクコンサルティング株式会社,,株式会社,東京都,中央区,日本橋２丁目２番３号ＲＩＳＨＥビルＵＣＦ４階,,13,102,1030027,,,,,,,2022-07-05,1,,,,,デルタリスクコンサルティング,0
1699,7010001227907,新規,0,2022-07-05,2022-07-05,株式会社Ｐｒｅｃｉｏｕｓ　Ｍｅｄｉｃａｌ,,株式会社,東京都,千代田区,麹町６丁目６番１号,,13,101,1020083,,,,,,,2022-07-05,1,,,,,プレシャスメディカル,0
1713,7010401168296,新規,0,2022-07-05,2022-07-05,株式会社モネプランニング,,株式会社,東京都,港区,南麻布１丁目２４－１３プラチナコート南麻布２０２,,13,103,1060047,,,,,,,2022-07-05,1,,,,,モネプランニング,0
1714,7010401168354,新規,0,2022-07-05,2022-07-05,Ｉｎｄｅｅｄ　Ｔｅｃｈｎｏｌｏｇｉｅｓ　Ｊａｐａｎ株式会社,,株式会社,東京都,港区,芝浦３丁目１番２号ｍｓｂＴａｍａｃｈｉ田町ステーションタワーＳ,,13,103,1080023,,,,,,,2022-07-05,1,,,,,インディードテクノロジーズジャパン,0
1717,7010405021170,新規,0,2022-07-05,2022-07-05,Ｍｕｎａｋａｔａ特定目的会社,,その他の設立登記法人,東京都,港区,西新橋１丁目１番１号ＥＰコンサルティングサービス内,,13,103,1050003,,,,,,,2022-07-05,1,,,,,ムナカタ,0
1718,7010501049066,新規,0,2022-07-05,2022-07-05,久保利通商事株式会社,,株式会社,東京都,台東区,台東２丁目２７番３号ＮＳＫビル１０Ｆ,,13,106,1100016,,,,,,,2022-07-05,1,,,,,クボリツウショウジ,0
1719,7010503006643,新規,0,2022-07-05,2022-07-05,カラビンカ合同会社,,合同会社,東京都,台東区,竜泉１丁目２１番７号アクセス竜泉４０１,,13,106,1100012,,,,,,,2022-07-05,1,,,,,カラビンカ,0
1722,7010703006253,新規,0,2022-07-05,2022-07-05,Ｔｒａｎｓｍｅｅ合同会社,,合同会社,東京都,品川区,東五反田５丁目２－４ＡＸＡＳレジデンス目黒東１５０４,,13,109,1410022,,,,,,,2022-07-05,1,,,,,トランスミー,0
1725,7010803004223,新規,0,2022-07-05,2022-07-05,Ｊ２合同会社,,合同会社,東京都,大田区,千鳥１丁目２３番１号,,13,111,1460083,,,,,,,2022-07-05,1,,,,,ジェイツー,0
1728,7010901051175,新規,0,2022-07-05,2022-07-05,スウィネン工業株式会社,,株式会社,東京都,世田谷区,桜３丁目１４番２０－２０３号,,13,112,1560053,,,,,,,2022-07-05,1,,,,,スウィネンコウギョウ,0
1731,7011001148449,新規,0,2022-07-05,2022-07-05,株式会社ＵＮＩＴＥ,,株式会社,東京都,目黒区,中央町２丁目３５番１３号,,13,110,1520001,,,,,,,2022-07-05,1,,,,,ユナイト,0
1732,7011001148481,新規,0,2022-07-05,2022-07-05,株式会社テクロスホールディングス,,株式会社,東京都,渋谷区,渋谷２丁目１番１２号,,13,113,1500002,,,,,,,2022-07-05,1,,,,,テクロスホールディングス,0
1735,7011101099402,新規,0,2022-07-05,2022-07-05,株式会社２Ｌ,,株式会社,東京都,新宿区,西新宿３丁目３－１３西新宿水間ビル６階,,13,104,1600023,,,,,,,2022-07-05,1,,,,,ツーエル,0
1736,7011101099410,新規,0,2022-07-05,2022-07-05,株式会社Ｔ．Ｊ．Ｋｉｔｃｈｅｎ,,株式会社,東京都,新宿区,新宿７丁目１３番１５号,,13,104,1600022,,,,,,,2022-07-05,1,,,,,ティージェイキッチン,0
1738,7011103011918,新規,0,2022-07-05,2022-07-05,にょん合同会社,,合同会社,東京都,新宿区,百人町２丁目７番５号メゾン・フジタＢ号,,13,104,1690073,,,,,,,2022-07-05,1,,,,,ニョン,0
1739,7011203003815,新規,0,2022-07-05,2022-07-05,合同会社オーアンドワイ,,合同会社,東京都,中野区,中央２丁目３０番９－２２９号,,13,114,1640011,,,,,,,2022-07-05,1,,,,,オーアンドワイ,0
1746,7011601026079,新規,0,2022-07-05,2022-07-05,株式会社ＧＯＹＡ,,株式会社,東京都,練馬区,谷原１丁目２１番３５号,,13,120,1770032,,,,,,,2022-07-05,1,,,,,ゴーヤ,0
1748,7011701025427,新規,0,2022-07-05,2022-07-05,ライフスタイルワークス株式会社,,株式会社,東京都,江戸川区,一之江７丁目３２番１９号,,13,123,1320024,,,,,,,2022-07-05,1,,,,,ライフスタイルワークス,0
1749,7011701025435,新規,0,2022-07-05,2022-07-05,株式会社Ｒｅｈｅａｒｔ,,株式会社,東京都,江戸川区,東葛西１丁目５番２－８０６号,,13,123,1340084,,,,,,,2022-07-05,1,,,,,リハート,0
1753,7011801040945,新規,0,2022-07-05,2022-07-05,株式会社ｉｎａｄｏｇ,,株式会社,東京都,足立区,谷在家１丁目１２番３号浅香コーポ３０７,,13,121,1230863,,,,,,,2022-07-05,1,,,,,イナドッグ,0
1754,7011803005137,新規,0,2022-07-05,2022-07-05,合同会社笑徳,,合同会社,東京都,足立区,南花畑３丁目６番１－２０２号,,13,121,1210062,,,,,,,2022-07-05,1,,,,,ショウトク,0
1756,7012701017133,新規,0,2022-07-05,2022-07-05,Ｎスタイル株式会社,,株式会社,東京都,西東京市,中町４丁目９番１５号１階,,13,229,2020013,,,,,,,2022-07-05,1,,,,,エヌスタイル,0
1757,7012801021695,新規,0,2022-07-05,2022-07-05,株式会社ＩＴＡ,,株式会社,東京都,国分寺市,西恋ヶ窪１丁目４６番地７,,13,214,1850013,,,,,,,2022-07-05,1,,,,,アイティーエー,0
1758,7012803002826,新規,0,2022-07-05,2022-07-05,合同会社Ｌｏｔｕｓ　Ｗｏｒｋｓ,,合同会社,東京都,昭島市,宮沢町２丁目１４番４６号,,13,207,1960024,,,,,,,2022-07-05,1,,,,,ロータスワークス,0
1760,7013103001147,新規,0,2022-07-05,2022-07-05,耀ナイスサポート・ネクストワン合同会社,,合同会社,東京都,青梅市,友田町１丁目８５６番地の１ラナチュールＩ１０２,00127097,13,205,1980051,,,,,,,2022-07-05,1,,,,,カガヤキナイスサポートネクストワン,0
1762,7013301049327,新規,0,2022-07-05,2022-07-05,株式会社Ｋ２ＯＰＥＲＡＴＩＯＮ,,株式会社,東京都,豊島区,西池袋５丁目１８番１１号第３愛和ビル５階,,13,116,1710021,,,,,,,2022-07-05,1,,,,,ケーツーオペレーション,0
1765,7020001147170,新規,0,2022-07-05,2022-07-05,株式会社ｏｇｕｒｏ　ｃｏｒｐｏｒａｔｉｏｎ,,株式会社,神奈川県,川崎市高津区,下作延２丁目８番１９号,,14,134,2130033,,,,,,,2022-07-05,1,,,,,オグロコーポレーション,0
1766,7020001147195,新規,0,2022-07-05,2022-07-05,株式会社モトラ,,株式会社,神奈川県,川崎市高津区,坂戸１丁目１７番１６－４０３号,,14,134,2130012,,,,,,,2022-07-05,1,,,,,モトラ,0
1772,7020003022033,新規,0,2022-07-05,2022-07-05,ＲＩＣ合同会社,,合同会社,神奈川県,川崎市川崎区,中瀬３丁目２０番１５－２１９号,,14,131,2100818,,,,,,,2022-07-05,1,,,,,リック,0
1780,7021003011892,新規,0,2022-07-05,2022-07-05,合同会社ＭＹＳＳｏｌｕｔｉｏｎｓ,,合同会社,神奈川県,大和市,大和東２丁目１番１６号ザ・ピボットビル２０５,,14,213,2420017,,,,,,,2022-07-05,1,,,,,エムワイエスソリューションズ,0
1783,7030001149001,新規,0,2022-07-05,2022-07-05,株式会社シグマ,,株式会社,埼玉県,戸田市,大字新曽１７７番地の２リブリ・モンテーニュ２０１号室,,11,224,3350021,,,,,,,2022-07-05,1,,,,,シグマ,0
1784,7030001149083,新規,0,2022-07-05,2022-07-05,株式会社松岡設備,,株式会社,埼玉県,草加市,旭町５丁目２番３号,,11,221,3400053,,,,,,,2022-07-05,1,,,,,マツオカセツビ,0
1796,7040001124119,新規,0,2022-07-05,2022-07-05,ＷＡＣＡＲ株式会社,,株式会社,千葉県,八千代市,勝田５６２番地,,12,221,2760024,,,,,,,2022-07-05,1,,,,,ワカー,0
1799,7040003020365,新規,0,2022-07-05,2022-07-05,雅工業合同会社,,合同会社,千葉県,千葉市若葉区,加曽利町１５５５番地１１,,12,104,2640017,,,,,,,2022-07-05,1,,,,,ミヤビコウギョウ,0
1807,7080001025049,新規,0,2022-07-05,2022-07-05,株式会社ナグラリノム,,株式会社,静岡県,静岡市清水区,下野中２３番９号,,22,103,4240029,,,,,,,2022-07-05,1,,,,,ナグラリノム,0
1808,7080001025057,新規,0,2022-07-05,2022-07-05,株式会社鈴貴,,株式会社,静岡県,静岡市葵区,桜町２丁目３番２４－１号,,22,101,4200945,,,,,,,2022-07-05,1,,,,,スズタカ,0
1815,7100003006597,新規,0,2022-07-05,2022-07-05,長野県求人情報合同会社,,合同会社,長野県,長野市,中御所２丁目２４番地１１号,,20,201,3800935,,,,,,,2022-07-05,1,,,,,ナガノケンキュウジンジョウホウ,0
1816,7110001036777,新規,0,2022-07-05,2022-07-05,株式会社Ｐｒｏ‐ｓｔｅｐ,,株式会社,新潟県,新潟市北区,太田甲５６９５番地１,,15,101,9503313,,,,,,,2022-07-05,1,,,,,プロステップ,0
1817,7110001036802,新規,0,2022-07-05,2022-07-05,株式会社ＣＳ住まいるサポート,,株式会社,新潟県,新潟市東区,東中野山２丁目１９番２号,,15,102,9500836,,,,,,,2022-07-05,1,,,,,シーエススマイルサポート,0
1818,7110003004807,新規,0,2022-07-05,2022-07-05,共栄エステート合同会社,,合同会社,新潟県,長岡市,宮原２丁目５番１４号カーサ向日葵１０１号室,,15,202,9400083,,,,,,,2022-07-05,1,,,,,キョウエイエステート,0
1829,7120003022007,新規,0,2022-07-05,2022-07-05,未来合同会社,,合同会社,大阪府,大阪市生野区,巽北１丁目１９－２２シャトー晃正１０６,00127092,27,116,5440004,,,,,,,2022-07-05,1,,,,,ミライ,0
1833,7122003002368,新規,0,2022-07-05,2022-07-05,ＫＨ　ＧＬＯＢＡＬ合同会社,,合同会社,大阪府,東大阪市,菱屋西５丁目１２番２８号コーポ陣内Ｉ２０２号,,27,227,5770807,,,,,,,2022-07-05,1,,,,,ケーエイチグローバル,0
1847,7160001024323,新規,0,2022-07-05,2022-07-05,株式会社兵栄商会,,株式会社,滋賀県,近江八幡市,中小森町７３４番地５,,25,204,5230041,,,,,,,2022-07-05,1,,,,,ヒョウウエイショウカイ,0
1859,7180003023998,新規,0,2022-07-05,2022-07-05,合同会社藤が丘ｍａｎａｇｅｍｅｎｔ　ＷＯＲＫ,,合同会社,愛知県,名古屋市名東区,藤見が丘６番地セントラルスクエア３０１号,,23,115,4650048,,,,,,,2022-07-05,1,,,,,フジガオカマネジメントワーク,0
1860,7180003024006,新規,0,2022-07-05,2022-07-05,合同会社幸遙商事,,合同会社,愛知県,清須市,西枇杷島町片町５６番地ビワハイツナカネ４０３,,23,233,4520024,,,,,,,2022-07-05,1,,,,,コウヨウショウジ,0
1861,7180301036413,新規,0,2022-07-05,2022-07-05,株式会社ＦＯＣＵＳ‐ＬＩＮＥ,,株式会社,愛知県,豊田市,小川町３丁目４１番地１１,,23,211,4710857,,,,,,,2022-07-05,1,,,,,フォーカスライン,0
1862,7190001029559,新規,0,2022-07-05,2022-07-05,ウィーブホールディングス株式会社,,株式会社,三重県,伊勢市,御薗町長屋２０６２番地２,,24,203,5160804,,,,,,,2022-07-05,1,,,,,ウィーブホールディングス,0
1863,7190001029567,新規,0,2022-07-05,2022-07-05,株式会社Ｓ．ｆｉｅｌｄ,,株式会社,三重県,松阪市,曽原町３２９番地３,,24,204,5152112,,,,,,,2022-07-05,1,,,,,エスフィールド,0
1880,7260001037018,新規,0,2022-07-05,2022-07-05,株式会社ＩＩＳ,,株式会社,岡山県,岡山市北区,東古松３丁目４番２１号,,33,101,7000921,,,,,,,2022-07-05,1,,,,,イイス,0
1884,7290001098115,新規,0,2022-07-05,2022-07-05,株式会社フェイズワン,,株式会社,福岡県,福岡市中央区,薬院４丁目１１番１１－３０４号,,40,133,8100022,,,,,,,2022-07-05,1,,,,,フェイズワン,0
1885,7290001098123,新規,0,2022-07-05,2022-07-05,一建株式会社,,株式会社,福岡県,飯塚市,伊川８２番地７３県住９棟２０４号,,40,205,8200054,,,,,,,2022-07-05,1,,,,,イチケン,0
1886,7290001098131,新規,0,2022-07-05,2022-07-05,株式会社サンライト,,株式会社,福岡県,福岡市中央区,今泉２丁目４番１３号,,40,133,8100021,,,,,,,2022-07-05,1,,,,,サンライト,0
1887,7290001098172,新規,0,2022-07-05,2022-07-05,インフィニティトライアングル株式会社,,株式会社,福岡県,福岡市博多区,吉塚４丁目１番５－２０８号,,40,132,8120041,,,,,,,2022-07-05,1,,,,,インフィニティトライアングル,0
1888,7290001098180,新規,0,2022-07-05,2022-07-05,ＴＮＫｖｉｓｉｏｎ株式会社,,株式会社,福岡県,嘉麻市,平６５４番地５,,40,227,8200203,,,,,,,2022-07-05,1,,,,,ティーエヌケービジョン,0
1890,7290003012684,新規,0,2022-07-05,2022-07-05,合同会社Ｔｏｍａｔｌ,,合同会社,福岡県,福岡市西区,姪浜駅南４丁目２０番９号,,40,135,8190006,,,,,,,2022-07-05,1,,,,,トマトル,0
1892,7290801028683,新規,0,2022-07-05,2022-07-05,株式会社ＦＲＥＥＬＹ,,株式会社,福岡県,北九州市小倉南区,朽網東４丁目１２番３８号,,40,107,8000232,,,,,,,2022-07-05,1,,,,,フリーリー,0
1893,7290801028691,新規,0,2022-07-05,2022-07-05,株式会社ＲＥ,,株式会社,福岡県,北九州市小倉北区,浅野３丁目８番１号ＡＩＭビル６階,,40,106,8020001,,,,,,,2022-07-05,1,,,,,アールイー,0
1899,7320003003845,新規,0,2022-07-05,2022-07-05,合同会社日輪商店,,合同会社,大分県,由布市,庄内町西１０２２番地１,,44,213,8795436,,,,,,,2022-07-05,1,,,,,ニチリンショウテン,0
1900,7330001029890,新規,0,2022-07-05,2022-07-05,株式会社Ｄ‐ファイン,,株式会社,熊本県,上益城郡益城町,大字福原８２番地１,,43,443,8612211,,,,,,,2022-07-05,1,,,,,ディーファイン,0
1906,7340001024874,新規,0,2022-07-05,2022-07-05,ＫＡＷＡＳＥＭＩ株式会社,,株式会社,鹿児島県,鹿屋市,川東町８３３０番地３,,46,203,8930031,,,,,,,2022-07-05,1,,,,,カワセミ,0
1910,7350001017836,新規,0,2022-07-05,2022-07-05,株式会社富永内装,,株式会社,宮崎県,宮崎市,村角町吉十２８６１番地３,,45,201,8800837,,,,,,,2022-07-05,1,,,,,トミナガナイソウ,0
1912,7350003004114,新規,0,2022-07-05,2022-07-05,合同会社ひえじま,,合同会社,宮崎県,児湯郡新富町,大字新田１１５５２番地５,,45,402,8891406,,,,,,,2022-07-05,1,,,,,ヒエジマ,0
1913,7360001030623,新規,0,2022-07-05,2022-07-05,株式会社興進工業,,株式会社,沖縄県,宮古島市,平良字西里１６４６番地１１,,47,214,9060012,,,,,,,2022-07-05,1,,,,,コウシンコウギョウ,0
1914,7360005006685,新規,0,2022-07-05,2022-07-05,一般社団法人琉球先祖崇拝研究会,,その他の設立登記法人,沖縄県,宜野湾市,我如古１丁目５４番２５号,,47,205,9012214,,,,,,,2022-07-05,1,,,,,リュウキュウセンゾスウハイケンキュウカイ,0
1917,7370001048763,新規,0,2022-07-05,2022-07-05,ライナスフォース株式会社,,株式会社,宮城県,仙台市宮城野区,新田５丁目９番１２号,,04,102,9830038,,,,,,,2022-07-05,1,,,,,ライナスフォース,0
1929,7400001015933,新規,0,2022-07-05,2022-07-05,株式会社宇津宮果樹園,,株式会社,岩手県,花巻市,石鳥谷町滝田第１７地割９番地,,03,205,0283122,,,,,,,2022-07-05,1,,,,,ウツノミヤカジュエン,0
1935,7430001086955,新規,0,2022-07-05,2022-07-05,株式会社良良,,株式会社,北海道,札幌市北区,篠路六条１丁目４番１２号,,01,102,0028026,,,,,,,2022-07-05,1,,,,,ヨシヨシ,0
1938,7450001013734,新規,0,2022-07-05,2022-07-05,株式会社ネクシード,,株式会社,北海道,旭川市,末広東一条４丁目４番１０号,,01,204,0718121,,,,,,,2022-07-05,1,,,,,ネクシード,0
1941,7460303000768,新規,0,2022-07-05,2022-07-05,ＨＫアグリサービス合同会社,,合同会社,北海道,常呂郡訓子府町,字北栄４１－２,,01,549,0991422,,,,,,,2022-07-05,1,,,,,エイチケイアグリサービス,0
1942,7462501000938,新規,0,2022-07-05,2022-07-05,株式会社北村牧場,,株式会社,北海道,野付郡別海町,本別４５番地の１０,,01,691,0882602,,,,,,,2022-07-05,1,,,,,キタムラボクジョウ,0
1946,7480001011784,新規,0,2022-07-05,2022-07-05,株式会社丸福,,株式会社,徳島県,徳島市,大松町榎原外８３番地の１７,,36,201,7708022,,,,,,,2022-07-05,1,,,,,マルフク,0
1962,8010001227781,新規,0,2022-07-05,2022-07-05,株式会社ＣＩＮＤＹ’Ｓ　ＷＯＲＬＤ　ＪＡＰＡＮ,,株式会社,東京都,中央区,銀座１丁目２２番１１号銀座大竹ビジデンス２階,,13,102,1040061,,,,,,,2022-07-05,1,,,,,シンディーズワールドジャパン,0
1963,8010001227815,新規,0,2022-07-05,2022-07-05,Ｋ　Ｐｉｃｔｕｒｅｓ株式会社,,株式会社,東京都,千代田区,一番町２９番地１番町ハウス,,13,101,1020082,,,,,,,2022-07-05,1,,,,,ケーピクチャーズ,0
1964,8010001227823,新規,0,2022-07-05,2022-07-05,株式会社ＭＯＯＮ　ＤＩＯＳ,,株式会社,東京都,千代田区,平河町２丁目５番５号,,13,101,1020093,,,,,,,2022-07-05,1,,,,,ムーンディオス,0
1965,8010001227872,新規,0,2022-07-05,2022-07-05,Ｏｎｍｉ株式会社,,株式会社,東京都,中央区,東日本橋２丁目２８番４号日本橋ＣＥＴビル２階,,13,102,1030004,,,,,,,2022-07-05,1,,,,,オンミ,0
1973,8010401168329,新規,0,2022-07-05,2022-07-05,株式会社うるのや,,株式会社,東京都,港区,西新橋１丁目１４番８号３Ｆ,,13,103,1050003,,,,,,,2022-07-05,1,,,,,ウルノヤ,0
1976,8010501049065,新規,0,2022-07-05,2022-07-05,Ｓｗｅｅｔ　Ｃｏｍｐａｓｓ株式会社,,株式会社,東京都,台東区,上野６丁目１番６号,,13,106,1100005,,,,,,,2022-07-05,1,,,,,スィートコンパス,0
1979,8010701042910,新規,0,2022-07-05,2022-07-05,株式会社ＪＣソリューションズ,,株式会社,東京都,品川区,東五反田１丁目１０番７号ＡＩＯＳ五反田ビル,,13,109,1410022,,,,,,,2022-07-05,1,,,,,ジェイシーソリューションズ,0
1980,8010703006293,新規,0,2022-07-05,2022-07-05,Ｃｒｉａｒ合同会社,,合同会社,東京都,品川区,旗の台４丁目５番１５号,,13,109,1420064,,,,,,,2022-07-05,1,,,,,クリアール,0
1982,8010801033090,新規,0,2022-07-05,2022-07-05,株式会社エニシアゴム,,株式会社,東京都,大田区,本羽田３丁目１３番１４号,,13,111,1440044,,,,,,,2022-07-05,1,,,,,エニシアゴム,0
1983,8010803004222,新規,0,2022-07-05,2022-07-05,Ｊ１合同会社,,合同会社,東京都,大田区,千鳥１丁目２３番１号,,13,111,1460083,,,,,,,2022-07-05,1,,,,,ジェイワン,0
1991,8011101099401,新規,0,2022-07-05,2022-07-05,サイバーテンプル株式会社,,株式会社,東京都,新宿区,新宿１丁目１番１４号,,13,104,1600022,,,,,,,2022-07-05,1,,,,,サイバーテンプル,0
1992,8011101099459,新規,0,2022-07-05,2022-07-05,株式会社フラグアウト,,株式会社,東京都,新宿区,四谷４丁目１番地細井ビル２階,,13,104,1600004,,,,,,,2022-07-05,1,,,,,フラグアウト,0
1994,8011301027822,新規,0,2022-07-05,2022-07-05,株式会社ビープリ,,株式会社,東京都,杉並区,下高井戸２丁目１－９ＢＰＲレジデンス下高井戸６０２,,13,115,1680073,,,,,,,2022-07-05,1,,,,,ビープリ,0
1995,8011301027905,新規,0,2022-07-05,2022-07-05,Ｃｒｅａ株式会社,,株式会社,東京都,杉並区,和田３丁目１４番１５号サンパーク和田１Ｆ,,13,115,1660012,,,,,,,2022-07-05,1,,,,,クレア,0
2002,8011801040952,新規,0,2022-07-05,2022-07-05,株式会社クラフティス,,株式会社,東京都,葛飾区,亀有３丁目１９番５号,,13,122,1250061,,,,,,,2022-07-05,1,,,,,クラフティス,0
2003,8012401039360,新規,0,2022-07-05,2022-07-05,株式会社さんぽ道,,株式会社,東京都,武蔵野市,境南町２丁目２８番２５－３０７号藤和シティコープ武蔵境ＩＩ,00127096,13,203,1800023,,,,,,,2022-07-05,1,,,,,サンポミチ,0
2005,8012403005468,新規,0,2022-07-05,2022-07-05,合同会社ニアミント,,合同会社,東京都,小金井市,梶野町１丁目２番地３６号,,13,210,1840002,,,,,,,2022-07-05,1,,,,,ニアミント,0
2007,8012703002487,新規,0,2022-07-05,2022-07-05,Ｕ．Ｓ．Ｃ．合同会社,,合同会社,東京都,東久留米市,滝山３丁目１０番１１号,,13,222,2030033,,,,,,,2022-07-05,1,,,,,ユーエスシー,0
2008,8012803002825,新規,0,2022-07-05,2022-07-05,合同会社Ｈ‐Ｃｕｂｅｄ,,合同会社,東京都,立川市,柏町４丁目４４番地の２１,,13,202,1900004,,,,,,,2022-07-05,1,,,,,エイチキューブ,0
2010,8013103001146,新規,0,2022-07-05,2022-07-05,Ｋｏｊｉｍａ合同会社,,合同会社,東京都,あきる野市,横沢２５－９,,13,228,1900141,,,,,,,2022-07-05,1,,,,,コジマ,0
2016,8020001147194,新規,0,2022-07-05,2022-07-05,株式会社トラスト・エス,,株式会社,神奈川県,横浜市金沢区,六浦東３丁目７番２０号,,14,108,2360037,,,,,,,2022-07-05,1,,,,,トラストエス,0
2025,8021003011891,新規,0,2022-07-05,2022-07-05,合同会社ＡＫＡＲＩ,,合同会社,神奈川県,藤沢市,高倉１００４番地の７,,14,205,2520802,,,,,,,2022-07-05,1,,,,,アカリ,0
2039,8040001124084,新規,0,2022-07-05,2022-07-05,大華商事株式会社,,株式会社,千葉県,市川市,欠真間２丁目２０番１２－１０１,,12,203,2720142,,,,,,,2022-07-05,1,,,,,ダイカショウジ,0
2044,8050001051311,新規,0,2022-07-05,2022-07-05,たっつー株式会社,,株式会社,茨城県,常総市,杉山１１８０番地１１４,,08,211,3002744,,,,,,,2022-07-05,1,,,,,タッツー,0
2050,8080001025056,新規,0,2022-07-05,2022-07-05,クレアシステム株式会社,,株式会社,静岡県,藤枝市,北方２２７番地の４８,,22,214,4260212,,,,,,,2022-07-05,1,,,,,クレアシステム,0
2051,8080001025064,新規,0,2022-07-05,2022-07-05,株式会社ＨＯＴＳＴＹＬＥ柴田工務店,,株式会社,静岡県,焼津市,小川４０７６番地の３,,22,212,4250033,,,,,,,2022-07-05,1,,,,,ホットスタイルシバタコウムテン,0
2055,8080101023406,新規,0,2022-07-05,2022-07-05,株式会社井口造園,,株式会社,静岡県,沼津市,大岡３５５９番地の６１,,22,203,4100022,,,,,,,2022-07-05,1,,,,,イグチゾウエン,0
2057,8090001017655,新規,0,2022-07-05,2022-07-05,株式会社Ｒａｙｆｌｅｃｔ,,株式会社,山梨県,甲府市,山宮町１２３８番地７,,19,201,4000075,,,,,,,2022-07-05,1,,,,,,0
2065,8100003006596,新規,0,2022-07-05,2022-07-05,長野県転職合同会社,,合同会社,長野県,長野市,中御所２丁目２４番地１１号,,20,201,3800935,,,,,,,2022-07-05,1,,,,,ナガノケンテンショク,0
2066,8100003006605,新規,0,2022-07-05,2022-07-05,合同会社チビラはぱん,,合同会社,長野県,長野市,大字金箱１３０６番地１ディアコート金箱Ａ１０２号,,20,201,3810007,,,,,,,2022-07-05,1,,,,,チビラハパン,0
2078,8120001247100,新規,0,2022-07-05,2022-07-05,株式会社ＬＩＮＫ,,株式会社,大阪府,大阪市旭区,生江１丁目５番２５号,,27,117,5350004,,,,,,,2022-07-05,1,,,,,リンク,0
2084,8120101065856,新規,0,2022-07-05,2022-07-05,株式会社修成,,株式会社,大阪府,岸和田市,極楽寺町９４１番地の１サンライズマンション東岸和田２０４号,,27,202,5960832,,,,,,,2022-07-05,1,,,,,シュウセイ,0
2089,8120901046188,新規,0,2022-07-05,2022-07-05,大喜建設株式会社,,株式会社,大阪府,摂津市,鳥飼和道２丁目８番１１号,,27,224,5660073,,,,,,,2022-07-05,1,,,,,ダイキケンセツ,0
2090,8120901046196,新規,0,2022-07-05,2022-07-05,株式会社光工業,,株式会社,大阪府,吹田市,藤が丘町３９－１４,,27,205,5640081,,,,,,,2022-07-05,1,,,,,ヒカリコウギョウ,0
2091,8120901046205,新規,0,2022-07-05,2022-07-05,株式会社Ｔｒａｎｓｆｏｒｍ,,株式会社,大阪府,豊中市,庄内西町４丁目３番２６号,,27,203,5610832,,,,,,,2022-07-05,1,,,,,トランスフォーム,0
2092,8120901046213,新規,0,2022-07-05,2022-07-05,ＳＳＨ株式会社,,株式会社,大阪府,茨木市,彩都やまぶき４丁目８番４０号,,27,211,5670086,,,,,,,2022-07-05,1,,,,,エスエスエイチ,0
2093,8120903004210,新規,0,2022-07-05,2022-07-05,ｐｕｐｉｌ合同会社,,合同会社,大阪府,吹田市,千里山西５丁目４６番５号（３Ｅ）,,27,205,5650851,,,,,,,2022-07-05,1,,,,,ピューピル,0
2103,8130001072084,新規,0,2022-07-05,2022-07-05,尚和株式会社,,株式会社,京都府,京都市右京区,嵯峨鳥居本化野町１２－１０７,,26,108,6168436,,,,,,,2022-07-05,1,,,,,ショウワ,0
2104,8130001072159,新規,0,2022-07-05,2022-07-05,イマイ塗装株式会社,,株式会社,京都府,京都市山科区,小野御所ノ内町１番地２８６,,26,110,6078255,,,,,,,2022-07-05,1,,,,,イマイトソウ,0
2108,8160001024347,新規,0,2022-07-05,2022-07-05,株式会社アイシン,,株式会社,滋賀県,栗東市,下鈎４４６番地,,25,208,5203026,,,,,,,2022-07-05,1,,,,,アイシン,0
2109,8160003002615,新規,0,2022-07-05,2022-07-05,合同会社スタジオつくし,,合同会社,滋賀県,大津市,御殿浜１３－２３,,25,201,5200834,,,,,,,2022-07-05,1,,,,,スタジオツクシ,0
2123,8180301036387,新規,0,2022-07-05,2022-07-05,ＴＹコミュニケーション株式会社,,株式会社,愛知県,安城市,上条町浮橋７番地１１,,23,212,4460023,,,,,,,2022-07-05,1,,,,,ティーワイコミュニケーション,0
2125,8180303005357,新規,0,2022-07-05,2022-07-05,合同会社Ｂｉｒｄｉｅ,,合同会社,愛知県,碧南市,坂口町１丁目５,,23,209,4470087,,,,,,,2022-07-05,1,,,,,バーディー,0
2126,8180303005381,新規,0,2022-07-05,2022-07-05,合同会社かんだ動物病院,,合同会社,愛知県,蒲郡市,形原町北双太山２０番地,,23,214,4430104,,,,,,,2022-07-05,1,,,,,カンダドウブツビョウイン,0
2127,8190001029558,新規,0,2022-07-05,2022-07-05,Ｗ．Ｍ．ＭＯＴＯＲＳ株式会社,,株式会社,三重県,鈴鹿市,竹野２丁目１－１８ＧＲＡＴＯＳＵＺＵＫＡ２０３,,24,207,5130025,,,,,,,2022-07-05,1,,,,,ダブリューエムモータース,0
2136,8220001024927,新規,0,2022-07-05,2022-07-05,株式会社はじめ会計社,,株式会社,石川県,金沢市,泉野町４丁目１１番２０号,,17,201,9218034,,,,,,,2022-07-05,1,,,,,ハジメカイケイシャ,0
2140,8240001060004,新規,0,2022-07-05,2022-07-05,株式会社シン建設,,株式会社,広島県,呉市,広古新開２丁目１４番３－７０５号,,34,202,7370112,,,,,,,2022-07-05,1,,,,,シンケンセツ,0
2141,8240001060020,新規,0,2022-07-05,2022-07-05,株式会社アキテック,,株式会社,広島県,広島市中区,西白島町１８番１７号,,34,101,7300005,,,,,,,2022-07-05,1,,,,,アキテック,0
2142,8240001060029,新規,0,2022-07-05,2022-07-05,株式会社府中建材センター,,株式会社,広島県,府中市,中須町１１５６番地,,34,208,7260012,,,,,,,2022-07-05,1,,,,,フチュウケンザイセンター,0
2143,8240001060037,新規,0,2022-07-05,2022-07-05,株式会社手島製作所,,株式会社,広島県,広島市安佐南区,上安４丁目３７番１１‐２号,,34,105,7310154,,,,,,,2022-07-05,1,,,,,テシマセイサクショ,0
2144,8240001060045,新規,0,2022-07-05,2022-07-05,株式会社共創,,株式会社,広島県,広島市中区,十日市町２丁目１番２５号,,34,101,7300805,,,,,,,2022-07-05,1,,,,,キョウソウ,0
2148,8250005008758,新規,0,2022-07-05,2022-07-05,一般社団法人ひとｔｏペット,,その他の設立登記法人,山口県,下関市,長府金屋町６番２号,,35,201,7520959,,,,,,,2022-07-05,1,,,,,ヒトトペット,0
2150,8260001037000,新規,0,2022-07-05,2022-07-05,難波工業株式会社,,株式会社,岡山県,倉敷市,連島中央５丁目１２番２５号Ａ－２０２,,33,202,7128014,,,,,,,2022-07-05,1,,,,,ナンバコウギョウ,0
2160,8290001098171,新規,0,2022-07-05,2022-07-05,株式会社サンキホールディングス,,株式会社,福岡県,糟屋郡新宮町,上府北２丁目１４番２号,,40,345,8110123,,,,,,,2022-07-05,1,,,,,サンキホールディングス,0
2163,8290003012709,新規,0,2022-07-05,2022-07-05,合同会社Ｗｅｂクリエイト,,合同会社,福岡県,福岡市西区,姪の浜３丁目１１番３８－１０１号,,40,135,8190002,,,,,,,2022-07-05,1,,,,,ウェブクリエイト,0
2165,8290801028682,新規,0,2022-07-05,2022-07-05,株式会社チグサマキ,,株式会社,福岡県,北九州市八幡東区,河内３丁目３番３０号,,40,108,8050045,,,,,,,2022-07-05,1,,,,,チグサマキ,0
2166,8290801028690,新規,0,2022-07-05,2022-07-05,株式会社Ｄ．Ｍ．Ｃ,,株式会社,福岡県,北九州市小倉南区,朽網西２丁目２７番３号,,40,107,8000233,,,,,,,2022-07-05,1,,,,,ディーエムシー,0
2167,8290801028708,新規,0,2022-07-05,2022-07-05,株式会社緒方設備,,株式会社,福岡県,鞍手郡小竹町,大字新多３２４番地４,,40,401,8201104,,,,,,,2022-07-05,1,,,,,オガタセツビ,0
2171,8320003003844,新規,0,2022-07-05,2022-07-05,合同会社ソレイユＫ＆Ｋ,,合同会社,大分県,別府市,大字北石垣９２０番地の４４,,44,202,8740000,,,,,,,2022-07-05,1,,,,,ソレイユケイアンドケイ,0
2172,8330001029898,新規,0,2022-07-05,2022-07-05,株式会社山吹,,株式会社,熊本県,熊本市東区,花立３丁目３３番３号,,43,102,8612118,,,,,,,2022-07-05,1,,,,,ヤマブキ,0
2175,8340001024857,新規,0,2022-07-05,2022-07-05,株式会社ＩＮＡホールディングス,,株式会社,鹿児島県,鹿児島市,西別府町２９４１番地４４,,46,201,8900033,,,,,,,2022-07-05,1,,,,,イナホールディングス,0
2176,8340001024881,新規,0,2022-07-05,2022-07-05,Ｈｉ　ｃｏｎｎｅｘｉｏｎ株式会社,,株式会社,鹿児島県,日置市,伊集院町大田１２６４番地１,,46,216,8992521,,,,,,,2022-07-05,1,,,,,ハイコネクション,0
2180,8350001017843,新規,0,2022-07-05,2022-07-05,丈春株式会社,,株式会社,宮崎県,宮崎市,大淀４丁目３番２４号,,45,201,8800902,,,,,,,2022-07-05,1,,,,,タケハル,0
2183,8360003012131,新規,0,2022-07-05,2022-07-05,合同会社ダブルアールインベストメント,,合同会社,沖縄県,浦添市,城間４丁目３６番１０－１２０２号ゼファー浦添学園通り,,47,208,9012133,,,,,,,2022-07-05,1,,,,,ダブルアールインベストメント,0
2187,8370001048746,新規,0,2022-07-05,2022-07-05,株式会社スカイヒル,,株式会社,宮城県,仙台市宮城野区,中野１丁目４番地の９－１０６,,04,102,9830013,,,,,,,2022-07-05,1,,,,,スカイヒル,0
2188,8370001048754,新規,0,2022-07-05,2022-07-05,株式会社伸工業,,株式会社,宮城県,東松島市,大塩字緑ケ丘三丁目１８番地１１,,04,214,9810505,,,,,,,2022-07-05,1,,,,,シンコウギョウ,0
2189,8370003005753,新規,0,2022-07-05,2022-07-05,合同会社梶原工業,,合同会社,宮城県,仙台市若林区,遠見塚１丁目６番３４号,,04,103,9840823,,,,,,,2022-07-05,1,,,,,カジワラコウギョウ,0
2191,8380001032939,新規,0,2022-07-05,2022-07-05,株式会社オリタカ,,株式会社,福島県,東白川郡塙町,大字上渋井字寄居１３０番地４,,07,483,9635406,,,,,,,2022-07-05,1,,,,,オリタカ,0
2202,8420001017869,新規,0,2022-07-05,2022-07-05,株式会社みかみファーム,,株式会社,青森県,弘前市,大字狼森字天王３１番地２,,02,202,0368132,,,,,,,2022-07-05,1,,,,,ミカミファーム,0
2206,8430001086962,新規,0,2022-07-05,2022-07-05,株式会社フェイバリト,,株式会社,北海道,札幌市北区,新川五条３丁目３番５１号,,01,102,0010925,,,,,,,2022-07-05,1,,,,,フェイバリト,0
2207,8430001086970,新規,0,2022-07-05,2022-07-05,株式会社マルエフ・フジ建装工業,,株式会社,北海道,札幌市西区,発寒十条１丁目２番５－２０８号,,01,107,0630830,,,,,,,2022-07-05,1,,,,,マルエフフジケンソウコウギョウ,0
2208,8430001086987,新規,0,2022-07-05,2022-07-05,株式会社ＯＳ開発,,株式会社,北海道,虻田郡ニセコ町,字ニセコ４１４番地１７,,01,395,0481511,,,,,,,2022-07-05,1,,,,,オーエスカイハツ,0
2210,8430003014070,新規,0,2022-07-05,2022-07-05,合同会社クローバーワークス,,合同会社,北海道,札幌市東区,北二十二条東１５丁目４番１１－５０７号,,01,103,0650022,,,,,,,2022-07-05,1,,,,,クローバーワークス,0
2212,8460001005713,新規,0,2022-07-05,2022-07-05,株式会社ＷｉｎＷｉｎＣｏｍｐａｎｙ,,株式会社,北海道,釧路市,昭和町２丁目４番１９号レジデンス昭和Ａ号室,,01,206,0840903,,,,,,,2022-07-05,1,,,,,ウィンウィンカンパニー,0
2214,8480001011783,新規,0,2022-07-05,2022-07-05,株式会社ＨＡＣＨＩＫＥＮ,,株式会社,徳島県,徳島市,八万町柿谷５６番地,,36,201,7708070,,,,,,,2022-07-05,1,,,,,ハチケン,0
2216,8500001024304,新規,0,2022-07-05,2022-07-05,株式会社尚成総業,,株式会社,愛媛県,伊予郡砥部町,宮内８０４番地９,,38,402,7912120,,,,,,,2022-07-05,1,,,,,ショウセイソウギョウ,0
2217,8500001024320,新規,0,2022-07-05,2022-07-05,株式会社カリビト,,株式会社,愛媛県,松山市,二番町２丁目５番地７,,38,201,7900002,,,,,,,2022-07-05,1,,,,,カリビト,0
2219,8700150110719,新規,0,2022-07-05,2022-07-05,ｎｉｎｇｂｏｃｈｕａｎｇｓｈｉｘｉｎｍｉｎｇｍａｏｙｉｙｏｕｘｉａｎｇｏｎｇｓｉ,,外国会社等,,,,,,,,ｚｈｅｊｉａｎｇｎｉｎｇｂｏｙｉｎｚｈｏｕｑｕｊｉａｎｇｎａｎｌｕ５９８ｈａｏ１１－２８　ｎｉｎｇｂｏ　ｚｈｅｊｉａｎｇ　Ｃｈｉｎａ,,,,,,2022-07-05,1,,,,,ネイハソウセイシンメイボウエキユウゲンコウシ,0
2227,9010001227806,新規,0,2022-07-05,2022-07-05,株式会社プロアクション,,株式会社,東京都,中央区,銀座３丁目４－１大倉別館５階,,13,102,1040061,,,,,,,2022-07-05,1,,,,,プロアクション,0
2228,9010001227822,新規,0,2022-07-05,2022-07-05,里星株式会社,,株式会社,東京都,中央区,銀座２丁目１２番１２号,,13,102,1040061,,,,,,,2022-07-05,1,,,,,サトボシ,0
2229,9010001227863,新規,0,2022-07-05,2022-07-05,株式会社ティーアップ,,株式会社,東京都,文京区,本駒込１丁目２０番１３－１００３号,,13,105,1130021,,,,,,,2022-07-05,1,,,,,ティーアップ,0
2230,9010001227896,新規,0,2022-07-05,2022-07-05,株式会社本郷スタートアップス,,株式会社,東京都,文京区,本郷１丁目３０番２７－２０５号,,13,105,1130033,,,,,,,2022-07-05,1,,,,,ホンゴウスタートアップス,0
2236,9010401168328,新規,0,2022-07-05,2022-07-05,株式会社渡邉企画,,株式会社,東京都,港区,南青山５丁目４番５１号５０１号室,,13,103,1070062,,,,,,,2022-07-05,1,,,,,ワタナベキカク,0
2237,9010405021144,新規,0,2022-07-05,2022-07-05,一般財団法人松浦芸術文化財団,,その他の設立登記法人,東京都,港区,虎ノ門１丁目２３番１号虎ノ門ヒルズ森タワー８階,,13,103,1050001,,,,,,,2022-07-05,1,,,,,マツウラゲイジュツブンカザイダン,0
2238,9010405021169,新規,0,2022-07-05,2022-07-05,Ｏｇａｓａｗａｒａ特定目的会社,,その他の設立登記法人,東京都,港区,西新橋１丁目１番１号ＥＰコンサルティングサービス内,,13,103,1050003,,,,,,,2022-07-05,1,,,,,オガサワラ,0
2239,9010501049056,新規,0,2022-07-05,2022-07-05,正和株式会社,,株式会社,東京都,台東区,上野６丁目８番２２号,,13,106,1100005,,,,,,,2022-07-05,1,,,,,セイワ,0
2241,9010701042884,新規,0,2022-07-05,2022-07-05,華創株式会社,,株式会社,東京都,品川区,西五反田２丁目１１番１５－６０３室,,13,109,1410031,,,,,,,2022-07-05,1,,,,,カソウ,0
2247,9011001148364,新規,0,2022-07-05,2022-07-05,株式会社ＦＡＮＴＡＳ,,株式会社,東京都,渋谷区,神南１丁目１１－３ポータルポイント渋谷,,13,113,1500041,,,,,,,2022-07-05,1,,,,,ファンタス,0
2248,9011001148471,新規,0,2022-07-05,2022-07-05,株式会社ＣｍｄＣｔｒｌＰｗｒ,,株式会社,東京都,渋谷区,東１丁目２番３－６０２号,,13,113,1500011,,,,,,,2022-07-05,1,,,,,コマンドコントロールパワー,0
2276,9012701017131,新規,0,2022-07-05,2022-07-05,株式会社デフィネス,,株式会社,東京都,東村山市,青葉町２丁目１０番地５７,,13,213,1890002,,,,,,,2022-07-05,1,,,,,デフィネス,0
2277,9012801021693,新規,0,2022-07-05,2022-07-05,株式会社久星,,株式会社,東京都,国分寺市,本多５丁目１９番２１号,,13,214,1850011,,,,,,,2022-07-05,1,,,,,キュウボシ,0
2280,9020001147160,新規,0,2022-07-05,2022-07-05,株式会社山十,,株式会社,神奈川県,川崎市川崎区,駅前本町１１番地２川崎フロンティアビル４階,,14,131,2100007,,,,,,,2022-07-05,1,,,,,ヤマジュウ,0
2281,9020001147185,新規,0,2022-07-05,2022-07-05,長畑工務店株式会社,,株式会社,神奈川県,横浜市戸塚区,平戸町３６２番地フラワーハイツ平戸Ａ－２０１号,,14,110,2440803,,,,,,,2022-07-05,1,,,,,ナガハタコウムテン,0
2282,9020001147202,新規,0,2022-07-05,2022-07-05,株式会社イグネ,,株式会社,神奈川県,横浜市鶴見区,鶴見中央４丁目２４番１２号,,14,101,2300051,,,,,,,2022-07-05,1,,,,,イグネ,0
2290,9021001076408,新規,0,2022-07-05,2022-07-05,株式会社ケイプランニング,,株式会社,神奈川県,相模原市南区,磯部１２０１番地２７,,14,153,2520327,,,,,,,2022-07-05,1,,,,,ケイプランニング,0
2291,9021001076424,新規,0,2022-07-05,2022-07-05,株式会社高橋設計建築事務所,,株式会社,神奈川県,相模原市南区,上鶴間２丁目８番４０号,,14,153,2520302,,,,,,,2022-07-05,1,,,,,タカハシセッケイケンチクジムショ,0
2292,9021001076440,新規,0,2022-07-05,2022-07-05,株式会社Ｎｏｒｉｓｕ,,株式会社,神奈川県,海老名市,扇町１４番２,,14,215,2430436,,,,,,,2022-07-05,1,,,,,,0
2304,9040001124091,新規,0,2022-07-05,2022-07-05,株式会社ｌｉｎｋ‐ｕｐ,,株式会社,千葉県,八街市,東吉田６１９番地７５,,12,230,2891114,,,,,,,2022-07-05,1,,,,,リンクアップ,0
2309,9060001035031,新規,0,2022-07-05,2022-07-05,株式会社ピートスピード,,株式会社,栃木県,小山市,駅南町４丁目１８番２号,,09,208,3230822,,,,,,,2022-07-05,1,,,,,ピートスピード,0
2310,9060001035056,新規,0,2022-07-05,2022-07-05,株式会社ＹＨワークストア,,株式会社,栃木県,下都賀郡壬生町,至宝３丁目９番２５号,,09,361,3210217,,,,,,,2022-07-05,1,,,,,ワイエイチワークストア,0
2317,9080003002829,新規,0,2022-07-05,2022-07-05,合同会社あいりすケアプラン,,合同会社,静岡県,静岡市駿河区,高松１丁目２６番２５号,,22,102,4228034,,,,,,,2022-07-05,1,,,,,アイリスケアプラン,0
2319,9080101023405,新規,0,2022-07-05,2022-07-05,株式会社ボンドコーポレーション,,株式会社,静岡県,伊豆の国市,中９７６番地の３３,,22,225,4102113,,,,,,,2022-07-05,1,,,,,ボンドコーポレーション,0
2322,9090001017654,新規,0,2022-07-05,2022-07-05,株式会社ＲＥＧＩＮＡ,,株式会社,山梨県,甲府市,上町２５番地,,19,201,4000831,,,,,,,2022-07-05,1,,,,,レジーナ,0
2335,9120001247149,新規,0,2022-07-05,2022-07-05,ＳＵＮホールディングス株式会社,,株式会社,大阪府,大阪市西区,南堀江３丁目２番１号プラザ１０内,,27,106,5500015,,,,,,,2022-07-05,1,,,,,サンホールディングス,0
2341,9120005023026,新規,0,2022-07-05,2022-07-05,監査法人つむぐ,,その他の設立登記法人,大阪府,大阪市中央区,徳井町１丁目４番３号,,27,128,5400025,,,,,,,2022-07-05,1,,,,,ツムグ,0
2345,9120101065855,新規,0,2022-07-05,2022-07-05,株式会社タイカン,,株式会社,大阪府,堺市堺区,砂道町１丁１５番３号,,27,141,5900002,,,,,,,2022-07-05,1,,,,,タイカン,0
2350,9120901046187,新規,0,2022-07-05,2022-07-05,株式会社ウルクス,,株式会社,大阪府,吹田市,岸部南２丁目１６番８号,,27,205,5640011,,,,,,,2022-07-05,1,,,,,ウルクス,0
2351,9120901046195,新規,0,2022-07-05,2022-07-05,株式会社ＲＹＭＳ,,株式会社,大阪府,豊中市,上野西１丁目９番２１号,,27,203,5600011,,,,,,,2022-07-05,1,,,,,アールワイエムエス,0
2352,9120901046204,新規,0,2022-07-05,2022-07-05,株式会社ＨＥＲＯ’ｓ,,株式会社,大阪府,高槻市,富田町５丁目２４番１５－２０５号,,27,207,5690814,,,,,,,2022-07-05,1,,,,,ヒーローズ,0
2354,9130001072125,新規,0,2022-07-05,2022-07-05,株式会社ウィンデージアライアンス,,株式会社,京都府,京都市上京区,大宮通一条上る下石橋町７２１番地シャーメゾン下石橋２０２,,26,102,6028225,,,,,,,2022-07-05,1,,,,,ウィンデージアライアンス,0
2355,9130003008028,新規,0,2022-07-05,2022-07-05,合同会社ＳａａｍＳｉｐ,,合同会社,京都府,京都市中京区,西ノ京内畑町１６－１７,,26,104,6048417,,,,,,,2022-07-05,1,,,,,サームシップ,0
2372,9170001017175,新規,0,2022-07-05,2022-07-05,株式会社タイシンサポート,,株式会社,和歌山県,橋本市,三石台１丁目３番地の９,,30,203,6480094,,,,,,,2022-07-05,1,,,,,タイシンサポート,0
2379,9180001151989,新規,0,2022-07-05,2022-07-05,株式会社ホーグス,,株式会社,愛知県,名古屋市中川区,かの里３丁目１１０番地フォーナインかの里１０７号,,23,110,4540957,,,,,,,2022-07-05,1,,,,,ホーグス,0
2385,9190001029565,新規,0,2022-07-05,2022-07-05,株式会社ＨＩＲＯＭＡＪＡ,,株式会社,三重県,津市,庄田町１９２７番地,,24,201,5141255,,,,,,,2022-07-05,1,,,,,ヒロマジャ,0
2396,9230001019438,新規,0,2022-07-05,2022-07-05,ＮＭＯパートナーズ株式会社,,株式会社,富山県,富山市,小島町６番７号,,16,201,9300022,,,,,,,2022-07-05,1,,,,,エヌエムオーパートナーズ,0
2397,9230003001880,新規,0,2022-07-05,2022-07-05,合同会社Ｈｕｍｍｉｎｇｂｉｒｄ,,合同会社,富山県,射水市,七美７９１番地,,16,211,9330252,,,,,,,2022-07-05,1,,,,,ハミングバード,0
2400,9240001060028,新規,0,2022-07-05,2022-07-05,株式会社ＮＯＲＩＳＡＤＡ,,株式会社,広島県,東広島市,高屋町宮領１６８番地,,34,212,7392103,,,,,,,2022-07-05,1,,,,,ノリサダ,0
2407,9240005015416,新規,0,2022-07-05,2022-07-05,一般社団法人パルク,,その他の設立登記法人,広島県,広島市南区,比治山町７番２７号,,34,103,7320817,,,,,,,2022-07-05,1,,,,,パルク,0
2412,9260001037008,新規,0,2022-07-05,2022-07-05,株式会社ジャパン・セイフティ,,株式会社,岡山県,岡山市南区,福成３丁目６番２２号,,33,104,7028022,,,,,,,2022-07-05,1,,,,,ジャパンセイフティ,0
2417,9290001098121,新規,0,2022-07-05,2022-07-05,太陽不動産株式会社,,株式会社,福岡県,福岡市博多区,博多駅東３丁目１番２９－９０４号,,40,132,8120013,,,,,,,2022-07-05,1,,,,,タイヨウフドウサン,0
2418,9290001098170,新規,0,2022-07-05,2022-07-05,株式会社ＯＮＥ　ＳＴＥＰ　ＵＰ,,株式会社,福岡県,福岡市博多区,榎田１丁目９番８－２０１号,,40,132,8120004,,,,,,,2022-07-05,1,,,,,ワンステップアップ,0
2420,9290801028707,新規,0,2022-07-05,2022-07-05,株式会社ＣｏｚｙＦａｒｍ,,株式会社,福岡県,田川市,大字弓削田３４５８番地１,,40,206,8260041,,,,,,,2022-07-05,1,,,,,コージィーファーム,0
2424,9310001017929,新規,0,2022-07-05,2022-07-05,株式会社Ｍｉｒａ　ｉｎｆａｎｚ,,株式会社,長崎県,大村市,古賀島町５２６番地３,,42,205,8560817,,,,,,,2022-07-05,1,,,,,ミラインファンツ,0
2425,9310001017937,新規,0,2022-07-05,2022-07-05,Ｍａｉｓｔｅｒ株式会社,,株式会社,長崎県,長崎市,旭町２７番１８号,,42,201,8528003,,,,,,,2022-07-05,1,,,,,マイスター,0
2427,9320001019189,新規,0,2022-07-05,2022-07-05,株式会社糸永製作所,,株式会社,大分県,国東市,武蔵町手野１０７１番地,,44,214,8730414,,,,,,,2022-07-05,1,,,,,イトナガセイサクショ,0
2432,9330001029914,新規,0,2022-07-05,2022-07-05,株式会社Ｎａｖｙｙ,,株式会社,熊本県,合志市,豊岡２０００番地２７６５,,43,216,8611115,,,,,,,2022-07-05,1,,,,,ネイビー,0
2440,9340001024864,新規,0,2022-07-05,2022-07-05,株式会社さくら,,株式会社,鹿児島県,日置市,伊集院町妙円寺３丁目５７番地４,,46,216,8992503,,,,,,,2022-07-05,1,,,,,サクラ,0
2444,9350001017826,新規,0,2022-07-05,2022-07-05,株式会社Ｍｕｓｕｂｉ,,株式会社,宮崎県,都城市,南横市町４０２０番地５,,45,202,8850092,,,,,,,2022-07-05,1,,,,,ムスビ,0
2452,9370005010503,新規,0,2022-07-05,2022-07-05,一般社団法人マジカル・ステップ,,その他の設立登記法人,宮城県,仙台市青葉区,桜ケ丘７丁目３４番３０号,,04,101,9810961,,,,,,,2022-07-05,1,,,,,マジカルステップ,0
2457,9380003005215,新規,0,2022-07-05,2022-07-05,合同会社Ｂｒｉｄｇｅ,,合同会社,福島県,耶麻郡西会津町,野沢字舘ノ下甲１２２番地,,07,405,9694406,,,,,,,2022-07-05,1,,,,,ブリッジ,0
2475,9430001086953,新規,0,2022-07-05,2022-07-05,株式会社ＥＸＥ,,株式会社,北海道,札幌市南区,藤野五条５丁目１１番８号,,01,106,0612285,,,,,,,2022-07-05,1,,,,,エグゼ,0
2476,9430001086961,新規,0,2022-07-05,2022-07-05,株式会社ＢｅＨｏｔ,,株式会社,北海道,札幌市中央区,南二条西３丁目１３番地４カタオカビル３Ｆ,,01,101,0600062,,,,,,,2022-07-05,1,,,,,ビーホット,0
2482,9430005014497,新規,0,2022-07-05,2022-07-05,一般社団法人アイスジュエル,,その他の設立登記法人,北海道,札幌市南区,藻岩下２丁目２番４６号,,01,106,0050040,,,,,,,2022-07-05,1,,,,,アイスジュエル,0
2483,9460001005712,新規,0,2022-07-05,2022-07-05,株式会社都,,株式会社,北海道,釧路市,桜ケ岡８丁目２番１５号,,01,206,0850805,,,,,,,2022-07-05,1,,,,,ミヤコ,0
2487,9500001024303,新規,0,2022-07-05,2022-07-05,株式会社大田建設,,株式会社,愛媛県,四国中央市,妻鳥町２５０７番地１１,,38,213,7990113,,,,,,,2022-07-05,1,,,,,オオタケンセツ,0
2488,9500001024311,新規,0,2022-07-05,2022-07-05,株式会社勝長尺,,株式会社,愛媛県,新居浜市,又野１丁目４番２０号,,38,205,7920882,,,,,,,2022-07-05,1,,,,,マサルチョウジャク,0
2490,9700150110718,新規,0,2022-07-05,2022-07-05,６５ＫＲＺ　Ｊａｐａｎ．ＬＬＣ,,外国会社等,東京都,千代田区,丸の内１丁目８番３号丸の内トラストタワー本館２６階,,13,101,1000005,アメリカ合衆国デラウエア州ウィルミントン、オレンジ・ストリート１２０９、ナショナル・レジスタード・エージェント・インク内,,,,,,2022-07-05,1,,,,,シツクステイーフアイブケーアールゼツトジヤパンエルエルシー,0
