sequenceNumber,corporateNumber,process,correct,updateDate,changeDate,name,nameImageId,kind,prefectureName,cityName,streetNumber,addressImageId,prefectureCode,cityCode,postCode,addressOutside,addressOutsideImageId,closeDate,closeCause,successorCorporateNumber,changeCause,assignmentDate,latest,enName,enPrefectureName,enCityName,enAddressOutside,furigana,hihyoji
22,1010601008687,登記記録の閉鎖等,0,2025-04-24,2025-04-16,株式会社石居製革所,,株式会社,東京都,墨田区,東墨田３丁目１４番７号,,13,107,1310042,,,2025-04-16,清算の結了等,,,2015-10-05,1,,,,,イシイセイカクショ,0
24,1010601064524,登記記録の閉鎖等,0,2025-04-24,2025-04-11,株式会社ＫＲＫ,,株式会社,東京都,江東区,東砂３丁目２５番１１号リビオン２０１,,13,108,1360074,,,2025-04-11,清算の結了等,,,2024-01-25,1,,,,,ケイアールケイ,0
30,1011001057275,登記記録の閉鎖等,0,2025-04-24,2025-04-01,ＧＲＡＮＤＩＴ株式会社,,株式会社,東京都,港区,赤坂９丁目７番２号,,13,103,1070052,,,2025-04-01,合併による解散等,3011001057199,令和７年４月１日東京都港区赤坂九丁目７番２号インフォコム株式会社（3011001057199）に合併し解散,2015-10-05,1,,,,,グランディッド,0
48,1011301007938,登記記録の閉鎖等,0,2025-04-24,2025-04-14,株式会社プレシアントシステム,,株式会社,東京都,杉並区,高井戸東４丁目６番２３号,,13,115,1680072,,,2025-04-14,清算の結了等,,,2015-10-05,1,,,,,プレシアントシステム,0
54,1011601001277,登記記録の閉鎖等,0,2025-04-24,2025-04-09,株式会社小川設計,,株式会社,東京都,練馬区,関町南３丁目２５番１０号,,13,120,1770053,,,2025-04-09,清算の結了等,,,2015-10-05,1,,,,,オガワセッケイ,0
56,1011602003784,登記記録の閉鎖等,0,2025-04-24,2025-04-10,有限会社晃和メディカル,,有限会社,東京都,練馬区,練馬３丁目１９番１２号ウエストハイランド１－Ｂ,,13,120,1760001,,,2025-04-10,清算の結了等,,,2015-10-05,1,,,,,コウワメディカル,0
64,1011803004920,登記記録の閉鎖等,0,2025-04-24,2025-04-14,合同会社Ｈａｌｕｎｉ,,合同会社,東京都,足立区,新田１丁目８番６―６１９号,,13,121,1230865,,,2025-04-14,清算の結了等,,,2022-01-14,1,,,,,ハルニ,0
66,1012402011449,登記記録の閉鎖等,0,2025-04-24,2025-04-10,有限会社瑞祥,,有限会社,東京都,調布市,若葉町２丁目２３番地の２０,,13,208,1820003,,,2025-04-10,清算の結了等,,,2015-10-05,1,,,,,ズイショウ,0
67,1012702009630,登記記録の閉鎖等,0,2025-04-24,2025-04-14,有限会社ブレイン,,有限会社,栃木県,那須塩原市,青木３３７番地３０,,09,213,3250103,,,2025-04-14,清算の結了等,,,2015-10-05,1,,,,,ブレイン,0
93,1030002044173,登記記録の閉鎖等,0,2025-04-24,2025-04-18,有限会社西條工業,,有限会社,埼玉県,草加市,金明町１３４２番地１,,11,221,3400052,,,2025-04-18,清算の結了等,,,2015-10-05,1,,,,,サイジョウコウギョウ,0
121,1080101012555,登記記録の閉鎖等,0,2025-04-24,2025-04-14,熱海富士リース株式会社,,株式会社,静岡県,熱海市,下多賀８３４番地の２１,,22,205,4130102,,,2025-04-14,清算の結了等,,,2015-10-05,1,,,,,アタミフジリース,0
129,1100002002396,登記記録の閉鎖等,0,2025-04-24,2025-04-17,有限会社清水通商,,有限会社,長野県,長野市,吉田１丁目１８番４号,,20,201,3810043,,,2025-04-17,清算の結了等,,,2015-10-05,1,,,,,シミズツウショウ,0
144,1120901027946,登記記録の閉鎖等,0,2025-04-24,2025-04-07,株式会社垣原建築構造研究所,,株式会社,広島県,福山市,赤坂町大字赤坂９９２番地１,,34,207,7200843,,,2025-04-07,清算の結了等,,,2015-10-05,1,,,,,カキハラケンチクコウゾウケンキュウショ,0
187,1210001009828,登記記録の閉鎖等,0,2025-04-24,2025-04-21,高野繊維株式会社,,株式会社,福井県,大野市,篠座６７号２２番地,,18,205,9120061,,,2025-04-21,清算の結了等,,,2015-10-05,1,,,,,タカノセンイ,0
192,1220002016310,登記記録の閉鎖等,0,2025-04-24,2025-04-18,有限会社ジョイコンタクトレンズ,,有限会社,石川県,河北郡内灘町,字大学２丁目１９７番地,,17,365,9200265,,,2025-04-18,清算の結了等,,,2015-10-05,1,,,,,ジョイコンタクトレンズ,0
209,1260002021496,登記記録の閉鎖等,0,2025-04-24,2025-04-10,有限会社三原屋,,有限会社,岡山県,倉敷市,連島町西之浦５３番地,,33,202,7128001,,,2025-04-10,清算の結了等,,,2015-10-05,1,,,,,ミハラヤ,0
212,1260002025282,登記記録の閉鎖等,0,2025-04-24,2025-04-11,有限会社西ノ浜,,有限会社,岡山県,笠岡市,笠岡５９１４番地の５,,33,205,7140081,,,2025-04-11,清算の結了等,,,2015-10-05,1,,,,,ニシノハマ,0
238,1360003007393,登記記録の閉鎖等,0,2025-04-24,2025-04-11,合同会社あさけい,,合同会社,沖縄県,豊見城市,字根差部４１３番地６,,47,212,9010205,,,2025-04-11,清算の結了等,,,2015-12-18,1,,,,,アサケイ,0
241,1370001046153,登記記録の閉鎖等,0,2025-04-24,2025-04-21,株式会社壱英工業,,株式会社,宮城県,石巻市,渡波町１丁目２番２７号,,04,202,9862121,,,2025-04-21,合併による解散等,8370001025547,令和６年１２月１７日新潟県柏崎市西山町西山７５４番地２９株式会社千台（8370001025547）に合併し解散,2020-09-30,1,,,,,イチエイコウギョウ,0
284,2010501027332,登記記録の閉鎖等,0,2025-04-24,2025-04-11,株式会社ソウテンイ,,株式会社,茨城県,取手市,白山２丁目２３番１６号,,08,217,3020023,,,2025-04-11,清算の結了等,,,2015-10-05,1,,,,,ソウテンイ,0
291,2011001059626,登記記録の閉鎖等,0,2025-04-24,2025-04-16,フェアネスコンサルティング株式会社,,株式会社,東京都,千代田区,麹町１丁目１０番地,,13,101,1020083,,,2025-04-16,合併による解散等,2120001173558,令和７年４月１日大阪市西区阿波座一丁目３番１５号バルテス・イノベーションズ株式会社（2120001173558）に合併し解散,2015-10-05,1,,,,,フェアネスコンサルティング,0
293,2011001137571,登記記録の閉鎖等,0,2025-04-24,2025-04-09,株式会社ニープロダクツ,,株式会社,神奈川県,鎌倉市,大町１丁目５番８－２０５号,,14,204,2480007,,,2025-04-09,清算の結了等,,,2020-12-22,1,,,,,ニープロダクツ,0
323,2011801033177,登記記録の閉鎖等,0,2025-04-24,2025-04-21,ＡＬＳＯＫ関東デリバリー株式会社,,株式会社,東京都,足立区,千住東１丁目３１番１０号,,13,121,1200025,,,2025-04-21,合併による解散等,3010401016070,令和７年４月１日東京都港区元赤坂一丁目６番６号綜合警備保障株式会社（3010401016070）に合併し解散,2017-04-12,1,,,,,アルソックカントウデリバリー,0
325,2012302004329,登記記録の閉鎖等,0,2025-04-24,2025-04-15,有限会社細野製作所,,有限会社,神奈川県,相模原市中央区,淵野辺本町１丁目２７番３号,,14,152,2520202,,,2025-04-15,清算の結了等,,,2015-10-05,1,,,,,ホソノセイサクショ,0
330,2013303002585,登記記録の閉鎖等,0,2025-04-24,2025-02-14,フェニックス合同会社,,合同会社,東京都,大田区,中央３丁目３３－４,,13,111,1430024,,,2025-02-14,清算の結了等,,,2015-10-05,1,,,,,フェニックス,0
341,2021001020537,登記記録の閉鎖等,0,2025-04-24,2025-04-18,株式会社みのるホーム,,株式会社,神奈川県,厚木市,及川１丁目１２番２３号,,14,212,2430212,,,2025-04-18,清算の結了等,,,2015-10-05,1,,,,,ミノルホーム,0
342,2021001027821,登記記録の閉鎖等,0,2025-04-24,2025-04-18,株式会社エーディマック,,株式会社,神奈川県,大和市,中央林間１丁目９番８号,,14,213,2420007,,,2025-04-18,清算の結了等,,,2015-10-05,1,,,,,エーディマック,0
354,2030002040403,登記記録の閉鎖等,0,2025-04-24,2025-04-21,有限会社高橋工作所,00016539,有限会社,埼玉県,幸手市,中５丁目２０番１４号,,11,240,3400115,,,2025-04-21,清算の結了等,,,2015-10-05,1,,,,,タカハシコウサクショ,0
374,2080103001118,登記記録の閉鎖等,0,2025-04-24,2025-04-14,Ｚｉｎａｇｉ合同会社,,合同会社,静岡県,沼津市,原６５５番地の２ベルメゾンはら１００８号,,22,203,4100312,,,2025-04-14,清算の結了等,,,2015-10-05,1,,,,,ジナギ,0
375,2080401022039,登記記録の閉鎖等,0,2025-04-24,2025-04-23,Ｊ・Ｍ・Ｄｅｓｉｇｎ株式会社,,株式会社,静岡県,磐田市,大久保１０番地３,,22,211,4380002,,,2025-04-23,清算の結了等,,,2017-03-07,1,,,,,ジェーエムデザイン,0
377,2090003002181,登記記録の閉鎖等,0,2025-04-24,2025-04-14,合同会社彩陽興業,,合同会社,山梨県,山梨市,牧丘町室伏２８２番地,,19,205,4040012,,,2025-04-14,清算の結了等,,,2022-10-07,1,,,,,サイヨウコウギョウ,0
398,2120901015727,登記記録の閉鎖等,0,2025-04-24,2025-04-10,株式会社ＥＢＩＳＵ　Ｈｏｍｅ,,株式会社,大阪府,茨木市,若園町３７番２９号,,27,211,5670894,,,2025-04-10,清算の結了等,,,2015-10-05,1,,,,,エビスホーム,0
411,2130005016679,登記記録の閉鎖等,0,2025-04-24,2025-04-16,特定非営利活動法人ＴＵＮＡｇＵミラクル,,その他の設立登記法人,京都府,木津川市,加茂町里東大間田８番地５,,26,214,6191152,,,2025-04-16,清算の結了等,,,2023-01-23,1,,,,,ツナグミラクル,0
424,2180001048234,登記記録の閉鎖等,0,2025-04-24,2025-04-21,株式会社フルスクープ,,株式会社,岐阜県,多治見市,旭ケ丘９丁目３番地の１,,21,204,5070071,,,2025-04-21,清算の結了等,,,2015-10-05,1,,,,,フルスクープ,0
430,2180002077736,登記記録の閉鎖等,0,2025-04-24,2025-04-14,有限会社美幸,,有限会社,愛知県,一宮市,泉２丁目８番１５号,,23,203,4910861,,,2025-04-14,清算の結了等,,,2015-10-05,1,,,,,ミユキ,0
433,2180301005620,登記記録の閉鎖等,0,2025-04-24,2025-04-14,三遠オートサービス株式会社,,株式会社,愛知県,豊橋市,柳生町３６番地,,23,201,4418041,,,2025-04-14,清算の結了等,,,2015-10-05,1,,,,,サンエンオートサービス,0
442,2240001037239,登記記録の閉鎖等,0,2025-04-24,2025-04-21,株式会社さんこう計画,,株式会社,広島県,竹原市,忠海中町２丁目２番５６号,,34,203,7292316,,,2025-04-21,清算の結了等,,,2015-10-05,1,,,,,サンコウケイカク,0
443,2240001042395,登記記録の閉鎖等,0,2025-04-24,2025-04-21,株式会社ＬＯＣＯ,,株式会社,広島県,呉市,伏原１丁目７番６号,,34,202,7370077,,,2025-04-21,清算の結了等,,,2015-10-05,1,,,,,ロコ,0
446,2240002008577,登記記録の閉鎖等,0,2025-04-24,2025-04-21,有限会社住吉建築設計事務所,,有限会社,広島県,広島市東区,矢賀１丁目８番４号串田ビル１０２号,,34,102,7320042,,,2025-04-21,清算の結了等,,,2015-10-05,1,,,,,スミヨシケンチクセッケイジムショ,0
458,2290001048297,登記記録の閉鎖等,0,2025-04-24,2025-04-07,株式会社アクア・ジオテック,,株式会社,福岡県,久留米市,合川町２０１０番地１,,40,203,8390861,,,2025-04-07,清算の結了等,,,2015-10-05,1,,,,,アクアジオテック,0
471,2320002018915,登記記録の閉鎖等,0,2025-04-24,2025-04-22,有限会社尾崎鋼機,,有限会社,大分県,日田市,大字石井５９１番地の１,,44,204,8770061,,,2025-04-22,清算の結了等,,,2015-10-05,1,,,,,,0
478,2370002008300,登記記録の閉鎖等,0,2025-04-24,2025-04-10,有限会社ナンモ企画,,有限会社,宮城県,仙台市青葉区,北山１丁目８番２５号,,04,101,9810931,,,2025-04-10,清算の結了等,,,2015-10-05,1,,,,,ナンモキカク,0
504,2490002005665,登記記録の閉鎖等,0,2025-04-24,2025-04-21,有限会社ロード企画,,有限会社,高知県,高知市,帯屋町１丁目８番１４号,,39,201,7800841,,,2025-04-21,清算の結了等,,,2015-10-05,1,,,,,ロードキカク,0
515,3010001149898,登記記録の閉鎖等,0,2025-04-24,2025-04-17,キャピタルコンサルティング株式会社,,株式会社,東京都,江東区,森下１丁目１３番２－１００１号,,13,108,1350004,,,2025-04-17,清算の結了等,,,2015-10-05,1,,,,,キャピタルコンサルティング,0
526,3010401149928,登記記録の閉鎖等,0,2025-04-24,2025-04-02,株式会社ＳＴＰ,,株式会社,東京都,港区,赤坂９丁目５番２６号,,13,103,1070052,,,2025-04-02,清算の結了等,,,2019-12-18,1,,,,,エスティーピー,0
527,3010401152881,登記記録の閉鎖等,0,2025-04-24,2025-04-18,株式会社ｅｔｔｏ,,株式会社,鳥取県,米子市,米原５丁目２番２５号,,31,202,6830804,,,2025-04-18,合併による解散等,5270001004605,令和７年４月１日東京都港区六本木一丁目６番３号東大産業株式会社（5270001004605）に合併し解散,2020-05-25,1,,,,,エット,0
577,3012801001692,登記記録の閉鎖等,0,2025-04-24,2025-04-21,株式会社ヤマプラス立川,,株式会社,東京都,東大和市,向原４丁目１０番地６,,13,220,2070013,,,2025-04-21,合併による解散等,1010401030016,令和７年４月１日東京都港区白金台二丁目２５番１号株式会社ヤマプラス（1010401030016）に合併し解散,2015-10-05,1,,,,,ヤマプラスタチカワ,0
579,3013303007022,登記記録の閉鎖等,0,2025-04-24,2025-04-08,エースジュニア合同会社,,合同会社,神奈川県,横浜市保土ケ谷区,岩井町３４８－１保土ヶ谷レオン・クーパー１０６号室,,14,106,2400023,,,2025-04-08,清算の結了等,,,2024-03-01,1,,,,,エースジュニア,0
587,3021001067767,登記記録の閉鎖等,0,2025-04-24,2025-04-11,ファミールプラス株式会社,,株式会社,神奈川県,横須賀市,久里浜８丁目１７番２１号,,14,201,2390831,,,2025-04-11,清算の結了等,,,2019-07-12,1,,,,,ファミールプラス,0
602,3050001018513,登記記録の閉鎖等,0,2025-04-24,2025-04-14,株式会社平野商店,,株式会社,茨城県,古河市,中央町２丁目４番１８号,,08,204,3060033,,,2025-04-14,清算の結了等,,,2015-10-05,1,,,,,ヒラノショウテン,0
603,3050003007951,登記記録の閉鎖等,0,2025-04-24,2025-04-15,いろはＭＳＫＡＺＵ合同会社,,合同会社,茨城県,水戸市,渡里町３２４３番地,,08,201,3100902,,,2025-04-15,清算の結了等,,,2023-11-20,1,,,,,イロハエムエスカズ,0
604,3070001024625,登記記録の閉鎖等,0,2025-04-24,2025-04-15,ＳＨＩＮ施工計画株式会社,,株式会社,群馬県,伊勢崎市,連取町３８５番地３,,10,204,3720812,,,2025-04-15,清算の結了等,,,2015-10-05,1,,,,,シンセコウケイカク,0
606,3080101015795,登記記録の閉鎖等,0,2025-04-24,2025-04-14,株式会社幸和食品,,株式会社,静岡県,熱海市,上多賀８６３番地の１エンゼルシーサイド南熱海８１３,,22,205,4130101,,,2025-04-14,清算の結了等,,,2015-10-05,1,,,,,コウワショクヒン,0
613,3090002006884,登記記録の閉鎖等,0,2025-04-24,2025-04-14,有限会社Ｔ．Ｏ．Ｃ,,有限会社,山梨県,甲府市,中央４丁目４番２４号花藤ビル２階,,19,201,4000032,,,2025-04-14,清算の結了等,,,2015-10-05,1,,,,,ティーオーシー,0
668,3230001017117,登記記録の閉鎖等,0,2025-04-24,2025-04-22,株式会社ＰＲＯＳＰＥＲ,,株式会社,富山県,富山市,綾田町１丁目３４番５号,,16,201,9300845,,,2025-04-22,清算の結了等,,,2017-09-06,1,,,,,プロスパー,0
677,3280005007588,登記記録の閉鎖等,0,2025-04-24,2025-04-22,一般社団法人日本ミツバチを愛する人の集い,,その他の設立登記法人,島根県,雲南市,木次町寺領１１５２番地１,,32,209,6991322,,,2025-04-22,清算の結了等,,,2024-01-24,1,,,,,ニホンミツバチヲアイスルヒトノツドイ,0
680,3290002034948,登記記録の閉鎖等,0,2025-04-24,2025-04-07,あかさか商事有限会社,,有限会社,福岡県,宗像市,田熊１丁目３番４０号,,40,220,8113431,,,2025-04-07,清算の結了等,,,2015-10-05,1,,,,,アカサカショウジ,0
692,3330001014731,登記記録の閉鎖等,0,2025-04-24,2025-04-14,株式会社碧い海,,株式会社,熊本県,合志市,豊岡２０２３番地４３,,43,216,8611115,,,2025-04-14,清算の結了等,,,2015-10-05,1,,,,,アオイウミ,0
694,3330002011174,登記記録の閉鎖等,0,2025-04-24,2025-04-15,株式会社ｇｔｋオートパーツ,,株式会社,熊本県,熊本市中央区,九品寺５丁目５番１４号,,43,101,8620976,,,2025-04-15,清算の結了等,,,2015-10-05,1,,,,,ジーティーケーオートパーツ,0
698,3340003004390,登記記録の閉鎖等,0,2025-04-24,2025-04-21,合同会社ｍｅ‐ｐｕｒｕｓｉｒｏｐｐｕ,,合同会社,鹿児島県,日置市,東市来町長里２２２４番地２１,,46,216,8992202,,,2025-04-21,清算の結了等,,,2024-03-04,1,,,,,メープルシロップ,0
709,3370502000557,登記記録の閉鎖等,0,2025-04-24,2025-04-10,有限会社山内近興業,,有限会社,宮城県,本吉郡南三陸町,入谷字水口沢１４番地,,04,606,9860782,,,2025-04-10,清算の結了等,,,2015-10-05,1,,,,,ヤマウチチカシコウギョウ,0
727,3460002002350,登記記録の閉鎖等,0,2025-04-24,2025-04-18,有限会社原口畜産センター,,有限会社,北海道,釧路郡釧路町,字達古武４８番地１,,01,661,0882141,,,2025-04-18,清算の結了等,,,2015-10-05,1,,,,,ハラグチチクサンセンター,0
753,4010602025448,登記記録の閉鎖等,0,2025-04-24,2025-04-16,有限会社朝日信販,,有限会社,東京都,江東区,平野１丁目２番１０号,,13,108,1350023,,,2025-04-16,清算の結了等,,,2015-10-05,1,,,,,アサヒシンパン,0
778,4011301015558,登記記録の閉鎖等,0,2025-04-24,2025-04-10,インタミン・ジャパン株式会社,,株式会社,東京都,杉並区,荻窪５丁目１７番１１号,,13,115,1670051,,,2025-04-10,清算の結了等,,,2015-10-05,1,,,,,インタミンジャパン,0
788,4011603002948,登記記録の閉鎖等,0,2025-04-24,2025-04-09,合同会社ケイエス,,合同会社,東京都,練馬区,中村２丁目１０番２２号４０３号室,,13,120,1760024,,,2025-04-09,清算の結了等,,,2020-05-15,1,,,,,ケイエス,0
813,4021001033405,登記記録の閉鎖等,0,2025-04-24,2025-04-16,株式会社スパレックス,,株式会社,神奈川県,足柄下郡箱根町,湯本茶屋１４９番地の５,,14,382,2500312,,,2025-04-16,清算の結了等,,,2015-10-05,1,,,,,スパレックス,0
817,4021002031242,登記記録の閉鎖等,0,2025-04-24,2025-04-17,有限会社かとう写真館,,有限会社,神奈川県,厚木市,旭町２丁目７番２０号,,14,212,2430014,,,2025-04-17,清算の結了等,,,2015-10-05,1,,,,,カトウシャシンカン,0
822,4040001069639,登記記録の閉鎖等,0,2025-04-24,2025-04-07,株式会社ｍｏｊｉｔｉｖｅ,,株式会社,千葉県,柏市,豊四季２６０番地,,12,217,2770863,,,2025-04-07,清算の結了等,,,2015-10-05,1,,,,,モジティブ,0
827,4040003006664,登記記録の閉鎖等,0,2025-04-24,2025-04-07,合同会社大正,,合同会社,千葉県,流山市,大字東深井９８１番地の１３,,12,220,2700101,,,2025-04-07,清算の結了等,,,2015-10-05,1,,,,,タイセイ,0
830,4050001047008,登記記録の閉鎖等,0,2025-04-24,2025-04-11,株式会社三宝,,株式会社,茨城県,石岡市,総社１丁目７番７号,,08,205,3150016,,,2025-04-11,清算の結了等,,,2020-01-09,1,,,,,サンボウ,0
831,4060001022240,登記記録の閉鎖等,0,2025-04-24,2025-04-14,株式会社ブランシャ,,株式会社,栃木県,宇都宮市,西川田町１０２１番地２５,,09,201,3210151,,,2025-04-14,清算の結了等,,,2015-10-05,1,,,,,ブランシャ,0
834,4080402019775,登記記録の閉鎖等,0,2025-04-24,2025-04-16,東海熱学工業有限会社,,有限会社,静岡県,磐田市,見付１７７８番地,,22,211,4380086,,,2025-04-16,清算の結了等,,,2015-10-05,1,,,,,トウカイネツガクコウギョウ,0
835,4080403003092,登記記録の閉鎖等,0,2025-04-24,2025-04-15,合同会社未来クリエイト,,合同会社,静岡県,浜松市中央区,富塚町３８７６－１１６,,22,138,4328002,,,2025-04-15,清算の結了等,,,2015-10-05,1,,,,,ミライクリエイト,0
848,4120001189759,登記記録の閉鎖等,0,2025-04-24,2025-04-18,シーエルエス株式会社,,株式会社,大阪府,大阪市中央区,瓦町４丁目２番１４号,,27,128,5410048,,,2025-04-18,合併による解散等,5010001241678,令和７年４月１日東京都千代田区神田駿河台三丁目４番地高島インダストリーズ株式会社（5010001241678）に合併し解散,2015-10-05,1,,,,,シーエルエス,0
849,4120001213452,登記記録の閉鎖等,0,2025-04-24,2025-04-07,株式会社海楽,,株式会社,大阪府,大阪市西区,土佐堀３丁目３番２－７０４号,,27,106,5500001,,,2025-04-07,清算の結了等,,,2018-05-18,1,,,,,カイラク,0
868,4120902014338,登記記録の閉鎖等,0,2025-04-24,2025-04-01,有限会社いせや,,有限会社,大阪府,池田市,菅原町７番２号,,27,204,5630055,,,2025-04-01,合併による解散等,7120902014863,令和７年４月１日大阪府池田市菅原町７番２号株式会社彌平（7120902014863）に合併し解散,2015-10-05,1,,,,,イセヤ,0
893,4180001157173,登記記録の閉鎖等,0,2025-04-24,2025-04-11,株式会社アイプランニング,,株式会社,愛知県,津島市,越津町字柳之内８５番地,,23,208,4960022,,,2025-04-11,清算の結了等,,,2023-07-18,1,,,,,アイプランニング,0
898,4180003026129,登記記録の閉鎖等,0,2025-04-24,2025-04-14,ののラボ合同会社,,合同会社,愛知県,東海市,名和町高ノ宮前３番地の１ネオハイツ名和４０１号,,23,222,4760002,,,2025-04-14,清算の結了等,,,2023-12-14,1,,,,,ノノラボ,0
917,4270001005364,登記記録の閉鎖等,0,2025-04-24,2025-04-22,株式会社ケースリー,,株式会社,鳥取県,東伯郡北栄町,西園１２０番地,,31,372,6892201,,,2025-04-22,清算の結了等,,,2015-10-05,1,,,,,ケースリー,0
920,4290001053741,登記記録の閉鎖等,0,2025-04-24,2025-04-01,大牟田ガスリビング株式会社,,株式会社,福岡県,大牟田市,泉町４番地の５,,40,202,8360831,,,2025-04-01,合併による解散等,7290001053730,令和７年４月１日福岡県大牟田市泉町４番地の５大牟田瓦斯株式会社（7290001053730）に合併し解散,2015-10-05,1,,,,,オオムタガスリビング,0
926,4310001011853,登記記録の閉鎖等,0,2025-04-24,2025-04-22,株式会社日昇開発,,株式会社,長崎県,佐世保市,日宇町５７６番地,,42,202,8571151,,,2025-04-22,清算の結了等,,,2015-10-05,1,,,,,ニッショウカイハツ,0
930,4320001000112,登記記録の閉鎖等,0,2025-04-24,2025-04-23,株式会社大分建築積算センター,,株式会社,大分県,大分市,岩田町１丁目１４番１５号,,44,201,8700936,,,2025-04-23,清算の結了等,,,2015-10-05,1,,,,,オオイタケンチクセキサンセンター,0
951,4430001079342,登記記録の閉鎖等,0,2025-04-24,2025-04-14,株式会社ミヤシタ商店,,株式会社,北海道,札幌市中央区,南九条西５丁目４２１番地,,01,101,0640809,,,2025-04-14,合併による解散等,6430001079340,令和７年４月１日札幌市中央区南九条西五丁目４２１番地株式会社中島商店（6430001079340）に合併し解散,2019-07-08,1,,,,,ミヤシタショウテン,0
954,4430002008630,登記記録の閉鎖等,0,2025-04-24,2025-04-15,有限会社佐藤住宅設備,,有限会社,北海道,札幌市南区,石山東２丁目８番２６号,,01,106,0050850,,,2025-04-15,清算の結了等,,,2015-10-05,1,,,,,サトウジュウタクセツビ,0
956,4430003011781,登記記録の閉鎖等,0,2025-04-24,2025-04-15,振興佐藤建工合同会社,,合同会社,北海道,札幌市東区,中沼西三条１丁目４番１３号,,01,103,0070893,,,2025-04-15,清算の結了等,,,2020-07-31,1,,,,,シンコウサトウケンコウ,0
959,4460101001533,登記記録の閉鎖等,0,2025-04-24,2025-04-21,株式会社ベル,,株式会社,北海道,帯広市,西二条南７丁目１７番,,01,207,0800012,,,2025-04-21,清算の結了等,,,2015-10-05,1,,,,,ベル,0
970,4500005006574,登記記録の閉鎖等,0,2025-04-24,2025-04-18,全国一般愛媛統一労働組合全国一般正光会労働組合,,その他の設立登記法人,愛媛県,宇和島市,柿原１２８０番地,,38,203,7980027,,,2025-04-18,清算の結了等,,,2015-10-05,1,,,,,ゼンコクイッパンエヒメトウイツゼンコクイッパン,0
976,5010001007419,登記記録の閉鎖等,0,2025-04-24,2025-04-04,株式会社フリープレス,,株式会社,東京都,文京区,関口１丁目２１番１５号,,13,105,1120014,,,2025-04-04,清算の結了等,,,2015-10-05,1,,,,,フリープレス,0
992,5010005024996,登記記録の閉鎖等,0,2025-04-24,2025-04-18,ＫＭ　Ｕｍｅｄａ　Ｊａｐａｎ　Ｈｏｌｄｉｎｇ特定目的会社,,その他の設立登記法人,東京都,千代田区,霞が関３丁目２番５号霞が関ビル,,13,101,1000013,,,2025-04-18,清算の結了等,,,2016-02-23,1,,,,,ケーエムウメダジャパンホールディング,0
996,5010401137393,登記記録の閉鎖等,0,2025-04-24,2025-04-21,株式会社リンリン,,株式会社,東京都,港区,芝浦１丁目６－４１－３０２４,,13,103,1050023,,,2025-04-21,合併による解散等,5140001128053,令和７年３月３１日東京都台東区浅草一丁目１１番１－３０４号株式会社リントレーディング（5140001128053）に合併し解散,2018-03-27,1,,,,,リンリン,0
1007,5010601059462,登記記録の閉鎖等,0,2025-04-24,2025-04-14,株式会社ＴＯＣ,,株式会社,東京都,江東区,有明３丁目７－２６有明フロンティアビルＢ棟９階,,13,108,1350063,,,2025-04-14,清算の結了等,,,2021-06-11,1,,,,,ティーオーシー,0
1020,5011001059656,登記記録の閉鎖等,0,2025-04-24,2025-04-18,株式会社エルトレード,,株式会社,東京都,渋谷区,桜丘町２０番１号,,13,113,1500031,,,2025-04-18,合併による解散等,1020003007469,令和７年３月２５日東京都港区西麻布三丁目５番２－４０２号株式会社Ｔ．Ｒ．Ｋ（1020003007469）に合併し解散,2015-10-05,1,,,,,,0
1035,5011605002367,登記記録の閉鎖等,0,2025-04-24,2025-04-14,特定非営利活動法人ポプラ介護輸送,,その他の設立登記法人,東京都,練馬区,旭町２丁目１１番１４号,,13,120,1790071,,,2025-04-14,清算の結了等,,,2021-05-18,1,,,,,ポプラカイゴユソウ,0
1038,5011801036697,登記記録の閉鎖等,0,2025-04-24,2025-04-22,株式会社角田情報システム,,株式会社,東京都,葛飾区,青戸７丁目１２番３号,,13,122,1250062,,,2025-04-22,清算の結了等,,,2019-10-03,1,,,,,ツノダジョウホウシステム,0
1049,5012802000568,登記記録の閉鎖等,0,2025-04-24,2025-04-10,有限会社環境サービス,,有限会社,東京都,練馬区,上石神井１丁目２３－６プロスパラス野田１０３,,13,120,1770044,,,2025-04-10,清算の結了等,,,2015-10-05,1,,,,,カンキョウサービス,0
1051,5013301028968,登記記録の閉鎖等,0,2025-04-24,2025-04-08,株式会社アーリーバード,,株式会社,東京都,豊島区,駒込１丁目４０番１４号,,13,116,1700003,,,2025-04-08,清算の結了等,,,2015-10-05,1,,,,,アーリーバード,0
1052,5013303002491,登記記録の閉鎖等,0,2025-04-24,2025-04-07,合同会社ジェミニ,,合同会社,東京都,豊島区,池袋３丁目３４番９号ビジネスパーク池袋２階,,13,116,1710014,,,2025-04-07,清算の結了等,,,2015-10-05,1,,,,,ジェミニ,0
1061,5020002104825,登記記録の閉鎖等,0,2025-04-24,2025-04-11,有限会社Ｗ　Ｄｅｓｉｇｎ　ａｎｄ　Ｃｏｎｃｅｐｔ,,有限会社,東京都,多摩市,中沢２丁目５番地の５ブルーミングヒルズ多摩センター８０５,,13,224,2060036,,,2025-04-11,清算の結了等,,,2015-10-05,1,,,,,ダブリューデザインアンドコンセプト,0
1065,5021001038799,登記記録の閉鎖等,0,2025-04-24,2025-04-11,第一三共ケミカルファーマ株式会社,,株式会社,東京都,中央区,日本橋本町３丁目５番１号,,13,102,1030023,,,2025-04-11,合併による解散等,1010001095640,令和７年４月１日東京都中央区日本橋本町三丁目５番１号第一三共株式会社（1010001095640）に合併し解散,2015-10-05,1,,,,,ダイイチサンキョウケミカルファーマ,0
1068,5021002010294,登記記録の閉鎖等,0,2025-04-24,2025-04-15,有限会社内野,,有限会社,神奈川県,茅ヶ崎市,新栄町５番２号,,14,207,2530044,,,2025-04-15,清算の結了等,,,2015-10-05,1,,,,,ウチノ,0
1075,5030003013116,登記記録の閉鎖等,0,2025-04-24,2025-04-15,ＪＭＣ国際業務合同会社,,合同会社,埼玉県,川越市,大字笠幡４００４番地２（笠幡グリーンパーク１１号棟５０５号室）,,11,201,3501175,,,2025-04-15,清算の結了等,,,2019-02-19,1,,,,,ジェーエムシーコクサイギョウム,0
1080,5050001007332,登記記録の閉鎖等,0,2025-04-24,2025-04-21,日立中央ガス販売株式会社,,株式会社,茨城県,日立市,川尻町４丁目１１番５号,,08,202,3191411,,,2025-04-21,合併による解散等,9040001001927,令和７年４月１日千葉市中央区都町二丁目２４番地３株式会社クレックス（9040001001927）に合併し解散,2015-10-05,1,,,,,ヒタチチュウオウガスハンバイ,0
1086,5050002004502,登記記録の閉鎖等,0,2025-04-24,2025-04-14,有限会社ワンダー工業,,有限会社,茨城県,水戸市,姫子２丁目１７番地１５,,08,201,3114151,,,2025-04-14,清算の結了等,,,2015-10-05,1,,,,,ワンダーコウギョウ,0
1099,5120001219630,登記記録の閉鎖等,0,2025-04-24,2025-04-22,株式会社ａｉｍｚ,,株式会社,大阪府,大阪市阿倍野区,松崎町３丁目８番１４号－２０３号室,,27,119,5450053,,,2025-04-22,清算の結了等,,,2019-03-14,1,,,,,エイムズ,0
1116,5120901019659,登記記録の閉鎖等,0,2025-04-24,2025-04-01,新和商事株式会社,,株式会社,大阪府,池田市,菅原町７番２号,,27,204,5630055,,,2025-04-01,合併による解散等,7120902014863,令和７年４月１日大阪府池田市菅原町７番２号株式会社彌平（7120902014863）に合併し解散,2015-10-05,1,,,,,シンワショウジ,0
1131,5140001057698,登記記録の閉鎖等,0,2025-04-24,2025-04-18,株式会社イースタン,,株式会社,兵庫県,姫路市,井ノ口４４３番地の２７,,28,201,6700983,,,2025-04-18,清算の結了等,,,2025-02-20,1,,,,,,0
1143,5180001003806,登記記録の閉鎖等,0,2025-04-24,2025-04-15,株式会社ギャラリーあおい,,株式会社,愛知県,名古屋市東区,泉１丁目１８番３０号プラウドタワー名古屋久屋大通公園１６０６,,23,102,4610001,,,2025-04-15,清算の結了等,,,2015-10-05,1,,,,,ギャラリーアオイ,0
1145,5180001138866,登記記録の閉鎖等,0,2025-04-24,2025-04-16,株式会社木村不動産,,株式会社,愛知県,一宮市,泉１丁目１１番５号,,23,203,4910861,,,2025-04-16,清算の結了等,,,2019-11-12,1,,,,,キムラフドウサン,0
1146,5180001146464,登記記録の閉鎖等,0,2025-04-24,2025-04-14,株式会社ＩＯＣ,,株式会社,愛知県,名古屋市中区,栄３丁目２－３名古屋日興證券ビル４階,,23,106,4600008,,,2025-04-14,清算の結了等,,,2021-06-11,1,,,,,アイオーシー,0
1150,5180002077452,登記記録の閉鎖等,0,2025-04-24,2025-04-10,有限会社フルヤマズ・コーキング,,有限会社,愛知県,一宮市,北方町中島字中起２７番地の１０,,23,203,4938003,,,2025-04-10,清算の結了等,,,2015-10-05,1,,,,,フルヤマズコーキング,0
1179,5310001005334,登記記録の閉鎖等,0,2025-04-24,2025-04-18,株式会社グリーンベレー,,株式会社,長崎県,佐世保市,藤原町１０番３０号,,42,202,8570832,,,2025-04-18,清算の結了等,,,2015-10-05,1,,,,,グリーンベレー,0
1191,5370002010245,登記記録の閉鎖等,0,2025-04-24,2025-04-09,有限会社オカモト商事,,有限会社,宮城県,仙台市太白区,鹿野本町７番５号,,04,104,9820022,,,2025-04-09,清算の結了等,,,2015-10-05,1,,,,,オカモトショウジ,0
1199,5400002000936,登記記録の閉鎖等,0,2025-04-24,2025-04-08,有限会社北川金魚問屋,,有限会社,岩手県,盛岡市,松尾町１６番６号,,03,201,0200873,,,2025-04-08,清算の結了等,,,2015-10-05,1,,,,,キタガワキンギョトンヤ,0
1207,5430001079341,登記記録の閉鎖等,0,2025-04-24,2025-04-14,株式会社薄野商店,,株式会社,北海道,札幌市中央区,南九条西５丁目４２１番地,,01,101,0640809,,,2025-04-14,合併による解散等,6430001079340,令和７年４月１日札幌市中央区南九条西五丁目４２１番地株式会社中島商店（6430001079340）に合併し解散,2019-07-08,1,,,,,ススキノショウテン,0
1208,5430002025872,登記記録の閉鎖等,0,2025-04-24,2025-04-14,有限会社創成川商事,,有限会社,北海道,札幌市中央区,南九条西５丁目４２１番地,,01,101,0640809,,,2025-04-14,合併による解散等,6430001079340,令和７年４月１日札幌市中央区南九条西五丁目４２１番地株式会社中島商店（6430001079340）に合併し解散,2015-10-05,1,,,,,ソウセイガワショウジ,0
1209,5430003008133,登記記録の閉鎖等,0,2025-04-24,2025-04-15,Ｋリスクマネジメント合同会社,,合同会社,北海道,札幌市豊平区,月寒東二条１２丁目４番２０号,,01,105,0620052,,,2025-04-15,清算の結了等,,,2017-01-12,1,,,,,ケイリスクマネジメント,0
1251,6010602001083,登記記録の閉鎖等,0,2025-04-24,2025-04-14,有限会社アートスタジオアルファ,,有限会社,東京都,江東区,大島３丁目１５番１７号,,13,108,1360072,,,2025-04-14,清算の結了等,,,2015-10-05,1,,,,,,0
1252,6010602033705,登記記録の閉鎖等,0,2025-04-24,2025-04-15,ニコニコ理研有限会社,,有限会社,東京都,墨田区,緑１丁目２７番９ー１０１号メインステージ両国ＩＩ,00132225,13,107,1300021,,,2025-04-15,清算の結了等,,,2015-10-05,1,,,,,ニコニコリケン,0
1261,6010902002203,登記記録の閉鎖等,0,2025-04-24,2025-04-23,有限会社エイ・エム・シー,,有限会社,東京都,世田谷区,深沢５丁目３番９号,,13,112,1580081,,,2025-04-23,清算の結了等,,,2015-10-05,1,,,,,エイエムシー,0
1290,6011501017492,登記記録の閉鎖等,0,2025-04-24,2025-04-17,株式会社オフィス佑,,株式会社,東京都,北区,豊島６丁目５番２０号,,13,117,1140003,,,2025-04-17,清算の結了等,,,2015-10-05,1,,,,,オフィスユウ,0
1304,6012703001409,登記記録の閉鎖等,0,2025-04-24,2025-04-17,合同会社ｅｃｏ　ｑｕａｌｉｔｙ,,合同会社,東京都,清瀬市,旭が丘１丁目６１６番地３,,13,221,2040002,,,2025-04-17,清算の結了等,,,2017-01-25,1,,,,,エコクオリティ,0
1307,6012805000408,登記記録の閉鎖等,0,2025-04-24,2025-04-11,特定非営利活動法人立川航空宇宙博物館,,その他の設立登記法人,栃木県,那須塩原市,油井１８番地３８,,09,213,3250112,,,2025-04-11,清算の結了等,,,2015-10-05,1,,,,,タチカワコウクウウチュウハクブツカン,0
1332,6021003009005,登記記録の閉鎖等,0,2025-04-24,2025-04-14,ｅｎ－ｊｏｉ合同会社,,合同会社,神奈川県,横須賀市,浦賀６丁目１番２３号,,14,201,2390822,,,2025-04-14,清算の結了等,,,2020-01-09,1,,,,,エンジョイ,0
1354,6050001010120,登記記録の閉鎖等,0,2025-04-24,2025-04-11,株式会社今井製作所,,株式会社,茨城県,かすみがうら市,稲吉東５丁目１２番１４号,,08,230,3150053,,,2025-04-11,清算の結了等,,,2015-10-05,1,,,,,イマイセイサクショ,0
1356,6050001028360,登記記録の閉鎖等,0,2025-04-24,2025-04-14,株式会社ホスキンス・ジャパン,,株式会社,茨城県,取手市,山王１１６番地,,08,217,3001544,,,2025-04-14,清算の結了等,,,2015-10-05,1,,,,,ホスキンスジャパン,0
1361,6050002014459,登記記録の閉鎖等,0,2025-04-24,2025-04-14,株式会社雅賀,,株式会社,茨城県,かすみがうら市,下土田１５２２番地８,,08,230,3150058,,,2025-04-14,清算の結了等,,,2015-10-05,1,,,,,ガガ,0
1370,6080001008814,登記記録の閉鎖等,0,2025-04-24,2025-04-21,中山油脂工業株式会社,,株式会社,静岡県,静岡市清水区,袖師町９２９番地の１,,22,103,4240037,,,2025-04-21,清算の結了等,,,2015-10-05,1,,,,,ナカヤマユシコウギョウ,0
1375,6100002016169,登記記録の閉鎖等,0,2025-04-24,2025-04-18,有限会社クドー工業,,有限会社,長野県,小県郡長和町,和田２３７８番地１,,20,350,3860701,,,2025-04-18,清算の結了等,,,2015-10-05,1,,,,,クドーコウギョウ,0
1380,6120001163150,登記記録の閉鎖等,0,2025-04-24,2025-04-07,都市総合開発株式会社,,株式会社,大阪府,大阪市中央区,淡路町２丁目１番１号,,27,128,5410047,,,2025-04-07,清算の結了等,,,2015-10-05,1,,,,,トシソウゴウカイハツ,0
1385,6120001257142,登記記録の閉鎖等,0,2025-04-24,2025-04-22,株式会社ＨＩＣ,,株式会社,大阪府,大阪市北区,梅田１丁目１１番４－９２３号大阪駅前第４ビル９階,,27,127,5300001,,,2025-04-22,清算の結了等,,,2023-08-09,1,,,,,エイチアイシー,0
1400,6122001026048,登記記録の閉鎖等,0,2025-04-24,2025-04-21,株式会社テイクフォー,,株式会社,大阪府,東大阪市,友井２丁目９番２号,,27,227,5770816,,,2025-04-21,合併による解散等,5140001089155,令和７年４月１５日大阪市北区豊崎二丁目７番９号豊崎いずみビル４階株式会社エックスラボ（5140001089155）に合併し解散,2015-10-05,1,,,,,テイクフォー,0
1411,6150001016520,登記記録の閉鎖等,0,2025-04-24,2025-04-18,株式会社カズショウ,,株式会社,奈良県,大和郡山市,九条町１１９２番地１３,,29,203,6391001,,,2025-04-18,清算の結了等,,,2015-10-05,1,,,,,,0
1413,6160001016899,登記記録の閉鎖等,0,2025-04-24,2025-04-21,株式会社ＩＦＲＥＢ,,株式会社,滋賀県,守山市,古高町８１－５,,25,207,5240044,,,2025-04-21,清算の結了等,,,2015-10-05,1,,,,,,0
1419,6180001060482,登記記録の閉鎖等,0,2025-04-24,2025-04-04,株式会社舞設計,,株式会社,愛知県,名古屋市千種区,吹上２丁目１番３号,,23,101,4640856,,,2025-04-04,清算の結了等,,,2015-10-05,1,,,,,マイセッケイ,0
1435,6220001010375,登記記録の閉鎖等,0,2025-04-24,2025-04-21,株式会社ステップアップ,,株式会社,石川県,金沢市,福増町南１１４９番地,,17,201,9200376,,,2025-04-21,清算の結了等,,,2015-10-05,1,,,,,,0
1441,6230002000531,登記記録の閉鎖等,0,2025-04-24,2025-04-21,有限会社エンパイア商事,,有限会社,富山県,富山市,堀川小泉町８５７番地,,16,201,9398081,,,2025-04-21,清算の結了等,,,2015-10-05,1,,,,,エンパイアショウジ,0
1443,6240002029272,登記記録の閉鎖等,0,2025-04-24,2025-04-22,有限会社マムズ,,有限会社,広島県,東広島市,安芸津町三津４３７２番地の１,,34,212,7392402,,,2025-04-22,清算の結了等,,,2015-10-05,1,,,,,マムズ,0
1467,6330002017680,登記記録の閉鎖等,0,2025-04-24,2025-04-15,有限会社川建,,有限会社,熊本県,菊池市,龍門５２番１,,43,210,8611672,,,2025-04-15,清算の結了等,,,2015-10-05,1,,,,,カワケン,0
1473,6350002001328,登記記録の閉鎖等,0,2025-04-24,2025-04-21,有限会社協栄テクノ,,有限会社,宮崎県,宮崎市,波島２丁目２１番１８号,,45,201,8800826,,,2025-04-21,清算の結了等,,,2015-10-05,1,,,,,キョウエイテクノ,0
1478,6370001012282,登記記録の閉鎖等,0,2025-04-24,2025-04-14,ＴＤＧビジネスサポート株式会社,,株式会社,宮城県,仙台市青葉区,本町１丁目７番１号,,04,101,9800014,,,2025-04-14,合併による解散等,4370001049797,令和７年４月１日仙台市青葉区五橋一丁目５番３号東北電力トランスコスモスマネジメントパートナー株式会社（4370001049797）に合併し解散,2015-10-05,1,,,,,ティーディージービジネスサポート,0
1485,6400001008698,登記記録の閉鎖等,0,2025-04-24,2025-04-07,株式会社ラムサ,,株式会社,岩手県,宮古市,西町３丁目１番５号,,03,202,0270061,,,2025-04-07,清算の結了等,,,2015-10-05,1,,,,,ラムサ,0
1496,6430003005229,登記記録の閉鎖等,0,2025-04-24,2025-04-14,ナチュールメディカルセンター合同会社,,合同会社,北海道,札幌市中央区,大通西２６丁目２番１０号,,01,101,0640820,,,2025-04-14,清算の結了等,,,2015-10-05,1,,,,,ナチュールメディカルセンター,0
1525,7010001129558,登記記録の閉鎖等,0,2025-04-24,2025-03-28,株式会社オナーギャザリング,,株式会社,東京都,渋谷区,神宮前３丁目１番２７号ファミールグラン神宮外苑前８０３号室,,13,113,1500001,,,2025-03-28,清算の結了等,,,2015-10-05,1,,,,,オナーギャザリング,0
1546,7010403023359,登記記録の閉鎖等,0,2025-04-24,2025-04-02,ＫＯＫＯ　ＨＯＴＥＬ銀座一丁目合同会社,,合同会社,東京都,港区,虎ノ門５丁目１番４号,,13,103,1050001,,,2025-04-02,清算の結了等,,,2020-07-28,1,,,,,ココホテルギンザイッチョウメ,0
1550,7010601014283,登記記録の閉鎖等,0,2025-04-24,2025-04-14,株式会社平井屋製糊所,,株式会社,東京都,墨田区,菊川２丁目１０番１０号,,13,107,1300024,,,2025-04-14,清算の結了等,,,2015-10-05,1,,,,,ヒライヤセイコショ,0
1554,7010602007492,登記記録の閉鎖等,0,2025-04-24,2025-04-17,有限会社丸貞,,有限会社,東京都,江東区,大島５丁目４４番９号,,13,108,1360072,,,2025-04-17,清算の結了等,,,2015-10-05,1,,,,,マルサダ,0
1555,7010701033893,登記記録の閉鎖等,0,2025-04-24,2025-04-04,株式会社ＳｐｉｒａｌＭｉｎｄ,,株式会社,東京都,品川区,東品川４丁目１３番１４号,,13,109,1400002,,,2025-04-04,合併による解散等,3010701023163,令和７年４月１日東京都品川区東品川四丁目１３番１４号株式会社ブロードリーフ（3010701023163）に合併し解散,2017-03-15,1,,,,,スパイラルマインド,0
1557,7010801016906,登記記録の閉鎖等,0,2025-04-24,2025-04-09,株式会社ブラッサム,,株式会社,東京都,大田区,大森西６丁目２番４－１０１号,,13,111,1430015,,,2025-04-09,清算の結了等,,,2015-10-05,1,,,,,ブラッサム,0
1579,7011101055891,登記記録の閉鎖等,0,2025-04-24,2025-04-04,株式会社ＳＰＣ,,株式会社,東京都,中央区,銀座１丁目１２番４号,,13,102,1040061,,,2025-04-04,清算の結了等,,,2015-10-05,1,,,,,エスピーシー,0
1615,7021002050074,登記記録の閉鎖等,0,2025-04-24,2025-04-21,有限会社杉山米店,,有限会社,神奈川県,足柄下郡湯河原町,宮上８３番地の５,,14,384,2590314,,,2025-04-21,清算の結了等,,,2015-10-05,1,,,,,スギヤマコメテン,0
1616,7021002053523,登記記録の閉鎖等,0,2025-04-24,2025-04-18,有限会社ワイ・テイ,,有限会社,神奈川県,小田原市,飯泉１２１７番地の３,,14,206,2500863,,,2025-04-18,清算の結了等,,,2015-10-05,1,,,,,ワイテイ,0
1640,7030003010160,登記記録の閉鎖等,0,2025-04-24,2025-04-11,ＯＷＬ合同会社,,合同会社,神奈川県,横浜市保土ケ谷区,狩場町２９３番地５４,,14,106,2400025,,,2025-04-11,清算の結了等,,,2017-04-12,1,,,,,アウル,0
1646,7040001047105,登記記録の閉鎖等,0,2025-04-24,2025-03-28,株式会社みずきアセットプランニング,,株式会社,東京都,渋谷区,恵比寿４丁目５番２８恵比寿ガーデン２１２号,,13,113,1500013,,,2025-03-28,清算の結了等,,,2015-10-05,1,,,,,ミズキアセットプランニング,0
1655,7040002069049,登記記録の閉鎖等,0,2025-04-24,2025-04-08,有限会社川上エンジニアリング,,有限会社,千葉県,木更津市,畑沢４丁目１１番１０号,,12,206,2920825,,,2025-04-08,清算の結了等,,,2015-10-05,1,,,,,カワカミエンジニアリング,0
1665,7080401000345,登記記録の閉鎖等,0,2025-04-24,2025-04-16,株式会社荒商,,株式会社,静岡県,浜松市中央区,葵西５丁目５番２７号,,22,138,4338111,,,2025-04-16,清算の結了等,,,2015-10-05,1,,,,,アラショウ,0
1675,7100002019947,登記記録の閉鎖等,0,2025-04-24,2025-04-18,有限会社コスモクレーン,,有限会社,長野県,松本市,高宮東２番１２号,,20,202,3900835,,,2025-04-18,清算の結了等,,,2015-10-05,1,,,,,コスモクレーン,0
1676,7100003004832,登記記録の閉鎖等,0,2025-04-24,2025-04-18,ドリームウィングス株式会社,,株式会社,長野県,小県郡長和町,長久保２１９１番地２１－２Ｆ,,20,350,3860602,,,2025-04-18,清算の結了等,,,2017-12-06,1,,,,,ドリームウィングス,0
1722,7170001005504,登記記録の閉鎖等,0,2025-04-24,2025-04-18,株式会社シコネ化工,,株式会社,和歌山県,海南市,重根５２８番地１,,30,202,6420023,,,2025-04-18,清算の結了等,,,2015-10-05,1,,,,,シコネカコウ,0
1733,7180301033939,登記記録の閉鎖等,0,2025-04-24,2025-04-18,株式会社ルーク,,株式会社,愛知県,西尾市,熊味町南十五夜１番地１,,23,213,4450071,,,2025-04-18,清算の結了等,,,2020-08-04,1,,,,,ルーク,0
1741,7220001024647,登記記録の閉鎖等,0,2025-04-24,2025-04-16,株式会社ＹＵＫＩ,,株式会社,石川県,金沢市,東山１丁目４番４２号,,17,201,9200831,,,2025-04-16,清算の結了等,,,2022-01-14,1,,,,,ユキ,0
1743,7230002001925,登記記録の閉鎖等,0,2025-04-24,2025-04-22,有限会社ダイニチ工業,,有限会社,富山県,富山市,田畑８５２番地２９,,16,201,9318403,,,2025-04-22,清算の結了等,,,2015-10-05,1,,,,,ダイニチコウギョウ,0
1750,7240001026393,登記記録の閉鎖等,0,2025-04-24,2025-04-21,株式会社日立インフォメーションエンジニアリング,,株式会社,神奈川県,横浜市磯子区,磯子１丁目２番１０号,,14,107,2350016,,,2025-04-21,合併による解散等,6010701025710,令和７年４月１日東京都品川区大崎一丁目２番１号株式会社日立システムズ（6010701025710）に合併し解散,2015-10-05,1,,,,,ヒタチインフォメーションエンジニアリング,0
1756,7270005002735,登記記録の閉鎖等,0,2025-04-24,2025-04-21,農事組合法人糸白見,,その他の設立登記法人,鳥取県,八頭郡若桜町,大字糸白見２９２番地,,31,325,6800743,,,2025-04-21,清算の結了等,,,2015-10-05,1,,,,,,0
1760,7290002044373,登記記録の閉鎖等,0,2025-04-24,2025-04-07,有限会社多田工業所,,有限会社,福岡県,飯塚市,内野３３４２番地,,40,205,8200706,,,2025-04-07,清算の結了等,,,2015-10-05,1,,,,,タダコウギョウショ,0
1764,7290801009535,登記記録の閉鎖等,0,2025-04-24,2025-04-21,アーム産業株式会社,,株式会社,福岡県,北九州市八幡西区,引野１丁目１８番２１号,,40,109,8060067,,,2025-04-21,清算の結了等,,,2015-10-05,1,,,,,アームサンギョウ,0
1767,7310001013046,登記記録の閉鎖等,0,2025-04-24,2025-04-23,株式会社自由工房,,株式会社,長崎県,西彼杵郡時津町,浜田郷７３２番地１,,42,308,8512102,,,2025-04-23,清算の結了等,,,2015-10-05,1,,,,,ジユウコウボウ,0
1769,7340001020246,登記記録の閉鎖等,0,2025-04-24,2025-04-21,株式会社ミツオ工建,,株式会社,鹿児島県,鹿児島市,西陵６丁目６番１６号,,46,201,8900032,,,2025-04-21,清算の結了等,,,2017-05-10,1,,,,,ミツオコウケン,0
1771,7340002022258,登記記録の閉鎖等,0,2025-04-24,2025-04-16,有限会社尾崎建設,,有限会社,鹿児島県,出水市,高尾野町唐笠木１８９５番地１,,46,208,8990403,,,2025-04-16,清算の結了等,,,2015-10-05,1,,,,,オザキケンセツ,0
1796,7490003001023,登記記録の閉鎖等,0,2025-04-24,2025-04-23,合同会社Ａ－ＰＯＷＥＲ,,合同会社,高知県,高知市,鴨部１丁目１番２２号,,39,201,7808052,,,2025-04-23,清算の結了等,,,2015-12-22,1,,,,,,0
1797,7500005001300,登記記録の閉鎖等,0,2025-04-24,2025-04-18,全国一般愛媛統一労働組合,,その他の設立登記法人,愛媛県,松山市,萱町２丁目１番地２黒光ビル２０５,,38,201,7900813,,,2025-04-18,清算の結了等,,,2015-10-05,1,,,,,ゼンコクイッパンエヒメトウイツ,0
1798,7500005006092,登記記録の閉鎖等,0,2025-04-24,2025-04-18,全国一般愛媛統一労働組合宇和島支部,,その他の設立登記法人,愛媛県,宇和島市,中央町２丁目４番１０号,,38,203,7980040,,,2025-04-18,清算の結了等,,,2015-10-05,1,,,,,ゼンコクイッパンエヒメトウイツウワジマシブ,0
1804,8010001103636,登記記録の閉鎖等,0,2025-04-24,2025-04-11,第一三共プロファーマ株式会社,,株式会社,東京都,中央区,日本橋本町３丁目５番１号,,13,102,1030023,,,2025-04-11,合併による解散等,1010001095640,令和７年４月１日東京都中央区日本橋本町三丁目５番１号第一三共株式会社（1010001095640）に合併し解散,2015-10-05,1,,,,,ダイイチサンキョウプロファーマ,0
1808,8010001204533,登記記録の閉鎖等,0,2025-04-24,2025-04-18,株式会社オフィスＮ,,株式会社,埼玉県,さいたま市緑区,美園４丁目１番地２センターフィールド浦和美園壱番街１３０４,,11,109,3360967,,,2025-04-18,清算の結了等,,,2019-10-08,1,,,,,オフィスエヌ,0
1824,8010705000419,登記記録の閉鎖等,0,2025-04-24,2025-04-01,学校法人清泉女子大学,,その他の設立登記法人,東京都,品川区,東五反田３丁目１６番２１号,,13,109,1410022,,,2025-04-01,合併による解散等,9021005002087,令和７年４月１日東京都品川区東五反田三丁目８番３号学校法人清泉女学院（9021005002087）に合併し解散,2015-10-05,1,,,,,セイセンジョシダイガク,0
1829,8010801030617,登記記録の閉鎖等,0,2025-04-24,2025-04-09,京浜リムジン株式会社,,株式会社,東京都,大田区,南六郷３丁目１番１号,,13,111,1440045,,,2025-04-09,清算の結了等,,,2020-02-07,1,,,,,,0
1848,8011101065353,登記記録の閉鎖等,0,2025-04-24,2025-04-14,日本シャクリー株式会社,,株式会社,東京都,新宿区,西新宿２丁目６番１号,,13,104,1600023,,,2025-04-14,合併による解散等,8011101061071,令和７年４月１日東京都新宿区西新宿二丁目６番１号日本シャクリー株式会社（8011101061071）に合併し解散,2015-10-05,1,,,,,ニホンシャクリー,0
1851,8011102029919,登記記録の閉鎖等,0,2025-04-24,2025-04-03,有限会社エイブリッジ,,有限会社,東京都,新宿区,高田馬場４丁目３７番２号,,13,104,1690075,,,2025-04-03,清算の結了等,,,2015-10-05,1,,,,,エイブリッジ,0
1906,8030002039497,登記記録の閉鎖等,0,2025-04-24,2025-04-15,ヨコタハウジング有限会社,,有限会社,茨城県,猿島郡五霞町,大字元栗橋２６５９番地,,08,542,3060313,,,2025-04-15,清算の結了等,,,2015-10-05,1,,,,,ヨコタハウジング,0
1916,8050003002568,登記記録の閉鎖等,0,2025-04-24,2025-04-11,合同会社つばさ商工,,合同会社,茨城県,ひたちなか市,大字高野２３８７番地１２０,,08,221,3120002,,,2025-04-11,清算の結了等,,,2015-10-05,1,,,,,ツバサショウコウ,0
1923,8070002000141,登記記録の閉鎖等,0,2025-04-24,2025-04-15,有限会社アクエリアス設計,,有限会社,群馬県,渋川市,赤城町敷島５７－７,,10,208,3791104,,,2025-04-15,清算の結了等,,,2015-10-05,1,,,,,アクエリアスセッケイ,0
1931,8090001007763,登記記録の閉鎖等,0,2025-04-24,2025-04-04,株式会社産業革新研究所,,株式会社,東京都,品川区,東品川４丁目１３番１４号,,13,109,1400002,,,2025-04-04,合併による解散等,3010701023163,令和７年４月１日東京都品川区東品川四丁目１３番１４号株式会社ブロードリーフ（3010701023163）に合併し解散,2015-10-05,1,,,,,サンギョウカクシンケンキュウジョ,0
1932,8090002004256,登記記録の閉鎖等,0,2025-04-24,2025-04-09,有限会社ジャストコーポレーション,,有限会社,山梨県,南アルプス市,東南湖３１２２番地,,19,208,4000412,,,2025-04-09,清算の結了等,,,2015-10-05,1,,,,,ジャストコーポレーション,0
1935,8100002006416,登記記録の閉鎖等,0,2025-04-24,2025-04-18,有限会社ルート十九,,有限会社,長野県,長野市,信州新町水内１６５６番地,,20,201,3812403,,,2025-04-18,清算の結了等,,,2015-10-05,1,,,,,ルートジュウキュウ,0
1961,8140001032392,登記記録の閉鎖等,0,2025-04-24,2025-04-10,株式会社オプテック沖縄,,株式会社,沖縄県,浦添市,勢理客４丁目１６番９号,,47,208,9012122,,,2025-04-10,清算の結了等,,,2015-10-05,1,,,,,オプテックオキナワ,0
1968,8180001060506,登記記録の閉鎖等,0,2025-04-24,2025-04-16,福美工業株式会社,,株式会社,愛知県,名古屋市港区,新茶屋３丁目３０８番地,,23,111,4550863,,,2025-04-16,清算の結了等,,,2015-10-05,1,,,,,フクビコウギョウ,0
1981,8220001010877,登記記録の閉鎖等,0,2025-04-24,2025-04-21,株式会社カネマツ,,株式会社,石川県,白山市,福留町２２２番地,,17,210,9240051,,,2025-04-21,清算の結了等,,,2015-10-05,1,,,,,カネマツ,0
1983,8220001011090,登記記録の閉鎖等,0,2025-04-24,2025-04-21,株式会社ピース,,株式会社,石川県,金沢市,駅西新町１丁目３９番５号,,17,201,9200027,,,2025-04-21,清算の結了等,,,2015-10-05,1,,,,,,0
1996,8250001012796,登記記録の閉鎖等,0,2025-04-24,2025-04-15,株式会社アクロス,,株式会社,山口県,大島郡周防大島町,大字土居横田７６４番地４,,35,305,7422803,,,2025-04-15,合併による解散等,3260001008609,令和７年４月１日岡山市南区並木町二丁目１３番１１号株式会社ケイ・クリエイト（3260001008609）に合併し解散,2015-10-05,1,,,,,アクロス,0
1999,8260002030276,登記記録の閉鎖等,0,2025-04-24,2025-04-11,有限会社赤堀板金,,有限会社,岡山県,美作市,眞加部３３１番地２,,33,215,7070000,,,2025-04-11,清算の結了等,,,2015-10-05,1,,,,,アカホリバンキン,0
2007,8290801007678,登記記録の閉鎖等,0,2025-04-24,2025-04-22,株式会社アービックマネジメント,,株式会社,福岡県,北九州市小倉北区,片野１丁目１－４８リビオン片野１０１号,,40,106,8020064,,,2025-04-22,合併による解散等,8250001008200,令和７年３月３１日山口県山口市黒川４００番地１株式会社田村ビルズ（8250001008200）に合併し解散,2015-10-05,1,,,,,アービックマネジメント,0
2026,8430001043971,登記記録の閉鎖等,0,2025-04-24,2025-04-15,株式会社北集園,,株式会社,北海道,恵庭市,北柏木町１丁目１番１１号,,01,231,0611433,,,2025-04-15,清算の結了等,,,2015-10-05,1,,,,,ホクシュウエン,0
2048,9010003034696,登記記録の閉鎖等,0,2025-04-24,2025-04-22,ｕｎｒｅａｌ合同会社,,合同会社,東京都,千代田区,九段南１丁目５番６号,,13,101,1020074,,,2025-04-22,清算の結了等,,,2021-04-22,1,,,,,アンリアル,0
2053,9010005022798,登記記録の閉鎖等,0,2025-04-24,2025-04-21,アクスブリッジ特定目的会社,,その他の設立登記法人,東京都,千代田区,丸の内１丁目６番５号,,13,101,1000005,,,2025-04-21,清算の結了等,,,2015-10-05,1,,,,,アクスブリッジ,0
2072,9010901036323,登記記録の閉鎖等,0,2025-04-24,2025-04-21,株式会社ＫＭＳソリューション,,株式会社,東京都,港区,芝４丁目７番６号芝ビルディング７０４号室,,13,103,1080014,,,2025-04-21,合併による解散等,3010503004576,令和７年４月３日千葉県船橋市金杉八丁目５番２７号５Ｆ－２合同会社ジェフ企画（3010503004576）に合併し解散,2015-10-05,1,,,,,ケイエムエスソリューション,0
2092,9011101067753,登記記録の閉鎖等,0,2025-04-24,2025-04-03,株式会社あわーず,,株式会社,東京都,新宿区,西新宿８丁目３番３２号,,13,104,1600023,,,2025-04-03,合併による解散等,1010601049979,令和７年４月１日東京都新宿区百人町一丁目２２番３号新宿ナショナルコート２０３号株式会社あわーず東京城東（1010601049979）に合併し解散,2015-10-05,1,,,,,アワーズ,0
2109,9011801012199,登記記録の閉鎖等,0,2025-04-24,2025-04-16,丸武運送株式会社,,株式会社,東京都,足立区,平野３丁目１５番１３号,,13,121,1210076,,,2025-04-16,清算の結了等,,,2015-10-05,1,,,,,マルタケウンソウ,0
2111,9011802007982,登記記録の閉鎖等,0,2025-04-24,2025-04-21,有限会社柳原商会,,有限会社,東京都,葛飾区,東堀切１丁目２０番１２号,,13,122,1240004,,,2025-04-21,清算の結了等,,,2015-10-05,1,,,,,ヤナギハラショウカイ,0
2112,9012801008591,登記記録の閉鎖等,0,2025-04-24,2025-04-04,株式会社エアリー,,株式会社,東京都,港区,赤坂１丁目１２番３２号,,13,103,1070052,,,2025-04-04,合併による解散等,1010401045518,令和７年４月１日東京都港区赤坂一丁目１２番３２号株式会社じゃねっと（1010401045518）に合併し解散,2015-10-05,1,,,,,エアリー,0
2118,9013401004353,登記記録の閉鎖等,0,2025-04-24,2025-04-10,ヒノックス商事株式会社,,株式会社,東京都,日野市,日野台４丁目１６番地の１３,,13,212,1910003,,,2025-04-10,清算の結了等,,,2015-10-05,1,,,,,ヒノックスショウジ,0
2120,9020001020540,登記記録の閉鎖等,0,2025-04-24,2025-04-09,株式会社シチダ,,株式会社,神奈川県,横浜市港北区,鳥山町５番地,,14,109,2220035,,,2025-04-09,清算の結了等,,,2015-10-05,1,,,,,シチダ,0
2134,9030001063150,登記記録の閉鎖等,0,2025-04-24,2025-04-18,株式会社ギャラクシーフォース,,株式会社,埼玉県,三郷市,半田６９５番地１２,,11,237,3410012,,,2025-04-18,清算の結了等,,,2015-10-05,1,,,,,ギャラクシーフォース,0
2147,9040001050180,登記記録の閉鎖等,0,2025-04-24,2025-04-08,株式会社北新,,株式会社,千葉県,千葉市中央区,都町５丁目３６番２５号,,12,101,2600001,,,2025-04-08,清算の結了等,,,2015-10-05,1,,,,,ホクシン,0
2148,9040001059924,登記記録の閉鎖等,0,2025-04-24,2025-04-08,株式会社ティディエイチハセガワ,,株式会社,千葉県,長生郡長生村,金田２２６９番地,,12,423,2994332,,,2025-04-08,清算の結了等,,,2015-10-05,1,,,,,ティディエイチハセガワ,0
2165,9050001019943,登記記録の閉鎖等,0,2025-04-24,2025-04-14,株式会社睦園,,株式会社,茨城県,つくば市,真瀬１２６９番地,,08,220,3002656,,,2025-04-14,清算の結了等,,,2015-10-05,1,,,,,ムツミエン,0
2170,9050002002601,登記記録の閉鎖等,0,2025-04-24,2025-04-14,有限会社花咲,,有限会社,茨城県,水戸市,梅香２丁目２番４２号,,08,201,3100022,,,2025-04-14,清算の結了等,,,2015-10-05,1,,,,,ハナサキ,0
2172,9050002016196,登記記録の閉鎖等,0,2025-04-24,2025-04-14,有限会社ロナーセイジ,,有限会社,茨城県,小美玉市,大笹４７０番地の１２,,08,236,3190137,,,2025-04-14,清算の結了等,,,2015-10-05,1,,,,,ロナーセイジ,0
2177,9070001015817,登記記録の閉鎖等,0,2025-04-24,2025-04-14,株式会社桐生葬車,,株式会社,群馬県,桐生市,相生町１丁目３１１番地３３,,10,203,3760011,,,2025-04-14,清算の結了等,,,2015-10-05,1,,,,,キリュウソウシャ,0
2179,9080402004269,登記記録の閉鎖等,0,2025-04-24,2025-04-15,有限会社鈴木縫製所,,有限会社,静岡県,浜松市中央区,三和町２１１番地,,22,138,4350038,,,2025-04-15,清算の結了等,,,2015-10-05,1,,,,,スズキホウセイジョ,0
2182,9120001017865,登記記録の閉鎖等,0,2025-04-24,2025-04-22,空井印刷株式会社,,株式会社,大阪府,大阪市生野区,勝山北１丁目１６番１５号,,27,116,5440033,,,2025-04-22,清算の結了等,,,2015-10-05,1,,,,,ソライインサツ,0
2183,9120001147274,登記記録の閉鎖等,0,2025-04-24,2025-04-23,赤井商事株式会社,,株式会社,大阪府,寝屋川市,春日町２７番１１号,,27,215,5720063,,,2025-04-23,清算の結了等,,,2015-10-05,1,,,,,アカイショウジ,0
2190,9120002037862,登記記録の閉鎖等,0,2025-04-24,2025-04-23,有限会社華,,有限会社,大阪府,大阪市中央区,石町１丁目１番１号,,27,128,5400033,,,2025-04-23,清算の結了等,,,2015-10-05,1,,,,,ハナ,0
2195,9120101047754,登記記録の閉鎖等,0,2025-04-24,2025-04-17,株式会社昇栄,,株式会社,大阪府,堺市東区,白鷺町２丁１１番９号,,27,143,5998107,,,2025-04-17,清算の結了等,,,2015-10-05,1,,,,,ショウエイ,0
2222,9180001038484,登記記録の閉鎖等,0,2025-04-24,2025-04-15,東海オートマチックス株式会社,,株式会社,愛知県,名古屋市中区,栄３丁目３４番１４号,,23,106,4600008,,,2025-04-15,合併による解散等,4180001038563,令和７年４月１日名古屋市中区栄三丁目３４番１４号東海エレクトロニクス株式会社（4180001038563）に合併し解散,2015-10-05,1,,,,,トウカイオートマチックス,0
2234,9200001032897,登記記録の閉鎖等,0,2025-04-24,2025-04-21,株式会社コウワ,,株式会社,岐阜県,大垣市,中曽根町１２０番地３,,21,202,5030986,,,2025-04-21,清算の結了等,,,2016-05-30,1,,,,,コウワ,0
2235,9200002012097,登記記録の閉鎖等,0,2025-04-24,2025-04-22,有限会社ミドルアイランド,,有限会社,岐阜県,羽島郡笠松町,円城寺１４３番地,,21,303,5016035,,,2025-04-22,清算の結了等,,,2015-10-05,1,,,,,ミドルアイランド,0
2237,9200005004637,登記記録の閉鎖等,0,2025-04-24,2025-04-14,宝池院,,その他の設立登記法人,岐阜県,大垣市,青柳町１丁目１０番地１,,21,202,5030961,,,2025-04-14,清算の結了等,,,2015-10-05,1,,,,,ホウチイン,0
2247,9240002006657,登記記録の閉鎖等,0,2025-04-24,2025-04-22,有限会社迫工務店,,有限会社,広島県,広島市佐伯区,五日市町大字石内４１４２番地,,34,108,7315102,,,2025-04-22,清算の結了等,,,2015-10-05,1,,,,,サココウムテン,0
2252,9250002013834,登記記録の閉鎖等,0,2025-04-24,2025-04-22,有限会社宮本企画,,有限会社,山口県,長門市,仙崎字西祇園１３３６番地の６,,35,211,7594106,,,2025-04-22,清算の結了等,,,2015-10-05,1,,,,,ミヤモトキカク,0
2264,9260005003708,登記記録の閉鎖等,0,2025-04-24,2025-04-10,医療法人浅野産婦人科,,その他の設立登記法人,岡山県,倉敷市,玉島爪崎６２２番地２,,33,202,7100252,,,2025-04-10,清算の結了等,,,2015-10-05,1,,,,,アサノサンフジンカ,0
2292,9390001011593,登記記録の閉鎖等,0,2025-04-24,2025-04-11,株式会社冨樫建設,,株式会社,山形県,米沢市,大字花沢６０９番地の２,,06,202,9920021,,,2025-04-11,清算の結了等,,,2015-10-05,1,,,,,トガシケンセツ,0
2296,9400002000362,登記記録の閉鎖等,0,2025-04-24,2025-04-07,有限会社伊勢通信,,有限会社,岩手県,盛岡市,前九年３丁目２６番２５号,,03,201,0200127,,,2025-04-07,清算の結了等,,,2015-10-05,1,,,,,イセツウシン,0
