sequenceNumber,corporateNumber,process,correct,updateDate,changeDate,name,nameImageId,kind,prefectureName,cityName,streetNumber,addressImageId,prefectureCode,cityCode,postCode,addressOutside,addressOutsideImageId,closeDate,closeCause,successorCorporateNumber,changeCause,assignmentDate,latest,enName,enPrefectureName,enCityName,enAddressOutside,furigana,hihyoji
20,1010401057562,登記記録の閉鎖等,0,2021-08-12,2021-07-29,株式会社成田ジャパンビレッジ,,株式会社,東京都,港区,西新橋１丁目２０番３号,,13,103,1050003,,,2021-07-29,清算の結了等,,,2015-10-05,1,,,,,ナリタジャパンビレッジ,0
21,1010401081884,登記記録の閉鎖等,0,2021-08-12,2021-07-29,ニューリアックス・クリエイティブマーケティング株式会社,,株式会社,東京都,港区,北青山３丁目１２番７号－１２０７号,,13,103,1070061,,,2021-07-29,清算の結了等,,,2015-10-05,1,,,,,,0
35,1010701019758,登記記録の閉鎖等,0,2021-08-12,2021-08-10,株式会社モスダイニング,,株式会社,東京都,品川区,大崎２丁目１番１号,,13,109,1410032,,,2021-08-10,清算の結了等,,,2015-10-05,1,,,,,モスダイニング,0
36,1010801026308,登記記録の閉鎖等,0,2021-08-12,2021-07-21,馬込システム開発株式会社,,株式会社,東京都,目黒区,東山１丁目６番５－４１０号,,13,110,1530043,,,2021-07-21,清算の結了等,,,2016-01-06,1,,,,,マゴメシステムカイハツ,0
37,1010901026926,登記記録の閉鎖等,0,2021-08-12,2021-08-05,株式会社Ｆｒｅｅｚｏ,,株式会社,東京都,世田谷区,太子堂４丁目１０番１３号,,13,112,1540004,,,2021-08-05,清算の結了等,,,2015-10-05,1,,,,,フリーゾ,0
39,1010901029490,登記記録の閉鎖等,0,2021-08-12,2021-08-02,株式会社ヌーヴェルヴァーグ,,株式会社,東京都,世田谷区,野沢４丁目２１番１３号,,13,112,1540003,,,2021-08-02,合併による解散等,8010901029055,令和３年８月１日東京都世田谷区野沢四丁目２１番１３号株式会社ヌーヴェルヴァーグ（8010901029055）に合併し解散,2015-10-05,1,,,,,ヌーヴェルヴァーグ,0
54,1011103006510,登記記録の閉鎖等,0,2021-08-12,2021-07-30,合同会社ＹＳ企画,,合同会社,東京都,台東区,台東４丁目２９番１３－８０２号,,13,106,1100016,,,2021-07-30,清算の結了等,,,2016-09-08,1,,,,,ワイエスキカク,0
79,1020001027849,登記記録の閉鎖等,0,2021-08-12,2021-08-02,東洋設備工業株式会社,,株式会社,神奈川県,横浜市中区,西竹之丸９６番地,,14,104,2310852,,,2021-08-02,清算の結了等,,,2015-10-05,1,,,,,トウヨウセツビコウギョウ,0
99,1021003003648,登記記録の閉鎖等,0,2021-08-12,2021-08-03,合同会社フジ,,合同会社,神奈川県,南足柄市,沼田３９４番地３オークレイコートⅠ－２０１,00014108,14,217,2500115,,,2021-08-03,清算の結了等,,,2015-10-05,1,,,,,フジ,0
112,1040001020067,登記記録の閉鎖等,0,2021-08-12,2021-07-28,大洋部品商工株式会社,,株式会社,千葉県,船橋市,潮見町３４番地１,,12,204,2730016,,,2021-07-28,清算の結了等,,,2015-10-05,1,,,,,タイヨウブヒンショウコウ,0
123,1050002009439,登記記録の閉鎖等,0,2021-08-12,2021-08-04,有限会社ブルーマウンテン,,有限会社,茨城県,ひたちなか市,八幡町９番１号,,08,221,3111228,,,2021-08-04,清算の結了等,,,2015-10-05,1,,,,,ブルーマウンテン,0
131,1080102003058,登記記録の閉鎖等,0,2021-08-12,2021-08-06,有限会社ブン,,有限会社,静岡県,沼津市,共栄町２１番地の４,,22,203,4100064,,,2021-08-06,清算の結了等,,,2015-10-05,1,,,,,,0
137,1110002002577,登記記録の閉鎖等,0,2021-08-12,2021-08-05,有限会社佐藤正男薬局,,有限会社,新潟県,新潟市西区,内野町５４６番地,,15,107,9502112,,,2021-08-05,清算の結了等,,,2015-10-05,1,,,,,サトウマサオヤッキョク,0
179,1180001061436,登記記録の閉鎖等,0,2021-08-12,2021-08-05,株式会社Ｋ・Ａ・Ｋ,,株式会社,愛知県,名古屋市守山区,苗代２丁目４番２７号,,23,113,4630046,,,2021-08-05,清算の結了等,,,2015-10-05,1,,,,,ケーエーケー,0
181,1180002013535,登記記録の閉鎖等,0,2021-08-12,2021-08-05,有限会社カニエ機工,,有限会社,愛知県,名古屋市南区,観音町８丁目９番地,,23,112,4570845,,,2021-08-05,清算の結了等,,,2015-10-05,1,,,,,カニエキコウ,0
182,1180002068827,登記記録の閉鎖等,0,2021-08-12,2021-08-05,有限会社川上建工,,有限会社,愛知県,小牧市,大字小牧原新田１２６０番地の８,,23,219,4850012,,,2021-08-05,清算の結了等,,,2015-10-05,1,,,,,カワカミケンコウ,0
201,1220001005421,登記記録の閉鎖等,0,2021-08-12,2021-08-02,株式会社原屋,,株式会社,石川県,金沢市,西念４丁目１９番１２号,,17,201,9200024,,,2021-08-02,清算の結了等,,,2015-10-05,1,,,,,ハラヤ,0
207,1220002014719,登記記録の閉鎖等,0,2021-08-12,2021-07-30,有限会社篠田板金工業,,有限会社,石川県,羽咋市,大川町北新１８番地,,17,207,9250015,,,2021-07-30,清算の結了等,,,2015-10-05,1,,,,,シノダバンキンコウギョウ,0
216,1240002031737,登記記録の閉鎖等,0,2021-08-12,2021-07-28,有限会社おおはし,,有限会社,広島県,庄原市,東城町小奴可２３６番地,,34,210,7295501,,,2021-07-28,清算の結了等,,,2015-10-05,1,,,,,オオハシ,0
229,1310002003530,登記記録の閉鎖等,0,2021-08-12,2021-08-10,有限会社徳勝商事,,有限会社,長崎県,西彼杵郡長与町,嬉里郷１２７番地１１,,42,307,8512128,,,2021-08-10,清算の結了等,,,2015-10-05,1,,,,,トクカツショウジ,0
237,1350002000516,登記記録の閉鎖等,0,2021-08-12,2021-08-10,有限会社魚八,,有限会社,宮崎県,宮崎市,神宮東２丁目３番４号,,45,201,8800056,,,2021-08-10,清算の結了等,,,2015-10-05,1,,,,,ウオハチ,0
238,1360001006975,登記記録の閉鎖等,0,2021-08-12,2021-08-02,株式会社ナックジャパン,,株式会社,沖縄県,中頭郡読谷村,字大木１３８番地１ＲｉＲａＨｏｕｓｅ３０３号,,47,324,9040316,,,2021-08-02,清算の結了等,,,2015-10-05,1,,,,,ナックジャパン,0
243,1360003009448,登記記録の閉鎖等,0,2021-08-12,2021-08-03,東豊ソリューションサービス合同会社,,合同会社,沖縄県,浦添市,仲西２丁目３番９号謝敷アパート３０１号室,,47,208,9012125,,,2021-08-03,清算の結了等,,,2019-04-03,1,,,,,トウホウソリューションサービス,0
256,1430002027261,登記記録の閉鎖等,0,2021-08-12,2021-07-30,有限会社アイビーパレス,,有限会社,北海道,札幌市中央区,南三条東１丁目１番地５,,01,101,0600053,,,2021-07-30,清算の結了等,,,2015-10-05,1,,,,,アイビーパレス,0
262,1470002004991,登記記録の閉鎖等,0,2021-08-12,2021-08-10,有限会社トリタニ建築,,有限会社,香川県,高松市,香川町寺井８９４番地８,,37,201,7611702,,,2021-08-10,清算の結了等,,,2015-10-05,1,,,,,トリタニケンチク,0
265,1480002010576,登記記録の閉鎖等,0,2021-08-12,2021-08-06,有限会社田渕,,有限会社,徳島県,鳴門市,撫養町北浜字宮の東１１８番地,,36,202,7720015,,,2021-08-06,清算の結了等,,,2015-10-05,1,,,,,タブチ,0
273,2010001164568,登記記録の閉鎖等,0,2021-08-12,2021-07-29,株式会社クラウドカスタマーサクセス,,株式会社,東京都,千代田区,神田錦町３丁目１７番地１１,,13,101,1010054,,,2021-07-29,清算の結了等,,,2015-10-05,1,,,,,クラウドカスタマーサクセス,0
297,2010602018833,登記記録の閉鎖等,0,2021-08-12,2021-07-26,有限会社コバヤシ電機商会,,有限会社,東京都,江東区,南砂３丁目８番１０号,,13,108,1360076,,,2021-07-26,清算の結了等,,,2015-10-05,1,,,,,コバヤシデンキショウカイ,0
298,2010602033873,登記記録の閉鎖等,0,2021-08-12,2021-07-26,有限会社ハイデックス,,有限会社,東京都,墨田区,八広６丁目５２番１６号,,13,107,1310041,,,2021-07-26,清算の結了等,,,2015-10-05,1,,,,,ハイデックス,0
301,2010801026190,登記記録の閉鎖等,0,2021-08-12,2021-08-02,株式会社上池薬局,,株式会社,東京都,大田区,上池台３丁目４５番３号,,13,111,1450064,,,2021-08-02,清算の結了等,,,2015-11-13,1,,,,,カミイケヤッキョク,0
302,2010802003643,登記記録の閉鎖等,0,2021-08-12,2021-08-04,有限会社金子園ビル,,有限会社,東京都,世田谷区,奥沢５丁目２２番５号,,13,112,1580083,,,2021-08-04,清算の結了等,,,2015-10-05,1,,,,,カネコエンビル,0
312,2011105007407,登記記録の閉鎖等,0,2021-08-12,2021-07-30,一般社団法人ＹＳ企画,,その他の設立登記法人,東京都,台東区,台東４丁目２９番１３－８０２号,,13,106,1100016,,,2021-07-30,清算の結了等,,,2016-09-08,1,,,,,ワイエスキカク,0
328,2012702002782,登記記録の閉鎖等,0,2021-08-12,2021-08-11,有限会社サナバイオ企画,,有限会社,東京都,東村山市,美住町１丁目１９番地３６,,13,213,1890023,,,2021-08-11,清算の結了等,,,2015-10-05,1,,,,,サナバイオキカク,0
340,2020001111610,登記記録の閉鎖等,0,2021-08-12,2021-08-02,株式会社カワサキ,,株式会社,神奈川県,川崎市中原区,新丸子東３丁目１１７８番地,,14,133,2110004,,,2021-08-02,合併による解散等,7020001069118,令和３年８月１日川崎市中原区新丸子東三丁目１１７８番地株式会社川崎バルブ（7020001069118）に合併し解散,2015-10-05,1,,,,,カワサキ,0
346,2020003015537,登記記録の閉鎖等,0,2021-08-12,2021-08-11,Ｔｅｓｔｉｎｇ　Ｃｅｎｔｅｒ　Ｔｅｃｈｎｏｌｏｇｙ　Ｊａｐａｎ合同会社,,合同会社,北海道,旭川市,東旭川南一条４丁目３番１５号オクトーバーハウス２０１,,01,204,0788261,,,2021-08-11,清算の結了等,,,2019-01-29,1,,,,,テスティングセンターテクノロジージャパン,0
352,2021001045591,登記記録の閉鎖等,0,2021-08-12,2021-08-04,株式会社スピードコーポレーション,,株式会社,神奈川県,愛甲郡愛川町,中津１０５１番１,,14,401,2430303,,,2021-08-04,清算の結了等,,,2015-10-05,1,,,,,スピードコーポレーション,0
357,2021002020734,登記記録の閉鎖等,0,2021-08-12,2021-08-02,有限会社サンテック,,有限会社,神奈川県,相模原市南区,麻溝台１５１９番地４,,14,153,2520328,,,2021-08-02,合併による解散等,7021001030853,令和３年８月１日神奈川県相模原市南区新磯野二丁目１番５号アネックス新磯野ビル４Ｆ共友電設株式会社（7021001030853）に合併し解散,2015-10-05,1,,,,,サンテック,0
358,2021002029288,登記記録の閉鎖等,0,2021-08-12,2021-08-02,有限会社石井モーターサービス,,有限会社,神奈川県,相模原市緑区,与瀬２２８６番地,,14,151,2520171,,,2021-08-02,清算の結了等,,,2015-10-05,1,,,,,イシイモーターサービス,0
381,2040002054996,登記記録の閉鎖等,0,2021-08-12,2021-08-03,有限会社カシマパーキング,,有限会社,千葉県,成田市,取香字宮下４６番地,,12,211,2860106,,,2021-08-03,清算の結了等,,,2015-10-05,1,,,,,カシマパーキング,0
388,2050001017986,登記記録の閉鎖等,0,2021-08-12,2021-08-04,株式会社クイスト,,株式会社,茨城県,稲敷郡美浦村,大字大谷１６３８番地１,,08,442,3000413,,,2021-08-04,清算の結了等,,,2015-10-05,1,,,,,クイスト,0
395,2060002015690,登記記録の閉鎖等,0,2021-08-12,2021-08-02,有限会社櫻井青果店,,有限会社,栃木県,日光市,匠町８番３３号,,09,206,3211433,,,2021-08-02,清算の結了等,,,2015-10-05,1,,,,,,0
402,2080102002067,登記記録の閉鎖等,0,2021-08-12,2021-08-10,有限会社創苑,,有限会社,静岡県,沼津市,東沢田３８０番地の２,,22,203,4100002,,,2021-08-10,清算の結了等,,,2015-10-05,1,,,,,ソウエン,0
405,2080402010298,登記記録の閉鎖等,0,2021-08-12,2021-08-10,有限会社ニューラーメンショップおおもり,,有限会社,静岡県,浜松市北区,細江町気賀２３６２－４０,,22,135,4311305,,,2021-08-10,清算の結了等,,,2015-10-05,1,,,,,ニューラーメンショップオオモリ,0
454,2140001051522,登記記録の閉鎖等,0,2021-08-12,2021-08-03,宮城観光株式会社,,株式会社,兵庫県,尼崎市,富松町２丁目２８番１８号,,28,202,6610003,,,2021-08-03,清算の結了等,,,2015-10-05,1,,,,,ミヤギカンコウ,0
468,2180003019571,登記記録の閉鎖等,0,2021-08-12,2021-08-05,Ｂｕｅｎａ　Ｖｉｓｔａ合同会社,,合同会社,愛知県,名古屋市守山区,大字下志段味字穴ケ洞２２７８番地１,,23,113,4630003,,,2021-08-05,清算の結了等,,,2019-01-08,1,,,,,ブエナヴィスタ,0
481,2210005005112,登記記録の閉鎖等,0,2021-08-12,2021-08-03,特定非営利活動法人在宅福祉サービスさわやかさかい,,その他の設立登記法人,福井県,坂井市,坂井町若宮第１４号５番地３３,,18,210,9190515,,,2021-08-03,清算の結了等,,,2015-10-05,1,,,,,ザイタクフクシサービスサワヤカサカイ,0
508,2310001008208,登記記録の閉鎖等,0,2021-08-12,2021-08-02,株式会社ヨシケン,,株式会社,長崎県,諫早市,久山町１４４２番地１,,42,204,8540066,,,2021-08-02,合併による解散等,2310002017307,令和３年８月１日長崎県諫早市久山町１４４２番地１株式会社優奈（2310002017307）に合併し解散,2015-10-05,1,,,,,ヨシケン,0
529,2360005004009,登記記録の閉鎖等,0,2021-08-12,2021-08-02,医療法人社団寺本耳鼻咽喉科医院,,その他の設立登記法人,沖縄県,うるま市,勝連平安名１６５５－１,,47,213,9042312,,,2021-08-02,清算の結了等,,,2015-10-05,1,,,,,テラモトジビインコウカイイン,0
530,2370001011255,登記記録の閉鎖等,0,2021-08-12,2021-08-06,東北共和メンテナンス株式会社,,株式会社,宮城県,仙台市青葉区,立町１番３号,,04,101,9800822,,,2021-08-06,合併による解散等,2010701002696,令和３年８月１日東京都品川区西五反田七丁目２５番１９号共和メンテナンス株式会社（2010701002696）に合併し解散,2015-10-05,1,,,,,トウホクキョウワメンテナンス,0
534,2370002006766,登記記録の閉鎖等,0,2021-08-12,2021-08-02,有限会社ウインウインコーポレーション,,有限会社,宮城県,仙台市宮城野区,原町３丁目１－１ＢＧビル１階Ａ室,,04,102,9830841,,,2021-08-02,清算の結了等,,,2015-10-05,1,,,,,ウインウインコーポレーション,0
542,2380001006782,登記記録の閉鎖等,0,2021-08-12,2021-08-04,株式会社盟旺産業,,株式会社,福島県,郡山市,菜根１丁目７番６号,,07,203,9638862,,,2021-08-04,清算の結了等,,,2015-10-05,1,,,,,,0
549,2410002008171,登記記録の閉鎖等,0,2021-08-12,2021-08-04,有限会社秋田しゃぼん高𣘺,00086696,有限会社,秋田県,湯沢市,字万石２４２番地（よねやＳＣ内）,,05,207,0120043,,,2021-08-04,清算の結了等,,,2015-10-05,1,,,,,アキタシャボンタカハシ,0
550,2430001026370,登記記録の閉鎖等,0,2021-08-12,2021-08-02,株式会社アポロエナジー新琴似,,株式会社,北海道,札幌市北区,新琴似十条１７丁目１番２０号,,01,102,0010910,,,2021-08-02,合併による解散等,4430001019694,令和３年８月１日札幌市中央区南五条西十丁目１０１５番地札幌アポロ株式会社（4430001019694）に合併し解散,2015-10-05,1,,,,,アポロエナジーシンコトニ,0
566,2480002015293,登記記録の閉鎖等,0,2021-08-12,2021-08-10,有限会社訪問介護つくし,,有限会社,徳島県,美馬市,脇町字段１６３番地２,,36,207,7793639,,,2021-08-10,清算の結了等,,,2015-10-05,1,,,,,ホウモンカイゴツクシ,0
596,3010405014574,登記記録の閉鎖等,0,2021-08-12,2021-08-10,一般社団法人ＧＬＣ,,その他の設立登記法人,東京都,港区,北青山２丁目５番１号,,13,103,1070061,,,2021-08-10,清算の結了等,,,2016-02-18,1,,,,,ジーエルシー,0
613,3011001099423,登記記録の閉鎖等,0,2021-08-12,2021-07-12,Ｋａｐｌａｎ　Ｊａｐａｎ株式会社,,株式会社,東京都,渋谷区,渋谷２丁目２番２号,,13,113,1500002,,,2021-07-12,清算の結了等,,,2015-10-05,1,,,,,カプランジャパン,0
625,3011302007150,登記記録の閉鎖等,0,2021-08-12,2021-08-04,有限会社昇商事,,有限会社,東京都,杉並区,西荻南３丁目４番６号,,13,115,1670053,,,2021-08-04,清算の結了等,,,2015-10-05,1,,,,,ノボルショウジ,0
635,3011602003972,登記記録の閉鎖等,0,2021-08-12,2021-08-05,有限会社新宿丸全運輸,,有限会社,東京都,練馬区,石神井台８丁目４番２０号,,13,120,1770045,,,2021-08-05,清算の結了等,,,2015-10-05,1,,,,,,0
645,3020001025025,登記記録の閉鎖等,0,2021-08-12,2021-08-03,株式会社アイ・ティー・シー・エー,,株式会社,神奈川県,横浜市神奈川区,山内町１５番地４,,14,102,2210054,,,2021-08-03,清算の結了等,,,2015-10-05,1,,,,,アイティーシーエー,0
651,3020003010966,登記記録の閉鎖等,0,2021-08-12,2021-08-03,合同会社トラスト,,合同会社,神奈川県,横浜市港南区,港南３丁目２番２１号,,14,111,2330003,,,2021-08-03,清算の結了等,,,2016-02-18,1,,,,,トラスト,0
659,3021001054253,登記記録の閉鎖等,0,2021-08-12,2021-08-03,株式会社ＤＯＲＫ,,株式会社,神奈川県,茅ヶ崎市,幸町２番１８号武藤ビル１階,,14,207,2530052,,,2021-08-03,清算の結了等,,,2015-10-05,1,,,,,,0
672,3030001001883,登記記録の閉鎖等,0,2021-08-12,2021-08-02,株式会社勝美商会,,株式会社,埼玉県,さいたま市中央区,新中里１丁目２番１号,,11,105,3380011,,,2021-08-02,清算の結了等,,,2015-10-05,1,,,,,カツミショウカイ,0
678,3030002063238,登記記録の閉鎖等,0,2021-08-12,2021-07-29,有限会社新成社,,有限会社,埼玉県,富士見市,鶴瀬西３丁目９番３５号,,11,235,3540026,,,2021-07-29,清算の結了等,,,2015-10-05,1,,,,,,0
681,3040001049187,登記記録の閉鎖等,0,2021-08-12,2021-08-02,さとう運輸株式会社,,株式会社,千葉県,八街市,大木６７１番地３１４,,12,230,2891111,,,2021-08-02,清算の結了等,,,2015-10-05,1,,,,,サトウウンユ,0
701,3080101018773,登記記録の閉鎖等,0,2021-08-12,2021-08-02,株式会社ステイファン,,株式会社,静岡県,静岡市清水区,春日１丁目２番１２号,,22,103,4240842,,,2021-08-02,合併による解散等,8080001019553,令和３年７月３０日静岡市清水区春日一丁目２番１２号ホクサン交易株式会社（8080001019553）に合併し解散,2015-12-01,1,,,,,ステイファン,0
702,3080102008625,登記記録の閉鎖等,0,2021-08-12,2021-08-10,有限会社星谷商店,,有限会社,静岡県,伊豆市,熊坂２４７番地,,22,222,4102411,,,2021-08-10,清算の結了等,,,2015-10-05,1,,,,,ホシヤショウテン,0
704,3100005001410,登記記録の閉鎖等,0,2021-08-12,2021-08-04,長野県農薬協同組合,,その他の設立登記法人,長野県,長野市,大字栗田９９５番地１,,20,201,3800921,,,2021-08-04,清算の結了等,,,2015-10-05,1,,,,,ナガノケンノウヤク,0
709,3110005007992,登記記録の閉鎖等,0,2021-08-12,2021-08-04,農事組合法人土沢生産組合,,その他の設立登記法人,新潟県,岩船郡関川村,大字土沢６２８番地７,,15,581,9593200,,,2021-08-04,清算の結了等,,,2015-10-05,1,,,,,ツチサワセイサンクミアイ,0
716,3120001115815,登記記録の閉鎖等,0,2021-08-12,2021-08-02,株式会社フジフラワーサービス,,株式会社,大阪府,大阪市鶴見区,安田４丁目８番１５号,,27,124,5380032,,,2021-08-02,合併による解散等,9120001001555,令和３年８月１日大阪市鶴見区安田四丁目８番１５号株式会社エフ・ユウ（9120001001555）に合併し解散,2015-10-05,1,,,,,フジフラワーサービス,0
728,3120002013183,登記記録の閉鎖等,0,2021-08-12,2021-08-02,有限会社第一孔版,,有限会社,大阪府,大阪市天王寺区,東上町９番２０号,,27,109,5430026,,,2021-08-02,清算の結了等,,,2015-10-05,1,,,,,ダイイチコウハン,0
735,3120102026102,登記記録の閉鎖等,0,2021-08-12,2021-08-05,株式会社ロイヤルオーキッド,,株式会社,大阪府,泉大津市,小津島町４番地泉大津フラワーセンター,,27,206,5950074,,,2021-08-05,清算の結了等,,,2015-10-05,1,,,,,ロイヤルオーキッド,0
737,3122001005021,登記記録の閉鎖等,0,2021-08-12,2021-08-05,中央トーヨー株式会社,,株式会社,大阪府,東大阪市,森河内東１丁目４番２９号,,27,227,5770062,,,2021-08-05,清算の結了等,,,2015-10-05,1,,,,,チュウオウトーヨー,0
738,3122001006944,登記記録の閉鎖等,0,2021-08-12,2021-08-06,株式会社堀部紙器,,株式会社,大阪府,東大阪市,西堤本通西２丁目１番３２号,,27,227,5770046,,,2021-08-06,清算の結了等,,,2015-10-05,1,,,,,ホリベシキ,0
743,3140001031820,登記記録の閉鎖等,0,2021-08-12,2021-08-03,ＦＣビジネスサービス株式会社,,株式会社,大阪府,大阪市中央区,瓦町２丁目３番１０号,,27,128,5410048,,,2021-08-03,合併による解散等,2120001129865,令和３年８月１日大阪市中央区瓦町二丁目３番１０号株式会社ＦＣパートナーズ（2120001129865）に合併し解散,2015-10-05,1,,,,,エフシービジネスサービス,0
756,3160002009384,登記記録の閉鎖等,0,2021-08-12,2021-08-06,有限会社浦田工務店,,有限会社,滋賀県,蒲生郡日野町,松尾３丁目３番１号,,25,383,5291601,,,2021-08-06,清算の結了等,,,2015-10-05,1,,,,,ウラタコウムテン,0
762,3180001064998,登記記録の閉鎖等,0,2021-08-12,2021-08-10,株式会社本條総合事務所,,株式会社,三重県,四日市市,清水町５番６号,,24,202,5100814,,,2021-08-10,清算の結了等,,,2015-10-05,1,,,,,ホンジョウソウゴウジムショ,0
772,3180002045832,登記記録の閉鎖等,0,2021-08-12,2021-08-06,有限会社アロウズ,,有限会社,愛知県,名古屋市南区,内田橋２丁目８番５号,,23,112,4570862,,,2021-08-06,清算の結了等,,,2015-10-05,1,,,,,アロウズ,0
776,3180301004695,登記記録の閉鎖等,0,2021-08-12,2021-08-10,ダイレクトコンサル株式会社,,株式会社,愛知県,岡崎市,鴨田本町２０番地３,,23,202,4442122,,,2021-08-10,清算の結了等,,,2015-10-05,1,,,,,ダイレクトコンサル,0
785,3220001018537,登記記録の閉鎖等,0,2021-08-12,2021-08-03,株式会社太陽光システム,,株式会社,石川県,金沢市,二口町ニ９５番地１,,17,201,9200051,,,2021-08-03,清算の結了等,,,2015-10-05,1,,,,,タイヨウコウシステム,0
791,3230002007109,登記記録の閉鎖等,0,2021-08-12,2021-08-02,有限会社タカラビューテーコーナー,,有限会社,富山県,富山市,常盤町１番１３号,,16,201,9300047,,,2021-08-02,清算の結了等,,,2015-10-05,1,,,,,タカラビューテーコーナー,0
813,3290001033348,登記記録の閉鎖等,0,2021-08-12,2021-08-06,九州共和メンテナンス株式会社,,株式会社,福岡県,糸島市,加布里４丁目２番１２号,,40,230,8191124,,,2021-08-06,合併による解散等,2010701002696,令和３年８月１日東京都品川区西五反田七丁目２５番１９号共和メンテナンス株式会社（2010701002696）に合併し解散,2015-10-05,1,,,,,キュウシュウキョウワメンテナンス,0
816,3290001054237,登記記録の閉鎖等,0,2021-08-12,2021-08-05,株式会社ランド・クリエイティブ,,株式会社,福岡県,大牟田市,四山町８０番７０,,40,202,8360067,,,2021-08-05,合併による解散等,7180001019940,令和３年８月１日名古屋市中川区柳森町１０７番地太洋基礎工業株式会社（7180001019940）に合併し解散,2015-10-05,1,,,,,ランドクリエイティブ,0
825,3330001005466,登記記録の閉鎖等,0,2021-08-12,2021-08-03,株式会社久保園パール,,株式会社,熊本県,熊本市東区,戸島１丁目８番９４号,,43,102,8618041,,,2021-08-03,清算の結了等,,,2015-10-05,1,,,,,クボゾノパール,0
832,3350002001479,登記記録の閉鎖等,0,2021-08-12,2021-08-10,有限会社福永興業,,有限会社,宮崎県,宮崎市,田野町甲３４４０番地１,,45,201,8891701,,,2021-08-10,清算の結了等,,,2015-10-05,1,,,,,フクナガコウギョウ,0
854,3390001008083,登記記録の閉鎖等,0,2021-08-12,2021-08-04,ふじの里振興株式会社,,株式会社,山形県,鶴岡市,長沼字宮前２６６番地１,,06,203,9997621,,,2021-08-04,清算の結了等,,,2015-10-05,1,,,,,フジノサトシンコウ,0
870,3430002044197,登記記録の閉鎖等,0,2021-08-12,2021-07-30,有限会社アース設計,,有限会社,北海道,北広島市,東共栄３丁目３番地１５,,01,234,0611114,,,2021-07-30,清算の結了等,,,2015-10-05,1,,,,,アースセッケイ,0
871,3430002048396,登記記録の閉鎖等,0,2021-08-12,2021-08-10,有限会社山田商店,,有限会社,北海道,千歳市,清水町３丁目１５番地,,01,224,0660041,,,2021-08-10,清算の結了等,,,2015-10-05,1,,,,,,0
880,3500001011265,登記記録の閉鎖等,0,2021-08-12,2021-08-10,株式会社ジャイロ,,株式会社,愛媛県,今治市,朝倉下甲５４番地,,38,202,7991603,,,2021-08-10,清算の結了等,,,2015-10-05,1,,,,,ジャイロ,0
882,3500001019449,登記記録の閉鎖等,0,2021-08-12,2021-08-10,四国中央人材センター株式会社,,株式会社,愛媛県,四国中央市,寒川町３１３５番地,,38,213,7990431,,,2021-08-10,清算の結了等,,,2015-11-18,1,,,,,シコクチュウオウジンザイセンター,0
886,3500005004612,登記記録の閉鎖等,0,2021-08-12,2021-08-06,農事組合法人福みのり組合,,その他の設立登記法人,愛媛県,西条市,福成寺３５５番地２,,38,206,7991316,,,2021-08-06,清算の結了等,,,2015-10-05,1,,,,,フクミノリクミアイ,0
889,4010001070970,登記記録の閉鎖等,0,2021-08-12,2021-07-30,株式会社サンシャイン,,株式会社,東京都,中央区,東日本橋２丁目１番１０号,,13,102,1030004,,,2021-07-30,清算の結了等,,,2015-10-05,1,,,,,サンシャイン,0
891,4010001119470,登記記録の閉鎖等,0,2021-08-12,2021-07-29,株式会社タミーズ本舗,,株式会社,東京都,文京区,本郷１丁目２８番２９号,,13,105,1130033,,,2021-07-29,清算の結了等,,,2015-10-05,1,,,,,タミーズホンポ,0
972,4021002071577,登記記録の閉鎖等,0,2021-08-12,2021-08-02,有限会社數金造船所,,有限会社,神奈川県,三浦市,三崎町城ケ島３３７番地,,14,210,2380237,,,2021-08-02,合併による解散等,7021001054836,令和３年８月１日神奈川県三浦市三崎町城ヶ島３３７番地株式会社城ヶ島（7021001054836）に合併し解散,2015-10-05,1,,,,,スガネゾウセンジョ,0
979,4030001071926,登記記録の閉鎖等,0,2021-08-12,2021-07-28,株式会社アネスティー,,株式会社,埼玉県,東松山市,松葉町３丁目２番１４号,,11,212,3550017,,,2021-07-28,清算の結了等,,,2015-10-05,1,,,,,アネスティー,0
1002,4060001026555,登記記録の閉鎖等,0,2021-08-12,2021-08-02,株式会社ネイビーバンド,,株式会社,栃木県,河内郡上三川町,大字上蒲生２００６番地３,,09,301,3290617,,,2021-08-02,清算の結了等,,,2015-10-05,1,,,,,ネイビーバンド,0
1005,4070001033880,登記記録の閉鎖等,0,2021-08-12,2021-08-10,株式会社オールテック,,株式会社,群馬県,北群馬郡吉岡町,大字北下５７７番地１,,10,345,3703605,,,2021-08-10,清算の結了等,,,2017-08-28,1,,,,,オールテック,0
1007,4070002031231,登記記録の閉鎖等,0,2021-08-12,2021-08-06,有限会社メディアテック,,有限会社,群馬県,太田市,宝町１７４番地８,,10,205,3730042,,,2021-08-06,清算の結了等,,,2015-10-05,1,,,,,メディアテック,0
1017,4110002023983,登記記録の閉鎖等,0,2021-08-12,2021-08-03,有限会社山本商会,,有限会社,新潟県,上越市,柿崎区坂田新田７０５番地,,15,222,9493254,,,2021-08-03,清算の結了等,,,2015-10-05,1,,,,,ヤマモトショウカイ,0
1018,4110002033280,登記記録の閉鎖等,0,2021-08-12,2021-08-04,北陸警備保障有限会社,,有限会社,新潟県,南魚沼市,二日町４８２番地１,,15,226,9496772,,,2021-08-04,清算の結了等,,,2015-10-05,1,,,,,ホクリクケイビホショウ,0
1019,4110005016167,登記記録の閉鎖等,0,2021-08-12,2021-08-05,特定非営利活動法人オンリーワン,,その他の設立登記法人,新潟県,新潟市東区,牡丹山２丁目３番７号,,15,102,9500872,,,2021-08-05,清算の結了等,,,2017-11-09,1,,,,,オンリーワン,0
1020,4120001001650,登記記録の閉鎖等,0,2021-08-12,2021-07-30,株式会社風物語,,株式会社,大阪府,守口市,馬場町３丁目１４番１６号,,27,209,5700062,,,2021-07-30,清算の結了等,,,2015-10-05,1,,,,,,0
1024,4120001085520,登記記録の閉鎖等,0,2021-08-12,2021-07-30,東洋ライフ株式会社,,株式会社,大阪府,大阪市中央区,南船場１丁目１４番６号２階,,27,128,5420081,,,2021-07-30,清算の結了等,,,2015-10-05,1,,,,,,0
1026,4120001100758,登記記録の閉鎖等,0,2021-08-12,2021-08-02,株式会社新日本翻訳センター,,株式会社,大阪府,大阪市中央区,大手前１丁目６番４号リップル天満橋ビル４Ｆ,,27,128,5400008,,,2021-08-02,清算の結了等,,,2015-10-05,1,,,,,,0
1038,4120002048740,登記記録の閉鎖等,0,2021-08-12,2021-08-02,有限会社ストリーム,,有限会社,大阪府,大阪市北区,天満３丁目４番１２－１０１号,,27,127,5300043,,,2021-08-02,清算の結了等,,,2015-10-05,1,,,,,,0
1041,4120101032249,登記記録の閉鎖等,0,2021-08-12,2021-08-06,株式会社大照電機,,株式会社,大阪府,羽曳野市,駒ケ谷６０４番地,,27,222,5830841,,,2021-08-06,清算の結了等,,,2015-10-05,1,,,,,ダイショウデンキ,0
1045,4120102026480,登記記録の閉鎖等,0,2021-08-12,2021-08-06,有限会社成陽工業,,有限会社,大阪府,和泉市,伏屋町３丁目３２番４４号,,27,219,5940031,,,2021-08-06,清算の結了等,,,2015-10-05,1,,,,,セイヨウコウギョウ,0
1055,4140001111175,登記記録の閉鎖等,0,2021-08-12,2021-08-02,株式会社もじパラ,,株式会社,兵庫県,神戸市西区,大津和１丁目３番地の２１,,28,111,6512112,,,2021-08-02,合併による解散等,8140001037078,令和３年７月３１日神戸市西区大津和一丁目３番地の２１株式会社アイビズ（8140001037078）に合併し解散,2018-09-10,1,,,,,モジパラ,0
1059,4140002044110,登記記録の閉鎖等,0,2021-08-12,2021-08-03,有限会社アールシーステージリフォーム,,有限会社,兵庫県,尼崎市,武庫町２丁目８番５号,,28,202,6610044,,,2021-08-03,清算の結了等,,,2015-10-05,1,,,,,アールシーステージリフォーム,0
1067,4180001012824,登記記録の閉鎖等,0,2021-08-12,2021-08-05,東海産機株式会社,,株式会社,愛知県,名古屋市北区,西味鋺５丁目８０４番地,,23,103,4620016,,,2021-08-05,清算の結了等,,,2015-10-05,1,,,,,,0
1077,4180001138909,登記記録の閉鎖等,0,2021-08-12,2021-08-04,株式会社ビユウ工務店,,株式会社,愛知県,名古屋市瑞穂区,宝田町１丁目１９番地,,23,108,4670866,,,2021-08-04,清算の結了等,,,2019-11-18,1,,,,,,0
1098,4250003002774,登記記録の閉鎖等,0,2021-08-12,2021-08-06,合同会社ｍａＳｅｎ・ｔａ,,合同会社,山口県,山口市,吉敷佐畑２丁目１番１１号,,35,203,7530816,,,2021-08-06,清算の結了等,,,2021-02-09,1,,,,,マゼンタ,0
1101,4280005004436,登記記録の閉鎖等,0,2021-08-12,2021-08-10,協同組合ネット石央,,その他の設立登記法人,島根県,浜田市,長浜町７０３番地１,,32,202,6970063,,,2021-08-10,清算の結了等,,,2015-10-05,1,,,,,ネットセキオウ,0
1109,4290801019388,登記記録の閉鎖等,0,2021-08-12,2021-08-02,日本健康食住株式会社,,株式会社,福岡県,北九州市若松区,古前２丁目１番２８号,,40,103,8080062,,,2021-08-02,合併による解散等,7290803001829,令和３年７月３１日北九州市若松区古前二丁目１番２８号友愛合同会社（7290803001829）に合併し解散,2015-10-05,1,,,,,ニホンケンコウショクジュウ,0
1112,4300002005483,登記記録の閉鎖等,0,2021-08-12,2021-07-29,有限会社まちの薬局,,有限会社,佐賀県,小城市,小城町畑田２６８７番地４,,41,208,8450002,,,2021-07-29,清算の結了等,,,2015-10-05,1,,,,,マチノヤッキョク,0
1156,4480002014847,登記記録の閉鎖等,0,2021-08-12,2021-08-06,有限会社高西建設,,有限会社,徳島県,美馬市,美馬町字小長谷端４０番地の１,,36,207,7712104,,,2021-08-06,清算の結了等,,,2015-10-05,1,,,,,タカニシケンセツ,0
1161,4500005004611,登記記録の閉鎖等,0,2021-08-12,2021-08-06,農事組合法人旦之上集団,,その他の設立登記法人,愛媛県,西条市,福成寺３５５番地２,,38,206,7991316,,,2021-08-06,清算の結了等,,,2015-10-05,1,,,,,ダンノウエシュウダン,0
1169,5010001194273,登記記録の閉鎖等,0,2021-08-12,2021-08-02,株式会社リンクス,,株式会社,大阪府,大阪市北区,角田町８番１号,,27,127,5300017,,,2021-08-02,合併による解散等,9120001219230,令和３年８月１日大阪市北区角田町８番１号株式会社エイチームフィナジー（9120001219230）に合併し解散,2018-08-21,1,,,,,リンクス,0
1191,5010601028483,登記記録の閉鎖等,0,2021-08-12,2021-08-10,株式会社エクサ,,株式会社,東京都,足立区,千住河原町５番５－４０８号,,13,121,1200037,,,2021-08-10,清算の結了等,,,2015-10-05,1,,,,,エクサ,0
1196,5010805002326,登記記録の閉鎖等,0,2021-08-12,2021-08-03,一般社団法人日本写真療法家協会,,その他の設立登記法人,東京都,大田区,久が原２丁目１１番２０－１０１号,,13,111,1460085,,,2021-08-03,清算の結了等,,,2016-02-09,1,,,,,,0
1202,5011101004669,登記記録の閉鎖等,0,2021-08-12,2021-08-02,株式会社カドマ,,株式会社,東京都,新宿区,新宿３丁目３０番８号,,13,104,1600022,,,2021-08-02,清算の結了等,,,2015-10-05,1,,,,,カドマ,0
1213,5011201022199,登記記録の閉鎖等,0,2021-08-12,2021-07-30,株式会社Ｂｅｎｅａｔｅ,,株式会社,東京都,中野区,松が丘２丁目１９番３３号,,13,114,1650024,,,2021-07-30,清算の結了等,,,2020-06-12,1,,,,,ベネエイト,0
1227,5012401021478,登記記録の閉鎖等,0,2021-08-12,2021-07-30,株式会社パーシモンミュージック,,株式会社,埼玉県,さいたま市西区,大字指扇３６５８番地５０６,,11,101,3310047,,,2021-07-30,清算の結了等,,,2015-10-05,1,,,,,パーシモンミュージック,0
1235,5013305003141,登記記録の閉鎖等,0,2021-08-12,2021-07-29,一般社団法人花粉撲滅協会,,その他の設立登記法人,東京都,豊島区,北大塚２丁目１９番４号アメニティーヒル大塚４０１号,,13,116,1700004,,,2021-07-29,清算の結了等,,,2020-10-19,1,,,,,カフンボクメツキョウカイ,0
1252,5020002022424,登記記録の閉鎖等,0,2021-08-12,2021-08-03,有限会社ホクト開発,,有限会社,神奈川県,横浜市旭区,都岡町８０番地３,,14,112,2410805,,,2021-08-03,清算の結了等,,,2015-10-05,1,,,,,ホクトカイハツ,0
1255,5020003002268,登記記録の閉鎖等,0,2021-08-12,2021-08-02,合資会社ナガセ,,合資会社,神奈川県,横浜市南区,大岡３丁目２６番２６号,,14,105,2320061,,,2021-08-02,清算の結了等,,,2015-10-05,1,,,,,ナガセ,0
1264,5021002004313,登記記録の閉鎖等,0,2021-08-12,2021-08-03,有限会社富士見電気商会,,有限会社,神奈川県,藤沢市,辻堂２丁目２番７号,,14,205,2510047,,,2021-08-03,清算の結了等,,,2015-10-05,1,,,,,フジミデンキショウカイ,0
1281,5040001019444,登記記録の閉鎖等,0,2021-08-12,2021-08-02,株式会社ツカサ,,株式会社,千葉県,船橋市,葛飾町２丁目３８４番地１,,12,204,2730032,,,2021-08-02,清算の結了等,,,2015-10-05,1,,,,,ツカサ,0
1285,5040001090585,登記記録の閉鎖等,0,2021-08-12,2021-08-02,株式会社トップ・ケー,,株式会社,千葉県,野田市,清水６５４番地の１２,,12,208,2780043,,,2021-08-02,清算の結了等,,,2015-10-05,1,,,,,トップケー,0
1290,5050003000731,登記記録の閉鎖等,0,2021-08-12,2021-08-03,合同会社アルパカ,,合同会社,茨城県,水戸市,石川３丁目４１３４番３４号,,08,201,3100905,,,2021-08-03,清算の結了等,,,2015-10-05,1,,,,,アルパカ,0
1302,5080401004109,登記記録の閉鎖等,0,2021-08-12,2021-08-02,株式会社ゴーグル,,株式会社,静岡県,浜松市中区,成子町１７９番地,,22,131,4328035,,,2021-08-02,合併による解散等,8080402010078,令和３年８月１日静岡県浜松市中区天神町７番地の１５株式会社ゴーグル（8080402010078）に合併し解散,2015-10-05,1,,,,,ゴーグル,0
1321,5120001177374,登記記録の閉鎖等,0,2021-08-12,2021-08-02,サンエース株式会社九州,,株式会社,大阪府,大阪市北区,天満橋２丁目１番２号,,27,127,5300042,,,2021-08-02,合併による解散等,3120001064252,令和３年８月１日大阪市北区天満橋二丁目１番２号サンエース株式会社（3120001064252）に合併し解散,2015-10-05,1,,,,,サンエースキュウシュウ,0
1358,5140001069330,登記記録の閉鎖等,0,2021-08-12,2021-08-03,大洋鋼業株式会社,,株式会社,兵庫県,西宮市,上甲東園４丁目４番１５号,,28,204,6620813,,,2021-08-03,清算の結了等,,,2015-10-05,1,,,,,タイヨウコウギョウ,0
1371,5170002004894,登記記録の閉鎖等,0,2021-08-12,2021-08-11,有限会社日新産業,,有限会社,和歌山県,和歌山市,楠本３３７番地の４,,30,201,6496313,,,2021-08-11,清算の結了等,,,2015-10-05,1,,,,,,0
1372,5180001013747,登記記録の閉鎖等,0,2021-08-12,2021-08-05,株式会社矢沢科学,,株式会社,愛知県,名古屋市北区,清水２丁目１３番１７号,,23,103,4620844,,,2021-08-05,清算の結了等,,,2015-10-05,1,,,,,,0
1374,5180001017178,登記記録の閉鎖等,0,2021-08-12,2021-08-02,大成興業株式会社,,株式会社,愛知県,名古屋市東区,白壁３丁目３番７号,,23,102,4610011,,,2021-08-02,合併による解散等,8180001073508,令和３年７月３１日名古屋市東区白壁三丁目３番７号正起実業株式会社（8180001073508）に合併し解散,2015-10-05,1,,,,,タイセイコウギョウ,0
1378,5180001140459,登記記録の閉鎖等,0,2021-08-12,2021-08-06,ＣＨＳフードサービス株式会社,,株式会社,愛知県,東海市,富木島町前田面５番地の１東海シティホテル３Ｆ,,23,222,4760011,,,2021-08-06,清算の結了等,,,2020-04-02,1,,,,,シーエイチエスフードサービス,0
1406,5230002006307,登記記録の閉鎖等,0,2021-08-12,2021-08-02,有限会社松下電気工事,,有限会社,富山県,富山市,婦中町中名１６６３番地の６,,16,201,9392741,,,2021-08-02,清算の結了等,,,2015-10-05,1,,,,,マツシタデンキコウジ,0
1413,5240003003582,登記記録の閉鎖等,0,2021-08-12,2021-07-29,合同会社ＮＯＤＥ,,合同会社,広島県,広島市佐伯区,楽々園１丁目４番２６号,,34,108,7315136,,,2021-07-29,清算の結了等,,,2017-05-31,1,,,,,ノード,0
1416,5260001004688,登記記録の閉鎖等,0,2021-08-12,2021-08-11,株式会社東峰社,,株式会社,岡山県,加賀郡吉備中央町,吉川９３３番地４,,33,681,7161241,,,2021-08-11,清算の結了等,,,2015-10-05,1,,,,,トウホウシャ,0
1418,5260002020115,登記記録の閉鎖等,0,2021-08-12,2021-08-06,有限会社中村センイ,,有限会社,岡山県,倉敷市,児島赤崎４丁目１１番２４号,,33,202,7110931,,,2021-08-06,清算の結了等,,,2015-10-05,1,,,,,ナカムラセンイ,0
1434,5340002008184,登記記録の閉鎖等,0,2021-08-12,2021-07-30,有限会社福島畳店,,有限会社,鹿児島県,鹿児島市,上福元町６２４３番地,,46,201,8910116,,,2021-07-30,清算の結了等,,,2015-10-05,1,,,,,フクシマタタミテン,0
1445,5370003001961,登記記録の閉鎖等,0,2021-08-12,2021-07-26,七戸町卒古沢発電所合同会社,,合同会社,宮城県,仙台市青葉区,郷六字葛岡下４９番地の１２広瀬の杜１番館１０１,,04,101,9893121,,,2021-07-26,清算の結了等,,,2015-10-05,1,,,,,シチノヘマチソツコサワハツデンショ,0
1450,5390005000860,登記記録の閉鎖等,0,2021-08-12,2021-08-04,医療法人芳賀小児クリニック,,その他の設立登記法人,山形県,山形市,城西町４丁目１４番１２号,,06,201,9900832,,,2021-08-04,清算の結了等,,,2015-10-05,1,,,,,ハガショウニクリニック,0
1462,5430002023050,登記記録の閉鎖等,0,2021-08-12,2021-07-30,三和ビルサービス有限会社,,有限会社,北海道,札幌市北区,屯田二条５丁目１番３号,,01,102,0020852,,,2021-07-30,清算の結了等,,,2015-10-05,1,,,,,サンワビルサービス,0
1473,5490002005010,登記記録の閉鎖等,0,2021-08-12,2021-08-10,有限会社みちや印刷所,,有限会社,高知県,高知市,桟橋通２丁目９番３２号,,39,201,7808010,,,2021-08-10,清算の結了等,,,2015-10-05,1,,,,,ミチヤインサツショ,0
1474,5500001012014,登記記録の閉鎖等,0,2021-08-12,2021-08-10,株式会社とくしげ,,株式会社,愛媛県,今治市,旦甲４２１番地１,,38,202,7991536,,,2021-08-10,清算の結了等,,,2015-10-05,1,,,,,トクシゲ,0
1495,6010401140413,登記記録の閉鎖等,0,2021-08-12,2021-08-10,ＬＡＴＥＳＹＳ株式会社,,株式会社,東京都,港区,赤坂２丁目１１番７号ＡＴＴ新館１１階マザージャパン株式会社内,,13,103,1070052,,,2021-08-10,清算の結了等,,,2018-08-24,1,,,,,ラテシス,0
1502,6010502019366,登記記録の閉鎖等,0,2021-08-12,2021-07-30,有限会社日経孝文社,,有限会社,東京都,台東区,鳥越２丁目８番１４号,,13,106,1110054,,,2021-07-30,清算の結了等,,,2015-10-05,1,,,,,ニッケイコウブンシャ,0
1504,6010602023846,登記記録の閉鎖等,0,2021-08-12,2021-07-21,共実工業有限会社,,有限会社,東京都,江東区,大島４丁目１番３－６２０号,,13,108,1360072,,,2021-07-21,清算の結了等,,,2015-10-05,1,,,,,キョウジツコウギョウ,0
1517,6011001093893,登記記録の閉鎖等,0,2021-08-12,2021-07-28,株式会社グラムズ・カフェ,,株式会社,東京都,渋谷区,道玄坂２丁目１６番４号,,13,113,1500043,,,2021-07-28,清算の結了等,,,2015-10-05,1,,,,,グラムズカフェ,0
1531,6011801008134,登記記録の閉鎖等,0,2021-08-12,2021-08-11,株式会社サンゼット,,株式会社,東京都,足立区,千住旭町８番１３号,,13,121,1200026,,,2021-08-11,清算の結了等,,,2015-10-05,1,,,,,サンゼット,0
1542,6012401037011,登記記録の閉鎖等,0,2021-08-12,2021-08-04,Ｄｅｃｏｒａｓ　Ｉｎｎｏｖａｔｉｏｎ株式会社,,株式会社,東京都,小金井市,本町２丁目２０番１２号１Ｆ,,13,210,1840004,,,2021-08-04,清算の結了等,,,2020-09-25,1,,,,,デコラスイノベーション,0
1550,6013301002154,登記記録の閉鎖等,0,2021-08-12,2021-08-05,株式会社大橋商店,,株式会社,東京都,豊島区,千川２丁目２７番１０号,,13,116,1710041,,,2021-08-05,清算の結了等,,,2015-10-05,1,,,,,オオハシショウテン,0
1554,6013305002282,登記記録の閉鎖等,0,2021-08-12,2021-08-05,税理士法人アディーレ会計事務所,,その他の設立登記法人,東京都,豊島区,東池袋３丁目１番１号サンシャイン６０,,13,116,1700013,,,2021-08-05,清算の結了等,,,2015-10-05,1,,,,,ゼイリシホウジンアディーレカイケイジムショ,0
1561,6020001104222,登記記録の閉鎖等,0,2021-08-12,2021-08-10,株式会社エスアールコーポレーション,,株式会社,東京都,中央区,日本橋兜町１番２－４０４号,,13,102,1030026,,,2021-08-10,合併による解散等,6020001126910,令和３年８月１日横浜市港北区箕輪町一丁目２８番１４号太陽物産株式会社（6020001126910）に合併し解散,2015-10-05,1,,,,,エスアールコーポレーション,0
1564,6020001122604,登記記録の閉鎖等,0,2021-08-12,2021-08-02,株式会社富士達ホールディングス,,株式会社,神奈川県,横浜市神奈川区,鶴屋町３丁目３２番１３号第２安田ビル８階,,14,102,2210835,,,2021-08-02,合併による解散等,9020001024293,令和３年８月１日横浜市神奈川区六角橋一丁目４番４号株式会社富士達（9020001024293）に合併し解散,2017-08-18,1,,,,,フジタツホールディングス,0
1581,6021002068010,登記記録の閉鎖等,0,2021-08-12,2021-08-03,有限会社ウシオ興産,,有限会社,神奈川県,逗子市,小坪１丁目８番７号,,14,208,2490008,,,2021-08-03,清算の結了等,,,2015-10-05,1,,,,,ウシオコウサン,0
1583,6030001000908,登記記録の閉鎖等,0,2021-08-12,2021-08-02,株式会社浦和緑化公社,,株式会社,埼玉県,さいたま市緑区,大字大崎８７番地,,11,109,3360974,,,2021-08-02,清算の結了等,,,2015-10-05,1,,,,,ウラワリョクカコウシャ,0
1591,6030002021969,登記記録の閉鎖等,0,2021-08-12,2021-07-30,義隆弥有限会社,,有限会社,埼玉県,さいたま市岩槻区,西原６番５９号,,11,110,3390081,,,2021-07-30,清算の結了等,,,2015-10-05,1,,,,,ヨシタカヤ,0
1594,6030005011141,登記記録の閉鎖等,0,2021-08-12,2021-07-28,一般社団法人鳩山カントリークラブ,,その他の設立登記法人,埼玉県,比企郡鳩山町,大字大橋１１８６番地２,,11,348,3500302,,,2021-07-28,清算の結了等,,,2015-10-05,1,,,,,ハトヤマカントリークラブ,0
1596,6040001055389,登記記録の閉鎖等,0,2021-08-12,2021-08-02,株式会社大隅通信,,株式会社,千葉県,市原市,中高根１３７３番地７６,,12,219,2900242,,,2021-08-02,清算の結了等,,,2015-10-05,1,,,,,オオスミツウシン,0
1602,6040002032197,登記記録の閉鎖等,0,2021-08-12,2021-08-03,有限会社旭,,有限会社,千葉県,市川市,南八幡１丁目２４番９号,,12,203,2720023,,,2021-08-03,清算の結了等,,,2015-10-05,1,,,,,アサヒ,0
1611,6050003003824,登記記録の閉鎖等,0,2021-08-12,2021-07-19,合同会社ネスポロ,,合同会社,茨城県,土浦市,荒川本郷２１８－４５,,08,203,3000877,,,2021-07-19,清算の結了等,,,2017-07-19,1,,,,,ネスポロ,0
1616,6080102017342,登記記録の閉鎖等,0,2021-08-12,2021-08-06,有限会社美さ和,,有限会社,静岡県,富士宮市,小泉１８０４番地の１３,,22,207,4180022,,,2021-08-06,清算の結了等,,,2015-10-05,1,,,,,ミサワ,0
1624,6110001008100,登記記録の閉鎖等,0,2021-08-12,2021-08-05,株式会社大宗,,株式会社,秋田県,仙北郡美郷町,六郷字古館１５０番地,,05,434,0191404,,,2021-08-05,清算の結了等,,,2015-10-05,1,,,,,ダイソウ,0
1626,6110002018255,登記記録の閉鎖等,0,2021-08-12,2021-08-02,有限会社錦蘭,,有限会社,新潟県,加茂市,上町２番１７号,,15,209,9591352,,,2021-08-02,合併による解散等,7110001015302,令和３年８月１日新潟県加茂市五番町１２番１１号萬榮織物株式会社（7110001015302）に合併し解散,2015-10-05,1,,,,,キンラン,0
1630,6110005007395,登記記録の閉鎖等,0,2021-08-12,2021-08-03,医療法人社団はらクリニック,,その他の設立登記法人,新潟県,柏崎市,茨目２丁目１５番２２号,00071459,15,205,9451341,,,2021-08-03,清算の結了等,,,2015-10-05,1,,,,,ハラクリニック,0
1639,6120001179139,登記記録の閉鎖等,0,2021-08-12,2021-08-02,株式会社パテントシップ,,株式会社,大阪府,大阪市中央区,大手前１丁目６番４号リップル天満橋ビル,,27,128,5400008,,,2021-08-02,清算の結了等,,,2015-10-05,1,,,,,,0
1680,6180001114627,登記記録の閉鎖等,0,2021-08-12,2021-08-04,株式会社クック・アセアン,,株式会社,愛知県,名古屋市北区,黒川本通２丁目４６番地,,23,103,4620841,,,2021-08-04,清算の結了等,,,2015-10-05,1,,,,,クックアセアン,0
1700,6190002001336,登記記録の閉鎖等,0,2021-08-12,2021-08-11,有限会社フジおしぼり,,有限会社,三重県,津市,末広町１０４３番地,,24,201,5140012,,,2021-08-11,清算の結了等,,,2015-10-05,1,,,,,フジオシボリ,0
1702,6200001010567,登記記録の閉鎖等,0,2021-08-12,2021-08-06,株式会社ヤスヰ商会,,株式会社,岐阜県,瑞穂市,祖父江４６番地６１,,21,216,5010225,,,2021-08-06,清算の結了等,,,2015-10-05,1,,,,,ヤスイショウカイ,0
1711,6230002006438,登記記録の閉鎖等,0,2021-08-12,2021-08-02,有限会社杉川,,有限会社,富山県,富山市,下大久保２６０２番地,,16,201,9392251,,,2021-08-02,清算の結了等,,,2015-10-05,1,,,,,スギカワ,0
1749,6340002004546,登記記録の閉鎖等,0,2021-08-12,2021-08-02,有限会社サワダ商会,,有限会社,鹿児島県,鹿児島市,東坂元４丁目３８番１０号,,46,201,8920861,,,2021-08-02,清算の結了等,,,2015-10-05,1,,,,,サワダショウカイ,0
1763,6380001001895,登記記録の閉鎖等,0,2021-08-12,2021-08-03,株式会社福建コーポ,,株式会社,福島県,福島市,飯坂町字八幡新田９番地の７,,07,201,9600201,,,2021-08-03,清算の結了等,,,2015-10-05,1,,,,,フッケンコーポ,0
1782,6430002011822,登記記録の閉鎖等,0,2021-08-12,2021-08-02,有限会社大雄電機工業,,有限会社,北海道,札幌市南区,澄川六条１１丁目１４番２１号,,01,106,0050006,,,2021-08-02,清算の結了等,,,2015-10-05,1,,,,,ダイユウデンキコウギョウ,0
1820,7010602025882,登記記録の閉鎖等,0,2021-08-12,2021-07-26,有限会社シテイクロス,,有限会社,東京都,江東区,東陽３丁目２７番３２号,,13,108,1350016,,,2021-07-26,清算の結了等,,,2015-10-05,1,,,,,シテイクロス,0
1822,7010701010174,登記記録の閉鎖等,0,2021-08-12,2021-08-06,株式会社吉野印刷所,00051884,株式会社,東京都,品川区,西品川２丁目２１番７号,,13,109,1410033,,,2021-08-06,清算の結了等,,,2015-10-05,1,,,,,ヨシノインサツジョ,0
1825,7010703003309,登記記録の閉鎖等,0,2021-08-12,2021-08-04,ダウ・ジャパン・ホールディングス株式会社,,株式会社,東京都,品川区,東品川２丁目２番２４号,,13,109,1400002,,,2021-08-04,合併による解散等,7010703003275,令和３年８月１日東京都品川区東品川二丁目２番２４号ダウ・ケミカル日本株式会社（7010703003275）に合併し解散,2016-10-19,1,,,,,ダウジャパンホールディングス,0
1865,7020002073886,登記記録の閉鎖等,0,2021-08-12,2021-08-02,有限会社アトラス二十四,,有限会社,神奈川県,横浜市金沢区,並木２丁目７番４－１００３号,,14,108,2360005,,,2021-08-02,清算の結了等,,,2015-10-05,1,,,,,アトラスニジュウヨン,0
1866,7020003006168,登記記録の閉鎖等,0,2021-08-12,2021-08-03,合同会社ななくさ,,合同会社,神奈川県,川崎市多摩区,東生田１丁目１５番３号,,14,135,2140031,,,2021-08-03,清算の結了等,,,2015-10-05,1,,,,,,0
1874,7021002033962,登記記録の閉鎖等,0,2021-08-12,2021-08-03,有限会社橘川牛乳店,,有限会社,神奈川県,愛甲郡愛川町,中津７３５３番地,,14,401,2430303,,,2021-08-03,清算の結了等,,,2015-10-05,1,,,,,キツカワギュウニュウテン,0
1881,7030001062963,登記記録の閉鎖等,0,2021-08-12,2021-07-28,株式会社スカイプレイス,,株式会社,埼玉県,鴻巣市,榎戸２丁目６番１５号,,11,217,3690123,,,2021-07-28,清算の結了等,,,2015-10-05,1,,,,,,0
1905,7070002036062,登記記録の閉鎖等,0,2021-08-12,2021-08-06,有限会社三国企画,,有限会社,群馬県,沼田市,大釜町２０９番地１,,10,206,3780067,,,2021-08-06,清算の結了等,,,2015-10-05,1,,,,,ミクニキカク,0
1909,7090001013960,登記記録の閉鎖等,0,2021-08-12,2021-08-05,株式会社シンカ山梨,,株式会社,山梨県,笛吹市,石和町広瀬１５１５番地６,,19,211,4060035,,,2021-08-05,合併による解散等,9013101006930,令和３年８月１日東京都西多摩郡日の出町平井２２番地７株式会社シンカ東京（9013101006930）に合併し解散,2015-10-05,1,,,,,シンカヤマナシ,0
1917,7110002011226,登記記録の閉鎖等,0,2021-08-12,2021-08-04,有限会社松﨑建設,00070758,有限会社,新潟県,新潟市西蒲区,河間５２０番地,,15,108,9501342,,,2021-08-04,清算の結了等,,,2015-10-05,1,,,,,マツザキケンセツ,0
1921,7120001027445,登記記録の閉鎖等,0,2021-08-12,2021-08-02,株式会社小西商店,,株式会社,大阪府,大阪市大正区,千島１丁目１１番１５号,,27,108,5510003,,,2021-08-02,清算の結了等,,,2015-10-05,1,,,,,コニシショウテン,0
1934,7120001194830,登記記録の閉鎖等,0,2021-08-12,2021-08-02,株式会社コスモサポート,,株式会社,大阪府,枚方市,岡東町５番３３号,,27,210,5730032,,,2021-08-02,清算の結了等,,,2015-12-02,1,,,,,コスモサポート,0
1956,7122001027697,登記記録の閉鎖等,0,2021-08-12,2021-08-10,飯田環境株式会社,,株式会社,大阪府,大東市,北条３丁目１６番１８号,,27,218,5740011,,,2021-08-10,清算の結了等,,,2015-10-05,1,,,,,イイダカンキョウ,0
1964,7130002032765,登記記録の閉鎖等,0,2021-08-12,2021-08-05,有限会社ニューテレホン三丹,,有限会社,京都府,福知山市,駅南町２丁目２２３番地,,26,201,6200940,,,2021-08-05,清算の結了等,,,2015-10-05,1,,,,,ニューテテホンサンタン,0
1979,7180001083929,登記記録の閉鎖等,0,2021-08-12,2021-08-04,株式会社ヤンドリーム,,株式会社,愛知県,一宮市,浅野字西沼３８番地１,,23,203,4910871,,,2021-08-04,清算の結了等,,,2015-10-05,1,,,,,,0
1981,7180001141505,登記記録の閉鎖等,0,2021-08-12,2021-08-04,株式会社ＭＥＬＣＡＲＥ,,株式会社,愛知県,尾張旭市,旭前町４丁目２番地１８,,23,226,4880855,,,2021-08-04,清算の結了等,,,2020-06-05,1,,,,,メルケア,0
1982,7180002026688,登記記録の閉鎖等,0,2021-08-12,2021-08-05,有限会社みるきーうえい,,有限会社,愛知県,名古屋市緑区,徳重３丁目９０２番地,,23,114,4580815,,,2021-08-05,清算の結了等,,,2015-10-05,1,,,,,ミルキーウエイ,0
2001,7280002007546,登記記録の閉鎖等,0,2021-08-12,2021-08-10,有限会社大谷商店,,有限会社,島根県,大田市,三瓶町志学ロ９３３番地１,,32,205,6940222,,,2021-08-10,清算の結了等,,,2015-10-05,1,,,,,オオタニショウテン,0
2024,7340002001740,登記記録の閉鎖等,0,2021-08-12,2021-08-02,有限会社栄商資材,,有限会社,鹿児島県,鹿児島市,下福元町７４７８番地の４,,46,201,8910144,,,2021-08-02,清算の結了等,,,2015-10-05,1,,,,,エイショウシザイ,0
2027,7350002019014,登記記録の閉鎖等,0,2021-08-12,2021-08-10,有限会社永田観光,,有限会社,宮崎県,小林市,大字細野１２４番地,,45,205,8860000,,,2021-08-10,清算の結了等,,,2020-11-09,1,,,,,ナガタカンコウ,0
2040,7380002034869,登記記録の閉鎖等,0,2021-08-12,2021-08-03,有限会社三友電子,,有限会社,福島県,喜多方市,松山町村松字馬道上３２８０番地,,07,208,9660902,,,2021-08-03,清算の結了等,,,2015-10-05,1,,,,,サンユウデンシ,0
2044,7390005008654,登記記録の閉鎖等,0,2021-08-12,2021-08-05,一般社団法人日本紅,,その他の設立登記法人,山形県,山形市,平清水１丁目４番４１号,,06,201,9902401,,,2021-08-05,清算の結了等,,,2017-08-07,1,,,,,ニホンベニ,0
2051,7420005005466,登記記録の閉鎖等,0,2021-08-12,2021-08-02,医療法人有悠会,,その他の設立登記法人,青森県,黒石市,大字浜町３番地,,02,204,0360378,,,2021-08-02,清算の結了等,,,2015-10-05,1,,,,,ユウユウカイ,0
2054,7430001051125,登記記録の閉鎖等,0,2021-08-12,2021-07-30,株式会社余市振興公社,,株式会社,北海道,余市郡余市町,黒川町５丁目４３番地,,01,408,0460003,,,2021-07-30,清算の結了等,,,2015-10-05,1,,,,,ヨイチシンコウコウシャ,0
2063,7450005000464,登記記録の閉鎖等,0,2021-08-12,2021-08-11,上川町淡水漁業協同組合,,その他の設立登記法人,北海道,上川郡上川町,字菊水１８７番地の２,,01,457,0781721,,,2021-08-11,清算の結了等,,,2015-10-05,1,,,,,カミカワチョウタンスイ,0
2064,7470002008979,登記記録の閉鎖等,0,2021-08-12,2021-07-30,有限会社隆快,,有限会社,香川県,高松市,牟礼町大町１３７０番地８,,37,201,7610122,,,2021-07-30,清算の結了等,,,2015-10-05,1,,,,,リュウカイ,0
2069,7500005004625,登記記録の閉鎖等,0,2021-08-12,2021-08-06,農事組合法人大・宮麦作集団,,その他の設立登記法人,愛媛県,西条市,福成寺３５５番地２,,38,206,7991316,,,2021-08-06,清算の結了等,,,2015-10-05,1,,,,,オオミヤバクサクシュウダン,0
2082,8010401023707,登記記録の閉鎖等,0,2021-08-12,2021-08-06,株式会社バイオテクニカ,,株式会社,東京都,中央区,日本橋浜町２丁目３３番６号,,13,102,1030007,,,2021-08-06,合併による解散等,5011602002287,令和３年８月１日東京都練馬区関町北三丁目４９番１６号株式会社オーグランド（5011602002287）に合併し解散,2015-10-05,1,,,,,,0
2103,8010805002538,登記記録の閉鎖等,0,2021-08-12,2021-07-28,弁護士法人真英法律事務所,,その他の設立登記法人,東京都,大田区,山王３丁目１番７ＧＳ大森ビル４０１Ａ,,13,111,1430023,,,2021-07-28,清算の結了等,,,2018-03-05,1,,,,,シンエイホウリツジムショ,0
2148,8012405002744,登記記録の閉鎖等,0,2021-08-12,2021-08-03,一般財団法人東京農工大学教育研究振興財団,,その他の設立登記法人,東京都,府中市,晴見町３丁目８番地１号,,13,206,1830057,,,2021-08-03,清算の結了等,,,2015-10-05,1,,,,,トウキョウノウコウダイガクキョイクケンキュウシンコウザイダン,0
2157,8020001072995,登記記録の閉鎖等,0,2021-08-12,2021-08-03,株式会社三伸製作所,,株式会社,神奈川県,川崎市川崎区,殿町１丁目１４番１３号,,14,131,2100821,,,2021-08-03,清算の結了等,,,2015-10-05,1,,,,,サンシンセイサクショ,0
2168,8021001044217,登記記録の閉鎖等,0,2021-08-12,2021-08-03,コアテック科学株式会社,,株式会社,神奈川県,逗子市,沼間１丁目５番１５号,,14,208,2490004,,,2021-08-03,清算の結了等,,,2015-10-05,1,,,,,コアテックカガク,0
2172,8021002001506,登記記録の閉鎖等,0,2021-08-12,2021-08-02,有限会社協和研磨工業所,,有限会社,神奈川県,藤沢市,石川５丁目２０番地の２,,14,205,2520815,,,2021-08-02,清算の結了等,,,2015-10-05,1,,,,,キョウワケンマコウギョウショ,0
2175,8021002071953,登記記録の閉鎖等,0,2021-08-12,2021-08-03,有限会社エフ・ジェイ,,有限会社,神奈川県,三浦市,南下浦町上宮田３５３３番地,,14,210,2380101,,,2021-08-03,清算の結了等,,,2015-10-05,1,,,,,エフジェイ,0
2180,8040001033228,登記記録の閉鎖等,0,2021-08-12,2021-08-02,株式会社イキシア,,株式会社,千葉県,浦安市,弁天２丁目３８番１２号,,12,227,2790026,,,2021-08-02,清算の結了等,,,2015-10-05,1,,,,,イキシア,0
2187,8040002070996,登記記録の閉鎖等,0,2021-08-12,2021-08-02,有限会社石井工業,,有限会社,千葉県,富津市,障子谷３０番地,,12,226,2930032,,,2021-08-02,清算の結了等,,,2015-10-05,1,,,,,,0
2189,8040002100324,登記記録の閉鎖等,0,2021-08-12,2021-07-30,有限会社八幡前商店,,有限会社,千葉県,南房総市,久枝４７６番地,,12,234,2992216,,,2021-07-30,清算の結了等,,,2015-10-05,1,,,,,ハチマンマエショウテン,0
2211,8080102008620,登記記録の閉鎖等,0,2021-08-12,2021-07-29,株式会社ＲＹ,,株式会社,東京都,中央区,八重洲２丁目８番７号福岡ビル９階,,13,102,1040028,,,2021-07-29,清算の結了等,,,2015-10-05,1,,,,,アールワイ,0
2217,8100005006421,登記記録の閉鎖等,0,2021-08-12,2021-08-04,特定非営利活動法人あづみのファミリーハウス,,その他の設立登記法人,長野県,安曇野市,豊科３１００番地地方独立行政法人長野県立病院機構長野県立こども病院内,,20,220,3998205,,,2021-08-04,清算の結了等,,,2015-10-05,1,,,,,アヅミノファミリーハウス,0
2222,8110005010918,登記記録の閉鎖等,0,2021-08-12,2021-08-03,恩敬寺,,その他の設立登記法人,新潟県,糸魚川市,大字東海１４９８番地,,15,216,9410021,,,2021-08-03,清算の結了等,,,2015-10-05,1,,,,,オンキョウジ,0
2228,8120001024953,登記記録の閉鎖等,0,2021-08-12,2021-08-02,パンドール山路株式会社,,株式会社,大阪府,大阪市天王寺区,勝山２丁目８番１６号,,27,109,5430043,,,2021-08-02,清算の結了等,,,2015-10-05,1,,,,,,0
2293,8180305006551,登記記録の閉鎖等,0,2021-08-12,2021-08-10,特定非営利活動法人朝日丘スポーツクラブ,,その他の設立登記法人,愛知県,豊田市,御幸町１丁目３４番地,,23,211,4710852,,,2021-08-10,清算の結了等,,,2015-10-05,1,,,,,アサヒガオカスポーツクラブ,0
2295,8190002007521,登記記録の閉鎖等,0,2021-08-12,2021-08-10,有限会社サンワテック,,有限会社,三重県,鈴鹿市,桜島町７丁目２番地の１２,,24,207,5130817,,,2021-08-10,清算の結了等,,,2015-10-05,1,,,,,サンワテック,0
2318,8260002005567,登記記録の閉鎖等,0,2021-08-12,2021-08-11,有限会社瀬戸内産業,,有限会社,岡山県,岡山市南区,福富東２丁目３５番１２号,,33,104,7028033,,,2021-08-11,清算の結了等,,,2015-10-05,1,,,,,セトウチサンギョウ,0
2320,8270002007661,登記記録の閉鎖等,0,2021-08-12,2021-08-05,有限会社柏木精麦製粉所,,有限会社,鳥取県,境港市,栄町１１７番地,,31,204,6840006,,,2021-08-05,清算の結了等,,,2015-10-05,1,,,,,カシワギセイバクセイフンジョ,0
2327,8310003002855,登記記録の閉鎖等,0,2021-08-12,2021-08-11,合同会社ＷｅｂＪｏｙ,,合同会社,長崎県,西彼杵郡時津町,浜田郷１５９０番地５,,42,308,8512102,,,2021-08-11,清算の結了等,,,2015-10-05,1,,,,,ウェブジョイ,0
2328,8320001003012,登記記録の閉鎖等,0,2021-08-12,2021-08-10,株式会社ニップス,,株式会社,大分県,大分市,大手町２丁目２番５号第二信用信販ビル３Ｆ,,44,201,8700022,,,2021-08-10,清算の結了等,,,2015-10-05,1,,,,,ニップス,0
2338,8350002001458,登記記録の閉鎖等,0,2021-08-12,2021-08-06,有限会社くまもと商店,,有限会社,宮崎県,宮崎市,恒久南２丁目２番地２０,,45,201,8800915,,,2021-08-06,清算の結了等,,,2015-10-05,1,,,,,クマモトショウテン,0
2341,8360001022504,登記記録の閉鎖等,0,2021-08-12,2021-08-03,ＴＩＤＡＰＲＯＪＥＣＴ株式会社,,株式会社,沖縄県,名護市,字為又５０７番地６４,,47,209,9050005,,,2021-08-03,合併による解散等,4360003004982,令和３年８月１日沖縄県名護市字為又５０７番地６４株式会社コスモエンジェル（4360003004982）に合併し解散,2017-06-23,1,,,,,ティダプロジェクト,0
2349,8370001042939,登記記録の閉鎖等,0,2021-08-12,2021-08-02,株式会社ナカムラ,,株式会社,宮城県,仙台市若林区,沖野６丁目３５番２２号,,04,103,9840831,,,2021-08-02,清算の結了等,,,2018-04-16,1,,,,,ナカムラ,0
2352,8370002002710,登記記録の閉鎖等,0,2021-08-12,2021-07-29,有限会社経ヶ峯,,有限会社,宮城県,仙台市太白区,向山１丁目４番１０号,,04,104,9820841,,,2021-07-29,清算の結了等,,,2015-10-05,1,,,,,キョウガミネ,0
2364,8420002000816,登記記録の閉鎖等,0,2021-08-12,2021-08-02,有限会社観音工業,,有限会社,青森県,青森市,金沢２丁目２０番１７号,,02,201,0300853,,,2021-08-02,清算の結了等,,,2015-10-05,1,,,,,カンノンコウギョウ,0
2372,8430002001581,登記記録の閉鎖等,0,2021-08-12,2021-07-30,有限会社石黒金物店,,有限会社,北海道,札幌市北区,北二十六条西４丁目１番１５号,,01,102,0010026,,,2021-07-30,清算の結了等,,,2015-10-05,1,,,,,イシグロカナモノテン,0
2393,9010003026198,登記記録の閉鎖等,0,2021-08-12,2021-07-29,合同会社開発４８号,,合同会社,東京都,千代田区,一番町９番地８ノザワビルディング６階税理士法人シリウス内,,13,101,1020082,,,2021-07-29,清算の結了等,,,2017-10-11,1,,,,,カイハツヨンジュウハチゴウ,0
2403,9010402025602,登記記録の閉鎖等,0,2021-08-12,2021-07-29,有限会社サルサホットラインジャパン,,有限会社,東京都,港区,六本木７丁目１７番１４号,,13,103,1060032,,,2021-07-29,清算の結了等,,,2015-10-05,1,,,,,サルサホットラインジャパン,0
2414,9010901000279,登記記録の閉鎖等,0,2021-08-12,2021-08-04,株式会社青山アートコンサルタンシー,,株式会社,東京都,世田谷区,深沢１丁目３１番５号,,13,112,1580081,,,2021-08-04,清算の結了等,,,2015-10-05,1,,,,,アオヤマアートコンサルタンシー,0
2446,9012805002681,登記記録の閉鎖等,0,2021-08-12,2021-07-30,一般社団法人中央マネジメント,,その他の設立登記法人,東京都,日野市,大字上田３３９番地の５,,13,212,1910014,,,2021-07-30,清算の結了等,,,2017-07-14,1,,,,,チュウオウマネジメント,0
2450,9013301030623,登記記録の閉鎖等,0,2021-08-12,2021-07-26,株式会社Ｎｉｎｅ　Ａｃｅ,,株式会社,埼玉県,川口市,並木元町１－６７－４３６号室,,11,203,3320033,,,2021-07-26,清算の結了等,,,2015-10-05,1,,,,,ナインエース,0
2456,9020001094691,登記記録の閉鎖等,0,2021-08-12,2021-08-02,株式会社ＩＡＧアセット,,株式会社,神奈川県,横浜市戸塚区,品濃町５４５番地５,,14,110,2440801,,,2021-08-02,合併による解散等,1020001007009,令和３年７月３１日横浜市戸塚区品濃町５４５番地５株式会社アイディーエム（1020001007009）に合併し解散,2015-10-05,1,,,,,アイエージーアセット,0
2471,9021001050222,登記記録の閉鎖等,0,2021-08-12,2021-08-03,株式会社のぞみプランニング,,株式会社,神奈川県,藤沢市,鵠沼石上２丁目４番１１号,,14,205,2510025,,,2021-08-03,清算の結了等,,,2015-10-05,1,,,,,ノゾミプランニング,0
2493,9040001027823,登記記録の閉鎖等,0,2021-08-12,2021-08-02,株式会社八幡製作所,,株式会社,千葉県,市川市,塩浜３丁目２７番２７号,,12,203,2720127,,,2021-08-02,清算の結了等,,,2015-10-05,1,,,,,ヤワタセイサクジョ,0
2519,9060002034610,登記記録の閉鎖等,0,2021-08-12,2021-08-02,有限会社三井自動車整備工場,,有限会社,栃木県,下都賀郡壬生町,大字藤井１７４６番地,,09,361,3210221,,,2021-08-02,清算の結了等,,,2015-10-05,1,,,,,ミツイジドウシャセイビコウジョウ,0
2523,9070002035979,登記記録の閉鎖等,0,2021-08-12,2021-08-06,有限会社ミツミネ,,有限会社,群馬県,沼田市,大釜町５０１番地,,10,206,3780067,,,2021-08-06,清算の結了等,,,2015-10-05,1,,,,,ミツミネ,0
2544,9120001191041,登記記録の閉鎖等,0,2021-08-12,2021-08-02,株式会社ビーシー,,株式会社,大阪府,大阪市淀川区,木川東４丁目４番１号,,27,123,5320012,,,2021-08-02,清算の結了等,,,2015-10-05,1,,,,,ビーシー,0
2558,9120105008463,登記記録の閉鎖等,0,2021-08-12,2021-08-04,一般社団法人祐宏,,その他の設立登記法人,大阪府,河内長野市,美加の台７丁目２９番２０号,,27,216,5860044,,,2021-08-04,清算の結了等,,,2016-03-02,1,,,,,ユウコウ,0
2575,9160001020667,登記記録の閉鎖等,0,2021-08-12,2021-08-04,株式会社グランド近江,,株式会社,滋賀県,甲賀市,水口町北泉２丁目１７番地,,25,209,5280058,,,2021-08-04,合併による解散等,9470001005612,令和３年８月１日香川県高松市番町二丁目１７番１５号ファロス第一ビル六階株式会社グランド商事・アドバンス（9470001005612）に合併し解散,2018-01-09,1,,,,,グランドオウミ,0
2589,9180301004731,登記記録の閉鎖等,0,2021-08-12,2021-08-10,株式会社富士商事,,株式会社,愛知県,岡崎市,井田南町４番地１,,23,202,4440068,,,2021-08-10,清算の結了等,,,2015-10-05,1,,,,,フジショウジ,0
2593,9180302000903,登記記録の閉鎖等,0,2021-08-12,2021-08-06,有限会社川合建築,,有限会社,愛知県,岡崎市,森越町字吉原２０番地１,,23,202,4440901,,,2021-08-06,清算の結了等,,,2015-10-05,1,,,,,カワイケンチク,0
2595,9190001019855,登記記録の閉鎖等,0,2021-08-12,2021-08-05,株式会社ＭＩＥＫ,,株式会社,三重県,四日市市,久保田１丁目３番１１号,,24,202,5100821,,,2021-08-05,合併による解散等,7180002051224,令和３年８月１日名古屋市東区泉二丁目２６番２号キョーワ薬局株式会社（7180002051224）に合併し解散,2015-10-05,1,,,,,ミーク,0
2597,9200003005182,登記記録の閉鎖等,0,2021-08-12,2021-08-05,合同会社ファミリー,,合同会社,岐阜県,可児市,瀬田４３０番１,,21,214,5090213,,,2021-08-05,清算の結了等,,,2021-05-14,1,,,,,ファミリー,0
2624,9330003006300,登記記録の閉鎖等,0,2021-08-12,2021-08-04,合同会社花梨,,合同会社,熊本県,上益城郡御船町,大字滝尾６２４３番地７,,43,441,8613208,,,2021-08-04,清算の結了等,,,2015-10-05,1,,,,,カリン,0
2642,9410002013727,登記記録の閉鎖等,0,2021-08-12,2021-08-04,有限会社あさか印刷,,有限会社,秋田県,横手市,十文字町鼎字水尻４５番地１,,05,203,0190511,,,2021-08-04,清算の結了等,,,2015-10-05,1,,,,,アサカインサツ,0
2649,9440002000755,登記記録の閉鎖等,0,2021-08-12,2021-08-06,有限会社オクムラサービス,,有限会社,北海道,函館市,神山２丁目８番１１号,,01,202,0410832,,,2021-08-06,清算の結了等,,,2015-10-05,1,,,,,オクムラサービス,0
