sequenceNumber,corporateNumber,process,correct,updateDate,changeDate,name,nameImageId,kind,prefectureName,cityName,streetNumber,addressImageId,prefectureCode,cityCode,postCode,addressOutside,addressOutsideImageId,closeDate,closeCause,successorCorporateNumber,changeCause,assignmentDate,latest,enName,enPrefectureName,enCityName,enAddressOutside,furigana,hihyoji
17,1010005032838,登記記録の閉鎖等,0,2022-02-07,2022-02-03,一般社団法人小松ソーラー,,その他の設立登記法人,東京都,中央区,八重洲２丁目７番２号,,13,102,1040028,,,2022-02-03,清算の結了等,,,2021-01-22,1,,,,,コマツソーラー,0
19,1010401093153,登記記録の閉鎖等,0,2022-02-07,2022-02-01,株式会社ＫＳ２,,株式会社,東京都,港区,赤坂４丁目１４番１４号,,13,103,1070052,,,2022-02-01,清算の結了等,,,2015-10-05,1,,,,,ケイエスツー,0
20,1010401097245,登記記録の閉鎖等,0,2022-02-07,2022-02-01,Ｐｏｕｂｅｌｌｅ株式会社,,株式会社,東京都,港区,芝３丁目４２番１０号８階,,13,103,1050014,,,2022-02-01,清算の結了等,,,2015-10-05,1,,,,,プベル,0
39,1010702005765,登記記録の閉鎖等,0,2022-02-07,2022-02-02,有限会社鳥文,,有限会社,東京都,品川区,南品川６丁目１１番１１号,,13,109,1400004,,,2022-02-02,清算の結了等,,,2015-10-05,1,,,,,トリブン,0
40,1010703003578,登記記録の閉鎖等,0,2022-02-07,2022-02-02,合同会社ＡＥＳ３,,合同会社,東京都,品川区,東五反田２丁目１０番２号,,13,109,1410022,,,2022-02-02,清算の結了等,,,2017-04-28,1,,,,,エーイーエスサン,0
75,1011602002638,登記記録の閉鎖等,0,2022-02-07,2022-02-04,有限会社角屋工務店,00056203,有限会社,東京都,練馬区,高松２丁目２３番２７号,,13,120,1790075,,,2022-02-04,清算の結了等,,,2015-10-05,1,,,,,スミヤコウムテン,0
87,1020002102592,登記記録の閉鎖等,0,2022-02-07,2022-02-03,有限会社ＩＴＯトランスレーターズ,,有限会社,神奈川県,川崎市麻生区,細山１丁目６番１２号,,14,137,2150001,,,2022-02-03,清算の結了等,,,2015-10-05,1,,,,,アイティオートランスレーターズ,0
101,1030001069551,登記記録の閉鎖等,0,2022-02-07,2022-02-02,株式会社後楽園ブックセンター,,株式会社,埼玉県,鶴ヶ島市,大字藤金８２０番地６株式会社岩波書店営業所内,,11,241,3502206,,,2022-02-02,清算の結了等,,,2015-10-05,1,,,,,コウラクエンブックセンター,0
104,1030001134933,登記記録の閉鎖等,0,2022-02-07,2022-02-02,株式会社ホープスタッフ,,株式会社,埼玉県,深谷市,上野台６０８番地２５,,11,218,3660801,,,2022-02-02,清算の結了等,,,2020-01-28,1,,,,,ホープスタッフ,0
125,1040003009604,登記記録の閉鎖等,0,2022-02-07,2022-01-31,ネクサス・トレーディング合同会社,,合同会社,宮城県,登米市,米山町中津山字六軒屋敷３７番地２,,04,212,9870331,,,2022-01-31,清算の結了等,,,2017-01-30,1,,,,,ネクサストレーディング,0
134,1060002039773,登記記録の閉鎖等,0,2022-02-07,2022-02-02,有限会社カネセイ商事,,有限会社,栃木県,佐野市,栃本町６９３番地,,09,204,3270312,,,2022-02-02,清算の結了等,,,2015-10-05,1,,,,,カネセイショウジ,0
165,1120001230525,登記記録の閉鎖等,0,2022-02-07,2022-01-31,株式会社Ｃｒｅａｔｅ　Ｅｄｇｅ,,株式会社,大阪府,大阪市淀川区,西宮原１丁目８番３３号日宝新大阪第２ビル８Ｆ４号室,,27,123,5320004,,,2022-01-31,清算の結了等,,,2020-07-22,1,,,,,クリエイトエッジ,0
173,1120002078708,登記記録の閉鎖等,0,2022-02-07,2022-02-03,有限会社トミヒラ,,有限会社,大阪府,守口市,大久保町２丁目２９番１５－１４１２号,,27,209,5700012,,,2022-02-03,清算の結了等,,,2015-10-05,1,,,,,トミヒラ,0
181,1120901017815,登記記録の閉鎖等,0,2022-02-07,2022-02-03,株式会社Ａｄｖａｎｔａｇｅ　Ｐｒｏｊｅｃｔ,,株式会社,大阪府,箕面市,彩都粟生南２丁目８番１号,,27,220,5620028,,,2022-02-03,清算の結了等,,,2015-10-05,1,,,,,アドバンテージプロジェクト,0
183,1120901037656,登記記録の閉鎖等,0,2022-02-07,2022-01-31,株式会社大谷工務店,,株式会社,大阪府,豊中市,庄内幸町４丁目５番６号,,27,203,5610833,,,2022-01-31,清算の結了等,,,2016-11-14,1,,,,,オオタニコウムテン,0
214,1150001013910,登記記録の閉鎖等,0,2022-02-07,2022-02-03,株式会社ダイワサービス,,株式会社,奈良県,御所市,大字室１１９５番地,,29,208,6392277,,,2022-02-03,清算の結了等,,,2015-10-05,1,,,,,ダイワサービス,0
220,1170002006011,登記記録の閉鎖等,0,2022-02-07,2022-02-04,有限会社ＣＯＲＡＺＯＮ,,有限会社,和歌山県,和歌山市,友田町４丁目１３０番地８０７号室,,30,201,6408342,,,2022-02-04,清算の結了等,,,2015-10-05,1,,,,,コラゾン,0
222,1180001025358,登記記録の閉鎖等,0,2022-02-07,2022-02-02,株式会社光洋社,,株式会社,愛知県,名古屋市西区,江向町５丁目１５番地,,23,104,4510013,,,2022-02-02,清算の結了等,,,2015-10-05,1,,,,,コウヨウシャ,0
233,1180002093313,登記記録の閉鎖等,0,2022-02-07,2022-02-02,有限会社中西商会,,有限会社,愛知県,日進市,岩崎台３丁目８１５番地,,23,230,4700135,,,2022-02-02,清算の結了等,,,2015-10-05,1,,,,,ナカニシショウカイ,0
240,1180301021817,登記記録の閉鎖等,0,2022-02-07,2022-02-04,株式会社ＭＲ,,株式会社,愛知県,豊田市,西町５丁目５７番地１,,23,211,4710025,,,2022-02-04,清算の結了等,,,2015-10-05,1,,,,,エムアール,0
306,1380001025429,登記記録の閉鎖等,0,2022-02-07,2022-02-02,株式会社丸利タイル興業,,株式会社,福島県,福島市,瀬上町字町裏３３番地の８,,07,201,9600101,,,2022-02-02,清算の結了等,,,2015-10-05,1,,,,,マルトシタイルコウギョウ,0
321,1440002005803,登記記録の閉鎖等,0,2022-02-07,2022-02-03,有限会社マルハ信幸水産,,有限会社,北海道,函館市,金堀町８番２２号,,01,202,0420944,,,2022-02-03,清算の結了等,,,2015-10-05,1,,,,,マルハシンコウスイサン,0
325,1470002006492,登記記録の閉鎖等,0,2022-02-07,2022-02-03,マルエーホーム有限会社,,有限会社,香川県,高松市,藤塚町６番地１４,,37,201,7600071,,,2022-02-03,清算の結了等,,,2015-10-05,1,,,,,マルエーホーム,0
326,1480001005882,登記記録の閉鎖等,0,2022-02-07,2022-02-01,Ｍ－ｄｒｅａｍ株式会社,,株式会社,香川県,高松市,番町２丁目１７番１５号ファロス第一ビル六階,,37,201,7600017,,,2022-02-01,合併による解散等,3470001004677,令和４年２月１日香川県高松市番町二丁目１７番１５号ファロス第一ビル六階株式会社夢喰房（3470001004677）に合併し解散,2015-10-05,1,,,,,エムドリーム,0
328,1500002006357,登記記録の閉鎖等,0,2022-02-07,2022-02-04,有限会社松沢印刷,,有限会社,愛媛県,松山市,来住町９７５番地２,,38,201,7911102,,,2022-02-04,清算の結了等,,,2015-10-05,1,,,,,マツザワインサツ,0
330,2010001037402,登記記録の閉鎖等,0,2022-02-07,2022-01-31,株式会社泉商事,,株式会社,東京都,中央区,銀座西三丁目１番地先,,13,102,1030000,,,2022-01-31,清算の結了等,,,2015-10-05,1,,,,,イズミショウジ,1
333,2010001119910,登記記録の閉鎖等,0,2022-02-07,2022-01-28,株式会社コプロス,,株式会社,東京都,千代田区,紀尾井町３番２８号ＭＢＥ６１４,,13,101,1020094,,,2022-01-28,清算の結了等,,,2015-10-05,1,,,,,コプロス,0
341,2010005017697,登記記録の閉鎖等,0,2022-02-07,2022-02-01,一般社団法人沖道ヨガ会,,その他の設立登記法人,東京都,千代田区,鍛冶町１丁目９番１号第二大久保ビル４階,,13,101,1010044,,,2022-02-01,清算の結了等,,,2015-10-05,1,,,,,オキドウヨガカイ,0
342,2010005032837,登記記録の閉鎖等,0,2022-02-07,2022-02-03,一般社団法人雫石ソーラー,,その他の設立登記法人,東京都,中央区,八重洲２丁目７番２号,,13,102,1040028,,,2022-02-03,清算の結了等,,,2021-01-22,1,,,,,シズクイシソーラー,0
349,2010401028752,登記記録の閉鎖等,0,2022-02-07,2022-01-31,株式会社三田不動産,,株式会社,東京都,港区,芝５丁目２９番１７号,,13,103,1080014,,,2022-01-31,清算の結了等,,,2015-10-05,1,,,,,ミタフドウサン,0
388,2011302009998,登記記録の閉鎖等,0,2022-02-07,2022-02-01,ワンネスインスティチュート有限会社,,有限会社,東京都,杉並区,南荻窪３丁目１２番１４号,,13,115,1670052,,,2022-02-01,清算の結了等,,,2015-10-05,1,,,,,ワンネスインスティチュート,0
410,2012802003045,登記記録の閉鎖等,0,2022-02-07,2022-01-31,有限会社高栄,,有限会社,東京都,昭島市,中神町１３５８番地２６,,13,207,1960022,,,2022-01-31,清算の結了等,,,2015-10-05,1,,,,,,0
429,2030001029356,登記記録の閉鎖等,0,2022-02-07,2022-01-28,株式会社マグノリアインターナショナルジャパン,,株式会社,埼玉県,所沢市,大字上新井８８２番地の１１,,11,208,3591142,,,2022-01-28,登記官による閉鎖,,,2015-10-05,1,,,,,,0
432,2030001071556,登記記録の閉鎖等,0,2022-02-07,2022-01-17,双葉産業株式会社,,株式会社,埼玉県,比企郡小川町,大字青山１５１５番地,,11,343,3550324,,,2022-01-17,清算の結了等,,,2015-10-05,1,,,,,フタバサンギョウ,0
453,2040002038207,登記記録の閉鎖等,0,2022-02-07,2022-02-02,有限会社ＡＢＡＲＡ,,有限会社,大阪府,大阪市東成区,大今里南２丁目１３番３５号,,27,115,5370013,,,2022-02-02,清算の結了等,,,2015-10-05,1,,,,,アバラ,0
458,2040002058139,登記記録の閉鎖等,0,2022-02-07,2022-02-02,旭テクノサービス有限会社,,有限会社,千葉県,印西市,原４丁目５番地２棟７０１号,,12,231,2701335,,,2022-02-02,清算の結了等,,,2015-10-05,1,,,,,アサヒテクノサービス,0
486,2120001142091,登記記録の閉鎖等,0,2022-02-07,2022-02-01,株式会社フミックス,,株式会社,大阪府,大阪市中央区,日本橋１丁目５番１５号,,27,128,5420073,,,2022-02-01,清算の結了等,,,2015-10-05,1,,,,,フミックス,0
514,2130002031508,登記記録の閉鎖等,0,2022-02-07,2022-02-01,有限会社松本優建設,,有限会社,京都府,八幡市,男山美桜１０番地３０,,26,210,6148362,,,2022-02-01,合併による解散等,9130001014688,令和４年２月１日京都市伏見区石田大受町７９番地株式会社松栄建設（9130001014688）に合併し解散,2015-10-05,1,,,,,マツモトユウケンセツ,0
534,2180001057631,登記記録の閉鎖等,0,2022-02-07,2022-02-03,株式会社ＳＢＩＣ,,株式会社,愛知県,名古屋市東区,泉１丁目２１番２９号ＩＺＵＭＩ桜鈴館１０２,,23,102,4610001,,,2022-02-03,合併による解散等,1010401162040,令和４年１月１日東京都港区東新橋一丁目９番２号汐留住友ビル１６階株式会社ＳＢＩＣ（1010401162040）に合併し解散,2015-10-05,1,,,,,エスビーアイシー,0
541,2180002007825,登記記録の閉鎖等,0,2022-02-07,2022-02-01,有限会社亀仙人,,有限会社,愛知県,名古屋市昭和区,安田通６丁目６番地の１,,23,107,4660857,,,2022-02-01,清算の結了等,,,2015-10-05,1,,,,,カメセンニン,0
544,2180301012212,登記記録の閉鎖等,0,2022-02-07,2022-02-01,株式会社ハーヴェストホーム,,株式会社,愛知県,豊橋市,下地町字門１１４番地,,23,201,4400086,,,2022-02-01,合併による解散等,7180301009022,令和４年２月１日愛知県豊橋市下地町字門１１４番地株式会社ライフ・リベット（7180301009022）に合併し解散,2015-10-05,1,,,,,ハーヴェストホーム,0
545,2180301014183,登記記録の閉鎖等,0,2022-02-07,2022-02-01,大眞産業株式会社,,株式会社,愛知県,刈谷市,丸田町２丁目３７番地,,23,210,4480033,,,2022-02-01,合併による解散等,5180301013884,令和４年２月１日愛知県刈谷市丸田町二丁目３７番地株式会社刈谷高周波工業所（5180301013884）に合併し解散,2015-10-05,1,,,,,ダイシンサンギョウ,0
556,2200002020321,登記記録の閉鎖等,0,2022-02-07,2022-02-03,西部ガス有限会社,,有限会社,岐阜県,多治見市,新富町１丁目８番地,,21,204,5070805,,,2022-02-03,清算の結了等,,,2015-10-05,1,,,,,セイブガス,0
574,2280002002519,登記記録の閉鎖等,0,2022-02-07,2022-02-03,有限会社ライブフォトマツウラ,,有限会社,島根県,松江市,八雲台２丁目４番３５号,,32,201,6900014,,,2022-02-03,清算の結了等,,,2015-10-05,1,,,,,ライブフォトマツウラ,0
589,2320005009861,登記記録の閉鎖等,0,2022-02-07,2022-02-04,一般社団法人Ｇ．Ｆ．Ｓ,,その他の設立登記法人,大分県,大分市,大字旦野原９９９番地の５３,,44,201,8701124,,,2022-02-04,清算の結了等,,,2021-02-12,1,,,,,ジーエフエス,0
592,2330002017858,登記記録の閉鎖等,0,2022-02-07,2022-02-01,永田産業有限会社,,有限会社,熊本県,菊池市,七城町辺田３８６番地,,43,210,8611364,,,2022-02-01,清算の結了等,,,2015-10-05,1,,,,,,0
597,2340001012751,登記記録の閉鎖等,0,2022-02-07,2022-02-03,株式会社川平ファーム,,株式会社,鹿児島県,南さつま市,加世田内山田８０番地,,46,220,8970004,,,2022-02-03,清算の結了等,,,2015-10-05,1,,,,,カワヒラファーム,0
599,2340002027311,登記記録の閉鎖等,0,2022-02-07,2022-02-02,有限会社大窪ファーム,,有限会社,鹿児島県,志布志市,松山町新橋３８２５番地,,46,221,8997601,,,2022-02-02,清算の結了等,,,2015-10-05,1,,,,,オオクボファーム,0
615,2400601000414,登記記録の閉鎖等,0,2022-02-07,2022-02-03,株式会社江南ニット,,株式会社,岩手県,奥州市,江刺岩谷堂字中堰１４１番地,,03,215,0231101,,,2022-02-03,清算の結了等,,,2015-10-05,1,,,,,コウナンニット,0
634,2500001014962,登記記録の閉鎖等,0,2022-02-07,2022-02-01,奥本貿易株式会社,,株式会社,愛媛県,四国中央市,妻鳥町１２６６番地８,,38,213,7990113,,,2022-02-01,合併による解散等,1500001014534,令和４年２月１日愛媛県四国中央市妻鳥町１１４３番地１株式会社朝日企画（1500001014534）に合併し解散,2015-10-05,1,,,,,オクモトボウエキ,0
648,3010005032836,登記記録の閉鎖等,0,2022-02-07,2022-02-03,一般社団法人三沢ソーラー,,その他の設立登記法人,東京都,中央区,八重洲２丁目７番２号,,13,102,1040028,,,2022-02-03,清算の結了等,,,2021-01-22,1,,,,,ミサワソーラー,0
662,3010401143856,登記記録の閉鎖等,0,2022-02-07,2022-02-03,株式会社ＭｉｌＫＬａｂ,,株式会社,神奈川県,横浜市都筑区,加賀原１丁目３番１０号,,14,118,2240055,,,2022-02-03,清算の結了等,,,2019-02-19,1,,,,,ミルクラボ,0
684,3011001044503,登記記録の閉鎖等,0,2022-02-07,2022-02-03,株式会社ＪＴＢグランドツアー＆サービス,,株式会社,東京都,渋谷区,神宮前５丁目７番２０号,,13,113,1500001,,,2022-02-03,合併による解散等,8010701012863,令和４年１月１日東京都品川区東品川二丁目３番１１号株式会社ＪＴＢ（8010701012863）に合併し解散,2015-10-05,1,,,,,ジェイティービーグランドツアーアンドサービス,0
693,3011003007854,登記記録の閉鎖等,0,2022-02-07,2022-01-24,Ｒｈｙｔｈｍ　Ｇｌｏｂａｌ合同会社,,合同会社,東京都,渋谷区,大山町４５番２１号アリュール代々木上原１０４,,13,113,1510065,,,2022-01-24,清算の結了等,,,2017-07-19,1,,,,,リズムグローバル,0
709,3011502010689,登記記録の閉鎖等,0,2022-02-07,2022-02-02,有限会社ひろた商会,,有限会社,東京都,荒川区,南千住７丁目１０番８号,,13,118,1160003,,,2022-02-02,清算の結了等,,,2015-10-05,1,,,,,ヒロタショウカイ,0
743,3021005004618,登記記録の閉鎖等,0,2022-02-07,2022-01-28,一般社団法人日本電子書籍館,,その他の設立登記法人,神奈川県,相模原市南区,東大沼２丁目２１番４号,,14,153,2520333,,,2022-01-28,清算の結了等,,,2015-10-05,1,,,,,ニホンデンシショセキカン,0
745,3030001051540,登記記録の閉鎖等,0,2022-02-07,2022-02-01,株式会社森田製作所,,株式会社,埼玉県,春日部市,銚子口７９８番地４,,11,214,3440013,,,2022-02-01,清算の結了等,,,2015-10-05,1,,,,,モリタセイサクショ,0
746,3030001056333,登記記録の閉鎖等,0,2022-02-07,2022-02-02,株式会社後藤工務店,,株式会社,埼玉県,入間郡三芳町,大字上富字八軒家１９８８番１２,,11,324,3540045,,,2022-02-02,清算の結了等,,,2015-10-05,1,,,,,ゴトウコウムテン,0
783,3070001006235,登記記録の閉鎖等,0,2022-02-07,2022-02-02,株式会社イムノ,,株式会社,群馬県,高崎市,綿貫町１３０３番地３,,10,202,3701207,,,2022-02-02,合併による解散等,2070001025104,令和４年２月１日群馬県前橋市本町一丁目１番３－１０３号未来調剤株式会社（2070001025104）に合併し解散,2015-10-05,1,,,,,イムノ,0
787,3070002023329,登記記録の閉鎖等,0,2022-02-07,2022-02-02,栗原樹脂有限会社,,有限会社,群馬県,みどり市,笠懸町阿左美８００番地の９,,10,212,3792311,,,2022-02-02,清算の結了等,,,2015-10-05,1,,,,,クリバラジュシ,0
791,3080002002249,登記記録の閉鎖等,0,2022-02-07,2022-02-03,有限会社サクライオフィス,,有限会社,静岡県,静岡市駿河区,登呂１丁目２０番３１号,,22,102,4228033,,,2022-02-03,清算の結了等,,,2015-10-05,1,,,,,サクライオフィス,0
799,3090001002876,登記記録の閉鎖等,0,2022-02-07,2022-01-27,株式会社ジョイスター,,株式会社,山梨県,中央市,西花輪４３７７番地,,19,214,4093843,,,2022-01-27,清算の結了等,,,2015-10-05,1,,,,,ジョイスター,0
818,3120001232734,登記記録の閉鎖等,0,2022-02-07,2022-01-31,株式会社ＵＮＤＥＲ７,,株式会社,大阪府,大阪市西区,新町３丁目５番３号不動ビル４０１,,27,106,5500013,,,2022-01-31,清算の結了等,,,2020-10-27,1,,,,,アンダーセブン,0
857,3140001084703,登記記録の閉鎖等,0,2022-02-07,2022-02-01,株式会社サンプライズ,,株式会社,兵庫県,洲本市,本町８丁目２番１３号,,28,205,6560025,,,2022-02-01,清算の結了等,,,2015-10-05,1,,,,,サンプライズ,0
876,3180001063975,登記記録の閉鎖等,0,2022-02-07,2022-01-19,株式会社コラボレーション,,株式会社,愛知県,名古屋市名東区,宝が丘４０番地,,23,115,4650043,,,2022-01-19,清算の結了等,,,2015-10-05,1,,,,,コラボレーション,0
895,3180301024553,登記記録の閉鎖等,0,2022-02-07,2022-02-01,株式会社エステート,,株式会社,愛知県,豊橋市,つつじが丘２丁目５番地９,,23,201,4400858,,,2022-02-01,合併による解散等,5180301002615,令和４年２月１日愛知県岡崎市戸崎町字屋敷９８番地１株式会社ナヴィック（5180301002615）に合併し解散,2015-10-05,1,,,,,エステート,0
898,3180305006705,登記記録の閉鎖等,0,2022-02-07,2022-02-04,農事組合法人三ヶ根花卉園芸組合,,その他の設立登記法人,愛知県,西尾市,西幡豆町貝吹９７番地,,23,213,4440703,,,2022-02-04,清算の結了等,,,2015-10-05,1,,,,,サンガネカキエンゲイクミアイ,0
919,3240001036339,登記記録の閉鎖等,0,2022-02-07,2022-02-03,山陽土地開発株式会社,,株式会社,広島県,安芸郡海田町,南大正町３番３６号,,34,304,7360042,,,2022-02-03,清算の結了等,,,2015-10-05,1,,,,,サンヨウトチカイハツ,0
921,3240002041750,登記記録の閉鎖等,0,2022-02-07,2022-02-01,有限会社ツーケイ硝子サービス,,有限会社,広島県,福山市,南手城町３丁目１８番３１号,,34,207,7210963,,,2022-02-01,清算の結了等,,,2015-10-05,1,,,,,ツーケイガラスサービス,0
934,3290801014076,登記記録の閉鎖等,0,2022-02-07,2022-02-01,アドバンテックテクノロジーズ株式会社,,株式会社,福岡県,直方市,大字上境飛熊２７７０番地,,40,204,8220006,,,2022-02-01,合併による解散等,3010501030566,令和４年１月１日東京都台東区浅草六丁目１６番３号アドバンテック株式会社（3010501030566）に合併し解散,2015-10-05,1,,,,,アドバンテックテクノロジーズ,0
957,3370801000068,登記記録の閉鎖等,0,2022-02-07,2022-01-24,株式会社喜王水産,,株式会社,宮城県,名取市,閖上５丁目２７番１７号,,04,207,9811213,,,2022-01-24,登記官による閉鎖,,,2015-10-05,1,,,,,,0
961,3380001021756,登記記録の閉鎖等,0,2022-02-07,2022-02-01,株式会社さわや,,株式会社,福島県,東白川郡矢祭町,大字東舘字桃木町３７番地２,,07,482,9635118,,,2022-02-01,清算の結了等,,,2015-10-05,1,,,,,,0
975,3470003000609,登記記録の閉鎖等,0,2022-02-07,2022-01-28,合同会社サンジェクト,,合同会社,香川県,坂出市,林田町３４６２番地１,,37,203,7620012,,,2022-01-28,清算の結了等,,,2015-10-05,1,,,,,サンジェクト,0
994,4010003031129,登記記録の閉鎖等,0,2022-02-07,2022-01-31,ロータスフラワーｍカンパニー合同会社,,合同会社,東京都,千代田区,九段南２丁目５番９－７０６号,,13,101,1020074,,,2022-01-31,清算の結了等,,,2019-11-25,1,,,,,ロータスフラワーエムカンパニー,0
1018,4010903005289,登記記録の閉鎖等,0,2022-02-07,2022-02-03,合同会社フジエステート,,合同会社,東京都,世田谷区,祖師谷４丁目３１番１６号,,13,112,1570072,,,2022-02-03,清算の結了等,,,2019-10-18,1,,,,,フジエステート,0
1034,4011502006380,登記記録の閉鎖等,0,2022-02-07,2022-02-02,有限会社ランドホーム,,有限会社,東京都,北区,浮間４丁目３２番２０号,,13,117,1150051,,,2022-02-02,清算の結了等,,,2015-10-05,1,,,,,ランドホーム,0
1045,4011705000230,登記記録の閉鎖等,0,2022-02-07,2022-01-21,天理教小松川分教会,,その他の設立登記法人,東京都,江戸川区,篠崎町２丁目６２番１４号,,13,123,1330061,,,2022-01-21,合併による解散等,1011805000455,令和４年１月１８日東京都葛飾区新小岩四丁目６番１号天理教南葛飾分教会（1011805000455）に合併し解散,2015-10-05,1,,,,,,0
1064,4020001102987,登記記録の閉鎖等,0,2022-02-07,2022-02-03,株式会社ロイストンハース,,株式会社,神奈川県,横浜市中区,住吉町２丁目２７番地,,14,104,2310013,,,2022-02-03,清算の結了等,,,2015-10-05,1,,,,,ロイストンハース,0
1067,4020001143379,登記記録の閉鎖等,0,2022-02-07,2022-01-25,株式会社地産建設,,株式会社,神奈川県,横浜市保土ケ谷区,川辺町３４番地,,14,106,2400001,,,2022-01-25,清算の結了等,,,2021-10-14,1,,,,,チサンケンセツ,0
1070,4020003008043,登記記録の閉鎖等,0,2022-02-07,2022-02-02,合資会社ＯＮＥ,,合資会社,神奈川県,横浜市磯子区,丸山１丁目１５－１２－３０２,,14,107,2350011,,,2022-02-02,清算の結了等,,,2015-10-05,1,,,,,ワン,0
1077,4021005002884,登記記録の閉鎖等,0,2022-02-07,2022-01-28,相模原信用組合,,その他の設立登記法人,神奈川県,相模原市,相模原３丁目５番４－５０１号,,14,209,2290031,,,2022-01-28,登記官による閉鎖,,,2015-12-10,1,,,,,,0
1079,4030001044080,登記記録の閉鎖等,0,2022-02-07,2022-02-02,ＴＳＮトレーディング株式会社,,株式会社,東京都,小平市,花小金井南町１丁目１０番８号,,13,211,1870003,,,2022-02-02,清算の結了等,,,2015-10-05,1,,,,,ティーエスエヌトレーディング,0
1108,4050005002017,登記記録の閉鎖等,0,2022-02-07,2022-02-02,特定非営利活動法人フリースクール　トライアル,,その他の設立登記法人,茨城県,水戸市,千波町２７７６の３,,08,201,3100851,,,2022-02-02,清算の結了等,,,2015-10-05,1,,,,,フリースクールトライアル,0
1113,4070002011126,登記記録の閉鎖等,0,2022-02-07,2022-02-01,有限会社東耕,,有限会社,群馬県,高崎市,上里見町１３４番地の１,,10,202,3703345,,,2022-02-01,清算の結了等,,,2015-10-05,1,,,,,トウコウ,0
1116,4080101008591,登記記録の閉鎖等,0,2022-02-07,2022-02-03,山静自動車工業株式会社,,株式会社,静岡県,富士市,依田橋２２３番地の１,,22,210,4170002,,,2022-02-03,合併による解散等,4080001013394,令和４年２月１日静岡県島田市金谷東一丁目１２３５番地の１西東石油株式会社（4080001013394）に合併し解散,2015-10-05,1,,,,,サンセイジドウシャコウギョウ,0
1118,4080101011612,登記記録の閉鎖等,0,2022-02-07,2022-02-03,戸塚機械株式会社,,株式会社,静岡県,富士宮市,万野原新田３６９８番地の１,,22,207,4180001,,,2022-02-03,清算の結了等,,,2015-10-05,1,,,,,トツカキカイ,0
1127,4110001004506,登記記録の閉鎖等,0,2022-02-07,2022-01-28,日東土地株式会社,,株式会社,新潟県,新潟市,南出来島２丁目１１番３号,,15,201,9500963,,,2022-01-28,清算の結了等,,,2018-03-23,1,,,,,ニットウトチ,0
1133,4110002027497,登記記録の閉鎖等,0,2022-02-07,2022-02-01,有限会社下條屋製菓,,有限会社,新潟県,長岡市,東蔵王２丁目５番３号,,15,202,9400029,,,2022-02-01,清算の結了等,,,2015-10-05,1,,,,,シモジョウヤセイカ,0
1135,4120001102424,登記記録の閉鎖等,0,2022-02-07,2022-02-01,株式会社アクアシステム,,株式会社,兵庫県,尼崎市,元浜町５丁目９１番地,,28,202,6600085,,,2022-02-01,合併による解散等,6140001047921,令和４年２月１日兵庫県尼崎市元浜町五丁目９１番地株式会社エボシ製作所（6140001047921）に合併し解散,2015-10-05,1,,,,,アクアシステム,0
1159,4122001027626,登記記録の閉鎖等,0,2022-02-07,2022-02-01,株式会社田積,,株式会社,大阪府,東大阪市,渋川町２丁目５番９号,,27,227,5770836,,,2022-02-01,合併による解散等,7120001017917,令和４年２月１日大阪府東大阪市渋川町二丁目５番９号株式会社田積製作所（7120001017917）に合併し解散,2015-10-05,1,,,,,タヅミ,0
1163,4122002003213,登記記録の閉鎖等,0,2022-02-07,2022-02-03,有限会社テクノメディカル,,有限会社,大阪府,東大阪市,足代２丁目６番７号,,27,227,5770841,,,2022-02-03,清算の結了等,,,2015-10-05,1,,,,,テクノメディカル,0
1170,4130002017851,登記記録の閉鎖等,0,2022-02-07,2022-02-02,京都天與有限会社,,有限会社,京都府,京都市中京区,聚楽廻中町４１番地,,26,104,6048403,,,2022-02-02,清算の結了等,,,2015-10-05,1,,,,,キョウトテンヨ,0
1201,4180001020645,登記記録の閉鎖等,0,2022-02-07,2022-02-01,株式会社パナ店創,,株式会社,愛知県,名古屋市中川区,中野新町５丁目５１番地,,23,110,4540837,,,2022-02-01,清算の結了等,,,2015-10-05,1,,,,,パナテンソウ,0
1212,4180002011577,登記記録の閉鎖等,0,2022-02-07,2022-02-01,有限会社志賀管工,,有限会社,愛知県,名古屋市北区,中切町４丁目８０番地,,23,103,4620051,,,2022-02-01,清算の結了等,,,2015-10-05,1,,,,,シガカンコウ,0
1215,4180301000454,登記記録の閉鎖等,0,2022-02-07,2022-01-18,株式会社オリバー,,株式会社,愛知県,岡崎市,薮田１丁目１番地１２,,23,202,4442137,,,2022-01-18,合併による解散等,6010001217933,令和４年１月１日東京都千代田区丸の内一丁目９番２号株式会社ＮＥＸＴ－Ｏ（6010001217933）に合併し解散,2015-10-05,1,,,,,オリバー,0
1247,4290801022631,登記記録の閉鎖等,0,2022-02-07,2022-02-02,株式会社大光プランニング,,株式会社,福岡県,北九州市小倉北区,三萩野２丁目３番１０号ヒットパークレジデンス三萩野５階５１０号,,40,106,8020065,,,2022-02-02,清算の結了等,,,2016-06-09,1,,,,,タイコウプランニング,0
1255,4330002005068,登記記録の閉鎖等,0,2022-02-07,2022-02-01,有限会社輝生会,,有限会社,熊本県,熊本市東区,京塚本町４番２１号,,43,102,8620952,,,2022-02-01,合併による解散等,1330002010979,令和４年２月１日熊本市中央区安政町５番９号株式会社友愛（1330002010979）に合併し解散,2015-10-05,1,,,,,キセイカイ,0
1267,4370001015114,登記記録の閉鎖等,0,2022-02-07,2022-01-24,株式会社エス・エー・ケー,,株式会社,宮城県,仙台市若林区,六丁目字柳堀１８番地の１,,04,103,9840031,,,2022-01-24,登記官による閉鎖,,,2015-10-05,1,,,,,,0
1273,4380001014230,登記記録の閉鎖等,0,2022-02-07,2022-02-01,メンテックいわき株式会社,,株式会社,福島県,いわき市,平上荒川字桜町５５番地の１,,07,204,9708034,,,2022-02-01,清算の結了等,,,2015-10-05,1,,,,,,0
1292,4440002005305,登記記録の閉鎖等,0,2022-02-07,2022-02-01,有限会社ルピナス,,有限会社,北海道,函館市,湯川町３丁目２５番１５号,,01,202,0420932,,,2022-02-01,合併による解散等,9440003001315,令和４年２月１日北海道函館市湯川町二丁目３７番５号合同会社エナメディカル（9440003001315）に合併し解散,2015-10-05,1,,,,,ルピナス,0
1329,5010401135249,登記記録の閉鎖等,0,2022-02-07,2022-01-31,株式会社インサイド・アウト,,株式会社,東京都,港区,南青山２丁目２番１５号ウィン青山９４２,,13,103,1070062,,,2022-01-31,清算の結了等,,,2017-11-29,1,,,,,インサイドアウト,0
1331,5010401158506,登記記録の閉鎖等,0,2022-02-07,2022-01-21,ＫＩＫＵＴＯＫＵ株式会社,,株式会社,東京都,港区,赤坂９丁目２番１３号,,13,103,1070052,,,2022-01-21,清算の結了等,,,2021-03-08,1,,,,,キクトク,0
1384,5020003008042,登記記録の閉鎖等,0,2022-02-07,2022-02-02,合資会社ＺＥＲＯ,,合資会社,神奈川県,横浜市磯子区,丸山１丁目１５－１２－３０２,,14,107,2350011,,,2022-02-02,清算の結了等,,,2015-10-05,1,,,,,ゼロ,0
1389,5021005001704,登記記録の閉鎖等,0,2022-02-07,2022-01-20,宗教法人天理教秋之花分教会,,その他の設立登記法人,神奈川県,高座郡寒川町,倉見１３６６番地,,14,321,2530101,,,2022-01-20,合併による解散等,9150005002811,令和４年１月１３日奈良県大和郡山市馬司町３６８番地天理教秋津大教会（9150005002811）に合併し解散,2015-10-05,1,,,,,,0
1436,5100001019413,登記記録の閉鎖等,0,2022-02-07,2022-02-01,株式会社金中井筒屋商店,,株式会社,長野県,岡谷市,本町２丁目２番７号,,20,204,3940028,,,2022-02-01,合併による解散等,4100001022624,令和４年２月１日長野県飯田市下殿岡４５４番地１０株式会社中村（4100001022624）に合併し解散,2015-10-05,1,,,,,カネナカイヅツヤショウテン,0
1448,5120001076485,登記記録の閉鎖等,0,2022-02-07,2022-02-02,株式会社オーグラム,,株式会社,大阪府,大阪市中央区,南船場３丁目８番７号,,27,128,5420081,,,2022-02-02,清算の結了等,,,2015-10-05,1,,,,,オーグラム,0
1485,5140001051511,登記記録の閉鎖等,0,2022-02-07,2022-02-02,ミナミ金型株式会社,,株式会社,兵庫県,尼崎市,西長洲町２丁目２番４０号,,28,202,6600805,,,2022-02-02,清算の結了等,,,2015-10-05,1,,,,,ミナミカナガタ,0
1491,5140003008757,登記記録の閉鎖等,0,2022-02-07,2022-02-01,合同会社マルタ,,合同会社,兵庫県,西宮市,鳴尾浜２丁目１４番地,,28,204,6638142,,,2022-02-01,合併による解散等,3140001070447,令和４年２月１日兵庫県西宮市上甲子園五丁目５番１７号株式会社丸タ商店（3140001070447）に合併し解散,2015-10-05,1,,,,,マルタ,0
1507,5180001096726,登記記録の閉鎖等,0,2022-02-07,2022-02-01,アソシエ株式会社,,株式会社,愛知県,海部郡蟹江町,城１丁目２８３番地,,23,425,4970040,,,2022-02-01,清算の結了等,,,2015-10-05,1,,,,,アソシエ,0
1515,5180005000114,登記記録の閉鎖等,0,2022-02-07,2022-01-18,天理教名原分教会,,その他の設立登記法人,愛知県,名古屋市中村区,北畑町３丁目４７番地３,,23,105,4530815,,,2022-01-18,合併による解散等,8200005008060,令和４年１月１７日岐阜県関市洞戸菅谷１００７番地の１天理教菅原分教会（8200005008060）に合併し解散,2015-10-05,1,,,,,テンリキョウナハラブンキョウカイ,0
1521,5180303003966,登記記録の閉鎖等,0,2022-02-07,2022-02-02,合同会社知立観光,,合同会社,愛知県,知立市,中町中１２８番地,,23,225,4720033,,,2022-02-02,合併による解散等,8020001043377,令和４年２月１日横浜市中区山下町２４番地６０５株式会社シンリョー（8020001043377）に合併し解散,2017-11-28,1,,,,,,0
1533,5220001002745,登記記録の閉鎖等,0,2022-02-07,2022-02-01,株式会社コンセプト・ツゥー,,株式会社,石川県,金沢市,御影町２番２号,,17,201,9218021,,,2022-02-01,合併による解散等,1220001001379,令和４年２月１日石川県金沢市御影町２番２号株式会社益進（1220001001379）に合併し解散,2015-10-05,1,,,,,コンセプトツゥー,0
1581,5390002012215,登記記録の閉鎖等,0,2022-02-07,2022-02-03,有限会社勘鳥居,,有限会社,山形県,東根市,神町東１丁目１８番１０号,,06,211,9993764,,,2022-02-03,清算の結了等,,,2015-10-05,1,,,,,カントリイ,0
1583,5420002003292,登記記録の閉鎖等,0,2022-02-07,2022-02-01,有限会社澤里産業,,有限会社,青森県,東津軽郡今別町,大字今別字西田２５８番地２５３,,02,303,0301502,,,2022-02-01,清算の結了等,,,2015-10-05,1,,,,,サワサトサンギョウ,0
1584,5430001055846,登記記録の閉鎖等,0,2022-02-07,2022-02-02,株式会社にいかっぷアグリサービス,,株式会社,北海道,新冠郡新冠町,字本町５９番地の１,,01,604,0592401,,,2022-02-02,清算の結了等,,,2015-10-05,1,,,,,ニイカップアグリサービス,0
1585,5430001066100,登記記録の閉鎖等,0,2022-02-07,2022-01-31,株式会社サンボウ,,株式会社,東京都,港区,南青山２丁目２番８号ＤＦビル７階,,13,103,1070062,,,2022-01-31,清算の結了等,,,2015-10-05,1,,,,,サンボウ,0
1602,6010001148609,登記記録の閉鎖等,0,2022-02-07,2022-02-01,株式会社ＤＭＭ．ｆｕｔｕｒｅｗｏｒｋｓ,,株式会社,東京都,港区,六本木３丁目２番１号,,13,103,1060032,,,2022-02-01,合併による解散等,3011001038942,令和４年２月１日東京都港区六本木三丁目２番１号合同会社ＤＭＭ．ｃｏｍ（3011001038942）に合併し解散,2015-10-05,1,,,,,ディーエムエムドットフューチャーワークス,0
1603,6010001162824,登記記録の閉鎖等,0,2022-02-07,2022-01-19,株式会社壮関,,株式会社,栃木県,矢板市,こぶし台４番地１,,09,211,3291579,,,2022-01-19,合併による解散等,3010401149936,令和４年１月１日東京都港区愛宕二丁目５番１号愛宕グリーンヒルズＭＯＲＩタワー株式会社ＮＳＳＫ－Ｎ（3010401149936）に合併し解散,2015-10-05,1,,,,,ソウカン,0
1606,6010001217710,登記記録の閉鎖等,0,2022-02-07,2022-02-01,株式会社鮨銀座おのでら,,株式会社,東京都,千代田区,大手町１丁目１番３号,,13,101,1000004,,,2022-02-01,合併による解散等,9010001176805,令和４年２月１日東京都千代田区大手町一丁目１番３号株式会社ＯＮＯＤＥＲＡフードサービス（9010001176805）に合併し解散,2021-04-26,1,,,,,スシギンザオノデラ,0
1614,6010005022693,登記記録の閉鎖等,0,2022-02-07,2022-02-01,一般社団法人グローバルファミリーヨガ,,その他の設立登記法人,東京都,千代田区,神田鍛冶町１－９－１－４,,13,101,1000000,,,2022-02-01,清算の結了等,,,2015-10-05,1,,,,,グローバルファミリーヨガ,0
1617,6010401061485,登記記録の閉鎖等,0,2022-02-07,2022-01-31,レールウェイマシナリー株式会社,,株式会社,東京都,港区,芝浦１丁目１０番１１号,,13,103,1050023,,,2022-01-31,清算の結了等,,,2015-10-05,1,,,,,レールウェイマシナリー,0
1643,6011001100113,登記記録の閉鎖等,0,2022-02-07,2022-02-01,株式会社ポイント・パートナーズ,,株式会社,東京都,品川区,上大崎３丁目１番１号,,13,109,1410021,,,2022-02-01,合併による解散等,3011001053314,令和４年２月１日東京都品川区上大崎三丁目１番１号株式会社トップ・パートナーズ（3011001053314）に合併し解散,2015-10-05,1,,,,,ポイントパートナーズ,0
1645,6011001121381,登記記録の閉鎖等,0,2022-02-07,2022-01-12,株式会社ＮＡＬＵ　ＴＲＡＤＩＮＧ,,株式会社,東京都,文京区,本郷４丁目１番３号,,13,105,1130033,,,2022-01-12,合併による解散等,4011001093672,令和３年１２月１日東京都目黒区青葉台一丁目７番１４－４０３号株式会社Ｋ　Ａｓｓｅｔ　Ｍａｎａｇｅｍｅｎｔ（4011001093672）に合併し解散,2018-03-29,1,,,,,ナルトレーディング,0
1673,6012702013768,登記記録の閉鎖等,0,2022-02-07,2022-02-02,有限会社美装板金,,有限会社,埼玉県,新座市,栗原２丁目４番１５－３０３号,,11,230,3520035,,,2022-02-02,清算の結了等,,,2015-10-05,1,,,,,,0
1695,6020002023405,登記記録の閉鎖等,0,2022-02-07,2022-02-03,有限会社楓荘,,有限会社,神奈川県,横浜市保土ケ谷区,常盤台５番２号,,14,106,2400067,,,2022-02-03,清算の結了等,,,2015-10-05,1,,,,,カエデソウ,0
1698,6021001048244,登記記録の閉鎖等,0,2022-02-07,2022-01-28,株式会社親睦不動産,,株式会社,神奈川県,藤沢市,辻堂１７３１番地,,14,205,2510047,,,2022-01-28,登記官による閉鎖,,,2015-10-05,1,,,,,,0
1720,6040001104427,登記記録の閉鎖等,0,2022-02-07,2022-02-02,株式会社飛鴻貿易,,株式会社,千葉県,千葉市中央区,南町３丁目１５番１８－１０３号,,12,101,2600842,,,2022-02-02,清算の結了等,,,2018-04-26,1,,,,,ヒコウボウエキ,0
1744,6080002013706,登記記録の閉鎖等,0,2022-02-07,2022-02-03,有限会社スルガエンタープライズ,,有限会社,静岡県,島田市,柳町３番の３,,22,209,4270021,,,2022-02-03,清算の結了等,,,2015-10-05,1,,,,,スルガエンタープライズ,0
1745,6080002018093,登記記録の閉鎖等,0,2022-02-07,2022-01-31,有限会社山朋電工社,,有限会社,静岡県,藤枝市,上青島５１８番地,,22,214,4260036,,,2022-01-31,清算の結了等,,,2015-10-05,1,,,,,サンポウデンコウシャ,0
1748,6080401018074,登記記録の閉鎖等,0,2022-02-07,2022-02-03,株式会社ベストスコア,,株式会社,静岡県,浜松市中区,中央３丁目１０６番地の１７エスポワール中央５０４,,22,131,4300929,,,2022-02-03,清算の結了等,,,2015-10-05,1,,,,,ベストスコア,0
1757,6100005002307,登記記録の閉鎖等,0,2022-02-07,2022-02-03,特定非営利活動法人サン・コート,,その他の設立登記法人,長野県,長野市,篠ノ井二ッ柳２０７６番地,,20,201,3810000,,,2022-02-03,清算の結了等,,,2015-10-05,1,,,,,サンコート,0
1759,6110001026135,登記記録の閉鎖等,0,2022-02-07,2022-01-26,株式会社アクエリア,,株式会社,新潟県,南魚沼市,中３１１番地,,15,226,9496436,,,2022-01-26,清算の結了等,,,2021-11-04,1,,,,,アクエリア,0
1766,6120001082276,登記記録の閉鎖等,0,2022-02-07,2022-01-13,ダイレクトイングリッシュ・ジャパン株式会社,,株式会社,東京都,新宿区,西新宿６丁目１８番１号住友不動産新宿セントラルパークタワー,,13,104,1600023,,,2022-01-13,合併による解散等,4011101011096,令和３年１２月３１日東京都新宿区西新宿六丁目１８番１号住友不動産新宿セントラルパークタワー全研本社株式会社（4011101011096）に合併し解散,2015-10-05,1,,,,,ダイレクトイングリッシュジャパン,0
1773,6120001163654,登記記録の閉鎖等,0,2022-02-07,2022-02-02,荒木運輸サービス株式会社,,株式会社,大阪府,大阪市西淀川区,中島２丁目７番４８号,,27,113,5550041,,,2022-02-02,清算の結了等,,,2015-10-05,1,,,,,アラキウンユサービス,0
1802,6122002003624,登記記録の閉鎖等,0,2022-02-07,2022-02-03,有限会社ハイビューティ,,有限会社,大阪府,東大阪市,四条町６番６号,,27,227,5798053,,,2022-02-03,清算の結了等,,,2015-10-05,1,,,,,ハイビューティ,0
1804,6130001006192,登記記録の閉鎖等,0,2022-02-07,2022-02-02,北川商事株式会社,,株式会社,京都府,京都市左京区,岩倉南池田町１０６番地の３,,26,103,6060005,,,2022-02-02,清算の結了等,,,2015-10-05,1,,,,,,0
1822,6140005023885,登記記録の閉鎖等,0,2022-02-07,2022-02-04,特定非営利活動法人ヒロ教育総合研究所グループ,,その他の設立登記法人,兵庫県,宝塚市,中山台１丁目１１番７号,,28,214,6650876,,,2022-02-04,清算の結了等,,,2017-12-20,1,,,,,ヒロキョウイクソウゴウケンキュウショグループ,0
1826,6180001074771,登記記録の閉鎖等,0,2022-02-07,2022-02-01,株式会社八屋産業,,株式会社,愛知県,春日井市,庄名町字川崎４５２番地の６,,23,206,4870022,,,2022-02-01,清算の結了等,,,2015-10-05,1,,,,,ハチヤサンギョウ,0
1837,6180002025303,登記記録の閉鎖等,0,2022-02-07,2022-01-31,有限会社井上プラント工業,,有限会社,愛知県,名古屋市緑区,有松愛宕９０６番地,,23,114,4580903,,,2022-01-31,清算の結了等,,,2015-10-05,1,,,,,イノウエプラントコウギョウ,0
1857,6230005007111,登記記録の閉鎖等,0,2022-02-07,2022-01-24,特定非営利活動法人つばさ２１,,その他の設立登記法人,富山県,高岡市,戸出町３丁目２１番２３号コーポアサヒ１０３号室,,16,202,9391104,,,2022-01-24,清算の結了等,,,2015-10-05,1,,,,,ツバサニジュウイチ,0
1863,6240002035460,登記記録の閉鎖等,0,2022-02-07,2022-02-02,有限会社黒木薬局,,有限会社,広島県,呉市,本通１丁目３番８号,,34,202,7370045,,,2022-02-02,清算の結了等,,,2015-10-05,1,,,,,クロキヤッキョク,0
1893,6400602001630,登記記録の閉鎖等,0,2022-02-07,2022-02-01,有限会社ウインドパワー岩手,,有限会社,岩手県,奥州市,水沢太日通り１丁目４番２４号,,03,215,0230827,,,2022-02-01,清算の結了等,,,2015-10-05,1,,,,,ウインドパワーイワテ,0
1895,6420002010560,登記記録の閉鎖等,0,2022-02-07,2022-02-02,有限会社オーエムエス,,有限会社,青森県,八戸市,小中野８丁目１７番３０号,,02,203,0310802,,,2022-02-02,清算の結了等,,,2015-10-05,1,,,,,オーエムエス,0
1914,6500005000749,登記記録の閉鎖等,0,2022-02-07,2022-02-04,医療法人社団富田外科・胃腸科,,その他の設立登記法人,愛媛県,松山市,新石手甲４９番地９,,38,201,7900901,,,2022-02-04,清算の結了等,,,2015-10-05,1,,,,,トミタゲカイチョウカ,0
1919,7010001220151,登記記録の閉鎖等,0,2022-02-07,2022-02-02,株式会社Ｙ５,,株式会社,東京都,千代田区,大手町１丁目１番１号,,13,101,1000004,,,2022-02-02,清算の結了等,,,2021-08-03,1,,,,,ワイファイブ,0
1968,7011401020125,登記記録の閉鎖等,0,2022-02-07,2022-02-01,株式会社関東リテック,,株式会社,東京都,板橋区,富士見町１７番８号,,13,119,1740062,,,2022-02-01,合併による解散等,1011401021327,令和４年１月２６日東京都板橋区上板橋二丁目１３番３－７０１号株式会社プラウド（1011401021327）に合併し解散,2017-03-22,1,,,,,カントウリテック,0
1978,7011802016688,登記記録の閉鎖等,0,2022-02-07,2022-02-04,有限会社長嶋フリップサウンド,,有限会社,東京都,足立区,東綾瀬１丁目９番８号,,13,121,1200004,,,2022-02-04,清算の結了等,,,2015-10-05,1,,,,,ナガシマフリップサウンド,0
1983,7012402000181,登記記録の閉鎖等,0,2022-02-07,2022-02-02,阿部商事有限会社,,有限会社,東京都,府中市,府中町２丁目１６番地の５,,13,206,1830055,,,2022-02-02,清算の結了等,,,2015-10-05,1,,,,,,0
1985,7013101004060,登記記録の閉鎖等,0,2022-02-07,2022-02-03,ミツヤ商事株式会社,,株式会社,東京都,青梅市,東青梅４丁目１８番地の１１,,13,205,1980042,,,2022-02-03,清算の結了等,,,2015-10-05,1,,,,,ミツヤショウジ,0
1987,7013102006923,登記記録の閉鎖等,0,2022-02-07,2022-02-03,ヤマキ産業有限会社,,有限会社,東京都,青梅市,今寺５丁目１７番地の２５,,13,205,1980021,,,2022-02-03,清算の結了等,,,2015-10-05,1,,,,,ヤマキサンギョウ,0
1991,7020001028684,登記記録の閉鎖等,0,2022-02-07,2022-02-01,富士シティオ株式会社,,株式会社,神奈川県,横浜市中区,日本大通１７番地,,14,104,2310021,,,2022-02-01,合併による解散等,9020001004403,令和４年２月１日横浜市中区日本大通１７番地富士シティオ株式会社（9020001004403）に合併し解散,2015-10-05,1,,,,,,0
1997,7021001001573,登記記録の閉鎖等,0,2022-02-07,2022-02-03,モーションウェーブ株式会社,,株式会社,神奈川県,藤沢市,善行７丁目３番５号,,14,205,2510871,,,2022-02-03,清算の結了等,,,2015-10-05,1,,,,,モーションウェーブ,0
1998,7021001022917,登記記録の閉鎖等,0,2022-02-07,2022-02-01,株式会社旭洋,,株式会社,神奈川県,秦野市,菩提１４５番地の１,,14,211,2591302,,,2022-02-01,清算の結了等,,,2015-10-05,1,,,,,キョクヨウ,0
2010,7030002018072,登記記録の閉鎖等,0,2022-02-07,2022-02-02,有限会社東明商事,,有限会社,埼玉県,さいたま市北区,盆栽町１５４番地１,,11,102,3310805,,,2022-02-02,清算の結了等,,,2015-10-05,1,,,,,トウメイショウジ,0
2016,7030003003189,登記記録の閉鎖等,0,2022-02-07,2022-02-02,合同会社伊藤商店,,合同会社,埼玉県,草加市,手代３丁目７番３号,,11,221,3400021,,,2022-02-02,清算の結了等,,,2015-10-05,1,,,,,イトウショウテン,0
2017,7030003012818,登記記録の閉鎖等,0,2022-02-07,2022-02-02,合同会社読売センター小川,,合同会社,埼玉県,比企郡小川町,大字小川１０７番地１,,11,343,3550321,,,2022-02-02,清算の結了等,,,2018-12-20,1,,,,,ヨミウリセンターオガワ,0
2036,7040003011694,登記記録の閉鎖等,0,2022-02-07,2022-01-24,桜不動産合同会社,,合同会社,千葉県,千葉市美浜区,高洲２丁目７番１３棟２０９号,,12,106,2610004,,,2022-01-24,清算の結了等,,,2018-05-25,1,,,,,サクラフドウサン,0
2039,7050001012909,登記記録の閉鎖等,0,2022-02-07,2022-02-03,株式会社ＫＴ大和,,株式会社,茨城県,稲敷郡阿見町,住吉２丁目１２番地５,,08,443,3001158,,,2022-02-03,清算の結了等,,,2015-10-05,1,,,,,ケーティーヤマト,0
2046,7060002012931,登記記録の閉鎖等,0,2022-02-07,2022-01-27,有限会社岡田興業,,有限会社,栃木県,塩谷郡高根沢町,大字宝積寺２２４８番地３２,,09,386,3291233,,,2022-01-27,清算の結了等,,,2015-10-05,1,,,,,オカダコウギョウ,0
2047,7060003003401,登記記録の閉鎖等,0,2022-02-07,2022-02-03,ＳＫＹ　ＳＴＡＲ　ＴＲＡＤＩＮＧ合同会社,,合同会社,栃木県,鹿沼市,磯町１５７－８３,,09,205,3220536,,,2022-02-03,清算の結了等,,,2020-07-02,1,,,,,スカイスタートレーディング,0
2051,7070002018960,登記記録の閉鎖等,0,2022-02-07,2022-02-03,有限会社斎木建設,,有限会社,群馬県,伊勢崎市,今泉町２丁目９３９番地６,,10,204,3720031,,,2022-02-03,清算の結了等,,,2015-10-05,1,,,,,サイキケンセツ,0
2053,7080002007442,登記記録の閉鎖等,0,2022-02-07,2022-02-03,有限会社さくらパークス,,有限会社,静岡県,静岡市葵区,常磐町２丁目１１番地の５,,22,101,4200034,,,2022-02-03,清算の結了等,,,2015-10-05,1,,,,,サクラパークス,0
2068,7100005010291,登記記録の閉鎖等,0,2022-02-07,2022-02-03,特定非営利活動法人だいち,,その他の設立登記法人,長野県,下伊那郡豊丘村,大字神稲３１２８番地１,,20,416,3993202,,,2022-02-03,清算の結了等,,,2015-10-05,1,,,,,ダイチ,0
2069,7110002018279,登記記録の閉鎖等,0,2022-02-07,2022-02-01,有限会社コーディネートシヨップ・セキ,,有限会社,新潟県,加茂市,仲町３番３号,,15,209,9591351,,,2022-02-01,清算の結了等,,,2015-10-05,1,,,,,コーディネートショップセキ,0
2089,7120002048589,登記記録の閉鎖等,0,2022-02-07,2022-02-02,有限会社イワオリース,,有限会社,大阪府,大阪市淀川区,加島４丁目１１番１２号,,27,123,5320031,,,2022-02-02,清算の結了等,,,2015-10-05,1,,,,,イワオリース,0
2091,7120003019143,登記記録の閉鎖等,0,2022-02-07,2022-02-02,磐石合同会社,,合同会社,大阪府,大阪市平野区,加美北１丁目２３番２７号１０１号室,,27,126,5470001,,,2022-02-02,清算の結了等,,,2021-03-31,1,,,,,バンジャク,0
2114,7140002029711,登記記録の閉鎖等,0,2022-02-07,2022-02-03,有限会社まこと,,有限会社,兵庫県,明石市,魚住町清水字宮ノ前１８８１番地の５,,28,203,6740074,,,2022-02-03,清算の結了等,,,2015-10-05,1,,,,,マコト,0
2128,7170002002418,登記記録の閉鎖等,0,2022-02-07,2022-02-04,有限会社谷口タバコ商店,,有限会社,和歌山県,和歌山市,西紺屋町２丁目１２番地,,30,201,6408116,,,2022-02-04,清算の結了等,,,2015-10-05,1,,,,,,0
2143,7180002032372,登記記録の閉鎖等,0,2022-02-07,2022-02-03,有限会社バイナリー,,有限会社,愛知県,名古屋市中区,金山１丁目２番４号,,23,106,4600022,,,2022-02-03,清算の結了等,,,2015-10-05,1,,,,,バイナリー,0
2154,7190002004775,登記記録の閉鎖等,0,2022-02-07,2022-02-07,有限会社辻新聞店,00075853,有限会社,三重県,亀山市,川合町７９３番地の８,,24,210,5190103,,,2022-02-07,清算の結了等,,,2015-10-05,1,,,,,ツジシンブンテン,0
2165,7230002005298,登記記録の閉鎖等,0,2022-02-07,2022-02-03,有限会社キョウシン,,有限会社,富山県,富山市,中島４丁目１番１５号,,16,201,9300801,,,2022-02-03,清算の結了等,,,2015-10-05,1,,,,,キョウシン,0
2171,7240001030404,登記記録の閉鎖等,0,2022-02-07,2022-02-01,株式会社キャノンベーカリー,,株式会社,広島県,福山市,西町１丁目１０番２４号,,34,207,7200067,,,2022-02-01,清算の結了等,,,2015-10-05,1,,,,,キャノンベーカリー,0
2176,7240002027218,登記記録の閉鎖等,0,2022-02-07,2022-02-02,有限会社イマーヂ・サカイ,,有限会社,広島県,東広島市,西条上市町６番２９号,,34,212,7390006,,,2022-02-02,清算の結了等,,,2015-10-05,1,,,,,イマーヂサカイ,0
2192,7300001011570,登記記録の閉鎖等,0,2022-02-07,2022-02-03,野中工務店株式会社,,株式会社,佐賀県,佐賀市,光３丁目５番１４号,,41,201,8400033,,,2022-02-03,清算の結了等,,,2019-01-16,1,,,,,ノナカコウムテン,0
2199,7340001010131,登記記録の閉鎖等,0,2022-02-07,2022-02-01,徳栄重機株式会社,,株式会社,鹿児島県,大島郡伊仙町,大字糸木名１９０番地５,,46,532,8918324,,,2022-02-01,合併による解散等,5340001010133,令和４年２月１日鹿児島県大島郡伊仙町糸木名１９０番地５徳之島建機リース株式会社（5340001010133）に合併し解散,2015-10-05,1,,,,,トクエイジュウキ,0
2208,7370002005383,登記記録の閉鎖等,0,2022-02-07,2022-02-01,有限会社星和陸送,,有限会社,宮城県,仙台市若林区,六丁の目元町１４番３３号,,04,103,9840014,,,2022-02-01,合併による解散等,5370001004000,令和４年２月１日仙台市若林区六丁の目元町１４番３３号星自動車塗装工業株式会社（5370001004000）に合併し解散,2015-10-05,1,,,,,セイワリクソウ,0
2209,7370205001964,登記記録の閉鎖等,0,2022-02-07,2022-02-03,農事組合法人テンクスＶ,,その他の設立登記法人,宮城県,大崎市,松山須摩屋字舟場下２５番地３,,04,215,9871301,,,2022-02-03,清算の結了等,,,2015-10-05,1,,,,,テンクスファイブ,0
2213,7380001016372,登記記録の閉鎖等,0,2022-02-07,2022-02-01,株式会社コウヨー精工,,株式会社,福島県,南相馬市,鹿島区南海老字竹ノ内１３番地,,07,212,9792312,,,2022-02-01,清算の結了等,,,2015-10-05,1,,,,,,0
2228,7440002000162,登記記録の閉鎖等,0,2022-02-07,2022-02-04,有限会社阿部欣爾商店,,有限会社,北海道,函館市,万代町１２番１２号,,01,202,0400075,,,2022-02-04,清算の結了等,,,2015-10-05,1,,,,,アベキンジショウテン,0
2233,7480002009654,登記記録の閉鎖等,0,2022-02-07,2022-02-01,徳島建設有限会社,,有限会社,徳島県,阿波市,土成町吉田字原田市の参３５番地,,36,206,7711507,,,2022-02-01,合併による解散等,7480001004433,令和４年２月１日徳島県吉野川市鴨島町鴨島１７５番地１阿波舗道株式会社（7480001004433）に合併し解散,2015-10-05,1,,,,,トクシマケンセツ,0
2245,8010001030335,登記記録の閉鎖等,0,2022-02-07,2022-01-31,雅総業株式会社,,株式会社,東京都,千代田区,外神田４丁目６番１号,,13,101,1010021,,,2022-01-31,合併による解散等,5010001018936,令和４年１月３０日東京都千代田区外神田四丁目６番１号塩田電線株式会社（5010001018936）に合併し解散,2015-10-05,1,,,,,ミヤビソウギョウ,0
2248,8010001209796,登記記録の閉鎖等,0,2022-02-07,2022-02-02,株式会社ＶＡＪ東京,,株式会社,東京都,中央区,日本橋２丁目１番１７号,,13,102,1030027,,,2022-02-02,清算の結了等,,,2020-05-26,1,,,,,ブィエィジェイトウキョウ,0
2263,8010101013297,登記記録の閉鎖等,0,2022-02-07,2022-02-03,株式会社ＤＭヴァンガード,,株式会社,東京都,八王子市,犬目町４７０番地１メイクパル２１０号,,13,201,1930802,,,2022-02-03,清算の結了等,,,2018-05-29,1,,,,,,0
2287,8010901034071,登記記録の閉鎖等,0,2022-02-07,2022-02-02,株式会社ミックス・ナッツ・コンサルティング,,株式会社,東京都,中央区,八重洲１丁目９番１３号八重洲駅前合同ビル６階,,13,102,1030028,,,2022-02-02,清算の結了等,,,2015-10-05,1,,,,,ミックスナッツコンサルティング,0
2288,8010901040004,登記記録の閉鎖等,0,2022-02-07,2022-02-02,株式会社ネクストコミュニティ,,株式会社,神奈川県,川崎市中原区,小杉町３丁目６００番地,,14,133,2110063,,,2022-02-02,清算の結了等,,,2017-04-27,1,,,,,ネクストコミュニティ,0
2292,8011001102735,登記記録の閉鎖等,0,2022-02-07,2022-02-01,積和グランドマスト株式会社,,株式会社,東京都,渋谷区,代々木２丁目１番１号,,13,113,1510053,,,2022-02-01,合併による解散等,4011001034379,令和４年２月１日東京都渋谷区代々木二丁目１番１号積水ハウス不動産東京株式会社（4011001034379）に合併し解散,2015-10-05,1,,,,,セキワグランドマスト,0
2294,8011001104789,登記記録の閉鎖等,0,2022-02-07,2022-02-01,株式会社ＡＭＰ,,株式会社,東京都,品川区,上大崎３丁目１番１号,,13,109,1410021,,,2022-02-01,合併による解散等,3011001053314,令和４年２月１日東京都品川区上大崎三丁目１番１号株式会社トップ・パートナーズ（3011001053314）に合併し解散,2015-10-05,1,,,,,エイエムピー,0
2313,8011502015964,登記記録の閉鎖等,0,2022-02-07,2022-02-02,斉伸重機有限会社,,有限会社,東京都,足立区,皿沼２丁目１９番２０号横田ビル２０１,,13,121,1230862,,,2022-02-02,清算の結了等,,,2015-10-05,1,,,,,サイシンジュウキ,0
2320,8012402005527,登記記録の閉鎖等,0,2022-02-07,2022-02-02,有限会社真崎工務店,,有限会社,東京都,小金井市,貫井南町１丁目１０番８号,,13,210,1840014,,,2022-02-02,清算の結了等,,,2015-10-05,1,,,,,マサキコウムテン,0
2325,8013302013917,登記記録の閉鎖等,0,2022-02-07,2022-02-02,有限会社シズルアーツ,,有限会社,埼玉県,入間市,高倉４丁目１１番２号,,11,225,3580021,,,2022-02-02,清算の結了等,,,2015-10-05,1,,,,,シズルアーツ,0
2343,8030001060355,登記記録の閉鎖等,0,2022-02-07,2022-01-26,日本グリーン工業株式会社,,株式会社,埼玉県,本庄市,新井８１２番地,,11,211,3670075,,,2022-01-26,清算の結了等,,,2015-10-05,1,,,,,ニホングリーンコウギョウ,0
2351,8030005015826,登記記録の閉鎖等,0,2022-02-07,2022-02-03,一般社団法人街活さやま,,その他の設立登記法人,埼玉県,狭山市,広瀬台１丁目２３番８号,,11,215,3501328,,,2022-02-03,清算の結了等,,,2015-10-05,1,,,,,マチカツサヤマ,0
2367,8060002027169,登記記録の閉鎖等,0,2022-02-07,2022-02-04,有限会社ビューティショップたなか,,有限会社,栃木県,矢板市,片岡２０９９番４,,09,211,3291571,,,2022-02-04,清算の結了等,,,2015-10-05,1,,,,,ビューティショップタナカ,0
2369,8070002007938,登記記録の閉鎖等,0,2022-02-07,2022-02-02,有限会社フローリストわかば,,有限会社,群馬県,前橋市,六供町１０２５番地,,10,201,3710804,,,2022-02-02,清算の結了等,,,2015-10-05,1,,,,,フローリストワカバ,0
2372,8070005007951,登記記録の閉鎖等,0,2022-02-07,2022-02-01,特定非営利活動法人ホリメルシー協会,,その他の設立登記法人,群馬県,桐生市,広沢町４丁目２２８０番地,,10,203,3760013,,,2022-02-01,清算の結了等,,,2015-10-05,1,,,,,ホリメルシーキョウカイ,0
2384,8090002000255,登記記録の閉鎖等,0,2022-02-07,2022-02-02,有限会社石坂石材,,有限会社,山梨県,甲府市,太田町５番２６号,,19,201,4000865,,,2022-02-02,清算の結了等,,,2015-10-05,1,,,,,イシザカセキザイ,0
2385,8100002032098,登記記録の閉鎖等,0,2022-02-07,2022-02-02,有限会社インストーラ,,有限会社,長野県,茅野市,宮川８６１４番地２,,20,214,3910013,,,2022-02-02,清算の結了等,,,2015-10-05,1,,,,,インストーラ,0
2390,8120001031702,登記記録の閉鎖等,0,2022-02-07,2022-02-01,丸紅金属株式会社,,株式会社,大阪府,大阪市住之江区,安立２丁目５番１９号,,27,125,5590003,,,2022-02-01,清算の結了等,,,2015-10-05,1,,,,,マルベニキンゾク,0
2424,8120901002793,登記記録の閉鎖等,0,2022-02-07,2022-02-02,株式会社アート建築デザイン,,株式会社,大阪府,茨木市,豊原町９番２０－５１８号,,27,211,5670053,,,2022-02-02,清算の結了等,,,2015-10-05,1,,,,,アートケンチクデザイン,0
2462,8180001133311,登記記録の閉鎖等,0,2022-02-07,2022-02-01,株式会社日本ユーア東海,,株式会社,愛知県,名古屋市中区,東桜２丁目２２番１８号,,23,106,4600005,,,2022-02-01,合併による解散等,4180001116476,令和４年２月１日名古屋市中区東桜二丁目２２番１８号株式会社日本ユーア東海（4180001116476）に合併し解散,2018-08-09,1,,,,,ニホンユーアトウカイ,0
2465,8180002013561,登記記録の閉鎖等,0,2022-02-07,2022-02-01,有限会社河内製作所,,有限会社,愛知県,名古屋市南区,元塩町１丁目３９番地,,23,112,4570823,,,2022-02-01,清算の結了等,,,2015-10-05,1,,,,,カワチセイサクショ,0
2472,8190001005542,登記記録の閉鎖等,0,2022-02-07,2022-02-01,株式会社ステップ,,株式会社,三重県,鈴鹿市,算所２丁目５番１号,,24,207,5130806,,,2022-02-01,合併による解散等,5190001005124,令和４年１月２１日三重県鈴鹿市算所二丁目５番１号株式会社鈴鹿ハンター（5190001005124）に合併し解散,2015-10-05,1,,,,,ステップ,0
2489,8250005006588,登記記録の閉鎖等,0,2022-02-07,2022-01-18,修善坊,,その他の設立登記法人,山口県,岩国市,周東町祖生７４７４番地,,35,208,7420301,,,2022-01-18,合併による解散等,1250005006363,令和３年１２月２５日山口県岩国市周東町用田８６６番地極楽寺（1250005006363）に合併し解散,2015-10-05,1,,,,,シュウゼンボウ,0
2492,8280002008535,登記記録の閉鎖等,0,2022-02-07,2022-02-03,有限会社浜田開発,,有限会社,島根県,浜田市,熱田町８２５番地１,,32,202,6970062,,,2022-02-03,清算の結了等,,,2015-10-05,1,,,,,ハマダカイハツ,0
2503,8310002015040,登記記録の閉鎖等,0,2022-02-07,2022-02-04,有限会社カワハラ機器サービス,,有限会社,長崎県,諫早市,御手水町１０１５番地,,42,204,8590314,,,2022-02-04,清算の結了等,,,2015-10-05,1,,,,,カワハラキキサービス,0
2509,8330001012648,登記記録の閉鎖等,0,2022-02-07,2022-02-01,株式会社パブリックファーム,,株式会社,熊本県,玉名市,天水町小天６９５２番地２,,43,206,8615401,,,2022-02-01,清算の結了等,,,2015-10-05,1,,,,,パブリックファーム,0
2531,8380001004203,登記記録の閉鎖等,0,2022-02-07,2022-02-02,株式会社コンサルアシスト,,株式会社,福島県,福島市,永井川字光白１１番１９,,07,201,9601102,,,2022-02-02,清算の結了等,,,2015-10-05,1,,,,,コンサルアシスト,0
2547,8430001043518,登記記録の閉鎖等,0,2022-02-07,2022-02-02,共栄産業株式会社,,株式会社,北海道,千歳市,本町１丁目１２番地,,01,224,0660047,,,2022-02-02,清算の結了等,,,2015-10-05,1,,,,,キョウエイサンギョウ,0
2562,9010001192793,登記記録の閉鎖等,0,2022-02-07,2022-02-03,ＦｉｖｅＳｔａｒ化粧品株式会社,,株式会社,東京都,千代田区,九段南１丁目５番６号りそな九段ビル５Ｆ・ＫＳフロア,,13,101,1020074,,,2022-02-03,清算の結了等,,,2018-06-27,1,,,,,ファイブスターケショウヒン,0
2565,9010001219076,登記記録の閉鎖等,0,2022-02-07,2022-01-17,Ｍｏｄｉｓ株式会社,,株式会社,東京都,千代田区,外神田４丁目１４番１号秋葉原ＵＤＸ８Ｆ,,13,101,1010021,,,2022-01-17,合併による解散等,9010401052894,令和４年１月１日東京都港区芝浦三丁目４番１号株式会社ＶＳＮ（9010401052894）に合併し解散,2021-06-21,1,,,,,,0
2572,9010002028311,登記記録の閉鎖等,0,2022-02-07,2022-01-31,有限会社楠保険センター,,有限会社,東京都,中央区,日本橋人形町２丁目２番３号堀口ビル,,13,102,1030013,,,2022-01-31,清算の結了等,,,2015-10-05,1,,,,,クスノキホケンセンター,0
2573,9010003030431,登記記録の閉鎖等,0,2022-02-07,2022-02-01,合同会社アーバンワークス,,合同会社,大阪府,大阪市西成区,千本北２丁目１５番４号,,27,122,5570053,,,2022-02-01,清算の結了等,,,2019-08-15,1,,,,,アーバンワークス,0
2577,9010005021759,登記記録の閉鎖等,0,2022-02-07,2022-02-03,一般社団法人井の頭ホールディングス,,その他の設立登記法人,東京都,千代田区,丸の内３丁目１番１号東京共同会計事務所内,,13,101,1000005,,,2022-02-03,清算の結了等,,,2015-10-05,1,,,,,イノガシラホールディングス,0
2578,9010005032839,登記記録の閉鎖等,0,2022-02-07,2022-02-03,一般社団法人水戸ソーラー,,その他の設立登記法人,東京都,中央区,八重洲２丁目７番２号,,13,102,1040028,,,2022-02-03,清算の結了等,,,2021-01-22,1,,,,,ミトソーラー,0
2581,9010401068800,登記記録の閉鎖等,0,2022-02-07,2022-01-12,セブンシックス株式会社,,株式会社,東京都,港区,六本木６丁目１０番１号六本木ヒルズ森タワー１７階,,13,103,1060032,,,2022-01-12,合併による解散等,4010401151585,令和４年１月１日東京都港区虎ノ門三丁目７番１０号ランディック虎ノ門ビル９階セブンシックス株式会社（4010401151585）に合併し解散,2015-10-05,1,,,,,セブンシックス,0
2587,9010401107343,登記記録の閉鎖等,0,2022-02-07,2022-01-31,株式会社ＪＡＢＲＯＷ,,株式会社,東京都,港区,赤坂１丁目４番１４号ダイヤモンドビル赤坂５階,,13,103,1070052,,,2022-01-31,清算の結了等,,,2015-10-05,1,,,,,ジャブロウ,0
2640,9011802027089,登記記録の閉鎖等,0,2022-02-07,2022-02-03,有限会社専修クリエイト,,有限会社,東京都,葛飾区,東新小岩３丁目１番５－４０９号,,13,122,1240023,,,2022-02-03,清算の結了等,,,2015-10-05,1,,,,,センシュウクリエイト,0
2645,9012805000355,登記記録の閉鎖等,0,2022-02-07,2022-01-25,天理教谷喜分教会,,その他の設立登記法人,東京都,立川市,柴崎町３丁目１７番２０号,,13,202,1900023,,,2022-01-25,合併による解散等,4011605000173,令和４年１月２１日東京都練馬区大泉学園町六丁目１８番２６号天理教都大教会（4011605000173）に合併し解散,2015-10-05,1,,,,,テンリキョウタニヨシブンキョウカイ,0
2649,9013301040143,登記記録の閉鎖等,0,2022-02-07,2022-01-31,株式会社ＳＯＲＡ,,株式会社,東京都,豊島区,東池袋４丁目５番１号,,13,116,1700013,,,2022-01-31,合併による解散等,2013301029382,令和４年１月３１日東京都豊島区池袋二丁目５３番５号ソシオ・ダイバシティ株式会社（2013301029382）に合併し解散,2017-02-23,1,,,,,ソラ,0
2677,9030002022262,登記記録の閉鎖等,0,2022-02-07,2022-02-02,有限会社佐藤鉄工,,有限会社,埼玉県,蓮田市,大字黒浜３８５６番地の２,,11,238,3490101,,,2022-02-02,清算の結了等,,,2015-10-05,1,,,,,サトウテッコウ,0
2693,9040002040957,登記記録の閉鎖等,0,2022-02-07,2022-01-31,有限会社新栄不動産,,有限会社,千葉県,浦安市,北栄１丁目１５番６号,,12,227,2790002,,,2022-01-31,清算の結了等,,,2015-10-05,1,,,,,シンエイフドウサン,0
2703,9050002034248,登記記録の閉鎖等,0,2022-02-07,2022-02-02,有限会社阿波タクシー,,有限会社,茨城県,稲敷市,阿波１７２７番地の１,,08,229,3000621,,,2022-02-02,清算の結了等,,,2015-10-05,1,,,,,アバタクシー,0
2707,9060001029264,登記記録の閉鎖等,0,2022-02-07,2022-01-24,ＭＳ北関東株式会社,,株式会社,栃木県,宇都宮市,泉町６番２０号宇都宮ＤＩビル４階,,09,201,3200034,,,2022-01-24,合併による解散等,9070001034536,令和４年１月４日群馬県高崎市東町１４１番地３ＭＳ関東甲信越株式会社（9070001034536）に合併し解散,2017-04-18,1,,,,,エムエスキタカントウ,0
2777,9140001059138,登記記録の閉鎖等,0,2022-02-07,2022-01-26,株式会社サンホーム,,株式会社,兵庫県,姫路市,船丘町２９８番地日新ビル,,28,201,6700034,,,2022-01-26,清算の結了等,,,2015-10-05,1,,,,,サンホーム,0
2809,9230002011170,登記記録の閉鎖等,0,2022-02-07,2022-02-02,有限会社佐野電気商会,,有限会社,富山県,高岡市,金屋町１２番１８号,,16,202,9330841,,,2022-02-02,清算の結了等,,,2015-10-05,1,,,,,サノデンキショウカイ,0
2811,9240001017746,登記記録の閉鎖等,0,2022-02-07,2022-02-03,株式会社香川工業,,株式会社,広島県,広島市西区,東観音町１２番１７号,,34,104,7330032,,,2022-02-03,清算の結了等,,,2015-10-05,1,,,,,カガワコウギョウ,0
2821,9260002020284,登記記録の閉鎖等,0,2022-02-07,2022-02-03,有限会社西原アイロン,,有限会社,岡山県,倉敷市,児島味野６丁目３番２３号,,33,202,7110913,,,2022-02-03,清算の結了等,,,2015-10-05,1,,,,,ニシハラアイロン,0
2835,9310002010841,登記記録の閉鎖等,0,2022-02-07,2022-02-03,有限会社鳥越クリーニング店,,有限会社,長崎県,佐世保市,上町７番６号,,42,202,8570058,,,2022-02-03,清算の結了等,,,2015-10-05,1,,,,,トリゴエクリーニングテン,0
2838,9320001015147,登記記録の閉鎖等,0,2022-02-07,2022-02-03,株式会社ＢｕｎｇｏＴｅｃｈ,,株式会社,大分県,大分市,末広町１丁目５番１６号ユナイテッド末広ビル３Ｆ,,44,201,8700027,,,2022-02-03,清算の結了等,,,2016-09-01,1,,,,,ブンゴテック,0
2868,9390002003425,登記記録の閉鎖等,0,2022-02-07,2022-02-04,有限会社大手町サロン,,有限会社,山形県,山形市,成沢西１丁目７番３１号,,06,201,9902339,,,2022-02-04,清算の結了等,,,2015-10-05,1,,,,,オオテマチサロン,0
2890,9480001004076,登記記録の閉鎖等,0,2022-02-07,2022-02-01,株式会社まつやフーズ,,株式会社,徳島県,徳島市,金沢２丁目５番８０号,,36,201,7700871,,,2022-02-01,合併による解散等,6480001007940,令和４年２月１日徳島市八万町大坪１７６番地の１株式会社メーアコルン（6480001007940）に合併し解散,2015-10-05,1,,,,,マツヤフーズ,0
