sequenceNumber,corporateNumber,process,correct,updateDate,changeDate,name,nameImageId,kind,prefectureName,cityName,streetNumber,addressImageId,prefectureCode,cityCode,postCode,addressOutside,addressOutsideImageId,closeDate,closeCause,successorCorporateNumber,changeCause,assignmentDate,latest,enName,enPrefectureName,enCityName,enAddressOutside,furigana,hihyoji
13,1010001229958,新規,0,2022-10-11,2022-10-11,全薬ホールディングス株式会社,,株式会社,東京都,文京区,大塚５丁目６番１５号,00128066,13,105,1120012,,,,,,,2022-10-11,1,,,,,ゼンヤクホールディングス,0
14,1010001230024,新規,0,2022-10-11,2022-10-11,株式会社ＲＯＣＫＥＴ　ＤＩＶＥ,,株式会社,東京都,中央区,銀座１丁目２１番１５号５階,,13,102,1040061,,,,,,,2022-10-11,1,,,,,ロケットダイヴ,0
22,1010401170027,新規,0,2022-10-11,2022-10-11,株式会社ＢｅＸｅｅｄ,,株式会社,東京都,港区,南青山２丁目２番１５号,,13,103,1070062,,,,,,,2022-10-11,1,,,,,ビーシード,0
24,1010403028669,新規,0,2022-10-11,2022-10-11,合同会社Ｓｍｉｌｅ,,合同会社,東京都,港区,浜松町２丁目２番１５号浜松町ダイヤビル２Ｆ,,13,103,1050013,,,,,,,2022-10-11,1,,,,,スマイル,0
25,1010403028685,新規,0,2022-10-11,2022-10-11,合同会社ＬａｓｔＢｒａｎｄ,,合同会社,東京都,港区,赤坂４丁目５番２１－４１８号,,13,103,1070052,,,,,,,2022-10-11,1,,,,,ラストブランド,0
27,1010505003347,新規,0,2022-10-11,2022-10-11,一般社団法人まるみつ,,その他の設立登記法人,東京都,台東区,東上野３丁目１５番６号,,13,106,1100015,,,,,,,2022-10-11,1,,,,,マルミツ,0
31,1010603009774,新規,0,2022-10-11,2022-10-11,合同会社スリータイムズ,,合同会社,東京都,江東区,東雲１丁目９番５０－４００９号,,13,108,1350062,,,,,,,2022-10-11,1,,,,,スリータイムズ,0
34,1010801033337,新規,0,2022-10-11,2022-10-11,株式会社ブリーバー,,株式会社,東京都,大田区,南千束３丁目２３番１４－２０１号,,13,111,1450063,,,,,,,2022-10-11,1,,,,,ブリーバー,0
53,1011001150146,新規,0,2022-10-11,2022-10-11,株式会社太,,株式会社,東京都,目黒区,中央町２丁目２８番１３号Ｃ－１,,13,110,1520001,,,,,,,2022-10-11,1,,,,,フトシ,0
54,1011001150154,新規,0,2022-10-11,2022-10-11,株式会社カラビナワークス,,株式会社,東京都,渋谷区,恵比寿西２丁目３番１１号メゾン・ド・エビス４０８,,13,113,1500021,,,,,,,2022-10-11,1,,,,,カラビナワークス,0
55,1011001150162,新規,0,2022-10-11,2022-10-11,株式会社シンフォニカル,,株式会社,東京都,渋谷区,南平台町１５番１３号帝都渋谷ビル,,13,113,1500036,,,,,,,2022-10-11,1,,,,,シンフォニカル,0
58,1011103012244,新規,0,2022-10-11,2022-10-11,ＢＢＥＣ合同会社,,合同会社,東京都,新宿区,西新宿３丁目２０番２号東京オペラシティタワー３９階,,13,104,1600023,,,,,,,2022-10-11,1,,,,,ビーベック,0
59,1011103012252,新規,0,2022-10-11,2022-10-11,杉本トラスト合同会社,,合同会社,東京都,新宿区,西早稲田１丁目８番１２号５０１,,13,104,1690051,,,,,,,2022-10-11,1,,,,,スギモトトラスト,0
69,1011501028536,新規,0,2022-10-11,2022-10-11,株式会社ＣＩＮＡＭＯ,,株式会社,東京都,北区,浮間３丁目３４番１１号,,13,117,1150051,,,,,,,2022-10-11,1,,,,,シナモ,0
72,1011605002478,新規,0,2022-10-11,2022-10-11,一般社団法人トランクルームエキスパート協会,,その他の設立登記法人,東京都,練馬区,西大泉１丁目１４番２３号,,13,120,1780065,,,,,,,2022-10-11,1,,,,,トランクルームエキスパートキョウカイ,0
73,1011701025663,新規,0,2022-10-11,2022-10-11,株式会社ＭＫＤ,,株式会社,東京都,江戸川区,南篠崎町３丁目３１番６号,,13,123,1330065,,,,,,,2022-10-11,1,,,,,エムケーディー,0
80,1011801041379,新規,0,2022-10-11,2022-10-11,株式会社フォーフィール,,株式会社,東京都,葛飾区,亀有５丁目４８番１－１５０４号ブランズ亀有,,13,122,1250061,,,,,,,2022-10-11,1,,,,,フォーフィール,0
104,1020001148455,新規,0,2022-10-11,2022-10-11,株式会社小嶋空調,,株式会社,神奈川県,横浜市神奈川区,菅田町６１５番地８,,14,102,2210864,,,,,,,2022-10-11,1,,,,,コジマクウチョウ,0
105,1020001148496,新規,0,2022-10-11,2022-10-11,株式会社松山畳店,,株式会社,神奈川県,横浜市西区,南幸２丁目８番１２号,,14,103,2200005,,,,,,,2022-10-11,1,,,,,マツヤマタタミテン,0
106,1020001148513,新規,0,2022-10-11,2022-10-11,株式会社ＷＡＸ,,株式会社,神奈川県,川崎市川崎区,田町２丁目２番１２Ａ．Ｂマンション１０１号,,14,131,2100822,,,,,,,2022-10-11,1,,,,,ワックス,0
107,1020001148538,新規,0,2022-10-11,2022-10-11,株式会社ＯｎｅＭｉｌｌｉｏｎ,,株式会社,神奈川県,横浜市神奈川区,青木町７番地６,,14,102,2210057,,,,,,,2022-10-11,1,,,,,ワンミリオン,0
115,1020003022518,新規,0,2022-10-11,2022-10-11,合同会社華信,,合同会社,神奈川県,横浜市西区,西戸部町３丁目２７２番地３７,,14,103,2200046,,,,,,,2022-10-11,1,,,,,カシン,0
116,1020003022534,新規,0,2022-10-11,2022-10-11,スマイリージャーニー合同会社,,合同会社,神奈川県,横浜市泉区,岡津町２０６７番地２みやこガーデンメープル館４０６号,,14,116,2450003,,,,,,,2022-10-11,1,,,,,スマイリージャーニー,0
120,1021001077140,新規,0,2022-10-11,2022-10-11,株式会社タケコウ,,株式会社,神奈川県,高座郡寒川町,岡田３丁目２２番１２号,,14,321,2530105,,,,,,,2022-10-11,1,,,,,タケコウ,0
121,1021001077149,新規,0,2022-10-11,2022-10-11,株式会社ＳＥＡ‐ＣＡＳＴ,,株式会社,神奈川県,鎌倉市,小町３丁目２番２６号１０２,,14,204,2480006,,,,,,,2022-10-11,1,,,,,シーキャスト,0
130,1030001150286,新規,0,2022-10-11,2022-10-11,Ｙｏｋｏｚｕｎａ株式会社,,株式会社,埼玉県,川口市,大字安行藤八７２３－２０２号,,11,203,3340051,,,,,,,2022-10-11,1,,,,,ヨコヅナ,0
131,1030001150427,新規,0,2022-10-11,2022-10-11,株式会社関東塗装工業,,株式会社,埼玉県,入間郡毛呂山町,目白台４丁目５番地１,,11,326,3500439,,,,,,,2022-10-11,1,,,,,カントウトソウコウギョウ,0
132,1030001150468,新規,0,2022-10-11,2022-10-11,株式会社Ｃｉｅｌｏ,,株式会社,埼玉県,さいたま市西区,三橋５丁目２０７２番地１０シティハイムＫコーポＩＩ１０３,00128067,11,101,3310052,,,,,,,2022-10-11,1,,,,,シエロ,0
133,1030001150476,新規,0,2022-10-11,2022-10-11,株式会社同昌,,株式会社,埼玉県,熊谷市,弥生１丁目４１番地熊谷朝日館４０５室,,11,202,3600044,,,,,,,2022-10-11,1,,,,,ドウショウ,0
134,1030001150534,新規,0,2022-10-11,2022-10-11,株式会社トキワ,,株式会社,埼玉県,秩父市,下影森１３５８番地４,,11,207,3691871,,,,,,,2022-10-11,1,,,,,トキワ,0
139,1030003020355,新規,0,2022-10-11,2022-10-11,合同会社ＴＲＡＩＬ,,合同会社,埼玉県,草加市,青柳６丁目４１番６号,,11,221,3400002,,,,,,,2022-10-11,1,,,,,トレイル,0
145,1040001125345,新規,0,2022-10-11,2022-10-11,株式会社イッケン,,株式会社,千葉県,千葉市中央区,浜野町４５番地１,,12,101,2600824,,,,,,,2022-10-11,1,,,,,イッケン,0
146,1040001125353,新規,0,2022-10-11,2022-10-11,株式会社ホープ,,株式会社,千葉県,野田市,木野崎１７５８番地１８,,12,208,2780002,,,,,,,2022-10-11,1,,,,,ホープ,0
147,1040001125361,新規,0,2022-10-11,2022-10-11,株式会社ＫＯＭＩテック,,株式会社,千葉県,野田市,みずき３丁目７番地の２１,,12,208,2780027,,,,,,,2022-10-11,1,,,,,コミテック,0
150,1040003020998,新規,0,2022-10-11,2022-10-11,合同会社ＩＣｈｉ,,合同会社,千葉県,佐倉市,表町２丁目８番地１３,,12,212,2850811,,,,,,,2022-10-11,1,,,,,イチ,0
151,1040005021755,新規,0,2022-10-11,2022-10-11,医療法人社団梨葛会,,その他の設立登記法人,千葉県,松戸市,小金４４番５ＭＫ小金ビル１階,,12,207,2700014,,,,,,,2022-10-11,1,,,,,シャダンリカツカイ,0
153,1050001051788,新規,0,2022-10-11,2022-10-11,Ａｂｉｈａ　Ｉｎｔｅｒｎａｔｉｏｎａｌ株式会社,,株式会社,茨城県,つくば市,花畑３丁目２４番地１４,,08,220,3003261,,,,,,,2022-10-11,1,,,,,アビハインターナショナル,0
154,1050001051796,新規,0,2022-10-11,2022-10-11,株式会社クレストファーム,,株式会社,茨城県,鉾田市,大竹１６６５番地２,,08,234,3111513,,,,,,,2022-10-11,1,,,,,クレストファーム,0
155,1050003006906,新規,0,2022-10-11,2022-10-11,合同会社Ｓ‐ＮＥＴ,,合同会社,茨城県,つくばみらい市,富士見ヶ丘４丁目９番地１,,08,235,3002417,,,,,,,2022-10-11,1,,,,,エスネット,0
157,1070001039716,新規,0,2022-10-11,2022-10-11,株式会社ＳＦクリーン,,株式会社,群馬県,前橋市,天川大島町２丁目１５番地１,,10,201,3792154,,,,,,,2022-10-11,1,,,,,エスエフクリーン,0
159,1070003004643,新規,0,2022-10-11,2022-10-11,オパックス合同会社,,合同会社,群馬県,前橋市,大手町３丁目６番１２号,,10,201,3710026,,,,,,,2022-10-11,1,,,,,オパックス,0
170,1100003006710,新規,0,2022-10-11,2022-10-11,合同会社ＷＣＤ,,合同会社,長野県,中野市,大字越９６３番地,,20,211,3830005,,,,,,,2022-10-11,1,,,,,ダブルシーディー,0
172,1110003004886,新規,0,2022-10-11,2022-10-11,Ｓｅｅｄｓグローバルジャパン合同会社,,合同会社,新潟県,長岡市,宮関４丁目１番２２号,,15,202,9402021,,,,,,,2022-10-11,1,,,,,シーズグローバルジャパン,0
184,1120001249391,新規,0,2022-10-11,2022-10-11,ホテルクリーンラボ株式会社,,株式会社,大阪府,大阪市北区,天満４丁目１７番１５号,,27,127,5300043,,,,,,,2022-10-11,1,,,,,ホテルクリーンラボ,0
185,1120001249417,新規,0,2022-10-11,2022-10-11,株式会社サポートナイトジャパン,,株式会社,大阪府,大阪市東淀川区,菅原６丁目１５番２４号,,27,114,5330022,,,,,,,2022-10-11,1,,,,,サポートナイトジャパン,0
186,1120001249433,新規,0,2022-10-11,2022-10-11,山立商事株式会社,,株式会社,大阪府,大阪市住之江区,粉浜西２丁目７番１７－４０２号,,27,125,5590007,,,,,,,2022-10-11,1,,,,,ヤマダテショウジ,0
187,1120001249458,新規,0,2022-10-11,2022-10-11,株式会社ＳＴＡＲＲＹ,,株式会社,大阪府,大阪市北区,池田町３番１－２０１号,,27,127,5300033,,,,,,,2022-10-11,1,,,,,スターリー,0
195,1120101066324,新規,0,2022-10-11,2022-10-11,株式会社丸智産業,,株式会社,大阪府,富田林市,新家２丁目１番８号,,27,214,5840085,,,,,,,2022-10-11,1,,,,,マルトモサンギョウ,0
196,1120103004876,新規,0,2022-10-11,2022-10-11,ｂａｒａｋｉ合同会社,,合同会社,大阪府,貝塚市,脇浜３丁目６番２１号,,27,208,5970073,,,,,,,2022-10-11,1,,,,,バラキ,0
197,1120901046582,新規,0,2022-10-11,2022-10-11,株式会社大賀,,株式会社,大阪府,吹田市,原町２丁目２４番２－２号,,27,205,5640004,,,,,,,2022-10-11,1,,,,,タイガ,0
198,1122001036290,新規,0,2022-10-11,2022-10-11,株式会社ＭＡＲＵ,,株式会社,大阪府,八尾市,宮町４丁目３番６－３０１号,,27,212,5810815,,,,,,,2022-10-11,1,,,,,マル,0
200,1122003002431,新規,0,2022-10-11,2022-10-11,合同会社ライズ,,合同会社,大阪府,八尾市,東山本町５丁目７番１４号,,27,212,5810847,,,,,,,2022-10-11,1,,,,,ライズ,0
207,1130001072751,新規,0,2022-10-11,2022-10-11,江北株式会社,,株式会社,京都府,京都市東山区,豊浦町３５１めぞんＩＣＨＩ２０５号室,,26,105,6050905,,,,,,,2022-10-11,1,,,,,コウホク,0
208,1130001072801,新規,0,2022-10-11,2022-10-11,株式会社バックワイズ,,株式会社,京都府,京都市中京区,錦小路通室町西入天神山町２８０石勘ビル４Ｆ１１号室,,26,104,6048221,,,,,,,2022-10-11,1,,,,,バックワイズ,0
210,1130005016606,新規,0,2022-10-11,2022-10-11,医療法人眞助会,,その他の設立登記法人,京都府,京都市上京区,晴明町８１１番地,,26,102,6028222,,,,,,,2022-10-11,1,,,,,マジョカイ,0
223,1140001127595,新規,0,2022-10-11,2022-10-11,株式会社Ｓｈｉｎｋａ,,株式会社,兵庫県,三田市,波豆川１７２３番地,,28,219,6691411,,,,,,,2022-10-11,1,,,,,シンカ,0
224,1140001127620,新規,0,2022-10-11,2022-10-11,Ｋ’Ｓ　ＣＯＲＰＯＲＡＴＩＯＮ株式会社,,株式会社,兵庫県,神戸市長田区,川西通３番地１６号,,28,106,6530000,,,,,,,2022-10-11,1,,,,,ケイズコーポレーション,0
228,1140003018207,新規,0,2022-10-11,2022-10-11,合同会社ｍｏｆｕ’ｓ　ｒａｂｂｉｔｒｙ,,合同会社,兵庫県,明石市,大久保町駅前１丁目３－１２,,28,203,6740058,,,,,,,2022-10-11,1,,,,,モフズラビトリー,0
232,1160001024543,新規,0,2022-10-11,2022-10-11,株式会社Ｄ‐ＦＬＹ,,株式会社,滋賀県,大津市,島の関１２－２１レイクフェスタ大津４０７号,,25,201,5200042,,,,,,,2022-10-11,1,,,,,ディーフライ,0
241,1180001153150,新規,0,2022-10-11,2022-10-11,株式会社ＮＥＸＴＳＴＡＧＥ　ＩＮＴＥＲＮＡＴＩＯＮＡＬ,,株式会社,愛知県,岩倉市,稲荷町６５番地,,23,228,4820012,,,,,,,2022-10-11,1,,,,,ネクストステージインターナショナル,0
242,1180001153324,新規,0,2022-10-11,2022-10-11,株式会社ＨＡＳＨ,,株式会社,愛知県,名古屋市北区,楠味鋺１丁目６０８番地,,23,103,4620014,,,,,,,2022-10-11,1,,,,,ハッシュ,0
243,1180001153340,新規,0,2022-10-11,2022-10-11,株式会社アイチワールド,,株式会社,愛知県,名古屋市中川区,七反田町７４番地ウエストパークＫ１０１号,,23,110,4540975,,,,,,,2022-10-11,1,,,,,アイチワールド,0
244,1180001153357,新規,0,2022-10-11,2022-10-11,株式会社ジェイ・アーク,,株式会社,愛知県,名古屋市守山区,幸心３丁目７０２番地,,23,113,4630079,,,,,,,2022-10-11,1,,,,,ジェイアーク,0
245,1180001153365,新規,0,2022-10-11,2022-10-11,株式会社Ｗｉｎ＆Ｂ,,株式会社,愛知県,名古屋市中区,丸の内３丁目１５番５号ＲＳ丸の内三丁目ビル３Ｆ,,23,106,4600002,,,,,,,2022-10-11,1,,,,,ウィンアンドビー,0
246,1180001153373,新規,0,2022-10-11,2022-10-11,株式会社グローバル,,株式会社,愛知県,名古屋市緑区,桃山４丁目１２９番地,,23,114,4580002,,,,,,,2022-10-11,1,,,,,グローバル,0
247,1180001153381,新規,0,2022-10-11,2022-10-11,株式会社ＢＯＳ,,株式会社,愛知県,弥富市,平島町喜右味名７４番地１アザレアＡ－１０１,,23,235,4980025,,,,,,,2022-10-11,1,,,,,ビーオーエス,0
251,1180301036699,新規,0,2022-10-11,2022-10-11,高木研磨株式会社,00128076,株式会社,愛知県,豊橋市,大村町字橋元１２５番地２,,23,201,4400081,,,,,,,2022-10-11,1,,,,,タカギケンマ,0
252,1180301036708,新規,0,2022-10-11,2022-10-11,清水設備株式会社,,株式会社,愛知県,みよし市,明知町宝栄１２番地１,,23,236,4700214,,,,,,,2022-10-11,1,,,,,シミズセツビ,0
260,1200003005693,新規,0,2022-10-11,2022-10-11,丸喜合同会社,,合同会社,岐阜県,大垣市,上石津町上多良字西平３４１番地,,21,202,5031623,,,,,,,2022-10-11,1,,,,,マルキ,0
263,1220001025080,新規,0,2022-10-11,2022-10-11,株式会社Ｍａｉｓｙ,,株式会社,石川県,金沢市,泉野町４丁目９番５号（スプリングテラス泉野・４０４号）,,17,201,9218034,,,,,,,2022-10-11,1,,,,,メイシー,0
266,1240001060464,新規,0,2022-10-11,2022-10-11,株式会社宝店,,株式会社,広島県,福山市,引野町北３丁目６番１号,,34,207,7210941,,,,,,,2022-10-11,1,,,,,ホーテン,0
272,1260003004062,新規,0,2022-10-11,2022-10-11,エムエス・ラボ合同会社,,合同会社,岡山県,赤磐市,下仁保３２７番地４６,,33,213,7090836,,,,,,,2022-10-11,1,,,,,エムエスラボ,0
274,1280005007508,新規,0,2022-10-11,2022-10-11,一般社団法人さくら,,その他の設立登記法人,島根県,出雲市,斐川町上直江１４７２番地１,,32,203,6990624,,,,,,,2022-10-11,1,,,,,サクラ,0
280,1290001099102,新規,0,2022-10-11,2022-10-11,株式会社古賀材木店,,株式会社,福岡県,柳川市,大和町豊原５９５番地,,40,207,8390242,,,,,,,2022-10-11,1,,,,,コガザイモクテン,0
281,1290001099168,新規,0,2022-10-11,2022-10-11,ｃｏｏｒｄｙ　ｂｉｚ株式会社,,株式会社,福岡県,飯塚市,川津９５番地２９６,,40,205,8200067,,,,,,,2022-10-11,1,,,,,コーディビズ,0
282,1290001099192,新規,0,2022-10-11,2022-10-11,株式会社ＯＺクリエイターズ,,株式会社,福岡県,福岡市中央区,西中洲１番１１号雅ビル３階,,40,133,8100002,,,,,,,2022-10-11,1,,,,,オズクリエイターズ,0
286,1290801028929,新規,0,2022-10-11,2022-10-11,株式会社エムゼック,,株式会社,福岡県,遠賀郡岡垣町,旭台５丁目１０番２号,,40,383,8114215,,,,,,,2022-10-11,1,,,,,エムゼック,0
287,1290801028953,新規,0,2022-10-11,2022-10-11,株式会社ラエティティア,,株式会社,福岡県,田川市,大字夏吉２０３番地１,,40,206,8250004,,,,,,,2022-10-11,1,,,,,ラエティティア,0
288,1290801028961,新規,0,2022-10-11,2022-10-11,株式会社オフィスブロッサム,,株式会社,福岡県,直方市,大字感田２６４４－９,,40,204,8220001,,,,,,,2022-10-11,1,,,,,オフィスブロッサム,0
297,1330001030160,新規,0,2022-10-11,2022-10-11,出端建築工業株式会社,,株式会社,熊本県,八代市,西宮町９９９地番３,,43,202,8660804,,,,,,,2022-10-11,1,,,,,イデバタケンチクコウギョウ,0
303,1340001025093,新規,0,2022-10-11,2022-10-11,株式会社薩摩翁,,株式会社,鹿児島県,鹿児島市,皇徳寺台２丁目４５番１４号,,46,201,8910103,,,,,,,2022-10-11,1,,,,,サツマオキナ,0
308,1360005006724,新規,0,2022-10-11,2022-10-11,一般社団法人宮古島環境未来,,その他の設立登記法人,沖縄県,宮古島市,平良字久貝１０３０番地６,,47,214,9060015,,,,,,,2022-10-11,1,,,,,ミヤコジマカンキョウミライ,0
313,1370001049123,新規,0,2022-10-11,2022-10-11,株式会社ユニシー,,株式会社,宮城県,仙台市泉区,館４丁目１番１号,,04,105,9813214,,,,,,,2022-10-11,1,,,,,ユニシー,0
314,1380001033159,新規,0,2022-10-11,2022-10-11,エムゼック株式会社,,株式会社,福島県,会津若松市,湊町大字静潟字鵜ノ浦３番地,,07,202,9650203,,,,,,,2022-10-11,1,,,,,エムゼック,0
315,1380001033167,新規,0,2022-10-11,2022-10-11,株式会社ヨウサン,,株式会社,福島県,南相馬市,原町区本陣前１丁目３１番地の１,,07,212,9750062,,,,,,,2022-10-11,1,,,,,ヨウサン,0
316,1380001033175,新規,0,2022-10-11,2022-10-11,やまさ味噌こうじ店株式会社,,株式会社,福島県,西白河郡矢吹町,中町４０１番地,,07,466,9690221,,,,,,,2022-10-11,1,,,,,ヤマサミソコウジテン,0
320,1420001018031,新規,0,2022-10-11,2022-10-11,株式会社Ｄ・Ｉ・Ｔ,,株式会社,青森県,青森市,大字油川字浪返９９番地２,,02,201,0380059,,,,,,,2022-10-11,1,,,,,デーアイティー,0
325,1430001087612,新規,0,2022-10-11,2022-10-11,株式会社エクラ,,株式会社,北海道,札幌市南区,川沿五条２丁目３番１０号,,01,106,0050805,,,,,,,2022-10-11,1,,,,,エクラ,0
326,1430001087645,新規,0,2022-10-11,2022-10-11,株式会社ふじ屋,,株式会社,北海道,札幌市中央区,北一条西２４丁目２番１１－１００４号,,01,101,0640821,,,,,,,2022-10-11,1,,,,,フジヤ,0
333,1470003002268,新規,0,2022-10-11,2022-10-11,竹華産業合同会社,,合同会社,香川県,観音寺市,大野原町中姫３８番地２,,37,205,7691612,,,,,,,2022-10-11,1,,,,,タケハナサンギョウ,0
334,1490001010304,新規,0,2022-10-11,2022-10-11,株式会社楠瀬,,株式会社,高知県,高知市,横浜新町１丁目７０４番地,,39,201,7810241,,,,,,,2022-10-11,1,,,,,クスノセ,0
337,1500001024533,新規,0,2022-10-11,2022-10-11,株式会社オリエントプラス,,株式会社,愛媛県,今治市,阿方乙５０２－３,,38,202,7940081,,,,,,,2022-10-11,1,,,,,オリエントプラス,0
351,2010001229940,新規,0,2022-10-11,2022-10-11,フジケントラスト株式会社,,株式会社,東京都,千代田区,平河町２丁目７番３号,,13,101,1020093,,,,,,,2022-10-11,1,,,,,フジケントラスト,0
352,2010001229965,新規,0,2022-10-11,2022-10-11,ｍｉｃｒｏ　ＭＡ株式会社,,株式会社,東京都,千代田区,霞が関３丁目６番１５号,,13,101,1000013,,,,,,,2022-10-11,1,,,,,マイクロエムエー,0
355,2010003038828,新規,0,2022-10-11,2022-10-11,Ｓｕｎ　Ｔｒｉｎｉｔｙ　Ｂ合同会社,,合同会社,東京都,千代田区,大手町２丁目３番２号大手町プレイスイーストタワー,,13,101,1000004,,,,,,,2022-10-11,1,,,,,サントリニティービー,0
356,2010003038836,新規,0,2022-10-11,2022-10-11,合同会社ｅａｓｅ,,合同会社,東京都,中央区,銀座１丁目１２番４号Ｎ＆ＥＢＬＤ．６Ｆ,,13,102,1040061,,,,,,,2022-10-11,1,,,,,イーズ,0
364,2010401169712,新規,0,2022-10-11,2022-10-11,ＳＩＩＦインパクトキャピタル株式会社,,株式会社,東京都,港区,南青山３丁目１－３スプライン青山東急ビル６Ｆ,,13,103,1070062,,,,,,,2022-10-11,1,,,,,シーフインパクトキャピタル,0
365,2010403028676,新規,0,2022-10-11,2022-10-11,Ｓｔａｒｂｏａｒｄ　ＯＮＥ合同会社,,合同会社,東京都,港区,赤坂３丁目１９番１号東京農村ビル４階,,13,103,1070052,,,,,,,2022-10-11,1,,,,,スターボードワン,0
366,2010405021456,新規,0,2022-10-11,2022-10-11,ジャパンロジスティクス１特定目的会社,,その他の設立登記法人,東京都,港区,六本木１丁目９番１０号アークヒルズ仙石山森タワー４０階,,13,103,1060032,,,,,,,2022-10-11,1,,,,,ジャパンロジスティクスワン,0
367,2010405021464,新規,0,2022-10-11,2022-10-11,一般社団法人ｒｅｎｇａ第０号,,その他の設立登記法人,東京都,港区,赤坂４丁目１５番１号赤坂ガーデンシティ３階,,13,103,1070052,,,,,,,2022-10-11,1,,,,,レンガダイゼロゴウ,0
370,2010801033336,新規,0,2022-10-11,2022-10-11,株式会社Ｆｌｙｅｒｓ,,株式会社,東京都,大田区,羽田５丁目１４番２号,,13,111,1440043,,,,,,,2022-10-11,1,,,,,フライヤーズ,0
386,2011001150228,新規,0,2022-10-11,2022-10-11,ブランブルー株式会社,,株式会社,東京都,目黒区,下目黒３丁目１０番３４号,,13,110,1530064,,,,,,,2022-10-11,1,,,,,ブランブルー,0
393,2011101100470,新規,0,2022-10-11,2022-10-11,グレイトシーナリー株式会社,,株式会社,東京都,新宿区,西早稲田１丁目２３番１２号藤和シティホームズ西早稲田７０２,,13,104,1690051,,,,,,,2022-10-11,1,,,,,グレイトシーナリー,0
396,2011203003927,新規,0,2022-10-11,2022-10-11,ヌース＆フィリア合同会社,,合同会社,東京都,中野区,上鷺宮４丁目５番９－２０１号,,13,114,1650031,,,,,,,2022-10-11,1,,,,,ヌースアンドフィリア,0
407,2012401039721,新規,0,2022-10-11,2022-10-11,回天新材料日本株式会社,,株式会社,東京都,武蔵野市,関前４丁目１６番５－２０６号,,13,203,1800014,,,,,,,2022-10-11,1,,,,,カイテンシンザイリョウニホン,0
411,2013301049760,新規,0,2022-10-11,2022-10-11,株式会社本気コーポレーション,,株式会社,東京都,豊島区,南池袋２丁目８－１７第１豊南ビル４０２,,13,116,1710022,,,,,,,2022-10-11,1,,,,,ホンキコーポレーション,0
412,2013301049777,新規,0,2022-10-11,2022-10-11,株式会社セブンハウス,,株式会社,東京都,豊島区,西池袋１丁目３番５後藤ビル２０２,,13,116,1710021,,,,,,,2022-10-11,1,,,,,セブンハウス,0
417,2020001148454,新規,0,2022-10-11,2022-10-11,株式会社河合地所,,株式会社,神奈川県,川崎市多摩区,長沢３丁目２番６号,,14,135,2140035,,,,,,,2022-10-11,1,,,,,カワイジショ,0
418,2020001148470,新規,0,2022-10-11,2022-10-11,株式会社染川商事,,株式会社,神奈川県,横浜市緑区,東本郷１丁目２４番２号,,14,113,2260002,,,,,,,2022-10-11,1,,,,,ソメカワショウジ,0
419,2020001148512,新規,0,2022-10-11,2022-10-11,株式会社齋藤工務店,,株式会社,神奈川県,川崎市多摩区,堰２丁目８番３３号,,14,135,2140022,,,,,,,2022-10-11,1,,,,,サイトウコウムテン,0
424,2020003022533,新規,0,2022-10-11,2022-10-11,日建プランニング合同会社,,合同会社,神奈川県,横浜市神奈川区,栄町１７番地４－１１１０号,,14,102,2210052,,,,,,,2022-10-11,1,,,,,ニッケンプランニング,0
426,2021001077115,新規,0,2022-10-11,2022-10-11,朝陽興業株式会社,,株式会社,神奈川県,大和市,福田６４４番地４,,14,213,2420024,,,,,,,2022-10-11,1,,,,,チョウヨウコウギョウ,0
427,2021001077123,新規,0,2022-10-11,2022-10-11,アマサプランニングオフィス株式会社,,株式会社,神奈川県,横須賀市,平作２丁目１番３２号,,14,201,2380032,,,,,,,2022-10-11,1,,,,,アマサプランニングオフィス,0
428,2021001077148,新規,0,2022-10-11,2022-10-11,株式会社熊栄,,株式会社,神奈川県,厚木市,山際８９８番地８,,14,212,2430803,,,,,,,2022-10-11,1,,,,,ユウエイ,0
430,2021003012219,新規,0,2022-10-11,2022-10-11,合同会社ＷｅｂＴｉｐｓ,,合同会社,神奈川県,秦野市,水神町６番１０－３号,,14,211,2570047,,,,,,,2022-10-11,1,,,,,ウェブチップス,0
431,2021003012227,新規,0,2022-10-11,2022-10-11,合同会社桜島,,合同会社,神奈川県,厚木市,妻田東３丁目２０番１号ハイツグリューク１０１,,14,212,2430813,,,,,,,2022-10-11,1,,,,,サクラジマ,0
432,2021003012235,新規,0,2022-10-11,2022-10-11,合同会社コスモス,,合同会社,神奈川県,厚木市,上荻野１６０１番地６２,,14,212,2430201,,,,,,,2022-10-11,1,,,,,コスモス,0
437,2030001150384,新規,0,2022-10-11,2022-10-11,ＡＣ１株式会社,,株式会社,埼玉県,越谷市,赤山本町３番地２４ライオンズグローベル越谷ステーションプラザ１２０１号,,11,222,3430808,,,,,,,2022-10-11,1,,,,,エーシーワン,0
438,2030001150418,新規,0,2022-10-11,2022-10-11,株式会社オイデオ,,株式会社,埼玉県,さいたま市南区,大字太田窪２１９０番地１８,,11,108,3360015,,,,,,,2022-10-11,1,,,,,オイデオ,0
439,2030001150426,新規,0,2022-10-11,2022-10-11,株式会社屋根と壁のお店,,株式会社,埼玉県,越谷市,レイクタウン７丁目１５番地９,,11,222,3430828,,,,,,,2022-10-11,1,,,,,ヤネトカベノオミセ,0
440,2030001150450,新規,0,2022-10-11,2022-10-11,株式会社柔,,株式会社,埼玉県,川口市,西川口３丁目３３番２８号工藤ビル１階,,11,203,3320021,,,,,,,2022-10-11,1,,,,,ジュウ,0
441,2030001150491,新規,0,2022-10-11,2022-10-11,企創天外株式会社,,株式会社,埼玉県,さいたま市南区,大字大谷口５３４４番地,,11,108,3360042,,,,,,,2022-10-11,1,,,,,キソウテンガイ,0
442,2030001150500,新規,0,2022-10-11,2022-10-11,株式会社松建,,株式会社,埼玉県,さいたま市大宮区,北袋町１丁目６０１番地１,,11,103,3300835,,,,,,,2022-10-11,1,,,,,マツケン,0
448,2030003020346,新規,0,2022-10-11,2022-10-11,合同会社三誉,,合同会社,埼玉県,川口市,大字赤井６５８－４５,,11,203,3340073,,,,,,,2022-10-11,1,,,,,ミツホ,0
449,2030003020354,新規,0,2022-10-11,2022-10-11,合同会社アジル,,合同会社,埼玉県,川口市,大字小谷場２６２番地の２３,,11,203,3330857,,,,,,,2022-10-11,1,,,,,アジル,0
455,2040001125344,新規,0,2022-10-11,2022-10-11,株式会社フォンテーヌブリエ,,株式会社,千葉県,市川市,東菅野１丁目２３番７号,,12,203,2720823,,,,,,,2022-10-11,1,,,,,フォンテーヌブリエ,0
456,2040003020964,新規,0,2022-10-11,2022-10-11,合同会社ＲＮ,,合同会社,千葉県,流山市,こうのす台２５４番地の２５,,12,220,2700102,,,,,,,2022-10-11,1,,,,,アールエヌ,0
457,2040003020989,新規,0,2022-10-11,2022-10-11,ＳＨＩＮ＆ＹＯＵ合同会社,,合同会社,千葉県,千葉市緑区,あすみが丘東１丁目２７番地２４,,12,105,2670067,,,,,,,2022-10-11,1,,,,,シンアンドユー,0
458,2040003021013,新規,0,2022-10-11,2022-10-11,合同会社ユウ,,合同会社,千葉県,浦安市,堀江４丁目３５番１３号スタジオ２７－４０８号室,,12,227,2790041,,,,,,,2022-10-11,1,,,,,ユウ,0
464,2050001051770,新規,0,2022-10-11,2022-10-11,株式会社金子重工,,株式会社,茨城県,桜川市,富士見台３丁目４０番地,,08,231,3091212,,,,,,,2022-10-11,1,,,,,カネコジュウコウ,0
465,2050001051787,新規,0,2022-10-11,2022-10-11,株式会社ＪＩＲＣＡＳドリームバイオマスソリューションズ,,株式会社,茨城県,つくば市,大わし１番地１,,08,220,3050851,,,,,,,2022-10-11,1,,,,,ジルカスドリームバイオマスソリューションズ,0
466,2050003006905,新規,0,2022-10-11,2022-10-11,合同会社Ｃａｓｔｌｅ,,合同会社,茨城県,守谷市,本町６８６番地の４７,,08,224,3020109,,,,,,,2022-10-11,1,,,,,キャッスル,0
468,2060001035327,新規,0,2022-10-11,2022-10-11,株式会社Ｉｓｓｈｉｎ,,株式会社,栃木県,栃木市,大平町富田２０７３番地１３,,09,203,3294404,,,,,,,2022-10-11,1,,,,,イッシン,0
477,2100001035776,新規,0,2022-10-11,2022-10-11,株式会社ヤマゴエ,,株式会社,長野県,松本市,中央２丁目５番３３号,,20,202,3900811,,,,,,,2022-10-11,1,,,,,ヤマゴエ,0
494,2120001249366,新規,0,2022-10-11,2022-10-11,株式会社池下,,株式会社,大阪府,大阪市西区,北堀江１丁目８番１４号,,27,106,5500014,,,,,,,2022-10-11,1,,,,,イケシタ,0
495,2120001249424,新規,0,2022-10-11,2022-10-11,株式会社ＢＦスタッド,,株式会社,大阪府,大阪市中央区,船越町１丁目５番５号メリディアナ天満橋１階,,27,128,5400036,,,,,,,2022-10-11,1,,,,,ビーエフスタッド,0
496,2120001249449,新規,0,2022-10-11,2022-10-11,株式会社ＩＦＭＣ．,,株式会社,大阪府,大阪市中央区,淡路町２丁目６番６号淡路町パークビル２号館,,27,128,5410047,,,,,,,2022-10-11,1,,,,,イフミック,0
504,2120101066323,新規,0,2022-10-11,2022-10-11,株式会社源喜,,株式会社,大阪府,泉大津市,二田町３丁目２番２３号,,27,206,5950015,,,,,,,2022-10-11,1,,,,,ゲンキ,0
509,2122001036298,新規,0,2022-10-11,2022-10-11,株式会社八光造園土木,,株式会社,大阪府,柏原市,法善寺４丁目３番３号,,27,221,5820005,,,,,,,2022-10-11,1,,,,,ハッコウゾウエンドボク,0
512,2130001072759,新規,0,2022-10-11,2022-10-11,エフ・スリー株式会社,,株式会社,京都府,京都市南区,上鳥羽藁田町５１番地,,26,107,6018133,,,,,,,2022-10-11,1,,,,,エフスリー,0
513,2130003008232,新規,0,2022-10-11,2022-10-11,ＰｒｉｍｅＷｏｒｋｓ合同会社,,合同会社,京都府,京都市中京区,中島町９０－９Ｆ,,26,104,6048004,,,,,,,2022-10-11,1,,,,,プライムワークス,0
514,2130003008240,新規,0,2022-10-11,2022-10-11,合同会社Ｎ‐ｆａｃｔｏｒｙ,,合同会社,京都府,八幡市,橋本尻江１２番地の１０,,26,210,6148312,,,,,,,2022-10-11,1,,,,,エヌファクトリー,0
515,2130005016596,新規,0,2022-10-11,2022-10-11,医療法人希悠会,,その他の設立登記法人,京都府,宇治市,広野町茶屋裏１１番地の１,,26,204,6110031,,,,,,,2022-10-11,1,,,,,キユウカイ,0
516,2130005016605,新規,0,2022-10-11,2022-10-11,一般社団法人海と日本プロジェクトｉｎ京都,,その他の設立登記法人,京都府,京都市上京区,烏丸通一条下る龍前町６００番地１,,26,102,6020912,,,,,,,2022-10-11,1,,,,,ウミトニッポンプロジェクトインキョウト,0
523,2140001127660,新規,0,2022-10-11,2022-10-11,株式会社一麻興業,,株式会社,兵庫県,高砂市,荒井町小松原２丁目２番３４－４号,,28,216,6760011,,,,,,,2022-10-11,1,,,,,カズマコウギョウ,0
527,2140003018222,新規,0,2022-10-11,2022-10-11,合同会社Ｌｉｎｋ,,合同会社,兵庫県,西宮市,樋ノ口町２丁目１６番１６号,,28,204,6638011,,,,,,,2022-10-11,1,,,,,リンク,0
528,2150001025863,新規,0,2022-10-11,2022-10-11,株式会社未來建設,,株式会社,奈良県,北葛城郡王寺町,畠田４丁目３番４号,,29,425,6360021,,,,,,,2022-10-11,1,,,,,ミライケンセツ,0
530,2160001024559,新規,0,2022-10-11,2022-10-11,株式会社Ｆｒｏｎｔｉｅｒ　Ｇａｔｅ　Ｔｅｃｈｎｏｌｏｇｉｅｓ,,株式会社,滋賀県,東近江市,下二俣町３９１番地,,25,213,5270065,,,,,,,2022-10-11,1,,,,,フロンティアゲートテクノロジーズ,0
540,2180001153331,新規,0,2022-10-11,2022-10-11,華盛建設株式会社,,株式会社,愛知県,小牧市,久保一色南１丁目１３４番地１,,23,219,4850007,,,,,,,2022-10-11,1,,,,,ハナモリケンセツ,0
541,2180001153364,新規,0,2022-10-11,2022-10-11,株式会社グッドライフサービス,,株式会社,愛知県,東海市,名和町切戸１９番地１,,23,222,4760002,,,,,,,2022-10-11,1,,,,,グッドライフサービス,0
542,2180001153389,新規,0,2022-10-11,2022-10-11,ｉＴｒａｃｔｉｏｎ株式会社,,株式会社,愛知県,東海市,中ノ池４丁目３番地の４,,23,222,4770033,,,,,,,2022-10-11,1,,,,,アイトラクション,0
545,2180003024349,新規,0,2022-10-11,2022-10-11,合同会社トライピーク,,合同会社,愛知県,春日井市,鳥居松町３丁目１８３番地,,23,206,4860844,,,,,,,2022-10-11,1,,,,,トライピーク,0
547,2180301036715,新規,0,2022-10-11,2022-10-11,オーエスジーアクティブ株式会社,,株式会社,愛知県,豊川市,本野ケ原３丁目２２番地,,23,207,4420005,,,,,,,2022-10-11,1,,,,,オーエスジーアクティブ,0
548,2180303005461,新規,0,2022-10-11,2022-10-11,合同会社ヒーロー,,合同会社,愛知県,西尾市,中畑町浜田下１０番地,,23,213,4440303,,,,,,,2022-10-11,1,,,,,ヒーロー,0
557,2200003005692,新規,0,2022-10-11,2022-10-11,Ｗ　Ｗａｓｈ合同会社,,合同会社,岐阜県,岐阜市,西川手５丁目１５番地１,,21,201,5008258,,,,,,,2022-10-11,1,,,,,ダブルウォッシュ,0
563,2240003005838,新規,0,2022-10-11,2022-10-11,ｍｏｔｉｖｏ　ｃｏｍｐａｎｙ合同会社,,合同会社,広島県,広島市西区,横川町２丁目１２番１号,,34,104,7330011,,,,,,,2022-10-11,1,,,,,モティーボカンパニー,0
565,2240005015471,新規,0,2022-10-11,2022-10-11,行政書士法人檀上事務所,,その他の設立登記法人,広島県,広島市中区,本川町３丁目１番５号シーアイマンション広島２階０１号室,,34,101,7300802,,,,,,,2022-10-11,1,,,,,ダンジョウジムショ,0
567,2250003003163,新規,0,2022-10-11,2022-10-11,合同会社ＲＹＮ,,合同会社,山口県,周南市,大字栗屋９８３番地の７,,35,215,7450802,,,,,,,2022-10-11,1,,,,,アールワイエヌ,0
572,2270001008641,新規,0,2022-10-11,2022-10-11,株式会社前田自動車,,株式会社,鳥取県,東伯郡北栄町,国坂１０５番地３,,31,372,6892102,,,,,,,2022-10-11,1,,,,,マエタジドウシャ,0
575,2290001099159,新規,0,2022-10-11,2022-10-11,株式会社とび矢つ,,株式会社,福岡県,八女市,津江７３５番地,,40,210,8340024,,,,,,,2022-10-11,1,,,,,トビヤツ,0
576,2290001099175,新規,0,2022-10-11,2022-10-11,株式会社ＣＲＡＦＴ,,株式会社,福岡県,福岡市東区,香椎照葉３丁目２番２－５３１号,,40,131,8130017,,,,,,,2022-10-11,1,,,,,クラフト,0
578,2290003013010,新規,0,2022-10-11,2022-10-11,Ｐｏｐｆｕｌ合同会社,,合同会社,福岡県,福岡市中央区,天神４丁目６－２８天神ファーストビル７階,,40,133,8100001,,,,,,,2022-10-11,1,,,,,ポップフル,0
579,2290801028960,新規,0,2022-10-11,2022-10-11,株式会社ＣＪＴ,,株式会社,福岡県,田川市,大字弓削田６１０－４セーフティフラッツＢ－２０１,,40,206,8260041,,,,,,,2022-10-11,1,,,,,シゼイティ,0
583,2300001013092,新規,0,2022-10-11,2022-10-11,上場商事株式会社,,株式会社,佐賀県,唐津市,肥前町田野甲２６３４番地７,,41,202,8471521,,,,,,,2022-10-11,1,,,,,ウワバショウジ,0
587,2310003004452,新規,0,2022-10-11,2022-10-11,合同会社福マル商店,00128062,合同会社,長崎県,壱岐市,郷ノ浦町郷ノ浦１３１,,42,210,8115135,,,,,,,2022-10-11,1,,,,,フクマルショウテン,0
588,2320001019369,新規,0,2022-10-11,2022-10-11,株式会社Ｓ＆Ｓ　Ｃｏｎｓｕｌｔｉｎｇ,,株式会社,大分県,大分市,東大道２丁目３番５０－３０６号,,44,201,8700823,,,,,,,2022-10-11,1,,,,,エスアンドエスコンサルティング,0
597,2360001031056,新規,0,2022-10-11,2022-10-11,株式会社ライフコンサル,,株式会社,沖縄県,浦添市,仲間１丁目４番１５号２階,,47,208,9012103,,,,,,,2022-10-11,1,,,,,ライフコンサル,0
599,2370001049122,新規,0,2022-10-11,2022-10-11,株式会社ミラーチ,,株式会社,宮城県,石巻市,井内字滝ノ口２５番地,,04,202,9860003,,,,,,,2022-10-11,1,,,,,ミラーチ,0
600,2370001049130,新規,0,2022-10-11,2022-10-11,株式会社東仙機設,,株式会社,宮城県,亘理郡亘理町,逢隈十文字字牛頭２０２番地１,00128070,04,361,9892303,,,,,,,2022-10-11,1,,,,,トウセンキセツ,0
602,2390001017044,新規,0,2022-10-11,2022-10-11,株式会社渡辺官業,,株式会社,山形県,尾花沢市,大字荻袋６５６番地２,,06,212,9994552,,,,,,,2022-10-11,1,,,,,ワタナベカンギョウ,0
607,2410003003709,新規,0,2022-10-11,2022-10-11,合同会社シューネット,,合同会社,秋田県,秋田市,東通６丁目１６－６,,05,201,0100003,,,,,,,2022-10-11,1,,,,,シューネット,0
613,2430001087611,新規,0,2022-10-11,2022-10-11,株式会社ダイコウ建築研究所,,株式会社,北海道,札幌市東区,本町二条３丁目６番２８号,,01,103,0650042,,,,,,,2022-10-11,1,,,,,ダイコウケンチクケンキュウジョ,0
614,2430001087628,新規,0,2022-10-11,2022-10-11,株式会社中山金属,,株式会社,北海道,札幌市北区,屯田三条４丁目７－５フェリシモヒルズ１０２号,,01,102,0020853,,,,,,,2022-10-11,1,,,,,ナカヤマキンゾク,0
618,2430003014332,新規,0,2022-10-11,2022-10-11,合同会社ＬＩＦＥ　ＰＬＵＳ,,合同会社,北海道,札幌市西区,発寒六条１２丁目４番３３－１００２号,,01,107,0630826,,,,,,,2022-10-11,1,,,,,ライフプラス,0
619,2430003014340,新規,0,2022-10-11,2022-10-11,合同会社孔建,,合同会社,北海道,札幌市豊平区,福住二条３丁目２番１７号,,01,105,0620042,,,,,,,2022-10-11,1,,,,,コウケン,0
620,2470003002259,新規,0,2022-10-11,2022-10-11,住友興業合同会社,,合同会社,香川県,高松市,上福岡町７０４番地２,,37,201,7600077,,,,,,,2022-10-11,1,,,,,,0
621,2470003002267,新規,0,2022-10-11,2022-10-11,合同会社小野坂商事,,合同会社,香川県,高松市,西春日町１２８０番地１,,37,201,7618051,,,,,,,2022-10-11,1,,,,,オノサカショウジ,0
634,3010001229923,新規,0,2022-10-11,2022-10-11,株式会社熟と燗,,株式会社,東京都,千代田区,四番町２番地２,,13,101,1020081,,,,,,,2022-10-11,1,,,,,ジュクトカン,0
635,3010001229964,新規,0,2022-10-11,2022-10-11,ＹＡＳＯＨＡＣＨＩ株式会社,,株式会社,東京都,千代田区,麹町５丁目３番地,,13,101,1020083,,,,,,,2022-10-11,1,,,,,ヤソハチ,0
636,3010001229997,新規,0,2022-10-11,2022-10-11,３Ｄ　Ｓｈａｒｅｈｏｌｄｅｒ　Ｓｅｒｖｉｃｅｓ株式会社,,株式会社,東京都,千代田区,丸の内２丁目１番１号明治安田生命ビル２１階,,13,101,1000005,,,,,,,2022-10-11,1,,,,,スリーディーシェアホルダーサービシス,0
640,3010005035657,新規,0,2022-10-11,2022-10-11,さくら橋一般社団法人,,その他の設立登記法人,東京都,千代田区,霞が関３丁目２番５号,,13,101,1000013,,,,,,,2022-10-11,1,,,,,サクラバシ,0
642,3010401170223,新規,0,2022-10-11,2022-10-11,オフィスＩＴＯ株式会社,,株式会社,東京都,港区,南青山５丁目１７番２号,,13,103,1070062,,,,,,,2022-10-11,1,,,,,オフィスイトウ,0
647,3010405021455,新規,0,2022-10-11,2022-10-11,ジャパンロジスティクス１一般社団法人,,その他の設立登記法人,東京都,港区,六本木１丁目９番１０号アークヒルズ仙石山森タワー４０階,,13,103,1060032,,,,,,,2022-10-11,1,,,,,ジャパンロジスティクスワン,0
649,3010501049458,新規,0,2022-10-11,2022-10-11,株式会社Ｐｌｕｓ　Ｖａｌｕｅ　Ｃａｌｅｎｄａｒ,,株式会社,東京都,台東区,池之端２丁目５番３９－１０１号,,13,106,1100008,,,,,,,2022-10-11,1,,,,,プラスバリューカレンダー,0
653,3010701043310,新規,0,2022-10-11,2022-10-11,三田キャピタルパートナーズ株式会社,,株式会社,東京都,品川区,東五反田５丁目２番２３号,,13,109,1410022,,,,,,,2022-10-11,1,,,,,ミタキャピタルパートナーズ,0
659,3010801033310,新規,0,2022-10-11,2022-10-11,株式会社リージョナルプラスウイングス,,株式会社,東京都,大田区,羽田空港３丁目３番２号,,13,111,1440041,,,,,,,2022-10-11,1,,,,,リージョナルプラスウイングス,0
660,3010901051765,新規,0,2022-10-11,2022-10-11,ＴＨＥ　ＭＯＭＥＮＴ株式会社,,株式会社,東京都,世田谷区,成城２丁目３９番７号すみれビルＢ１Ｆ,,13,112,1570066,,,,,,,2022-10-11,1,,,,,ザモーメント,0
662,3010903007699,新規,0,2022-10-11,2022-10-11,合同会社セドナ,,合同会社,東京都,世田谷区,北沢１丁目２２番４号ソレアード北沢１０２,,13,112,1550031,,,,,,,2022-10-11,1,,,,,セドナ,0
667,3011001150128,新規,0,2022-10-11,2022-10-11,株式会社セプテック,,株式会社,東京都,渋谷区,南平台町１６番１７号,,13,113,1500036,,,,,,,2022-10-11,1,,,,,セプテック,0
668,3011001150169,新規,0,2022-10-11,2022-10-11,株式会社Ｆｅｌｌｏｗｓ　Ｒｏａｄ,,株式会社,東京都,目黒区,中目黒３丁目１２番１９号幸來路ビル３階,,13,110,1530061,,,,,,,2022-10-11,1,,,,,フェローズロード,0
670,3011003015502,新規,0,2022-10-11,2022-10-11,合同会社ＣＨＡＩ,,合同会社,東京都,渋谷区,渋谷１丁目３番１８号ビラモデルナＢ４０５,,13,113,1500002,,,,,,,2022-10-11,1,,,,,チャイ,0
676,3011101100429,新規,0,2022-10-11,2022-10-11,株式会社ａｇｌｉｎｋ．ｌａｂ,,株式会社,東京都,新宿区,西早稲田３丁目１８番９号西早稲田クレセントマンション４０２,,13,104,1690051,,,,,,,2022-10-11,1,,,,,アグリンクラボ,0
677,3011203003926,新規,0,2022-10-11,2022-10-11,合同会社ＴＵＲＴＬＥＳ,,合同会社,東京都,中野区,大和町１丁目１９番４号シュリエールメナーゼ２０３,,13,114,1650034,,,,,,,2022-10-11,1,,,,,タートルズ,0
683,3011405002222,新規,0,2022-10-11,2022-10-11,一般社団法人共茂まちの保健室,,その他の設立登記法人,東京都,板橋区,坂下１丁目３０番１８号,,13,119,1740043,,,,,,,2022-10-11,1,,,,,キョウモマチノホケンシツ,0
685,3011801041377,新規,0,2022-10-11,2022-10-11,株式会社ＴＯＲＥＳ,,株式会社,東京都,葛飾区,東新小岩６丁目１８番６号,,13,122,1240023,,,,,,,2022-10-11,1,,,,,トレス,0
686,3011801041393,新規,0,2022-10-11,2022-10-11,株式会社きらり住設,,株式会社,東京都,葛飾区,金町６丁目４番２－５０２号ルミナス金町,,13,122,1250042,,,,,,,2022-10-11,1,,,,,キラリジュウセツ,0
688,3011803005306,新規,0,2022-10-11,2022-10-11,美世合同会社,,合同会社,東京都,葛飾区,小菅２丁目２６番１２号,,13,122,1240001,,,,,,,2022-10-11,1,,,,,ミセ,0
694,3012403005621,新規,0,2022-10-11,2022-10-11,合同会社ホワイテート,,合同会社,東京都,三鷹市,新川６丁目３６番１５号,,13,204,1810004,,,,,,,2022-10-11,1,,,,,ホワイテート,0
706,3020003022524,新規,0,2022-10-11,2022-10-11,合同会社ＳＴＡＧＥ　ＴＥＣＨＮＯ,,合同会社,神奈川県,川崎市多摩区,南生田３丁目３番１号１小菅ハウス１Ｆ,,14,135,2140036,,,,,,,2022-10-11,1,,,,,ステージテクノ,0
707,3020003022532,新規,0,2022-10-11,2022-10-11,合同会社ＢＥＮＣＨ　ＰＲＥＳＳ,,合同会社,神奈川県,横浜市保土ケ谷区,西谷３丁目２７番１－３１０号,,14,106,2400054,,,,,,,2022-10-11,1,,,,,ベンチプレス,0
708,3021001077147,新規,0,2022-10-11,2022-10-11,株式会社ｍｏｖｅ　ｕｐ,,株式会社,神奈川県,相模原市南区,松が枝町１２番２号ヴィラ松が枝７０１,,14,153,2520313,,,,,,,2022-10-11,1,,,,,ムーヴアップ,0
709,3021001077155,新規,0,2022-10-11,2022-10-11,株式会社はまゆう不動産,,株式会社,神奈川県,平塚市,菫平１６番３０号ビオラハウス２０１号,,14,203,2540822,,,,,,,2022-10-11,1,,,,,ハマユウフドウサン,0
711,3021003012201,新規,0,2022-10-11,2022-10-11,合同会社そらまめ,,合同会社,神奈川県,相模原市南区,松が枝町２４番２号高橋ビル２‐Ｂ,,14,153,2520313,,,,,,,2022-10-11,1,,,,,ソラマメ,0
722,3030001150425,新規,0,2022-10-11,2022-10-11,株式会社ＡＤグループ,,株式会社,埼玉県,児玉郡神川町,大字元阿保１０６２番地４,,11,383,3670247,,,,,,,2022-10-11,1,,,,,エイディーグループ,0
723,3030001150433,新規,0,2022-10-11,2022-10-11,株式会社ヤマデン,,株式会社,埼玉県,桶川市,大字舎人新田７１２番地の１,,11,231,3630005,,,,,,,2022-10-11,1,,,,,ヤマデン,0
724,3030001150499,新規,0,2022-10-11,2022-10-11,株式会社ＣＬＥＡＮ　ＵＰパートナー,,株式会社,埼玉県,上尾市,大字瓦葺１７２６番地７,,11,219,3620022,,,,,,,2022-10-11,1,,,,,クリーンアップパートナー,0
725,3030001150508,新規,0,2022-10-11,2022-10-11,株式会社ＳＰＲ,,株式会社,埼玉県,川口市,差間１丁目１８番１７号,,11,203,3330816,,,,,,,2022-10-11,1,,,,,エスピーアール,0
726,3030001150516,新規,0,2022-10-11,2022-10-11,株式会社松屋建装,,株式会社,埼玉県,三郷市,泉２丁目２７番地１９,,11,237,3410054,,,,,,,2022-10-11,1,,,,,マツヤケンソウ,0
727,3030001150532,新規,0,2022-10-11,2022-10-11,株式会社ノビクル,,株式会社,埼玉県,川口市,新井町１－３,,11,203,3320005,,,,,,,2022-10-11,1,,,,,ノビクル,0
734,3040001125343,新規,0,2022-10-11,2022-10-11,株式会社エムファイブ,,株式会社,千葉県,浦安市,入船１丁目８番１－１３１１号,,12,227,2790012,,,,,,,2022-10-11,1,,,,,エムファイブ,0
738,3040003020988,新規,0,2022-10-11,2022-10-11,合同会社プラントインサイト,,合同会社,千葉県,市原市,泉台４丁目１６番地９,,12,219,2990114,,,,,,,2022-10-11,1,,,,,プラントインサイト,0
741,3050001051786,新規,0,2022-10-11,2022-10-11,株式会社笹本建材,,株式会社,茨城県,神栖市,波崎３７２９番地５,,08,232,3140408,,,,,,,2022-10-11,1,,,,,ササモトケンザイ,0
742,3050001051794,新規,0,2022-10-11,2022-10-11,株式会社Ｐｏｗｅｒ　Ａｒｃｈｉｔｅｃｔ,,株式会社,茨城県,下妻市,大串６７４番地,,08,210,3040023,,,,,,,2022-10-11,1,,,,,パワーアーキテクト,0
744,3060001035342,新規,0,2022-10-11,2022-10-11,Ｂｅｍａｒｓ株式会社,,株式会社,栃木県,鹿沼市,西茂呂１丁目２番地８,,09,205,3220029,,,,,,,2022-10-11,1,,,,,ビマーズ,0
749,3060003004262,新規,0,2022-10-11,2022-10-11,合同会社ＶＴカンパニー,,合同会社,栃木県,那須郡那須町,大字高久乙３３７５番地２７８１,,09,407,3250303,,,,,,,2022-10-11,1,,,,,,0
752,3070001014634,新規,0,2022-10-11,2022-10-11,株式会社竜,,株式会社,群馬県,伊勢崎市,平和町２６番８号,,10,204,3720041,,,,,,,2022-10-11,1,,,,,,0
754,3070001039730,新規,0,2022-10-11,2022-10-11,株式会社バロンアーキテクツ,,株式会社,群馬県,前橋市,西片貝町３丁目２９５番地１,,10,201,3710013,,,,,,,2022-10-11,1,,,,,バロンアーキテクツ,0
767,3110001037011,新規,0,2022-10-11,2022-10-11,ＦＬＡＧ株式会社,,株式会社,新潟県,上越市,柿崎区馬正面１１７５番地９,,15,222,9493214,,,,,,,2022-10-11,1,,,,,フラッグ,0
768,3110001037028,新規,0,2022-10-11,2022-10-11,株式会社Ｃｒｏｓｓ　Ｎｏｖａ,,株式会社,新潟県,上越市,板倉区稲増６３番地２２,,15,222,9440101,,,,,,,2022-10-11,1,,,,,クロスノヴァ,0
776,3120001249349,新規,0,2022-10-11,2022-10-11,株式会社Ｓ‐ＣＯＭＰＡＮＹ,,株式会社,大阪府,大阪市平野区,加美東４丁目１２番３８号,,27,126,5470002,,,,,,,2022-10-11,1,,,,,エスカンパニー,0
777,3120001249373,新規,0,2022-10-11,2022-10-11,池田壁装株式会社,,株式会社,大阪府,大阪市東住吉区,駒川１丁目６番９号,,27,121,5460043,,,,,,,2022-10-11,1,,,,,イケダヘキソウ,0
778,3120001249381,新規,0,2022-10-11,2022-10-11,株式会社ＤＲＥＡＭ　ＦＬＡＧ　ＫＥＮ,,株式会社,大阪府,大阪市北区,曾根崎新地１丁目３番２９号リップルＭＡＸビル３Ｆ,,27,127,5300002,,,,,,,2022-10-11,1,,,,,ドリームフラッグケン,0
779,3120001249497,新規,0,2022-10-11,2022-10-11,株式会社Ｇｒａｎｄ，ｍａ,,株式会社,大阪府,大阪市中央区,島之内１丁目１０番１５号,,27,128,5420082,,,,,,,2022-10-11,1,,,,,グランマ,0
780,3120001249514,新規,0,2022-10-11,2022-10-11,ティーカンリ株式会社,,株式会社,大阪府,大阪市中央区,南久宝寺町３丁目２番７号,,27,128,5410058,,,,,,,2022-10-11,1,,,,,ティーカンリ,0
782,3120101066339,新規,0,2022-10-11,2022-10-11,株式会社アンカーズアート,,株式会社,大阪府,富田林市,梅の里３丁目６番２４号,,27,214,5840001,,,,,,,2022-10-11,1,,,,,アンカーズアート,0
783,3120101066347,新規,0,2022-10-11,2022-10-11,株式会社ドローンショット,,株式会社,大阪府,岸和田市,包近町５１９番地の１,,27,202,5960101,,,,,,,2022-10-11,1,,,,,ドローンショット,0
784,3120101066355,新規,0,2022-10-11,2022-10-11,株式会社ＫＳ‐Ｌｅｃｔ,,株式会社,大阪府,堺市堺区,香ヶ丘町１丁１４番４号,,27,141,5900011,,,,,,,2022-10-11,1,,,,,ケーエスレクト,0
788,3120901046580,新規,0,2022-10-11,2022-10-11,蓮電工株式会社,,株式会社,大阪府,豊中市,野田町１８番１号,,27,203,5610855,,,,,,,2022-10-11,1,,,,,ハスデンコウ,0
790,3122001036297,新規,0,2022-10-11,2022-10-11,株式会社ＫＣＳ,,株式会社,大阪府,東大阪市,川田３丁目３番１４号,,27,227,5780905,,,,,,,2022-10-11,1,,,,,ケーシーエス,0
798,3130001072774,新規,0,2022-10-11,2022-10-11,ＩＫＥＫＡ株式会社,,株式会社,京都府,京都市西京区,下津林楠町１８番地,,26,111,6158065,,,,,,,2022-10-11,1,,,,,イケカ,0
799,3130001072799,新規,0,2022-10-11,2022-10-11,株式会社やすまる,,株式会社,京都府,京都市下京区,朱雀宝蔵町４４番地協栄ビル２階京都朱雀スタジオ株式会社やすまる,,26,106,6008846,,,,,,,2022-10-11,1,,,,,ヤスマル,0
803,3130005016595,新規,0,2022-10-11,2022-10-11,医療法人社団青洛会,,その他の設立登記法人,京都府,京都市中京区,西ノ京星池町２２２番地,,26,104,6048416,,,,,,,2022-10-11,1,,,,,セイラクカイ,0
813,3140001127627,新規,0,2022-10-11,2022-10-11,イガキＨＤ株式会社,,株式会社,兵庫県,宍粟市,山崎町千本屋２９０番地１,,28,227,6712544,,,,,,,2022-10-11,1,,,,,イガキエイチディー,0
814,3140001127684,新規,0,2022-10-11,2022-10-11,株式会社結梨,,株式会社,兵庫県,西宮市,笠屋町２１番１９－２号,,28,204,6638136,,,,,,,2022-10-11,1,,,,,ユウリ,0
816,3140003018221,新規,0,2022-10-11,2022-10-11,姫路ガーデンワークス合同会社,,合同会社,兵庫県,姫路市,兼田６１６番地１,,28,201,6728001,,,,,,,2022-10-11,1,,,,,,0
818,3160001024558,新規,0,2022-10-11,2022-10-11,杉山加工株式会社,,株式会社,滋賀県,近江八幡市,池田本町６２８番地,,25,204,5230043,,,,,,,2022-10-11,1,,,,,スギヤマカコウ,0
819,3160001024566,新規,0,2022-10-11,2022-10-11,株式会社Ａ’Ｓワークス,,株式会社,滋賀県,守山市,立入町３５３番地,,25,207,5240031,,,,,,,2022-10-11,1,,,,,エースワークス,0
823,3160003002693,新規,0,2022-10-11,2022-10-11,ＭＨＤホールディングス合同会社,,合同会社,滋賀県,甲賀市,水口町和野１１８２番地,,25,209,5280003,,,,,,,2022-10-11,1,,,,,エムエイチディーホールディングス,0
824,3160005011131,新規,0,2022-10-11,2022-10-11,医療法人景聖健,,その他の設立登記法人,滋賀県,甲賀市,水口町松栄３番２６号,,25,209,5280015,,,,,,,2022-10-11,1,,,,,ケイセイケン,0
830,3180001153314,新規,0,2022-10-11,2022-10-11,株式会社コトデザイン,,株式会社,愛知県,名古屋市中区,錦２丁目１１番１３号,,23,106,4600003,,,,,,,2022-10-11,1,,,,,コトデザイン,0
831,3180001153322,新規,0,2022-10-11,2022-10-11,株式会社アップボンド,,株式会社,愛知県,一宮市,浅井町小日比野字大萩１０１３番地５,,23,203,4910104,,,,,,,2022-10-11,1,,,,,アップボンド,0
832,3180001153339,新規,0,2022-10-11,2022-10-11,株式会社ロカンタン,,株式会社,愛知県,名古屋市中区,橘１丁目２７番６号,,23,106,4600016,,,,,,,2022-10-11,1,,,,,ロカンタン,0
833,3180001153363,新規,0,2022-10-11,2022-10-11,株式会社リバースクエア,,株式会社,愛知県,名古屋市守山区,元郷２丁目２０１番地６,,23,113,4630025,,,,,,,2022-10-11,1,,,,,リバースクエア,0
834,3180001153371,新規,0,2022-10-11,2022-10-11,ＲＩＮＧＳ建設株式会社,,株式会社,愛知県,名古屋市昭和区,御器所１丁目１４番８号,,23,107,4660051,,,,,,,2022-10-11,1,,,,,リングスケンセツ,0
836,3180003024356,新規,0,2022-10-11,2022-10-11,合同会社ＣＡＣＴＵＳ　Ｄ’ＯＲＯ,,合同会社,愛知県,春日井市,如意申町８丁目１番地９坂本ビル１Ｆ,,23,206,4860918,,,,,,,2022-10-11,1,,,,,カクタスドォーロ,0
837,3180005019965,新規,0,2022-10-11,2022-10-11,アイリス障害年金社会保険労務士法人,,その他の設立登記法人,愛知県,名古屋市中区,金山１丁目２番２４号ロンシャン金山７０４号,,23,106,4600022,,,,,,,2022-10-11,1,,,,,アイリスショウガイネンキン,0
844,3210001019123,新規,0,2022-10-11,2022-10-11,株式会社キタノリスクサポート,,株式会社,福井県,福井市,栃泉町第１０４号９番地２１,,18,201,9102163,,,,,,,2022-10-11,1,,,,,キタノリスクサポート,0
845,3210003001566,新規,0,2022-10-11,2022-10-11,Ａｋｋａｄ合同会社,,合同会社,福井県,福井市,下森田町第６号１番地１５,,18,201,9100147,,,,,,,2022-10-11,1,,,,,アッカド,0
853,3260003004060,新規,0,2022-10-11,2022-10-11,エネルドソレイユ合同会社,,合同会社,岡山県,笠岡市,西大島２４３８番地の８７,,33,205,7140032,,,,,,,2022-10-11,1,,,,,エネルドソレイユ,0
861,3290001099166,新規,0,2022-10-11,2022-10-11,株式会社ジュンモーター販売,,株式会社,福岡県,久留米市,高良内町４５０２番地２６,,40,203,8390852,,,,,,,2022-10-11,1,,,,,ジュンモーターハンバイ,0
864,3290003013034,新規,0,2022-10-11,2022-10-11,合同会社ＡＩＩＲＯ　ＷＯＲＫＳ,,合同会社,福岡県,福岡市西区,下山門４丁目７番３－１０２号,,40,135,8190052,,,,,,,2022-10-11,1,,,,,アイイロワークス,0
865,3290003013050,新規,0,2022-10-11,2022-10-11,合同会社アイエスアイ,,合同会社,福岡県,太宰府市,高雄１丁目３７１９番地６メルベーユコートＣ１０６号,,40,221,8180122,,,,,,,2022-10-11,1,,,,,アイエスアイ,0
869,3300003001887,新規,0,2022-10-11,2022-10-11,合同会社Ｆｏｕｒ　ｎｉｎｅ,,合同会社,佐賀県,三養基郡基山町,大字宮浦１９番地１グリーンハイツＤ１０２号,,41,341,8410204,,,,,,,2022-10-11,1,,,,,フォーナイン,0
874,3340001025075,新規,0,2022-10-11,2022-10-11,株式会社トヨタＰＣ鹿児島ホールディングス,,株式会社,鹿児島県,鹿児島市,西千石町１番２１号,,46,201,8920847,,,,,,,2022-10-11,1,,,,,トヨタピーシーカゴシマホールディングス,0
875,3340001025091,新規,0,2022-10-11,2022-10-11,株式会社まちプラス,,株式会社,鹿児島県,曽於市,末吉町上町２丁目４番地５,,46,217,8998609,,,,,,,2022-10-11,1,,,,,マチプラス,0
876,3350001017988,新規,0,2022-10-11,2022-10-11,株式会社幸福,,株式会社,宮崎県,宮崎市,清武町加納３丁目５２番地セジュール加納Ａ棟１０１号,,45,201,8891607,,,,,,,2022-10-11,1,,,,,コウフク,0
878,3360001031047,新規,0,2022-10-11,2022-10-11,株式会社Ｓｅｅ　Ｅｍ　Ｗｈｙ　Ｋ,,株式会社,沖縄県,那覇市,久茂地１丁目１－１パレットくもじ９階,,47,201,9000015,,,,,,,2022-10-11,1,,,,,シーエムワイケー,0
880,3360003012359,新規,0,2022-10-11,2022-10-11,ナッツ合同会社,,合同会社,沖縄県,中頭郡北谷町,字北前２５５番地（稲嶺アパートＩＩ２階）,00128078,47,326,9040117,,,,,,,2022-10-11,1,,,,,ナッツ,0
884,3370001049121,新規,0,2022-10-11,2022-10-11,株式会社Ｙ’Ｓ空調,,株式会社,宮城県,塩竈市,後楽町２０番２９号,,04,203,9850067,,,,,,,2022-10-11,1,,,,,ワイズクウチョウ,0
889,3380003005294,新規,0,2022-10-11,2022-10-11,合同会社誠商店,,合同会社,福島県,郡山市,中田町下枝字荒町３５０－５,,07,203,9630833,,,,,,,2022-10-11,1,,,,,,0
890,3390001017043,新規,0,2022-10-11,2022-10-11,株式会社ＴＦ,,株式会社,山形県,新庄市,大字升形１６５９番地の３,,06,205,9960111,,,,,,,2022-10-11,1,,,,,ティエフ,0
903,3490001010302,新規,0,2022-10-11,2022-10-11,Ｍ・ＲＡＣＩＮＧ株式会社,,株式会社,高知県,高知市,長浜宮田２０００番地２８号西,,39,201,7810271,,,,,,,2022-10-11,1,,,,,エムレーシング,0
907,3500001024531,新規,0,2022-10-11,2022-10-11,株式会社ｚｅｒｏ　ｆｉｅｌｄ,,株式会社,愛媛県,松山市,勝山町２丁目１５５－１メゾンドール勝山２Ｆ西,,38,201,7900878,,,,,,,2022-10-11,1,,,,,ゼロフィールド,0
911,3700150111110,新規,0,2022-10-11,2022-08-10,生田流箏道音楽院,,その他,東京都,大田区,北千束３丁目１８－１１,,13,111,1450062,,,,,,,2022-08-10,1,,,,,イクタリユウソウドウオンガクイン,0
918,4010001229922,新規,0,2022-10-11,2022-10-11,株式会社ＨＩＫＥ,,株式会社,東京都,中央区,銀座７丁目１６番１２号,,13,102,1040061,,,,,,,2022-10-11,1,,,,,ハイク,0
919,4010001229971,新規,0,2022-10-11,2022-10-11,時事通信ビジネスサポート株式会社,,株式会社,東京都,中央区,銀座５丁目１５番８号,,13,102,1040061,,,,,,,2022-10-11,1,,,,,ジジツウシンビジネスサポート,0
920,4010001229988,新規,0,2022-10-11,2022-10-11,株式会社金座,,株式会社,東京都,中央区,銀座７丁目１７番１８号,,13,102,1040061,,,,,,,2022-10-11,1,,,,,キンザ,0
921,4010001230005,新規,0,2022-10-11,2022-10-11,ＣＷＳ株式会社,,株式会社,東京都,千代田区,大手町１丁目７番２号,,13,101,1000004,,,,,,,2022-10-11,1,,,,,シーダブリューエス,0
922,4010001230046,新規,0,2022-10-11,2022-10-11,株式会社ＡＰＨＲＯＤＩＴＥＲＡＥ,,株式会社,東京都,千代田区,神田佐久間町１丁目８番４号アルテール秋葉原７０８,,13,101,1010025,,,,,,,2022-10-11,1,,,,,アフロディトレェ,0
924,4010003038834,新規,0,2022-10-11,2022-10-11,吉陸澤合同会社,,合同会社,東京都,文京区,大塚５丁目２５番１４号ライオンズマンション護国寺第２、２０３号,00128077,13,105,1120012,,,,,,,2022-10-11,1,,,,,ヨシリクザワ,0
938,4010403028690,新規,0,2022-10-11,2022-10-11,合同会社白河ソーラー,,合同会社,東京都,港区,六本木６丁目１０番１号六本木ヒルズ森タワー,,13,103,1060032,,,,,,,2022-10-11,1,,,,,シラカワソーラー,0
945,4010701043301,新規,0,2022-10-11,2022-10-11,株式会社プリマ,,株式会社,東京都,品川区,西五反田２丁目１４番９号,,13,109,1410031,,,,,,,2022-10-11,1,,,,,プリマ,0
947,4010703006413,新規,0,2022-10-11,2022-10-11,合同会社ＬＯＤ,,合同会社,東京都,品川区,北品川５丁目８番地１５号北品川ホームズ１４０２号,,13,109,1410001,,,,,,,2022-10-11,1,,,,,エルオーディー,0
948,4010705003433,新規,0,2022-10-11,2022-10-11,一般財団法人高橋会,00128073,その他の設立登記法人,東京都,品川区,西中延３丁目１番６号,,13,109,1420054,,,,,,,2022-10-11,1,,,,,タカハシカイ,0
961,4011001150110,新規,0,2022-10-11,2022-10-11,ＣＯＭＥＴ　ＧＡＲＡＧＥ株式会社,,株式会社,東京都,渋谷区,円山町５番５号渋谷橋本ビル８Ｆ,,13,113,1500044,,,,,,,2022-10-11,1,,,,,コメットガレージ,0
962,4011001150151,新規,0,2022-10-11,2022-10-11,Ｔｈｉｓ　ｉｓ　Ｍｅ株式会社,,株式会社,東京都,目黒区,中根１丁目１３番１８号リバーレ自由が丘８０２,,13,110,1520031,,,,,,,2022-10-11,1,,,,,ディスイズミー,0
965,4011003015484,新規,0,2022-10-11,2022-10-11,合同会社ラポンティア,,合同会社,東京都,渋谷区,神宮前６丁目２３番４号桑野ビル２階,,13,113,1500001,,,,,,,2022-10-11,1,,,,,ラポンティア,0
967,4011101100378,新規,0,2022-10-11,2022-10-11,株式会社ＳＥＥＤ　ＬＩＶＥ,,株式会社,東京都,新宿区,西新宿３丁目３番１３号,,13,104,1600023,,,,,,,2022-10-11,1,,,,,シードライブ,0
968,4011103012241,新規,0,2022-10-11,2022-10-11,ＤＵＯＮＧ　ＣＵＯＮＧ　ＭＯＢＩＬＥ合同会社,,合同会社,東京都,新宿区,大久保２丁目２４番１号クレドハウス大久保Ｂ棟６号,,13,104,1690072,,,,,,,2022-10-11,1,,,,,ズオンクオンモバイル,0
971,4011405002221,新規,0,2022-10-11,2022-10-11,一般財団法人日本郵便切手デジタル博物館,,その他の設立登記法人,東京都,板橋区,若木１丁目１０番８号ベラカーサ１０１号,,13,119,1740065,,,,,,,2022-10-11,1,,,,,ニホンユウビンキッテデジタルハクブツカン,0
979,4011803005305,新規,0,2022-10-11,2022-10-11,華盛合同会社,,合同会社,東京都,足立区,加賀１丁目２０番１７号サンシティ加賀Ｂ棟１０２号室,,13,121,1230861,,,,,,,2022-10-11,1,,,,,カセイ,0
989,4020001148485,新規,0,2022-10-11,2022-10-11,株式会社ネオジオ,,株式会社,神奈川県,横浜市港北区,新横浜２丁目１４番地８－８１０号,,14,109,2220033,,,,,,,2022-10-11,1,,,,,ネオジオ,0
990,4020001148510,新規,0,2022-10-11,2022-10-11,エシカルライフ株式会社,,株式会社,神奈川県,横浜市港北区,新羽町７２１番地の３,,14,109,2230057,,,,,,,2022-10-11,1,,,,,エシカルライフ,0
998,4021001077146,新規,0,2022-10-11,2022-10-11,株式会社コミットマテリアル,,株式会社,神奈川県,逗子市,小坪１丁目２８番２０号,,14,208,2490008,,,,,,,2022-10-11,1,,,,,コミットマテリアル,0
1005,4021003012209,新規,0,2022-10-11,2022-10-11,ＫＡＬＡＷＡＮＤＹ合同会社,,合同会社,神奈川県,伊勢原市,石田２１５番地の５,,14,214,2591116,,,,,,,2022-10-11,1,,,,,カラワンディ,0
1017,4030001150399,新規,0,2022-10-11,2022-10-11,株式会社環境,,株式会社,埼玉県,草加市,柿木町２０６２番地,,11,221,3400001,,,,,,,2022-10-11,1,,,,,カンキョウ,0
1018,4030001150424,新規,0,2022-10-11,2022-10-11,株式会社高村電設,00128068,株式会社,埼玉県,川口市,戸塚５丁目１６番９－１０１号,,11,203,3330811,,,,,,,2022-10-11,1,,,,,タカムラデンセツ,0
1019,4030001150481,新規,0,2022-10-11,2022-10-11,株式会社フォーチュンホーム,,株式会社,埼玉県,入間市,豊岡５丁目１番２号ＴＭ第一ビル３０１,,11,225,3580003,,,,,,,2022-10-11,1,,,,,フォーチュンホーム,0
1020,4030001150498,新規,0,2022-10-11,2022-10-11,株式会社菊田急送,,株式会社,埼玉県,越谷市,東大沢２丁目２４番地１１パークサイドハイツ２０２号室,,11,222,3430022,,,,,,,2022-10-11,1,,,,,キクタキュウソウ,0
1021,4030001150515,新規,0,2022-10-11,2022-10-11,株式会社ドミノキャピタル,,株式会社,埼玉県,越谷市,レイクタウン７丁目２２番地５,,11,222,3430828,,,,,,,2022-10-11,1,,,,,ドミノキャピタル,0
1022,4030001150531,新規,0,2022-10-11,2022-10-11,株式会社伸光工業所,,株式会社,埼玉県,さいたま市西区,大字宝来７９３番地２,,11,101,3310074,,,,,,,2022-10-11,1,,,,,シンコウコウギョウショ,0
1033,4040001125350,新規,0,2022-10-11,2022-10-11,株式会社笑軍,,株式会社,千葉県,我孫子市,布佐平和台１丁目２番１号,,12,222,2701108,,,,,,,2022-10-11,1,,,,,ショウグン,0
1034,4040001125367,新規,0,2022-10-11,2022-10-11,株式会社Ｆｕｔｕｒｅ　Ｎｅｅｄ,,株式会社,千葉県,千葉市若葉区,小倉町１７１７番地,,12,104,2640007,,,,,,,2022-10-11,1,,,,,フューチャーニード,0
1035,4040003021003,新規,0,2022-10-11,2022-10-11,合同会社Ｃａｔ　ｍｏｏｎ,,合同会社,千葉県,船橋市,宮本４丁目９番１３号,,12,204,2730003,,,,,,,2022-10-11,1,,,,,キャットムーン,0
1039,4050001051777,新規,0,2022-10-11,2022-10-11,株式会社ＡＲＭ,,株式会社,茨城県,古河市,女沼１６３９番地３カナヤハイツＶＩＩ２０２号室,00128072,08,204,3060226,,,,,,,2022-10-11,1,,,,,アーム,0
1044,4060001035341,新規,0,2022-10-11,2022-10-11,株式会社ゆだ農園,,株式会社,栃木県,塩谷郡高根沢町,大字平田６４１番地,,09,386,3291206,,,,,,,2022-10-11,1,,,,,ユダノウエン,0
1046,4060003004261,新規,0,2022-10-11,2022-10-11,合同会社龍の国,,合同会社,栃木県,那須塩原市,湯宮７１番地２,,09,213,3250117,,,,,,,2022-10-11,1,,,,,リュウノクニ,0
1047,4060005010019,新規,0,2022-10-11,2022-10-11,一般社団法人ペダゴージャパン,,その他の設立登記法人,栃木県,宇都宮市,鶴田町１７１０番地９１,,09,201,3200851,,,,,,,2022-10-11,1,,,,,ペタゴージャパン,0
1048,4070001039721,新規,0,2022-10-11,2022-10-11,株式会社まる,,株式会社,群馬県,太田市,新田市野井町６９３番地１,,10,205,3700314,,,,,,,2022-10-11,1,,,,,マル,0
1050,4070003004640,新規,0,2022-10-11,2022-10-11,合同会社Ｄｅｔａｉｌｓ,,合同会社,群馬県,前橋市,粕川町込皆戸４０２番地１ホープヒルＥ－２０２号,,10,201,3710216,,,,,,,2022-10-11,1,,,,,ディテールズ,0
1053,4090005007516,新規,0,2022-10-11,2022-10-11,西野村農業会,,その他の設立登記法人,山梨県,南アルプス市,西野２２４８番地,,19,208,4000213,,,,,,,2022-10-11,1,,,,,ニシノムラノウギョウカイ,0
1055,4110001037027,新規,0,2022-10-11,2022-10-11,株式会社星野電業,,株式会社,新潟県,南魚沼市,上一日市４６２番地５,,15,226,9496364,,,,,,,2022-10-11,1,,,,,ホシノデンギョウ,0
1065,4120001249323,新規,0,2022-10-11,2022-10-11,株式会社ｏｆｆｉｃｅ‐ｅｙｅ‐ｂ,,株式会社,大阪府,大阪市阿倍野区,天王寺町南３丁目６番２４－１３０２号,,27,119,5450002,,,,,,,2022-10-11,1,,,,,オフィスアイビー,0
1066,4120001249389,新規,0,2022-10-11,2022-10-11,株式会社龍栄商事,,株式会社,大阪府,門真市,岸和田２丁目１８番３号サンリッド２０２号,,27,223,5710002,,,,,,,2022-10-11,1,,,,,タツエイショウジ,0
1067,4120001249414,新規,0,2022-10-11,2022-10-11,南海リートマネジメント株式会社,,株式会社,大阪府,大阪市中央区,難波４丁目４番１号,,27,128,5420076,,,,,,,2022-10-11,1,,,,,ナンカイリートマネジメント,0
1069,4120003022612,新規,0,2022-10-11,2022-10-11,合同会社Ｄ　Ｇｒｏｕｐ,,合同会社,大阪府,大阪市生野区,桃谷３丁目１３番６号,,27,116,5440034,,,,,,,2022-10-11,1,,,,,ディーグループ,0
1070,4120003022620,新規,0,2022-10-11,2022-10-11,合同会社ＭｏｉＭｏｉ,,合同会社,大阪府,大阪市中央区,久太郎町１丁目７番１１号プレサンスレジェンド堺筋本町タワー２７１１,,27,128,5410056,,,,,,,2022-10-11,1,,,,,モイモイ,0
1071,4120003022629,新規,0,2022-10-11,2022-10-11,合同会社健撰舎,,合同会社,大阪府,大阪市中央区,船越町１丁目２番１号,,27,128,5400036,,,,,,,2022-10-11,1,,,,,ケンセンシャ,0
1084,4122001036288,新規,0,2022-10-11,2022-10-11,株式会社セカンドホース,,株式会社,大阪府,東大阪市,友井２丁目３４番２６号,,27,227,5770816,,,,,,,2022-10-11,1,,,,,セカンドホース,0
1085,4130001072765,新規,0,2022-10-11,2022-10-11,株式会社Ｒｉｓｉｎｇ　Ｂｕｌｌ,,株式会社,京都府,京都市右京区,西京極浜ノ本町４６番地６,,26,108,6150873,,,,,,,2022-10-11,1,,,,,ライジングブル,0
1101,4140001127626,新規,0,2022-10-11,2022-10-11,株式会社ＳＧ２,,株式会社,兵庫県,姫路市,花田町小川９７５番地４,,28,201,6710255,,,,,,,2022-10-11,1,,,,,エスジーツー,0
1102,4140001127634,新規,0,2022-10-11,2022-10-11,株式会社Ｒｅｓｐｅｃｔ,,株式会社,兵庫県,尼崎市,北大物町９番１４－１号,,28,202,6600804,,,,,,,2022-10-11,1,,,,,リスペクト,0
1103,4140001127675,新規,0,2022-10-11,2022-10-11,タニグチ電機株式会社,,株式会社,兵庫県,たつの市,新宮町角亀３５０番地１,,28,229,6795163,,,,,,,2022-10-11,1,,,,,タニグチデンキ,0
1110,4140003018212,新規,0,2022-10-11,2022-10-11,合同会社マジカナ,,合同会社,兵庫県,西宮市,苦楽園一番町２－６２－３０３,,28,204,6620083,,,,,,,2022-10-11,1,,,,,マジカナ,0
1117,4160001024565,新規,0,2022-10-11,2022-10-11,株式会社マドニキ,,株式会社,滋賀県,草津市,南笠町１３５８番地３,,25,206,5250056,,,,,,,2022-10-11,1,,,,,マドニキ,0
1118,4160003002692,新規,0,2022-10-11,2022-10-11,合同会社システマズ,,合同会社,滋賀県,草津市,大路１丁目１番１－１００３号,,25,206,5250032,,,,,,,2022-10-11,1,,,,,システマズ,0
1119,4160005011130,新規,0,2022-10-11,2022-10-11,社会福祉法人あうん,,その他の設立登記法人,滋賀県,栗東市,手原３丁目１１番１２号,,25,208,5203047,,,,,,,2022-10-11,1,,,,,アウン,0
1120,4170001017304,新規,0,2022-10-11,2022-10-11,株式会社デリカフーズくりやま,,株式会社,和歌山県,西牟婁郡白浜町,日置１０１３番地２４,,30,401,6492511,,,,,,,2022-10-11,1,,,,,デリカフーズクリヤマ,0
1121,4170001017320,新規,0,2022-10-11,2022-10-11,株式会社勝梨,,株式会社,和歌山県,岩出市,西安上５１番地の１（２０３号）,,30,209,6496255,,,,,,,2022-10-11,1,,,,,ショウリ,0
1133,4180001153321,新規,0,2022-10-11,2022-10-11,サングラン株式会社,,株式会社,愛知県,北名古屋市,九之坪天下地１５８番地コーポアリオン１０６号室,,23,234,4810041,,,,,,,2022-10-11,1,,,,,サングラン,0
1134,4180001153362,新規,0,2022-10-11,2022-10-11,株式会社Ａｌｂａ　Ｒｏｓｓａ,,株式会社,愛知県,名古屋市千種区,法王町２丁目３番地の１,,23,101,4640057,,,,,,,2022-10-11,1,,,,,アルバロッサ,0
1138,4180003024347,新規,0,2022-10-11,2022-10-11,合同会社Ｗｏｒｋｓ,,合同会社,愛知県,名古屋市熱田区,新尾頭３丁目１番１８号ＷＩＺ金山６０２,,23,109,4560018,,,,,,,2022-10-11,1,,,,,ワークス,0
1143,4180301036705,新規,0,2022-10-11,2022-10-11,株式会社松本エヴリー,,株式会社,愛知県,安城市,新田町郷西３番地８,,23,212,4460061,,,,,,,2022-10-11,1,,,,,マツモトエヴリー,0
1152,4200001040533,新規,0,2022-10-11,2022-10-11,ＧＲＯＷ　ＥＳＴＡＴＥ株式会社,,株式会社,岐阜県,羽島郡笠松町,円城寺１８番地,,21,303,5016035,,,,,,,2022-10-11,1,,,,,グロウエステート,0
1154,4210001019114,新規,0,2022-10-11,2022-10-11,株式会社Ｄ‐ＣＲＡＦＴ,,株式会社,福井県,敦賀市,三島町１丁目４番２８－２号,,18,202,9140058,,,,,,,2022-10-11,1,,,,,ディークラフト,0
1158,4240001060478,新規,0,2022-10-11,2022-10-11,Ｔｏｍｌｅ株式会社,,株式会社,広島県,福山市,東川口町５丁目９番３号,,34,207,7200821,,,,,,,2022-10-11,1,,,,,トムール,0
1175,4290001099099,新規,0,2022-10-11,2022-10-11,株式会社Ａｌｐｈａ‐Ｌｉｎｘ,,株式会社,福岡県,福岡市博多区,博多駅東２丁目５番９号サンライフ第３ビル６階,,40,132,8120013,,,,,,,2022-10-11,1,,,,,アルファリンクス,0
1176,4290001099132,新規,0,2022-10-11,2022-10-11,株式会社こえこころｓｕｎ,,株式会社,福岡県,福岡市早良区,原２丁目１２番１－６０５号,,40,137,8140022,,,,,,,2022-10-11,1,,,,,コエココロサン,0
1177,4290001099149,新規,0,2022-10-11,2022-10-11,ギルド株式会社,,株式会社,福岡県,福岡市西区,大字飯氏９８１－１パサージュ２１、２０２,,40,135,8190371,,,,,,,2022-10-11,1,,,,,ギルド,0
1187,4290801028959,新規,0,2022-10-11,2022-10-11,株式会社ａｆｆｅｃｔｉｏｎ　ｐｌａｃｅ,,株式会社,福岡県,北九州市八幡西区,市瀬１丁目７番３３－１０８号,,40,109,8060063,,,,,,,2022-10-11,1,,,,,アフェクションプレイス,0
1189,4300003001886,新規,0,2022-10-11,2022-10-11,合同会社ＴＳＲ,,合同会社,佐賀県,佐賀市,水ヶ江４丁目５番２２号,,41,201,8400054,,,,,,,2022-10-11,1,,,,,ティーエスアール,0
1197,4360001031054,新規,0,2022-10-11,2022-10-11,株式会社プライムルーム,,株式会社,沖縄県,中頭郡北谷町,美浜３丁目１番９号Ｂ－１号室,,47,326,9040115,,,,,,,2022-10-11,1,,,,,プライムルーム,0
1199,4370001049120,新規,0,2022-10-11,2022-10-11,株式会社Ｃｏｅｕｒ,,株式会社,宮城県,仙台市宮城野区,高砂１丁目１６番１号,,04,102,9830014,,,,,,,2022-10-11,1,,,,,クール,0
1202,4380001033172,新規,0,2022-10-11,2022-10-11,株式会社アセット・マネジメント・ソリューションズ,,株式会社,福島県,いわき市,常磐水野谷町諏訪ケ崎２０番地の１コンフェッティ１０３,,07,204,9728311,,,,,,,2022-10-11,1,,,,,アセットマネジメントソリューションズ,0
1203,4380003005285,新規,0,2022-10-11,2022-10-11,合同会社グリーンフォレスト,,合同会社,福島県,東白川郡塙町,大字片貝字森ノ下３４番地,,07,483,9635522,,,,,,,2022-10-11,1,,,,,グリーンフォレスト,0
1204,4380003005293,新規,0,2022-10-11,2022-10-11,合同会社ウタ,,合同会社,福島県,福島市,笹谷字下成出１７番地の２９武田ハイツ１０２,,07,201,9600241,,,,,,,2022-10-11,1,,,,,,0
1210,4420001018029,新規,0,2022-10-11,2022-10-11,そうじ屋ピカイチ株式会社,,株式会社,青森県,青森市,浪岡大字大釈迦字沢田５８番地３,,02,201,0381301,,,,,,,2022-10-11,1,,,,,ソウジヤピカイチ,0
1212,4430001087626,新規,0,2022-10-11,2022-10-11,株式会社クリーンライフ北海道,,株式会社,北海道,札幌市中央区,北二十一条西１５丁目１番２０－５０３号,,01,101,0600021,,,,,,,2022-10-11,1,,,,,クリーンライフホッカイドウ,0
1214,4440001009166,新規,0,2022-10-11,2022-10-11,株式会社ＤＯＳＡＮＫＯ　Ａｇｒｉ　Ｃｏｎｓｕｌｔｉｎｇ,,株式会社,北海道,函館市,湯川町３丁目１３番２０号１０３,,01,202,0420932,,,,,,,2022-10-11,1,,,,,ドサンコアグリコンサルティング,0
1217,4462501000940,新規,0,2022-10-11,2022-10-11,株式会社ＳＫＹＷＡＲＤ,,株式会社,北海道,標津郡中標津町,西八条北６丁目２番地７,,01,692,0861128,,,,,,,2022-10-11,1,,,,,スカイワード,0
1219,4490005006865,新規,0,2022-10-11,2022-10-11,一般社団法人高知県任意売却支援協会,,その他の設立登記法人,高知県,高知市,宝町３０番１９号谷脇木材ビル３階,,39,201,7800914,,,,,,,2022-10-11,1,,,,,コウチケンニンイバイキャクシエンキョウカイ,0
1221,4700150106233,新規,0,2022-10-11,2021-12-13,釧路北部地域雇用創造協議会,,その他,北海道,川上郡弟子屈町,中央２丁目３番１号弟子屈町役場内,,01,665,0883211,,,,,,,2021-12-13,1,,,,,クシロホクブチイキコヨウソウゾウキヨウギカイ,0
1222,4700150112108,新規,0,2022-10-11,2022-10-11,中川区自治会,,その他,福岡県,古賀市,天神４丁目４－５,,40,223,8113101,,,,,,,2022-10-11,1,,,,,ナカガワクジチカイ,0
1234,5010001229921,新規,0,2022-10-11,2022-10-11,株式会社Ｃ　Ａｄｄｉｔｉｏｎ,,株式会社,東京都,千代田区,九段南１丁目５番６号りそな九段ビル５階ＫＳフロア,,13,101,1020074,,,,,,,2022-10-11,1,,,,,シーエディション,0
1235,5010001230020,新規,0,2022-10-11,2022-10-11,株式会社ｇｒｅｅｎｄａｍ,,株式会社,東京都,中央区,銀座１丁目１３番１２号銀友ビル８階,,13,102,1040061,,,,,,,2022-10-11,1,,,,,グリンダム,0
1236,5010001230078,新規,0,2022-10-11,2022-10-11,安泰株式会社,,株式会社,東京都,中央区,晴海３丁目１３番２－１５１０号,,13,102,1040053,,,,,,,2022-10-11,1,,,,,アンタイ,0
1237,5010003038817,新規,0,2022-10-11,2022-10-11,合同会社その日,,合同会社,東京都,文京区,本郷２丁目３９番７号エチソウビル１Ｆ,,13,105,1130033,,,,,,,2022-10-11,1,,,,,ソノヒ,0
1247,5010403028665,新規,0,2022-10-11,2022-10-11,ｒｅｎｇａ第０号合同会社,,合同会社,東京都,港区,赤坂４丁目１５番１号赤坂ガーデンシティ３階,,13,103,1070052,,,,,,,2022-10-11,1,,,,,レンガダイゼロゴウ,0
1250,5010603009770,新規,0,2022-10-11,2022-10-11,合同会社Ｃａｔｃｈ,,合同会社,東京都,江東区,大島２丁目２８－１,,13,108,1360072,,,,,,,2022-10-11,1,,,,,キャッチ,0
1252,5010701043309,新規,0,2022-10-11,2022-10-11,株式会社ＮｏＩＤ,,株式会社,東京都,品川区,東五反田２丁目１９番７号サンハイム五反田６０３,,13,109,1410022,,,,,,,2022-10-11,1,,,,,ノイド,0
1257,5010803004290,新規,0,2022-10-11,2022-10-11,パーフェクトパートナーズ合同会社,,合同会社,東京都,大田区,東雪谷３丁目１１－１５,,13,111,1450065,,,,,,,2022-10-11,1,,,,,パーフェクトパートナーズ,0
1260,5010901051747,新規,0,2022-10-11,2022-10-11,株式会社エリタージュ,,株式会社,東京都,世田谷区,砧１丁目１７番２０号レオナードビル,,13,112,1570073,,,,,,,2022-10-11,1,,,,,エリタージュ,0
1261,5010903007706,新規,0,2022-10-11,2022-10-11,合同会社ＳＡＫＵＲＡ,,合同会社,東京都,世田谷区,桜１丁目６５番６号ＪＭ経堂１階,,13,112,1560053,,,,,,,2022-10-11,1,,,,,サクラ,0
1262,5010905004379,新規,0,2022-10-11,2022-10-11,一般社団法人スリラリタンビガイテンプル東京,,その他の設立登記法人,東京都,世田谷区,上野毛４丁目２－２,,13,112,1580093,,,,,,,2022-10-11,1,,,,,スリラリタンビガイテンプルトウキョウ,0
1265,5011001150150,新規,0,2022-10-11,2022-10-11,株式会社ＨＡＲＵ,,株式会社,東京都,渋谷区,南平台町１９番１７号南平台スクエアＣ,,13,113,1500036,,,,,,,2022-10-11,1,,,,,ハル,0
1268,5011005009780,新規,0,2022-10-11,2022-10-11,ロープラス社会保険労務士法人,,その他の設立登記法人,東京都,渋谷区,代々木１丁目２５番５号（ＢＩＺＳＭＡＲＴ代々木４１６号室）,,13,113,1510053,,,,,,,2022-10-11,1,,,,,ロープラス,0
1273,5011101100328,新規,0,2022-10-11,2022-10-11,株式会社ＭｙＳＰＹＡＩＲ,,株式会社,東京都,新宿区,北新宿２丁目１７番１０号,,13,104,1690074,,,,,,,2022-10-11,1,,,,,マイスパイエアー,0
1274,5011105010440,新規,0,2022-10-11,2022-10-11,ＮＰＯ法人空き家生まれ変わり協会,,その他の設立登記法人,東京都,新宿区,西新宿３丁目３番１３号西新宿水間ビル６階,,13,104,1600023,,,,,,,2022-10-11,1,,,,,アキヤウマレカワリキョウカイ,0
1276,5011201024138,新規,0,2022-10-11,2022-10-11,株式会社アーバンドッグスタジオ,,株式会社,東京都,中野区,弥生町１丁目３－２カープ６－７０３,,13,114,1640013,,,,,,,2022-10-11,1,,,,,アーバンドッグスタジオ,0
1277,5011201024146,新規,0,2022-10-11,2022-10-11,株式会社ｎｉｐｐｏｎｉａ,,株式会社,東京都,中野区,鷺宮３丁目２番１号,,13,114,1650032,,,,,,,2022-10-11,1,,,,,ニッポニア,0
1278,5011201024154,新規,0,2022-10-11,2022-10-11,株式会社アイドット,,株式会社,東京都,中野区,本町４丁目３９番７－７０３号,,13,114,1640012,,,,,,,2022-10-11,1,,,,,アイドット,0
1279,5011405002220,新規,0,2022-10-11,2022-10-11,特定非営利活動法人ＩＮＤＩＡＮ　ＡＳＳＯＣＩＡＴＩＯＮ　ＯＦ　ＪＡＰＡＮ,,その他の設立登記法人,東京都,板橋区,新河岸２丁目１０番７－２０４号,,13,119,1750081,,,,,,,2022-10-11,1,,,,,インディアンアソシエーションオフジャパン,0
1288,5011801041375,新規,0,2022-10-11,2022-10-11,株式会社ナカジマ薬局,,株式会社,東京都,葛飾区,東金町１丁目３５番１１号,,13,122,1250041,,,,,,,2022-10-11,1,,,,,ナカジマヤッキョク,0
1297,5020001148468,新規,0,2022-10-11,2022-10-11,株式会社ＣＲＥＬＩ,,株式会社,神奈川県,横浜市青葉区,荏田西２丁目２番地６,,14,117,2250014,,,,,,,2022-10-11,1,,,,,クレリ,0
1298,5020001148518,新規,0,2022-10-11,2022-10-11,株式会社４１０,,株式会社,神奈川県,横浜市神奈川区,松見町３丁目４９２番１号４０５号,,14,102,2210005,,,,,,,2022-10-11,1,,,,,ヨンイチゼロ,0
1299,5020001148526,新規,0,2022-10-11,2022-10-11,エコふえる株式会社,,株式会社,神奈川県,川崎市川崎区,殿町１丁目１９番４号,,14,131,2100821,,,,,,,2022-10-11,1,,,,,エコフエル,0
1311,5021003012232,新規,0,2022-10-11,2022-10-11,合同会社アセット・テン,,合同会社,神奈川県,藤沢市,石川２７６７番地の３４,,14,205,2520815,,,,,,,2022-10-11,1,,,,,アセットテン,0
1312,5030001150340,新規,0,2022-10-11,2022-10-11,株式会社ＰＦＩ,,株式会社,埼玉県,川越市,かすみ野１丁目６番地４,,11,201,3501174,,,,,,,2022-10-11,1,,,,,ピーエフアイ,0
1313,5030001150464,新規,0,2022-10-11,2022-10-11,Ｔｈｒｅｅ　Ｍ株式会社,,株式会社,埼玉県,羽生市,西１丁目８番１２号,,11,216,3480054,,,,,,,2022-10-11,1,,,,,スリーエム,0
1314,5030001150480,新規,0,2022-10-11,2022-10-11,株式会社ブランシェ,,株式会社,埼玉県,川口市,北原台１丁目６番１号,,11,203,3330815,,,,,,,2022-10-11,1,,,,,ブランシェ,0
1320,5030003020327,新規,0,2022-10-11,2022-10-11,アーステック合同会社,,合同会社,埼玉県,さいたま市大宮区,堀の内町１丁目６２番地すずかけヴィラ２０４号室,,11,103,3300804,,,,,,,2022-10-11,1,,,,,アーステック,0
1321,5030003020376,新規,0,2022-10-11,2022-10-11,合同会社アジーナ,,合同会社,埼玉県,さいたま市中央区,上落合１丁目８－１８－８０５,,11,105,3380001,,,,,,,2022-10-11,1,,,,,アジーナ,0
1331,5040001125358,新規,0,2022-10-11,2022-10-11,株式会社リサイクルシェッド,,株式会社,千葉県,柏市,青葉台１丁目２８番２１号,,12,217,2770055,,,,,,,2022-10-11,1,,,,,リサイクルシェッド,0
1332,5040001125366,新規,0,2022-10-11,2022-10-11,ジェイ・リプロ株式会社,,株式会社,千葉県,市川市,二俣２丁目１１番３－４０４号　（ゼファー西船橋）,,12,203,2720001,,,,,,,2022-10-11,1,,,,,ジェイリプロ,0
1333,5040001125374,新規,0,2022-10-11,2022-10-11,先端磁気計測システム研究所株式会社,,株式会社,千葉県,柏市,新柏２丁目１１番地２６,,12,217,2770084,,,,,,,2022-10-11,1,,,,,センタンジキケイソクシステムケンキュウジョ,0
1344,5040005021784,新規,0,2022-10-11,2022-10-11,医療法人社団新樹会,,その他の設立登記法人,千葉県,船橋市,新高根６丁目３８番８号第８福住ビル２階２号室,,12,204,2740814,,,,,,,2022-10-11,1,,,,,シンジュカイ,0
1345,5050001051776,新規,0,2022-10-11,2022-10-11,株式会社ノブナガ建設,,株式会社,茨城県,神栖市,矢田部１０９３８番地３,,08,232,3140341,,,,,,,2022-10-11,1,,,,,ノブナガケンセツ,0
1346,5050001051784,新規,0,2022-10-11,2022-10-11,株式会社ヨシダオート,,株式会社,茨城県,つくば市,蓮沼２４８番地２２,,08,220,3003262,,,,,,,2022-10-11,1,,,,,ヨシダオート,0
1347,5050001051792,新規,0,2022-10-11,2022-10-11,株式会社Ｊ．Ｂ．Ｔ　ＩＮＴＥＲＮＡＴＩＯＮＡＬ　ＴＲＡＤＩＮＧ,,株式会社,茨城県,坂東市,長須１８４２番地１,,08,228,3060645,,,,,,,2022-10-11,1,,,,,ジェービーティーインターナショナルトレーディング,0
1351,5050003006902,新規,0,2022-10-11,2022-10-11,総合開発合同会社,,合同会社,茨城県,石岡市,上曽１３７２番地５,,08,205,3150157,,,,,,,2022-10-11,1,,,,,ソウゴウカイハツ,0
1352,5060001035324,新規,0,2022-10-11,2022-10-11,株式会社栄コーポレーション,,株式会社,栃木県,宇都宮市,川田町１０５１番地,,09,201,3210111,,,,,,,2022-10-11,1,,,,,サカエコーポレーション,0
1354,5070001039729,新規,0,2022-10-11,2022-10-11,株式会社Ａｃｃｌａｉｍ,,株式会社,群馬県,高崎市,井野町１１４１番地１フェリチータ１階Ｃ号室,,10,202,3700004,,,,,,,2022-10-11,1,,,,,アクレイム,0
1365,5100001035765,新規,0,2022-10-11,2022-10-11,宮原果樹園株式会社,,株式会社,長野県,上田市,住吉１５９３番地,,20,203,3860002,,,,,,,2022-10-11,1,,,,,ミヤバラカジュエン,0
1366,5100001035773,新規,0,2022-10-11,2022-10-11,株式会社くすぐる空間,,株式会社,長野県,長野市,大字柳原２２２４番地９,,20,201,3810012,,,,,,,2022-10-11,1,,,,,クスグルクウカン,0
1370,5100003006715,新規,0,2022-10-11,2022-10-11,合同会社プリズム,,合同会社,長野県,千曲市,大字八幡５８４５番地３７,,20,218,3870023,,,,,,,2022-10-11,1,,,,,プリズム,0
1372,5110001037026,新規,0,2022-10-11,2022-10-11,株式会社サンレモ企画,,株式会社,新潟県,上越市,春日山町３丁目１８番５０号,,15,222,9430807,,,,,,,2022-10-11,1,,,,,サンレモキカク,0
1382,5120001249272,新規,0,2022-10-11,2022-10-11,白黒株式会社,,株式会社,大阪府,大阪市中央区,松屋町９番２０号ローレルステート松屋町１２０８Ｂ,,27,128,5420067,,,,,,,2022-10-11,1,,,,,ハクコク,0
1383,5120001249280,新規,0,2022-10-11,2022-10-11,三羊株式会社,,株式会社,大阪府,大阪市住之江区,西加賀屋４丁目７－２３ベルコモンズ西加賀屋４０２号室,,27,125,5590016,,,,,,,2022-10-11,1,,,,,サンヨウ,0
1384,5120001249297,新規,0,2022-10-11,2022-10-11,ｎｅｆｅｌｉｂａｔａ株式会社,,株式会社,大阪府,大阪市中央区,高津３丁目８－１９スターレジデンス黒門９０５号室,,27,128,5420072,,,,,,,2022-10-11,1,,,,,ネフィリバタ,0
1385,5120001249421,新規,0,2022-10-11,2022-10-11,株式会社Ｆｕｌｌ　ＴＥＮ,,株式会社,大阪府,枚方市,招提大谷３丁目１３番９号,,27,210,5731153,,,,,,,2022-10-11,1,,,,,フルテン,0
1386,5120001249438,新規,0,2022-10-11,2022-10-11,株式会社ＬＯＯＰ,,株式会社,大阪府,大阪市阿倍野区,阪南町６丁目５番２号,,27,119,5450021,,,,,,,2022-10-11,1,,,,,ループ,0
1394,5120005023236,新規,0,2022-10-11,2022-10-11,行政書士法人ＹＵＧＥ　ＯＦＦＩＣＥ,,その他の設立登記法人,大阪府,大阪市中央区,島町１丁目２番３号,,27,128,5400034,,,,,,,2022-10-11,1,,,,,ユゲオフィス,0
1397,5120101066304,新規,0,2022-10-11,2022-10-11,ハウステクノＰＣ株式会社,,株式会社,大阪府,貝塚市,木積１３番地,,27,208,5970102,,,,,,,2022-10-11,1,,,,,ハウステクノピーシー,0
1398,5120101066353,新規,0,2022-10-11,2022-10-11,株式会社旭テクニカ,,株式会社,大阪府,和泉市,富秋町１丁目４番５０－３号,,27,219,5940082,,,,,,,2022-10-11,1,,,,,アサヒテクニカ,0
1403,5120901046587,新規,0,2022-10-11,2022-10-11,株式会社ＴａｂｉＫａｓｅ　Ｊａｐａｎ,,株式会社,大阪府,茨木市,沢良宜西１丁目４番１０号ノベルティー南茨木５０２,,27,211,5670868,,,,,,,2022-10-11,1,,,,,タビカセジャパン,0
1408,5130001072789,新規,0,2022-10-11,2022-10-11,株式会社エイチプラス,,株式会社,京都府,八幡市,欽明台中央２０番地６,,26,210,6148295,,,,,,,2022-10-11,1,,,,,エイチプラス,0
1423,5140001127666,新規,0,2022-10-11,2022-10-11,株式会社森保温板金,,株式会社,兵庫県,揖保郡太子町,矢田部９７番地１,,28,464,6711522,,,,,,,2022-10-11,1,,,,,モリホオンバンキン,0
1424,5140001127699,新規,0,2022-10-11,2022-10-11,ツナグ不動産株式会社,,株式会社,兵庫県,神戸市北区,北五葉１丁目５番１号ハピネスプラザ３階,,28,109,6511131,,,,,,,2022-10-11,1,,,,,ツナグフドウサン,0
1432,5140003018211,新規,0,2022-10-11,2022-10-11,合同会社ナビゲーター,,合同会社,兵庫県,伊丹市,柏木町１丁目１２０番地２,,28,207,6640863,,,,,,,2022-10-11,1,,,,,ナビゲーター,0
1433,5140003018228,新規,0,2022-10-11,2022-10-11,有本設備工業合同会社,,合同会社,兵庫県,姫路市,花田町加納原田９００番地１０,,28,201,6710252,,,,,,,2022-10-11,1,,,,,アリモトセツビコウギョウ,0
1434,5150001025869,新規,0,2022-10-11,2022-10-11,株式会社Ｏｕｔｅｒｒｏｏｍ,,株式会社,奈良県,生駒市,萩原町８１４番地,,29,209,6300234,,,,,,,2022-10-11,1,,,,,アウタールーム,0
1460,5180001153329,新規,0,2022-10-11,2022-10-11,ＳＹホールディングス株式会社,,株式会社,愛知県,名古屋市港区,空見町３５番地,,23,111,4550847,,,,,,,2022-10-11,1,,,,,エスワイホールディングス,0
1461,5180001153337,新規,0,2022-10-11,2022-10-11,株式会社永和,,株式会社,愛知県,愛西市,大井町弥八６番地,,23,232,4960921,,,,,,,2022-10-11,1,,,,,エイワ,0
1462,5180001153378,新規,0,2022-10-11,2022-10-11,株式会社礼建工業,,株式会社,愛知県,一宮市,富塚字郷西１６７５番地４,,23,203,4910123,,,,,,,2022-10-11,1,,,,,ライケンコウギョウ,0
1466,5180003024354,新規,0,2022-10-11,2022-10-11,合同会社アンサング,,合同会社,愛知県,名古屋市守山区,市場１５番９号（コンセール守山４０４号）,,23,113,4630075,,,,,,,2022-10-11,1,,,,,アンサング,0
1471,5200003005698,新規,0,2022-10-11,2022-10-11,Ｐｏｎｔｏ　ｈｏｍｅ合同会社,,合同会社,岐阜県,可児郡御嵩町,御嵩６８２番地３０,,21,521,5050116,,,,,,,2022-10-11,1,,,,,ポントホーム,0
1472,5210001019113,新規,0,2022-10-11,2022-10-11,佐々木工業株式会社,,株式会社,福井県,福井市,西学園２丁目４０８番地,,18,201,9188064,,,,,,,2022-10-11,1,,,,,ササキコウギョウ,0
1473,5210001019121,新規,0,2022-10-11,2022-10-11,株式会社ＵＯＲＯＣＫ,,株式会社,福井県,福井市,中央１丁目２１番５号コムハウス１階,,18,201,9100006,,,,,,,2022-10-11,1,,,,,ウオロック,0
1480,5230003001918,新規,0,2022-10-11,2022-10-11,レトロフィット合同会社,,合同会社,富山県,富山市,泉町２丁目８－１６荒木ビル２Ｆ,,16,201,9300042,,,,,,,2022-10-11,1,,,,,レトロフィット,0
1484,5240001060485,新規,0,2022-10-11,2022-10-11,ＦＡＴ株式会社,,株式会社,広島県,広島市西区,三篠町２丁目１１番４号山本ビル１階,,34,104,7330003,,,,,,,2022-10-11,1,,,,,ファット,0
1490,5260001037317,新規,0,2022-10-11,2022-10-11,小松商事株式会社,,株式会社,岡山県,岡山市北区,奉還町３丁目９番３号,,33,101,7000026,,,,,,,2022-10-11,1,,,,,コマツショウジ,0
1494,5290001099073,新規,0,2022-10-11,2022-10-11,株式会社池田商店,,株式会社,福岡県,糟屋郡宇美町,原田３丁目３２番１２号,,40,341,8112132,,,,,,,2022-10-11,1,,,,,イケダショウテン,0
1495,5290001099131,新規,0,2022-10-11,2022-10-11,株式会社ユマーラ,,株式会社,福岡県,福岡市南区,井尻４丁目１２番２号,,40,134,8111302,,,,,,,2022-10-11,1,,,,,ユマーラ,0
1496,5290001099156,新規,0,2022-10-11,2022-10-11,ＭＧプラス株式会社,,株式会社,福岡県,太宰府市,都府楼南４丁目１１番１号,,40,221,8180105,,,,,,,2022-10-11,1,,,,,エムジープラス,0
1497,5290001099164,新規,0,2022-10-11,2022-10-11,株式会社ＨＣＧ,,株式会社,福岡県,飯塚市,川津１９３番地１２,,40,205,8200067,,,,,,,2022-10-11,1,,,,,エイチシージー,0
1498,5290001099189,新規,0,2022-10-11,2022-10-11,株式会社ＢＬＯ,,株式会社,福岡県,小郡市,三沢４２２５番地１６２,,40,216,8380106,,,,,,,2022-10-11,1,,,,,ビーエルオー,0
1502,5290005018830,新規,0,2022-10-11,2022-10-11,弁護士法人如水法律事務所,,その他の設立登記法人,福岡県,福岡市中央区,赤坂１丁目１２番１５号,,40,133,8100042,,,,,,,2022-10-11,1,,,,,ジョスイホウリツジムショ,0
1511,5320003003921,新規,0,2022-10-11,2022-10-11,ＬＣ　ＭＡＧ合同会社,,合同会社,大分県,大分市,金池町２丁目９番７号堤ビル５０１,,44,201,8700026,,,,,,,2022-10-11,1,,,,,エルシーマグ,0
1515,5360001031045,新規,0,2022-10-11,2022-10-11,株式会社Ａ‐ＳＩＧＮ,,株式会社,沖縄県,那覇市,具志３丁目２３番８号ダイヤハウス４０１,,47,201,9010146,,,,,,,2022-10-11,1,,,,,エーサイン,0
1516,5360005006729,新規,0,2022-10-11,2022-10-11,医療法人広和会,,その他の設立登記法人,沖縄県,島尻郡南風原町,字兼城２５８番地,,47,350,9011111,,,,,,,2022-10-11,1,,,,,コウワカイ,0
1519,5380001033163,新規,0,2022-10-11,2022-10-11,株式会社ビルマル,,株式会社,福島県,郡山市,新屋敷１丁目１０番地,,07,203,9638045,,,,,,,2022-10-11,1,,,,,ビルマル,0
1536,5430001087625,新規,0,2022-10-11,2022-10-11,株式会社ＴＯＮＡＲＩ,,株式会社,北海道,札幌市中央区,南一条西１６丁目１番地３２３春野ビル３Ｆ,,01,101,0600061,,,,,,,2022-10-11,1,,,,,トナリ,0
1537,5430001087633,新規,0,2022-10-11,2022-10-11,プラスインパクト株式会社,,株式会社,北海道,札幌市東区,北三十三条東１４丁目４番８号,,01,103,0650033,,,,,,,2022-10-11,1,,,,,プラスインパクト,0
1545,5480001011877,新規,0,2022-10-11,2022-10-11,株式会社よんくる,,株式会社,徳島県,板野郡北島町,鯛浜字中須４番地２,,36,402,7710204,,,,,,,2022-10-11,1,,,,,ヨンクル,0
1556,6010001229961,新規,0,2022-10-11,2022-10-11,株式会社Ｗｈａｍ,,株式会社,東京都,千代田区,神田神保町１丁目１０番地１,,13,101,1010051,,,,,,,2022-10-11,1,,,,,ワム,0
1557,6010001229978,新規,0,2022-10-11,2022-10-11,株式会社ＡＤＤ,,株式会社,東京都,千代田区,神田佐久間町１丁目１６番１号大橋ビル５０３,,13,101,1010025,,,,,,,2022-10-11,1,,,,,アド,0
1558,6010001230003,新規,0,2022-10-11,2022-10-11,株式会社ユーモ,,株式会社,東京都,中央区,月島２丁目１３番１２号,,13,102,1040052,,,,,,,2022-10-11,1,,,,,ユーモ,0
1565,6010003038840,新規,0,2022-10-11,2022-10-11,ＧＬＳ合同会社,,合同会社,東京都,中央区,銀座１丁目１２番４号Ｎ＆ＥＢＬＤ．６Ｆ,,13,102,1040061,,,,,,,2022-10-11,1,,,,,ジーエルエス,0
1566,6010005035654,新規,0,2022-10-11,2022-10-11,京橋総合税理士法人,,その他の設立登記法人,東京都,中央区,京橋２丁目８番４号,,13,102,1040031,,,,,,,2022-10-11,1,,,,,キョウバシソウゴウ,0
1575,6010401170063,新規,0,2022-10-11,2022-10-11,株式会社ＢＷＢ　Ｋｏｒｅａ,,株式会社,東京都,港区,虎ノ門２丁目１０番１号,,13,103,1050001,,,,,,,2022-10-11,1,,,,,ビーダブリュビーコリア,0
1576,6010401170121,新規,0,2022-10-11,2022-10-11,株式会社アルモニ,,株式会社,東京都,港区,南麻布５丁目１４番４－３０６号,,13,103,1060047,,,,,,,2022-10-11,1,,,,,アルモニ,0
1577,6010401170195,新規,0,2022-10-11,2022-10-11,株式会社ＬＩＧＮＥＡ,,株式会社,東京都,港区,虎ノ門５丁目１１番１号,,13,103,1050001,,,,,,,2022-10-11,1,,,,,リーネア,0
1591,6010801033340,新規,0,2022-10-11,2022-10-11,株式会社Ｓｒｏｗ,,株式会社,東京都,大田区,池上２丁目８－１パークハウス池上１０５,,13,111,1460082,,,,,,,2022-10-11,1,,,,,スロウ,0
1595,6010903007705,新規,0,2022-10-11,2022-10-11,合同会社Ａ＆Ｓ,,合同会社,東京都,世田谷区,千歳台２丁目１３番地８－３０１号,,13,112,1570071,,,,,,,2022-10-11,1,,,,,エーアンドエス,0
1601,6011001150224,新規,0,2022-10-11,2022-10-11,株式会社ＢｌｏｏｍＣｒｅａｔｅ,,株式会社,東京都,渋谷区,恵比寿西２丁目１５番２号地下１階,,13,113,1500021,,,,,,,2022-10-11,1,,,,,ブルームクリエイト,0
1602,6011003015482,新規,0,2022-10-11,2022-10-11,ＤＷ合同会社,,合同会社,東京都,渋谷区,神宮前６丁目２３番４号桑野ビル２Ｆ,,13,113,1500001,,,,,,,2022-10-11,1,,,,,ディーダブリュー,0
1604,6011005009763,新規,0,2022-10-11,2022-10-11,一般社団法人オブリガード,,その他の設立登記法人,東京都,渋谷区,渋谷２丁目１９－１５宮益坂ビルディングザ・渋谷レジデンス１００１,,13,113,1500002,,,,,,,2022-10-11,1,,,,,オブリガード,0
1609,6011101100467,新規,0,2022-10-11,2022-10-11,株式会社ＭＡＹＡ　ＳＡＬＥＳ　ＭＡＲＫＥＴＩＮＧ,,株式会社,東京都,新宿区,西新宿２丁目６番１号,,13,104,1600023,,,,,,,2022-10-11,1,,,,,マヤセールスマーケティング,0
1610,6011103012248,新規,0,2022-10-11,2022-10-11,合同会社Ｓｔｒａｔｅｇｉｃ　Ｏｒｃｈｅｓｔｒａ,,合同会社,東京都,新宿区,西新宿３丁目３番１３号西新宿水間ビル２Ｆ,,13,104,1600023,,,,,,,2022-10-11,1,,,,,ストラテジックオーケストラ,0
1611,6011403003789,新規,0,2022-10-11,2022-10-11,合同会社三葉川西,,合同会社,東京都,板橋区,四葉２丁目１１番６号,,13,119,1750084,,,,,,,2022-10-11,1,,,,,ミツバカワニシ,0
1615,6011701025650,新規,0,2022-10-11,2022-10-11,京葉電気株式会社,,株式会社,東京都,江戸川区,西小岩３丁目３１－１０,,13,123,1330057,,,,,,,2022-10-11,1,,,,,ケイヨウデンキ,0
1616,6011705001755,新規,0,2022-10-11,2022-10-11,社会保険労務士法人Ｄｒｅａｍ２４,,その他の設立登記法人,東京都,江戸川区,西葛西５丁目６番２号,,13,123,1340088,,,,,,,2022-10-11,1,,,,,ドリームニジュウヨン,0
1623,6012703002555,新規,0,2022-10-11,2022-10-11,ＲＣ．Ｆｏｒｅｓｔ合同会社,,合同会社,東京都,小平市,花小金井３丁目３２番１０－１号,,13,211,1870002,,,,,,,2022-10-11,1,,,,,アールシーフォレスト,0
1625,6013201002163,新規,0,2022-10-11,2022-10-11,株式会社サンエイ,,株式会社,東京都,目黒区,上目黒２丁目４１番１６号,,13,110,1530051,,,,,,,2022-10-11,1,,,,,サンエイ,0
1632,6020001148467,新規,0,2022-10-11,2022-10-11,株式会社Ｘエックス,,株式会社,神奈川県,横浜市栄区,笠間２丁目１５番３９－２０２号,,14,115,2470006,,,,,,,2022-10-11,1,,,,,クロスエックス,0
1633,6020001148491,新規,0,2022-10-11,2022-10-11,株式会社鈴將,,株式会社,神奈川県,横浜市南区,日枝町５丁目１２７番地,,14,105,2320011,,,,,,,2022-10-11,1,,,,,スズマサ,0
1635,6020003022521,新規,0,2022-10-11,2022-10-11,合同会社オフィスＮ,,合同会社,神奈川県,川崎市麻生区,千代ケ丘３丁目３番１０号,,14,137,2150005,,,,,,,2022-10-11,1,,,,,,0
1643,6021003012231,新規,0,2022-10-11,2022-10-11,合同会社ケアプラン結,,合同会社,神奈川県,横須賀市,武２丁目２番１１号,,14,201,2380313,,,,,,,2022-10-11,1,,,,,ケアプランユイ,0
1647,6030001150414,新規,0,2022-10-11,2022-10-11,株式会社アキライシグロスタジオ,,株式会社,埼玉県,川口市,芝４丁目１７番１６号帝国絲業株式会社川口工場アプリュス芝スタジオ,,11,203,3330866,,,,,,,2022-10-11,1,,,,,アキライシグロスタジオ,0
1648,6030001150422,新規,0,2022-10-11,2022-10-11,株式会社ファームプラス,,株式会社,埼玉県,富士見市,大字鶴馬３４５９番地７,,11,235,3540021,,,,,,,2022-10-11,1,,,,,ファームプラス,0
1649,6030001150471,新規,0,2022-10-11,2022-10-11,株式会社ＺＹＸ,,株式会社,埼玉県,川口市,大字東内野３３９番地の１５,,11,203,3330821,,,,,,,2022-10-11,1,,,,,ジークス,0
1651,6030003020326,新規,0,2022-10-11,2022-10-11,合同会社ジャンプ,,合同会社,埼玉県,川口市,西川口１丁目１０番１９号,,11,203,3320021,,,,,,,2022-10-11,1,,,,,ジャンプ,0
1652,6030003020359,新規,0,2022-10-11,2022-10-11,合同会社熊谷板金,,合同会社,埼玉県,川口市,江戸袋１丁目５番２２号,,11,203,3340075,,,,,,,2022-10-11,1,,,,,クマガイバンキン,0
1653,6030003020367,新規,0,2022-10-11,2022-10-11,マウ合同会社,,合同会社,埼玉県,蕨市,塚越７丁目３３番２号あけぼのハイツ２０１号室,,11,223,3350002,,,,,,,2022-10-11,1,,,,,マウ,0
1655,6040001125233,新規,0,2022-10-11,2022-10-11,株式会社ＭｉＣａｓａ,,株式会社,千葉県,八街市,八街に１９３番地９４,,12,230,2891103,,,,,,,2022-10-11,1,,,,,ミカーサ,0
1656,6040001125357,新規,0,2022-10-11,2022-10-11,ＭＲ株式会社,,株式会社,千葉県,袖ケ浦市,坂戸市場１３２４番地１,,12,229,2990262,,,,,,,2022-10-11,1,,,,,エムアール,0
1657,6040001125365,新規,0,2022-10-11,2022-10-11,株式会社Ｌｅｉ　Ｂｅｅ,,株式会社,千葉県,流山市,南流山５丁目５番地の１Ｋハウス南流山１０４,,12,220,2700163,,,,,,,2022-10-11,1,,,,,レイビー,0
1658,6040001125398,新規,0,2022-10-11,2022-10-11,株式会社エーアイカウンセリング,,株式会社,千葉県,千葉市中央区,中央１丁目１番１２号メゾン・ド・ヴェール６０２号,,12,101,2600013,,,,,,,2022-10-11,1,,,,,エーアイカウンセリング,0
1661,6040005021783,新規,0,2022-10-11,2022-10-11,医療法人社団仲雄会,,その他の設立登記法人,千葉県,香取市,小見川８０８番地１新小見川第一ビル１階,,12,236,2890313,,,,,,,2022-10-11,1,,,,,チュウユウカイ,0
1663,6050001051775,新規,0,2022-10-11,2022-10-11,株式会社小島製作所,,株式会社,茨城県,桜川市,真壁町原方２０１－３,,08,231,3004421,,,,,,,2022-10-11,1,,,,,コジマセイサクジョ,0
1664,6050001051791,新規,0,2022-10-11,2022-10-11,株式会社ワイズプロジェクト,,株式会社,茨城県,土浦市,並木５丁目７３５番地７５,,08,203,3000061,,,,,,,2022-10-11,1,,,,,ワイズプロジェクト,0
1665,6050001051800,新規,0,2022-10-11,2022-10-11,株式会社友基建工,,株式会社,茨城県,常総市,新石下４５６１,,08,211,3002706,,,,,,,2022-10-11,1,,,,,ユウキケンコウ,0
1675,6080001025231,新規,0,2022-10-11,2022-10-11,株式会社ＫＡＩＴＯ　ＳＴＹＬＥ,,株式会社,静岡県,静岡市葵区,千代１丁目１７番１４号,,22,101,4211212,,,,,,,2022-10-11,1,,,,,カイトスタイル,0
1676,6080401026093,新規,0,2022-10-11,2022-10-11,株式会社ＮＡＣＯＬＥＨ,,株式会社,静岡県,浜松市西区,大平台３丁目７番７号,,22,133,4328068,,,,,,,2022-10-11,1,,,,,ナコル,0
1694,6120001249296,新規,0,2022-10-11,2022-10-11,ｂｒｉｄｇｅ株式会社,,株式会社,大阪府,大阪市天王寺区,大道３丁目１－２４グランピア寺田町２０１号室,,27,109,5430052,,,,,,,2022-10-11,1,,,,,ブリッジ,0
1695,6120001249404,新規,0,2022-10-11,2022-10-11,株式会社Ｌｉｍ,,株式会社,大阪府,交野市,星田北７丁目３０番５号,,27,230,5760017,,,,,,,2022-10-11,1,,,,,リム,0
1696,6120001249412,新規,0,2022-10-11,2022-10-11,株式会社ユーハルメンテナンス,,株式会社,大阪府,大阪市淀川区,西中島３丁目２３番９号,,27,123,5320011,,,,,,,2022-10-11,1,,,,,ユーハルメンテナンス,0
1697,6120001249420,新規,0,2022-10-11,2022-10-11,株式会社Ｃｉｅｌｏ　Ｅｘｐｒｅｓｓ,,株式会社,大阪府,大阪市福島区,吉野２丁目１５番１７号阪神野田駅第二ビル６０２号,,27,103,5530006,,,,,,,2022-10-11,1,,,,,シエロエクスプレス,0
1699,6120005023227,新規,0,2022-10-11,2022-10-11,トレイス土地家屋調査士法人大阪,,その他の設立登記法人,大阪府,大阪市淀川区,西中島３丁目２２番２０号,,27,123,5320011,,,,,,,2022-10-11,1,,,,,トレイスオオサカ,0
1706,6120101066352,新規,0,2022-10-11,2022-10-11,株式会社ササダアライアンス,,株式会社,大阪府,堺市西区,浜寺石津町中１丁７番３８－５０１号,,27,144,5928334,,,,,,,2022-10-11,1,,,,,ササダアライアンス,0
1711,6122001036294,新規,0,2022-10-11,2022-10-11,株式会社関栄ゴム,,株式会社,大阪府,東大阪市,渋川町４丁目２番４６号,,27,227,5770836,,,,,,,2022-10-11,1,,,,,カンエイゴム,0
1715,6130001072755,新規,0,2022-10-11,2022-10-11,株式会社京都大西紙工,,株式会社,京都府,京都市南区,吉祥院流作町９番地４,,26,107,6018390,,,,,,,2022-10-11,1,,,,,キョウトオオニシシコウ,0
1716,6130001072771,新規,0,2022-10-11,2022-10-11,サクラセキュリティ株式会社,,株式会社,京都府,京都市西京区,桂千代原町２５番地３０,,26,111,6158085,,,,,,,2022-10-11,1,,,,,サクラセキュリティ,0
1717,6130001072805,新規,0,2022-10-11,2022-10-11,株式会社クローバー太秦,,株式会社,京都府,京都市右京区,太秦樋ノ内町１１番地３,,26,108,6168142,,,,,,,2022-10-11,1,,,,,クローバーウズマサ,0
1730,6140001127582,新規,0,2022-10-11,2022-10-11,株式会社エヌエフコーポレーション西日本,,株式会社,兵庫県,加古川市,野口町長砂６５７番地１,,28,210,6750016,,,,,,,2022-10-11,1,,,,,エヌエフコーポレーションニシニホン,0
1731,6140001127624,新規,0,2022-10-11,2022-10-11,ビーバーホーム株式会社,,株式会社,兵庫県,尼崎市,武庫之荘５丁目３６番３４号,,28,202,6610035,,,,,,,2022-10-11,1,,,,,ビーバーホーム,0
1732,6140001127632,新規,0,2022-10-11,2022-10-11,株式会社山三クリエイト,,株式会社,兵庫県,神戸市東灘区,岡本７丁目９番１９号,,28,101,6580072,,,,,,,2022-10-11,1,,,,,サンサンクリエイト,0
1733,6140001127657,新規,0,2022-10-11,2022-10-11,あかし不動産販売株式会社,,株式会社,兵庫県,明石市,松の内２丁目１番１号,,28,203,6730016,,,,,,,2022-10-11,1,,,,,アカシフドウサンハンバイ,0
1740,6140003018202,新規,0,2022-10-11,2022-10-11,合同会社ＰＳＲ,,合同会社,兵庫県,西宮市,大社町１番１－１０２号,,28,204,6620867,,,,,,,2022-10-11,1,,,,,ピーエスアール,0
1741,6140003018219,新規,0,2022-10-11,2022-10-11,ディレット合同会社,,合同会社,兵庫県,神戸市灘区,青谷町４丁目６番１１号,,28,102,6570805,,,,,,,2022-10-11,1,,,,,ディレット,0
1745,6150001025868,新規,0,2022-10-11,2022-10-11,株式会社Ｍ’ｓ,,株式会社,奈良県,奈良市,法蓮町１０９９番地豊光第１ビル２Ｆ,,29,201,6308113,,,,,,,2022-10-11,1,,,,,エムズ,0
1747,6160001024555,新規,0,2022-10-11,2022-10-11,株式会社サクセス,,株式会社,滋賀県,犬上郡豊郷町,大字高野瀬１５７番地５,,25,441,5291173,,,,,,,2022-10-11,1,,,,,サクセス,0
1759,6180001153328,新規,0,2022-10-11,2022-10-11,エムズ株式会社,,株式会社,愛知県,名古屋市北区,喜惣治１丁目５４番,,23,103,4620065,,,,,,,2022-10-11,1,,,,,エムズ,0
1760,6180001153336,新規,0,2022-10-11,2022-10-11,株式会社タナカ装飾,,株式会社,愛知県,北名古屋市,宇福寺長田５７番地４,,23,234,4810035,,,,,,,2022-10-11,1,,,,,タナカソウショク,0
1761,6180001153369,新規,0,2022-10-11,2022-10-11,株式会社センタールート,,株式会社,愛知県,名古屋市東区,東大曽根町２３番１５号ＰＵＬＣＨＲＡＯＺＯＮＥ７０３,,23,102,4610022,,,,,,,2022-10-11,1,,,,,センタールート,0
1767,6180005019962,新規,0,2022-10-11,2022-10-11,社会保険労務士法人山本労務管理事務所,,その他の設立登記法人,愛知県,春日井市,押沢台１丁目６番地３,,23,206,4870005,,,,,,,2022-10-11,1,,,,,ヤマモトロウムカンリジムショ,0
1769,6180301036703,新規,0,2022-10-11,2022-10-11,株式会社ＩＱＯＬプラス,,株式会社,愛知県,みよし市,三好町弥栄１０７番地７,,23,236,4700224,,,,,,,2022-10-11,1,,,,,イコールプラス,0
1770,6180301036711,新規,0,2022-10-11,2022-10-11,伸和ディーゼルホールディングス株式会社,,株式会社,愛知県,豊橋市,新栄町字東小向６４番地,,23,201,4418016,,,,,,,2022-10-11,1,,,,,シンワディーゼルホールディングス,0
1771,6180303005466,新規,0,2022-10-11,2022-10-11,合同会社トムテクノ,,合同会社,愛知県,豊田市,朝日町３丁目２０番地２,,23,211,4710031,,,,,,,2022-10-11,1,,,,,トムテクノ,0
1777,6210001019112,新規,0,2022-10-11,2022-10-11,株式会社マルニコトブキ,,株式会社,福井県,福井市,渕２丁目９１７番地,,18,201,9188026,,,,,,,2022-10-11,1,,,,,マルニコトブキ,0
1778,6210003001563,新規,0,2022-10-11,2022-10-11,合同会社モサクリエイト,,合同会社,福井県,福井市,光陽３丁目８番４号,,18,201,9100026,,,,,,,2022-10-11,1,,,,,モサクリエイト,0
1780,6220001025084,新規,0,2022-10-11,2022-10-11,株式会社ＰｕｂＧｒｏｗ,,株式会社,石川県,加賀市,野田町２３６番地１,,17,206,9220443,,,,,,,2022-10-11,1,,,,,パブグロウ,0
1804,6290001099106,新規,0,2022-10-11,2022-10-11,株式会社アグリテック梅崎,,株式会社,福岡県,みやま市,高田町昭和開１３２番地,,40,229,8390201,,,,,,,2022-10-11,1,,,,,アグリテックウメザキ,0
1805,6290001099139,新規,0,2022-10-11,2022-10-11,株式会社新憲ペイント,,株式会社,福岡県,三潴郡大木町,大字前牟田４３８番地,,40,522,8300406,,,,,,,2022-10-11,1,,,,,シンケンペイント,0
1806,6290001099147,新規,0,2022-10-11,2022-10-11,酒常株式会社,,株式会社,福岡県,大川市,大字鐘ケ江２６７番地２,,40,212,8310008,,,,,,,2022-10-11,1,,,,,サケツネ,0
1807,6290001099163,新規,0,2022-10-11,2022-10-11,ＨＡＣＨＩ株式会社,,株式会社,福岡県,嘉麻市,下山田３７４番地５,,40,227,8210011,,,,,,,2022-10-11,1,,,,,ハチ,0
1808,6290001099171,新規,0,2022-10-11,2022-10-11,株式会社Ｒｉｖｅｒ,,株式会社,福岡県,福岡市博多区,千代５丁目２０番１８－１号,,40,132,8120044,,,,,,,2022-10-11,1,,,,,リバー,0
1809,6290001099188,新規,0,2022-10-11,2022-10-11,株式会社サンフレーム,,株式会社,福岡県,福岡市中央区,渡辺通５丁目５番３号,,40,133,8100004,,,,,,,2022-10-11,1,,,,,サンフレーム,0
1812,6290801028957,新規,0,2022-10-11,2022-10-11,株式会社オンクラウド,,株式会社,福岡県,北九州市小倉北区,熊本４丁目２番２６号,,40,106,8020044,,,,,,,2022-10-11,1,,,,,オンクラウド,0
1814,6310001018079,新規,0,2022-10-11,2022-10-11,株式会社ＲＥＤ武慶舎,,株式会社,長崎県,長崎市,築町１番１２号３Ｆ,,42,201,8500877,,,,,,,2022-10-11,1,,,,,アールイーディーブケイシャ,0
1819,6320003003920,新規,0,2022-10-11,2022-10-11,ＬＣ　ＴＥＣ合同会社,,合同会社,大分県,大分市,金池町２丁目９番７号堤ビル５０１,,44,201,8700026,,,,,,,2022-10-11,1,,,,,エルシーテック,0
1820,6330001030164,新規,0,2022-10-11,2022-10-11,株式会社奈良崎土質,00128071,株式会社,熊本県,天草市,今釜町１２番４９号,,43,215,8630012,,,,,,,2022-10-11,1,,,,,ナラザキドシツ,0
1823,6330005010567,新規,0,2022-10-11,2022-10-11,社会保険労務士法人プロセスコア,,その他の設立登記法人,熊本県,熊本市中央区,水前寺６丁目４６番２７号ＲＥＧＡＬＩＡＳＵＩＺＥＮＪＩ３Ｆ,,43,101,8620950,,,,,,,2022-10-11,1,,,,,プロセスコア,0
1828,6350001017977,新規,0,2022-10-11,2022-10-11,株式会社ホットスタッフ宮崎,,株式会社,宮崎県,宮崎市,潮見町２１７番地３,,45,201,8800862,,,,,,,2022-10-11,1,,,,,ホットスタッフミヤザキ,0
1830,6360001031028,新規,0,2022-10-11,2022-10-11,株式会社ＢＥＥＴ,,株式会社,沖縄県,宜野湾市,野嵩１丁目１７番１０－７０４号ＲａｄｉｃｅＮｕｄａｋｉ,,47,205,9012203,,,,,,,2022-10-11,1,,,,,ビート,0
1831,6360003012356,新規,0,2022-10-11,2022-10-11,合同会社心学好,,合同会社,沖縄県,島尻郡八重瀬町,字長毛１２－２,,47,362,9010501,,,,,,,2022-10-11,1,,,,,シンガクコウ,0
1832,6360003012380,新規,0,2022-10-11,2022-10-11,合同会社シイナコーポレーション,,合同会社,沖縄県,那覇市,おもろまち４丁目６－２４－５Ｆ,,47,201,9000006,,,,,,,2022-10-11,1,,,,,シイナコーポレーション,0
1833,6370001049119,新規,0,2022-10-11,2022-10-11,株式会社ミニポンプ工業,,株式会社,宮城県,大崎市,古川荒谷字新蓑浦８６番地２,,04,215,9896252,,,,,,,2022-10-11,1,,,,,ミニポンプコウギョウ,0
1834,6370001049135,新規,0,2022-10-11,2022-10-11,株式会社ウィルプランニング,,株式会社,宮城県,仙台市青葉区,一番町１丁目１２番２号星光堂ビル６０４,,04,101,9800811,,,,,,,2022-10-11,1,,,,,ウィルプランニング,0
1840,6390001017049,新規,0,2022-10-11,2022-10-11,株式会社ＴＯＨＯ総設,,株式会社,山形県,東置賜郡高畠町,大字相森１３８番地１７,,06,381,9920332,,,,,,,2022-10-11,1,,,,,トウホウソウセツ,0
1858,6430003014337,新規,0,2022-10-11,2022-10-11,合同会社ＭＭＬサポート,,合同会社,北海道,札幌市西区,西野六条５丁目５番１４号,,01,107,0630036,,,,,,,2022-10-11,1,,,,,エムエムエルサポート,0
1859,6430005014582,新規,0,2022-10-11,2022-10-11,平岡シュヴァービング１１．１２．１３．１４番館団地管理組合法人,,その他の設立登記法人,北海道,札幌市清田区,平岡五条２丁目１番,,01,110,0040875,,,,,,,2022-10-11,1,,,,,ヒラオカシュヴァービングジュウイチジュウニジュウサンジュウヨンバンカン,0
1862,6462501000939,新規,0,2022-10-11,2022-10-11,株式会社カワサキ事務所,,株式会社,北海道,野付郡別海町,別海４０６番地１３９,,01,691,0860216,,,,,,,2022-10-11,1,,,,,カワサキジムショ,0
1864,6470001019268,新規,0,2022-10-11,2022-10-11,株式会社ＧｉＲＡｆｆｅ,,株式会社,香川県,高松市,鬼無町藤井６２９番地１,,37,201,7618024,,,,,,,2022-10-11,1,,,,,ジェラーフ,0
1865,6480001011884,新規,0,2022-10-11,2022-10-11,株式会社Ｎ・Ｄ・Ｈマネジメント,,株式会社,徳島県,板野郡北島町,中村字東開３２番地６モナガーデニング２０１号室,,36,402,7710203,,,,,,,2022-10-11,1,,,,,エヌディエイチマネジメント,0
1867,6700150111421,新規,0,2022-10-11,2022-09-21,南相馬インキュベートコンソーシアム,,その他,福島県,南相馬市,原町区萱浜字巣掛場４５－２４５,,07,212,9750036,,,,,,,2022-09-21,1,,,,,ミナミソウマインキユベートコンソーシアム,0
1879,7010001230019,新規,0,2022-10-11,2022-10-11,Ｔ　Ｅｎｔｅｒｐｒｉｓｅ株式会社,,株式会社,東京都,千代田区,外神田５丁目５－１１若林ビル１Ｆ,,13,101,1010021,,,,,,,2022-10-11,1,,,,,ティーエンタープライズ,0
1880,7010001230043,新規,0,2022-10-11,2022-10-11,海峰株式会社,,株式会社,東京都,千代田区,東神田２丁目４番１１号ＳＡＫＵＲＡＧＡＲＤＥＮ７階,,13,101,1010031,,,,,,,2022-10-11,1,,,,,カイホウ,0
1881,7010001230068,新規,0,2022-10-11,2022-10-11,株式会社インパクト,,株式会社,東京都,中央区,築地１丁目５番８－７０３号オープンレジデンシア銀座,,13,102,1040045,,,,,,,2022-10-11,1,,,,,インパクト,0
1887,7010401170137,新規,0,2022-10-11,2022-10-11,株式会社Ｌａｓ‐ＨＡ,,株式会社,東京都,港区,六本木７丁目７番７号,,13,103,1060032,,,,,,,2022-10-11,1,,,,,ラスハ,0
1888,7010401170186,新規,0,2022-10-11,2022-10-11,株式会社Ａｒｉｎａｒｅｓｏｒｔ,,株式会社,東京都,港区,海岸１丁目２番３号汐留芝離宮２１階,,13,103,1050022,,,,,,,2022-10-11,1,,,,,アリナリゾート,0
1892,7010403028597,新規,0,2022-10-11,2022-10-11,合同会社ｋｙｏｈ,,合同会社,東京都,港区,南青山２丁目２番１５号,,13,103,1070062,,,,,,,2022-10-11,1,,,,,キョー,0
1893,7010403028655,新規,0,2022-10-11,2022-10-11,合同会社ハナマール・アンド・カンパニー,,合同会社,東京都,港区,虎ノ門３丁目１９番１５－８０１号,,13,103,1050001,,,,,,,2022-10-11,1,,,,,ハナマールアンドカンパニー,0
1894,7010403028671,新規,0,2022-10-11,2022-10-11,ＳＴＯＲＩＥＳ　ＨＯＬＤＩＮＧＳ合同会社,,合同会社,東京都,港区,赤坂５丁目２番２０号,,13,103,1070052,,,,,,,2022-10-11,1,,,,,ストーリーズホールディングス,0
1896,7010405021419,新規,0,2022-10-11,2022-10-11,一般社団法人オール三菱ライオンズ,,その他の設立登記法人,東京都,港区,西新橋１丁目２０番１号,,13,103,1050003,,,,,,,2022-10-11,1,,,,,オールミツビシライオンズ,0
1897,7010405021468,新規,0,2022-10-11,2022-10-11,一般社団法人マインドアクティベーション協会,,その他の設立登記法人,東京都,港区,元麻布３丁目１番３５－３０１号,,13,103,1060046,,,,,,,2022-10-11,1,,,,,マインドアクティベーションキョウカイ,0
1898,7010501049454,新規,0,2022-10-11,2022-10-11,子墨株式会社,,株式会社,東京都,台東区,台東１丁目３２番６号小島ビル３０１号室,,13,106,1100016,,,,,,,2022-10-11,1,,,,,コボク,0
1899,7010501049462,新規,0,2022-10-11,2022-10-11,株式会社アピダ,,株式会社,東京都,台東区,２－３０－１１ジャイロビル４階,,13,106,1100000,,,,,,,2022-10-11,1,,,,,アピダ,0
1916,7010901051745,新規,0,2022-10-11,2022-10-11,株式会社ｓｍｏｃｋ,,株式会社,東京都,世田谷区,北沢３丁目９番４号,,13,112,1550031,,,,,,,2022-10-11,1,,,,,スモック,0
1918,7010903007695,新規,0,2022-10-11,2022-10-11,合同会社コトハル,,合同会社,東京都,世田谷区,太子堂３丁目３７番１－Ｃ６０２号,,13,112,1540004,,,,,,,2022-10-11,1,,,,,コトハル,0
1925,7011001150157,新規,0,2022-10-11,2022-10-11,株式会社Ｌｉｃｏ　ｐｅｒｋ,,株式会社,東京都,目黒区,青葉台３丁目１７番１１号ＴＫ青葉台２０２,,13,110,1530042,,,,,,,2022-10-11,1,,,,,リコパーク,0
1926,7011001150223,新規,0,2022-10-11,2022-10-11,株式会社Ｄｉｇｉｔａｌ　Ｔｏｎｅ　Ｗｏｒｋｓ,,株式会社,東京都,渋谷区,代々木１丁目４４番４号,,13,113,1510053,,,,,,,2022-10-11,1,,,,,デジタルトーンワークス,0
1930,7011101100466,新規,0,2022-10-11,2022-10-11,株式会社ＬＩＦＩＸ,,株式会社,東京都,新宿区,西新宿３丁目３番１３号西新宿水間ビル６Ｆ,,13,104,1600023,,,,,,,2022-10-11,1,,,,,リフィックス,0
1931,7011201024144,新規,0,2022-10-11,2022-10-11,株式会社あひる,,株式会社,東京都,中野区,弥生町２丁目１５番１２号,,13,114,1640013,,,,,,,2022-10-11,1,,,,,アヒル,0
1938,7011601026285,新規,0,2022-10-11,2022-10-11,株式会社アウルワーク,,株式会社,東京都,練馬区,中村北２丁目１３番２－９０１号,,13,120,1760023,,,,,,,2022-10-11,1,,,,,アウルワーク,0
1939,7011601026293,新規,0,2022-10-11,2022-10-11,株式会社バディタイム,,株式会社,東京都,練馬区,中村北１丁目５番９号第二永崎ビル２階,,13,120,1760023,,,,,,,2022-10-11,1,,,,,バディタイム,0
1940,7011701025674,新規,0,2022-10-11,2022-10-11,４ＳＥＬＥＣＴＩＯＮ株式会社,,株式会社,東京都,江戸川区,北葛西４丁目２５番１１号フローリッシュ清新４０１,,13,123,1340081,,,,,,,2022-10-11,1,,,,,フォーセレクション,0
1941,7011705001754,新規,0,2022-10-11,2022-10-11,土屋みどり税理士法人,,その他の設立登記法人,東京都,江戸川区,瑞江２丁目５番２１号サイトウビル３０２,,13,123,1320011,,,,,,,2022-10-11,1,,,,,ツチヤミドリ,0
1944,7011801041373,新規,0,2022-10-11,2022-10-11,仲酉建装株式会社,,株式会社,東京都,足立区,花畑１丁目１５番１４号,,13,121,1210061,,,,,,,2022-10-11,1,,,,,ナカニシケンソウ,0
1950,7012403005618,新規,0,2022-10-11,2022-10-11,合同会社ＴＡＳＨ,,合同会社,東京都,武蔵野市,西久保３丁目１３番１２号,,13,203,1800013,,,,,,,2022-10-11,1,,,,,タッシュ,0
1953,7012703002554,新規,0,2022-10-11,2022-10-11,スリーブイキャピタル合同会社,,合同会社,東京都,東久留米市,学園町１丁目１１番５号,,13,222,2030021,,,,,,,2022-10-11,1,,,,,スリーブイキャピタル,0
1955,7013103001171,新規,0,2022-10-11,2022-10-11,合同会社マトリカリア,,合同会社,東京都,あきる野市,秋留５丁目４番地３１,,13,228,1970828,,,,,,,2022-10-11,1,,,,,マトリカリア,0
1964,7020001148441,新規,0,2022-10-11,2022-10-11,伊勢電子株式会社,,株式会社,神奈川県,横浜市港北区,新横浜２丁目１２番地２０,,14,109,2220033,,,,,,,2022-10-11,1,,,,,イセデンシ,0
1965,7020001148458,新規,0,2022-10-11,2022-10-11,株式会社Ｒブレインズ,,株式会社,神奈川県,横浜市緑区,いぶき野７番地５,,14,113,2260028,,,,,,,2022-10-11,1,,,,,アールブレインズ,0
1966,7020001148474,新規,0,2022-10-11,2022-10-11,株式会社ミナミ,,株式会社,神奈川県,横浜市南区,永田北２丁目３０番１６－２号,,14,105,2320071,,,,,,,2022-10-11,1,,,,,ミナミ,0
1967,7020001148482,新規,0,2022-10-11,2022-10-11,株式会社イケ設備設計事務所,,株式会社,神奈川県,横浜市西区,平沼１丁目４０番９号パークハイツ横浜,,14,103,2200023,,,,,,,2022-10-11,1,,,,,イケセツビセッケイジムショ,0
1968,7020001148508,新規,0,2022-10-11,2022-10-11,株式会社クロカワパートナーズ,,株式会社,神奈川県,横浜市中区,千歳町一丁目２番地横浜ＴＨビル８階,,14,104,2310035,,,,,,,2022-10-11,1,,,,,クロカワパートナーズ,0
1970,7020003022561,新規,0,2022-10-11,2022-10-11,合同会社マネーシフト,,合同会社,神奈川県,横浜市西区,北幸１丁目１１―１水信ビル７Ｆ,,14,103,2200004,,,,,,,2022-10-11,1,,,,,マネーシフト,0
1977,7021003012230,新規,0,2022-10-11,2022-10-11,合同会社ＫＲビル,,合同会社,神奈川県,茅ヶ崎市,富士見町１６番８－５００号ＫＲビル,,14,207,2530031,,,,,,,2022-10-11,1,,,,,,0
1981,7030001150454,新規,0,2022-10-11,2022-10-11,川口油圧工業株式会社,,株式会社,埼玉県,川口市,東領家５丁目１８番５号,,11,203,3320003,,,,,,,2022-10-11,1,,,,,カワグチユアツコウギョウ,0
1994,7030003020275,新規,0,2022-10-11,2022-10-11,ｔｏｕｃａｎ合同会社,,合同会社,埼玉県,さいたま市浦和区,大東１丁目２―２,,11,107,3300043,,,,,,,2022-10-11,1,,,,,トゥーキャン,0
1995,7030003020358,新規,0,2022-10-11,2022-10-11,シャボン合同会社,,合同会社,埼玉県,鴻巣市,本町１丁目７番１－５０１号,,11,217,3650038,,,,,,,2022-10-11,1,,,,,シャボン,0
2001,7040001125380,新規,0,2022-10-11,2022-10-11,株式会社レカミ,,株式会社,千葉県,市原市,辰巳台西１丁目３番地１３,,12,219,2900004,,,,,,,2022-10-11,1,,,,,レカミ,0
2003,7040003021017,新規,0,2022-10-11,2022-10-11,Ｔ＆Ｍ’Ｓコンサルタント合同会社,,合同会社,千葉県,柏市,若柴２７６番地１中央１６２街区１ＰＣ柏の葉キャンパスサウスマークタワー３０２号,,12,217,2770871,,,,,,,2022-10-11,1,,,,,ティーアンドエムズコンサルタント,0
2004,7050001051717,新規,0,2022-10-11,2022-10-11,株式会社ＷＡＴＴＯＯ　ＴＲＡＤＩＮＧ,,株式会社,茨城県,結城市,大字大木２４０３番地４７,,08,207,3070031,,,,,,,2022-10-11,1,,,,,ワットトレーディング,0
2005,7050001051774,新規,0,2022-10-11,2022-10-11,株式会社ジオテックパートナーズ,,株式会社,茨城県,つくば市,吾妻２丁目５番地１,,08,220,3050031,,,,,,,2022-10-11,1,,,,,ジオテックパートナーズ,0
2006,7050003006900,新規,0,2022-10-11,2022-10-11,合同会社Ｍｏｌｔ,,合同会社,茨城県,守谷市,乙子２０４番地の２,,08,224,3020123,,,,,,,2022-10-11,1,,,,,モールト,0
2008,7060001035330,新規,0,2022-10-11,2022-10-11,株式会社ＴＨＲＥＡＤ,,株式会社,栃木県,小山市,大字横倉７９４番地２６,,09,208,3230813,,,,,,,2022-10-11,1,,,,,スレッド,0
2009,7060001035347,新規,0,2022-10-11,2022-10-11,株式会社ＳＳサービス,,株式会社,栃木県,佐野市,山形町６３９番地１,,09,204,3270324,,,,,,,2022-10-11,1,,,,,エスエスサービス,0
2019,7070001039719,新規,0,2022-10-11,2022-10-11,ＧＲＥＡＴ　ＩＳＬＡＮＤ　ＪＰ株式会社,,株式会社,群馬県,館林市,北成島町３２２６番地７,,10,207,3740057,,,,,,,2022-10-11,1,,,,,グレートアイランドジェーピー,0
2023,7080001025239,新規,0,2022-10-11,2022-10-11,株式会社スカイシー,,株式会社,静岡県,静岡市駿河区,八幡４丁目１番１１－２０３号,,22,102,4228076,,,,,,,2022-10-11,1,,,,,スカイシー,0
2024,7080003002888,新規,0,2022-10-11,2022-10-11,ＮｏＭｅｓｓ合同会社,,合同会社,静岡県,静岡市駿河区,丸子４９３０－４,,22,102,4210103,,,,,,,2022-10-11,1,,,,,ノーメス,0
2031,7110001037016,新規,0,2022-10-11,2022-10-11,本間商店株式会社,,株式会社,新潟県,新発田市,新富町１丁目６番２７号,,15,206,9570017,,,,,,,2022-10-11,1,,,,,ホンマショウテン,0
2045,7120001249378,新規,0,2022-10-11,2022-10-11,株式会社アスリティ,,株式会社,大阪府,大阪市東淀川区,豊里７丁目３３番１４号,,27,114,5330013,,,,,,,2022-10-11,1,,,,,アスリティ,0
2046,7120001249411,新規,0,2022-10-11,2022-10-11,ソンティ株式会社,,株式会社,大阪府,大阪市北区,西天満３丁目７番１１－７０１号,,27,127,5300047,,,,,,,2022-10-11,1,,,,,ソンティ,0
2047,7120001249436,新規,0,2022-10-11,2022-10-11,クレイス株式会社,,株式会社,大阪府,大阪市北区,本庄東１丁目４番１７号,,27,127,5310074,,,,,,,2022-10-11,1,,,,,クレイス,0
2048,7120001249452,新規,0,2022-10-11,2022-10-11,株式会社ＫＧカンパニー,,株式会社,大阪府,大阪市中央区,西心斎橋１丁目９番２８号,,27,128,5420086,,,,,,,2022-10-11,1,,,,,ケイジーカンパニー,0
2049,7120001249460,新規,0,2022-10-11,2022-10-11,株式会社オートフィクション,,株式会社,大阪府,大阪市中央区,日本橋２丁目１５番４－４０７号,,27,128,5420073,,,,,,,2022-10-11,1,,,,,オートフィクション,0
2052,7120003022618,新規,0,2022-10-11,2022-10-11,合名会社國庄管理,,合名会社,大阪府,大阪市西区,京町堀２丁目４番１－１１０５号,,27,106,5500003,,,,,,,2022-10-11,1,,,,,コクショウカンリ,0
2053,7120003022634,新規,0,2022-10-11,2022-10-11,合同会社ＭＳコマース,,合同会社,大阪府,大阪市北区,梅田１丁目１―３大阪駅前第３ビル２９階１―１―１号室,,27,127,5300001,,,,,,,2022-10-11,1,,,,,エムエスコマース,0
2062,7120103004879,新規,0,2022-10-11,2022-10-11,カレンジュラハウス合同会社,,合同会社,大阪府,堺市北区,中百舌鳥町４丁５０７番地,,27,146,5918023,,,,,,,2022-10-11,1,,,,,カレンジュラハウス,0
2068,7122001036293,新規,0,2022-10-11,2022-10-11,Ｓｔｙｌｅ　Ｃｒｕｉｓｅ株式会社,,株式会社,大阪府,東大阪市,長堂２丁目１７番６号,,27,227,5770056,,,,,,,2022-10-11,1,,,,,スタイルクルーズ,0
2069,7122001036302,新規,0,2022-10-11,2022-10-11,大日本環境開発株式会社,,株式会社,大阪府,東大阪市,菱屋東３丁目７番１７号,,27,227,5780948,,,,,,,2022-10-11,1,,,,,ダイニッポンカンキョウカイハツ,0
2076,7130005016591,新規,0,2022-10-11,2022-10-11,一般社団法人ＺＥＲＯＧＡＴＥ,,その他の設立登記法人,京都府,京都市左京区,吉田下阿達町４６－２９,,26,103,6068304,,,,,,,2022-10-11,1,,,,,ゼロゲート,0
2086,7140001127631,新規,0,2022-10-11,2022-10-11,株式会社エルフォルク,,株式会社,兵庫県,神戸市灘区,篠原南町５丁目２番９号ビエント六甲ＩＩ２０３,00128083,28,102,6570059,,,,,,,2022-10-11,1,,,,,エルフォルク,0
2087,7140001127664,新規,0,2022-10-11,2022-10-11,株式会社総栄,,株式会社,兵庫県,姫路市,花田町勅旨９３番地８,,28,201,6710254,,,,,,,2022-10-11,1,,,,,,0
2101,7160001024562,新規,0,2022-10-11,2022-10-11,株式会社リサイド,,株式会社,滋賀県,甲賀市,土山町徳原４５１番地,,25,209,5280234,,,,,,,2022-10-11,1,,,,,リサイド,0
2102,7170003001781,新規,0,2022-10-11,2022-10-11,合同会社アルク,,合同会社,和歌山県,有田市,辻堂４４１番地５,00128074,30,204,6490311,,,,,,,2022-10-11,1,,,,,アルク,0
2113,7180001153310,新規,0,2022-10-11,2022-10-11,株式会社Ｋ．Ｒ．ＬＡＢＯ,,株式会社,愛知県,名古屋市東区,泉１丁目１２番２５号シティタワー名古屋久屋大通公園２７０４号,,23,102,4610001,,,,,,,2022-10-11,1,,,,,ケーアールラボ,0
2114,7180001153327,新規,0,2022-10-11,2022-10-11,株式会社イロドリ,,株式会社,愛知県,尾張旭市,三郷町中井田１８７番地２,,23,226,4880014,,,,,,,2022-10-11,1,,,,,イロドリ,0
2115,7180001153335,新規,0,2022-10-11,2022-10-11,株式会社ＭｅｄｉＢＡＴＯ,,株式会社,愛知県,名古屋市中村区,名駅１丁目１番１号,,23,105,4500002,,,,,,,2022-10-11,1,,,,,メディバト,0
2116,7180001153351,新規,0,2022-10-11,2022-10-11,ｐｏｌｌｏ　ｃｏｒｐｏｒａｔｉｏｎ株式会社,,株式会社,愛知県,名古屋市中区,錦３丁目１７番１０号,,23,106,4600003,,,,,,,2022-10-11,1,,,,,ポロコーポレーション,0
2118,7180003024360,新規,0,2022-10-11,2022-10-11,合同会社まつお,,合同会社,愛知県,大府市,北崎町井田２７番地１,,23,223,4740001,,,,,,,2022-10-11,1,,,,,マツオ,0
2123,7180301036702,新規,0,2022-10-11,2022-10-11,株式会社ウェルパインシステム,,株式会社,愛知県,みよし市,莇生町明知原３１３番地,,23,236,4700206,,,,,,,2022-10-11,1,,,,,ウェルパインシステム,0
2124,7180301036710,新規,0,2022-10-11,2022-10-11,株式会社シィアンドジェイ,,株式会社,愛知県,蒲郡市,金平町稲荷１６番地１,,23,214,4430102,,,,,,,2022-10-11,1,,,,,シィアンドジェイ,0
2125,7180303005465,新規,0,2022-10-11,2022-10-11,エムアンドパートナーズ合同会社,,合同会社,愛知県,豊田市,五ケ丘７丁目３１番地２,,23,211,4710814,,,,,,,2022-10-11,1,,,,,エムアンドパートナーズ,0
2128,7190005011744,新規,0,2022-10-11,2022-10-11,一般社団法人遊びとケアの日々,,その他の設立登記法人,三重県,松阪市,高町１７６番地７ボンジュール高町１Ｄ,,24,204,5150011,,,,,,,2022-10-11,1,,,,,アソビトケアノヒビ,0
2131,7210001019111,新規,0,2022-10-11,2022-10-11,株式会社ワーククライム,,株式会社,福井県,鯖江市,北野町１丁目８番６－１号,,18,207,9160029,,,,,,,2022-10-11,1,,,,,ワーククライム,0
2132,7210003001562,新規,0,2022-10-11,2022-10-11,合同会社菅浜わくわく協働体,,合同会社,福井県,三方郡美浜町,菅浜第１００号４８番地の１,,18,442,9191203,,,,,,,2022-10-11,1,,,,,スガハマワクワクキョウドウタイ,0
2134,7230001019547,新規,0,2022-10-11,2022-10-11,株式会社長岡組,,株式会社,富山県,小矢部市,茄子島８５番地,,16,209,9320826,,,,,,,2022-10-11,1,,,,,ナガオカグミ,0
2135,7240001060483,新規,0,2022-10-11,2022-10-11,株式会社Ｍａｇａｋｓｈｉ　Ｇｒｏｕｐ,,株式会社,広島県,廿日市市,友田１００２４－４９８,,34,213,7380203,,,,,,,2022-10-11,1,,,,,マガクシグループ,0
2137,7250001019792,新規,0,2022-10-11,2022-10-11,株式会社アルカディアンホーム,,株式会社,山口県,周南市,勝間ヶ丘２丁目８番５号,,35,215,7450615,,,,,,,2022-10-11,1,,,,,アルカディアンホーム,0
2146,7290001099138,新規,0,2022-10-11,2022-10-11,株式会社ヤマトシステム,,株式会社,福岡県,福岡市西区,上山門３丁目６番６１号,,40,135,8190054,,,,,,,2022-10-11,1,,,,,ヤマトシステム,0
2148,7290003013047,新規,0,2022-10-11,2022-10-11,合同会社ｓｏｓｏｇｕ,,合同会社,福岡県,福岡市中央区,渡辺通２丁目３番２７号待鳥ビル４０７号,,40,133,8100004,,,,,,,2022-10-11,1,,,,,ソソグ,0
2151,7290801028956,新規,0,2022-10-11,2022-10-11,株式会社九州創成舎,,株式会社,福岡県,北九州市小倉北区,片野３丁目１番２２号八峯閣ビル７０１,,40,106,8020064,,,,,,,2022-10-11,1,,,,,キュウシュウソウセイシャ,0
2156,7310003004464,新規,0,2022-10-11,2022-10-11,合同会社Ｍ．Ｄ．Ｉ,,合同会社,長崎県,長崎市,油木町５３番地３４,,42,201,8528035,,,,,,,2022-10-11,1,,,,,エムディアイ,0
2157,7310005008637,新規,0,2022-10-11,2022-10-11,医療法人ＮＩＵ利休庵診療所,,その他の設立登記法人,長崎県,佐世保市,崎岡町２８２５―１,,42,202,8593226,,,,,,,2022-10-11,1,,,,,エヌアイユーリキュウアンシンリョウジョ,0
2163,7350003004188,新規,0,2022-10-11,2022-10-11,合同会社ＴＯＰ　ＧＯＬＦ,,合同会社,宮崎県,宮崎市,清武町池田台北３４番地８４,,45,201,8891608,,,,,,,2022-10-11,1,,,,,トップゴルフ,0
2165,7360001031043,新規,0,2022-10-11,2022-10-11,株式会社Ｋ＆Ｋ,,株式会社,沖縄県,那覇市,字古島１０番地,,47,201,9020061,,,,,,,2022-10-11,1,,,,,ケーアンドケー,0
2168,7360003012339,新規,0,2022-10-11,2022-10-11,合同会社Ｆｌａｂｏ,,合同会社,沖縄県,浦添市,港川２丁目２２番６ユアサハイムＢ棟５０２号,,47,208,9012134,,,,,,,2022-10-11,1,,,,,ファイラボ,0
2170,7370001049142,新規,0,2022-10-11,2022-10-11,バイオソノ株式会社,,株式会社,宮城県,仙台市若林区,清水小路６－１,,04,103,9840075,,,,,,,2022-10-11,1,,,,,バイオソノ,0
2171,7370003005853,新規,0,2022-10-11,2022-10-11,だてふくろう合同会社,,合同会社,宮城県,仙台市青葉区,大町２丁目１３－９幸田ビル４０２,,04,101,9800804,,,,,,,2022-10-11,1,,,,,ダテフクロウ,0
2181,7390003002007,新規,0,2022-10-11,2022-10-11,ホンダ電工合同会社,,合同会社,山形県,米沢市,万世町金谷３７１番地の５,,06,202,9921124,,,,,,,2022-10-11,1,,,,,ホンダデンコウ,0
2182,7400001016023,新規,0,2022-10-11,2022-10-11,株式会社サンシュウ,,株式会社,岩手県,奥州市,水沢佐倉河字惣前町２０番地１,,03,215,0230003,,,,,,,2022-10-11,1,,,,,サンシュウ,0
2188,7400003002979,新規,0,2022-10-11,2022-10-11,アップルミントジャパン合同会社,,合同会社,岩手県,盛岡市,本町通２丁目１３番４０号,,03,201,0200015,,,,,,,2022-10-11,1,,,,,アップルミントジャパン,0
2194,7430001087631,新規,0,2022-10-11,2022-10-11,株式会社Ｎｏｉｍ,,株式会社,北海道,札幌市清田区,里塚三条５丁目２０番１号,,01,110,0040803,,,,,,,2022-10-11,1,,,,,ノイム,0
2201,7460303000776,新規,0,2022-10-11,2022-10-11,合同会社スタジオ桂馬,,合同会社,北海道,北見市,朝日町１１番地,,01,208,0900803,,,,,,,2022-10-11,1,,,,,スタジオケイマ,0
2203,7470003002270,新規,0,2022-10-11,2022-10-11,合同会社ライズ,,合同会社,香川県,三豊市,高瀬町下勝間字加茂２７９６番地１,,37,208,7670011,,,,,,,2022-10-11,1,,,,,ライズ,0
2209,7490001010307,新規,0,2022-10-11,2022-10-11,株式会社高知新聞須崎金山販売所,,株式会社,高知県,須崎市,緑町１０番１０号,,39,206,7850036,,,,,,,2022-10-11,1,,,,,コウチシンブンスサキカナヤマハンバイショ,0
2212,7700150111387,新規,0,2022-10-11,2022-08-19,東急ドエルアルス宮町１丁目管理組合,,その他,宮城県,仙台市青葉区,宮町１丁目５－２,,04,101,9800004,,,,,,,2022-08-19,1,,,,,トウキユウドエルアルスミヤマチイツチヨウメカンリクミアイ,0
2224,8010001229885,新規,0,2022-10-11,2022-10-11,サウスフィールドアドバンス株式会社,,株式会社,東京都,中央区,銀座１丁目１２番４号Ｎ＆ＥＢＬＤ．６Ｆ,,13,102,1040061,,,,,,,2022-10-11,1,,,,,サウスフィールドアドバンス,0
2225,8010001229927,新規,0,2022-10-11,2022-10-11,株式会社ＴＲ‐ｓｙｓｔｅｍ,,株式会社,東京都,中央区,銀座１丁目１５番７号ＭＡＣ銀座ビル３階,,13,102,1040061,,,,,,,2022-10-11,1,,,,,ティーアールシステム,0
2226,8010001229968,新規,0,2022-10-11,2022-10-11,スタイルアップ株式会社,,株式会社,東京都,中央区,日本橋馬喰町２丁目６－１０スズビル３Ｆ,,13,102,1030002,,,,,,,2022-10-11,1,,,,,スタイルアップ,0
2227,8010001230067,新規,0,2022-10-11,2022-10-11,Ｐａｔａｋｉ株式会社,,株式会社,東京都,千代田区,飯田橋１丁目８番９号ニューシティハイツ飯田橋７０７,,13,101,1020072,,,,,,,2022-10-11,1,,,,,パタキ,0
2238,8010401170185,新規,0,2022-10-11,2022-10-11,株式会社ＷＥ　ＡＲＥ　ＣＲＥＡＴＩＶＥ,,株式会社,東京都,港区,西麻布４丁目２番９号シーズンズ西麻布２０１号室,,13,103,1060031,,,,,,,2022-10-11,1,,,,,ウィーアークリエイティブ,0
2239,8010401170193,新規,0,2022-10-11,2022-10-11,株式会社浦野生物情報科学研究所,,株式会社,東京都,港区,南青山４丁目１７番１３号１０７,,13,103,1070062,,,,,,,2022-10-11,1,,,,,ウラノセイブツジョウホウカガクケンキュウジョ,0
2241,8010501049461,新規,0,2022-10-11,2022-10-11,ＢＨＣグローバル株式会社,,株式会社,東京都,台東区,上野５丁目１１番３号愛ビル８階,,13,106,1100005,,,,,,,2022-10-11,1,,,,,ビーエイチシーグローバル,0
2242,8010501049486,新規,0,2022-10-11,2022-10-11,贏億株式会社,,株式会社,東京都,台東区,上野６丁目７番１６号,,13,106,1100005,,,,,,,2022-10-11,1,,,,,ヨウオク,0
2249,8010901051752,新規,0,2022-10-11,2022-10-11,株式会社沼上,,株式会社,東京都,世田谷区,成城１丁目１５番８－３２０号,,13,112,1570066,,,,,,,2022-10-11,1,,,,,ヌマカミ,0
2251,8010903007694,新規,0,2022-10-11,2022-10-11,合同会社ＨＡＴＯ,,合同会社,東京都,世田谷区,桜新町２丁目２４番５－１０８号,,13,112,1540015,,,,,,,2022-10-11,1,,,,,エイチエーティーオー,0
2252,8010905004376,新規,0,2022-10-11,2022-10-11,医療法人社団裕真会,,その他の設立登記法人,東京都,世田谷区,奥沢５丁目３１番１６号１Ｆ,,13,112,1580083,,,,,,,2022-10-11,1,,,,,ユウシンカイ,0
2257,8011001150189,新規,0,2022-10-11,2022-10-11,Ｐｌａｎｎｉｎｇ　ＩＩＩ株式会社,,株式会社,東京都,目黒区,下目黒６丁目５番２１号,,13,110,1530064,,,,,,,2022-10-11,1,,,,,プランニングスリー,0
2258,8011001150206,新規,0,2022-10-11,2022-10-11,株式会社ドレスコードエンターテインメント,,株式会社,東京都,目黒区,中目黒１丁目１番７１号,,13,110,1530061,,,,,,,2022-10-11,1,,,,,ドレスコードエンターテインメント,0
2259,8011001150239,新規,0,2022-10-11,2022-10-11,株式会社Ｌｙｎｘ　ｃｒｅａｔｉｏｎ,,株式会社,東京都,渋谷区,東１丁目３２番１２号渋谷プロパティータワー１４０８,,13,113,1500011,,,,,,,2022-10-11,1,,,,,リンクスクリエーション,0
2261,8011101100465,新規,0,2022-10-11,2022-10-11,株式会社ＴＴ　ＨＯＵＳＥ,,株式会社,東京都,新宿区,高田馬場４丁目２２番１９号アーバンプレイス高田馬場ＸＩ・Ａ１０５,00128069,13,104,1690075,,,,,,,2022-10-11,1,,,,,ティーティーハウス,0
2262,8011101100481,新規,0,2022-10-11,2022-10-11,Ａｒｉｅｌ　Ｇｏｌｄ株式会社,,株式会社,東京都,新宿区,高田馬場４丁目１１番１４号藤和シティホームズ高田馬場４０２,,13,104,1690075,,,,,,,2022-10-11,1,,,,,アリエルゴールド,0
2263,8011103012238,新規,0,2022-10-11,2022-10-11,合同会社サザンクロス奄美,,合同会社,東京都,新宿区,新宿２丁目２番７号,,13,104,1600022,,,,,,,2022-10-11,1,,,,,サザンクロスアマミ,0
2268,8011301028127,新規,0,2022-10-11,2022-10-11,株式会社ＲＩＭＲＯＣＫ,,株式会社,東京都,杉並区,和泉２丁目１１番１号Ｈｉ－ＲＯＯＭＳ明大前Ｂ１０１,,13,115,1680063,,,,,,,2022-10-11,1,,,,,リムロック,0
2272,8011501028521,新規,0,2022-10-11,2022-10-11,株式会社明創商事,,株式会社,東京都,荒川区,南千住７丁目８－１－２０４,,13,118,1160003,,,,,,,2022-10-11,1,,,,,メイソウショウジ,0
2273,8011601026284,新規,0,2022-10-11,2022-10-11,株式会社スリンク,,株式会社,東京都,練馬区,富士見台２丁目２番３３号,,13,120,1770034,,,,,,,2022-10-11,1,,,,,スリンク,0
2274,8011701025665,新規,0,2022-10-11,2022-10-11,株式会社Ｋ,,株式会社,東京都,江戸川区,中葛西８丁目１１番１８号ニューガイアリルーム葛西駅南Ｎｏ．２０－９０１号室,,13,123,1340083,,,,,,,2022-10-11,1,,,,,ケイ,0
2275,8011701025673,新規,0,2022-10-11,2022-10-11,ヒトカチ株式会社,,株式会社,東京都,江戸川区,北葛西５丁目１４－１１クオーディア西葛西５０３,,13,123,1340081,,,,,,,2022-10-11,1,,,,,ヒトカチ,0
2276,8011705001753,新規,0,2022-10-11,2022-10-11,税理士法人大津留会計,,その他の設立登記法人,東京都,江戸川区,南篠崎町２丁目１０番７号,,13,123,1330065,,,,,,,2022-10-11,1,,,,,オオツルカイケイ,0
2277,8011801041380,新規,0,2022-10-11,2022-10-11,株式会社シーボンド,,株式会社,東京都,葛飾区,東新小岩８丁目１３番９号,,13,122,1240023,,,,,,,2022-10-11,1,,,,,シーボンド,0
2278,8012401039708,新規,0,2022-10-11,2022-10-11,ケイ・ビルケア株式会社,,株式会社,東京都,多摩市,貝取２丁目７番地３－５０３,,13,224,2060012,,,,,,,2022-10-11,1,,,,,ケイビルケア,0
2279,8012401039732,新規,0,2022-10-11,2022-10-11,株式会社Ａグループ,,株式会社,東京都,府中市,宮町１丁目２１－１６ＫＳハイツ３０３,,13,206,1830023,,,,,,,2022-10-11,1,,,,,エーグループ,0
2281,8012703002553,新規,0,2022-10-11,2022-10-11,ＴＦＣ合同会社,,合同会社,東京都,清瀬市,中里３丁目９３０番地２１,,13,221,2040003,,,,,,,2022-10-11,1,,,,,ティーエフシー,0
2297,8020001148465,新規,0,2022-10-11,2022-10-11,住宅サポート株式会社,,株式会社,神奈川県,川崎市多摩区,枡形１丁目８－１０マンションパシフィック３０４,,14,135,2140032,,,,,,,2022-10-11,1,,,,,ジュウタクサポート,0
2298,8020001148473,新規,0,2022-10-11,2022-10-11,株式会社ＬＮＳ　ＪＡＰＡＮ　ＳＨＯＫＵＨＩＮ,,株式会社,神奈川県,横浜市港北区,下田町３丁目１７番４６－２号,,14,109,2230064,,,,,,,2022-10-11,1,,,,,エルエヌエスジャパンショクヒン,0
2299,8020001148481,新規,0,2022-10-11,2022-10-11,株式会社スペースデザイン,,株式会社,神奈川県,横浜市西区,平沼１丁目４０番９号パークハイツ横浜,,14,103,2200023,,,,,,,2022-10-11,1,,,,,スペースデザイン,0
2303,8021001077142,新規,0,2022-10-11,2022-10-11,長田商事株式会社,,株式会社,神奈川県,海老名市,浜田町７番７号,,14,215,2430412,,,,,,,2022-10-11,1,,,,,オサダショウジ,0
2307,8021003012238,新規,0,2022-10-11,2022-10-11,合同会社凪乃音,,合同会社,神奈川県,厚木市,岡田４丁目２番２１号,,14,212,2430021,,,,,,,2022-10-11,1,,,,,ナギノオト,0
2311,8030001150453,新規,0,2022-10-11,2022-10-11,株式会社ＦＵＪＩ　ＬＩＮＫ,,株式会社,埼玉県,草加市,八幡町１１６８番地１３,,11,221,3400006,,,,,,,2022-10-11,1,,,,,フジリンク,0
2312,8030001150461,新規,0,2022-10-11,2022-10-11,光美建株式会社,,株式会社,埼玉県,草加市,稲荷５丁目３３番２３号,,11,221,3400003,,,,,,,2022-10-11,1,,,,,ヒカリビケン,0
2313,8030001150486,新規,0,2022-10-11,2022-10-11,株式会社Ｕ‐ｉｔｓｕ,,株式会社,埼玉県,さいたま市大宮区,宮町２丁目２６番地８０３号,,11,103,3300802,,,,,,,2022-10-11,1,,,,,ユーイツ,0
2318,8030003020357,新規,0,2022-10-11,2022-10-11,合同会社舞心,,合同会社,埼玉県,川越市,大字小堤８４－１ハイラーク川越３１２,,11,201,3500811,,,,,,,2022-10-11,1,,,,,マゴコロ,0
2327,8040001125355,新規,0,2022-10-11,2022-10-11,株式会社エムケーテクニカ,,株式会社,千葉県,四街道市,千代田５丁目１５番３号,,12,228,2840015,,,,,,,2022-10-11,1,,,,,エムケーテクニカ,0
2328,8040001125371,新規,0,2022-10-11,2022-10-11,株式会社Ｒｅ．ｃａｓｔ,,株式会社,千葉県,四街道市,鹿放ケ丘５７５番地５アリエッタＢ２０４,,12,228,2840008,,,,,,,2022-10-11,1,,,,,リキャスト,0
2330,8040003021016,新規,0,2022-10-11,2022-10-11,ＮＩＴＯＨＡ合同会社,,合同会社,千葉県,市原市,ちはら台東１丁目２５－１６６,,12,219,2900141,,,,,,,2022-10-11,1,,,,,ニトハ,0
2331,8040005021765,新規,0,2022-10-11,2022-10-11,医療法人社団実相会,,その他の設立登記法人,千葉県,船橋市,本郷町６６３番地３ソレーユ西船橋１０２号室,,12,204,2730033,,,,,,,2022-10-11,1,,,,,ジッソウカイ,0
2333,8050001051773,新規,0,2022-10-11,2022-10-11,株式会社ＫＴＲ,,株式会社,茨城県,潮来市,宮前２丁目３０番地４,,08,223,3112412,,,,,,,2022-10-11,1,,,,,ケイティーアール,0
2344,8060003004258,新規,0,2022-10-11,2022-10-11,ＬＡＫＳＩＲＩ　ＥＮＴＥＲＰＲＩＳＥＳ合同会社,,合同会社,栃木県,足利市,堀込町２５２７番５足利ハイツＩＩ１０３号室,00128065,09,202,3260831,,,,,,,2022-10-11,1,,,,,ラクシリエンタープライセス,0
2348,8080001025238,新規,0,2022-10-11,2022-10-11,株式会社アンドパッソ,,株式会社,静岡県,静岡市葵区,安東３丁目３番２４号,,22,101,4200882,,,,,,,2022-10-11,1,,,,,アンドパッソ,0
2350,8080405007492,新規,0,2022-10-11,2022-10-11,社会保険労務士法人加藤労務管理事務所,,その他の設立登記法人,静岡県,磐田市,国府台５９番地８,,22,211,4380077,,,,,,,2022-10-11,1,,,,,カトウロウムカンリジムショ,0
2363,8120001249377,新規,0,2022-10-11,2022-10-11,株式会社金澤,,株式会社,大阪府,大阪市中央区,南船場４丁目９番１２号朝日プラザ心斎橋北６０４号室,,27,128,5420081,,,,,,,2022-10-11,1,,,,,カナザワ,0
2364,8120001249419,新規,0,2022-10-11,2022-10-11,株式会社ＡＵＴＯ　ＱＵＥＳＴ,,株式会社,大阪府,門真市,桑才新町３０番１３号,,27,223,5710043,,,,,,,2022-10-11,1,,,,,オートクエスト,0
2365,8120001249427,新規,0,2022-10-11,2022-10-11,株式会社Ａ．Ｐ．Ｍ,,株式会社,大阪府,大阪市住之江区,緑木１丁目１番６－７０３号,,27,125,5590022,,,,,,,2022-10-11,1,,,,,エーピーエム,0
2366,8120001249435,新規,0,2022-10-11,2022-10-11,株式会社ミライ,,株式会社,大阪府,大阪市中央区,本町２丁目３番４号アソルティ本町４階,,27,128,5410053,,,,,,,2022-10-11,1,,,,,ミライ,0
2372,8120101066342,新規,0,2022-10-11,2022-10-11,株式会社ａｌｉａｎｃａ,,株式会社,大阪府,和泉市,光明台２丁目３２番１７号,,27,219,5941111,,,,,,,2022-10-11,1,,,,,アリアンサ,0
2373,8120101066350,新規,0,2022-10-11,2022-10-11,株式会社くきやま工務店,,株式会社,大阪府,堺市堺区,砂道町２丁４番８号,,27,141,5900002,,,,,,,2022-10-11,1,,,,,クキヤマコウムテン,0
2374,8120103004878,新規,0,2022-10-11,2022-10-11,合同会社アウル,,合同会社,大阪府,堺市堺区,中三国ヶ丘町７丁１番４号,,27,141,5900022,,,,,,,2022-10-11,1,,,,,アウル,0
2375,8120901046592,新規,0,2022-10-11,2022-10-11,株式会社ＪＰ　ｅｘｐｏｒｔｓ,,株式会社,大阪府,池田市,五月丘１丁目３番３０号,,27,204,5630029,,,,,,,2022-10-11,1,,,,,ジェイピーエクスポーツ,0
2376,8122001036301,新規,0,2022-10-11,2022-10-11,株式会社池島木工所,,株式会社,大阪府,東大阪市,新池島町２丁目２１番４号,,27,227,5798065,,,,,,,2022-10-11,1,,,,,イケジマモッコウショ,0
2381,8130001072786,新規,0,2022-10-11,2022-10-11,株式会社ＤＡＮＫＥ,,株式会社,京都府,京都市中京区,西ノ京馬代町１４－７,,26,104,6048457,,,,,,,2022-10-11,1,,,,,ダンケ,0
2383,8130003008251,新規,0,2022-10-11,2022-10-11,合同会社千京いちり,,合同会社,京都府,京都市右京区,嵯峨広沢南野町６番地８,,26,108,6168304,,,,,,,2022-10-11,1,,,,,センキョウイチリ,0
2384,8130005016599,新規,0,2022-10-11,2022-10-11,医療法人侑眞会,,その他の設立登記法人,京都府,京都市北区,衣笠御所ノ内町３１アクエルド金閣寺１階,,26,101,6038378,,,,,,,2022-10-11,1,,,,,ユウシンカイ,0
2392,8140001127531,新規,0,2022-10-11,2022-10-11,株式会社エレメント,,株式会社,兵庫県,神戸市東灘区,本庄町２丁目５番１２号ファミール東灘壱番館,,28,101,6580012,,,,,,,2022-10-11,1,,,,,エレメント,0
2393,8140001127663,新規,0,2022-10-11,2022-10-11,株式会社ＯＬＯＣＯ,,株式会社,兵庫県,姫路市,上大野１丁目１２番２４号,,28,201,6700896,,,,,,,2022-10-11,1,,,,,,0
2399,8140003018191,新規,0,2022-10-11,2022-10-11,合同会社クレスト,,合同会社,兵庫県,神戸市北区,幸陽町１丁目５番地,,28,109,6511203,,,,,,,2022-10-11,1,,,,,クレスト,0
2400,8140003018209,新規,0,2022-10-11,2022-10-11,アイビーオー合同会社,,合同会社,兵庫県,宍粟市,山崎町須賀沢１５４番地４,,28,227,6712533,,,,,,,2022-10-11,1,,,,,アイビーオー,0
2401,8140003018217,新規,0,2022-10-11,2022-10-11,Ｙ＆Ｋパートナーズ合同会社,,合同会社,兵庫県,神戸市東灘区,西岡本５丁目５番３１号,,28,101,6580073,,,,,,,2022-10-11,1,,,,,ワイアンドケイパートナーズ,0
2402,8140003018225,新規,0,2022-10-11,2022-10-11,合同会社パーリイ,,合同会社,兵庫県,神戸市須磨区,松風町３丁目１番３号－９０７,,28,107,6540045,,,,,,,2022-10-11,1,,,,,パーリイ,0
2404,8150001025866,新規,0,2022-10-11,2022-10-11,株式会社ＬＯＳＥ　ＩＴ,,株式会社,奈良県,奈良市,朱雀５丁目１７番地１の１,,29,201,6310806,,,,,,,2022-10-11,1,,,,,ルーズイット,0
2408,8160003002697,新規,0,2022-10-11,2022-10-11,合同会社まゆたま,,合同会社,滋賀県,近江八幡市,中村町２９番地６,,25,204,5230894,,,,,,,2022-10-11,1,,,,,マユタマ,0
2421,8180001153268,新規,0,2022-10-11,2022-10-11,株式会社マルハヤホールディングス,,株式会社,愛知県,名古屋市緑区,桶狭間森前２０１４番地,,23,114,4580910,,,,,,,2022-10-11,1,,,,,マルハヤホールディングス,0
2422,8180001153334,新規,0,2022-10-11,2022-10-11,シン株式会社,,株式会社,愛知県,大府市,桃山町２丁目６番地の７,,23,223,4740026,,,,,,,2022-10-11,1,,,,,シン,0
2423,8180001153367,新規,0,2022-10-11,2022-10-11,株式会社ユーアンドミー,,株式会社,愛知県,名古屋市西区,香呑町１丁目４５番地の３,,23,104,4510015,,,,,,,2022-10-11,1,,,,,ユーアンドミー,0
2424,8180001153375,新規,0,2022-10-11,2022-10-11,タカマリフォーム株式会社,,株式会社,愛知県,名古屋市守山区,平池東７０５番地,,23,113,4630809,,,,,,,2022-10-11,1,,,,,タカマリフォーム,0
2425,8180001153391,新規,0,2022-10-11,2022-10-11,駆けつけ事業準備株式会社,,株式会社,愛知県,名古屋市中区,錦１丁目１０番２０号,,23,106,4600003,,,,,,,2022-10-11,1,,,,,カケツケジギョウジュンビ,0
2427,8180003024351,新規,0,2022-10-11,2022-10-11,合同会社メディウェル,,合同会社,愛知県,名古屋市南区,明治１丁目１８番３号（ＧｒａｎｄｔｉｃＭｅｉｊｉ１０３号）,,23,112,4570861,,,,,,,2022-10-11,1,,,,,メディウェル,0
2431,8190001029822,新規,0,2022-10-11,2022-10-11,Ｌｏｃａｌ　Ｄｅｓｉｇｎ　Ｍｉｅ株式会社,,株式会社,三重県,四日市市,霞２丁目１番地の１,,24,202,5100011,,,,,,,2022-10-11,1,,,,,ローカルデザインミエ,0
2440,8200001040538,新規,0,2022-10-11,2022-10-11,宮川鉄工株式会社,,株式会社,岐阜県,岐阜市,北野南８番地２,,21,201,5012516,,,,,,,2022-10-11,1,,,,,ミヤガワテッコウ,0
2443,8210001019110,新規,0,2022-10-11,2022-10-11,株式会社ＫＯＨＳＩＮ,,株式会社,福井県,大野市,春日１５７号６番地５,,18,205,9120053,,,,,,,2022-10-11,1,,,,,コーシン,0
2444,8210001019119,新規,0,2022-10-11,2022-10-11,株式会社中村商会,,株式会社,福井県,坂井市,丸岡町羽崎第１２号７番地４,,18,210,9100367,,,,,,,2022-10-11,1,,,,,ナカムラショウカイ,0
2451,8240001060474,新規,0,2022-10-11,2022-10-11,株式会社Ｍｉｓａｋｉ　Ｐａｒｔｎｅｒｓ,,株式会社,広島県,呉市,広駅前２丁目７－５－４０４,,34,202,7370142,,,,,,,2022-10-11,1,,,,,ミサキパートナーズ,0
2462,8290001099137,新規,0,2022-10-11,2022-10-11,株式会社ファースト,,株式会社,福岡県,福津市,日蒔野３丁目６番地の４,,40,224,8113209,,,,,,,2022-10-11,1,,,,,ファースト,0
2466,8290005018828,新規,0,2022-10-11,2022-10-11,一般社団法人あかるい未来ＳＰＯＲＴＳ糸島,,その他の設立登記法人,福岡県,糸島市,浦志１丁目１０番６号,,40,230,8191112,,,,,,,2022-10-11,1,,,,,アカルイミライスポーツイトシマ,0
2468,8290801028947,新規,0,2022-10-11,2022-10-11,株式会社ワダカツ,,株式会社,福岡県,北九州市小倉北区,浅野２丁目１７番３８号,,40,106,8020001,,,,,,,2022-10-11,1,,,,,ワダカツ,0
2469,8290801028955,新規,0,2022-10-11,2022-10-11,株式会社ナカケン,,株式会社,福岡県,直方市,大字上新入１８３１番地５,,40,204,8220033,,,,,,,2022-10-11,1,,,,,ナカケン,0
2470,8300005007102,新規,0,2022-10-11,2022-10-11,税理士法人横尾会計,,その他の設立登記法人,佐賀県,佐賀市,神園３丁目４番２４号,,41,201,8400806,,,,,,,2022-10-11,1,,,,,ヨコオカイケイ,0
2473,8330001030195,新規,0,2022-10-11,2022-10-11,株式会社Ｌｕｍｉｎｏｕｓ　Ｃｒｅａｔｅ,,株式会社,熊本県,熊本市中央区,新大江２丁目１８番２１号１Ｆ,,43,101,8620972,,,,,,,2022-10-11,1,,,,,ルミナスクリエイト,0
2478,8350001017991,新規,0,2022-10-11,2022-10-11,株式会社ホデリ・ホオリ,,株式会社,宮崎県,日南市,瀬西１丁目１３番２１号,,45,204,8870003,,,,,,,2022-10-11,1,,,,,ホデリホオリ,0
2479,8360001031034,新規,0,2022-10-11,2022-10-11,株式会社リリット,,株式会社,沖縄県,那覇市,赤嶺１丁目６番１５号６０１,,47,201,9010154,,,,,,,2022-10-11,1,,,,,リリット,0
2486,8370001049141,新規,0,2022-10-11,2022-10-11,ＹＪＰ　Ｄｅｓｉｇｎ株式会社,,株式会社,宮城県,気仙沼市,本吉町洞沢１３４番地２,,04,205,9880263,,,,,,,2022-10-11,1,,,,,ワイジェーピーデザイン,0
2489,8380001033160,新規,0,2022-10-11,2022-10-11,ユウテック株式会社,,株式会社,福島県,伊達市,沓形１４番地１４,,07,213,9600474,,,,,,,2022-10-11,1,,,,,ユウテック,0
2490,8380005012631,新規,0,2022-10-11,2022-10-11,トータルライフ協同組合,,その他の設立登記法人,福島県,いわき市,遠野町上遠野字本町８７番地,,07,204,9720161,,,,,,,2022-10-11,1,,,,,トータルライフ,0
2491,8390001017039,新規,0,2022-10-11,2022-10-11,株式会社収穫ファーム,,株式会社,山形県,東置賜郡川西町,大字尾長島８４４番地,,06,382,9990213,,,,,,,2022-10-11,1,,,,,シュウカクファーム,0
2493,8400001016022,新規,0,2022-10-11,2022-10-11,株式会社県南サッシ,,株式会社,岩手県,奥州市,江刺愛宕字金谷２１８番地,,03,215,0231131,,,,,,,2022-10-11,1,,,,,ケンナンサッシ,0
2505,8430003014335,新規,0,2022-10-11,2022-10-11,Ｎｏｒｔｈｅｒｎ　Ｈｏｍｅ合同会社,,合同会社,北海道,札幌市中央区,南七条西１丁目２０番地１,,01,101,0640807,,,,,,,2022-10-11,1,,,,,ノーザンホーム,0
2506,8430005014580,新規,0,2022-10-11,2022-10-11,エルム税理士法人,,その他の設立登記法人,北海道,札幌市中央区,北三条西１７丁目２番地３６,,01,101,0600003,,,,,,,2022-10-11,1,,,,,エルム,0
2511,8700150033465,新規,0,2022-10-11,2015-10-09,美唄市季節労働者通年雇用促進協議会,,その他,北海道,美唄市,西三条南１丁目１－１美唄市役所　商工観光課内,,01,215,0720026,,,,,,,2015-10-09,1,,,,,ビバイシキセツロウドウシヤツウネンコヨウソクシンキヨウギカイ,0
2512,8700150111881,新規,0,2022-10-11,2022-09-26,Ｌｉｖｉｎｇ　Ｍｕｓｉｃ　Ｆａｃｔｏｒｙ,,その他,広島県,広島市中区,光南１丁目６－８,,34,101,7300825,,,,,,,2022-09-26,1,,,,,リビングミユージツクフアクトリー,0
2538,9010401170151,新規,0,2022-10-11,2022-10-11,株式会社Ｆｕｎｄｉｎｇ　Ｍａｎａｇｅｍｅｎｔ,,株式会社,東京都,港区,芝５丁目１３番１１号,,13,103,1080014,,,,,,,2022-10-11,1,,,,,ファンディングマネージメント,0
2539,9010401170184,新規,0,2022-10-11,2022-10-11,株式会社クノテロス,,株式会社,東京都,港区,南青山２丁目２番１５号,,13,103,1070062,,,,,,,2022-10-11,1,,,,,クノテロス,0
2540,9010403028678,新規,0,2022-10-11,2022-10-11,勇奈合同会社,,合同会社,東京都,港区,浜松町２丁目２番１５号浜松町ダイヤビル２Ｆ,,13,103,1050013,,,,,,,2022-10-11,1,,,,,ユウナ,0
2541,9010405021441,新規,0,2022-10-11,2022-10-11,一般社団法人虎ノ門中村クリニック,,その他の設立登記法人,東京都,港区,虎ノ門３丁目１０番４号虎ノ門ガーデン１０３,,13,103,1050001,,,,,,,2022-10-11,1,,,,,トラノモンナカムラクリニック,0
2551,9010901051776,新規,0,2022-10-11,2022-10-11,株式会社ＴＥＲＡ　Ｔｅｃｈ　Ｉｎｃ．,,株式会社,東京都,世田谷区,玉川４丁目２９番１５号,,13,112,1580094,,,,,,,2022-10-11,1,,,,,テラテクインク,0
2552,9010905004375,新規,0,2022-10-11,2022-10-11,一般社団法人心と命に寄りそう地域づくり推進協議会,,その他の設立登記法人,東京都,世田谷区,成城２丁目３４番２号村上ハイツ２０１号,,13,112,1570066,,,,,,,2022-10-11,1,,,,,ココロトイノチニヨリソウチイキヅクリスイシンキョウギカイ,0
2558,9011001150163,新規,0,2022-10-11,2022-10-11,株式会社ＮｏＲＡ　ＴＯＫＹＯ,,株式会社,東京都,目黒区,下目黒２丁目４－１７キャニオンマンション目黒２０８,,13,110,1530064,,,,,,,2022-10-11,1,,,,,ノラトーキョー,0
2559,9011001150221,新規,0,2022-10-11,2022-10-11,株式会社Ｒｅｅｒｅ,,株式会社,東京都,目黒区,目黒本町２丁目１７番１９号,,13,110,1520002,,,,,,,2022-10-11,1,,,,,リーリ,0
2560,9011005009769,新規,0,2022-10-11,2022-10-11,一般社団法人ひといく,,その他の設立登記法人,東京都,渋谷区,広尾１丁目５番３号,,13,113,1500012,,,,,,,2022-10-11,1,,,,,ヒトイク,0
2566,9011101100472,新規,0,2022-10-11,2022-10-11,株式会社和実エンタープライズ,,株式会社,東京都,新宿区,西早稲田１丁目１８番１５号ヴェラハイツ早稲田５０２,,13,104,1690051,,,,,,,2022-10-11,1,,,,,カズミエンタープライズ,0
2567,9011103012237,新規,0,2022-10-11,2022-10-11,ＡＲＡＵＮＡＨ合同会社,,合同会社,東京都,新宿区,若松町２０番３号若松町ハビテーション６０１,,13,104,1620056,,,,,,,2022-10-11,1,,,,,アラウナ,0
2568,9011103012245,新規,0,2022-10-11,2022-10-11,ペット賃貸カンパニー合同会社,,合同会社,東京都,新宿区,西新宿３丁目３番１３号西新宿水間ビル２Ｆ,,13,104,1600023,,,,,,,2022-10-11,1,,,,,ペットチンタイカンパニー,0
2569,9011105010437,新規,0,2022-10-11,2022-10-11,社会保険労務士法人フシ・コンサルティング,,その他の設立登記法人,東京都,新宿区,西新宿７丁目１１番１８号７１１ビル４階,,13,104,1600023,,,,,,,2022-10-11,1,,,,,フシコンサルティング,0
2580,9011701025680,新規,0,2022-10-11,2022-10-11,ＨＫプランニング株式会社,,株式会社,東京都,江戸川区,松江５丁目１６番１０号,,13,123,1320025,,,,,,,2022-10-11,1,,,,,エイチケープランニング,0
2588,9012303001731,新規,0,2022-10-11,2022-10-11,コヤマハウス合同会社,,合同会社,東京都,町田市,森野５丁目１１番１１号,,13,209,1940022,,,,,,,2022-10-11,1,,,,,コヤマハウス,0
2589,9012401039715,新規,0,2022-10-11,2022-10-11,株式会社セカンドティア,,株式会社,東京都,調布市,多摩川１丁目２９番地１エルディア５０２,,13,208,1820025,,,,,,,2022-10-11,1,,,,,セカンドティア,0
2590,9012401039731,新規,0,2022-10-11,2022-10-11,株式会社誠興業,,株式会社,東京都,調布市,染地３丁目１番地１２８３,,13,208,1820023,,,,,,,2022-10-11,1,,,,,マコトコウギョウ,0
2601,9020001148480,新規,0,2022-10-11,2022-10-11,株式会社ＳＡＮＳＯ　ＧＲＯＵＰ,,株式会社,神奈川県,川崎市中原区,木月住吉町３番１０号アーク元住吉２Ｆ,,14,133,2110021,,,,,,,2022-10-11,1,,,,,サンソウグループ,0
2606,9020003022527,新規,0,2022-10-11,2022-10-11,合同会社クリエイティブ,,合同会社,神奈川県,横浜市南区,宿町２丁目２９ルミエール蒔田１Ｆ,,14,105,2320017,,,,,,,2022-10-11,1,,,,,クリエイティブ,0
2607,9020003022535,新規,0,2022-10-11,2022-10-11,合同会社ＭＥＭ,,合同会社,神奈川県,横浜市鶴見区,鶴見中央４丁目４３番１０－６０１号,,14,101,2300051,,,,,,,2022-10-11,1,,,,,エムイーエム,0
2608,9020003022543,新規,0,2022-10-11,2022-10-11,３Ｒｉｖｅｒｓ合同会社,,合同会社,神奈川県,横浜市神奈川区,三ツ沢下町２０番２３－１０１０号,,14,102,2210852,,,,,,,2022-10-11,1,,,,,スリーリバーズ,0
2613,9021001077141,新規,0,2022-10-11,2022-10-11,株式会社小川電設工業,,株式会社,神奈川県,横須賀市,公郷町６丁目２０番地９５,,14,201,2380022,,,,,,,2022-10-11,1,,,,,オガワデンセツコウギョウ,0
2615,9021003012229,新規,0,2022-10-11,2022-10-11,ＫＵＲＯ合同会社,,合同会社,神奈川県,座間市,相模が丘５丁目４２－１０－５０２,,14,216,2520001,,,,,,,2022-10-11,1,,,,,,0
2625,9030001150345,新規,0,2022-10-11,2022-10-11,株式会社鳥まみれ,,株式会社,埼玉県,日高市,大字旭ケ丘４５６番地,,11,242,3501203,,,,,,,2022-10-11,1,,,,,トリマミレ,0
2626,9030001150477,新規,0,2022-10-11,2022-10-11,株式会社フェアリーコテージ,,株式会社,埼玉県,さいたま市浦和区,高砂４丁目１３番８号,,11,107,3300063,,,,,,,2022-10-11,1,,,,,フェアリーコテージ,0
2627,9030001150535,新規,0,2022-10-11,2022-10-11,埼玉フード株式会社,,株式会社,埼玉県,三郷市,栄３丁目４９,,11,237,3410043,,,,,,,2022-10-11,1,,,,,サイタマフード,0
2630,9030003020364,新規,0,2022-10-11,2022-10-11,徳豊興業合同会社,00128082,合同会社,埼玉県,坂戸市,花影町７番２５号ＫＩＶオフィス花影Ｂ号室,,11,239,3500236,,,,,,,2022-10-11,1,,,,,トクトヨコウギョウ,0
2634,9040001125362,新規,0,2022-10-11,2022-10-11,株式会社イデアル経営,,株式会社,千葉県,長生郡睦沢町,上市場２５６番地４１,,12,422,2994403,,,,,,,2022-10-11,1,,,,,イデアルケイエイ,0
2641,9050001051748,新規,0,2022-10-11,2022-10-11,富士産業株式会社,,株式会社,茨城県,土浦市,荒川本郷２１８,,08,203,3000877,,,,,,,2022-10-11,1,,,,,フジサンギョウ,0
2642,9050001051772,新規,0,2022-10-11,2022-10-11,つくばアグテック株式会社,,株式会社,茨城県,つくば市,千現２丁目１番地６,,08,220,3050047,,,,,,,2022-10-11,1,,,,,ツクバアグテック,0
2643,9050001051780,新規,0,2022-10-11,2022-10-11,株式会社みらいアシュランス,,株式会社,茨城県,つくばみらい市,紫峰ヶ丘１丁目５番地４,,08,235,3002359,,,,,,,2022-10-11,1,,,,,ミライアシュランス,0
2644,9050001051797,新規,0,2022-10-11,2022-10-11,ＣＯＴ株式会社,,株式会社,茨城県,取手市,小文間３８６９番地２号,,08,217,3020001,,,,,,,2022-10-11,1,,,,,シーオーティー,0
2647,9050003006907,新規,0,2022-10-11,2022-10-11,ＨＩＲＵ　ＩＮＴＥＲＮＡＴＩＯＮＡＬ合同会社,,合同会社,茨城県,稲敷郡美浦村,大字土屋３１２７番地６９,,08,442,3000426,,,,,,,2022-10-11,1,,,,,ヒルインターナショナル,0
2650,9060001035337,新規,0,2022-10-11,2022-10-11,株式会社小山スイーツＬＡＢＯ,,株式会社,栃木県,小山市,駅南町１丁目２６番２号,,09,208,3230822,,,,,,,2022-10-11,1,,,,,オヤマスイーツラボ,0
2653,9070001039725,新規,0,2022-10-11,2022-10-11,株式会社Ｐａｌｅｔｔｅ,,株式会社,群馬県,邑楽郡大泉町,富士３丁目１４番地２３号,,10,524,3700522,,,,,,,2022-10-11,1,,,,,パレット,0
2665,9100003006711,新規,0,2022-10-11,2022-10-11,Ｐｏｗｄｅｒ　Ｔｒａｃｋｓ　Ｆａｍｉｌｙ　Ｌｏｄｇｅ合同会社,,合同会社,長野県,北安曇郡白馬村,大字神城２２２０３番地６３,,20,485,3999211,,,,,,,2022-10-11,1,,,,,パウダートラックスファミリーロッジ,0
2675,9120001249319,新規,0,2022-10-11,2022-10-11,ＮＭＳ開発株式会社,,株式会社,大阪府,大阪市中央区,南本町２丁目３番１２号ＥＤＧＥ本町３Ｆ,,27,128,5410054,,,,,,,2022-10-11,1,,,,,エヌエムエス,0
2676,9120001249343,新規,0,2022-10-11,2022-10-11,株式会社Ｒ＆Ａ,,株式会社,大阪府,大阪市平野区,長吉長原西３丁目５番２号,,27,126,5470015,,,,,,,2022-10-11,1,,,,,アールアンドエー,0
2677,9120001249368,新規,0,2022-10-11,2022-10-11,株式会社中尾,,株式会社,大阪府,大阪市西区,北堀江１丁目８番１４号,,27,106,5500014,,,,,,,2022-10-11,1,,,,,ナカオ,0
2678,9120001249392,新規,0,2022-10-11,2022-10-11,Ｆ・Ｂ商会株式会社,,株式会社,大阪府,大阪市淀川区,野中南２丁目２番２０号,,27,123,5320022,,,,,,,2022-10-11,1,,,,,エフビーショウカイ,0
2679,9120001249434,新規,0,2022-10-11,2022-10-11,株式会社宝質,,株式会社,大阪府,大阪市天王寺区,東高津町８番１８－２１０２号,,27,109,5430021,,,,,,,2022-10-11,1,,,,,タカラシツ,0
2681,9120003022599,新規,0,2022-10-11,2022-10-11,合同会社ＩＨＢ,,合同会社,大阪府,大阪市西区,江之子島１丁目７－３,,27,106,5500006,,,,,,,2022-10-11,1,,,,,アイエイチビー,0
2682,9120003022616,新規,0,2022-10-11,2022-10-11,樂潼合同会社,,合同会社,大阪府,大阪市東成区,大今里西１丁目１４番１２号ロフト今里４０１号室,,27,115,5370014,,,,,,,2022-10-11,1,,,,,ラクドウ,0
2683,9120003022624,新規,0,2022-10-11,2022-10-11,合同会社ｔ．ｗｏｒｋｓ,,合同会社,大阪府,枚方市,香里ケ丘１２丁目２８番３６号,,27,210,5730084,,,,,,,2022-10-11,1,,,,,ティーワークス,0
2684,9120005023232,新規,0,2022-10-11,2022-10-11,弁護士法人太田・柴田・林法律事務所,,その他の設立登記法人,大阪府,大阪市北区,西天満５丁目１番９号,,27,127,5300047,,,,,,,2022-10-11,1,,,,,オオタシバタハヤシホウリツジムショ,0
2685,9120005023240,新規,0,2022-10-11,2022-10-11,一般社団法人日本ナースオーブ,,その他の設立登記法人,大阪府,大阪市平野区,長吉川辺３丁目１５番１８－７０３号,,27,126,5470014,,,,,,,2022-10-11,1,,,,,ニホンナースオーブ,0
2689,9120101066317,新規,0,2022-10-11,2022-10-11,株式会社為治商事,,株式会社,大阪府,貝塚市,脇浜３丁目１８番３０号,,27,208,5970073,,,,,,,2022-10-11,1,,,,,タメジショウジ,0
2690,9120101066325,新規,0,2022-10-11,2022-10-11,ヤノ金属株式会社,,株式会社,大阪府,羽曳野市,はびきの５丁目２３番１０号,,27,222,5830872,,,,,,,2022-10-11,1,,,,,ヤノキンゾク,0
2691,9120101066341,新規,0,2022-10-11,2022-10-11,株式会社ＴＫＭ,,株式会社,大阪府,堺市中区,新家町７６４番地１２,,27,142,5998232,,,,,,,2022-10-11,1,,,,,ティーケーエム,0
2692,9120103004877,新規,0,2022-10-11,2022-10-11,合同会社エヌ・タスク,,合同会社,大阪府,和泉市,池上町４丁目１１番２５号,,27,219,5940083,,,,,,,2022-10-11,1,,,,,エヌタスク,0
2696,9120901046591,新規,0,2022-10-11,2022-10-11,株式会社Ｒｅ　ｃｏｍｍｕｎｉｃａｔｉｏｎ,,株式会社,大阪府,豊中市,本町５丁目１２番４号メゾン５豊中２－Ｂ,,27,203,5600021,,,,,,,2022-10-11,1,,,,,アールイーコミュニケーション,0
2698,9122001036283,新規,0,2022-10-11,2022-10-11,株式会社ファーストマシン,,株式会社,大阪府,東大阪市,本庄中１丁目２番６号,,27,227,5780957,,,,,,,2022-10-11,1,,,,,ファーストマシン,0
2699,9122001036291,新規,0,2022-10-11,2022-10-11,株式会社ｆｏｒｃｅ,,株式会社,大阪府,東大阪市,東石切町５丁目６番３号,,27,227,5798011,,,,,,,2022-10-11,1,,,,,フォース,0
2701,9122003002432,新規,0,2022-10-11,2022-10-11,合同会社アシスト,,合同会社,大阪府,八尾市,東山本町５丁目７番１４号,,27,212,5810847,,,,,,,2022-10-11,1,,,,,アシスト,0
2705,9130001072769,新規,0,2022-10-11,2022-10-11,大谷園茶舗株式会社,,株式会社,京都府,京都市東山区,今熊野椥ノ森町７番地,,26,105,6050971,,,,,,,2022-10-11,1,,,,,オオタニエンチャホ,0
2709,9130005016607,新規,0,2022-10-11,2022-10-11,司法書士法人玉田事務所,,その他の設立登記法人,京都府,京都市北区,鞍馬口通寺町西入新御霊口町２５３番地３,,26,101,6038146,,,,,,,2022-10-11,1,,,,,タマダジムショ,0
2726,9140001127621,新規,0,2022-10-11,2022-10-11,ＫＩＷＡ株式会社,,株式会社,兵庫県,神戸市兵庫区,荒田町２丁目５番１３－２号,,28,105,6520032,,,,,,,2022-10-11,1,,,,,キワ,0
2727,9140001127662,新規,0,2022-10-11,2022-10-11,株式会社Ｖａｎｉｔｙ,,株式会社,兵庫県,神戸市中央区,下山手通２丁目５番４号１階,,28,110,6500011,,,,,,,2022-10-11,1,,,,,ヴァニティー,0
2728,9140001127679,新規,0,2022-10-11,2022-10-11,株式会社かなえる企画,,株式会社,兵庫県,尼崎市,崇徳院３丁目４２番２４号,,28,202,6600071,,,,,,,2022-10-11,1,,,,,カナエルキカク,0
2736,9140003018216,新規,0,2022-10-11,2022-10-11,合同会社広陵エンジニア,,合同会社,兵庫県,姫路市,神田町１丁目１４番地ハイツホワイトヘロン５０１号,,28,201,6700991,,,,,,,2022-10-11,1,,,,,コウリョウエンジニア,0
2737,9140003018224,新規,0,2022-10-11,2022-10-11,合同会社和,,合同会社,兵庫県,高砂市,米田町塩市８７番地の１０,,28,216,6760806,,,,,,,2022-10-11,1,,,,,ナギ,0
2740,9140005026340,新規,0,2022-10-11,2022-10-11,一般社団法人全国学生就活支援会,,その他の設立登記法人,兵庫県,三田市,下内神５１５番地３８,,28,219,6691333,,,,,,,2022-10-11,1,,,,,ゼンコクガクセイシュウカツシエンカイ,0
2742,9150001025865,新規,0,2022-10-11,2022-10-11,株式会社道武サービス,,株式会社,奈良県,生駒市,西松ケ丘１６－４４,,29,209,6300246,,,,,,,2022-10-11,1,,,,,ミチタケサービス,0
2745,9160001024560,新規,0,2022-10-11,2022-10-11,株式会社ＫＡＮＡＵ,,株式会社,滋賀県,草津市,駒井沢町２４２番地５,,25,206,5250014,,,,,,,2022-10-11,1,,,,,カナウ,0
2746,9160003002696,新規,0,2022-10-11,2022-10-11,合同会社ツバサ,,合同会社,滋賀県,湖南市,石部西１丁目５番地の１マイルストーンズ１０２号室,,25,211,5203105,,,,,,,2022-10-11,1,,,,,ツバサ,0
2747,9160005011126,新規,0,2022-10-11,2022-10-11,シェプラス税理士法人,,その他の設立登記法人,滋賀県,大津市,大萱１丁目９番８号,,25,201,5202144,,,,,,,2022-10-11,1,,,,,シェプラス,0
2756,9180001153309,新規,0,2022-10-11,2022-10-11,株式会社Ｅｒｆｏｒｌｉｎｋ,,株式会社,愛知県,瀬戸市,西本地町１丁目１５８番地の１,,23,204,4890971,,,,,,,2022-10-11,1,,,,,エアフォリンク,0
2757,9180001153358,新規,0,2022-10-11,2022-10-11,株式会社レイズ,,株式会社,愛知県,豊明市,栄町武侍２２番地７,,23,229,4701161,,,,,,,2022-10-11,1,,,,,レイズ,0
2758,9180001153390,新規,0,2022-10-11,2022-10-11,株式会社ポジティブドア,,株式会社,愛知県,名古屋市天白区,中平３丁目１３０２番地（サニーコート２０７号）,,23,116,4680014,,,,,,,2022-10-11,1,,,,,ポジティブドア,0
2765,9180003024350,新規,0,2022-10-11,2022-10-11,合同会社ｉｄｉｏｍｓ,,合同会社,愛知県,名古屋市名東区,本郷２丁目１５番地,,23,115,4650024,,,,,,,2022-10-11,1,,,,,イディオム,0
2769,9180301036700,新規,0,2022-10-11,2022-10-11,エキスパートジャパン株式会社,,株式会社,愛知県,豊橋市,東幸町字大山１７番地の２８,,23,201,4400843,,,,,,,2022-10-11,1,,,,,エキスパートジャパン,0
2776,9200001040537,新規,0,2022-10-11,2022-10-11,株式会社いいな不動産,,株式会社,岐阜県,岐阜市,中屋西２５番地,,21,201,5012532,,,,,,,2022-10-11,1,,,,,イイナフドウサン,0
2777,9210001019118,新規,0,2022-10-11,2022-10-11,株式会社光明寺ブロック,,株式会社,福井県,福井市,木田町１９１２番地３,,18,201,9188106,,,,,,,2022-10-11,1,,,,,コウミョウジブロック,0
2779,9220003003374,新規,0,2022-10-11,2022-10-11,合同会社デイライトスタジオ,,合同会社,石川県,河北郡津幡町,字北中条１２号４１番地２,,17,361,9290342,,,,,,,2022-10-11,1,,,,,デイライトスタジオ,0
2790,9280001008799,新規,0,2022-10-11,2022-10-11,株式会社ｃｕｌｌｉｔａｎ,,株式会社,島根県,松江市,殿町１２３－１,,32,201,6900887,,,,,,,2022-10-11,1,,,,,カリタン,0
2793,9280005007509,新規,0,2022-10-11,2022-10-11,隠岐清掃事業協同組合,,その他の設立登記法人,島根県,隠岐郡隠岐の島町,西田曽久良３１９番地２,,32,528,6850023,,,,,,,2022-10-11,1,,,,,オキセイソウ,0
2800,9290003013045,新規,0,2022-10-11,2022-10-11,合同会社ＬＡＶＥＲ,,合同会社,福岡県,柳川市,有明町１４１８番地,,40,207,8320054,,,,,,,2022-10-11,1,,,,,レイバー,0
2802,9290005018802,新規,0,2022-10-11,2022-10-11,一般社団法人クラウドファンディング出資者保全協会,,その他の設立登記法人,福岡県,柳川市,間３３５,,40,207,8320088,,,,,,,2022-10-11,1,,,,,クラウドファンディングシュッシシャホゼンキョウカイ,0
2803,9290005018827,新規,0,2022-10-11,2022-10-11,ＴＤＦウエストジャパン運輸協同組合,,その他の設立登記法人,福岡県,糟屋郡篠栗町,大字尾仲５５３番地３号,,40,342,8112413,,,,,,,2022-10-11,1,,,,,ティーディーエフウエストジャパンウンユ,0
2809,9310001018076,新規,0,2022-10-11,2022-10-11,株式会社Ｓｋｙ　ＭＩＳＳＩＯＮ,,株式会社,長崎県,島原市,緑町８２５８番地Ｃ号,,42,203,8550867,,,,,,,2022-10-11,1,,,,,スカイミッション,0
2811,9310003004462,新規,0,2022-10-11,2022-10-11,合同会社ＭＹＳ,,合同会社,長崎県,五島市,上大津町３２４番地１,,42,211,8530013,,,,,,,2022-10-11,1,,,,,,0
2813,9320001019370,新規,0,2022-10-11,2022-10-11,株式会社イツキ,,株式会社,大分県,国東市,武蔵町糸原２５１７番地,,44,214,8730421,,,,,,,2022-10-11,1,,,,,イツキ,0
2822,9350001017990,新規,0,2022-10-11,2022-10-11,ブリスフォーグッド株式会社,,株式会社,宮崎県,宮崎市,大字浮田３１２８番地１,,45,201,8802104,,,,,,,2022-10-11,1,,,,,ブリスフォーグッド,0
2825,9360003012353,新規,0,2022-10-11,2022-10-11,合同会社Ｆｕｉｖｅ,,合同会社,沖縄県,沖縄市,久保田２丁目３０－２２,,47,211,9040023,,,,,,,2022-10-11,1,,,,,ファイブ,0
2827,9380001033143,新規,0,2022-10-11,2022-10-11,株式会社東星興業,,株式会社,福島県,郡山市,富田町字中ノ目３９番地エスタシオンＫＩＩ１０２,00128084,07,203,9638041,,,,,,,2022-10-11,1,,,,,トウセイコウギョウ,0
2831,9380005012630,新規,0,2022-10-11,2022-10-11,一般社団法人絆親睦会,,その他の設立登記法人,福島県,本宮市,長屋字征矢田６番地,,07,214,9691206,,,,,,,2022-10-11,1,,,,,キズナシンボクカイ,0
2833,9400001016021,新規,0,2022-10-11,2022-10-11,東洋オートサービス株式会社,,株式会社,岩手県,盛岡市,上太田松ノ木７番地２,,03,201,0200053,,,,,,,2022-10-11,1,,,,,トウヨウオートサービス,0
2836,9430003014334,新規,0,2022-10-11,2022-10-11,Ｍｉｌｌｅｎｎｉｕｍ　Ｋｉｎｇｓ合同会社,,合同会社,北海道,札幌市中央区,南七条西８丁目１番地１１ローレル７・８－１Ｆテナント,,01,101,0640807,,,,,,,2022-10-11,1,,,,,ミレニアムキングス,0
2837,9450001013815,新規,0,2022-10-11,2022-10-11,株式会社Ｓｏｐｈｙ　Ｐａｒｔｎｅｒｓ,,株式会社,北海道,上川郡美瑛町,字旭北星,,01,459,0710261,,,,,,,2022-10-11,1,,,,,ソフィーパートナーズ,0
2839,9480001011873,新規,0,2022-10-11,2022-10-11,株式会社学進,,株式会社,徳島県,徳島市,八百屋町１丁目１０番地,,36,201,7700841,,,,,,,2022-10-11,1,,,,,ガクシン,0
2845,9500001024492,新規,0,2022-10-11,2022-10-11,株式会社龍香,,株式会社,愛媛県,大洲市,田口甲２４９６番地１,,38,207,7950063,,,,,,,2022-10-11,1,,,,,リュウカ,0
