sequenceNumber,corporateNumber,process,correct,updateDate,changeDate,name,nameImageId,kind,prefectureName,cityName,streetNumber,addressImageId,prefectureCode,cityCode,postCode,addressOutside,addressOutsideImageId,closeDate,closeCause,successorCorporateNumber,changeCause,assignmentDate,latest,enName,enPrefectureName,enCityName,enAddressOutside,furigana,hihyoji
8,1010001241789,新規,0,2024-01-26,2024-01-26,株式会社エマクリエイト,,株式会社,東京都,千代田区,外神田３丁目６番１号第一協和ビル３階,,13,101,1010021,,,,,,,2024-01-26,1,,,,,エマクリエイト,0
9,1010001241830,新規,0,2024-01-26,2024-01-26,株式会社ナーシング＆ヘルスケア研究所,,株式会社,東京都,中央区,銀座１丁目２２番１１号銀座大竹ビジデンス２Ｆ,,13,102,1040061,,,,,,,2024-01-26,1,,,,,ナーシングアンドヘルスケアケンキュウショ,0
11,1010003042772,新規,0,2024-01-26,2024-01-26,Ｋｎｏｗｖａｔｅ合同会社,,合同会社,東京都,中央区,新川１丁目２７番８号新川大原ビル８階,,13,102,1040033,,,,,,,2024-01-26,1,,,,,ノーベート,0
38,1010801034731,新規,0,2024-01-26,2024-01-26,株式会社ネクストウイング,,株式会社,東京都,大田区,蒲田４丁目３番８号アービラ京浜蒲田４０４号室,,13,111,1440052,,,,,,,2024-01-26,1,,,,,,0
46,1010903008690,新規,0,2024-01-26,2024-01-26,合同会社Ｔｅｃｋ‐Ｊ,,合同会社,東京都,世田谷区,代田４丁目８番９号トーキョーベータ新代田１０４,,13,112,1550033,,,,,,,2024-01-26,1,,,,,テックジェイ,0
47,1010903008765,新規,0,2024-01-26,2024-01-26,合同会社セミプロダクション,,合同会社,東京都,世田谷区,祖師谷４丁目２８番４－２０２号,,13,112,1570072,,,,,,,2024-01-26,1,,,,,セミプロダクション,0
55,1011001159625,新規,0,2024-01-26,2024-01-26,株式会社Ｆ．ｔａｓｔｅ,,株式会社,東京都,渋谷区,恵比寿南２丁目３番１５号ｏａｋ７ビル２階,,13,113,1500022,,,,,,,2024-01-26,1,,,,,エフテイスト,0
56,1011001159641,新規,0,2024-01-26,2024-01-26,株式会社ＭＩＡＧＥＲＵ,,株式会社,東京都,目黒区,下目黒１丁目１番１４号コノトラビル７Ｆ,,13,110,1530064,,,,,,,2024-01-26,1,,,,,ミアゲル,0
58,1011003018366,新規,0,2024-01-26,2024-01-26,合同会社合格プラス,,合同会社,東京都,渋谷区,道玄坂１丁目１０番８号渋谷道玄坂東急ビル２Ｆ－Ｃ,,13,113,1500043,,,,,,,2024-01-26,1,,,,,ゴウカクプラス,0
59,1011003018374,新規,0,2024-01-26,2024-01-26,Ｋ．Ｙ．ｃｏｎｓｕｌｔｉｎｇ合同会社,,合同会社,東京都,渋谷区,渋谷２丁目１９－１５宮益坂ビルディング６０９,,13,113,1500002,,,,,,,2024-01-26,1,,,,,ケーワイコンサルティング,0
75,1011101105974,新規,0,2024-01-26,2024-01-26,ＴＯＫＹＯ　ＰＬＵＳ株式会社,,株式会社,東京都,新宿区,高田馬場１丁目３１－８－５２０,,13,104,1690075,,,,,,,2024-01-26,1,,,,,トウキョウプラス,0
82,1011105010923,新規,0,2024-01-26,2024-01-26,一般社団法人全国定期借地借家協会,,その他の設立登記法人,東京都,新宿区,新宿１丁目１４番２号ＡＳビル５階,,13,104,1600022,,,,,,,2024-01-26,1,,,,,ゼンコクテイキシャクチシャッカキョウカイ,0
87,1011301029354,新規,0,2024-01-26,2024-01-26,株式会社祥雲,,株式会社,東京都,杉並区,阿佐谷南３丁目３７番１号,,13,115,1660004,,,,,,,2024-01-26,1,,,,,ショウウン,0
104,1011501030236,新規,0,2024-01-26,2024-01-26,株式会社ＳＵＮＦＡＣＥ,,株式会社,東京都,北区,西ケ原１丁目４３番３－４０１号アシュレ駒込,,13,117,1140024,,,,,,,2024-01-26,1,,,,,サンフェイス,0
106,1011503005921,新規,0,2024-01-26,2024-01-26,合同会社ＩＬＬＶＩＢＥＳ,,合同会社,東京都,北区,浮間５丁目１番１５－２１１号レオパレスソレーユ,,13,117,1150051,,,,,,,2024-01-26,1,,,,,イルバイブス,0
113,1011801043697,新規,0,2024-01-26,2024-01-26,株式会社瑞達,,株式会社,東京都,葛飾区,新小岩１丁目５１－１７,,13,122,1240024,,,,,,,2024-01-26,1,,,,,ズイタツ,0
114,1011805003334,新規,0,2024-01-26,2024-01-26,一般社団法人中日経営支援総商会,,その他の設立登記法人,東京都,葛飾区,東新小岩７丁目３０番１３号内山ビル３０２,,13,122,1240023,,,,,,,2024-01-26,1,,,,,チュウニチケイエイシエンソウショウカイ,0
128,1013301051932,新規,0,2024-01-26,2024-01-26,ＴＲＡＶＡＬＯ　ＪＡＰＡＮ株式会社,,株式会社,東京都,豊島区,巣鴨３丁目２１番２６号田村ビル４０２号,,13,116,1700002,,,,,,,2024-01-26,1,,,,,トラヴァーロジャパン,0
129,1013301051957,新規,0,2024-01-26,2024-01-26,クマールカレー＆ビリヤニ株式会社,,株式会社,東京都,豊島区,長崎４丁目８－１５－４号室,,13,116,1710051,,,,,,,2024-01-26,1,,,,,クマールカレーアンドビリヤニ,0
130,1013305003566,新規,0,2024-01-26,2024-01-26,一般社団法人キッズソリューション,,その他の設立登記法人,東京都,豊島区,南大塚３丁目３６番７号南大塚Ｔ＆Ｔビル６Ｆ,,13,116,1700005,,,,,,,2024-01-26,1,,,,,キッズソリューション,0
138,1020001155484,新規,0,2024-01-26,2024-01-26,第二成辰株式会社,,株式会社,神奈川県,横浜市緑区,十日市場町８１３番地１,,14,113,2260025,,,,,,,2024-01-26,1,,,,,ダイニセイシン,0
139,1020001155534,新規,0,2024-01-26,2024-01-26,株式会社ＰＬコーポレーション,,株式会社,神奈川県,横浜市西区,戸部町１丁目１,,14,103,2200042,,,,,,,2024-01-26,1,,,,,ピーエルコーポレーション,0
148,1021003014067,新規,0,2024-01-26,2024-01-26,グラリス合同会社,,合同会社,神奈川県,相模原市南区,相武台１丁目１３―９,,14,153,2520324,,,,,,,2024-01-26,1,,,,,グラリス,0
149,1021003014083,新規,0,2024-01-26,2024-01-26,合同会社ＳＡＴＥＬＬＡ,,合同会社,神奈川県,秦野市,鶴巻北１丁目１１番１―４１７号,,14,211,2570001,,,,,,,2024-01-26,1,,,,,サテラ,0
159,1030001158354,新規,0,2024-01-26,2024-01-26,日成株式会社,,株式会社,埼玉県,さいたま市大宮区,桜木町３丁目１７７番地１ゴスペルマンション１階事務所,,11,103,3300854,,,,,,,2024-01-26,1,,,,,ニッセイ,0
160,1030001158395,新規,0,2024-01-26,2024-01-26,株式会社アイワクリエーション,,株式会社,埼玉県,東松山市,五領町２番地２６コーポ関根１０６,,11,212,3550031,,,,,,,2024-01-26,1,,,,,アイワクリエーション,0
184,1040001131913,新規,0,2024-01-26,2024-01-26,株式会社仁工業,,株式会社,千葉県,八街市,八街は６５番地１２６,,12,230,2891107,,,,,,,2024-01-26,1,,,,,ジンコウギョウ,0
219,1040003024198,新規,0,2024-01-26,2024-01-26,合同会社よーい丼,,合同会社,千葉県,船橋市,習志野台４丁目１２番３棟５０２号,,12,204,2740063,,,,,,,2024-01-26,1,,,,,ヨーイドン,0
232,1080001026102,新規,0,2024-01-26,2024-01-26,ココ・エステート株式会社,,株式会社,静岡県,静岡市駿河区,小黒３丁目１番３５号,,22,102,4228072,,,,,,,2024-01-26,1,,,,,ココエステート,0
233,1080003003124,新規,0,2024-01-26,2024-01-26,合同会社永田総合事務所,,合同会社,静岡県,藤枝市,青木１丁目１１番１号,,22,214,4260037,,,,,,,2024-01-26,1,,,,,ナガタソウゴウジムショ,0
252,1100001037105,新規,0,2024-01-26,2024-01-26,株式会社ＴＲＹ　ｗｏｒｋｓ,,株式会社,長野県,中野市,大字吉田１２９５番地６,,20,211,3830015,,,,,,,2024-01-26,1,,,,,トライワークス,0
268,1120001261264,新規,0,2024-01-26,2024-01-26,ＫＲ‐Ｅ　Ｇｒｏｗｔｈ株式会社,,株式会社,大阪府,大阪市浪速区,大国２丁目５－１１エグゼ難波ミナミＩＩ９０１,00133526,27,111,5560014,,,,,,,2024-01-26,1,,,,,ケイアールイーグロース,0
269,1120001261405,新規,0,2024-01-26,2024-01-26,株式会社ＧＡＩＡエネルギーＪＡＰＡＮ,,株式会社,大阪府,大阪市北区,梅田１丁目３番１号,,27,127,5300001,,,,,,,2024-01-26,1,,,,,ガイアエネルギージャパン,0
270,1120001261652,新規,0,2024-01-26,2024-01-26,秀峰株式会社,,株式会社,大阪府,大阪市生野区,中川西１丁目１７－１０テンシンビル２Ｅ,,27,116,5440032,,,,,,,2024-01-26,1,,,,,シュウホウ,0
271,1120001261660,新規,0,2024-01-26,2024-01-26,泉匯株式会社,,株式会社,大阪府,大阪市城東区,野江３丁目２７番７号野江１番館４０５号,,27,118,5360006,,,,,,,2024-01-26,1,,,,,センカイ,0
272,1120001261669,新規,0,2024-01-26,2024-01-26,株式会社プロサーチホールディングス,,株式会社,大阪府,大阪市北区,芝田２丁目３番１９号東洋ビル本館３１５,,27,127,5300012,,,,,,,2024-01-26,1,,,,,プロサーチホールディングス,0
273,1120001261677,新規,0,2024-01-26,2024-01-26,株式会社Ｈ・エスティ,,株式会社,大阪府,大阪市西区,阿波座１丁目７番１２号東新ビル１０階,,27,106,5500011,,,,,,,2024-01-26,1,,,,,,0
274,1120001261693,新規,0,2024-01-26,2024-01-26,株式会社ＴＯＶＩＲＡ,,株式会社,大阪府,大阪市中央区,船越町２丁目４番５号,,27,128,5400036,,,,,,,2024-01-26,1,,,,,トビラ,0
275,1120001261702,新規,0,2024-01-26,2024-01-26,株式会社森帽子店,,株式会社,大阪府,大阪市中央区,船場中央３丁目２番８号船場センタービル８号館地下１階南通り,,27,128,5410055,,,,,,,2024-01-26,1,,,,,モリボウシテン,0
281,1120003025733,新規,0,2024-01-26,2024-01-26,合同会社ケイバイオ,,合同会社,大阪府,大阪市淀川区,西中島３丁目７番８号ＮＬＣ新大阪１７号館３０２号室,,27,123,5320011,,,,,,,2024-01-26,1,,,,,ケイバイオ,0
282,1120003025766,新規,0,2024-01-26,2024-01-26,一川合同会社,,合同会社,大阪府,大阪市住吉区,長居西２丁目５－２２号－２０１,,27,120,5580002,,,,,,,2024-01-26,1,,,,,イチカワ,0
283,1120003025782,新規,0,2024-01-26,2024-01-26,合同会社クレアス,,合同会社,大阪府,枚方市,宗谷１丁目１５番５－２０５号,,27,210,5730113,,,,,,,2024-01-26,1,,,,,クレアス,0
287,1122001037768,新規,0,2024-01-26,2024-01-26,株式会社セーレンス,,株式会社,大阪府,東大阪市,加納４丁目４番２４号,,27,227,5780901,,,,,,,2024-01-26,1,,,,,セーレンス,0
289,1122005003733,新規,0,2024-01-26,2024-01-26,医療法人ふるかわ内科クリニック,,その他の設立登記法人,大阪府,八尾市,跡部北の町３丁目１番２６号久宝寺クリニックビル１階,,27,212,5810068,,,,,,,2024-01-26,1,,,,,フルカワナイカクリニック,0
299,1140003020105,新規,0,2024-01-26,2024-01-26,合同会社昇永,,合同会社,兵庫県,川西市,一庫３丁目６－１０,,28,217,6660153,,,,,,,2024-01-26,1,,,,,ショウエイ,0
319,1240001062725,新規,0,2024-01-26,2024-01-26,株式会社ＡＬＬ‐ＴＨＡＴ,,株式会社,広島県,広島市中区,東白島町２１番１０号東白ビル１０１,,34,101,7300004,,,,,,,2024-01-26,1,,,,,オールザット,0
323,1250001020491,新規,0,2024-01-26,2024-01-26,株式会社山崎果樹園,00133511,株式会社,山口県,山口市,仁保下郷２７６番地,,35,203,7530303,,,,,,,2024-01-26,1,,,,,ヤマサキカジュエン,0
326,1270003001595,新規,0,2024-01-26,2024-01-26,合同会社Ｌｉａｉｓｏｎ,,合同会社,鳥取県,鳥取市,湖山町北４丁目７４３番地,,31,201,6800941,,,,,,,2024-01-26,1,,,,,リエゾン,0
327,1290005019279,新規,0,2024-01-26,2024-01-26,医療法人友志会,,その他の設立登記法人,福岡県,宗像市,赤間４丁目１０－１１,,40,220,8114146,,,,,,,2024-01-26,1,,,,,ユウシカイ,0
336,1310001018827,新規,0,2024-01-26,2024-01-26,株式会社３Ｄデンタルシステム,,株式会社,長崎県,島原市,白山町２６番地,,42,203,8550824,,,,,,,2024-01-26,1,,,,,スリーディーデンタルシステム,0
354,1330003010177,新規,0,2024-01-26,2024-01-26,合同会社上村商事,,合同会社,熊本県,八代市,田中町２８番地２,,43,202,8660872,,,,,,,2024-01-26,1,,,,,ウエムラショウジ,0
361,1360003013656,新規,0,2024-01-26,2024-01-26,合同会社イーワイ,,合同会社,沖縄県,那覇市,高良１丁目１番１１号,,47,201,9010145,,,,,,,2024-01-26,1,,,,,イーワイ,0
362,1370001050873,新規,0,2024-01-26,2024-01-26,株式会社三樹,,株式会社,宮城県,仙台市泉区,長命ケ丘１丁目１６－１４,,04,105,9813212,,,,,,,2024-01-26,1,,,,,ミツキ,0
363,1370001050881,新規,0,2024-01-26,2024-01-26,株式会社亀岡ベース,,株式会社,宮城県,東松島市,野蒜字亀岡３４番地３,,04,214,9810411,,,,,,,2024-01-26,1,,,,,カメオカベース,0
364,1370003006460,新規,0,2024-01-26,2024-01-26,合同会社辻建,,合同会社,宮城県,気仙沼市,本吉町卯名沢２４１－２,,04,205,9880313,,,,,,,2024-01-26,1,,,,,ツジケン,0
371,1400001016532,新規,0,2024-01-26,2024-01-26,株式会社バイオマスレジン北日本,,株式会社,岩手県,紫波郡矢巾町,大字西徳田第８地割９８番地１,,03,322,0283603,,,,,,,2024-01-26,1,,,,,バイオマスレジンキタニホン,0
372,1420003002867,新規,0,2024-01-26,2024-01-26,合同会社ＭＡ,,合同会社,青森県,青森市,桜川５丁目１０番１６号,,02,201,0300945,,,,,,,2024-01-26,1,,,,,エムエー,0
388,1700150117753,新規,0,2024-01-26,2024-01-26,ｈｅｎｇｓｈｕｉｔｕｏｌａｎｓｈａｎｇｍａｏｙｏｕｘｉａｎｇｏｎｇｓｉ,,外国会社等,,,,,,,,ｈｅｎｇｓｈｕｉｓｈｉｊｉｚｈｏｕｑｕｘｉｗａｎｇｚｈｅｎｂａｉｙａｃｕｎ５８ｈａｏ,,,,,,2024-01-26,1,,,,,ヘンシュイトゥオランシャンマオヨウシエンゴンス,0
389,1700150120179,新規,0,2024-01-26,2024-01-26,Ｆｕｊｉａｎ　Ｙａｎｉｏｎ　Ｉｎｔｅｒｎａｔｉｏｎａｌ　Ｔｒａｄｅ　Ｌｔｄ,,外国会社等,,,,,,,,ｐｉｎｇｔａｎｘｉａｎｔａｎｃｈｅｎｇｚｈｅｎｃｈｅｎｇｎａｎｃｕｎｊｉｎｈｕｘｉａｏｑｕ８ｈａｏ５ｃｅｎｇＢｑｕ－７ｆｕｚｈｏｕｆｕｊｉａｎ３５０４００ＣＮ,,,,,,2024-01-26,1,,,,,フゥジエンヤニオンインターナショナルトレードリミテッド,0
390,1700150121466,新規,0,2024-01-26,2024-01-26,ＧｕａｎｇｚｈｏｕＳｈｉＨｕｉｚｈｉＧｕｏｊｉＤｉａｎｚｉＳｈａｎｇｗｕＹｏｕｘｉａｎＧｏｎｇｓｉ,,外国会社等,,,,,,,,Ｒ８０６，８ｔｈ　Ｆｌｏｏｒ，Ｎｏ．６８９，Ｊｉａｎｇｎａｎ　Ａｖｅｎｕｅ　Ｓｏｕｔｈ，Ｈａｉｚｈｕ　ＡｒｅａＧｕａｎｇｚｈｏｕ５１０２８８ＣＮ,,,,,,2024-01-26,1,,,,,グワンジョウシホゥイジーグオジーディエンズシャンウーヨウシエンゴンス,0
391,1700150121714,新規,0,2024-01-26,2024-01-26,Ｉｎｎｏｖａ　Ｉｄｅａｓ　Ｌｉｍｉｔｅｄ,,外国会社等,,,,,,,,ＵＮＩＴ　Ａ１，３／Ｆ，ＢＬＯＣＫ　４　ＧＯＬＤＥＮ　ＤＲＡＧＯＮ　ＩＮＤＵＳＴＲＩＡＬ　ＣＴＲ，１８２－１９０　ＴＡＩ　ＬＩＮ　ＰＡＩ　ＲＤ，ＫＷＡＩ　ＣＨＵＮＧＮＴ０００００ＨＫ,,,,,,2024-01-26,1,,,,,イノーバアイデアズリミテッド,0
392,1700150121739,新規,0,2024-01-26,2024-01-26,ｓｈｅｎｚｈｅｎｓｈｉｘｉｎｊｉｅｓｈｉｙｅｙｏｕｘｉａｎｇｏｎｇｓｉ,,外国会社等,,,,,,,,Ｓａｎｌｉａｎ　Ｃｏｍｍｕｎｉｔｙ，Ｌｏｎｇｈｕａ　ＳｔｒｅｅｔＲｏｏｍ　９０１，Ｎｏ．５６，ＴｅｎｇｌｏｎｇＧａｒｄｅｎＳｈｅｎｚｈｅｎｌｏｎｇｈｕａｑｕＧｕａｎｇｄｏｎｇ５１８１０９ＣＮ,,,,,,2024-01-26,1,,,,,シェンジェンシシンジエシーイエヨウシエンゴンス,0
393,1700150122035,新規,0,2024-01-26,2024-01-26,ＢＩＮＩＮＢＯＸ　ＩＮＴＥＲＮＡＴＩＯＮ　ＩＮＣ．,,外国会社等,,,,,,,,１３１２　１７ｔｈ　ＳｔｒｅｅｔＳｕｉｔｅ　６９２ＤＥＮＶＥＲＣＯ８０２０２ＵＳ,,,,,,2024-01-26,1,,,,,ビンインボックスインターナショナルインク,0
398,2010001241796,新規,0,2024-01-26,2024-01-26,株式会社モロ,,株式会社,東京都,中央区,銀座１丁目１２番４号Ｎ＆ＥＢＬＤ．６Ｆ,,13,102,1040061,,,,,,,2024-01-26,1,,,,,モロ,0
402,2010003042739,新規,0,2024-01-26,2024-01-26,グッドベア合同会社,,合同会社,東京都,中央区,銀座１丁目２２番１１号銀座大竹ビジデンス２Ｆ,,13,102,1040061,,,,,,,2024-01-26,1,,,,,グッドベア,0
403,2010003042771,新規,0,2024-01-26,2024-01-26,イングリーチングリー合同会社,,合同会社,東京都,千代田区,神田駿河台１丁目５－６コトー駿河台６０７,,13,101,1010062,,,,,,,2024-01-26,1,,,,,イングリーチングリー,0
404,2010003042796,新規,0,2024-01-26,2024-01-26,ＨＡＬＣ合同会社,,合同会社,東京都,文京区,千石３丁目４１－１８－７０２,,13,105,1120011,,,,,,,2024-01-26,1,,,,,ハルク,0
405,2010005037786,新規,0,2024-01-26,2024-01-26,一般社団法人日本マレーシアハラール経済協会,,その他の設立登記法人,東京都,中央区,京橋２丁目８番１号,,13,102,1040031,,,,,,,2024-01-26,1,,,,,ニホンマレーシアハラールケイザイキョウカイ,0
409,2010405022875,新規,0,2024-01-26,2024-01-26,一般社団法人日本抹茶協会,,その他の設立登記法人,東京都,港区,赤坂９丁目６番１５号ＡＲＴＲＩＰ３Ｆ,,13,103,1070052,,,,,,,2024-01-26,1,,,,,ニホンマッチャキョウカイ,0
411,2010601064548,新規,0,2024-01-26,2024-01-26,明沢株式会社,,株式会社,東京都,墨田区,本所２丁目１０番５号稲葉ビル２０１,,13,107,1300004,,,,,,,2024-01-26,1,,,,,メイサワ,0
419,2010703007033,新規,0,2024-01-26,2024-01-26,合同会社ＦＭＣ,,合同会社,東京都,品川区,西五反田４丁目３１番２１ガーデンコーポ不動前５０１,,13,109,1410031,,,,,,,2024-01-26,1,,,,,エフエムシー,0
420,2010705003583,新規,0,2024-01-26,2024-01-26,一般財団法人心臓シミュレーター基金,,その他の設立登記法人,東京都,品川区,大崎１丁目２番２号,,13,109,1410032,,,,,,,2024-01-26,1,,,,,シンゾウシミュレーターキキン,0
425,2010801034739,新規,0,2024-01-26,2024-01-26,ＣＡＲｉｎｇ株式会社,,株式会社,東京都,大田区,下丸子２丁目１０番７号,,13,111,1460092,,,,,,,2024-01-26,1,,,,,ケアリング,0
436,2010903008764,新規,0,2024-01-26,2024-01-26,合同会社シースウェイ,,合同会社,東京都,世田谷区,松原６丁目１６－１７,,13,112,1560043,,,,,,,2024-01-26,1,,,,,シースウェイ,0
437,2010903008772,新規,0,2024-01-26,2024-01-26,合同会社ＬＩＥＮ,,合同会社,東京都,世田谷区,粕谷１丁目１７番１４－４０１号,,13,112,1570063,,,,,,,2024-01-26,1,,,,,リアン,0
443,2011001159608,新規,0,2024-01-26,2024-01-26,株式会社オクムラ企画,,株式会社,東京都,目黒区,碑文谷３丁目９番２２号,,13,110,1520003,,,,,,,2024-01-26,1,,,,,オクムラキカク,0
444,2011001159616,新規,0,2024-01-26,2024-01-26,祥雲アセット・クリエイト株式会社,,株式会社,東京都,渋谷区,恵比寿西２丁目８番４号ＥＸ恵比寿西ビル５階,,13,113,1500021,,,,,,,2024-01-26,1,,,,,ショウウンアセットクリエイト,0
446,2011003018365,新規,0,2024-01-26,2024-01-26,合同会社ＣＡＬＭ,,合同会社,東京都,渋谷区,千駄ヶ谷２丁目３１番２０号１０２,,13,113,1510051,,,,,,,2024-01-26,1,,,,,カルム,0
447,2011003018373,新規,0,2024-01-26,2024-01-26,松田不動産経営合同会社,,合同会社,東京都,渋谷区,笹塚１丁目１９番１０号,,13,113,1510073,,,,,,,2024-01-26,1,,,,,マツダフドウサンケイエイ,0
455,2011101105957,新規,0,2024-01-26,2024-01-26,株式会社Ｕｂｉｑｕｉｔｏｕｓ　Ｓｏｌｕｔｉｏｎ,,株式会社,東京都,新宿区,北新宿３丁目１２番３号ヒーリング・ガーデン３０３,,13,104,1690074,,,,,,,2024-01-26,1,,,,,ユビキタスソリューション,0
456,2011101105973,新規,0,2024-01-26,2024-01-26,株式会社Ｂ．Ｂ建設,,株式会社,東京都,新宿区,西新宿５丁目１０－４フロンティア１Ｆ,,13,104,1600023,,,,,,,2024-01-26,1,,,,,ビービーケンセツ,0
461,2011103014025,新規,0,2024-01-26,2024-01-26,合同会社ＫＯＮＧＯＵ,,合同会社,東京都,新宿区,矢来町３０番地５イプセ神楽坂１０５号,,13,104,1620805,,,,,,,2024-01-26,1,,,,,コンゴー,0
489,2011501030235,新規,0,2024-01-26,2024-01-26,ＨＩＭＥＣＡＲＥ株式会社,,株式会社,東京都,荒川区,西日暮里１丁目１４番４ハイツ西日暮里７０３,,13,118,1160013,,,,,,,2024-01-26,1,,,,,ヒメケア,0
505,2013301051931,新規,0,2024-01-26,2024-01-26,株式会社みらい製作所,,株式会社,東京都,豊島区,巣鴨１丁目９番１号グランド東邦ビル,,13,116,1700002,,,,,,,2024-01-26,1,,,,,ミライセイサクジョ,0
506,2013301051964,新規,0,2024-01-26,2024-01-26,瑞愛日本株式会社,,株式会社,東京都,豊島区,池袋２丁目５８番５－５０３号,,13,116,1710014,,,,,,,2024-01-26,1,,,,,ミズアイニホン,0
513,2020001155500,新規,0,2024-01-26,2024-01-26,株式会社みなとりこ,,株式会社,神奈川県,横浜市西区,紅葉ケ丘１番地１横濱紅葉坂レジデンス３－９１４号,,14,103,2200044,,,,,,,2024-01-26,1,,,,,ミナトリコ,0
514,2020001155509,新規,0,2024-01-26,2024-01-26,株式会社Ｕ　ｃｌａｎ　Ｃｏｎｓｕｌｔｉｎｇ,,株式会社,神奈川県,横浜市中区,北仲通５丁目５７番地２－１６２６号室,,14,104,2310003,,,,,,,2024-01-26,1,,,,,ユウクランコンサルティング,0
515,2020001155525,新規,0,2024-01-26,2024-01-26,株式会社椿,,株式会社,神奈川県,横浜市西区,西平沼町１番２２号,,14,103,2200024,,,,,,,2024-01-26,1,,,,,ツバキ,0
516,2020001155533,新規,0,2024-01-26,2024-01-26,嘉華株式会社,,株式会社,神奈川県,横浜市南区,高根町１丁目３桝屋ビル５０１,,14,105,2320022,,,,,,,2024-01-26,1,,,,,ヨシカ,0
518,2020003025404,新規,0,2024-01-26,2024-01-26,合同会社ヴァコンス・デ・テ,,合同会社,神奈川県,横浜市西区,北幸１丁目１１番１号,,14,103,2200004,,,,,,,2024-01-26,1,,,,,ヴァコンスデテ,0
522,2021005013009,新規,0,2024-01-26,2024-01-26,ＮＰＯ法人インドネシア路上猫の楽園,,その他の設立登記法人,神奈川県,鎌倉市,稲村ガ崎１丁目１５番１７号,,14,204,2480024,,,,,,,2024-01-26,1,,,,,インドネシアロジョウネコノラクエン,0
525,2030001158353,新規,0,2024-01-26,2024-01-26,株式会社ＤＥＴＡＩＬ,,株式会社,埼玉県,川越市,脇田町１５－２１ジョージビルワキタ４Ｆ,,11,201,3501122,,,,,,,2024-01-26,1,,,,,ディティール,0
530,2030003023464,新規,0,2024-01-26,2024-01-26,ＲＮ　ＳＨＡＲＭＡ合同会社,,合同会社,埼玉県,狭山市,入間川１丁目２３番１９号,,11,215,3501305,,,,,,,2024-01-26,1,,,,,アールエヌシャラマ,0
531,2030003023506,新規,0,2024-01-26,2024-01-26,合同会社ＡＳＵＫＡ,,合同会社,埼玉県,さいたま市北区,大成町４丁目４１６番地１,,11,102,3310815,,,,,,,2024-01-26,1,,,,,アスカ,0
553,2040001131763,新規,0,2024-01-26,2024-01-26,株式会社ＪＰＮＰ,,株式会社,千葉県,市原市,白金町３丁目９番地１,,12,219,2900059,,,,,,,2024-01-26,1,,,,,ジェイピーエヌピー,0
554,2040001131904,新規,0,2024-01-26,2024-01-26,株式会社日昇設備,,株式会社,千葉県,船橋市,三咲８丁目４番７号,,12,204,2740812,,,,,,,2024-01-26,1,,,,,ニッショウセツビ,0
555,2040001131912,新規,0,2024-01-26,2024-01-26,株式会社プロンビエ,,株式会社,千葉県,習志野市,奏の杜３丁目１２番４号ウィーブ琴１０３号,,12,216,2750028,,,,,,,2024-01-26,1,,,,,プロンビエ,0
584,2040003024180,新規,0,2024-01-26,2024-01-26,合同会社ＤＭ２号,,合同会社,千葉県,柏市,柏４丁目５番１０号,,12,217,2770005,,,,,,,2024-01-26,1,,,,,ディーエムニゴウ,0
585,2040003024197,新規,0,2024-01-26,2024-01-26,合同会社ＺＥＲＯ,,合同会社,千葉県,市原市,郡本５丁目１０番地２,,12,219,2900013,,,,,,,2024-01-26,1,,,,,ゼロ,0
590,2050001054170,新規,0,2024-01-26,2024-01-26,ルアカーノ株式会社,,株式会社,茨城県,小美玉市,野田９６８番地,,08,236,3113411,,,,,,,2024-01-26,1,,,,,ルアカーノ,0
591,2050001054179,新規,0,2024-01-26,2024-01-26,株式会社Ｄ‐ＭＡＫＥ,,株式会社,茨城県,鹿嶋市,大字宮中４５２４番地８,,08,222,3140031,,,,,,,2024-01-26,1,,,,,ディーメイク,0
597,2080101024500,新規,0,2024-01-26,2024-01-26,株式会社高福,00133510,株式会社,静岡県,裾野市,茶畑１５７６番地,,22,220,4101121,,,,,,,2024-01-26,1,,,,,タカフク,0
599,2080105006395,新規,0,2024-01-26,2024-01-26,社会福祉法人山崎学園,,その他の設立登記法人,静岡県,御殿場市,萩原追分１１９３番地の２１,,22,215,4120042,,,,,,,2024-01-26,1,,,,,ヤマザキガクエン,0
614,2100001037161,新規,0,2024-01-26,2024-01-26,株式会社ムラシゴト,,株式会社,長野県,諏訪郡原村,１５５番地２,,20,363,3910100,,,,,,,2024-01-26,1,,,,,ムラシゴト,0
623,2100003007369,新規,0,2024-01-26,2024-01-26,合同会社ル・スフル,,合同会社,長野県,長野市,大字富竹１６６４番,,20,201,3810006,,,,,,,2024-01-26,1,,,,,ルスフル,0
634,2120001261404,新規,0,2024-01-26,2024-01-26,株式会社ＧＡＩＡ不動産リース,,株式会社,大阪府,大阪市北区,天神橋４丁目１２－４,,27,127,5300041,,,,,,,2024-01-26,1,,,,,ガイアフドウサンリース,0
635,2120001261569,新規,0,2024-01-26,2024-01-26,株式会社オールケア・サポート,,株式会社,大阪府,守口市,本町１丁目６番１３号守口駅前ビル,,27,209,5700028,,,,,,,2024-01-26,1,,,,,オールケアサポート,0
636,2120001261593,新規,0,2024-01-26,2024-01-26,株式会社Ｎｏ．１,,株式会社,大阪府,大阪市城東区,永田４丁目１５番２３号,,27,118,5360022,,,,,,,2024-01-26,1,,,,,ナンバーワン,0
637,2120001261651,新規,0,2024-01-26,2024-01-26,株式会社リーガルブルー,,株式会社,大阪府,大阪市北区,南森町１丁目３番２９号ＭＳＴ南森町８階,,27,127,5300054,,,,,,,2024-01-26,1,,,,,リーガルブルー,0
638,2120001261701,新規,0,2024-01-26,2024-01-26,株式会社クレヴィ,,株式会社,大阪府,枚方市,長尾元町７丁目７１番３１号,,27,210,5730163,,,,,,,2024-01-26,1,,,,,クレヴィ,0
639,2120001261742,新規,0,2024-01-26,2024-01-26,株式会社ミネット,,株式会社,大阪府,大阪市西区,新町４丁目１０番２１－８１３号,,27,106,5500013,,,,,,,2024-01-26,1,,,,,ミネット,0
640,2120001261759,新規,0,2024-01-26,2024-01-26,株式会社アクシア,,株式会社,大阪府,大阪市北区,中津３丁目７番３０号,,27,127,5310071,,,,,,,2024-01-26,1,,,,,アクシア,0
645,2120003025732,新規,0,2024-01-26,2024-01-26,合同会社ジェイソーラー,,合同会社,大阪府,大阪市淀川区,西中島３丁目７番８号ＮＬＣ新大阪１７号館３０２号室,,27,123,5320011,,,,,,,2024-01-26,1,,,,,ジェイソーラー,0
646,2120003025765,新規,0,2024-01-26,2024-01-26,合同会社エスティー,,合同会社,大阪府,大阪市東住吉区,湯里３丁目２番６－１２０１号,,27,121,5460013,,,,,,,2024-01-26,1,,,,,エスティー,0
647,2120003025773,新規,0,2024-01-26,2024-01-26,合同会社ラグーン,,合同会社,大阪府,大阪市北区,梅田２丁目５番１３号桜橋第一ビル３０４号,,27,127,5300001,,,,,,,2024-01-26,1,,,,,ラグーン,0
648,2120003025781,新規,0,2024-01-26,2024-01-26,リーユイ合同会社,,合同会社,大阪府,大阪市福島区,吉野３丁目５番７号,,27,103,5530006,,,,,,,2024-01-26,1,,,,,リーユイ,0
650,2120101068947,新規,0,2024-01-26,2024-01-26,株式会社Ｃ．,,株式会社,大阪府,堺市堺区,新町１番２０号１Ｂ,,27,141,5900079,,,,,,,2024-01-26,1,,,,,シードット,0
651,2120101068963,新規,0,2024-01-26,2024-01-26,株式会社ヒノデ不動産,,株式会社,大阪府,泉大津市,北豊中町３丁目１番２６号,,27,206,5950012,,,,,,,2024-01-26,1,,,,,ヒノデフドウサン,0
656,2122001037775,新規,0,2024-01-26,2024-01-26,株式会社ＬＩＦＩＸ,,株式会社,大阪府,東大阪市,稲葉３丁目４番２６号,,27,227,5780925,,,,,,,2024-01-26,1,,,,,リフィックス,0
657,2122005003732,新規,0,2024-01-26,2024-01-26,医療法人ＰＬＡＳＴ,,その他の設立登記法人,大阪府,柏原市,清洲二丁目４番３号,,27,221,5820000,,,,,,,2024-01-26,1,,,,,プラスト,0
660,2140001133106,新規,0,2024-01-26,2024-01-26,株式会社ハイスペース,,株式会社,兵庫県,姫路市,御立西６丁目３番４１号,,28,201,6700074,,,,,,,2024-01-26,1,,,,,ハイスペース,0
661,2140003020079,新規,0,2024-01-26,2024-01-26,合同会社アイエス商会,,合同会社,兵庫県,西宮市,苦楽園二番町１９番１号,,28,204,6620082,,,,,,,2024-01-26,1,,,,,アイエスショウカイ,0
662,2140005026925,新規,0,2024-01-26,2024-01-26,一般社団法人脳幹セラピスト協会,,その他の設立登記法人,兵庫県,西宮市,名次町４番２２－２０３号,,28,204,6620024,,,,,,,2024-01-26,1,,,,,ノウカンセラピストキョウカイ,0
674,2180003026279,新規,0,2024-01-26,2024-01-26,合同会社感謝ケアサービス,,合同会社,愛知県,尾張旭市,東印場町４丁目１２番地１２,,23,226,4880830,,,,,,,2024-01-26,1,,,,,カンシャケアサービス,0
692,2260001038680,新規,0,2024-01-26,2024-01-26,株式会社鳥元鉄工所,,株式会社,岡山県,美作市,下町２１９番地７,,33,215,7070417,,,,,,,2024-01-26,1,,,,,トリモトテッコウショ,0
693,2260001038706,新規,0,2024-01-26,2024-01-26,株式会社エルヴィン,,株式会社,岡山県,岡山市南区,新保１１５５番地１,,33,104,7000945,,,,,,,2024-01-26,1,,,,,エルヴィン,0
695,2290001104488,新規,0,2024-01-26,2024-01-26,株式会社グローバルパートナー,,株式会社,福岡県,福岡市中央区,舞鶴３丁目２番１１号,,40,133,8100073,,,,,,,2024-01-26,1,,,,,グローバルパートナー,0
696,2290001104513,新規,0,2024-01-26,2024-01-26,株式会社ジョイアンステック,,株式会社,福岡県,福岡市博多区,比恵町１番１８号トーカン福岡第２キャステール７０６,,40,132,8120014,,,,,,,2024-01-26,1,,,,,ジョイアンステック,0
697,2290001104521,新規,0,2024-01-26,2024-01-26,株式会社ＴＡＫＥ‐ＯＮＥ,,株式会社,福岡県,福岡市博多区,美野島３丁目１８番１８号,,40,132,8120017,,,,,,,2024-01-26,1,,,,,テイクワン,0
703,2290801030256,新規,0,2024-01-26,2024-01-26,株式会社ｈａｌｕ,,株式会社,福岡県,遠賀郡遠賀町,大字今古賀５３９番地,,40,384,8114303,,,,,,,2024-01-26,1,,,,,ハル,0
726,2360001033119,新規,0,2024-01-26,2024-01-26,株式会社シティリゾーツ,,株式会社,沖縄県,那覇市,久茂地１丁目４番８号,,47,201,9000015,,,,,,,2024-01-26,1,,,,,シティリゾーツ,0
727,2360001033127,新規,0,2024-01-26,2024-01-26,結まる沖縄株式会社,,株式会社,沖縄県,那覇市,三原１丁目２０番１９号,,47,201,9020063,,,,,,,2024-01-26,1,,,,,ユイマルオキナワ,0
729,2360003013655,新規,0,2024-01-26,2024-01-26,アバウト工務店合同会社,,合同会社,沖縄県,石垣市,字伊原間３４３番地,,47,207,9070332,,,,,,,2024-01-26,1,,,,,アバウトコウムテン,0
730,2370001050872,新規,0,2024-01-26,2024-01-26,株式会社Ｊｉｔｓｕｇｅｎ,,株式会社,宮城県,仙台市青葉区,一番町３丁目４番３号ＩＮＤＥＸ　ＢＵＩＬＤＩＮＧ２Ｆ,,04,101,9800811,,,,,,,2024-01-26,1,,,,,ジツゲン,0
733,2380001034263,新規,0,2024-01-26,2024-01-26,エスアンドエスホールディングス株式会社,,株式会社,福島県,いわき市,小名浜字下町２８番地サニーコート２０２,,07,204,9718101,,,,,,,2024-01-26,1,,,,,エスアンドエスホールディングス,0
737,2400001016531,新規,0,2024-01-26,2024-01-26,株式会社ａｉｌｅ,,株式会社,岩手県,北上市,村崎野１４地割４３４番地１７,,03,206,0240004,,,,,,,2024-01-26,1,,,,,エール,0
739,2430001090945,新規,0,2024-01-26,2024-01-26,中野むつみ株式会社,,株式会社,北海道,札幌市南区,川沿五条２丁目１番３２号,,01,106,0050805,,,,,,,2024-01-26,1,,,,,ナカノムツミ,0
745,2450001014209,新規,0,2024-01-26,2024-01-26,株式会社メディカルサポート北海道,,株式会社,北海道,紋別郡雄武町,字中雄武３２８番地の５,,01,563,0981706,,,,,,,2024-01-26,1,,,,,メディカルサポートホッカイドウ,0
747,2480001012374,新規,0,2024-01-26,2024-01-26,株式会社Ｂｕｅｎａ　Ｖｉｓｔａ,,株式会社,徳島県,阿波市,市場町八幡字町屋敷３９番地,,36,206,7711625,,,,,,,2024-01-26,1,,,,,,0
749,2700150117868,新規,0,2024-01-26,2024-01-26,ｈａｎｄａｎｃｈａｎｗｅｉｍａｏｙｉｙｏｕｘｉａｎｚｅｒｅｎｇｏｎｇｓｉ,,外国会社等,,,,,,,,ｈｅｂｅｉｓｈｅｎｇｈａｎｄａｎｓｈｉｓｈｅｘｉａｎｙｉｎｇｃｈｕｎｊｉｅｑｉｎｇｑｕａｎｌｕｊｉａｏｃｈａｋｏｕｘｉａｏｆａｎｇｄｕｉｄｕｉｍｉａｎｂｉｓｈｕｉｗａｎｓｈａｎｇｗｕｊｉｕｄｉａｎ７ｌｏｕ,,,,,,2024-01-26,1,,,,,ハンダンチャンウェイマオイヨウシエンズレンゴンス,0
750,2700150118387,新規,0,2024-01-26,2024-01-26,Ｓａｎｄｂｏｘ　Ｓｍａｒｔ　Ｔｅｃｈｎｏｌｏｇｙ　Ｃｏ．，Ｌｔｄ．,,外国会社等,,,,,,,,１５Ｆ．－４，Ｎｏ．２，Ｊｉａｎ　８ｔｈ　Ｒｄ．，Ｚｈｏｎｇｈｅ　Ｄｉｓｔ．，Ｎｅｗ　Ｔａｉｐｅｉ　Ｃｉｔｙ　２３５１１，Ｔａｉｗａｎ（Ｒ．Ｏ．Ｃ）,,,,,,2024-01-26,1,,,,,サンドボックススマートテクノロジーカンパニーリミテッド,0
751,2700150119212,新規,0,2024-01-26,2024-01-26,ｓｈｅｎｚｈｅｎｓｈｉｎｉｎｇｘｉａｏｅｒｍａｏｙｉｙｏｕｘｉａｎｇｏｎｇｓｉ,,外国会社等,,,,,,,,Ｓｈｅｎ　ｚｈｅｎ　ｓｈｉ　ｂａｏ　ａｎ　ｑｕ　ｘｉｎ　ｑｉａｏ　ｊｉｅ　ｄａｏ　ｓｈａｎｇ　ｌｉａｏ　ｓａｎ　ｑｕ　ｊｉｕ　ｓｈｉ　ｃｈａｎｇ　ｚｏｎｇ　ｈｅ　ｌｏｕ　Ａ、Ｂ、Ｃ、Ｄ　ｄｏｎｇ　Ａ３０８,,,,,,2024-01-26,1,,,,,シェンジェンシニーンシヤオオーマオイヨウシエンゴンス,0
752,2700150120145,新規,0,2024-01-26,2024-01-26,ＹＩＷＵＳＨＩＣＨＵＧＡＮＤＩＡＮＺＩＳＨＡＮＧＷＵＹＯＵＸＩＡＮＧＯＮＧＳＩ,,外国会社等,,,,,,,,ＨＯＵＺＨＡＩＪＩＥＤＡＯＤＵＹＵＡＮＸＩＡＯＱＵ５ＤＯＮＧ６ＤＡＮＹＵＡＮ３０２ＺｈｅＪｉａｎｇＹｉｗｕ３２１０００,,,,,,2024-01-26,1,,,,,イーウーシーチュウガンディエンズーシャーンウーヨウシエンゴーンスー,0
753,2700150120178,新規,0,2024-01-26,2024-01-26,ｘｉｎｇｔａｉｔｅｎｇｙａｏｓｈａｎｇｍａｏｙｏｕｘｉａｎｚｅｒｅｎｇｏｎｇｓｉ,,外国会社等,,,,,,,,ｑｉａｏｘｉｑｕｚｈｏｎｇｘｉｎｇｄａｊｉｅｌｕｎａｎｚｈｏｎｇｂｅｉｓｈｉｊｉｃｈｅｎｇ３ｃｅｎｇ５７ｈａｏ　ｘｉｎｇｔａｉｓｈｉ　ｈｅｂｅｉｓｈｅｎｇ,,,,,,2024-01-26,1,,,,,シーンタイトゥオンヤオシャーンマオヨウシエンゾーァゥレンゴンス,0
754,2700150120979,新規,0,2024-01-26,2024-01-26,ｎａｎｎｉｎｇｓｈｉｊｕｊｉｅｗａｎｇｌｕｏｋｅｊｉｙｏｕｘｉａｎｇｏｎｇｓｉ,,外国会社等,,,,,,,,ｘｉｘｉａｎｇｔａｎｇｑｕｔｉｅｌｕｂｅｉｅｒｑｕ３５－１－１０ｈａｏｎａｎｎｉｎｇｓｈｉｇｕａｎｇｘｉ５３００００ＣＮ,,,,,,2024-01-26,1,,,,,ナンニーンシージュイジエワーンルオコーァジーヨウシエンゴーンスー,0
755,2700150121473,新規,0,2024-01-26,2024-01-26,ｓｈｅｎｚｈｅｎｓｈｉｈｕａｃｈａｎｇｔａｉｍｏｓｕｋｅｊｉｙｏｕｘｉａｎｇｏｎｇｓｉ,,外国会社等,,,,,,,,ｓｈｅｎｚｈｅｎｓｈｉｂａｏａｎｑｕｓｈａｊｉｎｇｊｉｅｄａｏｗａｎｆｅｎｇｓｈｅｑｕｗａｎｆｅｎｇｄａｌａｎｇｓｈａｎｇｏｎｇｙｅｑｕｄｉ３６ｄｏｎｇｅｒｌｏｕｎａｎ,,,,,,2024-01-26,1,,,,,シェンジェンシホワチャーンタイモースゥクージヨウシエンゴンス,0
756,2700150121738,新規,0,2024-01-26,2024-01-26,ＳＨＥＮ　ＺＨＥＮ　ＺＵＮ　ＥＲ　ＤＡ　ＤＩＡＮ　ＺＩ　ＹＯＵ　ＸＩＡＮ　ＧＯＮＧ　ＳＩ,,外国会社等,,,,,,,,ＬＯＮＧ　ＧＡＮＧ　ＱＵ　ＢＵ　ＪＩ　ＺＨＥＮ　ＤＡＮ　ＺＨＵ　ＴＯＵ　ＢＡＯ　ＬＩＮＧ　ＤＡ　ＳＨＡ　１０ＦＳＨＥＮＺＨＥＮ５１８１１４ＣＮ,,,,,,2024-01-26,1,,,,,シェンジェンズゥンオーァダディエンズヨウシエンゴンス,0
765,3010001241705,新規,0,2024-01-26,2024-01-26,ゴールドウィン株式会社,,株式会社,東京都,中央区,銀座１丁目１２－４Ｎ＆ＥＢＬＤ．７階,,13,102,1040061,,,,,,,2024-01-26,1,,,,,ゴールドウィン,0
766,3010001241787,新規,0,2024-01-26,2024-01-26,Ｈｉｋａｒｉ３Ｄ株式会社,,株式会社,東京都,千代田区,紀尾井町４番１号ニューオータニガーデンコート２８階,,13,101,1020094,,,,,,,2024-01-26,1,,,,,ヒカリスリーディー,0
767,3010001241845,新規,0,2024-01-26,2024-01-26,翔コンサルティング株式会社,,株式会社,東京都,千代田区,九段北１丁目１１番１２号,,13,101,1020073,,,,,,,2024-01-26,1,,,,,カケルコンサルティング,0
770,3010003042754,新規,0,2024-01-26,2024-01-26,合同会社佐藤企画,,合同会社,東京都,中央区,銀座１丁目１２－４Ｎ＆ＥＢＬＤ．７Ｆ,,13,102,1040061,,,,,,,2024-01-26,1,,,,,サトウキカク,0
771,3010003042770,新規,0,2024-01-26,2024-01-26,合同会社ケーピー,,合同会社,東京都,中央区,勝どき３丁目９番１２－５０５号,,13,102,1040054,,,,,,,2024-01-26,1,,,,,ケーピー,0
772,3010005037802,新規,0,2024-01-26,2024-01-26,一般社団法人ＮＮＲファンド第１号,,その他の設立登記法人,東京都,千代田区,丸の内３丁目１番１号東京共同会計事務所内,,13,101,1000005,,,,,,,2024-01-26,1,,,,,エヌエヌアールファンドダイイチゴウ,0
791,3010801034738,新規,0,2024-01-26,2024-01-26,株式会社ＫＦＭ,,株式会社,東京都,大田区,大森北１丁目３５番８号グリーンビル４０１,,13,111,1430016,,,,,,,2024-01-26,1,,,,,ケーエフエム,0
807,3011001159565,新規,0,2024-01-26,2024-01-26,ｍｕｇｅｎ株式会社,,株式会社,東京都,渋谷区,恵比寿西２丁目８番４号ＥＸ恵比寿西ビル５階,,13,113,1500021,,,,,,,2024-01-26,1,,,,,ムゲン,0
808,3011001159607,新規,0,2024-01-26,2024-01-26,株式会社Ｆｏｚｍｉｃ,,株式会社,東京都,渋谷区,恵比寿西２丁目４番８号ウィンド恵比寿ビル８Ｆ,,13,113,1500021,,,,,,,2024-01-26,1,,,,,フォズミック,0
809,3011001159615,新規,0,2024-01-26,2024-01-26,八ヶ岳ファーマ株式会社,,株式会社,東京都,渋谷区,松濤２丁目２１番３－２０１号,,13,113,1500046,,,,,,,2024-01-26,1,,,,,ヤツガタケファーマ,0
810,3011003018356,新規,0,2024-01-26,2024-01-26,合同会社ＴＹＤ,,合同会社,東京都,渋谷区,道玄坂１丁目１０番８号渋谷道玄坂東急ビル２Ｆ－Ｃ,,13,113,1500043,,,,,,,2024-01-26,1,,,,,ティーワイディー,0
822,3011101105956,新規,0,2024-01-26,2024-01-26,株式会社ＳＯ,,株式会社,東京都,新宿区,西新宿３丁目３番１３号西新宿水間ビル６階,,13,104,1600023,,,,,,,2024-01-26,1,,,,,エスオー,0
823,3011101105972,新規,0,2024-01-26,2024-01-26,株式会社ＳＴＡＮＤ,,株式会社,東京都,新宿区,歌舞伎町１丁目３番１５号ザ・カテリーナビル９階Ｅ室,,13,104,1600021,,,,,,,2024-01-26,1,,,,,スタンド,0
828,3011103014024,新規,0,2024-01-26,2024-01-26,合同会社ＳＮリビング２号,,合同会社,東京都,新宿区,西新宿８丁目５番１号,,13,104,1600023,,,,,,,2024-01-26,1,,,,,エスエヌリビングニゴウ,0
873,3012701018044,新規,0,2024-01-26,2024-01-26,株式会社竹松外構土木,,株式会社,東京都,小平市,小川町１丁目２２９０番地,,13,211,1870032,,,,,,,2024-01-26,1,,,,,タケマツガイコウドボク,0
881,3012801022912,新規,0,2024-01-26,2024-01-26,株式会社ルント,,株式会社,東京都,立川市,一番町１丁目３９番地２柿の家荘１号,,13,202,1900033,,,,,,,2024-01-26,1,,,,,ルント,0
888,3013301051955,新規,0,2024-01-26,2024-01-26,株式会社メディアゲート,,株式会社,東京都,豊島区,池袋２丁目１４番４号,,13,116,1710014,,,,,,,2024-01-26,1,,,,,メディアゲート,0
889,3013303006973,新規,0,2024-01-26,2024-01-26,東京博虹合同会社,,合同会社,東京都,豊島区,南長崎３丁目９－８－１０３号,,13,116,1710052,,,,,,,2024-01-26,1,,,,,トウキョウヒロニジ,0
895,3020001155516,新規,0,2024-01-26,2024-01-26,ｉｋｉｒｉ株式会社,,株式会社,神奈川県,横浜市中区,石川町１丁目１３番地,,14,104,2310868,,,,,,,2024-01-26,1,,,,,イキリ,0
896,3020001155524,新規,0,2024-01-26,2024-01-26,東俊株式会社,,株式会社,神奈川県,横浜市港南区,下永谷３丁目４番１９－４０２号,,14,111,2330016,,,,,,,2024-01-26,1,,,,,トウシュン,0
897,3020001155532,新規,0,2024-01-26,2024-01-26,蒼戴株式会社,,株式会社,神奈川県,横浜市南区,中村町３丁目２０３－１０メゾンドヨシダ３０３,,14,105,2320033,,,,,,,2024-01-26,1,,,,,ソウタイ,0
898,3020001155540,新規,0,2024-01-26,2024-01-26,株式会社人としての器,,株式会社,神奈川県,横浜市西区,浅間町１丁目４番３号ウィザードビル４０２,,14,103,2200072,,,,,,,2024-01-26,1,,,,,ヒトトシテノウツワ,0
902,3020003025436,新規,0,2024-01-26,2024-01-26,合同会社ＲＡＹ,,合同会社,神奈川県,川崎市高津区,上作延５丁目２７番２７号メゾン村田２０８,,14,134,2130034,,,,,,,2024-01-26,1,,,,,レイ,0
903,3020005016268,新規,0,2024-01-26,2024-01-26,特定非営利活動法人かわさきこども食堂ネットワーク,,その他の設立登記法人,神奈川県,川崎市中原区,新丸子東３丁目１１００番地１２かわさき市民活動センターブース番号５,,14,133,2110004,,,,,,,2024-01-26,1,,,,,カワサキコドモショクドウネットワーク,0
906,3021001081322,新規,0,2024-01-26,2024-01-26,ＣＭＲ株式会社,,株式会社,神奈川県,鎌倉市,大船１丁目１６番地３号,,14,204,2470056,,,,,,,2024-01-26,1,,,,,シーエムアール,0
909,3021003014057,新規,0,2024-01-26,2024-01-26,Ｔｈｅ　Ｂｌａｃｋ　Ｒｅｌａｘａｔｉｏｎ　Ｌｏｕｎｇｅ合同会社,,合同会社,神奈川県,鎌倉市,常盤６９番地１テラスハウス川端１０３,,14,204,2480022,,,,,,,2024-01-26,1,,,,,ザブラックリラクゼーションラウンジ,0
910,3021005013008,新規,0,2024-01-26,2024-01-26,一般社団法人スポーツアカデミー,,その他の設立登記法人,神奈川県,相模原市南区,相模台７丁目２７番４号,,14,153,2520321,,,,,,,2024-01-26,1,,,,,スポーツアカデミー,0
921,3030001158187,新規,0,2024-01-26,2024-01-26,株式会社ＭＺ,,株式会社,埼玉県,さいたま市浦和区,針ヶ谷２丁目８番７号,,11,107,3300075,,,,,,,2024-01-26,1,,,,,エムズ,0
922,3030001158328,新規,0,2024-01-26,2024-01-26,Ｖｅｒｔｅｘ　Ｃａｒｓ　Ｆａｃｔｏｒｙ株式会社,,株式会社,埼玉県,川越市,大字古谷上６０８３番地８（Ａ－２棟２０４号室）,,11,201,3500001,,,,,,,2024-01-26,1,,,,,ヴァーテックスカーズファクトリー,0
926,3030003023488,新規,0,2024-01-26,2024-01-26,合同会社ワタナベ,,合同会社,埼玉県,越谷市,千間台西６丁目８番地３８,,11,222,3430041,,,,,,,2024-01-26,1,,,,,ワタナベ,0
927,3030003023505,新規,0,2024-01-26,2024-01-26,大谷合同会社,,合同会社,埼玉県,さいたま市見沼区,大字大谷１８８６－２,,11,104,3370014,,,,,,,2024-01-26,1,,,,,オオヤ,0
946,3040001131903,新規,0,2024-01-26,2024-01-26,株式会社ＢＬＡＸ,,株式会社,千葉県,千葉市花見川区,横戸町１２４６番地４,,12,102,2620001,,,,,,,2024-01-26,1,,,,,ブラックス,0
947,3040001131936,新規,0,2024-01-26,2024-01-26,ＩＺＵＭＩホールディングス株式会社,,株式会社,千葉県,市原市,岩崎西１丁目６番地５,,12,219,2900046,,,,,,,2024-01-26,1,,,,,イズミホールディングス,0
948,3040001131944,新規,0,2024-01-26,2024-01-26,株式会社ミネッシュ,,株式会社,千葉県,千葉市中央区,神明町２０１番地２,,12,101,2600022,,,,,,,2024-01-26,1,,,,,ミネッシュ,0
949,3040001131952,新規,0,2024-01-26,2024-01-26,株式会社ネコノメ,,株式会社,千葉県,我孫子市,新木３１８２番地の１,,12,222,2701112,,,,,,,2024-01-26,1,,,,,ネコノメ,0
974,3040005022256,新規,0,2024-01-26,2024-01-26,エホバの証人の千葉県流山会衆,,その他の設立登記法人,千葉県,流山市,加５丁目１４７０番３,,12,220,2700176,,,,,,,2024-01-26,1,,,,,エホバノショウニンノチバケンナガレヤマカイシュウ,0
978,3050001054178,新規,0,2024-01-26,2024-01-26,株式会社ＳＳ　ＴＲＡＤＩＮＧ,,株式会社,茨城県,ひたちなか市,大字佐和１５５３番地２,,08,221,3120001,,,,,,,2024-01-26,1,,,,,エスエストレーディング,0
980,3050003008090,新規,0,2024-01-26,2024-01-26,合同会社パワーストック,,合同会社,茨城県,水戸市,見和２丁目２０５番地の６,,08,201,3100911,,,,,,,2024-01-26,1,,,,,パワーストック,0
991,3080401026963,新規,0,2024-01-26,2024-01-26,株式会社インベスターｉ,,株式会社,静岡県,浜松市浜名区,平口１２７６番地の５,,22,139,4340041,,,,,,,2024-01-26,1,,,,,インベスターアイ,0
1000,3100001037169,新規,0,2024-01-26,2024-01-26,株式会社ムート,,株式会社,長野県,長野市,吉田４丁目２５番５－１号,,20,201,3810043,,,,,,,2024-01-26,1,,,,,ムート,0
1017,3120001261675,新規,0,2024-01-26,2024-01-26,協力株式会社,,株式会社,大阪府,大阪市西区,江之子島１丁目７番３号,,27,106,5500006,,,,,,,2024-01-26,1,,,,,キョウリョク,0
1018,3120001261691,新規,0,2024-01-26,2024-01-26,株式会社ＰＥＡＣＥ　ＪＰ,,株式会社,大阪府,大阪市西区,新町３丁目１５番６－４０８号,,27,106,5500013,,,,,,,2024-01-26,1,,,,,ピースジャパン,0
1019,3120001261700,新規,0,2024-01-26,2024-01-26,株式会社ピースリーフ,,株式会社,大阪府,大阪市城東区,諏訪１丁目２番２５号,,27,118,5360021,,,,,,,2024-01-26,1,,,,,ピースリーフ,0
1020,3120001261717,新規,0,2024-01-26,2024-01-26,株式会社大阪やまと,,株式会社,大阪府,大阪市東住吉区,東田辺２丁目４番１号,,27,121,5460032,,,,,,,2024-01-26,1,,,,,オオサカヤマト,0
1021,3120001261725,新規,0,2024-01-26,2024-01-26,株式会社ＡＤＮＯＶＡＲＥ,,株式会社,大阪府,大阪市中央区,南船場３丁目２－２２おおきに南船場ビル２０５,,27,128,5420081,,,,,,,2024-01-26,1,,,,,アドノバーレ,0
1022,3120001261733,新規,0,2024-01-26,2024-01-26,株式会社ハナパートナー,,株式会社,大阪府,大阪市北区,梅田１丁目２番２号大阪駅前第２ビル１２－１２,,27,127,5300001,,,,,,,2024-01-26,1,,,,,ハナパートナー,0
1025,3120003025764,新規,0,2024-01-26,2024-01-26,Ｍ＆Ｂ合同会社,,合同会社,大阪府,大阪市浪速区,敷津西２丁目３番１５－５０１号,,27,111,5560015,,,,,,,2024-01-26,1,,,,,エムアンドビー,0
1026,3120003025772,新規,0,2024-01-26,2024-01-26,合同会社ＯＧ,,合同会社,大阪府,大阪市中央区,内本町２丁目１番１９－４２０号,,27,128,5400026,,,,,,,2024-01-26,1,,,,,オージー,0
1027,3120003025780,新規,0,2024-01-26,2024-01-26,合同会社顕,,合同会社,大阪府,寝屋川市,萱島本町１４番２号ロイヤル萱島本町２０１号,,27,215,5720827,,,,,,,2024-01-26,1,,,,,アキラ,0
1028,3120005024129,新規,0,2024-01-26,2024-01-26,一般社団法人枚方市居住支援センター,,その他の設立登記法人,大阪府,枚方市,宮之阪１丁目２２番１５号宮之阪ハイツ弐番館２階,,27,210,5730022,,,,,,,2024-01-26,1,,,,,ヒラカタシキョジュウシエンセンター,0
1029,3120101068938,新規,0,2024-01-26,2024-01-26,森宏株式会社,,株式会社,大阪府,泉大津市,条南町３－２６松浜マンション１０３室,,27,206,5950016,,,,,,,2024-01-26,1,,,,,モリコウ,0
1030,3120101068970,新規,0,2024-01-26,2024-01-26,Ｉｓｕｋａ株式会社,,株式会社,大阪府,大阪狭山市,今熊４丁目６６５番地の６２,,27,231,5890021,,,,,,,2024-01-26,1,,,,,イスカ,0
1037,3130001076230,新規,0,2024-01-26,2024-01-26,株式会社ＩＫＥＤＡ,,株式会社,京都府,京都市山科区,音羽野田町２７番地１１,,26,110,6078075,,,,,,,2024-01-26,1,,,,,イケダ,0
1045,3140001133105,新規,0,2024-01-26,2024-01-26,ＬＧＯ株式会社,,株式会社,兵庫県,尼崎市,東園田町６丁目５９番地１９,,28,202,6610953,,,,,,,2024-01-26,1,,,,,エルジーオー,0
1048,3160003003097,新規,0,2024-01-26,2024-01-26,Ｍｉ　Ｃａｓａ　Ｓｕ　Ｃａｓａ合同会社,,合同会社,滋賀県,彦根市,日夏町３７２９番地２７,,25,202,5220047,,,,,,,2024-01-26,1,,,,,ミカサスカサ,0
1054,3180001159947,新規,0,2024-01-26,2024-01-26,株式会社半額堂,,株式会社,愛知県,名古屋市中区,丸の内３丁目１３－１１プレサンスロジェ丸の内１２０３号,,23,106,4600002,,,,,,,2024-01-26,1,,,,,ハンガクドウ,0
1062,3220001025797,新規,0,2024-01-26,2024-01-26,株式会社アグリ柏木,,株式会社,石川県,鹿島郡中能登町,末坂１０部４７番地,,17,407,9291704,,,,,,,2024-01-26,1,,,,,アグリカシワギ,0
1068,3250005008894,新規,0,2024-01-26,2024-01-26,一般社団法人ブレイブスター,,その他の設立登記法人,山口県,下松市,東陽３丁目１０番１４号,,35,207,7440043,,,,,,,2024-01-26,1,,,,,ブレイブスター,0
1070,3260001038713,新規,0,2024-01-26,2024-01-26,株式会社ｈｉｔｏｒｉｇｏｔｏ,,株式会社,岡山県,岡山市東区,宍甘６５－１２,,33,103,7038216,,,,,,,2024-01-26,1,,,,,ヒトリゴト,0
1071,3280003001808,新規,0,2024-01-26,2024-01-26,合同会社Ｐｏｏｒｔ　ｖａｎ　Ｈ,,合同会社,島根県,仁多郡奥出雲町,横田１１５９－１,,32,343,6991832,,,,,,,2024-01-26,1,,,,,ポールトファンエイチ,0
1075,3290001104454,新規,0,2024-01-26,2024-01-26,株式会社ティアラ,,株式会社,福岡県,福岡市東区,香椎２丁目２３番１８号,,40,131,8130011,,,,,,,2024-01-26,1,,,,,ティアラ,0
1076,3290001104479,新規,0,2024-01-26,2024-01-26,株式会社ヘルスハート,,株式会社,福岡県,八女市,前古賀２５２－１,,40,210,8340054,,,,,,,2024-01-26,1,,,,,ヘルスハート,0
1078,3290005019277,新規,0,2024-01-26,2024-01-26,ＮＰＯ法人クラン,,その他の設立登記法人,福岡県,福岡市中央区,平和５丁目７番１７－６０２号アーサー平和セントラルパーク,,40,133,8100016,,,,,,,2024-01-26,1,,,,,クラン,0
1100,3330001031702,新規,0,2024-01-26,2024-01-26,株式会社駆遠,,株式会社,熊本県,熊本市南区,城南町東阿高１６０－１,,43,104,8614225,,,,,,,2024-01-26,1,,,,,クオン,0
1101,3330003010191,新規,0,2024-01-26,2024-01-26,合同会社Ｗ,,合同会社,熊本県,熊本市南区,御幸笛田５丁目７番６４号,,43,104,8614172,,,,,,,2024-01-26,1,,,,,ダブリュー,0
1102,3330005010751,新規,0,2024-01-26,2024-01-26,一般社団法人デジタルコピーライターズネットワーク,,その他の設立登記法人,熊本県,熊本市東区,錦ケ丘２３番５号,,43,102,8620912,,,,,,,2024-01-26,1,,,,,デジタルコピーライターズネットワーク,0
1104,3350001018771,新規,0,2024-01-26,2024-01-26,株式会社ＭＡ,,株式会社,宮崎県,宮崎市,清水１丁目７番１２号丸紅ビル１階,,45,201,8800021,,,,,,,2024-01-26,1,,,,,エムエー,0
1106,3360001033118,新規,0,2024-01-26,2024-01-26,株式会社ＶＩＣＴＡＢＬＥ,,株式会社,沖縄県,南城市,大里字大城２５５７番地２５,,47,215,9011203,,,,,,,2024-01-26,1,,,,,ビクタブル,0
1108,3370001050855,新規,0,2024-01-26,2024-01-26,株式会社仙台だてファーム,,株式会社,宮城県,仙台市太白区,山田上ノ台町６番１０号,,04,104,9820815,,,,,,,2024-01-26,1,,,,,センダイダテファーム,0
1109,3370001050871,新規,0,2024-01-26,2024-01-26,株式会社ＰｉＣＳＴＯＲＹ,,株式会社,宮城県,仙台市青葉区,大町２丁目１番７－９０３号,,04,101,9800804,,,,,,,2024-01-26,1,,,,,ピクストーリー,0
1114,3400003003205,新規,0,2024-01-26,2024-01-26,初芽合同会社,,合同会社,岩手県,花巻市,轟木１１地割３０番地３,,03,205,0250131,,,,,,,2024-01-26,1,,,,,ハツメ,0
1118,3430001090944,新規,0,2024-01-26,2024-01-26,株式会社アルファニーズ,,株式会社,北海道,札幌市北区,麻生町３丁目１０番１３号,,01,102,0010045,,,,,,,2024-01-26,1,,,,,アルファニーズ,0
1119,3430001090952,新規,0,2024-01-26,2024-01-26,株式会社シンバ,,株式会社,北海道,札幌市東区,東雁来十一条４丁目７番１５号,,01,103,0070031,,,,,,,2024-01-26,1,,,,,シンバ,0
1126,3480001012373,新規,0,2024-01-26,2024-01-26,ＧＰコンサルティング株式会社,,株式会社,徳島県,吉野川市,鴨島町鴨島３８５番地,,36,205,7760010,,,,,,,2024-01-26,1,,,,,ジーピーコンサルティング,0
1128,3490003001860,新規,0,2024-01-26,2024-01-26,合同会社ＯＮＥ,,合同会社,高知県,吾川郡仁淀川町,大崎４７４番地１,,39,387,7811501,,,,,,,2024-01-26,1,,,,,,0
1129,3500001025430,新規,0,2024-01-26,2024-01-26,カナエルホーム株式会社,,株式会社,愛媛県,西条市,喜多川１７５番地１,,38,206,7930042,,,,,,,2024-01-26,1,,,,,カナエルホーム,0
1133,3700150118386,新規,0,2024-01-26,2024-01-26,ＥＩＧＨＴＹ　ＰＥＲＣＥＮＴ　ＨＯＮＧ　ＫＯＮＧ　ＬＩＭＩＴＥＤ,,外国会社等,,,,,,,,Ｒｏｏｍ　４，１６ｆ，Ｈｏ　Ｋｉｎｇ　Ｃｏｍｍｅｒｃｉａｌ　Ｂｕｉｌｄｉｎｇ，２－１６　Ｆａ　Ｙｕｅｎ　Ｓｔｒｅｅｔ，Ｍｏｎｇｋｏｋ，Ｋｏｗｌｏｏｎ，Ｈｏｎｇ　Ｋｏｎｇ，Ｃｈｉｎａ　Ｈｏｎｇ　Ｋｏｎｇ　５１００３１ＨＫ,,,,,,2024-01-26,1,,,,,エイティパーセントホンコンリミテッド,0
1134,3700150119211,新規,0,2024-01-26,2024-01-26,ｓｈｅｎｚｈｅｎｓｈｉｐｅｉｐｅｉｚｉｍａｏｙｉｙｏｕｘｉａｎｇｏｎｇｓｉ,,外国会社等,,,,,,,,ｓｈｅｎｚｈｅｎｓｈｉｌｏｎｇｇａｎｇｑｕｐｉｎｇｈｕｊｉｅｄａｏｆｅｎｇｈｕａｎｇｓｈｅｑｕｊｉａｎｓｈｅｑｉｘｉａｎｇ１１ｈａｏ２０１,,,,,,2024-01-26,1,,,,,シェンジェンシペイペイズマオイーヨウシエンゴンス,0
1135,3700150120177,新規,0,2024-01-26,2024-01-26,ｓｈｅｎｚｈｅｎｓｈｉｊｉｓｉｄａｇｕｏｊｉｍａｏｙｉｙｏｕｘｉａｎｇｏｎｇｓｉ,,外国会社等,,,,,,,,Ｓｈｅｎ　ｚｈｅｎ　ｓｈｉ　ｌｏｎｇ　ｇａｎｇ　ｑｕ　ｂｕ　ｊｉ　ｊｉｅ　ｄａｏ　ｂｕ　ｊｉ　ｓｈｅ　ｑｕ　ｘｉ　ｈｕａｎ　ｌｕ　７－５　ｈａｏ　３０４,,,,,,2024-01-26,1,,,,,シェンジェンシジースーダーグオジーマオイヨウシエンゴンス,0
1136,3700150120978,新規,0,2024-01-26,2024-01-26,ｔｉａｎｃｈａｄｉａｎｚｉｓｈａｎｇｗｕｇｕａｎｇｚｈｏｕｙｏｕｘｉａｎｇｏｎｇｓｉ,,外国会社等,,,,,,,,Ｗａｎ　Ｈｕｉ　Ｅｒ　Ｒｄ　１１３，２５０７Ｎａｎｃｕｎ　Ｔｏｗｎ，ＰａｎｙｕＧｕａｎｇｚｈｏｕＧｕａｎｇｄｏｎｇ５１１４００ＣＮ,,,,,,2024-01-26,1,,,,,ティエンチャアディエンズシャンウーグワンジョウヨウシエンゴンス,0
1137,3700150121472,新規,0,2024-01-26,2024-01-26,ＳＨＥＮＺＨＥＮ　ＸＩＮＱＵＡＮＨＡＮ　ＴＥＣＨＮＯＬＯＧＹ　ＣＯ．，ＬＴＤ．,,外国会社等,,,,,,,,ｂａｏａｎｑｕｘｉｘｉａｎｇｊｉｅｄａｏｇｕｓｈｕｓｈｅｑｕｘｉａｗｅｉｙｕａｎｇｏｎｇｙｅｑｕｙｏｎｇｊｉａｌｅｃｈａｎｇｆａｎｇ２ｃｅｎｇ３ｃｅｎｇｓｈｅｎｚｈｅｎＧｕａｎｇｄｏｎｇ５１８０００ＣＮ,,,,,,2024-01-26,1,,,,,シェンジェンシシンチュエンハンクージヨウシエンゴンス,0
1138,3700150121745,新規,0,2024-01-26,2024-01-26,ＤＯＮＧＳＨＩＮ　ＩＮＴＥＲＮＡＴＩＯＮＡＬ　ＣＯ．，ＬＩＭＩＴＥＤ,,外国会社等,,,,,,,,ＲＯＯＭ　５１７　ＮＥＷ　ＣＩＴＹ　ＣＥＮＴＥＲ２　ＬＥＩ　ＹＵＥ　ＭＵＮ　ＲＯＡＤＫＷＵＮ　ＴＯＮＧ９９９０７７ＨＫ,,,,,,2024-01-26,1,,,,,ドンシンインターナショナルカンパニーリミテッド,0
1157,4010401179874,新規,0,2024-01-26,2024-01-26,株式会社Ｒ２ＧＰＥＯＰＬＥ　ＪＡＰＡＮ,,株式会社,東京都,港区,新橋３丁目９－１０－８０４号室,,13,103,1050004,,,,,,,2024-01-26,1,,,,,アールトゥージーピープルジャパン,0
1173,4010803004829,新規,0,2024-01-26,2024-01-26,合同会社一二三,,合同会社,東京都,大田区,田園調布５丁目５７－１０,,13,111,1450071,,,,,,,2024-01-26,1,,,,,ヒフミ,0
1182,4011001159589,新規,0,2024-01-26,2024-01-26,株式会社ＫＫ　ＩＴＴＥＫＩ　ＳＰＩＲＩＴＳ,,株式会社,東京都,渋谷区,渋谷２丁目１９番１５号宮益坂ビルディング６０９,,13,113,1500002,,,,,,,2024-01-26,1,,,,,ケイケイイッテキスピリッツ,0
1183,4011001159614,新規,0,2024-01-26,2024-01-26,株式会社ＲＥＳＡＵＣＥ,,株式会社,東京都,渋谷区,神宮前２丁目２４番４－２０１号,,13,113,1500001,,,,,,,2024-01-26,1,,,,,リソース,0
1184,4011001159630,新規,0,2024-01-26,2024-01-26,株式会社レトロック,,株式会社,東京都,渋谷区,東１丁目２－７,,13,113,1500011,,,,,,,2024-01-26,1,,,,,レトロック,0
1199,4011103014023,新規,0,2024-01-26,2024-01-26,合同会社アルタイル,,合同会社,東京都,新宿区,西新宿３丁目３番１３号西新宿水間ビル６階,,13,104,1600023,,,,,,,2024-01-26,1,,,,,アルタイル,0
1214,4011401025812,新規,0,2024-01-26,2024-01-26,株式会社バンブート,,株式会社,東京都,板橋区,舟渡１丁目１３番１０号アイ・タワー２Ｆ板橋区立企業活性化センター内,,13,119,1740041,,,,,,,2024-01-26,1,,,,,バンブート,0
1223,4011503005935,新規,0,2024-01-26,2024-01-26,グランドオーキッド合同会社,,合同会社,東京都,荒川区,東日暮里３丁目６番３号,,13,118,1160014,,,,,,,2024-01-26,1,,,,,グランドオーキッド,0
1224,4011601027476,新規,0,2024-01-26,2024-01-26,株式会社ｗｅａｔｈｅｒ‐ｓｅｒｖｅｒ．ｃｏｍ,,株式会社,東京都,練馬区,桜台１丁目２０番４号,,13,120,1760002,,,,,,,2024-01-26,1,,,,,ウェザーサーバードットコム,0
1232,4012401041469,新規,0,2024-01-26,2024-01-26,株式会社ＬａＬａＣｒｅａｔｉｖｅＴｏｋｙｏ,,株式会社,東京都,狛江市,和泉本町４丁目２－９,,13,219,2010003,,,,,,,2024-01-26,1,,,,,ララクリエイティブトウキョウ,0
1241,4013301051962,新規,0,2024-01-26,2024-01-26,ＪＳ株式会社,,株式会社,東京都,豊島区,巣鴨１丁目１７番３－子野ビル４０３号,,13,116,1700002,,,,,,,2024-01-26,1,,,,,ジェイエス,0
1249,4020001155498,新規,0,2024-01-26,2024-01-26,株式会社レディース・ビューティー,,株式会社,神奈川県,川崎市中原区,下沼部１７６３番地下沼部郵便局ビル３階,,14,133,2110011,,,,,,,2024-01-26,1,,,,,レディースビューティー,0
1250,4020001155507,新規,0,2024-01-26,2024-01-26,株式会社ウィンリー,,株式会社,神奈川県,川崎市多摩区,登戸２０６４番地３－２０２号,,14,135,2140014,,,,,,,2024-01-26,1,,,,,ウィンリー,0
1258,4020005016259,新規,0,2024-01-26,2024-01-26,一般社団法人ペット生涯ガイドｗａｎｙａｎｃ．,,その他の設立登記法人,神奈川県,横浜市鶴見区,生麦１丁目１５番１８号,,14,101,2300052,,,,,,,2024-01-26,1,,,,,ペットショウガイガイドワニャンク,0
1260,4021001081296,新規,0,2024-01-26,2024-01-26,株式会社ＢＵＩＬＤ　ＧＥＥＫＳ,,株式会社,神奈川県,鎌倉市,大町５丁目１０番６号,,14,204,2480007,,,,,,,2024-01-26,1,,,,,ビルドギークス,0
1261,4021001081305,新規,0,2024-01-26,2024-01-26,株式会社魁興業,,株式会社,神奈川県,愛甲郡愛川町,中津２０７９番地の１０ゼインレジデンス２０１,,14,401,2430303,,,,,,,2024-01-26,1,,,,,サキガケコウギョウ,0
1262,4021001081313,新規,0,2024-01-26,2024-01-26,株式会社アールユーデザイン,,株式会社,神奈川県,相模原市南区,下溝９２８番地６,,14,153,2520335,,,,,,,2024-01-26,1,,,,,アールユーデザイン,0
1268,4030001158384,新規,0,2024-01-26,2024-01-26,株式会社ＯＣ,,株式会社,埼玉県,さいたま市大宮区,宮町１丁目５１番地２,,11,103,3300802,,,,,,,2024-01-26,1,,,,,オーシー,0
1271,4030003023487,新規,0,2024-01-26,2024-01-26,合同会社ハルヤマオートモーティブサービス,,合同会社,埼玉県,越谷市,レイクタウン５丁目５番地２エクセレント３０５号,,11,222,3430828,,,,,,,2024-01-26,1,,,,,ハルヤマオートモーティブサービス,0
1292,4040001131935,新規,0,2024-01-26,2024-01-26,株式会社マップス,,株式会社,千葉県,袖ケ浦市,蔵波台６丁目２２番地７０,,12,229,2990245,,,,,,,2024-01-26,1,,,,,マップス,0
1293,4040001131943,新規,0,2024-01-26,2024-01-26,株式会社エリナ,,株式会社,千葉県,大網白里市,永田２４５９番地１０,,12,239,2993233,,,,,,,2024-01-26,1,,,,,エリナ,0
1319,4040003024179,新規,0,2024-01-26,2024-01-26,合同会社ＤＭ３号,,合同会社,千葉県,柏市,柏４丁目５番１０号,,12,217,2770005,,,,,,,2024-01-26,1,,,,,ディーエムサンゴウ,0
1320,4040003024195,新規,0,2024-01-26,2024-01-26,ルミエールフルリ合同会社,,合同会社,千葉県,千葉市花見川区,武石町１丁目７９９番地１２,,12,102,2620031,,,,,,,2024-01-26,1,,,,,ルミエールフルリ,0
1332,4050001054177,新規,0,2024-01-26,2024-01-26,ヤミーベジフル株式会社,,株式会社,茨城県,鉾田市,下太田３２１番地２,,08,234,3111402,,,,,,,2024-01-26,1,,,,,ヤミーベジフル,0
1337,4080101024498,新規,0,2024-01-26,2024-01-26,株式会社ＴＲＵＥ　ＫＮＩＧＨＴ,,株式会社,静岡県,御殿場市,東山１０３１番地の４,,22,215,4120024,,,,,,,2024-01-26,1,,,,,トゥルーナイト,0
1338,4080103002972,新規,0,2024-01-26,2024-01-26,ＳＡＫＡＲＡ合同会社,,合同会社,静岡県,伊東市,荻４７２番地の１７５,,22,208,4140053,,,,,,,2024-01-26,1,,,,,サカラ,0
1346,4090001018517,新規,0,2024-01-26,2024-01-26,ＩＮＡＫＡ　Ｌｉｆｅ株式会社,,株式会社,山梨県,北杜市,大泉町西井出８２４０－９７０,,19,209,4091501,,,,,,,2024-01-26,1,,,,,イナカライフ,0
1358,4100003007367,新規,0,2024-01-26,2024-01-26,合同会社ＧＩＣ,,合同会社,長野県,北佐久郡軽井沢町,軽井沢１３２３－１１２７,,20,321,3890103,,,,,,,2024-01-26,1,,,,,ジーアイシー,0
1376,4120001261625,新規,0,2024-01-26,2024-01-26,ＪＳ　ＬＩＦＥホールディングス株式会社,,株式会社,大阪府,大阪市中央区,南船場２丁目２－４－３Ｆ,,27,128,5420081,,,,,,,2024-01-26,1,,,,,ジエイエスライフホールディングス,0
1377,4120001261633,新規,0,2024-01-26,2024-01-26,欽奈居株式会社,,株式会社,大阪府,大阪市生野区,生野東１丁目６番３号１Ｆ,,27,116,5440025,,,,,,,2024-01-26,1,,,,,キンナイ,0
1378,4120001261641,新規,0,2024-01-26,2024-01-26,株式会社Ｔ．Ｆａｃｔｏｒｙ,,株式会社,大阪府,大阪市中央区,高津２丁目１番２号大越ビル１Ｆ,,27,128,5420072,,,,,,,2024-01-26,1,,,,,ティファクトリー,0
1379,4120001261658,新規,0,2024-01-26,2024-01-26,東贏貿易株式会社,00133516,株式会社,大阪府,大阪市中央区,松屋町９番２０号ローレルステート松屋町５０４Ａ,,27,128,5420067,,,,,,,2024-01-26,1,,,,,トウエイボウエキ,0
1380,4120001261666,新規,0,2024-01-26,2024-01-26,ｗｏｎｄｅｒｓ株式会社,,株式会社,大阪府,大阪市東成区,深江北３丁目４番２１号エクラ深江橋６０７Ｂ,,27,115,5370001,,,,,,,2024-01-26,1,,,,,ウァンダーズ,0
1381,4120001261716,新規,0,2024-01-26,2024-01-26,かんらん石美術株式会社,,株式会社,大阪府,大阪市阿倍野区,阪南町１丁目４番１４号,,27,119,5450021,,,,,,,2024-01-26,1,,,,,カンランセキビジュツ,0
1382,4120001261724,新規,0,2024-01-26,2024-01-26,株式会社Ｂｌｉｓｓ,,株式会社,大阪府,大阪市西淀川区,姫島１丁目７番２１号,,27,113,5550033,,,,,,,2024-01-26,1,,,,,ブリス,0
1383,4120001261749,新規,0,2024-01-26,2024-01-26,島田化成株式会社,,株式会社,大阪府,交野市,幾野６丁目２９０３番地１,,27,230,5760054,,,,,,,2024-01-26,1,,,,,シマダカセイ,0
1386,4120003025763,新規,0,2024-01-26,2024-01-26,合同会社ＢＵＺＺ,,合同会社,大阪府,大阪市西区,北堀江２丁目８番１７－３０２号,,27,106,5500014,,,,,,,2024-01-26,1,,,,,バズ,0
1387,4120003025771,新規,0,2024-01-26,2024-01-26,合同会社ＳＯＲＲＩＳＯ,,合同会社,大阪府,大阪市中央区,南船場３丁目２番２２号－２０５,,27,128,5420081,,,,,,,2024-01-26,1,,,,,ソリッソ,0
1388,4120005024136,新規,0,2024-01-26,2024-01-26,ＡＫＢ協同組合,,その他の設立登記法人,大阪府,大阪市北区,天神橋３丁目１番３９号,,27,127,5300041,,,,,,,2024-01-26,1,,,,,エーケービー,0
1391,4120101068961,新規,0,2024-01-26,2024-01-26,株式会社由春,,株式会社,大阪府,堺市中区,八田西町３丁５番４７号ＡＧ‐ＢＬＤ３Ｃ号室,,27,142,5998265,,,,,,,2024-01-26,1,,,,,ユウシュン,0
1394,4120901048675,新規,0,2024-01-26,2024-01-26,株式会社笠井機販,,株式会社,大阪府,高槻市,野見町５番１５号,,27,207,5690077,,,,,,,2024-01-26,1,,,,,カサイキハン,0
1397,4122003002783,新規,0,2024-01-26,2024-01-26,合同会社Ｋオフィス,,合同会社,大阪府,東大阪市,近江堂１丁目５番２号,,27,227,5770817,,,,,,,2024-01-26,1,,,,,ケーオフィス,0
1398,4130001076213,新規,0,2024-01-26,2024-01-26,ミノス商事株式会社,,株式会社,京都府,京都市伏見区,竹田藁屋町７５番地,,26,109,6128443,,,,,,,2024-01-26,1,,,,,ミノスショウジ,0
1399,4130005016982,新規,0,2024-01-26,2024-01-26,一般社団法人サービス追究経営塾,,その他の設立登記法人,京都府,京都市中京区,西ノ京北壺井町８８－１二条プラザ６１５号室,,26,104,6048472,,,,,,,2024-01-26,1,,,,,サービスツイキュウケイエイジュク,0
1403,4140001133070,新規,0,2024-01-26,2024-01-26,株式会社月とすっぽん,,株式会社,兵庫県,美方郡香美町,小代区神水７４４番地１,,28,585,6671511,,,,,,,2024-01-26,1,,,,,ツキトスッポン,0
1404,4140001133095,新規,0,2024-01-26,2024-01-26,株式会社アンドモビリティ,,株式会社,兵庫県,豊岡市,日高町祢布７８９番地１,,28,209,6695305,,,,,,,2024-01-26,1,,,,,アンドモビリティ,0
1405,4140001133112,新規,0,2024-01-26,2024-01-26,株式会社Ｌｏｏｋハウジング,,株式会社,兵庫県,高砂市,高砂町朝日町１丁目７番１１号,,28,216,6760021,,,,,,,2024-01-26,1,,,,,ルックハウジング,0
1423,4260001038687,新規,0,2024-01-26,2024-01-26,株式会社ＴＲＹ　ＡＧＡＩＮ,,株式会社,岡山県,岡山市北区,野田屋町１丁目５番２０号ハタヤマビル１階,,33,101,7000815,,,,,,,2024-01-26,1,,,,,トライアゲイン,0
1424,4260001038704,新規,0,2024-01-26,2024-01-26,株式会社ＣＯＴＥＸ,,株式会社,岡山県,倉敷市,連島町連島１１０番地３５,,33,202,7128011,,,,,,,2024-01-26,1,,,,,コーテックス,0
1425,4260001038712,新規,0,2024-01-26,2024-01-26,ＣＳＴ株式会社,,株式会社,岡山県,岡山市北区,天神町６－４６,,33,101,7000814,,,,,,,2024-01-26,1,,,,,シーエスティ,0
1434,4290001104478,新規,0,2024-01-26,2024-01-26,株式会社理研ネクスト,,株式会社,福岡県,久留米市,通町１０７番地１４アーバンスター１０２,,40,203,8300018,,,,,,,2024-01-26,1,,,,,リケンネクスト,0
1435,4290001104511,新規,0,2024-01-26,2024-01-26,南源株式会社,,株式会社,福岡県,福岡市南区,柳瀬１丁目１番１２－２０１号,,40,134,8111321,,,,,,,2024-01-26,1,,,,,ナンゲン,0
1441,4290801030254,新規,0,2024-01-26,2024-01-26,勝山産業株式会社,,株式会社,福岡県,京都郡みやこ町,犀川谷口６５９番地６３,,40,625,8240216,,,,,,,2024-01-26,1,,,,,カツヤマサンギョウ,0
1459,4330001031692,新規,0,2024-01-26,2024-01-26,ＴＦＫエネルギー株式会社,,株式会社,熊本県,熊本市中央区,中央街４番１０,,43,101,8600802,,,,,,,2024-01-26,1,,,,,ティーエフケイエネルギー,0
1460,4330001031701,新規,0,2024-01-26,2024-01-26,株式会社ＪｉｎｘＪｉｎ,,株式会社,熊本県,合志市,御代志１８７３番地２８,,43,216,8611104,,,,,,,2024-01-26,1,,,,,ジンジン,0
1462,4330005010750,新規,0,2024-01-26,2024-01-26,一般社団法人ソーシャルメディアプロモーション連盟,,その他の設立登記法人,熊本県,熊本市東区,錦ケ丘２３番５号,,43,102,8620912,,,,,,,2024-01-26,1,,,,,ソーシャルメディアプロモーションレンメイ,0
1464,4350001018762,新規,0,2024-01-26,2024-01-26,株式会社Ｌｉｂｅｒｔｙ,,株式会社,宮崎県,宮崎市,城ケ崎３丁目３番地１ルミナス荘苑２０２号,,45,201,8800917,,,,,,,2024-01-26,1,,,,,リバティ,0
1466,4360001033125,新規,0,2024-01-26,2024-01-26,株式会社損害鑑定社,,株式会社,沖縄県,那覇市,長田２丁目２２番１号ミヤシン２２－１０１号,,47,201,9020077,,,,,,,2024-01-26,1,,,,,ソンガイカンテイシャ,0
1470,4380001034261,新規,0,2024-01-26,2024-01-26,株式会社ＤＡＮＫ,,株式会社,福島県,双葉郡浪江町,大字樋渡字南町２４南町ハイツ東棟１０３,,07,547,9791532,,,,,,,2024-01-26,1,,,,,ダンク,0
1472,4390001017505,新規,0,2024-01-26,2024-01-26,株式会社ｄｏ　ｈｅａｌｔｈ,,株式会社,山形県,鶴岡市,朝暘町２８－４,,06,203,9970024,,,,,,,2024-01-26,1,,,,,ドゥヘルス,0
1482,4450005004393,新規,0,2024-01-26,2024-01-26,一般社団法人宗谷ダンスプロジェクト,,その他の設立登記法人,北海道,稚内市,こまどり５丁目４番１７号,,01,214,0970003,,,,,,,2024-01-26,1,,,,,,0
1483,4470001019996,新規,0,2024-01-26,2024-01-26,華通株式会社,,株式会社,香川県,丸亀市,飯野町東分２５６９番地７,,37,202,7630085,,,,,,,2024-01-26,1,,,,,カツウ,0
1484,4480001012372,新規,0,2024-01-26,2024-01-26,株式会社ＷＡ,,株式会社,徳島県,徳島市,川内町鶴島１７番地６,,36,201,7710117,,,,,,,2024-01-26,1,,,,,ダブルエー,0
1485,4500001025438,新規,0,2024-01-26,2024-01-26,株式会社みらいずきゃんばす,,株式会社,愛媛県,松山市,小栗６丁目１番２２号,,38,201,7900036,,,,,,,2024-01-26,1,,,,,ミライズキャンバス,0
1486,4500003003177,新規,0,2024-01-26,2024-01-26,合同会社Ｋ．Ｒ．Ｓ,,合同会社,愛媛県,上浮穴郡久万高原町,上野尻３１６番地３,,38,386,7911206,,,,,,,2024-01-26,1,,,,,ケイアールエス,0
1487,4700150117750,新規,0,2024-01-26,2024-01-26,ＳＨＥＮ　ＺＨＥＮ　ＬＩＮＸＩ　ＭＡＯＹＩ　ＹＯＵＸＩＡＮ　ＧＯＮＧＳＩ,,外国会社等,,,,,,,,ｓｈｅｎｚｈｅｎｓｈｉ　ｎａｎｓｈａｎｑｕ　ｔａｏｙｕａｎｊｉｅｄａｏ　ｐｉｎｇｓｈａｎｓｈｅｑｕ　ｚｈｕｇｕａｎｇｂｅｉｌｕ　８８ｈａｏ　ｍｉｎｇｌｉａｎｇｋｅｊｉｙｕａｎ　２＼３ｄｏｎｇ１０９－１,,,,,,2024-01-26,1,,,,,シェンジェンリンシマオイヨウシエンゴンス,0
1488,4700150118476,新規,0,2024-01-26,2024-01-26,ＹＯＤＯＩＴ　ＬＩＭＩＴＥＤ,,外国会社等,,,,,,,,Ｒｏｏｍ　９０９，Ｔｗｏ　Ｇｒａｎｄ　Ｔｏｗｅｒ，６２５　Ｎａｔｈａｎ　Ｒｏａｄ，Ｋｏｗｌｏｏｎ　Ｈｏｎｇ　Ｋｏｎｇ　９９９０７７　ＨＫ,,,,,,2024-01-26,1,,,,,ヨドイトリミテッド,0
1489,4700150119210,新規,0,2024-01-26,2024-01-26,ｓｈｅｎｚｈｅｎｓｈｉｍａｊｉｙａｎａｇｕｏｊｉｍａｏｙｉｙｏｕｘｉａｎｇｏｎｇｓｉ,,外国会社等,,,,,,,,Ｓｈｅｎ　ｚｈｅｎ　ｓｈｉ　ｌｏｎｇ　ｇａｎｇ　ｑｕ　ｂｕ　ｊｉ　ｊｉｅ　ｄａｏ　ｂｕ　ｊｉ　ｓｈｅ　ｑｕ　ｘｉ　ｈｕａｎ　ｌｕ　７－５　ｈａｏ　３０２,,,,,,2024-01-26,1,,,,,シェンジェンシマージーヤーナーグオジーマオイヨウシェンゴンス,0
1490,4700150120176,新規,0,2024-01-26,2024-01-26,ｓｈｅｎｚｈｅｎｓｈｉｓｉｓｉｒｕｓｈａｎｇｍａｏｙｏｕｘｉａｎｇｏｎｇｓｉ,,外国会社等,,,,,,,,ｓｈｅｎ　ｚｈｅｎ　ｓｈｉ　ｌｏｎｇ　ｇａｎｇ　ｑｕ　ｂｕ　ｊｉ　ｊｉｅ　ｄａｏ　ｂｕ　ｊｉ　ｓｈｅ　ｑｕ　ｘｉ　ｈｕａｎ　ｌｕ　７－５　ｈａｏ　３０３,,,,,,2024-01-26,1,,,,,シェンジェンシツァイツァイゥルゥシャンマオヨウシエンゴンス,0
1491,4700150120977,新規,0,2024-01-26,2024-01-26,Ｓｈｅｎ　Ｚｈｅｎ　Ｓｈｉ　Ｚｈｉ　Ｘｉｎ　Ｋｅ　Ｊｉ　Ｙｏｕ　Ｘｉａｎ　Ｇｏｎｇ　Ｓｉ,,外国会社等,,,,,,,,４Ｆ－１７２，Ｎｏ．１　Ｈｕａｎａｎ　Ａｖｅｎｕｅ，Ｈｅｈｕａ　Ｃｏｍｍｕｎｉｔｙ，Ｐｉｎｇｈｕ　Ｓｔｒｅｅｔ，Ｌｏｎｇｇａｎｇ　Ｄｉｓｔｒｉｃｔ，ＳｈｅｎｚｈｅｎＧｕａｎｇｄｏｎｇ５１８０００ＣＮ,,,,,,2024-01-26,1,,,,,シェンジェンシジーシンクージヨウシエンゴンス,0
1492,4700150121471,新規,0,2024-01-26,2024-01-26,ＪＩＡＸＩＮＧ　ＡＳ　ＴＥＸＴＩＬＥ　ＣＯ．ＬＴＤ．,,外国会社等,,,,,,,,ＰＡＲＩＳ　ＣＩＴＹ　ＢＵＳＩＮＥＳＳ　ＡＲＥＡ，ＷＥＩ　ＬＡＩ　ＴＥ　ＧＯＮＧ，ＵＮＩＴ　８，ＲＯＯＭ　１３，ＬＩＮＧ　ＧＯＮＧ　ＴＡＮＧ　ＲＯＡＤ，ＪＩＡＸＩＮＧＺＨＥＪＩＡＮＧ３１４０２１ＣＮ,,,,,,2024-01-26,1,,,,,ジアンシンアズテクスタイルカンパニーリミテッド,0
1493,4700150121744,新規,0,2024-01-26,2024-01-26,ＤＩＮＧＴＯＮＧ　ＴＥＣＨＮＯＬＯＧＹ　ＣＯ．，ＬＩＭＩＴＥＤ,,外国会社等,,,,,,,,ＲＯＯＭ　５１７，ＮＥＷ　ＣＩＴＹ　ＣＥＮＴＥＲ２　ＬＥＩ　ＹＵＥ　ＭＵＮ　ＲＯＡＤＫＷＵＮ　ＴＯＮＧＫＬ９９９０７７ＨＫ,,,,,,2024-01-26,1,,,,,ディントンテクノロジーカンパニーリミテッド,0
1494,4700150123682,新規,0,2024-01-26,2024-01-26,國學院大學地理学研究会,,その他,東京都,渋谷区,東４丁目１０番２８号,,13,113,1500011,,,,,,,2024-01-26,1,,,,,コクガクインダイガクチリガクケンキュウカイ,0
1502,5010001241827,新規,0,2024-01-26,2024-01-26,株式会社ワイビー,,株式会社,東京都,中央区,日本橋室町２丁目５番８号,,13,102,1030022,,,,,,,2024-01-26,1,,,,,ワイビー,0
1504,5010005037783,新規,0,2024-01-26,2024-01-26,一般社団法人ｆｏｏｔｉｓｍｓｐｏｒｔｓ,,その他の設立登記法人,東京都,中央区,銀座１丁目１２番４号Ｎ＆ＥＢＬＤ．７階,,13,102,1040061,,,,,,,2024-01-26,1,,,,,フットイズムスポーツ,0
1505,5010005037800,新規,0,2024-01-26,2024-01-26,一般社団法人西武線入間市駅前開発,,その他の設立登記法人,東京都,千代田区,平河町１丁目６番１５号シルスフィア会計事務所内,,13,101,1020093,,,,,,,2024-01-26,1,,,,,セイブセンイルマシエキマエカイハツ,0
1506,5010103002301,新規,0,2024-01-26,2024-01-26,合同会社Ａｓｋ‐Ｍｅ,,合同会社,東京都,八王子市,南大沢３丁目２－２－３０２,,13,201,1920364,,,,,,,2024-01-26,1,,,,,,0
1510,5010401179865,新規,0,2024-01-26,2024-01-26,ワールドウェルビーイング株式会社,,株式会社,東京都,港区,東新橋２丁目１８番４号グラディート汐留ロッソ１００２号室,,13,103,1050021,,,,,,,2024-01-26,1,,,,,ワールドウェルビーイング,0
1511,5010401179948,新規,0,2024-01-26,2024-01-26,Ｂｅａｓｌｅｙ＆Ａｓｓｏｃｉａｔｅｓ株式会社,,株式会社,東京都,港区,芝大門１丁目１０－１１芝大門センタービル１０階,,13,103,1050012,,,,,,,2024-01-26,1,,,,,ビースリーアンドアソシエイツ,0
1512,5010401180039,新規,0,2024-01-26,2024-01-26,株式会社ＯＵＤ,,株式会社,東京都,港区,赤坂４丁目１４－１４－１３０６,,13,103,1070052,,,,,,,2024-01-26,1,,,,,ウード,0
1514,5010405022880,新規,0,2024-01-26,2024-01-26,一般社団法人ＡＯＺＯＲＡ,,その他の設立登記法人,東京都,港区,元麻布２丁目１番１３号,,13,103,1060046,,,,,,,2024-01-26,1,,,,,アオゾラ,0
1517,5010601064545,新規,0,2024-01-26,2024-01-26,天勝株式会社,,株式会社,東京都,江東区,亀戸７丁目５０番２号３０１号室,,13,108,1360071,,,,,,,2024-01-26,1,,,,,テンカツ,0
1519,5010603010613,新規,0,2024-01-26,2024-01-26,合同会社千萌,,合同会社,東京都,墨田区,文花１丁目１８－１３,,13,107,1310044,,,,,,,2024-01-26,1,,,,,チーホウ,0
1527,5010801034736,新規,0,2024-01-26,2024-01-26,株式会社ｎｏｍｂｒｅ,,株式会社,東京都,大田区,大森南３丁目１９番５号,,13,111,1430013,,,,,,,2024-01-26,1,,,,,ノンブル,0
1543,5011001159563,新規,0,2024-01-26,2024-01-26,株式会社十,,株式会社,東京都,渋谷区,神宮前５丁目９番１５号トータルアートワークスクエアＢ２,,13,113,1500001,,,,,,,2024-01-26,1,,,,,トオ,0
1544,5011001159605,新規,0,2024-01-26,2024-01-26,ＡＮＱＩアセットマネジメント株式会社,,株式会社,東京都,渋谷区,千駄ヶ谷３丁目５番１５号,,13,113,1510051,,,,,,,2024-01-26,1,,,,,アンキアセットマネジメント,0
1546,5011003018370,新規,0,2024-01-26,2024-01-26,合同会社Ｃａｖａｌｌｏ,,合同会社,東京都,渋谷区,恵比寿４丁目２０－４ガーデンプレイスグラススクエアＢ１,,13,113,1500013,,,,,,,2024-01-26,1,,,,,カヴァロ,0
1547,5011005010350,新規,0,2024-01-26,2024-01-26,一般社団法人日本エアライフル協会,,その他の設立登記法人,東京都,渋谷区,神宮前３丁目１１番１３号,,13,113,1500001,,,,,,,2024-01-26,1,,,,,ニホンエアライフルキョウカイ,0
1555,5011101105987,新規,0,2024-01-26,2024-01-26,株式会社ＢｉｚＤＢ,,株式会社,東京都,新宿区,若葉３丁目４番地１,,13,104,1600011,,,,,,,2024-01-26,1,,,,,ビズディービー,0
1583,5011501030249,新規,0,2024-01-26,2024-01-26,和順株式会社,,株式会社,東京都,荒川区,町屋３丁目２４番２号面川ビル３１７号室,,13,118,1160001,,,,,,,2024-01-26,1,,,,,ワジュン,0
1586,5011503005934,新規,0,2024-01-26,2024-01-26,合同会社龍の介,,合同会社,東京都,北区,東田端２丁目８番３号共同ビル１０１,,13,117,1140013,,,,,,,2024-01-26,1,,,,,リュウノスケ,0
1588,5011603004225,新規,0,2024-01-26,2024-01-26,合同会社ユーアイテック,,合同会社,東京都,練馬区,豊玉南３丁目２番５号サンセール豊玉Ａ４０１,,13,120,1760014,,,,,,,2024-01-26,1,,,,,ユーアイテック,0
1602,5012801022935,新規,0,2024-01-26,2024-01-26,騰発日本株式会社,,株式会社,東京都,立川市,曙町２丁目３２番１４号,00133524,13,202,1900012,,,,,,,2024-01-26,1,,,,,トウハツニホン,0
1605,5013301051937,新規,0,2024-01-26,2024-01-26,株式会社ｂｌｏｓｓｏｍ　ｚｏｏ,,株式会社,東京都,豊島区,東池袋１丁目３６番５号,,13,116,1700013,,,,,,,2024-01-26,1,,,,,ブロッサムズー,0
1606,5013301051961,新規,0,2024-01-26,2024-01-26,Ｓｍａｒｔ　Ｏｖｅｒｓｅａｓ株式会社,,株式会社,東京都,豊島区,上池袋１丁目３３番１０号松本ハウス１Ｃ号,,13,116,1700012,,,,,,,2024-01-26,1,,,,,スマートオーバーシーズ,0
1614,5020001155530,新規,0,2024-01-26,2024-01-26,株式会社ＡＢＭ,,株式会社,神奈川県,横浜市南区,永田南１丁目３－５－５０２,,14,105,2320073,,,,,,,2024-01-26,1,,,,,エービーエム,0
1615,5020001155539,新規,0,2024-01-26,2024-01-26,株式会社セブンプログラム,,株式会社,神奈川県,川崎市川崎区,堀之内町７番地２７,,14,131,2100003,,,,,,,2024-01-26,1,,,,,セブンプログラム,0
1620,5020003025426,新規,0,2024-01-26,2024-01-26,合同会社フォーシーズン,,合同会社,神奈川県,横浜市鶴見区,仲通２丁目６０番地の９,,14,101,2300042,,,,,,,2024-01-26,1,,,,,フォーシーズン,0
1631,5021003014071,新規,0,2024-01-26,2024-01-26,合同会社つるる不動産,,合同会社,神奈川県,相模原市中央区,淵野辺３丁目１８番４―７０５号,,14,152,2520206,,,,,,,2024-01-26,1,,,,,ツルルフドウサン,0
1637,5030001158359,新規,0,2024-01-26,2024-01-26,株式会社ＳＲ,,株式会社,埼玉県,桶川市,下日出谷東２丁目９番地の９,,11,231,3630029,,,,,,,2024-01-26,1,,,,,エスアール,0
1649,5030003023486,新規,0,2024-01-26,2024-01-26,合同会社ヴァン・ヴェール,,合同会社,埼玉県,北葛飾郡杉戸町,内田３丁目９番２２号,,11,464,3450035,,,,,,,2024-01-26,1,,,,,ヴァンヴェール,0
1650,5030003023494,新規,0,2024-01-26,2024-01-26,合同会社Ｔ＆Ｔ,,合同会社,埼玉県,川口市,中青木２丁目１１－８,,11,203,3320032,,,,,,,2024-01-26,1,,,,,ティーアンドティー,0
1670,5040001131884,新規,0,2024-01-26,2024-01-26,ＦＬＡＴ　ＴＷＩＮ株式会社,,株式会社,千葉県,千葉市若葉区,みつわ台５丁目２９番４棟２０８号,,12,104,2640032,,,,,,,2024-01-26,1,,,,,フラットツイン,0
1671,5040001131901,新規,0,2024-01-26,2024-01-26,株式会社ＡＰＥＸ,,株式会社,千葉県,白井市,冨士６７番地の１０２セントラルハイツＩＩ２０３号,00133515,12,232,2701432,,,,,,,2024-01-26,1,,,,,エーペックス,0
1672,5040001131926,新規,0,2024-01-26,2024-01-26,株式会社穂,,株式会社,千葉県,君津市,六手４８６番地２,,12,225,2991111,,,,,,,2024-01-26,1,,,,,ミノリ,0
1673,5040001131934,新規,0,2024-01-26,2024-01-26,ＹＨアーキテクト株式会社,,株式会社,千葉県,富津市,青木４丁目６番地１６,,12,226,2930012,,,,,,,2024-01-26,1,,,,,ワイエイチアーキテクト,0
1691,5040003024178,新規,0,2024-01-26,2024-01-26,合同会社ＤＭ１号,,合同会社,千葉県,柏市,柏４丁目５番１０号,,12,217,2770005,,,,,,,2024-01-26,1,,,,,ディーエムイチゴウ,0
1692,5040003024194,新規,0,2024-01-26,2024-01-26,合同会社あすなろ,,合同会社,千葉県,千葉市中央区,生実町２５４５番地５,,12,101,2600813,,,,,,,2024-01-26,1,,,,,アスナロ,0
1704,5050003008089,新規,0,2024-01-26,2024-01-26,合同会社Ｙ．Ｓサンライト,,合同会社,茨城県,高萩市,大字安良川５５番地の２,,08,214,3180021,,,,,,,2024-01-26,1,,,,,ワイエスサンライト,0
1705,5060001036768,新規,0,2024-01-26,2024-01-26,株式会社ジオ・トラベル,,株式会社,栃木県,河内郡上三川町,大字西汗１７８０番地,,09,301,3290607,,,,,,,2024-01-26,1,,,,,ジオトラベル,0
1707,5060005010166,新規,0,2024-01-26,2024-01-26,特定非営利活動法人Ｓａｂａｉ　Ｍｉｎｄ,,その他の設立登記法人,栃木県,那須烏山市,曲畑１０２１番地１,,09,215,3210523,,,,,,,2024-01-26,1,,,,,サバーイマインド,0
1716,5090001018516,新規,0,2024-01-26,2024-01-26,株式会社ＴＩＣ　ＨＯＭＥ,,株式会社,山梨県,甲府市,白井町５６８番地３,,19,201,4001502,,,,,,,2024-01-26,1,,,,,ティックホーム,0
1745,5120001261624,新規,0,2024-01-26,2024-01-26,心恩株式会社,,株式会社,大阪府,大阪市西淀川区,姫島２丁目４番１０号パークアベニュー２階Ａ室,,27,113,5550033,,,,,,,2024-01-26,1,,,,,シンオン,0
1746,5120001261632,新規,0,2024-01-26,2024-01-26,一葦国際株式会社,,株式会社,大阪府,大阪市東住吉区,湯里５丁目１６番地５号３Ｆ－Ｆ,,27,121,5460013,,,,,,,2024-01-26,1,,,,,イチイコクサイ,0
1747,5120001261657,新規,0,2024-01-26,2024-01-26,ライフワークス株式会社,,株式会社,大阪府,大阪市西成区,千本中２丁目３番１９号竹之内ビル３階,,27,122,5570054,,,,,,,2024-01-26,1,,,,,ライフワークス,0
1748,5120001261665,新規,0,2024-01-26,2024-01-26,禾禾墨株式会社,,株式会社,大阪府,大阪市都島区,中野町４丁目３番６号Ｈ２Ｈ大阪桜之宮邸１Ｄ－２,,27,102,5340027,,,,,,,2024-01-26,1,,,,,カカスミ,0
1749,5120001261673,新規,0,2024-01-26,2024-01-26,Ｙ＆Ｄ株式会社,,株式会社,大阪府,大阪市中央区,本町２丁目３－４アソルティ本町４階,,27,128,5410053,,,,,,,2024-01-26,1,,,,,ワイアンドディー,0
1750,5120001261723,新規,0,2024-01-26,2024-01-26,嘉盛株式会社,,株式会社,大阪府,大阪市中央区,日本橋２丁目１５番１３号１Ｆ,,27,128,5420073,,,,,,,2024-01-26,1,,,,,カセイ,0
1752,5120003025762,新規,0,2024-01-26,2024-01-26,合同会社Ｋ２,,合同会社,大阪府,大阪市生野区,中川１丁目５番１６号エリア３９・２０６号室,,27,116,5440005,,,,,,,2024-01-26,1,,,,,ケーツー,0
1755,5120101068969,新規,0,2024-01-26,2024-01-26,株式会社橙,,株式会社,大阪府,堺市中区,深阪２丁５－２ル・ミエール深阪１０５号,,27,142,5998253,,,,,,,2024-01-26,1,,,,,ダイダイ,0
1756,5120103005648,新規,0,2024-01-26,2024-01-26,ＭＡＲＩＵＭ　ＴＲＡＤＩＮＧ合同会社,,合同会社,大阪府,和泉市,父鬼町２５４番地の１－１階,,27,219,5941132,,,,,,,2024-01-26,1,,,,,マリウムトレーディング,0
1758,5120105009820,新規,0,2024-01-26,2024-01-26,医療法人理秀会,,その他の設立登記法人,大阪府,堺市西区,鳳東町７丁７３３番地おおとりウイングス２階,,27,144,5938324,,,,,,,2024-01-26,1,,,,,リシュウカイ,0
1761,5120901048690,新規,0,2024-01-26,2024-01-26,株式会社ＫＨ,,株式会社,大阪府,豊中市,稲津町２丁目１１番５号３０５号,,27,203,5610854,,,,,,,2024-01-26,1,,,,,ケーエイチ,0
1762,5120903005005,新規,0,2024-01-26,2024-01-26,合同会社クラフル,,合同会社,大阪府,吹田市,千里丘西１６番９－１号,,27,205,5650814,,,,,,,2024-01-26,1,,,,,クラフル,0
1765,5122003002782,新規,0,2024-01-26,2024-01-26,ＳＴ２合同会社,,合同会社,大阪府,大東市,三住町３番１９号,,27,218,5740027,,,,,,,2024-01-26,1,,,,,エスティーツー,0
1770,5130001076212,新規,0,2024-01-26,2024-01-26,株式会社焼肉力,,株式会社,京都府,京都市下京区,綾小路通麩屋町西入塩屋町７９番地,,26,106,6008052,,,,,,,2024-01-26,1,,,,,ヤキニクリキ,0
1771,5130001076220,新規,0,2024-01-26,2024-01-26,株式会社オプトパートナー,,株式会社,京都府,京田辺市,三山木野神１００番地,,26,211,6100313,,,,,,,2024-01-26,1,,,,,オプトパートナー,0
1772,5130001076229,新規,0,2024-01-26,2024-01-26,株式会社コムライズキャリア,,株式会社,京都府,京都市中京区,麩屋町通二条下る尾張町２２５番地,,26,104,6040934,,,,,,,2024-01-26,1,,,,,コムライズキャリア,0
1780,5140001133094,新規,0,2024-01-26,2024-01-26,株式会社Ｒｉｎｇｓ,,株式会社,兵庫県,尼崎市,御園２丁目１５－１御園団地１－２０６,,28,202,6610984,,,,,,,2024-01-26,1,,,,,リングス,0
1781,5140003020002,新規,0,2024-01-26,2024-01-26,ＨｕａｎＢｌａｃｋ合同会社,,合同会社,兵庫県,明石市,二見町東二見３７５番地２,,28,203,6740092,,,,,,,2024-01-26,1,,,,,フアンブラック,0
1782,5140003020019,新規,0,2024-01-26,2024-01-26,合同会社はなたば,,合同会社,兵庫県,加古川市,東神吉町西井ノ口８０６番地の７,,28,210,6750055,,,,,,,2024-01-26,1,,,,,ハナタバ,0
1783,5140003020084,新規,0,2024-01-26,2024-01-26,合同会社ＮＡＭＩＹＡ,,合同会社,兵庫県,姫路市,書写２２１６番地４,,28,201,6712201,,,,,,,2024-01-26,1,,,,,ナミヤ,0
1785,5160001025645,新規,0,2024-01-26,2024-01-26,サンジョ株式会社,,株式会社,滋賀県,彦根市,肥田町９８１番地１－１０３号,,25,202,5211123,,,,,,,2024-01-26,1,,,,,サンジョ,0
1789,5190001031054,新規,0,2024-01-26,2024-01-26,アクアペックスすずか株式会社,,株式会社,三重県,鈴鹿市,上野町６３０番地,,24,207,5130017,,,,,,,2024-01-26,1,,,,,アクアペックススズカ,0
1793,5240001062671,新規,0,2024-01-26,2024-01-26,ＣＲＯＣＨＥ株式会社,,株式会社,広島県,福山市,水呑町三新田１丁目６０８番地ヌーヴェルオーブＦ１Ｂ１０１,,34,207,7200830,,,,,,,2024-01-26,1,,,,,クロッシュ,0
1794,5240001062721,新規,0,2024-01-26,2024-01-26,総合不動産販売株式会社,,株式会社,広島県,呉市,本通３丁目３番１２号,,34,202,7370045,,,,,,,2024-01-26,1,,,,,ソウゴウフドウサンハンバイ,0
1797,5240005015709,新規,0,2024-01-26,2024-01-26,一般社団法人おおきんライフサポート協議会,,その他の設立登記法人,広島県,廿日市市,桜尾本町１番１７号,,34,213,7380005,,,,,,,2024-01-26,1,,,,,オオキンライフサポートキョウギカイ,0
1800,5260003004554,新規,0,2024-01-26,2024-01-26,合同会社Ｔ＆Ｋ,,合同会社,岡山県,小田郡矢掛町,西川面６８５,,33,461,7141222,,,,,,,2024-01-26,1,,,,,ティーアンドケイ,0
1802,5280003001806,新規,0,2024-01-26,2024-01-26,合資会社Ｗａｋｕ２きゃんぱす,,合資会社,島根県,浜田市,西村町１４３３番地３１,,32,202,6971337,,,,,,,2024-01-26,1,,,,,ワクワクキャンパス,0
1804,5290001104510,新規,0,2024-01-26,2024-01-26,Ｘｆｕｎｄ株式会社,,株式会社,福岡県,福岡市博多区,吉塚４丁目３番３７－１号,,40,132,8120041,,,,,,,2024-01-26,1,,,,,エックスファンド,0
1805,5290001104535,新規,0,2024-01-26,2024-01-26,株式会社ＤＡＩＳＡＮ,,株式会社,福岡県,福岡市東区,松崎１丁目４４番９－３０３号,,40,131,8130035,,,,,,,2024-01-26,1,,,,,ダイサン,0
1808,5290005019275,新規,0,2024-01-26,2024-01-26,医療法人社団健匡会,,その他の設立登記法人,福岡県,福岡市中央区,大名２丁目１番４号ＳＴＡＧＥ１西通り５階,,40,133,8100041,,,,,,,2024-01-26,1,,,,,ケンキョウカイ,0
1810,5290801030253,新規,0,2024-01-26,2024-01-26,株式会社ユニコーン,,株式会社,福岡県,北九州市八幡西区,引野１丁目５番８号,,40,109,8060067,,,,,,,2024-01-26,1,,,,,ユニコーン,0
1832,5350003004553,新規,0,2024-01-26,2024-01-26,合同会社ｅｓｏｒａ,,合同会社,宮崎県,宮崎市,吾妻町３７番地グランドパレス大淀河畔５０８号,,45,201,8800864,,,,,,,2024-01-26,1,,,,,エソラ,0
1833,5360001033116,新規,0,2024-01-26,2024-01-26,株式会社エムケーホームズ,,株式会社,沖縄県,中頭郡嘉手納町,字兼久３７２番地２ネーブルカデナ２階Ａ－２１,,47,325,9040205,,,,,,,2024-01-26,1,,,,,エムケーホームズ,0
1835,5360003013652,新規,0,2024-01-26,2024-01-26,合同会社泊中村屋,,合同会社,沖縄県,那覇市,天久２丁目９番２６号,,47,201,9000005,,,,,,,2024-01-26,1,,,,,トマリナカムラヤ,0
1841,5380001034260,新規,0,2024-01-26,2024-01-26,株式会社ヨシ建築,,株式会社,福島県,いわき市,内郷宮町町田１番２,,07,204,9738407,,,,,,,2024-01-26,1,,,,,ヨシケンチク,0
1843,5390005009051,新規,0,2024-01-26,2024-01-26,一般社団法人Ｆｕｋｕ‐ｗｅｌｌ,,その他の設立登記法人,山形県,新庄市,沖の町３番３号,,06,205,9960023,,,,,,,2024-01-26,1,,,,,フクウェル,0
1849,5430003015889,新規,0,2024-01-26,2024-01-26,ＫＳＨ合同会社,,合同会社,北海道,札幌市北区,篠路五条５丁目４番１０号,,01,102,0028025,,,,,,,2024-01-26,1,,,,,ケーエスエイチ,0
1852,5480001012371,新規,0,2024-01-26,2024-01-26,株式会社クロック,,株式会社,徳島県,鳴門市,撫養町小桑島字前浜２３番地９,,36,202,7720012,,,,,,,2024-01-26,1,,,,,クロック,0
1854,5490001010688,新規,0,2024-01-26,2024-01-26,Ｌｅ　Ｌｉｅｎ株式会社,,株式会社,高知県,土佐市,高岡町甲１９７５番地１５,,39,205,7811101,,,,,,,2024-01-26,1,,,,,ルリアン,0
1856,5700150118401,新規,0,2024-01-26,2024-01-26,ｓｈｅｎｚｈｅｎｓｈｉｆｕｓｉｎｏｎｇｍａｏｙｉｙｏｕｘｉａｎｇｏｎｇｓｉ,,外国会社等,,,,,,,,ｌｏｎｇ　ｃｈｅｎｇ　ｊｉｅ　ｄａｏ　ｙｕ　ｙｕａｎ　ｓｈｅ　ｑｕ　ｚｈｏｎｇ　ｘｉｎ　ｃｈｅｎｇ　ｌｏｎｇ　ｆｕ　ｘｉ　ｌｕ　ｌｏｎｇ　ｃｈｅｎｇ　ｇｕｏ　ｊｉ　１０　ｄｏｎｇ　１６１３　Ｓｈｅｎ　ｚｈｅｎ　ｌｏｎｇ　ｇａｎｇ　ｑｕ　Ｇｕａｎｇ　ｄｏｎｇ　５１８１７２ＣＮ,,,,,,2024-01-26,1,,,,,シェンジェンシフゥスーノンマオイーヨウシェンゴンスー,0
1857,5700150118475,新規,0,2024-01-26,2024-01-26,ＨＯＮＧＫＯＮＧ　ＨＡＮ　ＨＡＮＧ　ＴＲＡＤＩＮＧ　ＬＩＭＩＴＥＤ,,外国会社等,,,,,,,,ＦＬＡＴ／ＲＭ　１６０２　１６／Ｆ，ＬＵＣＫＹ　ＣＥＮＴＲＥ　Ｎｏ．１６５－１７１　ＷＡＮ　ＣＨＡＩ　ＲＯＡＤ　ＨＯＮＧ　ＫＯＮＧ　ＷＡＮ　ＣＨＡＩ　９９９０７７　ＨＫ,,,,,,2024-01-26,1,,,,,ホンコンハンハントレーディングリミテッド,0
1858,5700150120150,新規,0,2024-01-26,2024-01-26,ｔｉｎｇｙｕａｎｄｉａｎｚｉｓｈａｎｇｗｕ（ｓｈａｎｇｈａｉ）ｙｏｕｘｉａｎｇｏｎｇｓｉ,,外国会社等,,,,,,,,ｘｉｎｓｏｎｇｊｉａｎｇｌｕ１８００ｎｏｎｇ３ｈａｏ，ｓｏｎｇｊｉａｎｇｑｕ，ｓｈａｎｇｈａｉｓｈｉ,,,,,,2024-01-26,1,,,,,ティーンユエンディエンズーシャーンウーシャーンハイヨウシエンゴーンスー,0
1859,5700150120175,新規,0,2024-01-26,2024-01-26,ｇｕａｎｇｚｈｏｕｈｕａｚｈｏｎｇｙｏｕｃａｉｍａｏｙｉｙｏｕｘｉａｎｇｏｎｇｓｉ,,外国会社等,,,,,,,,Ｒｏｏｍ　Ｃ９８，６ｔｈ　Ｆｌｏｏｒ　６１５，Ｎｏ．４　Ｌｉｎｇｓｈａｎ　Ｅａｓｔ　Ｒｏａｄ，Ｔｉａｎｈｅ　Ｄｉｓｔｒｉｃｔ，Ｇｕａｎｇｚｈｏｕ　Ｃｉｔｙ,,,,,,2024-01-26,1,,,,,グワンジョウホワジョーンヨウツァイマオイーヨウシエンゴンス,0
1860,5700150120976,新規,0,2024-01-26,2024-01-26,Ｊｉｕｊｉａｎｇｄｅｆｅｎｒｕｏｍａｏｙｉｙｏｕｘｉａｎｇｏｎｇｓｉ,,外国会社等,,,,,,,,Ｒｏｏｍ　１０４，Ｕｎｉｔ　３，Ｂｕｉｌｄｉｎｇ　８，Ｂａｌｉｐｏ　Ｒｅｓｅｔｔｌｅｍｅｎｔ　Ｃｏｍｍｕｎｉｔｙ，Ｌｉａｎｘｉ　Ｄｉｓｔｒｉｃｔ，Ｊｉｕｊｉａｎｇ　Ｃｉｔｙ，ｊｉａｎｇｘｉ　Ｐｒｏｖｉｎｃｅ,,,,,,2024-01-26,1,,,,,ジウジアーンドーァフェンゥルオマオイーヨウシエンゴンス,0
1861,5700150121470,新規,0,2024-01-26,2024-01-26,ＪＩＡＮＧＹＩＮＳＨＩ　ＬＯＮＧＨＵＩＴＩＹＵＦＡＺＨＡＮ　ＹＯＵＸＩＡＮＧＯＮＧＳＩ,,外国会社等,,,,,,,,ｚｈａｏｄａｎｇｃｕｎ３８ｈａｏ　ｊｉａｎｇｙｉｎｓｈｉｑｉｎｇｙａｎｇｚｈｅｎ　ｊｉａｎｇｓｕｓｈｅｎｇ　Ｃｈｉｎａ　２１４４０３,,,,,,2024-01-26,1,,,,,ジアンインシロンホゥイティーユイファージャンヨウシエンゴンス,0
1862,5700150121743,新規,0,2024-01-26,2024-01-26,Ｑｉｎｇｄａｏ　Ｊｉｕｋａｉｈｏｎｇ　Ｎｅｔｗｏｒｋ　Ｔｅｃｈｎｏｌｏｇｙ　Ｃｏ．，Ｌｔｄ．,,外国会社等,,,,,,,,Ｒｏｏｍ２０２－７，Ｓｏｕ．Ａｒｅａ　ｏｆ　Ｂ１９，Ｎｏ．４６　Ｓｉｌｉｕｚｈｏｎｇ　Ｒｏａｄ，ＬｉｃａｎｇＤｉｓｔｒｉｃｔ，ＱｉｎｇｄａｏＳｈａｎｄｏｎｇ２６６０４１　ＣＮ,,,,,,2024-01-26,1,,,,,チンダオジウカイフンネットワークテクノロジーカンパニーリミテッド,0
1863,5700150123649,新規,0,2024-01-26,2024-01-26,ＮＥＬＵＭ　ＲＩＣＥ　ＭＩＬＬ,,外国会社等,千葉県,八街市,東吉田７２５番地オフィス４号,,12,230,2891114,スリランカ民主社会主義共和国、エトゥウェリピティヤ,,,,,,2024-01-26,1,,,,,ネルムライスミル,0
1864,5700150123681,新規,0,2024-01-26,2024-01-26,国際超電導シンポジウム（ＩＳＳ）実行委員会,,その他,茨城県,つくば市,小野川１６－１産総研つくば西－１　４階４２０５室,,08,220,3050053,,,,,,,2024-01-26,1,,,,,コクサイチョウデンドウシンポジウムアイエスエスジッコウイインカイ,0
1871,6010001241776,新規,0,2024-01-26,2024-01-26,株式会社ＯＺ　ｆａｃｔｏｒｙ,,株式会社,東京都,中央区,銀座１丁目２２番１１号銀座大竹ビジデンス２Ｆ,,13,102,1040061,,,,,,,2024-01-26,1,,,,,オーゼットファクトリー,0
1879,6010003042669,新規,0,2024-01-26,2024-01-26,ｍｉｗａｙａ合同会社,,合同会社,東京都,中央区,銀座１丁目１２－４Ｎ＆ＥＢＬＤ．７Ｆ,,13,102,1040061,,,,,,,2024-01-26,1,,,,,ミワヤ,0
1880,6010003042784,新規,0,2024-01-26,2024-01-26,合同会社西武線入間市駅前開発プロジェクト,,合同会社,東京都,千代田区,平河町１丁目６番１５号シルスフィア会計事務所内,,13,101,1020093,,,,,,,2024-01-26,1,,,,,セイブセンイルマシエキマエカイハツプロジェクト,0
1881,6010003042801,新規,0,2024-01-26,2024-01-26,ルビーＩＩ合同会社,,合同会社,東京都,千代田区,丸の内３丁目１番１号東京共同会計事務所内,,13,101,1000005,,,,,,,2024-01-26,1,,,,,ルビーツー,0
1891,6010403031800,新規,0,2024-01-26,2024-01-26,Ｏｕｔ　ｏｆ　Ｂｏｕｎｄｓ合同会社,,合同会社,東京都,港区,芝浦４丁目８－１２メゾン田町９０４,,13,103,1080023,,,,,,,2024-01-26,1,,,,,アウトオブバウンズ,0
1902,6010601064503,新規,0,2024-01-26,2024-01-26,アルファクリエーション株式会社,,株式会社,東京都,江東区,大島３丁目４番地７山口ビル１階,,13,108,1360072,,,,,,,2024-01-26,1,,,,,アルファクリエーション,0
1903,6010601064544,新規,0,2024-01-26,2024-01-26,株式会社Ｍ・Ｍ・Ｏ,,株式会社,東京都,墨田区,緑２丁目５番４号,,13,107,1300021,,,,,,,2024-01-26,1,,,,,エムエムオー,0
1907,6010701045452,新規,0,2024-01-26,2024-01-26,株式会社ＭＫ備蓄ネット,,株式会社,東京都,品川区,西五反田４丁目１９－１５,,13,109,1410031,,,,,,,2024-01-26,1,,,,,エムケービチクネット,0
1914,6010801034727,新規,0,2024-01-26,2024-01-26,Ｎ‐Ｎコンサルティング株式会社,,株式会社,東京都,大田区,久が原４丁目４１番４号,,13,111,1460085,,,,,,,2024-01-26,1,,,,,エヌエヌコンサルティング,0
1915,6010801034735,新規,0,2024-01-26,2024-01-26,株式会社Ａ２Ｇ,,株式会社,東京都,大田区,西嶺町５番１２号,,13,111,1450075,,,,,,,2024-01-26,1,,,,,エーツージー,0
1922,6010901054609,新規,0,2024-01-26,2024-01-26,株式会社ｋｍｉ,,株式会社,東京都,世田谷区,池尻２丁目３２番１１号ラ・カサ・セレナータ２０２,,13,112,1540001,,,,,,,2024-01-26,1,,,,,ケーエムアイ,0
1931,6011001159158,新規,0,2024-01-26,2024-01-26,株式会社Ｈａｃｋｙ,,株式会社,東京都,渋谷区,道玄坂１丁目１０番８号渋谷道玄坂東急ビル２Ｆ－Ｃ,,13,113,1500043,,,,,,,2024-01-26,1,,,,,ハッキー,0
1932,6011001159604,新規,0,2024-01-26,2024-01-26,株式会社ＴＲＥＦＬＥ,,株式会社,東京都,渋谷区,千駄ヶ谷３丁目１５番６号,,13,113,1510051,,,,,,,2024-01-26,1,,,,,トレフル,0
1933,6011001159629,新規,0,2024-01-26,2024-01-26,株式会社サードラボ,,株式会社,東京都,渋谷区,円山町５番５号Ｎａｖｉ渋谷Ｖ３階,,13,113,1500044,,,,,,,2024-01-26,1,,,,,サードラボ,0
1951,6011105010927,新規,0,2024-01-26,2024-01-26,一般社団法人みらい健康医療ケアＬａｂ．,,その他の設立登記法人,東京都,新宿区,西新宿３丁目３番１３号西新宿水間ビル２Ｆ,,13,104,1600023,,,,,,,2024-01-26,1,,,,,ミライケンコウイリョウケアラボ,0
1956,6011301029358,新規,0,2024-01-26,2024-01-26,株式会社リーダーシップ基礎力研究所,,株式会社,東京都,杉並区,西荻北１丁目２番１５号,,13,115,1670042,,,,,,,2024-01-26,1,,,,,リーダーシップキソリョクケンキュウショ,0
1960,6011401025802,新規,0,2024-01-26,2024-01-26,Ｌｉｍ‐Ｋａｗａｎｏ＆Ｃｏｍｐａｎｙ株式会社,,株式会社,東京都,板橋区,向原１丁目２１－１５－１０５,,13,119,1730036,,,,,,,2024-01-26,1,,,,,リムカワノアンドカンパニー,0
1961,6011401025810,新規,0,2024-01-26,2024-01-26,株式会社Ｅｓｐｅｒａｎｃｅ,,株式会社,東京都,板橋区,西台２丁目１６番３４号,,13,119,1750045,,,,,,,2024-01-26,1,,,,,エスペランス,0
1967,6011501030248,新規,0,2024-01-26,2024-01-26,禹徳宏業株式会社,00133513,株式会社,東京都,荒川区,町屋３丁目２４番２号面川ビル３１８号室,,13,118,1160001,,,,,,,2024-01-26,1,,,,,ウトクコウギョウ,0
1976,6011601027490,新規,0,2024-01-26,2024-01-26,株式会社Ａｎｇｅｙ,,株式会社,東京都,練馬区,中村北４丁目２番１２－４０１号,,13,120,1760023,,,,,,,2024-01-26,1,,,,,アンジー,0
1979,6011701026962,新規,0,2024-01-26,2024-01-26,株式会社輝,,株式会社,東京都,江戸川区,平井５丁目３８番３号,,13,123,1320035,,,,,,,2024-01-26,1,,,,,ヒカリ,0
1983,6012401041467,新規,0,2024-01-26,2024-01-26,株式会社ＮＯＲＭＳ,,株式会社,東京都,調布市,深大寺東町６丁目５番地２５号,,13,208,1820012,,,,,,,2024-01-26,1,,,,,ノームズ,0
1989,6012703002893,新規,0,2024-01-26,2024-01-26,ＨＯＡＮＧ　ＮＡＭ合同会社,,合同会社,東京都,西東京市,保谷町３丁目１２番１５号サンモール金子ビル３０３号,,13,229,2020015,,,,,,,2024-01-26,1,,,,,ホアンナム,0
1993,6012803003296,新規,0,2024-01-26,2024-01-26,合同会社夢民舎,,合同会社,東京都,東大和市,向原６丁目１２０１番地の７８,,13,220,2070013,,,,,,,2024-01-26,1,,,,,ムウミンシャ,0
1996,6013301051952,新規,0,2024-01-26,2024-01-26,株式会社ブライトスプリング,,株式会社,東京都,豊島区,南池袋１丁目１６番２０号,,13,116,1710022,,,,,,,2024-01-26,1,,,,,ブライトスプリング,0
2001,6020001155521,新規,0,2024-01-26,2024-01-26,株式会社Ｃ．Ｏ．Ｌ,,株式会社,神奈川県,横浜市鶴見区,東寺尾１丁目２８番９－１号,,14,101,2300077,,,,,,,2024-01-26,1,,,,,シーオーエル,0
2005,6020003025441,新規,0,2024-01-26,2024-01-26,合同会社ＲＨＭＥＤ,,合同会社,神奈川県,川崎市宮前区,有馬１丁目２２番１７－２０１号ロイヤルヒルズ鷺沼,,14,136,2160003,,,,,,,2024-01-26,1,,,,,アールエイチメド,0
2006,6020005016265,新規,0,2024-01-26,2024-01-26,リアライズ社会保険労務士法人,,その他の設立登記法人,神奈川県,横浜市中区,相生町６丁目１０４番地横浜相生町ビル６Ｆ,,14,104,2310012,,,,,,,2024-01-26,1,,,,,リアライズ,0
2009,6021003014062,新規,0,2024-01-26,2024-01-26,合同会社ＡＫ　ｃａｒｇｏ,,合同会社,神奈川県,相模原市南区,磯部１１８４－１ラコリーヌ３０２,,14,153,2520327,,,,,,,2024-01-26,1,,,,,エーケーカーゴ,0
2010,6021005013013,新規,0,2024-01-26,2024-01-26,一般社団法人日本ポーカー推進協会,,その他の設立登記法人,神奈川県,相模原市中央区,光が丘３丁目２３番９号,,14,152,2520227,,,,,,,2024-01-26,1,,,,,ニホンポーカースイシンキョウカイ,0
2018,6030001158333,新規,0,2024-01-26,2024-01-26,株式会社ＫＭＧ,,株式会社,埼玉県,さいたま市北区,土呂町１丁目４４番地２ベルフォーレ土呂２－Ｈ号室,,11,102,3310804,,,,,,,2024-01-26,1,,,,,ケーエムジー,0
2042,6040001131909,新規,0,2024-01-26,2024-01-26,株式会社７２ＮＥＸＴ,,株式会社,千葉県,佐倉市,王子台５丁目２６番地２６,,12,212,2850837,,,,,,,2024-01-26,1,,,,,セブンツーネクスト,0
2071,6040003024177,新規,0,2024-01-26,2024-01-26,合同会社新星ライズ,,合同会社,千葉県,富里市,七栄６５１番地２２５,,12,233,2860221,,,,,,,2024-01-26,1,,,,,シンセイライズ,0
2072,6040003024193,新規,0,2024-01-26,2024-01-26,合同会社信じ家,,合同会社,千葉県,柏市,若柴１７８番地４柏の葉キャンパス１４８街区２ショップ＆オフィス棟６Ｆ,,12,217,2770871,,,,,,,2024-01-26,1,,,,,シンジヤ,0
2079,6050001054134,新規,0,2024-01-26,2024-01-26,株式会社Ｌｉｎｋ,,株式会社,茨城県,守谷市,ひがし野２丁目７番地５ファミーユＩＩ－１０３号室,00133514,08,224,3020131,,,,,,,2024-01-26,1,,,,,リンク,0
2080,6050001054167,新規,0,2024-01-26,2024-01-26,株式会社Ｄ＆Ｃ,,株式会社,茨城県,古河市,東２丁目１１番３４号ト・ルコーポ３０２号室,,08,204,3060011,,,,,,,2024-01-26,1,,,,,ディアンドシー,0
2081,6050001054175,新規,0,2024-01-26,2024-01-26,オートイメージ株式会社,,株式会社,茨城県,つくば市,木俣３８５番地６,,08,220,3002644,,,,,,,2024-01-26,1,,,,,オートイメージ,0
2085,6050003008088,新規,0,2024-01-26,2024-01-26,合同会社風力発電機研究所,,合同会社,茨城県,水戸市,宮町２丁目４番２９－３０２号ライオンズ水戸グランフォート,,08,201,3100015,,,,,,,2024-01-26,1,,,,,フウリョクハツデンキケンキュウジョ,0
2086,6050003008096,新規,0,2024-01-26,2024-01-26,ＶＡＮＴＲＵＯＮＧ合同会社,,合同会社,茨城県,牛久市,南７丁目３５番地６－２階１０１号室,,08,219,3001222,,,,,,,2024-01-26,1,,,,,バンチュオン,0
2114,6090001018515,新規,0,2024-01-26,2024-01-26,Ｃｒｅａｔｅ株式会社,,株式会社,山梨県,南アルプス市,在家塚８４１番地１０,,19,208,4000221,,,,,,,2024-01-26,1,,,,,クリエイト,0
2117,6100001037166,新規,0,2024-01-26,2024-01-26,株式会社テクニカルラボ,,株式会社,長野県,長野市,檀田２丁目３７番１２－２０２号,,20,201,3810052,,,,,,,2024-01-26,1,,,,,テクニカルラボ,0
2127,6100003007373,新規,0,2024-01-26,2024-01-26,合同会社ヴィルタニエミ,,合同会社,長野県,小諸市,大字御影新田１５３２番地４,,20,208,3840808,,,,,,,2024-01-26,1,,,,,ヴィルタニエミ,0
2139,6120001261607,新規,0,2024-01-26,2024-01-26,株式会社知恵,,株式会社,大阪府,大阪市西淀川区,歌島１丁目２４番１８号,,27,113,5550021,,,,,,,2024-01-26,1,,,,,チエ,0
2140,6120001261615,新規,0,2024-01-26,2024-01-26,ＧＳ株式会社,,株式会社,大阪府,大阪市西成区,萩之茶屋２丁目５番２５－２０４号,,27,122,5570004,,,,,,,2024-01-26,1,,,,,ジーエス,0
2141,6120001261631,新規,0,2024-01-26,2024-01-26,株式会社Ｈ＆Ｙ,,株式会社,大阪府,大阪市此花区,梅香３丁目３１－１８梅香栄進ビル５０１号室,,27,104,5540013,,,,,,,2024-01-26,1,,,,,エイチアンドワイ,0
2142,6120001261648,新規,0,2024-01-26,2024-01-26,株式会社キズナテレポート,,株式会社,大阪府,大阪市東住吉区,杭全１丁目１７－１７－１０１,,27,121,5460002,,,,,,,2024-01-26,1,,,,,キズナテレポート,0
2143,6120001261672,新規,0,2024-01-26,2024-01-26,カナン株式会社,,株式会社,大阪府,大阪市生野区,林寺２丁目５番２２号,,27,116,5440023,,,,,,,2024-01-26,1,,,,,カナン,0
2144,6120001261689,新規,0,2024-01-26,2024-01-26,一心商事株式会社,,株式会社,大阪府,大阪市中央区,船越町１丁目５番８－４０３号,,27,128,5400036,,,,,,,2024-01-26,1,,,,,イッシンショウジ,0
2145,6120001261730,新規,0,2024-01-26,2024-01-26,株式会社ケーズテック,,株式会社,大阪府,大阪市港区,市岡４丁目１番１４号,,27,107,5520012,,,,,,,2024-01-26,1,,,,,ケーズテック,0
2146,6120001261739,新規,0,2024-01-26,2024-01-26,株式会社Ｐｕｌｅｌｅｈｕａ,,株式会社,大阪府,門真市,舟田町３３番２８号,,27,223,5710021,,,,,,,2024-01-26,1,,,,,プレレファ,0
2147,6120001261763,新規,0,2024-01-26,2024-01-26,住吉建設株式会社,00133523,株式会社,大阪府,大阪市住吉区,山之内３丁目２番１７号山野マンション１階,,27,120,5580023,,,,,,,2024-01-26,1,,,,,スミヨシケンセツ,0
2148,6120001261771,新規,0,2024-01-26,2024-01-26,株式会社Ｏｆｆｉｃｅ　Ｙｏｓｈｉｄａ,,株式会社,大阪府,大阪市中央区,久太郎町２丁目３番８－７０４号,,27,128,5410056,,,,,,,2024-01-26,1,,,,,オフィスヨシダ,0
2154,6120005024126,新規,0,2024-01-26,2024-01-26,医療法人真照会,,その他の設立登記法人,大阪府,大阪市城東区,諏訪４丁目１７番１号レジデンス諏訪１階,,27,118,5360021,,,,,,,2024-01-26,1,,,,,シンショウカイ,0
2155,6120005024134,新規,0,2024-01-26,2024-01-26,医療法人誠日和,,その他の設立登記法人,大阪府,大阪市東住吉区,田辺３丁目２４番１２号,,27,121,5460031,,,,,,,2024-01-26,1,,,,,マコトビヨリ,0
2161,6122001037755,新規,0,2024-01-26,2024-01-26,ＰＲＯＳＰＥＱ株式会社,,株式会社,大阪府,東大阪市,西石切町５丁目６番３６号,,27,227,5798013,,,,,,,2024-01-26,1,,,,,プロスペック,0
2167,6140001133093,新規,0,2024-01-26,2024-01-26,俵株式会社,,株式会社,兵庫県,神戸市東灘区,西岡本２丁目７番４－４２２号,,28,101,6580073,,,,,,,2024-01-26,1,,,,,タワラ,0
2168,6140001133119,新規,0,2024-01-26,2024-01-26,株式会社レフログ,,株式会社,兵庫県,芦屋市,東山町２番４号２階,,28,206,6590091,,,,,,,2024-01-26,1,,,,,レフログ,0
2170,6140003020083,新規,0,2024-01-26,2024-01-26,Ｐｌｕｍａｇｅ合同会社,,合同会社,兵庫県,西宮市,甲陽園東山町２－１,,28,204,6620012,,,,,,,2024-01-26,1,,,,,プリュマージュ,0
2178,6190001031061,新規,0,2024-01-26,2024-01-26,株式会社田中幸夫経営研究所,,株式会社,三重県,松阪市,小舟江町１３６番地５,,24,204,5152104,,,,,,,2024-01-26,1,,,,,タナカユキオケイエイケンキュウショ,0
2183,6220001025794,新規,0,2024-01-26,2024-01-26,株式会社ＢＥＡＭ　ＡＧＥ,,株式会社,石川県,小松市,矢田野町ヌ１５番地,,17,203,9230342,,,,,,,2024-01-26,1,,,,,ビームエイジ,0
2194,6260001038710,新規,0,2024-01-26,2024-01-26,ＴＨＲＥＡｄ，ｉｎｃ．株式会社,,株式会社,岡山県,岡山市東区,上阿知２２８３番地２,,33,103,7048142,,,,,,,2024-01-26,1,,,,,スレッドドットインク,0
2196,6260005011309,新規,0,2024-01-26,2024-01-26,司法書士法人小野事務所,,その他の設立登記法人,岡山県,倉敷市,水島南春日町３番６号,,33,202,7128025,,,,,,,2024-01-26,1,,,,,,0
2199,6290001104410,新規,0,2024-01-26,2024-01-26,株式会社サニックスエンジニアリング,,株式会社,福岡県,福岡市博多区,博多駅東２丁目１番２３号,,40,132,8120013,,,,,,,2024-01-26,1,,,,,サニックスエンジニアリング,0
2201,6290003014888,新規,0,2024-01-26,2024-01-26,ＹＡＴＯ合同会社,,合同会社,福岡県,福岡市東区,千早２丁目９番１５－５０６号エイルヴィラプロムガーデン千早,,40,131,8130044,,,,,,,2024-01-26,1,,,,,ヤトウ,0
2217,6320003004282,新規,0,2024-01-26,2024-01-26,合同会社ｙｏｌｏ,,合同会社,大分県,大分市,今津留１丁目８番１５号第５三幸興産ビル１Ｆ,,44,201,8700938,,,,,,,2024-01-26,1,,,,,ワイオーエルオー,0
2221,6330003010180,新規,0,2024-01-26,2024-01-26,世界動画合同会社,,合同会社,熊本県,玉名郡長洲町,大字長洲６０９－１,,43,368,8690123,,,,,,,2024-01-26,1,,,,,セカイドウガ,0
2222,6330003010189,新規,0,2024-01-26,2024-01-26,合同会社宮本工業,,合同会社,熊本県,球磨郡あさぎり町,上北１２２８番地,,43,514,8680422,,,,,,,2024-01-26,1,,,,,ミヤモトコウギョウ,0
2223,6330005010749,新規,0,2024-01-26,2024-01-26,一般社団法人デジタルアートイノベーション協議会,,その他の設立登記法人,熊本県,熊本市東区,錦ケ丘２３番５号,,43,102,8620912,,,,,,,2024-01-26,1,,,,,デジタルアートイノベーションキョウギカイ,0
2227,6350001018769,新規,0,2024-01-26,2024-01-26,株式会社ＷＩＳＭ,,株式会社,宮崎県,宮崎市,大字芳士字人ノ前１８０２番地１,,45,201,8800123,,,,,,,2024-01-26,1,,,,,ウィズム,0
2229,6350005006209,新規,0,2024-01-26,2024-01-26,医療法人ひろた内科クリニック,,その他の設立登記法人,宮崎県,小林市,堤字丸岡２７９２番地２４,,45,205,8860003,,,,,,,2024-01-26,1,,,,,ヒロタナイカクリニック,0
2232,6370003006456,新規,0,2024-01-26,2024-01-26,合同会社Ｐｕｒｅ　Ｄｅａｒｅｓｔ,,合同会社,宮城県,仙台市青葉区,宮町３丁目６番１５号タプト宮町通１０１,,04,101,9800004,,,,,,,2024-01-26,1,,,,,ピュアディアレスト,0
2236,6410001013714,新規,0,2024-01-26,2024-01-26,株式会社エスアールイー,,株式会社,秋田県,秋田市,手形字蛇野１１－２ノザキビル１階１０２号室,,05,201,0100851,,,,,,,2024-01-26,1,,,,,エスアールイー,0
2245,6450001014213,新規,0,2024-01-26,2024-01-26,ＴＫ・プロテクト株式会社,,株式会社,北海道,旭川市,永山七条１７丁目４番１８号,,01,204,0798417,,,,,,,2024-01-26,1,,,,,,0
2248,6500001025436,新規,0,2024-01-26,2024-01-26,株式会社ミドリノハシ,,株式会社,愛媛県,松山市,宮田町１２８４番,,38,201,7900066,,,,,,,2024-01-26,1,,,,,,0
2249,6500003003175,新規,0,2024-01-26,2024-01-26,合同会社Ｍ‐ｒｉｙａ,,合同会社,愛媛県,新居浜市,政枝町２丁目７番３号,,38,205,7920032,,,,,,,2024-01-26,1,,,,,エムリヤ,0
2252,6700150118474,新規,0,2024-01-26,2024-01-26,Ｘｉａｍｅｎ　Ｗｕｌｉｎｇｗｕ　Ｓｈａｎｇｍａｏ　Ｙｏｕｘｉａｎｇｏｎｇｓｉ,,外国会社等,,,,,,,,Ｈａｉｃａｎｇｑｕ　Ｈａｉｃａｎｇｊｉｅｄａｏ　Ｃａｎｇｈｕｄｏｎｇｌｕ　ｙｉｌｉ　２８９ｈａｏ　１８０５　Ｘｉａｍｅｎ　Ｆｕｊｉａｎ　３６１０２６　ＣＮ,,,,,,2024-01-26,1,,,,,シャアメンウーリンウーシャンマオヨウシエンゴンス,0
2253,6700150119209,新規,0,2024-01-26,2024-01-26,ｓｈｅｎｚｈｅｎｓｈｉｙｏｕｎｉｎｇｍａｏｙｉｙｏｕｘｉａｎｇｏｎｇｓｉ,,外国会社等,,,,,,,,Ｇｕａｎｇ　ｄｏｎｇ　ｓｈｅｎｇ　Ｓｈｅｎ　ｚｈｅｎ　ｓｈｉ　ｂａｏ　ａｎ　ｑｕ　ｓｏｎｇ　ｇａｎｇ　ｊｉｅ　ｄａｏ　ｈｏｎｇ　ｘｉｎｇ　ｓｈｅ　ｑｕ　ｓｏｎｇ　ｙｕ　ｌｕ　１４２　ｈａｏ　Ａ３２７,,,,,,2024-01-26,1,,,,,シェンジェンシヨウニーンマオイヨウシエンゴンス,0
2254,6700150120174,新規,0,2024-01-26,2024-01-26,ＷＥＮＺＨＯＵＳＨＥＮＧＣＨＵＭＡＯＹＩＹＯＵＸＩＡＮＧＯＮＧＳＩ,,外国会社等,,,,,,,,ｌｕｃｈｅｎｇｑｕｇｕａｎｇｈｕａｑｉａｏｌｕｘｉｎｊｕ４ｚｈｕａｎｇ４０２ｓｈｉｄｏｎｇｓｈｏｕｗｅｎｚｈｏｕｚｈｅｊｉａｎｇ３２５０００ＣＮ,,,,,,2024-01-26,1,,,,,ウエンジョウチュンチュウマオイーヨウシエンゴンス,0
2255,6700150120975,新規,0,2024-01-26,2024-01-26,Ｓｈｅｎｚｈｅｎ　Ｂｏｊｉａｔｕ　Ｓｕｐｐｌｙ　Ｃｈａｉｎ　Ｍａｎａｇｅｍｅｎｔ　Ｃｏ．Ｌｔｄ,,外国会社等,,,,,,,,ｓｈｅｎ　ｚｈｅｎ　ｓｈｉ　ｂａｏ　ａｎ　ｑｕ　ｆｕ　ｈａｉ　ｊｉｅ　ｄａｏ　ｘｉｎ　ｈｅ　ｓｈｅ　ｑｕ　ｆｕ　ｑｉａｏ　ｓａｎ　ｑｕ　ｅｒ　ｑｉ　ｃｈａｎｇ　ｆａｎｇ　Ａ１６　ｈａｏ　１　ｃｅｎｇ,,,,,,2024-01-26,1,,,,,シェンジェンボジアツサプライチェーンマネジメントカンパニーリミテッド,0
2256,6700150123680,新規,0,2024-01-26,2024-01-26,鹿島自治会,,その他,茨城県,那珂市,鹿島１７６４－２,,08,226,3110135,,,,,,,2024-01-26,1,,,,,カシマジチカイ,0
2263,7010001241692,新規,0,2024-01-26,2024-01-26,拓野産業株式会社,,株式会社,東京都,中央区,八丁堀３丁目１２番７号,,13,102,1040032,,,,,,,2024-01-26,1,,,,,タクノサンギョウ,0
2264,7010001241791,新規,0,2024-01-26,2024-01-26,ワラサ株式会社,,株式会社,東京都,中央区,日本橋箱崎町１７番８号７山京ビル７階１４号室,,13,102,1030015,,,,,,,2024-01-26,1,,,,,ワラサ,0
2265,7010001241817,新規,0,2024-01-26,2024-01-26,株式会社モーションライフ,,株式会社,東京都,千代田区,鍛冶町１丁目７番４号,,13,101,1010044,,,,,,,2024-01-26,1,,,,,モーションライフ,0
2266,7010001241825,新規,0,2024-01-26,2024-01-26,株式会社ＵＧＩ,,株式会社,東京都,中央区,銀座１丁目１４－５－１階北,,13,102,1040061,,,,,,,2024-01-26,1,,,,,ユージーアイ,0
2270,7010003042767,新規,0,2024-01-26,2024-01-26,１ｍｍ合同会社,,合同会社,東京都,中央区,晴海２丁目３番３０号,,13,102,1040053,,,,,,,2024-01-26,1,,,,,ワンエムエム,0
2271,7010003042775,新規,0,2024-01-26,2024-01-26,合同会社ＣＪファンド・Ａ,,合同会社,東京都,千代田区,神田錦町１丁目２１番１号,,13,101,1010054,,,,,,,2024-01-26,1,,,,,シージェーファンドエー,0
2276,7010403031832,新規,0,2024-01-26,2024-01-26,ＫＫＹＫアセットマネジメント合同会社,,合同会社,東京都,港区,白金６丁目１３番１４号,,13,103,1080072,,,,,,,2024-01-26,1,,,,,ケーケーワイケーアセットマネジメント,0
2279,7010501051666,新規,0,2024-01-26,2024-01-26,ＪＯＹＺ　ＤＲＥＡＭ株式会社,,株式会社,東京都,台東区,台東２丁目３１－１０－１０６号室,,13,106,1100016,,,,,,,2024-01-26,1,,,,,ジョイズドリーム,0
2282,7010603010611,新規,0,2024-01-26,2024-01-26,ノース合同会社,,合同会社,東京都,江東区,新木場２丁目９番７号,,13,108,1360082,,,,,,,2024-01-26,1,,,,,ノース,0
2283,7010701045468,新規,0,2024-01-26,2024-01-26,株式会社ＥＮ,,株式会社,東京都,品川区,西五反田５丁目１１－１４不動前百番ビル２階,,13,109,1410031,,,,,,,2024-01-26,1,,,,,エン,0
2284,7010703007029,新規,0,2024-01-26,2024-01-26,合同会社リザルト,,合同会社,東京都,品川区,東大井５丁目１５－１６まめそうビル２Ｆ,,13,109,1400011,,,,,,,2024-01-26,1,,,,,リザルト,0
2292,7010801034734,新規,0,2024-01-26,2024-01-26,株式会社レパレ,,株式会社,東京都,大田区,南千束３丁目１３番１７号,,13,111,1450063,,,,,,,2024-01-26,1,,,,,レパレ,0
2301,7010901054608,新規,0,2024-01-26,2024-01-26,サイカ株式会社,,株式会社,東京都,世田谷区,砧３丁目４番９号,,13,112,1570073,,,,,,,2024-01-26,1,,,,,サイカ,0
2302,7010903008768,新規,0,2024-01-26,2024-01-26,ナンバーサイン合同会社,,合同会社,東京都,世田谷区,等々力８丁目１９番２２号,,13,112,1580082,,,,,,,2024-01-26,1,,,,,ナンバーサイン,0
2309,7011001159537,新規,0,2024-01-26,2024-01-26,株式会社ＢＡＴＨ　ＨＯＵＳＥ,,株式会社,東京都,渋谷区,桜丘町１８番９号,,13,113,1500031,,,,,,,2024-01-26,1,,,,,バスハウス,0
2310,7011001159603,新規,0,2024-01-26,2024-01-26,ＡＩメディア株式会社,,株式会社,東京都,渋谷区,広尾５丁目９番９号プレステージュ広尾３０１,,13,113,1500012,,,,,,,2024-01-26,1,,,,,エーアイメディア,0
2311,7011001159628,新規,0,2024-01-26,2024-01-26,エキスパーズ株式会社,,株式会社,東京都,渋谷区,神宮前６丁目２３番４号,,13,113,1500001,,,,,,,2024-01-26,1,,,,,エキスパーズ,0
2312,7011003018369,新規,0,2024-01-26,2024-01-26,合同会社ニャブロッカ,,合同会社,東京都,渋谷区,円山町５番５号Ｎａｖｉ渋谷Ｖ３階,,13,113,1500044,,,,,,,2024-01-26,1,,,,,ニャブロッカ,0
2323,7011101105928,新規,0,2024-01-26,2024-01-26,Ｆｅｍｉｏｎ株式会社,,株式会社,東京都,新宿区,高田馬場３丁目２番１４号,,13,104,1690075,,,,,,,2024-01-26,1,,,,,フェミオン,0
2324,7011101105960,新規,0,2024-01-26,2024-01-26,株式会社日本エンタテインメントキャピタル,,株式会社,東京都,新宿区,神楽坂２丁目１２番地,,13,104,1620825,,,,,,,2024-01-26,1,,,,,ニホンエンタテインメントキャピタル,0
2325,7011101105977,新規,0,2024-01-26,2024-01-26,株式会社ｏｒＣａｔ,,株式会社,東京都,新宿区,西新宿３丁目３番１３号西新宿水間ビル２Ｆ,,13,104,1600023,,,,,,,2024-01-26,1,,,,,オルキャット,0
2326,7011101105985,新規,0,2024-01-26,2024-01-26,株式会社ジェイ・ケイ・エイチ,,株式会社,東京都,新宿区,下宮比町１番４号,,13,104,1620822,,,,,,,2024-01-26,1,,,,,ジェイケイエイチ,0
2334,7011103014004,新規,0,2024-01-26,2024-01-26,合同会社踊り場,,合同会社,東京都,新宿区,西新宿６丁目５番１号新宿アイランドタワー２階,,13,104,1600023,,,,,,,2024-01-26,1,,,,,オドリバ,0
2340,7011105010926,新規,0,2024-01-26,2024-01-26,一般社団法人ドリームプラン・プレゼンテーション世界大会,,その他の設立登記法人,東京都,新宿区,西新宿３丁目３番１３号西新宿水間ビル６階,,13,104,1600023,,,,,,,2024-01-26,1,,,,,ドリームプランプレゼンテーションセカイタイカイ,0
2341,7011203004284,新規,0,2024-01-26,2024-01-26,合同会社Ｙ通信サービス,,合同会社,東京都,中野区,中央３丁目２６番５号ＰＡＳＥＯ新中野２０５,,13,114,1640011,,,,,,,2024-01-26,1,,,,,ワイツウシンサービス,0
2347,7011301029357,新規,0,2024-01-26,2024-01-26,株式会社アワールド,,株式会社,東京都,杉並区,下井草３丁目３番１５号アート下井草マンション１０３,,13,115,1670022,,,,,,,2024-01-26,1,,,,,アワールド,0
2358,7011401025801,新規,0,2024-01-26,2024-01-26,宏盈株式会社,,株式会社,東京都,板橋区,板橋２丁目６４番１０号板橋新生ビル２０２号室,,13,119,1730004,,,,,,,2024-01-26,1,,,,,コウエイ,0
2366,7011501030247,新規,0,2024-01-26,2024-01-26,良田株式会社,,株式会社,東京都,荒川区,町屋３丁目２４番２号面川ビル３０７号室,,13,118,1160001,,,,,,,2024-01-26,1,,,,,ヨシダ,0
2378,7012301013755,新規,0,2024-01-26,2024-01-26,株式会社クヌギキカク,,株式会社,東京都,町田市,根岸１丁目１１番地２０,,13,209,1940038,,,,,,,2024-01-26,1,,,,,クヌギキカク,0
2388,7013301051968,新規,0,2024-01-26,2024-01-26,株式会社ＢＰＢコンサルティング,,株式会社,東京都,豊島区,駒込２丁目６番５－９０５号,,13,116,1700003,,,,,,,2024-01-26,1,,,,,ビーピービーーコンサルティング,0
2392,7020001155520,新規,0,2024-01-26,2024-01-26,株式会社精電舎技術研究所,,株式会社,神奈川県,川崎市多摩区,登戸１９１９番地エムアンドアールビル３階,,14,135,2140014,,,,,,,2024-01-26,1,,,,,セイデンシャギジュツケンキュウジョ,0
2397,7020003025432,新規,0,2024-01-26,2024-01-26,合同会社エジソンキカク,,合同会社,神奈川県,横浜市港南区,港南６丁目２２番９号,,14,111,2330003,,,,,,,2024-01-26,1,,,,,エジソンキカク,0
2400,7021001081319,新規,0,2024-01-26,2024-01-26,株式会社気愛ロジ,,株式会社,神奈川県,相模原市南区,相南４丁目１番１２号シャトレ－キサラギ３階,,14,153,2520312,,,,,,,2024-01-26,1,,,,,キアイロジ,0
2403,7021003014078,新規,0,2024-01-26,2024-01-26,ＴＯＫＹＯ　ＷＩＮＧＳ合同会社,,合同会社,神奈川県,愛甲郡愛川町,中津３２９４番地の１－２０３,,14,401,2430303,,,,,,,2024-01-26,1,,,,,トウキョウウィングス,0
2410,7030001158308,新規,0,2024-01-26,2024-01-26,恒信株式会社,,株式会社,埼玉県,川口市,芝樋ノ爪１丁目４－１４－１Ｆ,,11,203,3330852,,,,,,,2024-01-26,1,,,,,コウシン,0
2435,7040001131908,新規,0,2024-01-26,2024-01-26,優心建設株式会社,,株式会社,千葉県,山武市,湯坂９６９番地,,12,237,2891328,,,,,,,2024-01-26,1,,,,,ユウシンケンセツ,0
2436,7040001131924,新規,0,2024-01-26,2024-01-26,株式会社関栄興産,,株式会社,千葉県,千葉市稲毛区,山王町３５８番地１１山王町マンション１０３号,,12,103,2630002,,,,,,,2024-01-26,1,,,,,カンエイコウサン,0
2437,7040001131932,新規,0,2024-01-26,2024-01-26,Ｏｆｆｉｃｅ　ＪＵＮ株式会社,,株式会社,千葉県,柏市,豊四季１９９番地１０,,12,217,2770863,,,,,,,2024-01-26,1,,,,,オフィスジュン,0
2438,7040001131940,新規,0,2024-01-26,2024-01-26,株式会社ヨンイチサービス,,株式会社,千葉県,柏市,明原３丁目１８番１９号,,12,217,2770843,,,,,,,2024-01-26,1,,,,,ヨンイチサービス,0
2467,7040003024176,新規,0,2024-01-26,2024-01-26,合同会社Ｌｉｎｃ,,合同会社,千葉県,佐倉市,上座８２２番地９,,12,212,2850854,,,,,,,2024-01-26,1,,,,,リンク,0
2468,7040003024192,新規,0,2024-01-26,2024-01-26,合同会社ＤｏｏｒＰｉｎｅ,,合同会社,千葉県,千葉市中央区,都町１丁目２番７号グランメゾンＭ’ｓ３０５号,,12,101,2600001,,,,,,,2024-01-26,1,,,,,ドアパイン,0
2469,7040003024201,新規,0,2024-01-26,2024-01-26,合同会社ＲＩＳＩＮＧ,,合同会社,千葉県,佐倉市,城８１０番地７,,12,212,2850815,,,,,,,2024-01-26,1,,,,,ライジング,0
2482,7040005022269,新規,0,2024-01-26,2024-01-26,医療法人社団ＫＫクリニック,,その他の設立登記法人,千葉県,市原市,松ケ島２丁目１番地１４,,12,219,2900035,,,,,,,2024-01-26,1,,,,,ケイケイクリニック,0
2485,7050001054182,新規,0,2024-01-26,2024-01-26,株式会社柴山建材,,株式会社,茨城県,筑西市,小川２６６番地,,08,227,3080857,,,,,,,2024-01-26,1,,,,,シバヤマケンザイ,0
2487,7050003008095,新規,0,2024-01-26,2024-01-26,合同会社ＨＯＳＨＩ　ＪＡＰＡＮ　ＥＮＴＥＲＰＲＩＳＥＳ,,合同会社,茨城県,龍ケ崎市,愛戸町５４番地２ロイヤル・コート愛戸Ａ１０３号室,,08,208,3010838,,,,,,,2024-01-26,1,,,,,ホシジャパンエンタープライゼス,0
2489,7060003004886,新規,0,2024-01-26,2024-01-26,合同会社Ｓｕｎｒｉｓｅ,,合同会社,栃木県,宇都宮市,一番町２－１５,,09,201,3200812,,,,,,,2024-01-26,1,,,,,サンライズ,0
2490,7060005010164,新規,0,2024-01-26,2024-01-26,ＮＰＯ法人イエスタデイ・ワンスモア,,その他の設立登記法人,栃木県,小山市,大字横倉４７１－３４,,09,208,3230813,,,,,,,2024-01-26,1,,,,,イエスタデイワンスモア,0
2537,7120001261630,新規,0,2024-01-26,2024-01-26,思遠中和株式会社,,株式会社,大阪府,大阪市平野区,長吉六反３丁目１７番２７号１Ｆ,,27,126,5470012,,,,,,,2024-01-26,1,,,,,シエンチュウワ,0
2538,7120001261663,新規,0,2024-01-26,2024-01-26,ＨＵＡＹＵＥ株式会社,,株式会社,大阪府,大阪市都島区,中野町４丁目３番６号Ｈ２Ｈ大阪桜之宮邸３Ｂ－３,,27,102,5340027,,,,,,,2024-01-26,1,,,,,ファユー,0
2539,7120001261688,新規,0,2024-01-26,2024-01-26,株式会社永経,,株式会社,大阪府,大阪市北区,天神橋４丁目８－２５長田ビル３０２,,27,127,5300041,,,,,,,2024-01-26,1,,,,,エイケイ,0
2540,7120001261705,新規,0,2024-01-26,2024-01-26,旭栄商事株式会社,,株式会社,大阪府,大阪市東成区,玉津１丁目１番５号メゾンサンパテーク４０３号,,27,115,5370023,,,,,,,2024-01-26,1,,,,,キョクエイショウジ,0
2541,7120001261713,新規,0,2024-01-26,2024-01-26,株式会社Ａｍｂｉｔｉｏｕｓ　Ｆｕｎｎｙ　Ｐｌａｃｅ,,株式会社,大阪府,大阪市北区,豊崎３丁目１７番１２号岡ビル１Ｆ,,27,127,5310072,,,,,,,2024-01-26,1,,,,,アンビシャスファニープレイス,0
2542,7120001261738,新規,0,2024-01-26,2024-01-26,オフィスＵ株式会社,,株式会社,大阪府,大阪市北区,豊崎７丁目２番６号,,27,127,5310072,,,,,,,2024-01-26,1,,,,,オフィスユー,0
2545,7120003025744,新規,0,2024-01-26,2024-01-26,合同会社ｂｉｃ,,合同会社,大阪府,大阪市北区,西天満５丁目２番１４－８０２号室,,27,127,5300047,,,,,,,2024-01-26,1,,,,,ビック,0
2546,7120003025760,新規,0,2024-01-26,2024-01-26,合同会社ＳＡＹ,,合同会社,大阪府,大阪市北区,梅田１丁目１番３号大阪駅前第３ビル２３０７,,27,127,5300001,,,,,,,2024-01-26,1,,,,,エスエーワイ,0
2547,7120003025777,新規,0,2024-01-26,2024-01-26,合同会社Ｆｉａｔ　ｌｕｘ　ｐｒｏｄ．,,合同会社,大阪府,大阪市北区,梅田１丁目２番２号大阪駅前第２ビル１２－１２,,27,127,5300001,,,,,,,2024-01-26,1,,,,,フィアラックスプロダクション,0
2554,7120101068950,新規,0,2024-01-26,2024-01-26,新日友貿易株式会社,,株式会社,大阪府,貝塚市,澤５６２番地１,,27,208,5970062,,,,,,,2024-01-26,1,,,,,シンニチユウボウエキ,0
2555,7120101068975,新規,0,2024-01-26,2024-01-26,株式会社ディーコンピューター,,株式会社,大阪府,堺市北区,百舌鳥陵南町３丁１３乾ビル２Ａ,,27,146,5918034,,,,,,,2024-01-26,1,,,,,ディーコンピューター,0
2560,7120901048664,新規,0,2024-01-26,2024-01-26,株式会社ＥＸＥＢＬＥ＆ＣＯ．,,株式会社,大阪府,吹田市,片山町１丁目１番２７０１号,,27,205,5640082,,,,,,,2024-01-26,1,,,,,エグゼブルアンドコー,0
2562,7122003002780,新規,0,2024-01-26,2024-01-26,合同会社ｈｉｇｈ　ｆｉｖｅ,,合同会社,大阪府,柏原市,今町２丁目９番３０号,,27,221,5820002,,,,,,,2024-01-26,1,,,,,ハイファイブ,0
2568,7130001076210,新規,0,2024-01-26,2024-01-26,株式会社宮崎タイル工建,00133512,株式会社,京都府,城陽市,寺田今橋２２番地の１１,,26,207,6100121,,,,,,,2024-01-26,1,,,,,ミヤザキタイルコウケン,0
2569,7130001076219,新規,0,2024-01-26,2024-01-26,株式会社ＲＡＶＥＮ,,株式会社,京都府,京都市東山区,本町１１丁目２１０番地３Ｆ,,26,105,6050981,,,,,,,2024-01-26,1,,,,,レイヴン,0
2570,7140001133084,新規,0,2024-01-26,2024-01-26,株式会社ＢＬＯＯＭ　ＤＥＳＩＧＮ,,株式会社,兵庫県,神戸市中央区,東町１２３番地の１貿易ビル９１０－４,,28,110,6500031,,,,,,,2024-01-26,1,,,,,ブルームデザイン,0
2579,7180003026266,新規,0,2024-01-26,2024-01-26,合同会社田中コンサルティング事務所,,合同会社,愛知県,日進市,香久山５丁目２１０８番地,,23,230,4700134,,,,,,,2024-01-26,1,,,,,タナカコンサルティングジムショ,0
2580,7190001031060,新規,0,2024-01-26,2024-01-26,株式会社ＡＲ　ＪＡＰＡＮ,,株式会社,三重県,桑名郡木曽岬町,大字源緑輪中１０５番地,,24,303,4980816,,,,,,,2024-01-26,1,,,,,エーアールジャパン,0
2582,7210001019615,新規,0,2024-01-26,2024-01-26,グリットアドバンス株式会社,,株式会社,福井県,坂井市,坂井町福島第４２号６５番地１,,18,210,9190516,,,,,,,2024-01-26,1,,,,,グリットアドバンス,0
2588,7240001062728,新規,0,2024-01-26,2024-01-26,株式会社ビーダブルネットワークス,,株式会社,広島県,広島市中区,幟町１３－１５新広島ビルディング１－２Ｆ,,34,101,7300016,,,,,,,2024-01-26,1,,,,,ビーダブルネットワークス,0
2592,7290001104525,新規,0,2024-01-26,2024-01-26,株式会社Ｗａｒｌｄ　Ｔｅｃｈ,,株式会社,福岡県,福岡市南区,井尻４丁目３０番３２号,,40,134,8111302,,,,,,,2024-01-26,1,,,,,ワールドテック,0
2594,7290003014904,新規,0,2024-01-26,2024-01-26,合同会社ＲＥＡＬＩＦＥ,,合同会社,福岡県,福岡市東区,三苫５丁目１番６２－２０２号,,40,131,8110201,,,,,,,2024-01-26,1,,,,,リアライフ,0
2618,7330001031707,新規,0,2024-01-26,2024-01-26,ハピネスト株式会社,,株式会社,熊本県,熊本市南区,富合町新６５６番地１,,43,104,8614152,,,,,,,2024-01-26,1,,,,,ハピネスト,0
2619,7330005010748,新規,0,2024-01-26,2024-01-26,一般社団法人発達サポートネットワーク,,その他の設立登記法人,熊本県,熊本市南区,城南町永１１５１番地,,43,104,8614234,,,,,,,2024-01-26,1,,,,,ハッタツサポートネットワーク,0
2626,7350001018768,新規,0,2024-01-26,2024-01-26,株式会社山空,,株式会社,宮崎県,日南市,大字風田１０９５番地,,45,204,8870034,,,,,,,2024-01-26,1,,,,,サンクウ,0
2627,7350005006208,新規,0,2024-01-26,2024-01-26,医療法人わたなべ循環器内科クリニック,,その他の設立登記法人,宮崎県,宮崎市,清武町岡２丁目９番９,,45,201,8891612,,,,,,,2024-01-26,1,,,,,ワタナベジュンカンキナイカクリニック,0
2628,7360001033114,新規,0,2024-01-26,2024-01-26,株式会社ＡＺ　ＨＯＵＳＥ,,株式会社,沖縄県,沖縄市,古謝３丁目１３番１号,,47,211,9042161,,,,,,,2024-01-26,1,,,,,エーゼットハウス,0
2629,7360001033122,新規,0,2024-01-26,2024-01-26,株式会社励,,株式会社,沖縄県,名護市,字済井出２１７番地２,,47,209,9051635,,,,,,,2024-01-26,1,,,,,レイ,0
2630,7360003013659,新規,0,2024-01-26,2024-01-26,合同会社ラーテルズチーム,,合同会社,沖縄県,那覇市,若狭３丁目４４番１７号１階,,47,201,9000031,,,,,,,2024-01-26,1,,,,,ラーテルズチーム,0
2631,7370001050884,新規,0,2024-01-26,2024-01-26,株式会社ＥＨＳ,,株式会社,宮城県,仙台市太白区,金剛沢１丁目２１番１０号,,04,104,9820803,,,,,,,2024-01-26,1,,,,,イーエイチエス,0
2632,7370003006463,新規,0,2024-01-26,2024-01-26,合同会社ＧｒｏｗｉｎｇＵｐ,,合同会社,宮城県,名取市,増田３丁目１０番７号,,04,207,9811224,,,,,,,2024-01-26,1,,,,,グローウィングアップ,0
2635,7390001017477,新規,0,2024-01-26,2024-01-26,株式会社ＥＣＸＩＭＡ,,株式会社,山形県,南陽市,漆山１８０３番地,,06,213,9920474,,,,,,,2024-01-26,1,,,,,エクシマ,0
2636,7390001017502,新規,0,2024-01-26,2024-01-26,株式会社Ｍ,,株式会社,山形県,山形市,大字船町１２３５番地,,06,201,9900894,,,,,,,2024-01-26,1,,,,,エム,0
2639,7410005006564,新規,0,2024-01-26,2024-01-26,医療法人修英会金田医院,,その他の設立登記法人,秋田県,能代市,二ツ井町字比井野９４番地,,05,202,0183155,,,,,,,2024-01-26,1,,,,,シュウエイカイカネタイイン,0
2645,7450001014212,新規,0,2024-01-26,2024-01-26,株式会社岡崎電器店,,株式会社,北海道,上川郡上川町,北町５１９番地,,01,457,0781744,,,,,,,2024-01-26,1,,,,,オカザキデンキテン,0
2647,7460001005862,新規,0,2024-01-26,2024-01-26,大石塗装株式会社,,株式会社,北海道,釧路市,若松町７番７号,,01,206,0850033,,,,,,,2024-01-26,1,,,,,オオイシトソウ,0
2650,7500001025435,新規,0,2024-01-26,2024-01-26,株式会社ＡＤＮＡＫ,,株式会社,愛媛県,松山市,小栗５丁目４番７号,,38,201,7900036,,,,,,,2024-01-26,1,,,,,アドナック,0
2651,7500003003174,新規,0,2024-01-26,2024-01-26,合同会社ｃｈａｒｍ,,合同会社,愛媛県,松山市,石手５丁目１－７－２０５,,38,201,7900852,,,,,,,2024-01-26,1,,,,,チャーム,0
2652,7700150117054,新規,0,2024-01-26,2024-01-26,ｎｉｎｇｂｏｘｉｎｙａｔｒａｄｉｎｇｃｏ．，ｌｔｄ．,,外国会社等,,,,,,,,ＲＯＯＭ　１００２，ＢＵＩＬＤＩＮＧ　２８，ＣＬＯＵＤ　ＶＡＬＬＥＹ　ＣＥＮＴＥＲ，ＪＩＡＮＧＢＥＩ　ＮＩＮＧＢＯ　ＺＨＥＪＩＡＮＧ,,,,,,2024-01-26,1,,,,,ニンボシンヤトレーディングカンパニーリミテッド,0
2653,7700150118399,新規,0,2024-01-26,2024-01-26,ｓｈｅｎｚｈｅｎｓｈｉｒｕｓｉｎａｉｍａｏｙｉｙｏｕｘｉａｎｇｏｎｇｓｉ,,外国会社等,,,,,,,,ｌｏｎｇ　ｇａｎｇ　ｑｕ　ｙｕａｎ　ｓｈａｎ　ｊｉｅ　ｄａｏ　ｂａｏ　ａｎ　ｓｈｅ　ｑｕ　ｈａｎ　ｔａｎｇ　ｓａｎ　ｌｕ　１５　ｈａｏ　８１０９　Ｓｈｅｎ　ｚｈｅｎ　Ｇｕａｎｇ　ｄｏｎｇ　５１８１１５　ＣＮ,,,,,,2024-01-26,1,,,,,シェンジェンシルゥスーナイマオイーヨウシェンゴンスー,0
2654,7700150118473,新規,0,2024-01-26,2024-01-26,Ｊｉｕｊｉａｎｇｆｅｎｇｙｕａｎｘｉａｎｂａｉｈｕｏｙｏｕｘｉａｎｚｅｒｅｎｇｏｎｇｓｉ,,外国会社等,,,,,,,,Ｒｏｏｍ　８１７，Ｍａｎａｇｅｍｅｎｔ　Ｏｆｆｉｃｅ　Ｂｕｉｌｄｉｎｇ，Ｔａｏｗａ　Ｃｏｍｍｕｎｉｔｙ，Ｗｕｌｉ　Ｓｔｒｅｅｔ，Ｌｉａｎｘｉ　Ｄｉｓｔｒｉｃｔ，Ｊｉｕｊｉａｎｇ　Ｃｉｔｙ，Ｊｉａｎｇｘｉ　Ｐｒｏｖｉｎｃｅ，Ｃｈｉｎａ,,,,,,2024-01-26,1,,,,,ジウジアンフオンユエンシエンバイホアヨウシエンゾーアウレンゴンス,0
2655,7700150118507,新規,0,2024-01-26,2024-01-26,Ｓｈｅｎｚｈｅｎ　Ｈａｏｓｉｌｉ　Ｔｅｃｈｎｏｌｏｇｙ　Ｃｏ．Ｌｔｄ,,外国会社等,,,,,,,,５０１，Ｎｏ．５，Ｌａｎｅ　１，Ｄａｆａｐｕ　Ｅａｓｔ　Ｖｉｌｌａｇｅ，Ｄａｆａｐｕ　Ｃｏｍｍｕｎｉｔｙ，Ｂａｎｔｉａｎ　Ｓｔｒｅｅｔ，Ｌｏｎｇｇａｎｇ　Ｄｉｓｔｒｉｃｔ，Ｇｕａｎｇｄｏｎｇ，Ｓｈｅｎｚｈｅｎ，５１８１１６，ＣＮ,,,,,,2024-01-26,1,,,,,シェンジェンハオスーリーカージヨウシェンゴンス,0
2656,7700150119208,新規,0,2024-01-26,2024-01-26,ｇｕａｎｇ　ｚｈｏｕ　ｙｉ　ｋｅ　ｓｈｕ　ｄｉａｎ　ｑｉ　ｙｏｕ　ｘｉａｎ　ｇｏｎｇｓｉ,,外国会社等,,,,,,,,ｎａｎ　ｓｈａ　ｑｕ　ｆｅｎｇ　ｚｅ　ｄｏｎｇ　ｌｕ　１０６ｈａｏ　ｚｉ　ｂｉａｎ　１　ｈａｏ　ｌｏｕ　Ｘ１３０１－Ｇ０１５４１５　ｇｕａｎｇｚｈｏｕ　ｇｕａｎｇｄｏｎｇ　ｚｈｏｎｇｇｕｏ　５１１４５８,,,,,,2024-01-26,1,,,,,グワンジョウイーコーァシュウディエンチイヨウシエンゴンス,0
2657,7700150120149,新規,0,2024-01-26,2024-01-26,ｎａｎｎｉｎｇｓｈｉｍｅｎｇｊｉｘｉｏｎｇｄｉａｎｚｉｓｈａｎｇｗｕｙｏｕｘｉａｎｇｏｎｇｓｉ,,外国会社等,,,,,,,,ｑｉｎｇｘｉｕｑｕ，ｄｏｎｇｇｅｌｕ２９－１ｈａｏ，ｒｏｎｇｈｅｚｈｏｎｇｙａｎｇｇｏｎｇｙｕａｎ１ｈａｏｌｏｕ２０１３ｈａｏ，ｎａｎｎｉｎｇ，ｇｕａｎｇｘｉ,,,,,,2024-01-26,1,,,,,ナンニーンムオンジーシオーンディエンズーシャーンウーヨウシエンゴーンスー,0
2658,7700150120974,新規,0,2024-01-26,2024-01-26,Ｇｕａｎｇｚｈｏｕ　ＴｏｕｃｈＷｏ　Ｅｌｅｃｔｒｏｎｉｃｓ　Ｃｏ．，Ｌｔｄ．,,外国会社等,,,,,,,,Ｂｕｉｌｄｉｎｇ　Ｂ２Ｘｉｎｔａｎｇ　Ａｖｅｎｕｅ　Ｗｅｓｔ　６４２＃　Ｚｅｎｇｃｈｅｎｇ　ＤｉｓｔｒｉｃｔＧｕａｎｇｚｈｏｕ　ＣｉｔｙＧｕａｎｇｄｏｎｇ　Ｐｒｏｖｉｎｃｅ５１１３４０ＣＮ,,,,,,2024-01-26,1,,,,,グワンジョウチュウウォエレクトロニクスカンパニーリミテッド,0
2659,7700150121469,新規,0,2024-01-26,2024-01-26,Ｄｏｎｇｇｕａｎｓｈｉｚｈｉｒｕｉｗａｎｇｌｕｏｊｉｓｈｕｙｏｕｘｉａｎｇｏｎｇｓｉ,,外国会社等,,,,,,,,ｑｉｕｆｕｌｕｃｈａｎｇｆｕｘｉｌｕ２６８ｈａｏ１ｈａｏｌｏｕ１８２８ｓｈｉｄｏｎｇｇｕａｎｓｈｉｄａｌａｎｇｚｈｅｎｇｕａｎｇｄｏｎｇｓｈｅｎｇ５２３０００ＣＮ,,,,,,2024-01-26,1,,,,,ドングワンシジールイワンルオジーシュウヨウシエンゴンス,0
2660,7700150121741,新規,0,2024-01-26,2024-01-26,ｃｈａｎｇｓｈａｓｈｉｗｕｃｈｕａｎｇｊｉａｎｇｚａｏｋｅｊｉｙｏｕｘｉａｎｇｏｎｇｓｉ,,外国会社等,,,,,,,,ｈｕｎａｎｓｈｅｎｇｃｈａｎｇｓｈａｓｈｉｙｕｅｌｕｑｕｘｉａｎｊｉａｈｕｊｉｅｄａｏｙｕｅｌｕｄａｄａｏ３６９ｈａｏｙｕｅｌｕｙｉｈａｏｊｉａｙｕａｎ１ｄｏｎｇ２０４ｈａｏｆａｎｇ－４２６ｈａｏｃｈａｎｇｓｈａｓｈｉ４１００３１ＣＮ,,,,,,2024-01-26,1,,,,,チャンシャシウーチュワンジアンザオクージヨウシエンゴンス,0
2661,7700150122038,新規,0,2024-01-26,2024-01-26,ＨＯＮＧ　ＫＯＮＧ　ＤＯＯＧＩＡ　ＴＥＣＨＮＯＬＯＧＹ　ＣＯ．，ＬＩＭＩＴＥＤ,,外国会社等,,,,,,,,１９Ｈ　Ｍａｘｇｒａｎｄ　ｐｌａｚａ，Ｎｏ．３　Ｔａｉ　Ｙａｕ　Ｓｔｒｅｅｔ，Ｓａｎ　Ｐｏ　ＫｏｎｇＫｏｗｌｏｏｎ　Ｈｏｎｇ　ＫｏｎｇＨｏｎｇ　ＫｏｎｇＫｏｗｌｏｏｎ９９９０７７ＨＫ,,,,,,2024-01-26,1,,,,,ホンコンドゥーギアテクノロジーカンパニーリミテッド,0
2662,7700150123647,新規,0,2024-01-26,2024-01-26,ＫＡＬＢＡＳ＆Ｃｏ．，Ｌｉｍｉｔｅｄ,,外国会社等,,,,,,,,香港九龍長沙湾長裕街１２號コムウェブプラザ６階,,,,,,2024-01-26,1,,,,,カルバスアンドコーリミテツド,0
2668,8010001241857,新規,0,2024-01-26,2024-01-26,株式会社ａｎｄ３９,,株式会社,東京都,千代田区,麹町２丁目１０番地３,,13,101,1020083,,,,,,,2024-01-26,1,,,,,アンドサーティーナイン,0
2681,8010503007327,新規,0,2024-01-26,2024-01-26,合同会社叶装工,,合同会社,東京都,台東区,上野６丁目１番６号御徒町グリーンハイツ１００５号,,13,106,1100005,,,,,,,2024-01-26,1,,,,,カナエソウコウ,0
2682,8010601064542,新規,0,2024-01-26,2024-01-26,株式会社Ｎフォーラム,,株式会社,東京都,江東区,潮見２丁目１０番２２－２０２号,,13,108,1350052,,,,,,,2024-01-26,1,,,,,エヌフォーラム,0
2683,8010601064550,新規,0,2024-01-26,2024-01-26,株式会社アルバ,,株式会社,東京都,江東区,森下２丁目２６番６号,,13,108,1350004,,,,,,,2024-01-26,1,,,,,アルバ,0
2691,8010801034733,新規,0,2024-01-26,2024-01-26,聚選匯雲株式会社,,株式会社,東京都,大田区,東海３丁目７番３号東海ビル,,13,111,1430001,,,,,,,2024-01-26,1,,,,,シュウセンカイウン,0
2696,8010901054607,新規,0,2024-01-26,2024-01-26,株式会社Ｍ,,株式会社,東京都,世田谷区,砧２丁目１６番１号,,13,112,1570073,,,,,,,2024-01-26,1,,,,,エム,0
2703,8011001159585,新規,0,2024-01-26,2024-01-26,ホノルルコーヒージャパン株式会社,,株式会社,東京都,渋谷区,円山町３番６号Ｅ・スペースタワー５階,,13,113,1500044,,,,,,,2024-01-26,1,,,,,ホノルルコーヒージャパン,0
2704,8011003018368,新規,0,2024-01-26,2024-01-26,合同会社北英,,合同会社,東京都,渋谷区,渋谷１丁目２０番２２号,,13,113,1500002,,,,,,,2024-01-26,1,,,,,ホクエイ,0
2705,8011003018376,新規,0,2024-01-26,2024-01-26,ＳＡＫＵＲＡ合同会社,,合同会社,東京都,渋谷区,本町６丁目３６－５－１Ｆ,,13,113,1510071,,,,,,,2024-01-26,1,,,,,サクラ,0
2718,8011103014028,新規,0,2024-01-26,2024-01-26,合同会社ブレス,,合同会社,東京都,新宿区,西新宿３丁目３番１３号西新宿水間ビル２Ｆ,,13,104,1600023,,,,,,,2024-01-26,1,,,,,ブレス,0
2719,8011103014036,新規,0,2024-01-26,2024-01-26,合同会社フヒトベ,,合同会社,東京都,新宿区,市谷田町市ヶ谷科学技術イノベーションセンタービル２階,,13,104,1600000,,,,,,,2024-01-26,1,,,,,フヒトベ,0
2726,8011301029356,新規,0,2024-01-26,2024-01-26,株式会社ＣＨＯ‐Ｐ,,株式会社,東京都,杉並区,高円寺南５丁目１８－４サイトウハイツ１０３,,13,115,1660003,,,,,,,2024-01-26,1,,,,,チョップ,0
2750,8011801043682,新規,0,2024-01-26,2024-01-26,ＦＳＲ株式会社,,株式会社,東京都,葛飾区,堀切３丁目２６－８モナークマンション堀切菖蒲園５０７号室,,13,122,1240006,,,,,,,2024-01-26,1,,,,,エフエスアール,0
2755,8012401041465,新規,0,2024-01-26,2024-01-26,株式会社ｆｉｅｌｄ　ｓｔｏｎｅ,,株式会社,東京都,多摩市,桜ヶ丘２丁目３０－１９,,13,224,2060013,,,,,,,2024-01-26,1,,,,,フィールドストーン,0
2765,8012801022932,新規,0,2024-01-26,2024-01-26,株式会社Ｂａｃｃｈａｎａｌｅｓ,,株式会社,東京都,国分寺市,本多４丁目１番１４号,,13,214,1850011,,,,,,,2024-01-26,1,,,,,バカナール,0
2767,8013301051967,新規,0,2024-01-26,2024-01-26,株式会社コメモン,,株式会社,東京都,豊島区,南池袋２丁目８番５号,,13,116,1710022,,,,,,,2024-01-26,1,,,,,コメモン,0
2768,8013303006969,新規,0,2024-01-26,2024-01-26,合同会社ねこいえ,,合同会社,東京都,豊島区,西池袋５丁目５番２１号,,13,116,1710021,,,,,,,2024-01-26,1,,,,,,0
2774,8020001155412,新規,0,2024-01-26,2024-01-26,株式会社ドリームワン,,株式会社,神奈川県,川崎市多摩区,菅城下２６番４１号アルカディア１０３,,14,135,2140007,,,,,,,2024-01-26,1,,,,,ドリームワン,0
2775,8020001155494,新規,0,2024-01-26,2024-01-26,株式会社勝リフォーム,,株式会社,神奈川県,横浜市青葉区,みたけ台２６番地７オークヒルズ宮ノ下２０７号室,,14,117,2270047,,,,,,,2024-01-26,1,,,,,カツリフォーム,0
2776,8020001155528,新規,0,2024-01-26,2024-01-26,株式会社ｅｖｅｒ　ｇｒｅｅｎ　ｄｅｓｉｇｎ,,株式会社,神奈川県,横浜市旭区,二俣川１丁目６９番地２二俣川住宅５０８号,,14,112,2410821,,,,,,,2024-01-26,1,,,,,エバーグリーンデザイン,0
2777,8020001155536,新規,0,2024-01-26,2024-01-26,株式会社ＯＳ,,株式会社,神奈川県,横浜市西区,高島２丁目１１番２号スカイメナー横浜５１９,,14,103,2200011,,,,,,,2024-01-26,1,,,,,オーエス,0
2790,8021001081318,新規,0,2024-01-26,2024-01-26,株式会社ＳｅｓｓｉｏｎＣｒｅｗ,,株式会社,神奈川県,逗子市,逗子４丁目７番５３号,,14,208,2490006,,,,,,,2024-01-26,1,,,,,セッションクルー,0
2791,8021003014069,新規,0,2024-01-26,2024-01-26,合同会社ＳＫサービス,,合同会社,神奈川県,相模原市南区,磯部４７９９番地２２,,14,153,2520327,,,,,,,2024-01-26,1,,,,,エスケーサービス,0
2792,8021005013011,新規,0,2024-01-26,2024-01-26,一般社団法人Ｒｅ,,その他の設立登記法人,神奈川県,相模原市南区,上鶴間本町９丁目２番９－１号,,14,153,2520318,,,,,,,2024-01-26,1,,,,,アールイー,0
2805,8030003023500,新規,0,2024-01-26,2024-01-26,ＬＢ　ＵＮＬＩＭＩＴ合同会社,,合同会社,埼玉県,新座市,東北２丁目２２番１４号クラブコート志木１０４号室,,11,230,3520001,,,,,,,2024-01-26,1,,,,,エルビーアンリミット,0
2827,8040001131915,新規,0,2024-01-26,2024-01-26,株式会社石堂,,株式会社,千葉県,松戸市,吉井町２番地の４,,12,207,2710066,,,,,,,2024-01-26,1,,,,,イシドウ,0
2853,8040003024183,新規,0,2024-01-26,2024-01-26,合同会社オフィスアキト,,合同会社,千葉県,浦安市,日の出１丁目３番４－５１０号,,12,227,2790013,,,,,,,2024-01-26,1,,,,,オフィスアキト,0
2854,8040003024200,新規,0,2024-01-26,2024-01-26,友和建測合同会社,,合同会社,千葉県,船橋市,藤原３丁目３２番１８号長島ハイツ２号,,12,204,2730047,,,,,,,2024-01-26,1,,,,,ユウワケンソク,0
2868,8050001054149,新規,0,2024-01-26,2024-01-26,株式会社ＩＡＢファーム,,株式会社,茨城県,稲敷郡河内町,古河林１１７９番地,,08,447,3001322,,,,,,,2024-01-26,1,,,,,アイエービーファーム,0
2869,8050001054173,新規,0,2024-01-26,2024-01-26,タンタルス株式会社,,株式会社,茨城県,猿島郡境町,１３２７番地１,,08,546,3060433,,,,,,,2024-01-26,1,,,,,タンタルス,0
2872,8060005010163,新規,0,2024-01-26,2024-01-26,農事組合法人沢,,その他の設立登記法人,栃木県,矢板市,沢９４７番地,,09,211,3292132,,,,,,,2024-01-26,1,,,,,サワ,0
2886,8100001037164,新規,0,2024-01-26,2024-01-26,Ｍｏｒｇａｎ株式会社,,株式会社,長野県,飯山市,大字常郷２０８２番地,,20,213,3892412,,,,,,,2024-01-26,1,,,,,モーガン,0
2904,8120001261662,新規,0,2024-01-26,2024-01-26,八馬株式会社,,株式会社,大阪府,大阪市城東区,野江３丁目２７－７野江１番館３０９号室,,27,118,5360006,,,,,,,2024-01-26,1,,,,,ハチウマ,0
2905,8120001261670,新規,0,2024-01-26,2024-01-26,株式会社トラストアソシエーション,,株式会社,大阪府,大阪市平野区,加美東２丁目７番６号,,27,126,5470002,,,,,,,2024-01-26,1,,,,,トラストアソシエーション,0
2906,8120001261687,新規,0,2024-01-26,2024-01-26,株式会社ＤＮＮ　Ｇｌｏｂａｌ,,株式会社,大阪府,大阪市生野区,桃谷３丁目７番９号,,27,116,5440034,,,,,,,2024-01-26,1,,,,,ディーエヌエヌグローバル,0
2907,8120001261695,新規,0,2024-01-26,2024-01-26,株式会社ｃｏｃｏｒｕ,,株式会社,大阪府,大阪市中央区,和泉町１丁目２番１０－１１１０号,,27,128,5400019,,,,,,,2024-01-26,1,,,,,ココル,0
2908,8120001261712,新規,0,2024-01-26,2024-01-26,株式会社スマイリー,,株式会社,大阪府,大阪市北区,梅田１丁目２番２号大阪駅前第２ビル１２－１２,,27,127,5300001,,,,,,,2024-01-26,1,,,,,スマイリー,0
2909,8120001261729,新規,0,2024-01-26,2024-01-26,株式会社ウェルシング,,株式会社,大阪府,門真市,舟田町３３番８号,,27,223,5710021,,,,,,,2024-01-26,1,,,,,ウェルシング,0
2912,8120003025776,新規,0,2024-01-26,2024-01-26,ケアプランさんぽみち合同会社,,合同会社,大阪府,守口市,南寺方東通５丁目２１番１７号,,27,209,5700043,,,,,,,2024-01-26,1,,,,,ケアプランサンポミチ,0
2913,8120003025784,新規,0,2024-01-26,2024-01-26,合同会社長浜屋武兵衛ＦＰ事務所,,合同会社,大阪府,大阪市鶴見区,鶴見３丁目１３番５３－９１６号,,27,124,5380053,,,,,,,2024-01-26,1,,,,,ナガハマヤブヘエエフピージムショ,0
2915,8120005024132,新規,0,2024-01-26,2024-01-26,医療法人ＨＹＧＧＥ,,その他の設立登記法人,大阪府,大阪市東成区,東小橋１丁目９番１９号ＪＲ玉造駅ＮＫビル２Ｆ,,27,115,5370024,,,,,,,2024-01-26,1,,,,,ヒュッゲ,0
2919,8120101068958,新規,0,2024-01-26,2024-01-26,株式会社ＥＮＪＯＹ,,株式会社,大阪府,富田林市,北大判町１－８－２１,,27,214,5840000,,,,,,,2024-01-26,1,,,,,エンジョイ,0
2924,8130001076192,新規,0,2024-01-26,2024-01-26,桜艶株式会社,,株式会社,京都府,京都市下京区,高辻大宮町１０７番地７コージーハイツ大宮８０３,,26,106,6000000,,,,,,,2024-01-26,1,,,,,インエン,0
2925,8130001076234,新規,0,2024-01-26,2024-01-26,株式会社Ｗｅｌｌ　Ｄｅｓｉｇｎ．,,株式会社,京都府,京都市中京区,寺町通錦小路下る大文字町２９０番地中徳ビル２階,,26,104,6048095,,,,,,,2024-01-26,1,,,,,ウェルデザイン,0
2929,8140001133133,新規,0,2024-01-26,2024-01-26,株式会社ＨＡＹＡＭＡ不動産販売,,株式会社,兵庫県,明石市,二見町東二見１１４８番地の１５,,28,203,6740092,,,,,,,2024-01-26,1,,,,,ハヤマフドウサンハンバイ,0
2930,8150001027037,新規,0,2024-01-26,2024-01-26,ＴＳＵＢＯＣＯＦＦＥＥ株式会社,,株式会社,奈良県,生駒市,壱分町１４２７番地,,29,209,6300222,,,,,,,2024-01-26,1,,,,,ツボコーヒー,0
2935,8170001017985,新規,0,2024-01-26,2024-01-26,株式会社Ｂ＆Ｓ,,株式会社,和歌山県,田辺市,たきない町１０番３７号,,30,206,6460015,,,,,,,2024-01-26,1,,,,,ビーアンドエス,0
2937,8180001159876,新規,0,2024-01-26,2024-01-26,株式会社ＯＳＭＡＮ,,株式会社,愛知県,名古屋市中川区,東起町４丁目１０１番地１,,23,110,4540935,,,,,,,2024-01-26,1,,,,,オスマン,0
2938,8180001159934,新規,0,2024-01-26,2024-01-26,株式会社カモミール,,株式会社,愛知県,名古屋市中区,大須３丁目３０番２５号大信ビル１階,,23,106,4600011,,,,,,,2024-01-26,1,,,,,カモミール,0
2939,8180001159942,新規,0,2024-01-26,2024-01-26,株式会社ヤマトファーマシー,,株式会社,愛知県,日進市,岩崎台１丁目２１０２番地１ザ・サンＡ棟２０３,,23,230,4700135,,,,,,,2024-01-26,1,,,,,ヤマトファーマシー,0
2940,8180001159950,新規,0,2024-01-26,2024-01-26,株式会社ＢＬＡＣＫＡＮＴ,,株式会社,愛知県,名古屋市中区,錦２丁目７番７号,,23,106,4600003,,,,,,,2024-01-26,1,,,,,ブラックアント,0
2944,8180003026265,新規,0,2024-01-26,2024-01-26,マイデイ合同会社,,合同会社,愛知県,名古屋市中川区,服部４丁目７０８番地の１（はとり・ヒラソール２０１号）,,23,110,4540976,,,,,,,2024-01-26,1,,,,,マイデイ,0
2945,8180003026273,新規,0,2024-01-26,2024-01-26,合同会社ブラウン,,合同会社,愛知県,知多郡武豊町,字北中根４丁目１１番地,,23,447,4702385,,,,,,,2024-01-26,1,,,,,ブラウン,0
2948,8200001042113,新規,0,2024-01-26,2024-01-26,Ｍ・Ｅｌｅｃ株式会社,,株式会社,岐阜県,海津市,海津町高須町４０８番地５,,21,221,5030653,,,,,,,2024-01-26,1,,,,,エムエレック,0
2949,8220001025792,新規,0,2024-01-26,2024-01-26,株式会社ツアーオブパーフェクトジャパン,,株式会社,石川県,七尾市,万行１丁目３８５番地,,17,202,9260017,,,,,,,2024-01-26,1,,,,,ツアーオブパーフェクトジャパン,0
2955,8230003002137,新規,0,2024-01-26,2024-01-26,合同会社篠原工業,,合同会社,富山県,射水市,東明中町１－１４・メゾントウメイＩＩＩ２０２,00133525,16,211,9330238,,,,,,,2024-01-26,1,,,,,,0
2962,8260001038709,新規,0,2024-01-26,2024-01-26,株式会社ホームパートナー,,株式会社,岡山県,倉敷市,大島３３９番地３,,33,202,7100047,,,,,,,2024-01-26,1,,,,,ホームパートナー,0
2965,8290001104499,新規,0,2024-01-26,2024-01-26,株式会社＿泰,00133509,株式会社,福岡県,福岡市博多区,冷泉町７番９－９０３号,,40,132,8120039,,,,,,,2024-01-26,1,,,,,ケイタイ,0
2966,8290001104532,新規,0,2024-01-26,2024-01-26,株式会社こうた,,株式会社,福岡県,福岡市博多区,中洲３丁目５番６号三信ビル５階,,40,132,8100801,,,,,,,2024-01-26,1,,,,,コウタ,0
2969,8290003014903,新規,0,2024-01-26,2024-01-26,リカティー合同会社,,合同会社,福岡県,福岡市博多区,冷泉町２－９、クレアランドマーク３０５,,40,132,8120039,,,,,,,2024-01-26,1,,,,,リカティー,0
2979,8300003002071,新規,0,2024-01-26,2024-01-26,合同会社ＴＲＹＳＥ,,合同会社,佐賀県,佐賀市,川副町大字小々森１２番地１,,41,201,8402214,,,,,,,2024-01-26,1,,,,,トライズ,0
2981,8310001018829,新規,0,2024-01-26,2024-01-26,株式会社ウェルラック,,株式会社,長崎県,佐世保市,崎岡町１１１８番地,,42,202,8593226,,,,,,,2024-01-26,1,,,,,ウェルラック,0
2984,8320001020255,新規,0,2024-01-26,2024-01-26,株式会社タロウガーデン,,株式会社,大分県,杵築市,山香町大字野原４２５２番地２,,44,210,8791307,,,,,,,2024-01-26,1,,,,,タロウガーデン,0
3004,8330003010187,新規,0,2024-01-26,2024-01-26,合同会社エヌシーコンサル,,合同会社,熊本県,熊本市西区,沖新町７８１番地,,43,103,8615273,,,,,,,2024-01-26,1,,,,,エヌシーコンサル,0
3007,8360001033113,新規,0,2024-01-26,2024-01-26,株式会社むんぶ,,株式会社,沖縄県,八重山郡与那国町,字与那国４３５０－４５,,47,382,9071801,,,,,,,2024-01-26,1,,,,,ムンブ,0
3008,8360003013641,新規,0,2024-01-26,2024-01-26,合同会社Ｅａｒｔｈ　Ｐｌａｙ,,合同会社,沖縄県,南城市,大里字稲嶺１３２９番地３２,,47,215,9011204,,,,,,,2024-01-26,1,,,,,アースプレイ,0
3010,8370003006462,新規,0,2024-01-26,2024-01-26,合同会社フィールド,,合同会社,宮城県,仙台市若林区,新弓ノ町３９－１０２,,04,103,9840803,,,,,,,2024-01-26,1,,,,,フィールド,0
3022,8390001017501,新規,0,2024-01-26,2024-01-26,株式会社Ｙ’ｓ　Ｉｎｆｉｎｉｔｙ‐Ｊａｐａｎ．,,株式会社,山形県,新庄市,五日町字清水川１３０３番地の１９,,06,205,9960001,,,,,,,2024-01-26,1,,,,,ワイズインフィニティジャパンドット,0
3024,8420003002869,新規,0,2024-01-26,2024-01-26,合同会社橋場コーポレーション,,合同会社,青森県,八戸市,大字新井田字西平１２番地１４,,02,203,0310813,,,,,,,2024-01-26,1,,,,,ハシバコーポレーション,0
3030,8430001090948,新規,0,2024-01-26,2024-01-26,ドサンコアグリー株式会社,,株式会社,北海道,札幌市中央区,南二条東１丁目フラーテ札幌５１４号,,01,101,0600052,,,,,,,2024-01-26,1,,,,,ドサンコアグリー,0
3034,8470001020001,新規,0,2024-01-26,2024-01-26,株式会社ＴＨＥ　ＲＥＭＩＸ,,株式会社,香川県,高松市,常磐町２丁目８番１号ＣｏｒｒｉｄｏｒＳＦ,,37,201,7600054,,,,,,,2024-01-26,1,,,,,ザリミックス,0
3039,8500001025434,新規,0,2024-01-26,2024-01-26,株式会社フジムラ商店,,株式会社,愛媛県,松山市,桑原５丁目５番２４号,,38,201,7900911,,,,,,,2024-01-26,1,,,,,フジムラショウテン,0
3040,8700150118472,新規,0,2024-01-26,2024-01-26,ＧＵＡＮＧＺＨＯＵ　ＰＡＱＩＨＵＩ　ＭＡＯＹＩ　ＹＯＵＸＩＡＮＧＯＮＧＳＩ,,外国会社等,,,,,,,,ｙｕｅ　ｘｉｕ　ｑｕ　ｙｏｎｇ　ｆｕ　ｌｕ　４５　ｈａｏ　ｄａ　ｙｕａｎ　ｚｉ　ｂｉａｎ　Ａ３３　ｈａｏ　ｌｉ　ｙｕａｎ　ｑｉ　ｐｅｉ　ｃｈｅｎｇ　ｗｕ　ｃｅｎｇ　Ｅ０１Ａ　ｈａｏ　ｐｕ　ＧＵＡＮＧＺＨＯＵ　ＧＵＡＮＧＤＯＮＧ　５１００００　ＣＮ,,,,,,2024-01-26,1,,,,,グワンジョウパーチイホゥイマオイーヨウシエンゴンス,0
3041,8700150118522,新規,0,2024-01-26,2024-01-26,ｈｕ　ｎａｎ　ｚｅ　ｐｕ　ｋｅ　ｊｉ　ｙｏｕ　ｘｉａｎ　ｇｏｎｇ　ｓｉ,,外国会社等,,,,,,,,ｈｕｎａｎｓｈｅｎｇ　ｃｈａｎｇｓｈａｓｈｉ　ｙｕｈｕａｑｕ　ｆｕｒｏｎｇｚｈｏｎｇｌｕｓａｎｄｕａｎ５６７ｈａｏ　ｘｉｎｇｙｅｙｉｎｈａｎｇｄａｓｈａ２２０７ｈａｏ,,,,,,2024-01-26,1,,,,,フゥナンズァプーカージヨウシェンゴンス,0
3042,8700150120148,新規,0,2024-01-26,2024-01-26,Ｇｕａｎｇｚｈｏｕ　Ｈｕａｂｉｎｌｕｎ　Ｉｎｔｅｒｎｅｔ　Ｃｏ．，Ｌｔｄ,,外国会社等,,,,,,,,Ｒｏｏｍ　３０６，３ｒｄ　Ｆｌｏｏｒ，Ｎｏ．７２　Ａｉｒｐｏｒｔ　Ｒｏａｄ　Ｓａｎｙｕａｎｌｉ　Ｓｔｒｅｅｔ，Ｂａｉｙｕｎ　Ｄｉｓｔｒｉｃｔ，Ｇｕａｎｇｚｈｏｕ，ｇｕａｎｇｄｏｎｇ,,,,,,2024-01-26,1,,,,,グワーンジョウホワビンルンワーンルオコーァジーヨウシエンゴーンスー,0
3043,8700150120981,新規,0,2024-01-26,2024-01-26,ｌｉｓｈｕｉｓｈｉｊｉｎｒｕｉｓｈａｎｇｍａｏｙｏｕｘｉａｎｇｏｎｇｓｉ,,外国会社等,,,,,,,,ｎａｎｍｉｎｇｓｈａｎｊｉｅｄａｏｓｈａｘｉｔｉｎｇｇｏｎｇｙｕ　１２ｚｈｕａｎｇ　ｙｉｌｏｕｄｅ　８９－９１ｈａｏｌｉｓｈｕｉｓｈｉ　ｌｉａｎｄｕｑｕｚｈｅｊｉａｎｇｓｈｅｎｇ３２３０００ＣＮ,,,,,,2024-01-26,1,,,,,リーシュイシジンルイシャーンマオヨウシエンゴンス,0
3044,8700150121468,新規,0,2024-01-26,2024-01-26,ＨＵＩＺＨＯＵＳＨＩ　ＢＥＩＳＩＪＩＡ　ＫＥＪＩＹＯＵＸＩＡＮＧＯＮＧＳＩ,,外国会社等,,,,,,,,ｚｈｏｎｇｋａｉ　ｇａｏｘｉｎｑｕ　ｔｏｎｇｑｉａｏｚｈｅｎ　ｑｉａｏｇｕａｎ　ｚｈｏｎｇｌｕ　１６９　ｈａｏ　ｙｏｕｓｈａｎ　ｍｅｉｄｉ　ｈｕａｙｕａｎ　２７ｈａｏｌｏｕ　１ｃｅｎｇ　０２　ｈａｏ　ｆａｎｇ，Ｈｕｉｚｈｏｕ,,,,,,2024-01-26,1,,,,,ホゥイジョウシベイスージアコーァジヨウシエンゴンス,0
3045,8700150121724,新規,0,2024-01-26,2024-01-26,ｇｕａｎｇｄｏｎｇｓｈａｎｊｉａｎｇｇｕｏｋｅｊｉｙｏｕｘｉａｎｇｏｎｇｓｉ,,外国会社等,,,,,,,,Ｇｕａｎｇｄｏｎｇｓｈｅｎｇ　Ｆｏｓｈａｎｓｈｉ　ｎａｎｈａｉｑｕｇｕｉｃｈｅｎｇｊｉｅｄａｏｆｏｐｉｎｇｓａｎｌｕ１ｈａｏｊｉｎｓｅｌｉｎｇｙｕｇｕａｎｇｃｈａｎｇ　５ｚｕｏ３２１０ｓｈｉｚｈｉｙｉ,,,,,,2024-01-26,1,,,,,グワンドンシャンジアングオクージヨウシエンゴンス,0
3046,8700150121740,新規,0,2024-01-26,2024-01-26,ｘｉａｍｅｎｍｅｉｙｕｚｈｕｋｅｊｉｙｏｕｘｉａｎｇｏｎｇｓｉ,,外国会社等,,,,,,,,ｈｕｏｊｕｇａｏｘｉｎｑｕｒｕａｎｊｉａｎｙｕａｎｓａｎｑｉ　ｃｈｅｎｇｙｉｂｅｉｄａｊｉｅ　５６ｈａｏＢ１０ｄｏｎｇ　１１ｌｏｕ１１０５ｓｈｉ，Ｘｉａｍｅｎ，Ｊｉｍｅｉｑｕ，Ｆｕｊｉａｎ,,,,,,2024-01-26,1,,,,,シャアメンメイユイジュウクージヨウシエンゴンス,0
3047,8700150123646,新規,0,2024-01-26,2024-01-26,Ｎｅｚｕ　Ｈｏｌｄｉｎｇｓ,,外国会社等,,,,,,,,Ｆｌｏｏｒ４，ＷｉｌｌｏｗＨｏｕｓｅ，Ｃｒｉｃｋｅｔ　Ｓｑｕａｒｅ　Ｇｒａｎｄ　Ｃａｙｍａｎ　ＫＹ１ー１１０４,,,,,,2024-01-26,1,,,,,ネズホールデイングス,0
3048,8700150123679,新規,0,2024-01-26,2024-01-26,ＳｈｅｎｚｈｅｎＳｏｎｇｒｉｍａｏｙｉｙｏｕｘｉａｎｇｏｎｇｓｉ,,外国会社等,,,,,,,,７１２，Ｂｕｉｌｄｉｎｇ　１，Ｘｕｎｙｕａｎ　Ｚｈｉｃｈｕａｎｇ　Ｖａｌｌｅｙ，Ｆｕｈｏｎｇ　ＩｎｄｕｓｔｒｉａｌＦｅｎｇｔａｎｇ　Ａｖｅｎｕｅ，Ｔａｎｇｗｅｉ　Ｃｏｍｍｕｎｉｔｙ，Ｆｕｈａｉ　Ｓｔｒｅｅｔ，Ｂａｏａｎ　ＤｉｓＳｈｅｎｚｈｅｎ　Ｇｕａｎｇｄｏｎｇ,,,,,,2024-01-26,1,,,,,シェンジェンシーソンリーマオイーヨウシエンゴンスー,0
3056,9010001241831,新規,0,2024-01-26,2024-01-26,愛楽ハウス株式会社,,株式会社,東京都,文京区,大塚５丁目７番１１号７０９号,00133508,13,105,1120012,,,,,,,2024-01-26,1,,,,,アイラクハウス,0
3062,9010003042773,新規,0,2024-01-26,2024-01-26,合同会社Ｔｈｉｒｄ　Ｐｌａｃｅ,,合同会社,東京都,中央区,日本橋富沢町１１番１９号ＳＯＨＯ３０－５階５０２号室,,13,102,1030006,,,,,,,2024-01-26,1,,,,,サードプレイス,0
3072,9010501051697,新規,0,2024-01-26,2024-01-26,ＰＬＡＣＥ　ＰＬＵＳ株式会社,,株式会社,東京都,台東区,東上野５丁目１番８号,,13,106,1100015,,,,,,,2024-01-26,1,,,,,プレイスプラス,0
3073,9010503007318,新規,0,2024-01-26,2024-01-26,合同会社ＹＵカンパニー,,合同会社,東京都,台東区,西浅草２丁目２－４、１１０２,,13,106,1110035,,,,,,,2024-01-26,1,,,,,ワイユーカンパニー,0
3075,9010601064525,新規,0,2024-01-26,2024-01-26,株式会社ロジカルエンターテイナーズ,,株式会社,東京都,墨田区,吾妻橋２丁目１番５号,,13,107,1300001,,,,,,,2024-01-26,1,,,,,ロジカルエンターテイナーズ,0
3077,9010801034732,新規,0,2024-01-26,2024-01-26,峰軼株式会社,,株式会社,東京都,大田区,東海３丁目７番３号東海ビル,,13,111,1430001,,,,,,,2024-01-26,1,,,,,ホウイツ,0
3078,9010801034740,新規,0,2024-01-26,2024-01-26,ボルテクノ株式会社,,株式会社,東京都,大田区,大森西６丁目１７－１７ＫＯＣＡ・Ｄ２,,13,111,1430015,,,,,,,2024-01-26,1,,,,,ボルテクノ,0
3092,9011005010347,新規,0,2024-01-26,2024-01-26,一般社団法人日本ハイチ友好協会,,その他の設立登記法人,東京都,目黒区,碑文谷６丁目９－３８コニーリオ碑文谷公園３０３,,13,110,1520003,,,,,,,2024-01-26,1,,,,,ニホンハイチユウコウキョウカイ,0
3103,9011101105959,新規,0,2024-01-26,2024-01-26,株式会社Ｒｅｖｉｂｅ,,株式会社,東京都,新宿区,四谷１丁目２０小泉ビル４Ｆ,,13,104,1600004,,,,,,,2024-01-26,1,,,,,リバイブ,0
3107,9011103014010,新規,0,2024-01-26,2024-01-26,偉納仕合同会社,,合同会社,東京都,新宿区,榎町３４番地３榎町ビル７階２３室,,13,104,1620806,,,,,,,2024-01-26,1,,,,,イノウシ,0
3115,9011301029355,新規,0,2024-01-26,2024-01-26,株式会社守本プロセスコンサルティング,,株式会社,東京都,杉並区,荻窪５丁目３０番１２号グローリア荻窪７１３,,13,115,1670051,,,,,,,2024-01-26,1,,,,,モリモトプロセスコンサルティング,0
3125,9011403004248,新規,0,2024-01-26,2024-01-26,ｃｏａｔ　ｓｔｙｌｅ合同会社,,合同会社,東京都,板橋区,熊野町２６－２,,13,119,1730025,,,,,,,2024-01-26,1,,,,,コートスタイル,0
3131,9011501030237,新規,0,2024-01-26,2024-01-26,株式会社森田意匠,,株式会社,東京都,北区,東田端２丁目３－７永江ビル１Ｆ,,13,117,1140013,,,,,,,2024-01-26,1,,,,,モリタイショウ,0
3151,9013303006968,新規,0,2024-01-26,2024-01-26,プロダクションピエロ合同会社,,合同会社,東京都,豊島区,西池袋４丁目２９番１号メゾンタカギ１Ｆ,,13,116,1710021,,,,,,,2024-01-26,1,,,,,プロダクションピエロ,0
3163,9020001155485,新規,0,2024-01-26,2024-01-26,株式会社廣田豆腐店,,株式会社,神奈川県,川崎市多摩区,菅北浦２丁目１番３号,,14,135,2140008,,,,,,,2024-01-26,1,,,,,ヒロタトウフテン,0
3164,9020001155510,新規,0,2024-01-26,2024-01-26,偉光株式会社,,株式会社,神奈川県,川崎市宮前区,宮崎５丁目７番地３７,,14,136,2160033,,,,,,,2024-01-26,1,,,,,イコウ,0
3165,9020001155527,新規,0,2024-01-26,2024-01-26,Ａｂｅｎｔ‐Ｋ株式会社,,株式会社,神奈川県,川崎市高津区,諏訪３丁目１２番４４号二子多摩川レジデンス２０１,,14,134,2130004,,,,,,,2024-01-26,1,,,,,アーベントケー,0
3166,9020001155543,新規,0,2024-01-26,2024-01-26,株式会社Ｊａｃｋ,,株式会社,神奈川県,横浜市中区,小港町１丁目１番地２・９－３１２号,,14,104,2310802,,,,,,,2024-01-26,1,,,,,ジャック,0
3172,9021001081300,新規,0,2024-01-26,2024-01-26,株式会社クレスト,,株式会社,神奈川県,大和市,下鶴間２７７１－７－４０１,,14,213,2420001,,,,,,,2024-01-26,1,,,,,クレスト,0
3173,9021001081309,新規,0,2024-01-26,2024-01-26,株式会社ＲＨＹ,,株式会社,神奈川県,茅ヶ崎市,東海岸南３丁目１番１１号－２０３,,14,207,2530054,,,,,,,2024-01-26,1,,,,,アールエイチワイ,0
3188,9030001158347,新規,0,2024-01-26,2024-01-26,株式会社ＧＬＵＣＫ,,株式会社,埼玉県,さいたま市北区,本郷町３２番地２前原ハイツ３０２号室,,11,102,3310802,,,,,,,2024-01-26,1,,,,,グリュック,0
3206,9040001131633,新規,0,2024-01-26,2024-01-26,株式会社ＭＡＧＩＡＲＴＳ,,株式会社,千葉県,市川市,八幡３丁目３番２号,,12,203,2720021,,,,,,,2024-01-26,1,,,,,マギアーツ,0
3207,9040001131906,新規,0,2024-01-26,2024-01-26,株式会社維吹,,株式会社,千葉県,船橋市,薬円台５丁目３６番１７号２階,,12,204,2740077,,,,,,,2024-01-26,1,,,,,イブキ,0
3208,9040001131914,新規,0,2024-01-26,2024-01-26,青木株式会社,,株式会社,千葉県,東金市,堀之内５２７番地５－１０１,,12,213,2830027,,,,,,,2024-01-26,1,,,,,アオキ,0
3234,9040003024199,新規,0,2024-01-26,2024-01-26,合同会社フロントロウ,,合同会社,千葉県,松戸市,五香５丁目３５－２０,,12,207,2702213,,,,,,,2024-01-26,1,,,,,フロントロウ,0
3242,9050001054164,新規,0,2024-01-26,2024-01-26,株式会社彩生,,株式会社,茨城県,神栖市,息栖３０７９番地６７７,,08,232,3140133,,,,,,,2024-01-26,1,,,,,サイセイ,0
3248,9060001036772,新規,0,2024-01-26,2024-01-26,株式会社佐藤商事,,株式会社,栃木県,栃木市,平井町１００番地３,,09,203,3280054,,,,,,,2024-01-26,1,,,,,サトウショウジ,0
3264,9080405007608,新規,0,2024-01-26,2024-01-26,ロイヤルシャトー高林管理組合法人,,その他の設立登記法人,静岡県,浜松市中央区,高林３丁目７番１５号,,22,138,4300907,,,,,,,2024-01-26,1,,,,,ロイヤルシャトータカバヤシ,0
3269,9100001037171,新規,0,2024-01-26,2024-01-26,株式会社ＡＳＰ,,株式会社,長野県,長野市,稲里町中氷鉋４７２番地１,,20,201,3812215,,,,,,,2024-01-26,1,,,,,エーエスピー,0
3284,9110001038136,新規,0,2024-01-26,2024-01-26,株式会社ｂ２ｐ,,株式会社,新潟県,佐渡市,河原田諏訪町４番地,,15,224,9521315,,,,,,,2024-01-26,1,,,,,ビーツーピー,0
3291,9120001261629,新規,0,2024-01-26,2024-01-26,株式会社昇明,,株式会社,大阪府,大阪市生野区,中川２丁目５－１８,,27,116,5440005,,,,,,,2024-01-26,1,,,,,ショウメイ,0
3292,9120001261653,新規,0,2024-01-26,2024-01-26,高橋一飛株式会社,,株式会社,大阪府,大阪市東淀川区,下新庄２丁目８－１６－３０１,,27,114,5330021,,,,,,,2024-01-26,1,,,,,タカハシイチヒ,0
3293,9120001261661,新規,0,2024-01-26,2024-01-26,株式会社ＷＱ,,株式会社,大阪府,大阪市都島区,中野町４丁目３番６号Ｈ２Ｈ大阪桜ノ宮邸２Ａ－２,,27,102,5340027,,,,,,,2024-01-26,1,,,,,ダブリューキュー,0
3294,9120001261678,新規,0,2024-01-26,2024-01-26,株式会社Ｗｈｉｔｅ　Ｎｅｘｔ,,株式会社,大阪府,大阪市淀川区,西宮原１丁目６番６０号,,27,123,5320004,,,,,,,2024-01-26,1,,,,,ホワイトネクスト,0
3295,9120001261694,新規,0,2024-01-26,2024-01-26,株式会社キタカタ設備,,株式会社,大阪府,大阪市東住吉区,山坂２丁目１３番１７号,,27,121,5460035,,,,,,,2024-01-26,1,,,,,キタカタセツビ,0
3296,9120001261703,新規,0,2024-01-26,2024-01-26,株式会社匠ＴＥＣ,,株式会社,大阪府,守口市,大久保町１丁目１５－１６,,27,209,5700012,,,,,,,2024-01-26,1,,,,,ショウテック,0
3297,9120001261744,新規,0,2024-01-26,2024-01-26,メタロジカル株式会社,,株式会社,大阪府,大阪市北区,梅田１丁目２番２号大阪駅前第２ビル１２－１２,,27,127,5300001,,,,,,,2024-01-26,1,,,,,メタロジカル,0
3298,9120001261785,新規,0,2024-01-26,2024-01-26,有楽株式会社,,株式会社,大阪府,大阪市阿倍野区,昭和町５丁目１０番２４号ＲＥ：ＺＯＮＥ西田辺０１・３０４号室,,27,119,5450011,,,,,,,2024-01-26,1,,,,,ユウラク,0
3301,9120003025759,新規,0,2024-01-26,2024-01-26,タイムウェーブコンサルティング合同会社,,合同会社,大阪府,大阪市北区,梅田１丁目２番２号大阪駅前第２ビル１２－１２,,27,127,5300001,,,,,,,2024-01-26,1,,,,,タイムウェーブコンサルティング,0
3302,9120005024123,新規,0,2024-01-26,2024-01-26,一般社団法人この花咲くやアート協会,,その他の設立登記法人,大阪府,大阪市此花区,伝法６丁目２番３０号,,27,104,5540002,,,,,,,2024-01-26,1,,,,,コノハナサクヤアートキョウカイ,0
3306,9120101068949,新規,0,2024-01-26,2024-01-26,株式会社大日ホールディングス,,株式会社,大阪府,和泉市,鶴山台４丁目１０番６号,,27,219,5940013,,,,,,,2024-01-26,1,,,,,ダイニチホールディングス,0
3308,9122001037769,新規,0,2024-01-26,2024-01-26,株式会社ゼロワークス,,株式会社,大阪府,大東市,三箇１丁目２１番１９号,,27,218,5740077,,,,,,,2024-01-26,1,,,,,ゼロワークス,0
3312,9130001076209,新規,0,2024-01-26,2024-01-26,株式会社Ｒｅｌｉｆｅ栄和,,株式会社,京都府,京都市下京区,七条御所ノ内西町３番地１,,26,106,6008865,,,,,,,2024-01-26,1,,,,,リライフエイワ,0
3313,9130001076225,新規,0,2024-01-26,2024-01-26,株式会社プラスワン,,株式会社,京都府,京都市東山区,宮川筋４丁目３１３番地１,,26,105,6050801,,,,,,,2024-01-26,1,,,,,プラスワン,0
3314,9130001076233,新規,0,2024-01-26,2024-01-26,株式会社米ぐらし,,株式会社,京都府,京田辺市,興戸南鉾立１３１番地の１７,,26,211,6100332,,,,,,,2024-01-26,1,,,,,コメグラシ,0
3317,9140001133082,新規,0,2024-01-26,2024-01-26,株式会社大山,,株式会社,兵庫県,芦屋市,高浜町４番２－４４４号,,28,206,6590033,,,,,,,2024-01-26,1,,,,,オオヤマ,0
3318,9140001133124,新規,0,2024-01-26,2024-01-26,株式会社七福神社,,株式会社,兵庫県,神戸市兵庫区,松原通４丁目４番７－２０２号室,,28,105,6520881,,,,,,,2024-01-26,1,,,,,シチフクジンシャ,0
3320,9140003020080,新規,0,2024-01-26,2024-01-26,合同会社ＴＷＧ,,合同会社,兵庫県,神戸市長田区,若松町１０丁目２－１０－１０１,,28,106,6530038,,,,,,,2024-01-26,1,,,,,ティーダブリュージー,0
3321,9140003020089,新規,0,2024-01-26,2024-01-26,合同会社信宏,,合同会社,兵庫県,宝塚市,すみれガ丘３丁目３番１－１８０９号,,28,214,6650847,,,,,,,2024-01-26,1,,,,,シンコウ,0
3323,9170005007065,新規,0,2024-01-26,2024-01-26,医療法人駿明会,,その他の設立登記法人,和歌山県,有田郡湯浅町,大字湯浅１２８－２,,30,361,6430004,,,,,,,2024-01-26,1,,,,,シュンメイカイ,0
3331,9200001042112,新規,0,2024-01-26,2024-01-26,株式会社ＮＯＶＡ,,株式会社,岐阜県,岐阜市,旦島１丁目２番２０号,,21,201,5020926,,,,,,,2024-01-26,1,,,,,ノヴァ,0
3333,9220005008801,新規,0,2024-01-26,2024-01-26,一般財団法人能登金沢協力チーム,,その他の設立登記法人,石川県,金沢市,本町１丁目３番３９号,,17,201,9200853,,,,,,,2024-01-26,1,,,,,ノトカナザワキョウリョクチーム,0
3345,9290003014902,新規,0,2024-01-26,2024-01-26,合同会社ブレイブスター,,合同会社,福岡県,太宰府市,大佐野２丁目１１番３５号,,40,221,8180134,,,,,,,2024-01-26,1,,,,,ブレイブスター,0
3347,9290801030241,新規,0,2024-01-26,2024-01-26,株式会社あいむ,,株式会社,福岡県,田川市,丸山町１１－４２,,40,206,8260033,,,,,,,2024-01-26,1,,,,,アイム,0
3355,9310001018828,新規,0,2024-01-26,2024-01-26,ＰＦＩ長崎市スクールランチ株式会社,,株式会社,長崎県,長崎市,興善町２番８号,,42,201,8500032,,,,,,,2024-01-26,1,,,,,ピーエフアイナガサキシスクールランチ,0
3367,9330001031705,新規,0,2024-01-26,2024-01-26,株式会社ｌｍｏｒｅ,,株式会社,熊本県,上益城郡益城町,大字広崎８０３－８,,43,443,8612236,,,,,,,2024-01-26,1,,,,,エルモア,0
3368,9340001026241,新規,0,2024-01-26,2024-01-26,株式会社キョウスイ,,株式会社,鹿児島県,西之表市,鴨女町２２０番地１,,46,213,8913116,,,,,,,2024-01-26,1,,,,,キョウスイ,0
3375,9360003013640,新規,0,2024-01-26,2024-01-26,ネクステア合同会社,,合同会社,沖縄県,糸満市,字座波１２０５－１,,47,210,9010314,,,,,,,2024-01-26,1,,,,,ネクステア,0
3378,9370003006461,新規,0,2024-01-26,2024-01-26,合同会社Ｐ２Ｂ,,合同会社,宮城県,仙台市宮城野区,銀杏町１９番１０号クラージュ銀杏町２０６,,04,102,9830047,,,,,,,2024-01-26,1,,,,,ピーツービー,0
3402,9700150118471,新規,0,2024-01-26,2024-01-26,Ｙｉｗｕ　ｙｉｙｕａｎ　ｔｒａｄｉｎｇ　ｃｏ．ＬＴＤ,,外国会社等,,,,,,,,Ｒｏｏｍ　３０３，Ｕｎｉｔ　２，Ｂｕｉｌｄｉｎｇ　５１，Ｘｉｃｈｅｎ’Ｄｉｓｔｒｉｃｔ　２，Ｊｉａｎｇｄｏｎｇ　Ｓｔｒｅｅｔ，Ｙｉｗｕ　Ｃｉｔｙ，Ｊｉｎｈｕａ　Ｃｉｔｙ，Ｚｈｅｊｉａｎｇ　Ｐｒｏｖｉｎｃｅ，Ｃｈｉｎａ,,,,,,2024-01-26,1,,,,,イーウイーユエントレーディングカンパニーリミテッド,0
3403,9700150120980,新規,0,2024-01-26,2024-01-26,ｎｉｎｇｂｏｓｈｅｎｇｈｏｎｇｃｈｅｙｅｙｏｕｘｉａｎｇｏｎｇｓｉ,,外国会社等,,,,,,,,ｂｉｎｈａｉｊｉｎｇｊｉｋａｉｆａｑｕｃｉｄｏｎｇｂｅｉｄａｄａｏ１００９ｈａｏｃｉｘｉｚｈｅｊｉａｎｇｓｈｅｎｇ３１５３００ＣＮ,,,,,,2024-01-26,1,,,,,ニンボーションホンチョーイエヨウシエンゴンス,0
3404,9700150121467,新規,0,2024-01-26,2024-01-26,Ｗｅｎｚｈｏｕ　Ｍｏｄａ　Ｍａｏｙｉ　Ｃｏ．，Ｌｔｄ,,外国会社等,,,,,,,,Ｗａｎｆｅｎｇｄａｓｈａ　３－６０６，Ｌｕｃｈｅｎｇ　Ｑｕ，Ｗｅｎｚｈｏｕ，Ｚｈｅｊｉａｎｇ,,,,,,2024-01-26,1,,,,,ウエンジョウモーダマオイーカンパニーリミテッド,0
3405,9700150121715,新規,0,2024-01-26,2024-01-26,ｇｕｏｙａｎｇｘｉａｎｓａｎｙａｎｇｗｕｊｉｎｋｅｊｉｙｏｕｘｉａｎｇｏｎｇｓｉ,,外国会社等,,,,,,,,Ｎｏ．０５７，Ｈａｏ　Ｌｉｎｇ　Ｎａｔｕｒａｌ　Ｖｉｌｌａｇｅ，Ｘｉｎｃｕｎ　Ａｄｍｉｎｉｓｔｒａｔｉｖｅ　Ｖｉｌｌａｇｅ，Ｃａｏ　Ｓｈｉ　Ｔｏｗｎ　Ｇｕｏｙａｎｇ　Ｃｏｕｎｔｙ　Ｈａｏｚｈｏｕ　Ｃｉｔｙ　Ｓｏｎｇｊｉａｎｇ　Ｄｉｓｔｒｉｃｔ　Ａｎｈｕｉ　Ｐｒｏｖｉｎｃｅ,,,,,,2024-01-26,1,,,,,ウォヤーンシエンサンヤーンウージンクージヨウシエンゴンス,0
3406,9700150123661,新規,0,2024-01-26,2024-01-26,習志野市鷺沼土地区画整理組合,,その他,千葉県,習志野市,津田沼５丁目１４－２４,,12,216,2750016,,,,,,,2024-01-26,1,,,,,ナラシノシサギヌマトチクカクセイリクミアイ,0
3407,9700150123678,新規,0,2024-01-26,2024-01-26,ｙｉｗｕ　ｓｈｉ　ｙｉｒａｎ　ｍａｏｙｉ　Ｃｏ．，Ｌｔｄ,,外国会社等,,,,,,,,Ｚｈｅｊｉａｎｇｓｈｅｎｇｙｉｗｕｓｈｉｂｅｉｙｕａｎｊｉｅｄａｏｗａｎｇｄａｏｌｕ　Ｎｏ．３５９Ａｄｏｎｇ８Ｆ８０１,,,,,,2024-01-26,1,,,,,イーウーシーイーランマオイーヨウシエンゴンスー,0
