sequenceNumber,corporateNumber,process,correct,updateDate,changeDate,name,nameImageId,kind,prefectureName,cityName,streetNumber,addressImageId,prefectureCode,cityCode,postCode,addressOutside,addressOutsideImageId,closeDate,closeCause,successorCorporateNumber,changeCause,assignmentDate,latest,enName,enPrefectureName,enCityName,enAddressOutside,furigana,hihyoji
17,1010103001851,登記記録の閉鎖等,0,2022-07-26,2022-07-11,ＷｅｌｌＢｅｅ合同会社,,合同会社,東京都,八王子市,七国３丁目１番１９号,,13,201,1920919,,,2022-07-11,清算の結了等,,,2022-01-18,1,,,,,ウェルビー,0
33,1010602016094,登記記録の閉鎖等,0,2022-07-26,2022-07-14,有限会社山中鉄工所,,有限会社,東京都,墨田区,横川３丁目１３番７号,,13,107,1300003,,,2022-07-14,清算の結了等,,,2015-10-05,1,,,,,ヤマナカテッコウジョ,0
34,1010703004122,登記記録の閉鎖等,0,2022-07-26,2022-07-25,合同会社シンカ,,合同会社,東京都,品川区,豊町６丁目２５番８号ミモザハウス１０１,,13,109,1420042,,,2022-07-25,清算の結了等,,,2018-02-20,1,,,,,,0
50,1011001072943,登記記録の閉鎖等,0,2022-07-26,2022-07-21,株式会社ＡＲＥＧ,,株式会社,東京都,渋谷区,神南１丁目９番２号,,13,113,1500041,,,2022-07-21,清算の結了等,,,2015-10-05,1,,,,,アレグ,0
61,1011301019124,登記記録の閉鎖等,0,2022-07-26,2022-07-19,ＣＡＭＰ株式会社,,株式会社,東京都,渋谷区,渋谷２丁目１１番５号,,13,113,1500002,,,2022-07-19,合併による解散等,7150001006594,令和４年７月１日奈良県天理市川原城町３１３番地１ｃａｒｓ株式会社（7150001006594）に合併し解散,2015-10-05,1,,,,,キャンプ,0
63,1011401011071,登記記録の閉鎖等,0,2022-07-26,2022-07-25,株式会社三笠,,株式会社,東京都,板橋区,大山東町４５番２号,,13,119,1730014,,,2022-07-25,清算の結了等,,,2015-10-05,1,,,,,ミカサ,0
68,1011702007438,登記記録の閉鎖等,0,2022-07-26,2022-07-20,有限会社田村商会,,有限会社,東京都,江戸川区,篠崎町７丁目１８番１５号,,13,123,1330061,,,2022-07-20,清算の結了等,,,2015-10-05,1,,,,,タムラショウカイ,0
76,1013301006770,登記記録の閉鎖等,0,2022-07-26,2022-07-13,株式会社大学教育研究所,,株式会社,埼玉県,比企郡鳩山町,鳩ヶ丘３丁目４－１５,,11,348,3500312,,,2022-07-13,清算の結了等,,,2015-10-05,1,,,,,ダイガクキョウイクケンキュウジョ,0
79,1020001059248,登記記録の閉鎖等,0,2022-07-26,2022-07-12,大東工産株式会社,,株式会社,神奈川県,横浜市港南区,上大岡西２丁目８番２０号柳下ビル,,14,111,2330002,,,2022-07-12,清算の結了等,,,2015-10-05,1,,,,,ダイトウコウサン,0
80,1020001073001,登記記録の閉鎖等,0,2022-07-26,2022-07-21,株式会社佐々木興産,,株式会社,東京都,稲城市,若葉台３丁目１番地の１若葉台ワルツの杜Ａ棟６０６号室,,13,225,2060824,,,2022-07-21,清算の結了等,,,2015-10-05,1,,,,,ササキコウサン,0
86,1020002038028,登記記録の閉鎖等,0,2022-07-26,2022-07-13,有限会社コアワークス,,有限会社,神奈川県,横浜市鶴見区,岸谷２丁目２番８号,,14,101,2300078,,,2022-07-13,清算の結了等,,,2015-10-05,1,,,,,コアワークス,0
106,1030002000960,登記記録の閉鎖等,0,2022-07-26,2022-07-13,有限会社イーソ工事,,有限会社,埼玉県,川越市,大字今泉２００番地１７,,11,201,3500015,,,2022-07-13,清算の結了等,,,2015-10-05,1,,,,,イーソコウジ,0
109,1040001071085,登記記録の閉鎖等,0,2022-07-26,2022-07-14,今井建設株式会社,,株式会社,千葉県,野田市,中野台１８２番地,,12,208,2780035,,,2022-07-14,清算の結了等,,,2015-10-05,1,,,,,,0
144,1110001003907,登記記録の閉鎖等,0,2022-07-26,2022-07-20,新潟ジョンソンボイラ株式会社,,株式会社,新潟県,新潟市中央区,京王１丁目２番２０号,,15,103,9500921,,,2022-07-20,清算の結了等,,,2015-10-05,1,,,,,ニイガタジョンソンボイラ,0
145,1110001019127,登記記録の閉鎖等,0,2022-07-26,2022-07-21,株式会社白川鉄工所,,株式会社,新潟県,上越市,春日新田４丁目２番１号,,15,222,9420061,,,2022-07-21,清算の結了等,,,2015-10-05,1,,,,,シラカワテッコウジョ,0
156,1120001205584,登記記録の閉鎖等,0,2022-07-26,2022-07-13,株式会社モデナ,,株式会社,大阪府,大阪市城東区,古市３丁目２５番１９号,,27,118,5360001,,,2022-07-13,清算の結了等,,,2017-05-17,1,,,,,モデナ,0
164,1120101032870,登記記録の閉鎖等,0,2022-07-26,2022-07-22,株式会社高岡鋳芸,00032375,株式会社,大阪府,藤井寺市,春日丘２丁目５番１２号,,27,226,5830026,,,2022-07-22,清算の結了等,,,2015-10-05,1,,,,,タカオカチュウゲイ,0
176,1130002010371,登記記録の閉鎖等,0,2022-07-26,2022-07-11,有限会社京都フォトセンター,,有限会社,京都府,京都市東山区,正面通本町東入茶屋町５１６番地,,26,105,6050931,,,2022-07-11,清算の結了等,,,2015-10-05,1,,,,,キョウトフォトセンター,0
209,1180302027144,登記記録の閉鎖等,0,2022-07-26,2022-07-13,有限会社松尾工業,,有限会社,愛知県,西尾市,丁田町流３０番地２,,23,213,4450062,,,2022-07-13,清算の結了等,,,2015-10-05,1,,,,,マツオコウギョウ,0
229,1240001056801,登記記録の閉鎖等,0,2022-07-26,2022-07-20,株式会社コムズステーション,,株式会社,広島県,広島市佐伯区,五日市中央５丁目３番１７－１０５号,,34,108,7315128,,,2022-07-20,清算の結了等,,,2020-10-20,1,,,,,コムズステーション,0
231,1240002044367,登記記録の閉鎖等,0,2022-07-26,2022-07-19,有限会社中国計測,,有限会社,広島県,福山市,沖野上町５丁目２８番１２号,,34,207,7200825,,,2022-07-19,清算の結了等,,,2015-10-05,1,,,,,チュウゴクケイソク,0
257,1330001022133,登記記録の閉鎖等,0,2022-07-26,2022-07-11,九国ベジフル株式会社,,株式会社,熊本県,菊池郡大津町,大字岩坂３３０８番地１,,43,403,8691222,,,2022-07-11,清算の結了等,,,2015-10-05,1,,,,,キュウコクベジフル,0
259,1330002013841,登記記録の閉鎖等,0,2022-07-26,2022-07-12,有限会社オフィス・アイ,,有限会社,熊本県,熊本市東区,東本町１番１１０号,,43,102,8620902,,,2022-07-12,清算の結了等,,,2015-10-05,1,,,,,オフィスアイ,0
260,1330005004012,登記記録の閉鎖等,0,2022-07-26,2022-07-05,ＮＰＯ法人エッグス,,その他の設立登記法人,熊本県,上益城郡山都町,二瀬本６０,,43,447,8613922,,,2022-07-05,清算の結了等,,,2015-10-05,1,,,,,エッグス,0
262,1350001011506,登記記録の閉鎖等,0,2022-07-26,2022-07-25,株式会社ボヌール,,株式会社,宮崎県,児湯郡新富町,富田２丁目２０番地１,,45,402,8891411,,,2022-07-25,清算の結了等,,,2015-10-05,1,,,,,ボヌール,0
279,1460002002625,登記記録の閉鎖等,0,2022-07-26,2022-07-20,有限会社北真,,有限会社,北海道,釧路郡釧路町,北都２丁目５番地１５,,01,661,0880617,,,2022-07-20,清算の結了等,,,2015-10-05,1,,,,,ホクシン,0
316,2010403007317,登記記録の閉鎖等,0,2022-07-26,2022-07-12,合同会社Ｐｒａｇｍａｔｉｃ　Ｅｎｇｉｎｅ,,合同会社,千葉県,柏市,新逆井２丁目４番６号,,12,217,2770044,,,2022-07-12,清算の結了等,,,2015-10-05,1,,,,,プラグマティックエンジン,0
344,2011202003556,登記記録の閉鎖等,0,2022-07-26,2022-07-01,有限会社大しや,,有限会社,東京都,中野区,江古田１丁目９番２５号,,13,114,1650022,,,2022-07-01,清算の結了等,,,2015-10-05,1,,,,,ダイシヤ,0
352,2012701011396,登記記録の閉鎖等,0,2022-07-26,2022-07-22,株式会社セムテック,,株式会社,東京都,西東京市,谷戸町２丁目１番２４号,,13,229,1880001,,,2022-07-22,清算の結了等,,,2015-10-05,1,,,,,セムテック,0
371,2021002059483,登記記録の閉鎖等,0,2022-07-26,2022-07-20,有限会社藤本エンジニアリング,,有限会社,神奈川県,平塚市,四之宮４丁目５番１３号,,14,203,2540014,,,2022-07-20,清算の結了等,,,2015-10-05,1,,,,,フジモトエンジニアリング,0
376,2030001050394,登記記録の閉鎖等,0,2022-07-26,2022-07-04,コフィー株式会社,,株式会社,東京都,港区,南青山２丁目２番１５号,,13,103,1070062,,,2022-07-04,清算の結了等,,,2015-10-05,1,,,,,コフィー,0
379,2030002049477,登記記録の閉鎖等,0,2022-07-26,2022-07-12,有限会社中村米穀,,有限会社,埼玉県,三郷市,上彦名２１６番地,,11,237,3410004,,,2022-07-12,清算の結了等,,,2015-10-05,1,,,,,ナカムラベイコク,0
393,2060002034583,登記記録の閉鎖等,0,2022-07-26,2022-07-15,有限会社丸屋商店,,有限会社,栃木県,下都賀郡壬生町,通町４番３号,,09,361,3210227,,,2022-07-15,清算の結了等,,,2016-01-26,1,,,,,マルヤショウテン,0
403,2100002033143,登記記録の閉鎖等,0,2022-07-26,2022-07-15,有限会社野沢興産,,有限会社,長野県,伊那市,山寺１８７７番地,,20,209,3960023,,,2022-07-15,清算の結了等,,,2015-10-05,1,,,,,ノザワコウサン,0
409,2120001160085,登記記録の閉鎖等,0,2022-07-26,2022-07-13,株式会社松枝重量,,株式会社,大阪府,門真市,打越町４番５号,,27,223,5710029,,,2022-07-13,清算の結了等,,,2015-10-05,1,,,,,マツエダジュウリョウ,0
410,2120001204750,登記記録の閉鎖等,0,2022-07-26,2022-07-21,シオノギキャリア開発センター株式会社,,株式会社,兵庫県,尼崎市,戸ノ内８２９番地の１,,28,202,6600000,,,2022-07-21,合併による解散等,8120001204745,令和４年７月１日大阪市中央区道修町四丁目７番６号シオノギビジネスパートナー株式会社（8120001204745）に合併し解散,2017-04-12,1,,,,,シオノギキャリアカイハツセンター,0
430,2130001053817,登記記録の閉鎖等,0,2022-07-26,2022-07-11,株式会社Ｒｉｔｚｙ,,株式会社,京都府,京都市左京区,松ケ崎井出ケ海道町５番地１グレースと～べえ６０２号,,26,103,6060931,,,2022-07-11,清算の結了等,,,2015-10-05,1,,,,,リッツ,0
435,2140001041746,登記記録の閉鎖等,0,2022-07-26,2022-07-21,株式会社スタディーキャンパスレオ,,株式会社,兵庫県,丹波篠山市,立町１３９番地,,28,221,6692323,,,2022-07-21,清算の結了等,,,2015-10-05,1,,,,,スタディーキャンパスレオ,0
446,2160001017843,登記記録の閉鎖等,0,2022-07-26,2022-07-21,株式会社ムライ,,株式会社,滋賀県,長浜市,高月町高月１４７番地,,25,203,5290241,,,2022-07-21,清算の結了等,,,2015-10-05,1,,,,,ムライ,0
455,2180001077200,登記記録の閉鎖等,0,2022-07-26,2022-07-21,株式会社ファースト,,株式会社,愛知県,春日井市,大手町２丁目８９番地,,23,206,4860807,,,2022-07-21,清算の結了等,,,2015-10-05,1,,,,,ファースト,0
462,2180002088931,登記記録の閉鎖等,0,2022-07-26,2022-07-20,有限会社中浜建築設計事務所,,有限会社,愛知県,知多市,にしの台４丁目１９番地の６,,23,224,4780055,,,2022-07-20,清算の結了等,,,2015-10-05,1,,,,,ナカハマケンチクセッケイジムショ,0
471,2180302014843,登記記録の閉鎖等,0,2022-07-26,2022-07-22,Ｋ’ｓファクトリー有限会社,,有限会社,愛知県,豊川市,豊川栄町１７番地,,23,207,4420036,,,2022-07-22,清算の結了等,,,2015-10-05,1,,,,,,0
472,2180302022417,登記記録の閉鎖等,0,2022-07-26,2022-07-21,有限会社鈴木機工,,有限会社,愛知県,みよし市,打越町畦違１８４番地１,,23,236,4700213,,,2022-07-21,清算の結了等,,,2015-10-05,1,,,,,スズキキコウ,0
480,2230001001096,登記記録の閉鎖等,0,2022-07-26,2022-07-11,株式会社サンライズ２１,,株式会社,富山県,富山市,五福３３９３番地,,16,201,9300887,,,2022-07-11,清算の結了等,,,2015-10-05,1,,,,,サンライズニイチ,0
494,2290001068675,登記記録の閉鎖等,0,2022-07-26,2022-07-13,株式会社ＫＲＭ,,株式会社,福岡県,福岡市南区,井尻４丁目８番２０－４０６号,,40,134,8111302,,,2022-07-13,清算の結了等,,,2015-10-05,1,,,,,ケイアールエム,0
512,2370001031534,登記記録の閉鎖等,0,2022-07-26,2022-07-08,株式会社創建テック,,株式会社,宮城県,仙台市太白区,柳生４丁目２番４－１０３号,,04,104,9811106,,,2022-07-08,清算の結了等,,,2015-10-05,1,,,,,ソウケンテック,0
528,2490002005640,登記記録の閉鎖等,0,2022-07-26,2022-07-11,有限会社ルート設計事務所,,有限会社,高知県,高知市,一宮中町３丁目９番１２号,,39,201,7818134,,,2022-07-11,清算の結了等,,,2015-10-05,1,,,,,ルートセッケイジムショ,0
585,3011601019169,登記記録の閉鎖等,0,2022-07-26,2022-07-22,株式会社リバーハウス,,株式会社,東京都,練馬区,練馬４丁目２０番６号,,13,120,1760001,,,2022-07-22,清算の結了等,,,2015-10-05,1,,,,,リバーハウス,0
619,3020002103127,登記記録の閉鎖等,0,2022-07-26,2022-07-13,有限会社アットクリーン,,有限会社,神奈川県,川崎市幸区,南加瀬３丁目１１番８号,,14,132,2120055,,,2022-07-13,清算の結了等,,,2015-10-05,1,,,,,アットクリーン,0
620,3020003006865,登記記録の閉鎖等,0,2022-07-26,2022-07-12,合名会社堀越興業,,合名会社,神奈川県,横浜市都筑区,牛久保３丁目２番２６号,,14,118,2240012,,,2022-07-12,清算の結了等,,,2015-10-05,1,,,,,ホリコシコウギョウ,0
647,3030002042324,登記記録の閉鎖等,0,2022-07-26,2022-07-13,有限会社鈴木運輸倉庫,,有限会社,埼玉県,加須市,砂原６８２番地,,11,210,3491155,,,2022-07-13,清算の結了等,,,2015-10-05,1,,,,,スズキウンユソウコ,0
648,3030002061299,登記記録の閉鎖等,0,2022-07-26,2022-07-12,有限会社サカイサービス,,有限会社,埼玉県,新座市,畑中１丁目１０番５７－６０８号,,11,230,3520012,,,2022-07-12,清算の結了等,,,2015-10-05,1,,,,,サカイサービス,0
652,3030005005864,登記記録の閉鎖等,0,2022-07-26,2022-07-12,医療法人社団光揺会,,その他の設立登記法人,埼玉県,三郷市,早稲田２丁目１３番地９,,11,237,3410018,,,2022-07-12,清算の結了等,,,2015-10-05,1,,,,,コウヨウカイ,0
682,3100002037250,登記記録の閉鎖等,0,2022-07-26,2022-07-14,平和不動産有限会社,,有限会社,長野県,飯田市,本町３丁目大横１８番地,,20,205,3950044,,,2022-07-14,清算の結了等,,,2015-10-05,1,,,,,ヘイワフドウサン,0
686,3110002000827,登記記録の閉鎖等,0,2022-07-26,2022-07-20,有限会社伊藤設備サービス,,有限会社,新潟県,新潟市東区,江南６丁目１０番地１４,,15,102,9500855,,,2022-07-20,清算の結了等,,,2015-10-05,1,,,,,イトウセツビサービス,0
687,3110002023423,登記記録の閉鎖等,0,2022-07-26,2022-07-20,有限会社ベフ企画,,有限会社,新潟県,上越市,春日山町１丁目４番１８号,,15,222,9430807,,,2022-07-20,清算の結了等,,,2015-10-05,1,,,,,ベフキカク,0
703,3120101060696,登記記録の閉鎖等,0,2022-07-26,2022-07-21,株式会社初芝鉄工所,,株式会社,大阪府,堺市東区,菩提町１丁８５番地,,27,143,5998103,,,2022-07-21,清算の結了等,,,2019-10-24,1,,,,,ハツシバテッコウショ,0
704,3120101060894,登記記録の閉鎖等,0,2022-07-26,2022-07-22,桜不動産コンサルティング株式会社,,株式会社,大阪府,堺市東区,中茶屋７７－１メイツ北野田６０４号,,27,143,5998128,,,2022-07-22,清算の結了等,,,2019-11-29,1,,,,,サクラフドウサンコンサルティング,0
709,3130001020411,登記記録の閉鎖等,0,2022-07-26,2022-07-11,株式会社衣匠,,株式会社,京都府,京都市中京区,麩屋町通リ二条下ル尾張町２１０番地の３第２ふじビル,,26,104,6040000,,,2022-07-11,清算の結了等,,,2015-10-05,1,,,,,キヌショウ,0
737,3190001016684,登記記録の閉鎖等,0,2022-07-26,2022-07-14,ＹＵＫ株式会社,,株式会社,大阪府,大阪市中央区,道修町１丁目６番７号北浜ＭＩＤビル９階,,27,128,5410045,,,2022-07-14,清算の結了等,,,2015-10-05,1,,,,,,0
738,3190001019745,登記記録の閉鎖等,0,2022-07-26,2022-07-12,株式会社ダイセン,,株式会社,三重県,四日市市,釆女町３６番地,,24,202,5100954,,,2022-07-12,清算の結了等,,,2015-10-05,1,,,,,ダイセン,0
744,3190002004176,登記記録の閉鎖等,0,2022-07-26,2022-07-14,有限会社津坂コンタクト,,有限会社,三重県,津市,藤方１５３５番地２,,24,201,5140815,,,2022-07-14,清算の結了等,,,2015-10-05,1,,,,,ツサカコンタクト,0
759,3240002022577,登記記録の閉鎖等,0,2022-07-26,2022-07-19,有限会社ジーライズ,,有限会社,広島県,広島市南区,大須賀町１２番２号,,34,103,7320821,,,2022-07-19,清算の結了等,,,2015-10-05,1,,,,,ジーライズ,0
783,3290802001718,登記記録の閉鎖等,0,2022-07-26,2022-07-25,有限会社北九州迫田組電業,,有限会社,福岡県,北九州市小倉北区,下富野２丁目７番８号,,40,106,8020023,,,2022-07-25,清算の結了等,,,2015-10-05,1,,,,,サコダグミデンギョウ,0
787,3330002028581,登記記録の閉鎖等,0,2022-07-26,2022-07-11,進栄タンカー有限会社,,有限会社,熊本県,上天草市,松島町阿村４９２８番地,,43,212,8616101,,,2022-07-11,清算の結了等,,,2015-10-05,1,,,,,シンエイタンカー,0
789,3340001011109,登記記録の閉鎖等,0,2022-07-26,2022-07-25,株式会社Ｄｉｏ,,株式会社,鹿児島県,霧島市,国分清水４丁目１２番２７号,,46,218,8994304,,,2022-07-25,清算の結了等,,,2015-10-05,1,,,,,ディオ,0
806,3420005007383,登記記録の閉鎖等,0,2022-07-26,2022-07-15,ＮＰＯ法人１Ｇｒｅｅｎ　Ｍｏｖｅｍｅｎｔ,,その他の設立登記法人,青森県,八戸市,大字新井田字小久保尻１番地２２,,02,203,0310813,,,2022-07-15,清算の結了等,,,2016-01-19,1,,,,,ワングリーンムーブメント,0
819,4010001120858,登記記録の閉鎖等,0,2022-07-26,2022-07-07,コンサルティング・ブレイン株式会社,,株式会社,東京都,千代田区,内神田１丁目１５番１４号,,13,101,1010047,,,2022-07-07,清算の結了等,,,2015-10-05,1,,,,,コンサルティングブレイン,0
895,4012401037954,登記記録の閉鎖等,0,2022-07-26,2022-07-20,株式会社Ａｎｉｃｏ　Ｌａｂ,,株式会社,東京都,調布市,多摩川６丁目２１番地２,,13,208,1820025,,,2022-07-20,清算の結了等,,,2021-06-07,1,,,,,アニコラボ,0
898,4012402021230,登記記録の閉鎖等,0,2022-07-26,2022-07-20,有限会社インプレッション,,有限会社,東京都,三鷹市,深大寺２丁目３０番２６号,,13,204,1810016,,,2022-07-20,清算の結了等,,,2015-10-05,1,,,,,インプレッション,0
899,4012702002938,登記記録の閉鎖等,0,2022-07-26,2022-07-21,有限会社すぱいす,,有限会社,東京都,東村山市,本町１丁目４番地１,,13,213,1890014,,,2022-07-21,清算の結了等,,,2015-10-05,1,,,,,スパイス,0
905,4013305001484,登記記録の閉鎖等,0,2022-07-26,2022-07-20,特定非営利活動法人セーブ・ザ・ライフ,,その他の設立登記法人,東京都,豊島区,雑司が谷３丁目３番２５－９０３号,,13,116,1710032,,,2022-07-20,清算の結了等,,,2015-10-05,1,,,,,セーブザライフ,0
916,4020002029817,登記記録の閉鎖等,0,2022-07-26,2022-07-12,有限会社河野設備工業,,有限会社,神奈川県,横浜市南区,井土ケ谷下町２５番地の１０,,14,105,2320053,,,2022-07-12,清算の結了等,,,2015-10-05,1,,,,,コウノセツビコウギョウ,0
917,4020002068988,登記記録の閉鎖等,0,2022-07-26,2022-07-12,有限会社アズ・アイム企画,,有限会社,神奈川県,横浜市泉区,岡津町１５００番地の２ルネ戸塚弥生台３２９号,,14,116,2450003,,,2022-07-12,清算の結了等,,,2015-10-05,1,,,,,アズアイムキカク,0
925,4030001092311,登記記録の閉鎖等,0,2022-07-26,2022-07-13,太協鋼機株式会社,,株式会社,埼玉県,さいたま市浦和区,仲町２丁目１３番１８号,,11,107,3300062,,,2022-07-13,清算の結了等,,,2015-10-05,1,,,,,ダイキョウコウキ,0
978,4120101060695,登記記録の閉鎖等,0,2022-07-26,2022-07-21,株式会社初芝化学工業所,,株式会社,大阪府,堺市東区,菩提町１丁８５番地,,27,143,5998103,,,2022-07-21,清算の結了等,,,2019-10-24,1,,,,,ハツシバカガクコウギョウショ,0
982,4120901041473,登記記録の閉鎖等,0,2022-07-26,2022-07-15,北摂管財株式会社,,株式会社,大阪府,茨木市,春日１丁目１０番５号１０３号,,27,211,5670031,,,2022-07-15,清算の結了等,,,2019-06-28,1,,,,,ホクセツカンザイ,0
996,4140001091228,登記記録の閉鎖等,0,2022-07-26,2022-07-13,株式会社アフィアン,,株式会社,兵庫県,明石市,鷹匠町２番３２号,,28,203,6730848,,,2022-07-13,清算の結了等,,,2015-10-05,1,,,,,アフィアン,0
997,4140002062723,登記記録の閉鎖等,0,2022-07-26,2022-07-21,有限会社小川プロパン,,有限会社,兵庫県,小野市,天神町９６８番地の１,,28,218,6751316,,,2022-07-21,清算の結了等,,,2015-10-05,1,,,,,オガワプロパン,0
1005,4160001001300,登記記録の閉鎖等,0,2022-07-26,2022-07-11,中央宅建株式会社,,株式会社,滋賀県,大津市,千町１丁目１３４番地１,,25,201,5200863,,,2022-07-11,清算の結了等,,,2015-10-05,1,,,,,,0
1007,4160005007946,登記記録の閉鎖等,0,2022-07-26,2022-07-21,特定非営利活動法人里山ライフ研究所,,その他の設立登記法人,滋賀県,高島市,鵜川６３２番地,,25,212,5201122,,,2022-07-21,清算の結了等,,,2015-10-05,1,,,,,サトヤマライフケンキュウショ,0
1025,4190002012013,登記記録の閉鎖等,0,2022-07-26,2022-07-12,有限会社アスカスティール,,有限会社,三重県,伊賀市,四十九町１９３３番地の６,,24,216,5180823,,,2022-07-12,清算の結了等,,,2015-10-05,1,,,,,アスカスティール,0
1026,4210001004248,登記記録の閉鎖等,0,2022-07-26,2022-07-11,梅田呉服株式会社,,株式会社,福井県,福井市,成和１丁目５０８番地,,18,201,9188239,,,2022-07-11,清算の結了等,,,2015-10-05,1,,,,,ウメダゴフク,0
1033,4220002000732,登記記録の閉鎖等,0,2022-07-26,2022-07-21,有限会社リフレイン,,有限会社,石川県,金沢市,本町２丁目４番１５号（アリストプライムタワー・１６０３号）,,17,201,9200853,,,2022-07-21,清算の結了等,,,2015-10-05,1,,,,,リフレイン,0
1067,4340003001668,登記記録の閉鎖等,0,2022-07-26,2022-07-22,合同会社川内港まちづくり和の郷,,合同会社,鹿児島県,薩摩川内市,港町６１３１番地２３,,46,215,8991924,,,2022-07-22,清算の結了等,,,2015-10-05,1,,,,,センダイコウマチヅクリワノサト,0
1072,4370002007399,登記記録の閉鎖等,0,2022-07-26,2022-07-21,小松川仙台有限会社,,有限会社,宮城県,仙台市宮城野区,福室字御蔵前三番３５番地の１５,,04,102,9830005,,,2022-07-21,清算の結了等,,,2015-10-05,1,,,,,コマツガワセンダイ,0
1144,5011101049648,登記記録の閉鎖等,0,2022-07-26,2022-07-20,株式会社プランニングボックス企画,,株式会社,東京都,新宿区,上落合２丁目２１番１６号,,13,104,1610034,,,2022-07-20,清算の結了等,,,2015-10-05,1,,,,,プランニングボックスキカク,0
1172,5020003008991,登記記録の閉鎖等,0,2022-07-26,2022-07-20,合同会社エムケーエスシステム,,合同会社,神奈川県,鎌倉市,岡本２丁目１５－１１,,14,204,2470072,,,2022-07-20,清算の結了等,,,2015-10-05,1,,,,,エムケーエスシステム,0
1196,5040002079883,登記記録の閉鎖等,0,2022-07-26,2022-07-14,有限会社三角商店,,有限会社,千葉県,山武市,武勝１４９番地,,12,237,2891218,,,2022-07-14,清算の結了等,,,2015-10-05,1,,,,,ミスミショウテン,0
1199,5050001032090,登記記録の閉鎖等,0,2022-07-26,2022-07-08,株式会社津田商店,,株式会社,茨城県,筑西市,辻１５４２番地の１,00022380,08,227,3080103,,,2022-07-08,清算の結了等,,,2015-10-05,1,,,,,ツダショウテン,0
1219,5100002018439,登記記録の閉鎖等,0,2022-07-26,2022-07-14,有限会社池田産業,,有限会社,長野県,下高井郡山ノ内町,大字夜間瀬３８７９番地,,20,561,3810405,,,2022-07-14,清算の結了等,,,2015-10-05,1,,,,,,0
1279,5210002002811,登記記録の閉鎖等,0,2022-07-26,2022-07-15,長谷川土木機械有限会社,,有限会社,福井県,福井市,今市町第６５号５番地の１,,18,201,9188152,,,2022-07-15,清算の結了等,,,2015-10-05,1,,,,,ハセガワドボクキカイ,0
1282,5230005004010,登記記録の閉鎖等,0,2022-07-26,2022-07-19,教徳寺,,その他の設立登記法人,富山県,下新川郡入善町,東狐１０２０番地,,16,342,9390657,,,2022-07-19,清算の結了等,,,2015-10-05,1,,,,,,0
1285,5240001027303,登記記録の閉鎖等,0,2022-07-26,2022-07-20,株式会社カーナサイエンス,,株式会社,広島県,呉市,中央６丁目９番２３号,,34,202,7370051,,,2022-07-20,清算の結了等,,,2015-10-05,1,,,,,カーナサイエンス,0
1297,5280002004834,登記記録の閉鎖等,0,2022-07-26,2022-07-21,有限会社原友商店,,有限会社,島根県,安来市,安来町１１９１番地１０,,32,206,6920011,,,2022-07-21,清算の結了等,,,2015-10-05,1,,,,,ハラトモショウテン,0
1328,5340003002533,登記記録の閉鎖等,0,2022-07-26,2022-07-25,合同会社岩次郎,,合同会社,鹿児島県,鹿児島市,樋之口町１０番３２－４０２号,00112717,46,201,8920845,,,2022-07-25,清算の結了等,,,2018-03-05,1,,,,,,0
1338,5390005002997,登記記録の閉鎖等,0,2022-07-26,2022-07-13,遊漁船協同組合,,その他の設立登記法人,山形県,酒田市,若宮町２丁目２９番地８号,,06,204,9980053,,,2022-07-13,清算の結了等,,,2015-10-05,1,,,,,ユウギョセン,0
1349,5480001001168,登記記録の閉鎖等,0,2022-07-26,2022-07-22,城南運送株式会社,,株式会社,徳島県,徳島市,幸町３丁目３５番地１,,36,201,7700847,,,2022-07-22,清算の結了等,,,2015-10-05,1,,,,,ジョウナンウンソウ,0
1356,6010001222735,登記記録の閉鎖等,0,2022-07-26,2022-07-21,株式会社南会西部建設コーポレーションホールディングス,,株式会社,福島県,会津若松市,町北町大字上荒久田字鈴木５７番地１,,07,202,9650053,,,2022-07-21,合併による解散等,5010001200089,令和４年７月１日宮城県仙台市宮城野区鉄砲町西１番地２１シャンソンビル仙台６０１株式会社ＵＮＩＣＯＮホールディングス（5010001200089）に合併し解散,2021-11-25,1,,,,,,0
1368,6010401087076,登記記録の閉鎖等,0,2022-07-26,2022-07-21,株式会社ブラッド・スウェットアンドビアーズ,,株式会社,東京都,品川区,大井４丁目１１番１１号,,13,109,1400014,,,2022-07-21,清算の結了等,,,2015-10-05,1,,,,,ブラッドスウェットアンドビアーズ,0
1388,6010705002342,登記記録の閉鎖等,0,2022-07-26,2022-07-15,一般社団法人日本ＷＩＬＬ振興協会,,その他の設立登記法人,東京都,品川区,東品川２丁目２番２０号天王洲郵船ビル,,13,109,1400002,,,2022-07-15,清算の結了等,,,2015-10-05,1,,,,,ニホンウイルシンコウキョウカイ,0
1391,6010802015370,登記記録の閉鎖等,0,2022-07-26,2022-07-14,吉田商事有限会社,,有限会社,東京都,大田区,久が原５丁目２９番２９号,,13,111,1460085,,,2022-07-14,清算の結了等,,,2015-10-05,1,,,,,,0
1399,6011001120474,登記記録の閉鎖等,0,2022-07-26,2022-07-08,アドバイザリー・アンド・ビヨンド株式会社,,株式会社,東京都,渋谷区,神南１丁目１２番１４号,,13,113,1500041,,,2022-07-08,清算の結了等,,,2018-02-07,1,,,,,アドバイザリーアンドビヨンド,0
1429,6012802004444,登記記録の閉鎖等,0,2022-07-26,2022-07-11,有限会社佐久工務店,,有限会社,東京都,武蔵村山市,大南３丁目４番地５,,13,223,2080013,,,2022-07-11,清算の結了等,,,2015-10-05,1,,,,,サキュウコウムテン,0
1444,6020002029071,登記記録の閉鎖等,0,2022-07-26,2022-07-12,有限会社秋工務店,,有限会社,神奈川県,横浜市南区,井土ケ谷中町３１番地の８－１０３,,14,105,2320052,,,2022-07-12,清算の結了等,,,2015-10-05,1,,,,,アキコウムテン,0
1469,6030005007354,登記記録の閉鎖等,0,2022-07-26,2022-07-13,特定非営利活動法人フリースクールにじの広場,,その他の設立登記法人,埼玉県,新座市,東北２丁目６番５号東和ビル２階,,11,230,3520001,,,2022-07-13,清算の結了等,,,2015-10-05,1,,,,,,0
1493,6080101012617,登記記録の閉鎖等,0,2022-07-26,2022-07-22,株式会社小川物産,,株式会社,静岡県,熱海市,中央町１４番７号,,22,205,4130015,,,2022-07-22,清算の結了等,,,2015-10-05,1,,,,,オガワブッサン,0
1502,6090005007092,登記記録の閉鎖等,0,2022-07-26,2022-07-22,笛吹市管工事協同組合,,その他の設立登記法人,山梨県,笛吹市,御坂町成田５７５番地有限会社ツチヤ設備内,,19,211,4060801,,,2022-07-22,清算の結了等,,,2017-07-05,1,,,,,フエフキシカンコウジ,0
1503,6100002021243,登記記録の閉鎖等,0,2022-07-26,2022-07-14,有限会社ひなの湯,00069573,有限会社,長野県,松本市,浅間温泉３丁目４番１３号,,20,202,3900303,,,2022-07-14,清算の結了等,,,2015-10-05,1,,,,,ヒナノユ,0
1505,6100005002240,登記記録の閉鎖等,0,2022-07-26,2022-07-11,特定非営利活動法人花,,その他の設立登記法人,長野県,長野市,柳町２６番地,,20,201,3800805,,,2022-07-11,清算の結了等,,,2015-10-05,1,,,,,ハナ,0
1531,6120103002735,登記記録の閉鎖等,0,2022-07-26,2022-07-21,合同会社いきあわわ,,合同会社,大阪府,堺市中区,土塔町２０７２番地３,,27,142,5998234,,,2022-07-21,清算の結了等,,,2017-05-08,1,,,,,イキアワワ,0
1540,6140001074230,登記記録の閉鎖等,0,2022-07-26,2022-07-19,株式会社フォーナー,,株式会社,兵庫県,伊丹市,中野西４丁目１３番地セントグリーンガーデン３０３号,,28,207,6640023,,,2022-07-19,清算の結了等,,,2015-10-05,1,,,,,フォーナー,0
1552,6180001058411,登記記録の閉鎖等,0,2022-07-26,2022-07-22,株式会社中京温泉,,株式会社,愛知県,津島市,埋田町３丁目８６番地１,,23,208,4960031,,,2022-07-22,清算の結了等,,,2015-10-05,1,,,,,チュウキョウオンセン,0
1563,6180002085454,登記記録の閉鎖等,0,2022-07-26,2022-07-21,有限会社長坂ラヂエーター,,有限会社,愛知県,知多郡東浦町,大字生路字折戸５７番地の５,,23,442,4702104,,,2022-07-21,清算の結了等,,,2015-10-05,1,,,,,ナガサカラジエーター,0
1573,6190001001213,登記記録の閉鎖等,0,2022-07-26,2022-07-15,株式会社ヨシダキカイ,,株式会社,三重県,津市,岩田１９番２２号,,24,201,5140838,,,2022-07-15,清算の結了等,,,2015-10-05,1,,,,,ヨシダキカイ,0
1576,6190002005592,登記記録の閉鎖等,0,2022-07-26,2022-07-13,有限会社谷口製材所,,有限会社,三重県,北牟婁郡紀北町,船津１１９１番地の２,,24,543,5193405,,,2022-07-13,清算の結了等,,,2015-10-05,1,,,,,タニグチセイザイショ,0
1582,6210001003495,登記記録の閉鎖等,0,2022-07-26,2022-07-14,不二メヂカル株式会社,,株式会社,福井県,福井市,大宮４丁目１０番１８号,,18,201,9100016,,,2022-07-14,清算の結了等,,,2015-10-05,1,,,,,フジメヂカル,0
1600,6260001030139,登記記録の閉鎖等,0,2022-07-26,2022-07-22,ＴＫフーズ株式会社,,株式会社,岡山県,倉敷市,福江６３番地,,33,202,7100145,,,2022-07-22,清算の結了等,,,2016-11-08,1,,,,,ティーケーフーズ,0
1603,6260002016806,登記記録の閉鎖等,0,2022-07-26,2022-07-25,有限会社エスパス,,有限会社,岡山県,倉敷市,玉島７３２番地の１３,,33,202,7138102,,,2022-07-25,清算の結了等,,,2015-10-05,1,,,,,エスパス,0
1611,6290001074001,登記記録の閉鎖等,0,2022-07-26,2022-07-13,ＮＴプロフェッショナルサービス株式会社,,株式会社,福岡県,福岡市博多区,東月隈１丁目３番６号,,40,132,8120854,,,2022-07-13,清算の結了等,,,2016-05-20,1,,,,,エヌティープロフェッショナルサービス,0
1629,6340001022615,登記記録の閉鎖等,0,2022-07-26,2022-07-25,株式会社常盤商事,,株式会社,鹿児島県,鹿児島市,西田３丁目６番１２号,,46,201,8900046,,,2022-07-25,清算の結了等,,,2020-02-03,1,,,,,トキワショウジ,0
1636,6370102002463,登記記録の閉鎖等,0,2022-07-26,2022-07-07,有限会社宗佳ライフプランニング,,有限会社,宮城県,白石市,東町１丁目１番１５号,,04,206,9890225,,,2022-07-07,清算の結了等,,,2015-10-05,1,,,,,ソウカライフプランニング,0
1731,7020002106191,登記記録の閉鎖等,0,2022-07-26,2022-07-12,有限会社遠藤コンサルタント事務所,,有限会社,神奈川県,横浜市中区,本牧原２番２－７０４号,,14,104,2310821,,,2022-07-12,清算の結了等,,,2015-10-05,1,,,,,エンドウコンサルタントジムショ,0
1736,7021001022413,登記記録の閉鎖等,0,2022-07-26,2022-07-21,株式会社エム・エム・シー,,株式会社,神奈川県,秦野市,戸川９０７番地,,14,211,2591306,,,2022-07-21,清算の結了等,,,2015-10-05,1,,,,,エムエムシー,0
1741,7030002049588,登記記録の閉鎖等,0,2022-07-26,2022-07-13,有限会社パトス,,有限会社,埼玉県,三郷市,谷口３８４番地１２,,11,237,3410042,,,2022-07-13,清算の結了等,,,2015-10-05,1,,,,,パトス,0
1744,7030005002288,登記記録の閉鎖等,0,2022-07-26,2022-07-12,ＮＰＯ法人埼玉成年後見センターいきいきネット,,その他の設立登記法人,埼玉県,さいたま市浦和区,高砂２丁目１５番３号母子福祉会館内社団法人埼玉県手をつなぐ育成会内,,11,107,3300063,,,2022-07-12,清算の結了等,,,2015-10-05,1,,,,,サイタマセイネンコウケンセンターイキイキネット,0
1746,7040001047278,登記記録の閉鎖等,0,2022-07-26,2022-07-14,株式会社三晃,,株式会社,千葉県,四街道市,美しが丘１丁目１５番２０号,,12,228,2840045,,,2022-07-14,清算の結了等,,,2015-10-05,1,,,,,サンコウ,0
1772,7100002032958,登記記録の閉鎖等,0,2022-07-26,2022-07-15,有限会社ソヤ精機,,有限会社,長野県,上伊那郡南箕輪村,５８４番地１,,20,385,3994511,,,2022-07-15,清算の結了等,,,2015-10-05,1,,,,,ソヤセイキ,0
1773,7100005004236,登記記録の閉鎖等,0,2022-07-26,2022-07-11,医療法人馬場歯科医院,,その他の設立登記法人,長野県,上田市,中央１丁目５番１０号,,20,203,3860012,,,2022-07-11,清算の結了等,,,2015-10-05,1,,,,,ババシカイイン,0
1775,7110005015653,登記記録の閉鎖等,0,2022-07-26,2022-07-20,農事組合法人夢ノ国法花寺,,その他の設立登記法人,新潟県,上越市,三和区法花寺４７９番地１,,15,222,9430234,,,2022-07-20,清算の結了等,,,2015-10-05,1,,,,,ユメノクニホッケジ,0
1806,7140002034042,登記記録の閉鎖等,0,2022-07-26,2022-07-20,有限会社平井瓦工業,,有限会社,兵庫県,赤穂郡上郡町,山野里２７１番地の４,,28,481,6781241,,,2022-07-20,清算の結了等,,,2015-10-05,1,,,,,ヒライカワラコウギョウ,0
1816,7180002052057,登記記録の閉鎖等,0,2022-07-26,2022-07-15,有限会社藤尾建装,,有限会社,愛知県,北名古屋市,六ツ師道毛７９番地の４,,23,234,4810001,,,2022-07-15,清算の結了等,,,2015-10-05,1,,,,,フジオケンソウ,0
1817,7180002090981,登記記録の閉鎖等,0,2022-07-26,2022-07-21,有限会社岩間訪問介護事業所,,有限会社,愛知県,愛西市,山路町西郷付１２番地,,23,232,4960942,,,2022-07-21,清算の結了等,,,2015-10-05,1,,,,,イワマホウモンカイゴジギョウショ,0
1834,7230002000729,登記記録の閉鎖等,0,2022-07-26,2022-07-22,有限会社オレンジ,,有限会社,富山県,富山市,中央通り３丁目４番１５号,,16,201,9300044,,,2022-07-22,清算の結了等,,,2015-10-05,1,,,,,オレンジ,0
1843,7240005002151,登記記録の閉鎖等,0,2022-07-26,2022-07-20,総合ファニシング協同組合,,その他の設立登記法人,広島県,広島市東区,山根町２８番３－９号,,34,102,7320048,,,2022-07-20,清算の結了等,,,2015-10-05,1,,,,,ソウゴウファニシング,0
1844,7250005008429,登記記録の閉鎖等,0,2022-07-26,2022-07-14,一般社団法人Ｈａｐｉｍａｍａ　ＰＬＵＳ,,その他の設立登記法人,山口県,周南市,秋月１丁目７番１９号,,35,215,7450825,,,2022-07-14,清算の結了等,,,2018-06-28,1,,,,,ハピママプラス,0
1849,7270002002531,登記記録の閉鎖等,0,2022-07-26,2022-07-20,有限会社アンフィニコンサルティング,,有限会社,鳥取県,鳥取市,国府町新通り２丁目２９３番地,,31,201,6808066,,,2022-07-20,清算の結了等,,,2015-10-05,1,,,,,アンフィニコンサルティング,0
1862,7330003006624,登記記録の閉鎖等,0,2022-07-26,2022-07-11,合同会社松福堂,,合同会社,熊本県,葦北郡芦北町,大字小田浦１４２９番地,,43,482,8695303,,,2022-07-11,清算の結了等,,,2016-02-29,1,,,,,ショウフクドウ,0
1867,7370001023543,登記記録の閉鎖等,0,2022-07-26,2022-07-19,株式会社リビングプラットフォーム東北,,株式会社,宮城県,仙台市若林区,大和町５丁目２３番８号,,04,103,9840042,,,2022-07-19,合併による解散等,4430001081967,令和４年７月１日札幌市中央区南二条西二十丁目２９１番地株式会社リビングプラットフォームケア（4430001081967）に合併し解散,2015-10-05,1,,,,,,0
1952,8011001114689,登記記録の閉鎖等,0,2022-07-26,2022-05-17,株式会社そばの実,,株式会社,東京都,目黒区,上目黒５丁目２０番１８号,,13,110,1530051,,,2022-05-17,清算の結了等,,,2017-02-02,1,,,,,ソバノミ,0
1953,8011001128870,登記記録の閉鎖等,0,2022-07-26,2022-07-06,株式会社ＢｉｔＳｔａｒ　Ｐａｙ,,株式会社,東京都,渋谷区,渋谷２丁目２２番３号,,13,113,1500002,,,2022-07-06,合併による解散等,8010401113061,令和４年７月１日東京都渋谷区渋谷二丁目２２番３号株式会社ＢｉｔＳｔａｒ（8010401113061）に合併し解散,2019-07-08,1,,,,,ビットスターペイ,0
1960,8011101037039,登記記録の閉鎖等,0,2022-07-26,2022-07-21,株式会社ＫＭＣＴ,,株式会社,東京都,新宿区,西新宿２丁目７番１号,,13,104,1600023,,,2022-07-21,合併による解散等,2010001215164,令和４年７月１日東京都千代田区丸の内三丁目１番１号株式会社ＫＭＣＴ（2010001215164）に合併し解散,2015-10-05,1,,,,,ケイエムシーティー,0
1961,8011101057805,登記記録の閉鎖等,0,2022-07-26,2022-07-13,日本ウコン産業株式会社,,株式会社,福岡県,大牟田市,大字宮部６４番地１,,40,202,8370914,,,2022-07-13,清算の結了等,,,2015-10-05,1,,,,,ニホンウコンサンギョウ,0
1971,8011302009043,登記記録の閉鎖等,0,2022-07-26,2022-07-22,有限会社ミューズ,,有限会社,東京都,杉並区,浜田山４丁目２８番１－２０４号,,13,115,1680065,,,2022-07-22,清算の結了等,,,2015-10-05,1,,,,,ミューズ,0
1979,8012401016129,登記記録の閉鎖等,0,2022-07-26,2022-07-21,株式会社神龍,,株式会社,東京都,小金井市,緑町２丁目１番２５号,,13,210,1840003,,,2022-07-21,清算の結了等,,,2015-10-05,1,,,,,シェンロン,0
1992,8020002004295,登記記録の閉鎖等,0,2022-07-26,2022-07-13,有限会社沢設備工業所,,有限会社,神奈川県,横浜市緑区,長津田みなみ台５丁目２番地１６,,14,113,2260018,,,2022-07-13,清算の結了等,,,2015-10-05,1,,,,,サワセツビコウギョウショ,0
1995,8021001018377,登記記録の閉鎖等,0,2022-07-26,2022-07-19,株式会社アルプスの杜,,株式会社,神奈川県,相模原市南区,下溝６８４番地１,,14,153,2520335,,,2022-07-19,合併による解散等,4430001081967,令和４年７月１日札幌市中央区南二条西二十丁目２９１番地株式会社リビングプラットフォームケア（4430001081967）に合併し解散,2015-10-05,1,,,,,アルプスノモリ,0
1996,8021001053093,登記記録の閉鎖等,0,2022-07-26,2022-07-20,東邦シッピング株式会社,,株式会社,神奈川県,相模原市南区,栄町１４番３２号,,14,153,2520306,,,2022-07-20,清算の結了等,,,2015-10-05,1,,,,,,0
2015,8030002099038,登記記録の閉鎖等,0,2022-07-26,2022-07-07,有限会社神和,,有限会社,埼玉県,さいたま市岩槻区,城南５丁目６番５２号,,11,110,3390043,,,2022-07-07,清算の結了等,,,2015-10-05,1,,,,,シンワ,0
2030,8040002064032,登記記録の閉鎖等,0,2022-07-26,2022-07-13,有限会社シギテック,,有限会社,千葉県,佐倉市,上志津原３３４番地２０６,,12,212,2850844,,,2022-07-13,清算の結了等,,,2015-10-05,1,,,,,シギテック,0
2060,8090001004942,登記記録の閉鎖等,0,2022-07-26,2022-07-22,西部交通株式会社,,株式会社,山梨県,南アルプス市,小笠原４０７番地１６,,19,208,4000306,,,2022-07-22,清算の結了等,,,2015-10-05,1,,,,,セイブコウツウ,0
2061,8090005000079,登記記録の閉鎖等,0,2022-07-26,2022-07-19,公益財団法人山人会,,その他の設立登記法人,山梨県,甲府市,北口２丁目６番１０号株式会社山梨日日新聞社内,,19,201,4000024,,,2022-07-19,清算の結了等,,,2015-10-05,1,,,,,サンジンカイ,0
2070,8120001146434,登記記録の閉鎖等,0,2022-07-26,2022-07-13,Ｉ・Ｍサポート株式会社,,株式会社,大阪府,八尾市,老原９丁目１００番地の１,,27,212,5810092,,,2022-07-13,合併による解散等,1122001020303,令和４年７月１日大阪府八尾市老原九丁目１００番地の１株式会社メンテナンスネオ（1122001020303）に合併し解散,2015-10-05,1,,,,,アイエムサポート,0
2082,8120002073727,登記記録の閉鎖等,0,2022-07-26,2022-07-21,エビス電子販売有限会社,,有限会社,大阪府,枚方市,津田西町１丁目８番２号,,27,210,5730126,,,2022-07-21,清算の結了等,,,2015-10-05,1,,,,,エビスデンシハンバイ,0
2087,8120005019272,登記記録の閉鎖等,0,2022-07-26,2022-07-25,社会保険労務士法人ＪＣＡ,,その他の設立登記法人,大阪府,大阪市北区,西天満５丁目１３－３高橋ビル北３号館５０１,,27,127,5300047,,,2022-07-25,清算の結了等,,,2017-02-17,1,,,,,,0
2091,8120101030752,登記記録の閉鎖等,0,2022-07-26,2022-07-22,株式会社大阪模型製作所,,株式会社,大阪府,富田林市,富田林町２０番２１号,,27,214,5840033,,,2022-07-22,清算の結了等,,,2015-10-05,1,,,,,,0
2113,8140002027961,登記記録の閉鎖等,0,2022-07-26,2022-07-21,有限会社オフィスグリーン,,有限会社,兵庫県,神戸市北区,京地２丁目１１番地の４,,28,109,6511304,,,2022-07-21,清算の結了等,,,2015-10-05,1,,,,,オフィスグリーン,0
2130,8190002020540,登記記録の閉鎖等,0,2022-07-26,2022-07-11,有限会社清水生花,,有限会社,三重県,四日市市,西日野町４５番地の９,,24,202,5100943,,,2022-07-11,清算の結了等,,,2015-10-05,1,,,,,シミズセイカ,0
2154,8330001002921,登記記録の閉鎖等,0,2022-07-26,2022-07-11,田中建設株式会社,,株式会社,熊本県,熊本市中央区,水前寺４丁目８番１２号,,43,101,8620950,,,2022-07-11,清算の結了等,,,2015-10-05,1,,,,,タナカケンセツ,0
2198,8500001009668,登記記録の閉鎖等,0,2022-07-26,2022-07-08,愛媛車体株式会社,,株式会社,愛媛県,新居浜市,船木字元船木甲４１１９番地１,,38,205,7920856,,,2022-07-08,清算の結了等,,,2015-10-05,1,,,,,,0
2212,9010102000855,登記記録の閉鎖等,0,2022-07-26,2022-07-11,有限会社イワオ精密,,有限会社,東京都,八王子市,川口町１４９８番地１０,,13,201,1930801,,,2022-07-11,清算の結了等,,,2015-10-05,1,,,,,イワオセイミツ,0
2218,9010401135187,登記記録の閉鎖等,0,2022-07-26,2022-07-04,株式会社ｆｏｒｅｉｇｎ　ｍｏｎｅｙ　ｔｒａｄｅ,,株式会社,東京都,港区,浜松町２丁目２番１５号,,13,103,1050013,,,2022-07-04,清算の結了等,,,2017-11-27,1,,,,,フォーリンマネートレード,0
2238,9010901030243,登記記録の閉鎖等,0,2022-07-26,2022-07-20,エムワイフードサービス株式会社,,株式会社,東京都,世田谷区,若林３丁目３番１６－１０１号,,13,112,1540023,,,2022-07-20,清算の結了等,,,2015-10-05,1,,,,,エムワイフードサービス,0
2243,9011001053119,登記記録の閉鎖等,0,2022-07-26,2022-07-19,ジャパンシステム株式会社,,株式会社,東京都,渋谷区,代々木１丁目２２番１号,,13,113,1510053,,,2022-07-19,合併による解散等,9010003032634,令和４年７月１日東京都千代田区麹町一丁目１２番地１号住友不動産ふくおか半蔵門ビル３階ＪＳＬホールディングス株式会社（9010003032634）に合併し解散,2015-10-05,1,,,,,,0
2281,9021002011470,登記記録の閉鎖等,0,2022-07-26,2022-07-21,有限会社茅ヶ崎鈑金塗装工業,,有限会社,神奈川県,茅ヶ崎市,矢畑１１０５番地１,,14,207,2530085,,,2022-07-21,清算の結了等,,,2015-10-05,1,,,,,チガサキバンキントソウコウギョウ,0
2285,9030001028995,登記記録の閉鎖等,0,2022-07-26,2022-07-25,株式会社ＪＰネットワーク,,株式会社,東京都,青梅市,友田町２丁目７８９番地の４６,,13,205,1980051,,,2022-07-25,清算の結了等,,,2015-10-05,1,,,,,ジェイピーネットワーク,0
2292,9030002120347,登記記録の閉鎖等,0,2022-07-26,2022-07-12,有限会社なかじま,,有限会社,埼玉県,日高市,大字高萩６０７番地の１,,11,242,3501213,,,2022-07-12,清算の結了等,,,2015-10-05,1,,,,,ナカジマ,0
2301,9040002079814,登記記録の閉鎖等,0,2022-07-26,2022-07-14,有限会社藤代洋服店,,有限会社,千葉県,山武市,松尾町大堤６６番地,,12,237,2891527,,,2022-07-14,清算の結了等,,,2015-10-05,1,,,,,フジシロヨウフクテン,0
2308,9060002005925,登記記録の閉鎖等,0,2022-07-26,2022-07-15,有限会社田中モータース,,有限会社,栃木県,宇都宮市,江曽島町１４４９番地,,09,201,3210102,,,2022-07-15,清算の結了等,,,2015-10-05,1,,,,,タナカモータース,0
2373,9180001051041,登記記録の閉鎖等,0,2022-07-26,2022-07-21,株式会社サワショウ,,株式会社,愛知県,名古屋市天白区,鴻の巣１丁目１００３番地,,23,116,4680003,,,2022-07-21,清算の結了等,,,2015-10-05,1,,,,,サワショウ,0
2384,9180301004847,登記記録の閉鎖等,0,2022-07-26,2022-07-11,株式会社アーク,,株式会社,愛知県,豊橋市,西高師町字白山１０７番地の３,,23,201,4418154,,,2022-07-11,清算の結了等,,,2015-10-05,1,,,,,アーク,0
2398,9210002004473,登記記録の閉鎖等,0,2022-07-26,2022-07-15,有限会社たま動物病院,,有限会社,福井県,福井市,加茂緑苑町６０１番地,,18,201,9188058,,,2022-07-15,清算の結了等,,,2015-10-05,1,,,,,タマドウブツビョウイン,0
2462,9430005008086,登記記録の閉鎖等,0,2022-07-26,2022-07-12,特定非営利活動法人北海道健康スポーツ振興会,,その他の設立登記法人,北海道,小樽市,潮見台１丁目５番２９号,,01,203,0470002,,,2022-07-12,清算の結了等,,,2015-10-05,1,,,,,,0
