sequenceNumber,corporateNumber,process,correct,updateDate,changeDate,name,nameImageId,kind,prefectureName,cityName,streetNumber,addressImageId,prefectureCode,cityCode,postCode,addressOutside,addressOutsideImageId,closeDate,closeCause,successorCorporateNumber,changeCause,assignmentDate,latest,enName,enPrefectureName,enCityName,enAddressOutside,furigana,hihyoji
13,1010001253710,新規,0,2025-04-15,2025-04-15,株式会社ハナココ,,株式会社,東京都,中央区,新富１丁目８－１１ＴＲＵＳＴＶＡＬＵＥ新富町６階,,13,102,1040041,,,,,,,2025-04-15,1,,,,,ハナココ,0
14,1010001254089,新規,0,2025-04-15,2025-04-15,株式会社ウインプラスホールディングス,,株式会社,東京都,中央区,銀座３丁目１１番１８号,,13,102,1040061,,,,,,,2025-04-15,1,,,,,ウインプラスホールディングス,0
25,1010401189380,新規,0,2025-04-15,2025-04-15,ＩＮＣＬＵＳＩＶＥ分割準備株式会社,,株式会社,東京都,港区,虎ノ門４丁目１番１号,,13,103,1050001,,,,,,,2025-04-15,1,,,,,インクルーシブブンカツジュンビ,0
34,1010603011516,新規,0,2025-04-15,2025-04-15,合同会社ＴＥＰＰＥＮ,,合同会社,東京都,江東区,平野３丁目４番６－３０１号,,13,108,1350023,,,,,,,2025-04-15,1,,,,,テッペン,0
37,1010801036050,新規,0,2025-04-15,2025-04-15,株式会社ｍｉｃａｓａ,,株式会社,東京都,大田区,南馬込５丁目６番５－８０２号,,13,111,1430025,,,,,,,2025-04-15,1,,,,,ミカサ,0
41,1010901057120,新規,0,2025-04-15,2025-04-15,株式会社ストリングス,,株式会社,東京都,世田谷区,東玉川１丁目１２番７号,,13,112,1580084,,,,,,,2025-04-15,1,,,,,ストリングス,0
42,1010901057194,新規,0,2025-04-15,2025-04-15,株式会社ＣｈａｉｎＤｅｔｅｃｔｉｖｅ,,株式会社,東京都,世田谷区,桜丘２丁目８番３０－７１２号,,13,112,1560054,,,,,,,2025-04-15,1,,,,,チェインディテクティブ,0
43,1010903009854,新規,0,2025-04-15,2025-04-15,及部智仁合同会社,,合同会社,東京都,世田谷区,砧１丁目１３―２９,,13,112,1570073,,,,,,,2025-04-15,1,,,,,オヨベトモヒト,0
47,1011001168840,新規,0,2025-04-15,2025-04-15,株式会社ＯＶＥＲ,,株式会社,東京都,目黒区,三田２丁目１８番６－１０５号,,13,110,1530062,,,,,,,2025-04-15,1,,,,,オーバー,0
48,1011003021295,新規,0,2025-04-15,2025-04-15,合同会社ＳＴＧＩ,,合同会社,東京都,渋谷区,渋谷２丁目１９－１５宮益坂ビルディング６０９,,13,113,1500002,,,,,,,2025-04-15,1,,,,,エスティジィアイ,0
49,1011005010949,新規,0,2025-04-15,2025-04-15,一般社団法人そしじ,,その他の設立登記法人,東京都,渋谷区,東２丁目１２－３ベトレヘムハウス２０１,,13,113,1500011,,,,,,,2025-04-15,1,,,,,ソシジ,0
54,1011101111320,新規,0,2025-04-15,2025-04-15,株式会社ＮｅｘＧｅｎ,,株式会社,東京都,新宿区,新宿２丁目５－１６霞ビル９階,,13,104,1600022,,,,,,,2025-04-15,1,,,,,ネクスジェン,0
55,1011101111345,新規,0,2025-04-15,2025-04-15,株式会社バースト,,株式会社,東京都,新宿区,信濃町２１番地大門ビル地下１階,,13,104,1600016,,,,,,,2025-04-15,1,,,,,バースト,0
56,1011103015759,新規,0,2025-04-15,2025-04-15,合同会社仁夢,,合同会社,東京都,新宿区,新宿６丁目２番４－４２６号,,13,104,1600022,,,,,,,2025-04-15,1,,,,,ジンム,0
57,1011103015791,新規,0,2025-04-15,2025-04-15,Ｓｏｗａｙｚ合同会社,,合同会社,東京都,新宿区,西新宿３丁目３番１３号西新宿水間ビル２Ｆ,,13,104,1600023,,,,,,,2025-04-15,1,,,,,ソウウェイズ,0
68,1011801045974,新規,0,2025-04-15,2025-04-15,丸一建設株式会社,,株式会社,東京都,葛飾区,西新小岩３丁目３７番２８号,,13,122,1240025,,,,,,,2025-04-15,1,,,,,マルイチケンセツ,0
74,1012303002142,新規,0,2025-04-15,2025-04-15,合同会社馬場企画,,合同会社,東京都,町田市,金井２丁目３４番地８,,13,209,1950072,,,,,,,2025-04-15,1,,,,,ババキカク,0
77,1012403007074,新規,0,2025-04-15,2025-04-15,フォレスト会計合同会社,,合同会社,東京都,三鷹市,中原１丁目２５番４０号,,13,204,1810005,,,,,,,2025-04-15,1,,,,,フォレストカイケイ,0
79,1013301054084,新規,0,2025-04-15,2025-04-15,株式会社ＪＰパートナーズ,,株式会社,東京都,豊島区,巣鴨１丁目１５番２－３１３号,,13,116,1700002,,,,,,,2025-04-15,1,,,,,ジェイピーパートナーズ,0
80,1013303007619,新規,0,2025-04-15,2025-04-15,合同会社ｓｅａｒｃｈ,,合同会社,東京都,豊島区,東池袋２丁目６２番８号ＢＩＧオフィスプラザ池袋１２０６,,13,116,1700013,,,,,,,2025-04-15,1,,,,,サーチ,0
83,1020001162282,新規,0,2025-04-15,2025-04-15,株式会社Ｌａｔｅｒｅ,,株式会社,神奈川県,横浜市神奈川区,山内町１５－２Ｌａｔｅｒｅ,,14,102,2210054,,,,,,,2025-04-15,1,,,,,ラテレ,0
84,1020001162340,新規,0,2025-04-15,2025-04-15,ＭＭ株式会社,,株式会社,神奈川県,川崎市中原区,今井南町１０番４１号,,14,133,2110064,,,,,,,2025-04-15,1,,,,,エムエム,0
88,1020003028267,新規,0,2025-04-15,2025-04-15,合同会社ライトハウス,,合同会社,神奈川県,横浜市都筑区,中川３丁目８番３８号,,14,118,2240001,,,,,,,2025-04-15,1,,,,,ライトハウス,0
89,1020003028291,新規,0,2025-04-15,2025-04-15,合同会社ＳＴＡＲ,,合同会社,神奈川県,横浜市磯子区,岡村７丁目３番３号,,14,107,2350021,,,,,,,2025-04-15,1,,,,,スター,0
90,1020003028300,新規,0,2025-04-15,2025-04-15,合同会社ＴＫパートナーズ,,合同会社,神奈川県,横浜市西区,高島２丁目１番１８－１００９号,,14,103,2200011,,,,,,,2025-04-15,1,,,,,ティーケイパートナーズ,0
92,1021001084938,新規,0,2025-04-15,2025-04-15,アイテック株式会社,,株式会社,神奈川県,大和市,福田４６３－４,,14,213,2420024,,,,,,,2025-04-15,1,,,,,アイテック,0
108,1040001138264,新規,0,2025-04-15,2025-04-15,株式会社ＭＳＣ,,株式会社,千葉県,佐倉市,六崎１０５０番地１,,12,212,2850812,,,,,,,2025-04-15,1,,,,,エムエスシー,0
109,1040001138322,新規,0,2025-04-15,2025-04-15,株式会社Ｍａｔｃｈ　ｌｅｓｓ,,株式会社,千葉県,市川市,行徳駅前２丁目２０番１号ＴＳＫアベニュー２Ｆ,,12,203,2720133,,,,,,,2025-04-15,1,,,,,マッチレス,0
110,1040001138339,新規,0,2025-04-15,2025-04-15,ＳＴＡＲＴ　ＯＮＥ株式会社,,株式会社,千葉県,千葉市若葉区,高品町５８１－３,,12,104,2640024,,,,,,,2025-04-15,1,,,,,スタートワン,0
111,1040001138355,新規,0,2025-04-15,2025-04-15,株式会社Ａｔｌａｓ,,株式会社,千葉県,千葉市中央区,亥鼻１丁目２－３,,12,101,2600856,,,,,,,2025-04-15,1,,,,,アトラス,0
119,1060005010327,新規,0,2025-04-15,2025-04-15,一般社団法人ｓｈｉｏｂａｒａ　ｖｉｖａ,,その他の設立登記法人,栃木県,那須塩原市,南町７番１３号,,09,213,3292723,,,,,,,2025-04-15,1,,,,,シオバラビバ,0
122,1070005010383,新規,0,2025-04-15,2025-04-15,ＮＰＯ法人ＴｅｃｈＮｅｓｔｌｉｎｇ,,その他の設立登記法人,群馬県,高崎市,倉賀野町２８０７番地１,,10,202,3701201,,,,,,,2025-04-15,1,,,,,,0
127,1080103003296,新規,0,2025-04-15,2025-04-15,合同会社レイドシーセオリー,,合同会社,静岡県,熱海市,咲見町７番４８号咲見町ハイツ８０５,,22,205,4130019,,,,,,,2025-04-15,1,,,,,レイドシーセオリー,0
128,1080405007730,新規,0,2025-04-15,2025-04-15,医療法人社団尚和会,,その他の設立登記法人,静岡県,浜松市中央区,下池川町２０番１号,,22,138,4300905,,,,,,,2025-04-15,1,,,,,ショウワカイ,0
137,1110001039190,新規,0,2025-04-15,2025-04-15,株式会社サザンクロス,,株式会社,新潟県,新潟市中央区,和合町１丁目６番１号,,15,103,9500985,,,,,,,2025-04-15,1,,,,,サザンクロス,0
138,1110003005728,新規,0,2025-04-15,2025-04-15,合同会社プレイワーク,,合同会社,新潟県,三条市,井栗１丁目２７番１３号,,15,204,9550013,,,,,,,2025-04-15,1,,,,,プレイワーク,0
147,1120001274415,新規,0,2025-04-15,2025-04-15,株式会社ＭＩＲＡＩコンサルティング,,株式会社,大阪府,大阪市中央区,今橋２丁目４番１０号,,27,128,5410042,,,,,,,2025-04-15,1,,,,,ミライコンサルティング,0
148,1120001274497,新規,0,2025-04-15,2025-04-15,Ａｉｓａ　Ｐａｃｉｆｉｃ　Ｉｎｎｏｍｅｄｉｃａｌ株式会社,,株式会社,大阪府,大阪市東成区,深江北３丁目４番２１号エクラ深江橋２１５Ｂ,,27,115,5370001,,,,,,,2025-04-15,1,,,,,アイーサーパシフィックイノーメディカル,0
149,1120001274588,新規,0,2025-04-15,2025-04-15,ＬＣＬ株式会社,,株式会社,大阪府,大阪市天王寺区,生玉町１０－２０朝日プラザ高津２－１３０２号,,27,109,5430071,,,,,,,2025-04-15,1,,,,,エルシーエル,0
154,1120003029098,新規,0,2025-04-15,2025-04-15,Ｂｅｅｔｌｅｓ合同会社,,合同会社,大阪府,大阪市北区,梅田１丁目２番２号大阪駅前第２ビル１２－１２,,27,127,5300001,,,,,,,2025-04-15,1,,,,,ビートルズ,0
155,1120003029115,新規,0,2025-04-15,2025-04-15,合同会社中崎商会,,合同会社,大阪府,大阪市北区,中崎１丁目１０番１２－１００２号,,27,127,5300016,,,,,,,2025-04-15,1,,,,,ナカザキショウカイ,0
156,1120003029172,新規,0,2025-04-15,2025-04-15,合同会社ぱおっ,,合同会社,大阪府,大阪市鶴見区,鶴見５丁目１番１１号ＧＲＡＣＥ３０５,,27,124,5380053,,,,,,,2025-04-15,1,,,,,パオッ,0
169,1122001039095,新規,0,2025-04-15,2025-04-15,株式会社アースリファイン,,株式会社,大阪府,柏原市,国分東条町４３１０,,27,221,5820023,,,,,,,2025-04-15,1,,,,,アースリファイン,0
173,1130001079425,新規,0,2025-04-15,2025-04-15,株式会社ＡＵＲＡ,,株式会社,京都府,京都市西京区,上桂西居町５－１,,26,111,6158228,,,,,,,2025-04-15,1,,,,,アウラ,0
182,1140001137685,新規,0,2025-04-15,2025-04-15,株式会社ＡＫＡＹＵＫＩ,,株式会社,兵庫県,宝塚市,御殿山２丁目８－３５,,28,214,6650841,,,,,,,2025-04-15,1,,,,,アカユキ,0
183,1140001138147,新規,0,2025-04-15,2025-04-15,株式会社ＣｈｒｏｍａＷａｙ,,株式会社,兵庫県,姫路市,網干区田井７６番地６,,28,201,6711221,,,,,,,2025-04-15,1,,,,,クロマウェイ,0
184,1140001138171,新規,0,2025-04-15,2025-04-15,株式会社西日本住建,,株式会社,兵庫県,加古郡播磨町,二子１５７番地の１１,,28,382,6750162,,,,,,,2025-04-15,1,,,,,ニシニホンジュウケン,0
189,1150001028041,新規,0,2025-04-15,2025-04-15,株式会社大槻林業,,株式会社,奈良県,吉野郡十津川村,大字竹筒１６５番地の２,,29,449,6471271,,,,,,,2025-04-15,1,,,,,オオツキリンギョウ,0
193,1160001026688,新規,0,2025-04-15,2025-04-15,株式会社ハピネス,,株式会社,滋賀県,東近江市,東沖野３丁目８番１１－３号,,25,213,5270033,,,,,,,2025-04-15,1,,,,,ハピネス,0
197,1180001166334,新規,0,2025-04-15,2025-04-15,株式会社松田,,株式会社,愛知県,名古屋市東区,芳野３丁目２番２６号,,23,102,4610027,,,,,,,2025-04-15,1,,,,,マツダ,0
198,1180001166383,新規,0,2025-04-15,2025-04-15,株式会社ｋａｇｕｙａ,,株式会社,愛知県,名古屋市東区,泉１丁目５番２６号,,23,102,4610001,,,,,,,2025-04-15,1,,,,,カグヤ,0
199,1180001166409,新規,0,2025-04-15,2025-04-15,ＵＳＬｏｇｉｓｔｉｃｓ株式会社,,株式会社,愛知県,弥富市,中原町一丁目１６番地,,23,235,4980057,,,,,,,2025-04-15,1,,,,,ユーエスロジスティックス,0
200,1180001166425,新規,0,2025-04-15,2025-04-15,株式会社Ｎｅｘｔ　Ｒｏｏｔｓ,,株式会社,愛知県,名古屋市中村区,名駅３丁目４－１０アルティメイト名駅１ｓｔ２階,,23,105,4500002,,,,,,,2025-04-15,1,,,,,ネクストルーツ,0
213,1200001043646,新規,0,2025-04-15,2025-04-15,株式会社新総,,株式会社,岐阜県,可児市,みずきケ丘４丁目４３番地,,21,214,5090240,,,,,,,2025-04-15,1,,,,,シンソウ,0
214,1200003006774,新規,0,2025-04-15,2025-04-15,合同会社ＧＴｉ,,合同会社,岐阜県,岐阜市,下土居２丁目９番２６号,,21,201,5020858,,,,,,,2025-04-15,1,,,,,ジーティーアイ,0
225,1250001021085,新規,0,2025-04-15,2025-04-15,株式会社総合建築ＭＡＫＯＴＯ,,株式会社,山口県,宇部市,大小路３丁目４番３９－１５号,,35,202,7550076,,,,,,,2025-04-15,1,,,,,ソウゴウケンチクマコト,0
229,1280003001941,新規,0,2025-04-15,2025-04-15,合同会社エイムスリンク,,合同会社,島根県,松江市,西川津町４９１番地１３,,32,201,6900823,,,,,,,2025-04-15,1,,,,,エイムスリンク,0
235,1290001109694,新規,0,2025-04-15,2025-04-15,株式会社ＣＯＳＴ,,株式会社,福岡県,福岡市博多区,豊２丁目４番５７－９１１号,,40,132,8120042,,,,,,,2025-04-15,1,,,,,コスト,0
236,1290001109703,新規,0,2025-04-15,2025-04-15,株式会社ミューズアソシエイツ,,株式会社,福岡県,福岡市博多区,奈良屋町５番１９－７０２号,,40,132,8120023,,,,,,,2025-04-15,1,,,,,ミューズアソシエイツ,0
238,1290003016682,新規,0,2025-04-15,2025-04-15,星越合同会社,,合同会社,福岡県,柳川市,三橋町下百町３３番地１３,,40,207,8320822,,,,,,,2025-04-15,1,,,,,セイエツ,0
239,1290003016708,新規,0,2025-04-15,2025-04-15,ＫＡＩ合同会社,,合同会社,福岡県,大牟田市,大字宮部３６６－５,,40,202,8370914,,,,,,,2025-04-15,1,,,,,カイ,0
242,1310001019552,新規,0,2025-04-15,2025-04-15,株式会社龍桜運送,,株式会社,長崎県,大村市,諏訪２丁目５１５番地１２フレグランス上野２０２,,42,205,8560024,,,,,,,2025-04-15,1,,,,,リュウオウウンソウ,0
244,1310003004981,新規,0,2025-04-15,2025-04-15,合同会社スリーサポート,,合同会社,長崎県,諫早市,大さこ町６番地４,,42,204,8540087,,,,,,,2025-04-15,1,,,,,スリーサポート,0
247,1330001033080,新規,0,2025-04-15,2025-04-15,株式会社しまの縁,,株式会社,熊本県,上天草市,大矢野町維和５０８番地２,,43,212,8693604,,,,,,,2025-04-15,1,,,,,シマノエン,0
249,1330003010953,新規,0,2025-04-15,2025-04-15,合同会社ＨＩＳＡＦＵＭＩ,,合同会社,熊本県,上天草市,松島町阿村３４７９番地,,43,212,8616101,,,,,,,2025-04-15,1,,,,,ヒサフミ,0
254,1340001027271,新規,0,2025-04-15,2025-04-15,ＫｏｔｏｂａＭｅｄｉａ株式会社,,株式会社,鹿児島県,熊毛郡屋久島町,安房１０６８番地２４,,46,505,8914311,,,,,,,2025-04-15,1,,,,,コトバメディア,0
257,1340003004814,新規,0,2025-04-15,2025-04-15,合同会社メテーレ,,合同会社,鹿児島県,鹿児島市,桜ヶ丘１丁目２６番地１１,,46,201,8910175,,,,,,,2025-04-15,1,,,,,メテーレ,0
260,1360003014836,新規,0,2025-04-15,2025-04-15,合同会社マキシ産業,,合同会社,沖縄県,浦添市,勢理客２丁目１９番２２号,,47,208,9012122,,,,,,,2025-04-15,1,,,,,マキシサンギョウ,0
261,1360003014852,新規,0,2025-04-15,2025-04-15,合同会社縁,,合同会社,沖縄県,石垣市,字石垣５番地２,,47,207,9070023,,,,,,,2025-04-15,1,,,,,エン,0
265,1380001035238,新規,0,2025-04-15,2025-04-15,株式会社ＭＡＨＡＲ　ＴＲＡＤＩＮＧ,,株式会社,福島県,西白河郡西郷村,大字小田倉字上野原１９２番地酒巻上野原ハイツＡ２－５,,07,461,9618061,,,,,,,2025-04-15,1,,,,,メヘルトレーディング,0
266,1390003002375,新規,0,2025-04-15,2025-04-15,ケーティージー工業合同会社,,合同会社,山形県,天童市,大字道満２７５番地２,,06,210,9940102,,,,,,,2025-04-15,1,,,,,ケーティージーコウギョウ,0
269,1410001014122,新規,0,2025-04-15,2025-04-15,株式会社Ｙ‐ＳＴＹＬＥ,,株式会社,秋田県,秋田市,新屋元町５番５２－２号,,05,201,0101631,,,,,,,2025-04-15,1,,,,,,0
270,1410001014130,新規,0,2025-04-15,2025-04-15,株式会社Ｍａｘ　ｃｒｅａｔｉｖｅ,,株式会社,秋田県,能代市,柳町１３番６６号,,05,202,0160825,,,,,,,2025-04-15,1,,,,,マックスクリエイティブ,0
275,1430001094162,新規,0,2025-04-15,2025-04-15,株式会社ホクちゃん・ピース・ファーム,,株式会社,北海道,恵庭市,緑町２丁目３番４号,,01,231,0611442,,,,,,,2025-04-15,1,,,,,ホクチャンピースファーム,0
276,1430001094187,新規,0,2025-04-15,2025-04-15,株式会社シネマワークス,,株式会社,北海道,札幌市中央区,南一条西１６丁目１番地３２３春野ビル３Ｆ,,01,101,0600061,,,,,,,2025-04-15,1,,,,,シネマワークス,0
279,1430003017534,新規,0,2025-04-15,2025-04-15,合同会社えぞめばる,,合同会社,北海道,札幌市北区,新川二条２丁目１番７号,,01,102,0010922,,,,,,,2025-04-15,1,,,,,エゾメバル,0
282,1460303000864,新規,0,2025-04-15,2025-04-15,合同会社ノースＺＥＲＯ,,合同会社,北海道,斜里郡斜里町,青葉町２４番地２５,,01,545,0994117,,,,,,,2025-04-15,1,,,,,ノースゼロ,0
287,1500001026240,新規,0,2025-04-15,2025-04-15,吉田電工株式会社,,株式会社,愛媛県,松山市,南町２丁目７番３号,,38,201,7900856,,,,,,,2025-04-15,1,,,,,ヨシダデンコウ,0
290,1700150129947,新規,0,2025-04-15,2025-04-15,ＯｃｅａｎｏＭａｎａｇｅｍｅｎｔ　Ｌｉｍｉｔｅｄ,,外国会社等,,,,,,,,２０／Ｆ，ＣｅｎｔｒａｌＴｏｗｅｒ，２８Ｑｕｅｅｎ’ｓＲｏａｄＣｅｎｔｒａｌ，Ｃｅｎｔｒａｌ，ＨｏｎｇＫｏｎｇ,,,,,,2025-04-15,1,,,,,オシアノマネージメントリミテツド,0
291,1700150129955,新規,0,2025-04-15,2025-04-15,ＶＥＲＴＣＡＲＥＮＴＥＲＰＲＩＳＥＳ,,外国会社等,千葉県,山武市,松尾町高富高富２５６－３２、アップルハウス２０２,,12,237,2891522,スリランカ民主社会主義共和国、ＮＯ．１２／３、カハタピティヤ、ガンポラ,,,,,,2025-04-15,1,,,,,ウエトカーエンタープライセス,0
304,2010001253643,新規,0,2025-04-15,2025-04-15,東＿株式会社,00138793,株式会社,東京都,中央区,新富１丁目５番１号ｇｒａｎ＋ＧＩＮＺＡ－ＥＡＳＴ,,13,102,1040041,,,,,,,2025-04-15,1,,,,,トウホウ,0
306,2010005039898,新規,0,2025-04-15,2025-04-15,一般社団法人ＬＳＡ．ＦＤ,,その他の設立登記法人,東京都,千代田区,二番町１－２,,13,101,1020084,,,,,,,2025-04-15,1,,,,,ルイサファンデーション,0
313,2010401189347,新規,0,2025-04-15,2025-04-15,株式会社ＩＣＴクラウド,,株式会社,東京都,港区,三田３丁目１１番３６号,,13,103,1080073,,,,,,,2025-04-15,1,,,,,ジェイシーティクラウド,0
320,2010601067113,新規,0,2025-04-15,2025-04-15,株式会社Ｌｉｃｈｔ,,株式会社,東京都,江東区,木場２丁目２１番２号１０２,,13,108,1350042,,,,,,,2025-04-15,1,,,,,リヒト,0
321,2010601067121,新規,0,2025-04-15,2025-04-15,株式会社セキュリティクラウド,,株式会社,東京都,墨田区,吾妻橋１丁目２０番６号１階,,13,107,1300001,,,,,,,2025-04-15,1,,,,,セキュリティクラウド,0
322,2010603011507,新規,0,2025-04-15,2025-04-15,正陽合同会社,,合同会社,東京都,墨田区,墨田５丁目４番３号,,13,107,1310031,,,,,,,2025-04-15,1,,,,,ショウヨウ,0
329,2010901057185,新規,0,2025-04-15,2025-04-15,株式会社三日月日本,,株式会社,東京都,世田谷区,北沢１丁目３０番１号,,13,112,1550031,,,,,,,2025-04-15,1,,,,,ミカヅキニホン,0
333,2011001168889,新規,0,2025-04-15,2025-04-15,株式会社Ｌｕｍｉｅｒｅ,,株式会社,東京都,渋谷区,恵比寿西２丁目９－９クリスタルスクエア代官山２Ｆ,,13,113,1500021,,,,,,,2025-04-15,1,,,,,ルミエール,0
334,2011001168897,新規,0,2025-04-15,2025-04-15,ＧＯＬ・Ｄ・ＣＨＡＬＬＥＮＧＩＮＧ株式会社,,株式会社,東京都,渋谷区,広尾２丁目１９番１５号宮益坂ビルディング４１０,,13,113,1500012,,,,,,,2025-04-15,1,,,,,ゴールドチャレンジング,0
335,2011001168930,新規,0,2025-04-15,2025-04-15,可夢国際株式会社,,株式会社,東京都,渋谷区,富ヶ谷１丁目１４番１４号３Ｆ,,13,113,1510063,,,,,,,2025-04-15,1,,,,,カムコクサイ,0
336,2011003021468,新規,0,2025-04-15,2025-04-15,ディーファーム合同会社,,合同会社,東京都,渋谷区,恵比寿西２丁目８番４号ＥＸ恵比寿西ビル５階,,13,113,1500021,,,,,,,2025-04-15,1,,,,,ディーファーム,0
337,2011003021476,新規,0,2025-04-15,2025-04-15,日本比較サイト制作合同会社,,合同会社,東京都,渋谷区,道玄坂１丁目１０番８号渋谷道玄坂東急ビル,,13,113,1500043,,,,,,,2025-04-15,1,,,,,ニホンヒカクサイトセイサク,0
344,2011101111303,新規,0,2025-04-15,2025-04-15,株式会社Ｋ＆Ｌ,,株式会社,東京都,新宿区,百人町１丁目１２番２号セイザ新宿６０１,,13,104,1690073,,,,,,,2025-04-15,1,,,,,ケーアンドエル,0
345,2011101111344,新規,0,2025-04-15,2025-04-15,株式会社ＮＥＯＷＩＺＥ,,株式会社,東京都,新宿区,西新宿１丁目４番１１号全研プラザＳｐａｃｅｓ新宿,,13,104,1600023,,,,,,,2025-04-15,1,,,,,ネオワイズ,0
352,2011603004665,新規,0,2025-04-15,2025-04-15,合同会社Ｍｅｌｕｍｉ,,合同会社,東京都,練馬区,高松３丁目２０番１５－１１１号,,13,120,1790075,,,,,,,2025-04-15,1,,,,,メルミ,0
354,2012301014337,新規,0,2025-04-15,2025-04-15,株式会社ＡＴＳ,,株式会社,東京都,町田市,南成瀬１丁目８－１２中山ビル３Ｂ,,13,209,1940045,,,,,,,2025-04-15,1,,,,,エーティーエス,0
361,2013301054083,新規,0,2025-04-15,2025-04-15,株式会社エン天,,株式会社,東京都,豊島区,西巣鴨３丁目２４番７号ライオンズマンション西巣鴨駅前２０２号,,13,116,1700001,,,,,,,2025-04-15,1,,,,,エンテン,0
370,2020001162117,新規,0,2025-04-15,2025-04-15,株式会社Ｇ‐ｄｅｓ,,株式会社,神奈川県,横浜市都筑区,茅ケ崎中央１３－５サンハイムＫ３０１,,14,118,2240032,,,,,,,2025-04-15,1,,,,,ジーデス,0
371,2020001162397,新規,0,2025-04-15,2025-04-15,ＰＲＩＤＥ　ＡＣＥ株式会社,,株式会社,神奈川県,横浜市泉区,岡津町２３７０番地５,,14,116,2450003,,,,,,,2025-04-15,1,,,,,プライドエース,0
372,2020001162406,新規,0,2025-04-15,2025-04-15,清英商事株式会社,,株式会社,神奈川県,川崎市川崎区,榎町９番６－２０３号,,14,131,2100002,,,,,,,2025-04-15,1,,,,,キヨエイショウジ,0
376,2020005016789,新規,0,2025-04-15,2025-04-15,医療法人ライブス,,その他の設立登記法人,神奈川県,横浜市金沢区,六浦１丁目１４番１２号金沢八景国際コミュニティプラザ１階１０４号,,14,108,2360031,,,,,,,2025-04-15,1,,,,,ライブス,0
380,2021005013339,新規,0,2025-04-15,2025-04-15,一般社団法人セカンドスペーストゥエンデ,,その他の設立登記法人,神奈川県,相模原市中央区,陽光台３丁目４番１８号,,14,152,2520226,,,,,,,2025-04-15,1,,,,,セカンドスペーストゥエンデ,0
391,2030001165952,新規,0,2025-04-15,2025-04-15,株式会社レヴリエ,,株式会社,埼玉県,さいたま市浦和区,神明２丁目２２番６号,,11,107,3300065,,,,,,,2025-04-15,1,,,,,レヴリエ,0
407,2040001138313,新規,0,2025-04-15,2025-04-15,株式会社カミジアンインターナショナル,,株式会社,千葉県,船橋市,藤原５丁目１２番２号,,12,204,2730047,,,,,,,2025-04-15,1,,,,,カミジアンインターナショナル,0
408,2040001138321,新規,0,2025-04-15,2025-04-15,株式会社浩澤,,株式会社,千葉県,茂原市,腰当１００３番地９,,12,210,2970007,,,,,,,2025-04-15,1,,,,,ヒロザワ,0
409,2040001138362,新規,0,2025-04-15,2025-04-15,京葉トラスト株式会社,,株式会社,千葉県,千葉市美浜区,ひび野２丁目４番,,12,106,2610021,,,,,,,2025-04-15,1,,,,,ケイヨウトラスト,0
413,2040003027365,新規,0,2025-04-15,2025-04-15,合同会社ｍｏｃｈｉｃｏ,,合同会社,千葉県,船橋市,本町２丁目１８－１０－１００１,,12,204,2730005,,,,,,,2025-04-15,1,,,,,モチコ,0
417,2050005013610,新規,0,2025-04-15,2025-04-15,一般社団法人ＷＯＲＬＤ,,その他の設立登記法人,茨城県,つくば市,春日２丁目８－１,,08,220,3050821,,,,,,,2025-04-15,1,,,,,ワールド,0
427,2100001038507,新規,0,2025-04-15,2025-04-15,株式会社ミヤクボエステート,,株式会社,長野県,千曲市,大字屋代１０５０番地２,,20,218,3870007,,,,,,,2025-04-15,1,,,,,ミヤクボエステート,0
430,2100003008094,新規,0,2025-04-15,2025-04-15,合同会社グラウス,,合同会社,長野県,松本市,大手３丁目３－９ＮＴＴ東日本大名町ビル１Ｆ,,20,202,3900874,,,,,,,2025-04-15,1,,,,,グラウス,0
442,2120001274348,新規,0,2025-04-15,2025-04-15,株式会社ＳＥＩＫＡＮ,,株式会社,大阪府,大阪市西淀川区,大和田５丁目９番２５号,,27,113,5550032,,,,,,,2025-04-15,1,,,,,セイカン,0
443,2120001274513,新規,0,2025-04-15,2025-04-15,東和自動車工業株式会社,,株式会社,大阪府,大阪市平野区,喜連１丁目１番１３号,,27,126,5470027,,,,,,,2025-04-15,1,,,,,トウワジドウシャコウギョウ,0
444,2120001274620,新規,0,2025-04-15,2025-04-15,株式会社スピナー,,株式会社,大阪府,大阪市城東区,森之宮２丁目７－１０３,,27,118,5360025,,,,,,,2025-04-15,1,,,,,スピナー,0
447,2120003029213,新規,0,2025-04-15,2025-04-15,Ｍｉａｎ　Ｉｎｔｅｒｎａｔｉｏｎａｌ合同会社,,合同会社,大阪府,大阪市生野区,巽北１丁目２１－２９,,27,116,5440004,,,,,,,2025-04-15,1,,,,,ミアンインターナショナル,0
451,2120101071447,新規,0,2025-04-15,2025-04-15,株式会社Ｄｒｅａｍ,,株式会社,大阪府,貝塚市,鳥羽１１１番地１,,27,208,5970084,,,,,,,2025-04-15,1,,,,,ドリーム,0
457,2120105009996,新規,0,2025-04-15,2025-04-15,土地家屋調査士法人フレキシブル,,その他の設立登記法人,大阪府,堺市堺区,七条通１番１１号,,27,141,5900042,,,,,,,2025-04-15,1,,,,,フレキシブル,0
461,2122001039094,新規,0,2025-04-15,2025-04-15,株式会社暁,,株式会社,大阪府,四條畷市,田原台５丁目１６番５号,,27,229,5750013,,,,,,,2025-04-15,1,,,,,アカツキ,0
465,2130001079424,新規,0,2025-04-15,2025-04-15,株式会社ＡＯ,,株式会社,京都府,京都市中京区,槌屋町８４－２,,26,104,6040061,,,,,,,2025-04-15,1,,,,,アオ,0
468,2140001138187,新規,0,2025-04-15,2025-04-15,株式会社Ｌｏｔｕｓ電工,,株式会社,兵庫県,伊丹市,野間７丁目１４番５－１号,,28,207,6640873,,,,,,,2025-04-15,1,,,,,ロータスデンコウ,0
476,2180001166390,新規,0,2025-04-15,2025-04-15,株式会社ジェンド,,株式会社,愛知県,知多市,寺本台２丁目１３番地１０,,23,224,4780003,,,,,,,2025-04-15,1,,,,,ジェンド,0
477,2180001166399,新規,0,2025-04-15,2025-04-15,ＣＨＥＥＲＦＵＬ　ＣＯＮＮＥＣＴ株式会社,,株式会社,愛知県,名古屋市中区,新栄２丁目２番１０号グランドール新栄１Ｆ,,23,106,4600007,,,,,,,2025-04-15,1,,,,,チアフルコネクト,0
488,2200001043661,新規,0,2025-04-15,2025-04-15,株式会社ＨＥＲＢ＆ＳＰＩＣＥ,,株式会社,岐阜県,各務原市,那加東亜町１０６ＴＯＵＡＭＡＣＨＩＫＡＩＫＡＮ１Ｆ東,,21,213,5040022,,,,,,,2025-04-15,1,,,,,ハーブアンドスパイス,0
496,2200005013743,新規,0,2025-04-15,2025-04-15,岐阜市公立大学法人,,その他の設立登記法人,岐阜県,岐阜市,大学西１丁目２５番地４,,21,201,5011113,,,,,,,2025-04-15,1,,,,,ギフシ,0
509,2240003007149,新規,0,2025-04-15,2025-04-15,合同会社あいのあ,,合同会社,広島県,広島市佐伯区,三宅４丁目３番７３号,,34,108,7315143,,,,,,,2025-04-15,1,,,,,アイノア,0
517,2290001109594,新規,0,2025-04-15,2025-04-15,株式会社ひらけごま,,株式会社,福岡県,太宰府市,都府楼南１丁目１番３２－６０３号,,40,221,8180105,,,,,,,2025-04-15,1,,,,,ヒラケゴマ,0
518,2290001109685,新規,0,2025-04-15,2025-04-15,株式会社古閑工業,,株式会社,福岡県,飯塚市,川津１４０番地１,,40,205,8200067,,,,,,,2025-04-15,1,,,,,コガコウギョウ,0
519,2290001109693,新規,0,2025-04-15,2025-04-15,株式会社ＮｏｕＥｃｌａｔ,,株式会社,福岡県,福岡市博多区,博多駅前１丁目２３番２号ＰａｒｋＦｒｏｎｔ博多駅前１丁目５Ｆ－Ｂ,,40,132,8120011,,,,,,,2025-04-15,1,,,,,ヌーエクラ,0
520,2290001109702,新規,0,2025-04-15,2025-04-15,株式会社三喜,,株式会社,福岡県,筑紫野市,原田５丁目７番地２,,40,217,8180024,,,,,,,2025-04-15,1,,,,,ミキ,0
529,2310001019551,新規,0,2025-04-15,2025-04-15,株式会社フクシゲ,,株式会社,長崎県,佐世保市,大塔町１７４５番１,,42,202,8571161,,,,,,,2025-04-15,1,,,,,フクシゲ,0
533,2330001033096,新規,0,2025-04-15,2025-04-15,株式会社Ｓｕｐｅｒ　Ｊａｐａｎ,,株式会社,熊本県,熊本市南区,江越１丁目８番２２号シルワ・エッセ２－Ｗ２,,43,104,8600834,,,,,,,2025-04-15,1,,,,,スーパージャパン,0
534,2330003010952,新規,0,2025-04-15,2025-04-15,合同会社ＴＡＩＧＹＡ,,合同会社,熊本県,宇城市,小川町西北小川８３５番地１３,,43,213,8690622,,,,,,,2025-04-15,1,,,,,タイギャ,0
541,2340003004813,新規,0,2025-04-15,2025-04-15,合同会社月乃羽,,合同会社,鹿児島県,鹿児島市,堀江町２番１４－６０１号,,46,201,8920824,,,,,,,2025-04-15,1,,,,,ツキノハ,0
545,2360003014843,新規,0,2025-04-15,2025-04-15,合同会社たまる,,合同会社,沖縄県,那覇市,真嘉比２丁目１８－１７,,47,201,9020068,,,,,,,2025-04-15,1,,,,,タマル,0
546,2360003014851,新規,0,2025-04-15,2025-04-15,Ｎｅｘｔａｇｅ　Ａｍｕｒｕ合同会社,,合同会社,沖縄県,うるま市,みどり町２丁目１１番１０号,,47,213,9042215,,,,,,,2025-04-15,1,,,,,ネクステージアムル,0
550,2380001035229,新規,0,2025-04-15,2025-04-15,果樹研究所ｂｙ昭和化工株式会社,,株式会社,福島県,耶麻郡猪苗代町,大字千代田字千代田３番７,,07,408,9693133,,,,,,,2025-04-15,1,,,,,カジュケンキュウショバイショウワカコウ,0
564,2420005007954,新規,0,2025-04-15,2025-04-15,一般社団法人ＯＳＫＩＮｙ,,その他の設立登記法人,青森県,弘前市,大字安原１丁目３－４,,02,202,0368162,,,,,,,2025-04-15,1,,,,,オスキニー,0
567,2430001094178,新規,0,2025-04-15,2025-04-15,株式会社亀岡塗装,,株式会社,北海道,札幌市北区,屯田七条５丁目３番１９号,,01,102,0020857,,,,,,,2025-04-15,1,,,,,カメオカトソウ,0
568,2430001094194,新規,0,2025-04-15,2025-04-15,株式会社Ｃａｒａｖａ　Ｄｅｓｉｇｎ,,株式会社,北海道,札幌市中央区,南三条西４丁目１１－３・Ｂ１Ｆ,,01,101,0600063,,,,,,,2025-04-15,1,,,,,カラヴァデザイン,0
572,2430003017525,新規,0,2025-04-15,2025-04-15,合同会社アイ,,合同会社,北海道,札幌市西区,山の手七条７丁目３番２３号バルーンフラワー１－Ａ号,,01,107,0630007,,,,,,,2025-04-15,1,,,,,アイ,0
581,2700150129954,新規,0,2025-04-15,2025-04-15,ＦＡＬＣＯＮ　ＭＯＴＯＲ,,外国会社等,千葉県,山武市,湯坂１－４２,,12,237,2891328,スリランカ民主社会主義共和国、Ｎｏ．７３／５、コトベゲダラ、マダベラバザール,,,,,,2025-04-15,1,,,,,フアルコンモータース,0
588,3010001254112,新規,0,2025-04-15,2025-04-15,株式会社オーラパワー,,株式会社,東京都,中央区,銀座２丁目１５－２ＫＲＧｉｎｚａＩＩ６階,00138792,13,102,1040061,,,,,,,2025-04-15,1,,,,,オーラパワー,0
589,3010001254186,新規,0,2025-04-15,2025-04-15,Ａｔａｒ株式会社,,株式会社,東京都,中央区,銀座１丁目１２番４号Ｎ＆ＥＢＬＤ．６Ｆ,,13,102,1040061,,,,,,,2025-04-15,1,,,,,アタール,0
602,3010401189420,新規,0,2025-04-15,2025-04-15,株式会社ＡＮＡＰ,,株式会社,東京都,港区,南青山４丁目２０番１９号,,13,103,1070062,,,,,,,2025-04-15,1,,,,,エイエヌエイピー,0
603,3010401189668,新規,0,2025-04-15,2025-04-15,ＭＫ　Ｃａｐｉｔａｌ　Ｉｎｖｅｓｔｍｅｎｔ株式会社,,株式会社,東京都,港区,六本木７丁目７番７号トライセブンロッポンギ８階,,13,103,1060032,,,,,,,2025-04-15,1,,,,,エムケーキャピタルインベストメント,0
606,3010405024251,新規,0,2025-04-15,2025-04-15,一般社団法人Ｄｒｉｐ　Ｍｅｄｉｃａｌ,,その他の設立登記法人,東京都,港区,芝大門１丁目６番６号芝大門ヤマトビル６階,,13,103,1050012,,,,,,,2025-04-15,1,,,,,ドリップメディカル,0
620,3011001169060,新規,0,2025-04-15,2025-04-15,株式会社Ｖｅｃｔａ,,株式会社,東京都,渋谷区,渋谷２丁目１９－１５宮益坂ビルディング６０９,,13,113,1500002,,,,,,,2025-04-15,1,,,,,ベクタ,0
621,3011003021376,新規,0,2025-04-15,2025-04-15,合同会社Ｎ＆Ｙパートナーズ,,合同会社,東京都,渋谷区,道玄坂２丁目２０番８号,,13,113,1500043,,,,,,,2025-04-15,1,,,,,エヌアンドワイパートナーズ,0
622,3011005010947,新規,0,2025-04-15,2025-04-15,特定非営利活動法人ヒューマンライトアライアンス,,その他の設立登記法人,東京都,渋谷区,本町１丁目７番１６号初台ハイツ１３０５号室,,13,113,1510071,,,,,,,2025-04-15,1,,,,,ヒューマンライトアライアンス,0
623,3011005010955,新規,0,2025-04-15,2025-04-15,医療法人社団視伝会,,その他の設立登記法人,東京都,目黒区,祐天寺１丁目２３番２０号祐天寺駅前メディカルセンタービル２階と４階,,13,110,1530052,,,,,,,2025-04-15,1,,,,,シデンカイ,0
627,3011101111310,新規,0,2025-04-15,2025-04-15,株式会社れおてん,,株式会社,東京都,新宿区,高田馬場１丁目１０番２２号プロヴァンス高田馬場３０１,,13,104,1690075,,,,,,,2025-04-15,1,,,,,レオテン,0
629,3011103015749,新規,0,2025-04-15,2025-04-15,Ｔａｙｏｒｉ　Ｍａｎａｇｅｍｅｎｔ合同会社,,合同会社,東京都,新宿区,新宿５丁目１５番１４号,,13,104,1600022,,,,,,,2025-04-15,1,,,,,タヨリマネージメント,0
630,3011103015757,新規,0,2025-04-15,2025-04-15,Ｆｕｊｉ　Ｂｉｔ合同会社,,合同会社,東京都,新宿区,高田馬場２丁目１７番３号東京三協信用金庫本店ビルＴＨＥＨＵＢ高田馬場７３５号,,13,104,1690075,,,,,,,2025-04-15,1,,,,,フジビット,0
632,3011205002686,新規,0,2025-04-15,2025-04-15,一般社団法人ＯＮＯＭＵクリエイト,,その他の設立登記法人,東京都,中野区,中野３丁目４番４号ＭＫグランドヒル２０１,,13,114,1640001,,,,,,,2025-04-15,1,,,,,オノムクリエイト,0
634,3011401026976,新規,0,2025-04-15,2025-04-15,株式会社大吉建設,,株式会社,東京都,板橋区,三園１丁目２８番４号,,13,119,1750091,,,,,,,2025-04-15,1,,,,,ダイキチケンセツ,0
641,3012301014336,新規,0,2025-04-15,2025-04-15,タパスアルテ株式会社,,株式会社,東京都,町田市,西成瀬２丁目１７－１ロイヤルタウン１８－１０３,,13,209,1940046,,,,,,,2025-04-15,1,,,,,タパスアルテ,0
645,3012701018812,新規,0,2025-04-15,2025-04-15,株式会社ヘノシス,,株式会社,東京都,東村山市,栄町２丁目１８番地７ハイマート久米川１０４号,,13,213,1890013,,,,,,,2025-04-15,1,,,,,ヘノシス,0
650,3013303007617,新規,0,2025-04-15,2025-04-15,プロダクトＸ合同会社,,合同会社,東京都,豊島区,西池袋２丁目１０番１０号パークホームズ目白１０７号,,13,116,1710021,,,,,,,2025-04-15,1,,,,,プロダクトエックス,0
660,3020001162339,新規,0,2025-04-15,2025-04-15,ＨＭ株式会社,,株式会社,神奈川県,川崎市中原区,今井南町１０番４１号,,14,133,2110064,,,,,,,2025-04-15,1,,,,,エイチエム,0
661,3020001162371,新規,0,2025-04-15,2025-04-15,株式会社マルタカ・ホールディングス,,株式会社,神奈川県,横浜市中区,北仲通５丁目５７番２号,,14,104,2310003,,,,,,,2025-04-15,1,,,,,マルタカホールディングス,0
662,3020001162405,新規,0,2025-04-15,2025-04-15,株式会社けあふりー,,株式会社,神奈川県,横浜市磯子区,洋光台３丁目１０－１８第２金子ビル２Ｆ,,14,107,2350045,,,,,,,2025-04-15,1,,,,,ケアフリー,0
664,3020003028298,新規,0,2025-04-15,2025-04-15,合同会社モリーノ,,合同会社,神奈川県,横浜市旭区,中希望が丘１６９番地９スカイピア希望ケ丘ＩＩＣ－１０８号,00138785,14,112,2410825,,,,,,,2025-04-15,1,,,,,モリーノ,0
665,3020005016788,新規,0,2025-04-15,2025-04-15,医療法人社団ひとつぶ,,その他の設立登記法人,神奈川県,横浜市栄区,飯島町１３２９番地１５,,14,115,2440842,,,,,,,2025-04-15,1,,,,,ヒトツブ,0
670,3021005013338,新規,0,2025-04-15,2025-04-15,一般社団法人星のかけら,,その他の設立登記法人,神奈川県,茅ヶ崎市,共恵１丁目１－５ＢＬＤＮａｇａｓｈｉｍａ３０１,,14,207,2530056,,,,,,,2025-04-15,1,,,,,ホシノカケラ,0
692,3040001138312,新規,0,2025-04-15,2025-04-15,株式会社ゴトウ防水工業,,株式会社,千葉県,市川市,行徳駅前１丁目５－８吉田ビル１Ｆ,,12,203,2720133,,,,,,,2025-04-15,1,,,,,ゴトウボウスイコウギョウ,0
693,3040001138361,新規,0,2025-04-15,2025-04-15,株式会社たんぽぽ不動産,,株式会社,千葉県,柏市,今谷上町４３－４０－１０１,,12,217,2770074,,,,,,,2025-04-15,1,,,,,タンポポフドウサン,0
696,3050001056496,新規,0,2025-04-15,2025-04-15,株式会社ＣＫＩ,,株式会社,茨城県,神栖市,掘割二丁目４番２６号,,08,232,3140100,,,,,,,2025-04-15,1,,,,,シイキ,0
699,3060003005509,新規,0,2025-04-15,2025-04-15,合同会社秀壬社,,合同会社,栃木県,下都賀郡壬生町,大字安塚１０９３番地８,,09,361,3210201,,,,,,,2025-04-15,1,,,,,シュウジンシャ,0
708,3080401027862,新規,0,2025-04-15,2025-04-15,株式会社ＦｕｊｉｓａｎＰｒｏｊｅｃｔ,,株式会社,静岡県,浜松市中央区,千歳町９５番地の１６,,22,138,4300934,,,,,,,2025-04-15,1,,,,,フジサンプロジェクト,0
710,3090003002800,新規,0,2025-04-15,2025-04-15,合同会社マブハイ,,合同会社,山梨県,中巨摩郡昭和町,上河東５４３－２－５０４,,19,384,4093862,,,,,,,2025-04-15,1,,,,,マブハイ,0
718,3110001039189,新規,0,2025-04-15,2025-04-15,メリーゴーラウンド株式会社,,株式会社,新潟県,新潟市中央区,古町通９番町１４５４番地２新潟第一Ｋｎｏｔビル３０４号室,,15,103,9518063,,,,,,,2025-04-15,1,,,,,メリーゴーラウンド,0
735,3120001274339,新規,0,2025-04-15,2025-04-15,金源和株式会社,,株式会社,大阪府,大阪市西淀川区,大野３丁目２－４３,,27,113,5550043,,,,,,,2025-04-15,1,,,,,キンゲンワ,0
736,3120001274446,新規,0,2025-04-15,2025-04-15,ケー・エヌ・シー株式会社,,株式会社,大阪府,大阪市東淀川区,大桐１丁目１６番２号,,27,114,5330011,,,,,,,2025-04-15,1,,,,,ケーエヌシー,0
737,3120001274520,新規,0,2025-04-15,2025-04-15,川島株式会社,,株式会社,大阪府,大阪市東成区,神路１丁目７番２１号サニーハイツ三番館９０３号,,27,115,5370003,,,,,,,2025-04-15,1,,,,,カワシマ,0
739,3120003029096,新規,0,2025-04-15,2025-04-15,合同会社メディカルブロッサム,,合同会社,大阪府,大阪市東住吉区,桑津１丁目１０番５－７０２号,,27,121,5460041,,,,,,,2025-04-15,1,,,,,メディカルブロッサム,0
741,3120005024896,新規,0,2025-04-15,2025-04-15,一般社団法人日本フリーカウンセラー協会,,その他の設立登記法人,大阪府,大阪市西区,江戸堀１丁目２３番１９号グラン・ビルド江戸堀７０４,,27,106,5500002,,,,,,,2025-04-15,1,,,,,ニホンフリーカウンセラーキョウカイ,0
746,3120103006400,新規,0,2025-04-15,2025-04-15,合同会社ａｔ　Ｇｉｆｔ,,合同会社,大阪府,羽曳野市,羽曳が丘西２丁目３番２９号,,27,222,5830865,,,,,,,2025-04-15,1,,,,,アットギフト,0
747,3120105009995,新規,0,2025-04-15,2025-04-15,一般社団法人環境文化史創造研究所,,その他の設立登記法人,大阪府,和泉市,上代町８２６番地の２,,27,219,5940011,,,,,,,2025-04-15,1,,,,,カンキョウブンカシソウゾウケンキュウショ,0
750,3122001039077,新規,0,2025-04-15,2025-04-15,株式会社ＣＢＴＫ,,株式会社,大阪府,八尾市,緑ヶ丘５丁目９６番地の２みどりコーポラス１－２０３号,,27,212,5810837,,,,,,,2025-04-15,1,,,,,シービーティーケー,0
751,3122001039093,新規,0,2025-04-15,2025-04-15,かがやきコンサルティング株式会社,,株式会社,大阪府,八尾市,八尾木３丁目２５番地の４メゾンラックヴァレ１０３号,,27,212,5810027,,,,,,,2025-04-15,1,,,,,カガヤキコンサルティング,0
755,3130001079431,新規,0,2025-04-15,2025-04-15,株式会社葵工業,,株式会社,京都府,京都市山科区,西野楳本町６５番地３１,,26,110,6078358,,,,,,,2025-04-15,1,,,,,アオイコウギョウ,0
757,3130003010377,新規,0,2025-04-15,2025-04-15,合同会社ナカミチ,,合同会社,京都府,京都市中京区,壬生馬場町３２番地,,26,104,6048805,,,,,,,2025-04-15,1,,,,,ナカミチ,0
761,3140001138178,新規,0,2025-04-15,2025-04-15,まなびのハコ株式会社,,株式会社,兵庫県,神戸市東灘区,本山南町５丁目１番１０号,,28,101,6580015,,,,,,,2025-04-15,1,,,,,マナビノハコ,0
763,3140005027468,新規,0,2025-04-15,2025-04-15,医療法人修衛会おがわ整形外科クリニック,,その他の設立登記法人,兵庫県,西宮市,高須町１丁目１番５５号,,28,204,6638141,,,,,,,2025-04-15,1,,,,,シュウエイカイオガワセイケイゲカクリニック,0
766,3160001026686,新規,0,2025-04-15,2025-04-15,株式会社ユキイプラス,,株式会社,滋賀県,東近江市,中里町６１７番地,,25,213,5270105,,,,,,,2025-04-15,1,,,,,ユキイプラス,0
772,3180001166299,新規,0,2025-04-15,2025-04-15,セルティック・インベストメンツ株式会社,,株式会社,愛知県,名古屋市中区,丸の内１丁目４番１２号アレックスビル３Ｆ,,23,106,4600002,,,,,,,2025-04-15,1,,,,,,0
780,3180003028308,新規,0,2025-04-15,2025-04-15,合同会社Ｌｅａｄ,,合同会社,愛知県,名古屋市中村区,名駅４丁目２４番５号第２森ビル４０１,,23,105,4500002,,,,,,,2025-04-15,1,,,,,リード,0
781,3180003028324,新規,0,2025-04-15,2025-04-15,鷹の羽不動産ＤｅＤｅｔ合同会社,,合同会社,愛知県,春日井市,勝川町５丁目９９番地,,23,206,4860945,,,,,,,2025-04-15,1,,,,,タカノハフドウサンデデット,0
782,3180003028332,新規,0,2025-04-15,2025-04-15,Ａｍｂｉｃｉｏｎ合同会社,,合同会社,愛知県,名古屋市中村区,名駅４丁目２４番５号第２森ビル４０１,,23,105,4500002,,,,,,,2025-04-15,1,,,,,アンビシオン,0
790,3200001043644,新規,0,2025-04-15,2025-04-15,シーシーアイ産業タイヤ株式会社,,株式会社,岐阜県,関市,新迫間１２番地,,21,205,5013923,,,,,,,2025-04-15,1,,,,,シーシーアイサンギョウタイヤ,0
803,3230003002414,新規,0,2025-04-15,2025-04-15,合同会社やまと屋,,合同会社,富山県,高岡市,醍醐６０８番地１,,16,202,9391131,,,,,,,2025-04-15,1,,,,,ヤマトヤ,0
813,3290001109577,新規,0,2025-04-15,2025-04-15,株式会社興善社,,株式会社,福岡県,福岡市東区,みなと香椎３丁目１番１－４２３号,,40,131,8130019,,,,,,,2025-04-15,1,,,,,コウゼンシャ,0
814,3290001109643,新規,0,2025-04-15,2025-04-15,株式会社ちゅーりっぷ,,株式会社,福岡県,福岡市中央区,平尾２丁目５番１６－４１０号,,40,133,8100014,,,,,,,2025-04-15,1,,,,,チューリップ,0
815,3290001109668,新規,0,2025-04-15,2025-04-15,株式会社ＪＵＤＯ　ＮＥＸＴ,,株式会社,福岡県,福岡市中央区,天神４丁目６－２８天神ファーストビル７階,,40,133,8100001,,,,,,,2025-04-15,1,,,,,ジュウドウネクスト,0
818,3290003016672,新規,0,2025-04-15,2025-04-15,合同会社Ｅｖｏｌｕｔｉｏｎ,,合同会社,福岡県,福岡市中央区,清川１丁目２番１６－６０１号,,40,133,8100005,,,,,,,2025-04-15,1,,,,,エボリューション,0
819,3290003016680,新規,0,2025-04-15,2025-04-15,合同会社ｒｔ　ｃｏｎｃｅｐｔ,,合同会社,福岡県,福岡市城南区,長尾２丁目２６番１１－１０６号,,40,136,8140123,,,,,,,2025-04-15,1,,,,,アールティーコンセプト,0
820,3290003016689,新規,0,2025-04-15,2025-04-15,合同会社フォンテーヌ,,合同会社,福岡県,福岡市東区,馬出６丁目１７番３０－９０５号市営米田住宅１号棟,,40,131,8120054,,,,,,,2025-04-15,1,,,,,フォンテーヌ,0
825,3320003004632,新規,0,2025-04-15,2025-04-15,合同会社ｗＡｖＥ,,合同会社,大分県,大分市,都町３丁目７－１８グランハイツ都町２－２０１,,44,201,8700034,,,,,,,2025-04-15,1,,,,,ウェーヴ,0
827,3330003010927,新規,0,2025-04-15,2025-04-15,合同会社ファイナルオフィス,,合同会社,熊本県,菊池郡菊陽町,新山３丁目９番１５号,,43,404,8691109,,,,,,,2025-04-15,1,,,,,ファイナルオフィス,0
832,3330005010900,新規,0,2025-04-15,2025-04-15,一般社団法人Ｔｅａｍ　ＪＩＢＵＮ　ＧＯ　ＴＯ,,その他の設立登記法人,熊本県,宇城市,不知火町柏原１０１番地８,,43,213,8690554,,,,,,,2025-04-15,1,,,,,チームジブンゴト,0
833,3350003004902,新規,0,2025-04-15,2025-04-15,合同会社ＣＨＡＲＭ‐ＨＥＡＲＴ．,,合同会社,宮崎県,日南市,南郷町南町７番地６,,45,204,8893206,,,,,,,2025-04-15,1,,,,,チャームハート,0
834,3350003004910,新規,0,2025-04-15,2025-04-15,合同会社健美,,合同会社,宮崎県,宮崎市,権現町４５番地２,,45,201,8800822,,,,,,,2025-04-15,1,,,,,ケンビ,0
838,3370001052406,新規,0,2025-04-15,2025-04-15,株式会社未来アセットデザイン,,株式会社,宮城県,仙台市泉区,黒松１丁目２３番１０号,,04,105,9818006,,,,,,,2025-04-15,1,,,,,ミライアセットデザイン,0
841,3380001035236,新規,0,2025-04-15,2025-04-15,株式会社Ａｐｅｍａｎ,,株式会社,福島県,郡山市,田村町金屋字上川原９８番地コーポ英１０６号,,07,203,9630725,,,,,,,2025-04-15,1,,,,,エイプマン,0
842,3380003006012,新規,0,2025-04-15,2025-04-15,合同会社わんわんふぁーむ,,合同会社,福島県,伊達市,月舘町上手渡字屋本１０９番１号,,07,213,9600904,,,,,,,2025-04-15,1,,,,,ワンワンファーム,0
854,3430001094160,新規,0,2025-04-15,2025-04-15,株式会社ヴィンクル,,株式会社,北海道,札幌市東区,北十二条東１３丁目２番６－１０２号,,01,103,0650012,,,,,,,2025-04-15,1,,,,,ヴィンクル,0
855,3430001094169,新規,0,2025-04-15,2025-04-15,株式会社ホースセントラル,,株式会社,北海道,苫小牧市,拓勇西町８丁目１番１１号,,01,213,0591302,,,,,,,2025-04-15,1,,,,,ホースセントラル,0
864,3470001020674,新規,0,2025-04-15,2025-04-15,ＴＡＫＡＭＡＴＳＵ　Ｓｈａｒｅ　Ｓｅｒｖｉｃｅ株式会社,,株式会社,香川県,高松市,亀岡町１番５８号,,37,201,7600006,,,,,,,2025-04-15,1,,,,,タカマツシェアサービス,0
870,3700150129953,新規,0,2025-04-15,2025-04-15,Ｋｅｎｊｉ　Ｏｆｆｉｃｅ　Ｃｏ．，Ｌｔｄ．,,外国会社等,,,,,,,,５４０　Ｍｅｒｃｕｒｙ　Ｔｏｗｅｒ　Ｂｕｉｌｄｉｎｇ，１１ｔｈ　Ｆｌｏｏｒ，Ｒｏｏｍ　ｎｏ．１１８３，Ｐｌｏｅｎｃｈｉｔ　Ｒｏａｄ，Ｌｕｍｐｈｉｎｉ．,,,,,,2025-04-15,1,,,,,ケンジオフイスカンパニーリミテツド,0
876,4010001254144,新規,0,2025-04-15,2025-04-15,株式会社ＨｕｍａｎＦｕｔｕｒｅＣｒｅａｔｉｏｎ,,株式会社,東京都,中央区,日本橋小網町１６番１８号,,13,102,1030016,,,,,,,2025-04-15,1,,,,,ヒューマンフューチャークリエーション,0
877,4010001254152,新規,0,2025-04-15,2025-04-15,日本蛍石株式会社,,株式会社,東京都,千代田区,大手町２丁目３番２号,,13,101,1000004,,,,,,,2025-04-15,1,,,,,ニホンホタルイシ,0
878,4010003047075,新規,0,2025-04-15,2025-04-15,合同会社アイビー,,合同会社,東京都,中央区,銀座１丁目２２番１１号銀座大竹ビジデンス２Ｆ,,13,102,1040061,,,,,,,2025-04-15,1,,,,,アイビー,0
885,4010401189312,新規,0,2025-04-15,2025-04-15,二本榎株式会社,,株式会社,東京都,港区,浜松町２丁目２番１５号２Ｆ,,13,103,1050013,,,,,,,2025-04-15,1,,,,,ニホンエノキ,0
886,4010403034706,新規,0,2025-04-15,2025-04-15,ＭＡＲＵＦＵＪＩ　ＪＡＰＡＮ合同会社,,合同会社,東京都,港区,赤坂４丁目８番１９号赤坂フロントタウン３階,,13,103,1070052,,,,,,,2025-04-15,1,,,,,マルフジジャパン,0
887,4010405024267,新規,0,2025-04-15,2025-04-15,一般社団法人ＨＯＰＥ,,その他の設立登記法人,東京都,港区,白金２丁目５番２０－１２０７号,,13,103,1080072,,,,,,,2025-04-15,1,,,,,ホープ,0
891,4010605004440,新規,0,2025-04-15,2025-04-15,医療法人社団Ｓｏｎｏｌａｍａ,,その他の設立登記法人,東京都,江東区,亀戸７丁目６４番３号１階,,13,108,1360071,,,,,,,2025-04-15,1,,,,,ソノラマ,0
893,4010701047566,新規,0,2025-04-15,2025-04-15,株式会社ＣＯＧＡＫＵ,,株式会社,東京都,品川区,西大井５丁目２１－１,,13,109,1400015,,,,,,,2025-04-15,1,,,,,コガク,0
894,4010801036031,新規,0,2025-04-15,2025-04-15,株式会社ｏｖａｌ,,株式会社,東京都,大田区,西糀谷２丁目２１番１６号,,13,111,1440034,,,,,,,2025-04-15,1,,,,,オーバル,0
898,4010903009851,新規,0,2025-04-15,2025-04-15,合同会社健活,,合同会社,東京都,世田谷区,喜多見５丁目２３番２号,,13,112,1570067,,,,,,,2025-04-15,1,,,,,ケンカツ,0
904,4011001169118,新規,0,2025-04-15,2025-04-15,株式会社ＳｕｐｅｒＦｌｏｗ,,株式会社,東京都,渋谷区,南平台町１２番１３－７２１号,,13,113,1500036,,,,,,,2025-04-15,1,,,,,スーパーフロー,0
907,4011003021375,新規,0,2025-04-15,2025-04-15,ウィッチズ・ハウス合同会社,,合同会社,東京都,渋谷区,幡ヶ谷２丁目２０－１２－２０３,,13,113,1510072,,,,,,,2025-04-15,1,,,,,ウィッチズハウス,0
915,4011101111433,新規,0,2025-04-15,2025-04-15,ＦＯＯＤＩＺ　ＬＩＮＫ株式会社,,株式会社,東京都,新宿区,戸山１丁目１番６号,,13,104,1620052,,,,,,,2025-04-15,1,,,,,フーディーズリンク,0
917,4011105011398,新規,0,2025-04-15,2025-04-15,一般財団法人山田紘一郎芸術国際振興協会,,その他の設立登記法人,東京都,新宿区,西新宿５丁目２１番８号第７三和マンション４階,,13,104,1600023,,,,,,,2025-04-15,1,,,,,ヤマダコウイチロウゲイジュツコクサイシンコウキョウカイ,0
918,4011203004667,新規,0,2025-04-15,2025-04-15,合同会社サンフィールド,,合同会社,東京都,中野区,江原町３丁目３８番３号,,13,114,1650023,,,,,,,2025-04-15,1,,,,,サンフィールド,0
921,4011301030490,新規,0,2025-04-15,2025-04-15,株式会社コスモマム,,株式会社,東京都,杉並区,西荻北２丁目３－９コメットビル６階,,13,115,1670042,,,,,,,2025-04-15,1,,,,,コスモマム,0
922,4011301030508,新規,0,2025-04-15,2025-04-15,艾力特株式会社,,株式会社,東京都,杉並区,梅里２丁目２５番１３号高円寺プラザ２０３号－Ｄ室,,13,115,1660011,,,,,,,2025-04-15,1,,,,,ガイリョクトク,0
925,4011501031917,新規,0,2025-04-15,2025-04-15,株式会社Ｂ‐Ｐｌｕｓ　Ｐａｒｔｎｅｒｓ,,株式会社,東京都,北区,赤羽１丁目５９－８ヒノデビル４Ｆ,,13,117,1150045,,,,,,,2025-04-15,1,,,,,ビープラスパートナーズ,0
930,4011701028259,新規,0,2025-04-15,2025-04-15,ＴａｌｅｎｔＨｕｂ　Ｐａｒｔｎｅｒｓ株式会社,,株式会社,東京都,江戸川区,清新町１丁目４番５－１１０６号,,13,123,1340087,,,,,,,2025-04-15,1,,,,,タレントハブパートナーズ,0
932,4012401042954,新規,0,2025-04-15,2025-04-15,東谷株式会社,,株式会社,東京都,小金井市,中町４丁目１４－１４－１０４ライオンズシテイー武蔵小金井,,13,210,1840012,,,,,,,2025-04-15,1,,,,,トヤ,0
935,4012403007055,新規,0,2025-04-15,2025-04-15,合同会社ディーエス,,合同会社,東京都,多摩市,連光寺１丁目２番地の１ライオンズ聖蹟桜ヶ丘パシーナ１０７,,13,224,2060021,,,,,,,2025-04-15,1,,,,,ディーエス,0
936,4012701018811,新規,0,2025-04-15,2025-04-15,ＳＳＫテクノロジー株式会社,,株式会社,東京都,西東京市,中町５丁目９番１５号,,13,229,2020013,,,,,,,2025-04-15,1,,,,,エスエスケーテクノロジー,0
939,4012801023901,新規,0,2025-04-15,2025-04-15,株式会社ＳＩＮＴＹ,,株式会社,東京都,立川市,錦町３丁目１１－１１,,13,202,1900022,,,,,,,2025-04-15,1,,,,,シンティ,0
944,4013301054081,新規,0,2025-04-15,2025-04-15,株式会社Ｗａｎｄｅｒｌｕｓｔ,,株式会社,東京都,豊島区,南大塚１丁目３８番４号サチベルマン南大塚第４マンション４０２号,,13,116,1700005,,,,,,,2025-04-15,1,,,,,ワンダーラスト,0
953,4020001162338,新規,0,2025-04-15,2025-04-15,ＭＫＹホールディングス株式会社,,株式会社,神奈川県,川崎市中原区,今井南町１０番４１号,,14,133,2110064,,,,,,,2025-04-15,1,,,,,エムケイワイホールディングス,0
954,4020001162370,新規,0,2025-04-15,2025-04-15,株式会社ｕｓｅｆｕｌ,,株式会社,神奈川県,横浜市青葉区,荏田北１丁目５－６－６０２,,14,117,2250015,,,,,,,2025-04-15,1,,,,,ユースフル,0
955,4020001162387,新規,0,2025-04-15,2025-04-15,株式会社輝月商社,,株式会社,神奈川県,横浜市中区,蓬莱町２丁目６番３号ＫＯＹＯ関内ビル４０２号室,,14,104,2310048,,,,,,,2025-04-15,1,,,,,キゲツショウシャ,0
956,4020003028289,新規,0,2025-04-15,2025-04-15,合同会社ＳＪインターナショナル,,合同会社,神奈川県,横浜市港北区,高田東２丁目３１番１９号コーポ田中１０１,,14,109,2230065,,,,,,,2025-04-15,1,,,,,エスジェイインターナショナル,0
957,4020003028297,新規,0,2025-04-15,2025-04-15,京建心身健康合同会社,,合同会社,神奈川県,川崎市高津区,東野川２丁目２８－１,,14,134,2130029,,,,,,,2025-04-15,1,,,,,ケンケンシンシンケンコウ,0
961,4021001084943,新規,0,2025-04-15,2025-04-15,株式会社契,,株式会社,神奈川県,三浦郡葉山町,長柄４２４－２,,14,301,2400113,,,,,,,2025-04-15,1,,,,,チギリ,0
968,4030005022132,新規,0,2025-04-15,2025-04-15,医療法人ＨＩＡ,,その他の設立登記法人,埼玉県,川越市,上野田町１８番地１９,,11,201,3501112,,,,,,,2025-04-15,1,,,,,エイチアイエー,0
973,4040001138303,新規,0,2025-04-15,2025-04-15,桜トラストエンジニアリング株式会社,,株式会社,千葉県,松戸市,東平賀２０イーストコート１０７号室,,12,207,2700003,,,,,,,2025-04-15,1,,,,,サクラトラストエンジニアリング,0
974,4040001138311,新規,0,2025-04-15,2025-04-15,ＯｒａｎｇｅＷｏｒｋｓ株式会社,,株式会社,千葉県,柏市,西原７丁目１番地３３号,,12,217,2770885,,,,,,,2025-04-15,1,,,,,オレンジワークス,0
978,4040003027339,新規,0,2025-04-15,2025-04-15,コトノハ合同会社,,合同会社,千葉県,市川市,北国分１丁目６番２２号,,12,203,2720836,,,,,,,2025-04-15,1,,,,,コトノハ,0
982,4050005013609,新規,0,2025-04-15,2025-04-15,一般社団法人おととも,,その他の設立登記法人,茨城県,牛久市,ひたち野東５丁目１２－１８,,08,219,3001207,,,,,,,2025-04-15,1,,,,,オトトモ,0
995,4080103003293,新規,0,2025-04-15,2025-04-15,山謙建工合同会社,,合同会社,静岡県,田方郡函南町,平井１７５３番１０４３ラッキークレスト２０１室,,22,325,4190107,,,,,,,2025-04-15,1,,,,,,0
996,4080105006501,新規,0,2025-04-15,2025-04-15,富士市緑化管理協同組合,,その他の設立登記法人,静岡県,富士市,南松野２７９番地の１,,22,210,4213303,,,,,,,2025-04-15,1,,,,,フジシリョッカカンリ,0
998,4090003002799,新規,0,2025-04-15,2025-04-15,合同会社ｔｏｒｃｈ　ｐｒｅｓｓ,,合同会社,山梨県,甲州市,塩山藤木１９５９,,19,213,4040054,,,,,,,2025-04-15,1,,,,,トーチプレス,0
1001,4110001039188,新規,0,2025-04-15,2025-04-15,実穂企画株式会社,,株式会社,新潟県,南蒲原郡田上町,大字田上丙１２３８番地７,,15,361,9591502,,,,,,,2025-04-15,1,,,,,ミホキカク,0
1009,4120001274354,新規,0,2025-04-15,2025-04-15,株式会社スタールート,,株式会社,大阪府,大阪市東淀川区,豊里２丁目１３‐１４,,27,114,5330013,,,,,,,2025-04-15,1,,,,,スタールート,0
1010,4120001274370,新規,0,2025-04-15,2025-04-15,株式会社リライフ計画,,株式会社,大阪府,枚方市,大垣内町２丁目８番８号マイティビル５階Ｃ号室,,27,210,5730027,,,,,,,2025-04-15,1,,,,,リライフケイカク,0
1011,4120001274412,新規,0,2025-04-15,2025-04-15,株式会社ＺＯＯ,,株式会社,大阪府,大阪市北区,堂山町１７番５号巽ビル２０１,,27,127,5300027,,,,,,,2025-04-15,1,,,,,ズー,0
1012,4120001274478,新規,0,2025-04-15,2025-04-15,ＢｌｕｅＢｏｏｋ　Ｓｙｓｔｅｍ株式会社,,株式会社,大阪府,大阪市西区,北堀江４丁目１３番２１－１１０６号,,27,106,5500014,,,,,,,2025-04-15,1,,,,,ブルーブックシステム,0
1013,4120001274528,新規,0,2025-04-15,2025-04-15,株式会社Ｃｒｙｓｔａ,,株式会社,大阪府,大阪市淀川区,三津屋南２丁目１０番１５－１０２号,,27,123,5320035,,,,,,,2025-04-15,1,,,,,クリスタ,0
1014,4120001274577,新規,0,2025-04-15,2025-04-15,奕澤株式会社,,株式会社,大阪府,大阪市淀川区,三津屋北２丁目１１番８－３０２号,,27,123,5320032,,,,,,,2025-04-15,1,,,,,エキザワ,0
1015,4120001274602,新規,0,2025-04-15,2025-04-15,北極星株式会社,,株式会社,大阪府,大阪市東淀川区,瑞光１丁目５番１８－２０５号,,27,114,5330005,,,,,,,2025-04-15,1,,,,,ホッキョクセイ,0
1016,4120001274940,新規,0,2025-04-15,2025-04-15,株式会社総合フードジャパン,,株式会社,大阪府,大阪市天王寺区,下味原町２番１３号,,27,109,5430025,,,,,,,2025-04-15,1,,,,,ソウゴウフードジャパン,0
1019,4120003029120,新規,0,2025-04-15,2025-04-15,合同会社はろ,,合同会社,大阪府,大阪市東住吉区,公園南矢田１丁目５番１３号,,27,121,5460024,,,,,,,2025-04-15,1,,,,,ハロ,0
1020,4120005024895,新規,0,2025-04-15,2025-04-15,一般社団法人日本インバウンドフリーガイド協会,,その他の設立登記法人,大阪府,大阪市西区,江戸堀１丁目２３番１９号グラン・ビルド江戸堀７０４,,27,106,5500002,,,,,,,2025-04-15,1,,,,,ニホンインバウンドフリーガイドキョウカイ,0
1023,4120103006390,新規,0,2025-04-15,2025-04-15,合同会社なないろ,,合同会社,大阪府,堺市東区,大美野３８０番地２,,27,143,5998126,,,,,,,2025-04-15,1,,,,,ナナイロ,0
1027,4120903005617,新規,0,2025-04-15,2025-04-15,合同会社Ｈｙｄｏｒｏ,,合同会社,大阪府,吹田市,垂水町３丁目３５番１８－５０５号,,27,205,5640062,,,,,,,2025-04-15,1,,,,,ハイドロ,0
1031,4130003010368,新規,0,2025-04-15,2025-04-15,合同会社ＹＫソフト開発,,合同会社,京都府,京都市中京区,壬生松原町６７－１０－１０３,,26,104,6048823,,,,,,,2025-04-15,1,,,,,ワイケイソフトカイハツ,0
1032,4130003010376,新規,0,2025-04-15,2025-04-15,合同会社Ａｓｐｉｒａｔｉｏｎ　Ｗｏｒｌｄ,,合同会社,京都府,京都市右京区,嵯峨大覚寺門前六道町３５－２,,26,108,6168417,,,,,,,2025-04-15,1,,,,,アスピレーションワールド,0
1033,4130005017345,新規,0,2025-04-15,2025-04-15,一般社団法人福祉開発研究ユニット,,その他の設立登記法人,京都府,京都市上京区,今出川通烏丸東入相国寺門前町６９９番地２,,26,102,6020898,,,,,,,2025-04-15,1,,,,,フクシカイハツケンキュウユニット,0
1037,4140001138169,新規,0,2025-04-15,2025-04-15,株式会社ＫＯＹＡＳＨＩ,,株式会社,兵庫県,西宮市,上大市２丁目１番７号,,28,204,6638003,,,,,,,2025-04-15,1,,,,,コヤシ,0
1038,4140001138177,新規,0,2025-04-15,2025-04-15,株式会社エンリンクス,,株式会社,兵庫県,加古郡稲美町,加古１７４９－１０,,28,381,6751105,,,,,,,2025-04-15,1,,,,,エンリンクス,0
1041,4140003021934,新規,0,2025-04-15,2025-04-15,合同会社Ｇ．Ｏ,,合同会社,兵庫県,神戸市長田区,堀切町１０番１号,,28,106,6530885,,,,,,,2025-04-15,1,,,,,ジーオー,0
1048,4150005009687,新規,0,2025-04-15,2025-04-15,社会福祉法人三恵福祉会,,その他の設立登記法人,奈良県,北葛城郡広陵町,大字大野５０１番地１,,29,426,6350803,,,,,,,2025-04-15,1,,,,,サンケイフクシカイ,0
1067,4180005021053,新規,0,2025-04-15,2025-04-15,特定非営利活動法人教育の機会をつなぐ三つ葉,,その他の設立登記法人,愛知県,大府市,大東町１丁目３７８番地の４,,23,223,4740023,,,,,,,2025-04-15,1,,,,,キョウイクノキカイヲツナグミツバ,0
1070,4180305009681,新規,0,2025-04-15,2025-04-15,一般社団法人日本住宅保安協会,,その他の設立登記法人,愛知県,安城市,寺領町久後８４番地１,,23,212,4441166,,,,,,,2025-04-15,1,,,,,ニホンジュウタクホアンキョウカイ,0
1072,4200001043643,新規,0,2025-04-15,2025-04-15,シーシーアイ住設建材株式会社,,株式会社,岐阜県,関市,新迫間１２番地,,21,205,5013923,,,,,,,2025-04-15,1,,,,,シーシーアイジュウセツケンザイ,0
1089,4240003007147,新規,0,2025-04-15,2025-04-15,４．５ｉｎｃｈ合同会社,,合同会社,広島県,広島市安佐南区,東原２丁目６番１２号ドゥーミル東原１階トラップ内,,34,105,7310112,,,,,,,2025-04-15,1,,,,,ヨンテンゴインチ,0
1092,4250005009000,新規,0,2025-04-15,2025-04-15,一般社団法人山口県中小企業家同友会,,その他の設立登記法人,山口県,山口市,大内長野７７６番地,,35,203,7530211,,,,,,,2025-04-15,1,,,,,ヤマグチケンチュウショウキギョウカドウユウカイ,0
1095,4280001009406,新規,0,2025-04-15,2025-04-15,株式会社ＫＥＮＳＯ．ＣＯ,,株式会社,島根県,出雲市,平田町１７３３番地６,,32,203,6910001,,,,,,,2025-04-15,1,,,,,ケンソウドットシーオー,0
1103,4290003016688,新規,0,2025-04-15,2025-04-15,ＨＡＯ　ＱＵＡＮＧ合同会社,,合同会社,福岡県,久留米市,東町３４０番地２－４０４号,,40,203,8300032,,,,,,,2025-04-15,1,,,,,ハオクアン,0
1110,4310005008846,新規,0,2025-04-15,2025-04-15,一般社団法人全日本リトルペーロン協会,,その他の設立登記法人,長崎県,長崎市,さくらの里１丁目２０番２３号,,42,201,8512207,,,,,,,2025-04-15,1,,,,,ゼンニホンリトルペーロンキョウカイ,0
1111,4320003004631,新規,0,2025-04-15,2025-04-15,棚田の真ん中合同会社,,合同会社,大分県,豊後高田市,田染小崎２６２３番地４,,44,209,8790854,,,,,,,2025-04-15,1,,,,,タナダノマンナカ,0
1115,4330003010950,新規,0,2025-04-15,2025-04-15,Ｄｉ・ヴェール合同会社,,合同会社,熊本県,熊本市北区,弓削５丁目１５番１号オリエンタルハウスＣ３－１,,43,105,8618002,,,,,,,2025-04-15,1,,,,,ディヴェール,0
1125,4360001035030,新規,0,2025-04-15,2025-04-15,株式会社護工業,,株式会社,沖縄県,島尻郡南風原町,字津嘉山６４３番地３コーポマモル１Ｆ,,47,350,9011117,,,,,,,2025-04-15,1,,,,,マモルコウギョウ,0
1126,4360001035055,新規,0,2025-04-15,2025-04-15,株式会社ｓｅｅｄ琉球,,株式会社,沖縄県,うるま市,与那城平安座８１５０番地１,,47,213,9042426,,,,,,,2025-04-15,1,,,,,シードリュウキュウ,0
1131,4380001035235,新規,0,2025-04-15,2025-04-15,株式会社Ｏｍａｋａｓｅ,,株式会社,福島県,郡山市,安積町成田字田向１５０番地の６２,,07,203,9630112,,,,,,,2025-04-15,1,,,,,オマカセ,0
1136,4380005012957,新規,0,2025-04-15,2025-04-15,一般社団法人ｆｏｒふくしま,,その他の設立登記法人,福島県,郡山市,桑野３丁目１５番６号クローネ郡山ＩＩ１０１,00138781,07,203,9638025,,,,,,,2025-04-15,1,,,,,フォーフクシマ,0
1142,4430001094168,新規,0,2025-04-15,2025-04-15,雪明制作所株式会社,,株式会社,北海道,札幌市清田区,北野三条１丁目４番２３号,,01,110,0040863,,,,,,,2025-04-15,1,,,,,ユキアカリセイサクジョ,0
1143,4430001094176,新規,0,2025-04-15,2025-04-15,株式会社コスモソリューションズ,,株式会社,北海道,北広島市,輪厚中央５丁目３番地５,,01,234,0611268,,,,,,,2025-04-15,1,,,,,コスモソリューションズ,0
1147,4430003017481,新規,0,2025-04-15,2025-04-15,泰和商事合同会社,,合同会社,北海道,石狩郡当別町,弥生５１番地２５ロイヤル５１　３１１号,,01,303,0610223,,,,,,,2025-04-15,1,,,,,タイワショウジ,0
1150,4470001020665,新規,0,2025-04-15,2025-04-15,株式会社ｆｉｒｓｔ,,株式会社,香川県,高松市,円座町１１９３番地４レトア円座１０２,,37,201,7618044,,,,,,,2025-04-15,1,,,,,ファースト,0
1156,4700150129952,新規,0,2025-04-15,2025-04-15,株式会社ＴＯＹＯＵ’Ｓ　ＤＲＥＡＭ,,外国会社等,東京都,港区,虎ノ門２丁目４番７号１６Ｆ１号室,,13,103,1050001,大韓民国ソウル特別市城北区鍾岩路１３ギル１６－１０（鍾岩洞）,,,,,,2025-04-15,1,,,,,カブシキガイシヤトウーユードリーム,0
1164,5010001253649,新規,0,2025-04-15,2025-04-15,株式会社まいもんＪＡＰＡＮ,,株式会社,東京都,中央区,銀座１丁目２８番１１－１１０５号セントラル銀座,,13,102,1040061,,,,,,,2025-04-15,1,,,,,マイモンジャパン,0
1165,5010001254003,新規,0,2025-04-15,2025-04-15,Ｌａｎｔｅｃ株式会社,,株式会社,東京都,千代田区,丸の内１丁目１１番１号パシフィックセンチュリープレイス丸の内１３階,,13,101,1000005,,,,,,,2025-04-15,1,,,,,ランテック,0
1166,5010001254151,新規,0,2025-04-15,2025-04-15,木泉株式会社,,株式会社,東京都,中央区,新川１丁目７番１号,,13,102,1040033,,,,,,,2025-04-15,1,,,,,キセン,0
1170,5010003047033,新規,0,2025-04-15,2025-04-15,合同会社ランパスアウトドアライフ,,合同会社,東京都,中央区,日本橋浜町２丁目５番７号,,13,102,1030007,,,,,,,2025-04-15,1,,,,,ランパスアウトドアライフ,0
1172,5010005039912,新規,0,2025-04-15,2025-04-15,Ｃａｎａｌ‐ＩＩ一般社団法人,,その他の設立登記法人,東京都,中央区,銀座１丁目６番１１号土志田ビルディング３Ｆ,,13,102,1040061,,,,,,,2025-04-15,1,,,,,キャナルツー,0
1175,5010101016633,新規,0,2025-04-15,2025-04-15,株式会社山海,,株式会社,東京都,八王子市,大和田町６丁目１４－５メゾンドノア大和田６０８,,13,201,1920045,,,,,,,2025-04-15,1,,,,,サンカイ,0
1187,5010601067135,新規,0,2025-04-15,2025-04-15,株式会社ＣＨＩＬＬ　ＯＵＴ　ＰＬＡＮＥＴ,,株式会社,東京都,江東区,豊洲５丁目１番１３－１７０７号,,13,108,1350061,,,,,,,2025-04-15,1,,,,,チルアウトプラネット,0
1191,5010703007666,新規,0,2025-04-15,2025-04-15,共栄合同会社,,合同会社,東京都,品川区,東大井３丁目２８番１号,,13,109,1400011,,,,,,,2025-04-15,1,,,,,キョウエイ,0
1195,5010901057182,新規,0,2025-04-15,2025-04-15,株式会社スピニー,,株式会社,東京都,世田谷区,三宿１丁目１４－８三宿バドスクエア３１２,,13,112,1540005,,,,,,,2025-04-15,1,,,,,スピニー,0
1196,5011001168894,新規,0,2025-04-15,2025-04-15,ＴＳ株式会社,,株式会社,東京都,渋谷区,本町５丁目２３番１２号,,13,113,1510071,,,,,,,2025-04-15,1,,,,,トータルサポート,0
1197,5011001168936,新規,0,2025-04-15,2025-04-15,株式会社トリー,,株式会社,東京都,渋谷区,桜丘町２３番１７号シティーコート桜丘４０８,,13,113,1500031,,,,,,,2025-04-15,1,,,,,トリー,0
1200,5011003021374,新規,0,2025-04-15,2025-04-15,合同会社グロースパートナーズ,,合同会社,東京都,渋谷区,渋谷２丁目１９番１５号宮益坂ビルディング６０９,,13,113,1500002,,,,,,,2025-04-15,1,,,,,グロースパートナーズ,0
1201,5011003021399,新規,0,2025-04-15,2025-04-15,合同会社Ｇｒａｓｓ　Ｆｉｒｍ,,合同会社,東京都,渋谷区,千駄ヶ谷２丁目２８番３－７０４号ＺＯＯＭ神宮前,,13,113,1510051,,,,,,,2025-04-15,1,,,,,グラスファーム,0
1204,5011101111309,新規,0,2025-04-15,2025-04-15,株式会社Ｗａｋｓａｓ,,株式会社,東京都,新宿区,新宿２丁目１２番１３号新宿アントレサロンビル２階,,13,104,1600022,,,,,,,2025-04-15,1,,,,,ワクサス,0
1207,5011501031940,新規,0,2025-04-15,2025-04-15,三洋エレベーター株式会社,,株式会社,東京都,北区,浮間１丁目７－２３兆豊浮間ビル５０２号室,,13,117,1150051,,,,,,,2025-04-15,1,,,,,サンヨウエレベーター,0
1212,5012701018810,新規,0,2025-04-15,2025-04-15,Ｂｌｅｎｄｅｌ株式会社,,株式会社,東京都,小平市,小川町１丁目７８８番地,,13,211,1870032,,,,,,,2025-04-15,1,,,,,ブレンデル,0
1213,5012801023900,新規,0,2025-04-15,2025-04-15,株式会社フェザーフード,,株式会社,東京都,武蔵村山市,中原２丁目４９番地３第二広佳マンション１０３,,13,223,2080035,,,,,,,2025-04-15,1,,,,,フェザーフード,0
1217,5013301054080,新規,0,2025-04-15,2025-04-15,ラセン株式会社,,株式会社,東京都,豊島区,池袋本町３丁目２１番１５号,,13,116,1700011,,,,,,,2025-04-15,1,,,,,ラセン,0
1225,5020001162394,新規,0,2025-04-15,2025-04-15,株式会社山田産業,,株式会社,神奈川県,横浜市中区,宮川町２丁目１９番地１,,14,104,2310065,,,,,,,2025-04-15,1,,,,,ヤマダサンギョウ,0
1229,5020003028180,新規,0,2025-04-15,2025-04-15,ＩＫＥＤＡ合同会社,,合同会社,神奈川県,横浜市西区,北幸２丁目１０番４８号,,14,103,2200004,,,,,,,2025-04-15,1,,,,,イケダ,0
1231,5020005016786,新規,0,2025-04-15,2025-04-15,一般社団法人神奈川県透析危機対策協議会,,その他の設立登記法人,神奈川県,川崎市川崎区,日進町７番地１川崎日進町ビルディング,,14,131,2100024,,,,,,,2025-04-15,1,,,,,カナガワケントウセキキキタイサクキョウギカイ,0
1257,5040001138244,新規,0,2025-04-15,2025-04-15,株式会社カナデホーム,,株式会社,千葉県,流山市,江戸川台東４丁目２５７番地,,12,220,2700111,,,,,,,2025-04-15,1,,,,,カナデホーム,0
1258,5040001138285,新規,0,2025-04-15,2025-04-15,株式会社ＮＥＸＴ・Ｇ,,株式会社,千葉県,船橋市,二和西５丁目１４番６－２号,,12,204,2740806,,,,,,,2025-04-15,1,,,,,ネクストジー,0
1259,5040001138310,新規,0,2025-04-15,2025-04-15,ＹＫヒマワリ株式会社,,株式会社,千葉県,船橋市,宮本７丁目５－１５,,12,204,2730003,,,,,,,2025-04-15,1,,,,,ワイケイヒマワリ,0
1260,5040001138327,新規,0,2025-04-15,2025-04-15,株式会社テイクラック,,株式会社,千葉県,船橋市,大穴南２丁目１７番２５号,,12,204,2740067,,,,,,,2025-04-15,1,,,,,テイクラック,0
1261,5040001138335,新規,0,2025-04-15,2025-04-15,株式会社泉,,株式会社,千葉県,習志野市,袖ケ浦市五丁目６番５号,,12,216,2750000,,,,,,,2025-04-15,1,,,,,イズミ,0
1262,5040001138343,新規,0,2025-04-15,2025-04-15,株式会社楓,,株式会社,千葉県,千葉市中央区,生実町９４４－１,,12,101,2600813,,,,,,,2025-04-15,1,,,,,カエデ,0
1268,5040003027354,新規,0,2025-04-15,2025-04-15,合同会社ＹＡＭＡＹＡ,,合同会社,千葉県,船橋市,高野台３丁目１６番４号,,12,204,2740801,,,,,,,2025-04-15,1,,,,,ヤマヤ,0
1269,5040003027370,新規,0,2025-04-15,2025-04-15,合同会社ｏｆｆｉｃｅ１０,,合同会社,千葉県,山武郡九十九里町,真亀６２１番地２９,,12,403,2830114,,,,,,,2025-04-15,1,,,,,オフィステン,0
1270,5040003027379,新規,0,2025-04-15,2025-04-15,合同会社あしあと,,合同会社,千葉県,市原市,海士有木１６６８番地３２,,12,219,2900207,,,,,,,2025-04-15,1,,,,,アシアト,0
1271,5040005022725,新規,0,2025-04-15,2025-04-15,リナリア協同組合,,その他の設立登記法人,千葉県,千葉市若葉区,源町５７９番地１０,,12,104,2640037,,,,,,,2025-04-15,1,,,,,リナリア,0
1273,5050001056503,新規,0,2025-04-15,2025-04-15,Ｈａｎｋｓ株式会社,,株式会社,茨城県,石岡市,東成井５５８番地８,,08,205,3150122,,,,,,,2025-04-15,1,,,,,ハンクス,0
1274,5050001056511,新規,0,2025-04-15,2025-04-15,株式会社ＭＹ　ＦＯＯＴＢＡＬＬ　ＴＲＡＶＥＬ,,株式会社,茨城県,鹿嶋市,宮中２丁目１－３１グレースマンション３０３,,08,222,3140031,,,,,,,2025-04-15,1,,,,,マイフットボールトラベル,0
1284,5070001042831,新規,0,2025-04-15,2025-04-15,ＫＭＳコンサルティング株式会社,,株式会社,群馬県,高崎市,飯塚町１１５８－９,,10,202,3700069,,,,,,,2025-04-15,1,,,,,ケイエムエスコンサルティング,0
1285,5070001042848,新規,0,2025-04-15,2025-04-15,株式会社グリース,,株式会社,群馬県,安中市,磯部１丁目１７番３号,,10,211,3790127,,,,,,,2025-04-15,1,,,,,グリース,0
1289,5080105006500,新規,0,2025-04-15,2025-04-15,一般社団法人富士山木育協会,,その他の設立登記法人,静岡県,御殿場市,御殿場２１番地の１,,22,215,4120028,,,,,,,2025-04-15,1,,,,,,0
1292,5090001019217,新規,0,2025-04-15,2025-04-15,ＢＲＯＴＨＥＲＮＥＥＤＳ株式会社,,株式会社,山梨県,南都留郡山中湖村,山中２７４－２１５,,19,425,4010501,,,,,,,2025-04-15,1,,,,,ブラザーニーズ,0
1293,5090005007696,新規,0,2025-04-15,2025-04-15,一般社団法人ｎａｎａｈｏユナイテッド,,その他の設立登記法人,山梨県,甲府市,向町２９６番地,,19,201,4000813,,,,,,,2025-04-15,1,,,,,ナナホユナイテッド,0
1294,5100001038512,新規,0,2025-04-15,2025-04-15,株式会社龍宙,,株式会社,長野県,茅野市,ちの３５０２番地１ベルビア２階ワークラボ八ヶ岳２１５,,20,214,3910001,,,,,,,2025-04-15,1,,,,,リソラ,0
1306,5120001274444,新規,0,2025-04-15,2025-04-15,京井松竹株式会社,,株式会社,大阪府,大阪市浪速区,恵美須東２丁目６番１５－３０１号,,27,111,5560002,,,,,,,2025-04-15,1,,,,,キョウイショウチク,0
1307,5120001274493,新規,0,2025-04-15,2025-04-15,株式会社Ｔｅｎ　ｔｏ　Ｏｎｅ,,株式会社,大阪府,大阪市北区,梅田１丁目１－３大阪駅前第３ビル２９階１－１－１号室,,27,127,5300001,,,,,,,2025-04-15,1,,,,,テンツーワン,0
1308,5120001274519,新規,0,2025-04-15,2025-04-15,ＧＭＩ株式会社,,株式会社,大阪府,大阪市中央区,島之内１丁目７－１７Ｌ－Ｌｏｆｔ長堀橋８０２,,27,128,5420082,,,,,,,2025-04-15,1,,,,,ジーエムアイ,0
1309,5120001274543,新規,0,2025-04-15,2025-04-15,Ｔｒｉｓｔｏｎｅホールディングス株式会社,,株式会社,大阪府,大阪市北区,天満２丁目１－１２天満橋ＳＥビル４階,,27,127,5300043,,,,,,,2025-04-15,1,,,,,トライストーンホールディングス,0
1310,5120001274592,新規,0,2025-04-15,2025-04-15,Ｆｏｒｅｖｅｒ不動産販売株式会社,,株式会社,大阪府,大阪市淀川区,西中島５丁目８番２１－８０９号,,27,123,5320011,,,,,,,2025-04-15,1,,,,,フォーエバーフドウサンハンバイ,0
1314,5120003029086,新規,0,2025-04-15,2025-04-15,合同会社はんなりモータース,,合同会社,大阪府,大阪市此花区,高見１丁目４－５５－５０４,,27,104,5540001,,,,,,,2025-04-15,1,,,,,ハンナリモータース,0
1315,5120003029094,新規,0,2025-04-15,2025-04-15,ＫＴＦ合同会社,,合同会社,大阪府,大阪市生野区,巽東２丁目１８番２３号,00138794,27,116,5440014,,,,,,,2025-04-15,1,,,,,ケイティーエフ,0
1331,5130001079388,新規,0,2025-04-15,2025-04-15,株式会社ｐｉｎｙｏ,,株式会社,京都府,京都市左京区,孫橋町１８番地３,,26,103,6068385,,,,,,,2025-04-15,1,,,,,ピニョ,0
1332,5130003010375,新規,0,2025-04-15,2025-04-15,合同会社カタルシスリンク,,合同会社,京都府,木津川市,兜台１丁目２番地高の原駅西団地７－３０３号,,26,214,6190224,,,,,,,2025-04-15,1,,,,,カタルシスリンク,0
1338,5140001138168,新規,0,2025-04-15,2025-04-15,株式会社Ｍ＆Ｋ　ＴＲＡＤＩＮＧ,,株式会社,兵庫県,神戸市兵庫区,塚本通８丁目１番地８新港ビル１階１０１号室,,28,105,6520804,,,,,,,2025-04-15,1,,,,,エムアンドケイトレイディング,0
1339,5140001138176,新規,0,2025-04-15,2025-04-15,開霊商事株式会社,,株式会社,兵庫県,神戸市長田区,花山町１丁目２番４５号,,28,106,6530876,,,,,,,2025-04-15,1,,,,,カイレイショウジ,0
1349,5160003003450,新規,0,2025-04-15,2025-04-15,合同会社楽笑ファーム,,合同会社,滋賀県,東近江市,山上町２１８６番地,,25,213,5270231,,,,,,,2025-04-15,1,,,,,ラクショウファーム,0
1362,5180003028322,新規,0,2025-04-15,2025-04-15,ＵＮＩＥＮ合同会社,,合同会社,愛知県,名古屋市西区,清里町３６３番地（フォレストパーク清里２０３号）,,23,104,4520801,,,,,,,2025-04-15,1,,,,,ユニアン,0
1363,5180005021060,新規,0,2025-04-15,2025-04-15,社会保険労務士法人ＬＥ・ＬＡＣＴＢＥＬ,,その他の設立登記法人,愛知県,江南市,赤童子町桜道７７番地,,23,217,4838228,,,,,,,2025-04-15,1,,,,,リラクトベル,0
1376,5200005013749,新規,0,2025-04-15,2025-04-15,医療法人うえだ歯科医院,,その他の設立登記法人,岐阜県,不破郡垂井町,綾戸４５１番地の１,,21,361,5032112,,,,,,,2025-04-15,1,,,,,ウエダシカイイン,0
1381,5240003007146,新規,0,2025-04-15,2025-04-15,ＨＡＳＳＡＮ　ＴＲＡＤＩＮＧ合同会社,,合同会社,広島県,福山市,山手町１５８０－８,,34,207,7200092,,,,,,,2025-04-15,1,,,,,ハッサントレーディング,0
1387,5250003003689,新規,0,2025-04-15,2025-04-15,合同会社Ｎｅｘｅｒａ,,合同会社,山口県,下関市,武久町２丁目６５番１３号,,35,201,7510833,,,,,,,2025-04-15,1,,,,,ネクセラ,0
1390,5260005011466,新規,0,2025-04-15,2025-04-15,一般社団法人学童保育おれんじみまさかの家,,その他の設立登記法人,岡山県,美作市,楢原上８７７番地,00138777,33,215,7070022,,,,,,,2025-04-15,1,,,,,ガクドウホイクオレンジミマサカノイエ,0
1398,5290001109567,新規,0,2025-04-15,2025-04-15,株式会社ラポートホールディングス,,株式会社,福岡県,久留米市,本町１５－１０,,40,203,8300044,,,,,,,2025-04-15,1,,,,,ラポートホールディングス,0
1399,5290001109666,新規,0,2025-04-15,2025-04-15,株式会社ＢＢｂａｔｔｅｒｙ,,株式会社,福岡県,福岡市早良区,南庄４丁目５－５７－７号,,40,137,8140031,,,,,,,2025-04-15,1,,,,,ビービーバッテリー,0
1400,5290001109674,新規,0,2025-04-15,2025-04-15,株式会社ＭＲＣ,,株式会社,福岡県,福岡市中央区,舞鶴３丁目６番２３－６０５号,,40,133,8100073,,,,,,,2025-04-15,1,,,,,エムアールシー,0
1401,5290001109690,新規,0,2025-04-15,2025-04-15,株式会社立心建設,,株式会社,福岡県,福岡市早良区,内野１丁目１１番８号,,40,137,8111123,,,,,,,2025-04-15,1,,,,,リッシンケンセツ,0
1411,5330001033085,新規,0,2025-04-15,2025-04-15,ＡＲＫ株式会社,,株式会社,熊本県,玉名市,岱明町鍋２３２３,,43,206,8690211,,,,,,,2025-04-15,1,,,,,アルク,0
1412,5330001033093,新規,0,2025-04-15,2025-04-15,株式会社オフィスビート,,株式会社,熊本県,玉名市,亀甲７９番地７ボストンビル３Ｆ,,43,206,8650015,,,,,,,2025-04-15,1,,,,,オフィスビート,0
1423,5360001034980,新規,0,2025-04-15,2025-04-15,株式会社Ｌｏｏｐ,,株式会社,沖縄県,石垣市,字名蔵９８２番地５３,,47,207,9070021,,,,,,,2025-04-15,1,,,,,ループ,0
1424,5360001035062,新規,0,2025-04-15,2025-04-15,株式会社玉元工房,,株式会社,沖縄県,中頭郡読谷村,字座喜味２６５３番地１,,47,324,9040301,,,,,,,2025-04-15,1,,,,,タマモトコウボウ,0
1425,5360003014840,新規,0,2025-04-15,2025-04-15,合同会社ＷＥＢサービス,,合同会社,沖縄県,宮古島市,城辺字西里添１０３番地２,,47,214,9060106,,,,,,,2025-04-15,1,,,,,ウェブサービス,0
1428,5370003007042,新規,0,2025-04-15,2025-04-15,トゥレット合同会社,,合同会社,宮城県,仙台市泉区,南光台２丁目３番２９号コーポＫＩ－１０１,,04,105,9818003,,,,,,,2025-04-15,1,,,,,トゥレット,0
1429,5370005010936,新規,0,2025-04-15,2025-04-15,特定非営利活動法人ハロー,,その他の設立登記法人,宮城県,富谷市,成田１丁目５番地３,,04,216,9813341,,,,,,,2025-04-15,1,,,,,ハロー,0
1436,5380001035234,新規,0,2025-04-15,2025-04-15,株式会社ＵＳテック,,株式会社,福島県,河沼郡会津坂下町,字舘ノ下２３１－１美遊人ビル２階－１,,07,421,9696551,,,,,,,2025-04-15,1,,,,,,0
1439,5400003003434,新規,0,2025-04-15,2025-04-15,合同会社ＪＯ,,合同会社,岩手県,北上市,里分８地割９４番地６,,03,206,0240023,,,,,,,2025-04-15,1,,,,,ジェイオー,0
1453,5430001094175,新規,0,2025-04-15,2025-04-15,株式会社Ｌｉｎｏ　Ｌａｂｏ,,株式会社,北海道,札幌市北区,東茨戸三条１丁目１２番６号,,01,102,0028044,,,,,,,2025-04-15,1,,,,,リノラボ,0
1454,5430001094183,新規,0,2025-04-15,2025-04-15,株式会社メイユール知床,,株式会社,北海道,札幌市中央区,宮の森三条１１丁目１番４５号,,01,101,0640953,,,,,,,2025-04-15,1,,,,,メイユールシレトコ,0
1455,5430001094191,新規,0,2025-04-15,2025-04-15,株式会社旭日産業,,株式会社,北海道,白老郡白老町,字竹浦１９８番地９,,01,578,0590642,,,,,,,2025-04-15,1,,,,,アサヒサンギョウ,0
1456,5430003017522,新規,0,2025-04-15,2025-04-15,電匠合同会社,,合同会社,北海道,札幌市西区,宮の沢三条４丁目７番１号,,01,107,0630053,,,,,,,2025-04-15,1,,,,,デンショウ,0
1460,5450001014593,新規,0,2025-04-15,2025-04-15,株式会社ＴＥＲＵ,,株式会社,北海道,旭川市,神楽岡六条４丁目２番６号,,01,204,0788316,,,,,,,2025-04-15,1,,,,,テル,0
1462,5450005004450,新規,0,2025-04-15,2025-04-15,一般社団法人ＡＬＢＡＬＵＰＯ　ｓｐｏｒｔｓ　ｅｎｔｅｒｔａｉｎｍｅｎｔ　ｃｌｕｂ,,その他の設立登記法人,北海道,旭川市,東光九条２丁目３番６号,,01,204,0788349,,,,,,,2025-04-15,1,,,,,アルバルポスポーツエンターテイメントクラブ,0
1466,5470001020672,新規,0,2025-04-15,2025-04-15,株式会社ＭＡＲＵＫＯＵ,,株式会社,香川県,高松市,国分寺町柏原２５０番地１,,37,201,7690105,,,,,,,2025-04-15,1,,,,,マルコウ,0
1471,5700150129951,新規,0,2025-04-15,2025-04-15,ＣＵＤＡ　ＨＯＮＧ　ＫＯＮＧ　ＬＩＭＩＴＥＤ,,外国会社等,,,,,,,,ＵＮＩＴ３８０１，３８／Ｆ．ＴＯＷＥＲ　ＩＩ，ＭＥＴＲＯＰＬＡＺＡ，２２３　ＨＩＮＧ　ＦＯＮＧ　ＲＤ．，ＫＡＷＡＩ　ＣＨＵＮＧ，ＮＴ　香港,00138616,,,,,2025-04-15,1,,,,,クダホンコンリミテツド,0
1478,6010001253937,新規,0,2025-04-15,2025-04-15,長江実業株式会社,,株式会社,東京都,文京区,千石４丁目２６番２号ＳＡＮＳＡＮ千石ビル,,13,105,1120011,,,,,,,2025-04-15,1,,,,,チョウコウジツギョウ,0
1479,6010001254084,新規,0,2025-04-15,2025-04-15,株式会社トレジャーボート,,株式会社,東京都,中央区,日本橋浜町３丁目３４番５号２階,,13,102,1030007,,,,,,,2025-04-15,1,,,,,トレジャーボート,0
1480,6010001254183,新規,0,2025-04-15,2025-04-15,赫嘉株式会社,,株式会社,東京都,文京区,千石４丁目１４番９号,,13,105,1120011,,,,,,,2025-04-15,1,,,,,ヘルガ,0
1487,6010003047073,新規,0,2025-04-15,2025-04-15,マカロンＭＬ合同会社,,合同会社,東京都,千代田区,丸の内１丁目４番１号東京共同会計事務所内,,13,101,1000005,,,,,,,2025-04-15,1,,,,,マカロンエムエル,0
1488,6010003047081,新規,0,2025-04-15,2025-04-15,合同会社齋藤,,合同会社,東京都,千代田区,神田和泉町１番地６－１６ヤマトビル４０５,,13,101,1010024,,,,,,,2025-04-15,1,,,,,サイトウ,0
1490,6010005039878,新規,0,2025-04-15,2025-04-15,社会保険労務士法人第一綜合事務所,,その他の設立登記法人,東京都,中央区,日本橋１丁目２番１９号日本橋ファーストビル７階,,13,102,1030027,,,,,,,2025-04-15,1,,,,,ダイイチソウゴウジムショ,0
1491,6010005039903,新規,0,2025-04-15,2025-04-15,一般社団法人縁とゆかり,,その他の設立登記法人,東京都,中央区,銀座１丁目１２番４号Ｎ＆ＥＢＬＤ．６Ｆ,,13,102,1040061,,,,,,,2025-04-15,1,,,,,エントユカリ,0
1492,6010005039911,新規,0,2025-04-15,2025-04-15,Ａｒｃａｄｅ‐ＩＩ一般社団法人,,その他の設立登記法人,東京都,中央区,銀座１丁目６番１１号土志田ビルディング３Ｆ,,13,102,1040061,,,,,,,2025-04-15,1,,,,,アーケードツー,0
1505,6010601067068,新規,0,2025-04-15,2025-04-15,日本渤天株式会社,,株式会社,東京都,墨田区,両国１丁目１２番１２号塚田ビル３階,,13,107,1300026,,,,,,,2025-04-15,1,,,,,ニホンボツテン,0
1509,6010701047498,新規,0,2025-04-15,2025-04-15,株式会社Ｓｃａｒｌｅｔ,,株式会社,東京都,品川区,東中延１丁目９番地１３号,,13,109,1420052,,,,,,,2025-04-15,1,,,,,スカーレット,0
1511,6010803005346,新規,0,2025-04-15,2025-04-15,アミュレットプラス合同会社,,合同会社,東京都,大田区,田園調布１丁目５５―２０浅間ビル２１１号,,13,111,1450071,,,,,,,2025-04-15,1,,,,,アミュレットプラス,0
1512,6010901057181,新規,0,2025-04-15,2025-04-15,株式会社Ａｄｖａｎｃｅｄ　ＡＩ　Ｐａｒｔｎｅｒｓ,,株式会社,東京都,世田谷区,太子堂４丁目６－４アーバイル三軒茶屋１０２,,13,112,1540004,,,,,,,2025-04-15,1,,,,,アドバンスドエーアイパートナーズ,0
1520,6011001168844,新規,0,2025-04-15,2025-04-15,株式会社ＴＩＥＳ,,株式会社,東京都,渋谷区,神宮前４丁目４番１３号神宮前柴田ビル１階,,13,113,1500001,,,,,,,2025-04-15,1,,,,,タイズ,0
1521,6011001168860,新規,0,2025-04-15,2025-04-15,株式会社Ａｕｆｈｅｂｅｎ,,株式会社,東京都,渋谷区,千駄ヶ谷５丁目２７－３やまとビル８階,,13,113,1510051,,,,,,,2025-04-15,1,,,,,アウフヘーベン,0
1522,6011001168902,新規,0,2025-04-15,2025-04-15,株式会社ブループリント,,株式会社,東京都,渋谷区,円山町５番５号Ｎａｖｉ渋谷Ｖ３階,,13,113,1500044,,,,,,,2025-04-15,1,,,,,ブループリント,0
1524,6011003021258,新規,0,2025-04-15,2025-04-15,Ａｍｉｈａｎ　Ｅｎｔｅｒｔａｉｎｍｅｎｔ合同会社,,合同会社,東京都,渋谷区,千駄ヶ谷３丁目１１番８号（ＴＯＳグループ内）,,13,113,1510051,,,,,,,2025-04-15,1,,,,,アミハンエンターテイメント,0
1528,6011101111316,新規,0,2025-04-15,2025-04-15,株式会社ＤＯＴＯＲＩ,,株式会社,東京都,新宿区,大久保１丁目９番２６－２１０号,,13,104,1690072,,,,,,,2025-04-15,1,,,,,ドトリ,0
1529,6011101111398,新規,0,2025-04-15,2025-04-15,株式会社ＭＡＴＥＩ,,株式会社,東京都,新宿区,西新宿３丁目２番９号新宿ワシントンホテル本館２階,,13,104,1600023,,,,,,,2025-04-15,1,,,,,マテイ,0
1538,6011801045920,新規,0,2025-04-15,2025-04-15,株式会社仙波,,株式会社,東京都,足立区,千住橋戸町１－４－１３０７号,,13,121,1200038,,,,,,,2025-04-15,1,,,,,センバ,0
1546,6012803003701,新規,0,2025-04-15,2025-04-15,ＨａｒｕＮｅｓｔ合同会社,,合同会社,東京都,国立市,中１丁目４番地の３,,13,215,1860004,,,,,,,2025-04-15,1,,,,,ハルネスト,0
1547,6013105001872,新規,0,2025-04-15,2025-04-15,一般社団法人久保倶楽部,,その他の設立登記法人,東京都,あきる野市,小川５５５番１,,13,228,1970821,,,,,,,2025-04-15,1,,,,,クボクラブ,0
1552,6013301054088,新規,0,2025-04-15,2025-04-15,ＲｉＺｅｅ株式会社,,株式会社,東京都,豊島区,池袋２丁目４０番１３号,,13,116,1710014,,,,,,,2025-04-15,1,,,,,ライジー,0
1554,6013303007622,新規,0,2025-04-15,2025-04-15,ジャノンフレンドシップ合同会社,,合同会社,東京都,豊島区,東池袋１丁目３４番５号いちご東池袋ビル６階,,13,116,1700013,,,,,,,2025-04-15,1,,,,,ジャノンフレンドシップ,0
1561,6020001162360,新規,0,2025-04-15,2025-04-15,株式会社ねこまる,,株式会社,神奈川県,横浜市港北区,日吉本町１丁目３番４号たかせビル２０２,,14,109,2230062,,,,,,,2025-04-15,1,,,,,ネコマル,0
1562,6020001162369,新規,0,2025-04-15,2025-04-15,株式会社ＸＤ　Ｉｎｓｉｇｈｔｓ,,株式会社,神奈川県,川崎市高津区,溝口１丁目１４－８石原ビル１Ｆ,,14,134,2130001,,,,,,,2025-04-15,1,,,,,エックスディーインサイツ,0
1563,6020001162393,新規,0,2025-04-15,2025-04-15,エルビー・ジャパン株式会社,,株式会社,神奈川県,横浜市都筑区,早渕１丁目２６番７号,,14,118,2240025,,,,,,,2025-04-15,1,,,,,エルビージャパン,0
1571,6021003015861,新規,0,2025-04-15,2025-04-15,合同会社もみじ社,,合同会社,神奈川県,小田原市,南鴨宮２丁目２６番９号,,14,206,2500875,,,,,,,2025-04-15,1,,,,,モミジシャ,0
1585,6030005022130,新規,0,2025-04-15,2025-04-15,医療法人欣容会,,その他の設立登記法人,埼玉県,さいたま市南区,南浦和２丁目３８番６号草野ビル２０１号室,,11,108,3360017,,,,,,,2025-04-15,1,,,,,キンヨウカイ,0
1594,6040001138301,新規,0,2025-04-15,2025-04-15,株式会社サークルファーム,,株式会社,千葉県,茂原市,茂原６４７番地６２,,12,210,2970026,,,,,,,2025-04-15,1,,,,,サークルファーム,0
1595,6040001138326,新規,0,2025-04-15,2025-04-15,株式会社ＫＧテクニカルサービス,,株式会社,千葉県,船橋市,楠が山町２４８番地８,,12,204,2740055,,,,,,,2025-04-15,1,,,,,ケージーテクニカルサービス,0
1596,6040001138359,新規,0,2025-04-15,2025-04-15,株式会社美翔,,株式会社,千葉県,習志野市,谷津７丁目７番２６号,,12,216,2750026,,,,,,,2025-04-15,1,,,,,ビショウ,0
1604,6070001042847,新規,0,2025-04-15,2025-04-15,株式会社ＴＵＮＮＹ,,株式会社,群馬県,邑楽郡邑楽町,大字赤堀１３７０番地,,10,525,3700614,,,,,,,2025-04-15,1,,,,,タニー,0
1609,6080105006499,新規,0,2025-04-15,2025-04-15,富士駿河協同組合,,その他の設立登記法人,静岡県,沼津市,大岡字御所ヶ原３１３１番地の５中村マンション３０５号室,,22,203,4100022,,,,,,,2025-04-15,1,,,,,フジスルガ,0
1612,6090001019216,新規,0,2025-04-15,2025-04-15,Ａｎｄ　Ｈｅｒｉｔａｇｅ株式会社,,株式会社,山梨県,北杜市,明野町浅尾３１０９番地１,,19,209,4080201,,,,,,,2025-04-15,1,,,,,アンドヘリテージ,0
1615,6100003008090,新規,0,2025-04-15,2025-04-15,合同会社みやざわ,,合同会社,長野県,長野市,吉田２丁目４番４５号,,20,201,3810043,,,,,,,2025-04-15,1,,,,,ミヤザワ,0
1631,6120001274443,新規,0,2025-04-15,2025-04-15,ＭＹ‐Ｄｅｓｉｇｎｅｒ株式会社,,株式会社,大阪府,大阪市鶴見区,鶴見３丁目１２番１０－７０１号,,27,124,5380053,,,,,,,2025-04-15,1,,,,,マイデザイナー,0
1632,6120001274559,新規,0,2025-04-15,2025-04-15,＿游株式会社,00138773,株式会社,大阪府,大阪市都島区,内代町１丁目６－２４－３０２,,27,102,5340013,,,,,,,2025-04-15,1,,,,,エンユウ,0
1633,6120001274600,新規,0,2025-04-15,2025-04-15,雁之行株式会社,,株式会社,大阪府,大阪市生野区,田島５丁目１５番１７－１０３号,,27,116,5440011,,,,,,,2025-04-15,1,,,,,ガンノギョウ,0
1635,6120003029085,新規,0,2025-04-15,2025-04-15,ギブアンドサポート合同会社,,合同会社,大阪府,大阪市北区,梅田１丁目１－３大阪駅前第３ビル２９階１－１－１号室,,27,127,5300001,,,,,,,2025-04-15,1,,,,,ギブアンドサポート,0
1636,6120003029110,新規,0,2025-04-15,2025-04-15,合同会社ココモ,,合同会社,大阪府,大阪市福島区,吉野４丁目２９番２０－１３０１号,,27,103,5530006,,,,,,,2025-04-15,1,,,,,ココモ,0
1637,6120003029119,新規,0,2025-04-15,2025-04-15,合同会社ＳＥ,,合同会社,大阪府,大阪市淀川区,三津屋北１丁目６－３２,,27,123,5320032,,,,,,,2025-04-15,1,,,,,エスイー,0
1638,6120003029234,新規,0,2025-04-15,2025-04-15,マナティ合同会社,,合同会社,大阪府,大阪市中央区,内本町１丁目３‐９内本町中央ビル６０３,,27,128,5400026,,,,,,,2025-04-15,1,,,,,マナティ,0
1645,6120901050737,新規,0,2025-04-15,2025-04-15,Ｍ＆Ｊ株式会社,,株式会社,大阪府,吹田市,広芝町２３番２１ファーストステージ江坂広芝町６０１,,27,205,5640052,,,,,,,2025-04-15,1,,,,,エムアンドジェイ,0
1647,6122001039099,新規,0,2025-04-15,2025-04-15,株式会社ＳＫ,,株式会社,大阪府,東大阪市,川田４丁目１番１３号,,27,227,5780905,,,,,,,2025-04-15,1,,,,,エスケイ,0
1648,6130001079437,新規,0,2025-04-15,2025-04-15,株式会社のびしろ,,株式会社,京都府,京都市下京区,七条通油小路東入大黒町２２７番地第２キョートビル４０２,,26,106,6008223,,,,,,,2025-04-15,1,,,,,ノビシロ,0
1650,6130003010374,新規,0,2025-04-15,2025-04-15,合同会社縁,,合同会社,京都府,京都市右京区,西院乾町５番地,,26,108,6150061,,,,,,,2025-04-15,1,,,,,エン,0
1660,6140001138183,新規,0,2025-04-15,2025-04-15,Ｍａｂｉｍｍ　Ｔｅｃｈ株式会社,,株式会社,兵庫県,尼崎市,久々知１丁目９番８号１階,,28,202,6610977,,,,,,,2025-04-15,1,,,,,マビムテック,0
1661,6140001138191,新規,0,2025-04-15,2025-04-15,株式会社Ａｊ‐ｓｋｙ,,株式会社,兵庫県,神戸市東灘区,向洋町中１丁目１０番地１０１号棟３５０６号室,,28,101,6580032,,,,,,,2025-04-15,1,,,,,エージェイスカイ,0
1667,6140003021916,新規,0,2025-04-15,2025-04-15,合同会社ＳＩＭＡてらす,,合同会社,兵庫県,南あわじ市,市徳長１７０番地,,28,224,6560477,,,,,,,2025-04-15,1,,,,,シマテラス,0
1668,6140003021932,新規,0,2025-04-15,2025-04-15,カシア化技合同会社,,合同会社,兵庫県,明石市,朝霧南町２丁目９番２７号,,28,203,6730870,,,,,,,2025-04-15,1,,,,,カシアカギ,0
1670,6150001028037,新規,0,2025-04-15,2025-04-15,株式会社Ｒｉｃｋｅｒ’ｓ,,株式会社,奈良県,大和郡山市,池之内町４４７番地５,,29,203,6391027,,,,,,,2025-04-15,1,,,,,リッカーズ,0
1688,6180001166214,新規,0,2025-04-15,2025-04-15,株式会社ゲオアミューズメント,,株式会社,愛知県,名古屋市中区,富士見町８番８号,,23,106,4600014,,,,,,,2025-04-15,1,,,,,ゲオアミューズメント,0
1689,6180001166263,新規,0,2025-04-15,2025-04-15,アズテック建築Ｌａｂ．株式会社,,株式会社,愛知県,日進市,岩崎台３丁目１２０９番地,,23,230,4700135,,,,,,,2025-04-15,1,,,,,アズテックケンチクラボドット,0
1690,6180001166420,新規,0,2025-04-15,2025-04-15,株式会社ｉａｋｋ,,株式会社,愛知県,春日井市,高蔵寺町３丁目１－１高蔵寺ビル１０１,,23,206,4870013,,,,,,,2025-04-15,1,,,,,イアック,0
1695,6180005021051,新規,0,2025-04-15,2025-04-15,特定非営利活動法人こえる,,その他の設立登記法人,愛知県,名古屋市中区,橘１丁目２４番２号,,23,106,4600016,,,,,,,2025-04-15,1,,,,,コエル,0
1700,6190001032142,新規,0,2025-04-15,2025-04-15,株式会社ＲＯＡＤ　ＡＮＤ　ＳＫＹ,,株式会社,三重県,名張市,桔梗が丘５番町２－６,,24,208,5180625,,,,,,,2025-04-15,1,,,,,ロードアンドスカイ,0
1701,6190005012041,新規,0,2025-04-15,2025-04-15,特定非営利活動法人ミライエ,,その他の設立登記法人,三重県,松阪市,久保町７５７番地６,,24,204,5150044,,,,,,,2025-04-15,1,,,,,ミライエ,0
1710,6240003007145,新規,0,2025-04-15,2025-04-15,合同会社ＳＵＮ,,合同会社,広島県,広島市安佐南区,大塚西６丁目１４番－２－３０６号,,34,105,7313167,,,,,,,2025-04-15,1,,,,,サン,0
1711,6250001021097,新規,0,2025-04-15,2025-04-15,株式会社共心,,株式会社,山口県,山陽小野田市,大字有帆５８８番地１,,35,216,7560038,,,,,,,2025-04-15,1,,,,,キョウシン,0
1722,6290001109698,新規,0,2025-04-15,2025-04-15,株式会社うるるん不動産,,株式会社,福岡県,久留米市,荒木町荒木８５５番地１７,,40,203,8300063,,,,,,,2025-04-15,1,,,,,ウルルンフドウサン,0
1725,6290003016678,新規,0,2025-04-15,2025-04-15,来進合同会社,,合同会社,福岡県,福津市,中央３丁目１番１号,,40,224,8113217,,,,,,,2025-04-15,1,,,,,ライシン,0
1726,6290003016686,新規,0,2025-04-15,2025-04-15,合同会社ひなた,,合同会社,福岡県,嘉麻市,鴨生８０２番地１２,,40,227,8200206,,,,,,,2025-04-15,1,,,,,ヒナタ,0
1741,6330003010940,新規,0,2025-04-15,2025-04-15,Ｒａｄｉａｎｔ合同会社,,合同会社,熊本県,人吉市,西間下町１０５１－８,,43,203,8680072,,,,,,,2025-04-15,1,,,,,ラディアント,0
1742,6330003010949,新規,0,2025-04-15,2025-04-15,Ｉｖｅｒ　ｗｏｒｋｓ　ｇｒｏｕｐ合同会社,,合同会社,熊本県,熊本市東区,若葉６丁目１２番８３－１０号シャーメゾンＲｏｃｋＦｉｅｌｄ１０２,,43,102,8612103,,,,,,,2025-04-15,1,,,,,アイバーワークスグループ,0
1750,6350001019486,新規,0,2025-04-15,2025-04-15,エムズシステム株式会社,,株式会社,宮崎県,宮崎市,東大宮４丁目６－３１－５,,45,201,8800825,,,,,,,2025-04-15,1,,,,,エムズシステム,0
1753,6360003014848,新規,0,2025-04-15,2025-04-15,合同会社ＷＡＮＩＬＵ,,合同会社,沖縄県,那覇市,久茂地３丁目２６－３２ＹＳＣビル２０２,,47,201,9000015,,,,,,,2025-04-15,1,,,,,ワンイル,0
1766,6420003003101,新規,0,2025-04-15,2025-04-15,合同会社ｇｌｉｓ,,合同会社,青森県,青森市,浜館３丁目７番地２０,,02,201,0300947,,,,,,,2025-04-15,1,,,,,グリス,0
1771,6430001094109,新規,0,2025-04-15,2025-04-15,株式会社維采,,株式会社,北海道,札幌市中央区,南六条西４丁目４番地１,,01,101,0640806,,,,,,,2025-04-15,1,,,,,イト,0
1772,6430001094190,新規,0,2025-04-15,2025-04-15,株式会社ヒスイ,,株式会社,北海道,恵庭市,相生町１丁目６番１２号,,01,231,0611448,,,,,,,2025-04-15,1,,,,,ヒスイ,0
1776,6450003002637,新規,0,2025-04-15,2025-04-15,合同会社Ｏｃｅａｎ,,合同会社,北海道,旭川市,五条通１１丁目１４３７号シュロス五条一階,,01,204,0700035,,,,,,,2025-04-15,1,,,,,,0
1783,6490001011017,新規,0,2025-04-15,2025-04-15,株式会社ＩｎｆｒａＷａｌｋ,,株式会社,高知県,香南市,野市町東野３５８番地１７,,39,211,7815213,,,,,,,2025-04-15,1,,,,,インフラウォーク,0
1784,6500001026236,新規,0,2025-04-15,2025-04-15,株式会社ＩＦＣＯ,,株式会社,愛媛県,松山市,鷹子町５５１－１,,38,201,7900925,,,,,,,2025-04-15,1,,,,,イフコ,0
1786,6700150129950,新規,0,2025-04-15,2025-04-15,ＳＵＰＥＲＢ　ＡＣＥ　ＬＩＭＩＴＥＤ,,外国会社等,,,,,,,,Ｖｉｓｔｒａ　Ｃｏｒｐｏｒａｔｅ　Ｓｅｒｖｉｃｅｓ　Ｃｅｎｔｒｅ，Ｗｉｃｋｈａｍｓ　Ｃａｙ　ＩＩ，Ｒｏａｄ　Ｔｏｗｎ，Ｔｏｒｔｏｌａ，ＶＧ１１１０，Ｂｒｉｔｉｓｈ　Ｖｉｒｇｉｎ　Ｉｓｌａｎｄｓ．,00138596,,,,,2025-04-15,1,,,,,サパーブエースリミテツド,0
1799,7010001253597,新規,0,2025-04-15,2025-04-15,Ｄｉｓｓｅｔｅｃｈ株式会社,,株式会社,東京都,文京区,小石川１丁目３番１１号ライジングプラザ後楽園７階,,13,105,1120002,,,,,,,2025-04-15,1,,,,,ディセテック,0
1800,7010001254166,新規,0,2025-04-15,2025-04-15,Ｃａｔａｒｉｓ株式会社,,株式会社,東京都,千代田区,神田和泉町１－６－１６ヤマトビル４０５,,13,101,1010024,,,,,,,2025-04-15,1,,,,,カタリス,0
1801,7010001254174,新規,0,2025-04-15,2025-04-15,Ｃｏｎｃｅｎｔｒｉｃ株式会社,,株式会社,東京都,千代田区,神田須田町２丁目３－１２,,13,101,1010041,,,,,,,2025-04-15,1,,,,,セントリック,0
1802,7010001254182,新規,0,2025-04-15,2025-04-15,ＵＮＳＨＯＤ株式会社,,株式会社,東京都,千代田区,神田神保町２丁目３４番１鳴海ビル２２１号室,,13,101,1010051,,,,,,,2025-04-15,1,,,,,アンショッド,0
1805,7010103002555,新規,0,2025-04-15,2025-04-15,生きもの語り合同会社,,合同会社,東京都,八王子市,鑓水２丁目８３番地２－１０２,,13,201,1920375,,,,,,,2025-04-15,1,,,,,イキモノガタリ,0
1815,7010601067042,新規,0,2025-04-15,2025-04-15,欧妃娜株式会社,,株式会社,東京都,墨田区,向島３丁目３６－１３,,13,107,1310033,,,,,,,2025-04-15,1,,,,,オウヒナカ,0
1816,7010601067133,新規,0,2025-04-15,2025-04-15,以太株式会社,,株式会社,東京都,江東区,亀戸３丁目６２番１０号ＳＡＮビル５０３号室,,13,108,1360071,,,,,,,2025-04-15,1,,,,,イタイ,0
1818,7010701047514,新規,0,2025-04-15,2025-04-15,株式会社Ｂｕｌｌ　Ｓｔａｇｅ,,株式会社,東京都,品川区,小山４丁目４番７号ＢＰＲプレイス武蔵小山８Ｆ,,13,109,1420062,,,,,,,2025-04-15,1,,,,,ブルステージ,0
1820,7010703007664,新規,0,2025-04-15,2025-04-15,合同会社サムライユニット,,合同会社,東京都,品川区,東品川２丁目２番２５号サンウッド品川天王洲タワー２階,,13,109,1400002,,,,,,,2025-04-15,1,,,,,サムライユニット,0
1822,7010801036012,新規,0,2025-04-15,2025-04-15,株式会社ぴの,,株式会社,東京都,大田区,東雪谷５丁目２番１４号,,13,111,1450065,,,,,,,2025-04-15,1,,,,,ピノ,0
1823,7010801036053,新規,0,2025-04-15,2025-04-15,株式会社ＤｒｅａＭ　Ｃａｒｅ,,株式会社,東京都,大田区,西蒲田７丁目６７－２－２Ｆ,,13,111,1440051,,,,,,,2025-04-15,1,,,,,ドリームケア,0
1829,7010901057180,新規,0,2025-04-15,2025-04-15,株式会社ＭＯＮＯＬＩＴＨ,,株式会社,東京都,世田谷区,三宿１丁目１０番２２号,,13,112,1540005,,,,,,,2025-04-15,1,,,,,モノリス,0
1835,7011001168983,新規,0,2025-04-15,2025-04-15,Ｆｒｅｅｖａｔｅ株式会社,,株式会社,東京都,渋谷区,上原１丁目３－９,,13,113,1510064,,,,,,,2025-04-15,1,,,,,フリーベイト,0
1838,7011003021059,新規,0,2025-04-15,2025-04-15,Ｋｅｙ　Ｐｏｉｎｔ　Ｒｅｓｅａｒｃｈ　Ｃａｐｉｔａｌ　Ｍａｎａｇｅｍｅｎｔ合同会社,,合同会社,東京都,渋谷区,道玄坂１丁目１６－６二葉ビル８ｂ,,13,113,1500043,,,,,,,2025-04-15,1,,,,,キーポイントリサーチキャピタルマネジメント,0
1845,7011101111323,新規,0,2025-04-15,2025-04-15,株式会社ＢＡＮＺＡＩ　ＰＡＲＴＮＥＲＳ,,株式会社,東京都,新宿区,西新宿３丁目３番１３号西新宿水間ビル６階,,13,104,1600023,,,,,,,2025-04-15,1,,,,,バンザイパートナーズ,0
1850,7011501031922,新規,0,2025-04-15,2025-04-15,株式会社ＪＰ　ｃｏｒｐｏｒａｔｉｏｎ,,株式会社,東京都,北区,中里３丁目１８番２－５０１号,,13,117,1140015,,,,,,,2025-04-15,1,,,,,ジェイピーコーポレーション,0
1854,7012401042992,新規,0,2025-04-15,2025-04-15,株式会社ＩＢＬＥ,,株式会社,東京都,府中市,住吉町２丁目２４－５１,,13,206,1830034,,,,,,,2025-04-15,1,,,,,イブル,0
1856,7012703003239,新規,0,2025-04-15,2025-04-15,合同会社マルシェクーベル,,合同会社,東京都,東久留米市,氷川台２丁目３６番９号,,13,222,2030004,,,,,,,2025-04-15,1,,,,,マルシェクーベル,0
1860,7013301054087,新規,0,2025-04-15,2025-04-15,Ｄｅｘｉｔ株式会社,,株式会社,東京都,豊島区,池袋２丁目４０番１３号,,13,116,1710014,,,,,,,2025-04-15,1,,,,,デグジット,0
1868,7020001162368,新規,0,2025-04-15,2025-04-15,株式会社コーエイ住建,,株式会社,神奈川県,横浜市戸塚区,原宿３丁目５７番２－９－２０１号,,14,110,2450063,,,,,,,2025-04-15,1,,,,,コーエイジュウケン,0
1869,7020001162401,新規,0,2025-04-15,2025-04-15,株式会社ＣＡＲＥＥＲ　ＪＡＰＡＮ,,株式会社,神奈川県,横浜市港北区,日吉本町１丁目３－６,,14,109,2230062,,,,,,,2025-04-15,1,,,,,キャリアジャパン,0
1871,7020005016801,新規,0,2025-04-15,2025-04-15,一般社団法人神奈川県剣道連盟,,その他の設立登記法人,神奈川県,横浜市神奈川区,鶴屋町２丁目１７番地１相鉄・岩崎学園ビル３０７号,,14,102,2210835,,,,,,,2025-04-15,1,,,,,カナガワケンケンドウレンメイ,0
1875,7021003015860,新規,0,2025-04-15,2025-04-15,テクノティップ合同会社,,合同会社,神奈川県,藤沢市,湘南台１丁目３―１―４０７,,14,205,2520804,,,,,,,2025-04-15,1,,,,,テクノティップ,0
1878,7021005013342,新規,0,2025-04-15,2025-04-15,特定非営利活動法人ＦＣ津久井ペガサス,,その他の設立登記法人,神奈川県,横須賀市,グリーンハイツ１番３‐４０２号,,14,201,2390846,,,,,,,2025-04-15,1,,,,,エフシーツクイペガサス,0
1893,7040001138275,新規,0,2025-04-15,2025-04-15,エスプラス株式会社,,株式会社,千葉県,船橋市,緑台２丁目６番１－Ｒ１０,,12,204,2740818,,,,,,,2025-04-15,1,,,,,エスプラス,0
1894,7040001138300,新規,0,2025-04-15,2025-04-15,株式会社Ｓｕｎ　ｓｅｔ,,株式会社,千葉県,松戸市,松戸新田３番地の３ゼファーヒルズ松戸フィオリーナ６２３号,,12,207,2702241,,,,,,,2025-04-15,1,,,,,サンセット,0
1895,7040001138309,新規,0,2025-04-15,2025-04-15,株式会社ｍｅｍｏｒｉＡＺ,,株式会社,千葉県,印西市,草深１１３７－２階,,12,231,2701337,,,,,,,2025-04-15,1,,,,,メモリアズ,0
1896,7040001138317,新規,0,2025-04-15,2025-04-15,株式会社コミュニケーションサービス,,株式会社,千葉県,船橋市,上山町１丁目１４２－２,,12,204,2730046,,,,,,,2025-04-15,1,,,,,コミュニケーションサービス,0
1897,7040003027113,新規,0,2025-04-15,2025-04-15,合同会社スマートグリーンリンク,,合同会社,千葉県,長生郡一宮町,東浪見５３５４－９,,12,421,2994303,,,,,,,2025-04-15,1,,,,,スマートグリーンリンク,0
1898,7040003027352,新規,0,2025-04-15,2025-04-15,合同会社モルトフェリーチェ,,合同会社,千葉県,柏市,根戸４７１番地１１,,12,217,2770831,,,,,,,2025-04-15,1,,,,,モルトフェリーチェ,0
1899,7040003027360,新規,0,2025-04-15,2025-04-15,Ｕｎｉｖｅｒｓａｌ　Ｇｒｉｎ合同会社,,合同会社,千葉県,浦安市,北栄１丁目１０番２０－８０３号プラウド浦安,,12,227,2790002,,,,,,,2025-04-15,1,,,,,ユニバーサルグリン,0
1901,7040005022723,新規,0,2025-04-15,2025-04-15,一般社団法人エコール・たちばな,,その他の設立登記法人,千葉県,市川市,南八幡４丁目４番１６号ライオンズマンション市川第５、１０１号室,,12,203,2720023,,,,,,,2025-04-15,1,,,,,エコールタチバナ,0
1904,7050001056501,新規,0,2025-04-15,2025-04-15,正大商事株式会社,,株式会社,茨城県,行方市,芹沢８１６番地２,,08,233,3113501,,,,,,,2025-04-15,1,,,,,ショウダイショウジ,0
1905,7050005013606,新規,0,2025-04-15,2025-04-15,一般社団法人大子町観光協会,,その他の設立登記法人,茨城県,久慈郡大子町,大字大子７２２番地１,,08,364,3193526,,,,,,,2025-04-15,1,,,,,ダイゴマチカンコウキョウカイ,0
1909,7060001038102,新規,0,2025-04-15,2025-04-15,株式会社アイ・エス・エス,,株式会社,栃木県,鹿沼市,東町３丁目２番１６号,,09,205,3220022,,,,,,,2025-04-15,1,,,,,アイエスエス,0
1920,7070005010378,新規,0,2025-04-15,2025-04-15,ＮＰＯ法人てんとうむし,,その他の設立登記法人,群馬県,伊勢崎市,境伊与久１２９７番地１,,10,204,3700105,,,,,,,2025-04-15,1,,,,,テントウムシ,0
1927,7100001038510,新規,0,2025-04-15,2025-04-15,株式会社好日,,株式会社,長野県,下高井郡野沢温泉村,大字豊郷９４１８番地４,,20,563,3892502,,,,,,,2025-04-15,1,,,,,コウジツ,0
1937,7120001274418,新規,0,2025-04-15,2025-04-15,タット・プラン持株株式会社,,株式会社,大阪府,大阪市西区,江戸堀１丁目２４番１５号,,27,106,5500002,,,,,,,2025-04-15,1,,,,,タットプランモチカブ,0
1938,7120001274475,新規,0,2025-04-15,2025-04-15,株式会社アイリバー,,株式会社,大阪府,大阪市西成区,岸里東２丁目９番２－３０１号,,27,122,5570042,,,,,,,2025-04-15,1,,,,,アイリバー,0
1939,7120001274483,新規,0,2025-04-15,2025-04-15,株式会社Ｄｒ．ｃｏｍｉｎｇ,,株式会社,大阪府,大阪市鶴見区,諸口３丁目３番５２号,,27,124,5380051,,,,,,,2025-04-15,1,,,,,ドクターカミング,0
1940,7120001274525,新規,0,2025-04-15,2025-04-15,株式会社Ｓｔｏｃｋ＆Ｆｌｏｗ　Ｍａｎａｇｅｍｅｎｔ,,株式会社,大阪府,大阪市北区,梅田１丁目２番２号大阪駅前第２ビル１２－１２,,27,127,5300001,,,,,,,2025-04-15,1,,,,,ストックアンドフローマネジメント,0
1941,7120001274632,新規,0,2025-04-15,2025-04-15,株式会社万代技研,,株式会社,大阪府,大阪市住吉区,墨江３丁目２３番６号,,27,120,5580043,,,,,,,2025-04-15,1,,,,,マンダイギケン,0
1942,7120001274649,新規,0,2025-04-15,2025-04-15,ＬＩＢ株式会社,,株式会社,大阪府,枚方市,上野２丁目４番１－６１２号,,27,210,5731175,,,,,,,2025-04-15,1,,,,,リブ,0
1943,7120001274673,新規,0,2025-04-15,2025-04-15,株式会社和順達,,株式会社,大阪府,大阪市中央区,南船場１丁目３－９ＴＡＢＩＹＡＤＯＢＬＤＧ７０２,,27,128,5420081,,,,,,,2025-04-15,1,,,,,ワジュンタツ,0
1944,7120001274987,新規,0,2025-04-15,2025-04-15,株式会社アクセプトオール,,株式会社,大阪府,大阪市中央区,上町Ｂ８クリエイト上町１０階,,27,128,5400005,,,,,,,2025-04-15,1,,,,,アクセプトオール,0
1953,7130001079428,新規,0,2025-04-15,2025-04-15,株式会社近畿メタル,,株式会社,京都府,福知山市,字土師２３６番地の４０,,26,201,6200857,,,,,,,2025-04-15,1,,,,,キンキメタル,0
1964,7140001138141,新規,0,2025-04-15,2025-04-15,株式会社采苑,,株式会社,兵庫県,姫路市,元町６１番地５パレシェーヌデクールＩ２０１号,00138778,28,201,6700049,,,,,,,2025-04-15,1,,,,,ソウエン,0
1987,7180001166213,新規,0,2025-04-15,2025-04-15,株式会社ゲオコネクト,,株式会社,愛知県,名古屋市中区,富士見町８番８号,,23,106,4600014,,,,,,,2025-04-15,1,,,,,ゲオコネクト,0
1988,7180001166394,新規,0,2025-04-15,2025-04-15,ＭｏＡｌｉｇｎｓ株式会社,,株式会社,愛知県,清須市,須ケ口２２２９番地,,23,233,4520905,,,,,,,2025-04-15,1,,,,,モアラインズ,0
1989,7180001166411,新規,0,2025-04-15,2025-04-15,ＧｌｏｂａｌＫｅｙ株式会社,,株式会社,愛知県,名古屋市西区,牛島町６番１号名古屋ルーセントタワー４０階,,23,104,4510046,,,,,,,2025-04-15,1,,,,,グローバルキー,0
1993,7180005021059,新規,0,2025-04-15,2025-04-15,一般社団法人ＷｉＴ　ＪＡＰＡＮ,,その他の設立登記法人,愛知県,名古屋市南区,北頭町３丁目１９番地,,23,112,4570827,,,,,,,2025-04-15,1,,,,,ヴィットジャパン,0
2006,7200005013747,新規,0,2025-04-15,2025-04-15,一般社団法人オリーブビーイング,,その他の設立登記法人,岐阜県,岐阜市,今沢町１３番地,,21,201,5008822,,,,,,,2025-04-15,1,,,,,オリーブビーイング,0
2008,7210001020135,新規,0,2025-04-15,2025-04-15,アルク株式会社,,株式会社,福井県,福井市,宝永４丁目３－１,,18,201,9100004,,,,,,,2025-04-15,1,,,,,アルク,0
2010,7220001026610,新規,0,2025-04-15,2025-04-15,株式会社ＪＩＮＧＵ,,株式会社,石川県,金沢市,示野町リ７１番地３,,17,201,9200059,,,,,,,2025-04-15,1,,,,,ジングウ,0
2013,7230003002410,新規,0,2025-04-15,2025-04-15,イノブライト合同会社,,合同会社,富山県,高岡市,昭和町２丁目３番８号,,16,202,9330946,,,,,,,2025-04-15,1,,,,,イノブライト,0
2014,7230005009461,新規,0,2025-04-15,2025-04-15,医療法人社団慶悠会,,その他の設立登記法人,富山県,富山市,花園町３丁目６－２７オーラム花園Ｉ－１０６,00138774,16,201,9398201,,,,,,,2025-04-15,1,,,,,ケイユウカイ,0
2022,7250003003695,新規,0,2025-04-15,2025-04-15,合同会社ＫＯＭＯファッション,,合同会社,山口県,山口市,米屋町２番１３－９０１号プライムマークス,,35,203,7530087,,,,,,,2025-04-15,1,,,,,,0
2030,7290001109689,新規,0,2025-04-15,2025-04-15,株式会社ＣｈｕＣｈａｎ,,株式会社,福岡県,福岡市博多区,博多駅前１丁目２３番２号ＰａｒｋＦｒｏｎｔ博多駅前一丁目５Ｆ－Ｂ,,40,132,8120011,,,,,,,2025-04-15,1,,,,,チュチャン,0
2031,7290001109697,新規,0,2025-04-15,2025-04-15,株式会社嘉登美,,株式会社,福岡県,福岡市中央区,天神２丁目５番２８号,,40,133,8100001,,,,,,,2025-04-15,1,,,,,カドミ,0
2032,7290001109714,新規,0,2025-04-15,2025-04-15,株式会社彦沢,,株式会社,福岡県,福岡市博多区,博多駅前３丁目９番５－８１２号チサンマンション第一博多,,40,132,8120011,,,,,,,2025-04-15,1,,,,,ヒコザワ,0
2036,7290003016685,新規,0,2025-04-15,2025-04-15,合同会社紗和,,合同会社,福岡県,福岡市中央区,薬院２丁目５番１２－８０１号,,40,133,8100022,,,,,,,2025-04-15,1,,,,,サワ,0
2055,7350001019485,新規,0,2025-04-15,2025-04-15,株式会社ＭＴＷ,,株式会社,宮崎県,宮崎市,神宮東２丁目１３番２７号,,45,201,8800056,,,,,,,2025-04-15,1,,,,,エムティーダブリュー,0
2057,7350003004907,新規,0,2025-04-15,2025-04-15,合同会社工房兼基,,合同会社,宮崎県,東諸県郡綾町,大字入野４１５５番地１,,45,383,8801301,,,,,,,2025-04-15,1,,,,,コウボウカネモト,0
2061,7360001035052,新規,0,2025-04-15,2025-04-15,株式会社ＡＮＧＡＴＥ,,株式会社,沖縄県,糸満市,字小波蔵９５番地,,47,210,9010341,,,,,,,2025-04-15,1,,,,,アンゲート,0
2063,7360005007213,新規,0,2025-04-15,2025-04-15,医療法人審美会,,その他の設立登記法人,沖縄県,島尻郡八重瀬町,字東風平１２００番地５,,47,362,9010401,,,,,,,2025-04-15,1,,,,,シンビカイ,0
2064,7370003007040,新規,0,2025-04-15,2025-04-15,Ｒｈｉｎｏ合同会社,,合同会社,宮城県,仙台市若林区,一本杉町４－２２,,04,103,9840828,,,,,,,2025-04-15,1,,,,,ライノ,0
2068,7380001035232,新規,0,2025-04-15,2025-04-15,株式会社いきがい,,株式会社,福島県,福島市,野田町１丁目４番３号,,07,201,9608055,,,,,,,2025-04-15,1,,,,,イキガイ,0
2074,7400001017005,新規,0,2025-04-15,2025-04-15,株式会社ＧＣ,,株式会社,岩手県,遠野市,小友町４６地割４９番地１,,03,208,0280481,,,,,,,2025-04-15,1,,,,,ジーシー,0
2076,7400003003432,新規,0,2025-04-15,2025-04-15,合同会社ビデルジャジャパン,,合同会社,岩手県,八幡平市,平舘１１－１０－１０,,03,214,0287405,,,,,,,2025-04-15,1,,,,,ビデルジャジャパン,0
2086,7430001094108,新規,0,2025-04-15,2025-04-15,株式会社うたはら,,株式会社,北海道,札幌市中央区,伏見３丁目１８番１０号,,01,101,0640942,,,,,,,2025-04-15,1,,,,,ウタハラ,0
2087,7430001094173,新規,0,2025-04-15,2025-04-15,株式会社ＬＩＦＩＸ,,株式会社,北海道,石狩郡当別町,獅子内２２２７番地１８２,,01,303,0613772,,,,,,,2025-04-15,1,,,,,リフィックス,0
2088,7430001094181,新規,0,2025-04-15,2025-04-15,大原ハウス株式会社,,株式会社,北海道,札幌市豊平区,平岸三条１７丁目３番４５号,,01,105,0620933,,,,,,,2025-04-15,1,,,,,オオハラハウス,0
2090,7430003017479,新規,0,2025-04-15,2025-04-15,合同会社Ｐｒｅｃｉｏｕｓ　Ｃｌｕｂ　ＨＯＫＫＡＩＤＯ,,合同会社,北海道,札幌市中央区,南一条西２２丁目２番１１号,,01,101,0640801,,,,,,,2025-04-15,1,,,,,プレシャスクラブホッカイドウ,0
2091,7430003017529,新規,0,2025-04-15,2025-04-15,合同会社ワイルズ,,合同会社,北海道,苫小牧市,字錦岡４２番１号,,01,213,0591275,,,,,,,2025-04-15,1,,,,,ワイルズ,0
2114,8010001253794,新規,0,2025-04-15,2025-04-15,日総ビルディング株式会社,,株式会社,東京都,中央区,銀座５丁目１１番１２号,,13,102,1040061,,,,,,,2025-04-15,1,,,,,ニッソウビルディング,0
2115,8010001254108,新規,0,2025-04-15,2025-04-15,三水株式会社,,株式会社,東京都,中央区,銀座８丁目８番９号,,13,102,1040061,,,,,,,2025-04-15,1,,,,,ミツミズ,0
2116,8010001254149,新規,0,2025-04-15,2025-04-15,ＭＩＴガエア２エネルギー開発株式会社,,株式会社,東京都,千代田区,大手町１丁目２番１号,,13,101,1000004,,,,,,,2025-04-15,1,,,,,ミットガエアツーエネルギーカイハツ,0
2117,8010001254173,新規,0,2025-04-15,2025-04-15,Ｎ‐Ｂｒｉｄｇｅ　Ｊａｐａｎ株式会社,,株式会社,東京都,千代田区,丸の内１丁目８－３丸の内トラストタワー本館２０階,,13,101,1000005,,,,,,,2025-04-15,1,,,,,エヌブリッジジャパン,0
2118,8010001254181,新規,0,2025-04-15,2025-04-15,株式会社ＴＡＳＴＥＣＨ,,株式会社,東京都,中央区,銀座１丁目１２番４号Ｎ＆ＥＢＬＤ．６Ｆ,,13,102,1040061,,,,,,,2025-04-15,1,,,,,タステック,0
2119,8010003047030,新規,0,2025-04-15,2025-04-15,合同会社ＳＷＫ,,合同会社,東京都,中央区,勝どき４丁目６番１－２６０３号,,13,102,1040054,,,,,,,2025-04-15,1,,,,,エスダブリューケー,0
2120,8010003047055,新規,0,2025-04-15,2025-04-15,合同会社ＧＴＦａｓｉａ,,合同会社,東京都,中央区,日本橋室町１丁目２番６号日本橋大栄ビル７階,,13,102,1030022,,,,,,,2025-04-15,1,,,,,ジーティーエフアジア,0
2121,8010003047071,新規,0,2025-04-15,2025-04-15,メディアルク合同会社,,合同会社,東京都,千代田区,外神田２丁目５番９－５０１号,,13,101,1010021,,,,,,,2025-04-15,1,,,,,,0
2131,8010401189721,新規,0,2025-04-15,2025-04-15,株式会社蟹を,,株式会社,東京都,港区,六本木７丁目９番４号六本木Ｈビル,,13,103,1060032,,,,,,,2025-04-15,1,,,,,カニオ,0
2132,8010403034850,新規,0,2025-04-15,2025-04-15,羽幌オロロン太陽光発電所合同会社,,合同会社,東京都,港区,港南２丁目１６番４号品川グランドセントラルタワー,,13,103,1080075,,,,,,,2025-04-15,1,,,,,ハボロオロロンタイヨウコウハツデンショ,0
2137,8010601067099,新規,0,2025-04-15,2025-04-15,株式会社ＳＵＭＯＬＡＮＤ,,株式会社,東京都,墨田区,両国４丁目３２番１９号,,13,107,1300026,,,,,,,2025-04-15,1,,,,,スモウランド,0
2138,8010601067116,新規,0,2025-04-15,2025-04-15,恒昇栄順株式会社,,株式会社,東京都,江東区,亀戸３丁目６２番１０号ＳＡＮビル５０１号室,,13,108,1360071,,,,,,,2025-04-15,1,,,,,コウショウエイジュン,0
2142,8010703007671,新規,0,2025-04-15,2025-04-15,ちくさ合同会社,,合同会社,東京都,品川区,上大崎３丁目１番１号目黒セントラルスクエア１５階,,13,109,1410021,,,,,,,2025-04-15,1,,,,,チクサ,0
2151,8010901057171,新規,0,2025-04-15,2025-04-15,株式会社Ｌｉｖ　Ｅｓｔａｔｅ,,株式会社,東京都,世田谷区,梅丘２丁目２３－１９コーポミサキ２０７,,13,112,1540022,,,,,,,2025-04-15,1,,,,,リブエステート,0
2161,8011001168891,新規,0,2025-04-15,2025-04-15,株式会社ＲＥＮＡＲＤ,,株式会社,東京都,渋谷区,神山町１６－４ヴィラ・メトロポリス１Ｆ,,13,113,1500047,,,,,,,2025-04-15,1,,,,,レナード,0
2162,8011001168925,新規,0,2025-04-15,2025-04-15,株式会社ＢＯＮＯＢＯ．,,株式会社,東京都,渋谷区,神宮前２丁目６－６秀和外苑レジデンス６０４,,13,113,1500001,,,,,,,2025-04-15,1,,,,,ボノボ,0
2163,8011003021347,新規,0,2025-04-15,2025-04-15,亀仙人合同会社,,合同会社,東京都,渋谷区,恵比寿南３丁目１番２４－６０１号,,13,113,1500022,,,,,,,2025-04-15,1,,,,,カメセンニン,0
2165,8011101111306,新規,0,2025-04-15,2025-04-15,株式会社晃,,株式会社,東京都,新宿区,西新宿３丁目１４番１８号,,13,104,1600023,,,,,,,2025-04-15,1,,,,,アキラ,0
2166,8011101111339,新規,0,2025-04-15,2025-04-15,株式会社ナチュリア,,株式会社,東京都,新宿区,西新宿３丁目７番１号新宿パークタワー６階,,13,104,1600023,,,,,,,2025-04-15,1,,,,,ナチュリア,0
2168,8011103015777,新規,0,2025-04-15,2025-04-15,蓮合同会社,,合同会社,東京都,新宿区,舟町７番地１３イプセ四谷三丁目１０５,,13,104,1600006,,,,,,,2025-04-15,1,,,,,レン,0
2174,8011403004661,新規,0,2025-04-15,2025-04-15,合同会社アポロスタジオ,,合同会社,東京都,板橋区,常盤台４丁目１１番１０号リトルズトーンラシクラス平和公園２０２号室,,13,119,1740071,,,,,,,2025-04-15,1,,,,,アポロスタジオ,0
2184,8012301014331,新規,0,2025-04-15,2025-04-15,ファー・イースト・インベストメント・パートナーズ株式会社,,株式会社,東京都,町田市,三輪緑山３丁目２１１８番地３,,13,209,1950055,,,,,,,2025-04-15,1,,,,,ファーイーストインベストメントパートナーズ,0
2186,8012403007076,新規,0,2025-04-15,2025-04-15,ゆにぞん合同会社,,合同会社,東京都,武蔵野市,緑町１丁目１番１－５０２号,,13,203,1800012,,,,,,,2025-04-15,1,,,,,ユニゾン,0
2189,8013303007620,新規,0,2025-04-15,2025-04-15,合同会社ａｍａｋａケア,,合同会社,東京都,豊島区,上池袋３丁目２７番３号,,13,116,1700012,,,,,,,2025-04-15,1,,,,,アマカケア,0
2190,8013303007637,新規,0,2025-04-15,2025-04-15,合同会社ＬＡ　ＶＩＡ　ＣＯＮＮＥＣＴ,,合同会社,東京都,豊島区,南池袋１丁目１６－１５ダイヤゲート池袋５Ｆ,,13,116,1710022,,,,,,,2025-04-15,1,,,,,ラヴィアコネクト,0
2197,8020001162350,新規,0,2025-04-15,2025-04-15,株式会社グローテック,,株式会社,神奈川県,横浜市都筑区,佐江戸町２１３４番地鈴木ビル１０２号室,,14,118,2240054,,,,,,,2025-04-15,1,,,,,グローテック,0
2198,8020001162359,新規,0,2025-04-15,2025-04-15,株式会社ＣＯＭＳ,,株式会社,神奈川県,横浜市都筑区,新栄町１３番１８,,14,118,2240035,,,,,,,2025-04-15,1,,,,,コムス,0
2199,8020001162383,新規,0,2025-04-15,2025-04-15,株式会社ＴＢＮ,,株式会社,神奈川県,川崎市多摩区,中野島６丁目２９番３－７０２号,,14,135,2140012,,,,,,,2025-04-15,1,,,,,ティービーエヌ,0
2200,8020001162400,新規,0,2025-04-15,2025-04-15,株式会社ゆうり,,株式会社,神奈川県,川崎市高津区,上作延１丁目４番地３６号,,14,134,2130034,,,,,,,2025-04-15,1,,,,,ユウリ,0
2201,8020001162425,新規,0,2025-04-15,2025-04-15,ＡＱＡ株式会社,,株式会社,神奈川県,横浜市西区,北幸２丁目１０番４８号むつみビル３階,,14,103,2200004,,,,,,,2025-04-15,1,,,,,アクア,0
2210,8020003028293,新規,0,2025-04-15,2025-04-15,合同会社Ｓ＆Ｒコンサルティング,,合同会社,神奈川県,横浜市泉区,緑園４丁目２番地１サンステージ緑園都市５番館４０３号,,14,116,2450002,,,,,,,2025-04-15,1,,,,,エスアンドアールコンサルティング,0
2217,8021001084964,新規,0,2025-04-15,2025-04-15,株式会社ＫＢＴ　Ｃｒａｆｔ,,株式会社,神奈川県,大和市,上和田２１５３番地１６,,14,213,2420014,,,,,,,2025-04-15,1,,,,,ケービーティークラフト,0
2218,8021005013341,新規,0,2025-04-15,2025-04-15,特定非営利活動法人Ｒｅ‐Ｅｄｕｃａｔｉｏｎ,,その他の設立登記法人,神奈川県,横須賀市,秋谷１丁目８番１２号,,14,201,2400105,,,,,,,2025-04-15,1,,,,,リエデュケーション,0
2226,8030001165823,新規,0,2025-04-15,2025-04-15,株式会社マネらく,,株式会社,埼玉県,吉川市,美南５丁目１８番地２２,,11,243,3420038,,,,,,,2025-04-15,1,,,,,マネラク,0
2236,8040001138274,新規,0,2025-04-15,2025-04-15,小川屋ホールディングス株式会社,,株式会社,千葉県,東金市,東金３７５番地１,,12,213,2830802,,,,,,,2025-04-15,1,,,,,オガワヤホールディングス,0
2237,8040003027368,新規,0,2025-04-15,2025-04-15,合同会社シニアリンクらぼ,,合同会社,千葉県,船橋市,高根台１丁目１１番７号新田ハイツ３０１,,12,204,2740065,,,,,,,2025-04-15,1,,,,,シニアリンクラボ,0
2238,8050005013605,新規,0,2025-04-15,2025-04-15,一般社団法人あみ観光協会,,その他の設立登記法人,茨城県,稲敷郡阿見町,大字阿見４６７１番地１,,08,443,3000331,,,,,,,2025-04-15,1,,,,,アミカンコウキョウカイ,0
2240,8060005010329,新規,0,2025-04-15,2025-04-15,一般社団法人ポテンシャルスポーツ協会,,その他の設立登記法人,栃木県,宇都宮市,本町１０番１９,,09,201,3200033,,,,,,,2025-04-15,1,,,,,ポテンシャルスポーツキョウカイ,0
2242,8070001042829,新規,0,2025-04-15,2025-04-15,株式会社ヨハクリ,,株式会社,群馬県,吾妻郡中之条町,大字伊勢町１３３１番地８,,10,421,3770423,,,,,,,2025-04-15,1,,,,,ヨハクリ,0
2243,8070001042845,新規,0,2025-04-15,2025-04-15,株式会社トモヱ,,株式会社,群馬県,桐生市,相生町５丁目６８３番地の９,,10,203,3760011,,,,,,,2025-04-15,1,,,,,トモエ,0
2249,8080103003298,新規,0,2025-04-15,2025-04-15,合同会社ｅｌｅｖｅｎ,,合同会社,静岡県,富士市,永田町１丁目１２４番地の２,,22,210,4170055,,,,,,,2025-04-15,1,,,,,イレブン,0
2252,8080405007732,新規,0,2025-04-15,2025-04-15,今切オートパーツ協同組合,,その他の設立登記法人,静岡県,浜松市中央区,小沢渡町１２番地の１,,22,138,4328063,,,,,,,2025-04-15,1,,,,,イマギレオートパーツ,0
2278,8120001274441,新規,0,2025-04-15,2025-04-15,晋徽健康株式会社,,株式会社,大阪府,大阪市西区,本田３丁目１番１９－８０１号,,27,106,5500022,,,,,,,2025-04-15,1,,,,,シンキケンコウ,0
2279,8120001274474,新規,0,2025-04-15,2025-04-15,ＥｖｅｒＭｏｒｅ株式会社,,株式会社,大阪府,大阪市東成区,大今里西３丁目５－１,,27,115,5370014,,,,,,,2025-04-15,1,,,,,エバーモア,0
2280,8120001274490,新規,0,2025-04-15,2025-04-15,三澤株式会社,,株式会社,大阪府,大阪市東成区,深江北３丁目４番２１号エクラ深江橋１１０Ｃ,,27,115,5370001,,,,,,,2025-04-15,1,,,,,ミサワ,0
2281,8120001274532,新規,0,2025-04-15,2025-04-15,株式会社Ｒｅ　ＬＩＦＥ,,株式会社,大阪府,大阪市生野区,巽西２丁目３番２７号,00138780,27,116,5440012,,,,,,,2025-04-15,1,,,,,リライフ,0
2282,8120001274557,新規,0,2025-04-15,2025-04-15,株式会社Ｋｕｒａ　Ｃｒｅａｔｉｖｅ　Ｓｔｕｄｉｏ,,株式会社,大阪府,大阪市中央区,南船場３丁目２番２２－２０５号,,27,128,5420081,,,,,,,2025-04-15,1,,,,,クラクリエイティブスタジオ,0
2283,8120003029059,新規,0,2025-04-15,2025-04-15,合同会社Ｌ＆Ｄ,,合同会社,大阪府,枚方市,翠香園町２１番３号,,27,210,5730095,,,,,,,2025-04-15,1,,,,,エルアンドディ,0
2284,8120003029141,新規,0,2025-04-15,2025-04-15,合同会社Ｆｅｌｉｓ,,合同会社,大阪府,大阪市中央区,久太郎町１丁目５番１０号,,27,128,5410056,,,,,,,2025-04-15,1,,,,,フェリス,0
2297,8120101071409,新規,0,2025-04-15,2025-04-15,株式会社ウル,,株式会社,大阪府,堺市西区,鳳北町８丁１８番地,,27,144,5938328,,,,,,,2025-04-15,1,,,,,ウル,0
2300,8120901050735,新規,0,2025-04-15,2025-04-15,リバイタルシード株式会社,,株式会社,大阪府,箕面市,彩都粟生北７丁目３番５１号,,27,220,5620029,,,,,,,2025-04-15,1,,,,,リバイタルシード,0
2302,8122001039097,新規,0,2025-04-15,2025-04-15,熱研化学ホールディングス株式会社,,株式会社,大阪府,東大阪市,稲田新町２丁目１０番１号,,27,227,5770004,,,,,,,2025-04-15,1,,,,,ネッケンカガクホールディングス,0
2312,8130001079393,新規,0,2025-04-15,2025-04-15,ＧＩＮＺＡ　ＭＵＳＩＣ　ＢＡＲ　ＩＮ　ＫＹＯＴＯ株式会社,,株式会社,京都府,京都市左京区,石原町２８０－３１,,26,103,6068356,,,,,,,2025-04-15,1,,,,,ギンザミュージックバーインキョウト,0
2314,8130003010372,新規,0,2025-04-15,2025-04-15,合同会社ＳＦＡＲＭＳ,,合同会社,京都府,福知山市,かしの木台５丁目５４番地の１２,,26,201,6200921,,,,,,,2025-04-15,1,,,,,エスファームズ,0
2315,8130005017341,新規,0,2025-04-15,2025-04-15,一般社団法人ウェルビーイング宇治人,,その他の設立登記法人,京都府,宇治市,木幡熊小路１９番地の３８,,26,204,6110002,,,,,,,2025-04-15,1,,,,,ウェルビーイングウジビト,0
2322,8140005027471,新規,0,2025-04-15,2025-04-15,一般社団法人高齢者医療連携支援機構,,その他の設立登記法人,兵庫県,神戸市中央区,磯辺通１丁目１番１８号カサベラ国際プラザビル７０７号,,28,110,6510084,,,,,,,2025-04-15,1,,,,,コウレイシャイリョウレンケイシエンキコウ,0
2323,8150001028043,新規,0,2025-04-15,2025-04-15,株式会社ムゲンダイナ,,株式会社,奈良県,香芝市,藤山２丁目１１１０番地２３,,29,210,6390243,,,,,,,2025-04-15,1,,,,,ムゲンダイナ,0
2338,8180001166402,新規,0,2025-04-15,2025-04-15,株式会社カイテニスワークス,,株式会社,愛知県,名古屋市名東区,扇町２丁目１番地の１ヴィラス星ヶ丘の森８１４号,,23,115,4650076,,,,,,,2025-04-15,1,,,,,カイテニスワークス,0
2342,8180003028328,新規,0,2025-04-15,2025-04-15,合同会社ＯＳＧ,,合同会社,愛知県,東海市,加木屋町２丁目１８４番地グランコート加木屋（２０２号）,,23,222,4770032,,,,,,,2025-04-15,1,,,,,オーエスジー,0
2343,8180005021058,新規,0,2025-04-15,2025-04-15,ＳＯ濃尾土地家屋調査士法人,,その他の設立登記法人,愛知県,江南市,大間町新町１４９番地１ＭＫタワービレッジＩＩ２０３号室,00138782,23,217,4838251,,,,,,,2025-04-15,1,,,,,エスオーノウビ,0
2347,8200001043656,新規,0,2025-04-15,2025-04-15,こころ株式会社,,株式会社,岐阜県,高山市,山田町３２番地１,,21,203,5060058,,,,,,,2025-04-15,1,,,,,ココロ,0
2353,8220001026568,新規,0,2025-04-15,2025-04-15,株式会社Ｌｉｂｒｅｅ　Ｊａｐａｎ,,株式会社,石川県,金沢市,笠舞３丁目５―５,,17,201,9200965,,,,,,,2025-04-15,1,,,,,リブリージャパン,0
2354,8220001026618,新規,0,2025-04-15,2025-04-15,株式会社ランドウィン,,株式会社,石川県,金沢市,糸田１丁目１０４番地（ドルチェ・ヴィータ・Ｃ－１号）,,17,201,9218014,,,,,,,2025-04-15,1,,,,,ランドウィン,0
2363,8240001064806,新規,0,2025-04-15,2025-04-15,ＳＢソリューション株式会社,,株式会社,広島県,広島市南区,南蟹屋１丁目１番２５号上田ビル３階,,34,103,7320803,,,,,,,2025-04-15,1,,,,,エスビーソリューション,0
2370,8250003003694,新規,0,2025-04-15,2025-04-15,合同会社徳永林業,00138775,合同会社,山口県,宇部市,大字東吉部５５２番地,,35,202,7570401,,,,,,,2025-04-15,1,,,,,トクナガリンギョウ,0
2380,8290001109614,新規,0,2025-04-15,2025-04-15,株式会社Ｈａｌｕ,,株式会社,福岡県,糟屋郡須惠町,大字植木６７９－１０,,40,344,8112112,,,,,,,2025-04-15,1,,,,,ハル,0
2381,8290003016676,新規,0,2025-04-15,2025-04-15,ＪＣｏｎｎｅｃｔ合同会社,,合同会社,福岡県,福岡市中央区,荒戸１丁目１１番１０号,,40,133,8100062,,,,,,,2025-04-15,1,,,,,ジェイコネクト,0
2382,8290003016684,新規,0,2025-04-15,2025-04-15,合同会社ＨＡＲＵ,,合同会社,福岡県,福岡市中央区,桜坂３丁目４番２１号,,40,133,8100024,,,,,,,2025-04-15,1,,,,,ハル,0
2386,8290005019710,新規,0,2025-04-15,2025-04-15,医療法人社団研譲会,,その他の設立登記法人,福岡県,福津市,日蒔野５丁目１２番２号,,40,224,8113209,,,,,,,2025-04-15,1,,,,,ケンジョウカイ,0
2387,8290801031430,新規,0,2025-04-15,2025-04-15,株式会社ａ’ＴＲＵＳ,,株式会社,福岡県,北九州市門司区,風師４丁目２番３－６０１号,,40,101,8000001,,,,,,,2025-04-15,1,,,,,アトラス,0
2390,8300005007234,新規,0,2025-04-15,2025-04-15,医療法人しらきクリニック,,その他の設立登記法人,佐賀県,佐賀市,本庄町本庄５４１番地１３,,41,201,8490000,,,,,,,2025-04-15,1,,,,,シラキクリニック,0
2392,8330003010947,新規,0,2025-04-15,2025-04-15,ＨＡＲＵＫＡＮＡ合同会社,,合同会社,熊本県,菊池郡大津町,大字新２２６番地１,,43,403,8691227,,,,,,,2025-04-15,1,,,,,ハルカナ,0
2401,8360003014846,新規,0,2025-04-15,2025-04-15,ＲＹＵＥＲＡ合同会社,,合同会社,沖縄県,中頭郡読谷村,字宇座７２番地マーレアチェロ４０１,,47,324,9040328,,,,,,,2025-04-15,1,,,,,リュウエラ,0
2402,8360005007204,新規,0,2025-04-15,2025-04-15,一般社団法人Ｔｅａｍ　ＳＵＢＡＫＯ,,その他の設立登記法人,沖縄県,那覇市,古波蔵３丁目１２－６豊アパート３０６,,47,201,9000024,,,,,,,2025-04-15,1,,,,,チームスバコ,0
2404,8370001052467,新規,0,2025-04-15,2025-04-15,Ｒｅｏｂａ株式会社,,株式会社,宮城県,仙台市若林区,中倉２丁目１２番３１号,,04,103,9840821,,,,,,,2025-04-15,1,,,,,レオバ,0
2406,8380001035231,新規,0,2025-04-15,2025-04-15,Ｗａｎｄ株式会社,,株式会社,福島県,福島市,南沢又字下琵琶渕１番地の１６,,07,201,9608254,,,,,,,2025-04-15,1,,,,,ワンド,0
2407,8380003006016,新規,0,2025-04-15,2025-04-15,合同会社Ｗｉｓｔｅｒｉａ,,合同会社,福島県,須賀川市,岩渕字植松６１番地６,,07,207,9620043,,,,,,,2025-04-15,1,,,,,ウィステリア,0
2412,8390001017939,新規,0,2025-04-15,2025-04-15,株式会社鶴岡高砂製作所,,株式会社,山形県,鶴岡市,宝田３丁目１４番２４号,,06,203,9970011,,,,,,,2025-04-15,1,,,,,ツルオカタカサゴセイサクジョ,0
2417,8410001014124,新規,0,2025-04-15,2025-04-15,いろはのしろ株式会社,,株式会社,秋田県,能代市,落合字下谷地１４３番地,,05,202,0160014,,,,,,,2025-04-15,1,,,,,イロハノシロ,0
2422,8430001094131,新規,0,2025-04-15,2025-04-15,株式会社Ｎｉｃｏ,,株式会社,北海道,札幌市中央区,大通西６丁目３番地１,,01,101,0600042,,,,,,,2025-04-15,1,,,,,ニコ,0
2423,8430001094164,新規,0,2025-04-15,2025-04-15,株式会社エリル,,株式会社,北海道,札幌市中央区,北一条西１５丁目１番地５エナコート知事公館前６０５号,,01,101,0600001,,,,,,,2025-04-15,1,,,,,エリル,0
2425,8430005015216,新規,0,2025-04-15,2025-04-15,一般社団法人アジア太平洋血栓止血学会,,その他の設立登記法人,北海道,札幌市中央区,南二十条西１３丁目１番１５号,,01,101,0640920,,,,,,,2025-04-15,1,,,,,アジアタイヘイヨウケッセンシケツガッカイ,0
2430,8500003003487,新規,0,2025-04-15,2025-04-15,合同会社ＳＯＲＡ,,合同会社,愛媛県,松山市,千舟町７丁目１２番地１１,,38,201,7900011,,,,,,,2025-04-15,1,,,,,ソラ,0
2432,8700150129949,新規,0,2025-04-15,2025-04-15,Ｒｉｃｈｆｏｒｅｓｔ　Ｇｌｏｂａｌ　Ｉｎｖｅｓｔｍｅｎｔｓ　Ｌｉｍｉｔｅｄ,,外国会社等,,,,,,,,ＯＭＣ　Ｃｈａｍｂｅｒｓ，Ｗｉｃｋｈａｍｓ　Ｃａｙ　１，Ｒｏａｄ　Ｔｏｗｎ，Ｔｏｒｔｏｌａ，Ｂｒｉｔｉｓｈ　Ｖｉｒｇｉｎ　Ｉｓｌａｎｄｓ,,,,,,2025-04-15,1,,,,,リツチフオレストグローバルインベストメンツリミテツド,0
2438,9010001253793,新規,0,2025-04-15,2025-04-15,株式会社日総,,株式会社,東京都,千代田区,大手町２丁目１番１号,,13,101,1000004,,,,,,,2025-04-15,1,,,,,ニッソウ,0
2439,9010001253918,新規,0,2025-04-15,2025-04-15,株式会社ＩＥＩ,,株式会社,東京都,文京区,千駄木４丁目２２番３号長谷部ビル４階,,13,105,1130022,,,,,,,2025-04-15,1,,,,,イエイ,0
2440,9010001253959,新規,0,2025-04-15,2025-04-15,株式会社Ｃ．Ｒ．Ｌ,,株式会社,東京都,中央区,銀座１丁目１２番４号Ｎ＆Ｅビルディング７階,,13,102,1040061,,,,,,,2025-04-15,1,,,,,シーアールエル,0
2441,9010001254148,新規,0,2025-04-15,2025-04-15,ＭＩＴガエアエネルギー開発株式会社,,株式会社,東京都,千代田区,大手町１丁目２番１号,,13,101,1000004,,,,,,,2025-04-15,1,,,,,ミットガエアエネルギーカイハツ,0
2442,9010001254189,新規,0,2025-04-15,2025-04-15,株式会社Ｄｏｐａｍｉｎｅ,,株式会社,東京都,中央区,銀座１丁目１２番４号Ｎ＆ＥＢＬＤ．６Ｆ,,13,102,1040061,,,,,,,2025-04-15,1,,,,,ドーパミン,0
2447,9010005039909,新規,0,2025-04-15,2025-04-15,一般社団法人エコーランド,,その他の設立登記法人,東京都,千代田区,霞が関３丁目２番５号,,13,101,1000013,,,,,,,2025-04-15,1,,,,,エコーランド,0
2448,9010005039917,新規,0,2025-04-15,2025-04-15,一般社団法人日本労働環境保全機構,,その他の設立登記法人,東京都,千代田区,平河町１丁目４番１５号平河町小池ビル４Ｆ,,13,101,1020093,,,,,,,2025-04-15,1,,,,,ニホンロウドウカンキョウホゼンキコウ,0
2460,9010601067098,新規,0,2025-04-15,2025-04-15,株式会社Ｔａｔｈｒａ,,株式会社,東京都,墨田区,京島２丁目２番地９号,,13,107,1310046,,,,,,,2025-04-15,1,,,,,タトラ,0
2461,9010601067123,新規,0,2025-04-15,2025-04-15,株式会社ＮＥＯＭＥＤＯ,,株式会社,東京都,江東区,木場６丁目４番１６号バウムプラッツ１０１号,,13,108,1350042,,,,,,,2025-04-15,1,,,,,ネオメド,0
2469,9010703007670,新規,0,2025-04-15,2025-04-15,合同会社琴葉,,合同会社,東京都,品川区,上大崎３丁目１番２－２６１３号,,13,109,1410021,,,,,,,2025-04-15,1,,,,,コトハ,0
2470,9010705003750,新規,0,2025-04-15,2025-04-15,一般社団法人クリエイティブデザインネットワーク,,その他の設立登記法人,東京都,品川区,荏原３丁目６番１２号サンパルム９０２,,13,109,1420063,,,,,,,2025-04-15,1,,,,,クリエイティブデザインネットワーク,0
2471,9010801036051,新規,0,2025-04-15,2025-04-15,株式会社ストーンボックス,,株式会社,東京都,大田区,大森北４丁目３番１１号,,13,111,1430016,,,,,,,2025-04-15,1,,,,,ストーンボックス,0
2480,9011001168924,新規,0,2025-04-15,2025-04-15,株式会社ハヤカワホールディングス,,株式会社,東京都,目黒区,目黒１丁目４番１６号目黒Ｇビル７Ｆ,,13,110,1530063,,,,,,,2025-04-15,1,,,,,ハヤカワホールディングス,0
2481,9011001168957,新規,0,2025-04-15,2025-04-15,株式会社Ｅｃｌｉｒｉｓｅ,,株式会社,東京都,渋谷区,渋谷２丁目１９番１９号ワコー宮益坂ビル５階,,13,113,1500002,,,,,,,2025-04-15,1,,,,,エクリライズ,0
2487,9011101111346,新規,0,2025-04-15,2025-04-15,株式会社ＳＨＵ,,株式会社,東京都,新宿区,西新宿３丁目３番１３号西新宿水間ビル２Ｆ,,13,104,1600023,,,,,,,2025-04-15,1,,,,,エスエイチユー,0
2488,9011103015776,新規,0,2025-04-15,2025-04-15,合同会社オフィススリーエイト,,合同会社,東京都,新宿区,大京町４番地７,,13,104,1600015,,,,,,,2025-04-15,1,,,,,オフィススリーエイト,0
2489,9011201026279,新規,0,2025-04-15,2025-04-15,株式会社Ｋｅｎｄｏ　Ｓｐｉｒｉｔ,,株式会社,東京都,中野区,鷺宮６丁目３番６号ライフ・コート鷺宮ＩＩ１０２,00138783,13,114,1650032,,,,,,,2025-04-15,1,,,,,ケンドウスピリット,0
2491,9011403004669,新規,0,2025-04-15,2025-04-15,合同会社エコーファミリー,,合同会社,東京都,板橋区,赤塚２丁目８番７号３１０号室,,13,119,1750092,,,,,,,2025-04-15,1,,,,,エコーファミリー,0
2493,9011603004667,新規,0,2025-04-15,2025-04-15,合同会社ＰｈｏｔｏＬａｂ　ＯＣＴＥＣＨ．,,合同会社,東京都,練馬区,中村北１丁目１０－１７－９０８,,13,120,1760023,,,,,,,2025-04-15,1,,,,,フォトラボオーシーテック,0
2494,9011701028238,新規,0,2025-04-15,2025-04-15,株式会社Ｊｕｓｔｙ　ｒｏｏｍ,,株式会社,東京都,江戸川区,平井６丁目１５番１－４０１号,,13,123,1320035,,,,,,,2025-04-15,1,,,,,ジャスティルーム,0
2496,9011801045942,新規,0,2025-04-15,2025-04-15,株式会社ＭｃＨｕｇｓ,,株式会社,東京都,足立区,千住緑町１丁目２１番１０号ジャパンステイ千住１０５号室,,13,121,1200044,,,,,,,2025-04-15,1,,,,,マックハグス,0
2498,9012401042990,新規,0,2025-04-15,2025-04-15,ＮＥＷＷＩＮＤ　ＡＳＳＥＴ　ＭＡＮＡＧＥＭＥＮＴ株式会社,,株式会社,東京都,調布市,多摩川５丁目２９番地２号調布パレス５２７,,13,208,1820025,,,,,,,2025-04-15,1,,,,,ニューウィーンドアセットマネジメント,0
2502,9012701018807,新規,0,2025-04-15,2025-04-15,株式会社Ｌｉｌ　ｓｏｌｅ,,株式会社,東京都,西東京市,緑町１丁目３番８号,,13,229,1880002,,,,,,,2025-04-15,1,,,,,リルソーレ,0
2505,9013103001434,新規,0,2025-04-15,2025-04-15,ＴＤＡ合同会社,,合同会社,東京都,青梅市,河辺町６丁目２６番地の８,,13,205,1980036,,,,,,,2025-04-15,1,,,,,テイーデイーエー,0
2507,9013301054085,新規,0,2025-04-15,2025-04-15,株式会社ブラッシュアップ,,株式会社,東京都,豊島区,西池袋１丁目３９番４号,,13,116,1710021,,,,,,,2025-04-15,1,,,,,ブラッシュアップ,0
2513,9020001162341,新規,0,2025-04-15,2025-04-15,ＥＭ株式会社,,株式会社,神奈川県,川崎市中原区,今井南町１０番４１号,,14,133,2110064,,,,,,,2025-04-15,1,,,,,イーエム,0
2514,9020001162416,新規,0,2025-04-15,2025-04-15,株式会社ｂｅ　ｗａｔｅｒ,,株式会社,神奈川県,川崎市宮前区,宮崎４丁目１番地３８６,,14,136,2160033,,,,,,,2025-04-15,1,,,,,ビーウォーター,0
2519,9020005016816,新規,0,2025-04-15,2025-04-15,一般社団法人保育ネクストステージ,,その他の設立登記法人,神奈川県,横浜市神奈川区,富家町７番地ＰＨＯ東神奈川ステーションアリーナ１００９号,,14,102,2210821,,,,,,,2025-04-15,1,,,,,ホイクネクストステージ,0
2544,9040001138298,新規,0,2025-04-15,2025-04-15,株式会社雅電気,,株式会社,千葉県,柏市,泉３８１番地４,,12,217,2701456,,,,,,,2025-04-15,1,,,,,ミヤビデンキ,0
2545,9040001138307,新規,0,2025-04-15,2025-04-15,株式会社ＨＲ内装,,株式会社,千葉県,千葉市花見川区,作新台７丁目１７番２号,,12,102,2620045,,,,,,,2025-04-15,1,,,,,エイチアールナイソウ,0
2546,9040001138315,新規,0,2025-04-15,2025-04-15,白弧株式会社,,株式会社,千葉県,佐倉市,宮前３丁目２２番地４ＧＡＲＤＥＮＥＬＥＧＡＮＴ３１７号室,,12,212,2850005,,,,,,,2025-04-15,1,,,,,ビャッコ,0
2547,9040001138348,新規,0,2025-04-15,2025-04-15,金盛商貿株式会社,,株式会社,千葉県,佐倉市,新臼井田１２－１６,,12,212,2850862,,,,,,,2025-04-15,1,,,,,カナモリショウボウ,0
2550,9040003027326,新規,0,2025-04-15,2025-04-15,合同会社ＫＦカンパニー,,合同会社,千葉県,千葉市中央区,亀岡町１番１０号,,12,101,2600857,,,,,,,2025-04-15,1,,,,,ケーエフカンパニー,0
2551,9040003027359,新規,0,2025-04-15,2025-04-15,合同会社エンターファクトリー,,合同会社,千葉県,千葉市稲毛区,園生町８１８－３コスモ稲毛グランエール２０７号,,12,103,2630051,,,,,,,2025-04-15,1,,,,,エンターファクトリー,0
2556,9050003009174,新規,0,2025-04-15,2025-04-15,合同会社うぐいす商事,,合同会社,茨城県,つくば市,吉沼４０４８番地８,,08,220,3002617,,,,,,,2025-04-15,1,,,,,ウグイスショウジ,0
2561,9070001042844,新規,0,2025-04-15,2025-04-15,株式会社フェニックス不動産,,株式会社,群馬県,高崎市,八千代町１丁目１７番５号,,10,202,3700861,,,,,,,2025-04-15,1,,,,,フェニックスフドウサン,0
2563,9070005010384,新規,0,2025-04-15,2025-04-15,特定非営利活動法人群馬県クレー射撃協会,,その他の設立登記法人,群馬県,前橋市,南町３丁目３０番地１３,,10,201,3710805,,,,,,,2025-04-15,1,,,,,グンマケンクレーシャゲキキョウカイ,0
2572,9080405007731,新規,0,2025-04-15,2025-04-15,医療法人社団千惠会,,その他の設立登記法人,静岡県,浜松市中央区,豊岡町１１１番地,,22,138,4338103,,,,,,,2025-04-15,1,,,,,センケイカイ,0
2574,9100003008088,新規,0,2025-04-15,2025-04-15,合同会社Ｋｒｅａｔｉｏｎ,,合同会社,長野県,諏訪郡富士見町,落合１１０６３－１,,20,362,3990214,,,,,,,2025-04-15,1,,,,,クリアーション,0
2577,9110005017219,新規,0,2025-04-15,2025-04-15,一般社団法人ウォーキングフットボールＨＵＭＡＮ,,その他の設立登記法人,新潟県,長岡市,槇下町１８６９番地,,15,202,9402001,,,,,,,2025-04-15,1,,,,,ウォーキングフットボールヒューマン,0
2595,9120001274218,新規,0,2025-04-15,2025-04-15,株式会社Ｈ＆Ａ,,株式会社,大阪府,大阪市中央区,西心斎橋１丁目８－２３神谷ビル２階Ｂ,,27,128,5420086,,,,,,,2025-04-15,1,,,,,エイチアンドエー,0
2596,9120001274291,新規,0,2025-04-15,2025-04-15,東和コンプレッサー工業株式会社,,株式会社,大阪府,大阪市大正区,平尾３丁目９番１－３０２号,,27,108,5510012,,,,,,,2025-04-15,1,,,,,トウワコンプレッサーコウギョウ,0
2597,9120001274440,新規,0,2025-04-15,2025-04-15,株式会社アートシビル,,株式会社,大阪府,大阪市北区,梅田１丁目１１番４号９２３,,27,127,5300001,,,,,,,2025-04-15,1,,,,,アートシビル,0
2598,9120001274457,新規,0,2025-04-15,2025-04-15,株式会社ｋｒｏｗ,,株式会社,大阪府,大阪市北区,天満３丁目１番５号南天満ビル５０３,,27,127,5300043,,,,,,,2025-04-15,1,,,,,クロウ,0
2599,9120001274655,新規,0,2025-04-15,2025-04-15,桜僑株式会社,,株式会社,大阪府,大阪市西成区,潮路１丁目２－１３コーポ岸里２０１号,,27,122,5570052,,,,,,,2025-04-15,1,,,,,オウキョウ,0
2602,9120003029116,新規,0,2025-04-15,2025-04-15,合同会社１対９,,合同会社,大阪府,大阪市西淀川区,歌島３丁目５番５－３０１号,,27,113,5550021,,,,,,,2025-04-15,1,,,,,イチタイキュウ,0
2603,9120101071473,新規,0,2025-04-15,2025-04-15,松石株式会社,,株式会社,大阪府,泉南郡熊取町,新野田２丁目１番１８号,,27,361,5900454,,,,,,,2025-04-15,1,,,,,マツイシ,0
2605,9120901050718,新規,0,2025-04-15,2025-04-15,株式会社ピッカリン,,株式会社,大阪府,豊中市,上新田４丁目８番Ａ－８０７号,,27,203,5600085,,,,,,,2025-04-15,1,,,,,ピッカリン,0
2606,9120901050726,新規,0,2025-04-15,2025-04-15,株式会社総合パートナー,,株式会社,大阪府,高槻市,富田町４丁目７番２５号,,27,207,5690814,,,,,,,2025-04-15,1,,,,,ソウゴウパートナー,0
2607,9120901050734,新規,0,2025-04-15,2025-04-15,株式会社Ａ‐ｓｔｒｕｃｔ,,株式会社,大阪府,箕面市,稲２丁目５番１号１－２Ｆ,,27,220,5620015,,,,,,,2025-04-15,1,,,,,エーストラクト,0
2608,9120903005620,新規,0,2025-04-15,2025-04-15,合同会社ｔａｕ,,合同会社,大阪府,吹田市,豊津町１－１８,,27,205,5640051,,,,,,,2025-04-15,1,,,,,タウ,0
2611,9122001039113,新規,0,2025-04-15,2025-04-15,株式会社凌雲,,株式会社,大阪府,東大阪市,友井４丁目８番２－１０５号,,27,227,5770816,,,,,,,2025-04-15,1,,,,,リョウウン,0
2614,9130001079426,新規,0,2025-04-15,2025-04-15,易行路株式会社,,株式会社,京都府,京都市下京区,寺町通五条上る西橋詰町７８４番地,,26,106,6008029,,,,,,,2025-04-15,1,,,,,イコウロ,0
2615,9130001079442,新規,0,2025-04-15,2025-04-15,株式会社ロックメディカルサービス,,株式会社,京都府,京都市中京区,室町通三条下る烏帽子屋町４９５番地コンフォール室町黒主山８０５号室,,26,104,6048165,,,,,,,2025-04-15,1,,,,,ロックメディカルサービス,0
2619,9130003010363,新規,0,2025-04-15,2025-04-15,藤吉産業合同会社,,合同会社,京都府,京都市北区,大北山原谷乾町４７－１０－２０３号室,,26,101,6038487,,,,,,,2025-04-15,1,,,,,フジヨシサンギョウ,0
2620,9130005017340,新規,0,2025-04-15,2025-04-15,一般社団法人ＢＮＲ,,その他の設立登記法人,京都府,長岡京市,滝ノ町２丁目２５－２１,,26,209,6170817,,,,,,,2025-04-15,1,,,,,ビーエヌアール,0
2629,9140001138115,新規,0,2025-04-15,2025-04-15,株式会社ｃｈｉｐｉｅ,,株式会社,兵庫県,神戸市中央区,二宮町２丁目１０番１８－６０２号,,28,110,6510093,,,,,,,2025-04-15,1,,,,,シピ,0
2630,9140001138131,新規,0,2025-04-15,2025-04-15,株式会社３８建設,,株式会社,兵庫県,多可郡多可町,八千代区中野間７８４番地,,28,365,6770121,,,,,,,2025-04-15,1,,,,,ミヤケンセツ,0
2631,9140001138164,新規,0,2025-04-15,2025-04-15,株式会社ＭｉｙａＢｉｓｏｕｓ．ｃｏ,,株式会社,兵庫県,宝塚市,清荒神１丁目３番１５－１－５０６号,,28,214,6650836,,,,,,,2025-04-15,1,,,,,ミヤビズカンパニー,0
2632,9140001138180,新規,0,2025-04-15,2025-04-15,株式会社シーザーズ,,株式会社,兵庫県,西宮市,甲子園六番町１８－１６エレガンス甲子園６０６,,28,204,6638176,,,,,,,2025-04-15,1,,,,,シーザーズ,0
2633,9140001138189,新規,0,2025-04-15,2025-04-15,株式会社聖大,,株式会社,兵庫県,尼崎市,南武庫之荘１２丁目１４番４５号,,28,202,6610033,,,,,,,2025-04-15,1,,,,,セイダイ,0
2637,9150001028026,新規,0,2025-04-15,2025-04-15,株式会社矢追工業,,株式会社,奈良県,大和高田市,大字土庫２６２番地７,,29,202,6350003,,,,,,,2025-04-15,1,,,,,ヤオイコウギョウ,0
2639,9160001026689,新規,0,2025-04-15,2025-04-15,ＤＥＴＥＣＴ　ＨＯＭＥ株式会社,,株式会社,滋賀県,長浜市,八幡東町６１３番地８,,25,203,5260031,,,,,,,2025-04-15,1,,,,,ディテクトホーム,0
2653,9180005021057,新規,0,2025-04-15,2025-04-15,医療法人優美会,,その他の設立登記法人,愛知県,日進市,竹の山２丁目２５０４番地１,,23,230,4700136,,,,,,,2025-04-15,1,,,,,ユウビカイ,0
2655,9180303006511,新規,0,2025-04-15,2025-04-15,Ａｏｈａｌｉａ合同会社,,合同会社,愛知県,岡崎市,森越町字三円２３番地７,,23,202,4440901,,,,,,,2025-04-15,1,,,,,アオハリア,0
2668,9240001064805,新規,0,2025-04-15,2025-04-15,株式会社ソリッド,,株式会社,広島県,広島市南区,東本浦町１６番２７号,,34,103,7340025,,,,,,,2025-04-15,1,,,,,ソリッド,0
2687,9280003001942,新規,0,2025-04-15,2025-04-15,合同会社ＡＫランド,,合同会社,島根県,浜田市,黒川町１５７２番地１,,32,202,6970024,,,,,,,2025-04-15,1,,,,,エーケーランド,0
2690,9290001109704,新規,0,2025-04-15,2025-04-15,株式会社ＤＡＭＳ,,株式会社,福岡県,福岡市早良区,原２丁目１０番３７号,,40,137,8140022,,,,,,,2025-04-15,1,,,,,ダムズ,0
2691,9290003016700,新規,0,2025-04-15,2025-04-15,合同会社西日本インタラクティブ,,合同会社,福岡県,福岡市西区,大字千里３４２番地８,,40,135,8190374,,,,,,,2025-04-15,1,,,,,ニシニッポンインタラクティブ,0
2697,9330001033081,新規,0,2025-04-15,2025-04-15,ＤＡＮＧＯ８株式会社,,株式会社,熊本県,熊本市中央区,花畑町１番１４号Ａ＆ＭＨＡＮＡＢＡＴＡ３０１号,,43,101,8600806,,,,,,,2025-04-15,1,,,,,ダンゴエイト,0
2704,9340001027264,新規,0,2025-04-15,2025-04-15,株式会社平野水産,,株式会社,鹿児島県,出水郡長島町,獅子島２０３１－１０,,46,404,8991501,,,,,,,2025-04-15,1,,,,,ヒラノスイサン,0
2706,9340003004815,新規,0,2025-04-15,2025-04-15,合同会社愛・感謝・真心,,合同会社,鹿児島県,鹿児島市,南林寺町２９番１１号ダイムＩＶ２０２号,00138796,46,201,8920834,,,,,,,2025-04-15,1,,,,,アイカンシャマゴコロ,0
2708,9350003004905,新規,0,2025-04-15,2025-04-15,イーリック合同会社,,合同会社,宮崎県,宮崎市,清武町船引１４１４－８,,45,201,8891604,,,,,,,2025-04-15,1,,,,,イーリック,0
2710,9360001035067,新規,0,2025-04-15,2025-04-15,株式会社シビルデザイン・フォレスト,,株式会社,沖縄県,那覇市,樋川１丁目１６番１０号シャルマンコートＹａｒａ７０３,,47,201,9000022,,,,,,,2025-04-15,1,,,,,シビルデザインフォレスト,0
2711,9360003014837,新規,0,2025-04-15,2025-04-15,合同会社きら美,,合同会社,沖縄県,那覇市,牧志２丁目１７番２７－４０１号,,47,201,9000013,,,,,,,2025-04-15,1,,,,,キラビ,0
2716,9370001052466,新規,0,2025-04-15,2025-04-15,株式会社加藤商事,,株式会社,宮城県,柴田郡大河原町,小山田字二ツ堂５１番地１,,04,321,9891258,,,,,,,2025-04-15,1,,,,,カトウショウジ,0
2723,9380001035230,新規,0,2025-04-15,2025-04-15,大高興業株式会社,00138776,株式会社,福島県,郡山市,谷島町５番４２号,,07,203,9638802,,,,,,,2025-04-15,1,,,,,オオタカコウギョウ,0
2729,9410001014131,新規,0,2025-04-15,2025-04-15,株式会社ソアリード,,株式会社,秋田県,能代市,字機織轌ノ目１０９番地３,,05,202,0160116,,,,,,,2025-04-15,1,,,,,ソアリード,0
2740,9430001094188,新規,0,2025-04-15,2025-04-15,株式会社ＮＥＷ　ＰＩＧＮＵＳ,,株式会社,北海道,札幌市中央区,南七条東１丁目１番地２クリオ南７条１２０２号室,,01,101,0600057,,,,,,,2025-04-15,1,,,,,ニューピグナス,0
2741,9430001094196,新規,0,2025-04-15,2025-04-15,株式会社ｂｅＢＯＬＤ,,株式会社,北海道,札幌市豊平区,月寒中央通１１丁目１番３号月寒中央Ｇｒａｎｄ　Ｏｆｆｉｃｅ　Ｂ,,01,105,0620020,,,,,,,2025-04-15,1,,,,,ビーボールド,0
2742,9430003017519,新規,0,2025-04-15,2025-04-15,合同会社正真,,合同会社,北海道,札幌市東区,苗穂町３丁目４－３１ＮＡＥＢＯ　Ｎ３ＢＬＤ　Ａ号有限会社リブ・アクティブ内,,01,103,0650043,,,,,,,2025-04-15,1,,,,,ショウジン,0
2743,9430003017527,新規,0,2025-04-15,2025-04-15,合同会社はちまる,,合同会社,北海道,北広島市,輪厚中央４丁目５番地１６,,01,234,0611268,,,,,,,2025-04-15,1,,,,,ハチマル,0
2754,9470001020669,新規,0,2025-04-15,2025-04-15,株式会社國重動物病院,,株式会社,香川県,坂出市,久米町１丁目１６番４０号,,37,203,7620003,,,,,,,2025-04-15,1,,,,,クニシゲドウブツビョウイン,0
2758,9490001011014,新規,0,2025-04-15,2025-04-15,株式会社げんき守森,,株式会社,高知県,高岡郡四万十町,十和川口１２７番地,,39,412,7860535,,,,,,,2025-04-15,1,,,,,,0
2759,9500001026241,新規,0,2025-04-15,2025-04-15,株式会社ライフフレア,,株式会社,愛媛県,宇和島市,妙典寺前乙４７７番地１８,,38,203,7980071,,,,,,,2025-04-15,1,,,,,ライフフレア,0
2763,9700150129948,新規,0,2025-04-15,2025-04-15,Ｙｕｋｉ　Ｄｒｉｆｔ　Ｌｔｄ,,外国会社等,,,,,,,,Ｃｏｍｍｅｒｃｅ　Ｈｏｕｓｅ，Ｗｉｃｋｈａｍ　Ｃａｙ　１．Ｐ．Ｏ．Ｂｏｘ　３１４０，Ｒｏａｄ　Ｔｏｗｎ　Ｔｏｒｔｏｌａ，Ｂｒｉｔｉｓｈ　Ｖｉｒｇｉｎ　Ｉｓｌａｎｄｓ　ＶＧ１１１０,,,,,,2025-04-15,1,,,,,ユキドリフトエルテイーデイー,0
