sequenceNumber,corporateNumber,process,correct,updateDate,changeDate,name,nameImageId,kind,prefectureName,cityName,streetNumber,addressImageId,prefectureCode,cityCode,postCode,addressOutside,addressOutsideImageId,closeDate,closeCause,successorCorporateNumber,changeCause,assignmentDate,latest,enName,enPrefectureName,enCityName,enAddressOutside,furigana,hihyoji
1,1010001004915,登記記録の閉鎖等,0,2024-08-20,2024-08-06,株式会社ツウインクル,,株式会社,東京都,文京区,千駄木２丁目４６番７号,,13,105,1130022,,,2024-08-06,清算の結了等,,,2015-10-05,1,,,,,ツゥインクル,0
16,1010005008730,登記記録の閉鎖等,0,2024-08-20,2024-08-05,無限責任中間法人Ｓｉｎｃｅｒｅ,,その他の設立登記法人,東京都,文京区,後楽１丁目７番１９－５０２号,,13,105,1120004,,,2024-08-05,清算の結了等,,,2015-10-05,1,,,,,シンシア,0
19,1010101013023,登記記録の閉鎖等,0,2024-08-20,2024-08-13,鷹取通商株式会社,,株式会社,東京都,八王子市,中野町２５４５番地の２１,,13,201,1920015,,,2024-08-13,清算の結了等,,,2017-09-22,1,,,,,タカトリツウショウ,0
51,1012301013067,登記記録の閉鎖等,0,2024-08-20,2024-08-16,株式会社さくら建築,,株式会社,東京都,町田市,原町田２丁目４番３号スカイパレス町田３０３号室,,13,209,1940013,,,2024-08-16,清算の結了等,,,2022-07-15,1,,,,,サクラケンチク,0
61,1020002000920,登記記録の閉鎖等,0,2024-08-20,2024-07-30,有限会社ランドテック柴崎,,有限会社,神奈川県,横浜市栄区,犬山町４４番２２号,,14,115,2470026,,,2024-07-30,清算の結了等,,,2015-10-05,1,,,,,ランドテックシバサキ,0
63,1020003013236,登記記録の閉鎖等,0,2024-08-20,2024-07-29,合同会社Ｋ．Ｔエステート,,合同会社,神奈川県,横浜市都筑区,東方町５３１番地２,,14,118,2240045,,,2024-07-29,清算の結了等,,,2017-09-04,1,,,,,ケーティーエステート,0
64,1021001035866,登記記録の閉鎖等,0,2024-08-20,2024-07-30,株式会社スマイルーム,,株式会社,神奈川県,横浜市港南区,東永谷３丁目２８番１７号,,14,111,2330011,,,2024-07-30,清算の結了等,,,2015-10-05,1,,,,,スマイルーム,0
76,1050001053594,登記記録の閉鎖等,0,2024-08-20,2024-08-13,株式会社Ｒｅｏ,,株式会社,茨城県,水戸市,百合が丘町７番地の２,,08,201,3111134,,,2024-08-13,清算の結了等,,,2023-10-04,1,,,,,レオ,0
78,1060002011699,登記記録の閉鎖等,0,2024-08-20,2024-08-01,有限会社トータル・ケア,,有限会社,栃木県,宇都宮市,西３丁目５番２８号,,09,201,3200861,,,2024-08-01,清算の結了等,,,2015-10-05,1,,,,,トータルケア,0
80,1070002017935,登記記録の閉鎖等,0,2024-08-20,2024-08-09,有限会社喜撰,00025665,有限会社,群馬県,藤岡市,鬼石９９番地の３,,10,209,3701401,,,2024-08-09,清算の結了等,,,2015-10-05,1,,,,,キセン,0
84,1080402014424,登記記録の閉鎖等,0,2024-08-20,2024-08-08,有限会社葵のホソカワ,,有限会社,静岡県,浜松市浜名区,引佐町井伊谷１３９８番地の１４２,,22,139,4312212,,,2024-08-08,清算の結了等,,,2015-10-05,1,,,,,アオイノホソカワ,0
85,1100001018609,登記記録の閉鎖等,0,2024-08-20,2024-08-13,ヒロモト観光バス株式会社,,株式会社,長野県,諏訪郡下諏訪町,４９９７番地１８,,20,361,3930000,,,2024-08-13,清算の結了等,,,2015-10-05,1,,,,,ヒロモトカンコウバス,0
86,1100001019004,登記記録の閉鎖等,0,2024-08-20,2024-07-31,ＣＫ管財株式会社,,株式会社,長野県,茅野市,金沢２７５６番地１,,20,214,3910012,,,2024-07-31,清算の結了等,,,2015-10-05,1,,,,,シーケーカンザイ,0
87,1100001020936,登記記録の閉鎖等,0,2024-08-20,2024-08-14,ヨーク信州株式会社,,株式会社,長野県,伊那市,御園２番地,,20,209,3960022,,,2024-08-14,合併による解散等,3180001075517,令和６年８月１日愛知県小牧市大字間々原新田字中島５００番地愛知ヨーク株式会社（3180001075517）に合併し解散,2015-10-05,1,,,,,ヨウクシンシュウ,0
95,1120001133777,登記記録の閉鎖等,0,2024-08-20,2024-08-19,ジェイパシフィックトレーディング株式会社,,株式会社,大阪府,大阪市西区,立売堀２丁目５番４１号,,27,106,5500012,,,2024-08-19,清算の結了等,,,2015-10-05,1,,,,,ジェイパシフィックトレーディング,0
96,1120001136490,登記記録の閉鎖等,0,2024-08-20,2024-08-16,株式会社デッサン,,株式会社,大阪府,大阪市浪速区,難波中１丁目１番１号ナンバセントラルビル５０１,,27,111,5560011,,,2024-08-16,清算の結了等,,,2015-10-05,1,,,,,デッサン,0
109,1120101051103,登記記録の閉鎖等,0,2024-08-20,2024-08-19,株式会社誉セレモニー,,株式会社,大阪府,堺市中区,土師町２丁４番６号,,27,142,5998238,,,2024-08-19,清算の結了等,,,2015-10-05,1,,,,,ホマレセレモニー,0
153,1180303005487,登記記録の閉鎖等,0,2024-08-20,2024-08-07,合同会社彩り,,合同会社,愛知県,岡崎市,柱曙３丁目５番地１０,,23,202,4440833,,,2024-08-07,清算の結了等,,,2022-10-25,1,,,,,イロドリ,0
183,1330002002167,登記記録の閉鎖等,0,2024-08-20,2024-08-08,有限会社梶原産業,,有限会社,熊本県,熊本市中央区,新大江２丁目１０番１号,,43,101,8620972,,,2024-08-08,清算の結了等,,,2015-10-05,1,,,,,カジワラサンギョウ,0
205,1460302004271,登記記録の閉鎖等,0,2024-08-20,2024-08-20,有限会社企画設計マイホームシオミ,,有限会社,北海道,網走市,潮見９丁目３番１２号,,01,211,0930042,,,2024-08-20,清算の結了等,,,2015-10-05,1,,,,,,0
232,2010003040825,登記記録の閉鎖等,0,2024-08-20,2024-08-06,合同会社ｋｏｋｏ’ｓ　ｓｈｏｐ,,合同会社,東京都,千代田区,神田和泉町１番地６－１６ヤマトビル４０５,,13,101,1010024,,,2024-08-06,清算の結了等,,,2023-06-12,1,,,,,ココズショップ,0
238,2010403021425,登記記録の閉鎖等,0,2024-08-20,2024-07-30,合同会社Ａ．Ｐ．１１,,合同会社,東京都,港区,元赤坂１丁目１番８号赤坂コミュニティビル４階,,13,103,1070051,,,2024-07-30,清算の結了等,,,2019-09-10,1,,,,,エーピーイレブン,0
245,2010701034590,登記記録の閉鎖等,0,2024-08-20,2024-08-07,株式会社ハッピスト,,株式会社,東京都,品川区,旗の台６丁目１番地２３号,,13,109,1420064,,,2024-08-07,清算の結了等,,,2017-08-14,1,,,,,ハッピスト,0
282,2021003006022,登記記録の閉鎖等,0,2024-08-20,2024-08-19,日康オール・アラウンドカンパニー合同会社,,合同会社,神奈川県,相模原市緑区,下九沢１７６４番地,,14,151,2520134,,,2024-08-19,清算の結了等,,,2016-06-08,1,,,,,ニッコウオールアラウンドカンパニー,0
317,2080002017693,登記記録の閉鎖等,0,2024-08-20,2024-08-01,有限会社設備タツナミ,,有限会社,静岡県,藤枝市,平島１７３３番地,,22,214,4260011,,,2024-08-01,清算の結了等,,,2015-10-05,1,,,,,セツビタツナミ,0
318,2090001016472,登記記録の閉鎖等,0,2024-08-20,2024-08-13,株式会社ＳＬＦ研究所,,株式会社,山梨県,笛吹市,一宮町金沢２２３番地,,19,211,4050062,,,2024-08-13,清算の結了等,,,2020-04-13,1,,,,,エスエルエフケンキュウジョ,0
367,2180002068850,登記記録の閉鎖等,0,2024-08-20,2024-08-07,有限会社かつ条,,有限会社,愛知県,小牧市,大字岩崎字上ノ郷戸２００５番地１,,23,219,4850011,,,2024-08-07,清算の結了等,,,2015-10-05,1,,,,,カツジョウ,0
372,2210001001585,登記記録の閉鎖等,0,2024-08-20,2024-08-19,株式会社シルファ,,株式会社,福井県,坂井市,春江町江留上中央４番地２,,18,210,9190453,,,2024-08-19,清算の結了等,,,2015-10-05,1,,,,,シルファ,0
375,2220005005805,登記記録の閉鎖等,0,2024-08-20,2024-08-07,輪島市商業協同組合,,その他の設立登記法人,石川県,輪島市,宅田町７字３７番地,,17,204,9280022,,,2024-08-07,清算の結了等,,,2015-10-05,1,,,,,,0
376,2220005008758,登記記録の閉鎖等,0,2024-08-20,2024-08-13,一般社団法人慈空,,その他の設立登記法人,石川県,金沢市,東長江町伊１番地１３,,17,201,9200822,,,2024-08-13,清算の結了等,,,2023-05-17,1,,,,,ジクウ,0
379,2240001061981,登記記録の閉鎖等,0,2024-08-20,2024-08-19,あんしん住宅株式会社,,株式会社,広島県,広島市安佐南区,祇園６丁目２０番１号,,34,105,7310138,,,2024-08-19,清算の結了等,,,2023-08-14,1,,,,,アンシンジュウタク,0
380,2240002017017,登記記録の閉鎖等,0,2024-08-20,2024-08-16,有限会社やすらぎ寝装,,有限会社,広島県,広島市安佐南区,毘沙門台２丁目５１番６号,,34,105,7310152,,,2024-08-16,清算の結了等,,,2015-10-05,1,,,,,ヤスラギシンソウ,0
399,2330001019855,登記記録の閉鎖等,0,2024-08-20,2024-08-08,株式会社崇拝,,株式会社,熊本県,合志市,豊岡２０３０番地２７,,43,216,8611115,,,2024-08-08,清算の結了等,,,2015-10-05,1,,,,,スウハイ,0
401,2330002015250,登記記録の閉鎖等,0,2024-08-20,2024-08-08,有限会社Ｆ・４,,有限会社,熊本県,菊池市,野間口２５９番地１,,43,210,8611324,,,2024-08-08,清算の結了等,,,2015-10-05,1,,,,,エフフォー,0
404,2340001002199,登記記録の閉鎖等,0,2024-08-20,2024-08-16,株式会社昭和シーイーコンサルタンツ,,株式会社,鹿児島県,鹿児島市,武岡１丁目１２番１９号,,46,201,8900031,,,2024-08-16,清算の結了等,,,2015-10-05,1,,,,,ショウワシーイーコンサルタンツ,0
407,2370001015058,登記記録の閉鎖等,0,2024-08-20,2024-07-29,野村給食ＰＦＩ株式会社,,株式会社,宮城県,仙台市青葉区,一番町２丁目２番１３号,,04,101,9800811,,,2024-07-29,清算の結了等,,,2015-10-05,1,,,,,ノムラキュウショクピーエフアイ,0
415,2420001008601,登記記録の閉鎖等,0,2024-08-20,2024-08-13,華張ネットワーク株式会社,,株式会社,青森県,五所川原市,大字沖飯詰字帯刀２７番地１,,02,205,0370092,,,2024-08-13,清算の結了等,,,2015-10-05,1,,,,,ケパルネットワーク,0
419,2430001050338,登記記録の閉鎖等,0,2024-08-20,2024-08-19,株式会社ビルシヤナジヤパン,,株式会社,北海道,小樽市,新光２丁目１番３号,,01,203,0470152,,,2024-08-19,清算の結了等,,,2015-10-05,1,,,,,ビルシヤナジヤパン,0
437,3010001110471,登記記録の閉鎖等,0,2024-08-20,2024-08-05,株式会社ＤＯ　ｐｏｉｎｔ,,株式会社,東京都,中央区,新川１丁目６番１１号,,13,102,1040033,,,2024-08-05,清算の結了等,,,2015-10-05,1,,,,,ドゥポイント,0
443,3010001225947,登記記録の閉鎖等,0,2024-08-20,2024-08-05,株式会社トーションメディトロニクスジャパン,,株式会社,東京都,中央区,日本橋大伝馬町１２番３－１２０１号,,13,102,1030011,,,2024-08-05,清算の結了等,,,2022-04-21,1,,,,,トーションメディトロニクスジャパン,0
474,3010701007959,登記記録の閉鎖等,0,2024-08-20,2024-08-07,株式会社能一産業,,株式会社,東京都,品川区,東五反田２丁目１９番２号,,13,109,1410022,,,2024-08-07,清算の結了等,,,2015-10-05,1,,,,,,0
476,3010802010341,登記記録の閉鎖等,0,2024-08-20,2024-08-06,有限会社トップシェルズ,,有限会社,東京都,大田区,西蒲田７丁目４７番１号,,13,111,1440051,,,2024-08-06,清算の結了等,,,2015-10-05,1,,,,,トップシェルズ,0
477,3010802021495,登記記録の閉鎖等,0,2024-08-20,2024-08-14,有限会社アート・リタッチング,,有限会社,東京都,大田区,中央８丁目４４番１５号,,13,111,1430024,,,2024-08-14,清算の結了等,,,2024-05-20,1,,,,,アートリタッチング,0
493,3011801003575,登記記録の閉鎖等,0,2024-08-20,2024-08-13,永妻産業株式会社,,株式会社,東京都,葛飾区,立石２丁目１番５号,,13,122,1240012,,,2024-08-13,清算の結了等,,,2015-10-05,1,,,,,ナガヅマサンギョウ,0
510,3021002034130,登記記録の閉鎖等,0,2024-08-20,2024-08-16,有限会社酢屋商店,,有限会社,神奈川県,愛甲郡愛川町,田代４７６番地６,,14,401,2430306,,,2024-08-16,清算の結了等,,,2015-10-05,1,,,,,スヤショウテン,0
516,3030001045542,登記記録の閉鎖等,0,2024-08-20,2024-08-13,大谷照明株式会社,,株式会社,埼玉県,川越市,大字今福２１７番地１,,11,201,3501151,,,2024-08-13,清算の結了等,,,2015-10-05,1,,,,,オオタニショウメイ,0
544,3110002009950,登記記録の閉鎖等,0,2024-08-20,2024-08-08,有限会社新潟リビング,,有限会社,新潟県,新潟市秋葉区,田家１丁目１１番９号,,15,105,9560836,,,2024-08-08,清算の結了等,,,2015-10-05,1,,,,,ニイガタリビング,0
548,3120001046960,登記記録の閉鎖等,0,2024-08-20,2024-08-16,株式会社福元製作所,,株式会社,大阪府,大阪市西区,九条南２丁目３１番１９号,,27,106,5500025,,,2024-08-16,清算の結了等,,,2015-10-05,1,,,,,フクモトセイサクショ,0
552,3120001092625,登記記録の閉鎖等,0,2024-08-20,2024-08-16,株式会社ワタダ,,株式会社,大阪府,大阪市中央区,内本町１丁目３番１０－１１０５号,,27,128,5400026,,,2024-08-16,清算の結了等,,,2015-10-05,1,,,,,ワタダ,0
564,3120102023859,登記記録の閉鎖等,0,2024-08-20,2024-08-19,有限会社番平製材所,,有限会社,大阪府,泉佐野市,上町２丁目９番１４号,,27,213,5980007,,,2024-08-19,清算の結了等,,,2015-10-05,1,,,,,バンヘイセイザイショ,0
584,3140001087953,登記記録の閉鎖等,0,2024-08-20,2024-08-19,フレンド株式会社,,株式会社,兵庫県,尼崎市,東難波町４丁目２番２９号,,28,202,6600892,,,2024-08-19,清算の結了等,,,2015-10-05,1,,,,,フレンド,0
599,3180001096711,登記記録の閉鎖等,0,2024-08-20,2024-08-07,アマ金属工業株式会社,,株式会社,愛知県,海部郡蟹江町,桜４丁目６７番地,,23,425,4970038,,,2024-08-07,清算の結了等,,,2015-10-05,1,,,,,アマキンゾクコウギョウ,0
604,3180001131071,登記記録の閉鎖等,0,2024-08-20,2024-08-07,株式会社ドラゴン,,株式会社,愛知県,名古屋市中区,丸の内３丁目４番３３号プレサンス丸の内フォート１００２号,,23,106,4600002,,,2024-08-07,清算の結了等,,,2018-02-06,1,,,,,ドラゴン,0
610,3180002026403,登記記録の閉鎖等,0,2024-08-20,2024-08-07,平岩メディカルサービス有限会社,,有限会社,愛知県,名古屋市緑区,鳴海町字相原町２６番地の２,,23,114,4580801,,,2024-08-07,清算の結了等,,,2015-10-05,1,,,,,ヒライワメディカルサービス,0
611,3180002052275,登記記録の閉鎖等,0,2024-08-20,2024-08-08,有限会社キトウ,,有限会社,愛知県,名古屋市北区,楠３丁目９０７番地２,,23,103,4620012,,,2024-08-08,清算の結了等,,,2015-10-05,1,,,,,キトウ,0
616,3200002001031,登記記録の閉鎖等,0,2024-08-20,2024-08-15,有限会社金子金工所,,有限会社,岐阜県,岐阜市,前一色２丁目７番１５号,,21,201,5008232,,,2024-08-15,清算の結了等,,,2015-10-05,1,,,,,カネコキンコウショ,0
617,3200003004000,登記記録の閉鎖等,0,2024-08-20,2024-08-09,Ｎｅｔ　Ｃａｒｏｌｉｎｅ合同会社,,合同会社,愛知県,名古屋市中川区,伏屋４丁目４０４番地,,23,110,4540996,,,2024-08-09,清算の結了等,,,2017-06-12,1,,,,,ネットキャロライン,0
628,3260003002766,登記記録の閉鎖等,0,2024-08-20,2024-08-06,合同会社Ｊｕｓｔ　ＳＭＩＬＥ,,合同会社,岡山県,岡山市中区,東川原２５０番地４２,,33,102,7038255,,,2024-08-06,清算の結了等,,,2019-01-28,1,,,,,ジャストスマイル,0
651,3340002008525,登記記録の閉鎖等,0,2024-08-20,2024-08-15,有限会社フロムナウ,,有限会社,鹿児島県,鹿児島市,荒田１丁目１６番２８号,,46,201,8900054,,,2024-08-15,清算の結了等,,,2015-10-05,1,,,,,フロムナウ,0
653,3340002008748,登記記録の閉鎖等,0,2024-08-20,2024-08-13,有限会社マエダ医科器械,,有限会社,鹿児島県,鹿児島市,紫原６丁目５３番８号,,46,201,8900082,,,2024-08-13,清算の結了等,,,2015-10-05,1,,,,,マエダイカキカイ,0
654,3340002013450,登記記録の閉鎖等,0,2024-08-20,2024-08-16,有限会社上原石油店,,有限会社,鹿児島県,霧島市,福山町福山４７０８番地,,46,218,8994501,,,2024-08-16,清算の結了等,,,2015-10-05,1,,,,,ウエハラセキユテン,0
660,3350001005885,登記記録の閉鎖等,0,2024-08-20,2024-08-08,農業生産法人神農株式会社,,株式会社,宮崎県,宮崎市,田野町乙１７３０番地２,,45,201,8891702,,,2024-08-08,清算の結了等,,,2015-10-05,1,,,,,ノウギョウセイサンホウジンシンノウ,0
667,3370003003233,登記記録の閉鎖等,0,2024-08-20,2024-08-16,合同会社ＫＡＳＡＮＡ　ＭＯＴＯＲＳ,,合同会社,福岡県,北九州市小倉南区,湯川新町４丁目２３番６３号,,40,107,8000256,,,2024-08-16,清算の結了等,,,2015-10-05,1,,,,,カサナモーターズ,0
681,3450001012574,登記記録の閉鎖等,0,2024-08-20,2024-08-19,株式会社Ｅ．ＤＡＳＨ,,株式会社,北海道,旭川市,流通団地四条５丁目２１番地３,,01,204,0798444,,,2024-08-19,清算の結了等,,,2018-11-07,1,,,,,イーダッシュ,0
683,3470005000557,登記記録の閉鎖等,0,2024-08-20,2024-08-13,医療法人社団玄道会小林医院,,その他の設立登記法人,香川県,高松市,錦町２丁目１７番１１号,,37,201,7600020,,,2024-08-13,清算の結了等,,,2015-10-05,1,,,,,ゲンドウカイコバヤシイイン,0
706,4010002012526,登記記録の閉鎖等,0,2024-08-20,2024-08-06,有限会社デザイン春秋会,,有限会社,東京都,千代田区,平河町２丁目４番８号,,13,101,1020093,,,2024-08-06,清算の結了等,,,2015-10-05,1,,,,,デザインシュンジュウカイ,0
712,4010101013482,登記記録の閉鎖等,0,2024-08-20,2024-08-19,ＢＥＬＬ　ＦＬＥＵＲ株式会社,,株式会社,東京都,八王子市,子安町１丁目４１番３６号,,13,201,1920904,,,2024-08-19,清算の結了等,,,2018-10-25,1,,,,,ベルフール,0
718,4010501037858,登記記録の閉鎖等,0,2024-08-20,2024-08-14,株式会社松本悟朗商店,,株式会社,東京都,台東区,松が谷２丁目２９番８－１０６号ベビーマンション,,13,106,1110036,,,2024-08-14,清算の結了等,,,2015-10-05,1,,,,,マツモトゴロウショウテン,0
731,4010902023300,登記記録の閉鎖等,0,2024-08-20,2024-08-13,有限会社アーバン,,有限会社,東京都,東村山市,栄町１丁目２番地２号レヂオンス久米川６－３０１号室,,13,213,1890013,,,2024-08-13,清算の結了等,,,2015-10-05,1,,,,,アーバン,0
732,4010903007244,登記記録の閉鎖等,0,2024-08-20,2024-08-19,Ｂｅ　Ｐｉｎｅａｐｐｌｅ合同会社,,合同会社,東京都,北区,中里１丁目２１番２号中里ビル１Ｆ,,13,117,1140015,,,2024-08-19,清算の結了等,,,2022-03-22,1,,,,,ビーパイナップル,0
735,4011003009296,登記記録の閉鎖等,0,2024-08-20,2024-08-15,クラマト合同会社,,合同会社,東京都,渋谷区,恵比寿西１丁目１５番６,,13,113,1500021,,,2024-08-15,合併による解散等,9360001018864,令和６年８月１日沖縄県宜野湾市宇地泊二丁目２５番２３号株式会社イノベーションエイド（9360001018864）に合併し解散,2018-10-22,1,,,,,クラマト,0
741,4011101100601,登記記録の閉鎖等,0,2024-08-20,2024-07-17,ＱＵＡＮＴ株式会社,,株式会社,東京都,港区,六本木６丁目１１番１号,,13,103,1060032,,,2024-07-17,合併による解散等,4010401141594,令和６年７月１日東京都港区六本木六丁目１１番１号グリーライフスタイル株式会社（4010401141594）に合併し解散,2022-10-21,1,,,,,クアント,0
747,4012401009714,登記記録の閉鎖等,0,2024-08-20,2024-08-19,株式会社セイザンプランニング,,株式会社,東京都,調布市,飛田給１丁目１０番地１６,,13,208,1820036,,,2024-08-19,清算の結了等,,,2015-10-05,1,,,,,セイザンプランニング,0
751,4020001039057,登記記録の閉鎖等,0,2024-08-20,2024-07-29,株式会社アルナシステム,,株式会社,神奈川県,横浜市西区,みなとみらい４丁目４－２横浜ブルーアベニュー１２階,,14,103,2200012,,,2024-07-29,清算の結了等,,,2015-10-05,1,,,,,アルナシステム,0
752,4020001128363,登記記録の閉鎖等,0,2024-08-20,2024-07-29,おうち株式会社,,株式会社,神奈川県,横浜市西区,岡野２丁目１３番５号岡野パークハイツ１０３号室,,14,103,2200073,,,2024-07-29,清算の結了等,,,2018-10-17,1,,,,,オウチ,0
759,4040001013241,登記記録の閉鎖等,0,2024-08-20,2024-08-01,いろどり館株式会社,,株式会社,千葉県,千葉市中央区,都町１丁目４０番９号,,12,101,2600001,,,2024-08-01,清算の結了等,,,2015-10-05,1,,,,,イロドリカン,0
774,4080001023352,登記記録の閉鎖等,0,2024-08-20,2024-08-08,株式会社パラマウントシッピング,,株式会社,静岡県,静岡市駿河区,鎌田１２番地の７,,22,102,4210133,,,2024-08-08,清算の結了等,,,2020-01-24,1,,,,,パラマウントシッピング,0
775,4080002000111,登記記録の閉鎖等,0,2024-08-20,2024-08-09,有限会社アートライン,,有限会社,静岡県,静岡市葵区,北安東５丁目２０番１８号,,22,101,4200881,,,2024-08-09,清算の結了等,,,2015-10-05,1,,,,,アートライン,0
792,4120002001055,登記記録の閉鎖等,0,2024-08-20,2024-08-19,有限会社ケント,,有限会社,大阪府,大阪市城東区,古市３丁目１３番１１号,,27,118,5360001,,,2024-08-19,清算の結了等,,,2015-10-05,1,,,,,ケント,0
803,4140001084792,登記記録の閉鎖等,0,2024-08-20,2024-08-15,谷仲林業株式会社,,株式会社,兵庫県,洲本市,千草甲１番地,,28,205,6560031,,,2024-08-15,清算の結了等,,,2015-10-05,1,,,,,タニナカリンギョウ,0
806,4140002035778,登記記録の閉鎖等,0,2024-08-20,2024-08-16,有限会社近藤食品,,有限会社,兵庫県,加古川市,米田町平津４３２番地の４,,28,210,6750054,,,2024-08-16,清算の結了等,,,2015-10-05,1,,,,,,0
811,4160005003202,登記記録の閉鎖等,0,2024-08-20,2024-08-19,びわこウッド事業協同組合,,その他の設立登記法人,滋賀県,大津市,伊香立北在地町４０８番地,,25,201,5200351,,,2024-08-19,清算の結了等,,,2015-10-05,1,,,,,ビワコウッド,0
813,4170002000696,登記記録の閉鎖等,0,2024-08-20,2024-08-14,有限会社大住商店,,有限会社,和歌山県,和歌山市,湊御殿３丁目８番地,,30,201,6408286,,,2024-08-14,清算の結了等,,,2015-10-05,1,,,,,オオスミショウテン,0
814,4180001104431,登記記録の閉鎖等,0,2024-08-20,2024-08-07,アイエムケアサービス株式会社,,株式会社,愛知県,名古屋市守山区,小幡南２丁目１８番１２号,,23,113,4630048,,,2024-08-07,清算の結了等,,,2015-10-05,1,,,,,アイエムケアサービス,0
823,4180002066373,登記記録の閉鎖等,0,2024-08-20,2024-08-01,有限会社セイエイ産業,,有限会社,愛知県,春日井市,如意申町４丁目２３番地の１,,23,206,4860918,,,2024-08-01,合併による解散等,1180001074669,令和６年８月１日愛知県春日井市如意申町四丁目２３番地の１株式会社成相組（1180001074669）に合併し解散,2015-10-05,1,,,,,セイエイサンギョウ,0
825,4180005017134,登記記録の閉鎖等,0,2024-08-20,2024-08-13,特定非営利活動法人ホリスティック健康センター,,その他の設立登記法人,愛知県,名古屋市南区,菊住２丁目６番１９号,,23,112,4570012,,,2024-08-13,清算の結了等,,,2017-02-01,1,,,,,ホリスティックケンコウセンター,0
832,4220002008973,登記記録の閉鎖等,0,2024-08-20,2024-08-08,有限会社サンエー,,有限会社,石川県,金沢市,御影町４番１５号,,17,201,9218021,,,2024-08-08,清算の結了等,,,2015-10-05,1,,,,,サンエー,0
839,4240002037070,登記記録の閉鎖等,0,2024-08-20,2024-08-05,有限会社いち文,,有限会社,広島県,廿日市市,津田４０６５番地の２,,34,213,7380222,,,2024-08-05,清算の結了等,,,2015-10-05,1,,,,,イチブン,0
841,4260002019876,登記記録の閉鎖等,0,2024-08-20,2024-08-16,トキメック有限会社,,有限会社,岡山県,倉敷市,中畝６丁目６番１０号,,33,202,7128051,,,2024-08-16,清算の結了等,,,2015-10-05,1,,,,,トキメック,0
843,4290001050689,登記記録の閉鎖等,0,2024-08-20,2024-07-08,株式会社蕎麦麺工房高尾,00092611,株式会社,福岡県,久留米市,田主丸町菅原２３００番地の１３,,40,203,8391225,,,2024-07-08,清算の結了等,,,2015-10-05,1,,,,,ソバメンコウボウタカオ,0
857,4320001007652,登記記録の閉鎖等,0,2024-08-20,2024-08-16,株式会社シルクオニキ,,株式会社,大分県,宇佐市,大字山下１４５６番地,,44,211,8790474,,,2024-08-16,清算の結了等,,,2020-07-09,1,,,,,シルクオニキ,0
876,4390001011672,登記記録の閉鎖等,0,2024-08-20,2024-08-06,アクアリサーチ株式会社,,株式会社,山形県,米沢市,金池５丁目６番２９号,,06,202,9920012,,,2024-08-06,清算の結了等,,,2015-10-05,1,,,,,アクアリサーチ,0
877,4400001009450,登記記録の閉鎖等,0,2024-08-20,2024-08-05,株式会社ｂｅａｕｔｙ・Ｉ,,株式会社,岩手県,宮古市,末広町６番４号オークルＭＴ１階,,03,202,0270084,,,2024-08-05,清算の結了等,,,2015-10-05,1,,,,,ビューティーアイ,0
880,4470002018337,登記記録の閉鎖等,0,2024-08-20,2024-08-16,有限会社織辺工務店,,有限会社,香川県,東かがわ市,引田１８８４番地１,,37,207,7692901,,,2024-08-16,清算の結了等,,,2015-10-05,1,,,,,オリベコウムテン,0
886,5010001088938,登記記録の閉鎖等,0,2024-08-20,2024-08-06,Ｂｒｉｄｇｅ　Ｃａｐｉｔａｌ　Ａｓｓｅｔ　Ｍａｎａｇｅｍｅｎｔ株式会社,,株式会社,東京都,千代田区,九段南２丁目５番１号,,13,101,1020074,,,2024-08-06,清算の結了等,,,2015-10-05,1,,,,,ブリッジキャピタルアセットマネジメント,0
887,5010001124718,登記記録の閉鎖等,0,2024-08-20,2024-08-05,株式会社オフィス・ワット,,株式会社,東京都,中央区,東日本橋２丁目１５番７－９０３号,,13,102,1030004,,,2024-08-05,清算の結了等,,,2015-10-05,1,,,,,オフィスワット,0
924,5011201018008,登記記録の閉鎖等,0,2024-08-20,2024-08-19,株式会社ワイズ・ソリューション,,株式会社,東京都,中野区,中央４丁目１番３－３０１号,,13,114,1640011,,,2024-08-19,清算の結了等,,,2015-10-05,1,,,,,ワイズソリューション,0
928,5011703002723,登記記録の閉鎖等,0,2024-08-20,2024-08-06,合同会社ＹＯＫＯ,,合同会社,東京都,千代田区,神田佐久間町３丁目３８番地第５東ビル５階,,13,101,1010025,,,2024-08-06,清算の結了等,,,2020-12-08,1,,,,,ヨウコ,0
959,5040002014626,登記記録の閉鎖等,0,2024-08-20,2024-08-02,ヘルスインテリジェンス有限会社,,有限会社,千葉県,千葉市緑区,あすみが丘９丁目２１番地１２,,12,105,2670066,,,2024-08-02,清算の結了等,,,2015-10-05,1,,,,,ヘルスインテリジェンス,0
965,5060005007286,登記記録の閉鎖等,0,2024-08-20,2024-08-06,医療法人きくち矯正歯科,,その他の設立登記法人,栃木県,宇都宮市,仲町１番１６号,,09,201,3200023,,,2024-08-06,清算の結了等,,,2015-10-05,1,,,,,キクチキョウセイシカ,0
978,5100002014875,登記記録の閉鎖等,0,2024-08-20,2024-08-02,有限会社ミツギ,,有限会社,長野県,上田市,中之条６８５番地,,20,203,3860034,,,2024-08-02,清算の結了等,,,2015-10-05,1,,,,,ミツギ,0
981,5110002022373,登記記録の閉鎖等,0,2024-08-20,2024-08-08,有限会社江口鉄工所,,有限会社,新潟県,上越市,春日新田２丁目７番２８号,,15,222,9420061,,,2024-08-08,清算の結了等,,,2015-10-05,1,,,,,エグチテッコウショ,0
985,5120001203460,登記記録の閉鎖等,0,2024-08-20,2024-08-19,アラカルト株式会社,,株式会社,大阪府,東大阪市,本庄中１丁目１－１０,,27,227,5780957,,,2024-08-19,清算の結了等,,,2017-02-06,1,,,,,アラカルト,0
991,5120003011969,登記記録の閉鎖等,0,2024-08-20,2024-08-19,合同会社周南開発,,合同会社,大阪府,大阪市淀川区,宮原１丁目１９番２３－８２７号,,27,123,5320003,,,2024-08-19,清算の結了等,,,2016-08-31,1,,,,,シュウナンカイハツ,0
995,5120901030277,登記記録の閉鎖等,0,2024-08-20,2024-08-14,株式会社小寺産業,,株式会社,大阪府,豊中市,上野東３丁目１２番３１号,,27,203,5600013,,,2024-08-14,清算の結了等,,,2015-10-05,1,,,,,コデラサンギョウ,0
997,5122001023244,登記記録の閉鎖等,0,2024-08-20,2024-08-09,株式会社ＲＣＩ,,株式会社,大阪府,八尾市,福万寺町２丁目１２番地,,27,212,5810842,,,2024-08-09,清算の結了等,,,2015-10-05,1,,,,,アールシーアイ,0
1000,5130002004171,登記記録の閉鎖等,0,2024-08-20,2024-08-15,有限会社波多野スポーツ,,有限会社,京都府,京都市北区,西賀茂柿ノ木町１４－２,,26,101,6038821,,,2024-08-15,清算の結了等,,,2015-10-05,1,,,,,ハタノスポーツ,0
1005,5180001003946,登記記録の閉鎖等,0,2024-08-20,2024-08-07,株式会社国際アレテーパイデイア研究所,,株式会社,愛知県,名古屋市千種区,南明町２丁目１８番地,,23,101,4640845,,,2024-08-07,清算の結了等,,,2015-10-05,1,,,,,コクサイアレテーパイデイアケンキュウショ,0
1012,5180001137406,登記記録の閉鎖等,0,2024-08-20,2024-08-07,株式会社ｅｃｒ,,株式会社,愛知県,名古屋市天白区,植田山４丁目１０１１番地,,23,116,4680001,,,2024-08-07,清算の結了等,,,2019-07-17,1,,,,,イーシーアール,0
1015,5180002058312,登記記録の閉鎖等,0,2024-08-20,2024-08-06,有限会社若葉電機工業,,有限会社,愛知県,名古屋市守山区,小幡２丁目１２番８号,,23,113,4630011,,,2024-08-06,清算の結了等,,,2015-10-05,1,,,,,ワカバデンキコウギョウ,0
1066,5340005003505,登記記録の閉鎖等,0,2024-08-20,2024-08-05,医療法人吉永クリニック,,その他の設立登記法人,鹿児島県,薩摩川内市,入来町浦之名７５４２番地１,,46,215,8951402,,,2024-08-05,清算の結了等,,,2015-10-05,1,,,,,ヨシナガクリニック,0
1068,5360001017985,登記記録の閉鎖等,0,2024-08-20,2024-08-16,株式会社にんぎょの郷,,株式会社,沖縄県,石垣市,字桃里１６５番地１７,,47,207,9070241,,,2024-08-16,清算の結了等,,,2015-10-05,1,,,,,ニンギョノサト,0
1073,5370605000758,登記記録の閉鎖等,0,2024-08-20,2024-08-05,宮城県仙台港木質系グリーン製品開発協同組合,,その他の設立登記法人,宮城県,多賀城市,宮内２丁目４番２号,,04,209,9850844,,,2024-08-05,清算の結了等,,,2015-10-05,1,,,,,ミヤギケンセンダイコウモクシツケイグリーンセイヒンカイハツ,0
1075,5390005002683,登記記録の閉鎖等,0,2024-08-20,2024-08-05,特定非営利活動法人人材活用支援協会,,その他の設立登記法人,山形県,山形市,桜田東４丁目８番１４号,,06,201,9902323,,,2024-08-05,清算の結了等,,,2015-10-05,1,,,,,,0
1084,5470002001036,登記記録の閉鎖等,0,2024-08-20,2024-08-16,有限会社インテリア三協商会,,有限会社,香川県,高松市,木太町１０７７番地６,,37,201,7600080,,,2024-08-16,清算の結了等,,,2015-10-05,1,,,,,インテリアサンキョウショウカイ,0
1105,6010005031843,登記記録の閉鎖等,0,2024-08-20,2024-08-05,ロータス一般社団法人,,その他の設立登記法人,東京都,千代田区,丸の内３丁目１番１号東京共同会計事務所内,,13,101,1000005,,,2024-08-05,清算の結了等,,,2020-05-21,1,,,,,ロータス,0
1109,6010401046651,登記記録の閉鎖等,0,2024-08-20,2024-08-05,相互キャピタル株式会社,,株式会社,東京都,文京区,小日向１丁目１８番７号,,13,105,1120006,,,2024-08-05,清算の結了等,,,2015-10-05,1,,,,,ソウゴキャピタル,0
1114,6010501050355,登記記録の閉鎖等,0,2024-08-20,2024-08-15,株式会社ライフ,,株式会社,東京都,台東区,上野６丁目８番１９号,,13,106,1100005,,,2024-08-15,清算の結了等,,,2023-04-25,1,,,,,ライフ,0
1121,6010902009108,登記記録の閉鎖等,0,2024-08-20,2024-08-13,有限会社ダイセツ,,有限会社,東京都,世田谷区,宮坂２丁目１７番７号,,13,112,1560051,,,2024-08-13,清算の結了等,,,2015-10-05,1,,,,,ダイセツ,0
1138,6011502001149,登記記録の閉鎖等,0,2024-08-20,2024-08-09,有限会社大島製作所,,有限会社,東京都,北区,豊島４丁目１６番２６号,,13,117,1140003,,,2024-08-09,清算の結了等,,,2015-10-05,1,,,,,オオシマセイサクショ,0
1141,6011802019246,登記記録の閉鎖等,0,2024-08-20,2024-08-13,有限会社ミユキ,,有限会社,東京都,足立区,扇１丁目５５番７号,,13,121,1230873,,,2024-08-13,清算の結了等,,,2015-10-05,1,,,,,ミユキ,0
1142,6011802023116,登記記録の閉鎖等,0,2024-08-20,2024-08-13,有限会社山下式教育研究所,,有限会社,東京都,足立区,梅島１丁目２１番３号,,13,121,1210816,,,2024-08-13,清算の結了等,,,2015-10-05,1,,,,,ヤマシタシキキョウイクケンキュウジョ,0
1156,6020002054656,登記記録の閉鎖等,0,2024-08-20,2024-07-29,有限会社ディーアンドシー,,有限会社,神奈川県,横浜市青葉区,荏田西２丁目４番１１号,,14,117,2250014,,,2024-07-29,清算の結了等,,,2015-10-05,1,,,,,ディーアンドシー,0
1160,6030001088729,登記記録の閉鎖等,0,2024-08-20,2024-08-08,ＫＲＥＫＩＳ　ＴＲＡＤＩＮＧ株式会社,,株式会社,埼玉県,熊谷市,日向１３５７番地１,,11,202,3600224,,,2024-08-08,清算の結了等,,,2015-10-05,1,,,,,カレキイストレーディング,0
1165,6040001098636,登記記録の閉鎖等,0,2024-08-20,2024-08-02,株式会社佐々木組,,株式会社,千葉県,市川市,田尻３丁目１１番１９－３０６号（カザリヤマンションＢ）,,12,203,2720014,,,2024-08-02,清算の結了等,,,2017-01-31,1,,,,,ササキグミ,0
1174,6050003006307,登記記録の閉鎖等,0,2024-08-20,2024-08-09,合同会社ＭＯＩ＆ＴＯＩ,,合同会社,茨城県,結城郡八千代町,大字塩本５４８－２６,,08,521,3003501,,,2024-08-09,清算の結了等,,,2022-01-20,1,,,,,モイアンドトイ,0
1179,6070002014589,登記記録の閉鎖等,0,2024-08-20,2024-08-19,有限会社磯部温室バラ園,,有限会社,群馬県,安中市,原市４丁目３番１６号,,10,211,3790133,,,2024-08-19,清算の結了等,,,2015-10-05,1,,,,,イソベオンシツバラエン,0
1201,6120001146527,登記記録の閉鎖等,0,2024-08-20,2024-08-16,株式会社フレスコ,,株式会社,大阪府,大阪市北区,本庄西２丁目１７番１１号ＯＳＴビル３階Ｃ,,27,127,5310073,,,2024-08-16,清算の結了等,,,2015-10-05,1,,,,,フレスコ,0
1202,6120001185005,登記記録の閉鎖等,0,2024-08-20,2024-08-19,株式会社ダブルダレ,,株式会社,大阪府,大阪市北区,梅田１丁目２番２号大阪駅前第２ビル１２－１２,,27,127,5300001,,,2024-08-19,清算の結了等,,,2015-10-05,1,,,,,ダブルダレ,0
1205,6120001253827,登記記録の閉鎖等,0,2024-08-20,2024-08-19,安興科技株式会社,,株式会社,大阪府,大阪市東淀川区,小松１丁目１４番１８号ハイツ上新第五小松４０７号,,27,114,5330004,,,2024-08-19,清算の結了等,,,2023-04-18,1,,,,,アンコウカギ,0
1211,6120002059208,登記記録の閉鎖等,0,2024-08-20,2024-08-16,有限会社ジュピターコーポレーション,,有限会社,大阪府,大阪市淀川区,宮原２丁目１２番１４号ライオンズマンション新大阪第５－４１６号,,27,123,5320003,,,2024-08-16,清算の結了等,,,2015-10-05,1,,,,,ジュピターコーポレーション,0
1216,6122001013855,登記記録の閉鎖等,0,2024-08-20,2024-08-14,株式会社ＥＣＯＰＬＡＮ,,株式会社,大阪府,東大阪市,花園西町１丁目１２番１２号,,27,227,5780936,,,2024-08-14,清算の結了等,,,2015-10-05,1,,,,,エコプラン,0
1223,6140001093404,登記記録の閉鎖等,0,2024-08-20,2024-08-19,Ｍ’ｓ　Ｏｐｐｏｒｔｕｎｉｔｙ株式会社,,株式会社,兵庫県,神戸市中央区,三宮町１丁目４番２０号,,28,110,6500021,,,2024-08-19,清算の結了等,,,2015-10-05,1,,,,,,0
1224,6140001108657,登記記録の閉鎖等,0,2024-08-20,2024-08-19,Ｇ－ＳＴＡＲＴ株式会社,,株式会社,兵庫県,神戸市中央区,下山手通８丁目７番９号,,28,110,6500011,,,2024-08-19,清算の結了等,,,2018-01-05,1,,,,,,0
1231,6150002001570,登記記録の閉鎖等,0,2024-08-20,2024-08-16,有限会社プロダクティビィティパートナー,,有限会社,奈良県,奈良市,丸山２丁目１２２０番地の１４０,,29,201,6310056,,,2024-08-16,清算の結了等,,,2015-10-05,1,,,,,プロダクティビィティパートナー,0
1232,6170002001230,登記記録の閉鎖等,0,2024-08-20,2024-08-19,有限会社教育研究舎,,有限会社,和歌山県,和歌山市,黒田２丁目２番２２号,,30,201,6408341,,,2024-08-19,清算の結了等,,,2015-10-05,1,,,,,キョウイクケンキュウシャ,0
1236,6180002026813,登記記録の閉鎖等,0,2024-08-20,2024-08-08,有限会社山本塗装店,,有限会社,愛知県,名古屋市緑区,鳴海町字清水寺２６番地,,23,114,4580801,,,2024-08-08,清算の結了等,,,2015-10-05,1,,,,,ヤマモトトソウテン,0
1245,6230002013186,登記記録の閉鎖等,0,2024-08-20,2024-08-16,有限会社弥助鮮魚店,,有限会社,富山県,氷見市,栄町９番１号,,16,205,9350005,,,2024-08-16,清算の結了等,,,2015-10-05,1,,,,,ヤスケセンギョテン,0
1253,6270005001003,登記記録の閉鎖等,0,2024-08-20,2024-08-15,特定非営利活動法人岩美あくてぃぶカンパニー,,その他の設立登記法人,鳥取県,岩美郡岩美町,大字浦富１０４１番地１２,,31,302,6810003,,,2024-08-15,清算の結了等,,,2015-10-05,1,,,,,イワミアクティブカンパニー,0
1271,6290002045934,登記記録の閉鎖等,0,2024-08-20,2024-07-11,藤浦工業有限会社,,有限会社,福岡県,飯塚市,伊岐須４３１番地,,40,205,8200053,,,2024-07-11,清算の結了等,,,2015-10-05,1,,,,,フジウラコウギョウ,0
1272,6290002049621,登記記録の閉鎖等,0,2024-08-20,2024-07-05,有限会社仲電業社,,有限会社,福岡県,久留米市,梅満町三ノ江１５４７番地の６,,40,203,8300048,,,2024-07-05,清算の結了等,,,2015-10-05,1,,,,,ナカデンギョウシャ,0
1280,6330001028695,登記記録の閉鎖等,0,2024-08-20,2024-08-05,株式会社Ｒ．ｆｒｅｅ　Ｇｒｏｕｐ,,株式会社,熊本県,玉名市,滑石３７０７－１,,43,206,8650056,,,2024-08-05,清算の結了等,,,2021-06-14,1,,,,,アールフリーグループ,0
1289,6360003013412,登記記録の閉鎖等,0,2024-08-20,2024-08-16,ｍｏｖｅ　ｏｎ合同会社,,合同会社,沖縄県,国頭郡恩納村,字恩納６２４３番地,,47,311,9040411,,,2024-08-16,清算の結了等,,,2023-10-27,1,,,,,ムーブオン,0
1291,6370002018799,登記記録の閉鎖等,0,2024-08-20,2024-08-05,苦竹測量有限会社,,有限会社,宮城県,仙台市泉区,松森字前田５７－１－３０４号,,04,105,9813111,,,2024-08-05,清算の結了等,,,2015-10-05,1,,,,,ニガタケソクリョウ,0
1303,6430001044336,登記記録の閉鎖等,0,2024-08-20,2024-08-19,株式会社すいんぐ,,株式会社,北海道,千歳市,桂木３丁目１０番２２号,,01,224,0660067,,,2024-08-19,清算の結了等,,,2015-10-05,1,,,,,スイング,0
1305,6430003013289,登記記録の閉鎖等,0,2024-08-20,2024-08-15,合同会社Ｕ,,合同会社,北海道,石狩市,生振５４０番５８,,01,235,0613245,,,2024-08-15,清算の結了等,,,2021-10-26,1,,,,,ユー,0
1323,7010003042569,登記記録の閉鎖等,0,2024-08-20,2024-08-05,Ｋａｇｅｒｏ合同会社,,合同会社,東京都,中央区,晴海３丁目１３番１－５０２４号株式会社アートリエールコンサルティング内,,13,102,1040053,,,2024-08-05,清算の結了等,,,2023-12-28,1,,,,,カゲロウ,0
1325,7010005037682,登記記録の閉鎖等,0,2024-08-20,2024-08-05,Ｋａｇｅｒｏ一般社団法人,,その他の設立登記法人,東京都,中央区,晴海３丁目１３番１－５０２４号株式会社アートリエールコンサルティング内,,13,102,1040053,,,2024-08-05,清算の結了等,,,2023-12-28,1,,,,,カゲロウ,0
1329,7010102006846,登記記録の閉鎖等,0,2024-08-20,2024-08-16,有限会社めいぷる,,有限会社,東京都,八王子市,初沢町１２２７番地の４高尾パークハイツＡの９０７,00050441,13,201,1930845,,,2024-08-16,清算の結了等,,,2015-10-05,1,,,,,メイプル,0
1335,7010402009169,登記記録の閉鎖等,0,2024-08-20,2024-07-12,有限会社登坂製作所,,有限会社,東京都,港区,白金６丁目４番１４号,,13,103,1080072,,,2024-07-12,清算の結了等,,,2015-10-05,1,,,,,トサカセイサクショ,0
1341,7010701025379,登記記録の閉鎖等,0,2024-08-20,2024-08-07,吉田興業株式会社,,株式会社,東京都,品川区,旗の台６丁目３０番１１号,,13,109,1420064,,,2024-08-07,清算の結了等,,,2015-10-05,1,,,,,,0
1349,7010903003001,登記記録の閉鎖等,0,2024-08-20,2024-08-05,ハレ合同会社,,合同会社,東京都,世田谷区,瀬田２丁目３１番２号アルス瀬田２号棟２０５号室,,13,112,1580095,,,2024-08-05,清算の結了等,,,2016-01-05,1,,,,,ハレ,0
1361,7011701008324,登記記録の閉鎖等,0,2024-08-20,2024-08-13,リンクインターナショナル株式会社,,株式会社,東京都,江戸川区,中葛西３丁目３３番１４号,,13,123,1340083,,,2024-08-13,清算の結了等,,,2015-10-05,1,,,,,リンクインターナショナル,0
1372,7012401033100,登記記録の閉鎖等,0,2024-08-20,2024-08-19,株式会社微動学舎,,株式会社,東京都,武蔵野市,中町２丁目１９番５号,,13,203,1800006,,,2024-08-19,清算の結了等,,,2017-08-23,1,,,,,ビドウガクシャ,0
1394,7040001050315,登記記録の閉鎖等,0,2024-08-20,2024-08-02,株式会社ベストワン,,株式会社,千葉県,千葉市美浜区,幕張西１丁目２５番１号,,12,106,2610026,,,2024-08-02,清算の結了等,,,2015-10-05,1,,,,,ベストワン,0
1395,7040001063622,登記記録の閉鎖等,0,2024-08-20,2024-08-01,株式会社テック,,株式会社,千葉県,香取市,下飯田７７１番地,,12,236,2890322,,,2024-08-01,清算の結了等,,,2015-10-05,1,,,,,テック,0
1409,7080001001520,登記記録の閉鎖等,0,2024-08-20,2024-08-08,株式会社小長谷,,株式会社,静岡県,静岡市葵区,柳町２１７番地の１レイクリバー安西１－１０２号,,22,101,4200007,,,2024-08-08,清算の結了等,,,2015-10-05,1,,,,,コナガヤ,0
1411,7080001017574,登記記録の閉鎖等,0,2024-08-20,2024-08-08,株式会社愛プロダクツ,,株式会社,静岡県,焼津市,越後島４７６番地の１６,,22,212,4250092,,,2024-08-08,清算の結了等,,,2015-10-05,1,,,,,アイプロダクツ,0
1419,7080102001452,登記記録の閉鎖等,0,2024-08-20,2024-08-13,有限会社三成製作所,,有限会社,静岡県,沼津市,大諏訪６２０番地の１,,22,203,4100873,,,2024-08-13,清算の結了等,,,2015-10-05,1,,,,,サンセイセイサクショ,0
1436,7120101029060,登記記録の閉鎖等,0,2024-08-20,2024-08-16,株式会社ＨＡＮＡ．,,株式会社,大阪府,藤井寺市,沢田１丁目３１番４号,,27,226,5830011,,,2024-08-16,清算の結了等,,,2015-10-05,1,,,,,ハナ,0
1446,7140002023292,登記記録の閉鎖等,0,2024-08-20,2024-08-19,有限会社アルデバラン,,有限会社,兵庫県,神戸市灘区,六甲台町８番４７－６１０号,,28,102,6570013,,,2024-08-19,清算の結了等,,,2015-10-05,1,,,,,アルデバラン,0
1455,7180001140300,登記記録の閉鎖等,0,2024-08-20,2024-08-07,ｃａｓｅ株式会社,,株式会社,愛知県,名古屋市中区,丸の内３丁目４番３３号プレサンス丸の内フォート１００２号室,,23,106,4600002,,,2024-08-07,清算の結了等,,,2020-03-09,1,,,,,ケース,0
1457,7180002014445,登記記録の閉鎖等,0,2024-08-20,2024-08-07,有限会社成田工業,,有限会社,愛知県,名古屋市南区,桜台１丁目９番５号,,23,112,4570005,,,2024-08-07,清算の結了等,,,2015-10-05,1,,,,,ナリタコウギョウ,0
1458,7180002016490,登記記録の閉鎖等,0,2024-08-20,2024-08-07,有限会社ナカムラ,,有限会社,愛知県,名古屋市東区,東大曽根町１８番７号,,23,102,4610022,,,2024-08-07,清算の結了等,,,2015-10-05,1,,,,,ナカムラ,0
1459,7180005009509,登記記録の閉鎖等,0,2024-08-20,2024-08-13,医療法人徳仁会,,その他の設立登記法人,愛知県,一宮市,木曽川町外割田字南青木３６番地,,23,203,4930007,,,2024-08-13,清算の結了等,,,2015-10-05,1,,,,,トクジンカイ,0
1476,7240002025634,登記記録の閉鎖等,0,2024-08-20,2024-08-15,有限会社世良工務店,,有限会社,広島県,広島市安佐南区,西原２丁目２６番３１号,,34,105,7310113,,,2024-08-15,清算の結了等,,,2015-10-05,1,,,,,セラコウムテン,0
1478,7240002040831,登記記録の閉鎖等,0,2024-08-20,2024-08-13,有限会社デコメイト,,有限会社,広島県,福山市,光南町１丁目６番３１号,,34,207,7200814,,,2024-08-13,清算の結了等,,,2015-10-05,1,,,,,デコメイト,0
1481,7260003002242,登記記録の閉鎖等,0,2024-08-20,2024-08-02,合同会社レイバーエージェンシー,,合同会社,岡山県,玉野市,長尾１２５番地２,,33,204,7060151,,,2024-08-02,清算の結了等,,,2017-04-13,1,,,,,レイバーエージェンシー,0
1485,7290001013511,登記記録の閉鎖等,0,2024-08-20,2024-07-08,三和エステート株式会社,,株式会社,福岡県,福岡市博多区,博多駅前２丁目１０番１２－７１６号,,40,132,8120011,,,2024-07-08,清算の結了等,,,2015-10-05,1,,,,,サンワエステート,0
1487,7290001096291,登記記録の閉鎖等,0,2024-08-20,2024-07-08,ＰＬＡＣＥＲ株式会社,,株式会社,福岡県,朝倉市,頓田４２４番地１ＭＯＮＴＲＥ・ＨＡＲＵ２０２号室,,40,228,8380064,,,2024-07-08,清算の結了等,,,2022-02-01,1,,,,,プラセル,0
1510,7370005002031,登記記録の閉鎖等,0,2024-08-20,2024-08-02,特定非営利活動法人地域生活オウエン団せんだい,,その他の設立登記法人,宮城県,仙台市太白区,富沢南１丁目３番１号第５小島ビル１０２号室,,04,104,9820036,,,2024-08-02,清算の結了等,,,2015-10-05,1,,,,,チイキセイカツオウエンダンセンダイ,0
1522,7410002005809,登記記録の閉鎖等,0,2024-08-20,2024-08-14,有限会社八郎潟通建,,有限会社,秋田県,南秋田郡井川町,浜井川字家ノ東１３１番地６,,05,366,0181516,,,2024-08-14,清算の結了等,,,2015-10-05,1,,,,,ハチロウガタツウケン,0
1525,7480002003946,登記記録の閉鎖等,0,2024-08-20,2024-08-16,有限会社プロンプト,,有限会社,徳島県,徳島市,佐古三番町４番１１号,,36,201,7700023,,,2024-08-16,清算の結了等,,,2015-10-05,1,,,,,プロンプト,0
1528,7490002010743,登記記録の閉鎖等,0,2024-08-20,2024-08-15,有限会社鳳洋水産,,有限会社,高知県,高岡郡中土佐町,久礼６４１３番地,,39,401,7891301,,,2024-08-15,清算の結了等,,,2015-10-05,1,,,,,ホウヨウスイサン,0
1538,8010001161527,登記記録の閉鎖等,0,2024-08-20,2024-08-05,株式会社スカイプロデュースジャパン,,株式会社,東京都,千代田区,麹町１丁目６番地１６半蔵門海和ビル,,13,101,1020083,,,2024-08-05,合併による解散等,1010001159627,令和６年８月１日東京都中央区日本橋箱崎町２４番１号株式会社シーエーシー（1010001159627）に合併し解散,2015-10-05,1,,,,,スカイプロデュースジャパン,0
1559,8010401006249,登記記録の閉鎖等,0,2024-08-20,2024-07-29,株式会社オズクリエイティブ,,株式会社,神奈川県,川崎市中原区,下小田中３丁目１３番１４号,,14,133,2110041,,,2024-07-29,清算の結了等,,,2015-10-05,1,,,,,オズクリエイティブ,0
1584,8011103012345,登記記録の閉鎖等,0,2024-08-20,2024-08-02,ＨＭプロパティー合同会社,,合同会社,東京都,新宿区,北新宿１丁目１６番４号,,13,104,1690074,,,2024-08-02,清算の結了等,,,2022-11-07,1,,,,,エチエムプロパティー,0
1592,8011802007934,登記記録の閉鎖等,0,2024-08-20,2024-08-08,有限会社矢作電業,,有限会社,東京都,葛飾区,柴又３丁目１番１４号,,13,122,1250052,,,2024-08-08,清算の結了等,,,2015-10-05,1,,,,,ヤハギデンギョウ,0
1594,8012402007580,登記記録の閉鎖等,0,2024-08-20,2024-08-16,有限会社神拓空調,,有限会社,東京都,調布市,飛田給２丁目４１番地５２,,13,208,1820036,,,2024-08-16,清算の結了等,,,2015-10-05,1,,,,,シンタククウチョウ,0
1597,8013102000776,登記記録の閉鎖等,0,2024-08-20,2024-08-19,有限会社もなみ商事,,有限会社,東京都,福生市,武蔵野台２丁目３番２号,,13,218,1970013,,,2024-08-19,清算の結了等,,,2015-10-05,1,,,,,,0
1600,8020001021853,登記記録の閉鎖等,0,2024-08-20,2024-07-30,ミクロ化工株式会社,,株式会社,神奈川県,横浜市港北区,綱島東４丁目１１番２１号,,14,109,2230052,,,2024-07-30,清算の結了等,,,2015-10-05,1,,,,,ミクロカコウ,0
1602,8020001143994,登記記録の閉鎖等,0,2024-08-20,2024-07-25,株式会社日本経済ドットコム,,株式会社,東京都,港区,麻布十番１丁目５番１０号アトラスビル４Ｆ,,13,103,1060045,,,2024-07-25,清算の結了等,,,2021-11-18,1,,,,,ニホンケイザイドットコム,0
1604,8020001154042,登記記録の閉鎖等,0,2024-08-20,2024-07-30,株式会社Ｃａｒｎｉｖａｌ　Ｂｒｏｔｈｅｒｓ,,株式会社,神奈川県,川崎市高津区,北見方１丁目１７番３号,,14,134,2130005,,,2024-07-30,清算の結了等,,,2023-10-20,1,,,,,カーニバルブラザーズ,0
1606,8021001055164,登記記録の閉鎖等,0,2024-08-20,2024-08-19,ＳＴＹＬＥＳ　ＴＲＡＤＩＮＧ株式会社,,株式会社,神奈川県,三浦郡葉山町,長柄７６６番地の６,,14,301,2400113,,,2024-08-19,清算の結了等,,,2015-10-05,1,,,,,,0
1610,8030001101729,登記記録の閉鎖等,0,2024-08-20,2024-08-13,株式会社コウタツジャパン,,株式会社,埼玉県,行田市,谷郷３丁目９－７３,,11,206,3610062,,,2024-08-13,清算の結了等,,,2015-10-05,1,,,,,コウタツジャパン,0
1615,8040001102858,登記記録の閉鎖等,0,2024-08-20,2024-08-01,株式会社ウィンタートーン,,株式会社,千葉県,市川市,伊勢宿１５番地１０,,12,203,2720106,,,2024-08-01,合併による解散等,4040001103001,令和６年８月１日千葉県浦安市舞浜三丁目１７番１１号株式会社サウスブリッジ（4040001103001）に合併し解散,2017-12-18,1,,,,,ウィンタートーン,0
1635,8090002012903,登記記録の閉鎖等,0,2024-08-20,2024-08-09,和光有限会社,,有限会社,山梨県,富士吉田市,上暮地３丁目７番２５号,,19,202,4030001,,,2024-08-09,清算の結了等,,,2015-10-05,1,,,,,ワコウ,0
1640,8100001023726,登記記録の閉鎖等,0,2024-08-20,2024-08-01,松代宮坂酒造店株式会社,,株式会社,長野県,長野市,松代町松代４９１番地,,20,201,3811231,,,2024-08-01,合併による解散等,2100001009425,令和６年８月１日長野県佐久市長土呂１１１０番地千曲錦酒造株式会社（2100001009425）に合併し解散,2015-10-05,1,,,,,マツシロミヤサカシュゾウテン,0
1641,8100001029013,登記記録の閉鎖等,0,2024-08-20,2024-07-31,株式会社長野商会,,株式会社,長野県,長野市,豊野町蟹沢２３５２番地２,,20,201,3891103,,,2024-07-31,清算の結了等,,,2016-01-20,1,,,,,ナガノショウカイ,0
1651,8120001079155,登記記録の閉鎖等,0,2024-08-20,2024-08-16,株式会社高津工業所,,株式会社,大阪府,大阪市平野区,瓜破東５丁目１番１９号,,27,126,5470022,,,2024-08-16,清算の結了等,,,2015-10-05,1,,,,,コウヅコウギョウショ,0
1664,8120101062077,登記記録の閉鎖等,0,2024-08-20,2024-08-19,なにわリスクコンサルティング株式会社,,株式会社,奈良県,大和郡山市,八条町２９３番地,,29,203,6391125,,,2024-08-19,清算の結了等,,,2020-07-29,1,,,,,ナニワリスクコンサルティング,0
1667,8130005006410,登記記録の閉鎖等,0,2024-08-20,2024-08-15,医療法人社団堀口医院,,その他の設立登記法人,京都府,長岡京市,開田３丁目６番１９号,,26,209,6170826,,,2024-08-15,清算の結了等,,,2015-10-05,1,,,,,ホリグチイイン,0
1668,8130005014041,登記記録の閉鎖等,0,2024-08-20,2024-08-16,一般社団法人京都健康科学研究所,,その他の設立登記法人,京都府,京都市山科区,御陵封ジ山町２番地の１５０,,26,110,6078422,,,2024-08-16,清算の結了等,,,2015-10-05,1,,,,,キョウトケンコウカガクケンキュウショ,0
1670,8140001108176,登記記録の閉鎖等,0,2024-08-20,2024-08-16,樋口板金株式会社,,株式会社,兵庫県,姫路市,安田４丁目５３番地２１湯浅ビル１Ｆ,,28,201,6700955,,,2024-08-16,清算の結了等,,,2017-11-13,1,,,,,ヒグチバンキン,0
1672,8140002050344,登記記録の閉鎖等,0,2024-08-20,2024-08-08,姫路鳥卵有限会社,,有限会社,兵庫県,姫路市,延末２９５番地,,28,201,6700966,,,2024-08-08,清算の結了等,,,2015-10-05,1,,,,,ヒメジチョウラン,0
1673,8140002058866,登記記録の閉鎖等,0,2024-08-20,2024-08-19,有限会社ライズ,,有限会社,兵庫県,神戸市東灘区,魚崎北町５丁目７番２６－５０１号,,28,101,6580082,,,2024-08-19,清算の結了等,,,2015-10-05,1,,,,,ライズ,0
1686,8180001058186,登記記録の閉鎖等,0,2024-08-20,2024-08-08,株式会社ツネカワ,,株式会社,愛知県,名古屋市中川区,福川町４丁目１番地の７,,23,110,4540059,,,2024-08-08,清算の結了等,,,2015-10-05,1,,,,,ツネカワ,0
1687,8180001065736,登記記録の閉鎖等,0,2024-08-20,2024-08-08,株式会社ベーネ,,株式会社,愛知県,名古屋市中区,門前町５番９号,,23,106,4600018,,,2024-08-08,清算の結了等,,,2015-10-05,1,,,,,ベーネ,0
1689,8180001093588,登記記録の閉鎖等,0,2024-08-20,2024-08-08,株式会社ヨシダ,,株式会社,愛知県,大府市,横根町坊主山１番地の５８９,,23,223,4740011,,,2024-08-08,清算の結了等,,,2015-10-05,1,,,,,ヨシダ,0
1691,8180001118634,登記記録の閉鎖等,0,2024-08-20,2024-08-08,株式会社アルファー,,株式会社,愛知県,名古屋市南区,本地通６丁目１０番地１,,23,112,4570074,,,2024-08-08,清算の結了等,,,2015-10-05,1,,,,,アルファー,0
1694,8180001142411,登記記録の閉鎖等,0,2024-08-20,2024-08-08,株式会社ビークー,,株式会社,愛知県,名古屋市中区,大須３丁目４２番３０号,,23,106,4600011,,,2024-08-08,清算の結了等,,,2020-08-13,1,,,,,ビークー,0
1697,8180002052007,登記記録の閉鎖等,0,2024-08-20,2024-08-07,有限会社能川建築,,有限会社,愛知県,北名古屋市,井瀬木鴨１３番地,,23,234,4810014,,,2024-08-07,清算の結了等,,,2015-10-05,1,,,,,ノガワケンチク,0
1703,8230002012376,登記記録の閉鎖等,0,2024-08-20,2024-08-19,有限会社クイック舎,,有限会社,富山県,高岡市,福岡町江尻７５５番地,,16,202,9390128,,,2024-08-19,清算の結了等,,,2015-10-05,1,,,,,クイックシャ,0
1728,8290801026422,登記記録の閉鎖等,0,2024-08-20,2024-07-09,ｍｉｚ・ジャパン株式会社,,株式会社,福岡県,福岡市中央区,大名１丁目３番８号４Ｆ,,40,133,8100041,,,2024-07-09,清算の結了等,,,2020-04-10,1,,,,,ミズジャパン,0
1733,8310002019371,登記記録の閉鎖等,0,2024-08-20,2024-08-16,有限会社末永建設,,有限会社,長崎県,平戸市,獅子町１７４０番地１,,42,207,8595371,,,2024-08-16,清算の結了等,,,2015-10-05,1,,,,,スエナガケンセツ,0
1734,8330001006708,登記記録の閉鎖等,0,2024-08-20,2024-08-05,株式会社ｗｅ’ｓ　ｐｌａｎｎｉｎｇ,,株式会社,熊本県,熊本市東区,神園２丁目６番２１号,,43,102,8618044,,,2024-08-05,合併による解散等,9330001024741,令和６年８月１日熊本県菊池市泗水町吉富２１０番地６０ＧＩＦＴ株式会社（9330001024741）に合併し解散,2015-10-05,1,,,,,ウィズプラニング,0
1738,8340003001375,登記記録の閉鎖等,0,2024-08-20,2024-08-15,合同会社ｏｍｎｉｓ,,合同会社,鹿児島県,鹿児島市,照国町１８番９号サンシュライン照国５０１号,,46,201,8920841,,,2024-08-15,清算の結了等,,,2015-10-05,1,,,,,オムニス,0
1764,8500002008545,登記記録の閉鎖等,0,2024-08-20,2024-08-14,有限会社大善建設,,有限会社,愛媛県,伊予郡松前町,大字南黒田６０６番地,,38,401,7913101,,,2024-08-14,清算の結了等,,,2015-10-05,1,,,,,ダイゼンケンセツ,0
1768,9010001002770,登記記録の閉鎖等,0,2024-08-20,2024-08-06,株式会社コスモ・プロパティ,,株式会社,東京都,文京区,後楽１丁目２番２号,,13,105,1120004,,,2024-08-06,清算の結了等,,,2015-10-05,1,,,,,コスモプロパティ,0
1772,9010001065017,登記記録の閉鎖等,0,2024-08-20,2024-08-14,株式会社ＰＳＴ１００,,株式会社,東京都,杉並区,和泉２丁目９－９,,13,115,1680063,,,2024-08-14,清算の結了等,,,2015-10-05,1,,,,,ピーエスティーワンハンドレッド,0
1774,9010001135876,登記記録の閉鎖等,0,2024-08-20,2024-08-05,株式会社ナイン・シーズ,,株式会社,東京都,中央区,銀座６丁目７番１９号,,13,102,1040061,,,2024-08-05,清算の結了等,,,2015-10-05,1,,,,,ナインシーズ,0
1777,9010001194435,登記記録の閉鎖等,0,2024-08-20,2024-08-05,１ｏｎ１株式会社,,株式会社,東京都,中央区,日本橋小伝馬町４－１１,,13,102,1030001,,,2024-08-05,清算の結了等,,,2018-08-28,1,,,,,ワンオンワン,0
1790,9010401157033,登記記録の閉鎖等,0,2024-08-20,2024-08-06,Ｔ　Ｃａｐｉｔａｌ株式会社,,株式会社,東京都,千代田区,丸の内３丁目１－１国際ビル,,13,101,1000005,,,2024-08-06,清算の結了等,,,2020-12-11,1,,,,,ティーキャピタル,0
1820,9011003014606,登記記録の閉鎖等,0,2024-08-20,2024-07-30,チャーム合同会社,,合同会社,東京都,渋谷区,道玄坂１丁目１０－８渋谷道玄坂東急ビル２Ｆ－Ｃ,,13,113,1500043,,,2024-07-30,清算の結了等,,,2022-05-06,1,,,,,チャーム,0
1826,9011103009027,登記記録の閉鎖等,0,2024-08-20,2024-08-02,ロジスティクス合同会社,,合同会社,東京都,新宿区,四谷２丁目９番地１５東京ユナイテッド綜合事務所内,,13,104,1600004,,,2024-08-02,清算の結了等,,,2019-08-19,1,,,,,ロジスティクス,0
1833,9012302005782,登記記録の閉鎖等,0,2024-08-20,2024-08-16,有限会社成田電子,,有限会社,東京都,町田市,相原町４６８番地３９,,13,209,1940211,,,2024-08-16,清算の結了等,,,2015-10-05,1,,,,,,0
1843,9020001065148,登記記録の閉鎖等,0,2024-08-20,2024-08-16,株式会社グリーンエンタープライズ,,株式会社,神奈川県,川崎市麻生区,南黒川８番１,,14,137,2150034,,,2024-08-16,合併による解散等,7010001025575,令和６年８月１日東京都千代田区神田小川町二丁目１２番地１株式会社日放電子（7010001025575）に合併し解散,2015-10-05,1,,,,,グリーンエンタープライズ,0
1851,9030001097314,登記記録の閉鎖等,0,2024-08-20,2024-08-13,株式会社ＡＳＰＥＧ,,株式会社,埼玉県,所沢市,大字牛沼４２７番地の２３,,11,208,3590026,,,2024-08-13,清算の結了等,,,2015-10-05,1,,,,,アスペグ,0
1859,9040001106296,登記記録の閉鎖等,0,2024-08-20,2024-08-15,株式会社アクシア,,株式会社,東京都,江戸川区,松島１丁目２９－３,,13,123,1320031,,,2024-08-15,清算の結了等,,,2018-10-01,1,,,,,アクシア,0
1863,9040002055162,登記記録の閉鎖等,0,2024-08-20,2024-08-02,有限会社三基企画,,有限会社,千葉県,成田市,中台１丁目１番地の１,,12,211,2860015,,,2024-08-02,清算の結了等,,,2015-10-05,1,,,,,サンキキカク,0
1872,9070005009815,登記記録の閉鎖等,0,2024-08-20,2024-08-14,一般社団法人円満婚ソサエティ,,その他の設立登記法人,群馬県,前橋市,大渡町１丁目６番地９津田ビル３０２,,10,201,3710854,,,2024-08-14,清算の結了等,,,2021-01-20,1,,,,,エンマンコンソサエティ,0
1886,9110001031082,登記記録の閉鎖等,0,2024-08-20,2024-08-08,株式会社ｌｅ　ｃｈｅｎｅ,,株式会社,新潟県,新潟市北区,太郎代６６２－１,,15,101,9503101,,,2024-08-08,清算の結了等,,,2015-11-13,1,,,,,ルシェーヌ,0
1888,9120001049446,登記記録の閉鎖等,0,2024-08-20,2024-08-16,関西化研株式会社,,株式会社,大阪府,大阪市西淀川区,御幣島３丁目８番２３号,,27,113,5550012,,,2024-08-16,清算の結了等,,,2015-10-05,1,,,,,カンサイカケン,0
1903,9130001063553,登記記録の閉鎖等,0,2024-08-20,2024-08-19,株式会社セイケン,,株式会社,京都府,八幡市,上津屋浜垣内５７番地,,26,210,6148181,,,2024-08-19,清算の結了等,,,2018-12-19,1,,,,,セイケン,0
1905,9130002025643,登記記録の閉鎖等,0,2024-08-20,2024-08-16,有限会社京都エル技研,,有限会社,滋賀県,大津市,大萱５丁目３番１０号,,25,201,5202144,,,2024-08-16,清算の結了等,,,2015-10-05,1,,,,,キョウトエルギケン,0
1907,9140001048066,登記記録の閉鎖等,0,2024-08-20,2024-08-19,大山建設株式会社,,株式会社,兵庫県,尼崎市,浜２丁目５番３号,,28,202,6610967,,,2024-08-19,清算の結了等,,,2015-10-05,1,,,,,オオヤマケンセツ,0
1910,9140002068559,登記記録の閉鎖等,0,2024-08-20,2024-08-19,有限会社リボン,,有限会社,兵庫県,川西市,日高町６番１７号,,28,217,6660032,,,2024-08-19,清算の結了等,,,2015-10-05,1,,,,,リボン,0
1919,9180001022001,登記記録の閉鎖等,0,2024-08-20,2024-08-08,株式会社新開,,株式会社,愛知県,名古屋市港区,木場町９番地の２４,,23,111,4550021,,,2024-08-08,清算の結了等,,,2015-10-05,1,,,,,シンカイ,0
1926,9180002082993,登記記録の閉鎖等,0,2024-08-20,2024-07-30,有限会社西川興産,,有限会社,愛知県,名古屋市千種区,徳川山町２丁目４番２４号,,23,101,4640031,,,2024-07-30,清算の結了等,,,2015-10-05,1,,,,,ニシカワコウサン,0
1928,9180003011010,登記記録の閉鎖等,0,2024-08-20,2024-08-07,株式会社入谷商店,,株式会社,愛知県,尾張旭市,南本地ケ原町１丁目５４番地,,23,226,4880044,,,2024-08-07,合併による解散等,7180001019404,令和６年８月１日名古屋市中川区八家町二丁目４７番地廣春ダンボール工業株式会社（7180001019404）に合併し解散,2015-10-05,1,,,,,イリヤショウテン,0
1939,9240001008209,登記記録の閉鎖等,0,2024-08-20,2024-08-16,株式会社森藤,,株式会社,広島県,広島市西区,観音本町１丁目２１番１０号,,34,104,7330033,,,2024-08-16,清算の結了等,,,2015-10-05,1,,,,,モリフジ,0
1951,9290001087173,登記記録の閉鎖等,0,2024-08-20,2024-07-17,株式会社ミカタ不動産,,株式会社,福岡県,福岡市博多区,博多駅前３丁目２７番２５号,,40,132,8120011,,,2024-07-17,清算の結了等,,,2019-11-21,1,,,,,,0
1954,9290001092586,登記記録の閉鎖等,0,2024-08-20,2024-07-04,ＬＳ．ｃｌｏｕｄ株式会社,,株式会社,福岡県,福岡市中央区,天神１丁目２番４号農業共済ビル４階,,40,133,8100001,,,2024-07-04,清算の結了等,,,2021-04-13,1,,,,,エルエスクラウド,0
1970,9310001007558,登記記録の閉鎖等,0,2024-08-20,2024-08-15,グリーンジャパン・サービス株式会社,,株式会社,長崎県,南松浦郡新上五島町,榎津郷６６３番地６,,42,411,8574512,,,2024-08-15,清算の結了等,,,2015-10-05,1,,,,,グリーンジャパンサービス,0
1983,9360003011330,登記記録の閉鎖等,0,2024-08-20,2024-08-16,合同会社カルティベート,,合同会社,沖縄県,豊見城市,字高安１４３番地,,47,212,9010242,,,2024-08-16,清算の結了等,,,2021-07-30,1,,,,,カルティベート,0
1990,9380001010695,登記記録の閉鎖等,0,2024-08-20,2024-08-14,鮫川器機株式会社,,株式会社,福島県,東白川郡鮫川村,大字渡瀬字中野町２０４番地,,07,484,9638405,,,2024-08-14,合併による解散等,9050001026849,令和６年８月１日茨城県常陸大宮市東野４１１２番地富士フイルムオプティクス株式会社（9050001026849）に合併し解散,2015-10-05,1,,,,,,0
1995,9390005005617,登記記録の閉鎖等,0,2024-08-20,2024-08-05,村山市管工事業協同組合,,その他の設立登記法人,山形県,村山市,大字杉島字前田２８番地１,,06,208,9950042,,,2024-08-05,清算の結了等,,,2015-10-05,1,,,,,ムラヤマシカンコウジギョウ,0
2001,9430003009020,登記記録の閉鎖等,0,2024-08-20,2024-08-15,合同会社マサヤ,,合同会社,北海道,札幌市白石区,北郷二条７丁目８番１５号,,01,104,0030832,,,2024-08-15,清算の結了等,,,2018-01-12,1,,,,,マサヤ,0
