sequenceNumber,corporateNumber,process,correct,updateDate,changeDate,name,nameImageId,kind,prefectureName,cityName,streetNumber,addressImageId,prefectureCode,cityCode,postCode,addressOutside,addressOutsideImageId,closeDate,closeCause,successorCorporateNumber,changeCause,assignmentDate,latest,enName,enPrefectureName,enCityName,enAddressOutside,furigana,hihyoji
7,1010001173215,登記記録の閉鎖等,0,2025-09-17,2025-08-25,時代線株式会社,,株式会社,東京都,中央区,銀座１丁目１４－７銀座吉澤ビル３階,,13,102,1040061,,,2025-08-25,清算の結了等,,,2016-01-29,1,,,,,ジダイセン,0
25,1010401171082,登記記録の閉鎖等,0,2025-09-17,2025-09-11,Ｒｏｏｔ　ｏｆ　Ｔｒｕｓｔ株式会社,,株式会社,東京都,港区,虎ノ門４丁目１番１号神谷町トラストタワー２３Ｆ,,13,103,1050001,,,2025-09-11,合併による解散等,8010001254685,令和７年９月１日東京都千代田区大手町一丁目６番１号データトラスト株式会社（8010001254685）に合併し解散,2022-12-01,1,,,,,ルートオブトラスト,0
26,1010401171578,登記記録の閉鎖等,0,2025-09-17,2025-08-25,ＩＰｗｅ　Ｊａｐａｎ株式会社,,株式会社,東京都,港区,元麻布３丁目１番６号,,13,103,1060046,,,2025-08-25,清算の結了等,,,2022-12-28,1,,,,,アイピーウィージャパン,0
36,1010801019955,登記記録の閉鎖等,0,2025-09-17,2025-08-12,株式会社デファクトスタンダード,,株式会社,東京都,大田区,平和島３丁目３番８号,,13,111,1430006,,,2025-08-12,合併による解散等,8120002059081,令和７年７月１日東京都港区北青山二丁目５番８号株式会社ギャラリーレア（8120002059081）に合併し解散,2015-10-05,1,,,,,デファクトスタンダード,0
73,1011602007364,登記記録の閉鎖等,0,2025-09-17,2025-09-04,有限会社豊田自動車鈑金塗装,,有限会社,東京都,練馬区,石神井町４丁目１２番１１号,,13,120,1770041,,,2025-09-04,清算の結了等,,,2015-10-05,1,,,,,トヨタジドウシャバンキントソウ,0
85,1012701014053,登記記録の閉鎖等,0,2025-09-17,2025-09-10,株式会社わやたみ,,株式会社,東京都,小平市,小川西町３丁目２１番５号,,13,211,1870035,,,2025-09-10,清算の結了等,,,2016-12-16,1,,,,,ワヤタミ,0
87,1013202008032,登記記録の閉鎖等,0,2025-09-17,2025-08-19,有限会社アカトラ,,有限会社,東京都,目黒区,大橋２丁目１６番２５号,,13,110,1530044,,,2025-08-19,清算の結了等,,,2015-10-05,1,,,,,アカトラ,0
100,1030001023772,登記記録の閉鎖等,0,2025-09-17,2025-09-05,エムケイ株式会社,,株式会社,埼玉県,所沢市,けやき台２丁目４１番地の１,,11,208,3591118,,,2025-09-05,清算の結了等,,,2015-10-05,1,,,,,エムケイ,0
102,1030001089285,登記記録の閉鎖等,0,2025-09-17,2025-09-05,株式会社アサヒ企画,,株式会社,埼玉県,飯能市,大字川崎２６９番地の２,,11,209,3570011,,,2025-09-05,清算の結了等,,,2015-10-05,1,,,,,アサヒキカク,0
118,1040001080103,登記記録の閉鎖等,0,2025-09-17,2025-08-29,株式会社アウンデックスエンジニアリング,,株式会社,千葉県,船橋市,緑台１丁目５番１棟２０２号,,12,204,2740818,,,2025-08-29,清算の結了等,,,2015-10-05,1,,,,,アウンデックスエンジニアリング,0
121,1040002068469,登記記録の閉鎖等,0,2025-09-17,2025-08-25,有限会社袖和商事,,有限会社,千葉県,袖ケ浦市,今井２丁目１３８番地３,,12,229,2990264,,,2025-08-25,清算の結了等,,,2015-10-05,1,,,,,シュウワショウジ,0
130,1070002019592,登記記録の閉鎖等,0,2025-09-17,2025-09-03,有限会社ヴィーヴィーコーポレーション,,有限会社,群馬県,伊勢崎市,西小保方町３１３番地２,,10,204,3792224,,,2025-09-03,清算の結了等,,,2015-10-05,1,,,,,ヴィーヴィーコーポレーション,0
135,1080102007273,登記記録の閉鎖等,0,2025-09-17,2025-09-10,有限会社ナイトー人形店,,有限会社,静岡県,御殿場市,川島田５３５番地,,22,215,4120045,,,2025-09-10,清算の結了等,,,2015-10-05,1,,,,,,0
141,1090005004193,登記記録の閉鎖等,0,2025-09-17,2025-08-01,北富士農業協同組合,,その他の設立登記法人,山梨県,南都留郡富士河口湖町,船津３１１２番地１,,19,430,4010301,,,2025-08-01,合併による解散等,6090005002259,令和７年８月１日山梨県笛吹市八代町南５６１番地笛吹農業協同組合（6090005002259）に合併し解散,2015-10-05,1,,,,,キタフジ,0
152,1120001192617,登記記録の閉鎖等,0,2025-09-17,2025-09-04,しまだ洋行不動産株式会社,,株式会社,大阪府,大阪市中央区,東平２丁目１番２８号,,27,128,5420063,,,2025-09-04,清算の結了等,,,2015-10-05,1,,,,,シマダヨウコウフドウサン,0
167,1120101008193,登記記録の閉鎖等,0,2025-09-17,2025-09-02,株式会社河口製作所,,株式会社,大阪府,高石市,東羽衣３丁目１３番２４号,,27,225,5920003,,,2025-09-02,清算の結了等,,,2015-10-05,1,,,,,カワグチセイサクショ,0
192,1130005005674,登記記録の閉鎖等,0,2025-09-17,2025-09-10,修養団捧誠会大平和敬神教会,,その他の設立登記法人,京都府,京都市中京区,西ノ京南大炊御門町３２番地１１,,26,104,6048466,,,2025-09-10,清算の結了等,,,2015-10-05,1,,,,,シュウヨウダンホウセイカイダイヘイワケイシンキョウカイ,0
193,1130005013009,登記記録の閉鎖等,0,2025-09-17,2025-09-03,企業組合Ｆｕｕ空間計画,,その他の設立登記法人,京都府,京都市上京区,笹屋町通大宮西入桝屋町６０１番地,,26,102,6028201,,,2025-09-03,清算の結了等,,,2015-10-05,1,,,,,フウクウカンケイカク,0
202,1140001116838,登記記録の閉鎖等,0,2025-09-17,2025-09-04,株式会社ＴＨＫ　ｒｅｓｅａｒｃｈ,,株式会社,兵庫県,姫路市,琴岡町２８９－３コーポフクイ３０３,,28,201,6700035,,,2025-09-04,清算の結了等,,,2020-03-19,1,,,,,ティーエッチケーリサーチ,0
215,1180001008395,登記記録の閉鎖等,0,2025-09-17,2025-09-01,株式会社サンフレンド,,株式会社,愛知県,名古屋市昭和区,隼人町７番地の８,,23,107,4660833,,,2025-09-01,清算の結了等,,,2015-10-05,1,,,,,サンフレンド,0
228,1180005000126,登記記録の閉鎖等,0,2025-09-17,2025-08-15,天理教明豊大分教会,,その他の設立登記法人,愛知県,名古屋市中村区,本陣通５丁目１４５番地,,23,105,4530041,,,2025-08-15,合併による解散等,2150005005366,令和７年８月１２日奈良県橿原市南浦町７００番地天理教大正分教会（2150005005366）に合併し解散,2015-10-05,1,,,,,テンリキョウメイホウオオイタキョウカイ,0
230,1190001023559,登記記録の閉鎖等,0,2025-09-17,2025-09-01,株式会社ダイムオーシャン,,株式会社,三重県,津市,津興港中道北３８８番地７,,24,201,5140812,,,2025-09-01,合併による解散等,3190001007527,令和７年９月１日三重県伊勢市上地町２６９１番地６株式会社ダイムイオ（3190001007527）に合併し解散,2016-04-05,1,,,,,ダイムオーシャン,0
233,1200001028754,登記記録の閉鎖等,0,2025-09-17,2025-09-10,高新商事株式会社,,株式会社,岐阜県,飛騨市,神岡町船津１９５９番地２,,21,217,5061161,,,2025-09-10,清算の結了等,,,2015-10-05,1,,,,,タカシンショウジ,0
241,1240002028808,登記記録の閉鎖等,0,2025-09-17,2025-09-08,有限会社エコーテック,,有限会社,広島県,広島市東区,牛田南１丁目５番２４号,,34,102,7320064,,,2025-09-08,合併による解散等,3240001018923,令和７年９月８日広島市東区牛田南一丁目５番２４号株式会社創生舎（3240001018923）に合併し解散,2015-10-05,1,,,,,エコーテック,0
255,1330001000907,登記記録の閉鎖等,0,2025-09-17,2025-09-04,株式会社金書堂,,株式会社,熊本県,熊本市東区,保田窪本町６番５号,,43,102,8620925,,,2025-09-04,清算の結了等,,,2015-10-05,1,,,,,キンショドウ,0
258,1330005009762,登記記録の閉鎖等,0,2025-09-17,2025-09-05,一般社団法人リーガル相談センター,,その他の設立登記法人,熊本県,熊本市東区,健軍本町４８番１７号,,43,102,8620910,,,2025-09-05,清算の結了等,,,2017-10-23,1,,,,,リーガルソウダンセンター,0
260,1340002024631,登記記録の閉鎖等,0,2025-09-17,2025-09-08,有限会社新生会館,,有限会社,鹿児島県,南九州市,頴娃町牧之内２９８５番地１,,46,223,8910702,,,2025-09-08,清算の結了等,,,2015-10-05,1,,,,,シンセイカイカン,0
274,1400001006970,登記記録の閉鎖等,0,2025-09-17,2025-09-02,株式会社村田商事,,株式会社,岩手県,宮古市,大通２丁目８番３６号,,03,202,0270083,,,2025-09-02,清算の結了等,,,2015-10-05,1,,,,,ムラタショウジ,0
279,1430002063117,登記記録の閉鎖等,0,2025-09-17,2025-08-29,有限会社入三高田,,有限会社,北海道,幌泉郡えりも町,字大和２６３番地の５,,01,609,0580205,,,2025-08-29,清算の結了等,,,2015-10-05,1,,,,,イリサンタカダ,0
281,1440002002627,登記記録の閉鎖等,0,2025-09-17,2025-09-11,有限会社高橋コールドサービス,,有限会社,北海道,函館市,桔梗４丁目２２番８号,,01,202,0410808,,,2025-09-11,清算の結了等,,,2015-10-05,1,,,,,タカハシコールドサービス,0
287,2010001001630,登記記録の閉鎖等,0,2025-09-17,2025-09-01,オプトロン工業株式会社,,株式会社,東京都,文京区,本郷１丁目２０番４号,,13,105,1130033,,,2025-09-01,清算の結了等,,,2015-10-05,1,,,,,オプトロンコウギョウ,0
291,2010001121692,登記記録の閉鎖等,0,2025-09-17,2025-08-27,アルフレッサヘルスケアコミュニケーションズ株式会社,,株式会社,東京都,中央区,日本橋箱崎町２４番１,,13,102,1030015,,,2025-08-27,清算の結了等,,,2015-10-05,1,,,,,アルフレッサヘルスケアコミュニケーションズ,0
298,2010003028085,登記記録の閉鎖等,0,2025-09-17,2025-09-01,Ｂａｒｅｆｏｏｔ　Ｌｕｎｃｈ合同会社,,合同会社,東京都,中央区,佃２丁目２番１１－３５０８号,,13,102,1040051,,,2025-09-01,清算の結了等,,,2018-08-17,1,,,,,ベアフットランチ,0
303,2010401012095,登記記録の閉鎖等,0,2025-09-17,2025-09-01,三信フェニックスホールディングス株式会社,,株式会社,神奈川県,横浜市都筑区,中川中央１丁目４番１０－８１０号,,14,118,2240003,,,2025-09-01,清算の結了等,,,2015-10-05,1,,,,,サンシンフェニックスホールディングス,0
309,2010401151843,登記記録の閉鎖等,0,2025-09-17,2025-08-18,株式会社オフィスＲＣ,,株式会社,東京都,港区,赤坂６丁目１９番３６,,13,103,1070052,,,2025-08-18,清算の結了等,,,2020-03-24,1,,,,,オフィスアールシー,0
316,2010501017960,登記記録の閉鎖等,0,2025-09-17,2025-09-01,株式会社アネモス,,株式会社,東京都,台東区,上野公園１８番８号,,13,106,1100007,,,2025-09-01,合併による解散等,9010501013796,令和７年８月３１日東京都台東区上野公園１８番８号株式会社ミユーカンパニーリミテド（9010501013796）に合併し解散,2015-10-05,1,,,,,アネモス,0
320,2010702011531,登記記録の閉鎖等,0,2025-09-17,2025-09-04,有限会社増田,,有限会社,東京都,品川区,西五反田８丁目１０番１４－６０８号,,13,109,1410031,,,2025-09-04,清算の結了等,,,2015-10-05,1,,,,,マスダ,0
321,2010703007306,登記記録の閉鎖等,0,2025-09-17,2025-09-10,Ｉホールディングス合同会社,,合同会社,東京都,江東区,豊洲５丁目６番２９－１２３０号,,13,108,1350061,,,2025-09-10,清算の結了等,,,2024-08-15,1,,,,,アイホールディングス,0
350,2011802020934,登記記録の閉鎖等,0,2025-09-17,2025-09-11,有限会社江口製作所,,有限会社,東京都,足立区,大谷田３丁目８番１０号,,13,121,1200001,,,2025-09-11,清算の結了等,,,2015-10-05,1,,,,,エグチセイサクショ,0
385,2050001003251,登記記録の閉鎖等,0,2025-09-17,2025-08-25,株式会社しまだ,,株式会社,東京都,千代田区,丸の内３丁目４番１号新国際ビル４階４１５Ａ,,13,101,1000005,,,2025-08-25,清算の結了等,,,2015-10-05,1,,,,,シマダ,0
386,2050001020288,登記記録の閉鎖等,0,2025-09-17,2025-09-08,株式会社大一工業所,,株式会社,茨城県,神栖市,神栖１丁目５番９号サンチェリーハイツ２０１,,08,232,3140143,,,2025-09-08,清算の結了等,,,2015-10-05,1,,,,,ダイイチコウギョウショ,0
413,2100001035966,登記記録の閉鎖等,0,2025-09-17,2025-09-11,株式会社ＳＨＩＴＡＬ,,株式会社,長野県,駒ヶ根市,東伊那５２０４番地,,20,210,3994321,,,2025-09-11,合併による解散等,6100001035517,令和７年９月１日東京都中央区晴海三丁目１３番１－４５１４号株式会社Ｇｒａｎｔｒｙ（6100001035517）に合併し解散,2022-12-15,1,,,,,シタル,0
415,2100002035486,登記記録の閉鎖等,0,2025-09-17,2025-09-12,有限会社エス・シー・シー,,有限会社,長野県,伊那市,西町６２１７－８,,20,209,3960026,,,2025-09-12,清算の結了等,,,2015-10-05,1,,,,,エスシーシー,0
417,2110001038209,登記記録の閉鎖等,0,2025-09-17,2025-09-02,株式会社Ｖ‐１,,株式会社,新潟県,長岡市,西神田町１番地２２,,15,202,9400051,,,2025-09-02,清算の結了等,,,2024-03-05,1,,,,,ブイワン,0
418,2110002017616,登記記録の閉鎖等,0,2025-09-17,2025-09-02,有限会社堀建築工業,,有限会社,新潟県,三条市,西四日町１丁目６番１４号,,15,204,9550851,,,2025-09-02,清算の結了等,,,2015-10-05,1,,,,,ホリケンチクコウギョウ,0
422,2120001128339,登記記録の閉鎖等,0,2025-09-17,2025-09-02,株式会社ＭＥＲＧＩＣ,,株式会社,大阪府,大阪市中央区,内平野町１丁目３番６号ＪＰＣビル,,27,128,5400037,,,2025-09-02,清算の結了等,,,2015-10-05,1,,,,,マージック,0
432,2120002040113,登記記録の閉鎖等,0,2025-09-17,2025-09-05,有限会社タクト,,有限会社,大阪府,大阪市港区,八幡屋４丁目１番１３号,,27,107,5520014,,,2025-09-05,清算の結了等,,,2015-10-05,1,,,,,タクト,0
450,2130001054245,登記記録の閉鎖等,0,2025-09-17,2025-09-01,ＩＫホールディング株式会社,,株式会社,京都府,京都市南区,上鳥羽鉾立町１番地,,26,107,6018116,,,2025-09-01,合併による解散等,8130001010036,令和７年９月１日京都市南区上鳥羽鉾立町１番地巖本金属株式会社（8130001010036）に合併し解散,2015-10-05,1,,,,,アイケーホールディング,0
454,2130005007166,登記記録の閉鎖等,0,2025-09-17,2025-09-04,農事組合法人丹波酪農組合,,その他の設立登記法人,京都府,船井郡京丹波町,豊田中川原５番地,,26,407,6220231,,,2025-09-04,清算の結了等,,,2015-10-05,1,,,,,タンバラクノウクミアイ,0
455,2140001114147,登記記録の閉鎖等,0,2025-09-17,2025-09-10,株式会社エフヨシダ,,株式会社,兵庫県,神戸市灘区,六甲台町１０番５－１３０３号,,28,102,6570013,,,2025-09-10,清算の結了等,,,2019-07-05,1,,,,,エフヨシダ,0
458,2140005004732,登記記録の閉鎖等,0,2025-09-17,2025-08-15,天理教甲洋分教会,,その他の設立登記法人,兵庫県,神戸市須磨区,須磨浦通６丁目２番３４号,,28,107,6540055,,,2025-08-15,合併による解散等,7140005001196,令和７年８月１５日神戸市灘区大土平町一丁目１番３１号天理教琴緒分教会（7140005001196）に合併し解散,2015-10-05,1,,,,,テンリキョウコウヨウブンキョウカイ,0
467,2160005003451,登記記録の閉鎖等,0,2025-09-17,2025-09-10,奥川並生産森林組合,,その他の設立登記法人,滋賀県,長浜市,余呉町今市６００番地の３,,25,203,5290535,,,2025-09-10,清算の結了等,,,2015-10-05,1,,,,,オクカワナミ,0
470,2180001086473,登記記録の閉鎖等,0,2025-09-17,2025-09-03,株式会社公栄,,株式会社,愛知県,一宮市,大和町宮地花池字出町裏５０番地１,,23,203,4910847,,,2025-09-03,清算の結了等,,,2015-10-05,1,,,,,コウエイ,0
496,2260001035975,登記記録の閉鎖等,0,2025-09-17,2025-09-01,株式会社セッションズ,,株式会社,岡山県,倉敷市,児島下の町９丁目３番３４号,,33,202,7110906,,,2025-09-01,合併による解散等,5260001030924,令和７年９月１日岡山県倉敷市児島下の町九丁目３番３４号株式会社ハーベストムーン（5260001030924）に合併し解散,2021-09-22,1,,,,,セッションズ,0
498,2260002028937,登記記録の閉鎖等,0,2025-09-17,2025-09-03,有限会社デック,,有限会社,岡山県,津山市,上河原４３７番地の１,,33,203,7080002,,,2025-09-03,清算の結了等,,,2015-10-05,1,,,,,,0
499,2280001006792,登記記録の閉鎖等,0,2025-09-17,2025-08-07,旭メガソーラー隠岐発電株式会社,,株式会社,島根県,隠岐郡隠岐の島町,原田４２２番地,,32,528,6850027,,,2025-08-07,合併による解散等,3260001027179,令和７年７月１日岡山市南区西市４３３番地４旭メガソーラー建部田地子発電株式会社（3260001027179）に合併し解散,2015-10-05,1,,,,,,0
505,2290801020579,登記記録の閉鎖等,0,2025-09-17,2025-09-16,株式会社ＯＢＡ,,株式会社,福岡県,直方市,大字直方６６７番地の９９,,40,204,8220016,,,2025-09-16,清算の結了等,,,2015-10-05,1,,,,,オービーエー,0
511,2320005009762,登記記録の閉鎖等,0,2025-09-17,2025-09-10,一般財団法人Ｋツル奨学金財団,,その他の設立登記法人,大分県,大分市,中島中央３丁目１番３７号,,44,201,8700049,,,2025-09-10,清算の結了等,,,2020-02-13,1,,,,,ケイツルショウガクキンザイダン,0
532,2490002011135,登記記録の閉鎖等,0,2025-09-17,2025-09-12,有限会社式地林業,,有限会社,高知県,高岡郡津野町,船戸２９９４番地６,,39,411,7850411,,,2025-09-12,清算の結了等,,,2015-10-05,1,,,,,シキジリンギョウ,0
536,3010001050552,登記記録の閉鎖等,0,2025-09-17,2025-09-09,築地船用品株式会社,,株式会社,東京都,江東区,豊洲６丁目５番１号,,13,108,1350061,,,2025-09-09,清算の結了等,,,2015-10-05,1,,,,,ツキジセンヨウヒン,0
540,3010001226821,登記記録の閉鎖等,0,2025-09-17,2025-08-25,ＪＭＣ株式会社,,株式会社,東京都,千代田区,内神田２丁目７番４号三井ビル２階,,13,101,1010047,,,2025-08-25,清算の結了等,,,2022-05-24,1,,,,,ジェイエムシー,0
547,3010005034436,登記記録の閉鎖等,0,2025-09-17,2025-09-02,Ｍａｒｂｌｅ１一般社団法人,,その他の設立登記法人,東京都,千代田区,丸の内１丁目４番１号東京共同会計事務所内,,13,101,1000005,,,2025-09-02,清算の結了等,,,2022-01-12,1,,,,,マーブルワン,0
548,3010005034709,登記記録の閉鎖等,0,2025-09-17,2025-09-01,ＤＴＲ３特定目的会社,,その他の設立登記法人,東京都,中央区,日本橋１丁目４番１号,,13,102,1030027,,,2025-09-01,清算の結了等,,,2022-03-09,1,,,,,ディティアールスリー,0
552,3010401137148,登記記録の閉鎖等,0,2025-09-17,2025-08-18,株式会社立派,,株式会社,東京都,港区,新橋４丁目１４番１新橋ＡＵＮＢＬＤＧ４階,,13,103,1050004,,,2025-08-18,清算の結了等,,,2018-03-14,1,,,,,リッパ,0
563,3010801026660,登記記録の閉鎖等,0,2025-09-17,2025-09-04,ＡＹｔｅｃｈ株式会社,,株式会社,東京都,品川区,南品川５丁目１１番１７－１０４号,,13,109,1400004,,,2025-09-04,清算の結了等,,,2016-05-02,1,,,,,エーワイテック,0
566,3011001100982,登記記録の閉鎖等,0,2025-09-17,2025-08-19,株式会社Ｓｔｒｕｌｄｂｒｕｇｕ　ｊａｐａｎ,,株式会社,東京都,渋谷区,富ヶ谷１丁目４１番７号,,13,113,1510063,,,2025-08-19,清算の結了等,,,2015-10-05,1,,,,,ストラルドブラグジャパン,0
591,3011805000643,登記記録の閉鎖等,0,2025-09-17,2025-09-11,医療法人社団寿英会,,その他の設立登記法人,東京都,足立区,千住２丁目３９番地,,13,121,1200034,,,2025-09-11,清算の結了等,,,2015-10-05,1,,,,,ジュエイカイ,0
595,3012702004126,登記記録の閉鎖等,0,2025-09-17,2025-09-11,有限会社キッドスポーツクラブ,,有限会社,東京都,西東京市,富士町１丁目１６番９号,,13,229,2020014,,,2025-09-11,清算の結了等,,,2015-10-05,1,,,,,,0
607,3021001033117,登記記録の閉鎖等,0,2025-09-17,2025-08-05,株式会社原徳太郎商店,,株式会社,神奈川県,南足柄市,塚原７１８番地１,,14,217,2500117,,,2025-08-05,合併による解散等,5011001056678,令和６年１１月３０日東京都港区虎ノ門二丁目３番１７号虎ノ門二丁目タワー株式会社ウィルズ（5011001056678）に合併し解散,2015-10-05,1,,,,,ハラトクタロウショウテン,0
609,3021001085661,登記記録の閉鎖等,0,2025-09-17,2025-09-10,株式会社スタジオフィル,,株式会社,神奈川県,横須賀市,秋谷１丁目１３番１－１２０３号,,14,201,2400105,,,2025-09-10,清算の結了等,,,2025-07-02,1,,,,,スタジオフィル,0
611,3021003005428,登記記録の閉鎖等,0,2025-09-17,2025-09-10,フューチャーコミット合同会社,,合同会社,東京都,千代田区,麹町４丁目５番地２０ＫＳビル７階,,13,101,1020083,,,2025-09-10,合併による解散等,3011001160408,令和７年８月１２日東京都渋谷区神南一丁目５番６号イプシス株式会社（3011001160408）に合併し解散,2015-10-05,1,,,,,フューチャーコミット,0
629,3060002040069,登記記録の閉鎖等,0,2025-09-17,2025-09-10,有限会社谷商店,,有限会社,栃木県,佐野市,中町７１番地,,09,204,3270504,,,2025-09-10,清算の結了等,,,2015-10-05,1,,,,,タニショウテン,0
632,3070001020228,登記記録の閉鎖等,0,2025-09-17,2025-09-09,村井建設株式会社,,株式会社,群馬県,太田市,植木野町７３１番地２,,10,205,3730014,,,2025-09-09,清算の結了等,,,2015-10-05,1,,,,,ムライケンセツ,0
660,3120002034097,登記記録の閉鎖等,0,2025-09-17,2025-09-05,有限会社家村書店,,有限会社,大阪府,大阪市中央区,糸屋町２丁目４番１４号,,27,128,5400022,,,2025-09-05,清算の結了等,,,2015-10-05,1,,,,,イエムラショテン,0
665,3120101036028,登記記録の閉鎖等,0,2025-09-17,2025-09-01,ロイヤルカーサ株式会社,,株式会社,大阪府,堺市北区,金岡町３０２７番地１４,,27,146,5918022,,,2025-09-01,清算の結了等,,,2015-10-05,1,,,,,ロイヤルカーサ,0
668,3120103005740,登記記録の閉鎖等,0,2025-09-17,2025-08-29,Ｎｉｋｋｅｉストラテジックパートナーズ合同会社,,合同会社,大阪府,和泉市,鶴山台２丁目１０番３３－３０５号,,27,219,5940013,,,2025-08-29,清算の結了等,,,2024-03-26,1,,,,,ニッケイストラテジックパートナーズ,0
684,3140005021909,登記記録の閉鎖等,0,2025-09-17,2025-09-11,特定非営利活動法人マンション管理パートナーズ,,その他の設立登記法人,兵庫県,宝塚市,光ガ丘１丁目８番５１号,,28,214,6650015,,,2025-09-11,清算の結了等,,,2015-10-05,1,,,,,マンションカンリパートナーズ,0
690,3170001012140,登記記録の閉鎖等,0,2025-09-17,2025-09-16,株式会社杉の伴,,株式会社,和歌山県,和歌山市,湊１８２０番地の１２０,,30,201,6408404,,,2025-09-16,清算の結了等,,,2015-10-05,1,,,,,スギノトモ,0
694,3180001075013,登記記録の閉鎖等,0,2025-09-17,2025-09-01,株式会社丸康,,株式会社,愛知県,春日井市,堀ノ内町２丁目１１番地１６,,23,206,4860829,,,2025-09-01,清算の結了等,,,2015-10-05,1,,,,,マルヤス,0
697,3180001117599,登記記録の閉鎖等,0,2025-09-17,2025-09-01,株式会社グローイング・イースト,,株式会社,愛知県,名古屋市昭和区,広路通３丁目７番地の２,,23,107,4660854,,,2025-09-01,清算の結了等,,,2015-10-05,1,,,,,グローイングイースト,0
699,3180001123481,登記記録の閉鎖等,0,2025-09-17,2025-09-01,ダイセーテクニカルサービス株式会社,,株式会社,愛知県,一宮市,大和町妙興寺字千間堂６６番地,,23,203,4910922,,,2025-09-01,清算の結了等,,,2016-05-26,1,,,,,ダイセーテクニカルサービス,0
705,3180002086843,登記記録の閉鎖等,0,2025-09-17,2025-09-01,有限会社キノシタ・Ｅ・システムズ,,有限会社,愛知県,大府市,桃山町３丁目２００番地,,23,223,4740026,,,2025-09-01,清算の結了等,,,2015-10-05,1,,,,,キノシタイーシステムズ,0
713,3200001012079,登記記録の閉鎖等,0,2025-09-17,2025-09-11,株式会社ＥＬＥＣ,,株式会社,東京都,墨田区,千歳２丁目１４番地１３－２０２号,,13,107,1300025,,,2025-09-11,清算の結了等,,,2015-10-05,1,,,,,エレック,0
727,3260005005775,登記記録の閉鎖等,0,2025-09-17,2025-09-10,国際技術開発協同組合,,その他の設立登記法人,兵庫県,豊岡市,大篠岡７１２番地,,28,209,6680861,,,2025-09-10,清算の結了等,,,2015-10-05,1,,,,,コクサイギジュツカイハツ,0
728,3270003001602,登記記録の閉鎖等,0,2025-09-17,2025-09-12,合同会社にゃんこのお家,,合同会社,鳥取県,米子市,新開７丁目１６番２１号,,31,202,6830801,,,2025-09-12,清算の結了等,,,2024-03-06,1,,,,,ニャンコノオウチ,0
744,3290803000677,登記記録の閉鎖等,0,2025-09-17,2025-09-12,合資会社辻利商店,,合資会社,福岡県,北九州市門司区,老松町２番９－３０２号,,40,101,8010864,,,2025-09-12,清算の結了等,,,2015-10-05,1,,,,,ツジリショウテン,0
745,3290805005682,登記記録の閉鎖等,0,2025-09-17,2025-09-09,下金生生産森林組合,,その他の設立登記法人,福岡県,宮若市,金生５８２番地,,40,226,8220113,,,2025-09-09,清算の結了等,,,2015-10-05,1,,,,,シモカノウ,0
752,3320002005714,登記記録の閉鎖等,0,2025-09-17,2025-09-12,有限会社ひろせ,,有限会社,大分県,大分市,大字中戸次４３６７番地の１,,44,201,8797761,,,2025-09-12,清算の結了等,,,2015-10-05,1,,,,,ヒロセ,0
758,3340001008170,登記記録の閉鎖等,0,2025-09-17,2025-09-08,株式会社姶良農産加工,,株式会社,鹿児島県,姶良市,北山８５２番地６,,46,225,8995541,,,2025-09-08,清算の結了等,,,2015-10-05,1,,,,,アイラノウサンカコウ,0
796,4010001034439,登記記録の閉鎖等,0,2025-09-17,2025-09-08,東京ミシン工業株式会社,,株式会社,東京都,千代田区,神田和泉町１番地,,13,101,1010024,,,2025-09-08,清算の結了等,,,2015-10-05,1,,,,,トウキョウミシンコウギョウ,0
798,4010001081844,登記記録の閉鎖等,0,2025-09-17,2025-08-28,ジャンクション株式会社,,株式会社,東京都,千代田区,飯田橋１丁目１２番２号,,13,101,1020072,,,2025-08-28,清算の結了等,,,2015-10-05,1,,,,,ジャンクション,0
805,4010001141623,登記記録の閉鎖等,0,2025-09-17,2025-09-02,株式会社ＳＹＭ,,株式会社,大阪府,大阪市中央区,内平野町１丁目３番６号ＪＰＣビル,,27,128,5400037,,,2025-09-02,清算の結了等,,,2015-10-05,1,,,,,エスワイエム,0
808,4010001195925,登記記録の閉鎖等,0,2025-09-17,2025-08-25,株式会社ＳＩＧＭＡ会グループ,,株式会社,東京都,千代田区,麹町１丁目５番地２,,13,101,1020083,,,2025-08-25,清算の結了等,,,2018-10-30,1,,,,,シグマカイグループ,0
809,4010001199736,登記記録の閉鎖等,0,2025-09-17,2025-09-02,テックス・ウェルネス株式会社,,株式会社,東京都,千代田区,神田和泉町１番１－１６,,13,101,1010024,,,2025-09-02,清算の結了等,,,2019-04-03,1,,Tokyo,"1-16 Kanda-Izumi cho 1, Chiyoda ku",,テックスウェルネス,0
826,4010401026192,登記記録の閉鎖等,0,2025-09-17,2025-09-01,株式会社ブレーン・ジャック,,株式会社,神奈川県,横浜市南区,大岡１丁目２４番２５号,,14,105,2320061,,,2025-09-01,清算の結了等,,,2015-10-05,1,,,,,ブレーンジャック,0
828,4010401176186,登記記録の閉鎖等,0,2025-09-17,2025-09-11,株式会社パラダイム・ソリューション・ジャパン,,株式会社,東京都,港区,新橋６丁目９番６号１２東洋海事ビル２階,,13,103,1050004,,,2025-09-11,合併による解散等,9120001237901,令和７年９月１日大阪市北区梅田一丁目１番３号Ｊ　ＨＯＬＤＩＮＧＳ株式会社（9120001237901）に合併し解散,2023-08-10,1,,,,,パラダイムソリューションジャパン,0
844,4010702007049,登記記録の閉鎖等,0,2025-09-17,2025-09-04,有限会社福井屋,,有限会社,東京都,品川区,北品川２丁目２３番３号,,13,109,1400001,,,2025-09-04,清算の結了等,,,2015-10-05,1,,,,,フクイヤ,0
852,4011001094266,登記記録の閉鎖等,0,2025-09-17,2025-09-01,ＧＰＤ株式会社,,株式会社,東京都,中央区,佃２丁目１番２－１６０１号,,13,102,1040051,,,2025-09-01,清算の結了等,,,2015-10-05,1,,,,,ジーディーピー,0
863,4011202003463,登記記録の閉鎖等,0,2025-09-17,2025-09-05,有限会社ソナーレフジイ,,有限会社,東京都,中野区,沼袋２丁目３３番５号,,13,114,1650025,,,2025-09-05,清算の結了等,,,2015-10-05,1,,,,,ソナーレフジイ,0
868,4011602008566,登記記録の閉鎖等,0,2025-09-17,2025-09-10,福島興業有限会社,,有限会社,東京都,練馬区,大泉学園町７丁目５番３号,,13,120,1780061,,,2025-09-10,合併による解散等,6030001167474,令和７年９月１日埼玉県入間郡三芳町大字竹間沢字新開３２３番地８Ｍ＆Ｊ株式会社（6030001167474）に合併し解散,2015-10-05,1,,,,,フクシマコウギョウ,0
876,4012402022534,登記記録の閉鎖等,0,2025-09-17,2025-09-11,有限会社オオヌマオフィスサービス,,有限会社,東京都,狛江市,東和泉１丁目２３番３号,,13,219,2010014,,,2025-09-11,清算の結了等,,,2015-10-05,1,,,,,オオヌマオフィスサービス,0
881,4013102001852,登記記録の閉鎖等,0,2025-09-17,2025-09-08,株式会社共栄精機,,株式会社,東京都,西多摩郡瑞穂町,箱根ケ崎東松原２７番地２３,,13,303,1901222,,,2025-09-08,清算の結了等,,,2015-10-05,1,,,,,キョウエイセイキ,0
898,4020003011963,登記記録の閉鎖等,0,2025-09-17,2025-08-25,株式会社サークルドットエス,,株式会社,東京都,千代田区,岩本町３丁目８番８号,,13,101,1010032,,,2025-08-25,清算の結了等,,,2016-10-26,1,,,,,サークルドットエス,0
902,4021001050103,登記記録の閉鎖等,0,2025-09-17,2025-08-06,株式会社ｅｖｅｒｙ,,株式会社,神奈川県,相模原市中央区,相模原１丁目２番１号ＭＫビル２Ｆ,,14,152,2520231,,,2025-08-06,合併による解散等,2010401187714,令和７年７月３１日東京都港区六本木一丁目６番１号Ｅホールディングス株式会社（2010401187714）に合併し解散,2015-10-05,1,,,,,エブリィ,0
910,4030001084044,登記記録の閉鎖等,0,2025-09-17,2025-09-01,株式会社エスプリ,,株式会社,神奈川県,横浜市神奈川区,千若町２丁目１番４８号,,14,102,2210036,,,2025-09-01,合併による解散等,9020001022561,令和７年８月３１日横浜市神奈川区千若町二丁目１番４８号海老光株式会社（9020001022561）に合併し解散,2015-10-05,1,,,,,エスプリ,0
928,4040002022357,登記記録の閉鎖等,0,2025-09-17,2025-08-25,株式会社サンスイ,,株式会社,東京都,千代田区,丸の内３丁目４番１号新国際ビル４階,,13,101,1000005,,,2025-08-25,清算の結了等,,,2015-10-05,1,,,,,サンスイ,0
941,4060001025706,登記記録の閉鎖等,0,2025-09-17,2025-09-01,アイエス工業株式会社,,株式会社,栃木県,那須塩原市,三区町５７９番地７,,09,213,3292745,,,2025-09-01,合併による解散等,9060001012567,令和７年９月１日栃木県那須塩原市槻沢３４２番地１７金子メディックス株式会社（9060001012567）に合併し解散,2015-10-05,1,,,,,アイエスコウギョウ,0
944,4060002013809,登記記録の閉鎖等,0,2025-09-17,2025-09-10,有限会社オートサービスタチバナ,,有限会社,栃木県,那須郡那珂川町,矢又２１６８番地１,,09,411,3240607,,,2025-09-10,清算の結了等,,,2015-10-05,1,,,,,オートサービスタチバ,0
951,4110002003085,登記記録の閉鎖等,0,2025-09-17,2025-09-02,有限会社新産施設,,有限会社,新潟県,新潟市東区,東明８丁目２番１１号,,15,102,9500853,,,2025-09-02,清算の結了等,,,2015-10-05,1,,,,,シンサンシセツ,0
952,4120001018942,登記記録の閉鎖等,0,2025-09-17,2025-09-04,株式会社三ツ星商會,,株式会社,大阪府,大阪市生野区,巽北２丁目５番１９号,00027641,27,116,5440004,,,2025-09-04,清算の結了等,,,2015-10-05,1,,,,,ミツボシショウカイ,0
953,4120001122926,登記記録の閉鎖等,0,2025-09-17,2025-09-08,株式会社ＫＡＭＩＮＯ,,株式会社,大阪府,大阪市城東区,諏訪４丁目５番２４号,,27,118,5360021,,,2025-09-08,清算の結了等,,,2015-10-05,1,,,,,カミノ,0
967,4120101008570,登記記録の閉鎖等,0,2025-09-17,2025-09-01,株式会社ロマックス３５,,株式会社,大阪府,高石市,綾園７丁目６番４１号,,27,225,5920014,,,2025-09-01,清算の結了等,,,2015-10-05,1,,,,,ロマックスサーテイファイブ,0
970,4120101044748,登記記録の閉鎖等,0,2025-09-17,2025-09-02,阪南ガス株式会社,,株式会社,大阪府,阪南市,黒田４０１番地の７,,27,232,5990203,,,2025-09-02,清算の結了等,,,2015-10-05,1,,,,,ハンナンガス,0
1003,4170002003385,登記記録の閉鎖等,0,2025-09-17,2025-09-16,有限会社ポリテック,,有限会社,和歌山県,和歌山市,木ノ本９１０番地の１５,,30,201,6408453,,,2025-09-16,清算の結了等,,,2015-10-05,1,,,,,ポリテック,0
1006,4180001079624,登記記録の閉鎖等,0,2025-09-17,2025-09-01,陶山電機株式会社,,株式会社,愛知県,尾張旭市,新居町寺田３０４２番地の１,,23,226,4880078,,,2025-09-01,清算の結了等,,,2015-10-05,1,,,,,トウヤマデンキ,0
1009,4180001140625,登記記録の閉鎖等,0,2025-09-17,2025-09-11,株式会社スサノ,,株式会社,岐阜県,可児市,下恵土字広瀬６１４１番地１広瀬橋ビル１０１号室,,21,214,5090203,,,2025-09-11,清算の結了等,,,2020-04-01,1,,,,,スサノ,0
1012,4180002084185,登記記録の閉鎖等,0,2025-09-17,2025-09-01,有限会社エムワイティー,,有限会社,愛知県,知多郡武豊町,字大屋敷７２番地,,23,447,4702543,,,2025-09-01,清算の結了等,,,2015-10-05,1,,,,,エムワイティー,0
1048,4300002008916,登記記録の閉鎖等,0,2025-09-17,2025-09-11,有限会社古賀総合企画,,有限会社,佐賀県,鳥栖市,下野町２５７３番地１,,41,203,8410063,,,2025-09-11,清算の結了等,,,2015-10-05,1,,,,,コガソウゴウキカク,0
1052,4330002016593,登記記録の閉鎖等,0,2025-09-17,2025-09-05,有限会社熊本ドラフティング,,有限会社,熊本県,菊池郡大津町,大字室３２７番地の１,,43,403,8691235,,,2025-09-05,清算の結了等,,,2015-10-05,1,,,,,クマモトドラフティング,0
1053,4330002028886,登記記録の閉鎖等,0,2025-09-17,2025-09-02,有限会社野田組,,有限会社,熊本県,天草郡苓北町,都呂々５５４２番地,,43,531,8632611,,,2025-09-02,清算の結了等,,,2015-10-05,1,,,,,ノダグミ,0
1057,4340002010315,登記記録の閉鎖等,0,2025-09-17,2025-09-08,有限会社米森土木,,有限会社,鹿児島県,鹿児島市,下福元町１１１８番地１,,46,201,8910144,,,2025-09-08,清算の結了等,,,2015-10-05,1,,,,,ヨネモリドボク,0
1069,4370602002080,登記記録の閉鎖等,0,2025-09-17,2025-09-01,有限会社渡辺自動車,,有限会社,宮城県,宮城郡利府町,菅谷字産野原２番地の５,,04,406,9810122,,,2025-09-01,清算の結了等,,,2015-10-05,1,,,,,ワタナベジドウシャ,0
1080,4430002001908,登記記録の閉鎖等,0,2025-09-17,2025-08-29,有限会社インテック,,有限会社,北海道,札幌市西区,八軒五条東４丁目５番５２号,,01,107,0630865,,,2025-08-29,清算の結了等,,,2015-10-05,1,,,,,インテック,0
1081,4430002049749,登記記録の閉鎖等,0,2025-09-17,2025-08-29,有限会社ホクシン断熱工業,,有限会社,北海道,岩見沢市,幌向南一条５丁目４００番地１,,01,210,0690371,,,2025-08-29,清算の結了等,,,2015-10-05,1,,,,,ホクシンダンネツコウギョウ,0
1088,4490001005565,登記記録の閉鎖等,0,2025-09-17,2025-09-11,ライフプラス株式会社,,株式会社,高知県,吾川郡いの町,神谷１４３３番地６,,39,386,7812134,,,2025-09-11,清算の結了等,,,2015-10-05,1,,,,,ライフプラス,0
1109,5010401179295,登記記録の閉鎖等,0,2025-09-17,2025-09-10,株式会社Ｃｉｒｃｕｉｔ６１,,株式会社,東京都,港区,六本木１丁目６番１号,,13,103,1060032,,,2025-09-10,合併による解散等,5190001027812,令和７年９月１日三重県鈴鹿市飯野寺家町２９６番地の１株式会社飯田グループ（5190001027812）に合併し解散,2023-12-20,1,,,,,サーキットロクイチ,0
1120,5010601046881,登記記録の閉鎖等,0,2025-09-17,2025-09-12,アイエンヒト株式会社,,株式会社,東京都,江東区,有明２丁目１－２－２５１６号,,13,108,1350063,,,2025-09-12,清算の結了等,,,2015-10-05,1,,,,,アイエンヒト,0
1121,5010602022353,登記記録の閉鎖等,0,2025-09-17,2025-09-12,有限会社山下ソフトウェア工作所,,有限会社,東京都,墨田区,立花１丁目２３番２号,,13,107,1310043,,,2025-09-12,清算の結了等,,,2015-10-05,1,,,,,,0
1129,5011001100452,登記記録の閉鎖等,0,2025-09-17,2025-07-25,株式会社小林通商,,株式会社,東京都,目黒区,中央町２丁目１１番１０号,,13,110,1520001,,,2025-07-25,清算の結了等,,,2015-10-05,1,,,,,,0
1132,5011001128155,登記記録の閉鎖等,0,2025-09-17,2025-08-18,株式会社ｎｅｕ,,株式会社,東京都,渋谷区,富ヶ谷１丁目１４番１２－６０３号,,13,113,1510063,,,2025-08-18,清算の結了等,,,2019-05-24,1,,,,,ノイ,0
1141,5011105004087,登記記録の閉鎖等,0,2025-09-17,2025-08-26,一般社団法人国際脳・神経科学研究所,,その他の設立登記法人,東京都,新宿区,神楽坂５丁目２０番５号神楽坂アインスタワー２３１０号,,13,104,1620825,,,2025-08-26,清算の結了等,,,2015-10-05,1,,,,,コクサイノウシンケイカガクケンキュウショ,0
1163,5012705001911,登記記録の閉鎖等,0,2025-09-17,2025-09-11,一般財団法人片倉もとこ・大塚昌子学生支援財団,,その他の設立登記法人,東京都,小平市,学園東町１丁目８番７－４号,,13,211,1870043,,,2025-09-11,清算の結了等,,,2015-10-05,1,,,,,カタクラモトコオオツカマサコガクセイシエンザイダン,0
1167,5020001014018,登記記録の閉鎖等,0,2025-09-17,2025-07-31,横浜ゆたか磨材株式会社,,株式会社,埼玉県,新座市,野火止１丁目１３番１６－１号,,11,230,3520011,,,2025-07-31,合併による解散等,5011601007155,令和７年７月１日埼玉県新座市野火止一丁目１３番１６－１号ゆたか磨材株式会社（5011601007155）と合併し解散,2015-10-05,1,,,,,ヨコハマユタカマザイ,0
1169,5020001053916,登記記録の閉鎖等,0,2025-09-17,2025-09-01,株式会社メゾングラスアンジュ,,株式会社,神奈川県,横浜市青葉区,桂台１丁目１１番地４４,,14,117,2270034,,,2025-09-01,清算の結了等,,,2015-10-05,1,,,,,メゾングラスアンジュ,0
1170,5020001088276,登記記録の閉鎖等,0,2025-09-17,2025-09-02,株式会社エデュース,,株式会社,大阪府,大阪市中央区,内平野町１丁目３番６号,,27,128,5400037,,,2025-09-02,清算の結了等,,,2015-10-05,1,,,,,エデュース,0
1177,5020002022688,登記記録の閉鎖等,0,2025-09-17,2025-09-01,有限会社八ツ橋スイミングクラブ,,有限会社,神奈川県,横浜市瀬谷区,本郷２丁目２９番地の７中央公園参番館１０２号,,14,114,2460015,,,2025-09-01,清算の結了等,,,2015-10-05,1,,,,,ヤツハシスイミングクラブ,0
1186,5021002036562,登記記録の閉鎖等,0,2025-09-17,2025-09-10,有限会社ＫＯＷＡ,,有限会社,神奈川県,伊勢原市,石田１７７２番地,,14,214,2591116,,,2025-09-10,清算の結了等,,,2015-10-05,1,,,,,コーワ,0
1192,5030001091163,登記記録の閉鎖等,0,2025-09-17,2025-09-01,株式会社宏有,,株式会社,埼玉県,秩父郡皆野町,大字皆野２７５２番地,,11,362,3691412,,,2025-09-01,合併による解散等,5030002122248,令和７年９月１日埼玉県秩父郡皆野町大字皆野２７５２番地２株式会社野口商会（5030002122248）に合併し解散,2015-10-05,1,,,,,コウユウ,0
1207,5050001002911,登記記録の閉鎖等,0,2025-09-17,2025-09-05,株式会社明工,,株式会社,茨城県,東茨城郡茨城町,大字大戸１８５５番地４,,08,302,3113114,,,2025-09-05,清算の結了等,,,2015-10-05,1,,,,,,0
1208,5050001006581,登記記録の閉鎖等,0,2025-09-17,2025-09-08,株式会社イシカワ,,株式会社,茨城県,ひたちなか市,大字枝川字中丸２１９８番地,,08,221,3120035,,,2025-09-08,清算の結了等,,,2015-10-05,1,,,,,イシカワ,0
1213,5080001022857,登記記録の閉鎖等,0,2025-09-17,2025-09-10,株式会社Ｍｔ．ＤＩＧ,,株式会社,静岡県,静岡市清水区,原４０番地の２４,,22,103,4240113,,,2025-09-10,清算の結了等,,,2019-05-10,1,,,,,マウントディグ,0
1218,5100003006013,登記記録の閉鎖等,0,2025-09-17,2025-09-12,合同会社スロースターター,,合同会社,長野県,小県郡青木村,大字村松７７４番地４,,20,349,3861602,,,2025-09-12,清算の結了等,,,2021-03-22,1,,,,,スロースターター,0
1219,5110001002590,登記記録の閉鎖等,0,2025-09-17,2025-09-01,しみずスタッフ株式会社,,株式会社,新潟県,新潟市中央区,南出来島１丁目８番２号,,15,103,9500963,,,2025-09-01,合併による解散等,3110001002592,令和７年９月１日新潟市東区南紫竹二丁目５番２５号清水配送株式会社（3110001002592）に合併し解散,2015-10-05,1,,,,,シミズスタッフ,0
1224,5110002032364,登記記録の閉鎖等,0,2025-09-17,2025-09-02,有限会社マルヤマ,,有限会社,新潟県,小千谷市,大字岩沢２０８１番地,,15,208,9498724,,,2025-09-02,清算の結了等,,,2015-10-05,1,,,,,マルヤマ,0
1225,5120001006871,登記記録の閉鎖等,0,2025-09-17,2025-09-08,株式会社トレジャーランド,,株式会社,大阪府,大阪市都島区,中野町４丁目５番１３号,,27,102,5340027,,,2025-09-08,清算の結了等,,,2015-10-05,1,,,,,トレジャーランド,0
1226,5120001130795,登記記録の閉鎖等,0,2025-09-17,2025-09-02,ＰＲＯ株式会社,,株式会社,大阪府,大阪市中央区,内平野町１丁目３番６号ＪＰＣビル,,27,128,5400037,,,2025-09-02,清算の結了等,,,2015-10-05,1,,,,,プロ,0
1229,5120001257069,登記記録の閉鎖等,0,2025-09-17,2025-09-04,株式会社ハウスパートナー,,株式会社,大阪府,大阪市鶴見区,鶴見４丁目１番２号ソーレブリアンテ今福鶴見（Ｒｅ：ＺＯＮＥ今福鶴見０１）２１０号室,,27,124,5380053,,,2025-09-04,清算の結了等,,,2023-08-10,1,,,,,ハウスパートナー,0
1250,5120105006000,登記記録の閉鎖等,0,2025-09-17,2025-08-15,天理教新合分教会,,その他の設立登記法人,大阪府,岸和田市,上松町３５８番地の９８,,27,202,5960827,,,2025-08-15,合併による解散等,2060005005037,令和７年８月７日栃木県小山市大字間々田７９２番地１０天理教都賀大教会（2060005005037）に合併し解散,2015-10-05,1,,,,,テンリキョウシンゴウブンキョウカイ,0
1252,5122001012817,登記記録の閉鎖等,0,2025-09-17,2025-08-26,八勝自動車株式会社,,株式会社,大阪府,東大阪市,西岩田３丁目５番３９－１０１６号,,27,227,5780947,,,2025-08-26,清算の結了等,,,2015-10-05,1,,,,,ハッショウジドウシャ,0
1254,5130001046009,登記記録の閉鎖等,0,2025-09-17,2025-09-09,株式会社釉山,,株式会社,京都府,京都市伏見区,竹田西段川原町１７５番地,,26,109,6128429,,,2025-09-09,清算の結了等,,,2015-10-05,1,,,,,ユウザン,0
1255,5130001051264,登記記録の閉鎖等,0,2025-09-17,2025-09-09,株式会社澤田石英,,株式会社,京都府,京都市伏見区,深草北鍵屋町９９５番地の１ヴィラ墨染２０６号,,26,109,6120041,,,2025-09-09,清算の結了等,,,2015-10-05,1,,,,,サワダセキエイ,0
1271,5170001002395,登記記録の閉鎖等,0,2025-09-17,2025-09-12,中前建設株式会社,,株式会社,和歌山県,和歌山市,三葛２５０番地の１２,,30,201,6410011,,,2025-09-12,清算の結了等,,,2015-10-05,1,,,,,ナカマエケンセツ,0
1274,5180001105916,登記記録の閉鎖等,0,2025-09-17,2025-09-01,株式会社ＯＦＦＩＣＥ　Ｊ,,株式会社,愛知県,名古屋市東区,橦木町３丁目２８番地,,23,102,4610014,,,2025-09-01,清算の結了等,,,2015-10-05,1,,,,,オフィスジェイ,0
1275,5180001146423,登記記録の閉鎖等,0,2025-09-17,2025-09-03,株式会社ナイス,,株式会社,愛知県,春日井市,牛山町２０８１番地５２,,23,206,4860901,,,2025-09-03,清算の結了等,,,2021-06-04,1,,,,,ナイス,0
1278,5180002006007,登記記録の閉鎖等,0,2025-09-17,2025-09-02,日本マネジメント．サービス有限会社,,有限会社,愛知県,名古屋市千種区,振甫町２丁目５１番地の２,,23,101,4640072,,,2025-09-02,清算の結了等,,,2015-10-05,1,,,,,ニホンマネジメントサービス,0
1283,5180002064161,登記記録の閉鎖等,0,2025-09-17,2025-09-01,有限会社トライ,,有限会社,愛知県,名古屋市緑区,乗鞍１丁目１３０３番地の１５,,23,114,4580004,,,2025-09-01,清算の結了等,,,2015-10-05,1,,,,,トライ,0
1285,5180002075092,登記記録の閉鎖等,0,2025-09-17,2025-09-01,有限会社ソニックス,,有限会社,愛知県,丹羽郡扶桑町,大字南山名字野田浦９２番地,,23,362,4800105,,,2025-09-01,清算の結了等,,,2015-10-05,1,,,,,ソニックス,0
1294,5190001020206,登記記録の閉鎖等,0,2025-09-17,2025-09-03,株式会社ナセル,,株式会社,三重県,四日市市,垂坂町３３７番４２,,24,202,5108037,,,2025-09-03,清算の結了等,,,2015-10-05,1,,,,,ナセル,0
1301,5200003006820,登記記録の閉鎖等,0,2025-09-17,2025-09-10,合同会社ジャルダン,,合同会社,岐阜県,大垣市,墨俣町下宿２０９番地,,21,202,5030104,,,2025-09-10,清算の結了等,,,2025-05-14,1,,,,,ジャルダン,0
1307,5240002003286,登記記録の閉鎖等,0,2025-09-17,2025-09-09,有限会社岡本製作所,,有限会社,広島県,安芸郡府中町,柳ケ丘７２番１４号,,34,302,7350014,,,2025-09-09,清算の結了等,,,2015-10-05,1,,,,,オカモトセイサクショ,0
1314,5260001019224,登記記録の閉鎖等,0,2025-09-17,2025-09-04,伯備測量コンサルタント株式会社,,株式会社,岡山県,新見市,西方４１番地,,33,210,7180017,,,2025-09-04,清算の結了等,,,2015-10-05,1,,,,,ハクビソクリョウコンサルタント,0
1346,5360001014462,登記記録の閉鎖等,0,2025-09-17,2025-09-08,株式会社宇良ハウジング,,株式会社,沖縄県,うるま市,字江洲８７番地２,,47,213,9042244,,,2025-09-08,清算の結了等,,,2015-10-05,1,,,,,ウラハウジング,0
1352,5370002012134,登記記録の閉鎖等,0,2025-09-17,2025-09-02,第一コーポレーション有限会社,,有限会社,宮城県,仙台市青葉区,本町１丁目１０番２１号,,04,101,9800014,,,2025-09-02,清算の結了等,,,2015-10-05,1,,,,,ダイイチコーポレーション,0
1356,5390001011820,登記記録の閉鎖等,0,2025-09-17,2025-09-10,サガエコンテック株式会社,,株式会社,山形県,寒河江市,本町２丁目５番１５号ＢＭスクエア２　３階,,06,206,9910031,,,2025-09-10,清算の結了等,,,2015-10-05,1,,,,,サガエコンテック,0
1358,5400001006686,登記記録の閉鎖等,0,2025-09-17,2025-09-01,株式会社みずかみ,,株式会社,岩手県,遠野市,松崎町白岩字地森３２番地１,,03,208,0280541,,,2025-09-01,合併による解散等,1400001000791,令和７年９月１日岩手県盛岡市東安庭二丁目１番３０号株式会社ベルジョイス（1400001000791）に合併し解散,2015-10-05,1,,,,,ミズカミ,0
1361,5410005003043,登記記録の閉鎖等,0,2025-09-17,2025-09-12,農事組合法人上川端農事組合,,その他の設立登記法人,秋田県,大館市,比内町扇田字上川端１３番地,,05,204,0185701,,,2025-09-12,清算の結了等,,,2015-10-05,1,,,,,カミカワバタノウジクミアイ,0
1363,5430001048651,登記記録の閉鎖等,0,2025-09-17,2025-08-29,北光電子工業株式会社,,株式会社,北海道,樺戸郡浦臼町,字浦臼内１７４番地の１１８,,01,431,0610600,,,2025-08-29,清算の結了等,,,2015-10-05,1,,,,,ホッコウデンシコウギョウ,0
1381,6010001235729,登記記録の閉鎖等,0,2025-09-17,2025-08-28,株式会社Ｓａｌｕ‐５Ｒｅ,,株式会社,東京都,中央区,新富１丁目１７番４号,,13,102,1040041,,,2025-08-28,清算の結了等,,,2023-06-06,1,,,,,サルゴリ,0
1392,6010101012045,登記記録の閉鎖等,0,2025-09-17,2025-08-18,株式会社Ｂ．Ｓ．ＴＷａｌｋｅｒｓ,,株式会社,東京都,八王子市,子安町１丁目３９番１－８２５号,,13,201,1920904,,,2025-08-18,清算の結了等,,,2015-10-30,1,,,,,ビーエステーウォーカーズ,0
1393,6010102003051,登記記録の閉鎖等,0,2025-09-17,2025-09-12,有限会社サンプラスト,,有限会社,東京都,八王子市,西寺方町１０１９番地の２６０,,13,201,1920153,,,2025-09-12,清算の結了等,,,2015-10-05,1,,,,,サンプラスト,0
1399,6010401106091,登記記録の閉鎖等,0,2025-09-17,2025-08-18,株式会社アセット・ジーニアス,,株式会社,東京都,港区,麻布十番１丁目７番１１号,,13,103,1060045,,,2025-08-18,清算の結了等,,,2015-10-05,1,,,,,アセットジーニアス,0
1401,6010401149074,登記記録の閉鎖等,0,2025-09-17,2025-07-15,株式会社こころとプラス,,株式会社,東京都,港区,港南１丁目９番３６号アレア品川１３Ｆ,,13,103,1080075,,,2025-07-15,清算の結了等,,,2019-11-07,1,,,,,ココロトプラス,0
1406,6010401187256,登記記録の閉鎖等,0,2025-09-17,2025-08-18,Ｃ‐ＶＩ株式会社,,株式会社,東京都,港区,北青山１丁目３番１号アールキューブ青山３階,,13,103,1070061,,,2025-08-18,清算の結了等,,,2024-12-25,1,,,,,シーヴィーアイ,0
1409,6010403026742,登記記録の閉鎖等,0,2025-09-17,2025-08-18,みなとアドバイザリーグループ合同会社,,合同会社,東京都,港区,新橋４丁目３０番６号京急中はらビル５階,,13,103,1050004,,,2025-08-18,清算の結了等,,,2021-12-22,1,,,,,ミナトアドバイザリーグループ,0
1438,6011201024896,登記記録の閉鎖等,0,2025-09-17,2025-09-05,株式会社システムコネクト,,株式会社,東京都,中野区,本町３丁目８番３ー１０２号,,13,114,1640012,,,2025-09-05,清算の結了等,,,2023-09-05,1,,,,,システムコネクト,0
1455,6020001005940,登記記録の閉鎖等,0,2025-09-17,2025-09-01,株式会社エー・アイ,,株式会社,神奈川県,横浜市金沢区,富岡東５丁目１８番１２号,,14,108,2360051,,,2025-09-01,清算の結了等,,,2015-10-05,1,,,,,エーアイ,0
1483,6040001005063,登記記録の閉鎖等,0,2025-09-17,2025-09-10,スカイネットワーク株式会社,,株式会社,千葉県,千葉市花見川区,犢橋町３２０－５,,12,102,2620013,,,2025-09-10,合併による解散等,2010001122996,令和７年９月１日東京都中央区日本橋小舟町２番９号スカイネットワーク株式会社（2010001122996）に合併し解散,2015-10-05,1,,,,,スカイネットワーク,0
1485,6040001019955,登記記録の閉鎖等,0,2025-09-17,2025-08-25,株式会社ノビタキ,,株式会社,東京都,千代田区,丸の内３丁目４番１号新国際ビル４階,,13,101,1000005,,,2025-08-25,清算の結了等,,,2015-10-05,1,,,,,ノビタキ,0
1490,6050002038904,登記記録の閉鎖等,0,2025-09-17,2025-09-08,有限会社すぱーく,,有限会社,茨城県,守谷市,百合ケ丘３丁目２７８７番地７,,08,224,3020110,,,2025-09-08,清算の結了等,,,2015-10-05,1,,,,,スパーク,0
1493,6060001006927,登記記録の閉鎖等,0,2025-09-17,2025-09-10,株式会社成和,,株式会社,栃木県,鹿沼市,茂呂１１７０番地４,,09,205,3220026,,,2025-09-10,清算の結了等,,,2015-10-05,1,,,,,セイワ,0
1499,6060003004697,登記記録の閉鎖等,0,2025-09-17,2025-09-10,合同会社Ｊｕｎ　Ｓｈｉｎ,,合同会社,栃木県,宇都宮市,西一の沢町１６番１７号山久ハイツ３０１,,09,201,3200046,,,2025-09-10,清算の結了等,,,2023-08-29,1,,,,,ジュンシン,0
1505,6070001025059,登記記録の閉鎖等,0,2025-09-17,2025-09-08,株式会社瑞花エステート,,株式会社,群馬県,前橋市,三俣町３丁目１５番地１２,,10,201,3710018,,,2025-09-08,清算の結了等,,,2015-10-05,1,,,,,ズイカエステート,0
1515,6080402017686,登記記録の閉鎖等,0,2025-09-17,2025-09-05,有限会社保険企画,,有限会社,静岡県,菊川市,下平川６２３４番地,,22,224,4371514,,,2025-09-05,清算の結了等,,,2015-10-05,1,,,,,ホケンキカク,0
1528,6120001005674,登記記録の閉鎖等,0,2025-09-17,2025-09-05,宝商運株式会社,,株式会社,大阪府,大阪市淀川区,田川３丁目１番３０号,,27,123,5320027,,,2025-09-05,清算の結了等,,,2015-10-05,1,,,,,タカラショウウン,0
1529,6120001029302,登記記録の閉鎖等,0,2025-09-17,2025-09-08,大道住宅株式会社,,株式会社,大阪府,大阪市港区,波除２丁目５番１６号,,27,107,5520001,,,2025-09-08,清算の結了等,,,2015-10-05,1,,,,,ダイドウジュウタク,0
1531,6120001105350,登記記録の閉鎖等,0,2025-09-17,2025-09-05,株式会社ベンリッチ,,株式会社,大阪府,大阪市淀川区,東三国５丁目１２番６－３０５号,,27,123,5320002,,,2025-09-05,清算の結了等,,,2015-10-05,1,,,,,ベンリッチ,0
1532,6120001206339,登記記録の閉鎖等,0,2025-09-17,2025-09-05,株式会社Ａｒｔｅｍｉｓｉａ,,株式会社,大阪府,門真市,岸和田３丁目３０番２３号,,27,223,5710002,,,2025-09-05,清算の結了等,,,2017-06-09,1,,,,,アルテミシア,0
1533,6120001206504,登記記録の閉鎖等,0,2025-09-17,2025-09-05,株式会社Ｊライフサポート,,株式会社,大阪府,大阪市北区,中津６丁目５番２０号,,27,127,5310071,,,2025-09-05,清算の結了等,,,2017-06-20,1,,,,,ジェイライフサポート,0
1539,6120001257002,登記記録の閉鎖等,0,2025-09-17,2025-09-05,株式会社ぐるり,,株式会社,大阪府,大阪市中央区,淡路町３丁目１番８号,,27,128,5410047,,,2025-09-05,清算の結了等,,,2023-08-09,1,,,,,グルリ,0
1551,6120101030911,登記記録の閉鎖等,0,2025-09-17,2025-09-01,三元産業株式会社,,株式会社,大阪府,富田林市,川向町８番７号,,27,214,5840049,,,2025-09-01,清算の結了等,,,2015-10-05,1,,,,,サンゲンサンギョウ,0
1559,6130001014625,登記記録の閉鎖等,0,2025-09-17,2025-09-08,ジェムヒロ株式会社,,株式会社,京都府,京都市伏見区,深草西浦町４丁目８１番地１０２号,,26,109,6120029,,,2025-09-08,清算の結了等,,,2015-10-05,1,,,,,ジェムヒロ,0
1562,6140003013319,登記記録の閉鎖等,0,2025-09-17,2025-09-11,合同会社ＥＣＳ,,合同会社,兵庫県,高砂市,神爪１丁目６番５号駅前第二ビル１階,,28,216,6760808,,,2025-09-11,清算の結了等,,,2018-09-27,1,,,,,イーシーエス,0
1567,6150005008514,登記記録の閉鎖等,0,2025-09-17,2025-09-12,医療法人わはは会,,その他の設立登記法人,奈良県,香芝市,真美ヶ丘１丁目５番１１号,,29,210,6390223,,,2025-09-12,清算の結了等,,,2015-10-05,1,,,,,ワハハカイ,0
1569,6160002005496,登記記録の閉鎖等,0,2025-09-17,2025-09-09,有限会社ワーク・プロ,,有限会社,滋賀県,甲賀市,土山町大野４７８８番地の６,,25,209,5280235,,,2025-09-09,清算の結了等,,,2015-10-05,1,,,,,ワークプロ,0
1574,6170005002309,登記記録の閉鎖等,0,2025-09-17,2025-09-16,和歌山生コン圧送協同組合,,その他の設立登記法人,和歌山県,和歌山市,楠見中１９１－１トゥールビヨン１０７,,30,201,6408463,,,2025-09-16,清算の結了等,,,2015-10-05,1,,,,,ワカヤマナマコンアッソウ,0
1576,6180001023084,登記記録の閉鎖等,0,2025-09-17,2025-09-02,株式会社芳田商会,,株式会社,愛知県,名古屋市熱田区,西野町２丁目４４番地１,,23,109,4560063,,,2025-09-02,清算の結了等,,,2015-10-05,1,,,,,ヨシダショウカイ,0
1585,6180002061728,登記記録の閉鎖等,0,2025-09-17,2025-09-03,有限会社石原精密,,有限会社,愛知県,愛知郡東郷町,大字春木字勘右エ門新田１１３番地の１４２,,23,302,4700162,,,2025-09-03,清算の結了等,,,2015-10-05,1,,,,,イシハラセイミツ,0
1587,6180003018990,登記記録の閉鎖等,0,2025-09-17,2025-09-02,春日井サボテン合同会社,,合同会社,愛知県,春日井市,玉野町２２番地２,,23,206,4870004,,,2025-09-02,清算の結了等,,,2018-06-06,1,,,,,カスガイサボテン,0
1591,6190002013703,登記記録の閉鎖等,0,2025-09-17,2025-09-08,有限会社太田道路,,有限会社,三重県,松阪市,高町６７４番地３６,,24,204,5150011,,,2025-09-08,清算の結了等,,,2015-10-05,1,,,,,,0
1592,6190002015344,登記記録の閉鎖等,0,2025-09-17,2025-09-04,有限会社ホーム・トラスト,,有限会社,三重県,松阪市,久保町１８５５番地１２７７,,24,204,5150044,,,2025-09-04,清算の結了等,,,2015-10-05,1,,,,,ホームトラスト,0
1595,6200003001894,登記記録の閉鎖等,0,2025-09-17,2025-09-12,合同会社成傳商店,,合同会社,岐阜県,海津市,平田町今尾３０５０番地,,21,221,5030321,,,2025-09-12,清算の結了等,,,2015-10-05,1,,,,,ナリデンショウカイ,0
1602,6290001018098,登記記録の閉鎖等,0,2025-09-17,2025-09-01,ＮＡＮＡ　ＣＡＦＥ株式会社,,株式会社,福岡県,那珂川市,大字山田１１６７番地の４,,40,231,8111244,,,2025-09-01,清算の結了等,,,2015-10-05,1,,,,,ナナカフェ,0
1607,6290005002429,登記記録の閉鎖等,0,2025-09-17,2025-08-18,株式会社ナントキョウ,,株式会社,福岡県,福岡市南区,高木２丁目６番２６号,,40,134,8150004,,,2025-08-18,合併による解散等,9290002003179,令和７年８月１６日福岡市南区高木二丁目６番２６号株式会社博光運送（9290002003179）に合併し解散,2015-10-05,1,,,,,ナントキョウ,0
1615,6330002026789,登記記録の閉鎖等,0,2025-09-17,2025-09-04,有限会社マエダ新装,,有限会社,熊本県,八代市,鏡町貝洲２７５番地の５,,43,202,8694223,,,2025-09-04,清算の結了等,,,2015-10-05,1,,,,,,0
1616,6330005010542,登記記録の閉鎖等,0,2025-09-17,2025-09-03,くまもと県産材ＳＣＭ協同組合,,その他の設立登記法人,熊本県,熊本市中央区,神水１丁目１１番１４号,,43,101,8620954,,,2025-09-03,清算の結了等,,,2022-08-23,1,,,,,クマモトケンサンザイエスシーエム,0
1635,6430002000206,登記記録の閉鎖等,0,2025-09-17,2025-09-01,有限会社青空,,有限会社,北海道,札幌市中央区,大通東４丁目２番地,,01,101,0600041,,,2025-09-01,清算の結了等,,,2015-10-05,1,,,,,アオゾラ,0
1636,6440003000856,登記記録の閉鎖等,0,2025-09-17,2025-09-10,合資会社高橋金物船具,,合資会社,北海道,檜山郡江差町,字姥神町７１番地,,01,361,0430041,,,2025-09-10,清算の結了等,,,2015-10-05,1,,,,,タカハシカナモノセング,0
1640,6500001019165,登記記録の閉鎖等,0,2025-09-17,2025-09-16,株式会社岸熊工業,,株式会社,愛媛県,西条市,明屋敷３２０番地２,,38,206,7930023,,,2025-09-16,清算の結了等,,,2015-10-05,1,,,,,キシクマコウギョウ,0
1643,7010001100873,登記記録の閉鎖等,0,2025-09-17,2025-09-08,甲田印刷株式会社,,株式会社,東京都,文京区,本郷１丁目１２番７号,,13,105,1130033,,,2025-09-08,清算の結了等,,,2015-10-05,1,,,,,コウダインサツ,0
1645,7010001139053,登記記録の閉鎖等,0,2025-09-17,2025-08-25,ＦｏｏｄｎｉａＪａｐａｎ株式会社,,株式会社,東京都,中央区,晴海３丁目１６－１,,13,102,1040053,,,2025-08-25,清算の結了等,,,2015-10-05,1,,,,,,0
1649,7010001209104,登記記録の閉鎖等,0,2025-09-17,2025-08-18,株式会社ＲＹＨ,,株式会社,東京都,港区,南青山５丁目１７番２号,,13,103,1070062,,,2025-08-18,清算の結了等,,,2020-04-21,1,,,,,アールワイエイチ,0
1661,7010401047211,登記記録の閉鎖等,0,2025-09-17,2025-08-18,Ｔ－ｂｒａｎｄ株式会社,,株式会社,東京都,港区,芝５丁目１４番１６号,,13,103,1080014,,,2025-08-18,清算の結了等,,,2015-10-05,1,,,,,ティブランド,0
1663,7010401062887,登記記録の閉鎖等,0,2025-09-17,2025-09-10,株式会社ビズトピアネットワークス,,株式会社,東京都,港区,虎ノ門３丁目２２番１０－４０１号,,13,103,1050001,,,2025-09-10,清算の結了等,,,2015-10-05,1,,,,,ビズトピアネットワークス,0
1687,7011001036050,登記記録の閉鎖等,0,2025-09-17,2025-09-02,株式会社テキスタイル・アミーグ,,株式会社,神奈川県,川崎市高津区,下野毛３丁目９番２－５１０号メイツ武蔵新城,,14,134,2130006,,,2025-09-02,清算の結了等,,,2015-10-05,1,,,,,テキスタイルアミーグ,0
1695,7011002006548,登記記録の閉鎖等,0,2025-09-17,2025-08-18,有限会社スリー・プリントサービス,,有限会社,東京都,渋谷区,千駄ヶ谷４丁目２０番７号,,13,113,1510051,,,2025-08-18,清算の結了等,,,2015-10-05,1,,,,,スリープリントサービス,0
1697,7011003006761,登記記録の閉鎖等,0,2025-09-17,2025-07-14,ｆｉｌｌｅｒ合同会社,,合同会社,東京都,渋谷区,東２丁目１４番１３号ｌｅａｆｅａｓｔ４Ｆ,,13,113,1500011,,,2025-07-14,合併による解散等,8010401107014,令和７年７月１日東京都渋谷区東二丁目１４番１３号Ｇ．Ｄ．ｉｎｃ．株式会社（8010401107014）に合併し解散,2016-05-02,1,,,,,フィラー,0
1698,7011003015325,登記記録の閉鎖等,0,2025-09-17,2025-08-19,合同会社アイビー,,合同会社,東京都,渋谷区,道玄坂１丁目１０番８号渋谷道玄坂東急ビル２Ｆ―Ｃ,,13,113,1500043,,,2025-08-19,清算の結了等,,,2022-09-06,1,,,,,アイビー,0
1700,7011101038871,登記記録の閉鎖等,0,2025-09-17,2025-08-18,株式会社エリアフォー,,株式会社,東京都,港区,南青山１丁目１５番３２号南青山レジデンス３０１,,13,103,1070062,,,2025-08-18,清算の結了等,,,2015-10-05,1,,,,,エリアフォー,0
1725,7020003020516,登記記録の閉鎖等,0,2025-09-17,2025-09-01,合同会社Ｔｒｕｓｔ　Ａｉｄ,,合同会社,神奈川県,川崎市川崎区,港町５番１リヴァリエＡ－２５０４,,14,131,2100807,,,2025-09-01,清算の結了等,,,2021-09-24,1,,,,,トラストエイド,0
1749,7050002044991,登記記録の閉鎖等,0,2025-09-17,2025-09-05,有限会社みどりや,,有限会社,茨城県,結城市,中央町１丁目５番地１０,,08,207,3070052,,,2025-09-05,清算の結了等,,,2015-10-05,1,,,,,ミドリヤ,0
1760,7080102008638,登記記録の閉鎖等,0,2025-09-17,2025-09-10,有限会社丸西建設,,有限会社,静岡県,伊豆市,熊坂１２５７番地の２９７,,22,222,4102411,,,2025-09-10,清算の結了等,,,2015-10-05,1,,,,,,0
1790,7120102020877,登記記録の閉鎖等,0,2025-09-17,2025-09-01,有限会社大阪シティーガス,,有限会社,大阪府,岸和田市,岡山町１５２０番２６,,27,202,5960814,,,2025-09-01,清算の結了等,,,2015-10-05,1,,,,,オオサカシティーガス,0
1805,7150001026650,登記記録の閉鎖等,0,2025-09-17,2025-09-12,奈良みらいフォレストリー株式会社,,株式会社,奈良県,奈良市,大宮町４丁目２９７番地の２,,29,201,6308115,,,2025-09-12,清算の結了等,,,2023-08-17,1,,,,,ナラミライフフォレストリー,0
1811,7180001013869,登記記録の閉鎖等,0,2025-09-17,2025-08-25,株式会社ＲＩＮＯ環境工房,,株式会社,愛知県,名古屋市北区,西味鋺３丁目６０１番地の４,,23,103,4620016,,,2025-08-25,清算の結了等,,,2015-10-05,1,,,,,リノカンキョウコウボウ,0
1814,7180001082690,登記記録の閉鎖等,0,2025-09-17,2025-09-01,三興毛織株式会社,,株式会社,愛知県,一宮市,浅井町尾関字西本郷２１番地,,23,203,4910101,,,2025-09-01,清算の結了等,,,2015-10-05,1,,,,,サンコウケオリ,0
1815,7180001098448,登記記録の閉鎖等,0,2025-09-17,2025-09-03,株式会社花浩商会,,株式会社,愛知県,あま市,蜂須賀蛭間地８３２番地,,23,237,4901225,,,2025-09-03,清算の結了等,,,2015-10-05,1,,,,,ハナヒロショウカイ,0
1817,7180001133667,登記記録の閉鎖等,0,2025-09-17,2025-09-01,日電システム株式会社,,株式会社,愛知県,名古屋市西区,上堀越町４丁目３７番地の２,,23,104,4510084,,,2025-09-01,合併による解散等,4180001049313,令和７年９月１日名古屋市西区上堀越町四丁目３７番地の２日電サービス株式会社（4180001049313）に合併し解散,2018-09-10,1,,,,,ニチデンシステム,0
1820,7180001160364,登記記録の閉鎖等,0,2025-09-17,2025-08-25,源流ロジ株式会社,,株式会社,愛知県,名古屋市港区,大西３丁目５０番地の１,,23,111,4550861,,,2025-08-25,清算の結了等,,,2024-03-01,1,,,,,ゲンリュウロジ,0
1823,7180002062510,登記記録の閉鎖等,0,2025-09-17,2025-09-01,有限会社東名スタッフ,,有限会社,愛知県,日進市,香久山５丁目２０１番地の１センチュリースクエア香久山Ｗ４０８,,23,230,4700134,,,2025-09-01,清算の結了等,,,2015-10-05,1,,,,,トウメイスタッフ,0
1837,7230005007234,登記記録の閉鎖等,0,2025-09-17,2025-09-10,協同組合富山ウッドセンター,,その他の設立登記法人,富山県,高岡市,野村１６６１番地ユニゾンビル４階,,16,202,9330014,,,2025-09-10,清算の結了等,,,2015-10-05,1,,,,,トヤマウッドセンター,0
1857,7290003016405,登記記録の閉鎖等,0,2025-09-17,2025-08-21,合同会社フロレト,,合同会社,福岡県,福岡市東区,松島１丁目２２番９－２０２号,,40,131,8120062,,,2025-08-21,清算の結了等,,,2025-02-14,1,,,,,フロレト,0
1862,7310001018796,登記記録の閉鎖等,0,2025-09-17,2025-09-10,株式会社悠晴パートナーズ,,株式会社,長崎県,島原市,萩原２丁目５５３１番地入江ハイツＡ棟,,42,203,8550851,,,2025-09-10,清算の結了等,,,2024-01-12,1,,,,,ユウセイパートナーズ,0
1864,7330001033505,登記記録の閉鎖等,0,2025-09-17,2025-09-04,九州環境開発株式会社,,株式会社,熊本県,八代市,袋町３番２８号,,43,202,8660855,,,2025-09-04,清算の結了等,,,2025-08-25,1,,,,,キュウシュウカンキョウカイハツ,0
1866,7340001012846,登記記録の閉鎖等,0,2025-09-17,2025-09-09,株式会社とどろき,,株式会社,鹿児島県,南九州市,川辺町平山６４８７番地１,,46,223,8970215,,,2025-09-09,清算の結了等,,,2015-10-05,1,,,,,トドロキ,0
1868,7360001022331,登記記録の閉鎖等,0,2025-09-17,2025-08-01,株式会社アイドゥーコーポレーション,,株式会社,広島県,広島市安佐南区,伴南５丁目２７－１,,34,105,7313168,,,2025-08-01,合併による解散等,4240001047475,令和７年８月１日広島市安佐南区伴南５－２７－１株式会社アイドゥーパートナー（4240001047475）に合併し解散,2017-05-12,1,,,,,アイドゥーコーポレーション,0
1873,7390002009192,登記記録の閉鎖等,0,2025-09-17,2025-09-08,有限会社小野きのこ生産センター,,有限会社,山形県,鶴岡市,三瀬戊３９３番地,,06,203,9997463,,,2025-09-08,清算の結了等,,,2015-10-05,1,,,,,オノキノコセイサンセンター,0
1890,7480003001602,登記記録の閉鎖等,0,2025-09-17,2025-09-16,合同会社歯朶尾工務店,,合同会社,徳島県,阿南市,那賀川町色ケ島民養１２番地１,,36,204,7791112,,,2025-09-16,清算の結了等,,,2021-01-06,1,,,,,シダオコウムテン,0
1894,7500002017497,登記記録の閉鎖等,0,2025-09-17,2025-09-11,有限会社三並建工,,有限会社,愛媛県,新居浜市,西の土居町１丁目４番３０号,,38,205,7920035,,,2025-09-11,清算の結了等,,,2015-10-05,1,,,,,,0
1899,8010001104007,登記記録の閉鎖等,0,2025-09-17,2025-09-11,株式会社スカイ経営研究所,,株式会社,東京都,町田市,中町４丁目２３番６号,,13,209,1940021,,,2025-09-11,清算の結了等,,,2015-10-05,1,,,,,スカイケイエイケンキュウショ,0
1932,8010702006988,登記記録の閉鎖等,0,2025-09-17,2025-09-04,有限会社ふじ,,有限会社,東京都,品川区,東五反田１丁目２４番４号,,13,109,1410022,,,2025-09-04,清算の結了等,,,2015-10-05,1,,,,,フジ,0
1935,8010801022457,登記記録の閉鎖等,0,2025-09-17,2025-09-02,株式会社めるへんキッズ,,株式会社,東京都,大田区,山王１丁目３８番２号,,13,111,1430023,,,2025-09-02,清算の結了等,,,2015-10-05,1,,,,,メルヘンキッズ,0
1943,8011002035546,登記記録の閉鎖等,0,2025-09-17,2025-08-18,有限会社ポイント・ネット,,有限会社,東京都,渋谷区,神宮前６丁目３３番１号、１Ａ,,13,113,1500001,,,2025-08-18,清算の結了等,,,2015-10-05,1,,,,,,0
1964,8011703000526,登記記録の閉鎖等,0,2025-09-17,2025-09-08,合資会社ビズクラフト,,合資会社,東京都,江戸川区,一之江５丁目２４番９号,,13,123,1320024,,,2025-09-08,清算の結了等,,,2015-10-05,1,,,,,ビズクラフト,0
1965,8012303001352,登記記録の閉鎖等,0,2025-09-17,2025-09-04,辰三グローバル合同会社,,合同会社,東京都,町田市,南成瀬３丁目１５番地３ベルテＡ－２０３,,13,209,1940045,,,2025-09-04,清算の結了等,,,2019-12-17,1,,,,,タツミグローバル,0
1966,8012305001210,登記記録の閉鎖等,0,2025-09-17,2025-09-08,特定非営利活動法人ネパール・ミカの会,,その他の設立登記法人,東京都,町田市,忠生２丁目５番地３６,,13,209,1940035,,,2025-09-08,清算の結了等,,,2015-10-05,1,,,,,ネパールミカノカイ,0
1969,8012701012281,登記記録の閉鎖等,0,2025-09-17,2025-09-11,ＮＥＷ　ｓｔｙｌｅ株式会社,,株式会社,東京都,清瀬市,野塩２丁目３８７番地９－９２１号,,13,221,2040004,,,2025-09-11,清算の結了等,,,2015-10-05,1,,,,,,0
1976,8020001037552,登記記録の閉鎖等,0,2025-09-17,2025-09-01,エス・ティ・ユー株式会社,,株式会社,神奈川県,横浜市鶴見区,市場大和町５番１４号,,14,101,2300025,,,2025-09-01,清算の結了等,,,2015-10-05,1,,,,,エスティユー,0
1982,8020003024350,登記記録の閉鎖等,0,2025-09-17,2025-08-14,スーパーノヴァ合同会社,,合同会社,神奈川県,横浜市中区,山手町２１番地１－３０１,,14,104,2310862,,,2025-08-14,清算の結了等,,,2023-08-14,1,,,,,スーパーノヴァ,0
1985,8021001045438,登記記録の閉鎖等,0,2025-09-17,2025-09-02,株式会社夢想塾,,株式会社,大阪府,大阪市中央区,内平野町１丁目３番６号,,27,128,5400037,,,2025-09-02,清算の結了等,,,2015-10-05,1,,,,,ムソウジュク,0
1990,8030001079593,登記記録の閉鎖等,0,2025-09-17,2025-09-01,株式会社みくに道建,,株式会社,埼玉県,川口市,大字東本郷１７９８番地の２,,11,203,3340063,,,2025-09-01,合併による解散等,9030002107146,令和７年９月１日埼玉県川口市安行領根岸２３０５番地の７株式会社松沼土木（9030002107146）に合併し解散,2015-10-05,1,,,,,ミクニドウケン,0
1997,8030002043433,登記記録の閉鎖等,0,2025-09-17,2025-08-22,有限会社エアリー,,有限会社,埼玉県,草加市,八幡町１０６０番地４,,11,221,3400006,,,2025-08-22,清算の結了等,,,2015-10-05,1,,,,,エアリー,0
2009,8050001008154,登記記録の閉鎖等,0,2025-09-17,2025-09-08,株式会社常井商店,,株式会社,茨城県,笠間市,押辺１６９５番地８,,08,216,3190205,,,2025-09-08,清算の結了等,,,2015-10-05,1,,,,,トコイショウテン,0
2013,8050002029091,登記記録の閉鎖等,0,2025-09-17,2025-09-04,有限会社島田陶業,,有限会社,茨城県,行方市,玉造甲６７９７番地２,,08,233,3113512,,,2025-09-04,清算の結了等,,,2015-10-05,1,,,,,シマダトウギョウ,0
2015,8060002008268,登記記録の閉鎖等,0,2025-09-17,2025-09-10,有限会社マルエス,,有限会社,栃木県,宇都宮市,福岡町１４２７番地,,09,201,3210342,,,2025-09-10,清算の結了等,,,2015-10-05,1,,,,,マルエス,0
2016,8070003002814,登記記録の閉鎖等,0,2025-09-17,2025-09-10,合同会社奏,,合同会社,群馬県,前橋市,富士見町皆沢７９番地２０,,10,201,3710102,,,2025-09-10,清算の結了等,,,2017-01-24,1,,,,,カナデ,0
2018,8080401020359,登記記録の閉鎖等,0,2025-09-17,2025-09-10,株式会社Ｇ＆Ｔ,,株式会社,静岡県,御前崎市,池新田３１６４番地の１,,22,223,4371612,,,2025-09-10,清算の結了等,,,2015-10-05,1,,,,,ジーアンドティー,0
2025,8100002005112,登記記録の閉鎖等,0,2025-09-17,2025-09-09,株式会社ミヤザキ,,株式会社,長野県,長野市,篠ノ井御幣川３０３番地１,,20,201,3888006,,,2025-09-09,合併による解散等,1100001003271,令和７年９月１日長野市篠ノ井御幣川３０３番地１万株式会社萬屋商店（1100001003271）に合併し解散,2015-10-05,1,,,,,ミヤザキ,0
2034,8120001019895,登記記録の閉鎖等,0,2025-09-17,2025-09-04,株式会社河野店舗製作所,,株式会社,大阪府,大阪市平野区,平野西４丁目７番２６号,,27,126,5470033,,,2025-09-04,清算の結了等,,,2015-10-05,1,,,,,カワノテンポセイサクショ,0
2035,8120001058340,登記記録の閉鎖等,0,2025-09-17,2025-09-08,株式会社ボーサイテック,,株式会社,大阪府,大阪市淀川区,木川西３丁目５番１４号,,27,123,5320013,,,2025-09-08,清算の結了等,,,2015-10-05,1,,,,,ボーサイテック,0
2036,8120001067829,登記記録の閉鎖等,0,2025-09-17,2025-09-03,東洋紡ビルメンテナンス株式会社,,株式会社,大阪府,大阪市中央区,久太郎町２丁目４番２７号,,27,128,5410056,,,2025-09-03,清算の結了等,,,2015-10-05,1,,,,,トウヨウボウビルメンテナンス,0
2051,8120005015222,登記記録の閉鎖等,0,2025-09-17,2025-09-12,一般財団法人大阪市文化財協会,,その他の設立登記法人,大阪府,大阪市中央区,大手前１丁目７番３１号ＯＭＭ１階ＳｅｒｖｉｃｅＯｆｆｉｃｅＷ天満橋,,27,128,5400008,,,2025-09-12,清算の結了等,,,2015-10-05,1,,,,,オオサカシブンカザイキョウカイ,0
2059,8120102028184,登記記録の閉鎖等,0,2025-09-17,2025-08-27,三和電設プラン有限会社,,有限会社,大阪府,泉南郡岬町,淡輪１０３０番地の６,,27,366,5990301,,,2025-08-27,清算の結了等,,,2015-10-05,1,,,,,サンワデンセツプラン,0
2062,8130001004442,登記記録の閉鎖等,0,2025-09-17,2025-09-05,オースミ株式会社,,株式会社,京都府,京都市北区,小山下内河原町１０５番地,,26,101,6038132,,,2025-09-05,清算の結了等,,,2015-10-05,1,,,,,オースミ,0
2066,8130001030562,登記記録の閉鎖等,0,2025-09-17,2025-09-08,ディジタル・エイテック株式会社,,株式会社,京都府,長岡京市,馬場図所１番地,,26,209,6170828,,,2025-09-08,清算の結了等,,,2015-10-05,1,,,,,ディジタルエイテック,0
2090,8160005003264,登記記録の閉鎖等,0,2025-09-17,2025-09-10,湖北漁業生産組合,,その他の設立登記法人,滋賀県,長浜市,新庄中町１８９番地の８,,25,203,5260012,,,2025-09-10,清算の結了等,,,2015-10-05,1,,,,,コホク,0
2093,8160005003413,登記記録の閉鎖等,0,2025-09-17,2025-09-10,こほくん商業協同組合,,その他の設立登記法人,滋賀県,長浜市,湖北町速水２７４５番地（長浜市商工会内）,,25,203,5290341,,,2025-09-10,清算の結了等,,,2015-10-05,1,,,,,コホクン,0
2098,8180001063178,登記記録の閉鎖等,0,2025-09-17,2025-09-01,株式会社サンシャインインターナショナルジャパン,,株式会社,愛知県,名古屋市名東区,本郷２丁目２１４番地,,23,115,4650024,,,2025-09-01,清算の結了等,,,2015-10-05,1,,,,,サンシャインインターナショナルジャパン,0
2100,8180001117693,登記記録の閉鎖等,0,2025-09-17,2025-09-01,株式会社ひのきや,,株式会社,愛知県,大府市,横根町箕手１０１番地の３０,,23,223,4740011,,,2025-09-01,清算の結了等,,,2015-10-05,1,,,,,ヒノキヤ,0
2101,8180001125928,登記記録の閉鎖等,0,2025-09-17,2025-09-01,株式会社ドン・ディ・ケー,,株式会社,愛知県,名古屋市中村区,名駅５丁目３３番２１号－２９０４,,23,105,4500002,,,2025-09-01,清算の結了等,,,2016-12-19,1,,,,,ドンディケー,0
2115,8200002025728,登記記録の閉鎖等,0,2025-09-17,2025-09-11,有限会社畑中堂,,有限会社,岐阜県,高山市,大門町８５番地,,21,203,5060856,,,2025-09-11,清算の結了等,,,2015-10-05,1,,,,,ハタナカドウ,0
2129,8260002031142,登記記録の閉鎖等,0,2025-09-17,2025-09-03,有限会社藤原住宅設備,,有限会社,岡山県,備前市,吉永町岩崎１８８番地,,33,211,7090226,,,2025-09-03,清算の結了等,,,2015-10-05,1,,,,,フジワラジュウタクセツビ,0
2130,8290001036387,登記記録の閉鎖等,0,2025-09-17,2025-08-21,ニビシ開発株式会社,,株式会社,福岡県,古賀市,駅東３丁目２番１号,,40,223,8113102,,,2025-08-21,清算の結了等,,,2015-10-05,1,,,,,ニビシカイハツ,0
2142,8290805003954,登記記録の閉鎖等,0,2025-09-17,2025-09-16,築地工業協同組合,,その他の設立登記法人,福岡県,北九州市八幡西区,築地町１番１号,,40,109,8060001,,,2025-09-16,清算の結了等,,,2015-10-05,1,,,,,ツキジコウギョウ,0
2144,8300001011529,登記記録の閉鎖等,0,2025-09-17,2025-09-12,株式会社川島設備,,株式会社,佐賀県,佐賀市,新栄東２丁目２番１６号ユートクビル２Ｆ２号,,41,201,8400850,,,2025-09-12,清算の結了等,,,2018-12-07,1,,,,,カワシマセツビ,0
2145,8300005005015,登記記録の閉鎖等,0,2025-09-17,2025-09-11,特定非営利活動法人アシストライフ,,その他の設立登記法人,佐賀県,小城市,牛津町上砥川９７番地,,41,208,8490305,,,2025-09-11,清算の結了等,,,2015-10-05,1,,,,,アシストライフ,0
2168,8390002006379,登記記録の閉鎖等,0,2025-09-17,2025-09-10,有限会社山口製材所,,有限会社,山形県,上山市,三本松７７番地,,06,207,9993233,,,2025-09-10,清算の結了等,,,2015-10-05,1,,,,,ヤマグチセイザイショ,0
2177,8410002000016,登記記録の閉鎖等,0,2025-09-17,2025-09-12,有限会社メディコ秋田,,有限会社,秋田県,秋田市,外旭川八幡田２丁目１５－３,,05,201,0100804,,,2025-09-12,清算の結了等,,,2015-10-05,1,,,,,メディコアキタ,0
2183,8430005009622,登記記録の閉鎖等,0,2025-09-17,2025-08-29,伊達駅前商店街振興組合,,その他の設立登記法人,北海道,伊達市,山下町３６２番地,,01,233,0520032,,,2025-08-29,清算の結了等,,,2015-10-05,1,,,,,ダテエキマエ,0
2192,8490005005244,登記記録の閉鎖等,0,2025-09-17,2025-07-30,天理教茂里分教会,,その他の設立登記法人,高知県,土佐郡土佐町,土居字北土居１３２番地イ,,39,363,7813401,,,2025-07-30,合併による解散等,9490005001168,令和７年７月３０日高知市追手筋二丁目３番２２号天理教高知大教会（9490005001168）に合併し解散,2015-10-05,1,,,,,テンリキョウモリブンキョウカイ,0
2217,9010405005403,登記記録の閉鎖等,0,2025-09-17,2025-08-18,特定非営利活動法人日本アンチエイジング・メディカル協会,,その他の設立登記法人,東京都,港区,赤坂３丁目１３番１０号新赤坂ビル５Ｆ,,13,103,1070052,,,2025-08-18,清算の結了等,,,2015-10-05,1,,,,,ニホンアンチエイジングメディカルキョウカイ,0
2219,9010501020941,登記記録の閉鎖等,0,2025-09-17,2025-09-01,株式会社ベイサイド,,株式会社,神奈川県,横浜市西区,浅間町４丁目３３４番地６,,14,103,2200072,,,2025-09-01,合併による解散等,5020001099694,令和７年９月１日横浜市西区浅間町四丁目３３４番地６Ｒ＆Ｂホールディングス株式会社（5020001099694）に合併し解散,2015-10-05,1,,,,,ベイサイド,0
2223,9010601008820,登記記録の閉鎖等,0,2025-09-17,2025-09-10,新井工業株式会社,,株式会社,東京都,墨田区,石原３丁目２番９号,,13,107,1300011,,,2025-09-10,清算の結了等,,,2015-10-05,1,,,,,アライコウギョウ,0
2258,9012701001102,登記記録の閉鎖等,0,2025-09-17,2025-09-10,アーテック株式会社,,株式会社,東京都,東村山市,本町２丁目２２番地１１,,13,213,1890014,,,2025-09-10,清算の結了等,,,2015-10-05,1,,,,,アーテック,0
2261,9012805000487,登記記録の閉鎖等,0,2025-09-17,2025-09-02,税理士法人弓家田・富山事務所,,その他の設立登記法人,東京都,昭島市,朝日町２丁目４番１２号Ｙ・Ｔビル２・３階,,13,207,1960025,,,2025-09-02,清算の結了等,,,2015-10-05,1,,,,,ユゲタトミヤマジムショ,0
2274,9020002105373,登記記録の閉鎖等,0,2025-09-17,2025-09-01,有限会社ハーモニックス,,有限会社,神奈川県,川崎市幸区,古市場２丁目６９番地,,14,132,2120052,,,2025-09-01,清算の結了等,,,2015-10-05,1,,,,,ハーモニックス,0
2287,9030001064116,登記記録の閉鎖等,0,2025-09-17,2025-09-08,新都市住建株式会社,,株式会社,埼玉県,越谷市,川柳町１丁目１０３番地,,11,222,3430827,,,2025-09-08,清算の結了等,,,2015-10-05,1,,,,,シントシジュウケン,0
2296,9030003021156,登記記録の閉鎖等,0,2025-09-17,2025-09-08,コクサイファミリア合同会社,,合同会社,埼玉県,さいたま市緑区,東浦和２丁目４番地１２県営井沼方団地２号棟４０６号室,,11,109,3360926,,,2025-09-08,清算の結了等,,,2023-02-10,1,,,,,コクサイファミリア,0
2316,9080101004545,登記記録の閉鎖等,0,2025-09-17,2025-09-10,株式会社岩田建装,,株式会社,静岡県,御殿場市,新橋１８２６番地の３小松屋ビル２Ｆ,,22,215,4120043,,,2025-09-10,清算の結了等,,,2015-10-05,1,,,,,イワタケンソウ,0
2317,9090005004194,登記記録の閉鎖等,0,2025-09-17,2025-08-01,鳴沢村農業協同組合,,その他の設立登記法人,山梨県,南都留郡鳴沢村,７１１番地４,,19,429,4010320,,,2025-08-01,合併による解散等,6090005002259,令和７年８月１日山梨県笛吹市八代町南５６１番地笛吹農業協同組合（6090005002259）に合併し解散,2015-10-05,1,,,,,ナルサワムラ,0
2318,9100001023774,登記記録の閉鎖等,0,2025-09-17,2025-09-11,株式会社下條建築,,株式会社,長野県,長野市,篠ノ井布施五明３４９６番地,,20,201,3888011,,,2025-09-11,清算の結了等,,,2015-10-05,1,,,,,シモジョウケンチク,0
2345,9120101008277,登記記録の閉鎖等,0,2025-09-17,2025-09-01,株式会社ケーブルカバー工業,,株式会社,大阪府,高石市,綾園７丁目６番４１号,,27,225,5920014,,,2025-09-01,清算の結了等,,,2015-10-05,1,,,,,ケーブルカバーコウギョウ,0
2352,9120102004977,登記記録の閉鎖等,0,2025-09-17,2025-09-03,有限会社ユー・アール・アイ,,有限会社,大阪府,堺市西区,上野芝町４丁１８番１２号,,27,144,5938301,,,2025-09-03,清算の結了等,,,2015-10-05,1,,,,,ユーアールアイ,0
2356,9120901037624,登記記録の閉鎖等,0,2025-09-17,2025-09-09,株式会社Ａｓｓｅｔ　ｆｉｘ,,株式会社,大阪府,豊中市,岡町南１丁目１１番４３号,,27,203,5610883,,,2025-09-09,合併による解散等,9120002063504,令和７年９月１日大阪市中央区平野町四丁目７番８号アベニュー淀屋橋６０６号株式会社ライフプロパティ（9120002063504）に合併し解散,2016-11-04,1,,,,,,0
2362,9130001002668,登記記録の閉鎖等,0,2025-09-17,2025-09-05,株式会社岡島商店,,株式会社,京都府,京都市上京区,五辻通浄福寺西入一色町２２番地の２,00035098,26,102,6028471,,,2025-09-05,清算の結了等,,,2015-10-05,1,,,,,オカジマショウテン,0
2369,9130005014288,登記記録の閉鎖等,0,2025-09-17,2025-08-28,特定非営利活動法人認知症排泄支援の会,,その他の設立登記法人,京都府,宇治市,神明宮東２３－５１,,26,204,6110025,,,2025-08-28,清算の結了等,,,2015-10-05,1,,,,,ニンチショウハイセツシエンノカイ,0
2390,9180002002010,登記記録の閉鎖等,0,2025-09-17,2025-09-01,有限会社オーバーズ,,有限会社,愛知県,名古屋市名東区,姫若町９番地,,23,115,4650045,,,2025-09-01,清算の結了等,,,2015-10-05,1,,,,,オーバーズ,0
2391,9180002027049,登記記録の閉鎖等,0,2025-09-17,2025-08-25,有限会社イーディーエス,,有限会社,愛知県,名古屋市中村区,烏森町８丁目１１２番地,,23,105,4530855,,,2025-08-25,清算の結了等,,,2015-10-05,1,,,,,イーディーエス,0
2393,9180002066880,登記記録の閉鎖等,0,2025-09-17,2025-08-25,有限会社西工芸,,有限会社,愛知県,春日井市,下津町１２２番地の２,,23,206,4860924,,,2025-08-25,清算の結了等,,,2015-10-05,1,,,,,ニシコウゲイ,0
2414,9240001018117,登記記録の閉鎖等,0,2025-09-17,2025-09-10,株式会社Ｍ．Ｒ．Ｐａｓｓｉｏｎｅ,,株式会社,広島県,広島市中区,大手町２丁目６番２４号１Ｆ,,34,101,7300051,,,2025-09-10,清算の結了等,,,2015-10-05,1,,,,,エムアールパッシオーネ,0
2420,9260002020342,登記記録の閉鎖等,0,2025-09-17,2025-09-01,有限会社ニノコ,,有限会社,岡山県,岡山市南区,豊成３丁目１番１００号,,33,104,7000942,,,2025-09-01,合併による解散等,2260001031099,令和７年９月１日岡山県倉敷市福江４１番地４ユーロスタイル株式会社（2260001031099）に合併し解散,2015-10-05,1,,,,,ニノコ,0
2433,9330001014503,登記記録の閉鎖等,0,2025-09-17,2025-09-08,熊本農業資材株式会社,,株式会社,熊本県,八代市,昭和同仁町５４２番地,,43,202,8694723,,,2025-09-08,清算の結了等,,,2015-10-05,1,,,,,クマモトノウギョウシザイ,0
2437,9340002008916,登記記録の閉鎖等,0,2025-09-17,2025-09-09,有限会社松田コンサルタンツ,,有限会社,鹿児島県,鹿児島市,船津町５番１５号,,46,201,8920831,,,2025-09-09,清算の結了等,,,2015-10-05,1,,,,,マツダコンサルタンツ,0
2452,9400002000024,登記記録の閉鎖等,0,2025-09-17,2025-09-01,有限会社岩手日報本宮専売所,,有限会社,岩手県,盛岡市,本宮４丁目７番１号,,03,201,0200866,,,2025-09-01,合併による解散等,9400001000207,令和７年９月１日岩手県盛岡市内丸３番７号株式会社岩手日報社（9400001000207）に合併し解散,2015-10-05,1,,,,,イワテニッポウモトミヤセンバイショ,0
2457,9440001006019,登記記録の閉鎖等,0,2025-09-17,2025-09-11,株式会社サントー,,株式会社,北海道,二海郡八雲町,立岩３１０番地７,,01,346,0493123,,,2025-09-11,清算の結了等,,,2015-10-05,1,,,,,サントー,0
