sequenceNumber,corporateNumber,process,correct,updateDate,changeDate,name,nameImageId,kind,prefectureName,cityName,streetNumber,addressImageId,prefectureCode,cityCode,postCode,addressOutside,addressOutsideImageId,closeDate,closeCause,successorCorporateNumber,changeCause,assignmentDate,latest,enName,enPrefectureName,enCityName,enAddressOutside,furigana,hihyoji
8,1010001128053,登記記録の閉鎖等,0,2024-01-17,2024-01-04,株式会社コンテック,,株式会社,東京都,港区,芝５丁目３３番１号,,13,103,1080014,,,2024-01-04,合併による解散等,1010001083026,令和６年１月１日東京都港区芝五丁目３３番１号フロンティアコンストラクション＆パートナーズ株式会社（1010001083026）に合併し解散,2015-10-05,1,,,,,コンテック,0
11,1010001205653,登記記録の閉鎖等,0,2024-01-17,2024-01-04,ハイウェイロイヤル株式会社,,株式会社,東京都,世田谷区,桜新町１丁目３４番６号,,13,112,1540015,,,2024-01-04,合併による解散等,7010901016970,令和６年１月１日東京都世田谷区桜新町一丁目３４番６号ロイヤルコントラクトサービス株式会社（7010901016970）に合併し解散,2019-11-27,1,,,,,ハイウェイロイヤル,0
20,1010003003320,登記記録の閉鎖等,0,2024-01-17,2024-01-09,合名会社北原常次郎商店,,合名会社,東京都,国分寺市,本多４丁目１０番２４号,,13,214,1850011,,,2024-01-09,清算の結了等,,,2015-10-05,1,,,,,キタハラツネジロウショウテン,0
25,1010003028103,登記記録の閉鎖等,0,2024-01-17,2024-01-09,ベータ合同会社,,合同会社,東京都,千代田区,丸の内３丁目１番１号東京共同会計事務所内,,13,101,1000005,,,2024-01-09,清算の結了等,,,2018-08-14,1,,,,,ベータ,0
31,1010401062059,登記記録の閉鎖等,0,2024-01-17,2024-01-05,株式会社国際社会問題・政策研究所ＬＩＱＰＳ,,株式会社,東京都,港区,高輪１丁目２７番３７－１８０２号,,13,103,1080074,,,2024-01-05,清算の結了等,,,2015-10-05,1,,,,,コクサイシャカイモンダイセイサクケンキュウジョリクペス,0
33,1010401165563,登記記録の閉鎖等,0,2024-01-17,2024-01-09,株式会社リアシュア,,株式会社,東京都,文京区,本郷６丁目２５番１４号,,13,105,1130033,,,2024-01-09,清算の結了等,,,2022-02-16,1,,,,,リアシュア,0
43,1010601050227,登記記録の閉鎖等,0,2024-01-17,2024-01-15,株式会社エイジェントＪＡＰＡＮ,,株式会社,東京都,渋谷区,神宮前６丁目２３番４号,,13,113,1500001,,,2024-01-15,清算の結了等,,,2016-08-15,1,,,,,エイジェントジャパン,0
44,1010801010922,登記記録の閉鎖等,0,2024-01-17,2023-12-22,本州金属工業株式会社,,株式会社,東京都,大田区,西六郷４丁目３３番９号,,13,111,1440056,,,2023-12-22,清算の結了等,,,2015-10-05,1,,,,,ホンシュウキンゾクコウギョウ,0
47,1010802020160,登記記録の閉鎖等,0,2024-01-17,2024-01-10,テー・ロジデザイン有限会社,,有限会社,東京都,品川区,東五反田１丁目７－１１アイオス五反田アネックス１０１号室,,13,109,1410022,,,2024-01-10,清算の結了等,,,2015-10-05,1,,,,,テーロジデザイン,0
48,1010901027932,登記記録の閉鎖等,0,2024-01-17,2024-01-15,ＣＭＳ株式会社,,株式会社,東京都,台東区,上野６丁目１番６号御徒町グリーンハイツ１００５号,,13,106,1100005,,,2024-01-15,清算の結了等,,,2015-10-05,1,,,,,シーエムエス,0
53,1011001052920,登記記録の閉鎖等,0,2024-01-17,2024-01-09,ＧＭＯアドマーケティング株式会社,,株式会社,東京都,渋谷区,桜丘町２６番１号,,13,113,1500031,,,2024-01-09,合併による解散等,8011001061766,令和６年１月１日東京都渋谷区桜丘町２６番１号ＧＭＯ　ＮＩＫＫＯ株式会社（8011001061766）に合併し解散,2015-10-05,1,,,,,ジーエムオーアドマーケティング,0
58,1011002029570,登記記録の閉鎖等,0,2024-01-17,2024-01-15,有限会社瀬谷総合開発,,有限会社,東京都,渋谷区,神泉町８番１３号,,13,113,1500045,,,2024-01-15,合併による解散等,1011301012748,令和５年１２月１９日東京都杉並区善福寺一丁目２６番１１号株式会社ウインド・キャピタルホールディング（1011301012748）に合併し解散,2015-10-05,1,,,,,,0
73,1011301022482,登記記録の閉鎖等,0,2024-01-17,2024-01-05,ジーバエンジニアリングアンドコンサルティング株式会社,,株式会社,東京都,杉並区,西荻北１丁目５番１１号アルファステージ西荻窪４０４,,13,115,1670042,,,2024-01-05,清算の結了等,,,2016-08-12,1,,,,,ジーバエンジニアリングアンドコンサルティング,0
90,1013201017554,登記記録の閉鎖等,0,2024-01-17,2024-01-17,株式会社ルハス,,株式会社,福岡県,福岡市中央区,警固１丁目１０番９号,,40,133,8100023,,,2024-01-17,登記官による閉鎖,,,2015-10-05,1,,,,,,0
91,1013301024120,登記記録の閉鎖等,0,2024-01-17,2024-01-16,株式会社フリーウェイ,,株式会社,東京都,豊島区,池袋３丁目３番８号,,13,116,1710014,,,2024-01-16,登記官による閉鎖,,,2015-10-05,1,,,,,,0
93,1013301032387,登記記録の閉鎖等,0,2024-01-17,2024-01-16,株式会社かなめ堂,,株式会社,東京都,豊島区,東池袋４丁目２番２号時ビル２０１号,,13,116,1700013,,,2024-01-16,登記官による閉鎖,,,2015-10-05,1,,,,,,0
95,1013302007958,登記記録の閉鎖等,0,2024-01-17,2024-01-16,有限会社平野タイル工業所,,有限会社,東京都,豊島区,上池袋３丁目４６番９号,,13,116,1700012,,,2024-01-16,登記官による閉鎖,,,2015-10-05,1,,,,,,0
96,1013302017627,登記記録の閉鎖等,0,2024-01-17,2024-01-16,有限会社山口,,有限会社,東京都,豊島区,東池袋１丁目３９番６号第三ＫＵビル,,13,116,1700013,,,2024-01-16,登記官による閉鎖,,,2015-10-05,1,,,,,,0
97,1013302020705,登記記録の閉鎖等,0,2024-01-17,2024-01-16,トチギヤトレーディング有限会社,,有限会社,東京都,豊島区,高田２丁目１８番１５－４１４号,,13,116,1710033,,,2024-01-16,登記官による閉鎖,,,2015-10-05,1,,,,,,0
99,1013305001438,登記記録の閉鎖等,0,2024-01-17,2024-01-16,特定非営利活動法人日伯音楽交流会ＴＡＩＧＡ,,その他の設立登記法人,東京都,豊島区,西池袋５丁目５番２１号タワーグランディア２７０３号,,13,116,1710021,,,2024-01-16,登記官による閉鎖,,,2015-10-05,1,,,,,,0
131,1030002016148,登記記録の閉鎖等,0,2024-01-17,2024-01-09,有限会社トライジップ,,有限会社,埼玉県,さいたま市浦和区,本太２丁目８番１０号,,11,107,3300052,,,2024-01-09,清算の結了等,,,2015-10-05,1,,,,,トライジップ,0
134,1030002108465,登記記録の閉鎖等,0,2024-01-17,2024-01-09,有限会社リカーショップ・ミヤハラ,,有限会社,埼玉県,川口市,榛松１丁目１５番１号,,11,203,3340062,,,2024-01-09,清算の結了等,,,2015-10-05,1,,,,,リカーショップミヤハラ,0
141,1040001095737,登記記録の閉鎖等,0,2024-01-17,2024-01-04,株式会社千葉船橋,,株式会社,千葉県,船橋市,北本町２丁目６３番１４号,,12,204,2730864,,,2024-01-04,清算の結了等,,,2016-06-15,1,,,,,チバフナバシ,0
213,1110002013054,登記記録の閉鎖等,0,2024-01-17,2024-01-12,有限会社渡部工務店,,有限会社,新潟県,東蒲原郡阿賀町,日野川甲１４１番地２,,15,385,9594531,,,2024-01-12,清算の結了等,,,2015-10-05,1,,,,,ワタナベコウムテン,0
215,1120001165110,登記記録の閉鎖等,0,2024-01-17,2024-01-17,オオタトータルプランニング株式会社,,株式会社,福岡県,福岡市博多区,堅粕４丁目２４番１４号,,40,132,8120043,,,2024-01-17,登記官による閉鎖,,,2015-10-05,1,,,,,,0
225,1120003008820,登記記録の閉鎖等,0,2024-01-17,2024-01-09,アッチソン・スマート合同会社,,合同会社,大阪府,枚方市,渚南町１６番１９号,,27,210,5731183,,,2024-01-09,清算の結了等,,,2015-10-05,1,,,,,アッチソンスマート,0
249,1180001007703,登記記録の閉鎖等,0,2024-01-17,2024-01-12,株式会社若松屋,,株式会社,愛知県,名古屋市港区,西福田３丁目３２２番地,,23,111,4550874,,,2024-01-12,清算の結了等,,,2015-10-05,1,,,,,ワカマツヤ,0
267,1190002012767,登記記録の閉鎖等,0,2024-01-17,2024-01-09,有限会社シゲザワ測量設計,,有限会社,三重県,伊賀市,阿保２２４番地の１,,24,216,5180226,,,2024-01-09,清算の結了等,,,2015-10-05,1,,,,,シゲザワソクリョウ,0
289,1290001002305,登記記録の閉鎖等,0,2024-01-17,2024-01-17,株式会社マツオ,,株式会社,福岡県,福岡市南区,弥永３丁目１０番１７号,,40,134,8111323,,,2024-01-17,登記官による閉鎖,,,2015-10-05,1,,,,,,0
290,1290001008517,登記記録の閉鎖等,0,2024-01-17,2024-01-17,株式会社大丸地所,,株式会社,福岡県,福岡市中央区,高砂１丁目２３番２号,,40,133,8100011,,,2024-01-17,登記官による閉鎖,,,2018-11-22,1,,,,,,0
291,1290001029059,登記記録の閉鎖等,0,2024-01-17,2024-01-17,株式会社Ｂｌｏｏｍ,,株式会社,福岡県,福岡市博多区,博多駅南２丁目１４番２８－７０６号,,40,132,8120016,,,2024-01-17,登記官による閉鎖,,,2015-10-05,1,,,,,,0
292,1290001029117,登記記録の閉鎖等,0,2024-01-17,2024-01-17,株式会社ＭＣＨ　ＷＥＳＴ,,株式会社,福岡県,福岡市中央区,今川２丁目１１番５号,,40,133,8100054,,,2024-01-17,登記官による閉鎖,,,2015-10-05,1,,,,,,0
293,1290001051764,登記記録の閉鎖等,0,2024-01-17,2024-01-17,株式会社ＰＤＣ,,株式会社,福岡県,小郡市,稲吉１１９番地,,40,216,8380128,,,2024-01-17,登記官による閉鎖,,,2015-10-05,1,,,,,,0
294,1290001052993,登記記録の閉鎖等,0,2024-01-17,2024-01-17,株式会社平材木店,,株式会社,福岡県,大川市,大字向島１２８１番地の７,,40,212,8310005,,,2024-01-17,登記官による閉鎖,,,2015-10-05,1,,,,,,0
295,1290001056978,登記記録の閉鎖等,0,2024-01-17,2024-01-17,株式会社エコパワー,,株式会社,福岡県,福岡市博多区,金の隈２丁目２０番６１号,,40,132,8120863,,,2024-01-17,登記官による閉鎖,,,2015-10-05,1,,,,,,0
297,1290001060162,登記記録の閉鎖等,0,2024-01-17,2024-01-17,株式会社八,,株式会社,福岡県,朝倉市,菩提寺４８７番地１,,40,228,8380061,,,2024-01-17,登記官による閉鎖,,,2015-10-05,1,,,,,,0
298,1290001061648,登記記録の閉鎖等,0,2024-01-17,2024-01-17,ネクストテクノロジー販売株式会社,,株式会社,福岡県,飯塚市,有安１０２５番地７,,40,205,8200111,,,2024-01-17,登記官による閉鎖,,,2015-10-05,1,,,,,,0
303,1290002039024,登記記録の閉鎖等,0,2024-01-17,2024-01-17,有限会社久保山コーポ,,有限会社,福岡県,筑紫野市,二日市西２丁目６番５号,,40,217,8180071,,,2024-01-17,登記官による閉鎖,,,2015-10-05,1,,,,,,0
304,1290002040023,登記記録の閉鎖等,0,2024-01-17,2024-01-17,有限会社舩越鋳造所,,有限会社,福岡県,大野城市,乙金東１丁目６番６０号,,40,219,8160901,,,2024-01-17,登記官による閉鎖,,,2015-10-05,1,,,,,,0
305,1290002055681,登記記録の閉鎖等,0,2024-01-17,2024-01-17,有限会社ヒロカネ食品,,有限会社,福岡県,大牟田市,早米来町２丁目８１番地,,40,202,8360077,,,2024-01-17,登記官による閉鎖,,,2015-10-05,1,,,,,,0
306,1290003001643,登記記録の閉鎖等,0,2024-01-17,2024-01-17,合同会社ファースト,,合同会社,福岡県,福岡市中央区,薬院１丁目６番９号,,40,133,8100022,,,2024-01-17,登記官による閉鎖,,,2015-10-05,1,,,,,,0
307,1290005003720,登記記録の閉鎖等,0,2024-01-17,2024-01-17,特定非営利活動法人社会生活安全協議会,,その他の設立登記法人,福岡県,福岡市城南区,友泉亭５番５号２０１,,40,136,8140122,,,2024-01-17,登記官による閉鎖,,,2015-10-05,1,,,,,,0
308,1290005004116,登記記録の閉鎖等,0,2024-01-17,2024-01-17,特定非営利活動法人福岡・アジアネットワーク,,その他の設立登記法人,福岡県,福岡市南区,長住１丁目１番５７－１０２号,,40,134,8111362,,,2024-01-17,登記官による閉鎖,,,2015-10-05,1,,,,,,0
309,1290005010980,登記記録の閉鎖等,0,2024-01-17,2024-01-17,ＮＰＯ法人夢理愛の会,,その他の設立登記法人,福岡県,久留米市,合川町２１７５番地２緒方コーポ,,40,203,8390861,,,2024-01-17,登記官による閉鎖,,,2015-10-05,1,,,,,,0
310,1290005012374,登記記録の閉鎖等,0,2024-01-17,2024-01-17,大牟田住宅関連事業協同組合,,その他の設立登記法人,福岡県,大牟田市,大正町４丁目３番地２,,40,202,8360047,,,2024-01-17,登記官による閉鎖,,,2015-10-05,1,,,,,,0
311,1290801002198,登記記録の閉鎖等,0,2024-01-17,2024-01-17,田村薬品株式会社,,株式会社,福岡県,北九州市小倉南区,若園１丁目６番１１－２０２号,,40,107,8020816,,,2024-01-17,登記官による閉鎖,,,2015-10-05,1,,,,,,0
312,1290801003964,登記記録の閉鎖等,0,2024-01-17,2024-01-17,菱陽建材株式会社,,株式会社,福岡県,北九州市小倉南区,東貫３丁目１番２８号,,40,107,8000224,,,2024-01-17,登記官による閉鎖,,,2015-10-05,1,,,,,,0
313,1290801019820,登記記録の閉鎖等,0,2024-01-17,2024-01-17,株式会社サンジュ,,株式会社,福岡県,北九州市小倉北区,京町２丁目７番１３号,,40,106,8020002,,,2024-01-17,登記官による閉鎖,,,2015-10-05,1,,,,,,0
315,1290802004375,登記記録の閉鎖等,0,2024-01-17,2024-01-17,有限会社トータルデザインルームイナダ,,有限会社,福岡県,北九州市小倉北区,吉野町１３－１,,40,106,8020085,,,2024-01-17,登記官による閉鎖,,,2015-10-05,1,,,,,,0
316,1290802006149,登記記録の閉鎖等,0,2024-01-17,2024-01-17,有限会社松田建設工業,,有限会社,福岡県,北九州市小倉南区,湯川新町３丁目２２番１７号,,40,107,8000256,,,2024-01-17,登記官による閉鎖,,,2015-10-05,1,,,,,,0
317,1290802010200,登記記録の閉鎖等,0,2024-01-17,2024-01-17,有限会社山口自動車,,有限会社,福岡県,北九州市門司区,東新町２丁目５番３１号,,40,101,8000055,,,2024-01-17,登記官による閉鎖,,,2015-10-05,1,,,,,,0
318,1290802018516,登記記録の閉鎖等,0,2024-01-17,2024-01-17,有限会社上田工業,,有限会社,福岡県,北九州市若松区,北湊町５番５８－５０３号,,40,103,8080027,,,2024-01-17,登記官による閉鎖,,,2015-10-05,1,,,,,,0
319,1290802020538,登記記録の閉鎖等,0,2024-01-17,2024-01-17,有限会社長谷川商店,,有限会社,福岡県,直方市,古町９番２９号,,40,204,8220027,,,2024-01-17,登記官による閉鎖,,,2015-10-05,1,,,,,,0
320,1290802021115,登記記録の閉鎖等,0,2024-01-17,2024-01-17,有限会社ミヤタファーマシー,,有限会社,福岡県,直方市,大字頓野２１８８－３,,40,204,8220002,,,2024-01-17,登記官による閉鎖,,,2015-10-05,1,,,,,,0
321,1290802024407,登記記録の閉鎖等,0,2024-01-17,2024-01-17,有限会社藤井染工場,,有限会社,福岡県,田川市,番田町６番３号,,40,206,8250018,,,2024-01-17,登記官による閉鎖,,,2015-10-05,1,,,,,,0
322,1290802026188,登記記録の閉鎖等,0,2024-01-17,2024-01-17,有限会社田川交通会館,,有限会社,福岡県,田川市,大字奈良２０６０番地の２３,,40,206,8260043,,,2024-01-17,登記官による閉鎖,,,2018-03-26,1,,,,,タガワコウツウカイカン,0
323,1290805007706,登記記録の閉鎖等,0,2024-01-17,2024-01-17,農事組合法人上赤養豚組合,,その他の設立登記法人,福岡県,田川郡赤村,大字赤５１２２番地,,40,609,8240431,,,2024-01-17,登記官による閉鎖,,,2015-10-05,1,,,,,,0
324,1290805007920,登記記録の閉鎖等,0,2024-01-17,2024-01-17,特定非営利活動法人昴,,その他の設立登記法人,福岡県,田川郡赤村,大字赤１９８４番地,,40,609,8240431,,,2024-01-17,登記官による閉鎖,,,2015-10-05,1,,,,,,0
339,1370001014936,登記記録の閉鎖等,0,2024-01-17,2024-01-15,株式会社藤美,,株式会社,宮城県,仙台市宮城野区,宮城野３丁目２番１号,,04,102,9830045,,,2024-01-15,清算の結了等,,,2015-10-05,1,,,,,,0
342,1380001003467,登記記録の閉鎖等,0,2024-01-17,2024-01-15,株式会社テクノ工房,,株式会社,福島県,伊達郡国見町,大字小坂字梅ノ町９番地の５,,07,303,9691784,,,2024-01-15,登記官による閉鎖,,,2015-10-05,1,,,,,,0
343,1380001006156,登記記録の閉鎖等,0,2024-01-17,2024-01-15,株式会社日本地盤コンサルタント,,株式会社,福島県,郡山市,富田町字向舘４２番地の１,,07,203,9638041,,,2024-01-15,登記官による閉鎖,,,2015-10-05,1,,,,,,0
344,1380001029116,登記記録の閉鎖等,0,2024-01-17,2024-01-15,株式会社兼子住宅社,,株式会社,福島県,郡山市,静町４７番１５号,,07,203,9630203,,,2024-01-15,登記官による閉鎖,,,2018-05-22,1,,,,,カネコジュウタクシャ,0
345,1380002011790,登記記録の閉鎖等,0,2024-01-17,2024-01-15,有限会社フォトプラザ橋本,,有限会社,福島県,郡山市,町東１丁目２００番地,,07,203,9638046,,,2024-01-15,登記官による閉鎖,,,2015-10-05,1,,,,,,0
346,1380002019396,登記記録の閉鎖等,0,2024-01-17,2024-01-15,有限会社ＭＢＳ,,有限会社,福島県,白河市,老久保１０８番地２,,07,205,9610831,,,2024-01-15,登記官による閉鎖,,,2015-10-05,1,,,,,,0
347,1380002023068,登記記録の閉鎖等,0,2024-01-17,2024-01-15,有限会社菅野左官工業,,有限会社,福島県,いわき市,小名浜金成字町田５１番地の１,,07,204,9718135,,,2024-01-15,登記官による閉鎖,,,2015-10-05,1,,,,,,0
348,1380003002079,登記記録の閉鎖等,0,2024-01-17,2024-01-15,合同会社日和ホールディングス,,合同会社,福島県,郡山市,久留米６丁目２番地の５,,07,203,9638846,,,2024-01-15,登記官による閉鎖,,,2015-10-05,1,,,,,,0
349,1380005004800,登記記録の閉鎖等,0,2024-01-17,2024-01-15,財団法人新町組,,その他の設立登記法人,福島県,東白川郡棚倉町,大字棚倉字新町７番地２,,07,481,9636131,,,2024-01-15,登記官による閉鎖,,,2015-10-05,1,,,,,,0
350,1380005005410,登記記録の閉鎖等,0,2024-01-17,2024-01-15,財団法人介護福祉医学研究所,,その他の設立登記法人,福島県,須賀川市,塩田字陣場８番地,,07,207,9620711,,,2024-01-15,登記官による閉鎖,,,2015-10-05,1,,,,,,0
351,1380005007844,登記記録の閉鎖等,0,2024-01-17,2024-01-15,財団法人会津民俗館,,その他の設立登記法人,福島県,耶麻郡猪苗代町,大字三ツ和字前田３３番地１,,07,408,9693284,,,2024-01-15,登記官による閉鎖,,,2015-10-05,1,,,,,,0
352,1380005010419,登記記録の閉鎖等,0,2024-01-17,2024-01-15,一般社団法人福島グー・チョキ・パー大学,,その他の設立登記法人,福島県,白河市,新白河３丁目７６番地,,07,205,9610856,,,2024-01-15,登記官による閉鎖,,,2015-10-05,1,,,,,,0
354,1400001004644,登記記録の閉鎖等,0,2024-01-17,2024-01-12,株式会社昆野茶道具店,,株式会社,岩手県,滝沢市,鵜飼細谷地１００番地４,,03,216,0200651,,,2024-01-12,清算の結了等,,,2015-10-05,1,,,,,コンノサドウグテン,0
364,1490002003100,登記記録の閉鎖等,0,2024-01-17,2024-01-15,武内商事有限会社,,有限会社,高知県,高知市,城見町３番２５号,,39,201,7800824,,,2024-01-15,清算の結了等,,,2015-10-05,1,,,,,タケノウチショウジ,0
385,2010005022631,登記記録の閉鎖等,0,2024-01-17,2024-01-12,Ｅａｇｌｅ２一般社団法人,,その他の設立登記法人,東京都,中央区,八丁堀４丁目２番１０号ＡＯＪ税理士法人内,,13,102,1040032,,,2024-01-12,清算の結了等,,,2015-10-05,1,,,,,イーグルツー,0
405,2010803003361,登記記録の閉鎖等,0,2024-01-17,2023-12-15,合同会社ブルーキャメル,,合同会社,東京都,大田区,西糀谷３丁目５番１２号ハーモニーレジデンス羽田ウエスト♯００２５０２,,13,111,1440034,,,2023-12-15,清算の結了等,,,2020-06-09,1,,,,,ブルーキャメル,0
435,2011801039942,登記記録の閉鎖等,0,2024-01-17,2024-01-15,株式会社たかんこ不動産,,株式会社,東京都,足立区,鹿浜５丁目２番８号新進ビル２Ｆ,,13,121,1230864,,,2024-01-15,清算の結了等,,,2021-11-08,1,,,,,タカンコフドウサン,0
445,2013301004278,登記記録の閉鎖等,0,2024-01-17,2024-01-16,小松産業株式会社,,株式会社,東京都,豊島区,東池袋１丁目４８番１０号,,13,116,1700013,,,2024-01-16,登記官による閉鎖,,,2015-10-05,1,,,,,,0
446,2013301013774,登記記録の閉鎖等,0,2024-01-17,2024-01-16,日化塗装工業株式会社,,株式会社,東京都,豊島区,巣鴨４丁目２４番１３号,,13,116,1700002,,,2024-01-16,登記官による閉鎖,,,2015-10-05,1,,,,,,0
447,2013301028855,登記記録の閉鎖等,0,2024-01-17,2024-01-16,株式会社ディーオーエル,,株式会社,東京都,豊島区,池袋２丁目５３番１２号,,13,116,1710014,,,2024-01-16,登記官による閉鎖,,,2015-10-05,1,,,,,,0
448,2013301030019,登記記録の閉鎖等,0,2024-01-17,2024-01-16,株式会社トラスト,,株式会社,東京都,豊島区,東池袋３丁目２０番９－４０２号,,13,116,1700013,,,2024-01-16,登記官による閉鎖,,,2015-10-05,1,,,,,,0
449,2013301030101,登記記録の閉鎖等,0,2024-01-17,2024-01-16,舷志株式会社,,株式会社,東京都,豊島区,池袋１丁目１６番２０号,,13,116,1700014,,,2024-01-16,登記官による閉鎖,,,2015-10-05,1,,,,,,0
450,2013301030489,登記記録の閉鎖等,0,2024-01-17,2024-01-16,株式会社スリーエイト,,株式会社,東京都,豊島区,西池袋１丁目２９番１４号,,13,116,1710021,,,2024-01-16,登記官による閉鎖,,,2015-10-05,1,,,,,,0
451,2013302008237,登記記録の閉鎖等,0,2024-01-17,2024-01-16,有限会社羽生屋,,有限会社,東京都,豊島区,要町１丁目２０番１５号,,13,116,1710043,,,2024-01-16,登記官による閉鎖,,,2015-10-05,1,,,,,,0
452,2013302016289,登記記録の閉鎖等,0,2024-01-17,2024-01-16,有限会社エリアネットサービス,,有限会社,東京都,豊島区,東池袋２丁目５０番１２号,,13,116,1700013,,,2024-01-16,登記官による閉鎖,,,2015-10-05,1,,,,,,0
453,2013305000950,登記記録の閉鎖等,0,2024-01-17,2024-01-16,特定非営利活動法人千日倶楽部,,その他の設立登記法人,東京都,豊島区,西池袋２丁目３０番２０号ＲＪプラザ,,13,116,1710021,,,2024-01-16,登記官による閉鎖,,,2015-10-05,1,,,,,,0
454,2020001138364,登記記録の閉鎖等,0,2024-01-17,2024-01-11,ＩＴＥ　Ｊａｐａｎ株式会社,,株式会社,神奈川県,横浜市中区,住吉町２丁目２２番地松栄関内ビル２階,,14,104,2310013,,,2024-01-11,清算の結了等,,,2020-11-04,1,,,,,アイティーイージャパン,0
461,2020002000028,登記記録の閉鎖等,0,2024-01-17,2024-01-04,有限会社アサヒ教材,,有限会社,神奈川県,横浜市栄区,本郷台３丁目１３番１号,,14,115,2470008,,,2024-01-04,合併による解散等,6020001127702,令和６年１月１日神奈川県横浜市栄区本郷台三丁目１３番１号株式会社浜湘教材（6020001127702）に合併し解散,2015-10-05,1,,,,,アサヒキョウザイ,0
475,2021002045467,登記記録の閉鎖等,0,2024-01-17,2024-01-10,有限会社畑山技建,,有限会社,神奈川県,海老名市,国分南２丁目４１番６号,,14,215,2430405,,,2024-01-10,清算の結了等,,,2015-10-05,1,,,,,ハタヤマギケン,0
480,2021005011433,登記記録の閉鎖等,0,2024-01-17,2024-01-12,一般社団法人ハル法務コンサルティング,,その他の設立登記法人,神奈川県,鎌倉市,由比ガ浜１丁目１０番１号,,14,204,2480014,,,2024-01-12,清算の結了等,,,2018-11-08,1,,,,,ハルホウムコンサルテイング,0
481,2021005011524,登記記録の閉鎖等,0,2024-01-17,2024-01-12,特定非営利活動法人空手道場清風館,,その他の設立登記法人,神奈川県,平塚市,松風町２６番３２号,,14,203,2540812,,,2024-01-12,清算の結了等,,,2019-02-27,1,,,,,カラテドウジョウセイフウカン,0
483,2030001003410,登記記録の閉鎖等,0,2024-01-17,2024-01-04,さいたま管財株式会社,,株式会社,埼玉県,さいたま市見沼区,大和田町１丁目２０９８番地,,11,104,3370053,,,2024-01-04,合併による解散等,8030001015680,令和６年１月１日埼玉県さいたま市見沼区大和田町一丁目２０９８番地ＫＣＣ株式会社（8030001015680）に合併し解散,2015-10-05,1,,,,,サイタマカンザイ,0
486,2030001074419,登記記録の閉鎖等,0,2024-01-17,2024-01-09,株式会社河井工務店,,株式会社,埼玉県,川口市,大字芝４９２９番地の５,,11,203,3330866,,,2024-01-09,清算の結了等,,,2023-09-25,1,,,,,,0
513,2080002009501,登記記録の閉鎖等,0,2024-01-17,2024-01-15,有限会社小羽洗染,,有限会社,静岡県,静岡市清水区,蜂ヶ谷南町２番３０号,,22,103,4240004,,,2024-01-15,清算の結了等,,,2015-10-05,1,,,,,コバセンセン,0
536,2090002008287,登記記録の閉鎖等,0,2024-01-17,2024-01-16,有限会社久保工務店,,有限会社,山梨県,笛吹市,御坂町二之宮１４１３番地,,19,211,4060807,,,2024-01-16,清算の結了等,,,2015-10-05,1,,,,,,0
585,2130003000065,登記記録の閉鎖等,0,2024-01-17,2024-01-04,こぼり株式会社,,株式会社,京都府,京都市左京区,下鴨北野々神町５番地,,26,103,6060846,,,2024-01-04,合併による解散等,5130001017323,令和６年１月１日京都市下京区不明門通正面上る亀町５番地株式会社小堀（5130001017323）に合併し解散,2015-10-05,1,,,,,コボリ,0
589,2140001059086,登記記録の閉鎖等,0,2024-01-17,2024-01-15,サソーグラインドスポーツ株式会社,,株式会社,兵庫県,姫路市,北条梅原町１４０番地,,28,201,6700945,,,2024-01-15,清算の結了等,,,2015-10-05,1,,,,,,0
608,2180301001149,登記記録の閉鎖等,0,2024-01-17,2024-01-15,鈴木産業株式会社,,株式会社,愛知県,岡崎市,下三ツ木町字西ノ宮２８番地,,23,202,4440247,,,2024-01-15,清算の結了等,,,2015-10-05,1,,,,,スズキサンギョウ,0
610,2180301021923,登記記録の閉鎖等,0,2024-01-17,2024-01-15,株式会社菊地電設,,株式会社,愛知県,豊橋市,下地町字境田６３番地,,23,201,4400083,,,2024-01-15,清算の結了等,,,2015-10-05,1,,,,,,0
623,2200002003193,登記記録の閉鎖等,0,2024-01-17,2024-01-16,有限会社東海バッテリー,,有限会社,岐阜県,岐阜市,西荘１丁目３番１６号,,21,201,5008362,,,2024-01-16,清算の結了等,,,2015-10-05,1,,,,,トウカイバッテリー,0
630,2240001033130,登記記録の閉鎖等,0,2024-01-17,2024-01-10,ウィッツ株式会社,,株式会社,広島県,福山市,佐波町８４５番地２,,34,207,7200835,,,2024-01-10,清算の結了等,,,2015-10-05,1,,,,,ウィッツ,0
634,2240002018782,登記記録の閉鎖等,0,2024-01-17,2024-01-10,有限会社木原,,有限会社,広島県,広島市安佐南区,川内２丁目１２番２９号,,34,105,7310102,,,2024-01-10,清算の結了等,,,2015-10-05,1,,,,,キハラ,0
644,2270002004193,登記記録の閉鎖等,0,2024-01-17,2024-01-15,有限会社弥栄建設,,有限会社,鳥取県,鳥取市,青谷町亀尻２８９番地,,31,201,6890522,,,2024-01-15,清算の結了等,,,2023-11-15,1,,,,,ヤサカケンセツ,0
645,2280002002832,登記記録の閉鎖等,0,2024-01-17,2024-01-15,有限会社越野かまぼこ,,有限会社,島根県,松江市,東出雲町揖屋３５３９番地２,,32,201,6990101,,,2024-01-15,清算の結了等,,,2015-10-05,1,,,,,コシノカマボコ,0
646,2290001005991,登記記録の閉鎖等,0,2024-01-17,2024-01-17,株式会社アール・アンド・アール,,株式会社,福岡県,福岡市南区,三宅３丁目１番３０号,,40,134,8111344,,,2024-01-17,登記官による閉鎖,,,2015-10-05,1,,,,,,0
647,2290001025882,登記記録の閉鎖等,0,2024-01-17,2024-01-17,株式会社リコマ九州,,株式会社,福岡県,福岡市博多区,冷泉町８－１７,,40,132,8120039,,,2024-01-17,登記官による閉鎖,,,2015-10-05,1,,,,,,0
648,2290001037820,登記記録の閉鎖等,0,2024-01-17,2024-01-17,アンセント・ワン株式会社,,株式会社,福岡県,福津市,宮司浜４丁目２番１５号１Ｆ,,40,224,8113311,,,2024-01-17,登記官による閉鎖,,,2015-10-05,1,,,,,,0
649,2290001039866,登記記録の閉鎖等,0,2024-01-17,2024-01-17,株式会社アバンティ,,株式会社,福岡県,春日市,伯玄町２丁目４６番地２,,40,218,8160825,,,2024-01-17,登記官による閉鎖,,,2015-10-05,1,,,,,,0
650,2290001051284,登記記録の閉鎖等,0,2024-01-17,2024-01-17,株式会社駅前オーダーハウス,,株式会社,福岡県,久留米市,東櫛原町２８５１番地１,,40,203,8300003,,,2024-01-17,登記官による閉鎖,,,2016-04-27,1,,,,,,0
651,2290001053561,登記記録の閉鎖等,0,2024-01-17,2024-01-17,株式会社サンタナ,,株式会社,福岡県,大川市,大字向島１５８０番地の１,,40,212,8310005,,,2024-01-17,登記官による閉鎖,,,2015-10-05,1,,,,,,0
652,2290001054213,登記記録の閉鎖等,0,2024-01-17,2024-01-17,株式会社江口組,,株式会社,福岡県,大牟田市,旭町３丁目３番地,,40,202,8360807,,,2024-01-17,登記官による閉鎖,,,2018-05-14,1,,,,,エグチグミ,0
653,2290001054725,登記記録の閉鎖等,0,2024-01-17,2024-01-17,田中建設株式会社,,株式会社,福岡県,大川市,大字大野島２２５９番地３,,40,212,8310045,,,2024-01-17,登記官による閉鎖,,,2015-10-05,1,,,,,,0
654,2290001056564,登記記録の閉鎖等,0,2024-01-17,2024-01-17,株式会社ＵＮＩＴＹ,,株式会社,福岡県,福岡市中央区,大名１丁目１２番６６号,,40,133,8100041,,,2024-01-17,登記官による閉鎖,,,2015-10-05,1,,,,,,0
655,2290001056977,登記記録の閉鎖等,0,2024-01-17,2024-01-17,株式会社Ｅ．Ｐ．Ｓ,,株式会社,福岡県,福岡市博多区,金の隈２丁目２０番６１号,,40,132,8120863,,,2024-01-17,登記官による閉鎖,,,2015-10-05,1,,,,,,0
661,2290002008151,登記記録の閉鎖等,0,2024-01-17,2024-01-17,有限会社三和工務店,,有限会社,福岡県,福岡市早良区,内野５丁目１番２６号,,40,137,8111123,,,2024-01-17,登記官による閉鎖,,,2015-10-05,1,,,,,,0
662,2290002017375,登記記録の閉鎖等,0,2024-01-17,2024-01-17,有限会社富士実業,,有限会社,福岡県,福岡市博多区,博多駅東２丁目１５番６号,,40,132,8120013,,,2024-01-17,登記官による閉鎖,,,2015-10-05,1,,,,,,0
663,2290002026657,登記記録の閉鎖等,0,2024-01-17,2024-01-17,ミズタニ有限会社,,有限会社,福岡県,福岡市東区,箱崎１丁目１２番３２号,,40,131,8120053,,,2024-01-17,登記官による閉鎖,,,2015-10-05,1,,,,,,0
664,2290002029841,登記記録の閉鎖等,0,2024-01-17,2024-01-17,有限会社フクナガ,,有限会社,福岡県,福岡市博多区,春町１丁目２番２８号,,40,132,8120872,,,2024-01-17,登記官による閉鎖,,,2015-10-05,1,,,,,,0
665,2290002030881,登記記録の閉鎖等,0,2024-01-17,2024-01-17,有限会社キャプチュード,,有限会社,福岡県,福岡市博多区,博多駅南４丁目１８番２号,,40,132,8120016,,,2024-01-17,登記官による閉鎖,,,2015-10-05,1,,,,,,0
666,2290002035641,登記記録の閉鎖等,0,2024-01-17,2024-01-17,有限会社キーアイミール,,有限会社,福岡県,糟屋郡新宮町,緑ケ浜２丁目２６番９号,,40,345,8110119,,,2024-01-17,登記官による閉鎖,,,2015-10-05,1,,,,,,0
667,2290002039304,登記記録の閉鎖等,0,2024-01-17,2024-01-17,有限会社秀栄ゼミ,,有限会社,福岡県,大野城市,雑餉隈町４丁目２番１６号,,40,219,8160923,,,2024-01-17,登記官による閉鎖,,,2015-10-05,1,,,,,,0
668,2290003003226,登記記録の閉鎖等,0,2024-01-17,2024-01-17,合資会社新村商店,,合資会社,福岡県,大牟田市,大字新町１９番地の１,,40,202,8370923,,,2024-01-17,登記官による閉鎖,,,2015-10-05,1,,,,,,0
669,2290003003515,登記記録の閉鎖等,0,2024-01-17,2024-01-17,西日本自動車工業合同会社,,合同会社,福岡県,福岡市博多区,博多駅東１丁目１７番２１号,,40,132,8120013,,,2024-01-17,登記官による閉鎖,,,2015-10-05,1,,,,,,0
670,2290005001236,登記記録の閉鎖等,0,2024-01-17,2024-01-17,財団法人医用電子研究所,,その他の設立登記法人,福岡県,福岡市博多区,博多駅中央街８番３６号博多ビル,,40,132,8120012,,,2024-01-17,登記官による閉鎖,,,2015-10-05,1,,,,,,0
671,2290005004701,登記記録の閉鎖等,0,2024-01-17,2024-01-17,特定非営利活動法人食卓のえん,,その他の設立登記法人,福岡県,福岡市中央区,平尾５丁目１９番１号,,40,133,8100014,,,2024-01-17,登記官による閉鎖,,,2015-10-05,1,,,,,,0
672,2290005007794,登記記録の閉鎖等,0,2024-01-17,2024-01-17,筑豊自動車車体整備協同組合,,その他の設立登記法人,福岡県,飯塚市,鯰田１７１７番地,,40,205,8200001,,,2024-01-17,登記官による閉鎖,,,2015-10-05,1,,,,,,0
673,2290005010963,登記記録の閉鎖等,0,2024-01-17,2024-01-17,ＮＰＯ法人九州有明バスケットボール協会,,その他の設立登記法人,福岡県,久留米市,山川安居野３丁目１５番９－１２号,,40,203,8390812,,,2024-01-17,登記官による閉鎖,,,2015-10-05,1,,,,,,0
674,2290005014213,登記記録の閉鎖等,0,2024-01-17,2024-01-17,農事組合法人日本山人参恵み農園,,その他の設立登記法人,福岡県,小郡市,松崎６０３番地,,40,216,8380122,,,2024-01-17,登記官による閉鎖,,,2015-10-05,1,,,,,,0
675,2290801005704,登記記録の閉鎖等,0,2024-01-17,2024-01-17,株式会社丸吉材木店,,株式会社,福岡県,北九州市門司区,北川町２番１号,,40,101,8000004,,,2024-01-17,登記官による閉鎖,,,2015-10-05,1,,,,,,0
676,2290801012031,登記記録の閉鎖等,0,2024-01-17,2024-01-17,北九企業株式會社,,株式会社,福岡県,北九州市若松区,浜町２丁目１２番２４号,,40,103,8080024,,,2024-01-17,登記官による閉鎖,,,2015-10-05,1,,,,,キタキュウキギョウ,0
679,2290801024968,登記記録の閉鎖等,0,2024-01-17,2024-01-17,株式会社山村鉄工所,,株式会社,福岡県,北九州市若松区,大字藤木４０７番地,,40,103,8080065,,,2024-01-17,登記官による閉鎖,,,2018-10-03,1,,,,,ヤマムラテッコウショ,0
680,2290802002337,登記記録の閉鎖等,0,2024-01-17,2024-01-17,五興工業有限会社,,有限会社,福岡県,北九州市小倉北区,中井３丁目２１番１８－１０５号,,40,106,8030836,,,2024-01-17,登記官による閉鎖,,,2015-10-05,1,,,,,,0
681,2290802009019,登記記録の閉鎖等,0,2024-01-17,2024-01-17,有限会社安藤米穀店,,有限会社,福岡県,北九州市門司区,黄金町９番２８号,,40,101,8000027,,,2024-01-17,登記官による閉鎖,,,2015-10-05,1,,,,,,0
682,2290803000629,登記記録の閉鎖等,0,2024-01-17,2024-01-17,合資会社エムアンドイー,,合資会社,福岡県,北九州市門司区,東本町１丁目７番１０号,,40,101,8010851,,,2024-01-17,登記官による閉鎖,,,2015-10-05,1,,,,,,0
683,2290805006062,登記記録の閉鎖等,0,2024-01-17,2024-01-17,特定非営利活動法人親子三代住める街づくり委員会,,その他の設立登記法人,福岡県,宮若市,芹田８１４番地１,,40,226,8230013,,,2024-01-17,登記官による閉鎖,,,2015-10-05,1,,,,,,0
699,2340002025868,登記記録の閉鎖等,0,2024-01-17,2024-01-16,有限会社竹内畜産,,有限会社,鹿児島県,鹿屋市,吾平町上名１８７５番地,,46,203,8931101,,,2024-01-16,清算の結了等,,,2015-10-05,1,,,,,タケウチチクサン,0
706,2370102001980,登記記録の閉鎖等,0,2024-01-17,2024-01-12,有限会社ニコニココーポレーション,,有限会社,宮城県,角田市,藤田字源内３４番地,,04,208,9811501,,,2024-01-12,清算の結了等,,,2015-10-05,1,,,,,ニコニココーポレーション,0
708,2380001020742,登記記録の閉鎖等,0,2024-01-17,2024-01-15,株式会社眞和リペアハウス,,株式会社,福島県,郡山市,堤２丁目２０番地,,07,203,9630205,,,2024-01-15,登記官による閉鎖,,,2015-10-05,1,,,,,,0
709,2380001021393,登記記録の閉鎖等,0,2024-01-17,2024-01-15,株式会社光南不動産,,株式会社,福島県,西白河郡矢吹町,弥栄４０番地３,,07,466,9690261,,,2024-01-15,登記官による閉鎖,,,2015-10-05,1,,,,,,0
710,2380002003011,登記記録の閉鎖等,0,2024-01-17,2024-01-15,有限会社福友電通,,有限会社,福島県,福島市,北五老内町３番２１号,,07,201,9608131,,,2024-01-15,登記官による閉鎖,,,2015-10-05,1,,,,,,0
711,2380002008869,登記記録の閉鎖等,0,2024-01-17,2024-01-15,有限会社協同塗装,,有限会社,福島県,郡山市,開成６丁目１１４番地,,07,203,9638851,,,2024-01-15,登記官による閉鎖,,,2015-10-05,1,,,,,,0
712,2380002025534,登記記録の閉鎖等,0,2024-01-17,2024-01-15,有限会社磐陽総合保険サービス,,有限会社,福島県,いわき市,鹿島町久保１丁目３番地の４,,07,204,9718144,,,2024-01-15,登記官による閉鎖,,,2015-10-05,1,,,,,,0
713,2380002035351,登記記録の閉鎖等,0,2024-01-17,2024-01-15,有限会社会津野,,有限会社,福島県,南会津郡下郷町,大字湯野上字館本乙１３０２番地,,07,362,9695206,,,2024-01-15,登記官による閉鎖,,,2015-10-05,1,,,,,,0
714,2380003001864,登記記録の閉鎖等,0,2024-01-17,2024-01-15,合資会社ミヤマ商事,,合資会社,福島県,河沼郡会津坂下町,大字坂本字糠塚乙１１４３番地,00084290,07,421,9696586,,,2024-01-15,登記官による閉鎖,,,2015-10-05,1,,,,,,0
715,2380005007851,登記記録の閉鎖等,0,2024-01-17,2024-01-15,財団法人小野弥太郎育英会,,その他の設立登記法人,福島県,耶麻郡猪苗代町,字城南１００番地猪苗代町役場内,,07,408,9693123,,,2024-01-15,登記官による閉鎖,,,2015-10-05,1,,,,,,0
716,2380005010351,登記記録の閉鎖等,0,2024-01-17,2024-01-15,一般社団法人放射線測定協会,,その他の設立登記法人,福島県,郡山市,安積２丁目２８９番地,,07,203,9630107,,,2024-01-15,登記官による閉鎖,,,2015-10-05,1,,,,,,0
724,2420002010457,登記記録の閉鎖等,0,2024-01-17,2024-01-11,有限会社Ｏｎｅ　Ｔｏ　Ｏｎｅ英語学校,,有限会社,青森県,八戸市,大字河原木字小田上２６番地１４,,02,203,0391161,,,2024-01-11,清算の結了等,,,2015-10-05,1,,,,,ワンツーワンエイゴガッコウ,0
734,2450005004008,登記記録の閉鎖等,0,2024-01-17,2024-01-12,農事組合法人Ｉ＆Ｕ,,その他の設立登記法人,北海道,深川市,音江町１丁目１２番２６号,,01,228,0741273,,,2024-01-12,清算の結了等,,,2015-10-05,1,,,,,,0
736,2470001015270,登記記録の閉鎖等,0,2024-01-17,2024-01-15,株式会社ＭＳ商事,,株式会社,香川県,高松市,中山町７９３番地１,,37,201,7618004,,,2024-01-15,清算の結了等,,,2015-10-05,1,,,,,エムエスショウジ,0
779,3010902014580,登記記録の閉鎖等,0,2024-01-17,2024-01-09,有限会社丸山工業,,有限会社,東京都,世田谷区,下馬４丁目４番１１号,,13,112,1540002,,,2024-01-09,清算の結了等,,,2015-10-05,1,,,,,,0
781,3011001026963,登記記録の閉鎖等,0,2024-01-17,2024-01-16,株式会社アピール,,株式会社,東京都,豊島区,南池袋３丁目１５－１１ナイスフォーラム南池袋８階,,13,116,1710022,,,2024-01-16,登記官による閉鎖,,,2015-10-05,1,,,,,アピール,0
783,3011001071431,登記記録の閉鎖等,0,2024-01-17,2024-01-09,株式会社パルティボーン,,株式会社,福岡県,春日市,須玖南５丁目１２番地東峰マンション春日６０１号,,40,218,8160863,,,2024-01-09,清算の結了等,,,2015-10-05,1,,,,,,0
796,3011202000107,登記記録の閉鎖等,0,2024-01-17,2024-01-12,有限会社青木南陽堂,,有限会社,東京都,中野区,南台４丁目３４番１５号,,13,114,1640014,,,2024-01-12,清算の結了等,,,2015-10-05,1,,,,,アオキナンヨウドウ,0
805,3011802002980,登記記録の閉鎖等,0,2024-01-17,2024-01-12,有限会社小山製作所,00057211,有限会社,東京都,葛飾区,高砂３丁目１５番９号,,13,122,1250054,,,2024-01-12,清算の結了等,,,2015-10-05,1,,,,,コヤマセイサクショ,0
808,3013301030711,登記記録の閉鎖等,0,2024-01-17,2024-01-16,株式会社ダイキ,,株式会社,東京都,豊島区,東池袋１丁目２５番３号第２はやかわビル９階,,13,116,1700013,,,2024-01-16,登記官による閉鎖,,,2015-10-05,1,,,,,,0
809,3013302000597,登記記録の閉鎖等,0,2024-01-17,2024-01-16,有限会社朝賀工務店,,有限会社,東京都,豊島区,池袋本町２丁目３番１６号,,13,116,1700011,,,2024-01-16,登記官による閉鎖,,,2015-10-05,1,,,,,アサカコウムテン,0
810,3013302005729,登記記録の閉鎖等,0,2024-01-17,2024-01-16,有限会社大徳食品,,有限会社,東京都,豊島区,南池袋２丁目４６番９号,,13,116,1710022,,,2024-01-16,登記官による閉鎖,,,2015-10-05,1,,,,,,0
811,3013302011776,登記記録の閉鎖等,0,2024-01-17,2024-01-16,有限会社ナサクス,,有限会社,東京都,豊島区,東池袋２丁目６３番１７号,,13,116,1700013,,,2024-01-16,登記官による閉鎖,,,2015-10-05,1,,,,,,0
812,3013302020372,登記記録の閉鎖等,0,2024-01-17,2024-01-16,有限会社ポストアンドビームアソシエイツ,,有限会社,東京都,豊島区,西池袋５丁目３番１号ＳＡＩＫＩビル３Ｆ,,13,116,1710021,,,2024-01-16,登記官による閉鎖,,,2015-10-05,1,,,,,,0
813,3013302021420,登記記録の閉鎖等,0,2024-01-17,2024-01-16,有限会社鼎工業,,有限会社,東京都,豊島区,東池袋３丁目１番４－９４０号,,13,116,1700013,,,2024-01-16,登記官による閉鎖,,,2015-10-05,1,,,,,,0
815,3020001062976,登記記録の閉鎖等,0,2024-01-17,2024-01-11,エス・エヌライフ株式会社,,株式会社,神奈川県,横浜市磯子区,滝頭１丁目９番４８号,,14,107,2350012,,,2024-01-11,清算の結了等,,,2015-10-05,1,,,,,エスエヌライフ,0
818,3020001147488,登記記録の閉鎖等,0,2024-01-17,2024-01-11,株式会社フリティ,,株式会社,神奈川県,川崎市多摩区,宿河原７丁目１番１０－１０６号,,14,135,2140021,,,2024-01-11,清算の結了等,,,2022-08-05,1,,,,,フリティ,0
822,3020002079565,登記記録の閉鎖等,0,2024-01-17,2024-01-11,有限会社ワン・オー・ワンデザイン事務所,,有限会社,神奈川県,横浜市港南区,芹が谷２丁目１３番２１－１０５号,,14,111,2330006,,,2024-01-11,清算の結了等,,,2015-10-05,1,,,,,ワンオーワンデザインジムショ,0
824,3020003017086,登記記録の閉鎖等,0,2024-01-17,2024-01-11,合同会社Ｇｉｖｅｎ,,合同会社,神奈川県,川崎市多摩区,登戸２７５９番地アルベール向ケ丘５０３,,14,135,2140014,,,2024-01-11,清算の結了等,,,2019-12-17,1,,,,,ギブン,0
826,3021001014190,登記記録の閉鎖等,0,2024-01-17,2024-01-15,株式会社守屋,,株式会社,神奈川県,相模原市中央区,清新３丁目７番７号,,14,152,2520216,,,2024-01-15,清算の結了等,,,2015-10-05,1,,,,,モリヤ,0
835,3021003001815,登記記録の閉鎖等,0,2024-01-17,2024-01-15,合同会社フェイスフル・ファクトリー,,合同会社,神奈川県,愛甲郡愛川町,中津２１１９番地の１２,,14,401,2430303,,,2024-01-15,清算の結了等,,,2015-10-05,1,,,,,フェイスフルファクトリー,0
846,3040001066851,登記記録の閉鎖等,0,2024-01-17,2023-12-27,山洋建設工業株式会社,,株式会社,千葉県,柏市,大津ケ丘１丁目３６番１６号,,12,217,2770921,,,2023-12-27,清算の結了等,,,2015-10-05,1,,,,,サンヨウケンセツコウギョウ,0
883,3080002007272,登記記録の閉鎖等,0,2024-01-17,2024-01-16,有限会社駒井労務行政事務所,,有限会社,静岡県,静岡市駿河区,丸子６６９６番地,,22,102,4210103,,,2024-01-16,清算の結了等,,,2015-10-05,1,,,,,コマイロウムギョウセイジムショ,0
885,3080401010827,登記記録の閉鎖等,0,2024-01-17,2023-12-20,大石建設株式会社,,株式会社,静岡県,浜松市天竜区,佐久間町大井２２５９番地,,22,140,4313902,,,2023-12-20,清算の結了等,,,2015-10-05,1,,,,,オオイシケンセツ,0
914,3120001147180,登記記録の閉鎖等,0,2024-01-17,2024-01-09,株式会社東田ダクト工業,,株式会社,大阪府,交野市,星田８丁目１３番１号,,27,230,5760016,,,2024-01-09,清算の結了等,,,2015-10-05,1,,,,,,0
943,3130002023487,登記記録の閉鎖等,0,2024-01-17,2023-12-21,リーガルパートナー有限会社,,有限会社,京都府,京都市左京区,下鴨北園町７３番地９,,26,103,6060831,,,2023-12-21,清算の結了等,,,2015-10-05,1,,,,,リーガルパートナー,0
944,3130002026721,登記記録の閉鎖等,0,2024-01-17,2024-01-11,有限会社ノンアレコムギコ,,有限会社,京都府,宇治市,伊勢田町名木１丁目１番地の２２９,,26,204,6110044,,,2024-01-11,清算の結了等,,,2015-10-05,1,,,,,ノンアレコムギコ,0
958,3150001026745,登記記録の閉鎖等,0,2024-01-17,2024-01-16,北陽燃料株式会社,,株式会社,奈良県,生駒市,北田原町２０４６番地,,29,209,6300142,,,2024-01-16,清算の結了等,,,2023-10-03,1,,,,,ホクヨウネンリョウガシヤ,0
974,3190001019919,登記記録の閉鎖等,0,2024-01-17,2024-01-15,ＭＧソリューション株式会社,,株式会社,三重県,三重郡菰野町,大字菰野２５６０番地１,,24,341,5101233,,,2024-01-15,清算の結了等,,,2015-10-05,1,,,,,エムジーソリューション,0
980,3210001012838,登記記録の閉鎖等,0,2024-01-17,2024-01-15,株式会社ケィテオプチカ,,株式会社,福井県,鯖江市,下河端町２３１２番地,,18,207,9160038,,,2024-01-15,清算の結了等,,,2015-10-05,1,,,,,ケィテオプチカ,0
986,3250001019020,登記記録の閉鎖等,0,2024-01-17,2024-01-09,Ｂｏｙｓ，ｂｅ　ａｍｂｉｔｉｏｕｓ株式会社,,株式会社,山口県,周南市,青山町５番１９号,,35,215,7450842,,,2024-01-09,清算の結了等,,,2021-07-27,1,,,,,ボーイズビーアンビシャス,0
990,3290001008317,登記記録の閉鎖等,0,2024-01-17,2024-01-17,株式会社センチュリーメンテナンス,,株式会社,福岡県,福岡市中央区,赤坂１丁目１４番２２号,,40,133,8100042,,,2024-01-17,登記官による閉鎖,,,2015-10-05,1,,,,,センチュリーメンテナンス,0
991,3290001022193,登記記録の閉鎖等,0,2024-01-17,2024-01-17,株式会社春日電工,,株式会社,福岡県,春日市,天神山４丁目１２９番地,,40,218,8160855,,,2024-01-17,登記官による閉鎖,,,2015-10-05,1,,,,,,0
992,3290001026756,登記記録の閉鎖等,0,2024-01-17,2024-01-17,株式会社若返りの泉,,株式会社,福岡県,福岡市中央区,六本松２丁目３－２１ルポ六本松２０１,,40,133,8100044,,,2024-01-17,登記官による閉鎖,,,2015-10-05,1,,,,,,0
994,3290001048115,登記記録の閉鎖等,0,2024-01-17,2024-01-17,株式会社ＳＫＹ,,株式会社,福岡県,福岡市中央区,天神２丁目７番１４号,,40,133,8100001,,,2024-01-17,登記官による閉鎖,,,2015-10-05,1,,,,,,0
995,3290001054212,登記記録の閉鎖等,0,2024-01-17,2024-01-17,福南開発株式会社,,株式会社,福岡県,大牟田市,旭町３丁目３番地３,,40,202,8360807,,,2024-01-17,登記官による閉鎖,,,2018-05-14,1,,,,,フクナンカイハツ,0
1001,3290001059062,登記記録の閉鎖等,0,2024-01-17,2024-01-17,エネックス株式会社,,株式会社,福岡県,福岡市博多区,博多駅南２丁目１７番１４号－３０７,,40,132,8120016,,,2024-01-17,登記官による閉鎖,,,2015-10-05,1,,,,,,0
1004,3290002003531,登記記録の閉鎖等,0,2024-01-17,2024-01-17,有限会社古澤板金工業所,,有限会社,福岡県,福岡市南区,野多目２丁目１５番２号,,40,134,8111347,,,2024-01-17,登記官による閉鎖,,,2015-10-05,1,,,,,,0
1005,3290002013679,登記記録の閉鎖等,0,2024-01-17,2024-01-17,有限会社和茶,,有限会社,福岡県,福岡市中央区,高砂１丁目２３番１７号,,40,133,8100011,,,2024-01-17,登記官による閉鎖,,,2015-10-05,1,,,,,,0
1008,3290002021855,登記記録の閉鎖等,0,2024-01-17,2023-12-20,あおば地域医療研究所有限会社,,有限会社,福岡県,飯塚市,大分１２８５－８３,,40,205,8200712,,,2023-12-20,清算の結了等,,,2015-10-05,1,,,,,,0
1009,3290002023001,登記記録の閉鎖等,0,2024-01-17,2024-01-17,有限会社ライフテックサービス,,有限会社,福岡県,福岡市城南区,鳥飼５丁目１３番１１号,,40,136,8140103,,,2024-01-17,登記官による閉鎖,,,2015-10-05,1,,,,,,0
1010,3290002025939,登記記録の閉鎖等,0,2024-01-17,2024-01-17,有限会社ロマンサクセス,,有限会社,福岡県,福岡市中央区,大名１丁目８番３２－１０１号,,40,133,8100041,,,2024-01-17,登記官による閉鎖,,,2015-10-05,1,,,,,,0
1011,3290002040756,登記記録の閉鎖等,0,2024-01-17,2024-01-17,有限会社高栄道路,,有限会社,福岡県,春日市,春日９丁目１１７番地,,40,218,8160814,,,2024-01-17,登記官による閉鎖,,,2015-10-05,1,,,,,,0
1012,3290002056793,登記記録の閉鎖等,0,2024-01-17,2024-01-17,有限会社中川保険事務所,,有限会社,福岡県,うきは市,吉井町９８３番地１０,,40,225,8391321,,,2024-01-17,登記官による閉鎖,,,2015-10-05,1,,,,,,0
1013,3290003001154,登記記録の閉鎖等,0,2024-01-17,2024-01-17,合同会社ＥＳＣ,,合同会社,福岡県,福岡市早良区,次郎丸４丁目１５番１６号,,40,137,8140165,,,2024-01-17,登記官による閉鎖,,,2015-10-05,1,,,,,,0
1014,3290003001518,登記記録の閉鎖等,0,2024-01-17,2024-01-17,合同会社プレミアムグループ,,合同会社,福岡県,福岡市中央区,渡辺通４丁目５番１号,,40,133,8100004,,,2024-01-17,登記官による閉鎖,,,2015-10-05,1,,,,,,0
1017,3290005003280,登記記録の閉鎖等,0,2024-01-17,2024-01-17,特定非営利活動法人オーガニック・アグロセラピーソサエティ,,その他の設立登記法人,福岡県,福岡市博多区,麦野１丁目２２番５号,,40,132,8120882,,,2024-01-17,登記官による閉鎖,,,2015-10-05,1,,,,,,0
1018,3290005012959,登記記録の閉鎖等,0,2024-01-17,2024-01-17,特定非営利活動法人Ｄｒｅａｍ　Ｆａｃｔｏｒｙ　Ｊａｐａｎ,,その他の設立登記法人,福岡県,春日市,春日原北町４丁目５０番１１号高木ビル３Ｆ,,40,218,8160802,,,2024-01-17,登記官による閉鎖,,,2015-10-05,1,,,,,,0
1019,3290801000679,登記記録の閉鎖等,0,2024-01-17,2024-01-17,株式会社北九州スポーツセンター,,株式会社,福岡県,北九州市小倉北区,鋳物師町３番１号,,40,106,8030821,,,2024-01-17,登記官による閉鎖,,,2015-10-05,1,,,,,キタキュウシュウスポーツセンター,0
1020,3290801007294,登記記録の閉鎖等,0,2024-01-17,2024-01-17,株式会社パルコーポレーション,,株式会社,福岡県,北九州市小倉南区,山手１丁目１３番１号,,40,107,8020982,,,2024-01-17,登記官による閉鎖,,,2015-10-05,1,,,,,,0
1021,3290801009679,登記記録の閉鎖等,0,2024-01-17,2024-01-17,株式会社エレクトロニクス東亜,,株式会社,福岡県,北九州市八幡西区,金剛１丁目１０番２２号,,40,109,8071263,,,2024-01-17,登記官による閉鎖,,,2015-10-05,1,,,,,,0
1022,3290801010389,登記記録の閉鎖等,0,2024-01-17,2024-01-17,中山産業株式会社,,株式会社,福岡県,北九州市八幡西区,陣山３丁目２番４号,,40,109,8060012,,,2024-01-17,登記官による閉鎖,,,2015-10-05,1,,,,,,0
1023,3290802003466,登記記録の閉鎖等,0,2024-01-17,2024-01-17,有限会社鮮,,有限会社,福岡県,北九州市小倉南区,徳吉南３丁目９番１号,,40,107,8030279,,,2024-01-17,登記官による閉鎖,,,2015-10-05,1,,,,,,0
1024,3290802005256,登記記録の閉鎖等,0,2024-01-17,2024-01-17,有限会社彦屋,,有限会社,福岡県,北九州市小倉北区,青葉２丁目５番５号,,40,106,8030822,,,2024-01-17,登記官による閉鎖,,,2015-10-05,1,,,,,,0
1025,3290802009364,登記記録の閉鎖等,0,2024-01-17,2024-01-17,有限会社国際電気商会,,有限会社,福岡県,北九州市門司区,下二十町２番１０－１０３号,,40,101,8000028,,,2024-01-17,登記官による閉鎖,,,2015-10-05,1,,,,,,0
1026,3290802011469,登記記録の閉鎖等,0,2024-01-17,2024-01-17,有限会社広心,,有限会社,福岡県,北九州市門司区,奥田３丁目３番３６号,,40,101,8000011,,,2024-01-17,登記官による閉鎖,,,2015-10-05,1,,,,,,0
1027,3290802019330,登記記録の閉鎖等,0,2024-01-17,2024-01-17,有限会社山手産業,,有限会社,福岡県,北九州市若松区,今光２丁目１１番２４号,,40,103,8080071,,,2024-01-17,登記官による閉鎖,,,2015-10-05,1,,,,,,0
1036,3340001009648,登記記録の閉鎖等,0,2024-01-17,2024-01-11,嘉例川観光株式会社,,株式会社,鹿児島県,霧島市,隼人町嘉例川４４７１番地２,,46,218,8995113,,,2024-01-11,合併による解散等,8010001095873,令和６年１月１日東京都千代田区神田北乗物町１６番地マイクロカット販売株式会社（8010001095873）に合併し解散,2015-10-05,1,,,,,カレイガワカンコウ,0
1039,3350002000695,登記記録の閉鎖等,0,2024-01-17,2024-01-10,有限会社エフ・ユー技術,,有限会社,宮崎県,宮崎市,大字赤江１４８５番地４８,,45,201,8800912,,,2024-01-10,清算の結了等,,,2015-10-05,1,,,,,エフユーギジュツ,0
1047,3380001019610,登記記録の閉鎖等,0,2024-01-17,2024-01-15,株式会社ＲＫＹ,,株式会社,福島県,郡山市,富久山町久保田字石鼻９６番地の１０,,07,203,9638071,,,2024-01-15,登記官による閉鎖,,,2015-10-05,1,,,,,,0
1048,3380001021772,登記記録の閉鎖等,0,2024-01-17,2024-01-15,株式会社ラックスコーポレーション,,株式会社,福島県,福島市,伏拝字台田２番地の３,,07,201,9608154,,,2024-01-15,登記官による閉鎖,,,2015-10-05,1,,,,,,0
1049,3380002018289,登記記録の閉鎖等,0,2024-01-17,2024-01-15,有限会社はくや,,有限会社,福島県,白河市,向新蔵７８番地,,07,205,9610925,,,2024-01-15,登記官による閉鎖,,,2015-10-05,1,,,,,,0
1051,3380005007859,登記記録の閉鎖等,0,2024-01-17,2024-01-15,財団法人磐南会,,その他の設立登記法人,福島県,会津若松市,西栄町８番２１号,,07,202,9650877,,,2024-01-15,登記官による閉鎖,,,2015-10-05,1,,,,,,0
1053,3410001011027,登記記録の閉鎖等,0,2024-01-17,2024-01-12,三浦重工業株式会社,,株式会社,秋田県,潟上市,天王字追分西３２番地２７,,05,211,0100101,,,2024-01-12,清算の結了等,,,2015-11-13,1,,,,,ミウラジュウコウギョウ,0
1062,3430001089680,登記記録の閉鎖等,0,2024-01-17,2024-01-05,株式会社Ｆ９,,株式会社,北海道,札幌市中央区,南二条西２５丁目１番２号,,01,101,0640802,,,2024-01-05,合併による解散等,3430001027392,令和６年１月１日札幌市中央区南二条西二十五丁目１番２号株式会社ファクター・ナイン（3430001027392）に合併し解散,2023-08-08,1,,,,,エフキュー,0
1070,4010001023219,登記記録の閉鎖等,0,2024-01-17,2024-01-15,株式会社電総,,株式会社,東京都,目黒区,大岡山１丁目８番２０号,,13,110,1520033,,,2024-01-15,清算の結了等,,,2015-10-05,1,,,,,デンソウ,0
1071,4010001132028,登記記録の閉鎖等,0,2024-01-17,2024-01-16,株式会社花祭,,株式会社,東京都,豊島区,池袋２丁目８番２号ＯＳビルＢ１階,,13,116,1710014,,,2024-01-16,登記官による閉鎖,,,2015-10-05,1,,,,,,0
1097,4010501023222,登記記録の閉鎖等,0,2024-01-17,2024-01-15,株式会社ケアンズ,,株式会社,東京都,台東区,柳橋２丁目５番３号松本ビル１Ｆ,,13,106,1110052,,,2024-01-15,清算の結了等,,,2015-10-05,1,,,,,ケアンズ,0
1123,4011101082815,登記記録の閉鎖等,0,2024-01-17,2024-01-05,株式会社ダイナック,,株式会社,東京都,港区,台場２丁目３番３号,,13,103,1350091,,,2024-01-05,合併による解散等,7011101012050,令和６年１月１日東京都港区台場二丁目３番３号株式会社ダイナックホールディングス（7011101012050）に合併し解散,2018-01-15,1,,,,,ダイナック,0
1124,4011101085982,登記記録の閉鎖等,0,2024-01-17,2024-01-05,株式会社ダイナックパートナーズ,,株式会社,東京都,港区,台場２丁目３番３号,,13,103,1350091,,,2024-01-05,合併による解散等,7011101012050,令和６年１月１日東京都港区台場二丁目３番３号株式会社ダイナックホールディングス（7011101012050）に合併し解散,2018-11-13,1,,,,,ダイナックパートナーズ,0
1139,4011701014341,登記記録の閉鎖等,0,2024-01-17,2024-01-04,株式会社エスプラウド,,株式会社,東京都,江戸川区,平井４丁目９番１７号,,13,123,1320035,,,2024-01-04,清算の結了等,,,2015-10-05,1,,,,,エスプラウド,0
1141,4011801011718,登記記録の閉鎖等,0,2024-01-17,2024-01-12,株式会社プレンティ,,株式会社,東京都,足立区,千住龍田町４番２４号,,13,121,1200042,,,2024-01-12,清算の結了等,,,2015-10-05,1,,,,,,0
1149,4013301031808,登記記録の閉鎖等,0,2024-01-17,2024-01-16,株式会社アミューズコーポレーション,,株式会社,東京都,豊島区,上池袋３丁目１１番６号ＰＡＴＩＮＡ池袋２１０号室,,13,116,1700012,,,2024-01-16,登記官による閉鎖,,,2015-10-05,1,,,,,,0
1150,4013301032558,登記記録の閉鎖等,0,2024-01-17,2024-01-16,株式会社ブライト,,株式会社,東京都,豊島区,南大塚３丁目３２番７号,,13,116,1700005,,,2024-01-16,登記官による閉鎖,,,2015-10-05,1,,,,,,0
1152,4013302009786,登記記録の閉鎖等,0,2024-01-17,2024-01-16,有限会社宮地,,有限会社,東京都,豊島区,巣鴨２丁目３番１０号,,13,116,1700002,,,2024-01-16,登記官による閉鎖,,,2015-10-05,1,,,,,,0
1153,4013302009877,登記記録の閉鎖等,0,2024-01-17,2024-01-16,有限会社睦商事,,有限会社,東京都,豊島区,駒込２丁目１４番１２号,,13,116,1700003,,,2024-01-16,登記官による閉鎖,,,2015-10-05,1,,,,,,0
1154,4013302010736,登記記録の閉鎖等,0,2024-01-17,2024-01-16,ラブリィー・ホーム有限会社,,有限会社,東京都,豊島区,高松２丁目８番１９号,,13,116,1710042,,,2024-01-16,登記官による閉鎖,,,2015-10-05,1,,,,,,0
1155,4013302019835,登記記録の閉鎖等,0,2024-01-17,2024-01-16,有限会社播戸,,有限会社,東京都,豊島区,駒込１丁目２４番８号,,13,116,1700003,,,2024-01-16,登記官による閉鎖,,,2015-10-05,1,,,,,,0
1157,4013305000668,登記記録の閉鎖等,0,2024-01-17,2024-01-16,特定非営利活動法人あいあい,,その他の設立登記法人,東京都,豊島区,巣鴨２丁目１６番４－７０３号,,13,116,1700002,,,2024-01-16,登記官による閉鎖,,,2015-10-05,1,,,,,,0
1159,4020001027986,登記記録の閉鎖等,0,2024-01-17,2024-01-04,株式会社ＳＫＧロジスティック,,株式会社,神奈川県,横浜市中区,本牧十二天３番１０号,,14,104,2310803,,,2024-01-04,合併による解散等,9020001028492,令和６年１月１日神奈川県横浜市中区本牧十二天３番１０号株式会社ＳＫＧトランスポート（9020001028492）に合併し解散,2015-10-05,1,,,,,エスケージーロジスティック,0
1164,4020001141597,登記記録の閉鎖等,0,2024-01-17,2024-01-11,田中ゴルフ企画株式会社,,株式会社,神奈川県,横浜市港北区,高田東４丁目２２番４０号,,14,109,2230065,,,2024-01-11,清算の結了等,,,2021-06-04,1,,,,,タナカゴルフキカク,0
1181,4021002055984,登記記録の閉鎖等,0,2024-01-17,2024-01-15,有限会社コネクティングロッド,,有限会社,神奈川県,足柄下郡湯河原町,吉浜１８４８番地の２０,,14,384,2590312,,,2024-01-15,清算の結了等,,,2015-10-05,1,,,,,コネクティングロッド,0
1191,4030001125772,登記記録の閉鎖等,0,2024-01-17,2024-01-09,株式会社ライトステップス,,株式会社,埼玉県,志木市,本町５丁目４番４１号,,11,228,3530004,,,2024-01-09,清算の結了等,,,2018-05-21,1,,,,,ライトステップス,0
1193,4030002023463,登記記録の閉鎖等,0,2024-01-17,2024-01-16,有限会社ステップ,,有限会社,東京都,豊島区,西巣鴨３丁目２４番７号ライオンズマンション１Ｆ,,13,116,1700001,,,2024-01-16,登記官による閉鎖,,,2015-10-05,1,,,,,,0
1196,4030003013810,登記記録の閉鎖等,0,2024-01-17,2024-01-11,合同会社桜建材,,合同会社,埼玉県,さいたま市岩槻区,並木１丁目２番１３号２０１,,11,110,3390068,,,2024-01-11,清算の結了等,,,2019-07-12,1,,,,,サクラケンザイ,0
1199,4040001066264,登記記録の閉鎖等,0,2024-01-17,2024-01-04,株式会社福士不動産綜合事務所,,株式会社,千葉県,柏市,松ケ崎７４８番地２,,12,217,2770835,,,2024-01-04,合併による解散等,5040001066676,令和６年１月１日千葉県柏市松ケ崎７４８番地２株式会社福士不動産綜合事務所（5040001066676）に合併し解散,2015-10-05,1,,,,,フクシフドウサンソウゴウジムショ,0
1202,4040001090628,登記記録の閉鎖等,0,2024-01-17,2024-01-04,株式会社美商,,株式会社,千葉県,市原市,柳原２６６番地９,,12,219,2900268,,,2024-01-04,清算の結了等,,,2015-10-05,1,,,,,ビショウ,0
1210,4040002081997,登記記録の閉鎖等,0,2024-01-17,2024-01-04,有限会社テクノサポート日東,,有限会社,千葉県,茂原市,高師５８５番地,,12,210,2970029,,,2024-01-04,合併による解散等,3040001059384,令和６年１月１日千葉県茂原市高師５８５番地日東造機株式会社（3040001059384）に合併し解散,2015-10-05,1,,,,,テクノサポートニットウ,0
1215,4050001012886,登記記録の閉鎖等,0,2024-01-17,2024-01-09,株式会社ＢＢサイエンス,,株式会社,茨城県,土浦市,烏山１丁目３９３番地の１８４,,08,203,3000836,,,2024-01-09,清算の結了等,,,2015-10-05,1,,,,,ビービーサイエンス,0
1222,4060001022694,登記記録の閉鎖等,0,2024-01-17,2024-01-11,株式会社アイ・リーフ,,株式会社,栃木県,宇都宮市,元今泉１丁目２０番４号,,09,201,3210954,,,2024-01-11,清算の結了等,,,2015-10-05,1,,,,,アイリーフ,0
1225,4060005008979,登記記録の閉鎖等,0,2024-01-17,2024-01-11,一般社団法人那須朝市,,その他の設立登記法人,栃木県,那須郡那須町,大字高久乙２９０５番地２５,,09,407,3250303,,,2024-01-11,清算の結了等,,,2015-10-05,1,,,,,ナスアサイチ,0
1232,4080001020192,登記記録の閉鎖等,0,2024-01-17,2024-01-15,芹澤通信株式会社,,株式会社,静岡県,静岡市葵区,幸庵新田６３番地の７,,22,101,4212117,,,2024-01-15,清算の結了等,,,2015-10-05,1,,,,,セリザワツウシン,0
1284,4120001249835,登記記録の閉鎖等,0,2024-01-17,2024-01-09,株式会社ＡＮＤＭＯＲＥＦＩＮＥ,,株式会社,大阪府,枚方市,宮之阪２丁目２２番１号,,27,210,5730022,,,2024-01-09,清算の結了等,,,2022-10-27,1,,,,,アンドモアファイン,0
1300,4130005005886,登記記録の閉鎖等,0,2024-01-17,2024-01-04,特定非営利活動法人京都自由大学,,その他の設立登記法人,京都府,京都市下京区,油小路通松原下る樋口町３０８番地,00038639,26,106,6008458,,,2024-01-04,清算の結了等,,,2015-10-05,1,,,,,キョウトジユウダイガク,0
1311,4160003000606,登記記録の閉鎖等,0,2024-01-17,2024-01-10,合資会社伊藤商事,,合資会社,滋賀県,東近江市,八日市東浜町５番３０号,,25,213,5270021,,,2024-01-10,清算の結了等,,,2015-10-05,1,,,,,イトウショウジ,0
1313,4180001038555,登記記録の閉鎖等,0,2024-01-17,2024-01-11,東海文具株式会社,,株式会社,愛知県,名古屋市名東区,藤が丘８番地の１,,23,115,4650032,,,2024-01-11,清算の結了等,,,2015-10-05,1,,,,,トウカイブング,0
1320,4180002080390,登記記録の閉鎖等,0,2024-01-17,2024-01-12,有限会社岩田農園,,有限会社,愛知県,稲沢市,北麻績町郷内３８番地,,23,220,4928448,,,2024-01-12,清算の結了等,,,2015-10-05,1,,,,,イワタノウエン,0
1327,4190002000050,登記記録の閉鎖等,0,2024-01-17,2024-01-11,有限会社アクセサリーつゆ,,有限会社,三重県,津市,豊が丘１丁目４１番３号,,24,201,5142222,,,2024-01-11,清算の結了等,,,2015-10-05,1,,,,,アクセサリーツユ,0
1332,4200001037018,登記記録の閉鎖等,0,2024-01-17,2024-01-12,奥飛騨まちおこし株式会社,00118714,株式会社,岐阜県,高山市,奥飛騨温泉郷一重ヶ根字一宝水２００番３４,,21,203,5061432,,,2024-01-12,清算の結了等,,,2020-01-15,1,,,,,オクヒダマチオコシ,0
1333,4200002020658,登記記録の閉鎖等,0,2024-01-17,2024-01-15,有限会社ホワイトコンサルタント,,有限会社,岐阜県,多治見市,脇之島町７丁目９番地の１,,21,204,5070826,,,2024-01-15,清算の結了等,,,2015-10-05,1,,,,,ホワイトコンサルタント,0
1339,4240001029589,登記記録の閉鎖等,0,2024-01-17,2024-01-10,株式会社サカキバラ,,株式会社,広島県,福山市,神辺町字徳田７５８番地,,34,207,7202126,,,2024-01-10,清算の結了等,,,2015-10-05,1,,,,,サカキバラ,0
1341,4240002046996,登記記録の閉鎖等,0,2024-01-17,2024-01-10,有限会社ひろや,,有限会社,広島県,府中市,父石町３１３番地の１,,34,208,7260035,,,2024-01-10,清算の結了等,,,2015-10-05,1,,,,,ヒロヤ,0
1351,4290001001394,登記記録の閉鎖等,0,2024-01-17,2024-01-17,株式会社システムクリエイター,,株式会社,福岡県,福岡市南区,玉川町１４番１１号,,40,134,8150037,,,2024-01-17,登記官による閉鎖,,,2015-10-05,1,,,,,,0
1352,4290001019552,登記記録の閉鎖等,0,2024-01-17,2024-01-17,株式会社ジャパンヤンゲスト,,株式会社,福岡県,福岡市博多区,博多駅前３丁目７番３５号博多ハイテックビル７階,,40,132,8120011,,,2024-01-17,登記官による閉鎖,,,2015-10-05,1,,,,,,0
1353,4290001027555,登記記録の閉鎖等,0,2024-01-17,2024-01-17,株式会社おきよ,,株式会社,福岡県,福岡市中央区,長浜３丁目１１番３号,,40,133,8100072,,,2024-01-17,登記官による閉鎖,,,2015-10-05,1,,,,,,0
1354,4290001028909,登記記録の閉鎖等,0,2024-01-17,2024-01-17,株式会社人・イノベーション研究所,,株式会社,福岡県,福岡市中央区,大名１丁目８番１２－２０３号第二西部ビル,,40,133,8100041,,,2024-01-17,登記官による閉鎖,,,2015-10-05,1,,,,,,0
1355,4290001033256,登記記録の閉鎖等,0,2024-01-17,2024-01-17,株式会社サンフレッチェ,,株式会社,福岡県,糸島市,志摩師吉３１２番地３,,40,230,8191314,,,2024-01-17,登記官による閉鎖,,,2015-10-05,1,,,,,,0
1356,4290001040070,登記記録の閉鎖等,0,2024-01-17,2024-01-17,株式会社四郎,,株式会社,福岡県,福岡市東区,原田４丁目１６番２８号,,40,131,8120063,,,2024-01-17,登記官による閉鎖,,,2015-10-05,1,,,,,,0
1357,4290001049302,登記記録の閉鎖等,0,2024-01-17,2024-01-17,ナカハラ建設株式会社,,株式会社,福岡県,久留米市,本町４番地１３,,40,203,8300044,,,2024-01-17,登記官による閉鎖,,,2015-10-05,1,,,,,,0
1358,4290001052933,登記記録の閉鎖等,0,2024-01-17,2024-01-17,新和コーテック株式会社,,株式会社,福岡県,柳川市,南浜武７５０番地の１,,40,207,8320083,,,2024-01-17,登記官による閉鎖,,,2015-10-05,1,,,,,,0
1359,4290001058427,登記記録の閉鎖等,0,2024-01-17,2024-01-17,株式会社ラックフィールド,,株式会社,福岡県,福岡市中央区,桜坂２丁目９番１８号,,40,133,8100024,,,2024-01-17,登記官による閉鎖,,,2015-10-05,1,,,,,,0
1360,4290001059573,登記記録の閉鎖等,0,2024-01-17,2024-01-17,株式会社ステラリゾート,,株式会社,福岡県,春日市,伯玄町２丁目４５番地３小田ビル２０２号,,40,218,8160825,,,2024-01-17,登記官による閉鎖,,,2015-10-05,1,,,,,,0
1361,4290001062610,登記記録の閉鎖等,0,2024-01-17,2024-01-17,株式会社みつ葉不動産,,株式会社,福岡県,福岡市中央区,福浜２丁目６番８－７３５号,,40,133,8100066,,,2024-01-17,登記官による閉鎖,,,2015-10-05,1,,,,,,0
1367,4290002013075,登記記録の閉鎖等,0,2024-01-17,2024-01-17,有限会社ボンジュール,,有限会社,福岡県,福岡市中央区,大名１丁目１０番１８号,,40,133,8100041,,,2024-01-17,登記官による閉鎖,,,2015-10-05,1,,,,,,0
1368,4290002013802,登記記録の閉鎖等,0,2024-01-17,2024-01-17,有限会社レクセルブ,,有限会社,福岡県,福岡市博多区,空港前４丁目４番３２号,,40,132,8120002,,,2024-01-17,登記官による閉鎖,,,2015-10-05,1,,,,,,0
1369,4290002033115,登記記録の閉鎖等,0,2024-01-17,2024-01-17,有限会社リンクス,,有限会社,福岡県,糸島市,志摩稲葉９９番地,,40,230,8191315,,,2024-01-17,登記官による閉鎖,,,2015-10-05,1,,,,,,0
1370,4290002034170,登記記録の閉鎖等,0,2024-01-17,2024-01-17,有限会社ハーモニー,,有限会社,福岡県,福津市,花見が丘３丁目７番６号,,40,224,8113214,,,2024-01-17,登記官による閉鎖,,,2015-10-05,1,,,,,,0
1371,4290002034360,登記記録の閉鎖等,0,2024-01-17,2024-01-17,有限会社高山工務店,00093278,有限会社,福岡県,糟屋郡新宮町,大字上府５３８番地の３,,40,345,8110117,,,2024-01-17,登記官による閉鎖,,,2015-10-05,1,,,,,,0
1372,4290002036811,登記記録の閉鎖等,0,2024-01-17,2024-01-17,西日本オート有限会社,,有限会社,福岡県,糟屋郡粕屋町,大字内橋４０５番地の５,,40,349,8112308,,,2024-01-17,登記官による閉鎖,,,2015-10-05,1,,,,,,0
1373,4290002038725,登記記録の閉鎖等,0,2024-01-17,2024-01-17,有限会社エンドレスカンパニー,,有限会社,福岡県,糟屋郡粕屋町,甲仲原２丁目４番２０号,,40,349,8112315,,,2024-01-17,登記官による閉鎖,,,2015-10-05,1,,,,,,0
1376,4290002045052,登記記録の閉鎖等,0,2024-01-17,2024-01-17,有限会社進栄水産,,有限会社,福岡県,飯塚市,忠隈１０８番地の１,,40,205,8200071,,,2024-01-17,登記官による閉鎖,,,2015-10-05,1,,,,,,0
1378,4290003003075,登記記録の閉鎖等,0,2024-01-17,2024-01-17,合同会社介護２４博多,,合同会社,福岡県,福岡市博多区,石城町１２－５－５Ｆ,,40,132,8120032,,,2024-01-17,登記官による閉鎖,,,2015-10-05,1,,,,,,0
1379,4290003006020,登記記録の閉鎖等,0,2024-01-17,2024-01-15,合同会社ＳＫＡＲＡ,,合同会社,福岡県,大野城市,下大利４丁目１５番１２－３１５号,,40,219,8160952,,,2024-01-15,清算の結了等,,,2015-10-05,1,,,,,スカラ,0
1385,4290005007017,登記記録の閉鎖等,0,2024-01-17,2024-01-17,特定非営利活動法人夢の樹,,その他の設立登記法人,福岡県,春日市,須玖北５丁目１５５番地春日まちづくり支援センター内,,40,218,8160864,,,2024-01-17,登記官による閉鎖,,,2015-10-05,1,,,,,,0
1386,4290005007041,登記記録の閉鎖等,0,2024-01-17,2024-01-17,特定非営利活動法人日本ミャンマーボランティア協会,,その他の設立登記法人,福岡県,太宰府市,国分１丁目２０番２号,,40,221,8180132,,,2024-01-17,登記官による閉鎖,,,2015-10-05,1,,,,,,0
1387,4290801008713,登記記録の閉鎖等,0,2024-01-17,2024-01-17,株式会社エナジー,,株式会社,福岡県,北九州市戸畑区,牧山新町１－２６－１０２,,40,105,8040054,,,2024-01-17,登記官による閉鎖,,,2015-10-05,1,,,,,,0
1389,4290802010949,登記記録の閉鎖等,0,2024-01-17,2024-01-17,有限会社国際,,有限会社,福岡県,北九州市小倉北区,魚町１丁目２番２５号,,40,106,8020006,,,2024-01-17,登記官による閉鎖,,,2015-10-05,1,,,,,,0
1390,4290802012375,登記記録の閉鎖等,0,2024-01-17,2024-01-17,有限会社上村設計,,有限会社,福岡県,北九州市八幡東区,中央１丁目３番１０号,,40,108,8050019,,,2024-01-17,登記官による閉鎖,,,2015-10-05,1,,,,,,0
1391,4290802016483,登記記録の閉鎖等,0,2024-01-17,2024-01-17,有限会社鶴屋薬品＿んえい店,00094594,有限会社,福岡県,遠賀郡芦屋町,船頭町９番３６号,,40,381,8070121,,,2024-01-17,登記官による閉鎖,,,2015-10-05,1,,,,,,0
1397,4320001015259,登記記録の閉鎖等,0,2024-01-17,2024-01-12,株式会社８,,株式会社,沖縄県,沖縄市,美原２丁目２０－２,,47,211,9042155,,,2024-01-12,合併による解散等,5320001013724,令和５年１２月３１日大分市横尾東町２－１－４５株式会社ゆいまーる（5320001013724）に合併し解散,2016-11-02,1,,,,,エイト,0
1407,4370201003348,登記記録の閉鎖等,0,2024-01-17,2024-01-12,株式会社城環,,株式会社,宮城県,栗原市,若柳字川北中文字５８番地,,04,213,9895501,,,2024-01-12,清算の結了等,,,2015-10-05,1,,,,,ジョウカン,0
1409,4380001000453,登記記録の閉鎖等,0,2024-01-17,2024-01-15,株式会社建設新報社,,株式会社,福島県,福島市,豊田町４番３号,,07,201,9608104,,,2024-01-15,登記官による閉鎖,,,2015-10-05,1,,,,,,0
1410,4380001009602,登記記録の閉鎖等,0,2024-01-17,2024-01-15,安達太良オプティクス株式会社,,株式会社,福島県,安達郡大玉村,玉井字畑田３７番３１号,,07,322,9691302,,,2024-01-15,登記官による閉鎖,,,2015-10-05,1,,,,,,0
1411,4380001017638,登記記録の閉鎖等,0,2024-01-17,2024-01-15,東北不動産株式会社,,株式会社,福島県,会津若松市,中央１丁目５番１号,,07,202,9650037,,,2024-01-15,登記官による閉鎖,,,2015-10-05,1,,,,,,0
1413,4380001029666,登記記録の閉鎖等,0,2024-01-17,2024-01-15,協和ニット株式会社,,株式会社,福島県,喜多方市,松山町村松字小荒井道西４７２番地,,07,208,9660902,,,2024-01-15,登記官による閉鎖,,,2018-12-28,1,,,,,キョウワニット,0
1414,4380002014221,登記記録の閉鎖等,0,2024-01-17,2024-01-15,有限会社ケリーアンドエル,,有限会社,福島県,郡山市,桑野２丁目２２番１号,,07,203,9638025,,,2024-01-15,登記官による閉鎖,,,2015-10-05,1,,,,,,0
1417,4380002021275,登記記録の閉鎖等,0,2024-01-17,2024-01-15,有限会社エヌシー工業,,有限会社,福島県,石川郡古殿町,大字松川字大原２２番地,,07,505,9638304,,,2024-01-15,登記官による閉鎖,,,2015-10-05,1,,,,,,0
1418,4380002030854,登記記録の閉鎖等,0,2024-01-17,2024-01-15,有限会社会津工業所,,有限会社,福島県,耶麻郡磐梯町,大字赤枝字宮在家１９３番地,,07,407,9693303,,,2024-01-15,登記官による閉鎖,,,2015-10-05,1,,,,,,0
1419,4380002035894,登記記録の閉鎖等,0,2024-01-17,2024-01-15,有限会社オーロラ企画,,有限会社,福島県,郡山市,大町２丁目３番３２号,,07,203,9638001,,,2024-01-15,登記官による閉鎖,,,2015-10-05,1,,,,,オーロラキカク,0
1420,4380005002479,登記記録の閉鎖等,0,2024-01-17,2024-01-15,財団法人生体防禦研究所,,その他の設立登記法人,福島県,郡山市,桑野４丁目４番地の６７,,07,203,9638025,,,2024-01-15,登記官による閉鎖,,,2015-10-05,1,,,,,,0
1421,4380005006950,登記記録の閉鎖等,0,2024-01-17,2024-01-15,特定非営利活動法人相馬ブラインドケア友の会,,その他の設立登記法人,福島県,相馬市,岩子字坂脇８６番地の２,,07,209,9760025,,,2024-01-15,登記官による閉鎖,,,2015-10-05,1,,,,,,0
1422,4380005011950,登記記録の閉鎖等,0,2024-01-17,2024-01-15,福島県酒類卸協同組合,,その他の設立登記法人,福島県,福島市,本町２６番地,,07,201,9608035,,,2024-01-15,登記官による閉鎖,,,2018-01-10,1,,,,,,0
1437,5010001156190,登記記録の閉鎖等,0,2024-01-17,2024-01-09,株式会社ＩＡＤ,,株式会社,東京都,千代田区,神田神保町１丁目１０５番地,,13,101,1010051,,,2024-01-09,合併による解散等,7010001089959,令和６年１月１日東京都千代田区神田神保町一丁目１０５番地株式会社インプレス（7010001089959）に合併し解散,2015-10-05,1,,,,,アイエーディ,0
1438,5010001171529,登記記録の閉鎖等,0,2024-01-17,2024-01-09,オザサ＆パートナーズ株式会社,,株式会社,東京都,中央区,日本橋箱崎町３６番３号,,13,102,1030015,,,2024-01-09,清算の結了等,,,2015-11-10,1,,,,,オザサアンドパートナーズ,0
1446,5010001193102,登記記録の閉鎖等,0,2024-01-17,2024-01-15,株式会社ディアライフエージェンシー,,株式会社,東京都,千代田区,九段北１丁目２番３号,,13,101,1020073,,,2024-01-15,合併による解散等,5013301044404,令和６年１月１日東京都新宿区新宿二丁目１９番１号株式会社アルシエ（5013301044404）に合併し解散,2018-07-05,1,,,,,ディアライフエージェンシー,0
1447,5010001197409,登記記録の閉鎖等,0,2024-01-17,2024-01-09,Ｒｅｌａ－Ｈｅａｌｉｎｇ－Ｃａｒｅ株式会社,,株式会社,東京都,千代田区,二番町５番地２麹町駅プラザ９０１,,13,101,1020084,,,2024-01-09,清算の結了等,,,2018-12-28,1,,,,,リラヒーリングケア,0
1450,5010003039708,登記記録の閉鎖等,0,2024-01-17,2024-01-09,合同会社ＳＭＭ２,,合同会社,東京都,中央区,銀座１丁目１２番４号Ｎ＆ＥＢＬＤ．７階,,13,102,1040061,,,2024-01-09,清算の結了等,,,2023-02-01,1,,,,,エスエムエムツー,0
1458,5010401053830,登記記録の閉鎖等,0,2024-01-17,2024-01-04,株式会社アイティアイディ,,株式会社,東京都,港区,港南２丁目１７番１号,,13,103,1080075,,,2024-01-04,合併による解散等,7010401053829,令和６年１月１日東京都港区港南二丁目１７番１号株式会社電通総研（7010401053829）に合併し解散,2015-10-05,1,,,,,アイティアイディ,0
1461,5010401087762,登記記録の閉鎖等,0,2024-01-17,2024-01-04,Ｖｅｒｍｉｌｉｏｎ　Ｃａｐｉｔａｌ　Ｍａｎａｇｅｍｅｎｔ株式会社,,株式会社,東京都,中央区,日本橋室町４丁目３番１６号,,13,102,1030022,,,2024-01-04,合併による解散等,7010001203354,令和６年１月１日東京都中央区日本橋室町四丁目３番１６号株式会社フージャースキャピタルマネジメント（7010001203354）に合併し解散,2015-10-05,1,,,,,ヴァーミリオンキャピタルマネジメント,0
1462,5010402020458,登記記録の閉鎖等,0,2024-01-17,2024-01-04,有限会社アイアンドエスコンサルティング,,有限会社,東京都,港区,三田４丁目１８番２０号,,13,103,1080073,,,2024-01-04,清算の結了等,,,2015-10-05,1,,,,,アイアンドエスコンサルティング,0
1463,5010403009921,登記記録の閉鎖等,0,2024-01-17,2023-12-22,合同会社グレシアーナ,,合同会社,東京都,港区,赤坂２丁目１７番５０号赤坂タワーレジデンスＴｏｐｏｆｔｈｅＨｉｌｌ７０５号,,13,103,1070052,,,2023-12-22,清算の結了等,,,2015-10-05,1,,,,,,0
1475,5011001000537,登記記録の閉鎖等,0,2024-01-17,2024-01-15,株式会社アーバンホームズ,,株式会社,東京都,渋谷区,渋谷２丁目５番９号,,13,113,1500002,,,2024-01-15,清算の結了等,,,2015-10-05,1,,,,,アーバンホームズ,0
1483,5011001152444,登記記録の閉鎖等,0,2024-01-17,2024-01-12,株式会社トキハナツ,,株式会社,東京都,渋谷区,松濤１丁目２９番１号渋谷クロスロード６階,,13,113,1500046,,,2024-01-12,合併による解散等,1010001202510,令和６年１月１日東京都千代田区神田小川町三丁目２８番５号ａｘｌｅ御茶ノ水Ｐ２１１株式会社アールスクエア・アンド・カンパニー（1010001202510）に合併し解散,2023-02-07,1,,,,,トキハナツ,0
1492,5011103012281,登記記録の閉鎖等,0,2024-01-17,2024-01-12,合同会社赤,,合同会社,東京都,新宿区,百人町１丁目１－２３矢島ビル３０１,,13,104,1690073,,,2024-01-12,清算の結了等,,,2022-10-25,1,,,,,アカ,0
1496,5011401004451,登記記録の閉鎖等,0,2024-01-17,2024-01-12,株式会社東西貿易,,株式会社,東京都,板橋区,宮本町４７番５号,,13,119,1740054,,,2024-01-12,合併による解散等,3011801002230,令和６年１月１日東京都葛飾区高砂五丁目３５番１２号株式会社ジョイフル恵利（3011801002230）に合併し解散,2015-10-05,1,,,,,,0
1502,5011602002948,登記記録の閉鎖等,0,2024-01-17,2024-01-12,有限会社喜桜商事,,有限会社,東京都,練馬区,上石神井１丁目３１番１号,,13,120,1770044,,,2024-01-12,清算の結了等,,,2015-10-05,1,,,,,キザクラショウジ,0
1506,5011802001411,登記記録の閉鎖等,0,2024-01-17,2024-01-11,有限会社大塚電気工業所,,有限会社,東京都,葛飾区,奥戸５丁目２０番５号,,13,122,1240022,,,2024-01-11,清算の結了等,,,2015-10-05,1,,,,,オオツカデンキコウギョウショ,0
1509,5013201000424,登記記録の閉鎖等,0,2024-01-17,2024-01-11,株式会社有朋,,株式会社,東京都,中央区,日本橋２丁目１番１４号日本橋加藤ビルディング６階弁護士法人ＰＬＡＺＡ総合法律事務所内,,13,102,1030027,,,2024-01-11,清算の結了等,,,2015-10-05,1,,,,,アリトモ,0
1510,5013201007114,登記記録の閉鎖等,0,2024-01-17,2024-01-12,シナリーアライアンス株式会社,,株式会社,東京都,目黒区,目黒１丁目３番３２号,,13,110,1530063,,,2024-01-12,合併による解散等,2013201011589,令和６年１月１日東京都目黒区目黒一丁目３番３２号シナリーホールディングス株式会社（2013201011589）に合併し解散,2015-10-05,1,,,,,シナリーアライアンス,0
1511,5013301006387,登記記録の閉鎖等,0,2024-01-17,2024-01-16,株式会社セントラルパッケーヂ,,株式会社,東京都,豊島区,要町３丁目１３番１２号,,13,116,1710043,,,2024-01-16,登記官による閉鎖,,,2015-10-05,1,,,,,,0
1512,5013301011750,登記記録の閉鎖等,0,2024-01-17,2024-01-16,株式会社武蔵書店,,株式会社,東京都,豊島区,西池袋５丁目２５番５号,,13,116,1710021,,,2024-01-16,登記官による閉鎖,,,2015-10-05,1,,,,,,0
1513,5013301014662,登記記録の閉鎖等,0,2024-01-17,2024-01-16,株式会社インテルフォース,,株式会社,東京都,豊島区,池袋本町４丁目１５番８号,,13,116,1700011,,,2024-01-16,登記官による閉鎖,,,2015-10-05,1,,,,,,0
1514,5013301029322,登記記録の閉鎖等,0,2024-01-17,2024-01-16,株式会社ＴＫプランニング,,株式会社,東京都,豊島区,南池袋１丁目９番１８号,,13,116,1710022,,,2024-01-16,登記官による閉鎖,,,2015-10-05,1,,,,,,0
1515,5013301033448,登記記録の閉鎖等,0,2024-01-17,2024-01-16,株式会社ブレストイノベーション,,株式会社,東京都,豊島区,池袋２丁目６０番１１号,,13,116,1710014,,,2024-01-16,登記官による閉鎖,,,2015-10-05,1,,,,,,0
1516,5013302000216,登記記録の閉鎖等,0,2024-01-17,2024-01-16,有限会社石岡石材店,,有限会社,東京都,豊島区,巣鴨３丁目２０番２６号,,13,116,1700002,,,2024-01-16,登記官による閉鎖,,,2015-10-05,1,,,,,,0
1517,5013302007310,登記記録の閉鎖等,0,2024-01-17,2024-01-16,有限会社ナウティ,,有限会社,東京都,豊島区,南池袋２丁目１１番７号,,13,116,1710022,,,2024-01-16,登記官による閉鎖,,,2015-10-05,1,,,,,,0
1518,5013302012665,登記記録の閉鎖等,0,2024-01-17,2024-01-16,桜和企画設計有限会社,,有限会社,東京都,豊島区,高田３丁目２１番１１号,,13,116,1710033,,,2024-01-16,登記官による閉鎖,,,2015-10-05,1,,,,,,0
1519,5020001018365,登記記録の閉鎖等,0,2024-01-17,2024-01-09,日本メタリコン株式会社,,株式会社,埼玉県,八潮市,大字鶴ケ曽根３９８番地,,11,234,3400802,,,2024-01-09,清算の結了等,,,2015-10-05,1,,,,,ニホンメタリコン,0
1526,5020002105154,登記記録の閉鎖等,0,2024-01-17,2024-01-11,有限会社紙大,,有限会社,神奈川県,川崎市幸区,小向西町３丁目３９番地,,14,132,2120004,,,2024-01-11,清算の結了等,,,2015-10-05,1,,,,,カミダイ,0
1537,5021002004726,登記記録の閉鎖等,0,2024-01-17,2024-01-10,有限会社丸長,,有限会社,神奈川県,藤沢市,稲荷５２０番地,,14,205,2510862,,,2024-01-10,清算の結了等,,,2015-10-05,1,,,,,マルチョウ,0
1538,5021002004800,登記記録の閉鎖等,0,2024-01-17,2024-01-12,有限会社水野製作所,,有限会社,神奈川県,藤沢市,鵠沼１７５０番地,,14,205,2510022,,,2024-01-12,清算の結了等,,,2015-10-05,1,,,,,ミズノセイサクショ,0
1542,5030001138971,登記記録の閉鎖等,0,2024-01-17,2024-01-09,株式会社コンサル・タカハシ積算事務所,,株式会社,埼玉県,行田市,門井町３丁目２２番４－２０６号,,11,206,3610044,,,2024-01-09,清算の結了等,,,2020-10-28,1,,,,,コンサルタカハシセキサンジムショ,0
1545,5030002074489,登記記録の閉鎖等,0,2024-01-17,2024-01-09,有限会社南部,,有限会社,埼玉県,川越市,今成１丁目１番地１８,,11,201,3501105,,,2024-01-09,清算の結了等,,,2015-10-05,1,,,,,ナンブ,0
1562,5050002038426,登記記録の閉鎖等,0,2024-01-17,2024-01-10,有限会社澄企画,,有限会社,茨城県,取手市,山王３１９番地の８,,08,217,3001544,,,2024-01-10,清算の結了等,,,2015-10-05,1,,,,,スミキカク,0
1573,5080002015810,登記記録の閉鎖等,0,2024-01-17,2024-01-15,有限会社サン電気,,有限会社,静岡県,焼津市,策牛１９４番地の６,,22,212,4250007,,,2024-01-15,清算の結了等,,,2015-10-05,1,,,,,サンデンキ,0
1575,5080401023315,登記記録の閉鎖等,0,2024-01-17,2024-01-10,東凌商事株式会社,,株式会社,三重県,四日市市,北小松町７２８番地,,24,202,5100955,,,2024-01-10,清算の結了等,,,2018-12-11,1,,,,,トウリョウショウジ,0
1600,5090002007600,登記記録の閉鎖等,0,2024-01-17,2024-01-16,有限会社哲塾,,有限会社,山梨県,南アルプス市,小笠原５９０番地８,,19,208,4000306,,,2024-01-16,清算の結了等,,,2015-10-05,1,,,,,テツジュク,0
1601,5090002011065,登記記録の閉鎖等,0,2024-01-17,2024-01-16,有限会社サン企画,,有限会社,山梨県,甲州市,塩山上於曽２０５２番地３,,19,213,4040042,,,2024-01-16,清算の結了等,,,2015-10-05,1,,,,,サンキカク,0
1609,5120001020757,登記記録の閉鎖等,0,2024-01-17,2024-01-15,株式会社谷口工業,,株式会社,大阪府,大阪市平野区,瓜破東３丁目２番２１号,,27,126,5470022,,,2024-01-15,清算の結了等,,,2015-10-05,1,,,,,タニグチコウギョウ,0
1611,5120001159315,登記記録の閉鎖等,0,2024-01-17,2024-01-09,株式会社紅まる,,株式会社,大阪府,守口市,外島町６番東２号,,27,209,5700096,,,2024-01-09,清算の結了等,,,2015-10-05,1,,,,,,0
1616,5120001229786,登記記録の閉鎖等,0,2024-01-17,2024-01-16,為樂株式会社,,株式会社,大阪府,大阪市住吉区,長居東３丁目７番１６号,,27,120,5580004,,,2024-01-16,清算の結了等,,,2020-06-17,1,,,,,イラク,0
1624,5120101062204,登記記録の閉鎖等,0,2024-01-17,2024-01-04,株式会社ミライコンパス,,株式会社,大阪府,大阪市天王寺区,味原町３番２号ブルグ真田山２０２号,,27,109,5430023,,,2024-01-04,清算の結了等,,,2020-08-19,1,,,,,ミライコンパス,0
1631,5130001032974,登記記録の閉鎖等,0,2024-01-17,2024-01-11,浜口プラント工業株式会社,,株式会社,京都府,宇治市,小倉町蓮池１７０番地の３４,00036199,26,204,6110042,,,2024-01-11,清算の結了等,,,2015-10-05,1,,,,,,0
1653,5180001044057,登記記録の閉鎖等,0,2024-01-17,2024-01-12,株式会社中部サナ流通,,株式会社,愛知県,名古屋市中区,丸の内３丁目１３番１号,,23,106,4600002,,,2024-01-12,合併による解散等,3140001048996,令和６年１月１日兵庫県尼崎市次屋三丁目１９番３３号株式会社サナ流通（3140001048996）に合併し解散,2015-10-05,1,,,,,チュウブサナリュウツウ,0
1662,5180002078590,登記記録の閉鎖等,0,2024-01-17,2024-01-11,有限会社ジャイロテクノ,,有限会社,愛知県,一宮市,木曽川町黒田字奥屋敷１０番地の１,,23,203,4930001,,,2024-01-11,清算の結了等,,,2015-10-05,1,,,,,ジャイロテクノ,0
1685,5240002029645,登記記録の閉鎖等,0,2024-01-17,2024-01-10,有限会社廣濱運輸,00001066,有限会社,広島県,山県郡北広島町,新庄２８６０番地の１,,34,369,7312103,,,2024-01-10,清算の結了等,,,2015-10-05,1,,,,,コウヒンウンユ,0
1696,5290001000164,登記記録の閉鎖等,0,2024-01-17,2024-01-17,木津商事株式会社,,株式会社,福岡県,福岡市西区,愛宕１丁目３１番１号,,40,135,8190015,,,2024-01-17,登記官による閉鎖,,,2015-10-05,1,,,,,,0
1697,5290001004702,登記記録の閉鎖等,0,2024-01-17,2024-01-17,株式会社当仁給食センター,,株式会社,福岡県,福岡市城南区,長尾３丁目６番６号,,40,136,8140123,,,2024-01-17,登記官による閉鎖,,,2015-10-05,1,,,,,,0
1698,5290001007911,登記記録の閉鎖等,0,2024-01-17,2024-01-17,株式会社シーク,,株式会社,福岡県,福岡市中央区,赤坂３丁目３番２７号,,40,133,8100042,,,2024-01-17,登記官による閉鎖,,,2015-10-05,1,,,,,,0
1699,5290001011780,登記記録の閉鎖等,0,2024-01-17,2024-01-17,株式会社エイテイ,,株式会社,福岡県,福岡市博多区,空港前１丁目３番２号,,40,132,8120002,,,2024-01-17,登記官による閉鎖,,,2015-10-05,1,,,,,,0
1700,5290001015534,登記記録の閉鎖等,0,2024-01-17,2024-01-17,株式会社ニシダエーアール,,株式会社,福岡県,福岡市博多区,板付２丁目５番１１号,,40,132,8120888,,,2024-01-17,登記官による閉鎖,,,2015-10-05,1,,,,,,0
1701,5290001022885,登記記録の閉鎖等,0,2024-01-17,2024-01-17,株式会社シンク,,株式会社,福岡県,福岡市博多区,井相田３丁目２４番１８号,,40,132,8120881,,,2024-01-17,登記官による閉鎖,,,2015-10-05,1,,,,,,0
1702,5290001034542,登記記録の閉鎖等,0,2024-01-17,2024-01-17,株式会社ＲＥＣ,,株式会社,福岡県,太宰府市,五条２丁目１６番３３号グレイス五条１０３号,,40,221,8180125,,,2024-01-17,登記官による閉鎖,,,2015-10-05,1,,,,,,0
1703,5290001038444,登記記録の閉鎖等,0,2024-01-17,2024-01-17,株式会社永渕製作所,,株式会社,福岡県,糟屋郡志免町,別府北２丁目９番１号,,40,343,8112233,,,2024-01-17,登記官による閉鎖,,,2015-10-05,1,,,,,,0
1704,5290001038576,登記記録の閉鎖等,0,2024-01-17,2024-01-17,株式会社フクオカダイワ・ベンディング,,株式会社,福岡県,糟屋郡志免町,南里６丁目３番７号,,40,343,8112207,,,2024-01-17,登記官による閉鎖,,,2015-10-05,1,,,,,,0
1705,5290001054945,登記記録の閉鎖等,0,2024-01-17,2024-01-17,株式会社ＳＵＭ,,株式会社,福岡県,大川市,大字向島２３７０番地,,40,212,8310005,,,2024-01-17,登記官による閉鎖,,,2015-10-05,1,,,,,,0
1706,5290001057584,登記記録の閉鎖等,0,2024-01-17,2024-01-17,株式会社鎌倉,,株式会社,福岡県,大野城市,中１丁目１０番１５号,,40,219,8160906,,,2024-01-17,登記官による閉鎖,,,2015-10-05,1,,,,,,0
1707,5290001060357,登記記録の閉鎖等,0,2024-01-17,2024-01-17,株式会社ＡＩスマート,,株式会社,福岡県,福岡市博多区,御供所町１番９号,,40,132,8120037,,,2024-01-17,登記官による閉鎖,,,2015-10-05,1,,,,,,0
1708,5290001060646,登記記録の閉鎖等,0,2024-01-17,2024-01-17,株式会社ネクスト・インベストメント総研,,株式会社,福岡県,福岡市博多区,博多駅南１丁目１１番２７号,,40,132,8120016,,,2024-01-17,登記官による閉鎖,,,2015-10-05,1,,,,,,0
1712,5290002003901,登記記録の閉鎖等,0,2024-01-17,2024-01-17,有限会社やました,,有限会社,福岡県,福岡市南区,横手４丁目１８番２６－１０３号,,40,134,8111311,,,2024-01-17,登記官による閉鎖,,,2015-10-05,1,,,,,,0
1713,5290002008999,登記記録の閉鎖等,0,2024-01-17,2024-01-17,有限会社美智,,有限会社,福岡県,福岡市早良区,田村４丁目２３番１３号,,40,137,8140175,,,2024-01-17,登記官による閉鎖,,,2015-10-05,1,,,,,,0
1714,5290002036496,登記記録の閉鎖等,0,2024-01-17,2024-01-17,有限会社ジュン・ステンレス工業,,有限会社,福岡県,糟屋郡志免町,南里２丁目１１番１１号,,40,343,8112207,,,2024-01-17,登記官による閉鎖,,,2015-10-05,1,,,,,,0
1715,5290002042148,登記記録の閉鎖等,0,2024-01-17,2024-01-17,有限会社喜和産業,,有限会社,福岡県,筑紫野市,大字武藏二丁目２番２３号,,40,217,8180052,,,2024-01-17,登記官による閉鎖,,,2015-10-05,1,,,,,,0
1716,5290002049151,登記記録の閉鎖等,0,2024-01-17,2024-01-17,有限会社ジェイピーシステム,,有限会社,福岡県,久留米市,諏訪野町２０４４番地の１４,,40,203,8300037,,,2024-01-17,登記官による閉鎖,,,2015-10-05,1,,,,,,0
1718,5290003008305,登記記録の閉鎖等,0,2024-01-17,2024-01-17,合名会社高木商店,,合名会社,福岡県,久留米市,合川町１２５６番地の４,,40,203,8390861,,,2024-01-17,登記官による閉鎖,,,2018-08-23,1,,,,,,0
1720,5290801014603,登記記録の閉鎖等,0,2024-01-17,2024-01-17,株式会社Ｋ２テック,,株式会社,福岡県,宮若市,鶴田１５７９番地３,,40,226,8230002,,,2024-01-17,登記官による閉鎖,,,2015-10-05,1,,,,,,0
1721,5290802009949,登記記録の閉鎖等,0,2024-01-17,2024-01-17,有限会社関門興産,,有限会社,福岡県,北九州市門司区,東門司１丁目１１番１０－６０２号,,40,101,8010873,,,2024-01-17,登記官による閉鎖,,,2015-10-05,1,,,,,,0
1722,5290802009973,登記記録の閉鎖等,0,2024-01-17,2024-01-17,有限会社タイヤシヨツプブリツジ,,有限会社,福岡県,北九州市門司区,大里新町６番２号,,40,101,8000057,,,2024-01-17,登記官による閉鎖,,,2015-10-05,1,,,,,,0
1723,5290802012325,登記記録の閉鎖等,0,2024-01-17,2024-01-17,有限会社安西工業,,有限会社,福岡県,北九州市八幡東区,西台良町７番３号,,40,108,8050064,,,2024-01-17,登記官による閉鎖,,,2015-10-05,1,,,,,,0
1724,5290802022844,登記記録の閉鎖等,0,2024-01-17,2024-01-17,有限会社くすりの誠栄堂,,有限会社,福岡県,京都郡苅田町,京町１丁目１５番地の１３,,40,621,8000351,,,2024-01-17,登記官による閉鎖,,,2015-10-05,1,,,,,,0
1726,5290805004113,登記記録の閉鎖等,0,2024-01-17,2024-01-17,財団法人生命科学総合研究所,,その他の設立登記法人,福岡県,北九州市八幡西区,光貞台２丁目４番１８号,,40,109,8070805,,,2024-01-17,登記官による閉鎖,,,2015-10-05,1,,,,,,0
1730,5320002019233,登記記録の閉鎖等,0,2024-01-17,2024-01-12,有限会社中央礼花,,有限会社,大分県,日田市,大字西有田５８３番地,,44,204,8770000,,,2024-01-12,清算の結了等,,,2015-10-05,1,,,,,チュウオウレイカ,0
1740,5360001010916,登記記録の閉鎖等,0,2024-01-17,2024-01-11,株式会社Ｍユニット,,株式会社,沖縄県,うるま市,字江洲４番地７,,47,213,9042244,,,2024-01-11,清算の結了等,,,2015-10-05,1,,,,,,0
1745,5370002007150,登記記録の閉鎖等,0,2024-01-17,2024-01-15,有限会社菊地企画設計,,有限会社,宮城県,仙台市若林区,新寺５丁目９番２６号,,04,103,9840051,,,2024-01-15,清算の結了等,,,2015-10-05,1,,,,,,0
1747,5370201003545,登記記録の閉鎖等,0,2024-01-17,2024-01-15,株式会社大崎田園ファーム,,株式会社,宮城県,大崎市,古川小林字北ノ前１６番地１,,04,215,9896234,,,2024-01-15,清算の結了等,,,2015-10-05,1,,,,,,0
1748,5380001003488,登記記録の閉鎖等,0,2024-01-17,2024-01-15,株式会社おおとり荘,,株式会社,福島県,福島市,飯坂町字筑前２６番地１,,07,201,9600201,,,2024-01-15,登記官による閉鎖,,,2015-10-05,1,,,,,,0
1749,5380001008446,登記記録の閉鎖等,0,2024-01-17,2024-01-15,株式会社第一食彩,,株式会社,福島県,郡山市,桑野１丁目２３番２８号ネオハイツ桑野８０２号,,07,203,9638025,,,2024-01-15,登記官による閉鎖,,,2015-10-05,1,,,,,,0
1750,5380001012010,登記記録の閉鎖等,0,2024-01-17,2024-01-15,株式会社エコクリーン,,株式会社,福島県,須賀川市,岡東町６２番地,,07,207,9620013,,,2024-01-15,登記官による閉鎖,,,2015-10-05,1,,,,,,0
1751,5380001018651,登記記録の閉鎖等,0,2024-01-17,2024-01-15,株式会社国民宿舎五色沼,,株式会社,福島県,耶麻郡北塩原村,大字桧原字剣ケ峯１０９３番地６９８,,07,402,9692701,,,2024-01-15,登記官による閉鎖,,,2015-10-05,1,,,,,,0
1753,5380002002753,登記記録の閉鎖等,0,2024-01-17,2024-01-15,有限会社パパゲーナ,,有限会社,福島県,福島市,大町９番１６号,,07,201,9608041,,,2024-01-15,登記官による閉鎖,,,2015-10-05,1,,,,,,0
1754,5380002014856,登記記録の閉鎖等,0,2024-01-17,2024-01-15,有限会社えびすや書店,,有限会社,福島県,田村郡三春町,大字富沢字新舘６２番地,,07,521,9637782,,,2024-01-15,登記官による閉鎖,,,2015-10-05,1,,,,,,0
1757,5380005002461,登記記録の閉鎖等,0,2024-01-17,2024-01-15,財団法人広域社会福祉会,,その他の設立登記法人,福島県,郡山市,富久山町久保田字池下３３番地３,,07,203,9638071,,,2024-01-15,登記官による閉鎖,,,2015-10-05,1,,,,,,0
1759,5380005009259,登記記録の閉鎖等,0,2024-01-17,2024-01-15,財団法人喜多方市開発公社,,その他の設立登記法人,福島県,喜多方市,字御清水東７２４４番地の２,,07,208,9660814,,,2024-01-15,登記官による閉鎖,,,2015-10-05,1,,,,,,0
1771,5430001086197,登記記録の閉鎖等,0,2024-01-17,2024-01-05,Ｖ＆Ｃインベストメント・パートナーズ株式会社,,株式会社,北海道,札幌市中央区,南三条西８丁目２番地１ＳＡＫＵＲＡ－Ｓ３Ｃ１室,,01,101,0600063,,,2024-01-05,清算の結了等,,,2022-03-15,1,,,,,ブイアンドシーインベストメントパートナーズ,0
1798,6010001165389,登記記録の閉鎖等,0,2024-01-17,2024-01-04,グルーコードシステムズ株式会社,,株式会社,東京都,渋谷区,渋谷３丁目１０番１９号渋谷ＭＪ－ＩＩビル６階,00106813,13,113,1500002,,,2024-01-04,合併による解散等,7010701024595,令和５年１２月３１日東京都渋谷区渋谷三丁目１０番１９号渋谷ＭＪ－ＩＩビル６階グルーコードテクノロジーズ株式会社（7010701024595）に合併し解散,2015-10-05,1,,,,,グルーコードシステムズ,0
1810,6010401110399,登記記録の閉鎖等,0,2024-01-17,2024-01-04,株式会社加藤製作所,,株式会社,埼玉県,坂戸市,大字塚越９１５番地２,,11,239,3500209,,,2024-01-04,合併による解散等,7030001090444,令和５年１２月３１日埼玉県飯能市南町２番１１号山辻株式会社（7030001090444）に合併し解散,2015-10-05,1,,,,,カトウセイサクショ,0
1828,6010702012146,登記記録の閉鎖等,0,2024-01-17,2024-01-17,有限会社ヒューマンカンパニー,,有限会社,福岡県,福岡市中央区,春吉２丁目８番２５－４０５号,,40,133,8100003,,,2024-01-17,登記官による閉鎖,,,2015-10-05,1,,,,,,0
1853,6011801032919,登記記録の閉鎖等,0,2024-01-17,2024-01-15,株式会社ＹＧ通信工業,,株式会社,東京都,葛飾区,青戸６丁目１９番３６号,,13,122,1250062,,,2024-01-15,清算の結了等,,,2017-02-15,1,,,,,ワイジーツウシンコウギョウ,0
1863,6013301026987,登記記録の閉鎖等,0,2024-01-17,2024-01-16,株式会社フロンティア,,株式会社,東京都,豊島区,池袋２丁目５６番１号,,13,116,1710014,,,2024-01-16,登記官による閉鎖,,,2015-10-05,1,,,,,,0
1864,6013301027201,登記記録の閉鎖等,0,2024-01-17,2024-01-16,株式会社ＩＴネクスト,,株式会社,東京都,豊島区,池袋２丁目５１番１４号,,13,116,1710014,,,2024-01-16,登記官による閉鎖,,,2015-10-05,1,,,,,,0
1865,6013301030915,登記記録の閉鎖等,0,2024-01-17,2024-01-16,株式会社マックスデリ,,株式会社,東京都,豊島区,東池袋３丁目１番１号,,13,116,1700013,,,2024-01-16,登記官による閉鎖,,,2015-10-05,1,,,,,,0
1866,6013301031822,登記記録の閉鎖等,0,2024-01-17,2024-01-16,趣遊東京株式会社,,株式会社,東京都,豊島区,南大塚１丁目６０番２０号,,13,116,1700005,,,2024-01-16,登記官による閉鎖,,,2015-10-05,1,,,,,,0
1867,6013301032317,登記記録の閉鎖等,0,2024-01-17,2024-01-16,株式会社ＣＲＯＳＳ　ＷＥＤＧＥ,,株式会社,東京都,豊島区,南大塚２丁目１１番１０号,,13,116,1700005,,,2024-01-16,登記官による閉鎖,,,2015-10-05,1,,,,,,0
1869,6013302008687,登記記録の閉鎖等,0,2024-01-17,2024-01-16,有限会社プティポワン,,有限会社,東京都,豊島区,西池袋３丁目２７番１２号,,13,116,1710021,,,2024-01-16,登記官による閉鎖,,,2015-10-05,1,,,,,,0
1870,6013302021252,登記記録の閉鎖等,0,2024-01-17,2024-01-16,有限会社イナ・エンタープライズ,,有限会社,東京都,豊島区,南池袋１丁目２０番１１号,,13,116,1710022,,,2024-01-16,登記官による閉鎖,,,2015-10-05,1,,,,,,0
1871,6013305000690,登記記録の閉鎖等,0,2024-01-17,2024-01-16,防災機器事業協同組合,,その他の設立登記法人,東京都,豊島区,南池袋２丁目６番１３号,,13,116,1710022,,,2024-01-16,登記官による閉鎖,,,2015-10-05,1,,,,,,0
1872,6013305000848,登記記録の閉鎖等,0,2024-01-17,2024-01-16,特定非営利活動法人日本酒文化フォーラム,,その他の設立登記法人,東京都,豊島区,西池袋３丁目２３番７号,,13,116,1710021,,,2024-01-16,登記官による閉鎖,,,2015-10-05,1,,,,,,0
1873,6013305001474,登記記録の閉鎖等,0,2024-01-17,2024-01-16,特定非営利活動法人メコンクラブ,,その他の設立登記法人,東京都,豊島区,池袋３丁目３０番８号みらい館大明,,13,116,1710014,,,2024-01-16,登記官による閉鎖,,,2015-10-05,1,,,,,,0
1876,6020001094851,登記記録の閉鎖等,0,2024-01-17,2024-01-16,株式会社ＦＡＮＡＴＩＣ,,株式会社,東京都,豊島区,池袋４丁目２７番４号,,13,116,1710014,,,2024-01-16,登記官による閉鎖,,,2015-10-05,1,,,,,,0
1884,6021001058276,登記記録の閉鎖等,0,2024-01-17,2024-01-15,アバンザ株式会社,,株式会社,神奈川県,海老名市,中央３丁目４番３号ライオンズマンション海老名第３－２０９号,,14,215,2430432,,,2024-01-15,清算の結了等,,,2016-01-12,1,,,,,アバンザ,0
1894,6030001148243,登記記録の閉鎖等,0,2024-01-17,2024-01-04,株式会社加藤製作所キャリアサービス,,株式会社,埼玉県,坂戸市,大字塚越９１５番地２,,11,239,3500209,,,2024-01-04,合併による解散等,7030001090444,令和５年１２月３１日埼玉県飯能市南町２番１１号山辻株式会社（7030001090444）に合併し解散,2022-05-18,1,,,,,カトウセイサクショキャリアサービス,0
1900,6040001086194,登記記録の閉鎖等,0,2024-01-17,2024-01-04,株式会社千葉松戸,,株式会社,千葉県,松戸市,八ケ崎７丁目３２番地の３,,12,207,2700023,,,2024-01-04,清算の結了等,,,2015-10-05,1,,,,,チバマツド,0
1905,6040002050587,登記記録の閉鎖等,0,2024-01-17,2023-12-27,有限会社萩,,有限会社,千葉県,松戸市,松戸新田２４番地,,12,207,2702241,,,2023-12-27,清算の結了等,,,2015-10-05,1,,,,,ハギ,0
1918,6050002036544,登記記録の閉鎖等,0,2024-01-17,2024-01-05,有限会社取手ハウジング,,有限会社,茨城県,取手市,取手２丁目１５番１８号,,08,217,3020004,,,2024-01-05,清算の結了等,,,2015-10-05,1,,,,,トリデハウジング,0
1922,6080001006082,登記記録の閉鎖等,0,2024-01-17,2024-01-15,株式会社ティーアールビー,,株式会社,静岡県,静岡市葵区,唐瀬３丁目７番２号,,22,101,4200937,,,2024-01-15,清算の結了等,,,2015-10-05,1,,,,,ティーアールビー,0
1926,6080002005579,登記記録の閉鎖等,0,2024-01-17,2024-01-15,有限会社マルシンユタカ,,有限会社,静岡県,静岡市葵区,西瀬名町５番１２号,,22,101,4200914,,,2024-01-15,清算の結了等,,,2015-10-05,1,,,,,,0
1962,6090002009835,登記記録の閉鎖等,0,2024-01-17,2024-01-12,有限会社せきもと,,有限会社,山梨県,上野原市,棡原２７４９番地１,,19,212,4090111,,,2024-01-12,清算の結了等,,,2015-10-05,1,,,,,セキモト,0
1964,6100001005016,登記記録の閉鎖等,0,2024-01-17,2024-01-10,みゆきの交通株式会社,,株式会社,長野県,飯山市,大字豊田６５１２番地１,,20,213,3892411,,,2024-01-10,清算の結了等,,,2015-10-05,1,,,,,ミユキノコウツウ,0
1985,6130001045331,登記記録の閉鎖等,0,2024-01-17,2024-01-11,株式会社うす井,,株式会社,京都府,京都市北区,大北山原谷乾町３９番地の５１,,26,101,6038487,,,2024-01-11,清算の結了等,,,2015-10-05,1,,,,,ウスイ,0
1994,6140001051262,登記記録の閉鎖等,0,2024-01-17,2024-01-15,正岡金属工業株式会社,,株式会社,兵庫県,尼崎市,常光寺１丁目８番５７号,,28,202,6600811,,,2024-01-15,清算の結了等,,,2015-10-05,1,,,,,マサオカキンゾクコウギョウ,0
2000,6140002013897,登記記録の閉鎖等,0,2024-01-17,2024-01-12,有限会社幸和商会,,有限会社,兵庫県,神戸市中央区,中島通３丁目１番４号,,28,110,6510052,,,2024-01-12,清算の結了等,,,2015-10-05,1,,,,,,0
2008,6170001010546,登記記録の閉鎖等,0,2024-01-17,2024-01-16,株式会社サンシン,,株式会社,和歌山県,和歌山市,松江中１丁目４番１２号,,30,201,6408423,,,2024-01-16,清算の結了等,,,2015-10-05,1,,,,,サンシン,0
2009,6180001023720,登記記録の閉鎖等,0,2024-01-17,2024-01-09,白川産業株式会社,,株式会社,愛知県,名古屋市昭和区,白金３丁目２１番５号,,23,107,4660058,,,2024-01-09,合併による解散等,5180002008201,令和６年１月１日名古屋市昭和区白金三丁目２１番５号株式会社シラカワ（5180002008201）に合併し解散,2015-10-05,1,,,,,シラカワサンギョウ,0
2015,6180001151612,登記記録の閉鎖等,0,2024-01-17,2024-01-10,株式会社オカモトクリーニング,,株式会社,愛知県,愛知郡東郷町,御岳２丁目２０番地１４,,23,302,4700156,,,2024-01-10,清算の結了等,,,2022-06-07,1,,,,,オカモトクリーニング,0
2016,6180002030947,登記記録の閉鎖等,0,2024-01-17,2024-01-12,有限会社サン・シャトー企画,,有限会社,愛知県,名古屋市緑区,滝ノ水４丁目４１０番地２,,23,114,4580021,,,2024-01-12,清算の結了等,,,2015-10-05,1,,,,,サンシャトーキカク,0
2025,6190001011781,登記記録の閉鎖等,0,2024-01-17,2024-01-15,株式会社カリーナ,,株式会社,滋賀県,草津市,大路１丁目２番１５号サンシティ草津駅前９０１号,,25,206,5250032,,,2024-01-15,清算の結了等,,,2015-10-05,1,,,,,カリーナ,0
2033,6240001027491,登記記録の閉鎖等,0,2024-01-17,2024-01-05,株式会社クレ書店,,株式会社,広島県,呉市,焼山中央１丁目１４番１号,,34,202,7370935,,,2024-01-05,清算の結了等,,,2015-10-05,1,,,,,クレショテン,0
2034,6240001036419,登記記録の閉鎖等,0,2024-01-17,2024-01-09,株式会社世良源,,株式会社,広島県,安芸郡熊野町,平谷４丁目３番４号,,34,307,7314229,,,2024-01-09,清算の結了等,,,2015-10-05,1,,,,,セラゲン,0
2038,6240002048586,登記記録の閉鎖等,0,2024-01-17,2024-01-11,有限会社みやび型研,,有限会社,広島県,安芸郡府中町,大須４丁目５番３６号,,34,302,7350021,,,2024-01-11,清算の結了等,,,2015-10-05,1,,,,,ミヤビカタケン,0
2046,6290001011672,登記記録の閉鎖等,0,2024-01-17,2024-01-17,株式会社ウイズ,,株式会社,福岡県,福岡市南区,皿山１丁目２番４１号,,40,134,8111365,,,2024-01-17,登記官による閉鎖,,,2015-10-05,1,,,,,,0
2047,6290001013248,登記記録の閉鎖等,0,2024-01-17,2024-01-17,株式会社サウンド・イン・博多,,株式会社,福岡県,福岡市博多区,榎田２丁目１番９号,,40,132,8120004,,,2024-01-17,登記官による閉鎖,,,2015-10-05,1,,,,,,0
2048,6290001026860,登記記録の閉鎖等,0,2024-01-17,2024-01-17,株式会社リングアセット,,株式会社,福岡県,福岡市中央区,大名２丁目４番３８－３１５号,,40,133,8100041,,,2024-01-17,登記官による閉鎖,,,2015-10-05,1,,,,,,0
2051,6290001038831,登記記録の閉鎖等,0,2024-01-17,2024-01-17,株式会社桧住宅,,株式会社,福岡県,糟屋郡須惠町,大字上須恵８８９番地１,,40,344,8112100,,,2024-01-17,登記官による閉鎖,,,2015-10-05,1,,,,,,0
2053,6290001043963,登記記録の閉鎖等,0,2024-01-17,2024-01-12,内堀互業株式会社,,株式会社,福岡県,筑紫野市,美しが丘北３丁目２番地（６０５号）,,40,217,8180035,,,2024-01-12,清算の結了等,,,2015-10-05,1,,,,,ウチボリゴギョウ,0
2054,6290001049746,登記記録の閉鎖等,0,2024-01-17,2024-01-17,株式会社ユーノス久留米,,株式会社,福岡県,久留米市,合川町５７５番地,,40,203,8390861,,,2024-01-17,登記官による閉鎖,,,2015-10-05,1,,,,,ユーノスクルメ,0
2055,6290001053673,登記記録の閉鎖等,0,2024-01-17,2024-01-17,株式会社秋葉組,,株式会社,福岡県,大牟田市,西浜田町１４番地１５,,40,202,8360027,,,2024-01-17,登記官による閉鎖,,,2015-10-05,1,,,,,,0
2056,6290001056494,登記記録の閉鎖等,0,2024-01-17,2024-01-17,株式会社Ｇｒｏｕｎｄ,,株式会社,福岡県,福岡市中央区,渡辺通５丁目２４－３０東カン福岡第一ビル４Ｆ,,40,133,8100004,,,2024-01-17,登記官による閉鎖,,,2015-10-05,1,,,,,,0
2057,6290001062286,登記記録の閉鎖等,0,2024-01-17,2024-01-17,福岡リタ株式会社,,株式会社,福岡県,福岡市博多区,東雲町３丁目４番１６号,,40,132,8120871,,,2024-01-17,登記官による閉鎖,,,2015-10-05,1,,,,,,0
2067,6290001095344,登記記録の閉鎖等,0,2024-01-17,2024-01-11,サカイファーム株式会社,,株式会社,福岡県,久留米市,城島町大依７７番地４,,40,203,8300205,,,2024-01-11,清算の結了等,,,2021-11-15,1,,,,,サカイファーム,0
2073,6290002027040,登記記録の閉鎖等,0,2024-01-17,2024-01-17,有限会社リアン,,有限会社,福岡県,福岡市東区,舞松原４丁目７番３－４０５,,40,131,8130042,,,2024-01-17,登記官による閉鎖,,,2015-10-05,1,,,,,,0
2074,6290002033055,登記記録の閉鎖等,0,2024-01-17,2024-01-17,有限会社サクセス,,有限会社,福岡県,糸島市,志摩小金丸２９１９番地,,40,230,8191323,,,2024-01-17,登記官による閉鎖,,,2015-10-05,1,,,,,,0
2075,6290002034755,登記記録の閉鎖等,0,2024-01-17,2024-01-17,有限会社シビルデザイン研究所,,有限会社,福岡県,宗像市,日の里２丁目４番３号２の２０３,,40,220,8113425,,,2024-01-17,登記官による閉鎖,,,2015-10-05,1,,,,,,0
2079,6290002051627,登記記録の閉鎖等,0,2024-01-17,2024-01-17,有限会社オーク,,有限会社,福岡県,小郡市,大保１２１４番地の１の２,,40,216,8380115,,,2024-01-17,登記官による閉鎖,,,2015-10-05,1,,,,,,0
2080,6290003003288,登記記録の閉鎖等,0,2024-01-17,2024-01-17,合資会社論文製本屋,,合資会社,福岡県,大牟田市,大字草木５０番地８,,40,202,8370917,,,2024-01-17,登記官による閉鎖,,,2015-10-05,1,,,,,,0
2081,6290003003908,登記記録の閉鎖等,0,2024-01-17,2024-01-17,合同会社アシスト,,合同会社,福岡県,筑紫野市,紫２丁目２０番７号,,40,217,8180061,,,2024-01-17,登記官による閉鎖,,,2015-10-05,1,,,,,,0
2083,6290005002560,登記記録の閉鎖等,0,2024-01-17,2024-01-17,九州菜種製油工業協同組合連合会,,その他の設立登記法人,福岡県,福岡市博多区,神屋町１番２２号,,40,132,8120022,,,2024-01-17,登記官による閉鎖,,,2015-10-05,1,,,,,,0
2084,6290005005976,登記記録の閉鎖等,0,2024-01-17,2024-01-17,特定非営利活動法人トウミ,,その他の設立登記法人,福岡県,福津市,光陽台４丁目２１番地の１０,,40,224,8113223,,,2024-01-17,登記官による閉鎖,,,2015-10-05,1,,,,,,0
2085,6290005006891,登記記録の閉鎖等,0,2024-01-17,2024-01-17,特定非営利活動法人福祉工房プラーナ,00093910,その他の設立登記法人,福岡県,大野城市,乙金台３丁目１５番１０号,,40,219,8160903,,,2024-01-17,登記官による閉鎖,,,2015-10-05,1,,,,,,0
2086,6290801005378,登記記録の閉鎖等,0,2024-01-17,2024-01-17,信光建材株式会社,,株式会社,福岡県,北九州市門司区,寺内１丁目１１番７号,,40,101,8000015,,,2024-01-17,登記官による閉鎖,,,2015-10-05,1,,,,,,0
2087,6290801012192,登記記録の閉鎖等,0,2024-01-17,2024-01-17,株式会社北九州ベンダー,,株式会社,福岡県,北九州市若松区,響町１丁目９０番８号,,40,103,8080021,,,2024-01-17,登記官による閉鎖,,,2015-10-05,1,,,,,,0
2088,6290801017910,登記記録の閉鎖等,0,2024-01-17,2024-01-17,株式会社プランドレーヴ,,株式会社,福岡県,北九州市八幡西区,本城東６丁目４番４号サンローゼ本城東２０３号,,40,109,8070815,,,2024-01-17,登記官による閉鎖,,,2015-10-05,1,,,,,,0
2089,6290801017984,登記記録の閉鎖等,0,2024-01-17,2024-01-17,株式会社キヨミ,,株式会社,福岡県,田川市,西本町５番３０号,,40,206,8260024,,,2024-01-17,登記官による閉鎖,,,2015-10-05,1,,,,,,0
2090,6290802005641,登記記録の閉鎖等,0,2024-01-17,2024-01-17,有限会社福岡メカトレーディング,,有限会社,福岡県,北九州市小倉南区,上曽根新町８番４号,,40,107,8000215,,,2024-01-17,登記官による閉鎖,,,2015-10-05,1,,,,,,0
2091,6290802013289,登記記録の閉鎖等,0,2024-01-17,2024-01-17,有限会社安達建設,,有限会社,福岡県,北九州市八幡西区,八千代町８番１６号,,40,109,8060023,,,2024-01-17,登記官による閉鎖,,,2015-10-05,1,,,,,,0
2092,6290802014262,登記記録の閉鎖等,0,2024-01-17,2024-01-17,有限会社新栄工務所,,有限会社,福岡県,北九州市八幡西区,茶売町９番４号,,40,109,8060069,,,2024-01-17,登記官による閉鎖,,,2015-10-05,1,,,,,,0
2093,6290802021886,登記記録の閉鎖等,0,2024-01-17,2024-01-17,有限会社豊公産業,,有限会社,福岡県,豊前市,大字赤熊２８０番地５,,40,214,8280027,,,2024-01-17,登記官による閉鎖,,,2015-10-05,1,,,,,,0
2094,6290802023148,登記記録の閉鎖等,0,2024-01-17,2024-01-17,有限会社しおや,,有限会社,福岡県,京都郡みやこ町,犀川本庄４６３番地,,40,625,8240231,,,2024-01-17,登記官による閉鎖,,,2015-10-05,1,,,,,,0
2103,6330001025172,登記記録の閉鎖等,0,2024-01-17,2024-01-04,株式会社リヴ．スタイル．ホーム,,株式会社,熊本県,熊本市中央区,水前寺２丁目１６番１１号,,43,101,8620950,,,2024-01-04,合併による解散等,8330001016616,令和６年１月１日熊本市中央区水前寺二丁目１６番１１号株式会社ホームステージ（8330001016616）に合併し解散,2018-04-06,1,,,,,リヴスタイルホーム,0
2106,6330002022508,登記記録の閉鎖等,0,2024-01-17,2024-01-04,フタバ開発有限会社,,有限会社,熊本県,玉名市,六田３０番地１４,,43,206,8650058,,,2024-01-04,合併による解散等,2330001011507,令和６年１月４日熊本県玉名市六田３０番地１４株式会社山田組（2330001011507）に合併し解散,2015-10-05,1,,,,,フタバカイハツ,0
2114,6360005003394,登記記録の閉鎖等,0,2024-01-17,2024-01-09,特定非営利活動法人キジキナ会,,その他の設立登記法人,沖縄県,国頭郡本部町,字謝花４番地,,47,308,9050203,,,2024-01-09,清算の結了等,,,2015-10-05,1,,,,,キジキナカイ,0
2116,6370001045670,登記記録の閉鎖等,0,2024-01-17,2024-01-15,株式会社Ｇｅｏｍｅｔｒｙ,,株式会社,宮城県,仙台市太白区,長町６丁目９－１Ｄグラフォート長町９０５,,04,104,9820011,,,2024-01-15,清算の結了等,,,2020-04-21,1,,,,,ジオメトリー,0
2119,6380001010277,登記記録の閉鎖等,0,2024-01-17,2024-01-15,鈴木特殊硝子製造株式会社,,株式会社,福島県,西白河郡西郷村,字屋敷裏東３番地,,07,461,9618046,,,2024-01-15,登記官による閉鎖,,,2015-10-05,1,,,,,,0
2120,6380001014625,登記記録の閉鎖等,0,2024-01-17,2024-01-15,株式会社光洋測量,,株式会社,福島県,いわき市,小名浜西君ケ塚町１２番地の１５,,07,204,9718167,,,2024-01-15,登記官による閉鎖,,,2015-10-05,1,,,,,,0
2123,6380001028641,登記記録の閉鎖等,0,2024-01-17,2024-01-15,福島振興株式会社,,株式会社,福島県,福島市,万世町３４番地２,,07,201,9608033,,,2024-01-15,登記官による閉鎖,,,2017-11-22,1,,,,,,0
2124,6380002006019,登記記録の閉鎖等,0,2024-01-17,2024-01-15,有限会社五稜情報通信,,有限会社,福島県,福島市,宮代字下川原５０番地の５,,07,201,9600116,,,2024-01-15,登記官による閉鎖,,,2015-10-05,1,,,,,,0
2125,6380002012371,登記記録の閉鎖等,0,2024-01-17,2024-01-15,有限会社丸聖,,有限会社,福島県,郡山市,富久山町久保田字太郎殿前２番地,,07,203,9638071,,,2024-01-15,登記官による閉鎖,,,2015-10-05,1,,,,,,0
2126,6380002017536,登記記録の閉鎖等,0,2024-01-17,2024-01-15,有限会社エヌテー商事,,有限会社,福島県,白河市,新白河２丁目１４５番地,,07,205,9610856,,,2024-01-15,登記官による閉鎖,,,2015-10-05,1,,,,,,0
2127,6380002021422,登記記録の閉鎖等,0,2024-01-17,2024-01-15,有限会社あぶくま林業,,有限会社,福島県,須賀川市,上小山田字東山３３番地,,07,207,9620713,,,2024-01-15,登記官による閉鎖,,,2015-10-05,1,,,,,,0
2128,6380005003319,登記記録の閉鎖等,0,2024-01-17,2024-01-15,特定非営利活動法人相談の窓口,,その他の設立登記法人,福島県,郡山市,字下亀田３番地の４クリエイティブ亀田４０５,,07,203,9638032,,,2024-01-15,登記官による閉鎖,,,2015-10-05,1,,,,,,0
2129,6380005003731,登記記録の閉鎖等,0,2024-01-17,2024-01-15,特定非営利活動法人若葉の会,,その他の設立登記法人,福島県,郡山市,大槻町字土瓜６７番地の１８,,07,203,9630201,,,2024-01-15,登記官による閉鎖,,,2015-10-05,1,,,,,,0
2137,6430002011475,登記記録の閉鎖等,0,2024-01-17,2024-01-05,有限会社ターキージャパン,,有限会社,北海道,札幌市中央区,南三条西６丁目８番地,,01,101,0600063,,,2024-01-05,清算の結了等,,,2015-10-05,1,,,,,ターキージャパン,0
2154,6500005001854,登記記録の閉鎖等,0,2024-01-17,2024-01-16,特定非営利活動法人愛媛鳴合文化保存会,,その他の設立登記法人,愛媛県,松山市,高岡町４９７番地１,,38,201,7918036,,,2024-01-16,清算の結了等,,,2015-10-05,1,,,,,エヒメナキアワセブンカホゾンカイ,0
2167,7010001196235,登記記録の閉鎖等,0,2024-01-17,2024-01-09,ＲＴ株式会社,,株式会社,東京都,千代田区,二番町９番地３ＴＨＥ・ＢＡＳＥ麹町,,13,101,1020084,,,2024-01-09,清算の結了等,,,2018-11-09,1,,,,,アールティ,0
2177,7010403028564,登記記録の閉鎖等,0,2024-01-17,2023-12-22,Ｓｗｉｆｔ　Ｍａｒｉｎｅ　Ｊａｐａｎ合同会社,,合同会社,東京都,港区,赤坂２丁目２３番１号アークヒルズ・フロントタワーＩｎＣｏｎｔｒｏｌ内,,13,103,1070052,,,2023-12-22,清算の結了等,,,2022-10-18,1,,,,,スウィフトマリンジャパン,0
2197,7010901017390,登記記録の閉鎖等,0,2024-01-17,2024-01-09,株式会社サコタ,,株式会社,東京都,世田谷区,粕谷１丁目１２番１６号,,13,112,1570063,,,2024-01-09,清算の結了等,,,2015-10-05,1,,,,,サコタ,0
2199,7010902013645,登記記録の閉鎖等,0,2024-01-17,2024-01-12,有限会社ヘイトアンドアシュバリー,,有限会社,東京都,世田谷区,北沢２丁目３７番２号,,13,112,1550031,,,2024-01-12,清算の結了等,,,2015-10-05,1,,,,,ヘイトアンドアシュバリー,0
2215,7011101073547,登記記録の閉鎖等,0,2024-01-17,2024-01-12,株式会社よしもとＲＩＦＡ,,株式会社,東京都,新宿区,新宿５丁目１８番２１号,,13,104,1600022,,,2024-01-12,清算の結了等,,,2015-10-05,1,,,,,ヨシモトリファ,0
2216,7011101074479,登記記録の閉鎖等,0,2024-01-17,2024-01-15,株式会社一心,,株式会社,東京都,台東区,三筋２丁目１８番６号,,13,106,1110055,,,2024-01-15,清算の結了等,,,2015-10-05,1,,,,,,0
2230,7011402010042,登記記録の閉鎖等,0,2024-01-17,2024-01-12,有限会社東京まるやま,,有限会社,東京都,板橋区,宮本町４７番５号,,13,119,1740054,,,2024-01-12,合併による解散等,3011801002230,令和６年１月１日東京都葛飾区高砂五丁目３５番１２号株式会社ジョイフル恵利（3011801002230）に合併し解散,2015-10-05,1,,,,,,0
2238,7011801036002,登記記録の閉鎖等,0,2024-01-17,2024-01-11,株式会社ケモノミチ,,株式会社,東京都,足立区,千住東２丁目１１番２号,,13,121,1200025,,,2024-01-11,清算の結了等,,,2019-04-10,1,,,,,ケモノミチ,0
2243,7013301005783,登記記録の閉鎖等,0,2024-01-17,2024-01-16,株式会社菅岩製作所,,株式会社,東京都,豊島区,高田１丁目１３番７号,00059860,13,116,1710033,,,2024-01-16,登記官による閉鎖,,,2015-10-05,1,,,,,,0
2244,7013301007549,登記記録の閉鎖等,0,2024-01-17,2024-01-16,株式会社ティーエスエス,,株式会社,東京都,豊島区,南大塚２丁目３５番３号,,13,116,1700005,,,2024-01-16,登記官による閉鎖,,,2015-10-05,1,,,,,,0
2245,7013301013662,登記記録の閉鎖等,0,2024-01-17,2024-01-16,株式会社マクロフォージャパン,,株式会社,東京都,豊島区,東池袋４丁目２３番６号ドミー池袋７０４号,,13,116,1700013,,,2024-01-16,登記官による閉鎖,,,2015-10-05,1,,,,,,0
2246,7013301031425,登記記録の閉鎖等,0,2024-01-17,2024-01-16,株式会社プリズム,,株式会社,東京都,豊島区,東池袋１丁目４２番１５号,,13,116,1700013,,,2024-01-16,登記官による閉鎖,,,2015-10-05,1,,,,,,0
2247,7013301033859,登記記録の閉鎖等,0,2024-01-17,2024-01-16,株式会社ディ・エヌ・エーＤＮ,,株式会社,東京都,豊島区,東池袋３丁目９番１５号ワイムティハイム７０２号室,,13,116,1700013,,,2024-01-16,登記官による閉鎖,,,2015-10-05,1,,,,,,0
2248,7013302021565,登記記録の閉鎖等,0,2024-01-17,2024-01-16,有限会社ジェイティーケイ,,有限会社,東京都,豊島区,北大塚２丁目８番１０号,,13,116,1700004,,,2024-01-16,登記官による閉鎖,,,2015-10-05,1,,,,,,0
2249,7013305001498,登記記録の閉鎖等,0,2024-01-17,2024-01-16,特定非営利活動法人プロテクション,,その他の設立登記法人,東京都,豊島区,高田３丁目１５番７号第一大島ビル４０２,,13,116,1710033,,,2024-01-16,登記官による閉鎖,,,2015-10-05,1,,,,,,0
2255,7020002096004,登記記録の閉鎖等,0,2024-01-17,2024-01-11,有限会社オリエントサービス,,有限会社,神奈川県,川崎市川崎区,日進町２４番地４,,14,131,2100024,,,2024-01-11,清算の結了等,,,2015-10-05,1,,,,,オリエントサービス,0
2263,7021001070718,登記記録の閉鎖等,0,2024-01-17,2024-01-12,株式会社Ａｍｌｉｔａ,,株式会社,神奈川県,伊勢原市,伊勢原３丁目３２番１４号,,14,214,2591131,,,2024-01-12,清算の結了等,,,2020-08-31,1,,,,,アムリタ,0
2264,7021001076896,登記記録の閉鎖等,0,2024-01-17,2024-01-12,ソルトブルック株式会社,,株式会社,神奈川県,厚木市,三田南３丁目２番２０号,,14,212,2430217,,,2024-01-12,清算の結了等,,,2022-09-06,1,,,,,ソルトブルック,0
2272,7021005011081,登記記録の閉鎖等,0,2024-01-17,2024-01-15,一般社団法人ワーカーズ・コレクティブキッチンぱお,,その他の設立登記法人,神奈川県,厚木市,森の里５丁目４番７号,,14,212,2430122,,,2024-01-15,清算の結了等,,,2017-09-21,1,,,,,ワーカーズコレクティブキッチンパオ,0
2279,7030002029276,登記記録の閉鎖等,0,2024-01-17,2024-01-11,有限会社ダイナマックスマネジメント,,有限会社,神奈川県,逗子市,山の根２丁目７番３８号,,14,208,2490002,,,2024-01-11,清算の結了等,,,2015-10-05,1,,,,,ダイナマックスマネジメント,0
2283,7030002107024,登記記録の閉鎖等,0,2024-01-17,2024-01-09,有限会社まことや,,有限会社,埼玉県,川口市,芝西２丁目２６番１９号,,11,203,3330855,,,2024-01-09,清算の結了等,,,2015-10-05,1,,,,,マコトヤ,0
2291,7040001075576,登記記録の閉鎖等,0,2024-01-17,2023-12-28,株式会社うらやすＥサービス,,株式会社,千葉県,浦安市,千鳥１５番地２,,12,227,2790032,,,2023-12-28,清算の結了等,,,2015-10-05,1,,,,,ウラヤスイーサービス,0
2299,7040002088759,登記記録の閉鎖等,0,2024-01-17,2023-12-27,有限会社荒井屋,,有限会社,千葉県,柏市,豊四季３９０番地の１９,,12,217,2770863,,,2023-12-27,清算の結了等,,,2015-10-05,1,,,,,アライヤ,0
2318,7080001022442,登記記録の閉鎖等,0,2024-01-17,2024-01-15,株式会社ｍｉｙｕｕ,,株式会社,静岡県,静岡市駿河区,中田２丁目１番９号,,22,102,4228041,,,2024-01-15,清算の結了等,,,2018-09-18,1,,,,,ミユウ,0
2387,7130001045792,登記記録の閉鎖等,0,2024-01-17,2024-01-04,株式会社創味通販,,株式会社,京都府,京都市伏見区,横大路芝生２４番地の３,,26,109,6128246,,,2024-01-04,合併による解散等,4130001014882,令和６年１月１日京都市伏見区横大路芝生２４番地の３株式会社創味食品（4130001014882）に合併し解散,2015-10-05,1,,,,,ソウミツウハン,0
2396,7140002033572,登記記録の閉鎖等,0,2024-01-17,2024-01-04,有限会社ストリーム・イメージワークス,,有限会社,兵庫県,豊岡市,若松町３番１４号,,28,209,6680027,,,2024-01-04,合併による解散等,7140001056104,令和６年１月１日兵庫県豊岡市若松町３番１４号株式会社北星社（7140001056104）に合併し解散,2015-10-05,1,,,,,ストリームイメージワークス,0
2410,7180302018311,登記記録の閉鎖等,0,2024-01-17,2024-01-05,有限会社坂本製作所,,有限会社,愛知県,刈谷市,小垣江町御茶屋下３２番地１８,,23,210,4480813,,,2024-01-05,清算の結了等,,,2015-10-05,1,,,,,サカモトセイサクショ,0
2411,7190001024691,登記記録の閉鎖等,0,2024-01-17,2024-01-12,株式会社ＴＳＵＮＡＧＵ,,株式会社,三重県,伊賀市,平野西町１０２番地の１,,24,216,5180820,,,2024-01-12,清算の結了等,,,2017-05-31,1,,,,,ツナグ,0
2413,7190002008594,登記記録の閉鎖等,0,2024-01-17,2024-01-12,有限会社きくよし,,有限会社,三重県,伊勢市,神久２丁目２番２９号,,24,203,5160017,,,2024-01-12,清算の結了等,,,2015-10-05,1,,,,,キクヨシ,0
2417,7220002007097,登記記録の閉鎖等,0,2024-01-17,2024-01-11,有限会社福田殖産,,有限会社,石川県,白山市,七原町イ２１番地,,17,210,9202143,,,2024-01-11,清算の結了等,,,2015-10-05,1,,,,,フクダショクサン,0
2418,7220002015141,登記記録の閉鎖等,0,2024-01-17,2024-01-12,有限会社心聖書道会,,有限会社,石川県,羽咋市,一ノ宮町子ノ９４番地,,17,207,9250004,,,2024-01-12,清算の結了等,,,2015-10-05,1,,,,,シンセイショドウカイ,0
2433,7290001027627,登記記録の閉鎖等,0,2024-01-17,2024-01-17,福岡シティマーケティング株式会社,,株式会社,福岡県,福岡市東区,若宮４丁目２０番１６－７０１号,,40,131,8130036,,,2024-01-17,登記官による閉鎖,,,2015-10-05,1,,,,,,0
2434,7290001030176,登記記録の閉鎖等,0,2024-01-17,2024-01-17,株式会社フィッシュ・アイ,,株式会社,福岡県,福岡市早良区,南庄３丁目１７番５号,,40,137,8140031,,,2024-01-17,登記官による閉鎖,,,2015-10-05,1,,,,,,0
2435,7290001037650,登記記録の閉鎖等,0,2024-01-17,2024-01-17,株式会社ジェイクス総合建設,,株式会社,福岡県,糟屋郡新宮町,大字原上３２３番地,,40,345,8110101,,,2024-01-17,登記官による閉鎖,,,2015-10-05,1,,,,,,0
2436,7290001039845,登記記録の閉鎖等,0,2024-01-17,2024-01-17,株式会社ファーストプラン,,株式会社,福岡県,福岡市博多区,那珂１丁目３１番５号,,40,132,8120893,,,2024-01-17,登記官による閉鎖,,,2015-10-05,1,,,,,,0
2437,7290001046940,登記記録の閉鎖等,0,2024-01-17,2024-01-17,株式会社シップパートナーズ,,株式会社,福岡県,福岡市西区,愛宕南２丁目１２番１４号,,40,135,8190007,,,2024-01-17,登記官による閉鎖,,,2015-10-05,1,,,,,,0
2438,7290001051437,登記記録の閉鎖等,0,2024-01-17,2024-01-17,エムシーケイ株式会社,,株式会社,福岡県,久留米市,城島町大依３６９,,40,203,8300205,,,2024-01-17,登記官による閉鎖,,,2015-10-05,1,,,,,,0
2440,7290001063399,登記記録の閉鎖等,0,2024-01-17,2024-01-17,株式会社三昇製薬,,株式会社,福岡県,福岡市博多区,博多駅東２丁目５番２１号,,40,132,8120013,,,2024-01-17,登記官による閉鎖,,,2015-10-05,1,,,,,,0
2441,7290001073043,登記記録の閉鎖等,0,2024-01-17,2024-01-04,ＣＱベンチャーズ株式会社,,株式会社,福岡県,福岡市中央区,薬院１丁目１番１号,,40,133,8100022,,,2024-01-04,合併による解散等,3290001030576,令和６年１月１日福岡市中央区薬院一丁目１番１号キューサイ株式会社（3290001030576）に合併し解散,2016-03-02,1,,,,,シーキューベンチャーズ,0
2444,7290002004740,登記記録の閉鎖等,0,2024-01-17,2024-01-15,ケイアンドケイ有限会社,,有限会社,福岡県,福岡市東区,蒲田２丁目１６番１９号,,40,131,8130023,,,2024-01-15,清算の結了等,,,2015-10-05,1,,,,,ケイアンドケイ,0
2445,7290002015077,登記記録の閉鎖等,0,2024-01-17,2024-01-17,有限会社クリーン総業,,有限会社,福岡県,福岡市博多区,寿町３丁目３番２６－２０１号,,40,132,8120884,,,2024-01-17,登記官による閉鎖,,,2015-10-05,1,,,,,,0
2446,7290002018138,登記記録の閉鎖等,0,2024-01-17,2024-01-17,ワイ・ケイ・トータルプランニング有限会社,,有限会社,福岡県,福岡市博多区,博多駅前４丁目９番２６号,,40,132,8120011,,,2024-01-17,登記官による閉鎖,,,2015-10-05,1,,,,,,0
2447,7290002036156,登記記録の閉鎖等,0,2024-01-17,2024-01-17,有限会社大久保工芸,,有限会社,福岡県,春日市,須玖南１丁目１１１番地サニーピア須玖２０５号,,40,218,8160863,,,2024-01-17,登記官による閉鎖,,,2015-10-05,1,,,,,,0
2448,7290002040455,登記記録の閉鎖等,0,2024-01-17,2024-01-17,有限会社渡邊組,00093389,有限会社,福岡県,大野城市,乙金東２丁目８番２０号,,40,219,8160901,,,2024-01-17,登記官による閉鎖,,,2015-10-05,1,,,,,,0
2449,7290002045710,登記記録の閉鎖等,0,2024-01-17,2024-01-17,有限会社大道工業,,有限会社,福岡県,飯塚市,大日寺１１００番地１,,40,205,8200046,,,2024-01-17,登記官による閉鎖,,,2015-10-05,1,,,,,,0
2450,7290002047715,登記記録の閉鎖等,0,2024-01-17,2024-01-17,有限会社八女緑地建設,,有限会社,福岡県,八女郡広川町,大字新代２３９０番地,,40,544,8340115,,,2024-01-17,登記官による閉鎖,,,2015-10-05,1,,,,,,0
2453,7290003001720,登記記録の閉鎖等,0,2024-01-17,2024-01-17,ＭＪ企画合同会社ＬＬＣ,,合同会社,福岡県,宗像市,上八１６７３,,40,220,8113513,,,2024-01-17,登記官による閉鎖,,,2015-10-05,1,,,,,,0
2456,7290005000992,登記記録の閉鎖等,0,2024-01-17,2024-01-17,財団法人福岡県学校保健会,,その他の設立登記法人,福岡県,福岡市博多区,東公園７番７号（福岡県教育庁教育振興部体育スポーツ健康課内）,,40,132,8120045,,,2024-01-17,登記官による閉鎖,,,2015-10-05,1,,,,,,0
2457,7290005002238,登記記録の閉鎖等,0,2024-01-17,2024-01-17,福岡県農薬卸売協同組合,,その他の設立登記法人,福岡県,福岡市博多区,大博町１番２号,,40,132,8120033,,,2024-01-17,登記官による閉鎖,,,2015-10-05,1,,,,,,0
2458,7290005004267,登記記録の閉鎖等,0,2024-01-17,2024-01-17,特定非営利活動法人全国社会保障支援機構,,その他の設立登記法人,福岡県,福岡市東区,香椎駅東３丁目２番３５－３０５号,,40,131,8130012,,,2024-01-17,登記官による閉鎖,,,2015-10-05,1,,,,,,0
2459,7290005004358,登記記録の閉鎖等,0,2024-01-17,2024-01-17,九州福祉事業協同組合,,その他の設立登記法人,福岡県,福岡市東区,香椎駅東３丁目２番３５,,40,131,8130012,,,2024-01-17,登記官による閉鎖,,,2015-10-05,1,,,,,,0
2460,7290005004705,登記記録の閉鎖等,0,2024-01-17,2024-01-17,特定非営利活動法人幸せな結婚と家族セラピー協会,,その他の設立登記法人,福岡県,福岡市博多区,博多駅東２丁目１７番５号,,40,132,8120013,,,2024-01-17,登記官による閉鎖,,,2015-10-05,1,,,,,,0
2461,7290005006008,登記記録の閉鎖等,0,2024-01-17,2024-01-17,特定非営利活動法人さくらプロジェクト福岡,,その他の設立登記法人,福岡県,古賀市,日吉２丁目１０番１－１２０２号,,40,223,8113106,,,2024-01-17,登記官による閉鎖,,,2015-10-05,1,,,,,,0
2462,7290005006313,登記記録の閉鎖等,0,2024-01-17,2024-01-17,特定非営利活動法人イージーハウス,,その他の設立登記法人,福岡県,糟屋郡志免町,大字別府５０７－３,,40,343,8112205,,,2024-01-17,登記官による閉鎖,,,2015-10-05,1,,,,,,0
2463,7290005007170,登記記録の閉鎖等,0,2024-01-17,2024-01-17,ＮＰＯ法人国際協力センター,,その他の設立登記法人,福岡県,春日市,伯玄町２丁目４５番地３小田ビル２０２号,,40,218,8160825,,,2024-01-17,登記官による閉鎖,,,2015-10-05,1,,,,,,0
2464,7290801010451,登記記録の閉鎖等,0,2024-01-17,2024-01-17,日伸設備工業株式会社,,株式会社,福岡県,北九州市八幡西区,永犬丸３丁目１６番１７号,,40,109,8070851,,,2024-01-17,登記官による閉鎖,,,2015-10-05,1,,,,,,0
2465,7290801010609,登記記録の閉鎖等,0,2024-01-17,2024-01-17,株式会社ハラグチ,,株式会社,福岡県,北九州市八幡東区,大蔵２丁目１４番１３号,,40,108,8050048,,,2024-01-17,登記官による閉鎖,,,2015-10-05,1,,,,,,0
2467,7290802003099,登記記録の閉鎖等,0,2024-01-17,2024-01-17,有限会社至誠看護婦・家政婦紹介所,,有限会社,福岡県,北九州市戸畑区,沖台２丁目１２番２２－１０１号,,40,105,8040064,,,2024-01-17,登記官による閉鎖,,,2015-10-05,1,,,,,,0
2468,7290802009484,登記記録の閉鎖等,0,2024-01-17,2024-01-17,有限会社城山プラスチック,,有限会社,福岡県,北九州市門司区,城山町１番１０号,,40,101,8000013,,,2024-01-17,登記官による閉鎖,,,2015-10-05,1,,,,,,0
2469,7290802013503,登記記録の閉鎖等,0,2024-01-17,2024-01-17,有限会社ＮＯＶＡ,,有限会社,福岡県,北九州市八幡西区,熊手３丁目３番３号,,40,109,8060028,,,2024-01-17,登記官による閉鎖,,,2015-10-05,1,,,,,,0
2470,7290802018337,登記記録の閉鎖等,0,2024-01-17,2024-01-17,有限会社サンウェル,,有限会社,福岡県,北九州市八幡西区,相生町１４番８号ＭＹビル２階,,40,109,8060044,,,2024-01-17,登記官による閉鎖,,,2015-10-05,1,,,,,,0
2471,7290802018576,登記記録の閉鎖等,0,2024-01-17,2024-01-17,サンワ通信工業有限会社,,有限会社,福岡県,北九州市若松区,響町１丁目３８番,,40,103,8080021,,,2024-01-17,登記官による閉鎖,,,2015-10-05,1,,,,,,0
2472,7290802018873,登記記録の閉鎖等,0,2024-01-17,2024-01-17,有限会社川崎電機工業所,,有限会社,福岡県,北九州市若松区,南二島２丁目３番２１号,,40,103,8080109,,,2024-01-17,登記官による閉鎖,,,2015-10-05,1,,,,,,0
2473,7290803003065,登記記録の閉鎖等,0,2024-01-17,2024-01-17,小峠合資会社,,合資会社,福岡県,田川郡川崎町,大字安眞木１６６５番地,,40,605,8270001,,,2024-01-17,登記官による閉鎖,,,2018-02-21,1,,,,,,0
2474,7290805005167,登記記録の閉鎖等,0,2024-01-17,2024-01-17,社団法人石峰公民館,,その他の設立登記法人,福岡県,北九州市若松区,用勺町１４番６号,,40,103,8080077,,,2024-01-17,登記官による閉鎖,,,2015-10-05,1,,,,,,0
2475,7290805007023,登記記録の閉鎖等,0,2024-01-17,2024-01-17,特定非営利活動法人ほたるの宿,,その他の設立登記法人,福岡県,行橋市,神田町１０番１０号,,40,213,8240007,,,2024-01-17,登記官による閉鎖,,,2015-10-05,1,,,,,,0
2482,7330001017796,登記記録の閉鎖等,0,2024-01-17,2024-01-17,株式会社パワークロス,,株式会社,福岡県,福岡市博多区,神屋町５番９－１５０３号,,40,132,8120022,,,2024-01-17,登記官による閉鎖,,,2015-10-05,1,,,,,,0
2500,7360001023734,登記記録の閉鎖等,0,2024-01-17,2024-01-11,株式会社先島クリーン,,株式会社,沖縄県,石垣市,浜崎町２丁目３番地２９,,47,207,9070013,,,2024-01-11,清算の結了等,,,2018-03-29,1,,,,,サキシマクリーン,0
2507,7370801001748,登記記録の閉鎖等,0,2024-01-17,2024-01-15,株式会社ナノックス,,株式会社,福島県,南相馬市,原町区仲町２丁目１２２番地,,07,212,9750016,,,2024-01-15,登記官による閉鎖,,,2015-10-05,1,,,,,,0
2508,7380001011522,登記記録の閉鎖等,0,2024-01-17,2024-01-15,東北工業株式会社,,株式会社,福島県,須賀川市,桙衝字古舘１１１番地,,07,207,9620124,,,2024-01-15,登記官による閉鎖,,,2015-10-05,1,,,,,,0
2509,7380001017643,登記記録の閉鎖等,0,2024-01-17,2024-01-15,株式会社東亜,,株式会社,福島県,会津若松市,宮町１０番３６号,,07,202,9650801,,,2024-01-15,登記官による閉鎖,,,2015-10-05,1,,,,,,0
2511,7380002002495,登記記録の閉鎖等,0,2024-01-17,2024-01-15,有限会社トックス,,有限会社,福島県,福島市,松川町浅川字仏明内１９番地,,07,201,9601245,,,2024-01-15,登記官による閉鎖,,,2015-10-05,1,,,,,,0
2512,7380002002520,登記記録の閉鎖等,0,2024-01-17,2024-01-15,有限会社ドライブイン丸山,,有限会社,福島県,福島市,飯坂町平野字森１８番地,,07,201,9600231,,,2024-01-15,登記官による閉鎖,,,2015-10-05,1,,,,,,0
2513,7380002015299,登記記録の閉鎖等,0,2024-01-17,2024-01-15,有限会社長沢板金,,有限会社,福島県,田村市,船引町遠山沢字津間３８２番地の４,,07,211,9634205,,,2024-01-15,登記官による閉鎖,,,2015-10-05,1,,,,,,0
2514,7380002022295,登記記録の閉鎖等,0,2024-01-17,2024-01-15,有限会社猪狩商事,,有限会社,福島県,いわき市,平字六人町２６番地,,07,204,9708026,,,2024-01-15,登記官による閉鎖,,,2015-10-05,1,,,,,,0
2515,7380002026833,登記記録の閉鎖等,0,2024-01-17,2024-01-15,有限会社ワンモア,,有限会社,福島県,いわき市,小名浜字蛭川南５番地の６,,07,204,9718101,,,2024-01-15,登記官による閉鎖,,,2015-10-05,1,,,,,,0
2516,7380002034448,登記記録の閉鎖等,0,2024-01-17,2024-01-15,有限会社司工務店,,有限会社,福島県,河沼郡柳津町,大字細八字鴇巣甲２０５番地,,07,423,9697209,,,2024-01-15,登記官による閉鎖,,,2015-10-05,1,,,,,,0
2517,7380002036246,登記記録の閉鎖等,0,2024-01-17,2024-01-15,有限会社武藤ニツト工業,,有限会社,福島県,喜多方市,字長源段９１６０番地の７,,07,208,9660856,,,2024-01-15,登記官による閉鎖,,,2018-12-14,1,,,,,ムトウニットコウギョウ,0
2520,7400002011279,登記記録の閉鎖等,0,2024-01-17,2024-01-11,有限会社イリソエンジニアリング,,有限会社,岩手県,花巻市,北湯口第１８地割１４番４２,,03,205,0250301,,,2024-01-11,合併による解散等,1020001053696,令和６年１月１日横浜市港北区新横浜二丁目１３番地８イリソ電子工業株式会社（1020001053696）に合併し解散,2015-10-05,1,,,,,イリソエンジニアリング,0
2523,7430001052461,登記記録の閉鎖等,0,2024-01-17,2024-01-04,株式会社エン,,株式会社,北海道,札幌市中央区,北六条西１８丁目１１番１２号,,01,101,0600006,,,2024-01-04,合併による解散等,5430001013267,令和６年１月１日札幌市中央区北六条西十八丁目１１番１２号株式会社バーニッシュカンパニー（5430001013267）に合併し解散,2015-10-05,1,,,,,エン,0
2528,7430002049151,登記記録の閉鎖等,0,2024-01-17,2024-01-09,有限会社馬野建設,,有限会社,北海道,岩見沢市,ふじ町一条５丁目３番９号,,01,210,0680831,,,2024-01-09,清算の結了等,,,2015-10-05,1,,,,,ウマノケンセツ,0
2530,7460302001890,登記記録の閉鎖等,0,2024-01-17,2024-01-15,有限会社東相内商産,,有限会社,北海道,北見市,東相内町３０１番地,,01,208,0990878,,,2024-01-15,清算の結了等,,,2015-10-05,1,,,,,ヒガシアイノナイショウサン,0
2536,7500002022357,登記記録の閉鎖等,0,2024-01-17,2024-01-15,有限会社アイ・ライフサポート,,有限会社,愛媛県,四国中央市,金生町下分８５８番地３,,38,213,7990111,,,2024-01-15,清算の結了等,,,2015-10-05,1,,,,,アイライフサポート,0
2542,8010001010601,登記記録の閉鎖等,0,2024-01-17,2024-01-16,石黒商事株式会社,,株式会社,東京都,豊島区,巣鴨５丁目３２番９－１０３号,,13,116,1700002,,,2024-01-16,登記官による閉鎖,,,2015-10-05,1,,,,,,0
2552,8010401080541,登記記録の閉鎖等,0,2024-01-17,2024-01-15,常磐システムズ株式会社,,株式会社,東京都,台東区,上野６丁目１番６号御徒町グリーンハイツ１００５号,,13,106,1100005,,,2024-01-15,清算の結了等,,,2015-10-05,1,,,,,トキワシステムズ,0
2591,8011201022543,登記記録の閉鎖等,0,2024-01-17,2024-01-15,株式会社ＧＯＬＤ　ｓｈｉｐ,,株式会社,東京都,中野区,中野５丁目６０番２号,,13,114,1640001,,,2024-01-15,清算の結了等,,,2020-11-25,1,,,,,ゴールドシップ,0
2597,8011703000716,登記記録の閉鎖等,0,2024-01-17,2024-01-11,合同会社コスモ・ウインド,,合同会社,東京都,江戸川区,東小岩３丁目７番１８号,,13,123,1330052,,,2024-01-11,清算の結了等,,,2015-10-05,1,,,,,コスモウインド,0
2604,8013202000305,登記記録の閉鎖等,0,2024-01-17,2024-01-12,有限会社アスコ,,有限会社,東京都,目黒区,目黒１丁目３番３２号,,13,110,1530063,,,2024-01-12,合併による解散等,2013201011589,令和６年１月１日東京都目黒区目黒一丁目３番３２号シナリーホールディングス株式会社（2013201011589）に合併し解散,2015-10-05,1,,,,,アスコ,0
2606,8013301011624,登記記録の閉鎖等,0,2024-01-17,2024-01-16,株式会社誠住建,,株式会社,東京都,豊島区,西池袋５丁目２番１４号,,13,116,1710021,,,2024-01-16,登記官による閉鎖,,,2015-10-05,1,,,,,,0
2607,8013301013133,登記記録の閉鎖等,0,2024-01-17,2024-01-16,株式会社米山製作所,,株式会社,東京都,豊島区,巣鴨１丁目４０番１３号,,13,116,1700002,,,2024-01-16,登記官による閉鎖,,,2015-10-05,1,,,,,,0
2608,8013301017662,登記記録の閉鎖等,0,2024-01-17,2024-01-16,株式会社ケイケンクリエイトシステム,,株式会社,東京都,豊島区,池袋本町４丁目４７番１２－１４０９号,,13,116,1700011,,,2024-01-16,登記官による閉鎖,,,2015-10-05,1,,,,,,0
2609,8013301027026,登記記録の閉鎖等,0,2024-01-17,2024-01-16,株式会社ＴＲＩＢＥＬＡＴＥ,,株式会社,東京都,豊島区,南池袋３丁目１８番３０号ファースト日野ビル６Ｆ,,13,116,1710022,,,2024-01-16,登記官による閉鎖,,,2015-10-05,1,,,,,,0
2610,8013301029815,登記記録の閉鎖等,0,2024-01-17,2024-01-16,株式会社三栄企画,,株式会社,東京都,豊島区,西池袋３丁目２５番２号,,13,116,1710021,,,2024-01-16,登記官による閉鎖,,,2015-10-05,1,,,,,サンエイキカク,0
2611,8013301030665,登記記録の閉鎖等,0,2024-01-17,2024-01-16,株式会社ＣＨＡＯＳＪａｐａｎ,,株式会社,東京都,豊島区,西池袋３丁目２１番４号,,13,116,1710021,,,2024-01-16,登記官による閉鎖,,,2015-10-05,1,,,,,,0
2612,8013302004651,登記記録の閉鎖等,0,2024-01-17,2024-01-16,有限会社新世堂,,有限会社,東京都,豊島区,南大塚２丁目２番１号,00066917,13,116,1700005,,,2024-01-16,登記官による閉鎖,,,2015-10-05,1,,,,,,0
2613,8013302011672,登記記録の閉鎖等,0,2024-01-17,2024-01-16,有限会社丸正畜産,,有限会社,東京都,豊島区,南長崎２丁目１６番１０号,,13,116,1710052,,,2024-01-16,登記官による閉鎖,,,2015-10-05,1,,,,,,0
2614,8013305000912,登記記録の閉鎖等,0,2024-01-17,2024-01-16,特定非営利活動法人　共育舎・海と森,,その他の設立登記法人,東京都,豊島区,東池袋２丁目２２番６号株式会社クランジー内,,13,116,1700013,,,2024-01-16,登記官による閉鎖,,,2015-10-05,1,,,,,,0
2615,8020001101390,登記記録の閉鎖等,0,2024-01-17,2024-01-10,株式会社ＡＡＮ　Ｊａｐａｎ,,株式会社,神奈川県,横浜市中区,吉田町６５番地ＥＲＶＩＣ横浜,,14,104,2310041,,,2024-01-10,清算の結了等,,,2015-10-05,1,,,,,,0
2617,8020001130258,登記記録の閉鎖等,0,2024-01-17,2023-12-25,株式会社たぽばな,,株式会社,千葉県,長生郡一宮町,船頭給９７－１２,,12,421,2994313,,,2023-12-25,清算の結了等,,,2019-03-07,1,,,,,タポバナ,0
2627,8021001078685,登記記録の閉鎖等,0,2024-01-17,2024-01-12,ＬＩＮＤＢＥＲＧＨ株式会社,,株式会社,神奈川県,横須賀市,日の出町１丁目９番地,,14,201,2380006,,,2024-01-12,合併による解散等,3021001069235,令和５年１２月１日神奈川県横須賀市若松町二丁目１番地３川島ビル４Ｆ株式会社ＬａＬａＬａｎｄ　Ｅａｔｓ（3021001069235）に合併し解散,2023-04-11,1,,,,,リンドバーグ,0
2634,8030001077853,登記記録の閉鎖等,0,2024-01-17,2024-01-12,リーベックス株式会社,,株式会社,埼玉県,川口市,東川口３丁目１０番５号,,11,203,3330801,,,2024-01-12,合併による解散等,4120001086023,令和６年１月１日大阪市中央区北浜東１番２０号ナカバヤシ株式会社（4120001086023）に合併し解散,2015-10-05,1,,,,,リーベックス,0
2660,8060002014778,登記記録の閉鎖等,0,2024-01-17,2024-01-11,有限会社加藤鉄工所,,有限会社,栃木県,日光市,水無５０番地,,09,206,3212334,,,2024-01-11,清算の結了等,,,2015-10-05,1,,,,,カトウテッコウジョ,0
2669,8070002024586,登記記録の閉鎖等,0,2024-01-17,2024-01-10,有限会社藤沢自動車ボデー,,有限会社,群馬県,桐生市,相生町５丁目４４番地８,,10,203,3760011,,,2024-01-10,清算の結了等,,,2015-10-05,1,,,,,フジサワジドウシャボデー,0
2726,8120101041997,登記記録の閉鎖等,0,2024-01-17,2024-01-12,株式会社モモダ,,株式会社,大阪府,和泉市,池上町４丁目１１番４１号,,27,219,5940083,,,2024-01-12,合併による解散等,3120102024956,令和６年１月１日大阪府和泉市池上町三丁目１４番５２号和泉フーズ株式会社（3120102024956）に合併し解散,2015-10-05,1,,,,,モモダ,0
2774,8180003003545,登記記録の閉鎖等,0,2024-01-17,2024-01-12,合資会社寝具のかざおか,00073784,合資会社,愛知県,名古屋市熱田区,沢上１丁目６番４号,,23,109,4560012,,,2024-01-12,清算の結了等,,,2015-10-05,1,,,,,シングノカザオカ,0
2779,8180301013386,登記記録の閉鎖等,0,2024-01-17,2024-01-04,株式会社コノユビトマレ,,株式会社,愛知県,額田郡幸田町,大字久保田字釜谷８番地,,23,501,4440102,,,2024-01-04,合併による解散等,8180301029829,令和５年１２月２９日愛知県額田郡幸田町大字久保田字釜谷８番地ＭＧＳ株式会社（8180301029829）に合併し解散,2015-10-05,1,,,,,コノユビトマレ,0
2783,8190002011077,登記記録の閉鎖等,0,2024-01-17,2024-01-15,有限会社ワンエイム,,有限会社,三重県,伊勢市,上地町７７３番地６,,24,203,5160051,,,2024-01-15,清算の結了等,,,2015-10-05,1,,,,,ワンエイム,0
2788,8220001006363,登記記録の閉鎖等,0,2024-01-17,2024-01-12,株式会社ホクリク商工,,株式会社,石川県,金沢市,神野１丁目６４番地,,17,201,9200368,,,2024-01-12,清算の結了等,,,2015-10-05,1,,,,,ホクリクショウコウ,0
2792,8240001028744,登記記録の閉鎖等,0,2024-01-17,2024-01-04,株式会社Ｈｅｒｂｓ,,株式会社,広島県,広島市安佐南区,西原８丁目１番１３号,,34,105,7310113,,,2024-01-04,合併による解散等,8240002049938,令和６年１月１日広島市安佐南区西原八丁目１番１３号株式会社あすか（8240002049938）に合併し解散,2015-10-05,1,,,,,ハーブス,0
2800,8290001000921,登記記録の閉鎖等,0,2024-01-17,2024-01-17,大賀建設株式会社,,株式会社,福岡県,福岡市南区,弥永１丁目３５番１４号,,40,134,8111323,,,2024-01-17,登記官による閉鎖,,,2015-10-05,1,,,,,,0
2801,8290001008840,登記記録の閉鎖等,0,2024-01-17,2024-01-17,株式会社ディアマリン,,株式会社,福岡県,福岡市城南区,南片江６丁目１番２４号,,40,136,8140143,,,2024-01-17,登記官による閉鎖,,,2015-10-05,1,,,,,,0
2802,8290001009335,登記記録の閉鎖等,0,2024-01-17,2024-01-17,株式会社日本リゾートサービス,,株式会社,福岡県,福岡市中央区,天神４丁目９番１２号,,40,133,8100001,,,2024-01-17,登記官による閉鎖,,,2018-12-26,1,,,,,,0
2803,8290001028442,登記記録の閉鎖等,0,2024-01-17,2024-01-17,株式会社タカマツアンドアソシエーツ,,株式会社,福岡県,福岡市中央区,大名２丁目４番３０号,,40,133,8100041,,,2024-01-17,登記官による閉鎖,,,2015-10-05,1,,,,,,0
2804,8290001031173,登記記録の閉鎖等,0,2024-01-17,2024-01-17,株式会社セイワセキュリティー,,株式会社,福岡県,福岡市東区,多々良１丁目１１番１５－１０３号,,40,131,8130033,,,2024-01-17,登記官による閉鎖,,,2015-10-05,1,,,,,,0
2805,8290001033244,登記記録の閉鎖等,0,2024-01-17,2024-01-17,明王建設株式会社,,株式会社,福岡県,糸島市,香力１１８番地５,,40,230,8191147,,,2024-01-17,登記官による閉鎖,,,2015-10-05,1,,,,,,0
2806,8290001040711,登記記録の閉鎖等,0,2024-01-17,2024-01-17,三晃理化株式会社,,株式会社,福岡県,大野城市,若草２丁目１５番２１号,,40,219,8160981,,,2024-01-17,登記官による閉鎖,,,2017-06-06,1,,,,,,0
2807,8290001044786,登記記録の閉鎖等,0,2024-01-17,2024-01-17,株式会社アレンカンパニー,,株式会社,福岡県,福岡市中央区,天神１丁目１番１号アクロス福岡,,40,133,8100001,,,2024-01-17,登記官による閉鎖,,,2015-10-05,1,,,,,,0
2808,8290001050974,登記記録の閉鎖等,0,2024-01-17,2024-01-17,イノセンス広告株式会社,,株式会社,福岡県,久留米市,荘島町３３０番地８エバーライフネアシティ久留米弐番館３０７号,,40,203,8300042,,,2024-01-17,登記官による閉鎖,,,2015-10-05,1,,,,,,0
2809,8290001055767,登記記録の閉鎖等,0,2024-01-17,2024-01-17,株式会社Ａ＆Ｇカンパニー,,株式会社,福岡県,福岡市中央区,天神２丁目１３番１８号,,40,133,8100001,,,2024-01-17,登記官による閉鎖,,,2015-10-05,1,,,,,,0
2810,8290001059371,登記記録の閉鎖等,0,2024-01-17,2024-01-17,株式会社まるみや,,株式会社,福岡県,福岡市西区,生の松原２丁目１１番１２号,,40,135,8190055,,,2024-01-17,登記官による閉鎖,,,2015-10-05,1,,,,,,0
2815,8290002002603,登記記録の閉鎖等,0,2024-01-17,2024-01-17,有限会社大建測量設計,,有限会社,福岡県,福岡市南区,警弥郷１丁目１０番１０号,,40,134,8111324,,,2024-01-17,登記官による閉鎖,,,2015-10-05,1,,,,,,0
2816,8290002007528,登記記録の閉鎖等,0,2024-01-17,2024-01-17,有限会社曙屋酒店,,有限会社,福岡県,福岡市早良区,曙２丁目２番２３号,00092999,40,137,8140004,,,2024-01-17,登記官による閉鎖,,,2015-10-05,1,,,,,,0
2817,8290002011570,登記記録の閉鎖等,0,2024-01-17,2024-01-17,大裕産業有限会社,,有限会社,福岡県,福岡市中央区,春吉３丁目２３番２２号,,40,133,8100003,,,2024-01-17,登記官による閉鎖,,,2015-10-05,1,,,,,,0
2818,8290002016462,登記記録の閉鎖等,0,2024-01-17,2024-01-17,有限会社土井計算センター,,有限会社,福岡県,福岡市博多区,冷泉町１番３－５０３号,,40,132,8120039,,,2024-01-17,登記官による閉鎖,,,2015-10-05,1,,,,,,0
2819,8290002027451,登記記録の閉鎖等,0,2024-01-17,2024-01-17,有限会社松尾保険事務所,,有限会社,福岡県,福岡市中央区,薬院４丁目８番２８号,,40,133,8100022,,,2024-01-17,登記官による閉鎖,,,2015-10-05,1,,,,,,0
2820,8290002027716,登記記録の閉鎖等,0,2024-01-17,2024-01-17,原田電器有限会社,,有限会社,福岡県,福岡市中央区,平丘町９５番地の３,,40,133,8100017,,,2024-01-17,登記官による閉鎖,,,2019-01-15,1,,,,,ハラダデンキ,0
2821,8290002039026,登記記録の閉鎖等,0,2024-01-17,2024-01-17,有限会社クリーニングのつつい,,有限会社,福岡県,大野城市,筒井１丁目７番１３号,,40,219,8160931,,,2024-01-17,登記官による閉鎖,,,2015-10-05,1,,,,,,0
2822,8290002040999,登記記録の閉鎖等,0,2024-01-17,2024-01-17,有限会社ナカイ,,有限会社,福岡県,春日市,若葉台西２丁目５番地,,40,218,8160823,,,2024-01-17,登記官による閉鎖,,,2015-10-05,1,,,,,,0
2824,8290005010834,登記記録の閉鎖等,0,2024-01-17,2024-01-17,ＮＰＯ法人いつつ星,,その他の設立登記法人,福岡県,久留米市,高良内町３６００－３,,40,203,8390852,,,2024-01-17,登記官による閉鎖,,,2015-10-05,1,,,,,,0
2825,8290005012392,登記記録の閉鎖等,0,2024-01-17,2024-01-17,西商産業協同組合,,その他の設立登記法人,福岡県,大牟田市,大字吉野１６７５番地の１,,40,202,8370904,,,2024-01-17,登記官による閉鎖,,,2015-10-05,1,,,,,,0
2826,8290801002381,登記記録の閉鎖等,0,2024-01-17,2024-01-17,株式会社地球の海,,株式会社,福岡県,北九州市小倉南区,大字朽網３９１４番４９,,40,107,8000231,,,2024-01-17,登記官による閉鎖,,,2015-10-05,1,,,,,,0
2827,8290801013156,登記記録の閉鎖等,0,2024-01-17,2024-01-17,半導体設計技術研究所株式会社,,株式会社,福岡県,北九州市若松区,ひびきの１番１３－１０１号,,40,103,8080135,,,2024-01-17,登記官による閉鎖,,,2015-10-05,1,,,,,,0
2828,8290801015714,登記記録の閉鎖等,0,2024-01-17,2024-01-17,株式会社椎田ハウジング,,株式会社,福岡県,行橋市,中央２丁目５番９号,,40,213,8240005,,,2024-01-17,登記官による閉鎖,,,2018-10-31,1,,,,,シイダハウジング,0
2829,8290801018980,登記記録の閉鎖等,0,2024-01-17,2024-01-17,株式会社浩陽,,株式会社,福岡県,行橋市,西宮市２丁目２番３６‐３０３号,,40,213,8240031,,,2024-01-17,登記官による閉鎖,,,2015-10-05,1,,,,,,0
2830,8290801024797,登記記録の閉鎖等,0,2024-01-17,2024-01-17,株式会社スパンキー・ケイ,,株式会社,福岡県,北九州市小倉北区,黒住町１１番７号,,40,106,8020056,,,2024-01-17,登記官による閉鎖,,,2018-08-06,1,,,,,スパンキーケイ,0
2833,8290802005499,登記記録の閉鎖等,0,2024-01-17,2024-01-17,有限会社ファーストエンジニアリング,,有限会社,福岡県,北九州市小倉南区,下城野１丁目９番１８号,,40,107,8020804,,,2024-01-17,登記官による閉鎖,,,2015-10-05,1,,,,,,0
2834,8290802016505,登記記録の閉鎖等,0,2024-01-17,2024-01-17,有限会社ビクトリー,,有限会社,福岡県,遠賀郡芦屋町,緑ケ丘１番１－１０２号,,40,381,8070131,,,2024-01-17,登記官による閉鎖,,,2015-10-05,1,,,,,,0
2835,8290803000912,登記記録の閉鎖等,0,2024-01-17,2024-01-17,合同会社結,,合同会社,福岡県,北九州市門司区,錦町１２番８号,,40,101,8010862,,,2024-01-17,登記官による閉鎖,,,2015-10-05,1,,,,,,0
2837,8290805007071,登記記録の閉鎖等,0,2024-01-17,2024-01-17,特定非営利活動法人ミヤコ・グローバルグリーン,,その他の設立登記法人,福岡県,京都郡苅田町,大字馬場４８６番地の５,,40,621,8000362,,,2024-01-17,登記官による閉鎖,,,2015-10-05,1,,,,,,0
2838,8290805007138,登記記録の閉鎖等,0,2024-01-17,2024-01-17,農事組合法人豊国農園,,その他の設立登記法人,福岡県,豊前市,大字薬師寺４６５番地２,,40,214,8280056,,,2024-01-17,登記官による閉鎖,,,2015-10-05,1,,,,,,0
2839,8290805007187,登記記録の閉鎖等,0,2024-01-17,2024-01-17,財団法人風治八幡神社奉賛会,,その他の設立登記法人,福岡県,田川市,大字伊田２９８６番地,,40,206,8250002,,,2024-01-17,登記官による閉鎖,,,2015-10-05,1,,,,,,0
2861,8370101001571,登記記録の閉鎖等,0,2024-01-17,2024-01-11,白石砂利砕石株式会社,,株式会社,宮城県,白石市,東町２丁目２番１０号,,04,206,9890225,,,2024-01-11,清算の結了等,,,2015-10-05,1,,,,,シロイシジャリサイセキ,0
2863,8380001013996,登記記録の閉鎖等,0,2024-01-17,2024-01-15,モアハウジングいわき株式会社,,株式会社,福島県,いわき市,鹿島町久保１丁目５番地の１３,,07,204,9718144,,,2024-01-15,登記官による閉鎖,,,2015-10-05,1,,,,,,0
2864,8380001016719,登記記録の閉鎖等,0,2024-01-17,2024-01-15,松本建設株式会社,,株式会社,福島県,双葉郡葛尾村,大字葛尾字中平１１番地,,07,548,9791601,,,2024-01-15,登記官による閉鎖,,,2015-10-05,1,,,,,,0
2865,8380001017898,登記記録の閉鎖等,0,2024-01-17,2024-01-15,株式会社宮崎本店,,株式会社,福島県,会津若松市,本町９番１３号,,07,202,9650862,,,2024-01-15,登記官による閉鎖,,,2015-10-05,1,,,,,,0
2866,8380001022196,登記記録の閉鎖等,0,2024-01-17,2024-01-15,東日本商事株式会社,,株式会社,福島県,郡山市,富久山町八山田字向作５６番地３,,07,203,9638051,,,2024-01-15,登記官による閉鎖,,,2015-10-05,1,,,,,ヒガシニホンショウジ,0
2868,8380002023557,登記記録の閉鎖等,0,2024-01-17,2024-01-15,有限会社後藤酒店,,有限会社,福島県,いわき市,常磐湯本町三函２４８番地,,07,204,9728321,,,2024-01-15,登記官による閉鎖,,,2015-10-05,1,,,,,,0
2869,8380002027005,登記記録の閉鎖等,0,2024-01-17,2024-01-15,有限会社環,,有限会社,福島県,いわき市,鹿島町上蔵持字畑中１０番地,,07,204,9718142,,,2024-01-15,登記官による閉鎖,,,2015-10-05,1,,,,,,0
2870,8380003001363,登記記録の閉鎖等,0,2024-01-17,2024-01-15,昭和合成合資会社,,合資会社,福島県,いわき市,川部町赤坂１０７番地,,07,204,9790153,,,2024-01-15,登記官による閉鎖,,,2015-10-05,1,,,,,,0
2872,8380005005791,登記記録の閉鎖等,0,2024-01-17,2024-01-15,医療法人柏屋歯科医院,,その他の設立登記法人,福島県,いわき市,久之浜町久之浜字北町６５番地,,07,204,9790333,,,2024-01-15,登記官による閉鎖,,,2015-10-05,1,,,,,,0
2873,8380005008662,登記記録の閉鎖等,0,2024-01-17,2024-01-15,税理士法人島尾会計事務所,,その他の設立登記法人,福島県,会津若松市,東千石１丁目７番７号,,07,202,9650818,,,2024-01-15,登記官による閉鎖,,,2015-10-05,1,,,,,,0
2875,8390002006346,登記記録の閉鎖等,0,2024-01-17,2024-01-15,有限会社マルコヤマサ商事,,有限会社,山形県,上山市,宮脇字下川原７１２番地３,,06,207,9993201,,,2024-01-15,清算の結了等,,,2015-10-05,1,,,,,マルコヤマサショウジ,0
2879,8410003000428,登記記録の閉鎖等,0,2024-01-17,2024-01-10,合資会社ひばり商会,,合資会社,秋田県,秋田市,川元山下町１番１１号ライフステージ山王８０４号,,05,201,0100931,,,2024-01-10,清算の結了等,,,2015-10-05,1,,,,,ヒバリショウカイ,0
2881,8430001030978,登記記録の閉鎖等,0,2024-01-17,2023-12-27,株式会社ラグノオ,,株式会社,北海道,札幌市白石区,南郷通３丁目北２番５号,,01,104,0030023,,,2023-12-27,清算の結了等,,,2015-10-05,1,,,,,ラグノオ,0
2884,8430002058481,登記記録の閉鎖等,0,2024-01-17,2024-01-04,有限会社くぼた,,有限会社,北海道,白老郡白老町,大町２丁目１番１８号,,01,578,0590905,,,2024-01-04,清算の結了等,,,2015-10-05,1,,,,,クボタ,0
2885,8430003013931,登記記録の閉鎖等,0,2024-01-17,2024-01-09,合同会社レガリア,,合同会社,北海道,札幌市中央区,南三条東１丁目１番３号,,01,101,0600053,,,2024-01-09,清算の結了等,,,2022-05-20,1,,,,,レガリア,0
2888,8450002008864,登記記録の閉鎖等,0,2024-01-17,2024-01-15,有限会社アイウィッシュ,,有限会社,北海道,旭川市,宮前一条４丁目１４番５－１１０２号ロジェパークタワー北彩都１１０２号,,01,204,0788391,,,2024-01-15,清算の結了等,,,2015-10-05,1,,,,,アイウィッシュ,0
2890,8460101003971,登記記録の閉鎖等,0,2024-01-17,2024-01-15,セカンドディスカバリ株式会社,,株式会社,北海道,帯広市,西十六条北３丁目１番８号,,01,207,0800046,,,2024-01-15,清算の結了等,,,2015-10-05,1,,,,,セカンドディスカバリ,0
2891,8460101006396,登記記録の閉鎖等,0,2024-01-17,2024-01-12,山洋自販株式会社,,株式会社,北海道,帯広市,西十八条北１丁目１７番地５５,,01,207,0800048,,,2024-01-12,清算の結了等,,,2018-06-19,1,,,,,サンヨウジハン,0
2898,9010001123096,登記記録の閉鎖等,0,2024-01-17,2024-01-10,株式会社アドバンス,,株式会社,東京都,江東区,木場３丁目１８番２－２２０６号,,13,108,1350042,,,2024-01-10,清算の結了等,,,2015-10-05,1,,,,,アドバンス,0
2909,9010003026727,登記記録の閉鎖等,0,2024-01-17,2024-01-09,合同会社ｄｉｇｇｔａｇ,,合同会社,東京都,中央区,日本橋２丁目１番３号アーバンネット日本橋二丁目ビル１０階,,13,102,1030027,,,2024-01-09,清算の結了等,,,2018-01-11,1,,,,,ディグタグ,0
2910,9010003033260,登記記録の閉鎖等,0,2024-01-17,2024-01-09,合同会社Ｒｏｂｏｂｌｏｑ　ＪＡＰＡＮ,,合同会社,東京都,中央区,日本橋２丁目１番３号,,13,102,1030027,,,2024-01-09,清算の結了等,,,2020-10-14,1,,,,,ロボブロックジャパン,0
2916,9010401083857,登記記録の閉鎖等,0,2024-01-17,2024-01-09,株式会社ワークスタイルラボ,,株式会社,東京都,渋谷区,渋谷３丁目１０番１３号,,13,113,1500002,,,2024-01-09,合併による解散等,6021001024617,令和６年１月１日東京都渋谷区渋谷三丁目１０番１３号ランサーズ株式会社（6021001024617）に合併し解散,2015-10-05,1,,,,,ワークスタイルラボ,0
2917,9010401104308,登記記録の閉鎖等,0,2024-01-17,2024-01-04,株式会社ＩＳＩＤビジネスコンサルティング,,株式会社,東京都,港区,港南２丁目１７番１号,,13,103,1080075,,,2024-01-04,合併による解散等,7010401053829,令和６年１月１日東京都港区港南二丁目１７番１号株式会社電通総研（7010401053829）に合併し解散,2015-10-05,1,,,,,アイエスアイディビジネスコンサルティング,0
2954,9011001114845,登記記録の閉鎖等,0,2024-01-17,2024-01-04,メアリーシステム株式会社,,株式会社,東京都,渋谷区,渋谷３丁目１０番１９号渋谷ＭＪ－ＩＩビル６階,00109224,13,113,1500002,,,2024-01-04,合併による解散等,7010701024595,令和５年１２月３１日東京都渋谷区渋谷三丁目１０番１９号渋谷ＭＪ－ＩＩビル６階グルーコードテクノロジーズ株式会社（7010701024595）に合併し解散,2017-02-10,1,,,,,メアリーシステム,0
2975,9011401004588,登記記録の閉鎖等,0,2024-01-17,2024-01-16,東洋建設株式会社,,株式会社,東京都,豊島区,池袋本町２丁目３６番２号,,13,116,1700011,,,2024-01-16,登記官による閉鎖,,,2015-10-05,1,,,,,,0
2982,9011502008991,登記記録の閉鎖等,0,2024-01-17,2024-01-04,有限会社清水大一商店,,有限会社,東京都,荒川区,町屋４丁目３６番１６号,,13,118,1160001,,,2024-01-04,清算の結了等,,,2015-10-05,1,,,,,シミズダイイチショウテン,0
2985,9011801029771,登記記録の閉鎖等,0,2024-01-17,2024-01-15,株式会社理鉄,,株式会社,東京都,葛飾区,高砂１丁目１２番５号,,13,122,1250054,,,2024-01-15,清算の結了等,,,2015-10-05,1,,,,,,0
2986,9012701013634,登記記録の閉鎖等,0,2024-01-17,2024-01-16,株式会社フォレスト,,株式会社,東京都,豊島区,上池袋３丁目３２番４号,,13,116,1700012,,,2024-01-16,登記官による閉鎖,,,2016-03-22,1,,,,,,0
2989,9013301004858,登記記録の閉鎖等,0,2024-01-17,2024-01-09,ジィー・シー・エー株式会社,,株式会社,埼玉県,越谷市,大字大泊５６９番地７,,11,222,3430044,,,2024-01-09,清算の結了等,,,2015-10-05,1,,,,,ジィーシーエー,0
2990,9013302009724,登記記録の閉鎖等,0,2024-01-17,2024-01-16,有限会社ミンミン,,有限会社,東京都,豊島区,東池袋１丁目４０番１０号,,13,116,1700013,,,2024-01-16,登記官による閉鎖,,,2015-10-05,1,,,,,,0
2991,9013302017702,登記記録の閉鎖等,0,2024-01-17,2024-01-16,有限会社セリエヘッドオフィス,,有限会社,東京都,豊島区,池袋２丁目３１番１２号,,13,116,1710014,,,2024-01-16,登記官による閉鎖,,,2015-10-05,1,,,,,,0
2992,9013305000960,登記記録の閉鎖等,0,2024-01-17,2024-01-16,特定非営利活動法人外国人総合支援協会,,その他の設立登記法人,東京都,豊島区,東池袋１丁目３２番５号大熊ビル４階,,13,116,1700013,,,2024-01-16,登記官による閉鎖,,,2015-10-05,1,,,,,,0
3010,9021002068057,登記記録の閉鎖等,0,2024-01-17,2024-01-15,有限会社大竹電気,,有限会社,神奈川県,横須賀市,芦名１丁目１５番１４号,,14,201,2400104,,,2024-01-15,清算の結了等,,,2015-10-05,1,,,,,オオタケデンキ,0
3024,9030003015991,登記記録の閉鎖等,0,2024-01-17,2024-01-09,アドベンチャー・オブ・トムソーヤ合同会社,,合同会社,埼玉県,吉川市,美南２丁目２０番地２１,,11,243,3420038,,,2024-01-09,清算の結了等,,,2020-10-06,1,,,,,アドベンチャーオブトムソーヤ,0
3037,9040002088781,登記記録の閉鎖等,0,2024-01-17,2024-01-04,有限会社イーエムジェイ,,有限会社,千葉県,柏市,永楽台３丁目１１番１５号,,12,217,2770086,,,2024-01-04,清算の結了等,,,2015-10-05,1,,,,,イーエムジェイ,0
3044,9060001000472,登記記録の閉鎖等,0,2024-01-17,2024-01-12,イカリ消毒宇都宮株式会社,,株式会社,栃木県,宇都宮市,西川田３丁目１１番７号,,09,201,3210152,,,2024-01-12,合併による解散等,8011101001721,令和６年１月１日東京都渋谷区千駄ケ谷五丁目２７番１１号イカリ消毒株式会社（8011101001721）に合併し解散,2015-10-05,1,,,,,イカリショウドクウツノミヤ,0
3074,9090002014411,登記記録の閉鎖等,0,2024-01-17,2024-01-15,有限会社石川住宅資材,,有限会社,山梨県,北杜市,大泉町西井出８５３７番地３,,19,209,4091501,,,2024-01-15,清算の結了等,,,2015-10-05,1,,,,,,0
3086,9120001236374,登記記録の閉鎖等,0,2024-01-17,2024-01-09,株式会社ＣｈａＲａｂｉｔ,,株式会社,大阪府,大阪市北区,芝田２丁目８番１１号共栄ビル３Ｆ,,27,127,5300012,,,2024-01-09,清算の結了等,,,2021-04-01,1,"ChaRabit Co., Ltd.",Osaka,"2-8-11-3F,Shibata, Kita ku Osaka shi",,キャラビット,0
3097,9120003021774,登記記録の閉鎖等,0,2024-01-17,2024-01-09,合同会社Ｄａｉｇａｓ不動産ファンド第１号,,合同会社,大阪府,大阪市中央区,高麗橋４丁目３番７号淀屋橋総合会計内,,27,128,5410043,,,2024-01-09,清算の結了等,,,2022-06-01,1,,,,,ダイガスフドウサンファンドダイイチゴウ,0
3101,9120101042045,登記記録の閉鎖等,0,2024-01-17,2024-01-15,横田起毛株式会社,,株式会社,大阪府,和泉市,芦部町９７番地の１,00032505,27,219,5940053,,,2024-01-15,清算の結了等,,,2015-10-05,1,,,,,ヨコタキモウ,0
3116,9140001109165,登記記録の閉鎖等,0,2024-01-17,2024-01-11,株式会社ＡＩ・リアライズ,,株式会社,兵庫県,神戸市中央区,生田町１丁目２番１８－２０３,,28,110,6510092,,,2024-01-11,清算の結了等,,,2018-02-19,1,,,,,,0
3117,9140001115642,登記記録の閉鎖等,0,2024-01-17,2024-01-11,ＦＶ神戸株式会社,,株式会社,兵庫県,神戸市西区,押部谷町栄６０６番地,,28,111,6512211,,,2024-01-11,清算の結了等,,,2019-11-26,1,,,,,エフブイコウベ,0
3142,9180302001629,登記記録の閉鎖等,0,2024-01-17,2024-01-09,有限会社時々輪新聞店,,有限会社,愛知県,岡崎市,岩津町字申堂５３番地,,23,202,4442144,,,2024-01-09,清算の結了等,,,2015-10-05,1,,,,,ジジワシンブンテン,0
3148,9190001011671,登記記録の閉鎖等,0,2024-01-17,2024-01-15,株式会社スタートアップ,,株式会社,三重県,伊勢市,小俣町元町１８３５番地１,,24,203,5190503,,,2024-01-15,清算の結了等,,,2015-10-05,1,,,,,スタートアップ,0
3165,9260001006326,登記記録の閉鎖等,0,2024-01-17,2024-01-15,株式会社丸高繊維,,株式会社,岡山県,岡山市北区,問屋町２０番地１０３,,33,101,7000977,,,2024-01-15,清算の結了等,,,2015-10-05,1,,,,,マルタカセンイ,0
3166,9260001014972,登記記録の閉鎖等,0,2024-01-17,2024-01-16,株式会社三宅清一商店,,株式会社,岡山県,倉敷市,西阿知町６５９番地,,33,202,7100807,,,2024-01-16,清算の結了等,,,2015-10-05,1,,,,,ミヤケセイイチショウテン,0
3168,9290001002140,登記記録の閉鎖等,0,2024-01-17,2024-01-17,株式会社福助うどん,,株式会社,福岡県,福岡市南区,野多目２丁目１７番２号,,40,134,8111347,,,2024-01-17,登記官による閉鎖,,,2015-10-05,1,,,,,,0
3169,9290001013294,登記記録の閉鎖等,0,2024-01-17,2024-01-17,三景広宣株式会社,,株式会社,福岡県,福岡市博多区,博多駅東２丁目８番２２号,,40,132,8120013,,,2024-01-17,登記官による閉鎖,,,2015-10-05,1,,,,,,0
3170,9290001022279,登記記録の閉鎖等,0,2024-01-17,2024-01-17,株式会社フクヨウ,,株式会社,福岡県,福岡市早良区,内野８丁目１７番３１号,,40,137,8111123,,,2024-01-17,登記官による閉鎖,,,2015-10-05,1,,,,,,0
3172,9290001026627,登記記録の閉鎖等,0,2024-01-17,2024-01-17,株式会社八光,,株式会社,福岡県,福岡市南区,塩原１丁目８番６０８号,,40,134,8150032,,,2024-01-17,登記官による閉鎖,,,2015-10-05,1,,,,,,0
3173,9290001033771,登記記録の閉鎖等,0,2024-01-17,2024-01-17,ナウネス株式会社,,株式会社,福岡県,福岡市中央区,薬院１丁目１５番１－７０１号,,40,133,8100022,,,2024-01-17,登記官による閉鎖,,,2015-10-05,1,,,,,,0
3174,9290001035883,登記記録の閉鎖等,0,2024-01-17,2024-01-17,株式会社ＣＲＥレジデンシャル,,株式会社,福岡県,福岡市中央区,渡辺通４丁目１番３６号,,40,133,8100004,,,2024-01-17,登記官による閉鎖,,,2015-10-05,1,,,,,,0
3175,9290001035958,登記記録の閉鎖等,0,2024-01-17,2024-01-17,株式会社センチュリー開発,,株式会社,福岡県,福岡市博多区,博多駅東２丁目１８番２０号,,40,132,8120013,,,2024-01-17,登記官による閉鎖,,,2015-10-05,1,,,,,,0
3176,9290001038127,登記記録の閉鎖等,0,2024-01-17,2024-01-17,株式会社エガミ,,株式会社,福岡県,糟屋郡粕屋町,大字酒殿１１２２番地の５,,40,349,8112303,,,2024-01-17,登記官による閉鎖,,,2015-10-05,1,,,,,,0
3177,9290001047986,登記記録の閉鎖等,0,2024-01-17,2024-01-17,株式会社八女マッサージ,,株式会社,福岡県,八女市,馬場３２２番地４,,40,210,8340023,,,2024-01-17,登記官による閉鎖,,,2015-10-05,1,,,,,,0
3178,9290001051492,登記記録の閉鎖等,0,2024-01-17,2024-01-17,株式会社三真,,株式会社,福岡県,久留米市,諏訪野町２７０４番地の２,,40,203,8300037,,,2024-01-17,登記官による閉鎖,,,2015-10-05,1,,,,,,0
3179,9290001057168,登記記録の閉鎖等,0,2024-01-17,2024-01-17,株式会社Ｙ企画,,株式会社,福岡県,福岡市中央区,笹丘１丁目１１番１１号,,40,133,8100034,,,2024-01-17,登記官による閉鎖,,,2015-10-05,1,,,,,,0
3182,9290002002180,登記記録の閉鎖等,0,2024-01-17,2024-01-17,有限会社サンコーフアクトリー,,有限会社,福岡県,福岡市南区,大楠３丁目９番２６号,,40,134,8150082,,,2024-01-17,登記官による閉鎖,,,2015-10-05,1,,,,,,0
3183,9290002011470,登記記録の閉鎖等,0,2024-01-17,2024-01-17,有限会社セラドン・アート,,有限会社,福岡県,福岡市東区,奈多団地２３番１０５号,,40,131,8110205,,,2024-01-17,登記官による閉鎖,,,2015-10-05,1,,,,,,0
3184,9290002013756,登記記録の閉鎖等,0,2024-01-17,2024-01-17,有限会社リバーヒルズコーポレーション,,有限会社,福岡県,福岡市中央区,薬院３丁目１１番２２号,,40,133,8100022,,,2024-01-17,登記官による閉鎖,,,2015-10-05,1,,,,,,0
3185,9290002018904,登記記録の閉鎖等,0,2024-01-17,2024-01-17,有限会社利三電業,,有限会社,福岡県,那珂川市,片縄北７丁目２番１５号,,40,231,8111203,,,2024-01-17,登記官による閉鎖,,,2015-10-05,1,,,,,,0
3186,9290002019282,登記記録の閉鎖等,0,2024-01-17,2024-01-12,有限会社シーエス九州,,有限会社,福岡県,福岡市南区,塩原３丁目１６番３０号,,40,134,8150032,,,2024-01-12,清算の結了等,,,2015-10-05,1,,,,,,0
3187,9290002039132,登記記録の閉鎖等,0,2024-01-17,2024-01-17,有限会社コジマ住設,,有限会社,福岡県,大野城市,下大利２丁目１５番２６号,,40,219,8160952,,,2024-01-17,登記官による閉鎖,,,2015-10-05,1,,,,,,0
3188,9290002046723,登記記録の閉鎖等,0,2024-01-17,2024-01-17,有限会社みきや,,有限会社,福岡県,飯塚市,花瀬３０９番地２７,,40,205,8200045,,,2024-01-17,登記官による閉鎖,,,2015-10-05,1,,,,,,0
3189,9290002049718,登記記録の閉鎖等,0,2024-01-17,2024-01-17,有限会社ハートフェルト,,有限会社,福岡県,久留米市,六ツ門町１２番地の１４,,40,203,8300031,,,2024-01-17,登記官による閉鎖,,,2015-10-05,1,,,,,,0
3190,9290002050080,登記記録の閉鎖等,0,2024-01-17,2024-01-17,有限会社丸福観光,,有限会社,福岡県,久留米市,善導寺町木塚４３３番地の１,,40,203,8390822,,,2024-01-17,登記官による閉鎖,,,2015-10-05,1,,,,,,0
3191,9290002051847,登記記録の閉鎖等,0,2024-01-17,2024-01-17,有限会社ふたば書店,,有限会社,福岡県,小郡市,稲吉１３５０番地の１０８,,40,216,8380128,,,2024-01-17,登記官による閉鎖,,,2015-10-05,1,,,,,,0
3192,9290002055253,登記記録の閉鎖等,0,2024-01-17,2024-01-17,有限会社皿立の寿宝,,有限会社,福岡県,大牟田市,白金町６９番地の６,,40,202,8360052,,,2024-01-17,登記官による閉鎖,,,2015-10-05,1,,,,,,0
3193,9290003012609,登記記録の閉鎖等,0,2024-01-17,2024-01-15,合同会社ＴＴ,,合同会社,福岡県,福岡市中央区,清川２丁目６－１８－２Ｆ,,40,133,8100005,,,2024-01-15,清算の結了等,,,2022-06-09,1,,,,,ティーティー,0
3194,9290005003275,登記記録の閉鎖等,0,2024-01-17,2024-01-17,特定非営利活動法人西日本環境研究会,,その他の設立登記法人,福岡県,福岡市博多区,博多駅東２丁目９番１号,,40,132,8120013,,,2024-01-17,登記官による閉鎖,,,2015-10-05,1,,,,,,0
3195,9290005006014,登記記録の閉鎖等,0,2024-01-17,2024-01-17,特定非営利活動法人にぎわいドォーット・コム,,その他の設立登記法人,福岡県,福津市,宮司元町２番３号,,40,224,8113309,,,2024-01-17,登記官による閉鎖,,,2015-10-05,1,,,,,,0
3196,9290005008547,登記記録の閉鎖等,0,2024-01-17,2024-01-17,特定非営利活動法人九州和太鼓振興会,,その他の設立登記法人,福岡県,飯塚市,花瀬１５３番地１リングホール内,,40,205,8200045,,,2024-01-17,登記官による閉鎖,,,2015-10-05,1,,,,,,0
3197,9290801007842,登記記録の閉鎖等,0,2024-01-17,2024-01-17,株式会社エムスタイル,,株式会社,福岡県,北九州市小倉南区,上吉田２丁目１８番２号,,40,107,8000201,,,2024-01-17,登記官による閉鎖,,,2015-10-05,1,,,,,,0
3198,9290801008782,登記記録の閉鎖等,0,2024-01-17,2024-01-17,株式会社井口工建,,株式会社,福岡県,北九州市小倉南区,湯川新町２丁目１１番３５号,,40,107,8000256,,,2024-01-17,登記官による閉鎖,,,2015-10-05,1,,,,,,0
3199,9290801008997,登記記録の閉鎖等,0,2024-01-17,2024-01-17,株式会社広本,,株式会社,福岡県,北九州市小倉北区,清水２丁目１１番１１号,,40,106,8030841,,,2024-01-17,登記官による閉鎖,,,2015-10-05,1,,,,,,0
3200,9290801015762,登記記録の閉鎖等,0,2024-01-17,2024-01-17,株式会社Ｂｅ　ｇｒａｓｐ,,株式会社,福岡県,築上郡築上町,大字椎田９７７番地,,40,647,8290301,,,2024-01-17,登記官による閉鎖,,,2015-10-05,1,,,,,,0
3201,9290801016307,登記記録の閉鎖等,0,2024-01-17,2024-01-17,九州こだま株式会社,,株式会社,福岡県,田川市,伊田町３番２５号,,40,206,8250015,,,2024-01-17,登記官による閉鎖,,,2015-10-05,1,,,,,,0
3202,9290802006562,登記記録の閉鎖等,0,2024-01-17,2024-01-17,有限会社八波測量器械店,,有限会社,福岡県,北九州市小倉北区,清水１丁目１２番１８号,,40,106,8030841,,,2024-01-17,登記官による閉鎖,,,2015-10-05,1,,,,,,0
3203,9290802012890,登記記録の閉鎖等,0,2024-01-17,2024-01-17,有限会社花邑,,有限会社,福岡県,北九州市八幡東区,桃園４丁目３番１５号,,40,108,8050068,,,2024-01-17,登記官による閉鎖,,,2015-10-05,1,,,,,,0
3204,9290802015084,登記記録の閉鎖等,0,2024-01-17,2024-01-17,有限会社ビーム福岡,,有限会社,福岡県,北九州市八幡西区,穴生４丁目６番１５号,,40,109,8060049,,,2024-01-17,登記官による閉鎖,,,2015-10-05,1,,,,,,0
3205,9290802021818,登記記録の閉鎖等,0,2024-01-17,2024-01-17,有限会社大和興業,,有限会社,福岡県,豊前市,大字宇島字広小路７６番地の２９,,40,214,8280022,,,2024-01-17,登記官による閉鎖,,,2015-10-05,1,,,,,,0
3206,9290802025513,登記記録の閉鎖等,0,2024-01-17,2024-01-17,有限会社英久,,有限会社,福岡県,田川郡福智町,伊方２０１６番地の２,,40,610,8221211,,,2024-01-17,登記官による閉鎖,,,2015-10-05,1,,,,,,0
3207,9290805007186,登記記録の閉鎖等,0,2024-01-17,2024-01-17,財団法人白鳥保育園,,その他の設立登記法人,福岡県,田川市,大字猪国１５７３番地の５,,40,206,8260045,,,2024-01-17,登記官による閉鎖,,,2015-10-05,1,,,,,,0
3208,9290805008085,登記記録の閉鎖等,0,2024-01-17,2024-01-17,北九州市交通局新労働組合,,その他の設立登記法人,福岡県,北九州市八幡西区,三ツ頭２丁目２５番１号,,40,109,8070878,,,2024-01-17,登記官による閉鎖,,,2015-10-05,1,,,,,,0
3220,9380001001190,登記記録の閉鎖等,0,2024-01-17,2024-01-15,長谷川商事株式会社,,株式会社,福島県,福島市,大町２番５号,,07,201,9608041,,,2024-01-15,登記官による閉鎖,,,2015-10-26,1,,,,,,0
3221,9380001013590,登記記録の閉鎖等,0,2024-01-17,2024-01-15,日本都市開発株式会社,,株式会社,福島県,いわき市,常磐下湯長谷町道下２９番地の５,,07,204,9728317,,,2024-01-15,登記官による閉鎖,,,2015-10-05,1,,,,,,0
3222,9380001022765,登記記録の閉鎖等,0,2024-01-17,2024-01-15,ブル・ヴィー株式会社,,株式会社,福島県,南相馬市,原町区北原字境堀１８８番地,,07,212,9750037,,,2024-01-15,登記官による閉鎖,,,2015-10-05,1,,,,,,0
3223,9380001029372,登記記録の閉鎖等,0,2024-01-17,2024-01-15,株式会社山口石油店,,株式会社,福島県,郡山市,安積町荒井字南千保１８番地,,07,203,9630111,,,2024-01-15,登記官による閉鎖,,,2018-08-23,1,,,,,ヤマグチセキユテン,0
3226,9380002019678,登記記録の閉鎖等,0,2024-01-17,2024-01-15,有限会社大槻商事,,有限会社,福島県,須賀川市,古屋敷５６番地,,07,207,9620854,,,2024-01-15,登記官による閉鎖,,,2015-10-05,1,,,,,,0
3228,9380005000222,登記記録の閉鎖等,0,2024-01-17,2024-01-15,財団法人福島県労農会舘,,その他の設立登記法人,福島県,福島市,宮下町１番２０号,,07,201,9608011,,,2024-01-15,登記官による閉鎖,,,2015-10-05,1,,,,,,0
3229,9380005004289,登記記録の閉鎖等,0,2024-01-17,2024-01-15,財団法人阿武隈育英会,,その他の設立登記法人,福島県,安達郡大玉村,玉井字吉丸山１０２番地,,07,322,9691302,,,2024-01-15,登記官による閉鎖,,,2015-10-05,1,,,,,,0
3238,9430003001134,登記記録の閉鎖等,0,2024-01-17,2024-01-10,合資会社イムニィ札幌,,合資会社,北海道,札幌市中央区,北三条東１０丁目１２１プレミストタワーズ札幌苗穂ブライトゲートＢ８０３,,01,101,0600033,,,2024-01-10,清算の結了等,,,2015-10-05,1,,,,,イムニィサッポロ,0
