sequenceNumber,corporateNumber,process,correct,updateDate,changeDate,name,nameImageId,kind,prefectureName,cityName,streetNumber,addressImageId,prefectureCode,cityCode,postCode,addressOutside,addressOutsideImageId,closeDate,closeCause,successorCorporateNumber,changeCause,assignmentDate,latest,enName,enPrefectureName,enCityName,enAddressOutside,furigana,hihyoji
37,1010801023676,登記記録の閉鎖等,0,2024-12-23,2024-12-12,株式会社日本武蔵,,株式会社,東京都,大田区,東糀谷１丁目８－８－２０３号,,13,111,1440033,,,2024-12-12,清算の結了等,,,2015-10-05,1,,,,,ニホンムサシ,0
53,1011101027376,登記記録の閉鎖等,0,2024-12-23,2024-12-13,株式会社ブライダル・ノア,,株式会社,東京都,新宿区,四谷三栄町１０番１３号,,13,104,1600008,,,2024-12-13,清算の結了等,,,2015-10-05,1,,,,,ブライダルノア,0
58,1011105003720,登記記録の閉鎖等,0,2024-12-23,2024-12-12,特定非営利活動法人芸術家のくすり箱,,その他の設立登記法人,東京都,品川区,東五反田５丁目２７番３号第２野村ビル,,13,109,1410022,,,2024-12-12,清算の結了等,,,2015-10-05,1,,,,,ゲイジュツカノクスリバコ,0
63,1011302004059,登記記録の閉鎖等,0,2024-12-23,2024-12-18,有限会社山和商事,,有限会社,東京都,杉並区,高円寺南３丁目３７番１９号,,13,115,1660003,,,2024-12-18,清算の結了等,,,2015-10-05,1,,,,,サンワショウジ,0
75,1012802006825,登記記録の閉鎖等,0,2024-12-23,2024-12-16,土蔵興業有限会社,,有限会社,東京都,東大和市,奈良橋３丁目５４８番地の４,,13,220,2070031,,,2024-12-16,清算の結了等,,,2015-10-05,1,,,,,ツチクラコウギョウ,0
77,1020001101570,登記記録の閉鎖等,0,2024-12-23,2024-12-10,株式会社アイ・エストコンサルティング,,株式会社,神奈川県,川崎市高津区,新作６丁目３番１７号,,14,134,2130014,,,2024-12-10,清算の結了等,,,2015-10-05,1,,,,,アイエストコンサルティング,0
83,1020002017163,登記記録の閉鎖等,0,2024-12-23,2024-12-13,有限会社ナガタ印刷所,,有限会社,神奈川県,横浜市西区,西戸部町２丁目１６８番地,,14,103,2200046,,,2024-12-13,清算の結了等,,,2015-10-05,1,,,,,ナガタインサツジョ,0
87,1021001012114,登記記録の閉鎖等,0,2024-12-23,2024-12-19,相模原運送株式会社,,株式会社,神奈川県,相模原市中央区,上溝４４２７番地,,14,152,2520243,,,2024-12-19,清算の結了等,,,2015-10-05,1,,,,,サガミハラウンソウ,0
91,1021002061259,登記記録の閉鎖等,0,2024-12-23,2024-12-19,有限会社モアグリーン,,有限会社,神奈川県,平塚市,土屋２４０番地,,14,203,2591205,,,2024-12-19,清算の結了等,,,2015-10-05,1,,,,,モアグリーン,0
93,1030001040207,登記記録の閉鎖等,0,2024-12-23,2024-12-18,株式会社オカムラ,,株式会社,埼玉県,草加市,谷塚上町７３６番地５,,11,221,3400024,,,2024-12-18,清算の結了等,,,2015-10-05,1,,,,,オカムラ,0
94,1030001077942,登記記録の閉鎖等,0,2024-12-23,2024-12-18,株式会社ラ・ヴァール,,株式会社,埼玉県,川口市,東領家２丁目５番１号,,11,203,3320003,,,2024-12-18,清算の結了等,,,2015-10-05,1,,,,,ラヴァール,0
97,1030002073148,登記記録の閉鎖等,0,2024-12-23,2024-12-17,有限会社ケーエム,,有限会社,埼玉県,川越市,大字大中居４３９番地５,,11,201,3500021,,,2024-12-17,清算の結了等,,,2015-10-05,1,,,,,ケーエム,0
123,1100001003288,登記記録の閉鎖等,0,2024-12-23,2024-12-19,株式会社丸元,,株式会社,青森県,八戸市,小中野３丁目１６番６号,,02,203,0310802,,,2024-12-19,清算の結了等,,,2015-10-05,1,,,,,マルモト,0
124,1100001005053,登記記録の閉鎖等,0,2024-12-23,2024-12-18,株式会社やまや,,株式会社,長野県,長野市,安茂里小市３丁目４９番５１号,,20,201,3800961,,,2024-12-18,清算の結了等,,,2015-10-05,1,,,,,ヤマヤ,0
128,1120001005885,登記記録の閉鎖等,0,2024-12-23,2024-12-19,株式会社ティ．ケィ．シー松尾計算センター,,株式会社,大阪府,大阪市阿倍野区,阪南町３丁目４３番２７号,,27,119,5450021,,,2024-12-19,清算の結了等,,,2015-10-05,1,,,,,ティケィシーマツオケイサンセンター,0
133,1120001124660,登記記録の閉鎖等,0,2024-12-23,2024-12-18,株式会社ＪＢ,,株式会社,大阪府,大阪市北区,中崎西３丁目１番１０－３０１,,27,127,5300015,,,2024-12-18,清算の結了等,,,2015-10-05,1,,,,,ジェイビー,0
136,1120001157685,登記記録の閉鎖等,0,2024-12-23,2024-12-17,谷光化成株式会社,,株式会社,大阪府,門真市,末広町１４番２０号,,27,223,5710030,,,2024-12-17,清算の結了等,,,2015-10-05,1,,,,,タニミツカセイ,0
156,1140001097434,登記記録の閉鎖等,0,2024-12-23,2024-12-16,株式会社シンテック,,株式会社,兵庫県,川西市,清和台西５丁目１番地の６６,,28,217,6660143,,,2024-12-16,清算の結了等,,,2015-10-05,1,,,,,シンテック,0
175,1190001024367,登記記録の閉鎖等,0,2024-12-23,2024-12-18,株式会社ワイズ・コーポレーション,,株式会社,三重県,名張市,丸之内１０１番地の２丸之内ビル２０３号,,24,208,5180718,,,2024-12-18,清算の結了等,,,2017-02-03,1,,,,,ワイズコーポレーション,0
177,1200002000943,登記記録の閉鎖等,0,2024-12-23,2024-12-19,有限会社エムワークス,,有限会社,岐阜県,岐阜市,中鶉５丁目１１５番地の１,,21,201,5008288,,,2024-12-19,清算の結了等,,,2015-10-05,1,,,,,,0
178,1200003004225,登記記録の閉鎖等,0,2024-12-23,2024-12-13,合同会社スタージャパン・ギフ,,合同会社,愛知県,名古屋市中区,栄１丁目６番１５号,,23,106,4600008,,,2024-12-13,清算の結了等,,,2018-06-22,1,,,,,スタージャパンギフ,0
179,1210001017459,登記記録の閉鎖等,0,2024-12-23,2024-12-18,株式会社ヤマグチ,,株式会社,福井県,三方上中郡若狭町,気山第１７６号１３番地,,18,501,9191301,,,2024-12-18,清算の結了等,,,2019-03-08,1,,,,,ヤマグチ,0
182,1230002002251,登記記録の閉鎖等,0,2024-12-23,2024-12-18,有限会社デザインルームシーアール,,有限会社,富山県,富山市,花園町３丁目７番２４－１号,,16,201,9398201,,,2024-12-18,清算の結了等,,,2015-10-05,1,,,,,デザインルームシーアール,0
188,1250001018222,登記記録の閉鎖等,0,2024-12-23,2024-12-16,株式会社バンカーズファーム,,株式会社,山口県,下関市,竹崎町４丁目２番３６号,,35,201,7500025,,,2024-12-16,合併による解散等,3250001016827,令和６年１２月１日山口県下関市竹崎町四丁目２番３６号地域商社やまぐち株式会社（3250001016827）に合併し解散,2020-04-06,1,,,,,バンカーズファーム,0
189,1250005006000,登記記録の閉鎖等,0,2024-12-23,2024-12-18,医療法人社団正木内科耳鼻咽喉科,,その他の設立登記法人,山口県,岩国市,錦見６丁目１番１０号,,35,208,7410061,,,2024-12-18,清算の結了等,,,2015-10-05,1,,,,,シャダンマサキナイカジビインコウカ,0
203,1290005015229,登記記録の閉鎖等,0,2024-12-23,2024-12-11,特定非営利活動法人柳川城を再建する会,,その他の設立登記法人,福岡県,柳川市,大和町中島１８７３番地１,,40,207,8390254,,,2024-12-11,清算の結了等,,,2015-10-05,1,,,,,ヤナガワジョウヲサイケンスルカイ,0
209,1320001001294,登記記録の閉鎖等,0,2024-12-23,2024-12-19,株式会社山和興産,,株式会社,大分県,大分市,大字皆春１５２０番地の１,,44,201,8700131,,,2024-12-19,清算の結了等,,,2015-10-05,1,,,,,ヤマワコウサン,0
211,1330002014014,登記記録の閉鎖等,0,2024-12-23,2024-12-17,有限会社Ｗｉｓｈ,,有限会社,熊本県,熊本市中央区,水前寺４丁目１９番３４号,,43,101,8620950,,,2024-12-17,清算の結了等,,,2015-10-05,1,,,,,ウィッシュ,0
212,1330002029838,登記記録の閉鎖等,0,2024-12-23,2024-12-13,有限会社共栄ファーム,,有限会社,熊本県,天草市,港町８番１号,,43,215,8630021,,,2024-12-13,清算の結了等,,,2015-10-05,1,,,,,キョウエイファーム,0
214,1340002025101,登記記録の閉鎖等,0,2024-12-23,2024-12-19,有限会社鹿屋砂利,,有限会社,鹿児島県,鹿屋市,寿１丁目１７番６号,,46,203,8930014,,,2024-12-19,清算の結了等,,,2015-10-05,1,,,,,カノヤジャリ,0
227,1380002006287,登記記録の閉鎖等,0,2024-12-23,2024-12-11,有限会社高橋新聞店,,有限会社,福島県,伊達市,保原町字十丁目６番地,,07,213,9600607,,,2024-12-11,清算の結了等,,,2015-10-05,1,,,,,タカハシシンブンテン,0
242,1450001014267,登記記録の閉鎖等,0,2024-12-23,2024-12-18,株式会社ＫＦＳ,,株式会社,北海道,旭川市,一条通６丁目３８番地４４,,01,204,0700031,,,2024-12-18,清算の結了等,,,2024-04-03,1,,,,,ケーエフエス,0
248,2010001099327,登記記録の閉鎖等,0,2024-12-23,2024-12-09,株式会社ＴＫＭ,,株式会社,東京都,千代田区,外神田３丁目６番５号外神田永谷タウンプラザ５０１,,13,101,1010021,,,2024-12-09,清算の結了等,,,2015-10-05,1,,,,,ティーケーエム,0
249,2010001169278,登記記録の閉鎖等,0,2024-12-23,2024-12-05,ここ企画株式会社,,株式会社,東京都,千代田区,九段南１丁目５番６号りそな九段ビル５Ｆ・ＫＳフロア,,13,101,1020074,,,2024-12-05,清算の結了等,,,2015-10-05,1,,,,,,0
258,2010003030520,登記記録の閉鎖等,0,2024-12-23,2024-12-09,３０１合同会社,,合同会社,東京都,千代田区,霞が関３丁目２番５号霞が関ビル３０階,,13,101,1000013,,,2024-12-09,清算の結了等,,,2019-09-04,1,,,,,サンマルイチ,0
260,2010005022565,登記記録の閉鎖等,0,2024-12-23,2024-12-18,一般社団法人仏教検定協会,,その他の設立登記法人,東京都,千代田区,神田三崎町２丁目２０番４号八木ビル,,13,101,1010061,,,2024-12-18,清算の結了等,,,2015-10-05,1,,,,,ブッキョウケンテイキョウカイ,0
265,2010401134666,登記記録の閉鎖等,0,2024-12-23,2024-12-06,センターライズ株式会社,,株式会社,東京都,港区,六本木３丁目４番５号,,13,103,1060032,,,2024-12-06,清算の結了等,,,2017-10-30,1,,,,,センターライズ,0
283,2010901037633,登記記録の閉鎖等,0,2024-12-23,2024-12-06,株式会社エレクトラム,,株式会社,東京都,港区,南青山３丁目１５番９号ＭＩＮＯＷＡ表参道３Ｆ－２５０,,13,103,1070062,,,2024-12-06,清算の結了等,,,2016-02-23,1,,,,,エレクトラム,0
308,2011105004602,登記記録の閉鎖等,0,2024-12-23,2024-12-11,特定非営利活動法人Ｔｈｅ　Ａｓｉａ　Ｆｏｕｎｄａｔｉｏｎ,,その他の設立登記法人,東京都,新宿区,西早稲田２丁目３番１８号アバコビル５階ＣＳＯネットワーク気付,,13,104,1690051,,,2024-12-11,清算の結了等,,,2015-10-05,1,,,,,ジアジアファウンデーション,0
311,2011501028700,登記記録の閉鎖等,0,2024-12-23,2024-12-12,沢村株式会社,,株式会社,東京都,荒川区,南千住３丁目２７－２浅草ビル,,13,118,1160003,,,2024-12-12,清算の結了等,,,2022-11-24,1,,,,,ザワムラ,0
323,2011803002386,登記記録の閉鎖等,0,2024-12-23,2024-12-18,シーズンコンサルティング合同会社,,合同会社,東京都,足立区,東和４丁目１１番５号２０５,,13,121,1200003,,,2024-12-18,清算の結了等,,,2016-03-07,1,,,,,シーズンコンサルティング,0
327,2012401021010,登記記録の閉鎖等,0,2024-12-23,2024-12-20,株式会社アール・アンド・ケイ,,株式会社,東京都,中野区,弥生町１丁目３９番２号,,13,114,1640013,,,2024-12-20,清算の結了等,,,2015-10-05,1,,,,,アールアンドケイ,0
329,2013301045875,登記記録の閉鎖等,0,2024-12-23,2024-12-11,株式会社リリーエステート,,株式会社,東京都,豊島区,南大塚３丁目３４番１１号大塚駅前ビル４Ｆ,,13,116,1700005,,,2024-12-11,清算の結了等,,,2020-07-07,1,,,,,リリーエステート,0
332,2020001108912,登記記録の閉鎖等,0,2024-12-23,2024-12-18,株式会社桃悠,,株式会社,神奈川県,横浜市戸塚区,川上町１７７番地１,,14,110,2440805,,,2024-12-18,清算の結了等,,,2015-10-05,1,,,,,トウユウ,0
337,2020002090655,登記記録の閉鎖等,0,2024-12-23,2024-12-18,有限会社丸愛商事,,有限会社,神奈川県,川崎市高津区,久地２丁目１９番１号,,14,134,2130032,,,2024-12-18,清算の結了等,,,2015-10-05,1,,,,,マルアイショウジ,0
341,2021001082362,登記記録の閉鎖等,0,2024-12-23,2024-12-18,株式会社エイトテック,,株式会社,神奈川県,相模原市中央区,田名３９９５番地７,,14,152,2520244,,,2024-12-18,清算の結了等,,,2024-05-30,1,,,,,エイトテック,0
346,2030001064675,登記記録の閉鎖等,0,2024-12-23,2024-12-18,株式会社平野木材,,株式会社,埼玉県,越谷市,大間野町１丁目１３０番地,,11,222,3430844,,,2024-12-18,清算の結了等,,,2015-10-05,1,,,,,ヒラノモクザイ,0
355,2040001100272,登記記録の閉鎖等,0,2024-12-23,2024-12-16,きれいのたね株式会社,,株式会社,千葉県,松戸市,小根本４５番地１２,,12,207,2710073,,,2024-12-16,清算の結了等,,,2017-05-23,1,,,,,キレイノタネ,0
358,2040002000843,登記記録の閉鎖等,0,2024-12-23,2024-12-16,有限会社池田工業,,有限会社,千葉県,千葉市若葉区,野呂町７７８番地の１,,12,104,2650053,,,2024-12-16,清算の結了等,,,2015-10-05,1,,,,,イケダコウギョウ,0
360,2040003023406,登記記録の閉鎖等,0,2024-12-23,2024-12-17,ＬＩＧＨＴＨＯＵＳＥ合同会社,,合同会社,千葉県,柏市,増尾５丁目２１―３５,,12,217,2770033,,,2024-12-17,清算の結了等,,,2023-09-28,1,,,,,ライトハウス,0
378,2110005005502,登記記録の閉鎖等,0,2024-12-23,2024-12-17,医療法人社団山田皮膚科医院,,その他の設立登記法人,新潟県,三条市,東裏館２丁目３番５号,,15,204,9550081,,,2024-12-17,清算の結了等,,,2015-10-05,1,,,,,ヤマダヒフカイイン,0
380,2120001038950,登記記録の閉鎖等,0,2024-12-23,2024-12-17,株式会社大陽堂,,株式会社,大阪府,大阪市浪速区,塩草３丁目３番２５号,,27,111,5560024,,,2024-12-17,清算の結了等,,,2015-10-05,1,,,,,タイヨウドウ,0
394,2120002049294,登記記録の閉鎖等,0,2024-12-23,2024-12-19,有限会社慶尚,,有限会社,大阪府,大阪市東成区,東小橋３丁目３番２９号,,27,115,5370024,,,2024-12-19,清算の結了等,,,2015-10-05,1,,,,,ケイショウ,0
399,2120902012707,登記記録の閉鎖等,0,2024-12-23,2024-12-18,有限会社リーフメイル,,有限会社,大阪府,高槻市,宮野町１４番１８号,,27,207,5690081,,,2024-12-18,清算の結了等,,,2015-10-05,1,,,,,リーフメイル,0
408,2130005003792,登記記録の閉鎖等,0,2024-12-23,2024-12-19,医療法人上嶋小児科アレルギー科医院,,その他の設立登記法人,京都府,京都市右京区,常盤村ノ内町１番地２,,26,108,6168221,,,2024-12-19,清算の結了等,,,2015-10-05,1,,,,,ウエシマショウニカアレルギーカイイン,0
410,2140001056991,登記記録の閉鎖等,0,2024-12-23,2024-12-16,美方ファーム株式会社,,株式会社,兵庫県,養父市,八鹿町八鹿１１３番地１,,28,222,6670021,,,2024-12-16,清算の結了等,,,2015-10-05,1,,,,,ミカタファーム,0
412,2140001099710,登記記録の閉鎖等,0,2024-12-23,2024-12-11,株式会社アトラス技術,,株式会社,兵庫県,明石市,大久保町西島１２９番地,,28,203,6740065,,,2024-12-11,清算の結了等,,,2015-10-19,1,,,,,アトラスギジュツ,0
417,2140002015195,登記記録の閉鎖等,0,2024-12-23,2024-12-17,有限会社ナカトミ,,有限会社,兵庫県,神戸市中央区,熊内町４丁目１２番４－１３０５号,,28,110,6510056,,,2024-12-17,清算の結了等,,,2015-10-05,1,,,,,ナカトミ,0
438,2200001032508,登記記録の閉鎖等,0,2024-12-23,2024-12-05,株式会社Ｓ＆Ｔ,,株式会社,愛知県,一宮市,小信中島字東鵯平１８番地,,23,203,4940007,,,2024-12-05,清算の結了等,,,2016-01-27,1,,,,,エスアンドティー,0
445,2200005010550,登記記録の閉鎖等,0,2024-12-23,2024-12-17,小坂町森林組合,,その他の設立登記法人,岐阜県,下呂市,小坂町長瀬１３７番地,,21,220,5093115,,,2024-12-17,清算の結了等,,,2015-10-05,1,,,,,オサカチョウ,0
447,2210001014959,登記記録の閉鎖等,0,2024-12-23,2024-12-19,株式会社ＵＰ,,株式会社,福井県,福井市,中央１丁目９－２４福井中央ビル３階,,18,201,9100006,,,2024-12-19,清算の結了等,,,2015-10-05,1,,,,,アップ,0
462,2290002043479,登記記録の閉鎖等,0,2024-12-23,2024-11-28,有限会社北原食品,,有限会社,福岡県,朝倉郡筑前町,依井１９０６番地,,40,447,8380813,,,2024-11-28,清算の結了等,,,2015-10-05,1,,,,,,0
467,2310002004643,登記記録の閉鎖等,0,2024-12-23,2024-12-18,有限会社平山建設,,有限会社,長崎県,長崎市,籠町２番４２号,,42,201,8500905,,,2024-12-18,清算の結了等,,,2015-10-05,1,,,,,ヒラヤマケンセツ,0
468,2330002019953,登記記録の閉鎖等,0,2024-12-23,2024-12-17,有限会社荒木商店,,有限会社,熊本県,上益城郡益城町,大字砥川１８８３番地,,43,443,8612222,,,2024-12-17,清算の結了等,,,2024-08-19,1,,,,,アラキショウテン,0
470,2340002009499,登記記録の閉鎖等,0,2024-12-23,2024-12-17,有限会社南九州ラストアレスター販売,,有限会社,鹿児島県,鹿児島市,小原町３１番３号,,46,201,8910111,,,2024-12-17,清算の結了等,,,2015-10-05,1,,,,,ミナミキュウシュウラストアレスターハンバイ,0
476,2370001024232,登記記録の閉鎖等,0,2024-12-23,2024-12-16,株式会社ＧＥＩＳＴ,,株式会社,宮城県,仙台市青葉区,川平５丁目４番３０号,,04,101,9810954,,,2024-12-16,清算の結了等,,,2015-10-05,1,,,,,ガイスト,0
479,2370201002582,登記記録の閉鎖等,0,2024-12-23,2024-12-16,株式会社東北ティ・エム・エス,,株式会社,宮城県,大崎市,古川渕尻字江合５９番地１,,04,215,9896265,,,2024-12-16,清算の結了等,,,2015-10-05,1,,,,,,0
480,2370302000188,登記記録の閉鎖等,0,2024-12-23,2024-12-12,有限会社相沢住設,,有限会社,宮城県,石巻市,北上町女川字新駒迫８０番地１,,04,202,9860204,,,2024-12-12,清算の結了等,,,2015-10-05,1,,,,,アイザワジュウセツ,0
492,2480005006372,登記記録の閉鎖等,0,2024-12-23,2024-12-19,農事組合法人こくふ,,その他の設立登記法人,徳島県,徳島市,国府町延命２９３番地の１,,36,201,7793128,,,2024-12-19,清算の結了等,,,2015-10-05,1,,,,,コクフ,0
504,3010002007196,登記記録の閉鎖等,0,2024-12-23,2024-12-10,有限会社あいち,,有限会社,東京都,千代田区,麹町４丁目３番地１,00060861,13,101,1020083,,,2024-12-10,清算の結了等,,,2015-10-05,1,,,,,アイチ,0
525,3010801031909,登記記録の閉鎖等,0,2024-12-23,2024-12-13,株式会社ＹＯＤＡＳＣＯ,,株式会社,東京都,大田区,仲池上２丁目２１番３－４０７号,,13,111,1460081,,,2024-12-13,清算の結了等,,,2021-05-06,1,,,,,ヨダスコ,0
527,3010901016958,登記記録の閉鎖等,0,2024-12-23,2024-12-16,トマキ株式会社,,株式会社,東京都,世田谷区,南烏山５丁目１２番１号,,13,112,1570062,,,2024-12-16,清算の結了等,,,2015-10-05,1,,,,,トマキ,0
573,3021001019396,登記記録の閉鎖等,0,2024-12-23,2024-12-19,株式会社伊波ビルサービス,,株式会社,神奈川県,厚木市,恩名１丁目１２番２５号,,14,212,2430032,,,2024-12-19,清算の結了等,,,2015-10-05,1,,,,,イハビルサービス,0
577,3021002022028,登記記録の閉鎖等,0,2024-12-23,2024-12-19,有限会社高木,00013181,有限会社,神奈川県,相模原市中央区,淵野辺３丁目４番１９号,,14,152,2520206,,,2024-12-19,清算の結了等,,,2015-10-05,1,,,,,タカギ,0
582,3030001149673,登記記録の閉鎖等,0,2024-12-23,2024-12-18,八千年製薬株式会社,,株式会社,埼玉県,さいたま市大宮区,大成町１丁目１７２番地１,,11,103,3300852,,,2024-12-18,清算の結了等,,,2022-08-16,1,,,,,ハッセンネンセイヤク,0
587,3030002091775,登記記録の閉鎖等,0,2024-12-23,2024-12-18,株式会社アート,,株式会社,埼玉県,吉川市,保１丁目３７番１号,,11,243,3420041,,,2024-12-18,清算の結了等,,,2015-10-05,1,,,,,アート,0
593,3040001098473,登記記録の閉鎖等,0,2024-12-23,2024-12-16,株式会社究極,,株式会社,千葉県,松戸市,西馬橋幸町１５番地,,12,207,2710047,,,2024-12-16,清算の結了等,,,2017-01-18,1,,,,,キュウキョク,0
607,3070002009567,登記記録の閉鎖等,0,2024-12-23,2024-12-19,有限会社群馬設備機器,,有限会社,群馬県,高崎市,中尾町６４２番地６,,10,202,3700001,,,2024-12-19,清算の結了等,,,2015-10-05,1,,,,,グンマセツビキキ,0
610,3080101011332,登記記録の閉鎖等,0,2024-12-23,2024-12-16,岳南工業株式会社,,株式会社,静岡県,富士宮市,小泉２１０番地の１ラフィーヌ芙蓉台３０１号,,22,207,4180022,,,2024-12-16,清算の結了等,,,2015-10-05,1,,,,,ガクナンコウギョウ,0
613,3080402004902,登記記録の閉鎖等,0,2024-12-23,2024-12-18,有限会社田中興業所,,有限会社,静岡県,浜松市中央区,和田町３６９番地,,22,138,4350016,,,2024-12-18,清算の結了等,,,2015-10-05,1,,,,,タナカコウギョウショ,0
614,3080402009249,登記記録の閉鎖等,0,2024-12-23,2024-12-18,有限会社康喜,,有限会社,静岡県,湖西市,鷲津４０６番地の６９,,22,221,4310431,,,2024-12-18,清算の結了等,,,2015-10-05,1,,,,,ヤスキ,0
644,3130002032595,登記記録の閉鎖等,0,2024-12-23,2024-12-18,有限会社廣暢,,有限会社,京都府,福知山市,字観音寺３０４番地の４,,26,201,6200803,,,2024-12-18,清算の結了等,,,2015-10-05,1,,,,,コウヨウ,0
646,3140001037850,登記記録の閉鎖等,0,2024-12-23,2024-12-19,株式会社アポロンジャパン,,株式会社,大阪府,大阪市北区,西天満６丁目８番２号ヤノシゲビル,,27,127,5300047,,,2024-12-19,清算の結了等,,,2015-10-05,1,,,,,アポロンジャパン,0
649,3140002009543,登記記録の閉鎖等,0,2024-12-23,2024-12-18,有限会社日本料理戎屋,,有限会社,兵庫県,神戸市長田区,庄田町３丁目５番１５－１００２号,,28,106,6530035,,,2024-12-18,清算の結了等,,,2015-10-05,1,,,,,ニホンリョウリエビスヤ,0
650,3140002036348,登記記録の閉鎖等,0,2024-12-23,2024-12-17,有限会社播磨運輸商事,,有限会社,兵庫県,加古郡稲美町,国岡６丁目２２９番地の１,,28,381,6751115,,,2024-12-17,清算の結了等,,,2015-10-05,1,,,,,ハリマウンユショウジ,0
657,3170001017387,登記記録の閉鎖等,0,2024-12-23,2024-12-13,ＩＷＳ株式会社,,株式会社,神奈川県,川崎市川崎区,小川町１１－１,,14,131,2100023,,,2024-12-13,清算の結了等,,,2022-11-28,1,,,,,アイダブリューエス,0
665,3180003024926,登記記録の閉鎖等,0,2024-12-23,2024-12-04,合同会社ＳＰＡＣＥ　ＣＯＮＳＵＬＴＩＮＧ,,合同会社,愛知県,名古屋市中村区,名駅４丁目２４番５号第２森ビル４０１,,23,105,4500002,,,2024-12-04,清算の結了等,,,2023-03-07,1,,,,,スペースコンサルティング,0
668,3190002010579,登記記録の閉鎖等,0,2024-12-23,2024-12-18,有限会社鳥羽木型製作所,,有限会社,三重県,鳥羽市,鳥羽３丁目１番４８号,,24,211,5170011,,,2024-12-18,清算の結了等,,,2015-10-05,1,,,,,トバキガタセイサクショ,0
673,3200002013398,登記記録の閉鎖等,0,2024-12-23,2024-12-18,有限会社幸山組,,有限会社,岐阜県,安八郡安八町,西結４５７番地,,21,383,5030111,,,2024-12-18,清算の結了等,,,2015-10-05,1,,,,,コウヤマグミ,0
687,3290001037472,登記記録の閉鎖等,0,2024-12-23,2024-12-02,クラフトシステムズ株式会社,,株式会社,福岡県,宗像市,広陵台２丁目４番地１８,,40,220,8114165,,,2024-12-02,清算の結了等,,,2015-10-05,1,,,,,クラフトシステムズ,0
699,3290002007053,登記記録の閉鎖等,0,2024-12-23,2024-12-02,有限会社長井,,有限会社,福岡県,福岡市城南区,西片江２丁目３２番６号,,40,136,8140141,,,2024-12-02,清算の結了等,,,2015-10-05,1,,,,,ナガイ,0
700,3290002027349,登記記録の閉鎖等,0,2024-12-23,2024-12-02,有限会社タカラインターナショナル,,有限会社,福岡県,福岡市中央区,荒戸２丁目２番４２－２０２号,,40,133,8100062,,,2024-12-02,清算の結了等,,,2015-10-05,1,,,,,タカラインターナショナル,0
710,3330005009570,登記記録の閉鎖等,0,2024-12-23,2024-12-12,一般社団法人八代圏域雇用促進センター,,その他の設立登記法人,熊本県,八代市,清水町２番９４号,,43,202,8660853,,,2024-12-12,清算の結了等,,,2016-12-08,1,,,,,ヤツシロケンイキコヨウソクシンセンター,0
715,3360001014324,登記記録の閉鎖等,0,2024-12-23,2024-12-19,株式会社アート,,株式会社,沖縄県,島尻郡八重瀬町,字東風平４９２番地２,,47,362,9010401,,,2024-12-19,清算の結了等,,,2015-10-05,1,,,,,アート,0
727,3420002017022,登記記録の閉鎖等,0,2024-12-23,2024-12-19,有限会社ほそごえ石材店,,有限会社,青森県,十和田市,大字相坂字高清水９２番地５,,02,206,0340041,,,2024-12-19,清算の結了等,,,2015-10-05,1,,,,,ホソゴエセキザイテン,0
729,3430001037499,登記記録の閉鎖等,0,2024-12-23,2024-12-20,陵北運輸株式会社,,株式会社,北海道,札幌市手稲区,前田三条７丁目１番１２号,,01,109,0060813,,,2024-12-20,清算の結了等,,,2015-10-05,1,,,,,リョウホクウンユ,0
734,3430002043323,登記記録の閉鎖等,0,2024-12-23,2024-12-19,有限会社クニシゲ塗工技研,,有限会社,北海道,石狩市,花川南三条３丁目６番地,,01,235,0613203,,,2024-12-19,清算の結了等,,,2015-10-05,1,,,,,クニシゲトコウギケン,0
735,3430002054196,登記記録の閉鎖等,0,2024-12-23,2024-12-19,菊屋水産加工有限会社,,有限会社,北海道,小樽市,長橋３丁目１８番４号,,01,203,0470036,,,2024-12-19,清算の結了等,,,2015-10-05,1,,,,,,0
752,4010002000183,登記記録の閉鎖等,0,2024-12-23,2024-12-17,有限会社アクセスブレイン,,有限会社,千葉県,市川市,東大和田２丁目５－１－４１４,,12,203,2720026,,,2024-12-17,清算の結了等,,,2015-10-05,1,,,,,アクセスブレイン,0
771,4010403008874,登記記録の閉鎖等,0,2024-12-23,2024-12-12,Ｗｅａｔｈｅｒｚｏｎｅ　Ｊａｐａｎ合同会社,,合同会社,東京都,新宿区,西新宿３丁目３番１３号西新宿水間ビル６Ｆ,,13,104,1600023,,,2024-12-12,清算の結了等,,,2015-10-05,1,,,,,ウェザーゾーンジャパン,0
775,4010601023741,登記記録の閉鎖等,0,2024-12-23,2024-12-13,株式会社フリーダム,,株式会社,千葉県,市川市,柏井町２丁目７６５番地２,,12,203,2720802,,,2024-12-13,清算の結了等,,,2015-10-05,1,,,,,フリーダム,0
814,4011601022122,登記記録の閉鎖等,0,2024-12-23,2024-12-13,株式会社ＥＣＯ空間,,株式会社,東京都,練馬区,南大泉３丁目１９－５－２０１号,,13,120,1780064,,,2024-12-13,清算の結了等,,,2017-10-18,1,,,,,エコクウカン,0
833,4020002010883,登記記録の閉鎖等,0,2024-12-23,2024-11-15,有限会社山口モータース,,有限会社,神奈川県,横浜市磯子区,中原２丁目８番１号,,14,107,2350036,,,2024-11-15,清算の結了等,,,2015-10-05,1,,,,,ヤマグチモータース,0
836,4020003009586,登記記録の閉鎖等,0,2024-12-23,2024-12-05,合同会社レッドゾーン,,合同会社,神奈川県,横浜市鶴見区,上末吉２丁目１１番２０号,,14,101,2300011,,,2024-12-05,清算の結了等,,,2015-10-05,1,,,,,レッドゾーン,0
841,4021001024577,登記記録の閉鎖等,0,2024-12-23,2024-12-19,株式会社吉田ボーリング,,株式会社,神奈川県,厚木市,飯山南４丁目１７番１４号,,14,212,2430218,,,2024-12-19,清算の結了等,,,2015-10-05,1,,,,,ヨシダボーリング,0
846,4030001029065,登記記録の閉鎖等,0,2024-12-23,2024-12-13,株式会社健樹,,株式会社,埼玉県,入間市,大字下藤沢４５８番地１０,,11,225,3580011,,,2024-12-13,清算の結了等,,,2015-10-05,1,,,,,ケンジュ,0
847,4030001034107,登記記録の閉鎖等,0,2024-12-23,2024-12-18,株式会社ミアンソーラス・プランニング,,株式会社,埼玉県,白岡市,新白岡２丁目２６番地１４,,11,246,3490212,,,2024-12-18,清算の結了等,,,2015-10-05,1,,,,,ミアンソーラスプランニング,0
848,4030001037373,登記記録の閉鎖等,0,2024-12-23,2024-12-18,株式会社山崎製作所,,株式会社,埼玉県,草加市,青柳２丁目１９番７号,,11,221,3400002,,,2024-12-18,清算の結了等,,,2015-10-05,1,,,,,ヤマザキセイサクショ,0
849,4030001044510,登記記録の閉鎖等,0,2024-12-23,2024-12-18,株式会社ロジパートナー,,株式会社,埼玉県,草加市,稲荷４丁目１０番１６号,,11,221,3400003,,,2024-12-18,清算の結了等,,,2015-10-05,1,,,,,ロジパートナー,0
851,4030001050104,登記記録の閉鎖等,0,2024-12-23,2024-12-11,株式会社ハッピィー企画,,株式会社,埼玉県,新座市,西堀１丁目１７番８号,,11,230,3520031,,,2024-12-11,清算の結了等,,,2015-10-05,1,,,,,ハッピィーキカク,0
854,4030001107465,登記記録の閉鎖等,0,2024-12-23,2024-12-19,さくらインターナショナル株式会社,,株式会社,埼玉県,さいたま市緑区,原山４丁目５番９号,,11,109,3360931,,,2024-12-19,清算の結了等,,,2015-10-05,1,,,,,サクラインターナショナル,0
867,4030005001945,登記記録の閉鎖等,0,2024-12-23,2024-12-18,特定非営利活動法人ネットワークさいたま,,その他の設立登記法人,埼玉県,さいたま市南区,白幡５丁目３番２６－１０６号,,11,108,3360022,,,2024-12-18,清算の結了等,,,2015-10-05,1,,,,,ネットワークサイタマ,0
872,4040001082550,登記記録の閉鎖等,0,2024-12-23,2024-12-09,株式会社ナナイロ,,株式会社,東京都,千代田区,麹町４丁目８番１号,,13,101,1020083,,,2024-12-09,清算の結了等,,,2015-10-05,1,,,,,ナナイロ,0
873,4040001089736,登記記録の閉鎖等,0,2024-12-23,2024-12-17,株式会社ＴＲＹＩＮＣ,,株式会社,東京都,江戸川区,南葛西５丁目８番８号葛西ハイデンス３０８号室,,13,123,1340085,,,2024-12-17,清算の結了等,,,2015-10-05,1,,,,,トライインク,0
875,4040001100270,登記記録の閉鎖等,0,2024-12-23,2024-12-16,株式会社きくちらんど,,株式会社,千葉県,船橋市,宮本２丁目１番４－２０４号,,12,204,2730003,,,2024-12-16,清算の結了等,,,2017-05-24,1,,,,,キクチランド,0
876,4040001105162,登記記録の閉鎖等,0,2024-12-23,2024-12-16,こころの寺子屋株式会社,,株式会社,千葉県,市原市,新堀１３１７番地の１,,12,219,2900206,,,2024-12-16,清算の結了等,,,2018-06-26,1,,,,,ココロノテラコヤ,0
881,4040005014120,登記記録の閉鎖等,0,2024-12-23,2024-12-16,特定非営利活動法人ときわ会まちづくりネットワーク,,その他の設立登記法人,千葉県,柏市,松葉町１丁目１９番地１・１５棟３０４号,,12,217,2770827,,,2024-12-16,清算の結了等,,,2015-10-05,1,,,,,トキワカイマチヅクリネットワーク,0
890,4080101006810,登記記録の閉鎖等,0,2024-12-23,2024-12-18,株式会社ＷＡＫＯ,,株式会社,静岡県,三島市,川原ケ谷５９１番地の２,,22,206,4110022,,,2024-12-18,清算の結了等,,,2015-10-05,1,,,,,ワコ,0
891,4080101009020,登記記録の閉鎖等,0,2024-12-23,2024-12-16,田中機工建設株式会社,,株式会社,静岡県,富士市,前田３２６番地の１,,22,210,4160937,,,2024-12-16,清算の結了等,,,2015-10-05,1,,,,,タナカキコウケンセツ,0
904,4120001246774,登記記録の閉鎖等,0,2024-12-23,2024-12-17,タクミヤ株式会社,,株式会社,大阪府,大阪市西成区,天神ノ森２丁目１－１１,,27,122,5570013,,,2024-12-17,清算の結了等,,,2022-06-17,1,"Takumiya Co., Ltd.",Osaka,"2-1-11, Tenjinnomori, Nishinari ku Osaka shi",,タクミヤ,0
919,4130001014684,登記記録の閉鎖等,0,2024-12-23,2024-12-19,ジヨイント工業株式会社,,株式会社,京都府,京都市伏見区,向島庚申町１１４番地の６,,26,109,6128122,,,2024-12-19,清算の結了等,,,2015-10-05,1,,,,,ジヨイントコウギョウ,0
920,4130001017316,登記記録の閉鎖等,0,2024-12-23,2024-12-19,株式会社小林長,,株式会社,京都府,京都市南区,西九条森本町５５番地,,26,107,6018444,,,2024-12-19,清算の結了等,,,2015-10-05,1,,,,,コバヤシチョウ,0
939,4180002025890,登記記録の閉鎖等,0,2024-12-23,2024-12-16,有限会社新和通信,,有限会社,愛知県,名古屋市緑区,若田３丁目２０１番地,,23,114,4580034,,,2024-12-16,清算の結了等,,,2015-10-05,1,,,,,シンワツウシン,0
941,4180002064170,登記記録の閉鎖等,0,2024-12-23,2024-12-13,有限会社豊明総合保険事務所,,有限会社,愛知県,豊明市,栄町元屋敷５５番地,,23,229,4701161,,,2024-12-13,清算の結了等,,,2015-10-05,1,,,,,トヨアケソウゴウホケンジムショ,0
945,4190001006239,登記記録の閉鎖等,0,2024-12-23,2024-12-19,株式会社ＥＮＰＡ,,株式会社,三重県,鈴鹿市,住吉町８９４７番地,,24,207,5130825,,,2024-12-19,清算の結了等,,,2015-10-05,1,,,,,エンパ,0
954,4210005007874,登記記録の閉鎖等,0,2024-12-23,2024-12-19,朝日商店振興協同組合,,その他の設立登記法人,福井県,丹生郡越前町,西田中第８号２７番地の１,,18,423,9160141,,,2024-12-19,清算の結了等,,,2015-10-05,1,,,,,アサヒショウテンシンコウ,0
955,4220001009519,登記記録の閉鎖等,0,2024-12-23,2024-12-18,株式会社ロード・スター北陸,,株式会社,石川県,白山市,番匠町１５５番地,,17,210,9240013,,,2024-12-18,清算の結了等,,,2015-10-05,1,,,,,,0
967,4290001034477,登記記録の閉鎖等,0,2024-12-23,2024-11-28,株式会社ネクステージ,,株式会社,福岡県,福岡市東区,原田１丁目４２番５－４２９号,,40,131,8120063,,,2024-11-28,清算の結了等,,,2015-10-05,1,,,,,ネクステージ,0
982,4310003004450,登記記録の閉鎖等,0,2024-12-23,2024-11-28,合同会社ばらかボルダリング,,合同会社,長崎県,五島市,幸町１－２６さだかた店舗１階,,42,211,8530004,,,2024-11-28,清算の結了等,,,2022-09-28,1,,,,,バラカボルダリング,0
984,4340002016064,登記記録の閉鎖等,0,2024-12-23,2024-12-18,有限会社ハマサキ,,有限会社,鹿児島県,姶良市,平松４３８４番地１,,46,225,8995652,,,2024-12-18,清算の結了等,,,2015-10-05,1,,,,,ハマサキ,0
985,4350001007823,登記記録の閉鎖等,0,2024-12-23,2024-12-19,株式会社浅井建設,,株式会社,宮崎県,都城市,平江町２５号１１番地,,45,202,8850021,,,2024-12-19,清算の結了等,,,2015-10-05,1,,,,,アサイケンセツ,0
986,4350001011809,登記記録の閉鎖等,0,2024-12-23,2024-12-20,エンジェリック株式会社,,株式会社,宮崎県,宮崎市,千草町９番７号サン・ジェローム萩１００３号,,45,201,8800006,,,2024-12-20,清算の結了等,,,2015-10-05,1,,,,,,0
994,4410001010192,登記記録の閉鎖等,0,2024-12-23,2024-12-18,株式会社華プロダクション,,株式会社,秋田県,横手市,増田町増田字中町８２番地,,05,203,0190701,,,2024-12-18,清算の結了等,,,2015-10-05,1,,,,,ハナプロダクション,0
995,4410002001208,登記記録の閉鎖等,0,2024-12-23,2024-12-16,有限会社キダ総建,,有限会社,秋田県,秋田市,飯島字坂道端１２番地４,,05,201,0110911,,,2024-12-16,清算の結了等,,,2015-10-05,1,,,,,キダソウケン,0
1001,4430002047645,登記記録の閉鎖等,0,2024-12-23,2024-12-20,有限会社齊藤商事,,有限会社,北海道,千歳市,寿１丁目１０番１６,,01,224,0660023,,,2024-12-20,清算の結了等,,,2015-10-05,1,,,,,サイトウショウジ,0
1029,5010401126495,登記記録の閉鎖等,0,2024-12-23,2024-12-06,株式会社港インベストメント,,株式会社,東京都,港区,白金１丁目８番４号,,13,103,1080072,,,2024-12-06,清算の結了等,,,2016-08-12,1,,,,,ミナトインベストメント,0
1056,5011101042025,登記記録の閉鎖等,0,2024-12-23,2024-12-19,株式会社エフキュービックアカデミー,,株式会社,東京都,板橋区,東山町５２番１７－４０２号,,13,119,1740073,,,2024-12-19,清算の結了等,,,2015-10-05,1,,,,,エフキュービックアカデミー,0
1062,5011202001978,登記記録の閉鎖等,0,2024-12-23,2024-12-19,有限会社クラタランドリー,,有限会社,東京都,中野区,南台１丁目４番４号,,13,114,1640014,,,2024-12-19,清算の結了等,,,2015-10-05,1,,,,,クラタランドリー,0
1063,5011301008899,登記記録の閉鎖等,0,2024-12-23,2024-12-18,株式会社八幡山地所,,株式会社,東京都,杉並区,上高井戸３丁目３番１４号,,13,115,1680074,,,2024-12-18,清算の結了等,,,2015-10-05,1,,,,,ヤハタヤマジショ,0
1079,5011702008374,登記記録の閉鎖等,0,2024-12-23,2024-12-18,有限会社トリム,,有限会社,東京都,江戸川区,松江３丁目１９番２２号,,13,123,1320025,,,2024-12-18,清算の結了等,,,2015-10-05,1,,,,,,0
1081,5012403003111,登記記録の閉鎖等,0,2024-12-23,2024-12-16,合同会社Ｓｍｉｌｅ　ｏｎ　Ｈ．Ａ．Ｎ．Ａ．,,合同会社,東京都,府中市,西府町２丁目１９番地の１,,13,206,1830031,,,2024-12-16,清算の結了等,,,2017-06-14,1,,,,,スマイルオンハナ,0
1082,5013301019018,登記記録の閉鎖等,0,2024-12-23,2024-12-11,株式会社アサヒインターナショナルトレーディング,,株式会社,東京都,豊島区,駒込１丁目１１番９号,,13,116,1700003,,,2024-12-11,清算の結了等,,,2015-10-05,1,,,,,アサヒインターナショナルトレーディング,0
1086,5020001064293,登記記録の閉鎖等,0,2024-12-23,2024-12-18,株式会社清和天,,株式会社,神奈川県,川崎市多摩区,西生田４丁目１番３号,,14,135,2140037,,,2024-12-18,清算の結了等,,,2015-10-05,1,,,,,セイワテン,0
1093,5020005002308,登記記録の閉鎖等,0,2024-12-23,2024-12-11,神奈川県歯科技工業協同組合,,その他の設立登記法人,神奈川県,横浜市南区,永田東１丁目６番３０号,,14,105,2320072,,,2024-12-11,清算の結了等,,,2015-10-05,1,,,,,カナガワケンシカギコウギョウ,0
1097,5021002011937,登記記録の閉鎖等,0,2024-12-23,2024-12-19,有限会社ヒロノウ,,有限会社,神奈川県,茅ヶ崎市,高田３丁目２０番８号,,14,207,2530002,,,2024-12-19,清算の結了等,,,2015-10-05,1,,,,,ヒロノウ,0
1119,5060002024771,登記記録の閉鎖等,0,2024-12-23,2024-12-17,経営管理本部有限会社,,有限会社,栃木県,那須塩原市,緑２丁目１１４５番地１８,,09,213,3292713,,,2024-12-17,清算の結了等,,,2015-10-05,1,,,,,ケイエイカンリホンブ,0
1125,5080002009564,登記記録の閉鎖等,0,2024-12-23,2024-12-18,有限会社オフィスカルフール,,有限会社,静岡県,静岡市清水区,草薙３丁目２９番３７号,,22,103,4240886,,,2024-12-18,清算の結了等,,,2015-10-05,1,,,,,オフィスカルフール,0
1126,5080401013274,登記記録の閉鎖等,0,2024-12-23,2024-12-16,株式会社じゅんプロモーション,,株式会社,静岡県,浜松市中央区,東伊場１丁目１０番２０１号,,22,138,4328036,,,2024-12-16,清算の結了等,,,2015-10-05,1,,,,,ジュンプロモーション,0
1136,5120001260790,登記記録の閉鎖等,0,2024-12-23,2024-12-16,樂思普奥控股株式会社,,株式会社,大阪府,大阪市城東区,野江３丁目２７番７号野江１番館４０２号,,27,118,5360006,,,2024-12-16,清算の結了等,,,2023-12-25,1,,,,,ロスプオウコウグ,0
1141,5120002083844,登記記録の閉鎖等,0,2024-12-23,2024-12-18,有限会社こもり,,有限会社,大阪府,大阪市都島区,東野田町５丁目１３番２号,,27,102,5340024,,,2024-12-18,清算の結了等,,,2020-03-24,1,,,,,コモリ,0
1166,5180002041193,登記記録の閉鎖等,0,2024-12-23,2024-12-17,有限会社和宏,,有限会社,愛知県,北名古屋市,弥勒寺西３丁目８１番地,,23,234,4810032,,,2024-12-17,清算の結了等,,,2015-10-05,1,,,,,ワコウ,0
1167,5180003009157,登記記録の閉鎖等,0,2024-12-23,2024-12-16,合同会社ＤｏｏＬｏｏ　Ｊａｐａｎ,,合同会社,愛知県,名古屋市熱田区,白鳥１丁目１０番３号,,23,109,4560035,,,2024-12-16,清算の結了等,,,2015-10-05,1,,,,,ドゥールージャパン,0
1171,5190002019585,登記記録の閉鎖等,0,2024-12-23,2024-12-20,有限会社オカダ・アロイキャスト,,有限会社,三重県,四日市市,八王子町１２８７番地３,,24,202,5100947,,,2024-12-20,清算の結了等,,,2015-10-05,1,,,,,オカダアロイキャスト,0
1184,5290001061157,登記記録の閉鎖等,0,2024-12-23,2024-11-28,ＭＩＴＺ株式会社,,株式会社,福岡県,福岡市南区,屋形原１丁目３７－７,,40,134,8111351,,,2024-11-28,清算の結了等,,,2015-10-05,1,,,,,ミッツ,0
1192,5290003013742,登記記録の閉鎖等,0,2024-12-23,2024-12-02,合同会社ＳＴテクノロジーズ,,合同会社,福岡県,福岡市中央区,天神４丁目６番２８号天神ファーストビル７階,,40,133,8100001,,,2024-12-02,清算の結了等,,,2023-04-06,1,,,,,エスティテクノロジーズ,0
1195,5290802015856,登記記録の閉鎖等,0,2024-12-23,2024-12-19,有限会社アート・ワーク,,有限会社,福岡県,北九州市八幡西区,春日台１丁目４番１号,,40,109,8070844,,,2024-12-19,清算の結了等,,,2015-10-05,1,,,,,アートワーク,0
1199,5330002026195,登記記録の閉鎖等,0,2024-12-23,2024-12-16,有限会社ねぼけ堂,,有限会社,熊本県,八代市,本町３丁目４番４２号,,43,202,8660861,,,2024-12-16,清算の結了等,,,2015-10-05,1,,,,,,0
1214,5430002017052,登記記録の閉鎖等,0,2024-12-23,2024-12-18,有限会社フスフレーゲサロンアンドウ,,有限会社,北海道,札幌市南区,澄川四条２丁目２番１９号,,01,106,0050004,,,2024-12-18,清算の結了等,,,2015-10-05,1,,,,,フスフレーゲサロンアンドウ,0
1215,5460401000052,登記記録の閉鎖等,0,2024-12-23,2024-12-19,株式会社川上時計店,,株式会社,北海道,根室市,梅ケ枝町３丁目２０番地,,01,223,0870052,,,2024-12-19,清算の結了等,,,2015-10-05,1,,,,,カワカミトケイテン,0
1216,5470001006746,登記記録の閉鎖等,0,2024-12-23,2024-12-18,株式会社香川アドコム,,株式会社,香川県,高松市,新田町甲２６１５番地８,,37,201,7610102,,,2024-12-18,清算の結了等,,,2015-10-05,1,,,,,カガワアドコム,0
1218,5500001014489,登記記録の閉鎖等,0,2024-12-23,2024-12-18,三谷紙工株式会社,,株式会社,愛媛県,四国中央市,中曽根町２６５７番地,,38,213,7990413,,,2024-12-18,清算の結了等,,,2015-10-05,1,,,,,ミタニシコウ,0
1229,6010005015879,登記記録の閉鎖等,0,2024-12-23,2024-12-19,特定非営利活動法人日本消化器がん検診精度管理評価機構,,その他の設立登記法人,東京都,府中市,本町１丁目１６－１－２０３,,13,206,1830027,,,2024-12-19,清算の結了等,,,2015-10-05,1,,,,,ニホンショウカキガンケンシンセイドカンリヒョウカキコウ,0
1233,6010401016753,登記記録の閉鎖等,0,2024-12-23,2024-12-20,大宝産業株式会社,,株式会社,大阪府,大阪市西区,西本町２丁目３番１０号,,27,106,5500005,,,2024-12-20,清算の結了等,,,2015-10-05,1,,,,,タイホウサンギョウ,0
1242,6010501039811,登記記録の閉鎖等,0,2024-12-23,2024-12-13,株式会社半澤,,株式会社,東京都,台東区,入谷１丁目６番６号,,13,106,1100013,,,2024-12-13,清算の結了等,,,2016-07-22,1,,,,,ハンザワ,0
1248,6010801024942,登記記録の閉鎖等,0,2024-12-23,2024-12-13,株式会社ＴＢＴ,,株式会社,東京都,大田区,南雪谷３丁目１８番１２号,,13,111,1450066,,,2024-12-13,清算の結了等,,,2015-10-05,1,,,,,ティービーティー,0
1252,6011001133690,登記記録の閉鎖等,0,2024-12-23,2024-11-29,株式会社ＹｏｕｒＮａｉｌ,,株式会社,東京都,渋谷区,渋谷２丁目１４番６号西田ビル５Ｆ,,13,113,1500002,,,2024-11-29,清算の結了等,,,2020-05-15,1,,,,,ユアネイル,0
1278,6012402003301,登記記録の閉鎖等,0,2024-12-23,2024-12-13,有限会社大野園,,有限会社,東京都,国分寺市,富士本３丁目９番地４３,,13,214,1850031,,,2024-12-13,清算の結了等,,,2015-10-05,1,,,,,オオノエン,0
1285,6013301040575,登記記録の閉鎖等,0,2024-12-23,2024-12-16,株式会社Ｓｔａｒｒｙ　Ｒｅｃｏｒｄｓ,,株式会社,東京都,練馬区,旭丘１丁目５番７号Ｍ’ｓＦＬＡＴ２０１号室,,13,120,1760005,,,2024-12-16,清算の結了等,,,2017-05-24,1,,,,,スターリーレコーズ,0
1293,6020001147931,登記記録の閉鎖等,0,2024-12-23,2024-12-10,大成住宅株式会社,,株式会社,神奈川県,横浜市中区,長者町８丁目１３４番地長者町ビル９階,,14,104,2310033,,,2024-12-10,清算の結了等,,,2022-08-25,1,,,,,タイセイジュウタク,0
1303,6030001012011,登記記録の閉鎖等,0,2024-12-23,2024-12-17,株式会社Ｌｉｖｉ’Ｃ,,株式会社,埼玉県,さいたま市桜区,栄和６丁目５番１０号,,11,106,3380823,,,2024-12-17,清算の結了等,,,2015-10-05,1,,,,,リビック,0
1316,6040002100755,登記記録の閉鎖等,0,2024-12-23,2024-12-16,有限会社古谷野不動産,,有限会社,千葉県,鴨川市,広場１３７６番地３,,12,223,2960044,,,2024-12-16,清算の結了等,,,2015-10-05,1,,,,,コヤノフドウサン,0
1326,6060001024838,登記記録の閉鎖等,0,2024-12-23,2024-12-18,株式会社サンエイ,,株式会社,栃木県,鹿沼市,口粟野９番地２９,,09,205,3220305,,,2024-12-18,清算の結了等,,,2015-10-05,1,,,,,サンエイ,0
1332,6080401022258,登記記録の閉鎖等,0,2024-12-23,2024-12-17,株式会社ＰＰＴオートリサイクル,,株式会社,静岡県,浜松市浜名区,中瀬２３４１番地の１,,22,139,4340012,,,2024-12-17,清算の結了等,,,2017-06-12,1,,,,,ピーピーティーオートリサイクル,0
1335,6110005005928,登記記録の閉鎖等,0,2024-12-23,2024-12-18,医療法人社団八百枝歯科医院,,その他の設立登記法人,新潟県,加茂市,穀町８番２９号,,15,209,9591371,,,2024-12-18,清算の結了等,,,2015-10-05,1,,,,,ヤオエシカイイン,0
1363,6180001003061,登記記録の閉鎖等,0,2024-12-23,2024-12-11,株式会社メイトーパーキング販売,,株式会社,愛知県,名古屋市名東区,神丘町１丁目４５番地,,23,115,4650083,,,2024-12-11,清算の結了等,,,2015-10-05,1,,,,,メイトーパーキングハンバイ,0
1375,6190003003026,登記記録の閉鎖等,0,2024-12-23,2024-12-13,合同会社さくらライン,,合同会社,三重県,四日市市,水沢町４９１８番地２,,24,202,5121105,,,2024-12-13,清算の結了等,,,2018-12-12,1,,,,,サクラライン,0
1378,6210002010243,登記記録の閉鎖等,0,2024-12-23,2024-12-17,有限会社共立工業,,有限会社,福井県,敦賀市,櫛川３０号７番地の８,00077893,18,202,9140821,,,2024-12-17,清算の結了等,,,2015-10-05,1,,,,,キョウリツコウギョウ,0
1382,6230001006694,登記記録の閉鎖等,0,2024-12-23,2024-12-17,空ホームデザイン株式会社,,株式会社,富山県,富山市,婦中町広田４２７１番地,,16,201,9392745,,,2024-12-17,清算の結了等,,,2015-10-05,1,,,,,クウホームデザイン,0
1386,6250001014274,登記記録の閉鎖等,0,2024-12-23,2024-12-19,雅建創株式会社,,株式会社,山口県,下松市,潮音町３丁目１４番１４号,,35,207,7440074,,,2024-12-19,清算の結了等,,,2015-10-05,1,,,,,ミヤビケンソウ,0
1387,6250003001774,登記記録の閉鎖等,0,2024-12-23,2024-12-17,わんぽ合同会社,,合同会社,山口県,宇部市,大字西岐波１５８９－１,,35,202,7550151,,,2024-12-17,清算の結了等,,,2015-10-05,1,,,,,ワンポ,0
1390,6280002000477,登記記録の閉鎖等,0,2024-12-23,2024-12-20,有限会社おしやれドライ,,有限会社,島根県,松江市,東津田町１８８２番地カーサプラシードＩ・１０５号室,00134977,32,201,6900011,,,2024-12-20,清算の結了等,,,2015-10-05,1,,,,,オシヤレドライ,0
1392,6290001033238,登記記録の閉鎖等,0,2024-12-23,2024-12-03,大久保興産株式会社,,株式会社,福岡県,糸島市,前原東１丁目３番３３－４０１号,,40,230,8191119,,,2024-12-03,清算の結了等,,,2015-10-05,1,,,,,オオクボコウサン,0
1401,6290002033740,登記記録の閉鎖等,0,2024-12-23,2024-12-03,有限会社坂西ジャバラ,,有限会社,福岡県,古賀市,谷山７７７番地９,,40,223,8113125,,,2024-12-03,清算の結了等,,,2015-10-05,1,,,,,サカニシジャバラ,0
1404,6290005002247,登記記録の閉鎖等,0,2024-12-23,2024-12-13,福岡県引越専門協同組合,,その他の設立登記法人,福岡県,福岡市博多区,博多駅前２丁目４番１２号,,40,132,8120011,,,2024-12-13,清算の結了等,,,2015-10-05,1,,,,,フクオカケンヒッコシセンモン,0
1405,6290005016528,登記記録の閉鎖等,0,2024-12-23,2024-12-09,一般社団法人木のした,,その他の設立登記法人,福岡県,福岡市早良区,室見５丁目１０番１５－５０５号,,40,137,8140015,,,2024-12-09,清算の結了等,,,2017-08-07,1,,,,,キノシタ,0
1410,6320002017343,登記記録の閉鎖等,0,2024-12-23,2024-12-13,有限会社御代設備,,有限会社,大分県,佐伯市,中の島２丁目２１番４号,,44,205,8760843,,,2024-12-13,合併による解散等,1320001008967,令和６年１２月１３日大分県佐伯市中の島二丁目２１番４号株式会社佐伯富士甚（1320001008967）に合併し解散,2015-10-05,1,,,,,ミシロセツビ,0
1418,6370001022315,登記記録の閉鎖等,0,2024-12-23,2024-12-16,株式会社カービューティープロＪ．Ｓ,,株式会社,宮城県,仙台市宮城野区,岡田西町１番５０号,,04,102,9830004,,,2024-12-16,清算の結了等,,,2015-10-05,1,,,,,カービューティープロジェイエス,0
1424,6420005000658,登記記録の閉鎖等,0,2024-12-23,2024-12-20,学校法人ケーエム学院,,その他の設立登記法人,青森県,青森市,堤町２丁目１３番５号,,02,201,0300812,,,2024-12-20,清算の結了等,,,2015-10-05,1,,,,,ケーエムガクイン,0
1433,6480003000893,登記記録の閉鎖等,0,2024-12-23,2024-12-16,ヤマトエンジニア合同会社,,合同会社,熊本県,菊池郡菊陽町,大字原水４９５５番地２２,,43,404,8691102,,,2024-12-16,清算の結了等,,,2015-10-05,1,,,,,ヤマトエンジニア,0
1460,7010502003716,登記記録の閉鎖等,0,2024-12-23,2024-12-12,有限会社近藤洋紙店,,有限会社,東京都,台東区,元浅草３丁目１０番６号,,13,106,1110041,,,2024-12-12,清算の結了等,,,2015-10-05,1,,,,,コンドウヨウシテン,0
1461,7010602016221,登記記録の閉鎖等,0,2024-12-23,2024-12-06,有限会社横川製本,,有限会社,東京都,墨田区,横川４丁目１１番４号,,13,107,1300003,,,2024-12-06,清算の結了等,,,2015-10-05,1,,,,,ヨコカワセイホン,0
1464,7010801002344,登記記録の閉鎖等,0,2024-12-23,2024-12-13,株式会社オフィスランド,,株式会社,東京都,大田区,萩中３丁目１２番１２号,,13,111,1440047,,,2024-12-13,清算の結了等,,,2015-10-05,1,,,,,オフィスランド,0
1471,7011001119111,登記記録の閉鎖等,0,2024-12-23,2024-11-29,鶴竹松株式会社,,株式会社,東京都,渋谷区,恵比寿１丁目４番１号恵比寿アーバンハウス９０２,,13,113,1500013,,,2024-11-29,清算の結了等,,,2017-11-09,1,,,,,ツルタケマツ,0
1505,7013303002077,登記記録の閉鎖等,0,2024-12-23,2024-12-13,株式会社アクト,,株式会社,東京都,豊島区,南池袋４丁目１番１０号,,13,116,1710022,,,2024-12-13,清算の結了等,,,2015-10-05,1,,,,,アクト,0
1514,7021003005432,登記記録の閉鎖等,0,2024-12-23,2024-12-20,合同会社Ｊａｐａｎ　Ｈｏｒｓｅ　Ｍａｎａｇｅｍｅｎｔ,,合同会社,神奈川県,座間市,栗原１０７０番地,,14,216,2520013,,,2024-12-20,清算の結了等,,,2015-10-05,1,,,,,ジャパンホースマネージメント,0
1522,7030002083901,登記記録の閉鎖等,0,2024-12-23,2024-12-18,有限会社フクダ,,有限会社,埼玉県,鴻巣市,吹上本町４丁目１２番２８号,,11,217,3690115,,,2024-12-18,清算の結了等,,,2015-10-05,1,,,,,フクダ,0
1524,7030005019365,登記記録の閉鎖等,0,2024-12-23,2024-12-18,ＮＰＯ法人ほわいとカフェ,,その他の設立登記法人,埼玉県,白岡市,白岡１２０３番地３,,11,246,3490218,,,2024-12-18,清算の結了等,,,2019-03-13,1,,,,,ホワイトカフェ,0
1526,7040001041685,登記記録の閉鎖等,0,2024-12-23,2024-12-13,ＪＰＮゴルフ株式会社,,株式会社,東京都,台東区,雷門２丁目３番１２号,,13,106,1110034,,,2024-12-13,清算の結了等,,,2015-10-05,1,,,,,ジェイピーエヌゴルフ,0
1531,7040002055148,登記記録の閉鎖等,0,2024-12-23,2024-12-16,有限会社三幸石材工業所,,有限会社,千葉県,成田市,飯仲２２６番地,,12,211,2860046,,,2024-12-16,清算の結了等,,,2015-10-05,1,,,,,サンコウセキザイコウギョウショ,0
1537,7060001013807,登記記録の閉鎖等,0,2024-12-23,2024-12-17,株式会社シマテック,,株式会社,栃木県,鹿沼市,晃望台２８番地９,,09,205,3220024,,,2024-12-17,清算の結了等,,,2015-10-05,1,,,,,シマテック,0
1538,7060002005638,登記記録の閉鎖等,0,2024-12-23,2024-12-18,有限会社大隆自動車整備工場,,有限会社,栃木県,宇都宮市,上桑島町１３１０番地５,,09,201,3210913,,,2024-12-18,清算の結了等,,,2015-10-05,1,,,,,ダイリュウジドウシャセイビコウジョウ,0
1563,7120101049587,登記記録の閉鎖等,0,2024-12-23,2024-12-19,株式会社ファーストフロッグ,,株式会社,大阪府,松原市,上田１丁目４番１号富士ビル松原ＩＩ,00032594,27,217,5800016,,,2024-12-19,清算の結了等,,,2015-10-05,1,,,,,ファーストフロッグ,0
1569,7122005000584,登記記録の閉鎖等,0,2024-12-23,2024-12-17,白光教白光教会,,その他の設立登記法人,大阪府,東大阪市,荒本２丁目１５番３２号,,27,227,5770023,,,2024-12-17,清算の結了等,,,2015-10-05,1,,,,,ハッコウキョウハッコウキョウカイ,0
1575,7140001102683,登記記録の閉鎖等,0,2024-12-23,2024-12-03,株式会社山崎電機,,株式会社,兵庫県,小野市,来住町１３２８番地２,,28,218,6751343,,,2024-12-03,清算の結了等,,,2016-07-12,1,,,,,ヤマサキデンキ,0
1581,7140005013010,登記記録の閉鎖等,0,2024-12-23,2024-12-19,特定非営利活動法人ハッピーライフ福祉会,,その他の設立登記法人,兵庫県,豊岡市,元町１１番１号,,28,209,6680026,,,2024-12-19,清算の結了等,,,2015-10-05,1,,,,,ハッピーライフフクシカイ,0
1592,7190001008026,登記記録の閉鎖等,0,2024-12-23,2024-12-18,スウイング開発株式会社,,株式会社,三重県,志摩市,志摩町和具２２６４番地１,,24,215,5170703,,,2024-12-18,清算の結了等,,,2015-10-05,1,,,,,スウイングカイハツ,0
1599,7250002007508,登記記録の閉鎖等,0,2024-12-23,2024-12-19,明和薬品有限会社,,有限会社,山口県,美祢市,大嶺町東分３１５番地の７,,35,213,7592212,,,2024-12-19,清算の結了等,,,2015-10-05,1,,,,,メイワヤクヒン,0
1602,7290001033633,登記記録の閉鎖等,0,2024-12-23,2024-12-18,日本電機通信株式会社,,株式会社,大阪府,大阪市北区,西天満３丁目１０番３号４Ｆ,,27,127,5300047,,,2024-12-18,清算の結了等,,,2015-10-05,1,,,,,ニホンデンキツウシン,0
1603,7290001035555,登記記録の閉鎖等,0,2024-12-23,2024-12-02,株式会社イチマルイチ,,株式会社,福岡県,福岡市早良区,室見４丁目２番２４号,,40,137,8140015,,,2024-12-02,清算の結了等,,,2015-10-05,1,,,,,イチマルイチ,0
1604,7290001066872,登記記録の閉鎖等,0,2024-12-23,2024-11-27,リエゾン株式会社,,株式会社,福岡県,福岡市博多区,中洲４丁目１番３５号岡部ビル１号館６階,,40,132,8100801,,,2024-11-27,合併による解散等,2290001052308,令和６年１１月２６日福岡市博多区中洲四丁目２番１５号メインストリートビル２階株式会社ジオ（2290001052308）に合併し解散,2015-10-05,1,,,,,リエゾン,0
1613,7290003006975,登記記録の閉鎖等,0,2024-12-23,2024-12-02,合同会社豊徳,,合同会社,福岡県,福岡市東区,原田４丁目３１番１８－３０５号,,40,131,8120063,,,2024-12-02,清算の結了等,,,2017-01-23,1,,,,,ホウトク,0
1618,7290802001425,登記記録の閉鎖等,0,2024-12-23,2024-12-20,神谷建設工業株式会社,,株式会社,福岡県,北九州市小倉北区,熊本２丁目４番１１号,,40,106,8020044,,,2024-12-20,清算の結了等,,,2015-10-05,1,,,,,カミヤケンセツコウギョウ,0
1621,7300005002913,登記記録の閉鎖等,0,2024-12-23,2024-12-20,楞嚴寺,,その他の設立登記法人,佐賀県,佐賀市,大和町大字尼寺５３９番地,,41,201,8400201,,,2024-12-20,清算の結了等,,,2015-10-05,1,,,,,リョウゴンジ,0
1622,7310001017674,登記記録の閉鎖等,0,2024-12-23,2024-12-18,株式会社サン・ハート,,株式会社,長崎県,佐世保市,原分町１７１５番地７,,42,202,8570103,,,2024-12-18,清算の結了等,,,2022-01-13,1,,,,,サンハート,0
1634,7420002007267,登記記録の閉鎖等,0,2024-12-23,2024-12-19,有限会社ジップ,,有限会社,青森県,八戸市,大字岩泉町９番地,,02,203,0310088,,,2024-12-19,清算の結了等,,,2015-10-05,1,,,,,ジップ,0
1640,7430002023296,登記記録の閉鎖等,0,2024-12-23,2024-12-19,有限会社サッポロシール,,有限会社,北海道,札幌市西区,発寒十一条１４丁目１０６７番地４,,01,107,0630831,,,2024-12-19,清算の結了等,,,2015-10-05,1,,,,,サッポロシール,0
1643,7450002012314,登記記録の閉鎖等,0,2024-12-23,2024-12-19,有限会社マルシメ古谷水産,,有限会社,北海道,苫前郡苫前町,字苫前２１０番地,,01,483,0783701,,,2024-12-19,清算の結了等,,,2015-10-05,1,,,,,マルシメコヤスイサン,0
1658,8010001211505,登記記録の閉鎖等,0,2024-12-23,2024-11-29,株式会社ＰＡＭ,,株式会社,東京都,目黒区,三田１丁目５番１３号,,13,110,1530062,,,2024-11-29,清算の結了等,,,2020-08-12,1,,,,,パム,0
1689,8011002009748,登記記録の閉鎖等,0,2024-12-23,2024-11-29,有限会社ハイアット,,有限会社,東京都,目黒区,中根２丁目８番２２号,,13,110,1520031,,,2024-11-29,清算の結了等,,,2015-10-05,1,,,,,ハイアット,0
1696,8011103012287,登記記録の閉鎖等,0,2024-12-23,2024-12-12,デカフェソフト合同会社,,合同会社,東京都,新宿区,西新宿３丁目３番１３号西新宿水間ビル６階,,13,104,1600023,,,2024-12-12,清算の結了等,,,2022-10-21,1,,,,,デカフェソフト,0
1706,8011802008528,登記記録の閉鎖等,0,2024-12-23,2024-12-17,有限会社渡辺印刷,,有限会社,東京都,葛飾区,東立石４丁目１９番１号,,13,122,1240013,,,2024-12-17,清算の結了等,,,2015-10-05,1,,,,,ワタナベインサツ,0
1745,8030003011942,登記記録の閉鎖等,0,2024-12-23,2024-12-18,合同会社ＭＡＳＫ,,合同会社,埼玉県,朝霞市,本町１丁目２１番３７号,,11,227,3510011,,,2024-12-18,清算の結了等,,,2018-05-28,1,,,,,マスク,0
1760,8070002032317,登記記録の閉鎖等,0,2024-12-23,2024-12-18,有限会社ファーム,,有限会社,群馬県,太田市,下浜田町１０８７番地１,,10,205,3730821,,,2024-12-18,清算の結了等,,,2015-10-05,1,,,,,ファーム,0
1761,8080101018389,登記記録の閉鎖等,0,2024-12-23,2024-12-16,株式会社スギイチ,,株式会社,静岡県,田方郡函南町,仁田５４８番地の１,,22,325,4190114,,,2024-12-16,清算の結了等,,,2015-10-05,1,,,,,,0
1797,8130001051922,登記記録の閉鎖等,0,2024-12-23,2024-12-19,株式会社サンテックエンジニア,,株式会社,京都府,京都市右京区,西京極東大丸町３４番地,,26,108,6150807,,,2024-12-19,清算の結了等,,,2015-10-05,1,,,,,サンテックエンジニア,0
1802,8140001030909,登記記録の閉鎖等,0,2024-12-23,2024-12-16,株式会社関西国際学園,,株式会社,兵庫県,神戸市灘区,新在家南町４丁目９番２８号,,28,102,6570864,,,2024-12-16,清算の結了等,,,2015-10-05,1,,,,,カンサイコクサイガクエン,0
1806,8140001093393,登記記録の閉鎖等,0,2024-12-23,2024-12-16,株式会社タケイ・プランニング,,株式会社,兵庫県,神戸市東灘区,田中町５丁目５番地６－５０３,,28,101,6580081,,,2024-12-16,清算の結了等,,,2015-10-05,1,,,,,タケイプランニング,0
1816,8180001019881,登記記録の閉鎖等,0,2024-12-23,2024-12-16,第一復興家具株式会社,,株式会社,愛知県,名古屋市中川区,蔦元町１丁目３６番地,,23,110,4540824,,,2024-12-16,清算の結了等,,,2015-10-05,1,,,,,ダイイチフッコウカグ,0
1830,8200002003147,登記記録の閉鎖等,0,2024-12-23,2024-12-19,有限会社寺町電気,,有限会社,岐阜県,岐阜市,山吹町４丁目８２番地２,,21,201,5020905,,,2024-12-19,清算の結了等,,,2015-10-05,1,,,,,テラマチデンキ,0
1832,8200005001478,登記記録の閉鎖等,0,2024-12-23,2024-12-18,医療法人社団良成会,,その他の設立登記法人,岐阜県,岐阜市,金園町３丁目２０番地,,21,201,5008113,,,2024-12-18,清算の結了等,,,2015-10-05,1,,,,,リョウセイカイ,0
1833,8210001010085,登記記録の閉鎖等,0,2024-12-23,2024-12-13,日泉株式会社,,株式会社,福井県,勝山市,平泉寺町平泉寺１７０号１０８番地,,18,206,9110822,,,2024-12-13,清算の結了等,,,2015-10-05,1,,,,,ニッセン,0
1835,8250002017241,登記記録の閉鎖等,0,2024-12-23,2024-12-19,有限会社遠役商店,,有限会社,山口県,光市,大字塩田６３９番地の２,,35,210,7430101,,,2024-12-19,清算の結了等,,,2015-10-05,1,,,,,,0
1840,8290001089245,登記記録の閉鎖等,0,2024-12-23,2024-12-03,株式会社ページワン,,株式会社,福岡県,福岡市中央区,渡辺通２丁目９番２０号,,40,133,8100004,,,2024-12-03,清算の結了等,,,2020-06-24,1,,,,,ページワン,0
1842,8290001097561,登記記録の閉鎖等,0,2024-12-23,2024-12-06,ケンルイ株式会社,,株式会社,福岡県,福岡市南区,大楠２丁目２１番１７号,,40,134,8150082,,,2024-12-06,清算の結了等,,,2022-05-18,1,,,,,ケンルイ,0
1849,8290801002101,登記記録の閉鎖等,0,2024-12-23,2024-12-19,総合建設業株式会社タルミ,,株式会社,福岡県,北九州市小倉北区,泉台３丁目１番３号,,40,106,8030842,,,2024-12-19,清算の結了等,,,2015-10-05,1,,,,,ソウゴウケンセツギョウタルミ,0
1862,8330002026606,登記記録の閉鎖等,0,2024-12-23,2024-12-17,有限会社六鴻,,有限会社,熊本県,八代市,松崎町大間１８８番８号,,43,202,8660884,,,2024-12-17,清算の結了等,,,2015-10-05,1,,,,,ロッコウ,0
1864,8340002006540,登記記録の閉鎖等,0,2024-12-23,2024-12-17,有限会社トータルソリューション企画,,有限会社,鹿児島県,鹿児島市,小原町３１番３号,,46,201,8910111,,,2024-12-17,清算の結了等,,,2015-10-05,1,,,,,トータルソリューションキカク,0
1877,8390002005538,登記記録の閉鎖等,0,2024-12-23,2024-12-19,有限会社創建工業,,有限会社,山形県,天童市,東本町２丁目７番２５号,,06,210,9940026,,,2024-12-19,清算の結了等,,,2015-10-05,1,,,,,ソウケンコウギョウ,0
1881,8430001082251,登記記録の閉鎖等,0,2024-12-23,2024-12-18,株式会社ＩＤＩＡＴＥ,,株式会社,北海道,札幌市中央区,大通東３丁目１番地１,,01,101,0600041,,,2024-12-18,清算の結了等,,,2020-09-03,1,,,,,イディエイト,0
1888,8490005005277,登記記録の閉鎖等,0,2024-12-23,2024-12-12,特定非営利活動法人高知まちづくり支援ネットワーク,,その他の設立登記法人,高知県,香美市,土佐山田町宮ノ口１８５高知工科大学連携研究センター,,39,212,7820003,,,2024-12-12,清算の結了等,,,2015-10-05,1,,,,,,0
1897,9010003034829,登記記録の閉鎖等,0,2024-12-23,2024-12-09,ｉプロパティ５合同会社,,合同会社,東京都,千代田区,永田町２丁目１４番２号－３階スリーアイズキャピタル株式会社内,,13,101,1000014,,,2024-12-09,清算の結了等,,,2021-05-13,1,,,,,アイプロパティファイブ,0
1900,9010401146259,登記記録の閉鎖等,0,2024-12-23,2024-12-06,株式会社マーズ,,株式会社,東京都,港区,麻布台１丁目３番２号,,13,103,1060041,,,2024-12-06,清算の結了等,,,2019-06-18,1,,,,,マーズ,0
1901,9010401151143,登記記録の閉鎖等,0,2024-12-23,2024-12-06,ソーシャルメディカルメディア株式会社,,株式会社,東京都,港区,赤坂３丁目１番１６号,,13,103,1070052,,,2024-12-06,清算の結了等,,,2020-02-19,1,,,,,ソーシャルメディカルメディア,0
1908,9010403031087,登記記録の閉鎖等,0,2024-12-23,2024-12-06,ＪＦＲブリッジ合同会社,,合同会社,東京都,港区,元赤坂１丁目１番８号赤坂コミュニティビル４階,,13,103,1070051,,,2024-12-06,清算の結了等,,,2023-10-05,1,,,,,ジェイエフアールブリッジ,0
1921,9011001096687,登記記録の閉鎖等,0,2024-12-23,2024-12-16,株式会社テラソラル,,株式会社,東京都,世田谷区,瀬田３丁目１４番１２号,,13,112,1580095,,,2024-12-16,清算の結了等,,,2015-10-05,1,,,,,,0
1922,9011001100192,登記記録の閉鎖等,0,2024-12-23,2024-11-29,岩崎コンサルティング株式会社,,株式会社,東京都,目黒区,柿の木坂１丁目１５番１６号,,13,110,1520022,,,2024-11-29,清算の結了等,,,2015-10-05,1,,,,,イサワキコンサルティング,0
1941,9011401005108,登記記録の閉鎖等,0,2024-12-23,2024-12-18,株式会社ニューバード,,株式会社,東京都,世田谷区,桜１丁目６１番４号,,13,112,1560053,,,2024-12-18,清算の結了等,,,2015-10-05,1,,,,,,0
1968,9020001004163,登記記録の閉鎖等,0,2024-12-23,2024-12-17,株式会社立野,,株式会社,静岡県,下田市,四丁目８－２０－１Ｆ,,22,219,4150024,,,2024-12-17,清算の結了等,,,2015-10-05,1,,,,,タテノ,0
1979,9021001063793,登記記録の閉鎖等,0,2024-12-23,2024-12-19,株式会社イノセントワールド,,株式会社,神奈川県,鎌倉市,御成町１１番２号,,14,204,2480012,,,2024-12-19,清算の結了等,,,2017-12-20,1,,,,,イノセントワールド,0
1984,9030002063034,登記記録の閉鎖等,0,2024-12-23,2024-12-18,有限会社ケイビジネス,,有限会社,埼玉県,富士見市,鶴瀬西２丁目５番１１号,,11,235,3540026,,,2024-12-18,清算の結了等,,,2015-10-05,1,,,,,ケイビジネス,0
1985,9030002115909,登記記録の閉鎖等,0,2024-12-23,2024-12-18,有限会社テシカァ,,有限会社,埼玉県,大里郡寄居町,大字富田１７６９番地１４,,11,408,3691216,,,2024-12-18,清算の結了等,,,2015-10-05,1,,,,,テシカァ,0
2004,9070001024891,登記記録の閉鎖等,0,2024-12-23,2024-12-19,株式会社ＩＥ,,株式会社,群馬県,太田市,大原町２２２５番４１,,10,205,3792304,,,2024-12-19,清算の結了等,,,2015-10-05,1,,,,,アイイー,0
2006,9070002002293,登記記録の閉鎖等,0,2024-12-23,2024-12-18,有限会社酒井軽量,,有限会社,群馬県,前橋市,総社町高井８７２番地の８,,10,201,3710856,,,2024-12-18,清算の結了等,,,2015-10-05,1,,,,,サカイケイリョウ,0
2009,9080101009973,登記記録の閉鎖等,0,2024-12-23,2024-12-18,株式会社渡辺工具,,株式会社,静岡県,富士市,日乃出町３５番地,,22,210,4170056,,,2024-12-18,清算の結了等,,,2015-10-05,1,,,,,ワタナベコウグ,0
2014,9100002020977,登記記録の閉鎖等,0,2024-12-23,2024-12-19,有限会社中澤ワークブレーン,,有限会社,長野県,松本市,筑摩１丁目２０番９号,,20,202,3900821,,,2024-12-19,清算の結了等,,,2015-10-05,1,,,,,ナカザワワークブレーン,0
2015,9100003005564,登記記録の閉鎖等,0,2024-12-23,2024-12-18,合同会社つみくさの里,,合同会社,長野県,下伊那郡売木村,２１８７番地１,,20,412,3991601,,,2024-12-18,清算の結了等,,,2020-02-04,1,,,,,ツミクサノサト,0
2020,9110005016798,登記記録の閉鎖等,0,2024-12-23,2024-12-18,一般社団法人つなぐらいふ,,その他の設立登記法人,新潟県,新発田市,荒町甲１５２１番地,,15,206,9592311,,,2024-12-18,清算の結了等,,,2022-04-19,1,,,,,ツナグライフ,0
2023,9120001158619,登記記録の閉鎖等,0,2024-12-23,2024-12-18,紀州夢社中株式会社,,株式会社,大阪府,門真市,宮野町１１番７号,,27,223,5710062,,,2024-12-18,清算の結了等,,,2015-10-05,1,,,,,キシュウユメシャチュウ,0
2025,9120001229163,登記記録の閉鎖等,0,2024-12-23,2024-12-19,株式会社ＴＭスタジオ,,株式会社,大阪府,大阪市北区,西天満６丁目９番１２号,,27,127,5300047,,,2024-12-19,清算の結了等,,,2020-05-25,1,,,,,ティエムスタジオ,0
2026,9120001229709,登記記録の閉鎖等,0,2024-12-23,2024-12-19,株式会社ＬＥＶＥＬ　ＭＡＸ,,株式会社,大阪府,大阪市北区,中津１丁目２－２１,,27,127,5310071,,,2024-12-19,清算の結了等,,,2020-06-11,1,,,,,レベルマックス,0
2039,9120102003632,登記記録の閉鎖等,0,2024-12-23,2024-12-18,有限会社日新サービス,,有限会社,大阪府,堺市中区,深井水池町３０８８番地２,,27,142,5998237,,,2024-12-18,清算の結了等,,,2015-10-05,1,,,,,ニッシンサービス,0
2047,9130001072629,登記記録の閉鎖等,0,2024-12-23,2024-12-20,株式会社Ｆｉｒｅｌｉｇｈｔ,,株式会社,京都府,京都市中京区,御池通高倉西北角４Ｆ,,26,104,6040000,,,2024-12-20,清算の結了等,,,2022-09-13,1,,,,,ファイヤーライト,0
2058,9140002016856,登記記録の閉鎖等,0,2024-12-23,2024-12-18,有限会社恵美須,,有限会社,兵庫県,神戸市長田区,庄田町３丁目２番１２号,,28,106,6530035,,,2024-12-18,清算の結了等,,,2015-10-05,1,,,,,エビス,0
2073,9180003026479,登記記録の閉鎖等,0,2024-12-23,2024-12-16,ＫＡＴＯ合同会社,,合同会社,愛知県,清須市,西市場４丁目７番地６,,23,233,4520941,,,2024-12-16,清算の結了等,,,2024-03-15,1,,,,,カトウ,0
2084,9220005008801,登記記録の閉鎖等,0,2024-12-23,2024-12-19,一般財団法人能登金沢協力チーム,,その他の設立登記法人,石川県,金沢市,本町１丁目３番３９号,,17,201,9200853,,,2024-12-19,清算の結了等,,,2024-01-26,1,,,,,ノトカナザワキョウリョクチーム,0
2095,9290001070609,登記記録の閉鎖等,0,2024-12-23,2024-12-19,株式会社パワーインダストリー,,株式会社,大分県,中津市,三光西秣５５番地,,44,203,8790222,,,2024-12-19,清算の結了等,,,2015-10-05,1,,,,,パワーインダストリー,0
2097,9290002030883,登記記録の閉鎖等,0,2024-12-23,2024-12-18,有限会社天旬,,有限会社,福岡県,福岡市中央区,平尾３丁目９番９号,,40,133,8100014,,,2024-12-18,清算の結了等,,,2015-10-05,1,,,,,テンシュン,0
2104,9340002005797,登記記録の閉鎖等,0,2024-12-23,2024-12-18,有限会社タイラ,,有限会社,鹿児島県,鹿児島市,坂之上６丁目１２番６号,,46,201,8910150,,,2024-12-18,清算の結了等,,,2015-10-05,1,,,,,タイラ,0
2110,9360001031660,登記記録の閉鎖等,0,2024-12-23,2024-12-19,株式会社ｅｐｄ,,株式会社,沖縄県,那覇市,銘苅２丁目４－３６－３Ｆ,,47,201,9000004,,,2024-12-19,清算の結了等,,,2023-03-08,1,,,,,イーピーディー,0
2113,9360003010035,登記記録の閉鎖等,0,2024-12-23,2024-12-20,合同会社アール・ピーオフィス,,合同会社,沖縄県,宜野湾市,愛知１丁目５番１５号愛知ファッションビル１Ｆ－Ａ号,,47,205,9012206,,,2024-12-20,清算の結了等,,,2020-01-23,1,,,,,アールピーオフィス,0
2114,9360005004679,登記記録の閉鎖等,0,2024-12-23,2024-12-20,特定非営利活動法人沖縄東アジア研究センター,,その他の設立登記法人,沖縄県,那覇市,曙１丁目１５番３号,,47,201,9000002,,,2024-12-20,清算の結了等,,,2015-10-05,1,,,,,オキナワヒガシアジアケンキュウセンター,0
2118,9380003004951,登記記録の閉鎖等,0,2024-12-23,2024-12-09,合同会社まる,,合同会社,福島県,いわき市,常磐藤原町西畑２８番地の３,,07,204,9728326,,,2024-12-09,清算の結了等,,,2021-06-21,1,,,,,マル,0
2119,9400002012300,登記記録の閉鎖等,0,2024-12-23,2024-12-13,有限会社さくらホーム,,有限会社,岩手県,二戸市,堀野字三十刈５番地１,,03,213,0286105,,,2024-12-13,清算の結了等,,,2015-10-05,1,,,,,サクラホーム,0
2129,9480005006044,登記記録の閉鎖等,0,2024-12-23,2024-12-20,特定非営利活動法人マチトソラ,,その他の設立登記法人,徳島県,三好市,池田町マチ２４３８番地,,36,208,7780002,,,2024-12-20,清算の結了等,,,2015-10-05,1,,,,,マチトソラ,0
