sequenceNumber,corporateNumber,process,correct,updateDate,changeDate,name,nameImageId,kind,prefectureName,cityName,streetNumber,addressImageId,prefectureCode,cityCode,postCode,addressOutside,addressOutsideImageId,closeDate,closeCause,successorCorporateNumber,changeCause,assignmentDate,latest,enName,enPrefectureName,enCityName,enAddressOutside,furigana,hihyoji
2,1010001015813,登記記録の閉鎖等,0,2024-08-02,2024-07-31,京王航空測量株式会社,,株式会社,静岡県,下田市,田牛字上碁石浜７１８番地１８０,,22,219,4150029,,,2024-07-31,清算の結了等,,,2015-10-05,1,,,,,ケイオウコウクウソクリョウ,0
32,1010801010344,登記記録の閉鎖等,0,2024-08-02,2024-07-24,株式会社ファンタジックショウケース,,株式会社,東京都,大田区,蒲田５丁目４８番４号,,13,111,1440052,,,2024-07-24,清算の結了等,,,2015-10-05,1,,,,,ファンタジックショウケース,0
34,1010802004469,登記記録の閉鎖等,0,2024-08-02,2024-07-26,有限会社工藤工業所,,有限会社,東京都,大田区,西六郷３丁目３１番１５号,,13,111,1440056,,,2024-07-26,清算の結了等,,,2015-10-05,1,,,,,クドウコウギョウショ,0
64,1012401008751,登記記録の閉鎖等,0,2024-08-02,2024-07-31,株式会社山崎商店,,株式会社,東京都,調布市,富士見町２丁目１番地１９,,13,208,1820033,,,2024-07-31,清算の結了等,,,2015-10-05,1,,,,,ヤマザキショウテン,0
102,1040002017401,登記記録の閉鎖等,0,2024-08-02,2024-07-18,有限会社エフエスアイ,,有限会社,千葉県,千葉市中央区,東千葉１丁目３番４棟１０９号,,12,101,2600041,,,2024-07-18,清算の結了等,,,2015-10-05,1,,,,,エフエスアイ,0
113,1060002009272,登記記録の閉鎖等,0,2024-08-02,2024-07-22,有限会社やまはん石材店,,有限会社,栃木県,宇都宮市,大谷町９３番地,,09,201,3210345,,,2024-07-22,清算の結了等,,,2015-10-05,1,,,,,ヤマハンセキザイテン,0
115,1060003002251,登記記録の閉鎖等,0,2024-08-02,2024-07-22,合同会社大成コムコン,,合同会社,栃木県,宇都宮市,下戸祭１丁目５番１３号グランセリオ八幡山４０３,,09,201,3200055,,,2024-07-22,清算の結了等,,,2016-04-13,1,,,,,タイセイコムコン,0
121,1070002011525,登記記録の閉鎖等,0,2024-08-02,2024-08-01,有限会社白金堂,,有限会社,群馬県,高崎市,剣崎町１２２２番地６,,10,202,3700883,,,2024-08-01,清算の結了等,,,2015-10-05,1,,,,,ハッキンドウ,0
137,1110001017592,登記記録の閉鎖等,0,2024-08-02,2024-07-24,株式会社松島,,株式会社,新潟県,柏崎市,大字鯨波乙１８２８番地,,15,205,9450855,,,2024-07-24,清算の結了等,,,2015-10-05,1,,,,,マツシマ,0
138,1110002026948,登記記録の閉鎖等,0,2024-08-02,2024-07-25,有限会社エクセル,,有限会社,新潟県,長岡市,松葉１丁目６番９号,,15,202,9400091,,,2024-07-25,清算の結了等,,,2015-10-05,1,,,,,エクセル,0
139,1110002028374,登記記録の閉鎖等,0,2024-08-02,2024-07-24,有限会社デイリー平沢,,有限会社,新潟県,長岡市,中島５丁目１１番２７号,,15,202,9400094,,,2024-07-24,清算の結了等,,,2015-10-05,1,,,,,デイリーヒラサワ,0
143,1120001021528,登記記録の閉鎖等,0,2024-08-02,2024-08-01,符田電気工事株式会社,,株式会社,大阪府,大阪市平野区,長吉出戸１丁目１１番３号,,27,126,5470011,,,2024-08-01,清算の結了等,,,2015-10-05,1,,,,,フダデンキコウジ,0
146,1120001084145,登記記録の閉鎖等,0,2024-08-02,2024-08-01,株式会社谷本紙業社,,株式会社,大阪府,東大阪市,稲田本町２丁目３番１６号,,27,227,5770007,,,2024-08-01,清算の結了等,,,2015-10-05,1,,,,,タニモトシギョウシャ,0
190,1140001028331,登記記録の閉鎖等,0,2024-08-02,2024-07-30,株式会社ひなたケアセンター,,株式会社,兵庫県,神戸市東灘区,青木５丁目１７番６号大窪マンション１０３,,28,101,6580027,,,2024-07-30,清算の結了等,,,2015-10-05,1,,,,,ヒナタケアセンター,0
201,1150002003407,登記記録の閉鎖等,0,2024-08-02,2024-07-31,有限会社陶舗緒方,,有限会社,奈良県,奈良市,東登美ヶ丘４丁目１６番９号,,29,201,6310002,,,2024-07-31,清算の結了等,,,2015-10-05,1,,,,,トウホオガタ,0
213,1180002001226,登記記録の閉鎖等,0,2024-08-02,2024-07-18,有限会社ニューさのさ鮨,,有限会社,愛知県,名古屋市守山区,茶臼前２０番２号,,23,113,4630012,,,2024-07-18,清算の結了等,,,2015-10-05,1,,,,,ニューサノサズシ,0
235,1240002043063,登記記録の閉鎖等,0,2024-08-02,2024-07-29,有限会社政岡工業,,有限会社,広島県,福山市,坪生町５丁目２４番９号,,34,207,7210903,,,2024-07-29,清算の結了等,,,2015-10-05,1,,,,,マサオカコウギョウ,0
248,1290001003724,登記記録の閉鎖等,0,2024-08-02,2024-07-01,日通福岡トラック株式会社,,株式会社,福岡県,福岡市東区,箱崎ふ頭４丁目１８－２,,40,131,8120051,,,2024-07-01,清算の結了等,,,2015-10-05,1,,,,,ニッツウフクオカトラック,0
249,1290001064196,登記記録の閉鎖等,0,2024-08-02,2024-07-23,株式会社エム・オーホールディングス,,株式会社,福岡県,福岡市早良区,室見４丁目２番２４号,,40,137,8140015,,,2024-07-23,合併による解散等,8290001015829,令和６年７月２３日福岡市早良区室見四丁目２番２４号株式会社バッハベルク（8290001015829）に合併し解散,2015-10-05,1,,,,,エムオーホールディングス,0
252,1290002044098,登記記録の閉鎖等,0,2024-08-02,2024-06-27,有限会社テルアイズ,,有限会社,福岡県,朝倉市,宮野１６５１番地の５,,40,228,8381302,,,2024-06-27,清算の結了等,,,2015-10-05,1,,,,,,0
262,1300005004114,登記記録の閉鎖等,0,2024-08-02,2024-07-26,伊万里酒販協同組合,,その他の設立登記法人,佐賀県,伊万里市,東山代町里３５８番地１９,,41,205,8494282,,,2024-07-26,清算の結了等,,,2015-10-05,1,,,,,イマリシュハン,0
269,1350003000655,登記記録の閉鎖等,0,2024-08-02,2024-07-26,合同会社ハンドキャッズ,,合同会社,宮崎県,宮崎市,下原町３９６番地６,,45,201,8800843,,,2024-07-26,清算の結了等,,,2015-10-05,1,,,,,ハンドキャッズ,0
286,1480002008397,登記記録の閉鎖等,0,2024-08-02,2024-07-31,有限会社ホールド,,有限会社,徳島県,徳島市,仲之町１丁目２１番地３,,36,201,7700932,,,2024-07-31,清算の結了等,,,2015-10-05,1,,,,,ホールド,0
296,2010001178816,登記記録の閉鎖等,0,2024-08-02,2024-07-19,株式会社ミミヨリ,,株式会社,東京都,中央区,新川１丁目２７番５号,,13,102,1040033,,,2024-07-19,清算の結了等,,,2016-10-07,1,,,,,ミミヨリ,0
304,2010103001413,登記記録の閉鎖等,0,2024-08-02,2024-07-31,合同会社Ｇｒａｐｈｉｃｓ　Ｍｅｍｅ,,合同会社,東京都,八王子市,中野上町４丁目７番１２号,,13,201,1920041,,,2024-07-31,清算の結了等,,,2019-06-19,1,,,,,グラフィックスミーム,0
313,2010405020904,登記記録の閉鎖等,0,2024-08-02,2024-07-10,赤坂ソーラーホールディングス一般社団法人,,その他の設立登記法人,東京都,港区,虎ノ門３丁目２２番１０－２０１号,,13,103,1050001,,,2024-07-10,清算の結了等,,,2022-04-06,1,,,,,アカサカソーラーホールディングス,0
318,2010601035730,登記記録の閉鎖等,0,2024-08-02,2024-08-01,株式会社ウォーターテック,,株式会社,東京都,江東区,亀戸３丁目６番１８号,,13,108,1360071,,,2024-08-01,清算の結了等,,,2015-10-05,1,,,,,ウォーターテック,0
322,2010801002316,登記記録の閉鎖等,0,2024-08-02,2024-07-25,雄西電氣工業株式会社,,株式会社,東京都,大田区,大森北１丁目２７番５号,,13,111,1430016,,,2024-07-25,清算の結了等,,,2015-10-05,1,,,,,ユウセイデンキコウギョウ,0
333,2011102005652,登記記録の閉鎖等,0,2024-08-02,2024-07-30,有限会社サワトー,,有限会社,東京都,杉並区,松庵３丁目８番５号,,13,115,1670054,,,2024-07-30,清算の結了等,,,2015-10-05,1,,,,,サワトー,0
335,2011103010627,登記記録の閉鎖等,0,2024-08-02,2024-07-17,英達合同会社,,合同会社,東京都,新宿区,大久保２丁目２５番２７－２０３号,,13,104,1690072,,,2024-07-17,清算の結了等,,,2021-04-27,1,,,,,エイタツ,0
365,2020005005057,登記記録の閉鎖等,0,2024-08-02,2024-07-10,特定非営利活動法人かながわアドバンスサポート,,その他の設立登記法人,神奈川県,横浜市緑区,十日市場町１２５８番地十日市場ヒルタウン１４－１号棟２０７号,,14,113,2260025,,,2024-07-10,清算の結了等,,,2015-10-05,1,,,,,カナガワアドバンスサポート,0
369,2021001063354,登記記録の閉鎖等,0,2024-08-02,2024-07-31,ＳＨＩＭＯ’Ｓ株式会社,,株式会社,神奈川県,海老名市,下今泉２丁目２番２－１０１９号,,14,215,2430435,,,2024-07-31,清算の結了等,,,2017-10-20,1,,,,,シモズ,0
371,2021002031748,登記記録の閉鎖等,0,2024-08-02,2024-07-30,有限会社酒井土木,,有限会社,神奈川県,厚木市,愛甲９７３番地,,14,212,2430035,,,2024-07-30,清算の結了等,,,2015-10-05,1,,,,,サカイドボク,0
372,2021002038140,登記記録の閉鎖等,0,2024-08-02,2024-07-30,有限会社高橋鉄工所,00013417,有限会社,神奈川県,秦野市,平沢７１５番地,,14,211,2570015,,,2024-07-30,清算の結了等,,,2015-10-05,1,,,,,タカハシテッコウショ,0
402,2060005007487,登記記録の閉鎖等,0,2024-08-02,2024-07-19,特定非営利活動法人日本外科医会,,その他の設立登記法人,栃木県,宇都宮市,ゆいの杜３丁目２番２３号ミヤ健康クリニック,,09,201,3213226,,,2024-07-19,清算の結了等,,,2015-10-05,1,,,,,ニホンゲカイカイ,0
409,2080101021489,登記記録の閉鎖等,0,2024-08-02,2024-07-30,株式会社夢大地,,株式会社,静岡県,下田市,白浜１０６７番地の５,,22,219,4150012,,,2024-07-30,清算の結了等,,,2019-11-26,1,,,,,ユメダイチ,0
417,2100002031254,登記記録の閉鎖等,0,2024-08-02,2024-07-16,有限会社サン・アパレル,,有限会社,長野県,岡谷市,神明町１丁目２番５１号,,20,204,3940004,,,2024-07-16,清算の結了等,,,2015-10-05,1,,,,,サンアパレル,0
446,2120005023453,登記記録の閉鎖等,0,2024-08-02,2024-07-26,社会保険労務士法人アリーズアドバイザリー,,その他の設立登記法人,大阪府,大阪市北区,大淀中１丁目１－３０梅田スカイビルタワーウエスト,,27,127,5310076,,,2024-07-26,清算の結了等,,,2023-02-03,1,,,,,アリーズアドバイザリー,0
448,2120101056695,登記記録の閉鎖等,0,2024-08-02,2024-07-29,株式会社尾崎,00110538,株式会社,大阪府,泉南郡熊取町,大久保南３丁目１４１６番地１,,27,361,5900405,,,2024-07-29,清算の結了等,,,2017-06-14,1,,,,,オザキ,0
488,2180002035545,登記記録の閉鎖等,0,2024-08-02,2024-07-19,有限会社バンテック,,有限会社,愛知県,名古屋市緑区,大高町字巳新田８７番地の２,,23,114,4598001,,,2024-07-19,清算の結了等,,,2015-10-05,1,,,,,バンテック,0
493,2180002088832,登記記録の閉鎖等,0,2024-08-02,2024-07-22,株式会社伊藤工業,,株式会社,愛知県,東海市,東海町７丁目３番９号,,23,222,4760015,,,2024-07-22,清算の結了等,,,2015-10-05,1,,,,,イトウコウギョウ,0
503,2230001001393,登記記録の閉鎖等,0,2024-08-02,2024-07-31,株式会社センテック,,株式会社,富山県,富山市,田畑字道田８５０番地,,16,201,9318403,,,2024-07-31,清算の結了等,,,2015-10-05,1,,,,,センテック,0
511,2260001007207,登記記録の閉鎖等,0,2024-08-02,2024-07-23,浅野醤油株式会社,,株式会社,岡山県,赤磐市,立川６５６番地,,33,213,7090815,,,2024-07-23,清算の結了等,,,2015-10-05,1,,,,,アサノショウユ,0
512,2260001008502,登記記録の閉鎖等,0,2024-08-02,2024-07-19,株式会社ワンストップ,,株式会社,岡山県,岡山市南区,新保６５４番地１３,,33,104,7000945,,,2024-07-19,清算の結了等,,,2015-10-05,1,,,,,ワンストップ,0
518,2270001002330,登記記録の閉鎖等,0,2024-08-02,2024-07-31,熊沢製紙株式会社,,株式会社,鳥取県,鳥取市,佐治町大井１８５番地４,,31,201,6891304,,,2024-07-31,清算の結了等,,,2015-10-05,1,,,,,クマザワセイシ,0
528,2320003003148,登記記録の閉鎖等,0,2024-08-02,2024-07-26,合同会社ライトマップ,,合同会社,東京都,豊島区,駒込４丁目８番１２－３０５号,,13,116,1700003,,,2024-07-26,清算の結了等,,,2020-01-07,1,,,,,ライトマップ,0
543,2390002000437,登記記録の閉鎖等,0,2024-08-02,2024-07-18,有限会社エービーエス,,有限会社,山形県,山形市,桧町３丁目１１番３３号,,06,201,9900813,,,2024-07-18,清算の結了等,,,2015-10-05,1,,,,,エービーエス,0
546,2410002008329,登記記録の閉鎖等,0,2024-08-02,2024-07-25,岩美玲商有限会社,,有限会社,東京都,西東京市,住吉町６丁目１５番２４号,,13,229,2020005,,,2024-07-25,清算の結了等,,,2015-10-05,1,,,,,イワミレイショウ,0
556,2500003002560,登記記録の閉鎖等,0,2024-08-02,2024-07-26,ＥＯＰ　ＥＭＯＴＩＯＮＳ合同会社,,合同会社,愛媛県,宇和島市,川内甲１４４４番地１,,38,203,7980075,,,2024-07-26,清算の結了等,,,2021-01-06,1,,,,,イーオーピーエモーションズ,0
576,3010401131266,登記記録の閉鎖等,0,2024-08-02,2024-07-31,株式会社鍋島戦略研究所,,株式会社,広島県,東広島市,高屋町高屋堀３１９９番１０号,,34,212,7392111,,,2024-07-31,清算の結了等,,,2017-05-10,1,,,,,ナベシマセンリャクケンキュウショ,0
591,3010703004483,登記記録の閉鎖等,0,2024-08-02,2024-07-31,合同会社ＴＮＫＹ,,合同会社,神奈川県,横浜市中区,桜木町１丁目１０１番地１クロスゲート７階,,14,104,2310062,,,2024-07-31,清算の結了等,,,2018-10-10,1,,,,,ティーエヌケーワイ,0
597,3011001065929,登記記録の閉鎖等,0,2024-08-02,2024-07-11,株式会社タイシン柔整国試予備校,,株式会社,東京都,渋谷区,初台１丁目４９番１号,,13,113,1510061,,,2024-07-11,清算の結了等,,,2015-10-05,1,,,,,タイシンジュウセイコクシヨビコウ,0
604,3011101078319,登記記録の閉鎖等,0,2024-08-02,2024-08-01,株式会社プロスエーレ,,株式会社,東京都,新宿区,西新宿１丁目２５番１号新宿センタービル３２階,,13,104,1600023,,,2024-08-01,清算の結了等,,,2016-09-28,1,,,,,プロスエーレ,0
621,3012301008511,登記記録の閉鎖等,0,2024-08-02,2024-07-29,Ｆｕｔｏｎｔｏ株式会社,,株式会社,東京都,町田市,原町田６丁目２７－１９平本ビル,,13,209,1940013,,,2024-07-29,合併による解散等,9010001045563,令和６年７月１日東京都中央区日本橋一丁目１番７号昭和西川株式会社（9010001045563）に合併し解散,2015-10-05,1,Futonto Inc.,,,,フトント,0
631,3013303004151,登記記録の閉鎖等,0,2024-08-02,2024-07-29,合同会社大福,,合同会社,東京都,港区,元赤坂１丁目１番１８号元赤坂ＮＨビル３階,,13,103,1070051,,,2024-07-29,合併による解散等,6370001020178,令和６年５月１日宮城県仙台市宮城野区東仙台四丁目２番７６号株式会社ガルドゥ（6370001020178）に合併し解散,2018-05-07,1,,,,,ダイフク,0
639,3020002052670,登記記録の閉鎖等,0,2024-08-02,2024-07-10,有限会社エモトサンデント,,有限会社,神奈川県,横浜市金沢区,片吹６番９号,,14,108,2360055,,,2024-07-10,清算の結了等,,,2015-10-05,1,,,,,エモトサンデント,0
648,3021001069664,登記記録の閉鎖等,0,2024-08-02,2024-07-29,株式会社Ｌａｚｕｌｉｙ,,株式会社,神奈川県,横須賀市,湘南国際村１丁目１番１号,,14,201,2400107,,,2024-07-29,清算の結了等,,,2020-04-07,1,,,,,ラズリー,0
657,3030002120757,登記記録の閉鎖等,0,2024-08-02,2024-07-29,有限会社創進ケミテック,,有限会社,埼玉県,飯能市,大字笠縫９番地１４,,11,209,3570045,,,2024-07-29,清算の結了等,,,2015-10-05,1,,,,,ソウシンケミテック,0
663,3040001073716,登記記録の閉鎖等,0,2024-08-02,2024-07-17,株式会社安房農機,,株式会社,千葉県,館山市,西長田２９番地,,12,205,2940027,,,2024-07-17,清算の結了等,,,2015-10-05,1,,,,,アワノウキ,0
666,3040003001658,登記記録の閉鎖等,0,2024-08-02,2024-08-01,合同会社イーズ,,合同会社,京都府,京都市東山区,東大路松原上る５丁目月見町１７番地４,,26,105,6050829,,,2024-08-01,合併による解散等,5130001028881,令和６年８月１日京都市東山区東大路松原上る五丁目月見町１７番地４株式会社キョウエイコーポレーション（5130001028881）に合併し解散,2015-10-05,1,,,,,イーズ,0
680,3070001002309,登記記録の閉鎖等,0,2024-08-02,2024-07-31,豊田工業株式会社,,株式会社,群馬県,前橋市,上細井町１２５０番地,,10,201,3710051,,,2024-07-31,清算の結了等,,,2015-10-05,1,,,,,トヨダコウギョウ,0
681,3070001011771,登記記録の閉鎖等,0,2024-08-02,2024-07-30,株式会社白石植物園,,株式会社,群馬県,富岡市,藤木甲２３２番地,,10,210,3702307,,,2024-07-30,清算の結了等,,,2015-10-05,1,,,,,シロイシショクブツエン,0
693,3090002011802,登記記録の閉鎖等,0,2024-08-02,2024-07-29,有限会社加賀美製作所,,有限会社,山梨県,富士吉田市,大明見２丁目２番３号,,19,202,4030003,,,2024-07-29,清算の結了等,,,2015-10-05,1,,,,,カガミセイサクショ,0
696,3100001006628,登記記録の閉鎖等,0,2024-08-02,2024-07-16,株式会社Ｙ・Ｇ急送サービス,,株式会社,長野県,長野市,大字東和田５０１－６辰巳ビル,,20,201,3810038,,,2024-07-16,清算の結了等,,,2015-10-05,1,,,,,ワイジーキュウソウサービス,0
699,3110002017391,登記記録の閉鎖等,0,2024-08-02,2024-07-24,有限会社ツルサ,,有限会社,新潟県,三条市,林町１丁目１番１号,,15,204,9550061,,,2024-07-24,清算の結了等,,,2015-10-05,1,,,,,ツルサ,0
745,3140002055232,登記記録の閉鎖等,0,2024-08-02,2024-07-30,有限会社マローン,,有限会社,兵庫県,三田市,すずかけ台１丁目１２番地,,28,219,6691322,,,2024-07-30,清算の結了等,,,2015-10-05,1,,,,,マローン,0
771,3210002012325,登記記録の閉鎖等,0,2024-08-02,2024-07-31,有限会社笠原建設工業,,有限会社,福井県,丹生郡越前町,梅浦第８４号２番地の２,,18,423,9160311,,,2024-07-31,清算の結了等,,,2015-10-05,1,,,,,カサハラケンセツコウギョウ,0
774,3230002011399,登記記録の閉鎖等,0,2024-08-02,2024-07-31,有限会社曽根鉄工,,有限会社,富山県,高岡市,石丸７０８番地の２４,,16,202,9340095,,,2024-07-31,清算の結了等,,,2015-10-05,1,,,,,ソネテッコウ,0
780,3240002033145,登記記録の閉鎖等,0,2024-08-02,2024-07-31,有限会社租税研究室,,有限会社,広島県,呉市,中央３丁目３番１２号,,34,202,7370051,,,2024-07-31,清算の結了等,,,2015-10-05,1,,,,,ソゼイケンキュウシツ,0
781,3240002033153,登記記録の閉鎖等,0,2024-08-02,2024-07-31,有限会社総合経済レポート,,有限会社,広島県,呉市,上長迫町７番１号,,34,202,7370031,,,2024-07-31,清算の結了等,,,2015-10-05,1,,,,,ソウゴウケイザイレポート,0
791,3270005005543,登記記録の閉鎖等,0,2024-08-02,2024-07-30,一般社団法人トリビティー,,その他の設立登記法人,鳥取県,鳥取市,雲山６７６番地,,31,201,6800862,,,2024-07-30,清算の結了等,,,2023-02-22,1,,,,,トリビティー,0
801,3290801017095,登記記録の閉鎖等,0,2024-08-02,2024-07-31,株式会社大塚,,株式会社,福岡県,田川郡福智町,赤池１０１７番地１９２,,40,610,8221101,,,2024-07-31,清算の結了等,,,2015-10-05,1,,,,,オオツカ,0
806,3300001003794,登記記録の閉鎖等,0,2024-08-02,2024-07-26,株式会社ティックワールド,,株式会社,佐賀県,佐賀市,富士町大字上熊川字苗代６７６番地８,,41,201,8400512,,,2024-07-26,清算の結了等,,,2015-10-05,1,,,,,ティックワールド,0
810,3310005003492,登記記録の閉鎖等,0,2024-08-02,2024-07-23,長崎県バイオマスリサイクル事業協同組合,,その他の設立登記法人,長崎県,佐世保市,干尽町３番地４７,,42,202,8570852,,,2024-07-23,清算の結了等,,,2015-10-05,1,,,,,ナガサキケンバイオマスリサイクル,0
815,3330002023640,登記記録の閉鎖等,0,2024-08-02,2024-07-23,有限会社阿蘇チェリーファーム,,有限会社,熊本県,阿蘇市,一の宮町宮地２４１０番地,,43,214,8692612,,,2024-07-23,清算の結了等,,,2015-10-05,1,,,,,アソチェリーファーム,0
839,3480002004923,登記記録の閉鎖等,0,2024-08-02,2024-08-01,有限会社ミルクランド,,有限会社,徳島県,徳島市,名東町２丁目２８２番地,,36,201,7700047,,,2024-08-01,清算の結了等,,,2015-10-05,1,,,,,ミルクランド,0
840,3480005005027,登記記録の閉鎖等,0,2024-08-02,2024-07-31,特定非営利活動法人出会い・ふれあい四国最東端,,その他の設立登記法人,徳島県,阿南市,椿町寺前５１番地２,,36,204,7791750,,,2024-07-31,清算の結了等,,,2015-10-05,1,,,,,デアイフレアイシコクサイトウタン,0
852,4000020278645,登記記録の閉鎖等,0,2024-08-02,2024-03-31,くすのき広域連合,,地方公共団体,大阪府,守口市,大宮通１丁目１３番７号守口市市民保健センター内,,27,209,5700033,,,2024-03-31,その他の清算の結了等,,,2015-10-05,1,KUSUNOKI WIDE AREA UNION,Osaka,"1-13-7,Omiyadori, Moriguchi shi",,クスノキコウイキレンゴウ,0
858,4010001149856,登記記録の閉鎖等,0,2024-08-02,2024-07-23,株式会社新八興業,,株式会社,東京都,千代田区,鍛冶町２丁目９番１号,,13,101,1010044,,,2024-07-23,合併による解散等,8010001172730,令和６年７月２０日東京都千代田区鍛冶町二丁目９番１号株式会社ＳＨＩＮＰＡＣＨＩ（8010001172730）に合併し解散,2015-10-05,1,,,,,シンパチコウギョウ,0
871,4010401015740,登記記録の閉鎖等,0,2024-08-02,2024-07-10,株式会社瀬戸口商店,,株式会社,東京都,港区,西新橋２丁目１２番５号,,13,103,1050003,,,2024-07-10,清算の結了等,,,2015-10-05,1,,,,,セトグチショウテン,0
889,4010601059892,登記記録の閉鎖等,0,2024-08-02,2024-07-22,海正薬業日本株式会社,,株式会社,東京都,千代田区,内幸町１丁目３番１号,,13,101,1000011,,,2024-07-22,清算の結了等,,,2021-09-09,1,,,,,カイセイヤクギョウニホン,0
897,4010902004762,登記記録の閉鎖等,0,2024-08-02,2024-07-30,有限会社京屋酒店,,有限会社,東京都,世田谷区,桜上水２丁目１６番１２号,,13,112,1560045,,,2024-07-30,清算の結了等,,,2015-10-05,1,,,,,,0
898,4011001016955,登記記録の閉鎖等,0,2024-08-02,2024-07-11,株式会社西野企画西野塾西野バレエ団,,株式会社,東京都,渋谷区,松濤２丁目１１番１５号,,13,113,1500046,,,2024-07-11,清算の結了等,,,2015-10-05,1,,,,,ニシノキカクニシノジュクニシノバレエダン,0
904,4011101098860,登記記録の閉鎖等,0,2024-08-02,2024-08-01,株式会社ピアステ,,株式会社,岐阜県,岐阜市,野一色２丁目５番地１５,,21,201,5008226,,,2024-08-01,清算の結了等,,,2022-05-18,1,,,,,ピアステ,0
910,4011301008140,登記記録の閉鎖等,0,2024-08-02,2024-07-29,株式会社大鉄,,株式会社,東京都,杉並区,高円寺北３丁目３番６号,,13,115,1660002,,,2024-07-29,清算の結了等,,,2015-10-05,1,,,,,ダイテツ,0
925,4012402015967,登記記録の閉鎖等,0,2024-08-02,2024-07-31,有限会社トス総合保険事務所,,有限会社,東京都,府中市,新町１丁目２３番地の５朝日パリオ国分寺２０１,,13,206,1830052,,,2024-07-31,清算の結了等,,,2015-10-05,1,,,,,トスソウゴウホケンジムショ,0
944,4020002053791,登記記録の閉鎖等,0,2024-08-02,2024-07-11,有限会社ワンステップ,,有限会社,神奈川県,横浜市青葉区,市ケ尾町１１５８番地１,,14,117,2250024,,,2024-07-11,清算の結了等,,,2015-10-05,1,,,,,ワンステップ,0
958,4030005018246,登記記録の閉鎖等,0,2024-08-02,2024-07-29,農事組合法人広・駒農地管理組合,,その他の設立登記法人,埼玉県,児玉郡美里町,大字広木１５７番地１,,11,381,3670118,,,2024-07-29,清算の結了等,,,2016-12-13,1,,,,,ヒロコマノウチカンリクミアイ,0
969,4040002033544,登記記録の閉鎖等,0,2024-08-02,2024-07-16,有限会社銀屋,,有限会社,千葉県,市川市,欠真間２丁目２５番１３号,,12,203,2720142,,,2024-07-16,清算の結了等,,,2015-10-05,1,,,,,ギンヤ,0
973,4040002097969,登記記録の閉鎖等,0,2024-08-02,2024-07-17,有限会社伍光製作所,,有限会社,千葉県,野田市,なみき２丁目２３番地２１,,12,208,2700229,,,2024-07-17,清算の結了等,,,2015-10-05,1,,,,,ゴコウセイサクショ,0
982,4060005009779,登記記録の閉鎖等,0,2024-08-02,2024-07-19,一般社団法人堀派神崎流,,その他の設立登記法人,栃木県,足利市,通５丁目３２０８番地１,,09,202,3260814,,,2024-07-19,清算の結了等,,,2020-09-03,1,,,,,ホリハカンザキリュウ,0
990,4080002005911,登記記録の閉鎖等,0,2024-08-02,2024-07-23,有限会社望月電気工業所,,有限会社,静岡県,静岡市葵区,松富２丁目２番４３号,,22,101,4200941,,,2024-07-23,清算の結了等,,,2015-10-05,1,,,,,モチヅキデンキコウギョウショ,0
996,4110002025212,登記記録の閉鎖等,0,2024-08-02,2024-07-25,有限会社新井管工事会館,,有限会社,新潟県,妙高市,東陽町１番５号,,15,217,9440009,,,2024-07-25,清算の結了等,,,2015-10-05,1,,,,,アライカンコウジカイカン,0
999,4120001146636,登記記録の閉鎖等,0,2024-08-02,2024-07-31,株式会社エタニティ,,株式会社,大阪府,大阪市此花区,伝法６丁目１番６５号,,27,104,5540002,,,2024-07-31,合併による解散等,8120001132921,令和６年７月３１日大阪市浪速区幸町三丁目７番１１号株式会社ＯＧＡＴＥ（8120001132921）に合併し解散,2015-10-05,1,,,,,エタニティ,0
1037,4130001009189,登記記録の閉鎖等,0,2024-08-02,2024-08-01,株式会社京栄,,株式会社,京都府,京都市東山区,東大路松原上る５丁目月見町１７番地,,26,105,6050829,,,2024-08-01,合併による解散等,5130001028881,令和６年８月１日京都市東山区東大路松原上る五丁目月見町１７番地４株式会社キョウエイコーポレーション（5130001028881）に合併し解散,2015-10-05,1,,,,,キョウエイ,0
1054,4140002028113,登記記録の閉鎖等,0,2024-08-02,2024-08-01,中信商事有限会社,,有限会社,兵庫県,神戸市兵庫区,大開通８丁目２番２－１０１３号,,28,105,6520803,,,2024-08-01,清算の結了等,,,2015-10-05,1,,,,,ナカシンショウジ,0
1057,4140005013285,登記記録の閉鎖等,0,2024-08-02,2024-07-30,兵電協同組合,,その他の設立登記法人,兵庫県,姫路市,大津区西土井７番地の１７大共工業株式会社２階,,28,201,6711141,,,2024-07-30,清算の結了等,,,2015-10-05,1,,,,,ヒョウデン,0
1062,4180001070616,登記記録の閉鎖等,0,2024-08-02,2024-07-19,株式会社川口電工社,,株式会社,愛知県,名古屋市北区,楠１丁目１７１８番地の６,,23,103,4620012,,,2024-07-19,清算の結了等,,,2015-10-05,1,,,,,カワグチデンコウシャ,0
1065,4180001135807,登記記録の閉鎖等,0,2024-08-02,2024-07-18,株式会社イザベラサービス,,株式会社,愛知県,知多市,南粕谷１丁目２０番地の１４チッタ南粕谷３,,23,224,4780024,,,2024-07-18,清算の結了等,,,2019-03-18,1,,,,,イザベラサービス,0
1084,4180005008678,登記記録の閉鎖等,0,2024-08-02,2024-07-19,特定非営利活動法人尾張小牧歴史文化振興会,,その他の設立登記法人,愛知県,小牧市,大字北外山１９６２番地２８,,23,219,4850023,,,2024-07-19,清算の結了等,,,2015-10-05,1,,,,,オワリコマキレキシブンカシンコウカイ,0
1098,4210005005952,登記記録の閉鎖等,0,2024-08-02,2024-07-29,奥越地区測量設計協同組合,,その他の設立登記法人,福井県,大野市,横枕第２２号２０番地１,,18,205,9120012,,,2024-07-29,清算の結了等,,,2015-10-05,1,,,,,オクエツチクソクリョウセッケイ,0
1099,4240001058480,登記記録の閉鎖等,0,2024-08-02,2024-07-31,株式会社ましろ製作所,,株式会社,広島県,広島市中区,西川口町６番１－７０１号,,34,101,7300846,,,2024-07-31,清算の結了等,,,2021-08-23,1,,,,,マシロセイサクショ,0
1107,4270001004093,登記記録の閉鎖等,0,2024-08-02,2024-07-31,株式会社鳥取西部ジェイエイショップ,,株式会社,鳥取県,米子市,淀江町西原１１８２番地３,,31,202,6893403,,,2024-07-31,清算の結了等,,,2015-10-05,1,,,,,トットリセイブジェイエイショップ,0
1135,4340002000530,登記記録の閉鎖等,0,2024-08-02,2024-07-31,有限会社坂元組,,有限会社,鹿児島県,日置市,伊集院町下谷口２３８３番地３,,46,216,8992501,,,2024-07-31,清算の結了等,,,2015-10-05,1,,,,,サカモトグミ,0
1146,4370201002399,登記記録の閉鎖等,0,2024-08-02,2024-07-11,株式会社森益,,株式会社,宮城県,加美郡加美町,字南町６３番地の１,,04,445,9814241,,,2024-07-11,清算の結了等,,,2015-10-05,1,,,,,モリマス,0
1157,4410005006022,登記記録の閉鎖等,0,2024-08-02,2024-07-24,設計チームＮＥＸＴ－ＡＫＩＴＡ協同組合,,その他の設立登記法人,秋田県,秋田市,山王沼田町６番８号,,05,201,0100954,,,2024-07-24,清算の結了等,,,2017-01-17,1,,,,,セツケイチームネクストアキタ,0
1173,4490001004798,登記記録の閉鎖等,0,2024-08-02,2024-07-29,株式会社ＨＳＴ産業,,株式会社,高知県,高知市,朝倉南町４番４５－５号,,39,201,7808075,,,2024-07-29,清算の結了等,,,2015-10-05,1,,,,,エイチエスティサンギョウ,0
1208,5010601012495,登記記録の閉鎖等,0,2024-08-02,2024-08-01,株式会社天昇堂,,株式会社,東京都,墨田区,東向島２丁目３５番２号,,13,107,1310032,,,2024-08-01,清算の結了等,,,2015-10-05,1,,,,,テンショウドウ,0
1239,5011501014912,登記記録の閉鎖等,0,2024-08-02,2024-08-01,株式会社玩甫,,株式会社,東京都,荒川区,西日暮里５丁目３３番２号,,13,118,1160013,,,2024-08-01,清算の結了等,,,2015-10-05,1,,,,,ヨシホ,0
1245,5011801004274,登記記録の閉鎖等,0,2024-08-02,2024-07-31,二葉製菓株式会社,,株式会社,東京都,葛飾区,白鳥１丁目７番１号,,13,122,1250063,,,2024-07-31,清算の結了等,,,2015-10-05,1,,,,,フタバセイカ,0
1246,5011801011155,登記記録の閉鎖等,0,2024-08-02,2024-07-31,株式会社萩生田商事,,株式会社,東京都,足立区,梅田５丁目１２番２号,,13,121,1230851,,,2024-07-31,清算の結了等,,,2015-10-05,1,,,,,ハギウダショウジ,0
1253,5012401031114,登記記録の閉鎖等,0,2024-08-02,2024-07-31,株式会社なっとくＬｉｆｅ,,株式会社,東京都,調布市,仙川町２丁目６番地５プラウドシティ仙川９１８号室,,13,208,1820002,,,2024-07-31,清算の結了等,,,2016-03-04,1,,,,,ナットクライフ,0
1258,5012803002695,登記記録の閉鎖等,0,2024-08-02,2024-07-24,合同会社４Ｕ,,合同会社,東京都,立川市,曙町１丁目１２番２０号ＣＯＱＵＩＡビル７階,,13,202,1900012,,,2024-07-24,清算の結了等,,,2022-02-04,1,,,,,フォーユー,0
1261,5020001017227,登記記録の閉鎖等,0,2024-08-02,2024-07-11,株式会社興伸,,株式会社,神奈川県,横浜市神奈川区,神之木町１９番４９号,,14,102,2210015,,,2024-07-11,清算の結了等,,,2015-10-05,1,,,,,コウシン,0
1264,5020001071224,登記記録の閉鎖等,0,2024-08-02,2024-07-10,株式会社ティーケイ建設,,株式会社,神奈川県,川崎市幸区,東小倉１８番２３号,,14,132,2120033,,,2024-07-10,清算の結了等,,,2015-10-05,1,,,,,ティーケイケンセツ,0
1291,5030002005238,登記記録の閉鎖等,0,2024-08-02,2024-07-29,有限会社小沼ラジオハウス,,有限会社,埼玉県,さいたま市北区,東大成町２丁目２９２番地３,,11,102,3310814,,,2024-07-29,清算の結了等,,,2015-10-05,1,,,,,オヌマラジオハウス,0
1318,5060002034052,登記記録の閉鎖等,0,2024-08-02,2024-07-19,有限会社山川重機,,有限会社,栃木県,栃木市,神田町５番３７号,,09,203,3280032,,,2024-07-19,清算の結了等,,,2015-10-05,1,,,,,ヤマカワジュウキ,0
1329,5090002002849,登記記録の閉鎖等,0,2024-08-02,2024-07-30,有限会社堀内左官工業所,,有限会社,山梨県,甲府市,湯田１丁目１番１８号,,19,201,4000864,,,2024-07-30,清算の結了等,,,2015-10-05,1,,,,,ホリウチサカンコウギョウショ,0
1336,5110002020864,登記記録の閉鎖等,0,2024-08-02,2024-07-25,有限会社パークメイト,,有限会社,新潟県,柏崎市,東本町３丁目３番３３号,,15,205,9450051,,,2024-07-25,清算の結了等,,,2015-10-05,1,,,,,,0
1364,5130001040093,登記記録の閉鎖等,0,2024-08-02,2024-07-30,株式会社アルファ,,株式会社,大阪府,寝屋川市,寝屋１丁目３番１－１５０９号,,27,215,5720801,,,2024-07-30,清算の結了等,,,2015-10-05,1,,,,,アルファ,0
1395,5180001157882,登記記録の閉鎖等,0,2024-08-02,2024-07-17,株式会社ロイヤル商事,,株式会社,愛知県,あま市,七宝町川部四反田３５番地,,23,237,4970013,,,2024-07-17,清算の結了等,,,2023-09-06,1,,,,,,0
1417,5190001006221,登記記録の閉鎖等,0,2024-08-02,2024-07-31,株式会社セーフ,,株式会社,三重県,鈴鹿市,白子町１９３５番地,,24,207,5100244,,,2024-07-31,清算の結了等,,,2015-10-05,1,,,,,セーフ,0
1418,5190001014843,登記記録の閉鎖等,0,2024-08-02,2024-07-31,サンエイテクノ株式会社,,株式会社,三重県,四日市市,西伊倉町１番９号,,24,202,5100831,,,2024-07-31,清算の結了等,,,2015-10-05,1,,,,,サンエイテクノ,0
1420,5190001027135,登記記録の閉鎖等,0,2024-08-02,2024-07-31,株式会社ｉｎｓｐｉｒｅｄ,,株式会社,三重県,桑名市,大央町４８番地３階１号,,24,205,5110065,,,2024-07-31,清算の結了等,,,2020-02-21,1,,,,,インスパイアド,0
1427,5240001040339,登記記録の閉鎖等,0,2024-08-02,2024-07-30,株式会社Ｍｉｎｔ,,株式会社,広島県,三原市,皆実６丁目１９番１２号,,34,204,7230052,,,2024-07-30,清算の結了等,,,2015-10-05,1,,,,,ミント,0
1428,5240005002599,登記記録の閉鎖等,0,2024-08-02,2024-07-30,医療法人下村医院,,その他の設立登記法人,広島県,広島市安佐南区,中筋２丁目３番８号,,34,105,7310122,,,2024-07-30,清算の結了等,,,2015-10-05,1,,,,,シモムライイン,0
1432,5260001028340,登記記録の閉鎖等,0,2024-08-02,2024-07-19,株式会社おかいち,,株式会社,岡山県,岡山市北区,柳町１丁目１４番７号,,33,101,7000904,,,2024-07-19,清算の結了等,,,2015-10-05,1,,,,,オカイチ,0
1434,5260002023794,登記記録の閉鎖等,0,2024-08-02,2024-07-22,有限会社総社損保センター,,有限会社,岡山県,総社市,中央２丁目１７番２５号,,33,208,7191131,,,2024-07-22,清算の結了等,,,2015-10-05,1,,,,,ソウジャソンポセンター,0
1450,5310002003213,登記記録の閉鎖等,0,2024-08-02,2024-07-25,チカラ工業有限会社,,有限会社,長崎県,長崎市,富士見町２３番４号,,42,201,8528022,,,2024-07-25,清算の結了等,,,2015-10-05,1,,,,,チカラコウギョウ,0
1454,5310005001858,登記記録の閉鎖等,0,2024-08-02,2024-07-24,特定非営利活動法人軍艦島を世界遺産にする会,,その他の設立登記法人,長崎県,西彼杵郡長与町,吉無田郷１１６３番地４５,,42,307,8512126,,,2024-07-24,清算の結了等,,,2015-10-05,1,,,,,グンカンジマヲセカイイサンニスルカイ,0
1476,5370201002811,登記記録の閉鎖等,0,2024-08-02,2024-07-12,南造園株式会社,,株式会社,宮城県,遠田郡涌谷町,涌谷字大崩五５番地,,04,501,9870121,,,2024-07-12,清算の結了等,,,2015-10-05,1,,,,,ミナミゾウエン,0
1482,5390002001465,登記記録の閉鎖等,0,2024-08-02,2024-07-18,有限会社寿司いすゞ,,有限会社,山形県,山形市,大野目１丁目１２番２号,,06,201,9900073,,,2024-07-18,清算の結了等,,,2015-10-05,1,,,,,スシイスズ,0
1483,5400003000514,登記記録の閉鎖等,0,2024-08-02,2024-07-22,合同会社シュヴァイツァー協会,,合同会社,岩手県,盛岡市,黒石野２丁目７番２８号,,03,201,0200111,,,2024-07-22,清算の結了等,,,2015-10-05,1,,,,,シュヴァイツァーキョウカイ,0
1493,5450002003190,登記記録の閉鎖等,0,2024-08-02,2024-07-31,大聖通信工業有限会社,,有限会社,北海道,旭川市,忠和六条５丁目８番２３号,,01,204,0708046,,,2024-07-31,清算の結了等,,,2015-10-05,1,,,,,,0
1526,6010401147425,登記記録の閉鎖等,0,2024-08-02,2024-07-10,株式会社ａｒｋ,,株式会社,東京都,港区,虎ノ門１丁目１６番６号虎ノ門ラポートビルＵＣＦ７０３,,13,103,1050001,,,2024-07-10,清算の結了等,,,2019-08-13,1,,,,,アーク,0
1535,6010502019481,登記記録の閉鎖等,0,2024-08-02,2024-07-31,有限会社プレシジョン・テクニック,,有限会社,東京都,足立区,保木間４丁目４９番８号,,13,121,1210064,,,2024-07-31,清算の結了等,,,2015-10-05,1,,,,,プレシジョンテクニック,0
1563,6011302000334,登記記録の閉鎖等,0,2024-08-02,2024-07-30,有限会社赤城屋,,有限会社,東京都,杉並区,高円寺北３丁目２２番２号,,13,115,1660002,,,2024-07-30,清算の結了等,,,2015-10-05,1,,,,,アカギヤ,0
1567,6011601005380,登記記録の閉鎖等,0,2024-08-02,2024-07-25,ニッカ器材株式会社,,株式会社,東京都,清瀬市,元町２丁目１２番２３号ＣＨＵハイツＢ棟１０２号室,,13,221,2040021,,,2024-07-25,清算の結了等,,,2015-10-05,1,,,,,ニッカキザイ,0
1576,6012402002402,登記記録の閉鎖等,0,2024-08-02,2024-08-01,有限会社フジ,,有限会社,東京都,府中市,緑町３丁目１８番地の８,,13,206,1830006,,,2024-08-01,清算の結了等,,,2015-10-05,1,,,,,フジ,0
1581,6013301004778,登記記録の閉鎖等,0,2024-08-02,2024-07-26,株式会社三友工業,,株式会社,東京都,豊島区,巣鴨５丁目１４番１３号,00066835,13,116,1700002,,,2024-07-26,清算の結了等,,,2015-10-05,1,,,,,サンユウコウギョウ,0
1595,6021002065379,登記記録の閉鎖等,0,2024-08-02,2024-07-31,有限会社高昌工務店,00013882,有限会社,神奈川県,横須賀市,鴨居３丁目１９番７号,,14,201,2390813,,,2024-07-31,清算の結了等,,,2015-10-05,1,,,,,タカショウコウムテン,0
1597,6030001050597,登記記録の閉鎖等,0,2024-08-02,2024-07-29,ｉｐｅｘ株式会社,,株式会社,東京都,練馬区,土支田４丁目９番１号,,13,120,1790076,,,2024-07-29,清算の結了等,,,2015-10-05,1,,,,,イペックス,0
1598,6030001058038,登記記録の閉鎖等,0,2024-08-02,2024-07-04,ＤＮＰ住空間マテリアル販売株式会社,,株式会社,東京都,新宿区,市谷加賀町１丁目１番１号,,13,104,1620062,,,2024-07-04,合併による解散等,5011101012069,令和６年７月１日東京都新宿区市谷加賀町一丁目１番１号大日本印刷株式会社（5011101012069）に合併し解散,2015-10-05,1,,,,,ディーエヌピージュウクウカンマテリアルハンバイ,0
1628,6040003019838,登記記録の閉鎖等,0,2024-08-02,2024-07-17,合同会社ＣＡＴ,,合同会社,千葉県,松戸市,松戸１０９７番地の１リラヴェールレジデンス１０４号,,12,207,2710092,,,2024-07-17,清算の結了等,,,2022-04-06,1,,,,,キャット,0
1633,6050005008359,登記記録の閉鎖等,0,2024-08-02,2024-07-31,特定非営利活動法人地域生活支援ねっとわーくふらっと,,その他の設立登記法人,茨城県,常陸太田市,松平町４０番地の２,,08,212,3130222,,,2024-07-31,清算の結了等,,,2015-10-05,1,,,,,チイキセイカツシエンネットワークフラット,0
1642,6070001013939,登記記録の閉鎖等,0,2024-08-02,2024-07-31,日本通信電機株式会社,,株式会社,群馬県,伊勢崎市,曲沢町６７２番地１８,,10,204,3792203,,,2024-07-31,清算の結了等,,,2015-10-05,1,,,,,ニホンツウシンデンキ,0
1643,6070002002189,登記記録の閉鎖等,0,2024-08-02,2024-07-31,有限会社コフレ,,有限会社,群馬県,前橋市,天川大島町１丁目２３番地４,,10,201,3792154,,,2024-07-31,清算の結了等,,,2015-10-05,1,,,,,コフレ,0
1644,6070002005431,登記記録の閉鎖等,0,2024-08-02,2024-07-30,桃ノ木工業有限会社,,有限会社,群馬県,前橋市,日輪寺町３８０番地３,,10,201,3710042,,,2024-07-30,清算の結了等,,,2015-10-05,1,,,,,モモノキコウギョウ,0
1656,6080402015005,登記記録の閉鎖等,0,2024-08-02,2024-07-29,有限会社三西総建,,有限会社,静岡県,浜松市浜名区,於呂４１９２番地,,22,139,4340015,,,2024-07-29,清算の結了等,,,2015-10-05,1,,,,,サンセイソウケン,0
1677,6120901022125,登記記録の閉鎖等,0,2024-08-02,2024-07-19,株式会社ｈ－ｆｏｒｅｓｔ,,株式会社,大阪府,箕面市,坊島１丁目１６番４号,,27,220,5620013,,,2024-07-19,清算の結了等,,,2015-10-05,1,,,,,エッチフォレスト,0
1680,6122001036815,登記記録の閉鎖等,0,2024-08-02,2024-07-29,きぼう・インベストメント株式会社,,株式会社,大阪府,大阪市西区,南堀江３丁目１４－１２,,27,106,5500015,,,2024-07-29,合併による解散等,1270002004715,令和６年７月２９日大阪市西区南堀江三丁目１４番１２号イイダ２ビル８階Ｄ室ＯＮＥ　ＬＩＦＥ　ＨＯＬＤＩＮＧＳ株式会社（1270002004715）に合併し解散,2023-03-27,1,,,,,キボウインベストメント,0
1682,6122002010645,登記記録の閉鎖等,0,2024-08-02,2024-08-01,有限会社ＺＥＲＯ,,有限会社,大阪府,東大阪市,善根寺町１丁目２番３４号,,27,227,5798001,,,2024-08-01,清算の結了等,,,2015-10-05,1,,,,,,0
1700,6140002017816,登記記録の閉鎖等,0,2024-08-02,2024-07-31,有限会社中川鉄工所,,有限会社,兵庫県,神戸市長田区,御蔵通１丁目４９番地の１,,28,106,6530014,,,2024-07-31,清算の結了等,,,2015-10-05,1,,,,,ナカガワテッコウショ,0
1706,6180001015016,登記記録の閉鎖等,0,2024-08-02,2024-07-17,株式会社東海フラワー,,株式会社,愛知県,名古屋市南区,戸部町３丁目６８番地,,23,112,4570043,,,2024-07-17,清算の結了等,,,2015-10-05,1,,,,,トウカイフラワー,0
1708,6180001108190,登記記録の閉鎖等,0,2024-08-02,2024-07-22,株式会社銀之助商店,,株式会社,愛知県,名古屋市千種区,池下１丁目６番２０号,,23,101,4640067,,,2024-07-22,清算の結了等,,,2015-10-05,1,,,,,ギンノスケショウテン,0
1721,6180301010749,登記記録の閉鎖等,0,2024-08-02,2024-07-23,天藤産業株式会社,,株式会社,愛知県,蒲郡市,形原町会下５２番地,,23,214,4430104,,,2024-07-23,清算の結了等,,,2015-10-05,1,,,,,アマフジサンギョウ,0
1724,6190001008076,登記記録の閉鎖等,0,2024-08-02,2024-08-01,株式会社ビック企画,,株式会社,三重県,志摩市,志摩町片田２２３番地３９,,24,215,5170701,,,2024-08-01,清算の結了等,,,2015-10-05,1,,,,,ビックキカク,0
1743,6260001011576,登記記録の閉鎖等,0,2024-08-02,2024-08-01,株式会社川上塗装,,株式会社,岡山県,岡山市南区,泉田４４１番地５,,33,104,7000944,,,2024-08-01,清算の結了等,,,2015-10-05,1,,,,,カワカミトソウ,0
1757,6300001007966,登記記録の閉鎖等,0,2024-08-02,2024-07-30,株式会社シンセラティ,,株式会社,佐賀県,三養基郡みやき町,大字江口２２６１番地,,41,346,8490112,,,2024-07-30,清算の結了等,,,2015-10-05,1,,,,,シンセラティ,0
1758,6310001018888,登記記録の閉鎖等,0,2024-08-02,2024-07-26,株式会社ＫＩＺＵＮＡ警備,,株式会社,長崎県,西彼杵郡長与町,嬉里郷４５６番地,,42,307,8512128,,,2024-07-26,清算の結了等,,,2024-03-07,1,,,,,キズナケイビ,0
1784,6430001007598,登記記録の閉鎖等,0,2024-08-02,2024-07-29,新日本総合開発株式会社,,株式会社,北海道,札幌市東区,北十二条東７丁目１番地,,01,103,0650012,,,2024-07-29,清算の結了等,,,2015-10-05,1,,,,,シンニホンソウゴウカイハツ,0
1798,6480001008559,登記記録の閉鎖等,0,2024-08-02,2024-08-01,株式会社ＢＬＵＥＭＯＯＮプロデュース,,株式会社,徳島県,徳島市,川内町鈴江西７２番地２サンシャインハイツ３０２号室,,36,201,7710122,,,2024-08-01,清算の結了等,,,2015-10-05,1,,,,,ブルームーンプロデュース,0
1800,6490005005634,登記記録の閉鎖等,0,2024-08-02,2024-07-24,特定非営利活動法人人権と環境を守り育てる会,,その他の設立登記法人,高知県,安芸市,本町５丁目１７番２号,,39,203,7840004,,,2024-07-24,清算の結了等,,,2015-10-05,1,,,,,ジンケントカンキョウヲマモリソダテルカイ,0
1803,7010001000553,登記記録の閉鎖等,0,2024-08-02,2024-07-19,株式会社医工,,株式会社,東京都,文京区,本郷３丁目３５番２号,,13,105,1130033,,,2024-07-19,清算の結了等,,,2015-10-05,1,,,,,イコウ,0
1811,7010002004826,登記記録の閉鎖等,0,2024-08-02,2024-07-10,有限会社浜井商店,,有限会社,東京都,文京区,千駄木２丁目１１番１２号,,13,105,1130022,,,2024-07-10,清算の結了等,,,2015-10-05,1,,,,,ハマイショウテン,0
1830,7010403025751,登記記録の閉鎖等,0,2024-08-02,2024-07-11,ＲＢソーラーパッション４合同会社,,合同会社,東京都,港区,虎ノ門３丁目２２番１０－２０１号,,13,103,1050001,,,2024-07-11,清算の結了等,,,2021-07-20,1,,,,,アールビーソーラーパッションフォー,0
1834,7010602017062,登記記録の閉鎖等,0,2024-08-02,2024-07-31,有限会社龍華,,有限会社,東京都,江東区,門前仲町２丁目９番地１号,,13,108,1350048,,,2024-07-31,清算の結了等,,,2015-10-05,1,,,,,リュウカ,0
1856,7011101075477,登記記録の閉鎖等,0,2024-08-02,2024-07-18,株式会社オフィス健美,,株式会社,東京都,新宿区,舟町９番地６,,13,104,1600006,,,2024-07-18,清算の結了等,,,2015-12-18,1,,,,,オフィスケンビ,0
1868,7011601003631,登記記録の閉鎖等,0,2024-08-02,2024-07-26,関根ハウジング株式会社,,株式会社,東京都,練馬区,石神井台７丁目１１番１１号,,13,120,1770045,,,2024-07-26,清算の結了等,,,2015-10-05,1,,,,,セキネハウジング,0
1901,7030001017810,登記記録の閉鎖等,0,2024-08-02,2024-07-26,株式会社扇設備,,株式会社,埼玉県,さいたま市岩槻区,南平野４丁目１番地３,,11,110,3390051,,,2024-07-26,清算の結了等,,,2015-10-05,1,,,,,オウギセツビ,0
1911,7030002045570,登記記録の閉鎖等,0,2024-08-02,2024-07-29,有限会社藤坂工務店,,有限会社,埼玉県,草加市,弁天２丁目２７番５７号,,11,221,3400004,,,2024-07-29,清算の結了等,,,2015-10-05,1,,,,,フジサカコウムテン,0
1912,7030002059653,登記記録の閉鎖等,0,2024-08-02,2024-07-29,有限会社和光工業,,有限会社,埼玉県,新座市,栄３丁目１番２５号,,11,230,3520014,,,2024-07-29,清算の結了等,,,2015-10-05,1,,,,,ワコウコウギョウ,0
1913,7030002081269,登記記録の閉鎖等,0,2024-08-02,2024-07-26,有限会社大杉屋商店,,有限会社,埼玉県,本庄市,児玉町八幡山１６８番地,,11,211,3670217,,,2024-07-26,清算の結了等,,,2015-10-05,1,,,,,オオスギヤショウテン,0
1926,7040002035967,登記記録の閉鎖等,0,2024-08-02,2024-07-17,有限会社八甲エンジニアリング,,有限会社,千葉県,市川市,宮久保５丁目３番１号,,12,203,2720822,,,2024-07-17,清算の結了等,,,2015-10-05,1,,,,,ハッコウエンジニアリング,0
1956,7100001011673,登記記録の閉鎖等,0,2024-08-02,2024-07-29,オンザファクト株式会社,,株式会社,長野県,上田市,常田３丁目１５番１号信州大学繊維学部内ＡＲＥＣ,,20,203,3860018,,,2024-07-29,合併による解散等,3010003028695,令和６年７月１日東京都中央区銀座六丁目６番１号銀座風月堂ビル５階株式会社Ａｒｋ（3010003028695）に合併し解散,2015-10-05,1,,,,,オンザファクト,0
1970,7120001177678,登記記録の閉鎖等,0,2024-08-02,2024-08-01,株式会社州和,,株式会社,大阪府,大阪市住之江区,安立１丁目１４番１９号,,27,125,5590003,,,2024-08-01,清算の結了等,,,2015-10-05,1,,,,,シュウワ,0
1978,7120001236483,登記記録の閉鎖等,0,2024-08-02,2024-08-01,ＯＫＵＤＯ株式会社,,株式会社,大阪府,大阪市天王寺区,夕陽丘町４番２号Ｍｅｔｒｏ　Ｐｏｒｔｅ夕陽丘ＩＩＩ６号室,00122787,27,109,5430075,,,2024-08-01,清算の結了等,,,2021-04-19,1,,,,,オクド,0
2016,7140001090210,登記記録の閉鎖等,0,2024-08-02,2024-08-01,株式会社ベル・ハート,,株式会社,兵庫県,神戸市長田区,苅藻通５丁目５－７ユウエイビル２Ｆ２０２号室,,28,106,6530032,,,2024-08-01,清算の結了等,,,2015-10-05,1,,,,,ベルハート,0
2034,7180001144458,登記記録の閉鎖等,0,2024-08-02,2024-07-22,株式会社ミライフ,,株式会社,愛知県,名古屋市北区,八代町２丁目５番地,,23,103,4620043,,,2024-07-22,清算の結了等,,,2021-01-13,1,,,,,ミライフ,0
2041,7180002003803,登記記録の閉鎖等,0,2024-08-02,2024-07-18,有限会社オーティ・トランスポート,,有限会社,愛知県,日進市,岩崎町大廻間３番地８サンキャッスル岩崎３０１,,23,230,4700131,,,2024-07-18,清算の結了等,,,2015-10-05,1,,,,,オーティトランスポート,0
2042,7180002033313,登記記録の閉鎖等,0,2024-08-02,2024-07-17,有限会社山光堂,,有限会社,愛知県,名古屋市中区,千代田４丁目１２番１３号,,23,106,4600012,,,2024-07-17,清算の結了等,,,2015-10-05,1,,,,,サンコウドウ,0
2049,7180301024871,登記記録の閉鎖等,0,2024-08-02,2024-07-25,株式会社カツミ,,株式会社,愛知県,豊田市,田代町３丁目１９番地５,,23,211,4710846,,,2024-07-25,清算の結了等,,,2015-10-05,1,,,,,カツミ,0
2062,7240001037804,登記記録の閉鎖等,0,2024-08-02,2024-07-31,株式会社マスハラ楽器,,株式会社,広島県,尾道市,栗原町６３６９番地１,,34,205,7220022,,,2024-07-31,清算の結了等,,,2015-10-05,1,,,,,マスハラガッキ,0
2067,7260001005817,登記記録の閉鎖等,0,2024-08-02,2024-08-01,株式会社藤岡組,,株式会社,岡山県,岡山市中区,浜１丁目１３番３７号,,33,102,7038256,,,2024-08-01,清算の結了等,,,2015-10-05,1,,,,,フジオカグミ,0
2071,7290002029580,登記記録の閉鎖等,0,2024-08-02,2024-07-01,有限会社ＱＢＭ,,有限会社,福岡県,福岡市中央区,高砂１丁目２０番１０号,,40,133,8100011,,,2024-07-01,清算の結了等,,,2015-10-05,1,,,,,キュービーエム,0
2082,7340001006113,登記記録の閉鎖等,0,2024-08-02,2024-07-31,株式会社エムコム,,株式会社,鹿児島県,鹿児島市,上之園町５番２－９０５号,,46,201,8900052,,,2024-07-31,清算の結了等,,,2015-10-05,1,,,,,エムコム,0
2095,7370201000210,登記記録の閉鎖等,0,2024-08-02,2024-07-16,新光電子株式会社,,株式会社,宮城県,大崎市,松山千石字広田９番地,,04,215,9871304,,,2024-07-16,清算の結了等,,,2015-10-05,1,,,,,シンコウデンシ,0
2097,7390002006033,登記記録の閉鎖等,0,2024-08-02,2024-07-19,有限会社稲毛工務店,,有限会社,山形県,上山市,金谷６１６番地の３,,06,207,9993103,,,2024-07-19,清算の結了等,,,2015-10-05,1,,,,,イナゲコウムテン,0
2100,7390002012972,登記記録の閉鎖等,0,2024-08-02,2024-07-17,有限会社自動車外装タケダ,,有限会社,山形県,米沢市,中田町１７８５番地の１,,06,202,9920011,,,2024-07-17,清算の結了等,,,2015-10-05,1,,,,,ジドウシャガイソウタケダ,0
2113,7430002058474,登記記録の閉鎖等,0,2024-08-02,2024-07-26,有限会社工藤土木工業,,有限会社,北海道,白老郡白老町,字萩野２９５番地３,,01,578,0590922,,,2024-07-26,清算の結了等,,,2015-10-05,1,,,,,クドウドボクコウギョウ,0
2119,7490002011411,登記記録の閉鎖等,0,2024-08-02,2024-07-26,有限会社山繁昼食センター,,有限会社,高知県,香美市,土佐山田町逆川１９０７番地,,39,212,7820005,,,2024-07-26,清算の結了等,,,2015-10-05,1,,,,,,0
2126,8010001096640,登記記録の閉鎖等,0,2024-08-02,2024-07-19,株式会社凜建材,,株式会社,東京都,三宅島三宅村,坪田７２９番地,,13,381,1001211,,,2024-07-19,清算の結了等,,,2015-10-05,1,,,,,リンケンザイ,0
2159,8010601062562,登記記録の閉鎖等,0,2024-08-02,2024-07-31,株式会社ＬａＳＴＡ,,株式会社,東京都,江東区,牡丹１丁目１５番５号,,13,108,1350046,,,2024-07-31,清算の結了等,,,2023-02-06,1,,,,,ラスタ,0
2162,8010801024692,登記記録の閉鎖等,0,2024-08-02,2024-07-24,株式会社ロイヤルエンゲージメント,,株式会社,東京都,大田区,西蒲田７丁目８番２号プロシード西蒲田３０３,,13,111,1440051,,,2024-07-24,清算の結了等,,,2015-10-05,1,,,,,ロイヤルエンゲージメント,0
2177,8011101004162,登記記録の閉鎖等,0,2024-08-02,2024-07-30,株式会社小野商会,,株式会社,東京都,杉並区,荻窪４丁目１８番２号,,13,115,1670051,,,2024-07-30,清算の結了等,,,2015-10-05,1,,,,,オノショウカイ,0
2178,8011101090938,登記記録の閉鎖等,0,2024-08-02,2024-07-19,株式会社ｔｆｑ,,株式会社,東京都,新宿区,四谷２丁目４番１号ＡＣＮ四谷ビル９Ｆ,,13,104,1600004,,,2024-07-19,清算の結了等,,,2020-04-06,1,,,,,ティーエフキュー,0
2181,8011101092380,登記記録の閉鎖等,0,2024-08-02,2024-07-10,ＷＩＳＴＥＲＩＡ　ＷＯＲＫＳ株式会社,,株式会社,東京都,港区,赤坂９丁目６番２８号,,13,103,1070052,,,2024-07-10,清算の結了等,,,2020-09-07,1,,,,,ウィステリアワークス,0
2190,8011501009232,登記記録の閉鎖等,0,2024-08-02,2024-08-01,株式会社よし富,,株式会社,東京都,荒川区,西日暮里２丁目５７番４－３０１号,,13,118,1160013,,,2024-08-01,清算の結了等,,,2015-10-05,1,,,,,,0
2196,8011602006095,登記記録の閉鎖等,0,2024-08-02,2024-07-26,有限会社東陽電工社,,有限会社,東京都,練馬区,土支田２丁目１７番２１号,,13,120,1790076,,,2024-07-26,清算の結了等,,,2015-10-05,1,,,,,トウヨウデンコウシャ,0
2216,8020003009715,登記記録の閉鎖等,0,2024-08-02,2024-07-10,ＫＮインベストメント合同会社,,合同会社,神奈川県,川崎市宮前区,犬蔵２丁目３２番２－５２９号ドレッセ美しの森セントヴェールウエスト,,14,136,2160011,,,2024-07-10,清算の結了等,,,2015-10-05,1,,,,,ケーエヌインベストメント,0
2218,8021001072275,登記記録の閉鎖等,0,2024-08-02,2024-07-26,イクリス株式会社,,株式会社,神奈川県,藤沢市,城南４丁目５番５号,,14,205,2510057,,,2024-07-26,清算の結了等,,,2021-03-09,1,,,,,イクリス,0
2231,8030002031958,登記記録の閉鎖等,0,2024-08-02,2024-07-30,有限会社エス・ジー・エム企画,,有限会社,埼玉県,所沢市,大字中富１６２４番地,,11,208,3590002,,,2024-07-30,清算の結了等,,,2015-10-05,1,,,,,エスジーエムキカク,0
2284,8110002006943,登記記録の閉鎖等,0,2024-08-02,2024-07-23,有限会社ヨーデル,,有限会社,新潟県,新潟市東区,下木戸２丁目１２番１５号,,15,102,9500885,,,2024-07-23,清算の結了等,,,2015-10-05,1,,,,,ヨーデル,0
2285,8110002017288,登記記録の閉鎖等,0,2024-08-02,2024-07-25,有限会社精太郎製作所,,有限会社,新潟県,三条市,林町１丁目５番１４号,,15,204,9550061,,,2024-07-25,清算の結了等,,,2015-10-05,1,,,,,セイタロウセイサクショ,0
2334,8140005026473,登記記録の閉鎖等,0,2024-08-02,2024-07-31,天龍協同組合,,その他の設立登記法人,兵庫県,神戸市兵庫区,新開地１丁目２番１１号,,28,105,6520811,,,2024-07-31,清算の結了等,,,2023-01-31,1,,,,,テンリュウ,0
2344,8170003001649,登記記録の閉鎖等,0,2024-08-02,2024-07-30,松本元信合同会社,,合同会社,和歌山県,海草郡紀美野町,神野市場１８１番地,,30,304,6401243,,,2024-07-30,清算の結了等,,,2021-10-20,1,,,,,マツモトモトノブ,0
2345,8180001033899,登記記録の閉鎖等,0,2024-08-02,2024-07-18,株式会社アドセンター,,株式会社,愛知県,名古屋市千種区,堀割町２丁目６番地,,23,101,4640065,,,2024-07-18,清算の結了等,,,2015-10-05,1,,,,,アドセンター,0
2346,8180001134961,登記記録の閉鎖等,0,2024-08-02,2024-07-19,株式会社アレグロ,,株式会社,愛知県,尾張旭市,向町１丁目２番地３,,23,226,4880818,,,2024-07-19,清算の結了等,,,2019-01-04,1,,,,,アレグロ,0
2367,8200001000351,登記記録の閉鎖等,0,2024-08-02,2024-07-31,株式会社伊藤精機工業所,,株式会社,岐阜県,岐阜市,北鶉５丁目５６番地の２,,21,201,5008287,,,2024-07-31,清算の結了等,,,2015-10-05,1,,,,,イトウセイキコウギョウショ,0
2371,8210002002742,登記記録の閉鎖等,0,2024-08-02,2024-07-30,有限会社ノン,,有限会社,福井県,福井市,二の宮３丁目３１番１０号,,18,201,9100015,,,2024-07-30,清算の結了等,,,2015-10-05,1,,,,,ノン,0
2377,8230002002303,登記記録の閉鎖等,0,2024-08-02,2024-07-26,有限会社東部木型製作所,,有限会社,富山県,富山市,新庄本町２丁目１番６９号,,16,201,9300996,,,2024-07-26,清算の結了等,,,2015-10-05,1,,,,,トウブキガタセイサクショ,0
2382,8250005008576,登記記録の閉鎖等,0,2024-08-02,2024-07-30,一般社団法人美祢総合政策研究所,,その他の設立登記法人,山口県,美祢市,大嶺町東分１５５番地３,,35,213,7592212,,,2024-07-30,清算の結了等,,,2020-06-25,1,,,,,ミネソウゴウセイサクケンキュウショ,0
2383,8260002028221,登記記録の閉鎖等,0,2024-08-02,2024-07-19,桑名産業有限会社,,有限会社,岡山県,津山市,河辺１６５３番地,,33,203,7080842,,,2024-07-19,清算の結了等,,,2015-10-05,1,,,,,クワナサンギョウ,0
2385,8260005003741,登記記録の閉鎖等,0,2024-08-02,2024-07-16,医療法人桃太郎,,その他の設立登記法人,岡山県,倉敷市,新倉敷駅前３丁目７７番地１,,33,202,7100253,,,2024-07-16,清算の結了等,,,2015-10-05,1,,,,,モモタロウ,0
2408,8390001014473,登記記録の閉鎖等,0,2024-08-02,2024-07-17,株式会社エム・ズ・ワン,,株式会社,山形県,新庄市,五日町字清水川１３０３番地の１９,,06,205,9960001,,,2024-07-17,清算の結了等,,,2016-04-21,1,,,,,エムズワン,0
2416,8430002030317,登記記録の閉鎖等,0,2024-08-02,2024-07-29,有限会社ウエダ,,有限会社,北海道,札幌市豊平区,美園四条２丁目１番１７号,,01,105,0620004,,,2024-07-29,清算の結了等,,,2015-10-05,1,,,,,ウエダ,0
2418,8440002001358,登記記録の閉鎖等,0,2024-08-02,2024-07-31,有限会社極洋無線工業社,,有限会社,北海道,函館市,栄町７番２号,,01,202,0400041,,,2024-07-31,清算の結了等,,,2015-10-05,1,,,,,キョクヨウムセンコウギョウシャ,0
2420,8440002004146,登記記録の閉鎖等,0,2024-08-02,2024-07-31,有限会社北海工機,,有限会社,北海道,函館市,美原３丁目４２番２号,,01,202,0410806,,,2024-07-31,清算の結了等,,,2015-10-05,1,,,,,ホッカイコウキ,0
2427,8500005000697,登記記録の閉鎖等,0,2024-08-02,2024-07-25,医療法人芝内科消化器科医院,,その他の設立登記法人,愛媛県,松山市,小栗５丁目５番２号,,38,201,7900036,,,2024-07-25,清算の結了等,,,2015-10-05,1,,,,,シバナイカショウカキカイイン,0
2446,9010102003123,登記記録の閉鎖等,0,2024-08-02,2024-07-31,有限会社三陵ホーム,,有限会社,東京都,八王子市,長房町１３９６番地の２,,13,201,1930824,,,2024-07-31,清算の結了等,,,2015-10-05,1,,,,,サンリョウ,0
2484,9011802005961,登記記録の閉鎖等,0,2024-08-02,2024-07-31,有限会社西山コーポ,,有限会社,東京都,葛飾区,四つ木３丁目４番２７号,,13,122,1240011,,,2024-07-31,清算の結了等,,,2015-10-05,1,,,,,ニシヤマコーポ,0
2495,9021003004696,登記記録の閉鎖等,0,2024-08-02,2024-07-31,合同会社カノープス,,合同会社,神奈川県,藤沢市,湘南台１丁目１５番地２２ガーデンパレス湘南台,,14,205,2520804,,,2024-07-31,合併による解散等,3021001048008,令和６年７月３１日神奈川県藤沢市湘南台一丁目１５番地２２ガーデンパレス湘南台株式会社年金ラボ（3021001048008）に合併し解散,2015-10-05,1,,,,,カノープス,0
2518,9040002065715,登記記録の閉鎖等,0,2024-08-02,2024-07-18,有限会社エムエイチ・メディカルサービス,,有限会社,千葉県,八街市,榎戸６５６番地４,,12,230,2891106,,,2024-07-18,清算の結了等,,,2015-10-05,1,,,,,エムエイチメディカルサービス,0
2519,9040002073890,登記記録の閉鎖等,0,2024-08-02,2024-07-17,泉水商事有限会社,,有限会社,千葉県,市原市,磯ケ谷２０８４番地,,12,219,2900204,,,2024-07-17,清算の結了等,,,2015-10-05,1,,,,,センズイショウジ,0
2534,9080001002517,登記記録の閉鎖等,0,2024-08-02,2024-07-22,静和木産株式会社,,株式会社,静岡県,静岡市葵区,辰起町６番１号,,22,101,4200874,,,2024-07-22,清算の結了等,,,2015-10-05,1,,,,,セイワモクサン,0
2538,9080001020147,登記記録の閉鎖等,0,2024-08-02,2024-07-22,株式会社敬天愛酒,,株式会社,静岡県,藤枝市,駅前３丁目１７番２０号,,22,214,4260034,,,2024-07-22,清算の結了等,,,2015-10-05,1,,,,,,0
2542,9080101009577,登記記録の閉鎖等,0,2024-08-02,2024-07-31,株式会社富岳技研工業,,株式会社,静岡県,富士宮市,上井出２１５１番地２,,22,207,4180103,,,2024-07-31,清算の結了等,,,2015-10-05,1,,,,,フガクギケンコウギョウ,0
2581,9120002058537,登記記録の閉鎖等,0,2024-08-02,2024-08-01,有限会社ユーフーズ,,有限会社,大阪府,大阪市東淀川区,菅原７丁目１番２５号,,27,114,5330022,,,2024-08-01,合併による解散等,1120001052523,令和６年８月１日大阪市東淀川区菅原七丁目１番２５号株式会社名和甚（1120001052523）に合併し解散,2015-10-05,1,,,,,ユーフーズ,0
2611,9140003016987,登記記録の閉鎖等,0,2024-08-02,2024-07-16,合同会社ライフコンサルティング,,合同会社,兵庫県,神戸市垂水区,星陵台４丁目３番４５－１５０４号,,28,108,6550038,,,2024-07-16,清算の結了等,,,2021-11-16,1,,,,,ライフコンサルティング,0
2615,9170002006012,登記記録の閉鎖等,0,2024-08-02,2024-08-01,有限会社川嶋清掃,,有限会社,和歌山県,和歌山市,北出島７０番地,,30,201,6408317,,,2024-08-01,清算の結了等,,,2015-10-05,1,,,,,カワシマセイソウ,0
2616,9180001062708,登記記録の閉鎖等,0,2024-08-02,2024-07-22,株式会社エニシード・カンパニー,,株式会社,愛知県,名古屋市千種区,内山３丁目１１番１０号,,23,101,4640075,,,2024-07-22,清算の結了等,,,2015-10-05,1,,,,,エニシードカンパニー,0
2617,9180001103767,登記記録の閉鎖等,0,2024-08-02,2024-07-19,タカラ株式会社,,株式会社,愛知県,名古屋市港区,惟信町５丁目３３番地,,23,111,4550823,,,2024-07-19,清算の結了等,,,2015-10-05,1,,,,,タカラ,0
2629,9180002042691,登記記録の閉鎖等,0,2024-08-02,2024-07-19,有限会社山本商事,,有限会社,愛知県,名古屋市名東区,本郷２丁目１７７番地第三幸楽ビル２Ｄ,,23,115,4650024,,,2024-07-19,清算の結了等,,,2015-10-05,1,,,,,ヤマモトショウジ,0
2693,9380002028852,登記記録の閉鎖等,0,2024-08-02,2024-07-29,有限会社福島商会,,有限会社,福島県,相馬市,原釜字大津２４８番地,,07,209,9760021,,,2024-07-29,清算の結了等,,,2015-10-05,1,,,,,,0
2704,9430001033906,登記記録の閉鎖等,0,2024-08-02,2024-07-26,株式会社としけん,,株式会社,北海道,札幌市北区,新川四条７丁目５番１７号,,01,102,0010924,,,2024-07-26,清算の結了等,,,2015-10-05,1,,,,,トシケン,0
2713,9500005001513,登記記録の閉鎖等,0,2024-08-02,2024-07-26,医療法人渡辺泌尿器科内科,,その他の設立登記法人,愛媛県,松山市,山越町４４５番地１,,38,201,7918014,,,2024-07-26,清算の結了等,,,2015-10-05,1,,,,,ワタナベヒニョウキカナイカ,0
