sequenceNumber,corporateNumber,process,correct,updateDate,changeDate,name,nameImageId,kind,prefectureName,cityName,streetNumber,addressImageId,prefectureCode,cityCode,postCode,addressOutside,addressOutsideImageId,closeDate,closeCause,successorCorporateNumber,changeCause,assignmentDate,latest,enName,enPrefectureName,enCityName,enAddressOutside,furigana,hihyoji
3,1010001221782,登記記録の閉鎖等,0,2024-06-13,2024-06-03,株式会社ＭＵＣホールディングス,,株式会社,東京都,千代田区,平河町１丁目１番８号,,13,101,1020093,,,2024-06-03,合併による解散等,2010001066376,令和６年６月１日東京都千代田区平河町一丁目１番８号麹町市原ビル株式会社メイツユニバーサルコンテンツ（2010001066376）に合併し解散,2021-10-14,1,,,,,エムユーシーホールディングス,0
4,1010001228836,登記記録の閉鎖等,0,2024-06-13,2024-06-03,株式会社メディックスアーム,,株式会社,東京都,千代田区,神田淡路町１丁目１番１号,,13,101,1010063,,,2024-06-03,合併による解散等,5010001012674,令和６年６月１日東京都千代田区神田淡路町一丁目１番１号株式会社メディックス（5010001012674）に合併し解散,2022-08-17,1,,,,,メディックスアーム,0
5,1010001228844,登記記録の閉鎖等,0,2024-06-13,2024-06-03,株式会社メディックスアーム神奈川,,株式会社,東京都,千代田区,神田淡路町１丁目１番１号,,13,101,1010063,,,2024-06-03,合併による解散等,5010001012674,令和６年６月１日東京都千代田区神田淡路町一丁目１番１号株式会社メディックス（5010001012674）に合併し解散,2022-08-16,1,,,,,メディックスアームカナガワ,0
12,1010401158550,登記記録の閉鎖等,0,2024-06-13,2024-05-31,株式会社セイジェント,,株式会社,東京都,港区,南青山３丁目１番３６号,,13,103,1070062,,,2024-05-31,清算の結了等,,,2021-03-08,1,,,,,セイジェント,0
22,1010501004456,登記記録の閉鎖等,0,2024-06-13,2024-06-11,株式会社休暇村サービス,,株式会社,東京都,台東区,東上野５丁目１番５号,,13,106,1100015,,,2024-06-11,清算の結了等,,,2015-10-05,1,,,,,キュウカムラサービス,0
34,1010802010013,登記記録の閉鎖等,0,2024-06-13,2024-06-07,東亜興機有限会社,,有限会社,東京都,大田区,南六郷２丁目３５番３－７１４号,,13,111,1440045,,,2024-06-07,清算の結了等,,,2015-10-05,1,,,,,トウアコウキ,0
41,1010902012999,登記記録の閉鎖等,0,2024-06-13,2024-06-10,有限会社福正建設,,有限会社,東京都,世田谷区,桜新町２丁目３番１２－２０２号,,13,112,1540015,,,2024-06-10,清算の結了等,,,2015-10-05,1,,,,,フクマサケンセツ,0
43,1011001072935,登記記録の閉鎖等,0,2024-06-13,2024-06-06,株式会社アクオレ,,株式会社,東京都,千代田区,一番町１３－１,,13,101,1020082,,,2024-06-06,合併による解散等,8120901013972,令和６年６月１日大阪府吹田市広芝町９番２８号株式会社ロンヨンジャパン（8120901013972）に合併し解散,2015-10-05,1,ACUORE CORPORATION,Tokyo,"13-1, Ichibancho, Chiyoda ku",,アクオレ,0
66,1011801040760,登記記録の閉鎖等,0,2024-06-13,2024-06-07,株式会社ＢＡＲＬＥＮ,,株式会社,東京都,葛飾区,鎌倉４丁目３０番７号,,13,122,1250053,,,2024-06-07,清算の結了等,,,2022-05-25,1,,,,,バーレン,0
67,1011802014953,登記記録の閉鎖等,0,2024-06-13,2024-06-10,有限会社第一クリーニング商会,,有限会社,東京都,足立区,島根４丁目２４番２号,,13,121,1210815,,,2024-06-10,清算の結了等,,,2015-10-05,1,,,,,ダイイチクリーニングショウカイ,0
74,1013201014460,登記記録の閉鎖等,0,2024-06-13,2024-06-07,株式会社グロス,,株式会社,東京都,目黒区,中目黒１丁目１番７１号,,13,110,1530061,,,2024-06-07,合併による解散等,6010401099030,令和６年３月１０日東京都港区芝浦二丁目１番１３号ディー・エイト株式会社（6010401099030）に合併し解散,2015-10-05,1,,,,,,0
102,1040002065391,登記記録の閉鎖等,0,2024-06-13,2024-05-27,有限会社やちまたレッカーサービス,,有限会社,千葉県,八街市,八街い７７番地１４１,,12,230,2891143,,,2024-05-27,合併による解散等,9040002056103,令和６年５月２７日千葉県成田市山之作２２２番地１株式会社ロードサービス木川（9040002056103）に合併し解散,2015-10-05,1,,,,,ヤチマタレッカーサービス,0
107,1050001046771,登記記録の閉鎖等,0,2024-06-13,2024-06-05,株式会社ＨＡＧＵＭＡＲＵ,,株式会社,茨城県,潮来市,須賀南１１７番地,,08,223,3112446,,,2024-06-05,清算の結了等,,,2019-11-13,1,,,,,ハグマル,0
111,1080402000498,登記記録の閉鎖等,0,2024-06-13,2024-06-10,阿部プレス有限会社,,有限会社,静岡県,浜松市中央区,早出町１２４５番地の１１,,22,138,4350054,,,2024-06-10,清算の結了等,,,2015-10-05,1,,,,,アベプレス,0
122,1120001185645,登記記録の閉鎖等,0,2024-06-13,2024-06-10,株式会社ゆかいな仲間たち,,株式会社,大阪府,門真市,東田町８番２２号,,27,223,5710034,,,2024-06-10,清算の結了等,,,2015-10-05,1,,,,,,0
177,1190001026867,登記記録の閉鎖等,0,2024-06-13,2024-06-07,株式会社ＡＬＢＡ,,株式会社,三重県,桑名市,大字矢田１０９番地６,,24,205,5110821,,,2024-06-07,清算の結了等,,,2019-11-06,1,,,,,アルバ,0
181,1200002007963,登記記録の閉鎖等,0,2024-06-13,2024-06-07,有限会社ニューウェーブ,,有限会社,岐阜県,各務原市,那加北洞町１丁目３６番地,,21,213,5040011,,,2024-06-07,清算の結了等,,,2015-10-05,1,,,,,,0
185,1240001005452,登記記録の閉鎖等,0,2024-06-13,2024-06-11,株式会社セイリョウ,,株式会社,広島県,広島市佐伯区,五月が丘５丁目１２番１０号,,34,108,7315101,,,2024-06-11,清算の結了等,,,2015-10-05,1,,,,,セイリョウ,0
206,1330002003033,登記記録の閉鎖等,0,2024-06-13,2024-06-06,有限会社グッドライフ九州,,有限会社,熊本県,熊本市北区,徳王１丁目７番６号,,43,105,8615525,,,2024-06-06,清算の結了等,,,2015-10-05,1,,,,,グッドライフキュウシュウ,0
228,1430001023971,登記記録の閉鎖等,0,2024-06-13,2024-06-10,株式会社カーシヨツプ南郷,,株式会社,北海道,札幌市白石区,南郷通１６丁目南２番７号,,01,104,0030022,,,2024-06-10,合併による解散等,9430001017999,令和６年６月９日札幌市東区東雁来八条二丁目１番２４号株式会社四輪館（9430001017999）に合併し解散,2015-10-05,1,,,,,カーシヨツプナンゴウ,0
235,1460101005000,登記記録の閉鎖等,0,2024-06-13,2024-06-07,株式会社ニューブリード,,株式会社,北海道,帯広市,大正本町本通４丁目３番地,,01,207,0891241,,,2024-06-07,清算の結了等,,,2015-10-05,1,,,,,ニューブリード,0
236,1470001007979,登記記録の閉鎖等,0,2024-06-13,2024-06-07,株式会社魚辰,,株式会社,香川県,善通寺市,仙遊町１丁目５番１５号,,37,204,7650001,,,2024-06-07,清算の結了等,,,2015-10-05,1,,,,,ウオタツ,0
249,1500001001350,登記記録の閉鎖等,0,2024-06-13,2024-06-06,株式会社城戸建設,,株式会社,愛媛県,松山市,東野４丁目８番２５号,,38,201,7900903,,,2024-06-06,清算の結了等,,,2015-10-05,1,,,,,キドケンセツ,0
253,2010001061162,登記記録の閉鎖等,0,2024-06-13,2024-06-04,東京岡崎産業株式会社,,株式会社,東京都,中央区,日本橋１丁目１６番７号,,13,102,1030027,,,2024-06-04,清算の結了等,,,2015-10-05,1,,,,,トウキョウオカザキサンギョウ,0
260,2010003038927,登記記録の閉鎖等,0,2024-06-13,2024-06-04,Ｈａｎａ　Ｂ合同会社,,合同会社,東京都,千代田区,霞が関３丁目２番５号霞が関ビル３０階霞ヶ関国際会計事務所内,,13,101,1000013,,,2024-06-04,清算の結了等,,,2022-10-25,1,,,,,ハナビー,0
262,2010103001529,登記記録の閉鎖等,0,2024-06-13,2024-06-06,合同会社ＹＭ,,合同会社,東京都,八王子市,石川町１９２０番地石川団地１０－２０１,,13,201,1920032,,,2024-06-06,清算の結了等,,,2020-04-20,1,,,,,ワイエム,0
263,2010401082163,登記記録の閉鎖等,0,2024-06-13,2024-06-07,株式会社Ｔｏｋｙｏ　ｕｐ　ｓｔａｒｔ　ｇｒｏｕｐ,,株式会社,静岡県,下田市,三丁目１３番１１号,,22,219,4150023,,,2024-06-07,清算の結了等,,,2015-10-05,1,,,,,トウキョウアップスタートグループ,0
275,2010405020458,登記記録の閉鎖等,0,2024-06-13,2024-05-31,マーズインフラホールディングス一般社団法人,,その他の設立登記法人,東京都,港区,元赤坂１丁目１番７号,,13,103,1070051,,,2024-05-31,清算の結了等,,,2021-11-22,1,,,,,マーズインフラホールディングス,0
284,2010702009006,登記記録の閉鎖等,0,2024-06-13,2024-06-06,有限会社渡辺ウッドライフ,,有限会社,東京都,大田区,北馬込２丁目４２番７号,,13,111,1430021,,,2024-06-06,清算の結了等,,,2015-10-05,1,,,,,ワタナベウッドライフ,0
314,2011501008859,登記記録の閉鎖等,0,2024-06-13,2024-06-10,丸正興業株式会社,,株式会社,東京都,荒川区,荒川３丁目１２番１６号,,13,118,1160002,,,2024-06-10,合併による解散等,8010001048369,令和６年５月２８日東京都中央区日本橋室町一丁目１１番２号精工産業株式会社（8010001048369）に合併し解散,2015-10-05,1,,,,,マルマサコウギョウ,0
338,2020002082322,登記記録の閉鎖等,0,2024-06-13,2024-06-03,有限会社増渕塗装工業所,,有限会社,神奈川県,川崎市幸区,古市場１８５８番地,,14,132,2120052,,,2024-06-03,清算の結了等,,,2015-10-05,1,,,,,マスブチトソウコウギョウショ,0
339,2021001011230,登記記録の閉鎖等,0,2024-06-13,2024-06-11,株式会社アルプスコーポレーション,,株式会社,神奈川県,相模原市中央区,中央３丁目３番４号,,14,152,2520239,,,2024-06-11,清算の結了等,,,2015-10-05,1,,,,,アルプスコーポレーション,0
364,2050002024692,登記記録の閉鎖等,0,2024-06-13,2024-06-10,有限会社タテノ畜産,,有限会社,茨城県,古河市,東牛谷４６５番地,,08,204,3060232,,,2024-06-10,清算の結了等,,,2015-10-05,1,,,,,タテノチクサン,0
371,2080401019002,登記記録の閉鎖等,0,2024-06-13,2024-06-11,株式会社北川ステンレス,,株式会社,静岡県,浜松市中央区,伊左地町８１１５番地,,22,138,4311111,,,2024-06-11,清算の結了等,,,2015-10-05,1,,,,,キタガワステンレス,0
380,2120001237370,登記記録の閉鎖等,0,2024-06-13,2024-06-04,株式会社ライブズ,,株式会社,大阪府,大阪市北区,万歳町３番３９－１１０１号,,27,127,5300028,,,2024-06-04,清算の結了等,,,2021-05-14,1,,,,,ライブズ,0
385,2120002078211,登記記録の閉鎖等,0,2024-06-13,2024-06-06,有限会社割烹小田,,有限会社,大阪府,守口市,紅屋町１番１０号,,27,209,5700075,,,2024-06-06,合併による解散等,6120001222690,令和６年６月５日大阪市西区新町一丁目１４番２１号大阪ひびきの街ザ・サンクタスタワー１９０７号室株式会社ＤＥＺＩＳＡ（6120001222690）に合併し解散,2015-10-05,1,,,,,カッポウオダ,0
386,2120005014394,登記記録の閉鎖等,0,2024-06-13,2024-06-11,特定非営利活動法人リスペクトの会,,その他の設立登記法人,大阪府,大阪市平野区,喜連３丁目２番５号,,27,126,5470027,,,2024-06-11,清算の結了等,,,2015-10-05,1,,,,,リスペクトノカイ,0
399,2140003012274,登記記録の閉鎖等,0,2024-06-13,2024-06-10,ブライスエンターテイメント合同会社,,合同会社,兵庫県,神戸市東灘区,田中町１丁目１番１０号青山ビル３Ｆ,,28,101,6580081,,,2024-06-10,清算の結了等,,,2017-07-11,1,,,,,ブライスエンターテイメント,0
408,2180001071847,登記記録の閉鎖等,0,2024-06-13,2024-06-05,三和事務機販売株式会社,,株式会社,愛知県,江南市,草井町千代見５７番地,,23,217,4838077,,,2024-06-05,清算の結了等,,,2015-10-05,1,,,,,サンワジムキハンバイ,0
416,2180002088774,登記記録の閉鎖等,0,2024-06-13,2024-06-04,有限会社満持家,,有限会社,愛知県,知多市,岡田字高見２１番地,,23,224,4780021,,,2024-06-04,清算の結了等,,,2015-10-05,1,,,,,マンジヤ,0
422,2190002014143,登記記録の閉鎖等,0,2024-06-13,2024-06-10,有限会社東洋空調設備,,有限会社,三重県,度会郡大紀町,神原９７番地,,24,471,5192735,,,2024-06-10,清算の結了等,,,2015-10-05,1,,,,,トウヨウクウチョウセツビ,0
424,2200001026006,登記記録の閉鎖等,0,2024-06-13,2024-06-10,佐橋工業株式会社,,株式会社,岐阜県,下呂市,金山町祖師野４６４番地,,21,220,5091606,,,2024-06-10,清算の結了等,,,2015-10-05,1,,,,,サハシコウギョウ,0
432,2250001007249,登記記録の閉鎖等,0,2024-06-13,2024-06-11,株式会社ネオ・サービス,,株式会社,山口県,下関市,菊川町大字楢崎１２８６番地１,,35,201,7500322,,,2024-06-11,清算の結了等,,,2015-10-05,1,,,,,,0
452,2330002015093,登記記録の閉鎖等,0,2024-06-13,2024-06-07,有限会社Ｓａｒａ,,有限会社,熊本県,熊本市中央区,大江６丁目３０番１３号,,43,101,8620971,,,2024-06-07,清算の結了等,,,2015-10-05,1,,,,,サラ,0
455,2340005006469,登記記録の閉鎖等,0,2024-06-13,2024-06-07,医療法人敬尚会,,その他の設立登記法人,鹿児島県,鹿屋市,郷之原町１２４００番地４,,46,203,8930065,,,2024-06-07,清算の結了等,,,2015-10-05,1,,,,,ケイショウカイ,0
480,2450001014101,登記記録の閉鎖等,0,2024-06-13,2024-06-03,株式会社生活プロデュースマネージメント,,株式会社,北海道,旭川市,宮下通７丁目３８９７番地１,,01,204,0700030,,,2024-06-03,合併による解散等,7450001011738,令和６年６月１日北海道旭川市宮下通七丁目３８９７番地１株式会社生活プロデュースホールディングス（7450001011738）に合併し解散,2023-10-02,1,,,,,セイカツプロデュースマネージメント,0
482,2460103001319,登記記録の閉鎖等,0,2024-06-13,2024-05-31,合同会社ＫＵＷＡＮＴｅｃｈ,,合同会社,北海道,河西郡更別村,字更別南一線９３番地４,,01,639,0891542,,,2024-05-31,清算の結了等,,,2020-09-08,1,,,,,クワンテック,0
493,3010001017196,登記記録の閉鎖等,0,2024-06-13,2024-06-11,三生キャピタル株式会社,,株式会社,東京都,江東区,青海１丁目１番２０号,,13,108,1350064,,,2024-06-11,清算の結了等,,,2015-10-05,1,,,,,サンセイキャピタル,0
495,3010001197757,登記記録の閉鎖等,0,2024-06-13,2024-06-03,ローレンロス・ジャパン株式会社,,株式会社,東京都,中央区,銀座４丁目１２番１５号歌舞伎座タワー７階,,13,102,1040061,,,2024-06-03,清算の結了等,,,2019-01-18,1,,,,,ローレンロスジャパン,0
507,3010401100519,登記記録の閉鎖等,0,2024-06-13,2024-05-31,株式会社ネーロデンキャッスル,,株式会社,東京都,港区,新橋２丁目２０番１５号,,13,103,1050004,,,2024-05-31,合併による解散等,7010401005103,令和６年５月３１日東京都港区新橋二丁目２０番１５号エフケイ株式会社（7010401005103）に合併し解散,2015-10-05,1,,,,,ネーロデンキャッスル,0
514,3010602020318,登記記録の閉鎖等,0,2024-06-13,2024-06-07,有限会社ワークアシスト,,有限会社,東京都,江東区,福住１丁目８番２１号,,13,108,1350032,,,2024-06-07,清算の結了等,,,2015-10-05,1,,,,,ワークアシスト,0
529,3011101064079,登記記録の閉鎖等,0,2024-06-13,2024-06-06,株式会社サンテ,,株式会社,東京都,新宿区,高田馬場２丁目２番２号,,13,104,1690075,,,2024-06-06,清算の結了等,,,2015-10-05,1,,,,,サンテ,0
567,3021001057636,登記記録の閉鎖等,0,2024-06-13,2024-06-11,株式会社ソルテ,,株式会社,神奈川県,相模原市中央区,矢部１丁目２１番２３号,,14,152,2520232,,,2024-06-11,清算の結了等,,,2015-10-26,1,,,,,,0
572,3030001142728,登記記録の閉鎖等,0,2024-06-13,2024-06-11,株式会社ＫＡＮＡＥ,,株式会社,埼玉県,川口市,西川口１丁目６番１号小野田ビル６階,,11,203,3320021,,,2024-06-11,合併による解散等,2011501015995,令和６年６月１日東京都台東区上野６－１－６御徒町グリーンハイツ３０７号株式会社ＯＨＳジャパン（2011501015995）に合併し解散,2021-06-18,1,,,,,カナエ,0
583,3040002075463,登記記録の閉鎖等,0,2024-06-13,2024-06-04,有限会社矢野工務店,,有限会社,千葉県,市原市,辰巳台西５丁目５番地９,,12,219,2900004,,,2024-06-04,清算の結了等,,,2015-10-05,1,,,,,ヤノコウムテン,0
595,3060002004924,登記記録の閉鎖等,0,2024-06-13,2024-06-05,有限会社シルバー,,有限会社,栃木県,宇都宮市,睦町４番１２号チサンマンション中央公園４０１,,09,201,3200865,,,2024-06-05,清算の結了等,,,2015-10-05,1,,,,,シルバー,0
600,3090003000812,登記記録の閉鎖等,0,2024-06-13,2024-06-10,ひなた福祉サービス合同会社,,合同会社,山梨県,上野原市,上野原４５０１番地,,19,212,4090112,,,2024-06-10,清算の結了等,,,2015-10-05,1,,,,,,0
603,3120001022631,登記記録の閉鎖等,0,2024-06-13,2024-06-11,株式会社アクトシステム,,株式会社,大阪府,大阪市天王寺区,空清町５番１０号,,27,109,5430018,,,2024-06-11,清算の結了等,,,2015-10-05,1,,,,,アクトシステム,0
635,3130002021722,登記記録の閉鎖等,0,2024-06-13,2024-06-11,有限会社ａｉｏ,,有限会社,京都府,京都市右京区,太秦下角田町１０番地,,26,108,6168111,,,2024-06-11,清算の結了等,,,2015-10-05,1,,,,,エイオ,0
637,3140001016177,登記記録の閉鎖等,0,2024-06-13,2024-06-10,新栄物流株式会社,,株式会社,兵庫県,神戸市垂水区,名谷町字横尾１７８７番地１,,28,108,6550852,,,2024-06-10,清算の結了等,,,2015-10-05,1,,,,,シンエイブツリュウ,0
645,3140002029830,登記記録の閉鎖等,0,2024-06-13,2024-06-11,有限会社雅工房,,有限会社,兵庫県,明石市,大久保町大窪１６７８番地,,28,203,6740051,,,2024-06-11,清算の結了等,,,2015-10-05,1,,,,,ミヤビコウボウ,0
658,3180002036617,登記記録の閉鎖等,0,2024-06-13,2024-06-05,今居建設有限会社,,有限会社,愛知県,名古屋市北区,大野町３丁目６番地の７,,23,103,4620035,,,2024-06-05,清算の結了等,,,2015-10-05,1,,,,,イマイケンセツ,0
669,3200002007235,登記記録の閉鎖等,0,2024-06-13,2024-06-10,有限会社京呉服井上,,有限会社,岐阜県,各務原市,緑苑西３丁目８８番地,,21,213,5090116,,,2024-06-10,清算の結了等,,,2015-10-05,1,,,,,キョウゴフクイノウエ,0
684,3260001012263,登記記録の閉鎖等,0,2024-06-13,2024-06-03,株式会社清風,,株式会社,岡山県,岡山市東区,西大寺中２丁目２４番地２７号,,33,103,7048116,,,2024-06-03,合併による解散等,5260001008771,令和６年６月１日岡山県玉野市宇野四丁目１４番２１号玉野食品販売株式会社（5260001008771）に合併し解散,2015-10-05,1,,,,,セイフウ,0
686,3270002001867,登記記録の閉鎖等,0,2024-06-13,2024-06-11,有限会社森茂商事,,有限会社,鳥取県,鳥取市,安長５１９番地,,31,201,6800913,,,2024-06-11,清算の結了等,,,2015-10-05,1,,,,,,0
694,3290003014115,登記記録の閉鎖等,0,2024-06-13,2024-06-05,合同会社アクティブプラス,,合同会社,東京都,新宿区,住吉町１－６ＨＥＬＩＯＳ市ヶ谷５Ｆ,,13,104,1620065,,,2024-06-05,清算の結了等,,,2023-07-06,1,,,,,アクティブプラス,0
701,3290802014439,登記記録の閉鎖等,0,2024-06-13,2024-06-04,有限会社昭和企画,,有限会社,福岡県,北九州市八幡西区,筒井町１２番２１号,,40,109,8060032,,,2024-06-04,清算の結了等,,,2015-10-05,1,,,,,ショウワキカク,0
739,3460102000279,登記記録の閉鎖等,0,2024-06-13,2024-06-11,有限会社五山塗装工業,,有限会社,北海道,帯広市,西十二条南１１丁目３番地４,,01,207,0800022,,,2024-06-11,清算の結了等,,,2015-10-05,1,,,,,イツヤマトソウコウギョウ,0
752,4010001131327,登記記録の閉鎖等,0,2024-06-13,2024-06-03,丸勝建設株式会社,,株式会社,東京都,八丈島八丈町,大賀郷７６８０番地,,13,401,1001401,,,2024-06-03,清算の結了等,,,2015-10-05,1,,,,,マルショウケンセツ,0
754,4010001215138,登記記録の閉鎖等,0,2024-06-13,2024-05-16,株式会社晶,,株式会社,東京都,中央区,新川２丁目１２番１１－３０１号,,13,102,1040033,,,2024-05-16,清算の結了等,,,2021-01-14,1,,,,,アキラ,0
756,4010003031384,登記記録の閉鎖等,0,2024-06-13,2024-06-03,合同会社佐賀バイオマス発電所,,合同会社,東京都,中央区,京橋３丁目６番１７号,,13,102,1040031,,,2024-06-03,合併による解散等,7010601039355,令和６年６月１日東京都中央区日本橋横山町６番２号株式会社ｅ－ｆｌａｔ（7010601039355）に合併し解散,2020-01-08,1,,,,,サガバイオマスハツデンショ,0
773,4010602024004,登記記録の閉鎖等,0,2024-06-13,2024-06-11,有限会社プロシステム,,有限会社,東京都,江東区,大島９丁目４番１号,,13,108,1360072,,,2024-06-11,清算の結了等,,,2015-10-05,1,,,,,プロシステム,0
779,4010901015018,登記記録の閉鎖等,0,2024-06-13,2024-06-03,坂善衣料株式会社,,株式会社,東京都,中央区,日本橋馬喰町１丁目６番１０号,,13,102,1030002,,,2024-06-03,合併による解散等,9010001044730,令和６年６月１日東京都中央区日本橋馬喰町一丁目６番１０号坂善商事株式会社（9010001044730）に合併し解散,2015-10-05,1,,,,,サカゼンイリョウ,0
795,4011002021426,登記記録の閉鎖等,0,2024-06-13,2024-06-03,有限会社ＡＢＵＮＤＡＮＴＩＡ,,有限会社,東京都,渋谷区,恵比寿西２丁目１３番１４号,,13,113,1500021,,,2024-06-03,清算の結了等,,,2015-10-05,1,,,,,アブンダンティア,0
820,4012402014969,登記記録の閉鎖等,0,2024-06-13,2024-06-05,有限会社タマペットクリニック,,有限会社,東京都,国分寺市,西町５丁目３２番地９,,13,214,1850035,,,2024-06-05,清算の結了等,,,2015-10-05,1,,,,,タマペットクリニック,0
839,4030001069508,登記記録の閉鎖等,0,2024-06-13,2024-06-10,株式会社西武電興社,,株式会社,埼玉県,鶴ヶ島市,新町２丁目２番地１４,,11,241,3502227,,,2024-06-10,清算の結了等,,,2015-10-05,1,,,,,セイブデンコウシャ,0
856,4050003006515,登記記録の閉鎖等,0,2024-06-13,2024-06-03,合同会社Ｌｉｆｅ　Ｅｍｐｏｗｅｒｍｅｎｔ,,合同会社,茨城県,筑西市,山崎５８７－４,,08,227,3080865,,,2024-06-03,清算の結了等,,,2022-04-27,1,,,,,ライフエンパワーメント,0
866,4080405004452,登記記録の閉鎖等,0,2024-06-13,2024-06-07,青葉院,,その他の設立登記法人,静岡県,掛川市,仁藤７０番地,,22,213,4360071,,,2024-06-07,清算の結了等,,,2015-10-05,1,,,,,アオバイン,0
887,4120003022389,登記記録の閉鎖等,0,2024-06-13,2024-06-10,合同会社ＥＲＩＫＡ,,合同会社,大阪府,大阪市北区,梅田１丁目１番３号大阪駅前第３ビル２９階１－１－１号室,,27,127,5300001,,,2024-06-10,清算の結了等,,,2022-09-08,1,,,,,エリカ,0
904,4140001026935,登記記録の閉鎖等,0,2024-06-13,2024-06-03,株式会社ファイナンシャルプラン,,株式会社,兵庫県,神戸市中央区,御幸通３丁目１番８号,,28,110,6510087,,,2024-06-03,合併による解散等,5140001032684,令和６年６月１日神戸市須磨区板宿町三丁目１２番５８号株式会社トップ企画（5140001032684）に合併し解散,2015-10-05,1,,,,,ファイナンシャルプラン,0
905,4140001038022,登記記録の閉鎖等,0,2024-06-13,2024-06-10,株式会社ブルーホース,,株式会社,兵庫県,神戸市灘区,篠原南町７丁目１番６－１０５号,,28,102,6570059,,,2024-06-10,清算の結了等,,,2015-10-05,1,,,,,ブルーホース,0
913,4170001000219,登記記録の閉鎖等,0,2024-06-13,2024-06-12,株式会社イズイチ,,株式会社,和歌山県,和歌山市,梅原３１番地１６,,30,201,6408452,,,2024-06-12,清算の結了等,,,2015-10-05,1,,,,,イズイチ,0
922,4180002000786,登記記録の閉鎖等,0,2024-06-13,2024-06-03,有限会社白砂化工機,,有限会社,愛知県,名古屋市守山区,新守山３０２０番地,,23,113,4630070,,,2024-06-03,清算の結了等,,,2015-10-05,1,,,,,シロスナカコウキ,0
935,4210003001012,登記記録の閉鎖等,0,2024-06-13,2024-06-06,合同会社シンカイ,,合同会社,福井県,南条郡南越前町,河野第１９号１６番地１７,,18,404,9151111,,,2024-06-06,清算の結了等,,,2017-07-10,1,,,,,シンカイ,0
948,4260001010076,登記記録の閉鎖等,0,2024-06-13,2024-06-12,エイトジャパン株式会社,,株式会社,岡山県,玉野市,八浜町大崎４３０番地１５,,33,204,7060224,,,2024-06-12,清算の結了等,,,2015-10-05,1,,,,,エイトジャパン,0
950,4260005010683,登記記録の閉鎖等,0,2024-06-13,2024-06-04,一般社団法人備中神楽面協会,,その他の設立登記法人,岡山県,岡山市南区,芳泉２丁目１５番２号,,33,104,7028027,,,2024-06-04,清算の結了等,,,2019-12-06,1,,,,,ビッチュウカグラメンキョウカイ,0
981,4380001005147,登記記録の閉鎖等,0,2024-06-13,2024-06-06,郡山卸団地振興株式会社,,株式会社,福島県,郡山市,喜久田町卸１丁目１番地１,,07,203,9630547,,,2024-06-06,清算の結了等,,,2015-10-05,1,,,,,コオリヤマオロシダンチシンコウ,0
999,4450002010881,登記記録の閉鎖等,0,2024-06-13,2024-06-03,有限会社かわえ,,有限会社,北海道,稚内市,大字宗谷村字富磯２５０番地１,,01,214,0986756,,,2024-06-03,合併による解散等,6450001008660,令和６年６月１日北海道稚内市大字宗谷村字富磯２５０番地１株式会社キムラ（6450001008660）に合併し解散,2015-10-05,1,,,,,カワエ,0
1029,5010101000769,登記記録の閉鎖等,0,2024-06-13,2024-06-10,株式会社オプトデザイン,,株式会社,東京都,八王子市,南大沢５丁目４番地南大沢レジデンス１１０５号,,13,201,1920364,,,2024-06-10,清算の結了等,,,2015-10-05,1,,,,,オプトデザイン,0
1050,5011001123338,登記記録の閉鎖等,0,2024-06-13,2024-06-03,株式会社米一途,,株式会社,東京都,千代田区,紀尾井町３番１０号紀尾井町ガーデンタワー２５０４号（Ｃ／Ｏｓｈｉｍａｄａ－ｏｆｆｉｃｅ）,,13,101,1020094,,,2024-06-03,清算の結了等,,,2018-07-23,1,,,,,コメイット,0
1064,5011402005151,登記記録の閉鎖等,0,2024-06-13,2024-06-11,株式会社関根酒店,,株式会社,東京都,板橋区,坂下１丁目２５番１８号,,13,119,1740043,,,2024-06-11,合併による解散等,4010001030181,令和６年６月１日千葉市美浜区中瀬一丁目５番地１ミニストップ株式会社（4010001030181）に合併し解散,2015-10-05,1,,,,,セキネサケテン,0
1067,5011801024495,登記記録の閉鎖等,0,2024-06-13,2024-06-07,株式会社ケーブラッド,,株式会社,東京都,足立区,東綾瀬２丁目１－５,,13,121,1200004,,,2024-06-07,清算の結了等,,,2015-10-05,1,,,,,,0
1095,5040001004330,登記記録の閉鎖等,0,2024-06-13,2024-06-05,田島建設株式会社,,株式会社,千葉県,千葉市若葉区,大宮台３丁目１５番１１号,,12,104,2640015,,,2024-06-05,清算の結了等,,,2015-10-05,1,,,,,タジマケンセツ,0
1106,5080402015856,登記記録の閉鎖等,0,2024-06-13,2024-06-10,有限会社スペースデザインヤマダ,,有限会社,静岡県,浜松市浜名区,細江町中川９８５番地の３,,22,139,4311304,,,2024-06-10,清算の結了等,,,2015-10-05,1,,,,,スペースデザインヤマダ,0
1108,5090002007955,登記記録の閉鎖等,0,2024-06-13,2024-06-06,有限会社西川電気工事,,有限会社,山梨県,南アルプス市,小笠原２４７６番地,,19,208,4000306,,,2024-06-06,清算の結了等,,,2015-10-05,1,,,,,ニシカワデンキコウジ,0
1111,5120001001889,登記記録の閉鎖等,0,2024-06-13,2024-06-12,株式会社山陽,,株式会社,大阪府,大阪市鶴見区,今津北１丁目１１番１９号,,27,124,5380041,,,2024-06-12,清算の結了等,,,2015-10-05,1,,,,,サンヨウ,0
1151,5140003005399,登記記録の閉鎖等,0,2024-06-13,2024-06-11,げだつ神戸合同会社,,合同会社,兵庫県,神戸市垂水区,舞子坂３丁目１７－７,,28,108,6550044,,,2024-06-11,清算の結了等,,,2015-10-05,1,,,,,ゲダツコウベ,0
1157,5170002006791,登記記録の閉鎖等,0,2024-06-13,2024-06-11,Ｕ－Ｂｕｉｌｄｉｎｇ有限会社,,有限会社,和歌山県,海南市,下津町小原１３４６番地,,30,202,6490162,,,2024-06-11,清算の結了等,,,2015-10-05,1,,,,,ユービルディング,0
1176,5190001015726,登記記録の閉鎖等,0,2024-06-13,2024-06-10,トヨタ燃研株式会社,,株式会社,三重県,四日市市,諏訪町１０番２号,,24,202,5100085,,,2024-06-10,清算の結了等,,,2015-10-05,1,,,,,トヨタネンケン,0
1188,5240002028366,登記記録の閉鎖等,0,2024-06-13,2024-06-10,有限会社ボディショップ高屋,,有限会社,広島県,東広島市,高屋町大畠１２３番地,,34,212,7392104,,,2024-06-10,清算の結了等,,,2015-10-05,1,,,,,ボディショップタカヤ,0
1194,5290001036373,登記記録の閉鎖等,0,2024-06-13,2024-05-16,とれんどケイ株式会社,,株式会社,福岡県,古賀市,舞の里２丁目１５番２６号,,40,223,8113114,,,2024-05-16,清算の結了等,,,2015-10-05,1,,,,,トレンドケイ,0
1197,5290001058954,登記記録の閉鎖等,0,2024-06-13,2024-05-15,株式会社クロイタ,,株式会社,福岡県,福津市,小竹２丁目４番３０号,,40,224,8113226,,,2024-05-15,清算の結了等,,,2015-10-05,1,,,,,クロイタ,0
1211,5310001008799,登記記録の閉鎖等,0,2024-06-13,2024-06-10,エピクルー株式会社,,株式会社,長崎県,大村市,雄ケ原町１４７番地４０,,42,205,8560022,,,2024-06-10,合併による解散等,8010001238878,令和６年６月１日東京都千代田区大手町一丁目９番２号エピクルー株式会社（8010001238878）に合併し解散,2015-10-05,1,,,,,エピクルー,0
1212,5310002014986,登記記録の閉鎖等,0,2024-06-13,2024-06-06,有限会社エス・ティ企画,,有限会社,長崎県,諫早市,西郷町８番地２,,42,204,8540044,,,2024-06-06,清算の結了等,,,2015-10-05,1,,,,,エスティキカク,0
1213,5320001007544,登記記録の閉鎖等,0,2024-06-13,2024-05-24,株式会社Ｊ’ｓサポート,,株式会社,福岡県,福岡市博多区,博多駅東１丁目１番３３号,,40,132,8120013,,,2024-05-24,清算の結了等,,,2015-10-05,1,,,,,,0
1222,5370102001929,登記記録の閉鎖等,0,2024-06-13,2024-06-04,有限会社すずき生花店,,有限会社,宮城県,角田市,角田字田町５９番地,,04,208,9811505,,,2024-06-04,清算の結了等,,,2015-10-05,1,,,,,スズキセイカテン,0
1229,5390002014995,登記記録の閉鎖等,0,2024-06-13,2024-05-31,有限会社長沼設計工房,,有限会社,山形県,長井市,ままの上６番２４号の３,,06,209,9930001,,,2024-05-31,清算の結了等,,,2015-10-05,1,,,,,ナガヌマセッケイコウボウ,0
1256,6010001054963,登記記録の閉鎖等,0,2024-06-13,2024-06-03,ビーイー株式会社,,株式会社,東京都,中央区,日本橋本町４丁目１５番４号,,13,102,1030023,,,2024-06-03,清算の結了等,,,2015-10-05,1,,,,,ビーイー,0
1258,6010001101039,登記記録の閉鎖等,0,2024-06-13,2024-06-03,株式会社Ｂｕｌｌフーズ,,株式会社,東京都,中央区,日本橋兜町１１番５号,,13,102,1030026,,,2024-06-03,合併による解散等,6010001034924,令和６年６月１日東京都中央区日本橋兜町１１番５号ブルドックソース株式会社（6010001034924）に合併し解散,2015-10-05,1,,,,,ブルフーズ,0
1259,6010001101724,登記記録の閉鎖等,0,2024-06-13,2024-06-03,株式会社アップシステム,,株式会社,東京都,千代田区,神田淡路町１丁目１３番地,,13,101,1010063,,,2024-06-03,合併による解散等,5010001012674,令和６年６月１日東京都千代田区神田淡路町一丁目１番１号株式会社メディックス（5010001012674）に合併し解散,2015-10-05,1,,,,,アップシステム,0
1262,6010001196723,登記記録の閉鎖等,0,2024-06-13,2024-06-04,株式会社Ｔｉ,,株式会社,東京都,中央区,日本橋本町４丁目４番２号,,13,102,1030023,,,2024-06-04,合併による解散等,5010001095892,令和６年６月１日東京都中央区日本橋本町四丁目４番２号株式会社エス・オー・ダブリュー（5010001095892）に合併し解散,2018-11-29,1,,,,,ティーアイ,0
1264,6010001204659,登記記録の閉鎖等,0,2024-06-13,2024-06-03,株式会社ｅ－ｂｉｏ,,株式会社,東京都,中央区,京橋３丁目６番１７号,,13,102,1040031,,,2024-06-03,合併による解散等,7010601039355,令和６年６月１日東京都中央区日本橋横山町６番２号株式会社ｅ－ｆｌａｔ（7010601039355）に合併し解散,2019-10-21,1,,,,,イーバイオ,0
1265,6010001213949,登記記録の閉鎖等,0,2024-06-13,2024-06-03,株式会社ＳＯＲＡ,,株式会社,東京都,中央区,銀座８丁目４番５号ＧＩＮＺＡＨＡＣＨＩＫＡＮ３１１０ビル,,13,102,1040061,,,2024-06-03,合併による解散等,6020001036028,令和６年６月１日東京都中央区銀座八丁目８番５号陽栄銀座ビル７階株式会社エイケー（6020001036028）に合併し解散,2020-11-26,1,,,,,ソラ,0
1276,6010403026593,登記記録の閉鎖等,0,2024-06-13,2024-05-31,マーズインフラファンド合同会社,,合同会社,東京都,港区,元赤坂１丁目１番７号,,13,103,1070051,,,2024-05-31,清算の結了等,,,2021-11-22,1,,,,,マーズインフラファンド,0
1306,6011301018162,登記記録の閉鎖等,0,2024-06-13,2024-06-05,株式会社ＹＡＢＵ,,株式会社,東京都,杉並区,宮前１丁目５番１０号,,13,115,1680081,,,2024-06-05,清算の結了等,,,2015-10-05,1,,,,,ヤブ,0
1325,6013303005691,登記記録の閉鎖等,0,2024-06-13,2024-06-04,クリアナチュレ合同会社,,合同会社,東京都,豊島区,池袋２丁目３６番１号ＩＮＦＩＮＩＴＹ・ＩＫＥＢＵＫＵＲＯ６階,,13,116,1710014,,,2024-06-04,清算の結了等,,,2021-05-27,1,,,,,クリアナチュレ,0
1396,6120002075353,登記記録の閉鎖等,0,2024-06-13,2024-06-11,有限会社レジデンス,,有限会社,大阪府,枚方市,町楠葉２丁目３番５号,,27,210,5731106,,,2024-06-11,清算の結了等,,,2015-10-05,1,,,,,レジデンス,0
1404,6120905002239,登記記録の閉鎖等,0,2024-06-13,2024-06-06,六合教会,,その他の設立登記法人,大阪府,高槻市,古曽部町３丁目１６番２号,,27,207,5691115,,,2024-06-06,清算の結了等,,,2015-10-05,1,,,,,リクゴウキョウカイ,0
1417,6140001060899,登記記録の閉鎖等,0,2024-06-13,2024-06-07,株式会社姫路交通公園,,株式会社,兵庫県,姫路市,町田９７番地,,28,201,6712217,,,2024-06-07,清算の結了等,,,2015-10-05,1,,,,,ヒメジコウツウコウエン,0
1429,6180001145449,登記記録の閉鎖等,0,2024-06-13,2024-06-03,株式会社Ｒｉｃｅ　Ｃｏｎｓｕｌｔｉｎｇ,,株式会社,愛知県,安城市,寺領町久後１１２番地１,,23,212,4441166,,,2024-06-03,清算の結了等,,,2021-04-07,1,,,,,ライスコンサルティング,0
1435,6180002004728,登記記録の閉鎖等,0,2024-06-13,2024-06-05,有限会社中部代行,,有限会社,愛知県,名古屋市北区,大曽根３丁目４番１４号,,23,103,4620825,,,2024-06-05,清算の結了等,,,2015-10-05,1,,,,,チュウブダイコウ,0
1438,6180003023479,登記記録の閉鎖等,0,2024-06-13,2024-06-04,合同会社ゼロ,,合同会社,愛知県,あま市,新居屋榎坪７４番地,,23,237,4901105,,,2024-06-04,清算の結了等,,,2022-02-08,1,,,,,ゼロ,0
1441,6180301035481,登記記録の閉鎖等,0,2024-06-13,2024-06-03,株式会社ＯＵＴＦＬＡＧ,,株式会社,愛知県,安城市,今池町１丁目１６番４号,,23,212,4460071,,,2024-06-03,合併による解散等,4180001063223,令和６年６月１日愛知県岡崎市明大寺本町四丁目１１番地株式会社ＯＵＴＦＬＡＧ（4180001063223）に合併し解散,2021-10-06,1,,,,,アウトフラッグ,0
1452,6200002004163,登記記録の閉鎖等,0,2024-06-13,2024-06-12,有限会社ヘルシー・ウスイ,,有限会社,岐阜県,岐阜市,南鶉６丁目７０番地の１,,21,201,5008285,,,2024-06-12,清算の結了等,,,2015-10-05,1,,,,,ヘルシーウスイ,0
1460,6240002007311,登記記録の閉鎖等,0,2024-06-13,2024-06-11,有限会社新栄不動産,,有限会社,広島県,広島市西区,己斐本町２丁目１７番３１号,,34,104,7330812,,,2024-06-11,清算の結了等,,,2015-10-05,1,,,,,シンエイフドウサン,0
1468,6270001006765,登記記録の閉鎖等,0,2024-06-13,2024-06-10,株式会社三伸,,株式会社,鳥取県,米子市,皆生温泉１丁目１６番１６－１００２号,,31,202,6830001,,,2024-06-10,清算の結了等,,,2015-10-05,1,,,,,サンシン,0
1470,6270003000898,登記記録の閉鎖等,0,2024-06-13,2024-06-10,合同会社伸栄,,合同会社,鳥取県,米子市,皆生温泉１丁目１６番１６号,,31,202,6830001,,,2024-06-10,清算の結了等,,,2016-01-29,1,,,,,シンエイ,0
1498,6350002000123,登記記録の閉鎖等,0,2024-06-13,2024-06-05,株式会社アオバ,,株式会社,宮崎県,宮崎市,青葉町８９番地,,45,201,8800842,,,2024-06-05,清算の結了等,,,2015-10-05,1,,,,,アオバ,0
1500,6350002007655,登記記録の閉鎖等,0,2024-06-13,2024-06-06,有限会社めおと寿司,,有限会社,宮崎県,宮崎市,佐土原町下田島８９６６番地２,,45,201,8800211,,,2024-06-06,清算の結了等,,,2015-10-05,1,,,,,,0
1513,6380002005846,登記記録の閉鎖等,0,2024-06-13,2024-06-06,有限会社ムラカミ工務店,,有限会社,福島県,伊達郡川俣町,字仲ノ内３４番地の１,,07,308,9601412,,,2024-06-06,清算の結了等,,,2015-10-05,1,,,,,ムラカミコウムテン,0
1519,6430001008126,登記記録の閉鎖等,0,2024-06-13,2024-06-06,株式会社ジャムハウス,,株式会社,北海道,札幌市厚別区,大谷地西１丁目１０番５－６１７号,,01,108,0040042,,,2024-06-06,清算の結了等,,,2015-10-05,1,,,,,ジャムハウス,0
1520,6430002000874,登記記録の閉鎖等,0,2024-06-13,2024-06-07,有限会社アザレ札幌本舗,,有限会社,北海道,札幌市豊平区,平岸三条７丁目１番２７－１００１号,,01,105,0620933,,,2024-06-07,清算の結了等,,,2015-10-05,1,,,,,,0
1529,6480002006041,登記記録の閉鎖等,0,2024-06-13,2024-06-11,有限会社野木介護センター,,有限会社,徳島県,名西郡石井町,石井字白鳥５５８番地１,,36,341,7793234,,,2024-06-11,清算の結了等,,,2015-10-05,1,,,,,ノギカイゴセンター,0
1535,6500002012805,登記記録の閉鎖等,0,2024-06-13,2024-06-06,三瓶運送有限会社,,有限会社,愛媛県,西予市,三瓶町朝立永井１番耕地９番地,,38,214,7960907,,,2024-06-06,清算の結了等,,,2015-10-05,1,,,,,ミカメウンソウ,0
1550,7010001186327,登記記録の閉鎖等,0,2024-06-13,2024-06-06,株式会社ビスプロ,,株式会社,東京都,新宿区,新宿１丁目９番１０号,,13,104,1600022,,,2024-06-06,清算の結了等,,,2017-09-15,1,,,,,ビスプロ,0
1557,7010002014560,登記記録の閉鎖等,0,2024-06-13,2024-06-04,有限会社丸一商店,,有限会社,東京都,千代田区,外神田３丁目９番７号,,13,101,1010021,,,2024-06-04,清算の結了等,,,2015-10-05,1,,,,,マルイチショウテン,0
1558,7010003038848,登記記録の閉鎖等,0,2024-06-13,2024-06-03,合同会社フォルモサ太陽光,,合同会社,東京都,千代田区,内幸町１丁目３番３号内幸町ダイビル,,13,101,1000011,,,2024-06-03,清算の結了等,,,2022-10-14,1,,,,,フォルモサタイヨウコウ,0
1564,7010102004040,登記記録の閉鎖等,0,2024-06-13,2024-06-10,有限会社タイセイ通信,,有限会社,東京都,八王子市,石川町２１６番地の５,,13,201,1920032,,,2024-06-10,清算の結了等,,,2015-10-05,1,,,,,タイセイツウシン,0
1570,7010401113541,登記記録の閉鎖等,0,2024-06-13,2024-05-31,株式会社スペースマゼラン,,株式会社,東京都,港区,三田１丁目４番２８号,,13,103,1080073,,,2024-05-31,清算の結了等,,,2015-10-05,1,,,,,スペースマゼラン,0
1579,7010601034455,登記記録の閉鎖等,0,2024-06-13,2024-06-10,株式会社ＳＲマネジメント,,株式会社,東京都,江東区,東砂２丁目１５番８－１１２３号,,13,108,1360074,,,2024-06-10,清算の結了等,,,2015-10-05,1,,,,,エスアールマネジメント,0
1603,7011501014852,登記記録の閉鎖等,0,2024-06-13,2024-06-06,株式会社山の音,,株式会社,東京都,北区,王子本町２丁目１５番１９号,,13,117,1140022,,,2024-06-06,清算の結了等,,,2015-10-05,1,,,,,ヤマノオト,0
1606,7011603002185,登記記録の閉鎖等,0,2024-06-13,2024-06-10,合同会社ＮＥＸＴ　ＡＲＲＯＷＳ,,合同会社,東京都,練馬区,下石神井４丁目６番１４－７０２号,,13,120,1770042,,,2024-06-10,清算の結了等,,,2017-10-17,1,,,,,ネクストアローズ,0
1608,7011801026614,登記記録の閉鎖等,0,2024-06-13,2024-06-07,キッチントップ株式会社,,株式会社,東京都,足立区,西伊興３丁目２番１０号,,13,121,1210824,,,2024-06-07,清算の結了等,,,2015-10-05,1,,,,,キッチントップ,0
1615,7012402002847,登記記録の閉鎖等,0,2024-06-13,2024-06-10,有限会社山崎製作所,,有限会社,東京都,府中市,西府町２丁目２０番地の２１,,13,206,1830031,,,2024-06-10,清算の結了等,,,2015-10-05,1,,,,,ヤマザキセイサクジョ,0
1616,7012405004320,登記記録の閉鎖等,0,2024-06-13,2024-06-10,一般社団法人ＧＤＧ　Ｔｏｋｙｏ,,その他の設立登記法人,東京都,小金井市,貫井南町１丁目７番１５号（１５）,,13,210,1840014,,,2024-06-10,清算の結了等,,,2019-04-18,1,,,,,ジーディージートウキョウ,0
1638,7021002035075,登記記録の閉鎖等,0,2024-06-13,2024-06-10,有限会社清水技研,,有限会社,神奈川県,伊勢原市,三ノ宮１０８５番地の１５,,14,214,2591103,,,2024-06-10,清算の結了等,,,2015-10-05,1,,,,,シミズギケン,0
1642,7030001139175,登記記録の閉鎖等,0,2024-06-13,2024-06-10,ＥＳＧ株式会社,,株式会社,埼玉県,川口市,飯塚１丁目１６番８－１０６号,,11,203,3320023,,,2024-06-10,清算の結了等,,,2020-11-11,1,,,,,イーエスジー,0
1663,7060001018665,登記記録の閉鎖等,0,2024-06-13,2024-06-05,三生農事株式会社,,株式会社,栃木県,足利市,田中町７７５番地,,09,202,3260822,,,2024-06-05,清算の結了等,,,2015-10-05,1,,,,,サンセイノウジ,0
1673,7120001055842,登記記録の閉鎖等,0,2024-06-13,2024-06-10,株式会社シユウエツ,,株式会社,広島県,広島市安佐北区,あさひが丘１丁目２５番１５号,,34,106,7313361,,,2024-06-10,清算の結了等,,,2015-10-05,1,,,,,シユウエツ,0
1677,7120001202221,登記記録の閉鎖等,0,2024-06-13,2024-06-05,株式会社スポットライティング,,株式会社,大阪府,大阪市北区,西天満５丁目８番１５号八千代ビル別館２階,,27,127,5300047,,,2024-06-05,清算の結了等,,,2016-12-06,1,,,,,スポットライティング,0
1685,7120002014277,登記記録の閉鎖等,0,2024-06-13,2024-06-10,有限会社中島貿易商会,,有限会社,大阪府,大阪市此花区,高見１丁目７番１６－１５０３号,,27,104,5540001,,,2024-06-10,清算の結了等,,,2015-10-05,1,,,,,ナカジマボウエキショウカイ,0
1692,7130001074123,登記記録の閉鎖等,0,2024-06-13,2024-06-10,株式会社ＬＵＣＫ　ＬＩＮＥ　Ｘ３６９,,株式会社,京都府,京都市南区,久世東土川町２６０番地１３モダンコートＷＥＳＴ２０３,,26,107,6018204,,,2024-06-10,清算の結了等,,,2023-04-25,1,,,,,ラックラインクロスミロク,0
1709,7180001035203,登記記録の閉鎖等,0,2024-06-13,2024-06-04,カトー機械株式会社,,株式会社,愛知県,名古屋市中区,松原２丁目１０番６号,,23,106,4600017,,,2024-06-04,合併による解散等,7180001047891,令和６年６月２日名古屋市中区松原二丁目１０番６号カトー機械株式会社（7180001047891）に合併し解散,2015-10-05,1,,,,,カトーキカイ,0
1713,7180001075414,登記記録の閉鎖等,0,2024-06-13,2024-06-04,サンユー株式会社,,株式会社,愛知県,小牧市,大字西之島字旦那畑１４３２,,23,219,4850077,,,2024-06-04,清算の結了等,,,2015-10-05,1,,,,,サンユー,0
1726,7180301018221,登記記録の閉鎖等,0,2024-06-13,2024-06-03,株式会社光洋商会,,株式会社,愛知県,豊田市,幸町隣松寺２０４番地,,23,211,4701203,,,2024-06-03,清算の結了等,,,2015-10-05,1,,,,,コウヨウショウカイ,0
1727,7180301029689,登記記録の閉鎖等,0,2024-06-13,2024-06-03,株式会社アルカディア,,株式会社,愛知県,みよし市,三好丘桜４丁目６番地２,,23,236,4700204,,,2024-06-03,清算の結了等,,,2016-10-17,1,,,,,アルカディア,0
1732,7190003003826,登記記録の閉鎖等,0,2024-06-13,2024-06-10,合同会社サンエンジニアリング,,合同会社,三重県,鈴鹿市,長太旭町３丁目１番２０号,,24,207,5130042,,,2024-06-10,清算の結了等,,,2021-11-15,1,,,,,サンエンジニアリング,0
1734,7200002011836,登記記録の閉鎖等,0,2024-06-13,2024-06-07,有限会社ＰＳＰ,,有限会社,岐阜県,羽島郡岐南町,野中３丁目１８番地,,21,302,5016004,,,2024-06-07,清算の結了等,,,2015-10-05,1,,,,,,0
1757,7290001050521,登記記録の閉鎖等,0,2024-06-13,2024-05-24,株式会社ラージ工芸,,株式会社,福岡県,小郡市,津古１３０１番地の５,,40,216,8380102,,,2024-05-24,清算の結了等,,,2015-10-05,1,,,,,ラージコウゲイ,0
1770,7330002000826,登記記録の閉鎖等,0,2024-06-13,2024-06-10,有限会社一本気うどん,,有限会社,熊本県,熊本市東区,長嶺東８丁目１番２８号,,43,102,8618038,,,2024-06-10,清算の結了等,,,2015-10-05,1,,,,,,0
1771,7330002021681,登記記録の閉鎖等,0,2024-06-13,2024-06-04,有限会社エム・ケイ企画,,有限会社,熊本県,荒尾市,桜山町３丁目１６番１６号,,43,204,8640022,,,2024-06-04,清算の結了等,,,2015-10-05,1,,,,,エムケイキカク,0
1786,7430001024312,登記記録の閉鎖等,0,2024-06-13,2024-05-23,株式会社恵和ビジネスエントリー,,株式会社,北海道,札幌市中央区,南二条西１２丁目３２４番地１,,01,101,0600062,,,2024-05-23,合併による解散等,8430001005435,令和６年３月２２日札幌市中央区南二条西十二丁目３２４番地１株式会社恵和ビジネス（8430001005435）に合併し解散,2015-10-05,1,,,,,ケイワビジネスエントリー,0
1788,7430002022637,登記記録の閉鎖等,0,2024-06-13,2024-06-07,有限会社サンコーコーポレーション,,有限会社,北海道,札幌市北区,篠路町篠路３８９－３８,,01,102,0028053,,,2024-06-07,清算の結了等,,,2015-10-05,1,,,,,サンコーコーポレーション,0
1791,7430002051710,登記記録の閉鎖等,0,2024-06-13,2024-06-07,有限会社池田精肉店,,有限会社,北海道,空知郡奈井江町,字奈井江町１４４番地,,01,424,0790300,,,2024-06-07,清算の結了等,,,2015-10-05,1,,,,,イケダセイニクテン,0
1800,7460102002825,登記記録の閉鎖等,0,2024-06-13,2024-06-10,有限会社フオービツク,,有限会社,北海道,帯広市,東十二条南３丁目３番地,,01,207,0800812,,,2024-06-10,清算の結了等,,,2015-10-05,1,,,,,フォービック,0
1823,8010001228846,登記記録の閉鎖等,0,2024-06-13,2024-06-03,株式会社メディックスアーム千葉,,株式会社,東京都,千代田区,神田淡路町１丁目１番１号,,13,101,1010063,,,2024-06-03,合併による解散等,5010001012674,令和６年６月１日東京都千代田区神田淡路町一丁目１番１号株式会社メディックス（5010001012674）に合併し解散,2022-08-17,1,,,,,メディックスアームチバ,0
1826,8010003028617,登記記録の閉鎖等,0,2024-06-13,2024-06-03,Ｃａｐｉｔａｌ　Ｉｎｖｅｓｔｍｅｎｔｓ合同会社,,合同会社,東京都,渋谷区,渋谷２丁目１０番７号,,13,113,1500002,,,2024-06-03,清算の結了等,,,2018-11-05,1,,,,,キャピタルインベストメンツ,0
1839,8010401175779,登記記録の閉鎖等,0,2024-06-13,2024-05-31,株式会社Ｆａｔｅ,,株式会社,東京都,港区,赤坂９丁目１－７赤坂レジデンシャルホテル６６６号室,,13,103,1070052,,,2024-05-31,清算の結了等,,,2023-07-21,1,,,,,フェイト,0
1842,8010403032136,登記記録の閉鎖等,0,2024-06-13,2024-05-31,合同会社ＹＣＨ１５,,合同会社,東京都,港区,南青山２丁目２番１５－８２５号,,13,103,1070062,,,2024-05-31,合併による解散等,9010701013365,令和６年５月３０日東京都港区南青山二丁目２番１５－８２５号株式会社総和エステーツ（9010701013365）に合併し解散,2024-03-08,1,,,,,ワイシーエイチフィフティーン,0
1847,8010603001139,登記記録の閉鎖等,0,2024-06-13,2024-06-07,合資会社安川商店,,合資会社,東京都,江東区,猿江１丁目７番４号,,13,108,1350003,,,2024-06-07,清算の結了等,,,2015-10-05,1,,,,,ヤスカワショウテン,0
1848,8010603009685,登記記録の閉鎖等,0,2024-06-13,2024-06-11,合同会社ＡＫクリエイト,,合同会社,東京都,墨田区,堤通１丁目１２番１３号,,13,107,1310034,,,2024-06-11,清算の結了等,,,2022-08-15,1,,,,,エーケークリエイト,0
1852,8010901029773,登記記録の閉鎖等,0,2024-06-13,2024-06-03,株式会社未来,,株式会社,神奈川県,川崎市高津区,久地１丁目４８番９号,,14,134,2130032,,,2024-06-03,合併による解散等,8020001083794,令和６年６月１日横浜市都筑区東山田三丁目１７番７号株式会社オーダーズ（8020001083794）に合併し解散,2015-10-05,1,,,,,ミライ,0
1858,8011001139224,登記記録の閉鎖等,0,2024-06-13,2024-06-03,株式会社わんわんワルツ,,株式会社,東京都,千代田区,九段南１丁目５番６号りそな九段ビル５ＦＫＳフロア,,13,101,1020074,,,2024-06-03,清算の結了等,,,2021-03-22,1,,,,,ワンワンワルツ,0
1866,8011201002033,登記記録の閉鎖等,0,2024-06-13,2024-06-07,三協医療薬品株式会社,,株式会社,東京都,中野区,本町１丁目３２番２号,,13,114,1640012,,,2024-06-07,合併による解散等,3120001105881,令和６年６月１日大阪市中央区久太郎町二丁目２番７号株式会社ヘルシーワーク（3120001105881）に合併し解散,2015-10-05,1,,,,,サンキョウイリョウヤクヒン,0
1876,8011601024412,登記記録の閉鎖等,0,2024-06-13,2024-06-07,株式会社はらぺこエンターテイメント,,株式会社,東京都,練馬区,旭丘１丁目５８番９号コスモス江古田２０５,,13,120,1760005,,,2024-06-07,清算の結了等,,,2020-08-13,1,,,,,ハラペコエンターテイメント,0
1934,8100002005574,登記記録の閉鎖等,0,2024-06-13,2024-06-06,有限会社吉沢金物店,,有限会社,長野県,長野市,大字東和田５００番地の６,,20,201,3810038,,,2024-06-06,清算の結了等,,,2015-10-05,1,,,,,ヨシザワカナモノテン,0
1946,8120002021256,登記記録の閉鎖等,0,2024-06-13,2024-06-11,有限会社エイチアンドケイカンパニー,,有限会社,大阪府,大阪市西区,千代崎１丁目２７番５号,,27,106,5500023,,,2024-06-11,清算の結了等,,,2015-10-05,1,,,,,エイチアンドケイカンパニー,0
1972,8140001034166,登記記録の閉鎖等,0,2024-06-13,2024-06-07,株式会社リサイクルエナジー,,株式会社,兵庫県,神戸市中央区,磯上通４丁目３番１号２Ｆ,,28,110,6510086,,,2024-06-07,清算の結了等,,,2015-10-05,1,,,,,リサイクルエナジー,0
1973,8140001075755,登記記録の閉鎖等,0,2024-06-13,2024-06-10,株式会社ブックセンターすばる,,株式会社,兵庫県,西脇市,上野１８５番地の１,,28,213,6770044,,,2024-06-10,清算の結了等,,,2015-10-05,1,,,,,,0
1977,8140002009324,登記記録の閉鎖等,0,2024-06-13,2024-06-10,有限会社湊川製作所,,有限会社,兵庫県,神戸市長田区,苅藻通２丁目６番８号,,28,106,6530032,,,2024-06-10,清算の結了等,,,2015-10-05,1,,,,,ミナトガワセイサクショ,0
1987,8180001151494,登記記録の閉鎖等,0,2024-06-13,2024-06-06,株式会社心匠一,,株式会社,愛知県,名古屋市港区,港陽３丁目６番１７号,,23,111,4550013,,,2024-06-06,清算の結了等,,,2022-05-30,1,,,,,シンショウイチ,0
2000,8180302006612,登記記録の閉鎖等,0,2024-06-13,2024-06-03,有限会社エイトムセン,,有限会社,愛知県,豊橋市,牧野町２１８番地１,,23,201,4418112,,,2024-06-03,清算の結了等,,,2015-10-05,1,,,,,エイトムセン,0
2001,8180302010168,登記記録の閉鎖等,0,2024-06-13,2024-06-03,有限会社村井文魁堂,,有限会社,愛知県,豊橋市,新本町１２８番地,,23,201,4400892,,,2024-06-03,清算の結了等,,,2015-10-05,1,,,,,ムライブンカイドウ,0
2003,8180302016545,登記記録の閉鎖等,0,2024-06-13,2024-06-03,片原有限会社,,有限会社,愛知県,安城市,西別所町観音２８番地３,,23,212,4460012,,,2024-06-03,清算の結了等,,,2015-10-05,1,,,,,カタハラ,0
2006,8190002002571,登記記録の閉鎖等,0,2024-06-13,2024-06-10,有限会社シオン,,有限会社,三重県,津市,鳥居町２７８番地１６,,24,201,5140005,,,2024-06-10,清算の結了等,,,2015-10-05,1,,,,,シオン,0
2010,8210005009644,登記記録の閉鎖等,0,2024-06-13,2024-06-03,社会保険労務士法人玉井事務所,,その他の設立登記法人,福井県,敦賀市,津内町２丁目１番２５号,,18,202,9140056,,,2024-06-03,清算の結了等,,,2016-12-19,1,,,,,タマイジムショ,0
2011,8240001019784,登記記録の閉鎖等,0,2024-06-13,2024-06-11,株式会社ヴィレスト,,株式会社,広島県,広島市南区,出汐１丁目４番１号,,34,103,7340001,,,2024-06-11,清算の結了等,,,2015-10-05,1,,,,,ヴィレスト,0
2016,8250003000444,登記記録の閉鎖等,0,2024-06-13,2024-06-04,合同会社Ｋ’ｓ－ＧＯＬＦ,,合同会社,山口県,宇部市,恩田町３丁目３番４７号,,35,202,7550023,,,2024-06-04,清算の結了等,,,2015-10-05,1,,,,,ケイズゴルフ,0
2035,8310002019082,登記記録の閉鎖等,0,2024-06-13,2024-06-06,有限会社サノ美容室,,有限会社,長崎県,壱岐市,郷ノ浦町本村触４８０番地７,,42,210,8115133,,,2024-06-06,清算の結了等,,,2015-10-05,1,,,,,サノビヨウシツ,0
2051,8430002041090,登記記録の閉鎖等,0,2024-06-13,2024-06-07,有限会社クレッシェンテ,,有限会社,北海道,札幌市豊平区,平岸二条６丁目１番１４号,,01,105,0620932,,,2024-06-07,清算の結了等,,,2015-10-05,1,,,,,クレッシェンテ,0
2061,8460101002032,登記記録の閉鎖等,0,2024-06-13,2024-06-10,株式会社かとう看板工業,,株式会社,北海道,帯広市,東七条南１０丁目７番地２,,01,207,0800807,,,2024-06-10,清算の結了等,,,2015-10-05,1,,,,,カトウカンバンコウギョウ,0
2064,8470001009746,登記記録の閉鎖等,0,2024-06-13,2024-06-07,株式会社トータル・ハッピー・フーズ,,株式会社,香川県,善通寺市,仙遊町１丁目５番１５号,,37,204,7650001,,,2024-06-07,清算の結了等,,,2015-10-05,1,,,,,トータルハッピーフーズ,0
2082,9010001133640,登記記録の閉鎖等,0,2024-06-13,2024-06-06,株式会社オーロテック,,株式会社,東京都,荒川区,荒川３丁目６０番４号１階,,13,118,1160002,,,2024-06-06,清算の結了等,,,2015-10-05,1,,,,,オーロテック,0
2091,9010001228845,登記記録の閉鎖等,0,2024-06-13,2024-06-03,株式会社メディックスアーム東京,,株式会社,東京都,千代田区,神田淡路町１丁目１番１号,,13,101,1010063,,,2024-06-03,合併による解散等,5010001012674,令和６年６月１日東京都千代田区神田淡路町一丁目１番１号株式会社メディックス（5010001012674）に合併し解散,2022-08-16,1,,,,,メディックスアームトウキョウ,0
2109,9010405013182,登記記録の閉鎖等,0,2024-06-13,2024-05-31,一般社団法人神明ホールディングス,,その他の設立登記法人,東京都,港区,元赤坂１丁目１番８号赤坂コミュニティビル４階,,13,103,1070051,,,2024-05-31,清算の結了等,,,2015-10-05,1,,,,,シンメイホールディングス,0
2112,9010701006575,登記記録の閉鎖等,0,2024-06-13,2024-05-31,株式会社東京デザインセンター,,株式会社,東京都,港区,南青山２丁目２番１５－８２５号,,13,103,1070062,,,2024-05-31,合併による解散等,9010701013365,令和６年５月３０日東京都港区南青山二丁目２番１５－８２５号株式会社総和エステーツ（9010701013365）に合併し解散,2015-10-05,1,,,,,トウキョウデザインセンター,0
2120,9010901037924,登記記録の閉鎖等,0,2024-06-13,2024-06-07,ｍｅｍｅｄａ株式会社,,株式会社,東京都,世田谷区,世田谷１丁目２８番４－２０３号,,13,112,1540017,,,2024-06-07,清算の結了等,,,2016-04-13,1,,,,,メメダ,0
2140,9011801019161,登記記録の閉鎖等,0,2024-06-13,2024-06-07,株式会社ブラス,,株式会社,東京都,足立区,西伊興３丁目２番１０号,,13,121,1210824,,,2024-06-07,清算の結了等,,,2015-10-05,1,,,,,,0
2189,9080401022354,登記記録の閉鎖等,0,2024-06-13,2024-06-10,株式会社Ｔｕｘｅｄｏ,,株式会社,静岡県,浜松市中央区,板屋町２番地シティタワー浜松１９０２,,22,138,4300928,,,2024-06-10,清算の結了等,,,2017-07-28,1,,,,,タキシード,0
2192,9090002008017,登記記録の閉鎖等,0,2024-06-13,2024-06-06,有限会社通建,,有限会社,山梨県,南アルプス市,上今諏訪１３１０番地２ベイサージュＦ,,19,208,4000211,,,2024-06-06,清算の結了等,,,2015-10-05,1,,,,,,0
2202,9120001066202,登記記録の閉鎖等,0,2024-06-13,2024-06-10,曾根崎食品株式会社,,株式会社,大阪府,大阪市北区,豊崎５丁目１番２号,,27,127,5310072,,,2024-06-10,合併による解散等,2140001050821,令和６年５月３１日兵庫県尼崎市東海岸町１番地の４浜田化学株式会社（2140001050821）に合併し解散,2015-10-05,1,,,,,ソネザキショクヒン,0
2205,9120001144346,登記記録の閉鎖等,0,2024-06-13,2024-06-11,華陽商事株式会社,,株式会社,大阪府,大阪市天王寺区,上本町６丁目６番２号千鶴ビル３０２号,,27,109,5430001,,,2024-06-11,清算の結了等,,,2015-10-05,1,,,,,,0
2215,9120002077529,登記記録の閉鎖等,0,2024-06-13,2024-06-10,有限会社ｅ．ａ．ｓ,,有限会社,大阪府,寝屋川市,三井南町３０番２－６０６号,,27,215,5720019,,,2024-06-10,清算の結了等,,,2015-10-05,1,,,,,,0
2225,9120102026781,登記記録の閉鎖等,0,2024-06-13,2024-06-03,有限会社Ｋ２,,有限会社,大阪府,泉大津市,東豊中町１丁目６番２２号,,27,206,5950021,,,2024-06-03,合併による解散等,1120102025171,令和６年６月１日大阪府泉大津市東豊中町一丁目６番２２号株式会社ケイツーカンパニー（1120102025171）に合併し解散,2015-10-05,1,,,,,ケイツー,0
2264,9180003014871,登記記録の閉鎖等,0,2024-06-13,2024-06-03,合同会社オフィスＭ・Ｋ,,合同会社,愛知県,名古屋市昭和区,山手通１丁目１７番地の１シャンボール山手Ｂ棟３０２号,,23,107,4660815,,,2024-06-03,清算の結了等,,,2015-10-05,1,,,,,オフィスエムケー,0
2275,9220001000910,登記記録の閉鎖等,0,2024-06-13,2024-06-07,石川圧送センター株式会社,,株式会社,石川県,金沢市,浅野本町２丁目１８番４１号,,17,201,9200841,,,2024-06-07,清算の結了等,,,2015-10-05,1,,,,,イシカワアッソウセンター,0
2276,9220002001081,登記記録の閉鎖等,0,2024-06-13,2024-06-07,有限会社いしかり,,有限会社,石川県,金沢市,額乙丸町ニ５４番地３,,17,201,9218146,,,2024-06-07,清算の結了等,,,2015-10-05,1,,,,,イシカリ,0
2286,9250005008550,登記記録の閉鎖等,0,2024-06-13,2024-06-10,一般社団法人ノーチラス・デザイン・ワークス,,その他の設立登記法人,山口県,山口市,中央２丁目４番９号ノーチラス・デザイン・ワークス,,35,203,7530074,,,2024-06-10,清算の結了等,,,2020-02-10,1,,,,,ノーチラスデザインワークス,0
2287,9260002010748,登記記録の閉鎖等,0,2024-06-13,2024-06-04,有限会社わしゅう企画,,有限会社,岡山県,岡山市南区,新保７０７番地の７,,33,104,7000945,,,2024-06-04,清算の結了等,,,2015-10-05,1,,,,,ワシュウキカク,0
2298,9310002006402,登記記録の閉鎖等,0,2024-06-13,2024-05-22,有限会社出島通商,,有限会社,福岡県,福岡市博多区,新和町２丁目４番９－３０６号,,40,132,8120875,,,2024-05-22,清算の結了等,,,2015-10-05,1,,,,,デジマツウショウ,0
2318,9430001030259,登記記録の閉鎖等,0,2024-06-13,2024-05-23,株式会社恵和ビジネスクリエィティブ,,株式会社,北海道,札幌市白石区,中央二条３丁目１番２３号,,01,104,0030012,,,2024-05-23,合併による解散等,8430001005435,令和６年３月２２日札幌市中央区南二条西十二丁目３２４番地１株式会社恵和ビジネス（8430001005435）に合併し解散,2015-10-05,1,,,,,ケイワビジネスクリエィティブ,0
