sequenceNumber,corporateNumber,process,correct,updateDate,changeDate,name,nameImageId,kind,prefectureName,cityName,streetNumber,addressImageId,prefectureCode,cityCode,postCode,addressOutside,addressOutsideImageId,closeDate,closeCause,successorCorporateNumber,changeCause,assignmentDate,latest,enName,enPrefectureName,enCityName,enAddressOutside,furigana,hihyoji
8,1010001198492,登記記録の閉鎖等,0,2023-02-02,2023-01-27,株式会社イザナックス,,株式会社,東京都,中央区,銀座８丁目８番１９号,,13,102,1040061,,,2023-01-27,清算の結了等,,,2019-02-19,1,,,,,イザナックス,0
13,1010002021397,登記記録の閉鎖等,0,2023-02-02,2023-01-30,有限会社図工システム,,有限会社,東京都,中央区,日本橋小舟町９－１０－４０６号,,13,102,1030024,,,2023-01-30,清算の結了等,,,2015-10-05,1,,,,,ズコウシステム,0
16,1010003034150,登記記録の閉鎖等,0,2023-02-02,2023-01-27,Ｄ２ＮＡ合同会社,,合同会社,東京都,中央区,日本橋室町４丁目１番２１号近三ビルヂング６階,,13,102,1030022,,,2023-01-27,合併による解散等,4010401125416,令和５年１月１８日東京都中央区日本橋室町四丁目１番２１号近三ビルヂング６階ダイナミックマップ基盤株式会社（4010401125416）に合併し解散,2021-02-09,1,,,,,ディーツーエヌエー,0
17,1010003037005,登記記録の閉鎖等,0,2023-02-02,2023-01-30,ホライズン・ジャパン合同会社,,合同会社,東京都,千代田区,霞が関３丁目２番６号東京倶楽部ビルディング１１階,,13,101,1000013,,,2023-01-30,清算の結了等,,,2022-02-15,1,,,,,ホライズンジャパン,0
40,1010503006434,登記記録の閉鎖等,0,2023-02-02,2023-02-01,Ｊ．ｏｎｅ合同会社,,合同会社,東京都,台東区,根岸５丁目８番２５号,,13,106,1100003,,,2023-02-01,清算の結了等,,,2021-11-24,1,,,,,ジェイワン,0
77,1011402001583,登記記録の閉鎖等,0,2023-02-02,2023-01-31,榎本ハウジング有限会社,,有限会社,東京都,板橋区,赤塚４丁目１番１３号,,13,119,1750092,,,2023-01-31,清算の結了等,,,2015-10-05,1,,,,,エノモトハウジング,0
80,1011502010542,登記記録の閉鎖等,0,2023-02-02,2023-01-30,有限会社林断裁所,,有限会社,東京都,荒川区,東日暮里２丁目１４番５号,,13,118,1160014,,,2023-01-30,清算の結了等,,,2015-10-05,1,,,,,ハヤシダンサイジョ,0
94,1020001128028,登記記録の閉鎖等,0,2023-02-02,2023-01-06,株式会社アーレント,,株式会社,東京都,町田市,成瀬７丁目１番１号,,13,209,1940044,,,2023-01-06,合併による解散等,3012301000237,令和５年１月１日東京都町田市小野路町２４２８番地株式会社イーグル建創（3012301000237）に合併し解散,2018-10-01,1,,,,,アーレント,0
134,1050002041986,登記記録の閉鎖等,0,2023-02-02,2023-01-23,有限会社軍司さく泉工業,,有限会社,茨城県,筑西市,上平塚８５２番地,,08,227,3080067,,,2023-01-23,清算の結了等,,,2015-10-05,1,,,,,グンジサクセンコウギョウ,0
146,1080403003780,登記記録の閉鎖等,0,2023-02-02,2023-01-31,ｓｅａ－ｏｎｅ合同会社,,合同会社,静岡県,浜松市西区,佐浜町１６００番地,,22,133,4311114,,,2023-01-31,清算の結了等,,,2018-12-28,1,,,,,シーワン,0
149,1100001027485,登記記録の閉鎖等,0,2023-02-02,2023-01-30,株式会社諏訪工建,,株式会社,長野県,茅野市,本町東１１番１５号,,20,214,3910003,,,2023-01-30,清算の結了等,,,2015-10-05,1,,,,,スワコウケン,0
154,1120001091174,登記記録の閉鎖等,0,2023-02-02,2023-01-31,矢野包装資材株式会社,,株式会社,大阪府,大阪市中央区,博労町１丁目１番３号,,27,128,5410059,,,2023-01-31,清算の結了等,,,2015-10-05,1,,,,,ヤノホウソウシザイ,0
217,1210002001908,登記記録の閉鎖等,0,2023-02-02,2023-01-31,有限会社誠心堂サンクリーン,,有限会社,福井県,福井市,大宮町第３０号１１番地,,18,201,9102334,,,2023-01-31,清算の結了等,,,2015-10-05,1,,,,,セイシンドウサンクリーン,0
220,1240001005007,登記記録の閉鎖等,0,2023-02-02,2023-02-01,株式会社弘商,,株式会社,広島県,広島市安芸区,矢野町７５２番地３４２,,34,107,7360087,,,2023-02-01,清算の結了等,,,2015-10-05,1,,,,,コウショウ,0
232,1270002005507,登記記録の閉鎖等,0,2023-02-02,2023-01-30,有限会社オフィス・イー,,有限会社,鳥取県,米子市,米原４丁目３番３０号,,31,202,6830804,,,2023-01-30,清算の結了等,,,2015-10-05,1,,,,,オフィスイー,0
255,1340001005863,登記記録の閉鎖等,0,2023-02-02,2023-02-01,株式会社マリンコンテナサービス,,株式会社,鹿児島県,鹿児島市,西陵３丁目２８番６号,,46,201,8900032,,,2023-02-01,清算の結了等,,,2015-10-05,1,,,,,マリンコンテナサービス,0
278,1380001003954,登記記録の閉鎖等,0,2023-02-02,2023-02-01,ケークラフト・アーキテクツ株式会社,,株式会社,福島県,福島市,泉字下川原１５番地の９,,07,201,9608253,,,2023-02-01,清算の結了等,,,2015-10-05,1,,,,,,0
283,1410001002894,登記記録の閉鎖等,0,2023-02-02,2023-01-16,株式会社プロショップ秋田,,株式会社,秋田県,秋田市,寺内字三千刈３１２番地の１,,05,201,0110901,,,2023-01-16,合併による解散等,4370001004240,令和５年１月１日仙台市宮城野区福室四丁目１８番１３号株式会社ヨコハマタイヤルック宮城（4370001004240）に合併し解散,2015-10-05,1,,,,,プロショップアキタ,0
290,1430005004803,登記記録の閉鎖等,0,2023-02-02,2023-01-24,天理教龍明分教会,,その他の設立登記法人,北海道,北広島市,稲穂町西５丁目１番地１２,,01,234,0611124,,,2023-01-24,合併による解散等,1450005001708,令和５年１月１８日北海道深川市六条７番１号天理教雨龍大教会（1450005001708）に合併し解散,2015-10-05,1,,,,,,0
298,1490001006310,登記記録の閉鎖等,0,2023-02-02,2023-02-01,株式会社ホンダクリオ高知,,株式会社,高知県,南国市,大＿甲１８９０番地１,00006452,39,204,7830004,,,2023-02-01,合併による解散等,1490001000908,令和５年２月１日高知市札場１番２８号株式会社ホンダカーズ中高知（1490001000908）に合併し解散,2015-10-05,1,,,,,ホンダクリオコウチ,0
331,2010502022745,登記記録の閉鎖等,0,2023-02-02,2023-01-30,有限会社コントレイル,,有限会社,東京都,中央区,日本橋本町４丁目１４番８－８０３号,,13,102,1030023,,,2023-01-30,清算の結了等,,,2015-10-05,1,,,,,コントレイル,0
335,2010702001722,登記記録の閉鎖等,0,2023-02-02,2023-01-31,有限会社大森アパート,,有限会社,東京都,品川区,南大井６丁目２１番１６号,,13,109,1400013,,,2023-01-31,清算の結了等,,,2015-10-05,1,,,,,オオモリアパート,0
346,2011001114190,登記記録の閉鎖等,0,2023-02-02,2023-01-24,株式会社ＡＳＳＥＴ　ＢＲＡＥＢＵＲＮ　ＣＡＰＩＴＡＬ,,株式会社,東京都,渋谷区,桜丘町２６番地１セルリアンタワー１５階,,13,113,1500031,,,2023-01-24,清算の結了等,,,2016-12-27,1,,,,,,0
352,2011101046739,登記記録の閉鎖等,0,2023-02-02,2023-01-27,株式会社エーナインデザイン,,株式会社,山口県,宇部市,常盤町２丁目７番１２号,,35,202,7550031,,,2023-01-27,清算の結了等,,,2015-10-05,1,,,,,エーナインデザイン,0
359,2011201020511,登記記録の閉鎖等,0,2023-02-02,2023-01-31,株式会社ふりーすぺーす,,株式会社,東京都,中野区,東中野４丁目２７番２７号,,13,114,1640003,,,2023-01-31,清算の結了等,,,2018-03-14,1,,,,,フリースペース,0
364,2011601000781,登記記録の閉鎖等,0,2023-02-02,2023-01-30,運栄建設株式会社,,株式会社,東京都,練馬区,西大泉１丁目３６番１４号,,13,120,1780065,,,2023-01-30,清算の結了等,,,2015-10-05,1,,,,,ウンエイケンセツ,0
371,2012302007224,登記記録の閉鎖等,0,2023-02-02,2023-01-30,有限会社ＰＤ＆ホットポット,,有限会社,東京都,町田市,玉川学園１丁目２２番２０号,,13,209,1940041,,,2023-01-30,清算の結了等,,,2015-10-05,1,,,,,ピーディーアンドホットポット,0
390,2030001024927,登記記録の閉鎖等,0,2023-02-02,2023-01-30,株式会社フジミ,,株式会社,埼玉県,所沢市,大字久米２９番地の７,,11,208,3591131,,,2023-01-30,清算の結了等,,,2015-10-05,1,,,,,フジミ,0
402,2030003007599,登記記録の閉鎖等,0,2023-02-02,2023-01-31,Ｍ＆Ｋアドバンス合同会社,,合同会社,埼玉県,さいたま市浦和区,領家１丁目１７番１６号,,11,107,3300072,,,2023-01-31,清算の結了等,,,2015-10-05,1,,,,,エムアンドケイアドバンス,0
410,2040002030469,登記記録の閉鎖等,0,2023-02-02,2023-01-27,有限会社山口モータース,,有限会社,千葉県,八千代市,島田台９９４番地の３,,12,221,2760004,,,2023-01-27,清算の結了等,,,2015-10-05,1,,,,,ヤマグチモータース,0
411,2040002035559,登記記録の閉鎖等,0,2023-02-02,2023-01-30,有限会社トップ・プランナー,,有限会社,千葉県,市川市,南八幡４丁目４番１６号,,12,203,2720023,,,2023-01-30,清算の結了等,,,2015-10-05,1,,,,,トッププランナー,0
436,2100002021288,登記記録の閉鎖等,0,2023-02-02,2023-01-30,有限会社深志計算センター,,有限会社,長野県,松本市,深志３丁目１０番２２号,,20,202,3900815,,,2023-01-30,清算の結了等,,,2015-10-05,1,,,,,フカシケイサンセンター,0
447,2120001086082,登記記録の閉鎖等,0,2023-02-02,2023-01-31,中津不動株式会社,,株式会社,大阪府,大阪市中央区,博労町２丁目４番１１号,,27,128,5410059,,,2023-01-31,清算の結了等,,,2015-10-05,1,,,,,ナカツフドウ,0
486,2130001062594,登記記録の閉鎖等,0,2023-02-02,2023-01-31,株式会社農楽藏,,株式会社,京都府,京都市中京区,西ノ京南原町７５番地３,,26,104,6048432,,,2023-01-31,清算の結了等,,,2018-07-24,1,,,,,ノラクラ,0
500,2180001065865,登記記録の閉鎖等,0,2023-02-02,2023-01-30,株式会社よし,,株式会社,愛知県,名古屋市中川区,高杉町２５１番地,,23,110,4540936,,,2023-01-30,清算の結了等,,,2015-10-05,1,,,,,ヨシ,0
533,2260001020300,登記記録の閉鎖等,0,2023-02-02,2023-01-30,森脇建設株式会社,,株式会社,岡山県,苫田郡鏡野町,塚谷６０１番地１,,33,606,7080365,,,2023-01-30,清算の結了等,,,2015-10-05,1,,,,,モリワキケンセツ,0
545,2290002052645,登記記録の閉鎖等,0,2023-02-02,2023-02-01,有限会社福聚,,有限会社,福岡県,久留米市,通外町１１番地１６,,40,203,8300005,,,2023-02-01,清算の結了等,,,2015-10-05,1,,,,,フクジュ,0
549,2310003003974,登記記録の閉鎖等,0,2023-02-02,2023-02-01,Ｇｏｔｏ総合企画合同会社,,合同会社,長崎県,諫早市,小船越町１番地７,,42,204,8540062,,,2023-02-01,清算の結了等,,,2020-12-28,1,,,,,ゴトウソウゴウキカク,0
554,2330001018601,登記記録の閉鎖等,0,2023-02-02,2023-02-01,株式会社坂井,,株式会社,熊本県,熊本市東区,西原２丁目１９番１７号,,43,102,8618029,,,2023-02-01,清算の結了等,,,2015-10-05,1,,,,,サカイ,0
560,2340002020786,登記記録の閉鎖等,0,2023-02-02,2023-02-01,有限会社かわぐち室内,,有限会社,鹿児島県,奄美市,名瀬和光町１１番地３,,46,222,8940007,,,2023-02-01,清算の結了等,,,2015-10-05,1,,,,,カワグチシツナイ,0
568,2380002030617,登記記録の閉鎖等,0,2023-02-02,2023-02-01,有限会社あんしん介護サービス,,有限会社,福島県,双葉郡浪江町,大字立野字原４６５番地,,07,547,9791501,,,2023-02-01,清算の結了等,,,2015-10-05,1,,,,,,0
572,2410002005020,登記記録の閉鎖等,0,2023-02-02,2023-01-30,有限会社オフィスワタナベ,,有限会社,秋田県,秋田市,山王７丁目４－１３,,05,201,0100951,,,2023-01-30,清算の結了等,,,2015-10-05,1,,,,,オフィスワタナベ,0
574,2420002005333,登記記録の閉鎖等,0,2023-02-02,2023-01-31,有限会社山彦交通,,有限会社,青森県,東津軽郡平内町,大字小湊字下槻５番地３８,,02,301,0393321,,,2023-01-31,清算の結了等,,,2015-10-05,1,,,,,ヤマビココウツウ,0
602,3010001148082,登記記録の閉鎖等,0,2023-02-02,2023-01-30,株式会社ザ・ノーム．,,株式会社,東京都,中央区,日本橋室町３丁目２番１８号,,13,102,1030022,,,2023-01-30,清算の結了等,,,2015-10-05,1,,,,,ザノーム,0
605,3010001219965,登記記録の閉鎖等,0,2023-02-02,2023-01-27,株式会社Ｘ－ＢＬＯＣＫ．ＤＥＶ,,株式会社,東京都,中央区,銀座６丁目１２番２号,,13,102,1040061,,,2023-01-27,清算の結了等,,,2021-08-06,1,,,,,エックスブロックディベロップメント,0
609,3010002007997,登記記録の閉鎖等,0,2023-02-02,2023-01-30,有限会社エヌ・ティー・エフ,,有限会社,東京都,千代田区,九段南４丁目６番１３－３０１号,,13,101,1020074,,,2023-01-30,清算の結了等,,,2015-10-05,1,,,,,エヌティーエフ,0
610,3010002014787,登記記録の閉鎖等,0,2023-02-02,2023-01-30,有限会社水万,,有限会社,東京都,千代田区,九段南２丁目３番２１号,,13,101,1020074,,,2023-01-30,清算の結了等,,,2015-10-05,1,,,,,ミズマン,0
629,3010405013205,登記記録の閉鎖等,0,2023-02-02,2023-01-31,一般社団法人再生因子フォーラム,,その他の設立登記法人,東京都,世田谷区,成城６丁目１４番２３号スクエアハウス成城１０２,,13,112,1570066,,,2023-01-31,清算の結了等,,,2015-10-05,1,,,,,サイセイインシフォーラム,0
637,3010702012388,登記記録の閉鎖等,0,2023-02-02,2023-01-30,有限会社ペレグリーニ,,有限会社,東京都,品川区,小山７丁目９番１３号,,13,109,1420062,,,2023-01-30,清算の結了等,,,2015-10-05,1,,,,,ペレグリーニ,0
641,3010902019530,登記記録の閉鎖等,0,2023-02-02,2023-02-01,有限会社ミートトップ,,有限会社,東京都,世田谷区,松原５丁目８番１６号,,13,112,1560043,,,2023-02-01,合併による解散等,2010901005986,令和５年２月１日東京都世田谷区松原五丁目８番１６号株式会社トップ（2010901005986）に合併し解散,2015-10-05,1,,,,,ミートトップ,0
648,3011001136837,登記記録の閉鎖等,0,2023-02-02,2023-01-25,ＳＤ　Ｓ株式会社,,株式会社,東京都,渋谷区,恵比寿４丁目２０番４号恵比寿ガーデンプレイスグラススクエア棟地下一階,,13,113,1500013,,,2023-01-25,清算の結了等,,,2020-11-11,1,,,,,エスディーエス,0
695,3021001067981,登記記録の閉鎖等,0,2023-02-02,2023-01-31,株式会社秋元石材店,,株式会社,神奈川県,藤沢市,片瀬３丁目１４番４５号,,14,205,2510032,,,2023-01-31,清算の結了等,,,2019-08-16,1,,,,,アキモトセキザイテン,0
702,3030001043067,登記記録の閉鎖等,0,2023-02-02,2023-01-30,株式会社美創建業,,株式会社,埼玉県,上尾市,井戸木４丁目１６番地３,,11,219,3620071,,,2023-01-30,清算の結了等,,,2015-10-05,1,,,,,,0
712,3040001112787,登記記録の閉鎖等,0,2023-02-02,2023-01-30,フードプロセッシング株式会社,,株式会社,千葉県,松戸市,二ツ木１３６１番地の４,,12,207,2700027,,,2023-01-30,清算の結了等,,,2020-03-06,1,,,,,フードプロセッシング,0
713,3040001119840,登記記録の閉鎖等,0,2023-02-02,2023-02-01,株式会社ＧＯＯＤ　ＬＩＦＥ,,株式会社,千葉県,市川市,東菅野１丁目１６番２１号１０５号室,,12,203,2720823,,,2023-02-01,清算の結了等,,,2021-08-18,1,,,,,グッドライフ,0
741,3100002027656,登記記録の閉鎖等,0,2023-02-02,2023-01-30,有限会社ファッションスリー,,有限会社,長野県,北佐久郡軽井沢町,大字軽井沢１０６５番地５７,,20,321,3890102,,,2023-01-30,清算の結了等,,,2015-10-05,1,,,,,ファッションスリー,0
759,3120101053741,登記記録の閉鎖等,0,2023-02-02,2023-01-31,株式会社オールマイティー,,株式会社,大阪府,堺市西区,鳳南町３丁１９９番地４１,,27,144,5938325,,,2023-01-31,清算の結了等,,,2015-10-15,1,,,,,オールマイティー,0
760,3120901010529,登記記録の閉鎖等,0,2023-02-02,2023-02-01,エレクトロ・データ・サプライ株式会社,,株式会社,大阪府,高槻市,庄所町７番２６号,,27,207,5690064,,,2023-02-01,清算の結了等,,,2015-10-05,1,,,,,エレクトロデータサプライ,0
761,3120901034453,登記記録の閉鎖等,0,2023-02-02,2023-01-31,株式会社アンシャンテ,,株式会社,大阪府,高槻市,大畑町８番７号,,27,207,5691144,,,2023-01-31,清算の結了等,,,2015-10-05,1,,,,,アンシャンテ,0
782,3140002005393,登記記録の閉鎖等,0,2023-02-02,2023-01-20,祐喜有限会社,,有限会社,兵庫県,神戸市西区,神出町田井６１０番地の１,,28,111,6512313,,,2023-01-20,清算の結了等,,,2015-10-05,1,,,,,ユウキ,0
783,3140002045712,登記記録の閉鎖等,0,2023-02-02,2023-01-26,有限会社シーブシステム,,有限会社,兵庫県,尼崎市,南塚口町２丁目２１番２１号４０１,,28,202,6610012,,,2023-01-26,清算の結了等,,,2015-10-05,1,,,,,シーブシステム,0
784,3140005000854,登記記録の閉鎖等,0,2023-02-02,2023-01-20,霊友会第十三支部教会,,その他の設立登記法人,兵庫県,神戸市須磨区,潮見台町２丁目２番７６号,,28,107,6540075,,,2023-01-20,合併による解散等,6010405001553,令和４年１２月２８日東京都港区麻布台一丁目７番８号霊友会（6010405001553）に合併し解散,2015-10-05,1,,,,,,0
786,3170002005309,登記記録の閉鎖等,0,2023-02-02,2023-01-31,有限会社プランニングアレックス,,有限会社,和歌山県,和歌山市,西庄１０３６番地７５,,30,201,6400112,,,2023-01-31,清算の結了等,,,2015-10-05,1,,,,,プランニングアレックス,0
787,3180001012676,登記記録の閉鎖等,0,2023-02-02,2023-01-30,タナカ印刷株式会社,,株式会社,愛知県,名古屋市北区,天道町４丁目１１番地,,23,103,4620034,,,2023-01-30,清算の結了等,,,2015-10-05,1,,,,,タナカインサツ,0
788,3180001017254,登記記録の閉鎖等,0,2023-02-02,2023-01-31,株式会社高木事務所,00071894,株式会社,愛知県,名古屋市東区,泉１丁目１１番２９号,,23,102,4610001,,,2023-01-31,清算の結了等,,,2015-10-05,1,,,,,タカギジムショ,0
792,3180001067076,登記記録の閉鎖等,0,2023-02-02,2023-01-30,株式会社渡辺木材,,株式会社,愛知県,愛知郡東郷町,大字春木字南野渕２５１０番地の４,,23,302,4700162,,,2023-01-30,清算の結了等,,,2015-10-05,1,,,,,ワタナベモクザイ,0
812,3180301036524,登記記録の閉鎖等,0,2023-02-02,2023-01-25,山崎商事株式会社,,株式会社,愛知県,西尾市,下羽角町六反６６番地,,23,213,4450012,,,2023-01-25,清算の結了等,,,2022-08-23,1,,,,,ヤマザキショウジ,0
834,3290001082493,登記記録の閉鎖等,0,2023-02-02,2023-01-27,ＭＫシステム株式会社,,株式会社,福岡県,福岡市早良区,四箇２丁目３番１号,,40,137,8111103,,,2023-01-27,清算の結了等,,,2018-08-21,1,,,,,エムケイシステム,0
842,3320001000360,登記記録の閉鎖等,0,2023-02-02,2023-01-31,株式会社アーバンプラン,,株式会社,大分県,大分市,田中町１丁目１番９号,,44,201,8700852,,,2023-01-31,清算の結了等,,,2015-10-05,1,,,,,アーバンプラン,0
854,3360002014240,登記記録の閉鎖等,0,2023-02-02,2023-01-30,有限会社麻毛,,有限会社,沖縄県,沖縄市,園田１丁目１７番４号,,47,211,9040022,,,2023-01-30,清算の結了等,,,2015-10-05,1,,,,,マモウ,0
863,3390001002391,登記記録の閉鎖等,0,2023-02-02,2023-01-16,株式会社ワイズ,,株式会社,山形県,山形市,大字十文字字大原８６５番地,,06,201,9902211,,,2023-01-16,合併による解散等,4370001004240,令和５年１月１日仙台市宮城野区福室四丁目１８番１３号株式会社ヨコハマタイヤルック宮城（4370001004240）に合併し解散,2015-10-05,1,,,,,ワイズ,0
871,3430002030032,登記記録の閉鎖等,0,2023-02-02,2023-01-30,有限会社インテリア里早,,有限会社,北海道,札幌市手稲区,星置二条２丁目１０番３号,,01,109,0060852,,,2023-01-30,清算の結了等,,,2015-10-05,1,,,,,インテリアリソウ,0
875,3450005002489,登記記録の閉鎖等,0,2023-02-02,2023-01-24,法泉寺,,その他の設立登記法人,北海道,中川郡音威子府村,字音威子府４３５番地,00090863,01,470,0982501,,,2023-01-24,合併による解散等,4450005000698,令和５年１月２４日北海道旭川市東旭川町倉沼４４番地旭山寺（4450005000698）に合併し解散,2015-10-05,1,,,,,ホウセンジ,0
883,3500001001596,登記記録の閉鎖等,0,2023-02-02,2023-02-01,株式会社コープ総合リビングシステムズ,,株式会社,愛媛県,松山市,道後樋又３番２４号,00007310,38,201,7900825,,,2023-02-01,清算の結了等,,,2015-10-05,1,,,,,コープソウゴウリビングシステムズ,0
899,4010003030865,登記記録の閉鎖等,0,2023-02-02,2023-01-27,ｉプロパティ合同会社,,合同会社,東京都,千代田区,永田町２丁目１４番２号－３階スリーアイズキャピタル株式会社内,,13,101,1000014,,,2023-01-27,清算の結了等,,,2019-10-15,1,,,,,アイプロパティ,0
900,4010005035185,登記記録の閉鎖等,0,2023-02-02,2023-01-31,一般社団法人全日本募金会,,その他の設立登記法人,東京都,中央区,京橋２丁目７番８号,,13,102,1040031,,,2023-01-31,清算の結了等,,,2022-06-28,1,,,,,ゼンニホンボキンカイ,0
902,4010401088489,登記記録の閉鎖等,0,2023-02-02,2022-12-12,株式会社Ｔｙｐｅ　Ｂｅｅ,,株式会社,東京都,世田谷区,太子堂５丁目３１番２号モード３０２,,13,112,1540004,,,2022-12-12,合併による解散等,7012401023282,令和４年１２月１日東京都世田谷区太子堂三丁目１４番４号エスペランサ三軒茶屋３Ｆ株式会社Ｔｙｐｅ　Ｂｅｅ　Ｇｒｏｕｐ（7012401023282）に合併し解散,2015-10-05,1,,,,,タイプビー,0
967,4012401011810,登記記録の閉鎖等,0,2023-02-02,2023-01-31,株式会社ＰＩＣＯＪａｐａｎ,,株式会社,東京都,武蔵野市,緑町２丁目１番６号,,13,203,1800012,,,2023-01-31,清算の結了等,,,2015-10-05,1,,,,,ピコジャパン,0
977,4013402004167,登記記録の閉鎖等,0,2023-02-02,2023-01-06,有限会社エアー企画,,有限会社,東京都,町田市,成瀬７丁目１番１号,,13,209,1940044,,,2023-01-06,合併による解散等,3012301000237,令和５年１月１日東京都町田市小野路町２４２８番地株式会社イーグル建創（3012301000237）に合併し解散,2015-10-05,1,,,,,エアーキカク,0
997,4030002083276,登記記録の閉鎖等,0,2023-02-02,2023-01-30,有限会社コーヨー電機,,有限会社,埼玉県,北本市,高尾１丁目３４１番地,,11,233,3640034,,,2023-01-30,清算の結了等,,,2015-10-05,1,,,,,コーヨーデンキ,0
1012,4040005014616,登記記録の閉鎖等,0,2023-02-02,2023-01-19,天理教上谷分教会,,その他の設立登記法人,千葉県,野田市,上花輪５９３番地,,12,208,2780033,,,2023-01-19,合併による解散等,6010605000454,令和５年１月１２日東京都墨田区八広五丁目１９番６号天理教本吾嬬分教会（6010605000454）に合併し解散,2015-10-05,1,,,,,テンリキョウウワヤブンキョウカイ,0
1030,4100001018036,登記記録の閉鎖等,0,2023-02-02,2023-01-30,株式会社フジ・アウトソーシング,,株式会社,長野県,北佐久郡軽井沢町,大字軽井沢１０６５番地５７,,20,321,3890102,,,2023-01-30,清算の結了等,,,2015-10-05,1,,,,,フジアウトソーシング,0
1033,4100005007299,登記記録の閉鎖等,0,2023-02-02,2023-01-20,天理教更級分教会,,その他の設立登記法人,長野県,大町市,美麻８００９番地,,20,212,3999101,,,2023-01-20,合併による解散等,4100005000675,令和５年１月２０日長野市大字富竹字山道西６８９番地の２天理教信州長野分教会（4100005000675）に合併し解散,2015-10-05,1,,,,,テンリキョウサラシナブンキョウカイ,0
1045,4120001195773,登記記録の閉鎖等,0,2023-02-02,2023-02-01,株式会社ネクスト,,株式会社,福島県,南相馬市,原町区東町２丁目７４,,07,212,9750002,,,2023-02-01,清算の結了等,,,2016-01-19,1,,,,,ネクスト,0
1047,4120001244571,登記記録の閉鎖等,0,2023-02-02,2023-01-27,瑞祥株式会社,,株式会社,大阪府,大阪市天王寺区,空清町４－１１杉野ビル本館２０７号室,,27,109,5430018,,,2023-01-27,清算の結了等,,,2022-03-18,1,,,,,ズイショウ,0
1054,4120002024733,登記記録の閉鎖等,0,2023-02-02,2023-01-31,有限会社奥本ガラス店,,有限会社,大阪府,大阪市東淀川区,上新庄３丁目２番３２号,,27,114,5330006,,,2023-01-31,清算の結了等,,,2015-10-05,1,,,,,オクモトガラステン,0
1078,4130002034509,登記記録の閉鎖等,0,2023-02-02,2023-01-31,有限会社海苔の崎田,,有限会社,京都府,舞鶴市,字倉谷１７１５番地,,26,202,6240906,,,2023-01-31,清算の結了等,,,2015-10-05,1,,,,,ノリノサキタ,0
1082,4140001015112,登記記録の閉鎖等,0,2023-02-02,2023-01-30,株式会社スコーラー,,株式会社,兵庫県,三木市,緑が丘町東３丁目１０番地の１６,,28,215,6730533,,,2023-01-30,清算の結了等,,,2015-10-05,1,,,,,スコーラー,0
1089,4180001036773,登記記録の閉鎖等,0,2023-02-02,2023-01-30,株式会社寺島不動産研究所,,株式会社,愛知県,名古屋市中区,栄１丁目１２番６号,,23,106,4600008,,,2023-01-30,清算の結了等,,,2015-10-05,1,,,,,テラシマフドウサンケンキュウショ,0
1100,4180005019196,登記記録の閉鎖等,0,2023-02-02,2023-02-01,一般社団法人ｓａｔｉ,,その他の設立登記法人,愛知県,名古屋市東区,白壁４丁目８６番地の３,,23,102,4610011,,,2023-02-01,清算の結了等,,,2021-03-29,1,,,,,サティ,0
1105,4190002000851,登記記録の閉鎖等,0,2023-02-02,2023-01-31,有限会社大栄クリーニング,,有限会社,三重県,津市,白塚町２５３３番地,,24,201,5140101,,,2023-01-31,清算の結了等,,,2015-10-05,1,,,,,ダイエイクリーニング,0
1121,4290001004546,登記記録の閉鎖等,0,2023-02-02,2023-01-31,株式会社コクピツト飯倉,,株式会社,福岡県,福岡市城南区,干隈１丁目７番１２号,,40,136,8140132,,,2023-01-31,清算の結了等,,,2015-10-05,1,,,,,コクピツトイイクラ,0
1122,4290001030105,登記記録の閉鎖等,0,2023-02-02,2023-02-01,株式会社松喜屋,,株式会社,福岡県,福岡市南区,寺塚１丁目９番１号,,40,134,8150074,,,2023-02-01,合併による解散等,6290001043666,令和５年２月１日福岡市南区寺塚一丁目９番１号株式会社Ｐ．Ｄ．Ｃ（6290001043666）に合併し解散,2015-10-05,1,,,,,マツキヤ,0
1154,4420001001538,登記記録の閉鎖等,0,2023-02-02,2023-01-16,ヨコハマタイヤリテール青森株式会社,,株式会社,青森県,青森市,第二問屋町１丁目２番地１１,,02,201,0300113,,,2023-01-16,合併による解散等,4370001004240,令和５年１月１日仙台市宮城野区福室四丁目１８番１３号株式会社ヨコハマタイヤルック宮城（4370001004240）に合併し解散,2015-10-05,1,,,,,ヨコハマタイヤリテールアオモリ,0
1172,4480002015382,登記記録の閉鎖等,0,2023-02-02,2023-02-01,有限会社池田技研,,有限会社,徳島県,三好市,池田町馬路西堂面１３番地,,36,208,7785252,,,2023-02-01,清算の結了等,,,2015-10-05,1,,,,,イケダギケン,0
1206,5010602016388,登記記録の閉鎖等,0,2023-02-02,2023-01-30,有限会社元井材木店,,有限会社,東京都,墨田区,立川４丁目１５番７号,,13,107,1300023,,,2023-01-30,清算の結了等,,,2015-10-05,1,,,,,モトイザイモクテン,0
1216,5010802013581,登記記録の閉鎖等,0,2023-02-02,2023-01-26,有限会社マナカ,,有限会社,東京都,大田区,東馬込１丁目３番５号,,13,111,1430022,,,2023-01-26,清算の結了等,,,2015-10-05,1,,,,,マナカ,0
1245,5011601011520,登記記録の閉鎖等,0,2023-02-02,2023-01-30,株式会社ニュールーフ工業,,株式会社,東京都,練馬区,北町７丁目１７番９号,,13,120,1790081,,,2023-01-30,清算の結了等,,,2015-10-05,1,,,,,ニュールーフコウギョウ,0
1257,5013301033043,登記記録の閉鎖等,0,2023-02-02,2023-01-30,株式会社ＫＤケア,,株式会社,東京都,豊島区,北大塚１丁目２７番２号,,13,116,1700004,,,2023-01-30,清算の結了等,,,2015-10-05,1,,,,,ケーディーケア,0
1268,5020002075224,登記記録の閉鎖等,0,2023-02-02,2023-01-30,有限会社ホームスクエア,,有限会社,神奈川県,横浜市西区,伊勢町２丁目９７番地５,,14,103,2200045,,,2023-01-30,清算の結了等,,,2015-10-05,1,,,,,ホームスクエア,0
1273,5030001033909,登記記録の閉鎖等,0,2023-02-02,2023-01-27,株式会社栄塗技建埼玉,,株式会社,埼玉県,加須市,北小浜７９番地６,,11,210,3470011,,,2023-01-27,合併による解散等,6060001007306,令和５年１月１日栃木県宇都宮市西川田町４０９番３株式会社栄塗技建（6060001007306）に合併し解散,2015-10-05,1,,,,,エイトギケンサイタマ,0
1274,5030001061959,登記記録の閉鎖等,0,2023-02-02,2023-01-30,葛西パネル技研株式会社,,株式会社,埼玉県,北本市,本町７丁目９９番地,,11,233,3640033,,,2023-01-30,清算の結了等,,,2015-10-05,1,,,,,カサイパネルギケン,0
1279,5030002009247,登記記録の閉鎖等,0,2023-02-02,2023-01-23,有限会社ティー・エス研磨,,有限会社,埼玉県,さいたま市見沼区,島町９４４番地,,11,104,3370006,,,2023-01-23,清算の結了等,,,2015-10-05,1,,,,,ティーエスケンマ,0
1288,5040002089668,登記記録の閉鎖等,0,2023-02-02,2023-01-31,有限会社ケイ・ティ企画,,有限会社,千葉県,柏市,西原４丁目３番１６号,,12,217,2770885,,,2023-01-31,清算の結了等,,,2015-10-05,1,,,,,ケイティキカク,0
1292,5050001018718,登記記録の閉鎖等,0,2023-02-02,2023-01-27,株式会社総和企画,,株式会社,茨城県,古河市,小堤６８番地の１３,,08,204,3060231,,,2023-01-27,清算の結了等,,,2015-10-05,1,,,,,,0
1293,5050001037338,登記記録の閉鎖等,0,2023-02-02,2023-01-30,株式会社ヤマヨシ,,株式会社,茨城県,土浦市,並木１丁目２番２５号皆川第二ビル３０１,,08,203,3000061,,,2023-01-30,清算の結了等,,,2015-10-05,1,,,,,ヤマヨシ,0
1324,5120003015953,登記記録の閉鎖等,0,2023-02-02,2023-01-31,Ｒｉｓｋｙ合同会社,,合同会社,大阪府,大阪市住吉区,山之内２丁目７番２２号,,27,120,5580023,,,2023-01-31,清算の結了等,,,2019-07-10,1,,,,,リスキー,0
1336,5130005014259,登記記録の閉鎖等,0,2023-02-02,2023-01-30,特定非営利活動法人環境保護・人材支援協会,,その他の設立登記法人,京都府,宇治市,槇島町十一６７－１デヴァシオンビル２Ｆ－Ａ,,26,204,6110041,,,2023-01-30,清算の結了等,,,2015-10-05,1,,,,,カンキョウホゴジンザイシエンキョウカイ,0
1348,5150001007891,登記記録の閉鎖等,0,2023-02-02,2023-01-27,株式会社リンテック,,株式会社,奈良県,生駒市,南田原町１０４３番地１,,29,209,6300135,,,2023-01-27,清算の結了等,,,2015-10-05,1,,,,,リンテック,0
1368,5180003020642,登記記録の閉鎖等,0,2023-02-02,2023-01-30,合同会社なかの企画,,合同会社,愛知県,名古屋市東区,泉３丁目１７番１０号泉ビル３Ｆ,,23,102,4610001,,,2023-01-30,清算の結了等,,,2019-12-13,1,,,,,ナカノキカク,0
1370,5180301020385,登記記録の閉鎖等,0,2023-02-02,2023-01-30,株式会社インテックコンサルティング,,株式会社,愛知県,豊田市,中根町小訳１６６番地９,,23,211,4730923,,,2023-01-30,清算の結了等,,,2015-10-05,1,,,,,インテックコンサルティング,0
1374,5190001011353,登記記録の閉鎖等,0,2023-02-02,2023-01-31,株式会社東洋陵苑,,株式会社,三重県,多気郡明和町,大字明星３８０８番地,,24,442,5150313,,,2023-01-31,清算の結了等,,,2015-10-05,1,,,,,トウヨウリョウエン,0
1411,5370002008891,登記記録の閉鎖等,0,2023-02-02,2023-01-31,有限会社山形屋製麺そば店,,有限会社,宮城県,仙台市宮城野区,平成２丁目６番５１号,,04,102,9830037,,,2023-01-31,清算の結了等,,,2015-10-05,1,,,,,ヤマガタヤセイメンソバテン,0
1420,5410002002989,登記記録の閉鎖等,0,2023-02-02,2023-01-30,有限会社履物卸石川,,有限会社,秋田県,秋田市,大町３丁目３番３４号,,05,201,0100921,,,2023-01-30,清算の結了等,,,2015-10-05,1,,,,,ハキモノオロシイシカワ,0
1421,5430001044683,登記記録の閉鎖等,0,2023-02-02,2023-02-01,株式会社アンルート,,株式会社,北海道,札幌市豊平区,月寒東五条１９丁目４番５０号,,01,105,0620055,,,2023-02-01,清算の結了等,,,2015-10-05,1,,,,,アンルート,0
1429,5460302005134,登記記録の閉鎖等,0,2023-02-02,2023-01-30,有限会社今野工務店,,有限会社,北海道,斜里郡斜里町,朝日町３９番地１,,01,545,0994114,,,2023-01-30,清算の結了等,,,2015-10-05,1,,,,,コンノコウムテン,0
1432,5470002008378,登記記録の閉鎖等,0,2023-02-02,2023-01-31,有限会社プレゼントギャラリービット,,有限会社,香川県,高松市,香西東町６４２番地７,,37,201,7618013,,,2023-01-31,清算の結了等,,,2015-10-05,1,,,,,プレゼントギャラリービット,0
1433,5470002008576,登記記録の閉鎖等,0,2023-02-02,2023-02-01,有限会社ミキエダ学館,,有限会社,香川県,高松市,十川東町６５１番地１０,,37,201,7610434,,,2023-02-01,清算の結了等,,,2015-10-05,1,,,,,ミキエダガッカン,0
1438,5480005004869,登記記録の閉鎖等,0,2023-02-02,2023-01-04,浅川漁業協同組合,,その他の設立登記法人,徳島県,海部郡海陽町,浅川字入口１番地８,,36,388,7750101,,,2023-01-04,合併による解散等,7480005004867,令和５年１月４日徳島県海部郡海陽町鞆浦字山下１４番地の１鞆浦漁業協同組合（7480005004867）に合併し解散,2015-10-05,1,,,,,アサカワギョギョウ,0
1454,6010001032754,登記記録の閉鎖等,0,2023-02-02,2023-01-30,株式会社ワタナベ書店,,株式会社,東京都,千代田区,丸の内１丁目２番１号,,13,101,1000005,,,2023-01-30,清算の結了等,,,2015-10-05,1,,,,,ワタナベショテン,0
1456,6010001077048,登記記録の閉鎖等,0,2023-02-02,2023-01-30,ＵＴグローバルジャパン株式会社,,株式会社,東京都,中央区,銀座７丁目１３番６号,,13,102,1040061,,,2023-01-30,清算の結了等,,,2015-10-05,1,,,,,ユーティーグローバルジャパン,0
1457,6010001077551,登記記録の閉鎖等,0,2023-02-02,2023-01-31,株式会社ヒデ,,株式会社,東京都,中央区,日本橋小伝馬町４番３号,,13,102,1030001,,,2023-01-31,清算の結了等,,,2015-10-05,1,,,,,ヒデ,0
1482,6010405016584,登記記録の閉鎖等,0,2023-02-02,2023-02-01,南桜プロパティーズ特定目的会社,,その他の設立登記法人,東京都,千代田区,霞が関３丁目２番５号,,13,101,1000013,,,2023-02-01,清算の結了等,,,2018-03-27,1,,,,,ナンオウプロパティーズ,0
1487,6010701006611,登記記録の閉鎖等,0,2023-02-02,2023-01-31,東京ブラスト株式会社,,株式会社,東京都,品川区,平塚３丁目１５番６号,,13,109,1420051,,,2023-01-31,清算の結了等,,,2015-10-05,1,,,,,トウキョウブラスト,0
1490,6010702002155,登記記録の閉鎖等,0,2023-02-02,2023-01-27,有限会社鴨志田電機製作所,,有限会社,東京都,品川区,南品川３丁目６番１５号,,13,109,1400004,,,2023-01-27,清算の結了等,,,2015-10-05,1,,,,,カモシダデンキセイサクショ,0
1497,6011001038378,登記記録の閉鎖等,0,2023-02-02,2023-01-12,パーソルテクノロジースタッフ株式会社,,株式会社,東京都,新宿区,西新宿２丁目１番１号,,13,104,1600023,,,2023-01-12,合併による解散等,3180001032055,令和５年１月１日名古屋市中区栄三丁目１８番１号パーソルＲ＆Ｄ株式会社（3180001032055）に合併し解散,2015-10-05,1,,,,,パーソルテクノロジースタッフ,0
1506,6011101068069,登記記録の閉鎖等,0,2023-02-02,2023-01-25,株式会社ウィンライフサポート,,株式会社,埼玉県,狭山市,中央１丁目９番２２号,,11,215,3501308,,,2023-01-25,清算の結了等,,,2015-10-05,1,,,,,ウィンライフサポート,0
1507,6011105001538,登記記録の閉鎖等,0,2023-02-02,2023-01-31,特定非営利活動法人日本ボランティア育成会議,,その他の設立登記法人,東京都,新宿区,神楽坂１丁目９番地黒川ビル,,13,104,1620825,,,2023-01-31,清算の結了等,,,2015-10-05,1,,,,,ニホンボランティアイクセイカイギ,0
1519,6012402002708,登記記録の閉鎖等,0,2023-02-02,2023-01-27,有限会社宮町グループ,,有限会社,東京都,府中市,宮町２丁目３番地の８,,13,206,1830023,,,2023-01-27,合併による解散等,2012401000749,令和５年１月２７日東京都府中市宮町二丁目３番地の８株式会社しめのうち（2012401000749）に合併し解散,2015-10-05,1,,,,,ミヤマチグループ,0
1521,6013102002799,登記記録の閉鎖等,0,2023-02-02,2023-01-27,有限会社狭山工業製作所,,有限会社,東京都,西多摩郡瑞穂町,大字富士山栗原新田２１５番地６,,13,303,1901204,,,2023-01-27,清算の結了等,,,2015-10-05,1,,,,,サヤマコウギョウセイサクショ,0
1522,6013102005802,登記記録の閉鎖等,0,2023-02-02,2023-01-31,有限会社奥多摩運輸,,有限会社,東京都,青梅市,今井３丁目３番地１８,,13,205,1980023,,,2023-01-31,清算の結了等,,,2015-10-05,1,,,,,オクタマウンユ,0
1544,6030002111497,登記記録の閉鎖等,0,2023-02-02,2023-01-30,有限会社照和架設,,有限会社,埼玉県,川口市,大字新井宿８９５番地の２,,11,203,3330826,,,2023-01-30,清算の結了等,,,2015-10-05,1,,,,,,0
1546,6040001077623,登記記録の閉鎖等,0,2023-02-02,2023-01-30,株式会社ＡＭＳ,,株式会社,千葉県,船橋市,高根台１丁目１番２０－８０７,,12,204,2740065,,,2023-01-30,清算の結了等,,,2015-10-05,1,,,,,アムス,0
1552,6040002088066,登記記録の閉鎖等,0,2023-02-02,2023-01-31,水郷防水有限会社,,有限会社,千葉県,香取市,神生１４７２番地,,12,236,2890408,,,2023-01-31,清算の結了等,,,2015-10-05,1,,,,,スイゴウボウスイ,0
1554,6040005004251,登記記録の閉鎖等,0,2023-02-02,2023-01-18,天理教東國分分教会,,その他の設立登記法人,山口県,熊毛郡田布施町,大字宿井７８５番地２,,35,343,7421503,,,2023-01-18,合併による解散等,8040005004241,令和５年１月１２日千葉県市川市真間二丁目１４番１０号天理教東市川分教会（8040005004241）に合併し解散,2015-10-05,1,,,,,テンリキョウヒガシコクブブンキョウカイ,0
1557,6050001013206,登記記録の閉鎖等,0,2023-02-02,2023-01-17,光運輸倉庫株式会社,,株式会社,茨城県,稲敷市,高田５６５番地,,08,229,3000511,,,2023-01-17,合併による解散等,6010001033100,令和５年１月１日東京都品川区東五反田二丁目５番４号コナンファシリティーズ株式会社（6010001033100）に合併し解散,2015-10-05,1,,,,,ヒカリウンユソウコ,0
1575,6120001174569,登記記録の閉鎖等,0,2023-02-02,2023-02-01,株式会社ファースト,,株式会社,大阪府,大阪市生野区,舎利寺２丁目１７番１２号,,27,116,5440022,,,2023-02-01,清算の結了等,,,2015-10-05,1,,,,,ファースト,0
1589,6120101001383,登記記録の閉鎖等,0,2023-02-02,2023-02-01,株式会社大阪白蟻研究所,,株式会社,大阪府,堺市西区,上野芝向ヶ丘町１丁１２番１４号,,27,144,5938303,,,2023-02-01,清算の結了等,,,2015-10-05,1,,,,,オオサカシロアリケンキュウジョ,0
1601,6130001043772,登記記録の閉鎖等,0,2023-02-02,2023-01-26,友愛サービス株式会社,,株式会社,京都府,舞鶴市,字和田浜田１０７９,,26,202,6250085,,,2023-01-26,清算の結了等,,,2015-10-05,1,,,,,ユウアイサービス,0
1604,6130002010532,登記記録の閉鎖等,0,2023-02-02,2023-01-31,有限会社内橋登製作所,,有限会社,京都府,京都市南区,西九条南田町２３番地,,26,107,6018441,,,2023-01-31,清算の結了等,,,2015-10-05,1,,,,,ウチハシノボルセイサクショ,0
1612,6180001044873,登記記録の閉鎖等,0,2023-02-02,2023-01-30,株式会社ウインズ,,株式会社,愛知県,名古屋市東区,筒井２丁目１２番４６号,,23,102,4610003,,,2023-01-30,清算の結了等,,,2015-10-05,1,,,,,ウインズ,0
1615,6180001138361,登記記録の閉鎖等,0,2023-02-02,2023-01-31,株式会社ぼだい樹,,株式会社,愛知県,小牧市,大字大草２５０３番地の３,,23,219,4850802,,,2023-01-31,清算の結了等,,,2019-10-08,1,,,,,ボダイジュ,0
1630,6230005005222,登記記録の閉鎖等,0,2023-02-02,2023-01-30,宝林寺,,その他の設立登記法人,富山県,砺波市,庄川町天正５４８番地,,16,208,9320316,,,2023-01-30,清算の結了等,,,2015-10-05,1,,,,,ホウリンジ,0
1637,6240002052976,登記記録の閉鎖等,0,2023-02-02,2023-01-31,有限会社うきしろ,,有限会社,広島県,三原市,西宮１丁目２番１９号,,34,204,7230064,,,2023-01-31,清算の結了等,,,2015-10-05,1,,,,,ウキシロ,0
1639,6250001001719,登記記録の閉鎖等,0,2023-02-02,2023-02-01,株式会社Ｌ＆Ｓ　ｃｏｍｐａｎｙ,,株式会社,広島県,呉市,安浦町中央北２丁目６番７号,,34,202,7372515,,,2023-02-01,清算の結了等,,,2015-10-05,1,,,,,エルアンドエスカンパニー,0
1657,6290001086475,登記記録の閉鎖等,0,2023-02-02,2023-01-31,株式会社よしいアセットマネジメント,,株式会社,福岡県,福岡市中央区,大名１丁目９番５２号,,40,133,8100041,,,2023-01-31,清算の結了等,,,2019-09-12,1,,,,,ヨシイアセットマネジメント,0
1673,6360002015137,登記記録の閉鎖等,0,2023-02-02,2023-01-27,有限会社丸浜興産,,有限会社,沖縄県,中頭郡北谷町,字吉原７３４番地の４,,47,326,9040105,,,2023-01-27,清算の結了等,,,2015-10-05,1,,,,,マルハマコウサン,0
1676,6370002000988,登記記録の閉鎖等,0,2023-02-02,2023-02-01,有限会社ＩＬＭＡＲＥ,,有限会社,宮城県,仙台市青葉区,中央４丁目８番１７号小林ビル１Ｆ,,04,101,9800021,,,2023-02-01,清算の結了等,,,2015-10-05,1,,,,,イルマーレ,0
1677,6380001015945,登記記録の閉鎖等,0,2023-02-02,2023-01-30,株式会社創研社,,株式会社,福島県,相馬市,初野字金谷内１７８番地,,07,209,9760051,,,2023-01-30,清算の結了等,,,2015-10-05,1,,,,,ソウケンシャ,0
1686,6430002047767,登記記録の閉鎖等,0,2023-02-02,2023-01-31,有限会社スィートプランニング,,有限会社,北海道,千歳市,信濃３丁目３１番１０号,,01,224,0660038,,,2023-01-31,合併による解散等,4430001043802,令和５年１月３１日北海道千歳市信濃三丁目３１番１０号アリ設備工業株式会社（4430001043802）に合併し解散,2015-10-05,1,,,,,スィートプランニング,0
1701,7010001041440,登記記録の閉鎖等,0,2023-02-02,2023-01-27,共同フーズ株式会社,,株式会社,東京都,中央区,築地７丁目５番１－１３０２号,,13,102,1040045,,,2023-01-27,清算の結了等,,,2015-10-05,1,,,,,キョウドウフーズ,0
1705,7010002015006,登記記録の閉鎖等,0,2023-02-02,2023-01-30,有限会社村松白衣店,,有限会社,東京都,千代田区,神田平河町２番地４,,13,101,1010027,,,2023-01-30,清算の結了等,,,2015-10-05,1,,,,,ムラマツハクイテン,0
1707,7010003026225,登記記録の閉鎖等,0,2023-02-02,2023-01-27,合同会社キューズロジ,,合同会社,東京都,中央区,日本橋１丁目４番１号日本橋一丁目ビルディング,,13,102,1030027,,,2023-01-27,清算の結了等,,,2017-10-12,1,,,,,キューズロジ,0
1729,7010901004505,登記記録の閉鎖等,0,2023-02-02,2023-01-30,三興株式会社,,株式会社,東京都,世田谷区,祖師谷５丁目１番２７号,,13,112,1570072,,,2023-01-30,清算の結了等,,,2015-10-05,1,,,,,サンコウ,0
1736,7010905000376,登記記録の閉鎖等,0,2023-02-02,2023-01-20,天理教本上馬分教会,,その他の設立登記法人,東京都,世田谷区,岡本１丁目１６番２４号,,13,112,1570076,,,2023-01-20,合併による解散等,1010905000381,令和５年１月２０日東京都世田谷区代田一丁目２６番１９号天理教本月分教會（1010905000381）に合併し解散,2015-10-05,1,,,,,テンリキョウホンカミウマブンキョウカイ,0
1739,7011001052766,登記記録の閉鎖等,0,2023-02-02,2023-02-01,株式会社アリス,,株式会社,東京都,渋谷区,神宮前６丁目２３番４号桑野ビル２階,,13,113,1500001,,,2023-02-01,清算の結了等,,,2015-10-05,1,,,,,アリス,0
1753,7011602006303,登記記録の閉鎖等,0,2023-02-02,2023-01-27,有限会社高塚建設,,有限会社,東京都,練馬区,関町南４丁目１８番２－６１２号,,13,120,1770053,,,2023-01-27,清算の結了等,,,2015-10-05,1,,,,,タカツカケンセツ,0
1758,7011801034022,登記記録の閉鎖等,0,2023-02-02,2023-01-30,株式会社児玉建設,,株式会社,東京都,足立区,花畑２丁目１番５号,,13,121,1210061,,,2023-01-30,清算の結了等,,,2017-11-01,1,,,,,コダマケンセツ,0
1766,7020001111655,登記記録の閉鎖等,0,2023-02-02,2023-01-30,ＤＲＯＮＥ．ＢＡＲ株式会社,,株式会社,神奈川県,横浜市中区,本町４丁目４１番地Ｄ’グラフォート横浜１４０３,,14,104,2310005,,,2023-01-30,清算の結了等,,,2015-10-05,1,,,,,ドローンバー,0
1783,7040001068687,登記記録の閉鎖等,0,2023-02-02,2023-01-31,株式会社ＳＧＩ,,株式会社,千葉県,柏市,宿連寺４４５番地４８,,12,217,2770826,,,2023-01-31,清算の結了等,,,2015-10-05,1,,,,,エスジーアイ,0
1788,7040002076821,登記記録の閉鎖等,0,2023-02-02,2023-01-31,有限会社関東ルーフ,,有限会社,千葉県,市原市,能満２０８６番地５７,,12,219,2900011,,,2023-01-31,清算の結了等,,,2015-10-05,1,,,,,カントウルーフ,0
1807,7090001012426,登記記録の閉鎖等,0,2023-02-02,2023-01-25,南部金融株式会社,,株式会社,山梨県,南巨摩郡南部町,南部８３２２番地,,19,366,4092212,,,2023-01-25,清算の結了等,,,2015-10-05,1,,,,,,0
1808,7100001016607,登記記録の閉鎖等,0,2023-02-02,2023-01-30,株式会社アストン,,株式会社,長野県,安曇野市,穂高柏原２２５６番地１,,20,220,3998304,,,2023-01-30,清算の結了等,,,2015-10-05,1,,,,,アストン,0
1811,7110001012407,登記記録の閉鎖等,0,2023-02-02,2023-01-31,株式会社三愛,,株式会社,新潟県,阿賀野市,岡山町５番１５号,,15,223,9592025,,,2023-01-31,清算の結了等,,,2015-10-05,1,,,,,サンアイ,0
1815,7120001003479,登記記録の閉鎖等,0,2023-02-02,2023-02-01,株式会社三條場商店,,株式会社,大阪府,大阪市西成区,花園南１丁目５番１号,,27,122,5570015,,,2023-02-01,清算の結了等,,,2015-10-05,1,,,,,サンジョウバショウテン,0
1833,7120002062037,登記記録の閉鎖等,0,2023-02-02,2023-02-01,有限会社ベストワーク,,有限会社,大阪府,大阪市東淀川区,東中島３丁目２番２２号,,27,114,5330033,,,2023-02-01,清算の結了等,,,2015-10-05,1,,,,,ベストワーク,0
1847,7130002027393,登記記録の閉鎖等,0,2023-02-02,2023-01-26,有限会社中橋,,有限会社,京都府,宇治市,木幡赤塚３２－５－１,00113225,26,204,6110002,,,2023-01-26,清算の結了等,,,2015-10-05,1,,,,,ナカハシ,0
1852,7140001087058,登記記録の閉鎖等,0,2023-02-02,2023-01-27,株式会社迫田,,株式会社,兵庫県,宝塚市,宮の町２番２号,,28,214,6650843,,,2023-01-27,清算の結了等,,,2015-10-05,1,,,,,サコダ,0
1858,7140002021511,登記記録の閉鎖等,0,2023-02-02,2023-01-27,有限会社ミオソフトウェア研究所,,有限会社,兵庫県,神戸市灘区,大内通１丁目３番１号,,28,102,6570833,,,2023-01-27,清算の結了等,,,2015-10-05,1,,,,,ミオソフトウエアケンキュウショ,0
1865,7180001101120,登記記録の閉鎖等,0,2023-02-02,2023-02-01,積和クリーン株式会社,,株式会社,愛知県,名古屋市中区,松原３丁目１３番４３号,,23,106,4600017,,,2023-02-01,合併による解散等,5180001053256,令和５年２月１日名古屋市中区松原三丁目１３番４３号積和トータルサポート株式会社（5180001053256）に合併し解散,2015-10-05,1,,,,,セキワクリーン,0
1871,7180002047081,登記記録の閉鎖等,0,2023-02-02,2023-01-30,有限会社織田建設,,有限会社,愛知県,名古屋市緑区,小坂２丁目２１１４番地の４,,23,114,4580022,,,2023-01-30,清算の結了等,,,2015-10-05,1,,,,,オダケンセツ,0
1873,7180003020715,登記記録の閉鎖等,0,2023-02-02,2023-01-17,少年スタジオ合同会社,,合同会社,愛知県,名古屋市緑区,大清水２丁目４０８番地,,23,114,4580805,,,2023-01-17,清算の結了等,,,2020-01-14,1,,,,,ショウネンスタジオ,0
1876,7180301002209,登記記録の閉鎖等,0,2023-02-02,2023-02-01,株式会社ユーテック,,株式会社,愛知県,岡崎市,藤川町字北荒古３７番地,,23,202,4443523,,,2023-02-01,合併による解散等,8180301001424,令和５年２月１日愛知県岡崎市藤川町字北荒古３２番地株式会社東海機械製作所（8180301001424）に合併し解散,2015-10-05,1,,,,,ユーテック,0
1882,7190003002737,登記記録の閉鎖等,0,2023-02-02,2023-01-30,熊野無盡合資会社,,合資会社,三重県,熊野市,木本町１７６番地１,,24,212,5194323,,,2023-01-30,清算の結了等,,,2017-07-06,1,,,,,,0
1884,7200001013494,登記記録の閉鎖等,0,2023-02-02,2023-02-01,キックス中央ビル株式会社,,株式会社,岐阜県,大垣市,郭町２丁目２５番地,,21,202,5030887,,,2023-02-01,合併による解散等,7200001014352,令和５年２月１日岐阜県大垣市郭町二丁目２５番地株式会社明星（7200001014352）に合併し解散,2015-10-05,1,,,,,キックスチュウオウビル,0
1902,7260002025995,登記記録の閉鎖等,0,2023-02-02,2023-02-01,有限会社田中電機,,有限会社,岡山県,小田郡矢掛町,矢掛３０２５番地,,33,461,7141201,,,2023-02-01,清算の結了等,,,2015-10-05,1,,,,,,0
1911,7290002039638,登記記録の閉鎖等,0,2023-02-02,2023-01-31,有限会社筑紫不動産鑑定事務所,,有限会社,福岡県,筑紫野市,二日市中央５丁目３番１６号,,40,217,8180072,,,2023-01-31,清算の結了等,,,2015-10-05,1,,,,,チクシフドウサンカンテイジムショ,0
1913,7290802019707,登記記録の閉鎖等,0,2023-02-02,2023-01-25,有限会社ヤヒロ,,有限会社,福岡県,北九州市八幡西区,力丸町１番２１－２０２号,,40,109,8070802,,,2023-01-25,清算の結了等,,,2015-10-05,1,,,,,ヤヒロ,0
1924,7340002015897,登記記録の閉鎖等,0,2023-02-02,2023-01-31,成蹊有限会社,,有限会社,鹿児島県,姶良市,加治木町新生町２１６番地,,46,225,8995223,,,2023-01-31,合併による解散等,5340001016502,令和５年１月３１日鹿児島県姶良市加治木町新生町２１６番地株式会社Ｉ＆Ｒ（5340001016502）に合併し解散,2015-10-05,1,,,,,セイケイ,0
1929,7370001031678,登記記録の閉鎖等,0,2023-02-02,2023-01-31,株式会社山二機械銅鉄商,,株式会社,宮城県,仙台市若林区,大和町２丁目１番３２号,,04,103,9840042,,,2023-01-31,清算の結了等,,,2015-10-05,1,,,,,ヤマニキカイドウテツショウ,0
1934,7380001004699,登記記録の閉鎖等,0,2023-02-02,2023-01-16,株式会社エフテイ,,株式会社,福島県,郡山市,開成５丁目４番３号,,07,203,9638851,,,2023-01-16,合併による解散等,4370001004240,令和５年１月１日仙台市宮城野区福室四丁目１８番１３号株式会社ヨコハマタイヤルック宮城（4370001004240）に合併し解散,2015-10-05,1,,,,,エフティ,0
1939,7400001001173,登記記録の閉鎖等,0,2023-02-02,2023-01-16,株式会社ドリーム,,株式会社,岩手県,滝沢市,牧野林１０５２番地６,,03,216,0200632,,,2023-01-16,合併による解散等,4370001004240,令和５年１月１日仙台市宮城野区福室四丁目１８番１３号株式会社ヨコハマタイヤルック宮城（4370001004240）に合併し解散,2015-10-05,1,,,,,ドリーム,0
1942,7400001005364,登記記録の閉鎖等,0,2023-02-02,2023-01-16,株式会社大伸タイヤ,,株式会社,岩手県,花巻市,桜町１丁目６４４番地７,,03,205,0250084,,,2023-01-16,合併による解散等,4370001004240,令和５年１月１日仙台市宮城野区福室四丁目１８番１３号株式会社ヨコハマタイヤルック宮城（4370001004240）に合併し解散,2015-10-05,1,,,,,ダイシンタイヤ,0
1952,7470001005309,登記記録の閉鎖等,0,2023-02-02,2023-02-02,マルカワホーム株式会社,,株式会社,香川県,高松市,香川町川東下３９番地５,,37,201,7611705,,,2023-02-02,清算の結了等,,,2015-10-05,1,,,,,マルカワホーム,0
1958,7480003001734,登記記録の閉鎖等,0,2023-02-02,2023-02-01,加加国際合同会社,,合同会社,徳島県,徳島市,南庄町５丁目１番地の４８,,36,201,7700045,,,2023-02-01,清算の結了等,,,2021-09-29,1,,,,,カカコクサイ,0
1978,8010001171542,登記記録の閉鎖等,0,2023-02-02,2023-01-27,泰徳デジタルサービス株式会社,00111028,株式会社,東京都,文京区,本郷３丁目３８番１号本郷信徳ビル７階,,13,105,1130033,,,2023-01-27,清算の結了等,,,2015-11-13,1,,,,,タイドクデジタルサービス,0
2010,8010902012415,登記記録の閉鎖等,0,2023-02-02,2023-01-27,有限会社比較文化研究センター,,有限会社,東京都,世田谷区,岡本１丁目３番５－２０４号,,13,112,1570076,,,2023-01-27,清算の結了等,,,2015-10-05,1,,,,,ヒカクブンカケンキュウセンター,0
2016,8011002002959,登記記録の閉鎖等,0,2023-02-02,2023-01-18,有限会社カズ,,有限会社,東京都,渋谷区,松濤１丁目１６番７号,,13,113,1500046,,,2023-01-18,清算の結了等,,,2015-10-05,1,,,,,,0
2021,8011102009482,登記記録の閉鎖等,0,2023-02-02,2023-02-01,有限会社なかや商店,,有限会社,東京都,新宿区,大久保２丁目３２番２２号,,13,104,1690072,,,2023-02-01,清算の結了等,,,2015-10-05,1,,,,,ナカヤショウテン,0
2025,8011401005884,登記記録の閉鎖等,0,2023-02-02,2023-02-01,株式会社松原工務店,,株式会社,東京都,板橋区,蓮根２丁目３１番２９－３０４号リス・ブラン・ド・中村,,13,119,1740046,,,2023-02-01,清算の結了等,,,2015-10-05,1,,,,,,0
2039,8011803003040,登記記録の閉鎖等,0,2023-02-02,2023-01-30,デジワールド株式会社,,株式会社,東京都,足立区,西伊興２丁目１番２３－２０５号,,13,121,1210824,,,2023-01-30,清算の結了等,,,2017-09-27,1,,,,,デジワールド,0
2071,8030001058647,登記記録の閉鎖等,0,2023-02-02,2023-01-30,株式会社尋,,株式会社,埼玉県,川越市,大字山田９４８番地３,,11,201,3500822,,,2023-01-30,清算の結了等,,,2015-10-05,1,,,,,ジン,0
2075,8030002038929,登記記録の閉鎖等,0,2023-02-02,2023-01-31,有限会社三幸商会,,有限会社,埼玉県,久喜市,菖蒲町菖蒲５０１３番地４１８,,11,232,3460106,,,2023-01-31,清算の結了等,,,2015-10-05,1,,,,,サンコウショウカイ,0
2092,8050001029448,登記記録の閉鎖等,0,2023-02-02,2023-01-27,関野屋商事株式会社,,株式会社,茨城県,常総市,上蛇町１５５８番地,,08,211,3002502,,,2023-01-27,清算の結了等,,,2015-10-05,1,,,,,,0
2093,8050001045362,登記記録の閉鎖等,0,2023-02-02,2023-01-27,ＳＹｃｌｅ株式会社,,株式会社,茨城県,古河市,下辺見２２３１番地１,,08,204,3060235,,,2023-01-27,清算の結了等,,,2018-12-20,1,,,,,サイクル,0
2095,8060001025504,登記記録の閉鎖等,0,2023-02-02,2023-01-31,株式会社ホシ総合メンテナンス,,株式会社,栃木県,宇都宮市,中岡本町３７７８番地９,,09,201,3291105,,,2023-01-31,清算の結了等,,,2015-10-05,1,,,,,ホシソウゴウメンテナンス,0
2099,8080002017556,登記記録の閉鎖等,0,2023-02-02,2023-01-31,三幸建設有限会社,,有限会社,静岡県,藤枝市,与左衛門１４７番地の１,,22,214,4260047,,,2023-01-31,清算の結了等,,,2015-10-05,1,,,,,サンコウケンセツ,0
2103,8100001021267,登記記録の閉鎖等,0,2023-02-02,2023-01-30,すいれい豆腐株式会社,,株式会社,長野県,上伊那郡中川村,大草６５８６番地１,,20,386,3993801,,,2023-01-30,清算の結了等,,,2015-10-05,1,,,,,スイレイドウフ,0
2104,8100002016464,登記記録の閉鎖等,0,2023-02-02,2023-01-31,有限会社丸子クリーニング,,有限会社,長野県,上田市,上丸子１６３６番地３,,20,203,3860404,,,2023-01-31,清算の結了等,,,2015-10-05,1,,,,,マルコクリーニング,0
2105,8100002024211,登記記録の閉鎖等,0,2023-02-02,2023-01-31,有限会社リバースリム,,有限会社,長野県,安曇野市,豊科南穂高４１９２番地２,,20,220,3998201,,,2023-01-31,清算の結了等,,,2015-10-05,1,,,,,リバースリム,0
2129,8120003018697,登記記録の閉鎖等,0,2023-02-02,2023-02-01,合同会社ネクスト,,合同会社,大阪府,大阪市中央区,上本町西５丁目２－２４イニジオ上六４０２号室,,27,128,5420062,,,2023-02-01,清算の結了等,,,2021-01-07,1,,,,,ネクスト,0
2141,8140005005618,登記記録の閉鎖等,0,2023-02-02,2023-01-20,熊野皇大神社,,その他の設立登記法人,兵庫県,明石市,東人丸町６番６号,,28,203,6730876,,,2023-01-20,合併による解散等,4140005005588,令和５年１月２０日兵庫県明石市大蔵本町６番１０号稲爪神社（4140005005588）に合併し解散,2015-10-05,1,,,,,クマノコウタイジンジャ,0
2171,8210001008641,登記記録の閉鎖等,0,2023-02-02,2023-01-30,株式会社クリエイトコーポレーション,,株式会社,福井県,福井市,菅谷１丁目１番５号,,18,201,9100034,,,2023-01-30,清算の結了等,,,2015-10-05,1,,,,,クリエイトコーポレーション,0
2185,8280001005129,登記記録の閉鎖等,0,2023-02-02,2023-01-31,益田クリーンテック株式会社,,株式会社,島根県,益田市,高津７丁目１２番３３号,,32,204,6980041,,,2023-01-31,清算の結了等,,,2015-10-05,1,,,,,マスダクリーンテック,0
2188,8290001055973,登記記録の閉鎖等,0,2023-02-02,2023-01-31,株式会社ウィリングハート,,株式会社,大阪府,堺市東区,北野田１０７７番地１６０６号,,27,143,5998123,,,2023-01-31,清算の結了等,,,2015-10-05,1,,,,,ウィリングハート,0
2199,8290005016996,登記記録の閉鎖等,0,2023-02-02,2023-01-31,特定非営利活動法人こが婚活サポートセンター,,その他の設立登記法人,福岡県,古賀市,天神１丁目８番３５号,,40,223,8113101,,,2023-01-31,清算の結了等,,,2018-10-04,1,,,,,コガコンカツサポートセンター,0
2217,8380001016644,登記記録の閉鎖等,0,2023-02-02,2023-02-01,日本スキサン株式会社,,株式会社,福島県,双葉郡浪江町,大字権現堂字矢沢町６７番地１,,07,547,9791521,,,2023-02-01,清算の結了等,,,2015-10-05,1,,,,,ニホンスキサン,0
2237,8470002008664,登記記録の閉鎖等,0,2023-02-02,2023-02-01,有限会社完土,,有限会社,香川県,高松市,十川東町９３８番地１,,37,201,7610434,,,2023-02-01,合併による解散等,1470002008448,令和５年２月１日香川県高松市室町１９０３番地４株式会社らく楽（1470002008448）に合併し解散,2015-10-05,1,,,,,シシド,0
2241,8500001012135,登記記録の閉鎖等,0,2023-02-02,2023-01-31,乃万不動産株式会社,,株式会社,愛媛県,今治市,矢田甲６９８番地３,,38,202,7940073,,,2023-01-31,清算の結了等,,,2015-10-05,1,,,,,ノマフドウサン,0
2254,9010001020483,登記記録の閉鎖等,0,2023-02-02,2023-01-30,スポーツアカデミー株式会社,,株式会社,東京都,千代田区,飯田橋１丁目１１番１号,,13,101,1020072,,,2023-01-30,清算の結了等,,,2015-10-05,1,,,,,スポーツアカデミー,0
2266,9010001204136,登記記録の閉鎖等,0,2023-02-02,2023-01-27,リーテックス株式会社,,株式会社,東京都,千代田区,麹町４丁目５番地２０号ＫＳビル８階,,13,101,1020083,,,2023-01-27,合併による解散等,8010001197876,令和５年１月１日東京都千代田区麹町四丁目５番地２０号ＫＳビルディング８階リーテックス株式会社（8010001197876）に合併し解散,2019-09-26,1,,,,,リーテックス,0
2268,9010003034878,登記記録の閉鎖等,0,2023-02-02,2023-01-27,白老ソーラー合同会社,,合同会社,東京都,千代田区,丸の内３丁目１番１号東京共同会計事務所内,,13,101,1000005,,,2023-01-27,清算の結了等,,,2021-05-21,1,,,,,シラオイソーラー,0
2275,9010401088047,登記記録の閉鎖等,0,2023-02-02,2023-01-20,株式会社Ｖｅｒｍｉｌｉｏｎ,,株式会社,東京都,港区,赤坂２丁目１６番６号,,13,103,1070052,,,2023-01-20,清算の結了等,,,2015-10-05,1,,,,,バーミリオン,0
2325,9012301011831,登記記録の閉鎖等,0,2023-02-02,2023-01-06,株式会社ＮＥＸＵＳ,,株式会社,東京都,町田市,小野路町２４２８番地,,13,209,1950064,,,2023-01-06,合併による解散等,3012301000237,令和５年１月１日東京都町田市小野路町２４２８番地株式会社イーグル建創（3012301000237）に合併し解散,2019-08-14,1,,,,,ネクサス,0
2333,9020001008164,登記記録の閉鎖等,0,2023-02-02,2023-01-30,横浜青果商事株式会社,,株式会社,神奈川県,横浜市戸塚区,平戸５丁目１番２４号,,14,110,2440802,,,2023-01-30,清算の結了等,,,2015-10-05,1,,,,,ヨコハマセイカショウジ,0
2348,9030001088230,登記記録の閉鎖等,0,2023-02-02,2023-01-30,株式会社Ｒｏｍａｒｉｎ,,株式会社,埼玉県,深谷市,上野台７７番地１９,,11,218,3660801,,,2023-01-30,清算の結了等,,,2015-10-05,1,,,,,ロマラン,0
2351,9030002002900,登記記録の閉鎖等,0,2023-02-02,2023-01-30,有限会社大宮菊地自動車商会,,有限会社,埼玉県,さいたま市見沼区,大字風渡野９２番地,,11,104,3370017,,,2023-01-30,清算の結了等,,,2015-10-05,1,,,,,オオミヤキクチジドウシャショウカイ,0
2365,9050002027144,登記記録の閉鎖等,0,2023-02-02,2023-01-27,有限会社こうき,,有限会社,茨城県,神栖市,矢田部６５７６番地,,08,232,3140341,,,2023-01-27,清算の結了等,,,2015-10-05,1,,,,,コウキ,0
2370,9080002017547,登記記録の閉鎖等,0,2023-02-02,2023-02-01,有限会社三和,,有限会社,静岡県,藤枝市,若王子２丁目１１番３号,,22,214,4260014,,,2023-02-01,清算の結了等,,,2015-10-05,1,,,,,サンワ,0
2412,9130002015470,登記記録の閉鎖等,0,2023-02-02,2023-02-01,有限会社アーバンクオリティー,,有限会社,京都府,京都市中京区,西ノ京北壺井町８８番地の１二条プラザ内,,26,104,6048472,,,2023-02-01,清算の結了等,,,2015-10-05,1,,,,,アーバンクオリティー,0
2438,9180002038046,登記記録の閉鎖等,0,2023-02-02,2023-01-27,有限会社平野工務店,,有限会社,愛知県,みよし市,みなよし台８０番地３９,,23,236,4700215,,,2023-01-27,清算の結了等,,,2015-10-05,1,,,,,ヒラノコウムテン,0
2443,9180302007634,登記記録の閉鎖等,0,2023-02-02,2023-01-27,有限会社エスアールエス,,有限会社,愛知県,豊橋市,冨士見町６０７番地の１,,23,201,4413126,,,2023-01-27,合併による解散等,3180301009100,令和５年１月２７日愛知県豊橋市豊栄町字東９３番地２株式会社サワダ・ジャパン（3180301009100）に合併し解散,2015-10-05,1,,,,,エスアールエス,0
2444,9190002023559,登記記録の閉鎖等,0,2023-02-02,2023-01-31,有限会社アートクリエーション,,有限会社,三重県,四日市市,日永西３丁目１１番２５号,,24,202,5100891,,,2023-01-31,清算の結了等,,,2015-10-05,1,,,,,アートクリエーション,0
2460,9230003001468,登記記録の閉鎖等,0,2023-02-02,2023-01-30,ＫＫＫ合同会社,,合同会社,富山県,南砺市,鍛治１７３－１,,16,210,9391725,,,2023-01-30,清算の結了等,,,2020-04-22,1,,,,,ケーケーケー,0
2494,9350002008493,登記記録の閉鎖等,0,2023-02-02,2023-01-31,有限会社田中電工商会,,有限会社,宮崎県,宮崎市,権現町２２番地４,,45,201,8800822,,,2023-01-31,清算の結了等,,,2015-10-05,1,,,,,タナカデンコウショウカイ,0
2505,9390001001099,登記記録の閉鎖等,0,2023-02-02,2023-02-01,第一タクシー株式会社,,株式会社,山形県,山形市,南四番町２番１８号,,06,201,9902444,,,2023-02-01,合併による解散等,5390001000716,令和５年２月１日山形市蔵王松ケ丘一丁目２番地１蔵王タクシー株式会社（5390001000716）に合併し解散,2015-10-05,1,,,,,ダイイチタクシー,0
2508,9390005000691,登記記録の閉鎖等,0,2023-02-02,2023-01-27,山形市畳企業組合,,その他の設立登記法人,山形県,山形市,南松原２丁目１番地３（Ｅ－２０２号）市営南山形アパートＥ棟,,06,201,9902312,,,2023-01-27,清算の結了等,,,2015-10-05,1,,,,,ヤマガタシタタミ,0
2509,9400001000933,登記記録の閉鎖等,0,2023-02-02,2023-01-16,株式会社タイヤセンター盛岡南,,株式会社,岩手県,盛岡市,永井１６地割１１番地１,,03,201,0200834,,,2023-01-16,合併による解散等,4370001004240,令和５年１月１日仙台市宮城野区福室四丁目１８番１３号株式会社ヨコハマタイヤルック宮城（4370001004240）に合併し解散,2015-10-05,1,,,,,タイヤセンターモリオカミナミ,0
2510,9410001000511,登記記録の閉鎖等,0,2023-02-02,2023-01-16,株式会社タイヤサービス秋田,,株式会社,秋田県,秋田市,川尻大川町９番３７号,,05,201,0100942,,,2023-01-16,合併による解散等,4370001004240,令和５年１月１日仙台市宮城野区福室四丁目１８番１３号株式会社ヨコハマタイヤルック宮城（4370001004240）に合併し解散,2015-10-05,1,,,,,タイヤサービスアキタ,0
