sequenceNumber,corporateNumber,process,correct,updateDate,changeDate,name,nameImageId,kind,prefectureName,cityName,streetNumber,addressImageId,prefectureCode,cityCode,postCode,addressOutside,addressOutsideImageId,closeDate,closeCause,successorCorporateNumber,changeCause,assignmentDate,latest,enName,enPrefectureName,enCityName,enAddressOutside,furigana,hihyoji
16,1010003043201,新規,0,2024-03-14,2024-03-14,ＪＰＥ第３号合同会社,,合同会社,東京都,千代田区,霞が関３丁目２番１号,,13,101,1000013,,,,,,,2024-03-14,1,,,,,ジェイピーイーダイサンゴウ,0
25,1010401180975,新規,0,2024-03-14,2024-03-14,株式会社ＳＨＩＮＭＡＮ,,株式会社,東京都,港区,港南２丁目１６番１号品川イーストワンタワー４階,,13,103,1080075,,,,,,,2024-03-14,1,,,,,シンマン,0
26,1010401180983,新規,0,2024-03-14,2024-03-14,レイザーテクノロジー株式会社,,株式会社,東京都,港区,赤坂２丁目８番１４－４０７号,,13,103,1070052,,,,,,,2024-03-14,1,,,,,レイザーテクノロジー,0
30,1010601064813,新規,0,2024-03-14,2024-03-14,Ｔ　ＬＥＡＤ　ＳＣＩＥＮＣＥＳ株式会社,,株式会社,東京都,江東区,潮見２丁目１０番１５－１０１０号,,13,108,1350052,,,,,,,2024-03-14,1,,,,,ティーリードサイエンシーズ,0
43,1011001160608,新規,0,2024-03-14,2024-03-14,株式会社Ａｍａｚｉａ　Ｌｉｎｋ,,株式会社,東京都,渋谷区,桜丘町１番２号,,13,113,1500031,,,,,,,2024-03-14,1,,,,,アメイジアリンク,0
50,1011101106535,新規,0,2024-03-14,2024-03-14,松本商事株式会社,,株式会社,東京都,新宿区,北新宿４丁目１９－１６ハイツ堀川１０１,,13,104,1690074,,,,,,,2024-03-14,1,,,,,マツモトショウジ,0
51,1011101106551,新規,0,2024-03-14,2024-03-14,福森薬業株式会社,,株式会社,東京都,新宿区,新宿４丁目１番２２号１００６Ｅ,,13,104,1600022,,,,,,,2024-03-14,1,,,,,フクモリヤクギョウ,0
58,1011501030442,新規,0,2024-03-14,2024-03-14,Ｋ２システム株式会社,,株式会社,東京都,北区,西ケ原２丁目８番１－３０８号,,13,117,1140024,,,,,,,2024-03-14,1,,,,,ケイツーシステム,0
62,1011601027611,新規,0,2024-03-14,2024-03-14,ＡｔｏＺ株式会社,,株式会社,東京都,練馬区,貫井３丁目２－８サカイヤビル富士見台３階,,13,120,1760021,,,,,,,2024-03-14,1,,,,,エートゥーゼット,0
68,1012701018129,新規,0,2024-03-14,2024-03-14,株式会社＿林,00134060,株式会社,東京都,東久留米市,大門町１丁目３番１９号,,13,222,2030011,,,,,,,2024-03-14,1,,,,,キリン,0
77,1020001156235,新規,0,2024-03-14,2024-03-14,株式会社ＩＣ２,,株式会社,神奈川県,横浜市西区,北幸２丁目１０番４８号むつみビル３階,,14,103,2200004,,,,,,,2024-03-14,1,,,,,アイシーツー,0
85,1021001081687,新規,0,2024-03-14,2024-03-14,湘南ＢＥＡＣＨ　ＦＯＯＤＳ株式会社,,株式会社,神奈川県,横須賀市,追浜東町２丁目３番地１ザ・パークハウス追浜Ｅ－３１０,,14,201,2370063,,,,,,,2024-03-14,1,,,,,ショウナンビーチフーズ,0
86,1021001081704,新規,0,2024-03-14,2024-03-14,株式会社タカテイクアップ,,株式会社,神奈川県,藤沢市,湘南台６丁目３４番地の９ハピネス湘南１０３,,14,205,2520804,,,,,,,2024-03-14,1,,,,,タカテイクアップ,0
98,1030003023804,新規,0,2024-03-14,2024-03-14,合同会社与野福,,合同会社,埼玉県,さいたま市浦和区,上木崎５丁目２０－２０みずほマンション１階東側,,11,107,3300071,,,,,,,2024-03-14,1,,,,,ヨノフク,0
99,1030005021582,新規,0,2024-03-14,2024-03-14,一般社団法人産承会,,その他の設立登記法人,埼玉県,さいたま市浦和区,駒場１丁目１２－１,,11,107,3300051,,,,,,,2024-03-14,1,,,,,サンショウカイ,0
113,1050001054444,新規,0,2024-03-14,2024-03-14,株式会社加藤,,株式会社,茨城県,猿島郡境町,大字内門６８９番地,,08,546,3060414,,,,,,,2024-03-14,1,,,,,カトウ,0
119,1060001036912,新規,0,2024-03-14,2024-03-14,大翔株式会社,,株式会社,栃木県,宇都宮市,鶴田町３３０５番地１,,09,201,3200851,,,,,,,2024-03-14,1,,,,,ダイショウ,0
120,1060003004958,新規,0,2024-03-14,2024-03-14,合同会社那須リッチ,,合同会社,栃木県,那須塩原市,一区町２８１番地４１３,,09,213,3292732,,,,,,,2024-03-14,1,,,,,ナスリッチ,0
122,1080401027047,新規,0,2024-03-14,2024-03-14,株式会社ホテル玄,,株式会社,静岡県,浜松市中央区,松小池町６５７番地の１,,22,138,4350008,,,,,,,2024-03-14,1,,,,,ホテルゲン,0
126,1090003002513,新規,0,2024-03-14,2024-03-14,合同会社ＴＳＣ,,合同会社,山梨県,北杜市,小淵沢町９４５番地１,,19,209,4080044,,,,,,,2024-03-14,1,,,,,ティエスシー,0
138,1120001263129,新規,0,2024-03-14,2024-03-14,金和株式会社,,株式会社,大阪府,大阪市中央区,島之内１丁目１１番２９－４０２号,,27,128,5420082,,,,,,,2024-03-14,1,,,,,キンワ,0
140,1120003026153,新規,0,2024-03-14,2024-03-14,合同会社ＡＩＰＭ,,合同会社,大阪府,大阪市北区,中崎２丁目５－８リビオレゾン梅田カサーレ１３０６号室,,27,127,5300016,,,,,,,2024-03-14,1,,,,,アイピーエム,0
142,1120901048884,新規,0,2024-03-14,2024-03-14,株式会社ＢＬＵＥ　ＬＩＯＮ,,株式会社,大阪府,摂津市,鳥飼西２丁目７番１６号,,27,224,5660072,,,,,,,2024-03-14,1,,,,,ブルーライオン,0
152,1140001133651,新規,0,2024-03-14,2024-03-14,株式会社シャイニープラス,,株式会社,兵庫県,姫路市,緑台２丁目７番地８号,,28,201,6712247,,,,,,,2024-03-14,1,,,,,シャイニープラス,0
154,1140003020278,新規,0,2024-03-14,2024-03-14,Ｍｙｓ合同会社,,合同会社,兵庫県,神戸市垂水区,千代が丘１丁目４番１５号,,28,108,6550018,,,,,,,2024-03-14,1,,,,,ミース,0
163,1190001031173,新規,0,2024-03-14,2024-03-14,株式会社喜子トレーディング,,株式会社,三重県,伊勢市,大湊町１１２５番地４７,,24,203,5160001,,,,,,,2024-03-14,1,,,,,ヨシコトレーディング,0
167,1220003003695,新規,0,2024-03-14,2024-03-14,合同会社ライデン,,合同会社,石川県,小松市,蓮代寺町ヌ１０５番地,,17,203,9230843,,,,,,,2024-03-14,1,,,,,ライデン,0
172,1240001062907,新規,0,2024-03-14,2024-03-14,株式会社恭次,,株式会社,広島県,福山市,手城町４丁目８番６１号Ａ１０２号,,34,207,7210966,,,,,,,2024-03-14,1,,,,,キョウジ,0
173,1240001062915,新規,0,2024-03-14,2024-03-14,株式会社高山製作,,株式会社,広島県,安芸郡熊野町,新宮４丁目１５番２３号,,34,307,7314211,,,,,,,2024-03-14,1,,,,,タカヤマセイサク,0
176,1260001038830,新規,0,2024-03-14,2024-03-14,株式会社オリジナル,,株式会社,岡山県,倉敷市,中島３００４番地３グラシオッソブローテ１０２号室,,33,202,7100803,,,,,,,2024-03-14,1,,,,,オリジナル,0
184,1290001105025,新規,0,2024-03-14,2024-03-14,ＭＩＡＭＩ　ＡＩＬＬＩＯ株式会社,,株式会社,福岡県,筑紫野市,二日市南４丁目２番３１－５０３号,,40,217,8180057,,,,,,,2024-03-14,1,,,,,ミアミエーリオ,0
185,1290001105041,新規,0,2024-03-14,2024-03-14,Ｎｕｇｅｎｓ株式会社,,株式会社,福岡県,福岡市西区,姪の浜２丁目１１番３号フォーラム姪浜エミネンス８０４号,,40,135,8190002,,,,,,,2024-03-14,1,,,,,ニュウジェス,0
195,1330001031852,新規,0,2024-03-14,2024-03-14,株式会社アークコーポレーション,,株式会社,熊本県,八代市,福正元町３２８－１,,43,202,8660822,,,,,,,2024-03-14,1,,,,,アークコーポレーション,0
200,1340001026356,新規,0,2024-03-14,2024-03-14,つるかめ商会株式会社,,株式会社,鹿児島県,霧島市,隼人町見次７番地１,,46,218,8995117,,,,,,,2024-03-14,1,,,,,ツルカメショウカイ,0
201,1340003004401,新規,0,2024-03-14,2024-03-14,合同会社仲村,,合同会社,鹿児島県,大島郡瀬戸内町,大字古仁屋字松江２３番地,,46,525,8941505,,,,,,,2024-03-14,1,,,,,ナカムラ,0
202,1360001033318,新規,0,2024-03-14,2024-03-14,株式会社ＲＹＵＥＩ,,株式会社,沖縄県,那覇市,若狭２丁目５番６号,,47,201,9000031,,,,,,,2024-03-14,1,,,,,リュウエイ,0
213,1430001091259,新規,0,2024-03-14,2024-03-14,株式会社結びｃｏｃｏｒｏ,,株式会社,北海道,札幌市中央区,南一条西１６丁目１番地３２３春野ビル３Ｆ,,01,101,0600061,,,,,,,2024-03-14,1,,,,,ムスビココロ,0
215,1430003015991,新規,0,2024-03-14,2024-03-14,合同会社北海道総合リサイクル,,合同会社,北海道,札幌市南区,定山渓温泉東４丁目３０６番２０,,01,106,0612302,,,,,,,2024-03-14,1,,,,,ホッカイドウソウゴウリサイクル,0
216,1430003016049,新規,0,2024-03-14,2024-03-14,合同会社ブケファロス,,合同会社,北海道,札幌市中央区,双子山３丁目２番２８号,,01,101,0640946,,,,,,,2024-03-14,1,,,,,ブケファロス,0
222,1490001010717,新規,0,2024-03-14,2024-03-14,幡東酒造株式会社,,株式会社,高知県,幡多郡黒潮町,入野１６８３番地,,39,428,7891931,,,,,,,2024-03-14,1,,,,,,0
223,1500001025507,新規,0,2024-03-14,2024-03-14,株式会社ポイント,,株式会社,愛媛県,新居浜市,星原町５番７０号,,38,205,7920825,,,,,,,2024-03-14,1,,,,,ポイント,0
224,1700150124452,新規,0,2024-03-14,2024-03-14,Ｄｏｎｇｇｕａｎ　Ｗｕｔｏｎｇ　Ｓｕｐｐｌｙ　Ｃｈａｉｎ　Ｍａｎａｇｅｍｅｎｔ　Ｃｏ．，Ｌｔｄ．,,外国会社等,,,,,,,,Ｆｅｎｇｇａｎｇ　Ｔｏｗｎ，Ｚｈｕｔａｎｇ　Ｓｈａｎｇｘｉａｗｅｉ　Ｉｎｄｕｓｔｒｉａｌ　Ｒｏａｄ　Ｎｏ．６　Ｒｏｏｍ　２０１，Ｂｕｉｌｄｉｎｇ　３　Ｄｏｎｇｇｕａｎ　Ｇｕａｎｇｄｏｎｇ　ＣＮ,,,,,,2024-03-14,1,,,,,トウカンウトンサプライチェインマネージメントカンパニーリミテッド,0
225,1700150124460,新規,0,2024-03-14,2024-03-14,ＡＤＮＡＮ　ＥＮＴＥＲＰＲＩＳＥＳ,,外国会社等,千葉県,東金市,二俣３３６番地２　オフィス２,,12,213,2830000,スリランカ民主社会主義共和国、キャンディ、アクラナ、ブルゴハテナ９３／３,,,,,,2024-03-14,1,,,,,アドナンエンタープライセス,0
232,2010005038017,新規,0,2024-03-14,2024-03-14,一般社団法人ＭＩＥＦ,,その他の設立登記法人,東京都,中央区,銀座１丁目２２番１１号銀座大竹ビジデンス２Ｆ,,13,102,1040061,,,,,,,2024-03-14,1,,,,,エムアイイーエフ,0
233,2010005038025,新規,0,2024-03-14,2024-03-14,一般社団法人化成,,その他の設立登記法人,東京都,千代田区,丸の内３丁目１番１号東京共同会計事務所内,,13,101,1000005,,,,,,,2024-03-14,1,,,,,カセイ,0
242,2010401180966,新規,0,2024-03-14,2024-03-14,Ｓｈａｒｅｌｙ株式会社,,株式会社,東京都,港区,南麻布３丁目２０番１号,,13,103,1060047,,,,,,,2024-03-14,1,,,,,シェアリー,0
243,2010401180999,新規,0,2024-03-14,2024-03-14,前田コンサルティング株式会社,,株式会社,東京都,港区,浜松町２丁目２番１５号浜松町ダイヤビル２Ｆ,,13,103,1050013,,,,,,,2024-03-14,1,,,,,マエダコンサルティング,0
244,2010401181048,新規,0,2024-03-14,2024-03-14,ＫＥＬＬＥＲ　Ｐｒｅｓｓｕｒｅ　Ｊａｐａｎ株式会社,,株式会社,東京都,港区,西新橋１丁目２番９号日比谷セントラルビル１４階,,13,103,1050003,,,,,,,2024-03-14,1,,,,,ケラープレッシャージャパン,0
249,2010503007373,新規,0,2024-03-14,2024-03-14,かえたの合同会社,,合同会社,東京都,台東区,入谷１丁目１２番８号７０１,,13,106,1100013,,,,,,,2024-03-14,1,,,,,カエタノ,0
256,2010701045695,新規,0,2024-03-14,2024-03-14,株式会社リープ,,株式会社,東京都,品川区,上大崎３丁目５番８ー１３０１号,,13,109,1410021,,,,,,,2024-03-14,1,,,,,リープ,0
264,2011001160326,新規,0,2024-03-14,2024-03-14,株式会社ＣｒｙｐｔｏＮｉｎｊａ　Ｇａｍｅｓ,,株式会社,東京都,渋谷区,渋谷２丁目１９－１５宮益坂ビルディング６０９,,13,113,1500002,,,,,,,2024-03-14,1,,,,,クリプトニンジャゲームズ,0
276,2011401025921,新規,0,2024-03-14,2024-03-14,株式会社ＮＡＧＡＮＯ　ＩＮＴＥＲＮＡＴＩＯＮＡＬ,,株式会社,東京都,板橋区,南常盤台１丁目２２－９,,13,119,1740072,,,,,,,2024-03-14,1,,,,,ナガノインタナショナル,0
278,2011501030441,新規,0,2024-03-14,2024-03-14,万服株式会社,,株式会社,東京都,荒川区,町屋３丁目１８番１２号ＮＤビル２０９,,13,118,1160001,,,,,,,2024-03-14,1,,,,,マンプク,0
300,2020001156218,新規,0,2024-03-14,2024-03-14,株式会社山勝,,株式会社,神奈川県,川崎市麻生区,はるひ野３丁目２１番１号,,14,137,2150036,,,,,,,2024-03-14,1,,,,,ヤマカツ,0
301,2020001156234,新規,0,2024-03-14,2024-03-14,株式会社ＤＯＳエステート,,株式会社,神奈川県,川崎市川崎区,砂子２丁目８番地１,,14,131,2100006,,,,,,,2024-03-14,1,,,,,ディーオーエスエステート,0
302,2020001156250,新規,0,2024-03-14,2024-03-14,株式会社山蒙,,株式会社,神奈川県,横浜市中区,本牧原２番１－８０６号,,14,104,2310821,,,,,,,2024-03-14,1,,,,,サンモー,0
307,2020003025718,新規,0,2024-03-14,2024-03-14,合同会社フォーティナイン,,合同会社,神奈川県,横浜市神奈川区,白幡上町４番２２号,,14,102,2210075,,,,,,,2024-03-14,1,,,,,フォーティナイン,0
308,2020003025726,新規,0,2024-03-14,2024-03-14,合同会社ＹＭカンパニー,,合同会社,神奈川県,川崎市川崎区,日進町１５－１０－３０４,,14,131,2100024,,,,,,,2024-03-14,1,,,,,ワイエムカンパニー,0
310,2021001081686,新規,0,2024-03-14,2024-03-14,株式会社Ｓａｇａｍｉｉ,,株式会社,神奈川県,相模原市中央区,宮下本町１丁目１０番５号,,14,152,2520211,,,,,,,2024-03-14,1,,,,,サガミィ,0
315,2030001159161,新規,0,2024-03-14,2024-03-14,株式会社モアテック,,株式会社,埼玉県,志木市,本町５丁目１７番２－８１７号,,11,228,3530004,,,,,,,2024-03-14,1,,,,,モアテック,0
316,2030001159178,新規,0,2024-03-14,2024-03-14,株式会社ＦＴＥ,,株式会社,埼玉県,川越市,大字上松原３１８番地,,11,201,3501154,,,,,,,2024-03-14,1,,,,,エフティーイー,0
317,2030001159186,新規,0,2024-03-14,2024-03-14,株式会社Ｅａｔｆｌｅｘｘｘ,,株式会社,埼玉県,三郷市,早稲田７丁目５番地２号棟３０２号,,11,237,3410018,,,,,,,2024-03-14,1,,,,,イートフレックス,0
323,2040001132613,新規,0,2024-03-14,2024-03-14,ＳＯＤ株式会社,,株式会社,千葉県,千葉市中央区,中央４丁目１４番１号千葉不動産ビル４Ｄ室,,12,101,2600013,,,,,,,2024-03-14,1,,,,,エスオーディー,0
328,2040003024528,新規,0,2024-03-14,2024-03-14,合同会社凛,,合同会社,千葉県,佐倉市,大佐倉２４１番地３,,12,212,2850041,,,,,,,2024-03-14,1,,,,,リン,0
329,2050001054410,新規,0,2024-03-14,2024-03-14,株式会社ブラックホース,,株式会社,茨城県,坂東市,借宿４８０番地３８,,08,228,3060657,,,,,,,2024-03-14,1,,,,,ブラックホース,0
330,2050001054443,新規,0,2024-03-14,2024-03-14,株式会社ユニシー,,株式会社,茨城県,結城市,大字結城８５２２－６１,,08,207,3070001,,,,,,,2024-03-14,1,,,,,ユニシー,0
337,2090001018592,新規,0,2024-03-14,2024-03-14,株式会社オリオン,,株式会社,山梨県,甲府市,国母６丁目５番１号,,19,201,4000043,,,,,,,2024-03-14,1,,,,,,0
346,2120001263128,新規,0,2024-03-14,2024-03-14,玖之盛投資管理株式会社,,株式会社,大阪府,大阪市中央区,瓦屋町２丁目１０－１４第３天偉ビル４Ｂ室,,27,128,5420066,,,,,,,2024-03-14,1,,,,,クノモリトウシカンリ,0
347,2120005024195,新規,0,2024-03-14,2024-03-14,一般社団法人手技賠償責任共済会,,その他の設立登記法人,大阪府,大阪市西区,立売堀４丁目６番９号,,27,106,5500012,,,,,,,2024-03-14,1,,,,,シュギバイショウセキニンキョウサイカイ,0
349,2120101069202,新規,0,2024-03-14,2024-03-14,株式会社ココスホーム,,株式会社,大阪府,大阪狭山市,半田６丁目１１５５番地１－２０１,,27,231,5890011,,,,,,,2024-03-14,1,,,,,ココスホーム,0
354,2130001076470,新規,0,2024-03-14,2024-03-14,亘盛株式会社,,株式会社,京都府,京都市東山区,弓矢町５０番地１・３０１室,,26,105,6050817,,,,,,,2024-03-14,1,,,,,コウセイ,0
367,2140001133659,新規,0,2024-03-14,2024-03-14,株式会社Ｅｕｒｏｍｏｄｅ　Ｊａｐａｎ,,株式会社,兵庫県,神戸市中央区,熊内橋通５丁目１番５号,,28,110,6510055,,,,,,,2024-03-14,1,,,,,ユーロモードジャパン,0
370,2180001160518,新規,0,2024-03-14,2024-03-14,株式会社Ｌｅｉｇｈｔｏｎ,,株式会社,愛知県,名古屋市中区,錦１丁目５番１１号,,23,106,4600003,,,,,,,2024-03-14,1,,,,,レイトン,0
373,2180003026477,新規,0,2024-03-14,2024-03-14,ｑｕｉｃｋ　ｒｅｓｐｏｎｓｅ合同会社,,合同会社,愛知県,半田市,青山１丁目７番地の３ベルテ２１ＭＩＵＲＡ６０２号,,23,205,4750836,,,,,,,2024-03-14,1,,,,,クイックレスポンス,0
374,2180003026485,新規,0,2024-03-14,2024-03-14,合同会社パッパラ,,合同会社,愛知県,一宮市,長島町５丁目１番地,,23,203,4910071,,,,,,,2024-03-14,1,,,,,パッパラ,0
377,2180303006030,新規,0,2024-03-14,2024-03-14,合同会社ＫＰＫ　ＴＲＡＤＩＮＧ,,合同会社,愛知県,碧南市,宮後町２丁目１７番地,,23,209,4470856,,,,,,,2024-03-14,1,,,,,ケーピーケートレーディング,0
380,2200001042250,新規,0,2024-03-14,2024-03-14,株式会社中村建築,,株式会社,岐阜県,岐阜市,下奈良３丁目１８番５－３号,,21,201,5008385,,,,,,,2024-03-14,1,,,,,ナカムラケンチク,0
390,2240001062914,新規,0,2024-03-14,2024-03-14,株式会社錦源,,株式会社,広島県,東広島市,西条町寺家７６７３番地３カメリアＣ１０３号,,34,212,7390041,,,,,,,2024-03-14,1,,,,,キンゲン,0
391,2240001062922,新規,0,2024-03-14,2024-03-14,株式会社竹生商会,,株式会社,広島県,広島市東区,温品３丁目５番２２号,,34,102,7320033,,,,,,,2024-03-14,1,,,,,チクブショウカイ,0
394,2250001020549,新規,0,2024-03-14,2024-03-14,株式会社桂ホールディングス,,株式会社,山口県,防府市,新築地町３２番地の１２,,35,206,7470824,,,,,,,2024-03-14,1,,,,,カツラホールディングス,0
397,2260003004607,新規,0,2024-03-14,2024-03-14,合同会社リプル,,合同会社,岡山県,岡山市北区,鹿田本町八丁目５０番８０１号,,33,101,7000915,,,,,,,2024-03-14,1,,,,,リプル,0
416,2360003013795,新規,0,2024-03-14,2024-03-14,農業生産法人合同会社ゴーヤーファーム,,合同会社,沖縄県,名護市,字許田４０５番地,,47,209,9050024,,,,,,,2024-03-14,1,,,,,ノウギョウセイサンホウジンゴーヤーファーム,0
422,2420003002890,新規,0,2024-03-14,2024-03-14,合同会社加福堂,,合同会社,青森県,弘前市,大字常盤坂２丁目７番地５,,02,202,0368263,,,,,,,2024-03-14,1,,,,,カフクドウ,0
429,2430003016056,新規,0,2024-03-14,2024-03-14,合同会社ｃｏｌｏｒ,,合同会社,北海道,室蘭市,八丁平５丁目３０番１６８号,,01,205,0500061,,,,,,,2024-03-14,1,,,,,カラー,0
440,2500001025506,新規,0,2024-03-14,2024-03-14,株式会社森工業,,株式会社,愛媛県,新居浜市,土橋２丁目１０番１６号,,38,205,7920043,,,,,,,2024-03-14,1,,,,,モリコウギョウ,0
441,2700150124451,新規,0,2024-03-14,2024-03-14,Ｄｏｎｇｇｕａｎ　Ｐｉ　Ｆｏ　Ｋｅ　Ｅｌｅｃｔｒｏｎｉｃｓ　Ｃｏ．，Ｌｔｄ,,外国会社等,,,,,,,,Ｒｏｏｍ　６０３，Ｂｕｉｌｄｉｎｇ　１，Ｎｏ．２９，Ｄａｌａｎｇ　Ｓｈｕｉ　Ｎｅｗ　Ｒｏａｄ，Ｄａｌａｎｇ　Ｔｏｗｎ，Ｄｏｎｇｇｕａｎ　Ｃｉｔｙ，Ｇｕａｎｇｄｏｎｇ　Ｐｒｏｖｉｎｃｅ,,,,,,2024-03-14,1,,,,,トウカンピフォカイレクトゥロニクスカンパニーリミテッド,0
454,3010003043190,新規,0,2024-03-14,2024-03-14,合同会社ＪＺ,,合同会社,東京都,中央区,銀座４丁目１３番８号,,13,102,1040061,,,,,,,2024-03-14,1,,,,,ジェイゼット,0
456,3010005038032,新規,0,2024-03-14,2024-03-14,一般社団法人自然エネルギーＳＩＰＰ１４,,その他の設立登記法人,東京都,中央区,日本橋本町２丁目４番７号,,13,102,1030023,,,,,,,2024-03-14,1,,,,,シゼンエネルギーエスアイピーピージュウヨン,0
463,3010401180973,新規,0,2024-03-14,2024-03-14,Ｎａｎｏｉｎｓｕｒｅテクノロジー日本株式会社,,株式会社,東京都,港区,北青山３丁目６番７号青山パラシオタワー１１階,,13,103,1070061,,,,,,,2024-03-14,1,,,,,ナノインシュアテクノロジーニホン,0
464,3010401180998,新規,0,2024-03-14,2024-03-14,タイキノ株式会社,,株式会社,東京都,港区,南青山２丁目２番１５号ウィン青山１２１２,,13,103,1070062,,,,,,,2024-03-14,1,,,,,タイキノ,0
465,3010401181006,新規,0,2024-03-14,2024-03-14,株式会社Ｖａｒｓ,,株式会社,東京都,港区,南青山４丁目２４番８号アットホームスクエア３階,,13,103,1070062,,,,,,,2024-03-14,1,,,,,バース,0
471,3010403032149,新規,0,2024-03-14,2024-03-14,合同会社きずなグループ丸,,合同会社,東京都,港区,新橋４丁目１９－４,,13,103,1050004,,,,,,,2024-03-14,1,,,,,キズナグループマル,0
472,3010403032157,新規,0,2024-03-14,2024-03-14,合同会社ＴＩＥＮＯＷＡ　ＷＯＲＫＳ,,合同会社,東京都,港区,南青山３丁目１番３６号青山丸竹ビル６Ｆ,,13,103,1070062,,,,,,,2024-03-14,1,,,,,チエノワワークス,0
479,3010601064811,新規,0,2024-03-14,2024-03-14,株式会社ＫＡＩＳＥＩ,,株式会社,東京都,江東区,大島１丁目１４番１０号プランドール峰１０２,,13,108,1360072,,,,,,,2024-03-14,1,,,,,カイセイ,0
487,3010903008879,新規,0,2024-03-14,2024-03-14,合同会社ｉｍｂｌｅ,,合同会社,東京都,世田谷区,上馬１丁目１２番１号,,13,112,1540011,,,,,,,2024-03-14,1,,,,,インブル,0
496,3011001160366,新規,0,2024-03-14,2024-03-14,株式会社ＬｉｎｋＵｐ,,株式会社,東京都,渋谷区,東１丁目２７番１０号東海ビル６Ｆ,,13,113,1500011,,,,,,,2024-03-14,1,,,,,リンクアップ,0
497,3011001160589,新規,0,2024-03-14,2024-03-14,ＳＳＳ株式会社,,株式会社,東京都,渋谷区,宇田川町４番７号トウセン宇田川町ビル６Ｆ,,13,113,1500042,,,,,,,2024-03-14,1,,,,,エスエスエス,0
498,3011003018488,新規,0,2024-03-14,2024-03-14,Ｎａｎｏ　Ｍａｒｋｅｔｉｎｇ合同会社,,合同会社,東京都,渋谷区,恵比寿１丁目１５－９日宝恵比寿ビル１ストップビジネスセンター恵比寿店,,13,113,1500013,,,,,,,2024-03-14,1,,,,,ナノマーケティング,0
499,3011003018678,新規,0,2024-03-14,2024-03-14,合同会社ＹＣＲＪ,,合同会社,東京都,渋谷区,神宮前２丁目２番３９－１８０９号ＴＨＥＣＯＵＲＴ神宮外苑,,13,113,1500001,,,,,,,2024-03-14,1,,,,,ユチルジ,0
500,3011005010419,新規,0,2024-03-14,2024-03-14,医療法人社団スマイルアーキテクツ,,その他の設立登記法人,東京都,渋谷区,宇田川町３３番１号グランド東京渋谷ビル７階,,13,113,1500042,,,,,,,2024-03-14,1,,,,,スマイルアーキテクツ,0
507,3011501030416,新規,0,2024-03-14,2024-03-14,日本睦亜株式会社,,株式会社,東京都,荒川区,東尾久２丁目２番９号三祥ビル２１８,,13,118,1160012,,,,,,,2024-03-14,1,,,,,ニホンムツア,0
509,3011703003772,新規,0,2024-03-14,2024-03-14,バラカジャパン合同会社,,合同会社,東京都,江戸川区,中葛西５丁目２０番９号ＳＵＮＧＩＯＩＡＮｏｒｔｈ１０１,,13,123,1340083,,,,,,,2024-03-14,1,,,,,バラカジャパン,0
513,3012401041619,新規,0,2024-03-14,2024-03-14,Ｍｏｒｅ株式会社,,株式会社,東京都,三鷹市,下連雀３丁目１６番１７－３０３号,,13,204,1810013,,,,,,,2024-03-14,1,,,,,モア,0
514,3012701018135,新規,0,2024-03-14,2024-03-14,株式会社Ａ‐ｎｏｔｅ,,株式会社,東京都,東久留米市,新川町１丁目１５番１８号,,13,222,2030013,,,,,,,2024-03-14,1,,,,,エーノート,0
518,3013303007047,新規,0,2024-03-14,2024-03-14,源治合同会社,,合同会社,東京都,豊島区,西池袋１丁目２９番１４号オリエント池袋７０６号,,13,116,1710021,,,,,,,2024-03-14,1,,,,,ゲンジ,0
519,3013305003580,新規,0,2024-03-14,2024-03-14,一般社団法人サポート・ハブ,,その他の設立登記法人,東京都,豊島区,北大塚１丁目１１番５号２階,,13,116,1700004,,,,,,,2024-03-14,1,,,,,サポートハブ,0
528,3020001156167,新規,0,2024-03-14,2024-03-14,デザインアップ株式会社,,株式会社,神奈川県,横浜市都筑区,長坂１－４１－２０７,,14,118,2240063,,,,,,,2024-03-14,1,,,,,デザインアップ,0
535,3020003025717,新規,0,2024-03-14,2024-03-14,クオン合同会社,,合同会社,神奈川県,横浜市神奈川区,金港町５－１４クアドリフォリオ８階,,14,102,2210056,,,,,,,2024-03-14,1,,,,,クオン,0
540,3021005013040,新規,0,2024-03-14,2024-03-14,一般社団法人ＳＥＡＧＵＬＬＳ　ＢＡＳＫＥＴＢＡＬＬ　ＣＬＵＢ,,その他の設立登記法人,神奈川県,平塚市,北金目４丁目１番１号東海大学小山孟志研究室内,,14,203,2591207,,,,,,,2024-03-14,1,,,,,シーガルスバスケットボールクラブ,0
547,3030001159144,新規,0,2024-03-14,2024-03-14,株式会社榮不動産,,株式会社,埼玉県,さいたま市桜区,西堀６丁目１４番７号,,11,106,3380832,,,,,,,2024-03-14,1,,,,,サカエフドウサン,0
549,3030003023785,新規,0,2024-03-14,2024-03-14,合同会社ＭＨエデュケーション,,合同会社,埼玉県,川越市,大字藤間９２０番地１７,,11,201,3501142,,,,,,,2024-03-14,1,,,,,エムエイチエデュケーション,0
558,3060001036910,新規,0,2024-03-14,2024-03-14,株式会社植竹,,株式会社,栃木県,大田原市,湯津上２５６番地,,09,210,3240403,,,,,,,2024-03-14,1,,,,,ウエタケ,0
560,3080001026174,新規,0,2024-03-14,2024-03-14,株式会社トキワ,,株式会社,静岡県,静岡市葵区,音羽町３番１８号,,22,101,4200834,,,,,,,2024-03-14,1,,,,,トキワ,0
564,3110001038240,新規,0,2024-03-14,2024-03-14,株式会社Ｆｅスタイル,,株式会社,新潟県,新潟市東区,大形本町４丁目３番１号,,15,102,9500813,,,,,,,2024-03-14,1,,,,,エフイースタイル,0
580,3120001262987,新規,0,2024-03-14,2024-03-14,大州商事株式会社,,株式会社,大阪府,大阪市中央区,淡路町１丁目３番７号キタデビル３０５号室,,27,128,5410047,,,,,,,2024-03-14,1,,,,,ダイシュウショウジ,0
581,3120001263093,新規,0,2024-03-14,2024-03-14,海正株式会社,,株式会社,大阪府,大阪市住吉区,苅田２丁目５番２６号１階,,27,120,5580011,,,,,,,2024-03-14,1,,,,,カイセイ,0
582,3120001263102,新規,0,2024-03-14,2024-03-14,ＴＣ　Ｃａｒｅｅｒ株式会社,,株式会社,大阪府,大阪市福島区,福島５丁目６番１６号ラグザ大阪２Ｆ,,27,103,5530003,,,,,,,2024-03-14,1,,,,,ティーシーキャリア,0
583,3120001263119,新規,0,2024-03-14,2024-03-14,株式会社アサヒファースト,,株式会社,大阪府,大阪市淀川区,木川西１丁目６番２５号,,27,123,5320013,,,,,,,2024-03-14,1,,,,,アサヒファースト,0
588,3120101069184,新規,0,2024-03-14,2024-03-14,株式会社アネスハート,,株式会社,大阪府,貝塚市,石才７６番地３,,27,208,5970082,,,,,,,2024-03-14,1,,,,,アネスハート,0
589,3120101069201,新規,0,2024-03-14,2024-03-14,株式会社エムズコーポレーション,,株式会社,大阪府,堺市西区,浜寺諏訪森町中２丁１６９番地１４,,27,144,5928348,,,,,,,2024-03-14,1,,,,,エムズコーポレーション,0
591,3120903005080,新規,0,2024-03-14,2024-03-14,合同会社一７,,合同会社,大阪府,高槻市,西町４１番３０号,,27,207,5690854,,,,,,,2024-03-14,1,,,,,イイナ,0
597,3130001076560,新規,0,2024-03-14,2024-03-14,株式会社ふふ,,株式会社,京都府,京都市下京区,朱雀宝蔵町９９,,26,106,6008846,,,,,,,2024-03-14,1,,,,,フフ,0
612,3140001133658,新規,0,2024-03-14,2024-03-14,株式会社友加里,,株式会社,兵庫県,尼崎市,神崎町２６番１０号,,28,202,6610964,,,,,,,2024-03-14,1,,,,,ユカリ,0
619,3180001160517,新規,0,2024-03-14,2024-03-14,株式会社ＪＯＢサービス,,株式会社,愛知県,名古屋市中村区,名駅５丁目３１番４号,,23,105,4500002,,,,,,,2024-03-14,1,,,,,ジョブサービス,0
620,3180001160541,新規,0,2024-03-14,2024-03-14,株式会社ネッスルジャパン,,株式会社,愛知県,名古屋市東区,泉１丁目７番２８号グランドール泉１１０２号,,23,102,4610001,,,,,,,2024-03-14,1,,,,,ネッスルジャパン,0
628,3230003002166,新規,0,2024-03-14,2024-03-14,合同会社９０８８,,合同会社,富山県,富山市,上冨居２丁目２３番１２号,,16,201,9300835,,,,,,,2024-03-14,1,,,,,キュウゼロハチハチ,0
629,3240001062921,新規,0,2024-03-14,2024-03-14,株式会社星野建設,,株式会社,広島県,広島市東区,福田４丁目２０４４番地１,,34,102,7320029,,,,,,,2024-03-14,1,,,,,ホシノケンセツ,0
635,3290001105031,新規,0,2024-03-14,2024-03-14,株式会社心尽リアルエステート,,株式会社,福岡県,福岡市博多区,上川端町１１番８号,,40,132,8120026,,,,,,,2024-03-14,1,,,,,シンジンリアルエステート,0
636,3290005019310,新規,0,2024-03-14,2024-03-14,一般社団法人まるごとスタイル,,その他の設立登記法人,福岡県,みやま市,高田町濃施６４５番地,,40,229,8390215,,,,,,,2024-03-14,1,,,,,マルゴトスタイル,0
641,3310001018899,新規,0,2024-03-14,2024-03-14,株式会社ＴＯＹＯＳＨＩＭＡ,,株式会社,長崎県,佐世保市,山県町１番３号大川ビル２階,,42,202,8570878,,,,,,,2024-03-14,1,,,,,トヨシマ,0
642,3320001020342,新規,0,2024-03-14,2024-03-14,トーキューテクノス株式会社,,株式会社,大分県,大分市,三佐２丁目２番１号,,44,201,8700108,,,,,,,2024-03-14,1,,,,,トーキューテクノス,0
656,3400601000652,新規,0,2024-03-14,2024-03-14,日建ハウス株式会社,,株式会社,岩手県,奥州市,水沢字斉の神１２１番地,,03,215,0230805,,,,,,,2024-03-14,1,,,,,ニッケンハウス,0
660,3430005014916,新規,0,2024-03-14,2024-03-14,特定非営利活動法人にしのさぽーと,,その他の設立登記法人,北海道,北広島市,西の里東１丁目４番地２３,,01,234,0611105,,,,,,,2024-03-14,1,,,,,ニシノサポート,0
674,3700150124450,新規,0,2024-03-14,2024-03-14,ｓｈｅｎｚｈｅｎｓｈｉｓｈｕｏｌａｉｍａｏｙｉｙｏｕｘｉａｎｚｅｒｅｎｇｏｎｇｓｉ,,外国会社等,,,,,,,,Ｇｕａｎｌｏｎｇ　Ｖｉｌ．Ｘｉｎｗｅｉ　ＣｏｍｍｕｎｉｔｙＸｉＬｉ　Ｓｔ．，Ｎａｎｓｈａｎ　Ｄｉｓｔ．，１３１，Ｂｕｉｌｄｉｎｇ　Ｆ，Ｊｉｎｇｕ　Ｔｏｗｎ　Ａｐａｒｔｍｅｎｔ，Ｆａｃｔｏｒｙ　Ｂｕｉｌｄｉｎｇ　Ａ，Ｎｏ．１　Ｉｎｄｕｓｔｒｉａｌ　Ｚｏｎｅ　Ｓｈｅｎｚｈｅｎ　Ｇｕａｎｇｄｏｎｇ,,,,,,2024-03-14,1,,,,,シンセンシソウライマオイユウゲンコウシ,0
675,3700150124467,新規,0,2024-03-14,2024-03-14,Ｓｉｎｃｅｃａｍ　Ｔｅｃｈｎｏｌｏｇｙ　Ｃｏ．，Ｌｔｄ,,外国会社等,,,,,,,,Ｒｏｏｍ　０３，１３／Ｆ，Ｎｅｗ　Ｔｅｒｒｉｔｏｒｙ　Ｐｌａｚａ，１－１７　Ｓａｉ　Ｌｏｕ　Ｋｏｋ　Ｒｏａｄ，Ｔｓｕｅｎ　Ｗａｎ，Ｈｏｎｇ　Ｋｏｎｇ,,,,,,2024-03-14,1,,,,,シャンチーターコージーヨウシエンゴンスー,0
680,4010001242660,新規,0,2024-03-14,2024-03-14,株式会社ＫＡＳＡＳＡＧＩＤＯ,,株式会社,東京都,中央区,日本橋室町１丁目１１－６宝来ビル２Ｆ,,13,102,1030022,,,,,,,2024-03-14,1,,,,,カササギドウ,0
681,4010001242917,新規,0,2024-03-14,2024-03-14,キラリオン株式会社,,株式会社,東京都,中央区,銀座１丁目１２－４Ｎ＆Ｅ・ＢＬＤ．７階,,13,102,1040061,,,,,,,2024-03-14,1,,,,,キラリオン,0
689,4010005038031,新規,0,2024-03-14,2024-03-14,一般社団法人自然エネルギーＳＩＰＰ１３,,その他の設立登記法人,東京都,中央区,日本橋本町２丁目４番７号,,13,102,1030023,,,,,,,2024-03-14,1,,,,,シゼンエネルギーエスアイピーピージュウサン,0
695,4010401180948,新規,0,2024-03-14,2024-03-14,ＹＥＮ　ＬＯＡＮＳ株式会社,,株式会社,東京都,港区,赤坂１丁目１２番３２号アーク森ビル３１階,,13,103,1070052,,,,,,,2024-03-14,1,,,,,エンローンズ,0
698,4010403032156,新規,0,2024-03-14,2024-03-14,合同会社オペレーター,,合同会社,東京都,港区,北青山１丁目３番１号アールキューブ青山３階,,13,103,1070061,,,,,,,2024-03-14,1,,,,,オペレーター,0
699,4010403032164,新規,0,2024-03-14,2024-03-14,合同会社オリーブキャピタル,,合同会社,東京都,港区,六本木６丁目１０番１号六本木ヒルズ森タワー,,13,103,1060032,,,,,,,2024-03-14,1,,,,,オリーブキャピタル,0
706,4010801034852,新規,0,2024-03-14,2024-03-14,製通テック株式会社,,株式会社,東京都,大田区,大森南３丁目２５番３グランイーグル大森南３の３０３室,,13,111,1430013,,,,,,,2024-03-14,1,,,,,セイツウテック,0
707,4010803004878,新規,0,2024-03-14,2024-03-14,合同会社ＳＯＲＩＳＯ,,合同会社,東京都,大田区,北千束２丁目２９－３,,13,111,1450062,,,,,,,2024-03-14,1,,,,,ソリーゾ,0
713,4011001160365,新規,0,2024-03-14,2024-03-14,株式会社ＩＺＵＭＩ,,株式会社,東京都,渋谷区,東１丁目２７番１０号東海ビル６Ｆ,,13,113,1500011,,,,,,,2024-03-14,1,,,,,イズミ,0
714,4011001160605,新規,0,2024-03-14,2024-03-14,株式会社ａｇｅｎｔ　ｅｌｆ,,株式会社,東京都,渋谷区,円山町５番５号Ｎａｖｉ渋谷Ｖ３階,,13,113,1500044,,,,,,,2024-03-14,1,,,,,エージェントエルフ,0
716,4011003018586,新規,0,2024-03-14,2024-03-14,Ｈａｃｏｚｙ合同会社,,合同会社,東京都,渋谷区,道玄坂１丁目１０番８号渋谷道玄坂東急ビル２Ｆ－Ｃ,,13,113,1500043,,,,,,,2024-03-14,1,,,,,ハコージー,0
717,4011003018685,新規,0,2024-03-14,2024-03-14,合同会社ＹＵＭＡコーポレーション,,合同会社,東京都,目黒区,五本木１丁目２２番１２号,,13,110,1530053,,,,,,,2024-03-14,1,,,,,ユウマコーポレーション,0
725,4011705001823,新規,0,2024-03-14,2024-03-14,一般社団法人ＡＬＩＶＥ,,その他の設立登記法人,東京都,江戸川区,船堀１丁目４番１３号２階,,13,123,1340091,,,,,,,2024-03-14,1,,,,,アライブ,0
729,4012401041626,新規,0,2024-03-14,2024-03-14,株式会社百舌鳥,,株式会社,東京都,小金井市,桜町１丁目４番１９号,,13,210,1840005,,,,,,,2024-03-14,1,,,,,モズ,0
739,4020001156224,新規,0,2024-03-14,2024-03-14,株式会社磊彩,,株式会社,神奈川県,横浜市港南区,日限山１丁目５７番２０号,,14,111,2330015,,,,,,,2024-03-14,1,,,,,ライサイ,0
749,4030001159135,新規,0,2024-03-14,2024-03-14,株式会社フロンティアハウス,,株式会社,埼玉県,川口市,元郷１丁目１番３０－１３１４号ビー・サイト,,11,203,3320011,,,,,,,2024-03-14,1,,,,,フロンティアハウス,0
754,4040001132636,新規,0,2024-03-14,2024-03-14,株式会社ＴＭＳＩ　Ｐａｒｔｎｅｒｓ,,株式会社,千葉県,柏市,若柴２２７番地６柏の葉キャンパス１４７街区Ｃ－２００６号,,12,217,2770871,,,,,,,2024-03-14,1,,,,,ティーエムエスアイパートナーズ,0
755,4040003024518,新規,0,2024-03-14,2024-03-14,ＳＲ　Ｍｏｔｏｒｓ合同会社,,合同会社,千葉県,山武郡芝山町,山中１３２４番地７,,12,409,2891618,,,,,,,2024-03-14,1,,,,,エスアールモータース,0
758,4050003008172,新規,0,2024-03-14,2024-03-14,合同会社オライオス,,合同会社,茨城県,牛久市,栄町３丁目６１番地１,,08,219,3001233,,,,,,,2024-03-14,1,,,,,オライオス,0
760,4070001041487,新規,0,2024-03-14,2024-03-14,株式会社藏,,株式会社,群馬県,吾妻郡草津町,大字草津１７６,,10,426,3771711,,,,,,,2024-03-14,1,,,,,,0
770,4110003005320,新規,0,2024-03-14,2024-03-14,合同会社ＫＩＮＤＣＯＲＥ,,合同会社,新潟県,三条市,北入蔵２丁目４－４５－４,,15,204,9550053,,,,,,,2024-03-14,1,,,,,カインドコア,0
778,4120001263027,新規,0,2024-03-14,2024-03-14,元楽株式会社,,株式会社,大阪府,大阪市大正区,三軒屋西一丁目２３番１３号大正プロジェクト６０１号室,,27,108,5510000,,,,,,,2024-03-14,1,,,,,ゲンラク,0
779,4120001263068,新規,0,2024-03-14,2024-03-14,一誠商事株式会社,,株式会社,大阪府,大阪市淀川区,東三国２丁目１０番３－５０６号,,27,123,5320002,,,,,,,2024-03-14,1,,,,,イッセイショウジ,0
780,4120001263118,新規,0,2024-03-14,2024-03-14,株式会社金龍座,,株式会社,大阪府,大阪市中央区,今橋４丁目３番６号,,27,128,5410042,,,,,,,2024-03-14,1,,,,,キンリュウザ,0
781,4120001263126,新規,0,2024-03-14,2024-03-14,盈順株式会社,,株式会社,大阪府,大阪市西成区,天下茶屋１丁目２８番３７－５０４号,,27,122,5570014,,,,,,,2024-03-14,1,,,,,エイジュン,0
782,4120001263142,新規,0,2024-03-14,2024-03-14,ヴォルテックスジャパン株式会社,,株式会社,大阪府,大阪市城東区,成育３丁目１４番１３号,,27,118,5360007,,,,,,,2024-03-14,1,,,,,ヴォルテックスジャパン,0
783,4120001263150,新規,0,2024-03-14,2024-03-14,なごみ貿易株式会社,,株式会社,大阪府,大阪市中央区,安土町１丁目５番９号ゼニヤベストビル２Ｆ－Ｃ,,27,128,5410052,,,,,,,2024-03-14,1,,,,,ナゴミボウエキ,0
794,4120901048881,新規,0,2024-03-14,2024-03-14,株式会社山辺板金工作所,,株式会社,大阪府,摂津市,千里丘東１丁目１番２６号,,27,224,5660011,,,,,,,2024-03-14,1,,,,,ヤマベバンキンコウサクショ,0
808,4130003009369,新規,0,2024-03-14,2024-03-14,合同会社Ｋ２,,合同会社,京都府,京都市中京区,河原町通三条下る二丁目山崎町２３６番地３六角ミュージアム１階,,26,104,6040000,,,,,,,2024-03-14,1,,,,,ケーツー,0
819,4180001160499,新規,0,2024-03-14,2024-03-14,株式会社ＡＳＵＯＮＥ,,株式会社,愛知県,春日井市,東山町２３４５番地１３３９,,23,206,4860811,,,,,,,2024-03-14,1,,,,,アスワン,0
823,4180301038412,新規,0,2024-03-14,2024-03-14,株式会社ねむりや,,株式会社,愛知県,碧南市,霞浦町４丁目２６,,23,209,4470881,,,,,,,2024-03-14,1,,,,,ネムリヤ,0
825,4240001062920,新規,0,2024-03-14,2024-03-14,株式会社バラパン,,株式会社,広島県,広島市中区,宝町４番３０号,,34,101,7300044,,,,,,,2024-03-14,1,,,,,バラパン,0
828,4250005008902,新規,0,2024-03-14,2024-03-14,医療法人桜香会,,その他の設立登記法人,山口県,周南市,大神４丁目１０番３号,,35,215,7460018,,,,,,,2024-03-14,1,,,,,サクラカオルカイ,0
834,4290001105022,新規,0,2024-03-14,2024-03-14,株式会社Ｄｏｌｐｈｉｎ,,株式会社,福岡県,福岡市早良区,荒江２丁目６番８－１０３号,,40,137,8140021,,,,,,,2024-03-14,1,,,,,ドルフィン,0
837,4290005019318,新規,0,2024-03-14,2024-03-14,一般社団法人ＢＵＮＫＡ,,その他の設立登記法人,福岡県,春日市,春日原東町２丁目８番地１,,40,218,8160801,,,,,,,2024-03-14,1,,,,,ブンカ,0
845,4340001026361,新規,0,2024-03-14,2024-03-14,株式会社カミチクファクトリー,,株式会社,鹿児島県,鹿児島市,谷山中央１丁目４３８９番地,,46,201,8910141,,,,,,,2024-03-14,1,,,,,カミチクファクトリー,0
848,4360003013793,新規,0,2024-03-14,2024-03-14,合同会社モトキ,,合同会社,沖縄県,那覇市,辻２丁目２１番１７－３０３号,00134059,47,201,9000037,,,,,,,2024-03-14,1,,,,,モトキ,0
861,4430001091289,新規,0,2024-03-14,2024-03-14,株式会社ＬＩＢＥＲＡＬ,,株式会社,北海道,札幌市白石区,東米里２１６０－１５９,,01,104,0030876,,,,,,,2024-03-14,1,,,,,リベラル,0
866,4430003016046,新規,0,2024-03-14,2024-03-14,合同会社トーシン,,合同会社,北海道,札幌市豊平区,平岸四条９丁目２番２６号Ｔ＆Ａ平岸３０１号,,01,105,0620934,,,,,,,2024-03-14,1,,,,,トーシン,0
867,4430005014915,新規,0,2024-03-14,2024-03-14,おまかせ相続一般社団法人積水会,,その他の設立登記法人,北海道,札幌市中央区,北一条西１９丁目１番地４北一条ビル４階,,01,101,0600001,,,,,,,2024-03-14,1,,,,,オマカセソウゾクセキスイカイ,0
869,4460103001597,新規,0,2024-03-14,2024-03-14,合同会社ライト,,合同会社,北海道,河東郡音更町,木野大通東１３丁目１番地４０タネットＮ館３０３号,,01,631,0800111,,,,,,,2024-03-14,1,,,,,ライト,0
870,4480003002108,新規,0,2024-03-14,2024-03-14,合同会社宅衛門,,合同会社,徳島県,徳島市,川内町平石若宮１３番地の２,,36,201,7710137,,,,,,,2024-03-14,1,,,,,タクエモン,0
876,4700150114954,新規,0,2024-03-14,2023-03-27,シティコーポ呼続管理組合,,その他,愛知県,名古屋市南区,呼続２丁目７－３３,,23,112,4570014,,,,,,,2023-03-27,1,,,,,シテイコーポヨビツギカンリクミアイ,0
877,4700150124466,新規,0,2024-03-14,2024-03-14,Ｙｉｍｉｎｇｙｉｚｈｉｋｅｊｉ（ｓｈｅｎｚｈｅｎ）ｙｏｕｘｉａｎｇｏｎｇｓｉ,,外国会社等,,,,,,,,Ｌｏｎｇｐｉｎｇｓｈｅｑｕｍａｎｈａｉｎｉｎｇｎａｎｑｕ３ｄｏｎｇ２６Ｄ，Ｌｏｎｇｈｕａｑｕｄａｌａｎｇｊｉｅｄａｏ，Ｓｈｅｎｚｈｅｎ，Ｇｕａｎｇｄｏｎｇ，Ｃｈｉｎａ,,,,,,2024-03-14,1,,,,,イーミンイージーコージーシェンジェンヨウシエンゴンスー,0
889,5010005038039,新規,0,2024-03-14,2024-03-14,一般社団法人ＩＲＳ４,,その他の設立登記法人,東京都,千代田区,丸の内３丁目１番１号東京共同会計事務所内,,13,101,1000005,,,,,,,2024-03-14,1,,,,,アイアールエスフォー,0
896,5010401180996,新規,0,2024-03-14,2024-03-14,株式会社ＪＣＦトランスポート,,株式会社,東京都,港区,芝大門１丁目１０番１１号,,13,103,1050012,,,,,,,2024-03-14,1,,,,,ジェイシーエフトランスポート,0
897,5010401181020,新規,0,2024-03-14,2024-03-14,ＢＥＳＴ　ＬＩＮＫ　ＴＯＫＹＯ株式会社,,株式会社,東京都,港区,芝３丁目６番９号,,13,103,1050014,,,,,,,2024-03-14,1,,,,,ベストリンクトウキョウ,0
898,5010403032155,新規,0,2024-03-14,2024-03-14,Ｔｒｕｅ　Ｎｕｔｒｉｔｉｏｎ　Ｊａｐａｎ合同会社,,合同会社,東京都,港区,南麻布４丁目１２番２５号南麻布セントレ２階,,13,103,1060047,,,,,,,2024-03-14,1,,,,,トゥルーニュートリションジャパン,0
901,5010601064801,新規,0,2024-03-14,2024-03-14,縱享時光株式会社ＥＪＨ,,株式会社,東京都,墨田区,江東橋２丁目１０番７号ＬＥＥビル,,13,107,1300022,,,,,,,2024-03-14,1,,,,,ジュウキョウジコウイージェイエイチ,0
906,5010901054865,新規,0,2024-03-14,2024-03-14,株式会社シューゲイズ,,株式会社,東京都,世田谷区,太子堂４丁目７－１１－１Ｆ,,13,112,1540004,,,,,,,2024-03-14,1,,,,,シューゲイズ,0
911,5011001160430,新規,0,2024-03-14,2024-03-14,株式会社スマートロック,,株式会社,東京都,渋谷区,代々木２丁目２４番７号レガリアヒルズ代々木３０２,,13,113,1510053,,,,,,,2024-03-14,1,,,,,スマートロック,0
912,5011001160579,新規,0,2024-03-14,2024-03-14,株式会社ヒカリヘ,,株式会社,東京都,渋谷区,恵比寿西２丁目８番４号ＥＸ恵比寿西ビル５階,,13,113,1500021,,,,,,,2024-03-14,1,,,,,ヒカリヘ,0
914,5011003018668,新規,0,2024-03-14,2024-03-14,ＭＡＧＩＣ合同会社,,合同会社,東京都,渋谷区,富ヶ谷１丁目１４番１４号３階,,13,113,1510063,,,,,,,2024-03-14,1,,,,,マジック,0
915,5011003018684,新規,0,2024-03-14,2024-03-14,ＢａｒｒｉｅｒＣｒａｃｋ合同会社,,合同会社,東京都,渋谷区,道玄坂１丁目１０番８号渋谷道玄坂東急ビル２Ｆ－Ｃ,,13,113,1500043,,,,,,,2024-03-14,1,,,,,バリアクラック,0
918,5011101106515,新規,0,2024-03-14,2024-03-14,株式会社有馬ＧＲＯＵＰ,,株式会社,東京都,新宿区,西新宿７丁目１９番１０－１１０１号,,13,104,1600023,,,,,,,2024-03-14,1,,,,,アリマグループ,0
919,5011101106531,新規,0,2024-03-14,2024-03-14,東京エステートＡＩ株式会社,,株式会社,東京都,新宿区,西新宿６丁目５番１号新宿アイランドタワー２階,,13,104,1600023,,,,,,,2024-03-14,1,,,,,トウキョウエステートエーアイ,0
920,5011101106556,新規,0,2024-03-14,2024-03-14,株式会社ＭＩＨＡ,,株式会社,東京都,新宿区,新宿３丁目４番８号京王フレンテ新宿三丁目４０７,,13,104,1600022,,,,,,,2024-03-14,1,,,,,エムアイエイチエー,0
921,5011103014195,新規,0,2024-03-14,2024-03-14,合同会社ＮＡＩＲＯ２３,,合同会社,東京都,新宿区,西新宿３丁目３番１３号西新宿水間ビル２Ｆ,,13,104,1600023,,,,,,,2024-03-14,1,,,,,ナイロニジュウサン,0
931,5011603004274,新規,0,2024-03-14,2024-03-14,Ｚｌａｔａ合同会社,,合同会社,東京都,練馬区,東大泉７丁目３９－２４,,13,120,1780063,,,,,,,2024-03-14,1,,,,,ズラータ,0
933,5011701027111,新規,0,2024-03-14,2024-03-14,ＧＲ８株式会社,,株式会社,東京都,江戸川区,東小岩１丁目２５番７号,,13,123,1330052,,,,,,,2024-03-14,1,,,,,ジーアールエイト,0
963,5021003014253,新規,0,2024-03-14,2024-03-14,合同会社しるし,,合同会社,神奈川県,三浦市,初声町高円坊１４９８番地１,,14,210,2380115,,,,,,,2024-03-14,1,,,,,シルシ,0
975,5030003023783,新規,0,2024-03-14,2024-03-14,広源商会合同会社,,合同会社,埼玉県,深谷市,本住町３番２号,,11,218,3660823,,,,,,,2024-03-14,1,,,,,コウゲンショウカイ,0
982,5040001132593,新規,0,2024-03-14,2024-03-14,王子商事株式会社,,株式会社,千葉県,柏市,大塚町５番１５号,,12,217,2770026,,,,,,,2024-03-14,1,,,,,オウジショウジ,0
983,5040001132602,新規,0,2024-03-14,2024-03-14,株式会社ＲＵ,,株式会社,千葉県,四街道市,吉岡１８５３,,12,228,2840032,,,,,,,2024-03-14,1,,,,,アールユー,0
984,5040001132627,新規,0,2024-03-14,2024-03-14,株式会社あきら建設,,株式会社,千葉県,松戸市,栄町８丁目５９９番地の２,,12,207,2710062,,,,,,,2024-03-14,1,,,,,アキラケンセツ,0
988,5040003024517,新規,0,2024-03-14,2024-03-14,合同会社エデンの東,,合同会社,千葉県,野田市,中根２４６番地の９,,12,208,2780031,,,,,,,2024-03-14,1,,,,,エデンノヒガシ,0
989,5040003024525,新規,0,2024-03-14,2024-03-14,ＬＺＱ合同会社,,合同会社,千葉県,松戸市,五香西２丁目２４番地の３１,,12,207,2702218,,,,,,,2024-03-14,1,,,,,エルゼットキュー,0
1002,5100001037274,新規,0,2024-03-14,2024-03-14,株式会社４Ｌｅａｆ,,株式会社,長野県,長野市,大字鶴賀上千歳町１３５２番地５カサイライフビル２階,,20,201,3800821,,,,,,,2024-03-14,1,,,,,フォーリーフ,0
1007,5120001263158,新規,0,2024-03-14,2024-03-14,株式会社ワイズユウホームズ,,株式会社,大阪府,大阪市淀川区,塚本４丁目４番９号,,27,123,5320026,,,,,,,2024-03-14,1,,,,,ワイズユウホームズ,0
1028,5170001018045,新規,0,2024-03-14,2024-03-14,株式会社ベル,,株式会社,和歌山県,橋本市,城山台２丁目４５番地の８,,30,203,6480054,,,,,,,2024-03-14,1,,,,,ベル,0
1033,5180005020541,新規,0,2024-03-14,2024-03-14,ＮＰＯ法人みらい子育てサポートフォーシーズン,,その他の設立登記法人,愛知県,丹羽郡扶桑町,大字高雄字下山４３７番地カーサクオーレＢ２０５,,23,362,4800102,,,,,,,2024-03-14,1,,,,,ミライコソダテサポートフォーシーズン,0
1034,5180301038411,新規,0,2024-03-14,2024-03-14,株式会社矢田水産,,株式会社,愛知県,田原市,赤羽根町西２４番地,,23,231,4413502,,,,,,,2024-03-14,1,,,,,ヤダスイサン,0
1036,5200001042248,新規,0,2024-03-14,2024-03-14,株式会社大蒼空調,,株式会社,岐阜県,岐阜市,岩地２丁目１９番２３号（ソレイユ一番館１０５）,,21,201,5008225,,,,,,,2024-03-14,1,,,,,タイソウクウチョウ,0
1038,5200003006259,新規,0,2024-03-14,2024-03-14,合同会社ＭＧホーム,,合同会社,岐阜県,本巣郡北方町,天狗堂１丁目５０番地,,21,421,5010433,,,,,,,2024-03-14,1,,,,,エムジーホーム,0
1057,5300001013643,新規,0,2024-03-14,2024-03-14,株式会社ＳＫＹ,,株式会社,佐賀県,小城市,小城町畑田３１８０番地ブロン・ボヌールＩ２０３,00134053,41,208,8450002,,,,,,,2024-03-14,1,,,,,スカイ,0
1064,5330001031849,新規,0,2024-03-14,2024-03-14,株式会社Ｋスライブ,,株式会社,熊本県,熊本市東区,榎町２１番４０号,,43,102,8620917,,,,,,,2024-03-14,1,,,,,ケイスライブ,0
1068,5340001026360,新規,0,2024-03-14,2024-03-14,株式会社ＬＩＬＩＥ,,株式会社,鹿児島県,鹿児島市,上福元町６３００番地４２,,46,201,8910116,,,,,,,2024-03-14,1,,,,,リリィ,0
1090,5430001091288,新規,0,2024-03-14,2024-03-14,株式会社Ｈ．Ｃ．Ｉ,,株式会社,北海道,札幌市北区,篠路五条５丁目５番１７号,,01,102,0028025,,,,,,,2024-03-14,1,,,,,エイチシーアイ,0
1097,5460301005201,新規,0,2024-03-14,2024-03-14,株式会社どりーむふぁーむ,,株式会社,北海道,網走郡津別町,字上里１５７番地,,01,544,0920222,,,,,,,2024-03-14,1,,,,,ドリームファーム,0
1106,5700150124449,新規,0,2024-03-14,2024-03-14,ＧｕａｎｇＺｈｏｕ　ＯｕＹｉ　ＤｉａｎＺｉＳｈａｎｇＷｕ　ＹｏｕＸｉａｎＧｏｎｇＳｉ,,外国会社等,,,,,,,,ＴｉａｎＨｅＱｕ　ＧｕａｎｇＳｈａｎＥｒＬｕ２２３ｈａｏ　４１１ｆａｎｇ　ＧｕａｎｇＺｈｏｕ　ＧｕａｎｇＤｏｎｇ,,,,,,2024-03-14,1,,,,,コウシュウオウイデンシショウムユウゲンコウシ,0
1107,5700150124465,新規,0,2024-03-14,2024-03-14,ｚｈｅ　ｊｉａｎｇ　ｈｕｉ　ｌｉ　ｓｈｉ　ｙａｎ　ｙｉ　ｑｉ　ｙｏｕ　ｘｉａｎ　ｇｏｎｇ　ｓｉ,,外国会社等,,,,,,,,５／Ｆ，Ｂｕｉｌｄｉｎｇ　１，Ｎｏ．１８１，Ｇａｎｇｆｅｎｇ　Ｒｏａｄ，Ｈｕｚｈｏｕ　Ｃｉｔｙ，Ｚｈｅｊｉａｎｇ　Ｐｒｏｖｉｎｃｅ，Ｃｈｉｎａ,,,,,,2024-03-14,1,,,,,ジョージャンフイリーシーイエンイーチーヨウシエンゴンスー,0
1121,6010005038038,新規,0,2024-03-14,2024-03-14,一般社団法人ＩＳＴレジデンス４,,その他の設立登記法人,東京都,千代田区,丸の内３丁目１番１号東京共同会計事務所内,,13,101,1000005,,,,,,,2024-03-14,1,,,,,アイエスティレジデンスフォー,0
1127,6010401181003,新規,0,2024-03-14,2024-03-14,亜輝日本株式会社,,株式会社,東京都,港区,芝大門２丁目１２－１松本ビル３階,,13,103,1050012,,,,,,,2024-03-14,1,,,,,アキニホン,0
1128,6010401181036,新規,0,2024-03-14,2024-03-14,株式会社シエンシー,,株式会社,東京都,港区,芝３丁目１番１４号芝公園阪神ビル５階,,13,103,1050014,,,,,,,2024-03-14,1,,,,,シエンシー,0
1129,6010401181060,新規,0,2024-03-14,2024-03-14,ＢｉｚＯｎ株式会社,,株式会社,東京都,港区,芝５丁目１６番７号,,13,103,1080014,,,,,,,2024-03-14,1,,,,,ビズオン,0
1131,6010501051915,新規,0,2024-03-14,2024-03-14,株式会社ＢＬＹ,,株式会社,東京都,台東区,三筋２丁目２０番７号３Ｆ,,13,106,1110055,,,,,,,2024-03-14,1,,,,,ビーエルワイ,0
1132,6010603010703,新規,0,2024-03-14,2024-03-14,合同会社ＴＩＮＯ,,合同会社,東京都,江東区,大島４丁目７番３号ボーニ大島２０３,,13,108,1360072,,,,,,,2024-03-14,1,,,,,ティーアイエヌオー,0
1141,6010903008884,新規,0,2024-03-14,2024-03-14,合同会社ｕｄｏｎｆａｃｔｏｒｙ,,合同会社,東京都,世田谷区,代田２丁目１１番１０号フラットアイ３０３,,13,112,1550033,,,,,,,2024-03-14,1,,,,,ウドンファクトリー,0
1148,6011003018667,新規,0,2024-03-14,2024-03-14,Ｔｅｃｈ‐Ａｉｄ合同会社,,合同会社,東京都,渋谷区,恵比寿１丁目１５－９日宝恵比寿ビル４０３,,13,113,1500013,,,,,,,2024-03-14,1,,,,,テックエイド,0
1149,6011003018683,新規,0,2024-03-14,2024-03-14,Ｓ．Ｕ．Ｐ合同会社,,合同会社,東京都,渋谷区,神宮前６丁目２３番４号桑野ビル２階,,13,113,1500001,,,,,,,2024-03-14,1,,,,,エスユーピー,0
1152,6011101106514,新規,0,2024-03-14,2024-03-14,辰興株式会社,,株式会社,東京都,新宿区,高田馬場２丁目７番１１号コーポ高田２０５,,13,104,1690075,,,,,,,2024-03-14,1,,,,,タツキ,0
1153,6011101106547,新規,0,2024-03-14,2024-03-14,株式会社Ｍ．Ｄ．Ｃ,,株式会社,東京都,新宿区,歌舞伎町１丁目６石塚ビル８階,,13,104,1600021,,,,,,,2024-03-14,1,,,,,エムディーシー,0
1159,6011401025926,新規,0,2024-03-14,2024-03-14,東川八百株式会社,,株式会社,東京都,板橋区,大山東町５９番８号ドルメン大山３０１号室,,13,119,1730014,,,,,,,2024-03-14,1,,,,,トウセンヤオ,0
1160,6011403004300,新規,0,2024-03-14,2024-03-14,ＨＩＭＡＬＡＹＡ合同会社,,合同会社,東京都,板橋区,仲宿６４番４号,,13,119,1730005,,,,,,,2024-03-14,1,,,,,ヒマラヤ,0
1168,6011803006128,新規,0,2024-03-14,2024-03-14,合同会社ｔｉｂｉａ,,合同会社,東京都,足立区,新田２丁目２番２－１１０２号,,13,121,1230865,,,,,,,2024-03-14,1,,,,,ティビア,0
1186,6021001081674,新規,0,2024-03-14,2024-03-14,４１８株式会社,,株式会社,神奈川県,鎌倉市,鎌倉山４丁目３番１－２０２号,,14,204,2480031,,,,,,,2024-03-14,1,,,,,ヨンイチハチ,0
1187,6021001081699,新規,0,2024-03-14,2024-03-14,株式会社マテリアウィル,,株式会社,神奈川県,相模原市中央区,富士見５丁目１２番１３号,,14,152,2520236,,,,,,,2024-03-14,1,,,,,マテリアウィル,0
1193,6030001159190,新規,0,2024-03-14,2024-03-14,株式会社さかなと,,株式会社,埼玉県,秩父郡横瀬町,大字横瀬４６２８番地３,,11,361,3680072,,,,,,,2024-03-14,1,,,,,サカナト,0
1196,6030005021578,新規,0,2024-03-14,2024-03-14,一般社団法人東上ガスグループ地域振興支援会,,その他の設立登記法人,埼玉県,志木市,本町３丁目１番６１号,,11,228,3530004,,,,,,,2024-03-14,1,,,,,トウジョウガスグループチイキシンコウシエンカイ,0
1199,6040001132592,新規,0,2024-03-14,2024-03-14,株式会社みやび未来,,株式会社,千葉県,富里市,日吉倉５７２番地４、２階,,12,233,2860202,,,,,,,2024-03-14,1,,,,,ミヤビミライ,0
1203,6040003024524,新規,0,2024-03-14,2024-03-14,ＡＹＡＡＮ　ＴＲＡＤＩＮＧ合同会社,,合同会社,千葉県,八街市,大関６０番地１６、１階１０２号室,,12,230,2891142,,,,,,,2024-03-14,1,,,,,アヤーントレーディング,0
1204,6040003024532,新規,0,2024-03-14,2024-03-14,ＭＲ　ＪＡＰＡＮ　ＭＯＴＯＲＳ合同会社,,合同会社,千葉県,山武市,成東３７８３番地１,,12,237,2891326,,,,,,,2024-03-14,1,,,,,エムアールジャパンモータース,0
1209,6070003005315,新規,0,2024-03-14,2024-03-14,合同会社プロトラスト,,合同会社,群馬県,伊勢崎市,宮子町３４７２番地４,,10,204,3720801,,,,,,,2024-03-14,1,,,,,プロトラスト,0
1225,6120001263099,新規,0,2024-03-14,2024-03-14,木下宿株式会社,,株式会社,大阪府,大阪市平野区,長吉川辺３丁目５番２号エターナルスライヴ１Ｆ,,27,126,5470014,,,,,,,2024-03-14,1,,,,,キノシタヤド,0
1226,6120001263132,新規,0,2024-03-14,2024-03-14,ＬｉｎｋＬｉｆｅ株式会社,,株式会社,大阪府,大阪市淀川区,西三国１丁目１１番２－４０２号,,27,123,5320006,,,,,,,2024-03-14,1,,,,,リンクライフ,0
1228,6120003026157,新規,0,2024-03-14,2024-03-14,合同会社ＪＡＰＡＮ　ＢＲＩＤＧＥ　ＷＥＳＴ,,合同会社,大阪府,大阪市浪速区,日本橋西１丁目８‐２０川西ビル１１Ｂ,,27,111,5560004,,,,,,,2024-03-14,1,,,,,ジャパンブリッジウェスト,0
1231,6120101069207,新規,0,2024-03-14,2024-03-14,たのみや株式会社,,株式会社,大阪府,泉佐野市,中町１丁目７番３０－７１２号,,27,213,5980013,,,,,,,2024-03-14,1,,,,,タノミヤ,0
1239,6130001076558,新規,0,2024-03-14,2024-03-14,株式会社幸輝,,株式会社,京都府,京都市伏見区,京町１丁目２４５番地,,26,109,6128083,,,,,,,2024-03-14,1,,,,,コウキ,0
1240,6130001076566,新規,0,2024-03-14,2024-03-14,株式会社Ａｔｅｌｉｅｒ,,株式会社,京都府,京丹後市,久美浜町神谷４８０,,26,212,6293416,,,,,,,2024-03-14,1,,,,,アトリエ,0
1250,6170001018044,新規,0,2024-03-14,2024-03-14,株式会社ＰＬＵＣＫ,,株式会社,和歌山県,岩出市,中島９８５番地の２２,,30,209,6496245,,,,,,,2024-03-14,1,,,,,プラック,0
1251,6170003001997,新規,0,2024-03-14,2024-03-14,合同会社寺田,,合同会社,和歌山県,有田郡広川町,大字広７０１番地７,,30,362,6430071,,,,,,,2024-03-14,1,,,,,テラダ,0
1253,6180001160506,新規,0,2024-03-14,2024-03-14,株式会社ＨＡＰＰＹ‐Ｗｅｅｋ　ｄａｙ,,株式会社,愛知県,一宮市,今伊勢町馬寄字上畑田５３番地１‐２,,23,203,4910051,,,,,,,2024-03-14,1,,,,,ハッピーウィークデイ,0
1254,6180001160514,新規,0,2024-03-14,2024-03-14,株式会社ニシオベルトサービス,,株式会社,愛知県,小牧市,大草北９０番地,,23,219,4850802,,,,,,,2024-03-14,1,,,,,ニシオベルトサービス,0
1255,6180003026473,新規,0,2024-03-14,2024-03-14,合同会社花菱工業,,合同会社,愛知県,清須市,西枇杷島町小田井３丁目８番地２２,,23,233,4520021,,,,,,,2024-03-14,1,,,,,ハナビシコウギョウ,0
1268,6250001020553,新規,0,2024-03-14,2024-03-14,株式会社ＭＴホールディングス,,株式会社,山口県,下関市,垢田町１丁目２１番１６号,,35,201,7510841,,,,,,,2024-03-14,1,,,,,エムティーホールディングス,0
1269,6270001008935,新規,0,2024-03-14,2024-03-14,株式会社ＪＵＮＪＯＥ,,株式会社,鳥取県,鳥取市,若葉台南５丁目６番２号,,31,201,6891112,,,,,,,2024-03-14,1,,,,,ジュンジョー,0
1273,6290001105053,新規,0,2024-03-14,2024-03-14,株式会社ＮＩコネクト,,株式会社,福岡県,福岡市早良区,南庄４丁目１３番１３－２０３号,,40,137,8140031,,,,,,,2024-03-14,1,,,,,エヌアイコネクト,0
1287,6360003013791,新規,0,2024-03-14,2024-03-14,合同会社ライドフリークス沖縄,,合同会社,沖縄県,中頭郡西原町,字幸地６４－５,,47,329,9030116,,,,,,,2024-03-14,1,,,,,ライドフリークスオキナワ,0
1303,6430003016028,新規,0,2024-03-14,2024-03-14,合同会社ＫＳＩ,,合同会社,北海道,札幌市中央区,南八条西７丁目１８５１－５ミルフィー８・７－１００３号,,01,101,0640808,,,,,,,2024-03-14,1,,,,,ケーエスアイ,0
1305,6460101007512,新規,0,2024-03-14,2024-03-14,株式会社ＧＲＥＥＮ　ＬＯＣＡＬ　ＰＡＲＴＮＥＲＳ,,株式会社,北海道,河東郡音更町,木野大通東２丁目１番地７皆川ビル１Ｆ,,01,631,0800111,,,,,,,2024-03-14,1,,,,,グリーンローカルパートナーズ,0
1311,6700150124448,新規,0,2024-03-14,2024-03-14,Ｓｈｅｎｚｈｅｎｓｈｉｘｕｎｙｉｄｉａｎｚｉｓｈａｎｇｗｕｙｏｕｘｉａｎｇｏｎｇｓｉ,,外国会社等,,,,,,,,ｌｏｎｇｇａｎｇｑｕｂａｎｔｉａｎｊｉｅｄａｏｗｕｈｅｓｈｅｑｕｄａｇｕａｎｇｋａｎｃｕｎ７ｘｉａｎｇ３ｈａｏ３０４　ｓｈｅｎｚｈｅｎｓｈｉ　ｇｕａｎｇｄｏｎｇｓｈｅｎｇ　ＣＮ,,,,,,2024-03-14,1,,,,,シンセンシスンイデンシショウムユウゲンコウシ,0
1312,6700150124456,新規,0,2024-03-14,2024-03-14,Ｍｉｃａｒｓｏ　Ｉｎｃ．,,外国会社等,,,,,,,,３０　Ｎ　Ｇｏｕｌｄ　Ｓｔ　Ｓｔｅ　Ｒ，Ｓｈｅｒｉｄａｎ，ＷＹ,,,,,,2024-03-14,1,,,,,ミカルソインコーポレイテッド,0
1313,6700150124464,新規,0,2024-03-14,2024-03-14,ｘｉｎｌｉ（ｓｈｅｎｚｈｅｎ）ｇｏｎｇｙｉｎｇｌｉａｎｇｕａｎｌｉｙｏｕｘｉａｎｇｏｎｇｓｉ,,外国会社等,,,,,,,,６１ｈａｏｙｉｎｇｂｏｂａｎｇｏｎｇｌｏｕ２ｃｅｎｇＳ２２０，Ｌｏｎｇｈｕａｊｉｅｄａｏｆｕｋａｎｇｓｈｅｑｕｄｏｎｇｈｕａｎｅｒｌｕ，Ｓｈｅｎｚｈｅｎ，Ｇｕａｎｇｄｏｎｇ，Ｃｈｉｎａ，５１８０００,,,,,,2024-03-14,1,,,,,シンリーシェンジェンゴンインリエングワンリーヨウシエンゴンスー,0
1321,7010005038037,新規,0,2024-03-14,2024-03-14,一般社団法人日本公益コンサルティング,,その他の設立登記法人,東京都,中央区,銀座７丁目１１番３号矢島ビル８Ｆ,,13,102,1040061,,,,,,,2024-03-14,1,,,,,ニホンコウエキコンサルティング,0
1324,7010401180978,新規,0,2024-03-14,2024-03-14,株式会社そらテックソリューションズ,,株式会社,東京都,港区,北青山１丁目３番１号アールキューブ青山３階,,13,103,1070061,,,,,,,2024-03-14,1,,,,,ソラテックソリューションズ,0
1325,7010401180994,新規,0,2024-03-14,2024-03-14,株式会社Ｋ＆Ｒ,,株式会社,東京都,港区,芝浦４丁目２０番２－３５０３号,,13,103,1080023,,,,,,,2024-03-14,1,,,,,ケイアンドアール,0
1332,7010603010702,新規,0,2024-03-14,2024-03-14,合同会社ｌｌｙ,,合同会社,東京都,江東区,有明１丁目４番１１－１８１０号ブリリアマーレ有明,,13,108,1350063,,,,,,,2024-03-14,1,,,,,リリー,0
1335,7010901054871,新規,0,2024-03-14,2024-03-14,株式会社リブリーズ,,株式会社,東京都,世田谷区,代沢２丁目３８番８号,,13,112,1550032,,,,,,,2024-03-14,1,,,,,リブリーズ,0
1338,7011001160503,新規,0,2024-03-14,2024-03-14,株式会社アシスト,,株式会社,東京都,目黒区,南３丁目１２番１９号,,13,110,1520013,,,,,,,2024-03-14,1,,,,,アシスト,0
1341,7011003018666,新規,0,2024-03-14,2024-03-14,合同会社ＰｄＬａｂｏ,,合同会社,東京都,渋谷区,恵比寿西２丁目４番８号ウィンド恵比寿ビル８Ｆ,,13,113,1500021,,,,,,,2024-03-14,1,,,,,ピーディーラボ,0
1342,7011003018674,新規,0,2024-03-14,2024-03-14,合同会社ＢＥＴＡ‐ｃｒｅａｔｅ,,合同会社,東京都,渋谷区,道玄坂１丁目１０番８号渋谷道玄坂東急ビル２Ｆ－Ｃ,,13,113,1500043,,,,,,,2024-03-14,1,,,,,ベータクリエイト,0
1348,7011101106521,新規,0,2024-03-14,2024-03-14,株式会社ＯＮＥ,,株式会社,東京都,新宿区,大久保２丁目１番８号プラザ新大樹ビル６階,,13,104,1690072,,,,,,,2024-03-14,1,,,,,ワン,0
1351,7011301029489,新規,0,2024-03-14,2024-03-14,株式会社エータ・ウーマ,,株式会社,東京都,杉並区,西荻北１丁目４番３－７０７号,,13,115,1670042,,,,,,,2024-03-14,1,,,,,エータウーマ,0
1352,7011401025925,新規,0,2024-03-14,2024-03-14,株式会社Ｏｕｔｓｔａｎｄｉｎｇ　Ｓｏｌｕｔｉｏｎｓ,,株式会社,東京都,板橋区,大和町３３番７号フジアーバンヒルズ２０１,,13,119,1730012,,,,,,,2024-03-14,1,,,,,アウトスタンディングソリューション,0
1363,7012401041598,新規,0,2024-03-14,2024-03-14,株式会社Ｓｕｉｉｎｇ,,株式会社,東京都,武蔵野市,吉祥寺東町１丁目４番２４号２Ｆ,,13,203,1800002,,,,,,,2024-03-14,1,,,,,スウィング,0
1364,7012401041615,新規,0,2024-03-14,2024-03-14,株式会社ＡＴＯＫ,,株式会社,東京都,武蔵野市,境南町３丁目２５番１５号メゾン境南２０３,,13,203,1800023,,,,,,,2024-03-14,1,,,,,エーティーオーケー,0
1366,7012403006450,新規,0,2024-03-14,2024-03-14,合同会社幸藏,,合同会社,東京都,府中市,天神町１丁目１１番１０号２Ｆ,,13,206,1830053,,,,,,,2024-03-14,1,,,,,サチクラ,0
1367,7012405004956,新規,0,2024-03-14,2024-03-14,医療法人社団オールフォーワン,,その他の設立登記法人,東京都,稲城市,東長沼３１０７番地１、２階,,13,225,2060802,,,,,,,2024-03-14,1,,,,,オールフォーワン,0
1370,7013105001839,新規,0,2024-03-14,2024-03-14,西多摩葬祭業協同組合,,その他の設立登記法人,東京都,青梅市,末広町１丁目２番地の１,,13,205,1980025,,,,,,,2024-03-14,1,,,,,,0
1382,7020001156221,新規,0,2024-03-14,2024-03-14,株式会社ケーデイーエー,,株式会社,神奈川県,川崎市川崎区,宮本町６番地２センター川崎マーク・レジデンス５０２,,14,131,2100004,,,,,,,2024-03-14,1,,,,,ケーデイーエー,0
1386,7020003025705,新規,0,2024-03-14,2024-03-14,合同会社魚太郎,,合同会社,神奈川県,横浜市戸塚区,吉田町２００８番地サンヒルズ１０２号,,14,110,2440817,,,,,,,2024-03-14,1,,,,,ウオタロウ,0
1387,7020003025713,新規,0,2024-03-14,2024-03-14,合同会社モバイルアプリパートナーズ,,合同会社,神奈川県,横浜市神奈川区,栄町１１－９ライオンズマンション横浜４０５,,14,102,2210052,,,,,,,2024-03-14,1,,,,,モバイルアプリパートナーズ,0
1394,7030001158951,新規,0,2024-03-14,2024-03-14,株式会社クト工業,,株式会社,埼玉県,草加市,小山１丁目１７番２２号ガーデンハウス参番館２０１号,,11,221,3400045,,,,,,,2024-03-14,1,,,,,クトコウギョウ,0
1397,7030003023781,新規,0,2024-03-14,2024-03-14,合同会社虹,,合同会社,埼玉県,さいたま市岩槻区,大字慈恩寺５４６番地６２,,11,110,3390009,,,,,,,2024-03-14,1,,,,,ニジ,0
1399,7040001132591,新規,0,2024-03-14,2024-03-14,株式会社ＡＬＴＡＮ‐ＯＣＨ,,株式会社,千葉県,成田市,玉造７丁目１番地１プロムナード玉造４棟５０３号室,,12,211,2860011,,,,,,,2024-03-14,1,,,,,アルタンオチ,0
1400,7040001132625,新規,0,2024-03-14,2024-03-14,東和株式会社,,株式会社,千葉県,習志野市,鷺沼５丁目１７番８号サンリット幕張２０６号,,12,216,2750014,,,,,,,2024-03-14,1,,,,,トウワ,0
1401,7040001132633,新規,0,2024-03-14,2024-03-14,株式会社京葉企画設計,,株式会社,千葉県,千葉市緑区,刈田子町１４番地２１,,12,105,2660021,,,,,,,2024-03-14,1,,,,,ケイヨウキカクセッケイ,0
1402,7040005022319,新規,0,2024-03-14,2024-03-14,特定非営利活動法人さくら,,その他の設立登記法人,千葉県,長生郡白子町,関５９６８番地２,,12,424,2994218,,,,,,,2024-03-14,1,,,,,サクラ,0
1411,7070005010238,新規,0,2024-03-14,2024-03-14,特定非営利活動法人こもんず,,その他の設立登記法人,群馬県,沼田市,利根町園原５１７番地,,10,206,3780324,,,,,,,2024-03-14,1,,,,,,0
1413,7080101024586,新規,0,2024-03-14,2024-03-14,株式会社ＢＬＵＥ　ＥＳＴＡＴＥ,,株式会社,静岡県,沼津市,沼北町２丁目１０番１２号Ｂｌｕｅビル１Ｆ,,22,203,4100058,,,,,,,2024-03-14,1,,,,,ブルーエステート,0
1415,7100001037280,新規,0,2024-03-14,2024-03-14,株式会社ＬＸ,,株式会社,長野県,長野市,上千歳町１３５３番地ビックアップルビル１－Ｂ号,,20,201,3810000,,,,,,,2024-03-14,1,,,,,エルエックス,0
1427,7120001263123,新規,0,2024-03-14,2024-03-14,株式会社ＷＥＥＫ６,,株式会社,大阪府,大阪市中央区,本町橋６番１９－１００１号室,,27,128,5400029,,,,,,,2024-03-14,1,,,,,ウィークロク,0
1428,7120001263131,新規,0,2024-03-14,2024-03-14,富松産業株式会社,,株式会社,大阪府,大阪市浪速区,元町２丁目１番８伊勢田ビル５０２号,,27,111,5560016,,,,,,,2024-03-14,1,,,,,トミマツサンギョウ,0
1434,7120101069197,新規,0,2024-03-14,2024-03-14,株式会社ＤＳＴ　Ｇｒｏｕｐ　Ｏｆｆｉｃｅ,,株式会社,大阪府,和泉市,池上町４丁目１９番２６号,,27,219,5940083,,,,,,,2024-03-14,1,,,,,ディエスティグループオフィス,0
1436,7120903005085,新規,0,2024-03-14,2024-03-14,合同会社愛れん想,,合同会社,大阪府,摂津市,正雀３丁目７番１３号,,27,224,5660023,,,,,,,2024-03-14,1,,,,,アイレンソウ,0
1442,7130001076565,新規,0,2024-03-14,2024-03-14,株式会社ＧＯＩＣＨＩ,,株式会社,京都府,京都市中京区,河原町通三条上る恵比須町５３４番地２８松木ビル１Ｆ,,26,104,6048005,,,,,,,2024-03-14,1,,,,,ゴイチ,0
1445,7140001133646,新規,0,2024-03-14,2024-03-14,株式会社如月リトレＭＦＹ,,株式会社,兵庫県,明石市,小久保６丁目８－１２,,28,203,6730005,,,,,,,2024-03-14,1,,,,,キサラギリトレエムエフワイ,0
1447,7140003020272,新規,0,2024-03-14,2024-03-14,合同会社ＴＡＹ,,合同会社,兵庫県,たつの市,龍野町島田６６１番地１１,,28,229,6794121,,,,,,,2024-03-14,1,,,,,ティーエーワイ,0
1451,7180001160496,新規,0,2024-03-14,2024-03-14,株式会社和穂,,株式会社,愛知県,名古屋市熱田区,金山町１丁目２番３号,,23,109,4560002,,,,,,,2024-03-14,1,,,,,カズホ,0
1452,7180001160513,新規,0,2024-03-14,2024-03-14,高盛株式会社,,株式会社,愛知県,名古屋市中区,金山１丁目１５番３号アルバックスタワー金山駅前８０２号室,,23,106,4600022,,,,,,,2024-03-14,1,,,,,タカセイ,0
1453,7180001160521,新規,0,2024-03-14,2024-03-14,株式会社Ｄｅｍｅｔｅｒ　Ｃｅｒｅｓ,,株式会社,愛知県,愛知郡東郷町,大字和合字牛廻間１２１番地６,,23,302,4700153,,,,,,,2024-03-14,1,,,,,デメターセレス,0
1454,7180001160538,新規,0,2024-03-14,2024-03-14,株式会社Ｔ．Ｋ．Ｒホールディングス,,株式会社,愛知県,名古屋市中区,錦１丁目５番１１号,,23,106,4600003,,,,,,,2024-03-14,1,,,,,ティーケーアールホールディングス,0
1456,7180003026423,新規,0,2024-03-14,2024-03-14,Ａｔｏｍｕ合同会社,,合同会社,愛知県,名古屋市中区,新栄１丁目１３番２１号シャルマン新栄３０１号,,23,106,4600007,,,,,,,2024-03-14,1,,,,,アトム,0
1469,7240001062918,新規,0,2024-03-14,2024-03-14,株式会社ＴＡｏ,,株式会社,広島県,広島市東区,馬木３丁目１７番１８号,,34,102,7320031,,,,,,,2024-03-14,1,,,,,タオ,0
1492,7360001033320,新規,0,2024-03-14,2024-03-14,鼎軒貿易株式会社,,株式会社,沖縄県,那覇市,泉崎２丁目４番８－４０２号室,,47,201,9000021,,,,,,,2024-03-14,1,,,,,テイケンボウエキ,0
1503,7410001013754,新規,0,2024-03-14,2024-03-14,株式会社ＭＨＤ,,株式会社,秋田県,鹿角郡小坂町,小坂字岩ノ下１１３番地,,05,303,0170201,,,,,,,2024-03-14,1,,,,,エムエイチディー,0
1508,7430001091286,新規,0,2024-03-14,2024-03-14,株式会社リケン設備,,株式会社,北海道,札幌市厚別区,厚別西三条１丁目５番７号,,01,108,0040063,,,,,,,2024-03-14,1,,,,,リケンセツビ,0
1513,7430003016027,新規,0,2024-03-14,2024-03-14,合同会社義美,,合同会社,北海道,札幌市西区,琴似四条２丁目１番１－２７０２号,,01,107,0630814,,,,,,,2024-03-14,1,,,,,ヨシミ,0
1515,7460101007511,新規,0,2024-03-14,2024-03-14,株式会社中山建設,,株式会社,北海道,中川郡本別町,南１丁目７番地１,,01,646,0893314,,,,,,,2024-03-14,1,,,,,ナカヤマケンセツ,0
1518,7480001012411,新規,0,2024-03-14,2024-03-14,株式会社ＬＵＡＮＡ,,株式会社,徳島県,徳島市,徳島町２丁目２７番地徳島町ビル２０１,,36,201,7700852,,,,,,,2024-03-14,1,,,,,ルアナ,0
1524,7700150124455,新規,0,2024-03-14,2024-03-14,Ｓｔｒｉｃｈ　Ｔｅｃｈｎｏｌｏｇｙ　ＣＯ，Ｌｉｍｉｔｅｄ,,外国会社等,,,,,,,,２－１６　ＦＡＹＵＥＮ　ＳＴ，ＲＭ　５０２Ｃ，５／Ｆ，ＨＯ　ＫＩＮＧ　ＣＯＭＭ　ＣＴＲ，ＭＯＮＧＫＯＫ　ＫＯＷＬＯＯＮ，ＨＯＮＧＫＯＮＧ,,,,,,2024-03-14,1,,,,,ストリッチテクノロジーカンパニーリミテッド,0
1525,7700150124463,新規,0,2024-03-14,2024-03-14,ｄｏｎｇ　ｇｕａｎ　ｓｈｉ　ｊｉａ　ｅｒ　ｋｅ　ｊｉ　ｙｏｕ　ｘｉａｎ　ｇｏｎｇ　ｓｉ,,外国会社等,,,,,,,,ｚｈａｎｇ　ｃｕｎ　ｎａｎ　ｌｕ　２１　ｈａｏ　３８７　ｓｈｉｄｏｎｇ　ｃｈｅｎｇ　ｊｉｅ　ｄａｏｄｏｎｇ　ｇｕａｎ　ｓｈｉ　ｇｕａｎｇ　ｄｏｎｇ　ｓｈｅｎｇＣｈｉｎａ,,,,,,2024-03-14,1,,,,,ドングワンシージャーアーコージーヨウシエンゴンスー,0
1539,8010401180507,新規,0,2024-03-14,2024-03-14,株式会社ＭＩＰ,,株式会社,東京都,港区,芝２丁目３－９ＶＯＲＴ芝公園ＩＩ２階,00134054,13,103,1050014,,,,,,,2024-03-14,1,,,,,エムアイピー,0
1540,8010401180985,新規,0,2024-03-14,2024-03-14,合金科技株式会社,,株式会社,東京都,港区,元麻布３丁目１番６号,,13,103,1060046,,,,,,,2024-03-14,1,,,,,ゴウキンカギ,0
1541,8010401180993,新規,0,2024-03-14,2024-03-14,株式会社梛ＩＮＴＥＲＮＡＴＩＯＮＡＬ,,株式会社,東京都,港区,南青山３丁目１番３号,,13,103,1070062,,,,,,,2024-03-14,1,,,,,ナギインターナショナル,0
1542,8010403032152,新規,0,2024-03-14,2024-03-14,やまと合同会社,,合同会社,東京都,港区,港南１丁目６番３３－１４０１号,,13,103,1080075,,,,,,,2024-03-14,1,,,,,ヤマト,0
1552,8011001159899,新規,0,2024-03-14,2024-03-14,株式会社ＬｅｏＦｏｒｗａｒｄ,,株式会社,東京都,渋谷区,渋谷２丁目１９－１５宮益坂ビルディング６０９,,13,113,1500002,,,,,,,2024-03-14,1,,,,,レオフォワード,0
1553,8011001160361,新規,0,2024-03-14,2024-03-14,株式会社ａｐｉｌｉｅ,,株式会社,東京都,渋谷区,円山町５番５号Ｎａｖｉ渋谷Ｖ３階,,13,113,1500044,,,,,,,2024-03-14,1,,,,,アピーリエ,0
1554,8011001160584,新規,0,2024-03-14,2024-03-14,株式会社ＬａｄｙＧｏ,,株式会社,東京都,渋谷区,道玄坂１丁目１０番８号渋谷道玄坂東急ビル２Ｆ－Ｃ,,13,113,1500043,,,,,,,2024-03-14,1,,,,,レディーゴー,0
1564,8011303005082,新規,0,2024-03-14,2024-03-14,合同会社リトルフィールド,,合同会社,東京都,杉並区,下井草４丁目９－２,,13,115,1670022,,,,,,,2024-03-14,1,,,,,リトルフィールド,0
1565,8011401025908,新規,0,2024-03-14,2024-03-14,ＵＭＫ株式会社,,株式会社,東京都,板橋区,徳丸１丁目１７番２号ＸＯ財託第三ビル３１０室,,13,119,1750083,,,,,,,2024-03-14,1,,,,,ユーエムケー,0
1569,8011503005989,新規,0,2024-03-14,2024-03-14,Ｓｍａｒｔｏｒ合同会社,,合同会社,東京都,荒川区,南千住３丁目２７番２号浅草ビル,,13,118,1160003,,,,,,,2024-03-14,1,,,,,スマートル,0
1572,8012401041622,新規,0,2024-03-14,2024-03-14,アキュメンホールディングス株式会社,,株式会社,東京都,三鷹市,上連雀１丁目１２番１７号,,13,204,1810012,,,,,,,2024-03-14,1,,,,,アキュメンホールディングス,0
1573,8012405004955,新規,0,2024-03-14,2024-03-14,医療法人社団真診会,,その他の設立登記法人,東京都,三鷹市,下連雀３丁目２２番１４号岡田ビル２０１,,13,204,1810013,,,,,,,2024-03-14,1,,,,,シンシンカイ,0
1577,8013301052206,新規,0,2024-03-14,2024-03-14,株式会社Ｆａｍｉｌｉａｒ,,株式会社,東京都,豊島区,南池袋３丁目１５番１５号カサ・グランデ１０３号,,13,116,1710022,,,,,,,2024-03-14,1,,,,,ファミリア,0
1585,8020001156195,新規,0,2024-03-14,2024-03-14,株式会社ポルテ,,株式会社,神奈川県,川崎市中原区,今井南町２番４４号,,14,133,2110064,,,,,,,2024-03-14,1,,,,,ポルテ,0
1588,8020003025720,新規,0,2024-03-14,2024-03-14,カキモト合同会社,,合同会社,神奈川県,横浜市港北区,篠原町９７３番地３０,,14,109,2220026,,,,,,,2024-03-14,1,,,,,カキモト,0
1592,8021001081689,新規,0,2024-03-14,2024-03-14,名村アセットマネジメント株式会社,,株式会社,神奈川県,相模原市南区,下溝２９６番地１０,,14,153,2520335,,,,,,,2024-03-14,1,,,,,ナムラアセットマネジメント,0
1593,8021001081697,新規,0,2024-03-14,2024-03-14,株式会社ＳＴＫアセット,,株式会社,神奈川県,平塚市,東八幡５丁目３番１号,,14,203,2540016,,,,,,,2024-03-14,1,,,,,エスティーケイアセット,0
1594,8021003014242,新規,0,2024-03-14,2024-03-14,合同会社ＳＵＮＳＨＩＮＥ,,合同会社,神奈川県,相模原市南区,大野台５丁目１８番１５号金吉テラスハウスＢ号棟,,14,153,2520331,,,,,,,2024-03-14,1,,,,,サンシャイン,0
1595,8021003014259,新規,0,2024-03-14,2024-03-14,Ａｚｕｒｅｓｋｙ合同会社,,合同会社,神奈川県,厚木市,三田南１丁目９―１０,,14,212,2430217,,,,,,,2024-03-14,1,,,,,アズールスカイ,0
1599,8030001159230,新規,0,2024-03-14,2024-03-14,株式会社尚家,,株式会社,埼玉県,さいたま市桜区,西堀７丁目８番４６号,,11,106,3380832,,,,,,,2024-03-14,1,,,,,ショウヤ,0
1606,8030003023814,新規,0,2024-03-14,2024-03-14,ハッポス合同会社,,合同会社,埼玉県,八潮市,大字大瀬１６５５番地１ノーヴァＩＩ２０２,00134056,11,234,3400822,,,,,,,2024-03-14,1,,,,,ハッポス,0
1612,8040001132590,新規,0,2024-03-14,2024-03-14,東日本ディックライト株式会社,,株式会社,千葉県,袖ケ浦市,蔵波２９６０番地１１４,,12,229,2990243,,,,,,,2024-03-14,1,,,,,ヒガシニホンディックライト,0
1613,8040001132608,新規,0,2024-03-14,2024-03-14,株式会社ＩＲＯＲＩ　Ｌａｂｏ．,,株式会社,千葉県,浦安市,富士見３丁目２３番３７号,,12,227,2790043,,,,,,,2024-03-14,1,,,,,イロリラボ,0
1614,8040001132616,新規,0,2024-03-14,2024-03-14,ＳＴＧ株式会社,,株式会社,千葉県,八街市,文違３０１番地４７４４,,12,230,2891104,,,,,,,2024-03-14,1,,,,,エスティージー,0
1618,8040003024539,新規,0,2024-03-14,2024-03-14,合同会社リペアハンド,,合同会社,千葉県,船橋市,上山町１丁目２０７－８ビレッジサングランデＤ棟２０２号,,12,204,2730046,,,,,,,2024-03-14,1,,,,,リペアハンド,0
1630,8100003007446,新規,0,2024-03-14,2024-03-14,サージェス合同会社,,合同会社,長野県,須坂市,大字日滝１９４６－３,,20,207,3820000,,,,,,,2024-03-14,1,,,,,サージェス,0
1634,8120001263023,新規,0,2024-03-14,2024-03-14,令和株式会社,,株式会社,大阪府,門真市,新橋町８番３１号２Ｆ,,27,223,5710048,,,,,,,2024-03-14,1,,,,,レイワ,0
1635,8120001263106,新規,0,2024-03-14,2024-03-14,京美株式会社,,株式会社,大阪府,大阪市都島区,片町２丁目７番５７－６０５号,,27,102,5340025,,,,,,,2024-03-14,1,,,,,キョウビ,0
1636,8120001263130,新規,0,2024-03-14,2024-03-14,ＸＰＥＮＧ株式会社,,株式会社,大阪府,大阪市中央区,島之内１丁目１１番２９－４０１号,,27,128,5420082,,,,,,,2024-03-14,1,,,,,エクスペング,0
1637,8120001263147,新規,0,2024-03-14,2024-03-14,株式会社ヤマト,,株式会社,大阪府,大阪市北区,梅田１丁目２番２号大阪駅前第２ビル１２－１２,,27,127,5300001,,,,,,,2024-03-14,1,,,,,ヤマト,0
1639,8120003026147,新規,0,2024-03-14,2024-03-14,りんインターナショナル合同会社,,合同会社,大阪府,大阪市東淀川区,西淡路１丁目１番９－６１４号室,,27,114,5330031,,,,,,,2024-03-14,1,,,,,リンインターナショナル,0
1642,8120901048878,新規,0,2024-03-14,2024-03-14,株式会社ＡＩＥＳ,,株式会社,大阪府,吹田市,佐竹台４丁目１番１０号,,27,205,5650855,,,,,,,2024-03-14,1,,,,,アイエス,0
1650,8130001076556,新規,0,2024-03-14,2024-03-14,錦泓芸苑株式会社,,株式会社,京都府,京都市上京区,西三本木通丸太町上る真町４８３アビ岡本３０２号室,,26,102,6020866,,,,,,,2024-03-14,1,,,,,キンオウゲイエン,0
1653,8130003009373,新規,0,2024-03-14,2024-03-14,合同会社ＳＳエンターテイメント,,合同会社,京都府,京都市右京区,梅ケ畑畑町８番地１,,26,108,6168265,,,,,,,2024-03-14,1,,,,,エスエスエンターテイメント,0
1657,8160003003134,新規,0,2024-03-14,2024-03-14,合同会社三楽,,合同会社,滋賀県,高島市,今津町中沼１丁目１番地７,,25,212,5201622,,,,,,,2024-03-14,1,,,,,サンゴウ,0
1661,8180001160495,新規,0,2024-03-14,2024-03-14,Ａｍａｔｅｒａｓ株式会社,,株式会社,愛知県,名古屋市中区,大須３丁目３１番地１８号一番館ビル４ＦＢ,,23,106,4600011,,,,,,,2024-03-14,1,,,,,アマテラス,0
1662,8180001160520,新規,0,2024-03-14,2024-03-14,株式会社Ｚｅｎ,,株式会社,愛知県,名古屋市中区,錦２丁目７番７号,,23,106,4600003,,,,,,,2024-03-14,1,,,,,ゼン,0
1666,8180301038409,新規,0,2024-03-14,2024-03-14,株式会社エステート板津,,株式会社,愛知県,安城市,美園町１丁目１４番地７,,23,212,4460076,,,,,,,2024-03-14,1,,,,,エステートイタツ,0
1675,8240001062917,新規,0,2024-03-14,2024-03-14,株式会社ＡＴＬＡＳ,,株式会社,広島県,東広島市,西条町寺家７７０７番地３,,34,212,7390041,,,,,,,2024-03-14,1,,,,,アトラス,0
1686,8290001104788,新規,0,2024-03-14,2024-03-14,ｕｓａｂｉｌｉｔｙ株式会社,,株式会社,福岡県,福岡市中央区,大名２丁目６番５０号福岡大名ガーデンシティ８Ｆ,,40,133,8100041,,,,,,,2024-03-14,1,,,,,ユーザビリティ,0
1694,8330001031846,新規,0,2024-03-14,2024-03-14,株式会社竹壱商事,,株式会社,熊本県,熊本市西区,島崎６丁目９番５号,,43,103,8600073,,,,,,,2024-03-14,1,,,,,タケイチショウジ,0
1697,8330003010261,新規,0,2024-03-14,2024-03-14,合同会社ＳＫＲ,,合同会社,熊本県,菊池郡菊陽町,大字津久礼１６番地１０,,43,404,8691101,,,,,,,2024-03-14,1,,,,,エスケイアール,0
1699,8340001026325,新規,0,2024-03-14,2024-03-14,インタッチサポート株式会社,,株式会社,鹿児島県,霧島市,隼人町松永３４７６番地２８,,46,218,8995112,,,,,,,2024-03-14,1,,,,,インタッチサポート,0
1700,8340001026358,新規,0,2024-03-14,2024-03-14,株式会社Ｍｉｓｈｍａｓｈ,,株式会社,鹿児島県,鹿児島市,荒田２丁目９番５号,,46,201,8900054,,,,,,,2024-03-14,1,,,,,ミッシュマッシュ,0
1709,8380003005711,新規,0,2024-03-14,2024-03-14,合同会社ＰＳ,,合同会社,福島県,南相馬市,原町区本町３丁目１７番地ツインハウス１０２,,07,212,9750008,,,,,,,2024-03-14,1,,,,,ピーエス,0
1713,8430001091277,新規,0,2024-03-14,2024-03-14,ｓｈｉｊｉｍｉ株式会社,,株式会社,北海道,札幌市西区,西野六条１０丁目２６－１,,01,107,0630036,,,,,,,2024-03-14,1,,,,,シジミ,0
1718,8430003016059,新規,0,2024-03-14,2024-03-14,合同会社Ｇｒｉｎ　Ｂｌｏｏｍ,,合同会社,北海道,札幌市北区,あいの里三条１丁目１７－１４,,01,102,0028073,,,,,,,2024-03-14,1,,,,,グリンブルーム,0
1725,8700150124454,新規,0,2024-03-14,2024-03-14,Ｎａｎｊｉｎｇｙｕｎｓｉｇｕｗａｎｇｌｕｏｊｉｓｈｕｙｏｕｘｉａｎｇｏｎｇｓｉ,,外国会社等,,,,,,,,２１０ｓｈｉ，ｚｈｏｎｇｋｅｃｈｕａｎｇｘｉｎｇｕａｎｇｃｈａｎｇ，１５０ｈａｏ，ｐｕｂｉｎｌｕ　ｊｉａｎｇｂｅｉｘｉｎｑｕ，ｎａｎｊｉｎｇｓｈｉ　ｎａｎｊｉｎｇ　ｊｉａｎｇｓｕ　ＣＮ,,,,,,2024-03-14,1,,,,,ナンジンユンシグワンロギジュツユウゲンコウシ,0
1726,8700150124462,新規,0,2024-03-14,2024-03-14,Ｓｈａｎｔｏｕ　Ｔｉａｎｙｉ　Ｉｎｔｅｌｌｉｇｅｎｔ　Ｔｅｃｈｎｏｌｏｇｙ　Ｃｏ．，Ｌｔｄ．,,外国会社等,,,,,,,,Ｌｉａｎｘｉａｚｈｅｎｇｏｕｎｅｉｃｕｎｚｈｏｎｇｘｉｎｇｌｕｚｈｏｎｇｄｕａｎ　Ｃｈｅｎｇｈａｉｑｕ　Ｓｈａｎｔｏｕｓｈｉ　Ｇｕａｎｇｄｏｎｇｓｈｅｎｇ　５１５８００　ＣＮ,,,,,,2024-03-14,1,,,,,シャントウシーティエンイージーノンコージーヨウシエンゴンスー,0
1742,9010005038035,新規,0,2024-03-14,2024-03-14,一般社団法人世界華裔連盟,,その他の設立登記法人,東京都,中央区,銀座６丁目６番１号銀座風月堂ビル５Ｆ,,13,102,1040061,,,,,,,2024-03-14,1,,,,,セカイカエンレンメイ,0
1746,9010401180984,新規,0,2024-03-14,2024-03-14,株式会社コングウーマン,,株式会社,東京都,港区,港南２丁目１６番１号品川イーストワンタワー４階,,13,103,1080075,,,,,,,2024-03-14,1,,,,,コングウーマン,0
1750,9010403032127,新規,0,2024-03-14,2024-03-14,ローカリゼーションガイ合同会社,,合同会社,東京都,港区,赤坂２丁目２３番１号アークヒルズ・フロントタワーＩｎＣｏｎｔｒｏｌ内,,13,103,1070052,,,,,,,2024-03-14,1,,,,,ローカリゼーションガイ,0
1751,9010403032143,新規,0,2024-03-14,2024-03-14,合同会社ａｓｔｒｕｍ,,合同会社,東京都,港区,南青山７丁目５番４－２０３号,,13,103,1070062,,,,,,,2024-03-14,1,,,,,アストルム,0
1754,9010601064806,新規,0,2024-03-14,2024-03-14,広豊株式会社,,株式会社,東京都,江東区,佐賀１丁目１６番３号２階Ｇ号室,,13,108,1350031,,,,,,,2024-03-14,1,,,,,ヒロトヨ,0
1757,9010801034848,新規,0,2024-03-14,2024-03-14,晋商事株式会社,,株式会社,東京都,大田区,西六郷３丁目２番１４－１０２２号,,13,111,1440056,,,,,,,2024-03-14,1,,,,,,0
1766,9011001160369,新規,0,2024-03-14,2024-03-14,株式会社ワンマーケティング,,株式会社,東京都,渋谷区,恵比寿１丁目１３番地６号恵比寿ＩＳビル５階,,13,113,1500013,,,,,,,2024-03-14,1,,,,,ワンマーケティング,0
1767,9011001160600,新規,0,2024-03-14,2024-03-14,株式会社ＬａｓｔＳｔｏｐＪａｐａｎ,,株式会社,東京都,渋谷区,南平台町２－８日興パレス南平台アヅマ＃５０１,,13,113,1500036,,,,,,,2024-03-14,1,,,,,ラストストップジャパン,0
1770,9011003018672,新規,0,2024-03-14,2024-03-14,合同会社経営サポート,,合同会社,東京都,渋谷区,渋谷２丁目１９－１５宮益坂ビルディング６０９,,13,113,1500002,,,,,,,2024-03-14,1,,,,,ケイエイサポート,0
1772,9011101106486,新規,0,2024-03-14,2024-03-14,株式会社ＡｃｔｉｏｎＥｄｇｅ,,株式会社,東京都,新宿区,百人町１丁目１－１３秀ビル３階３０１号室,,13,104,1690073,,,,,,,2024-03-14,1,,,,,アクションエッジ,0
1774,9011103014200,新規,0,2024-03-14,2024-03-14,ＴＯＳＨＩＥＩ合同会社,,合同会社,東京都,新宿区,歌舞伎町２丁目２５番８号２５７,,13,104,1600021,,,,,,,2024-03-14,1,,,,,トシエイ,0
1777,9011301029487,新規,0,2024-03-14,2024-03-14,株式会社むらさき,,株式会社,東京都,杉並区,高円寺南５丁目９番９号,,13,115,1660003,,,,,,,2024-03-14,1,,,,,ムラサキ,0
1780,9011401025923,新規,0,2024-03-14,2024-03-14,吉＿株式会社,00134061,株式会社,東京都,板橋区,坂下３丁目３４番２４号,,13,119,1740043,,,,,,,2024-03-14,1,,,,,ヨシテン,0
1783,9011405002282,新規,0,2024-03-14,2024-03-14,医療法人社団ＢＦＭＳ,,その他の設立登記法人,東京都,板橋区,若木１丁目１７番１７号佐古田ビル１階,,13,119,1740065,,,,,,,2024-03-14,1,,,,,ビーエフエムエス,0
1784,9011501030443,新規,0,2024-03-14,2024-03-14,ＳＹ総合株式会社,,株式会社,東京都,北区,滝野川３丁目９番２号西巣鴨ＫＴＢビル２０３号室,,13,117,1140023,,,,,,,2024-03-14,1,,,,,エスワイソウゴウ,0
1792,9012303001954,新規,0,2024-03-14,2024-03-14,合同会社ＢＬＩＳＳ,,合同会社,東京都,町田市,真光寺町１３３９番地２,,13,209,1950051,,,,,,,2024-03-14,1,,,,,ブリス,0
1794,9012703002932,新規,0,2024-03-14,2024-03-14,ＴｆｏｕｒＵ合同会社,,合同会社,東京都,西東京市,田無町１丁目２番３１－２０８号,,13,229,1880011,,,,,,,2024-03-14,1,,,,,ティーフォーユー,0
1803,9020001156194,新規,0,2024-03-14,2024-03-14,株式会社Ａｍａｚｉｎｇ　Ｌｕｘ,,株式会社,神奈川県,川崎市川崎区,榎町３番１５号榎町ビル２Ｆ,,14,131,2100002,,,,,,,2024-03-14,1,,,,,アメージングラックス,0
1810,9021001081696,新規,0,2024-03-14,2024-03-14,深石不動産株式会社,,株式会社,神奈川県,秦野市,曽屋１丁目７番５０号,,14,211,2570031,,,,,,,2024-03-14,1,,,,,フカイシフドウサン,0
1812,9021003014241,新規,0,2024-03-14,2024-03-14,Ａｌｐｈａ　Ｂｕｓｉｎｅｓｓ合同会社,,合同会社,神奈川県,鎌倉市,小袋谷２丁目２番２０号,,14,204,2470055,,,,,,,2024-03-14,1,,,,,アルファビジネス,0
1822,9040001132623,新規,0,2024-03-14,2024-03-14,オークビルド株式会社,,株式会社,千葉県,我孫子市,つくし野７丁目１６番１２号,,12,222,2701164,,,,,,,2024-03-14,1,,,,,オークビルド,0
1834,9060001036905,新規,0,2024-03-14,2024-03-14,株式会社ｉＭ,,株式会社,栃木県,宇都宮市,中央本町４番２３号,,09,201,3200805,,,,,,,2024-03-14,1,,,,,イム,0
1840,9080401027048,新規,0,2024-03-14,2024-03-14,株式会社リココ,,株式会社,静岡県,浜松市浜名区,中瀬５５０番地,,22,139,4340012,,,,,,,2024-03-14,1,,,,,リココ,0
1842,9090002015789,新規,0,2024-03-14,2024-03-14,有限会社スーパーキンバト,,有限会社,山梨県,甲府市,湯田１丁目２番３号,,19,201,4000864,,,,,,,2024-03-14,1,,,,,,0
1843,9090003002514,新規,0,2024-03-14,2024-03-14,伊豆八倶楽部合同会社,,合同会社,山梨県,北杜市,大泉町谷戸８７４１番地１３７８,,19,209,4091502,,,,,,,2024-03-14,1,,,,,イズヤクラブ,0
1844,9090005007619,新規,0,2024-03-14,2024-03-14,一般社団法人相続と空き家の相談所,,その他の設立登記法人,山梨県,甲府市,下飯田１丁目３番１７号,,19,201,4000064,,,,,,,2024-03-14,1,,,,,ソウゾクトアキヤノソウダンジョ,0
1845,9100001037279,新規,0,2024-03-14,2024-03-14,株式会社ＭＩＮＥ,,株式会社,長野県,長野市,上千歳町１３３７－１３宮本ビル１Ｆ,,20,201,3810000,,,,,,,2024-03-14,1,,,,,マイン,0
1855,9120001263039,新規,0,2024-03-14,2024-03-14,株式会社マグチ,,株式会社,大阪府,大阪市中央区,南船場２丁目１１番４－３０５号室,,27,128,5420081,,,,,,,2024-03-14,1,,,,,マグチ,0
1856,9120001263113,新規,0,2024-03-14,2024-03-14,株式会社カバーセキュリティ,,株式会社,大阪府,大阪市浪速区,恵美須西１丁目２番７号シティハイム不夜城４階４Ｆ,,27,111,5560003,,,,,,,2024-03-14,1,,,,,カバーセキュリティ,0
1857,9120001263121,新規,0,2024-03-14,2024-03-14,安安株式会社,,株式会社,大阪府,大阪市生野区,林寺４丁目３番１５－２０２号,,27,116,5440023,,,,,,,2024-03-14,1,,,,,アンアン,0
1859,9120003026121,新規,0,2024-03-14,2024-03-14,合同会社ケーワイソリューションズ,,合同会社,大阪府,大阪市淀川区,十三東１丁目１７番１３号水交ビル４階,,27,123,5320023,,,,,,,2024-03-14,1,,,,,ケーワイソリューションズ,0
1861,9120101069204,新規,0,2024-03-14,2024-03-14,株式会社Ｒｅｃｏｖｅｒｙ　Ｎｅｘｔ,,株式会社,大阪府,堺市東区,野尻町３３番地,,27,143,5998116,,,,,,,2024-03-14,1,,,,,リカバリーネクスト,0
1863,9120903005091,新規,0,2024-03-14,2024-03-14,合同会社ＬｉｇｈｔＡ,,合同会社,大阪府,豊中市,緑丘４丁目２９番７の２号,,27,203,5600002,,,,,,,2024-03-14,1,,,,,ライトエー,0
1865,9122003002829,新規,0,2024-03-14,2024-03-14,合同会社ヱビスリフォーム,,合同会社,大阪府,東大阪市,友井２丁目２７番６３号,,27,227,5770816,,,,,,,2024-03-14,1,,,,,エビスリフォーム,0
1876,9140001133660,新規,0,2024-03-14,2024-03-14,株式会社ｅｎ,,株式会社,兵庫県,神戸市中央区,磯上通８丁目１番２９号カサベラビルＣ＆Ｍ４０３号室,,28,110,6510086,,,,,,,2024-03-14,1,,,,,エン,0
1881,9150001027110,新規,0,2024-03-14,2024-03-14,大恊警備保障株式会社,,株式会社,奈良県,北葛城郡河合町,大字佐味田１２５番地,,29,427,6360062,,,,,,,2024-03-14,1,,,,,ダイキョウケイビホショウ,0
1882,9180001160494,新規,0,2024-03-14,2024-03-14,株式会社ワコウズ,,株式会社,愛知県,名古屋市南区,汐田町３番６号,,23,112,4570016,,,,,,,2024-03-14,1,,,,,ワコウズ,0
1883,9180001160528,新規,0,2024-03-14,2024-03-14,株式会社ＥＵＰＨＯＲＩＡ,,株式会社,愛知県,名古屋市中区,大須４丁目１番１８号セイジョウビル５Ｆ,,23,106,4600011,,,,,,,2024-03-14,1,,,,,ユーフォリア,0
1884,9180003026487,新規,0,2024-03-14,2024-03-14,合同会社徳洋ホーム,,合同会社,愛知県,尾張旭市,旭ケ丘町山の手１番地５６,,23,226,4880084,,,,,,,2024-03-14,1,,,,,トクヨウホーム,0
1887,9180301038408,新規,0,2024-03-14,2024-03-14,株式会社ＤＯ’Ｓ,,株式会社,愛知県,豊川市,御油町青木前１７番地の３,,23,207,4410211,,,,,,,2024-03-14,1,,,,,ドーズ,0
1888,9200001042244,新規,0,2024-03-14,2024-03-14,株式会社ＭＪファクトリー,,株式会社,岐阜県,羽島市,福寿町平方２丁目４６番地１,,21,209,5016257,,,,,,,2024-03-14,1,,,,,エムジェイファクトリー,0
1893,9240001062916,新規,0,2024-03-14,2024-03-14,株式会社イロハ,,株式会社,広島県,広島市中区,橋本町９番７号,,34,101,7300015,,,,,,,2024-03-14,1,,,,,イロハ,0
1898,9290001105050,新規,0,2024-03-14,2024-03-14,株式会社ＫｉｃｋＳｔａｒｔ　Ｊａｐａｎ,,株式会社,福岡県,福岡市中央区,大名１丁目３番４１号プリオ大名ビル２階,,40,133,8100041,,,,,,,2024-03-14,1,,,,,キックスタートジャパン,0
1900,9300003002087,新規,0,2024-03-14,2024-03-14,合同会社ギズマニア,,合同会社,佐賀県,杵島郡白石町,大字福富３５０６番地５,,41,425,8490401,,,,,,,2024-03-14,1,,,,,ギズマニア,0
1904,9330001031853,新規,0,2024-03-14,2024-03-14,株式会社上城工業,,株式会社,熊本県,菊池郡菊陽町,大字辛川２１６１番地１２,,43,404,8691107,,,,,,,2024-03-14,1,,,,,カミキコウギョウ,0
1906,9330003010260,新規,0,2024-03-14,2024-03-14,Ｋｍｓ’Ｈｏｍｅ合同会社,,合同会社,熊本県,熊本市東区,新南部３丁目５－５５,,43,102,8618028,,,,,,,2024-03-14,1,,,,,ケムズホーム,0
1908,9340001026357,新規,0,2024-03-14,2024-03-14,株式会社碧水産,,株式会社,鹿児島県,肝属郡南大隅町,佐多辺塚４５０番地４,00134055,46,491,8932602,,,,,,,2024-03-14,1,,,,,アオイスイサン,0
1920,9430003016058,新規,0,2024-03-14,2024-03-14,昇華合同会社,,合同会社,北海道,室蘭市,高砂町２丁目８番３号,,01,205,0500072,,,,,,,2024-03-14,1,,,,,ショウカ,0
1921,9430005014919,新規,0,2024-03-14,2024-03-14,特定非営利活動法人北海道中学校文化連盟,,その他の設立登記法人,北海道,北広島市,大曲緑ヶ丘５丁目１２番地１,,01,234,0611276,,,,,,,2024-03-14,1,,,,,ホッカイドウチュウガッコウブンカレンメイ,0
1923,9460001005877,新規,0,2024-03-14,2024-03-14,株式会社北海商運,,株式会社,北海道,釧路郡釧路町,河畔４丁目６６番地,,01,661,0882143,,,,,,,2024-03-14,1,,,,,ホッカイショウウン,0
1929,9500001025508,新規,0,2024-03-14,2024-03-14,颯設備工業株式会社,,株式会社,愛媛県,伊予郡松前町,大字北黒田５７８－８,,38,401,7913102,,,,,,,2024-03-14,1,,,,,ソウセツビコウギョウ,0
1932,9700150124453,新規,0,2024-03-14,2024-03-14,ＧｕａｎｇｚｈｏｕＺｅｋｅｌａｚｈｉｎｅｎｇｋｅｊｉｙｏｕｘｉａｎｇｏｎｇｓｉ,,外国会社等,,,,,,,,７１０，７ｔｈ　Ｆｌｏｏｒ，Ｂｕｉｌｄｉｎｇ　１，Ｎｏ．５１　Ｘｉａｎｇｓｈａｎ　Ａｖｅｎｕｅ，Ｎｉｎｇｘｉ　Ｓｔｒｅｅｔ，Ｚｅｎｇｃｈｅｎｇ　Ｄｉｓｔｒｉｃｔ，Ｇｕａｎｇｚｈｏｕ,,,,,,2024-03-14,1,,,,,コウシュウゼコラチノウカギユウゲンコウシ,0
1933,9700150124461,新規,0,2024-03-14,2024-03-14,ＰＩＳＣＥＳ　ＴＥＣＨＮＯＬＯＧＹ　ＣＯ．，ＬＩＭＩＴＥＤ,,外国会社等,,,,,,,,ＲＭ　５０９，５／Ｆ，ＴＨＥ　ＣＬＯＵＤ，１１１　ＴＵＮＧ　ＣＨＡＵ　ＳＴＲＥＥＴ　ＴＡＩ　ＫＯＫ　ＴＳＵＩ，ＫＯＷＬＯＯＮ　Ｈｏｎｇ　Ｋｏｎｇ　Ｈｏｎｇ　Ｋｏｎｇ　９９９０７７　ＨＫ,,,,,,2024-03-14,1,,,,,シュワンイーズオコージーヨウシエンゴンスー,0
