sequenceNumber,corporateNumber,process,correct,updateDate,changeDate,name,nameImageId,kind,prefectureName,cityName,streetNumber,addressImageId,prefectureCode,cityCode,postCode,addressOutside,addressOutsideImageId,closeDate,closeCause,successorCorporateNumber,changeCause,assignmentDate,latest,enName,enPrefectureName,enCityName,enAddressOutside,furigana,hihyoji
52,1011403001616,登記記録の閉鎖等,0,2022-03-29,2022-03-24,合同会社ミヤビテック,,合同会社,東京都,新宿区,新宿５丁目１８番２０号ルックハイツ新宿８０３号,,13,104,1600022,,,2022-03-24,清算の結了等,,,2015-10-05,1,,,,,ミヤビテック,0
58,1011703002495,登記記録の閉鎖等,0,2022-03-29,2022-03-25,合同会社クラウンサービス,,合同会社,東京都,東村山市,栄町２丁目２４番地４１グランデール久米川３０１,,13,213,1890013,,,2022-03-25,清算の結了等,,,2020-03-06,1,,,,,クラウンサービス,0
59,1011801017651,登記記録の閉鎖等,0,2022-03-29,2022-03-23,株式会社ハートランド,,株式会社,東京都,葛飾区,水元４丁目６番７号,,13,122,1250032,,,2022-03-23,清算の結了等,,,2015-10-05,1,,,,,ハートランド,0
65,1020001061550,登記記録の閉鎖等,0,2022-03-29,2022-03-25,株式会社プレッタ,,株式会社,神奈川県,横浜市港北区,新吉田町６０６１,,14,109,2230056,,,2022-03-25,清算の結了等,,,2015-10-05,1,,,,,プレッタ,0
113,1080101006111,登記記録の閉鎖等,0,2022-03-29,2022-03-28,日比通信機株式会社,,株式会社,静岡県,駿東郡長泉町,下土狩６８４番地,,22,342,4110943,,,2022-03-28,清算の結了等,,,2015-10-05,1,,,,,ヒビツウシンキ,0
134,1122001014825,登記記録の閉鎖等,0,2022-03-29,2022-03-28,株式会社ジュンコーポレーション,,株式会社,大阪府,東大阪市,稲田新町３丁目４番１１号,,27,227,5770004,,,2022-03-28,清算の結了等,,,2015-10-05,1,,,,,ジュンコーポレーション,0
136,1130001017228,登記記録の閉鎖等,0,2022-03-29,2022-03-25,光山石油株式会社,,株式会社,京都府,京都市右京区,西京極南衣手町６５番地,,26,108,6150872,,,2022-03-25,清算の結了等,,,2015-10-05,1,,,,,ミツヤマセキユ,0
145,1140002037868,登記記録の閉鎖等,0,2022-03-29,2022-03-22,有限会社はるや六興,,有限会社,兵庫県,加古郡稲美町,国岡３丁目６番地の６,,28,381,6751115,,,2022-03-22,清算の結了等,,,2015-10-05,1,,,,,ハルヤロッコウ,0
160,1180002091283,登記記録の閉鎖等,0,2022-03-29,2022-02-08,有限会社アーキホーム,,有限会社,愛知県,弥富市,東蜆２丁目８２番２,,23,235,4901425,,,2022-02-08,清算の結了等,,,2015-10-05,1,,,,,アーキホーム,0
166,1180302027508,登記記録の閉鎖等,0,2022-03-29,2022-03-28,有限会社アイエス,,有限会社,愛知県,西尾市,熊味町山畔１０３番地,,23,213,4450071,,,2022-03-28,清算の結了等,,,2015-10-05,1,,,,,アイエス,0
173,1200002022599,登記記録の閉鎖等,0,2022-03-29,2022-03-25,有限会社瑞浪地所,,有限会社,岐阜県,瑞浪市,稲津町小里１９２番地の４,,21,208,5096103,,,2022-03-25,清算の結了等,,,2015-10-05,1,,,,,ミズナミジショ,0
179,1240002037065,登記記録の閉鎖等,0,2022-03-29,2022-03-25,有限会社いしだ宝石,,有限会社,広島県,廿日市市,桜尾３丁目４番１６号,,34,213,7380004,,,2022-03-25,清算の結了等,,,2015-10-05,1,,,,,イシダホウセキ,0
182,1250002016019,登記記録の閉鎖等,0,2022-03-29,2022-03-23,有限会社大田屋,,有限会社,山口県,周南市,大字鹿野中８０２番地の３,,35,215,7450303,,,2022-03-23,清算の結了等,,,2015-10-05,1,,,,,オオタヤ,0
188,1260005004936,登記記録の閉鎖等,0,2022-03-29,2022-03-28,特定非営利活動法人岡山こども未来,,その他の設立登記法人,岡山県,総社市,駅前１丁目３番３６号,,33,208,7191136,,,2022-03-28,清算の結了等,,,2015-10-05,1,,,,,オカヤマコドモミライ,0
190,1280002004160,登記記録の閉鎖等,0,2022-03-29,2022-03-28,有限会社安田総合保険事務所,,有限会社,島根県,松江市,八幡町３６２番地１６,,32,201,6900025,,,2022-03-28,清算の結了等,,,2015-10-05,1,,,,,ヤスダソウゴウホケンジムショ,0
234,2010003031428,登記記録の閉鎖等,0,2022-03-29,2022-03-22,ＥＲＰ教育合同会社,,合同会社,東京都,千代田区,外神田６丁目１５番１１号,,13,101,1010021,,,2022-03-22,清算の結了等,,,2020-01-22,1,,,,,イーアールピーキョウイク,0
235,2010003032962,登記記録の閉鎖等,0,2022-03-29,2022-03-24,紀尾井町第一金融準備合同会社,,合同会社,東京都,千代田区,紀尾井町１番３号,,13,101,1020094,,,2022-03-24,清算の結了等,,,2020-09-04,1,,,,,キオイチョウダイイチキンユウジュンビ,0
240,2010401131556,登記記録の閉鎖等,0,2022-03-29,2022-03-28,株式会社あろい,,株式会社,東京都,台東区,浅草２丁目１１番１３号,,13,106,1110032,,,2022-03-28,清算の結了等,,,2017-05-22,1,,,,,アロイ,0
244,2010403019485,登記記録の閉鎖等,0,2022-03-29,2022-03-25,合同会社ＳＡＰＲ７,,合同会社,東京都,港区,虎ノ門５丁目１番４号,,13,103,1050001,,,2022-03-25,清算の結了等,,,2018-10-11,1,,,,,エスエーピーアールセブン,0
251,2010801015540,登記記録の閉鎖等,0,2022-03-29,2022-03-24,株式会社オフィスほおじろ,,株式会社,香川県,高松市,仏生山町甲２７１１番地５,,37,201,7618078,,,2022-03-24,清算の結了等,,,2015-10-05,1,,,,,オフィスホオジロ,0
293,2020001086084,登記記録の閉鎖等,0,2022-03-29,2022-03-25,株式会社ハイドロエナジー・アソシエイツ,,株式会社,神奈川県,横浜市青葉区,あざみ野３丁目２番地あざみ野団地５棟３０４号,,14,117,2250011,,,2022-03-25,清算の結了等,,,2015-10-05,1,,,,,ハイドロエナジーアソシエイツ,0
296,2020002087321,登記記録の閉鎖等,0,2022-03-29,2022-03-25,有限会社橋本商会,,有限会社,神奈川県,川崎市宮前区,菅生３丁目１６番６号,,14,136,2160015,,,2022-03-25,清算の結了等,,,2015-10-05,1,,,,,,0
331,2050002035921,登記記録の閉鎖等,0,2022-03-29,2022-03-24,有限会社鴨志田興業,,有限会社,茨城県,久慈郡大子町,大字内大野１２１２番地,,08,364,3193515,,,2022-03-24,清算の結了等,,,2015-10-05,1,,,,,カモシダコウギョウ,0
338,2080101003314,登記記録の閉鎖等,0,2022-03-29,2022-03-25,株式会社松栄,,株式会社,静岡県,沼津市,小諏訪９１８番地の６,,22,203,4100872,,,2022-03-25,清算の結了等,,,2015-10-05,1,,,,,ショウエイ,0
339,2080102012743,登記記録の閉鎖等,0,2022-03-29,2022-03-28,有限会社エム・プラテック,,有限会社,静岡県,三島市,松本３８３番地の２２,,22,206,4110822,,,2022-03-28,清算の結了等,,,2015-10-05,1,,,,,エムプラテック,0
341,2080401004326,登記記録の閉鎖等,0,2022-03-29,2022-03-25,株式会社花ネット,,株式会社,静岡県,浜松市東区,白鳥町５４３番地,,22,132,4350002,,,2022-03-25,清算の結了等,,,2015-10-05,1,,,,,ハナネット,0
351,2120001031740,登記記録の閉鎖等,0,2022-03-29,2022-03-24,株式会社ミユキ,,株式会社,大阪府,大阪市住之江区,東加賀屋１丁目７番２４号,,27,125,5590012,,,2022-03-24,清算の結了等,,,2015-10-05,1,,,,,ミユキ,0
365,2120905005187,登記記録の閉鎖等,0,2022-03-29,2022-03-28,一般社団法人マイナンバー推進協議会,,その他の設立登記法人,大阪府,吹田市,江坂町１丁目２３番３８号,,27,205,5640063,,,2022-03-28,清算の結了等,,,2015-10-05,1,,,,,マイナンバースイシンキョウギカイ,0
373,2140001084836,登記記録の閉鎖等,0,2022-03-29,2022-03-25,日本流通産業株式会社,,株式会社,兵庫県,洲本市,塩屋１丁目２番１５号,,28,205,6560021,,,2022-03-25,清算の結了等,,,2015-10-05,1,,,,,ニホンリュウツウサンギョウ,0
389,2180301005661,登記記録の閉鎖等,0,2022-03-29,2022-03-22,株式会社三宝堂印刷所,,株式会社,愛知県,豊橋市,下地町３丁目５番地２,,23,201,4400085,,,2022-03-22,清算の結了等,,,2015-10-05,1,,,,,サンポウドウインサツジョ,0
397,2200002023431,登記記録の閉鎖等,0,2022-03-29,2022-03-23,東美自動車有限会社,,有限会社,岐阜県,中津川市,茄子川２０７６番地の６８,,21,206,5099132,,,2022-03-23,清算の結了等,,,2015-10-05,1,,,,,トウミジドウシャ,0
411,2260002023649,登記記録の閉鎖等,0,2022-03-29,2022-03-25,有限会社ケー・ジー・エフ,,有限会社,岡山県,倉敷市,菰池２丁目９番２６号,,33,202,7110932,,,2022-03-25,清算の結了等,,,2015-10-05,1,,,,,ケージーエフ,0
415,2290002028141,登記記録の閉鎖等,0,2022-03-29,2022-03-25,有限会社アシュアランス・コア,,有限会社,福岡県,福岡市中央区,笹丘１丁目２３番２号２Ｆ,,40,133,8100034,,,2022-03-25,清算の結了等,,,2015-10-05,1,,,,,アシュアランスコア,0
424,2320002019260,登記記録の閉鎖等,0,2022-03-29,2022-03-25,有限会社ドライブイン松尾,,有限会社,大分県,日田市,大字西有田１５１番地の４,,44,204,8770000,,,2022-03-25,清算の結了等,,,2015-10-05,1,,,,,ドライブインマツオ,0
438,2380001010090,登記記録の閉鎖等,0,2022-03-29,2022-03-28,株式会社アイリー,,株式会社,福島県,西白河郡矢吹町,花咲１３６番地１,,07,466,9690285,,,2022-03-28,清算の結了等,,,2015-10-05,1,,,,,アイリー,0
452,2480001006038,登記記録の閉鎖等,0,2022-03-29,2022-03-28,株式会社スズラン,,株式会社,徳島県,吉野川市,鴨島町飯尾２６７番地１,,36,205,7760033,,,2022-03-28,清算の結了等,,,2015-10-05,1,,,,,スズラン,0
454,2500001022560,登記記録の閉鎖等,0,2022-03-29,2022-03-28,株式会社うまいもん市場,,株式会社,愛媛県,松山市,宮田町１０８番地９,,38,201,7900066,,,2022-03-28,清算の結了等,,,2020-03-06,1,,,,,ウマイモンイチバ,0
464,3010002006009,登記記録の閉鎖等,0,2022-03-29,2022-03-16,有限会社無眠舎,,有限会社,東京都,文京区,本郷２丁目３０番１４号,,13,105,1130033,,,2022-03-16,清算の結了等,,,2015-10-05,1,,,,,ムミンシャ,0
492,3010901007759,登記記録の閉鎖等,0,2022-03-29,2022-03-25,株式会社テクノシステム,,株式会社,東京都,世田谷区,喜多見９丁目２０番２６号,,13,112,1570067,,,2022-03-25,清算の結了等,,,2015-10-05,1,,,,,テクノシステム,0
519,3012302001003,登記記録の閉鎖等,0,2022-03-29,2022-03-22,有限会社オカダ,,有限会社,東京都,町田市,本町田３００６番地３０,,13,209,1940032,,,2022-03-22,清算の結了等,,,2015-10-05,1,,,,,オカダ,0
537,3021003007655,登記記録の閉鎖等,0,2022-03-29,2022-03-24,ブロックシャード合同会社,,合同会社,神奈川県,相模原市中央区,宮下本町３丁目４番６６号,,14,152,2520211,,,2022-03-24,清算の結了等,,,2018-07-19,1,,,,,ブロックシャード,0
545,3030002042893,登記記録の閉鎖等,0,2022-03-29,2022-03-25,ケーツー設備有限会社,,有限会社,埼玉県,久喜市,野久喜８３５番地の５,,11,232,3460002,,,2022-03-25,清算の結了等,,,2015-10-05,1,,,,,ケーツーセツビ,0
572,3080001002811,登記記録の閉鎖等,0,2022-03-29,2022-03-28,株式会社静岡食糧工業所,,株式会社,静岡県,藤枝市,若王子２丁目１２番４号,,22,214,4260014,,,2022-03-28,清算の結了等,,,2015-10-05,1,,,,,シズオカショクリョウコウギョウショ,0
596,3120005005112,登記記録の閉鎖等,0,2022-03-29,2022-03-17,医療法人小坂田医院,,その他の設立登記法人,大阪府,大阪市阿倍野区,昭和町３丁目７番２６号,,27,119,5450011,,,2022-03-17,清算の結了等,,,2015-10-05,1,,,,,コサカダイイン,0
599,3120101030278,登記記録の閉鎖等,0,2022-03-29,2022-03-25,株式会社レイン,,株式会社,大阪府,堺市中区,福田２７０番地４０,,27,142,5998241,,,2022-03-25,清算の結了等,,,2015-10-05,1,,,,,レイン,0
602,3120901006824,登記記録の閉鎖等,0,2022-03-29,2022-03-25,住建測地株式会社,,株式会社,大阪府,吹田市,山手町３丁目３５番１号,,27,205,5640073,,,2022-03-25,清算の結了等,,,2015-10-05,1,,,,,ジュウケンソクチ,0
621,3150001016259,登記記録の閉鎖等,0,2022-03-29,2022-03-25,株式会社フクカミ,,株式会社,奈良県,五條市,住川町１２９７番地,,29,207,6370014,,,2022-03-25,清算の結了等,,,2015-10-05,1,,,,,フクカミ,0
623,3160005008656,登記記録の閉鎖等,0,2022-03-29,2022-03-29,特定非営利活動法人楽しい家づくり研究会,,その他の設立登記法人,滋賀県,草津市,野村６丁目１０番１６号,,25,206,5250027,,,2022-03-29,清算の結了等,,,2015-10-05,1,,,,,タノシイイエヅクリケンキュウカイ,0
635,3180302014636,登記記録の閉鎖等,0,2022-03-29,2022-03-24,有限会社奥田総合保険事務所,,有限会社,愛知県,豊川市,下野川町２丁目２１番地の３,,23,207,4420877,,,2022-03-24,清算の結了等,,,2015-10-05,1,,,,,オクダソウゴウホケンジムショ,0
637,3190001018417,登記記録の閉鎖等,0,2022-03-29,2022-03-25,株式会社タカテツエンジニアリング,,株式会社,三重県,四日市市,別名１丁目１３番３０号,,24,202,5100007,,,2022-03-25,清算の結了等,,,2015-10-05,1,,,,,,0
644,3220001002367,登記記録の閉鎖等,0,2022-03-29,2022-03-25,木村科学器械株式会社,,株式会社,石川県,金沢市,石引４丁目２番１２号,,17,201,9200935,,,2022-03-25,清算の結了等,,,2015-10-05,1,,,,,キムラカガクキカイ,0
658,3300003001598,登記記録の閉鎖等,0,2022-03-29,2022-03-23,合同会社すずのいろ,,合同会社,佐賀県,神埼市,神埼町田道ヶ里２８７１番地１６,,41,210,8420002,,,2022-03-23,清算の結了等,,,2020-09-28,1,,,,,スズノイロ,0
659,3330001012363,登記記録の閉鎖等,0,2022-03-29,2022-03-25,大阿蘇観興株式会社,,株式会社,熊本県,阿蘇郡南小国町,大字満願寺６２５９番地,,43,423,8692402,,,2022-03-25,清算の結了等,,,2015-10-05,1,,,,,オオアソカンコウ,0
670,3370005002927,登記記録の閉鎖等,0,2022-03-29,2022-03-23,特定非営利活動法人セカンドフード,,その他の設立登記法人,宮城県,仙台市青葉区,荒巻神明町４番２号,,04,101,9810965,,,2022-03-23,清算の結了等,,,2015-10-05,1,,,,,セカンドフード,0
671,3370005003066,登記記録の閉鎖等,0,2022-03-29,2022-03-23,特定非営利活動法人アナザーライフ,,その他の設立登記法人,宮城県,仙台市青葉区,荒巻神明町４番２号,,04,101,9810965,,,2022-03-23,清算の結了等,,,2015-10-05,1,,,,,アナザーライフ,0
676,3400005000927,登記記録の閉鎖等,0,2022-03-29,2022-03-28,特定非営利活動法人岩手福祉会,,その他の設立登記法人,岩手県,盛岡市,黒石野２丁目２番１８号,,03,201,0200111,,,2022-03-28,清算の結了等,,,2015-10-05,1,,,,,イワテフクシカイ,0
693,4010001198093,登記記録の閉鎖等,0,2022-03-29,2022-03-24,株式会社ＴｏｐｏｓＷａｒｅ,,株式会社,東京都,文京区,目白台１丁目１５番９号サニーハイム目白台６０４号,,13,105,1120015,,,2022-03-24,合併による解散等,3011101096808,令和４年２月２３日東京都新宿区四谷四丁目２９番地１ＴｏｐｏｓＷａｒｅ　Ｊａｐａｎ株式会社（3011101096808）に合併し解散,2019-01-30,1,,,,,トポスウェア,0
718,4010601004741,登記記録の閉鎖等,0,2022-03-29,2022-03-24,館野鉄工株式会社,,株式会社,東京都,江東区,木場６丁目４番１３号,,13,108,1350042,,,2022-03-24,清算の結了等,,,2015-10-05,1,,,,,タテノテッコウ,0
733,4011105001218,登記記録の閉鎖等,0,2022-03-29,2022-03-09,興工事業協同組合,,その他の設立登記法人,東京都,渋谷区,千駄ヶ谷５丁目２７番１１号,,13,113,1510051,,,2022-03-09,清算の結了等,,,2015-10-05,1,,,,,コウコウ,0
738,4012402016858,登記記録の閉鎖等,0,2022-03-29,2022-03-25,有限会社佐竹工業,,有限会社,東京都,武蔵野市,境２丁目１０番２号,,13,203,1800022,,,2022-03-25,清算の結了等,,,2015-10-05,1,,,,,サタケコウギョウ,0
781,4070002009178,登記記録の閉鎖等,0,2022-03-29,2022-03-25,有限会社小川製作所,,有限会社,群馬県,高崎市,倉渕町三ノ倉１１８７番地,,10,202,3703402,,,2022-03-25,清算の結了等,,,2015-10-05,1,,,,,オガワセイサクショ,0
787,4100001032177,登記記録の閉鎖等,0,2022-03-29,2022-03-17,株式会社パステル,,株式会社,長野県,飯田市,松尾町３丁目１０番地１,,20,205,3950042,,,2022-03-17,清算の結了等,,,2019-05-08,1,,,,,パステル,0
812,4122005003251,登記記録の閉鎖等,0,2022-03-29,2022-03-25,特定非営利活動法人ＮＰＯサポート東大阪,,その他の設立登記法人,大阪府,東大阪市,吉田２丁目１番３８号,,27,227,5780924,,,2022-03-25,清算の結了等,,,2017-06-13,1,,,,,エヌピーオーサポートヒガシオオサカ,0
820,4140002044770,登記記録の閉鎖等,0,2022-03-29,2022-03-25,有限会社尼神サービス,,有限会社,兵庫県,尼崎市,七松町１丁目１２番１５号,,28,202,6600052,,,2022-03-25,清算の結了等,,,2015-10-05,1,,,,,アマシンサービス,0
863,4290001089364,登記記録の閉鎖等,0,2022-03-29,2022-03-25,株式会社エクステンションメディア,,株式会社,福岡県,福岡市博多区,須崎町１２番１７号ロイヤル須崎４０２号室,,40,132,8120028,,,2022-03-25,清算の結了等,,,2020-07-07,1,,,,,エクステンションメディア,0
867,4290802002228,登記記録の閉鎖等,0,2022-03-29,2022-03-23,有限会社玄海スレート,,有限会社,福岡県,北九州市小倉南区,蜷田若園２丁目２２番２８号,,40,107,8020814,,,2022-03-23,清算の結了等,,,2015-10-05,1,,,,,,0
874,4360001020684,登記記録の閉鎖等,0,2022-03-29,2022-03-22,トランスポート・サービス株式会社,,株式会社,沖縄県,中頭郡西原町,字小那覇１３２２番地３,,47,329,9030103,,,2022-03-22,合併による解散等,8360001008379,令和４年３月２１日沖縄県浦添市勢理客四丁目１５番１５号株式会社あんしん（8360001008379）に合併し解散,2016-04-08,1,,,,,トランスポートサービス,0
879,4380003004378,登記記録の閉鎖等,0,2022-03-29,2022-03-28,合同会社ディーアンドエイチ,,合同会社,福島県,耶麻郡西会津町,野沢字中野原甲４８９番地,,07,405,9694406,,,2022-03-28,清算の結了等,,,2018-12-07,1,,,,,ディーアンドエイチ,0
882,4390002015292,登記記録の閉鎖等,0,2022-03-29,2022-03-24,有限会社小国資源開発研究所,,有限会社,山形県,西置賜郡小国町,大字兵庫舘３丁目６番地６,,06,401,9991353,,,2022-03-24,清算の結了等,,,2015-10-05,1,,,,,オグニシゲンカイハツケンキュウジョ,0
892,5010001074525,登記記録の閉鎖等,0,2022-03-29,2022-03-25,株式会社アイシップコム,,株式会社,東京都,中央区,八丁堀３丁目１６番６号東八重洲プレイス４階,,13,102,1040032,,,2022-03-25,清算の結了等,,,2015-10-05,1,,,,,アイシップコム,0
896,5010001171917,登記記録の閉鎖等,0,2022-03-29,2022-03-24,株式会社エニー,,株式会社,東京都,千代田区,平河町２丁目５番３号ＮａｇａｔａｃｈｏＧＲＩＤ５階,,13,101,1020093,,,2022-03-24,清算の結了等,,,2015-11-25,1,,,,,エニー,0
921,5011101074299,登記記録の閉鎖等,0,2022-03-29,2022-03-22,Ｓｐａｒｋ４４　Ｊａｐａｎ株式会社,,株式会社,東京都,港区,赤坂２丁目２３番－１アークヒルズフロントタワーＲｏＰ８０６,,13,103,1070052,,,2022-03-22,清算の結了等,,,2015-10-05,1,,,,,スパークフォーティーフォージャパン,0
932,5011501026098,登記記録の閉鎖等,0,2022-03-29,2022-03-23,株式会社セカンドステージ,,株式会社,東京都,北区,赤羽１丁目５９－９北区創業支援施設ネスト赤羽２０８号,,13,117,1150045,,,2022-03-23,清算の結了等,,,2020-08-13,1,,,,,セカンドステージ,0
948,5012402015132,登記記録の閉鎖等,0,2022-03-29,2022-03-16,有限会社武蔵野真空技研,,有限会社,東京都,小金井市,緑町１丁目２番３４－３１５号,,13,210,1840003,,,2022-03-16,清算の結了等,,,2015-10-05,1,,,,,ムサシノシンクウギケン,0
955,5013301041541,登記記録の閉鎖等,0,2022-03-29,2022-03-22,株式会社ＴＦＧ,,株式会社,東京都,豊島区,池袋２丁目６２番１－６０４号,,13,116,1710014,,,2022-03-22,清算の結了等,,,2017-12-20,1,,,,,ティーエフジー,0
958,5020001044881,登記記録の閉鎖等,0,2022-03-29,2022-03-24,株式会社　Ｉ．Ｗ．ＴＫ,,株式会社,神奈川県,横浜市鶴見区,鶴見中央３丁目１番６号ダイアパレス鶴見第弐９１６号室,,14,101,2300051,,,2022-03-24,清算の結了等,,,2015-10-05,1,,,,,アイダブリュティケイ,0
991,5080002002131,登記記録の閉鎖等,0,2022-03-29,2022-03-25,有限会社サンエイライフ,,有限会社,静岡県,静岡市葵区,安東３丁目１１番３５号,,22,101,4200882,,,2022-03-25,清算の結了等,,,2015-10-05,1,,,,,サンエイライフ,0
992,5080102000679,登記記録の閉鎖等,0,2022-03-29,2022-03-25,有限会社大路,,有限会社,静岡県,富士宮市,淀師１２９２番地の２１,,22,207,4180051,,,2022-03-25,清算の結了等,,,2015-10-05,1,,,,,オオジ,0
994,5100001010165,登記記録の閉鎖等,0,2022-03-29,2022-03-24,ベルヴィ信州株式会社,,株式会社,長野県,上田市,常磐城３丁目６番３５号,,20,203,3860027,,,2022-03-24,合併による解散等,1100001009855,令和４年３月１日長野県上田市常磐城三丁目２２３６番地２株式会社信州さがみ典礼（1100001009855）に合併し解散,2015-10-05,1,,,,,ベルヴィシンシュウ,0
1017,5120903001425,登記記録の閉鎖等,0,2022-03-29,2022-03-17,合同会社リハビリｃｈ,,合同会社,大阪府,豊中市,服部元町２丁目５番１０号,,27,203,5610851,,,2022-03-17,清算の結了等,,,2015-10-05,1,,,,,リハビリシーエイチ,0
1026,5140002045875,登記記録の閉鎖等,0,2022-03-29,2022-03-25,有限会社朝日農事,,有限会社,兵庫県,豊岡市,下鶴井９８９番地,,28,209,6680803,,,2022-03-25,清算の結了等,,,2015-10-05,1,,,,,アサヒノウジ,0
1039,5180001133652,登記記録の閉鎖等,0,2022-03-29,2022-03-24,株式会社ＲＥ’ＭＡＲＫＥＴ,,株式会社,愛知県,名古屋市中区,栄３丁目１５番３３号栄ガスビル１３階,,23,106,4600008,,,2022-03-24,清算の結了等,,,2018-09-12,1,,,,,リマーケット,0
1054,5190003002061,登記記録の閉鎖等,0,2022-03-29,2022-03-28,合同会社しんらいネット,,合同会社,三重県,鈴鹿市,算所４丁目７番３号,,24,207,5130806,,,2022-03-28,清算の結了等,,,2015-10-05,1,,,,,シンライネット,0
1061,5240001022948,登記記録の閉鎖等,0,2022-03-29,2022-03-22,株式会社豊北ハウジング,,株式会社,広島県,東広島市,八本松町米満１０３６番地の２,,34,212,7390133,,,2022-03-22,清算の結了等,,,2015-10-05,1,,,,,トヨキタハウジング,0
1074,5290001089363,登記記録の閉鎖等,0,2022-03-29,2022-03-25,株式会社ラグジュアリーグローバル,,株式会社,福岡県,福岡市中央区,平尾１丁目８番２２号ロマネスク平尾第３－７０３号室,,40,133,8100014,,,2022-03-25,清算の結了等,,,2020-07-06,1,,,,,ラグジュアリーグローバル,0
1080,5310001012768,登記記録の閉鎖等,0,2022-03-29,2022-03-18,株式会社ふるっと,,株式会社,長崎県,松浦市,福島町塩浜免２１２４番地３,,42,208,8480403,,,2022-03-18,清算の結了等,,,2015-10-05,1,,,,,フルット,0
1081,5310005001239,登記記録の閉鎖等,0,2022-03-29,2022-03-28,医療法人社団寿豊会,,その他の設立登記法人,長崎県,長崎市,大井手町５６番地１,,42,201,8500024,,,2022-03-28,清算の結了等,,,2015-10-05,1,,,,,ジュホウカイ,0
1105,5470002013411,登記記録の閉鎖等,0,2022-03-29,2022-03-17,有限会社管理部宮本,,有限会社,香川県,仲多度郡まんのう町,岸上６９１番地２,,37,406,7660026,,,2022-03-17,清算の結了等,,,2015-10-05,1,,,,,カンリブミヤモト,0
1108,5500001015173,登記記録の閉鎖等,0,2022-03-29,2022-03-25,テックアクション株式会社,,株式会社,愛媛県,四国中央市,土居町入野７４２番地１,,38,213,7990712,,,2022-03-25,清算の結了等,,,2015-10-05,1,,,,,,0
1109,5500001018473,登記記録の閉鎖等,0,2022-03-29,2022-03-28,株式会社八百マート,,株式会社,愛媛県,松山市,針田町５２番地５,,38,201,7900055,,,2022-03-28,清算の結了等,,,2015-10-05,1,,,,,,0
1115,6010001160381,登記記録の閉鎖等,0,2022-03-29,2022-03-18,インボイスペイ株式会社,,株式会社,東京都,千代田区,岩本町３丁目３番３号,,13,101,1010032,,,2022-03-18,合併による解散等,6010601054545,令和４年３月１０日東京都中央区銀座一丁目２２番１１号銀座大竹ビジデンス２階スマートヘッジ株式会社（6010601054545）に合併し解散,2015-10-05,1,,,,,インボイスペイ,0
1140,6010703001420,登記記録の閉鎖等,0,2022-03-29,2022-03-25,合資会社恵作社,,合資会社,東京都,品川区,豊町５丁目１６番８号,,13,109,1420042,,,2022-03-25,清算の結了等,,,2015-10-05,1,,,,,ケイサクシャ,0
1161,6011701023448,登記記録の閉鎖等,0,2022-03-29,2022-03-24,ＭＩＣＳＡ　ＪＡＰＡＮ株式会社,,株式会社,東京都,江戸川区,松島３丁目１２番９号,,13,123,1320031,,,2022-03-24,清算の結了等,,,2020-04-24,1,,,,,ミクサジャパン,0
1163,6011801035525,登記記録の閉鎖等,0,2022-03-29,2022-03-24,株式会社イエチカドットコム,,株式会社,東京都,中央区,日本橋３丁目２番１５号ザ・レジデンス東京駅前タワー５０１１,,13,102,1030027,,,2022-03-24,清算の結了等,,,2018-12-14,1,,,,,イエチカドットコム,0
1175,6020001030253,登記記録の閉鎖等,0,2022-03-29,2022-03-24,高善不動産株式会社,,株式会社,神奈川県,横浜市保土ケ谷区,西久保町５４番地,,14,106,2400022,,,2022-03-24,清算の結了等,,,2015-10-05,1,,,,,タカゼンフドウサン,0
1176,6020001069309,登記記録の閉鎖等,0,2022-03-29,2022-03-24,株式会社サダ・コーポレーション,,株式会社,神奈川県,川崎市中原区,中丸子４６１番地,,14,133,2110012,,,2022-03-24,清算の結了等,,,2015-10-05,1,,,,,サダコーポレーション,0
1182,6020003020558,登記記録の閉鎖等,0,2022-03-29,2022-03-25,合同会社イチタスサン,,合同会社,神奈川県,川崎市高津区,末長１丁目３８番２０－３０７号,,14,134,2130013,,,2022-03-25,清算の結了等,,,2021-10-05,1,,,,,イチタスサン,0
1187,6030001053253,登記記録の閉鎖等,0,2022-03-29,2022-03-25,株式会社シー・シー・アール,,株式会社,埼玉県,北葛飾郡杉戸町,大字下高野２７５９番地１,,11,464,3450043,,,2022-03-25,清算の結了等,,,2015-10-05,1,,,,,シーシーアール,0
1216,6100002027364,登記記録の閉鎖等,0,2022-03-29,2022-03-28,有限会社駒の湯,,有限会社,長野県,木曽郡木曽町,福島４７番地の２,,20,432,3970001,,,2022-03-28,清算の結了等,,,2015-10-05,1,,,,,,0
1238,6120901026266,登記記録の閉鎖等,0,2022-03-29,2022-03-22,株式会社武市精工,,株式会社,大阪府,豊中市,勝部１丁目１番４６号,,27,203,5610894,,,2022-03-22,清算の結了等,,,2015-10-05,1,,,,,タケイチセイコウ,0
1240,6122002016601,登記記録の閉鎖等,0,2022-03-29,2022-03-28,有限会社レトロジャパン,,有限会社,大阪府,八尾市,安中町２丁目２番１号,,27,212,5810085,,,2022-03-28,清算の結了等,,,2015-10-05,1,,,,,,0
1243,6130001042295,登記記録の閉鎖等,0,2022-03-29,2022-03-28,株式会社なかじま接骨院,,株式会社,京都府,京都市伏見区,醍醐下山口町１番地３,,26,109,6011343,,,2022-03-28,清算の結了等,,,2015-10-05,1,,,,,ナカジマセッコツイン,0
1250,6140001047541,登記記録の閉鎖等,0,2022-03-29,2022-03-25,尼信情報システム株式会社,,株式会社,兵庫県,尼崎市,昭和通２丁目４番１６号,,28,202,6600881,,,2022-03-25,清算の結了等,,,2015-10-05,1,,,,,アマシンジョウホウシステム,0
1254,6140002003403,登記記録の閉鎖等,0,2022-03-29,2022-03-25,有限会社谷川商会,,有限会社,兵庫県,神戸市灘区,水道筋２丁目６番地,,28,102,6570831,,,2022-03-25,清算の結了等,,,2015-10-05,1,,,,,タニガワショウカイ,0
1256,6140005024990,登記記録の閉鎖等,0,2022-03-29,2022-03-23,一般社団法人日本チョークアート普及協会,,その他の設立登記法人,兵庫県,神戸市中央区,港島中町６丁目１４番地ポートピアプラザＢ棟１８０２号,,28,110,6500046,,,2022-03-23,清算の結了等,,,2020-01-27,1,,,,,ニホンチョークアートフキュウキョウカイ,0
1257,6150001002842,登記記録の閉鎖等,0,2022-03-29,2022-03-28,株式会社ティーアイ,,株式会社,奈良県,奈良市,六条西６丁目１１番５号,,29,201,6308044,,,2022-03-28,清算の結了等,,,2015-10-05,1,,,,,,0
1282,6230002014507,登記記録の閉鎖等,0,2022-03-29,2022-03-24,有限会社山城陸送,,有限会社,富山県,射水市,小杉白石８８番地,,16,211,9390304,,,2022-03-24,清算の結了等,,,2015-10-05,1,,,,,,0
1295,6320005002508,登記記録の閉鎖等,0,2022-03-29,2022-03-28,企業組合Ｌｕｐｉｎｕｓ,,その他の設立登記法人,大分県,大分市,牧３丁目５番８号（エレガンスハイツみやび１０１）,,44,201,8700924,,,2022-03-28,清算の結了等,,,2015-10-05,1,,,,,ルピナス,0
1306,6370005003856,登記記録の閉鎖等,0,2022-03-29,2022-03-23,特定非営利活動法人あおぞら,,その他の設立登記法人,宮城県,仙台市青葉区,荒巻神明町４番２号,,04,101,9810965,,,2022-03-23,清算の結了等,,,2015-10-05,1,,,,,アオゾラ,0
1313,6390005005487,登記記録の閉鎖等,0,2022-03-29,2022-03-22,医療法人若狭眼科,,その他の設立登記法人,山形県,新庄市,金沢２８８２番地の１,,06,205,9960002,,,2022-03-22,清算の結了等,,,2015-10-05,1,,,,,ワカサガンカ,0
1314,6410001012006,登記記録の閉鎖等,0,2022-03-29,2022-03-18,株式会社クリーン・スペース,,株式会社,秋田県,能代市,字高塙５８番地４,,05,202,0160184,,,2022-03-18,合併による解散等,5410002011032,令和４年３月１８日秋田県能代市二ツ井町字下野家後９５番地１９株式会社まつかさ園（5410002011032）に合併し解散,2018-11-02,1,,,,,クリーンスペース,0
1338,7010005001127,登記記録の閉鎖等,0,2022-03-29,2022-03-25,日鉄日新製鋼労働組合,,その他の設立登記法人,東京都,中央区,八丁堀４丁目１１番５号,,13,102,1040032,,,2022-03-25,清算の結了等,,,2015-10-05,1,,,,,ニッテツニッシンセイコウ,0
1358,7010501047796,登記記録の閉鎖等,0,2022-03-29,2022-03-28,株式会社クラウド塾,,株式会社,東京都,台東区,台東２丁目２７番３号,,13,106,1100016,,,2022-03-28,清算の結了等,,,2021-09-03,1,,,,,クラウドジュク,0
1372,7011001129317,登記記録の閉鎖等,0,2022-03-29,2022-03-17,株式会社ＭＯＺＥＮ,,株式会社,東京都,目黒区,目黒本町２丁目１７－３サンライズ目黒１１０,,13,110,1520002,,,2022-03-17,清算の結了等,,,2019-08-07,1,,,,,モーゼン,0
1377,7011002028261,登記記録の閉鎖等,0,2022-03-29,2022-03-24,有限会社宮益坂ビルディング・ホールディングス,,有限会社,神奈川県,川崎市中原区,小杉町１丁目５４７番地,,14,133,2110063,,,2022-03-24,清算の結了等,,,2015-10-05,1,,,,,ミヤマスザカビルディングホールディングス,0
1384,7011301005110,登記記録の閉鎖等,0,2022-03-29,2022-03-24,株式会社東發,,株式会社,東京都,杉並区,阿佐谷南３丁目４１番３号,,13,115,1660004,,,2022-03-24,清算の結了等,,,2015-10-05,1,,,,,トウハツ,0
1387,7011402009175,登記記録の閉鎖等,0,2022-03-29,2022-03-25,有限会社山田精機工業,,有限会社,東京都,板橋区,中台１丁目２番６号,,13,119,1740064,,,2022-03-25,清算の結了等,,,2015-10-05,1,,,,,ヤマダセイキコウギョウ,0
1426,7030001113345,登記記録の閉鎖等,0,2022-03-29,2022-03-22,株式会社ＨＯＳＵＮＧ,,株式会社,埼玉県,さいたま市桜区,中島２丁目２０番１－８０１号,,11,106,3380822,,,2022-03-22,清算の結了等,,,2016-03-17,1,,,,,ホスン,0
1454,7110001025524,登記記録の閉鎖等,0,2022-03-29,2022-03-24,株式会社米平商店,,株式会社,新潟県,小千谷市,元町５番１１号,,15,208,9470022,,,2022-03-24,清算の結了等,,,2015-10-05,1,,,,,ヨネヘイショウテン,0
1521,7340001011996,登記記録の閉鎖等,0,2022-03-29,2022-03-11,大山測量設計株式会社,,株式会社,鹿児島県,阿久根市,赤瀬川３５０８番地,,46,206,8991611,,,2022-03-11,清算の結了等,,,2015-10-05,1,,,,,オオヤマソクリョウセッケイ,0
1524,7360001022736,登記記録の閉鎖等,0,2022-03-29,2022-03-25,株式会社アントレット,,株式会社,沖縄県,豊見城市,字豊崎１番地８０５,,47,212,9010225,,,2022-03-25,清算の結了等,,,2017-08-07,1,,,,,アントレット,0
1551,8010401079311,登記記録の閉鎖等,0,2022-03-29,2022-03-22,ジェイバイオロジックス株式会社,,株式会社,東京都,港区,海岸１丁目１番１号,,13,103,1050022,,,2022-03-22,清算の結了等,,,2015-10-05,1,,,,,ジェイバイオロジックス,0
1557,8010401149279,登記記録の閉鎖等,0,2022-03-29,2022-03-22,株式会社ＪＰ　Ｌｉｎｋ　Ｉｎｔｅｒｎａｔｉｏｎａｌ,,株式会社,東京都,千代田区,神田多町２丁目４－１６傘長ビル２／Ｆ,,13,101,1010046,,,2022-03-22,清算の結了等,,,2019-11-19,1,,,,,ジェーピーリンクインターナショナル,0
1565,8010501028713,登記記録の閉鎖等,0,2022-03-29,2022-03-28,株式会社スズヒロ,,株式会社,東京都,台東区,日本堤２丁目３３番３号,,13,106,1110021,,,2022-03-28,清算の結了等,,,2015-10-05,1,,,,,スズヒロ,0
1587,8011401018523,登記記録の閉鎖等,0,2022-03-29,2022-03-25,城北建設株式会社,,株式会社,東京都,板橋区,蓮根２丁目８番１１号,,13,119,1740046,,,2022-03-25,清算の結了等,,,2015-10-05,1,,,,,ジョウホクケンセツ,0
1594,8012301006139,登記記録の閉鎖等,0,2022-03-29,2022-03-22,株式会社地盤技術,,株式会社,東京都,町田市,金井８丁目３４番４号,,13,209,1950072,,,2022-03-22,清算の結了等,,,2015-10-05,1,,,,,ジバンギジュツ,0
1598,8012801017338,登記記録の閉鎖等,0,2022-03-29,2022-03-15,株式会社ＡＭＮソリューション,,株式会社,東京都,日野市,平山６丁目１９番地の２,,13,212,1910043,,,2022-03-15,合併による解散等,9012801004467,令和４年２月２８日東京都立川市錦町二丁目６番３号朝日立川ビル３階株式会社朝日メディアネットワーク（9012801004467）に合併し解散,2016-06-24,1,,,,,エーエムエヌソリューション,0
1604,8020001070371,登記記録の閉鎖等,0,2022-03-29,2022-03-25,株式会社ユキ電子工業,,株式会社,神奈川県,川崎市中原区,新丸子町７２９番地,,14,133,2110005,,,2022-03-25,清算の結了等,,,2015-10-05,1,,,,,ユキデンシコウギョウ,0
1610,8020003015861,登記記録の閉鎖等,0,2022-03-29,2022-03-25,合同会社アッパースタート,,合同会社,神奈川県,横浜市南区,万世町１丁目１７番地７ピュアハイム本田７０２,,14,105,2320032,,,2022-03-25,清算の結了等,,,2019-04-08,1,,,,,アッパースタート,0
1637,8080003001402,登記記録の閉鎖等,0,2022-03-29,2022-03-28,片山合同会社,,合同会社,静岡県,焼津市,三ケ名１０５２番地の１,,22,212,4250071,,,2022-03-28,清算の結了等,,,2015-10-05,1,,,,,カタヤマ,0
1669,8120902014169,登記記録の閉鎖等,0,2022-03-29,2022-03-25,有限会社アイ・エル・エス,,有限会社,大阪府,吹田市,豊津町２番２４号,,27,205,5640051,,,2022-03-25,清算の結了等,,,2015-10-05,1,,,,,アイエルエス,0
1682,8150002004118,登記記録の閉鎖等,0,2022-03-29,2022-03-25,大和興業有限会社,,有限会社,奈良県,生駒市,軽井沢町５番５７号,,29,209,6300265,,,2022-03-25,清算の結了等,,,2015-10-05,1,,,,,ダイワコウギョウ,0
1705,8190002019392,登記記録の閉鎖等,0,2022-03-29,2022-03-28,有限会社エー・エス・エル,,有限会社,三重県,四日市市,小古曽東２丁目３番１３号,,24,202,5100951,,,2022-03-28,清算の結了等,,,2015-10-05,1,,,,,エーエスエル,0
1712,8240002017259,登記記録の閉鎖等,0,2022-03-29,2022-03-28,ヤマダ産業有限会社,,有限会社,広島県,広島市東区,光町２丁目５番１７号,,34,102,7320052,,,2022-03-28,清算の結了等,,,2015-10-05,1,,,,,ヤマダサンギョウ,0
1731,8360001021654,登記記録の閉鎖等,0,2022-03-29,2022-03-22,株式会社ＡＢサポート,,株式会社,沖縄県,浦添市,西洲２丁目７番地４,,47,208,9012123,,,2022-03-22,合併による解散等,8360001008379,令和４年３月２１日沖縄県浦添市勢理客四丁目１５番１５号株式会社あんしん（8360001008379）に合併し解散,2016-12-09,1,,,,,エービーサポート,0
1752,8450002012957,登記記録の閉鎖等,0,2022-03-29,2022-03-28,有限会社マルト水産,,有限会社,北海道,紋別郡興部町,字沙留４５２番地の１,,01,561,0981941,,,2022-03-28,清算の結了等,,,2015-10-05,1,,,,,マルトスイサン,0
1756,8470001012469,登記記録の閉鎖等,0,2022-03-29,2022-03-25,株式会社オリーブライン,,株式会社,香川県,小豆郡土庄町,上庄１３６７番地１,,37,322,7614122,,,2022-03-25,清算の結了等,,,2015-10-05,1,,,,,オリーブライン,0
1760,8500002017364,登記記録の閉鎖等,0,2022-03-29,2022-03-28,有限会社米谷電気商会,,有限会社,愛媛県,新居浜市,松木町１番１５号,,38,205,7920829,,,2022-03-28,清算の結了等,,,2015-10-05,1,,,,,,0
1799,9011101003304,登記記録の閉鎖等,0,2022-03-29,2022-03-22,エヌ・ティ・ティ・システム技研株式会社,,株式会社,東京都,豊島区,目白２丁目１６番２０号,,13,116,1710031,,,2022-03-22,清算の結了等,,,2015-10-05,1,,,,,エヌティティシステムギケン,0
1817,9013301022348,登記記録の閉鎖等,0,2022-03-29,2022-03-22,株式会社ミニミニ中央,,株式会社,東京都,豊島区,西池袋１丁目１９番１号,,13,116,1710021,,,2022-03-22,清算の結了等,,,2015-10-05,1,,,,,ミニミニチュウオウ,0
1822,9020001098255,登記記録の閉鎖等,0,2022-03-29,2022-03-25,株式会社ココン,,株式会社,神奈川県,横浜市金沢区,瀬戸７番１９号,,14,108,2360027,,,2022-03-25,清算の結了等,,,2015-10-05,1,,,,,ココン,0
1835,9021005004141,登記記録の閉鎖等,0,2022-03-29,2022-03-17,一般社団法人伯伊共済会厚木,,その他の設立登記法人,神奈川県,厚木市,旭町１丁目２２番２３号,,14,212,2430014,,,2022-03-17,清算の結了等,,,2015-10-05,1,,,,,ハクイキョウサイカイアツギ,0
1854,9070001001081,登記記録の閉鎖等,0,2022-03-29,2022-03-25,株式会社久保塗装,,株式会社,群馬県,前橋市,三俣町１丁目３５番地５,,10,201,3710018,,,2022-03-25,清算の結了等,,,2015-10-05,1,,,,,クボトソウ,0
1855,9070002006328,登記記録の閉鎖等,0,2022-03-29,2022-03-28,有限会社サンユウ商会,,有限会社,群馬県,前橋市,六供町４６４番地の５,,10,201,3710804,,,2022-03-28,清算の結了等,,,2015-10-05,1,,,,,サンユウショウカイ,0
1858,9080101005923,登記記録の閉鎖等,0,2022-03-29,2022-03-28,株式会社テクエイト,,株式会社,静岡県,伊豆の国市,三福５３４番地の２,,22,225,4102321,,,2022-03-28,清算の結了等,,,2015-10-05,1,,,,,テクエイト,0
1859,9080101012143,登記記録の閉鎖等,0,2022-03-29,2022-03-25,株式会社富士ガーデンファーム,,株式会社,静岡県,富士宮市,北山鞍骨澤７４３０番地６５９,,22,207,4180112,,,2022-03-25,清算の結了等,,,2015-10-05,1,,,,,フジガーデンファーム,0
1894,9160001003432,登記記録の閉鎖等,0,2022-03-29,2022-03-28,株式会社みどり配食サービス,,株式会社,滋賀県,大津市,瀬田２丁目１０番３号,,25,201,5202134,,,2022-03-28,清算の結了等,,,2015-10-05,1,,,,,,0
1911,9200001019390,登記記録の閉鎖等,0,2022-03-29,2022-03-25,株式会社豊八刃物製作所,,株式会社,岐阜県,関市,下有知３２１０番地,,21,205,5013217,,,2022-03-25,清算の結了等,,,2015-10-05,1,,,,,トヨハチハモノセイサクショ,0
1914,9200003003913,登記記録の閉鎖等,0,2022-03-29,2022-03-25,合同会社ＯＫＹ,,合同会社,岐阜県,各務原市,蘇原島崎町４丁目１５４番地,,21,213,5040856,,,2022-03-25,清算の結了等,,,2017-01-10,1,,,,,オーケーワイ,0
1922,9250001004289,登記記録の閉鎖等,0,2022-03-29,2022-03-25,コンビニエンスストアー株式会社タケオカ,,株式会社,山口県,美祢市,伊佐町伊佐３９４２番地の９,,35,213,7592222,,,2022-03-25,清算の結了等,,,2015-10-05,1,,,,,コンビニエンスストアータケオカ,0
1925,9250002016944,登記記録の閉鎖等,0,2022-03-29,2022-03-23,光栄砂利有限会社,,有限会社,山口県,光市,浅江６丁目１８番５８号,,35,210,7430021,,,2022-03-23,清算の結了等,,,2015-10-05,1,,,,,コウエイジャリ,0
1926,9250002019526,登記記録の閉鎖等,0,2022-03-29,2022-03-25,有限会社平地,,有限会社,山口県,岩国市,錦見８丁目９番５－４０１号,,35,208,7410061,,,2022-03-25,清算の結了等,,,2015-10-05,1,,,,,ヒラチ,0
1936,9290001035826,登記記録の閉鎖等,0,2022-03-29,2022-03-24,柳瀬真澄建築設計工房株式会社,,株式会社,福岡県,福岡市中央区,桜坂１丁目１４番１２号,,40,133,8100024,,,2022-03-24,清算の結了等,,,2015-10-05,1,,,,,ヤナセマスミケンチクセッケイコウボウ,0
1938,9290001096777,登記記録の閉鎖等,0,2022-03-29,2022-03-25,九州東芝ハウジング株式会社,,株式会社,福岡県,福岡市中央区,長浜２丁目４番１号,,40,133,8100072,,,2022-03-25,清算の結了等,,,2022-03-22,1,,,,,キュウシュウトウシバハウジング,0
1941,9290005011014,登記記録の閉鎖等,0,2022-03-29,2022-03-25,ＮＰＯ法人八女ベーゼンドルファー音楽祭プロジェクト,,その他の設立登記法人,福岡県,八女市,本町１６４番地,,40,210,8340031,,,2022-03-25,清算の結了等,,,2015-10-05,1,,,,,ヤメベーゼンドルファーオンガクサイプロジェクト,0
1944,9290801025596,登記記録の閉鎖等,0,2022-03-29,2022-03-25,株式会社ＫＭ工業,,株式会社,福岡県,田川郡大任町,大字今任原３４７０番地１,,40,608,8240511,,,2022-03-25,清算の結了等,,,2019-06-06,1,,,,,ケイエムコウギョウ,0
1954,9380005010279,登記記録の閉鎖等,0,2022-03-29,2022-03-24,特定非営利活動法人農業１０次化プロジェクト・いわき,,その他の設立登記法人,福島県,いわき市,小名浜西君ケ塚町１番地の７サンデュエル小名浜９０５,,07,204,9718167,,,2022-03-24,清算の結了等,,,2015-10-05,1,,,,,ノウギョウジュウジカプロジェクトイワキ,0
