sequenceNumber,corporateNumber,process,correct,updateDate,changeDate,name,nameImageId,kind,prefectureName,cityName,streetNumber,addressImageId,prefectureCode,cityCode,postCode,addressOutside,addressOutsideImageId,closeDate,closeCause,successorCorporateNumber,changeCause,assignmentDate,latest,enName,enPrefectureName,enCityName,enAddressOutside,furigana,hihyoji
4,1010001250352,新規,0,2024-12-02,2024-12-02,株式会社ＣＸＪ,,株式会社,東京都,千代田区,外神田３丁目１３番８号,,13,101,1010021,,,,,,,2024-12-02,1,,,,,シーエックスジェイ,0
7,1010003045676,新規,0,2024-12-02,2024-12-02,合同会社ｕｈｕｈｕ,,合同会社,東京都,文京区,本郷３丁目３２番地４号アトラス本郷三丁目５０１,,13,105,1130033,,,,,,,2024-12-02,1,,,,,ウフフ,0
13,1010401186733,新規,0,2024-12-02,2024-12-02,株式会社ＡｎｇｅＸ,,株式会社,東京都,港区,北青山１丁目３番１号アルキューブ青山３階,,13,103,1070061,,,,,,,2024-12-02,1,,,,,アンジェックス,0
14,1010401186782,新規,0,2024-12-02,2024-12-02,株式会社ＡＬＯ,,株式会社,東京都,港区,芝３丁目２６－８暁星ビル４０１,,13,103,1050014,,,,,,,2024-12-02,1,,,,,アロ,0
16,1010701046918,新規,0,2024-12-02,2024-12-02,パンダＡＩ株式会社,,株式会社,東京都,品川区,東品川４丁目１２番８号,,13,109,1400002,,,,,,,2024-12-02,1,,,,,パンダエーアイ,0
17,1010701046926,新規,0,2024-12-02,2024-12-02,株式会社オムニローグ,,株式会社,東京都,品川区,上大崎１丁目３番１１号,,13,109,1410021,,,,,,,2024-12-02,1,,,,,オムニローグ,0
22,1010901056428,新規,0,2024-12-02,2024-12-02,株式会社１．６１８,,株式会社,東京都,世田谷区,下馬３丁目３９番３－１０２号,,13,112,1540002,,,,,,,2024-12-02,1,,,,,イチロクイチハチ,0
32,1011001166209,新規,0,2024-12-02,2024-12-02,フラグメント株式会社,,株式会社,東京都,渋谷区,道玄坂１丁目１０番８号渋谷道玄坂東急ビル２Ｆ－Ｃ,,13,113,1500043,,,,,,,2024-12-02,1,,,,,フラグメント,0
39,1011101109744,新規,0,2024-12-02,2024-12-02,日本ｓｔａｒｆａｎｓ株式会社,,株式会社,東京都,新宿区,西新宿６丁目１２番１号西新宿パークウエストビル,,13,104,1600023,,,,,,,2024-12-02,1,,,,,ニホンスターファンズ,0
43,1011103015239,新規,0,2024-12-02,2024-12-02,合同会社ＳＰＶ０４,,合同会社,東京都,新宿区,四谷２丁目９番地１５東京ユナイテッド綜合事務所内,,13,104,1600004,,,,,,,2024-12-02,1,,,,,エスピーブイゼロヨン,0
46,1011503006317,新規,0,2024-12-02,2024-12-02,Ｙｅｌｌｏｗ　Ｌｉｎｅ合同会社,,合同会社,東京都,北区,上十条５丁目３４－６第二ヒルズハウス２０１号,,13,117,1140034,,,,,,,2024-12-02,1,,,,,イエローライン,0
48,1011603004534,新規,0,2024-12-02,2024-12-02,ＡＳ　ＢＡＳＩＣ合同会社,,合同会社,東京都,練馬区,高松１丁目３７番２３号,,13,120,1790075,,,,,,,2024-12-02,1,,,,,アズベーシック,0
49,1011605002619,新規,0,2024-12-02,2024-12-02,一般社団法人ユニバーサルウェディング協会,,その他の設立登記法人,東京都,練馬区,大泉町４丁目２５番１１号,,13,120,1780062,,,,,,,2024-12-02,1,,,,,ユニバーサルウェディングキョウカイ,0
58,1012401042528,新規,0,2024-12-02,2024-12-02,株式会社アサカ建装,,株式会社,東京都,稲城市,矢野口５４２番地の１５,,13,225,2060812,,,,,,,2024-12-02,1,,,,,アサカケンソウ,0
70,1020001160377,新規,0,2024-12-02,2024-12-02,サイコロジカル・ディタッチメント株式会社,,株式会社,神奈川県,横浜市神奈川区,金港町５－１４クアドリフォリオ８階,,14,102,2210056,,,,,,,2024-12-02,1,,,,,サイコロジカルディタッチメント,0
71,1020001160385,新規,0,2024-12-02,2024-12-02,株式会社ＮＥＷＴＥＣ,,株式会社,神奈川県,横浜市瀬谷区,阿久和西３丁目５１番地１,,14,114,2460025,,,,,,,2024-12-02,1,,,,,ニューテック,0
72,1020001160419,新規,0,2024-12-02,2024-12-02,株式会社フレンドホーム,,株式会社,神奈川県,横浜市保土ケ谷区,星川２丁目３番１４号,,14,106,2400006,,,,,,,2024-12-02,1,,,,,フレンドホーム,0
77,1020003027343,新規,0,2024-12-02,2024-12-02,合同会社ＨａｍａＫａｂｏｓｕ,,合同会社,神奈川県,横浜市中区,末吉町３丁目４２番地クリオ阪東橋６０２号室,,14,104,2310055,,,,,,,2024-12-02,1,,,,,ハマカボス,0
78,1020003027368,新規,0,2024-12-02,2024-12-02,合同会社ライフツリー,,合同会社,神奈川県,川崎市幸区,塚越２丁目２２８番地２９リュミエール１Ｆ,,14,132,2120024,,,,,,,2024-12-02,1,,,,,ライフツリー,0
80,1021005013232,新規,0,2024-12-02,2024-12-02,医療法人みやび,,その他の設立登記法人,神奈川県,平塚市,宝町５番２２号昭和ビル３階,,14,203,2540034,,,,,,,2024-12-02,1,,,,,ミヤビ,0
90,1030001163701,新規,0,2024-12-02,2024-12-02,Ｎ‐Ｌｏｇｉｓｔｉｃｓ株式会社,,株式会社,埼玉県,吉川市,会野谷２丁目１７番１号,,11,243,3420016,,,,,,,2024-12-02,1,,,,,エヌロジスティクス,0
116,1100001038078,新規,0,2024-12-02,2024-12-02,株式会社ヤマツミ,,株式会社,長野県,木曽郡南木曽町,読書４３８２番地１,,20,423,3995301,,,,,,,2024-12-02,1,,,,,ヤマツミ,0
119,1100005013259,新規,0,2024-12-02,2024-12-02,特定非営利活動法人学び３．０,,その他の設立登記法人,長野県,長野市,大字南長野字幅下６４４番地８,,20,201,3800837,,,,,,,2024-12-02,1,,,,,マナビサンテンゼロ,0
121,1110001038878,新規,0,2024-12-02,2024-12-02,ＡＤＳＡＰＯ株式会社,,株式会社,新潟県,南魚沼郡湯沢町,大字土樽２９２６番地１,00137189,15,461,9496103,,,,,,,2024-12-02,1,,,,,アドサポ,0
127,1120001270694,新規,0,2024-12-02,2024-12-02,株式会社啓臣,,株式会社,大阪府,大阪市淀川区,西中島３丁目２１番９－４０２号,,27,123,5320011,,,,,,,2024-12-02,1,,,,,ケイシン,0
128,1120001270711,新規,0,2024-12-02,2024-12-02,株式会社ＳＴＳ,,株式会社,大阪府,寝屋川市,黒原城内町１１番１１号,,27,215,5720050,,,,,,,2024-12-02,1,,,,,エスティーエス,0
129,1120001270728,新規,0,2024-12-02,2024-12-02,株式会社ＮＰ,,株式会社,大阪府,大阪市北区,中崎西４丁目３番３２号,,27,127,5300015,,,,,,,2024-12-02,1,,,,,エヌピー,0
134,1120901050122,新規,0,2024-12-02,2024-12-02,株式会社Ｍｅｒｅ　Ｆｏｒｔｅ,,株式会社,大阪府,吹田市,千里山月が丘７番５号メゾン千里山２１２,,27,205,5650847,,,,,,,2024-12-02,1,,,,,メールフォルテ,0
137,1130001078468,新規,0,2024-12-02,2024-12-02,株式会社Ｒ．ｃｏｎｔｒｏｌ．,,株式会社,京都府,京都市南区,西九条御幸田町１１番地１８,,26,107,6018442,,,,,,,2024-12-02,1,,,,,アールコントロール,0
138,1130001078476,新規,0,2024-12-02,2024-12-02,株式会社ＷｏｒｋｉｎｇＦｕｎ,,株式会社,京都府,向日市,寺戸町東ノ段３２－１４,,26,208,6170002,,,,,,,2024-12-02,1,,,,,ワーキングファン,0
144,1140001136588,新規,0,2024-12-02,2024-12-02,株式会社ＳＴＥＬＬＡ　ＲＯＳＳＡ,,株式会社,兵庫県,神戸市中央区,元町通３丁目９番１９－４０５号,,28,110,6500022,,,,,,,2024-12-02,1,,,,,ステラロッサ,0
157,1180003027690,新規,0,2024-12-02,2024-12-02,合同会社ＡＭＡＴＥＲＡＳＵ,,合同会社,愛知県,名古屋市中区,栄１丁目２２番－２号,,23,106,4600008,,,,,,,2024-12-02,1,,,,,アマテラス,0
161,1180301039280,新規,0,2024-12-02,2024-12-02,株式会社ラプラス,,株式会社,愛知県,豊田市,喜多町２丁目１７０番ＫｉＴＡＲＡ１０８,,23,211,4710027,,,,,,,2024-12-02,1,,,,,ラプラス,0
171,1250001020921,新規,0,2024-12-02,2024-12-02,株式会社柳井自然薯農園,00137190,株式会社,山口県,柳井市,遠崎３５番地２,,35,212,7490103,,,,,,,2024-12-02,1,,,,,ヤナイジネンジョノウエン,0
181,1260003004979,新規,0,2024-12-02,2024-12-02,合同会社航遥,,合同会社,岡山県,加賀郡吉備中央町,吉川７５７０番地１６０,,33,681,7161241,,,,,,,2024-12-02,1,,,,,コウヨウ,0
182,1260003004987,新規,0,2024-12-02,2024-12-02,ｋｏｅｔｅ合同会社,,合同会社,岡山県,岡山市南区,豊成３丁目１６番３２号,,33,104,7000942,,,,,,,2024-12-02,1,,,,,コエテ,0
187,1290001108184,新規,0,2024-12-02,2024-12-02,昭和興産株式会社,,株式会社,福岡県,福岡市博多区,諸岡３丁目１２番１５号,,40,132,8120894,,,,,,,2024-12-02,1,,,,,ショウワコウサン,0
205,1340001026967,新規,0,2024-12-02,2024-12-02,株式会社永吉ファーム輝北,,株式会社,鹿児島県,鹿屋市,輝北町下百引字遠間堀６７０番地１,,46,203,8930202,,,,,,,2024-12-02,1,,,,,ナガヨシファームキホク,0
206,1360001034407,新規,0,2024-12-02,2024-12-02,株式会社ＳＴＲＩＶＥ,,株式会社,沖縄県,中頭郡北谷町,伊平１丁目１２番６号,,47,326,9040102,,,,,,,2024-12-02,1,,,,,ストライブ,0
207,1360001034497,新規,0,2024-12-02,2024-12-02,株式会社Ｍｙコアテック,,株式会社,沖縄県,那覇市,牧志２丁目１７－２７－４０１,,47,201,9000013,,,,,,,2024-12-02,1,,,,,マイコアテック,0
210,1370001051987,新規,0,2024-12-02,2024-12-02,株式会社ＤＲＥＡＭ　ＰＡＳＳＩＯＮ,,株式会社,宮城県,岩沼市,藤浪１丁目３番３５号,,04,211,9892434,,,,,,,2024-12-02,1,,,,,ドリームパッション,0
211,1370001051995,新規,0,2024-12-02,2024-12-02,ＧｏｏｄｙＴｒｅｎｄ株式会社,,株式会社,宮城県,仙台市青葉区,本町１丁目５番２８号カーニープレイス仙台駅前通６０３号室,,04,101,9800014,,,,,,,2024-12-02,1,,,,,グッディトレンド,0
213,1390003002318,新規,0,2024-12-02,2024-12-02,合同会社新庄アーデン開発,,合同会社,山形県,新庄市,大字飛田字中峰山１１３２番地の１,,06,205,9960061,,,,,,,2024-12-02,1,,,,,シンジョウアーデン,0
216,1430003017039,新規,0,2024-12-02,2024-12-02,ＭＦＫ合同会社,,合同会社,北海道,札幌市中央区,北二条東８丁目８６番地１４ＧＲＡＮＤＵＫＥ永山公園通４０５号,,01,101,0600032,,,,,,,2024-12-02,1,,,,,エムエフケー,0
221,1480001012664,新規,0,2024-12-02,2024-12-02,株式会社島津工業,,株式会社,徳島県,板野郡板野町,大寺字山田畑２５番地１,,36,404,7790105,,,,,,,2024-12-02,1,,,,,シマヅコウギョウ,0
222,1490001010915,新規,0,2024-12-02,2024-12-02,株式会社Ｓｒｉ‐ｆ,,株式会社,高知県,南国市,緑ケ丘２丁目２１３番地,,39,204,7830086,,,,,,,2024-12-02,1,,,,,シュリーフ,0
232,2010001250351,新規,0,2024-12-02,2024-12-02,株式会社黒いシロクマ,,株式会社,東京都,中央区,銀座１丁目１２－４Ｎ＆ＥＢＬＤ．７階,,13,102,1040061,,,,,,,2024-12-02,1,,,,,クロイシロクマ,0
234,2010003045667,新規,0,2024-12-02,2024-12-02,さかえ合同会社,,合同会社,東京都,文京区,本駒込４丁目３７－７ライオンズマンション駒込第二７０４号,,13,105,1130021,,,,,,,2024-12-02,1,,,,,サカエ,0
235,2010003045675,新規,0,2024-12-02,2024-12-02,アミカルＫ合同会社,,合同会社,東京都,千代田区,神田須田町１丁目７番８号ＶＯＲＴ秋葉原ＩＶ２Ｆ,00137191,13,101,1010041,,,,,,,2024-12-02,1,,,,,アミカルケイ,0
242,2010401186749,新規,0,2024-12-02,2024-12-02,株式会社ＪＩＤホールディングス,,株式会社,東京都,港区,虎ノ門１丁目２３番１号ジャフコグループ株式会社内,,13,103,1050001,,,,,,,2024-12-02,1,,,,,ジェーアイディーホールディングス,0
245,2010501053221,新規,0,2024-12-02,2024-12-02,会津商事株式会社,,株式会社,東京都,台東区,東上野４丁目６番７－４０７号,,13,106,1100015,,,,,,,2024-12-02,1,,,,,アイヅショウジ,0
250,2010801035613,新規,0,2024-12-02,2024-12-02,承澤商事株式会社,,株式会社,東京都,大田区,東海３丁目７番１号ＧＴОビル６０４,,13,111,1430001,,,,,,,2024-12-02,1,,,,,ショウタクショウジ,0
258,2010903009481,新規,0,2024-12-02,2024-12-02,合同会社オプタプランニング,,合同会社,東京都,世田谷区,経堂２丁目２７番１０号,,13,112,1560052,,,,,,,2024-12-02,1,,,,,オプタプランニング,0
272,2011003020453,新規,0,2024-12-02,2024-12-02,Ｇｅｔ　Ｋｏｌｌｏ合同会社,,合同会社,東京都,渋谷区,富ヶ谷１丁目１４－１４スタンフォードアネックスビル３・４階,,13,113,1510063,,,,,,,2024-12-02,1,,,,,ゲットコッロ,0
274,2011103015238,新規,0,2024-12-02,2024-12-02,合同会社エスケードリーム２,,合同会社,東京都,新宿区,四谷２丁目９番地１５東京ユナイテッド綜合事務所内,,13,104,1600004,,,,,,,2024-12-02,1,,,,,エスケードリームツー,0
277,2011303005352,新規,0,2024-12-02,2024-12-02,合同会社ＲＫ,,合同会社,東京都,杉並区,堀ノ内２丁目３－１０,,13,115,1660013,,,,,,,2024-12-02,1,,,,,,0
285,2011801045239,新規,0,2024-12-02,2024-12-02,ＫＤＮＧ株式会社,,株式会社,東京都,足立区,入谷７丁目６番３号,,13,121,1210836,,,,,,,2024-12-02,1,,,,,キデングループ,0
286,2012401042527,新規,0,2024-12-02,2024-12-02,株式会社ＳＭＩＬＥＲ,,株式会社,東京都,武蔵野市,吉祥寺本町１丁目２０番１号吉祥寺永谷シティプラザ１００２,,13,203,1800004,,,,,,,2024-12-02,1,,,,,,0
290,2013301053457,新規,0,2024-12-02,2024-12-02,株式会社Ｌｕｍｉｅｒｅ,,株式会社,東京都,豊島区,池袋２丁目３６番２－２ＩＮＦＩＮＩＴＹＩＫＥＢＵＫＵＲＯ７Ｆ－１７,,13,116,1710014,,,,,,,2024-12-02,1,,,,,ルミエール,0
294,2020001160319,新規,0,2024-12-02,2024-12-02,株式会社ＳＧ＆Ｙ,,株式会社,神奈川県,横浜市都筑区,東山田１丁目５番９号,,14,118,2240023,,,,,,,2024-12-02,1,,,,,エスジーアンドワイ,0
295,2020001160343,新規,0,2024-12-02,2024-12-02,みなと株式会社,,株式会社,神奈川県,川崎市川崎区,渡田山王町２番２号,,14,131,2100845,,,,,,,2024-12-02,1,,,,,ミナト,0
296,2020001160368,新規,0,2024-12-02,2024-12-02,日本台積城株式会社,,株式会社,神奈川県,横浜市中区,山下町１８５番地華正楼２階,,14,104,2310023,,,,,,,2024-12-02,1,,,,,ニッポンタイセキジョウ,0
297,2020001160384,新規,0,2024-12-02,2024-12-02,株式会社ガーベラ,,株式会社,神奈川県,横浜市泉区,和泉中央北２丁目２番３７号,,14,116,2450024,,,,,,,2024-12-02,1,,,,,ガーベラ,0
303,2021003015295,新規,0,2024-12-02,2024-12-02,ユメノショカイ合同会社,,合同会社,神奈川県,茅ヶ崎市,芹沢６４０番１－１０５号,,14,207,2530008,,,,,,,2024-12-02,1,,,,,ユメノショカイ,0
314,2030001163675,新規,0,2024-12-02,2024-12-02,株式会社Ｔｅｔｈｙｓ,,株式会社,埼玉県,八潮市,茜町１丁目８番地９号,,11,234,3400826,,,,,,,2024-12-02,1,,,,,テティス,0
315,2030001163717,新規,0,2024-12-02,2024-12-02,株式会社ＡＺグローバル,,株式会社,埼玉県,吉川市,中央３丁目１５番地４,,11,243,3420061,,,,,,,2024-12-02,1,,,,,エーゼットグローバル,0
320,2030003025592,新規,0,2024-12-02,2024-12-02,合同会社ＰＣＮＮ,,合同会社,埼玉県,川越市,南大塚５丁目８番地３１,,11,201,3501162,,,,,,,2024-12-02,1,,,,,ピーシーエヌエヌ,0
324,2040001136226,新規,0,2024-12-02,2024-12-02,株式会社ＣＯＮＮＥＣＴ　ＳＹＮＣ,,株式会社,千葉県,船橋市,豊富町１３０６番地８,,12,204,2740053,,,,,,,2024-12-02,1,,,,,コネクトシンク,0
325,2040001136366,新規,0,2024-12-02,2024-12-02,株式会社ＲＵＲＵＱ,,株式会社,千葉県,長生郡長柄町,鴇谷１６７２番地１,,12,426,2970215,,,,,,,2024-12-02,1,,,,,ルルン,0
326,2040001136382,新規,0,2024-12-02,2024-12-02,株式会社ｕｎｉ,,株式会社,千葉県,千葉市若葉区,若松町５３１番地３４３,,12,104,2640021,,,,,,,2024-12-02,1,,,,,ウニ,0
337,2080101025168,新規,0,2024-12-02,2024-12-02,株式会社そらんじる,,株式会社,静岡県,三島市,御園４６８番地の２２,,22,206,4110823,,,,,,,2024-12-02,1,,,,,ソランジル,0
339,2100001038077,新規,0,2024-12-02,2024-12-02,株式会社湯煙商会,,株式会社,長野県,千曲市,上山田温泉１丁目３０番地９、１０１号室,,20,218,3890821,,,,,,,2024-12-02,1,,,,,ユケムリショウカイ,0
344,2110003005594,新規,0,2024-12-02,2024-12-02,合同会社オトガワ,,合同会社,新潟県,新潟市江南区,西町３丁目６番１０号２,,15,104,9500165,,,,,,,2024-12-02,1,,,,,オトガワ,0
347,2120001270652,新規,0,2024-12-02,2024-12-02,株式会社日上資産管理,,株式会社,大阪府,大阪市中央区,大手通１丁目１－１３－４０３,,27,128,5400021,,,,,,,2024-12-02,1,,,,,ニチジョウシサンカンリ,0
348,2120001270702,新規,0,2024-12-02,2024-12-02,雲欣達株式会社,,株式会社,大阪府,大阪市生野区,勝山北５丁目８番５号,,27,116,5440033,,,,,,,2024-12-02,1,,,,,ウンキンタツ,0
349,2120001270751,新規,0,2024-12-02,2024-12-02,株式会社ｒｅＪ,,株式会社,大阪府,大阪市中央区,淡路町１丁目２番５号淡路町イーストビル４ＦＮ,,27,128,5410047,,,,,,,2024-12-02,1,,,,,リジャック,0
352,2120003028074,新規,0,2024-12-02,2024-12-02,ＳＲＣ合同会社,,合同会社,大阪府,大阪市中央区,瓦町４丁目３－７ＶＯＲＴ御堂筋本町５０３,,27,128,5410048,,,,,,,2024-12-02,1,,,,,エスアールシー,0
356,2120903005437,新規,0,2024-12-02,2024-12-02,合同会社トレンド,,合同会社,大阪府,豊中市,東豊中町６丁目１５番２２－４０７号,,27,203,5600003,,,,,,,2024-12-02,1,,,,,トレンド,0
359,2122003003040,新規,0,2024-12-02,2024-12-02,合同会社Ｆ　ｃｕｂｕ,,合同会社,大阪府,八尾市,本町５丁目８－２３,,27,212,5810003,,,,,,,2024-12-02,1,,,,,エフキューブ,0
363,2130001078475,新規,0,2024-12-02,2024-12-02,保強株式会社,,株式会社,京都府,京都市伏見区,深草西浦町２丁目９９番地コーポフローラ２０３室,,26,109,6120029,,,,,,,2024-12-02,1,,,,,ホキョウ,0
366,2140001136587,新規,0,2024-12-02,2024-12-02,株式会社サトウ,,株式会社,兵庫県,明石市,大久保町駅前２丁目２番地の２２,,28,203,6740058,,,,,,,2024-12-02,1,,,,,サトウ,0
372,2160001026381,新規,0,2024-12-02,2024-12-02,株式会社ＫＡＰ,,株式会社,滋賀県,大津市,坂本３丁目２１番１６号,,25,201,5200113,,,,,,,2024-12-02,1,,,,,カプ,0
373,2170003002132,新規,0,2024-12-02,2024-12-02,合同会社ＲＥ‐ＬＩＧＨＴ,,合同会社,和歌山県,海南市,重根１１９番地,,30,202,6420023,,,,,,,2024-12-02,1,,,,,リライト,0
378,2180001163974,新規,0,2024-12-02,2024-12-02,昭和殖産株式会社,,株式会社,愛知県,名古屋市南区,熱田大瀬子町２０７番地,,23,112,4570000,,,,,,,2024-12-02,1,,,,,,0
379,2180001164345,新規,0,2024-12-02,2024-12-02,輝商事株式会社,,株式会社,愛知県,名古屋市西区,名駅２丁目３４番１７号セントラル名古屋１１０１号,,23,104,4510045,,,,,,,2024-12-02,1,,,,,カガヤキショウジ,0
380,2180001164361,新規,0,2024-12-02,2024-12-02,株式会社Ｈ．Ｋ．Ｃ,,株式会社,愛知県,春日井市,東野町９丁目１１番地２６,,23,206,4860817,,,,,,,2024-12-02,1,,,,,エイチケーシー,0
381,2180001164378,新規,0,2024-12-02,2024-12-02,株式会社中部ｉｎｎｏｖａｔｉｏｎ,,株式会社,愛知県,稲沢市,下津小井戸１丁目３番地５Ｂ棟,,23,220,4928093,,,,,,,2024-12-02,1,,,,,チュウブイノベーション,0
392,2200001043182,新規,0,2024-12-02,2024-12-02,株式会社エクシィズホールディングス,,株式会社,岐阜県,多治見市,旭ケ丘１０丁目６番地の５５,,21,204,5070071,,,,,,,2024-12-02,1,,,,,エクシィズホールディングス,0
401,2220002013918,新規,0,2024-12-02,2024-12-02,有限会社東浜加工所,,有限会社,石川県,七尾市,東浜町ホ部７番地,,17,202,9260383,,,,,,,2024-12-02,1,,,,,,0
404,2250001020920,新規,0,2024-12-02,2024-12-02,株式会社ＫＥＮＫＯ,,株式会社,山口県,周南市,大字久米１２９９番地の３８,,35,215,7450801,,,,,,,2024-12-02,1,,,,,ケンコー,0
416,2290001108175,新規,0,2024-12-02,2024-12-02,アスミル．地所株式会社,,株式会社,福岡県,福岡市早良区,次郎丸１丁目１６番１０号,,40,137,8140165,,,,,,,2024-12-02,1,,,,,アスミルジショ,0
425,2290801031072,新規,0,2024-12-02,2024-12-02,株式会社Ｒｅａｌｉｚｅ　Ｓｔａｆｆ,,株式会社,福岡県,北九州市小倉北区,香春口２丁目１０番８号足立興産ビル１Ｆ,,40,106,8020084,,,,,,,2024-12-02,1,,,,,リアライズスタッフ,0
430,2310001019345,新規,0,2024-12-02,2024-12-02,株式会社ＴＵＲＦＥＲ,,株式会社,長崎県,大村市,小川内町５６２－８,,42,205,8560043,,,,,,,2024-12-02,1,,,,,ターファー,0
436,2360001034463,新規,0,2024-12-02,2024-12-02,株式会社勝連城跡ＰＦＩ特別目的会社,,株式会社,沖縄県,うるま市,勝連南風原３８０７番地２あまわりパーク内,,47,213,9042311,,,,,,,2024-12-02,1,,,,,カツレンジョウアトピーエフアイトクベツモクテキカイシャ,0
437,2360001034496,新規,0,2024-12-02,2024-12-02,株式会社ＨＡＳＳＡＫＵ,,株式会社,沖縄県,宮古島市,平良字松原６３７番地１－６０３,,47,214,9060014,,,,,,,2024-12-02,1,,,,,ハッサク,0
439,2360003014496,新規,0,2024-12-02,2024-12-02,Ｈ２　Ｐｌａｎｎｉｎｇ　Ｏｆｆｉｃｅ合同会社,,合同会社,沖縄県,宜野湾市,宇地泊３丁目１７番１２号１階,,47,205,9012227,,,,,,,2024-12-02,1,,,,,エイチツープランニングオフィス,0
446,2390003002317,新規,0,2024-12-02,2024-12-02,合同会社そう,,合同会社,山形県,鶴岡市,日吉町６－４サンコーポ１Ｆ,,06,203,9970029,,,,,,,2024-12-02,1,,,,,ソウ,0
447,2410005006610,新規,0,2024-12-02,2024-12-02,特定非営利活動法人航空機から自動車へのリサイクルを考える会,,その他の設立登記法人,秋田県,秋田市,千秋明徳町１番１６‐１２０１号,,05,201,0100875,,,,,,,2024-12-02,1,,,,,コウクウキカラジドウシャヘノリサイクルヲカンガエルカイ,0
450,2430003017038,新規,0,2024-12-02,2024-12-02,合同会社ＯＳＨＯＵ,,合同会社,北海道,苫小牧市,大町１丁目２－５,,01,213,0530024,,,,,,,2024-12-02,1,,,,,オショウ,0
451,2480001012663,新規,0,2024-12-02,2024-12-02,うつみトラベル＆ハウジング株式会社,,株式会社,徳島県,板野郡藍住町,勝瑞字成長８０番地１５,,36,403,7711272,,,,,,,2024-12-02,1,,,,,ウツミトラベルアンドハウジング,0
452,2490003001960,新規,0,2024-12-02,2024-12-02,合同会社ヘルパーステーションいと,,合同会社,高知県,高知市,朝倉南町３番４５－１号,,39,201,7808075,,,,,,,2024-12-02,1,,,,,ヘルパーステーションイト,0
453,2500005008746,新規,0,2024-12-02,2024-12-02,医療法人あいはら歯科クリニック,,その他の設立登記法人,愛媛県,松山市,朝生田町４丁目４番３２号,,38,201,7900952,,,,,,,2024-12-02,1,,,,,アイハラシカクリニック,0
459,3010001250342,新規,0,2024-12-02,2024-12-02,ＲＡＫＡＮライフサービス株式会社,,株式会社,東京都,中央区,日本橋３丁目６番２号日本橋フロント１階,,13,102,1030027,,,,,,,2024-12-02,1,,,,,ラカンライフサービス,0
466,3010401186764,新規,0,2024-12-02,2024-12-02,株式会社日本ドローンコーポレーション,,株式会社,東京都,港区,浜松町２丁目１０番１号浜松町ビル２階,,13,103,1050013,,,,,,,2024-12-02,1,,,,,ニホンドローンコーポレーション,0
469,3010403033923,新規,0,2024-12-02,2024-12-02,合同会社ＳＯＲａ,,合同会社,東京都,港区,南麻布４丁目２－４９－２０２,,13,103,1060047,,,,,,,2024-12-02,1,,,,,ソラ,0
471,3010805003144,新規,0,2024-12-02,2024-12-02,特定非営利活動法人プラネット・セーバー,,その他の設立登記法人,東京都,大田区,矢口２丁目１９番１２号,,13,111,1460093,,,,,,,2024-12-02,1,,,,,プラネットセーバー,0
482,3011101109775,新規,0,2024-12-02,2024-12-02,ＥＡセミテックジャパン株式会社,,株式会社,東京都,新宿区,新宿２丁目２－１０－６０５,,13,104,1600022,,,,,,,2024-12-02,1,,,,,イーエーセミテックジャパン,0
485,3011105011250,新規,0,2024-12-02,2024-12-02,一般社団法人ＳＰＶ０６,,その他の設立登記法人,東京都,新宿区,四谷２丁目９番地１５東京ユナイテッド綜合事務所内,,13,104,1600004,,,,,,,2024-12-02,1,,,,,エスピーブイゼロロク,0
489,3011301030194,新規,0,2024-12-02,2024-12-02,株式会社ＭＡＲＫ,,株式会社,東京都,杉並区,高円寺北３丁目２－１７ピュア中通り２階,,13,115,1660002,,,,,,,2024-12-02,1,,,,,マーク,0
491,3011601028252,新規,0,2024-12-02,2024-12-02,アトラス株式会社,,株式会社,東京都,練馬区,東大泉７丁目６－２３,,13,120,1780063,,,,,,,2024-12-02,1,,,,,アトラス,0
492,3011801006545,新規,0,2024-12-02,2024-12-02,株式会社大関建設,,株式会社,東京都,足立区,谷在家３丁目１番３号,,13,121,1230863,,,,,,,2024-12-02,1,,,,,オオゼキケンセツ,0
495,3012301014179,新規,0,2024-12-02,2024-12-02,株式会社ＳＫスチール,,株式会社,東京都,町田市,三輪町１０７４番地１フラワーヒルズ２０１,,13,209,1950054,,,,,,,2024-12-02,1,,,,,エスケースチール,0
506,3020001160350,新規,0,2024-12-02,2024-12-02,株式会社ＳＴＡＮＣＥ,,株式会社,神奈川県,横浜市港北区,新吉田町２１０番地Ｃ－１,,14,109,2230056,,,,,,,2024-12-02,1,,,,,,0
507,3020001160367,新規,0,2024-12-02,2024-12-02,株式会社ライズ,,株式会社,神奈川県,川崎市高津区,末長１丁目３０番５号,,14,134,2130013,,,,,,,2024-12-02,1,,,,,ライズ,0
508,3020001160409,新規,0,2024-12-02,2024-12-02,株式会社ライスアイランド,,株式会社,神奈川県,横浜市青葉区,新石川３丁目４番地１０,,14,117,2250003,,,,,,,2024-12-02,1,,,,,ライスアイランド,0
509,3020001160417,新規,0,2024-12-02,2024-12-02,株式会社シンベルク,,株式会社,神奈川県,横浜市西区,中央１丁目４３番１２号,,14,103,2200051,,,,,,,2024-12-02,1,,,,,シンベルク,0
516,3020003027374,新規,0,2024-12-02,2024-12-02,合同会社ＨＯＲＲＩＢＬＥ’Ｓ,,合同会社,神奈川県,横浜市西区,岡野１丁目１番６号志村ビル１０１号,,14,103,2200073,,,,,,,2024-12-02,1,,,,,ホリブルズ,0
517,3020005016615,新規,0,2024-12-02,2024-12-02,一般社団法人キッカケ,,その他の設立登記法人,神奈川県,横浜市都筑区,池辺町４３２８番地,,14,118,2240053,,,,,,,2024-12-02,1,,,,,キッカケ,0
523,3021003015294,新規,0,2024-12-02,2024-12-02,ＳＴＭ合同会社,,合同会社,神奈川県,横須賀市,日の出町１丁目７番地１６よこすか法務ビル１Ｆ,,14,201,2380006,,,,,,,2024-12-02,1,,,,,エスティーエム,0
531,3030005021960,新規,0,2024-12-02,2024-12-02,一般社団法人日本情報デザイン学会,,その他の設立登記法人,埼玉県,川越市,大字鯨井中野台２１００東洋大学総合情報学部藤本研究室,,11,201,3500815,,,,,,,2024-12-02,1,,,,,ニホンジョウホウデザインガッカイ,0
537,3040003026291,新規,0,2024-12-02,2024-12-02,Ｎ＆Ｎ　ＮＨＡＴ　ＮＨＡＩ合同会社,,合同会社,千葉県,松戸市,新松戸４丁目６番地直井第三ビル２階Ｂ号室,,12,207,2700034,,,,,,,2024-12-02,1,,,,,エヌアンドエヌニャットナイ,0
542,3080101025167,新規,0,2024-12-02,2024-12-02,株式会社さちのき,,株式会社,静岡県,賀茂郡東伊豆町,片瀬５５５番地の１５,,22,301,4130303,,,,,,,2024-12-02,1,,,,,サチノキ,0
544,3100001038076,新規,0,2024-12-02,2024-12-02,株式会社てまり,,株式会社,長野県,松本市,宮田１０－３,,20,202,3990001,,,,,,,2024-12-02,1,,,,,テマリ,0
546,3100003007896,新規,0,2024-12-02,2024-12-02,Ｍｕｓｕｂｕ合同会社,,合同会社,長野県,北安曇郡小谷村,大字千国乙１２８４０番地１ＴｈｅＰｈａｔＰａｃｋｅｒｓ,,20,486,3999422,,,,,,,2024-12-02,1,,,,,ムスブ,0
547,3110001038876,新規,0,2024-12-02,2024-12-02,株式会社アグローブ,,株式会社,新潟県,長岡市,大手通２丁目５番地アーバンプレイス長岡５０５,,15,202,9400062,,,,,,,2024-12-02,1,,,,,アグローブ,0
549,3110003005593,新規,0,2024-12-02,2024-12-02,飯塚健康研究所合同会社,,合同会社,新潟県,新潟市中央区,東出来島１０番１号コシジＣＯＵＲＴ２１,,15,103,9500961,,,,,,,2024-12-02,1,,,,,イイヅカケンコウケンキュウジョ,0
554,3120001270387,新規,0,2024-12-02,2024-12-02,博達実業株式会社,00137192,株式会社,大阪府,大阪市東淀川区,大桐３丁目６番２１号アイプラスＩＩ３０３号室,00137193,27,114,5330011,,,,,,,2024-12-02,1,,,,,ハクタツジツギョウ,0
555,3120001270627,新規,0,2024-12-02,2024-12-02,株式会社アラン大阪レンタカー,,株式会社,大阪府,交野市,私市５丁目１０番４－５号,,27,230,5760033,,,,,,,2024-12-02,1,,,,,アランオオサカレンタカー,0
556,3120001270692,新規,0,2024-12-02,2024-12-02,株式会社ぷらな,,株式会社,大阪府,大阪市平野区,瓜破５丁目１番４３号,,27,126,5470024,,,,,,,2024-12-02,1,,,,,プラナ,0
561,3120101070679,新規,0,2024-12-02,2024-12-02,株式会社イースト,,株式会社,大阪府,羽曳野市,野６６８番地の２,,27,222,5830884,,,,,,,2024-12-02,1,,,,,イースト,0
562,3120101070687,新規,0,2024-12-02,2024-12-02,株式会社ＭＡＲＫ‐１０,,株式会社,大阪府,南河内郡千早赤阪村,大字森屋７０３番地７９,,27,383,5850044,,,,,,,2024-12-02,1,,,,,マークテン,0
565,3120901050095,新規,0,2024-12-02,2024-12-02,株式会社壯興業,,株式会社,大阪府,豊中市,豊南町西４丁目２６番４の１号,,27,203,5610816,,,,,,,2024-12-02,1,,,,,ソウコウギョウ,0
577,3140003021365,新規,0,2024-12-02,2024-12-02,Ｋ．Ｎ　Ａｕｔｏ合同会社,,合同会社,兵庫県,西脇市,野村町１７９５－３４９,,28,213,6770054,,,,,,,2024-12-02,1,,,,,カイエンオート,0
583,3180001164344,新規,0,2024-12-02,2024-12-02,株式会社アイネクスト,,株式会社,愛知県,名古屋市東区,徳川１丁目１０番３５号,,23,102,4610025,,,,,,,2024-12-02,1,,,,,アイネクスト,0
584,3180001164369,新規,0,2024-12-02,2024-12-02,松野電気工事株式会社,,株式会社,愛知県,名古屋市北区,瑠璃光町４丁目２番地の９,,23,103,4620866,,,,,,,2024-12-02,1,,,,,マツノデンキコウジ,0
585,3180003027680,新規,0,2024-12-02,2024-12-02,メイシー合同会社,,合同会社,愛知県,長久手市,城屋敷１２１７ツインハウス６－３０１,,23,238,4801122,,,,,,,2024-12-02,1,,,,,メイシー,0
587,3180301039270,新規,0,2024-12-02,2024-12-02,株式会社ヨシズインサイト,,株式会社,愛知県,豊橋市,雲谷町字外ノ谷２１９番地２,,23,201,4413104,,,,,,,2024-12-02,1,,,,,ヨシズインサイト,0
600,3240001064182,新規,0,2024-12-02,2024-12-02,株式会社アネッロ,,株式会社,広島県,広島市安佐北区,可部南２丁目２－２８,,34,106,7310223,,,,,,,2024-12-02,1,,,,,アネッロ,0
611,3290001108166,新規,0,2024-12-02,2024-12-02,株式会社シティライツ,,株式会社,福岡県,福岡市博多区,中洲３丁目１番８号,,40,132,8100801,,,,,,,2024-12-02,1,,,,,シティライツ,0
624,3290003016103,新規,0,2024-12-02,2024-12-02,合同会社ＤＡＲ,,合同会社,福岡県,福岡市城南区,南片江６丁目６番１号コンパートメントＣ２０３号,,40,136,8140143,,,,,,,2024-12-02,1,,,,,ディーエーアール,0
628,3290803004901,新規,0,2024-12-02,2024-12-02,合同会社ＡＬＡＴＡ,,合同会社,福岡県,田川郡糸田町,１３８６番地,,40,604,8221300,,,,,,,2024-12-02,1,,,,,アラタ,0
631,3310001019344,新規,0,2024-12-02,2024-12-02,株式会社Ｂ．ＣＡＣＴＵＳ,,株式会社,長崎県,長崎市,賑町４－２０－８０１,,42,201,8500876,,,,,,,2024-12-02,1,,,,,ビーカクタス,0
633,3310005008814,新規,0,2024-12-02,2024-12-02,特定非営利活動法人みんなのわいっぽいっぽ,,その他の設立登記法人,長崎県,佐世保市,小佐々町西川内２８２番地３６,,42,202,8570412,,,,,,,2024-12-02,1,,,,,ミンナノワイッポイッポ,0
639,3360001034504,新規,0,2024-12-02,2024-12-02,株式会社Ａ，ｔｅｃｈ,,株式会社,沖縄県,那覇市,久茂地１丁目４番１５号泉崎ＵＦビル７０３,,47,201,9000015,,,,,,,2024-12-02,1,,,,,エーステック,0
641,3360003014495,新規,0,2024-12-02,2024-12-02,ＴＯＭＢＯ沖縄合同会社,,合同会社,沖縄県,宮古島市,平良字西里５７３番地１１,,47,214,9060012,,,,,,,2024-12-02,1,,,,,トンボオキナワ,0
647,3430001093179,新規,0,2024-12-02,2024-12-02,ＮｅｘＹｏｕ株式会社,,株式会社,北海道,札幌市中央区,南五条東２丁目１３番４―２０１号,,01,101,0600055,,,,,,,2024-12-02,1,,,,,ネクスユー,0
651,3430003017037,新規,0,2024-12-02,2024-12-02,合同会社ｎａｍｅ　ｐｉｅｃｅ,,合同会社,北海道,磯谷郡蘭越町,名駒町２４１番地１,,01,394,0481307,,,,,,,2024-12-02,1,,,,,ネームピース,0
657,3500001026008,新規,0,2024-12-02,2024-12-02,株式会社ＢＡＳＥ　ＴＯＰ　Ｅｓｔａｔｅ,,株式会社,愛媛県,八幡浜市,松柏丙８２８,,38,204,7960010,,,,,,,2024-12-02,1,,,,,ベーストップエステート,0
658,3500001026016,新規,0,2024-12-02,2024-12-02,株式会社ＦＦｗｏｒｋｓ,,株式会社,愛媛県,松山市,土居田町７８３番地９オクトワール松山土居田西館１０８号室,,38,201,7900056,,,,,,,2024-12-02,1,,,,,エフエフワークス,0
664,4010001250358,新規,0,2024-12-02,2024-12-02,株式会社Ｎｅｗ　ＡＤｖｅｎｔｕｒｅ,,株式会社,東京都,中央区,湊２丁目３番８－１２０４号,,13,102,1040043,,,,,,,2024-12-02,1,,,,,ニューアドベンチャー,0
666,4010003045673,新規,0,2024-12-02,2024-12-02,合同会社ＰＦレオ,,合同会社,東京都,千代田区,平河町１丁目６番１５号シルスフィア会計事務所内,,13,101,1020093,,,,,,,2024-12-02,1,,,,,ピーエフレオ,0
671,4010401186788,新規,0,2024-12-02,2024-12-02,分子医薬研究所株式会社,,株式会社,東京都,港区,赤坂３丁目９番１８号赤坂見附ＫＩＴＡＹＡＭＡビル７階,,13,103,1070052,,,,,,,2024-12-02,1,,,,,ブンシイヤクケンキュウジョ,0
672,4010401186821,新規,0,2024-12-02,2024-12-02,株式会社Ｍ‐ＬＡＢＯ公共検査機構,,株式会社,東京都,港区,北青山２丁目７番１３号プラセオ青山ビル３階,,13,103,1070061,,,,,,,2024-12-02,1,,,,,エムラボコウキョウケンサキコウ,0
673,4010403033914,新規,0,2024-12-02,2024-12-02,合同会社青山クラフトハウス,,合同会社,東京都,港区,北青山１丁目３番１号アールキューブ青山３階,,13,103,1070061,,,,,,,2024-12-02,1,,,,,アオヤマクラフトハウス,0
674,4010403033930,新規,0,2024-12-02,2024-12-02,赤坂東京パートナーズ合同会社,,合同会社,東京都,港区,虎ノ門４丁目３番２０号神谷町ＭＴビル１４階,,13,103,1050001,,,,,,,2024-12-02,1,,,,,アカサカトウキョウパートナーズ,0
675,4010703007485,新規,0,2024-12-02,2024-12-02,合同会社くじら不動産,,合同会社,東京都,品川区,東五反田１丁目２番３６－４０４号,,13,109,1410022,,,,,,,2024-12-02,1,,,,,クジラフドウサン,0
678,4010901056409,新規,0,2024-12-02,2024-12-02,株式会社大塚酒会,,株式会社,東京都,世田谷区,経堂１丁目３０番２２号ロイヤルハイツＣ１０１,,13,112,1560052,,,,,,,2024-12-02,1,,,,,オオツカシュカイ,0
691,4011005010772,新規,0,2024-12-02,2024-12-02,一般社団法人もも企画,,その他の設立登記法人,東京都,目黒区,上目黒２丁目２６番１２号,,13,110,1530051,,,,,,,2024-12-02,1,,,,,モモキカク,0
692,4011005010780,新規,0,2024-12-02,2024-12-02,一般社団法人健康スキンケア協会,,その他の設立登記法人,東京都,渋谷区,神宮前４丁目２９番３号,,13,113,1500001,,,,,,,2024-12-02,1,,,,,ケンコウスキンケアキョウカイ,0
698,4011101109758,新規,0,2024-12-02,2024-12-02,株式会社ＷＯＮＤＥＲ　ＯＷＬ,,株式会社,東京都,新宿区,西新宿３丁目３番１３号西新宿水間ビル６階,,13,104,1600023,,,,,,,2024-12-02,1,,,,,ワンダーオウル,0
699,4011101109774,新規,0,2024-12-02,2024-12-02,株式会社ＨｅｙＢｌｏｏｍ,,株式会社,東京都,新宿区,北新宿１丁目１０－２,,13,104,1690074,,,,,,,2024-12-02,1,,,,,ヘイブルーム,0
700,4011101109782,新規,0,2024-12-02,2024-12-02,株式会社イグニス,,株式会社,東京都,新宿区,西新宿３丁目３番１３号西新宿水間ビル２Ｆ,,13,104,1600023,,,,,,,2024-12-02,1,,,,,イグニス,0
703,4011103015244,新規,0,2024-12-02,2024-12-02,トライラインアカウンティング合同会社,,合同会社,東京都,新宿区,新宿１丁目３６番２号新宿第七葉山ビル３階,,13,104,1600022,,,,,,,2024-12-02,1,,,,,トライラインアカウンティング,0
710,4011603004531,新規,0,2024-12-02,2024-12-02,合同会社クラウンクレスト,,合同会社,東京都,練馬区,豊玉北６丁目９－６,,13,120,1760012,,,,,,,2024-12-02,1,,,,,クラウンクレスト,0
716,4012401042525,新規,0,2024-12-02,2024-12-02,川上石材株式会社,,株式会社,東京都,小金井市,前原町１丁目１６番５号,,13,210,1840013,,,,,,,2024-12-02,1,,,,,カワカミセキザイ,0
723,4013303007418,新規,0,2024-12-02,2024-12-02,ラーニングソリューションズ合同会社,,合同会社,東京都,豊島区,東池袋１丁目３４番５号いちご東池袋ビル６階,,13,116,1700013,,,,,,,2024-12-02,1,,,,,ラーニングソリューションズ,0
734,4020001160366,新規,0,2024-12-02,2024-12-02,株式会社グリット,,株式会社,神奈川県,横浜市保土ケ谷区,川島町６６１番地３０,,14,106,2400045,,,,,,,2024-12-02,1,,,,,グリット,0
735,4020001160408,新規,0,2024-12-02,2024-12-02,株式会社Ｆｒｅｇｅｎｔ,,株式会社,神奈川県,横浜市戸塚区,名瀬町７７５番地２２,,14,110,2450051,,,,,,,2024-12-02,1,,,,,フリージェント,0
736,4020001160416,新規,0,2024-12-02,2024-12-02,株式会社フトロ・スペース,,株式会社,神奈川県,横浜市青葉区,美しが丘西３丁目５４番地１５,,14,117,2250001,,,,,,,2024-12-02,1,,,,,フトロスペース,0
741,4020003027349,新規,0,2024-12-02,2024-12-02,Ｈｕｍｏｒｏｕｓ合同会社,,合同会社,神奈川県,横浜市泉区,岡津町２７４３番地,,14,116,2450003,,,,,,,2024-12-02,1,,,,,ユーモラス,0
746,4021003015302,新規,0,2024-12-02,2024-12-02,グリーングラス合同会社,,合同会社,神奈川県,茅ヶ崎市,中海岸２丁目６番１４号,,14,207,2530055,,,,,,,2024-12-02,1,,,,,グリーングラス,0
755,4030001163707,新規,0,2024-12-02,2024-12-02,株式会社八角,,株式会社,埼玉県,さいたま市桜区,西堀２丁目２番１０－６０１号,,11,106,3380832,,,,,,,2024-12-02,1,,,,,ハッカク,0
762,4030003025599,新規,0,2024-12-02,2024-12-02,日麗合同会社,,合同会社,埼玉県,春日部市,下柳１２２４番地２,,11,214,3440122,,,,,,,2024-12-02,1,,,,,ヒヨシ,0
764,4040001136364,新規,0,2024-12-02,2024-12-02,株式会社イマテン,,株式会社,千葉県,八街市,東吉田９０６番地５４,,12,230,2891114,,,,,,,2024-12-02,1,,,,,イマテン,0
782,4110003005592,新規,0,2024-12-02,2024-12-02,合同会社Ｍｉｌａｇｒｅ,,合同会社,新潟県,新潟市中央区,美咲町１丁目７番５５号ソフィア美咲,,15,103,9500954,,,,,,,2024-12-02,1,,,,,ミラグレ,0
786,4120001270691,新規,0,2024-12-02,2024-12-02,株式会社光開発,,株式会社,大阪府,大阪市西成区,中開２丁目５番２６号,,27,122,5570022,,,,,,,2024-12-02,1,,,,,ヒカリカイハツ,0
787,4120001270733,新規,0,2024-12-02,2024-12-02,株式会社ＲＩＴＡ,,株式会社,大阪府,大阪市中央区,久太郎町３丁目１番６号伊藤佑ビル大阪本町８Ｆ,,27,128,5410056,,,,,,,2024-12-02,1,,,,,リタ,0
789,4120003028080,新規,0,2024-12-02,2024-12-02,Ｇｏｏｄ　ｉｄｅａ合同会社,,合同会社,大阪府,大阪市東住吉区,鷹合１丁目６番８号,,27,121,5460014,,,,,,,2024-12-02,1,,,,,グッドアイディア,0
790,4120101070678,新規,0,2024-12-02,2024-12-02,株式会社有輝,,株式会社,大阪府,大阪狭山市,池尻中１丁目２６番１３号,,27,231,5890007,,,,,,,2024-12-02,1,,,,,ユウキ,0
796,4120901050103,新規,0,2024-12-02,2024-12-02,株式会社ｐｒｏｇｒｅｓｓ,,株式会社,大阪府,高槻市,寿町３丁目３４番１号,,27,207,5690826,,,,,,,2024-12-02,1,,,,,プログレス,0
815,4180001164368,新規,0,2024-12-02,2024-12-02,小高エンタープライズ株式会社,00137201,株式会社,愛知県,愛知郡東郷町,大字春木字東羽根穴１０番地１,,23,302,4700162,,,,,,,2024-12-02,1,,,,,コダカエンタープライズ,0
817,4180005020848,新規,0,2024-12-02,2024-12-02,特定非営利活動法人ＡＯＺＯＲＡ,,その他の設立登記法人,愛知県,名古屋市千種区,池上町２丁目１２番地の８進友ビル３０１号,,23,101,4640029,,,,,,,2024-12-02,1,,,,,アオゾラ,0
842,4290005019573,新規,0,2024-12-02,2024-12-02,一般社団法人古賀市スケート協会,,その他の設立登記法人,福岡県,古賀市,久保５７３番地３６,,40,223,8113115,,,,,,,2024-12-02,1,,,,,コガシスケートキョウカイ,0
843,4290801031079,新規,0,2024-12-02,2024-12-02,卓創商事株式会社,,株式会社,福岡県,北九州市八幡西区,折尾４丁目３－４－２０１号,,40,109,8070825,,,,,,,2024-12-02,1,,,,,タクソウショウジ,0
848,4310003004905,新規,0,2024-12-02,2024-12-02,合同会社イオリフーズ,,合同会社,長崎県,諫早市,小長井町小川原浦２５３番地,,42,204,8590165,,,,,,,2024-12-02,1,,,,,イオリフーズ,0
849,4320003004524,新規,0,2024-12-02,2024-12-02,合同会社はこぶねっと,,合同会社,大分県,日田市,中城町６番３０号,,44,204,8770011,,,,,,,2024-12-02,1,,,,,ハコブネット,0
852,4360003014486,新規,0,2024-12-02,2024-12-02,ティーステップ沖縄合同会社,,合同会社,沖縄県,国頭郡東村,字有銘１１１５－３２－２２,,47,303,9051206,,,,,,,2024-12-02,1,,,,,ティーステップ,0
853,4370001051992,新規,0,2024-12-02,2024-12-02,株式会社Ｒｉｆレックス,,株式会社,宮城県,宮城郡利府町,花園２丁目２３番地５,,04,406,9810132,,,,,,,2024-12-02,1,,,,,リフレックス,0
858,4420003003029,新規,0,2024-12-02,2024-12-02,合同会社ケアパートナーあおもり,,合同会社,青森県,青森市,大字石江字江渡１０４番地５３,,02,201,0380003,,,,,,,2024-12-02,1,,,,,ケアパートナーアオモリ,0
862,4430001093178,新規,0,2024-12-02,2024-12-02,株式会社Ｍ’ｓｕｐ,,株式会社,北海道,札幌市白石区,南郷通１３丁目南１番２０号サンホーム館Ｌ３０１,,01,104,0030022,,,,,,,2024-12-02,1,,,,,エムズアップ,0
863,4430003017036,新規,0,2024-12-02,2024-12-02,合同会社ららホープ,,合同会社,北海道,札幌市清田区,平岡八条３丁目１番７号,,01,110,0040878,,,,,,,2024-12-02,1,,,,,ララホープ,0
867,4460003001020,新規,0,2024-12-02,2024-12-02,合同会社スリーリングス,,合同会社,北海道,釧路市,川北町７番３０号モデルエクセレント２０１号室,,01,206,0850003,,,,,,,2024-12-02,1,,,,,スリーリングス,0
870,4490005006964,新規,0,2024-12-02,2024-12-02,行政書士法人ロクサス,,その他の設立登記法人,高知県,高知市,西秦泉寺３３６番地４,,39,201,7800033,,,,,,,2024-12-02,1,,,,,ロクサス,0
879,5010001250316,新規,0,2024-12-02,2024-12-02,株式会社ＳＥＥＫＥＲＳ,,株式会社,東京都,中央区,日本橋兜町９―５,,13,102,1030026,,,,,,,2024-12-02,1,,,,,シーカーズ,0
880,5010003045656,新規,0,2024-12-02,2024-12-02,合同会社清州橋,,合同会社,東京都,千代田区,神田佐久間町４丁目１６番地４プレミスト千代田神田佐久間町４０３号,,13,101,1010025,,,,,,,2024-12-02,1,,,,,キヨスバシ,0
881,5010003045664,新規,0,2024-12-02,2024-12-02,ＹＫファイナンス合同会社,,合同会社,東京都,中央区,銀座７丁目２－６銀座アステルビル,,13,102,1040061,,,,,,,2024-12-02,1,,,,,ワイケイファイナンス,0
882,5010003045680,新規,0,2024-12-02,2024-12-02,合同会社ＨＨ　Ｈｏｌｄｉｎｇｓ,,合同会社,東京都,千代田区,神田東松下町３７番地林道ビル７階,,13,101,1010042,,,,,,,2024-12-02,1,,,,,エイチエイチホールディングス,0
890,5010403033921,新規,0,2024-12-02,2024-12-02,合同会社ＫＯＹＵＫＩ．,,合同会社,東京都,港区,虎ノ門３丁目１９－１０－１７０３,,13,103,1050001,,,,,,,2024-12-02,1,,,,,コユキ,0
891,5010405023821,新規,0,2024-12-02,2024-12-02,一般社団法人ムクムレス,,その他の設立登記法人,東京都,港区,港南１丁目６番４１号,,13,103,1080075,,,,,,,2024-12-02,1,,,,,ムクムレス,0
892,5010405023838,新規,0,2024-12-02,2024-12-02,梅田ホールディング２一般社団法人,,その他の設立登記法人,東京都,港区,虎ノ門３丁目２２番１０－２０１号,,13,103,1050001,,,,,,,2024-12-02,1,,,,,ウメダホールディングツー,0
912,5011001166139,新規,0,2024-12-02,2024-12-02,株式会社銀座立田野,,株式会社,東京都,目黒区,祐天寺２丁目１２番１１号泉ホームズ,,13,110,1530052,,,,,,,2024-12-02,1,,,,,ギンザタツタノ,0
914,5011005010771,新規,0,2024-12-02,2024-12-02,一般社団法人アガスティアアーユルヴェーダ協会,,その他の設立登記法人,東京都,渋谷区,富ヶ谷２丁目２６番１６号,,13,113,1510063,,,,,,,2024-12-02,1,,,,,アガスティアアーユルヴェーダキョウカイ,0
917,5011105011249,新規,0,2024-12-02,2024-12-02,一般社団法人ＳＰＶ０５,,その他の設立登記法人,東京都,新宿区,四谷２丁目９番地１５東京ユナイテッド綜合事務所内,,13,104,1600004,,,,,,,2024-12-02,1,,,,,エスピーブイゼロゴ,0
925,5011803006574,新規,0,2024-12-02,2024-12-02,Ｌ＆Ａ　ＧＲＯＵＰ合同会社,,合同会社,東京都,葛飾区,西新小岩４丁目２３番５号かつしか会館２Ｂ,,13,122,1240025,,,,,,,2024-12-02,1,,,,,エルアンドエイグループ,0
928,5012401042524,新規,0,2024-12-02,2024-12-02,株式会社ｃｏｎｏｓｏｒａ,,株式会社,東京都,小金井市,前原町１丁目１６番５号,,13,210,1840013,,,,,,,2024-12-02,1,,,,,コノソラ,0
949,5020001160340,新規,0,2024-12-02,2024-12-02,株式会社ａｔｍｏｓ,,株式会社,神奈川県,横浜市西区,北幸２丁目１０－４８むつみビル３Ｆ,,14,103,2200004,,,,,,,2024-12-02,1,,,,,アトモス,0
950,5020001160398,新規,0,2024-12-02,2024-12-02,株式会社ｎｉｃｏ　ｔｒｅｅ,,株式会社,神奈川県,横浜市緑区,寺山町１４１番地１シャーメゾン丸井Ａ１０２,,14,113,2260013,,,,,,,2024-12-02,1,,,,,ニコツリー,0
952,5020003027331,新規,0,2024-12-02,2024-12-02,合同会社ケアフロント,,合同会社,神奈川県,川崎市高津区,下作延４丁目２１番地９号２０２号室,,14,134,2130033,,,,,,,2024-12-02,1,,,,,ケアフロント,0
953,5020003027356,新規,0,2024-12-02,2024-12-02,合同会社ＮＵＭ,,合同会社,神奈川県,川崎市多摩区,長尾５丁目２０番１２号第２清風苑２１２,,14,135,2140023,,,,,,,2024-12-02,1,,,,,ナム,0
954,5020003027372,新規,0,2024-12-02,2024-12-02,ゴールデン・フェロー合同会社,,合同会社,神奈川県,川崎市宮前区,土橋５丁目４番地４９,,14,136,2160005,,,,,,,2024-12-02,1,,,,,ゴールデンフェロー,0
967,5030001163697,新規,0,2024-12-02,2024-12-02,株式会社ＴＯＮＧＡＲＩ,,株式会社,埼玉県,さいたま市大宮区,桜木町１丁目３９８番地１アドグレイス大宮７Ｆ,,11,103,3300854,,,,,,,2024-12-02,1,,,,,トンガリ,0
972,5030003025615,新規,0,2024-12-02,2024-12-02,アップテール合同会社,,合同会社,埼玉県,上尾市,大字原市２６１番地２６,,11,219,3620021,,,,,,,2024-12-02,1,,,,,アップテール,0
973,5040001136355,新規,0,2024-12-02,2024-12-02,株式会社ＫｅｅＱ,,株式会社,千葉県,船橋市,二子町６２２番地１,,12,204,2730034,,,,,,,2024-12-02,1,,,,,キーク,0
982,5070001042410,新規,0,2024-12-02,2024-12-02,株式会社Ａ　ＧＲＯＵＰ,,株式会社,群馬県,高崎市,大八木町３００４－２,,10,202,3700072,,,,,,,2024-12-02,1,,,,,エーグループ,0
984,5080001026627,新規,0,2024-12-02,2024-12-02,株式会社コノハナ,,株式会社,静岡県,静岡市駿河区,稲川３丁目１２番１０－５０４号,,22,102,4228062,,,,,,,2024-12-02,1,,,,,コノハナ,0
986,5080405007693,新規,0,2024-12-02,2024-12-02,ＮＰＯ法人産前産後の子育て訪問サポートいつつのわ,,その他の設立登記法人,静岡県,掛川市,高御所４６番地の１,,22,213,4360031,,,,,,,2024-12-02,1,,,,,サンゼンサンゴノコソダテホウモンサポートイツツノワ,0
988,5100001038066,新規,0,2024-12-02,2024-12-02,株式会社Ｋｏｔｏｂｉｔｏ,,株式会社,長野県,茅野市,ちの３５０２番地１ベルビア２階ワークラボ八ヶ岳２３１,,20,214,3910001,,,,,,,2024-12-02,1,,,,,コトビト,0
989,5100001038074,新規,0,2024-12-02,2024-12-02,株式会社ｈａｐｐｉｎｅｓｓ,,株式会社,長野県,千曲市,大字杭瀬下２７５番地１,,20,218,3870011,,,,,,,2024-12-02,1,,,,,ハピネス,0
995,5120001270716,新規,0,2024-12-02,2024-12-02,佳益株式会社,,株式会社,大阪府,大阪市天王寺区,筆ケ崎町２番１０－３１０１号,,27,109,5430027,,,,,,,2024-12-02,1,,,,,カエキ,0
999,5120003028055,新規,0,2024-12-02,2024-12-02,合同会社令和産業,,合同会社,大阪府,大阪市住吉区,大領２丁目６－９－３１０,,27,120,5580001,,,,,,,2024-12-02,1,,,,,レイワサンギョウ,0
1000,5120101070677,新規,0,2024-12-02,2024-12-02,株式会社えむ・すくえあ,,株式会社,大阪府,堺市西区,浜寺石津町中４丁３番１３号,,27,144,5928334,,,,,,,2024-12-02,1,,,,,エムスクエア,0
1003,5120103006167,新規,0,2024-12-02,2024-12-02,合同会社リ．スタート,,合同会社,大阪府,堺市南区,赤坂台５丁１８番７－１号,,27,145,5900144,,,,,,,2024-12-02,1,,,,,リスタート,0
1005,5120901050102,新規,0,2024-12-02,2024-12-02,株式会社ＩＲＯ,,株式会社,大阪府,池田市,畑４丁目２番２１－３０１号ＴＮＧ畑,,27,204,5630021,,,,,,,2024-12-02,1,,,,,イロ,0
1011,5130001078472,新規,0,2024-12-02,2024-12-02,株式会社ＦＩＫ,,株式会社,京都府,京都市山科区,上花山桜谷１番地２パデシオン山科夢ヶ丘４１９号,,26,110,6078466,,,,,,,2024-12-02,1,,,,,エフアイケイ,0
1013,5130003010045,新規,0,2024-12-02,2024-12-02,合同会社こむぎケア,,合同会社,京都府,宇治市,明星町２丁目６番地の１４１,,26,204,6110014,,,,,,,2024-12-02,1,,,,,コムギケア,0
1014,5130005017245,新規,0,2024-12-02,2024-12-02,ＪＰ税理士法人,,その他の設立登記法人,京都府,宇治市,六地蔵札ノ辻町３０番地の１ＪＵＮ六地蔵ビル,,26,204,6110001,,,,,,,2024-12-02,1,,,,,ジエイピイ,0
1021,5160005011360,新規,0,2024-12-02,2024-12-02,一般社団法人エンゲイジ,,その他の設立登記法人,滋賀県,栗東市,安養寺６丁目６番２８号,,25,208,5203015,,,,,,,2024-12-02,1,,,,,エンゲイジ,0
1031,5180001164359,新規,0,2024-12-02,2024-12-02,平手工務店株式会社,,株式会社,愛知県,名古屋市西区,名西２丁目１番１２号（コーポ村武３０１号）,,23,104,4510064,,,,,,,2024-12-02,1,,,,,ヒラテコウムテン,0
1032,5180001164375,新規,0,2024-12-02,2024-12-02,株式会社ｈａｎａｔａｂａ,,株式会社,愛知県,名古屋市天白区,野並３丁目４０４番地メゾン野並１Ｂ号室,,23,116,4680045,,,,,,,2024-12-02,1,,,,,ハナタバ,0
1035,5180003001725,新規,0,2024-12-02,2024-12-02,合資会社荒川製作所,,合資会社,愛知県,名古屋市南区,松城町３丁目６３番地,,23,112,4570045,,,,,,,2024-12-02,1,,,,,アラカワセイサクショ,0
1036,5180003027679,新規,0,2024-12-02,2024-12-02,ＳＩＮＡＮ工業合同会社,,合同会社,愛知県,稲沢市,福島町中之町５７番地１－Ｂ棟,,23,220,4928441,,,,,,,2024-12-02,1,,,,,シナンコウギョウ,0
1054,5230001020639,新規,0,2024-12-02,2024-12-02,株式会社新開,,株式会社,富山県,高岡市,川原町１４番１６号,,16,202,9330942,,,,,,,2024-12-02,1,,,,,シンカイ,0
1073,5290001108131,新規,0,2024-12-02,2024-12-02,株式会社のこのこ能古島,,株式会社,福岡県,福岡市西区,能古１６０８番地３１,,40,135,8190012,,,,,,,2024-12-02,1,,,,,ノコノコノコノシマ,0
1074,5290001108148,新規,0,2024-12-02,2024-12-02,篠原住宅設備株式会社,,株式会社,福岡県,福岡市中央区,舞鶴１丁目３番３１号,,40,133,8100073,,,,,,,2024-12-02,1,,,,,シノハラジュウタクセツビ,0
1078,5290801031078,新規,0,2024-12-02,2024-12-02,株式会社Ｏ,,株式会社,福岡県,北九州市小倉北区,船場町１番１号８階,,40,106,8020007,,,,,,,2024-12-02,1,,,,,オー,0
1084,5320003004523,新規,0,2024-12-02,2024-12-02,合同会社別府ジビエ,,合同会社,大分県,別府市,楠町１３－７リエール２０１,,44,202,8740943,,,,,,,2024-12-02,1,,,,,ベップジビエ,0
1088,5360001034485,新規,0,2024-12-02,2024-12-02,株式会社碧,,株式会社,沖縄県,宮古島市,平良字西原３３３番地２,,47,214,9060005,,,,,,,2024-12-02,1,,,,,アオ,0
1091,5360003014493,新規,0,2024-12-02,2024-12-02,合同会社シーサー工房まぶやー,,合同会社,沖縄県,那覇市,字宇栄原９９５番地１ルミナスＮＳコーポ４０３,,47,201,9010153,,,,,,,2024-12-02,1,,,,,シーサーコウボウマブヤー,0
1097,5420003003028,新規,0,2024-12-02,2024-12-02,かねかリース合同会社,,合同会社,青森県,三戸郡田子町,大字田子字下田子下モ平３３番地１,,02,443,0390201,,,,,,,2024-12-02,1,,,,,カネカリース,0
1102,5430001093169,新規,0,2024-12-02,2024-12-02,ＢＩＷＡＫＯハイヤー株式会社,,株式会社,北海道,千歳市,みどり台北１丁目３番７号,,01,224,0660083,,,,,,,2024-12-02,1,,,,,ビワコハイヤー,0
1103,5430001093177,新規,0,2024-12-02,2024-12-02,株式会社ルービック,,株式会社,北海道,札幌市白石区,本通３丁目北２番３号,,01,104,0030027,,,,,,,2024-12-02,1,,,,,ルービック,0
1104,5440005002785,新規,0,2024-12-02,2024-12-02,一般社団法人ホワイトテール,,その他の設立登記法人,北海道,茅部郡森町,字尾白内町３８４,,01,345,0492301,,,,,,,2024-12-02,1,,,,,ホワイトテール,0
1117,6010001250372,新規,0,2024-12-02,2024-12-02,Ｒｉｎｇインテグラル２株式会社,,株式会社,東京都,千代田区,丸の内１丁目９番２号,,13,101,1000005,,,,,,,2024-12-02,1,,,,,リングインテグラルツー,0
1120,6010005039201,新規,0,2024-12-02,2024-12-02,ＦＬインベストメント１号一般社団法人,,その他の設立登記法人,東京都,中央区,京橋２丁目１２番６号ＡＯＪ税理士法人内,,13,102,1040031,,,,,,,2024-12-02,1,,,,,エフエルインベストメントイチゴウ,0
1127,6010401186794,新規,0,2024-12-02,2024-12-02,株式会社Ｉｎｔｅｇｒｉｔｉｏｎ,,株式会社,東京都,港区,南青山３丁目１番３６号青山丸竹ビル６Ｆ,,13,103,1070062,,,,,,,2024-12-02,1,,,,,インテグリション,0
1130,6010405023829,新規,0,2024-12-02,2024-12-02,浅草ホールディング２一般社団法人,,その他の設立登記法人,東京都,港区,虎ノ門３丁目２２番１０－２０１号,,13,103,1050001,,,,,,,2024-12-02,1,,,,,アサクサホールディングツー,0
1131,6010405023837,新規,0,2024-12-02,2024-12-02,梅田ホールディング１一般社団法人,,その他の設立登記法人,東京都,港区,虎ノ門３丁目２２番１０－２０１号,,13,103,1050001,,,,,,,2024-12-02,1,,,,,ウメダホールディングワン,0
1132,6010405023845,新規,0,2024-12-02,2024-12-02,ＬＪＤＣ　Ｒｅｂｏｕｎｄ特定目的会社,,その他の設立登記法人,東京都,港区,六本木１丁目６番１号泉ガーデンタワー１２階,,13,103,1060032,,,,,,,2024-12-02,1,,,,,エルジェーディーシーリバウンド,0
1135,6010601066383,新規,0,2024-12-02,2024-12-02,株式会社ＡＩＴＯ,,株式会社,東京都,江東区,有明３丁目７番２６号有明フロンティアビルＢ棟９階,,13,108,1350063,,,,,,,2024-12-02,1,,,,,アイト,0
1139,6010701046707,新規,0,2024-12-02,2024-12-02,株式会社Ｓｕｎｎｙ　Ｇａｔｅ,,株式会社,東京都,品川区,東五反田１丁目２５番１９号－３１１号,,13,109,1410022,,,,,,,2024-12-02,1,,,,,サニーゲート,0
1150,6011001166229,新規,0,2024-12-02,2024-12-02,株式会社コンホーム,,株式会社,東京都,渋谷区,渋谷１丁目４番２号,,13,113,1500002,,,,,,,2024-12-02,1,,,,,コンホーム,0
1154,6011005010787,新規,0,2024-12-02,2024-12-02,一般財団法人平石教育財団,,その他の設立登記法人,東京都,渋谷区,南平台町１２番９号,,13,113,1500036,,,,,,,2024-12-02,1,,,,,ヒライシキョウイクザイダン,0
1160,6011101109780,新規,0,2024-12-02,2024-12-02,株式会社ＭＳＤ＆カンパニー,,株式会社,東京都,新宿区,原町３丁目４番地６グランディ市谷柳町４０２,,13,104,1620053,,,,,,,2024-12-02,1,,,,,エムエスディーアンドカンパニー,0
1162,6011105011248,新規,0,2024-12-02,2024-12-02,一般社団法人ＳＰＶ０４,,その他の設立登記法人,東京都,新宿区,四谷２丁目９番地１５東京ユナイテッド綜合事務所内,,13,104,1600004,,,,,,,2024-12-02,1,,,,,エスピーブイゼロヨン,0
1181,6020001160422,新規,0,2024-12-02,2024-12-02,株式会社野毛ラボ,,株式会社,神奈川県,横浜市中区,野毛町３丁目１６０番地４、８０６,,14,104,2310064,,,,,,,2024-12-02,1,,,,,ノゲラボ,0
1188,6020003027330,新規,0,2024-12-02,2024-12-02,ＮＩＷＡＳ２合同会社,,合同会社,神奈川県,川崎市川崎区,日進町２２番地１寿々喜ビル４０２,,14,131,2100024,,,,,,,2024-12-02,1,,,,,ニワエスツ,0
1189,6020003027339,新規,0,2024-12-02,2024-12-02,合同会社ケイ・エス・シー,,合同会社,神奈川県,横浜市神奈川区,羽沢南２丁目４４番７－２０１３号,,14,102,2210866,,,,,,,2024-12-02,1,,,,,ケイエスシー,0
1190,6020003027347,新規,0,2024-12-02,2024-12-02,合同会社ビーカラーズ,,合同会社,神奈川県,横浜市緑区,長津田町３２００－２,,14,113,2260026,,,,,,,2024-12-02,1,,,,,ビーカラーズ,0
1191,6020003027355,新規,0,2024-12-02,2024-12-02,合同会社ふからと,,合同会社,神奈川県,横浜市西区,浅間町１丁目４番３号ウィザードビル４０２,,14,103,2200072,,,,,,,2024-12-02,1,,,,,フカラト,0
1192,6020003027363,新規,0,2024-12-02,2024-12-02,ＴＴ　ＢＯＤＹ　ＴＨＥＲＡＰＹ合同会社,,合同会社,神奈川県,横浜市港北区,綱島東３丁目１１番６号キャンベルハイツ綱島２０１,,14,109,2230052,,,,,,,2024-12-02,1,,,,,ティーティーボディセラピー,0
1197,6021001083885,新規,0,2024-12-02,2024-12-02,リバーウェルネス株式会社,,株式会社,神奈川県,鎌倉市,長谷１丁目２番１６号１０２,,14,204,2480016,,,,,,,2024-12-02,1,,,,,リバーウェルネス,0
1198,6021001083893,新規,0,2024-12-02,2024-12-02,株式会社ノット,,株式会社,神奈川県,相模原市中央区,相模原２丁目１４番２２号ヴィラ相模原５号室,,14,152,2520231,,,,,,,2024-12-02,1,,,,,ノット,0
1208,6030003025597,新規,0,2024-12-02,2024-12-02,合同会社恵フードサービス,,合同会社,埼玉県,入間市,大字中神１０４８番地,,11,225,3580035,,,,,,,2024-12-02,1,,,,,メグミフードサービス,0
1209,6030003025614,新規,0,2024-12-02,2024-12-02,合同会社Ｈａｂｉｔａｔ　Ｌｉｎｋ,,合同会社,埼玉県,越谷市,大字大竹５４５番地１,,11,222,3430034,,,,,,,2024-12-02,1,,,,,ハビタットリンク,0
1215,6040001136321,新規,0,2024-12-02,2024-12-02,株式会社ＫＹＴ,,株式会社,千葉県,柏市,南逆井１丁目２番３６号,,12,217,2770043,,,,,,,2024-12-02,1,,,,,ケイワイティ,0
1245,6100003007869,新規,0,2024-12-02,2024-12-02,ＨａｋｕＢｏｕｎｃｅ合同会社,,合同会社,長野県,北安曇郡白馬村,大字北城７３８番地,,20,485,3999301,,,,,,,2024-12-02,1,,,,,ハクバウンス,0
1257,6120001270525,新規,0,2024-12-02,2024-12-02,東莱商事株式会社,,株式会社,大阪府,大阪市住之江区,新北島１丁目４番１５号,,27,125,5590024,,,,,,,2024-12-02,1,,,,,トウライ,0
1258,6120001270715,新規,0,2024-12-02,2024-12-02,松栄ジャパンエステート株式会社,,株式会社,大阪府,大阪市浪速区,元町１丁目１１番１０－３０３号,,27,111,5560016,,,,,,,2024-12-02,1,,,,,ショウエイジャパンエステート,0
1263,6120901050084,新規,0,2024-12-02,2024-12-02,株式会社ＷＩＬＬＳＥＡ,,株式会社,大阪府,摂津市,鳥飼下３丁目５番１０号,,27,224,5660071,,,,,,,2024-12-02,1,,,,,ウィルシー,0
1264,6120901050126,新規,0,2024-12-02,2024-12-02,株式会社ＫｅｅｐＭｏｖｉｎｇ,,株式会社,大阪府,摂津市,鶴野４丁目６番１６号,,27,224,5660035,,,,,,,2024-12-02,1,,,,,キープムービング,0
1271,6140001136567,新規,0,2024-12-02,2024-12-02,株式会社菅野設備工業,,株式会社,兵庫県,神戸市須磨区,妙法寺字下野路１０８０番地２,,28,107,6540121,,,,,,,2024-12-02,1,,,,,カンノセツビコウギョウ,0
1272,6140001136575,新規,0,2024-12-02,2024-12-02,株式会社金鵬商事,,株式会社,兵庫県,神戸市西区,伊川谷町潤和１１７１番,,28,111,6512124,,,,,,,2024-12-02,1,,,,,キンホウショウジ,0
1275,6150001027716,新規,0,2024-12-02,2024-12-02,グッドシティ株式会社,,株式会社,奈良県,奈良市,秋篠早月町６－２７,,29,201,6310812,,,,,,,2024-12-02,1,,,,,グッドシティ,0
1276,6160003003342,新規,0,2024-12-02,2024-12-02,合同会社ＡＲＣ,,合同会社,滋賀県,守山市,梅田町７番２８－１４０３号,,25,207,5240037,,,,,,,2024-12-02,1,,,,,アーク,0
1281,6180001164366,新規,0,2024-12-02,2024-12-02,株式会社Ｂｅａｃｏｎ,,株式会社,愛知県,名古屋市北区,水切町７丁目１１８－５－１０２,,23,103,4620833,,,,,,,2024-12-02,1,,,,,ビーコン,0
1282,6180001164374,新規,0,2024-12-02,2024-12-02,株式会社ＣＲＡＮＩＯ,,株式会社,愛知県,名古屋市熱田区,大宝４丁目１０番１４号－２,,23,109,4560062,,,,,,,2024-12-02,1,,,,,クラニオ,0
1285,6180301039276,新規,0,2024-12-02,2024-12-02,株式会社丸正ホールディングス,,株式会社,愛知県,豊田市,大清水町大清水３７番地９,,23,211,4700342,,,,,,,2024-12-02,1,,,,,マルショウホールディングス,0
1287,6180303006357,新規,0,2024-12-02,2024-12-02,合同会社Ｌｅｔ’ｓ　ｇｏｏｏｏｏ,,合同会社,愛知県,刈谷市,若松町５丁目２５番地,,23,210,4480858,,,,,,,2024-12-02,1,,,,,レッツゴオオオオー,0
1290,6200001043195,新規,0,2024-12-02,2024-12-02,キズナコミュニティラボ株式会社,,株式会社,岐阜県,大垣市,今宿６丁目５２‐１６ドリームコア２０４,,21,202,5030807,,,,,,,2024-12-02,1,,,,,キズナコミュニティラボ,0
1293,6240001064188,新規,0,2024-12-02,2024-12-02,株式会社幟町茶寮,,株式会社,広島県,広島市中区,幟町１２番１７号,,34,101,7300016,,,,,,,2024-12-02,1,,,,,ノボリマチサリョウ,0
1306,6290001108163,新規,0,2024-12-02,2024-12-02,株式会社明幸,,株式会社,福岡県,久留米市,六ツ門町７番地２４ライオンズ六ツ門サンリヤンタワー１３０１号,,40,203,8300031,,,,,,,2024-12-02,1,,,,,メイコウ,0
1312,6290003016117,新規,0,2024-12-02,2024-12-02,合同会社ＴＯＲＡ,,合同会社,福岡県,福岡市中央区,渡辺通４丁目１－１ＲＪＲプレシア天神サウス５０３,,40,133,8100004,,,,,,,2024-12-02,1,,,,,トラ,0
1313,6290003016125,新規,0,2024-12-02,2024-12-02,合同会社ＵＴＡ,,合同会社,福岡県,福岡市中央区,清川３丁目２６番１９号,,40,133,8100005,,,,,,,2024-12-02,1,,,,,ウタ,0
1316,6300003002206,新規,0,2024-12-02,2024-12-02,合同会社光栄,,合同会社,佐賀県,佐賀市,本庄町大字末次４１５番地１７,,41,201,8400024,,,,,,,2024-12-02,1,,,,,コウエイ,0
1324,6360001034501,新規,0,2024-12-02,2024-12-02,株式会社ＹＴ　ｉｎｆｉｎｉｔｙ,,株式会社,沖縄県,うるま市,勝連平安名２９２５－１,,47,213,9042312,,,,,,,2024-12-02,1,,,,,ワイティーインフィニティー,0
1328,6360003014492,新規,0,2024-12-02,2024-12-02,合同会社ＬＡＦ,,合同会社,沖縄県,国頭郡本部町,字備瀬３５２番地１,,47,308,9050207,,,,,,,2024-12-02,1,,,,,エルエーエフ,0
1330,6370001051974,新規,0,2024-12-02,2024-12-02,株式会社ハミングバードホールディングス,,株式会社,宮城県,仙台市青葉区,国分町３丁目１０番６－１６０３号,,04,101,9800803,,,,,,,2024-12-02,1,,,,,ハミングバードホールディングス,0
1333,6430001093176,新規,0,2024-12-02,2024-12-02,株式会社弥栄,,株式会社,北海道,札幌市手稲区,前田十条２０丁目１１番１１号,,01,109,0060820,,,,,,,2024-12-02,1,,,,,ヤサカ,0
1334,6430001093184,新規,0,2024-12-02,2024-12-02,株式会社ぎーみる,,株式会社,北海道,小樽市,稲穂３丁目１６番１０１号サン・スタスィオン,,01,203,0470032,,,,,,,2024-12-02,1,,,,,ギーミル,0
1337,6430003017034,新規,0,2024-12-02,2024-12-02,合同会社佐藤総研,,合同会社,北海道,札幌市中央区,南四条東４丁目７番地１,,01,101,0600054,,,,,,,2024-12-02,1,,,,,サトウソウケン,0
1338,6440001009528,新規,0,2024-12-02,2024-12-02,株式会社ＣＯＷＬ,,株式会社,北海道,函館市,花園町１６番２０号,,01,202,0410843,,,,,,,2024-12-02,1,,,,,カウル,0
1339,6460001005954,新規,0,2024-12-02,2024-12-02,株式会社ＥＳ＆Ｃｏ．,,株式会社,北海道,釧路市,中園町１２番７号,,01,206,0850052,,,,,,,2024-12-02,1,,,,,エスアンドカンパニー,0
1350,7010001250330,新規,0,2024-12-02,2024-12-02,株式会社ミッション・フォース,,株式会社,東京都,中央区,日本橋室町１丁目１１番１２号日本橋水野ビル７階,,13,102,1030022,,,,,,,2024-12-02,1,,,,,ミッションフォース,0
1351,7010001250339,新規,0,2024-12-02,2024-12-02,ＡＵＲＯＲＡ株式会社,,株式会社,東京都,中央区,銀座１丁目１２番４号Ｎ＆ＥＢＬＤ．６Ｆ,,13,102,1040061,,,,,,,2024-12-02,1,,,,,アウローラ,0
1352,7010001250363,新規,0,2024-12-02,2024-12-02,株式会社イノベーターズオアシス,,株式会社,東京都,中央区,佃２丁目１１番６－２４０２号,,13,102,1040051,,,,,,,2024-12-02,1,,,,,イノベーターズオアシス,0
1353,7010001250371,新規,0,2024-12-02,2024-12-02,Ｒｉｎｇインテグラル１株式会社,,株式会社,東京都,千代田区,丸の内１丁目９番２号,,13,101,1000005,,,,,,,2024-12-02,1,,,,,リングインテグラルワン,0
1354,7010001250388,新規,0,2024-12-02,2024-12-02,株式会社Ｌｉｎｄｏ,,株式会社,東京都,千代田区,神田佐久間町２丁目１８番地１,,13,101,1010025,,,,,,,2024-12-02,1,,,,,リンドウ,0
1364,7010103002464,新規,0,2024-12-02,2024-12-02,合同会社万事屋,,合同会社,東京都,八王子市,元本郷町２丁目５番３号,,13,201,1920051,,,,,,,2024-12-02,1,,,,,ヨロズヤ,0
1371,7010401186678,新規,0,2024-12-02,2024-12-02,ＡＬＬ　ＣＡＲＥＥＲ　ＢＲＡＮＤＩＮＧ株式会社,,株式会社,東京都,港区,赤坂２丁目１４番１１号天翔オフィス赤坂６０２－Ｄ号室,,13,103,1070052,,,,,,,2024-12-02,1,,,,,オールキャリアブランディング,0
1372,7010401186769,新規,0,2024-12-02,2024-12-02,こうへいプランニング株式会社,,株式会社,東京都,港区,赤坂２丁目１７番６３号,,13,103,1070052,,,,,,,2024-12-02,1,,,,,コウヘイプランニング,0
1373,7010405023828,新規,0,2024-12-02,2024-12-02,浅草ホールディング１一般社団法人,,その他の設立登記法人,東京都,港区,虎ノ門３丁目２２番１０－２０１号,,13,103,1050001,,,,,,,2024-12-02,1,,,,,アサクサホールディングワン,0
1375,7010601066382,新規,0,2024-12-02,2024-12-02,株式会社どにどど,,株式会社,東京都,江東区,有明３丁目７番２６号有明フロンティアビルＢ棟９階,,13,108,1350063,,,,,,,2024-12-02,1,,,,,ドニドド,0
1376,7010601066390,新規,0,2024-12-02,2024-12-02,ＸＩＮＹＵＥ株式会社,,株式会社,東京都,墨田区,墨田１丁目１４－８サンシャインハイツ２０７号室,,13,107,1310031,,,,,,,2024-12-02,1,,,,,シンユエ,0
1378,7010701046929,新規,0,2024-12-02,2024-12-02,株式会社Ｎａｔｕｒｅ　Ｋｉｎｇｄｏｍ,,株式会社,東京都,品川区,戸越１丁目２０－８グローベル戸越銀座１２０１,,13,109,1420041,,,,,,,2024-12-02,1,,,,,ネイチャーキングダム,0
1396,7011101109796,新規,0,2024-12-02,2024-12-02,Ｓ＆Ｃｏ株式会社,,株式会社,東京都,新宿区,西新宿３丁目３番１３号西新宿水間ビル６階,,13,104,1600023,,,,,,,2024-12-02,1,,,,,エスアンドシーオー,0
1397,7011103015241,新規,0,2024-12-02,2024-12-02,合同会社ＳＰＶ０６,,合同会社,東京都,新宿区,四谷２丁目９番地１５東京ユナイテッド綜合事務所内,,13,104,1600004,,,,,,,2024-12-02,1,,,,,エスピーブイゼロロク,0
1401,7011601028257,新規,0,2024-12-02,2024-12-02,ＡＢＡＫＡ　ＡＩ株式会社,,株式会社,東京都,練馬区,関町北５丁目１３－２５練馬区北町五丁目ビル１階１－ｋ号室,,13,120,1770051,,,,,,,2024-12-02,1,,,,,アバカエイアイ,0
1410,7013301053444,新規,0,2024-12-02,2024-12-02,株式会社ＵＮＩＱＵＥ　ＰＩＥＣＥ,,株式会社,東京都,豊島区,西池袋３丁目２１番１３－１３０４号,,13,116,1710021,,,,,,,2024-12-02,1,,,,,ユニークピース,0
1418,7020001160165,新規,0,2024-12-02,2024-12-02,聖蹟株式会社,,株式会社,神奈川県,横浜市旭区,今宿１丁目２６－１３,,14,112,2410817,,,,,,,2024-12-02,1,,,,,セイセキ,0
1419,7020001160322,新規,0,2024-12-02,2024-12-02,星洋株式会社,,株式会社,神奈川県,横浜市西区,中央２丁目３番４号ユナイト中央ビル３階,,14,103,2200051,,,,,,,2024-12-02,1,,,,,セイヨウ,0
1420,7020001160405,新規,0,2024-12-02,2024-12-02,株式会社ＳＯＬＴ,,株式会社,神奈川県,横浜市保土ケ谷区,天王町１丁目５番地１デュオステージ横濱天王町９０７号,,14,106,2400003,,,,,,,2024-12-02,1,,,,,ソルト,0
1421,7020001160413,新規,0,2024-12-02,2024-12-02,株式会社ベイ・ストーン,,株式会社,神奈川県,横浜市港北区,大曽根２丁目３２－２ハイム武田１,,14,109,2220003,,,,,,,2024-12-02,1,,,,,ベイストーン,0
1423,7020003027338,新規,0,2024-12-02,2024-12-02,合同会社Ｌｕｍｅｎ,,合同会社,神奈川県,川崎市多摩区,生田８丁目１２－１０,,14,135,2140038,,,,,,,2024-12-02,1,,,,,ルーメン,0
1424,7020003027346,新規,0,2024-12-02,2024-12-02,合同会社ＳＴＯＲＥＶＡＮＣＥ,,合同会社,神奈川県,川崎市中原区,下小田中３丁目２２番７号グリーンハイム武蔵小杉３０４,,14,133,2110041,,,,,,,2024-12-02,1,,,,,ストアヴァンス,0
1425,7020003027370,新規,0,2024-12-02,2024-12-02,合同会社壽,,合同会社,神奈川県,川崎市多摩区,菅稲田堤３丁目１７番２６号,,14,135,2140003,,,,,,,2024-12-02,1,,,,,コトブキ,0
1427,7021001083901,新規,0,2024-12-02,2024-12-02,ＡＩＦＡ　ＴＲＡＤＩＮＧ株式会社,,株式会社,神奈川県,厚木市,関口１０１３番地１－Ａ,,14,212,2430804,,,,,,,2024-12-02,1,,,,,アイファトレーディング,0
1433,7030001163670,新規,0,2024-12-02,2024-12-02,株式会社寿ホールディングス,,株式会社,埼玉県,越谷市,東町５丁目５５番１号,,11,222,3430826,,,,,,,2024-12-02,1,,,,,コトブキホールディングス,0
1434,7030001163704,新規,0,2024-12-02,2024-12-02,花日向株式会社,,株式会社,埼玉県,蕨市,塚越７丁目３７番２号ブリーズコート蕨塚越テラス１０５号,00137202,11,223,3350002,,,,,,,2024-12-02,1,,,,,ハナヒナタ,0
1442,7040001136378,新規,0,2024-12-02,2024-12-02,株式会社綱沢工業,,株式会社,千葉県,木更津市,長須賀５２７番地２４,,12,206,2920054,,,,,,,2024-12-02,1,,,,,ツナザワコウギョウ,0
1445,7060003005348,新規,0,2024-12-02,2024-12-02,合同会社ナインゴー,,合同会社,栃木県,宇都宮市,砥上町３４９番地１０,,09,201,3200856,,,,,,,2024-12-02,1,,,,,ナインゴー,0
1451,7070005010329,新規,0,2024-12-02,2024-12-02,一般社団法人群馬県米麦種子センター,,その他の設立登記法人,群馬県,前橋市,亀里町１３１０番地,,10,201,3792147,,,,,,,2024-12-02,1,,,,,グンマケンベイバクシュシセンター,0
1464,7120001270714,新規,0,2024-12-02,2024-12-02,欣徳株式会社,,株式会社,大阪府,大阪市生野区,新今里３丁目８－１６－３０３号室,,27,116,5440001,,,,,,,2024-12-02,1,,,,,キントク,0
1468,7120101070667,新規,0,2024-12-02,2024-12-02,株式会社Ｋｕｍｐｅｌ,,株式会社,大阪府,松原市,天美我堂３丁目１１番地,,27,217,5800026,,,,,,,2024-12-02,1,,,,,クンペル,0
1469,7120101070683,新規,0,2024-12-02,2024-12-02,つながり株式会社,,株式会社,大阪府,堺市北区,中百舌鳥町５丁１８番地１－２０３号,,27,146,5918023,,,,,,,2024-12-02,1,,,,,ツナガリ,0
1471,7120901050109,新規,0,2024-12-02,2024-12-02,株式会社寿サロン,,株式会社,大阪府,豊中市,庄内東町４丁目４－４,,27,203,5610831,,,,,,,2024-12-02,1,,,,,コトブキサロン,0
1481,7140001136599,新規,0,2024-12-02,2024-12-02,株式会社マルヨネ食品,,株式会社,兵庫県,神戸市長田区,二葉町２丁目６番６号,,28,106,6530042,,,,,,,2024-12-02,1,,,,,マルヨネショクヒン,0
1482,7140001136608,新規,0,2024-12-02,2024-12-02,株式会社ボディショップマスイ,,株式会社,兵庫県,加古川市,野口町北野７１－１,,28,210,6750011,,,,,,,2024-12-02,1,,,,,ボディショップマスイ,0
1498,7180003027677,新規,0,2024-12-02,2024-12-02,合同会社ゆとま,,合同会社,愛知県,名古屋市千種区,内山１丁目２２番９号グランスイート千種タワー１３０３号,,23,101,4640075,,,,,,,2024-12-02,1,,,,,ユトマ,0
1501,7180301039283,新規,0,2024-12-02,2024-12-02,株式会社安井商店,,株式会社,愛知県,豊川市,金塚町２丁目７２番地の１８,,23,207,4420872,,,,,,,2024-12-02,1,,,,,ヤスイショウテン,0
1502,7200001043194,新規,0,2024-12-02,2024-12-02,北管株式会社,,株式会社,岐阜県,本巣郡北方町,栄町３丁目１１番地の２,,21,421,5010427,,,,,,,2024-12-02,1,,,,,キタカン,0
1520,7290001108113,新規,0,2024-12-02,2024-12-02,株式会社Ｂｅ‐Ｂｕｄｄｙ,,株式会社,福岡県,福岡市中央区,地行４丁目８番１１号,,40,133,8100064,,,,,,,2024-12-02,1,,,,,ビーバディ,0
1521,7290001108162,新規,0,2024-12-02,2024-12-02,株式会社Ｉ　ａｍ,,株式会社,福岡県,福岡市博多区,中州四丁目７番７号,,40,132,8120000,,,,,,,2024-12-02,1,,,,,アイアム,0
1522,7290001108179,新規,0,2024-12-02,2024-12-02,株式会社ボヌール,,株式会社,福岡県,福岡市城南区,長尾３丁目２３番２１号,,40,136,8140123,,,,,,,2024-12-02,1,,,,,ボヌール,0
1525,7290003016132,新規,0,2024-12-02,2024-12-02,ｎｉｃｏ合同会社,,合同会社,福岡県,久留米市,野中町１６０番地ランドゥール久留米アジュール５０３号,,40,203,8390862,,,,,,,2024-12-02,1,,,,,,0
1534,7340003004651,新規,0,2024-12-02,2024-12-02,ｋａｐｉｌｉｎａ合同会社,,合同会社,鹿児島県,鹿児島市,東谷山５丁目１６－７－１,,46,201,8910113,,,,,,,2024-12-02,1,,,,,カビリナ,0
1538,7360001034491,新規,0,2024-12-02,2024-12-02,株式会社はちや興業,,株式会社,沖縄県,石垣市,浜崎町２丁目３番地３２ケントクレール石垣ベイ１０３,,47,207,9070013,,,,,,,2024-12-02,1,,,,,ハチヤコウギョウ,0
1541,7370001051998,新規,0,2024-12-02,2024-12-02,株式会社菜の花,,株式会社,宮城県,仙台市泉区,寺岡４丁目１１番地の２８,,04,105,9813204,,,,,,,2024-12-02,1,,,,,ナノハナ,0
1546,7380001034952,新規,0,2024-12-02,2024-12-02,株式会社ＳＨＡＫＡＭＡＥ,,株式会社,福島県,石川郡玉川村,大字小高字南畷１２番地の４,,07,502,9636312,,,,,,,2024-12-02,1,,,,,シャカマエ,0
1552,7390001017808,新規,0,2024-12-02,2024-12-02,株式会社新野テクノサービス,,株式会社,山形県,米沢市,下花沢２丁目１番６７－１号,,06,202,9920023,,,,,,,2024-12-02,1,,,,,ニイノテクノサービス,0
1557,7430001093175,新規,0,2024-12-02,2024-12-02,スリースマイルフーズ株式会社,,株式会社,北海道,札幌市西区,八軒十条東３丁目１番１５－７０８号,,01,107,0630870,,,,,,,2024-12-02,1,,,,,スリースマイルフーズ,0
1558,7430003017033,新規,0,2024-12-02,2024-12-02,合同会社ＳＫＣ,,合同会社,北海道,札幌市西区,平和二条７丁目１番２０－２０５号,,01,107,0630022,,,,,,,2024-12-02,1,,,,,エスケーシー,0
1559,7430003017041,新規,0,2024-12-02,2024-12-02,合同会社Ｎ‐Ｒｉｓｅ,,合同会社,北海道,札幌市北区,太平十条２丁目２番１７号,,01,102,0028010,,,,,,,2024-12-02,1,,,,,エヌライズ,0
1562,7480001012667,新規,0,2024-12-02,2024-12-02,株式会社ＯＳＩ,,株式会社,徳島県,徳島市,沖浜３丁目６４番地,,36,201,7708052,,,,,,,2024-12-02,1,,,,,オーエスアイ,0
1574,8010001250338,新規,0,2024-12-02,2024-12-02,株式会社ＤＩＧＡ,,株式会社,東京都,中央区,銀座３丁目９番７号,,13,102,1040061,,,,,,,2024-12-02,1,,,,,ディーガ,0
1575,8010001250362,新規,0,2024-12-02,2024-12-02,オカダプラン株式会社,,株式会社,東京都,千代田区,神田須田町１丁目７番８号,,13,101,1010041,,,,,,,2024-12-02,1,,,,,オカダプラン,0
1576,8010001250387,新規,0,2024-12-02,2024-12-02,謙立株式会社,,株式会社,東京都,千代田区,丸の内１丁目８番２号鉄鋼ビル４階,,13,101,1000005,,,,,,,2024-12-02,1,,,,,ケンリツ,0
1580,8010005039208,新規,0,2024-12-02,2024-12-02,小倉物流施設一般社団法人,,その他の設立登記法人,東京都,中央区,日本橋１丁目４番１号,,13,102,1030027,,,,,,,2024-12-02,1,,,,,コクラブツリュウシセツ,0
1590,8010703007481,新規,0,2024-12-02,2024-12-02,合同会社劇団虹色くれよん,,合同会社,東京都,品川区,戸越３丁目３番６号,,13,109,1420041,,,,,,,2024-12-02,1,,,,,ゲキダンニジイロクレヨン,0
1596,8011001166086,新規,0,2024-12-02,2024-12-02,道旅科技日本株式会社,,株式会社,東京都,渋谷区,道玄坂１丁目１０番８号渋谷道玄坂東急ビル２Ｆ－Ｃ,,13,113,1500043,,,,,,,2024-12-02,1,,,,,ディーダトラベルジャパン,0
1597,8011001166177,新規,0,2024-12-02,2024-12-02,株式会社ラフ,,株式会社,東京都,渋谷区,恵比寿２丁目３２番１０号ベラカーサ広尾４０５,,13,113,1500013,,,,,,,2024-12-02,1,,,,,ラフ,0
1603,8011101109770,新規,0,2024-12-02,2024-12-02,株式会社山東華,,株式会社,東京都,新宿区,百人町１丁目８番２４号,,13,104,1690073,,,,,,,2024-12-02,1,,,,,サントウカ,0
1605,8011103015240,新規,0,2024-12-02,2024-12-02,合同会社ＳＰＶ０５,,合同会社,東京都,新宿区,四谷２丁目９番地１５東京ユナイテッド綜合事務所内,,13,104,1600004,,,,,,,2024-12-02,1,,,,,エスピーブイゼロゴ,0
1608,8011201025959,新規,0,2024-12-02,2024-12-02,株式会社渋谷ツアーズ,,株式会社,東京都,中野区,江古田３丁目１４番１３－２０４号,,13,114,1650022,,,,,,,2024-12-02,1,,,,,シブヤツアーズ,0
1614,8011301030198,新規,0,2024-12-02,2024-12-02,ＯＺ＆Ｓｏｎｓ株式会社,,株式会社,東京都,杉並区,松庵１丁目１０番１６号,,13,115,1670054,,,,,,,2024-12-02,1,,,,,オージーアンドサンズ,0
1619,8012703003147,新規,0,2024-12-02,2024-12-02,ＡＬＯＳＴＩＮ合同会社,,合同会社,東京都,西東京市,柳沢３丁目４番８―４０８号,,13,229,2020022,,,,,,,2024-12-02,1,,,,,アロスティン,0
1622,8013301053443,新規,0,2024-12-02,2024-12-02,株式会社ホテルはまぎく,,株式会社,東京都,豊島区,西池袋２丁目４３番５－２０１号,,13,116,1710021,,,,,,,2024-12-02,1,,,,,ホテルハマギク,0
1623,8013301053451,新規,0,2024-12-02,2024-12-02,株式会社ＬＦＣ,,株式会社,東京都,豊島区,東池袋１丁目３４－５いちご東池袋ビル６階,,13,116,1700013,,,,,,,2024-12-02,1,,,,,エルエフシー,0
1632,8020001160379,新規,0,2024-12-02,2024-12-02,ＴＶＩ株式会社,,株式会社,神奈川県,横浜市青葉区,田奈町３０番地２０,,14,117,2270064,,,,,,,2024-12-02,1,,,,,ティーヴィーアイ,0
1633,8020001160412,新規,0,2024-12-02,2024-12-02,ＴＵＮＡＧ株式会社,,株式会社,神奈川県,横浜市都筑区,大熊町２６番地１,,14,118,2240042,,,,,,,2024-12-02,1,,,,,ツナグ,0
1635,8020003027329,新規,0,2024-12-02,2024-12-02,合同会社サンデー,,合同会社,神奈川県,横浜市都筑区,池辺町３５７３番地２－３０１号,,14,118,2240053,,,,,,,2024-12-02,1,,,,,サンデー,0
1636,8020003027353,新規,0,2024-12-02,2024-12-02,桜商事合同会社,,合同会社,神奈川県,横浜市西区,北幸２丁目１０番４８号むつみビル３階,,14,103,2200004,,,,,,,2024-12-02,1,,,,,サクラショウジ,0
1637,8020005016619,新規,0,2024-12-02,2024-12-02,一般社団法人いのちを繋ぐＧＯＯＤＬＵＣＫ,,その他の設立登記法人,神奈川県,横浜市金沢区,瀬戸１７番１８号,,14,108,2360027,,,,,,,2024-12-02,1,,,,,イノチヲツナググッドラック,0
1638,8021001083900,新規,0,2024-12-02,2024-12-02,株式会社つむぎ電機,,株式会社,神奈川県,足柄上郡中井町,井ノ口２８０３番地２０,,14,361,2590151,,,,,,,2024-12-02,1,,,,,ツムギデンキ,0
1643,8030001163612,新規,0,2024-12-02,2024-12-02,株式会社Ａｒｃｈｅｗ,,株式会社,埼玉県,熊谷市,拾六間８１３番地３,,11,202,3600846,,,,,,,2024-12-02,1,,,,,アーチュ,0
1647,8030003025587,新規,0,2024-12-02,2024-12-02,合同会社ＬＥＯ,,合同会社,埼玉県,東松山市,大字下唐子１１２６番地４,,11,212,3550076,,,,,,,2024-12-02,1,,,,,レオ,0
1651,8040005022581,新規,0,2024-12-02,2024-12-02,社会保険労務士法人東京ベイ医療経営労務事務所,,その他の設立登記法人,千葉県,浦安市,明海６丁目１番１２－１６０３号,,12,227,2790014,,,,,,,2024-12-02,1,,,,,トウキョウベイイリョウケイエイロウムジムショ,0
1660,8100005013260,新規,0,2024-12-02,2024-12-02,一般社団法人十色,,その他の設立登記法人,長野県,佐久市,岩村田３２４番地１２,,20,217,3850022,,,,,,,2024-12-02,1,,,,,トイロ,0
1662,8110001038863,新規,0,2024-12-02,2024-12-02,ｄｕｂｅａ株式会社,,株式会社,新潟県,新潟市中央区,川端町２丁目１１―３―１２０５,,15,103,9518053,,,,,,,2024-12-02,1,,,,,デュベア,0
1663,8110003005597,新規,0,2024-12-02,2024-12-02,合同会社浜町共有地,,合同会社,新潟県,上越市,中央５丁目１２番１８号,,15,222,9420001,,,,,,,2024-12-02,1,,,,,ハマチョウキョウユウチ,0
1666,8120001270564,新規,0,2024-12-02,2024-12-02,怜駒株式会社,,株式会社,大阪府,大阪市平野区,瓜破西３丁目８番６号,,27,126,5470025,,,,,,,2024-12-02,1,,,,,レイコマ,0
1667,8120001270663,新規,0,2024-12-02,2024-12-02,株式会社ｃａｌｍ,,株式会社,大阪府,大阪市生野区,新今里１丁目８番９号２０２号,,27,116,5440001,,,,,,,2024-12-02,1,,,,,カァーム,0
1668,8120001270671,新規,0,2024-12-02,2024-12-02,ＴＯＰＳＥＬＦ株式会社,,株式会社,大阪府,大阪市西成区,天下茶屋１丁目４番１０号－Ａ室,,27,122,5570014,,,,,,,2024-12-02,1,,,,,トップセルフ,0
1669,8120001270721,新規,0,2024-12-02,2024-12-02,博匯世通重工株式会社,,株式会社,大阪府,大阪市北区,中之島６丁目１番３８－４１０５号,,27,127,5300005,,,,,,,2024-12-02,1,,,,,ハクエイセツウジュウコウ,0
1670,8120001270754,新規,0,2024-12-02,2024-12-02,株式会社ＧｒａｎｄＦｏｌｉｏ,,株式会社,大阪府,大阪市淀川区,西中島７丁目１－２９新大阪ＳＯＮＥビル５０１,,27,123,5320011,,,,,,,2024-12-02,1,,,,,グランドフォリオ,0
1673,8120005024636,新規,0,2024-12-02,2024-12-02,司法書士法人永井合同事務所,,その他の設立登記法人,大阪府,大阪市中央区,谷町１丁目５番４号,,27,128,5400012,,,,,,,2024-12-02,1,,,,,ナガイゴウドウジムショ,0
1675,8120105009933,新規,0,2024-12-02,2024-12-02,一般社団法人おはな会,,その他の設立登記法人,大阪府,富田林市,南旭ケ丘町１７番３号,,27,214,5840007,,,,,,,2024-12-02,1,,,,,オハナカイ,0
1676,8120901050099,新規,0,2024-12-02,2024-12-02,株式会社Ｉ．Ｖ．Ｙ,,株式会社,大阪府,三島郡島本町,広瀬１丁目４番６号,,27,301,6180011,,,,,,,2024-12-02,1,,,,,アイビー,0
1677,8120901050108,新規,0,2024-12-02,2024-12-02,ＡＳ株式会社,,株式会社,大阪府,吹田市,円山町１６番２３号,,27,205,5640061,,,,,,,2024-12-02,1,,,,,アス,0
1688,8140001136598,新規,0,2024-12-02,2024-12-02,Ｊエステート株式会社,,株式会社,兵庫県,神戸市中央区,磯辺通１丁目１番１８号カサベラ国際プラザビル７０７,,28,110,6510084,,,,,,,2024-12-02,1,,,,,ジェイエステート,0
1689,8140001136607,新規,0,2024-12-02,2024-12-02,株式会社ＮＥＥＤＬＥＳ,,株式会社,兵庫県,神戸市須磨区,一ノ谷町３丁目１番３１－３号,,28,107,6540076,,,,,,,2024-12-02,1,,,,,ニードレス,0
1692,8140003021369,新規,0,2024-12-02,2024-12-02,合同会社サン,,合同会社,兵庫県,加東市,吉馬１８４０番地,,28,228,6731475,,,,,,,2024-12-02,1,,,,,サン,0
1702,8180001164323,新規,0,2024-12-02,2024-12-02,株式会社燈和コネクションズ,,株式会社,愛知県,名古屋市守山区,弁天が丘７０２番地,,23,113,4630027,,,,,,,2024-12-02,1,,,,,トウワコネクションズ,0
1703,8180001164364,新規,0,2024-12-02,2024-12-02,株式会社ＦＫ．ｒｅｌａｔｉｏｎｓ,,株式会社,愛知県,名古屋市熱田区,波寄町５番１９号－１,,23,109,4560003,,,,,,,2024-12-02,1,,,,,エフケイリレーションズ,0
1704,8180003027668,新規,0,2024-12-02,2024-12-02,合同会社ステラコネクト,,合同会社,愛知県,瀬戸市,みずの坂２丁目１５２,,23,204,4890909,,,,,,,2024-12-02,1,,,,,ステラコネクト,0
1705,8180003027676,新規,0,2024-12-02,2024-12-02,合同会社辰,,合同会社,愛知県,愛西市,渕高町一ノ割２８番地１セントレー佐織２０２号,,23,232,4968018,,,,,,,2024-12-02,1,,,,,シン,0
1706,8180003027684,新規,0,2024-12-02,2024-12-02,ＤａｒｋＧｒｅｅｎＬｏｔｕｓ合同会社,,合同会社,愛知県,名古屋市天白区,鴻の巣２丁目２０１番地の３,,23,116,4680003,,,,,,,2024-12-02,1,,,,,ダークグリーンロータス,0
1711,8180303006355,新規,0,2024-12-02,2024-12-02,合同会社ファクトリー,,合同会社,愛知県,豊橋市,飯村町字高山２８４番地の２,,23,201,4400833,,,,,,,2024-12-02,1,,,,,ファクトリー,0
1714,8200001043193,新規,0,2024-12-02,2024-12-02,株式会社とくしん,,株式会社,岐阜県,羽島郡岐南町,徳田２丁目２１７番地,,21,302,5016016,,,,,,,2024-12-02,1,,,,,トクシン,0
1718,8200003006603,新規,0,2024-12-02,2024-12-02,ＨＥＹＷＡ商事合同会社,,合同会社,岐阜県,大垣市,上石津町一之瀬１６００番地１５,,21,202,5031614,,,,,,,2024-12-02,1,,,,,ヘイワショウジ,0
1725,8250003003604,新規,0,2024-12-02,2024-12-02,合同会社ＨＰＲ,,合同会社,山口県,柳井市,柳井２１４４番地,,35,212,7420021,,,,,,,2024-12-02,1,,,,,エイチピーアール,0
1744,8360001034508,新規,0,2024-12-02,2024-12-02,アーヂ・ニライカナイ株式会社,,株式会社,沖縄県,那覇市,赤嶺２丁目１３番１１号,,47,201,9010154,,,,,,,2024-12-02,1,,,,,アーヂニライカナイ,0
1749,8390001017807,新規,0,2024-12-02,2024-12-02,株式会社セラフィムバイオ,,株式会社,山形県,山形市,東原町２丁目１２番２０号,,06,201,9900034,,,,,,,2024-12-02,1,,,,,セラフィムバイオ,0
1769,9010001250130,新規,0,2024-12-02,2024-12-02,株式会社パッチワークス建築研究所,,株式会社,東京都,千代田区,神田須田町１丁目７番８号ＶＯＲＴ秋葉原ＩＶ２Ｆ,00137200,13,101,1010041,,,,,,,2024-12-02,1,,,,,パッチワークスケンチクケンキュウショ,0
1770,9010001250147,新規,0,2024-12-02,2024-12-02,株式会社安藤実業,,株式会社,東京都,千代田区,東神田３丁目３番８号ＴＫＳ東神田１Ｆ,,13,101,1010031,,,,,,,2024-12-02,1,,,,,アンドウジツギョウ,0
1771,9010001250329,新規,0,2024-12-02,2024-12-02,株式会社Ｂｅｓｔ　Ｏｎｅ,,株式会社,東京都,中央区,京橋２丁目７番８号ＦＰＧ・ｌｉｎｋｓ・ＫＹＯＢＡＳＨＩ８１５,,13,102,1040031,,,,,,,2024-12-02,1,,,,,ベストワン,0
1772,9010001250337,新規,0,2024-12-02,2024-12-02,株式会社マルファーロ,,株式会社,東京都,中央区,銀座１丁目２４番３号４階,,13,102,1040061,,,,,,,2024-12-02,1,,,,,マルファーロ,0
1773,9010001250386,新規,0,2024-12-02,2024-12-02,堀池商事株式会社,,株式会社,東京都,千代田区,神田司町２丁目４番地２,,13,101,1010048,,,,,,,2024-12-02,1,,,,,ホリイケショウジ,0
1775,9010003045652,新規,0,2024-12-02,2024-12-02,リンクス合同会社,,合同会社,東京都,文京区,大塚３丁目３４番１０号,,13,105,1120012,,,,,,,2024-12-02,1,,,,,リンクス,0
1776,9010003045669,新規,0,2024-12-02,2024-12-02,昭徳置地合同会社,,合同会社,東京都,中央区,日本橋本町３丁目３番６号,,13,102,1030023,,,,,,,2024-12-02,1,,,,,ショウトクオキチ,0
1779,9010005039223,新規,0,2024-12-02,2024-12-02,一般社団法人ミュースカーレット,,その他の設立登記法人,東京都,千代田区,丸の内１丁目４番１号東京共同会計事務所内,,13,101,1000005,,,,,,,2024-12-02,1,,,,,ミュースカーレット,0
1786,9010403033926,新規,0,2024-12-02,2024-12-02,ＵＩ安八１合同会社,,合同会社,東京都,港区,六本木１丁目６番１号泉ガーデンタワー,,13,103,1060032,,,,,,,2024-12-02,1,,,,,ユーアイアンパチワン,0
1790,9010601066389,新規,0,2024-12-02,2024-12-02,株式会社ＭＳＫ,,株式会社,東京都,江東区,有明１丁目１番１７シティタワー有明３０１３号,,13,108,1350063,,,,,,,2024-12-02,1,,,,,エムエスケー,0
1792,9010703007489,新規,0,2024-12-02,2024-12-02,Ｃ’ｓＧＡＴＥ合同会社,,合同会社,東京都,品川区,東五反田２丁目５－２ＴＨＥＣＡＳＫＧＯＴＡＮＤＡＦＤ－０７,,13,109,1410022,,,,,,,2024-12-02,1,,,,,シーズゲート,0
1812,9011101109729,新規,0,2024-12-02,2024-12-02,株式会社Ｂｒｉｌｌａｎｔｅ,,株式会社,東京都,新宿区,愛住町１６－２９ＹｏｔｓｕｙａＢａｓｅ３０３,,13,104,1600005,,,,,,,2024-12-02,1,,,,,ブリリャンテ,0
1814,9011201025958,新規,0,2024-12-02,2024-12-02,株式会社Ｐ．Ｋ．Ｃ,,株式会社,東京都,中野区,中野２丁目２４番９号ナカノサウステラレジデンス棟Ａ－１０３－１,,13,114,1640001,,,,,,,2024-12-02,1,,,,,ピーケーシー,0
1819,9011505002661,新規,0,2024-12-02,2024-12-02,一般社団法人山盟会,,その他の設立登記法人,東京都,北区,中里２丁目２－６,,13,117,1140015,,,,,,,2024-12-02,1,,,,,サンメイカイ,0
1820,9011601028247,新規,0,2024-12-02,2024-12-02,株式会社Ｄａｆｉｉ,,株式会社,東京都,練馬区,氷川台３丁目１２－３,,13,120,1790084,,,,,,,2024-12-02,1,,,,,ダフィー,0
1821,9011603004535,新規,0,2024-12-02,2024-12-02,合同会社ＹＥＢＩＳＵ,,合同会社,東京都,練馬区,大泉町６丁目２９－４,,13,120,1780062,,,,,,,2024-12-02,1,,,,,エビス,0
1834,9013301053459,新規,0,2024-12-02,2024-12-02,順馳株式会社,,株式会社,東京都,豊島区,池袋２丁目３０－１５三田池袋西コーポ３０６,,13,116,1710014,,,,,,,2024-12-02,1,,,,,ジュンチ,0
1837,9020001160320,新規,0,2024-12-02,2024-12-02,株式会社コーラルワン,,株式会社,神奈川県,川崎市宮前区,有馬８丁目５－１８ラフィナート１０２号,,14,136,2160003,,,,,,,2024-12-02,1,,,,,コーラルワン,0
1842,9020003027377,新規,0,2024-12-02,2024-12-02,ふくしまエナジー合同会社,,合同会社,神奈川県,横浜市青葉区,つつじが丘２３番地７－２０８,,14,117,2270055,,,,,,,2024-12-02,1,,,,,フクシマエナジー,0
1843,9020005016626,新規,0,2024-12-02,2024-12-02,ミレニア弁理士法人,,その他の設立登記法人,神奈川県,横浜市港北区,新横浜１丁目１３番地６,,14,109,2220033,,,,,,,2024-12-02,1,,,,,ミレニア,0
1864,9040001136368,新規,0,2024-12-02,2024-12-02,株式会社ＥＸＣＩＴＩＮＧ,,株式会社,千葉県,船橋市,小室町３３１８番地６,,12,204,2701471,,,,,,,2024-12-02,1,,,,,エキサイティング,0
1874,9090003002687,新規,0,2024-12-02,2024-12-02,合同会社Ｗｅｌｌｂｅベネッセレ,,合同会社,山梨県,山梨市,牧丘町室伏１７７番地,,19,205,4040012,,,,,,,2024-12-02,1,,,,,ウェルビーベネッセレ,0
1880,9110001038879,新規,0,2024-12-02,2024-12-02,株式会社ＢＬＡＣＫＢＩＲＤ,,株式会社,新潟県,新潟市西区,黒鳥６４８番地１,,15,107,9501123,,,,,,,2024-12-02,1,,,,,ブラックバード,0
1892,9120001270687,新規,0,2024-12-02,2024-12-02,最上自動車株式会社,,株式会社,大阪府,大阪市北区,大淀中５丁目５番４号,,27,127,5310076,,,,,,,2024-12-02,1,,,,,モガミジドウシャ,0
1893,9120001270753,新規,0,2024-12-02,2024-12-02,株式会社ｍｉｔａｓ,,株式会社,大阪府,大阪市旭区,赤川２丁目５番１３号－２０５号,,27,117,5350005,,,,,,,2024-12-02,1,,,,,ミタス,0
1899,9120901050098,新規,0,2024-12-02,2024-12-02,株式会社ＡＬＬ　ＢＬＵＥＳ,,株式会社,大阪府,豊中市,新千里東町３丁目３番５０－９１１号,,27,203,5600082,,,,,,,2024-12-02,1,,,,,オールブルース,0
1900,9120901050107,新規,0,2024-12-02,2024-12-02,株式会社ときいろ,,株式会社,大阪府,豊中市,玉井町２丁目１４番２４号,,27,203,5600026,,,,,,,2024-12-02,1,,,,,トキイロ,0
1903,9122001038701,新規,0,2024-12-02,2024-12-02,株式会社華菜,,株式会社,大阪府,東大阪市,中鴻池町１丁目７番３３号,,27,227,5780975,,,,,,,2024-12-02,1,,,,,カナ,0
1907,9130001078452,新規,0,2024-12-02,2024-12-02,株式会社キャリアリーダーシップラボ,,株式会社,京都府,京都市右京区,太秦井戸ケ尻町２１番地１０,,26,108,6168122,,,,,,,2024-12-02,1,,,,,キャリアリーダーシップラボ,0
1910,9140001136589,新規,0,2024-12-02,2024-12-02,株式会社虹のツーリスト神戸,,株式会社,兵庫県,神戸市中央区,東川崎町１丁目８番４号神戸市産業振興センター,,28,110,6500044,,,,,,,2024-12-02,1,,,,,ニジノツーリストコウベ,0
1911,9140003021376,新規,0,2024-12-02,2024-12-02,合同会社Ａｔｅｌｉｅｒ　Ｎａ‐ｒｉｎ,,合同会社,兵庫県,姫路市,広畑区才６９番地７,,28,201,6711104,,,,,,,2024-12-02,1,,,,,アトリエナーリン,0
1925,9180001164322,新規,0,2024-12-02,2024-12-02,株式会社インテリネットプロ,,株式会社,愛知県,尾張旭市,庄南町２丁目４番地３パークサイド庄南北館６０１号,,23,226,4880823,,,,,,,2024-12-02,1,,,,,インテリネットプロ,0
1926,9180001164355,新規,0,2024-12-02,2024-12-02,株式会社アイアスコンサルティング,,株式会社,愛知県,名古屋市中区,錦３丁目２番３０号,,23,106,4600003,,,,,,,2024-12-02,1,,,,,アイアスコンサルティング,0
1927,9180001164363,新規,0,2024-12-02,2024-12-02,株式会社ＬＶＥＢ,,株式会社,愛知県,名古屋市中村区,平池町４丁目６０番５号ロイヤルパークスＥＲささしま６１１,,23,105,4530872,,,,,,,2024-12-02,1,,,,,エルブイイービー,0
1933,9190003004863,新規,0,2024-12-02,2024-12-02,合同会社Ｇｅｎｅ,,合同会社,三重県,松阪市,石津町９３番地２,,24,204,5150006,,,,,,,2024-12-02,1,,,,,ジーン,0
1945,9260001039680,新規,0,2024-12-02,2024-12-02,ＷＥＬＩＮＡ　ＳＵＮ　ＨＯＬＤＩＮＧＳ株式会社,,株式会社,岡山県,総社市,中央２丁目１１番２７号,,33,208,7191131,,,,,,,2024-12-02,1,,,,,ウェリナサンホールディングス,0
1956,9290001108053,新規,0,2024-12-02,2024-12-02,株式会社サンビア,,株式会社,福岡県,福岡市博多区,博多駅前１丁目２３番２号ＰａｒｋＦｒｏｎｔ博多駅前１丁目５Ｆ－Ｂ,,40,132,8120011,,,,,,,2024-12-02,1,,,,,サンビア,0
1957,9290001108136,新規,0,2024-12-02,2024-12-02,株式会社福岡の工房,,株式会社,福岡県,糟屋郡志免町,王子３丁目２２番６号,,40,343,8112209,,,,,,,2024-12-02,1,,,,,フクオカノコウボウ,0
1967,9290801031082,新規,0,2024-12-02,2024-12-02,株式会社クイアレイ,,株式会社,福岡県,北九州市小倉北区,室町２丁目５－１カーニープレイス小倉ビル１０２号,,40,106,8030812,,,,,,,2024-12-02,1,,,,,クイアレイ,0
1969,9320001020840,新規,0,2024-12-02,2024-12-02,株式会社フロントランナー,,株式会社,大分県,大分市,大字政所２１０３番地の３アミューズメントプラザ２Ｆ,,44,201,8700268,,,,,,,2024-12-02,1,,,,,フロントランナー,0
1970,9330001032703,新規,0,2024-12-02,2024-12-02,株式会社ｉｎｏｌｉ,,株式会社,熊本県,熊本市中央区,上通町２番１７号びぷれす熊日会館７階,,43,101,8600845,,,,,,,2024-12-02,1,,,,,イノリ,0
1981,9370001051996,新規,0,2024-12-02,2024-12-02,株式会社プレステクノス,,株式会社,宮城県,仙台市太白区,西中田３丁目１２番１３号,,04,104,9811105,,,,,,,2024-12-02,1,,,,,プレステクノス,0
1994,9430001093173,新規,0,2024-12-02,2024-12-02,株式会社高陽,00137186,株式会社,北海道,札幌市東区,北十六条東１９丁目３番１２号,,01,103,0650016,,,,,,,2024-12-02,1,,,,,コウヨウ,0
1995,9430001093181,新規,0,2024-12-02,2024-12-02,株式会社ｓｅｅｎ．,,株式会社,北海道,札幌市中央区,南二条西５丁目６番地１ロジェ札幌２５ビル２Ｆ,,01,101,0600062,,,,,,,2024-12-02,1,,,,,シーン,0
2001,9470001020479,新規,0,2024-12-02,2024-12-02,株式会社茉穂,,株式会社,香川県,高松市,古馬場町９番地２６,,37,201,7600045,,,,,,,2024-12-02,1,,,,,マホ,0
2005,9500003003379,新規,0,2024-12-02,2024-12-02,合同会社ＣＯＲＥ,,合同会社,愛媛県,松山市,余戸中６丁目７―９ラフィネタウンアトレＡ,,38,201,7900045,,,,,,,2024-12-02,1,,,,,コア,0
