sequenceNumber,corporateNumber,process,correct,updateDate,changeDate,name,nameImageId,kind,prefectureName,cityName,streetNumber,addressImageId,prefectureCode,cityCode,postCode,addressOutside,addressOutsideImageId,closeDate,closeCause,successorCorporateNumber,changeCause,assignmentDate,latest,enName,enPrefectureName,enCityName,enAddressOutside,furigana,hihyoji
5,1010001183040,登記記録の閉鎖等,0,2023-05-11,2023-04-26,ＩＦＭ　Ｊａｐａｎ株式会社,,株式会社,東京都,中央区,日本橋兜町５番１号兜町第１平和ビル３Ｆ,,13,102,1030026,,,2023-04-26,清算の結了等,,,2017-04-28,1,,,,,アイエフエムジャパン,0
18,1010405015814,登記記録の閉鎖等,0,2023-05-11,2023-04-17,美咲町ホールディングス一般社団法人,,その他の設立登記法人,東京都,港区,虎ノ門３丁目２２番１０－２０１号,,13,103,1050001,,,2023-04-17,清算の結了等,,,2017-06-01,1,,,,,ミサキチョウホールディングス,0
26,1010702000361,登記記録の閉鎖等,0,2023-05-11,2023-04-25,有限会社アシャンティー,,有限会社,東京都,品川区,旗の台６丁目１６番１４号,,13,109,1420064,,,2023-04-25,清算の結了等,,,2015-10-05,1,,,,,アシャンティー,0
34,1010901001235,登記記録の閉鎖等,0,2023-05-11,2023-05-02,株式会社インテリア越百,,株式会社,東京都,世田谷区,赤堤１丁目８番１４－１０１号,,13,112,1560044,,,2023-05-02,清算の結了等,,,2015-10-05,1,,,,,インテリアコスモ,0
42,1011001110950,登記記録の閉鎖等,0,2023-05-11,2023-05-01,株式会社ｎｉｍ　ｎｉｎｅ,,株式会社,東京都,渋谷区,神宮前３丁目３７番１－６１３号,,13,113,1500001,,,2023-05-01,清算の結了等,,,2016-05-19,1,,,,,,0
53,1011101044933,登記記録の閉鎖等,0,2023-05-11,2023-05-09,株式会社ＫＳＩ,,株式会社,東京都,新宿区,天神町１４,,13,104,1620808,,,2023-05-09,清算の結了等,,,2015-10-05,1,,,,,ケイエスアイ,0
73,1011801010904,登記記録の閉鎖等,0,2023-05-11,2023-05-08,株式会社二十五世紀総合研究所,,株式会社,東京都,足立区,綾瀬３丁目１５番２０号,,13,121,1200005,,,2023-05-08,清算の結了等,,,2015-10-05,1,,,,,ニジュウゴセイキソウゴウケンキュウジョ,0
86,1020001009335,登記記録の閉鎖等,0,2023-05-11,2023-04-21,株式会社マックス,,株式会社,千葉県,市原市,泉台４丁目１２番地１０,,12,219,2990114,,,2023-04-21,清算の結了等,,,2015-10-05,1,,,,,マックス,0
92,1020005011683,登記記録の閉鎖等,0,2023-05-11,2023-04-20,一般社団法人川崎市民相談会,,その他の設立登記法人,神奈川県,川崎市中原区,新城３丁目４番６号小竹ビル新城３階,,14,133,2110044,,,2023-04-20,清算の結了等,,,2015-10-05,1,,,,,カワサキシミンソウダンカイ,0
102,1030001056153,登記記録の閉鎖等,0,2023-05-11,2023-04-18,城西ハウジング株式会社,,株式会社,埼玉県,ふじみ野市,大井中央２丁目３番１７号,,11,245,3560058,,,2023-04-18,清算の結了等,,,2015-10-05,1,,,,,ジョウサイハウジング,0
113,1030003005959,登記記録の閉鎖等,0,2023-05-11,2023-05-02,合同会社パルテック,,合同会社,東京都,豊島区,南大塚１丁目６０－２０,,13,116,1700005,,,2023-05-02,清算の結了等,,,2015-10-05,1,,,,,パルテック,0
131,1060001022755,登記記録の閉鎖等,0,2023-05-11,2023-04-26,あんしん典礼株式会社,,株式会社,栃木県,宇都宮市,大通り５丁目２番８号,,09,201,3200811,,,2023-04-26,清算の結了等,,,2015-10-05,1,,,,,アンシンテンレイ,0
136,1070001027662,登記記録の閉鎖等,0,2023-05-11,2023-05-01,株式会社ＰＲＥＳＥＡ,,株式会社,群馬県,伊勢崎市,今井町３２９番地１,,10,204,3720823,,,2023-05-01,合併による解散等,9070002022119,令和５年４月３０日群馬県佐波郡玉村町大字樋越３番地１株式会社ケイアイカーズ（9070002022119）に合併し解散,2015-10-05,1,,,,,プレセア,0
153,1120001019010,登記記録の閉鎖等,0,2023-05-11,2023-05-10,株式会社オフィス宮本,,株式会社,大阪府,大阪市生野区,生野西２丁目３番８号,,27,116,5440024,,,2023-05-10,清算の結了等,,,2015-10-05,1,,,,,オフィスミヤモト,0
154,1120001043712,登記記録の閉鎖等,0,2023-05-11,2023-05-01,三東保温株式会社,,株式会社,大阪府,大阪市西区,南堀江４丁目２５番１号東芝ビル,,27,106,5500015,,,2023-05-01,清算の結了等,,,2023-02-08,1,,,,,,0
167,1120102016757,登記記録の閉鎖等,0,2023-05-11,2023-05-08,元気工房有限会社,,有限会社,大阪府,富田林市,中野町東２丁目１番１６号,,27,214,5840022,,,2023-05-08,清算の結了等,,,2015-10-05,1,,,,,ゲンキコウボウ,0
171,1120901013665,登記記録の閉鎖等,0,2023-05-11,2023-05-02,株式会社ＴＡＣインターナショナル,,株式会社,大阪府,吹田市,豊津町２番１１号,,27,205,5640051,,,2023-05-02,清算の結了等,,,2015-10-05,1,,,,,ティエーシィインターナショナル,0
175,1130001047340,登記記録の閉鎖等,0,2023-05-11,2023-05-08,株式会社フジホームズ,,株式会社,滋賀県,大津市,萱野浦２４－１２,,25,201,5202143,,,2023-05-08,合併による解散等,9010401150839,令和５年５月１日京都市山科区椥辻平田町１８６株式会社フジホームズ（9010401150839）に合併し解散,2015-10-05,1,,,,,フジホームズ,0
181,1130005000915,登記記録の閉鎖等,0,2023-05-11,2023-04-28,金光教廣道教会,00038381,その他の設立登記法人,京都府,京都市左京区,岡崎西福ノ川町２４番地,,26,103,6068326,,,2023-04-28,合併による解散等,9130005000890,令和５年４月２８日京都市中京区室町通夷川上る鏡屋町２５番地金光教烏丸教会（9130005000890）に合併し解散,2015-10-05,1,,,,,コンコウキョウヒロミチキョウカイ,0
207,1180001143944,登記記録の閉鎖等,0,2023-05-11,2023-05-02,株式会社Ｅｎｚｏ,,株式会社,岐阜県,瑞穂市,祖父江１０２５番地,,21,216,5010225,,,2023-05-02,清算の結了等,,,2020-12-10,1,,,,,エンツォ,0
211,1180005015553,登記記録の閉鎖等,0,2023-05-11,2023-05-08,一般社団法人社員教育内製化推進協会,,その他の設立登記法人,愛知県,名古屋市中区,栄５丁目１番５号,,23,106,4600008,,,2023-05-08,清算の結了等,,,2015-10-05,1,,,,,シャインキョウイクナイセイカスイシンキョウカイ,0
217,1180302014761,登記記録の閉鎖等,0,2023-05-11,2023-05-09,有限会社スクラム,,有限会社,愛知県,豊川市,金屋本町３丁目１０番地,,23,207,4420052,,,2023-05-09,清算の結了等,,,2015-10-05,1,,,,,スクラム,0
243,1290002045311,登記記録の閉鎖等,0,2023-05-11,2023-04-28,有限会社エーワン,,有限会社,福岡県,飯塚市,上三緒４４３番地１４０,,40,205,8200013,,,2023-04-28,清算の結了等,,,2015-10-05,1,,,,,エーワン,0
257,1350001009590,登記記録の閉鎖等,0,2023-05-11,2023-04-28,井徳建設株式会社,,株式会社,宮崎県,串間市,大字串間１４７４番地１,,45,207,8880004,,,2023-04-28,清算の結了等,,,2015-10-05,1,,,,,イトクケンセツ,0
264,1390002001114,登記記録の閉鎖等,0,2023-05-11,2023-05-08,有限会社更科製作所,,有限会社,山形県,山形市,落合町３５番地の２,,06,201,9900075,,,2023-05-08,清算の結了等,,,2015-10-05,1,,,,,サラシナセイサクショ,0
271,1430001076846,登記記録の閉鎖等,0,2023-05-11,2023-04-21,株式会社アグリエンタ北海道,,株式会社,北海道,夕張市,清水沢宮前町５番地,,01,209,0680534,,,2023-04-21,清算の結了等,,,2018-06-25,1,,,,,アグリエンタホッカイドウ,0
290,2010001183270,登記記録の閉鎖等,0,2023-05-11,2023-04-27,日本電灯電力販売株式会社,,株式会社,東京都,千代田区,九段南１丁目５番６号,,13,101,1020074,,,2023-04-27,清算の結了等,,,2017-05-02,1,,,,,ニホンデントウデンリョクハンバイ,0
297,2010003034711,登記記録の閉鎖等,0,2023-05-11,2023-05-01,合同会社天王寺キャピタル,,合同会社,東京都,千代田区,丸の内１丁目６番５号,,13,101,1000005,,,2023-05-01,清算の結了等,,,2021-04-26,1,,,,,テンノウジキャピタル,0
303,2010401048338,登記記録の閉鎖等,0,2023-05-11,2023-04-18,ウェブエックス・コミュニケーションズ・ジャパン合同会社,,合同会社,東京都,港区,赤坂９丁目７番１号ミッドタウン・タワー,,13,103,1070052,,,2023-04-18,清算の結了等,,,2015-10-05,1,,,,,ウェブエックスコミュニケーションズジャパン,0
304,2010401134039,登記記録の閉鎖等,0,2023-05-11,2023-04-26,株式会社ドルトムント・サッカーアカデミー,,株式会社,東京都,品川区,東品川２丁目３番１２号,,13,109,1400002,,,2023-04-26,合併による解散等,2010001139553,令和５年４月１日東京都品川区東品川二丁目３番１２号ＮＯＶＡホールディングス株式会社（2010001139553）に合併し解散,2017-10-06,1,,,,,ドルトムントサッカーアカデミー,0
320,2010701024914,登記記録の閉鎖等,0,2023-05-11,2023-04-27,株式会社コンズ,,株式会社,東京都,品川区,戸越４丁目３番２３号,,13,109,1420041,,,2023-04-27,清算の結了等,,,2015-10-05,1,,,,,コンズ,0
340,2011101006437,登記記録の閉鎖等,0,2023-05-11,2023-05-10,株式会社互研,,株式会社,東京都,中野区,大和町１丁目１４番６号,,13,114,1650034,,,2023-05-10,清算の結了等,,,2015-10-05,1,,,,,ゴケン,0
353,2011401022398,登記記録の閉鎖等,0,2023-05-11,2023-05-02,株式会社アゼット設計企画,,株式会社,東京都,板橋区,大和町１０番１１号パラストネオ板橋２０３号,,13,119,1730012,,,2023-05-02,清算の結了等,,,2020-02-19,1,,,,,アゼットセッケイキカク,0
359,2011801005944,登記記録の閉鎖等,0,2023-05-11,2023-05-02,株式会社石塚電機製作所,,株式会社,東京都,足立区,島根２丁目２７番８号,,13,121,1210815,,,2023-05-02,清算の結了等,,,2015-10-05,1,,,,,イシヅカデンキセイサクジョ,0
392,2020002064989,登記記録の閉鎖等,0,2023-05-11,2023-04-28,有限会社イトウ工業,,有限会社,神奈川県,横浜市鶴見区,鶴見中央５丁目３１番２４－７０４号,,14,101,2300051,,,2023-04-28,清算の結了等,,,2015-10-05,1,,,,,イトウコウギョウ,0
396,2021001039874,登記記録の閉鎖等,0,2023-05-11,2023-05-09,株式会社青葉テックス,,株式会社,神奈川県,横須賀市,小原台７番１９号,,14,201,2390812,,,2023-05-09,清算の結了等,,,2015-10-05,1,,,,,,0
405,2040001078815,登記記録の閉鎖等,0,2023-05-11,2023-04-20,株式会社ヨーコー,,株式会社,千葉県,市原市,八幡北町２丁目２番地１５,,12,219,2900069,,,2023-04-20,清算の結了等,,,2015-10-05,1,,,,,ヨーコー,0
410,2040002096865,登記記録の閉鎖等,0,2023-05-11,2023-04-21,有限会社上半商店,,有限会社,千葉県,野田市,野田５８９番地,,12,208,2780037,,,2023-04-21,清算の結了等,,,2015-10-05,1,,,,,,0
420,2050002043081,登記記録の閉鎖等,0,2023-05-11,2023-05-02,有限会社九曜,,有限会社,茨城県,桜川市,東飯田４７９番地,,08,231,3091233,,,2023-05-02,清算の結了等,,,2015-10-05,1,,,,,クヨウ,0
429,2080101007323,登記記録の閉鎖等,0,2023-05-11,2023-05-09,ワインディングマシーン株式会社,,株式会社,静岡県,沼津市,庄栄町６番１１号,,22,203,4100047,,,2023-05-09,清算の結了等,,,2015-10-05,1,,,,,ワインディングマシーン,0
431,2080102020911,登記記録の閉鎖等,0,2023-05-11,2023-05-09,有限会社大川洋品店,,有限会社,静岡県,下田市,一丁目２０番１６号,,22,219,4150021,,,2023-05-09,清算の結了等,,,2015-10-05,1,,,,,オオカワヨウヒンテン,0
434,2080402013524,登記記録の閉鎖等,0,2023-05-11,2023-05-09,有限会社愉の葉,,有限会社,静岡県,浜松市東区,篠ケ瀬町１０２１番地,,22,132,4350042,,,2023-05-09,清算の結了等,,,2015-10-05,1,,,,,ユノハ,0
463,2120101022747,登記記録の閉鎖等,0,2023-05-11,2023-05-09,不二建物株式会社,,株式会社,大阪府,堺市南区,槇塚台３丁３８番１２号,00046812,27,145,5900114,,,2023-05-09,清算の結了等,,,2015-10-05,1,,,,,フジタテモノ,0
516,2290802022368,登記記録の閉鎖等,0,2023-05-11,2023-05-10,有限会社タイヤショップ・シティロード,,有限会社,福岡県,行橋市,北泉２丁目２番３号,,40,213,8240033,,,2023-05-10,清算の結了等,,,2015-10-05,1,,,,,タイヤショップシティロード,0
525,2310005002025,登記記録の閉鎖等,0,2023-05-11,2023-05-10,特定非営利活動法人長崎斜面研究会,,その他の設立登記法人,長崎県,長崎市,銀屋町４番１１号,,42,201,8500854,,,2023-05-10,清算の結了等,,,2015-10-05,1,,,,,,0
534,2350001008468,登記記録の閉鎖等,0,2023-05-11,2023-04-27,株式会社タニヤマ,,株式会社,宮崎県,北諸県郡三股町,大字樺山４８３７番地６,,45,341,8891901,,,2023-04-27,清算の結了等,,,2015-10-05,1,,,,,タニヤマ,0
539,2360001008285,登記記録の閉鎖等,0,2023-05-11,2023-05-01,株式会社ビッグウェイ,,株式会社,沖縄県,浦添市,沢岻２丁目２２番９号,,47,208,9012112,,,2023-05-01,清算の結了等,,,2015-10-05,1,,,,,ビッグウェイ,0
543,2360005003737,登記記録の閉鎖等,0,2023-05-11,2023-03-31,特定非営利活動法人新城島環境保護協会,,その他の設立登記法人,沖縄県,八重山郡竹富町,字新城１５番地,,47,381,9071435,,,2023-03-31,清算の結了等,,,2015-10-05,1,,,,,シンジョウジマカンキョウホゴキョウカイ,0
554,2400005008145,登記記録の閉鎖等,0,2023-05-11,2023-04-27,一般社団法人ＡＲＴ　ＶＩＲＡＬＬ,,その他の設立登記法人,岩手県,盛岡市,向中野７丁目２０－１５ヒルズレジデンシャルＳ１２－１１０,,03,201,0200851,,,2023-04-27,清算の結了等,,,2021-04-02,1,,,,,アートバイラル,0
557,2430001022213,登記記録の閉鎖等,0,2023-05-11,2023-04-21,北海道ダイワ工業株式会社,,株式会社,北海道,札幌市西区,山の手二条９丁目３番１号,,01,107,0630002,,,2023-04-21,清算の結了等,,,2015-10-05,1,,,,,ホッカイドウダイワコウギョウ,0
569,3010001164955,登記記録の閉鎖等,0,2023-05-11,2023-04-28,銀座魚勝株式会社,,株式会社,東京都,中央区,銀座４丁目３番７号銀座スバルビル２階,,13,102,1040061,,,2023-04-28,清算の結了等,,,2015-10-05,1,,,,,ギンザウオカツ,0
592,3010501028412,登記記録の閉鎖等,0,2023-05-11,2023-05-01,株式会社東京ヒップ,,株式会社,東京都,台東区,台東１丁目７番１号邦洋秋葉原ビル,,13,106,1100016,,,2023-05-01,合併による解散等,4010501028411,令和５年５月１日東京都台東区台東一丁目７番１号邦洋秋葉原ビル株式会社ダンク（4010501028411）に合併し解散,2015-10-05,1,,,,,トウキョウヒップ,0
596,3010601053368,登記記録の閉鎖等,0,2023-05-11,2023-05-02,株式会社佐伯,,株式会社,東京都,江東区,豊洲５丁目１番１３－４３０５号,,13,108,1350061,,,2023-05-02,清算の結了等,,,2018-05-22,1,,,,,サエキ,0
597,3010602027222,登記記録の閉鎖等,0,2023-05-11,2023-05-02,有限会社伊藤刻印,,有限会社,東京都,墨田区,吾妻橋２丁目１７番１３号,,13,107,1300001,,,2023-05-02,清算の結了等,,,2015-10-05,1,,,,,イトウコクイン,0
603,3010805000348,登記記録の閉鎖等,0,2023-05-11,2023-04-27,天理教新華分教會,00052575,その他の設立登記法人,東京都,大田区,仲池上２丁目２０番６号,,13,111,1460081,,,2023-04-27,合併による解散等,2010405001458,令和５年４月１０日東京都港区南麻布三丁目１４番１２号天理教新橋分教会（2010405001458）に合併し解散,2015-10-05,1,,,,,,0
611,3011001116269,登記記録の閉鎖等,0,2023-05-11,2023-05-01,株式会社ＦａＮ,,株式会社,東京都,港区,南青山４丁目１４番７号,,13,103,1070062,,,2023-05-01,合併による解散等,5010401113361,令和５年５月１日東京都港区南青山四丁目１４番７号株式会社Ｆａｓｔ　Ｂｅａｕｔｙ（5010401113361）に合併し解散,2017-05-10,1,,,,,ファン,0
623,3011101044816,登記記録の閉鎖等,0,2023-05-11,2023-05-09,新和ホールディングス株式会社,,株式会社,東京都,新宿区,大久保２丁目２１番１２号,,13,104,1690072,,,2023-05-09,清算の結了等,,,2015-10-05,1,,,,,シンワホールディングス,0
633,3011302017389,登記記録の閉鎖等,0,2023-05-11,2023-05-01,有限会社東菊,,有限会社,東京都,杉並区,上荻１丁目４番１０号,,13,115,1670043,,,2023-05-01,清算の結了等,,,2022-03-22,1,,,,,アズマギク,0
637,3011501027981,登記記録の閉鎖等,0,2023-05-11,2023-04-28,株式会社ＢｅｓｉｄｅＵｐ,,株式会社,東京都,北区,赤羽１丁目７番９号赤羽第一葉山ビル４階,,13,117,1150045,,,2023-04-28,清算の結了等,,,2022-04-26,1,,,,,ビサイドアップ,0
651,3012403004573,登記記録の閉鎖等,0,2023-05-11,2023-05-09,合同会社Ｎ＆Ａ,,合同会社,東京都,武蔵野市,吉祥寺南町３丁目４５番１０－３０３号,,13,203,1800003,,,2023-05-09,清算の結了等,,,2020-11-05,1,,,,,エヌアンドエー,0
658,3013301024168,登記記録の閉鎖等,0,2023-05-11,2023-04-28,ラパス・エンヂニヤリング株式会社,,株式会社,東京都,豊島区,池袋２丁目２３番３号,,13,116,1710014,,,2023-04-28,清算の結了等,,,2015-10-05,1,,,,,ラパスエンヂニヤリング,0
662,3013302007007,登記記録の閉鎖等,0,2023-05-11,2023-05-02,有限会社東宝クリーニング,,有限会社,東京都,豊島区,上池袋３丁目２７番１６号,,13,116,1700012,,,2023-05-02,清算の結了等,,,2015-10-05,1,,,,,トウホウクリーニング,0
665,3020001103937,登記記録の閉鎖等,0,2023-05-11,2023-04-28,株式会社アクト・カルク,,株式会社,神奈川県,横浜市神奈川区,神大寺２丁目７番１０号,,14,102,2210801,,,2023-04-28,清算の結了等,,,2015-10-05,1,,,,,アクトカルク,0
678,3030001033745,登記記録の閉鎖等,0,2023-05-11,2023-04-20,株式会社シンワウォーターライン,,株式会社,埼玉県,加須市,北小浜１３９２番地５,,11,210,3470011,,,2023-04-20,清算の結了等,,,2015-10-05,1,,,,,シンワウォーターライン,0
679,3030001038455,登記記録の閉鎖等,0,2023-05-11,2023-04-20,株式会社櫻田建装,,株式会社,埼玉県,草加市,谷塚上町７０１番地３,,11,221,3400024,,,2023-04-20,清算の結了等,,,2015-10-05,1,,,,,サクラダケンソウ,0
689,3030002080101,登記記録の閉鎖等,0,2023-05-11,2023-04-19,有限会社レイクテカポ,,有限会社,埼玉県,川越市,上戸新町１８番地４,,11,201,3500817,,,2023-04-19,清算の結了等,,,2015-10-05,1,,,,,レイクテカポ,0
702,3040002037091,登記記録の閉鎖等,0,2023-05-11,2023-04-20,有限会社やまき建装,,有限会社,千葉県,市川市,妙典３丁目１１番２９号,,12,203,2720111,,,2023-04-20,清算の結了等,,,2015-10-05,1,,,,,ヤマキケンソウ,0
703,3040002068178,登記記録の閉鎖等,0,2023-05-11,2023-04-20,伊藤商事有限会社,,有限会社,千葉県,袖ケ浦市,蔵波台６丁目２６番地１８,,12,229,2990245,,,2023-04-20,清算の結了等,,,2015-10-05,1,,,,,,0
725,3080402010537,登記記録の閉鎖等,0,2023-05-11,2023-05-09,有限会社アオイニュースシステム,,有限会社,静岡県,浜松市中区,葵西４丁目１番８９号,,22,131,4338111,,,2023-05-09,清算の結了等,,,2015-10-05,1,,,,,アオイニュースシステム,0
738,3120001196723,登記記録の閉鎖等,0,2023-05-11,2023-05-08,株式会社ライフコンサル,,株式会社,大阪府,大阪市浪速区,幸町２丁目３番３３－１２０３号,,27,111,5560021,,,2023-05-08,清算の結了等,,,2016-03-07,1,,,,,ライフコンサル,0
766,3140001003869,登記記録の閉鎖等,0,2023-05-11,2023-05-02,株式会社白寳堂,,株式会社,兵庫県,神戸市灘区,篠原中町１丁目２番４号,,28,102,6570066,,,2023-05-02,合併による解散等,4140001003133,令和５年５月１日神戸市灘区篠原中町一丁目２番４号株式会社白寳堂（4140001003133）に合併し解散,2015-10-05,1,,,,,ハクホウドウ,0
767,3140001020575,登記記録の閉鎖等,0,2023-05-11,2023-05-08,ホームネット・トラスト株式会社,,株式会社,兵庫県,神戸市西区,岩岡町岩岡６５４番地の２２８,,28,111,6512401,,,2023-05-08,清算の結了等,,,2015-10-05,1,,,,,ホームネットトラスト,0
768,3140001028932,登記記録の閉鎖等,0,2023-05-11,2023-05-01,株式会社雷企画,,株式会社,兵庫県,神戸市長田区,久保町６丁目１番６－１３０７号,,28,106,6530041,,,2023-05-01,清算の結了等,,,2015-10-05,1,,,,,ライキカク,0
790,3180301004712,登記記録の閉鎖等,0,2023-05-11,2023-05-08,株式会社ケーキューブコーポレーション,,株式会社,愛知県,岡崎市,下和田町字神宮司２１番地１,,23,202,4440212,,,2023-05-08,清算の結了等,,,2015-10-05,1,,,,,ケーキューブコーポレーション,0
812,3280001006214,登記記録の閉鎖等,0,2023-05-11,2023-05-09,株式会社津和野コンクリート,,株式会社,島根県,鹿足郡津和野町,河村８１７番地,,32,501,6995212,,,2023-05-09,清算の結了等,,,2015-10-05,1,,,,,ツワノコンクリート,0
824,3310002001243,登記記録の閉鎖等,0,2023-05-11,2023-05-09,有限会社川口商事,,有限会社,長崎県,長崎市,岩川町３番５号,,42,201,8528106,,,2023-05-09,清算の結了等,,,2015-10-05,1,,,,,カワグチショウジ,0
837,3350002015033,登記記録の閉鎖等,0,2023-05-11,2023-05-01,有限会社みやま開発,,有限会社,宮崎県,都城市,安久町４２７９番地１,,45,202,8850044,,,2023-05-01,清算の結了等,,,2015-10-05,1,,,,,ミヤマカイハツ,0
851,3460103001037,登記記録の閉鎖等,0,2023-05-11,2023-05-08,合同会社木香,,合同会社,北海道,河西郡中札内村,西戸蔦東３線１６８番地５,,01,638,0891353,,,2023-05-08,清算の結了等,,,2017-01-30,1,,,,,,0
881,4010401078275,登記記録の閉鎖等,0,2023-05-11,2023-04-14,アイチケット株式会社,,株式会社,東京都,港区,赤坂１丁目１１番４４号,,13,103,1070052,,,2023-04-14,合併による解散等,8180001002103,令和５年４月１日東京都港区虎ノ門三丁目４番７号エムスリーソリューションズ株式会社（8180001002103）に合併し解散,2015-10-05,1,,,,,アイチケット,0
899,4010901044074,登記記録の閉鎖等,0,2023-05-11,2023-05-02,株式会社Ｔｏｋｙｏ　Ｃｒｅａｔｏｒｓ　Ｊａｍ,,株式会社,東京都,世田谷区,玉川台１丁目９番２３－１０３号,,13,112,1580096,,,2023-05-02,清算の結了等,,,2019-05-09,1,,,,,トーキョークリエイターズジャム,0
901,4010902018465,登記記録の閉鎖等,0,2023-05-11,2023-05-01,有限会社エイチエムインターナショナル,,有限会社,東京都,世田谷区,奥沢２丁目４０番１０号,,13,112,1580083,,,2023-05-01,清算の結了等,,,2015-10-05,1,,,,,エイチエムインターナショナル,0
904,4011001038314,登記記録の閉鎖等,0,2023-05-11,2023-05-02,株式会社シュナ,,株式会社,東京都,江東区,大島８丁目４０番１号－１Ｆ,,13,108,1360072,,,2023-05-02,清算の結了等,,,2015-10-05,1,,,,,シュナ,0
912,4011001113959,登記記録の閉鎖等,0,2023-05-11,2023-04-25,株式会社プレミアムヘルスケア,,株式会社,東京都,目黒区,祐天寺２丁目１５番３号,,13,110,1530052,,,2023-04-25,清算の結了等,,,2016-12-08,1,,,,,プレミアムヘルスケア,0
914,4011001122539,登記記録の閉鎖等,0,2023-05-11,2023-04-28,株式会社ＢＡＴＣＨ　ＭＡＴＥ,,株式会社,東京都,千代田区,神田錦町１丁目１７番地１,,13,101,1010054,,,2023-04-28,清算の結了等,,,2018-06-06,1,,,,,バッチメイト,0
946,4011703001379,登記記録の閉鎖等,0,2023-05-11,2023-05-09,合同会社レジデンス北小岩,,合同会社,東京都,江戸川区,北小岩６丁目１番８号,,13,123,1330051,,,2023-05-09,合併による解散等,6011703001443,令和５年５月１日大阪市淀川区十三東四丁目２番１５号株式会社フェンネル（6011703001443）に合併し解散,2015-12-16,1,,,,,レジデンスキタコイワ,0
973,4030001026310,登記記録の閉鎖等,0,2023-05-11,2023-04-20,株式会社サチコエンタープライズ,,株式会社,埼玉県,狭山市,大字上奥富５３２９番地の１,,11,215,3501333,,,2023-04-20,清算の結了等,,,2015-10-05,1,,,,,サチコエンタープライズ,0
982,4030002020519,登記記録の閉鎖等,0,2023-05-11,2023-04-20,有限会社新井鉄工,,有限会社,埼玉県,さいたま市岩槻区,日の出町８番１号,,11,110,3390064,,,2023-04-20,清算の結了等,,,2015-10-05,1,,,,,アライテッコウ,0
984,4030002048709,登記記録の閉鎖等,0,2023-05-11,2023-04-20,有限会社クロサワ,,有限会社,埼玉県,吉川市,大字三輪野江１４３６番地,,11,243,3420027,,,2023-04-20,清算の結了等,,,2015-10-05,1,,,,,クロサワ,0
992,4040001072188,登記記録の閉鎖等,0,2023-05-11,2023-04-20,シンセイ株式会社,,株式会社,千葉県,柏市,みどり台１丁目２番８号,,12,217,2770884,,,2023-04-20,清算の結了等,,,2015-10-05,1,,,,,シンセイ,0
994,4040001102564,登記記録の閉鎖等,0,2023-05-11,2023-05-02,ジュエル株式会社,,株式会社,茨城県,つくば市,稲荷前１９番地４エルメゾンカーサＲＹＡ２０１号,,08,220,3050061,,,2023-05-02,清算の結了等,,,2017-11-22,1,,,,,ジュエル,0
996,4040002079307,登記記録の閉鎖等,0,2023-05-11,2023-04-20,有限会社秋葉産業,,有限会社,千葉県,山武市,蓮沼ハの５５６５番地の４,,12,237,2891806,,,2023-04-20,清算の結了等,,,2015-10-05,1,,,,,アキバサンギョウ,0
1017,4070002018749,登記記録の閉鎖等,0,2023-05-11,2023-05-02,有限会社木暮石油,,有限会社,群馬県,伊勢崎市,鹿島町２８９番地４,,10,204,3720015,,,2023-05-02,清算の結了等,,,2015-10-05,1,,,,,キグレセキュウ,0
1045,4120001249967,登記記録の閉鎖等,0,2023-05-11,2023-05-08,坤元株式会社,,株式会社,大阪府,大阪市淀川区,十三元今里２丁目１２番２５号２０１室,,27,123,5320028,,,2023-05-08,清算の結了等,,,2022-11-07,1,,,,,コンゲン,0
1067,4122001013221,登記記録の閉鎖等,0,2023-05-11,2023-05-09,貴島産業株式会社,,株式会社,大阪府,東大阪市,寿町１丁目６番３５号,,27,227,5770837,,,2023-05-09,合併による解散等,1150001006352,令和５年４月３０日奈良市雑司町３６８番２サンエコ株式会社（1150001006352）に合併し解散,2015-10-05,1,,,,,,0
1086,4140002048268,登記記録の閉鎖等,0,2023-05-11,2023-05-02,有限会社京見園,,有限会社,兵庫県,姫路市,広畑区西夢前台７丁目２４番地,,28,201,6711103,,,2023-05-02,清算の結了等,,,2015-10-05,1,,,,,キョウミエン,0
1090,4160002014747,登記記録の閉鎖等,0,2023-05-11,2023-05-08,有限会社オフィスジュレ,,有限会社,滋賀県,守山市,伊勢町１７５番地,,25,207,5240036,,,2023-05-08,清算の結了等,,,2015-10-05,1,,,,,オフィスジュレ,0
1096,4180003022094,登記記録の閉鎖等,0,2023-05-11,2023-05-02,合同会社あくり,,合同会社,愛知県,名古屋市守山区,菱池町５番８号,,23,113,4630045,,,2023-05-02,清算の結了等,,,2021-02-08,1,,,,,アクリ,0
1097,4180005019898,登記記録の閉鎖等,0,2023-05-11,2023-05-08,社会保険労務士法人Ｇｒａｃｅ,,その他の設立登記法人,愛知県,刈谷市,重原本町１丁目１７番地２,,23,210,4480023,,,2023-05-08,清算の結了等,,,2022-08-19,1,,,,,グレイス,0
1102,4180305004906,登記記録の閉鎖等,0,2023-05-11,2023-05-02,天理教吉濱分教会,,その他の設立登記法人,愛知県,高浜市,呉竹町７丁目２番地１２,,23,227,4441336,,,2023-05-02,合併による解散等,3200005006754,令和５年４月２７日岐阜県加茂郡川辺町西栃井４００番地天理教東濃大教会（3200005006754）に合併し解散,2015-10-05,1,,,,,テンリキョウヨシハマブンキョウカイ,0
1115,4240001052351,登記記録の閉鎖等,0,2023-05-11,2023-04-26,日本三洋株式会社,,株式会社,広島県,広島市中区,基町１８番１－１１５５号,,34,101,7300011,,,2023-04-26,清算の結了等,,,2018-02-08,1,,,,,ニホンサンヨウ,0
1122,4260001022030,登記記録の閉鎖等,0,2023-05-11,2023-05-10,株式会社堀田,,株式会社,岡山県,備前市,佐山３１６４番地,,33,211,7050026,,,2023-05-10,清算の結了等,,,2015-10-05,1,,,,,ホリタ,0
1127,4280001002955,登記記録の閉鎖等,0,2023-05-11,2023-05-09,株式会社スクラム工業,,株式会社,島根県,松江市,矢田町５８番地,,32,201,6900021,,,2023-05-09,清算の結了等,,,2015-10-05,1,,,,,スクラムコウギョウ,0
1139,4290801014901,登記記録の閉鎖等,0,2023-05-11,2023-05-09,株式会社セツ,,株式会社,福岡県,宮若市,本城２２７８番地,,40,226,8230003,,,2023-05-09,清算の結了等,,,2015-10-05,1,,,,,セツ,0
1146,4320001006035,登記記録の閉鎖等,0,2023-05-11,2023-05-01,株式会社アルマン,,株式会社,大分県,大分市,日吉町１３番１９号,,44,201,8700918,,,2023-05-01,合併による解散等,3320001012637,令和５年５月１日大分市日吉町１３番１９号株式会社メイソンＥＣ（3320001012637）に合併し解散,2015-10-05,1,,,,,,0
1175,4380001026639,登記記録の閉鎖等,0,2023-05-11,2023-05-08,株式会社国井養蜂場,,株式会社,福島県,いわき市,平中神谷字北鳥沼４４番地の７,,07,204,9708021,,,2023-05-08,清算の結了等,,,2016-03-28,1,,,,,クニイヨウホウジョウ,0
1193,4470005005992,登記記録の閉鎖等,0,2023-05-11,2023-05-08,一般社団法人ＷＡＣＴ,,その他の設立登記法人,香川県,高松市,国分寺町新居１７９２番地１,,37,201,7690101,,,2023-05-08,清算の結了等,,,2017-03-22,1,,,,,ワクト,0
1195,4480002010383,登記記録の閉鎖等,0,2023-05-11,2023-05-10,有限会社川上工務店,,有限会社,徳島県,鳴門市,大麻町池谷字浜田３番地２,,36,202,7790303,,,2023-05-10,清算の結了等,,,2015-10-05,1,,,,,カワカミコウムテン,0
1213,5010003015840,登記記録の閉鎖等,0,2023-05-11,2023-05-01,合同会社宇都宮キャピタル,,合同会社,東京都,千代田区,丸の内１丁目６番５号,,13,101,1000005,,,2023-05-01,清算の結了等,,,2015-10-05,1,,,,,ウツノミヤキャピタル,0
1215,5010101002831,登記記録の閉鎖等,0,2023-05-11,2023-04-28,株式会社中村電機工業所,,株式会社,東京都,八王子市,大和田町１丁目１７番１４号,,13,201,1920045,,,2023-04-28,清算の結了等,,,2015-10-05,1,,,,,ナカムラデンキコウギョウショ,0
1222,5010401147450,登記記録の閉鎖等,0,2023-05-11,2023-04-17,ケイ・マテリアル株式会社,,株式会社,東京都,港区,虎ノ門１丁目１６番６号ＲＡＰＯ－ＴＯビル７階,,13,103,1050001,,,2023-04-17,清算の結了等,,,2019-08-15,1,,,,,ケイマテリアル,0
1229,5010403024771,登記記録の閉鎖等,0,2023-05-11,2023-04-17,Ｎ’ｓＨＥＷ合同会社,,合同会社,東京都,港区,麻布十番２丁目１４番３号ＬＡＰＩＳ７階,,13,103,1060045,,,2023-04-17,清算の結了等,,,2021-03-01,1,,,,,エヌズヒュー,0
1238,5010801023706,登記記録の閉鎖等,0,2023-05-11,2023-04-27,ライスフィールド株式会社,,株式会社,東京都,大田区,大森東２丁目８番１号１０２,,13,111,1430012,,,2023-04-27,清算の結了等,,,2015-10-05,1,,,,,ライスフィールド,0
1266,5011203002736,登記記録の閉鎖等,0,2023-05-11,2023-04-27,合同会社リベルタ,,合同会社,東京都,文京区,音羽２丁目１番２－１３０１号,,13,105,1120013,,,2023-04-27,清算の結了等,,,2018-03-26,1,,,,,リベルタ,0
1279,5011802020808,登記記録の閉鎖等,0,2023-05-11,2023-05-02,有限会社ワイエム設計,,有限会社,東京都,葛飾区,亀有２丁目３２番１７－２０２号,,13,122,1250061,,,2023-05-02,清算の結了等,,,2015-10-05,1,,,,,ワイエムセッケイ,0
1285,5012803002258,登記記録の閉鎖等,0,2023-05-11,2023-05-08,ＭＩＯ商事合同会社,,合同会社,東京都,立川市,一番町１丁目１５－１７,,13,202,1900033,,,2023-05-08,清算の結了等,,,2020-04-22,1,,,,,エムアイオウショウジ,0
1289,5013301038232,登記記録の閉鎖等,0,2023-05-11,2023-04-28,株式会社クリアアップ,,株式会社,東京都,豊島区,北大塚２丁目３番１６号ライオンズステーションプラザ大塚７０６号,,13,116,1700004,,,2023-04-28,清算の結了等,,,2016-01-20,1,,,,,クリアアップ,0
1293,5020001031789,登記記録の閉鎖等,0,2023-05-11,2023-04-28,株式会社はまゆう物産,,株式会社,神奈川県,横浜市金沢区,洲崎町２３番８号,,14,108,2360028,,,2023-04-28,清算の結了等,,,2015-10-05,1,,,,,ハマユウブッサン,0
1306,5020003013439,登記記録の閉鎖等,0,2023-05-11,2023-05-01,ＣＲＯＳＳ　ＴＨＩＮＧＳ合同会社,,合同会社,神奈川県,横浜市神奈川区,片倉３丁目７番６号,,14,102,2210865,,,2023-05-01,清算の結了等,,,2017-10-31,1,,,,,クロスシングス,0
1327,5030002020666,登記記録の閉鎖等,0,2023-05-11,2023-04-20,有限会社環境イソシステムサポート研究所,,有限会社,埼玉県,さいたま市岩槻区,府内１丁目１０番１５号,,11,110,3390042,,,2023-04-20,清算の結了等,,,2015-10-05,1,,,,,カンキョウイソシステムサポートケンキュウショ,0
1329,5030002045416,登記記録の閉鎖等,0,2023-05-11,2023-04-17,有限会社ハマノ薬局,,有限会社,埼玉県,草加市,稲荷３丁目５番１６号,,11,221,3400003,,,2023-04-17,清算の結了等,,,2015-10-05,1,,,,,ハマノヤッキョク,0
1345,5050001018478,登記記録の閉鎖等,0,2023-05-11,2023-05-02,株式会社東和,,株式会社,茨城県,古河市,東本町４丁目１番１２号,,08,204,3060013,,,2023-05-02,清算の結了等,,,2015-10-05,1,,,,,トウワ,0
1348,5050003006076,登記記録の閉鎖等,0,2023-05-11,2023-03-16,アドボジャパン合同会社,,合同会社,茨城県,守谷市,薬師台３丁目１８－６,,08,224,3020105,,,2023-03-16,清算の結了等,,,2021-09-15,1,Adobo Japan LLC,Ibaraki,"3-18-6 Yakushidai, Moriya shi",,アドボジャパン,0
1352,5060001004023,登記記録の閉鎖等,0,2023-05-11,2023-04-26,鳳徳総業株式会社,00023968,株式会社,栃木県,宇都宮市,御幸ケ原町９６番地７,,09,201,3210982,,,2023-04-26,清算の結了等,,,2015-10-05,1,,,,,ホウトクソウギョウ,0
1385,5120002029590,登記記録の閉鎖等,0,2023-05-11,2023-05-08,有限会社エヌアールプラン,,有限会社,大阪府,大阪市北区,天満４丁目１６番９号,,27,127,5300043,,,2023-05-08,合併による解散等,2120001061886,令和５年５月１日大阪市北区天満四丁目１６番９号株式会社エム・エー・エスナカセ（2120001061886）に合併し解散,2015-10-05,1,,,,,エヌアールプラン,0
1388,5120101021481,登記記録の閉鎖等,0,2023-05-11,2023-05-09,クボタ精機株式会社,,株式会社,大阪府,堺市美原区,木材通４丁目１５番５号,,27,147,5870042,,,2023-05-09,合併による解散等,1120001037978,令和５年５月１日大阪市浪速区敷津東一丁目２番４７号株式会社クボタ（1120001037978）に合併し解散,2015-10-05,1,,,,,クボタセイキ,0
1415,5140002061229,登記記録の閉鎖等,0,2023-05-11,2023-05-09,有限会社長谷川商店,,有限会社,兵庫県,加東市,北野１７２番地の１,,28,228,6790205,,,2023-05-09,清算の結了等,,,2015-10-05,1,,,,,,0
1429,5180301005114,登記記録の閉鎖等,0,2023-05-11,2023-05-01,糸広株式会社,,株式会社,愛知県,豊橋市,新川町１１番地,,23,201,4400883,,,2023-05-01,清算の結了等,,,2015-10-05,1,,,,,イトヒロ,0
1430,5180301014809,登記記録の閉鎖等,0,2023-05-11,2023-05-02,株式会社テーラーツゲ,,株式会社,愛知県,知立市,西町亀池２０番地６,,23,225,4720023,,,2023-05-02,清算の結了等,,,2015-10-05,1,,,,,テーラーツゲ,0
1432,5200001036720,登記記録の閉鎖等,0,2023-05-11,2023-05-02,株式会社河合総合第二,,株式会社,岐阜県,恵那市,大井町２７１６番地７４,,21,210,5097201,,,2023-05-02,清算の結了等,,,2019-10-04,1,,,,,カワイソウゴウダイニ,0
1478,5350001015726,登記記録の閉鎖等,0,2023-05-11,2023-04-18,高千穂運輸株式会社,,株式会社,宮崎県,都城市,山田町山田９７５５番地２,,45,202,8894601,,,2023-04-18,清算の結了等,,,2019-03-29,1,,,,,タカチホウンユ,0
1486,5370301000211,登記記録の閉鎖等,0,2023-05-11,2023-04-28,株式会社遠藤商店,,株式会社,宮城県,石巻市,魚町２丁目５番地９,,04,202,9860022,,,2023-04-28,清算の結了等,,,2015-10-05,1,,,,,,0
1518,6010001138428,登記記録の閉鎖等,0,2023-05-11,2023-04-25,レアル・キャピタル・インベストメント・マネジメント株式会社,,株式会社,東京都,大田区,田園調布５丁目２８－３,,13,111,1450071,,,2023-04-25,合併による解散等,7010001099545,令和５年４月１日東京都大田区田園調布５－２８－３レアル・キャピタル株式会社（7010001099545）に合併し解散,2015-10-05,1,,,,,レアルキャピタルインベストメントマネジメント,0
1541,6010501045693,登記記録の閉鎖等,0,2023-05-11,2023-05-01,株式会社ニッケイ・ファシリティワークス,,株式会社,東京都,台東区,台東４丁目１４番７号,,13,106,1100016,,,2023-05-01,合併による解散等,5010401096276,令和５年５月１日東京都台東区東上野二丁目２３番２０号西島ビル４階株式会社ニッケイ・ファシリティワークス（5010401096276）に合併し解散,2020-05-11,1,,,,,,0
1552,6010802009356,登記記録の閉鎖等,0,2023-05-11,2023-04-25,有限会社ツーエー精工,,有限会社,東京都,大田区,本羽田２丁目１２番１号２０６,,13,111,1440044,,,2023-04-25,合併による解散等,9010801006616,令和５年４月１５日東京都大田区本羽田二丁目１２番１号２０６号室大成工業株式会社（9010801006616）に合併し解散,2015-10-05,1,,,,,ツーエーセイコウ,0
1582,6011401015068,登記記録の閉鎖等,0,2023-05-11,2023-05-08,株式会社ゆいらいふ,,株式会社,東京都,板橋区,小豆沢３丁目７番３２,,13,119,1740051,,,2023-05-08,清算の結了等,,,2015-10-05,1,,,,,ユイライフ,0
1584,6011501006561,登記記録の閉鎖等,0,2023-05-11,2023-04-27,株式会社三恵製作所,,株式会社,東京都,荒川区,東日暮里３丁目２１番２号,,13,118,1160014,,,2023-04-27,清算の結了等,,,2015-10-05,1,,,,,サンケイセイサクショ,0
1610,6030001037850,登記記録の閉鎖等,0,2023-05-11,2023-04-20,株式会社ユーキ製作所,,株式会社,埼玉県,八潮市,大字大曽根１０９０番地３藤澤ビル３０２号室,,11,234,3400834,,,2023-04-20,清算の結了等,,,2015-10-05,1,,,,,ユーキセイサクショ,0
1628,6040001034459,登記記録の閉鎖等,0,2023-05-11,2023-04-21,アイグローバル株式会社,,株式会社,千葉県,千葉市緑区,あすみが丘９丁目８番地２２,,12,105,2670066,,,2023-04-21,清算の結了等,,,2015-10-05,1,,,,,アイグローバル,0
1630,6040001088562,登記記録の閉鎖等,0,2023-05-11,2023-04-19,株式会社モトハシ,,株式会社,千葉県,八千代市,大和田新田７６番地２４,,12,221,2760046,,,2023-04-19,清算の結了等,,,2015-10-05,1,,,,,モトハシ,0
1636,6040005004499,登記記録の閉鎖等,0,2023-05-11,2023-04-20,医療法人社団美浜会,,その他の設立登記法人,千葉県,浦安市,美浜３丁目２５番１５号,,12,227,2790011,,,2023-04-20,清算の結了等,,,2015-10-05,1,,,,,ミハマカイ,0
1667,6120005021544,登記記録の閉鎖等,0,2023-05-11,2023-05-08,社会保険労務士法人ビジョンパートナー,,その他の設立登記法人,大阪府,大阪市中央区,南船場１丁目１１番９号長堀安田ビル６階,,27,128,5420081,,,2023-05-08,清算の結了等,,,2020-04-08,1,,,,,ビジョンパートナー,0
1674,6120902011770,登記記録の閉鎖等,0,2023-05-11,2023-05-08,有限会社ネットワークシステムズ,,有限会社,大阪府,三島郡島本町,大字東大寺８６番地の１‐２０１号,,27,301,6180002,,,2023-05-08,清算の結了等,,,2015-10-05,1,,,,,ネットワークシステムズ,0
1677,6130001051073,登記記録の閉鎖等,0,2023-05-11,2023-05-01,エコビズイーエックス株式会社,,株式会社,東京都,渋谷区,千駄ヶ谷３丁目２番２号,,13,113,1510051,,,2023-05-01,清算の結了等,,,2015-10-05,1,,,,,エコビズイーエックス,0
1695,6160003000901,登記記録の閉鎖等,0,2023-05-11,2023-05-08,ＭＵＺＩＣ’Ｓ　ＰＡＩＮＴ合同会社,,合同会社,滋賀県,東近江市,湯屋町１００４番地７,,25,213,5270103,,,2023-05-08,清算の結了等,,,2015-10-05,1,,,,,ミュージックペイント,0
1696,6180001124031,登記記録の閉鎖等,0,2023-05-11,2023-05-02,御所町不動産株式会社,,株式会社,愛知県,名古屋市昭和区,御器所３丁目１０番３号,,23,107,4660051,,,2023-05-02,清算の結了等,,,2016-07-13,1,,,,,ゴショマチフドウサン,0
1747,6340002001312,登記記録の閉鎖等,0,2023-05-11,2023-05-11,有限会社イトー巧芸社,,有限会社,鹿児島県,鹿児島市,城南町４番２０号,,46,201,8920835,,,2023-05-11,清算の結了等,,,2015-10-05,1,,,,,イトーコウゲイシャ,0
1759,6390001011761,登記記録の閉鎖等,0,2023-05-11,2023-05-09,共栄運輸株式会社,,株式会社,山形県,寒河江市,大字八鍬２７１番地の１,,06,206,9900523,,,2023-05-09,清算の結了等,,,2015-10-05,1,,,,,キョウエウウンユ,0
1778,6490002007716,登記記録の閉鎖等,0,2023-05-11,2023-05-01,森崎組有限会社,,有限会社,高知県,高知市,福井町１５５９番地６,,39,201,7800965,,,2023-05-01,合併による解散等,3490001001747,令和５年５月１日高知市西塚ノ原８３番地１７日成土木株式会社（3490001001747）に合併し解散,2015-10-05,1,,,,,モリサキグミ,0
1783,7010001134095,登記記録の閉鎖等,0,2023-05-11,2023-05-01,ホクサントレーディング株式会社,,株式会社,東京都,中央区,湊１丁目１３番４号,,13,102,1040043,,,2023-05-01,清算の結了等,,,2015-10-05,1,,,,,ホクサントレーディング,0
1791,7010001213691,登記記録の閉鎖等,0,2023-05-11,2023-04-26,株式会社Ｄｒｏｎｅ　Ｐｅｒｆｏｒｍａｎｃｅ　Ｔｅｃｈｎｏｌｏｇｙ,,株式会社,東京都,中央区,銀座１丁目１３番１５号,,13,102,1040061,,,2023-04-26,清算の結了等,,,2020-11-16,1,,,,,ドローンパフォーマンステクノロジー,0
1802,7010102008982,登記記録の閉鎖等,0,2023-05-11,2023-04-28,有限会社ＴＭＣ,,有限会社,東京都,八王子市,堀之内２丁目２８番地の５,,13,201,1920355,,,2023-04-28,清算の結了等,,,2015-10-05,1,,,,,ティーエムシー,0
1804,7010401113392,登記記録の閉鎖等,0,2023-05-11,2023-04-17,エトリオン・サービシーズ・ジャパン株式会社,,株式会社,東京都,港区,六本木１丁目９番１０号アークヒルズ仙石山森タワー２８Ｆベーカー＆マッケンジー法律事務所内,,13,103,1060032,,,2023-04-17,清算の結了等,,,2015-10-05,1,,,,,エトリオンサービシーズジャパン,0
1811,7010501015316,登記記録の閉鎖等,0,2023-05-11,2023-04-21,株式会社モダーンクラフト,,株式会社,千葉県,市川市,新田１丁目２４番１４号,,12,203,2720035,,,2023-04-21,清算の結了等,,,2015-10-05,1,,,,,モダーンクラフト,0
1815,7010701037325,登記記録の閉鎖等,0,2023-05-11,2023-04-26,株式会社ＴｅｃｈＬａｂ,,株式会社,東京都,品川区,西五反田１丁目２９番５号,,13,109,1410031,,,2023-04-26,清算の結了等,,,2019-03-22,1,,,,,テックラボ,0
1835,7011501012625,登記記録の閉鎖等,0,2023-05-11,2023-05-01,株式会社Ｒｉｓｅ,,株式会社,東京都,渋谷区,代々木２丁目１４番１号,,13,113,1510053,,,2023-05-01,清算の結了等,,,2015-10-05,1,,,,,ライズ,0
1851,7012402012458,登記記録の閉鎖等,0,2023-05-11,2023-05-10,有限会社ポンドル,,有限会社,東京都,調布市,仙川町１丁目１６番地１６サンコート仙川２０６,,13,208,1820002,,,2023-05-10,清算の結了等,,,2015-10-05,1,,,,,ポンドル,0
1857,7012801007769,登記記録の閉鎖等,0,2023-05-11,2023-05-08,株式会社こうはら事務所,,株式会社,東京都,東大和市,中央４丁目１０３９番地の２６,,13,220,2070015,,,2023-05-08,清算の結了等,,,2015-10-05,1,,,,,コウハラジムショ,0
1861,7020001075727,登記記録の閉鎖等,0,2023-05-11,2023-04-28,株式会社飯澤工務店,,株式会社,神奈川県,川崎市宮前区,菅生６丁目１７番２４号,,14,136,2160015,,,2023-04-28,清算の結了等,,,2015-10-05,1,,,,,イイザワコウムテン,0
1872,7020002045332,登記記録の閉鎖等,0,2023-05-11,2023-04-28,有限会社簔沢打木商店,,有限会社,神奈川県,横浜市中区,簑沢１２番地の８,,14,104,2310856,,,2023-04-28,清算の結了等,,,2015-10-05,1,,,,,ミノサワウチキショウテン,0
1888,7030002044226,登記記録の閉鎖等,0,2023-05-11,2023-04-19,有限会社サカエ電業社,,有限会社,埼玉県,草加市,谷塚上町５１２番地３,,11,221,3400024,,,2023-04-19,清算の結了等,,,2015-10-05,1,,,,,サカエデンギョウシャ,0
1893,7040001112742,登記記録の閉鎖等,0,2023-05-11,2023-04-21,株式会社ＣＯＭＥＳＣＡ,,株式会社,千葉県,船橋市,北本町１丁目１７番２５号,,12,204,2730864,,,2023-04-21,清算の結了等,,,2020-03-16,1,,,,,コメスカ,0
1916,7080401012019,登記記録の閉鎖等,0,2023-05-11,2023-05-10,株式会社徳永インベストメント,,株式会社,静岡県,浜松市中区,和合町２２０番地の５１,,22,131,4338125,,,2023-05-10,清算の結了等,,,2015-10-05,1,,,,,トクナガインベストメント,0
1935,7120101024227,登記記録の閉鎖等,0,2023-05-11,2023-05-10,株式会社日本表札,,株式会社,大阪府,高石市,西取石１丁目４番５号恵風マンション２０２号,,27,225,5920012,,,2023-05-10,清算の結了等,,,2015-10-05,1,,,,,ニホンヒョウサツ,0
1961,7180002027034,登記記録の閉鎖等,0,2023-05-11,2023-04-27,有限会社アレス,,有限会社,東京都,大田区,萩中２丁目９番２０号,,13,111,1440047,,,2023-04-27,清算の結了等,,,2015-10-05,1,,,,,アレス,0
1962,7180002051232,登記記録の閉鎖等,0,2023-05-11,2023-05-02,アースカンパニー有限会社,,有限会社,愛知県,名古屋市東区,葵１丁目２７番１２号,,23,102,4610004,,,2023-05-02,清算の結了等,,,2015-10-05,1,,,,,アースカンパニー,0
1967,7180005019920,登記記録の閉鎖等,0,2023-05-11,2023-05-09,特定非営利活動法人日本藝術ラボ,,その他の設立登記法人,愛知県,海部郡蟹江町,桜２丁目５５番地パナホームガーデンＡ棟,,23,425,4970038,,,2023-05-09,清算の結了等,,,2022-09-05,1,,,,,ニホンゲイジュツラボ,0
1977,7200002001713,登記記録の閉鎖等,0,2023-05-11,2023-05-09,有限会社コーポナガヤ,,有限会社,岐阜県,岐阜市,則武中４丁目２４番１３号,,21,201,5020932,,,2023-05-09,清算の結了等,,,2015-10-05,1,,,,,コーポナガヤ,0
1979,7200002024846,登記記録の閉鎖等,0,2023-05-11,2023-05-08,あきら建設有限会社,,有限会社,岐阜県,高山市,下岡本町１６９３番地,,21,203,5060052,,,2023-05-08,清算の結了等,,,2015-10-05,1,,,,,アキラケンセツ,0
2006,7290802019120,登記記録の閉鎖等,0,2023-05-11,2023-05-09,有限会社水史商会,,有限会社,福岡県,北九州市若松区,大字払川３１０番地,,40,103,8080113,,,2023-05-09,清算の結了等,,,2015-10-05,1,,,,,スイシシヨウカイ,0
2007,7310001008814,登記記録の閉鎖等,0,2023-05-11,2023-05-08,株式会社タイムズ,,株式会社,長崎県,大村市,皆同町２２２番地１,,42,205,8560802,,,2023-05-08,清算の結了等,,,2015-10-05,1,,,,,タイムズ,0
2010,7320001012765,登記記録の閉鎖等,0,2023-05-11,2023-04-03,株式会社フロンティア,,株式会社,大分県,大分市,大字丹生１０９３番地の５,,44,201,8700318,,,2023-04-03,合併による解散等,3320001001573,令和５年４月１日大分市大字丹生１０９３番地５株式会社大光（3320001001573）に合併し解散,2015-10-05,1,,,,,フロンティア,0
2019,7350001000940,登記記録の閉鎖等,0,2023-05-11,2023-05-01,大成産業株式会社,,株式会社,宮崎県,宮崎市,青葉町２２番地１１,,45,201,8800842,,,2023-05-01,合併による解散等,9350001000427,令和５年５月１日宮崎市青葉町２４番地九州丸和林業株式会社（9350001000427）に合併し解散,2015-10-05,1,,,,,タイセイサンギョウ,0
2029,7370102000136,登記記録の閉鎖等,0,2023-05-11,2023-05-01,会田緑産有限会社,,有限会社,宮城県,柴田郡村田町,大字村田字西原２５１番地の１,,04,322,9891305,,,2023-05-01,清算の結了等,,,2015-10-05,1,,,,,カイダリョクサン,0
2045,7430001057295,登記記録の閉鎖等,0,2023-05-11,2023-04-24,株式会社アトリエトーン,,株式会社,北海道,登別市,登別東町４丁目２７番地３,,01,230,0590464,,,2023-04-24,清算の結了等,,,2015-10-05,1,,,,,アトリエトーン,0
2064,8010001005444,登記記録の閉鎖等,0,2023-05-11,2023-04-27,東協建築株式会社,,株式会社,東京都,文京区,千石１丁目１５番１号,,13,105,1120011,,,2023-04-27,清算の結了等,,,2015-10-05,1,,,,,トウキョウケンチク,0
2065,8010001020666,登記記録の閉鎖等,0,2023-05-11,2023-04-27,株式会社青和コーポレーション,,株式会社,東京都,千代田区,内神田２丁目５番６号亀田ビル内,,13,101,1010047,,,2023-04-27,清算の結了等,,,2015-10-05,1,,,,,セイワコーポレーション,0
2091,8010402002478,登記記録の閉鎖等,0,2023-05-11,2023-04-17,有限会社エム・ケイ・ヤマナカヤ,,有限会社,東京都,港区,麻布十番２丁目１番８号,,13,103,1060045,,,2023-04-17,清算の結了等,,,2015-10-05,1,,,,,エムケイヤマナカヤ,0
2092,8010402030132,登記記録の閉鎖等,0,2023-05-11,2023-05-02,株式会社オフィス森山,,株式会社,東京都,港区,高輪２丁目１２番２７号,,13,103,1080074,,,2023-05-02,合併による解散等,9011302003136,令和５年４月１日東京都中央区日本橋小網町１５番９号森友第一ビル５階株式会社グラスホッパー（9011302003136）に合併し解散,2015-10-05,1,,,,,オフィスモリヤマ,0
2106,8010901019733,登記記録の閉鎖等,0,2023-05-11,2023-05-02,株式会社ロイスピエール,,株式会社,東京都,中野区,松が丘２丁目４番１４号,,13,114,1650024,,,2023-05-02,清算の結了等,,,2015-10-05,1,,,,,ロイスピエール,0
2125,8011501022144,登記記録の閉鎖等,0,2023-05-11,2023-04-27,株式会社わかば,,株式会社,東京都,北区,堀船３丁目４３番１０号,,13,117,1140004,,,2023-04-27,清算の結了等,,,2016-12-02,1,,,,,ワカバ,0
2141,8013301040623,登記記録の閉鎖等,0,2023-05-11,2023-04-28,トップマーケティング株式会社,,株式会社,東京都,豊島区,北大塚２丁目３番１６号ライオンズステーションプラザ大塚７０６号,,13,116,1700004,,,2023-04-28,清算の結了等,,,2017-06-05,1,,,,,トップマーケティング,0
2144,8013301048872,登記記録の閉鎖等,0,2023-05-11,2023-05-02,株式会社ｄｅｗｏｒｋｓ,,株式会社,東京都,豊島区,西巣鴨２丁目３３番７号パレット西巣鴨１０４,,13,116,1700001,,,2023-05-02,清算の結了等,,,2022-04-01,1,,,,,ディーワークス,0
2198,8050005002888,登記記録の閉鎖等,0,2023-05-11,2023-05-01,新治商業協同組合,,その他の設立登記法人,茨城県,土浦市,大畑１６１１番地,,08,203,3004111,,,2023-05-01,清算の結了等,,,2015-10-05,1,,,,,ニイハリショウギョウ,0
2213,8100001008850,登記記録の閉鎖等,0,2023-05-11,2023-05-08,総信興産株式会社,,株式会社,長野県,北佐久郡軽井沢町,中軽井沢１７番地９,,20,321,3890112,,,2023-05-08,清算の結了等,,,2015-10-05,1,,,,,ソウシンコウサン,0
2214,8100001022694,登記記録の閉鎖等,0,2023-05-11,2023-05-08,株式会社ひろせ,,株式会社,長野県,飯田市,松尾上溝２９１０番地１６,,20,205,3950811,,,2023-05-08,清算の結了等,,,2015-10-05,1,,,,,ヒロセ,0
2220,8120001045314,登記記録の閉鎖等,0,2023-05-11,2023-05-09,株式会社谷村,,株式会社,大阪府,大阪市西区,京町堀２丁目２番２０号,,27,106,5500003,,,2023-05-09,清算の結了等,,,2015-10-05,1,,,,,タニムラ,0
2222,8120001087348,登記記録の閉鎖等,0,2023-05-11,2023-05-08,株式会社バーナルプランニング,,株式会社,大阪府,河内長野市,自由ケ丘２番１号,,27,216,5860096,,,2023-05-08,清算の結了等,,,2015-10-05,1,,,,,バーナルプランニング,0
2268,8180001005221,登記記録の閉鎖等,0,2023-05-11,2023-04-28,株式会社ファインシステム,,株式会社,愛知県,名古屋市南区,千竈通２丁目１３番地１,,23,112,4570071,,,2023-04-28,合併による解散等,2010001073884,令和５年４月１日東京都千代田区富士見二丁目７番２号アイ・ティ・エル株式会社（2010001073884）に合併し解散,2015-10-05,1,,,,,ファインシステム,0
2269,8180001094801,登記記録の閉鎖等,0,2023-05-11,2023-05-08,株式会社ハナイ,,株式会社,愛知県,知多市,新刀池２丁目１４番地,,23,224,4780069,,,2023-05-08,清算の結了等,,,2015-10-05,1,,,,,ハナイ,0
2274,8180002000527,登記記録の閉鎖等,0,2023-05-11,2023-05-02,有限会社幸成不動産,,有限会社,愛知県,名古屋市中区,丸の内３丁目６番２７号,,23,106,4600002,,,2023-05-02,清算の結了等,,,2015-10-05,1,,,,,コウセイフドウサン,0
2279,8180302008229,登記記録の閉鎖等,0,2023-05-11,2023-05-01,有限会社泰伸,,有限会社,愛知県,豊橋市,下地町字神田１６番地の１,,23,201,4400084,,,2023-05-01,清算の結了等,,,2015-10-05,1,,,,,タイシン,0
2287,8220002003459,登記記録の閉鎖等,0,2023-05-11,2023-05-08,有限会社創美工芸,,有限会社,石川県,金沢市,専光寺町ニ１１３番地１,,17,201,9200356,,,2023-05-08,清算の結了等,,,2015-10-05,1,,,,,ソウビコウゲイ,0
2298,8260002009329,登記記録の閉鎖等,0,2023-05-11,2023-05-08,枡本商事有限会社,,有限会社,岡山県,岡山市北区,本町１０番２２号,,33,101,7000901,,,2023-05-08,清算の結了等,,,2015-10-05,1,,,,,マスモトショウジ,0
2312,8290002037995,登記記録の閉鎖等,0,2023-05-11,2023-04-28,プロネット有限会社,,有限会社,福岡県,糟屋郡志免町,別府東２丁目１５番５号,,40,343,8112231,,,2023-04-28,清算の結了等,,,2015-10-05,1,,,,,プロネット,0
2321,8320003002862,登記記録の閉鎖等,0,2023-05-11,2023-05-01,ＯＲＳ合同会社,,合同会社,大分県,別府市,大字鶴見４５５０番地の３７,,44,202,8740840,,,2023-05-01,合併による解散等,6320003002575,令和５年５月１日大分県別府市大字鶴見４５５０番地の３７オオイタロケッツ合同会社（6320003002575）に合併し解散,2018-09-11,1,,,,,オーアールエス,0
2337,8380002010175,登記記録の閉鎖等,0,2023-05-11,2023-05-08,有限会社鈴木産業開発,,有限会社,福島県,郡山市,片平町字出磬森１番地の１４,,07,203,9630211,,,2023-05-08,清算の結了等,,,2015-10-05,1,,,,,スズキサンギョウカイハツ,0
2379,9010003038615,登記記録の閉鎖等,0,2023-05-11,2023-05-01,合同会社ＫＮＴＩＭ,,合同会社,東京都,千代田区,丸の内３丁目１番１号東京共同会計事務所内,,13,101,1000005,,,2023-05-01,清算の結了等,,,2022-09-13,1,,,,,ケイエヌティアイエム,0
2399,9010701004934,登記記録の閉鎖等,0,2023-05-11,2023-05-09,杉山ビル株式会社,,株式会社,東京都,品川区,西五反田８丁目１２番１０号,,13,109,1410031,,,2023-05-09,合併による解散等,3010701001929,令和５年５月９日東京都品川区西五反田八丁目１２番１０号王子紙器製造株式会社（3010701001929）に合併し解散,2015-10-05,1,,,,,スギヤマビル,0
2409,9010905001430,登記記録の閉鎖等,0,2023-05-11,2023-05-10,特定非営利活動法人アビィフィールド世田谷協会,,その他の設立登記法人,東京都,西東京市,谷戸町１丁目１４番１３号横田方,,13,229,1880001,,,2023-05-10,清算の結了等,,,2015-10-05,1,,,,,アビィフィールドセタガヤキョウカイ,0
2414,9011001148967,登記記録の閉鎖等,0,2023-05-11,2023-04-26,大地建設株式会社,,株式会社,東京都,渋谷区,幡ヶ谷３丁目３９番１２号渋谷ウェストビル１階,,13,113,1510072,,,2023-04-26,清算の結了等,,,2022-08-08,1,,,,,タイチケンセツ,0
2422,9011101039281,登記記録の閉鎖等,0,2023-05-11,2023-05-08,株式会社日本キャドシステム,,株式会社,東京都,新宿区,新宿１丁目３１番３号,,13,104,1600022,,,2023-05-08,清算の結了等,,,2015-10-05,1,,,,,ニホンキャドシステム,0
2423,9011101085177,登記記録の閉鎖等,0,2023-05-11,2023-05-09,株式会社マルチタスク,,株式会社,東京都,新宿区,西新宿４丁目３４番１８号,,13,104,1600023,,,2023-05-09,清算の結了等,,,2018-08-29,1,,,,,マルチタスク,0
2447,9013202007010,登記記録の閉鎖等,0,2023-05-11,2023-04-25,有限会社リボン,,有限会社,東京都,目黒区,自由が丘１丁目２５番９号,,13,110,1520035,,,2023-04-25,清算の結了等,,,2015-10-05,1,,,,,リボン,0
2452,9013302013429,登記記録の閉鎖等,0,2023-05-11,2023-04-28,有限会社ラパス,,有限会社,東京都,豊島区,池袋２丁目２３番３号,,13,116,1710014,,,2023-04-28,清算の結了等,,,2015-10-05,1,,,,,ラパス,0
2454,9020001007439,登記記録の閉鎖等,0,2023-05-11,2023-04-28,株式会社佐藤製作所,,株式会社,神奈川県,横浜市戸塚区,戸塚町１６７番地,,14,110,2440003,,,2023-04-28,清算の結了等,,,2015-10-05,1,,,,,サトウセイサクジョ,0
2456,9020001069743,登記記録の閉鎖等,0,2023-05-11,2023-04-28,ＴＫＣ医療介護福祉総研株式会社,,株式会社,神奈川県,川崎市中原区,今井上町１番３４号,,14,133,2110067,,,2023-04-28,清算の結了等,,,2015-10-05,1,,,,,テイケイシイイリョウカイゴフクシソウケン,0
2463,9021001017691,登記記録の閉鎖等,0,2023-05-11,2023-04-28,昂潤株式会社,00050253,株式会社,東京都,八王子市,南大沢２丁目２９番地プラザＡ１階,,13,201,1920364,,,2023-04-28,清算の結了等,,,2015-10-05,1,,,,,コウジュン,0
2467,9030001059660,登記記録の閉鎖等,0,2023-05-11,2023-04-20,高進電気株式会社,,株式会社,埼玉県,入間郡三芳町,大字上富２０５５番３前島ビル,,11,324,3540045,,,2023-04-20,清算の結了等,,,2015-10-05,1,,,,,コウシンデンキ,0
2502,9080402018624,登記記録の閉鎖等,0,2023-05-11,2023-05-09,有限会社グリーンライフ沢本,,有限会社,静岡県,菊川市,西方３７６３番地,,22,224,4390037,,,2023-05-09,清算の結了等,,,2015-10-05,1,,,,,グリーンライフサワモト,0
2536,9120101063264,登記記録の閉鎖等,0,2023-05-11,2023-05-10,株式会社ＣＧ,,株式会社,大阪府,富田林市,寺池台３丁目３番１８号,,27,214,5840073,,,2023-05-10,清算の結了等,,,2021-03-17,1,,,,,シージー,0
2545,9130001002718,登記記録の閉鎖等,0,2023-05-11,2023-05-01,株式会社オリジン,,株式会社,京都府,京都市上京区,新町通上立売上る安楽小路町４１８番地の１,,26,102,6020064,,,2023-05-01,合併による解散等,4130001003670,令和５年５月１日京都市上京区新町通上立売上る安楽小路町４１８番地の１株式会社ひなや（4130001003670）に合併し解散,2015-10-05,1,,,,,オリジン,0
2549,9130003004084,登記記録の閉鎖等,0,2023-05-11,2023-04-17,合同会社ＩＴソーラー３,,合同会社,東京都,港区,虎ノ門３丁目２２番１０－２０１号,,13,103,1050001,,,2023-04-17,清算の結了等,,,2015-10-05,1,,,,,アイティーソーラースリー,0
2554,9140001103564,登記記録の閉鎖等,0,2023-05-11,2023-05-02,株式会社Ｐｅａｒｌ,,株式会社,兵庫県,芦屋市,山芦屋町２４番２０号,00114325,28,206,6590082,,,2023-05-02,清算の結了等,,,2016-10-04,1,,,,,パール,0
2563,9180001143945,登記記録の閉鎖等,0,2023-05-11,2023-05-02,株式会社ダイグレス,,株式会社,愛知県,日進市,香久山３丁目２００２番地３,,23,230,4700134,,,2023-05-02,清算の結了等,,,2020-12-09,1,,,,,ダイグレス,0
2592,9290005002277,登記記録の閉鎖等,0,2023-05-11,2023-05-01,福岡板硝子商工協同組合,,その他の設立登記法人,福岡県,福岡市博多区,博多駅東１丁目１番２５号宝ビル５０６号,,40,132,8120013,,,2023-05-01,清算の結了等,,,2015-10-05,1,,,,,フクオカイタガラスショウコウ,0
2631,9410002011490,登記記録の閉鎖等,0,2023-05-11,2023-05-01,有限会社佐藤土建,,有限会社,秋田県,大仙市,神宮寺字家後１３番地３,,05,212,0191701,,,2023-05-01,合併による解散等,9410001008067,令和５年４月３０日秋田県大仙市花館字間倉１５７番地６株式会社丸茂組（9410001008067）に合併し解散,2015-10-05,1,,,,,サトウドケン,0
2643,9480001004951,登記記録の閉鎖等,0,2023-05-11,2023-05-10,神例造船株式会社,,株式会社,徳島県,鳴門市,里浦町里浦字恵美寿６７６番地,,36,202,7720021,,,2023-05-10,清算の結了等,,,2015-10-05,1,,,,,カンレイゾウセン,0
2644,9480003000916,登記記録の閉鎖等,0,2023-05-11,2023-04-28,アジア株式会社,,株式会社,徳島県,徳島市,中昭和町３丁目６番地２,,36,201,7700943,,,2023-04-28,合併による解散等,2010001073884,令和５年４月１日東京都千代田区富士見二丁目７番２号アイ・ティ・エル株式会社（2010001073884）に合併し解散,2015-10-05,1,,,,,アジア,0
