sequenceNumber,corporateNumber,process,correct,updateDate,changeDate,name,nameImageId,kind,prefectureName,cityName,streetNumber,addressImageId,prefectureCode,cityCode,postCode,addressOutside,addressOutsideImageId,closeDate,closeCause,successorCorporateNumber,changeCause,assignmentDate,latest,enName,enPrefectureName,enCityName,enAddressOutside,furigana,hihyoji
10,1010001248000,新規,0,2024-09-04,2024-09-04,株式会社スマートマッチ,,株式会社,東京都,中央区,八重洲１丁目４番１６号東京建物八重洲ビル３階,,13,102,1030028,,,,,,,2024-09-04,1,,,,,スマートマッチ,0
12,1010003044785,新規,0,2024-09-04,2024-09-04,合同会社Ｓ．ＦＡＲＭＳ,,合同会社,東京都,千代田区,神田佐久間町２丁目１８番地１号秋葉原Ｓｔｎフロント１０階,,13,101,1010025,,,,,,,2024-09-04,1,,,,,エスファームズ,0
23,1010401184869,新規,0,2024-09-04,2024-09-04,ｏｒｂ株式会社,,株式会社,東京都,港区,港南４丁目１番６－１８１２号,,13,103,1080075,,,,,,,2024-09-04,1,,,,,オーブ,0
24,1010401184893,新規,0,2024-09-04,2024-09-04,株式会社Ｔｒｕｎｋ２,,株式会社,東京都,港区,虎ノ門２丁目６番１号虎ノ門ヒルズステーションタワー１９階,,13,103,1050001,,,,,,,2024-09-04,1,,,,,トランクツー,0
27,1010403033347,新規,0,2024-09-04,2024-09-04,合同会社Ａｍｂｉｔｉｏｕｓ,,合同会社,東京都,港区,麻布十番２丁目５番３号３階,,13,103,1060045,,,,,,,2024-09-04,1,,,,,アンビシャス,0
30,1010601031508,新規,0,2024-09-04,2024-09-04,株式会社宮内鉄工所,,株式会社,東京都,江東区,森下３丁目１２番１５号,,13,108,1350004,,,,,,,2024-09-04,1,,,,,,0
31,1010601065852,新規,0,2024-09-04,2024-09-04,ＳＰＡＣＥ　ＭＯＮＫＥＹ株式会社,,株式会社,東京都,江東区,永代１丁目７番４号,,13,108,1350034,,,,,,,2024-09-04,1,,,,,スペースモンキー,0
33,1010605004377,新規,0,2024-09-04,2024-09-04,医療法人社団ＴＭＭ,,その他の設立登記法人,東京都,江東区,北砂６丁目１９番２８号,,13,108,1360073,,,,,,,2024-09-04,1,,,,,ティーエムエム,0
50,1011003019950,新規,0,2024-09-04,2024-09-04,リストワークス合同会社,,合同会社,東京都,渋谷区,道玄坂１丁目１６‐６二葉ビル８Ｂ,,13,113,1500043,,,,,,,2024-09-04,1,,,,,リストワークス,0
54,1011103014892,新規,0,2024-09-04,2024-09-04,アニマルサポートアライアンス合同会社,,合同会社,東京都,新宿区,西新宿３丁目３番１３号西新宿水間ビル６階,,13,104,1600023,,,,,,,2024-09-04,1,,,,,アニマルサポートアライアンス,0
55,1011103014901,新規,0,2024-09-04,2024-09-04,コラボＯｎｅ合同会社,,合同会社,東京都,新宿区,市谷砂土原町２丁目１－４クレストコート砂土原２１７号,,13,104,1620842,,,,,,,2024-09-04,1,,,,,コラボワン,0
57,1011201025767,新規,0,2024-09-04,2024-09-04,株式会社コアロジック,,株式会社,東京都,中野区,南台１丁目６番１７－１１０３号,,13,114,1640014,,,,,,,2024-09-04,1,,,,,コアロジック,0
58,1011301029973,新規,0,2024-09-04,2024-09-04,株式会社テクノキャピタル,,株式会社,東京都,杉並区,井草１丁目２１番５号,,13,115,1670021,,,,,,,2024-09-04,1,,,,,テクノキャピタル,0
67,1012303002043,新規,0,2024-09-04,2024-09-04,ほにゃほにゃカンパニー合同会社,,合同会社,東京都,町田市,金森東３丁目１８番３６号,,13,209,1940015,,,,,,,2024-09-04,1,,,,,ホニャホニャカンパニー,0
69,1012401042247,新規,0,2024-09-04,2024-09-04,株式会社葛籠,,株式会社,東京都,小金井市,中町１丁目７番２９号,,13,210,1840012,,,,,,,2024-09-04,1,,,,,ツヅラ,0
72,1013101009503,新規,0,2024-09-04,2024-09-04,さくら株式会社,,株式会社,東京都,福生市,大字熊川２１８番地２アイピットフッサＢ棟１０４号室,,13,218,1970003,,,,,,,2024-09-04,1,,,,,サクラ,0
73,1013103001367,新規,0,2024-09-04,2024-09-04,合同会社高橋手相研究所,00136176,合同会社,東京都,青梅市,吹上３８番地の１エスパール高野ＩＩ１０２号,00136177,13,205,1980015,,,,,,,2024-09-04,1,,,,,タカハシテソウケンキュウジョ,0
78,1020001158735,新規,0,2024-09-04,2024-09-04,株式会社エムライン,,株式会社,神奈川県,横浜市南区,共進町３丁目６０－４共栄ビル２階,,14,105,2320015,,,,,,,2024-09-04,1,,,,,エムライン,0
79,1020001159064,新規,0,2024-09-04,2024-09-04,ＹＹファミリーキッチン株式会社,,株式会社,神奈川県,横浜市神奈川区,六角橋３丁目２１番４号１Ｆ,,14,102,2210802,,,,,,,2024-09-04,1,,,,,ワイワイファミリーキッチン,0
85,1020003026790,新規,0,2024-09-04,2024-09-04,合同会社ＳＰＡＲＲＯＷＳ,,合同会社,神奈川県,横浜市泉区,領家１丁目１４－１６,,14,116,2450004,,,,,,,2024-09-04,1,,,,,スパロウズ,0
90,1021001083163,新規,0,2024-09-04,2024-09-04,ＢＥＳ電機株式会社,,株式会社,神奈川県,茅ヶ崎市,中島１３７９番地２－Ｂ－１０５号,,14,207,2530073,,,,,,,2024-09-04,1,,,,,ベスデンキ,0
93,1021005013174,新規,0,2024-09-04,2024-09-04,アットファースト税理士法人,,その他の設立登記法人,神奈川県,大和市,西鶴間３丁目５番６－１１５号,,14,213,2420005,,,,,,,2024-09-04,1,,,,,アットファースト,0
99,1030001162166,新規,0,2024-09-04,2024-09-04,株式会社アプリビール,,株式会社,埼玉県,富士見市,貝塚２丁目１８番３号,,11,235,3540012,,,,,,,2024-09-04,1,,,,,アプリビール,0
100,1030001162298,新規,0,2024-09-04,2024-09-04,株式会社カルビ,,株式会社,埼玉県,比企郡嵐山町,大字平澤２０９２番地,,11,342,3550215,,,,,,,2024-09-04,1,,,,,カルビ,0
109,1040001135204,新規,0,2024-09-04,2024-09-04,株式会社高照建設,00136180,株式会社,千葉県,野田市,山崎１６２１番地２（２０１）,,12,208,2780022,,,,,,,2024-09-04,1,,,,,タカショウケンセツ,0
112,1040005022489,新規,0,2024-09-04,2024-09-04,一般社団法人ケと学び,,その他の設立登記法人,千葉県,千葉市中央区,松波２丁目２２番３号ＫＨ松波２号,,12,101,2600044,,,,,,,2024-09-04,1,,,,,ケトマナビ,0
115,1050001055351,新規,0,2024-09-04,2024-09-04,株式会社ＳＡＱＩ　ＴＲＡＤＩＮＧ,,株式会社,茨城県,坂東市,寺久１３４２番１２,,08,228,3060656,,,,,,,2024-09-04,1,,,,,サキトレイディング,0
120,1070001042141,新規,0,2024-09-04,2024-09-04,ＭＳ企画株式会社,,株式会社,群馬県,太田市,新道町１０３番地５,,10,205,3730037,,,,,,,2024-09-04,1,,,,,エムエスキカク,0
124,1080005007643,新規,0,2024-09-04,2024-09-04,一般社団法人希望の本棚,,その他の設立登記法人,静岡県,静岡市清水区,蒲原２丁目１３番３号,,22,103,4213203,,,,,,,2024-09-04,1,,,,,キボウノホンダナ,0
128,1080401027410,新規,0,2024-09-04,2024-09-04,メディカルＬサポート株式会社,,株式会社,静岡県,浜松市中央区,篠ケ瀬町１１４６番地の２,,22,138,4350042,,,,,,,2024-09-04,1,,,,,メディカルエルサポート,0
129,1080401027419,新規,0,2024-09-04,2024-09-04,株式会社Ｔ‐ｍｓ生建,,株式会社,静岡県,袋井市,宇刈６３８番地の１,,22,216,4370121,,,,,,,2024-09-04,1,,,,,ティームスセイケン,0
135,1100002006232,新規,0,2024-09-04,2024-09-04,有限会社大道橋商店,,有限会社,長野県,長野市,豊野町豊野４１６番地,,20,201,3891105,,,,,,,2024-09-04,1,,,,,ダイドウバシショウテン,0
139,1100003007758,新規,0,2024-09-04,2024-09-04,合同会社ライフサービス,,合同会社,長野県,長野市,檀田２丁目３６番１２号,,20,201,3810052,,,,,,,2024-09-04,1,,,,,ライフサービス,0
141,1110001038688,新規,0,2024-09-04,2024-09-04,株式会社ＳｔａｒＴ,,株式会社,新潟県,見附市,学校町１丁目１４番３９－８号,,15,211,9540052,,,,,,,2024-09-04,1,,,,,スタート,0
143,1110003005505,新規,0,2024-09-04,2024-09-04,合同会社ｗａｔａｎａｂｅ,,合同会社,新潟県,新潟市秋葉区,あおば通１丁目８番２号,,15,105,9560017,,,,,,,2024-09-04,1,,,,,ワタナベ,0
156,1120003027465,新規,0,2024-09-04,2024-09-04,ＡＢ合同会社,,合同会社,大阪府,大阪市生野区,新今里５丁目１番１９号千寿今里マンション３階３０１号室,,27,116,5440001,,,,,,,2024-09-04,1,,,,,エービー,0
158,1120005024527,新規,0,2024-09-04,2024-09-04,一般社団法人ＦＳＦ,,その他の設立登記法人,大阪府,大阪市北区,天満２丁目１２－３ヴィレッジリバー南森町２Ｄ,,27,127,5300043,,,,,,,2024-09-04,1,,,,,エフエスエフ,0
162,1120101070227,新規,0,2024-09-04,2024-09-04,株式会社振袖フェアリー,,株式会社,大阪府,泉南郡熊取町,大久保中１丁目１６－１８日根建物第３ビル２Ｆ,,27,361,5900403,,,,,,,2024-09-04,1,,,,,フリソデフェアリー,0
163,1120101070243,新規,0,2024-09-04,2024-09-04,アイアンフィールド株式会社,,株式会社,大阪府,貝塚市,南町１７番５号,,27,208,5970005,,,,,,,2024-09-04,1,,,,,アイアンフィールド,0
165,1120903005322,新規,0,2024-09-04,2024-09-04,合同会社関西ｎｉエール,,合同会社,大阪府,茨木市,総持寺駅前町４番１２号２１４号室,,27,211,5670802,,,,,,,2024-09-04,1,,,,,カンサイニエール,0
169,1130001077874,新規,0,2024-09-04,2024-09-04,薫株式会社,,株式会社,京都府,京都市中京区,釜座町２８－２０２,,26,104,6040000,,,,,,,2024-09-04,1,,,,,カオル,0
170,1130001077882,新規,0,2024-09-04,2024-09-04,ゼロワークス株式会社,,株式会社,京都府,京都市山科区,御陵三蔵町４－５,,26,110,6078413,,,,,,,2024-09-04,1,,,,,ゼロワークス,0
171,1130003009834,新規,0,2024-09-04,2024-09-04,合同会社アシスト京都,,合同会社,京都府,京都市伏見区,深草西浦町６丁目７４番地デフト深草３０６,,26,109,6120029,,,,,,,2024-09-04,1,,,,,アシストキョウト,0
176,1140001135672,新規,0,2024-09-04,2024-09-04,株式会社リンセイテック,,株式会社,兵庫県,神戸市中央区,下山手通３丁目１５番１０－３１１号万葉ハイツ元町,,28,110,6500011,,,,,,,2024-09-04,1,,,,,リンセイテック,0
178,1150001027539,新規,0,2024-09-04,2024-09-04,株式会社Ｌｉｂｒａ,,株式会社,奈良県,大和郡山市,矢田町４８４２番地１ヴィラナリー大和郡山１－２０５号,,29,203,6391058,,,,,,,2024-09-04,1,,,,,リブラ,0
181,1160003003280,新規,0,2024-09-04,2024-09-04,クレスト合同会社,,合同会社,滋賀県,草津市,野路８丁目２２番３２号,,25,206,5250059,,,,,,,2024-09-04,1,,,,,クレスト,0
183,1170003002100,新規,0,2024-09-04,2024-09-04,合同会社ブルー．ワイ,,合同会社,和歌山県,西牟婁郡白浜町,堅田２７１２番地の１１５,,30,401,6492201,,,,,,,2024-09-04,1,,,,,ブルードットワイ,0
188,1180001163075,新規,0,2024-09-04,2024-09-04,ＬＴＴ株式会社,,株式会社,愛知県,瀬戸市,幡野町２９７番地の２,,23,204,4890874,,,,,,,2024-09-04,1,,,,,エルティーティー,0
189,1180001163100,新規,0,2024-09-04,2024-09-04,株式会社音楽ビジネスアカデミー,,株式会社,愛知県,名古屋市名東区,勢子坊４丁目１１０３番地の４,,23,115,4650055,,,,,,,2024-09-04,1,,,,,オンガクビジネスアカデミー,0
190,1180001163109,新規,0,2024-09-04,2024-09-04,株式会社建築工房ＡＲＳＡ,,株式会社,愛知県,名古屋市緑区,鳴海町字光正寺２３番地の１,,23,114,4580801,,,,,,,2024-09-04,1,,,,,ケンチクコウボウアルサ,0
191,1180001163117,新規,0,2024-09-04,2024-09-04,株式会社彩,,株式会社,愛知県,北名古屋市,徳重御宮前６０番地１,,23,234,4810038,,,,,,,2024-09-04,1,,,,,イロドリ,0
192,1180001163141,新規,0,2024-09-04,2024-09-04,株式会社マキタエンジ,,株式会社,愛知県,名古屋市中村区,京田町２丁目２１番地の１,,23,105,4530816,,,,,,,2024-09-04,1,,,,,マキタエンジ,0
193,1180001163158,新規,0,2024-09-04,2024-09-04,株式会社深田建装,,株式会社,愛知県,名古屋市南区,粕畠町１丁目２６番地の２,,23,112,4570052,,,,,,,2024-09-04,1,,,,,フカダケンソウ,0
196,1180003027294,新規,0,2024-09-04,2024-09-04,合同会社ＴｉＬＬ　ＨＡＩＲ,,合同会社,愛知県,名古屋市昭和区,塩付通１丁目４５－５,,23,107,4660022,,,,,,,2024-09-04,1,,,,,ティルヘアー,0
197,1180003027303,新規,0,2024-09-04,2024-09-04,合同会社Ｆｌｏｗｅｒｃｏｌｄ企画,,合同会社,愛知県,名古屋市中村区,名駅４丁目２４番５号第２森ビル４０１,,23,105,4500002,,,,,,,2024-09-04,1,,,,,フラワーコールドキカク,0
202,1190001031611,新規,0,2024-09-04,2024-09-04,株式会社Ａｓｔｅｌｌａ,,株式会社,三重県,四日市市,滝川町９番９‐１１０３号エルグランデ滝川,,24,202,5100034,,,,,,,2024-09-04,1,,,,,アステラ,0
204,1190003004788,新規,0,2024-09-04,2024-09-04,合同会社ＰＩＮＥ　ＦＩＥＬＤ,,合同会社,三重県,松阪市,小阿坂町３９６,,24,204,5152343,,,,,,,2024-09-04,1,,,,,パインフィールド,0
208,1200001042895,新規,0,2024-09-04,2024-09-04,株式会社淺野鍛冶屋,,株式会社,岐阜県,羽島市,江吉良町４５４番地１,,21,209,5016236,,,,,,,2024-09-04,1,,,,,アサノカジヤ,0
210,1200003006493,新規,0,2024-09-04,2024-09-04,合同会社５５５３,,合同会社,岐阜県,岐阜市,弥生町５,,21,201,5008831,,,,,,,2024-09-04,1,,,,,ファイブスリー,0
212,1220001026194,新規,0,2024-09-04,2024-09-04,株式会社リビングパートナー,,株式会社,石川県,金沢市,寺地２丁目２１番５号,,17,201,9218178,,,,,,,2024-09-04,1,,,,,リビングパートナー,0
213,1220003003836,新規,0,2024-09-04,2024-09-04,合同会社結,,合同会社,石川県,金沢市,富樫１丁目１０番２３号,,17,201,9218171,,,,,,,2024-09-04,1,,,,,ユイ,0
214,1230001020519,新規,0,2024-09-04,2024-09-04,株式会社ソーイングかわぐち,,株式会社,富山県,高岡市,大野６６６番地１,,16,202,9330016,,,,,,,2024-09-04,1,,,,,ソーイングカワグチ,0
224,1260001039416,新規,0,2024-09-04,2024-09-04,株式会社ＫＡＹＡＮＯＨＩＭＥ,,株式会社,岡山県,美作市,古町１７９６番地１,,33,215,7070412,,,,,,,2024-09-04,1,,,,,カヤノヒメ,0
225,1260001039424,新規,0,2024-09-04,2024-09-04,株式会社福島総合商事,,株式会社,岡山県,岡山市南区,泉田４１３番地６,,33,104,7000944,,,,,,,2024-09-04,1,,,,,フクシマソウゴウショウジ,0
228,1280001009251,新規,0,2024-09-04,2024-09-04,株式会社スペース,,株式会社,島根県,出雲市,朝山町２８１番地１,,32,203,6930213,,,,,,,2024-09-04,1,,,,,スペース,0
235,1290003015668,新規,0,2024-09-04,2024-09-04,励君合同会社,,合同会社,福岡県,福岡市博多区,博多駅東１丁目１－３３はかた近代ビル,,40,132,8120013,,,,,,,2024-09-04,1,,,,,リジュン,0
236,1290003015759,新規,0,2024-09-04,2024-09-04,合同会社Ｒｉｏコーポレーション,,合同会社,福岡県,福岡市東区,千早４丁目１０番１－５１７号リングローブ,,40,131,8130044,,,,,,,2024-09-04,1,,,,,リオコーポレーション,0
237,1290801030851,新規,0,2024-09-04,2024-09-04,ネクサスリングパートナーズ株式会社,,株式会社,福岡県,北九州市小倉南区,津田３丁目５－１９,,40,107,8000242,,,,,,,2024-09-04,1,,,,,ネクサスリングパートナーズ,0
239,1290803004837,新規,0,2024-09-04,2024-09-04,合同会社Ａｖｅｎｉｒ,,合同会社,福岡県,北九州市戸畑区,福柳木２丁目１０番３２号,,40,105,8040025,,,,,,,2024-09-04,1,,,,,アヴニール,0
244,1340001026769,新規,0,2024-09-04,2024-09-04,株式会社ＯＮＥ　ＡＲＫ,,株式会社,鹿児島県,曽於市,財部町下財部２１７４番地１,,46,217,8994103,,,,,,,2024-09-04,1,,,,,ワンアーク,0
245,1350001019169,新規,0,2024-09-04,2024-09-04,文建興業株式会社,,株式会社,宮崎県,延岡市,下伊形町６０５７番地１,,45,203,8890504,,,,,,,2024-09-04,1,,,,,ブンケンコウギョウ,0
246,1360001034159,新規,0,2024-09-04,2024-09-04,株式会社知花アセットマネジメント,,株式会社,沖縄県,沖縄市,知花４丁目３番１号,,47,211,9042143,,,,,,,2024-09-04,1,,,,,チバナアセットマネジメント,0
253,1390001017722,新規,0,2024-09-04,2024-09-04,株式会社ヤマコンホールディングス,,株式会社,山形県,山形市,大字十文字字天神東７７０番地,,06,201,9902211,,,,,,,2024-09-04,1,,,,,ヤマコンホールディングス,0
258,1410003003973,新規,0,2024-09-04,2024-09-04,メディオネクト合同会社,,合同会社,秋田県,秋田市,御所野元町３丁目４番２５号,,05,201,0101414,,,,,,,2024-09-04,1,,,,,メディオネクト,0
259,1420001018857,新規,0,2024-09-04,2024-09-04,株式会社トウリア,,株式会社,青森県,南津軽郡大鰐町,大字長峰字阿曽１番地２,,02,362,0380202,,,,,,,2024-09-04,1,,,,,トウリア,0
261,1430001092587,新規,0,2024-09-04,2024-09-04,東星株式会社,,株式会社,北海道,三笠市,岡山１０５６番地道の駅三笠内,,01,222,0682165,,,,,,,2024-09-04,1,,,,,トウセイ,0
264,1450001014399,新規,0,2024-09-04,2024-09-04,株式会社ＭＮＥＸＴ,,株式会社,北海道,旭川市,永山北一条１０丁目１番８７号,,01,204,0798451,,,,,,,2024-09-04,1,,,,,エムネクスト,0
265,1460301005246,新規,0,2024-09-04,2024-09-04,遠軽Ｆｏｏｄｓ株式会社,,株式会社,北海道,紋別郡遠軽町,丸瀬布東町８２番地２,,01,555,0990205,,,,,,,2024-09-04,1,,,,,エンガルフードズ,0
281,2010001247876,新規,0,2024-09-04,2024-09-04,中村国際貿易株式会社,,株式会社,東京都,中央区,佃２丁目１９番１－２７０４号,,13,102,1040051,,,,,,,2024-09-04,1,,,,,ナカムラコクサイボウエキ,0
284,2010101016306,新規,0,2024-09-04,2024-09-04,株式会社ＫＡＮＫＯ,,株式会社,東京都,八王子市,初沢町１３３７番地３,,13,201,1930845,,,,,,,2024-09-04,1,,,,,,0
295,2010401184892,新規,0,2024-09-04,2024-09-04,株式会社Ｔｒｕｎｋ１,,株式会社,東京都,港区,虎ノ門２丁目６番１号虎ノ門ヒルズステーションタワー１９階,,13,103,1050001,,,,,,,2024-09-04,1,,,,,トランクワン,0
298,2010403033362,新規,0,2024-09-04,2024-09-04,合同会社古賀開発,,合同会社,東京都,港区,赤坂２丁目１０番５号税理士法人赤坂国際会計事務所内,,13,103,1070052,,,,,,,2024-09-04,1,,,,,コガカイハツ,0
299,2010403033370,新規,0,2024-09-04,2024-09-04,ニコニコレコード合同会社,,合同会社,東京都,港区,南青山２丁目２番１５号ウィン青山,,13,103,1070062,,,,,,,2024-09-04,1,,,,,ニコニコレコード,0
308,2010503007563,新規,0,2024-09-04,2024-09-04,合同会社アルシミー,,合同会社,東京都,台東区,谷中３丁目２５番１７－４１４号,,13,106,1100001,,,,,,,2024-09-04,1,,,,,アルシミー,0
312,2010601065843,新規,0,2024-09-04,2024-09-04,バナハイム株式会社,,株式会社,東京都,江東区,白河２丁目１４番２号白河レーベル３階３０２号室,,13,108,1350021,,,,,,,2024-09-04,1,,,,,バナハイム,0
313,2010605004376,新規,0,2024-09-04,2024-09-04,医療法人社団悠理会,,その他の設立登記法人,東京都,墨田区,京島１丁目２２番２号亀田ビル１階,,13,107,1310046,,,,,,,2024-09-04,1,,,,,ユウリカイ,0
314,2010901055932,新規,0,2024-09-04,2024-09-04,メルティン株式会社,,株式会社,東京都,世田谷区,代沢３丁目２２番２３号,,13,112,1550032,,,,,,,2024-09-04,1,,,,,メルティン,0
315,2010903009333,新規,0,2024-09-04,2024-09-04,Ｕｋｉｙｏ　Ｆｉｌｍ合同会社,,合同会社,東京都,世田谷区,船橋４丁目３６番１１－２０５号,,13,112,1560055,,,,,,,2024-09-04,1,,,,,ウキヨフィルム,0
321,2011001164467,新規,0,2024-09-04,2024-09-04,株式会社Ｍａｃｂｅｅ　ｅｉｇｈｔ,,株式会社,東京都,渋谷区,渋谷３丁目１１番１１号,,13,113,1500002,,,,,,,2024-09-04,1,,,,,マクビーエイト,0
322,2011001164533,新規,0,2024-09-04,2024-09-04,株式会社ホロイムア,,株式会社,東京都,渋谷区,恵比寿３丁目３８番３号,,13,113,1500013,,,,,,,2024-09-04,1,,,,,ホロイムア,0
324,2011003019933,新規,0,2024-09-04,2024-09-04,明石合同会社,,合同会社,東京都,渋谷区,恵比寿１丁目３３番７号,,13,113,1500013,,,,,,,2024-09-04,1,,,,,アカシ,0
325,2011005010650,新規,0,2024-09-04,2024-09-04,一般財団法人ピックルボール日本連盟,,その他の設立登記法人,東京都,渋谷区,広尾４丁目１番１５ー１４０４号,,13,113,1500012,,,,,,,2024-09-04,1,,,,,ピックルボールニッポンレンメイ,0
329,2011101108695,新規,0,2024-09-04,2024-09-04,ミズサキ株式会社,,株式会社,東京都,新宿区,西新宿３丁目３番１３号西新宿水間ビル２Ｆ,,13,104,1600023,,,,,,,2024-09-04,1,,,,,ミズサキ,0
331,2011103014900,新規,0,2024-09-04,2024-09-04,合同会社那由他,,合同会社,東京都,新宿区,高田馬場１丁目３３番６号,,13,104,1690075,,,,,,,2024-09-04,1,,,,,ナユタ,0
338,2011803006437,新規,0,2024-09-04,2024-09-04,合同会社ＡＳＯＢＩプロジェクト,,合同会社,東京都,足立区,千住仲町４９番１１－８１３号,,13,121,1200036,,,,,,,2024-09-04,1,,,,,アソビプロジェクト,0
342,2012801023432,新規,0,2024-09-04,2024-09-04,エイテック株式会社,,株式会社,東京都,立川市,高松町２丁目２４番１４号,,13,202,1900011,,,,,,,2024-09-04,1,,,,,エイテック,0
351,2020003026815,新規,0,2024-09-04,2024-09-04,合同会社ＨＴＰ,,合同会社,神奈川県,横浜市青葉区,荏田北２丁目１－４レアルパラシオ２０２,,14,117,2250015,,,,,,,2024-09-04,1,,,,,エイチティーピー,0
353,2020005016517,新規,0,2024-09-04,2024-09-04,特定非営利活動法人ぷらいどらんど,,その他の設立登記法人,神奈川県,川崎市麻生区,早野３９３番３,,14,137,2150016,,,,,,,2024-09-04,1,,,,,プライドランド,0
365,2030001162256,新規,0,2024-09-04,2024-09-04,株式会社Ｒｅｆｓｔ,,株式会社,埼玉県,さいたま市桜区,栄和４丁目２６番１号ストリーム栄和Ａ－２０５号,,11,106,3380823,,,,,,,2024-09-04,1,,,,,レフスト,0
368,2030003025031,新規,0,2024-09-04,2024-09-04,ＳＨＩ合同会社,,合同会社,埼玉県,川口市,大字西新井宿６－３４,,11,203,3330833,,,,,,,2024-09-04,1,,,,,エスエーチアイ,0
375,2040001135236,新規,0,2024-09-04,2024-09-04,株式会社ふたまる工務店,,株式会社,千葉県,茂原市,本納３２４番地９０,,12,210,2994114,,,,,,,2024-09-04,1,,,,,フタマルコウムテン,0
376,2040001135252,新規,0,2024-09-04,2024-09-04,株式会社Ｔｙｐｅ‐Ｉ　Ｔｅｃｈｎｏｌｏｇｉｅｓ,,株式会社,千葉県,千葉市稲毛区,穴川４丁目９番地１号,,12,103,2630024,,,,,,,2024-09-04,1,,,,,タイプワンテクノロジーズ,0
380,2040003025740,新規,0,2024-09-04,2024-09-04,ＡＲＳＵ合同会社,,合同会社,千葉県,船橋市,薬円台４丁目１６－２２－１０３,,12,204,2740077,,,,,,,2024-09-04,1,,,,,アルス,0
382,2050001055334,新規,0,2024-09-04,2024-09-04,株式会社ＮＥＸＴ,,株式会社,茨城県,坂東市,小山５５番地３,,08,228,3060626,,,,,,,2024-09-04,1,,,,,ネクスト,0
384,2050003008653,新規,0,2024-09-04,2024-09-04,ＢＩＹＡＧＡＭＡ　ＥＮＴＥＲＰＲＩＳＥＳ合同会社,,合同会社,茨城県,鹿嶋市,大字平井１３５０－２－３０号トタン平家１階,,08,222,3140012,,,,,,,2024-09-04,1,,,,,ビヤガマエンタープライゼス,0
390,2080005007642,新規,0,2024-09-04,2024-09-04,行政書士法人アラインパートナーズ,,その他の設立登記法人,静岡県,静岡市清水区,下野中１番１３号,,22,103,4240029,,,,,,,2024-09-04,1,,,,,アラインパートナーズ,0
391,2080101024987,新規,0,2024-09-04,2024-09-04,株式会社ライトテラス,,株式会社,静岡県,三島市,中島２０９番地の１フルクトースＢ－２,,22,206,4110814,,,,,,,2024-09-04,1,,,,,ライトテラス,0
395,2080401027418,新規,0,2024-09-04,2024-09-04,株式会社トーケン,,株式会社,静岡県,浜松市中央区,舞阪町弁天島２６５８番地の３６９,,22,138,4310214,,,,,,,2024-09-04,1,,,,,トーケン,0
399,2100001037814,新規,0,2024-09-04,2024-09-04,株式会社Ｆｒｅｅ　ｆｌａｇｓ,,株式会社,長野県,松本市,大手１丁目９番１４号,,20,202,3900874,,,,,,,2024-09-04,1,,,,,フリーフラッグス,0
405,2100003007749,新規,0,2024-09-04,2024-09-04,結び合同会社,,合同会社,長野県,安曇野市,豊科高塚６７６４番地１,,20,220,3998205,,,,,,,2024-09-04,1,,,,,ムスビ,0
418,2120001268085,新規,0,2024-09-04,2024-09-04,株式会社永広,,株式会社,大阪府,守口市,大日町２丁目２８番２１号,,27,209,5700003,,,,,,,2024-09-04,1,,,,,エイコウ,0
419,2120001268267,新規,0,2024-09-04,2024-09-04,株式会社アイ・ピー・エス分割準備会社,,株式会社,大阪府,大阪市北区,大深町３番１号グランフロント大阪タワーＢ１６階,,27,127,5300011,,,,,,,2024-09-04,1,,,,,アイピーエスブンカツジュンビガイシャ,0
420,2120001268275,新規,0,2024-09-04,2024-09-04,株式会社ベトラジ,,株式会社,大阪府,大阪市中央区,上町１丁目２番２８－１９０３号,,27,128,5400005,,,,,,,2024-09-04,1,,,,,ベトラジ,0
421,2120001268325,新規,0,2024-09-04,2024-09-04,リッジフロントトレーディング株式会社,,株式会社,大阪府,大阪市東成区,深江北２丁目９番７,,27,115,5370001,,,,,,,2024-09-04,1,,,,,リッジフロントトレーディング,0
429,2120003027448,新規,0,2024-09-04,2024-09-04,合同会社ＲＯＡＤ,,合同会社,大阪府,大阪市中央区,南久宝寺町３丁目４－１５,,27,128,5410058,,,,,,,2024-09-04,1,,,,,ロード,0
430,2120003027464,新規,0,2024-09-04,2024-09-04,ナルインターナショナル合同会社,,合同会社,大阪府,大阪市中央区,南船場３丁目２番２２号おおきに南船場ビル２０５,,27,128,5420081,,,,,,,2024-09-04,1,,,,,ナルインターナショナル,0
434,2120101070250,新規,0,2024-09-04,2024-09-04,株式会社ＷＳ,,株式会社,大阪府,羽曳野市,古市２丁目２番２０号,,27,222,5830852,,,,,,,2024-09-04,1,,,,,ダブルエス,0
435,2120903005321,新規,0,2024-09-04,2024-09-04,櫻設計合同会社,,合同会社,大阪府,箕面市,半町３丁目５－Ｂ４０９,,27,220,5620044,,,,,,,2024-09-04,1,,,,,サクラセッケイ,0
437,2122001038410,新規,0,2024-09-04,2024-09-04,株式会社ペリドット,,株式会社,大阪府,八尾市,太子堂４丁目２番２８号,,27,212,5810063,,,,,,,2024-09-04,1,,,,,ペリドット,0
438,2122003002983,新規,0,2024-09-04,2024-09-04,合同会社緑一色,,合同会社,大阪府,八尾市,太田６丁目１５番地の３エトワール１０１号,,27,212,5810037,,,,,,,2024-09-04,1,,,,,リューイーソー,0
443,2130001077865,新規,0,2024-09-04,2024-09-04,ＩＫＥメディカルサポート株式会社,,株式会社,京都府,八幡市,男山指月３番３号,,26,210,6148361,,,,,,,2024-09-04,1,,,,,アイケーイーメディカルサポート,0
446,2130003009825,新規,0,2024-09-04,2024-09-04,合同会社アローフィールド,,合同会社,京都府,福知山市,字新庄６０１番地６,,26,201,6200926,,,,,,,2024-09-04,1,,,,,アローフィールド,0
447,2130005017173,新規,0,2024-09-04,2024-09-04,京都城陽環境協同組合,,その他の設立登記法人,京都府,城陽市,久世荒内１６０番地２,,26,207,6100102,,,,,,,2024-09-04,1,,,,,キョウトジョウヨウカンキョウ,0
453,2140003021036,新規,0,2024-09-04,2024-09-04,トウジズ合同会社,,合同会社,兵庫県,芦屋市,東芦屋町１８番３１－６０２号,00136179,28,206,6590095,,,,,,,2024-09-04,1,,,,,トウジズ,0
454,2150003003355,新規,0,2024-09-04,2024-09-04,合同会社ＰＣ‐１,,合同会社,奈良県,奈良市,西大寺北町２丁目３番４６号,,29,201,6310817,,,,,,,2024-09-04,1,,,,,ピーシーワン,0
463,2180001163099,新規,0,2024-09-04,2024-09-04,快進オートモーティブ株式会社,,株式会社,愛知県,名古屋市中区,錦１丁目５番１１号,,23,106,4600003,,,,,,,2024-09-04,1,,,,,カイシンオートモーティブ,0
464,2180001163116,新規,0,2024-09-04,2024-09-04,株式会社ビルド,,株式会社,愛知県,豊明市,西川町笹原４番地１兼子倉庫３号,,23,229,4701123,,,,,,,2024-09-04,1,,,,,ビルド,0
465,2180001163124,新規,0,2024-09-04,2024-09-04,株式会社ＤＯＳＥ,,株式会社,愛知県,日進市,竹の山５丁目１２２１番地,,23,230,4700136,,,,,,,2024-09-04,1,,,,,ドーズ,0
466,2180001163132,新規,0,2024-09-04,2024-09-04,ＡＭＡＮ　ｃｒｅａｔｉｖｅ株式会社,,株式会社,愛知県,名古屋市中区,錦３丁目９番３２号,,23,106,4600003,,,,,,,2024-09-04,1,,,,,アマンクリエイティブ,0
467,2180001163149,新規,0,2024-09-04,2024-09-04,株式会社ジャズ,,株式会社,愛知県,瀬戸市,高根町２丁目４６番地の１５,,23,204,4890931,,,,,,,2024-09-04,1,,,,,ジャズ,0
469,2180003027310,新規,0,2024-09-04,2024-09-04,一緑合同会社,,合同会社,愛知県,江南市,小折町八竜１２０番地,,23,217,4838137,,,,,,,2024-09-04,1,,,,,ワカバ,0
472,2180301039024,新規,0,2024-09-04,2024-09-04,株式会社Ｔｉｌｔ,,株式会社,愛知県,安城市,今池町１丁目１６番４号,,23,212,4460071,,,,,,,2024-09-04,1,,,,,ティルト,0
475,2190001031602,新規,0,2024-09-04,2024-09-04,株式会社ｉＡｃｔ,,株式会社,三重県,三重郡菰野町,大字杉谷２２９７番地３６,,24,341,5101326,,,,,,,2024-09-04,1,,,,,アイアクト,0
479,2200001042878,新規,0,2024-09-04,2024-09-04,Ｓｈａｒｅ株式会社,,株式会社,岐阜県,大垣市,外渕２丁目１２１番地２ベネ・ファキスＩ１０１号室,00136173,21,202,5030934,,,,,,,2024-09-04,1,,,,,シェア,0
492,2220001026193,新規,0,2024-09-04,2024-09-04,株式会社鮨治,,株式会社,石川県,金沢市,西町四番丁９番地１、１４番地２合併,,17,201,9200914,,,,,,,2024-09-04,1,,,,,スシハル,0
494,2220003003835,新規,0,2024-09-04,2024-09-04,合同会社コンフィード,,合同会社,石川県,金沢市,乙丸町丙４４‐３,,17,201,9200807,,,,,,,2024-09-04,1,,,,,コンフィード,0
497,2230001020518,新規,0,2024-09-04,2024-09-04,株式会社ビレッジ,,株式会社,富山県,小矢部市,桜町１１４３番地２,,16,209,9320022,,,,,,,2024-09-04,1,,,,,ビレッジ,0
503,2260001039423,新規,0,2024-09-04,2024-09-04,株式会社８０８０,,株式会社,岡山県,新見市,千屋実２２７９番地１,,33,210,7180102,,,,,,,2024-09-04,1,,,,,ハチマルハチマル,0
511,2280003001882,新規,0,2024-09-04,2024-09-04,ＢｅｅｓＮｅｓｔ合同会社,,合同会社,島根県,大田市,久手町刺鹿４１７番地３,,32,205,6940052,,,,,,,2024-09-04,1,,,,,ビーズネスト,0
524,2290001107160,新規,0,2024-09-04,2024-09-04,株式会社箱田企画,,株式会社,福岡県,久留米市,御井町６１３番地２０,,40,203,8390851,,,,,,,2024-09-04,1,,,,,ハコダキカク,0
526,2290801030850,新規,0,2024-09-04,2024-09-04,株式会社明笑,,株式会社,福岡県,築上郡吉富町,大字楡生３０番地５,00136181,40,642,8710833,,,,,,,2024-09-04,1,,,,,メイショウ,0
527,2320005010183,新規,0,2024-09-04,2024-09-04,農事組合法人田原ファーム,,その他の設立登記法人,大分県,大分市,大字田原１１８０番地,,44,201,8701154,,,,,,,2024-09-04,1,,,,,,0
529,2330001032420,新規,0,2024-09-04,2024-09-04,株式会社Ｍ＆Ｍ　ＰＬＵＳ,,株式会社,熊本県,熊本市南区,近見２丁目８番２１号,,43,104,8614101,,,,,,,2024-09-04,1,,,,,エムアンドエムプラス,0
530,2330003010548,新規,0,2024-09-04,2024-09-04,合同会社ドリームホーム,,合同会社,熊本県,熊本市中央区,島崎１丁目１７番１５号,,43,101,8600073,,,,,,,2024-09-04,1,,,,,ドリームホーム,0
531,2340001026768,新規,0,2024-09-04,2024-09-04,株式会社Ｍ＆Ｙ,,株式会社,鹿児島県,鹿児島市,伊敷１丁目８－４０－２階２０１号室,,46,201,8900008,,,,,,,2024-09-04,1,,,,,エムアンドワイ,0
540,2370003006740,新規,0,2024-09-04,2024-09-04,合同会社ナンモ企画,,合同会社,宮城県,仙台市青葉区,北山１丁目８番２５号,,04,101,9810931,,,,,,,2024-09-04,1,,,,,ナンモキカク,0
558,2430001092594,新規,0,2024-09-04,2024-09-04,レイズレート株式会社,,株式会社,北海道,札幌市西区,発寒二条３丁目３番１０号,,01,107,0630822,,,,,,,2024-09-04,1,,,,,レイズレート,0
559,2430001092611,新規,0,2024-09-04,2024-09-04,株式会社律,,株式会社,北海道,札幌市西区,琴似一条１丁目７番１６号,,01,107,0630811,,,,,,,2024-09-04,1,,,,,リツ,0
567,2490001010864,新規,0,2024-09-04,2024-09-04,株式会社山水,,株式会社,高知県,須崎市,大谷２１４番地８,,39,206,7850055,,,,,,,2024-09-04,1,,,,,ヤマスイ,0
574,3010001247875,新規,0,2024-09-04,2024-09-04,株式会社ＪＴＳ,,株式会社,東京都,千代田区,東神田３丁目２番４号－３０６,,13,101,1010031,,,,,,,2024-09-04,1,,,,,ジェーティーエス,0
575,3010001247933,新規,0,2024-09-04,2024-09-04,ＮＹＣＩ１２ＨＤ株式会社,,株式会社,東京都,中央区,新川１丁目６番１１号,,13,102,1040033,,,,,,,2024-09-04,1,,,,,エヌワイシーアイトゥエルヴエイチディー,0
576,3010001248064,新規,0,2024-09-04,2024-09-04,株式会社プライムコンサルティング,,株式会社,東京都,中央区,京橋２丁目７番８号,,13,102,1040031,,,,,,,2024-09-04,1,,,,,プライムコンサルティング,0
578,3010003044767,新規,0,2024-09-04,2024-09-04,恵比寿プロパティー合同会社,,合同会社,東京都,千代田区,丸の内１丁目１１番１号,,13,101,1000005,,,,,,,2024-09-04,1,,,,,エビスプロパティー,0
584,3010401184768,新規,0,2024-09-04,2024-09-04,朱雀株式会社,,株式会社,東京都,港区,新橋６丁目８番１－２０４号室,,13,103,1050004,,,,,,,2024-09-04,1,,,,,スザク,0
585,3010401184891,新規,0,2024-09-04,2024-09-04,株式会社Ｖｉｓｉｏｎ　Ｊａｐａｎ　Ｒｅａｌ　Ｅｓｔａｔｅ,,株式会社,東京都,港区,赤坂７丁目２番２１号草月会館９Ｆ,,13,103,1070052,,,,,,,2024-09-04,1,,,,,ビジョンジャパンリアルエステート,0
586,3010401184917,新規,0,2024-09-04,2024-09-04,トップベーカリーコンサルティング株式会社,,株式会社,東京都,港区,白金台４丁目９番２１号,,13,103,1080071,,,,,,,2024-09-04,1,,,,,トップベーカリーコンサルティング,0
591,3010601065859,新規,0,2024-09-04,2024-09-04,創亜株式会社,,株式会社,東京都,墨田区,東向島６丁目２５番１号,,13,107,1310032,,,,,,,2024-09-04,1,,,,,ソウア,0
593,3010603011051,新規,0,2024-09-04,2024-09-04,合同会社ＭＣＣ,,合同会社,東京都,墨田区,押上１丁目３１―８ラパスレル２０６,,13,107,1310045,,,,,,,2024-09-04,1,,,,,エムシーシー,0
594,3010605004375,新規,0,2024-09-04,2024-09-04,医療法人社団明享会,,その他の設立登記法人,東京都,江東区,大島１丁目３５番１０号１階,,13,108,1360072,,,,,,,2024-09-04,1,,,,,メイキョウカイ,0
596,3010801035372,新規,0,2024-09-04,2024-09-04,株式会社Ｐｒｏｊｅｃｔ‐Ｏｎｅ‐Ｏｎｅ,,株式会社,東京都,大田区,大森北４丁目１５番２６号,,13,111,1430016,,,,,,,2024-09-04,1,,,,,プロジェクトワンワン,0
600,3010901055907,新規,0,2024-09-04,2024-09-04,Ｃｏｃｏｎｅ　Ｅｎｇｉｎｅｅｒｉｎｇ株式会社,,株式会社,東京都,世田谷区,若林３丁目１番１８号,,13,112,1540023,,,,,,,2024-09-04,1,,,,,ココネエンジニアリング,0
602,3011001164466,新規,0,2024-09-04,2024-09-04,ＥＣの相談室株式会社,,株式会社,東京都,渋谷区,恵比寿４丁目２０番３号恵比寿ガーデンプレイスタワー,,13,113,1500013,,,,,,,2024-09-04,1,,,,,イーシーノソウダンシツ,0
603,3011001164482,新規,0,2024-09-04,2024-09-04,サカイ販促サポート株式会社,,株式会社,東京都,渋谷区,道玄坂１丁目１０番８号渋谷道玄坂東急ビル２Ｆ－Ｃ,,13,113,1500043,,,,,,,2024-09-04,1,,,,,サカイハンソクサポート,0
605,3011003019750,新規,0,2024-09-04,2024-09-04,合同会社ｗｅｌｉｎａ,,合同会社,東京都,渋谷区,恵比寿西１丁目９番１１号イルフィアート恵比寿２０２号室,,13,113,1500021,,,,,,,2024-09-04,1,,,,,ウェリナ,0
606,3011003019949,新規,0,2024-09-04,2024-09-04,合同会社鏑木工業,,合同会社,東京都,目黒区,碑文谷１丁目２７‐２４,,13,110,1520003,,,,,,,2024-09-04,1,,,,,カブラギコウギョウ,0
609,3011101108686,新規,0,2024-09-04,2024-09-04,ＳＯＬＴＥＭＡ株式会社,,株式会社,東京都,新宿区,四谷４丁目１７番地９スタジオリバー２階,,13,104,1600004,,,,,,,2024-09-04,1,,,,,ソルテマ,0
632,3012801023431,新規,0,2024-09-04,2024-09-04,株式会社エミえみ,,株式会社,東京都,昭島市,中神町１１７４番地２４,,13,207,1960022,,,,,,,2024-09-04,1,,,,,エミエミ,0
640,3020001158898,新規,0,2024-09-04,2024-09-04,株式会社ＰｅＰｅ,,株式会社,神奈川県,横浜市神奈川区,金港町５－１４クアドリフォリオ８階,,14,102,2210056,,,,,,,2024-09-04,1,,,,,ペペ,0
641,3020001159038,新規,0,2024-09-04,2024-09-04,株式会社ブレスト,,株式会社,神奈川県,横浜市神奈川区,鶴屋町２丁目１２番地３－２階,,14,102,2210835,,,,,,,2024-09-04,1,,,,,ブレスト,0
653,3021003014973,新規,0,2024-09-04,2024-09-04,モノづくり工房合同会社,,合同会社,神奈川県,相模原市南区,東林間４丁目５番２３号,,14,153,2520311,,,,,,,2024-09-04,1,,,,,モノヅクリコウボウ,0
658,3030001162230,新規,0,2024-09-04,2024-09-04,山桜花株式会社,,株式会社,埼玉県,上尾市,愛宕１丁目２－６オワゾブルー２０１,,11,219,3620034,,,,,,,2024-09-04,1,,,,,ヤマザクラバナ,0
665,3030003025039,新規,0,2024-09-04,2024-09-04,合同会社ハートフルサポート,,合同会社,埼玉県,加須市,常泉６１４番地８,,11,210,3470034,,,,,,,2024-09-04,1,,,,,ハートフルサポート,0
675,3040001135210,新規,0,2024-09-04,2024-09-04,株式会社プレイモンキー,,株式会社,千葉県,千葉市美浜区,稲毛海岸５丁目２８－１－８１４,,12,106,2610005,,,,,,,2024-09-04,1,,,,,プレイモンキー,0
691,3060001037454,新規,0,2024-09-04,2024-09-04,聖心工業株式会社,,株式会社,栃木県,真岡市,熊倉１丁目２９番地１０,,09,209,3214369,,,,,,,2024-09-04,1,,,,,セイシンコウギョウ,0
692,3070001042131,新規,0,2024-09-04,2024-09-04,株式会社ワイアンドアール,,株式会社,群馬県,前橋市,茂木町３５番地５,,10,201,3710232,,,,,,,2024-09-04,1,,,,,ワイアンドアール,0
696,3080003003287,新規,0,2024-09-04,2024-09-04,合同会社アクセス,,合同会社,静岡県,静岡市駿河区,下川原６丁目７－２６,,22,102,4210113,,,,,,,2024-09-04,1,,,,,アクセス,0
698,3080401027417,新規,0,2024-09-04,2024-09-04,株式会社ウエルストン,,株式会社,静岡県,湖西市,岡崎２５５番地の１０８,,22,221,4310422,,,,,,,2024-09-04,1,,,,,ウエルストン,0
699,3080401027425,新規,0,2024-09-04,2024-09-04,Ｓｐａｃｅ不動産株式会社,,株式会社,静岡県,浜松市中央区,増楽町８７７番地の２,,22,138,4328062,,,,,,,2024-09-04,1,,,,,スペースフドウサン,0
700,3100001037813,新規,0,2024-09-04,2024-09-04,株式会社Ｅｘｃｅｌでんき,,株式会社,長野県,松本市,大字水汲５３番地２,,20,202,3900311,,,,,,,2024-09-04,1,,,,,エクセルデンキ,0
701,3100001037821,新規,0,2024-09-04,2024-09-04,株式会社神野ジャパン,,株式会社,長野県,埴科郡坂城町,大字上五明１４８,,20,521,3890606,,,,,,,2024-09-04,1,,,,,カンノジャパン,0
702,3110001038678,新規,0,2024-09-04,2024-09-04,株式会社艶塗,,株式会社,新潟県,北蒲原郡聖籠町,大字藤寄１３７０番地１９,,15,307,9570127,,,,,,,2024-09-04,1,,,,,アデト,0
710,3120001268274,新規,0,2024-09-04,2024-09-04,株式会社亀福,,株式会社,大阪府,大阪市淀川区,西中島２丁目１２番１１－２０６号,,27,123,5320011,,,,,,,2024-09-04,1,,,,,カメフク,0
711,3120001268308,新規,0,2024-09-04,2024-09-04,株式会社ＳＯＺＯ　ＪＡＰＡＮ,,株式会社,大阪府,大阪市中央区,難波５丁目１番６０号なんばＳｋｙＯ２７階,,27,128,5420076,,,,,,,2024-09-04,1,,,,,ソゾジャパン,0
712,3120001268316,新規,0,2024-09-04,2024-09-04,株式会社Ｈ・Ｓ・Ｔ．ｐｌｕｓ,,株式会社,大阪府,大阪市中央区,南船場２丁目５番１２号,,27,128,5420081,,,,,,,2024-09-04,1,,,,,エイチエスティプラス,0
715,3120003027463,新規,0,2024-09-04,2024-09-04,ＴＡＣＫＥＲアセットマネジメント合同会社,,合同会社,大阪府,大阪市住吉区,南住吉１丁目１５番１０号,,27,120,5580041,,,,,,,2024-09-04,1,,,,,タッカーアセットマネジメント,0
716,3120003027471,新規,0,2024-09-04,2024-09-04,ジョブウエイズ合同会社,,合同会社,大阪府,大阪市北区,梅田１丁目１番３号大阪駅前第３ビル２９階,,27,127,5300001,,,,,,,2024-09-04,1,,,,,ジョブウエイズ,0
718,3120101070233,新規,0,2024-09-04,2024-09-04,株式会社資起,,株式会社,大阪府,泉南市,新家２３７番地,,27,228,5900503,,,,,,,2024-09-04,1,,,,,モトキ,0
719,3120901049716,新規,0,2024-09-04,2024-09-04,株式会社丸晴産業,,株式会社,大阪府,吹田市,南吹田５丁目３７－２３－２０６,,27,205,5640043,,,,,,,2024-09-04,1,,,,,マルセイサンギョウ,0
721,3122001038418,新規,0,2024-09-04,2024-09-04,株式会社Ｒｅｉｓｓｕｅ,,株式会社,大阪府,東大阪市,三島３丁目８番１９号,,27,227,5780966,,,,,,,2024-09-04,1,,,,,リイシュー,0
722,3122003002982,新規,0,2024-09-04,2024-09-04,アシスト合同会社,,合同会社,大阪府,東大阪市,柏田西１丁目１４番８号,,27,227,5770835,,,,,,,2024-09-04,1,,,,,アシスト,0
724,3130001077864,新規,0,2024-09-04,2024-09-04,株式会社荒河組,,株式会社,京都府,木津川市,木津宮ノ裏１７３番地１７,,26,214,6190214,,,,,,,2024-09-04,1,,,,,アラカワグミ,0
726,3130003009832,新規,0,2024-09-04,2024-09-04,合同会社睿行,,合同会社,京都府,京都市山科区,御陵封ジ山町７－４６－２０８,,26,110,6078422,,,,,,,2024-09-04,1,,,,,エイコウ,0
734,3140001135704,新規,0,2024-09-04,2024-09-04,株式会社ＡＤＡＣＨＩ,,株式会社,兵庫県,川西市,久代３丁目３－２５増田建設久代ビル１０２号,,28,217,6660024,,,,,,,2024-09-04,1,,,,,アダチ,0
735,3140003021019,新規,0,2024-09-04,2024-09-04,合同会社Ｌｉｎｏ,,合同会社,兵庫県,西宮市,老松町１７番７２号芦屋エルジャンＩＩ２０１号,00136174,28,204,6620085,,,,,,,2024-09-04,1,,,,,リノ,0
736,3140003021043,新規,0,2024-09-04,2024-09-04,合同会社シグマ,,合同会社,兵庫県,宝塚市,中筋７丁目５－１２宝塚中筋ライザホビー０３号,,28,214,6650874,,,,,,,2024-09-04,1,,,,,シグマ,0
737,3150001027545,新規,0,2024-09-04,2024-09-04,株式会社ＲＥＳＱＯＭ,,株式会社,奈良県,奈良市,鶴舞西町１番１２－３０３号,,29,201,6310022,,,,,,,2024-09-04,1,,,,,リスコム,0
739,3150003003354,新規,0,2024-09-04,2024-09-04,合同会社倭実業,,合同会社,奈良県,奈良市,西大寺北町２丁目３番４６号,,29,201,6310817,,,,,,,2024-09-04,1,,,,,ヤマトジツギョウ,0
741,3160001026199,新規,0,2024-09-04,2024-09-04,株式会社Ｔｒｕｓｔ　ＴＥＣ,,株式会社,滋賀県,彦根市,新海町１２８１番地,,25,202,5211135,,,,,,,2024-09-04,1,,,,,トラストテック,0
742,3170001018294,新規,0,2024-09-04,2024-09-04,田上自動車株式会社,,株式会社,和歌山県,新宮市,三輪崎１２３３番地の１,,30,207,6470061,,,,,,,2024-09-04,1,,,,,タノウエジドウシャ,0
743,3180001163073,新規,0,2024-09-04,2024-09-04,上名株式会社,,株式会社,愛知県,名古屋市昭和区,川名町４丁目８５番地ドール川名第２－２０２号室,,23,107,4660856,,,,,,,2024-09-04,1,,,,,カミナ,0
744,3180001163098,新規,0,2024-09-04,2024-09-04,株式会社ｂｅ　ｑｕｅｓｔ,,株式会社,愛知県,東海市,荒尾町奥油田２番地の９,,23,222,4760003,,,,,,,2024-09-04,1,,,,,ビークエスト,0
745,3180001163115,新規,0,2024-09-04,2024-09-04,第二ピアサービス株式会社,,株式会社,愛知県,名古屋市昭和区,塩付通７丁目１５番地の３,,23,107,4660022,,,,,,,2024-09-04,1,,,,,ダイニピアサービス,0
746,3180001163123,新規,0,2024-09-04,2024-09-04,大登工業株式会社,,株式会社,愛知県,名古屋市名東区,上社３丁目１０２番地東名ビルディング２０５号,,23,115,4650025,,,,,,,2024-09-04,1,,,,,ダイトコウギョウ,0
747,3180001163148,新規,0,2024-09-04,2024-09-04,株式会社Ｓ‐ｔｅｃ,,株式会社,愛知県,一宮市,木曽川町玉ノ井字八尻１１６番地,,23,203,4930004,,,,,,,2024-09-04,1,,,,,エステック,0
748,3180001163156,新規,0,2024-09-04,2024-09-04,株式会社ＯＷＡＲＩＮ,,株式会社,愛知県,名古屋市西区,那古野２丁目１４－１なごのキャンパス３Ｆ，ＮＯＲＴＨ１３８,,23,104,4510042,,,,,,,2024-09-04,1,,,,,オワリン,0
750,3180003027301,新規,0,2024-09-04,2024-09-04,合同会社ＳＵＰＲＩＭＥ　ＩＮＴＥＲＮＡＴＩＯＮＡＬ,,合同会社,愛知県,名古屋市中村区,名楽町１丁目２３番地８,,23,105,4530024,,,,,,,2024-09-04,1,,,,,スプリームインターナショナル,0
753,3180301039015,新規,0,2024-09-04,2024-09-04,株式会社ＳＫＫ,,株式会社,愛知県,豊川市,東名町１丁目３６番地,,23,207,4420019,,,,,,,2024-09-04,1,,,,,エスケイケイ,0
762,3220001026192,新規,0,2024-09-04,2024-09-04,株式会社ＯＵＫＡ,,株式会社,石川県,野々市市,本町３丁目１６番２０号,,17,212,9218815,,,,,,,2024-09-04,1,,,,,オウカ,0
763,3220003003834,新規,0,2024-09-04,2024-09-04,合同会社りゅうとも,,合同会社,石川県,白山市,千代野東５丁目１０番地４,,17,210,9240073,,,,,,,2024-09-04,1,,,,,リュウトモ,0
765,3230001020517,新規,0,2024-09-04,2024-09-04,株式会社松田工業,,株式会社,富山県,魚津市,三ケ２２７番地,,16,204,9370857,,,,,,,2024-09-04,1,,,,,マツダコウギョウ,0
767,3250005008944,新規,0,2024-09-04,2024-09-04,一般社団法人下関ふく連盟,,その他の設立登記法人,山口県,下関市,彦島西山町４丁目１１番３９号,,35,201,7500093,,,,,,,2024-09-04,1,,,,,シモノセキフクレンメイ,0
768,3260001039422,新規,0,2024-09-04,2024-09-04,株式会社零システム,,株式会社,岡山県,岡山市中区,東川原６５番地,,33,102,7038255,,,,,,,2024-09-04,1,,,,,ゼロシステム,0
775,3290001107093,新規,0,2024-09-04,2024-09-04,株式会社ＴｅＱｔＣｏｄｅ,,株式会社,福岡県,福岡市早良区,原２丁目１３番２３－３０３号ＡＳ原オーゼ,,40,137,8140022,,,,,,,2024-09-04,1,,,,,テクトコード,0
776,3290001107110,新規,0,2024-09-04,2024-09-04,ネクストインフラ株式会社,,株式会社,福岡県,福岡市博多区,博多駅前４丁目２３番６号,,40,132,8120011,,,,,,,2024-09-04,1,,,,,ネクストインフラ,0
777,3290001107119,新規,0,2024-09-04,2024-09-04,株式会社アトム,,株式会社,福岡県,久留米市,北野町高良２４７４番地１,,40,203,8301114,,,,,,,2024-09-04,1,,,,,アトム,0
782,3340001026775,新規,0,2024-09-04,2024-09-04,株式会社山姶ハウジング,,株式会社,鹿児島県,姶良市,宮島町６３番地２,,46,225,8995432,,,,,,,2024-09-04,1,,,,,サンアイハウジング,0
786,3350003004737,新規,0,2024-09-04,2024-09-04,合同会社ＦＩＡＴＬＵＸ,,合同会社,宮崎県,都城市,早鈴町１５１３番地９,,45,202,8850055,,,,,,,2024-09-04,1,,,,,フィーアトルクス,0
788,3360001034140,新規,0,2024-09-04,2024-09-04,ＴｈｉｎｋＡ株式会社,,株式会社,沖縄県,那覇市,牧志２丁目１７－２７－４０１,,47,201,9000013,,,,,,,2024-09-04,1,,,,,シンカ,0
789,3360001034149,新規,0,2024-09-04,2024-09-04,株式会社平敷興業,,株式会社,沖縄県,うるま市,勝連平敷屋１６０番地,,47,213,9042314,,,,,,,2024-09-04,1,,,,,ヘシキコウギョウ,0
792,3370001051688,新規,0,2024-09-04,2024-09-04,株式会社ＭＡＴＥ,,株式会社,宮城県,仙台市若林区,卸町２丁目１番地の８パークホームズ仙台卸町２３０７,,04,103,9840015,,,,,,,2024-09-04,1,,,,,メイト,0
802,3420003002989,新規,0,2024-09-04,2024-09-04,合同会社キッチンｇｏｏ,,合同会社,青森県,青森市,岡造道１丁目１７番地１２号１階貸店舗,,02,201,0300914,,,,,,,2024-09-04,1,,,,,キッチングー,0
808,3430001092585,新規,0,2024-09-04,2024-09-04,株式会社ホームリノベＯｋｕｎｏ,,株式会社,北海道,札幌市白石区,本通８丁目北６番７号,,01,104,0030027,,,,,,,2024-09-04,1,,,,,ホームリノベオクノ,0
809,3430001092602,新規,0,2024-09-04,2024-09-04,Ｆｕｒａｎｏ　Ｒｅｓｏｒｔ株式会社,,株式会社,北海道,札幌市中央区,南五条西１５丁目２番３号リズム医大前５０３号室,,01,101,0640805,,,,,,,2024-09-04,1,,,,,フラノリゾート,0
811,3430003016690,新規,0,2024-09-04,2024-09-04,合同会社ＲＯＭＡＮ,,合同会社,北海道,苫小牧市,白金町２丁目４－８ｐｌａｔｉｎｕｍ８　１０１,,01,213,0530801,,,,,,,2024-09-04,1,,,,,ロマン,0
812,3430003016749,新規,0,2024-09-04,2024-09-04,あびら製粉合同会社,,合同会社,北海道,勇払郡安平町,早来北進７１番地４７,,01,585,0591502,,,,,,,2024-09-04,1,,,,,アビラセイフン,0
816,3470003002712,新規,0,2024-09-04,2024-09-04,合同会社ｈａｒａｐｅｃｏ,,合同会社,香川県,高松市,天神前１０番５号高松セントラルスカイビルディング３Ｆｓｏｕｔｈ,,37,201,7600018,,,,,,,2024-09-04,1,,,,,ハラペコ,0
819,3490001010863,新規,0,2024-09-04,2024-09-04,株式会社アインベルク,,株式会社,高知県,高知市,はりまや町２丁目１１番１９号,,39,201,7800822,,,,,,,2024-09-04,1,,,,,アインベルク,0
824,3500005008729,新規,0,2024-09-04,2024-09-04,一般社団法人大洲弘法会,,その他の設立登記法人,愛媛県,大洲市,東大洲１８０８番地,,38,207,7950064,,,,,,,2024-09-04,1,,,,,オオズコウボウカイ,0
825,3700150127032,新規,0,2024-09-04,2024-09-04,北福田町内会,,その他,秋田県,由利本荘市,北福田字堂ノ沢９４番地,,05,210,0180734,,,,,,,2024-09-04,1,,,,,キタフクダチヨウナイカイ,0
836,4010001247767,新規,0,2024-09-04,2024-09-04,株式会社アイファドーズ,,株式会社,東京都,千代田区,東神田３丁目４―１２・５Ｆ,,13,101,1010031,,,,,,,2024-09-04,1,,,,,アイファドーズ,0
837,4010001248014,新規,0,2024-09-04,2024-09-04,ワールドブリッジ株式会社,,株式会社,東京都,中央区,銀座１丁目１２番４号Ｎ＆ＥＢＬＤ６Ｆ,,13,102,1040061,,,,,,,2024-09-04,1,,,,,ワールドブリッジ,0
840,4010005038758,新規,0,2024-09-04,2024-09-04,宮島開発一般社団法人,,その他の設立登記法人,東京都,千代田区,永田町２丁目１７番５号,,13,101,1000014,,,,,,,2024-09-04,1,,,,,ミヤジマカイハツ,0
846,4010401184866,新規,0,2024-09-04,2024-09-04,株式会社Ｆｉｇｉｔａｒｉｎａ,,株式会社,東京都,港区,海岸１丁目７－１東京ポートシティ竹芝オフィスタワー８階ＣｉＰ内,,13,103,1050022,,,,,,,2024-09-04,1,,,,,フィジタリーナ,0
847,4010401184874,新規,0,2024-09-04,2024-09-04,エニタイムホット株式会社,,株式会社,東京都,港区,芝浦１丁目１２番３号Ｄａｉｗａ芝浦ビル１００４,,13,103,1050023,,,,,,,2024-09-04,1,,,,,エニタイムホット,0
848,4010401184890,新規,0,2024-09-04,2024-09-04,株式会社ビズトークキャリア,,株式会社,東京都,港区,赤坂７丁目２番２１号草月会館９Ｆ,,13,103,1070052,,,,,,,2024-09-04,1,,,,,ビズトークキャリア,0
849,4010401184908,新規,0,2024-09-04,2024-09-04,南青山メディア＆コンテンツ株式会社,,株式会社,東京都,港区,南青山３丁目８番４０号青山センタービル２Ｆ,,13,103,1070062,,,,,,,2024-09-04,1,,,,,ミナミアオヤマメディアアンドコンテンツ,0
857,4010601065858,新規,0,2024-09-04,2024-09-04,株式会社豊洲冷蔵運輸,,株式会社,東京都,江東区,豊洲６丁目６番２号,,13,108,1350061,,,,,,,2024-09-04,1,,,,,トヨスレイゾウウンユ,0
859,4010603011059,新規,0,2024-09-04,2024-09-04,合同会社ＫＺ１,,合同会社,東京都,江東区,永代２丁目１０番２号オパール門前仲町２０１,,13,108,1350034,,,,,,,2024-09-04,1,,,,,ケーゼットワン,0
860,4010605004374,新規,0,2024-09-04,2024-09-04,医療法人社団Ｌｉｎｋｓ,,その他の設立登記法人,東京都,江東区,亀戸６丁目３１番６号ＫＡＭＥＩＤＯＣＬＯＣＫ４階（４４８区画）,,13,108,1360071,,,,,,,2024-09-04,1,,,,,リンクス,0
862,4010703007320,新規,0,2024-09-04,2024-09-04,合同会社ＳＡＳＵＫＥ,,合同会社,東京都,品川区,上大崎２丁目２番２０号シルクハイツ長者丸２０２,,13,109,1410021,,,,,,,2024-09-04,1,,,,,サスケ,0
877,4011001164366,新規,0,2024-09-04,2024-09-04,株式会社エイト,,株式会社,東京都,目黒区,自由が丘２丁目１１番１６号,,13,110,1520035,,,,,,,2024-09-04,1,,,,,エイト,0
878,4011001164481,新規,0,2024-09-04,2024-09-04,株式会社グランファーブル,,株式会社,東京都,渋谷区,神宮前５丁目３番２１号ＺＵＫＫＩビル２Ｆ,,13,113,1500001,,,,,,,2024-09-04,1,,,,,グランファーブル,0
879,4011003019931,新規,0,2024-09-04,2024-09-04,合同会社Ｌｕｐｉｎｕｓ,,合同会社,東京都,渋谷区,代々木４丁目１１番１６号,,13,113,1510053,,,,,,,2024-09-04,1,,,,,ルピナス,0
880,4011003019948,新規,0,2024-09-04,2024-09-04,合同会社Ｗｏｌｆ　Ｔｅｃｈｎｏｌｏｇｉｅｓ,,合同会社,東京都,渋谷区,道玄坂１丁目１０番８号渋谷道玄坂東急ビル２Ｆ‐Ｃ,,13,113,1500043,,,,,,,2024-09-04,1,,,,,ウルフテクノロジーズ,0
884,4011201025764,新規,0,2024-09-04,2024-09-04,株式会社ジジピーニャ,,株式会社,東京都,中野区,中野５丁目５２番１５号,,13,114,1640001,,,,,,,2024-09-04,1,,,,,ジジピーニャ,0
885,4011203004477,新規,0,2024-09-04,2024-09-04,合同会社ミライクリエイト,,合同会社,東京都,中野区,中央１丁目２９番１０－６０６号,,13,114,1640011,,,,,,,2024-09-04,1,,,,,ミライクリエイト,0
894,4011805003389,新規,0,2024-09-04,2024-09-04,一般社団法人医療の架け橋,,その他の設立登記法人,東京都,葛飾区,西亀有３丁目３７番１３号,,13,122,1250002,,,,,,,2024-09-04,1,,,,,イリョウノカケハシ,0
895,4012401042244,新規,0,2024-09-04,2024-09-04,株式会社Ｙｏｕ　ｔｏｏ,,株式会社,東京都,小金井市,梶野町５丁目７番１５号,,13,210,1840002,,,,,,,2024-09-04,1,,,,,ユートゥー,0
896,4012405005040,新規,0,2024-09-04,2024-09-04,医療法人社団ＬＩＢＥＲＴＹ,,その他の設立登記法人,東京都,三鷹市,野崎３丁目３番１５号－１０１,,13,204,1810014,,,,,,,2024-09-04,1,,,,,リバティ,0
910,4020003026854,新規,0,2024-09-04,2024-09-04,ＲＡＲＥ　ＦＩＮＤ　ＣＯＭＰＡＮＹ　ＪＡＰＡＮ合同会社,,合同会社,神奈川県,横浜市都筑区,北山田１丁目１０番５号ヴィ・ド・カンパーニュ港北ル・ソレイユ２Ｆ－２１号室,,14,118,2240021,,,,,,,2024-09-04,1,,,,,レアファインドカンパニージャパン,0
911,4020005016523,新規,0,2024-09-04,2024-09-04,一般社団法人福祉爪ケア普及協会,,その他の設立登記法人,神奈川県,横浜市旭区,中沢３丁目３５番２３号,,14,112,2410814,,,,,,,2024-09-04,1,,,,,フクシツメケアフキュウキョウカイ,0
913,4021001083144,新規,0,2024-09-04,2024-09-04,株式会社グリーンラウンジ,,株式会社,神奈川県,鎌倉市,小町１丁目９番３号,,14,204,2480006,,,,,,,2024-09-04,1,,,,,グリーンラウンジ,0
925,4030001162295,新規,0,2024-09-04,2024-09-04,株式会社ＲＥＬＩＧＨＴ,,株式会社,埼玉県,草加市,谷塚町１３３６番地１オハナ草加谷塚６１３号,,11,221,3400023,,,,,,,2024-09-04,1,,,,,リライト,0
926,4030001162312,新規,0,2024-09-04,2024-09-04,株式会社Ｙ．Ｎ．Ｔ,,株式会社,埼玉県,さいたま市桜区,大字上大久保６００番地１２,,11,106,3380824,,,,,,,2024-09-04,1,,,,,ワイエヌティー,0
927,4030003024997,新規,0,2024-09-04,2024-09-04,ネットワーク合同会社,,合同会社,埼玉県,比企郡小川町,大字大塚６７０番地３,,11,343,3550328,,,,,,,2024-09-04,1,,,,,ネットワーク,0
930,4040001135192,新規,0,2024-09-04,2024-09-04,祥遠株式会社,,株式会社,千葉県,船橋市,本町７丁目２６番１９号,,12,204,2730005,,,,,,,2024-09-04,1,,,,,ショウエン,0
931,4040001135201,新規,0,2024-09-04,2024-09-04,株式会社ケイブリッジ,,株式会社,千葉県,柏市,若柴１３３番地１ジオ柏の葉キャンパス２０８号,,12,217,2770871,,,,,,,2024-09-04,1,,,,,ケイブリッジ,0
932,4040001135275,新規,0,2024-09-04,2024-09-04,ＴＫホールディングス株式会社,,株式会社,千葉県,八街市,山田台１７４番地４,,12,230,2891124,,,,,,,2024-09-04,1,,,,,ティーケーホールディングス,0
933,4040003025697,新規,0,2024-09-04,2024-09-04,Ｇｉｖｅｓ　Ｖａｌｕｅｓ合同会社,,合同会社,千葉県,銚子市,森戸町５６７,,12,202,2880872,,,,,,,2024-09-04,1,,,,,ギブズバリュー,0
934,4040003025722,新規,0,2024-09-04,2024-09-04,合同会社はこぶる,,合同会社,千葉県,野田市,中野台３０９番地の５,,12,208,2780035,,,,,,,2024-09-04,1,,,,,ハコブル,0
942,4060001037445,新規,0,2024-09-04,2024-09-04,エスプラン株式会社,,株式会社,栃木県,宇都宮市,上戸祭町１２６番地２ボヌフィール１０１,,09,201,3200051,,,,,,,2024-09-04,1,,,,,エスプラン,0
948,4080001026479,新規,0,2024-09-04,2024-09-04,株式会社幼なじみ,,株式会社,静岡県,静岡市葵区,籠上１０番１１－２号アーバンコート籠上Ａ棟１０１,,22,101,4200873,,,,,,,2024-09-04,1,,,,,オサナナジミ,0
949,4080005007640,新規,0,2024-09-04,2024-09-04,税理士法人兼高会計事務所,00136183,その他の設立登記法人,静岡県,静岡市駿河区,中村町３７３番地の３,,22,102,4228047,,,,,,,2024-09-04,1,,,,,カネタカカイケイジムショ,0
956,4080401027416,新規,0,2024-09-04,2024-09-04,株式会社ＴＫ　ｒｅｎｏｖａｔｉｏｎ,,株式会社,静岡県,浜松市中央区,湖東町１０６番地の１,,22,138,4311103,,,,,,,2024-09-04,1,,,,,ティーケーリノベーション,0
958,4090001018888,新規,0,2024-09-04,2024-09-04,サンライズ興産株式会社,,株式会社,山梨県,甲府市,小松町５００番地,,19,201,4000002,,,,,,,2024-09-04,1,,,,,サンライズコウサン,0
960,4100001037812,新規,0,2024-09-04,2024-09-04,株式会社Ｈｅｒｂａｌ　Ａｙｕｒｖｅｄａ,,株式会社,長野県,小県郡長和町,古町１８９０番地１１,,20,350,3860603,,,,,,,2024-09-04,1,,,,,ハーバルアーユルヴェーダ,0
962,4110001038677,新規,0,2024-09-04,2024-09-04,株式会社Ｓｍｉｌｅ＆Ｍｅｅｔｓプランニング,,株式会社,新潟県,新潟市中央区,八千代２丁目３番１２号ライズ万代Ｎ－２０３,,15,103,9500909,,,,,,,2024-09-04,1,,,,,スマイルアンドミーツプランニング,0
963,4110001038685,新規,0,2024-09-04,2024-09-04,株式会社よつば建翔,,株式会社,新潟県,上越市,柿崎区柿崎７０６９番地１１,,15,222,9493216,,,,,,,2024-09-04,1,,,,,ヨツバケンショウ,0
979,4120001268257,新規,0,2024-09-04,2024-09-04,Ａｄｊｕｓｔ株式会社,,株式会社,大阪府,大阪市淀川区,宮原５丁目６番地３,,27,123,5320003,,,,,,,2024-09-04,1,,,,,アジャスト,0
980,4120001268273,新規,0,2024-09-04,2024-09-04,１３５トラベル株式会社,,株式会社,大阪府,大阪市阿倍野区,阿倍野筋１丁目１－４３あべのハルカス３１階,,27,119,5450052,,,,,,,2024-09-04,1,,,,,イチサンゴトラベル,0
981,4120001268315,新規,0,2024-09-04,2024-09-04,株式会社Ｈ・Ｓ・Ｔイレブンカット,,株式会社,大阪府,大阪市中央区,南船場２丁目５番１２号,,27,128,5420081,,,,,,,2024-09-04,1,,,,,エイチエスティイレブンカット,0
982,4120001268323,新規,0,2024-09-04,2024-09-04,株式会社ファンズ,,株式会社,大阪府,大阪市中央区,北浜１丁目１番２７号,,27,128,5410041,,,,,,,2024-09-04,1,,,,,ファンズ,0
987,4120003027462,新規,0,2024-09-04,2024-09-04,合同会社ＥＲＡＮＥＣＴ,,合同会社,大阪府,大阪市浪速区,桜川４丁目１４番１４号エステート桜川３０４号,,27,111,5560022,,,,,,,2024-09-04,1,,,,,エラネクト,0
994,4120103006036,新規,0,2024-09-04,2024-09-04,アグリテック合同会社,,合同会社,大阪府,高石市,高師浜４丁目１１番２９－２０２号,,27,225,5920004,,,,,,,2024-09-04,1,,,,,アグリテック,0
996,4120901049723,新規,0,2024-09-04,2024-09-04,株式会社トレイル,,株式会社,大阪府,池田市,宇保町１４－１３,,27,204,5630042,,,,,,,2024-09-04,1,,,,,トレイル,0
998,4122001038409,新規,0,2024-09-04,2024-09-04,株式会社将軍フードサービス,,株式会社,大阪府,東大阪市,永和１丁目３番１６号,,27,227,5770809,,,,,,,2024-09-04,1,,,,,ショウグンフードサービス,0
1001,4130001077847,新規,0,2024-09-04,2024-09-04,ＧＯＯＤ　ＣＨＡＮＮＥＬ株式会社,,株式会社,京都府,京都市下京区,高辻大宮町１０９番地２コージーハイツ大宮８０３号室,,26,106,6000000,,,,,,,2024-09-04,1,,,,,グッドチャンネル,0
1002,4130003009831,新規,0,2024-09-04,2024-09-04,合同会社まるっと,,合同会社,京都府,京都市北区,出雲路松ノ下町９番地７号,,26,101,6038133,,,,,,,2024-09-04,1,,,,,マルット,0
1005,4140003021042,新規,0,2024-09-04,2024-09-04,合同会社ウェイブアーク,,合同会社,兵庫県,尼崎市,南武庫之荘６丁目１－１８,,28,202,6610033,,,,,,,2024-09-04,1,,,,,ウェイブアーク,0
1009,4150003003361,新規,0,2024-09-04,2024-09-04,合同会社花,,合同会社,奈良県,奈良市,左京２丁目２番地の６０,,29,201,6310801,,,,,,,2024-09-04,1,,,,,ハナ,0
1013,4180001163089,新規,0,2024-09-04,2024-09-04,株式会社ＳＥＡ‐Ｓｈｅｌｌ,,株式会社,愛知県,半田市,星崎町３丁目２１番地の７,,23,205,4750911,,,,,,,2024-09-04,1,,,,,シーシェル,0
1018,4180003027309,新規,0,2024-09-04,2024-09-04,ＳＫＹ合同会社,,合同会社,愛知県,名古屋市中村区,名駅３丁目４－１０アルティメイト名駅１ｓｔ２階,,23,105,4500002,,,,,,,2024-09-04,1,,,,,スカイ,0
1026,4190001031609,新規,0,2024-09-04,2024-09-04,株式会社デジタルクリエーターズ,,株式会社,三重県,四日市市,八田２丁目１番３９号,,24,202,5100001,,,,,,,2024-09-04,1,,,,,デジタルクリエーターズ,0
1032,4190003004785,新規,0,2024-09-04,2024-09-04,陽菜田合同会社,,合同会社,三重県,桑名市,大字桑名４７６番地７８,,24,205,5110009,,,,,,,2024-09-04,1,,,,,ヒナタ,0
1036,4210001019898,新規,0,2024-09-04,2024-09-04,株式会社Ｇｒｏｗ　ｒｉｃｈ,,株式会社,福井県,福井市,日光１丁目１２番１９号,,18,201,9100029,,,,,,,2024-09-04,1,,,,,グロリッチ,0
1037,4220001026167,新規,0,2024-09-04,2024-09-04,株式会社ＡＤＴＯ,,株式会社,石川県,加賀市,山代温泉南町２７番地２２,,17,206,9220258,,,,,,,2024-09-04,1,,,,,アドトゥー,0
1038,4220003003833,新規,0,2024-09-04,2024-09-04,合同会社ＲＥ．ＰＩ,,合同会社,石川県,金沢市,藤江北２丁目３１０番地ドゥ・モンターニュ花１０１,,17,201,9200345,,,,,,,2024-09-04,1,,,,,レピ,0
1039,4230001020516,新規,0,2024-09-04,2024-09-04,株式会社坂口建設,,株式会社,富山県,富山市,八尾町福島６丁目３８番地,,16,201,9392376,,,,,,,2024-09-04,1,,,,,サカグチケンセツ,0
1043,4250001020794,新規,0,2024-09-04,2024-09-04,株式会社ＭＳはり・きゅう,,株式会社,山口県,周南市,児玉町２丁目１５番地,,35,215,7450005,,,,,,,2024-09-04,1,,,,,エムエスハリキュウ,0
1052,4290003015772,新規,0,2024-09-04,2024-09-04,合同会社Ｇｏｏｄ　Ｍａｎ,,合同会社,福岡県,福岡市南区,若久６丁目１５番１３号,,40,134,8150042,,,,,,,2024-09-04,1,,,,,グッドマン,0
1053,4290003015780,新規,0,2024-09-04,2024-09-04,山本ｆｏｏｄ　ＬＬＣ合同会社,,合同会社,福岡県,福岡市西区,姪の浜２丁目２４番１５号,,40,135,8190002,,,,,,,2024-09-04,1,,,,,ヤマモトフードエルエルシー,0
1058,4310001019194,新規,0,2024-09-04,2024-09-04,株式会社ＣＩＥＬ,,株式会社,長崎県,長崎市,椎の木町１５番６号,,42,201,8500947,,,,,,,2024-09-04,1,,,,,シエル,0
1063,4330001032419,新規,0,2024-09-04,2024-09-04,株式会社松月堂ＨＤ,,株式会社,熊本県,熊本市東区,東野１丁目５番３号,,43,102,8612106,,,,,,,2024-09-04,1,,,,,ショウゲツドウホールディングス,0
1064,4330001032427,新規,0,2024-09-04,2024-09-04,株式会社ＷＩＣ,,株式会社,熊本県,菊池郡菊陽町,大字津久礼１１番地１７ラームル菊陽２０２号,,43,404,8691101,,,,,,,2024-09-04,1,,,,,ダブルアイシー,0
1065,4330001032435,新規,0,2024-09-04,2024-09-04,株式会社杉本水産,,株式会社,熊本県,天草市,牛深町７３番地３,,43,215,8631901,,,,,,,2024-09-04,1,,,,,スギモトスイサン,0
1066,4330003010546,新規,0,2024-09-04,2024-09-04,合同会社シンボク,,合同会社,熊本県,人吉市,鬼木町１５３０番地８,,43,203,8680021,,,,,,,2024-09-04,1,,,,,シンボク,0
1067,4340003004588,新規,0,2024-09-04,2024-09-04,Ａ＆Ｆ合同会社,,合同会社,鹿児島県,鹿屋市,西原４丁目９－１５鮫島ビル１０５,,46,203,8930064,,,,,,,2024-09-04,1,,,,,エーアンドエフ,0
1068,4350001019158,新規,0,2024-09-04,2024-09-04,株式会社オープランニング宮崎,,株式会社,宮崎県,宮崎市,大淀４丁目１１番２号（２０４号）,,45,201,8800902,,,,,,,2024-09-04,1,,,,,オープランニングミヤザキ,0
1071,4360001034156,新規,0,2024-09-04,2024-09-04,ＹＴＳ．ｐｒｏｄｕｃｔｉｏｎ株式会社,,株式会社,沖縄県,沖縄市,池原２丁目１９番６号,,47,211,9042141,,,,,,,2024-09-04,1,,,,,ワイティエスプロダクション,0
1073,4370003006739,新規,0,2024-09-04,2024-09-04,合同会社ペット遺伝子研究所,,合同会社,宮城県,仙台市青葉区,双葉ケ丘１丁目２２番８―１階,,04,101,9810924,,,,,,,2024-09-04,1,,,,,ペットイデンシケンキュウジョ,0
1080,4430001092592,新規,0,2024-09-04,2024-09-04,株式会社ｓｈａｒｅ,,株式会社,北海道,札幌市中央区,南一条西２１丁目３番５号プルミエ２１－２０５号,,01,101,0640801,,,,,,,2024-09-04,1,,,,,シェア,0
1081,4430001092618,新規,0,2024-09-04,2024-09-04,株式会社なると,,株式会社,北海道,小樽市,稲穂３丁目１６番１３号,,01,203,0470032,,,,,,,2024-09-04,1,,,,,ナルト,0
1083,4450001014396,新規,0,2024-09-04,2024-09-04,株式会社ＵＭＡＭＩＲＡＣＬＥ,,株式会社,北海道,利尻郡利尻町,沓形字本町５３番地,,01,518,0970401,,,,,,,2024-09-04,1,,,,,ウマミラクル,0
1085,4450003002531,新規,0,2024-09-04,2024-09-04,合同会社ｓａｆｅｄａｙｓ,,合同会社,北海道,上川郡東神楽町,ひじり野北一条３丁目４番５号,,01,453,0711521,,,,,,,2024-09-04,1,,,,,セーフデイズ,0
1100,5010001247907,新規,0,2024-09-04,2024-09-04,千鳥科技株式会社,,株式会社,東京都,千代田区,神田佐久間町３丁目２８星野ビル５０５号,,13,101,1010025,,,,,,,2024-09-04,1,,,,,チドリカギ,0
1101,5010001247989,新規,0,2024-09-04,2024-09-04,ＭＳＤ企業投資八号株式会社,,株式会社,東京都,千代田区,大手町１丁目９番２号,,13,101,1000004,,,,,,,2024-09-04,1,,,,,エムエスディーキギョウトウシハチゴウ,0
1105,5010005038716,新規,0,2024-09-04,2024-09-04,一般社団法人ＧＣＥＡ,,その他の設立登記法人,東京都,千代田区,六番町六丁目４番ＬＨ番町スクエア５階,,13,101,1020085,,,,,,,2024-09-04,1,,,,,ジーシーイーエー,0
1116,5010401184832,新規,0,2024-09-04,2024-09-04,株式会社ＯＲＣＡＮＥＳＨ,,株式会社,東京都,港区,南青山２丁目２番１５号,,13,103,1070062,,,,,,,2024-09-04,1,,,,,オルカネーシュ,0
1117,5010401184865,新規,0,2024-09-04,2024-09-04,株式会社ＢＬＵＥＯＣＥＡＮ,,株式会社,東京都,港区,高輪３丁目７番８号西町ビル２階,,13,103,1080074,,,,,,,2024-09-04,1,,,,,ブルーオーシャン,0
1121,5010403033327,新規,0,2024-09-04,2024-09-04,ＪＡＰＡＮＧＯ合同会社,,合同会社,東京都,港区,六本木３丁目２番１号住友不動産六本木グランドタワー２Ｆ,,13,103,1060032,,,,,,,2024-09-04,1,,,,,ジャパンゴウ,0
1134,5011001164464,新規,0,2024-09-04,2024-09-04,エムワイセトラー株式会社,,株式会社,東京都,目黒区,中町１丁目６番１２号ラ・アトレ目黒通り１０３,,13,110,1530065,,,,,,,2024-09-04,1,,,,,エムワイセトラー,0
1135,5011001164489,新規,0,2024-09-04,2024-09-04,株式会社メゾンドバン,,株式会社,東京都,渋谷区,東３丁目２２番１０号,,13,113,1500011,,,,,,,2024-09-04,1,,,,,メゾンドバン,0
1137,5011003019897,新規,0,2024-09-04,2024-09-04,合同会社ＧｏＤｏ,,合同会社,東京都,渋谷区,恵比寿西２丁目８－４ＥＸ恵比寿ビル５階,,13,113,1500021,,,,,,,2024-09-04,1,,,,,ゴードゥー,0
1148,5012703003083,新規,0,2024-09-04,2024-09-04,ＹＡＳＨＩＭＡ　ＦＩＥＬＤ合同会社,,合同会社,東京都,小平市,小川町２丁目１９７５番地の１８,,13,211,1870032,,,,,,,2024-09-04,1,,,,,ヤシマフィールド,0
1153,5013305003637,新規,0,2024-09-04,2024-09-04,一般社団法人美晴会,,その他の設立登記法人,東京都,豊島区,南池袋１丁目２６番４号,,13,116,1710022,,,,,,,2024-09-04,1,,,,,ミハレカイ,0
1162,5020003026820,新規,0,2024-09-04,2024-09-04,合同会社アメリオレ,,合同会社,神奈川県,横浜市港北区,綱島東１丁目１３番２号ＭＫマンション第三Ａ棟２０１,,14,109,2230052,,,,,,,2024-09-04,1,,,,,アメリオレ,0
1163,5020003026829,新規,0,2024-09-04,2024-09-04,合同会社Ｅａｇｅｒ,,合同会社,神奈川県,川崎市宮前区,平１丁目５番５－２号,,14,136,2160022,,,,,,,2024-09-04,1,,,,,イーガー,0
1164,5020005016522,新規,0,2024-09-04,2024-09-04,一般社団法人Ｍｕｒａｓａｋｉ　Ｐｅｎｇｕｉｎ,,その他の設立登記法人,神奈川県,横浜市戸塚区,戸塚町４２４７番地２１,,14,110,2440003,,,,,,,2024-09-04,1,,,,,ムラサキペンギン,0
1167,5021001083143,新規,0,2024-09-04,2024-09-04,株式会社デジキュー,,株式会社,神奈川県,藤沢市,辻堂神台２丁目２番１号アイクロス湘南８Ｆ,,14,205,2510041,,,,,,,2024-09-04,1,,,,,デジキュー,0
1175,5030001162311,新規,0,2024-09-04,2024-09-04,ＧＢＭ株式会社,,株式会社,埼玉県,川口市,原町９番３２号,,11,203,3320025,,,,,,,2024-09-04,1,,,,,ジービーエム,0
1180,5040001135282,新規,0,2024-09-04,2024-09-04,株式会社眞仲商店,,株式会社,千葉県,我孫子市,布佐３３９８番地の３１,,12,222,2701101,,,,,,,2024-09-04,1,,,,,マナカショウテン,0
1181,5040001135299,新規,0,2024-09-04,2024-09-04,祝予株式会社,,株式会社,千葉県,いすみ市,岬町椎木１９４３－２,,12,238,2994501,,,,,,,2024-09-04,1,,,,,シュクヨ,0
1186,5040003025457,新規,0,2024-09-04,2024-09-04,Ｓｈｉｒｏｚａｋｉ合同会社,,合同会社,千葉県,市川市,南大野１丁目４７番５６－５１５号,,12,203,2720804,,,,,,,2024-09-04,1,,,,,シロザキ,0
1187,5040003025738,新規,0,2024-09-04,2024-09-04,ＴＳＵＭＵＧＵ合同会社,,合同会社,千葉県,市川市,柏井町１丁目２００６―１,,12,203,2720802,,,,,,,2024-09-04,1,,,,,ツムグ,0
1200,5060001037452,新規,0,2024-09-04,2024-09-04,伊王野リゾート株式会社,,株式会社,栃木県,那須郡那須町,大字伊王野２７０１番地,,09,407,3293436,,,,,,,2024-09-04,1,,,,,イオウノリゾート,0
1203,5070001042138,新規,0,2024-09-04,2024-09-04,株式会社ＨＲコンサルティング,,株式会社,群馬県,伊勢崎市,阿弥大寺町２２８－５,,10,204,3720821,,,,,,,2024-09-04,1,,,,,,0
1206,5080001026478,新規,0,2024-09-04,2024-09-04,株式会社ｌａｌａｌａ,,株式会社,静岡県,静岡市葵区,西草深町３３番１７号西草深ビル３階,,22,101,4200866,,,,,,,2024-09-04,1,,,,,ラララ,0
1207,5080401027415,新規,0,2024-09-04,2024-09-04,リファインエステート株式会社,,株式会社,静岡県,浜松市中央区,篠ケ瀬町２６５番地,,22,138,4350042,,,,,,,2024-09-04,1,,,,,リファインエステート,0
1210,5110001038676,新規,0,2024-09-04,2024-09-04,つばさ代行株式会社,,株式会社,新潟県,三条市,須頃１丁目５番地,,15,204,9550092,,,,,,,2024-09-04,1,,,,,ツバサダイコウ,0
1221,5120001267943,新規,0,2024-09-04,2024-09-04,株式会社２Ｕ,,株式会社,大阪府,守口市,大日町２丁目１番３４－８０５号,,27,209,5700003,,,,,,,2024-09-04,1,,,,,トゥーユー,0
1222,5120001268231,新規,0,2024-09-04,2024-09-04,株式会社ＯＮＥ,,株式会社,大阪府,大阪市中央区,宗右衛門町３番３号６階,,27,128,5420084,,,,,,,2024-09-04,1,,,,,ワン,0
1223,5120001268289,新規,0,2024-09-04,2024-09-04,株式会社ピアホープ,,株式会社,大阪府,大阪市中央区,南船場３丁目２番２２号おおきに南船場ビル２０５,,27,128,5420081,,,,,,,2024-09-04,1,,,,,ピアホープ,0
1224,5120001268297,新規,0,2024-09-04,2024-09-04,豊田電子株式会社,,株式会社,大阪府,大阪市都島区,都島本通３丁目１３番１１号,,27,102,5340021,,,,,,,2024-09-04,1,,,,,トヨダデンシ,0
1228,5120003027453,新規,0,2024-09-04,2024-09-04,ニュースリー合同会社,,合同会社,大阪府,大阪市東淀川区,上新庄２丁目２１番７号,,27,114,5330006,,,,,,,2024-09-04,1,,,,,ニュースリー,0
1229,5120005024523,新規,0,2024-09-04,2024-09-04,Ｂｒｉｎｇ行政書士法人,,その他の設立登記法人,大阪府,大阪市中央区,谷町２丁目４番５号谷町センタービル１０階,,27,128,5400012,,,,,,,2024-09-04,1,,,,,ブリング,0
1232,5120901049689,新規,0,2024-09-04,2024-09-04,株式会社ファンシー・ジャパン,,株式会社,大阪府,吹田市,円山町５２番２８号,,27,205,5640061,,,,,,,2024-09-04,1,,,,,ファンシージャパン,0
1233,5120901049714,新規,0,2024-09-04,2024-09-04,株式会社おにまる．,,株式会社,大阪府,豊中市,服部西町３丁目１４番２１号,,27,203,5610858,,,,,,,2024-09-04,1,,,,,オニマル,0
1237,5130001077870,新規,0,2024-09-04,2024-09-04,ＳｙｎＳｔｒｅａｍ株式会社,,株式会社,京都府,向日市,寺戸町七ノ坪１１６香楽園６０５室,,26,208,6170002,,,,,,,2024-09-04,1,,,,,シンストリーム,0
1238,5130001077879,新規,0,2024-09-04,2024-09-04,株式会社ＴＴＣＹ,,株式会社,京都府,京田辺市,飯岡小山１０２番地２,,26,211,6100312,,,,,,,2024-09-04,1,,,,,ティティシーワイ,0
1245,5140005027202,新規,0,2024-09-04,2024-09-04,司法書士法人サンパートナーズ,,その他の設立登記法人,兵庫県,神戸市中央区,東町１１６番地の２オールドブライト４階,,28,110,6500031,,,,,,,2024-09-04,1,,,,,サンパートナーズ,0
1246,5150003003360,新規,0,2024-09-04,2024-09-04,奈良いちご園合同会社,,合同会社,奈良県,北葛城郡広陵町,馬見南４丁目１番１２－１号,,29,426,6350833,,,,,,,2024-09-04,1,,,,,ナライチゴエン,0
1248,5160001026197,新規,0,2024-09-04,2024-09-04,株式会社田辺精工,,株式会社,滋賀県,長浜市,神照町２６８番地,,25,203,5260015,,,,,,,2024-09-04,1,,,,,タナベセイコウ,0
1255,5180001163006,新規,0,2024-09-04,2024-09-04,株式会社ＦＯＹＡ．,,株式会社,愛知県,名古屋市中村区,名駅３丁目４－１０アルティメイト名駅１ｓｔ２階,,23,105,4500002,,,,,,,2024-09-04,1,,,,,フォーヤー,0
1256,5180001163088,新規,0,2024-09-04,2024-09-04,株式会社ＴｏｕｇｈＮｅｓｓ,,株式会社,愛知県,名古屋市名東区,香坂１５２８番地,,23,115,4650007,,,,,,,2024-09-04,1,,,,,タフネス,0
1257,5180001163096,新規,0,2024-09-04,2024-09-04,株式会社ＵＮＩＴＥ　ＡＧＥＮＴ,,株式会社,愛知県,名古屋市中村区,名駅４丁目２４番５号第２森ビル４０１,,23,105,4500002,,,,,,,2024-09-04,1,,,,,ユナイトエージェント,0
1258,5180001163146,新規,0,2024-09-04,2024-09-04,株式会社浮花商會,,株式会社,愛知県,名古屋市中区,大須３丁目４２番２６号,,23,106,4600011,,,,,,,2024-09-04,1,,,,,ウキハナショウカイ,0
1259,5180003027308,新規,0,2024-09-04,2024-09-04,合同会社ゼロ,,合同会社,愛知県,半田市,仲田町１丁目１６番地の２,,23,205,4750929,,,,,,,2024-09-04,1,,,,,ゼロ,0
1261,5180301039021,新規,0,2024-09-04,2024-09-04,株式会社小森商会,,株式会社,愛知県,蒲郡市,平田町下六反田３６番地１,,23,214,4430004,,,,,,,2024-09-04,1,,,,,コモリショウカイ,0
1265,5190003004784,新規,0,2024-09-04,2024-09-04,Ｈ＆Ｑ合同会社,,合同会社,三重県,四日市市,小杉町１８４０番地１,,24,202,5120902,,,,,,,2024-09-04,1,,,,,エイチアンドキュー,0
1268,5200001042883,新規,0,2024-09-04,2024-09-04,株式会社まるに,,株式会社,岐阜県,本巣郡北方町,北方１５５１番地,,21,421,5010431,,,,,,,2024-09-04,1,,,,,マルニ,0
1269,5200001042891,新規,0,2024-09-04,2024-09-04,株式会社一樹造園,,株式会社,岐阜県,加茂郡七宗町,上麻生４０７５番地,,21,504,5090401,,,,,,,2024-09-04,1,,,,,イチキゾウエン,0
1272,5220001026190,新規,0,2024-09-04,2024-09-04,サカス電管工株式会社,,株式会社,石川県,七尾市,町屋町リ部６３番地,,17,202,9260836,,,,,,,2024-09-04,1,,,,,サカスデンカンコウ,0
1276,5260001039412,新規,0,2024-09-04,2024-09-04,株式会社ＫＥＮ,,株式会社,岡山県,玉野市,向日比２丁目１７番４号,,33,204,7060022,,,,,,,2024-09-04,1,,,,,ケン,0
1277,5260001039420,新規,0,2024-09-04,2024-09-04,株式会社オフィスウィステリア,,株式会社,岡山県,倉敷市,田ノ上８２６番地２,,33,202,7100831,,,,,,,2024-09-04,1,,,,,オフィスウィステリア,0
1278,5260003004884,新規,0,2024-09-04,2024-09-04,合同会社ｕｌｕ,,合同会社,岡山県,倉敷市,水島南緑町３番地６号・１階,,33,202,7128023,,,,,,,2024-09-04,1,,,,,ウル,0
1287,5290001107133,新規,0,2024-09-04,2024-09-04,株式会社ナウエアー,,株式会社,福岡県,福岡市早良区,城西１丁目８番３０号,,40,137,8140003,,,,,,,2024-09-04,1,,,,,ナウエアー,0
1288,5290001107166,新規,0,2024-09-04,2024-09-04,株式会社シバタ自動車,,株式会社,福岡県,福岡市西区,福重１丁目１６番２－１号,,40,135,8190022,,,,,,,2024-09-04,1,,,,,シバタジドウシャ,0
1291,5290003015755,新規,0,2024-09-04,2024-09-04,合同会社彩敬,,合同会社,福岡県,福岡市中央区,福浜２丁目２番５－５０６号,,40,133,8100066,,,,,,,2024-09-04,1,,,,,サイキョウ,0
1294,5310003004854,新規,0,2024-09-04,2024-09-04,ｆｅｅｌ　ｓｙｓｔｅｍ合同会社,,合同会社,長崎県,長崎市,大井手町３１番９０２号ライオンズマンション諏訪神社前,,42,201,8500024,,,,,,,2024-09-04,1,,,,,フィールシステム,0
1295,5310005008795,新規,0,2024-09-04,2024-09-04,一般社団法人ｉＨａｂｕ,,その他の設立登記法人,長崎県,長崎市,豊洋台１丁目１１番９号,,42,201,8512216,,,,,,,2024-09-04,1,,,,,アイハブ,0
1296,5320001020695,新規,0,2024-09-04,2024-09-04,株式会社ＷＡＤＡダイニング,,株式会社,大分県,別府市,石垣東１０丁目３番４０号,,44,202,8740919,,,,,,,2024-09-04,1,,,,,ワダダイニング,0
1300,5330003010545,新規,0,2024-09-04,2024-09-04,合同会社サンライズ,,合同会社,熊本県,合志市,須屋２７８５番地２,,43,216,8611102,,,,,,,2024-09-04,1,,,,,サンライズ,0
1303,5340001026773,新規,0,2024-09-04,2024-09-04,株式会社吉祥,,株式会社,鹿児島県,鹿児島市,鷹師２丁目４番６号,,46,201,8900043,,,,,,,2024-09-04,1,,,,,キッショウ,0
1307,5340003004595,新規,0,2024-09-04,2024-09-04,合同会社ＷＯＮＤＥＲ　ＷＡＬＬ,,合同会社,鹿児島県,姶良市,加治木町木田１７３１番地６,,46,225,8995241,,,,,,,2024-09-04,1,,,,,ワンダーウォール,0
1309,5360001034147,新規,0,2024-09-04,2024-09-04,宮古ブルー株式会社,,株式会社,沖縄県,宮古島市,平良字西里２４０番地２・５Ｆ,,47,214,9060012,,,,,,,2024-09-04,1,,,,,ミヤコブルー,0
1310,5360001034155,新規,0,2024-09-04,2024-09-04,株式会社大豊住建,,株式会社,沖縄県,那覇市,小禄４丁目１５番地２メゾンＵＥＨＡＲＡ１０２,,47,201,9010152,,,,,,,2024-09-04,1,,,,,タイホウジュウケン,0
1316,5370001051694,新規,0,2024-09-04,2024-09-04,株式会社ＹＵＴＡＫＡ,,株式会社,宮城県,仙台市泉区,泉中央４丁目６番地の１レジデンシャル泉中央５０３,,04,105,9813133,,,,,,,2024-09-04,1,,,,,ユタカ,0
1317,5370003006738,新規,0,2024-09-04,2024-09-04,合同会社ＢＡＮＤＳ,,合同会社,宮城県,仙台市泉区,泉中央３丁目１６番地の１ケーツービル２階,,04,105,9813133,,,,,,,2024-09-04,1,,,,,バンズ,0
1325,5420003002987,新規,0,2024-09-04,2024-09-04,合同会社ここみち,,合同会社,青森県,青森市,浪岡大字女鹿沢字東花岡５４番地３７,,02,201,0381331,,,,,,,2024-09-04,1,,,,,ココミチ,0
1328,5430001092583,新規,0,2024-09-04,2024-09-04,株式会社冷鮮工房うす田,,株式会社,北海道,登別市,栄町３丁目２２番地１９,,01,230,0590033,,,,,,,2024-09-04,1,,,,,レイセンコウボウウスダ,0
1329,5430001092591,新規,0,2024-09-04,2024-09-04,株式会社丸喜技功舎,,株式会社,北海道,北広島市,大曲柏葉４丁目７番地１１,,01,234,0611273,,,,,,,2024-09-04,1,,,,,マルキギコウシャ,0
1330,5430001092617,新規,0,2024-09-04,2024-09-04,株式会社摩阿弥,,株式会社,北海道,札幌市北区,篠路一条１０丁目２０番１２号,,01,102,0028021,,,,,,,2024-09-04,1,,,,,マアヤ,0
1331,5430001092625,新規,0,2024-09-04,2024-09-04,株式会社そらいろ,,株式会社,北海道,札幌市白石区,北郷一条７丁目１－１メゾンドルチェ白石弐番館９０６,,01,104,0030831,,,,,,,2024-09-04,1,,,,,ソライロ,0
1338,5470003002710,新規,0,2024-09-04,2024-09-04,合同会社オフィスうさこ,,合同会社,香川県,高松市,木太町５０４１番地５クレールＪ２－２０２,,37,201,7600080,,,,,,,2024-09-04,1,,,,,オフィスウサコ,0
1348,6010001247988,新規,0,2024-09-04,2024-09-04,株式会社ヒロビルディング,,株式会社,東京都,千代田区,岩本町３丁目４番１１号,,13,101,1010032,,,,,,,2024-09-04,1,,,,,ヒロビルディング,0
1351,6010003044723,新規,0,2024-09-04,2024-09-04,合同会社Ｃｌｏｖｅｒ,,合同会社,東京都,千代田区,霞が関３丁目２番５号,,13,101,1000013,,,,,,,2024-09-04,1,,,,,クローバー,0
1352,6010003044756,新規,0,2024-09-04,2024-09-04,合同会社Ｊ＆Ｌ,,合同会社,東京都,中央区,銀座８丁目５番１９号三幸ビルＢ２,,13,102,1040061,,,,,,,2024-09-04,1,,,,,ジェイアンドエル,0
1355,6010005038772,新規,0,2024-09-04,2024-09-04,一般社団法人濃青,,その他の設立登記法人,東京都,千代田区,平河町１丁目６番１５号シルスフィア会計事務所内,,13,101,1020093,,,,,,,2024-09-04,1,,,,,ノウセイ,0
1365,6010401184889,新規,0,2024-09-04,2024-09-04,株式会社Ｓａｋｅ　Ｓａｎｃｔｕａｒｙ,,株式会社,東京都,港区,赤坂７丁目２番２１号草月会館９Ｆ,,13,103,1070052,,,,,,,2024-09-04,1,,,,,サケサンクチュアリー,0
1371,6010403033350,新規,0,2024-09-04,2024-09-04,ＣＲＥＡＴＩＶＥ　ＦＯＲ　ＭＯＲＥ合同会社,,合同会社,東京都,港区,赤坂２丁目１４番５号Ｄａｉｗａ赤坂ビル４階,,13,103,1070052,,,,,,,2024-09-04,1,,,,,クリエイティブフォーモア,0
1372,6010403033375,新規,0,2024-09-04,2024-09-04,ジェイド・コネクト合同会社,,合同会社,東京都,港区,北青山２丁目５番１号,,13,103,1070061,,,,,,,2024-09-04,1,,,,,ジェイドコネクト,0
1377,6010601065856,新規,0,2024-09-04,2024-09-04,ＶＳＣ株式会社,,株式会社,東京都,江東区,南砂４丁目１０番４号・３０３,,13,108,1360076,,,,,,,2024-09-04,1,,,,,ヴィーエスシー,0
1390,6011103014888,新規,0,2024-09-04,2024-09-04,合同会社ＲＫ,,合同会社,東京都,新宿区,歌舞伎町２丁目４５番６号エル・グランジュテ新宿５０１,,13,104,1600021,,,,,,,2024-09-04,1,,,,,アールケー,0
1391,6011103014896,新規,0,2024-09-04,2024-09-04,合同会社リカバリーハンズ,,合同会社,東京都,新宿区,西新宿１丁目１３番２号松原ビル５Ｆ,,13,104,1600023,,,,,,,2024-09-04,1,,,,,リカバリーハンズ,0
1393,6011105011140,新規,0,2024-09-04,2024-09-04,一般社団法人全国フリーランス支援協会,,その他の設立登記法人,東京都,新宿区,西新宿３丁目３番１３号西新宿水間ビル６階,,13,104,1600023,,,,,,,2024-09-04,1,,,,,ゼンコクフリーランスシエンキョウカイ,0
1395,6011201025770,新規,0,2024-09-04,2024-09-04,Ａｎｇｅ株式会社,,株式会社,東京都,中野区,東中野５丁目６番１０－５０４号,,13,114,1640003,,,,,,,2024-09-04,1,,,,,アンジュ,0
1404,6011803006433,新規,0,2024-09-04,2024-09-04,ＳｏｕｌＣｒａｆｔｓｍａｎ合同会社,,合同会社,東京都,足立区,神明南１丁目１３番１３号,,13,121,1210057,,,,,,,2024-09-04,1,,,,,ソウルクラフトマン,0
1405,6012301014069,新規,0,2024-09-04,2024-09-04,株式会社青琉ゼミナール,,株式会社,東京都,町田市,南町田２丁目１６番２号,,13,209,1940005,,,,,,,2024-09-04,1,,,,,セイリュウゼミナール,0
1407,6012401042242,新規,0,2024-09-04,2024-09-04,株式会社モカックス,,株式会社,東京都,小金井市,桜町１丁目９番１２号小金井第二丸信マンション２０１,,13,210,1840005,,,,,,,2024-09-04,1,,,,,モカックス,0
1408,6012401042250,新規,0,2024-09-04,2024-09-04,株式会社エプロンハウス,,株式会社,東京都,調布市,深大寺東町５丁目９番地６,,13,208,1820012,,,,,,,2024-09-04,1,,,,,エプロンハウス,0
1424,6020005016521,新規,0,2024-09-04,2024-09-04,一般社団法人廣東會館倶樂部,,その他の設立登記法人,神奈川県,横浜市中区,山下町１１８番地２,,14,104,2310023,,,,,,,2024-09-04,1,,,,,カントンカイカンクラブ,0
1426,6021001083175,新規,0,2024-09-04,2024-09-04,勇匡建設株式会社,,株式会社,神奈川県,秦野市,南矢名２０４４番地秦野マンションＡ３０８号,,14,211,2570003,,,,,,,2024-09-04,1,,,,,ユウキョウ,0
1429,6021003014954,新規,0,2024-09-04,2024-09-04,合同会社ＨＹクリエイト,,合同会社,神奈川県,藤沢市,城南１丁目８番２５号,,14,205,2510057,,,,,,,2024-09-04,1,,,,,エイチワイクリエイト,0
1432,6030001035722,新規,0,2024-09-04,2024-09-04,株式会社ワイエルシー,,株式会社,埼玉県,草加市,柳島町８５２番地,,11,221,3400033,,,,,,,2024-09-04,1,,,,,ワイエルシー,0
1439,6030001162244,新規,0,2024-09-04,2024-09-04,株式会社リアテック,,株式会社,埼玉県,所沢市,美原町３丁目２９４７番地４８,,11,208,3590045,,,,,,,2024-09-04,1,,,,,リアテック,0
1440,6030001162252,新規,0,2024-09-04,2024-09-04,株式会社アルファエステート,,株式会社,埼玉県,さいたま市南区,文蔵２丁目１番４号,,11,108,3360025,,,,,,,2024-09-04,1,,,,,アルファエステート,0
1441,6030001162269,新規,0,2024-09-04,2024-09-04,株式会社アーチザン,,株式会社,埼玉県,川口市,大字赤井１１７１番地の４２,,11,203,3340073,,,,,,,2024-09-04,1,,,,,アーチザン,0
1442,6030001162293,新規,0,2024-09-04,2024-09-04,株式会社ポロミ,,株式会社,埼玉県,川越市,喜多町４番地１２,,11,201,3500061,,,,,,,2024-09-04,1,,,,,ポロミ,0
1445,6030003025028,新規,0,2024-09-04,2024-09-04,Ｒｉｃｈ　Ｂｅａｒ合同会社,,合同会社,埼玉県,蕨市,塚越２丁目１４－１５蕨北野マンションＡ棟２０４号,,11,223,3350002,,,,,,,2024-09-04,1,,,,,リッチベアー,0
1446,6030003025044,新規,0,2024-09-04,2024-09-04,合同会社つがる組,,合同会社,埼玉県,行田市,大字南河原５２０番地１１,,11,206,3610084,,,,,,,2024-09-04,1,,,,,ツガルグミ,0
1450,6040001135050,新規,0,2024-09-04,2024-09-04,株式会社ＳＵＮ,,株式会社,千葉県,山武郡横芝光町,宮川６５９４番地２光第一松伊マンション１０１号室,,12,410,2891727,,,,,,,2024-09-04,1,,,,,サン,0
1451,6040001135240,新規,0,2024-09-04,2024-09-04,株式会社祐翔,,株式会社,千葉県,市原市,南国分寺台３丁目３番地１,,12,219,2900075,,,,,,,2024-09-04,1,,,,,ユウショウ,0
1452,6040001135273,新規,0,2024-09-04,2024-09-04,株式会社ファイブ,,株式会社,千葉県,市原市,五所１６６１番地,,12,219,2900066,,,,,,,2024-09-04,1,,,,,ファイブ,0
1459,6040003025729,新規,0,2024-09-04,2024-09-04,合同会社ＤＫ,,合同会社,千葉県,柏市,柏３丁目３番１７号銀座会館ビル２階,,12,217,2770005,,,,,,,2024-09-04,1,,,,,ディーケー,0
1465,6050001055347,新規,0,2024-09-04,2024-09-04,株式会社ｖｉｎ馬,,株式会社,茨城県,稲敷郡美浦村,大字土屋１８３５番地２０,,08,442,3000426,,,,,,,2024-09-04,1,,,,,ヴァンバ,0
1477,6070005010313,新規,0,2024-09-04,2024-09-04,一般社団法人ぐんま葬儀支援センター,,その他の設立登記法人,群馬県,前橋市,天川大島町１丁目３２番地１,,10,201,3792154,,,,,,,2024-09-04,1,,,,,グンマソウギシエンセンター,0
1478,6080001026477,新規,0,2024-09-04,2024-09-04,株式会社ニビイロ,,株式会社,静岡県,静岡市駿河区,池田１２５５番地の１７,,22,102,4228005,,,,,,,2024-09-04,1,,,,,ニビイロ,0
1485,6080401027422,新規,0,2024-09-04,2024-09-04,株式会社ｉ・Ｌａｎｄ,,株式会社,静岡県,磐田市,豊岡３０５７番地３４,,22,211,4380231,,,,,,,2024-09-04,1,,,,,アイランド,0
1492,6100001037686,新規,0,2024-09-04,2024-09-04,２０２４株式会社,,株式会社,長野県,北佐久郡軽井沢町,大字追分１５００番地６,,20,321,3890115,,,,,,,2024-09-04,1,,,,,ニゼロニヨン,0
1493,6100001037819,新規,0,2024-09-04,2024-09-04,株式会社景楽,,株式会社,長野県,東御市,海善寺８５４番地５６,,20,219,3890504,,,,,,,2024-09-04,1,,,,,ケイラク,0
1498,6100003007753,新規,0,2024-09-04,2024-09-04,合同会社有里,,合同会社,長野県,飯山市,大字飯山２３２番地１３,,20,213,3892253,,,,,,,2024-09-04,1,,,,,ユリ,0
1499,6110001038675,新規,0,2024-09-04,2024-09-04,株式会社ネクストパーツ,,株式会社,新潟県,三条市,石上２丁目１３番１０号,,15,204,9550084,,,,,,,2024-09-04,1,,,,,ネクストパーツ,0
1500,6110001038683,新規,0,2024-09-04,2024-09-04,株式会社桜井商店,,株式会社,新潟県,新潟市西区,大野町２９４０番地,,15,107,9501111,,,,,,,2024-09-04,1,,,,,サクライショウテン,0
1513,6120001268288,新規,0,2024-09-04,2024-09-04,株式会社Ｃｏｌｏｒｅｒ,,株式会社,大阪府,大阪市中央区,博労町１丁目５番８号,,27,128,5410059,,,,,,,2024-09-04,1,,,,,クロレ,0
1514,6120001268296,新規,0,2024-09-04,2024-09-04,株式会社ＮｏｖａＥｒａ,,株式会社,大阪府,大阪市東住吉区,駒川５丁目３番８号,,27,121,5460043,,,,,,,2024-09-04,1,,,,,ノヴァエラ,0
1515,6120001268313,新規,0,2024-09-04,2024-09-04,株式会社葵,,株式会社,大阪府,寝屋川市,点野５丁目３３番１９号,,27,215,5720077,,,,,,,2024-09-04,1,,,,,アオイ,0
1516,6120001268321,新規,0,2024-09-04,2024-09-04,株式会社ブルーインターナショナル,,株式会社,大阪府,寝屋川市,高宮あさひ丘３番１０号,,27,215,5720867,,,,,,,2024-09-04,1,,,,,ブルーインターナショナル,0
1519,6120003027460,新規,0,2024-09-04,2024-09-04,Ｓｋｅｗｅｒ　Ｈｉｌｌｓ合同会社,,合同会社,大阪府,大阪市西区,京町堀１丁目１５番２－２０３号,,27,106,5500003,,,,,,,2024-09-04,1,,,,,スキュアーヒルズ,0
1526,6120103006042,新規,0,2024-09-04,2024-09-04,合同会社ＳｔｕｄｉｏＫｅｙｓ,,合同会社,大阪府,堺市南区,桃山台２丁８番７－６２２号,,27,145,5900141,,,,,,,2024-09-04,1,,,,,スタジオキーズ,0
1528,6120901049721,新規,0,2024-09-04,2024-09-04,株式会社ユーロメカニカ,,株式会社,大阪府,茨木市,島４丁目１２番３３号,,27,211,5670854,,,,,,,2024-09-04,1,,,,,ユーロメカニカ,0
1532,6130001077878,新規,0,2024-09-04,2024-09-04,株式会社ミヤビ建設,,株式会社,京都府,綴喜郡井手町,大字井手小字南猪ノ阪８２番地の３,,26,343,6100302,,,,,,,2024-09-04,1,,,,,ミヤビケンセツ,0
1546,6180001163095,新規,0,2024-09-04,2024-09-04,株式会社ｃｏｌｏｒｉｓ,,株式会社,愛知県,名古屋市中川区,荒子４丁目１７８セレスティア荒子四丁目３０２号,,23,110,4540869,,,,,,,2024-09-04,1,,,,,クロリ,0
1547,6180003027281,新規,0,2024-09-04,2024-09-04,イワミセキュリティ合同会社,,合同会社,愛知県,愛西市,町方町南堤外１４０番地６,,23,232,4968014,,,,,,,2024-09-04,1,,,,,イワミセキュリティ,0
1550,6180301039020,新規,0,2024-09-04,2024-09-04,株式会社ＡｒｋｓＨｏｍｅ,,株式会社,愛知県,豊田市,堤町石原３２番地１,,23,211,4730932,,,,,,,2024-09-04,1,,,,,アークスホーム,0
1554,6200001042890,新規,0,2024-09-04,2024-09-04,株式会社ＭＩクリエイト,,株式会社,岐阜県,大垣市,綾野５丁目１０２番地２,,21,202,5030984,,,,,,,2024-09-04,1,,,,,エムアイクリエイト,0
1555,6200003006489,新規,0,2024-09-04,2024-09-04,合同会社みよし建築,,合同会社,岐阜県,美濃加茂市,西町５丁目１３１番地２０３号,,21,211,5050046,,,,,,,2024-09-04,1,,,,,ミヨシケンチク,0
1559,6220003003831,新規,0,2024-09-04,2024-09-04,合同会社Ｂｅ　Ｃｕｒｉｏｕｓ,,合同会社,石川県,金沢市,久安２丁目４１３番地２,,17,201,9218164,,,,,,,2024-09-04,1,,,,,ビーキュリアス,0
1560,6240001063784,新規,0,2024-09-04,2024-09-04,とことん株式会社,,株式会社,広島県,広島市中区,十日市町２丁目１０番２８号第４誠住ビル１階,,34,101,7300805,,,,,,,2024-09-04,1,,,,,トコトン,0
1563,6240003006840,新規,0,2024-09-04,2024-09-04,合同会社Ｒａｌｌｙ,,合同会社,広島県,広島市中区,十日市町２丁目９番１５号３１４号室,,34,101,7300805,,,,,,,2024-09-04,1,,,,,ラリー,0
1566,6260001039428,新規,0,2024-09-04,2024-09-04,株式会社一心総業,,株式会社,岡山県,笠岡市,生江浜３３５－１,,33,205,7140055,,,,,,,2024-09-04,1,,,,,イッシンソウギョウ,0
1567,6260003004883,新規,0,2024-09-04,2024-09-04,合同会社ピーチウェブ,,合同会社,岡山県,岡山市東区,中川町４０５－１ヴィンテージ・プレイス２０１号,,33,103,7048176,,,,,,,2024-09-04,1,,,,,ピーチウェブ,0
1572,6290001107116,新規,0,2024-09-04,2024-09-04,株式会社チチハル,,株式会社,福岡県,福岡市東区,唐原７丁目１２番１１号,,40,131,8130001,,,,,,,2024-09-04,1,,,,,チチハル,0
1573,6290001107140,新規,0,2024-09-04,2024-09-04,株式会社ＧＯコーポレーション,,株式会社,福岡県,久留米市,安武町武島１１６９番地５,,40,203,8300071,,,,,,,2024-09-04,1,,,,,ゴーコーポレーション,0
1574,6290001107165,新規,0,2024-09-04,2024-09-04,株式会社国武電装,,株式会社,福岡県,福岡市東区,若宮２丁目２５番１０号,,40,131,8130036,,,,,,,2024-09-04,1,,,,,クニタケデンソウ,0
1575,6290001107173,新規,0,2024-09-04,2024-09-04,株式会社ＳＦＴＩマネジメント,,株式会社,福岡県,福岡市東区,箱崎６丁目１８番１２－２２５号,,40,131,8120053,,,,,,,2024-09-04,1,,,,,エスエフティーアイマネジメント,0
1577,6290002057806,新規,0,2024-09-04,2024-09-04,有限会社国際通商,,有限会社,福岡県,大牟田市,大字三池６０３番地の６,,40,202,8370921,,,,,,,2024-09-04,1,,,,,,0
1580,6290801030847,新規,0,2024-09-04,2024-09-04,株式会社Ｃａｔｔｌｅふるの,,株式会社,福岡県,鞍手郡鞍手町,大字小牧６８６番地１,,40,402,8071311,,,,,,,2024-09-04,1,,,,,キャトルフルノ,0
1584,6320001020694,新規,0,2024-09-04,2024-09-04,株式会社ＡＳＯＮＥ,,株式会社,大分県,大分市,大字八幡１７５番地の１エクレールＩＩ１０６,00136175,44,201,8700100,,,,,,,2024-09-04,1,,,,,エイソン,0
1592,6340003004594,新規,0,2024-09-04,2024-09-04,合同会社トーキング,,合同会社,鹿児島県,鹿児島市,千日町６番２号生駒ビル３階,,46,201,8920843,,,,,,,2024-09-04,1,,,,,トーキング,0
1596,6360001034154,新規,0,2024-09-04,2024-09-04,株式会社ダブルアール,,株式会社,沖縄県,石垣市,字大浜４０２番地１,,47,207,9070001,,,,,,,2024-09-04,1,,,,,ダブルアール,0
1597,6360003014278,新規,0,2024-09-04,2024-09-04,合同会社米盛企画,,合同会社,沖縄県,石垣市,字新川１６－３,,47,207,9070024,,,,,,,2024-09-04,1,,,,,ヨネモリキカク,0
1600,6370001051693,新規,0,2024-09-04,2024-09-04,株式会社Ｓｍｉｌｅ　Ｌｉｆｅ,,株式会社,宮城県,大崎市,古川台町９番２０号リオーネふるかわ２Ｆ,,04,215,9896163,,,,,,,2024-09-04,1,,,,,スマイルライフ,0
1601,6370003006737,新規,0,2024-09-04,2024-09-04,合同会社建築工房ｓｏｒａ,,合同会社,宮城県,岩沼市,土ケ崎３丁目１番１２－１号,,04,211,9892451,,,,,,,2024-09-04,1,,,,,ケンチクコウボウソラ,0
1608,6430001092590,新規,0,2024-09-04,2024-09-04,株式会社Ｂｌｏｏｍｉｎｇ,,株式会社,北海道,沙流郡日高町,富川西１丁目４番３６号,,01,601,0550007,,,,,,,2024-09-04,1,,,,,ブルーミング,0
1609,6430001092608,新規,0,2024-09-04,2024-09-04,株式会社ＳＢＳ電設,,株式会社,北海道,札幌市清田区,清田七条４丁目５番２４号,,01,110,0040847,,,,,,,2024-09-04,1,,,,,エスビーエスデンセツ,0
1610,6430003016754,新規,0,2024-09-04,2024-09-04,合同会社中村電業,,合同会社,北海道,札幌市中央区,南十三条西１丁目１番１－２０２号,,01,101,0640913,,,,,,,2024-09-04,1,,,,,ナカムラデンギョウ,0
1621,6700150126592,新規,0,2024-09-04,2024-08-01,日本パペットセラピー学会,,その他,宮城県,名取市,ゆりが丘４丁目１０－１尚絅学院大学東研究室,,04,207,9811245,,,,,,,2024-08-01,1,,,,,ニホンパペツトセラピーガツカイ,0
1624,7010001247995,新規,0,2024-09-04,2024-09-04,株式会社Ｔｈｅ９ｔｈ　Ｔｒａｄｉｎｇ,,株式会社,東京都,中央区,八丁堀３丁目７番４号パークハビオ京橋１３０１,,13,102,1040032,,,,,,,2024-09-04,1,,,,,ザナインストレーディング,0
1625,7010001248011,新規,0,2024-09-04,2024-09-04,ＡＲＡＳ　ＳＹＳＴＥＭＳ株式会社,,株式会社,東京都,中央区,日本橋人形町１丁目４番１号,,13,102,1030013,,,,,,,2024-09-04,1,,,,,アラスシステムズ,0
1626,7010001248052,新規,0,2024-09-04,2024-09-04,ＲＥ．ＤＯＭＯ国際貿易株式会社,,株式会社,東京都,中央区,新川２丁目１８－４八重洲マンション４０１,,13,102,1040033,,,,,,,2024-09-04,1,,,,,リドモコクサイボウエキ,0
1627,7010001248060,新規,0,2024-09-04,2024-09-04,株式会社Ｍｅｎｅｓｉｄｅ　Ｇｌｏｂａｌ　Ｓｏｌｕｔｉｏｎｓ,,株式会社,東京都,千代田区,富士見１丁目３－１１富士見デュープレックスＢ’ｓ４Ｆ,,13,101,1020071,,,,,,,2024-09-04,1,,,,,メネサイドグローバルソリューソンズ,0
1630,7010003044722,新規,0,2024-09-04,2024-09-04,合同会社ＺＡＳ０１,,合同会社,東京都,千代田区,霞が関３丁目２番５号,,13,101,1000013,,,,,,,2024-09-04,1,,,,,ザスゼロイチ,0
1631,7010003044763,新規,0,2024-09-04,2024-09-04,紘匯合同会社,,合同会社,東京都,千代田区,六番町１５番地２,,13,101,1020085,,,,,,,2024-09-04,1,,,,,コウエイ,0
1632,7010003044821,新規,0,2024-09-04,2024-09-04,まちーく合同会社,,合同会社,東京都,中央区,銀座７丁目１３番２１号銀座ｓｉｎｒｏｋｕｓｙｕビル２階,,13,102,1040061,,,,,,,2024-09-04,1,,,,,マチーク,0
1635,7010005038755,新規,0,2024-09-04,2024-09-04,一般社団法人再生可能エネルギー共済,,その他の設立登記法人,東京都,中央区,銀座１丁目２７番１０号,,13,102,1040061,,,,,,,2024-09-04,1,,,,,サイセイカノウエネルギーキョウサイ,0
1644,7010401184888,新規,0,2024-09-04,2024-09-04,株式会社ニジ看護転職,,株式会社,東京都,港区,赤坂７丁目２番２１号草月会館９Ｆ,,13,103,1070052,,,,,,,2024-09-04,1,,,,,ニジカンゴテンショク,0
1645,7010401184905,新規,0,2024-09-04,2024-09-04,ＨＲホスピタリティ株式会社,,株式会社,東京都,港区,南麻布２丁目７番３０号リバーサイド麻布５０２,,13,103,1060047,,,,,,,2024-09-04,1,,,,,エイチアールホスピタリティ,0
1646,7010401184913,新規,0,2024-09-04,2024-09-04,株式会社Ｍｉｇａｋｕｎ,,株式会社,東京都,港区,芝５丁目２９番１１号,,13,103,1080014,,,,,,,2024-09-04,1,,,,,ミガクン,0
1648,7010403033366,新規,0,2024-09-04,2024-09-04,きくち音楽出版合同会社,,合同会社,東京都,港区,六本木４丁目３番１１号六本木ユニハウス２２３,,13,103,1060032,,,,,,,2024-09-04,1,,,,,キクチオンガクシュッパン,0
1650,7010501052854,新規,0,2024-09-04,2024-09-04,株式会社蔵創,,株式会社,東京都,台東区,寿３丁目８番１号６階,,13,106,1110042,,,,,,,2024-09-04,1,,,,,クラソウ,0
1656,7010801035360,新規,0,2024-09-04,2024-09-04,株式会社ＨＭＦ,,株式会社,東京都,大田区,南千束２丁目１６番１６－３０１号,,13,111,1450063,,,,,,,2024-09-04,1,,,,,エイチエムエフ,0
1657,7010801035369,新規,0,2024-09-04,2024-09-04,株式会社コージーあきた,,株式会社,東京都,大田区,池上１丁目２６番４号,,13,111,1460082,,,,,,,2024-09-04,1,,,,,コージーアキタ,0
1658,7010803005089,新規,0,2024-09-04,2024-09-04,合同会社ＳＯＷ,,合同会社,東京都,大田区,南千束３丁目８番９号,,13,111,1450063,,,,,,,2024-09-04,1,,,,,ソウ,0
1662,7010901055894,新規,0,2024-09-04,2024-09-04,株式会社ＴｈｕｎｄｅｒＤｒｅａｍ,,株式会社,東京都,世田谷区,宮坂３丁目２０－３名倉堂ビル２０１号,,13,112,1560051,,,,,,,2024-09-04,1,,,,,サンダードリーム,0
1666,7011001164405,新規,0,2024-09-04,2024-09-04,ムメ株式会社,,株式会社,東京都,渋谷区,東３丁目１５番１１号,,13,113,1500011,,,,,,,2024-09-04,1,,,,,ムメ,0
1667,7011001164462,新規,0,2024-09-04,2024-09-04,株式会社廣川,,株式会社,東京都,渋谷区,道玄坂１丁目１０番８号渋谷道玄坂東急ビル２Ｆ－Ｃ,,13,113,1500043,,,,,,,2024-09-04,1,,,,,ヒロカワ,0
1668,7011001164470,新規,0,2024-09-04,2024-09-04,株式会社ｃａｃｔｕｚ,,株式会社,東京都,目黒区,中央町２丁目２４番１３号,,13,110,1520001,,,,,,,2024-09-04,1,,,,,カクタス,0
1669,7011001164487,新規,0,2024-09-04,2024-09-04,株式会社Ｌａｒｒｙ,,株式会社,東京都,渋谷区,宇田川町１２番３号,,13,113,1500042,,,,,,,2024-09-04,1,,,,,ラリー,0
1674,7011103014887,新規,0,2024-09-04,2024-09-04,ＲＥＳＳＮＥＳＳ合同会社,,合同会社,東京都,新宿区,西新宿３丁目３番１３号西新宿水間ビル２Ｆ,,13,104,1600023,,,,,,,2024-09-04,1,,,,,レスネス,0
1675,7011103014895,新規,0,2024-09-04,2024-09-04,合同会社芳恵,,合同会社,東京都,新宿区,大久保２丁目２１番１７号,,13,104,1690072,,,,,,,2024-09-04,1,,,,,ヨシエ,0
1687,7012301014068,新規,0,2024-09-04,2024-09-04,株式会社ＤＥＥＰ,,株式会社,東京都,町田市,旭町２丁目９－１１,,13,209,1940023,,,,,,,2024-09-04,1,,,,,ディープ,0
1688,7012405005038,新規,0,2024-09-04,2024-09-04,医療法人社団哲和会府中すみよしクリニック,,その他の設立登記法人,東京都,府中市,住吉町５丁目１番地の４Ｍビル２階,,13,206,1830034,,,,,,,2024-09-04,1,,,,,テツワカイフチュウスミヨシクリニック,0
1690,7012703003081,新規,0,2024-09-04,2024-09-04,合同会社ｓｔｅｌｌａ　ｅｄｉｔ,,合同会社,東京都,西東京市,柳沢２丁目１－２３ＧｒａｎｄｅＰｉｅｔｒａ２０２号,,13,229,2020022,,,,,,,2024-09-04,1,,,,,ステラエディット,0
1691,7012801023436,新規,0,2024-09-04,2024-09-04,株式会社アルファリサーチ企画,,株式会社,東京都,昭島市,緑町３丁目８－１０,,13,207,1960004,,,,,,,2024-09-04,1,,,,,アルファリサーチキカク,0
1706,7021001083174,新規,0,2024-09-04,2024-09-04,株式会社Ｐｅａｃｅｆｕｌ　Ｊ,,株式会社,神奈川県,相模原市南区,相模台２丁目２－２ガーデンビルＩＩ３階フェルゴ内,00136182,14,153,2520321,,,,,,,2024-09-04,1,,,,,ピースフルジェイ,0
1719,7030003025027,新規,0,2024-09-04,2024-09-04,ＳＴ総合サポート合同会社,,合同会社,埼玉県,狭山市,大字中新田４８４番地の９,,11,215,3501311,,,,,,,2024-09-04,1,,,,,エスティーソウゴウサポート,0
1721,7040001135033,新規,0,2024-09-04,2024-09-04,株式会社ツバサインターナショナル,,株式会社,千葉県,八街市,上砂３４３番６号,,12,230,2891125,,,,,,,2024-09-04,1,,,,,ツバサインターナショナル,0
1722,7040001135198,新規,0,2024-09-04,2024-09-04,株式会社本多不動産,,株式会社,千葉県,市川市,南八幡３丁目７番１６号リンドール本八幡２０５,,12,203,2720023,,,,,,,2024-09-04,1,,,,,ホンダフドウサン,0
1723,7040001135207,新規,0,2024-09-04,2024-09-04,株式会社ｂｌｕｅ　ｌｉｏｎ,,株式会社,千葉県,市原市,西広６丁目７番地２２,,12,219,2900022,,,,,,,2024-09-04,1,,,,,ブルーライオン,0
1724,7040001135289,新規,0,2024-09-04,2024-09-04,株式会社とんちゃん,,株式会社,千葉県,鎌ケ谷市,南初富４丁目１８－４５,,12,224,2730123,,,,,,,2024-09-04,1,,,,,トンチャン,0
1728,7050003008640,新規,0,2024-09-04,2024-09-04,アイアイ合同会社,,合同会社,茨城県,土浦市,乙戸南２丁目７－７,,08,203,3000845,,,,,,,2024-09-04,1,,,,,アイアイ,0
1729,7050003008665,新規,0,2024-09-04,2024-09-04,合同会社ＭＵＳＵＢＩ,,合同会社,茨城県,守谷市,松並青葉２丁目１２番地１,,08,224,3020132,,,,,,,2024-09-04,1,,,,,ムスビ,0
1730,7060001037450,新規,0,2024-09-04,2024-09-04,株式会社ｓｏｒａ．ａｉ,,株式会社,栃木県,宇都宮市,元今泉２丁目１８番３号,,09,201,3210954,,,,,,,2024-09-04,1,,,,,ソラアイ,0
1739,7080401027421,新規,0,2024-09-04,2024-09-04,美容室ｋｅｋｅ株式会社,,株式会社,静岡県,浜松市浜名区,内野台２丁目１６番２０号,,22,139,4340045,,,,,,,2024-09-04,1,,,,,ビヨウシツケケ,0
1743,7110001038690,新規,0,2024-09-04,2024-09-04,株式会社ＳＴＹＬＥＩＳＭ,,株式会社,新潟県,長岡市,今井２丁目１８９番地,,15,202,9401166,,,,,,,2024-09-04,1,,,,,スタイルイズム,0
1758,7120001268262,新規,0,2024-09-04,2024-09-04,株式会社テューバマンカンパニー,,株式会社,大阪府,大阪市浪速区,難波中３丁目１８番１２号結城第２ビル２Ｆ,,27,111,5560011,,,,,,,2024-09-04,1,,,,,テューバマンカンパニー,0
1759,7120001268279,新規,0,2024-09-04,2024-09-04,株式会社まつこう,,株式会社,大阪府,守口市,八雲北町３丁目５３番１号Ｈ,,27,209,5700008,,,,,,,2024-09-04,1,,,,,マツコウ,0
1760,7120001268287,新規,0,2024-09-04,2024-09-04,株式会社丸八製作所,,株式会社,大阪府,大阪市西区,九条南３丁目３０番３号,,27,106,5500025,,,,,,,2024-09-04,1,,,,,マルハチセイサクショ,0
1761,7120001268295,新規,0,2024-09-04,2024-09-04,株式会社ＷＡＲＡＫＡＳＵ,,株式会社,大阪府,大阪市阿倍野区,昭和町１丁目３番２４－１０１号,,27,119,5450011,,,,,,,2024-09-04,1,,,,,ワラカス,0
1762,7120001268304,新規,0,2024-09-04,2024-09-04,天澤株式会社,,株式会社,大阪府,大阪市天王寺区,南河堀町１番９号,,27,109,5430054,,,,,,,2024-09-04,1,,,,,アマサワ,0
1763,7120001268312,新規,0,2024-09-04,2024-09-04,株式会社ＳＡＮ,,株式会社,大阪府,大阪市淀川区,西中島３丁目２０番８号新和ビル２階,,27,123,5320011,,,,,,,2024-09-04,1,,,,,サン,0
1764,7120001268320,新規,0,2024-09-04,2024-09-04,株式会社フィレール,,株式会社,大阪府,大阪市北区,池田町１６番６－１２０６号,,27,127,5300033,,,,,,,2024-09-04,1,,,,,フィレール,0
1765,7120001268329,新規,0,2024-09-04,2024-09-04,ＧＣｒｅｎｅｗａｂｌｅｓ株式会社,,株式会社,大阪府,大阪市東淀川区,東淡路１丁目５番３号エバーグリーン淀川３号棟１０１２号室,,27,114,5330023,,,,,,,2024-09-04,1,,,,,ジーシーリニュウアブルス,0
1777,7120101070238,新規,0,2024-09-04,2024-09-04,株式会社セラディ,,株式会社,大阪府,堺市西区,鳳中町４丁１０５番地７－３０６号,,27,144,5938327,,,,,,,2024-09-04,1,,,,,セラディ,0
1778,7120101070246,新規,0,2024-09-04,2024-09-04,株式会社ｅｓ８１ｄｅｓｉｇｎ,,株式会社,大阪府,和泉市,万町２－７,,27,219,5941104,,,,,,,2024-09-04,1,,,,,エスハチジュウイチデザイン,0
1789,7130003009829,新規,0,2024-09-04,2024-09-04,合同会社バブルス商会,,合同会社,京都府,京都市左京区,上高野奥東野町１０番地,,26,103,6060075,,,,,,,2024-09-04,1,,,,,バブルスショウカイ,0
1790,7130003009837,新規,0,2024-09-04,2024-09-04,合同会社Ｆｉｒｓｔ　ｅｓｃａｐｅ,,合同会社,京都府,京都市上京区,大宮通寺之内上る西入東千本町４００番地,,26,102,6028416,,,,,,,2024-09-04,1,,,,,ファーストエスケープ,0
1794,7140001135675,新規,0,2024-09-04,2024-09-04,株式会社Ｏｙｓｔｅｒ　Ｔｈｒｅｅ,,株式会社,兵庫県,赤穂市,中広１５７６番地１１,,28,212,6780232,,,,,,,2024-09-04,1,,,,,オイスタースリー,0
1795,7140001135709,新規,0,2024-09-04,2024-09-04,株式会社かたやま屋,,株式会社,兵庫県,川西市,久代４丁目６番１－２０１,,28,217,6660024,,,,,,,2024-09-04,1,,,,,カタヤマヤ,0
1797,7150001027541,新規,0,2024-09-04,2024-09-04,Ｗｅｌｌ　Ｂｅ　Ｓｐａｃｅ株式会社,,株式会社,奈良県,橿原市,北八木町１丁目２番３１号,,29,205,6340005,,,,,,,2024-09-04,1,,,,,ウェルビースペース,0
1803,7180001163086,新規,0,2024-09-04,2024-09-04,ＴＯＫＵ国際株式会社,,株式会社,愛知県,名古屋市西区,五才美町６番地メゾンヤスフク２０３号室,,23,104,4520806,,,,,,,2024-09-04,1,,,,,トクコクサイ,0
1804,7180001163103,新規,0,2024-09-04,2024-09-04,株式会社Ｋｉｔｔｙｓ　Ｌａｎｄ,,株式会社,愛知県,名古屋市西区,花の木３丁目１３－８ＳｕｇａｒｌｏａｆＰａｒｋ花の木３０１,,23,104,4510062,,,,,,,2024-09-04,1,,,,,キティズランド,0
1805,7180001163136,新規,0,2024-09-04,2024-09-04,株式会社ＫＭＴサービス,,株式会社,愛知県,名古屋市名東区,猪子石２丁目１００２番地の５,,23,115,4650021,,,,,,,2024-09-04,1,,,,,ケーエムティーサービス,0
1806,7180001163144,新規,0,2024-09-04,2024-09-04,Ｄ．Ｉ．Ｊ．＆Ｃｏ．株式会社,,株式会社,愛知県,名古屋市中区,栄３丁目８番１１５号サンリツビルＮｏｒｔｈＢ１Ｆ,,23,106,4600008,,,,,,,2024-09-04,1,,,,,ディーアイジェーアンドコー,0
1811,7180301039028,新規,0,2024-09-04,2024-09-04,株式会社蔵,,株式会社,愛知県,安城市,根崎町南根１２番地,,23,212,4441211,,,,,,,2024-09-04,1,,,,,ゾウ,0
1815,7180305009605,新規,0,2024-09-04,2024-09-04,税理士法人ウイット,,その他の設立登記法人,愛知県,豊橋市,瓦町通２丁目１０９番地１,,23,201,4400824,,,,,,,2024-09-04,1,,,,,ウイット,0
1818,7200001042881,新規,0,2024-09-04,2024-09-04,株式会社Ｍｉｒａｃｌｅ,,株式会社,岐阜県,羽島郡岐南町,薬師寺３丁目８０番地（ベルボナール１０２号室）,,21,302,5016014,,,,,,,2024-09-04,1,,,,,ミラクル,0
1819,7200001042898,新規,0,2024-09-04,2024-09-04,株式会社オシコシファーム,,株式会社,岐阜県,養老郡養老町,押越３６５番地４,,21,341,5031316,,,,,,,2024-09-04,1,,,,,オシコシファーム,0
1822,7200005013664,新規,0,2024-09-04,2024-09-04,一般社団法人境谷宗之を支える会,,その他の設立登記法人,岐阜県,郡上市,高鷲町大鷲２０５６番地,,21,219,5015303,,,,,,,2024-09-04,1,,,,,サカイダニムネユキヲササエルカイ,0
1837,7290001107164,新規,0,2024-09-04,2024-09-04,邦栄商事株式会社,,株式会社,福岡県,春日市,松ヶ丘２丁目１９番地,,40,218,8160843,,,,,,,2024-09-04,1,,,,,ホウエイショウジ,0
1846,7290801030854,新規,0,2024-09-04,2024-09-04,株式会社ＨＡＮＤ,,株式会社,福岡県,北九州市小倉北区,足原１丁目３番４号,,40,106,8020043,,,,,,,2024-09-04,1,,,,,ハンド,0
1850,7320001020702,新規,0,2024-09-04,2024-09-04,クベル建設株式会社,,株式会社,大分県,大分市,二又町３丁目３番７７号,,44,201,8700887,,,,,,,2024-09-04,1,,,,,クベルケンセツ,0
1852,7330001032424,新規,0,2024-09-04,2024-09-04,株式会社ＦＳホールディングス,,株式会社,熊本県,菊池郡菊陽町,新山３丁目１５番２５号,,43,404,8691109,,,,,,,2024-09-04,1,,,,,エフエスホールディングス,0
1855,7330003010543,新規,0,2024-09-04,2024-09-04,合同会社ＯＤＫ,,合同会社,熊本県,菊池市,泗水町豊水３１６３番地１,,43,210,8611212,,,,,,,2024-09-04,1,,,,,オーディーケー,0
1858,7350003004741,新規,0,2024-09-04,2024-09-04,合同会社ＲＩＧＩＬ,,合同会社,宮崎県,宮崎市,佐土原町下那珂２０３１番地１２,,45,201,8800212,,,,,,,2024-09-04,1,,,,,リギル,0
1861,7370001051692,新規,0,2024-09-04,2024-09-04,株式会社Ｍ’ｓＦａｃｔｏｒ,,株式会社,宮城県,仙台市青葉区,一番町２丁目１０番１７号,,04,101,9800811,,,,,,,2024-09-04,1,,,,,エムズファクター,0
1868,7400003003317,新規,0,2024-09-04,2024-09-04,別嬪コンシューマーサービス合同会社,,合同会社,岩手県,久慈市,小久慈町第１８地割３番地１,,03,207,0280071,,,,,,,2024-09-04,1,,,,,ベッピンコンシューマーサービス,0
1877,7430001092615,新規,0,2024-09-04,2024-09-04,株式会社ネオリコルド,,株式会社,北海道,札幌市東区,北十九条東２丁目６番７号,,01,103,0650019,,,,,,,2024-09-04,1,,,,,ネオリコルド,0
1879,7430003016745,新規,0,2024-09-04,2024-09-04,合同会社才,,合同会社,北海道,札幌市中央区,南八条西１２丁目１－３５－２０５号,,01,101,0640808,,,,,,,2024-09-04,1,,,,,サイ,0
1881,7470001020365,新規,0,2024-09-04,2024-09-04,株式会社西日本カラー,,株式会社,香川県,高松市,林町２５５８番地４十河ビル１Ｆ,,37,201,7610301,,,,,,,2024-09-04,1,,,,,ニシニホンカラー,0
1892,8010001247994,新規,0,2024-09-04,2024-09-04,株式会社Ｓｋｙｌｕｘ,,株式会社,東京都,中央区,新川２丁目１８番４号八重洲マンション４０１号室,,13,102,1040033,,,,,,,2024-09-04,1,,,,,スカイラックス,0
1893,8010001248010,新規,0,2024-09-04,2024-09-04,株式会社ＳｈｏｗＴｅｎＧａｉ,,株式会社,東京都,中央区,銀座１丁目１２番４号Ｎ＆Ｅ．ＢＬＤ．６Ｆ,,13,102,1040061,,,,,,,2024-09-04,1,,,,,ショーテンガイ,0
1894,8010001248051,新規,0,2024-09-04,2024-09-04,株式会社ＴＯＢＴＯＣ,,株式会社,東京都,中央区,佃２丁目１９番１号ファミール月島１４０８号,,13,102,1040051,,,,,,,2024-09-04,1,,,,,トブトック,0
1895,8010003044721,新規,0,2024-09-04,2024-09-04,ＨＭ銀座合同会社,,合同会社,東京都,中央区,銀座２丁目６－５アサコ銀座ビル６階,,13,102,1040061,,,,,,,2024-09-04,1,,,,,エイチエムギンザ,0
1896,8010003044787,新規,0,2024-09-04,2024-09-04,ＪＭＥＳ　ＢＥＳＳ　ＯＮＥ合同会社,,合同会社,東京都,中央区,銀座８丁目１３番１号,,13,102,1040061,,,,,,,2024-09-04,1,,,,,ジェイエムイーエスベスワン,0
1897,8010003044804,新規,0,2024-09-04,2024-09-04,ＴｈｒｅａｔＬｉｇｈｔ合同会社,,合同会社,東京都,千代田区,有楽町１丁目５番２号東宝日比谷プロムナードビルディング１１階,,13,101,1000006,,,,,,,2024-09-04,1,,,,,スレットライト,0
1898,8010103002414,新規,0,2024-09-04,2024-09-04,合同会社Ｇｒｅａｔ　Ｅｓｃａｐｅ,,合同会社,東京都,八王子市,下柚木１５０１番地グラニテ１０１号,,13,201,1920372,,,,,,,2024-09-04,1,,,,,グレイトエスケープ,0
1906,8010401184929,新規,0,2024-09-04,2024-09-04,株式会社Ｒｏｍａｘ,,株式会社,東京都,港区,虎ノ門４丁目３番２０号神谷町ＭＴビル１４階,,13,103,1050001,,,,,,,2024-09-04,1,,,,,ロマックス,0
1907,8010401184961,新規,0,2024-09-04,2024-09-04,株式会社キンジトー,,株式会社,東京都,港区,白金６丁目１８番１２号プラチナスクエア白金３０１,,13,103,1080072,,,,,,,2024-09-04,1,,,,,キンジトー,0
1908,8010403033349,新規,0,2024-09-04,2024-09-04,合同会社Ｔｏｐａｎｋｙ,,合同会社,東京都,港区,北青山１丁目３番１号アールキューブ青山３階,,13,103,1070061,,,,,,,2024-09-04,1,,,,,トパンキー,0
1923,8010901055910,新規,0,2024-09-04,2024-09-04,株式会社ｐｈａｖｅｎｉｒ,,株式会社,東京都,世田谷区,玉川３丁目２０番２号マノア玉川第３ビル５０１号室,,13,112,1580094,,,,,,,2024-09-04,1,,,,,ファベニア,0
1924,8010901055919,新規,0,2024-09-04,2024-09-04,株式会社ＮＥＳＴ　ＢＵＩＬＤ,,株式会社,東京都,世田谷区,世田谷１丁目２８番１１号,,13,112,1540017,,,,,,,2024-09-04,1,,,,,ネストビルド,0
1930,8011001164338,新規,0,2024-09-04,2024-09-04,株式会社ａｐｅｒｏ,,株式会社,東京都,渋谷区,代々木５丁目３４番２２号レジデンス代々木公園２０５,,13,113,1510053,,,,,,,2024-09-04,1,,,,,アペロ,0
1931,8011003019928,新規,0,2024-09-04,2024-09-04,合同会社Ａｐｒｉｃｏｔ‐ｍｅｅ,,合同会社,東京都,目黒区,下目黒１丁目８番３３号アミカブルメグロ１０１,,13,110,1530064,,,,,,,2024-09-04,1,,,,,アプリコットミー,0
1937,8011101108681,新規,0,2024-09-04,2024-09-04,まるゆるパーティー株式会社,,株式会社,東京都,新宿区,西新宿３丁目５番１２号,,13,104,1600023,,,,,,,2024-09-04,1,,,,,マルユルパーティー,0
1938,8011103014886,新規,0,2024-09-04,2024-09-04,コスモクエスト合同会社,,合同会社,東京都,新宿区,西新宿３丁目３番１３号西新宿水間ビル２Ｆ,,13,104,1600023,,,,,,,2024-09-04,1,,,,,コスモクエスト,0
1939,8011103014894,新規,0,2024-09-04,2024-09-04,合同会社豊,,合同会社,東京都,新宿区,大久保２丁目２１番１７号,,13,104,1690072,,,,,,,2024-09-04,1,,,,,ユタカ,0
1941,8011203004481,新規,0,2024-09-04,2024-09-04,合同会社Ｊ,,合同会社,東京都,中野区,本町４丁目３９－８－８０１,,13,114,1640012,,,,,,,2024-09-04,1,,,,,ジェイ,0
1942,8011205002624,新規,0,2024-09-04,2024-09-04,医療法人社団まんまる,,その他の設立登記法人,東京都,中野区,弥生町２丁目２３番３号松屋ビル３階,,13,114,1640013,,,,,,,2024-09-04,1,,,,,マンマル,0
1945,8011501031112,新規,0,2024-09-04,2024-09-04,株式会社グスク,,株式会社,東京都,荒川区,南千住８丁目４－５けやき通り北参番館１階１１６号室,,13,118,1160003,,,,,,,2024-09-04,1,,,,,グスク,0
1946,8011503006194,新規,0,2024-09-04,2024-09-04,Ｂａｎａｎａ　Ｆｉｓｈ合同会社,,合同会社,東京都,荒川区,荒川６丁目３７番地３号オリーブハウス１０１,,13,118,1160002,,,,,,,2024-09-04,1,,,,,バナナフィッシュ,0
1948,8011505002646,新規,0,2024-09-04,2024-09-04,医療法人社団獅英会,,その他の設立登記法人,東京都,北区,赤羽南１丁目９番１１号赤羽南ビル２０２号,,13,117,1150044,,,,,,,2024-09-04,1,,,,,シエイカイ,0
1951,8011703003958,新規,0,2024-09-04,2024-09-04,合同会社Ａ‐ＬＵＣＫＹ,,合同会社,東京都,江戸川区,一之江３丁目１２番２４号Ａ３０１,,13,123,1320024,,,,,,,2024-09-04,1,,,,,エーラッキー,0
1953,8012305002101,新規,0,2024-09-04,2024-09-04,一般社団法人菜の花,,その他の設立登記法人,東京都,町田市,原町田１丁目１９番４号,,13,209,1940013,,,,,,,2024-09-04,1,,,,,ナノハナ,0
1960,8020001159017,新規,0,2024-09-04,2024-09-04,株式会社ケーエスプランニング,,株式会社,神奈川県,横浜市港北区,大倉山７丁目１６番５号,,14,109,2220037,,,,,,,2024-09-04,1,,,,,ケーエスプランニング,0
1967,8021001083173,新規,0,2024-09-04,2024-09-04,一雅株式会社,,株式会社,神奈川県,相模原市中央区,相模原６丁目５－１５,,14,152,2520231,,,,,,,2024-09-04,1,,,,,ヒトマサ,0
1978,8030003025026,新規,0,2024-09-04,2024-09-04,ＺＥＲＯ合同会社,,合同会社,埼玉県,川口市,芝５丁目１８番１１号,,11,203,3330866,,,,,,,2024-09-04,1,,,,,ゼロ,0
1979,8030003025042,新規,0,2024-09-04,2024-09-04,合同会社Ｐｉａｃｅｒｅ,,合同会社,埼玉県,さいたま市浦和区,瀬ヶ崎３丁目１番４９－７号,,11,107,3300044,,,,,,,2024-09-04,1,,,,,ピアチェーレ,0
1980,8030003025050,新規,0,2024-09-04,2024-09-04,沖縄きしみーる合同会社,,合同会社,埼玉県,三郷市,彦成３丁目１１番１５－１０２号,,11,237,3410003,,,,,,,2024-09-04,1,,,,,オキナワキシミール,0
1986,8040001135239,新規,0,2024-09-04,2024-09-04,株式会社蘭トピア,,株式会社,千葉県,八千代市,米本１２８７番地８,,12,221,2760015,,,,,,,2024-09-04,1,,,,,ラントピア,0
1987,8040001135247,新規,0,2024-09-04,2024-09-04,株式会社五十嵐計装,,株式会社,千葉県,市原市,門前２丁目１７５番地,,12,219,2900016,,,,,,,2024-09-04,1,,,,,イガラシケイソウ,0
1988,8040001135255,新規,0,2024-09-04,2024-09-04,株式会社Ａｋｏｎａ,,株式会社,千葉県,大網白里市,みどりが丘１丁目２３番地１７,,12,239,2993255,,,,,,,2024-09-04,1,,,,,アコナ,0
1992,8040003025751,新規,0,2024-09-04,2024-09-04,合同会社飛鳥瑠,,合同会社,千葉県,鎌ケ谷市,西道野辺１－３－４０１,,12,224,2730117,,,,,,,2024-09-04,1,,,,,テンザン,0
1997,8060003005231,新規,0,2024-09-04,2024-09-04,合同会社ドリームハウス,,合同会社,栃木県,宇都宮市,鶴田町８４６番地９,,09,201,3200851,,,,,,,2024-09-04,1,,,,,ドリームハウス,0
2000,8070001042135,新規,0,2024-09-04,2024-09-04,株式会社わたラボ,,株式会社,群馬県,藤岡市,立石５２４番地１,,10,209,3750002,,,,,,,2024-09-04,1,,,,,ワタラボ,0
2001,8070001042143,新規,0,2024-09-04,2024-09-04,ライフカンパニー株式会社,,株式会社,群馬県,安中市,下秋間１４８番地３,,10,211,3790104,,,,,,,2024-09-04,1,,,,,ライフカンパニー,0
2008,8080403005085,新規,0,2024-09-04,2024-09-04,Ｄｅｇｒｅｅ７７　Ｓｔｕｄｉｏ合同会社,,合同会社,静岡県,浜松市中央区,八幡町９８番地,,22,138,4300918,,,,,,,2024-09-04,1,,,,,ディグリーセブンティセブンスタジオ,0
2012,8100003007751,新規,0,2024-09-04,2024-09-04,匠総業合同会社,,合同会社,長野県,松本市,寿中１丁目３０番９号,,20,202,3990026,,,,,,,2024-09-04,1,,,,,タクミソウギョウ,0
2014,8110001038681,新規,0,2024-09-04,2024-09-04,株式会社高和不動産,00136178,株式会社,新潟県,新発田市,小舟町３丁目６６５－２,,15,206,9570007,,,,,,,2024-09-04,1,,,,,コウワフドウサン,0
2015,8110003005473,新規,0,2024-09-04,2024-09-04,合同会社ＫＡＴＵＹＡＭＡ,,合同会社,新潟県,村上市,肴町４番４号サニーハウス１０１,,15,212,9580864,,,,,,,2024-09-04,1,,,,,カツヤマ,0
2016,8110003005507,新規,0,2024-09-04,2024-09-04,リンクスジャパン合同会社,,合同会社,新潟県,長岡市,蔵王１丁目１－３１－６０５,,15,202,9400028,,,,,,,2024-09-04,1,,,,,リンクスジャパン,0
2023,8120001268253,新規,0,2024-09-04,2024-09-04,瑛光商事株式会社,,株式会社,大阪府,大阪市西成区,旭２丁目３番１号,,27,122,5570032,,,,,,,2024-09-04,1,,,,,エイコウショウジ,0
2024,8120001268278,新規,0,2024-09-04,2024-09-04,株式会社宰,,株式会社,大阪府,大阪市中央区,北浜３丁目１番２２号あいおいニッセイ同和損保・淀屋橋ビル７階,,27,128,5410041,,,,,,,2024-09-04,1,,,,,サイ,0
2025,8120001268311,新規,0,2024-09-04,2024-09-04,ａｍｉ‐ａｍｉ　ｐｏｔｅｎｔｉａｌ株式会社,,株式会社,大阪府,大阪市北区,西天満４丁目６番３号,,27,127,5300047,,,,,,,2024-09-04,1,,,,,アミアミポテンシャル,0
2026,8120001268328,新規,0,2024-09-04,2024-09-04,玲曉株式会社,,株式会社,大阪府,大阪市北区,大淀南２丁目１番１号グランドメゾン新梅田タワー３７０４号室,,27,127,5310075,,,,,,,2024-09-04,1,,,,,レイギョウ,0
2031,8120003027459,新規,0,2024-09-04,2024-09-04,合同会社石けん研究所,,合同会社,大阪府,大阪市平野区,平野東３丁目７番１９号アークハイツ６１０号室,,27,126,5470043,,,,,,,2024-09-04,1,,,,,セッケンケンキュウジョ,0
2034,8120101070245,新規,0,2024-09-04,2024-09-04,株式会社Ｂｏｂｂｙ,,株式会社,大阪府,堺市美原区,真福寺４２－１,,27,147,5870013,,,,,,,2024-09-04,1,,,,,ボビー,0
2038,8122001038413,新規,0,2024-09-04,2024-09-04,株式会社一瑞,,株式会社,大阪府,東大阪市,菱屋東１丁目２番１５号シャーメゾン菱屋東１０１号,,27,227,5780948,,,,,,,2024-09-04,1,,,,,イスイ,0
2041,8130001077843,新規,0,2024-09-04,2024-09-04,株式会社アーキエムズ一級建築士事務所,,株式会社,京都府,京都市中京区,両替町通御池上る龍池町４４９番地１,,26,104,6048176,,,,,,,2024-09-04,1,,,,,アーキエムズイッキュウケンチクシジムショ,0
2043,8130003009836,新規,0,2024-09-04,2024-09-04,合同会社スポットライト,,合同会社,京都府,京都市下京区,七条通油小路東入大黒町２２７番地第２キョートビル４０２,,26,106,6008223,,,,,,,2024-09-04,1,,,,,スポットライト,0
2050,8140005027199,新規,0,2024-09-04,2024-09-04,一般社団法人ビーイング,,その他の設立登記法人,兵庫県,神戸市灘区,桜ヶ丘町１６番地の４０,,28,102,6570021,,,,,,,2024-09-04,1,,,,,ビーイング,0
2051,8150001027540,新規,0,2024-09-04,2024-09-04,パワーストーリー株式会社,,株式会社,奈良県,吉野郡十津川村,大字小原２２３番１,,29,449,6371333,,,,,,,2024-09-04,1,,,,,パワーストーリー,0
2052,8150001027549,新規,0,2024-09-04,2024-09-04,株式会社グランテイク,,株式会社,奈良県,奈良市,中山町西２丁目９５０番地の５７,,29,201,6310013,,,,,,,2024-09-04,1,,,,,グランテイク,0
2065,8180001163093,新規,0,2024-09-04,2024-09-04,リバジーメンテナンス株式会社,,株式会社,愛知県,名古屋市北区,東水切町１丁目１５番地の１３,,23,103,4620828,,,,,,,2024-09-04,1,,,,,リバジーメンテナンス,0
2066,8180001163102,新規,0,2024-09-04,2024-09-04,不動産総合サービス株式会社,,株式会社,愛知県,名古屋市緑区,姥子山３丁目６１５番地,,23,114,4580830,,,,,,,2024-09-04,1,,,,,フドウサンソウゴウサービス,0
2067,8180001163127,新規,0,2024-09-04,2024-09-04,株式会社玄愛堂,,株式会社,愛知県,春日井市,岩野町１丁目３番地１,,23,206,4860805,,,,,,,2024-09-04,1,,,,,ゲンアイドウ,0
2068,8180001163135,新規,0,2024-09-04,2024-09-04,株式会社未来ＥＤＥＮ,,株式会社,愛知県,名古屋市緑区,徳重５丁目１１０３番地ライオンズテラス徳重北館４０５号,,23,114,4580815,,,,,,,2024-09-04,1,,,,,ミライエデン,0
2074,8200003006487,新規,0,2024-09-04,2024-09-04,合同会社ゆあせるふ,,合同会社,岐阜県,加茂郡富加町,羽生１４６８番１,,21,502,5013303,,,,,,,2024-09-04,1,,,,,ユアセルフ,0
2078,8220001026188,新規,0,2024-09-04,2024-09-04,株式会社ＮＯＺ,,株式会社,石川県,金沢市,示野町西１２３番地,,17,201,9200059,,,,,,,2024-09-04,1,,,,,ノズ,0
2079,8220005008876,新規,0,2024-09-04,2024-09-04,一般社団法人ｊａｐａｎ　ｃｒａｆｔｓ＆ａｒｔｓ創造機構,,その他の設立登記法人,石川県,輪島市,平成町６３番地,,17,204,9280068,,,,,,,2024-09-04,1,,,,,ジャパンクラフツアンドアーツソウゾウキコウ,0
2083,8240001063766,新規,0,2024-09-04,2024-09-04,株式会社Ｏｌｕ　Ｏｌｕ　Ｂａｓｅ,,株式会社,広島県,広島市中区,千田町３丁目１１番２５－２０２号,,34,101,7300052,,,,,,,2024-09-04,1,,,,,オルオルベース,0
2088,8260001039418,新規,0,2024-09-04,2024-09-04,株式会社田中犬猫病院,,株式会社,岡山県,倉敷市,玉島乙島６１３番地１,,33,202,7138103,,,,,,,2024-09-04,1,,,,,タナカイヌネコビョウイン,0
2089,8260001039426,新規,0,2024-09-04,2024-09-04,株式会社ＹＪ,,株式会社,岡山県,岡山市北区,本町２－１６小林本町ビル５Ｆ,,33,101,7000901,,,,,,,2024-09-04,1,,,,,ワイジェイ,0
2091,8260003004881,新規,0,2024-09-04,2024-09-04,合同会社Ｗ,,合同会社,岡山県,岡山市東区,可知１丁目７３番地７,,33,103,7048173,,,,,,,2024-09-04,1,,,,,ダブリュー,0
2097,8290001107089,新規,0,2024-09-04,2024-09-04,株式会社五常＆Ｃｏ．,,株式会社,福岡県,福岡市早良区,飯倉５丁目１１番１３号,,40,137,8140161,,,,,,,2024-09-04,1,,,,,ゴジョウアンドシーオー,0
2098,8290001107147,新規,0,2024-09-04,2024-09-04,西岡電気工事株式会社,,株式会社,福岡県,春日市,上白水２丁目３２番地,,40,218,8160844,,,,,,,2024-09-04,1,,,,,ニシオカデンキコウジ,0
2099,8290001107155,新規,0,2024-09-04,2024-09-04,株式会社ＴＡＫＥメンテナンス,,株式会社,福岡県,福岡市城南区,神松寺１丁目２番２４号,,40,136,8140121,,,,,,,2024-09-04,1,,,,,テイクメンテナンス,0
2100,8290001107163,新規,0,2024-09-04,2024-09-04,株式会社成清興業,,株式会社,福岡県,福岡市城南区,樋井川６丁目１番２３－１０２号,,40,136,8140153,,,,,,,2024-09-04,1,,,,,ナルキヨコウギョウ,0
2101,8290001107171,新規,0,2024-09-04,2024-09-04,株式会社Ｒｅｖｉｖｅ,,株式会社,福岡県,福岡市東区,美和台６丁目３１番７号,,40,131,8110212,,,,,,,2024-09-04,1,,,,,リバイブ,0
2102,8290001107188,新規,0,2024-09-04,2024-09-04,株式会社スマイラックス,,株式会社,福岡県,福岡市博多区,上川端町１１番１号Ｂ１－１号室,,40,132,8120026,,,,,,,2024-09-04,1,,,,,スマイラックス,0
2114,8320003004462,新規,0,2024-09-04,2024-09-04,合同会社照邦興産,,合同会社,大分県,大分市,牧１丁目１４番１１号,,44,201,8700924,,,,,,,2024-09-04,1,,,,,ショウホウコウサン,0
2115,8330001032423,新規,0,2024-09-04,2024-09-04,株式会社ＳＴＡＲ　ＳＨＩＰ,,株式会社,熊本県,宇城市,三角町三角浦１１５９番地１５３,,43,213,8693207,,,,,,,2024-09-04,1,,,,,スターシップ,0
2116,8330001032431,新規,0,2024-09-04,2024-09-04,株式会社レクシア,,株式会社,熊本県,宇土市,松山町１８０９番地１,,43,211,8690416,,,,,,,2024-09-04,1,,,,,レクシア,0
2119,8340001026770,新規,0,2024-09-04,2024-09-04,九州製薬株式会社,,株式会社,鹿児島県,いちき串木野市,照島４８６０番地１,,46,219,8960055,,,,,,,2024-09-04,1,,,,,キュウシュウセイヤク,0
2120,8340001026779,新規,0,2024-09-04,2024-09-04,株式会社秀香,,株式会社,鹿児島県,鹿児島市,鴨池１丁目６３番１７号,,46,201,8900063,,,,,,,2024-09-04,1,,,,,シュウコウ,0
2130,8370001051691,新規,0,2024-09-04,2024-09-04,株式会社Ｓｖｉｓｉｏｎ,,株式会社,宮城県,塩竈市,東玉川町９－８マーケットアパートメント塩釜１－Ｃ,,04,203,9850036,,,,,,,2024-09-04,1,,,,,エスビジョン,0
2141,8390001017732,新規,0,2024-09-04,2024-09-04,鹿間ホールディングス株式会社,,株式会社,山形県,山形市,流通センター３丁目７番地の１,,06,201,9900071,,,,,,,2024-09-04,1,,,,,シカマホールディングス,0
2147,8430001092630,新規,0,2024-09-04,2024-09-04,株式会社ＢＡＳＥＭＥＮＴ,,株式会社,北海道,札幌市白石区,南郷通２１丁目南５番３６号,,01,104,0030022,,,,,,,2024-09-04,1,,,,,ベースメント,0
2149,8430003016752,新規,0,2024-09-04,2024-09-04,合同会社ＫＩＲＡ,,合同会社,北海道,札幌市清田区,清田六条２丁目６－１６,,01,110,0040846,,,,,,,2024-09-04,1,,,,,キラ,0
2152,8440001009492,新規,0,2024-09-04,2024-09-04,株式会社Ｓ・Ｓクリエイティブ,,株式会社,北海道,上磯郡知内町,字元町３５番地４０,,01,333,0491106,,,,,,,2024-09-04,1,,,,,エスエスクリエイティブ,0
2156,8470003002708,新規,0,2024-09-04,2024-09-04,オリーブツーリズム合同会社,,合同会社,香川県,高松市,錦町１丁目３番１０号,,37,201,7600020,,,,,,,2024-09-04,1,,,,,オリーブツーリズム,0
2157,8480001012583,新規,0,2024-09-04,2024-09-04,株式会社ＭＤＣ,,株式会社,徳島県,徳島市,出来島本町３丁目２４番地３０３号,,36,201,7700823,,,,,,,2024-09-04,1,,,,,エムディーシー,0
2172,9010001247770,新規,0,2024-09-04,2024-09-04,株式会社ＮＥＰ,,株式会社,東京都,中央区,銀座１丁目１２－４Ｎ＆ＥＢＬＤ．７,,13,102,1040061,,,,,,,2024-09-04,1,,,,,ネプ,0
2173,9010001247977,新規,0,2024-09-04,2024-09-04,株式会社ＲＣＣ　Ｊａｐａｎ,,株式会社,東京都,中央区,銀座７丁目３番１３号ニューギンザビル１号館９Ｆ－２,,13,102,1040061,,,,,,,2024-09-04,1,,,,,アールシーシージャパン,0
2174,9010001247985,新規,0,2024-09-04,2024-09-04,株式会社ＦＩＲＳＴ　ＴＲＥＥ,,株式会社,東京都,千代田区,神田和泉町１番地６－１６ヤマトビル４０５,,13,101,1010024,,,,,,,2024-09-04,1,,,,,ファーストツリー,0
2175,9010001248018,新規,0,2024-09-04,2024-09-04,株式会社ロボウ,,株式会社,東京都,千代田区,神田神保町２丁目３４番地鳴海ビル１０１,,13,101,1010051,,,,,,,2024-09-04,1,,,,,ロボウ,0
2176,9010001248026,新規,0,2024-09-04,2024-09-04,ＪＡＡＬ株式会社,,株式会社,東京都,中央区,日本橋室町１丁目１１－１２日本橋水野ビル７階,,13,102,1030022,,,,,,,2024-09-04,1,,,,,ジャール,0
2177,9010001248034,新規,0,2024-09-04,2024-09-04,Ｄｒｅｓｓ　Ｃｏｄｅ株式会社,,株式会社,東京都,中央区,築地７丁目２番１号ＴＨＥ・ＴＥＲＲＡＣＥ・ＴＳＵＫＩＪＩ・５階ＷＥＳＴ,,13,102,1040045,,,,,,,2024-09-04,1,,,,,ドレスコード,0
2178,9010001248042,新規,0,2024-09-04,2024-09-04,株式会社ベルッカ,,株式会社,東京都,中央区,築地２丁目１２－１６ＥＡＳＴＧＩＮＺＡビル３Ｆ,,13,102,1040045,,,,,,,2024-09-04,1,,,,,ベルッカ,0
2179,9010001248059,新規,0,2024-09-04,2024-09-04,株式会社オフィスＯＫＡＮＯ,,株式会社,東京都,文京区,弥生２丁目４番１６号,,13,105,1130032,,,,,,,2024-09-04,1,,,,,オフィスオカノ,0
2181,9010003044811,新規,0,2024-09-04,2024-09-04,平野リサーチラボ合同会社,,合同会社,東京都,千代田区,外神田２丁目１９番１５プレミスト千代田御茶ノ水５０３号,,13,101,1010021,,,,,,,2024-09-04,1,,,,,ヒラノリサーチラボ,0
2193,9010401184886,新規,0,2024-09-04,2024-09-04,Ｍ＆Ａ　ＢＡＳＥＣＡＭＰ０１株式会社,,株式会社,東京都,港区,南麻布３丁目２０番１号,,13,103,1060047,,,,,,,2024-09-04,1,,,,,エムアンドエーベースキャンプゼロイチ,0
2198,9010403033348,新規,0,2024-09-04,2024-09-04,ＭＳ‐ＯＣＰ１合同会社,,合同会社,東京都,港区,虎ノ門３丁目２２番１０－２０１号,,13,103,1050001,,,,,,,2024-09-04,1,,,,,エムエスオーシーピーワン,0
2200,9010501052836,新規,0,2024-09-04,2024-09-04,ＨＵＭＡＮ　ＧＲＥＥＮ　ＬＡＢＳ株式会社,,株式会社,東京都,台東区,台東４丁目２７番５号秀和御徒町ビル８Ｆ,,13,106,1100016,,,,,,,2024-09-04,1,,,,,ヒューマングリーンラボ,0
2201,9010501052860,新規,0,2024-09-04,2024-09-04,株式会社創案工房,,株式会社,東京都,台東区,浅草１丁目１６番１１号ＴＨＥＲＯＯＭ浅草４Ｆ,,13,106,1110032,,,,,,,2024-09-04,1,,,,,ソウアンコウボウ,0
2203,9010603011062,新規,0,2024-09-04,2024-09-04,合同会社ＡＧＩＬＩＴＡ,,合同会社,東京都,江東区,亀戸５丁目１番６－１００３号,,13,108,1360071,,,,,,,2024-09-04,1,,,,,アジリタ,0
2206,9010801035367,新規,0,2024-09-04,2024-09-04,株式会社Ｓｅｃｏｎｄｓ　Ｏｎ,,株式会社,東京都,大田区,大森西５丁目１６番６－３０２号,,13,111,1430015,,,,,,,2024-09-04,1,,,,,セカンズオン,0
2212,9011001164444,新規,0,2024-09-04,2024-09-04,株式会社Ｈｉｒａｖｅ,,株式会社,東京都,渋谷区,道玄坂１丁目１６番６号二葉ビル８ｂ,,13,113,1500043,,,,,,,2024-09-04,1,,,,,ヒラビ,0
2213,9011001164469,新規,0,2024-09-04,2024-09-04,株式会社ＷＡＬＩＦＥ,,株式会社,東京都,渋谷区,神宮前６丁目２３番４号桑野ビル２階,,13,113,1500001,,,,,,,2024-09-04,1,,,,,ワライフ,0
2214,9011001164493,新規,0,2024-09-04,2024-09-04,株式会社Ｇ＆Ｂ　ＥＮＴＥＲＴＡＩＮＭＥＮＴ,,株式会社,東京都,目黒区,上目黒２丁目９番１号中目黒ＧＳ第１ビル５階,,13,110,1530051,,,,,,,2024-09-04,1,,,,,ジーアンドビーエンターテインメント,0
2218,9011003019910,新規,0,2024-09-04,2024-09-04,合同会社一乗ホームズ,,合同会社,東京都,目黒区,鷹番２丁目１５番２１号レステンシア４０５,,13,110,1520004,,,,,,,2024-09-04,1,,,,,イチジョウホームズ,0
2219,9011005010660,新規,0,2024-09-04,2024-09-04,一般社団法人ＳＴｕｄｅｎｔ‐Ａｃａｄｅｍｉａ　Ｒｅｓｅａｒｃｈ　Ｐｒｏｊｅｃｔ,,その他の設立登記法人,東京都,渋谷区,渋谷３丁目１－９ＹＡＺＡＷＡビル３階,,13,113,1500002,,,,,,,2024-09-04,1,,,,,ステューデントアカデミアリサーチプロジェクト,0
2224,9011101108672,新規,0,2024-09-04,2024-09-04,株式会社ナイス日本自動車情報サービス,,株式会社,東京都,新宿区,西新宿７丁目２２番４１号,,13,104,1600023,,,,,,,2024-09-04,1,,,,,ナイスニホンジドウシャジョウホウサービス,0
2225,9011103014836,新規,0,2024-09-04,2024-09-04,合同会社リーフペアＡ,,合同会社,東京都,新宿区,西新宿３丁目３番１３号,,13,104,1600023,,,,,,,2024-09-04,1,,,,,リーフペアエイ,0
2226,9011201025768,新規,0,2024-09-04,2024-09-04,アクセルメディカ株式会社,,株式会社,東京都,中野区,本町１丁目３２番２号,,13,114,1640012,,,,,,,2024-09-04,1,,,,,アクセルメディカ,0
2237,9011601028032,新規,0,2024-09-04,2024-09-04,株式会社ｍｏｔｉｏｎ,,株式会社,東京都,練馬区,中村南３丁目３番２２号,,13,120,1760025,,,,,,,2024-09-04,1,,,,,モーション,0
2243,9012301014066,新規,0,2024-09-04,2024-09-04,株式会社ヒニイチインターナショナル,,株式会社,東京都,町田市,上小山田町１７５番地１３,,13,209,1940201,,,,,,,2024-09-04,1,,,,,ヒニイチインターナショナル,0
2245,9012401042256,新規,0,2024-09-04,2024-09-04,株式会社ＨＥＲＡＰＡＬＡＣＥ,,株式会社,東京都,稲城市,坂浜３丁目１８－１４,,13,225,2060822,,,,,,,2024-09-04,1,,,,,ヘラパレス,0
2246,9012701018435,新規,0,2024-09-04,2024-09-04,株式会社ｍｏｄｅｇｉｎａｔｉｏｎ,,株式会社,東京都,小平市,小川町１丁目５１７－４１,,13,211,1870032,,,,,,,2024-09-04,1,,,,,モデジネーション,0
2249,9012801023434,新規,0,2024-09-04,2024-09-04,株式会社和田製作所,,株式会社,東京都,昭島市,拝島町５丁目１０番３０号,,13,207,1960002,,,,,,,2024-09-04,1,,,,,ワダセイサクショ,0
2251,9013103001368,新規,0,2024-09-04,2024-09-04,合同会社Ｔｒｉｐｌｅ３,,合同会社,東京都,福生市,大字熊川９８４番地８,,13,218,1970003,,,,,,,2024-09-04,1,,,,,トリプルスリー,0
2252,9013303007289,新規,0,2024-09-04,2024-09-04,Ｍｉｎｈ　Ｋｈｏｉ合同会社,,合同会社,東京都,豊島区,南大塚３丁目６番９シャガール２０２,,13,116,1700005,,,,,,,2024-09-04,1,,,,,ミンコイ,0
2257,9020001158942,新規,0,2024-09-04,2024-09-04,ＹＱ株式会社,,株式会社,神奈川県,横浜市保土ケ谷区,天王町１丁目２２番地１２－２０４号,,14,106,2400003,,,,,,,2024-09-04,1,,,,,ワイキュウ,0
2259,9020003026759,新規,0,2024-09-04,2024-09-04,クロスモア合同会社,,合同会社,神奈川県,横浜市瀬谷区,瀬谷２丁目１０番地１２,,14,114,2460031,,,,,,,2024-09-04,1,,,,,クロスモア,0
2262,9021001083172,新規,0,2024-09-04,2024-09-04,株式会社カイロスジャパン,,株式会社,神奈川県,相模原市中央区,上溝１９３６番地１ガーデンブリーズ光の街１４１１号,,14,152,2520243,,,,,,,2024-09-04,1,,,,,カイロスジャパン,0
2263,9021001083180,新規,0,2024-09-04,2024-09-04,株式会社Ｒｉｎ,,株式会社,神奈川県,厚木市,妻田北３丁目６番５号,,14,212,2430812,,,,,,,2024-09-04,1,,,,,リン,0
2265,9021005013175,新規,0,2024-09-04,2024-09-04,一般社団法人鎌倉市薬剤師会,,その他の設立登記法人,神奈川県,鎌倉市,雪ノ下３丁目１番３号,,14,204,2480005,,,,,,,2024-09-04,1,,,,,カマクラシヤクザイシカイ,0
2271,9030001162274,新規,0,2024-09-04,2024-09-04,テクノイズ株式会社,,株式会社,埼玉県,戸田市,喜沢南２丁目９－２４ＣＳ戸田ビル１Ｆ１０５,,11,224,3350014,,,,,,,2024-09-04,1,,,,,テクノイズ,0
2280,9040001135213,新規,0,2024-09-04,2024-09-04,株式会社ロングウッドヴィレッジ,,株式会社,千葉県,長生郡長柄町,山之郷６７番地１,,12,426,2970231,,,,,,,2024-09-04,1,,,,,ロングウッドヴィレッジ,0
2281,9040001135254,新規,0,2024-09-04,2024-09-04,株式会社若杉商事,,株式会社,千葉県,四街道市,大日４３０番地３,,12,228,2840001,,,,,,,2024-09-04,1,,,,,ワカスギショウジ,0
2282,9040001135287,新規,0,2024-09-04,2024-09-04,株式会社名古屋ガレージ,,株式会社,千葉県,成田市,七沢植松７４－１,,12,211,2890117,,,,,,,2024-09-04,1,,,,,ナゴヤガレージ,0
2286,9040003025742,新規,0,2024-09-04,2024-09-04,合同会社リハチ,,合同会社,千葉県,木更津市,新宿７番２号,,12,206,2920066,,,,,,,2024-09-04,1,,,,,リハチ,0
2289,9050001055352,新規,0,2024-09-04,2024-09-04,中田産業株式会社,,株式会社,茨城県,坂東市,辺田３５３－１６,,08,228,3060632,,,,,,,2024-09-04,1,,,,,ナカダサンギョウ,0
2292,9060001037457,新規,0,2024-09-04,2024-09-04,株式会社ＯＭＵＫＵ,,株式会社,栃木県,日光市,土沢１２１６番地,,09,206,3211274,,,,,,,2024-09-04,1,,,,,オムク,0
2300,9100005013219,新規,0,2024-09-04,2024-09-04,一般社団法人ＴｈｅｒａｐｙＯｒｅ,,その他の設立登記法人,長野県,中野市,大字片塩８９２番地１,,20,211,3830046,,,,,,,2024-09-04,1,,,,,セラピアー,0
2302,9110001038680,新規,0,2024-09-04,2024-09-04,株式会社青木総建,,株式会社,新潟県,北蒲原郡聖籠町,大字諏訪山１２１１番地,,15,307,9570117,,,,,,,2024-09-04,1,,,,,アオキソウケン,0
2303,9110001038689,新規,0,2024-09-04,2024-09-04,株式会社クリーク,,株式会社,新潟県,長岡市,北陽２丁目１４番地３１,,15,202,9400871,,,,,,,2024-09-04,1,,,,,クリーク,0
2304,9110003005506,新規,0,2024-09-04,2024-09-04,合同会社ｈｕｇ,,合同会社,新潟県,新潟市西区,亀貝１３６９,,15,107,9502033,,,,,,,2024-09-04,1,,,,,ハグ,0
2311,9120001268293,新規,0,2024-09-04,2024-09-04,株式会社Ｒｉｔａ,,株式会社,大阪府,大阪市住吉区,長居２丁目１番２８号,,27,120,5580003,,,,,,,2024-09-04,1,,,,,リタ,0
2312,9120001268302,新規,0,2024-09-04,2024-09-04,株式会社アール・エイチ・ワイ,,株式会社,大阪府,大阪市北区,梅田１丁目１番３号大阪駅前第３ビル２９階１－１－１号室,,27,127,5300001,,,,,,,2024-09-04,1,,,,,アールエイチワイ,0
2316,9120003027458,新規,0,2024-09-04,2024-09-04,ＤＥＳＩＧＮ合同会社,,合同会社,大阪府,大阪市福島区,福島８丁目１６－１０－２０２,,27,103,5530003,,,,,,,2024-09-04,1,,,,,デザイン,0
2317,9120003027466,新規,0,2024-09-04,2024-09-04,合同会社Ｎｏｅｕｌ,,合同会社,大阪府,大阪市北区,梅田１丁目２番２号大阪駅前第２ビル１２‐１２,,27,127,5300001,,,,,,,2024-09-04,1,,,,,ノウル,0
2323,9120101070228,新規,0,2024-09-04,2024-09-04,株式会社ＫＺＭ　ＨＤ,,株式会社,大阪府,岸和田市,箕土路町２丁目１９番２３号,,27,202,5960801,,,,,,,2024-09-04,1,,,,,ケーゼットエムホールディングス,0
2325,9120901049727,新規,0,2024-09-04,2024-09-04,株式会社Ｃｕｔｔｉｎｇ　Ｅｄｇｅ,,株式会社,大阪府,吹田市,片山町１丁目３０－１１－７０３,,27,205,5640082,,,,,,,2024-09-04,1,,,,,カッティングエッジ,0
2327,9120903005323,新規,0,2024-09-04,2024-09-04,ｔｅｅ　ｋｏｇｙｏ合同会社,,合同会社,大阪府,高槻市,登町５４番３８号,,27,207,5690046,,,,,,,2024-09-04,1,,,,,ティーコウギョウ,0
2328,9122001038412,新規,0,2024-09-04,2024-09-04,株式会社弘精工,,株式会社,大阪府,八尾市,楠根町３丁目３５番地の３,,27,212,5810814,,,,,,,2024-09-04,1,,,,,ヒロセイコウ,0
2329,9122001038420,新規,0,2024-09-04,2024-09-04,株式会社ＨＡＬＣＡ,,株式会社,大阪府,東大阪市,六万寺町１丁目１４番９号,,27,227,5798061,,,,,,,2024-09-04,1,,,,,ハルカ,0
2332,9130001077842,新規,0,2024-09-04,2024-09-04,株式会社アーキエムズグループ,,株式会社,京都府,京都市中京区,両替町通御池上る龍池町４４９番地１,,26,104,6048176,,,,,,,2024-09-04,1,,,,,アーキエムズグループ,0
2335,9140001135640,新規,0,2024-09-04,2024-09-04,株式会社Ｓｈｉｎ　Ｓｈｉｎ,,株式会社,兵庫県,神戸市中央区,加納町６丁目３番１－２４０４号,,28,110,6500001,,,,,,,2024-09-04,1,,,,,シンシン,0
2336,9140001135681,新規,0,2024-09-04,2024-09-04,株式会社スペクトラム,,株式会社,兵庫県,神戸市中央区,磯辺通１丁目１番２０号,,28,110,6510084,,,,,,,2024-09-04,1,,,,,スペクトラム,0
2339,9140003021046,新規,0,2024-09-04,2024-09-04,合同会社Ｏ．Ｓ．Ｂ．,,合同会社,兵庫県,神戸市西区,桜が丘東町６丁目１３番地の１０,,28,111,6512225,,,,,,,2024-09-04,1,,,,,オーエスビー,0
2345,9150003003357,新規,0,2024-09-04,2024-09-04,合同会社ぴーす,,合同会社,奈良県,磯城郡田原本町,大字宮森１９９番地の４,,29,363,6360344,,,,,,,2024-09-04,1,,,,,ピース,0
2349,9170001018297,新規,0,2024-09-04,2024-09-04,株式会社リンクオフィスサービス,,株式会社,和歌山県,西牟婁郡白浜町,２９２７番地の２１７５,,30,401,6492211,,,,,,,2024-09-04,1,,,,,リンクオフィスサービス,0
2351,9180001163101,新規,0,2024-09-04,2024-09-04,株式会社大トロテクノロジー,,株式会社,愛知県,名古屋市中村区,名駅４丁目２４番５号,,23,105,4500002,,,,,,,2024-09-04,1,,,,,オオトロテクノロジー,0
2354,9190001031604,新規,0,2024-09-04,2024-09-04,株式会社三玄,,株式会社,三重県,伊勢市,御薗町長屋１３６２番地,,24,203,5160804,,,,,,,2024-09-04,1,,,,,サンゲン,0
2355,9200001042888,新規,0,2024-09-04,2024-09-04,株式会社岩崎熱処理,,株式会社,岐阜県,関市,志津野２２３６番地,,21,205,5013205,,,,,,,2024-09-04,1,,,,,イワサキネツショリ,0
2356,9210001019902,新規,0,2024-09-04,2024-09-04,行雲流水株式会社,,株式会社,福井県,越前市,新在家町第４号１４番地,,18,209,9150232,,,,,,,2024-09-04,1,,,,,コウウンリュウスイ,0
2361,9240001063765,新規,0,2024-09-04,2024-09-04,株式会社ＬＩＡＮ,,株式会社,広島県,東広島市,高屋町桧山８０５番地１,,34,212,7392105,,,,,,,2024-09-04,1,,,,,リアン,0
2366,9240003006838,新規,0,2024-09-04,2024-09-04,合同会社のびしろ,,合同会社,広島県,広島市安芸区,中野５丁目３番４０号３０２号室,,34,107,7390321,,,,,,,2024-09-04,1,,,,,ノビシロ,0
2370,9260001039417,新規,0,2024-09-04,2024-09-04,株式会社近藤会計,,株式会社,岡山県,倉敷市,東町９番１０号（小池ビル２Ｆ）,,33,202,7100053,,,,,,,2024-09-04,1,,,,,コンドウカイケイ,0
2372,9280001009252,新規,0,2024-09-04,2024-09-04,株式会社山工,,株式会社,島根県,益田市,高津４丁目２１番１号,,32,204,6980041,,,,,,,2024-09-04,1,,,,,ヤマコウ,0
2379,9290001106973,新規,0,2024-09-04,2024-09-04,株式会社ユメミル,,株式会社,福岡県,福岡市中央区,高砂２丁目１番４号,,40,133,8100011,,,,,,,2024-09-04,1,,,,,ユメミル,0
2380,9290001107105,新規,0,2024-09-04,2024-09-04,株式会社ＦＵＪＩＴＯＭＯ,,株式会社,福岡県,糸島市,高田５丁目１８番１４号,,40,230,8191102,,,,,,,2024-09-04,1,,,,,フジトモ,0
2381,9290001107113,新規,0,2024-09-04,2024-09-04,株式会社ＬａｎｉＬａｂｏ,,株式会社,福岡県,福岡市博多区,博多駅前１丁目２３番２号ＰａｒｋＦｒｏｎｔ博多駅前１丁目５Ｆ－Ｂ,,40,132,8120011,,,,,,,2024-09-04,1,,,,,ラニラボ,0
2382,9290001107162,新規,0,2024-09-04,2024-09-04,株式会社Ｋｉｎｇｍａｋｅｒ,,株式会社,福岡県,那珂川市,道善４丁目１４番地２１,,40,231,8111254,,,,,,,2024-09-04,1,,,,,キングメーカー,0
2383,9290001107170,新規,0,2024-09-04,2024-09-04,株式会社にしむら,,株式会社,福岡県,福岡市博多区,住吉２丁目１１番１３－１号２階,,40,132,8120018,,,,,,,2024-09-04,1,,,,,ニシムラ,0
2393,9320003004461,新規,0,2024-09-04,2024-09-04,さとこうファーム合同会社,,合同会社,大分県,国東市,国東町田深１６３５番地,,44,214,8730502,,,,,,,2024-09-04,1,,,,,サトコウファーム,0
2396,9330001032430,新規,0,2024-09-04,2024-09-04,株式会社総合建築シベル,,株式会社,熊本県,宇城市,松橋町久具４６３番地２第二亀屋ビル１階,,43,213,8690532,,,,,,,2024-09-04,1,,,,,ソウゴウケンチクシベル,0
2399,9330003010541,新規,0,2024-09-04,2024-09-04,ＧＲＡＮＪＡ　ＦＲＥＳＡ合同会社,,合同会社,熊本県,合志市,幾久富１０４８番地,,43,216,8611112,,,,,,,2024-09-04,1,,,,,グランジャフレッサ,0
2400,9340001026778,新規,0,2024-09-04,2024-09-04,このみ屋ファンド株式会社,,株式会社,鹿児島県,鹿児島市,喜入町３２１番地３,,46,201,8910203,,,,,,,2024-09-04,1,,,,,コノミヤファンド,0
2403,9340003004591,新規,0,2024-09-04,2024-09-04,合同会社青空,,合同会社,鹿児島県,西之表市,西之表３７０３番地,,46,213,8913101,,,,,,,2024-09-04,1,,,,,アオゾラ,0
2406,9360003014275,新規,0,2024-09-04,2024-09-04,合同会社なかみくに萬福商店,,合同会社,沖縄県,島尻郡八重瀬町,字具志頭３８５番地３,,47,362,9010512,,,,,,,2024-09-04,1,,,,,ナカミクニマンプクショウテン,0
2412,9410003003974,新規,0,2024-09-04,2024-09-04,合同会社えがおラボあきた,,合同会社,秋田県,秋田市,飯島穀丁１０番１６号,,05,201,0110916,,,,,,,2024-09-04,1,,,,,,0
2415,9420005007923,新規,0,2024-09-04,2024-09-04,一般社団法人もったいない研究所,,その他の設立登記法人,青森県,北津軽郡鶴田町,大字鶴田字前田１０番地６,,02,384,0383503,,,,,,,2024-09-04,1,,,,,モッタイナイケンキュウジョ,0
2419,9430003016743,新規,0,2024-09-04,2024-09-04,合同会社旭日企画,,合同会社,北海道,札幌市中央区,南十六条西１９丁目２番１５－１３号,,01,101,0640916,,,,,,,2024-09-04,1,,,,,キョクジツキカク,0
2420,9430003016751,新規,0,2024-09-04,2024-09-04,合同会社永井商事,,合同会社,北海道,札幌市白石区,北郷五条３丁目２－３４ローザンハイツ１０２,,01,104,0030835,,,,,,,2024-09-04,1,,,,,ナガイショウジ,0
2421,9440003001620,新規,0,2024-09-04,2024-09-04,合同会社ＭＯＫＡＤＯ,,合同会社,北海道,函館市,日吉町４丁目１‐１‐４０１ビレッジハウス函館１号棟,,01,202,0410841,,,,,,,2024-09-04,1,,,,,モカド,0
2428,9480001012582,新規,0,2024-09-04,2024-09-04,ニューピーク株式会社,,株式会社,徳島県,吉野川市,鴨島町牛島字先須賀ノ三１２０番地２,,36,205,7760001,,,,,,,2024-09-04,1,,,,,ニューピーク,0
2432,9490005006951,新規,0,2024-09-04,2024-09-04,一般社団法人高知県東部まちづくり協会,,その他の設立登記法人,高知県,安芸郡奈半利町,乙１３０５番地１１７,,39,302,7816402,,,,,,,2024-09-04,1,,,,,,0
