sequenceNumber,corporateNumber,process,correct,updateDate,changeDate,name,nameImageId,kind,prefectureName,cityName,streetNumber,addressImageId,prefectureCode,cityCode,postCode,addressOutside,addressOutsideImageId,closeDate,closeCause,successorCorporateNumber,changeCause,assignmentDate,latest,enName,enPrefectureName,enCityName,enAddressOutside,furigana,hihyoji
10,1010001226609,新規,0,2022-05-12,2022-05-12,株式会社ＴｏｃｏＮａｎａ,,株式会社,東京都,中央区,新富１丁目３－４,,13,102,1040041,,,,,,,2022-05-12,1,,,,,トコナナ,0
12,1010003037665,新規,0,2022-05-12,2022-05-12,トレジャード・モーメンツ合同会社,,合同会社,東京都,中央区,日本橋馬喰町１丁目４番３号共栄ビル４階,,13,102,1030002,,,,,,,2022-05-12,1,,,,,トレジャードモーメンツ,0
13,1010005034990,新規,0,2022-05-12,2022-05-12,一般社団法人ＦＰＣ,,その他の設立登記法人,東京都,千代田区,丸の内３丁目１番１号東京共同会計事務所内,,13,101,1000005,,,,,,,2022-05-12,1,,,,,エフピーシー,0
22,1010401167246,新規,0,2022-05-12,2022-05-12,株式会社神子エンターテイメント,,株式会社,東京都,港区,南麻布３丁目９番２０号リフージョ南麻布２０１号室,,13,103,1060047,,,,,,,2022-05-12,1,,,,,カミコエンターテイメント,0
23,1010401167262,新規,0,2022-05-12,2022-05-12,楠木株式会社,,株式会社,東京都,港区,六本木４丁目９番２－８０４号,,13,103,1060032,,,,,,,2022-05-12,1,,,,,クスノキ,0
24,1010405021011,新規,0,2022-05-12,2022-05-12,特定目的会社ツインシティツー,,その他の設立登記法人,東京都,港区,六本木６丁目１０番１号六本木ヒルズ森タワー,,13,103,1060032,,,,,,,2022-05-12,1,,,,,ツインシティツー,0
28,1010601061125,新規,0,2022-05-12,2022-05-12,株式会社ヤマダ空調設備,,株式会社,東京都,墨田区,業平２丁目１９番１０号,,13,107,1300002,,,,,,,2022-05-12,1,,,,,ヤマダクウチョウセツビ,0
30,1010703006234,新規,0,2022-05-12,2022-05-12,合同会社ビックマウス,,合同会社,東京都,品川区,東品川１丁目２８－１１－３１２,,13,109,1400002,,,,,,,2022-05-12,1,,,,,ビックマウス,0
45,1011001147448,新規,0,2022-05-12,2022-05-12,株式会社トリプルウィン・マネジメント,,株式会社,東京都,目黒区,柿の木坂２丁目１９番７号,,13,110,1520022,,,,,,,2022-05-12,1,,,,,トリプルウィンマネジメント,0
46,1011001147464,新規,0,2022-05-12,2022-05-12,株式会社ＴＯＰＯＳＴＯＰＯＳ,,株式会社,東京都,渋谷区,道玄坂１丁目１０番８号渋谷道玄坂東急ビル２Ｆ－Ｃ,,13,113,1500043,,,,,,,2022-05-12,1,,,,,トポストポス,0
52,1011103011741,新規,0,2022-05-12,2022-05-12,ＲＹＯＺＥＮ　ＰＲＯ合同会社,,合同会社,東京都,新宿区,西新宿３丁目３番１３号西新宿水間ビル６Ｆ,,13,104,1600023,,,,,,,2022-05-12,1,,,,,リョーゼンプロ,0
53,1011105010254,新規,0,2022-05-12,2022-05-12,一般社団法人量子技術による新産業創出協議会,,その他の設立登記法人,東京都,新宿区,箪笥町４３番地新神楽坂ビル２階,,13,104,1620833,,,,,,,2022-05-12,1,,,,,リョウシギジュツニヨルシンサンギョウソウシュツキョウギカイ,0
61,1011703003139,新規,0,2022-05-12,2022-05-12,合同会社ミヤ企画,,合同会社,東京都,江戸川区,鹿骨３丁目１５番１４号,,13,123,1330073,,,,,,,2022-05-12,1,,,,,ミヤキカク,0
89,1020001146491,新規,0,2022-05-12,2022-05-12,株式会社アフィットホーム,,株式会社,神奈川県,横浜市中区,長者町６丁目９４番地,,14,104,2310033,,,,,,,2022-05-12,1,,,,,アフィットホーム,0
96,1020005015528,新規,0,2022-05-12,2022-05-12,一般社団法人日本ヘアソリューション協会,,その他の設立登記法人,神奈川県,横浜市中区,長者町５丁目８５番地,,14,104,2310033,,,,,,,2022-05-12,1,,,,,ニホンヘアソリューションキョウカイ,0
100,1021001075920,新規,0,2022-05-12,2022-05-12,心氣流株式会社,,株式会社,神奈川県,三浦郡葉山町,一色１００１番地の１ロータスヒル葉山３０３,,14,301,2400111,,,,,,,2022-05-12,1,,,,,シンキリュウ,0
101,1021001075929,新規,0,2022-05-12,2022-05-12,株式会社アカラ,,株式会社,神奈川県,伊勢原市,上粕屋２９８番地,,14,214,2591141,,,,,,,2022-05-12,1,,,,,アカラ,0
102,1021001075953,新規,0,2022-05-12,2022-05-12,株式会社鉄板中田,,株式会社,神奈川県,綾瀬市,上土棚北５丁目１番３４号,,14,218,2521111,,,,,,,2022-05-12,1,,,,,テッパンナカタ,0
107,1021003011691,新規,0,2022-05-12,2022-05-12,合同会社Ｃａｎｏｓｓａ,,合同会社,神奈川県,逗子市,桜山９丁目２番４０号,,14,208,2490005,,,,,,,2022-05-12,1,,,,,カノッサ,0
110,1030001148181,新規,0,2022-05-12,2022-05-12,株式会社ｂｌｅｓｓｉｎｇ　ＣＯＤＡ,,株式会社,埼玉県,東松山市,美土里町４番１４号,,11,212,3550027,,,,,,,2022-05-12,1,,,,,ブレッシングコーダ,0
115,1030003019380,新規,0,2022-05-12,2022-05-12,Ｉｃｏｎ合同会社,,合同会社,埼玉県,川口市,西青木５丁目５番６－１０１号コープ野村青木町公園,,11,203,3320035,,,,,,,2022-05-12,1,,,,,アイコン,0
116,1030003019389,新規,0,2022-05-12,2022-05-12,ディエス合同会社,,合同会社,埼玉県,戸田市,笹目南町１２番１７号,,11,224,3350035,,,,,,,2022-05-12,1,,,,,ディエス,0
119,1040001123324,新規,0,2022-05-12,2022-05-12,ＦＣデッキ株式会社,,株式会社,千葉県,習志野市,本大久保５丁目８番１８号,,12,216,2750012,,,,,,,2022-05-12,1,,,,,エフシーデッキ,0
120,1040001123332,新規,0,2022-05-12,2022-05-12,株式会社信工カラーアートデザイン,,株式会社,千葉県,旭市,川口１７１６番地１,,12,215,2892535,,,,,,,2022-05-12,1,,,,,シンコウカラーアートデザイン,0
121,1040001123357,新規,0,2022-05-12,2022-05-12,株式会社ＬＥＡＰ,,株式会社,千葉県,東金市,田間１５２番地１ダイアパレス千葉東金１０５,,12,213,2830005,,,,,,,2022-05-12,1,,,,,リープ,0
124,1040003020008,新規,0,2022-05-12,2022-05-12,トライスター合同会社,,合同会社,千葉県,習志野市,花咲２丁目８番９号,,12,216,2750013,,,,,,,2022-05-12,1,,,,,トライスター,0
127,1050001051061,新規,0,2022-05-12,2022-05-12,株式会社ＡＪ　ＧＲＯＵＰホールディングス,,株式会社,茨城県,常総市,水海道森下町４３９４番地,,08,211,3030005,,,,,,,2022-05-12,1,,,,,エイジェイグループホールディングス,0
131,1060001034866,新規,0,2022-05-12,2022-05-12,株式会社Ｋａｒｎ,,株式会社,栃木県,佐野市,相生町２５番地２,,09,204,3270023,,,,,,,2022-05-12,1,,,,,カーン,0
133,1070001039212,新規,0,2022-05-12,2022-05-12,ティーアイテック株式会社,,株式会社,群馬県,伊勢崎市,宗高町６３番地１オリーブアネックスＡ２０１,,10,204,3720053,,,,,,,2022-05-12,1,,,,,ティーアイテック,0
134,1080001024931,新規,0,2022-05-12,2022-05-12,ＴＨ建設株式会社,,株式会社,静岡県,静岡市葵区,東鷹匠町１８番地の３,,22,101,4200833,,,,,,,2022-05-12,1,,,,,ティーエイチケンセツ,0
142,1100003006545,新規,0,2022-05-12,2022-05-12,Ｎｏｒｔｈ　Ｌａｋｅ　Ｃｏｌｌｅｇｅ合同会社,,合同会社,長野県,上水内郡信濃町,大字柏原１６０４－２,,20,583,3891305,,,,,,,2022-05-12,1,,,,,ノースレークカレッジ,0
154,1120001245837,新規,0,2022-05-12,2022-05-12,株式会社ｉｒｏ,,株式会社,大阪府,大阪市淀川区,木川西３丁目３番１２号,,27,123,5320013,,,,,,,2022-05-12,1,,,,,イロ,0
157,1120003021666,新規,0,2022-05-12,2022-05-12,ＡＫＫＡ合同会社,,合同会社,大阪府,大阪市中央区,西心斎橋２丁目１０番１０号,,27,128,5420086,,,,,,,2022-05-12,1,,,,,アッカ,0
159,1120101065573,新規,0,2022-05-12,2022-05-12,ＡＲＬＹ株式会社,,株式会社,大阪府,松原市,東新町３丁目５番１７－７０７号,,27,217,5800024,,,,,,,2022-05-12,1,,,,,エーアールエルワイ,0
161,1120903004142,新規,0,2022-05-12,2022-05-12,合同会社ＤＲ,,合同会社,大阪府,高槻市,富田町３丁目１４番３号,,27,207,5690814,,,,,,,2022-05-12,1,,,,,ディーアール,0
168,1130001071745,新規,0,2022-05-12,2022-05-12,株式会社アクアコーポレーション,,株式会社,京都府,京都市右京区,太秦中筋町１２番地グランビュー太秦２号室,,26,108,6168184,,,,,,,2022-05-12,1,,,,,アクアコーポレーション,0
171,1130005016449,新規,0,2022-05-12,2022-05-12,特定非営利活動法人京都子育て応援団,,その他の設立登記法人,京都府,向日市,寺戸町西田中瀬８番地の１９,,26,208,6170002,,,,,,,2022-05-12,1,,,,,キョウトコソダテオウエンダン,0
172,1140001125921,新規,0,2022-05-12,2022-05-12,株式会社ＤＡＶＡＲＳ,,株式会社,兵庫県,西宮市,今津水波町１番２８号,,28,204,6638215,,,,,,,2022-05-12,1,,,,,ダバーズ,0
173,1140001125938,新規,0,2022-05-12,2022-05-12,株式会社Ｈｅａｒｔ　Ｂｒｉｄｇｅ,,株式会社,兵庫県,尼崎市,潮江１丁目４番２－２００３号,,28,202,6610976,,,,,,,2022-05-12,1,,,,,ハートブリッジ,0
174,1140001125946,新規,0,2022-05-12,2022-05-12,株式会社ファースト,,株式会社,兵庫県,西宮市,本町１２番７号ゴールドウッズ５Ｆ,,28,204,6620914,,,,,,,2022-05-12,1,,,,,ファースト,0
175,1140001125954,新規,0,2022-05-12,2022-05-12,株式会社ＲＲＲ,,株式会社,兵庫県,神戸市東灘区,魚崎南町３丁目２番３号,,28,101,6580025,,,,,,,2022-05-12,1,,,,,トリプルアール,0
181,1140003017670,新規,0,2022-05-12,2022-05-12,ｍｕｉｔｏｂｏｍ合同会社,,合同会社,兵庫県,西宮市,広田町１２番１９号,,28,204,6620837,,,,,,,2022-05-12,1,,,,,ムイトボン,0
182,1150001025534,新規,0,2022-05-12,2022-05-12,株式会社亀本鉄工,,株式会社,奈良県,桜井市,大字浅古９５－４フォーチュネイト朝日Ｂ１０３,,29,206,6330052,,,,,,,2022-05-12,1,,,,,カメモトテッコウ,0
194,1180001151179,新規,0,2022-05-12,2022-05-12,株式会社サンエイト,,株式会社,愛知県,名古屋市昭和区,荒田町１丁目２５番地の２,,23,107,4660844,,,,,,,2022-05-12,1,,,,,サンエイト,0
195,1180001151187,新規,0,2022-05-12,2022-05-12,株式会社ロネット,,株式会社,愛知県,小牧市,大字上末３４５０番地７１８,,23,219,4850822,,,,,,,2022-05-12,1,,,,,ロネット,0
196,1180001151220,新規,0,2022-05-12,2022-05-12,株式会社ＮＫ,,株式会社,愛知県,名古屋市港区,川間町２丁目４１番地,,23,111,4550076,,,,,,,2022-05-12,1,,,,,エヌケイ,0
197,1180001151278,新規,0,2022-05-12,2022-05-12,株式会社ステラ,,株式会社,愛知県,名古屋市昭和区,隼人町８番地１８,,23,107,4660833,,,,,,,2022-05-12,1,,,,,ステラ,0
198,1180001151303,新規,0,2022-05-12,2022-05-12,株式会社丸一,,株式会社,愛知県,名古屋市北区,落合町２８２番地２,,23,103,4620017,,,,,,,2022-05-12,1,,,,,マルイチ,0
202,1180003023814,新規,0,2022-05-12,2022-05-12,合同会社Ｏｗｌ,,合同会社,愛知県,春日井市,勝川町７丁目３７番地,,23,206,4860945,,,,,,,2022-05-12,1,,,,,アウル,0
203,1180003023830,新規,0,2022-05-12,2022-05-12,合同会社春の陽,,合同会社,愛知県,名古屋市西区,枇杷島３丁目３１番１０号,,23,104,4510053,,,,,,,2022-05-12,1,,,,,ハルノヒ,0
205,1180301036220,新規,0,2022-05-12,2022-05-12,株式会社トータルサービスＵＩ,,株式会社,愛知県,岡崎市,細川町字長原７０番地２,,23,202,4442149,,,,,,,2022-05-12,1,,,,,トータルサービスユーアイ,0
209,1190001029382,新規,0,2022-05-12,2022-05-12,株式会社ドラフティング,,株式会社,三重県,鈴鹿市,阿古曽町２８番１３号,,24,207,5130828,,,,,,,2022-05-12,1,,,,,ドラフティング,0
221,1240001059746,新規,0,2022-05-12,2022-05-12,株式会社広島三井トータルサービス,,株式会社,広島県,安芸郡府中町,茂陰１丁目１０番２３－８０４号,,34,302,7350029,,,,,,,2022-05-12,1,,,,,ヒロシマミツイトータルサービス,0
222,1240001059779,新規,0,2022-05-12,2022-05-12,株式会社はじめビル,,株式会社,広島県,広島市中区,富士見町８番２６号,,34,101,7300043,,,,,,,2022-05-12,1,,,,,ハジメビル,0
229,1250001019542,新規,0,2022-05-12,2022-05-12,株式会社樹工務店,,株式会社,山口県,周南市,大字須々万本郷３３３番地の１９,,35,215,7450122,,,,,,,2022-05-12,1,,,,,イツキコウムテン,0
230,1260003003907,新規,0,2022-05-12,2022-05-12,合同会社ＩＴＯ,,合同会社,岡山県,岡山市北区,平野５１０－４,,33,101,7010151,,,,,,,2022-05-12,1,,,,,イト,0
240,1290001097502,新規,0,2022-05-12,2022-05-12,起業支援株式会社,,株式会社,福岡県,福岡市中央区,天神２丁目３番１０号天神パインクレスト７１９号,,40,133,8100001,,,,,,,2022-05-12,1,,,,,キギョウシエン,0
255,1340001024707,新規,0,2022-05-12,2022-05-12,株式会社ＳＡＮＺＥＮ,,株式会社,鹿児島県,鹿児島市,玉里団地２丁目１８番８－２号,,46,201,8920811,,,,,,,2022-05-12,1,,,,,サンゼン,0
258,1360005006641,新規,0,2022-05-12,2022-05-12,一般社団法人Ｃａｒｅｅｒ　Ｄｅｓｉｇｎ　Ｏｋｉｎａｗａ,,その他の設立登記法人,沖縄県,那覇市,おもろまち３丁目５番１－３０６号ソレイユ・ルヴァン公園前,,47,201,9000006,,,,,,,2022-05-12,1,,,,,,0
271,1380003005172,新規,0,2022-05-12,2022-05-12,合同会社ＭＡＯＴＯ,,合同会社,福島県,いわき市,平字白銀町８番地８サンシャインホテル１Ｆ－Ａ号,,07,204,9708026,,,,,,,2022-05-12,1,,,,,マオト,0
274,1390001016880,新規,0,2022-05-12,2022-05-12,縁徳工業株式会社,,株式会社,山形県,鶴岡市,文下字沼田６６番地５,,06,203,9970003,,,,,,,2022-05-12,1,,,,,エントクコウギョウ,0
275,1390003001955,新規,0,2022-05-12,2022-05-12,合同会社ＳＯＬ,,合同会社,山形県,上山市,高野字高野原２１３‐７,,06,207,9993115,,,,,,,2022-05-12,1,,,,,ソル,0
277,1400001015880,新規,0,2022-05-12,2022-05-12,株式会社新正堂,,株式会社,岩手県,八幡平市,平舘第２８地割１９２番地４,,03,214,0287405,,,,,,,2022-05-12,1,,,,,シンセイドウ,0
280,1420001017842,新規,0,2022-05-12,2022-05-12,ラッキー運輸ホールディング株式会社,,株式会社,青森県,弘前市,大字一町田字早稲田８６３番地,,02,202,0361325,,,,,,,2022-05-12,1,,,,,ラッキーウンユホールディング,0
287,1430001086564,新規,0,2022-05-12,2022-05-12,エス・ポイント株式会社,,株式会社,北海道,札幌市北区,北三十七条西４丁目３番１２号,,01,102,0010037,,,,,,,2022-05-12,1,,,,,エスポイント,0
289,1460001005694,新規,0,2022-05-12,2022-05-12,藤城建設株式会社,,株式会社,北海道,釧路市,星が浦北１丁目３番５号,,01,206,0840911,,,,,,,2022-05-12,1,,,,,フジシロケンセツ,0
291,1470001019074,新規,0,2022-05-12,2022-05-12,バード株式会社,,株式会社,香川県,善通寺市,上吉田町４丁目９番４３号,,37,204,7650011,,,,,,,2022-05-12,1,,,,,バード,0
310,2010001226582,新規,0,2022-05-12,2022-05-12,株式会社トビウメ,,株式会社,東京都,千代田区,外神田４丁目７番２号,,13,101,1010021,,,,,,,2022-05-12,1,,,,,トビウメ,0
323,2010401167121,新規,0,2022-05-12,2022-05-12,株式会社あん,,株式会社,東京都,港区,赤坂７丁目６番２号白洲ビル２階,,13,103,1070052,,,,,,,2022-05-12,1,,,,,アン,0
324,2010401167278,新規,0,2022-05-12,2022-05-12,ＡＵＲＯＲＡ　ＤＥＳＩＧＮ株式会社,,株式会社,東京都,港区,六本木６丁目１２番２－３１０１号,,13,103,1060032,,,,,,,2022-05-12,1,,,,,オーロラデザイン,0
325,2010401167286,新規,0,2022-05-12,2022-05-12,株式会社エンターメイクプロモーション,,株式会社,東京都,港区,浜松町２丁目２番１５号浜松町ダイヤビル２Ｆ,,13,103,1050013,,,,,,,2022-05-12,1,,,,,エンターメイクプロモーション,0
331,2010403027629,新規,0,2022-05-12,2022-05-12,合同会社ｆｕｌｕｎａ,,合同会社,東京都,港区,新橋２丁目１６番１号ニュー新橋ビル７Ｆ,,13,103,1050004,,,,,,,2022-05-12,1,,,,,フルーナ,0
333,2010405020961,新規,0,2022-05-12,2022-05-12,一般社団法人デジタルワークママ協会,,その他の設立登記法人,東京都,港区,浜松町２丁目２番１５号浜松町ダイヤビル２Ｆ,,13,103,1050013,,,,,,,2022-05-12,1,,,,,デジタルワークママキョウカイ,0
334,2010405021010,新規,0,2022-05-12,2022-05-12,特定目的会社ツインシティワン,,その他の設立登記法人,東京都,港区,六本木６丁目１０番１号六本木ヒルズ森タワー,,13,103,1060032,,,,,,,2022-05-12,1,,,,,ツインシティワン,0
337,2010501048808,新規,0,2022-05-12,2022-05-12,株式会社テクノコア,,株式会社,東京都,台東区,雷門２丁目６番１号雷門ミハマビル３Ｆ,,13,106,1110034,,,,,,,2022-05-12,1,,,,,テクノコア,0
338,2010501048824,新規,0,2022-05-12,2022-05-12,株式会社浅餉,,株式会社,東京都,台東区,駒形２丁目１－５－１階,,13,106,1110043,,,,,,,2022-05-12,1,,,,,アサゲ,0
339,2010601061140,新規,0,2022-05-12,2022-05-12,ウェルカオス株式会社,,株式会社,東京都,墨田区,江東橋２丁目９番５－２５０６号,,13,107,1300022,,,,,,,2022-05-12,1,,,,,ウェルカオス,0
343,2010701042635,新規,0,2022-05-12,2022-05-12,株式会社Ｌｉｖｅ　ｈａｐｐｉｌｙ,,株式会社,東京都,品川区,西五反田２丁目２９番１０号,,13,109,1410031,,,,,,,2022-05-12,1,,,,,リブハピリー,0
345,2010703006233,新規,0,2022-05-12,2022-05-12,ＴＰＬｉｎｋｓ合同会社,,合同会社,東京都,品川区,小山４丁目４番１７号グリーンパレスナカムラ１階,,13,109,1420062,,,,,,,2022-05-12,1,,,,,ティーピーリンクス,0
353,2011001147447,新規,0,2022-05-12,2022-05-12,ココミールコーポレーション株式会社,,株式会社,東京都,渋谷区,恵比寿西２丁目４番８号,,13,113,1500021,,,,,,,2022-05-12,1,,,,,ココミールコーポレーション,0
354,2011001147455,新規,0,2022-05-12,2022-05-12,株式会社ＲＡＭＰ,,株式会社,東京都,渋谷区,渋谷３丁目６番２０号第５矢木ビル５Ｆ,,13,113,1500002,,,,,,,2022-05-12,1,,,,,ランプ,0
355,2011001147463,新規,0,2022-05-12,2022-05-12,株式会社ｉＣａｒｅｔ,,株式会社,東京都,渋谷区,神宮前６丁目２３番４号桑野ビル２階,,13,113,1500001,,,,,,,2022-05-12,1,,,,,アイカレット,0
356,2011001147496,新規,0,2022-05-12,2022-05-12,株式会社ＤＡＮＣＩＮＧ　ＢＯＮＩＴＯ,,株式会社,東京都,渋谷区,神宮前６丁目２３番４号桑野ビル２階,,13,113,1500001,,,,,,,2022-05-12,1,,,,,ダンシングボニート,0
359,2011003014645,新規,0,2022-05-12,2022-05-12,合同会社シンアクト,,合同会社,東京都,渋谷区,道玄坂２丁目１５番１号,,13,113,1500043,,,,,,,2022-05-12,1,,,,,シンアクト,0
360,2011003014678,新規,0,2022-05-12,2022-05-12,合同会社ＫＲＥＷＬＡ,,合同会社,東京都,渋谷区,神宮前６丁目２３－４桑野ビル２階,,13,113,1500001,,,,,,,2022-05-12,1,,,,,クルーラ,0
362,2011105010253,新規,0,2022-05-12,2022-05-12,一般社団法人澄寿,,その他の設立登記法人,東京都,新宿区,西新宿７丁目２番５号ＴＨ西新宿ビル８階,,13,104,1600023,,,,,,,2022-05-12,1,,,,,スミトシ,0
370,2011503005160,新規,0,2022-05-12,2022-05-12,合同会社１４１３,,合同会社,東京都,北区,王子５丁目２２番１号,,13,117,1140002,,,,,,,2022-05-12,1,,,,,ワンフォーサーティーン,0
376,2011803005083,新規,0,2022-05-12,2022-05-12,合同会社キングオブイガチャン,,合同会社,東京都,葛飾区,西新小岩５丁目２５番１８号Ｒｅｇｕｌｕｓ２０２,,13,122,1240025,,,,,,,2022-05-12,1,,,,,キングオブイガチャン,0
377,2011805003176,新規,0,2022-05-12,2022-05-12,一般社団法人Ｐｌａｔｉｎｕｍ　Ａｃａｄｅｍｙ　ＢＡＳＥ,,その他の設立登記法人,東京都,足立区,古千谷本町３丁目４番７－１０４号,,13,121,1210832,,,,,,,2022-05-12,1,,,,,プラチナアカデミーベース,0
400,2020001146458,新規,0,2022-05-12,2022-05-12,株式会社ＤＯＲＡＫＵ,,株式会社,神奈川県,横浜市戸塚区,東俣野町１２０７番地の３,,14,110,2450065,,,,,,,2022-05-12,1,,,,,ドラク,0
401,2020001146482,新規,0,2022-05-12,2022-05-12,株式会社ゼラスエステート,,株式会社,神奈川県,横浜市旭区,中希望が丘１６番地２１,,14,112,2410825,,,,,,,2022-05-12,1,,,,,ゼラスエステート,0
406,2020003021758,新規,0,2022-05-12,2022-05-12,合同会社ＤＡＩＦＵＫＵ,,合同会社,神奈川県,横浜市戸塚区,川上町５４９番地６,,14,110,2440805,,,,,,,2022-05-12,1,,,,,ダイフク,0
408,2020005015527,新規,0,2022-05-12,2022-05-12,林小野木税理士法人,,その他の設立登記法人,神奈川県,横浜市青葉区,藤が丘２丁目３６番６５号グリーンヒル藤が丘Ｃ１０３,,14,117,2270043,,,,,,,2022-05-12,1,,,,,ハヤシオノギ,0
412,2021001075886,新規,0,2022-05-12,2022-05-12,ＮＥ株式会社,,株式会社,神奈川県,小田原市,栄町２丁目１２番１０号ＳｑｕａｒｅＯ２,,14,206,2500011,,,,,,,2022-05-12,1,,,,,エヌイー,0
413,2021001075952,新規,0,2022-05-12,2022-05-12,株式会社Ｍｉｏ　Ｔｉｉｄａ,,株式会社,神奈川県,藤沢市,鵠沼海岸５丁目４番２９～２号,,14,205,2510037,,,,,,,2022-05-12,1,,,,,ミオティーダ,0
422,2040001123307,新規,0,2022-05-12,2022-05-12,株式会社７ピクチャー,,株式会社,千葉県,東金市,押堀１２１４番地,,12,213,2830065,,,,,,,2022-05-12,1,,,,,セブンピクチャー,0
423,2040001123315,新規,0,2022-05-12,2022-05-12,株式会社ＳＴＥ,,株式会社,千葉県,銚子市,小浜町２６３５番地の５,,12,202,2880821,,,,,,,2022-05-12,1,,,,,エスティーイー,0
424,2040001123323,新規,0,2022-05-12,2022-05-12,株式会社ＴＨＭ,,株式会社,千葉県,市川市,原木４丁目１５番１２号,,12,203,2720004,,,,,,,2022-05-12,1,,,,,ティーエイチエム,0
425,2040001123389,新規,0,2022-05-12,2022-05-12,ライク株式会社,,株式会社,千葉県,流山市,西初石４丁目１１２番地の１１０グランディヴィラおおたかの森１０２,,12,220,2700121,,,,,,,2022-05-12,1,,,,,ライク,0
430,2040003019957,新規,0,2022-05-12,2022-05-12,福原建築合同会社,,合同会社,千葉県,千葉市花見川区,こてはし台６丁目２７番１８号,,12,102,2620005,,,,,,,2022-05-12,1,,,,,フクハラケンチク,0
431,2040005021614,新規,0,2022-05-12,2022-05-12,医療法人社団栄希会,,その他の設立登記法人,千葉県,市川市,市川南１丁目８番６－３１０号ＹＳＤビル,,12,203,2720033,,,,,,,2022-05-12,1,,,,,エイキカイ,0
438,2050003006558,新規,0,2022-05-12,2022-05-12,合同会社ダイナリジー,,合同会社,茨城県,水戸市,島田町６９,,08,201,3111121,,,,,,,2022-05-12,1,,,,,ダイナリジー,0
442,2070001039211,新規,0,2022-05-12,2022-05-12,株式会社ＣｙｂｅｒＣｏｎｎｅｃｔ,,株式会社,群馬県,館林市,大島町５０３番地７,,10,207,3740001,,,,,,,2022-05-12,1,,,,,サイバーコネクト,0
443,2070003004485,新規,0,2022-05-12,2022-05-12,合同会社群馬ユニバーサルリムジン,,合同会社,群馬県,前橋市,元総社町８４４番地,,10,201,3710846,,,,,,,2022-05-12,1,,,,,グンマユニバーサルリムジン,0
445,2080001024930,新規,0,2022-05-12,2022-05-12,Ｔ‐スマイル株式会社,,株式会社,静岡県,焼津市,駅北２丁目７番１４号チサンマンション焼津１００２号,,22,212,4250028,,,,,,,2022-05-12,1,,,,,ティースマイル,0
449,2080101023287,新規,0,2022-05-12,2022-05-12,株式会社銀牙運送,,株式会社,静岡県,裾野市,千福が丘２丁目２番１０,,22,220,4101115,,,,,,,2022-05-12,1,,,,,ギンガウンソウ,0
456,2100005012870,新規,0,2022-05-12,2022-05-12,特定非営利活動法人骨髄バンク長野ひまわりの会,,その他の設立登記法人,長野県,諏訪市,清水１丁目２－１８クレストハイツ清水１０２号,,20,206,3920007,,,,,,,2022-05-12,1,,,,,コツズイバンクナガノヒマワリノカイ,0
476,2120003021657,新規,0,2022-05-12,2022-05-12,ＮＱＮ合同会社,,合同会社,大阪府,大阪市西成区,鶴見橋３丁目４番２２号,,27,122,5570031,,,,,,,2022-05-12,1,,,,,エヌキューエヌ,0
477,2120005022942,新規,0,2022-05-12,2022-05-12,ＡＬＰＳ税理士法人,,その他の設立登記法人,大阪府,大阪市中央区,北浜３丁目２番２５号京阪淀屋橋ビル８Ｆ,,27,128,5410041,,,,,,,2022-05-12,1,,,,,アルプス,0
478,2120101065556,新規,0,2022-05-12,2022-05-12,株式会社片木塗建,,株式会社,大阪府,泉南市,信達市場２７３８番地の４５,,27,228,5900504,,,,,,,2022-05-12,1,,,,,カタギトケン,0
479,2120101065572,新規,0,2022-05-12,2022-05-12,不動産インフォメーション株式会社,,株式会社,大阪府,堺市北区,金岡町３０２６番地１２－３０２号,,27,146,5918022,,,,,,,2022-05-12,1,,,,,フドウサンインフォメーション,0
483,2120103004685,新規,0,2022-05-12,2022-05-12,合同会社松本自動車,,合同会社,大阪府,堺市北区,中百舌鳥町６丁９９５番地,,27,146,5918023,,,,,,,2022-05-12,1,,,,,マツモトジドウシャ,0
487,2120901045963,新規,0,2022-05-12,2022-05-12,株式会社ＳＴＩＬＬＡ,,株式会社,大阪府,吹田市,豊津町９番２２号６階,,27,205,5640051,,,,,,,2022-05-12,1,,,,,スティラ,0
498,2130001071711,新規,0,2022-05-12,2022-05-12,株式会社百花,,株式会社,京都府,京都市南区,吉祥院嶋野間詰町４４番地,,26,107,6018363,,,,,,,2022-05-12,1,,,,,ヒャッカ,0
499,2130001071760,新規,0,2022-05-12,2022-05-12,株式会社ことつづり,,株式会社,京都府,京都市下京区,東洞院通七条上る飴屋町２３８番地１エスリード京都駅前３０２号,,26,106,6008148,,,,,,,2022-05-12,1,,,,,コトツヅリ,0
502,2130005016464,新規,0,2022-05-12,2022-05-12,ＮＰＯ法人Ａ‐ｆｒａｍｅ,,その他の設立登記法人,京都府,八幡市,内里東山川７２－２,,26,210,6148244,,,,,,,2022-05-12,1,,,,,エーフレイム,0
503,2140001125920,新規,0,2022-05-12,2022-05-12,株式会社ＫＲＳＳ,,株式会社,兵庫県,神戸市北区,泉台１丁目１１－３,,28,109,6511141,,,,,,,2022-05-12,1,,,,,ケイアールエスエス,0
504,2140001125945,新規,0,2022-05-12,2022-05-12,株式会社ゆう,,株式会社,兵庫県,神戸市兵庫区,水木通１０丁目２番１５号,,28,105,6520802,,,,,,,2022-05-12,1,,,,,ユウ,0
505,2140001125961,新規,0,2022-05-12,2022-05-12,株式会社アキラッチ,,株式会社,兵庫県,神戸市垂水区,塩屋町３丁目２３番５号,,28,108,6550872,,,,,,,2022-05-12,1,,,,,アキラッチ,0
509,2150001025533,新規,0,2022-05-12,2022-05-12,株式会社リスタートライフ,,株式会社,奈良県,橿原市,太田市町１５５番地の７,,29,205,6340001,,,,,,,2022-05-12,1,,,,,リスタートライフ,0
510,2150003002679,新規,0,2022-05-12,2022-05-12,合同会社ぶんばん,,合同会社,奈良県,天理市,杣之内町１２６０番地,,29,204,6320032,,,,,,,2022-05-12,1,,,,,ブンバン,0
511,2160001024195,新規,0,2022-05-12,2022-05-12,株式会社ハウスＬＡＢＯ,,株式会社,滋賀県,大津市,山上町２０番１－１１６号,,25,201,5200038,,,,,,,2022-05-12,1,,,,,ハウスラボ,0
515,2170003001720,新規,0,2022-05-12,2022-05-12,合同会社ＵＴＡＧＥ,,合同会社,和歌山県,紀の川市,西大井１４３番地６,,30,208,6496417,,,,,,,2022-05-12,1,,,,,ウタゲ,0
529,2200001040072,新規,0,2022-05-12,2022-05-12,パクイタリアインターナショナル株式会社,,株式会社,岐阜県,羽島郡岐南町,平島５丁目５９プリート田園２０６号室,,21,302,5016003,,,,,,,2022-05-12,1,,,,,パクイタリアインターナショナル,0
530,2200003005560,新規,0,2022-05-12,2022-05-12,合同会社ｅｎ‐ｓｔｕｄｉｏ,,合同会社,岐阜県,安八郡輪之内町,楡俣１７３５番地の１,,21,382,5030201,,,,,,,2022-05-12,1,,,,,エンスタジオ,0
537,2250001019541,新規,0,2022-05-12,2022-05-12,株式会社中商,,株式会社,山口県,周南市,清水１丁目３番２号,,35,215,7460015,,,,,,,2022-05-12,1,,,,,ナカショウ,0
538,2250001019558,新規,0,2022-05-12,2022-05-12,ＡＩＯクリエイト株式会社,,株式会社,山口県,山口市,秋穂東７６４番地１,,35,203,7541101,,,,,,,2022-05-12,1,,,,,アイオクリエイト,0
547,2290001097518,新規,0,2022-05-12,2022-05-12,スリエス株式会社,,株式会社,福岡県,糟屋郡宇美町,原田３丁目３１番１７号,,40,341,8112132,,,,,,,2022-05-12,1,,,,,スリエス,0
549,2290003012458,新規,0,2022-05-12,2022-05-12,合同会社ＡＳＡＨＩ,,合同会社,福岡県,福岡市南区,大橋３丁目２４－３フェニックス大橋南３０３,,40,134,8150033,,,,,,,2022-05-12,1,,,,,アサヒ,0
550,2290005018676,新規,0,2022-05-12,2022-05-12,ＮＰＯ法人海のゆりかご,,その他の設立登記法人,福岡県,福岡市西区,横浜３丁目２４番１９号,,40,135,8190366,,,,,,,2022-05-12,1,,,,,ウミノユリカゴ,0
552,2310001017836,新規,0,2022-05-12,2022-05-12,ＫＩＧＡＥ株式会社,,株式会社,長崎県,東彼杵郡波佐見町,折敷瀬郷４４１番地３,,42,323,8593701,,,,,,,2022-05-12,1,,,,,キガエ,0
553,2310003004361,新規,0,2022-05-12,2022-05-12,合同会社朝さんぽ,,合同会社,長崎県,雲仙市,千々石町甲２４４番地６,,42,213,8540401,,,,,,,2022-05-12,1,,,,,アササンポ,0
581,2430001086547,新規,0,2022-05-12,2022-05-12,株式会社クロシェット,,株式会社,北海道,札幌市西区,西野九条６丁目１１番７号,,01,107,0630039,,,,,,,2022-05-12,1,,,,,クロシェット,0
582,2430001086571,新規,0,2022-05-12,2022-05-12,株式会社ファミリーホームサポート,,株式会社,北海道,札幌市北区,太平十二条４丁目８番１３号,,01,102,0028012,,,,,,,2022-05-12,1,,,,,ファミリーホームサポート,0
585,2430003013879,新規,0,2022-05-12,2022-05-12,合同会社ｐｒｏｄｕｃｅｒ,,合同会社,北海道,勇払郡厚真町,字厚和７８番地,,01,581,0591748,,,,,,,2022-05-12,1,,,,,プロデューサー,0
586,2440005002722,新規,0,2022-05-12,2022-05-12,一般社団法人リペア・テック,,その他の設立登記法人,北海道,函館市,万代町１番１号,,01,202,0400075,,,,,,,2022-05-12,1,,,,,リペアテック,0
609,3010001226359,新規,0,2022-05-12,2022-05-12,株式会社サエキコーポレーション,,株式会社,東京都,千代田区,神田神保町２丁目１０番２４号１０５号室,,13,101,1010051,,,,,,,2022-05-12,1,,,,,サエキコーポレーション,0
610,3010001226375,新規,0,2022-05-12,2022-05-12,株式会社セレクトエージェント,,株式会社,東京都,千代田区,岩本町２丁目５－８パテルコート神田岩本町３０１号室,,13,101,1010032,,,,,,,2022-05-12,1,,,,,セレクトエージェント,0
616,3010003037655,新規,0,2022-05-12,2022-05-12,合同会社ｍｅａｄｏｗ,,合同会社,東京都,千代田区,飯田橋２丁目１６－２塚本ビル３Ｆ,,13,101,1020072,,,,,,,2022-05-12,1,,,,,メドウ,0
618,3010005034989,新規,0,2022-05-12,2022-05-12,特定目的会社ジュゴン,,その他の設立登記法人,東京都,千代田区,丸の内３丁目１番１号東京共同会計事務所内,,13,101,1000005,,,,,,,2022-05-12,1,,,,,ジュゴン,0
620,3010101015174,新規,0,2022-05-12,2022-05-12,株式会社エントランス,,株式会社,東京都,八王子市,北野町１５９番地８,,13,201,1920906,,,,,,,2022-05-12,1,,,,,エントランス,0
628,3010401167236,新規,0,2022-05-12,2022-05-12,光カンパニー株式会社,,株式会社,東京都,港区,南麻布３丁目５番１２号,,13,103,1060047,,,,,,,2022-05-12,1,,,,,ヒカリカンパニー,0
629,3010401167252,新規,0,2022-05-12,2022-05-12,株式会社東栄メディア,,株式会社,東京都,港区,六本木３丁目３番１６－７０２号,,13,103,1060032,,,,,,,2022-05-12,1,,,,,トウエイメディア,0
632,3010403027636,新規,0,2022-05-12,2022-05-12,ＢＬＩＳＳ合同会社,,合同会社,東京都,港区,芝浦２丁目１３番１号,,13,103,1080023,,,,,,,2022-05-12,1,,,,,ブリス,0
637,3010601061057,新規,0,2022-05-12,2022-05-12,株式会社イケメン,,株式会社,東京都,江東区,有明１丁目４－１１－２８３２,,13,108,1350063,,,,,,,2022-05-12,1,,,,,イケメン,0
638,3010601061156,新規,0,2022-05-12,2022-05-12,株式会社ラウンドオール,,株式会社,東京都,江東区,東砂３丁目４－３,,13,108,1360074,,,,,,,2022-05-12,1,,,,,ラウンドオール,0
650,3011001147504,新規,0,2022-05-12,2022-05-12,大成不動産投資顧問株式会社,,株式会社,東京都,渋谷区,代々木１丁目２９番４号,,13,113,1510053,,,,,,,2022-05-12,1,,,,,,0
651,3011003014628,新規,0,2022-05-12,2022-05-12,合同会社中里,,合同会社,東京都,目黒区,目黒２丁目１４番２１号,,13,110,1530063,,,,,,,2022-05-12,1,,,,,,0
652,3011003014669,新規,0,2022-05-12,2022-05-12,図案合同会社,,合同会社,東京都,渋谷区,渋谷２丁目２番１７号トランスワークス青山,,13,113,1500002,,,,,,,2022-05-12,1,,,,,ズアン,0
655,3011101098795,新規,0,2022-05-12,2022-05-12,株式会社Ｌａｂｚ．,,株式会社,東京都,新宿区,市谷仲之町３番７－３０３号,,13,104,1620064,,,,,,,2022-05-12,1,,,,,ラブス,0
668,3011801040684,新規,0,2022-05-12,2022-05-12,株式会社アキヤマ,,株式会社,東京都,足立区,綾瀬６丁目１８番７号,,13,121,1200005,,,,,,,2022-05-12,1,,,,,アキヤマ,0
678,3020001146465,新規,0,2022-05-12,2022-05-12,株式会社けやきホールディングス,,株式会社,神奈川県,横浜市港北区,富士塚２丁目１７番６号,,14,109,2220012,,,,,,,2022-05-12,1,,,,,ケヤキホールディングス,0
685,3020003021765,新規,0,2022-05-12,2022-05-12,合同会社ＡＹＡ,,合同会社,神奈川県,横浜市港南区,笹下６丁目２９番１８号,,14,111,2340052,,,,,,,2022-05-12,1,,,,,エイワイエイ,0
691,3021001075951,新規,0,2022-05-12,2022-05-12,株式会社ニューフィールド,,株式会社,神奈川県,大和市,草柳３丁目２２番地１,,14,213,2420026,,,,,,,2022-05-12,1,,,,,ニューフィールド,0
702,3030001148114,新規,0,2022-05-12,2022-05-12,株式会社ｈｅｒｅ,,株式会社,埼玉県,朝霞市,溝沼３丁目１番６号,,11,227,3510023,,,,,,,2022-05-12,1,,,,,ヒア,0
703,3030001148122,新規,0,2022-05-12,2022-05-12,ｒｅｎｏｖａｔｅｃｈ株式会社,,株式会社,埼玉県,春日部市,谷原新田１７３５番地１,,11,214,3440035,,,,,,,2022-05-12,1,,,,,リノベテック,0
714,3040001123306,新規,0,2022-05-12,2022-05-12,株式会社ＭＯＡＮＡ,,株式会社,千葉県,千葉市中央区,院内１丁目１８番１３号三矢四番館３階,,12,101,2600018,,,,,,,2022-05-12,1,,,,,モアナ,0
715,3040001123314,新規,0,2022-05-12,2022-05-12,トウケンコウ不動産株式会社,,株式会社,千葉県,千葉市若葉区,加曽利町１７５４－２階,,12,104,2640017,,,,,,,2022-05-12,1,,,,,トウケンコウフドウサン,0
716,3040001123355,新規,0,2022-05-12,2022-05-12,ディーエイチメタル株式会社,,株式会社,千葉県,茂原市,六ツ野３３２１番地２,,12,210,2970012,,,,,,,2022-05-12,1,,,,,ディーエイチメタル,0
725,3070001039219,新規,0,2022-05-12,2022-05-12,株式会社ｙｏｕｋｎｏｗ．ｊｐ,,株式会社,群馬県,前橋市,問屋町２丁目１１番１３号中沢マンション２０４,,10,201,3710855,,,,,,,2022-05-12,1,,,,,ユウノウドットジェイピー,0
727,3070003004476,新規,0,2022-05-12,2022-05-12,合同会社学生Ｏｒｉｇｉｎ,,合同会社,群馬県,北群馬郡吉岡町,大字大久保１２５３番地１,,10,345,3703602,,,,,,,2022-05-12,1,,,,,ガクセイオリジン,0
732,3080101023286,新規,0,2022-05-12,2022-05-12,株式会社ＡＩＡＲ,,株式会社,静岡県,熱海市,伊豆山１１２３,,22,205,4130002,,,,,,,2022-05-12,1,,,,,エアー,0
758,3120001245785,新規,0,2022-05-12,2022-05-12,株式会社ＬＩＮＫＢＥＡＴ,,株式会社,大阪府,大阪市中央区,谷町３丁目４番５号リアライズビル５０１,,27,128,5400012,,,,,,,2022-05-12,1,,,,,リンクビート,0
759,3120001245843,新規,0,2022-05-12,2022-05-12,株式会社ＫＪ‐ｈｅａｒ,,株式会社,大阪府,大阪市都島区,中野町１丁目４－９－５０２,,27,102,5340027,,,,,,,2022-05-12,1,,,,,ケージェーヒア,0
760,3120001245851,新規,0,2022-05-12,2022-05-12,株式会社ヒカリノ咲,,株式会社,大阪府,門真市,下島町１７番１５号,,27,223,5710075,,,,,,,2022-05-12,1,,,,,ヒカリノサキ,0
761,3120001245892,新規,0,2022-05-12,2022-05-12,株式会社企画Ｎ,,株式会社,大阪府,大阪市淀川区,塚本４丁目７番１号,,27,123,5320026,,,,,,,2022-05-12,1,,,,,キカクエヌ,0
770,3120003021672,新規,0,2022-05-12,2022-05-12,イクエイターセラピューティクスジャパン合同会社,,合同会社,大阪府,大阪市中央区,本町４丁目８番１号ＳＤ本町ビル,,27,128,5410053,,,,,,,2022-05-12,1,,,,,イクエイターセラピューティクスジャパン,0
778,3120901045962,新規,0,2022-05-12,2022-05-12,株式会社Ｌｅａｆ,,株式会社,大阪府,吹田市,豊津町９番２２号６階,,27,205,5640051,,,,,,,2022-05-12,1,,,,,リーフ,0
782,3122001035852,新規,0,2022-05-12,2022-05-12,共栄食品株式会社,,株式会社,大阪府,東大阪市,神田町１７番１８号ＦＲＥＡはい・２１－２０１号室,,27,227,5798058,,,,,,,2022-05-12,1,,,,,キョウエイショクヒン,0
784,3130001071735,新規,0,2022-05-12,2022-05-12,見岡株式会社,,株式会社,京都府,京都市山科区,御陵山ノ谷３７番地,,26,110,6078423,,,,,,,2022-05-12,1,,,,,ミオカ,0
785,3130003007919,新規,0,2022-05-12,2022-05-12,合同会社ｎｏｄｏ,,合同会社,京都府,向日市,寺戸町八反田８－１５,,26,208,6170002,,,,,,,2022-05-12,1,,,,,ノード,0
795,3140001125928,新規,0,2022-05-12,2022-05-12,株式会社筑紫野,,株式会社,兵庫県,宝塚市,清荒神３丁目１４番７号,,28,214,6650836,,,,,,,2022-05-12,1,,,,,チクシノ,0
796,3140001125936,新規,0,2022-05-12,2022-05-12,Ａｎｏｔｈｅｒ　ｓｗｉｍ株式会社,,株式会社,兵庫県,芦屋市,楠町３－１１,,28,206,6590015,,,,,,,2022-05-12,1,,,,,アナザースイム,0
797,3140001125960,新規,0,2022-05-12,2022-05-12,株式会社正見,,株式会社,兵庫県,神戸市須磨区,桜の杜１丁目８番１－８０３号,,28,107,6540114,,,,,,,2022-05-12,1,,,,,ショウケン,0
798,3150001025532,新規,0,2022-05-12,2022-05-12,株式会社ＫＩＤ,,株式会社,奈良県,天理市,櫟本町７０８番地,,29,204,6320004,,,,,,,2022-05-12,1,,,,,ケーアイディー,0
807,3180001151185,新規,0,2022-05-12,2022-05-12,エムアイサービス株式会社,,株式会社,愛知県,名古屋市港区,明正２丁目２０６番地の３,,23,111,4550806,,,,,,,2022-05-12,1,,,,,エムアイサービス,0
808,3180001151276,新規,0,2022-05-12,2022-05-12,株式会社大宝,,株式会社,愛知県,大府市,江端町３丁目７番地,,23,223,4740035,,,,,,,2022-05-12,1,,,,,タイホウ,0
811,3180003023820,新規,0,2022-05-12,2022-05-12,合同会社ＯＦＦＩＣＥ　ＨＡＲＵ,,合同会社,愛知県,名古屋市天白区,元八事５丁目４番地－５０３号,,23,116,4680066,,,,,,,2022-05-12,1,,,,,オフィスハル,0
812,3180003023829,新規,0,2022-05-12,2022-05-12,合同会社杉商,,合同会社,愛知県,名古屋市南区,豊田３丁目１５番３６号－１００６号,,23,112,4570841,,,,,,,2022-05-12,1,,,,,スギショウ,0
817,3180301036219,新規,0,2022-05-12,2022-05-12,株式会社Ｍ．Ｅ．Ｈ,,株式会社,愛知県,岡崎市,舳越町字地蔵３１番地２,,23,202,4440902,,,,,,,2022-05-12,1,,,,,エムイーエイチ,0
819,3180303005329,新規,0,2022-05-12,2022-05-12,合同会社エーアイ・サポート・サービス,,合同会社,愛知県,豊橋市,森岡町９番地２６,,23,201,4411114,,,,,,,2022-05-12,1,,,,,エーアイサポートサービス,0
828,3200001040063,新規,0,2022-05-12,2022-05-12,株式会社Ｈｏｎｏｒ’ｓ,,株式会社,岐阜県,多治見市,若松町３丁目１２番地,,21,204,5070053,,,,,,,2022-05-12,1,,,,,オナーズ,0
829,3200005013346,新規,0,2022-05-12,2022-05-12,特定非営利活動法人ぽぷらの会,,その他の設立登記法人,岐阜県,郡上市,高鷲町大鷲８４１番地１,,21,219,5015303,,,,,,,2022-05-12,1,,,,,ポプラノカイ,0
839,3250001019540,新規,0,2022-05-12,2022-05-12,株式会社ウェルスロープ,,株式会社,山口県,萩市,大字椿２６８７番地１,,35,204,7580061,,,,,,,2022-05-12,1,,,,,ウェルスロープ,0
840,3250001019549,新規,0,2022-05-12,2022-05-12,株式会社レイト工業,,株式会社,山口県,熊毛郡平生町,大字大野南５３番地の４,,35,344,7421106,,,,,,,2022-05-12,1,,,,,レイトコウギョウ,0
843,3260003003905,新規,0,2022-05-12,2022-05-12,是空合同会社,,合同会社,岡山県,岡山市北区,清輝橋３丁目８番１３号１００５号,,33,101,7000861,,,,,,,2022-05-12,1,,,,,ゼクウ,0
844,3260005011088,新規,0,2022-05-12,2022-05-12,一般社団法人岡山県地域猫活動の会,,その他の設立登記法人,岡山県,浅口市,金光町占見新田４５５番３アフルエント多々野,,33,216,7190104,,,,,,,2022-05-12,1,,,,,オカヤマケンチイキネコカツドウノカイ,0
849,3290001097517,新規,0,2022-05-12,2022-05-12,峯商事株式会社,,株式会社,福岡県,飯塚市,相田１０９,,40,205,8200052,,,,,,,2022-05-12,1,,,,,ミネショウジ,0
855,3330001029713,新規,0,2022-05-12,2022-05-12,株式会社マエダ建装,,株式会社,熊本県,熊本市南区,護藤町３４３７番地,,43,104,8614117,,,,,,,2022-05-12,1,,,,,マエダケンソウ,0
856,3330001029738,新規,0,2022-05-12,2022-05-12,株式会社ＴＥＲＡ　Ｓｐｏｒｔｓ,,株式会社,熊本県,熊本市西区,春日７丁目２０番３６号Ｃ３０１,,43,103,8600047,,,,,,,2022-05-12,1,,,,,テラスポーツ,0
869,3370001048544,新規,0,2022-05-12,2022-05-12,株式会社ビッグ・フォレスト,,株式会社,宮城県,仙台市宮城野区,鶴巻１丁目８番３０号ブーケ・ド・鶴巻Ｄ棟１０１,,04,102,9830024,,,,,,,2022-05-12,1,,,,,ビッグフォレスト,0
871,3380001032794,新規,0,2022-05-12,2022-05-12,株式会社ｓａｌｔｏ,,株式会社,福島県,いわき市,常磐関船町１丁目１６番地の１２,,07,204,9728318,,,,,,,2022-05-12,1,,,,,,0
880,3430003013903,新規,0,2022-05-12,2022-05-12,合同会社Ｆｕｎ　ｔｉｍｅｓ,,合同会社,北海道,虻田郡豊浦町,字幸町１０４番地２,,01,571,0495414,,,,,,,2022-05-12,1,,,,,ファンタイムス,0
882,3440001009076,新規,0,2022-05-12,2022-05-12,株式会社キョウハイ,,株式会社,北海道,函館市,昭和町２２番地６３,,01,202,0410823,,,,,,,2022-05-12,1,,,,,キョウハイ,0
889,3490001010178,新規,0,2022-05-12,2022-05-12,株式会社カノープス,,株式会社,高知県,南国市,大＿甲１３６５番地,00126541,39,204,7830004,,,,,,,2022-05-12,1,,,,,カノープス,0
892,3700150108098,新規,0,2022-05-12,2022-04-18,東京塩麹,,その他,東京都,世田谷区,野沢３丁目９－６－１０４,,13,112,1540003,,,,,,,2022-04-18,1,,,,,トウキヨウシオコウジ,0
907,4010001226481,新規,0,2022-05-12,2022-05-12,株式会社Ｉｄｅａｓｔｏｒｍ,,株式会社,東京都,千代田区,丸の内１丁目１１－１パシフィックセンチュリープレイス８階,,13,101,1000005,,,,,,,2022-05-12,1,,,,,アイデアストーム,0
908,4010001226556,新規,0,2022-05-12,2022-05-12,後藤興業株式会社,,株式会社,東京都,中央区,日本橋小網町８番２号,,13,102,1030016,,,,,,,2022-05-12,1,,,,,ゴトウコウギョウ,0
909,4010001226572,新規,0,2022-05-12,2022-05-12,株式会社ＮＨＤ,,株式会社,東京都,文京区,千駄木３丁目４６番９号コーポラス千駄木２０２,,13,105,1130022,,,,,,,2022-05-12,1,,,,,エヌエイチディ,0
910,4010001226614,新規,0,2022-05-12,2022-05-12,Ｇｐｌｕｓ株式会社,,株式会社,東京都,千代田区,神田司町２丁目７番地１０,,13,101,1010048,,,,,,,2022-05-12,1,,,,,ジープラス,0
913,4010003037613,新規,0,2022-05-12,2022-05-12,合同会社ｎｕｎｕｎｕ,,合同会社,東京都,中央区,勝どき６丁目３―１―４７２３,,13,102,1040054,,,,,,,2022-05-12,1,,,,,ヌヌヌ,0
920,4010401167284,新規,0,2022-05-12,2022-05-12,株式会社ＨＯＡＰ,,株式会社,東京都,港区,赤坂４丁目８番１９号赤坂フロントタウン３Ｆ,,13,103,1070052,,,,,,,2022-05-12,1,,,,,ホープ,0
921,4010403027635,新規,0,2022-05-12,2022-05-12,合同会社マルベリー,,合同会社,東京都,港区,南麻布５丁目１０番２４号第二佐野ビル６０２,,13,103,1060047,,,,,,,2022-05-12,1,,,,,マルベリー,0
922,4010405021009,新規,0,2022-05-12,2022-05-12,特定目的会社レジプロパティーズスリー,,その他の設立登記法人,東京都,港区,六本木６丁目１０番１号六本木ヒルズ森タワー,,13,103,1060032,,,,,,,2022-05-12,1,,,,,レジプロパティーズスリー,0
926,4010601061130,新規,0,2022-05-12,2022-05-12,株式会社一葉,,株式会社,東京都,江東区,豊洲５丁目６番２９－７２４号,,13,108,1350061,,,,,,,2022-05-12,1,,,,,イチヨウ,0
929,4010703006231,新規,0,2022-05-12,2022-05-12,合同会社Ｊ‐ｏｎｅ,,合同会社,東京都,品川区,西五反田２丁目１８番３号グレイス五反田４１４号,,13,109,1410031,,,,,,,2022-05-12,1,,,,,ジェイワン,0
933,4010901050840,新規,0,2022-05-12,2022-05-12,株式会社とんま,,株式会社,東京都,世田谷区,玉川２丁目１５番６号,,13,112,1580094,,,,,,,2022-05-12,1,,,,,トンマ,0
934,4010903007376,新規,0,2022-05-12,2022-05-12,合同会社ＡＰＥＲＯ企画,,合同会社,東京都,世田谷区,宇奈根２丁目８－１８,,13,112,1570068,,,,,,,2022-05-12,1,,,,,アペロキカク,0
940,4011001147420,新規,0,2022-05-12,2022-05-12,株式会社ＩｎｓＷｉｌｌ,,株式会社,東京都,目黒区,大橋２丁目６番１２号佐藤フラッツ３０１,,13,110,1530044,,,,,,,2022-05-12,1,,,,,インスウィル,0
941,4011001147437,新規,0,2022-05-12,2022-05-12,株式会社ＴＩ企画,,株式会社,東京都,渋谷区,神宮前６丁目２３番４号桑野ビル２階,,13,113,1500001,,,,,,,2022-05-12,1,,,,,ティーアイキカク,0
942,4011001147461,新規,0,2022-05-12,2022-05-12,株式会社ボディーコントロール,,株式会社,東京都,渋谷区,恵比寿１丁目２２番３号,,13,113,1500013,,,,,,,2022-05-12,1,,,,,ボディーコントロール,0
943,4011003014668,新規,0,2022-05-12,2022-05-12,ケルビタン合同会社,,合同会社,東京都,目黒区,下目黒３丁目５番２－６０２号トーシンフェニックス下目黒,,13,110,1530064,,,,,,,2022-05-12,1,,,,,ケルビタン,0
946,4011101098786,新規,0,2022-05-12,2022-05-12,Ｍ．Ｃ　Ｔｒａｄｅ株式会社,,株式会社,東京都,新宿区,大京町１２番地１２の１メゾン横井１０１,,13,104,1600015,,,,,,,2022-05-12,1,,,,,エムシートレード,0
947,4011103011739,新規,0,2022-05-12,2022-05-12,ＹｏｋｏＳｈｉＭａ合同会社,,合同会社,東京都,新宿区,北新宿２丁目２番５－４０１号,,13,104,1690074,,,,,,,2022-05-12,1,,,,,ヨコシマ,0
968,4013301049073,新規,0,2022-05-12,2022-05-12,株式会社ＹＭ,,株式会社,東京都,豊島区,池袋２丁目６８－５ハイツオエード５０８室,,13,116,1710014,,,,,,,2022-05-12,1,,,,,ワイエム,0
977,4020001146381,新規,0,2022-05-12,2022-05-12,ＩＭＭＥＮＳＥ株式会社,,株式会社,神奈川県,横浜市中区,元町５丁目２１４番地１階,,14,104,2310861,,,,,,,2022-05-12,1,,,,,イメンス,0
978,4020001146456,新規,0,2022-05-12,2022-05-12,株式会社ＩＲＩＳ,,株式会社,神奈川県,川崎市高津区,下作延３丁目１４番３１－４０９号グランドゥール・ルポン,,14,134,2130033,,,,,,,2022-05-12,1,,,,,アイリス,0
979,4020001146464,新規,0,2022-05-12,2022-05-12,株式会社Ｂｅｓｔ　Ｆｒｉｅｎｄ,,株式会社,神奈川県,横浜市保土ケ谷区,岡沢町２９９番地サカモトビル３Ｆ,,14,106,2400062,,,,,,,2022-05-12,1,,,,,ベストフレンド,0
982,4020005015525,新規,0,2022-05-12,2022-05-12,一般社団法人日本社会政策推進機構,,その他の設立登記法人,神奈川県,横浜市戸塚区,名瀬町７７４番地１１,,14,110,2450051,,,,,,,2022-05-12,1,,,,,ニホンシャカイセイサクスイシンキコウ,0
990,4021001075950,新規,0,2022-05-12,2022-05-12,株式会社クリエイティブ・ココン,,株式会社,神奈川県,厚木市,愛甲西２丁目１３番１６－１号,,14,212,2430028,,,,,,,2022-05-12,1,,,,,クリエイティブココン,0
1001,4030003019386,新規,0,2022-05-12,2022-05-12,合同会社オンライン,,合同会社,埼玉県,川口市,並木２丁目２８－１０－２０１号,,11,203,3320034,,,,,,,2022-05-12,1,,,,,オンライン,0
1002,4030003019394,新規,0,2022-05-12,2022-05-12,合同会社愛電舎,,合同会社,埼玉県,さいたま市南区,別所５丁目１５－２,,11,108,3360021,,,,,,,2022-05-12,1,,,,,アイデンシャ,0
1006,4040001123313,新規,0,2022-05-12,2022-05-12,株式会社ＮＥＸＥＬ,,株式会社,千葉県,柏市,船戸１９２４番地,,12,217,2770802,,,,,,,2022-05-12,1,,,,,ネクセル,0
1007,4040001123321,新規,0,2022-05-12,2022-05-12,株式会社Ｎｅｏ　Ｙ,,株式会社,千葉県,東金市,日吉台２丁目８番地１５,,12,213,2830803,,,,,,,2022-05-12,1,,,,,ネオワイ,0
1008,4040001123338,新規,0,2022-05-12,2022-05-12,株式会社ＫＩＹＯＲＡ,,株式会社,千葉県,流山市,市野谷３９７番地の１,,12,220,2700137,,,,,,,2022-05-12,1,,,,,キヨラ,0
1009,4040001123354,新規,0,2022-05-12,2022-05-12,株式会社ＦＯＣＵＳ　ＵＰ,,株式会社,千葉県,浦安市,北栄４丁目３番２４号,,12,227,2790002,,,,,,,2022-05-12,1,,,,,フォーカスアップ,0
1010,4040001123362,新規,0,2022-05-12,2022-05-12,株式会社朋商会Ｔ‐ｃｏｍｐａｎｙ,,株式会社,千葉県,千葉市稲毛区,稲毛町５丁目３１１番地３,,12,103,2630035,,,,,,,2022-05-12,1,,,,,トモショウカイティーカンパニー,0
1011,4040001123379,新規,0,2022-05-12,2022-05-12,株式会社ＲａｎｄＣ,,株式会社,千葉県,山武市,横田５１８－１,,12,237,2891226,,,,,,,2022-05-12,1,,,,,アールアンドシー,0
1016,4040003020005,新規,0,2022-05-12,2022-05-12,合同会社セフィロス,,合同会社,千葉県,千葉市中央区,港町４番８－１２０１号,,12,101,2600831,,,,,,,2022-05-12,1,,,,,セフィロス,0
1017,4040003020013,新規,0,2022-05-12,2022-05-12,合同会社Ｈａｒａｐａｎ,,合同会社,千葉県,南房総市,白子１９６９番１,,12,234,2992521,,,,,,,2022-05-12,1,,,,,ハラパン,0
1026,4060001034839,新規,0,2022-05-12,2022-05-12,株式会社勇輝,,株式会社,栃木県,足利市,西新井町３２７７番地９,,09,202,3260837,,,,,,,2022-05-12,1,,,,,イサキ,0
1028,4070003004483,新規,0,2022-05-12,2022-05-12,合同会社ティーエム工業,,合同会社,群馬県,前橋市,富士見町赤城山１７０９番地１５,,10,201,3710101,,,,,,,2022-05-12,1,,,,,ティーエムコウギョウ,0
1029,4070005009992,新規,0,2022-05-12,2022-05-12,一般社団法人ライトニングバスケットボールクラブ,,その他の設立登記法人,群馬県,前橋市,天川大島町３丁目１８番地１,,10,201,3792154,,,,,,,2022-05-12,1,,,,,ライトニングバスケットボールクラブ,0
1032,4080103002584,新規,0,2022-05-12,2022-05-12,アインス合同会社,,合同会社,静岡県,駿東郡長泉町,下土狩５９５番地の７,,22,342,4110943,,,,,,,2022-05-12,1,,,,,アインス,0
1035,4090005007490,新規,0,2022-05-12,2022-05-12,一般社団法人太子館保存会,,その他の設立登記法人,山梨県,富士吉田市,上吉田７丁目１５番８号,,19,202,4030005,,,,,,,2022-05-12,1,,,,,タイシカンホゾンカイ,0
1038,4100005012869,新規,0,2022-05-12,2022-05-12,一般社団法人信州アメリカンフットボール部ＷＩＬＤＣＡＴＳ,,その他の設立登記法人,長野県,伊那市,高遠町藤澤３６５３番地１,,20,209,3960301,,,,,,,2022-05-12,1,,,,,シンシュウアメリカンフットボールブワイルドキャッツ,0
1054,4120001245768,新規,0,2022-05-12,2022-05-12,ＣｏＢｅ‐Ｔｅｃｈ株式会社,,株式会社,大阪府,大阪市北区,梅田１丁目１－３大阪駅前第３ビル２９階１－１－１号室,,27,127,5300001,,,,,,,2022-05-12,1,,,,,コービーテック,0
1055,4120001245842,新規,0,2022-05-12,2022-05-12,株式会社Ｔｈｒｅｅｑ,,株式会社,大阪府,大阪市此花区,高見１丁目４－５６－１３０８,,27,104,5540001,,,,,,,2022-05-12,1,,,,,スリーク,0
1056,4120001245867,新規,0,2022-05-12,2022-05-12,株式会社マァーク,,株式会社,大阪府,大阪市平野区,加美北１丁目９番１８号１０１号室,,27,126,5470001,,,,,,,2022-05-12,1,,,,,マァーク,0
1071,4120901045953,新規,0,2022-05-12,2022-05-12,株式会社ＳＡＭクレスト,,株式会社,大阪府,摂津市,鳥飼新町２丁目２３番１３号,,27,224,5660065,,,,,,,2022-05-12,1,,,,,サムクレスト,0
1072,4120901045961,新規,0,2022-05-12,2022-05-12,株式会社ティーイーエム,,株式会社,大阪府,箕面市,萱野１丁目５番１５号（Ｂ－１０２号）,,27,220,5620014,,,,,,,2022-05-12,1,,,,,ティーイーエム,0
1081,4130001071718,新規,0,2022-05-12,2022-05-12,株式会社Ｆａｍ　Ｔｉｅｓ,,株式会社,京都府,京都市西京区,樫原久保町２１番地５レメゾンベアト５号棟５２１号室,,26,111,6158171,,,,,,,2022-05-12,1,,,,,ファムタイズ,0
1086,4130003007918,新規,0,2022-05-12,2022-05-12,合同会社さんぽみち,,合同会社,京都府,京田辺市,河原里ノ内６３番地５サンシティ新田辺Ａ棟１０１号室,,26,211,6100361,,,,,,,2022-05-12,1,,,,,サンポミチ,0
1090,4140001125877,新規,0,2022-05-12,2022-05-12,株式会社ゆう,,株式会社,兵庫県,芦屋市,船戸町５番２６号,,28,206,6590093,,,,,,,2022-05-12,1,,,,,ユウ,0
1091,4140001125943,新規,0,2022-05-12,2022-05-12,Ｎａｖｙ　Ｆａｃｔｏｒｙ株式会社,,株式会社,兵庫県,神戸市中央区,磯上通８丁目１番１９号カーサグランデ神戸３階,,28,110,6510086,,,,,,,2022-05-12,1,,,,,ネイビーファクトリー,0
1094,4150001025531,新規,0,2022-05-12,2022-05-12,株式会社コスモトレーディング,,株式会社,奈良県,大和高田市,西三倉堂２丁目４番８号,,29,202,6350046,,,,,,,2022-05-12,1,,,,,コスモトレーディング,0
1097,4170001017106,新規,0,2022-05-12,2022-05-12,株式会社玉川組,,株式会社,和歌山県,有田郡有田川町,大字黒松４２７番地１,,30,366,6430172,,,,,,,2022-05-12,1,,,,,タマガワグミ,0
1098,4170003001719,新規,0,2022-05-12,2022-05-12,わいわいファーム合同会社,,合同会社,和歌山県,西牟婁郡白浜町,庄川５２－９メゾンアット１０１号,,30,401,6492323,,,,,,,2022-05-12,1,,,,,ワイワイファーム,0
1103,4180001151234,新規,0,2022-05-12,2022-05-12,ＹＨＫ株式会社,,株式会社,愛知県,知多市,八幡字荒古前３５番地,,23,224,4780001,,,,,,,2022-05-12,1,,,,,ワイエイチケー,0
1107,4180301036192,新規,0,2022-05-12,2022-05-12,株式会社名豊,,株式会社,愛知県,豊橋市,寺沢町字内原２１４番地３,,23,201,4413124,,,,,,,2022-05-12,1,,,,,メイホウ,0
1108,4180301036201,新規,0,2022-05-12,2022-05-12,株式会社ＷＩＬＬ＆ＷＩＮＧＳ,,株式会社,愛知県,みよし市,莇生町藤塚６番地９,,23,236,4700206,,,,,,,2022-05-12,1,,,,,ウィルウィングス,0
1112,4180303005328,新規,0,2022-05-12,2022-05-12,Ｅ．Ｒ．Ｌ．合同会社,,合同会社,愛知県,西尾市,米津町蓮台２番地１７,,23,213,4450802,,,,,,,2022-05-12,1,,,,,イーアールエル,0
1113,4180305009335,新規,0,2022-05-12,2022-05-12,一般社団法人慢性完全閉塞病変治療研究会,,その他の設立登記法人,愛知県,豊橋市,大山町字五分取２１番地１,,23,201,4418071,,,,,,,2022-05-12,1,,,,,マンセイカンゼンヘイソクビョウヘンチリョウケンキュウカイ,0
1118,4190001029405,新規,0,2022-05-12,2022-05-12,株式会社ベストパートナー,,株式会社,三重県,四日市市,山之一色町１２１９番地,,24,202,5120906,,,,,,,2022-05-12,1,,,,,ベストパートナー,0
1119,4190003003985,新規,0,2022-05-12,2022-05-12,合同会社ＳＰＡＣＥ,,合同会社,三重県,名張市,瀬古口２１４番地３,,24,208,5180445,,,,,,,2022-05-12,1,,,,,スペース,0
1122,4200003005559,新規,0,2022-05-12,2022-05-12,合同会社ライキット,,合同会社,岐阜県,羽島郡岐南町,八剣北３丁目１１７番地,,21,302,5016011,,,,,,,2022-05-12,1,,,,,ライキット,0
1124,4210001018917,新規,0,2022-05-12,2022-05-12,株式会社カーキスタイル,,株式会社,福井県,大飯郡おおい町,本郷第１２４号４１番地,,18,483,9192111,,,,,,,2022-05-12,1,,,,,カーキスタイル,0
1134,4240001059768,新規,0,2022-05-12,2022-05-12,株式会社スリーライク,,株式会社,広島県,広島市南区,仁保新町２丁目５番３６‐２０３号,,34,103,7340024,,,,,,,2022-05-12,1,,,,,スリーライク,0
1138,4250001019556,新規,0,2022-05-12,2022-05-12,株式会社友,,株式会社,山口県,山口市,秋穂東１９３３番地２,,35,203,7541101,,,,,,,2022-05-12,1,,,,,ユウ,0
1140,4260001036848,新規,0,2022-05-12,2022-05-12,株式会社ストレングス,,株式会社,岡山県,岡山市北区,野田屋町２丁目１１－２３－９０５,,33,101,7000815,,,,,,,2022-05-12,1,,,,,ストレングス,0
1142,4260005011087,新規,0,2022-05-12,2022-05-12,一般社団法人笠岡諸島応援隊,,その他の設立登記法人,岡山県,浅口市,金光町占見新田４５５番３アフルエント多々野,,33,216,7190104,,,,,,,2022-05-12,1,,,,,カサオカショトウオウエンタイ,0
1143,4270005005518,新規,0,2022-05-12,2022-05-12,一般社団法人コミュニティウェルビーイング研究所,,その他の設立登記法人,鳥取県,西伯郡大山町,名和１４１５番地,,31,386,6893212,,,,,,,2022-05-12,1,,,,,コミュニティウェルビーイングケンキュウジョ,0
1149,4290001097474,新規,0,2022-05-12,2022-05-12,ＤＡＩ　ＡＮ株式会社,,株式会社,福岡県,福岡市博多区,吉塚５丁目１番３号１松屋ビル３０２,,40,132,8120041,,,,,,,2022-05-12,1,,,,,ダイアン,0
1150,4290001097499,新規,0,2022-05-12,2022-05-12,株式会社福岡ＳＥＣＵＲＩＴＹ,,株式会社,福岡県,福岡市中央区,六本松４丁目９番１０号,,40,133,8100044,,,,,,,2022-05-12,1,,,,,フクオカセキュリティ,0
1151,4290003012506,新規,0,2022-05-12,2022-05-12,ＡＢＥＷＯＲＫ合同会社,,合同会社,福岡県,古賀市,今の庄１丁目１－３４,,40,223,8113117,,,,,,,2022-05-12,1,,,,,アベワーク,0
1157,4300001012893,新規,0,2022-05-12,2022-05-12,ｉＦ株式会社,,株式会社,佐賀県,武雄市,武雄町大字永島１３７３０－３,,41,206,8430021,,,,,,,2022-05-12,1,,,,,イフ,0
1160,4320003003807,新規,0,2022-05-12,2022-05-12,合同会社ＳＭＩＫグループ,,合同会社,大分県,大分市,大字鶴瀬３９４－１,,44,201,8700121,,,,,,,2022-05-12,1,,,,,スマイクグループ,0
1190,4400001015886,新規,0,2022-05-12,2022-05-12,株式会社アグリマップ,,株式会社,岩手県,胆沢郡金ケ崎町,西根桂７番地,,03,381,0294503,,,,,,,2022-05-12,1,,,,,アグリマップ,0
1194,4430001086553,新規,0,2022-05-12,2022-05-12,Ｓ．Ｆａｍｉｌｉａｒ株式会社,,株式会社,北海道,札幌市中央区,南五条西４丁目７番地１Ｎ－Ｓｑｕａｒｅ８階,,01,101,0640805,,,,,,,2022-05-12,1,,,,,エスファミリア,0
1195,4430001086578,新規,0,2022-05-12,2022-05-12,株式会社Ｅｔｅｒｎａｌ,,株式会社,北海道,札幌市厚別区,もみじ台南６丁目５番１号,,01,108,0040012,,,,,,,2022-05-12,1,,,,,エターナル,0
1196,4430003013877,新規,0,2022-05-12,2022-05-12,合同会社バッカス,,合同会社,北海道,室蘭市,中島町１丁目１１番７号プレイタウン中島ビル２階,,01,205,0500074,,,,,,,2022-05-12,1,,,,,バッカス,0
1200,4470003002174,新規,0,2022-05-12,2022-05-12,合同会社ＺＥＮＯ,,合同会社,香川県,仲多度郡まんのう町,長尾２５３７番地２,,37,406,7660015,,,,,,,2022-05-12,1,,,,,ゼノ,0
1201,4470003002182,新規,0,2022-05-12,2022-05-12,合同会社傘屋,,合同会社,香川県,観音寺市,柞田町甲１２番地３,,37,205,7680040,,,,,,,2022-05-12,1,,,,,カサヤ,0
1206,4700150108667,新規,0,2022-05-12,2022-05-12,６５ルオーゴ・ヴェルデ・ジャパン・エルエルシー,,外国会社等,東京都,千代田区,丸の内１丁目８番３号丸の内トラストタワー本館２６階,,13,101,1000005,アメリカ合衆国デラウエア州ウィルミントン、オレンジ・ストリート１２０９、ナショナル・レジスタード・エージェント・インク内,,,,,,2022-05-12,1,,,,,シツクステイーフアイブルオーゴヴエルデジヤパンエルエルシー,0
1211,5010001226423,新規,0,2022-05-12,2022-05-12,ＴＭＣ株式会社,,株式会社,東京都,中央区,銀座１丁目２２番１１号銀座大竹ビジデンス２階,,13,102,1040061,,,,,,,2022-05-12,1,,,,,ティーエムシー,0
1212,5010001226456,新規,0,2022-05-12,2022-05-12,株式会社Ｆｉｎｄｅｒ,,株式会社,東京都,千代田区,九段南１丁目５－６りそな九段ビル５Ｆ、ＫＳフロア,,13,101,1020074,,,,,,,2022-05-12,1,,,,,ファインダー,0
1213,5010001226480,新規,0,2022-05-12,2022-05-12,株式会社Ｇｒｅｅｎ　Ｆｌａｓｈ,,株式会社,東京都,中央区,銀座７丁目１５番８号タウンハイツ銀座４０６,,13,102,1040061,,,,,,,2022-05-12,1,,,,,グリーンフラッシュ,0
1214,5010001226547,新規,0,2022-05-12,2022-05-12,カディラキャピタルマネジメント株式会社,,株式会社,東京都,中央区,日本橋兜町９番１号,,13,102,1030026,,,,,,,2022-05-12,1,,,,,カディラキャピタルマネジメント,0
1215,5010001226571,新規,0,2022-05-12,2022-05-12,リトリート株式会社,,株式会社,東京都,中央区,銀座６丁目１３番１６号銀座ＷａｌｌビルＵＣＦ５０１,,13,102,1040061,,,,,,,2022-05-12,1,,,,,リトリート,0
1220,5010003037604,新規,0,2022-05-12,2022-05-12,合同会社ＪＵＢＩＬＥＥ,,合同会社,東京都,文京区,大塚６丁目７－８,,13,105,1120012,,,,,,,2022-05-12,1,,,,,ジュビリー,0
1221,5010003037620,新規,0,2022-05-12,2022-05-12,プライムクライミング合同会社,,合同会社,東京都,中央区,新川２丁目６番８号ＹＨビルＢ１階,,13,102,1040033,,,,,,,2022-05-12,1,,,,,プライムクライミング,0
1222,5010003037678,新規,0,2022-05-12,2022-05-12,ＵＪＩ合同会社,,合同会社,東京都,中央区,銀座５丁目１番１６号西銀座ビル６Ｆ,,13,102,1040061,,,,,,,2022-05-12,1,,,,,ウジ,0
1225,5010005034995,新規,0,2022-05-12,2022-05-12,一般社団法人ＩＩＳ支援センター,,その他の設立登記法人,東京都,中央区,日本橋本町１丁目５番１７号,,13,102,1030023,,,,,,,2022-05-12,1,,,,,アイアイエスシエンセンター,0
1230,5010401167234,新規,0,2022-05-12,2022-05-12,株式会社三田プロパティ,,株式会社,東京都,港区,三田４丁目１７番３３号,,13,103,1080073,,,,,,,2022-05-12,1,,,,,ミタプロパティ,0
1231,5010401167250,新規,0,2022-05-12,2022-05-12,ｓｉｌｋｒｏａｄ株式会社,,株式会社,東京都,港区,西新橋１丁目１８番６号,,13,103,1050003,,,,,,,2022-05-12,1,,,,,シルクロード,0
1232,5010401167267,新規,0,2022-05-12,2022-05-12,株式会社あおぞらエステート,,株式会社,東京都,港区,西麻布２丁目６番２－３１２号,,13,103,1060031,,,,,,,2022-05-12,1,,,,,アオゾラエステート,0
1244,5010603009507,新規,0,2022-05-12,2022-05-12,合同会社ＤＡＹＥＬＥ,,合同会社,東京都,江東区,東陽５丁目１２－５フォーシーズンズビル４Ｆ,,13,108,1350016,,,,,,,2022-05-12,1,,,,,ダイエレ,0
1251,5010701042608,新規,0,2022-05-12,2022-05-12,株式会社Ｂｒｕｃｏ,,株式会社,東京都,品川区,荏原５丁目１４番１２号,,13,109,1420063,,,,,,,2022-05-12,1,,,,,ブルーコ,0
1267,5011001147386,新規,0,2022-05-12,2022-05-12,ポケットカレー株式会社,,株式会社,東京都,目黒区,原町２丁目２番１６号,,13,110,1520011,,,,,,,2022-05-12,1,,,,,ポケットカレー,0
1268,5011001147436,新規,0,2022-05-12,2022-05-12,株式会社リフィックス,,株式会社,東京都,渋谷区,道玄坂１丁目１０番１号Ｂ１,,13,113,1500043,,,,,,,2022-05-12,1,,,,,リフィックス,0
1269,5011001147485,新規,0,2022-05-12,2022-05-12,株式会社Ｎ．ＧＡＴＥ,,株式会社,東京都,渋谷区,神宮前６丁目２３番４号桑野ビル２Ｆ,,13,113,1500001,,,,,,,2022-05-12,1,,,,,エヌゲイト,0
1270,5011001147502,新規,0,2022-05-12,2022-05-12,株式会社Ａｃｔｏｎ,,株式会社,東京都,渋谷区,広尾１丁目１６番３－６０５号,,13,113,1500012,,,,,,,2022-05-12,1,,,,,アクトオン,0
1281,5011101098819,新規,0,2022-05-12,2022-05-12,株式会社ａｎｏａｎｏ,,株式会社,東京都,新宿区,新宿５丁目６番２号,,13,104,1600022,,,,,,,2022-05-12,1,,,,,アノアノ,0
1297,5011801040708,新規,0,2022-05-12,2022-05-12,株式会社ケイテクノ,,株式会社,東京都,足立区,一ツ家１丁目９番２号,,13,121,1210075,,,,,,,2022-05-12,1,,,,,ケイテクノ,0
1311,5020001146447,新規,0,2022-05-12,2022-05-12,株式会社ＭＬサポート,,株式会社,神奈川県,横浜市神奈川区,鶴屋町３丁目２８番６－２０３号,,14,102,2210835,,,,,,,2022-05-12,1,,,,,エムエルサポート,0
1315,5020003021747,新規,0,2022-05-12,2022-05-12,インタフリコーヒー合同会社,,合同会社,神奈川県,横浜市中区,新山下３丁目１５番６号新山下ベイシティ６－３０１号室,,14,104,2310801,,,,,,,2022-05-12,1,,,,,インタフリコーヒー,0
1328,5021003011663,新規,0,2022-05-12,2022-05-12,Ｈａｙａｍａ　Ｗａｔｅｒｆｒｏｎｔ合同会社,,合同会社,神奈川県,三浦郡葉山町,堀内１１０６―１,,14,301,2400112,,,,,,,2022-05-12,1,,,,,ハヤマウォーターフロント,0
1334,5030001148079,新規,0,2022-05-12,2022-05-12,ＳＬＳ株式会社,,株式会社,埼玉県,さいたま市見沼区,大字上山口新田５３番地１,,11,104,3370044,,,,,,,2022-05-12,1,,,,,エスエルエス,0
1335,5030001148145,新規,0,2022-05-12,2022-05-12,株式会社武田組,,株式会社,埼玉県,越谷市,東越谷７丁目３６番地６エクセルレジデンス１０２,,11,222,3430023,,,,,,,2022-05-12,1,,,,,,0
1336,5030001148153,新規,0,2022-05-12,2022-05-12,日越ワーク株式会社,,株式会社,埼玉県,坂戸市,大字石井２８９８番地１３,,11,239,3500212,,,,,,,2022-05-12,1,,,,,ニチエツワーク,0
1337,5030001148178,新規,0,2022-05-12,2022-05-12,株式会社はなぶさ企画,,株式会社,埼玉県,所沢市,大字亀ケ谷７番地２,,11,208,3590014,,,,,,,2022-05-12,1,,,,,ハナブサキカク,0
1343,5030003019385,新規,0,2022-05-12,2022-05-12,合同会社アティード,,合同会社,埼玉県,深谷市,原郷２０４８番地１コーポオアシスＥ棟１０２号,,11,218,3660035,,,,,,,2022-05-12,1,,,,,アティード,0
1347,5040001123270,新規,0,2022-05-12,2022-05-12,株式会社ＡＺＵＳＡ,,株式会社,千葉県,成田市,加良部５丁目８番地６－２０３号,,12,211,2860036,,,,,,,2022-05-12,1,,,,,アズサ,0
1348,5040001123312,新規,0,2022-05-12,2022-05-12,株式会社伊藤電設,,株式会社,千葉県,旭市,三川４５０２番地３,,12,215,2892714,,,,,,,2022-05-12,1,,,,,イトウデンセツ,0
1349,5040001123320,新規,0,2022-05-12,2022-05-12,ＯＲＩＧＩＮＡＬ　ＦＡＲＭ株式会社,,株式会社,千葉県,南房総市,千倉町白子２５２１番地４,,12,234,2950003,,,,,,,2022-05-12,1,,,,,オリジナルファーム,0
1350,5040001123361,新規,0,2022-05-12,2022-05-12,ＭＯＲＥ　ＢＥＲＲＹ株式会社,,株式会社,千葉県,千葉市中央区,中央３丁目１３－７コスモ千葉中央ビル２０１号室,,12,101,2600013,,,,,,,2022-05-12,1,,,,,モアベリー,0
1352,5040003020004,新規,0,2022-05-12,2022-05-12,合同会社あおいことり,,合同会社,千葉県,千葉市緑区,辺田町１７５番地１５,,12,105,2660007,,,,,,,2022-05-12,1,,,,,アオイコトリ,0
1353,5040005021603,新規,0,2022-05-12,2022-05-12,医療法人社団永令会,,その他の設立登記法人,千葉県,柏市,若柴２７６番地１中央１５４街区３パークシティ柏の葉キャンパスブライトサイト１Ｆ,,12,217,2770871,,,,,,,2022-05-12,1,,,,,エイレイカイ,0
1358,5050001051066,新規,0,2022-05-12,2022-05-12,株式会社すずホールディングス,,株式会社,茨城県,石岡市,東田中４７８番地１,,08,205,3150034,,,,,,,2022-05-12,1,,,,,スズホールディングス,0
1363,5060001034870,新規,0,2022-05-12,2022-05-12,株式会社アレステート,,株式会社,栃木県,宇都宮市,宿郷３丁目２２番１６号,,09,201,3210945,,,,,,,2022-05-12,1,,,,,アレステート,0
1364,5070001039217,新規,0,2022-05-12,2022-05-12,株式会社凰希,,株式会社,群馬県,甘楽郡下仁田町,大字馬山４５８７番地１,,10,382,3702603,,,,,,,2022-05-12,1,,,,,コウキ,0
1365,5070005009991,新規,0,2022-05-12,2022-05-12,一般社団法人ぐんまカーボンニュートラル推進会,,その他の設立登記法人,群馬県,高崎市,上佐野町２８２番地の１,,10,202,3700857,,,,,,,2022-05-12,1,,,,,グンマカーボンニュートラルスイシンカイ,0
1369,5080405007454,新規,0,2022-05-12,2022-05-12,特定非営利活動法人希望の輝,,その他の設立登記法人,静岡県,浜松市中区,曳馬５丁目２２番５０号レジデンス伊藤１０３,,22,131,4300901,,,,,,,2022-05-12,1,,,,,キボウノヒカリ,0
1370,5100001035328,新規,0,2022-05-12,2022-05-12,株式会社広部不動産鑑定,,株式会社,長野県,松本市,大字島内２０６７番地４７,,20,202,3900851,,,,,,,2022-05-12,1,,,,,ヒロベフドウサンカンテイ,0
1391,5120001245817,新規,0,2022-05-12,2022-05-12,妍．ボーヨンＹａｂａｏｙ株式会社,,株式会社,大阪府,大阪市中央区,南船場３丁目２－１ラインビルド心斎橋５０８号,,27,128,5420081,,,,,,,2022-05-12,1,,,,,ケンボーヨンヤバオイ,0
1392,5120001245833,新規,0,2022-05-12,2022-05-12,天満橋経営株式会社,,株式会社,大阪府,大阪市中央区,天満橋京町２番６号天満橋八千代ビル別館名和会計事務所内,,27,128,5400032,,,,,,,2022-05-12,1,,,,,テンマバシケイエイ,0
1393,5120001245841,新規,0,2022-05-12,2022-05-12,株式会社鈴華,,株式会社,大阪府,大阪市北区,堂島浜１丁目４番４号３Ｆ,,27,127,5300004,,,,,,,2022-05-12,1,,,,,スズハ,0
1398,5120101065578,新規,0,2022-05-12,2022-05-12,株式会社ｏｆｆ,,株式会社,大阪府,岸和田市,下松町５０６０番地,,27,202,5960823,,,,,,,2022-05-12,1,,,,,オフ,0
1407,5120901045960,新規,0,2022-05-12,2022-05-12,株式会社メディナース,,株式会社,大阪府,吹田市,日の出町１１番３６号,,27,205,5640023,,,,,,,2022-05-12,1,,,,,メディナース,0
1417,5140001125918,新規,0,2022-05-12,2022-05-12,株式会社ＨＫ紘工務店,,株式会社,兵庫県,たつの市,新宮町佐野３３番地,,28,229,6794325,,,,,,,2022-05-12,1,,,,,エイチケイヒロコウムテン,0
1418,5140001125959,新規,0,2022-05-12,2022-05-12,株式会社百万一心,,株式会社,兵庫県,神戸市北区,有馬町４０６番地の３ＶｉＶｉ有馬２０８号,,28,109,6511401,,,,,,,2022-05-12,1,,,,,ヒャクマンイッシン,0
1419,5160001024192,新規,0,2022-05-12,2022-05-12,株式会社エアスト・ホールディングス,,株式会社,滋賀県,草津市,野路２丁目１２番４号,,25,206,5250059,,,,,,,2022-05-12,1,,,,,エアストホールディングス,0
1422,5180001151217,新規,0,2022-05-12,2022-05-12,株式会社ＷＯＲＬＤ　ＴＲＥＥ,,株式会社,愛知県,名古屋市名東区,猪子石２丁目１６０７番地,,23,115,4650021,,,,,,,2022-05-12,1,,,,,ワールドツリー,0
1423,5180001151225,新規,0,2022-05-12,2022-05-12,物件キング株式会社,,株式会社,愛知県,名古屋市中区,門前町５番４号,,23,106,4600018,,,,,,,2022-05-12,1,,,,,ブッケンキング,0
1424,5180001151241,新規,0,2022-05-12,2022-05-12,株式会社松建工業,,株式会社,愛知県,名古屋市名東区,梅森坂西２丁目１０２６番地１,,23,115,4650066,,,,,,,2022-05-12,1,,,,,マツケンコウギョウ,0
1425,5180001151266,新規,0,2022-05-12,2022-05-12,株式会社Ｏｎｅ　Ｈｅａｒｔ,,株式会社,愛知県,名古屋市中川区,服部３丁目６０１番地の５８,,23,110,4540976,,,,,,,2022-05-12,1,,,,,ワンハート,0
1430,5180301036217,新規,0,2022-05-12,2022-05-12,ＳＵＮＳＨＩＮＥ株式会社,,株式会社,愛知県,西尾市,上矢田町寺前１７番地２３,,23,213,4440313,,,,,,,2022-05-12,1,,,,,サンシャイン,0
1436,5200003005541,新規,0,2022-05-12,2022-05-12,合同会社ＫＯＯＦ,,合同会社,岐阜県,瑞浪市,稲津町小里１６４６番地,,21,208,5096103,,,,,,,2022-05-12,1,,,,,クーフ,0
1440,5220003003279,新規,0,2022-05-12,2022-05-12,合同会社ＫＩＴＡＭＵＲＡ．ＡＭ,,合同会社,石川県,金沢市,北町丁６８番地,,17,201,9200055,,,,,,,2022-05-12,1,,,,,キタムラドットエイエム,0
1447,5250001019547,新規,0,2022-05-12,2022-05-12,株式会社総建,,株式会社,山口県,光市,中央３丁目１１番７号,,35,210,7430013,,,,,,,2022-05-12,1,,,,,ソウケン,0
1459,5290001097465,新規,0,2022-05-12,2022-05-12,Ｃｏｈｈ株式会社,,株式会社,福岡県,福岡市中央区,大名２丁目６番１１号,,40,133,8100041,,,,,,,2022-05-12,1,,,,,コウ,0
1460,5290001097473,新規,0,2022-05-12,2022-05-12,株式会社カイト,,株式会社,福岡県,飯塚市,椿５３２番地７,,40,205,8200084,,,,,,,2022-05-12,1,,,,,カイト,0
1462,5290003012463,新規,0,2022-05-12,2022-05-12,合同会社Ｒｅ　Ｓｅｎｓｅ,,合同会社,福岡県,福岡市南区,皿山１丁目１３番４７号,,40,134,8111365,,,,,,,2022-05-12,1,,,,,リセンス,0
1466,5330001029728,新規,0,2022-05-12,2022-05-12,ＧＤＣ株式会社,,株式会社,熊本県,上益城郡益城町,大字安永４７９番地２２,,43,443,8612231,,,,,,,2022-05-12,1,,,,,ジーディーシー,0
1467,5330001029736,新規,0,2022-05-12,2022-05-12,伸栄輸送株式会社,,株式会社,熊本県,熊本市南区,上ノ郷２丁目６番７号,,43,104,8614132,,,,,,,2022-05-12,1,,,,,シンエイユソウ,0
1471,5340001024728,新規,0,2022-05-12,2022-05-12,株式会社霧島ビルメンテナンス,,株式会社,鹿児島県,霧島市,国分中央１丁目２０番８,,46,218,8994332,,,,,,,2022-05-12,1,,,,,キリシマビルメンテナンス,0
1476,5350003004082,新規,0,2022-05-12,2022-05-12,合同会社セカンドスクール,,合同会社,宮崎県,延岡市,富美山町５１２番地３,,45,203,8820051,,,,,,,2022-05-12,1,,,,,セカンドスクール,0
1487,5400001015885,新規,0,2022-05-12,2022-05-12,株式会社北東北パワーグリッド,,株式会社,岩手県,盛岡市,八幡町４番１８号,,03,201,0200872,,,,,,,2022-05-12,1,,,,,キタトウホクパワーグリッド,0
1488,5420001017839,新規,0,2022-05-12,2022-05-12,株式会社ｄｅｃｏｌｎｅ,,株式会社,青森県,三戸郡五戸町,大字切谷内字佐野谷地６４番地１５,,02,442,0391502,,,,,,,2022-05-12,1,,,,,デコルネ,0
1489,5420003002517,新規,0,2022-05-12,2022-05-12,合同会社なかむら建築,,合同会社,青森県,三戸郡階上町,大字赤保内字柳沢１５番地２３０,,02,446,0391202,,,,,,,2022-05-12,1,,,,,ナカムラケンチク,0
1496,5430001086560,新規,0,2022-05-12,2022-05-12,株式会社ＯＫＵ　Ｃｏｒｐｏｒａｔｉｏｎ,,株式会社,北海道,札幌市中央区,南六条西３丁目３番１３号,,01,101,0640806,,,,,,,2022-05-12,1,,,,,オーケーユーコーポレーション,0
1497,5430001086569,新規,0,2022-05-12,2022-05-12,株式会社ノア,,株式会社,北海道,札幌市西区,琴似二条７丁目２番４１号琴似２・７ビル８０５号室,,01,107,0630812,,,,,,,2022-05-12,1,,,,,ノア,0
1498,5430001086585,新規,0,2022-05-12,2022-05-12,株式会社Ｋ２エージェント,,株式会社,北海道,札幌市手稲区,前田六条８丁目３番１８号ヴォール前田Ｄ号,,01,109,0060816,,,,,,,2022-05-12,1,,,,,ケーツーエージェント,0
1499,5460103001456,新規,0,2022-05-12,2022-05-12,合同会社佐藤トレーディングス,,合同会社,北海道,足寄郡足寄町,郊南２丁目７２番地７,,01,647,0893727,,,,,,,2022-05-12,1,,,,,サトウトレーディングス,0
1502,5470003002181,新規,0,2022-05-12,2022-05-12,合同会社ＲＩＣＨ・ＭＯＵＮＴＡＩＮ,,合同会社,香川県,丸亀市,綾歌町富熊１３９３番地,,37,202,7612407,,,,,,,2022-05-12,1,,,,,リッチマウンテン,0
1509,5500003002830,新規,0,2022-05-12,2022-05-12,合同会社Ｆ．ＧＩＲＡＦＦＥ,,合同会社,愛媛県,伊予郡松前町,大字神崎５５９番地６,,38,401,7913161,,,,,,,2022-05-12,1,,,,,エフジラフ,0
1519,6010001226463,新規,0,2022-05-12,2022-05-12,コスメハート株式会社,,株式会社,東京都,文京区,大塚５丁目１４番１５号,00126539,13,105,1120012,,,,,,,2022-05-12,1,,,,,コスメハート,0
1520,6010001226570,新規,0,2022-05-12,2022-05-12,タケトモｃｒｅａｔｅｓｔｕｄｉｏ株式会社,,株式会社,東京都,中央区,銀座１丁目２２－１１銀座大竹ビジデンス２Ｆ,,13,102,1040061,,,,,,,2022-05-12,1,,,,,タケトモクリエイトスタジオ,0
1522,6010005034986,新規,0,2022-05-12,2022-05-12,一般社団法人ＳＤＧｓコネクト協議会,,その他の設立登記法人,東京都,千代田区,丸の内１丁目８－３丸の内トラストタワー本館２０階,,13,101,1000005,,,,,,,2022-05-12,1,,,,,エスディージーズコネクトキョウギカイ,0
1537,6010403027625,新規,0,2022-05-12,2022-05-12,合同会社平オフィス,,合同会社,東京都,港区,南青山３丁目８番４０号青山センタービル２階,,13,103,1070062,,,,,,,2022-05-12,1,,,,,タイラオフィス,0
1538,6010403027633,新規,0,2022-05-12,2022-05-12,合同会社青山北町リサーチ,,合同会社,東京都,港区,北青山３丁目１２－７－５０２,,13,103,1070061,,,,,,,2022-05-12,1,,,,,アオヤマキタマチリサーチ,0
1541,6010501048829,新規,0,2022-05-12,2022-05-12,株式会社Ｋ,,株式会社,東京都,台東区,西浅草３丁目４番３号,,13,106,1110035,,,,,,,2022-05-12,1,,,,,ケイ,0
1543,6010601061129,新規,0,2022-05-12,2022-05-12,株式会社エヌアイアール,,株式会社,東京都,江東区,住吉１丁目１７番１８号,,13,108,1350002,,,,,,,2022-05-12,1,,,,,エヌアイアール,0
1544,6010601061153,新規,0,2022-05-12,2022-05-12,ＮＯＭＡＤ　ＣＯＮＳＵＬＴＩＮＧ株式会社,,株式会社,東京都,江東区,住吉１丁目１９番１－１６０９号,,13,108,1350002,,,,,,,2022-05-12,1,,,,,ノマドコンサルティング,0
1545,6010603009530,新規,0,2022-05-12,2022-05-12,ＫＭエステート合同会社,,合同会社,東京都,江東区,有明３丁目７－２６,,13,108,1350063,,,,,,,2022-05-12,1,,,,,ケーエムエステート,0
1546,6010701042631,新規,0,2022-05-12,2022-05-12,Ｙ‐Ｓｔｙｌｅ株式会社,,株式会社,東京都,品川区,東五反田１丁目２２番６号,,13,109,1410022,,,,,,,2022-05-12,1,,,,,ワイスタイル,0
1550,6010901050830,新規,0,2022-05-12,2022-05-12,株式会社Ｔ＆Ｓ　Ｍｅｄｉｃａｌ　Ｃｏｎｓｕｌｔａｎｔ,,株式会社,東京都,世田谷区,北沢４丁目１５番１２号,,13,112,1550031,,,,,,,2022-05-12,1,,,,,ティーアンドエスメディカルコンサルタント,0
1556,6011001147468,新規,0,2022-05-12,2022-05-12,Ｅｕｒｅｘ　Ｍａｎａｇｅｍｅｎｔ株式会社,,株式会社,東京都,渋谷区,桜丘町１５番１４号フジビル４０・７階,,13,113,1500031,,,,,,,2022-05-12,1,,,,,ユーレックスマネジメント,0
1558,6011003014674,新規,0,2022-05-12,2022-05-12,ナウビー合同会社,,合同会社,東京都,渋谷区,道玄坂１丁目１０番８号渋谷道玄坂東急ビル２Ｆ－Ｃ,,13,113,1500043,,,,,,,2022-05-12,1,,,,,,0
1563,6011103011737,新規,0,2022-05-12,2022-05-12,本菱ラボ合同会社,,合同会社,東京都,新宿区,西早稲田１丁目１４－７－５０６,,13,104,1690051,,,,,,,2022-05-12,1,,,,,ホンビシラボ,0
1574,6011801040681,新規,0,2022-05-12,2022-05-12,株式会社ＯＴＫ,,株式会社,東京都,足立区,弘道１丁目１９番３号,,13,121,1200013,,,,,,,2022-05-12,1,,,,,オーティーケー,0
1575,6011801040698,新規,0,2022-05-12,2022-05-12,アップドラフト株式会社,,株式会社,東京都,葛飾区,新宿１丁目２１番１８－２０１号,,13,122,1250051,,,,,,,2022-05-12,1,,,,,アップドラフト,0
1582,6012803002769,新規,0,2022-05-12,2022-05-12,合同会社Ｅｘｅｃｕｔｉｖｅ　Ｔ　Ｓｏｌｕｔｉｏｎｓ　Ｇｒｏｕｐ,,合同会社,東京都,立川市,錦町１丁目４－１３,,13,202,1900022,,,,,,,2022-05-12,1,,,,,エグゼクティブティーソリューションズグループ,0
1591,6020001146207,新規,0,2022-05-12,2022-05-12,株式会社Ｂｅａｕｔｙ‐ａｎｄ,,株式会社,神奈川県,横浜市磯子区,磯子台２７番Ｅ－５０１号,,14,107,2350019,,,,,,,2022-05-12,1,,,,,ビューティーアンド,0
1592,6020001146462,新規,0,2022-05-12,2022-05-12,株式会社しらかばホールディングス,,株式会社,神奈川県,横浜市港北区,富士塚２丁目１７番６号,,14,109,2220012,,,,,,,2022-05-12,1,,,,,シラカバホールディングス,0
1593,6020001146470,新規,0,2022-05-12,2022-05-12,株式会社ニュージャック,,株式会社,神奈川県,横浜市港南区,大久保２丁目１９番４２号久保坂ビル１Ｆ,,14,111,2330007,,,,,,,2022-05-12,1,,,,,ニュージャック,0
1594,6020001146504,新規,0,2022-05-12,2022-05-12,株式会社長友建設,,株式会社,神奈川県,横浜市旭区,上川井町２０５３番地１,,14,112,2410802,,,,,,,2022-05-12,1,,,,,ナガトモケンセツ,0
1598,6020005015531,新規,0,2022-05-12,2022-05-12,ぷわぷあ社会保険労務士法人,,その他の設立登記法人,神奈川県,横浜市青葉区,市ケ尾町１１５７－５－５０１,,14,117,2250024,,,,,,,2022-05-12,1,,,,,プワプア,0
1603,6021001075932,新規,0,2022-05-12,2022-05-12,ＣＯＲＥ　ＳＴＹＬＥ株式会社,,株式会社,神奈川県,大和市,中央林間西１丁目１６番１５号,,14,213,2420008,,,,,,,2022-05-12,1,,,,,コアスタイル,0
1613,6030001148177,新規,0,2022-05-12,2022-05-12,株式会社アマナト,,株式会社,埼玉県,所沢市,中新井２丁目２８１番地の８（１Ｆ）,,11,208,3590041,,,,,,,2022-05-12,1,,,,,アマナト,0
1614,6030001148193,新規,0,2022-05-12,2022-05-12,株式会社後藤ダクト,,株式会社,埼玉県,三郷市,戸ケ崎３２２３番地３,,11,237,3410044,,,,,,,2022-05-12,1,,,,,ゴトウダクト,0
1618,6030003019384,新規,0,2022-05-12,2022-05-12,合同会社彩東パートナーズ,,合同会社,埼玉県,草加市,高砂２丁目２１番３７号エクセランサビル３Ｆ,,11,221,3400015,,,,,,,2022-05-12,1,,,,,サイトウパートナーズ,0
1629,6040003019986,新規,0,2022-05-12,2022-05-12,要ホーム合同会社,,合同会社,千葉県,船橋市,夏見台１丁目２０番１３棟４０７号,,12,204,2730866,,,,,,,2022-05-12,1,,,,,カナメホーム,0
1630,6040003020011,新規,0,2022-05-12,2022-05-12,ｂａｃｋｆｒｏｎｔｕｘｄ合同会社,,合同会社,千葉県,松戸市,三矢小台４丁目６番地の７,,12,207,2710087,,,,,,,2022-05-12,1,,,,,バックフロントユーエックスディー,0
1631,6040005021602,新規,0,2022-05-12,2022-05-12,医療法人社団Ａｕｒａ,,その他の設立登記法人,千葉県,習志野市,津田沼１丁目１１番２０号松栄ビル３階１号室,,12,216,2750016,,,,,,,2022-05-12,1,,,,,アウラ,0
1638,6050003006554,新規,0,2022-05-12,2022-05-12,合同会社ＴＲＵＳＴ,,合同会社,茨城県,鹿嶋市,大字平井１２０２－１サンポートマンション３０３,,08,222,3140012,,,,,,,2022-05-12,1,,,,,トラスト,0
1640,6070001039224,新規,0,2022-05-12,2022-05-12,株式会社ルシアス,,株式会社,群馬県,高崎市,連雀町１０４スズメビルヂング,,10,202,3700826,,,,,,,2022-05-12,1,,,,,ルシアス,0
1641,6070003004481,新規,0,2022-05-12,2022-05-12,合同会社ＢＰＭ‐９９,,合同会社,群馬県,桐生市,本町５丁目３６４番地,,10,203,3760031,,,,,,,2022-05-12,1,,,,,ビーピーエムナインティナイン,0
1651,6090001017558,新規,0,2022-05-12,2022-05-12,株式会社ライフセキュリティー,,株式会社,山梨県,甲斐市,竜王２１２３番地３,,19,210,4000118,,,,,,,2022-05-12,1,,,,,ライフセキュリティー,0
1652,6090001017566,新規,0,2022-05-12,2022-05-12,株式会社カイエネ,,株式会社,山梨県,甲斐市,竜王１２４０番地１,,19,210,4000118,,,,,,,2022-05-12,1,,,,,カイエネ,0
1653,6090005007489,新規,0,2022-05-12,2022-05-12,一般社団法人富士五湖ダルク,,その他の設立登記法人,山梨県,富士吉田市,富士見１丁目７番６３号,,19,202,4030009,,,,,,,2022-05-12,1,,,,,フジゴコダルク,0
1654,6100001035327,新規,0,2022-05-12,2022-05-12,株式会社エムティージェー,,株式会社,長野県,上田市,上田２５３８番地２,,20,203,3860001,,,,,,,2022-05-12,1,,,,,エムティージェー,0
1655,6100005012875,新規,0,2022-05-12,2022-05-12,一般社団法人メディカルチェック,,その他の設立登記法人,長野県,長野市,大字大豆島１５６２番地,,20,201,3810022,,,,,,,2022-05-12,1,,,,,メディカルチェック,0
1670,6120001245527,新規,0,2022-05-12,2022-05-12,株式会社Ｋ３Ｔｒａｄｉｎｇ,,株式会社,大阪府,大阪市西成区,北津守４丁目４番７５－５３号,,27,122,5570061,,,,,,,2022-05-12,1,,,,,ケースリートレーディング,0
1671,6120001245618,新規,0,2022-05-12,2022-05-12,株式会社ＧＥＥＫ　ＰＲＯＪＥＣＴ,,株式会社,大阪府,大阪市北区,梅田１丁目１－３大阪駅前第３ビル２９階１－１－１号室,,27,127,5300001,,,,,,,2022-05-12,1,,,,,ギークプロジェクト,0
1672,6120001245832,新規,0,2022-05-12,2022-05-12,株式会社友愛,,株式会社,大阪府,大阪市西成区,山王３丁目１９番１２号,,27,122,5570001,,,,,,,2022-05-12,1,,,,,ユウアイ,0
1673,6120001245857,新規,0,2022-05-12,2022-05-12,株式会社ファニー,,株式会社,大阪府,大阪市北区,本庄東３丁目４番４０号,,27,127,5310074,,,,,,,2022-05-12,1,,,,,ファニー,0
1674,6120001245873,新規,0,2022-05-12,2022-05-12,株式会社Ａトラスト,,株式会社,大阪府,大阪市平野区,長吉長原１丁目２番４７号２０３号室,,27,126,5470016,,,,,,,2022-05-12,1,,,,,エートラスト,0
1679,6120005022947,新規,0,2022-05-12,2022-05-12,アルバ社会保険労務士法人,,その他の設立登記法人,大阪府,大阪市北区,梅田２丁目６番２０号４階,,27,127,5300001,,,,,,,2022-05-12,1,,,,,アルバ,0
1685,6120101065577,新規,0,2022-05-12,2022-05-12,株式会社イエティハウス,,株式会社,大阪府,岸和田市,阿間河滝町３３－２,,27,202,5960845,,,,,,,2022-05-12,1,,,,,イエティハウス,0
1693,6130001071716,新規,0,2022-05-12,2022-05-12,株式会社ＭＩＲＯＫＵ,,株式会社,京都府,京都市伏見区,深草ヲカヤ町３２,,26,109,6128403,,,,,,,2022-05-12,1,,,,,ミロク,0
1694,6130001071732,新規,0,2022-05-12,2022-05-12,株式会社西河マネジメントセンター,,株式会社,京都府,乙訓郡大山崎町,字円明寺小字北浦２番地６、１－４０３,,26,303,6180091,,,,,,,2022-05-12,1,,,,,ニシカワマネジメントセンター,0
1695,6130001071740,新規,0,2022-05-12,2022-05-12,株式会社中村興産,,株式会社,京都府,八幡市,八幡久保田１番地,,26,210,6148045,,,,,,,2022-05-12,1,,,,,ナカムラコウサン,0
1696,6130001071749,新規,0,2022-05-12,2022-05-12,株式会社サニーステップ,,株式会社,京都府,宇治市,宇治矢落２２番地の１ユニライフ宇治六番館４１５号,,26,204,6110021,,,,,,,2022-05-12,1,,,,,サニーステップ,0
1698,6140001125925,新規,0,2022-05-12,2022-05-12,株式会社ｇｅｇｅ,,株式会社,兵庫県,姫路市,北条永良町１７５,,28,201,6700946,,,,,,,2022-05-12,1,,,,,ゲゲ,0
1699,6140001125974,新規,0,2022-05-12,2022-05-12,サカイグループ株式会社,,株式会社,兵庫県,神戸市中央区,下山手通３丁目２番１５－６０１号,,28,110,6500011,,,,,,,2022-05-12,1,,,,,サカイグループ,0
1703,6140003017666,新規,0,2022-05-12,2022-05-12,合同会社クラインガルテン,,合同会社,兵庫県,神戸市西区,桜が丘西町５丁目５番地の１１,,28,111,6512227,,,,,,,2022-05-12,1,,,,,クラインガルテン,0
1705,6150001025538,新規,0,2022-05-12,2022-05-12,株式会社Ｓｈｉｎ,,株式会社,奈良県,天理市,指柳町２３９番地,,29,204,6320093,,,,,,,2022-05-12,1,,,,,シン,0
1717,6180001151208,新規,0,2022-05-12,2022-05-12,ＫＡＮＥＭＩＴＳＵ株式会社,,株式会社,愛知県,半田市,美原町１丁目２２８番地,,23,205,4750073,,,,,,,2022-05-12,1,,,,,カネミツ,0
1718,6180001151216,新規,0,2022-05-12,2022-05-12,株式会社グッドライフシステム,,株式会社,愛知県,春日井市,庄名町１丁目８番地５,,23,206,4870022,,,,,,,2022-05-12,1,,,,,グッドライフシステム,0
1719,6180001151224,新規,0,2022-05-12,2022-05-12,株式会社掃建美社,,株式会社,愛知県,名古屋市港区,錦町１８番２９号－１,,23,111,4550843,,,,,,,2022-05-12,1,,,,,ソウケンビシャ,0
1720,6180001151249,新規,0,2022-05-12,2022-05-12,Ｕ‐プランニング株式会社,,株式会社,愛知県,名古屋市中村区,千原町１０番５８号２０１,,23,105,4530011,,,,,,,2022-05-12,1,,,,,,0
1723,6180301036216,新規,0,2022-05-12,2022-05-12,株式会社ローカルグッディー,,株式会社,愛知県,豊橋市,菰口町６丁目１５番地１,,23,201,4418011,,,,,,,2022-05-12,1,,,,,ローカルグッディー,0
1729,6200001040069,新規,0,2022-05-12,2022-05-12,株式会社近衛ラボ,,株式会社,岐阜県,揖斐郡大野町,大字稲畑６０番地１１,,21,403,5010511,,,,,,,2022-05-12,1,,,,,コノエラボ,0
1733,6220001024838,新規,0,2022-05-12,2022-05-12,株式会社ｖｅｇｅｔａｂｌｅ　ｓｕｐｐｏｒｔ３６６,,株式会社,石川県,金沢市,無量寺５丁目５７番地２（サンライズＩＩ・２０１号）,00126542,17,201,9200333,,,,,,,2022-05-12,1,,,,,ベジタブルサポートサンロクロク,0
1740,6250001019546,新規,0,2022-05-12,2022-05-12,株式会社歩建設,,株式会社,山口県,防府市,大字西浦２３６７番地の１２３,,35,206,7470835,,,,,,,2022-05-12,1,,,,,アユミケンセツ,0
1742,6260003003910,新規,0,2022-05-12,2022-05-12,合同会社ＯＮＥ４ＯＮＥ,,合同会社,岡山県,岡山市中区,関４６番地１５,,33,102,7038232,,,,,,,2022-05-12,1,,,,,ワンフォーワン,0
1750,6290001097522,新規,0,2022-05-12,2022-05-12,すいせい株式会社,,株式会社,福岡県,福岡市博多区,上呉服町１３－４－１コーポ・ラポール５０５,,40,132,8120036,,,,,,,2022-05-12,1,,,,,スイセイ,0
1755,6290803004114,新規,0,2022-05-12,2022-05-12,合同会社ｕｐｓｔａｒｔ,,合同会社,福岡県,田川市,西本町１－２４ミヨシアパート１０２号室,,40,206,8260024,,,,,,,2022-05-12,1,,,,,,0
1762,6330001029735,新規,0,2022-05-12,2022-05-12,株式会社うおたま,,株式会社,熊本県,熊本市南区,八分字町３３４４番地グレースＨＦＪ１０２号,,43,104,8615253,,,,,,,2022-05-12,1,,,,,ウオタマ,0
1763,6330003009363,新規,0,2022-05-12,2022-05-12,優熱合同会社,,合同会社,熊本県,熊本市東区,御領５丁目３番３９－５号,,43,102,8618035,,,,,,,2022-05-12,1,,,,,ユウネツ,0
1771,6360001030376,新規,0,2022-05-12,2022-05-12,株式会社調,,株式会社,沖縄県,那覇市,泊１丁目１５番地１オーシャンパレス泊ＩＩＩ２０１,00126543,47,201,9000012,,,,,,,2022-05-12,1,,,,,シラベ,0
1777,6370001048558,新規,0,2022-05-12,2022-05-12,株式会社ワイズ企画,,株式会社,宮城県,仙台市青葉区,二日町９番２３－８０５号,,04,101,9800802,,,,,,,2022-05-12,1,,,,,ワイズキカク,0
1783,6380001032800,新規,0,2022-05-12,2022-05-12,株式会社フランティアビューロー,,株式会社,福島県,石川郡石川町,大字中田字八又３９６番地の１,,07,501,9637803,,,,,,,2022-05-12,1,,,,,,0
1786,6400001015884,新規,0,2022-05-12,2022-05-12,株式会社東日本パワーグリッド,,株式会社,岩手県,盛岡市,八幡町４番１８号,,03,201,0200872,,,,,,,2022-05-12,1,,,,,ヒガシニホンパワーグリッド,0
1792,6420001017838,新規,0,2022-05-12,2022-05-12,釜渕農園株式会社,,株式会社,青森県,三戸郡田子町,大字田子字蟹沢３４番地１,,02,443,0390201,,,,,,,2022-05-12,1,,,,,カマブチノウエン,0
1793,6420003002516,新規,0,2022-05-12,2022-05-12,合同会社ひなた,,合同会社,青森県,三戸郡田子町,大字遠瀬字新田向１９番地,,02,443,0390314,,,,,,,2022-05-12,1,,,,,ヒナタ,0
1796,6430003013875,新規,0,2022-05-12,2022-05-12,合同会社リーベル,,合同会社,北海道,札幌市西区,二十四軒一条３丁目２番２２－４０１号,,01,107,0630801,,,,,,,2022-05-12,1,,,,,リーベル,0
1797,6440001009081,新規,0,2022-05-12,2022-05-12,子田北海道株式会社,,株式会社,北海道,爾志郡乙部町,字館浦４８３－３３,,01,364,0430104,,,,,,,2022-05-12,1,,,,,コタホッカイドウ,0
1809,6470003002180,新規,0,2022-05-12,2022-05-12,合同会社Ｏｆｆｉｃｅ　Ｉ,,合同会社,香川県,三豊市,山本町大野３０７８番地,,37,208,7680102,,,,,,,2022-05-12,1,,,,,オフィスアイ,0
1842,7010001226578,新規,0,2022-05-12,2022-05-12,エネルリンクホールディングス株式会社,,株式会社,東京都,千代田区,丸の内３丁目３番１号,,13,101,1000005,,,,,,,2022-05-12,1,,,,,エネルリンクホールディングス,0
1855,7010401167232,新規,0,2022-05-12,2022-05-12,株式会社Ｈ＆Ｍ,,株式会社,東京都,港区,赤坂４丁目１４番１４－５１４号,,13,103,1070052,,,,,,,2022-05-12,1,,,,,エイチアンドエム,0
1856,7010401167281,新規,0,2022-05-12,2022-05-12,株式会社プリム,,株式会社,東京都,港区,北青山２丁目７番２０号猪瀬ビル２階,,13,103,1070061,,,,,,,2022-05-12,1,,,,,プリム,0
1859,7010601061128,新規,0,2022-05-12,2022-05-12,株式会社テラジマ,,株式会社,東京都,江東区,南砂２丁目２６番１８号,,13,108,1360076,,,,,,,2022-05-12,1,,,,,テラジマ,0
1860,7010601061136,新規,0,2022-05-12,2022-05-12,株式会社エフ・ケイ・アイ,,株式会社,東京都,江東区,常盤１丁目３番７－４０４号,,13,108,1350006,,,,,,,2022-05-12,1,,,,,エフケイアイ,0
1861,7010601061144,新規,0,2022-05-12,2022-05-12,オフィスしま株式会社,,株式会社,東京都,墨田区,菊川３丁目６番６－４１０号藤和菊川ホームズ,,13,107,1300024,,,,,,,2022-05-12,1,,,,,オフィスシマ,0
1865,7010703006220,新規,0,2022-05-12,2022-05-12,合同会社Ｙｏｕｒ　Ｆｉｒｓｔ　Ｐａｒｔｎｅｒ,,合同会社,東京都,品川区,大井１丁目４９番１２号,,13,109,1400014,,,,,,,2022-05-12,1,,,,,ユアファーストパートナー,0
1866,7010705003356,新規,0,2022-05-12,2022-05-12,一般社団法人師・フォーラム,,その他の設立登記法人,東京都,品川区,大崎１丁目２番３－１８０５号,,13,109,1410032,,,,,,,2022-05-12,1,,,,,シフォーラム,0
1883,7011001147079,新規,0,2022-05-12,2022-05-12,株式会社アーム,,株式会社,東京都,渋谷区,神宮前６丁目２３番４号桑野ビル,,13,113,1500001,,,,,,,2022-05-12,1,,,,,アーム,0
1884,7011001147384,新規,0,2022-05-12,2022-05-12,株式会社ブライトサムジャパン,,株式会社,東京都,渋谷区,恵比寿１丁目１５番９号日宝恵比寿ビル４０３,,13,113,1500013,,,,,,,2022-05-12,1,,,,,ブライトサムジャパン,0
1885,7011001147442,新規,0,2022-05-12,2022-05-12,ＸＴＸ株式会社,,株式会社,東京都,目黒区,目黒本町３丁目１４番９号,,13,110,1520002,,,,,,,2022-05-12,1,,,,,エクスティエクス,0
1886,7011001147467,新規,0,2022-05-12,2022-05-12,株式会社エーシーズ,,株式会社,東京都,渋谷区,渋谷３丁目６番４号プライア渋谷,,13,113,1500002,,,,,,,2022-05-12,1,,,,,エーシーズ,0
1890,7011003014632,新規,0,2022-05-12,2022-05-12,合同会社ＳｍａｒｔＣｏｎｎｅｃｔｉｏｎｓ,,合同会社,東京都,渋谷区,神宮前６丁目２３番４号桑野ビル２階,,13,113,1500001,,,,,,,2022-05-12,1,,,,,スマートコネクションズ,0
1891,7011005009572,新規,0,2022-05-12,2022-05-12,一般財団法人たちばな日本環境文化財団,,その他の設立登記法人,東京都,目黒区,三田１丁目４番３－３００３号恵比寿ガーデンテラス壱番館,,13,110,1530062,,,,,,,2022-05-12,1,,,,,タチバナニホンカンキョウブンカザイダン,0
1893,7011101098800,新規,0,2022-05-12,2022-05-12,株式会社ＤＵＨ,,株式会社,東京都,新宿区,東五軒町５番１８－３０２号,,13,104,1620813,,,,,,,2022-05-12,1,,,,,ディーユーエイチ,0
1898,7011201023815,新規,0,2022-05-12,2022-05-12,株式会社アムス東京,,株式会社,東京都,中野区,本町３丁目１８番１０号ＳＥＡＧＥＬＨＯＵＳＥ１０５,,13,114,1640012,,,,,,,2022-05-12,1,,,,,アムストウキョウ,0
1902,7011401024217,新規,0,2022-05-12,2022-05-12,株式会社ａｎｄＦＯＯＤ,,株式会社,東京都,板橋区,南常盤台１丁目１１－６レフア南常盤台１０１号室,,13,119,1740072,,,,,,,2022-05-12,1,,,,,アンドフード,0
1905,7011501028027,新規,0,2022-05-12,2022-05-12,恵敏株式会社,,株式会社,東京都,北区,田端１丁目１２番１５－１０１号,,13,117,1140014,,,,,,,2022-05-12,1,,,,,エミン,0
1906,7011601025948,新規,0,2022-05-12,2022-05-12,株式会社Ａｄｅｌｔａ,,株式会社,東京都,練馬区,向山２丁目６番１０－３１４号,,13,120,1760022,,,,,,,2022-05-12,1,,,,,アデルタ,0
1910,7011801040706,新規,0,2022-05-12,2022-05-12,株式会社日本電気保安技術,,株式会社,東京都,足立区,綾瀬１丁目２１番９号,,13,121,1200005,,,,,,,2022-05-12,1,,,,,ニホンデンキホアンギジュツ,0
1913,7012301012988,新規,0,2022-05-12,2022-05-12,株式会社エノラ,,株式会社,東京都,町田市,成瀬８丁目５番２８号ウインディ成瀬１０２,,13,209,1940044,,,,,,,2022-05-12,1,,,,,エノラ,0
1916,7012705002305,新規,0,2022-05-12,2022-05-12,一般社団法人次世代教育総合研究所,,その他の設立登記法人,東京都,小平市,大沼町６丁目１番１－６０４号,,13,211,1870001,,,,,,,2022-05-12,1,,,,,ジセダイキョウイクソウゴウケンキュウジョ,0
1918,7013301049070,新規,0,2022-05-12,2022-05-12,株式会社ｔｋ　ｉｎｎｏｖａｔｉｏｎｓ,,株式会社,東京都,豊島区,東池袋２丁目６２－８ビッグオフィスプラザ池袋１００１,,13,116,1700013,,,,,,,2022-05-12,1,,,,,ティーケーイノベーションズ,0
1922,7020001146379,新規,0,2022-05-12,2022-05-12,東昇株式会社,,株式会社,神奈川県,横浜市中区,山下町９８番地,,14,104,2310023,,,,,,,2022-05-12,1,,,,,トウショウ,0
1923,7020001146461,新規,0,2022-05-12,2022-05-12,株式会社あさまホールディングス,,株式会社,神奈川県,横浜市港北区,富士塚２丁目１７番６号,,14,109,2220012,,,,,,,2022-05-12,1,,,,,アサマホールディングス,0
1925,7020003021729,新規,0,2022-05-12,2022-05-12,Ｐａｎｏｐｌｙ合同会社,,合同会社,神奈川県,横浜市中区,元浜町２丁目１３番地１－９０４,,14,104,2310004,,,,,,,2022-05-12,1,,,,,パノプリ,0
1931,7021003011661,新規,0,2022-05-12,2022-05-12,ＣａｒｄｉｏＶｅｔｓ　Ｊａｐａｎ合同会社,,合同会社,神奈川県,相模原市緑区,町屋４丁目２２番６－３０３号,,14,151,2520101,,,,,,,2022-05-12,1,,,,,カーディオベッツジャパン,0
1932,7021003011694,新規,0,2022-05-12,2022-05-12,合同会社マゴメイク,,合同会社,神奈川県,綾瀬市,蓼川３丁目１番地５５号,,14,218,2521105,,,,,,,2022-05-12,1,,,,,マゴメイク,0
1939,7030001148077,新規,0,2022-05-12,2022-05-12,株式会社ＰＨＯＥＮＩＸ　ＢＩＺ,,株式会社,埼玉県,東松山市,大字東平１１３５番地１,,11,212,3550002,,,,,,,2022-05-12,1,,,,,フェニックスビズ,0
1940,7030001148119,新規,0,2022-05-12,2022-05-12,株式会社ＹＥＣ,,株式会社,埼玉県,川口市,並木３丁目１４番２３号ワコービル６０２号,,11,203,3320034,,,,,,,2022-05-12,1,,,,,ワイイーシー,0
1946,7030003019383,新規,0,2022-05-12,2022-05-12,シエラセーフハウス合同会社,,合同会社,埼玉県,川口市,西川口３丁目１４番１４号フドウ西川口ハイツ６０６,,11,203,3320021,,,,,,,2022-05-12,1,,,,,シエラセーフハウス,0
1947,7040001123252,新規,0,2022-05-12,2022-05-12,株式会社ＷＯＲＬＤ　ＳＨＯＷ　ＴＩＭＥ,,株式会社,千葉県,成田市,南平台１１６１番地５,,12,211,2860042,,,,,,,2022-05-12,1,,,,,ワールドショウタイム,0
1948,7040001123310,新規,0,2022-05-12,2022-05-12,株式会社高橋工業,00126538,株式会社,千葉県,富津市,大堀２１３０番地４,,12,226,2930001,,,,,,,2022-05-12,1,,,,,タカハシコウギョウ,0
1958,7070001039223,新規,0,2022-05-12,2022-05-12,株式会社キャピタルレイズ,,株式会社,群馬県,高崎市,江木町１５３５番地,,10,202,3700046,,,,,,,2022-05-12,1,,,,,キャピタルレイズ,0
1960,7080001024934,新規,0,2022-05-12,2022-05-12,株式会社イレブン,,株式会社,静岡県,静岡市駿河区,森下町４番２３－１１０２号,,22,102,4228061,,,,,,,2022-05-12,1,,,,,イレブン,0
1963,7080101023282,新規,0,2022-05-12,2022-05-12,株式会社Ｍレンタリース自動車販売,,株式会社,静岡県,富士市,中之郷５９６番地の２,,22,210,4213306,,,,,,,2022-05-12,1,,,,,エムレンタリースジドウシャハンバイ,0
1964,7090001017565,新規,0,2022-05-12,2022-05-12,明比工業株式会社,,株式会社,山梨県,甲斐市,篠原１５３８番地２,,19,210,4000115,,,,,,,2022-05-12,1,,,,,アケビコウギョウ,0
1965,7090003002086,新規,0,2022-05-12,2022-05-12,合同会社線引屋,,合同会社,山梨県,西八代郡市川三郷町,上野１１１５番地１,,19,346,4093612,,,,,,,2022-05-12,1,,,,,センビキヤ,0
1974,7110001036653,新規,0,2022-05-12,2022-05-12,株式会社宥貴,,株式会社,新潟県,新発田市,大栄町４丁目３番２号,,15,206,9570056,,,,,,,2022-05-12,1,,,,,ユウキ,0
1991,7120001245699,新規,0,2022-05-12,2022-05-12,株式会社ＲＥＴＡＲＴ,,株式会社,大阪府,大阪市中央区,博労町１丁目８番１０－７０１号,,27,128,5410059,,,,,,,2022-05-12,1,,,,,リタート,0
1992,7120001245831,新規,0,2022-05-12,2022-05-12,株式会社つながり,,株式会社,大阪府,大阪市中央区,安土町３丁目４番９－１８０１号,,27,128,5410052,,,,,,,2022-05-12,1,,,,,ツナガリ,0
1996,7120003021669,新規,0,2022-05-12,2022-05-12,合同会社サクセス,,合同会社,大阪府,大阪市西区,南堀江１丁目７番３号オールドベティーズビル４Ｆ,,27,106,5500015,,,,,,,2022-05-12,1,,,,,サクセス,0
1999,7120101065576,新規,0,2022-05-12,2022-05-12,株式会社ＣＭＭ,,株式会社,大阪府,泉佐野市,日根野３０６２番地の４,,27,213,5980021,,,,,,,2022-05-12,1,,,,,シーエムエム,0
2015,7130001071772,新規,0,2022-05-12,2022-05-12,株式会社レインボー,,株式会社,京都府,宇治市,宇治弐番５１番地サングリーンハウス２０３号,,26,204,6110021,,,,,,,2022-05-12,1,,,,,レインボー,0
2020,7140001125924,新規,0,2022-05-12,2022-05-12,株式会社Ａｊｕｉ,,株式会社,兵庫県,姫路市,青山北３丁目３３番１７号,,28,201,6712221,,,,,,,2022-05-12,1,,,,,アージュイ,0
2021,7140001125932,新規,0,2022-05-12,2022-05-12,株式会社ＭＡＳＡＫＩ,,株式会社,兵庫県,宝塚市,末成町３９番２３号,,28,214,6650044,,,,,,,2022-05-12,1,,,,,マサキ,0
2022,7140001125965,新規,0,2022-05-12,2022-05-12,株式会社エッセンショナル,,株式会社,兵庫県,丹波市,氷上町新郷６６０番地,,28,223,6693571,,,,,,,2022-05-12,1,,,,,エッセンショナル,0
2023,7140001125973,新規,0,2022-05-12,2022-05-12,株式会社ｇｒａｃｅ・ｐｌｕｓ,,株式会社,兵庫県,姫路市,砥堀３４番地７,,28,201,6700802,,,,,,,2022-05-12,1,,,,,グレイスプラス,0
2026,7140003017665,新規,0,2022-05-12,2022-05-12,ＧＡＴＯＲ合同会社,,合同会社,兵庫県,姫路市,船津町３３３３－３,,28,201,6792101,,,,,,,2022-05-12,1,,,,,ゲーター,0
2033,7180001151181,新規,0,2022-05-12,2022-05-12,株式会社共栄社,,株式会社,愛知県,名古屋市千種区,上野３丁目２０番２４号－１,,23,101,4640082,,,,,,,2022-05-12,1,,,,,キョウエイシャ,0
2034,7180001151306,新規,0,2022-05-12,2022-05-12,株式会社Ｇｌｅｅ,,株式会社,愛知県,名古屋市緑区,鳴海町字有松裏７番地の１９－３階,,23,114,4580824,,,,,,,2022-05-12,1,,,,,グリー,0
2041,7180301036198,新規,0,2022-05-12,2022-05-12,Ｈ＆Ａインシュアランス株式会社,,株式会社,愛知県,知立市,西町西７３番地,,23,225,4720023,,,,,,,2022-05-12,1,,,,,エイチアンドエーインシュアランス,0
2043,7190005011703,新規,0,2022-05-12,2022-05-12,一般社団法人グローカル・ユース,,その他の設立登記法人,三重県,四日市市,諏訪栄町１６番２号鷲尾ビル４階,,24,202,5100086,,,,,,,2022-05-12,1,,,,,グローカルユース,0
2049,7240001059781,新規,0,2022-05-12,2022-05-12,株式会社オガヒロ設備,,株式会社,広島県,広島市安佐北区,上深川町８０６番地,,34,106,7391752,,,,,,,2022-05-12,1,,,,,オガヒロセツビ,0
2059,7250001019537,新規,0,2022-05-12,2022-05-12,株式会社エイムラボ,,株式会社,山口県,岩国市,周東町西長野２３９６番地４,,35,208,7420425,,,,,,,2022-05-12,1,,,,,エイムラボ,0
2068,7290001097505,新規,0,2022-05-12,2022-05-12,株式会社ＫＹＡネクスト,,株式会社,福岡県,福岡市東区,若宮５丁目３番３３－７１１号アーベイン香椎南３３棟,,40,131,8130036,,,,,,,2022-05-12,1,,,,,ケーワイエーネクスト,0
2069,7290003012503,新規,0,2022-05-12,2022-05-12,ミックスアップ合同会社,,合同会社,福岡県,那珂川市,片縄２丁目１番地４０２号,,40,231,8111201,,,,,,,2022-05-12,1,,,,,ミックスアップ,0
2070,7290003012511,新規,0,2022-05-12,2022-05-12,合同会社ｗａｉ２企画,,合同会社,福岡県,春日市,岡本１丁目３３番地１ディナスティ３０２号,,40,218,8160861,,,,,,,2022-05-12,1,,,,,ワイツーキカク,0
2079,7340001024726,新規,0,2022-05-12,2022-05-12,株式会社ｉ‐ｐｒｏｊｅｃｔ,,株式会社,鹿児島県,鹿児島市,草牟田２丁目９番２０号,,46,201,8900014,,,,,,,2022-05-12,1,,,,,アイプロジェクト,0
2090,7380001032799,新規,0,2022-05-12,2022-05-12,株式会社布藤農産,,株式会社,福島県,耶麻郡磐梯町,大字更科字樋下３８番地,00126540,07,407,9693302,,,,,,,2022-05-12,1,,,,,フトウノウサン,0
2094,7400001015883,新規,0,2022-05-12,2022-05-12,株式会社東北パワーグリッド,,株式会社,岩手県,盛岡市,八幡町４番１８号,,03,201,0200872,,,,,,,2022-05-12,1,,,,,トウホクパワーグリッド,0
2096,7420001017837,新規,0,2022-05-12,2022-05-12,株式会社インフィニティ,,株式会社,青森県,八戸市,諏訪２丁目２７番２０号シティホームＡ,,02,203,0310803,,,,,,,2022-05-12,1,,,,,インフィニティ,0
2098,7430001086575,新規,0,2022-05-12,2022-05-12,株式会社ｍｉ,,株式会社,北海道,岩見沢市,東町一条８丁目１３６３番地１２,,01,210,0680013,,,,,,,2022-05-12,1,,,,,ミィ,0
2100,7430003013874,新規,0,2022-05-12,2022-05-12,合同会社Ｋｒｅｘ,,合同会社,北海道,札幌市北区,新琴似六条９丁目５番１８号の２,,01,102,0010906,,,,,,,2022-05-12,1,,,,,ケーレックス,0
2103,7440001009080,新規,0,2022-05-12,2022-05-12,株式会社エフティービジョン,,株式会社,北海道,亀田郡七飯町,大川１丁目１２番１１号,,01,337,0411122,,,,,,,2022-05-12,1,,,,,エフティービジョン,0
2113,7700150107880,新規,0,2022-05-12,2022-04-12,妖精大図鑑,,その他,神奈川県,横浜市港北区,日吉本町２丁目２１－９美好荘２０３号室,,14,109,2230062,,,,,,,2022-04-12,1,,,,,ヨウセイダイズカン,0
2123,8010001226511,新規,0,2022-05-12,2022-05-12,Ｔｒａｉｌ株式会社,,株式会社,東京都,中央区,銀座１丁目１２番４号Ｎ＆ＥＢＬＤ．７階,,13,102,1040061,,,,,,,2022-05-12,1,,,,,トレイル,0
2124,8010001226528,新規,0,2022-05-12,2022-05-12,ＨＵＢ　ＣＯＮＳＵＬＴＩＮＧ株式会社,,株式会社,東京都,中央区,晴海３丁目１０－１Ｄａｉｗａ晴海２Ｆ,,13,102,1040053,,,,,,,2022-05-12,1,,,,,ハブコンサルティング,0
2125,8010001226577,新規,0,2022-05-12,2022-05-12,ＢＩＧトレカ株式会社,,株式会社,東京都,中央区,明石町１３－１８プラウド銀座東４０１号室,,13,102,1040044,,,,,,,2022-05-12,1,,,,,ビックトレカ,0
2126,8010001226619,新規,0,2022-05-12,2022-05-12,株式会社エール・アイ,,株式会社,東京都,千代田区,神田多町２丁目５喜助神田多町ビル５Ｆ,,13,101,1010046,,,,,,,2022-05-12,1,,,,,エールアイ,0
2137,8010401167108,新規,0,2022-05-12,2022-05-12,ＦＣ　Ｄｉｇｉｔａｌ　Ｆｏｒｗａｒｄｅｒ株式会社,,株式会社,東京都,港区,南青山３丁目１番３号,,13,103,1070062,,,,,,,2022-05-12,1,,,,,エフシーデジタルフォワーダー,0
2138,8010401167280,新規,0,2022-05-12,2022-05-12,株式会社ＢｕｙＢｕｙ,,株式会社,東京都,港区,芝公園２丁目４番１号芝パークビル,,13,103,1050011,,,,,,,2022-05-12,1,,,,,バイバイ,0
2141,8010501048827,新規,0,2022-05-12,2022-05-12,カドリチ・エンタープライズ株式会社,,株式会社,東京都,台東区,北上野１丁目１０番１４号上野５号館ハイツ１２０６,,13,106,1100014,,,,,,,2022-05-12,1,,,,,カドリチエンタープライズ,0
2146,8010601061093,新規,0,2022-05-12,2022-05-12,Ｐａｒａｃｅｌ　Ｊａｐａｎ株式会社,,株式会社,東京都,江東区,木場３丁目３番１６－３０４号,,13,108,1350042,,,,,,,2022-05-12,1,,,,,パラセルジャパン,0
2147,8010601061127,新規,0,2022-05-12,2022-05-12,オーキー・ジャパン株式会社,,株式会社,東京都,江東区,東雲１丁目９番５０－１５０３号,,13,108,1350062,,,,,,,2022-05-12,1,,,,,オーキージャパン,0
2148,8010601061135,新規,0,2022-05-12,2022-05-12,株式会社シンテック,,株式会社,東京都,墨田区,両国２丁目２０番１２号ライオンズステーションプラザ両国２１０号室,,13,107,1300026,,,,,,,2022-05-12,1,,,,,シンテック,0
2149,8010601061143,新規,0,2022-05-12,2022-05-12,株式会社ケイ・アール,,株式会社,東京都,江東区,富岡１丁目２６番１０号,,13,108,1350047,,,,,,,2022-05-12,1,,,,,ケイアール,0
2154,8010701042638,新規,0,2022-05-12,2022-05-12,株式会社じぶんスタイル研究所,,株式会社,東京都,品川区,北品川２丁目２４－９,,13,109,1400001,,,,,,,2022-05-12,1,,,,,ジブンスタイルケンキュウジョ,0
2156,8010703006228,新規,0,2022-05-12,2022-05-12,ＰｌｕｓＯｎＬａｂ合同会社,,合同会社,東京都,品川区,二葉３丁目１－１４－１０３,,13,109,1420043,,,,,,,2022-05-12,1,,,,,プラソンラボ,0
2161,8011001147458,新規,0,2022-05-12,2022-05-12,Ｍｅｇａ　Ｈｉｔ株式会社,,株式会社,東京都,渋谷区,広尾４丁目１番１５－５０１号,,13,113,1500012,,,,,,,2022-05-12,1,,,,,メガヒット,0
2169,8011101098782,新規,0,2022-05-12,2022-05-12,株式会社Ｒｅ,,株式会社,東京都,新宿区,西新宿７丁目２２－３ＢＰビルＡＮＮＥＸ１０５,,13,104,1600023,,,,,,,2022-05-12,1,,,,,アールイー,0
2170,8011101098799,新規,0,2022-05-12,2022-05-12,株式会社サイト,,株式会社,東京都,新宿区,上落合２丁目１番７号ブルーノート５０２,,13,104,1610034,,,,,,,2022-05-12,1,,,,,サイト,0
2175,8011401024224,新規,0,2022-05-12,2022-05-12,株式会社ＡＴＲＵＳ,,株式会社,東京都,板橋区,小茂根１丁目９番１８－２０２号,,13,119,1730037,,,,,,,2022-05-12,1,,,,,アトラス,0
2176,8011503005155,新規,0,2022-05-12,2022-05-12,イーストエンジニアリング合同会社,,合同会社,東京都,北区,赤羽西２丁目２０番５号ビットストロング赤羽２０２号,,13,117,1150055,,,,,,,2022-05-12,1,,,,,イーストエンジニアリング,0
2182,8011701025302,新規,0,2022-05-12,2022-05-12,ケイ・アンド・カンパニー株式会社,,株式会社,東京都,江戸川区,東葛西１丁目３４番７号,,13,123,1340084,,,,,,,2022-05-12,1,,,,,ケイアンドカンパニー,0
2185,8011803005086,新規,0,2022-05-12,2022-05-12,合同会社ゾーン,,合同会社,東京都,足立区,千住河原町２１番１３号エスペランサ１８－４０５号室,,13,121,1200037,,,,,,,2022-05-12,1,,,,,ゾーン,0
2186,8012303001674,新規,0,2022-05-12,2022-05-12,合同会社シャンヴル,,合同会社,東京都,町田市,三輪緑山２丁目２１４１番地１,,13,209,1950055,,,,,,,2022-05-12,1,,,,,シャンヴル,0
2192,8012801021570,新規,0,2022-05-12,2022-05-12,株式会社ヒノマルセン,,株式会社,東京都,国立市,谷保５８７８番地,,13,215,1860011,,,,,,,2022-05-12,1,,,,,ヒノマルセン,0
2194,8012803002775,新規,0,2022-05-12,2022-05-12,合同会社セカエル,,合同会社,東京都,昭島市,美堀町１丁目２７番１号,,13,207,1960001,,,,,,,2022-05-12,1,,,,,セカエル,0
2199,8013305003345,新規,0,2022-05-12,2022-05-12,一般社団法人Ｒｅａｌ＆Ｏｎｌｉｎｅ　Ｃｏｌｌｅｇｅ,,その他の設立登記法人,東京都,豊島区,東池袋３丁目２１番２１－２３０７号,,13,116,1700013,,,,,,,2022-05-12,1,,,,,リアルアンドオンラインカレッジ,0
2211,8020001146493,新規,0,2022-05-12,2022-05-12,株式会社ＧＡＴＯ,,株式会社,神奈川県,横浜市緑区,鴨居町８１９番地,,14,113,2260004,,,,,,,2022-05-12,1,,,,,ガト,0
2229,8021001075897,新規,0,2022-05-12,2022-05-12,株式会社ＴＯＰデザイン,,株式会社,神奈川県,大和市,大和南２丁目１０番１４号,,14,213,2420016,,,,,,,2022-05-12,1,,,,,トップデザイン,0
2230,8021003011685,新規,0,2022-05-12,2022-05-12,合同会社ｇｒｏｗ,,合同会社,神奈川県,藤沢市,南藤沢６番１５号,,14,205,2510055,,,,,,,2022-05-12,1,,,,,グロー,0
2234,8030001148150,新規,0,2022-05-12,2022-05-12,株式会社ＵＰＳＴＲＥＡＭ,,株式会社,埼玉県,川越市,大字小堤９１０－２８メゾン鶴ヶ島駅前２０１,,11,201,3500811,,,,,,,2022-05-12,1,,,,,アップストリーム,0
2235,8030001148183,新規,0,2022-05-12,2022-05-12,株式会社キャリーワン,,株式会社,埼玉県,北本市,石戸宿４丁目３４番３号,,11,233,3640025,,,,,,,2022-05-12,1,,,,,キャリーワン,0
2236,8030003019374,新規,0,2022-05-12,2022-05-12,合同会社エール,,合同会社,埼玉県,川口市,西川口１丁目１０番２０号新井ビル３階,,11,203,3320021,,,,,,,2022-05-12,1,,,,,エール,0
2237,8030003019382,新規,0,2022-05-12,2022-05-12,ＬＣＦ合同会社,,合同会社,埼玉県,新座市,北野２丁目３番２５号,,11,230,3520003,,,,,,,2022-05-12,1,,,,,エルシーエフ,0
2243,8040001123276,新規,0,2022-05-12,2022-05-12,総合企画ＴＮＫ株式会社,,株式会社,千葉県,野田市,木間ケ瀬４８３６番地２,,12,208,2700222,,,,,,,2022-05-12,1,,,,,ソウゴウキカクティーエヌケイ,0
2244,8040001123326,新規,0,2022-05-12,2022-05-12,株式会社ＤＰ,,株式会社,千葉県,松戸市,新松戸１丁目４３８番地新松戸ハイツ１階,,12,207,2700034,,,,,,,2022-05-12,1,,,,,ディーピー,0
2245,8040001123342,新規,0,2022-05-12,2022-05-12,株式会社やるきマネジメント,,株式会社,千葉県,市川市,八幡３丁目８番１７号ウッドパークヤワタ１階,,12,203,2720021,,,,,,,2022-05-12,1,,,,,ヤルキマネジメント,0
2246,8040001123383,新規,0,2022-05-12,2022-05-12,武田通商ジャパン株式会社,,株式会社,千葉県,八千代市,大学町２丁目８番１３号,,12,221,2760003,,,,,,,2022-05-12,1,,,,,タケダツウショウジャパン,0
2247,8040003019976,新規,0,2022-05-12,2022-05-12,北東エンジニアリング合同会社,,合同会社,千葉県,八千代市,八千代台西８丁目４番９号,,12,221,2760034,,,,,,,2022-05-12,1,,,,,ホクトウエンジニアリング,0
2253,8060001034868,新規,0,2022-05-12,2022-05-12,株式会社ＢＵＩＬＤ,,株式会社,栃木県,宇都宮市,鶴田町２０３０番地プラシデス３０６,,09,201,3200851,,,,,,,2022-05-12,1,,,,,ビルド,0
2255,8070001039230,新規,0,2022-05-12,2022-05-12,株式会社ＭＨトレーディング,,株式会社,群馬県,伊勢崎市,境新栄７番地１セーユーコーポ境１０２,,10,204,3700114,,,,,,,2022-05-12,1,,,,,エムエイチトレーディング,0
2257,8080001024933,新規,0,2022-05-12,2022-05-12,株式会社ジャパン・メデイア・サポート,,株式会社,静岡県,静岡市葵区,伝馬町１番地２ホテルシティオ静岡３階,,22,101,4200858,,,,,,,2022-05-12,1,,,,,ジャパンメディアサポート,0
2265,8090003002085,新規,0,2022-05-12,2022-05-12,合同会社ステップホーム,,合同会社,山梨県,甲府市,太田町１８番１１号,,19,201,4000865,,,,,,,2022-05-12,1,,,,,ステップホーム,0
2270,8110005016808,新規,0,2022-05-12,2022-05-12,一般社団法人相川車座,,その他の設立登記法人,新潟県,佐渡市,相川一町目３２番地,,15,224,9521557,,,,,,,2022-05-12,1,,,,,アイカワクルマザ,0
2286,8120001245839,新規,0,2022-05-12,2022-05-12,株式会社ＯＲＩＫＡ,,株式会社,大阪府,大阪市西区,南堀江３丁目３番３号,,27,106,5500015,,,,,,,2022-05-12,1,,,,,オリカ,0
2287,8120001245855,新規,0,2022-05-12,2022-05-12,株式会社ＢＲＯＣＫ,,株式会社,大阪府,大阪市北区,梅田１丁目１番３号大阪駅前第３ビル２９階１－１－１号室,,27,127,5300001,,,,,,,2022-05-12,1,,,,,ブロック,0
2288,8120001245863,新規,0,2022-05-12,2022-05-12,株式会社Ｎ＆Ｍ,,株式会社,大阪府,大阪市淀川区,十三本町３丁目５番１１号,,27,123,5320024,,,,,,,2022-05-12,1,,,,,エヌアンドエム,0
2289,8120003021668,新規,0,2022-05-12,2022-05-12,合同会社ＫＲＳ,,合同会社,大阪府,寝屋川市,池田中町１４番１０号池田マンション２０１号室,,27,215,5720074,,,,,,,2022-05-12,1,,,,,ケイアールエス,0
2296,8120901045958,新規,0,2022-05-12,2022-05-12,ＫＮＯＷＬＥＤＧＥ　ＰＡＲＴＮＥＲ株式会社,,株式会社,大阪府,高槻市,東五百住町１丁目１番８号,,27,207,5690811,,,,,,,2022-05-12,1,,,,,ナレッジパートナー,0
2299,8120903004144,新規,0,2022-05-12,2022-05-12,Ｊ‐ＮＥＴコミュニケーションズ合同会社,,合同会社,大阪府,茨木市,沢良宜西３丁目１１－２３ルイシャトレ南茨木８０６,,27,211,5670868,,,,,,,2022-05-12,1,,,,,ジェイネットコミュニケーションズ,0
2308,8130001071697,新規,0,2022-05-12,2022-05-12,株式会社まごころエンジニアリング,,株式会社,京都府,京都市右京区,西京極東大丸町２２－４０２,,26,108,6150807,,,,,,,2022-05-12,1,,,,,マゴコロエンジニアリング,0
2309,8130001071730,新規,0,2022-05-12,2022-05-12,株式会社真・京匠福嶋工務店,,株式会社,京都府,京都市右京区,梅津上田町１番地３０,,26,108,6150932,,,,,,,2022-05-12,1,,,,,シンキョウショウフクシマコウムテン,0
2311,8130003007922,新規,0,2022-05-12,2022-05-12,合同会社ｋｏｈａｒｕ,,合同会社,京都府,京都市伏見区,深草キトロ町１２番地７１８号,,26,109,6120025,,,,,,,2022-05-12,1,,,,,コハル,0
2319,8140001125948,新規,0,2022-05-12,2022-05-12,株式会社ＨＥＡＲＴ　ＡＩＤ,,株式会社,兵庫県,神戸市垂水区,千代が丘１丁目４－３０,,28,108,6550018,,,,,,,2022-05-12,1,,,,,ハートエイド,0
2320,8140001125964,新規,0,2022-05-12,2022-05-12,ＺＥＲＯ　Ｃｏｎｓｔｒｕｃｔｉｏｎ株式会社,,株式会社,兵庫県,尼崎市,西難波町４丁目６番２６号,,28,202,6600893,,,,,,,2022-05-12,1,,,,,ゼロコンストラクション,0
2330,8180001151180,新規,0,2022-05-12,2022-05-12,株式会社ｂｅｓｐｏｋｅ,,株式会社,愛知県,名古屋市西区,稲生町字杁先２２００－２０３,,23,104,4510012,,,,,,,2022-05-12,1,,,,,ビスポーク,0
2331,8180001151222,新規,0,2022-05-12,2022-05-12,株式会社アンネージュ,,株式会社,愛知県,一宮市,貴船町３丁目１８番地１,,23,203,4910076,,,,,,,2022-05-12,1,,,,,アンネージュ,0
2333,8180003023799,新規,0,2022-05-12,2022-05-12,合同会社ホワイト,,合同会社,愛知県,名古屋市中区,丸の内１丁目１７番１９号,,23,106,4600002,,,,,,,2022-05-12,1,,,,,ホワイト,0
2350,8250001019552,新規,0,2022-05-12,2022-05-12,エムテクノ株式会社,,株式会社,山口県,下松市,大字末武上１９００番地７,,35,207,7440024,,,,,,,2022-05-12,1,,,,,エムテクノ,0
2351,8250003003059,新規,0,2022-05-12,2022-05-12,合同会社ＩＮＤＩＶＩＤＵＡＬ,,合同会社,山口県,柳井市,遠崎７番地３,,35,212,7490103,,,,,,,2022-05-12,1,,,,,インディヴィジュアル,0
2358,8290001097347,新規,0,2022-05-12,2022-05-12,株式会社ココカラペイント,,株式会社,福岡県,筑紫野市,大字阿志岐２４６２番地１２,,40,217,8180011,,,,,,,2022-05-12,1,,,,,ココカラペイント,0
2359,8290001097495,新規,0,2022-05-12,2022-05-12,株式会社ＣＯＭＮＥＣＴ,,株式会社,福岡県,福岡市西区,姪の浜１丁目８番１３,,40,135,8190002,,,,,,,2022-05-12,1,,,,,コムネクト,0
2360,8290001097512,新規,0,2022-05-12,2022-05-12,株式会社ラディッシュアルファ,,株式会社,福岡県,福岡市中央区,渡辺通５丁目１４番２５号３Ｆ,,40,133,8100004,,,,,,,2022-05-12,1,,,,,ラディッシュアルファ,0
2361,8290003012469,新規,0,2022-05-12,2022-05-12,ＣＯＭＳ合同会社,,合同会社,福岡県,久留米市,西町２８９番地２５,,40,203,8300038,,,,,,,2022-05-12,1,,,,,コムス,0
2362,8290003012510,新規,0,2022-05-12,2022-05-12,ＷＪ合同会社,,合同会社,福岡県,福岡市東区,和白４丁目２７－９ウィザード和白１０４,,40,131,8110202,,,,,,,2022-05-12,1,,,,,ダブルジェー,0
2365,8290801028492,新規,0,2022-05-12,2022-05-12,株式会社Ｌｉｎｋ．ｓ,,株式会社,福岡県,北九州市小倉北区,片野３丁目１４番７‐４０５号,,40,106,8020064,,,,,,,2022-05-12,1,,,,,リンクス,0
2371,8330003009361,新規,0,2022-05-12,2022-05-12,貴有理ドッグス・システム合同会社,,合同会社,熊本県,熊本市東区,上南部１丁目１０番８号,,43,102,8618010,,,,,,,2022-05-12,1,,,,,キユリドッグスシステム,0
2380,8360005006651,新規,0,2022-05-12,2022-05-12,一般社団法人つなぐ,,その他の設立登記法人,沖縄県,糸満市,字糸満２０７７番１,,47,210,9010361,,,,,,,2022-05-12,1,,,,,ツナグ,0
2390,8400001015882,新規,0,2022-05-12,2022-05-12,株式会社岩次郎,,株式会社,岩手県,岩手郡葛巻町,葛巻第４０地割５７番地２６,,03,302,0285102,,,,,,,2022-05-12,1,,,,,イワジロウ,0
2393,8430001086566,新規,0,2022-05-12,2022-05-12,株式会社プライシエイト,,株式会社,北海道,札幌市中央区,北二条西１２丁目１番５－４０１号,,01,101,0600002,,,,,,,2022-05-12,1,,,,,プライシエイト,0
2394,8430001086574,新規,0,2022-05-12,2022-05-12,株式会社住環境プロテクト,,株式会社,北海道,札幌市清田区,清田一条４丁目５番４１号,,01,110,0040841,,,,,,,2022-05-12,1,,,,,ジュウカンキョウプロテクト,0
2395,8430003013881,新規,0,2022-05-12,2022-05-12,合同会社Ｎｏｒｔｈｅｒｎ　Ｓｏｕｌ,,合同会社,北海道,札幌市中央区,北四条東２丁目８－６サッポロユニオンハイツ７０６号,,01,101,0600034,,,,,,,2022-05-12,1,,,,,ノーザンソウル,0
2397,8450001013700,新規,0,2022-05-12,2022-05-12,株式会社智建土木,,株式会社,北海道,富良野市,字中御料,,01,229,0760016,,,,,,,2022-05-12,1,,,,,,0
2400,8470001019076,新規,0,2022-05-12,2022-05-12,株式会社エイコーポレーション,,株式会社,香川県,坂出市,川津町４７４９番地,,37,203,7620025,,,,,,,2022-05-12,1,,,,,エイコーポレーション,0
2407,8500001024213,新規,0,2022-05-12,2022-05-12,株式会社トラストＢＡＳＥ,,株式会社,愛媛県,新居浜市,多喜浜１丁目４番１９号,,38,205,7920893,,,,,,,2022-05-12,1,,,,,トラストベイス,0
2426,9010001226510,新規,0,2022-05-12,2022-05-12,株式会社Ｓｍｉｌｅ４Ｕ,,株式会社,東京都,文京区,根津２丁目２０番１６号,,13,105,1130031,,,,,,,2022-05-12,1,,,,,スマイルフォーユー,0
2427,9010001226551,新規,0,2022-05-12,2022-05-12,株式会社鉄砲洲戦略企画,,株式会社,東京都,中央区,湊２丁目１１－１,,13,102,1040043,,,,,,,2022-05-12,1,,,,,テッポウズセンリャクキカク,0
2428,9010001226576,新規,0,2022-05-12,2022-05-12,株式会社ＢＡＮＳＯＳＨＡ,,株式会社,東京都,中央区,日本橋茅場町２丁目３番８号,,13,102,1030025,,,,,,,2022-05-12,1,,,,,バンソウシャ,0
2429,9010003037633,新規,0,2022-05-12,2022-05-12,アッシュ＆カンパニー合同会社,,合同会社,東京都,中央区,勝どき１丁目１３番６－１４０３号,,13,102,1040054,,,,,,,2022-05-12,1,,,,,アッシュアンドカンパニー,0
2435,9010403027622,新規,0,2022-05-12,2022-05-12,Ｒ＆Ｋオルタナティブ合同会社,,合同会社,東京都,港区,南青山２丁目２番１５号,,13,103,1070062,,,,,,,2022-05-12,1,,,,,アールアンドケイオルタナティブ,0
2436,9010501048826,新規,0,2022-05-12,2022-05-12,丸寛物産株式会社,,株式会社,東京都,台東区,小島１丁目７－６ジオエント御徒町２０１,,13,106,1110056,,,,,,,2022-05-12,1,,,,,マルヒロブッサン,0
2439,9010601061118,新規,0,2022-05-12,2022-05-12,株式会社ｒｅｌｕ,,株式会社,東京都,江東区,亀戸５丁目３３番１７－６０７号,,13,108,1360071,,,,,,,2022-05-12,1,,,,,レリュー,0
2440,9010601061126,新規,0,2022-05-12,2022-05-12,株式会社ＭＯ　Ｔｒａｄｉｎｇ,,株式会社,東京都,江東区,毛利２丁目８番１０号,,13,108,1350001,,,,,,,2022-05-12,1,,,,,モートレーディング,0
2441,9010701042637,新規,0,2022-05-12,2022-05-12,株式会社ＫＯＮＮ,,株式会社,東京都,品川区,勝島１丁目３番７－３１６号,,13,109,1400012,,,,,,,2022-05-12,1,,,,,コン,0
2455,9011003014556,新規,0,2022-05-12,2022-05-12,合同会社ＰＵＲＡＢＵＲＡ,,合同会社,東京都,渋谷区,東２丁目２１－１３オリエンス渋谷３０１,,13,113,1500011,,,,,,,2022-05-12,1,,,,,プラブラ,0
2461,9011103011701,新規,0,2022-05-12,2022-05-12,合同会社ウルオックス,,合同会社,東京都,新宿区,西新宿５丁目５番１号,,13,104,1600023,,,,,,,2022-05-12,1,,,,,ウルオックス,0
2463,9011401024223,新規,0,2022-05-12,2022-05-12,株式会社ＲｉＺｅ　Ｓｔａｇｅ,,株式会社,東京都,板橋区,双葉町７番１１号,,13,119,1730011,,,,,,,2022-05-12,1,,,,,ライズステージ,0
2470,9011801040704,新規,0,2022-05-12,2022-05-12,城東総合産業株式会社,,株式会社,東京都,足立区,保木間２丁目３３番３号,,13,121,1210064,,,,,,,2022-05-12,1,,,,,ジョウトウソウゴウサンギョウ,0
2471,9011803005077,新規,0,2022-05-12,2022-05-12,合同会社ユーロゲート,,合同会社,東京都,足立区,伊興２丁目５番２１号,,13,121,1210823,,,,,,,2022-05-12,1,,,,,ユーロゲート,0
2474,9012703002453,新規,0,2022-05-12,2022-05-12,合同会社リプロ,,合同会社,東京都,小平市,津田町３丁目２９番６号,,13,211,1870025,,,,,,,2022-05-12,1,,,,,リプロ,0
2475,9012801021553,新規,0,2022-05-12,2022-05-12,株式会社Ｎ,,株式会社,東京都,日野市,豊田３丁目２８番地の３,,13,212,1910053,,,,,,,2022-05-12,1,,,,,エヌ,0
2487,9020001146468,新規,0,2022-05-12,2022-05-12,株式会社ＰＯＥ,,株式会社,神奈川県,横浜市中区,本町３丁目２４番地２ニュー本町ビル１階,,14,104,2310005,,,,,,,2022-05-12,1,,,,,ピーオーイー,0
2504,9030001148190,新規,0,2022-05-12,2022-05-12,株式会社ＢＵＬＬＥＴ,,株式会社,埼玉県,上尾市,大字大谷本郷１７９番地８,,11,219,3620044,,,,,,,2022-05-12,1,,,,,バレット,0
2519,9040001123317,新規,0,2022-05-12,2022-05-12,株式会社秀和工業,,株式会社,千葉県,八千代市,八千代台西１０丁目６番２５号,,12,221,2760034,,,,,,,2022-05-12,1,,,,,シュウワコウギョウ,0
2520,9040001123333,新規,0,2022-05-12,2022-05-12,株式会社ＨＲＹアドバンス,,株式会社,千葉県,千葉市稲毛区,長沼町２５９番地８３,,12,103,2630005,,,,,,,2022-05-12,1,,,,,エッチアールワイアドバンス,0
2521,9040001123358,新規,0,2022-05-12,2022-05-12,建築工房小山株式会社,,株式会社,千葉県,山武市,下横地１７６１番地,,12,237,2891314,,,,,,,2022-05-12,1,,,,,ケンチクコウボウコヤマ,0
2522,9040001123390,新規,0,2022-05-12,2022-05-12,株式会社ＨＩＲＡＫＡＷＡ,,株式会社,千葉県,八街市,八街ほ２１番地５８,,12,230,2891115,,,,,,,2022-05-12,1,,,,,ヒラカワ,0
2525,9040003019942,新規,0,2022-05-12,2022-05-12,合同会社Ｒｉｄｅｒａ　Ｍｏｌｌｉｓ,,合同会社,千葉県,松戸市,二十世紀が丘萩町７６―１,,12,207,2710086,,,,,,,2022-05-12,1,,,,,リデラモーリス,0
2526,9040003020000,新規,0,2022-05-12,2022-05-12,合同会社ｚｏｅｓｔ,,合同会社,千葉県,柏市,柏４丁目６番２３号ＡＫ第２ビル１Ｆ,,12,217,2770005,,,,,,,2022-05-12,1,,,,,ゾエスト,0
2530,9070001039221,新規,0,2022-05-12,2022-05-12,株式会社ＹＡＭＡＩＣＨＩ,,株式会社,群馬県,前橋市,江木町２３１番地１,,10,201,3710002,,,,,,,2022-05-12,1,,,,,ヤマイチ,0
2533,9080001024932,新規,0,2022-05-12,2022-05-12,アイライフ株式会社,,株式会社,静岡県,藤枝市,田沼２丁目１３番５号,,22,214,4260061,,,,,,,2022-05-12,1,,,,,アイライフ,0
2535,9080401025803,新規,0,2022-05-12,2022-05-12,株式会社ＳＵＲＩＹＡ　ＬＡＮＫＡ,,株式会社,静岡県,浜松市南区,鶴見町２３番地の２,,22,134,4350022,,,,,,,2022-05-12,1,,,,,スリヤランカ,0
2536,9090003002084,新規,0,2022-05-12,2022-05-12,合同会社Ｓｍｉｌｅ　ｆａｃｅ,,合同会社,山梨県,南巨摩郡富士川町,小林１８２７番地２,,19,368,4000504,,,,,,,2022-05-12,1,,,,,スマイルフェイス,0
2538,9100001035324,新規,0,2022-05-12,2022-05-12,株式会社Ｈａｐｐｙ　Ｆｕｔｕｒｅ,,株式会社,長野県,北佐久郡軽井沢町,軽井沢１０６０－１１グリーンシャトー２０１,,20,321,3890103,,,,,,,2022-05-12,1,,,,,ハッピーフューチャー,0
2540,9100005012872,新規,0,2022-05-12,2022-05-12,一般社団法人青空よつば会,,その他の設立登記法人,長野県,長野市,南千歳１丁目３番地７アイビースクエア１Ｆ－１,,20,201,3800823,,,,,,,2022-05-12,1,,,,,アオゾラヨツバカイ,0
2563,9120001245846,新規,0,2022-05-12,2022-05-12,株式会社純美,,株式会社,大阪府,大阪市城東区,諏訪４丁目２４－２２,,27,118,5360021,,,,,,,2022-05-12,1,,,,,ジュンビ,0
2573,9120101065574,新規,0,2022-05-12,2022-05-12,株式会社キタガワ,,株式会社,大阪府,堺市西区,鳳西町２丁３４７番地,,27,144,5938326,,,,,,,2022-05-12,1,,,,,キタガワ,0
2575,9120103004695,新規,0,2022-05-12,2022-05-12,合同会社ミストラル,,合同会社,大阪府,堺市東区,北野田１－６フロントタワー１５０２,,27,143,5998123,,,,,,,2022-05-12,1,,,,,ミストラル,0
2578,9122001035863,新規,0,2022-05-12,2022-05-12,ジャイナックス株式会社,,株式会社,大阪府,東大阪市,西鴻池町１丁目３番６号,,27,227,5780976,,,,,,,2022-05-12,1,,,,,ジャイナックス,0
2591,9140001125947,新規,0,2022-05-12,2022-05-12,株式会社ｈＡＳｅ,,株式会社,兵庫県,神戸市中央区,下山手通２丁目１２番２６号,,28,110,6500011,,,,,,,2022-05-12,1,,,,,ハーゼ,0
2592,9140001125955,新規,0,2022-05-12,2022-05-12,ｐｌｕｓ　ａ株式会社,,株式会社,兵庫県,三木市,緑が丘町本町１丁目９３番地の２,,28,215,6730534,,,,,,,2022-05-12,1,,,,,プラスエー,0
2597,9140005026167,新規,0,2022-05-12,2022-05-12,一般社団法人襷農園,,その他の設立登記法人,兵庫県,丹波篠山市,小枕６５５番地１,,28,221,6692461,,,,,,,2022-05-12,1,,,,,タスキノウエン,0
2598,9140005026175,新規,0,2022-05-12,2022-05-12,特定非営利活動法人Ｃｈｉｔｅｎｄｕｃａｔｉｏｎ,,その他の設立登記法人,兵庫県,神戸市中央区,磯上通４丁目２番１６－１０１３号,,28,110,6510086,,,,,,,2022-05-12,1,,,,,チテンデュケーション,0
2600,9150001025535,新規,0,2022-05-12,2022-05-12,株式会社ＳＵＭＩＬＥ,,株式会社,奈良県,香芝市,良福寺６０番地５,,29,210,6390235,,,,,,,2022-05-12,1,,,,,スミレ,0
2605,9160003002564,新規,0,2022-05-12,2022-05-12,合同会社Ｎ２　Ｕｎｉｔ,,合同会社,滋賀県,犬上郡多賀町,大字多賀１１３８番地,,25,443,5220341,,,,,,,2022-05-12,1,,,,,エヌツーユニット,0
2615,9180001151213,新規,0,2022-05-12,2022-05-12,株式会社オールグリーン,,株式会社,愛知県,一宮市,萩原町戸苅５９番地,,23,203,4910375,,,,,,,2022-05-12,1,,,,,オールグリーン,0
2616,9180001151254,新規,0,2022-05-12,2022-05-12,株式会社ＫＯＵＲＹＵ,,株式会社,愛知県,一宮市,北方町北方字狐塚郷３２１番地１,,23,203,4938001,,,,,,,2022-05-12,1,,,,,コウリュウ,0
2617,9180001151279,新規,0,2022-05-12,2022-05-12,株式会社ｃｕａｔｒｏ　ｐｕｅｒｔａｓ,,株式会社,愛知県,名古屋市昭和区,広見町５丁目６１番地の１,,23,107,4660046,,,,,,,2022-05-12,1,,,,,クアトロプエルタス,0
2621,9180003023823,新規,0,2022-05-12,2022-05-12,悠久合同会社,,合同会社,愛知県,名古屋市中区,新栄２丁目１番９号雲竜フレックスビル西館１８０３号室,,23,106,4600007,,,,,,,2022-05-12,1,,,,,ユウキュウ,0
2625,9180301036221,新規,0,2022-05-12,2022-05-12,株式会社とうかいりん不動産,,株式会社,愛知県,知立市,南新地３丁目６番地３,,23,225,4720053,,,,,,,2022-05-12,1,,,,,トウカイリンフドウサン,0
2627,9190001029400,新規,0,2022-05-12,2022-05-12,株式会社Ｋｕ‐ｎｅｌ,,株式会社,三重県,津市,上浜町１丁目９２番地１９,,24,201,5140008,,,,,,,2022-05-12,1,,,,,クウネル,0
2638,9240001059771,新規,0,2022-05-12,2022-05-12,株式会社シエスタ,,株式会社,広島県,広島市安佐北区,口田５丁目３６番２５－２号,,34,106,7391734,,,,,,,2022-05-12,1,,,,,シエスタ,0
2641,9240005015390,新規,0,2022-05-12,2022-05-12,一般社団法人ＹＡＹＯＩ　ＭＥＤＩＣＡＬ,,その他の設立登記法人,広島県,広島市中区,八丁堀１１番１２号,,34,101,7300013,,,,,,,2022-05-12,1,,,,,ヤヨイメディカル,0
2652,9290001097486,新規,0,2022-05-12,2022-05-12,ＰＬＡＴＡ株式会社,,株式会社,福岡県,うきは市,浮羽町２５５番地１,,40,225,8391400,,,,,,,2022-05-12,1,,,,,プラタ,0
2653,9290001097503,新規,0,2022-05-12,2022-05-12,株式会社プロスキルサッシ,,株式会社,福岡県,福岡市南区,中尾３丁目８番５号,,40,134,8111364,,,,,,,2022-05-12,1,,,,,プロスキルサッシ,0
2655,9290003012501,新規,0,2022-05-12,2022-05-12,合同会社３１５０,,合同会社,福岡県,福岡市博多区,中洲１丁目５番３号,,40,132,8100801,,,,,,,2022-05-12,1,,,,,サイコウ,0
2657,9290801028517,新規,0,2022-05-12,2022-05-12,ＴＨＴ株式会社,,株式会社,福岡県,北九州市小倉北区,紺屋町８番１６号９階,,40,106,8020081,,,,,,,2022-05-12,1,,,,,ティーエッチティー,0
2664,9330001029699,新規,0,2022-05-12,2022-05-12,株式会社ジーアール,,株式会社,熊本県,上益城郡甲佐町,大字田口３８８１番地５,,43,444,8614616,,,,,,,2022-05-12,1,,,,,ジーアール,0
2665,9330001029716,新規,0,2022-05-12,2022-05-12,株式会社樋口木工所,,株式会社,熊本県,山鹿市,鹿本町津袋４１６番地７,,43,208,8610302,,,,,,,2022-05-12,1,,,,,ヒグチモッコウショ,0
2681,9390005008958,新規,0,2022-05-12,2022-05-12,医療法人ＳＭＣ,,その他の設立登記法人,山形県,酒田市,幸町２丁目８番２０号,,06,204,9980023,,,,,,,2022-05-12,1,,,,,エスエムシー,0
2683,9420001017835,新規,0,2022-05-12,2022-05-12,株式会社彩菜房,,株式会社,青森県,黒石市,大字上目内澤字相野々堰東１７番地１,,02,204,0360538,,,,,,,2022-05-12,1,,,,,サイサイボウ,0
2684,9420003002513,新規,0,2022-05-12,2022-05-12,合同会社２１パワー,,合同会社,青森県,青森市,北金沢１丁目９番１０号プレジデント北金沢２－Ｆ,,02,201,0300855,,,,,,,2022-05-12,1,,,,,ニジュウイチパワー,0
2685,9420005007808,新規,0,2022-05-12,2022-05-12,特定非営利活動法人ろくのへ自然塾,,その他の設立登記法人,青森県,上北郡六戸町,大字犬落瀬字明土５３番地１,,02,405,0392371,,,,,,,2022-05-12,1,,,,,ロクノヘシゼンジュク,0
2688,9430001086573,新規,0,2022-05-12,2022-05-12,三恵設備株式会社,,株式会社,北海道,札幌市東区,北二十条東７丁目２番３１号,,01,103,0650020,,,,,,,2022-05-12,1,,,,,サンケイセツビ,0
2694,9470001019050,新規,0,2022-05-12,2022-05-12,株式会社ゆっけ,,株式会社,香川県,高松市,林町８３６番地３,,37,201,7610301,,,,,,,2022-05-12,1,,,,,ユッケ,0
