sequenceNumber,corporateNumber,process,correct,updateDate,changeDate,name,nameImageId,kind,prefectureName,cityName,streetNumber,addressImageId,prefectureCode,cityCode,postCode,addressOutside,addressOutsideImageId,closeDate,closeCause,successorCorporateNumber,changeCause,assignmentDate,latest,enName,enPrefectureName,enCityName,enAddressOutside,furigana,hihyoji
11,1010001228927,新規,0,2022-08-22,2022-08-22,Ｏｕｔｌｉｅｒ株式会社,,株式会社,東京都,中央区,日本橋蛎殻町１丁目１３番１号ユニゾ蛎殻町北島ビルＢ１階,,13,102,1030014,,,,,,,2022-08-22,1,,,,,アウトライアー,0
12,1010001228992,新規,0,2022-08-22,2022-08-22,株式会社ＢＰＳクラウドアカウンティング,,株式会社,東京都,中央区,銀座４丁目１３番８号,,13,102,1040061,,,,,,,2022-08-22,1,,,,,ビーピーエスクラウドアカウンティング,0
14,1010005035428,新規,0,2022-08-22,2022-08-22,一般財団法人ニチレイＭＩＲＡＩｔｅｒｒａｃｅ財団,,その他の設立登記法人,東京都,中央区,築地６丁目１９番２０号,,13,102,1040045,,,,,,,2022-08-22,1,,,,,ニチレイミライテラスザイダン,0
21,1010401169218,新規,0,2022-08-22,2022-08-22,ＦＪＤ　Ｊａｐａｎ株式会社,,株式会社,東京都,港区,南青山４丁目１７番１３号１０３室,,13,103,1070062,,,,,,,2022-08-22,1,,,,,エフジェイディージャパン,0
22,1010401169242,新規,0,2022-08-22,2022-08-22,株式会社スカイヒル,,株式会社,東京都,港区,南麻布５丁目２番４０－７０４号,,13,103,1060047,,,,,,,2022-08-22,1,,,,,スカイヒル,0
30,1010601061703,新規,0,2022-08-22,2022-08-22,蜜成学株式会社,,株式会社,東京都,墨田区,横川３丁目６番７号３－Ｋ,,13,107,1300003,,,,,,,2022-08-22,1,,,,,ミツセイガク,0
62,1011601026191,新規,0,2022-08-22,2022-08-22,株式会社ＢＬＡＣＫＭＯＯＮ,,株式会社,東京都,練馬区,南大泉５丁目２２番１０－１０４号,,13,120,1780064,,,,,,,2022-08-22,1,,,,,ブラックムーン,0
63,1011603003684,新規,0,2022-08-22,2022-08-22,合同会社ｍａｓｈｕｐ,,合同会社,東京都,練馬区,羽沢２丁目６番２号,,13,120,1760003,,,,,,,2022-08-22,1,,,,,マッシュアップ,0
64,1011703003238,新規,0,2022-08-22,2022-08-22,合同会社ｒｏｃｋａｔｈｌｅｔｅ,,合同会社,東京都,江戸川区,西葛西６丁目１２番１号関寅ビル第二８０６号,,13,123,1340088,,,,,,,2022-08-22,1,,,,,ロックアスリート,0
67,1011801041164,新規,0,2022-08-22,2022-08-22,株式会社アミュザント,,株式会社,東京都,足立区,島根４丁目２２－１６,,13,121,1210815,,,,,,,2022-08-22,1,,,,,アミュザント,0
75,1013301049530,新規,0,2022-08-22,2022-08-22,東晴株式会社,,株式会社,東京都,豊島区,西池袋１丁目３１－５白井ビル３－１２号室,,13,116,1710021,,,,,,,2022-08-22,1,,,,,トウセイ,0
77,1013303006265,新規,0,2022-08-22,2022-08-22,文和合同会社,,合同会社,東京都,豊島区,南池袋３丁目１８―３０ファースト日野ビル４Ｆ,,13,116,1710022,,,,,,,2022-08-22,1,,,,,ブンワ,0
81,1020001147861,新規,0,2022-08-22,2022-08-22,株式会社オヤジトショサイ,,株式会社,神奈川県,川崎市川崎区,駅前本町１１番地２川崎フロンティアビル４階,,14,131,2100007,,,,,,,2022-08-22,1,,,,,オヤジトショサイ,0
82,1020001147894,新規,0,2022-08-22,2022-08-22,株式会社ツインムーングラフィック,,株式会社,神奈川県,川崎市高津区,千年４６０番地２,,14,134,2130022,,,,,,,2022-08-22,1,,,,,ツインムーングラフィック,0
100,1030001149709,新規,0,2022-08-22,2022-08-22,株式会社ＲＥＢＯＲＮ,,株式会社,埼玉県,蕨市,塚越７丁目７番１３号,,11,223,3350002,,,,,,,2022-08-22,1,,,,,リボーン,0
101,1030001149758,新規,0,2022-08-22,2022-08-22,株式会社匠然,,株式会社,埼玉県,さいたま市西区,大字飯田２４２－１３,,11,101,3310058,,,,,,,2022-08-22,1,,,,,ショウゼン,0
106,1030003020025,新規,0,2022-08-22,2022-08-22,合同会社イキイキファーム,,合同会社,埼玉県,比企郡川島町,大字下狢６５２,,11,346,3500135,,,,,,,2022-08-22,1,,,,,イキイキファーム,0
107,1030003020041,新規,0,2022-08-22,2022-08-22,ＦＬＡＧ合同会社,,合同会社,埼玉県,桶川市,上日出谷南１丁目１番地の５,,11,231,3630020,,,,,,,2022-08-22,1,,,,,フラッグ,0
112,1040001124751,新規,0,2022-08-22,2022-08-22,株式会社シバンコーポレーション,,株式会社,千葉県,千葉市花見川区,作新台５丁目４番５号,,12,102,2620045,,,,,,,2022-08-22,1,,,,,シバンコーポレーション,0
124,1050005013124,新規,0,2022-08-22,2022-08-22,特定非営利活動法人つくば市聾者協会,,その他の設立登記法人,茨城県,つくば市,春風台１２番地３９,,08,220,3050007,,,,,,,2022-08-22,1,,,,,ツクバシロウシャキョウカイ,0
127,1070003004593,新規,0,2022-08-22,2022-08-22,ジェージェートレーディング合同会社,,合同会社,群馬県,高崎市,中里見町２２７５番地１,,10,202,3703344,,,,,,,2022-08-22,1,,,,,ジェージェートレーディング,0
131,1080101023486,新規,0,2022-08-22,2022-08-22,土屋興産株式会社,,株式会社,静岡県,三島市,長伏５７番地の２４,,22,206,4110824,,,,,,,2022-08-22,1,,,,,ツチヤコウサン,0
142,1120001248229,新規,0,2022-08-22,2022-08-22,湯大株式会社,,株式会社,大阪府,大阪市東成区,深江北３丁目４番２１号エクラ深江橋１０７Ｂ,,27,115,5370001,,,,,,,2022-08-22,1,,,,,ユダイ,0
145,1120005023132,新規,0,2022-08-22,2022-08-22,ＮＰＯ法人ダンデライオン,,その他の設立登記法人,大阪府,大阪市北区,天神橋５丁目７番１０号さかしん天神橋ビル７０２号室,,27,127,5300041,,,,,,,2022-08-22,1,,,,,ダンデライオン,0
159,1140001127141,新規,0,2022-08-22,2022-08-22,株式会社ＰＴＭ,,株式会社,兵庫県,宝塚市,寿楽荘２番１７－３０３号,,28,214,6650012,,,,,,,2022-08-22,1,,,,,ピーティーエム,0
173,1180001152689,新規,0,2022-08-22,2022-08-22,株式会社ルーク,,株式会社,愛知県,名古屋市天白区,梅が丘２丁目１５１０番地,,23,116,4680004,,,,,,,2022-08-22,1,,,,,ルーク,0
178,1190005011733,新規,0,2022-08-22,2022-08-22,一般社団法人さくらファーム林,,その他の設立登記法人,三重県,津市,芸濃町林１８２４番地,,24,201,5142202,,,,,,,2022-08-22,1,,,,,サクラファームハヤシ,0
179,1210001019050,新規,0,2022-08-22,2022-08-22,株式会社Ｔａｓｋ　Ｆｒｅｅ,,株式会社,福井県,鯖江市,東鯖江４丁目８－６,,18,207,9160041,,,,,,,2022-08-22,1,,,,,タスクフリー,0
194,1290001098665,新規,0,2022-08-22,2022-08-22,株式会社大人の教養ＴＶ,,株式会社,福岡県,福岡市中央区,天神２丁目３番１０号天神パインクレスト７１９号,,40,133,8100001,,,,,,,2022-08-22,1,,,,,オトナノキョウヨウティービー,0
197,1290801028821,新規,0,2022-08-22,2022-08-22,株式会社さんすけさん,,株式会社,福岡県,北九州市小倉北区,中島１丁目１１番７号,,40,106,8020076,,,,,,,2022-08-22,1,,,,,サンスケサン,0
218,1430001087331,新規,0,2022-08-22,2022-08-22,株式会社ＮＥＭ,,株式会社,北海道,札幌市中央区,南九条西１５丁目２番１５号,,01,101,0640809,,,,,,,2022-08-22,1,,,,,エヌイーエム,0
224,1700150011007,新規,0,2022-08-22,2015-10-09,カルバリ　バプテスト教会,,その他,東京都,八王子市,別所２丁目１１－９－１０１,,13,201,1920363,,,,,,,2015-10-09,1,,,,,カルバリバプテストキヨウカイ,0
225,1700150111137,新規,0,2022-08-22,2022-08-12,ＭＫプロダクション,,その他,埼玉県,狭山市,大字水野２３０－１,,11,215,3501317,,,,,,,2022-08-12,1,,,,,エムケイプロダクシヨン,0
226,1700150111145,新規,0,2022-08-22,2022-08-12,伝説祭実行委員会,,その他,神奈川県,茅ヶ崎市,常盤町５－２０メゾンドピア２０１,,14,207,2530032,,,,,,,2022-08-12,1,,,,,デンセツサイジツコウイインカイ,0
227,1700150111426,新規,0,2022-08-22,2022-08-22,ＱｉｎｇＹｕａｎＳｈｉ　ＺｈｕｏＹｕｅ　Ｊｉａ　Ｊｕ　Ｓｈｉ　Ｙｅ　Ｃｏ．，ＬＴＤ．,,外国会社等,,,,,,,,ＬｏｎｇＨｕａ　ＤａＤａｏ，ＺｈｏｕＸｉｎ　ＪｉｅＤａｏ，ＱｉｎｇＣｈｅｎｇ　Ｑｕ，ＱｉｎｇＹｕａｎ　Ｓｈｉ,,,,,,2022-08-22,1,,,,,チンウエンスーヅオーイエジヤージースイエーカンパニーリミテツド,0
239,2010001228967,新規,0,2022-08-22,2022-08-22,元斉百歳倶楽部株式会社,,株式会社,東京都,千代田区,内幸町１丁目１番１号帝国ホテルタワー１５階,,13,101,1000011,,,,,,,2022-08-22,1,,,,,モトヒトヒャクサイクラブ,0
247,2010401169225,新規,0,2022-08-22,2022-08-22,ＰＡＧ　ＨＴＢ　Ｈｏｌｄｉｎｇｓ株式会社,,株式会社,東京都,港区,虎ノ門４丁目１番２８号虎ノ門タワーズオフィス２０階,,13,103,1050001,,,,,,,2022-08-22,1,,,,,ピーエージーエイチティービーホールディングス,0
248,2010401169233,新規,0,2022-08-22,2022-08-22,株式会社Ｓｗａｍｐ　Ｃｏｎｓｕｌｔｉｎｇ,,株式会社,東京都,港区,南青山７丁目１番２１－４０７号,,13,103,1070062,,,,,,,2022-08-22,1,,,,,スワンプコンサルティング,0
251,2010405021316,新規,0,2022-08-22,2022-08-22,Ｆｉｒｓｔ　ＲＥＩＴ　Ｊａｐａｎ　Ｔｗｏ一般社団法人,,その他の設立登記法人,東京都,港区,赤坂２丁目１０番５号税理士法人赤坂国際会計事務所内,,13,103,1070052,,,,,,,2022-08-22,1,,,,,ファーストリートジャパンツー,0
253,2010601061693,新規,0,2022-08-22,2022-08-22,株式会社ＡｐｏＹｏ,,株式会社,東京都,墨田区,八広１丁目１４番１３－２０３号ＦＥＲＩＯ曳舟,,13,107,1310041,,,,,,,2022-08-22,1,,,,,アポヨ,0
254,2010601061710,新規,0,2022-08-22,2022-08-22,株式会社リオライト,,株式会社,東京都,江東区,豊洲１丁目２番３９号,,13,108,1350061,,,,,,,2022-08-22,1,,,,,リオライト,0
255,2010601061719,新規,0,2022-08-22,2022-08-22,株式会社トラスト,,株式会社,東京都,江東区,東陽１丁目１７番１５号,,13,108,1350016,,,,,,,2022-08-22,1,,,,,トラスト,0
271,2011003015230,新規,0,2022-08-22,2022-08-22,合同会社ｓｗａｙ,,合同会社,東京都,目黒区,青葉台１丁目２０－２ＡＣＮ中目黒ｐｌａｃｅ３Ｆ,,13,110,1530042,,,,,,,2022-08-22,1,,,,,スウェイ,0
277,2011401024485,新規,0,2022-08-22,2022-08-22,雪華商事株式会社,,株式会社,東京都,板橋区,西台３丁目７番１１号２０１室,,13,119,1750045,,,,,,,2022-08-22,1,,,,,ユキハナショウジ,0
280,2011601026190,新規,0,2022-08-22,2022-08-22,Ｔｏｔａｌ　ｖｉｃｔｏｒｙ株式会社,,株式会社,東京都,練馬区,光が丘３丁目８番９－３０２号,,13,120,1790072,,,,,,,2022-08-22,1,,,,,トータルビクトリー,0
283,2011701025547,新規,0,2022-08-22,2022-08-22,オルビータ株式会社,,株式会社,東京都,江戸川区,篠崎町３丁目２番６号鈴木ビル１階,,13,123,1330061,,,,,,,2022-08-22,1,,,,,オルビータ,0
288,2013301049546,新規,0,2022-08-22,2022-08-22,ラプトデザイン株式会社,,株式会社,東京都,豊島区,池袋２丁目２３番１号富士ビル４階,,13,116,1710014,,,,,,,2022-08-22,1,,,,,ラプトデザイン,0
290,2020001147852,新規,0,2022-08-22,2022-08-22,株式会社ＳＥＴＯ,,株式会社,神奈川県,横浜市神奈川区,大口通４０－５中銀横浜大口マンシオン１０２室,,14,102,2210002,,,,,,,2022-08-22,1,,,,,セト,0
311,2030001149773,新規,0,2022-08-22,2022-08-22,株式会社マルイチ建装,,株式会社,埼玉県,和光市,新倉１丁目１４番５５号プルミエ・フルール１０２,,11,229,3510115,,,,,,,2022-08-22,1,,,,,マルイチケンソウ,0
319,2030003020049,新規,0,2022-08-22,2022-08-22,ランダムウォーク合同会社,,合同会社,埼玉県,さいたま市中央区,本町西４丁目１８番１８号エイトシティーハイツ２０２号,,11,105,3380004,,,,,,,2022-08-22,1,,,,,ランダムウォーク,0
321,2040001124726,新規,0,2022-08-22,2022-08-22,株式会社リザレ,,株式会社,千葉県,松戸市,西馬橋幸町１１２番地ロイヤルパレス４０７号,,12,207,2710047,,,,,,,2022-08-22,1,,,,,リザレ,0
322,2040001124759,新規,0,2022-08-22,2022-08-22,株式会社Ｒ＆Ｙ,,株式会社,千葉県,千葉市稲毛区,作草部２丁目２番４３号,,12,103,2630015,,,,,,,2022-08-22,1,,,,,アールアンドワイ,0
325,2040005021696,新規,0,2022-08-22,2022-08-22,一般社団法人ゆみの里,,その他の設立登記法人,千葉県,館山市,相浜１０２番地,,12,205,2940235,,,,,,,2022-08-22,1,,,,,ユミノサト,0
334,2110003004844,新規,0,2022-08-22,2022-08-22,合同会社ａｋｉｎａｕ,,合同会社,新潟県,新潟市中央区,沼垂西１丁目１番２６号,,15,103,9500076,,,,,,,2022-08-22,1,,,,,アキナウ,0
340,2120001248079,新規,0,2022-08-22,2022-08-22,ＪＰＶＡＮ株式会社,,株式会社,大阪府,大阪市東成区,中道２丁目１５－５Ｏ’ｓＲＥＺＩＤＥＮＳＥ森之宮２０２号室,,27,115,5370025,,,,,,,2022-08-22,1,,,,,ジェーピーヴァン,0
341,2120001248186,新規,0,2022-08-22,2022-08-22,株式会社ベストバイ,,株式会社,大阪府,大阪市北区,天満橋１丁目４－１４天満橋ビル２０２号室,,27,127,5300042,,,,,,,2022-08-22,1,,,,,ベストバイ,0
342,2120001248327,新規,0,2022-08-22,2022-08-22,株式会社ＴＡＴＥＧａＴＡ,,株式会社,大阪府,大阪市北区,堂島１丁目３番４号堂島リンデンビル３階３号室,,27,127,5300003,,,,,,,2022-08-22,1,,,,,タテガタ,0
343,2120003022317,新規,0,2022-08-22,2022-08-22,合同会社ｒｃｏ,,合同会社,大阪府,大阪市北区,芝田２丁目８番１１号共栄ビル３Ｆ,,27,127,5300012,,,,,,,2022-08-22,1,,,,,アールシーオー,0
350,2120902019603,新規,0,2022-08-22,2022-08-22,有限会社フジ企画,,有限会社,大阪府,豊中市,岡町北１丁目１番１８号,,27,203,5610884,,,,,,,2022-08-22,1,,,,,フジキカク,0
368,2180001152705,新規,0,2022-08-22,2022-08-22,ＫＥＹ不動産株式会社,,株式会社,愛知県,名古屋市中区,錦３丁目１１番２５号アーク栄錦ニュービジネスビル３１１号,,23,106,4600003,,,,,,,2022-08-22,1,,,,,キィーフドウサン,0
372,2180003024175,新規,0,2022-08-22,2022-08-22,Ｔｅｃｈｎｏ　Ｍ合同会社,,合同会社,愛知県,名古屋市港区,正徳町１丁目６２番地の１,,23,111,4550075,,,,,,,2022-08-22,1,,,,,テクノエム,0
380,2260003004012,新規,0,2022-08-22,2022-08-22,合同会社タスクサポート,,合同会社,岡山県,岡山市中区,関４１１番地コスモハイツ関６０３号室,,33,102,7038232,,,,,,,2022-08-22,1,,,,,タスクサポート,0
390,2360001030801,新規,0,2022-08-22,2022-08-22,花満開株式会社,,株式会社,沖縄県,那覇市,前島３丁目２５番２－２０７号,,47,201,9000016,,,,,,,2022-08-22,1,,,,,カマンカイ,0
391,2360001030834,新規,0,2022-08-22,2022-08-22,株式会社ＴＵＧＥＲＬＬ,,株式会社,沖縄県,宮古島市,伊良部字国仲５８８番地７,,47,214,9060505,,,,,,,2022-08-22,1,,,,,トゥガール,0
393,2380005012612,新規,0,2022-08-22,2022-08-22,奥会津地域づくり協同組合,,その他の設立登記法人,福島県,大沼郡三島町,大字早戸字湯ノ平９２４番地,,07,444,9697406,,,,,,,2022-08-22,1,,,,,オクアイヅチイキヅクリ,0
398,2430001087339,新規,0,2022-08-22,2022-08-22,株式会社ＴＯ　ＮＥＸＴ,,株式会社,北海道,札幌市中央区,北二条西２丁目３２番地第３７桂和ビル６階６０４号,,01,101,0600002,,,,,,,2022-08-22,1,,,,,トゥネクスト,0
400,2430003014209,新規,0,2022-08-22,2022-08-22,合同会社Ｔ＆Ａプランニング,,合同会社,北海道,札幌市豊平区,月寒東一条６丁目４番２３号,,01,105,0620051,,,,,,,2022-08-22,1,,,,,ティーアンドエープランニング,0
410,2490001010261,新規,0,2022-08-22,2022-08-22,ｓｔｅａｄｙ　ｐｌａｎ株式会社,,株式会社,高知県,高知市,桟橋通４丁目１６番４２号日電工高知ビル２階,,39,201,7818010,,,,,,,2022-08-22,1,,,,,ステディープラン,0
412,2490005006859,新規,0,2022-08-22,2022-08-22,特定非営利活動法人まおり,,その他の設立登記法人,高知県,香南市,香我美町徳王子１６１７番地１,,39,211,7815332,,,,,,,2022-08-22,1,,,,,マオリ,0
414,2700150110831,新規,0,2022-08-22,2022-07-07,香恵ピアノ財団,,その他,神奈川県,横浜市中区,真砂町３丁目３３セルテ１２階　ダイニングライブヤンキース内,,14,104,2310016,,,,,,,2022-07-07,1,,,,,カエピアノザイダン,0
415,2700150111425,新規,0,2022-08-22,2022-08-22,金町三和自治会,,その他,東京都,葛飾区,金町３丁目１０番１３号,,13,122,1250042,,,,,,,2022-08-22,1,,,,,カナマチサンワジチカイ,0
416,2700150111433,新規,0,2022-08-22,2022-08-22,ＳｈｅｎＺｈｅｎ　ＭａｉＮｕｏＤａ　ＭａｏＹｉ　ＹｏｕＸｉａｎＧｏｎｇＳｉ,,外国会社等,,,,,,,,６Ａ４Ｃ　ＸｉＪｉｎｇＣｈｅｎｇ　ＨａｏＹｕａｎ　１００　ＦｕＡｎＤａＤａｏ　ＰｉｎｇＨｕＪｉｅＤａｏ　ＬｏｎｇＧａｎｇＱｕ，ＳＨＥＮＺＨＥＮ，Ｇｕａｎｇｄｏｎｇ，Ｃｈｉｎａ,,,,,,2022-08-22,1,,,,,シンセンマイナオダーマオイーヤウクシアンゴングシー,0
421,3010001228883,新規,0,2022-08-22,2022-08-22,株式会社マッシュスタイルラボ,,株式会社,東京都,千代田区,麹町５丁目７番地２ＭＦＰＲ麹町ビル,,13,101,1020083,,,,,,,2022-08-22,1,,,,,マッシュスタイルラボ,0
423,3010003038430,新規,0,2022-08-22,2022-08-22,合同会社ｋｉｓｅｌ,,合同会社,東京都,中央区,銀座１丁目２２番１１号銀座大竹ビジデンス２階,,13,102,1040061,,,,,,,2022-08-22,1,,,,,キセル,0
430,3010401169158,新規,0,2022-08-22,2022-08-22,高月パートナーズ株式会社,,株式会社,東京都,港区,高輪２丁目１－１５－２０２,,13,103,1080074,,,,,,,2022-08-22,1,,,,,タカツキパートナーズ,0
431,3010401169265,新規,0,2022-08-22,2022-08-22,ＧＯＬＢＡ株式会社,,株式会社,東京都,港区,新橋２丁目５番６号,,13,103,1050004,,,,,,,2022-08-22,1,,,,,ゴルバ,0
436,3010405021315,新規,0,2022-08-22,2022-08-22,一般社団法人Ｍ３プロジェクト,,その他の設立登記法人,東京都,港区,虎ノ門３丁目２２番１０－２０１号,,13,103,1050001,,,,,,,2022-08-22,1,,,,,エムスリープロジェクト,0
450,3010701043095,新規,0,2022-08-22,2022-08-22,Ｂｅｌｖｅｄｅｒｅ　Ｃｏｎｓｕｌｔｉｎｇ株式会社,,株式会社,東京都,品川区,南品川２丁目２－５－２階リードシー南品川ビル６号室,,13,109,1400004,,,,,,,2022-08-22,1,,,,,ベルヴェデールコンサルティング,0
464,3011005009709,新規,0,2022-08-22,2022-08-22,スクラム社会保険労務士法人,,その他の設立登記法人,東京都,渋谷区,松濤１丁目２８番２号,,13,113,1500046,,,,,,,2022-08-22,1,,,,,スクラム,0
468,3011101099868,新規,0,2022-08-22,2022-08-22,株式会社ＳＨＡＮＫ,,株式会社,東京都,新宿区,四谷３丁目１３番地ＳＥＡＢＩＲＤビル２Ｆ,,13,104,1600004,,,,,,,2022-08-22,1,,,,,シャンク,0
469,3011103012085,新規,0,2022-08-22,2022-08-22,合同会社シンスリー,,合同会社,東京都,新宿区,西新宿３丁目３番１３号西新宿水間ビル６階,,13,104,1600023,,,,,,,2022-08-22,1,,,,,シンスリー,0
475,3011501028410,新規,0,2022-08-22,2022-08-22,株式会社ブレイクアウェイ,,株式会社,東京都,荒川区,西日暮里５丁目３２番１０－３０２号ビガーＭ＆Ｍビル,,13,118,1160013,,,,,,,2022-08-22,1,,,,,ブレイクアウェイ,0
476,3011703003228,新規,0,2022-08-22,2022-08-22,ＮＩＮＥ　ＦＬＡＰ合同会社,,合同会社,東京都,江戸川区,中葛西３丁目２４－１１ＢＬＥＳＳ葛西４０１,,13,123,1340083,,,,,,,2022-08-22,1,,,,,ナインフラップ,0
488,3020003022235,新規,0,2022-08-22,2022-08-22,あかつきプランニング合同会社,,合同会社,神奈川県,川崎市幸区,小向西町３丁目２８,,14,132,2120004,,,,,,,2022-08-22,1,,,,,アカツキプランニング,0
501,3030001149632,新規,0,2022-08-22,2022-08-22,株式会社ＴＭプロパティマネジメント,,株式会社,埼玉県,越谷市,神明町１丁目１３５番地１,,11,222,3430805,,,,,,,2022-08-22,1,,,,,ティーエムプロパティマネジメント,0
514,3040001124758,新規,0,2022-08-22,2022-08-22,株式会社ＳＴＳ,,株式会社,千葉県,千葉市美浜区,真砂１丁目１２番７－４０６号,,12,106,2610011,,,,,,,2022-08-22,1,,,,,エスティーエス,0
520,3050001051563,新規,0,2022-08-22,2022-08-22,株式会社池田保険事務所,,株式会社,茨城県,取手市,取手１丁目２番６号,,08,217,3020004,,,,,,,2022-08-22,1,,,,,イケダホケンジムショ,0
521,3050001051571,新規,0,2022-08-22,2022-08-22,恩門株式会社,,株式会社,茨城県,石岡市,三村３１６５番地９,,08,205,3150048,,,,,,,2022-08-22,1,,,,,アーメン,0
525,3060003004196,新規,0,2022-08-22,2022-08-22,ディーリンク合同会社,,合同会社,栃木県,那須郡那須町,大字豊原甲４９３７番地１,,09,407,3293211,,,,,,,2022-08-22,1,,,,,ディーリンク,0
526,3070001039565,新規,0,2022-08-22,2022-08-22,井口建築株式会社,,株式会社,群馬県,利根郡みなかみ町,布施１６８０番地１,,10,449,3791414,,,,,,,2022-08-22,1,,,,,イグチケンチク,0
527,3070003004567,新規,0,2022-08-22,2022-08-22,ＭＡＴＳＵＫＡＮ　ＧＲＯＵＰ合同会社,,合同会社,群馬県,伊勢崎市,昭和町１８０９‐２‐５号,,10,204,3720014,,,,,,,2022-08-22,1,,,,,マツカングループ,0
528,3080001025143,新規,0,2022-08-22,2022-08-22,株式会社えん,,株式会社,静岡県,静岡市清水区,蒲原神沢１３７４番地の６,,22,103,4213215,,,,,,,2022-08-22,1,,,,,エン,0
545,3120001248326,新規,0,2022-08-22,2022-08-22,株式会社アセプト,,株式会社,大阪府,大阪市旭区,清水４丁目５番２３－５０６号,,27,117,5350021,,,,,,,2022-08-22,1,,,,,アセプト,0
556,3122001036181,新規,0,2022-08-22,2022-08-22,株式会社Ｔ‐ＵＰ,,株式会社,大阪府,東大阪市,東上小阪３番２７号,,27,227,5770812,,,,,,,2022-08-22,1,,,,,ティーアップ,0
557,3130001072460,新規,0,2022-08-22,2022-08-22,株式会社ＣＨＥＥＺ,,株式会社,京都府,京都市下京区,仏光寺通烏丸東入上柳町３３１番地タカノハスクエア３Ｆ３２６号室,,26,106,6008099,,,,,,,2022-08-22,1,,,,,チーズ,0
566,3180001152704,新規,0,2022-08-22,2022-08-22,株式会社ＣＨＡＰＬＵＳ,,株式会社,愛知県,春日井市,神領町北２丁目１３番地３,,23,206,4860830,,,,,,,2022-08-22,1,,,,,チャプラス,0
571,3180003024174,新規,0,2022-08-22,2022-08-22,合同会社エイチプラス,,合同会社,愛知県,日進市,梅森台３丁目３０番地,,23,230,4700133,,,,,,,2022-08-22,1,,,,,エイチプラス,0
579,3220001024997,新規,0,2022-08-22,2022-08-22,おうぎ不動産株式会社,,株式会社,石川県,金沢市,示野町南５２番地,,17,201,9200059,,,,,,,2022-08-22,1,,,,,オウギフドウサン,0
592,3290001098663,新規,0,2022-08-22,2022-08-22,鎧濤株式会社,,株式会社,福岡県,福岡市博多区,祇園町８番１２号ロータリー大和１１１７号室,,40,132,8120038,,,,,,,2022-08-22,1,,,,,カイトウ,0
597,3300001013034,新規,0,2022-08-22,2022-08-22,株式会社ファンコネ,,株式会社,佐賀県,佐賀市,卸本町６番１号,,41,201,8490933,,,,,,,2022-08-22,1,,,,,ファンコネ,0
606,3360001030874,新規,0,2022-08-22,2022-08-22,株式会社Ｇ＆Ｒ,,株式会社,沖縄県,豊見城市,字翁長８３２番地３,,47,212,9010223,,,,,,,2022-08-22,1,,,,,ジーアンドアール,0
608,3370001048957,新規,0,2022-08-22,2022-08-22,黔明株式会社,,株式会社,宮城県,仙台市宮城野区,榴岡３丁目８番２４－４０１号,,04,102,9830852,,,,,,,2022-08-22,1,,,,,ケンメイ,0
609,3370001048965,新規,0,2022-08-22,2022-08-22,ｒｅｆｒａｎｃ株式会社,,株式会社,宮城県,仙台市宮城野区,燕沢１丁目２番３１号,,04,102,9830823,,,,,,,2022-08-22,1,,,,,ルフラン,0
612,3390001017002,新規,0,2022-08-22,2022-08-22,株式会社サカタモータース,,株式会社,山形県,酒田市,新橋１丁目３‐１０,,06,204,9980864,,,,,,,2022-08-22,1,,,,,サカタモータース,0
618,3430001087338,新規,0,2022-08-22,2022-08-22,株式会社Ｏｓｙｓｔｅｍ,,株式会社,北海道,札幌市中央区,南一条西７丁目６番地６ファインシティ札幌ザ・タワー大通公園８０２号,,01,101,0600061,,,,,,,2022-08-22,1,,,,,オーシステム,0
623,3500001024408,新規,0,2022-08-22,2022-08-22,株式会社楽笑,,株式会社,愛媛県,松山市,朝生田町５丁目３番地２８,,38,201,7900952,,,,,,,2022-08-22,1,,,,,ラクショウ,0
635,4010001228759,新規,0,2022-08-22,2022-08-22,株式会社Ｇｅｎｋｉ　Ｃｏｍｍｕｎｉｔｙ,,株式会社,東京都,千代田区,内神田２丁目７番１３号山手ビル３号館３階,,13,101,1010047,,,,,,,2022-08-22,1,,,,,ゲンキコミュニティ,0
636,4010001228965,新規,0,2022-08-22,2022-08-22,株式会社ＫＦＣ,,株式会社,東京都,千代田区,四番町２番地４,,13,101,1020081,,,,,,,2022-08-22,1,,,,,,0
637,4010001228973,新規,0,2022-08-22,2022-08-22,株式会社Ｍａｒｋｉｔ,,株式会社,東京都,中央区,京橋１丁目１－５セントラルビル２階,,13,102,1040031,,,,,,,2022-08-22,1,,,,,マークイット,0
639,4010005035441,新規,0,2022-08-22,2022-08-22,一般社団法人ＬＯＣＨＩＣ,,その他の設立登記法人,東京都,中央区,銀座２丁目５番４号ファサード銀座９階,,13,102,1040061,,,,,,,2022-08-22,1,,,,,ロシック,0
641,4010401168720,新規,0,2022-08-22,2022-08-22,株式会社ＦＲソリューション,,株式会社,東京都,港区,西新橋１丁目１９番３号第２双葉ビル４Ｆ,,13,103,1050003,,,,,,,2022-08-22,1,,,,,エフアールソリューション,0
642,4010401169099,新規,0,2022-08-22,2022-08-22,株式会社ｎｕｔｓ,,株式会社,東京都,港区,三田３丁目５－２７ラ・トゥール三田３６０６号室,,13,103,1080073,,,,,,,2022-08-22,1,,,,,ナッツ,0
643,4010401169140,新規,0,2022-08-22,2022-08-22,株式会社アリカ,,株式会社,東京都,港区,南青山２丁目２番１５号,,13,103,1070062,,,,,,,2022-08-22,1,,,,,アリカ,0
646,4010405021314,新規,0,2022-08-22,2022-08-22,一般社団法人シルバーシャトー,,その他の設立登記法人,東京都,港区,虎ノ門３丁目２２番１０－２０１号,,13,103,1050001,,,,,,,2022-08-22,1,,,,,シルバーシャトー,0
648,4010601061717,新規,0,2022-08-22,2022-08-22,京海株式会社,,株式会社,東京都,墨田区,向島４丁目３番８号グレイス向島２０２Ｂ号室,,13,107,1310033,,,,,,,2022-08-22,1,,,,,キョウカイ,0
649,4010601061725,新規,0,2022-08-22,2022-08-22,株式会社Ｓ＆Ｐ,,株式会社,東京都,墨田区,横川５丁目９番１－９０４号,,13,107,1300003,,,,,,,2022-08-22,1,,,,,エスアンドピー,0
660,4011001149152,新規,0,2022-08-22,2022-08-22,株式会社ポック,,株式会社,東京都,渋谷区,元代々木町８番３号,,13,113,1510062,,,,,,,2022-08-22,1,,,,,ポック,0
662,4011003015245,新規,0,2022-08-22,2022-08-22,田口資産管理合同会社,,合同会社,東京都,渋谷区,千駄ヶ谷５丁目１３番１８－２０４号リビオ新宿御苑,,13,113,1510051,,,,,,,2022-08-22,1,,,,,,0
665,4011103012084,新規,0,2022-08-22,2022-08-22,ＳＯＬＵＮ合同会社,,合同会社,東京都,新宿区,西新宿３丁目３番１３号西新宿水間ビル６階,,13,104,1600023,,,,,,,2022-08-22,1,,,,,ソリュン,0
669,4011105010367,新規,0,2022-08-22,2022-08-22,社会保険労務士法人ＴＥＣＯ　Ｃｏｎｓｕｌｔｉｎｇ,,その他の設立登記法人,東京都,新宿区,矢来町１１２番地第二松下ビル２Ｆ,,13,104,1620805,,,,,,,2022-08-22,1,,,,,テココンサルティング,0
675,4011303004501,新規,0,2022-08-22,2022-08-22,合同会社あをによし,,合同会社,東京都,杉並区,成田西３丁目７番２１号,,13,115,1660016,,,,,,,2022-08-22,1,,,,,アヲニヨシ,0
678,4011601026189,新規,0,2022-08-22,2022-08-22,株式会社レイズ,,株式会社,東京都,練馬区,豊玉上２丁目１４－１０－４０２,,13,120,1760011,,,,,,,2022-08-22,1,,,,,レイズ,0
679,4011701025553,新規,0,2022-08-22,2022-08-22,株式会社レスプランドール,,株式会社,東京都,江戸川区,東小岩５丁目３７番３号,,13,123,1330052,,,,,,,2022-08-22,1,,,,,レスプランドール,0
695,4020001147685,新規,0,2022-08-22,2022-08-22,株式会社Ｐ．Ｖファーム,,株式会社,神奈川県,横浜市神奈川区,東神奈川２丁目４９番１６号,,14,102,2210044,,,,,,,2022-08-22,1,,,,,ピーブイファーム,0
696,4020003022242,新規,0,2022-08-22,2022-08-22,合同会社Ｔｏｈｍａｗａｒｉ,,合同会社,神奈川県,川崎市幸区,鹿島田３丁目１７－１２イニシア新川崎ハウス１０２,,14,132,2120058,,,,,,,2022-08-22,1,,,,,トオマワリ,0
713,4030003020039,新規,0,2022-08-22,2022-08-22,合同会社Ｃａｒｒｅ,,合同会社,埼玉県,所沢市,松葉町１０番１３号,,11,208,3590044,,,,,,,2022-08-22,1,,,,,カレ,0
721,4050001051570,新規,0,2022-08-22,2022-08-22,Ｂ株式会社,,株式会社,茨城県,稲敷市,月出里６２１番地,,08,229,3000521,,,,,,,2022-08-22,1,,,,,ビー,0
725,4060001035201,新規,0,2022-08-22,2022-08-22,株式会社Ｔ’ｓインテリアサービス,,株式会社,栃木県,下都賀郡壬生町,大字壬生甲２２３９番地１,,09,361,3210214,,,,,,,2022-08-22,1,,,,,ティーズインテリアサービス,0
729,4090001017741,新規,0,2022-08-22,2022-08-22,株式会社ＮＡＫＡＪＩＭＡ,,株式会社,山梨県,甲府市,国母８丁目２８番３号,,19,201,4000043,,,,,,,2022-08-22,1,,,,,ナカジマ,0
735,4120001248267,新規,0,2022-08-22,2022-08-22,青川国際貿易株式会社,,株式会社,大阪府,大阪市中央区,高津３丁目８－１９スター・レジデンス黒門２０３号室,,27,128,5420072,,,,,,,2022-08-22,1,,,,,アオカワコクサイボウエキ,0
736,4120001248300,新規,0,2022-08-22,2022-08-22,株式会社スカイ,,株式会社,大阪府,大阪市中央区,北浜３丁目５番１９号,,27,128,5410041,,,,,,,2022-08-22,1,,,,,スカイ,0
737,4120001248317,新規,0,2022-08-22,2022-08-22,ＢＲＥＥＺＥ株式会社,,株式会社,大阪府,大阪市旭区,新森３丁目１７番１９号,,27,117,5350022,,,,,,,2022-08-22,1,,,,,ブリーズ,0
738,4120001248325,新規,0,2022-08-22,2022-08-22,株式会社ＭＡＲＭＯ,,株式会社,大阪府,枚方市,南楠葉１丁目６番２０－４０２号,,27,210,5731105,,,,,,,2022-08-22,1,,,,,マルモ,0
740,4120003022307,新規,0,2022-08-22,2022-08-22,合同会社日和,,合同会社,大阪府,大阪市東住吉区,駒川１丁目２１番１４号サンフラワー駒川４０３号室,,27,121,5460043,,,,,,,2022-08-22,1,,,,,ヒヨリ,0
744,4122001036180,新規,0,2022-08-22,2022-08-22,株式会社ワイズマネジメント,,株式会社,大阪府,大東市,中垣内７丁目１番２１号,,27,218,5740013,,,,,,,2022-08-22,1,,,,,ワイズマネジメント,0
747,4130001072484,新規,0,2022-08-22,2022-08-22,株式会社エーワン,,株式会社,京都府,京都市北区,衣笠御所ノ内町６２番１０,,26,101,6038378,,,,,,,2022-08-22,1,,,,,エーワン,0
760,4170005006971,新規,0,2022-08-22,2022-08-22,特定非営利活動法人Ｇｏ‐Ｋｕｍａ‐Ｋｉｄｓ,,その他の設立登記法人,和歌山県,新宮市,佐野９７３－４、１Ｆ,,30,207,6470071,,,,,,,2022-08-22,1,,,,,ゴークマキッズ,0
771,4180001152694,新規,0,2022-08-22,2022-08-22,株式会社ＭＡＲＩＥ　ＴＥＲＥＳＩＡ,,株式会社,愛知県,名古屋市東区,泉１丁目３番２７号浜名ビル３階,,23,102,4610001,,,,,,,2022-08-22,1,,,,,マリーテレジア,0
777,4180301036556,新規,0,2022-08-22,2022-08-22,株式会社三河電工,,株式会社,愛知県,岡崎市,井田町字１丁目１４８番地２,,23,202,4440076,,,,,,,2022-08-22,1,,,,,ミカワデンコウ,0
778,4180303005427,新規,0,2022-08-22,2022-08-22,合同会社ナナズカンパニー,,合同会社,愛知県,岡崎市,栄町５丁目３５番地１１,,23,202,4440012,,,,,,,2022-08-22,1,,,,,ナナズカンパニー,0
782,4210001019048,新規,0,2022-08-22,2022-08-22,株式会社Ｃ‐ｖｅｒ,,株式会社,福井県,敦賀市,衣掛町１４６番地,,18,202,9140043,,,,,,,2022-08-22,1,,,,,シーバー,0
783,4230001019491,新規,0,2022-08-22,2022-08-22,株式会社Ｔ＆Ｎプランニング,,株式会社,富山県,高岡市,泉町９６７番地１,,16,202,9330858,,,,,,,2022-08-22,1,,,,,ティアンドエヌプランニング,0
785,4240001060239,新規,0,2022-08-22,2022-08-22,ＩＲマネジメント株式会社,,株式会社,広島県,広島市南区,比治山町２番４号,,34,103,7320817,,,,,,,2022-08-22,1,,,,,アイアールマネジメント,0
796,4290801028827,新規,0,2022-08-22,2022-08-22,株式会社石樟,,株式会社,福岡県,北九州市八幡西区,大膳２丁目１５番１２号,,40,109,8070863,,,,,,,2022-08-22,1,,,,,セキショウ,0
810,4390001017001,新規,0,2022-08-22,2022-08-22,株式会社ＤＭＣ蔵王温泉ツーリズムコミッティ,,株式会社,山形県,山形市,蔵王温泉１８番地,,06,201,9902301,,,,,,,2022-08-22,1,,,,,ヂィエムシザオウオンセンツーリズムコミッティ,0
817,4430001087329,新規,0,2022-08-22,2022-08-22,株式会社エイト,,株式会社,北海道,札幌市西区,西野八条２丁目１１番１号,,01,107,0630038,,,,,,,2022-08-22,1,,,,,エイト,0
818,4430001087337,新規,0,2022-08-22,2022-08-22,株式会社グッドレッドロード,,株式会社,北海道,札幌市白石区,平和通７丁目北１０番１－２０５号,,01,104,0030029,,,,,,,2022-08-22,1,,,,,グッドレッドロード,0
821,4500001024407,新規,0,2022-08-22,2022-08-22,株式会社ＩＮＳＩＳＴ,,株式会社,愛媛県,今治市,本町６丁目４番７０号,,38,202,7940018,,,,,,,2022-08-22,1,,,,,インシスト,0
833,5010001228873,新規,0,2022-08-22,2022-08-22,株式会社Ｎｅｘｔ　Ｒｅｌａｔｉｏｎ,,株式会社,東京都,中央区,銀座７丁目４番１５号,,13,102,1040061,,,,,,,2022-08-22,1,,,,,ネクストリレーション,0
845,5010401169131,新規,0,2022-08-22,2022-08-22,株式会社Ｊｕｓｔ　Ｒｅｌａｘ,,株式会社,東京都,港区,南青山３丁目１５番９号ＭＩＮＯＷＡ表参道３Ｆ－２３４,,13,103,1070062,,,,,,,2022-08-22,1,,,,,ジャストリラックス,0
849,5010403028327,新規,0,2022-08-22,2022-08-22,ＰＳＣ　Ｂｉｏｔｅｃｈ　Ｊａｐａｎ合同会社,,合同会社,東京都,港区,虎ノ門４丁目３番１号城山トラストタワー東京赤坂法律事務所内,,13,103,1050001,,,,,,,2022-08-22,1,,,,,ピーエスシーバイオテックジャパン,0
861,5011001149250,新規,0,2022-08-22,2022-08-22,株式会社ｓｔｏｒｙｂｏａｒｄ　ｓｕｎ,,株式会社,東京都,渋谷区,元代々木町４５番１－２０６号ヒューリックコート元代々木,,13,113,1510062,,,,,,,2022-08-22,1,,,,,,0
864,5011103012083,新規,0,2022-08-22,2022-08-22,合同会社ル・シエル,,合同会社,東京都,新宿区,西新宿３丁目３番１３号西新宿水間ビル６階,,13,104,1600023,,,,,,,2022-08-22,1,,,,,ルシエル,0
882,5020001147858,新規,0,2022-08-22,2022-08-22,Ｂｅｓｔ　Ｑｕａｌｉｔｙ株式会社,,株式会社,神奈川県,川崎市多摩区,中野島３丁目３１番６２－５号,,14,135,2140012,,,,,,,2022-08-22,1,,,,,ベストクオリティー,0
885,5020005015631,新規,0,2022-08-22,2022-08-22,特定非営利活動法人まちかける学生プロジェクトｐｌｕｓ,,その他の設立登記法人,神奈川県,横浜市神奈川区,六角橋６丁目２８番２９号,,14,102,2210802,,,,,,,2022-08-22,1,,,,,マチカケルガクセイプロジェクトプラス,0
891,5030001149754,新規,0,2022-08-22,2022-08-22,株式会社和,,株式会社,埼玉県,熊谷市,佐谷田３７４９番地１,,11,202,3600023,,,,,,,2022-08-22,1,,,,,ナゴミ,0
892,5030001149770,新規,0,2022-08-22,2022-08-22,真牛株式会社,,株式会社,埼玉県,東松山市,大字上野本５５５－１,,11,212,3550073,,,,,,,2022-08-22,1,,,,,シンギュウ,0
896,5030003020038,新規,0,2022-08-22,2022-08-22,仁工業合同会社,,合同会社,埼玉県,秩父市,大野原３４６９番地３,,11,207,3680005,,,,,,,2022-08-22,1,,,,,ジンコウギョウ,0
905,5040001124748,新規,0,2022-08-22,2022-08-22,北海道テラス株式会社,,株式会社,千葉県,市川市,中国分２丁目８番２４号,,12,203,2720835,,,,,,,2022-08-22,1,,,,,ホッカイドウテラス,0
906,5040001124756,新規,0,2022-08-22,2022-08-22,株式会社Ａｃｒｏｘｅｅｄ,,株式会社,千葉県,柏市,十余二２４８番地３２８,,12,217,2770872,,,,,,,2022-08-22,1,,,,,アクロシード,0
912,5040005021710,新規,0,2022-08-22,2022-08-22,一般社団法人千葉県相続支援協会,,その他の設立登記法人,千葉県,船橋市,宮本２丁目１５番１７号,,12,204,2730003,,,,,,,2022-08-22,1,,,,,チバケンソウゾクシエンキョウカイ,0
917,5060001035200,新規,0,2022-08-22,2022-08-22,盛大国際株式会社,,株式会社,栃木県,下都賀郡壬生町,大字上田１４６９番１,,09,361,3210231,,,,,,,2022-08-22,1,,,,,セイダイコクサイ,0
918,5070001039563,新規,0,2022-08-22,2022-08-22,株式会社Ｓｅａ　Ｔｒａｄｅ　Ｃｏｒｐｏｒａｔｉｏｎ,,株式会社,群馬県,邑楽郡大泉町,大字古海３４７番地の１,,10,524,3700524,,,,,,,2022-08-22,1,,,,,シートレードコーポレーション,0
940,5120001248209,新規,0,2022-08-22,2022-08-22,Ｈ＆Ｈ株式会社,,株式会社,大阪府,大阪市東成区,深江北３丁目４番２１号エクラ深江橋３１３Ｂ,,27,115,5370001,,,,,,,2022-08-22,1,,,,,エイチアンドエイチ,0
941,5120001248308,新規,0,2022-08-22,2022-08-22,株式会社スグクル,,株式会社,大阪府,大阪市北区,角田町８番４７号阪急グランドビル２０階,,27,127,5300017,,,,,,,2022-08-22,1,,,,,スグクル,0
942,5120001248316,新規,0,2022-08-22,2022-08-22,ライオンズワークス株式会社,,株式会社,大阪府,大阪市中央区,北久宝寺町１丁目４番１０号,,27,128,5410057,,,,,,,2022-08-22,1,,,,,ライオンズワークス,0
943,5120001248324,新規,0,2022-08-22,2022-08-22,株式会社Ｓｕｒｖｅｙ　ｔｅａｍ,,株式会社,大阪府,大阪市西区,新町１丁目８番１３クレアホームズ７０１号,,27,106,5500013,,,,,,,2022-08-22,1,,,,,サーベイチーム,0
944,5120001248340,新規,0,2022-08-22,2022-08-22,ＧＵＲＡＳ株式会社,,株式会社,大阪府,大阪市西区,西本町１丁目１３番２０－５０３号,,27,106,5500005,,,,,,,2022-08-22,1,,,,,グラース,0
950,5120901046356,新規,0,2022-08-22,2022-08-22,株式会社ＫａｏＲｕ,,株式会社,大阪府,茨木市,橋の内３丁目２番１号,,27,211,5670805,,,,,,,2022-08-22,1,,,,,カオル,0
960,5140003018046,新規,0,2022-08-22,2022-08-22,合同会社大商,,合同会社,兵庫県,尼崎市,大庄西町１丁目５番１１号,,28,202,6600077,,,,,,,2022-08-22,1,,,,,ダイショウ,0
969,5180001152719,新規,0,2022-08-22,2022-08-22,株式会社有得,,株式会社,愛知県,名古屋市東区,泉２丁目１５－６グランデール泉７０４号室,,23,102,4610001,,,,,,,2022-08-22,1,,,,,ユウトク,0
972,5180003024172,新規,0,2022-08-22,2022-08-22,ＣＬＥＯＰＡＴＲＡ　ＧＲＯＵＰ合同会社,,合同会社,愛知県,稲沢市,稲島東２丁目７番地,,23,220,4928230,,,,,,,2022-08-22,1,,,,,クレオパトラグループ,0
974,5180005019897,新規,0,2022-08-22,2022-08-22,ワイド事業協同組合,,その他の設立登記法人,愛知県,名古屋市緑区,砂田２丁目３０７番地,,23,114,4580807,,,,,,,2022-08-22,1,,,,,ワイド,0
975,5230001019490,新規,0,2022-08-22,2022-08-22,株式会社Ｌｉｆｅ　ｉｓ　Ｐａｒｔｎｅｒ,,株式会社,富山県,富山市,北代４１３５番地３１,,16,201,9300103,,,,,,,2022-08-22,1,,,,,ライフイズパートナー,0
993,5330005010543,新規,0,2022-08-22,2022-08-22,一般社団法人くまもと戦争と平和のミュージアム設立準備会,,その他の設立登記法人,熊本県,熊本市中央区,大江５丁目２番１５－２０３号,,43,101,8620971,,,,,,,2022-08-22,1,,,,,クマモトセンソウトヘイワノミュージアムセツリツジュンビカイ,0
995,5360001030848,新規,0,2022-08-22,2022-08-22,株式会社ＵＳＡＫＵ　ＰＡＲＡＤＩＳＥ,,株式会社,沖縄県,那覇市,牧志１丁目１番３９号ステップビル２Ｆ－Ｂ,,47,201,9000013,,,,,,,2022-08-22,1,,,,,ウサクパラダイス,0
997,5400003002964,新規,0,2022-08-22,2022-08-22,合同会社樵,,合同会社,岩手県,一関市,大東町鳥海字向前畑１２０番地２,,03,209,0290602,,,,,,,2022-08-22,1,,,,,キコリ,0
1004,5430001087328,新規,0,2022-08-22,2022-08-22,株式会社札幌クラス,,株式会社,北海道,札幌市中央区,南八条西９丁目７５８番地２３,,01,101,0640808,,,,,,,2022-08-22,1,,,,,サッポロクラス,0
1005,5430001087336,新規,0,2022-08-22,2022-08-22,ヴェルデ建築事務所株式会社,,株式会社,北海道,札幌市北区,太平二条３丁目３番１５号,,01,102,0028002,,,,,,,2022-08-22,1,,,,,ヴェルデケンチクジムショ,0
1006,5430001087344,新規,0,2022-08-22,2022-08-22,株式会社ＷＥＬＬ　Ｃｏｒｐｏｒａｔｉｏｎ,,株式会社,北海道,小樽市,稲穂１丁目２番１０号,,01,203,0470032,,,,,,,2022-08-22,1,,,,,ウェルコーポレーション,0
1011,5490001010259,新規,0,2022-08-22,2022-08-22,株式会社マルハマ,,株式会社,高知県,香南市,野市町下井１０７８番地,,39,211,7815235,,,,,,,2022-08-22,1,,,,,マルハマ,0
1014,5700150111406,新規,0,2022-08-22,2022-08-22,Ｐｌｕｇｉｎ　Ｂｏｕｔｉｑｕｅ　Ｌｉｍｉｔｅｄ,,外国会社等,,,,,,,,１　Ｒｅｇｅｎｃｙ　Ｍｅｗｓ，Ｓｉｌｖｅｒｄａｌｅ　Ｒｏａｄ，Ｅａｓｔｂｏｕｒｎｅ　ＢＮ２０　７ＡＢ　Ｕｎｉｔｅｄ　Ｋｉｎｇｄｏｍ,,,,,,2022-08-22,1,,,,,プラグインブテイツクリミテツド,0
1025,6010001228996,新規,0,2022-08-22,2022-08-22,株式会社Ｌｉｍｅｒ,,株式会社,東京都,中央区,銀座１丁目１２－４Ｎ＆ＥＢＬＤ．７階,,13,102,1040061,,,,,,,2022-08-22,1,,,,,ライマー,0
1026,6010003038469,新規,0,2022-08-22,2022-08-22,リンクスター合同会社,,合同会社,東京都,中央区,新川１丁目２３番地４号ＩＳリバーサイドビル１２０１号室,,13,102,1040033,,,,,,,2022-08-22,1,,,,,リンクスター,0
1039,6010403028326,新規,0,2022-08-22,2022-08-22,合同会社Ｍ３プロジェクト,,合同会社,東京都,港区,虎ノ門３丁目２２番１０－２０１号,,13,103,1050001,,,,,,,2022-08-22,1,,,,,エムスリープロジェクト,0
1040,6010403028334,新規,0,2022-08-22,2022-08-22,Ｗｈｉｓｋ合同会社,,合同会社,東京都,港区,南青山３丁目１番３６号青山丸竹ビル６Ｆ,,13,103,1070062,,,,,,,2022-08-22,1,,,,,ウィスク,0
1041,6010405021254,新規,0,2022-08-22,2022-08-22,日本中央開発特定目的会社,,その他の設立登記法人,東京都,港区,虎ノ門５丁目１番４号,,13,103,1050001,,,,,,,2022-08-22,1,,,,,ニホンチュウオウカイハツ,0
1047,6010801033217,新規,0,2022-08-22,2022-08-22,ＭＡＳ　Ｃｏｎｓｕｌｔｉｎｇ株式会社,,株式会社,東京都,大田区,田園調布４丁目２６番２２号,,13,111,1450071,,,,,,,2022-08-22,1,,,,,エムエーエスコンサルティング,0
1055,6011001149349,新規,0,2022-08-22,2022-08-22,株式会社ＷＩＳ,,株式会社,東京都,渋谷区,円山町５番５号Ｎａｖｉ渋谷Ｖ３階,,13,113,1500044,,,,,,,2022-08-22,1,,,,,ウィズ,0
1057,6011005009689,新規,0,2022-08-22,2022-08-22,一般社団法人日本快眠ドライヘッドスパ協会,,その他の設立登記法人,東京都,渋谷区,恵比寿１丁目２２番３号シルバープラザ８０５,,13,113,1500013,,,,,,,2022-08-22,1,,,,,ニホンカイミンドライヘッドスパキョウカイ,0
1059,6011101099931,新規,0,2022-08-22,2022-08-22,株式会社リバネスナレッジ,,株式会社,東京都,新宿区,下宮比町１番４号飯田橋御幸ビル,,13,104,1620822,,,,,,,2022-08-22,1,,,,,リバネスナレッジ,0
1064,6011103012082,新規,0,2022-08-22,2022-08-22,ミーゴス合同会社,,合同会社,東京都,新宿区,弁天町１３５－１グレンドール新宿牛込柳町６０３,,13,104,1620851,,,,,,,2022-08-22,1,,,,,ミーゴス,0
1069,6011301028054,新規,0,2022-08-22,2022-08-22,株式会社トリニテ,,株式会社,東京都,杉並区,西荻南４丁目１１番２号月の家１０１,,13,115,1670053,,,,,,,2022-08-22,1,,,,,トリニテ,0
1077,6012401039560,新規,0,2022-08-22,2022-08-22,株式会社マールストロム,,株式会社,東京都,狛江市,岩戸南３丁目１８番９号メゾン・ド・イグレックＡ号,,13,219,2010005,,,,,,,2022-08-22,1,,,,,マールストロム,0
1082,6013301049550,新規,0,2022-08-22,2022-08-22,大久保文化芸術品東京株式会社,,株式会社,東京都,豊島区,西巣鴨１丁目３５番３号西巣鴨ペアパレス１０５号室,,13,116,1700001,,,,,,,2022-08-22,1,,,,,オオクボブンカゲイジュツヒントウキョウ,0
1089,6020001147832,新規,0,2022-08-22,2022-08-22,株式会社スイート,,株式会社,神奈川県,横浜市中区,長者町６丁目１１１番地横浜エクセレントＶＩＩＩビル５階５０１号室,00127585,14,104,2310033,,,,,,,2022-08-22,1,,,,,スイート,0
1090,6020001147840,新規,0,2022-08-22,2022-08-22,株式会社クルミ,,株式会社,神奈川県,川崎市幸区,新小倉２－７－１３２０号室,,14,132,2120031,,,,,,,2022-08-22,1,,,,,クルミ,0
1091,6020001147865,新規,0,2022-08-22,2022-08-22,株式会社ハピリア,,株式会社,神奈川県,横浜市西区,西平沼町４番１－Ｅ２０１０号,,14,103,2200024,,,,,,,2022-08-22,1,,,,,ハピリア,0
1105,6030001149753,新規,0,2022-08-22,2022-08-22,株式会社吉博,,株式会社,埼玉県,児玉郡美里町,大字関４４８番地３,,11,381,3670102,,,,,,,2022-08-22,1,,,,,ヨシヒロ,0
1118,6040001124747,新規,0,2022-08-22,2022-08-22,株式会社朝日ＨＯＭＥ’Ｓ,,株式会社,千葉県,市川市,市川１丁目１２番１９号エイドビル４Ｆ,,12,203,2720034,,,,,,,2022-08-22,1,,,,,アサヒホームズ,0
1125,6040003020655,新規,0,2022-08-22,2022-08-22,合同会社ＲＥＧＯＬＩＴＨ,,合同会社,千葉県,柏市,塚崎８９５番地３ソル・レヴェンテＩＩＣ－２０１号,00127583,12,217,2770923,,,,,,,2022-08-22,1,,,,,レゴリス,0
1131,6080001025140,新規,0,2022-08-22,2022-08-22,株式会社Ｋネクスト,,株式会社,静岡県,静岡市駿河区,丸子６３２５番地の１０,,22,102,4210103,,,,,,,2022-08-22,1,,,,,ケーネクスト,0
1142,6120001248208,新規,0,2022-08-22,2022-08-22,日本当客ＤＵＮＫ株式会社,,株式会社,大阪府,大阪市東成区,深江北３丁目４番２１号エクラ深江橋１０７Ａ,,27,115,5370001,,,,,,,2022-08-22,1,,,,,ニホントウキャクダンク,0
1143,6120001248281,新規,0,2022-08-22,2022-08-22,千特株式会社,,株式会社,大阪府,大阪市浪速区,下寺３丁目１番１４号エクレール夕陽ヶ丘２０３,,27,111,5560001,,,,,,,2022-08-22,1,,,,,セントク,0
1144,6120001248323,新規,0,2022-08-22,2022-08-22,金楽株式会社,,株式会社,大阪府,大阪市淀川区,西原二丁目６－１６－１００３号室,,27,123,5320000,,,,,,,2022-08-22,1,,,,,キンラク,0
1145,6120001248356,新規,0,2022-08-22,2022-08-22,ＤＸ総合研究所株式会社,,株式会社,大阪府,大阪市北区,豊崎１丁目２－４、１階,,27,127,5310072,,,,,,,2022-08-22,1,,,,,ディーエックスソウゴウケンキュウジョ,0
1159,6130001072482,新規,0,2022-08-22,2022-08-22,株式会社ＭＩＳＡＣＥ,,株式会社,京都府,京都市上京区,釜座通丸太町上る夷川町３８０番地２シュワルベ６０５号室,,26,102,6028032,,,,,,,2022-08-22,1,,,,,ミサチ,0
1167,6150001025777,新規,0,2022-08-22,2022-08-22,株式会社香芝地所,,株式会社,奈良県,香芝市,上中３９１番地２,,29,210,6390265,,,,,,,2022-08-22,1,,,,,カシバジジョ,0
1169,6170001017244,新規,0,2022-08-22,2022-08-22,株式会社フクイチ,,株式会社,和歌山県,西牟婁郡白浜町,堅田１９５７番地の６,,30,401,6492201,,,,,,,2022-08-22,1,,,,,フクイチ,0
1178,6180005019896,新規,0,2022-08-22,2022-08-22,一般社団法人生活習慣改善・増進学会,,その他の設立登記法人,愛知県,名古屋市守山区,川村町１４４番地,,23,113,4630097,,,,,,,2022-08-22,1,,,,,セイカツシュウカンカイゼンゾウシンガッカイ,0
1179,6190001029709,新規,0,2022-08-22,2022-08-22,鈴鹿資源リサイクル株式会社,,株式会社,三重県,鈴鹿市,東庄内町字地蔵僧４３１６番地２,,24,207,5190272,,,,,,,2022-08-22,1,,,,,スズカシゲンリサイクル,0
1188,6240001060245,新規,0,2022-08-22,2022-08-22,株式会社シンビオウシス・ウッズ,,株式会社,広島県,広島市中区,大手町４丁目５番１１－５０４号,,34,101,7300051,,,,,,,2022-08-22,1,,,,,シンビオウシスウッズ,0
1194,6290001098660,新規,0,2022-08-22,2022-08-22,株式会社ブライトベース,,株式会社,福岡県,福岡市中央区,長浜３丁目２番４－８０２号,,40,133,8100072,,,,,,,2022-08-22,1,,,,,ブライトベース,0
1195,6290001098669,新規,0,2022-08-22,2022-08-22,株式会社Ｋ．プランニングロジスティクス,,株式会社,福岡県,飯塚市,平恒９０８番地１,,40,205,8200073,,,,,,,2022-08-22,1,,,,,ケイプランニングロジスティクス,0
1200,6290801028825,新規,0,2022-08-22,2022-08-22,株式会社ＷＩＬＬ,,株式会社,福岡県,北九州市八幡西区,浅川町１４番１８号,,40,109,8070879,,,,,,,2022-08-22,1,,,,,ウィル,0
1203,6320001019282,新規,0,2022-08-22,2022-08-22,コダマ電機工業株式会社,,株式会社,大分県,大分市,花園２丁目６番１２号,,44,201,8700846,,,,,,,2022-08-22,1,,,,,コダマデンキコウギョウ,0
1211,6380003005259,新規,0,2022-08-22,2022-08-22,合同会社ＢＯＯＬ,,合同会社,福島県,いわき市,小名浜下神白字武城１５番地の１小名浜テラスハウスＣ棟,,07,204,9700316,,,,,,,2022-08-22,1,,,,,ブール,0
1217,6420003002565,新規,0,2022-08-22,2022-08-22,合同会社スポーツサポ,,合同会社,青森県,弘前市,大字末広４丁目６番地６ヴィラシャンティ２０１号,,02,202,0368085,,,,,,,2022-08-22,1,,,,,スポーツサポ,0
1220,6430001087335,新規,0,2022-08-22,2022-08-22,株式会社マルイシ,,株式会社,北海道,札幌市北区,拓北四条４丁目４番２３号,,01,102,0028064,,,,,,,2022-08-22,1,,,,,マルイシ,0
1221,6430001087343,新規,0,2022-08-22,2022-08-22,株式会社Ｄ．Ｍ．Ｊ,,株式会社,北海道,室蘭市,宮の森町３丁目９番２０号,,01,205,0500073,,,,,,,2022-08-22,1,,,,,ディーエムジェー,0
1224,6470001019219,新規,0,2022-08-22,2022-08-22,株式会社ＯＭＩ,,株式会社,香川県,高松市,川島本町２９１番地３,,37,201,7610442,,,,,,,2022-08-22,1,,,,,オーエムアイ,0
1225,6500001024413,新規,0,2022-08-22,2022-08-22,株式会社Ｒｅｄ,,株式会社,愛媛県,松山市,二番町１丁目８番地１６,,38,201,7900002,,,,,,,2022-08-22,1,,,,,レッド,0
1236,7010001228905,新規,0,2022-08-22,2022-08-22,ゲットレーブ株式会社,,株式会社,東京都,中央区,銀座１丁目１４番７号和田ビル１０階,,13,102,1040061,,,,,,,2022-08-22,1,,,,,ゲットレーブ,0
1238,7010003038451,新規,0,2022-08-22,2022-08-22,合同会社ティーダ,,合同会社,東京都,千代田区,丸の内３丁目１番１号東京共同会計事務所内,,13,101,1000005,,,,,,,2022-08-22,1,,,,,ティーダ,0
1245,7010401168874,新規,0,2022-08-22,2022-08-22,株式会社フリークアウト・インベストメント,,株式会社,東京都,港区,六本木６丁目３番１号,,13,103,1060032,,,,,,,2022-08-22,1,,,,,フリークアウトインベストメント,0
1246,7010401169229,新規,0,2022-08-22,2022-08-22,ネストサイエンティフィック株式会社,,株式会社,東京都,港区,赤坂２丁目８番１４－５０４号,,13,103,1070052,,,,,,,2022-08-22,1,,,,,ネストサイエンティフィック,0
1248,7010403028218,新規,0,2022-08-22,2022-08-22,合同会社阿佐ヶ谷ワン,,合同会社,東京都,港区,赤坂３丁目２１番１７号,,13,103,1070052,,,,,,,2022-08-22,1,,,,,アサガヤワン,0
1249,7010403028325,新規,0,2022-08-22,2022-08-22,合同会社シルバーシャトー,,合同会社,東京都,港区,虎ノ門３丁目２２番１０－２０１号,,13,103,1050001,,,,,,,2022-08-22,1,,,,,シルバーシャトー,0
1252,7010405021212,新規,0,2022-08-22,2022-08-22,一般社団法人地域から日本を変える,,その他の設立登記法人,東京都,港区,高輪４丁目８番１１－４０２号,,13,103,1080074,,,,,,,2022-08-22,1,,,,,,0
1253,7010405021229,新規,0,2022-08-22,2022-08-22,一般社団法人日本臨床開発機構,,その他の設立登記法人,東京都,港区,赤坂４丁目１４番１４－３４０４号,,13,103,1070052,,,,,,,2022-08-22,1,,,,,ニホンリンショウカイハツキコウ,0
1261,7010601061714,新規,0,2022-08-22,2022-08-22,株式会社ＵＮＩＴＩＮＧ,,株式会社,東京都,江東区,大島８丁目３４－２２,,13,108,1360072,,,,,,,2022-08-22,1,,,,,ユニシング,0
1262,7010601061722,新規,0,2022-08-22,2022-08-22,株式会社Ｔ‐ｓｅｒｖｉｃｅ,,株式会社,東京都,江東区,亀戸３丁目５０番５号ミネコーポＩ－１０１,00127581,13,108,1360071,,,,,,,2022-08-22,1,,,,,ティーサービス,0
1265,7010705003406,新規,0,2022-08-22,2022-08-22,一般社団法人金色時代文化芸術協会,,その他の設立登記法人,東京都,品川区,上大崎２丁目４番２４号Ｋ＆Ｑビル１Ｆ,,13,109,1410021,,,,,,,2022-08-22,1,,,,,キンイロジダイブンカゲイジュツキョウカイ,0
1272,7011001149323,新規,0,2022-08-22,2022-08-22,株式会社Ｅｓｓｅｎｃｅ５,,株式会社,東京都,渋谷区,東１丁目２６番２０号,,13,113,1500011,,,,,,,2022-08-22,1,,,,,エッセンスファイブ,0
1273,7011001149380,新規,0,2022-08-22,2022-08-22,株式会社Ｊａｐａｎ　Ｎａｖｉ,,株式会社,東京都,渋谷区,円山町５番５号Ｎａｖｉ渋谷Ｖ３階,,13,113,1500044,,,,,,,2022-08-22,1,,,,,ジャパンナビ,0
1280,7011101099897,新規,0,2022-08-22,2022-08-22,株式会社Ｌ,,株式会社,東京都,新宿区,西新宿３丁目３番１３号西新宿水間ビル６階,,13,104,1600023,,,,,,,2022-08-22,1,,,,,エル,0
1281,7011101099922,新規,0,2022-08-22,2022-08-22,フィンロジックス株式会社,,株式会社,東京都,新宿区,四谷３丁目１３番地ＳＥＡＢＩＲＤビル２階,,13,104,1600004,,,,,,,2022-08-22,1,,,,,フィンロジックス,0
1282,7011101099930,新規,0,2022-08-22,2022-08-22,株式会社ＹＵＮＩ,,株式会社,東京都,新宿区,西早稲田３丁目１６番８号こゆきコーポ２階３号（２０３号室）,,13,104,1690051,,,,,,,2022-08-22,1,,,,,ユニ,0
1285,7011301028053,新規,0,2022-08-22,2022-08-22,株式会社ＭＡＮＡＬａｂ,,株式会社,東京都,杉並区,久我山３丁目２４番２２号,,13,115,1680082,,,,,,,2022-08-22,1,,,,,マナラボ,0
1291,7011701025550,新規,0,2022-08-22,2022-08-22,株式会社ｉｉｎａ,,株式会社,東京都,江戸川区,鹿骨５丁目１９番１３号ヴェルドミールカシマ３０３,,13,123,1330073,,,,,,,2022-08-22,1,,,,,イーナ,0
1296,7012303001709,新規,0,2022-08-22,2022-08-22,合同会社ＮｅＰｒｏ,,合同会社,東京都,町田市,小山町７４９－３,,13,209,1940212,,,,,,,2022-08-22,1,,,,,ネプロ,0
1303,7013303006268,新規,0,2022-08-22,2022-08-22,天相合同会社,,合同会社,東京都,豊島区,西池袋１丁目９番２－１３０４号,,13,116,1710021,,,,,,,2022-08-22,1,,,,,テンショウ,0
1307,7020001147848,新規,0,2022-08-22,2022-08-22,株式会社Ａｄｖａｎｃｅ,,株式会社,神奈川県,横浜市港南区,港南台６丁目１９番３２－１０２号,,14,111,2340054,,,,,,,2022-08-22,1,,,,,アドバンス,0
1308,7020001147864,新規,0,2022-08-22,2022-08-22,株式会社Ｐｅｒｆｅｃｔ　Ｌｉｖｅ,,株式会社,神奈川県,横浜市港北区,新横浜２丁目１４番８オフィス新横浜８１０号,,14,109,2220033,,,,,,,2022-08-22,1,,,,,パーフェクトライブ,0
1322,7021001076723,新規,0,2022-08-22,2022-08-22,株式会社土肥,,株式会社,神奈川県,海老名市,中央１丁目１６番３１号Ａ＆ＮＩビル１Ｆ,,14,215,2430432,,,,,,,2022-08-22,1,,,,,ドヒ,0
1325,7021003012040,新規,0,2022-08-22,2022-08-22,Ｔｅａｍ１０８合同会社,,合同会社,神奈川県,横須賀市,久村６３１番地４,,14,201,2390834,,,,,,,2022-08-22,1,,,,,チームイチマルハチ,0
1326,7021003012057,新規,0,2022-08-22,2022-08-22,トランポワールド合同会社,,合同会社,神奈川県,藤沢市,石川１丁目７－５,,14,205,2520815,,,,,,,2022-08-22,1,,,,,トランポワールド,0
1337,7030003020052,新規,0,2022-08-22,2022-08-22,ＦＡサービス合同会社,,合同会社,埼玉県,加須市,旗井７７９番地,,11,210,3491132,,,,,,,2022-08-22,1,,,,,エフエーサービス,0
1338,7030005020975,新規,0,2022-08-22,2022-08-22,特定非営利活動法人越谷市カヌー協会,,その他の設立登記法人,埼玉県,越谷市,大字蒲生３８３５番地１朝日パリオ越谷南Ｉ－６０９号,00127584,11,222,3430838,,,,,,,2022-08-22,1,,,,,コシガヤシカヌーキョウカイ,0
1346,7040003020662,新規,0,2022-08-22,2022-08-22,ピクチャー・レイ合同会社,,合同会社,千葉県,山武市,木原１１２番地８,,12,237,2891212,,,,,,,2022-08-22,1,,,,,ピクチャーレイ,0
1348,7050001051543,新規,0,2022-08-22,2022-08-22,株式会社バイオマス・エネルギーセンター,,株式会社,茨城県,小美玉市,野田１４０４番地１,,08,236,3113411,,,,,,,2022-08-22,1,,,,,バイオマスエネルギーセンター,0
1356,7070001039545,新規,0,2022-08-22,2022-08-22,株式会社ナミキホーム,,株式会社,群馬県,高崎市,日高町４２７番地１ミヤビビル１０３号,,10,202,3700002,,,,,,,2022-08-22,1,,,,,ナミキホーム,0
1366,7100005012908,新規,0,2022-08-22,2022-08-22,特定非営利活動法人くわの実,,その他の設立登記法人,長野県,上田市,生田３４１２番地３,,20,203,3860411,,,,,,,2022-08-22,1,,,,,クワノミ,0
1375,7120001248207,新規,0,2022-08-22,2022-08-22,ＳＡＥＮＣＯ株式会社,,株式会社,大阪府,大阪市東成区,深江北３丁目４番２１号エクラ深江橋５１１Ａ,,27,115,5370001,,,,,,,2022-08-22,1,,,,,サエンコ,0
1376,7120001248347,新規,0,2022-08-22,2022-08-22,株式会社Ｏｓａｋａ　Ｄｉｎｉｎｇ,,株式会社,大阪府,大阪市中央区,本町４丁目５番４号ＧＴＣビル１Ｆ,,27,128,5410053,,,,,,,2022-08-22,1,,,,,オーサカダイニング,0
1378,7120003022320,新規,0,2022-08-22,2022-08-22,合同会社ＳＢＨＮＹ,,合同会社,大阪府,大阪市大正区,三軒家東５丁目４－１エクシア大正３０３,,27,108,5510002,,,,,,,2022-08-22,1,,,,,エスビーエイチエヌワイ,0
1397,7160005011103,新規,0,2022-08-22,2022-08-22,農事組合法人アグリ躰光寺,,その他の設立登記法人,滋賀県,東近江市,躰光寺町７６７番地,,25,213,5211205,,,,,,,2022-08-22,1,,,,,アグリタイコウジ,0
1398,7170001017243,新規,0,2022-08-22,2022-08-22,如意ＪＲＧ株式会社,,株式会社,和歌山県,海南市,日方１２７３－４４－１Ｆ－２,,30,202,6420002,,,,,,,2022-08-22,1,,,,,ニョイヂェイアールジー,0
1403,7180001152642,新規,0,2022-08-22,2022-08-22,株式会社Ｗｏｎｄｅｒ　ｗｉｎｄ,,株式会社,愛知県,名古屋市中区,錦３丁目１４番４号シャインアルファ７階,,23,106,4600003,,,,,,,2022-08-22,1,,,,,ワンダーウィンド,0
1404,7180003024179,新規,0,2022-08-22,2022-08-22,合同会社ｕｇａｊｉｎ,,合同会社,愛知県,名古屋市中区,栄３丁目１５番３３号栄ガスビル１３階,,23,106,4600008,,,,,,,2022-08-22,1,,,,,ウガジン,0
1407,7180305009381,新規,0,2022-08-22,2022-08-22,一般社団法人移住者人材バンク,,その他の設立登記法人,愛知県,豊橋市,柱七番町８１番地,,23,201,4418057,,,,,,,2022-08-22,1,,,,,イジュウシャジンザイバンク,0
1428,7290003012866,新規,0,2022-08-22,2022-08-22,合同会社コネクション,,合同会社,福岡県,福岡市中央区,今泉２丁目４番６５－７０４号天神ロイヤルガーデン,,40,133,8100021,,,,,,,2022-08-22,1,,,,,コネクション,0
1429,7290005018787,新規,0,2022-08-22,2022-08-22,一般社団法人八幡流香道会,,その他の設立登記法人,福岡県,福岡市早良区,百道２丁目７番２６－４０２号,,40,137,8140006,,,,,,,2022-08-22,1,,,,,ハチマンリュウコウドウカイ,0
1437,7320001019281,新規,0,2022-08-22,2022-08-22,株式会社Ｎ・Ｓ・Ｓ,,株式会社,大分県,大分市,政所１丁目２番３４号,,44,201,8700268,,,,,,,2022-08-22,1,,,,,エヌエスエス,0
1440,7340001024981,新規,0,2022-08-22,2022-08-22,株式会社Ｏｉｄｏｎ‐Ｊａｐａｎ,,株式会社,鹿児島県,姶良市,加治木町反土１６０７番地,,46,225,8995231,,,,,,,2022-08-22,1,,,,,オイドンジャパン,0
1449,7420001017977,新規,0,2022-08-22,2022-08-22,株式会社Ｇ・フューチャー,,株式会社,青森県,八戸市,湊高台３丁目５番３号,,02,203,0310823,,,,,,,2022-08-22,1,,,,,ジーフューチャー,0
1453,7430001087326,新規,0,2022-08-22,2022-08-22,株式会社岡山エンジン,,株式会社,北海道,札幌市中央区,大通東１０丁目１５番地Ｅ－１ビル大通東１階,,01,101,0600041,,,,,,,2022-08-22,1,,,,,オカヤマエンジン,0
1458,7490001010257,新規,0,2022-08-22,2022-08-22,株式会社篠原レジデンス,,株式会社,高知県,南国市,小籠９４１番地の１１５,,39,204,7830022,,,,,,,2022-08-22,1,,,,,シノハラレジデンス,0
1459,7500001024412,新規,0,2022-08-22,2022-08-22,株式会社Ｇｒａｃｅ,,株式会社,愛媛県,松山市,二番町２丁目９番地１,,38,201,7900002,,,,,,,2022-08-22,1,,,,,グレース,0
1460,7700150111049,新規,0,2022-08-22,2022-08-05,高知県立中村特別支援学校ＰＴＡ,,その他,高知県,四万十市,古津賀３０９１,,39,210,7870010,,,,,,,2022-08-05,1,,,,,コウチケンリツナカムラトクベツシエンガツコウピーテイーエー,0
1461,7700150111429,新規,0,2022-08-22,2022-08-22,迪易云（上海）科技有限公司　駐在事務所,,外国会社等,東京都,千代田区,神田紺屋町４３紺屋町共同ビル３０３号室,,13,101,1010035,上海市普陀区交通路４７１１号３０１室,,,,,,2022-08-22,1,,,,,テイイウンシヤンハイカギユウゲンコウシチユウザイジムシヨ,0
1468,8010003038442,新規,0,2022-08-22,2022-08-22,ＰＯＬＵ合同会社,,合同会社,東京都,文京区,向丘２丁目３４番５－６０３号,,13,105,1130023,,,,,,,2022-08-22,1,,,,,ポル,0
1470,8010005035438,新規,0,2022-08-22,2022-08-22,一般社団法人東京都人と動物のきずな福祉協会,,その他の設立登記法人,東京都,千代田区,三番町９番地１麹町三番町マンション３１２号,00127587,13,101,1020075,,,,,,,2022-08-22,1,,,,,トウキョウトヒトトドウブツノキズナフクシキョウカイ,0
1482,8010401169228,新規,0,2022-08-22,2022-08-22,株式会社ＮＥＶＥＲＯＮＦＩＤＥ,,株式会社,東京都,港区,麻布台２丁目３番１２－２０２号,,13,103,1060041,,,,,,,2022-08-22,1,,,,,ネバーオンフィデ,0
1483,8010401169236,新規,0,2022-08-22,2022-08-22,ｆｕｔｕｒｅＳＨＩＦＴ株式会社,,株式会社,東京都,港区,赤坂７丁目６番４１－４１１号赤坂七番館,,13,103,1070052,,,,,,,2022-08-22,1,,,,,フューチャーシフト,0
1484,8010401169244,新規,0,2022-08-22,2022-08-22,ＲＳアセットアドバイザーズ株式会社,,株式会社,東京都,港区,六本木６丁目３番１号六本木ヒルズクロスポイント６階,,13,103,1060032,,,,,,,2022-08-22,1,,,,,アールエスアセットアドバイザーズ,0
1485,8010401169260,新規,0,2022-08-22,2022-08-22,株式会社ＦＯＲ　ｃｏｍｐａｎｙ,,株式会社,東京都,港区,麻布十番４丁目４番１－２０９５号,,13,103,1060045,,,,,,,2022-08-22,1,,,,,フォーカンパニー,0
1488,8010403028282,新規,0,2022-08-22,2022-08-22,Ｐｒｏｇｒｅｄｉ合同会社,,合同会社,東京都,港区,南青山２丁目２番１５号,,13,103,1070062,,,,,,,2022-08-22,1,,,,,プログレディ,0
1491,8010601061705,新規,0,2022-08-22,2022-08-22,株式会社ＹＭＺ,,株式会社,東京都,墨田区,向島４丁目３番８号グレイス向島２０１Ｆ号室,,13,107,1310033,,,,,,,2022-08-22,1,,,,,ワイエムゼット,0
1492,8010601061713,新規,0,2022-08-22,2022-08-22,株式会社ママシェリー,,株式会社,東京都,江東区,東雲２丁目１番２１号ＩＨパークビル１階,,13,108,1350062,,,,,,,2022-08-22,1,,,,,ママシェリー,0
1493,8010601061721,新規,0,2022-08-22,2022-08-22,ＭＡＵＬＵ株式会社,,株式会社,東京都,江東区,亀戸７丁目３９番１１号,,13,108,1360071,,,,,,,2022-08-22,1,,,,,マウル,0
1496,8010701043099,新規,0,2022-08-22,2022-08-22,株式会社カラーオブライフ,,株式会社,東京都,品川区,西五反田３丁目８番３号,,13,109,1410031,,,,,,,2022-08-22,1,,,,,カラーオブライフ,0
1498,8010903007587,新規,0,2022-08-22,2022-08-22,合同会社藏,,合同会社,東京都,世田谷区,北沢３丁目２４番１７号,,13,112,1550031,,,,,,,2022-08-22,1,,,,,クラ,0
1504,8011003015233,新規,0,2022-08-22,2022-08-22,合同会社Ｅｍｅｒａｌｄ　Ｃｉｔｙ,,合同会社,東京都,渋谷区,神宮前４丁目２６－２８原宿Ｖ２ビル２Ｆ,,13,113,1500001,,,,,,,2022-08-22,1,,,,,エメラルドシティー,0
1520,8011803005227,新規,0,2022-08-22,2022-08-22,合同会社Ｐ＆Ｄ,,合同会社,東京都,葛飾区,堀切１丁目３１番１６－１０１号ライオンズマンション堀切菖蒲園第２,,13,122,1240006,,,,,,,2022-08-22,1,,,,,ピーアンドディー,0
1525,8012401039559,新規,0,2022-08-22,2022-08-22,株式会社遠藤,,株式会社,東京都,調布市,富士見町１丁目６番地２,,13,208,1820033,,,,,,,2022-08-22,1,,,,,エンドウ,0
1526,8012801021793,新規,0,2022-08-22,2022-08-22,株式会社Ａ＆Ｅ,,株式会社,東京都,立川市,栄町６丁目２２番地の１７,,13,202,1900003,,,,,,,2022-08-22,1,,,,,エーアンドイー,0
1527,8013301049490,新規,0,2022-08-22,2022-08-22,Ｊ　Ｂａｄａｓｓ株式会社,,株式会社,東京都,豊島区,長崎５丁目７番５号ハイムコスモス１０２号,,13,116,1710051,,,,,,,2022-08-22,1,,,,,ジェイバウス,0
1528,8013301049549,新規,0,2022-08-22,2022-08-22,株式会社ＬＩＦＥ　ＲＩＳＥ　ｐａｒｔｎｅｒ,,株式会社,東京都,豊島区,要町３丁目１３－３－１０１,,13,116,1710043,,,,,,,2022-08-22,1,,,,,ライフライズパートナー,0
1529,8013303006267,新規,0,2022-08-22,2022-08-22,合同会社アドベンチャー,,合同会社,東京都,豊島区,東池袋１丁目３４番５号いちご東池袋ビル６階,,13,116,1700013,,,,,,,2022-08-22,1,,,,,アドベンチャー,0
1535,8020001147764,新規,0,2022-08-22,2022-08-22,若澤株式会社,,株式会社,神奈川県,川崎市高津区,新作５丁目１１番１－３２４号,,14,134,2130014,,,,,,,2022-08-22,1,,,,,ワカザワ,0
1536,8020001147855,新規,0,2022-08-22,2022-08-22,金伯金株式会社,,株式会社,神奈川県,川崎市宮前区,宮崎６６７－５,,14,136,2160033,,,,,,,2022-08-22,1,,,,,キンハクキン,0
1537,8020001147871,新規,0,2022-08-22,2022-08-22,株式会社和なごみ,,株式会社,神奈川県,川崎市川崎区,塩浜４丁目１２番１号,,14,131,2100826,,,,,,,2022-08-22,1,,,,,ワナゴミ,0
1540,8020003022263,新規,0,2022-08-22,2022-08-22,ＹＵＢＩ　ＣＯＲＰＯＲＡＴＩＯＮ合同会社,,合同会社,神奈川県,横浜市南区,共進町１丁目８番地４日清ハイツ２０２,,14,105,2320015,,,,,,,2022-08-22,1,,,,,ユビコーポレーション,0
1545,8021003012056,新規,0,2022-08-22,2022-08-22,ＫＡＮＯＡ合同会社,,合同会社,神奈川県,平塚市,菫平１９－１,,14,203,2540822,,,,,,,2022-08-22,1,,,,,カノア,0
1557,8030003020043,新規,0,2022-08-22,2022-08-22,合同会社Ｄ・Ａ・Ｓ,,合同会社,埼玉県,志木市,本町４丁目１５番５号,,11,228,3530004,,,,,,,2022-08-22,1,,,,,ディーエーエス,0
1558,8030003020051,新規,0,2022-08-22,2022-08-22,合同会社Ｗｏｒｋｗｒｉｔｅ,,合同会社,埼玉県,さいたま市大宮区,北袋町１丁目６０１－１シントシティＢ３２２号室,,11,103,3300835,,,,,,,2022-08-22,1,,,,,ワークライト,0
1577,8070003004595,新規,0,2022-08-22,2022-08-22,合同会社フューチャー,,合同会社,群馬県,前橋市,南町３丁目５０‐２プラザアン２階Ｄ‐１５,,10,201,3710805,,,,,,,2022-08-22,1,,,,,フューチャー,0
1592,8120001248222,新規,0,2022-08-22,2022-08-22,雨晨株式会社,,株式会社,大阪府,大阪市淀川区,田川北２丁目５－３４・Ｅ棟３０２号室,,27,123,5320021,,,,,,,2022-08-22,1,,,,,ウシン,0
1593,8120001248346,新規,0,2022-08-22,2022-08-22,株式会社ＧＵパートナーズ,,株式会社,大阪府,大阪市北区,万歳町３番１２号萬栄ビル４０２,,27,127,5300028,,,,,,,2022-08-22,1,,,,,ジーユーパートナーズ,0
1595,8120003022294,新規,0,2022-08-22,2022-08-22,合同会社くじら,,合同会社,大阪府,大阪市生野区,勝山北２丁目１６番１９号,,27,116,5440033,,,,,,,2022-08-22,1,,,,,クジラ,0
1599,8120903004276,新規,0,2022-08-22,2022-08-22,ｃａｌｍ合同会社,,合同会社,大阪府,高槻市,藤の里町２８番２号,,27,207,5690025,,,,,,,2022-08-22,1,,,,,カーム,0
1604,8130001072423,新規,0,2022-08-22,2022-08-22,Ｊｂｃ　ｎｅｔｗｏｒｋ株式会社,,株式会社,京都府,京都市伏見区,深草下川原町５２番地５,,26,109,6128401,,,,,,,2022-08-22,1,,,,,ジェイビーシーネットワーク,0
1612,8140001127077,新規,0,2022-08-22,2022-08-22,株式会社ＫＮＩＣＫ,,株式会社,兵庫県,姫路市,香寺町溝口４８９番地５－２階,,28,201,6792161,,,,,,,2022-08-22,1,,,,,コニック,0
1619,8180001152641,新規,0,2022-08-22,2022-08-22,株式会社Ｎｅｘｔ　ｉｎｎｏｖａｔｉｏｎ,,株式会社,愛知県,名古屋市中区,錦３丁目４番２５号マリオットノース４階,,23,106,4600003,,,,,,,2022-08-22,1,,,,,ネクストイノベーション,0
1620,8180001152699,新規,0,2022-08-22,2022-08-22,株式会社ＳＥＧＬＯ,,株式会社,愛知県,名古屋市千種区,徳川山町３丁目４番１４号,,23,101,4640031,,,,,,,2022-08-22,1,,,,,セグロ,0
1632,8260001037157,新規,0,2022-08-22,2022-08-22,ＳＴサービス株式会社,,株式会社,岡山県,浅口郡里庄町,大字里見３１２１番地の１,,33,445,7190301,,,,,,,2022-08-22,1,,,,,エスティサービス,0
1636,8290001098650,新規,0,2022-08-22,2022-08-22,株式会社九州酒販,,株式会社,福岡県,福岡市南区,三宅２丁目１５番２１号,,40,134,8111344,,,,,,,2022-08-22,1,,,,,キュウシュウシュハン,0
1637,8290001098659,新規,0,2022-08-22,2022-08-22,株式会社ＰＲＵＤＥＮＴ,,株式会社,福岡県,大野城市,御笠川１丁目４番３－３０１号,,40,219,8160912,,,,,,,2022-08-22,1,,,,,プルデント,0
1643,8300003001874,新規,0,2022-08-22,2022-08-22,合同会社エコスマ,,合同会社,佐賀県,佐賀市,大和町大字尼寺３７５３番地２,,41,201,8400201,,,,,,,2022-08-22,1,,,,,エコスマ,0
1644,8310001017995,新規,0,2022-08-22,2022-08-22,株式会社昇,,株式会社,長崎県,佐世保市,御船町４番１２号,,42,202,8570068,,,,,,,2022-08-22,1,,,,,ノボリ,0
1648,8320005010013,新規,0,2022-08-22,2022-08-22,一般社団法人ゆのひら温泉観光協会,,その他の設立登記法人,大分県,由布市,湯布院町湯平３５６番地１,,44,213,8795112,,,,,,,2022-08-22,1,,,,,ユノヒラオンセンカンコウキョウカイ,0
1649,8330001029980,新規,0,2022-08-22,2022-08-22,ＳＨＯケン株式会社,,株式会社,熊本県,上益城郡益城町,大字宮園８６７番地５,,43,443,8612241,,,,,,,2022-08-22,1,,,,,ショーケン,0
1654,8360001030845,新規,0,2022-08-22,2022-08-22,株式会社ウェルビーイングケア沖縄,,株式会社,沖縄県,那覇市,首里石嶺町３丁目２３０番地１１,,47,201,9030804,,,,,,,2022-08-22,1,,,,,ウェルビーイングケアオキナワ,0
1655,8360003012247,新規,0,2022-08-22,2022-08-22,合同会社タイヤランド丸友,,合同会社,沖縄県,宮古島市,平良字西里９７３番地２,,47,214,9060012,,,,,,,2022-08-22,1,,,,,タイヤランドマルトモ,0
1656,8360005006701,新規,0,2022-08-22,2022-08-22,一般社団法人アラカタ文化企画,,その他の設立登記法人,沖縄県,宜野湾市,我如古１丁目４７番１６号,,47,205,9012214,,,,,,,2022-08-22,1,,,,,アラカタブンカキカク,0
1671,8430001087341,新規,0,2022-08-22,2022-08-22,株式会社Ｅ‐Ｌｉｆｅ,,株式会社,北海道,札幌市東区,北九条東２丁目２番３号ＪＰＴ北９条ビル１０２,,01,103,0600909,,,,,,,2022-08-22,1,,,,,イーライフ,0
1680,8470001019217,新規,0,2022-08-22,2022-08-22,フーズ・ラボ株式会社,,株式会社,香川県,丸亀市,土器町東９丁目１２４番地１６,,37,202,7630082,,,,,,,2022-08-22,1,,,,,フーズラボ,0
1682,8700150111428,新規,0,2022-08-22,2022-08-22,Ｔｅｃｔｏ　Ｌｉｍｉｔｅｄ,,外国会社等,,,,,,,,６／Ｆ　ＭＡＮＵＬＩＦＥ　ＰＬＡＣＥ　３４８　ＫＷＵＮ　ＴＯＮＧ　ＲＯＲＤ　ＫＬ,,,,,,2022-08-22,1,,,,,テクトリミテツド,0
1698,9010005035437,新規,0,2022-08-22,2022-08-22,弁護士法人ＡＺ　ＭＯＲＥ国際法律事務所,,その他の設立登記法人,東京都,千代田区,永田町２丁目１７番１７号永田町ほっかいどうスクエア５階,,13,101,1000014,,,,,,,2022-08-22,1,,,,,アズモアコクサイホウリツジムショ,0
1699,9010005035445,新規,0,2022-08-22,2022-08-22,那覇西デベロップメント一般社団法人,,その他の設立登記法人,東京都,中央区,日本橋１丁目４番１号日本橋一丁目ビルディング,,13,102,1030027,,,,,,,2022-08-22,1,,,,,ナハニシデベロップメント,0
1700,9010103001976,新規,0,2022-08-22,2022-08-22,合同会社エンジェルズ,,合同会社,東京都,八王子市,大楽寺町３８４番地１３コーポフルヤ１０２号,,13,201,1930816,,,,,,,2022-08-22,1,,,,,エンジェルズ,0
1705,9010401169136,新規,0,2022-08-22,2022-08-22,株式会社グレートデーン,,株式会社,東京都,港区,芝浦４丁目２１番１号,,13,103,1080023,,,,,,,2022-08-22,1,,,,,グレートデーン,0
1711,9010403028315,新規,0,2022-08-22,2022-08-22,合同会社ホープ,,合同会社,東京都,港区,六本木３丁目１４番１３号ＵＦビル１階,,13,103,1060032,,,,,,,2022-08-22,1,,,,,ホープ,0
1712,9010403028331,新規,0,2022-08-22,2022-08-22,Ｆｉｒｓｔ　ＲＥＩＴ　Ｊａｐａｎ２合同会社,,合同会社,東京都,港区,赤坂２丁目１０番５号税理士法人赤坂国際会計事務所内,,13,103,1070052,,,,,,,2022-08-22,1,,,,,ファーストリートジャパンツー,0
1715,9010501049270,新規,0,2022-08-22,2022-08-22,株式会社茉莉,,株式会社,東京都,台東区,上野１丁目１１番９号イマスサニービル７階ＪＴＡ内,,13,106,1100005,,,,,,,2022-08-22,1,,,,,マツリカ,0
1716,9010601061712,新規,0,2022-08-22,2022-08-22,株式会社ＯＺ,,株式会社,東京都,江東区,豊洲３丁目６番８－３９１６号,,13,108,1350061,,,,,,,2022-08-22,1,,,,,オズ,0
1723,9010803004262,新規,0,2022-08-22,2022-08-22,マインドフル・コンサルティング合同会社,,合同会社,東京都,大田区,中馬込１丁目１１番１６号,,13,111,1430027,,,,,,,2022-08-22,1,,,,,マインドフルコンサルティング,0
1731,9011101099929,新規,0,2022-08-22,2022-08-22,株式会社ｈｅａｌ　ｂｅａｕｔｙ　ｇｌｏｂａｌ,,株式会社,東京都,新宿区,高田馬場４丁目９番１８号畔上セブンビル２０１,,13,104,1690075,,,,,,,2022-08-22,1,,,,,ヒールビューティグローバル,0
1735,9011301028051,新規,0,2022-08-22,2022-08-22,日本喜得株式会社,,株式会社,東京都,杉並区,天沼２丁目７番７号マンション大竹３０１,,13,115,1670032,,,,,,,2022-08-22,1,,,,,ニホンキトク,0
1737,9011403003753,新規,0,2022-08-22,2022-08-22,サークル合同会社,,合同会社,東京都,板橋区,加賀２丁目１６番１－１００４号,,13,119,1730003,,,,,,,2022-08-22,1,,,,,サークル,0
1745,9011801041165,新規,0,2022-08-22,2022-08-22,株式会社サイホク,,株式会社,東京都,足立区,青井６丁目２４番７号,,13,121,1210012,,,,,,,2022-08-22,1,,,,,サイホク,0
1748,9012801021792,新規,0,2022-08-22,2022-08-22,株式会社かごや,,株式会社,東京都,国立市,青柳２丁目１０番地の８９,,13,215,1860013,,,,,,,2022-08-22,1,,,,,カゴヤ,0
1751,9013301049548,新規,0,2022-08-22,2022-08-22,東進株式会社,,株式会社,東京都,豊島区,西池袋２丁目３０－２０音羽ビル３０１,,13,116,1710021,,,,,,,2022-08-22,1,,,,,トウシン,0
1756,9020001147788,新規,0,2022-08-22,2022-08-22,株式会社ＡｔｔａＢｏｙ　ＢＡＳＥＢＡＬＬ,,株式会社,神奈川県,横浜市都筑区,川和町２１９５番地３７,,14,118,2240057,,,,,,,2022-08-22,1,,,,,アラボーイベースボール,0
1757,9020003022246,新規,0,2022-08-22,2022-08-22,Ｓｐｌａｓｈ　Ｐａｒｔｎｅｒｓ合同会社,,合同会社,神奈川県,横浜市青葉区,もえぎ野２０－１６,,14,117,2270044,,,,,,,2022-08-22,1,,,,,スプラッシュパートナーズ,0
1776,9040003020611,新規,0,2022-08-22,2022-08-22,合同会社プライズレス,,合同会社,千葉県,千葉市若葉区,貝塚町５５１番地１車坂事務所Ｃ棟２Ｆ,,12,104,2640023,,,,,,,2022-08-22,1,,,,,プライズレス,0
1777,9040003020669,新規,0,2022-08-22,2022-08-22,合同会社ローミングワールド,,合同会社,千葉県,四街道市,大日１８０６番地,,12,228,2840001,,,,,,,2022-08-22,1,,,,,ローミングワールド,0
1798,9120001248329,新規,0,2022-08-22,2022-08-22,株式会社ＮＡＴＡＫＵ,,株式会社,大阪府,大阪市中央区,道頓堀１丁目東５－１９花招ビル１階,,27,128,5420071,,,,,,,2022-08-22,1,,,,,ナタク,0
1802,9120003022319,新規,0,2022-08-22,2022-08-22,予感合同会社,,合同会社,大阪府,大阪市中央区,瓦屋町１丁目１４番１５号,,27,128,5420066,,,,,,,2022-08-22,1,,,,,ヨカン,0
1814,9150003002763,新規,0,2022-08-22,2022-08-22,合同会社結福,,合同会社,奈良県,奈良市,南京終町１丁目９０番地の１エスペランス奈良アルティス５０４号,,29,201,6308141,,,,,,,2022-08-22,1,,,,,ユウフク,0
1823,9180001152673,新規,0,2022-08-22,2022-08-22,株式会社Ｇｏｏｄ　Ｗｏｒｋｓ,,株式会社,愛知県,名古屋市中区,栄２丁目２－１広小路伏見中駒ビル５Ｆ－７２,,23,106,4600008,,,,,,,2022-08-22,1,,,,,グッドワークス,0
1832,9180005019893,新規,0,2022-08-22,2022-08-22,一般社団法人ＳＬＬＳ,,その他の設立登記法人,愛知県,稲沢市,祖父江町野田山中６５番地,,23,220,4950024,,,,,,,2022-08-22,1,,,,,エスエルエルエス,0
1842,9240001060250,新規,0,2022-08-22,2022-08-22,ＦＯＸＣＲＥＡＴＥ株式会社,,株式会社,広島県,広島市中区,銀山町３番１号ひろしまハイビル２１－１６Ｆ,,34,101,7300022,,,,,,,2022-08-22,1,,,,,フォックスクリエイト,0
1845,9280005007500,新規,0,2022-08-22,2022-08-22,学校法人マヤ学園,,その他の設立登記法人,島根県,仁多郡奥出雲町,横田１３７７－５番地,,32,343,6991832,,,,,,,2022-08-22,1,,,,,マヤガクエン,0
1849,9290001098666,新規,0,2022-08-22,2022-08-22,株式会社アケホシ,,株式会社,福岡県,福岡市中央区,大名１丁目１４－２３大名入江ビル３Ｆ,,40,133,8100041,,,,,,,2022-08-22,1,,,,,アケホシ,0
1859,9330001030038,新規,0,2022-08-22,2022-08-22,株式会社ｈｅａｒｔｆｕｌ・Ｇ,,株式会社,熊本県,熊本市中央区,花畑町１番１４号Ａ＆Ｍ、ＨＡＮＡＢＡＴＡ３０１号,,43,101,8600806,,,,,,,2022-08-22,1,,,,,ハートフルジー,0
1876,9400001015980,新規,0,2022-08-22,2022-08-22,株式会社シールズ,,株式会社,岩手県,盛岡市,住吉町３－１サリーレ２０３号,,03,201,0200882,,,,,,,2022-08-22,1,,,,,シールズ,0
1879,9430001087340,新規,0,2022-08-22,2022-08-22,株式会社Ｓ‐Ｌｉｆｅ,,株式会社,北海道,札幌市東区,北九条東２丁目２番３号ＪＰＴ北９条ビル１０２,,01,103,0600909,,,,,,,2022-08-22,1,,,,,エスライフ,0
1883,9430003014193,新規,0,2022-08-22,2022-08-22,合同会社千未来,,合同会社,北海道,札幌市手稲区,富丘二条４丁目３番２２号,,01,109,0060012,,,,,,,2022-08-22,1,,,,,チサキ,0
1884,9430003014219,新規,0,2022-08-22,2022-08-22,リシェ合同会社,,合同会社,北海道,北広島市,希望ヶ丘２丁目３番６４,,01,234,0611261,,,,,,,2022-08-22,1,,,,,リシェ,0
1889,9480001011832,新規,0,2022-08-22,2022-08-22,株式会社ＣＯＲＡｉｅ,,株式会社,徳島県,吉野川市,鴨島町鴨島２８０番地昌栄ビル２階,,36,205,7760010,,,,,,,2022-08-22,1,,,,,コライエ,0
1890,9490001010255,新規,0,2022-08-22,2022-08-22,イワシンリテック株式会社,,株式会社,高知県,南国市,大＿甲８９６番地８,00127582,39,204,7830004,,,,,,,2022-08-22,1,,,,,イワシンリテック,0
1891,9700150111427,新規,0,2022-08-22,2022-08-22,深＿前海嘉盈智能科技有限公司,00127579,外国会社等,,,,,,,,深＿市前海深港合作区前湾一路１号Ａ棟２０１室,00127580,,,,,2022-08-22,1,,,,,,0
