sequenceNumber,corporateNumber,process,correct,updateDate,changeDate,name,nameImageId,kind,prefectureName,cityName,streetNumber,addressImageId,prefectureCode,cityCode,postCode,addressOutside,addressOutsideImageId,closeDate,closeCause,successorCorporateNumber,changeCause,assignmentDate,latest,enName,enPrefectureName,enCityName,enAddressOutside,furigana,hihyoji
26,1010401162271,新規,0,2021-08-30,2021-08-30,Ｃｉ　ＦＬＡＶＯＲＳ株式会社,,株式会社,東京都,港区,北青山３丁目５番１７号,,13,103,1070061,,,,,,,2021-08-30,1,,,,,シーフレーバーズ,0
27,1010401162313,新規,0,2021-08-30,2021-08-30,アドビオン・インターチム・サイエンティフィック株式会社,,株式会社,東京都,港区,南麻布３丁目１９番２３号オーク南麻布ビル２階,,13,103,1060047,,,,,,,2021-08-30,1,,,,,アドビオンインターチムサイエンティフィック,0
28,1010401162370,新規,0,2021-08-30,2021-08-30,株式会社ティアラ,,株式会社,東京都,港区,西麻布３丁目１３番３号－９０２号,,13,103,1060031,,,,,,,2021-08-30,1,,,,,ティアラ,0
29,1010401162387,新規,0,2021-08-30,2021-08-30,Ｂｏｔｉｆｙ　Ｊａｐａｎ株式会社,,株式会社,東京都,港区,赤坂２丁目２３－１アークヒルズフロントタワーＲｏＰ７０１ＳＵパートナーズ合同会社内,,13,103,1070052,,,,,,,2021-08-30,1,,,,,ボティファイジャパン,0
32,1010501047752,新規,0,2021-08-30,2021-08-30,株式会社サンシン,,株式会社,東京都,台東区,千束３丁目２０番１号,,13,106,1110031,,,,,,,2021-08-30,1,,,,,サンシン,0
34,1010601059862,新規,0,2021-08-30,2021-08-30,ライフサポート株式会社,,株式会社,東京都,江東区,有明３丁目７番２６号有明フロンティアビルＢ棟９階,,13,108,1350063,,,,,,,2021-08-30,1,,,,,ライフサポート,0
40,1010903006760,新規,0,2021-08-30,2021-08-30,富力合同会社,,合同会社,東京都,世田谷区,上北沢４丁目３４番１５－８０４号,,13,112,1560057,,,,,,,2021-08-30,1,,,,,フリキ,0
52,1011101096108,新規,0,2021-08-30,2021-08-30,株式会社縁多,,株式会社,東京都,新宿区,新宿１丁目３６－２新宿第七葉山ビル３階,,13,104,1600022,,,,,,,2021-08-30,1,,,,,エンタ,0
53,1011101096132,新規,0,2021-08-30,2021-08-30,株式会社ＢＲＩＤＧＥＢＯＯＫＳ,,株式会社,東京都,新宿区,高田馬場４丁目９番１８号畔上セブンビル４階,,13,104,1690075,,,,,,,2021-08-30,1,,,,,ブリッジブックス,0
56,1011103010958,新規,0,2021-08-30,2021-08-30,ＭＩＲ合同会社,,合同会社,東京都,新宿区,西新宿４丁目１２－７ガラステージ１０４,,13,104,1600023,,,,,,,2021-08-30,1,,,,,ミア,0
57,1011103010966,新規,0,2021-08-30,2021-08-30,ＰＰｃｏｎｎｅｃｔ合同会社,,合同会社,東京都,新宿区,新宿６丁目３番８号ＰＡＳＥＯ新宿三丁目Ⅱ－３０１,00124055,13,104,1600022,,,,,,,2021-08-30,1,,,,,ピーピーコネクト,0
60,1011401023629,新規,0,2021-08-30,2021-08-30,株式会社ヤマノフモト,,株式会社,東京都,板橋区,大山金井町１６番５号,,13,119,1730024,,,,,,,2021-08-30,1,,,,,ヤマノフモト,0
63,1011803004755,新規,0,2021-08-30,2021-08-30,ＫＯＪＩＭＡ　ＷＯＲＫＳＨＯＰ合同会社,,合同会社,東京都,葛飾区,堀切８丁目４番８号ＧＰ南綾瀬ビ・アンリュ４０５号室,,13,122,1240006,,,,,,,2021-08-30,1,,,,,コジマワークショップ,0
64,1012401038245,新規,0,2021-08-30,2021-08-30,株式会社ＳＳ　ｓｔｕｄｉｏ,,株式会社,東京都,三鷹市,井の頭２丁目２番２号,,13,204,1810001,,,,,,,2021-08-30,1,,,,,エスエススタジオ,0
65,1012403004996,新規,0,2021-08-30,2021-08-30,合同会社ＹＪＳ,,合同会社,東京都,調布市,多摩川５丁目２７番９号,,13,208,1820025,,,,,,,2021-08-30,1,,,,,ワイジェイエス,0
76,1020003020389,新規,0,2021-08-30,2021-08-30,ペンタマスターオートメーションジャパン合同会社,,合同会社,神奈川県,横浜市中区,山下町２番地産業貿易センタービル２階,,14,104,2310023,,,,,,,2021-08-30,1,,,,,ペンタマスターオートメーションジャパン,0
80,1021001073800,新規,0,2021-08-30,2021-08-30,株式会社ルーキードライバーサポート,,株式会社,神奈川県,相模原市緑区,大山町１番３１－２３０９号,,14,151,2520146,,,,,,,2021-08-30,1,,,,,ルーキードライバーサポート,0
95,1030001144016,新規,0,2021-08-30,2021-08-30,株式会社アスリィ,,株式会社,埼玉県,熊谷市,末広２丁目１２４番地・杉浦ビル１階,,11,202,3600031,,,,,,,2021-08-30,1,,,,,アスリィ,0
96,1030001144049,新規,0,2021-08-30,2021-08-30,株式会社Ｋ’ｓハウス,,株式会社,埼玉県,草加市,青柳６丁目６番１－３０５号,,11,221,3400002,,,,,,,2021-08-30,1,,,,,ケーズハウス,0
103,1030003017855,新規,0,2021-08-30,2021-08-30,合同会社コエスキ,,合同会社,埼玉県,さいたま市南区,大谷場１丁目２番１３号,,11,108,3360016,,,,,,,2021-08-30,1,,,,,コエスキ,0
106,1030005020493,新規,0,2021-08-30,2021-08-30,ＮＰＯ法人ＴＯＳＳ祭りばやし,,その他の設立登記法人,埼玉県,秩父市,野坂町１丁目１５番１１号メゾン野坂Ｂ－１０３,,11,207,3680033,,,,,,,2021-08-30,1,,,,,トスマツリバヤシ,0
107,1030005020502,新規,0,2021-08-30,2021-08-30,一般財団法人あかつき会,,その他の設立登記法人,埼玉県,さいたま市浦和区,神明２丁目１４番６号プランドール神明１０１,,11,107,3300065,,,,,,,2021-08-30,1,,,,,アカツキカイ,0
110,1040001119925,新規,0,2021-08-30,2021-08-30,株式会社ＫＤ　ＣＲＡＦＴ,,株式会社,千葉県,習志野市,本大久保１丁目７番２－１号,,12,216,2750012,,,,,,,2021-08-30,1,,,,,ケーディークラフト,0
111,1040001119933,新規,0,2021-08-30,2021-08-30,株式会社希プランニング,,株式会社,千葉県,香取市,北２丁目３番地４,,12,236,2870002,,,,,,,2021-08-30,1,,,,,ノゾミプランニング,0
113,1040003018398,新規,0,2021-08-30,2021-08-30,合同会社Ｈｉｄａｍａｒｉ,,合同会社,千葉県,鎌ケ谷市,東初富６丁目９番１８号ジアス鎌ケ谷１階店舗,,12,224,2730122,,,,,,,2021-08-30,1,,,,,ヒダマリ,0
120,1060003003761,新規,0,2021-08-30,2021-08-30,Ｌｉｉｉｌｙ　Ｊａｐａｎ合同会社,,合同会社,栃木県,那須郡那須町,大字寺子丙一,,09,407,3293222,,,,,,,2021-08-30,1,,,,,リリージャパン,0
121,1070001038379,新規,0,2021-08-30,2021-08-30,株式会社家づくり相談所,,株式会社,群馬県,みどり市,大間々町大間々４６６番地１２Ａ－３,,10,212,3760101,,,,,,,2021-08-30,1,,,,,イエヅクリソウダンショ,0
123,1080101022728,新規,0,2021-08-30,2021-08-30,ＭＡＭプロパティ株式会社,,株式会社,静岡県,富士市,岩本５３７番地の５３,,22,210,4160901,,,,,,,2021-08-30,1,,,,,マムプロパティ,0
125,1080405007383,新規,0,2021-08-30,2021-08-30,村松＆鈴木パートナーズ税理士法人,,その他の設立登記法人,静岡県,浜松市中区,西伊場町７３番２３号,,22,131,4328038,,,,,,,2021-08-30,1,,,,,ムラマツアンドスズキパートナーズ,0
139,1120001239970,新規,0,2021-08-30,2021-08-30,ステップ株式会社,,株式会社,大阪府,大阪市西区,靱本町１丁目１９番２３－１２０４号,,27,106,5500004,,,,,,,2021-08-30,1,,,,,ステップ,0
140,1120001239979,新規,0,2021-08-30,2021-08-30,株式会社ＬＡＮＤ－ＳＯＡ,,株式会社,大阪府,大阪市鶴見区,鶴見４丁目２番１２号,,27,124,5380053,,,,,,,2021-08-30,1,,,,,ランドソア,0
141,1120001240020,新規,0,2021-08-30,2021-08-30,株式会社フジシールビジネスアソシエ,,株式会社,大阪府,大阪市淀川区,宮原４丁目１番９号,,27,123,5320003,,,,,,,2021-08-30,1,,,,,フジシールビジネスアソシエ,0
143,1122001035111,新規,0,2021-08-30,2021-08-30,株式会社ＰＬＡＮ　ＭＥ,,株式会社,大阪府,東大阪市,御厨中１丁目４番２３－１１０１号,,27,227,5770035,,,,,,,2021-08-30,1,,,,,プランミー,0
149,1130003007441,新規,0,2021-08-30,2021-08-30,京きくらげ合同会社,,合同会社,京都府,京丹後市,峰山町内記２９８番地,,26,212,6270003,,,,,,,2021-08-30,1,,,,,キョウキクラゲ,0
156,1140001122828,新規,0,2021-08-30,2021-08-30,株式会社ＬｅＧａｃｙ,,株式会社,兵庫県,西宮市,上甲子園５丁目９番３号,,28,204,6638114,,,,,,,2021-08-30,1,,,,,レガシー,0
163,1170001016738,新規,0,2021-08-30,2021-08-30,株式会社ＣＬ,,株式会社,和歌山県,田辺市,高雄３丁目７番１９号,,30,206,6460028,,,,,,,2021-08-30,1,,,,,シエル,0
171,1180001147565,新規,0,2021-08-30,2021-08-30,株式会社ＬｅＬｉｏｎ,,株式会社,愛知県,名古屋市千種区,星ケ丘２丁目２番地１,,23,101,4640801,,,,,,,2021-08-30,1,,,,,レリオン,0
172,1180001147607,新規,0,2021-08-30,2021-08-30,株式会社どうどう,,株式会社,愛知県,名古屋市天白区,植田本町１丁目１１０５番地,,23,116,4680007,,,,,,,2021-08-30,1,,,,,ドウドウ,0
174,1180005019406,新規,0,2021-08-30,2021-08-30,名古屋市立大学教職員組合,,その他の設立登記法人,愛知県,名古屋市瑞穂区,瑞穂町字川澄１,,23,108,4670001,,,,,,,2021-08-30,1,,,,,ナゴヤシリツダイガクキョウショクインクミアイ,0
176,1190001028640,新規,0,2021-08-30,2021-08-30,株式会社ＲｅＢｏｒｎ,,株式会社,三重県,鈴鹿市,竹野１丁目５番１５号,,24,207,5130025,,,,,,,2021-08-30,1,,,,,リボーン,0
180,1200003005289,新規,0,2021-08-30,2021-08-30,合同会社ノリッジ,,合同会社,岐阜県,土岐市,鶴里町細野９５５番地の９,,21,212,5095311,,,,,,,2021-08-30,1,,,,,ノリッジ,0
192,1240001058500,新規,0,2021-08-30,2021-08-30,株式会社ＨＫ－ＣＯＮＮＥＣＴ,,株式会社,広島県,安芸高田市,吉田町吉田１９１１番地４サンシャインＡＰ１０,,34,214,7310501,,,,,,,2021-08-30,1,,,,,エイチケイコネクト,0
201,1290001094400,新規,0,2021-08-30,2021-08-30,株式会社渡一アセット,,株式会社,福岡県,福岡市博多区,麦野５丁目８番３９号,,40,132,8120882,,,,,,,2021-08-30,1,,,,,ワタイチアセット,0
202,1290001094409,新規,0,2021-08-30,2021-08-30,株式会社クイックジョブ,,株式会社,福岡県,福岡市南区,皿山２丁目１番５１号,,40,134,8111365,,,,,,,2021-08-30,1,,,,,クイックジョブ,0
203,1290001094425,新規,0,2021-08-30,2021-08-30,株式会社心の字工房,,株式会社,福岡県,福岡市博多区,吉塚３丁目５番２６号,,40,132,8120041,,,,,,,2021-08-30,1,,,,,ココロノジコウボウ,0
209,1320001018561,新規,0,2021-08-30,2021-08-30,株式会社Ｚｅｎ,,株式会社,大分県,別府市,駅前本町１０番２９号スパブロンズＣ１０１号,,44,202,8740934,,,,,,,2021-08-30,1,,,,,ゼン,0
218,1340001024054,新規,0,2021-08-30,2021-08-30,内島不動産株式会社,,株式会社,鹿児島県,霧島市,隼人町真孝１６４番地３,,46,218,8995102,,,,,,,2021-08-30,1,,,,,ウチジマフドウサン,0
224,1350005006023,新規,0,2021-08-30,2021-08-30,特定非営利活動法人医療的ケア児者と家族を社会につなぐネットワーク,,その他の設立登記法人,宮崎県,都城市,年見町３０号１番地２,,45,202,8850017,,,,,,,2021-08-30,1,,,,,イリョウテキケアジシャトカゾクヲシャカイニツナグネットワーク,0
229,1360001029299,新規,0,2021-08-30,2021-08-30,株式会社ＳＫＹ,,株式会社,沖縄県,中頭郡北中城村,字ライカム４８０番地－１１０１,,47,327,9012306,,,,,,,2021-08-30,1,,,,,スカイ,0
234,1360003011395,新規,0,2021-08-30,2021-08-30,おきしん企画合同会社,,合同会社,沖縄県,那覇市,字国場７０７番地４,,47,201,9020075,,,,,,,2021-08-30,1,,,,,オキシンキカク,0
243,1400005008179,新規,0,2021-08-30,2021-08-30,行政書士法人ごんとう事務所,,その他の設立登記法人,岩手県,北上市,本通り３丁目２番１５号,,03,206,0240094,,,,,,,2021-08-30,1,,,,,ゴントウジムショ,0
252,1430003013095,新規,0,2021-08-30,2021-08-30,合同会社ケイズシステム,,合同会社,北海道,札幌市手稲区,曙八条１丁目６番５号,00124044,01,109,0060838,,,,,,,2021-08-30,1,,,,,ケイズシステム,0
273,2010001220668,新規,0,2021-08-30,2021-08-30,株式会社わたあめ,,株式会社,東京都,千代田区,九段南１丁目５番６号りそな九段ビル５ＦＫＳフロア,,13,101,1020074,,,,,,,2021-08-30,1,,,,,ワタアメ,0
286,2010401162386,新規,0,2021-08-30,2021-08-30,ＦＵＡ株式会社,,株式会社,東京都,港区,南青山５丁目１番１０－１２０１号,,13,103,1070062,,,,,,,2021-08-30,1,,,,,フア,0
289,2010403026003,新規,0,2021-08-30,2021-08-30,合同会社コルシア,,合同会社,東京都,港区,新橋２丁目２０番１５号新橋駅前ビル１号館４階,,13,103,1050004,,,,,,,2021-08-30,1,,,,,コルシア,0
290,2010403026011,新規,0,2021-08-30,2021-08-30,Ｊａｐａｎ　ＤＨ４合同会社,,合同会社,東京都,港区,東新橋１丁目５番２号汐留シティセンター,,13,103,1050021,,,,,,,2021-08-30,1,,,,,ジャパンディーエイチフォー,0
293,2010501047751,新規,0,2021-08-30,2021-08-30,宗達アートクラフト株式会社,,株式会社,東京都,台東区,寿１丁目６番６号山岸ビル１階,,13,106,1110042,,,,,,,2021-08-30,1,,,,,ソウタツアートクラフト,0
295,2010601059861,新規,0,2021-08-30,2021-08-30,株式会社ｍｕｓｕｈｉ,,株式会社,東京都,江東区,冬木２１－２３門前仲町ファミリーハイツ２０２号,,13,108,1350041,,,,,,,2021-08-30,1,,,,,ムスヒ,0
296,2010603009121,新規,0,2021-08-30,2021-08-30,ＡｓｔｒａＳｔｕｄｙ合同会社,,合同会社,東京都,江東区,東陽１丁目１０－９,,13,108,1350016,,,,,,,2021-08-30,1,,,,,アストラスタディ,0
306,2011001142514,新規,0,2021-08-30,2021-08-30,株式会社Ｄｄｄ,,株式会社,東京都,渋谷区,神宮前１丁目４－２０,,13,113,1500001,,,,,,,2021-08-30,1,,,,,ディディディ,0
308,2011003013267,新規,0,2021-08-30,2021-08-30,Ｓ＆Ｉ　ＲＥＣｏｎｓｕｌｔｉｎｇ合同会社,,合同会社,東京都,渋谷区,神宮前６丁目２３番４号桑野ビル２階,,13,113,1500001,,,,,,,2021-08-30,1,,,,,エスアンドアイアールイーコンサルティング,0
317,2011101096098,新規,0,2021-08-30,2021-08-30,株式会社ＳＨＡＤＯ,,株式会社,東京都,新宿区,新宿３丁目１７番地１号ＦＰＧｌｉｎｋｓＳＨＩＮＪＵＫＵ５Ｆ,,13,104,1600022,,,,,,,2021-08-30,1,,,,,シャドウ,0
318,2011101096107,新規,0,2021-08-30,2021-08-30,大納言株式会社,,株式会社,東京都,新宿区,新宿２丁目１２－１３新宿アントレサロンビル２Ｆ,,13,104,1600022,,,,,,,2021-08-30,1,,,,,ダイナゴン,0
319,2011103010957,新規,0,2021-08-30,2021-08-30,ＦＲＥＫ合同会社,,合同会社,東京都,新宿区,若松町９番１２号ＫＳビル３０２,,13,104,1620056,,,,,,,2021-08-30,1,,,,,フレック,0
320,2011103010965,新規,0,2021-08-30,2021-08-30,ＡＢＣマーケティング合同会社,,合同会社,東京都,新宿区,新宿２丁目１２番１３号新宿アントレサロンビル２階,,13,104,1600022,,,,,,,2021-08-30,1,,,,,エービーシーマーケティング,0
327,2011401023628,新規,0,2021-08-30,2021-08-30,株式会社ニューワールド,,株式会社,東京都,板橋区,高島平２丁目２６番１－５１３号,,13,119,1750082,,,,,,,2021-08-30,1,,,,,ニューワールド,0
331,2011803004754,新規,0,2021-08-30,2021-08-30,ＡＬＩＢＡＢＡＪＡＰＡＮ合同会社,,合同会社,東京都,葛飾区,奥戸８丁目１６番１４号,,13,122,1240022,,,,,,,2021-08-30,1,,,,,アリババジャパン,0
334,2012703002294,新規,0,2021-08-30,2021-08-30,ＴｅＰＰＥＮプロダクション合同会社,,合同会社,東京都,東久留米市,前沢４丁目３２番７号ガーデンハイツ滝山Ａ４０５,,13,222,2030032,,,,,,,2021-08-30,1,,,,,テッペンプロダクションゴウドウガイシャ,0
337,2020001142754,新規,0,2021-08-30,2021-08-30,グリーンベル株式会社,,株式会社,神奈川県,横浜市磯子区,洋光台３丁目１３番３－４０６,,14,107,2350045,,,,,,,2021-08-30,1,,,,,グリーンベル,0
338,2020001142787,新規,0,2021-08-30,2021-08-30,ＳＵＭＡＴＯＲＡ株式会社,,株式会社,神奈川県,川崎市宮前区,東有馬３丁目５番２９号三和ビル３Ｆ,,14,136,2160002,,,,,,,2021-08-30,1,,,,,スマトラ,0
344,2021001073790,新規,0,2021-08-30,2021-08-30,株式会社ｆｅｅｌ,,株式会社,神奈川県,平塚市,老松町１８－２５－２０１,,14,203,2540033,,,,,,,2021-08-30,1,,,,,フィール,0
345,2021003010841,新規,0,2021-08-30,2021-08-30,サスティナブル・プロジェクト２合同会社,,合同会社,神奈川県,藤沢市,亀井野１５２４番地の１－１０５,,14,205,2520813,,,,,,,2021-08-30,1,,,,,サスティナブルプロジェクトツー,0
352,2030001144007,新規,0,2021-08-30,2021-08-30,株式会社ＵＮＩＴＥ,,株式会社,埼玉県,朝霞市,北原１丁目４番１７号パークプレジール４０３,,11,227,3510036,,,,,,,2021-08-30,1,,,,,ユナイト,0
353,2030001144048,新規,0,2021-08-30,2021-08-30,真商事株式会社,,株式会社,埼玉県,春日部市,大畑３４番１号,,11,214,3440022,,,,,,,2021-08-30,1,,,,,マコトショウジ,0
354,2030001144064,新規,0,2021-08-30,2021-08-30,株式会社ＭＩＳＨＡＮ,,株式会社,埼玉県,朝霞市,仲町２丁目３番３０号１Ｆ,,11,227,3510006,,,,,,,2021-08-30,1,,,,,,0
363,2040001119924,新規,0,2021-08-30,2021-08-30,Ｂｒａｉｎｓ　Ｍｅｄｉｃｏ株式会社,,株式会社,千葉県,船橋市,みやぎ台１丁目４番２９号,,12,204,2740804,,,,,,,2021-08-30,1,,,,,ブレインズメディコ,0
364,2040001119932,新規,0,2021-08-30,2021-08-30,株式会社ライフツリー,,株式会社,千葉県,白井市,根１０７１番地の１,,12,232,2701431,,,,,,,2021-08-30,1,,,,,ライフツリー,0
365,2040001119940,新規,0,2021-08-30,2021-08-30,宏縁株式会社,,株式会社,千葉県,千葉市中央区,宮崎町４６番地７,,12,101,2600805,,,,,,,2021-08-30,1,,,,,コウエン,0
366,2040003018397,新規,0,2021-08-30,2021-08-30,合同会社響の轍,,合同会社,千葉県,香取市,小見川２２４９番地１,,12,236,2890313,,,,,,,2021-08-30,1,,,,,オトノワダチ,0
367,2040005021333,新規,0,2021-08-30,2021-08-30,一般社団法人ＧＣＯＤＥ,,その他の設立登記法人,千葉県,習志野市,大久保３丁目１３番１－８１４号,,12,216,2750011,,,,,,,2021-08-30,1,,,,,ジーコード,0
371,2050001049757,新規,0,2021-08-30,2021-08-30,令和デザインワークス株式会社,,株式会社,茨城県,ひたちなか市,大字中根３６００番１３６,,08,221,3120011,,,,,,,2021-08-30,1,,,,,レイワデザインワークス,0
376,2060003003793,新規,0,2021-08-30,2021-08-30,合同会社みずほの,,合同会社,栃木県,宇都宮市,下栗町２９１８番地１２,,09,201,3210923,,,,,,,2021-08-30,1,,,,,ミズホノ,0
401,2120001239986,新規,0,2021-08-30,2021-08-30,株式会社こあラボ,,株式会社,大阪府,大阪市淀川区,宮原４丁目４番６４号新大阪千代田ビル８階,,27,123,5320003,,,,,,,2021-08-30,1,,,,,コアラボ,0
402,2120001240003,新規,0,2021-08-30,2021-08-30,株式会社ＬＩＢＥＲ,,株式会社,大阪府,大阪市西区,江戸堀２丁目１番１号江戸堀センタービルＢ１Ｆ,,27,106,5500002,,,,,,,2021-08-30,1,,,,,リベル,0
411,2130001070003,新規,0,2021-08-30,2021-08-30,ＡｏｉＨａｎｅ株式会社,,株式会社,京都府,舞鶴市,字浜７３７番地１,,26,202,6250036,,,,,,,2021-08-30,1,,,,,アオイハネ,0
423,2140001122835,新規,0,2021-08-30,2021-08-30,シグラベース株式会社,,株式会社,兵庫県,朝来市,山東町矢名瀬町７９５番地１,,28,225,6695103,,,,,,,2021-08-30,1,,,,,シグラベース,0
426,2140003016671,新規,0,2021-08-30,2021-08-30,合同会社Ｓ＆Ｍ　Ｈｅａｌｔｈ　ｃｒｅａｔｉｏｎ,,合同会社,兵庫県,神戸市垂水区,舞多聞西３丁目５番２号,,28,108,6550051,,,,,,,2021-08-30,1,,,,,エスアンドエムヘルスクリエーション,0
447,2180001147597,新規,0,2021-08-30,2021-08-30,株式会社ＣＨＡＮＮＥＬ,,株式会社,愛知県,一宮市,三ツ井５丁目１０－２９,,23,203,4910827,,,,,,,2021-08-30,1,,,,,チャンネル,0
450,2180005019413,新規,0,2021-08-30,2021-08-30,一般社団法人ＭＫ財産管理,,その他の設立登記法人,愛知県,名古屋市中区,錦１丁目１３番２６号,,23,106,4600003,,,,,,,2021-08-30,1,,,,,エムケイザイサンカンリ,0
469,2290001094226,新規,0,2021-08-30,2021-08-30,株式会社ネクシィーズ九州沖縄,,株式会社,福岡県,福岡市博多区,博多駅前１丁目４番１号,,40,132,8120011,,,,,,,2021-08-30,1,,,,,ネクシィーズキュウシュウオキナワ,0
470,2290001094399,新規,0,2021-08-30,2021-08-30,株式会社ポラリス,,株式会社,福岡県,飯塚市,柏の森９２番地２１８,,40,205,8200011,,,,,,,2021-08-30,1,,,,,ポラリス,0
471,2290001094416,新規,0,2021-08-30,2021-08-30,株式会社カセキ,,株式会社,福岡県,飯塚市,立岩１４１７番地１クリスタルハイツ２０５号,,40,205,8200003,,,,,,,2021-08-30,1,,,,,カセキ,0
481,2340001024053,新規,0,2021-08-30,2021-08-30,霧島発電株式会社,,株式会社,鹿児島県,姶良市,加治木町反土１５１６番地１,,46,225,8995231,,,,,,,2021-08-30,1,,,,,キリシマハツデン,0
485,2360001029273,新規,0,2021-08-30,2021-08-30,株式会社Ｌｉｇｈｔ　Ｗｏｒｋｅｒ,,株式会社,沖縄県,糸満市,西崎町２丁目５９０番地上原ビル１０１号室,,47,210,9010306,,,,,,,2021-08-30,1,,,,,ライトワーカー,0
488,2360003011386,新規,0,2021-08-30,2021-08-30,合同会社ＦＥＥＶＩＬ沖縄,,合同会社,沖縄県,沖縄市,泡瀬５丁目３３番１９号,,47,211,9042172,,,,,,,2021-08-30,1,,,,,フィービルオキナワ,0
504,2420001017569,新規,0,2021-08-30,2021-08-30,株式会社カネキク,,株式会社,青森県,三戸郡五戸町,字古舘脇３番地１２,,02,442,0391513,,,,,,,2021-08-30,1,,,,,カネキク,0
512,2430001084823,新規,0,2021-08-30,2021-08-30,株式会社北海藤フーズ,,株式会社,北海道,小樽市,東雲町１番６０６号ＡＭＳ東雲,,01,203,0470026,,,,,,,2021-08-30,1,,,,,ホッカイフジフーズ,0
513,2430001084831,新規,0,2021-08-30,2021-08-30,フジコー不動産販売株式会社,,株式会社,北海道,札幌市中央区,大通東３丁目１番２７,,01,101,0600041,,,,,,,2021-08-30,1,,,,,フジコーフドウサンハンバイ,0
515,2430003013094,新規,0,2021-08-30,2021-08-30,合同会社Ｒｅｖｅ,,合同会社,北海道,札幌市中央区,南七条西４丁目２番地５ＬＣ七番館４階,,01,101,0640807,,,,,,,2021-08-30,1,,,,,レイヴ,0
516,2430005014256,新規,0,2021-08-30,2021-08-30,特定非営利活動法人あかつき,,その他の設立登記法人,北海道,札幌市北区,北十六条西４丁目２－１Ｌｅｅ北１６条ビル２階株式会社アジアプロ内,,01,102,0010016,,,,,,,2021-08-30,1,,,,,アカツキ,0
530,3010001220741,新規,0,2021-08-30,2021-08-30,環境インフォテック株式会社,,株式会社,東京都,千代田区,麹町２丁目１０番３号,,13,101,1020083,,,,,,,2021-08-30,1,,,,,カンキョウインフォテック,0
531,3010001220766,新規,0,2021-08-30,2021-08-30,イノセンチュア株式会社,,株式会社,東京都,中央区,銀座１丁目２２番１１号,,13,102,1040061,,,,,,,2021-08-30,1,,,,,イノセンチュア,0
532,3010001220782,新規,0,2021-08-30,2021-08-30,株式会社ＢＣＪ－５３,,株式会社,東京都,千代田区,丸の内１丁目１番１号パレスビル５階,,13,101,1000005,,,,,,,2021-08-30,1,,,,,ビーシージェイフィフティスリー,0
534,3010003035642,新規,0,2021-08-30,2021-08-30,アースサステナブル合同会社,,合同会社,東京都,千代田区,外神田２丁目１７－６－１２０６,,13,101,1010021,,,,,,,2021-08-30,1,,,,,アースサステナブルゴウドウカイシャ,0
535,3010003035709,新規,0,2021-08-30,2021-08-30,合同会社ＹＳＫ事業承継未来２０２１－０１,,合同会社,東京都,千代田区,麹町１丁目６番地９,,13,101,1020083,,,,,,,2021-08-30,1,,,,,ワイエスケージギョウショウケイミライニーゼロニーイチゼロイチ,0
536,3010003035717,新規,0,2021-08-30,2021-08-30,合同会社ＺＭ１,,合同会社,東京都,千代田区,丸の内３丁目１番１号東京共同会計事務所内,,13,101,1000005,,,,,,,2021-08-30,1,,,,,ゼットエムワン,0
545,3010401162385,新規,0,2021-08-30,2021-08-30,ＫｘＳｈａｒｅ株式会社,,株式会社,東京都,港区,芝４丁目９番９－３０４号,,13,103,1080014,,,,,,,2021-08-30,1,,,,,ケーシェア,0
548,3010405020127,新規,0,2021-08-30,2021-08-30,ＨＡＲＥ協同組合,,その他の設立登記法人,東京都,港区,六本木２丁目２番２号イトーピア六本木８０１,,13,103,1060032,,,,,,,2021-08-30,1,,,,,ハレ,0
564,3011003013258,新規,0,2021-08-30,2021-08-30,エーエヌディ合同会社,,合同会社,東京都,渋谷区,松濤２丁目１４－１－４０２,,13,113,1500046,,,,,,,2021-08-30,1,,,,,エーエヌディ,0
570,3011101096114,新規,0,2021-08-30,2021-08-30,Ｔａｇ　Ｍａｔｃｈ株式会社,,株式会社,東京都,新宿区,西新宿７丁目１８番１２号プリネッツ新宿ビル２Ｆ,,13,104,1600023,,,,,,,2021-08-30,1,,,,,タッグマッチ,0
578,3011803004753,新規,0,2021-08-30,2021-08-30,合同会社データ分析基礎研究所,,合同会社,東京都,葛飾区,高砂３丁目２８番５号,,13,122,1250054,,,,,,,2021-08-30,1,,,,,データブンセキキソケンキュウジョ,0
581,3012401038251,新規,0,2021-08-30,2021-08-30,株式会社ＴＯＦＵエンタテインメント,,株式会社,東京都,狛江市,西野川４丁目２１番９号,,13,219,2010001,,,,,,,2021-08-30,1,,,,,トウフエンタテインメント,0
582,3013301047920,新規,0,2021-08-30,2021-08-30,Ｙ’Ｓ株式会社,,株式会社,東京都,豊島区,東池袋２丁目４８番３号セント・マディソン２０２号,,13,116,1700013,,,,,,,2021-08-30,1,,,,,ワイズ,0
587,3020001142596,新規,0,2021-08-30,2021-08-30,株式会社横濱寛商店,,株式会社,神奈川県,横浜市中区,南仲通１丁目１４番地,,14,104,2310006,,,,,,,2021-08-30,1,,,,,ヨコハマカンショウテン,0
588,3020001142794,新規,0,2021-08-30,2021-08-30,株式会社ＳｕｒＥｄｇｅ,,株式会社,神奈川県,横浜市泉区,緑園４丁目３番地１サンステージ東の街６番館１４０５,,14,116,2450002,,,,,,,2021-08-30,1,,,,,サレッジ,0
589,3020001142803,新規,0,2021-08-30,2021-08-30,株式会社ＮＮＤ,,株式会社,神奈川県,横浜市中区,野毛町２丁目７５番地第三野毛産業ビル２階,,14,104,2310064,,,,,,,2021-08-30,1,,,,,エヌエヌディ,0
593,3020003020395,新規,0,2021-08-30,2021-08-30,合同会社ＳＥＴＯＮＡ,,合同会社,神奈川県,横浜市神奈川区,三ツ沢上町２８番９号コートヴィレッジ三ツ沢Ａ棟１０５号,,14,102,2210856,,,,,,,2021-08-30,1,,,,,セトナ,0
610,3030001144047,新規,0,2021-08-30,2021-08-30,株式会社ＭＩＬＫ,,株式会社,埼玉県,春日部市,東中野１４１８番地１２３,,11,214,3440114,,,,,,,2021-08-30,1,,,,,ミルク,0
614,3030002073311,新規,0,2021-08-30,2021-08-30,有限会社小林建築工業,,有限会社,埼玉県,川越市,川鶴１丁目２２番地６,,11,201,3501176,,,,,,,2021-08-30,1,,,,,コバヤシケンチクコウギョウ,0
624,3040003018396,新規,0,2021-08-30,2021-08-30,ＢＩＲＤＲＥＡＭ合同会社,,合同会社,千葉県,船橋市,本郷町５０７－１ルネ西船橋２棟６１３,,12,204,2730033,,,,,,,2021-08-30,1,,,,,バードリーム,0
632,3050001049756,新規,0,2021-08-30,2021-08-30,瀧灸株式会社,,株式会社,茨城県,水戸市,本町３丁目３－１１フレグランス東邦Ⅲ３０５号,00124043,08,201,3100815,,,,,,,2021-08-30,1,,,,,ロウキュウ,0
640,3060003003792,新規,0,2021-08-30,2021-08-30,Ｈｉｒｏｓｅ合同会社,,合同会社,栃木県,日光市,木和田島３０６２番地９,,09,206,3212345,,,,,,,2021-08-30,1,,,,,ヒロセ,0
668,3120001239985,新規,0,2021-08-30,2021-08-30,株式会社サクラモント,,株式会社,大阪府,大阪市中央区,内久宝寺町４丁目４番３号日宝パールビル２Ｆ,,27,128,5400013,,,,,,,2021-08-30,1,,,,,サクラモント,0
669,3120001240002,新規,0,2021-08-30,2021-08-30,株式会社グローバル,,株式会社,大阪府,大阪市北区,大淀南１丁目９番１６号山彦ビル５０１,,27,127,5310075,,,,,,,2021-08-30,1,,,,,グローバル,0
675,3120101064210,新規,0,2021-08-30,2021-08-30,株式会社青空,,株式会社,大阪府,堺市中区,土師町３丁１６番１－４号,,27,142,5998238,,,,,,,2021-08-30,1,,,,,アオゾラ,0
676,3120103004313,新規,0,2021-08-30,2021-08-30,合同会社ｅｗａｌｕ　ｘ　ｅｗａｌｕ,,合同会社,大阪府,大阪狭山市,半田２丁目３２９番地の１（６０３号）,,27,231,5890011,,,,,,,2021-08-30,1,,,,,エワルバイエワル,0
683,3130001070002,新規,0,2021-08-30,2021-08-30,株式会社Ｙ２,,株式会社,京都府,久世郡久御山町,森中内２番地,,26,322,6130024,,,,,,,2021-08-30,1,,,,,ワイツー,0
685,3130003007448,新規,0,2021-08-30,2021-08-30,合同会社コネクトフリーランス,,合同会社,京都府,京都市伏見区,久我石原町６－７１,,26,109,6128491,,,,,,,2021-08-30,1,,,,,コネクトフリーランス,0
692,3140001122826,新規,0,2021-08-30,2021-08-30,ｓａｉｔａｋｕ１００株式会社,,株式会社,兵庫県,神戸市東灘区,御影中町４丁目３－１－３０８,,28,101,6580054,,,,,,,2021-08-30,1,,,,,サイタクヒャク,0
695,3160005010975,新規,0,2021-08-30,2021-08-30,一般社団法人コミュニケーション改善事業協会ＳｍｉｌｅＲｏｏｍ,,その他の設立登記法人,滋賀県,東近江市,春日町２番１３号,,25,213,5270032,,,,,,,2021-08-30,1,,,,,コミュニケーションカイゼンジギョウキョウカイスマイルルーム,0
702,3180001147605,新規,0,2021-08-30,2021-08-30,株式会社グランツコンサルティング,,株式会社,愛知県,名古屋市中村区,菊水町１丁目３番７号,,23,105,4530068,,,,,,,2021-08-30,1,,,,,グランツコンサルティング,0
708,3180301035294,新規,0,2021-08-30,2021-08-30,Ｃｏａｔ‐Ｘ　Ｊａｐａｎ株式会社,,株式会社,愛知県,新城市,有海字丸山１番地の２,,23,221,4411317,,,,,,,2021-08-30,1,,,,,コートエックスジャパン,0
713,3190001028639,新規,0,2021-08-30,2021-08-30,株式会社インテリアキタバ,,株式会社,三重県,津市,安濃町田端上野７３７番地５,,24,201,5142325,,,,,,,2021-08-30,1,,,,,インテリアキタバ,0
722,3220001024386,新規,0,2021-08-30,2021-08-30,株式会社Ｅ・Ｔフューチャーデザイン,,株式会社,石川県,金沢市,間明町２丁目９４番地１,,17,201,9218005,,,,,,,2021-08-30,1,,,,,イーティーフューチャーデザイン,0
738,3290005018337,新規,0,2021-08-30,2021-08-30,一般社団法人青い空,,その他の設立登記法人,福岡県,福岡市博多区,西月隈５丁目４番４６号,,40,132,8120857,,,,,,,2021-08-30,1,,,,,アオイソラ,0
752,3360003011402,新規,0,2021-08-30,2021-08-30,合同会社テルヤ飲料,,合同会社,沖縄県,名護市,字我部祖河９８番地１,,47,209,9051155,,,,,,,2021-08-30,1,,,,,テルヤインリョウ,0
765,3380001032150,新規,0,2021-08-30,2021-08-30,株式会社フォレストフーズ,,株式会社,福島県,南相馬市,原町区栄町２丁目３４番地,,07,212,9750003,,,,,,,2021-08-30,1,,,,,フォレストフーズ,0
769,3380003005006,新規,0,2021-08-30,2021-08-30,合同会社みどりの里,,合同会社,福島県,福島市,大森字本町２番地の１,,07,201,9601101,,,,,,,2021-08-30,1,,,,,ミドリノサト,0
774,3390001016573,新規,0,2021-08-30,2021-08-30,ＥＥＬ株式会社,,株式会社,山形県,山形市,みはらしの丘１丁目３４番地１３,,06,201,9902317,,,,,,,2021-08-30,1,,,,,イール,0
776,3400001015581,新規,0,2021-08-30,2021-08-30,株式会社ユニツリー,,株式会社,岩手県,北上市,大通り１丁目１番２号,,03,206,0240061,,,,,,,2021-08-30,1,,,,,ユニツリー,0
780,3430001084830,新規,0,2021-08-30,2021-08-30,株式会社隼光塗装,,株式会社,北海道,札幌市北区,太平九条２丁目１番２１号,,01,102,0028009,,,,,,,2021-08-30,1,,,,,シュンコウトソウ,0
782,3430003013077,新規,0,2021-08-30,2021-08-30,合同会社ＤＣ,,合同会社,北海道,札幌市手稲区,手稲前田５４３－９,,01,109,0060829,,,,,,,2021-08-30,1,,,,,ディーシー,0
783,3430003013093,新規,0,2021-08-30,2021-08-30,合同会社Ａｃｅ,,合同会社,北海道,札幌市中央区,南六条西４丁目４番４号ライトビル５階,,01,101,0640806,,,,,,,2021-08-30,1,,,,,エース,0
788,3480002014328,新規,0,2021-08-30,2021-08-30,有限会社西川製作所,,有限会社,徳島県,那賀郡那賀町,延野字槇谷１１４番地,,36,368,7715406,,,,,,,2021-08-30,1,,,,,ニシカワセイサクショ,0
801,4010001220443,新規,0,2021-08-30,2021-08-30,慧日株式会社,,株式会社,東京都,中央区,日本橋茅場町２丁目１７－６－９０２,,13,102,1030025,,,,,,,2021-08-30,1,,,,,ケイニチ,0
802,4010001220559,新規,0,2021-08-30,2021-08-30,ＮＥＳＴＡ　ＷＣＧ株式会社,,株式会社,東京都,千代田区,岩本町２丁目１番１０号,,13,101,1010032,,,,,,,2021-08-30,1,,,,,ネスタウエルネスコンサルティンググループ,0
803,4010001220757,新規,0,2021-08-30,2021-08-30,株式会社Ｐｒｉｎｃｉｐａｌ＆Ｃｏ．,,株式会社,東京都,千代田区,神田小川町１丁目８番３号,,13,101,1010052,,,,,,,2021-08-30,1,,,,,プリンシパルアンドコー,0
804,4010001220781,新規,0,2021-08-30,2021-08-30,株式会社Ｚａｒｃ,,株式会社,東京都,中央区,日本橋箱崎町１－２,,13,102,1030015,,,,,,,2021-08-30,1,,,,,ザーク,0
807,4010003035716,新規,0,2021-08-30,2021-08-30,合同会社ｇａｉＹａＭａｒｅ,,合同会社,東京都,中央区,銀座１丁目１２－４Ｎ＆Ｅ．ＢＬＤ．７階,,13,102,1040061,,,,,,,2021-08-30,1,,,,,ガイヤマーレ,0
808,4010005033882,新規,0,2021-08-30,2021-08-30,一般社団法人ＳＡＭプロジェクト１号,,その他の設立登記法人,東京都,中央区,日本橋２丁目７番１号,,13,102,1030027,,,,,,,2021-08-30,1,,,,,エスエーエムプロジェクトイチゴウ,0
815,4010401162351,新規,0,2021-08-30,2021-08-30,株式会社ワールドふれんど,,株式会社,東京都,港区,新橋２丁目１６番１号,,13,103,1050004,,,,,,,2021-08-30,1,,,,,ワールドフレンド,0
816,4010403026001,新規,0,2021-08-30,2021-08-30,合同会社ＴＨＡ,,合同会社,東京都,港区,西新橋２丁目１２番７号西新橋立川ビル別館４Ｆ,,13,103,1050003,,,,,,,2021-08-30,1,,,,,ザ,0
817,4010405020167,新規,0,2021-08-30,2021-08-30,一般社団法人資源循環利用推進会,,その他の設立登記法人,東京都,港区,南青山６丁目２番９号ＫＳビル２Ｆ,,13,103,1070062,,,,,,,2021-08-30,1,,,,,シゲンジュンカンリヨウスイシンカイ,0
824,4010703005919,新規,0,2021-08-30,2021-08-30,合同会社多島電機,,合同会社,東京都,品川区,南大井５丁目１８番１０号エルファーロタジマ１１０１,,13,109,1400013,,,,,,,2021-08-30,1,,,,,タジマデンキ,0
829,4010903006758,新規,0,2021-08-30,2021-08-30,合同会社セレーノ,,合同会社,東京都,世田谷区,弦巻３丁目９番１８－４０１号,,13,112,1540016,,,,,,,2021-08-30,1,,,,,セレーノ,0
837,4011003013208,新規,0,2021-08-30,2021-08-30,福山合同会社,,合同会社,東京都,渋谷区,恵比寿３丁目４３番１号恵比寿ハイツ６０２,,13,113,1500013,,,,,,,2021-08-30,1,,,,,フクヤマ,0
843,4011101095775,新規,0,2021-08-30,2021-08-30,コンフィリンク株式会社,,株式会社,東京都,新宿区,大久保２丁目３３－１９ネクサス新宿戸山公園２０２,,13,104,1690072,,,,,,,2021-08-30,1,,,,,コンフィリンク,0
844,4011101096105,新規,0,2021-08-30,2021-08-30,株式会社大翔,,株式会社,東京都,新宿区,新宿６丁目７番２２号エルプリメント新宿４５１号,,13,104,1600022,,,,,,,2021-08-30,1,,,,,タイショウ,0
847,4011103010971,新規,0,2021-08-30,2021-08-30,合同会社ｎｅｘｔ,,合同会社,東京都,新宿区,大京町２４番地２－１００１,,13,104,1600015,,,,,,,2021-08-30,1,,,,,ネクスト,0
853,4011801039627,新規,0,2021-08-30,2021-08-30,株式会社ＬＯＴＴＯ,,株式会社,東京都,足立区,中央本町３丁目１７番１３号,,13,121,1210011,,,,,,,2021-08-30,1,,,,,ロット,0
854,4011803004752,新規,0,2021-08-30,2021-08-30,合同会社レコード,,合同会社,東京都,足立区,佐野１丁目１４番４号ルフォン３０１,,13,121,1210053,,,,,,,2021-08-30,1,,,,,レコード,0
857,4012801021046,新規,0,2021-08-30,2021-08-30,株式会社Ｔ－ＲＥＸ豊田,,株式会社,東京都,日野市,豊田３丁目４２番地の４ヴェールクレール１０１,,13,212,1910053,,,,,,,2021-08-30,1,,,,,ティーレックストヨダ,0
868,4020001142802,新規,0,2021-08-30,2021-08-30,株式会社ブルーチップ,,株式会社,神奈川県,川崎市宮前区,潮見台８番１０号,,14,136,2160013,,,,,,,2021-08-30,1,,,,,ブルーチップ,0
872,4020003020386,新規,0,2021-08-30,2021-08-30,合同会社エムケー,,合同会社,神奈川県,川崎市川崎区,大島１丁目１５－１,,14,131,2100834,,,,,,,2021-08-30,1,,,,,エムケー,0
873,4020003020394,新規,0,2021-08-30,2021-08-30,セブンリーフクローバー合同会社,,合同会社,神奈川県,横浜市青葉区,桜台３２番地６ウッズ桜台１０３,,14,117,2270061,,,,,,,2021-08-30,1,,,,,セブンリーフクローバー,0
876,4021001073789,新規,0,2021-08-30,2021-08-30,ｍａｃｕｌａ株式会社,,株式会社,神奈川県,厚木市,戸田２５２５番地２ＴＯＤＡＢＡＳＥＧ号,,14,212,2430023,,,,,,,2021-08-30,1,,,,,マキュラ,0
887,4030001144046,新規,0,2021-08-30,2021-08-30,株式会社ＩＴＭ,,株式会社,埼玉県,所沢市,大字山口１８４５－２０,,11,208,3591145,,,,,,,2021-08-30,1,,,,,アイティーエム,0
888,4030001144062,新規,0,2021-08-30,2021-08-30,株式会社南洲,,株式会社,埼玉県,入間郡毛呂山町,大字毛呂本郷１０４１鎌北パールビル１階,,11,326,3500451,,,,,,,2021-08-30,1,,,,,,0
894,4030003017836,新規,0,2021-08-30,2021-08-30,合同会社ウエストビレッジ,,合同会社,埼玉県,草加市,松原５丁目２番７‐２号,,11,221,3400041,,,,,,,2021-08-30,1,,,,,ウエストビレッジ,0
895,4030003017852,新規,0,2021-08-30,2021-08-30,合同会社ＨＴ,,合同会社,埼玉県,さいたま市桜区,西堀４丁目４番２号ベルオーブ３０４,,11,106,3380832,,,,,,,2021-08-30,1,,,,,エイチティー,0
898,4040001119930,新規,0,2021-08-30,2021-08-30,東日本ロハス株式会社,,株式会社,千葉県,浦安市,明海３丁目２番８－２０４号　海園の街,,12,227,2790014,,,,,,,2021-08-30,1,,,,,ヒガシニホンロハス,0
900,4040003018404,新規,0,2021-08-30,2021-08-30,合同会社ワラガユ,,合同会社,千葉県,習志野市,屋敷４丁目２番２９号Ⅱ１０２,00124045,12,216,2750004,,,,,,,2021-08-30,1,,,,,ワラガユ,0
901,4040003018412,新規,0,2021-08-30,2021-08-30,合同会社マルヤス酒場船橋,,合同会社,千葉県,船橋市,本町１丁目３２番１５号,,12,204,2730005,,,,,,,2021-08-30,1,,,,,マルヤスサカバフナバシ,0
905,4050005012924,新規,0,2021-08-30,2021-08-30,特定非営利活動法人ダイシン,,その他の設立登記法人,茨城県,日立市,千石町１丁目５番５号,,08,202,3160013,,,,,,,2021-08-30,1,,,,,ダイシン,0
907,4060005001496,新規,0,2021-08-30,2021-08-30,栃木県不動産協同組合,,その他の設立登記法人,栃木県,宇都宮市,西の宮町３２６８番地２２２,,09,201,3200064,,,,,,,2021-08-30,1,,,,,,0
913,4070001038384,新規,0,2021-08-30,2021-08-30,株式会社ｔａｓ,,株式会社,群馬県,利根郡みなかみ町,石倉１９８バイスバーデン月夜野ヴィラⅠ７１７,00124047,10,449,3791311,,,,,,,2021-08-30,1,,,,,タス,0
914,4070002018897,新規,0,2021-08-30,2021-08-30,有限会社コーシン,,有限会社,群馬県,伊勢崎市,八坂町５１６番地２,,10,204,3720044,,,,,,,2021-08-30,1,,,,,,0
919,4080101022733,新規,0,2021-08-30,2021-08-30,株式会社清建築,,株式会社,静岡県,御殿場市,川島田５５８番地の１,,22,215,4120045,,,,,,,2021-08-30,1,,,,,セイケンチク,0
934,4120001239976,新規,0,2021-08-30,2021-08-30,株式会社岡本図研,,株式会社,大阪府,交野市,私部南４丁目９番２６号,,27,230,5760035,,,,,,,2021-08-30,1,,,,,オカモトズケン,0
935,4120001240018,新規,0,2021-08-30,2021-08-30,ＩＫｉｎｇ株式会社,,株式会社,大阪府,門真市,千石東町１６番３０号,,27,223,5710013,,,,,,,2021-08-30,1,,,,,アイキング,0
947,4120901044815,新規,0,2021-08-30,2021-08-30,株式会社ＬＩＦＥＲＵ,,株式会社,大阪府,茨木市,別院町２番１３－１０３号,,27,211,5670817,,,,,,,2021-08-30,1,,,,,リフェル,0
948,4120901044823,新規,0,2021-08-30,2021-08-30,株式会社メディパーク,,株式会社,大阪府,茨木市,庄２丁目１９番２１号,,27,211,5670806,,,,,,,2021-08-30,1,,,,,メディパーク,0
956,4130003007447,新規,0,2021-08-30,2021-08-30,合同会社京運,,合同会社,京都府,長岡京市,神足１丁目１１番１１号ベルテ長岡京一階,,26,209,6170833,,,,,,,2021-08-30,1,,,,,キョウウン,0
967,4180001147587,新規,0,2021-08-30,2021-08-30,株式会社ＡＲＲＯＷＳ,,株式会社,愛知県,長久手市,根の神５０５アメニティながくて１０２,,23,238,4801141,,,,,,,2021-08-30,1,,,,,アロウズ,0
968,4180001147595,新規,0,2021-08-30,2021-08-30,株式会社かとう制御工学,,株式会社,愛知県,春日井市,坂下町２丁目１１３３番地１,,23,206,4800305,,,,,,,2021-08-30,1,,,,,カトウセイギョコウガク,0
969,4180001147604,新規,0,2021-08-30,2021-08-30,株式会社Ｆｕｌｌ　Ｆｌｏｗ,,株式会社,愛知県,名古屋市東区,葵３丁目７番１４号,,23,102,4610004,,,,,,,2021-08-30,1,,,,,フルフロー,0
981,4200001039047,新規,0,2021-08-30,2021-08-30,株式会社ＣＡＲＺ,,株式会社,岐阜県,高山市,漆垣内町１０３０番地,,21,203,5060812,,,,,,,2021-08-30,1,,,,,カーズ,0
988,4220001024393,新規,0,2021-08-30,2021-08-30,株式会社ＹＳコーポレーション,,株式会社,石川県,金沢市,長坂２丁目１１番５号,,17,201,9218112,,,,,,,2021-08-30,1,,,,,ワイエスコーポレーション,0
989,4220005008590,新規,0,2021-08-30,2021-08-30,司法書士法人岡崎パートナーズ,,その他の設立登記法人,石川県,金沢市,新神田２丁目１３番２１号,,17,201,9218013,,,,,,,2021-08-30,1,,,,,オカザキパートナーズ,0
990,4230001012372,新規,0,2021-08-30,2021-08-30,株式会社江守,,株式会社,富山県,射水市,二の丸町１６番３０号,,16,211,9340026,,,,,,,2021-08-30,1,,,,,エモリ,0
1010,4290001094397,新規,0,2021-08-30,2021-08-30,Ｊａｃｋ株式会社,,株式会社,福岡県,大牟田市,不知火町１丁目１番地１１,,40,202,8360843,,,,,,,2021-08-30,1,,,,,ジャック,0
1011,4290001094406,新規,0,2021-08-30,2021-08-30,株式会社ＯＮＥ,,株式会社,福岡県,大野城市,曙町３丁目２番１号１Ｆ,,40,219,8160934,,,,,,,2021-08-30,1,,,,,ワン,0
1012,4290001094422,新規,0,2021-08-30,2021-08-30,クリーンベース九州株式会社,,株式会社,福岡県,福岡市東区,三苫２丁目１２番８－１０１号,,40,131,8110201,,,,,,,2021-08-30,1,,,,,クリーンベースキュウシュウ,0
1014,4290005018336,新規,0,2021-08-30,2021-08-30,一般社団法人ウェルフェアＡＫＳ,,その他の設立登記法人,福岡県,久留米市,安武町安武本３２５７番地２,,40,203,8300072,,,,,,,2021-08-30,1,,,,,ウェルフェアエイケイエス,0
1018,4300001012605,新規,0,2021-08-30,2021-08-30,株式会社ＩＫホールディングス,,株式会社,佐賀県,佐賀市,天神１丁目２番地５５,,41,201,8400815,,,,,,,2021-08-30,1,,,,,アイケイホールディングス,0
1026,4340003003532,新規,0,2021-08-30,2021-08-30,合同会社ＤｒｅａｍＧａｒａｇｅ,,合同会社,鹿児島県,姶良市,西餅田６０－６－Ｂ１０１,,46,225,8995431,,,,,,,2021-08-30,1,,,,,ドリームガレージ,0
1032,4360003011401,新規,0,2021-08-30,2021-08-30,合同会社環境クリーン社,,合同会社,沖縄県,うるま市,字西原７６４番地１６,,47,213,9042204,,,,,,,2021-08-30,1,,,,,カンキョウクリーンシャ,0
1056,4430001084838,新規,0,2021-08-30,2021-08-30,株式会社悠将建設,,株式会社,北海道,札幌市東区,北四十一条東２丁目１番１５号,,01,103,0070841,,,,,,,2021-08-30,1,,,,,ユウショウケンセツ,0
1058,4430003013092,新規,0,2021-08-30,2021-08-30,合同会社Ｒｏｇｕｅ,,合同会社,北海道,札幌市中央区,南五条西２丁目９番地２ＬＣ拾七番館４階,,01,101,0640805,,,,,,,2021-08-30,1,,,,,ローグ,0
1069,5010001220442,新規,0,2021-08-30,2021-08-30,富比株式会社,,株式会社,東京都,中央区,日本橋茅場町２丁目１７－６－９０２,,13,102,1030025,,,,,,,2021-08-30,1,,,,,フビ,0
1070,5010001220756,新規,0,2021-08-30,2021-08-30,株式会社東京電力タイムレスキャピタルＳＰＣ１号,,株式会社,東京都,千代田区,内幸町１丁目２番２号,,13,101,1000011,,,,,,,2021-08-30,1,,,,,トウキョウデンリョクタイムレスキャピタルエスピーシーイチゴウ,0
1071,5010001220764,新規,0,2021-08-30,2021-08-30,日本帝鶴株式会社,,株式会社,東京都,千代田区,大手町１丁目６番１号ＳＰＡＣＥＳ２１７号,,13,101,1000004,,,,,,,2021-08-30,1,,,,,ニホンテイカク,0
1079,5010403026000,新規,0,2021-08-30,2021-08-30,Ｋｕｔｃｈａｎ　Ｉｎｖｅｓｔｍｅｎｔ合同会社,,合同会社,東京都,港区,六本木１丁目６番１号泉ガーデンタワーＫＰＭＧ税理士法人内,,13,103,1060032,,,,,,,2021-08-30,1,,,,,クッチャンインベストメント,0
1086,5010503006372,新規,0,2021-08-30,2021-08-30,合同会社Ｆｒｅｅ　Ｓｔｙｌｅ　Ｂａｓｅ,,合同会社,東京都,台東区,北上野１丁目７－７－３０２,,13,106,1100014,,,,,,,2021-08-30,1,,,,,フリースタイルベース,0
1087,5010601059867,新規,0,2021-08-30,2021-08-30,株式会社ちとせ,,株式会社,東京都,江東区,福住２丁目７番９－５０７号,,13,108,1350032,,,,,,,2021-08-30,1,,,,,チトセ,0
1101,5011001142461,新規,0,2021-08-30,2021-08-30,ドクジ株式会社,,株式会社,東京都,渋谷区,渋谷２丁目１９－１５宮益坂ビルディング６０９,,13,113,1500002,,,,,,,2021-08-30,1,,,,,ドクジ,0
1102,5011001142503,新規,0,2021-08-30,2021-08-30,ＳＮＩＰＳ株式会社,,株式会社,東京都,渋谷区,桜丘町２３番１７号シティコート桜丘４０８,,13,113,1500031,,,,,,,2021-08-30,1,,,,,スニップス,0
1103,5011001142511,新規,0,2021-08-30,2021-08-30,モーニング株式会社,,株式会社,東京都,渋谷区,神宮前５丁目２４－２ＣＡＴＳＴ５２４－２Ｆ,,13,113,1500001,,,,,,,2021-08-30,1,,,,,モーニング,0
1116,5011101096095,新規,0,2021-08-30,2021-08-30,Ｃｏｍｐａｓｓ禄株式会社,,株式会社,東京都,新宿区,新宿１丁目３－８ＩＭＢＯｆｆｉｃｅ新宿御苑４階４０５号室,,13,104,1600022,,,,,,,2021-08-30,1,,,,,コンパスロク,0
1117,5011101096120,新規,0,2021-08-30,2021-08-30,株式会社アルジャン・セゾン,,株式会社,東京都,新宿区,百人町２丁目２５－８大久保ハウス１０２,,13,104,1690073,,,,,,,2021-08-30,1,,,,,,0
1118,5011103010970,新規,0,2021-08-30,2021-08-30,合同会社きんざん,,合同会社,東京都,新宿区,中井１丁目３番６号,,13,104,1610035,,,,,,,2021-08-30,1,,,,,キンザン,0
1121,5011501027261,新規,0,2021-08-30,2021-08-30,株式会社ハビリ王子,,株式会社,東京都,北区,豊島４丁目８－４,,13,117,1140003,,,,,,,2021-08-30,1,,,,,ハビリオウジ,0
1122,5011601025347,新規,0,2021-08-30,2021-08-30,株式会社たつみ,,株式会社,東京都,練馬区,富士見台３丁目４３番１７号,,13,120,1770034,,,,,,,2021-08-30,1,,,,,タツミ,0
1129,5011801039634,新規,0,2021-08-30,2021-08-30,株式会社Ｅｌｅｃ－Ｔｒｉｃｋ,,株式会社,東京都,葛飾区,西水元２丁目１８番２２号セジュール幸田１０５,,13,122,1250031,,,,,,,2021-08-30,1,,,,,エレクトリック,0
1132,5012801021045,新規,0,2021-08-30,2021-08-30,株式会社ＧａｒｄｅｎＶａｌｌｅｙ,,株式会社,東京都,日野市,程久保８丁目１番地の１２,,13,212,1910042,,,,,,,2021-08-30,1,,,,,ガーデンバレー,0
1134,5020001028265,新規,0,2021-08-30,2021-08-30,ニハシ印刷株式会社,,株式会社,神奈川県,横浜市中区,宮川町１丁目１３番地,,14,104,2310065,,,,,,,2021-08-30,1,,,,,ニハシインサツ,0
1136,5020001142710,新規,0,2021-08-30,2021-08-30,株式会社ウーベル,,株式会社,神奈川県,川崎市高津区,溝口５丁目１２番２８号,,14,134,2130001,,,,,,,2021-08-30,1,,,,,ウーベル,0
1137,5020001142792,新規,0,2021-08-30,2021-08-30,株式会社うなぎ,,株式会社,神奈川県,横浜市中区,相生町２丁目３４番地２梅原ビル４階,,14,104,2310012,,,,,,,2021-08-30,1,,,,,ウナギ,0
1138,5020001142801,新規,0,2021-08-30,2021-08-30,株式会社デジタルクランプ,,株式会社,神奈川県,川崎市高津区,二子１丁目７番２０号,,14,134,2130002,,,,,,,2021-08-30,1,,,,,デジタルクランプ,0
1140,5020005015185,新規,0,2021-08-30,2021-08-30,一般社団法人プレシャスリビング,,その他の設立登記法人,神奈川県,横浜市青葉区,鴨志田町５６９番地１グリーンヒル鴨志田西団地１３棟２０５号,,14,117,2270033,,,,,,,2021-08-30,1,,,,,プレシャスリビング,0
1157,5030001143988,新規,0,2021-08-30,2021-08-30,株式会社ＫＡＮＳＨＡ,,株式会社,埼玉県,鴻巣市,大間４丁目１０番１９号,,11,217,3650054,,,,,,,2021-08-30,1,,,,,カンシャ,0
1158,5030001144004,新規,0,2021-08-30,2021-08-30,ⅹＦｕｔｕｒｅ株式会社,00124048,株式会社,埼玉県,吉川市,美南１丁目２２番地７,,11,243,3420038,,,,,,,2021-08-30,1,,,,,エックスフューチャー,0
1159,5030001144045,新規,0,2021-08-30,2021-08-30,ｖｉｖａ株式会社,,株式会社,埼玉県,川口市,芝富士１丁目２４番９号,,11,203,3330854,,,,,,,2021-08-30,1,,,,,ヴィヴァ,0
1162,5030003017835,新規,0,2021-08-30,2021-08-30,ＶＫ合同会社,,合同会社,埼玉県,坂戸市,日の出町３３番地３,,11,239,3500225,,,,,,,2021-08-30,1,,,,,ヴィーケイ,0
1163,5030003017843,新規,0,2021-08-30,2021-08-30,合同会社ＫＥｉＮＡ,,合同会社,埼玉県,秩父市,田村５６５番地,,11,207,3680055,,,,,,,2021-08-30,1,,,,,ケイナ,0
1174,5050002018667,新規,0,2021-08-30,2021-08-30,有限会社八百源商店,,有限会社,茨城県,猿島郡境町,１６２４番地,,08,546,3060433,,,,,,,2021-08-30,1,,,,,ヤオゲンショウテン,0
1177,5070001038383,新規,0,2021-08-30,2021-08-30,株式会社ＭＯＲＡＢＬＵ,,株式会社,群馬県,太田市,熊野町２４番１－Ａ１０１号,,10,205,3730025,,,,,,,2021-08-30,1,,,,,モラブル,0
1196,5120001239991,新規,0,2021-08-30,2021-08-30,さくら総合事務所株式会社,,株式会社,大阪府,大阪市西成区,山王３丁目１６番４号,,27,122,5570001,,,,,,,2021-08-30,1,,,,,サクラソウゴウジムショ,0
1197,5120001240000,新規,0,2021-08-30,2021-08-30,Ｋｅｅｄ株式会社,,株式会社,大阪府,大阪市淀川区,西中島３丁目１９番１３号第２ユヤマビル４階Ｄ号室,,27,123,5320011,,,,,,,2021-08-30,1,,,,,キード,0
1198,5120001240017,新規,0,2021-08-30,2021-08-30,サラヤホールディングス株式会社,,株式会社,大阪府,大阪市東住吉区,湯里２丁目２番８号,,27,121,5460013,,,,,,,2021-08-30,1,,,,,サラヤホールディングス,0
1199,5120001240033,新規,0,2021-08-30,2021-08-30,みおつくし工業用水コンセッション株式会社,,株式会社,大阪府,大阪市中央区,久太郎町２丁目５番３０号,,27,128,5410056,,,,,,,2021-08-30,1,,,,,ミオツクシコウギョウヨウスイコンセッション,0
1207,5120901044822,新規,0,2021-08-30,2021-08-30,株式会社Ｒ・Ｔ,,株式会社,大阪府,茨木市,見付山１丁目４１号－３,,27,211,5670035,,,,,,,2021-08-30,1,,,,,アールティ,0
1210,5122001035108,新規,0,2021-08-30,2021-08-30,株式会社大木断熱,,株式会社,大阪府,東大阪市,若江南町４丁目６番２１号３０１,,27,227,5780943,,,,,,,2021-08-30,1,,,,,オオキダンネツ,0
1211,5122001035124,新規,0,2021-08-30,2021-08-30,株式会社Ｎｅｓｓｉｅ,,株式会社,大阪府,東大阪市,若江北町３丁目１２番６号,,27,227,5780945,,,,,,,2021-08-30,1,,,,,ネッシー,0
1215,5130001070000,新規,0,2021-08-30,2021-08-30,イーデック株式会社,,株式会社,京都府,八幡市,川口浜６３番地の１１,,26,210,6148101,,,,,,,2021-08-30,1,,,,,イーデック,0
1221,5140001122840,新規,0,2021-08-30,2021-08-30,株式会社スカイロジスティクス,,株式会社,兵庫県,神戸市東灘区,向洋町中１丁目１７番地アジアワンセンター,,28,101,6580032,,,,,,,2021-08-30,1,,,,,スカイロジスティクス,0
1222,5140003016677,新規,0,2021-08-30,2021-08-30,合同会社さくらヘルスケア,,合同会社,兵庫県,芦屋市,翠ケ丘町１２番７－５１９号,,28,206,6590014,,,,,,,2021-08-30,1,,,,,サクラヘルスケア,0
1232,5180001147586,新規,0,2021-08-30,2021-08-30,株式会社Ｂｒｉｇｈｔ,,株式会社,愛知県,名古屋市中区,栄５丁目２６－３９ＧＳ栄ビル３Ｆ,,23,106,4600008,,,,,,,2021-08-30,1,,,,,ブライト,0
1233,5180001147594,新規,0,2021-08-30,2021-08-30,株式会社おきらく,,株式会社,愛知県,名古屋市中区,栄４丁目５番１８号栄ソシアルビル地下１階Ｃ１号,,23,106,4600008,,,,,,,2021-08-30,1,,,,,オキラク,0
1234,5180001147611,新規,0,2021-08-30,2021-08-30,株式会社Ｑｔｕｒｅ,,株式会社,愛知県,名古屋市中区,錦３丁目６－８,,23,106,4600003,,,,,,,2021-08-30,1,,,,,クチュール,0
1254,5280003001525,新規,0,2021-08-30,2021-08-30,合同会社シマネシネマ,,合同会社,島根県,益田市,あけぼの東町２番地１小野沢ビル３Ｆ,,32,204,6980027,,,,,,,2021-08-30,1,,,,,シマネシネマ,0
1255,5290001094388,新規,0,2021-08-30,2021-08-30,株式会社ＢａｌｌｏｏｎＦｌｏｗｅｒ,,株式会社,福岡県,福岡市早良区,室見４丁目２４番１８－３０２号,,40,137,8140015,,,,,,,2021-08-30,1,,,,,バルーンフラワー,0
1256,5290001094421,新規,0,2021-08-30,2021-08-30,九州マネジメント株式会社,,株式会社,福岡県,福岡市南区,若久５丁目２番３号,,40,134,8150042,,,,,,,2021-08-30,1,,,,,キュウシュウマネジメント,0
1262,5290005018327,新規,0,2021-08-30,2021-08-30,一般社団法人中小企業退職金制度支援協会,,その他の設立登記法人,福岡県,福岡市中央区,谷２丁目１４番８号,,40,133,8100031,,,,,,,2021-08-30,1,,,,,チュウショウキギョウタイショクキンセイドシエンキョウカイ,0
1268,5330003009018,新規,0,2021-08-30,2021-08-30,合同会社ＩＬ・ＲＥＣＴＯ,,合同会社,熊本県,熊本市中央区,本山２丁目７番１１号,,43,101,8600821,,,,,,,2021-08-30,1,,,,,イルレクト,0
1271,5360001029270,新規,0,2021-08-30,2021-08-30,株式会社ＫａＦｕ,,株式会社,沖縄県,宜野湾市,喜友名２丁目２８番２２－５０３号ＫＵＲＡＳＵＫＡ宜野湾,,47,205,9012222,,,,,,,2021-08-30,1,,,,,カフー,0
1273,5370001047528,新規,0,2021-08-30,2021-08-30,株式会社ライフアップ,,株式会社,宮城県,仙台市青葉区,支倉２－１８クレステコート支倉２０２,,04,101,9800000,,,,,,,2021-08-30,1,,,,,ライフアップ,0
1274,5370003005368,新規,0,2021-08-30,2021-08-30,ＧＥＴＴ合同会社,,合同会社,宮城県,仙台市宮城野区,宮千代１丁目８－５,,04,102,9830044,,,,,,,2021-08-30,1,,,,,ゲット,0
1279,5430001084829,新規,0,2021-08-30,2021-08-30,コントレイル株式会社,,株式会社,北海道,札幌市手稲区,前田八条１８丁目３番１０号,,01,109,0060818,,,,,,,2021-08-30,1,,,,,コントレイル,0
1280,5430001084837,新規,0,2021-08-30,2021-08-30,株式会社ＭＲＡホールディングス,,株式会社,北海道,室蘭市,白鳥台５丁目１番８号,,01,205,0500054,,,,,,,2021-08-30,1,,,,,エムアールエーホールディングス,0
1283,5430003013091,新規,0,2021-08-30,2021-08-30,合同会社フィオーレ,,合同会社,北海道,石狩郡当別町,若葉１３３６番地８,,01,303,0610204,,,,,,,2021-08-30,1,,,,,フィオーレ,0
1288,5500001023647,新規,0,2021-08-30,2021-08-30,壱伍精工株式会社,,株式会社,愛媛県,西条市,丹原町丹原１５番地５,,38,206,7910510,,,,,,,2021-08-30,1,,,,,イチゴセイコウ,0
1303,6010001220771,新規,0,2021-08-30,2021-08-30,安達テクノロジー株式会社,,株式会社,東京都,中央区,勝どき５丁目１２番４－１２０３号,,13,102,1040054,,,,,,,2021-08-30,1,,,,,アンタツテクノロジー,0
1312,6010005033880,新規,0,2021-08-30,2021-08-30,一般社団法人福島矢吹太陽光発電,,その他の設立登記法人,東京都,千代田区,丸の内３丁目１番１号東京共同会計事務所内,,13,101,1000005,,,,,,,2021-08-30,1,,,,,フクシマヤブキタイヨウコウハツデン,0
1329,6010401162366,新規,0,2021-08-30,2021-08-30,Ｓｈｉｎｉｎｇ　Ｒｏａｄ株式会社,,株式会社,東京都,港区,白金４丁目７番３号ＬＡＭＵ白金３０１,,13,103,1080072,,,,,,,2021-08-30,1,,,,,シャイニングロード,0
1330,6010401162382,新規,0,2021-08-30,2021-08-30,株式会社ＢＯＡＴＡＳ,,株式会社,東京都,港区,北青山２丁目７－１３プラセオ青山ビル３階,,13,103,1070061,,,,,,,2021-08-30,1,,,,,ボアタス,0
1347,6010703005917,新規,0,2021-08-30,2021-08-30,合同会社ＯＫＳ,,合同会社,東京都,品川区,北品川５丁目３番１－１８１２号,,13,109,1410001,,,,,,,2021-08-30,1,,,,,オーケーエス,0
1351,6010901049328,新規,0,2021-08-30,2021-08-30,株式会社ゴチハム,,株式会社,東京都,世田谷区,下馬１丁目８番５号,,13,112,1540002,,,,,,,2021-08-30,1,,,,,ゴチハム,0
1354,6010903006764,新規,0,2021-08-30,2021-08-30,合同会社ＭＡＴＳＵＢＡ,,合同会社,東京都,世田谷区,成城５丁目２番１５号,,13,112,1570066,,,,,,,2021-08-30,1,,,,,マツバ,0
1372,6011603003382,新規,0,2021-08-30,2021-08-30,匠商産合同会社,,合同会社,東京都,練馬区,光が丘３丁目７番２－３０３号,,13,120,1790072,,,,,,,2021-08-30,1,,,,,タクミショウサン,0
1389,6020001142783,新規,0,2021-08-30,2021-08-30,株式会社ＳＨＩＰ,,株式会社,神奈川県,川崎市宮前区,菅生３丁目１４番１２－１０１号,,14,136,2160015,,,,,,,2021-08-30,1,,,,,シップ,0
1390,6020001142791,新規,0,2021-08-30,2021-08-30,株式会社Ｈａｋａｒａ,,株式会社,神奈川県,川崎市多摩区,登戸２４３２番地１ＢｌｕｅｗａｔｅｒＢｕｉｌｄｉｎｇ６Ｆ,,14,135,2140014,,,,,,,2021-08-30,1,,,,,ハカラ,0
1393,6020005015184,新規,0,2021-08-30,2021-08-30,一般財団法人成建福祉財団,,その他の設立登記法人,神奈川県,川崎市宮前区,鷺沼１丁目１５番地１６,,14,136,2160004,,,,,,,2021-08-30,1,,,,,セイケンフクシザイダン,0
1396,6021001073787,新規,0,2021-08-30,2021-08-30,株式会社吉田,,株式会社,神奈川県,綾瀬市,小園南２丁目６番１７号,,14,218,2521122,,,,,,,2021-08-30,1,,,,,ヨシダ,0
1405,6030001144028,新規,0,2021-08-30,2021-08-30,株式会社Ｈａｗｋｓ　Ｅｘｐｒｅｓｓ,,株式会社,埼玉県,さいたま市見沼区,東大宮６丁目４３番地１３,,11,104,3370051,,,,,,,2021-08-30,1,,,,,ホークスエクスプレス,0
1412,6030003017842,新規,0,2021-08-30,2021-08-30,合同会社Ｒｅｋｏｒｅｃ,,合同会社,埼玉県,新座市,野火止８丁目１６番９号カーサパトリス２１１号室,,11,230,3520011,,,,,,,2021-08-30,1,,,,,レコレック,0
1413,6030003017850,新規,0,2021-08-30,2021-08-30,合同会社アシストケア,,合同会社,埼玉県,入間市,宮寺２９２５－２０４,,11,225,3580014,,,,,,,2021-08-30,1,,,,,アシストケア,0
1427,6070003001017,新規,0,2021-08-30,2021-08-30,合資会社花月旅館,,合資会社,群馬県,桐生市,宮前町２丁目７番１０号,,10,203,3760046,,,,,,,2021-08-30,1,,,,,カゲツリョカン,0
1432,6100003006219,新規,0,2021-08-30,2021-08-30,Ｍａｓｔｅｒ　Ｋｅｙ　Ｐｒｅｓｅｎｔｓ合同会社,,合同会社,長野県,長野市,三輪４丁目６番８号,,20,201,3800803,,,,,,,2021-08-30,1,,,,,マスターキープレゼンツ,0
1433,6110001030070,新規,0,2021-08-30,2021-08-30,株式会社秋山建材,,株式会社,新潟県,胎内市,高野２４９番地,,15,227,9592618,,,,,,,2021-08-30,1,,,,,アキヤマケンザイ,0
1434,6110005016702,新規,0,2021-08-30,2021-08-30,一般社団法人佐渡ＭＩＣＥ．ｎｅｔ．,,その他の設立登記法人,新潟県,佐渡市,河原田諏訪町２０８番地１６,,15,224,9521315,,,,,,,2021-08-30,1,,,,,サドマイスネット,0
1440,6120001239982,新規,0,2021-08-30,2021-08-30,Ｍｉｒａｎｄａ株式会社,,株式会社,大阪府,大阪市生野区,巽中３丁目１１番４号,00124046,27,116,5440013,,,,,,,2021-08-30,1,,,,,ミランダ,0
1441,6120001239990,新規,0,2021-08-30,2021-08-30,株式会社リフォームアート,,株式会社,大阪府,大阪市東住吉区,公園南矢田３丁目１０番１号,,27,121,5460024,,,,,,,2021-08-30,1,,,,,リフォームアート,0
1442,6120001240016,新規,0,2021-08-30,2021-08-30,労務テック株式会社,,株式会社,大阪府,大阪市北区,梅田１丁目１１番４号大阪駅前第４ビル９階９２３－１５９９号,,27,127,5300001,,,,,,,2021-08-30,1,,,,,ロウムテック,0
1465,6140003016668,新規,0,2021-08-30,2021-08-30,合同会社セリカ,,合同会社,兵庫県,尼崎市,元浜町５丁目７６番地の３,,28,202,6600085,,,,,,,2021-08-30,1,,,,,セリカ,0
1472,6180001147585,新規,0,2021-08-30,2021-08-30,三栄株式会社,,株式会社,愛知県,名古屋市名東区,上社４丁目２２２番地,,23,115,4650025,,,,,,,2021-08-30,1,,,,,サンエイ,0
1473,6180001147593,新規,0,2021-08-30,2021-08-30,株式会社ＭＯＮ　ＲＥＶＥ,,株式会社,愛知県,北名古屋市,二子瀬古２８番地１,,23,234,4810013,,,,,,,2021-08-30,1,,,,,モンレーブ,0
1480,6180303005086,新規,0,2021-08-30,2021-08-30,合同会社ＭＵＬＴＩＷＯＲＫＳ,,合同会社,愛知県,豊橋市,西小鷹野４丁目６‐９,,23,201,4400013,,,,,,,2021-08-30,1,,,,,マルチワークス,0
1483,6200001039053,新規,0,2021-08-30,2021-08-30,株式会社ＳＢメディック,,株式会社,岐阜県,岐阜市,芥見南山３丁目５番８号,,21,201,5013133,,,,,,,2021-08-30,1,,,,,エスビーメディック,0
1484,6200001039061,新規,0,2021-08-30,2021-08-30,株式会社Ｌａｎａ,,株式会社,岐阜県,各務原市,各務西町４丁目２３６番地,,21,213,5090106,,,,,,,2021-08-30,1,,,,,ラナ,0
1514,6290801027736,新規,0,2021-08-30,2021-08-30,株式会社ファースト,,株式会社,福岡県,北九州市門司区,東新町１丁目４番１－６０２号,,40,101,8000055,,,,,,,2021-08-30,1,,,,,ファースト,0
1520,6330001028943,新規,0,2021-08-30,2021-08-30,株式会社ＫＥＰホールディングス,,株式会社,熊本県,熊本市西区,新土河原１丁目１２番５３号,,43,103,8600056,,,,,,,2021-08-30,1,,,,,ケーイーピーホールディングス,0
1526,6340001024058,新規,0,2021-08-30,2021-08-30,株式会社Ｒ＆Ｃ,,株式会社,鹿児島県,志布志市,志布志町帖３５８７－４,,46,221,8997102,,,,,,,2021-08-30,1,,,,,アールアンドシー,0
1528,6360001029294,新規,0,2021-08-30,2021-08-30,樹建材株式会社,,株式会社,沖縄県,宜野湾市,字宇地泊２１５番地１,,47,205,9012227,,,,,,,2021-08-30,1,,,,,イツキケンザイ,0
1529,6360003011399,新規,0,2021-08-30,2021-08-30,合同会社ゆかいな会議,,合同会社,沖縄県,中頭郡北中城村,字美崎４８番地リーヴァアチェロ２０３号,,47,327,9012321,,,,,,,2021-08-30,1,,,,,,0
1541,6430003013090,新規,0,2021-08-30,2021-08-30,合同会社康建工,,合同会社,北海道,札幌市東区,丘珠町５０３番地１６,,01,103,0070880,,,,,,,2021-08-30,1,,,,,ヤスケンコウ,0
1557,7010001220713,新規,0,2021-08-30,2021-08-30,モンステラ株式会社,,株式会社,東京都,中央区,日本橋箱崎町２７－９,,13,102,1030015,,,,,,,2021-08-30,1,,,,,モンステラ,0
1558,7010001220779,新規,0,2021-08-30,2021-08-30,莫兜笠・和式株式会社,,株式会社,東京都,中央区,日本橋蛎殻町１丁目３番５号共同ビル２階２３号,,13,102,1030014,,,,,,,2021-08-30,1,,,,,ボトウリュウワシキ,0
1562,7010003035705,新規,0,2021-08-30,2021-08-30,合同会社ドラゴン,,合同会社,東京都,中央区,東日本橋３丁目７番１４－７０５号,,13,102,1030004,,,,,,,2021-08-30,1,,,,,,0
1565,7010005033871,新規,0,2021-08-30,2021-08-30,一般社団法人日本銀イオン水工業会,,その他の設立登記法人,東京都,中央区,日本橋蛎殻町２丁目１１番９号,,13,102,1030014,,,,,,,2021-08-30,1,,,,,ニホンギンイオンスイコウギョウカイ,0
1576,7010401162373,新規,0,2021-08-30,2021-08-30,株式会社ＬｉＴ,,株式会社,東京都,港区,南青山３丁目１５番９号ＭＩＮＯＷＡ表参道３階,,13,103,1070062,,,,,,,2021-08-30,1,,,,,リット,0
1580,7010403025982,新規,0,2021-08-30,2021-08-30,ＳａｍｂａＮｏｖａ　Ｓｙｓｔｅｍｓ　Ｊａｐａｎ合同会社,,合同会社,東京都,港区,南麻布３丁目１９番２３号オーク南麻布ビル２階,,13,103,1060047,,,,,,,2021-08-30,1,,,,,サンバノバシステムズジャパン,0
1582,7010405020148,新規,0,2021-08-30,2021-08-30,一般社団法人ＳＫＳプロジェクト,,その他の設立登記法人,東京都,港区,虎ノ門３丁目２２番１０－２０１号,,13,103,1050001,,,,,,,2021-08-30,1,,,,,エスケイエスプロジェクト,0
1583,7010405020156,新規,0,2021-08-30,2021-08-30,一般社団法人ＰＴ会,,その他の設立登記法人,東京都,港区,六本木４丁目８番７号六本木三河台ビル３階,,13,103,1060032,,,,,,,2021-08-30,1,,,,,ピーティーカイ,0
1585,7010601059849,新規,0,2021-08-30,2021-08-30,株式会社裕満設備,,株式会社,東京都,墨田区,横川４丁目９番２－２０４号,,13,107,1300003,,,,,,,2021-08-30,1,,,,,ユウマセツビ,0
1598,7011101096011,新規,0,2021-08-30,2021-08-30,株式会社フィーニックス,,株式会社,東京都,新宿区,大久保１丁目１－３４東新宿ハイム２０７,,13,104,1690072,,,,,,,2021-08-30,1,,,,,フィーニックス,0
1599,7011101096036,新規,0,2021-08-30,2021-08-30,株式会社Ｃａｎｔｉｎｕｅ,,株式会社,東京都,新宿区,西五軒町５番１３－３０１号,,13,104,1620812,,,,,,,2021-08-30,1,,,,,カンテニュー,0
1600,7011101096119,新規,0,2021-08-30,2021-08-30,ＹＭ株式会社,,株式会社,東京都,新宿区,富久町２０番地２新宿御苑サニーコート２０６号,,13,104,1620067,,,,,,,2021-08-30,1,,,,,ワイエム,0
1601,7011101096143,新規,0,2021-08-30,2021-08-30,株式会社ホシキミクリエーション,,株式会社,東京都,新宿区,歌舞伎町１丁目２番１８号エコロ新宿第３ビル５Ｆ,,13,104,1600021,,,,,,,2021-08-30,1,,,,,ホシキミクリエーション,0
1609,7011401023631,新規,0,2021-08-30,2021-08-30,株式会社ＨＥＮＲＹ　ＪＯＨＮ,,株式会社,東京都,板橋区,加賀２丁目１６番１号,,13,119,1730003,,,,,,,2021-08-30,1,,,,,ヘンリージョン,0
1610,7011603003381,新規,0,2021-08-30,2021-08-30,合同会社フジマル,,合同会社,東京都,練馬区,大泉学園町２丁目２３番６７号,,13,120,1780061,,,,,,,2021-08-30,1,,,,,,0
1619,7020001142766,新規,0,2021-08-30,2021-08-30,株式会社オービット,,株式会社,神奈川県,横浜市戸塚区,上柏尾町３７９番地１１５,,14,110,2440811,,,,,,,2021-08-30,1,,,,,オービット,0
1620,7020001142799,新規,0,2021-08-30,2021-08-30,株式会社ｗｉｓｄｏｍ,,株式会社,神奈川県,川崎市中原区,上小田中６丁目５１番２２号,,14,133,2110053,,,,,,,2021-08-30,1,,,,,ウィズダム,0
1639,7030001144002,新規,0,2021-08-30,2021-08-30,株式会社ＯＨＡＮＡ,,株式会社,埼玉県,所沢市,東所沢和田１丁目５１番地の２５,,11,208,3590023,,,,,,,2021-08-30,1,,,,,オハナ,0
1640,7030001144019,新規,0,2021-08-30,2021-08-30,株式会社日本バイオマス水素,,株式会社,埼玉県,さいたま市中央区,下落合２丁目２番２４－３号進瑛ビル３階,,11,105,3380002,,,,,,,2021-08-30,1,,,,,ニホンバイオマススイソ,0
1641,7030001144027,新規,0,2021-08-30,2021-08-30,株式会社彩造,,株式会社,埼玉県,さいたま市西区,大字指扇１５１９番地１０,,11,101,3310047,,,,,,,2021-08-30,1,,,,,サイゾウ,0
1642,7030001144051,新規,0,2021-08-30,2021-08-30,株式会社ベネボレント,,株式会社,埼玉県,草加市,栄町３丁目７番１０－２－７０１,,11,221,3400011,,,,,,,2021-08-30,1,,,,,ベネボレント,0
1647,7030003017858,新規,0,2021-08-30,2021-08-30,合同会社ＢＡＳＥ　ＰＬＵＳ,,合同会社,埼玉県,さいたま市大宮区,桜木町２丁目３番地大宮マルイ７階,,11,103,3300854,,,,,,,2021-08-30,1,,,,,ベースプラス,0
1651,7040001119928,新規,0,2021-08-30,2021-08-30,ＭＴ　Ｒｕｍｐｕ株式会社,,株式会社,千葉県,市川市,本行徳６番１３号,,12,203,2720103,,,,,,,2021-08-30,1,,,,,エムティールンプ,0
1657,7060001034035,新規,0,2021-08-30,2021-08-30,株式会社ハヤシ,,株式会社,栃木県,真岡市,寺内１４３１番地,,09,209,3214345,,,,,,,2021-08-30,1,,,,,ハヤシ,0
1680,7120001239949,新規,0,2021-08-30,2021-08-30,株式会社シーキューブ,,株式会社,大阪府,大阪市北区,西天満５丁目６番１０号,,27,127,5300047,,,,,,,2021-08-30,1,,,,,シーキューブ,0
1681,7120001239998,新規,0,2021-08-30,2021-08-30,株式会社ＫＩＭＯＮＯ　ＳＴＹＬＥ和夢,,株式会社,大阪府,大阪市中央区,大手前１丁目６番４号,,27,128,5400008,,,,,,,2021-08-30,1,,,,,キモノスタイルワム,0
1682,7120001240031,新規,0,2021-08-30,2021-08-30,株式会社木立商会,,株式会社,大阪府,大阪市中央区,道修町１丁目４番３号,,27,128,5410045,,,,,,,2021-08-30,1,,,,,キタチショウカイ,0
1695,7120905006222,新規,0,2021-08-30,2021-08-30,一般社団法人天鏡会,,その他の設立登記法人,大阪府,箕面市,船場西３丁目６番３２号箕面船場クリニックビル２０１号室,,27,220,5620036,,,,,,,2021-08-30,1,,,,,テンキョウカイ,0
1697,7122001035114,新規,0,2021-08-30,2021-08-30,神田重機レンタル株式会社,,株式会社,大阪府,東大阪市,横小路町４丁目９番５６号,,27,227,5798063,,,,,,,2021-08-30,1,,,,,カンダジュウキレンタル,0
1700,7130001069998,新規,0,2021-08-30,2021-08-30,株式会社仁,,株式会社,京都府,京都市東山区,三条通白川橋東入四丁目中之町２１８番地ラ・トゥール京都東山１０２号室,,26,105,6050000,,,,,,,2021-08-30,1,,,,,ジン,0
1701,7130001070007,新規,0,2021-08-30,2021-08-30,株式会社テクノケーブル,,株式会社,京都府,京都市山科区,竹鼻西ノ口町５９番地,,26,110,6078089,,,,,,,2021-08-30,1,,,,,テクノケーブル,0
1706,7140003016667,新規,0,2021-08-30,2021-08-30,合同会社デシアビ,,合同会社,兵庫県,宝塚市,東洋町６番１－１０１８号,,28,214,6650032,,,,,,,2021-08-30,1,,,,,デシアビ,0
1713,7180005019417,新規,0,2021-08-30,2021-08-30,特定非営利活動法人防災自助普及委員会,,その他の設立登記法人,愛知県,名古屋市瑞穂区,松栄町２丁目５４番地の２,,23,108,4670025,,,,,,,2021-08-30,1,,,,,ボウサイジジョフキュウイインカイ,0
1716,7180303005085,新規,0,2021-08-30,2021-08-30,合同会社ｓｔｈａｎｋｓ,,合同会社,愛知県,安城市,美園町１丁目２７番地９パークシティ美園Ｃ‐１０１,,23,212,4460076,,,,,,,2021-08-30,1,,,,,エスサンクス,0
1733,7290001094436,新規,0,2021-08-30,2021-08-30,株式会社元気,,株式会社,福岡県,福岡市南区,屋形原４丁目２８番３０－３０２号,,40,134,8111351,,,,,,,2021-08-30,1,,,,,ゲンキ,0
1746,7330001028942,新規,0,2021-08-30,2021-08-30,熊本流通株式会社,,株式会社,熊本県,阿蘇郡西原村,大字布田６７９番地３２,,43,432,8612403,,,,,,,2021-08-30,1,,,,,クマモトリュウツウ,0
1748,7340001024040,新規,0,2021-08-30,2021-08-30,株式会社Ｍａｍ’ｓ,,株式会社,鹿児島県,鹿屋市,新川町１９６番地２,,46,203,8930015,,,,,,,2021-08-30,1,,,,,マムズ,0
1751,7350001017274,新規,0,2021-08-30,2021-08-30,ＢＬＯＯＭ株式会社,,株式会社,宮崎県,宮崎市,大字富吉５２番地１,,45,201,8802114,,,,,,,2021-08-30,1,,,,,ブルーム,0
1763,7400005008181,新規,0,2021-08-30,2021-08-30,医療法人たかはし眼科,,その他の設立登記法人,岩手県,盛岡市,本宮字小板小瀬１３番地１,,03,201,0200866,,,,,,,2021-08-30,1,,,,,タカハシガンカ,0
1764,7410003003563,新規,0,2021-08-30,2021-08-30,合同会社ＬａｂＬｉｎｅ,,合同会社,秋田県,秋田市,東通２丁目１４－２ウィスタリア東通１０５,,05,201,0100003,,,,,,,2021-08-30,1,,,,,ラボライン,0
1770,7430001084835,新規,0,2021-08-30,2021-08-30,株式会社大成,,株式会社,北海道,岩見沢市,十二条西３丁目４番地２,,01,210,0680032,,,,,,,2021-08-30,1,,,,,タイセイ,0
1771,7430001084843,新規,0,2021-08-30,2021-08-30,株式会社クアトロホーム,,株式会社,北海道,札幌市北区,屯田七条３丁目１番１５－３０１号,,01,102,0020857,,,,,,,2021-08-30,1,,,,,クアトロホーム,0
1793,8010001220712,新規,0,2021-08-30,2021-08-30,株式会社Ｂｌｉｓｅｅｄ,,株式会社,東京都,中央区,銀座７丁目１３番６号サガミビル２階,,13,102,1040061,,,,,,,2021-08-30,1,,,,,ブリシード,0
1797,8010003035654,新規,0,2021-08-30,2021-08-30,合同会社あんばいＬＢ２号,,合同会社,東京都,千代田区,霞が関３丁目２番５号,,13,101,1000013,,,,,,,2021-08-30,1,,,,,アンバイエルビーニゴウ,0
1798,8010003035695,新規,0,2021-08-30,2021-08-30,合同会社メディログ,,合同会社,東京都,文京区,本郷３丁目１７番１２号プレシアス本郷２０１,,13,105,1130033,,,,,,,2021-08-30,1,,,,,メディログ,0
1799,8010003035704,新規,0,2021-08-30,2021-08-30,合同会社ＡＩＰ,,合同会社,東京都,文京区,音羽２丁目１１番１８号音羽ダイヤモンドマンション２０１号,,13,105,1120013,,,,,,,2021-08-30,1,,,,,エーアイピー,0
1800,8010005033879,新規,0,2021-08-30,2021-08-30,社会保険労務士法人桜井労働法務事務所,,その他の設立登記法人,東京都,中央区,日本橋茅場町２丁目１７番５号,,13,102,1030025,,,,,,,2021-08-30,1,,,,,サクライロウドウホウムジムショ,0
1806,8010401162348,新規,0,2021-08-30,2021-08-30,ＨＬＣ株式会社,,株式会社,東京都,港区,芝浦４丁目１９番１号ケープタワー３８２３,,13,103,1080023,,,,,,,2021-08-30,1,,,,,エイチエルシー,0
1812,8010601059864,新規,0,2021-08-30,2021-08-30,エスジーファーマ株式会社,,株式会社,東京都,江東区,北砂３丁目３３番２０号,,13,108,1360073,,,,,,,2021-08-30,1,,,,,エスジーファーマ,0
1814,8010603009124,新規,0,2021-08-30,2021-08-30,ＡＱＵＡ合同会社,,合同会社,東京都,墨田区,江東橋４丁目１３番６号,,13,107,1300022,,,,,,,2021-08-30,1,,,,,アクア,0
1820,8010901049334,新規,0,2021-08-30,2021-08-30,株式会社Ｉ・Ｓ・Ｅプランニング,,株式会社,東京都,世田谷区,宇奈根２丁目２６番２０号モンレーヴＣ,,13,112,1570068,,,,,,,2021-08-30,1,,,,,アイエスイープランニング,0
1829,8011001142459,新規,0,2021-08-30,2021-08-30,株式会社ゼディア,,株式会社,東京都,渋谷区,渋谷３丁目１３－５,,13,113,1500002,,,,,,,2021-08-30,1,,,,,ゼディア,0
1830,8011001142566,新規,0,2021-08-30,2021-08-30,株式会社ＭＩＹＡＢＩ,,株式会社,東京都,渋谷区,神宮前１丁目２０番１５号,,13,113,1500001,,,,,,,2021-08-30,1,,,,,ミヤビ,0
1838,8011005009183,新規,0,2021-08-30,2021-08-30,一般社団法人Ａｙｕｍｉ,,その他の設立登記法人,東京都,渋谷区,神宮前６丁目２３番４号桑野ビル２階,,13,113,1500001,,,,,,,2021-08-30,1,,,,,アユミ,0
1869,8020001142757,新規,0,2021-08-30,2021-08-30,株式会社ポートサイド印刷,,株式会社,神奈川県,横浜市栄区,庄戸５丁目１４番２２号,,14,115,2470022,,,,,,,2021-08-30,1,,,,,ポートサイドインサツ,0
1877,8021001073785,新規,0,2021-08-30,2021-08-30,株式会社ＯＫＡＶＡＮＧＯ,,株式会社,神奈川県,茅ヶ崎市,常盤町４番１号,,14,207,2530032,,,,,,,2021-08-30,1,,,,,オカバンゴ,0
1883,8021003010844,新規,0,2021-08-30,2021-08-30,合同会社ショウカ,,合同会社,神奈川県,厚木市,寿町２丁目７番７号,,14,212,2430003,,,,,,,2021-08-30,1,,,,,ショウカ,0
1884,8030001044597,新規,0,2021-08-30,2021-08-30,青葉紙工業株式会社,,株式会社,埼玉県,朝霞市,大字上内間木２９１番地５,,11,227,3510001,,,,,,,2021-08-30,1,,,,,アオバカミコウギョウ,0
1889,8030001144059,新規,0,2021-08-30,2021-08-30,株式会社Ｄｉａｍｏｎｄ建設,,株式会社,埼玉県,熊谷市,新堀３１６－１,,11,202,3600841,,,,,,,2021-08-30,1,,,,,ダイヤモンドケンセツ,0
1897,8030003017849,新規,0,2021-08-30,2021-08-30,ネクストアド合同会社,,合同会社,埼玉県,所沢市,大字下富１１５９－６４,,11,208,3590001,,,,,,,2021-08-30,1,,,,,ネクストアド,0
1921,8060005009899,新規,0,2021-08-30,2021-08-30,一般社団法人サスティナブルライフ協会,,その他の設立登記法人,栃木県,宇都宮市,上戸祭２丁目１番３０号,,09,201,3200058,,,,,,,2021-08-30,1,,,,,サスティナブルライフキョウカイ,0
1941,8120001240014,新規,0,2021-08-30,2021-08-30,株式会社ヨッシャン,,株式会社,大阪府,大阪市淀川区,西中島４丁目７－３０－９Ｅ,,27,123,5320011,,,,,,,2021-08-30,1,,,,,ヨッシャン,0
1942,8120001240022,新規,0,2021-08-30,2021-08-30,株式会社オークリバー,,株式会社,大阪府,大阪市旭区,中宮２丁目１５番１８号,,27,117,5350003,,,,,,,2021-08-30,1,,,,,オークリバー,0
1947,8120003020109,新規,0,2021-08-30,2021-08-30,大和管財合同会社,,合同会社,大阪府,大阪市北区,菅栄町２－１６マジェスタ天満２０１,,27,127,5300031,,,,,,,2021-08-30,1,,,,,ヤマトカンザイ,0
1963,8130003007435,新規,0,2021-08-30,2021-08-30,Ｙｏｇｉｃ　Ａｒｔｓ合同会社,,合同会社,京都府,南丹市,美山町河内谷蔵ノ本１６,,26,213,6010714,,,,,,,2021-08-30,1,,,,,ヨギックアーツ,0
1970,8140001122838,新規,0,2021-08-30,2021-08-30,エスピーメディカル株式会社,,株式会社,兵庫県,神戸市西区,池上１丁目７番８－１１４,,28,111,6512111,,,,,,,2021-08-30,1,,,,,エスピーメディカル,0
1971,8140003016674,新規,0,2021-08-30,2021-08-30,合同会社ＴＲＳ,,合同会社,兵庫県,西宮市,平松町２－１５－１０３,,28,204,6620044,,,,,,,2021-08-30,1,,,,,ティーアールエス,0
1983,8180001147559,新規,0,2021-08-30,2021-08-30,株式会社ＹＧ　ｓｔｙｌｅ,,株式会社,愛知県,名古屋市中川区,十一番町１丁目９番地,,23,110,4540056,,,,,,,2021-08-30,1,,,,,ワイジースタイル,0
1986,8180003022900,新規,0,2021-08-30,2021-08-30,合同会社Ｇ．Ｍ．Ｃ,,合同会社,愛知県,小牧市,大字西之島６９１番地１,,23,219,4850077,,,,,,,2021-08-30,1,,,,,ジーエムシー,0
2006,8260001035904,新規,0,2021-08-30,2021-08-30,スターモータース株式会社,,株式会社,岡山県,岡山市北区,中撫川４１１番地１,,33,101,7010163,,,,,,,2021-08-30,1,,,,,スターモータース,0
2013,8290001094377,新規,0,2021-08-30,2021-08-30,株式会社映光電気,,株式会社,福岡県,筑紫野市,大字永岡９７９番地１,,40,217,8180066,,,,,,,2021-08-30,1,,,,,エイコウデンキ,0
2014,8290001094410,新規,0,2021-08-30,2021-08-30,株式会社グルック,,株式会社,福岡県,福岡市早良区,原５丁目１５番１５－９０３号,,40,137,8140022,,,,,,,2021-08-30,1,,,,,グルック,0
2028,8340001024048,新規,0,2021-08-30,2021-08-30,株式会社Ｖｉｌｌａｇｅ　ＡＩ,,株式会社,鹿児島県,熊毛郡中種子町,野間５１８５番地１,,46,501,8913604,,,,,,,2021-08-30,1,,,,,ヴィレッジエーアイ,0
2039,8360003011397,新規,0,2021-08-30,2021-08-30,合同会社ファ―ム未来,,合同会社,沖縄県,宜野湾市,野嵩１丁目４７番１―１号,,47,205,9012203,,,,,,,2021-08-30,1,,,,,ファームミライ,0
2043,8370003005365,新規,0,2021-08-30,2021-08-30,ＳＷＡＬＬＯＷサービス合同会社,,合同会社,宮城県,大崎市,古川諏訪３丁目４番１０号,,04,215,9896175,,,,,,,2021-08-30,1,,,,,スワローサービス,0
2049,8400005008180,新規,0,2021-08-30,2021-08-30,社会保険労務士法人黒須事務所,,その他の設立登記法人,岩手県,花巻市,若葉町１丁目６番１８号,,03,205,0250097,,,,,,,2021-08-30,1,,,,,クロスジムショ,0
2052,8430001084834,新規,0,2021-08-30,2021-08-30,株式会社アースカンパニー,,株式会社,北海道,札幌市白石区,本通４丁目北１番４号コンツェルト１０６号,,01,104,0030027,,,,,,,2021-08-30,1,,,,,アースカンパニー,0
2053,8430002049316,新規,0,2021-08-30,2021-08-30,有限会社小林仙吉商店,,有限会社,北海道,岩見沢市,元町一条東７丁目２０番地,,01,210,0680054,,,,,,,2021-08-30,1,,,,,,0
2055,8430003013080,新規,0,2021-08-30,2021-08-30,合同会社笑舞,,合同会社,北海道,北広島市,美沢３丁目９番地２リバーサイドヒルズ１０６号,,01,234,0611131,,,,,,,2021-08-30,1,,,,,エマ,0
2056,8430003013089,新規,0,2021-08-30,2021-08-30,合同会社ＳＴＹＬＥ,,合同会社,北海道,札幌市中央区,南十一条西７丁目３番１１－９０２号,,01,101,0640811,,,,,,,2021-08-30,1,,,,,スタイル,0
2061,8470003002022,新規,0,2021-08-30,2021-08-30,合同会社ＭＥコンサルティング,,合同会社,香川県,高松市,中野町２９－５,,37,201,7600008,,,,,,,2021-08-30,1,,,,,エムイーコンサルティング,0
2063,8480003001717,新規,0,2021-08-30,2021-08-30,合同会社幸基,,合同会社,徳島県,徳島市,八万町大坪２２９番地の１１,,36,201,7708079,,,,,,,2021-08-30,1,,,,,コウキ,0
2076,9010001220752,新規,0,2021-08-30,2021-08-30,株式会社ＡＭＧ　Ｉｎｔｅｒｎａｔｉｏｎａｌ,,株式会社,東京都,千代田区,麹町１丁目５番地７プレシス半蔵門７０２号,,13,101,1020083,,,,,,,2021-08-30,1,,,,,エーエムジーインターナショナル,0
2091,9010401162272,新規,0,2021-08-30,2021-08-30,アンカークリエイト株式会社,,株式会社,東京都,港区,北青山３丁目５番１７号,,13,103,1070061,,,,,,,2021-08-30,1,,,,,アンカークリエイト,0
2092,9010401162339,新規,0,2021-08-30,2021-08-30,株式会社アセット,,株式会社,東京都,港区,南青山４丁目２番１２－６１９号,,13,103,1070062,,,,,,,2021-08-30,1,,,,,アセット,0
2093,9010401162371,新規,0,2021-08-30,2021-08-30,株式会社ＷＩＥ,,株式会社,東京都,港区,芝２丁目１０－６－５階,,13,103,1050014,,,,,,,2021-08-30,1,,,,,ダブリューアイイー,0
2100,9010601059847,新規,0,2021-08-30,2021-08-30,株式会社ウランバートル,,株式会社,東京都,墨田区,石原２丁目１５－９交楽堂ビル１階,,13,107,1300011,,,,,,,2021-08-30,1,,,,,ウランバートル,0
2119,9010901049325,新規,0,2021-08-30,2021-08-30,株式会社シャランポワ,,株式会社,東京都,世田谷区,三軒茶屋２丁目２５番７号,,13,112,1540024,,,,,,,2021-08-30,1,,,,,シャランポワ,0
2133,9011001142524,新規,0,2021-08-30,2021-08-30,キャンサー・バリュー株式会社,,株式会社,東京都,目黒区,青葉台１丁目２７番１２号,,13,110,1530042,,,,,,,2021-08-30,1,,,,,キャンサーバリュー,0
2134,9011001142532,新規,0,2021-08-30,2021-08-30,株式会社Ｒｅｍｉｎｄ,,株式会社,東京都,渋谷区,鉢山町１１番１号ＭＦＰＲコート代官山２１２,,13,113,1500035,,,,,,,2021-08-30,1,,,,,リマインド,0
2135,9011001142565,新規,0,2021-08-30,2021-08-30,株式会社Ａｇａｐｅ,,株式会社,東京都,渋谷区,本町１丁目４５番７－１０３号,,13,113,1510071,,,,,,,2021-08-30,1,,,,,アガペー,0
2140,9011003013277,新規,0,2021-08-30,2021-08-30,７ＭＩＲＩＺＥ合同会社,,合同会社,東京都,渋谷区,神宮前６丁目２３番４号２階,,13,113,1500001,,,,,,,2021-08-30,1,,,,,セブンミライズ,0
2160,9012701016637,新規,0,2021-08-30,2021-08-30,株式会社エトワール会,,株式会社,東京都,小平市,花小金井１丁目４０番１１号,,13,211,1870002,,,,,,,2021-08-30,1,,,,,エトワールカイ,0
2170,9013303005805,新規,0,2021-08-30,2021-08-30,プライムインベストメント合同会社,,合同会社,東京都,豊島区,東池袋３丁目８番地５,,13,116,1700013,,,,,,,2021-08-30,1,,,,,プライムインベストメント,0
2175,9020001142789,新規,0,2021-08-30,2021-08-30,株式会社テヅカメディカルサービス,,株式会社,神奈川県,川崎市宮前区,宮崎１丁目６－５－５０１,,14,136,2160033,,,,,,,2021-08-30,1,,,,,テヅカメディカルサービス,0
2176,9020001142797,新規,0,2021-08-30,2021-08-30,株式会社Ｆｒｇｅｅｋ,,株式会社,神奈川県,川崎市多摩区,登戸２４３２番地１,,14,135,2140014,,,,,,,2021-08-30,1,,,,,フルギーク,0
2196,9021005012284,新規,0,2021-08-30,2021-08-30,ＮＰＯ法人ＰａｙＦｏｒｗａｒｄ,,その他の設立登記法人,神奈川県,横須賀市,大津町３丁目１４番１５号,,14,201,2390808,,,,,,,2021-08-30,1,,,,,ペイフォワード,0
2214,9030003017848,新規,0,2021-08-30,2021-08-30,合同会社クリメンアセット,,合同会社,埼玉県,日高市,武蔵台５丁目２１番４号,,11,242,3501255,,,,,,,2021-08-30,1,,,,,クリメンアセット,0
2215,9030003017856,新規,0,2021-08-30,2021-08-30,合同会社アイサポート,,合同会社,埼玉県,朝霞市,北原２丁目５番２８号１１０,,11,227,3510036,,,,,,,2021-08-30,1,,,,,,0
2229,9040003018399,新規,0,2021-08-30,2021-08-30,合同会社エリートチーム,,合同会社,千葉県,船橋市,海神町南１丁目１４３３番地,,12,204,2730024,,,,,,,2021-08-30,1,,,,,エリートチーム,0
2235,9050001049759,新規,0,2021-08-30,2021-08-30,株式会社八千代オート,,株式会社,茨城県,古河市,高野９２０番地１,,08,204,3060214,,,,,,,2021-08-30,1,,,,,ヤチヨオート,0
2241,9060001034025,新規,0,2021-08-30,2021-08-30,菊丸商店株式会社,,株式会社,栃木県,足利市,毛野新町３丁目７９番地,,09,202,3260016,,,,,,,2021-08-30,1,,,,,キクマルショウテン,0
2253,9080401025290,新規,0,2021-08-30,2021-08-30,株式会社Ｓａｋａｔｅｃ静岡,,株式会社,静岡県,御前崎市,池新田４４３２番地４０,,22,223,4371612,,,,,,,2021-08-30,1,,,,,サカテックシズオカ,0
2255,9080405007384,新規,0,2021-08-30,2021-08-30,一般社団法人ＲＡＳＨＩＫＵ,,その他の設立登記法人,静岡県,浜松市西区,桜台２丁目２５番１３号ルピナスＣ－１０２号,,22,133,4311104,,,,,,,2021-08-30,1,,,,,ラシク,0
2275,9120001239666,新規,0,2021-08-30,2021-08-30,株式会社サンデンテクノロジーズサービス,,株式会社,大阪府,大阪市北区,曾根崎１丁目７番１５号（曾根崎ムーンビル４Ｂ）,,27,127,5300057,,,,,,,2021-08-30,1,,,,,サンデンテクノロジーズサービス,0
2276,9120001239988,新規,0,2021-08-30,2021-08-30,株式会社Ｒｉｓｋｙ,,株式会社,大阪府,寝屋川市,高宮あさひ丘４３番１８号,,27,215,5720867,,,,,,,2021-08-30,1,,,,,リスキー,0
2277,9120001240021,新規,0,2021-08-30,2021-08-30,株式会社ＥＳ　ＮＥＸＵＳ,,株式会社,大阪府,大阪市東淀川区,柴島２丁目８番４５号,,27,114,5330024,,,,,,,2021-08-30,1,,,,,エスネクサス,0
2280,9120003020099,新規,0,2021-08-30,2021-08-30,オムカール合同会社,,合同会社,大阪府,守口市,大枝東町４番４－２０１号,,27,209,5700036,,,,,,,2021-08-30,1,,,,,オムカール,0
2281,9120003020108,新規,0,2021-08-30,2021-08-30,日本総合コンサルティング合同会社,,合同会社,大阪府,大阪市北区,大深町３－４０グランフロント大阪タワー１２Ｆ,,27,127,5300011,,,,,,,2021-08-30,1,,,,,ニホンソウゴウコンサルティング,0
2285,9120901044810,新規,0,2021-08-30,2021-08-30,株式会社ＢＢ,,株式会社,大阪府,三島郡島本町,大字東大寺８６－１－２０２,,27,301,6180002,,,,,,,2021-08-30,1,,,,,ビービー,0
2287,9122001035120,新規,0,2021-08-30,2021-08-30,株式会社Ｄｅ．Ｌｕｘ,,株式会社,大阪府,東大阪市,長栄寺２０番１３号ヨシキコーポラス２０４号,,27,227,5770055,,,,,,,2021-08-30,1,,,,,デラクス,0
2292,9140003016673,新規,0,2021-08-30,2021-08-30,合同会社ＢＲＯＴＨＥＲ’Ｓ,,合同会社,兵庫県,三田市,南が丘２丁目４番２１号,,28,219,6691535,,,,,,,2021-08-30,1,,,,,ブラザーズ,0
2297,9180001147608,新規,0,2021-08-30,2021-08-30,株式会社東和テクノ,,株式会社,愛知県,知多郡阿久比町,大字植大字寒行坊２７番地７,,23,441,4702216,,,,,,,2021-08-30,1,,,,,トウワテクノ,0
2302,9180005019415,新規,0,2021-08-30,2021-08-30,国際人材協力事業協同組合,,その他の設立登記法人,愛知県,名古屋市南区,道徳通１丁目１８番地２,,23,112,4570846,,,,,,,2021-08-30,1,,,,,コクサイジンザイキョウリョク,0
2317,9240001058501,新規,0,2021-08-30,2021-08-30,株式会社ＢｏｏｋＵｐ,,株式会社,広島県,広島市中区,南千田東町３番６－２０７号,,34,101,7300054,,,,,,,2021-08-30,1,,,,,ブックアップ,0
2336,9290005018331,新規,0,2021-08-30,2021-08-30,一般社団法人日本毛髪再生研究院,,その他の設立登記法人,福岡県,福岡市博多区,住吉４丁目４番２８号,,40,132,8120018,,,,,,,2021-08-30,1,,,,,ニホンモウハツサイセイケンキュウイン,0
2348,9330005010390,新規,0,2021-08-30,2021-08-30,一般社団法人ＨＡＬＯ,,その他の設立登記法人,熊本県,葦北郡芦北町,大字計石２９６３番地１,,43,482,8695453,,,,,,,2021-08-30,1,,,,,ハロー,0
2370,9430001084833,新規,0,2021-08-30,2021-08-30,アスカ・コア株式会社,,株式会社,北海道,札幌市中央区,南九条西４丁目３番１－２８０４号,,01,101,0640809,,,,,,,2021-08-30,1,,,,,アスカコア,0
2371,9430001084841,新規,0,2021-08-30,2021-08-30,株式会社神楽プランニング,,株式会社,北海道,余市郡余市町,黒川町８９５番地８,,01,408,0460003,,,,,,,2021-08-30,1,,,,,カグラプランニング,0
2372,9430003013088,新規,0,2021-08-30,2021-08-30,ａｐｉｉ　ｃｏｏｋ合同会社,,合同会社,北海道,札幌市中央区,南一条西１６丁目１番地３２３春野ビル３Ｆ,,01,101,0600061,,,,,,,2021-08-30,1,,,,,アピクック,0
2373,9430003013096,新規,0,2021-08-30,2021-08-30,コムズ合同会社,,合同会社,北海道,札幌市白石区,菊水元町二条１丁目４番１号,,01,104,0030822,,,,,,,2021-08-30,1,,,,,コムズ,0
2376,9470003002021,新規,0,2021-08-30,2021-08-30,合同会社未来相談所,,合同会社,香川県,観音寺市,柞田町甲２２６－４,,37,205,7680040,,,,,,,2021-08-30,1,,,,,ミライソウダンショ,0
