sequenceNumber,corporateNumber,process,correct,updateDate,changeDate,name,nameImageId,kind,prefectureName,cityName,streetNumber,addressImageId,prefectureCode,cityCode,postCode,addressOutside,addressOutsideImageId,closeDate,closeCause,successorCorporateNumber,changeCause,assignmentDate,latest,enName,enPrefectureName,enCityName,enAddressOutside,furigana,hihyoji
9,1010001241046,新規,0,2024-01-12,2024-01-12,日本興百世研究院株式会社,,株式会社,東京都,中央区,日本橋茅場町２丁目１７－６いづみハイツニュー茅場町６０３,,13,102,1030025,,,,,,,2024-01-12,1,,,,,ニホンコウヒャクセイケンキュウイン,0
10,1010001241384,新規,0,2024-01-12,2024-01-12,ＢＬＡＮＤＯＲ株式会社,,株式会社,東京都,中央区,銀座１丁目１２番４号Ｎ＆ＥＢＬＤ７階,,13,102,1040061,,,,,,,2024-01-12,1,,,,,ブランダー,0
11,1010001241401,新規,0,2024-01-12,2024-01-12,クレー株式会社,,株式会社,東京都,中央区,銀座１丁目１２－４Ｎ＆ＥＢＬＤ．７階,,13,102,1040061,,,,,,,2024-01-12,1,,,,,クレー,0
12,1010001241426,新規,0,2024-01-12,2024-01-12,ブリッジベイス株式会社,,株式会社,東京都,千代田区,三番町５番地１９,,13,101,1020075,,,,,,,2024-01-12,1,,,,,ブリッジベイス,0
16,1010003042599,新規,0,2024-01-12,2024-01-12,合同会社いいのや開発,,合同会社,東京都,文京区,本郷５丁目２９番１２号,,13,105,1130033,,,,,,,2024-01-12,1,,,,,イイノヤカイハツ,0
18,1010005037721,新規,0,2024-01-12,2024-01-12,札幌新発寒一般社団法人,,その他の設立登記法人,東京都,千代田区,平河町１丁目６番１５号シルスフィア会計事務所内,,13,101,1020093,,,,,,,2024-01-12,1,,,,,サッポロシンハッサム,0
19,1010101015960,新規,0,2024-01-12,2024-01-12,株式会社ＮＫＺＷ,,株式会社,東京都,八王子市,東中野１０３１番地５３,,13,201,1920351,,,,,,,2024-01-12,1,,,,,エヌケーズダブル,0
29,1010401179654,新規,0,2024-01-12,2024-01-12,株式会社ゼンプク,,株式会社,東京都,港区,赤坂８丁目４番７号アパートメントカーム５階Ａ,,13,103,1070052,,,,,,,2024-01-12,1,,,,,ゼンプク,0
30,1010401179662,新規,0,2024-01-12,2024-01-12,株式会社Ｍ＆Ｂ,,株式会社,東京都,港区,海岸３丁目１３番１－２０４号,,13,103,1080022,,,,,,,2024-01-12,1,,,,,エムアンドビー,0
31,1010401179720,新規,0,2024-01-12,2024-01-12,株式会社ＴＡアソシエイツジャパン２号,,株式会社,東京都,港区,白金台３丁目１０番１０号,,13,103,1080071,,,,,,,2024-01-12,1,,,,,ティーエーアソシエイツジャパンニゴウ,0
34,1010403031714,新規,0,2024-01-12,2024-01-12,合同会社グリーンパワー美浜,,合同会社,東京都,港区,赤坂１丁目１１番４４号赤坂インターシティ,,13,103,1070052,,,,,,,2024-01-12,1,,,,,グリーンパワーミハマ,0
35,1010405022827,新規,0,2024-01-12,2024-01-12,一般社団法人日本企業危機管理協議会,,その他の設立登記法人,東京都,港区,虎ノ門１丁目３番１号東京虎ノ門グローバルスクエア５階５２２号室,,13,103,1050001,,,,,,,2024-01-12,1,,,,,ニホンキギョウキキカンリキョウギカイ,0
36,1010405022843,新規,0,2024-01-12,2024-01-12,ヤマブキ一般社団法人,,その他の設立登記法人,東京都,港区,北青山１丁目２番３号,,13,103,1070061,,,,,,,2024-01-12,1,,,,,ヤマブキ,0
37,1010501051606,新規,0,2024-01-12,2024-01-12,株式会社ＬＩＮＤＡ,,株式会社,東京都,台東区,寿３丁目１０番５号１０１,,13,106,1110042,,,,,,,2024-01-12,1,,,,,リンダ,0
41,1010601064466,新規,0,2024-01-12,2024-01-12,株式会社ｗｏｗｐ,,株式会社,東京都,江東区,富岡２丁目１１－１８リードシー門前仲町４階,,13,108,1350047,,,,,,,2024-01-12,1,,,,,ワープ,0
42,1010603010575,新規,0,2024-01-12,2024-01-12,合同会社上進,,合同会社,東京都,江東区,門前仲町１丁目１６番１号アンシャンテ門前仲町２０１,,13,108,1350048,,,,,,,2024-01-12,1,,,,,ジョウシン,0
51,1010901054489,新規,0,2024-01-12,2024-01-12,株式会社Ｇｅｎｉｅｖｅｒｓｅ,,株式会社,東京都,世田谷区,奥沢５丁目１番１１号メゾンドジョワ２０２,,13,112,1580083,,,,,,,2024-01-12,1,,,,,ジニバース,0
52,1010901054514,新規,0,2024-01-12,2024-01-12,株式会社Ａｌｅ,,株式会社,東京都,世田谷区,池尻３丁目３０番５号アーバンドエル三宿１０５,,13,112,1540001,,,,,,,2024-01-12,1,,,,,エール,0
57,1011001159328,新規,0,2024-01-12,2024-01-12,株式会社ＳＨＥＬ,,株式会社,東京都,渋谷区,広尾３丁目５番２６号,,13,113,1500012,,,,,,,2024-01-12,1,,,,,シェル,0
58,1011001159344,新規,0,2024-01-12,2024-01-12,ナブラワークス株式会社,,株式会社,東京都,渋谷区,本町５丁目２８番８号,,13,113,1510071,,,,,,,2024-01-12,1,,,,,ナブラワークス,0
59,1011003018234,新規,0,2024-01-12,2024-01-12,合同会社ライスバードシネマ,,合同会社,東京都,渋谷区,神泉町１０番１５号アネックス神泉３０１,,13,113,1500045,,,,,,,2024-01-12,1,,,,,ライスバードシネマ,0
61,1011005010338,新規,0,2024-01-12,2024-01-12,一般社団法人ソフトウェアエンジニアリング協会,,その他の設立登記法人,東京都,渋谷区,神宮前６丁目２３番４号桑野ビル２階,,13,113,1500001,,,,,,,2024-01-12,1,,,,,ソフトウェアエンジニアリングキョウカイ,0
64,1011101105735,新規,0,2024-01-12,2024-01-12,株式会社ジャパンホリデー,,株式会社,東京都,新宿区,新宿１丁目３６－２新宿第七葉山ビル３Ｆ,,13,104,1600022,,,,,,,2024-01-12,1,,,,,ジャパンホリデー,0
65,1011101105743,新規,0,2024-01-12,2024-01-12,フューチャーレジェンド株式会社,,株式会社,東京都,新宿区,西新宿７丁目７番３０号,,13,104,1600023,,,,,,,2024-01-12,1,,,,,フューチャーレジェンド,0
66,1011103013944,新規,0,2024-01-12,2024-01-12,グロースインサイト合同会社,,合同会社,東京都,新宿区,西新宿６丁目５番１号新宿アイランドタワー２階,,13,104,1600023,,,,,,,2024-01-12,1,,,,,グロースインサイト,0
73,1011305002951,新規,0,2024-01-12,2024-01-12,一般財団法人ちかっぺ支援財団,,その他の設立登記法人,東京都,杉並区,西荻北２丁目３４番１８号,,13,115,1670042,,,,,,,2024-01-12,1,,,,,チカッペシエンザイダン,0
74,1011401025749,新規,0,2024-01-12,2024-01-12,株式会社ＭＡＲＵＹＡＭＡ,,株式会社,東京都,板橋区,高島平９丁目９番８号,,13,119,1750082,,,,,,,2024-01-12,1,,,,,マルヤマ,0
75,1011403004222,新規,0,2024-01-12,2024-01-12,合同会社ワイズネクスト,,合同会社,東京都,板橋区,桜川３丁目１９番６号,,13,119,1740075,,,,,,,2024-01-12,1,,,,,ワイズネクスト,0
77,1011501030178,新規,0,2024-01-12,2024-01-12,ＮＯＭＯＲＩ株式会社,,株式会社,東京都,荒川区,西尾久７丁目１１番１２－２Ｆ－Ｅ室,,13,118,1160011,,,,,,,2024-01-12,1,,,,,ノモリ,0
78,1011501030186,新規,0,2024-01-12,2024-01-12,株式会社ミスギ,,株式会社,東京都,荒川区,東日暮里６丁目３６番１０－３０１号,,13,118,1160014,,,,,,,2024-01-12,1,,,,,ミスギ,0
79,1011701026892,新規,0,2024-01-12,2024-01-12,株式会社Ｃｕｂｅ　Ｃｏｒｐｏｒａｔｉｏｎ,,株式会社,東京都,江戸川区,中葛西５丁目４１番１０号７階,,13,123,1340083,,,,,,,2024-01-12,1,,,,,キューブコーポレーション,0
80,1011801043623,新規,0,2024-01-12,2024-01-12,真成電設株式会社,,株式会社,東京都,足立区,鹿浜８丁目１１番１１号,,13,121,1230864,,,,,,,2024-01-12,1,,,,,シンセイデンセツ,0
86,1012301013728,新規,0,2024-01-12,2024-01-12,株式会社たびや,,株式会社,東京都,町田市,本町田１４８４番地,,13,209,1940032,,,,,,,2024-01-12,1,,,,,タビヤ,0
87,1012401041389,新規,0,2024-01-12,2024-01-12,ＴＳＢグリーンネックス株式会社,,株式会社,東京都,調布市,国領町５丁目５番１アイクビル,,13,208,1820022,,,,,,,2024-01-12,1,,,,,ティーエスビーグリーンネックス,0
88,1012403006357,新規,0,2024-01-12,2024-01-12,合同会社松,,合同会社,東京都,三鷹市,井口３丁目３番５号,,13,204,1810011,,,,,,,2024-01-12,1,,,,,マツ,0
91,1013301051899,新規,0,2024-01-12,2024-01-12,株式会社ＡＩＢ,,株式会社,東京都,豊島区,東池袋１丁目４４－２、７０４号,,13,116,1700013,,,,,,,2024-01-12,1,,,,,エーアイビー,0
98,1020001155179,新規,0,2024-01-12,2024-01-12,株式会社ひびかな,,株式会社,神奈川県,横浜市栄区,笠間５丁目１４番１１号,,14,115,2470006,,,,,,,2024-01-12,1,,,,,ヒビカナ,0
99,1020001155204,新規,0,2024-01-12,2024-01-12,株式会社三宅塗装,,株式会社,神奈川県,横浜市青葉区,青葉台１丁目１３番地１０,,14,117,2270062,,,,,,,2024-01-12,1,,,,,ミヤケトソウ,0
100,1020001155253,新規,0,2024-01-12,2024-01-12,株式会社ｉｎｉｔ,,株式会社,神奈川県,横浜市磯子区,汐見台１丁目２番地４・５１５号,,14,107,2350022,,,,,,,2024-01-12,1,,,,,イニット,0
101,1020001155261,新規,0,2024-01-12,2024-01-12,株式会社Ｇｅｎｅｒａｌ　Ｆｏｒｗａｒｄ,,株式会社,神奈川県,横浜市戸塚区,平戸５丁目３３－２３,,14,110,2440802,,,,,,,2024-01-12,1,,,,,ジェネラルフォーワード,0
102,1020001155286,新規,0,2024-01-12,2024-01-12,ＳＥＡ‐Ｂｉｚ株式会社,,株式会社,神奈川県,横浜市神奈川区,新町５－４ライオンズマンション神奈川新町第２‐０１０２号室,,14,102,2210043,,,,,,,2024-01-12,1,,,,,シービズ,0
103,1020003025314,新規,0,2024-01-12,2024-01-12,合同会社マンシツ,,合同会社,神奈川県,川崎市中原区,小杉御殿町２丁目１１６番地シカモア１０２,,14,133,2110068,,,,,,,2024-01-12,1,,,,,マンシツ,0
104,1020003025339,新規,0,2024-01-12,2024-01-12,合同会社山重商事,,合同会社,神奈川県,横浜市南区,浦舟町１丁目２番地１４カインドステージ横浜阪東橋５１２,,14,105,2320024,,,,,,,2024-01-12,1,,,,,ヤマシゲショウジ,0
105,1020003025347,新規,0,2024-01-12,2024-01-12,合同会社フォーマル,,合同会社,神奈川県,横浜市中区,相生町１丁目１７番地１パークビュー横浜ビル７階,,14,104,2310012,,,,,,,2024-01-12,1,,,,,フォーマル,0
106,1020005016253,新規,0,2024-01-12,2024-01-12,医療法人社団ＫＥＮＫＯ,,その他の設立登記法人,神奈川県,横浜市港北区,日吉本町４丁目１５番１１号,,14,109,2230062,,,,,,,2024-01-12,1,,,,,ケンコー,0
110,1021001081167,新規,0,2024-01-12,2024-01-12,Ｌｅｖｅｒｉｎｇ株式会社,,株式会社,神奈川県,平塚市,河内９４番地の２,,14,203,2540903,,,,,,,2024-01-12,1,,,,,リヴェリング,0
111,1021001081191,新規,0,2024-01-12,2024-01-12,株式会社虎嘯,,株式会社,神奈川県,鎌倉市,御成町１１番２号,,14,204,2480012,,,,,,,2024-01-12,1,,,,,コショウ,0
112,1021001081200,新規,0,2024-01-12,2024-01-12,株式会社ＮＯＶＥ　ＮＯＥＬ,,株式会社,神奈川県,愛甲郡愛川町,中津７２８７番地,,14,401,2430303,,,,,,,2024-01-12,1,,,,,ノーヴノエル,0
113,1021001081209,新規,0,2024-01-12,2024-01-12,株式会社ＴＡＢＩＣＨＯＫＩＮ,,株式会社,神奈川県,横須賀市,秋谷４３２１番地,,14,201,2400105,,,,,,,2024-01-12,1,,,,,タビチョキン,0
115,1021003013977,新規,0,2024-01-12,2024-01-12,ＳＵＮＬＩＧＨＴ合同会社,,合同会社,神奈川県,藤沢市,大鋸１２２６番地２Ｆ１０２号室,,14,205,2510002,,,,,,,2024-01-12,1,,,,,サンライト,0
120,1030001158049,新規,0,2024-01-12,2024-01-12,株式会社明安商会,,株式会社,埼玉県,熊谷市,板井１４２０番地,,11,202,3600105,,,,,,,2024-01-12,1,,,,,メイアンショウカイ,0
121,1030001158107,新規,0,2024-01-12,2024-01-12,株式会社ＫＩメンディング,,株式会社,埼玉県,川口市,川口５丁目１５番１７号,,11,203,3320015,,,,,,,2024-01-12,1,,,,,ケイアイメンディング,0
122,1030001158115,新規,0,2024-01-12,2024-01-12,株式会社ＦＩＤＥＳ,,株式会社,埼玉県,さいたま市南区,松本３丁目１３番５－２号,,11,108,3360035,,,,,,,2024-01-12,1,,,,,フィデス,0
123,1030001158123,新規,0,2024-01-12,2024-01-12,株式会社一陽埼玉,,株式会社,埼玉県,さいたま市西区,大字飯田４５３番地１,,11,101,3310058,,,,,,,2024-01-12,1,,,,,イチヨウサイタマ,0
124,1030001158131,新規,0,2024-01-12,2024-01-12,株式会社オールマイティコンサルティング,,株式会社,埼玉県,春日部市,小渕２５番地１５,,11,214,3440007,,,,,,,2024-01-12,1,,,,,オールマイティコンサルティング,0
126,1030003023390,新規,0,2024-01-12,2024-01-12,合同会社ホワイト急送,,合同会社,埼玉県,熊谷市,石原１０３６番地１３,,11,202,3600816,,,,,,,2024-01-12,1,,,,,ホワイトキュウソウ,0
127,1030005021525,新規,0,2024-01-12,2024-01-12,一般社団法人聴色‐ゆるしいろ‐傾聴協会,,その他の設立登記法人,埼玉県,新座市,野火止４丁目１３番１１号,,11,230,3520011,,,,,,,2024-01-12,1,,,,,ユルシイロケイチョウキョウカイ,0
132,1040001131665,新規,0,2024-01-12,2024-01-12,株式会社ＥＩＧＨＴ,,株式会社,千葉県,東金市,山田１２７２番地,,12,213,2830823,,,,,,,2024-01-12,1,,,,,エイト,0
133,1040001131698,新規,0,2024-01-12,2024-01-12,株式会社ＬｉｋｅＴｒｅｅ,,株式会社,千葉県,我孫子市,本町１丁目３番２９号,,12,222,2701151,,,,,,,2024-01-12,1,,,,,ライクツリー,0
135,1040003024090,新規,0,2024-01-12,2024-01-12,合同会社グッドピープル,,合同会社,千葉県,千葉市若葉区,高品町４６１番地１ファインビュー千葉８０６号,,12,104,2640024,,,,,,,2024-01-12,1,,,,,グッドピープル,0
139,1060001036730,新規,0,2024-01-12,2024-01-12,株式会社栃木緑林サービス,,株式会社,栃木県,大田原市,本町１丁目２７０１－１１サイトーバルコニー６０１,,09,210,3240041,,,,,,,2024-01-12,1,,,,,トチギリョクリンサービス,0
150,1080001026069,新規,0,2024-01-12,2024-01-12,Ｒｅｂｕｉｌｄｉｎｇ　ｗｉｔｈ　Ｎａｔｕｒｅ株式会社,,株式会社,静岡県,静岡市駿河区,上川原７番７３号,,22,102,4210132,,,,,,,2024-01-12,1,,,,,リビルディングウィズネイチャー,0
811,1110003005257,新規,0,2024-01-12,2024-01-12,アグリテック・クサマ合同会社,,合同会社,新潟県,上越市,とよば９５番地,,15,222,9430146,,,,,,,2024-01-12,1,,,,,アグリテッククサマ,0
821,1120001261140,新規,0,2024-01-12,2024-01-12,浩瀚株式会社,,株式会社,大阪府,大阪市中央区,日本橋１丁目２５－１６黒門グローリーハイツ５０４号,,27,128,5420073,,,,,,,2024-01-12,1,,,,,コウカン,0
822,1120001261215,新規,0,2024-01-12,2024-01-12,株式会社一心,,株式会社,大阪府,大阪市中央区,南新町１丁目３番１１号３０６号室,,27,128,5400024,,,,,,,2024-01-12,1,,,,,イッシン,0
823,1120001261223,新規,0,2024-01-12,2024-01-12,株式会社ＡＳＡＨＩ,,株式会社,大阪府,大阪市港区,南市岡２丁目１１番１２号,,27,107,5520011,,,,,,,2024-01-12,1,,,,,アサヒ,0
827,1120003025642,新規,0,2024-01-12,2024-01-12,合同会社文蔵,,合同会社,大阪府,大阪市港区,弁天１丁目２番１号,,27,107,5520007,,,,,,,2024-01-12,1,,,,,ブンゾウ,0
829,1120101068865,新規,0,2024-01-12,2024-01-12,株式会社アドバンクＳＰ,,株式会社,大阪府,岸和田市,上松町３５８番地の１７５,,27,202,5960827,,,,,,,2024-01-12,1,,,,,アドバンクエスピー,0
835,1120901048595,新規,0,2024-01-12,2024-01-12,株式会社Ｒａｉｓｅ　Ａｓｓｅｔ,,株式会社,大阪府,茨木市,主原町６番３１号丸吉ビル３Ａ号室,,27,211,5670897,,,,,,,2024-01-12,1,,,,,レイズアセット,0
836,1120901048612,新規,0,2024-01-12,2024-01-12,株式会社シェノングローバル,,株式会社,大阪府,摂津市,鳥飼銘木町１番４０号石富ビル１－Ｃ,,27,224,5660063,,,,,,,2024-01-12,1,,,,,シェノングローバル,0
837,1122001037710,新規,0,2024-01-12,2024-01-12,株式会社スギタ金属,,株式会社,大阪府,東大阪市,岩田４－１－１,,27,227,5770000,,,,,,,2024-01-12,1,,,,,スギタキンゾク,0
845,1140001132959,新規,0,2024-01-12,2024-01-12,株式会社治誠,,株式会社,兵庫県,尼崎市,南塚口町３丁目２７番４－７０４号,,28,202,6610012,,,,,,,2024-01-12,1,,,,,ジセイ,0
855,1150001026994,新規,0,2024-01-12,2024-01-12,ＴＨＲＥＥＬＩＮＥ株式会社,,株式会社,奈良県,奈良市,下三条町３６番地タケダビル３階北側,,29,201,6308236,,,,,,,2024-01-12,1,,,,,スリーライン,0
856,1150001027002,新規,0,2024-01-12,2024-01-12,宇野ワークス株式会社,,株式会社,奈良県,生駒郡三郷町,美松ケ丘東１丁目１０番７号,,29,343,6360805,,,,,,,2024-01-12,1,,,,,ウノワークス,0
857,1160001025632,新規,0,2024-01-12,2024-01-12,富士ＴＯＰ株式会社,,株式会社,滋賀県,湖南市,下田９００－２－１０３号,,25,211,5203201,,,,,,,2024-01-12,1,,,,,フジトップ,0
862,1170003001969,新規,0,2024-01-12,2024-01-12,合同会社ハイカ,,合同会社,和歌山県,橋本市,高野口町田原２１―３,,30,203,6497216,,,,,,,2024-01-12,1,,,,,ハイカ,0
867,1180001159668,新規,0,2024-01-12,2024-01-12,株式会社Ｍｉｔｓｕｄａ,,株式会社,愛知県,東海市,名和町緑陽台１番地（Ｃ５０１）,,23,222,4760002,,,,,,,2024-01-12,1,,,,,ミツダ,0
868,1180001159701,新規,0,2024-01-12,2024-01-12,銘木すずめや株式会社,,株式会社,愛知県,名古屋市南区,六条町１丁目１１番地,,23,112,4570853,,,,,,,2024-01-12,1,,,,,メイモクスズメヤ,0
873,1180005020487,新規,0,2024-01-12,2024-01-12,税理士法人オーグット,,その他の設立登記法人,愛知県,名古屋市中村区,名駅南２丁目７番８号,,23,105,4500003,,,,,,,2024-01-12,1,,,,,オーグット,0
884,1250003003404,新規,0,2024-01-12,2024-01-12,合同会社Ｓ‐ｗｅｅｄ,,合同会社,山口県,下関市,豊前田町２丁目８－９角田ビル,,35,201,7500018,,,,,,,2024-01-12,1,,,,,エスウィード,0
885,1260001038640,新規,0,2024-01-12,2024-01-12,株式会社テレット,,株式会社,岡山県,浅口市,金光町占見新田７９１番地５６,,33,216,7190104,,,,,,,2024-01-12,1,,,,,テレット,0
893,1290001104340,新規,0,2024-01-12,2024-01-12,株式会社ＹＢデザイン,,株式会社,福岡県,みやま市,瀬高町文廣１３７８番地１ボスココルテシーア２０５号室,,40,229,8350022,,,,,,,2024-01-12,1,,,,,ワイビーデザイン,0
903,1300003002061,新規,0,2024-01-12,2024-01-12,合同会社がじゅまる,,合同会社,佐賀県,唐津市,藤崎通６９２０番地４,,41,202,8470874,,,,,,,2024-01-12,1,,,,,ガジュマル,0
912,1320005010127,新規,0,2024-01-12,2024-01-12,医療法人緑生会,,その他の設立登記法人,大分県,大分市,大字森町５０１－１,,44,201,8700127,,,,,,,2024-01-12,1,,,,,リョクセイカイ,0
913,1330001031646,新規,0,2024-01-12,2024-01-12,株式会社フィジカルプラス,,株式会社,熊本県,熊本市北区,植木町滴水２２６３番地１,,43,105,8610133,,,,,,,2024-01-12,1,,,,,フィジカルプラス,0
916,1330003010152,新規,0,2024-01-12,2024-01-12,合同会社大江メディカル,,合同会社,熊本県,熊本市中央区,水前寺２丁目２１番１号,,43,101,8620950,,,,,,,2024-01-12,1,,,,,オオエメディカル,0
919,1340001026208,新規,0,2024-01-12,2024-01-12,株式会社ＴＣビジョン,,株式会社,鹿児島県,奄美市,名瀬和光町１７番地３,,46,222,8940007,,,,,,,2024-01-12,1,,,,,ティーシービジョン,0
920,1350001018749,新規,0,2024-01-12,2024-01-12,ｕｎｔｒａｃｅ株式会社,,株式会社,宮崎県,宮崎市,神宮東３丁目１番１５号ＳｐａｃｅＣｏｌｏｎｙ１Ｆ,,45,201,8800056,,,,,,,2024-01-12,1,,,,,アントレース,0
925,1360001033037,新規,0,2024-01-12,2024-01-12,株式会社ヒカリ,,株式会社,沖縄県,沖縄市,宮里２丁目２１番１号,,47,211,9042165,,,,,,,2024-01-12,1,,,,,ヒカリ,0
926,1360001033061,新規,0,2024-01-12,2024-01-12,株式会社トレーラーハウス,,株式会社,沖縄県,那覇市,泊３丁目６番地１０フレスコア泊ゆいポート１２０２,,47,201,9000012,,,,,,,2024-01-12,1,,,,,トレーラーハウス,0
927,1360003013565,新規,0,2024-01-12,2024-01-12,ＧｒｅｅｃｅＫｒｅｔａ　ＪａｐａｎＯｋｉｎａｗａ合同会社,,合同会社,沖縄県,中頭郡北中城村,字島袋１１６０番地２階,,47,327,9012301,,,,,,,2024-01-12,1,,,,,ギリシャクレタジャパンオキナワ,0
928,1360003013598,新規,0,2024-01-12,2024-01-12,ＫＭ　Ｉｎｔｅｒｎａｔｉｏｎａｌ　Ｔｒａｄｉｎｇ合同会社,,合同会社,沖縄県,うるま市,石川２丁目２９番４号,,47,213,9041106,,,,,,,2024-01-12,1,,,,,ケーエムインターナショナルトレーディング,0
929,1360003013607,新規,0,2024-01-12,2024-01-12,関口合同会社,,合同会社,沖縄県,名護市,字宮里９７１番地２－３０１号,,47,209,9050011,,,,,,,2024-01-12,1,,,,,セキグチ,0
934,1370003006444,新規,0,2024-01-12,2024-01-12,合同会社ダンク,,合同会社,宮城県,石巻市,貞山２丁目５番１６号Ｄ’ｓｇａｒａｇｅ１０１号,,04,202,9860851,,,,,,,2024-01-12,1,,,,,ダンク,0
943,1430001090847,新規,0,2024-01-12,2024-01-12,株式会社香音,,株式会社,北海道,札幌市東区,東苗穂十二条４丁目１５番１０号,,01,103,0070812,,,,,,,2024-01-12,1,,,,,カノン,0
959,1700150123314,新規,0,2024-01-12,2024-01-12,秋田県家畜人工授精師協会鹿角支部,,その他,秋田県,鹿角市,花輪字菩提野１－２,,05,209,0185201,,,,,,,2024-01-12,1,,,,,アキタケンカチクジンコウジュセイシキョウカイカヅノシブ,0
964,2010001241185,新規,0,2024-01-12,2024-01-12,ＦＡＶ　Ｒｅａｃｔｉｖｅ株式会社,,株式会社,東京都,中央区,新川２丁目１３－１１－１２０１,,13,102,1040033,,,,,,,2024-01-12,1,,,,,ファブリアクティブ,0
965,2010001241334,新規,0,2024-01-12,2024-01-12,株式会社ヨギオテジャパン,,株式会社,東京都,千代田区,神田駿河台２丁目１１番地７－３０６号ＵＰオフィス水道橋,,13,101,1010062,,,,,,,2024-01-12,1,,,,,ヨギオテジャパン,0
966,2010001241417,新規,0,2024-01-12,2024-01-12,エフ・ジェ・エム株式会社,,株式会社,東京都,中央区,銀座８丁目５番２２号,,13,102,1040061,,,,,,,2024-01-12,1,,,,,エフジェエム,0
967,2010001241433,新規,0,2024-01-12,2024-01-12,ピークスアセットマネジメント株式会社,,株式会社,東京都,中央区,銀座１丁目１２番４号Ｎ＆ＥＢＬＤ．７階,,13,102,1040061,,,,,,,2024-01-12,1,,,,,ピークスアセットマネジメント,0
968,2010003042631,新規,0,2024-01-12,2024-01-12,合同会社ウルバーノ,,合同会社,東京都,千代田区,丸の内３丁目１番１号東京共同会計事務所内,,13,101,1000005,,,,,,,2024-01-12,1,,,,,ウルバーノ,0
972,2010005037704,新規,0,2024-01-12,2024-01-12,税理士法人日本橋,,その他の設立登記法人,東京都,中央区,新川２丁目８番４号八重洲長岡ビル３階,,13,102,1040033,,,,,,,2024-01-12,1,,,,,ニホンバシ,0
978,2010401179686,新規,0,2024-01-12,2024-01-12,株式会社ｔｉｌｌ,,株式会社,東京都,港区,北青山１丁目３番１号アールキューブ青山３階,,13,103,1070061,,,,,,,2024-01-12,1,,,,,ティル,0
981,2010403031696,新規,0,2024-01-12,2024-01-12,Ａ．ｉ．ｅ合同会社,,合同会社,東京都,港区,南青山２丁目２番１５号,,13,103,1070062,,,,,,,2024-01-12,1,,,,,エーアイイー,0
982,2010403031738,新規,0,2024-01-12,2024-01-12,シネマトリック合同会社,,合同会社,東京都,港区,北青山１丁目３番１号アールキューブ青山３階,,13,103,1070061,,,,,,,2024-01-12,1,,,,,シネマトリック,0
985,2010405022859,新規,0,2024-01-12,2024-01-12,ＡＰ　ＪＮＲＰ２Ｃ特定目的会社,,その他の設立登記法人,東京都,港区,虎ノ門３丁目２２番１０－２０１号,,13,103,1050001,,,,,,,2024-01-12,1,,,,,エーピージェイエヌアールピーツーシー,0
987,2010503007299,新規,0,2024-01-12,2024-01-12,合同会社Ｌｕｍｉｎｏｕｓ,,合同会社,東京都,台東区,寿３丁目９－３丸大ビル３Ｆ－０９,,13,106,1110042,,,,,,,2024-01-12,1,,,,,ルミナス,0
988,2010603010574,新規,0,2024-01-12,2024-01-12,合同会社Ｋ‐ＬＯＮＧ,,合同会社,東京都,江東区,門前仲町１丁目８番地１２号,,13,108,1350048,,,,,,,2024-01-12,1,,,,,ケーロング,0
990,2010703007009,新規,0,2024-01-12,2024-01-12,合同会社オールリンク,,合同会社,東京都,品川区,南品川５丁目１６番７号Ｕ‐ｍａｋｅ南品川１Ｆ,,13,109,1400004,,,,,,,2024-01-12,1,,,,,オールリンク,0
998,2010901054505,新規,0,2024-01-12,2024-01-12,株式会社イーディス,,株式会社,東京都,世田谷区,池尻２丁目２５番１号,,13,112,1540001,,,,,,,2024-01-12,1,,,,,イーディス,0
999,2010901054521,新規,0,2024-01-12,2024-01-12,株式会社Ｂｌｕｅ　Ｂｌｏｓｓｏｍ,,株式会社,東京都,世田谷区,太子堂１丁目１２番２７号,,13,112,1540004,,,,,,,2024-01-12,1,,,,,ブルーブロッサム,0
1002,2010903008715,新規,0,2024-01-12,2024-01-12,ＫＭ　ＳＭＩＬＥ合同会社,,合同会社,東京都,世田谷区,玉川２丁目１４番２０号,,13,112,1580094,,,,,,,2024-01-12,1,,,,,ケイエムスマイル,0
1009,2011005010337,新規,0,2024-01-12,2024-01-12,一般社団法人日本サステナブルアーバンリビング推進協会,,その他の設立登記法人,東京都,目黒区,八雲２丁目１－１８,,13,110,1520023,,,,,,,2024-01-12,1,,,,,ニホンサステナブルアーバンリビングスイシンキョウカイ,0
1016,2011101105767,新規,0,2024-01-12,2024-01-12,アルビラ株式会社,,株式会社,東京都,新宿区,西早稲田１丁目２３番１６号,,13,104,1690051,,,,,,,2024-01-12,1,,,,,アルビラ,0
1021,2011201025155,新規,0,2024-01-12,2024-01-12,株式会社なな福,,株式会社,東京都,中野区,中野５丁目２６番３４－４０３号,,13,114,1640001,,,,,,,2024-01-12,1,,,,,ナナフク,0
1026,2011403004221,新規,0,2024-01-12,2024-01-12,合同会社響,,合同会社,東京都,板橋区,成増２丁目３３番７号,,13,119,1750094,,,,,,,2024-01-12,1,,,,,ヒビキ,0
1027,2011405002272,新規,0,2024-01-12,2024-01-12,Ｈａｎａｈ行政書士法人,,その他の設立登記法人,東京都,板橋区,志村１丁目３５番１０号,,13,119,1740056,,,,,,,2024-01-12,1,,,,,ハナ,0
1032,2011701026909,新規,0,2024-01-12,2024-01-12,株式会社アートボックスクリエイト,,株式会社,東京都,江戸川区,東葛西６丁目６－５スワームマンション２０１,,13,123,1340084,,,,,,,2024-01-12,1,,,,,アートボックスクリエイト,0
1033,2011703003708,新規,0,2024-01-12,2024-01-12,栄和合同会社,,合同会社,東京都,江戸川区,東小岩６丁目３番８号コモハウス東小岩２０１,,13,123,1330052,,,,,,,2024-01-12,1,,,,,エイワ,0
1034,2011801043614,新規,0,2024-01-12,2024-01-12,株式会社ＰＩＶＯＴ,,株式会社,東京都,足立区,千住旭町７番２５号,,13,121,1200026,,,,,,,2024-01-12,1,,,,,ピボット,0
1035,2012303001928,新規,0,2024-01-12,2024-01-12,合同会社ゼピュロス,,合同会社,東京都,町田市,中町３丁目２１番２２号辻ハイムＩＩ１０２号室,00133303,13,209,1940021,,,,,,,2024-01-12,1,,,,,ゼピュロス,0
1037,2012403006356,新規,0,2024-01-12,2024-01-12,ＪＥＫ合同会社,,合同会社,東京都,小金井市,東町１丁目３番２５号,,13,210,1840011,,,,,,,2024-01-12,1,,,,,ジェイイーケイ,0
1039,2012801022871,新規,0,2024-01-12,2024-01-12,株式会社平山建装,,株式会社,東京都,武蔵村山市,大南２丁目１４３－１,,13,223,2080013,,,,,,,2024-01-12,1,,,,,ヒラヤマケンソウ,0
1053,2020001155236,新規,0,2024-01-12,2024-01-12,株式会社アユダンテ,,株式会社,神奈川県,川崎市中原区,西加瀬１２番１４号サンメリーガーデン１０６,,14,133,2110024,,,,,,,2024-01-12,1,,,,,アユダンテ,0
1054,2020001155252,新規,0,2024-01-12,2024-01-12,株式会社イエスマン,,株式会社,神奈川県,横浜市中区,野毛町２丁目８７‐１‐４０６,,14,104,2310064,,,,,,,2024-01-12,1,,,,,イエスマン,0
1055,2020001155260,新規,0,2024-01-12,2024-01-12,株式会社ＭＯＴＯＭＡＣＨＩ花こ,,株式会社,神奈川県,横浜市中区,本牧間門１５番１４号,,14,104,2310825,,,,,,,2024-01-12,1,,,,,モトマチハナコ,0
1060,2020003025338,新規,0,2024-01-12,2024-01-12,Ｃｒｏｓｓ　Ｃｈｅｃｋ合同会社,,合同会社,神奈川県,横浜市港北区,師岡町３７２－１２パークハイム大倉山３０４,,14,109,2220002,,,,,,,2024-01-12,1,,,,,クロスチェック,0
1063,2021001081141,新規,0,2024-01-12,2024-01-12,株式会社カゼノハ,,株式会社,神奈川県,秦野市,落合５９４番地の１,,14,211,2570025,,,,,,,2024-01-12,1,,,,,カゼノハ,0
1064,2021001081158,新規,0,2024-01-12,2024-01-12,株式会社鴨志田設備,,株式会社,神奈川県,足柄下郡湯河原町,中央５丁目５番地１５,,14,384,2590301,,,,,,,2024-01-12,1,,,,,カモシダセツビ,0
1066,2021003013992,新規,0,2024-01-12,2024-01-12,合同会社希アソシエ,,合同会社,神奈川県,小田原市,曽我岸１９８番地,,14,206,2500203,,,,,,,2024-01-12,1,,,,,ノゾミアソシエ,0
1071,2030001158122,新規,0,2024-01-12,2024-01-12,株式会社ＭＩＫＩ,,株式会社,埼玉県,ふじみ野市,西１丁目１４番２４－４１１号,,11,245,3560005,,,,,,,2024-01-12,1,,,,,ミキ,0
1072,2030001158147,新規,0,2024-01-12,2024-01-12,株式会社ＳＫａｌｐｈａ,,株式会社,埼玉県,川越市,大字山田１６２１－１モンドビル１Ｆ,,11,201,3500822,,,,,,,2024-01-12,1,,,,,エスケイアルファ,0
1074,2030003023340,新規,0,2024-01-12,2024-01-12,合同会社ＹＫＴキャピタル,,合同会社,埼玉県,川口市,前川２丁目１５番１号,,11,203,3330842,,,,,,,2024-01-12,1,,,,,ワイケイティーキャピタル,0
1075,2030003023373,新規,0,2024-01-12,2024-01-12,Ｇテレコム合同会社,,合同会社,埼玉県,熊谷市,西別府２０３９番地３,,11,202,3600857,,,,,,,2024-01-12,1,,,,,ジーテレコム,0
1082,2040001131656,新規,0,2024-01-12,2024-01-12,セルズ株式会社,,株式会社,千葉県,習志野市,藤崎１丁目８番６号,,12,216,2750017,,,,,,,2024-01-12,1,,,,,セルズ,0
1083,2040001131664,新規,0,2024-01-12,2024-01-12,株式会社健丸,,株式会社,千葉県,銚子市,長崎町１０７８５番地の１２,,12,202,2880013,,,,,,,2024-01-12,1,,,,,タケマル,0
1084,2040001131697,新規,0,2024-01-12,2024-01-12,シュン株式会社,,株式会社,千葉県,柏市,あけぼの２丁目９番２０－Ａ５０３号,,12,217,2770841,,,,,,,2024-01-12,1,,,,,シュン,0
1087,2040003024065,新規,0,2024-01-12,2024-01-12,合同会社ＡＫＫＵ　ＧＲＯＵＰ,,合同会社,千葉県,習志野市,秋津２丁目５番１－４０５号,,12,216,2750025,,,,,,,2024-01-12,1,,,,,アックグループ,0
1088,2040003024081,新規,0,2024-01-12,2024-01-12,合同会社ＤＩＥＭ,,合同会社,千葉県,南房総市,宮下３３１番地,,12,234,2992505,,,,,,,2024-01-12,1,,,,,デエム,0
1089,2040005022240,新規,0,2024-01-12,2024-01-12,一般社団法人ツナグ,,その他の設立登記法人,千葉県,柏市,若柴３４１番地５,,12,217,2770871,,,,,,,2024-01-12,1,,,,,ツナグ,0
1097,2060001036713,新規,0,2024-01-12,2024-01-12,株式会社福蓮,,株式会社,栃木県,足利市,芳町５６番地春山ビル１Ｆ,,09,202,3260035,,,,,,,2024-01-12,1,,,,,フクレン,0
1108,2080101024467,新規,0,2024-01-12,2024-01-12,株式会社石川工業,,株式会社,静岡県,富士市,天間１０５２番５号,,22,210,4190205,,,,,,,2024-01-12,1,,,,,イシカワコウギョウ,0
1760,2100001037120,新規,0,2024-01-12,2024-01-12,株式会社北川,,株式会社,長野県,松本市,大字笹賀４２９８番地３,,20,202,3990033,,,,,,,2024-01-12,1,,,,,キタガワ,0
1763,2110001038084,新規,0,2024-01-12,2024-01-12,株式会社ＫＩＣＫ’ｓ,,株式会社,新潟県,三条市,西潟１４番２１号,,15,204,9550014,,,,,,,2024-01-12,1,,,,,キックス,0
1771,2120001261189,新規,0,2024-01-12,2024-01-12,日迷株式会社,,株式会社,大阪府,大阪市阿倍野区,晴明通１２－３０,,27,119,5450032,,,,,,,2024-01-12,1,,,,,ニチメイ,0
1772,2120001261206,新規,0,2024-01-12,2024-01-12,株式会社ＬＩＮＫ,,株式会社,大阪府,大阪市淀川区,加島２丁目５番１３号,,27,123,5320031,,,,,,,2024-01-12,1,,,,,リンク,0
1773,2120001261222,新規,0,2024-01-12,2024-01-12,株式会社ＮＯ　ＮＡＭＥ,,株式会社,大阪府,大阪市北区,堂島１丁目２番２３ベガアークビル３０２,,27,127,5300003,,,,,,,2024-01-12,1,,,,,ノーネイム,0
1774,2120001261230,新規,0,2024-01-12,2024-01-12,株式会社Ｉｎ‐ｐｒｏｖｅ,,株式会社,大阪府,大阪市住之江区,南加賀屋２丁目１番２９－３０８号,,27,125,5590015,,,,,,,2024-01-12,1,,,,,インプルーブ,0
1775,2120001261247,新規,0,2024-01-12,2024-01-12,株式会社小西,,株式会社,大阪府,大阪市北区,堂島１丁目３番３４号第２京松ビル２階,,27,127,5300003,,,,,,,2024-01-12,1,,,,,コニシ,0
1776,2120001261338,新規,0,2024-01-12,2024-01-12,株式会社ライブレート,,株式会社,大阪府,大阪市中央区,本町２丁目３番４号アソルティ本町４Ｆ,,27,128,5410053,,,,,,,2024-01-12,1,,,,,ライブレート,0
1777,2120003025625,新規,0,2024-01-12,2024-01-12,ｒａｉｓｅ合同会社,,合同会社,大阪府,大阪市西区,阿波座１丁目１１番１９号新興ビル４階Ｄ１－２号室,,27,106,5500011,,,,,,,2024-01-12,1,,,,,レイズ,0
1778,2120003025641,新規,0,2024-01-12,2024-01-12,合同会社Ａｕｍｅｎｔｏ,,合同会社,大阪府,大阪市中央区,東高麗橋４番３号,,27,128,5400039,,,,,,,2024-01-12,1,,,,,アウメント,0
1781,2120101068864,新規,0,2024-01-12,2024-01-12,株式会社藤正,,株式会社,大阪府,羽曳野市,はびきの４丁目２１番１７号,,27,222,5830872,,,,,,,2024-01-12,1,,,,,フジショウ,0
1785,2122001037726,新規,0,2024-01-12,2024-01-12,株式会社はるま,,株式会社,大阪府,四條畷市,中野１丁目５番１０号,,27,229,5750052,,,,,,,2024-01-12,1,,,,,ハルマ,0
1786,2122003002769,新規,0,2024-01-12,2024-01-12,合同会社アクシオ,,合同会社,大阪府,大東市,三住町１６－３フジパレス三住町Ａ棟１０３号室,,27,218,5740027,,,,,,,2024-01-12,1,,,,,アクシオ,0
1796,2150003003165,新規,0,2024-01-12,2024-01-12,ＳＫＹどりーむ合同会社,,合同会社,奈良県,天理市,石上町４９０番地,,29,204,6320011,,,,,,,2024-01-12,1,,,,,スカイドリーム,0
1797,2160001025623,新規,0,2024-01-12,2024-01-12,株式会社エレアライフ,,株式会社,滋賀県,東近江市,躰光寺町１４７５番地リュミエール１０２号室,,25,213,5211205,,,,,,,2024-01-12,1,,,,,エレアライフ,0
1799,2170001017966,新規,0,2024-01-12,2024-01-12,株式会社角谷工業,00133308,株式会社,和歌山県,和歌山市,湊４丁目２４８８番１１,,30,201,6408404,,,,,,,2024-01-12,1,,,,,スミヤコウギョウ,0
1804,2180001159650,新規,0,2024-01-12,2024-01-12,株式会社良構造計画,,株式会社,愛知県,名古屋市千種区,西山元町３丁目５番地の４,,23,101,4640063,,,,,,,2024-01-12,1,,,,,リョウコウゾウケイカク,0
1805,2180001159659,新規,0,2024-01-12,2024-01-12,株式会社Ｓｐｒｉｎｇ　Ｄａｙ,,株式会社,愛知県,丹羽郡扶桑町,大字斎藤字本郷屋敷１４１番地１,,23,362,4800104,,,,,,,2024-01-12,1,,,,,スプリングデイ,0
1806,2180001159709,新規,0,2024-01-12,2024-01-12,株式会社菊一工務店,,株式会社,愛知県,名古屋市千種区,今池２丁目１５番１４号（ＬＩＦＥ＆ＳＡＶＡ１０１号）,,23,101,4640850,,,,,,,2024-01-12,1,,,,,キクイチコウムテン,0
1807,2180001159733,新規,0,2024-01-12,2024-01-12,株式会社ゴールドウィング,,株式会社,愛知県,瀬戸市,水無瀬町１３７番地の３,,23,204,4890872,,,,,,,2024-01-12,1,,,,,ゴールドウィング,0
1808,2180001159741,新規,0,2024-01-12,2024-01-12,株式会社ｂｏｎｏｂｏｓ,,株式会社,愛知県,名古屋市西区,那古野２丁目１９番２３号ＺＥＲＯ－ＮＥＸＴ二階Ｅ号,,23,104,4510042,,,,,,,2024-01-12,1,,,,,ボノボス,0
1812,2180005020486,新規,0,2024-01-12,2024-01-12,弁護士法人東大手法律事務所,,その他の設立登記法人,愛知県,名古屋市西区,城西５丁目４番６号１階,,23,104,4510031,,,,,,,2024-01-12,1,,,,,ヒガシオオテホウリツジムショ,0
1814,2180301038208,新規,0,2024-01-12,2024-01-12,ＴＡＫＡＮＯ株式会社,,株式会社,愛知県,額田郡幸田町,大字深溝字稲葉山３９番地１８,00133304,23,501,4440124,,,,,,,2024-01-12,1,,,,,タカノ,0
1816,2180303005973,新規,0,2024-01-12,2024-01-12,ＴＯＭＯＺＯ　ＳＨＯＰ合同会社,,合同会社,愛知県,豊橋市,往完町字郷社東８２番地２,,23,201,4418082,,,,,,,2024-01-12,1,,,,,トモゾーショップ,0
1817,2190001031024,新規,0,2024-01-12,2024-01-12,北村興業株式会社,,株式会社,三重県,津市,垂水２００６番地１５,,24,201,5140821,,,,,,,2024-01-12,1,,,,,キタムラコウギョウ,0
1820,2200001042060,新規,0,2024-01-12,2024-01-12,株式会社ＧＴエンジニアズ,,株式会社,岐阜県,岐阜市,楠町１丁目２０番地２,,21,201,5020826,,,,,,,2024-01-12,1,,,,,ジーティーエンジニアズ,0
1825,2220001025773,新規,0,2024-01-12,2024-01-12,株式会社山崎屋ホールディングス,,株式会社,石川県,金沢市,藤江南２丁目４１番地,,17,201,9200346,,,,,,,2024-01-12,1,,,,,ヤマザキヤホールディングス,0
1827,2230005009359,新規,0,2024-01-12,2024-01-12,ＮＰＯ法人ダイバーシティこどもの家,,その他の設立登記法人,富山県,魚津市,吉島１０９５－１１,,16,204,9370041,,,,,,,2024-01-12,1,,,,,ダイバーシティコドモノイエ,0
1830,2240001062633,新規,0,2024-01-12,2024-01-12,株式会社アペリオン,,株式会社,広島県,廿日市市,四季が丘１０丁目３番地３,,34,213,7380036,,,,,,,2024-01-12,1,,,,,アペリオン,0
1831,2240001062666,新規,0,2024-01-12,2024-01-12,フードテック株式会社,,株式会社,広島県,広島市西区,草津港１丁目４番２１号,,34,104,7330832,,,,,,,2024-01-12,1,,,,,フードテック,0
1834,2240003006489,新規,0,2024-01-12,2024-01-12,ソクラテスアカデミー合同会社,,合同会社,広島県,広島市佐伯区,美鈴が丘西１丁目１番７－４２０６号,,34,108,7315114,,,,,,,2024-01-12,1,,,,,ソクラテスアカデミー,0
1835,2250001020474,新規,0,2024-01-12,2024-01-12,オカムラｅ‐ｔｅｃｈ株式会社,,株式会社,山口県,岩国市,岩国１丁目１５番３５号,,35,208,7410062,,,,,,,2024-01-12,1,,,,,オカムライーテック,0
1838,2260001038648,新規,0,2024-01-12,2024-01-12,株式会社ゼンシン,,株式会社,岡山県,岡山市北区,東古松３丁目３番１０号アルファステイツ２０１号,,33,101,7000921,,,,,,,2024-01-12,1,,,,,ゼンシン,0
1842,2260005011304,新規,0,2024-01-12,2024-01-12,大日山遍照寺,,その他の設立登記法人,岡山県,岡山市南区,妹尾１５６５番地４,,33,104,7010205,,,,,,,2024-01-12,1,,,,,ダイニチザンヘンジョウジ,0
1846,2290001104348,新規,0,2024-01-12,2024-01-12,株式会社ちきゅう,,株式会社,福岡県,福岡市早良区,昭代３丁目１３番１０号,,40,137,8140012,,,,,,,2024-01-12,1,,,,,チキュウ,0
1852,2290005019229,新規,0,2024-01-12,2024-01-12,一般社団法人質量分析オミクス研究会,,その他の設立登記法人,福岡県,福岡市東区,馬出３丁目１－１,,40,131,8120054,,,,,,,2024-01-12,1,,,,,シツリョウブンセキオミクスケンキュウカイ,0
1853,2290005019253,新規,0,2024-01-12,2024-01-12,土地家屋調査士法人福岡合同事務所,,その他の設立登記法人,福岡県,福岡市中央区,赤坂１丁目１５番１５号,,40,133,8100042,,,,,,,2024-01-12,1,,,,,フクオカゴウドウジムショ,0
1858,2300003002060,新規,0,2024-01-12,2024-01-12,合同会社グッドブライト,,合同会社,佐賀県,嬉野市,嬉野町大字下野丙１７１０番地,,41,209,8430302,,,,,,,2024-01-12,1,,,,,グッドブライト,0
1874,2330001031637,新規,0,2024-01-12,2024-01-12,株式会社茂順商事,,株式会社,熊本県,熊本市北区,植木町滴水７２番１,,43,105,8610133,,,,,,,2024-01-12,1,,,,,モリジュンショウジ,0
1875,2330001031645,新規,0,2024-01-12,2024-01-12,株式会社はじめの一歩,,株式会社,熊本県,熊本市北区,室園町１６番６０号,,43,105,8618072,,,,,,,2024-01-12,1,,,,,ハジメノイッポ,0
1876,2330003010151,新規,0,2024-01-12,2024-01-12,恒松農産合同会社,,合同会社,熊本県,球磨郡あさぎり町,須恵９２４番地,,43,514,8680451,,,,,,,2024-01-12,1,,,,,ツネマツノウサン,0
1879,2340001026215,新規,0,2024-01-12,2024-01-12,株式会社Ｅ‐ＬＩＮＫ,,株式会社,鹿児島県,鹿屋市,串良町有里１３７６番地,,46,203,8931602,,,,,,,2024-01-12,1,,,,,イーリンク,0
1893,2360001033052,新規,0,2024-01-12,2024-01-12,株式会社久葉山コーポレーション,,株式会社,沖縄県,宮古島市,平良字松原８４番地２,,47,214,9060014,,,,,,,2024-01-12,1,,,,,クバヤマコーポレーション,0
1896,2360003013597,新規,0,2024-01-12,2024-01-12,Ｋ・Ｙ不動産合同会社,,合同会社,沖縄県,中頭郡北谷町,字桑江３０３番地シャトレキャロル３０１号,,47,326,9040103,,,,,,,2024-01-12,1,,,,,ケイワイフドウサン,0
1898,2360005006970,新規,0,2024-01-12,2024-01-12,沖縄南部生産事業協同組合,,その他の設立登記法人,沖縄県,糸満市,潮崎町３丁目２３－７,,47,210,9010364,,,,,,,2024-01-12,1,,,,,オキナワナンブセイサン,0
1907,2380003005659,新規,0,2024-01-12,2024-01-12,合同会社ＫＬＩＮＥ,,合同会社,福島県,いわき市,佐糠町１丁目１３番地１３,,07,204,9748223,,,,,,,2024-01-12,1,,,,,ケーライン,0
1916,2430001090846,新規,0,2024-01-12,2024-01-12,株式会社レズルタート,,株式会社,北海道,札幌市中央区,南一条西１丁目１５－３－３Ｆ　ＬＩＧＨＴ　ＯＦＦＩＣＥ,,01,101,0600061,,,,,,,2024-01-12,1,,,,,レズルタート,0
1917,2430001090854,新規,0,2024-01-12,2024-01-12,株式会社Ｄｅｎｅｂ,,株式会社,北海道,札幌市西区,平和二条３丁目１１番２１号,,01,107,0630022,,,,,,,2024-01-12,1,,,,,デネブ,0
1925,2500001025398,新規,0,2024-01-12,2024-01-12,株式会社南海美容室,,株式会社,愛媛県,松山市,針田町２３６番地２,,38,201,7900055,,,,,,,2024-01-12,1,,,,,ナンカイビヨウシツ,0
1930,2700150123313,新規,0,2024-01-12,2024-01-12,ｓｈａｎｇｈａｉｊｉｕｙｕａｎｓｈｉｐｉｎｙｏｕｘｉａｎｇｏｎｇｓｉ,,外国会社等,,,,,,,,Ｒｏｏｍ　５２７５，Ｂｕｉｌｄｉｎｇ　１，Ｎｏ　１－３８，Ｌａｎｅ　１２３，Ｔｏｎｇｆａ　Ｒｏａｄ，Ｌａｏｇａｎｇ　Ｔｏｗｎ，Ｐｕｄｏｎｇｘｉｎ　Ｄｉｓｔｒｉｃｔ，Ｓｈａｎｇｈａｉ,,,,,,2024-01-12,1,,,,,シャンハイキュウゲンショクヒンユウゲンコウシ,0
1937,3010001241119,新規,0,2024-01-12,2024-01-12,ｘ株式会社,,株式会社,東京都,中央区,銀座３丁目１３－１９京喬ビル３Ｆ,,13,102,1040061,,,,,,,2024-01-12,1,,,,,エックス,0
1938,3010001241300,新規,0,2024-01-12,2024-01-12,ＲＳ＆パートナーズ株式会社,,株式会社,東京都,千代田区,丸の内１丁目１１番１号パシフィックセンチュリープレイス丸の内８階,,13,101,1000005,,,,,,,2024-01-12,1,,,,,アールエスアンドパートナーズ,0
1939,3010001241366,新規,0,2024-01-12,2024-01-12,株式会社ＭＡＶＩＥ,,株式会社,東京都,千代田区,外神田３丁目７番３号オクミヤ興産ビル４階Ｃ号,,13,101,1010021,,,,,,,2024-01-12,1,,,,,メヴィ,0
1940,3010001241382,新規,0,2024-01-12,2024-01-12,株式会社カハラ,,株式会社,東京都,千代田区,九段北２丁目３番７号,,13,101,1020073,,,,,,,2024-01-12,1,,,,,カハラ,0
1941,3010001241390,新規,0,2024-01-12,2024-01-12,株式会社ロゴラボ,,株式会社,東京都,中央区,一丁目５番２０号東京建物八重洲さくら通りビル１Ｆ,,13,102,1030000,,,,,,,2024-01-12,1,,,,,ロゴラボ,0
1942,3010001241416,新規,0,2024-01-12,2024-01-12,株式会社マルヨシ商会,,株式会社,東京都,中央区,晴海１丁目８番７－１００２号,,13,102,1040053,,,,,,,2024-01-12,1,,,,,マルヨシショウカイ,0
1943,3010001241457,新規,0,2024-01-12,2024-01-12,株式会社懸谷直弓,,株式会社,東京都,中央区,築地４丁目１４番１号モンテベルデ築地７０６,,13,102,1040045,,,,,,,2024-01-12,1,,,,,カケヤナユ,0
1946,3010003042630,新規,0,2024-01-12,2024-01-12,３Ｓｐｉｒｉｔ合同会社,,合同会社,東京都,中央区,築地２丁目６番２号カルム築地１０２,,13,102,1040045,,,,,,,2024-01-12,1,,,,,スリースピリット,0
1947,3010003042639,新規,0,2024-01-12,2024-01-12,合同会社ＴＫ,,合同会社,東京都,中央区,日本橋小網町１０－２日本橋フジビル５階,,13,102,1030016,,,,,,,2024-01-12,1,,,,,ティーケー,0
1950,3010101015959,新規,0,2024-01-12,2024-01-12,デジタルクリエイティブ株式会社,,株式会社,東京都,八王子市,子安町４丁目２３番８号坂本ビル２０２号,,13,201,1920904,,,,,,,2024-01-12,1,,,,,デジタルクリエイティブ,0
1951,3010105002243,新規,0,2024-01-12,2024-01-12,一般社団法人ＬＩＦＥ＆ＢＡＬＬ,,その他の設立登記法人,東京都,八王子市,長沼町１９８番地２８チェリーハイム１０５号,,13,201,1920907,,,,,,,2024-01-12,1,,,,,ライフアンドボール,0
1958,3010401179660,新規,0,2024-01-12,2024-01-12,株式会社Ｍ　Ｓｅｌｆｉｓｈ,,株式会社,東京都,港区,虎ノ門４丁目３番１号城山トラストタワー２７階,,13,103,1050001,,,,,,,2024-01-12,1,,,,,エムセルフィッシュ,0
1959,3010401179669,新規,0,2024-01-12,2024-01-12,株式会社日本カーアフターサポート,,株式会社,東京都,港区,西新橋１丁目２番９号,,13,103,1050003,,,,,,,2024-01-12,1,,,,,ニホンカーアフターサポート,0
1960,3010401179719,新規,0,2024-01-12,2024-01-12,株式会社ＴＡアソシエイツジャパン１号,,株式会社,東京都,港区,白金台３丁目１０番１０号,,13,103,1080071,,,,,,,2024-01-12,1,,,,,ティーエーアソシエイツジャパンイチゴウ,0
1962,3010403031704,新規,0,2024-01-12,2024-01-12,合同会社ヤマブキ,,合同会社,東京都,港区,北青山１丁目２番３号,,13,103,1070061,,,,,,,2024-01-12,1,,,,,ヤマブキ,0
1963,3010403031712,新規,0,2024-01-12,2024-01-12,合同会社ｉｃａｒｉａｎ,,合同会社,東京都,港区,海岸３丁目１７－８マリンベルコート５０３,,13,103,1080022,,,,,,,2024-01-12,1,,,,,アイキャリアン,0
1968,3010501051579,新規,0,2024-01-12,2024-01-12,株式会社アローズプロパティーサービス,,株式会社,東京都,台東区,上野７丁目４－９細田ビル６階,,13,106,1100005,,,,,,,2024-01-12,1,,,,,アローズプロパティーサービス,0
1969,3010501051604,新規,0,2024-01-12,2024-01-12,株式会社鳳凰社,,株式会社,東京都,台東区,北上野２丁目３０番９号鳳凰ビル１Ｆ,,13,106,1100014,,,,,,,2024-01-12,1,,,,,ホウオウシャ,0
1970,3010501051620,新規,0,2024-01-12,2024-01-12,恒利株式会社,,株式会社,東京都,台東区,浅草２丁目１７番３号－２０２,,13,106,1110032,,,,,,,2024-01-12,1,,,,,コウリ,0
1986,3011001159152,新規,0,2024-01-12,2024-01-12,株式会社ＧＯ　ＯＵＴ,,株式会社,東京都,渋谷区,西原３丁目４７－９ペアシティ代々木西原アデニウム１０２号,,13,113,1510066,,,,,,,2024-01-12,1,,,,,ゴーアウト,0
1987,3011001159326,新規,0,2024-01-12,2024-01-12,ソナエ株式会社,,株式会社,東京都,渋谷区,鶯谷町２番３号,,13,113,1500032,,,,,,,2024-01-12,1,,,,,ソナエ,0
1988,3011001159334,新規,0,2024-01-12,2024-01-12,株式会社Ｅｍｂｅｒ,,株式会社,東京都,渋谷区,広尾２丁目１１番１０号ｈｉｒｏｏＴＨＥＶＩＬＬＡ２０２,,13,113,1500012,,,,,,,2024-01-12,1,,,,,エンバー,0
1989,3011001159342,新規,0,2024-01-12,2024-01-12,株式会社Ｏｌｉｖｅｒ,,株式会社,東京都,渋谷区,恵比寿３丁目４２番１号Ｋ＆Ｍ広尾４０５,,13,113,1500013,,,,,,,2024-01-12,1,,,,,オリバー,0
1991,3011101105758,新規,0,2024-01-12,2024-01-12,ＫＡＮＡＭＡ株式会社,,株式会社,東京都,新宿区,西新宿７丁目５番５号ｐｌａｚａ西新宿ＵＦＣ４０６,,13,104,1600023,,,,,,,2024-01-12,1,,,,,カナマ,0
1992,3011101105766,新規,0,2024-01-12,2024-01-12,株式会社ＭＨＲコンサルティング,,株式会社,東京都,新宿区,新宿１丁目２４番１号大塚ビル４階,,13,104,1600022,,,,,,,2024-01-12,1,,,,,エムエイチアールコンサルティング,0
1993,3011101105774,新規,0,2024-01-12,2024-01-12,株式会社デアゼイン・コンサルティング,,株式会社,東京都,新宿区,新宿４丁目３番１５号レイフラット新宿Ｂ棟３Ｆ,,13,104,1600022,,,,,,,2024-01-12,1,,,,,デアゼインコンサルティング,0
1995,3011103013926,新規,0,2024-01-12,2024-01-12,モテアカデミー合同会社,,合同会社,東京都,新宿区,新宿２丁目１５番１５－６０３号,,13,104,1600022,,,,,,,2024-01-12,1,,,,,モテアカデミー,0
1996,3011103013950,新規,0,2024-01-12,2024-01-12,エスポワール合同会社,,合同会社,東京都,新宿区,歌舞伎町１丁目２番１３号新光ビル６階,,13,104,1600021,,,,,,,2024-01-12,1,,,,,エスポワール,0
2000,3011301029286,新規,0,2024-01-12,2024-01-12,株式会社ネクスト・ビューティー,,株式会社,東京都,杉並区,永福４丁目２５番１４号リノア永福町２０３,,13,115,1680064,,,,,,,2024-01-12,1,,,,,ネクストビューティー,0
2005,3011501030176,新規,0,2024-01-12,2024-01-12,株式会社リムアビアン,,株式会社,東京都,北区,滝野川２丁目１０番１４号カーサアルスール１０１,,13,117,1140023,,,,,,,2024-01-12,1,,,,,リムアビアン,0
2009,3011703003707,新規,0,2024-01-12,2024-01-12,ライトシーマネジメント合同会社,,合同会社,東京都,江戸川区,上篠崎２丁目１２番１７号,,13,123,1330054,,,,,,,2024-01-12,1,,,,,ライトシーマネジメント,0
2013,3012401041395,新規,0,2024-01-12,2024-01-12,株式会社惣流商会,,株式会社,東京都,三鷹市,上連雀８丁目２‐２３クレール三鷹１０１,,13,204,1810012,,,,,,,2024-01-12,1,,,,,ソウリュウショウカイ,0
2015,3012403006355,新規,0,2024-01-12,2024-01-12,合同会社どもんじゅ,,合同会社,東京都,狛江市,元和泉１丁目１３番９号,,13,219,2010013,,,,,,,2024-01-12,1,,,,,ドモンジュ,0
2016,3013101009328,新規,0,2024-01-12,2024-01-12,株式会社大村工業,,株式会社,東京都,青梅市,河辺町１０丁目８－５－１３０５号,,13,205,1980036,,,,,,,2024-01-12,1,,,,,オオムラコウギョウ,0
2018,3013301051897,新規,0,2024-01-12,2024-01-12,日本事業承継支援機構株式会社,,株式会社,東京都,豊島区,北大塚１丁目１９番１２号,,13,116,1700004,,,,,,,2024-01-12,1,,,,,ニホンジギョウショウケイシエンキコウ,0
2029,3020001155251,新規,0,2024-01-12,2024-01-12,株式会社ゼロステップ,,株式会社,神奈川県,横浜市旭区,川井宿町６２番地１４,,14,112,2410804,,,,,,,2024-01-12,1,,,,,ゼロステップ,0
2032,3020003025320,新規,0,2024-01-12,2024-01-12,ＶＡＮ合同会社,,合同会社,神奈川県,横浜市戸塚区,矢部町７５６－２２,,14,110,2440002,,,,,,,2024-01-12,1,,,,,バン,0
2033,3020005016251,新規,0,2024-01-12,2024-01-12,税理士法人舟倉税務会計事務所,,その他の設立登記法人,神奈川県,横浜市神奈川区,台町７番地２フジタハイツ横浜４１１,,14,102,2210834,,,,,,,2024-01-12,1,,,,,フナクラゼイムカイケイジムショ,0
2035,3021001081207,新規,0,2024-01-12,2024-01-12,株式会社プレシャス,,株式会社,神奈川県,逗子市,沼間３丁目１６番１３号ルミエール東雲１０２,,14,208,2490004,,,,,,,2024-01-12,1,,,,,プレシャス,0
2040,3030001158047,新規,0,2024-01-12,2024-01-12,株式会社金井工務店,,株式会社,埼玉県,狭山市,入間川３１５１番地の７,,11,215,3501305,,,,,,,2024-01-12,1,,,,,カナイコウムテン,0
2041,3030001158063,新規,0,2024-01-12,2024-01-12,株式会社ＧＬＯＸ,,株式会社,埼玉県,ふじみ野市,ふじみ野３丁目１－１０,,11,245,3560050,,,,,,,2024-01-12,1,,,,,グロクス,0
2047,3030003023389,新規,0,2024-01-12,2024-01-12,合同会社レト,,合同会社,埼玉県,越谷市,蒲生西町１丁目３番６８号,,11,222,3430835,,,,,,,2024-01-12,1,,,,,レト,0
2049,3030005021523,新規,0,2024-01-12,2024-01-12,行政書士法人ペーパーワーク,,その他の設立登記法人,埼玉県,さいたま市浦和区,上木崎１丁目１番９－１０３号,,11,107,3300071,,,,,,,2024-01-12,1,,,,,ペーパーワーク,0
2051,3040001131622,新規,0,2024-01-12,2024-01-12,株式会社グリーンエンジニアリング,,株式会社,千葉県,市原市,米沢３４４番地１０,,12,219,2900501,,,,,,,2024-01-12,1,,,,,グリーンエンジニアリング,0
2052,3040001131663,新規,0,2024-01-12,2024-01-12,株式会社ドリームメイカー,,株式会社,千葉県,市川市,行徳駅前１丁目５番５号レジーナイワセ２０２,,12,203,2720133,,,,,,,2024-01-12,1,,,,,ドリームメイカー,0
2053,3040001131671,新規,0,2024-01-12,2024-01-12,株式会社ｌｉｅｎ,,株式会社,千葉県,千葉市中央区,本町２丁目９番１４号花島ビル１Ｆ,,12,101,2600012,,,,,,,2024-01-12,1,,,,,リアン,0
2058,3040003024064,新規,0,2024-01-12,2024-01-12,美祥合同会社,,合同会社,千葉県,いすみ市,国府台１１１８番地,,12,238,2980112,,,,,,,2024-01-12,1,,,,,ビショウ,0
2068,3080003003114,新規,0,2024-01-12,2024-01-12,合同会社あーつや酒造,,合同会社,静岡県,静岡市駿河区,曲金６丁目４番２０号タワーザファースト静岡２２０１,,22,102,4228006,,,,,,,2024-01-12,1,,,,,アーツヤシュゾウ,0
2070,3080101024458,新規,0,2024-01-12,2024-01-12,株式会社ＡＬＬ　ＹＯＵ　ＮＥＥＤ,,株式会社,静岡県,下田市,三丁目２５番３０号,,22,219,4150023,,,,,,,2024-01-12,1,,,,,オールユーニード,0
2071,3080101024466,新規,0,2024-01-12,2024-01-12,株式会社プロバイド富士,,株式会社,静岡県,富士市,大淵８６１６番地,,22,210,4170801,,,,,,,2024-01-12,1,,,,,プロバイドフジ,0
2733,3110001038091,新規,0,2024-01-12,2024-01-12,株式会社丸松住機,,株式会社,新潟県,魚沼市,田中４１番地１,,15,225,9460106,,,,,,,2024-01-12,1,,,,,マルマツジュウキ,0
2745,3120001261163,新規,0,2024-01-12,2024-01-12,株式会社日本衛星通信,,株式会社,大阪府,大阪市北区,梅田１丁目２番２号大阪駅前第２ビル１２－１２,,27,127,5300001,,,,,,,2024-01-12,1,,,,,ニホンエイセイツウシン,0
2746,3120001261246,新規,0,2024-01-12,2024-01-12,株式会社ブリジブル,,株式会社,大阪府,大阪市北区,西天満４丁目７番１２号昭和ビル別館５０３,,27,127,5300047,,,,,,,2024-01-12,1,,,,,ブリジブル,0
2747,3120001261254,新規,0,2024-01-12,2024-01-12,株式会社バオンサービス,,株式会社,大阪府,大阪市住之江区,西加賀屋４丁目３番５－１１０１号,,27,125,5590016,,,,,,,2024-01-12,1,,,,,バオンサービス,0
2748,3120001261287,新規,0,2024-01-12,2024-01-12,株式会社Ｂｌｏｓｓｏｍ,,株式会社,大阪府,大阪市中央区,南新町２丁目４番１２号インテリンクス南新町２０２号室,,27,128,5400024,,,,,,,2024-01-12,1,,,,,ブロッサム,0
2752,3120003025608,新規,0,2024-01-12,2024-01-12,伊美化粧貿易合同会社,,合同会社,大阪府,大阪市西成区,玉出東１丁目７－２３－１０４室,,27,122,5570043,,,,,,,2024-01-12,1,,,,,イビケショウボウエキ,0
2753,3120003025624,新規,0,2024-01-12,2024-01-12,合同会社ＫＡＴＳＵ,,合同会社,大阪府,大阪市西区,新町１丁目７－３－５０３,,27,106,5500013,,,,,,,2024-01-12,1,,,,,カツ,0
2755,3120103005625,新規,0,2024-01-12,2024-01-12,ＭＯＵＮＴＡＩＮＦＩＥＬＤ合同会社,,合同会社,大阪府,堺市堺区,中三国ヶ丘町１丁１番３０号２Ｆ,,27,141,5900022,,,,,,,2024-01-12,1,,,,,マウンテンフィールド,0
2765,3122003002768,新規,0,2024-01-12,2024-01-12,合同会社シグナルムーン,,合同会社,大阪府,東大阪市,稲葉２丁目２番５２号,,27,227,5780925,,,,,,,2024-01-12,1,,,,,シグナルムーン,0
2768,3130001076098,新規,0,2024-01-12,2024-01-12,株式会社Ａｔａｒｉ,,株式会社,京都府,京都市中京区,西錦小路町２６６番地,,26,104,6048226,,,,,,,2024-01-12,1,,,,,アタリ,0
2769,3130001076107,新規,0,2024-01-12,2024-01-12,好橘子株式会社,,株式会社,京都府,京都市北区,西賀茂大栗町８７番地２エムズ神光院Ａ号室,,26,101,6038828,,,,,,,2024-01-12,1,,,,,コウキツコ,0
2770,3130001076131,新規,0,2024-01-12,2024-01-12,株式会社ＡＳＭＡＮ．ｊｐ,,株式会社,京都府,京都市左京区,松ケ崎西桜木町１４,,26,103,6060903,,,,,,,2024-01-12,1,,,,,アズマンジャパン,0
2771,3130005016975,新規,0,2024-01-12,2024-01-12,一般社団法人風の森Ｂｅｙｏｎｄ　ｄｉｍｅｎｓｉｏｎ,,その他の設立登記法人,京都府,京都市中京区,新町通三条上ル頭町１１２菊蔵ビル２階,,26,104,6040000,,,,,,,2024-01-12,1,,,,,カゼノモリビヨンドディメンション,0
2780,3140001132940,新規,0,2024-01-12,2024-01-12,株式会社エクステリア西川,,株式会社,兵庫県,姫路市,飾西１１番地６,,28,201,6712216,,,,,,,2024-01-12,1,,,,,エクステリアニシカワ,0
2781,3140001132949,新規,0,2024-01-12,2024-01-12,株式会社ｓｔａｒｋ,,株式会社,兵庫県,姫路市,宮西町３丁目２０番地,,28,201,6700837,,,,,,,2024-01-12,1,,,,,スターク,0
2782,3140001132957,新規,0,2024-01-12,2024-01-12,株式会社Ｖｉｃｅｌｌａ,,株式会社,兵庫県,加古川市,平岡町新在家８７６番地の４,,28,210,6750101,,,,,,,2024-01-12,1,,,,,ビセラ,0
2783,3140001132965,新規,0,2024-01-12,2024-01-12,株式会社藤心,,株式会社,兵庫県,明石市,大久保町大窪１２２１番地の２,,28,203,6740051,,,,,,,2024-01-12,1,,,,,トウシン,0
2786,3150001027000,新規,0,2024-01-12,2024-01-12,株式会社スタディライブラリー,,株式会社,奈良県,北葛城郡王寺町,王寺２丁目６番１号まさごビル３階,,29,425,6360002,,,,,,,2024-01-12,1,,,,,スタディライブラリー,0
2790,3170003001967,新規,0,2024-01-12,2024-01-12,合同会社きみこ,,合同会社,和歌山県,海南市,下津町下津１５７９番地,,30,202,6490101,,,,,,,2024-01-12,1,,,,,キミコ,0
2794,3180001159658,新規,0,2024-01-12,2024-01-12,株式会社後藤設備,,株式会社,愛知県,名古屋市北区,若鶴町３５０番地メゾンド楠４０３号,,23,103,4620006,,,,,,,2024-01-12,1,,,,,ゴトウセツビ,0
2795,3180001159708,新規,0,2024-01-12,2024-01-12,株式会社ケーリン,,株式会社,愛知県,名古屋市南区,千竈通１丁目２１番地の９,,23,112,4570071,,,,,,,2024-01-12,1,,,,,ケーリン,0
2800,3180005020485,新規,0,2024-01-12,2024-01-12,特定非営利活動法人あおいろノソラ‐たっくんプロジェクト,,その他の設立登記法人,愛知県,尾張旭市,東本地ケ原町３丁目５１番地グリーンヒル榊原３０１号室,,23,226,4880033,,,,,,,2024-01-12,1,,,,,アオイロノソラタックンプロジェクト,0
2803,3180301038215,新規,0,2024-01-12,2024-01-12,株式会社デントリペアイトウ,,株式会社,愛知県,安城市,新田町小山９６番地１２,,23,212,4460061,,,,,,,2024-01-12,1,,,,,デントリペアイトウ,0
2806,3180303005972,新規,0,2024-01-12,2024-01-12,合同会社ダイダテック,,合同会社,愛知県,豊川市,代田町２丁目１０番地５,,23,207,4420841,,,,,,,2024-01-12,1,,,,,ダイダテック,0
2815,3220001025772,新規,0,2024-01-12,2024-01-12,株式会社ナナテーブル,,株式会社,石川県,金沢市,松村３丁目４２３番地１,,17,201,9200348,,,,,,,2024-01-12,1,,,,,ナナテーブル,0
2821,3240001062649,新規,0,2024-01-12,2024-01-12,株式会社マコト塗装,,株式会社,広島県,広島市東区,中山上１丁目１４番４号,,34,102,7320027,,,,,,,2024-01-12,1,,,,,マコトトソウ,0
2822,3240001062665,新規,0,2024-01-12,2024-01-12,ＭＡＳＡＫＩホールディングス株式会社,,株式会社,広島県,大竹市,港町１丁目２番２２号,,34,211,7390621,,,,,,,2024-01-12,1,,,,,マサキホールディングス,0
2824,3240003006488,新規,0,2024-01-12,2024-01-12,合同会社Ｓｈａｐｅ,,合同会社,広島県,広島市中区,基町１１－１０合人社広島紙屋町ビル８Ｆ－３８,,34,101,7300011,,,,,,,2024-01-12,1,,,,,シェイプ,0
2830,3260001038647,新規,0,2024-01-12,2024-01-12,株式会社白岩商会,,株式会社,岡山県,勝田郡奈義町,久常２９５番地４１,,33,623,7081311,,,,,,,2024-01-12,1,,,,,シライワショウカイ,0
2840,3290001104280,新規,0,2024-01-12,2024-01-12,株式会社Ｆ‐ｆｒｏｎｔ,,株式会社,福岡県,糸島市,曽根１８１番地６,,40,230,8191561,,,,,,,2024-01-12,1,,,,,エフフロント,0
2841,3290001104330,新規,0,2024-01-12,2024-01-12,株式会社エンボリオ,,株式会社,福岡県,糟屋郡粕屋町,大字仲原２５２８番地１,,40,349,8112304,,,,,,,2024-01-12,1,,,,,エンボリオ,0
2842,3290001104347,新規,0,2024-01-12,2024-01-12,株式会社ウィズワンダー,,株式会社,福岡県,福岡市博多区,店屋町２番２９号ｉＧＳ博多ビルｉＧｒｏｗｔｈＳｈｉｐ７３０号室,,40,132,8120025,,,,,,,2024-01-12,1,,,,,ウィズワンダー,0
2847,3290803004587,新規,0,2024-01-12,2024-01-12,井口商事合同会社,,合同会社,福岡県,鞍手郡鞍手町,大字中山２３６５番地６コーポ香月２０３号,,40,402,8071312,,,,,,,2024-01-12,1,,,,,イグチショウジ,0
2850,3320001020227,新規,0,2024-01-12,2024-01-12,株式会社トータルビューティーリレア,,株式会社,大分県,別府市,大字鶴見４５４８番地の２００６,,44,202,8740840,,,,,,,2024-01-12,1,,,,,トータルビューティーリレア,0
2851,3320005010125,新規,0,2024-01-12,2024-01-12,ＮＰＯ法人Ｐａｒｍａ　Ｃｏｒａｌｅ　Ｖｅｒｄｉおおいた,,その他の設立登記法人,大分県,大分市,京が丘南２丁目２１番１３号,,44,201,8700129,,,,,,,2024-01-12,1,,,,,パルマコラーレヴェルディオオイタ,0
2859,3330001031644,新規,0,2024-01-12,2024-01-12,株式会社ＬＵＣＥ,,株式会社,熊本県,菊池郡菊陽町,光の森２丁目９番地１,,43,404,8691108,,,,,,,2024-01-12,1,,,,,ルーチェ,0
2862,3340001026197,新規,0,2024-01-12,2024-01-12,株式会社ガッキー,,株式会社,鹿児島県,鹿児島市,吉野町３９５１番地４,,46,201,8920871,,,,,,,2024-01-12,1,,,,,ガッキー,0
2863,3340001026214,新規,0,2024-01-12,2024-01-12,株式会社Ｎ．ｓｔｙｌｅ,,株式会社,鹿児島県,鹿児島市,山田町１７４３番地１２,,46,201,8910104,,,,,,,2024-01-12,1,,,,,エヌスタイル,0
2869,3350003004539,新規,0,2024-01-12,2024-01-12,合同会社Ｔファーム,,合同会社,宮崎県,児湯郡木城町,大字椎木８８７番地１５,,45,404,8840102,,,,,,,2024-01-12,1,,,,,ティーファーム,0
2871,3360001033051,新規,0,2024-01-12,2024-01-12,とうはらマンゴー園株式会社,,株式会社,沖縄県,島尻郡八重瀬町,字新城９７３番地,,47,362,9010503,,,,,,,2024-01-12,1,,,,,トウハラマンゴーエン,0
2873,3360003013596,新規,0,2024-01-12,2024-01-12,農業生産法人合同会社プロデュース,,合同会社,沖縄県,中頭郡読谷村,字座喜味１９番地,,47,324,9040301,,,,,,,2024-01-12,1,,,,,プロデュース,0
2874,3360003013605,新規,0,2024-01-12,2024-01-12,合同会社まさむね,,合同会社,沖縄県,中頭郡西原町,字小波津１３番地の２,,47,329,9030118,,,,,,,2024-01-12,1,,,,,マサムネ,0
2881,3380003005658,新規,0,2024-01-12,2024-01-12,合同会社縁乗会,,合同会社,福島県,田村市,滝根町菅谷字堂田５４０番地,,07,211,9633601,,,,,,,2024-01-12,1,,,,,ユカリノカイ,0
2883,3390003002191,新規,0,2024-01-12,2024-01-12,Ｙ．ｄｒａｇｏｎ合同会社,,合同会社,山形県,山形市,香澄町１丁目５番３号第２大宝ビルＢ１,,06,201,9900039,,,,,,,2024-01-12,1,,,,,ワイドラゴン,0
2888,3430001090829,新規,0,2024-01-12,2024-01-12,株式会社ＳＡＫＵＲＡ,,株式会社,北海道,札幌市中央区,北四条西４丁目１番地７ＭＭＳ札幌駅前ビル１階,,01,101,0600004,,,,,,,2024-01-12,1,,,,,サクラ,0
2889,3430001090861,新規,0,2024-01-12,2024-01-12,株式会社丸潮水産,,株式会社,北海道,札幌市中央区,南四条西６丁目８－３晴ればれビル５０１Ｊ号室,,01,101,0640804,,,,,,,2024-01-12,1,,,,,マルシオスイサン,0
2901,3700150123312,新規,0,2024-01-12,2024-01-12,Ｓｈａｎｄｏｎｇ　Ｈｕａｊｉｎｇ　Ｃｈｅｍｉｃａｌ　Ｐｒｏｄｕｃｔｓ　Ｃｏ．，Ｌｔｄ．，,,外国会社等,,,,,,,,Ｓｏｕｔｈ　ｏｆ　Ｌｏｎｇｓｈａｎ　Ｃｏｍｍｕｎｉｔｙ，Ｃｈｅｎｇｄｏｎｇ　Ｓｔｒｅｅｔ，Ｂｏｓｈａｎ　Ｄｉｓｔｒｉｃｔ，Ｚｉｂｏ　Ｃｉｔｙ，Ｓｈａｎｄｏｎｇ　Ｐｒｏｖｉｎｃｅ,,,,,,2024-01-12,1,,,,,サントウカショウカコウセイヒンユウゲンコウシ,0
2916,4010001241183,新規,0,2024-01-12,2024-01-12,カーリンキットジャパン株式会社,,株式会社,東京都,文京区,大塚５丁目８番１２－３０１号,,13,105,1120012,,,,,,,2024-01-12,1,,,,,カーリンキットジャパン,0
2920,4010003042638,新規,0,2024-01-12,2024-01-12,合同会社朝顔信用サービス,,合同会社,東京都,千代田区,丸の内３丁目１番１号東京共同会計事務所内,,13,101,1000005,,,,,,,2024-01-12,1,,,,,アサガオシンヨウサービス,0
2921,4010003042646,新規,0,2024-01-12,2024-01-12,合同会社光皇舎,,合同会社,東京都,中央区,銀座１丁目１２番４号Ｎ＆Ｅ・ＢＬＤ．７階,,13,102,1040061,,,,,,,2024-01-12,1,,,,,コウオウシャ,0
2922,4010005037727,新規,0,2024-01-12,2024-01-12,一般社団法人こだわり農業研究所,,その他の設立登記法人,東京都,文京区,春日２丁目２４番１１号福泉ビル３階,,13,105,1120003,,,,,,,2024-01-12,1,,,,,コダワリノウギョウケンキュウジョ,0
2924,4010105002242,新規,0,2024-01-12,2024-01-12,一般社団法人ドッグワーカーコーディネーター協会,,その他の設立登記法人,東京都,八王子市,めじろ台２丁目７０番地９,,13,201,1930833,,,,,,,2024-01-12,1,,,,,ドッグワーカーコーディネーターキョウカイ,0
2930,4010401179684,新規,0,2024-01-12,2024-01-12,ＳＢＩ　ＪＩＧ‐ＳＡＷモダナイゼーションズ株式会社,,株式会社,東京都,港区,六本木１丁目６番１号,,13,103,1060032,,,,,,,2024-01-12,1,,,,,エスビーアイジグソーモダナイゼーションズ,0
2931,4010401179718,新規,0,2024-01-12,2024-01-12,株式会社ゴード,,株式会社,東京都,港区,虎ノ門４丁目１番２８号虎ノ門タワーズオフィス１７階,,13,103,1050001,,,,,,,2024-01-12,1,,,,,ゴード,0
2933,4010403031703,新規,0,2024-01-12,2024-01-12,合同会社オレガノ,,合同会社,東京都,港区,北青山１丁目２番３号,,13,103,1070061,,,,,,,2024-01-12,1,,,,,オレガノ,0
2934,4010403031711,新規,0,2024-01-12,2024-01-12,Ｆｌｙｉｎｇ　Ｖｉｌｌａｇｅ合同会社,,合同会社,東京都,港区,赤坂２丁目６番１５－４０６号,,13,103,1070052,,,,,,,2024-01-12,1,,,,,フライングヴィレッジ,0
2938,4010501051603,新規,0,2024-01-12,2024-01-12,スピード株式会社,,株式会社,東京都,台東区,上野２丁目５番１号小倉ビルＢ１,,13,106,1100005,,,,,,,2024-01-12,1,,,,,スピード,0
2941,4010603010580,新規,0,2024-01-12,2024-01-12,栄和通信合同会社,,合同会社,東京都,墨田区,吾妻橋２丁目１０番１０号,,13,107,1300001,,,,,,,2024-01-12,1,,,,,エイワツウシン,0
2951,4011001159317,新規,0,2024-01-12,2024-01-12,ＭｉＭＳ株式会社,,株式会社,東京都,渋谷区,渋谷１丁目１番７号,,13,113,1500002,,,,,,,2024-01-12,1,,,,,エムアイエムエス,0
2952,4011001159333,新規,0,2024-01-12,2024-01-12,株式会社ＳＩＭＢＡ,,株式会社,東京都,渋谷区,恵比寿１丁目１９番１５号ウノサワ東急ビル,,13,113,1500013,,,,,,,2024-01-12,1,,,,,シンバ,0
2954,4011003018248,新規,0,2024-01-12,2024-01-12,合同会社クイン,,合同会社,東京都,渋谷区,広尾５丁目１９番１７号レジディア広尾２－６０３号室,,13,113,1500012,,,,,,,2024-01-12,1,,,,,クイン,0
2970,4011701026915,新規,0,2024-01-12,2024-01-12,株式会社アクリルコンプレックス,,株式会社,東京都,江戸川区,小松川３丁目１１番１８号,,13,123,1320034,,,,,,,2024-01-12,1,,,,,アクリルコンプレックス,0
2972,4011801043620,新規,0,2024-01-12,2024-01-12,みらいＢＯＸ株式会社,,株式会社,東京都,葛飾区,小菅３丁目１９番３号,,13,122,1240001,,,,,,,2024-01-12,1,,,,,ミライボックス,0
2974,4011803006030,新規,0,2024-01-12,2024-01-12,合同会社ＲＥＬＩＴ,,合同会社,東京都,足立区,綾瀬１丁目２１番１３号グランベールヨシダ４０２号室,,13,121,1200005,,,,,,,2024-01-12,1,,,,,リリット,0
2978,4012403006354,新規,0,2024-01-12,2024-01-12,合同会社Ｔｅｔｔｒｅａｎ,,合同会社,東京都,多摩市,東寺方１丁目８番地の４２,,13,224,2060003,,,,,,,2024-01-12,1,,,,,テッテレーン,0
2988,4020001155259,新規,0,2024-01-12,2024-01-12,株式会社カジノランド,,株式会社,神奈川県,川崎市川崎区,東田町９－６,,14,131,2100005,,,,,,,2024-01-12,1,,,,,カジノランド,0
2989,4020001155267,新規,0,2024-01-12,2024-01-12,株式会社ＪＡＳホールディングス,,株式会社,神奈川県,横浜市戸塚区,上矢部町９２６番地,,14,110,2450053,,,,,,,2024-01-12,1,,,,,ジェイエイエスホールディングス,0
2990,4020001155275,新規,0,2024-01-12,2024-01-12,株式会社浅葱,,株式会社,神奈川県,横浜市港北区,錦が丘１７番１５号,,14,109,2220013,,,,,,,2024-01-12,1,,,,,アサギ,0
2996,4020003025328,新規,0,2024-01-12,2024-01-12,合同会社マーニー,,合同会社,神奈川県,横浜市鶴見区,佃野町１４番２５－１号,,14,101,2300061,,,,,,,2024-01-12,1,,,,,マーニー,0
2997,4020003025336,新規,0,2024-01-12,2024-01-12,合同会社江陸銀河,,合同会社,神奈川県,横浜市神奈川区,新子安２丁目１４番１４－４０４号,,14,102,2210013,,,,,,,2024-01-12,1,,,,,エリクギンガ,0
2998,4021001081156,新規,0,2024-01-12,2024-01-12,弘涼ＷＯＲＫＳ株式会社,,株式会社,神奈川県,大和市,中央林間５丁目９番２号Ｕ＆Ｅビル３０１,,14,213,2420007,,,,,,,2024-01-12,1,,,,,コウリョウワークス,0
2999,4021001081164,新規,0,2024-01-12,2024-01-12,株式会社ｆｏｒｔｕｎａ,,株式会社,神奈川県,藤沢市,湘南台２丁目２７番地の１４,,14,205,2520804,,,,,,,2024-01-12,1,,,,,フォルチュナ,0
3000,4021001081189,新規,0,2024-01-12,2024-01-12,株式会社ＤＡＩＫＥＮ,,株式会社,神奈川県,相模原市南区,下溝３４０５番地５メゾンドラルジュＤ号,,14,153,2520335,,,,,,,2024-01-12,1,,,,,ダイケン,0
3004,4021003013982,新規,0,2024-01-12,2024-01-12,ＦＵＫＵＡ合同会社,,合同会社,神奈川県,相模原市南区,上鶴間本町９丁目１１番３号,,14,153,2520318,,,,,,,2024-01-12,1,,,,,フクア,0
3014,4030003023347,新規,0,2024-01-12,2024-01-12,Ｄｉｇ　ＵＰ合同会社,,合同会社,埼玉県,さいたま市桜区,田島１０丁目２番１１－４０７号,,11,106,3380837,,,,,,,2024-01-12,1,,,,,ディグアップ,0
3015,4030003023363,新規,0,2024-01-12,2024-01-12,合同会社Ｉｗａｓｈ,,合同会社,埼玉県,所沢市,和ケ原１丁目２２３番地８３,,11,208,3591162,,,,,,,2024-01-12,1,,,,,アイウォッシュ,0
3024,4040001131662,新規,0,2024-01-12,2024-01-12,株式会社ブライト,,株式会社,千葉県,千葉市稲毛区,宮野木町１２６６番地１７,,12,103,2630054,,,,,,,2024-01-12,1,,,,,ブライト,0
3025,4040001131670,新規,0,2024-01-12,2024-01-12,株式会社リヴレ,,株式会社,千葉県,市川市,大野町３丁目１８３２番地,,12,203,2720805,,,,,,,2024-01-12,1,,,,,リヴレ,0
3026,4040001131679,新規,0,2024-01-12,2024-01-12,株式会社ｖｉｐｒｏｏｍ,,株式会社,千葉県,四街道市,四街道１丁目３番１６号２階,,12,228,2840005,,,,,,,2024-01-12,1,,,,,ヴィップルーム,0
3027,4040001131687,新規,0,2024-01-12,2024-01-12,株式会社人として,,株式会社,千葉県,市川市,平田１丁目１７番９号,,12,203,2720031,,,,,,,2024-01-12,1,,,,,ヒトトシテ,0
3031,4040003023957,新規,0,2024-01-12,2024-01-12,合同会社Ｂａｄｄｉｅｓ,,合同会社,千葉県,松戸市,常盤平４丁目１２－１ダイアパレスマンション７０１,,12,207,2702261,,,,,,,2024-01-12,1,,,,,バディーズ,0
3032,4040003024063,新規,0,2024-01-12,2024-01-12,合同会社ボスコーポレーション,,合同会社,千葉県,市川市,大洲１丁目１２番３号,,12,203,2720032,,,,,,,2024-01-12,1,,,,,ボスコーポレーション,0
3035,4050001054061,新規,0,2024-01-12,2024-01-12,株式会社ＨＩＬＯＫＡ,,株式会社,茨城県,鹿嶋市,大字長栖２２８８番３号ＡＲＣＨ店舗３号室,,08,222,3140022,,,,,,,2024-01-12,1,,,,,ヒロカ,0
3036,4050001054086,新規,0,2024-01-12,2024-01-12,ＣＨＡＵＤＨＡＲＹ　ＥＮＴＥＲＰＲＩＳＥＳ株式会社,,株式会社,茨城県,猿島郡境町,９０２番地２Ｋ’ＳタウンＩＩＢ棟,00133300,08,546,3060433,,,,,,,2024-01-12,1,,,,,チャウダリーエンタープライゼス,0
3042,4050003008049,新規,0,2024-01-12,2024-01-12,合同会社Ｌｅ　Ｌｉｅｎ　Ｌｉｎｋｓ,,合同会社,茨城県,常陸太田市,馬場町９０４－５,,08,212,3130004,,,,,,,2024-01-12,1,,,,,,0
3051,4070001041280,新規,0,2024-01-12,2024-01-12,株式会社ＫＯＢＡＹＡＳＨＩ　ＢＡＳＥ,,株式会社,群馬県,高崎市,新保町１５番地３,,10,202,3700018,,,,,,,2024-01-12,1,,,,,コバヤシベース,0
3052,4070003005226,新規,0,2024-01-12,2024-01-12,コナカ合同会社,,合同会社,群馬県,高崎市,下小鳥町５７番地１５,,10,202,3700074,,,,,,,2024-01-12,1,,,,,コナカ,0
3055,4080003003113,新規,0,2024-01-12,2024-01-12,合同会社Ｆｕ,,合同会社,静岡県,藤枝市,五十海２丁目９番５号,,22,214,4260015,,,,,,,2024-01-12,1,,,,,フウ,0
3403,4080401026946,新規,0,2024-01-12,2024-01-12,株式会社オギリ建創,,株式会社,静岡県,浜松市浜名区,細江町気賀２８番地の５,,22,139,4311305,,,,,,,2024-01-12,1,,,,,オギリケンソウ,0
3787,4120001261138,新規,0,2024-01-12,2024-01-12,天誠株式会社,,株式会社,大阪府,大阪市西成区,橘１丁目１１－２８－５０６号室,,27,122,5570051,,,,,,,2024-01-12,1,,,,,テンセイ,0
3788,4120001261187,新規,0,2024-01-12,2024-01-12,株式会社アールエムＨＤ,,株式会社,大阪府,大阪市中央区,安土町２丁目３番１３号,,27,128,5410052,,,,,,,2024-01-12,1,,,,,アールエムホールディングス,0
3789,4120001261195,新規,0,2024-01-12,2024-01-12,株式会社三葉,,株式会社,大阪府,大阪市東淀川区,豊里６丁目１４番１６号ＣＡＴＥＮＡ豊里２０５号室,,27,114,5330013,,,,,,,2024-01-12,1,,,,,ミツバ,0
3790,4120001261204,新規,0,2024-01-12,2024-01-12,株式会社Ｓ．Ｋ,,株式会社,大阪府,交野市,星田８丁目７番７－６号,,27,230,5760016,,,,,,,2024-01-12,1,,,,,エスケイ,0
3791,4120001261229,新規,0,2024-01-12,2024-01-12,株式会社ＨＯＰＥ,,株式会社,大阪府,大阪市浪速区,日本橋４丁目１７－１５古山商店２Ｆ,,27,111,5560005,,,,,,,2024-01-12,1,,,,,ホープ,0
3792,4120001261253,新規,0,2024-01-12,2024-01-12,ハセガワモビリティ株式会社,,株式会社,大阪府,大阪市西区,江戸堀２丁目１番１号,,27,106,5500002,,,,,,,2024-01-12,1,,,,,ハセガワモビリティ,0
3797,4120101068846,新規,0,2024-01-12,2024-01-12,ハピネス株式会社,,株式会社,大阪府,和泉市,池田下町１９１１番地の１藤本ビル２Ｆ,,27,219,5940032,,,,,,,2024-01-12,1,,,,,ハピネス,0
3808,4130001076122,新規,0,2024-01-12,2024-01-12,株式会社ＫＲＳ,,株式会社,京都府,宇治市,宇治蔭山５７番地の１７,,26,204,6110021,,,,,,,2024-01-12,1,,,,,ケーアールエス,0
3827,4170001017964,新規,0,2024-01-12,2024-01-12,ＧＦスポーツインターナショナル株式会社,,株式会社,和歌山県,和歌山市,雄松町２丁目３番地１,,30,201,6408124,,,,,,,2024-01-12,1,,,,,ジーエフスポーツインターナショナル,0
3837,4180003026194,新規,0,2024-01-12,2024-01-12,宗不動産合同会社,,合同会社,愛知県,春日井市,上条町２丁目８５番地,,23,206,4860833,,,,,,,2024-01-12,1,,,,,ムネフドウサン,0
3840,4180301038214,新規,0,2024-01-12,2024-01-12,株式会社ＧｌａｎｄＳｌａｍ,,株式会社,愛知県,高浜市,芳川町２丁目９番地３９,,23,227,4441335,,,,,,,2024-01-12,1,,,,,グランドスラム,0
3841,4180301038222,新規,0,2024-01-12,2024-01-12,株式会社リーチアシスト,,株式会社,愛知県,豊田市,久岡町４丁目５３番地２,,23,211,4710055,,,,,,,2024-01-12,1,,,,,リーチアシスト,0
3844,4190001031014,新規,0,2024-01-12,2024-01-12,株式会社トップロード,,株式会社,三重県,四日市市,水沢町３６６８番地１,,24,202,5121105,,,,,,,2024-01-12,1,,,,,トップロード,0
3845,4190001031022,新規,0,2024-01-12,2024-01-12,株式会社ｆｒｉｅｎｄｓ‐ａｌｌ,,株式会社,三重県,四日市市,大井の川町３丁目４１,,24,202,5100846,,,,,,,2024-01-12,1,,,,,フレンズオール,0
3854,4240001062656,新規,0,2024-01-12,2024-01-12,株式会社高原ファーム,,株式会社,広島県,広島市東区,戸坂出江１丁目１０番４号,,34,102,7320016,,,,,,,2024-01-12,1,,,,,コウゲンファーム,0
3855,4240001062664,新規,0,2024-01-12,2024-01-12,株式会社ＴＯＳＥＮ,,株式会社,広島県,廿日市市,梅原１丁目６番２０号,,34,213,7390442,,,,,,,2024-01-12,1,,,,,トーセン,0
3857,4240003006487,新規,0,2024-01-12,2024-01-12,合同会社エタデン,,合同会社,広島県,江田島市,大柿町大原５７６１番地,,34,215,7372213,,,,,,,2024-01-12,1,,,,,エタデン,0
3865,4280001009100,新規,0,2024-01-12,2024-01-12,株式会社なかしま,,株式会社,島根県,松江市,末次本町８,,32,201,6900843,,,,,,,2024-01-12,1,,,,,ナカシマ,0
3878,4290801030205,新規,0,2024-01-12,2024-01-12,株式会社瑛潤,,株式会社,福岡県,鞍手郡鞍手町,大字小牧２２３２番地２９,,40,402,8071311,,,,,,,2024-01-12,1,,,,,エイジュン,0
3885,4340001026213,新規,0,2024-01-12,2024-01-12,南洲エネルギー株式会社,,株式会社,鹿児島県,鹿児島市,高麗町４３番４５－２０４号,,46,201,8900051,,,,,,,2024-01-12,1,,,,,ナンシュウエネルギー,0
3889,4350001018746,新規,0,2024-01-12,2024-01-12,ＥＳＴＥＬＡ　ＦＬＡＭＥＮＣＡ株式会社,,株式会社,宮崎県,児湯郡木城町,大字高城４０１１－２,,45,404,8840101,,,,,,,2024-01-12,1,,,,,エステラフラメンカ,0
3895,4360001033042,新規,0,2024-01-12,2024-01-12,カテナリゾート株式会社,,株式会社,沖縄県,中頭郡北谷町,字宮城２番地１８４,,47,326,9040113,,,,,,,2024-01-12,1,,,,,カテナリゾート,0
3896,4360003013604,新規,0,2024-01-12,2024-01-12,合同会社美南木工舎,,合同会社,沖縄県,うるま市,石川東山２丁目２３番地８,,47,213,9041102,,,,,,,2024-01-12,1,,,,,ビナンモッコウシャ,0
3899,4370001050813,新規,0,2024-01-12,2024-01-12,株式会社ＥＰＩホールディングス,,株式会社,宮城県,東松島市,野蒜字亀岡３４番地３,,04,214,9810411,,,,,,,2024-01-12,1,,,,,イーピーアイホールディングス,0
3905,4390003002190,新規,0,2024-01-12,2024-01-12,合同会社四六一〇商店,,合同会社,山形県,酒田市,飛鳥字大道端１４８番地２,,06,204,9996711,,,,,,,2024-01-12,1,,,,,ヨンロクイチマルショウテン,0
3907,4420003002864,新規,0,2024-01-12,2024-01-12,ｖｉｌｌａ青森合同会社,,合同会社,青森県,青森市,青葉３丁目９番８号三成ビル１Ｆ－Ａ号,,02,201,0300846,,,,,,,2024-01-12,1,,,,,ヴィラアオモリ,0
3910,4430001090860,新規,0,2024-01-12,2024-01-12,株式会社Ｓｔａｒｔ　ｍｏｖｅｍｅｎｔ,,株式会社,北海道,札幌市西区,西野三条３丁目６,,01,107,0630033,,,,,,,2024-01-12,1,,,,,スタートムーブメント,0
3928,4700150122858,新規,0,2024-01-12,2023-12-20,労働保険事務組合　長野県労務協会,,その他,長野県,岡谷市,神明町３丁目１６－２８,,20,204,3940004,,,,,,,2023-12-20,1,,,,,ロウドウホケンジムクミアイナガノケンロウムキヨウカイ,0
3929,4700150123311,新規,0,2024-01-12,2024-01-12,ＨＫ　ＸＩＯＮＧＴＵ　ＴＲＡＤＩＮＧ　ＣＯ．，ＬＩＭＩＴＥＤ,,外国会社等,,,,,,,,Ｆｌｏｏｒ１５　Ａ１５０３　Ｈｏｐ　Ｌｕｎｇ　Ｆａｃｔｏｒｙ　Ｂｕｉｌｄｉｎｇ，Ｍｏｎｇ　Ｌｕｎｇ　Ｓｔ，Ｓｈａｕ　Ｋｅｉ　Ｗａｎ　Ｈｏｎｇ　Ｋｏｎｇ,,,,,,2024-01-12,1,,,,,ホンコンユウトボウエキユウゲンコウシ,0
3935,5010001241372,新規,0,2024-01-12,2024-01-12,タルト株式会社,,株式会社,東京都,中央区,銀座１丁目１２番４号Ｎ＆Ｅ，ＢＬＤ．６Ｆ,,13,102,1040061,,,,,,,2024-01-12,1,,,,,タルト,0
3937,5010003042645,新規,0,2024-01-12,2024-01-12,合同会社あすかエンジニアリング,,合同会社,東京都,文京区,本郷３丁目７番６号,,13,105,1130033,,,,,,,2024-01-12,1,,,,,アスカエンジニアリング,0
3940,5010005037726,新規,0,2024-01-12,2024-01-12,小郡干潟開発特定目的会社,,その他の設立登記法人,東京都,千代田区,丸の内３丁目１番１号東京共同会計事務所内,,13,101,1000005,,,,,,,2024-01-12,1,,,,,オゴオリヒカタカイハツ,0
3941,5010101015957,新規,0,2024-01-12,2024-01-12,プラムコンサル株式会社,,株式会社,東京都,八王子市,高尾町１５８５高模ビル３階,,13,201,1930844,,,,,,,2024-01-12,1,,,,,,0
3951,5010401179592,新規,0,2024-01-12,2024-01-12,ＴｈｉｓＲｅｖ　Ｔｅｃｈｎｏｌｏｇｉｅｓ株式会社,,株式会社,東京都,港区,虎ノ門３丁目８番２１号２階,,13,103,1050001,,,,,,,2024-01-12,1,,,,,ディスレブテクノロジーズ,0
3952,5010401179675,新規,0,2024-01-12,2024-01-12,株式会社ａｉ‐Ｈｅａｌｔｈｃａｒｅ,,株式会社,東京都,港区,虎ノ門４丁目１番１号神谷町トラストタワー２３階,,13,103,1050001,,,,,,,2024-01-12,1,,,,,エイアイヘルスケア,0
3953,5010403031719,新規,0,2024-01-12,2024-01-12,泉ネイル用具専門商店合同会社,,合同会社,東京都,港区,海岸１丁目７番１号８階,,13,103,1050022,,,,,,,2024-01-12,1,,,,,イズミネイルヨウグセンモンショウテン,0
3967,5010901054510,新規,0,2024-01-12,2024-01-12,株式会社パラムコ,,株式会社,東京都,世田谷区,世田谷１丁目２４番２号３階,,13,112,1540017,,,,,,,2024-01-12,1,,,,,パラムコ,0
3968,5010901054519,新規,0,2024-01-12,2024-01-12,株式会社Ｇ３Ｃ　ＥＮＴＥＲＴＡＩＮＭＥＮＴ,,株式会社,東京都,世田谷区,経堂５丁目２７番２２－３０５号,,13,112,1560052,,,,,,,2024-01-12,1,,,,,ジースリシーエンターテイメント,0
3974,5011001159092,新規,0,2024-01-12,2024-01-12,株式会社ローカルブースト,,株式会社,東京都,目黒区,自由が丘２丁目１６番１２号ＲＪ３,,13,110,1520035,,,,,,,2024-01-12,1,,,,,ローカルブースト,0
3975,5011001159274,新規,0,2024-01-12,2024-01-12,Ｉｎｓｔａｎｃｅ株式会社,,株式会社,東京都,渋谷区,東１丁目２９番３号,,13,113,1500011,,,,,,,2024-01-12,1,,,,,インスタンス,0
3976,5011001159282,新規,0,2024-01-12,2024-01-12,株式会社ＭＯＭＥＮＴ　ＤＥＳＩＧＮ,,株式会社,東京都,渋谷区,渋谷３丁目２１番３号渋谷ストリーム１階,,13,113,1500002,,,,,,,2024-01-12,1,,,,,モーメントデザイン,0
3977,5011001159332,新規,0,2024-01-12,2024-01-12,千同屋株式会社,,株式会社,東京都,目黒区,目黒本町５丁目１８－９,,13,110,1520002,,,,,,,2024-01-12,1,,,,,センドウヤ,0
3978,5011001159349,新規,0,2024-01-12,2024-01-12,ＦＡＩＲ’Ｓ　ＦＡＩＲ株式会社,,株式会社,東京都,渋谷区,恵比寿西１丁目３３番３号,,13,113,1500021,,,,,,,2024-01-12,1,,,,,フェアズフェア,0
3979,5011001159357,新規,0,2024-01-12,2024-01-12,株式会社ル・スフレ,,株式会社,東京都,渋谷区,代々木３丁目３９番１５号,,13,113,1510053,,,,,,,2024-01-12,1,,,,,ルスフレ,0
3983,5011003018255,新規,0,2024-01-12,2024-01-12,合同会社ＥＫ,,合同会社,東京都,渋谷区,千駄ヶ谷５丁目１３番９－１４０５号ザ・パークハウス新宿御苑西,,13,113,1510051,,,,,,,2024-01-12,1,,,,,イーケー,0
3984,5011005010334,新規,0,2024-01-12,2024-01-12,弁護士法人Ｇ．Ｃ　ＦＡＣＴＯＲＹ,,その他の設立登記法人,東京都,渋谷区,渋谷１丁目１９番５号,,13,113,1500002,,,,,,,2024-01-12,1,,,,,ジーシーファクトリー,0
3987,5011101105665,新規,0,2024-01-12,2024-01-12,株式会社ｉｎｄｉｇｏ．ｊｏｊｏ,,株式会社,東京都,新宿区,中井２丁目２１番４号,,13,104,1610035,,,,,,,2024-01-12,1,,,,,インディゴジョジョ,0
3993,5011401025753,新規,0,2024-01-12,2024-01-12,Ｃｏｎｎｅｃｔｅｄ　Ｃｏａｃｈｉｎｇ＆Ｃｏｎｓｕｌｔｉｎｇ株式会社,,株式会社,東京都,板橋区,板橋２丁目６３－４グローリア初穂板橋５０１ＥａｓｙＯｆｆｉｃｅ,,13,119,1730004,,,,,,,2024-01-12,1,,,,,コネクティッドコーチングアンドコンサルティング,0
3995,5011603004200,新規,0,2024-01-12,2024-01-12,合同会社メディミッテ,,合同会社,東京都,練馬区,氷川台４丁目８番７号,,13,120,1790084,,,,,,,2024-01-12,1,,,,,メディミッテ,0
3997,5011701026922,新規,0,2024-01-12,2024-01-12,株式会社バンダヤノン,,株式会社,東京都,江戸川区,東葛西２丁目１８番１１号,,13,123,1340084,,,,,,,2024-01-12,1,,,,,バンダヤノン,0
4000,5011801043628,新規,0,2024-01-12,2024-01-12,愛宕アセット管理株式会社,,株式会社,東京都,足立区,花畑２丁目１７番３号ロジェＩＩ２０３,00133305,13,121,1210061,,,,,,,2024-01-12,1,,,,,アタゴアセットカンリ,0
4012,5020001155258,新規,0,2024-01-12,2024-01-12,宮崎ＢＡＣＫＤＯＯＲ株式会社,,株式会社,神奈川県,川崎市川崎区,東田町９－６,,14,131,2100005,,,,,,,2024-01-12,1,,,,,,0
4018,5020003025327,新規,0,2024-01-12,2024-01-12,合同会社ｉＬＩＶＡＳ,,合同会社,神奈川県,川崎市幸区,塚越４丁目３４５番地１ザ・ミレナリータワーズ３４０号,,14,132,2120024,,,,,,,2024-01-12,1,,,,,イリバス,0
4019,5020003025335,新規,0,2024-01-12,2024-01-12,ＡＩＲＥＮ合同会社,,合同会社,神奈川県,川崎市多摩区,南生田６丁目２９番１０号,,14,135,2140036,,,,,,,2024-01-12,1,,,,,アイレン,0
4020,5020003025343,新規,0,2024-01-12,2024-01-12,ＹＴＭＡ合同会社,,合同会社,神奈川県,横浜市瀬谷区,瀬谷１丁目１９番地１４,,14,114,2460031,,,,,,,2024-01-12,1,,,,,ワイティエムエイ,0
4022,5021001081072,新規,0,2024-01-12,2024-01-12,株式会社ナンバーｌｉｎｋ,,株式会社,神奈川県,横須賀市,大矢部３丁目１０番５号,,14,201,2380024,,,,,,,2024-01-12,1,,,,,ナンバーリンク,0
4023,5021001081089,新規,0,2024-01-12,2024-01-12,株式会社ピークコード,,株式会社,神奈川県,藤沢市,藤沢９９１番地１９落合ビル２０３号室,,14,205,2510052,,,,,,,2024-01-12,1,,,,,ピークコード,0
4024,5021001081196,新規,0,2024-01-12,2024-01-12,株式会社ＫＯＩＮ,,株式会社,神奈川県,平塚市,南金目８０１番地,,14,203,2591201,,,,,,,2024-01-12,1,,,,,コイン,0
4025,5021003014022,新規,0,2024-01-12,2024-01-12,ＫｉｔＴ１１合同会社,,合同会社,神奈川県,茅ヶ崎市,元町６番２４号－１０１,,14,207,2530043,,,,,,,2024-01-12,1,,,,,キットイレブン,0
4031,5030001158045,新規,0,2024-01-12,2024-01-12,株式会社ＹＦ,,株式会社,埼玉県,川口市,西川口２丁目１７番６－２０３号,,11,203,3320021,,,,,,,2024-01-12,1,,,,,ワイエフ,0
4032,5030001158103,新規,0,2024-01-12,2024-01-12,株式会社メルクリウス,,株式会社,埼玉県,川口市,飯塚４丁目１５番２６－５０２号ライオンズマンション川口飯塚,,11,203,3320023,,,,,,,2024-01-12,1,,,,,メルクリウス,0
4033,5030001158128,新規,0,2024-01-12,2024-01-12,株式会社和,,株式会社,埼玉県,富士見市,西みずほ台１丁目１７番地１２ＳＩコーポ１Ｆ,,11,235,3540018,,,,,,,2024-01-12,1,,,,,ナゴミ,0
4034,5030001158136,新規,0,2024-01-12,2024-01-12,株式会社ＹＭＸ,,株式会社,埼玉県,越谷市,千間台西５丁目６番地６ミッドガーデン千間台１０４,,11,222,3430041,,,,,,,2024-01-12,1,,,,,ワイエムエックス,0
4037,5030003023346,新規,0,2024-01-12,2024-01-12,合同会社ＴＡＱＴ,,合同会社,埼玉県,所沢市,大字下安松１５６番地の７,,11,208,3590024,,,,,,,2024-01-12,1,,,,,タクト,0
4038,5030003023362,新規,0,2024-01-12,2024-01-12,合同会社ＥＬＥＮＡ,,合同会社,埼玉県,川口市,東川口１丁目１７番１２号,,11,203,3330801,,,,,,,2024-01-12,1,,,,,エレナ,0
4039,5030003023370,新規,0,2024-01-12,2024-01-12,合同会社ちそく,,合同会社,埼玉県,越谷市,東越谷１丁目１９番地１１号プランヴェール越谷２０８号室,,11,222,3430023,,,,,,,2024-01-12,1,,,,,チソク,0
4040,5030003023387,新規,0,2024-01-12,2024-01-12,ギガホールド合同会社,,合同会社,埼玉県,川越市,新富町１丁目１７番地８（２０５号）,,11,201,3500043,,,,,,,2024-01-12,1,,,,,ギガホールド,0
4042,5040001131694,新規,0,2024-01-12,2024-01-12,株式会社エイトパーズ,,株式会社,千葉県,市原市,五井２２４４番地１クレオ２１、１０６号室,,12,219,2900056,,,,,,,2024-01-12,1,,,,,エイトパーズ,0
4045,5040003024046,新規,0,2024-01-12,2024-01-12,Ａｐｅｘ合同会社,,合同会社,千葉県,柏市,松葉町４丁目１番２号３０６,,12,217,2770827,,,,,,,2024-01-12,1,,,,,エイペックス,0
4046,5040003024070,新規,0,2024-01-12,2024-01-12,合同会社ペコリーノ,,合同会社,千葉県,松戸市,中和倉１４０番地の１レオパレスルミエール１０８号,,12,207,2700025,,,,,,,2024-01-12,1,,,,,ペコリーノ,0
4047,5040003024087,新規,0,2024-01-12,2024-01-12,合同会社令和の介護,,合同会社,千葉県,木更津市,永井作２丁目５番３号,,12,206,2920053,,,,,,,2024-01-12,1,,,,,レイワノカイゴ,0
4048,5050001054085,新規,0,2024-01-12,2024-01-12,ＧＯＬＤＥＮ　Ｒ＆Ｐ　ＧＲＯＵＰＳ株式会社,,株式会社,茨城県,東茨城郡茨城町,大字秋葉７３１番地３,,08,302,3113147,,,,,,,2024-01-12,1,,,,,ゴールデンアールアンドピーグループス,0
4057,5070001041271,新規,0,2024-01-12,2024-01-12,株式会社希玲偉商事,,株式会社,群馬県,伊勢崎市,北千木町９３１番地１,,10,204,3720032,,,,,,,2024-01-12,1,,,,,キレイショウジ,0
4397,5080401026945,新規,0,2024-01-12,2024-01-12,株式会社Ｗｉｓｅ,,株式会社,静岡県,掛川市,千羽４０３番地の２,,22,213,4360008,,,,,,,2024-01-12,1,,,,,ワイズ,0
4754,5110001038098,新規,0,2024-01-12,2024-01-12,株式会社樋口工業,,株式会社,新潟県,新潟市西区,真砂２丁目１４番５号５,,15,107,9502074,,,,,,,2024-01-12,1,,,,,ヒグチコウギョウ,0
4762,5120001260956,新規,0,2024-01-12,2024-01-12,株式会社リヤン,,株式会社,大阪府,交野市,倉治８丁目２１番２号,,27,230,5760051,,,,,,,2024-01-12,1,,,,,リヤン,0
4763,5120001261203,新規,0,2024-01-12,2024-01-12,株式会社Ｌｉｅｎ,,株式会社,大阪府,大阪市中央区,南本町４丁目５番－７号東亜ビル５Ｆ,,27,128,5410054,,,,,,,2024-01-12,1,,,,,リアン,0
4764,5120001261236,新規,0,2024-01-12,2024-01-12,株式会社ハイラッツ,,株式会社,大阪府,門真市,栄町７番２１号,,27,223,5710047,,,,,,,2024-01-12,1,,,,,ハイラッツ,0
4767,5120003025647,新規,0,2024-01-12,2024-01-12,合同会社ＳＡＲＡＮ,,合同会社,大阪府,大阪市東成区,中道３丁目１０番７－３０３号,,27,115,5370025,,,,,,,2024-01-12,1,,,,,サラン,0
4772,5120101068853,新規,0,2024-01-12,2024-01-12,株式会社壱葉,,株式会社,大阪府,堺市西区,鳳北町１０丁７４番地１,,27,144,5938328,,,,,,,2024-01-12,1,,,,,イチハ,0
4773,5120101068861,新規,0,2024-01-12,2024-01-12,株式会社Ｋ２,,株式会社,大阪府,堺市西区,浜寺昭和町２丁２７７番７,,27,144,5928345,,,,,,,2024-01-12,1,,,,,ケーツー,0
4777,5122001037723,新規,0,2024-01-12,2024-01-12,Ｈｅｉｓｅｉホールディングス株式会社,,株式会社,大阪府,大東市,新田中町７番２９号,,27,218,5740056,,,,,,,2024-01-12,1,,,,,ヘイセイホールディングス,0
4780,5130001076113,新規,0,2024-01-12,2024-01-12,株式会社大陽エンジニアリング,,株式会社,京都府,舞鶴市,八反田南町１４５番地３,,26,202,6250078,,,,,,,2024-01-12,1,,,,,タイヨウエンジニアリング,0
4798,5170001017963,新規,0,2024-01-12,2024-01-12,株式会社関西旅行,,株式会社,和歌山県,西牟婁郡白浜町,３２１９番地の７ロイヤルリゾート白浜１００９号,,30,401,6492211,,,,,,,2024-01-12,1,,,,,カンサイリョコウ,0
4801,5180001159714,新規,0,2024-01-12,2024-01-12,Ｓａｎｎｏ．ｓｔｅｒｌｉｎｇ株式会社,,株式会社,愛知県,知多郡南知多町,大字大井字小浜４０番地２８,,23,445,4703501,,,,,,,2024-01-12,1,,,,,サンノウスターリング,0
4811,5180301038188,新規,0,2024-01-12,2024-01-12,ノア株式会社,,株式会社,愛知県,碧南市,白砂町１丁目２３番地１,,23,209,4470076,,,,,,,2024-01-12,1,,,,,ノア,0
4812,5180301038213,新規,0,2024-01-12,2024-01-12,ＳＧＩ株式会社,,株式会社,愛知県,安城市,三河安城南町１丁目１５番地８サンテラス三河安城６階,,23,212,4460058,,,,,,,2024-01-12,1,,,,,エスジーアイ,0
4813,5180301038221,新規,0,2024-01-12,2024-01-12,株式会社ターフ,,株式会社,愛知県,岡崎市,寿町４番地９サンアメニティ寿１０２,,23,202,4442116,,,,,,,2024-01-12,1,,,,,ターフ,0
4821,5210001019600,新規,0,2024-01-12,2024-01-12,株式会社ディープオーシャン,,株式会社,福井県,福井市,光陽２丁目４番２３号,,18,201,9100026,,,,,,,2024-01-12,1,,,,,ディープオーシャン,0
4823,5210003001738,新規,0,2024-01-12,2024-01-12,匠ささ木合同会社,,合同会社,福井県,福井市,大手２丁目２０番２号,,18,201,9100005,,,,,,,2024-01-12,1,,,,,タクミササキ,0
4825,5220001025762,新規,0,2024-01-12,2024-01-12,株式会社山貴,,株式会社,石川県,白山市,山島台３丁目９３番地,,17,210,9240836,,,,,,,2024-01-12,1,,,,,ヤマキ,0
4826,5230003002131,新規,0,2024-01-12,2024-01-12,合同会社Ａ‐Ｐｌｕｓ,,合同会社,富山県,富山市,浜黒崎２６７０番地１,,16,201,9318414,,,,,,,2024-01-12,1,,,,,エープラス,0
4828,5240001062655,新規,0,2024-01-12,2024-01-12,株式会社ＡＩＧＩＡ,,株式会社,広島県,広島市東区,牛田東２丁目１９番１６号,,34,102,7320063,,,,,,,2024-01-12,1,,,,,エイジア,0
4829,5240001062663,新規,0,2024-01-12,2024-01-12,株式会社テイクス,,株式会社,広島県,広島市西区,山手町２０番１５号,,34,104,7330804,,,,,,,2024-01-12,1,,,,,テイクス,0
4831,5240003006478,新規,0,2024-01-12,2024-01-12,日向信之合同会社,,合同会社,広島県,広島市中区,東千田町１丁目１番５５－２５０１号,,34,101,7300053,,,,,,,2024-01-12,1,,,,,ヒナタノブユキ,0
4832,5240003006486,新規,0,2024-01-12,2024-01-12,ＧＲ合同会社,,合同会社,広島県,広島市西区,福島町２丁目７番３号,,34,104,7330024,,,,,,,2024-01-12,1,,,,,ジーアール,0
4835,5260001038645,新規,0,2024-01-12,2024-01-12,株式会社ＣＷＰ,,株式会社,岡山県,倉敷市,木見６４７番地１サンフィオーレＢ１０１号室,,33,202,7100143,,,,,,,2024-01-12,1,,,,,シーダブルピー,0
4838,5280001009099,新規,0,2024-01-12,2024-01-12,ｓｉｋｍ株式会社,,株式会社,島根県,松江市,上乃木７丁目１０－８永原第２ビル２ＦＢ号室,,32,201,6900015,,,,,,,2024-01-12,1,,,,,シクム,0
4840,5280005007578,新規,0,2024-01-12,2024-01-12,一般社団法人島根県ドローン協会,,その他の設立登記法人,島根県,松江市,東本町５丁目１番地,,32,201,6900842,,,,,,,2024-01-12,1,,,,,シマネケンドローンキョウカイ,0
4843,5290001104304,新規,0,2024-01-12,2024-01-12,株式会社ＳＡＮＺＯ,,株式会社,福岡県,福岡市中央区,港２丁目４番２８－２,,40,133,8100075,,,,,,,2024-01-12,1,,,,,サンゾー,0
4844,5290001104337,新規,0,2024-01-12,2024-01-12,ハッピー・ライフ株式会社,,株式会社,福岡県,福岡市中央区,渡辺通３丁目１０－３９アクロス天神センタープラザ８０４号室,,40,133,8100004,,,,,,,2024-01-12,1,,,,,ハッピーライフ,0
4845,5290001104345,新規,0,2024-01-12,2024-01-12,ＨＯＫＵＬＡＮＩ株式会社,,株式会社,福岡県,福岡市博多区,博多駅前１丁目２３番２号ＰａｒｋＦｒｏｎｔ博多駅前１丁目５Ｆ－Ｂ,,40,132,8120011,,,,,,,2024-01-12,1,,,,,ホクラニ,0
4846,5290001104353,新規,0,2024-01-12,2024-01-12,ＧＵコンサルティング株式会社,,株式会社,福岡県,福岡市博多区,比恵町２－１博多エステートビル２１０号,,40,132,8120014,,,,,,,2024-01-12,1,,,,,ジーユーコンサルティング,0
4850,5290003014848,新規,0,2024-01-12,2024-01-12,合同会社みんなのまち,,合同会社,福岡県,宗像市,ひかりヶ丘２丁目１１番地４,,40,220,8113403,,,,,,,2024-01-12,1,,,,,ミンナノマチ,0
4851,5290003014856,新規,0,2024-01-12,2024-01-12,カリティクス合同会社,,合同会社,福岡県,福岡市早良区,祖原４番８－５０１号アメックス西新セレスト,,40,137,8140005,,,,,,,2024-01-12,1,,,,,カリティクス,0
4862,5330001031634,新規,0,2024-01-12,2024-01-12,株式会社雅技研,,株式会社,熊本県,宇城市,松橋町曲野２９３１番地６,,43,213,8690511,,,,,,,2024-01-12,1,,,,,ミヤビギケン,0
4863,5330001031642,新規,0,2024-01-12,2024-01-12,株式会社ＩＮＡＧＡ,,株式会社,熊本県,菊池郡菊陽町,大字津久礼２３６９番地３,,43,404,8691101,,,,,,,2024-01-12,1,,,,,イナガ,0
4864,5330005010741,新規,0,2024-01-12,2024-01-12,ＮＰＯ法人くまもと防災士会,,その他の設立登記法人,熊本県,熊本市中央区,黒髪１丁目２番１８号,,43,101,8600862,,,,,,,2024-01-12,1,,,,,クマモトボウサイシカイ,0
4867,5340001026212,新規,0,2024-01-12,2024-01-12,株式会社ｈａｒｕ,,株式会社,鹿児島県,鹿児島市,上之園町４番地１０エイルマンション上之園１１０８号,,46,201,8900052,,,,,,,2024-01-12,1,,,,,ハル,0
4869,5340003004348,新規,0,2024-01-12,2024-01-12,かねき合同会社,,合同会社,鹿児島県,鹿児島市,中山町１２１６番地３,,46,201,8910105,,,,,,,2024-01-12,1,,,,,カネキ,0
4872,5360001033058,新規,0,2024-01-12,2024-01-12,株式会社ロージュマン,,株式会社,沖縄県,那覇市,壺屋２丁目２１番１２号,,47,201,9020065,,,,,,,2024-01-12,1,,,,,ロージュマン,0
4876,5360005006968,新規,0,2024-01-12,2024-01-12,一般社団法人結結,,その他の設立登記法人,沖縄県,沖縄市,美原４丁目６番２３－１号,,47,211,9042155,,,,,,,2024-01-12,1,,,,,ユイユイ,0
4879,5370001050812,新規,0,2024-01-12,2024-01-12,株式会社エステートほし,,株式会社,宮城県,岩沼市,二木２丁目５番９号,,04,211,9892448,,,,,,,2024-01-12,1,,,,,エステートホシ,0
4884,5370003006440,新規,0,2024-01-12,2024-01-12,合同会社アークス,,合同会社,宮城県,仙台市宮城野区,鶴ケ谷２丁目５番地１２号棟３０８,,04,102,9830824,,,,,,,2024-01-12,1,,,,,アークス,0
4888,5380003005656,新規,0,2024-01-12,2024-01-12,ＡＴｆｉｅｌｄ合同会社,,合同会社,福島県,河沼郡柳津町,大字郷戸字石神甲２４番地,,07,423,9697205,,,,,,,2024-01-12,1,,,,,エーティーフィールド,0
4892,5430001090827,新規,0,2024-01-12,2024-01-12,株式会社豊倉,,株式会社,北海道,小樽市,朝里川温泉２丁目６７０番地３,,01,203,0470154,,,,,,,2024-01-12,1,,,,,トヨクラ,0
4900,5470001019979,新規,0,2024-01-12,2024-01-12,Ｋ．ｆｏｕｒｔｈ株式会社,,株式会社,香川県,高松市,番町５丁目６番１１号,,37,201,7600017,,,,,,,2024-01-12,1,,,,,ケーフォース,0
4902,5470003002553,新規,0,2024-01-12,2024-01-12,合同会社コネクトハート,,合同会社,香川県,高松市,川島東町１７９０番地４,,37,201,7610443,,,,,,,2024-01-12,1,,,,,コネクトハート,0
4903,5480001012347,新規,0,2024-01-12,2024-01-12,Ａｎｉｇａｍｉｃｓ株式会社,,株式会社,徳島県,徳島市,庄町５丁目３番地の１ヴィゴラス壱番館２１０,,36,201,7700044,,,,,,,2024-01-12,1,,,,,アニゲーミックス,0
4908,5700150036982,新規,0,2024-01-12,2015-10-09,住田町観光協会,,その他,岩手県,気仙郡住田町,世田米字川向８８－１,,03,441,0292311,,,,,,,2015-10-09,1,,,,,スミタチヨウカンコウキヨウカイ,0
4924,6010001241272,新規,0,2024-01-12,2024-01-12,株式会社ｔｏ　Ｆｌｏｗｅｒｓ,,株式会社,東京都,中央区,銀座１丁目２２番１１号銀座大竹ビジデンス２階,,13,102,1040061,,,,,,,2024-01-12,1,,,,,トゥーフラワーズ,0
4925,6010001241396,新規,0,2024-01-12,2024-01-12,株式会社Ｍｉｒｔｈ　Ｍａｒｋｅｔｉｎｇ,,株式会社,東京都,中央区,銀座１丁目２２番１１号銀座大竹ビジデンス２Ｆ,,13,102,1040061,,,,,,,2024-01-12,1,,,,,マースマーケティング,0
4926,6010001241405,新規,0,2024-01-12,2024-01-12,株式会社ＥＰＥＩＯＳ　ＨＯＬＤＩＮＧＳ,,株式会社,東京都,中央区,東日本橋３丁目４番１８号東日本橋ＥＸビル６階,,13,102,1030004,,,,,,,2024-01-12,1,,,,,エペイオスホールディングス,0
4927,6010001241446,新規,0,2024-01-12,2024-01-12,バーティカル・マーケット・ソフトウェア・キャピタル・パートナーズ株式会社,,株式会社,東京都,千代田区,神田鍛冶町３丁目４番地,,13,101,1010045,,,,,,,2024-01-12,1,,,,,バーティカルマーケットソフトウェアキャピタルパートナーズ,0
4931,6010101015956,新規,0,2024-01-12,2024-01-12,株式会社ＫＢＣホールディングス,,株式会社,東京都,八王子市,八日町１番１１号,,13,201,1920071,,,,,,,2024-01-12,1,,,,,ケービーシーホールディングス,0
4932,6010101015964,新規,0,2024-01-12,2024-01-12,株式会社ブレイバー,,株式会社,東京都,八王子市,打越町２１２７－８－１０３,,13,201,1920911,,,,,,,2024-01-12,1,,,,,,0
4937,6010401179666,新規,0,2024-01-12,2024-01-12,プレシャスエンタープライズ株式会社,,株式会社,東京都,港区,六本木５丁目１５番２１－１０１号,,13,103,1060032,,,,,,,2024-01-12,1,,,,,プレシャスエンタープライズ,0
4938,6010401179674,新規,0,2024-01-12,2024-01-12,ブーストキャピタル株式会社,,株式会社,東京都,港区,南麻布４丁目９番３号,,13,103,1060047,,,,,,,2024-01-12,1,,,,,ブーストキャピタル,0
4943,6010403031701,新規,0,2024-01-12,2024-01-12,ジー・エイ・ワン・レジデンス・ワン合同会社,,合同会社,東京都,港区,六本木１丁目９番１０号アークヒルズ仙石山森タワー４０階,,13,103,1060032,,,,,,,2024-01-12,1,,,,,ジーエイワンレジデンスワン,0
4944,6010405022863,新規,0,2024-01-12,2024-01-12,ＥＳＲサンフラワー２一般社団法人,,その他の設立登記法人,東京都,港区,浜松町１丁目２０番１０号ライオネス浜松町５０６号室,,13,103,1050013,,,,,,,2024-01-12,1,,,,,イーエスアールサンフラワーニ,0
4948,6010501051592,新規,0,2024-01-12,2024-01-12,株式会社清水寮,,株式会社,東京都,台東区,浅草５丁目５４－４、１Ｆ,,13,106,1110032,,,,,,,2024-01-12,1,,,,,シミズリョウ,0
4951,6010601064437,新規,0,2024-01-12,2024-01-12,株式会社ベル,,株式会社,東京都,墨田区,菊川３丁目１３番３号ＫＳビル３階,,13,107,1300024,,,,,,,2024-01-12,1,,,,,ベル,0
4964,6010903008711,新規,0,2024-01-12,2024-01-12,ＹＭ　Ｖｅｎｔｕｒｅｓ合同会社,,合同会社,東京都,世田谷区,中町５丁目９番１－２０４号,,13,112,1580091,,,,,,,2024-01-12,1,,,,,ワイエムベンチャーズ,0
4973,6011001159257,新規,0,2024-01-12,2024-01-12,株式会社Ｂａｓｉｃ,,株式会社,東京都,目黒区,駒場２丁目９－９,,13,110,1530041,,,,,,,2024-01-12,1,,,,,ベーシック,0
4974,6011003018246,新規,0,2024-01-12,2024-01-12,ＱｕｅｓｔｉｏｎＰｌａｙ合同会社,,合同会社,東京都,渋谷区,道玄坂１丁目１０番８号渋谷道玄坂東急ビル２Ｆ－Ｃ,,13,113,1500043,,,,,,,2024-01-12,1,,,,,クエスチョンプレイ,0
4975,6011005010333,新規,0,2024-01-12,2024-01-12,社会保険労務士法人総合労務コンサルタント石井清香事務所,,その他の設立登記法人,東京都,渋谷区,代々木１丁目１９番１２号,,13,113,1510053,,,,,,,2024-01-12,1,,,,,ソウゴウロウムコンサルタントイシイサヤカジムショ,0
4979,6011101105771,新規,0,2024-01-12,2024-01-12,Ｔａｓｈｉｎａｍｉ株式会社,,株式会社,東京都,新宿区,上落合２丁目１２番１号ＫＭコートＩＩ１０２,00133309,13,104,1610034,,,,,,,2024-01-12,1,,,,,タシナミ,0
4987,6011301029300,新規,0,2024-01-12,2024-01-12,株式会社Ｆ　ｔｏｋｙｏ,,株式会社,東京都,杉並区,成田東４丁目２６番９号,,13,115,1660015,,,,,,,2024-01-12,1,,,,,エフトウキョウ,0
4988,6011301029317,新規,0,2024-01-12,2024-01-12,株式会社Ｂａｒｉｓｔａ　Ｂａｓｅ,,株式会社,東京都,杉並区,久我山５丁目２４－３５ムラマツビル１階,,13,115,1680082,,,,,,,2024-01-12,1,,,,,バリスタベース,0
4992,6011701026913,新規,0,2024-01-12,2024-01-12,ＭＳＲ株式会社,,株式会社,東京都,江戸川区,西葛西７丁目１２番１７号,,13,123,1340088,,,,,,,2024-01-12,1,,,,,エムエスアール,0
4995,6011801043602,新規,0,2024-01-12,2024-01-12,株式会社ｓｉｒｏＱｕｍａ,,株式会社,東京都,葛飾区,南水元１丁目８番１７－５１０号ダイアパレス,,13,122,1250035,,,,,,,2024-01-12,1,,,,,シロクマ,0
5001,6012401041392,新規,0,2024-01-12,2024-01-12,順意フーズ株式会社,,株式会社,東京都,狛江市,中和泉２丁目２０番１４号,,13,219,2010012,,,,,,,2024-01-12,1,,,,,ジュンイフーズ,0
5013,6020001155257,新規,0,2024-01-12,2024-01-12,愛宕マネジメントサービス株式会社,,株式会社,神奈川県,川崎市川崎区,東田町９－６,,14,131,2100005,,,,,,,2024-01-12,1,,,,,,0
5014,6020001155281,新規,0,2024-01-12,2024-01-12,ＹＳ営業支援株式会社,,株式会社,神奈川県,横浜市泉区,新橋町５１番地１プレミスト緑園都市ヴィスタコート５０５号,,14,116,2450009,,,,,,,2024-01-12,1,,,,,ワイエスエイギョウシエン,0
5017,6020003025326,新規,0,2024-01-12,2024-01-12,合同会社Ｆｉｅｓｔａ,,合同会社,神奈川県,横浜市港北区,日吉本町５丁目２０番５号ハイツエレガンス１０５,,14,109,2230062,,,,,,,2024-01-12,1,,,,,フィエスタ,0
5021,6021001081162,新規,0,2024-01-12,2024-01-12,株式会社エンジニ屋,,株式会社,神奈川県,小田原市,成田３３番地１６,,14,206,2500862,,,,,,,2024-01-12,1,,,,,エンジニヤ,0
5022,6021001081187,新規,0,2024-01-12,2024-01-12,ネクスポート株式会社,,株式会社,神奈川県,大和市,西鶴間３丁目５番６号,,14,213,2420005,,,,,,,2024-01-12,1,,,,,ネクスポート,0
5025,6021003014005,新規,0,2024-01-12,2024-01-12,合同会社Ｈ．Ｕ,,合同会社,神奈川県,藤沢市,辻堂新町１丁目２番２３号,,14,205,2510042,,,,,,,2024-01-12,1,,,,,エイチユー,0
5035,6030001158028,新規,0,2024-01-12,2024-01-12,株式会社ＡＣＣ開発,,株式会社,埼玉県,三郷市,中央４丁目２０－２メイツ三郷中央サラテラス６２１,,11,237,3410038,,,,,,,2024-01-12,1,,,,,エーシーシーカイハツ,0
5036,6030001158044,新規,0,2024-01-12,2024-01-12,株式会社Ｋ‐ｔｅｃ,,株式会社,埼玉県,川口市,飯塚２丁目６番８号ミライオンビル２０３号,,11,203,3320023,,,,,,,2024-01-12,1,,,,,ケーテック,0
5037,6030001158085,新規,0,2024-01-12,2024-01-12,ｃｕｔｎａｌ株式会社,,株式会社,埼玉県,志木市,柏町６丁目２７番４８－１０２号,,11,228,3530007,,,,,,,2024-01-12,1,,,,,カットナル,0
5038,6030001158093,新規,0,2024-01-12,2024-01-12,株式会社大久保商店,,株式会社,埼玉県,さいたま市中央区,下落合２丁目１５番１９号,,11,105,3380002,,,,,,,2024-01-12,1,,,,,オオクボショウテン,0
5039,6030001158151,新規,0,2024-01-12,2024-01-12,株式会社アトリエ・エヌ,,株式会社,埼玉県,さいたま市緑区,大字中尾８８７番地１,,11,109,3360932,,,,,,,2024-01-12,1,,,,,アトリエエヌ,0
5043,6030003023361,新規,0,2024-01-12,2024-01-12,合同会社基福,,合同会社,埼玉県,さいたま市浦和区,上木崎２丁目２番２号河辺ビル１Ｆ,,11,107,3300071,,,,,,,2024-01-12,1,,,,,モトヨシ,0
5044,6030003023386,新規,0,2024-01-12,2024-01-12,ＰＬＡＹＩＮＧ　ＴＨＥ　ＳＫＹ合同会社,,合同会社,埼玉県,行田市,矢場１丁目４番２２号,,11,206,3610051,,,,,,,2024-01-12,1,,,,,プレイングザスカイ,0
5049,6040001131677,新規,0,2024-01-12,2024-01-12,リゾルテクノ株式会社,,株式会社,千葉県,柏市,青葉台２丁目２７番地２号,,12,217,2770055,,,,,,,2024-01-12,1,,,,,リゾルテクノ,0
5050,6040001131693,新規,0,2024-01-12,2024-01-12,株式会社トレシア,,株式会社,千葉県,千葉市若葉区,若松町４１３番地１９４,,12,104,2640021,,,,,,,2024-01-12,1,,,,,トレシア,0
5052,6040003024061,新規,0,2024-01-12,2024-01-12,合同会社ＭＡＳＡＲＵ,,合同会社,千葉県,浦安市,北栄３丁目３１番９－４０１号ルイシャトレ浦安プロッシモ,,12,227,2790002,,,,,,,2024-01-12,1,,,,,マサル,0
5058,6050003008030,新規,0,2024-01-12,2024-01-12,ｔｏＭｅ合同会社,,合同会社,茨城県,つくば市,学園南２丁目２番地７レーベンつくば研究学園１２０３号,,08,220,3050818,,,,,,,2024-01-12,1,,,,,トゥーミー,0
5059,6050005013375,新規,0,2024-01-12,2024-01-12,一般社団法人ＩＳＬＡＭＩＣ　ＣＥＮＴＥＲ　ＴＡＪＷＥＥＤ　ＵＬ　ＱＵＲＡＮ　ＪＡＰＡＮ,,その他の設立登記法人,茨城県,古河市,上大野２０１８番地２,,08,204,3060201,,,,,,,2024-01-12,1,,,,,イスラミックセンタータジウィードルクルアーンジャパン,0
5064,6060001036726,新規,0,2024-01-12,2024-01-12,株式会社タカマルオート,,株式会社,栃木県,鹿沼市,池ノ森６８番地３,,09,205,3220018,,,,,,,2024-01-12,1,,,,,タカマルオート,0
5067,6070003005224,新規,0,2024-01-12,2024-01-12,合同会社ＣＲＯＳＳＰＯＩＮＴ,,合同会社,群馬県,館林市,楠町１３６６番地の１,,10,207,3740004,,,,,,,2024-01-12,1,,,,,クロスポイント,0
5080,6080101024455,新規,0,2024-01-12,2024-01-12,株式会社まる,,株式会社,静岡県,富士宮市,羽鮒１２０９番地の３,,22,207,4190316,,,,,,,2024-01-12,1,,,,,マル,0
5411,6080401026944,新規,0,2024-01-12,2024-01-12,株式会社エンドゲイズ,,株式会社,静岡県,浜松市中央区,田町２２６番地の１、３０３,,22,138,4300944,,,,,,,2024-01-12,1,,,,,エンドゲイズ,0
5773,6120001260807,新規,0,2024-01-12,2024-01-12,株式会社ＳＵＮ　ＴＲＥＥ,,株式会社,大阪府,大阪市中央区,東心斎橋２丁目８番３号日宝笠屋町会館２階,,27,128,5420083,,,,,,,2024-01-12,1,,,,,サンツリー,0
5774,6120001261128,新規,0,2024-01-12,2024-01-12,株式会社メロディー,,株式会社,大阪府,大阪市西成区,鶴見橋１丁目１５番２７号,,27,122,5570031,,,,,,,2024-01-12,1,,,,,メロディー,0
5775,6120001261152,新規,0,2024-01-12,2024-01-12,株式会社Ｇｏ２,,株式会社,大阪府,大阪市住吉区,南住吉４丁目６－２７,,27,120,5580041,,,,,,,2024-01-12,1,,,,,ゴートゥー,0
5776,6120001261219,新規,0,2024-01-12,2024-01-12,株式会社ｈａｒｅｉｒｏ,,株式会社,大阪府,大阪市東淀川区,小松１丁目５番１号１Ｆ,,27,114,5330004,,,,,,,2024-01-12,1,,,,,ハレイロ,0
5777,6120001261243,新規,0,2024-01-12,2024-01-12,株式会社ＱＵＥＳＴ　ｓｔｙｌｅ,,株式会社,大阪府,大阪市東住吉区,今川７丁目１４番２１号,,27,121,5460003,,,,,,,2024-01-12,1,,,,,クエストスタイル,0
5778,6120001261251,新規,0,2024-01-12,2024-01-12,株式会社小嶋設備,,株式会社,大阪府,大阪市北区,梅田１丁目１番３号大阪駅前第３ビル２９階１－１－１号室,,27,127,5300001,,,,,,,2024-01-12,1,,,,,コジマセツビ,0
5779,6120001261284,新規,0,2024-01-12,2024-01-12,株式会社清誠,,株式会社,大阪府,枚方市,東中振１丁目１５番２－２０５号,,27,210,5730093,,,,,,,2024-01-12,1,,,,,シンセイ,0
5780,6120001261301,新規,0,2024-01-12,2024-01-12,株式会社カナヤーマン,,株式会社,大阪府,大阪市東成区,中道２丁目１４番１７号,,27,115,5370025,,,,,,,2024-01-12,1,,,,,カナヤーマン,0
5785,6120003025662,新規,0,2024-01-12,2024-01-12,合同会社ＮＡＲＵＴＯネット通販,,合同会社,大阪府,守口市,大久保町１丁目７番１２－２０３号,,27,209,5700012,,,,,,,2024-01-12,1,,,,,ナルトネットツウハン,0
5791,6120103005614,新規,0,2024-01-12,2024-01-12,合同会社アールプラス,,合同会社,大阪府,藤井寺市,北岡２丁目２番１０号,,27,226,5830035,,,,,,,2024-01-12,1,,,,,アールプラス,0
5794,6120901048616,新規,0,2024-01-12,2024-01-12,株式会社木昌,,株式会社,大阪府,池田市,城南１丁目９－２２,,27,204,5630025,,,,,,,2024-01-12,1,,,,,モクショウ,0
5795,6120903004988,新規,0,2024-01-12,2024-01-12,合同会社プルミエール,,合同会社,大阪府,豊中市,服部元町２丁目４番２６－７０１号,,27,203,5610851,,,,,,,2024-01-12,1,,,,,プルミエール,0
5796,6122001037722,新規,0,2024-01-12,2024-01-12,株式会社Ａｉｍ　Ｔｏｐ　Ｈｏｍｅ,,株式会社,大阪府,大東市,深野４丁目９番１２号ルナメゾンＢ棟１０６号,,27,218,5740072,,,,,,,2024-01-12,1,,,,,エイムトップホーム,0
5798,6122003002765,新規,0,2024-01-12,2024-01-12,合同会社ＧＤＲ,,合同会社,大阪府,四條畷市,大字清瀧１０番地の２レクシア忍ケ丘６０３,,27,229,5750063,,,,,,,2024-01-12,1,,,,,ジーディーアール,0
5800,6130001076079,新規,0,2024-01-12,2024-01-12,株式会社森下工業,,株式会社,京都府,宇治市,五ケ庄広岡谷１－１５７,,26,204,6110011,,,,,,,2024-01-12,1,,,,,モリシタコウギョウ,0
5802,6130003009227,新規,0,2024-01-12,2024-01-12,合同会社夢現,,合同会社,京都府,南丹市,八木町鳥羽鳥栄本１１番地,,26,213,6290162,,,,,,,2024-01-12,1,,,,,ムゲン,0
5809,6140001132962,新規,0,2024-01-12,2024-01-12,ＧＴＹ株式会社,,株式会社,兵庫県,芦屋市,高浜町１６番１３号,,28,206,6590033,,,,,,,2024-01-12,1,,,,,ジーティーワイ,0
5810,6140001132987,新規,0,2024-01-12,2024-01-12,株式会社ＡＢＣ,,株式会社,兵庫県,神戸市長田区,大道通４丁目１番７号,,28,106,6530833,,,,,,,2024-01-12,1,,,,,エービーシー,0
5813,6140003020042,新規,0,2024-01-12,2024-01-12,合同会社ＯＭＣ,,合同会社,兵庫県,西宮市,石在町１４番２５号,,28,204,6620928,,,,,,,2024-01-12,1,,,,,オーエムシー,0
5816,6160003003086,新規,0,2024-01-12,2024-01-12,合同会社ＮＥＸＴ‐ＳＴＡＧＥ,,合同会社,滋賀県,草津市,東草津２丁目４‐１１‐１０,,25,206,5250033,,,,,,,2024-01-12,1,,,,,ネクストステージ,0
5829,6180001159655,新規,0,2024-01-12,2024-01-12,株式会社Ｏｒｔｈｏｓｉａ,,株式会社,愛知県,春日井市,高蔵寺町北３丁目１２番地１７カルティア高蔵寺ステーションフロント２０２号室,,23,206,4870016,,,,,,,2024-01-12,1,,,,,オルトシア,0
5830,6180001159713,新規,0,2024-01-12,2024-01-12,株式会社リゲル,,株式会社,愛知県,名古屋市天白区,高島２丁目２１１１番地,,23,116,4680022,,,,,,,2024-01-12,1,,,,,リゲル,0
5835,6180005020490,新規,0,2024-01-12,2024-01-12,一般社団法人名古屋研修講師育成協会,,その他の設立登記法人,愛知県,名古屋市天白区,原２丁目３５０８番地の１,,23,116,4680015,,,,,,,2024-01-12,1,,,,,ナゴヤケンシュウコウシイクセイキョウカイ,0
5840,6180301038220,新規,0,2024-01-12,2024-01-12,株式会社碧南金属,,株式会社,愛知県,安城市,根崎町下渡瀬３１番地,,23,212,4441211,,,,,,,2024-01-12,1,,,,,ヘキナンキンゾク,0
5848,6210001019599,新規,0,2024-01-12,2024-01-12,株式会社ミタショー,,株式会社,福井県,福井市,志比口３丁目２番２５号,,18,201,9100845,,,,,,,2024-01-12,1,,,,,ミタショー,0
5851,6240001062646,新規,0,2024-01-12,2024-01-12,株式会社ＢＲＩＧＨＴ　ｕＰ,,株式会社,広島県,広島市佐伯区,藤の木２丁目１０番８号,,34,108,7315103,,,,,,,2024-01-12,1,,,,,ブライトアップ,0
5859,6260001038636,新規,0,2024-01-12,2024-01-12,株式会社ＫＩＪＩＭＡ地建,,株式会社,岡山県,倉敷市,藤戸町藤戸１４２番地１６,,33,202,7100133,,,,,,,2024-01-12,1,,,,,キジマチケン,0
5865,6290001104344,新規,0,2024-01-12,2024-01-12,株式会社カタメソ,,株式会社,福岡県,福岡市東区,名島２丁目４０番１－２０２号,,40,131,8130043,,,,,,,2024-01-12,1,,,,,カタメソ,0
5866,6290001104352,新規,0,2024-01-12,2024-01-12,株式会社テイクアイズ,,株式会社,福岡県,久留米市,北野町赤司１４０６番地１,,40,203,8301127,,,,,,,2024-01-12,1,,,,,テイクアイズ,0
5867,6290001104360,新規,0,2024-01-12,2024-01-12,株式会社ＰｉｔＡｒｔ,,株式会社,福岡県,福岡市博多区,博多駅前１丁目２３番２号ＰａｒｋＦｒｏｎｔ博多駅前１丁目５Ｆ－Ｂ,,40,132,8120011,,,,,,,2024-01-12,1,,,,,ピタアート,0
5868,6290001104369,新規,0,2024-01-12,2024-01-12,株式会社Ｍｏｖｅ,,株式会社,福岡県,福岡市中央区,那の川２丁目７番２－１０４号,,40,133,8100015,,,,,,,2024-01-12,1,,,,,ムーヴ,0
5870,6290003014847,新規,0,2024-01-12,2024-01-12,合同会社ＡｎｏｔｈｅｒＳｔｕｄｉｏＭｏｎｓｉｅＲ,,合同会社,福岡県,福岡市博多区,博多駅前１丁目２３番２号５Ｆ－Ｂ,,40,132,8120011,,,,,,,2024-01-12,1,,,,,アナザースタジオムッシュ,0
5871,6290003014855,新規,0,2024-01-12,2024-01-12,合同会社Ｔｈｅｂａ‐Ｌａ,,合同会社,福岡県,福岡市中央区,大手門３丁目８番５号パルムユニオン５０１号,,40,133,8100074,,,,,,,2024-01-12,1,,,,,テバーラ,0
5874,6290801030203,新規,0,2024-01-12,2024-01-12,ＤＹＮＡＭＩＣ人材グローバル商事株式会社,,株式会社,福岡県,北九州市小倉北区,片野３丁目１番４－４０３号,,40,106,8020064,,,,,,,2024-01-12,1,,,,,ダイナミックジンザイグローバルショウジ,0
5876,6300001013584,新規,0,2024-01-12,2024-01-12,株式会社恭創,,株式会社,佐賀県,唐津市,原１２８２番地５,,41,202,8470031,,,,,,,2024-01-12,1,,,,,キョウソウ,0
5887,6360001033057,新規,0,2024-01-12,2024-01-12,株式会社ＣＦＧ,,株式会社,沖縄県,那覇市,曙３丁目１９番２－３０２号センチュリー那覇曙,,47,201,9000002,,,,,,,2024-01-12,1,,,,,シーエフジー,0
5889,6370003006431,新規,0,2024-01-12,2024-01-12,合同会社ＨＯＳＨＩ,,合同会社,宮城県,宮城郡七ヶ浜町,境山１丁目１１番３３号,,04,404,9850824,,,,,,,2024-01-12,1,,,,,ホシ,0
5893,6380001034235,新規,0,2024-01-12,2024-01-12,株式会社ＦＯＲＩＡＮ,,株式会社,福島県,郡山市,鳴神３丁目９７番地,,07,203,9630207,,,,,,,2024-01-12,1,,,,,フォーリアン,0
5897,6400005008380,新規,0,2024-01-12,2024-01-12,特定非営利活動法人岩手県防災士会,,その他の設立登記法人,岩手県,盛岡市,北松園３丁目２９番３号,,03,201,0200105,,,,,,,2024-01-12,1,,,,,イワテケンボウサイシカイ,0
5901,6420001018539,新規,0,2024-01-12,2024-01-12,株式会社ほむら,,株式会社,青森県,弘前市,大字清野袋２丁目６番地２,,02,202,0368072,,,,,,,2024-01-12,1,,,,,ホムラ,0
5903,6420003002862,新規,0,2024-01-12,2024-01-12,合同会社ＴＮメンテナンス,,合同会社,青森県,つがる市,稲垣町吉出玉桂３９番地１,,02,209,0370108,,,,,,,2024-01-12,1,,,,,ティエヌメンテナンス,0
5906,6430001090859,新規,0,2024-01-12,2024-01-12,株式会社大秀防水工業,,株式会社,北海道,札幌市東区,東苗穂五条２丁目８番５号エルムハイツ２０３号,,01,103,0070805,,,,,,,2024-01-12,1,,,,,ダイシュウボウスイコウギョウ,0
5913,6470001019978,新規,0,2024-01-12,2024-01-12,株式会社Ｚｅｎ,,株式会社,香川県,坂出市,久米町２丁目９－３４,,37,203,7620003,,,,,,,2024-01-12,1,,,,,ゼン,0
5924,7010001241404,新規,0,2024-01-12,2024-01-12,株式会社Ｓ＆Ｒ,,株式会社,東京都,千代田区,岩本町３丁目９－３,,13,101,1010032,,,,,,,2024-01-12,1,,,,,エスアンドアール,0
5925,7010001241420,新規,0,2024-01-12,2024-01-12,漆間アセット・マネジメント１号株式会社,,株式会社,東京都,千代田区,丸の内２丁目４番１号丸の内ビルディング１８階,,13,101,1000005,,,,,,,2024-01-12,1,,,,,ウルマアセットマネジメントイチゴウ,0
5928,7010005037708,新規,0,2024-01-12,2024-01-12,アイエイ弁護士法人,,その他の設立登記法人,東京都,千代田区,内幸町１丁目３番２号,,13,101,1000011,,,,,,,2024-01-12,1,,,,,アイエイ,0
5929,7010101015955,新規,0,2024-01-12,2024-01-12,株式会社ＭＲＫ,,株式会社,東京都,八王子市,みなみ野５丁目３０番１１２号,,13,201,1920916,,,,,,,2024-01-12,1,,,,,エムアールケー,0
5930,7010101015963,新規,0,2024-01-12,2024-01-12,Ｃｌｏｕｄ１０株式会社,,株式会社,東京都,八王子市,田町２‐１,,13,201,1920064,,,,,,,2024-01-12,1,,,,,クラウドテン,0
5942,7010401179673,新規,0,2024-01-12,2024-01-12,株式会社ジェープラン,,株式会社,東京都,港区,虎ノ門４丁目３－１城山トラストタワー２７階,,13,103,1050001,,,,,,,2024-01-12,1,,,,,ジェープラン,0
5943,7010401179681,新規,0,2024-01-12,2024-01-12,株式会社モノコトバード,,株式会社,東京都,港区,西新橋１丁目２番９号日比谷セントラルビル１４階,,13,103,1050003,,,,,,,2024-01-12,1,,,,,モノコトバード,0
5944,7010401179707,新規,0,2024-01-12,2024-01-12,株式会社Ｇｌｏｂａｌ　Ｗｏｒｌｄ,,株式会社,東京都,港区,六本木３丁目３番１０－１４０１号,,13,103,1060032,,,,,,,2024-01-12,1,,,,,グローバルワールド,0
5951,7010601064469,新規,0,2024-01-12,2024-01-12,株式会社Ｂａｃｃｈｅｔｔａ　Ａｒｍｏｎｉｃａ,,株式会社,東京都,墨田区,錦糸２丁目６番３号第１荒木ビル１階,,13,107,1300013,,,,,,,2024-01-12,1,,,,,バケッタアルモニカ,0
5959,7010901054509,新規,0,2024-01-12,2024-01-12,株式会社オフィス・カルラ,,株式会社,東京都,世田谷区,成城６丁目３０番５号,,13,112,1570066,,,,,,,2024-01-12,1,,,,,オフィスカルラ,0
5961,7010903008727,新規,0,2024-01-12,2024-01-12,ＳｕｎＣｏｌｏｒｓ合同会社,,合同会社,東京都,世田谷区,喜多見７丁目１５－８,,13,112,1570067,,,,,,,2024-01-12,1,,,,,サンカラーズ,0
5965,7011001158794,新規,0,2024-01-12,2024-01-12,株式会社ｃ６０Ｇｒｏｕｐ,,株式会社,東京都,渋谷区,広尾４丁目１番２５号,,13,113,1500012,,,,,,,2024-01-12,1,,,,,シーシックスティーグループ,0
5966,7011001159041,新規,0,2024-01-12,2024-01-12,株式会社蒼い光,,株式会社,東京都,目黒区,下目黒４丁目１０番２８号スパシエルクス目黒５０１号室,,13,110,1530064,,,,,,,2024-01-12,1,,,,,アオイヒカリ,0
5967,7011001159272,新規,0,2024-01-12,2024-01-12,ＶＡＮＥＳ株式会社,,株式会社,東京都,渋谷区,神泉町１０番１５号アネックス神泉３０１,,13,113,1500045,,,,,,,2024-01-12,1,,,,,ヴェインズ,0
5968,7011001159330,新規,0,2024-01-12,2024-01-12,宜信株式会社,,株式会社,東京都,渋谷区,本町５丁目４２－１２－５０６室,,13,113,1510071,,,,,,,2024-01-12,1,,,,,ギシン,0
5969,7011001159339,新規,0,2024-01-12,2024-01-12,株式会社青曜社,,株式会社,東京都,目黒区,下目黒１丁目１番１４号コノトラビル７Ｆ,,13,110,1530064,,,,,,,2024-01-12,1,,,,,セイヨウシャ,0
5970,7011001159355,新規,0,2024-01-12,2024-01-12,株式会社Ｓａｍｉｋａ,,株式会社,東京都,渋谷区,千駄ヶ谷５丁目２７番５号リンクスクエア新宿１６Ｆ,,13,113,1510051,,,,,,,2024-01-12,1,,,,,サミカ,0
5974,7011503005908,新規,0,2024-01-12,2024-01-12,合同会社スリーコイン,,合同会社,東京都,北区,中里２丁目１４－３－２０２,,13,117,1140015,,,,,,,2024-01-12,1,,,,,スリーコイン,0
5975,7011701026912,新規,0,2024-01-12,2024-01-12,株式会社ｓｍｋ,,株式会社,東京都,江戸川区,南小岩８丁目１５番１６号ニュー東京ビル３階,,13,123,1330056,,,,,,,2024-01-12,1,,,,,エスエムケー,0
5976,7011701026920,新規,0,2024-01-12,2024-01-12,為成株式会社,,株式会社,東京都,江戸川区,中央４丁目３番９号,,13,123,1320021,,,,,,,2024-01-12,1,,,,,ナセル,0
5978,7011703003711,新規,0,2024-01-12,2024-01-12,合同会社キャリーコネクト,,合同会社,東京都,江戸川区,一之江２丁目３番７号,,13,123,1320024,,,,,,,2024-01-12,1,,,,,キャリーコネクト,0
5981,7011801043626,新規,0,2024-01-12,2024-01-12,ヤオキンホールディングス株式会社,,株式会社,東京都,足立区,足立４丁目２８番１０号,,13,121,1200015,,,,,,,2024-01-12,1,,,,,ヤオキンホールディングス,0
5983,7012401041391,新規,0,2024-01-12,2024-01-12,株式会社ＯＳＭ,,株式会社,東京都,武蔵野市,吉祥寺南町２丁目８番６第１８通南ビル３０５号室,,13,203,1800003,,,,,,,2024-01-12,1,,,,,オーエスエム,0
5985,7012405004931,新規,0,2024-01-12,2024-01-12,一般社団法人Ｇｅｎｅｒａｔｉｖｅ　ＡＩ　Ｊａｐａｎ,,その他の設立登記法人,東京都,多摩市,落合１丁目３４番地,,13,224,2060033,,,,,,,2024-01-12,1,,,,,ジェネレーティブエーアイジャパン,0
6001,7020001155173,新規,0,2024-01-12,2024-01-12,株式会社Ｍｏｓｔｆｕｎ　Ｃａｒｅ,,株式会社,神奈川県,横浜市港北区,新横浜１丁目１１番地４第一ハマダビル４０２号室,,14,109,2220033,,,,,,,2024-01-12,1,,,,,モストファンケア,0
6002,7020001155248,新規,0,2024-01-12,2024-01-12,株式会社ＫｏｏｏＰ,,株式会社,神奈川県,横浜市戸塚区,舞岡町２９番地７５グランシティ戸塚舞岡３０６号,,14,110,2440813,,,,,,,2024-01-12,1,,,,,クープ,0
6003,7020001155264,新規,0,2024-01-12,2024-01-12,ＭＡＸ　ＳＴＵＤＩＯ株式会社,,株式会社,神奈川県,横浜市神奈川区,六角橋１丁目８番４号山室ビル４階,,14,102,2210802,,,,,,,2024-01-12,1,,,,,マックススタジオ,0
6011,7020003025325,新規,0,2024-01-12,2024-01-12,合同会社オープラスサン,,合同会社,神奈川県,横浜市都筑区,すみれが丘２番地３ヴィオレットコリーヌ１０３号室,,14,118,2240013,,,,,,,2024-01-12,1,,,,,オープラスサン,0
6012,7020003025333,新規,0,2024-01-12,2024-01-12,合同会社ＯＭＯＴＥＮＡＳＨＩ　ｎ４４,,合同会社,神奈川県,横浜市戸塚区,汲沢町１３７６－２６,,14,110,2450062,,,,,,,2024-01-12,1,,,,,オモテナシエヌヨンヨン,0
6015,7021001081186,新規,0,2024-01-12,2024-01-12,株式会社ＡＴＬＡＳ,,株式会社,神奈川県,相模原市南区,新磯野１８８番地,,14,153,2520325,,,,,,,2024-01-12,1,,,,,アトラス,0
6016,7021001081203,新規,0,2024-01-12,2024-01-12,Ｇｅｎｉｕｓ株式会社,,株式会社,神奈川県,伊勢原市,伊勢原１丁目２４番３号相湘伊勢原ビル２１－１０１,,14,214,2591131,,,,,,,2024-01-12,1,,,,,ジーニアス,0
6028,7030001158035,新規,0,2024-01-12,2024-01-12,ＭＩＴグループ株式会社,,株式会社,埼玉県,川越市,脇田町４番地２ドン・キホーテ川越東口店５Ｆもみ屋くつろぎ,,11,201,3501122,,,,,,,2024-01-12,1,,,,,エムアイティーグループ,0
6029,7030001158101,新規,0,2024-01-12,2024-01-12,株式会社空,,株式会社,埼玉県,さいたま市緑区,大字中尾１３６０番地５アゼリア３,,11,109,3360932,,,,,,,2024-01-12,1,,,,,ソラ,0
6030,7030001158118,新規,0,2024-01-12,2024-01-12,次元株式会社,,株式会社,埼玉県,深谷市,本郷３４４０番地１０,,11,218,3690214,,,,,,,2024-01-12,1,,,,,ジゲン,0
6031,7030001158126,新規,0,2024-01-12,2024-01-12,株式会社田端自動車整備工場,,株式会社,埼玉県,児玉郡美里町,大字甘粕４６４番地１,,11,381,3670113,,,,,,,2024-01-12,1,,,,,タバタジドウシャセイビコウジョウ,0
6032,7030001158134,新規,0,2024-01-12,2024-01-12,ＳＡコンサルティング株式会社,,株式会社,埼玉県,さいたま市南区,別所３丁目３３番２０号,,11,108,3360021,,,,,,,2024-01-12,1,,,,,エスエイコンサルティング,0
6037,7030003023377,新規,0,2024-01-12,2024-01-12,合同会社日幸,,合同会社,埼玉県,川口市,弥平３丁目６番６号ベルポート１０４,,11,203,3320002,,,,,,,2024-01-12,1,,,,,ニッコウ,0
6038,7030003023385,新規,0,2024-01-12,2024-01-12,合同会社ＭＥＥＭ,,合同会社,埼玉県,さいたま市緑区,芝原２丁目２１番地６,,11,109,3360917,,,,,,,2024-01-12,1,,,,,ミーム,0
6039,7030003023393,新規,0,2024-01-12,2024-01-12,合同会社タイトアグレッシブ,,合同会社,埼玉県,桶川市,大字下日出谷９１９番地の１１,,11,231,3630025,,,,,,,2024-01-12,1,,,,,タイトアグレッシブ,0
6043,7040001131635,新規,0,2024-01-12,2024-01-12,株式会社東洋,,株式会社,千葉県,野田市,なみき４丁目１９番地４アヤソフィア３０１号,,12,208,2700229,,,,,,,2024-01-12,1,,,,,トウヨウ,0
6044,7040001131701,新規,0,2024-01-12,2024-01-12,株式会社ラフュノス,,株式会社,千葉県,千葉市中央区,中央３丁目１７番１号千葉セントラルタワー１階Ｃ,,12,101,2600013,,,,,,,2024-01-12,1,,,,,ラフュノス,0
6047,7040003024069,新規,0,2024-01-12,2024-01-12,合同会社たかはし遊船,,合同会社,千葉県,市川市,妙典１丁目２番５号,,12,203,2720111,,,,,,,2024-01-12,1,,,,,タカハシユウセン,0
6048,7040003024110,新規,0,2024-01-12,2024-01-12,合同会社ＪｉｎＴｒａｄｉｎｇ,,合同会社,千葉県,千葉市美浜区,若葉３丁目１－１９クロスタワー２６０８号,,12,106,2610014,,,,,,,2024-01-12,1,,,,,ジントレーディング,0
6053,7050001054100,新規,0,2024-01-12,2024-01-12,株式会社サニー造園,,株式会社,茨城県,古河市,下大野２９６５番地３０８,,08,204,3060204,,,,,,,2024-01-12,1,,,,,サニーゾウエン,0
6054,7050001054109,新規,0,2024-01-12,2024-01-12,株式会社ＭＳ＆Ｃｏ．,,株式会社,茨城県,つくば市,学園南２丁目４番地４－１８０５号,,08,220,3050818,,,,,,,2024-01-12,1,,,,,エムエスアンドカンパニー,0
6056,7050003008054,新規,0,2024-01-12,2024-01-12,Ｅｌｌｉｐｓｅ　Ｃｏｎｓｕｌｔｉｎｇ合同会社,,合同会社,茨城県,つくば市,研究学園７丁目２４番地３,,08,220,3050817,,,,,,,2024-01-12,1,,,,,エリプスコンサルティング,0
6062,7070001041278,新規,0,2024-01-12,2024-01-12,株式会社清陽プロパティ,,株式会社,群馬県,邑楽郡大泉町,大字古氷１８２番地２,,10,524,3700536,,,,,,,2024-01-12,1,,,,,シンヨウプロパティ,0
6373,7080401026943,新規,0,2024-01-12,2024-01-12,株式会社ＣＡＬＩＸ,,株式会社,静岡県,浜松市中央区,三方原町５１５番地の７プルミエ３０１,,22,138,4338105,,,,,,,2024-01-12,1,,,,,キャリクス,0
6657,7080403004939,新規,0,2024-01-12,2024-01-12,藤田合同会社,,合同会社,静岡県,浜松市中央区,葵西６丁目１９番１２号,,22,138,4338111,,,,,,,2024-01-12,1,,,,,フジタ,0
6707,7090003002466,新規,0,2024-01-12,2024-01-12,合同会社ａｎｄ　ＰＥＡＣＥ,,合同会社,山梨県,笛吹市,石和町窪中島１９６－１,,19,211,4060036,,,,,,,2024-01-12,1,,,,,アンドピース,0
6708,7110005017039,新規,0,2024-01-12,2024-01-12,一般社団法人マグノリア,,その他の設立登記法人,新潟県,糸魚川市,新鉄２丁目１４番１８号,,15,216,9410065,,,,,,,2024-01-12,1,,,,,マグノリア,0
6716,7120001261176,新規,0,2024-01-12,2024-01-12,株式会社Ｄ＆Ｌ,,株式会社,大阪府,大阪市浪速区,日本橋３丁目１番４号,,27,111,5560005,,,,,,,2024-01-12,1,,,,,ディーアンドエル,0
6717,7120001261184,新規,0,2024-01-12,2024-01-12,Ａｓｃｅｎｄｉｎｇ株式会社,,株式会社,大阪府,大阪市西区,北堀江４丁目８－１６プレステージ北堀江２０２室,,27,106,5500014,,,,,,,2024-01-12,1,,,,,アセンディング,0
6718,7120001261201,新規,0,2024-01-12,2024-01-12,ＰＡＴＨＦＩＮＤＥＲ株式会社,,株式会社,大阪府,大阪市中央区,上町１丁目２５－２－２０１,,27,128,5400005,,,,,,,2024-01-12,1,,,,,パスファインダー,0
6719,7120001261234,新規,0,2024-01-12,2024-01-12,株式会社小さなお店の演出家,,株式会社,大阪府,大阪市北区,梅田１丁目２番２号大阪駅前第２ビル１２－１２,,27,127,5300001,,,,,,,2024-01-12,1,,,,,チイサナオミセノエンシュツカ,0
6720,7120001261250,新規,0,2024-01-12,2024-01-12,株式会社熱くなれ,,株式会社,大阪府,大阪市中央区,備後町１丁目４番１６－７０２号,,27,128,5410051,,,,,,,2024-01-12,1,,,,,アツクナレ,0
6721,7120001261275,新規,0,2024-01-12,2024-01-12,株式会社マルタマフーズホールディングス,,株式会社,大阪府,大阪市平野区,平野馬場１丁目１７番１５号,,27,126,5470048,,,,,,,2024-01-12,1,,,,,マルタマフーズホールディングス,0
6722,7120001261325,新規,0,2024-01-12,2024-01-12,株式会社ＭＥＲＹ,,株式会社,大阪府,大阪市浪速区,日本橋４丁目１５番６号,,27,111,5560005,,,,,,,2024-01-12,1,,,,,メリー,0
6728,7120003025645,新規,0,2024-01-12,2024-01-12,ＳＩＡＭ　ＴＲＡＤＥ合同会社,,合同会社,大阪府,大阪市北区,豊崎４丁目８番２－５０２号,,27,127,5310072,,,,,,,2024-01-12,1,,,,,サイアムトレード,0
6729,7120003025694,新規,0,2024-01-12,2024-01-12,合同会社キーワン,,合同会社,大阪府,大阪市中央区,南船場３丁目２番２２号おおきに南船場ビル２０５,,27,128,5420081,,,,,,,2024-01-12,1,,,,,キーワン,0
6731,7120101068868,新規,0,2024-01-12,2024-01-12,株式会社安河内,,株式会社,大阪府,堺市堺区,戎島町２丁６２－８７０６号,,27,141,5900985,,,,,,,2024-01-12,1,,,,,ヤスコウチ,0
6734,7120901048598,新規,0,2024-01-12,2024-01-12,株式会社８ｗｉｔｚ,,株式会社,大阪府,豊中市,東豊中町６丁目２３番５号,,27,203,5600003,,,,,,,2024-01-12,1,,,,,エイトウィッツ,0
6735,7120901048607,新規,0,2024-01-12,2024-01-12,株式会社ＰＲＩＤＥ‐ＯＮＥ,,株式会社,大阪府,豊中市,上野西１丁目１３番１０号,,27,203,5600011,,,,,,,2024-01-12,1,,,,,プライドワン,0
6742,7130001076111,新規,0,2024-01-12,2024-01-12,おしえ株式会社,,株式会社,京都府,八幡市,男山金振２０番地５４,,26,210,6148365,,,,,,,2024-01-12,1,,,,,オシエ,0
6750,7140003020025,新規,0,2024-01-12,2024-01-12,ガリバルディフード合同会社,,合同会社,兵庫県,西宮市,羽衣町７番１５号,,28,204,6620051,,,,,,,2024-01-12,1,,,,,ガリバルディフード,0
6756,7170001017961,新規,0,2024-01-12,2024-01-12,株式会社ベストエバー,,株式会社,和歌山県,海南市,下津町下津１３９７番地,,30,202,6490101,,,,,,,2024-01-12,1,,,,,ベストエバー,0
6761,7180001159687,新規,0,2024-01-12,2024-01-12,株式会社中部ＮＴＳ,,株式会社,愛知県,名古屋市中川区,中花町１９１番地,,23,110,4540931,,,,,,,2024-01-12,1,,,,,チュウブエヌティーエス,0
6762,7180001159704,新規,0,2024-01-12,2024-01-12,株式会社Ｓ．Ｇ　ｃｏｍｐａｎｙ,,株式会社,愛知県,春日井市,気噴町北２丁目１７０番地１,,23,206,4870015,,,,,,,2024-01-12,1,,,,,エスジーカンパニー,0
6763,7180001159712,新規,0,2024-01-12,2024-01-12,株式会社ＨＷＥ,,株式会社,愛知県,名古屋市南区,元塩町４丁目１番地元塩荘８棟３０４号,,23,112,4570823,,,,,,,2024-01-12,1,,,,,エイチダブリューイー,0
6764,7180001159729,新規,0,2024-01-12,2024-01-12,株式会社ぶりぶりきゃのん,,株式会社,愛知県,名古屋市中区,松原２丁目２番３３号,,23,106,4600017,,,,,,,2024-01-12,1,,,,,ブリブリキャノン,0
6766,7180301038194,新規,0,2024-01-12,2024-01-12,株式会社タカケン,,株式会社,愛知県,岡崎市,北野町字大訳３３番地３,,23,202,4440951,,,,,,,2024-01-12,1,,,,,タカケン,0
6767,7190001031003,新規,0,2024-01-12,2024-01-12,愛和自動車株式会社,,株式会社,三重県,鈴鹿市,住吉５丁目１１番８号,,24,207,5130826,,,,,,,2024-01-12,1,,,,,アイワジドウシャ,0
6773,7200001042064,新規,0,2024-01-12,2024-01-12,トチタテ不動産株式会社,,株式会社,岐阜県,岐阜市,天神町７番地１０,,21,201,5008806,,,,,,,2024-01-12,1,,,,,トチタテフドウサン,0
6777,7220001025769,新規,0,2024-01-12,2024-01-12,株式会社デンタルネクサス,,株式会社,石川県,金沢市,玉鉾３丁目２２４番地,,17,201,9218002,,,,,,,2024-01-12,1,,,,,デンタルネクサス,0
6780,7230001020174,新規,0,2024-01-12,2024-01-12,株式会社柿森商店,,株式会社,富山県,中新川郡上市町,幸町３５番地,,16,322,9300335,,,,,,,2024-01-12,1,,,,,カキモリショウテン,0
6785,7240003006484,新規,0,2024-01-12,2024-01-12,合同会社光,,合同会社,広島県,庄原市,高野町新市３２７番地２,,34,210,7270402,,,,,,,2024-01-12,1,,,,,コウ,0
6795,7290001104302,新規,0,2024-01-12,2024-01-12,株式会社ゆいか,,株式会社,福岡県,みやま市,高田町岩津２９０番地,,40,229,8390223,,,,,,,2024-01-12,1,,,,,ユイカ,0
6796,7290001104327,新規,0,2024-01-12,2024-01-12,株式会社グローバルパスレル,,株式会社,福岡県,久留米市,山川町１３１９番地４０,,40,203,8390817,,,,,,,2024-01-12,1,,,,,グローバルパスレル,0
6797,7290001104343,新規,0,2024-01-12,2024-01-12,ＪａｐａｎＤｏｎａｔｉｏｎ株式会社,,株式会社,福岡県,福岡市中央区,天神１丁目４－１西日本新聞会館１６階,,40,133,8100001,,,,,,,2024-01-12,1,,,,,ジャパンドネーション,0
6798,7290001104351,新規,0,2024-01-12,2024-01-12,株式会社フットクラウン,,株式会社,福岡県,福岡市中央区,大名２丁目１０番３号,,40,133,8100041,,,,,,,2024-01-12,1,,,,,フットクラウン,0
6799,7290001104368,新規,0,2024-01-12,2024-01-12,株式会社ＴＡＳＡＫＩ,,株式会社,福岡県,糸島市,浦志１丁目１１番１号,,40,230,8191112,,,,,,,2024-01-12,1,,,,,タサキ,0
6805,7300003002064,新規,0,2024-01-12,2024-01-12,合同会社２ｎｄ　ＢＬＵＥ,,合同会社,佐賀県,佐賀市,大和町大字尼寺３３６９番地６,,41,201,8400201,,,,,,,2024-01-12,1,,,,,,0
6806,7310001018796,新規,0,2024-01-12,2024-01-12,株式会社悠晴パートナーズ,,株式会社,長崎県,島原市,萩原２丁目５５３１番地入江ハイツＡ棟,,42,203,8550851,,,,,,,2024-01-12,1,,,,,ユウセイパートナーズ,0
6807,7310001018805,新規,0,2024-01-12,2024-01-12,株式会社松繁‐ＲＩＳＩＮＧ,,株式会社,長崎県,諫早市,小豆崎町１７９９番地,,42,204,8590311,,,,,,,2024-01-12,1,,,,,マスシゲライジング,0
6811,7330001031632,新規,0,2024-01-12,2024-01-12,株式会社赤塚鉄筋工業,00133298,株式会社,熊本県,荒尾市,荒尾１１５２番地１,,43,204,8640041,,,,,,,2024-01-12,1,,,,,アカツカテッキンコウギョウ,0
6815,7360001033048,新規,0,2024-01-12,2024-01-12,株式会社ヨンヨンゴ,,株式会社,沖縄県,国頭郡本部町,字山川９３１－３,,47,308,9050205,,,,,,,2024-01-12,1,,,,,ヨンヨンゴ,0
6819,7360003013601,新規,0,2024-01-12,2024-01-12,合同会社ＣＬＥＡＲ　ＴＲＵＳＴ,,合同会社,沖縄県,沖縄市,宮里４丁目１９番６号レジデンスキング３０２,,47,211,9042165,,,,,,,2024-01-12,1,,,,,クリアトラスト,0
6824,7370001050810,新規,0,2024-01-12,2024-01-12,Ｕｐｋｅｅｐ株式会社,,株式会社,宮城県,仙台市青葉区,落合１丁目１８番１０号クラフトワン１Ｆ,,04,101,9893126,,,,,,,2024-01-12,1,,,,,アップキープ,0
6859,7700150123309,新規,0,2024-01-12,2024-01-12,ｄｏｎｇｙａｎｇｈｕｔａｏｊｉａｚｉｄｉａｎｚｉｓｈａｎｇｗｕｙｏｕｘｉａｎｇｏｎｇｓｉ,,外国会社等,,,,,,,,ｚｈｅｊｉａｎｇｄｏｎｇｙａｎｇｂａｉｙｕｎｊｉｅｄａｏｌａｎｔｉａｎｓｈｅｑｕｓｈｉｍａｏｄａｄａｏ１６８ｈａｏｄｏｎｇｙａｎｇｍｕｄｉａｏｃｈｅｎｇｔａｎｇｏｎｇｇｕａｎ１４０１ｈａｏ,,,,,,2024-01-12,1,,,,,トウヨウコウトウキョウズデンシショウムユウゲンコウシ,0
6865,8010001241312,新規,0,2024-01-12,2024-01-12,プロコミットキャリア株式会社,,株式会社,東京都,千代田区,麹町６丁目６番地２,,13,101,1020083,,,,,,,2024-01-12,1,,,,,プロコミットキャリア,0
6866,8010001241353,新規,0,2024-01-12,2024-01-12,ＳＵＮＳ　ＪＡＰＡＮ株式会社,,株式会社,東京都,中央区,日本橋２丁目２番３号,,13,102,1030027,,,,,,,2024-01-12,1,,,,,サンズジャパン,0
6867,8010001241394,新規,0,2024-01-12,2024-01-12,株式会社レクシア,,株式会社,東京都,中央区,日本橋２丁目１番１７号丹生ビル２階,,13,102,1030027,,,,,,,2024-01-12,1,,,,,レクシア,0
6868,8010001241403,新規,0,2024-01-12,2024-01-12,ｔｈｏ．株式会社,,株式会社,東京都,千代田区,神田和泉町１番地６－１６ヤマトビル４０５,,13,101,1010024,,,,,,,2024-01-12,1,,,,,ゾー,0
6869,8010001241411,新規,0,2024-01-12,2024-01-12,株式会社結久,,株式会社,東京都,中央区,新川１丁目２７番８号新川大原ビル,,13,102,1040033,,,,,,,2024-01-12,1,,,,,ユイキュウ,0
6870,8010003042634,新規,0,2024-01-12,2024-01-12,サインポスト合同会社,,合同会社,東京都,千代田区,神田三崎町３丁目３番３号,,13,101,1010061,,,,,,,2024-01-12,1,,,,,サインポスト,0
6871,8010005037723,新規,0,2024-01-12,2024-01-12,一般社団法人ＵＭＩＴＯ　Ｐａｒｔｎｅｒｓ,,その他の設立登記法人,東京都,千代田区,神田西福田町４番地５,,13,101,1010037,,,,,,,2024-01-12,1,,,,,ウミトパートナーズ,0
6875,8010401179623,新規,0,2024-01-12,2024-01-12,株式会社ＢＬＵＥＧＯＮ,,株式会社,東京都,港区,南青山３丁目１番３６号青山丸竹ビル６Ｆ,,13,103,1070062,,,,,,,2024-01-12,1,,,,,ブルーゴン,0
6876,8010401179631,新規,0,2024-01-12,2024-01-12,ミソラ株式会社,,株式会社,東京都,港区,東麻布１丁目７番５号,,13,103,1060044,,,,,,,2024-01-12,1,,,,,ミソラ,0
6877,8010401179648,新規,0,2024-01-12,2024-01-12,Ｚｕｎｏｕ　ＡＩ株式会社,,株式会社,東京都,港区,西麻布２丁目１３番６号ケイズ西麻布５Ｆ,,13,103,1060031,,,,,,,2024-01-12,1,,,,,ズノウエーアイ,0
6883,8010501051599,新規,0,2024-01-12,2024-01-12,祐恵株式会社,,株式会社,東京都,台東区,三筋１丁目３番７号,,13,106,1110055,,,,,,,2024-01-12,1,,,,,ユウケイ,0
6884,8010503007285,新規,0,2024-01-12,2024-01-12,ＬＵＷＯＭ合同会社,,合同会社,東京都,台東区,上野３丁目１６番２号天翔オフィス上野末広町６０５－Ｂ号室,,13,106,1100005,,,,,,,2024-01-12,1,,,,,ルウォム,0
6886,8010601064468,新規,0,2024-01-12,2024-01-12,株式会社東京防災サポート,,株式会社,東京都,江東区,森下２丁目１９番４号,,13,108,1350004,,,,,,,2024-01-12,1,,,,,トウキョウボイサイサポート,0
6891,8010901054516,新規,0,2024-01-12,2024-01-12,株式会社セレンティア,,株式会社,東京都,世田谷区,代田４丁目１１番４号,,13,112,1550033,,,,,,,2024-01-12,1,,,,,セレンティア,0
6895,8011001159206,新規,0,2024-01-12,2024-01-12,株式会社ストライバーズロウ,,株式会社,東京都,渋谷区,道玄坂１丁目１０番８号渋谷道玄坂東急ビル２Ｆ－Ｃ,,13,113,1500043,,,,,,,2024-01-12,1,,,,,ストライバーズロウ,0
6896,8011001159263,新規,0,2024-01-12,2024-01-12,株式会社クレス,,株式会社,東京都,目黒区,上目黒３丁目６番２２号シティーコープ平沼５０４,,13,110,1530051,,,,,,,2024-01-12,1,,,,,クレス,0
6897,8011001159271,新規,0,2024-01-12,2024-01-12,株式会社クロース,,株式会社,東京都,渋谷区,恵比寿２丁目１３番４号クロース恵比寿３０１,,13,113,1500013,,,,,,,2024-01-12,1,,,,,クロース,0
6898,8011003018244,新規,0,2024-01-12,2024-01-12,合同会社アップサイドワークス,,合同会社,東京都,目黒区,目黒本町１丁目１０番１１号マイキャッスル学芸大学清水池公園３０４,,13,110,1520002,,,,,,,2024-01-12,1,,,,,アップサイドワークス,0
6900,8011103013938,新規,0,2024-01-12,2024-01-12,ｋｉｒａｍｅｋｉ合同会社,,合同会社,東京都,新宿区,新宿１丁目７番１０－８０７号,,13,104,1600022,,,,,,,2024-01-12,1,,,,,キラメキ,0
6901,8011103013946,新規,0,2024-01-12,2024-01-12,合同会社ＧＬＥＥＮ,,合同会社,東京都,新宿区,納戸町３番３号,,13,104,1620837,,,,,,,2024-01-12,1,,,,,グリーン,0
6902,8011301029315,新規,0,2024-01-12,2024-01-12,株式会社ＫＯＴＡＮＳＵ,,株式会社,東京都,杉並区,上井草１丁目２７番３号秀雅荘２０２,,13,115,1670023,,,,,,,2024-01-12,1,,,,,コタンス,0
6903,8011305002953,新規,0,2024-01-12,2024-01-12,一般社団法人シンママラボ,,その他の設立登記法人,東京都,杉並区,和田３丁目５８番９号パークサイド東高円寺４０３,,13,115,1660012,,,,,,,2024-01-12,1,,,,,シンママラボ,0
6910,8011703003710,新規,0,2024-01-12,2024-01-12,合同会社ケイエスシステム開発,,合同会社,東京都,江戸川区,平井２丁目１５番１２号さくらマンション１０１,,13,123,1320035,,,,,,,2024-01-12,1,,,,,ケイエスシステムカイハツ,0
6911,8011801043625,新規,0,2024-01-12,2024-01-12,Ｓｐａｃｅ　ｉｎｆｉｎｉｔｙ株式会社,,株式会社,東京都,足立区,梅田５丁目２７番１－４０１号,,13,121,1230851,,,,,,,2024-01-12,1,,,,,スペースインフィニティ,0
6914,8012401041399,新規,0,2024-01-12,2024-01-12,株式会社ＲＯＯＭ’Ｓ,,株式会社,東京都,三鷹市,下連雀３丁目４５番１５号,,13,204,1810013,,,,,,,2024-01-12,1,,,,,ルームス,0
6915,8012401041408,新規,0,2024-01-12,2024-01-12,スカイフォート株式会社,,株式会社,東京都,武蔵野市,吉祥寺本町１丁目２２番５‐１４０２号,,13,203,1800004,,,,,,,2024-01-12,1,,,,,スカイフォート,0
6918,8012801022899,新規,0,2024-01-12,2024-01-12,株式会社立飛ワイナリー,,株式会社,東京都,立川市,栄町６丁目１番地,,13,202,1900003,,,,,,,2024-01-12,1,,,,,タチヒワイナリー,0
6929,8020001155255,新規,0,2024-01-12,2024-01-12,株式会社マルワークス,,株式会社,神奈川県,川崎市麻生区,岡上２丁目２７－３４,,14,137,2150027,,,,,,,2024-01-12,1,,,,,マルワークス,0
6936,8021001081193,新規,0,2024-01-12,2024-01-12,株式会社ＬＯＴＵＳ,,株式会社,神奈川県,相模原市南区,上鶴間本町９丁目６番２３－１０４号,,14,153,2520318,,,,,,,2024-01-12,1,,,,,ロータス,0
6938,8030001158050,新規,0,2024-01-12,2024-01-12,株式会社ナカムラ内装,,株式会社,埼玉県,北葛飾郡杉戸町,大字倉松１９５番地５,,11,464,3450034,,,,,,,2024-01-12,1,,,,,ナカムラナイソウ,0
6939,8030001158059,新規,0,2024-01-12,2024-01-12,株式会社はないし,,株式会社,埼玉県,川口市,上青木１丁目７番４号,,11,203,3330844,,,,,,,2024-01-12,1,,,,,ハナイシ,0
6940,8030001158109,新規,0,2024-01-12,2024-01-12,株式会社Ｋ’ｓファニチャー,,株式会社,埼玉県,川口市,榛松３丁目２４番３１号,,11,203,3340062,,,,,,,2024-01-12,1,,,,,ケーズファニチャー,0
6941,8030001158117,新規,0,2024-01-12,2024-01-12,株式会社ｆｕｋｕｔｏｍｉＲＯＣＫ　ｅｎｔｅｒｐｒｉｓｅ,,株式会社,埼玉県,東松山市,大字下野本１５５２番地１,,11,212,3550036,,,,,,,2024-01-12,1,,,,,フクトミロックエンタープライズ,0
6942,8030001158133,新規,0,2024-01-12,2024-01-12,株式会社桜月,,株式会社,埼玉県,富士見市,関沢２丁目３番１８号,,11,235,3540025,,,,,,,2024-01-12,1,,,,,サクラヅキ,0
6945,8030003023351,新規,0,2024-01-12,2024-01-12,合同会社フラワーハーベスト,,合同会社,埼玉県,上尾市,柏座１丁目１０番３－１７号柏座マンション２０２,,11,219,3620075,,,,,,,2024-01-12,1,,,,,フラワーハーベスト,0
6946,8030003023376,新規,0,2024-01-12,2024-01-12,Ｈｉ‐ＳＤ　Ｉｎｄｕｓｔｒｙ合同会社,,合同会社,埼玉県,新座市,畑中２丁目６番２２－１７号,,11,230,3520012,,,,,,,2024-01-12,1,,,,,ハイサウンドデザインサンギョウ,0
6947,8030003023392,新規,0,2024-01-12,2024-01-12,合同会社ジョイ,,合同会社,埼玉県,川口市,川口４丁目９番２７－７１０号パークアベニュー川口,,11,203,3320015,,,,,,,2024-01-12,1,,,,,ジョイ,0
6953,8040001131667,新規,0,2024-01-12,2024-01-12,綾電工株式会社,,株式会社,千葉県,松戸市,新松戸北１丁目１番地新松戸ハイツ９１９号,,12,207,2700032,,,,,,,2024-01-12,1,,,,,リンデンコウ,0
6954,8040001131691,新規,0,2024-01-12,2024-01-12,株式会社Ｆｒｏｎｔｌｉｎｅ,,株式会社,千葉県,柏市,豊四季４９４番地の４３,,12,217,2770863,,,,,,,2024-01-12,1,,,,,フロントライン,0
6955,8040001131700,新規,0,2024-01-12,2024-01-12,株式会社ｄｉｍｅ,,株式会社,千葉県,松戸市,南花島３丁目４１番地の１８ラ・ベルソレイユ１０２号室,,12,207,2710065,,,,,,,2024-01-12,1,,,,,ダイム,0
6958,8040003024068,新規,0,2024-01-12,2024-01-12,Ｇｌａｎｚ合同会社,,合同会社,千葉県,浦安市,富士見２丁目１番４２－６０２号,,12,227,2790043,,,,,,,2024-01-12,1,,,,,グランツ,0
6959,8040003024084,新規,0,2024-01-12,2024-01-12,合同会社小林鉄筋工業,,合同会社,千葉県,千葉市稲毛区,山王町１３２番地９ディアコート１０２号,,12,103,2630002,,,,,,,2024-01-12,1,,,,,コバヤシテッキンコウギョウ,0
6960,8050001054099,新規,0,2024-01-12,2024-01-12,株式会社Ｎｅｘｔ　ｉｎｎｏｖａｔｉｏｎ,,株式会社,茨城県,桜川市,東桜川３丁目６２番地１２,,08,231,3091214,,,,,,,2024-01-12,1,,,,,ネクストイノベーション,0
6961,8050001054108,新規,0,2024-01-12,2024-01-12,株式会社東産業,,株式会社,茨城県,つくば市,吉瀬１７８０番地１,,08,220,3050022,,,,,,,2024-01-12,1,,,,,ヒガシサンギョウ,0
6971,8080005007587,新規,0,2024-01-12,2024-01-12,税理士法人徳田大村会計,,その他の設立登記法人,静岡県,静岡市駿河区,八幡３丁目１番６号,,22,102,4228076,,,,,,,2024-01-12,1,,,,,トクダオオムラカイケイ,0
7624,8120001261183,新規,0,2024-01-12,2024-01-12,株式会社ＲＨ　ＴＲＡＤＩＮＧ,,株式会社,大阪府,大阪市西区,本田１丁目１０番１８号２Ｃ,,27,106,5500022,,,,,,,2024-01-12,1,,,,,アールエイチトレーディング,0
7625,8120001261200,新規,0,2024-01-12,2024-01-12,株式会社亜龍,,株式会社,大阪府,大阪市中央区,島之内２丁目５－２－１０５,,27,128,5420082,,,,,,,2024-01-12,1,,,,,アリュウ,0
7626,8120001261217,新規,0,2024-01-12,2024-01-12,株式会社瑠璃,,株式会社,大阪府,大阪市中央区,心斎橋筋１丁目３番１号心斎橋ＦＵＫＵＤＡビル地下１階,,27,128,5420085,,,,,,,2024-01-12,1,,,,,ルリ,0
7627,8120001261225,新規,0,2024-01-12,2024-01-12,株式会社アートスクェア,,株式会社,大阪府,大阪市平野区,加美東２丁目２番１９号,,27,126,5470002,,,,,,,2024-01-12,1,,,,,アートスクェア,0
7628,8120001261233,新規,0,2024-01-12,2024-01-12,ツカサテクノデザイン株式会社,,株式会社,大阪府,大阪市淀川区,木川東４丁目１６－１６－４０２,,27,123,5320012,,,,,,,2024-01-12,1,,,,,ツカサテクノデザイン,0
7629,8120001261241,新規,0,2024-01-12,2024-01-12,株式会社Ｍｏ‐ＲＡ　ｄｅｓｉｇｎ,,株式会社,大阪府,大阪市福島区,玉川２丁目３番１６－９２３号,,27,103,5530004,,,,,,,2024-01-12,1,,,,,モラデザイン,0
7631,8120003025636,新規,0,2024-01-12,2024-01-12,合同会社ＨＩＴＬ,,合同会社,大阪府,大阪市北区,梅田１丁目１１番４号大阪駅前第４ビル９階９２３－１６８６,,27,127,5300001,,,,,,,2024-01-12,1,,,,,エイチアイティーエル,0
7632,8120003025644,新規,0,2024-01-12,2024-01-12,ＫＳｈｉメディカル合同会社,,合同会社,大阪府,大阪市北区,梅田１丁目１番３号大阪駅前第３ビル２９階１－１－１号室,,27,127,5300001,,,,,,,2024-01-12,1,,,,,ケーエスハイメディカル,0
7633,8120003025677,新規,0,2024-01-12,2024-01-12,合同会社ＲＡＣＩＮＧ,,合同会社,大阪府,大阪市西区,立売堀１丁目４‐１２立売堀スクエアビル８Ｆ,,27,106,5500012,,,,,,,2024-01-12,1,,,,,レーシング,0
7635,8120101068859,新規,0,2024-01-12,2024-01-12,株式会社センバ総合事務所,,株式会社,大阪府,松原市,天美西１丁目２番２２号,,27,217,5800034,,,,,,,2024-01-12,1,,,,,センバソウゴウジムショ,0
7636,8120103005629,新規,0,2024-01-12,2024-01-12,合同会社オープンセサミ,,合同会社,大阪府,堺市東区,日置荘西町３丁２２番３０号,,27,143,5998114,,,,,,,2024-01-12,1,,,,,オープンセサミ,0
7643,8122001037729,新規,0,2024-01-12,2024-01-12,株式会社ＩＷＡＭＯＴＯ,,株式会社,大阪府,東大阪市,下六万寺町２丁目６番１５号,,27,227,5798066,,,,,,,2024-01-12,1,,,,,イワモト,0
7649,8130001076085,新規,0,2024-01-12,2024-01-12,株式会社みやざき,,株式会社,京都府,京都市東山区,大和大路通四条下る東入小松町５５７番地４パレ祇園５０３号室,00133301,26,105,6050811,,,,,,,2024-01-12,1,,,,,ミヤザキ,0
7650,8130001076119,新規,0,2024-01-12,2024-01-12,君之合株式会社,,株式会社,京都府,京都市伏見区,深草祓川町２５－６（北側）,,26,109,6120000,,,,,,,2024-01-12,1,,,,,キミノゴ,0
7659,8140001132985,新規,0,2024-01-12,2024-01-12,ＫＥＩＴＯ株式会社,,株式会社,兵庫県,明石市,林崎町２丁目８番１号吉川マンション２０５号,,28,203,6730033,,,,,,,2024-01-12,1,,,,,ケイト,0
7660,8140001132993,新規,0,2024-01-12,2024-01-12,株式会社ＧＵＡＲＤＩＡＮ,,株式会社,兵庫県,神戸市西区,中野２丁目１０番地の１７,,28,111,6512136,,,,,,,2024-01-12,1,,,,,ガーディアン,0
7662,8150001026988,新規,0,2024-01-12,2024-01-12,株式会社ヤガワ,,株式会社,奈良県,橿原市,四条町６５９番地の１,,29,205,6340813,,,,,,,2024-01-12,1,,,,,ヤガワ,0
7666,8170003001970,新規,0,2024-01-12,2024-01-12,合同会社永心,,合同会社,和歌山県,田辺市,東山１丁目１６番１７号,,30,206,6460022,,,,,,,2024-01-12,1,,,,,エイシン,0
7678,8180001159686,新規,0,2024-01-12,2024-01-12,株式会社かなで未来サポート,,株式会社,愛知県,名古屋市東区,代官町３５番１６号第一富士ビル６階,,23,102,4610002,,,,,,,2024-01-12,1,,,,,カナデミライサポート,0
7679,8180001159703,新規,0,2024-01-12,2024-01-12,株式会社ＬｉＶｂｅｒｔｅ,,株式会社,愛知県,名古屋市中区,栄５丁目２６番３９号ＧＳ栄ビル３Ｆ,,23,106,4600008,,,,,,,2024-01-12,1,,,,,リベルテ,0
7683,8180003026182,新規,0,2024-01-12,2024-01-12,合同会社蒼,,合同会社,愛知県,日進市,岩崎台３丁目１８１４番地１ファーストウイングＢ,,23,230,4700135,,,,,,,2024-01-12,1,,,,,アオイ,0
7684,8180003026216,新規,0,2024-01-12,2024-01-12,合同会社りょうほう,,合同会社,愛知県,名古屋市南区,中割町２丁目２５番地,,23,112,4570826,,,,,,,2024-01-12,1,,,,,リョウホウ,0
7685,8180005020489,新規,0,2024-01-12,2024-01-12,かなで税理士法人,,その他の設立登記法人,愛知県,名古屋市東区,代官町３５番１６号第一富士ビル６階,,23,102,4610002,,,,,,,2024-01-12,1,,,,,カナデ,0
7688,8180301038185,新規,0,2024-01-12,2024-01-12,シームコア株式会社,,株式会社,愛知県,豊田市,土橋町４丁目５０番地４サンシャイン八城５０１号,,23,211,4710842,,,,,,,2024-01-12,1,,,,,シームコア,0
7689,8180301038219,新規,0,2024-01-12,2024-01-12,株式会社東伸,,株式会社,愛知県,豊田市,青木町３丁目１９２番地,,23,211,4700335,,,,,,,2024-01-12,1,,,,,トウシン,0
7701,8240001062652,新規,0,2024-01-12,2024-01-12,株式会社蜂原,,株式会社,広島県,広島市安佐南区,中須１丁目８番８号,,34,105,7310121,,,,,,,2024-01-12,1,,,,,ハチバラ,0
7702,8240001062660,新規,0,2024-01-12,2024-01-12,株式会社ＡＧＰ,,株式会社,広島県,三次市,十日市南６丁目１３番７号,,34,209,7280014,,,,,,,2024-01-12,1,,,,,エージーピー,0
7707,8260003004543,新規,0,2024-01-12,2024-01-12,合同会社ＳＫＹ,,合同会社,岡山県,岡山市北区,十日市中町１番３１号カウル１００５号,,33,101,7000855,,,,,,,2024-01-12,1,,,,,スカイ,0
7714,8290001104326,新規,0,2024-01-12,2024-01-12,株式会社昌達商事,,株式会社,福岡県,糟屋郡粕屋町,内橋東１丁目６－１９・２Ｆ,,40,349,8112320,,,,,,,2024-01-12,1,,,,,ショウタツショウジ,0
7715,8290001104342,新規,0,2024-01-12,2024-01-12,ウィッシングウェル株式会社,,株式会社,福岡県,福岡市早良区,次郎丸２丁目９番３７号,,40,137,8140165,,,,,,,2024-01-12,1,,,,,ウィッシングウェル,0
7716,8290001104350,新規,0,2024-01-12,2024-01-12,ＳＩＧＢＯＬＴ株式会社,,株式会社,福岡県,福岡市中央区,白金１丁目１６－２２,,40,133,8100012,,,,,,,2024-01-12,1,,,,,シグボルト,0
7719,8290803004582,新規,0,2024-01-12,2024-01-12,合同会社Ｃｅｎｔｅｒ　ｏｆ　ｔｈｅ　Ｆｉｅｌｄ,,合同会社,福岡県,北九州市小倉南区,葛原本町３丁目１３番２６号,,40,107,8000253,,,,,,,2024-01-12,1,,,,,センターオブザフィールド,0
7721,8300001013590,新規,0,2024-01-12,2024-01-12,株式会社中村板金,,株式会社,佐賀県,嬉野市,塩田町大字五町田甲２１９５番地５,,41,209,8491425,,,,,,,2024-01-12,1,,,,,ナカムラバンキン,0
7722,8300003002063,新規,0,2024-01-12,2024-01-12,合同会社Ｕｎｒａｖｅｌ,,合同会社,佐賀県,鹿島市,大字高津原４１３８番地１Ｃａ・ＣａｌｏｔＩ２０１,00133302,41,207,8491311,,,,,,,2024-01-12,1,,,,,アンラベル,0
7734,8360001033039,新規,0,2024-01-12,2024-01-12,株式会社今帰仁建材,,株式会社,沖縄県,国頭郡今帰仁村,字謝名６１８番地,,47,306,9050414,,,,,,,2024-01-12,1,,,,,ナキジンケンザイ,0
7735,8360001033055,新規,0,2024-01-12,2024-01-12,株式会社Ｐａｎｄｅｍｉｃ,,株式会社,沖縄県,那覇市,松山２丁目９番７号クリスタルビル３－Ｂ,,47,201,9000032,,,,,,,2024-01-12,1,,,,,パンデミック,0
7737,8360003013609,新規,0,2024-01-12,2024-01-12,まごのて合同会社,,合同会社,沖縄県,宜野湾市,大謝名４丁目７番１２号,,47,205,9012225,,,,,,,2024-01-12,1,,,,,マゴノテ,0
7738,8360005006973,新規,0,2024-01-12,2024-01-12,一般社団法人北谷町平安山郷友会,,その他の設立登記法人,沖縄県,中頭郡北谷町,字美浜１５番地２５,,47,326,9040115,,,,,,,2024-01-12,1,,,,,チャタンチョウハンザンキョウユウカイ,0
7740,8380001034225,新規,0,2024-01-12,2024-01-12,株式会社二瓶架設,,株式会社,福島県,耶麻郡猪苗代町,字南半坂５７４６番地,,07,408,9693113,,,,,,,2024-01-12,1,,,,,ニヘイカセツ,0
7742,8380005012788,新規,0,2024-01-12,2024-01-12,一般社団法人アルデバランふくしま,,その他の設立登記法人,福島県,福島市,泉字早稲田１４番地の１１,,07,201,9608253,,,,,,,2024-01-12,1,,,,,アルデバランフクシマ,0
7748,8420003002860,新規,0,2024-01-12,2024-01-12,合同会社虎栄興業,,合同会社,青森県,五所川原市,金木町川倉七夕野８４番地６７９,,02,205,0370201,,,,,,,2024-01-12,1,,,,,コエイコウギョウ,0
7750,8430001090824,新規,0,2024-01-12,2024-01-12,株式会社サンド・フィールド,,株式会社,北海道,札幌市東区,北九条東３丁目２番１－１６０６号,,01,103,0600909,,,,,,,2024-01-12,1,,,,,サンドフィールド,0
7752,8430003015837,新規,0,2024-01-12,2024-01-12,Ａｃｅ　Ｅｄｕｃａｔｉｏｎ合同会社,,合同会社,北海道,札幌市中央区,南五条西１５丁目２番３号,,01,101,0640805,,,,,,,2024-01-12,1,,,,,エイスエジュケイション,0
7762,8470001019976,新規,0,2024-01-12,2024-01-12,株式会社ＣＲＥＩＧＨＴ,,株式会社,香川県,高松市,檀紙町２５３番地１６,,37,201,7618041,,,,,,,2024-01-12,1,,,,,クリエイト,0
7765,8500001025401,新規,0,2024-01-12,2024-01-12,株式会社猛烈エンジニアリング,,株式会社,愛媛県,大洲市,東大洲８５３番地４サントノーレ東大洲弐番館１１０３,,38,207,7950064,,,,,,,2024-01-12,1,,,,,モウレツエンジニアリング,0
7778,9010001241311,新規,0,2024-01-12,2024-01-12,アイレック株式会社,,株式会社,東京都,千代田区,麹町６丁目６番地２,,13,101,1020083,,,,,,,2024-01-12,1,,,,,アイレック,0
7779,9010001241344,新規,0,2024-01-12,2024-01-12,株式会社フルケジャパン,,株式会社,東京都,文京区,千駄木５丁目５０番１号３階,,13,105,1130022,,,,,,,2024-01-12,1,,,,,フルケジャパン,0
7780,9010001241402,新規,0,2024-01-12,2024-01-12,株式会社Ｓｐｅｃｉａｔｅ,,株式会社,東京都,千代田区,飯田橋４丁目２番１号,,13,101,1020072,,,,,,,2024-01-12,1,,,,,スピシエイト,0
7781,9010001241410,新規,0,2024-01-12,2024-01-12,株式会社ＧｒｅｅｎＨｏｕｓｅ,,株式会社,東京都,文京区,千石２丁目３３番３－３１６号,,13,105,1120011,,,,,,,2024-01-12,1,,,,,グリーンハウス,0
7782,9010001241419,新規,0,2024-01-12,2024-01-12,株式会社ＫＴ　Ｐａｒｔｎｅｒｓ,,株式会社,東京都,千代田区,麹町４丁目３番地紅谷ビル５階,,13,101,1020083,,,,,,,2024-01-12,1,,,,,ケイティパートナーズ,0
7784,9010003042617,新規,0,2024-01-12,2024-01-12,合同会社頂,,合同会社,東京都,中央区,築地１丁目９番１１号,,13,102,1040045,,,,,,,2024-01-12,1,,,,,イタダキ,0
7785,9010003042633,新規,0,2024-01-12,2024-01-12,合同会社ＦａｎＸ,,合同会社,東京都,中央区,勝どき５丁目１－２０プラネ勝どき８０２,,13,102,1040054,,,,,,,2024-01-12,1,,,,,ファンエックス,0
7788,9010005037722,新規,0,2024-01-12,2024-01-12,札幌新発寒特定目的会社,,その他の設立登記法人,東京都,千代田区,平河町１丁目６番１５号シルスフィア会計事務所内,,13,101,1020093,,,,,,,2024-01-12,1,,,,,サッポロシンハッサム,0
7793,9010401179639,新規,0,2024-01-12,2024-01-12,ＡＳ　ＣＲＥＡＴＩＶＥ　ＭＡＮＡＧＥＭＥＮＴ　ＪＡＰＡＮ株式会社,,株式会社,東京都,港区,東麻布１丁目２３番５号ＰＭＣビル２Ｆ,,13,103,1060044,,,,,,,2024-01-12,1,,,,,エーエスクリエイティブマネジメントジャパン,0
7794,9010401179655,新規,0,2024-01-12,2024-01-12,株式会社アンバース,,株式会社,東京都,港区,西新橋１丁目９－５酔心興栄ビル５階,,13,103,1050003,,,,,,,2024-01-12,1,,,,,アンバース,0
7798,9010405022828,新規,0,2024-01-12,2024-01-12,一般社団法人日本サーチファンド協会,,その他の設立登記法人,東京都,港区,虎ノ門３丁目２２番１０－２０１号,,13,103,1050001,,,,,,,2024-01-12,1,,,,,ニホンサーチファンドキョウカイ,0
7799,9010405022844,新規,0,2024-01-12,2024-01-12,オレガノ一般社団法人,,その他の設立登記法人,東京都,港区,北青山１丁目２番３号,,13,103,1070061,,,,,,,2024-01-12,1,,,,,オレガノ,0
7803,9010501051615,新規,0,2024-01-12,2024-01-12,株式会社ＯＲＥＧーＬＡＢ,,株式会社,東京都,台東区,浅草６丁目２６番１０号柳嘉ビル４０２号室,,13,106,1110032,,,,,,,2024-01-12,1,,,,,オレラボ,0
7812,9010803004808,新規,0,2024-01-12,2024-01-12,ＣＦＳサポーター合同会社,,合同会社,東京都,大田区,北嶺町３４番１１－１０２号,,13,111,1450073,,,,,,,2024-01-12,1,,,,,シーエフエスサポーター,0
7818,9010901054507,新規,0,2024-01-12,2024-01-12,株式会社Ｏａｒｓ,,株式会社,東京都,世田谷区,南烏山５丁目２４番１２号,,13,112,1570062,,,,,,,2024-01-12,1,,,,,オールズ,0
7822,9011001159329,新規,0,2024-01-12,2024-01-12,株式会社インプレスエンターテイメント,,株式会社,東京都,目黒区,青葉台４丁目３番１４号渋谷ヒルズ２０１号,,13,110,1530042,,,,,,,2024-01-12,1,,,,,インプレスエンターテイメント,0
7827,9011003018243,新規,0,2024-01-12,2024-01-12,合同会社ｉｃｈｉｎｏｙａ,,合同会社,東京都,渋谷区,恵比寿２丁目５番８号サンクオーレ恵比寿４０２,,13,113,1500013,,,,,,,2024-01-12,1,,,,,イチノヤ,0
7829,9011101105744,新規,0,2024-01-12,2024-01-12,株式会社ＯＴＬＡＳ,,株式会社,東京都,新宿区,新宿２丁目８番６号ＫＤＸ新宿２８６ビル７階,,13,104,1600022,,,,,,,2024-01-12,1,,,,,アトラス,0
7830,9011201025165,新規,0,2024-01-12,2024-01-12,株式会社結,,株式会社,東京都,中野区,中野５丁目５６番１２号２階,,13,114,1640001,,,,,,,2024-01-12,1,,,,,ユイ,0
7834,9011303005024,新規,0,2024-01-12,2024-01-12,合同会社ＢＯＮＵＳ,,合同会社,東京都,杉並区,下高井戸２丁目１４番１４－３０１号,,13,115,1680073,,,,,,,2024-01-12,1,,,,,ボーナス,0
7836,9011601027447,新規,0,2024-01-12,2024-01-12,株式会社ＲｅＬｉｆｅ,,株式会社,東京都,練馬区,春日町２丁目３１－２０サンモールＢ２０２,,13,120,1790074,,,,,,,2024-01-12,1,,,,,リライフ,0
7839,9011801043608,新規,0,2024-01-12,2024-01-12,株式会社ＡｎｎＭｉｒｕ,,株式会社,東京都,足立区,大谷田５丁目３番１０号,,13,121,1200001,,,,,,,2024-01-12,1,,,,,アンミル,0
7840,9011801043624,新規,0,2024-01-12,2024-01-12,高新發展實業株式会社,,株式会社,東京都,足立区,栗原３丁目２６番１号２Ｆ,,13,121,1230842,,,,,,,2024-01-12,1,,,,,コウシンハッテンジツギョウ,0
7842,9012301013729,新規,0,2024-01-12,2024-01-12,まいどおおきに株式会社,,株式会社,東京都,町田市,小川１丁目２８９－３,,13,209,1940003,,,,,,,2024-01-12,1,,,,,マイドオオキニ,0
7845,9012401041407,新規,0,2024-01-12,2024-01-12,株式会社Ａｔｒａ,,株式会社,東京都,小金井市,梶野町１丁目２番３６号,,13,210,1840002,,,,,,,2024-01-12,1,,,,,アトラ,0
7850,9013301051883,新規,0,2024-01-12,2024-01-12,株式会社ノーウェスト,,株式会社,東京都,豊島区,南大塚２丁目１１番１０号ミモザビル３Ｆ,,13,116,1700005,,,,,,,2024-01-12,1,,,,,ノーウェスト,0
7857,9020001155246,新規,0,2024-01-12,2024-01-12,株式会社ｔｅｔｏｔｅ,,株式会社,神奈川県,横浜市緑区,寺山町８７番地１９第二志村ビル１階,,14,113,2260013,,,,,,,2024-01-12,1,,,,,テトテ,0
7858,9020001155254,新規,0,2024-01-12,2024-01-12,株式会社ＭＩＲＡＩ,,株式会社,神奈川県,横浜市旭区,上白根１丁目３８番１４号,,14,112,2410002,,,,,,,2024-01-12,1,,,,,ミライ,0
7859,9020001155262,新規,0,2024-01-12,2024-01-12,株式会社Ｈｅｌｉｏｓ,,株式会社,神奈川県,川崎市高津区,久地２丁目１５番２－１０２号キャステールＶ,,14,134,2130032,,,,,,,2024-01-12,1,,,,,ヘリオス,0
7860,9020001155270,新規,0,2024-01-12,2024-01-12,株式会社Ｖａｍｏｓｔ,,株式会社,神奈川県,川崎市高津区,北見方１丁目２番３―２号,,14,134,2130005,,,,,,,2024-01-12,1,,,,,バモスト,0
7867,9021001081192,新規,0,2024-01-12,2024-01-12,株式会社Ａｆｙａ　Ｍａｎａｇｅｍｅｎｔ　ａｎｄ　Ｉｎｎｏｖａｔｉｏｎ,,株式会社,神奈川県,鎌倉市,腰越７９７番地１６,,14,204,2480033,,,,,,,2024-01-12,1,,,,,アフャマネジメントアンドイノベーション,0
7868,9021003013978,新規,0,2024-01-12,2024-01-12,ＧＲＥＥＮ　ＨＯＵＳＥ合同会社,,合同会社,神奈川県,藤沢市,大鋸１２２６番地２Ｆ１０３号室,,14,205,2510002,,,,,,,2024-01-12,1,,,,,グリーンハウス,0
7873,9030001158108,新規,0,2024-01-12,2024-01-12,株式会社エム・オートサービス,,株式会社,埼玉県,越谷市,東町２丁目２６６番地１６０,,11,222,3430826,,,,,,,2024-01-12,1,,,,,エムオートサービス,0
7874,9030001158124,新規,0,2024-01-12,2024-01-12,ＭＧＭ　ＭＡＲＫ　ＴＲＡＤＩＮＧ株式会社,,株式会社,埼玉県,久喜市,菖蒲町菖蒲１０８番地１ビレッジ菖蒲Ｃ２０１,,11,232,3460106,,,,,,,2024-01-12,1,,,,,エムジーエムマークトレーディング,0
7875,9030001158132,新規,0,2024-01-12,2024-01-12,継成工業株式会社,,株式会社,埼玉県,越谷市,宮本町３丁目１６２－１０,,11,222,3430806,,,,,,,2024-01-12,1,,,,,ケイセイコウギョウ,0
7878,9030003023375,新規,0,2024-01-12,2024-01-12,合同会社わわわ,,合同会社,埼玉県,狭山市,入間川４丁目２４－１１－２３,,11,215,3501305,,,,,,,2024-01-12,1,,,,,ワワワ,0
7879,9030003023391,新規,0,2024-01-12,2024-01-12,合同会社タウマゼイン,,合同会社,埼玉県,さいたま市中央区,本町東７丁目１８番２１号,,11,105,3380003,,,,,,,2024-01-12,1,,,,,タウマゼイン,0
7882,9040001131658,新規,0,2024-01-12,2024-01-12,株式会社リンクシナジー,,株式会社,千葉県,君津市,南子安４丁目１番５号,,12,225,2991162,,,,,,,2024-01-12,1,,,,,リンクシナジー,0
7883,9040001131682,新規,0,2024-01-12,2024-01-12,ＭＪガレージ株式会社,,株式会社,千葉県,富里市,日吉台４丁目３番地３、Ａ棟２１６号,,12,233,2860201,,,,,,,2024-01-12,1,,,,,エムジェイガレージ,0
7884,9040001131708,新規,0,2024-01-12,2024-01-12,天明測建株式会社,,株式会社,千葉県,松戸市,二ツ木１３８３番２号コーポルナ２０２,,12,207,2700027,,,,,,,2024-01-12,1,,,,,テンメイソクケン,0
7887,9040003024083,新規,0,2024-01-12,2024-01-12,ひはれ合同会社,,合同会社,千葉県,佐倉市,井野１００５番地１７,,12,212,2850855,,,,,,,2024-01-12,1,,,,,ヒハレ,0
7888,9040005022242,新規,0,2024-01-12,2024-01-12,一般社団法人ゆにぃーく＆ぴぃーす,,その他の設立登記法人,千葉県,船橋市,習志野台２丁目４９番１８号,,12,204,2740063,,,,,,,2024-01-12,1,,,,,ユニィークアンドピィース,0
7889,9050001054107,新規,0,2024-01-12,2024-01-12,株式会社ブリジナウリゾート,,株式会社,茨城県,水戸市,中丸町１９２番地の１６,,08,201,3114146,,,,,,,2024-01-12,1,,,,,ブリジナウリゾート,0
7896,9060001036723,新規,0,2024-01-12,2024-01-12,ナチュール塩原株式会社,,株式会社,栃木県,那須塩原市,上塩原１０８５番地,,09,213,3292923,,,,,,,2024-01-12,1,,,,,ナチュールシオバラ,0
7897,9060003004868,新規,0,2024-01-12,2024-01-12,合同会社ＷｉｔｈＷｒｏｋｓ,,合同会社,栃木県,那須烏山市,興野１５７５,,09,215,3210611,,,,,,,2024-01-12,1,,,,,ウィズワークス,0
8548,9100003007346,新規,0,2024-01-12,2024-01-12,合同会社ウィザース,,合同会社,長野県,上伊那郡箕輪町,大字中箕輪１４０１７番地４１,,20,383,3994601,,,,,,,2024-01-12,1,,,,,ウィザース,0
8550,9110001038094,新規,0,2024-01-12,2024-01-12,株式会社なごみ農園,,株式会社,新潟県,五泉市,赤海１丁目１３番７号,,15,218,9591821,,,,,,,2024-01-12,1,,,,,ナゴミノウエン,0
8559,9120001261141,新規,0,2024-01-12,2024-01-12,桜花株式会社,,株式会社,大阪府,大阪市西成区,橘１丁目１１－２８－５０５号室,,27,122,5570051,,,,,,,2024-01-12,1,,,,,オウカ,0
8560,9120001261199,新規,0,2024-01-12,2024-01-12,富井エンタープライズ株式会社,,株式会社,大阪府,大阪市浪速区,難波中２丁目４番６号ＧＡＲＥＮＡＭＢＡ１階,,27,111,5560011,,,,,,,2024-01-12,1,,,,,トミイエンタープライズ,0
8561,9120001261232,新規,0,2024-01-12,2024-01-12,株式会社ＤＯＣ,,株式会社,大阪府,大阪市東住吉区,桑津２丁目５番１８－１３０１号,,27,121,5460041,,,,,,,2024-01-12,1,,,,,ディーオーシー,0
8562,9120001261240,新規,0,2024-01-12,2024-01-12,株式会社翔昇電機,,株式会社,大阪府,大阪市東住吉区,今川４丁目７番１３－１０１号,,27,121,5460003,,,,,,,2024-01-12,1,,,,,ショウショウデンキ,0
8563,9120001261249,新規,0,2024-01-12,2024-01-12,株式会社ＨａｎｄｓＯｎ,,株式会社,大阪府,大阪市北区,豊崎３丁目１５番５号ＴＫビル２階,,27,127,5310072,,,,,,,2024-01-12,1,,,,,ハンズオン,0
8566,9120003025643,新規,0,2024-01-12,2024-01-12,合同会社エリ・コーポレーション,,合同会社,大阪府,大阪市浪速区,桜川４丁目１－８－３０５,,27,111,5560022,,,,,,,2024-01-12,1,,,,,エリコーポレーション,0
8570,9120101068858,新規,0,2024-01-12,2024-01-12,株式会社月虹ファーム,,株式会社,大阪府,河内長野市,木戸３丁目４１番１－２号,,27,216,5860001,,,,,,,2024-01-12,1,,,,,ゲッコウファーム,0
8575,9120103005628,新規,0,2024-01-12,2024-01-12,合同会社うさぎのしっぽ,,合同会社,大阪府,堺市堺区,南田出井町１丁２番２６号,,27,141,5900015,,,,,,,2024-01-12,1,,,,,ウサギノシッポ,0
8583,9140001132984,新規,0,2024-01-12,2024-01-12,株式会社ＴＣ,,株式会社,兵庫県,西宮市,今津水波町１－２９,,28,204,6638215,,,,,,,2024-01-12,1,,,,,ティーシー,0
8584,9140003020007,新規,0,2024-01-12,2024-01-12,合同会社カゲマルコーポレーション,,合同会社,兵庫県,神戸市須磨区,若草町３丁目８番地の３,,28,107,6540112,,,,,,,2024-01-12,1,,,,,カゲマルコーポレーション,0
8585,9140005026885,新規,0,2024-01-12,2024-01-12,司法書士法人みなとまち総合事務所,,その他の設立登記法人,兵庫県,神戸市中央区,海岸通３番地シップ神戸海岸ビル７階,,28,110,6500024,,,,,,,2024-01-12,1,,,,,ミナトマチソウゴウジムショ,0
8587,9160001025625,新規,0,2024-01-12,2024-01-12,株式会社サティ,,株式会社,滋賀県,栗東市,苅原１３６番地１,,25,208,5203032,,,,,,,2024-01-12,1,,,,,サティ,0
8598,9180001159669,新規,0,2024-01-12,2024-01-12,株式会社まんだき,,株式会社,愛知県,尾張旭市,向町４丁目８－８,,23,226,4880818,,,,,,,2024-01-12,1,,,,,マンダキ,0
8599,9180001159685,新規,0,2024-01-12,2024-01-12,株式会社浅井建材,,株式会社,愛知県,春日井市,松河戸町４丁目１９番地２,,23,206,4860932,,,,,,,2024-01-12,1,,,,,アサイケンザイ,0
8600,9180001159710,新規,0,2024-01-12,2024-01-12,株式会社ｍａｎａ,,株式会社,愛知県,名古屋市千種区,丘上町１丁目３６番地,,23,101,4640837,,,,,,,2024-01-12,1,,,,,マナ,0
8601,9180001159719,新規,0,2024-01-12,2024-01-12,株式会社Ｄｉｒ,,株式会社,愛知県,名古屋市西区,城西４丁目３２番９号‐２アルファ浄心２Ｆ,,23,104,4510031,,,,,,,2024-01-12,1,,,,,ディア,0
8608,9180003026198,新規,0,2024-01-12,2024-01-12,合同会社シェアライズ,,合同会社,愛知県,稲沢市,祖父江町祖父江松山１１１番地,,23,220,4950001,,,,,,,2024-01-12,1,,,,,シェアライズ,0
8612,9180301038218,新規,0,2024-01-12,2024-01-12,株式会社ＢＥＧＩＮ　ＩＮＴＥＲＮＡＴＩＯＮＡＬ,,株式会社,愛知県,安城市,和泉町北本郷８番地,,23,212,4441221,,,,,,,2024-01-12,1,,,,,ビギンインターナショナル,0
8621,9230005009360,新規,0,2024-01-12,2024-01-12,農事組合法人サンアグリ歌の森,,その他の設立登記法人,富山県,射水市,黒河３１０６番地,,16,211,9390311,,,,,,,2024-01-12,1,,,,,サンアグリウタノモリ,0
8622,9240001062651,新規,0,2024-01-12,2024-01-12,株式会社Ｍ’ｚ‐ＴＥＣ,,株式会社,広島県,広島市安佐南区,東原３丁目３２番１５－４０２号,,34,105,7310112,,,,,,,2024-01-12,1,,,,,エムズテック,0
8623,9240001062668,新規,0,2024-01-12,2024-01-12,Ａｍｐｉｅｂ株式会社,,株式会社,広島県,福山市,千田町２丁目１８－２３－２,,34,207,7200017,,,,,,,2024-01-12,1,,,,,アンピーブ,0
8627,9240003006490,新規,0,2024-01-12,2024-01-12,合同会社Ｇ・２サポート,,合同会社,広島県,福山市,春日町６丁目１８番２３号,,34,207,7210907,,,,,,,2024-01-12,1,,,,,ジーツーサポート,0
8632,9260005011306,新規,0,2024-01-12,2024-01-12,一般社団法人Ｆａｍｉｌｉｅ,,その他の設立登記法人,岡山県,岡山市東区,瀬戸町万富３９５番地５７,,33,103,7090841,,,,,,,2024-01-12,1,,,,,ファミリエ,0
8647,9290003014844,新規,0,2024-01-12,2024-01-12,有明海沿岸ＤＭＣ合同会社,,合同会社,福岡県,大川市,大字榎津３８５番地３,,40,212,8310004,,,,,,,2024-01-12,1,,,,,アリアケカイエンガンディーエムシー,0
8652,9300003002062,新規,0,2024-01-12,2024-01-12,億達合同会社,,合同会社,佐賀県,佐賀市,大和町大字東山田３６０５－４エクセレントＩＩみつの１０３号室,00133299,41,201,8400211,,,,,,,2024-01-12,1,,,,,オクタツ,0
8658,9330001031639,新規,0,2024-01-12,2024-01-12,株式会社中田工業,,株式会社,熊本県,八代市,平山新町５５９６番地５,,43,202,8660074,,,,,,,2024-01-12,1,,,,,ナカタコウギョウ,0
8660,9330003010153,新規,0,2024-01-12,2024-01-12,合同会社けんたろう,,合同会社,熊本県,八代市,古閑上町１４０番地,,43,202,8660897,,,,,,,2024-01-12,1,,,,,ケンタロウ,0
8663,9350003004541,新規,0,2024-01-12,2024-01-12,合同会社ＳＩＡ,,合同会社,宮崎県,東諸県郡国富町,大字森永１８７７番地３,,45,382,8801106,,,,,,,2024-01-12,1,,,,,シア,0
8665,9360001033046,新規,0,2024-01-12,2024-01-12,株式会社Ｅ＆Ｔハウジング,,株式会社,沖縄県,沖縄市,大里２丁目２８番３２号,,47,211,9042163,,,,,,,2024-01-12,1,,,,,イアンドティハウジング,0
8674,9380003005660,新規,0,2024-01-12,2024-01-12,合同会社兼子農園,,合同会社,福島県,西白河郡泉崎村,大字関和久字下町５３番地１,,07,464,9690102,,,,,,,2024-01-12,1,,,,,カネコノウエン,0
8678,9420001018544,新規,0,2024-01-12,2024-01-12,株式会社古川建材,,株式会社,青森県,弘前市,大字桔梗野５丁目１０番地１５,,02,202,0368227,,,,,,,2024-01-12,1,,,,,コガワケンザイ,0
8680,9430003015786,新規,0,2024-01-12,2024-01-12,合同会社Ｔ．Ｏ．Ｐ．,,合同会社,北海道,札幌市南区,藤野四条１１丁目１番２３号,,01,106,0612284,,,,,,,2024-01-12,1,,,,,ティーオーピー,0
8681,9430003015836,新規,0,2024-01-12,2024-01-12,合同会社Ｐｌａｙｆｕｌ　Ｍｉｎｄ,,合同会社,北海道,札幌市中央区,南十五条西１９丁目４番２０－４０１号,,01,101,0640915,,,,,,,2024-01-12,1,,,,,プレイフルマインド,0
8682,9430003015844,新規,0,2024-01-12,2024-01-12,メリー合同会社,,合同会社,北海道,苫小牧市,美原町２丁目１１番１６号,,01,213,0591262,,,,,,,2024-01-12,1,,,,,メリー,0
8683,9430003015852,新規,0,2024-01-12,2024-01-12,ＨＯＣＲＡＢＩ合同会社,,合同会社,北海道,札幌市中央区,南二条西１０丁目１０００番地２４ＴＡＫＥＴＯビル２Ｆ,,01,101,0600062,,,,,,,2024-01-12,1,,,,,ホクラビ,0
8689,9470001019975,新規,0,2024-01-12,2024-01-12,株式会社Ｔ観音寺,,株式会社,香川県,観音寺市,坂本町５丁目１８番４０号,,37,205,7680067,,,,,,,2024-01-12,1,,,,,ティーカンオンジ,0
8695,9700150122886,新規,0,2024-01-12,2023-12-20,北名古屋市地域公共交通会議,,その他,愛知県,北名古屋市,西之保清水田１５番地,,23,234,4810033,,,,,,,2023-12-20,1,,,,,キタナゴヤシチイキコウキヨウコウツウカイギ,0
8696,9700150123315,新規,0,2024-01-12,2024-01-12,鶴ヶ島市スポーツ少年団,,その他,埼玉県,鶴ヶ島市,大字三ツ木１６－１,,11,241,3502217,,,,,,,2024-01-12,1,,,,,ツルガシマシスポーツショウネンダン,0
