sequenceNumber,corporateNumber,process,correct,updateDate,changeDate,name,nameImageId,kind,prefectureName,cityName,streetNumber,addressImageId,prefectureCode,cityCode,postCode,addressOutside,addressOutsideImageId,closeDate,closeCause,successorCorporateNumber,changeCause,assignmentDate,latest,enName,enPrefectureName,enCityName,enAddressOutside,furigana,hihyoji
18,1010401101576,登記記録の閉鎖等,0,2021-12-21,2021-12-13,Ｃｏｒｖｉｌ　Ｊａｐａｎ株式会社,,株式会社,東京都,港区,虎ノ門４丁目３番１号城山トラストタワー東京赤坂法律事務所内,,13,103,1050001,,,2021-12-13,清算の結了等,,,2015-10-05,1,,,,,コービルジャパン,0
26,1010403010825,登記記録の閉鎖等,0,2021-12-21,2021-12-13,合同会社ＳＯＬＡＥＲ　ＳＩＥＳ,,合同会社,東京都,港区,西麻布３丁目２－９サンライズ六本木６Ａ,,13,103,1060031,,,2021-12-13,清算の結了等,,,2015-10-05,1,,,,,ソラエルセイス,0
34,1010601008729,登記記録の閉鎖等,0,2021-12-21,2021-12-16,株式会社石田鋼材店,,株式会社,東京都,墨田区,亀沢４丁目１６番１３号,,13,107,1300014,,,2021-12-16,清算の結了等,,,2015-10-05,1,,,,,イシダコウザイテン,0
35,1010601041795,登記記録の閉鎖等,0,2021-12-21,2021-12-20,ケアブランチ株式会社,,株式会社,岡山県,岡山市南区,内尾４２９番地,,33,104,7010212,,,2021-12-20,清算の結了等,,,2015-10-05,1,,,,,,0
42,1010902010342,登記記録の閉鎖等,0,2021-12-21,2021-12-16,有限会社寺川工業所,,有限会社,東京都,世田谷区,太子堂１丁目１２番３３号,,13,112,1540004,,,2021-12-16,清算の結了等,,,2015-10-05,1,,,,,,0
50,1011101059023,登記記録の閉鎖等,0,2021-12-21,2021-12-09,アット・ビジネス・コム株式会社,,株式会社,東京都,新宿区,西新宿７丁目７番２４号,,13,104,1600023,,,2021-12-09,清算の結了等,,,2015-10-05,1,,,,,アットビジネスコム,0
64,1011602009765,登記記録の閉鎖等,0,2021-12-21,2021-12-16,有限会社宮本保険事務所,,有限会社,東京都,練馬区,氷川台４丁目２５番８号,,13,120,1790084,,,2021-12-16,清算の結了等,,,2015-10-05,1,,,,,ミヤモトホケンジムショ,0
72,1011805002591,登記記録の閉鎖等,0,2021-12-21,2021-12-17,一般社団法人ぶなの樹,,その他の設立登記法人,東京都,葛飾区,柴又５丁目２８番６号,,13,122,1250052,,,2021-12-17,清算の結了等,,,2016-06-27,1,,,,,ブナノキ,0
73,1012301001773,登記記録の閉鎖等,0,2021-12-21,2021-12-13,株式会社東京雑貨,,株式会社,東京都,町田市,金森１丁目３番５号,,13,209,1940012,,,2021-12-13,清算の結了等,,,2015-10-05,1,,,,,トウキョウザッカ,0
74,1012302005311,登記記録の閉鎖等,0,2021-12-21,2021-12-14,有限会社若松,,有限会社,東京都,町田市,鶴間３丁目１３番地１３,,13,209,1940004,,,2021-12-14,清算の結了等,,,2015-10-05,1,,,,,ワカマツ,0
75,1012302005468,登記記録の閉鎖等,0,2021-12-21,2021-12-08,有限会社デザイン・プロ,,有限会社,東京都,町田市,本町田２０４８番地１９４,,13,209,1940032,,,2021-12-08,清算の結了等,,,2015-10-05,1,,,,,,0
79,1013102007241,登記記録の閉鎖等,0,2021-12-21,2021-12-17,有限会社ＬＬＫトレーディングジャパン,,有限会社,東京都,青梅市,東青梅５丁目２４番地の７,,13,205,1980042,,,2021-12-17,清算の結了等,,,2015-10-05,1,,,,,エルエルケイトレーディングジャパン,0
98,1020002097973,登記記録の閉鎖等,0,2021-12-21,2021-12-16,有限会社多摩川工具製作所,,有限会社,神奈川県,川崎市川崎区,殿町３丁目１３番地１０号,,14,131,2100821,,,2021-12-16,清算の結了等,,,2015-10-05,1,,,,,タマガワコウグセイサクショ,0
108,1021003006799,登記記録の閉鎖等,0,2021-12-21,2021-12-17,四山合同会社,,合同会社,神奈川県,秦野市,菩提８０２番地,,14,211,2591302,,,2021-12-17,清算の結了等,,,2017-07-19,1,,,,,シヤマ,0
121,1030002109001,登記記録の閉鎖等,0,2021-12-21,2021-11-29,有限会社エコーズ,,有限会社,埼玉県,川口市,大字峯１３９０番地の６,,11,203,3340056,,,2021-11-29,清算の結了等,,,2015-10-05,1,,,,,エコーズ,0
122,1040001088848,登記記録の閉鎖等,0,2021-12-21,2021-12-16,株式会社大山光電,,株式会社,千葉県,東金市,松之郷３３５１番地,,12,213,2830805,,,2021-12-16,清算の結了等,,,2015-10-05,1,,,,,オオヤマコウデン,0
139,1090002012546,登記記録の閉鎖等,0,2021-12-21,2021-12-16,有限会社富久澄,,有限会社,山梨県,富士吉田市,上吉田２丁目４番１９号,,19,202,4030005,,,2021-12-16,清算の結了等,,,2015-10-05,1,,,,,,0
145,1110002015001,登記記録の閉鎖等,0,2021-12-21,2021-12-17,有限会社倉島青果店,,有限会社,新潟県,新発田市,長畑２３０番地,,15,206,9570005,,,2021-12-17,清算の結了等,,,2015-10-05,1,,,,,クラシマセイカテン,0
162,1120101024728,登記記録の閉鎖等,0,2021-12-21,2021-12-15,株式会社友次鋼業,,株式会社,大阪府,堺市北区,南花田町７２番地６,,27,146,5918011,,,2021-12-15,清算の結了等,,,2015-10-05,1,,,,,ユウジコウギョウ,0
167,1120102013102,登記記録の閉鎖等,0,2021-12-21,2021-12-15,有限会社どんぐりっこ,,有限会社,大阪府,高石市,取石６丁目１４番８号,,27,225,5920013,,,2021-12-15,清算の結了等,,,2015-10-05,1,,,,,ドングリッコ,0
170,1120102026418,登記記録の閉鎖等,0,2021-12-21,2021-12-15,有限会社いずみの里,,有限会社,大阪府,和泉市,仏並町３９８番地の１,,27,219,5941136,,,2021-12-15,清算の結了等,,,2015-10-05,1,,,,,イズミノサト,0
185,1140002036507,登記記録の閉鎖等,0,2021-12-21,2021-12-17,有限会社ふくもと,,有限会社,兵庫県,加古川市,加古川町本町３３３番地の１,,28,210,6750037,,,2021-12-17,清算の結了等,,,2015-10-05,1,,,,,フクモト,0
195,1180001106414,登記記録の閉鎖等,0,2021-12-21,2021-12-16,株式会社マイム,,株式会社,愛知県,一宮市,小信中島字郷浦３９番地２,,23,203,4940007,,,2021-12-16,清算の結了等,,,2015-10-05,1,,,,,,0
199,1180002082002,登記記録の閉鎖等,0,2021-12-21,2021-12-16,有限会社タカテツビルド,,有限会社,愛知県,江南市,前飛保町西町１６２番地の３,,23,217,4838349,,,2021-12-16,清算の結了等,,,2015-10-05,1,,,,,タカテツビルド,0
202,1190001003338,登記記録の閉鎖等,0,2021-12-21,2021-12-17,株式会社石河整備,,株式会社,三重県,亀山市,和田町１６６２番地の１,,24,210,5190102,,,2021-12-17,清算の結了等,,,2015-10-05,1,,,,,イシカワセイビ,0
206,1200003004943,登記記録の閉鎖等,0,2021-12-21,2021-12-20,合同会社ｉｓｏｌａｔｉｏｎ,,合同会社,岐阜県,可児市,長坂５丁目５４,,21,214,5090257,,,2021-12-20,清算の結了等,,,2020-09-03,1,,,,,アイソレーション,0
207,1200005002573,登記記録の閉鎖等,0,2021-12-21,2021-12-16,管理組合法人シャトレーヌＶ,00077304,その他の設立登記法人,岐阜県,各務原市,鵜沼山崎町８丁目１６６番地,,21,213,5090124,,,2021-12-16,清算の結了等,,,2015-10-05,1,,,,,シャトレーヌヴイ,0
229,1310001004991,登記記録の閉鎖等,0,2021-12-21,2021-12-20,松尾建築工房株式会社,,株式会社,長崎県,長崎市,つつじが丘２丁目１５番２８号,,42,201,8510102,,,2021-12-20,清算の結了等,,,2015-10-05,1,,,,,マツオケンチクコウボウ,0
233,1340001010822,登記記録の閉鎖等,0,2021-12-21,2021-12-15,株式会社マルエイ物産,,株式会社,鹿児島県,大島郡瀬戸内町,大字古仁屋１２８３番地１５０,,46,525,8941508,,,2021-12-15,清算の結了等,,,2015-10-05,1,,,,,マルエイブッサン,0
244,1370002007170,登記記録の閉鎖等,0,2021-12-21,2021-12-16,有限会社北島広芸,,有限会社,宮城県,仙台市宮城野区,福室字弁当二番７２番地の２,,04,102,9830005,,,2021-12-16,清算の結了等,,,2015-10-05,1,,,,,キタジマコウゲイ,0
247,1370505000531,登記記録の閉鎖等,0,2021-12-21,2021-12-08,特定非営利活動法人南三陸コミュニティメディア,,その他の設立登記法人,宮城県,本吉郡南三陸町,志津川字平井田５５番地３２,,04,606,9860724,,,2021-12-08,清算の結了等,,,2015-10-05,1,,,,,ミナミサンリクコミュニティメディア,0
248,1370602000649,登記記録の閉鎖等,0,2021-12-21,2021-12-14,有限会社五嶋屋,,有限会社,宮城県,塩竈市,舟入１丁目４番２２号,,04,203,9850014,,,2021-12-14,清算の結了等,,,2015-10-05,1,,,,,ゴシマヤ,0
253,1380002030337,登記記録の閉鎖等,0,2021-12-21,2021-12-06,有限会社浜商,,有限会社,福島県,双葉郡富岡町,大字本岡字王塚６９３番地,,07,543,9791151,,,2021-12-06,清算の結了等,,,2015-10-05,1,,,,,ハマショウ,0
259,1410005002767,登記記録の閉鎖等,0,2021-12-21,2021-12-10,農事組合法人須川ヘリサービス,,その他の設立登記法人,秋田県,湯沢市,相川字須川４８番地,,05,207,0190402,,,2021-12-10,清算の結了等,,,2015-10-05,1,,,,,スカワヘリサービス,0
269,1430001075055,登記記録の閉鎖等,0,2021-12-21,2021-12-20,株式会社フロレスタ,,株式会社,北海道,札幌市東区,北三十七条東１５丁目１番１号,,01,103,0070837,,,2021-12-20,合併による解散等,2430001084872,令和３年１２月２０日札幌市東区北三十七条東十五丁目１番１号株式会社クロスティホールディングス（2430001084872）に合併し解散,2017-09-29,1,,,,,フロレスタ,0
272,1460102000958,登記記録の閉鎖等,0,2021-12-21,2021-12-17,有限会社軍司運送,,有限会社,北海道,帯広市,西二十二条南２丁目１番地５８,,01,207,0802472,,,2021-12-17,清算の結了等,,,2015-10-05,1,,,,,グンジウンソウ,0
277,1500002002587,登記記録の閉鎖等,0,2021-12-21,2021-12-20,ケイレーシングエンジニアリング有限会社,,有限会社,愛媛県,伊予郡松前町,大字西古泉４８６番地１,,38,401,7913134,,,2021-12-20,清算の結了等,,,2015-10-05,1,,,,,ケイレーシングエンジニアリング,0
299,2010401125005,登記記録の閉鎖等,0,2021-12-21,2021-12-16,株式会社Ｎｅｓｓａ　Ｊａｐａｎ,,株式会社,神奈川県,横浜市西区,みなとみらい３丁目６番３号ＭＭパークビル８Ｆ,,14,103,2200012,,,2021-12-16,清算の結了等,,,2016-05-25,1,,,,,ネッサジャパン,0
301,2010401140111,登記記録の閉鎖等,0,2021-12-21,2021-12-15,株式会社ＳＴＡＲＬＩＧＨＴ,,株式会社,神奈川県,厚木市,旭町２丁目１０番２５－７０３号,,14,212,2430014,,,2021-12-15,清算の結了等,,,2018-08-07,1,,,,,スターライト,0
309,2010501005560,登記記録の閉鎖等,0,2021-12-21,2021-12-16,昌久金属株式会社,,株式会社,東京都,台東区,東上野４丁目２３番５号,,13,106,1100015,,,2021-12-16,清算の結了等,,,2015-10-05,1,,,,,ショウキュウキンゾク,0
312,2010501019172,登記記録の閉鎖等,0,2021-12-21,2021-12-20,秋栄産業株式会社,,株式会社,東京都,台東区,松が谷４丁目２０番１０号,,13,106,1110036,,,2021-12-20,清算の結了等,,,2015-10-05,1,,,,,シュウエイサンギョウ,0
313,2010502004834,登記記録の閉鎖等,0,2021-12-21,2021-12-17,有限会社サカエ,,有限会社,東京都,台東区,花川戸１丁目６番７号,,13,106,1110033,,,2021-12-17,清算の結了等,,,2015-10-05,1,,,,,,0
323,2010801004592,登記記録の閉鎖等,0,2021-12-21,2021-12-20,株式会社サン・サービス,,株式会社,神奈川県,横浜市港南区,日野南５丁目３３番１８号,,14,111,2340055,,,2021-12-20,清算の結了等,,,2015-10-05,1,,,,,サンサービス,0
329,2010902003601,登記記録の閉鎖等,0,2021-12-21,2021-12-17,有限会社オフィスオモ,,有限会社,東京都,世田谷区,松原４丁目７番９号,,13,112,1560043,,,2021-12-17,清算の結了等,,,2015-10-05,1,,,,,オフィスオモ,0
348,2011505001876,登記記録の閉鎖等,0,2021-12-21,2021-12-14,ミャンマージャパン事業協同組合,,その他の設立登記法人,東京都,北区,志茂５丁目１３番１７号,,13,117,1150042,,,2021-12-14,清算の結了等,,,2015-10-05,1,,,,,ミャンマージャパン,0
360,2013202004344,登記記録の閉鎖等,0,2021-12-21,2021-12-08,有限会社天祐,,有限会社,東京都,目黒区,祐天寺１丁目２２番７号,,13,110,1530052,,,2021-12-08,清算の結了等,,,2015-10-05,1,,,,,テンユウ,0
365,2020001013609,登記記録の閉鎖等,0,2021-12-21,2021-12-17,株式会社エス・ティー,,株式会社,神奈川県,横浜市南区,高根町３丁目１７番地の４,,14,105,2320022,,,2021-12-17,清算の結了等,,,2015-10-05,1,,,,,エスティー,0
369,2020001049405,登記記録の閉鎖等,0,2021-12-21,2021-12-16,ワイズエンジニアリング株式会社,,株式会社,神奈川県,横浜市保土ケ谷区,川島町１２８３番地,,14,106,2400045,,,2021-12-16,清算の結了等,,,2015-10-05,1,,,,,ワイズエンジニアリング,0
378,2020003011503,登記記録の閉鎖等,0,2021-12-21,2021-12-17,合同会社プロテック,,合同会社,神奈川県,横浜市港南区,上大岡西２丁目１３番２号,,14,111,2330002,,,2021-12-17,清算の結了等,,,2016-07-06,1,,,,,プロテック,0
385,2021005010897,登記記録の閉鎖等,0,2021-12-21,2021-12-20,一般社団法人玉露普及協会ひとしずく,,その他の設立登記法人,神奈川県,鎌倉市,佐助１丁目１４番１号,,14,204,2480017,,,2021-12-20,清算の結了等,,,2017-03-16,1,,,,,ギョクロフキュウキョウカイヒトシズク,0
394,2030002051490,登記記録の閉鎖等,0,2021-12-21,2021-12-16,有限会社市川エンジニアリング,,有限会社,埼玉県,草加市,吉町５丁目６番４７号,,11,221,3400017,,,2021-12-16,清算の結了等,,,2015-10-05,1,,,,,イチカワエンジニアリング,0
396,2030003001882,登記記録の閉鎖等,0,2021-12-21,2021-12-17,合名会社合月要会,,合名会社,埼玉県,草加市,氷川町２１５４番地８,,11,221,3400034,,,2021-12-17,清算の結了等,,,2015-10-05,1,,,,,アイツキカナメカイ,0
397,2030003014125,登記記録の閉鎖等,0,2021-12-21,2021-12-14,新井企画合同会社,,合同会社,埼玉県,ふじみ野市,大井１丁目５番３１号アニューふじみ野１０１,,11,245,3560053,,,2021-12-14,清算の結了等,,,2019-09-30,1,,,,,アライキカク,0
408,2040002088061,登記記録の閉鎖等,0,2021-12-21,2021-12-13,有限会社志尾土木,,有限会社,千葉県,香取市,小川１３９４番地,,12,236,2890423,,,2021-12-13,清算の結了等,,,2015-10-05,1,,,,,シビドボク,0
413,2050002039947,登記記録の閉鎖等,0,2021-12-21,2021-12-15,有限会社堀越金物店,,有限会社,茨城県,常総市,水海道元町３３９７番地,,08,211,3030004,,,2021-12-15,清算の結了等,,,2015-10-05,1,,,,,ホリコシカナモノテン,0
434,2110002025313,登記記録の閉鎖等,0,2021-12-21,2021-12-13,有限会社エヌ企画,,有限会社,新潟県,妙高市,大字樽本八坊主丙１１０１番地１９,00070964,15,217,9492223,,,2021-12-13,清算の結了等,,,2015-10-05,1,,,,,エヌキカク,0
435,2110002028968,登記記録の閉鎖等,0,2021-12-21,2021-12-15,有限会社藤井正芳商店,,有限会社,新潟県,長岡市,東蔵王２丁目５番１号,,15,202,9400029,,,2021-12-15,清算の結了等,,,2015-10-05,1,,,,,フジイマサヨシショウテン,0
436,2110002030701,登記記録の閉鎖等,0,2021-12-21,2021-12-16,有限会社トーア工芸,,有限会社,新潟県,長岡市,中之島４２９６番地,,15,202,9540124,,,2021-12-16,清算の結了等,,,2015-10-05,1,,,,,トーアコウゲイ,0
442,2120001216218,登記記録の閉鎖等,0,2021-12-21,2021-12-14,株式会社ＳＴＡＲＴ,,株式会社,大阪府,大阪市西区,北堀江１丁目１番２４号近商ビル４Ａ－２,,27,106,5500014,,,2021-12-14,清算の結了等,,,2018-10-01,1,,,,,,0
452,2120002062165,登記記録の閉鎖等,0,2021-12-21,2021-12-16,有限会社ｂｒｉｄｇｅ,,有限会社,東京都,板橋区,徳丸１丁目３２番１４号,,13,119,1750083,,,2021-12-16,清算の結了等,,,2015-10-05,1,,,,,ブリッジ,0
454,2120101034676,登記記録の閉鎖等,0,2021-12-21,2021-12-15,大景特装株式会社,,株式会社,大阪府,南河内郡河南町,大字白木８６０番地,,27,382,5850014,,,2021-12-15,清算の結了等,,,2015-10-05,1,,,,,ダイケイトクソウ,0
460,2120901025478,登記記録の閉鎖等,0,2021-12-21,2021-12-16,フジタ和光住宅株式会社,,株式会社,大阪府,豊中市,本町１丁目１２番２８－１４０６号,,27,203,5600021,,,2021-12-16,清算の結了等,,,2015-10-05,1,,,,,フジタワコウジュウタク,0
480,2160002006738,登記記録の閉鎖等,0,2021-12-21,2021-12-16,有限会社テクノプラン,,有限会社,滋賀県,長浜市,十里町２２２番地１８,,25,203,5260016,,,2021-12-16,清算の結了等,,,2015-10-05,1,,,,,テクノプラン,0
483,2180001145717,登記記録の閉鎖等,0,2021-12-21,2021-12-16,株式会社ＺＥＲＯ,,株式会社,愛知県,名古屋市中村区,名駅３丁目２４番８号三立ビル３階,,23,105,4500002,,,2021-12-16,清算の結了等,,,2021-04-16,1,,,,,ゼロ,0
493,2240001009519,登記記録の閉鎖等,0,2021-12-21,2021-12-16,株式会社広島中本組,,株式会社,広島県,広島市東区,戸坂千足２丁目９番５号,,34,102,7320009,,,2021-12-16,清算の結了等,,,2015-10-05,1,,,,,ヒロシマナカモトクミ,0
503,2260002007131,登記記録の閉鎖等,0,2021-12-21,2021-12-20,有限会社ナカイ商事,,有限会社,岡山県,岡山市北区,玉柏１２９６番地の１,,33,101,7012142,,,2021-12-20,清算の結了等,,,2015-10-05,1,,,,,,0
504,2260002026437,登記記録の閉鎖等,0,2021-12-21,2021-12-17,有限会社河商,,有限会社,岡山県,井原市,井原町６３５番地,,33,207,7150019,,,2021-12-17,清算の結了等,,,2015-10-05,1,,,,,カワショウ,0
508,2270002005720,登記記録の閉鎖等,0,2021-12-21,2021-12-17,有限会社木村建設,,有限会社,鳥取県,米子市,福万２１０番地,,31,202,6893523,,,2021-12-17,清算の結了等,,,2015-10-05,1,,,,,キムラケンセツ,0
514,2290005015599,登記記録の閉鎖等,0,2021-12-21,2021-12-16,一般社団法人日本電気保安協会,,その他の設立登記法人,福岡県,福岡市博多区,博多駅東１丁目１３番１７号松岡ビル７Ｆ,,40,132,8120013,,,2021-12-16,清算の結了等,,,2015-10-05,1,,,,,ニホンデンキホアンキョウカイ,0
536,2380005003727,登記記録の閉鎖等,0,2021-12-21,2021-12-15,一般社団法人ゴールドマウンテンサポート,,その他の設立登記法人,福島県,郡山市,本町１丁目５番１０号,,07,203,9638871,,,2021-12-15,清算の結了等,,,2015-10-05,1,,,,,ゴールドマウンテンサポート,0
550,2430005008737,登記記録の閉鎖等,0,2021-12-21,2021-12-16,一般社団法人徳寿会,,その他の設立登記法人,北海道,苫小牧市,字樽前２１６番地,,01,213,0591265,,,2021-12-16,清算の結了等,,,2015-10-05,1,,,,,トクジュカイ,0
571,3010401026177,登記記録の閉鎖等,0,2021-12-21,2021-12-13,ＦＴＶ　Ｊａｐａｎ　Ｆｉｎａｎｃｅ合同会社,,合同会社,東京都,港区,港南２丁目１５番２号,,13,103,1080075,,,2021-12-13,清算の結了等,,,2015-10-05,1,,,,,エフティーブイジャパンファイナンス,0
588,3010601051223,登記記録の閉鎖等,0,2021-12-21,2021-12-15,株式会社エンネス,,株式会社,千葉県,印西市,平賀２６８９番地１,,12,231,2701605,,,2021-12-15,清算の結了等,,,2017-03-09,1,,,,,エンネス,0
593,3010801029416,登記記録の閉鎖等,0,2021-12-21,2021-12-14,株式会社デジタルイージー,,株式会社,大阪府,大阪市北区,天満２丁目１－１２,,27,127,5300043,,,2021-12-14,清算の結了等,,,2018-12-10,1,,,,,デジタルイージー,0
601,3011001115907,登記記録の閉鎖等,0,2021-12-21,2021-12-08,株式会社ＮｅＸＴ　ＯＮＥ,,株式会社,福岡県,福岡市博多区,中洲５丁目３番８号５Ｆ,,40,132,8100801,,,2021-12-08,清算の結了等,,,2017-04-20,1,,,,,ネクストワン,0
614,3011502013849,登記記録の閉鎖等,0,2021-12-21,2021-12-17,有限会社サカモトエージェンシー,,有限会社,東京都,足立区,保木間５丁目２６番２－１００１号,,13,121,1210064,,,2021-12-17,清算の結了等,,,2015-10-05,1,,,,,サカモトエージェンシー,0
620,3011802010067,登記記録の閉鎖等,0,2021-12-21,2021-12-17,有限会社上村革スキ所,,有限会社,東京都,足立区,関原１丁目１１番２２号,,13,121,1230852,,,2021-12-17,清算の結了等,,,2015-10-05,1,,,,,カミムラカワスキショ,0
622,3012302004559,登記記録の閉鎖等,0,2021-12-21,2021-12-10,有限会社丸吉,,有限会社,東京都,町田市,原町田３丁目２番７号,,13,209,1940013,,,2021-12-10,清算の結了等,,,2015-10-05,1,,,,,マルヨシ,0
625,3012405000471,登記記録の閉鎖等,0,2021-12-21,2021-12-15,特定非営利活動法人民間デイサービスつくしの家,,その他の設立登記法人,東京都,国立市,西２丁目２６番２９号,,13,215,1860005,,,2021-12-15,清算の結了等,,,2015-10-05,1,,,,,ミンカンデイサービスツクシノイエ,0
629,3013101008767,登記記録の閉鎖等,0,2021-12-21,2021-12-14,三和ホールディングス株式会社,,株式会社,東京都,青梅市,東青梅３丁目６番地の３,,13,205,1980042,,,2021-12-14,合併による解散等,5013101003618,令和３年１２月１２日東京都青梅市東青梅三丁目６番地３三和工機株式会社（5013101003618）に合併し解散,2021-11-12,1,,,,,サンワホールディングス,0
639,3020002005455,登記記録の閉鎖等,0,2021-12-21,2021-12-08,有限会社宇佐美音楽教室,,有限会社,神奈川県,横浜市都筑区,池辺町３５９８番地１,,14,118,2240053,,,2021-12-08,清算の結了等,,,2015-10-05,1,,,,,,0
645,3021002001428,登記記録の閉鎖等,0,2021-12-21,2021-12-15,有限会社岸本国際技術研究所,,有限会社,神奈川県,横浜市神奈川区,松見町４丁目１１０１番地７コートハウス菊名１０６号,,14,102,2210005,,,2021-12-15,清算の結了等,,,2015-10-05,1,,,,,キシモトコクサイギジュツケンキュウジョ,0
648,3021003002805,登記記録の閉鎖等,0,2021-12-21,2021-12-16,合資会社大木本店,,合資会社,神奈川県,横須賀市,追浜町３丁目１番地,,14,201,2370064,,,2021-12-16,清算の結了等,,,2015-10-05,1,,,,,オオキホンテン,0
653,3030002016930,登記記録の閉鎖等,0,2021-12-21,2021-12-16,有限会社矢幡心理教育研究所,,有限会社,東京都,文京区,大塚６丁目２番５号２０２号室,,13,105,1120012,,,2021-12-16,清算の結了等,,,2015-10-05,1,,,,,ヤハタシンリキョウイクケンシュウショ,0
656,3030002110353,登記記録の閉鎖等,0,2021-12-21,2021-12-16,大作印刷有限会社,,有限会社,埼玉県,川口市,上青木西３丁目１０番１８号,,11,203,3330845,,,2021-12-16,清算の結了等,,,2015-10-05,1,,,,,ダイサクインサツ,0
659,3040002062024,登記記録の閉鎖等,0,2021-12-21,2021-12-17,有限会社柏井自動車工業,,有限会社,千葉県,四街道市,旭ケ丘５丁目２０番１８号,,12,228,2840024,,,2021-12-17,清算の結了等,,,2015-10-05,1,,,,,カシワイジドウシャコウギョウ,0
662,3040003005915,登記記録の閉鎖等,0,2021-12-21,2021-12-16,國光合同会社,,合同会社,千葉県,千葉市花見川区,こてはし台６丁目３４番５号,,12,102,2620005,,,2021-12-16,清算の結了等,,,2015-10-05,1,,,,,クニミツ,0
668,3060002031869,登記記録の閉鎖等,0,2021-12-21,2021-12-16,有限会社熊倉石材店,,有限会社,栃木県,栃木市,沼和田町６番１６号,,09,203,3280042,,,2021-12-16,清算の結了等,,,2015-10-05,1,,,,,クマクラセキザイテン,0
677,3080105001791,登記記録の閉鎖等,0,2021-12-21,2021-12-16,田方自動車整備協業組合,,その他の設立登記法人,静岡県,伊豆市,下白岩８６番地の１,,22,222,4102501,,,2021-12-16,清算の結了等,,,2015-10-05,1,,,,,タガタジドウシャセイビ,0
679,3080402001338,登記記録の閉鎖等,0,2021-12-21,2021-12-15,有限会社遠藤エーエルシー建業,,有限会社,静岡県,浜松市西区,伊左地町５０５５番地,,22,133,4311111,,,2021-12-15,清算の結了等,,,2015-10-05,1,,,,,エンドウエーエルシーケンギョウ,0
681,3090001014095,登記記録の閉鎖等,0,2021-12-21,2021-12-17,株式会社神子沢林業,,株式会社,山梨県,山梨市,東１７６０番地の１０,,19,205,4050002,,,2021-12-17,清算の結了等,,,2015-10-05,1,,,,,ミコザワリンギョウ,0
694,3120002047603,登記記録の閉鎖等,0,2021-12-21,2021-12-14,有限会社ケイティ設計,,有限会社,大阪府,大阪市住吉区,杉本２丁目１６番３号,,27,120,5580022,,,2021-12-14,清算の結了等,,,2015-10-05,1,,,,,,0
706,3120901023621,登記記録の閉鎖等,0,2021-12-21,2021-12-16,株式会社ケィ・エム・ティ,,株式会社,兵庫県,川西市,花屋敷１丁目３２番３号,,28,217,6660035,,,2021-12-16,清算の結了等,,,2015-10-05,1,,,,,ケィエムティ,0
718,3140001056933,登記記録の閉鎖等,0,2021-12-21,2021-12-16,株式会社おだに介護支援事務所,,株式会社,兵庫県,豊岡市,吉井５５８番地,,28,209,6680078,,,2021-12-16,清算の結了等,,,2015-10-05,1,,,,,オダニカイゴシエンジムショ,0
738,3180001116650,登記記録の閉鎖等,0,2021-12-21,2021-12-15,株式会社ユーリカ,,株式会社,愛知県,名古屋市東区,泉１丁目２１番２７号,,23,102,4610001,,,2021-12-15,合併による解散等,7180001052925,令和３年１２月１日名古屋市東区泉一丁目２１番２７号株式会社ＯＴＳＬ（7180001052925）に合併し解散,2015-10-05,1,,,,,ユーリカ,0
746,3180003018878,登記記録の閉鎖等,0,2021-12-21,2021-12-14,ｍｉｃｓ合同会社,,合同会社,愛知県,名古屋市中区,新栄２丁目２番１９号新栄グリーンハイツ１階,,23,106,4600007,,,2021-12-14,清算の結了等,,,2018-04-26,1,,,,,ミックス,0
754,3200003005056,登記記録の閉鎖等,0,2021-12-21,2021-12-20,合同会社カリテ信濃屋,,合同会社,岐阜県,本巣市,曽井中島１３００番地１０,,21,218,5011205,,,2021-12-20,清算の結了等,,,2021-01-08,1,,,,,カリテシナノヤ,0
762,3250001009426,登記記録の閉鎖等,0,2021-12-21,2021-12-16,株式会社かぐせん,,株式会社,山口県,下松市,楠木町２丁目６番３８号,,35,207,7440029,,,2021-12-16,清算の結了等,,,2015-10-05,1,,,,,カグセン,0
777,3290801009761,登記記録の閉鎖等,0,2021-12-21,2021-12-16,株式会社河口屋,,株式会社,福岡県,北九州市八幡西区,黒崎２丁目７番４号,,40,109,8060021,,,2021-12-16,清算の結了等,,,2015-10-05,1,,,,,カワグチヤ,0
811,3410001001399,登記記録の閉鎖等,0,2021-12-21,2021-12-15,常陽機材株式会社,,株式会社,秋田県,秋田市,御野場５丁目１番８号,,05,201,0101424,,,2021-12-15,清算の結了等,,,2015-10-05,1,,,,,ジョウヨウキザイ,0
828,4010001043415,登記記録の閉鎖等,0,2021-12-21,2021-12-16,寿商事株式会社,,株式会社,東京都,千代田区,外神田４丁目９番８号,,13,101,1010021,,,2021-12-16,清算の結了等,,,2015-10-05,1,,,,,コトブキショウジ,0
888,4011202003711,登記記録の閉鎖等,0,2021-12-21,2021-12-14,有限会社高橋ボタン店,00054284,有限会社,東京都,中野区,本町５丁目２３番５号,,13,114,1640012,,,2021-12-14,清算の結了等,,,2015-10-05,1,,,,,タカハシボタンテン,0
889,4011401014583,登記記録の閉鎖等,0,2021-12-21,2021-12-20,株式会社映光,,株式会社,東京都,板橋区,前野町６丁目２４番５－５０８号,,13,119,1740063,,,2021-12-20,清算の結了等,,,2015-10-05,1,,,,,,0
902,4012402019506,登記記録の閉鎖等,0,2021-12-21,2021-12-16,有限会社榛澤建設,,有限会社,東京都,三鷹市,大沢３丁目３番２５号,,13,204,1810015,,,2021-12-16,清算の結了等,,,2015-10-05,1,,,,,ハルザワケンセツ,0
908,4013101008766,登記記録の閉鎖等,0,2021-12-21,2021-12-14,資産管理１株式会社,,株式会社,東京都,青梅市,東青梅３丁目６番地の３,,13,205,1980042,,,2021-12-14,合併による解散等,5013101003618,令和３年１２月１２日東京都青梅市東青梅三丁目６番地３三和工機株式会社（5013101003618）に合併し解散,2021-11-12,1,,,,,シサンカンリワン,0
924,4020001134106,登記記録の閉鎖等,0,2021-12-21,2021-12-15,テクノロジーズ株式会社,,株式会社,東京都,千代田区,大手町１丁目２番１号ＯｔｅｍａｃｈｉＯｎｅタワー,,13,101,1000004,,,2021-12-15,清算の結了等,,,2019-12-17,1,,,,,テクノロジーズ,0
975,4060002039449,登記記録の閉鎖等,0,2021-12-21,2021-12-15,有限会社フナダ建材,,有限会社,栃木県,佐野市,石塚町６１７番地,,09,204,3270103,,,2021-12-15,清算の結了等,,,2015-10-05,1,,,,,フナダケンザイ,0
984,4110002034304,登記記録の閉鎖等,0,2021-12-21,2021-12-15,有限会社稲葉時計店,,有限会社,新潟県,佐渡市,両津夷２９６番地,,15,224,9520011,,,2021-12-15,清算の結了等,,,2015-10-05,1,,,,,イナバトケイテン,0
1036,4180002053710,登記記録の閉鎖等,0,2021-12-21,2021-12-16,有限会社ＢＯＨＥＭＥ,,有限会社,愛知県,名古屋市名東区,牧の里３丁目１０３番地,,23,115,4650068,,,2021-12-16,清算の結了等,,,2015-10-05,1,,,,,ボエム,0
1055,4230002006175,登記記録の閉鎖等,0,2021-12-21,2021-12-16,有限会社信富不動産,,有限会社,富山県,富山市,婦中町希望ケ丘７５５番地,,16,201,9392703,,,2021-12-16,清算の結了等,,,2015-10-05,1,,,,,,0
1062,4290001017060,登記記録の閉鎖等,0,2021-12-21,2021-12-16,株式会社元満木材,,株式会社,福岡県,福岡市博多区,板付６丁目１１番１６号,,40,132,8120888,,,2021-12-16,清算の結了等,,,2015-10-05,1,,,,,モトミツモクザイ,0
1073,4350001010934,登記記録の閉鎖等,0,2021-12-21,2021-12-10,株式会社友心,,株式会社,宮崎県,串間市,大字都井９７３番地１,,45,207,8880222,,,2021-12-10,清算の結了等,,,2015-10-05,1,,,,,ユウシン,0
1093,4390005005175,登記記録の閉鎖等,0,2021-12-21,2021-12-16,大佛山光明院,,その他の設立登記法人,山形県,最上郡真室川町,大字平岡１６１番地,,06,364,9995311,,,2021-12-16,清算の結了等,,,2015-10-05,1,,,,,ダイブツサンコウミョウイン,0
1099,4430005003736,登記記録の閉鎖等,0,2021-12-21,2021-12-16,特定非営利活動法人北海道健康科学研究所,,その他の設立登記法人,北海道,札幌市中央区,南一条西８丁目４番１号ＴＧ札幌ビル５階,,01,101,0600061,,,2021-12-16,清算の結了等,,,2015-10-05,1,,,,,ホッカイドウケンコウカガクケンキュウジョ,0
1101,4460001001988,登記記録の閉鎖等,0,2021-12-21,2021-12-20,新生石油株式会社,,株式会社,北海道,釧路市,美原３丁目４０番３５号,,01,206,0850065,,,2021-12-20,清算の結了等,,,2015-10-05,1,,,,,シンセイセキユ,0
1121,5010402003909,登記記録の閉鎖等,0,2021-12-21,2021-12-13,有限会社絆リサーチ,,有限会社,東京都,港区,六本木４丁目３番１１号六本木ユニハウス５０６号室,,13,103,1060032,,,2021-12-13,清算の結了等,,,2015-10-05,1,,,,,ハンリサーチ,0
1124,5010403025191,登記記録の閉鎖等,0,2021-12-21,2021-12-13,合同会社Ｎａｇａｍｉ＆Ｃｏｍｐａｎｙ,,合同会社,東京都,港区,赤坂１丁目１１番１２－２０４号,,13,103,1070052,,,2021-12-13,清算の結了等,,,2021-04-26,1,,,,,ナガミアンドカンパニー,0
1165,5011601018160,登記記録の閉鎖等,0,2021-12-21,2021-12-16,株式会社ウインウイン,,株式会社,埼玉県,川口市,飯塚１丁目８番１９号,,11,203,3320023,,,2021-12-16,清算の結了等,,,2015-10-05,1,,,,,ウインウイン,0
1175,5013301043694,登記記録の閉鎖等,0,2021-12-21,2021-12-14,ｓｅｅｄ株式会社,,株式会社,東京都,豊島区,南大塚２丁目１１番１０号ミモザビル３Ｆ,,13,116,1700005,,,2021-12-14,清算の結了等,,,2019-04-04,1,,,,,シード,0
1199,5021001047115,登記記録の閉鎖等,0,2021-12-21,2021-12-17,株式会社内田工務店,,株式会社,神奈川県,相模原市緑区,大島２５４４番地１,,14,151,2520135,,,2021-12-17,清算の結了等,,,2015-10-05,1,,,,,ウチダコウムテン,0
1201,5021002017827,登記記録の閉鎖等,0,2021-12-21,2021-12-16,有限会社石川商事,,有限会社,神奈川県,相模原市中央区,上溝３８９８番地の１,,14,152,2520243,,,2021-12-16,清算の結了等,,,2015-10-05,1,,,,,イシカワショウジ,0
1209,5030001073145,登記記録の閉鎖等,0,2021-12-21,2021-12-17,カツテック株式会社,,株式会社,埼玉県,川口市,朝日６丁目１８番２号,,11,203,3320001,,,2021-12-17,清算の結了等,,,2015-10-05,1,,,,,カツテック,0
1246,5090002003665,登記記録の閉鎖等,0,2021-12-21,2021-12-15,有限会社甲州防災,,有限会社,山梨県,甲斐市,篠原２６４番地の５,,19,210,4000115,,,2021-12-15,清算の結了等,,,2015-10-05,1,,,,,,0
1254,5110005002736,登記記録の閉鎖等,0,2021-12-21,2021-12-15,特定非営利活動法人ツルハシブックス,,その他の設立登記法人,新潟県,新潟市西区,内野山手２丁目１７－１コーポ星雲１０６,,15,107,9502113,,,2021-12-15,清算の結了等,,,2015-10-05,1,,,,,ツルハシブックス,0
1256,5120001018017,登記記録の閉鎖等,0,2021-12-21,2021-12-16,大成金属株式会社,,株式会社,京都府,京都市東山区,三条通大橋東入大橋町１０２番地１,,26,105,6050009,,,2021-12-16,清算の結了等,,,2015-10-05,1,,,,,タイセイキンゾク,0
1282,5130001035597,登記記録の閉鎖等,0,2021-12-21,2021-12-16,株式会社山王寺霊園,,株式会社,京都府,亀岡市,曽我部町犬飼北山３番地,,26,206,6210027,,,2021-12-16,清算の結了等,,,2015-10-05,1,,,,,サンノウジレイエン,0
1296,5180001116946,登記記録の閉鎖等,0,2021-12-21,2021-12-16,株式会社アーネストフレンド,,株式会社,愛知県,名古屋市千種区,萱場２丁目４番１１号,,23,101,4640086,,,2021-12-16,清算の結了等,,,2015-10-05,1,,,,,アーネストフレンド,0
1299,5180001132984,登記記録の閉鎖等,0,2021-12-21,2021-12-17,株式会社松田捷,,株式会社,愛知県,北名古屋市,九之坪下葭田６０番地２,,23,234,4810041,,,2021-12-17,清算の結了等,,,2018-07-06,1,,,,,マツダショウ,0
1308,5200002001830,登記記録の閉鎖等,0,2021-12-21,2021-12-16,有限会社彩,,有限会社,岐阜県,岐阜市,則武１４５番地の１,,21,201,5020931,,,2021-12-16,清算の結了等,,,2015-10-05,1,,,,,サイ,0
1312,5220001023774,登記記録の閉鎖等,0,2021-12-21,2021-12-16,株式会社イタモッシュ,,株式会社,石川県,金沢市,石引２丁目２５番６号,,17,201,9200935,,,2021-12-16,清算の結了等,,,2020-10-06,1,,,,,イタモッシュ,0
1324,5240005004769,登記記録の閉鎖等,0,2021-12-21,2021-12-17,光澤寺,,その他の設立登記法人,広島県,三次市,糸井町８８６番地,,34,209,7296212,,,2021-12-17,清算の結了等,,,2015-10-05,1,,,,,コウタクジ,0
1330,5260001029529,登記記録の閉鎖等,0,2021-12-21,2021-12-17,株式会社ＪＴＥＣ,,株式会社,岡山県,倉敷市,笹沖２８９番地２１,,33,202,7100834,,,2021-12-17,清算の結了等,,,2016-05-06,1,,,,,ジェイテック,0
1333,5270001003136,登記記録の閉鎖等,0,2021-12-21,2021-12-17,株式会社井澤商店,,株式会社,鳥取県,米子市,旗ヶ崎２丁目５番６号,,31,202,6830845,,,2021-12-17,清算の結了等,,,2015-10-05,1,,,,,イザワショウテン,0
1338,5290001044814,登記記録の閉鎖等,0,2021-12-21,2021-12-13,株式会社そら,,株式会社,福岡県,宗像市,自由ヶ丘南１丁目１４番地２,,40,220,8114156,,,2021-12-13,清算の結了等,,,2015-10-05,1,,,,,ソラ,0
1344,5300001006218,登記記録の閉鎖等,0,2021-12-21,2021-12-10,株式会社長野製麺所,,株式会社,佐賀県,鳥栖市,東町１丁目１０２３番地７,,41,203,8410035,,,2021-12-10,清算の結了等,,,2015-10-05,1,,,,,チョウノセイメンショ,0
1345,5300002007256,登記記録の閉鎖等,0,2021-12-21,2021-12-14,有限会社杵島医設,,有限会社,佐賀県,杵島郡大町町,大字福母２５６１番地４,,41,423,8492102,,,2021-12-14,清算の結了等,,,2015-10-05,1,,,,,キシマイセツ,0
1353,5340001023977,登記記録の閉鎖等,0,2021-12-21,2021-12-20,株式会社安田エンタープライズ,,株式会社,鹿児島県,姶良市,東餅田２４６９番地５,,46,225,8995421,,,2021-12-20,清算の結了等,,,2021-08-04,1,,,,,ヤスダエンタープライズ,0
1372,5410001004895,登記記録の閉鎖等,0,2021-12-21,2021-12-14,株式会社鳥海ツーリスト,,株式会社,秋田県,由利本荘市,鶴沼２８番地の５,,05,210,0150873,,,2021-12-14,清算の結了等,,,2015-10-05,1,,,,,チョウカイツーリスト,0
1406,6010401118632,登記記録の閉鎖等,0,2021-12-21,2021-12-13,松森パートナーズ株式会社,,株式会社,東京都,港区,芝公園２丁目９番３号,,13,103,1050011,,,2021-12-13,清算の結了等,,,2015-10-05,1,,,,,マツモリパートナーズ,0
1428,6010701003559,登記記録の閉鎖等,0,2021-12-21,2021-12-20,株式会社サンエンジニアリング,,株式会社,神奈川県,横浜市港南区,日野南５丁目３３番１８号,,14,111,2340055,,,2021-12-20,清算の結了等,,,2015-10-05,1,,,,,サンエンジニアリング,0
1444,6011301001242,登記記録の閉鎖等,0,2021-12-21,2021-12-17,エル・ニシヤマ建設株式会社,,株式会社,東京都,練馬区,立野町１０番５号,,13,120,1770054,,,2021-12-17,清算の結了等,,,2015-10-05,1,,,,,エルニシヤマケンセツ,0
1446,6011301020507,登記記録の閉鎖等,0,2021-12-21,2021-12-15,株式会社エムシン,,株式会社,東京都,杉並区,成田東２丁目３８番１３号,,13,115,1660015,,,2021-12-15,清算の結了等,,,2015-10-05,1,,,,,エムシン,0
1459,6011801016871,登記記録の閉鎖等,0,2021-12-21,2021-12-17,株式会社ＹＡＲＵＺＥ,,株式会社,東京都,葛飾区,奥戸９丁目１番４号,,13,122,1240022,,,2021-12-17,清算の結了等,,,2015-10-05,1,,,,,ヤルゼ,0
1470,6013301017458,登記記録の閉鎖等,0,2021-12-21,2021-12-15,アイタック株式会社,,株式会社,兵庫県,宝塚市,新明和町１番１号,,28,214,6650052,,,2021-12-15,清算の結了等,,,2015-10-05,1,,,,,アイタック,0
1490,6021005008228,登記記録の閉鎖等,0,2021-12-21,2021-12-17,横須賀雪印牛乳販売協同組合,,その他の設立登記法人,神奈川県,横須賀市,安浦町２丁目２２番地,,14,201,2380012,,,2021-12-17,清算の結了等,,,2021-09-14,1,,,,,ヨコスカユキジルシギュウニュウハンバイ,0
1493,6030001054499,登記記録の閉鎖等,0,2021-12-21,2021-12-20,川越燃料林産株式会社,,株式会社,埼玉県,川越市,大塚１丁目６番地２７,,11,201,3501129,,,2021-12-20,清算の結了等,,,2015-10-05,1,,,,,カワゴエネンリョウリンサン,0
1501,6030002083324,登記記録の閉鎖等,0,2021-12-21,2021-12-16,有限会社篠崎紙工,00017212,有限会社,埼玉県,北本市,北本１丁目１２６番地,,11,233,3640006,,,2021-12-16,清算の結了等,,,2015-10-05,1,,,,,シノザキシコウ,0
1512,6040001079685,登記記録の閉鎖等,0,2021-12-21,2021-12-17,株式会社ＷＫ．ＤＡＹ,,株式会社,千葉県,千葉市中央区,新町２０番地１０,,12,101,2600028,,,2021-12-17,清算の結了等,,,2015-10-05,1,,,,,ダブリュケイデイ,0
1516,6040002052906,登記記録の閉鎖等,0,2021-12-21,2021-12-08,有限会社エスオー,,有限会社,千葉県,市原市,八幡５３４番地,,12,219,2900062,,,2021-12-08,合併による解散等,9040003014472,令和３年１２月１日千葉市若葉区みつわ台二丁目１番１６号合同会社エスオー（9040003014472）に合併し解散,2015-10-05,1,,,,,エスオー,0
1524,6060002002504,登記記録の閉鎖等,0,2021-12-21,2021-12-15,有限会社小野寺工務店,,有限会社,栃木県,宇都宮市,駒生町３３８５番地８,,09,201,3200065,,,2021-12-15,清算の結了等,,,2015-10-05,1,,,,,オノデラコウムテン,0
1528,6070005000116,登記記録の閉鎖等,0,2021-12-21,2021-12-16,農事組合法人泉沢共同稚蚕飼育組合,,その他の設立登記法人,群馬県,前橋市,泉沢町寺前２４番地の２,,10,201,3792101,,,2021-12-16,清算の結了等,,,2015-10-05,1,,,,,イズミサワキョウドウチサンシイククミアイ,0
1541,6090005004065,登記記録の閉鎖等,0,2021-12-21,2021-12-15,特定非営利活動法人青少年の自立を支える山梨の会,,その他の設立登記法人,山梨県,山梨市,東１８３９番地,,19,205,4050002,,,2021-12-15,清算の結了等,,,2015-10-05,1,,,,,セイショウネンノジリツヲササエルヤマナシノカイ,0
1543,6100001015345,登記記録の閉鎖等,0,2021-12-21,2021-12-17,丸佐食品株式会社,,株式会社,長野県,安曇野市,穂高２９６０番地,,20,220,3998303,,,2021-12-17,清算の結了等,,,2015-10-05,1,,,,,マルサショクヒン,0
1545,6100003000080,登記記録の閉鎖等,0,2021-12-21,2021-12-17,合資会社大川鉄工所,,合資会社,長野県,長野市,稲里町田牧８００番地,,20,201,3812214,,,2021-12-17,清算の結了等,,,2015-10-05,1,,,,,オオカワテッコウジョ,0
1549,6110002031118,登記記録の閉鎖等,0,2021-12-21,2021-12-14,有限会社小出整経,,有限会社,新潟県,長岡市,二日町２７１０番地８,,15,202,9400112,,,2021-12-14,清算の結了等,,,2015-10-05,1,,,,,コイデセイケイ,0
1557,6120003008683,登記記録の閉鎖等,0,2021-12-21,2021-12-15,合同会社Ｕ・Ｍ・Ｉ,,合同会社,大阪府,大阪市中央区,松屋町３番２３－１５０２号,,27,128,5420067,,,2021-12-15,清算の結了等,,,2015-10-05,1,,,,,ユーエムアイ,0
1565,6120102017214,登記記録の閉鎖等,0,2021-12-21,2021-12-14,有限会社栄鮨,,有限会社,大阪府,南河内郡河南町,大宝１丁目４番４号,,27,382,5850005,,,2021-12-14,清算の結了等,,,2015-10-05,1,,,,,,0
1603,6240001002965,登記記録の閉鎖等,0,2021-12-21,2021-12-17,倉田電気株式会社,,株式会社,広島県,広島市南区,南蟹屋１丁目３番３９号,,34,103,7320803,,,2021-12-17,清算の結了等,,,2015-10-05,1,,,,,クラタデンキ,0
1610,6240001043571,登記記録の閉鎖等,0,2021-12-21,2021-12-16,株式会社後藤工務店,,株式会社,広島県,府中市,目崎町１８０番地１,,34,208,7260033,,,2021-12-16,合併による解散等,6240001056920,令和３年１２月１６日広島市中区大手町四丁目２番２７号中央レジデンス４０４株式会社後藤工務店（6240001056920）に合併し解散,2015-10-05,1,,,,,ゴトウコウムテン,0
1617,6260002023042,登記記録の閉鎖等,0,2021-12-21,2021-12-17,有限会社高村グループ,00003733,有限会社,岡山県,倉敷市,菰池２丁目２番６１号,,33,202,7110932,,,2021-12-17,清算の結了等,,,2015-10-05,1,,,,,タカムラグループ,0
1641,6360003010459,登記記録の閉鎖等,0,2021-12-21,2021-12-16,Ｋｉｍｕｒａ　ｆａｃｔｏｒｙ合同会社,,合同会社,沖縄県,那覇市,前島３丁目２５番２号ポートビル１Ｆ,,47,201,9000016,,,2021-12-16,清算の結了等,,,2020-07-27,1,,,,,キムラファクトリー,0
1656,6430001039220,登記記録の閉鎖等,0,2021-12-21,2021-12-17,株式会社カイズ,,株式会社,北海道,札幌市中央区,南二十二条西１１丁目１番５－７０２号,,01,101,0640922,,,2021-12-17,清算の結了等,,,2015-10-05,1,,,,,カイズ,0
1658,6430001080422,登記記録の閉鎖等,0,2021-12-21,2021-12-20,株式会社コスモ,,株式会社,北海道,札幌市中央区,南二条東２丁目１番地１エクセレントハウス東６０２号,,01,101,0600052,,,2021-12-20,清算の結了等,,,2019-12-09,1,,,,,コスモ,0
1667,6490005006681,登記記録の閉鎖等,0,2021-12-21,2021-12-20,一般社団法人高知県を元気にする会,,その他の設立登記法人,高知県,高知市,春野町芳原８２５番地１,,39,201,7810311,,,2021-12-20,清算の結了等,,,2020-01-28,1,,,,,コウチケンヲゲンキニスルカイ,0
1674,7010002025459,登記記録の閉鎖等,0,2021-12-21,2021-12-15,有限会社みうら,,有限会社,東京都,江東区,越中島３丁目１番３号ルネ・ベイグランデ１１０,,13,108,1350044,,,2021-12-15,清算の結了等,,,2015-10-05,1,,,,,ミウラ,0
1691,7010802011179,登記記録の閉鎖等,0,2021-12-21,2021-12-16,有限会社ニュー桃屋,,有限会社,静岡県,沼津市,高島本町１番地５,,22,203,4100055,,,2021-12-16,清算の結了等,,,2015-10-05,1,,,,,ニューモモヤ,0
1696,7010902010790,登記記録の閉鎖等,0,2021-12-21,2021-12-20,有限会社等々力ランドマネージメント,,有限会社,東京都,世田谷区,等々力１丁目２２番３５号,,13,112,1580082,,,2021-12-20,清算の結了等,,,2015-10-05,1,,,,,トドロキランドマネージメント,0
1699,7011001100491,登記記録の閉鎖等,0,2021-12-21,2021-12-16,ＬＩＮＥ　Ｂｏｏｋ　Ｄｉｓｔｒｉｂｕｔｉｏｎ株式会社,,株式会社,東京都,新宿区,四谷１丁目６番１号,,13,104,1600004,,,2021-12-16,清算の結了等,,,2015-10-05,1,,,,,ラインブックディストリビューション,0
1716,7011403001486,登記記録の閉鎖等,0,2021-12-21,2021-12-16,ブルービー合同会社,,合同会社,東京都,板橋区,蓮根２丁目３１番２１－９０６号,,13,119,1740046,,,2021-12-16,清算の結了等,,,2015-10-05,1,,,,,ブルービー,0
1726,7011802002688,登記記録の閉鎖等,0,2021-12-21,2021-12-17,有限会社小泉商店,,有限会社,東京都,葛飾区,鎌倉３丁目６番２号,,13,122,1250053,,,2021-12-17,清算の結了等,,,2015-10-05,1,,,,,コイズミショウテン,0
1731,7012301009712,登記記録の閉鎖等,0,2021-12-21,2021-12-13,株式会社Ｊａｋｏ　Ｗｏｒｌｄ,,株式会社,東京都,町田市,原町田１丁目２４番５号,,13,209,1940013,,,2021-12-13,清算の結了等,,,2015-10-05,1,,,,,ジャコワールド,0
1736,7013201004943,登記記録の閉鎖等,0,2021-12-21,2021-12-08,株式会社平沢コンクリート工業所,,株式会社,東京都,目黒区,中央町２丁目１０番１号,,13,110,1520001,,,2021-12-08,清算の結了等,,,2015-10-05,1,,,,,ヒラサワコンクリートコウギョウショ,0
1753,7020002081187,登記記録の閉鎖等,0,2021-12-21,2021-12-17,有限会社勝栄産業,,有限会社,神奈川県,川崎市幸区,鹿島田１丁目５番１６号,,14,132,2120058,,,2021-12-17,清算の結了等,,,2015-10-05,1,,,,,ショウエイサンギョウ,0
1760,7030001031266,登記記録の閉鎖等,0,2021-12-21,2021-12-10,株式会社鷲宮製作所,,株式会社,埼玉県,久喜市,八甫２丁目２３１番地１,,11,232,3400201,,,2021-12-10,清算の結了等,,,2015-10-05,1,,,,,ワシミヤセイサクショ,0
1783,7040001035737,登記記録の閉鎖等,0,2021-12-21,2021-12-14,株式会社昇晴館,,株式会社,千葉県,松戸市,胡録台１０番地の６,,12,207,2710075,,,2021-12-14,清算の結了等,,,2015-10-05,1,,,,,ショウセイカン,0
1799,7060001007809,登記記録の閉鎖等,0,2021-12-21,2021-12-13,佐藤建設＆環境企画株式会社,,株式会社,栃木県,宇都宮市,岩曽町１３６５－２,,09,201,3210973,,,2021-12-13,清算の結了等,,,2015-10-05,1,,,,,サトウケンセツアンドカンキョウキカク,0
1813,7080003001576,登記記録の閉鎖等,0,2021-12-21,2021-12-16,合同会社共友ケアサポート,,合同会社,静岡県,焼津市,すみれ台１丁目７番１６号,,22,212,4250053,,,2021-12-16,清算の結了等,,,2015-10-05,1,,,,,トモケアサポート,0
1816,7080102011930,登記記録の閉鎖等,0,2021-12-21,2021-12-20,有限会社山中工事部,,有限会社,静岡県,三島市,大場１０８６番地の３５２,,22,206,4110803,,,2021-12-20,清算の結了等,,,2015-10-05,1,,,,,ヤマナカコウジブ,0
1817,7080105002761,登記記録の閉鎖等,0,2021-12-21,2021-12-16,医療法人社団雄大会よねやま耳鼻科医院,,その他の設立登記法人,静岡県,富士市,永田町１丁目１３２番地の１,,22,210,4170055,,,2021-12-16,清算の結了等,,,2015-10-05,1,,,,,ユウダイカイヨネヤマジビカイイン,0
1851,7130002026180,登記記録の閉鎖等,0,2021-12-21,2021-12-17,有限会社大菊工務店,,有限会社,京都府,宇治市,小倉町寺内８１番地の３,,26,204,6110042,,,2021-12-17,清算の結了等,,,2015-10-05,1,,,,,ダイキクコウムテン,0
1854,7140001061806,登記記録の閉鎖等,0,2021-12-21,2021-12-14,道上建設株式会社,,株式会社,兵庫県,姫路市,大津区天満２３２番地の１１,,28,201,6711143,,,2021-12-14,清算の結了等,,,2015-10-05,1,,,,,ミチウエケンセツ,0
1859,7140002008186,登記記録の閉鎖等,0,2021-12-21,2021-12-17,有限会社稲川工作所,,有限会社,兵庫県,神戸市長田区,若松町８丁目１番１３号,,28,106,6530038,,,2021-12-17,清算の結了等,,,2015-10-05,1,,,,,イナガワコウサクショ,0
1860,7140002014325,登記記録の閉鎖等,0,2021-12-21,2021-12-14,有限会社シジャン,,有限会社,兵庫県,神戸市中央区,中山手通１丁目２２番１３号,,28,110,6500004,,,2021-12-14,清算の結了等,,,2015-10-05,1,,,,,シジャン,0
1895,7250002013844,登記記録の閉鎖等,0,2021-12-21,2021-12-16,有限会社ムラタ美尚堂,,有限会社,山口県,長門市,東深川６０１番地の５,,35,211,7594101,,,2021-12-16,清算の結了等,,,2015-10-05,1,,,,,ムラタビショウドウ,0
1896,7260001003358,登記記録の閉鎖等,0,2021-12-21,2021-12-20,株式会社昇運,,株式会社,岡山県,岡山市中区,中納言町６番３０－３０１号,,33,102,7038292,,,2021-12-20,清算の結了等,,,2015-10-05,1,,,,,ショウウン,0
1900,7270002002515,登記記録の閉鎖等,0,2021-12-21,2021-12-17,有限会社村上土建,,有限会社,鳥取県,鳥取市,賀露町西１丁目２９３９番地２,,31,201,6800908,,,2021-12-17,清算の結了等,,,2015-10-05,1,,,,,,0
1908,7290002007355,登記記録の閉鎖等,0,2021-12-21,2021-12-15,有限会社メデイアサービス,,有限会社,福岡県,福岡市城南区,南片江１丁目２２番１８号,,40,136,8140143,,,2021-12-15,清算の結了等,,,2015-10-05,1,,,,,メデイアサービス,0
1911,7290801026068,登記記録の閉鎖等,0,2021-12-21,2021-12-16,株式会社ＩＦ,,株式会社,福岡県,北九州市小倉北区,米町１丁目１番１号小倉駅前ひびきビル６階,,40,106,8020003,,,2021-12-16,清算の結了等,,,2019-11-27,1,,,,,イフ,0
1960,8010001174909,登記記録の閉鎖等,0,2021-12-21,2021-12-13,株式会社けやき弥,,株式会社,東京都,中央区,日本橋３丁目６番１３号,,13,102,1030027,,,2021-12-13,合併による解散等,6013201001900,令和３年１２月１日東京都目黒区八雲三丁目１２番１３号株式会社けやき弥（6013201001900）に合併し解散,2016-04-14,1,,,,,ケヤキヤ,0
1987,8010405016401,登記記録の閉鎖等,0,2021-12-21,2021-12-16,一般社団法人統合福祉持続支援協会,,その他の設立登記法人,東京都,中野区,大和町３丁目１６番８号,,13,114,1650034,,,2021-12-16,清算の結了等,,,2018-01-29,1,,,,,トウゴウフクシジゾクシエンキョウカイ,0
1993,8010601013763,登記記録の閉鎖等,0,2021-12-21,2021-12-13,トーニチライフ株式会社,,株式会社,東京都,墨田区,江東橋５丁目６番１７号,,13,107,1300022,,,2021-12-13,清算の結了等,,,2015-10-05,1,,,,,トーニチライフ,0
1996,8010701019677,登記記録の閉鎖等,0,2021-12-21,2021-12-16,ネイバー株式会社,,株式会社,東京都,新宿区,新宿４丁目１番６号,,13,104,1600022,,,2021-12-16,清算の結了等,,,2015-10-05,1,,,,,ネイバー,0
1997,8010801029650,登記記録の閉鎖等,0,2021-12-21,2021-12-14,株式会社ファインスタンダード,,株式会社,東京都,港区,海岸１丁目２－３汐留芝離宮ビルディング２１階,,13,103,1050022,,,2021-12-14,清算の結了等,,,2019-03-04,1,,,,,ファインスタンダード,0
2085,8060001012130,登記記録の閉鎖等,0,2021-12-21,2021-12-10,株式会社保険センター,,株式会社,栃木県,那須塩原市,二区町４０５番地４８,,09,213,3292733,,,2021-12-10,清算の結了等,,,2015-10-05,1,,,,,ホケンセンター,0
2087,8060001023862,登記記録の閉鎖等,0,2021-12-21,2021-12-16,株式会社ディーエフシー,,株式会社,栃木県,宇都宮市,野沢町６４２番地２６,,09,201,3200071,,,2021-12-16,清算の結了等,,,2015-10-05,1,,,,,,0
2097,8080401010021,登記記録の閉鎖等,0,2021-12-21,2021-12-20,株式会社ビルダーズハウス,,株式会社,静岡県,浜松市南区,安松町６３－７,,22,134,4350034,,,2021-12-20,清算の結了等,,,2015-10-05,1,,,,,ビルダーズハウス,0
2099,8090002007622,登記記録の閉鎖等,0,2021-12-21,2021-12-16,有限会社東條工務店,,有限会社,山梨県,南アルプス市,曲輪田２５６５番地,,19,208,4000311,,,2021-12-16,清算の結了等,,,2015-10-05,1,,,,,トウジョウコウムテン,0
2103,8100002020598,登記記録の閉鎖等,0,2021-12-21,2021-12-17,有限会社滝沢商店,,有限会社,長野県,松本市,大手２丁目７番１６号,,20,202,3900874,,,2021-12-17,清算の結了等,,,2015-10-05,1,,,,,タキザワショウテン,0
2105,8110001025135,登記記録の閉鎖等,0,2021-12-21,2021-12-17,株式会社ハニーインターナショナル,,株式会社,新潟県,見附市,本所１丁目６番４１号,,15,211,9540051,,,2021-12-17,清算の結了等,,,2015-10-05,1,,,,,,0
2106,8110001030267,登記記録の閉鎖等,0,2021-12-21,2021-12-16,株式会社フルブライト保険,,株式会社,新潟県,上越市,大字黒井１８１３番地,,15,222,9420013,,,2021-12-16,清算の結了等,,,2015-10-05,1,,,,,フルブライトホケン,0
2107,8110001035274,登記記録の閉鎖等,0,2021-12-21,2021-12-15,株式会社シド,,株式会社,新潟県,新発田市,佐々木１３２番地甲,,15,206,9570082,,,2021-12-15,清算の結了等,,,2020-11-05,1,,,,,シド,0
2136,8140001101940,登記記録の閉鎖等,0,2021-12-21,2021-12-17,イーエスアール株式会社,,株式会社,東京都,板橋区,西台１丁目１番１４号,,13,119,1740045,,,2021-12-17,清算の結了等,,,2016-05-11,1,,,,,イーエスアール,0
2140,8140002051516,登記記録の閉鎖等,0,2021-12-21,2021-12-16,有限会社吉田屋,,有限会社,兵庫県,姫路市,飾磨区妻鹿１３９２番地の４５,,28,201,6728031,,,2021-12-16,清算の結了等,,,2015-10-05,1,,,,,ヨシダヤ,0
2144,8160001005116,登記記録の閉鎖等,0,2021-12-21,2021-12-17,三栄商事株式会社,,株式会社,滋賀県,甲賀市,土山町鮎河１１０９番地,,25,209,5280202,,,2021-12-17,清算の結了等,,,2015-10-05,1,,,,,サンエイショウジ,0
2157,8220002005760,登記記録の閉鎖等,0,2021-12-21,2021-12-16,有限会社宮兆,,有限会社,石川県,金沢市,田上本町３丁目２９番地１,,17,201,9201155,,,2021-12-16,清算の結了等,,,2015-10-05,1,,,,,ミヤチョウ,0
2164,8240005011127,登記記録の閉鎖等,0,2021-12-21,2021-12-16,因島石切宮,,その他の設立登記法人,広島県,尾道市,因島外浦町字宮ノ谷６７番地の１,,34,205,7222213,,,2021-12-16,清算の結了等,,,2015-10-05,1,,,,,インノシマイシキリグウ,0
2177,8300003001239,登記記録の閉鎖等,0,2021-12-21,2021-12-13,合同会社青宙,,合同会社,佐賀県,佐賀市,本庄町大字袋２４４番地１,,41,201,8400023,,,2021-12-13,清算の結了等,,,2016-12-21,1,,,,,アオヒロ,0
2197,8380005011435,登記記録の閉鎖等,0,2021-12-21,2021-12-16,ＮＰＯ法人福島の子どもたちを守る保養プロジェクト,,その他の設立登記法人,福島県,福島市,郷野目字仲４６－１,,07,201,9608161,,,2021-12-16,清算の結了等,,,2015-10-05,1,,,,,フクシマノコドモタチヲマモルホヨウプロジェクト,0
2203,8430001029293,登記記録の閉鎖等,0,2021-12-21,2021-12-20,株式会社ユニット,,株式会社,北海道,札幌市中央区,北六条西１９丁目２２番地１３,,01,101,0600006,,,2021-12-20,清算の結了等,,,2015-10-05,1,,,,,ユニット,0
2204,8430001048351,登記記録の閉鎖等,0,2021-12-21,2021-12-20,株式会社ジャパン・コルディアル・ホームズ,,株式会社,北海道,滝川市,北滝の川１３７８番地６,,01,225,0730001,,,2021-12-20,清算の結了等,,,2015-10-05,1,,,,,ジャパンコルディアルホームズ,0
2206,8430002066393,登記記録の閉鎖等,0,2021-12-21,2021-12-15,有限会社ありあんぬ,,有限会社,北海道,札幌市北区,あいの里三条７丁目１２番１号,,01,102,0028073,,,2021-12-15,清算の結了等,,,2015-10-05,1,,,,,アリアンヌ,0
2209,8440001005137,登記記録の閉鎖等,0,2021-12-21,2021-12-16,株式会社高久,,株式会社,北海道,函館市,陣川町１２２番地１７８,,01,202,0410833,,,2021-12-16,清算の結了等,,,2015-10-05,1,,,,,コウキュウ,0
2216,8480001004060,登記記録の閉鎖等,0,2021-12-21,2021-12-17,株式会社岩見農園,,株式会社,徳島県,徳島市,渋野町三ツ岩８０番地,,36,201,7714267,,,2021-12-17,清算の結了等,,,2015-10-05,1,,,,,イワミノウエン,0
2227,8700150101726,削除,,2021-12-21,,,,,,,,,,,,,,,,,,,,,,,,,
2229,9010001038971,登記記録の閉鎖等,0,2021-12-21,2021-12-16,株式会社英晃,,株式会社,東京都,新宿区,矢来町１０７番地,,13,104,1620805,,,2021-12-16,清算の結了等,,,2015-10-05,1,,,,,,0
2248,9010401121344,登記記録の閉鎖等,0,2021-12-21,2021-12-13,株式会社ｉｍｐａｃｔ,,株式会社,東京都,港区,南麻布４丁目４番１０－１１７号,,13,103,1060047,,,2021-12-13,清算の結了等,,,2015-11-02,1,,,,,インパクト,0
2249,9010401128059,登記記録の閉鎖等,0,2021-12-21,2021-12-16,ＳＢＩ　ＶＣトレード株式会社,,株式会社,東京都,港区,六本木１丁目６番１号,,13,103,1060032,,,2021-12-16,合併による解散等,8011001116594,令和３年１２月１日東京都港区六本木一丁目６番１号ＳＢＩ　ＶＣトレード株式会社（8011001116594）に合併し解散,2016-11-08,1,,,,,エスビーアイブイシートレード,0
2263,9010605003041,登記記録の閉鎖等,0,2021-12-21,2021-12-13,一般社団法人東京都スポーツ福祉協会,,その他の設立登記法人,東京都,江東区,亀戸２丁目６番３０号４１０号室,,13,108,1360071,,,2021-12-13,清算の結了等,,,2015-10-05,1,,,,,トウキョウトスポーツフクシキョウカイ,0
2265,9010802000700,登記記録の閉鎖等,0,2021-12-21,2021-12-15,有限会社アネックス,,有限会社,東京都,大田区,大森西１丁目１５番１４号,,13,111,1430015,,,2021-12-15,清算の結了等,,,2015-10-05,1,,,,,アネックス,0
2269,9011001055643,登記記録の閉鎖等,0,2021-12-21,2021-12-15,プラスビー株式会社,,株式会社,東京都,江東区,東陽１丁目２８番４号,,13,108,1350016,,,2021-12-15,清算の結了等,,,2015-10-05,1,,,,,プラスビー,0
2283,9011701006235,登記記録の閉鎖等,0,2021-12-21,2021-12-16,株式会社日昭技研,,株式会社,東京都,江戸川区,平井５丁目２０番１０号,,13,123,1320035,,,2021-12-16,清算の結了等,,,2015-10-05,1,,,,,ニッショウギケン,0
2297,9020002000665,登記記録の閉鎖等,0,2021-12-21,2021-12-16,有限会社古城,,有限会社,神奈川県,横浜市栄区,野七里１丁目１３番２３号,,14,115,2470024,,,2021-12-16,清算の結了等,,,2015-10-05,1,,,,,コギ,0
2306,9021001053200,登記記録の閉鎖等,0,2021-12-21,2021-12-16,三森交易株式会社,,株式会社,神奈川県,相模原市中央区,高根１丁目２番１７号,,14,152,2520221,,,2021-12-16,清算の結了等,,,2015-10-05,1,,,,,サンモリコウエキ,0
2312,9021002013590,登記記録の閉鎖等,0,2021-12-21,2021-12-20,有限会社ハッピーライフ湘南,,有限会社,神奈川県,茅ヶ崎市,矢畑１３２１番地２,,14,207,2530085,,,2021-12-20,清算の結了等,,,2015-10-05,1,,,,,ハッピーライフショウナン,0
2319,9030001076433,登記記録の閉鎖等,0,2021-12-21,2021-12-16,株式会社ナガサキ,,株式会社,東京都,新宿区,払方町９番地１１ジオ市ヶ谷払方町彩の館Ｓ５０５,,13,104,1620841,,,2021-12-16,清算の結了等,,,2015-10-05,1,,,,,,0
2381,9120002016296,登記記録の閉鎖等,0,2021-12-21,2021-12-14,有限会社関西基礎調査,,有限会社,大阪府,大阪市住之江区,新北島４丁目１番１－１２１１号,,27,125,5590024,,,2021-12-14,清算の結了等,,,2015-10-05,1,,,,,,0
2405,9150001012236,登記記録の閉鎖等,0,2021-12-21,2021-12-17,株式会社小さな幸せ,,株式会社,奈良県,奈良市,秋篠町１５４３番地,,29,201,6310811,,,2021-12-17,清算の結了等,,,2015-10-05,1,,,,,チイサナシアワセ,0
2407,9160001004018,登記記録の閉鎖等,0,2021-12-21,2021-12-20,株式会社ハウスクリエイト,,株式会社,滋賀県,大津市,真野４丁目２１番３４号２０５号,,25,201,5200232,,,2021-12-20,清算の結了等,,,2015-10-05,1,,,,,ハウスクリエイト,0
2420,9180302006504,登記記録の閉鎖等,0,2021-12-21,2021-12-17,有限会社岩田ショッピングセンター,,有限会社,愛知県,豊橋市,西岩田２丁目１番地６,,23,201,4400831,,,2021-12-17,清算の結了等,,,2015-10-05,1,,,,,イワタショッピングセンター,0
2423,9200001017320,登記記録の閉鎖等,0,2021-12-21,2021-12-20,株式会社ヤマセン商会,,株式会社,岐阜県,美濃加茂市,太田本町３丁目３番３７号,,21,211,5050042,,,2021-12-20,清算の結了等,,,2015-10-05,1,,,,,,0
2430,9240002034550,登記記録の閉鎖等,0,2021-12-21,2021-12-17,有限会社ワイズ・コーポレーション,,有限会社,広島県,呉市,本町３番１８号,,34,202,7370032,,,2021-12-17,清算の結了等,,,2015-10-05,1,,,,,ワイズコーポレーション,0
2431,9240005011126,登記記録の閉鎖等,0,2021-12-21,2021-12-16,古義神道,,その他の設立登記法人,広島県,尾道市,因島外浦町字宮ノ谷６９番地,,34,205,7222213,,,2021-12-16,清算の結了等,,,2015-10-05,1,,,,,コギシントウ,0
2440,9260002017652,登記記録の閉鎖等,0,2021-12-21,2021-12-17,有限会社共丸ソーイング,,有限会社,岡山県,倉敷市,児島唐琴３丁目８番４０号,,33,202,7110904,,,2021-12-17,清算の結了等,,,2015-10-05,1,,,,,キョウマルソーイング,0
2455,9340005001967,登記記録の閉鎖等,0,2021-12-21,2021-12-17,特定非営利活動法人地球環境フォーラム鹿児島,,その他の設立登記法人,鹿児島県,鹿児島市,山田町３４６２番地,,46,201,8910104,,,2021-12-17,清算の結了等,,,2015-10-05,1,,,,,チキュウカンキョウフォーラムカゴシマ,0
2473,9400002007572,登記記録の閉鎖等,0,2021-12-21,2021-12-20,有限会社西根ブロック工業,,有限会社,岩手県,八幡平市,田頭第３９地割８１番地の１０,,03,214,0287112,,,2021-12-20,清算の結了等,,,2015-10-05,1,,,,,ニシネブロックコウギョウ,0
