sequenceNumber,corporateNumber,process,correct,updateDate,changeDate,name,nameImageId,kind,prefectureName,cityName,streetNumber,addressImageId,prefectureCode,cityCode,postCode,addressOutside,addressOutsideImageId,closeDate,closeCause,successorCorporateNumber,changeCause,assignmentDate,latest,enName,enPrefectureName,enCityName,enAddressOutside,furigana,hihyoji
16,1010401058916,登記記録の閉鎖等,0,2021-08-24,2021-08-10,アンビシャス株式会社,,株式会社,東京都,港区,六本木５丁目１５番２１号,,13,103,1060032,,,2021-08-10,清算の結了等,,,2015-10-05,1,,,,,アンビシャス,0
21,1010601032885,登記記録の閉鎖等,0,2021-08-24,2021-08-05,株式会社きくのや,,株式会社,東京都,墨田区,吾妻橋１丁目２３番３０－５０１号,,13,107,1300001,,,2021-08-05,清算の結了等,,,2015-10-05,1,,,,,キクノヤ,0
27,1011001043696,登記記録の閉鎖等,0,2021-08-24,2021-08-02,株式会社ノーウェア,,株式会社,東京都,渋谷区,千駄ヶ谷４丁目２２番３号,,13,113,1510051,,,2021-08-02,合併による解散等,9011001138877,令和３年８月１日東京都渋谷区千駄ケ谷四丁目２２番３号ＢＡＰＥジャパン・インベストメント株式会社（9011001138877）に合併し解散,2015-10-05,1,,,,,,0
29,1011001102279,登記記録の閉鎖等,0,2021-08-24,2021-08-17,株式会社ボイス,,株式会社,東京都,渋谷区,千駄ヶ谷５丁目１－３千駄ヶ谷パークマンション２０１号室,,13,113,1510051,,,2021-08-17,合併による解散等,3010501030368,令和３年８月１日東京都台東区小島二丁目２０番１１号株式会社ＬＩＧ（3010501030368）に合併し解散,2015-10-05,1,,,,,ボイス,0
47,1011101084566,登記記録の閉鎖等,0,2021-08-24,2021-08-06,株式会社クリプタド,,株式会社,東京都,新宿区,西新宿２丁目６番１号新宿住友ビル,,13,104,1600023,,,2021-08-06,清算の結了等,,,2018-06-22,1,,,,,クリプタド,0
74,1020002030496,登記記録の閉鎖等,0,2021-08-24,2021-08-13,有限会社セブンエース,,有限会社,神奈川県,横浜市南区,南吉田町２丁目２８番地１号の６１１,,14,105,2320012,,,2021-08-13,清算の結了等,,,2015-10-05,1,,,,,セブンエース,0
79,1021001032302,登記記録の閉鎖等,0,2021-08-24,2021-08-18,株式会社いすゞ物産,,株式会社,神奈川県,小田原市,栄町３丁目１４番１２号,,14,206,2500011,,,2021-08-18,清算の結了等,,,2015-10-05,1,,,,,イスズブッサン,0
99,1040001064717,登記記録の閉鎖等,0,2021-08-24,2021-08-12,株式会社もくりん舎,,株式会社,千葉県,佐倉市,岩富８７５番地,,12,212,2850071,,,2021-08-12,清算の結了等,,,2015-10-05,1,,,,,モクリンシャ,0
120,1110001027451,登記記録の閉鎖等,0,2021-08-24,2021-08-23,株式会社レジェンド,,株式会社,新潟県,上越市,栄町１丁目７番３４号,,15,222,9420072,,,2021-08-23,清算の結了等,,,2015-10-05,1,,,,,レジェンド,0
157,1170001011078,登記記録の閉鎖等,0,2021-08-24,2021-08-20,マツオ家具販売株式会社,,株式会社,和歌山県,橋本市,高野口町名古曽１０６７番地の１２,,30,203,6497203,,,2021-08-20,清算の結了等,,,2015-10-05,1,,,,,マツオカグハンバイ,0
183,1230005007306,登記記録の閉鎖等,0,2021-08-24,2021-08-19,浄願寺,,その他の設立登記法人,富山県,射水市,本江１８７７番地,,16,211,9330244,,,2021-08-19,清算の結了等,,,2015-10-05,1,,,,,ジョウガンジ,0
189,1260001026307,登記記録の閉鎖等,0,2021-08-24,2021-08-20,株式会社岡山西アグリサポート,,株式会社,岡山県,倉敷市,加須山３００番地,,33,202,7100026,,,2021-08-20,清算の結了等,,,2015-10-05,1,,,,,オカヤマニシアグリサポート,0
211,1330001000923,登記記録の閉鎖等,0,2021-08-24,2021-08-19,キツチンハウス熊本株式会社,,株式会社,熊本県,熊本市中央区,保田窪２丁目４番３６号,,43,101,8620926,,,2021-08-19,清算の結了等,,,2015-10-05,1,,,,,キツチンハウスクマモト,0
223,1370001006231,登記記録の閉鎖等,0,2021-08-24,2021-08-11,株式会社宮木協,,株式会社,宮城県,仙台市宮城野区,苦竹２丁目７番３０号,,04,102,9830036,,,2021-08-11,清算の結了等,,,2015-10-05,1,,,,,ミヤモッキョウ,0
233,1430002038829,登記記録の閉鎖等,0,2021-08-24,2021-08-12,有限会社共立産業,,有限会社,北海道,札幌市南区,川沿六条４丁目１番２４号,,01,106,0050806,,,2021-08-12,清算の結了等,,,2015-10-05,1,,,,,キョウリツサンギョウ,0
243,1700150017805,登記記録の閉鎖等,0,2021-08-24,2021-03-31,加須市地域雇用創造協議会,,その他,埼玉県,加須市,諏訪２丁目３－１福田ビル２階Ｅ,,11,210,3470061,,,2021-03-31,その他の清算の結了等,,,2015-10-09,1,,,,,カゾシチイキコヨウソウゾウキヨウギカイ,0
244,1700150032837,削除,,2021-08-24,,,,,,,,,,,,,,,,,,,,,,,,,
245,1700150032845,削除,,2021-08-24,,,,,,,,,,,,,,,,,,,,,,,,,
246,1700150032853,削除,,2021-08-24,,,,,,,,,,,,,,,,,,,,,,,,,
247,1700150032861,削除,,2021-08-24,,,,,,,,,,,,,,,,,,,,,,,,,
248,1700150039023,登記記録の閉鎖等,0,2021-08-24,2021-03-31,羽後町土地改良区,,その他,秋田県,雄勝郡羽後町,西馬音内字中野１７７,,05,463,0121131,,,2021-03-31,その他の清算の結了等,,,2015-10-09,1,,,,,ウゴマチトチカイリヨウク,0
255,2010001156227,登記記録の閉鎖等,0,2021-08-24,2021-08-10,株式会社ぱるぱる,,株式会社,埼玉県,戸田市,大字新曽１５７キャッスルマンション戸田３０３号,,11,224,3350021,,,2021-08-10,清算の結了等,,,2015-10-05,1,,,,,パルパル,0
277,2010403018487,登記記録の閉鎖等,0,2021-08-24,2021-08-06,Ｗｉｓｔｅｒｉａ合同会社,,合同会社,東京都,港区,白金１丁目２７番６号,,13,103,1080072,,,2021-08-06,清算の結了等,,,2018-04-26,1,,,,,ウィステリア,0
278,2010405002679,登記記録の閉鎖等,0,2021-08-24,2021-08-10,医療法人社団小川耳鼻咽喉科医院,,その他の設立登記法人,東京都,港区,虎ノ門５丁目１１番２号オランダヒルズ森タワー２階,,13,103,1050001,,,2021-08-10,清算の結了等,,,2015-10-05,1,,,,,オガワジビインコウカイイン,0
303,2011003006535,登記記録の閉鎖等,0,2021-08-24,2021-08-05,トリプルエイト合同会社,,合同会社,東京都,渋谷区,代官山町２０番９号,,13,113,1500034,,,2021-08-05,清算の結了等,,,2016-01-26,1,,,,,トリプルエイト,0
306,2011101009076,登記記録の閉鎖等,0,2021-08-24,2021-08-06,株式会社シネ・ジャーナルプロダクション,,株式会社,東京都,新宿区,富久町１１番５号,,13,104,1620067,,,2021-08-06,清算の結了等,,,2015-10-05,1,,,,,,0
345,2030001103565,登記記録の閉鎖等,0,2021-08-24,2021-08-13,株式会社アイ・プラニング,,株式会社,埼玉県,所沢市,小手指南６丁目４番地の１０,,11,208,3591146,,,2021-08-13,清算の結了等,,,2015-10-05,1,,,,,アイプラニング,0
361,2050002009693,登記記録の閉鎖等,0,2021-08-24,2021-08-13,有限会社グリーンベル,,有限会社,茨城県,ひたちなか市,柳が丘７番地１１,,08,221,3111232,,,2021-08-13,清算の結了等,,,2015-10-05,1,,,,,,0
371,2070002011111,登記記録の閉鎖等,0,2021-08-24,2021-08-17,有限会社てらこや,,有限会社,群馬県,みどり市,大間々町高津戸７７１番地４,,10,212,3760113,,,2021-08-17,清算の結了等,,,2015-10-05,1,,,,,テラコヤ,0
372,2080001001335,登記記録の閉鎖等,0,2021-08-24,2021-08-20,株式会社車や,,株式会社,静岡県,静岡市葵区,常磐町２丁目２番地の１６,,22,101,4200034,,,2021-08-20,清算の結了等,,,2015-10-05,1,,,,,クルマヤ,0
379,2100005007714,登記記録の閉鎖等,0,2021-08-24,2021-08-20,農事組合法人開田高原サンベリー農園,,その他の設立登記法人,長野県,木曽郡木曽町,開田高原西野６３２２番地５１,,20,432,3970302,,,2021-08-20,清算の結了等,,,2015-10-05,1,,,,,カイダコウゲンサンベリーノウエン,0
381,2110002007369,登記記録の閉鎖等,0,2021-08-24,2021-08-20,有限会社ハイブリッドサービス,,有限会社,新潟県,新潟市中央区,女池８丁目９番１号,,15,103,9500941,,,2021-08-20,清算の結了等,,,2015-10-05,1,,,,,ハイブリッドサービス,0
413,2130005007513,登記記録の閉鎖等,0,2021-08-24,2021-08-19,医療法人社団吉田小児科内科医院,00038687,その他の設立登記法人,京都府,南丹市,園部町上木崎町寺ノ下２７番地の８,,26,213,6220011,,,2021-08-19,清算の結了等,,,2015-10-05,1,,,,,ヨシダショウニカナイカイイン,0
495,2370001041954,登記記録の閉鎖等,0,2021-08-24,2021-08-12,株式会社エステートワイキキ,,株式会社,宮城県,仙台市宮城野区,福室２丁目８番１７号福室マンション３１４号,,04,102,9830005,,,2021-08-12,清算の結了等,,,2017-08-16,1,,,,,エステートワイキキ,0
517,2460101001361,登記記録の閉鎖等,0,2021-08-24,2021-08-20,株式会社ノースモダンアソシエイション,,株式会社,北海道,河東郡音更町,木野大通西１５丁目２番地,,01,631,0800301,,,2021-08-20,清算の結了等,,,2015-10-05,1,,,,,ノースモダンアソシエイション,0
530,2700150032778,削除,,2021-08-24,,,,,,,,,,,,,,,,,,,,,,,,,
531,2700150032836,削除,,2021-08-24,,,,,,,,,,,,,,,,,,,,,,,,,
532,2700150032844,削除,,2021-08-24,,,,,,,,,,,,,,,,,,,,,,,,,
533,2700150032852,削除,,2021-08-24,,,,,,,,,,,,,,,,,,,,,,,,,
534,2700150032860,削除,,2021-08-24,,,,,,,,,,,,,,,,,,,,,,,,,
535,2700150032885,削除,,2021-08-24,,,,,,,,,,,,,,,,,,,,,,,,,
536,2700150073558,登記記録の閉鎖等,0,2021-08-24,2021-01-26,埼玉県神社庁,,その他,埼玉県,さいたま市大宮区,高鼻町１丁目４４７－１,,11,103,3300803,,,2021-01-26,その他の清算の結了等,,,2016-05-26,1,,,,,サイタマケンジンジヤチヨウ,0
550,3010003030585,登記記録の閉鎖等,0,2021-08-24,2021-08-20,秋葉原プロパティー合同会社,,合同会社,東京都,千代田区,丸の内１丁目１１番１号,,13,101,1000005,,,2021-08-20,清算の結了等,,,2019-09-10,1,,,,,アキハバラプロパティー,0
566,3010502016746,登記記録の閉鎖等,0,2021-08-24,2021-08-17,有限会社ワールドワイズ,,有限会社,東京都,台東区,浅草橋５丁目２番３号鈴和ビル２Ｆ,,13,106,1110053,,,2021-08-17,清算の結了等,,,2015-10-05,1,,,,,ワールドワイズ,0
594,3020001033606,登記記録の閉鎖等,0,2021-08-24,2021-08-17,株式会社ベストブレーン,,株式会社,神奈川県,横浜市中区,千歳町１番１１マンション長者町９０２号室,,14,104,2310035,,,2021-08-17,清算の結了等,,,2015-10-05,1,,,,,ベストブレーン,0
605,3020002052373,登記記録の閉鎖等,0,2021-08-24,2021-08-17,有限会社デルフ美容室,,有限会社,神奈川県,横浜市都筑区,仲町台１丁目１４番２０号ウィスタリア１０２号,,14,118,2240041,,,2021-08-17,清算の結了等,,,2015-10-05,1,,,,,デルフビヨウシツ,0
615,3030001002898,登記記録の閉鎖等,0,2021-08-24,2021-08-10,ワールド・ウイング株式会社,,株式会社,埼玉県,さいたま市見沼区,大字南中野４５２番地１２,,11,104,3370042,,,2021-08-10,清算の結了等,,,2015-10-05,1,,,,,ワールドウイング,0
620,3030001120295,登記記録の閉鎖等,0,2021-08-24,2021-08-11,株式会社Ｅ－ＺＥ,,株式会社,埼玉県,越谷市,赤山町３丁目２１０番地１,,11,222,3430807,,,2021-08-11,清算の結了等,,,2017-05-16,1,,,,,イーゼ,0
632,3030005017389,登記記録の閉鎖等,0,2021-08-24,2021-08-12,一般社団法人高麗１３００,,その他の設立登記法人,埼玉県,日高市,大字新堀８５５番地３,,11,242,3501243,,,2021-08-12,清算の結了等,,,2015-10-05,1,,,,,コマ,0
642,3040005017058,登記記録の閉鎖等,0,2021-08-24,2021-08-11,一般社団法人柏の葉カレッジリンク・ネットワーク,,その他の設立登記法人,千葉県,柏市,柏の葉６丁目２番１号,,12,217,2770882,,,2021-08-11,清算の結了等,,,2015-10-05,1,,,,,カシワノハカレッジリンクネットワーク,0
656,3080403003746,登記記録の閉鎖等,0,2021-08-24,2021-08-23,合同会社はっぴい．まいんど,,合同会社,静岡県,袋井市,堀越５丁目６番地の６,,22,216,4370065,,,2021-08-23,清算の結了等,,,2018-11-05,1,,,,,ハッピイマインド,0
680,3120902011410,登記記録の閉鎖等,0,2021-08-24,2021-08-10,有限会社ミノル,,有限会社,大阪府,高槻市,八丁畷町８番２１号,,27,207,5690096,,,2021-08-10,清算の結了等,,,2015-10-05,1,,,,,ミノル,0
681,3120905004403,登記記録の閉鎖等,0,2021-08-24,2021-08-20,特定非営利活動法人千里・住まいの学校,,その他の設立登記法人,大阪府,豊中市,新千里東町３丁目６－１１１,,27,203,5600082,,,2021-08-20,清算の結了等,,,2015-10-05,1,,,,,センリスマイノガッコウ,0
686,3130001046209,登記記録の閉鎖等,0,2021-08-24,2021-08-19,株式会社十徳,,株式会社,京都府,八幡市,橋本意足１５番地１１,,26,210,6148331,,,2021-08-19,清算の結了等,,,2015-10-05,1,,,,,ジュットク,0
700,3170001010887,登記記録の閉鎖等,0,2021-08-24,2021-08-20,株式会社平岡組,,株式会社,和歌山県,伊都郡かつらぎ町,大字妙寺９３番地の６,,30,341,6497113,,,2021-08-20,清算の結了等,,,2015-10-05,1,,,,,ヒラオカグミ,0
717,3180005014165,登記記録の閉鎖等,0,2021-08-24,2021-08-18,司法書士法人赤野事務所,,その他の設立登記法人,愛知県,丹羽郡扶桑町,大字高木字白山前６０５番地,,23,362,4800107,,,2021-08-18,清算の結了等,,,2015-10-05,1,,,,,アカノジムショ,0
719,3180301009744,登記記録の閉鎖等,0,2021-08-24,2021-08-20,伊藤商事株式会社,,株式会社,愛知県,豊川市,久保町社地１０番地,,23,207,4420856,,,2021-08-20,清算の結了等,,,2015-10-05,1,,,,,イトウショウジ,0
760,3360005000196,登記記録の閉鎖等,0,2021-08-24,2021-08-13,一般財団法人沖縄県墓地公園管理協会,,その他の設立登記法人,沖縄県,那覇市,繁多川２丁目１７番５号,,47,201,9020071,,,2021-08-13,清算の結了等,,,2015-10-05,1,,,,,オキナワケンボチコウエンカンリキョウカイ,0
772,3380002031143,登記記録の閉鎖等,0,2021-08-24,2021-08-19,有限会社石善,,有限会社,福島県,会津若松市,大町２丁目７番３号,,07,202,9650042,,,2021-08-19,清算の結了等,,,2015-10-05,1,,,,,イシゼン,0
793,3700150009817,登記記録の閉鎖等,0,2021-08-24,2021-03-22,情報通信設備厚生年金基金,,その他,東京都,豊島区,巣鴨１丁目２４－１２アーバンポイント巣鴨３階,,13,116,1700002,,,2021-03-22,その他の清算の結了等,,,2015-10-09,1,,,,,ジヨウホウツウシンセツビコウセイネンキンキキン,0
794,3700150032835,削除,,2021-08-24,,,,,,,,,,,,,,,,,,,,,,,,,
795,3700150032843,削除,,2021-08-24,,,,,,,,,,,,,,,,,,,,,,,,,
796,3700150032851,削除,,2021-08-24,,,,,,,,,,,,,,,,,,,,,,,,,
797,3700150058087,登記記録の閉鎖等,0,2021-08-24,2021-05-20,日本旅館協会四国支部連合会高知駅宿泊案内所,,その他,高知県,高知市,北本町２丁目１０番１７号,,39,201,7800056,,,2021-05-20,その他の清算の結了等,,,2015-10-09,1,,,,,ニホンリヨカンキヨウカイシコクシブレンゴウカイコウチエキシユクハクアンナイシヨ,0
798,4010001066399,登記記録の閉鎖等,0,2021-08-24,2021-08-20,株式会社かのこ,,株式会社,東京都,中央区,東日本橋３丁目６番６号,,13,102,1030004,,,2021-08-20,清算の結了等,,,2015-10-05,1,,,,,カノコ,0
843,4011003006616,登記記録の閉鎖等,0,2021-08-24,2021-08-05,アモール合同会社,,合同会社,東京都,渋谷区,代官山町２０番９号,,13,113,1500034,,,2021-08-05,清算の結了等,,,2016-03-01,1,,,,,アモール,0
850,4011402007000,登記記録の閉鎖等,0,2021-08-24,2021-08-19,有限会社フィックス,,有限会社,東京都,板橋区,仲町４５番４号,,13,119,1730022,,,2021-08-19,清算の結了等,,,2015-10-05,1,,,,,フィックス,0
854,4011605001254,登記記録の閉鎖等,0,2021-08-24,2021-08-23,特定非営利活動法人ＮＰＯこどもクラブ赤とんぼ,,その他の設立登記法人,東京都,練馬区,平和台３丁目２２番１１号,,13,120,1790083,,,2021-08-23,清算の結了等,,,2015-10-05,1,,,,,エヌピーオーコドモクラブアカトンボ,0
866,4012801017861,登記記録の閉鎖等,0,2021-08-24,2021-08-16,株式会社Ｇｏｏｄ　Ｓｍｉｌｅ,,株式会社,東京都,国分寺市,西恋ヶ窪２丁目１６番地１,,13,214,1850013,,,2021-08-16,清算の結了等,,,2017-03-21,1,,,,,グッドスマイル,0
874,4020001059749,登記記録の閉鎖等,0,2021-08-24,2021-08-16,株式会社タオ,,株式会社,神奈川県,横浜市戸塚区,川上町８７番地１,,14,110,2440805,,,2021-08-16,清算の結了等,,,2015-10-05,1,,,,,タオ,0
899,4040001072139,登記記録の閉鎖等,0,2021-08-24,2021-08-13,株式会社エーアイ,,株式会社,千葉県,野田市,山崎１７５４番地７,,12,208,2780022,,,2021-08-13,清算の結了等,,,2015-10-05,1,,,,,エーアイ,0
902,4050001028115,登記記録の閉鎖等,0,2021-08-24,2021-08-19,手賀重機株式会社,,株式会社,茨城県,牛久市,田宮２丁目４５番地６,,08,219,3001237,,,2021-08-19,清算の結了等,,,2015-10-05,1,,,,,テガジュウキ,0
903,4050002020244,登記記録の閉鎖等,0,2021-08-24,2021-08-18,有限会社ラジオヤ,,有限会社,茨城県,坂東市,長須２１２８番地の２,,08,228,3060645,,,2021-08-18,清算の結了等,,,2015-10-05,1,,,,,ラジオヤ,0
910,4080402015799,登記記録の閉鎖等,0,2021-08-24,2021-08-23,環境開発有限会社,,有限会社,静岡県,浜松市北区,細江町気賀４１４８番地の１１,,22,135,4311305,,,2021-08-23,清算の結了等,,,2015-10-05,1,,,,,カンキョウカイハツ,0
927,4120002072146,登記記録の閉鎖等,0,2021-08-24,2021-08-17,有限会社アイ・ビィ・エス,,有限会社,大阪府,寝屋川市,香里本通町１９番２７号,,27,215,5720082,,,2021-08-17,清算の結了等,,,2015-10-05,1,,,,,アイビィエス,0
928,4120101020807,登記記録の閉鎖等,0,2021-08-24,2021-08-23,株式会社トラスト・マネージメント・オフィス,,株式会社,大阪府,堺市西区,上６４７番地１,,27,144,5938311,,,2021-08-23,清算の結了等,,,2015-10-05,1,,,,,トラストマネージメントオフィス,0
948,4140001036538,登記記録の閉鎖等,0,2021-08-24,2021-08-23,株式会社なにわ食品,,株式会社,兵庫県,三木市,別所町小林６８１番地の６,,28,215,6730434,,,2021-08-23,清算の結了等,,,2015-10-05,1,,,,,,0
962,4180001062035,登記記録の閉鎖等,0,2021-08-24,2021-08-19,ケイ・スピニングプラン株式会社,,株式会社,愛知県,名古屋市東区,大幸１丁目１０番５４号,,23,102,4610043,,,2021-08-19,清算の結了等,,,2015-10-05,1,,,,,ケイスピニングプラン,0
973,4220001012670,登記記録の閉鎖等,0,2021-08-24,2021-08-17,株式会社祥山,,株式会社,石川県,能美市,寺井町ウ１４番地,,17,211,9231121,,,2021-08-17,清算の結了等,,,2015-10-05,1,,,,,ショウザン,0
974,4220001015129,登記記録の閉鎖等,0,2021-08-24,2021-08-17,ＭＣ企画株式会社,,株式会社,石川県,白山市,相木町１１６番地３,,17,210,9240022,,,2021-08-17,清算の結了等,,,2015-10-05,1,,,,,エムシーキカク,0
983,4240001052640,登記記録の閉鎖等,0,2021-08-24,2021-08-05,スポーツファンベース株式会社,,株式会社,広島県,広島市南区,荒神町１番８号赤ヘルツインⅡ１階,00113035,34,103,7320807,,,2021-08-05,清算の結了等,,,2018-04-09,1,,,,,,0
992,4260001032450,登記記録の閉鎖等,0,2021-08-24,2021-08-23,株式会社もてらす,,株式会社,岡山県,倉敷市,新倉敷駅前３丁目１６０番地,,33,202,7100253,,,2021-08-23,清算の結了等,,,2018-10-02,1,,,,,モテラス,0
1014,4320002014846,登記記録の閉鎖等,0,2021-08-24,2021-08-20,有限会社グリーンヒルズ,,有限会社,大分県,豊後高田市,水崎９０７番地の１,,44,209,8790616,,,2021-08-20,清算の結了等,,,2015-10-05,1,,,,,グリーンヒルズ,0
1022,4370002003555,登記記録の閉鎖等,0,2021-08-24,2021-08-10,有限会社中田ゴルフガーデン,,有限会社,宮城県,仙台市太白区,中田７丁目４番３号,,04,104,9811104,,,2021-08-10,清算の結了等,,,2015-10-05,1,,,,,ナカダゴルフガーデン,0
1023,4380002007010,登記記録の閉鎖等,0,2021-08-24,2021-08-18,有限会社エムテック,,有限会社,福島県,福島市,瀬上町字御蔵場１番地の７３,,07,201,9600101,,,2021-08-18,清算の結了等,,,2015-10-05,1,,,,,エムテック,0
1025,4380002015293,登記記録の閉鎖等,0,2021-08-24,2021-08-18,有限会社永二橋元勝藏商店,,有限会社,福島県,田村郡三春町,字大町３３番地,,07,521,9637759,,,2021-08-18,清算の結了等,,,2015-10-05,1,,,,,ナガニハシモトカツゾウショウテン,0
1031,4400002012965,登記記録の閉鎖等,0,2021-08-24,2021-08-20,有限会社二幸商事,,有限会社,岩手県,久慈市,川貫第６地割４６番地１４,,03,207,0280082,,,2021-08-20,清算の結了等,,,2015-10-05,1,,,,,ニコウショウジ,0
1049,4700150032842,削除,,2021-08-24,,,,,,,,,,,,,,,,,,,,,,,,,
1050,4700150032850,削除,,2021-08-24,,,,,,,,,,,,,,,,,,,,,,,,,
1051,4700150032859,削除,,2021-08-24,,,,,,,,,,,,,,,,,,,,,,,,,
1052,4700150039020,登記記録の閉鎖等,0,2021-08-24,2021-03-31,湯沢市中央土地改良区,,その他,秋田県,湯沢市,関口字道地２６,,05,207,0120862,,,2021-03-31,その他の清算の結了等,,,2015-10-09,1,,,,,ユザワシチユウオウトチカイリヨウク,0
1071,5010003029659,登記記録の閉鎖等,0,2021-08-24,2021-08-20,ＰＬＣ１１Ｒ合同会社,,合同会社,東京都,千代田区,丸の内１丁目１１番１号,,13,101,1000005,,,2021-08-20,清算の結了等,,,2019-04-16,1,,,,,ピーエルシーイレブンアール,0
1090,5010502021182,登記記録の閉鎖等,0,2021-08-24,2021-08-17,友里有限会社,,有限会社,東京都,台東区,柳橋２丁目１番９－６１８号,,13,106,1110052,,,2021-08-17,清算の結了等,,,2015-10-05,1,,,,,ユウリ,0
1103,5011001138583,登記記録の閉鎖等,0,2021-08-24,2021-08-02,ＢＡＰＥジャパン・インベストメント・ホールディング株式会社,,株式会社,東京都,渋谷区,千駄ヶ谷４丁目２２番３号,,13,113,1510051,,,2021-08-02,合併による解散等,9011001138877,令和３年８月１日東京都渋谷区千駄ケ谷四丁目２２番３号ＢＡＰＥジャパン・インベストメント株式会社（9011001138877）に合併し解散,2021-02-17,1,,,,,ベイプジャパンインベストメントホールディング,0
1109,5011201022323,登記記録の閉鎖等,0,2021-08-24,2021-08-19,株式会社タフ・スクエア,,株式会社,東京都,中野区,上鷺宮２丁目１０番２６号,,13,114,1650031,,,2021-08-19,清算の結了等,,,2020-08-18,1,,,,,タフスクエア,0
1116,5012401022947,登記記録の閉鎖等,0,2021-08-24,2021-08-12,株式会社ウィスタリア,,株式会社,東京都,国分寺市,本町４丁目１３番９号ウィスタリア・Ｋ７０１,,13,214,1850012,,,2021-08-12,清算の結了等,,,2015-10-05,1,,,,,,0
1135,5030001017093,登記記録の閉鎖等,0,2021-08-24,2021-08-11,オリエンテトレーディング株式会社,,株式会社,埼玉県,さいたま市大宮区,土手町１丁目２８５番地,,11,103,3300801,,,2021-08-11,清算の結了等,,,2015-10-05,1,,,,,オリエンテトレーディング,0
1141,5030001117323,登記記録の閉鎖等,0,2021-08-24,2021-08-04,株式会社スワロー,,株式会社,埼玉県,川越市,大字新宿１６６５番地５,,11,201,3501125,,,2021-08-04,清算の結了等,,,2016-11-25,1,,,,,スワロー,0
1149,5040001040342,登記記録の閉鎖等,0,2021-08-24,2021-08-13,株式会社ティーエープランニング,,株式会社,千葉県,松戸市,根木内１９２番地の４,,12,207,2700011,,,2021-08-13,清算の結了等,,,2015-10-05,1,,,,,ティーエープランニング,0
1150,5040001094990,登記記録の閉鎖等,0,2021-08-24,2021-08-13,株式会社ＳＣＡＴＴＥＲＥＤ　ＬＵＣＫＹ,,株式会社,千葉県,千葉市中央区,千葉港３番２１号サングランデ千葉みなと７１０号,,12,101,2600026,,,2021-08-13,清算の結了等,,,2016-04-22,1,,,,,,0
1152,5050002014278,登記記録の閉鎖等,0,2021-08-24,2021-08-18,有限会社チヨダ運送,,有限会社,茨城県,かすみがうら市,下稲吉１６８４番地の８,,08,230,3150052,,,2021-08-18,清算の結了等,,,2015-10-05,1,,,,,チヨダウンソウ,0
1153,5050005011306,登記記録の閉鎖等,0,2021-08-24,2021-08-19,一般財団法人つくば新大学システム機構,,その他の設立登記法人,茨城県,土浦市,上高津１６０１番地,,08,203,3000811,,,2021-08-19,清算の結了等,,,2015-10-05,1,,,,,ツクバシンダイガクシステムキコウ,0
1161,5080101014102,登記記録の閉鎖等,0,2021-08-24,2021-08-23,株式会社シーファーム,,株式会社,静岡県,熱海市,下多賀４９５番地の１白鳥マンション内,,22,205,4130102,,,2021-08-23,清算の結了等,,,2015-10-05,1,,,,,シーファーム,0
1162,5080102016171,登記記録の閉鎖等,0,2021-08-24,2021-08-19,有限会社遠藤一級建築設計事務所,,有限会社,静岡県,富士市,中之郷３８０７番地の１,,22,210,4213306,,,2021-08-19,清算の結了等,,,2015-10-05,1,,,,,エンドウイッキュウケンチクセッケイジムショ,0
1167,5100002015469,登記記録の閉鎖等,0,2021-08-24,2021-08-11,有限会社ヒロ・コーポレーション,,有限会社,長野県,上田市,上田原８４９番地３３,,20,203,3861102,,,2021-08-11,清算の結了等,,,2015-10-05,1,,,,,ヒロコーポレーション,0
1183,5120002006391,登記記録の閉鎖等,0,2021-08-24,2021-08-06,有限会社ワカケン,,有限会社,大阪府,大阪市東住吉区,東田辺１丁目１４番２号,,27,121,5460032,,,2021-08-06,清算の結了等,,,2015-10-05,1,,,,,ワカケン,0
1187,5120005010481,登記記録の閉鎖等,0,2021-08-24,2021-08-17,医療法人田中診療所,,その他の設立登記法人,大阪府,大阪市生野区,鶴橋４丁目７番９号,,27,116,5440031,,,2021-08-17,清算の結了等,,,2015-10-05,1,,,,,タナカシンリョウジョ,0
1199,5120902014535,登記記録の閉鎖等,0,2021-08-24,2021-08-20,有限会社三宝防音工事,,有限会社,大阪府,池田市,伏尾町７６番地の１６－５３０号,,27,204,5630011,,,2021-08-20,清算の結了等,,,2015-10-05,1,,,,,サンポウボウオンコウジ,0
1201,5120905000078,登記記録の閉鎖等,0,2021-08-24,2021-08-20,大法寺,,その他の設立登記法人,大阪府,茨木市,春日１丁目１番３１号,,27,211,5670031,,,2021-08-20,清算の結了等,,,2015-10-05,1,,,,,ダイホウジ,0
1226,5180001132679,登記記録の閉鎖等,0,2021-08-24,2021-08-19,株式会社フォンティーヌ,,株式会社,愛知県,名古屋市熱田区,旗屋２丁目８番１３号,,23,109,4560027,,,2021-08-19,清算の結了等,,,2018-06-14,1,,,,,フォンティーヌ,0
1229,5180003004570,登記記録の閉鎖等,0,2021-08-24,2021-08-19,合資会社早川商事,,合資会社,愛知県,名古屋市中村区,西米野町３丁目１８番地,,23,105,4530812,,,2021-08-19,清算の結了等,,,2015-10-05,1,,,,,ハヤカワショウジ,0
1234,5180302001310,登記記録の閉鎖等,0,2021-08-24,2021-08-23,有限会社サントー地所,,有限会社,愛知県,岡崎市,洞町字長沼２６番地１８,,23,202,4440008,,,2021-08-23,清算の結了等,,,2015-10-05,1,,,,,サントージショ,0
1254,5290801018455,登記記録の閉鎖等,0,2021-08-24,2021-08-10,株式会社サンコー・インテリア,,株式会社,福岡県,北九州市小倉南区,南方３丁目２２番１１号,,40,107,8020976,,,2021-08-10,清算の結了等,,,2015-10-05,1,,,,,サンコーインテリア,0
1264,5360002012878,登記記録の閉鎖等,0,2021-08-24,2021-08-10,有限会社トラスト,,有限会社,沖縄県,沖縄市,山里１丁目３番３号,,47,211,9040033,,,2021-08-10,清算の結了等,,,2015-10-05,1,,,,,トラスト,0
1276,5400005005255,登記記録の閉鎖等,0,2021-08-24,2021-08-16,特定非営利活動法人いわてＧＩＮＧＡ－ＮＥＴ,,その他の設立登記法人,岩手県,盛岡市,材木町４番２９号,,03,201,0200063,,,2021-08-16,清算の結了等,,,2015-10-05,1,,,,,イワテギンガネット,0
1286,5450002005195,登記記録の閉鎖等,0,2021-08-24,2021-08-20,有限会社豆源大友本店,,有限会社,北海道,旭川市,旭町一条９丁目６８９番地９２,,01,204,0700831,,,2021-08-20,清算の結了等,,,2015-10-05,1,,,,,マメゲンオオトモホンテン,0
1293,5700150001268,登記記録の閉鎖等,0,2021-08-24,2021-03-31,東京乗用旅客自動車厚生年金基金,,その他,東京都,千代田区,九段南４丁目８－１３自動車会館内,,13,101,1020074,,,2021-03-31,その他の清算の結了等,,,2015-10-09,1,,,,,トウキヨウジヨウヨウリヨカクジドウシヤコウセイネンキンキキン,0
1294,5700150027461,登記記録の閉鎖等,0,2021-08-24,2021-04-30,大原野開発生産組合,,その他,京都府,福知山市,三和町友渕友渕会館内,,26,201,6201424,,,2021-04-30,その他の清算の結了等,,,2015-10-09,1,,,,,オオハラノカイハツセイサンクミアイ,0
1295,5700150032841,削除,,2021-08-24,,,,,,,,,,,,,,,,,,,,,,,,,
1296,5700150032858,削除,,2021-08-24,,,,,,,,,,,,,,,,,,,,,,,,,
1309,6010003030921,登記記録の閉鎖等,0,2021-08-24,2021-08-16,合同会社彩,,合同会社,東京都,中央区,日本橋１丁目４番１号日本橋一丁目ビルディング,,13,102,1030027,,,2021-08-16,清算の結了等,,,2019-10-24,1,,,,,サイ,0
1351,6011003007158,登記記録の閉鎖等,0,2021-08-24,2021-08-04,合同会社ヴィスコンティ,,合同会社,東京都,渋谷区,渋谷１丁目４番８号ＥｌｉｔｅＲｅｓｉｄｅｎｃｅＭｉｙａｍａｓｕｚａｋａ６０２,,13,113,1500002,,,2021-08-04,清算の結了等,,,2016-10-27,1,,,,,ヴィスコンティ,0
1362,6011502008631,登記記録の閉鎖等,0,2021-08-24,2021-08-20,有限会社坂牧製袋所,,有限会社,東京都,荒川区,荒川４丁目３３番５号,,13,118,1160002,,,2021-08-20,清算の結了等,,,2015-10-05,1,,,,,,0
1369,6012401014456,登記記録の閉鎖等,0,2021-08-24,2021-08-20,株式会社宮川工務店,,株式会社,東京都,三鷹市,大沢５丁目９番４号,,13,204,1810015,,,2021-08-20,清算の結了等,,,2015-10-05,1,,,,,ミヤガワコウムテン,0
1373,6012402003326,登記記録の閉鎖等,0,2021-08-24,2021-08-17,有限会社オフィス・ジェット,,有限会社,東京都,国分寺市,東元町２丁目１１番２６号,,13,214,1850022,,,2021-08-17,清算の結了等,,,2015-10-05,1,,,,,,0
1375,6012403003473,登記記録の閉鎖等,0,2021-08-24,2021-08-16,合同会社ＭａｎａＵｎｉ,,合同会社,東京都,調布市,佐須町３丁目１６番地２,,13,208,1820016,,,2021-08-16,清算の結了等,,,2018-05-22,1,,,,,マナユニ,0
1377,6012703001037,登記記録の閉鎖等,0,2021-08-24,2021-08-20,合同会社ＫＳ＆Ｍ,,合同会社,東京都,西東京市,下保谷３丁目９番６号,,13,229,2020004,,,2021-08-20,清算の結了等,,,2015-10-05,1,,,,,ケーエスアンドエム,0
1378,6012801020277,登記記録の閉鎖等,0,2021-08-24,2021-08-02,株式会社Ｈｓｉｅｈｐｉｎ,,株式会社,東京都,国分寺市,新町１丁目１３－１９,,13,214,1850004,,,2021-08-02,清算の結了等,,,2020-08-04,1,,,,,シェイピン,0
1389,6020005009839,登記記録の閉鎖等,0,2021-08-24,2021-08-18,一般社団法人ＨｅａｒＴｉｓｔ,,その他の設立登記法人,神奈川県,横浜市保土ケ谷区,上菅田町４１８番地２１２,,14,106,2400051,,,2021-08-18,清算の結了等,,,2015-10-05,1,,,,,ハーティスト,0
1429,6100002007861,登記記録の閉鎖等,0,2021-08-24,2021-08-19,有限会社フィル・エナジー,,有限会社,長野県,長野市,松代町西寺尾１８００番地,,20,201,3811215,,,2021-08-19,清算の結了等,,,2015-10-05,1,,,,,フィルエナジー,0
1449,6120101024293,登記記録の閉鎖等,0,2021-08-24,2021-08-20,三国産機株式会社,,株式会社,大阪府,堺市美原区,阿弥１３８番地,,27,147,5870003,,,2021-08-20,清算の結了等,,,2015-10-05,1,,,,,ミクニサンキ,0
1453,6120102012520,登記記録の閉鎖等,0,2021-08-24,2021-08-20,有限会社森本衣料プレス,,有限会社,大阪府,堺市美原区,丹上４１４番地の４,,27,147,5870011,,,2021-08-20,清算の結了等,,,2015-10-05,1,,,,,モリモトイリョウプレス,0
1455,6120901038575,登記記録の閉鎖等,0,2021-08-24,2021-08-18,株式会社Ａ　ｓｔｙｌｅ,,株式会社,兵庫県,神戸市中央区,八幡通３丁目２番５号Ｉ・Ｎ東洋ビル３０４号室,,28,110,6510085,,,2021-08-18,合併による解散等,7240001048512,令和３年８月２日広島市中区上八丁堀８番２３号林業ビル４階４０２号室株式会社タッグパートナーズ（7240001048512）に合併し解散,2017-06-06,1,,,,,エースタイル,0
1460,6130001016175,登記記録の閉鎖等,0,2021-08-24,2021-08-19,株式会社京都アメニティ開発,,株式会社,京都府,京都市伏見区,上油掛町２０３番地,,26,109,6128047,,,2021-08-19,合併による解散等,2130001000050,令和３年８月１日京都市伏見区南浜町２４７番地月桂冠株式会社（2130001000050）に合併し解散,2015-10-05,1,,,,,キョウトアメニティカイハツ,0
1470,6140001038838,登記記録の閉鎖等,0,2021-08-24,2021-08-19,株式会社播新設備,,株式会社,兵庫県,たつの市,新宮町馬立１１４番地の８,,28,229,6794332,,,2021-08-19,清算の結了等,,,2015-10-05,1,,,,,バンシンセツビ,0
1473,6140001094575,登記記録の閉鎖等,0,2021-08-24,2021-08-23,株式会社ＡｒｅａＪａｐａｎ,,株式会社,兵庫県,神戸市中央区,旭通４丁目１番３－１５０１号,,28,110,6510095,,,2021-08-23,清算の結了等,,,2015-10-05,1,,,,,エリアジャパン,0
1478,6150001021611,登記記録の閉鎖等,0,2021-08-24,2021-08-12,株式会社スリーエムリンク,,株式会社,大阪府,大阪市浪速区,難波中３丁目１４番１６号靖安ビル１０３,,27,111,5560011,,,2021-08-12,清算の結了等,,,2017-06-27,1,,,,,,0
1479,6160001013260,登記記録の閉鎖等,0,2021-08-24,2021-08-06,アズメック株式会社,,株式会社,滋賀県,栗東市,出庭４０１番地３,,25,208,5203041,,,2021-08-06,合併による解散等,6160002013243,令和３年８月１日滋賀県栗東市出庭３０４番地アズメック株式会社（6160002013243）に合併し解散,2015-10-05,1,,,,,アズメック,0
1492,6180001115633,登記記録の閉鎖等,0,2021-08-24,2021-08-20,株式会社ＩＤＥＡ,,株式会社,愛知県,春日井市,下原町１６６２番地,,23,206,4860819,,,2021-08-20,清算の結了等,,,2015-10-05,1,,,,,イデア,0
1500,6180002090529,登記記録の閉鎖等,0,2021-08-24,2021-08-19,有限会社サンヨーウッド,,有限会社,愛知県,海部郡飛島村,大字梅之郷字宮東２４番地の５,,23,427,4901435,,,2021-08-19,清算の結了等,,,2015-10-05,1,,,,,サンヨーウッド,0
1501,6180003021879,登記記録の閉鎖等,0,2021-08-24,2021-08-19,合同会社ＴＭＲ,,合同会社,愛知県,名古屋市中区,丸の内２丁目１７番地１３号ＮＫ丸の内ビル２階,,23,106,4600002,,,2021-08-19,清算の結了等,,,2020-12-22,1,,,,,ティーエムアール,0
1503,6180302018246,登記記録の閉鎖等,0,2021-08-24,2021-08-20,有限会社高深,,有限会社,愛知県,刈谷市,高津波町２丁目９番地,,23,210,4480047,,,2021-08-20,清算の結了等,,,2015-10-05,1,,,,,コウシン,0
1504,6200001021952,登記記録の閉鎖等,0,2021-08-24,2021-08-20,エム・ティー・アール株式会社,,株式会社,岐阜県,瑞浪市,日吉町１５１６番地の５,,21,208,5096251,,,2021-08-20,清算の結了等,,,2015-10-05,1,,,,,エムティーアール,0
1510,6220002015778,登記記録の閉鎖等,0,2021-08-24,2021-08-18,有限会社門前製材所,,有限会社,石川県,輪島市,門前町深田２１の７２番地,,17,204,9272153,,,2021-08-18,清算の結了等,,,2015-10-05,1,,,,,モンゼンセイザイショ,0
1522,6250001009431,登記記録の閉鎖等,0,2021-08-24,2021-08-20,河田薬品株式会社,,株式会社,山口県,下松市,大字西豊井１４１９番地,,35,207,7440011,,,2021-08-20,清算の結了等,,,2015-10-05,1,,,,,カワタヤクヒン,0
1540,6330001013623,登記記録の閉鎖等,0,2021-08-24,2021-08-20,株式会社タシロペイント,,株式会社,熊本県,八代市,迎町５１２番地の１,,43,202,8660055,,,2021-08-20,清算の結了等,,,2015-10-05,1,,,,,タシロペイント,0
1541,6330001015900,登記記録の閉鎖等,0,2021-08-24,2021-08-20,株式会社球磨村ふるさと振興公社,,株式会社,熊本県,球磨郡球磨村,大字一勝地乙３９番地の２,,43,513,8696403,,,2021-08-20,清算の結了等,,,2015-10-05,1,,,,,クマムラフルサトシンコウコウシャ,0
1562,6380005001009,登記記録の閉鎖等,0,2021-08-24,2021-08-20,特定非営利活動法人よつばのクローバー,,その他の設立登記法人,福島県,福島市,成川字五反田９番地１,,07,201,9601108,,,2021-08-20,清算の結了等,,,2015-10-05,1,,,,,ヨツバノクローバー,0
1563,6380005009191,登記記録の閉鎖等,0,2021-08-24,2021-08-20,協同組合西会津町サービス店会,,その他の設立登記法人,福島県,耶麻郡西会津町,野沢字下條乙１９６９番地２６,,07,405,9694406,,,2021-08-20,清算の結了等,,,2015-10-05,1,,,,,ニシアイヅマチサービステンカイ,0
1583,6700150032849,削除,,2021-08-24,,,,,,,,,,,,,,,,,,,,,,,,,
1584,6700150032857,削除,,2021-08-24,,,,,,,,,,,,,,,,,,,,,,,,,
1596,7010003028114,登記記録の閉鎖等,0,2021-08-24,2021-08-20,オーパスファンディング２合同会社,,合同会社,東京都,千代田区,丸の内３丁目１番１号東京共同会計事務所内,,13,101,1000005,,,2021-08-20,清算の結了等,,,2018-08-15,1,,,,,オーパスファンディングツー,0
1597,7010003032330,登記記録の閉鎖等,0,2021-08-24,2021-08-20,ＤＡＩＬＰ合同会社,,合同会社,東京都,千代田区,丸の内３丁目１番１号東京共同会計事務所内,,13,101,1000005,,,2021-08-20,清算の結了等,,,2020-06-03,1,,,,,ディーエーアイエルピー,0
1619,7010605000800,登記記録の閉鎖等,0,2021-08-24,2021-08-05,江東個人タクシー協同組合,,その他の設立登記法人,東京都,江東区,大島８丁目４２番８号ユーケー東大島駅前ビル６階,,13,108,1360072,,,2021-08-05,清算の結了等,,,2015-10-05,1,,,,,コウトウコジンタクシー,0
1632,7011001123666,登記記録の閉鎖等,0,2021-08-24,2021-08-16,株式会社共栄,,株式会社,東京都,渋谷区,神泉町１１番９号ワインアパートメント４０１,,13,113,1500045,,,2021-08-16,合併による解散等,1011601017174,令和３年８月２日東京都中野区中央４－６－２４グリーンヒル中野Ｂ１Ｆ１０９号室株式会社Ｍａｓａｃａｒｉ（1011601017174）に合併し解散,2018-08-21,1,,,,,キョウエイ,0
1654,7020001002417,登記記録の閉鎖等,0,2021-08-24,2021-08-18,保安道路企画株式会社,,株式会社,神奈川県,横浜市旭区,鶴ケ峰本町１丁目１２番１０号,,14,112,2410021,,,2021-08-18,合併による解散等,5010401151584,令和３年７月３０日東京都港区虎ノ門三丁目７番１０号ランディック虎ノ門ビル９階保安道路企画株式会社（5010401151584）に合併し解散,2015-10-05,1,,,,,ホアンドウロキカク,0
1659,7020002100104,登記記録の閉鎖等,0,2021-08-24,2021-08-16,有限会社エムワイ商亊,,有限会社,神奈川県,横浜市神奈川区,白幡上町２８番１号,,14,102,2210075,,,2021-08-16,清算の結了等,,,2015-10-05,1,,,,,エムワイショウジ,0
1660,7020003001391,登記記録の閉鎖等,0,2021-08-24,2021-08-18,合資会社三橋商店,,合資会社,神奈川県,横浜市西区,平沼１丁目２番１１号,,14,103,2200023,,,2021-08-18,清算の結了等,,,2015-10-05,1,,,,,ミツハシショウテン,0
1684,7040002099211,登記記録の閉鎖等,0,2021-08-24,2021-08-12,有限会社伊東正,,有限会社,千葉県,館山市,館山１０２０番地,,12,205,2940036,,,2021-08-12,清算の結了等,,,2015-10-05,1,,,,,イトウショウ,0
1700,7110002013569,登記記録の閉鎖等,0,2021-08-24,2021-08-20,有限会社井上,,有限会社,新潟県,五泉市,駅前１丁目６番５号,,15,218,9591823,,,2021-08-20,清算の結了等,,,2015-10-05,1,,,,,イノウエ,0
1716,7120002010862,登記記録の閉鎖等,0,2021-08-24,2021-08-11,有限会社大鳥,,有限会社,大阪府,大阪市平野区,瓜破西３丁目８番２８号,,27,126,5470025,,,2021-08-11,清算の結了等,,,2015-10-05,1,,,,,オオトリ,0
1737,7140001060279,登記記録の閉鎖等,0,2021-08-24,2021-08-23,株式会社トミタ製作所,,株式会社,兵庫県,姫路市,的形町的形２４５３番地,,28,201,6710111,,,2021-08-23,清算の結了等,,,2015-10-05,1,,,,,,0
1758,7180002014461,登記記録の閉鎖等,0,2021-08-24,2021-08-19,有限会社西門神谷新聞店,,有限会社,愛知県,名古屋市南区,西桜町６４番地の５,,23,112,4570039,,,2021-08-19,清算の結了等,,,2015-10-05,1,,,,,ニシモンカミヤシンブンテン,0
1762,7180301000732,登記記録の閉鎖等,0,2021-08-24,2021-08-23,株式会社熊野屋,,株式会社,愛知県,岡崎市,柱５丁目３番地１１,,23,202,4440837,,,2021-08-23,清算の結了等,,,2015-10-05,1,,,,,クマノヤ,0
1763,7180301007777,登記記録の閉鎖等,0,2021-08-24,2021-08-20,牧野食品工業株式会社,,株式会社,愛知県,田原市,浦町北浦１２３番地,,23,231,4413403,,,2021-08-20,清算の結了等,,,2015-10-05,1,,,,,マキノシュクヒンコウギョウ,0
1764,7180305000613,登記記録の閉鎖等,0,2021-08-24,2021-08-23,協同組合岡ビル百貨店,,その他の設立登記法人,愛知県,岡崎市,明大寺本町４丁目７０番地,,23,202,4440860,,,2021-08-23,清算の結了等,,,2015-10-05,1,,,,,オカビルヒャッカテン,0
1771,7220001007338,登記記録の閉鎖等,0,2021-08-24,2021-08-18,株式会社ゆう楽座金沢,,株式会社,石川県,金沢市,三馬３丁目３４２番地,,17,201,9218162,,,2021-08-18,清算の結了等,,,2015-10-05,1,,,,,ユウラクザカナザワ,0
1778,7230001009688,登記記録の閉鎖等,0,2021-08-24,2021-08-20,株式会社伊東園,,株式会社,富山県,高岡市,御旅屋町１５番地,,16,202,9330029,,,2021-08-20,清算の結了等,,,2015-10-05,1,,,,,イトウエン,0
1790,7240002054419,登記記録の閉鎖等,0,2021-08-24,2021-08-10,土井建具、土井建窓有限会社,,有限会社,広島県,三原市,大和町大草８２４８番地の１,,34,204,7291211,,,2021-08-10,清算の結了等,,,2015-10-05,1,,,,,ドイタテグドイケンソウ,0
1792,7250002006559,登記記録の閉鎖等,0,2021-08-24,2021-08-20,有限会社船木プロパン,,有限会社,山口県,宇部市,大字船木６７０番地の１,,35,202,7570216,,,2021-08-20,清算の結了等,,,2015-10-05,1,,,,,フナキプロパン,0
1794,7260002008174,登記記録の閉鎖等,0,2021-08-24,2021-08-23,有限会社備前給食,,有限会社,岡山県,岡山市北区,撫川１２９８番地,,33,101,7010164,,,2021-08-23,清算の結了等,,,2015-10-05,1,,,,,ビゼンキュウショク,0
1796,7280005002841,登記記録の閉鎖等,0,2021-08-24,2021-08-23,荒木生産森林組合,,その他の設立登記法人,島根県,出雲市,大社町北荒木３８９番地２,,32,203,6990722,,,2021-08-23,清算の結了等,,,2015-10-05,1,,,,,アラキ,0
1832,7370501000736,登記記録の閉鎖等,0,2021-08-24,2021-08-10,株式会社エクステリア高橋,00081764,株式会社,宮城県,気仙沼市,岩月箒沢７６番地１０,,04,205,9880205,,,2021-08-10,清算の結了等,,,2015-10-05,1,,,,,エクステリアタカハシ,0
1841,7430001047908,登記記録の閉鎖等,0,2021-08-24,2021-08-10,株式会社田上農産,,株式会社,北海道,岩見沢市,北村豊里１２１１番地,,01,210,0681205,,,2021-08-10,清算の結了等,,,2015-10-05,1,,,,,タノウエノウサン,0
1847,7440002004171,登記記録の閉鎖等,0,2021-08-24,2021-08-19,有限会社ホテル駅前,,有限会社,北海道,函館市,若松町２１番８号,,01,202,0400063,,,2021-08-19,清算の結了等,,,2015-10-05,1,,,,,ホテルエキマエ,0
1851,7700150032823,削除,,2021-08-24,,,,,,,,,,,,,,,,,,,,,,,,,
1852,7700150032848,削除,,2021-08-24,,,,,,,,,,,,,,,,,,,,,,,,,
1853,7700150032856,削除,,2021-08-24,,,,,,,,,,,,,,,,,,,,,,,,,
1854,7700150032864,削除,,2021-08-24,,,,,,,,,,,,,,,,,,,,,,,,,
1885,8010702003259,登記記録の閉鎖等,0,2021-08-24,2021-08-20,三英架設有限会社,,有限会社,東京都,品川区,豊町１丁目１番６号,,13,109,1420042,,,2021-08-20,清算の結了等,,,2015-10-05,1,,,,,サンエイカセツ,0
1919,8020001098842,登記記録の閉鎖等,0,2021-08-24,2021-08-18,株式会社Ｍ’ｓ　ｃｒｅａｔｉｏｎ,,株式会社,神奈川県,横浜市旭区,川井本町４番地６横浜ヒルストンハウス１０６,,14,112,2410803,,,2021-08-18,清算の結了等,,,2015-10-05,1,,,,,,0
1938,8040001047054,登記記録の閉鎖等,0,2021-08-24,2021-08-12,藤巻商事株式会社,,株式会社,千葉県,佐倉市,千成１丁目１０番１０号,,12,212,2850034,,,2021-08-12,清算の結了等,,,2015-10-05,1,,,,,フジマキショウジ,0
1944,8040002036452,登記記録の閉鎖等,0,2021-08-24,2021-08-12,有限会社ベストリビング,,有限会社,千葉県,市川市,大野町３丁目２０２番１号,,12,203,2720805,,,2021-08-12,清算の結了等,,,2015-10-05,1,,,,,ベストリビング,0
1954,8070001009497,登記記録の閉鎖等,0,2021-08-24,2021-08-23,株式会社テクナ,,株式会社,群馬県,高崎市,菅谷町２０番１３６,,10,202,3703522,,,2021-08-23,清算の結了等,,,2015-10-05,1,,,,,,0
1956,8070002032993,登記記録の閉鎖等,0,2021-08-24,2021-08-19,有限会社朝日調剤薬局,,有限会社,群馬県,館林市,朝日町６番２１号,,10,207,3740063,,,2021-08-19,清算の結了等,,,2015-10-05,1,,,,,アサヒチョウザイヤッキョク,0
1972,8120001169583,登記記録の閉鎖等,0,2021-08-24,2021-08-18,株式会社Ａ．Ｍコーポレーション,,株式会社,大阪府,大阪市東淀川区,東中島１丁目２１番３１号新大阪和光２０２号室,,27,114,5330033,,,2021-08-18,清算の結了等,,,2015-10-05,1,,,,,エーエムコーポレーション,0
1975,8120001229379,登記記録の閉鎖等,0,2021-08-24,2021-08-16,亦来株式会社,,株式会社,大阪府,大阪市中央区,谷町７丁目１番３９－３０１号Ｅ,,27,128,5420012,,,2021-08-16,清算の結了等,,,2020-06-05,1,,,,,エキライ,0
1986,8120102019786,登記記録の閉鎖等,0,2021-08-24,2021-08-20,有限会社クリウ保険事務所,,有限会社,大阪府,河内長野市,日東町２５番４号,,27,216,5860042,,,2021-08-20,清算の結了等,,,2015-10-05,1,,,,,クリウホケンジムショ,0
2036,8190005004474,登記記録の閉鎖等,0,2021-08-24,2021-08-23,特定非営利活動法人市民ネットワークすずかのぶどう,,その他の設立登記法人,三重県,鈴鹿市,白子駅前９番２０号,,24,207,5100241,,,2021-08-23,清算の結了等,,,2015-10-05,1,,,,,シミンネットワークスズカノブドウ,0
2048,8260002020095,登記記録の閉鎖等,0,2021-08-24,2021-08-12,有限会社中原自動車,,有限会社,岡山県,倉敷市,中島２３４０番地の３５,,33,202,7100803,,,2021-08-12,清算の結了等,,,2015-10-05,1,,,,,ナカハラジドウシャ,0
2050,8290001070254,登記記録の閉鎖等,0,2021-08-24,2021-08-16,株式会社ビューティフルタイム,,株式会社,福岡県,福岡市博多区,中洲４丁目３番１号中洲岡部ビル２号館地下１階,,40,132,8100801,,,2021-08-16,清算の結了等,,,2015-10-05,1,,,,,ビューティフルタイム,0
2061,8290005010826,登記記録の閉鎖等,0,2021-08-24,2021-08-20,特定非営利活動法人くるめ地域支援センター,,その他の設立登記法人,福岡県,久留米市,東町３２番地２,,40,203,8300032,,,2021-08-20,清算の結了等,,,2015-10-05,1,,,,,クルメチイキシエンセンター,0
2099,8700150032789,削除,,2021-08-24,,,,,,,,,,,,,,,,,,,,,,,,,
2100,8700150032797,削除,,2021-08-24,,,,,,,,,,,,,,,,,,,,,,,,,
2101,8700150032839,削除,,2021-08-24,,,,,,,,,,,,,,,,,,,,,,,,,
2102,8700150032847,削除,,2021-08-24,,,,,,,,,,,,,,,,,,,,,,,,,
2103,8700150032863,削除,,2021-08-24,,,,,,,,,,,,,,,,,,,,,,,,,
2104,8700150039025,登記記録の閉鎖等,0,2021-08-24,2021-03-31,稲川土地改良区,,その他,秋田県,湯沢市,川連町字上平城１２０,,05,207,0120105,,,2021-03-31,その他の清算の結了等,,,2015-10-09,1,,,,,イナカワトチカイリヨウク,0
2121,9010403017953,登記記録の閉鎖等,0,2021-08-24,2021-08-11,共栄不動産合同会社,,合同会社,東京都,港区,東新橋２丁目１０番１０号東新橋ビル７０７号室,,13,103,1050021,,,2021-08-11,清算の結了等,,,2018-01-18,1,,,,,キョウエイフドウサン,0
2145,9011202003558,登記記録の閉鎖等,0,2021-08-24,2021-08-04,有限会社大將,,有限会社,東京都,中野区,中野５丁目５７番５号,,13,114,1640001,,,2021-08-04,清算の結了等,,,2015-10-05,1,,,,,タイショウ,0
2148,9011402008258,登記記録の閉鎖等,0,2021-08-24,2021-08-23,有限会社益田箔押,,有限会社,東京都,板橋区,坂下１丁目１１番３－１０１号,,13,119,1740043,,,2021-08-23,清算の結了等,,,2015-10-05,1,,,,,マスダハクオシ,0
2149,9011501023513,登記記録の閉鎖等,0,2021-08-24,2021-08-19,株式会社ラインマートジャパン,,株式会社,東京都,荒川区,東尾久２丁目２番９－２２６号,,13,118,1160012,,,2021-08-19,清算の結了等,,,2018-03-12,1,,,,,ラインマートジャパン,0
2159,9013201014610,登記記録の閉鎖等,0,2021-08-24,2021-08-20,株式会社ツインエムカンパニー,,株式会社,東京都,練馬区,関町北５丁目１９番３２号,,13,120,1770051,,,2021-08-20,清算の結了等,,,2015-10-05,1,,,,,ツインエムカンパニー,0
2163,9020001078835,登記記録の閉鎖等,0,2021-08-24,2021-08-17,株式会社安原電機製作所,,株式会社,神奈川県,川崎市多摩区,南生田４丁目１６番１１号,,14,135,2140036,,,2021-08-17,清算の結了等,,,2015-10-05,1,,,,,,0
2192,9040001106544,登記記録の閉鎖等,0,2021-08-24,2021-08-13,株式会社エーアイ・マネージメント・システム,,株式会社,千葉県,野田市,山崎１７５４番地の７,,12,208,2780022,,,2021-08-13,清算の結了等,,,2018-10-17,1,,,,,エーアイマネージメントシステム,0
2195,9040002017484,登記記録の閉鎖等,0,2021-08-24,2021-08-13,有限会社一建興業,,有限会社,千葉県,千葉市若葉区,谷当町１０４５番地,,12,104,2650072,,,2021-08-13,清算の結了等,,,2015-10-05,1,,,,,,0
2203,9060002036739,登記記録の閉鎖等,0,2021-08-24,2021-08-12,有限会社机建設,,有限会社,栃木県,足利市,松田町２４６３番地,,09,202,3260101,,,2021-08-12,清算の結了等,,,2015-10-05,1,,,,,ツクエケンセツ,0
2207,9070002010503,登記記録の閉鎖等,0,2021-08-24,2021-08-19,有限会社鈴将不動産,,有限会社,群馬県,高崎市,吉井町池１５６７番地２,,10,202,3702107,,,2021-08-19,清算の結了等,,,2015-10-05,1,,,,,スズショウフドウサン,0
2232,9120101035635,登記記録の閉鎖等,0,2021-08-24,2021-08-19,大和工業株式会社,,株式会社,大阪府,河内長野市,小塩町１１４番地,,27,216,5860035,,,2021-08-19,清算の結了等,,,2015-10-05,1,,,,,ダイワコウギョウ,0
2247,9130001063108,登記記録の閉鎖等,0,2021-08-24,2021-08-02,株式会社水星,,株式会社,京都府,京都市南区,東九条南烏丸町１６番地,,26,107,6018041,,,2021-08-02,合併による解散等,3120001190057,令和３年７月３１日京都市南区東九条南烏丸町１６番地株式会社Ｌ＆Ｇグローバルビジネス（3120001190057）に合併し解散,2018-10-12,1,,,,,スイセイ,0
2255,9140001070078,登記記録の閉鎖等,0,2021-08-24,2021-08-20,菱屋株式会社,,株式会社,兵庫県,西宮市,二見町５番５号,,28,204,6638111,,,2021-08-20,清算の結了等,,,2015-10-05,1,,,,,ヒシヤ,0
2260,9140001117317,登記記録の閉鎖等,0,2021-08-24,2021-08-16,ａｔａｍａｎ株式会社,,株式会社,兵庫県,神戸市兵庫区,永沢町４丁目４番９－２０１号,,28,105,6520816,,,2021-08-16,清算の結了等,,,2020-05-18,1,,,,,アタマン,0
2262,9140002022185,登記記録の閉鎖等,0,2021-08-24,2021-08-20,有限会社ビーピーパートナーズ,,有限会社,兵庫県,神戸市兵庫区,島上町２丁目１番２６号,,28,105,6520833,,,2021-08-20,清算の結了等,,,2015-10-05,1,,,,,ビーピーパートナーズ,0
2273,9150003001170,登記記録の閉鎖等,0,2021-08-24,2021-08-18,ＹＴＥＫＴ合同会社,,合同会社,奈良県,桜井市,大字外山１５８３番地の１、１０２,,29,206,6330007,,,2021-08-18,清算の結了等,,,2015-10-05,1,,,,,,0
2295,9200005009883,登記記録の閉鎖等,0,2021-08-24,2021-08-23,常光寺,,その他の設立登記法人,岐阜県,高山市,岡本町１丁目２７６番地の１２,,21,203,5060054,,,2021-08-23,清算の結了等,,,2015-10-05,1,,,,,,0
2305,9240001048758,登記記録の閉鎖等,0,2021-08-24,2021-08-05,株式会社山櫻食創,,株式会社,広島県,広島市中区,胡町２番３９号,,34,101,7300021,,,2021-08-05,清算の結了等,,,2016-01-20,1,,,,,,0
2339,9290805003664,登記記録の閉鎖等,0,2021-08-24,2021-08-10,特定非営利活動法人ＴＯＴＯＳスマイルプロモーション,,その他の設立登記法人,福岡県,北九州市小倉南区,日の出町１丁目２番３－１００３号,,40,107,8020842,,,2021-08-10,清算の結了等,,,2015-10-05,1,,,,,トトススマイルプロモーション,0
2351,9340001016804,登記記録の閉鎖等,0,2021-08-24,2021-08-19,株式会社南の風,,株式会社,鹿児島県,鹿児島市,鴨池新町１４番２３号,,46,201,8900064,,,2021-08-19,清算の結了等,,,2015-10-05,1,,,,,,0
2361,9380001004417,登記記録の閉鎖等,0,2021-08-24,2021-08-18,株式会社足利屋さいとう酒店,,株式会社,福島県,郡山市,虎丸町２番１７号,,07,203,9638014,,,2021-08-18,清算の結了等,,,2015-10-05,1,,,,,アシカガヤサイトウサケテン,0
2370,9430001061543,登記記録の閉鎖等,0,2021-08-24,2021-08-10,株式会社ＦＥＣマネージメント,,株式会社,北海道,札幌市中央区,大通西１８丁目１－４,,01,101,0600042,,,2021-08-10,清算の結了等,,,2015-10-05,1,,,,,エフイーシーマネージメント,0
2372,9430001075460,登記記録の閉鎖等,0,2021-08-24,2021-08-11,株式会社ヒロキ,,株式会社,北海道,石狩市,花川東二条２丁目４８番地,,01,235,0613262,,,2021-08-11,清算の結了等,,,2017-12-08,1,,,,,ヒロキ,0
2390,9500002008172,登記記録の閉鎖等,0,2021-08-24,2021-08-23,有限会社杉本運輸,,有限会社,愛媛県,伊予市,下吾川字宮田１３４６番地１,,38,210,7993111,,,2021-08-23,清算の結了等,,,2015-10-05,1,,,,,スギモトウンユ,0
2392,9700150032788,削除,,2021-08-24,,,,,,,,,,,,,,,,,,,,,,,,,
2393,9700150032796,削除,,2021-08-24,,,,,,,,,,,,,,,,,,,,,,,,,
2394,9700150032813,削除,,2021-08-24,,,,,,,,,,,,,,,,,,,,,,,,,
2395,9700150032838,削除,,2021-08-24,,,,,,,,,,,,,,,,,,,,,,,,,
2396,9700150032846,削除,,2021-08-24,,,,,,,,,,,,,,,,,,,,,,,,,
2397,9700150032854,削除,,2021-08-24,,,,,,,,,,,,,,,,,,,,,,,,,
2398,9700150032862,削除,,2021-08-24,,,,,,,,,,,,,,,,,,,,,,,,,
2399,9700150032887,削除,,2021-08-24,,,,,,,,,,,,,,,,,,,,,,,,,
2400,9700150039024,登記記録の閉鎖等,0,2021-08-24,2021-03-31,雄勝郡山田五ケ村堰土地改良区,,その他,秋田県,湯沢市,山田字中屋敷１３９,,05,207,0120055,,,2021-03-31,その他の清算の結了等,,,2015-10-09,1,,,,,オガチグンヤマダゴカムラセキトチカイリヨウク,0
2401,9700150041129,登記記録の閉鎖等,0,2021-08-24,2021-04-30,やまぶどうの会,,その他,山形県,東田川郡庄内町,常万字大乗向１０－２,,06,428,9997713,,,2021-04-30,その他の清算の結了等,,,2015-10-09,1,,,,,ヤマブドウノカイ,0
2402,9700150041814,登記記録の閉鎖等,0,2021-08-24,2021-04-20,中部印刷工業厚生年金基金,,その他,愛知県,名古屋市東区,泉１丁目２０―１２,,23,102,4610001,,,2021-04-20,その他の清算の結了等,,,2015-10-09,1,,,,,チユウブインサツコウギヨウコウセイネンキンキキン,0
2403,9700150045864,登記記録の閉鎖等,0,2021-08-24,2019-06-10,牧之原市観光協会,,その他,静岡県,牧之原市,静波１７７１－５,,22,226,4210422,,,2019-06-10,その他の清算の結了等,,,2015-10-09,1,,,,,マキノハラシカンコウキヨウカイ,0
2404,9700150057810,登記記録の閉鎖等,0,2021-08-24,2021-03-31,阿南合同タクシー組合,,その他,徳島県,阿南市,上中町南島７０７－１,,36,204,7740044,,,2021-03-31,その他の清算の結了等,,,2015-10-09,1,,,,,アナンゴウドウタクシークミアイ,0
