sequenceNumber,corporateNumber,process,correct,updateDate,changeDate,name,nameImageId,kind,prefectureName,cityName,streetNumber,addressImageId,prefectureCode,cityCode,postCode,addressOutside,addressOutsideImageId,closeDate,closeCause,successorCorporateNumber,changeCause,assignmentDate,latest,enName,enPrefectureName,enCityName,enAddressOutside,furigana,hihyoji
13,1010002045041,登記記録の閉鎖等,0,2021-09-17,2021-09-16,有限会社国富,,有限会社,東京都,千代田区,麹町４丁目８番地,,13,101,1020083,,,2021-09-16,清算の結了等,,,2015-10-05,1,,,,,コクフ,0
63,1011103006502,登記記録の閉鎖等,0,2021-09-17,2021-09-07,モノリスカンパニー合同会社,,合同会社,東京都,新宿区,新宿５丁目１１番３０号新宿第五葉山ビル３階,,13,104,1600022,,,2021-09-07,清算の結了等,,,2016-09-05,1,,,,,モノリスカンパニー,0
79,1011702013031,登記記録の閉鎖等,0,2021-09-17,2021-09-10,有限会社栄工業所,,有限会社,東京都,江戸川区,北葛西２丁目１４番１３号,,13,123,1340081,,,2021-09-10,清算の結了等,,,2015-10-05,1,,,,,サカエコウギョウジョ,0
126,1030005016839,登記記録の閉鎖等,0,2021-09-17,2021-09-07,一般社団法人創風会,,その他の設立登記法人,埼玉県,所沢市,大字下富８６７番地９,,11,208,3590001,,,2021-09-07,清算の結了等,,,2015-10-05,1,,,,,,0
135,1040002077503,登記記録の閉鎖等,0,2021-09-17,2021-09-10,有限会社チューブ,,有限会社,千葉県,東金市,東岩崎２番地１０恵比寿ビル２０２,,12,213,2830068,,,2021-09-10,清算の結了等,,,2015-10-05,1,,,,,チューブ,0
141,1050002013878,登記記録の閉鎖等,0,2021-09-17,2021-09-10,有限会社ノグチビルド,,有限会社,茨城県,土浦市,中貫１５１９番地,,08,203,3000005,,,2021-09-10,清算の結了等,,,2015-10-05,1,,,,,ノグチビルド,0
148,1060001034032,登記記録の閉鎖等,0,2021-09-17,2021-09-10,株式会社増田鉄工所,,株式会社,栃木県,足利市,鹿島町１１１０番地１,,09,202,3260844,,,2021-09-10,清算の結了等,,,2021-09-06,1,,,,,マスダテッコウショ,0
160,1080103001102,登記記録の閉鎖等,0,2021-09-17,2021-09-02,ＡＮＤＳ　ＩＮＶＥＳＴ合同会社,,合同会社,静岡県,御殿場市,永塚２８５番地の１米山アパート２,,22,215,4120007,,,2021-09-02,清算の結了等,,,2015-10-05,1,,,,,アンズインヴェスト,0
165,1110001014301,登記記録の閉鎖等,0,2021-09-17,2021-09-13,株式会社水工舎,,株式会社,新潟県,三条市,西裏館２丁目６番２号,,15,204,9550082,,,2021-09-13,清算の結了等,,,2015-10-05,1,,,,,スイコウシャ,0
186,1120101034405,登記記録の閉鎖等,0,2021-09-17,2021-09-15,ブランカ株式会社,,株式会社,大阪府,富田林市,梅の里３丁目３５番８号,,27,214,5840001,,,2021-09-15,清算の結了等,,,2015-10-05,1,,,,,ブランカ,0
217,1180001086012,登記記録の閉鎖等,0,2021-09-17,2021-09-15,日本不動産流通株式会社,,株式会社,愛知県,稲沢市,北島町千野地１番地の１３,,23,220,4928411,,,2021-09-15,清算の結了等,,,2015-10-05,1,,,,,ニホンフドウサンリュウツウ,0
235,1250001014130,登記記録の閉鎖等,0,2021-09-17,2021-09-15,株式会社マルハナ,,株式会社,山口県,光市,光井９丁目１４番１４号,,35,210,7430011,,,2021-09-15,清算の結了等,,,2015-10-05,1,,,,,マルハナ,0
243,1280005002764,登記記録の閉鎖等,0,2021-09-17,2021-09-15,大津おろちスタンプ協同組合,,その他の設立登記法人,島根県,出雲市,大津町５８３番地５,,32,203,6930011,,,2021-09-15,清算の結了等,,,2015-10-05,1,,,,,オオツオロチスタンプ,0
254,1310002009461,登記記録の閉鎖等,0,2021-09-17,2021-09-14,有限会社小田水産,,有限会社,長崎県,佐世保市,東浜町１０５０番地１,,42,202,8571172,,,2021-09-14,清算の結了等,,,2015-10-05,1,,,,,オダスイサン,0
260,1330002027750,登記記録の閉鎖等,0,2021-09-17,2021-09-14,有限会社九州工建,,有限会社,熊本県,水俣市,初野２２４番地の１,,43,205,8670002,,,2021-09-14,清算の結了等,,,2015-10-05,1,,,,,キュウシュウコウケン,0
261,1340001020391,登記記録の閉鎖等,0,2021-09-17,2021-09-13,株式会社ＨＡＰＰＹ　ＨＯＮＥＳＴＹ,,株式会社,鹿児島県,鹿児島市,山之口町１１番７号ダイヤモンドビル６Ｆ,,46,201,8920844,,,2021-09-13,合併による解散等,3340002006743,令和３年９月１日鹿児島市山之口町１１番７号ダイヤモンドビル６Ｆ株式会社ドリームマキ（3340002006743）に合併し解散,2017-06-19,1,,,,,ハッピーオネスティ,0
288,1460002000356,登記記録の閉鎖等,0,2021-09-17,2021-09-16,有限会社遠藤商店,,有限会社,北海道,釧路市,阿寒町中央４丁目４番４号,,01,206,0850215,,,2021-09-16,清算の結了等,,,2015-10-05,1,,,,,エンドウショウテン,0
309,2010401085232,登記記録の閉鎖等,0,2021-09-17,2021-09-14,さくらクマ株式会社,,株式会社,東京都,港区,南青山２丁目２番１５号,,13,103,1070062,,,2021-09-14,清算の結了等,,,2015-10-05,1,,,,,サクラクマ,0
315,2010402022358,登記記録の閉鎖等,0,2021-09-17,2021-09-09,有限会社系ワン研究所,,有限会社,東京都,港区,芝５丁目３０番１号,,13,103,1080014,,,2021-09-09,清算の結了等,,,2015-10-05,1,,,,,ケイワンケンキュウジョ,0
329,2011001092156,登記記録の閉鎖等,0,2021-09-17,2021-09-15,株式会社Ｉｎｆｉｎｉｔｅ　Ｇｒｅｅｎ　Ｅｎｅｒｇｙ　Ｊａｐａｎ,,株式会社,東京都,目黒区,下目黒１丁目１番１１号目黒東洋ビル６階,,13,110,1530064,,,2021-09-15,合併による解散等,5100001023877,令和３年９月１０日長野県伊那市上の原７１１６番地株式会社赤羽電具製作所（5100001023877）に合併し解散,2015-10-05,1,,,,,,0
344,2011602009888,登記記録の閉鎖等,0,2021-09-17,2021-09-13,有限会社明建築設計,,有限会社,東京都,板橋区,小豆沢２丁目４番８－６０５号,,13,119,1740051,,,2021-09-13,清算の結了等,,,2015-10-05,1,,,,,アキケンチクセッケイ,0
348,2012401017792,登記記録の閉鎖等,0,2021-09-17,2021-09-15,株式会社Ｓ．Ｋプランニング,,株式会社,東京都,小平市,学園東町４４８番地の２レジデンスノーブル２０６号,,13,211,1870043,,,2021-09-15,清算の結了等,,,2015-10-05,1,,,,,エスケープランニング,0
354,2013305002286,登記記録の閉鎖等,0,2021-09-17,2021-09-10,そんぽ２４労働組合,,その他の設立登記法人,東京都,豊島区,東池袋３丁目１番１号そんぽ２４損害保険株式会社内,,13,116,1700013,,,2021-09-10,清算の結了等,,,2015-10-05,1,,,,,,0
359,2020001073537,登記記録の閉鎖等,0,2021-09-17,2021-09-13,高岸建設工業株式会社,00009793,株式会社,神奈川県,川崎市川崎区,渡田山王町８番１０号,,14,131,2100845,,,2021-09-13,清算の結了等,,,2015-10-05,1,,,,,タカギシケンセツコウギョウ,0
373,2020005009339,登記記録の閉鎖等,0,2021-09-17,2021-09-13,一般社団法人日本スポーツレボ,,その他の設立登記法人,神奈川県,横浜市神奈川区,東神奈川１丁目１１番地２,,14,102,2210044,,,2021-09-13,清算の結了等,,,2015-10-05,1,,,,,ニホンスポーツレボ,0
376,2021002014513,登記記録の閉鎖等,0,2021-09-17,2021-09-15,有限会社ケイ・オー・ティ,,有限会社,神奈川県,鎌倉市,由比ガ浜３丁目９番４号,,14,204,2480014,,,2021-09-15,清算の結了等,,,2015-10-05,1,,,,,ケイオーティ,0
391,2030002007303,登記記録の閉鎖等,0,2021-09-17,2021-09-07,有限会社鈴木厨房,,有限会社,埼玉県,さいたま市桜区,大字塚本３６９番地３,,11,106,3380816,,,2021-09-07,清算の結了等,,,2015-10-05,1,,,,,スズキチュウボウ,0
396,2040001056250,登記記録の閉鎖等,0,2021-09-17,2021-09-13,エコホームズ株式会社,,株式会社,千葉県,千葉市緑区,おゆみ野中央９丁目１番地１,,12,105,2660032,,,2021-09-13,清算の結了等,,,2015-10-05,1,,,,,エコホームズ,0
403,2040002067016,登記記録の閉鎖等,0,2021-09-17,2021-09-08,有限会社千楽,,有限会社,千葉県,木更津市,中央３丁目３番５号,,12,206,2920067,,,2021-09-08,清算の結了等,,,2015-10-05,1,,,,,センラク,0
405,2040002090967,登記記録の閉鎖等,0,2021-09-17,2021-09-14,有限会社成川園,,有限会社,千葉県,柏市,名戸ケ谷１１９１番地,,12,217,2770032,,,2021-09-14,清算の結了等,,,2015-10-05,1,,,,,ナルカワエン,0
419,2070002009428,登記記録の閉鎖等,0,2021-09-17,2021-09-13,有限会社川辺製作所,,有限会社,群馬県,高崎市,江木町１１７２番地１３,,10,202,3700046,,,2021-09-13,清算の結了等,,,2015-10-05,1,,,,,カワベセイサクジョ,0
423,2080402016535,登記記録の閉鎖等,0,2021-09-17,2021-09-14,有限会社丸加建材,,有限会社,静岡県,浜松市浜北区,於呂３０１１番地の４,,22,136,4340015,,,2021-09-14,清算の結了等,,,2015-10-05,1,,,,,マルカケンザイ,0
425,2100001000573,登記記録の閉鎖等,0,2021-09-17,2021-09-15,株式会社おやきや総本家,,株式会社,長野県,長野市,小島田町７４９番地３,,20,201,3812212,,,2021-09-15,清算の結了等,,,2015-10-05,1,,,,,オヤキヤソウホンケ,0
427,2110001015439,登記記録の閉鎖等,0,2021-09-17,2021-09-13,ダイサンコンテナー株式会社,,株式会社,新潟県,加茂市,柳町２丁目２番２１号,,15,209,9591386,,,2021-09-13,清算の結了等,,,2015-10-05,1,,,,,ダイサンコンテナー,0
440,2120101045252,登記記録の閉鎖等,0,2021-09-17,2021-09-15,株式会社トラフィック朋友,,株式会社,大阪府,岸和田市,内畑町２４５番地,,27,202,5960105,,,2021-09-15,清算の結了等,,,2015-10-05,1,,,,,トラフィックホウユウ,0
445,2120903000990,登記記録の閉鎖等,0,2021-09-17,2021-09-15,合同会社ＥＺＯＥ,,合同会社,大阪府,豊中市,夕日丘２丁目１６番１－４０５号,,27,203,5610864,,,2021-09-15,清算の結了等,,,2015-10-05,1,,,,,エゾエ,0
448,2130001031599,登記記録の閉鎖等,0,2021-09-17,2021-09-13,株式会社エコール・ウエスト,,株式会社,京都府,長岡京市,一里塚２番地メゾン神足４－２０３,,26,209,6170831,,,2021-09-13,清算の結了等,,,2015-10-05,1,,,,,エコールウエスト,0
463,2180001083594,登記記録の閉鎖等,0,2021-09-17,2021-09-10,株式会社文泉堂書店,,株式会社,愛知県,一宮市,森本２丁目５番２５号,,23,203,4910831,,,2021-09-10,清算の結了等,,,2015-10-05,1,,,,,ブンセンドウショテン,0
467,2180001120991,登記記録の閉鎖等,0,2021-09-17,2021-09-13,株式会社陽だまり,,株式会社,愛知県,小牧市,藤島町梵天４４番地２匠建ビル１０１号室,,23,219,4850069,,,2021-09-13,清算の結了等,,,2015-11-16,1,,,,,ヒダマリ,0
490,2230003001458,登記記録の閉鎖等,0,2021-09-17,2021-09-14,合同会社ＢｕｎＢｕｎ,,合同会社,富山県,富山市,桜橋通り３番１号富山電気ビルディング本館２階,,16,201,9300004,,,2021-09-14,清算の結了等,,,2020-03-27,1,,,,,ブンブン,0
497,2250001004460,登記記録の閉鎖等,0,2021-09-17,2021-09-14,株式会社みづほ農産,,株式会社,山口県,宇部市,大字船木５３１番地５,,35,202,7570216,,,2021-09-14,清算の結了等,,,2015-10-05,1,,,,,,0
504,2290001013623,登記記録の閉鎖等,0,2021-09-17,2021-09-02,昭和リアルエステートサービス株式会社,,株式会社,福岡県,福岡市中央区,渡辺通４丁目８番２８号,,40,133,8100004,,,2021-09-02,清算の結了等,,,2015-10-05,1,,,,,ショウワリアルエステートサービス,0
508,2290002045847,登記記録の閉鎖等,0,2021-09-17,2021-08-31,有限会社西日本クリエート,,有限会社,福岡県,飯塚市,相田３番地１４０,,40,205,8200052,,,2021-08-31,清算の結了等,,,2015-10-05,1,,,,,,0
526,2370001006247,登記記録の閉鎖等,0,2021-09-17,2021-09-02,株式会社八百友商店,,株式会社,宮城県,仙台市宮城野区,鶴ケ谷４丁目２番２号,,04,102,9830824,,,2021-09-02,清算の結了等,,,2015-10-05,1,,,,,ヤオトモショウテン,0
529,2380002034568,登記記録の閉鎖等,0,2021-09-17,2021-09-10,有限会社アメニティ・デザイン・オフィス,,有限会社,福島県,喜多方市,上三宮町上三宮字籬山５６５番地,,07,208,9660931,,,2021-09-10,清算の結了等,,,2015-10-05,1,,,,,アメニティデザインオフィス,0
569,3010601043311,登記記録の閉鎖等,0,2021-09-17,2021-09-01,株式会社大丸松坂屋セールスアソシエイツ,,株式会社,東京都,江東区,木場２丁目１８番１１号,,13,108,1350042,,,2021-09-01,合併による解散等,9010601038982,令和３年９月１日東京都江東区木場二丁目１８番１１号株式会社大丸松坂屋百貨店（9010601038982）に合併し解散,2015-10-05,1,,,,,ダイマルマツザカヤセールスアソシエイツ,0
583,3011001103250,登記記録の閉鎖等,0,2021-09-17,2021-09-01,株式会社ＴＨＲＥＥ,,株式会社,東京都,渋谷区,神宮前３丁目３３番１１号,,13,113,1500001,,,2021-09-01,清算の結了等,,,2015-10-05,1,,,,,スリー,0
661,3080402007046,登記記録の閉鎖等,0,2021-09-17,2021-09-16,有限会社プロス工業,,有限会社,静岡県,浜松市南区,福塚町２２０番地,00080014,22,134,4300843,,,2021-09-16,清算の結了等,,,2015-10-05,1,,,,,,0
663,3100002008739,登記記録の閉鎖等,0,2021-09-17,2021-09-15,有限会社美富士建設,,有限会社,長野県,須坂市,大字日滝２１３８番地,,20,207,3820000,,,2021-09-15,清算の結了等,,,2015-10-05,1,,,,,ミフジケンセツ,0
687,3120102027645,登記記録の閉鎖等,0,2021-09-17,2021-09-14,株式会社タイコー堂薬局本店,,株式会社,大阪府,泉南郡熊取町,野田２丁目１２番８号,,27,361,5900451,,,2021-09-14,合併による解散等,7290001008379,令和３年９月１日福岡市中央区天神二丁目１４番８号総合メディカル株式会社（7290001008379）に合併し解散,2015-10-05,1,,,,,タイコードウヤッキョクホンテン,0
695,3122002004245,登記記録の閉鎖等,0,2021-09-17,2021-09-15,有限会社ひさごや酒店,,有限会社,大阪府,東大阪市,六万寺町１丁目６番１７号,,27,227,5798061,,,2021-09-15,清算の結了等,,,2015-10-05,1,,,,,ヒサゴヤサケテン,0
702,3140001059663,登記記録の閉鎖等,0,2021-09-17,2021-09-14,株式会社セルビハウジング,,株式会社,兵庫県,姫路市,青山３丁目２５番１７号,,28,201,6712222,,,2021-09-14,清算の結了等,,,2015-10-05,1,,,,,セルビハウジング,0
742,3260001025785,登記記録の閉鎖等,0,2021-09-17,2021-09-15,株式会社ドリームフーズ,,株式会社,岡山県,倉敷市,阿知１丁目８番１２号,,33,202,7100055,,,2021-09-15,清算の結了等,,,2015-10-05,1,,,,,ドリームフーズ,0
749,3290001068906,登記記録の閉鎖等,0,2021-09-17,2021-09-01,株式会社ＬＲＹ,,株式会社,福岡県,福岡市博多区,中洲５丁目３番８号アクア博多６Ｆ,,40,132,8100801,,,2021-09-01,合併による解散等,2290001064542,令和３年９月１日福岡市博多区中洲五丁目３番８号アクア博多６Ｆ株式会社ＬＡＮＤＩＣアセット・モール（2290001064542）に合併し解散,2015-10-05,1,,,,,エルアールワイ,0
759,3300005003106,登記記録の閉鎖等,0,2021-09-17,2021-09-13,川内生産森林組合,,その他の設立登記法人,佐賀県,武雄市,若木町大字本部１６００２番地,,41,206,8430152,,,2021-09-13,清算の結了等,,,2015-10-05,1,,,,,カワチ,0
772,3350002015124,登記記録の閉鎖等,0,2021-09-17,2021-09-15,有限会社焼肉のてらさわ,,有限会社,宮崎県,都城市,蓑原町２３６１番地３,,45,202,8850095,,,2021-09-15,清算の結了等,,,2015-10-05,1,,,,,ヤキニクノテラサワ,0
775,3360003008712,登記記録の閉鎖等,0,2021-09-17,2021-09-13,合同会社フォーエバーＭ,,合同会社,沖縄県,那覇市,長田２丁目３４番１２号コーポみやぎ１０１,,47,201,9020077,,,2021-09-13,清算の結了等,,,2018-03-07,1,,,,,フォーエバーエム,0
781,3380002034823,登記記録の閉鎖等,0,2021-09-17,2021-09-13,有限会社三愛,,有限会社,福島県,喜多方市,字小田付道上７０５１番地,,07,208,9660805,,,2021-09-13,清算の結了等,,,2015-10-05,1,,,,,サンアイ,0
801,4010001180852,登記記録の閉鎖等,0,2021-09-17,2021-09-13,ＯｉＤＥ　Ａｄｊｕｂｉｌｅｅ株式会社,,株式会社,群馬県,邑楽郡千代田町,大字赤岩字くらかけ２７１６－１,,10,523,3700503,,,2021-09-13,清算の結了等,,,2017-01-18,1,,,,,オイデアジュービリー,0
804,4010001199851,登記記録の閉鎖等,0,2021-09-17,2021-09-09,株式会社イタ,,株式会社,東京都,千代田区,神田小川町２丁目１番地２,,13,101,1010052,,,2021-09-09,合併による解散等,6010001195568,令和３年９月１日東京都千代田区神田小川町二丁目１番地２株式会社ソトコト・プラネット（6010001195568）に合併し解散,2019-04-08,1,,,,,イタ,0
811,4010003016518,登記記録の閉鎖等,0,2021-09-17,2021-09-09,光速投資実践会合同会社,,合同会社,東京都,中央区,東日本橋２丁目２８番４号日本橋ＣＥＴビル２階,,13,102,1030004,,,2021-09-09,清算の結了等,,,2015-10-05,1,,,,,コウソクトウシジッセンカイ,0
813,4010003032713,登記記録の閉鎖等,0,2021-09-17,2021-09-07,ジールコンサルティング合同会社,,合同会社,東京都,中央区,八重洲２丁目１１番７号東栄八重洲ビル９Ｆ,,13,102,1040028,,,2021-09-07,清算の結了等,,,2020-08-03,1,,,,,ジールコンサルティング,0
819,4010401139787,登記記録の閉鎖等,0,2021-09-17,2021-09-09,かすみ株式会社,,株式会社,東京都,港区,三田３丁目１４番１０号三田三丁目ＭＴビル５階,,13,103,1080073,,,2021-09-09,清算の結了等,,,2018-07-25,1,"Idemitsu Shokai Co., Ltd.",,,,カスミ,0
844,4011001099050,登記記録の閉鎖等,0,2021-09-17,2021-09-10,株式会社ポンパノ,,株式会社,神奈川県,横浜市神奈川区,斎藤分町２７－９,,14,102,2210811,,,2021-09-10,清算の結了等,,,2015-10-05,1,,,,,ポンパノ,0
852,4011201015823,登記記録の閉鎖等,0,2021-09-17,2021-09-08,株式会社クレドジャパン,,株式会社,千葉県,松戸市,常盤平４丁目１５Ｅ－５０－１０４,,12,207,2702261,,,2021-09-08,清算の結了等,,,2015-10-05,1,,,,,クレドジャパン,0
853,4011201018966,登記記録の閉鎖等,0,2021-09-17,2021-09-14,ユウドウフォーメーション株式会社,,株式会社,東京都,中野区,江古田３丁目５番１２号シルクハイム江古田２０５,,13,114,1650022,,,2021-09-14,清算の結了等,,,2016-03-22,1,,,,,ユウドウフォーメーション,0
857,4011301012530,登記記録の閉鎖等,0,2021-09-17,2021-09-10,株式会社Ｍａｇｉｃ　Ｍａｒｔ,,株式会社,東京都,杉並区,高円寺北２丁目２２番１号,,13,115,1660002,,,2021-09-10,清算の結了等,,,2015-10-05,1,,,,,マジックマート,0
863,4011601019028,登記記録の閉鎖等,0,2021-09-17,2021-09-15,株式会社ピー・アール・エイチ,,株式会社,東京都,練馬区,中村南２丁目９番１５号,,13,120,1760025,,,2021-09-15,清算の結了等,,,2015-10-05,1,,,,,ピーアールエイチ,0
868,4011802010462,登記記録の閉鎖等,0,2021-09-17,2021-09-16,株式会社小林商事,,株式会社,東京都,足立区,本木南町１８番４号,,13,121,1230855,,,2021-09-16,清算の結了等,,,2015-10-05,1,,,,,コバヤシショウジ,0
884,4013305001609,登記記録の閉鎖等,0,2021-09-17,2021-09-10,税理士法人ケイティ会計事務所,,その他の設立登記法人,東京都,豊島区,東池袋１丁目３６番３号池袋陽光ハイツ１１０８号室,,13,116,1700013,,,2021-09-10,清算の結了等,,,2015-10-05,1,,,,,ケイティカイケイジムショ,0
901,4021005005433,登記記録の閉鎖等,0,2021-09-17,2021-09-15,特定非営利活動法人ピコピコ,,その他の設立登記法人,神奈川県,大和市,大和南２丁目８番３２号１Ｆ,,14,213,2420016,,,2021-09-15,清算の結了等,,,2015-10-05,1,,,,,ピコピコ,0
917,4040001032381,登記記録の閉鎖等,0,2021-09-17,2021-09-14,月星金属加工株式会社,,株式会社,千葉県,浦安市,鉄鋼通り１丁目９番９号,,12,227,2790025,,,2021-09-14,合併による解散等,1010001063003,令和３年９月１日東京都中央区八丁堀四丁目４番２号月星商事株式会社（1010001063003）に合併し解散,2015-10-05,1,,,,,ツキボシキンゾクカコウ,0
920,4040001065828,登記記録の閉鎖等,0,2021-09-17,2021-09-09,株式会社セイエー,,株式会社,千葉県,柏市,増尾台４丁目８番６号,,12,217,2770052,,,2021-09-09,清算の結了等,,,2015-10-05,1,,,,,セイエー,0
928,4050002015327,登記記録の閉鎖等,0,2021-09-17,2021-09-10,有限会社澁谷建材店,,有限会社,茨城県,石岡市,東石岡２丁目５番５号,,08,205,3150037,,,2021-09-10,清算の結了等,,,2015-10-05,1,,,,,シブヤケンザイテン,0
929,4050002039672,登記記録の閉鎖等,0,2021-09-17,2021-09-10,有限会社共栄工業,,有限会社,茨城県,常総市,豊岡町丙４５８番地の５,,08,211,3030041,,,2021-09-10,清算の結了等,,,2015-10-05,1,,,,,キョウエイコウギョウ,0
940,4080003000325,登記記録の閉鎖等,0,2021-09-17,2021-09-15,合資会社ビジパ,,合資会社,静岡県,静岡市葵区,岳美１丁目１５番２０－３０５号,,22,101,4200934,,,2021-09-15,清算の結了等,,,2015-10-05,1,,,,,ビジパ,0
960,4120001040021,登記記録の閉鎖等,0,2021-09-17,2021-09-09,株式会社丸勝,,株式会社,大阪府,大阪市浪速区,塩草１丁目２番５号,,27,111,5560024,,,2021-09-09,清算の結了等,,,2015-10-05,1,,,,,マルカツ,0
970,4120002019543,登記記録の閉鎖等,0,2021-09-17,2021-09-09,有限会社インテリア御建,,有限会社,大阪府,大阪市浪速区,戎本町１丁目７番１号,,27,111,5560013,,,2021-09-09,清算の結了等,,,2015-10-05,1,,,,,インテリアミタテ,0
973,4120003010831,登記記録の閉鎖等,0,2021-09-17,2021-09-13,合同会社Ｈｉｌｌ　Ｈｉｇｈ　Ｂｒｉｄｇｅ　Ｇａｒｄｅｎ,,合同会社,神奈川県,横浜市神奈川区,三ツ沢上町７－８ハイツジュネス２０３,,14,102,2210856,,,2021-09-13,清算の結了等,,,2015-10-05,1,,,,,ヒルハイブリッジガーデン,0
1007,4140001077367,登記記録の閉鎖等,0,2021-09-17,2021-09-14,株式会社クローバーネット,,株式会社,兵庫県,加西市,王子町６０５番地の１,,28,220,6752231,,,2021-09-14,清算の結了等,,,2015-10-05,1,,,,,クローバーネット,0
1029,4180001101016,登記記録の閉鎖等,0,2021-09-17,2021-09-08,株式会社ＣＫ　ＪＡＰＡＮ,,株式会社,愛知県,名古屋市千種区,鍋屋上野町字汁谷３５２０番地１グランドメゾン自由ケ丘テラス１－５０６号,,23,101,4640017,,,2021-09-08,清算の結了等,,,2015-10-05,1,,,,,シーケイジャパン,0
1038,4180301011518,登記記録の閉鎖等,0,2021-09-17,2021-09-15,株式会社プリエール＆インテリジェンス,,株式会社,愛知県,豊川市,正岡町縄手越１１３番地,,23,207,4420823,,,2021-09-15,清算の結了等,,,2015-10-05,1,,,,,プリエールアンドインテリジェンス,0
1048,4230003001274,登記記録の閉鎖等,0,2021-09-17,2021-09-14,合同会社リコリス,,合同会社,富山県,下新川郡入善町,芦崎３番地,,16,342,9390667,,,2021-09-14,清算の結了等,,,2018-12-20,1,,,,,リコリス,0
1053,4280001005058,登記記録の閉鎖等,0,2021-09-17,2021-09-10,太成産業株式会社,,株式会社,島根県,益田市,高津６丁目１３番３号,,32,204,6980041,,,2021-09-10,清算の結了等,,,2015-10-05,1,,,,,タイセイサンギョウ,0
1086,4380005000243,登記記録の閉鎖等,0,2021-09-17,2021-09-13,医療法人北福島クリニック,,その他の設立登記法人,福島県,福島市,飯坂町平野字平田８番地１,,07,201,9600231,,,2021-09-13,清算の結了等,,,2015-10-05,1,,,,,キタフクシマクリニック,0
1108,5010001054205,登記記録の閉鎖等,0,2021-09-17,2021-09-09,博英製版株式会社,,株式会社,東京都,中央区,新富１丁目９番６号,,13,102,1040041,,,2021-09-09,清算の結了等,,,2015-10-05,1,,,,,ハクエイセイハン,0
1149,5010902003862,登記記録の閉鎖等,0,2021-09-17,2021-09-13,有限会社ガーデン・タナカ,,有限会社,東京都,世田谷区,宇奈根１丁目３４番１５号,,13,112,1570068,,,2021-09-13,清算の結了等,,,2015-10-05,1,,,,,ガーデンタナカ,0
1152,5011001063410,登記記録の閉鎖等,0,2021-09-17,2021-09-02,株式会社コンテンツ・ファーム,,株式会社,東京都,渋谷区,東１丁目２６番２０号東京建物東渋谷ビルディング,,13,113,1500011,,,2021-09-02,清算の結了等,,,2015-10-05,1,,,,,コンテンツファーム,0
1153,5011001069589,登記記録の閉鎖等,0,2021-09-17,2021-09-01,株式会社マルマ,,株式会社,東京都,渋谷区,桜丘町２０番１号,,13,113,1500031,,,2021-09-01,清算の結了等,,,2015-10-05,1,,,,,マルマ,0
1209,5040002090246,登記記録の閉鎖等,0,2021-09-17,2021-09-10,有限会社鮨友,,有限会社,千葉県,柏市,十余二３１３番地の３９３,,12,217,2770872,,,2021-09-10,清算の結了等,,,2015-10-05,1,,,,,スシトモ,0
1211,5040002092283,登記記録の閉鎖等,0,2021-09-17,2021-09-10,有限会社アトラクス企画,,有限会社,千葉県,我孫子市,つくし野７丁目６番２号,,12,222,2701164,,,2021-09-10,清算の結了等,,,2015-10-05,1,,,,,アトラクスキカク,0
1225,5060002019937,登記記録の閉鎖等,0,2021-09-17,2021-09-13,有限会社鹿沼重布製造,,有限会社,栃木県,鹿沼市,茂呂２４４９番地１３,,09,205,3220026,,,2021-09-13,清算の結了等,,,2015-10-05,1,,,,,カヌマジュウフセイゾウ,0
1240,5080401014289,登記記録の閉鎖等,0,2021-09-17,2021-09-15,株式会社郷土新聞社,,株式会社,静岡県,掛川市,中央２丁目８番地の５,,22,213,4360056,,,2021-09-15,清算の結了等,,,2015-10-05,1,,,,,キョウドシンブンシャ,0
1247,5100002028363,登記記録の閉鎖等,0,2021-09-17,2021-09-15,有限会社諏訪コンタクトレンズセンター,,有限会社,長野県,諏訪市,大和３丁目５番５号,,20,206,3920001,,,2021-09-15,清算の結了等,,,2015-10-05,1,,,,,スワコンタクトレンズセンター,0
1258,5120001167136,登記記録の閉鎖等,0,2021-09-17,2021-09-13,株式会社東京アカデミー堺,,株式会社,大阪府,大阪市北区,角田町８番１号,,27,127,5300017,,,2021-09-13,合併による解散等,2010001138786,令和３年８月３１日東京都千代田区神田駿河台二丁目１番地２０大東廣告株式会社（2010001138786）に合併し解散,2015-10-05,1,,,,,,0
1271,5120102013453,登記記録の閉鎖等,0,2021-09-17,2021-09-14,有限会社イーティーシー,,有限会社,大阪府,堺市東区,大美野５６番地１３,,27,143,5998126,,,2021-09-14,清算の結了等,,,2015-10-05,1,,,,,イーティーシー,0
1308,5180005017579,登記記録の閉鎖等,0,2021-09-17,2021-09-13,一般社団法人Ｔｕｋｕｒｏｕｎｅ　Ｍｏｎｏ振興協会,,その他の設立登記法人,愛知県,名古屋市中川区,尾頭橋３丁目１８番５号,,23,110,4540012,,,2021-09-13,清算の結了等,,,2017-11-29,1,,,,,ツクロウネモノシンコウキョウカイ,0
1309,5180301028370,登記記録の閉鎖等,0,2021-09-17,2021-09-15,株式会社ＷＡＮ,,株式会社,愛知県,豊田市,小坂本町１丁目１４番地３,,23,211,4710034,,,2021-09-15,清算の結了等,,,2015-10-05,1,,,,,ワン,0
1313,5180302003281,登記記録の閉鎖等,0,2021-09-17,2021-09-10,レッドバロン福島有限会社,,有限会社,愛知県,岡崎市,大平町字市木２８番地,,23,202,4440007,,,2021-09-10,合併による解散等,2180301004127,令和３年９月１日愛知県岡崎市大平町字才勝８番地１株式会社ＲＢＨＤ（2180301004127）に合併し解散,2015-10-05,1,,,,,レッドバロンフクシマ,0
1318,5200002025904,登記記録の閉鎖等,0,2021-09-17,2021-09-14,有限会社プラネット,,有限会社,岐阜県,高山市,神明町３丁目２５番地,,21,203,5060821,,,2021-09-14,清算の結了等,,,2015-10-05,1,,,,,プラネット,0
1327,5240002012139,登記記録の閉鎖等,0,2021-09-17,2021-09-15,有限会社ニシダデンキ,,有限会社,広島県,広島市佐伯区,河内南２丁目１４番１３号,,34,108,7315153,,,2021-09-15,清算の結了等,,,2015-10-05,1,,,,,ニシダデンキ,0
1339,5290001050408,登記記録の閉鎖等,0,2021-09-17,2021-08-27,株式会社小郡サービス,,株式会社,福岡県,小郡市,福童２２３番地の１,,40,216,8380137,,,2021-08-27,清算の結了等,,,2015-10-05,1,,,,,オゴオリサービス,0
1358,5330001026436,登記記録の閉鎖等,0,2021-09-17,2021-09-15,株式会社中央会計パートナーズ,,株式会社,熊本県,熊本市中央区,下通２丁目３番１号,,43,101,8600807,,,2021-09-15,清算の結了等,,,2019-06-07,1,,,,,チュウオウカイケイパートナーズ,0
1362,5340001020256,登記記録の閉鎖等,0,2021-09-17,2021-09-13,株式会社石坂設備,,株式会社,鹿児島県,鹿児島市,坂之上１丁目１７番２８－１号,,46,201,8910150,,,2021-09-13,清算の結了等,,,2017-05-12,1,,,,,イシザカセツビ,0
1418,6010401038104,登記記録の閉鎖等,0,2021-09-17,2021-09-09,株式会社エキスパート・ブレーン,,株式会社,東京都,港区,芝４丁目１１番１号,,13,103,1080014,,,2021-09-09,清算の結了等,,,2015-10-05,1,,,,,,0
1429,6010501038037,登記記録の閉鎖等,0,2021-09-17,2021-09-09,株式会社ＡＣＰ,,株式会社,東京都,新宿区,新宿２丁目１５番２２号,,13,104,1600022,,,2021-09-09,清算の結了等,,,2015-10-05,1,,,,,エーシーピー,0
1439,6010801028885,登記記録の閉鎖等,0,2021-09-17,2021-09-08,株式会社ディス・イズ,,株式会社,東京都,大田区,千鳥１丁目２５番１０号,,13,111,1460083,,,2021-09-08,清算の結了等,,,2018-06-11,1,,,,,ディスイズ,0
1447,6011001134136,登記記録の閉鎖等,0,2021-09-17,2021-09-01,株式会社Ｓｅｎｒｉ,,株式会社,東京都,渋谷区,渋谷２丁目１４番１３号,,13,113,1500002,,,2021-09-01,合併による解散等,5011001104899,令和３年９月１日東京都渋谷区渋谷二丁目１４番１３号株式会社ＢＬＡＭ（5011001104899）に合併し解散,2020-06-15,1,,,,,センリ,0
1469,6011801000446,登記記録の閉鎖等,0,2021-09-17,2021-09-16,株式会社イメージセンス,,株式会社,東京都,葛飾区,東立石４丁目８番１－２０４号,,13,122,1240013,,,2021-09-16,清算の結了等,,,2015-10-05,1,,,,,イメージセンス,0
1472,6012301011322,登記記録の閉鎖等,0,2021-09-17,2021-09-07,株式会社Ｂ－Ｄｒｅａｍ,,株式会社,東京都,町田市,つくし野１丁目２２番地１つくし野プラザＡ１０７,,13,209,1940001,,,2021-09-07,清算の結了等,,,2018-03-13,1,,,,,ビードリーム,0
1477,6013301044485,登記記録の閉鎖等,0,2021-09-17,2021-09-10,むらやま母子保健サービス株式会社,,株式会社,東京都,豊島区,目白３丁目１２番１１号,,13,116,1710031,,,2021-09-10,清算の結了等,,,2019-09-17,1,,,,,ムラヤマボシホケンサービス,0
1478,6020001035038,登記記録の閉鎖等,0,2021-09-17,2021-09-10,株式会社フェスト,,株式会社,神奈川県,横浜市磯子区,洋光台２丁目３番１０－２０３号,,14,107,2350045,,,2021-09-10,清算の結了等,,,2015-10-05,1,,,,,フェスト,0
1485,6020002076527,登記記録の閉鎖等,0,2021-09-17,2021-09-07,有限会社ＩＴＩＳ,,有限会社,神奈川県,横浜市保土ケ谷区,峰岡町２丁目１７３番地,,14,106,2400064,,,2021-09-07,清算の結了等,,,2015-10-05,1,,,,,アイティアイエス,0
1487,6020003005682,登記記録の閉鎖等,0,2021-09-17,2021-09-10,合資会社池田屋,,合資会社,神奈川県,川崎市多摩区,登戸１８４８番地,,14,135,2140014,,,2021-09-10,清算の結了等,,,2015-10-05,1,,,,,イケダヤ,0
1514,6040002073282,登記記録の閉鎖等,0,2021-09-17,2021-09-10,有限会社小林水道,,有限会社,千葉県,市原市,海士有木１２３０－５,,12,219,2900207,,,2021-09-10,清算の結了等,,,2015-10-05,1,,,,,コバヤシスイドウ,0
1518,6050001007926,登記記録の閉鎖等,0,2021-09-17,2021-09-13,大嶋石材株式会社,,株式会社,茨城県,笠間市,来栖５０番地２,,08,216,3091625,,,2021-09-13,清算の結了等,,,2015-10-05,1,,,,,オオシマセキザイ,0
1536,6110001007011,登記記録の閉鎖等,0,2021-09-17,2021-09-14,株式会社ミツヒロ製作所,,株式会社,新潟県,新潟市東区,津島屋７丁目６７番地,,15,102,9500801,,,2021-09-14,清算の結了等,,,2015-10-05,1,,,,,ミツヒロセイサクジョ,0
1538,6110001009602,登記記録の閉鎖等,0,2021-09-17,2021-09-14,株式会社明翔学院,,株式会社,新潟県,新潟市中央区,南笹口１丁目１番１２号,,15,103,9500912,,,2021-09-14,清算の結了等,,,2015-10-05,1,,,,,メイショウガクイン,0
1542,6120001130679,登記記録の閉鎖等,0,2021-09-17,2021-09-10,株式会社伸恵,,株式会社,大阪府,大阪市平野区,瓜破西２丁目１０番２号,,27,126,5470025,,,2021-09-10,清算の結了等,,,2015-10-05,1,,,,,,0
1552,6120901029558,登記記録の閉鎖等,0,2021-09-17,2021-09-16,株式会社真正,,株式会社,大阪府,豊中市,東豊中町６丁目１８番８号,,27,203,5600003,,,2021-09-16,清算の結了等,,,2015-10-05,1,,,,,,0
1564,6140002047755,登記記録の閉鎖等,0,2021-09-17,2021-09-13,有限会社エム・シー,,有限会社,兵庫県,姫路市,新在家本町５丁目８番１８号,,28,201,6700092,,,2021-09-13,清算の結了等,,,2015-10-05,1,,,,,エムシー,0
1578,6180001004992,登記記録の閉鎖等,0,2021-09-17,2021-09-14,日興産業株式会社,,株式会社,愛知県,名古屋市千種区,松軒１丁目２番１２号,,23,101,4640084,,,2021-09-14,清算の結了等,,,2015-10-05,1,,,,,ニッコウサンギョウ,0
1579,6180001084408,登記記録の閉鎖等,0,2021-09-17,2021-09-14,株式会社丸善アパレル,,株式会社,愛知県,一宮市,三条字安１０番地,,23,203,4940003,,,2021-09-14,清算の結了等,,,2015-10-05,1,,,,,マルゼンアパレル,0
1581,6180001104058,登記記録の閉鎖等,0,2021-09-17,2021-09-15,機能性食品開発研究所株式会社,,株式会社,岐阜県,瑞穂市,穂積１７０７番地１,,21,216,5010223,,,2021-09-15,清算の結了等,,,2015-10-05,1,,,,,キノウセイショクヒンカイハツケンキュウショ,0
1582,6180001108703,登記記録の閉鎖等,0,2021-09-17,2021-09-13,株式会社ワークオン,,株式会社,愛知県,名古屋市名東区,梅森坂西１丁目５０３番地県営梅森坂住宅３棟１０２号,,23,115,4650066,,,2021-09-13,清算の結了等,,,2015-10-05,1,,,,,ワークオン,0
1586,6180002012425,登記記録の閉鎖等,0,2021-09-17,2021-09-10,有限会社フェニックス,,有限会社,愛知県,名古屋市北区,若鶴町３４４番地の３,,23,103,4620006,,,2021-09-10,清算の結了等,,,2015-10-05,1,,,,,フェニックス,0
1594,6220001010400,登記記録の閉鎖等,0,2021-09-17,2021-09-14,株式会社トーアエージェンシー,,株式会社,石川県,野々市市,御経塚４丁目１１７番地,,17,212,9218801,,,2021-09-14,清算の結了等,,,2015-10-05,1,,,,,トーアエージェンシー,0
1596,6230001000540,登記記録の閉鎖等,0,2021-09-17,2021-09-14,株式会社オートパーツ北陸,,株式会社,富山県,富山市,荒川３丁目３番１２号,,16,201,9300982,,,2021-09-14,清算の結了等,,,2015-10-05,1,,,,,オートパーツホクリク,0
1603,6260002018959,登記記録の閉鎖等,0,2021-09-17,2021-09-15,有限会社スギハラエンジニアリング,,有限会社,岡山県,倉敷市,宮前３７０番地の６,,33,202,7100065,,,2021-09-15,清算の結了等,,,2015-10-05,1,,,,,スギハラエンジニアリング,0
1637,6430002052767,登記記録の閉鎖等,0,2021-09-17,2021-09-10,有限会社西保電気工事,,有限会社,北海道,滝川市,幸町１丁目８番２５号,,01,225,0730043,,,2021-09-10,清算の結了等,,,2015-10-05,1,,,,,ニシホデンキコウジ,0
1639,6460102007305,登記記録の閉鎖等,0,2021-09-17,2021-09-16,株式会社銀龍,,株式会社,北海道,河東郡音更町,字下音更北５線西１７番地１６,,01,631,0800342,,,2021-09-16,清算の結了等,,,2015-10-05,1,,,,,ギンリュウ,0
1642,6470002001729,登記記録の閉鎖等,0,2021-09-17,2021-09-14,有限会社オーニシ・トラベルサービス,,有限会社,香川県,高松市,亀岡町１５番１５号,,37,201,7600006,,,2021-09-14,清算の結了等,,,2015-10-05,1,,,,,オーニシトラベルサービス,0
1644,6480002008005,登記記録の閉鎖等,0,2021-09-17,2021-09-13,ネクストクリエイション株式会社,,株式会社,徳島県,小松島市,金磯町１０番１４号,,36,203,7730007,,,2021-09-13,清算の結了等,,,2015-10-05,1,,,,,ネクストクリエイション,0
1652,7010001074317,登記記録の閉鎖等,0,2021-09-17,2021-09-07,物産化学品インフォロジ株式会社,,株式会社,東京都,千代田区,大手町１丁目２番１号,,13,101,1000004,,,2021-09-07,清算の結了等,,,2015-10-05,1,,,,,ブッサンカガクヒンインフォロジ,0
1663,7010002001435,登記記録の閉鎖等,0,2021-09-17,2021-09-07,有限会社カイ・コーポレーション,,有限会社,東京都,文京区,本郷１丁目１５番２号,,13,105,1130033,,,2021-09-07,清算の結了等,,,2015-10-05,1,,,,,カイコーポレーション,0
1737,7013201019198,登記記録の閉鎖等,0,2021-09-17,2021-09-13,株式会社ゼンデン,,株式会社,東京都,調布市,若葉町２丁目２３番地４６,,13,208,1820003,,,2021-09-13,清算の結了等,,,2015-10-05,1,,,,,ゼンデン,0
1738,7013301039419,登記記録の閉鎖等,0,2021-09-17,2021-09-10,株式会社ピュアストリーム,,株式会社,東京都,豊島区,西池袋３丁目６番１８号,,13,116,1710021,,,2021-09-10,清算の結了等,,,2016-09-13,1,,,,,ピュアストリーム,0
1750,7020003009872,登記記録の閉鎖等,0,2021-09-17,2021-09-13,合同会社ケイケイコンサルタント,,合同会社,神奈川県,横浜市港北区,樽町３丁目２番２１－Ｂ７１０号,,14,109,2220001,,,2021-09-13,清算の結了等,,,2015-10-05,1,,,,,ケイケイコンサルタント,0
1758,7030001007027,登記記録の閉鎖等,0,2021-09-17,2021-09-14,株式会社ビューティドラッグサイトウ,,株式会社,埼玉県,さいたま市浦和区,常盤９丁目３２番２０号,,11,107,3300061,,,2021-09-14,合併による解散等,7290001008379,令和３年９月１日福岡市中央区天神二丁目１４番８号総合メディカル株式会社（7290001008379）に合併し解散,2015-10-05,1,,,,,ビューティドラッグサイトウ,0
1768,7040001021794,登記記録の閉鎖等,0,2021-09-17,2021-09-10,センバ工業株式会社,,株式会社,千葉県,船橋市,高根台３丁目２番地１９２棟５号,,12,204,2740065,,,2021-09-10,清算の結了等,,,2015-10-05,1,,,,,,0
1777,7040002031669,登記記録の閉鎖等,0,2021-09-17,2021-09-02,有限会社ハート,,有限会社,東京都,墨田区,江東橋３丁目３番５号,,13,107,1300022,,,2021-09-02,清算の結了等,,,2015-10-05,1,,,,,ハート,0
1783,7050001017404,登記記録の閉鎖等,0,2021-09-17,2021-09-07,株式会社撫菜,,株式会社,茨城県,つくば市,西高野１１００番地１３,,08,220,3002613,,,2021-09-07,清算の結了等,,,2015-10-05,1,,,,,ナデナ,0
1785,7050001044357,登記記録の閉鎖等,0,2021-09-17,2021-09-09,株式会社かわひで,,株式会社,神奈川県,川崎市中原区,小杉御殿町２丁目１１０番地１－２０２号,,14,133,2110068,,,2021-09-09,清算の結了等,,,2018-04-26,1,,,,,カワヒデ,0
1787,7050003004251,登記記録の閉鎖等,0,2021-09-17,2021-09-10,合同会社ＶＩＣＴＯＲＹ,,合同会社,茨城県,水戸市,百合が丘町９番地の１３,,08,201,3111134,,,2021-09-10,清算の結了等,,,2018-06-26,1,,,,,ビクトリー,0
1850,7130001002562,登記記録の閉鎖等,0,2021-09-17,2021-09-13,株式会社岩田染工,,株式会社,京都府,京都市上京区,大宮通西裏芦山寺上る２丁目竪社南半町２４０番地,,26,102,6020099,,,2021-09-13,清算の結了等,,,2015-10-05,1,,,,,イワタセンコウ,0
1853,7130002015019,登記記録の閉鎖等,0,2021-09-17,2021-09-15,有限会社ミオ,,有限会社,京都府,京都市伏見区,深草稲荷御前町９３番地,,26,109,6120881,,,2021-09-15,清算の結了等,,,2015-10-05,1,,,,,ミオ,0
1855,7130005011898,登記記録の閉鎖等,0,2021-09-17,2021-09-14,公益財団法人舞鶴市花と緑の公社,,その他の設立登記法人,京都府,舞鶴市,大字多祢寺小字古濱２４番地１２,,26,202,6250000,,,2021-09-14,清算の結了等,,,2015-10-05,1,,,,,マイヅルシハナトミドリノコウシャ,0
1877,7190001016565,登記記録の閉鎖等,0,2021-09-17,2021-09-15,明和薬品販売株式会社,,株式会社,三重県,四日市市,馳出町１丁目１２番地,,24,202,5100855,,,2021-09-15,清算の結了等,,,2015-10-05,1,,,,,メイワヤクヒンハンバイ,0
1887,7240001054642,登記記録の閉鎖等,0,2021-09-17,2021-09-14,株式会社ＳＡＫＫＡ　ＦＩＲＳＴ,,株式会社,広島県,広島市西区,大芝２丁目９番２号,,34,104,7330001,,,2021-09-14,清算の結了等,,,2019-07-04,1,,,,,サッカファースト,0
1894,7260002007424,登記記録の閉鎖等,0,2021-09-17,2021-09-15,有限会社ニシゼン,,有限会社,岡山県,岡山市北区,今７丁目３番３号,,33,101,7000975,,,2021-09-15,清算の結了等,,,2015-10-05,1,,,,,ニシゼン,0
1908,7290003009318,登記記録の閉鎖等,0,2021-09-17,2021-08-19,ＭＵＫＡＳＨＩ合同会社,,合同会社,福岡県,糸島市,志摩師吉２７－７,,40,230,8191314,,,2021-08-19,清算の結了等,,,2019-09-03,1,,,,,ムカシ,0
1926,7360003006893,登記記録の閉鎖等,0,2021-09-17,2021-09-10,合同会社琉喜ハウス,,合同会社,沖縄県,うるま市,字喜屋武１９番地１金城店舗１０１号室,,47,213,9042225,,,2021-09-10,清算の結了等,,,2015-10-05,1,,,,,リュウキハウス,0
1928,7360003009979,登記記録の閉鎖等,0,2021-09-17,2021-09-13,合同会社ほとラボ,,合同会社,沖縄県,宜野湾市,字真志喜５９７サザン・ウインド６０４号室,,47,205,9012224,,,2021-09-13,清算の結了等,,,2019-12-18,1,,,,,ホトラボ,0
1930,7370001039507,登記記録の閉鎖等,0,2021-09-17,2021-09-08,モバイルプランニング株式会社,,株式会社,宮城県,名取市,ゆりが丘１丁目９番地の１２,,04,207,9811245,,,2021-09-08,清算の結了等,,,2016-04-21,1,,,,,モバイルプランニング,0
1939,7410003001781,登記記録の閉鎖等,0,2021-09-17,2021-09-09,合名会社西村醸造店,,合名会社,秋田県,能代市,日吉町１４番２８号,,05,202,0160811,,,2021-09-09,清算の結了等,,,2015-10-05,1,,,,,ニシムラジョウゾウテン,0
1944,7450001000732,登記記録の閉鎖等,0,2021-09-17,2021-09-16,株式会社カベチ商会,,株式会社,北海道,旭川市,豊岡十三条８丁目８番１０号,,01,204,0788243,,,2021-09-16,清算の結了等,,,2015-10-05,1,,,,,カベチショウカイ,0
1950,7470002004136,登記記録の閉鎖等,0,2021-09-17,2021-09-15,有限会社高松第一フロント,,有限会社,香川県,高松市,屋島西町２４５３番地２４,,37,201,7610113,,,2021-09-15,清算の結了等,,,2015-10-05,1,,,,,タカマツダイイチフロント,0
1951,7470002006330,登記記録の閉鎖等,0,2021-09-17,2021-09-15,有限会社松井食糧販売所,,有限会社,香川県,高松市,木太町３１０９番地の２,,37,201,7600080,,,2021-09-15,清算の結了等,,,2015-10-05,1,,,,,マツイショクリョウハンバイショ,0
1965,8010001194790,登記記録の閉鎖等,0,2021-09-17,2021-09-09,株式会社ｓｏｔｏｋｏｔｏ　ｏｎｌｉｎｅ,,株式会社,東京都,千代田区,神田小川町２丁目１番地２,,13,101,1010052,,,2021-09-09,合併による解散等,6010001195568,令和３年９月１日東京都千代田区神田小川町二丁目１番地２株式会社ソトコト・プラネット（6010001195568）に合併し解散,2018-09-12,1,,,,,ソトコトオンライン,0
1981,8010405018273,登記記録の閉鎖等,0,2021-09-17,2021-09-10,一般社団法人としま,,その他の設立登記法人,東京都,港区,元赤坂１丁目１番８号赤坂コミュニティビル４階,,13,103,1070051,,,2021-09-10,清算の結了等,,,2019-11-20,1,,,,,トシマ,0
2061,8030002089930,登記記録の閉鎖等,0,2021-09-17,2021-09-07,有限会社魚竹,,有限会社,埼玉県,吉川市,栄町７５８番地,,11,243,3420050,,,2021-09-07,清算の結了等,,,2015-10-05,1,,,,,ウオタケ,0
2082,8050005000132,登記記録の閉鎖等,0,2021-09-17,2021-09-13,茨城県漁業協同組合連合会,00123982,その他の設立登記法人,茨城県,水戸市,三の丸１丁目１番３３号,,08,201,3100011,,,2021-09-13,清算の結了等,,,2021-08-27,1,,,,,イバラキケン,0
2098,8110002011456,登記記録の閉鎖等,0,2021-09-17,2021-09-10,有限会社八千代家具,,有限会社,新潟県,新潟市中央区,古町通４番町６４０番地,,15,103,9518063,,,2021-09-10,清算の結了等,,,2015-10-05,1,,,,,ヤチヨカグ,0
2101,8120001159361,登記記録の閉鎖等,0,2021-09-17,2021-09-08,シゲル興産株式会社,,株式会社,大阪府,門真市,末広町８番１３号,,27,223,5710030,,,2021-09-08,清算の結了等,,,2015-10-05,1,,,,,シゲルコウサン,0
2103,8120002019052,登記記録の閉鎖等,0,2021-09-17,2021-09-10,有限会社野田マンシヨン,,有限会社,大阪府,大阪市福島区,玉川２丁目１１番２３号,,27,103,5530004,,,2021-09-10,清算の結了等,,,2015-10-05,1,,,,,ノダマンション,0
2105,8120002081358,登記記録の閉鎖等,0,2021-09-17,2021-09-10,有限会社訪問看護ステーション盛永,,有限会社,大阪府,守口市,佐太中町６丁目５番１５号,,27,209,5700002,,,2021-09-10,清算の結了等,,,2015-10-05,1,,,,,ホウモンカンゴステーションモリナガ,0
2122,8130001054710,登記記録の閉鎖等,0,2021-09-17,2021-09-13,株式会社アートオンライン,,株式会社,京都府,京都市右京区,西院西矢掛町１８番地,,26,108,6150025,,,2021-09-13,清算の結了等,,,2015-10-05,1,,,,,アートオンライン,0
2130,8150001000365,登記記録の閉鎖等,0,2021-09-17,2021-09-13,栄光建物株式会社,,株式会社,奈良県,奈良市,三碓６丁目６番６号,,29,201,6310061,,,2021-09-13,清算の結了等,,,2015-10-05,1,,,,,エイコウタテモノ,0
2153,8200002011298,登記記録の閉鎖等,0,2021-09-17,2021-09-16,有限会社森鈑金工業所,,有限会社,岐阜県,羽島郡岐南町,平島３丁目１１０番地,,21,302,5016003,,,2021-09-16,清算の結了等,,,2015-10-05,1,,,,,モリバンキンコウギョウショ,0
2168,8250002013843,登記記録の閉鎖等,0,2021-09-17,2021-09-15,有限会社村岡家具店,,有限会社,山口県,長門市,東深川１３１６番地の２,,35,211,7594101,,,2021-09-15,清算の結了等,,,2015-10-05,1,,,,,ムラオカカグテン,0
2173,8260005001464,登記記録の閉鎖等,0,2021-09-17,2021-09-15,協同組合光グループ,,その他の設立登記法人,岡山県,岡山市東区,瀬戸町江尻１０５０番地,,33,103,7090854,,,2021-09-15,清算の結了等,,,2015-10-05,1,,,,,ヒカリグループ,0
2174,8290001062557,登記記録の閉鎖等,0,2021-09-17,2021-09-01,株式会社プレゼンス,,株式会社,福岡県,福岡市博多区,中洲５丁目３番８号アクア博多６Ｆ,,40,132,8100801,,,2021-09-01,合併による解散等,7290001066435,令和３年９月１日福岡市博多区中洲五丁目３番８号アクア博多６Ｆ株式会社ＬＡＮＤＩＣレジデンシャル（7290001066435）に合併し解散,2015-10-05,1,,,,,プレゼンス,0
2187,8310001005018,登記記録の閉鎖等,0,2021-09-17,2021-09-16,株式会社ティーズ,,株式会社,長崎県,長崎市,丸山町５番２－６０１号,,42,201,8500902,,,2021-09-16,清算の結了等,,,2015-10-05,1,,,,,ティーズ,0
2195,8330002025979,登記記録の閉鎖等,0,2021-09-17,2021-09-15,新産商事有限会社,,有限会社,熊本県,八代市,本町１丁目１３番２０号,,43,202,8660861,,,2021-09-15,清算の結了等,,,2015-10-05,1,,,,,シンサンショウジ,0
2212,8370003004037,登記記録の閉鎖等,0,2021-09-17,2021-09-07,合同会社リサーチ東北,,合同会社,宮城県,仙台市太白区,茂庭台５丁目１０番３号,,04,104,9820252,,,2021-09-07,清算の結了等,,,2017-12-25,1,,,,,リサーチトウホク,0
2217,8380003000976,登記記録の閉鎖等,0,2021-09-17,2021-09-13,合名会社山城屋商店,,合名会社,福島県,いわき市,中央台鹿島３丁目５５番地の７,,07,204,9708043,,,2021-09-13,清算の結了等,,,2015-10-05,1,,,,,ヤマシロヤショウテン,0
2219,8410001003424,登記記録の閉鎖等,0,2021-09-17,2021-09-09,湖東瓦斯株式会社,,株式会社,秋田県,潟上市,昭和豊川竜毛字下斉藤田６４番地,,05,211,0181415,,,2021-09-09,清算の結了等,,,2015-10-05,1,,,,,コトウガス,0
2230,8460301003680,登記記録の閉鎖等,0,2021-09-17,2021-09-10,株式会社彩フードシステム,,株式会社,北海道,斜里郡斜里町,港町１番地,,01,545,0994112,,,2021-09-10,合併による解散等,3460301003594,令和３年９月１０日北海道斜里郡斜里町港町１番地株式会社斜里工房しれとこ屋（3460301003594）に合併し解散,2015-10-05,1,,,,,サイフードシステム,0
2242,9010001191738,登記記録の閉鎖等,0,2021-09-17,2021-09-09,株式会社ＭＡＤＵＲＯ　ＯＮＬＩＮＥ,,株式会社,東京都,千代田区,神田小川町２丁目１番地２,,13,101,1010052,,,2021-09-09,合併による解散等,6010001195568,令和３年９月１日東京都千代田区神田小川町二丁目１番地２株式会社ソトコト・プラネット（6010001195568）に合併し解散,2018-05-15,1,,,,,マデュロオンライン,0
2246,9010101014724,登記記録の閉鎖等,0,2021-09-17,2021-09-14,株式会社アイズコード,,株式会社,東京都,八王子市,八日町１０番８－１３１０号,,13,201,1920071,,,2021-09-14,清算の結了等,,,2021-06-22,1,,,,,アイズコード,0
2266,9010902006151,登記記録の閉鎖等,0,2021-09-17,2021-09-10,有限会社ゴリラ・サウンド,,有限会社,東京都,世田谷区,北沢５丁目１番７－１０２号,,13,112,1550031,,,2021-09-10,清算の結了等,,,2015-10-05,1,,,,,ゴリラサウンド,0
2271,9011101040850,登記記録の閉鎖等,0,2021-09-17,2021-09-09,日本ティブコソフトウェア株式会社,,株式会社,東京都,港区,港南２丁目１６番１号品川イーストワンタワー,,13,103,1080075,,,2021-09-09,清算の結了等,,,2015-10-05,1,,,,,ニホンティブコソフトウェア,0
2276,9011302000991,登記記録の閉鎖等,0,2021-09-17,2021-09-10,有限会社市川ビジネスサービス,,有限会社,東京都,杉並区,阿佐谷南１丁目１４番１２号パティオ・エルスールビル３０２号,,13,115,1660004,,,2021-09-10,清算の結了等,,,2015-10-05,1,,,,,,0
2282,9011603000848,登記記録の閉鎖等,0,2021-09-17,2021-09-16,合資会社たんさく,,合資会社,東京都,練馬区,練馬３丁目１０番８号タンジェリンＯＥＤＯ１０７,,13,120,1760001,,,2021-09-16,清算の結了等,,,2015-10-05,1,,,,,タンサク,0
2285,9011703002802,登記記録の閉鎖等,0,2021-09-17,2021-09-13,合同会社ウェーブ,,合同会社,東京都,江戸川区,北葛西２丁目９番１９号フローラ北葛西２０５,,13,123,1340081,,,2021-09-13,清算の結了等,,,2021-03-18,1,,,,,ウェーブ,0
2289,9012403000179,登記記録の閉鎖等,0,2021-09-17,2021-09-03,合資会社クイックラーニング,,合資会社,東京都,国分寺市,南町３丁目１８番１号松本ビル,,13,214,1850021,,,2021-09-03,清算の結了等,,,2015-10-05,1,,,,,,0
2310,9020003012544,登記記録の閉鎖等,0,2021-09-17,2021-09-10,坂東市太陽光発電所合同会社,,合同会社,神奈川県,横浜市金沢区,片吹５４番９２号,,14,108,2360055,,,2021-09-10,清算の結了等,,,2017-03-23,1,,,,,バンドウシタイヨウコウハツデンショ,0
2331,9050002008012,登記記録の閉鎖等,0,2021-09-17,2021-09-10,有限会社リバース,,有限会社,茨城県,ひたちなか市,大字長砂１５４６番地３,,08,221,3120004,,,2021-09-10,清算の結了等,,,2015-10-05,1,,,,,リバース,0
2332,9050002031666,登記記録の閉鎖等,0,2021-09-17,2021-09-10,有限会社サンコー,,有限会社,茨城県,日立市,諏訪町１丁目７番１５－１０５号,,08,202,3160001,,,2021-09-10,清算の結了等,,,2015-10-05,1,,,,,サンコー,0
2338,9080001000446,登記記録の閉鎖等,0,2021-09-17,2021-09-16,株式会社一誠堂静岡店,,株式会社,静岡県,静岡市葵区,瀬名中央１丁目１１番２２号,,22,101,4200916,,,2021-09-16,清算の結了等,,,2015-10-05,1,,,,,イッセイドウシズオカテン,0
2347,9080402016314,登記記録の閉鎖等,0,2021-09-17,2021-09-13,有限会社角二材木店,,有限会社,静岡県,浜松市天竜区,二俣町二俣１０６５番地,,22,137,4313314,,,2021-09-13,清算の結了等,,,2015-10-05,1,,,,,カクニザイモクテン,0
2348,9080402017452,登記記録の閉鎖等,0,2021-09-17,2021-09-14,有限会社スルガ工業,,有限会社,静岡県,掛川市,大野４８６番地の３６,,22,213,4360009,,,2021-09-14,清算の結了等,,,2015-10-05,1,,,,,スルガコウギョウ,0
2358,9120001088849,登記記録の閉鎖等,0,2021-09-17,2021-09-10,株式会社ブリタニア,,株式会社,大阪府,大阪市中央区,島之内１丁目１８番３号三栄ビル４階,,27,128,5420082,,,2021-09-10,清算の結了等,,,2015-10-05,1,,,,,,0
2386,9130001048810,登記記録の閉鎖等,0,2021-09-17,2021-09-14,株式会社ドクタートキコ京都,,株式会社,京都府,京都市下京区,四条通高倉西入立売西町７６番地アソベビル８階,,26,106,6008007,,,2021-09-14,合併による解散等,1120001122367,令和３年９月１日大阪市中央区南船場四丁目７番６号心斎橋中央ビル６階株式会社ドクタートキコ（1120001122367）に合併し解散,2015-10-05,1,,,,,ドクタートキコキョウト,0
2392,9140002010818,登記記録の閉鎖等,0,2021-09-17,2021-09-13,有限会社岩城商店,,有限会社,兵庫県,神戸市兵庫区,中之島１丁目１番１号,,28,105,6520844,,,2021-09-13,清算の結了等,,,2015-10-05,1,,,,,,0
2412,9180301024077,登記記録の閉鎖等,0,2021-09-17,2021-09-15,株式会社星原塾,,株式会社,愛知県,新城市,字町並２７４番地２,,23,221,4411374,,,2021-09-15,清算の結了等,,,2015-10-05,1,,,,,ホシハラジュク,0
2416,9190005011354,登記記録の閉鎖等,0,2021-09-17,2021-09-15,一般社団法人ベルーガ,,その他の設立登記法人,三重県,鈴鹿市,三宅町２３６５番地の２,,24,207,5100265,,,2021-09-15,清算の結了等,,,2019-08-08,1,,,,,ベルーガ,0
2423,9230002000025,登記記録の閉鎖等,0,2021-09-17,2021-09-14,有限会社エフ・ケイ・エフコーポレィション,,有限会社,富山県,富山市,高木１２８８番地の１,,16,201,9300106,,,2021-09-14,清算の結了等,,,2015-10-05,1,,,,,エフケイエフコーポレィション,0
2438,9260002002547,登記記録の閉鎖等,0,2021-09-17,2021-09-14,有限会社柏和産業,,有限会社,岡山県,岡山市北区,玉柏２１０５番地の２,,33,101,7012142,,,2021-09-14,清算の結了等,,,2015-10-05,1,,,,,ハクワサンギョウ,0
2442,9290001068339,登記記録の閉鎖等,0,2021-09-17,2021-09-01,株式会社ＬＲＴ,,株式会社,福岡県,福岡市博多区,中洲５丁目３番８号アクア博多６Ｆ,,40,132,8100801,,,2021-09-01,合併による解散等,2290001064542,令和３年９月１日福岡市博多区中洲五丁目３番８号アクア博多６Ｆ株式会社ＬＡＮＤＩＣアセット・モール（2290001064542）に合併し解散,2015-10-05,1,,,,,エルアールティー,0
2455,9310002004315,登記記録の閉鎖等,0,2021-09-17,2021-09-15,有限会社白十字薬局,,有限会社,長崎県,長崎市,若葉町１６番１８号,,42,201,8528137,,,2021-09-15,清算の結了等,,,2015-10-05,1,,,,,ハクジュウジヤッキョク,0
2462,9340002001400,登記記録の閉鎖等,0,2021-09-17,2021-09-16,有限会社インテリアピック,,有限会社,鹿児島県,鹿児島市,城山町１９番１６号なごみマンション城山２０３号,,46,201,8920853,,,2021-09-16,清算の結了等,,,2015-10-05,1,,,,,インテリアピック,0
2467,9360003010786,登記記録の閉鎖等,0,2021-09-17,2021-09-08,合同会社レンタサービス,,合同会社,沖縄県,那覇市,曙１丁目１０－１,,47,201,9000002,,,2021-09-08,清算の結了等,,,2021-01-06,1,,,,,,0
2471,9370002013715,登記記録の閉鎖等,0,2021-09-17,2021-09-06,有限会社實産業社,,有限会社,宮城県,仙台市青葉区,本町１丁目９番５号,,04,101,9800014,,,2021-09-06,清算の結了等,,,2015-10-05,1,,,,,ミノルサンギョウシャ,0
2474,9400502001298,登記記録の閉鎖等,0,2021-09-17,2021-09-15,有限会社馬千郷,,有限会社,岩手県,一関市,千厩町千厩字摩王６番地１７,00085854,03,209,0290803,,,2021-09-15,清算の結了等,,,2015-10-05,1,,,,,バセンキョウ,0
2476,9430001050380,登記記録の閉鎖等,0,2021-09-17,2021-09-10,株式会社本間忠男商店,,株式会社,北海道,小樽市,色内２丁目１６番５号,,01,203,0470031,,,2021-09-10,清算の結了等,,,2015-10-05,1,,,,,ホンマタダオショウテン,0
