sequenceNumber,corporateNumber,process,correct,updateDate,changeDate,name,nameImageId,kind,prefectureName,cityName,streetNumber,addressImageId,prefectureCode,cityCode,postCode,addressOutside,addressOutsideImageId,closeDate,closeCause,successorCorporateNumber,changeCause,assignmentDate,latest,enName,enPrefectureName,enCityName,enAddressOutside,furigana,hihyoji
13,1010001228745,新規,0,2022-08-16,2022-08-16,株式会社スムマ,,株式会社,東京都,千代田区,紀尾井町３番地３３－６階,,13,101,1020094,,,,,,,2022-08-16,1,,,,,スムマ,0
14,1010001228844,新規,0,2022-08-16,2022-08-16,株式会社メディックスアーム神奈川,,株式会社,東京都,千代田区,神田淡路町１丁目１番１号,,13,101,1010063,,,,,,,2022-08-16,1,,,,,メディックスアームカナガワ,0
18,1010003038408,新規,0,2022-08-16,2022-08-16,ポナハロ合同会社,,合同会社,東京都,中央区,銀座７丁目１３番６号サガミビル２階,,13,102,1040061,,,,,,,2022-08-16,1,,,,,ポナハロ,0
19,1010005035436,新規,0,2022-08-16,2022-08-16,一般社団法人ＡＯエナジー,,その他の設立登記法人,東京都,千代田区,丸の内１丁目７番１２号サピアタワー１８階,,13,101,1000005,,,,,,,2022-08-16,1,,,,,エーオーエナジー,0
25,1010401169119,新規,0,2022-08-16,2022-08-16,株式会社ＶＯＸＸ,,株式会社,東京都,港区,赤坂５丁目３番６号,,13,103,1070052,,,,,,,2022-08-16,1,,,,,ボックス,0
27,1010403028198,新規,0,2022-08-16,2022-08-16,合同会社ＯＨＫ,,合同会社,東京都,港区,赤坂９丁目４番１－２００５号,,13,103,1070052,,,,,,,2022-08-16,1,,,,,オーエイチケー,0
28,1010403028280,新規,0,2022-08-16,2022-08-16,合同会社トリコ,,合同会社,東京都,港区,白金台５丁目５番２－７０５号,,13,103,1080071,,,,,,,2022-08-16,1,,,,,トリコ,0
29,1010403028306,新規,0,2022-08-16,2022-08-16,Ｇａｒｄｅｎ　Ｈｉｌｌｓ　ＰＳ合同会社,,合同会社,東京都,港区,六本木１丁目９番１０号アークヒルズ仙石山森タワー４０階ＳａｎｎｅＧｒｏｕｐＪａｐａｎ株式会社内,,13,103,1060032,,,,,,,2022-08-16,1,,,,,ガーデンヒルズピーエス,0
30,1010405021234,新規,0,2022-08-16,2022-08-16,一般社団法人病院運営効率化推進協議会,,その他の設立登記法人,東京都,港区,港南２丁目１５番１号品川インターシティＡ棟２８階,,13,103,1080075,,,,,,,2022-08-16,1,,,,,ビョウインウンエイコウリツカスイシンキョウギカイ,0
31,1010405021242,新規,0,2022-08-16,2022-08-16,ジー・ジェイ・レジデンス・イレブン一般社団法人,,その他の設立登記法人,東京都,港区,六本木１丁目９番１０号アークヒルズ仙石山森タワー４０階,,13,103,1060032,,,,,,,2022-08-16,1,,,,,ジージェイレジデンスイレブン,0
32,1010501049245,新規,0,2022-08-16,2022-08-16,株式会社ワダブシ動画オフィス,,株式会社,東京都,台東区,谷中２丁目１６－１１ビレッジ谷中Ｂ２０３,,13,106,1100001,,,,,,,2022-08-16,1,,,,,ワダブシドウガオフィス,0
34,1010603009683,新規,0,2022-08-16,2022-08-16,合同会社ＦＭＹ,,合同会社,東京都,江東区,枝川１丁目１番４－６０１号,,13,108,1350051,,,,,,,2022-08-16,1,,,,,エフエムワイ,0
35,1010603009691,新規,0,2022-08-16,2022-08-16,ＴＨＣＨＫ合同会社,,合同会社,東京都,江東区,北砂４丁目１５番２４号,,13,108,1360073,,,,,,,2022-08-16,1,,,,,ティーエイチシーエイチケー,0
40,1010901051354,新規,0,2022-08-16,2022-08-16,株式会社ＯＨＣ,,株式会社,東京都,世田谷区,太子堂５丁目３１－１３コリーヌ太子堂１０１号室,,13,112,1540004,,,,,,,2022-08-16,1,,,,,オーエイチシー,0
41,1010901051437,新規,0,2022-08-16,2022-08-16,株式会社ハッピーフラワー,,株式会社,東京都,世田谷区,桜新町２丁目４番１５号,,13,112,1540015,,,,,,,2022-08-16,1,,,,,ハッピーフラワー,0
47,1011001149196,新規,0,2022-08-16,2022-08-16,Ｄｏ＆Ｄｏ．株式会社,,株式会社,東京都,渋谷区,道玄坂１丁目１０番８号渋谷道玄坂東急ビル２Ｆ－Ｃ,,13,113,1500043,,,,,,,2022-08-16,1,,,,,ドゥーアンドゥ,0
48,1011001149279,新規,0,2022-08-16,2022-08-16,株式会社Ａｄｏｒｅｒ,,株式会社,東京都,渋谷区,千駄ヶ谷３丁目５１番１０号ＰＯＲＴＡＬＰＯＩＮＴＨＡＲＡＪＵＫＵＦＤ－２９,,13,113,1510051,,,,,,,2022-08-16,1,,,,,アドレ,0
52,1011003015198,新規,0,2022-08-16,2022-08-16,合同会社中目黒会計事務所,,合同会社,東京都,目黒区,中目黒３丁目６番２号中目黒ＦＳビル５階,,13,110,1530061,,,,,,,2022-08-16,1,,,,,ナカメグロカイケイジムショ,0
53,1011003015223,新規,0,2022-08-16,2022-08-16,合同会社ＢＵＫＡＳ,,合同会社,東京都,渋谷区,道玄坂１丁目１０番８号渋谷道玄坂東急ビル２Ｆ－Ｃ,,13,113,1500043,,,,,,,2022-08-16,1,,,,,ブーカス,0
57,1011103012070,新規,0,2022-08-16,2022-08-16,合同会社ＡｄｄＭｅｔａ,,合同会社,東京都,新宿区,西新宿３丁目３番１３号西新宿水間ビル２Ｆ,,13,104,1600023,,,,,,,2022-08-16,1,,,,,アドメタ,0
68,1011305002844,新規,0,2022-08-16,2022-08-16,一般社団法人Ｊ‐ＥＰＳ　ｒｅｃｙｃｌｉｎｇ協会,,その他の設立登記法人,東京都,杉並区,上高井戸１丁目８番３号エーム館３階,,13,115,1680074,,,,,,,2022-08-16,1,,,,,ジェイイーピーエスリサイクリングキョウカイ,0
70,1011501028395,新規,0,2022-08-16,2022-08-16,株式会社スティング,,株式会社,東京都,北区,赤羽１丁目７番９号赤羽第一葉山ビル４階,,13,117,1150045,,,,,,,2022-08-16,1,,,,,スティング,0
73,1011701025531,新規,0,2022-08-16,2022-08-16,株式会社武田エステート,,株式会社,東京都,江戸川区,松島２丁目３５番３６号武田ビル,,13,123,1320031,,,,,,,2022-08-16,1,,,,,タケダエステート,0
92,1020001147804,新規,0,2022-08-16,2022-08-16,株式会社ＬＥＢＥＲＴＥ,,株式会社,神奈川県,横浜市保土ケ谷区,峰沢町３０７番地２３,,14,106,2400061,,,,,,,2022-08-16,1,,,,,リベルテ,0
98,1021001076786,新規,0,2022-08-16,2022-08-16,ＯＳＤＥＮ株式会社,,株式会社,神奈川県,大和市,南林間１丁目９－８メゾン・ド・ユース・リバーズ３１０号,,14,213,2420006,,,,,,,2022-08-16,1,,,,,オスデン,0
101,1021003012021,新規,0,2022-08-16,2022-08-16,合同会社あしたの学校,,合同会社,神奈川県,藤沢市,長後１３２４番地２号アネシス１０７号室,,14,205,2520801,,,,,,,2022-08-16,1,,,,,アシタノガッコウ,0
102,1021003012038,新規,0,2022-08-16,2022-08-16,Ｃｙｃｌｉｎｇ　ＧＹＰＳＹ合同会社,,合同会社,神奈川県,小田原市,城山１丁目３１番３３号,,14,206,2500045,,,,,,,2022-08-16,1,,,,,サイクリングジプシー,0
111,1030001149700,新規,0,2022-08-16,2022-08-16,株式会社ＩＳＨＩ,,株式会社,埼玉県,川口市,芝塚原２丁目２１番１８号リバティ川口１０１号,,11,203,3330856,,,,,,,2022-08-16,1,,,,,イシ,0
114,1030003019991,新規,0,2022-08-16,2022-08-16,リク合同会社,,合同会社,埼玉県,三郷市,彦倉１丁目３２番地フルール三郷Ｃ５,,11,237,3410053,,,,,,,2022-08-16,1,,,,,リク,0
115,1030003020000,新規,0,2022-08-16,2022-08-16,合同会社ＮＥＸＴＡＲＴ,,合同会社,埼玉県,川口市,飯塚４丁目４番２４号クレア川口２０１号室,,11,203,3320023,,,,,,,2022-08-16,1,,,,,ネクスタート,0
120,1040001124644,新規,0,2022-08-16,2022-08-16,株式会社Ｓｕｎｂｒｉｄｇｅ,,株式会社,千葉県,成田市,郷部１３２番地１－１０３号,,12,211,2860014,,,,,,,2022-08-16,1,,,,,サンブリッジ,0
121,1040001124710,新規,0,2022-08-16,2022-08-16,株式会社山口建設,,株式会社,千葉県,船橋市,高根台４丁目３１番８号,,12,204,2740065,,,,,,,2022-08-16,1,,,,,ヤマグチケンセツ,0
122,1040001124719,新規,0,2022-08-16,2022-08-16,Ｊ　Ｎｅｅｄ株式会社,,株式会社,千葉県,印西市,船尾１３６８番地２６,,12,231,2701345,,,,,,,2022-08-16,1,,,,,ジェイニード,0
127,1040003020627,新規,0,2022-08-16,2022-08-16,合同会社ＺＥＣＴ,,合同会社,千葉県,船橋市,新高根３丁目１３番１７号,,12,204,2740814,,,,,,,2022-08-16,1,,,,,ゼクト,0
128,1040003020635,新規,0,2022-08-16,2022-08-16,合同会社ｏｒｂｅ,,合同会社,千葉県,浦安市,富士見５丁目１２番５－１０２号ライオンズマンション舞浜第２,,12,227,2790043,,,,,,,2022-08-16,1,,,,,オーブ,0
133,1050001051557,新規,0,2022-08-16,2022-08-16,株式会社マークインサイト,,株式会社,茨城県,つくば市,花畑３丁目２９番地１４,,08,220,3003261,,,,,,,2022-08-16,1,,,,,マークインサイト,0
136,1050003006765,新規,0,2022-08-16,2022-08-16,合同会社ＫＡＲＶＯＮ,,合同会社,茨城県,猿島郡境町,大字若林字西谷津台２５７８番１,,08,546,3060417,,,,,,,2022-08-16,1,,,,,キャルヴォン,0
138,1060001035179,新規,0,2022-08-16,2022-08-16,株式会社Ｍａｒｔｅｆａｃｔ,,株式会社,栃木県,小山市,大字立木１０９９番地,,09,208,3230062,,,,,,,2022-08-16,1,,,,,マーティファクト,0
141,1070001039534,新規,0,2022-08-16,2022-08-16,株式会社ｍｏｍｏｋａｅｎ,,株式会社,群馬県,高崎市,上豊岡町１０２９番地３,,10,202,3700871,,,,,,,2022-08-16,1,,,,,モモカエン,0
142,1070001039550,新規,0,2022-08-16,2022-08-16,株式会社前橋みらいコーポレーション,,株式会社,群馬県,前橋市,文京町３丁目３１番１２号,,10,201,3710801,,,,,,,2022-08-16,1,,,,,マエバシミライコーポレーション,0
144,1100001035620,新規,0,2022-08-16,2022-08-16,株式会社ＫＯＫＨＡＲ　ＴＲＡＤＩＮＧ,,株式会社,長野県,松本市,大字島内１６６６番地３７５,,20,202,3900851,,,,,,,2022-08-16,1,,,,,コクハートレイディング,0
145,1100003006660,新規,0,2022-08-16,2022-08-16,Ａｎ　Ｆｕｎｎｙ　Ｐｒｏｊｅｃｔ合同会社,,合同会社,長野県,松本市,渚２丁目９番７号みのりハイツ１０６号室,,20,202,3900841,,,,,,,2022-08-16,1,,,,,アンファニープロジェクト,0
161,1120001248047,新規,0,2022-08-16,2022-08-16,株式会社ノア・ネクスト,,株式会社,大阪府,大阪市中央区,瓦町４丁目５番３号,,27,128,5410048,,,,,,,2022-08-16,1,,,,,ノアネクスト,0
162,1120001248113,新規,0,2022-08-16,2022-08-16,株式会社ＡＧＥＮＴ　ＢＡＮＫ,,株式会社,大阪府,大阪市北区,梅田１丁目１番３号大阪駅前第３ビル２９階１－１－１号室,,27,127,5300001,,,,,,,2022-08-16,1,,,,,エージェントバンク,0
163,1120001248220,新規,0,2022-08-16,2022-08-16,株式会社ＲＡＫＵ　Ｕ,,株式会社,大阪府,大阪市中央区,南船場２丁目４番２０号大阪福谷ビル３Ｆ,,27,128,5420081,,,,,,,2022-08-16,1,,,,,ラクユー,0
164,1120001248245,新規,0,2022-08-16,2022-08-16,株式会社ジールホールディングス,,株式会社,大阪府,大阪市東淀川区,西淡路１丁目１番９号,,27,114,5330031,,,,,,,2022-08-16,1,,,,,ジールホールディングス,0
166,1120002084219,新規,0,2022-08-16,2022-08-16,有限会社フィラトゥラディクローサジャパン,,有限会社,大阪府,大阪市中央区,心斎橋筋２丁目２番２２号小大丸ビル２Ｆ,,27,128,5420085,,,,,,,2022-08-16,1,,,,,フィラトゥラディクローサジャパン,0
167,1120003022276,新規,0,2022-08-16,2022-08-16,合同会社Ｍｏｕｓｅ　Ｋｉｄｓ,,合同会社,大阪府,大阪市浪速区,戎町一丁目４番１６－２０１号,,27,111,5560000,,,,,,,2022-08-16,1,,,,,マウスキッズ,0
168,1120003022284,新規,0,2022-08-16,2022-08-16,ゴールデンアイ合同会社,,合同会社,大阪府,大阪市城東区,古市３丁目２２番１９号,,27,118,5360001,,,,,,,2022-08-16,1,,,,,ゴールデンアイ,0
169,1120003022292,新規,0,2022-08-16,2022-08-16,合同会社ロンドベル,,合同会社,大阪府,大阪市天王寺区,烏ケ辻２丁目１０番１８－７０３号,00127543,27,109,5430042,,,,,,,2022-08-16,1,,,,,ロンドベル,0
170,1120003022301,新規,0,2022-08-16,2022-08-16,合同会社ＫＭＫ,,合同会社,大阪府,大阪市東淀川区,下新庄３丁目４番２７－８０６号,,27,114,5330021,,,,,,,2022-08-16,1,,,,,ケーエムケー,0
173,1120101066084,新規,0,2022-08-16,2022-08-16,株式会社保堂,,株式会社,大阪府,堺市北区,中長尾町３丁５番２１号,,27,146,5918044,,,,,,,2022-08-16,1,,,,,ホドウ,0
174,1120101066092,新規,0,2022-08-16,2022-08-16,株式会社ＩＲＳ,,株式会社,大阪府,和泉市,はつが野２丁目１５番３２号,,27,219,5941106,,,,,,,2022-08-16,1,,,,,アイアールエス,0
181,1122001036167,新規,0,2022-08-16,2022-08-16,Ａ　Ｌｏｗ株式会社,,株式会社,大阪府,大東市,扇町１４番２４号,,27,218,5740033,,,,,,,2022-08-16,1,,,,,アロウ,0
183,1122005003634,新規,0,2022-08-16,2022-08-16,一般社団法人ｂｌａｃｋ　ｏｎｅ,,その他の設立登記法人,大阪府,東大阪市,水走２丁目６番３３号,,27,227,5780921,,,,,,,2022-08-16,1,,,,,ブラックワン,0
196,1130003008126,新規,0,2022-08-16,2022-08-16,合同会社ユーシン,,合同会社,京都府,京田辺市,薪堀切谷７番地８１,,26,211,6100341,,,,,,,2022-08-16,1,,,,,ユーシン,0
200,1140001127042,新規,0,2022-08-16,2022-08-16,株式会社ゴードン,,株式会社,兵庫県,宝塚市,売布東の町２１番２２号,,28,214,6650867,,,,,,,2022-08-16,1,,,,,ゴードン,0
201,1140001127083,新規,0,2022-08-16,2022-08-16,株式会社ＳＫ・ＰＲＯ,,株式会社,兵庫県,丹波市,山南町谷川１０２３番地,,28,223,6693131,,,,,,,2022-08-16,1,,,,,エスケイプロ,0
202,1140001127109,新規,0,2022-08-16,2022-08-16,株式会社ハロー,,株式会社,兵庫県,加西市,北条町栗田１２３番６,,28,220,6752302,,,,,,,2022-08-16,1,,,,,ハロー,0
206,1140003018033,新規,0,2022-08-16,2022-08-16,ＭＦカプセルからだのせんたく合同会社,,合同会社,兵庫県,宝塚市,中山桜台６丁目１８番２－１２０９号,,28,214,6650877,,,,,,,2022-08-16,1,,,,,エムエフカプセルカラダノセンタク,0
207,1140003018041,新規,0,2022-08-16,2022-08-16,合同会社ＭＩＮＡＴＯ,,合同会社,兵庫県,神戸市東灘区,田中町１丁目１４番２３－１０２号,,28,101,6580081,,,,,,,2022-08-16,1,,,,,ミナト,0
209,1150003002754,新規,0,2022-08-16,2022-08-16,ＣＮＮクリーン合同会社,,合同会社,奈良県,奈良市,西大寺国見町２丁目１７番２０号小河ハイツ１０３号,,29,201,6310823,,,,,,,2022-08-16,1,,,,,シーエヌエヌクリーン,0
211,1170001017240,新規,0,2022-08-16,2022-08-16,株式会社Ｓｍａｒｔ通信,,株式会社,和歌山県,和歌山市,神前１７番地７,,30,201,6408314,,,,,,,2022-08-16,1,,,,,スマートツウシン,0
215,1180001152581,新規,0,2022-08-16,2022-08-16,株式会社ノーサイドグループ,,株式会社,愛知県,名古屋市中村区,太閤１丁目２２番１３号,,23,105,4530801,,,,,,,2022-08-16,1,,,,,ノーサイドグループ,0
219,1200003005644,新規,0,2022-08-16,2022-08-16,合同会社さくらコンフォートライフ,,合同会社,岐阜県,岐阜市,福光南町９番５－５０１号（毛利コーポ）,,21,201,5020815,,,,,,,2022-08-16,1,,,,,サクラコンフォートライフ,0
221,1220001024990,新規,0,2022-08-16,2022-08-16,株式会社Ｐｉｎｋｙ　Ｒｏｓｅｙ,,株式会社,石川県,野々市市,御経塚４丁目１５１番地,,17,212,9218801,,,,,,,2022-08-16,1,,,,,ピンキーロージィ,0
226,1240001060233,新規,0,2022-08-16,2022-08-16,株式会社ＲＢＣ,,株式会社,広島県,東広島市,八本松町正力８０１番地２,,34,212,7390132,,,,,,,2022-08-16,1,,,,,アールビーシー,0
239,1290001098616,新規,0,2022-08-16,2022-08-16,アーヴァイン株式会社,,株式会社,福岡県,福岡市東区,和白東１丁目１－１－２０５コアマンション和白東パセオ,,40,131,8110214,,,,,,,2022-08-16,1,,,,,アーヴァイン,0
240,1290001098624,新規,0,2022-08-16,2022-08-16,株式会社メンズスター,,株式会社,福岡県,福岡市中央区,港１丁目８番１０－６０３号,,40,133,8100075,,,,,,,2022-08-16,1,,,,,メンズスター,0
244,1290003012847,新規,0,2022-08-16,2022-08-16,ＨＯＡＮＧ　ＨＩＥＰ合同会社,,合同会社,福岡県,福岡市南区,大楠３丁目１４番２６,,40,134,8150082,,,,,,,2022-08-16,1,,,,,ホアンヒップ,0
245,1290801028813,新規,0,2022-08-16,2022-08-16,株式会社ＫＡＷＡＦＵＪＩ,,株式会社,福岡県,北九州市八幡東区,河内２丁目２番４８号,,40,108,8050045,,,,,,,2022-08-16,1,,,,,カワフジ,0
252,1350003004144,新規,0,2022-08-16,2022-08-16,合同会社Ｔｒａｉｌｈｅａｄ,,合同会社,宮崎県,西臼杵郡高千穂町,大字三田井１０－２,,45,441,8821101,,,,,,,2022-08-16,1,,,,,トレイルヘッド,0
255,1370001048950,新規,0,2022-08-16,2022-08-16,株式会社ＢＲＥＥＺＥ,,株式会社,宮城県,東松島市,赤井字川前二２２１－１,,04,214,9810501,,,,,,,2022-08-16,1,,,,,ブリーズ,0
264,1420003002561,新規,0,2022-08-16,2022-08-16,合同会社東部リサイクルセンター,,合同会社,青森県,青森市,小柳２丁目１番１号,,02,201,0300915,,,,,,,2022-08-16,1,,,,,トウブリサイクルセンター,0
270,1480001011823,新規,0,2022-08-16,2022-08-16,株式会社佐野商事,,株式会社,徳島県,鳴門市,大麻町桧字東山田１４番地６５,,36,202,7790225,,,,,,,2022-08-16,1,,,,,サノショウジ,0
272,1700150109412,新規,0,2022-08-16,2022-06-10,府中童謡の会,,その他,東京都,府中市,清水が丘２丁目３１－３,,13,206,1830015,,,,,,,2022-06-10,1,,,,,フチユウドウヨウノカイ,0
281,2010001228686,新規,0,2022-08-16,2022-08-16,株式会社Ｃｏｇｎｉｔｉｏｎ,,株式会社,東京都,千代田区,九段南３丁目５番１２号４０５号室,,13,101,1020074,,,,,,,2022-08-16,1,,,,,コグニション,0
288,2010401169010,新規,0,2022-08-16,2022-08-16,株式会社ｈｅｄｇｅ,,株式会社,東京都,港区,三田１丁目３番４０号天翔オフィス麻布十番５階５１１号室,,13,103,1080073,,,,,,,2022-08-16,1,,,,,ヘッジ,0
290,2010403028296,新規,0,2022-08-16,2022-08-16,合同会社ｔｍｔｙ,,合同会社,東京都,港区,港南３丁目５番１０―３２０１号,,13,103,1080075,,,,,,,2022-08-16,1,,,,,ティーエムティーワイ,0
296,2010603009690,新規,0,2022-08-16,2022-08-16,合同会社Ｌｅ　Ａｌｕ,,合同会社,東京都,墨田区,亀沢４丁目６－９プロシード錦糸町９０１,,13,107,1300014,,,,,,,2022-08-16,1,,,,,レアール,0
297,2010605004112,新規,0,2022-08-16,2022-08-16,一般社団法人日本自傷リストカット支援協会,,その他の設立登記法人,東京都,江東区,豊洲５丁目５番１８号ルミレイス豊洲１００７号室,,13,108,1350061,,,,,,,2022-08-16,1,,,,,ニホンジショウリストカットシエンキョウカイ,0
302,2010803004260,新規,0,2022-08-16,2022-08-16,合同会社りら,,合同会社,東京都,大田区,東糀谷４丁目４番１６号,,13,111,1440033,,,,,,,2022-08-16,1,,,,,リラ,0
304,2010901051411,新規,0,2022-08-16,2022-08-16,株式会社ＣＹコーポレーション,,株式会社,東京都,世田谷区,奥沢７丁目３２番３号,,13,112,1580083,,,,,,,2022-08-16,1,,,,,シーワイコーポレーション,0
309,2011001149170,新規,0,2022-08-16,2022-08-16,株式会社Ｇｒｉｐ,,株式会社,東京都,渋谷区,渋谷２丁目１９－１５宮益坂ビルディング６０９,,13,113,1500002,,,,,,,2022-08-16,1,,,,,グリップ,0
310,2011001149204,新規,0,2022-08-16,2022-08-16,てんけんサービス株式会社,,株式会社,東京都,渋谷区,本町３丁目３６番５号,,13,113,1510071,,,,,,,2022-08-16,1,,,,,テンケンサービス,0
311,2011003015206,新規,0,2022-08-16,2022-08-16,合同会社ウェルスデザイン,,合同会社,東京都,渋谷区,道玄坂１丁目１０番８号渋谷道玄坂東急ビル２Ｆ－Ｃ,,13,113,1500043,,,,,,,2022-08-16,1,,,,,ウェルスデザイン,0
312,2011003015214,新規,0,2022-08-16,2022-08-16,合同会社ＡＮＳＷＥＲ,,合同会社,東京都,渋谷区,道玄坂１丁目１０番８号渋谷道玄坂東急ビル２Ｆ－Ｃ,,13,113,1500043,,,,,,,2022-08-16,1,,,,,アンサー,0
317,2011101099869,新規,0,2022-08-16,2022-08-16,株式会社ＦＡ‐ＣＯＮＮＥＣＴ,,株式会社,東京都,新宿区,歌舞伎町１丁目１３番７号,,13,104,1600021,,,,,,,2022-08-16,1,,,,,エフエーコネクト,0
318,2011101099877,新規,0,2022-08-16,2022-08-16,株式会社ラピ,,株式会社,東京都,新宿区,西新宿３丁目３番１３号西新宿水間ビル６階,,13,104,1600023,,,,,,,2022-08-16,1,,,,,,0
319,2011101099885,新規,0,2022-08-16,2022-08-16,申聯株式会社,,株式会社,東京都,新宿区,上落合３丁目１９番地２１号１０１,,13,104,1610034,,,,,,,2022-08-16,1,,,,,シンレン,0
320,2011105010360,新規,0,2022-08-16,2022-08-16,一般社団法人関東業者協力会,,その他の設立登記法人,東京都,新宿区,高田馬場１丁目３１番８号高田馬場ダイカンプラザ２０１,,13,104,1690075,,,,,,,2022-08-16,1,,,,,カントウギョウシャキョウリョクカイ,0
321,2011201023951,新規,0,2022-08-16,2022-08-16,ＮＡＡ管財株式会社,,株式会社,東京都,中野区,中野６丁目２３番地４号中野ビル２階,,13,114,1640001,,,,,,,2022-08-16,1,,,,,,0
322,2011201024033,新規,0,2022-08-16,2022-08-16,株式会社Ｍｏｉ,,株式会社,東京都,中野区,弥生町３丁目５番１６号シャーロックホームズ１０２,,13,114,1640013,,,,,,,2022-08-16,1,,,,,モイ,0
336,2012405004770,新規,0,2022-08-16,2022-08-16,特定非営利活動法人どんぐりの森,,その他の設立登記法人,東京都,多摩市,関戸２丁目３３番地の１ラサール聖蹟１号２０２,,13,224,2060011,,,,,,,2022-08-16,1,,,,,ドングリノモリ,0
338,2012803002855,新規,0,2022-08-16,2022-08-16,合同会社ＲＸ,,合同会社,東京都,立川市,柏町３丁目１９番地の１４,,13,202,1900004,,,,,,,2022-08-16,1,,,,,アールエックス,0
347,2020001147753,新規,0,2022-08-16,2022-08-16,株式会社カワノ,,株式会社,神奈川県,横浜市港南区,日野４丁目５０番１９号,,14,111,2340051,,,,,,,2022-08-16,1,,,,,カワノ,0
348,2020001147778,新規,0,2022-08-16,2022-08-16,株式会社Ｏ＆Ｄ,,株式会社,神奈川県,横浜市都筑区,加賀原１丁目２３番１４－２０３号,,14,118,2240055,,,,,,,2022-08-16,1,,,,,オーアンドディー,0
349,2020001147811,新規,0,2022-08-16,2022-08-16,株式会社Ｂｕｚｚ　Ｃｅｂｏｎ,,株式会社,神奈川県,川崎市多摩区,登戸２５６７番地１０１号,,14,135,2140014,,,,,,,2022-08-16,1,,,,,バズセボン,0
353,2020003022228,新規,0,2022-08-16,2022-08-16,合同会社エフセット・ジャパン,,合同会社,神奈川県,横浜市中区,立野５７番地２３,,14,104,2310845,,,,,,,2022-08-16,1,,,,,エフセットジャパン,0
357,2021001076777,新規,0,2022-08-16,2022-08-16,株式会社協和建設,,株式会社,神奈川県,厚木市,下荻野６０４の５番地,,14,212,2430203,,,,,,,2022-08-16,1,,,,,キョウワケンセツ,0
358,2021003012045,新規,0,2022-08-16,2022-08-16,サンライズ合同会社,,合同会社,神奈川県,相模原市南区,上鶴間本町４丁目５２番２３号,,14,153,2520318,,,,,,,2022-08-16,1,,,,,サンライズ,0
363,2030001149468,新規,0,2022-08-16,2022-08-16,コノハノ株式会社,,株式会社,埼玉県,加須市,久下５丁目２９３番地８,,11,210,3470063,,,,,,,2022-08-16,1,,,,,コノハノ,0
364,2030001149625,新規,0,2022-08-16,2022-08-16,株式会社Ｍｉｍ’ｓ,,株式会社,埼玉県,熊谷市,久下２００５番地１,,11,202,3600026,,,,,,,2022-08-16,1,,,,,ミムズ,0
365,2030001149708,新規,0,2022-08-16,2022-08-16,株式会社ティーシー,,株式会社,埼玉県,戸田市,大字新曽５６２番地,,11,224,3350021,,,,,,,2022-08-16,1,,,,,ティーシー,0
369,2030003020008,新規,0,2022-08-16,2022-08-16,合同会社ひなげし,,合同会社,埼玉県,朝霞市,仲町２丁目１０番１２号カプルーフＡ１０１,,11,227,3510006,,,,,,,2022-08-16,1,,,,,ヒナゲシ,0
371,2030005020963,新規,0,2022-08-16,2022-08-16,税理士法人みのり会計,,その他の設立登記法人,埼玉県,さいたま市大宮区,桜木町４丁目４１番地ＡＳＰＥＲＯＢＬＤ３階,,11,103,3300854,,,,,,,2022-08-16,1,,,,,ミノリカイケイ,0
375,2040001124692,新規,0,2022-08-16,2022-08-16,株式会社アイケイ,,株式会社,千葉県,千葉市中央区,栄町９番１１号ゴールデンプラザ１Ｆ１号,,12,101,2600016,,,,,,,2022-08-16,1,,,,,アイケイ,0
376,2040001124701,新規,0,2022-08-16,2022-08-16,株式会社トップアイビー,,株式会社,千葉県,香取郡多古町,多古２６１８番地１,,12,347,2892241,,,,,,,2022-08-16,1,,,,,トップアイビー,0
377,2040003020634,新規,0,2022-08-16,2022-08-16,合同会社つぼみのゆめ,,合同会社,千葉県,木更津市,港南台４丁目１３番地４,,12,206,2920827,,,,,,,2022-08-16,1,,,,,ツボミノユメ,0
381,2050001051523,新規,0,2022-08-16,2022-08-16,ＡＯＭＯＲＩ　ＪＡＰＡＮ株式会社,,株式会社,茨城県,結城郡八千代町,大字西大山４００番地６,,08,521,3003504,,,,,,,2022-08-16,1,,,,,アオモリジャパン,0
382,2050001051556,新規,0,2022-08-16,2022-08-16,ＱＵＤＲＡＴ　ＩＮＴＥＲＮＡＴＩＯＮＡＬ株式会社,,株式会社,茨城県,筑西市,玉戸１３０９番６５大吉亭１０８,,08,227,3080847,,,,,,,2022-08-16,1,,,,,クドラットインターナショナル,0
384,2070001039491,新規,0,2022-08-16,2022-08-16,株式会社ＫＡＩＳＥＩ,,株式会社,群馬県,みどり市,笠懸町鹿４７３５－３－９,,10,212,3792313,,,,,,,2022-08-16,1,,,,,カイセイ,0
387,2080001025136,新規,0,2022-08-16,2022-08-16,株式会社ワダイコ,,株式会社,静岡県,静岡市葵区,建穂１丁目１３番６号,,22,101,4211214,,,,,,,2022-08-16,1,,,,,ワダイコ,0
388,2080005007477,新規,0,2022-08-16,2022-08-16,一般社団法人やいづ子育て・多世代交流支援協会ことこと,,その他の設立登記法人,静岡県,焼津市,栄町５丁目１番１号,,22,212,4250027,,,,,,,2022-08-16,1,,,,,ヤイヅコソダテタセダイコウリュウシエンキョウカイコトコト,0
404,2120001248104,新規,0,2022-08-16,2022-08-16,株式会社アップス,,株式会社,大阪府,大阪市平野区,長吉川辺３丁目１８番１５号,,27,126,5470014,,,,,,,2022-08-16,1,,,,,アップス,0
405,2120001248112,新規,0,2022-08-16,2022-08-16,株式会社８８,,株式会社,大阪府,大阪市平野区,瓜破１丁目１番１１－１３１４号,,27,126,5470024,,,,,,,2022-08-16,1,,,,,ハチハチ,0
406,2120001248120,新規,0,2022-08-16,2022-08-16,株式会社ｆ‐ｇｒｏｗ,,株式会社,大阪府,枚方市,茄子作４丁目３２－８ラネージュ枚方３０１,,27,210,5730071,,,,,,,2022-08-16,1,,,,,エフグロウ,0
407,2120001248129,新規,0,2022-08-16,2022-08-16,ＡＺホールディングス株式会社,,株式会社,大阪府,大阪市中央区,瓦町４丁目３番７号,,27,128,5410048,,,,,,,2022-08-16,1,,,,,エイゼットホールディングス,0
408,2120001248137,新規,0,2022-08-16,2022-08-16,株式会社Ｄｒ．山口バイオレゾナンス応用研究所,,株式会社,大阪府,大阪市西区,新町３丁目６番１９－１００４号,,27,106,5500013,,,,,,,2022-08-16,1,,,,,ドクターヤマグチバイオレゾナンスオウヨウケンキュウジョ,0
409,2120001248178,新規,0,2022-08-16,2022-08-16,株式会社岸川建設,,株式会社,大阪府,大阪市城東区,古市１丁目２３番２３号,,27,118,5360001,,,,,,,2022-08-16,1,,,,,キシカワケンセツ,0
410,2120001248194,新規,0,2022-08-16,2022-08-16,中盛株式会社,,株式会社,大阪府,大阪市都島区,内代町１丁目１２番１６号ベストレジデンス都島５０１号,,27,102,5340013,,,,,,,2022-08-16,1,,,,,チュウセイ,0
414,2120003022259,新規,0,2022-08-16,2022-08-16,ＭＯエンタープライズ合同会社,,合同会社,大阪府,大阪市平野区,平野南３丁目１番１３－１０２号,,27,126,5470031,,,,,,,2022-08-16,1,,,,,エムオーエンタープライズ,0
415,2120003022291,新規,0,2022-08-16,2022-08-16,合同会社ＭＲ．ｌｉｅｎ,,合同会社,大阪府,大阪市東住吉区,東田辺２丁目２６番３号,,27,121,5460032,,,,,,,2022-08-16,1,,,,,エムアールリアン,0
420,2120101066083,新規,0,2022-08-16,2022-08-16,Ｓａｌａｍ　Ｔｒａｄｉｎｇ株式会社,,株式会社,大阪府,和泉市,福瀬町４８８－１,,27,219,5941123,,,,,,,2022-08-16,1,,,,,サラムトレーディング,0
422,2120103004818,新規,0,2022-08-16,2022-08-16,合同会社マルテス,,合同会社,大阪府,堺市東区,北野田９６４番地１７,,27,143,5998123,,,,,,,2022-08-16,1,,,,,マルテス,0
423,2120901046367,新規,0,2022-08-16,2022-08-16,Ｓｅｃｏｎｄ　ｄｏｔ株式会社,,株式会社,大阪府,吹田市,広芝町４番３４号,,27,205,5640052,,,,,,,2022-08-16,1,,,,,セコンドドット,0
427,2122001036166,新規,0,2022-08-16,2022-08-16,山井株式会社,,株式会社,大阪府,八尾市,長池町１丁目２７番地の３８,,27,212,5810836,,,,,,,2022-08-16,1,,,,,ヤマイ,0
428,2122001036174,新規,0,2022-08-16,2022-08-16,株式会社エクサス,,株式会社,大阪府,東大阪市,宝町１８－１１,,27,227,5798025,,,,,,,2022-08-16,1,,,,,エクサス,0
431,2122003002406,新規,0,2022-08-16,2022-08-16,合同会社コネクト,,合同会社,大阪府,東大阪市,下小阪１丁目１３－２９,,27,227,5770803,,,,,,,2022-08-16,1,,,,,コネクト,0
445,2140001127074,新規,0,2022-08-16,2022-08-16,株式会社ＷＯＲＬＤ　ＧＥＡＲ,,株式会社,兵庫県,明石市,大久保町高丘２丁目３番地の２,,28,203,6740057,,,,,,,2022-08-16,1,,,,,ワールドギア,0
446,2140001127082,新規,0,2022-08-16,2022-08-16,株式会社ブルーマイスター,,株式会社,兵庫県,三田市,けやき台５丁目２５番地２０３,,28,219,6691321,,,,,,,2022-08-16,1,,,,,ブルーマイスター,0
457,2180001152580,新規,0,2022-08-16,2022-08-16,株式会社ハヤシユニフォーム,,株式会社,愛知県,名古屋市北区,清水４丁目６番１８号,,23,103,4620844,,,,,,,2022-08-16,1,,,,,ハヤシユニフォーム,0
458,2180001152597,新規,0,2022-08-16,2022-08-16,株式会社大丸システム,,株式会社,愛知県,瀬戸市,菱野町１７６番地,,23,204,4890934,,,,,,,2022-08-16,1,,,,,ダイマルシステム,0
459,2180001152630,新規,0,2022-08-16,2022-08-16,株式会社ＪＰＹホールディングス,,株式会社,愛知県,名古屋市中村区,平池町４丁目６０番地の１２グローバルゲート１１階,,23,105,4530872,,,,,,,2022-08-16,1,,,,,ジェーピーワイホールディングス,0
460,2180001152639,新規,0,2022-08-16,2022-08-16,株式会社８８’ｓ,,株式会社,愛知県,一宮市,上祖父江字東本郷３８番地１,,23,203,4940014,,,,,,,2022-08-16,1,,,,,エイティエイティズ,0
461,2180001152647,新規,0,2022-08-16,2022-08-16,株式会社さとみワークス,,株式会社,愛知県,名古屋市東区,泉３丁目８番１号（ＵＲＢＡＮ　ＣＬＯＵＤ　ＩＺＵＭＩ７０２号）,,23,102,4610001,,,,,,,2022-08-16,1,,,,,サトミワークス,0
463,2180003024150,新規,0,2022-08-16,2022-08-16,合同会社ＰＥＲＯ,,合同会社,愛知県,名古屋市中区,栄５丁目１１番４号,,23,106,4600008,,,,,,,2022-08-16,1,,,,,ペロ,0
464,2180003024159,新規,0,2022-08-16,2022-08-16,合同会社Ｌｅａ　Ａｎｅｌａ,,合同会社,愛知県,名古屋市千種区,鍋屋上野町字東脇１０８９番地,,23,101,4640097,,,,,,,2022-08-16,1,,,,,レアアネラ,0
465,2180005019883,新規,0,2022-08-16,2022-08-16,税理士法人山田会計,,その他の設立登記法人,愛知県,名古屋市中区,千代田２丁目１５番１号,,23,106,4600012,,,,,,,2022-08-16,1,,,,,ヤマダカイケイ,0
475,2240001060232,新規,0,2022-08-16,2022-08-16,ＭＨＨＯ　Ｅｌｅｃｔｒｉｃ　Ｄｒｉｖｅ株式会社,,株式会社,広島県,広島市南区,小磯町１７４番地１６,,34,103,7340064,,,,,,,2022-08-16,1,,,,,エムエイチエイチオーエレクトリックドライブ,0
486,2290001098631,新規,0,2022-08-16,2022-08-16,株式会社ＬＸ商事,,株式会社,福岡県,福岡市博多区,東月隈５丁目３１番１号,,40,132,8120854,,,,,,,2022-08-16,1,,,,,エルエックスショウジ,0
488,2290003012846,新規,0,2022-08-16,2022-08-16,合同会社スリーピース,,合同会社,福岡県,宗像市,日の里１丁目２８番地（１０５棟２０号）,,40,220,8113425,,,,,,,2022-08-16,1,,,,,スリーピース,0
492,2290805009577,新規,0,2022-08-16,2022-08-16,行政書士法人まつおよう子法務事務所,,その他の設立登記法人,福岡県,北九州市八幡西区,丸尾町２番１号,,40,109,8070826,,,,,,,2022-08-16,1,,,,,マツオヨウコホウムジムショ,0
504,2360001030842,新規,0,2022-08-16,2022-08-16,ＣＵＴＩＥ　ＱＵＥＥＮ株式会社,,株式会社,沖縄県,中頭郡読谷村,字長浜１５２５番地１,,47,324,9040324,,,,,,,2022-08-16,1,,,,,キューティークィーン,0
506,2360003012236,新規,0,2022-08-16,2022-08-16,合同会社陽とヒト,,合同会社,沖縄県,宜野湾市,大謝名２丁目２４番５号,,47,205,9012225,,,,,,,2022-08-16,1,,,,,ヒトヒト,0
523,2440001009135,新規,0,2022-08-16,2022-08-16,株式会社横山,,株式会社,北海道,北斗市,村山１５４番地の１,,01,236,0411244,,,,,,,2022-08-16,1,,,,,ヨコヤマ,0
525,2490001010253,新規,0,2022-08-16,2022-08-16,株式会社ｆｏｕｒＹｏｕ,,株式会社,高知県,宿毛市,南沖須賀１番１０号,,39,208,7880002,,,,,,,2022-08-16,1,,,,,フォーユー,0
547,3010001228792,新規,0,2022-08-16,2022-08-16,株式会社我がミッションホールディングス,,株式会社,東京都,千代田区,紀尾井町３番１０号紀尾井町ガーデンタワー２５０４号（Ｃ／Ｏｓｈｉｍａｄａ－ｏｆｆｉｃｅ）,,13,101,1020094,,,,,,,2022-08-16,1,,,,,ワガミッションホールディングス,0
552,3010003038406,新規,0,2022-08-16,2022-08-16,グルーバル・ワン合同会社,,合同会社,東京都,中央区,晴海２丁目３－２－４３０５,,13,102,1040053,,,,,,,2022-08-16,1,,,,,グルーバルワン,0
555,3010005035392,新規,0,2022-08-16,2022-08-16,一般財団法人すこやかさゆたかさの未来研究所,,その他の設立登記法人,東京都,千代田区,丸の内１丁目８番３号丸の内トラストタワー本館２０階,,13,101,1000005,,,,,,,2022-08-16,1,,,,,スコヤカサユタカサノミライケンキュウジョ,0
562,3010401168969,新規,0,2022-08-16,2022-08-16,ファイフ・キャピタル・ジャパン株式会社,,株式会社,東京都,港区,虎ノ門４丁目１番２８号虎ノ門タワーズオフィス１９階,,13,103,1050001,,,,,,,2022-08-16,1,,,,,ファイフキャピタルジャパン,0
565,3010403028246,新規,0,2022-08-16,2022-08-16,合同会社シル・ハビラ．,,合同会社,東京都,港区,台場１丁目３番５－３０１号,,13,103,1350091,,,,,,,2022-08-16,1,,,,,シルハビラ,0
566,3010403028279,新規,0,2022-08-16,2022-08-16,ＢＲＡＮＤ　ＥＡＴＳ合同会社,,合同会社,東京都,港区,三田３丁目３番４号,,13,103,1080073,,,,,,,2022-08-16,1,,,,,ブランドイーツ,0
567,3010501049227,新規,0,2022-08-16,2022-08-16,株式会社ｇｒａｃｅ,,株式会社,東京都,台東区,柳橋１丁目９番９号ＧＲＡＮＰＡＳＥＯ２０２号,,13,106,1110052,,,,,,,2022-08-16,1,,,,,グレース,0
568,3010501049235,新規,0,2022-08-16,2022-08-16,ＡＳＰｉＡ　ＪＡＰＡＮ株式会社,,株式会社,東京都,台東区,蔵前４丁目３１番１０号,,13,106,1110051,,,,,,,2022-08-16,1,,,,,アスピアジャパン,0
569,3010501049243,新規,0,2022-08-16,2022-08-16,染空株式会社,,株式会社,東京都,台東区,上野３丁目１６番２号天翔上野末広町ビル６１１号室,,13,106,1100005,,,,,,,2022-08-16,1,,,,,ソメゾラ,0
571,3010601061684,新規,0,2022-08-16,2022-08-16,株式会社ＯＧ,,株式会社,東京都,墨田区,業平１丁目１８番７－６０２号,,13,107,1300002,,,,,,,2022-08-16,1,,,,,オージー,0
575,3010805002963,新規,0,2022-08-16,2022-08-16,一般社団法人ジャパン・インスピレーション＆イノベーション・パートナーズ,,その他の設立登記法人,東京都,大田区,下丸子４丁目２１番１５号サウスタワー２７Ｆ,,13,111,1460092,,,,,,,2022-08-16,1,,,,,ジャパンインスピレーションアンドイノベーションパートナーズ,0
581,3011001149194,新規,0,2022-08-16,2022-08-16,インキュベーター株式会社,,株式会社,東京都,渋谷区,渋谷２丁目１９－１５宮益坂ビルディング６０９,,13,113,1500002,,,,,,,2022-08-16,1,,,,,インキュベーター,0
582,3011001149203,新規,0,2022-08-16,2022-08-16,株式会社５００Ｔ,,株式会社,東京都,目黒区,上目黒５丁目８番８号リネアＧ,,13,110,1530051,,,,,,,2022-08-16,1,,,,,ゴヒャクティー,0
583,3011001149252,新規,0,2022-08-16,2022-08-16,ライムズスポーツコンサルティング株式会社,,株式会社,東京都,渋谷区,幡ヶ谷３丁目６９番２号,,13,113,1510072,,,,,,,2022-08-16,1,,,,,ライムズスポーツコンサルティング,0
586,3011003015213,新規,0,2022-08-16,2022-08-16,アイエスケイパートナーズ合同会社,,合同会社,東京都,渋谷区,神宮前６丁目２５番８－１３０３号神宮前コーポラス,,13,113,1500001,,,,,,,2022-08-16,1,,,,,アイエスケイパートナーズ,0
588,3011101099876,新規,0,2022-08-16,2022-08-16,ＭＩＫＡＴＡＫＮＯ　ＡＵＴＯ　ＳＥＲＶＩＣＥ株式会社,,株式会社,東京都,新宿区,百人町２丁目１番４５号赤煉瓦２２４,,13,104,1690073,,,,,,,2022-08-16,1,,,,,ミカタノオートサービス,0
589,3011103012069,新規,0,2022-08-16,2022-08-16,合同会社Ｔ２,,合同会社,東京都,新宿区,西早稲田２丁目１４番３号リシェス西早稲田２１１,,13,104,1690051,,,,,,,2022-08-16,1,,,,,ティーツー,0
590,3011201023950,新規,0,2022-08-16,2022-08-16,アニメアートセンター株式会社,,株式会社,東京都,中野区,中野５丁目２２番地２２号,,13,114,1640001,,,,,,,2022-08-16,1,,,,,アニメアートセンター,0
601,3013301049520,新規,0,2022-08-16,2022-08-16,株式会社令和企画,,株式会社,東京都,豊島区,高田３丁目１１番１４号高田馬場シティハイツ８０３,,13,116,1710033,,,,,,,2022-08-16,1,,,,,レイワキカク,0
613,3020001147728,新規,0,2022-08-16,2022-08-16,Ｚｅｌｋｏｖａ　Ｔｏｋｙｏ株式会社,,株式会社,神奈川県,横浜市港北区,綱島上町１－１グリーンサラウンドシティ３－８０７,,14,109,2230055,,,,,,,2022-08-16,1,,,,,ゼルコバトウキョウ,0
614,3020001147760,新規,0,2022-08-16,2022-08-16,金星グローバル株式会社,,株式会社,神奈川県,横浜市西区,みなとみらい４丁目４番２号横浜ブルーアベニュー１２Ｆ,,14,103,2200012,,,,,,,2022-08-16,1,,,,,クムソングローバル,0
615,3020001147802,新規,0,2022-08-16,2022-08-16,株式会社ベイサイド総合地所,,株式会社,神奈川県,横浜市中区,山田町７番地１２エステハイム横浜２０３号室,,14,104,2310036,,,,,,,2022-08-16,1,,,,,ベイサイドソウゴウジショ,0
619,3020003022227,新規,0,2022-08-16,2022-08-16,合同会社ＡＷ,,合同会社,神奈川県,横浜市中区,根岸旭台３５番地５コートヒルズ横濱山手ウエスト棟３０５,,14,104,2310854,,,,,,,2022-08-16,1,,,,,エーダブル,0
625,3021001076784,新規,0,2022-08-16,2022-08-16,ＡｔＺ　Ｂｕｓｉｎｅｓｓ　Ｐａｒｔｎｅｒｓ株式会社,,株式会社,神奈川県,厚木市,戸室１丁目１５－６,,14,212,2430031,,,,,,,2022-08-16,1,,,,,エートゥージービジネスパートナーズ,0
626,3021001076792,新規,0,2022-08-16,2022-08-16,リッチライフ株式会社,,株式会社,神奈川県,伊勢原市,桜台１丁目１番１４号第２牧野ビル１階,,14,214,2591132,,,,,,,2022-08-16,1,,,,,リッチライフ,0
631,3030001149608,新規,0,2022-08-16,2022-08-16,株式会社宇田川建設,,株式会社,埼玉県,越谷市,レイクタウン６丁目１９番地４ＡＢＩＥＳＩＩ５０１,00127533,11,222,3430828,,,,,,,2022-08-16,1,,,,,ウダガワケンセツ,0
632,3030001149673,新規,0,2022-08-16,2022-08-16,八千年製薬株式会社,,株式会社,埼玉県,さいたま市大宮区,大成町１丁目１７２番地１,,11,103,3300852,,,,,,,2022-08-16,1,,,,,ハッセンネンセイヤク,0
640,3040001124675,新規,0,2022-08-16,2022-08-16,株式会社ＫＩＧ,,株式会社,千葉県,市原市,五井３３３４番地１アーバンシャトー市原２０１,,12,219,2900056,,,,,,,2022-08-16,1,,,,,ケーアイジー,0
641,3040001124691,新規,0,2022-08-16,2022-08-16,株式会社菅和,,株式会社,千葉県,茂原市,押日４１７番地６,,12,210,2970075,,,,,,,2022-08-16,1,,,,,スガワ,0
642,3040001124709,新規,0,2022-08-16,2022-08-16,株式会社Ｂｒｅａｔｈ　ｏｆ　ＬＩＦＥ,,株式会社,千葉県,千葉市緑区,古市場町４７２－１ニッシンビル２０１,,12,105,2660026,,,,,,,2022-08-16,1,,,,,ブレスオブライフ,0
653,3050003006763,新規,0,2022-08-16,2022-08-16,合同会社コスモスプラネット,,合同会社,茨城県,水戸市,千波町１７２２番地の２,,08,201,3100851,,,,,,,2022-08-16,1,,,,,コスモスプラネット,0
654,3050003006771,新規,0,2022-08-16,2022-08-16,ＰＳＮ　ＥＮＴＥＲＰＲＩＳＥＳ合同会社,,合同会社,茨城県,取手市,小文間５１６０番地３２,,08,217,3020001,,,,,,,2022-08-16,1,,,,,ピーエスエヌエンタープライセス,0
656,3060001035177,新規,0,2022-08-16,2022-08-16,Ｓｔｏｒｙ　Ｈｏｍｅ株式会社,,株式会社,栃木県,那須塩原市,豊浦１２２番地１,,09,213,3250023,,,,,,,2022-08-16,1,,,,,ストーリーホーム,0
658,3070001039532,新規,0,2022-08-16,2022-08-16,株式会社リメイ,,株式会社,群馬県,藤岡市,中栗須２１８番地１,,10,209,3750015,,,,,,,2022-08-16,1,,,,,リメイ,0
662,3100005012903,新規,0,2022-08-16,2022-08-16,行政書士法人未来経営,,その他の設立登記法人,長野県,松本市,大手４丁目６番４号,,20,202,3900874,,,,,,,2022-08-16,1,,,,,ミライケイエイ,0
663,3110001036896,新規,0,2022-08-16,2022-08-16,株式会社Ｒｏｏｐ,,株式会社,新潟県,長岡市,南七日町７０番地１４,,15,202,9402116,,,,,,,2022-08-16,1,,,,,ループ,0
670,3110003004843,新規,0,2022-08-16,2022-08-16,合同会社ＨＡＰＰＹ　ＪＡＰＡＮ,,合同会社,新潟県,新潟市江南区,直り山８３１番地,,15,104,9500111,,,,,,,2022-08-16,1,,,,,ハッピージャパン,0
679,3120001247856,新規,0,2022-08-16,2022-08-16,株式会社ＨＯＵＳＥ　ＧＡＴＥ,,株式会社,大阪府,大阪市中央区,島之内１丁目８－８－４Ｆ,,27,128,5420082,,,,,,,2022-08-16,1,,,,,ハウスゲート,0
680,3120001248160,新規,0,2022-08-16,2022-08-16,株式会社楽学,,株式会社,大阪府,大阪市淀川区,西中島３丁目１８番９号,,27,123,5320011,,,,,,,2022-08-16,1,,,,,ラクガク,0
681,3120001248185,新規,0,2022-08-16,2022-08-16,株式会社エコミライフ,,株式会社,大阪府,大阪市東淀川区,豊里６丁目２７番１０号アパートメント東淀川区ＩＶ３０２号室,00127532,27,114,5330013,,,,,,,2022-08-16,1,,,,,エコミライフ,0
682,3120001248202,新規,0,2022-08-16,2022-08-16,株式会社Ｔｒｙ　Ｇｅｔ,,株式会社,大阪府,大阪市中央区,南船場１丁目４番９号,,27,128,5420081,,,,,,,2022-08-16,1,,,,,トライゲット,0
684,3120003022258,新規,0,2022-08-16,2022-08-16,１５インダストリ合同会社,,合同会社,大阪府,大阪市中央区,安土町３丁目２番１４号,,27,128,5410052,,,,,,,2022-08-16,1,,,,,イチゴインダストリ,0
685,3120003022282,新規,0,2022-08-16,2022-08-16,合同会社フィアール,,合同会社,大阪府,大阪市東淀川区,東中島２丁目１７番１１－８０１号,,27,114,5330033,,,,,,,2022-08-16,1,,,,,フィアール,0
690,3120103004817,新規,0,2022-08-16,2022-08-16,合同会社ディーンスターク,,合同会社,大阪府,堺市美原区,丹上３３８番地１,,27,147,5870011,,,,,,,2022-08-16,1,,,,,ディーンスターク,0
692,3120901046374,新規,0,2022-08-16,2022-08-16,ｍｔｒ株式会社,,株式会社,大阪府,豊中市,二葉町１丁目１番７号,,27,203,5610825,,,,,,,2022-08-16,1,,,,,エムティーアール,0
693,3120903004272,新規,0,2022-08-16,2022-08-16,合同会社国際創造研究所,,合同会社,大阪府,豊中市,南桜塚２丁目１１番６－１０１号,,27,203,5610882,,,,,,,2022-08-16,1,,,,,コクサイソウゾウケンキュウショ,0
695,3122001036165,新規,0,2022-08-16,2022-08-16,株式会社ＯＮＥ,,株式会社,大阪府,東大阪市,長堂１丁目２番１６号東大阪新光ビル３０９号室,,27,227,5770056,,,,,,,2022-08-16,1,,,,,ワン,0
696,3122003002405,新規,0,2022-08-16,2022-08-16,合同会社エスアール,,合同会社,大阪府,八尾市,竹渕２丁目６,,27,212,5810052,,,,,,,2022-08-16,1,,,,,エスアール,0
701,3130001072411,新規,0,2022-08-16,2022-08-16,株式会社長尾,,株式会社,京都府,京都市南区,吉祥院中河原里北町３３番地,,26,107,6018394,,,,,,,2022-08-16,1,,,,,ナガオ,0
702,3130001072452,新規,0,2022-08-16,2022-08-16,株式会社Ｐｉｚｃａ　ｄｅ　Ｓａｌ,,株式会社,京都府,京都市左京区,孫橋町３１－４ペンタグラム川端御池１階,,26,103,6060000,,,,,,,2022-08-16,1,,,,,ピスカデサル,0
709,3140001127107,新規,0,2022-08-16,2022-08-16,株式会社ｉＮＤ,,株式会社,兵庫県,神戸市灘区,岩屋北町５丁目１番２１－１０２号,,28,102,6570846,,,,,,,2022-08-16,1,,,,,アイエヌディー,0
710,3140001127115,新規,0,2022-08-16,2022-08-16,株式会社ＲＳオートバイ,,株式会社,兵庫県,尼崎市,杭瀬南新町４丁目６番８号,,28,202,6600822,,,,,,,2022-08-16,1,,,,,アールエスオートバイ,0
713,3140003018015,新規,0,2022-08-16,2022-08-16,みらい合同会社,,合同会社,兵庫県,神戸市兵庫区,福原町５－４,,28,105,6520036,,,,,,,2022-08-16,1,,,,,ミライ,0
714,3140003018031,新規,0,2022-08-16,2022-08-16,播合同会社,,合同会社,兵庫県,姫路市,上大野１丁目１３番２１号,,28,201,6700896,,,,,,,2022-08-16,1,,,,,バン,0
715,3140005026288,新規,0,2022-08-16,2022-08-16,一般社団法人神戸サンスクリット奨学会,,その他の設立登記法人,兵庫県,神戸市東灘区,岡本３丁目９番２０－２０７号,,28,101,6580072,,,,,,,2022-08-16,1,,,,,コウベサンスクリットショウガクカイ,0
717,3180001152522,新規,0,2022-08-16,2022-08-16,メタトリエ株式会社,,株式会社,愛知県,名古屋市中区,錦２丁目９番２０号トラスト伏見駅前ビル１階,,23,106,4600003,,,,,,,2022-08-16,1,,,,,メタトリエ,0
718,3180001152563,新規,0,2022-08-16,2022-08-16,極美株式会社,,株式会社,愛知県,名古屋市北区,大曽根４丁目１番４５号,,23,103,4620825,,,,,,,2022-08-16,1,,,,,キワミ,0
719,3180001152613,新規,0,2022-08-16,2022-08-16,株式会社咲ｓｅｅｄ,,株式会社,愛知県,あま市,新居屋郷７７番地,,23,237,4901105,,,,,,,2022-08-16,1,,,,,サクシード,0
722,3220001024989,新規,0,2022-08-16,2022-08-16,株式会社鶴家,,株式会社,石川県,野々市市,御経塚３丁目２２４番地,,17,212,9218801,,,,,,,2022-08-16,1,,,,,ツルヤ,0
731,3290001098572,新規,0,2022-08-16,2022-08-16,株式会社Ｅｆｕｓｅ,,株式会社,福岡県,福岡市博多区,博多駅東２丁目１０番１６－３０１号,,40,132,8120013,,,,,,,2022-08-16,1,,,,,エフォーズ,0
745,3360001030833,新規,0,2022-08-16,2022-08-16,株式会社ながた,,株式会社,沖縄県,国頭郡恩納村,字仲泊７５４番地３,,47,311,9040415,,,,,,,2022-08-16,1,,,,,ナガタ,0
746,3360003012243,新規,0,2022-08-16,2022-08-16,合同会社Ｒａｙ,,合同会社,沖縄県,沖縄市,美里２丁目２７番１６号,,47,211,9042153,,,,,,,2022-08-16,1,,,,,レイ,0
756,3430001087313,新規,0,2022-08-16,2022-08-16,株式会社Ｓｔａｒ　Ｌｉｎｋ,,株式会社,北海道,札幌市清田区,平岡七条１丁目３番５－１０２号,,01,110,0040877,,,,,,,2022-08-16,1,,,,,スターリンク,0
757,3430001087321,新規,0,2022-08-16,2022-08-16,株式会社ＢＵＫＡＲＵ,,株式会社,北海道,札幌市中央区,南二条西２２丁目１－１テイストビル２Ｆ,,01,101,0640802,,,,,,,2022-08-16,1,,,,,ブカル,0
767,3490005006858,新規,0,2022-08-16,2022-08-16,一般社団法人高知県グリーンディール協会,,その他の設立登記法人,高知県,高知市,高＿６番１９号,00127541,39,201,7800071,,,,,,,2022-08-16,1,,,,,コウチケングリーンディールキョウカイ,0
770,3700150111275,新規,0,2022-08-16,2022-08-16,大字白谷,,その他,滋賀県,高島市,マキノ町白谷１５８－１白谷地区活性化施設（大字白谷集会所）,,25,212,5201837,,,,,,,2022-08-16,1,,,,,オオアザシラタニ,0
786,4010003038413,新規,0,2022-08-16,2022-08-16,ＨＬＢ１１号合同会社,,合同会社,東京都,千代田区,霞が関３丁目２番５号,,13,101,1000013,,,,,,,2022-08-16,1,,,,,エイチエルビージュウイチゴウ,0
790,4010103001972,新規,0,2022-08-16,2022-08-16,合同会社ＨＡＮＡＰＹ,,合同会社,東京都,八王子市,楢原町４４８－３ＡＱＵＡ楢原２０５,,13,201,1930803,,,,,,,2022-08-16,1,,,,,,0
791,4010105002176,新規,0,2022-08-16,2022-08-16,グレーシアパーク八王子みなみ野管理組合法人,,その他の設立登記法人,東京都,八王子市,みなみ野４丁目２５番１号,,13,201,1920916,,,,,,,2022-08-16,1,,,,,グレーシアパークハチオウジミナミノ,0
794,4010401169009,新規,0,2022-08-16,2022-08-16,Ｍ‐ＤＡＱＪａｐａｎ株式会社,,株式会社,東京都,港区,赤坂２丁目２３番１号アークヒルズ・フロントタワーＩｎＣｏｎｔｒｏｌ内,,13,103,1070052,,,,,,,2022-08-16,1,,,,,エムダックジャパン,0
795,4010401169033,新規,0,2022-08-16,2022-08-16,ＲＥＡＬ‐Ａ株式会社,,株式会社,東京都,港区,南青山２丁目２番１５号ウィン青山９４２,,13,103,1070062,,,,,,,2022-08-16,1,,,,,リアルエー,0
796,4010401169058,新規,0,2022-08-16,2022-08-16,株式会社Ｒｉｄｅ．ＪＰ,,株式会社,東京都,港区,麻布十番１丁目２番７号,,13,103,1060045,,,,,,,2022-08-16,1,,,,,ライドジェイピー,0
797,4010401169066,新規,0,2022-08-16,2022-08-16,株式会社Ｌｅ　ｍｏｍｅｎｔ,,株式会社,東京都,港区,六本木４丁目３番１１号六本木ユニハウス２２３,,13,103,1060032,,,,,,,2022-08-16,1,,,,,ラモモン,0
798,4010401169082,新規,0,2022-08-16,2022-08-16,株式会社キーレイズ,,株式会社,東京都,港区,芝４丁目７番６号,,13,103,1080014,,,,,,,2022-08-16,1,,,,,キーレイズ,0
799,4010401169116,新規,0,2022-08-16,2022-08-16,株式会社マリエフォルテ,,株式会社,東京都,港区,六本木７丁目７番１３号,,13,103,1060032,,,,,,,2022-08-16,1,,,,,マリエフォルテ,0
800,4010401169149,新規,0,2022-08-16,2022-08-16,株式会社富士鳥居,,株式会社,東京都,港区,南青山６丁目１番６号,,13,103,1070062,,,,,,,2022-08-16,1,,,,,フジトリイ,0
802,4010403028303,新規,0,2022-08-16,2022-08-16,合同会社新発田バイオマス発電所,,合同会社,東京都,港区,浜松町１丁目１番１０号,,13,103,1050013,,,,,,,2022-08-16,1,,,,,シバタバイオマスハツデンショ,0
804,4010501049226,新規,0,2022-08-16,2022-08-16,株式会社Ｂｒａｓｈ　Ｕｐ,,株式会社,東京都,台東区,浅草４丁目２３番７号,,13,106,1110032,,,,,,,2022-08-16,1,,,,,ブラッシュアップ,0
805,4010501049242,新規,0,2022-08-16,2022-08-16,晨麓株式会社,,株式会社,東京都,台東区,上野５丁目８番１０－９０５号上野アビタシオン,,13,106,1100005,,,,,,,2022-08-16,1,,,,,シンフモト,0
807,4010601061683,新規,0,2022-08-16,2022-08-16,株式会社ホライズンアンドカンパニー九州,,株式会社,東京都,江東区,有明３丁目５番７号ＴＯＣ有明イーストタワー７階,,13,108,1350063,,,,,,,2022-08-16,1,,,,,ホライズンアンドカンパニーキュウシュウ,0
808,4010601061691,新規,0,2022-08-16,2022-08-16,株式会社スターゲート,,株式会社,東京都,墨田区,向島５丁目３４－２３０１,,13,107,1310033,,,,,,,2022-08-16,1,,,,,スターゲート,0
809,4010603009689,新規,0,2022-08-16,2022-08-16,ＡＣＣＯＴＲＡ合同会社,,合同会社,東京都,江東区,有明１丁目４番２０号２０３１,,13,108,1350063,,,,,,,2022-08-16,1,,,,,アコトラ,0
810,4010701043078,新規,0,2022-08-16,2022-08-16,株式会社ワーク・ステーション,,株式会社,東京都,品川区,旗の台２丁目１１番４－１１０２号,,13,109,1420064,,,,,,,2022-08-16,1,,,,,ワークステーション,0
819,4010901051426,新規,0,2022-08-16,2022-08-16,株式会社みらいＤＣ,,株式会社,東京都,世田谷区,上祖師谷２丁目２番３５－１３０号,,13,112,1570065,,,,,,,2022-08-16,1,,,,,ミライディーシー,0
829,4011001149169,新規,0,2022-08-16,2022-08-16,株式会社ｔｏ　ｂｅ,,株式会社,東京都,渋谷区,渋谷２丁目１９－１５宮益坂ビルディング６０９,,13,113,1500002,,,,,,,2022-08-16,1,,,,,トゥービー,0
830,4011001149185,新規,0,2022-08-16,2022-08-16,株式会社ユニオン,,株式会社,東京都,渋谷区,笹塚３丁目１７－４にしのビル３０２号,,13,113,1510073,,,,,,,2022-08-16,1,,,,,ユニオン,0
831,4011001149193,新規,0,2022-08-16,2022-08-16,株式会社Ｂｌｕｅ　Ｆｌｉｎｔ,,株式会社,東京都,渋谷区,神宮前６丁目２３番４号桑野ビル２階,,13,113,1500001,,,,,,,2022-08-16,1,,,,,ブルーフリント,0
832,4011001149202,新規,0,2022-08-16,2022-08-16,株式会社ＡＰＥＸ　ＭＡＲＫＥＴＩＮＧ,,株式会社,東京都,渋谷区,渋谷１丁目１５－１２ＬＡＩＤＯＵＴＳＨＩＢＵＹＡ２０４,,13,113,1500002,,,,,,,2022-08-16,1,,,,,エーペックスマーケティング,0
833,4011001149276,新規,0,2022-08-16,2022-08-16,株式会社リブラ,,株式会社,東京都,目黒区,目黒３丁目１番７－３０６号,,13,110,1530063,,,,,,,2022-08-16,1,,,,,リブラ,0
834,4011003015220,新規,0,2022-08-16,2022-08-16,ｄｅｖｄｅｓｉｇｎ合同会社,,合同会社,東京都,渋谷区,富ヶ谷２丁目３６番５号中西ビル２０５,,13,113,1510063,,,,,,,2022-08-16,1,,,,,デブデザイン,0
835,4011101099875,新規,0,2022-08-16,2022-08-16,株式会社Ｅａｒｎｅｓｔ,,株式会社,東京都,新宿区,新宿２丁目１３番１０号,,13,104,1600022,,,,,,,2022-08-16,1,,,,,アーネスト,0
840,4011105010359,新規,0,2022-08-16,2022-08-16,一般社団法人希望への道,,その他の設立登記法人,東京都,新宿区,百人町１丁目１９―１３塚本ビル３階,,13,104,1690073,,,,,,,2022-08-16,1,,,,,キボウヘノミチ,0
844,4011501028392,新規,0,2022-08-16,2022-08-16,株式会社ＢＣＬａｂｏ,,株式会社,東京都,荒川区,南千住５丁目２３－４ジーフラックス２ｃ,,13,118,1160003,,,,,,,2022-08-16,1,,,,,ビーシーラボ,0
851,4011703003227,新規,0,2022-08-16,2022-08-16,合同会社ＭＥＧＵＭＩ,,合同会社,東京都,江戸川区,西瑞江４丁目１４－５５,,13,123,1340015,,,,,,,2022-08-16,1,,,,,メグミ,0
853,4012305002022,新規,0,2022-08-16,2022-08-16,ファーストクラス町田駅前管理組合法人,,その他の設立登記法人,東京都,町田市,原町田１丁目１番５号,,13,209,1940013,,,,,,,2022-08-16,1,,,,,ファーストクラスマチダエキマエ,0
854,4012403005546,新規,0,2022-08-16,2022-08-16,ラニカイコンサルティング合同会社,,合同会社,東京都,調布市,染地１丁目２１番地１６,,13,208,1820023,,,,,,,2022-08-16,1,,,,,ラニカイコンサルティング,0
861,4020001147719,新規,0,2022-08-16,2022-08-16,ＰＡＶＥ株式会社,,株式会社,神奈川県,横浜市港北区,錦が丘２３－７－Ｂ１,,14,109,2220013,,,,,,,2022-08-16,1,,,,,パヴェ,0
862,4020001147743,新規,0,2022-08-16,2022-08-16,株式会社ＳＡＮＳ,,株式会社,神奈川県,横浜市中区,常盤町３丁目２２番地３徳栄ビル４－４０３号,,14,104,2310014,,,,,,,2022-08-16,1,,,,,サンズ,0
871,4021003012043,新規,0,2022-08-16,2022-08-16,合同会社イグアル,,合同会社,神奈川県,大和市,深見西８丁目１０番６号,,14,213,2420018,,,,,,,2022-08-16,1,,,,,イグアル,0
879,4030001149689,新規,0,2022-08-16,2022-08-16,株式会社Ｍｄｒｒｒｒｒ,,株式会社,埼玉県,さいたま市南区,内谷７丁目４番８号,,11,108,3360034,,,,,,,2022-08-16,1,,,,,モルドュリール,0
884,4030003019972,新規,0,2022-08-16,2022-08-16,ＨＦＣＴ合同会社,,合同会社,埼玉県,川口市,金山町１２番１－３１０４号サウスゲートタワー川口,,11,203,3320014,,,,,,,2022-08-16,1,,,,,エイチエフシーティ,0
885,4030005020961,新規,0,2022-08-16,2022-08-16,医療法人ＳＰＧ,,その他の設立登記法人,埼玉県,草加市,栄町２丁目１１番９号松原ツインタワービルＡ棟４階,,11,221,3400011,,,,,,,2022-08-16,1,,,,,エスピージー,0
889,4040001124682,新規,0,2022-08-16,2022-08-16,株式会社Ｌｅｏｎａｒｄ,,株式会社,千葉県,木更津市,真舟３丁目４番８号,,12,206,2920802,,,,,,,2022-08-16,1,,,,,レナード,0
890,4040001124708,新規,0,2022-08-16,2022-08-16,ウェルフェア・イノベーション株式会社,,株式会社,千葉県,千葉市若葉区,桜木８丁目６番６号ハピネスＩＩ３０６号,00127539,12,104,2640028,,,,,,,2022-08-16,1,,,,,ウェルフェアイノベーション,0
891,4040001124716,新規,0,2022-08-16,2022-08-16,株式会社松戸社中,,株式会社,千葉県,松戸市,横須賀２丁目３番地の１９アヴァンセ・クロシェット２０２号,,12,207,2700031,,,,,,,2022-08-16,1,,,,,マツドシャチュウ,0
895,4040003020632,新規,0,2022-08-16,2022-08-16,合同会社ＲＥＡＣＴ,,合同会社,千葉県,八千代市,緑が丘１丁目１１番地１２,,12,221,2760049,,,,,,,2022-08-16,1,,,,,リアクト,0
896,4040005021711,新規,0,2022-08-16,2022-08-16,一般社団法人四番隊,,その他の設立登記法人,千葉県,袖ケ浦市,奈良輪３１９番地つばさガーデン奈良輪５０６号,,12,229,2990263,,,,,,,2022-08-16,1,,,,,ヨンバンタイ,0
900,4050003006770,新規,0,2022-08-16,2022-08-16,合同会社ＡＳＬ,,合同会社,茨城県,稲敷市,椎塚１２０７番地２２,,08,229,3000512,,,,,,,2022-08-16,1,,,,,エーエスエル,0
901,4050003006779,新規,0,2022-08-16,2022-08-16,合同会社ＫＴサービス,,合同会社,茨城県,鹿嶋市,大字浜津賀８２６番地２,,08,222,3112203,,,,,,,2022-08-16,1,,,,,ケイティサービス,0
904,4060001035184,新規,0,2022-08-16,2022-08-16,株式会社心栄建設,,株式会社,栃木県,真岡市,上高間木３丁目１８番地２,,09,209,3214337,,,,,,,2022-08-16,1,,,,,ココロエケンセツ,0
906,4070001039548,新規,0,2022-08-16,2022-08-16,株式会社ＬｉｎｋＰｌａｎｎｅｒ,,株式会社,群馬県,前橋市,総社町植野１４０番地８,,10,201,3710851,,,,,,,2022-08-16,1,,,,,リンクプランナー,0
915,4110001036895,新規,0,2022-08-16,2022-08-16,ロカヴォール株式会社,,株式会社,新潟県,燕市,本町２丁目１番１９号燕駅前ビル１Ｆ２号,,15,213,9591253,,,,,,,2022-08-16,1,,,,,ロカヴォール,0
927,4120001248119,新規,0,2022-08-16,2022-08-16,株式会社ＯＮＥ　ＣＲＯＳＳ,,株式会社,大阪府,大阪市東成区,深江北２丁目１番３号,,27,115,5370001,,,,,,,2022-08-16,1,,,,,ワンクロス,0
928,4120001248201,新規,0,2022-08-16,2022-08-16,株式会社Ｎ．Ｋｃｏｍｐａｎｙ,,株式会社,大阪府,大阪市住之江区,新北島１丁目４番２８号,,27,125,5590024,,,,,,,2022-08-16,1,,,,,エヌケーカンパニー,0
929,4120001248218,新規,0,2022-08-16,2022-08-16,星空株式会社,,株式会社,大阪府,大阪市阿倍野区,阿倍野元町１４－５－４１３号室,,27,119,5450034,,,,,,,2022-08-16,1,,,,,ホシゾラ,0
933,4120003022273,新規,0,2022-08-16,2022-08-16,合同会社ＣＬＯＶＥＲ　ＣＲＥＡＴＥ,,合同会社,大阪府,大阪市西成区,萩之茶屋２丁目８番３号,,27,122,5570004,,,,,,,2022-08-16,1,,,,,クローバークリエイト,0
940,4120101066098,新規,0,2022-08-16,2022-08-16,株式会社マインド,,株式会社,大阪府,堺市中区,深井清水町３７６８番地２プロスパーハイツ深井４０５号,,27,142,5998273,,,,,,,2022-08-16,1,,,,,マインド,0
945,4120103004816,新規,0,2022-08-16,2022-08-16,合同会社彩幸日和,,合同会社,大阪府,和泉市,富秋町１丁目１３番６２号,,27,219,5940082,,,,,,,2022-08-16,1,,,,,サイコウビヨリ,0
948,4120903004271,新規,0,2022-08-16,2022-08-16,合同会社Ｄ‐Ｉｎｓｉｇｈｔ,,合同会社,大阪府,豊中市,上新田１丁目１８番１－１００３号,,27,203,5600085,,,,,,,2022-08-16,1,,,,,ディインサイト,0
950,4122001036164,新規,0,2022-08-16,2022-08-16,株式会社樋口翠松園,00127535,株式会社,大阪府,八尾市,服部川６丁目２８６番地,,27,212,5810865,,,,,,,2022-08-16,1,,,,,ヒグチスイショウエン,0
954,4130001072443,新規,0,2022-08-16,2022-08-16,株式会社中須左官店,,株式会社,京都府,京都市右京区,山ノ内瀬戸畑町１０番地９,,26,108,6150083,,,,,,,2022-08-16,1,,,,,ナカスサカンテン,0
964,4140001127080,新規,0,2022-08-16,2022-08-16,株式会社ココイロ,,株式会社,兵庫県,神戸市西区,平野町大畑４５６,,28,111,6512264,,,,,,,2022-08-16,1,,,,,ココイロ,0
965,4140001127106,新規,0,2022-08-16,2022-08-16,ＳＵＮ輪ＢＡＳＥ株式会社,,株式会社,兵庫県,神戸市垂水区,塩屋北町２丁目２番６号,,28,108,6550863,,,,,,,2022-08-16,1,,,,,サンワベース,0
968,4140003018039,新規,0,2022-08-16,2022-08-16,合同会社ＡＳＡ,,合同会社,兵庫県,尼崎市,神田中通９丁目２８５番地の１４,,28,202,6600884,,,,,,,2022-08-16,1,,,,,エーエスエー,0
973,4150001025770,新規,0,2022-08-16,2022-08-16,株式会社Ａｒｘｃｓ,,株式会社,奈良県,北葛城郡王寺町,王寺２丁目１２－１１プラウディアコート９０３,,29,425,6360002,,,,,,,2022-08-16,1,,,,,アークス,0
988,4180001152604,新規,0,2022-08-16,2022-08-16,株式会社ＹＧＰ,,株式会社,愛知県,名古屋市東区,代官町１５－３,,23,102,4610002,,,,,,,2022-08-16,1,,,,,ワイジーピー,0
989,4180001152629,新規,0,2022-08-16,2022-08-16,株式会社エヌ設計,,株式会社,愛知県,名古屋市天白区,鴻の巣１丁目１５１５番地の１,,23,116,4680003,,,,,,,2022-08-16,1,,,,,エヌセッケイ,0
1003,4280003001641,新規,0,2022-08-16,2022-08-16,合同会社４Ｌｅｇｓ．ｃｏｍｐａｎｙ,,合同会社,島根県,益田市,東町２８番５１号,,32,204,6980004,,,,,,,2022-08-16,1,,,,,ヨンレッグスドットカンパニー,0
1006,4290001098596,新規,0,2022-08-16,2022-08-16,Ｃｈｕｎｇ　Ｈｉｎｇ　Ｌｉｍｉｔｅｄ，Ｊａｐａｎ株式会社,,株式会社,福岡県,福岡市東区,香椎照葉５丁目１番１２－３５０１号,,40,131,8130017,,,,,,,2022-08-16,1,,,,,チョンヒェンリミテッドジャパン,0
1007,4290001098613,新規,0,2022-08-16,2022-08-16,株式会社ＲＣＦ,,株式会社,福岡県,糸島市,潤３丁目２９番１号,,40,230,8191105,,,,,,,2022-08-16,1,,,,,アールシーエフ,0
1009,4290801028819,新規,0,2022-08-16,2022-08-16,株式会社Ｇｕｚｍａｎｉａ,,株式会社,福岡県,北九州市小倉北区,浅野３丁目８番１号ＡＩＭビル６階,,40,106,8020001,,,,,,,2022-08-16,1,,,,,グズマニア,0
1019,4360001030824,新規,0,2022-08-16,2022-08-16,株式会社ＧＯＯＤＤＡＹ,,株式会社,沖縄県,那覇市,安謝１丁目９番１９号,,47,201,9000003,,,,,,,2022-08-16,1,,,,,グッドダイ,0
1021,4360003012234,新規,0,2022-08-16,2022-08-16,合同会社ＩＭＡＧＥＭ,,合同会社,沖縄県,那覇市,安謝２丁目２８番地２７,,47,201,9000003,,,,,,,2022-08-16,1,,,,,イマージェン,0
1022,4370001048931,新規,0,2022-08-16,2022-08-16,ＩＣＴソリューションズ株式会社,,株式会社,宮城県,柴田郡村田町,大字村田字反町１６番地Ｅ－２,,04,322,9891305,,,,,,,2022-08-16,1,,,,,アイシーティーソリューションズ,0
1028,4380001033057,新規,0,2022-08-16,2022-08-16,株式会社温菓,,株式会社,福島県,いわき市,常磐上湯長谷町堀ノ内１０２番地の８,,07,204,9728322,,,,,,,2022-08-16,1,,,,,オンカ,0
1029,4380005012610,新規,0,2022-08-16,2022-08-16,一般社団法人ＰＥＰ　ＭＯＴＯＭＡＣＨＩ,,その他の設立登記法人,福島県,郡山市,本町１丁目１４番１９号２階,,07,203,9638871,,,,,,,2022-08-16,1,,,,,ペップモトマチ,0
1032,4390003001985,新規,0,2022-08-16,2022-08-16,鈴友林業合同会社,,合同会社,山形県,鶴岡市,茅原町１７番７号,,06,203,9970018,,,,,,,2022-08-16,1,,,,,スズトモリンギョウ,0
1037,4430005014535,新規,0,2022-08-16,2022-08-16,ＮＰＯ法人ホワイトベア,,その他の設立登記法人,北海道,札幌市東区,北十九条東１５丁目１番２１号,,01,103,0650019,,,,,,,2022-08-16,1,,,,,ホワイトベア,0
1046,4490001010251,新規,0,2022-08-16,2022-08-16,株式会社ＳＡエンジニアリング,,株式会社,高知県,須崎市,浦ノ内西分８０４番地,,39,206,7850161,,,,,,,2022-08-16,1,,,,,エスエーエンジニアリング,0
1049,4490003001694,新規,0,2022-08-16,2022-08-16,合同会社ｃｏｍｐａｓｓｉｏｎ,,合同会社,高知県,高知市,北御座１１番８号,,39,201,7810083,,,,,,,2022-08-16,1,,,,,コンパッション,0
1058,5010001228766,新規,0,2022-08-16,2022-08-16,株式会社カレイドグラフィックス,,株式会社,東京都,千代田区,神田佐久間町３丁目２１番５号ヒガシカンダビル３０７号,,13,101,1010025,,,,,,,2022-08-16,1,,,,,カレイドグラフィックス,0
1059,5010001228782,新規,0,2022-08-16,2022-08-16,ＹＭジャパン株式会社,,株式会社,東京都,中央区,銀座１丁目２２番１１号,,13,102,1040061,,,,,,,2022-08-16,1,,,,,ワイエムジャパン,0
1060,5010001228865,新規,0,2022-08-16,2022-08-16,株式会社ＭＫＲ,,株式会社,東京都,中央区,日本橋箱崎町３２番３－１０３号,,13,102,1030015,,,,,,,2022-08-16,1,,,,,エムケーアール,0
1061,5010003038412,新規,0,2022-08-16,2022-08-16,合同会社ハッピー浅草,,合同会社,東京都,千代田区,霞が関３丁目２番５号,,13,101,1000013,,,,,,,2022-08-16,1,,,,,ハッピーアサクサ,0
1062,5010003038429,新規,0,2022-08-16,2022-08-16,ＫＥＩサービス合同会社,,合同会社,東京都,中央区,銀座１丁目１５番７号ＭＡＣ銀座ビル３階,,13,102,1040061,,,,,,,2022-08-16,1,,,,,ケイサービス,0
1064,5010005035366,新規,0,2022-08-16,2022-08-16,一般社団法人承継計画研究所,,その他の設立登記法人,東京都,中央区,日本橋堀留町２丁目３番８号田源ビル４階,,13,102,1030012,,,,,,,2022-08-16,1,,,,,ショウケイケイカクケンキュウジョ,0
1065,5010005035440,新規,0,2022-08-16,2022-08-16,一般社団法人ハッピー浅草,,その他の設立登記法人,東京都,千代田区,霞が関３丁目２番５号,,13,101,1000013,,,,,,,2022-08-16,1,,,,,ハッピーアサクサ,0
1069,5010401168942,新規,0,2022-08-16,2022-08-16,ＯＢＦａｌｌ株式会社,,株式会社,東京都,港区,海岸３丁目８番１号シーフォレシティ芝浦５０８,,13,103,1080022,,,,,,,2022-08-16,1,,,,,オブフォール,0
1070,5010401169016,新規,0,2022-08-16,2022-08-16,西麻布管財株式会社,,株式会社,東京都,港区,西麻布２丁目１３番１５号大山ビル５Ｆ,,13,103,1060031,,,,,,,2022-08-16,1,,,,,ニシアザブカンザイ,0
1071,5010401169057,新規,0,2022-08-16,2022-08-16,株式会社＆Ｌｕｘｅ,,株式会社,東京都,港区,芝浦４丁目２０番２－３４０５号,,13,103,1080023,,,,,,,2022-08-16,1,,,,,アンドリュクス,0
1072,5010401169073,新規,0,2022-08-16,2022-08-16,株式会社ＳＥＧ,,株式会社,東京都,港区,西新橋２丁目１４番７号笠井ビル４階,,13,103,1050003,,,,,,,2022-08-16,1,,,,,エスイージー,0
1075,5010501049241,新規,0,2022-08-16,2022-08-16,株式会社ヘキサクリエイト,,株式会社,東京都,台東区,下谷３丁目８番４号Ａｐｒｉｃｏｔ上野入谷,,13,106,1100004,,,,,,,2022-08-16,1,,,,,ヘキサクリエイト,0
1078,5010601061682,新規,0,2022-08-16,2022-08-16,株式会社エフエフシー,,株式会社,東京都,江東区,有明３丁目５番７号ＴＯＣ有明イーストタワー７階,,13,108,1350063,,,,,,,2022-08-16,1,,,,,エフエフシー,0
1079,5010601061690,新規,0,2022-08-16,2022-08-16,月見草株式会社,,株式会社,東京都,墨田区,文花１丁目３４番１１－３１２号,,13,107,1310044,,,,,,,2022-08-16,1,,,,,ツキミソウ,0
1082,5010703006338,新規,0,2022-08-16,2022-08-16,ＦＹアカウンティング合同会社,,合同会社,東京都,品川区,上大崎３丁目１番１５号グランドレジデンス目黒１０３,,13,109,1410021,,,,,,,2022-08-16,1,,,,,エフワイアカウンティング,0
1083,5010801033192,新規,0,2022-08-16,2022-08-16,株式会社ｙａｂｕ　ｆｏｏｄ　Ｃｏｍｐａｎｙ,,株式会社,東京都,大田区,蒲田５丁目２１番１３号ペガサスステーションＢ２－３２号室,,13,111,1440052,,,,,,,2022-08-16,1,,,,,ヤブフードカンパニー,0
1084,5010901051425,新規,0,2022-08-16,2022-08-16,株式会社ＵＲＡＫＡＴＡ,,株式会社,東京都,世田谷区,北沢２丁目２６－１９ヒルズＩＩ４０２,00127534,13,112,1550031,,,,,,,2022-08-16,1,,,,,ウラカタ,0
1091,5011001149184,新規,0,2022-08-16,2022-08-16,株式会社ＣＩＲＣＯ,,株式会社,東京都,目黒区,目黒４丁目２１番５号,,13,110,1530063,,,,,,,2022-08-16,1,,,,,チルコ,0
1092,5011001149192,新規,0,2022-08-16,2022-08-16,エアビジョン株式会社,,株式会社,東京都,渋谷区,千駄ヶ谷４丁目２９番１２号北参道ダイヤモンドパレス１０４,,13,113,1510051,,,,,,,2022-08-16,1,,,,,エアビジョン,0
1094,5011003015194,新規,0,2022-08-16,2022-08-16,ａ‐ｗｏｒｋ合同会社,,合同会社,東京都,目黒区,東が丘２丁目５番２８－１２０５号ＭＡＳＴＬｉｆｅＡＮＮＥＸ,,13,110,1520021,,,,,,,2022-08-16,1,,,,,エーワーク,0
1095,5011003015203,新規,0,2022-08-16,2022-08-16,合同会社Ｆ‐Ｓｔｅｐｓ,,合同会社,東京都,渋谷区,渋谷２丁目１９番１５号宮益坂ビルディング６０９,,13,113,1500002,,,,,,,2022-08-16,1,,,,,エフステップス,0
1097,5011103012059,新規,0,2022-08-16,2022-08-16,成信合同会社,,合同会社,東京都,新宿区,大久保２丁目１３番１２－１０１号,,13,104,1690072,,,,,,,2022-08-16,1,,,,,セイシン,0
1098,5011103012067,新規,0,2022-08-16,2022-08-16,ＯＳＨＩＴＯＤＡＴＥ合同会社,,合同会社,東京都,新宿区,矢来町４１番地ザ・ＦハウスＮＯ．１２,,13,104,1620805,,,,,,,2022-08-16,1,,,,,オシトデート,0
1104,5011501028391,新規,0,2022-08-16,2022-08-16,株式会社翔栄,,株式会社,東京都,北区,志茂２丁目５９番２号,,13,117,1150042,,,,,,,2022-08-16,1,,,,,ショウエイ,0
1118,5011801041144,新規,0,2022-08-16,2022-08-16,金達国際株式会社,,株式会社,東京都,葛飾区,堀切１丁目１７－１１－３０２号デュオ堀切菖蒲園,,13,122,1240006,,,,,,,2022-08-16,1,,,,,キンタツコクサイ,0
1122,5013103001157,新規,0,2022-08-16,2022-08-16,ＭＩＮＨ　ＮＧＯＣ合同会社,,合同会社,東京都,福生市,本町９５番地９サンライズ福生３０１号,,13,218,1970022,,,,,,,2022-08-16,1,,,,,ミンゴック,0
1123,5013301049502,新規,0,2022-08-16,2022-08-16,株式会社ＳＪＹ,,株式会社,東京都,豊島区,南大塚３丁目１番１２－９０２号,,13,116,1700005,,,,,,,2022-08-16,1,,,,,エスジェイワイ,0
1124,5013301049510,新規,0,2022-08-16,2022-08-16,ＩＫＳ　ＪＡＰＡＮ株式会社,,株式会社,東京都,豊島区,高田３丁目１５番１４号５階,,13,116,1710033,,,,,,,2022-08-16,1,,,,,イクスジャパン,0
1129,5020001147718,新規,0,2022-08-16,2022-08-16,ＭＯＦＯ　ＴＯＫＹＯ株式会社,,株式会社,神奈川県,川崎市宮前区,犬蔵３丁目１５－４３,,14,136,2160011,,,,,,,2022-08-16,1,,,,,モフォトウキョウ,0
1132,5021001076741,新規,0,2022-08-16,2022-08-16,株式会社Ｏｆｆｉｃｅ　Ｔｅｅ,,株式会社,神奈川県,足柄上郡大井町,金手１０４８番地３,,14,362,2580018,,,,,,,2022-08-16,1,,,,,オフィスティ,0
1133,5021001076774,新規,0,2022-08-16,2022-08-16,株式会社Ａ．Ｒ．Ｔ,,株式会社,神奈川県,相模原市中央区,田名３１６４番地１０,,14,152,2520244,,,,,,,2022-08-16,1,,,,,アート,0
1134,5021001076782,新規,0,2022-08-16,2022-08-16,株式会社和田防水,,株式会社,神奈川県,相模原市南区,相武台１丁目１１番６－２０３号,,14,153,2520324,,,,,,,2022-08-16,1,,,,,ワダボウスイ,0
1149,5030003020005,新規,0,2022-08-16,2022-08-16,合同会社クマ,,合同会社,埼玉県,熊谷市,箱田４６－８,,11,202,3600014,,,,,,,2022-08-16,1,,,,,クマ,0
1162,5070001039539,新規,0,2022-08-16,2022-08-16,株式会社アイリーン,,株式会社,群馬県,桐生市,新里町新川３７７９番地１０－３,,10,203,3760121,,,,,,,2022-08-16,1,,,,,アイリーン,0
1163,5070001039547,新規,0,2022-08-16,2022-08-16,東総合保険株式会社,,株式会社,群馬県,伊勢崎市,小泉町１５５番地５,,10,204,3792232,,,,,,,2022-08-16,1,,,,,アズマソウゴウホケン,0
1164,5080101023482,新規,0,2022-08-16,2022-08-16,株式会社Ｌｉｆｅ　Ｓｍｉｌｅ,,株式会社,静岡県,下田市,西本郷１丁目１０番６‐２号,,22,219,4150036,,,,,,,2022-08-16,1,,,,,ライフスマイル,0
1178,5120001248092,新規,0,2022-08-16,2022-08-16,株式会社八十八,,株式会社,大阪府,大阪市北区,本庄西１丁目６番１４号,,27,127,5310073,,,,,,,2022-08-16,1,,,,,ハチハチ,0
1179,5120001248175,新規,0,2022-08-16,2022-08-16,株式会社Ｓｅｐｔ,,株式会社,大阪府,大阪市北区,天神橋３丁目５番２３号ＳＵＮＰＡＸ３０１号室,,27,127,5300041,,,,,,,2022-08-16,1,,,,,セプト,0
1180,5120001248191,新規,0,2022-08-16,2022-08-16,株式会社ＬＩＮＫ,,株式会社,大阪府,大阪市東淀川区,東中島１丁目２１番２４号２Ｆ,,27,114,5330033,,,,,,,2022-08-16,1,,,,,リンク,0
1182,5120003022306,新規,0,2022-08-16,2022-08-16,ＰＩＧＥＯＮ　ＧＲＯＵＰ合同会社,,合同会社,大阪府,大阪市浪速区,元町２丁目３―１４―３１２,,27,111,5560016,,,,,,,2022-08-16,1,,,,,ピジョングループ,0
1185,5120101066089,新規,0,2022-08-16,2022-08-16,株式会社優凪,,株式会社,大阪府,堺市西区,北条町１丁３０－５１ヒルサイドマンション１０２号室,,27,144,5938302,,,,,,,2022-08-16,1,,,,,ユウナギ,0
1189,5120103004815,新規,0,2022-08-16,2022-08-16,合同会社笑福,,合同会社,大阪府,阪南市,下出１０７番地の７,,27,232,5990202,,,,,,,2022-08-16,1,,,,,エフク,0
1191,5122001036171,新規,0,2022-08-16,2022-08-16,株式会社カツオ,,株式会社,大阪府,四條畷市,南野２丁目９番６号,,27,229,5750021,,,,,,,2022-08-16,1,,,,,カツオ,0
1192,5122003002403,新規,0,2022-08-16,2022-08-16,合同会社ヤマトクリーンサービス,,合同会社,大阪府,東大阪市,稲葉１丁目８－２４,,27,227,5780925,,,,,,,2022-08-16,1,,,,,ヤマトクリーンサービス,0
1194,5130003008114,新規,0,2022-08-16,2022-08-16,合同会社ＺＥＲＯ,,合同会社,京都府,亀岡市,本梅町平松河原垣内１８,,26,206,6210251,,,,,,,2022-08-16,1,,,,,ゼロ,0
1203,5140001127055,新規,0,2022-08-16,2022-08-16,株式会社ＮＹ,,株式会社,兵庫県,神戸市中央区,下山手通２丁目１番４号エレンシアビル３階,,28,110,6500011,,,,,,,2022-08-16,1,,,,,エヌワイ,0
1204,5140001127063,新規,0,2022-08-16,2022-08-16,Ｍ＆Ｍ　Ｓｉｓｔｅｒｓ株式会社,,株式会社,兵庫県,神戸市西区,竹の台２丁目１番地の３２,,28,111,6512274,,,,,,,2022-08-16,1,,,,,エムアンドエムシスターズ,0
1205,5140001127121,新規,0,2022-08-16,2022-08-16,タイズ＆リンク・アセットマネジメント株式会社,,株式会社,兵庫県,神戸市中央区,北野町４丁目１２番３８号,,28,110,6500002,,,,,,,2022-08-16,1,,,,,タイズアンドリンクアセットマネジメント,0
1210,5140003018038,新規,0,2022-08-16,2022-08-16,合同会社ファストコーポレーション,,合同会社,兵庫県,小野市,片山町１２６２番地キャスター片山２０２号室,,28,218,6751335,,,,,,,2022-08-16,1,,,,,ファストコーポレーション,0
1221,5180001152578,新規,0,2022-08-16,2022-08-16,株式会社リレア,,株式会社,愛知県,名古屋市昭和区,南分町２丁目４９番地,,23,107,4660849,,,,,,,2022-08-16,1,,,,,リレア,0
1222,5180001152644,新規,0,2022-08-16,2022-08-16,株式会社Ｌｅｉ,,株式会社,愛知県,名古屋市中区,栄２丁目８番５号,,23,106,4600008,,,,,,,2022-08-16,1,,,,,レイ,0
1230,5240003005752,新規,0,2022-08-16,2022-08-16,ＲＡＩＳＥ合同会社,,合同会社,広島県,広島市東区,福田５丁目１９３１番地３８,,34,102,7320029,,,,,,,2022-08-16,1,,,,,ライズ,0
1232,5240005015436,新規,0,2022-08-16,2022-08-16,一般社団法人ＳＤＧｓｘ総探共育アカデミア,,その他の設立登記法人,広島県,東広島市,西条町下見４１９７番地１２,,34,212,7390044,,,,,,,2022-08-16,1,,,,,エスディージーズソウタンキョウイクアカデミア,0
1237,5250001019712,新規,0,2022-08-16,2022-08-16,フルサイクル株式会社,,株式会社,山口県,周南市,大字久米９３１番地の９９　１－１０３号,,35,215,7450801,,,,,,,2022-08-16,1,,,,,フルサイクル,0
1242,5280003001640,新規,0,2022-08-16,2022-08-16,合同会社柿の和,,合同会社,島根県,鹿足郡吉賀町,柿木２７５番地,,32,505,6995301,,,,,,,2022-08-16,1,,,,,カキノナゴミ,0
1252,5290801028818,新規,0,2022-08-16,2022-08-16,株式会社ＯＮＥＷＡＹ　ＧＬＯＯＰ,,株式会社,福岡県,北九州市小倉南区,下曽根４丁目１３番１６号,,40,107,8000217,,,,,,,2022-08-16,1,,,,,ワンウェイグループ,0
1264,5360001030831,新規,0,2022-08-16,2022-08-16,沖縄くがに保険サービス株式会社,,株式会社,沖縄県,中頭郡西原町,棚原１丁目２１番地の４,,47,329,9030126,,,,,,,2022-08-16,1,,,,,オキナワクガニホケンサービス,0
1278,5700150110218,新規,0,2022-08-16,2022-06-22,アトリエ・サバト,,その他,東京都,杉並区,高円寺北１丁目１５－５－１０１,,13,115,1660002,,,,,,,2022-06-22,1,,,,,アトリエサバト,0
1297,6010001228765,新規,0,2022-08-16,2022-08-16,株式会社五龍神,,株式会社,東京都,中央区,銀座６丁目１３番１６号,,13,102,1040061,,,,,,,2022-08-16,1,,,,,ゴリュウジン,0
1298,6010001228773,新規,0,2022-08-16,2022-08-16,株式会社じんせい,,株式会社,東京都,中央区,銀座１丁目２２番１１号銀座大竹ビジデンス２階,,13,102,1040061,,,,,,,2022-08-16,1,,,,,ジンセイ,0
1299,6010001228864,新規,0,2022-08-16,2022-08-16,株式会社Ｐｅｒｉｔａｇｅ,,株式会社,東京都,中央区,銀座１丁目２２番１１号銀座大竹ビジデンス２階,,13,102,1040061,,,,,,,2022-08-16,1,,,,,,0
1306,6010003038428,新規,0,2022-08-16,2022-08-16,合同会社Ｈ．Ｂ．Ｂ,,合同会社,東京都,中央区,銀座７丁目１７番１８号ジュエル銀座４０５号室,,13,102,1040061,,,,,,,2022-08-16,1,,,,,エイチビービー,0
1310,6010101015295,新規,0,2022-08-16,2022-08-16,株式会社Ｖｏｉｃｅ,,株式会社,東京都,八王子市,子安町２丁目３４－１８ＦＯＲＴ子安４０２号,,13,201,1920904,,,,,,,2022-08-16,1,,,,,ボイス,0
1311,6010105002174,新規,0,2022-08-16,2022-08-16,一般社団法人虔十の木,,その他の設立登記法人,東京都,八王子市,上壱分方町１８５番地１２,,13,201,1930811,,,,,,,2022-08-16,1,,,,,ケンジュウノキ,0
1319,6010401169147,新規,0,2022-08-16,2022-08-16,ＲＹＣパートナーズ株式会社,,株式会社,東京都,港区,浜松町２丁目２番１５号,,13,103,1050013,,,,,,,2022-08-16,1,,,,,アールワイシーパートナーズ,0
1320,6010403028169,新規,0,2022-08-16,2022-08-16,ワイルズ合同会社,,合同会社,東京都,港区,虎ノ門３丁目１８番６号朝日虎ノ門マンション６１４号室,,13,103,1050001,,,,,,,2022-08-16,1,,,,,ワイルズ,0
1321,6010403028185,新規,0,2022-08-16,2022-08-16,ＡＹ　Ｉｎｖｅｓｔｍｅｎｔ合同会社,,合同会社,東京都,港区,赤坂８丁目１１番１１号,,13,103,1070052,,,,,,,2022-08-16,1,,,,,エイワイインベストメント,0
1322,6010403028301,新規,0,2022-08-16,2022-08-16,福岡久山合同会社,,合同会社,東京都,港区,元赤坂１丁目１番８号株式会社赤坂国際会計内,,13,103,1070051,,,,,,,2022-08-16,1,,,,,フクオカヒサヤマ,0
1325,6010501049199,新規,0,2022-08-16,2022-08-16,株式会社ＩＴａｌｅｎｔ,,株式会社,東京都,台東区,上野３丁目１５番７号,,13,106,1100005,,,,,,,2022-08-16,1,,,,,アイタレント,0
1326,6010501049240,新規,0,2022-08-16,2022-08-16,株式会社Ｍａｒｖｅｌｉｘ　ｓｏｕｔｈ,,株式会社,東京都,台東区,東上野３丁目３７番１３号３階,,13,106,1100015,,,,,,,2022-08-16,1,,,,,マーベリックスサウス,0
1330,6010601061673,新規,0,2022-08-16,2022-08-16,章敬コンサルティング株式会社,,株式会社,東京都,江東区,東陽２丁目４番３９号新東陽ビル４階,,13,108,1350016,,,,,,,2022-08-16,1,,,,,ショウケイコンサルティング,0
1346,6011001149183,新規,0,2022-08-16,2022-08-16,プレシャスナイン株式会社,,株式会社,東京都,渋谷区,道玄坂１丁目１０番８号渋谷道玄坂東急ビル２Ｆ－Ｃ,,13,113,1500043,,,,,,,2022-08-16,1,,,,,プレシャスナイン,0
1347,6011001149217,新規,0,2022-08-16,2022-08-16,株式会社ゲート,,株式会社,東京都,渋谷区,神宮前６丁目２３番４号桑野ビル２階,,13,113,1500001,,,,,,,2022-08-16,1,,,,,ゲート,0
1348,6011001149233,新規,0,2022-08-16,2022-08-16,株式会社ロメッツ,,株式会社,東京都,渋谷区,円山町５番５号,,13,113,1500044,,,,,,,2022-08-16,1,,,,,ロメッツ,0
1349,6011001149282,新規,0,2022-08-16,2022-08-16,セールスター株式会社,,株式会社,東京都,渋谷区,恵比寿３丁目４８番１号６階,,13,113,1500013,,,,,,,2022-08-16,1,,,,,セールスター,0
1350,6011003014971,新規,0,2022-08-16,2022-08-16,合同会社ランクルー,,合同会社,東京都,渋谷区,神宮前６丁目２３番４号桑野ビル２階,,13,113,1500001,,,,,,,2022-08-16,1,,,,,ランクルー,0
1351,6011003015193,新規,0,2022-08-16,2022-08-16,ＦＯＲＴＯＰ合同会社,,合同会社,東京都,渋谷区,千駄ヶ谷３丁目１６－１原宿プラザ２０１,,13,113,1510051,,,,,,,2022-08-16,1,,,,,フォートップ,0
1352,6011003015210,新規,0,2022-08-16,2022-08-16,Ｓｅｒａｆｉｎｉ　Ｐｒｏｄｕｃｔｉｏｎｓ合同会社,,合同会社,東京都,渋谷区,神宮前６丁目２３番４号桑野ビル２階,,13,113,1500001,,,,,,,2022-08-16,1,,,,,セラフィニープロダクション,0
1354,6011101099873,新規,0,2022-08-16,2022-08-16,株式会社Ｆｕｔｕｒｅ　Ｓｅｎｓｅ,,株式会社,東京都,新宿区,百人町１丁目９番１４号デュオメゾン新宿百人町３０１,,13,104,1690073,,,,,,,2022-08-16,1,,,,,フューチャーセンス,0
1355,6011103012066,新規,0,2022-08-16,2022-08-16,ＯＫ　ｃｏｍｐａｎｙ合同会社,,合同会社,東京都,新宿区,西新宿３丁目３番１３号西新宿水間ビル６Ｆ,,13,104,1600023,,,,,,,2022-08-16,1,,,,,オーケーカンパニー,0
1360,6011401024473,新規,0,2022-08-16,2022-08-16,株式会社メディアアドバンス,,株式会社,東京都,板橋区,上板橋２丁目１０番１－３０３号,,13,119,1740076,,,,,,,2022-08-16,1,,,,,メディアアドバンス,0
1361,6011405002211,新規,0,2022-08-16,2022-08-16,一般社団法人キフクリエイト,,その他の設立登記法人,東京都,板橋区,南町５９－６－４０５,,13,119,1730027,,,,,,,2022-08-16,1,,,,,キフクリエイト,0
1364,6012301013087,新規,0,2022-08-16,2022-08-16,株式会社ＵＦＳ,,株式会社,東京都,町田市,上小山田町１８２－２３,,13,209,1940201,,,,,,,2022-08-16,1,,,,,ユーエフエス,0
1375,6020001147774,新規,0,2022-08-16,2022-08-16,ＫＯＴＯＢＵＫＩ会計株式会社,,株式会社,神奈川県,横浜市金沢区,能見台５丁目５２番地１３,,14,108,2360057,,,,,,,2022-08-16,1,,,,,コトブキカイケイ,0
1376,6020001147782,新規,0,2022-08-16,2022-08-16,株式会社ＩＰＬＡＮＴ,,株式会社,神奈川県,横浜市神奈川区,立町１４番地３立町ビル２０５号,,14,102,2210063,,,,,,,2022-08-16,1,,,,,アイプラント,0
1377,6020001147790,新規,0,2022-08-16,2022-08-16,株式会社住宅販売コンサル,,株式会社,神奈川県,横浜市中区,山手町１８４番地６,,14,104,2310862,,,,,,,2022-08-16,1,,,,,ジュウタクハンバイコンサル,0
1378,6020001147799,新規,0,2022-08-16,2022-08-16,株式会社ＲｉＭｏ,,株式会社,神奈川県,横浜市西区,平沼２丁目１３番３－４０３号,,14,103,2200023,,,,,,,2022-08-16,1,,,,,リモ,0
1379,6020001147808,新規,0,2022-08-16,2022-08-16,株式会社勇進建材,,株式会社,神奈川県,横浜市青葉区,寺家町１６８,,14,117,2270031,,,,,,,2022-08-16,1,,,,,ユウシンケンザイ,0
1390,6030001149662,新規,0,2022-08-16,2022-08-16,英嘉株式会社,,株式会社,埼玉県,蕨市,南町３丁目１４番地１１号３０２号室,,11,223,3350003,,,,,,,2022-08-16,1,,,,,エイカ,0
1391,6030001149695,新規,0,2022-08-16,2022-08-16,株式会社うるおい,,株式会社,埼玉県,秩父市,中村町３丁目２０番１２号,,11,207,3680051,,,,,,,2022-08-16,1,,,,,ウルオイ,0
1401,6030003019995,新規,0,2022-08-16,2022-08-16,セカンドカラー合同会社,,合同会社,埼玉県,川越市,南大塚１丁目１１番地１１アデニウム川越南大塚１０８号室,,11,201,3501162,,,,,,,2022-08-16,1,,,,,セカンドカラー,0
1410,6050001051544,新規,0,2022-08-16,2022-08-16,株式会社ＭａｍａＷｅｌｌ,,株式会社,茨城県,つくば市,吾妻２丁目５番地１つくば市産業振興センター１Ｆ,,08,220,3050031,,,,,,,2022-08-16,1,,,,,ママウェル,0
1413,6070001039538,新規,0,2022-08-16,2022-08-16,株式会社Ｓ．Ｚ．Ｔ　Ｊａｐａｎ　Ｔｒａｄｉｎｇ,,株式会社,群馬県,館林市,近藤町８０１番地の１５,,10,207,3740042,,,,,,,2022-08-16,1,,,,,エスゼットティジャパントレーディング,0
1421,6100001035624,新規,0,2022-08-16,2022-08-16,株式会社トラス,,株式会社,長野県,伊那市,境１９６２番地,,20,209,3960010,,,,,,,2022-08-16,1,,,,,トラス,0
1435,6120001248133,新規,0,2022-08-16,2022-08-16,株式会社ＶＥＮＵＳ　ＢＲＩＤＧＥ,,株式会社,大阪府,大阪市港区,弁天５丁目６番６号,,27,107,5520007,,,,,,,2022-08-16,1,,,,,ヴィーナスブリッジ,0
1436,6120001248174,新規,0,2022-08-16,2022-08-16,株式会社ＦＥＭＳＨＩＮ,,株式会社,大阪府,大阪市北区,芝田２丁目６番３０号梅田清和ビル６Ｆ,,27,127,5300012,,,,,,,2022-08-16,1,,,,,フェムシン,0
1437,6120001248216,新規,0,2022-08-16,2022-08-16,株式会社ｏｕｒＮｉｎｅ,,株式会社,大阪府,大阪市北区,梅田１丁目２番２号大阪駅前第２ビル２階５－６号室,,27,127,5300001,,,,,,,2022-08-16,1,,,,,アウアナイン,0
1438,6120001248232,新規,0,2022-08-16,2022-08-16,株式会社ＤＡＩＣＨＩ,,株式会社,大阪府,大阪市中央区,瓦町１丁目５番８号,,27,128,5410048,,,,,,,2022-08-16,1,,,,,ダイチ,0
1442,6120005023136,新規,0,2022-08-16,2022-08-16,一般社団法人ＨＲＸ,,その他の設立登記法人,大阪府,大阪市西区,西本町１丁目２－１４,,27,106,5500005,,,,,,,2022-08-16,1,,,,,エイチアールエックス,0
1446,6120101066047,新規,0,2022-08-16,2022-08-16,三ツ矢物流関西株式会社,,株式会社,大阪府,松原市,岡６丁目２番１号,,27,217,5800014,,,,,,,2022-08-16,1,,,,,ミツヤブツリュウカンサイ,0
1447,6120101066071,新規,0,2022-08-16,2022-08-16,株式会社ＥＷＤＯＯＲＳ,,株式会社,大阪府,南河内郡太子町,大字山田４８１番地の１４,,27,381,5830992,,,,,,,2022-08-16,1,,,,,イーダブルドアーズ,0
1448,6120101066096,新規,0,2022-08-16,2022-08-16,株式会社知識工業,,株式会社,大阪府,堺市中区,平井１０２９番地１２,,27,142,5998251,,,,,,,2022-08-16,1,,,,,チシキコウギョウ,0
1449,6120101066105,新規,0,2022-08-16,2022-08-16,株式会社砂川板金工業,,株式会社,大阪府,泉南郡熊取町,紺屋２丁目１８－４,,27,361,5900412,,,,,,,2022-08-16,1,,,,,スナガワバンキンコウギョウ,0
1450,6120105009613,新規,0,2022-08-16,2022-08-16,一般社団法人隣愛,,その他の設立登記法人,大阪府,泉大津市,池園町１番５号,,27,206,5950017,,,,,,,2022-08-16,1,,,,,リンアイ,0
1452,6122001036170,新規,0,2022-08-16,2022-08-16,株式会社徳治昭童画館,00127540,株式会社,大阪府,八尾市,山城町３丁目６番３２－１０１号,,27,212,5810801,,,,,,,2022-08-16,1,,,,,トクハルアキドウガカン,0
1453,6122003002402,新規,0,2022-08-16,2022-08-16,合同会社リスタート,,合同会社,大阪府,東大阪市,日下町７丁目３番４２号,,27,227,5798003,,,,,,,2022-08-16,1,,,,,リスタート,0
1461,6130005016551,新規,0,2022-08-16,2022-08-16,一般社団法人エイト,,その他の設立登記法人,京都府,八幡市,美濃山御幸２０番地５,,26,210,6148272,,,,,,,2022-08-16,1,,,,,エイト,0
1464,6140001127054,新規,0,2022-08-16,2022-08-16,株式会社ＷＯＲＬＤ　ＳＨＩＰ,,株式会社,兵庫県,神戸市須磨区,離宮前町１丁目４番１７－１号,,28,107,6540065,,,,,,,2022-08-16,1,,,,,ワールドシップ,0
1465,6140001127112,新規,0,2022-08-16,2022-08-16,株式会社アークス,,株式会社,兵庫県,姫路市,東延末４丁目８１番地,,28,201,6700965,,,,,,,2022-08-16,1,,,,,アークス,0
1466,6150001025769,新規,0,2022-08-16,2022-08-16,株式会社Ｃｈａｒｉｓ,,株式会社,奈良県,北葛城郡王寺町,王寺２丁目２番１号,,29,425,6360002,,,,,,,2022-08-16,1,,,,,カリス,0
1473,6180001152585,新規,0,2022-08-16,2022-08-16,株式会社ジョイハント,,株式会社,愛知県,半田市,栄町４丁目６５番地,,23,205,4750846,,,,,,,2022-08-16,1,,,,,ジョイハント,0
1476,6180003024155,新規,0,2022-08-16,2022-08-16,合同会社長岡,,合同会社,愛知県,半田市,新池町２丁目２０２番地の２３,,23,205,4750078,,,,,,,2022-08-16,1,,,,,ナガオカ,0
1482,6240001060229,新規,0,2022-08-16,2022-08-16,Ｇ・Ｈ・Ｆ株式会社,,株式会社,広島県,広島市安佐北区,安佐町久地追崎８５２３番地２,,34,106,7391700,,,,,,,2022-08-16,1,,,,,ジーエイチエフ,0
1488,6260003004009,新規,0,2022-08-16,2022-08-16,合同会社Ｅｉｇｈｔ　Ｃａｓｔｌｅ,,合同会社,岡山県,倉敷市,笹沖２６９番地２,,33,202,7100834,,,,,,,2022-08-16,1,,,,,エイトキャッスル,0
1498,6330001030032,新規,0,2022-08-16,2022-08-16,株式会社ニューライフ,,株式会社,熊本県,人吉市,上漆田町３４４３番地１,,43,203,8680821,,,,,,,2022-08-16,1,,,,,ニューライフ,0
1500,6360001030822,新規,0,2022-08-16,2022-08-16,株式会社沖新工業,,株式会社,沖縄県,中頭郡読谷村,字波平５１３番地２・２Ｆ,,47,324,9040322,,,,,,,2022-08-16,1,,,,,オキシンコウギョウ,0
1501,6360001030830,新規,0,2022-08-16,2022-08-16,株式会社ＣＵＬＬＡＮＤ,,株式会社,沖縄県,那覇市,宇栄原２丁目１５番２７号,,47,201,9010153,,,,,,,2022-08-16,1,,,,,クランド,0
1502,6360003012232,新規,0,2022-08-16,2022-08-16,合同会社縁,,合同会社,沖縄県,うるま市,字高江洲８１５番地１コーポ宮里２０２,,47,213,9042242,,,,,,,2022-08-16,1,,,,,エン,0
1503,6360003012240,新規,0,2022-08-16,2022-08-16,合同会社Ｗｉｎｇｒｏｗ,,合同会社,沖縄県,うるま市,字兼箇段１４５４番地１、２Ｆ,,47,213,9042241,,,,,,,2022-08-16,1,,,,,ウィングロウ,0
1509,6380001033055,新規,0,2022-08-16,2022-08-16,株式会社あぶくまビール,,株式会社,福島県,石川郡玉川村,大字南須釜字奥平２９０番地すがまプラザ交流センターＲｏｏｍ４,,07,502,9636302,,,,,,,2022-08-16,1,,,,,アブクマビール,0
1516,6410005006482,新規,0,2022-08-16,2022-08-16,一般社団法人日本デジタルノマド協会,,その他の設立登記法人,秋田県,山本郡三種町,外岡字中嶋１３５番地１４１,,05,348,0182305,,,,,,,2022-08-16,1,,,,,ニホンデジタルノマドキョウカイ,0
1528,6490003001692,新規,0,2022-08-16,2022-08-16,合同会社ＫＥＮＭＡ電設,,合同会社,高知県,高知市,朝倉甲１９８番地６藤ハイツ１０１号,,39,201,7808061,,,,,,,2022-08-16,1,,,,,ケンマデンセツ,0
1531,6700150108384,新規,0,2022-08-16,2022-04-27,西日本中小企業労務協会,,その他,大阪府,門真市,速見町６－２オリエントレジデンス門真１０１,,27,223,5710039,,,,,,,2022-04-27,1,,,,,ニシニホンチユウシヨウキギヨウロウムキヨウカイ,0
1532,6700150111280,新規,0,2022-08-16,2022-08-16,ＶｅｒｉＮｉｐｐｏｎ　Ｌｉｍｉｔｅｄ,,外国会社等,長野県,北安曇郡白馬村,大字北城８３０－２７　５４,,20,485,3999301,Ｐｏｒｔｃｕｌｌｉｓ　Ｃｈａｎｂｅｒｓ　４ｔｈ　Ｆｌｏｏｒ　Ｅｌｌｅｎ　Ｓｋｅｌｔｏｎ　Ｂｕｉｌｄｉｎｇ３０７６，　ＢＶＩ,,,,,,2022-08-16,1,,,,,ベリニツポンリミテツド,0
1551,7010001228657,新規,0,2022-08-16,2022-08-16,小霧山株式会社,,株式会社,東京都,文京区,大塚５丁目７番１１－６１１号,,13,105,1120012,,,,,,,2022-08-16,1,,,,,コムザン,0
1552,7010001228789,新規,0,2022-08-16,2022-08-16,株式会社人的資本化,,株式会社,東京都,中央区,新川２丁目２７番４－６０２号,,13,102,1040033,,,,,,,2022-08-16,1,,,,,ジンテキシホンカ,0
1553,7010001228847,新規,0,2022-08-16,2022-08-16,日鉄鋼管分割準備株式会社,,株式会社,東京都,千代田区,丸の内２丁目６番１号,,13,101,1000005,,,,,,,2022-08-16,1,,,,,ニッテツコウカンブンカツジュンビ,0
1558,7010003038410,新規,0,2022-08-16,2022-08-16,合同会社ＮＩＴＲＯ,,合同会社,東京都,中央区,日本橋２丁目２－３,,13,102,1030027,,,,,,,2022-08-16,1,,,,,ニトロ,0
1566,7010005035439,新規,0,2022-08-16,2022-08-16,一般社団法人ファンドドゥ１１号,,その他の設立登記法人,東京都,千代田区,霞が関３丁目２番５号,,13,101,1000013,,,,,,,2022-08-16,1,,,,,ファンドドゥジュウイチゴウ,0
1579,7010401168668,新規,0,2022-08-16,2022-08-16,株式会社サマサマ企画ジャパン,,株式会社,東京都,港区,白金３丁目１番７号Ｋ＆Ｇ５１０ハウス５０２,,13,103,1080072,,,,,,,2022-08-16,1,,,,,サマサマキカクジャパン,0
1580,7010401168940,新規,0,2022-08-16,2022-08-16,Ｌｏｎｇｅｖｉｔｙ　Ｐａｒｔｎｅｒｓ株式会社,,株式会社,東京都,港区,虎ノ門４丁目１番１号,,13,103,1050001,,,,,,,2022-08-16,1,,,,,ロンジェビティーパートナーズ,0
1581,7010401169105,新規,0,2022-08-16,2022-08-16,株式会社ドクターコーチ,,株式会社,東京都,港区,南麻布４丁目１１－３１ザ・パーククロス広尾６０１,,13,103,1060047,,,,,,,2022-08-16,1,,,,,ドクターコーチ,0
1582,7010401169113,新規,0,2022-08-16,2022-08-16,株式会社エルココ,,株式会社,東京都,港区,南青山２丁目２６番１号,,13,103,1070062,,,,,,,2022-08-16,1,,,,,エルココ,0
1584,7010501049215,新規,0,2022-08-16,2022-08-16,株式会社華年アーバン,,株式会社,東京都,台東区,東上野５丁目１８番１号上野アインスタワー１５０６,,13,106,1100015,,,,,,,2022-08-16,1,,,,,カネンアーバン,0
1594,7010701043075,新規,0,2022-08-16,2022-08-16,株式会社フジノ,,株式会社,東京都,品川区,大井３丁目２番１４号,,13,109,1400014,,,,,,,2022-08-16,1,,,,,フジノ,0
1595,7010701043083,新規,0,2022-08-16,2022-08-16,ディゴン・コンサルティング株式会社,,株式会社,東京都,品川区,東五反田１丁目１０番９号３階,,13,109,1410022,,,,,,,2022-08-16,1,,,,,ディゴンコンサルティング,0
1602,7010901051398,新規,0,2022-08-16,2022-08-16,株式会社ママミン相談所,,株式会社,東京都,世田谷区,太子堂３丁目１３番９号,,13,112,1540004,,,,,,,2022-08-16,1,,,,,ママミンソウダンジョ,0
1603,7010901051415,新規,0,2022-08-16,2022-08-16,北沢マリン株式会社,,株式会社,東京都,世田谷区,北沢４丁目１番１１号,,13,112,1550031,,,,,,,2022-08-16,1,,,,,キタザワマリン,0
1604,7010903007571,新規,0,2022-08-16,2022-08-16,ＨＯＴ　ＤＯＧ　ＳＴＵＤＩＯ合同会社,,合同会社,東京都,世田谷区,深沢４丁目３１番２２号,,13,112,1580081,,,,,,,2022-08-16,1,,,,,ホットドッグスタジオ,0
1611,7011001149199,新規,0,2022-08-16,2022-08-16,Ｓａｌｏｎ　Ｂｒａｉｎ株式会社,,株式会社,東京都,目黒区,祐天寺１丁目１０番１２号メゾンロワール２０３,,13,110,1530052,,,,,,,2022-08-16,1,,,,,サロンブレイン,0
1612,7011001149232,新規,0,2022-08-16,2022-08-16,株式会社たろう,,株式会社,東京都,渋谷区,神宮前６丁目８番４号,,13,113,1500001,,,,,,,2022-08-16,1,,,,,タロウ,0
1614,7011003015192,新規,0,2022-08-16,2022-08-16,ＲｅｈａＢｅｅ合同会社,,合同会社,東京都,渋谷区,神宮前６丁目２３番４号桑野ビル２Ｆ,,13,113,1500001,,,,,,,2022-08-16,1,,,,,リハビー,0
1615,7011003015242,新規,0,2022-08-16,2022-08-16,合同会社クリエイタープログレス,,合同会社,東京都,渋谷区,道玄坂１丁目１０番８号渋谷道玄坂東急ビル２Ｆ－Ｃ,,13,113,1500043,,,,,,,2022-08-16,1,,,,,クリエイタープログレス,0
1622,7011101099872,新規,0,2022-08-16,2022-08-16,株式会社Ｕｓａｙａｍａ＆Ｃｏ．,,株式会社,東京都,新宿区,西新宿３丁目３番１３号西新宿水間ビル６階,,13,104,1600023,,,,,,,2022-08-16,1,,,,,ウサヤマアンドカンパニー,0
1623,7011201024037,新規,0,2022-08-16,2022-08-16,株式会社ＭＯＭＯ,,株式会社,東京都,中野区,本町６丁目１０番１５号Ｄキャスル新中野１０６,,13,114,1640012,,,,,,,2022-08-16,1,,,,,モモ,0
1640,7011703003232,新規,0,2022-08-16,2022-08-16,ｉｋｉ合同会社,,合同会社,東京都,江戸川区,清新町１丁目３－２－９１１号室,,13,123,1340087,,,,,,,2022-08-16,1,,,,,イキ,0
1647,7012401039519,新規,0,2022-08-16,2022-08-16,株式会社平成セキュリティ,,株式会社,東京都,多摩市,和田３０８番地,,13,224,2060001,,,,,,,2022-08-16,1,,,,,ヘイセイセキュリティ,0
1649,7012801021753,新規,0,2022-08-16,2022-08-16,株式会社Ｈ２ｔｅｎ,,株式会社,東京都,立川市,柴崎町２丁目５番３号ＳＯＨＯプラザ立川３０２,,13,202,1900023,,,,,,,2022-08-16,1,,,,,エイチトゥテン,0
1650,7012801021786,新規,0,2022-08-16,2022-08-16,株式会社えんデータサービス,,株式会社,東京都,国立市,東３丁目１４番地の１６,,13,215,1860002,,,,,,,2022-08-16,1,,,,,エンデータサービス,0
1661,7020001147773,新規,0,2022-08-16,2022-08-16,株式会社華,,株式会社,神奈川県,横浜市旭区,善部町４２番地８３,,14,112,2410823,,,,,,,2022-08-16,1,,,,,ハナ,0
1662,7020001147798,新規,0,2022-08-16,2022-08-16,株式会社ｏｎｚｅ,,株式会社,神奈川県,横浜市港北区,高田東４丁目１７番１６号トルバートＡ号室,,14,109,2230065,,,,,,,2022-08-16,1,,,,,オンズ,0
1663,7020001147815,新規,0,2022-08-16,2022-08-16,株式会社吉和,,株式会社,神奈川県,横浜市戸塚区,汲沢町４７４番地６,,14,110,2450062,,,,,,,2022-08-16,1,,,,,ヨシナ,0
1664,7020001147831,新規,0,2022-08-16,2022-08-16,株式会社トラストコーポレーションＧＰ,,株式会社,神奈川県,横浜市瀬谷区,二ツ橋町３８１番地,,14,114,2460021,,,,,,,2022-08-16,1,,,,,トラストコーポレーションジーピー,0
1667,7020003022231,新規,0,2022-08-16,2022-08-16,合同会社ＳＵＮＦＬＯＷＥＲ,,合同会社,神奈川県,横浜市神奈川区,大口通２３番地ＢＵＣＫＷＨＥＡＴ，ＴＡＮＡＫＡ，４Ａ,,14,102,2210002,,,,,,,2022-08-16,1,,,,,サンフラワー,0
1669,7021001076772,新規,0,2022-08-16,2022-08-16,ナカイ株式会社,,株式会社,神奈川県,海老名市,国分北４丁目７番２号,,14,215,2430406,,,,,,,2022-08-16,1,,,,,ナカイ,0
1679,7030001149620,新規,0,2022-08-16,2022-08-16,永興株式会社,,株式会社,埼玉県,さいたま市南区,南浦和３丁目１１番１６号南浦和第３ローヤルコーポ１１０号,,11,108,3360017,,,,,,,2022-08-16,1,,,,,エイコウ,0
1682,7030003019994,新規,0,2022-08-16,2022-08-16,合同会社ＯＲＡＮＱＵＥ,,合同会社,埼玉県,さいたま市北区,本郷町１７－１、コンフォール西本郷９－９０１,,11,102,3310802,,,,,,,2022-08-16,1,,,,,オランク,0
1688,7040003020613,新規,0,2022-08-16,2022-08-16,合同会社エッグレイ,,合同会社,千葉県,船橋市,海神２丁目２３番４５号オリオン１０１号室,,12,204,2730021,,,,,,,2022-08-16,1,,,,,エッグレイ,0
1698,7050003006776,新規,0,2022-08-16,2022-08-16,合同会社Ｅｌｚａ,,合同会社,茨城県,鹿嶋市,大字宮中２０８０－８,,08,222,3140031,,,,,,,2022-08-16,1,,,,,エルザ,0
1699,7060001035116,新規,0,2022-08-16,2022-08-16,株式会社ファーストドライブインプレッション,,株式会社,栃木県,大田原市,前田１０６番地２,,09,210,3240234,,,,,,,2022-08-16,1,,,,,ファーストドライブインプレッション,0
1701,7070001039537,新規,0,2022-08-16,2022-08-16,株式会社浅間フォーウェイ,,株式会社,群馬県,吾妻郡長野原町,大字北軽井沢１９８８番地７５,,10,424,3771412,,,,,,,2022-08-16,1,,,,,アサマフォーウェイ,0
1702,7070001039553,新規,0,2022-08-16,2022-08-16,株式会社ＴＨＡＮＫＦＵＬＬ．,,株式会社,群馬県,高崎市,浜尻町１１３５番地サンクフルタウン２－Ｆ号室,,10,202,3700005,,,,,,,2022-08-16,1,,,,,サンクフル,0
1703,7070003004588,新規,0,2022-08-16,2022-08-16,合同会社ｅｌｉｓｈ,,合同会社,群馬県,伊勢崎市,連取町１６１３番地８コーポタガヤＡ,,10,204,3720812,,,,,,,2022-08-16,1,,,,,エリッシュ,0
1722,7120001248198,新規,0,2022-08-16,2022-08-16,ＴＥＮＴＨＰＩＮ　ＭＡＮＡＧＥＭＥＮＴ　ＣＯＮＳＵＬＴＡＮＴＳ株式会社,,株式会社,大阪府,大阪市北区,太融寺町５番１５号,,27,127,5300051,,,,,,,2022-08-16,1,,,,,テンスピンマネージメントコンサルタンツ,0
1723,7120001248231,新規,0,2022-08-16,2022-08-16,株式会社システムライフ流通,,株式会社,大阪府,枚方市,宗谷１丁目１２番６３号,,27,210,5730113,,,,,,,2022-08-16,1,,,,,システムライフリュウツウ,0
1724,7120003022254,新規,0,2022-08-16,2022-08-16,合同会社ｍａｒｉｎａ,,合同会社,大阪府,大阪市東住吉区,北田辺６丁目２番１０－２０１号,,27,121,5460044,,,,,,,2022-08-16,1,,,,,マリナ,0
1726,7120101066062,新規,0,2022-08-16,2022-08-16,セプトン株式会社,,株式会社,大阪府,堺市堺区,三国ヶ丘御幸通１５４－５１１,,27,141,5900028,,,,,,,2022-08-16,1,,,,,セプトン,0
1727,7120101066087,新規,0,2022-08-16,2022-08-16,株式会社ＧＬＯＩＲＥ,,株式会社,大阪府,堺市西区,菱木１丁２２８５番地５,,27,144,5938315,,,,,,,2022-08-16,1,,,,,グロワール,0
1728,7120103004813,新規,0,2022-08-16,2022-08-16,ｉｍｐＲｏｏｍ合同会社,,合同会社,大阪府,堺市堺区,松屋大和川通１丁２番２０号,,27,141,5900902,,,,,,,2022-08-16,1,,,,,インプルーム,0
1736,7122001036161,新規,0,2022-08-16,2022-08-16,株式会社ＦＵＤＯＵハウジング,,株式会社,大阪府,四條畷市,田原台９丁目１８番３８号,,27,229,5750013,,,,,,,2022-08-16,1,,,,,フドウハウジング,0
1737,7122001036178,新規,0,2022-08-16,2022-08-16,株式会社Ｐｉｅｃｅ　Ｌｉｎｋ,,株式会社,大阪府,大東市,北条１丁目６番１７号クレストハイツ１０１号,,27,218,5740011,,,,,,,2022-08-16,1,,,,,ピースリンク,0
1741,7130001072432,新規,0,2022-08-16,2022-08-16,かめおかこども木育株式会社,,株式会社,京都府,亀岡市,亀岡駅北１丁目８番地２,,26,206,6210807,,,,,,,2022-08-16,1,,,,,カメオカコドモモクイク,0
1742,7130001072473,新規,0,2022-08-16,2022-08-16,株式会社如意棒,,株式会社,京都府,亀岡市,古世町西内坪９番地３亀岡駅前ぎばさんビル３Ｆ,,26,206,6210815,,,,,,,2022-08-16,1,,,,,ニョイボウ,0
1746,7130005016550,新規,0,2022-08-16,2022-08-16,一般社団法人小水力発電推進機構,,その他の設立登記法人,京都府,長岡京市,今里５丁目１３番１１号,,26,209,6170814,,,,,,,2022-08-16,1,,,,,ショウスイリョクハツデンスイシンキコウ,0
1753,7140001127111,新規,0,2022-08-16,2022-08-16,さくらビルダー株式会社,,株式会社,兵庫県,明石市,松江１１３番地の２－１０１,,28,203,6730036,,,,,,,2022-08-16,1,,,,,サクラビルダー,0
1758,7140003018028,新規,0,2022-08-16,2022-08-16,鵬成商事合同会社,,合同会社,兵庫県,たつの市,新宮町井野原１３４－５,,28,229,6794315,,,,,,,2022-08-16,1,,,,,ホウセイショウジ,0
1761,7150001025768,新規,0,2022-08-16,2022-08-16,株式会社飛鳥山荘,,株式会社,奈良県,宇陀市,室生砥取１７７番地,,29,212,6330314,,,,,,,2022-08-16,1,,,,,アスカサンソウ,0
1768,7180001152576,新規,0,2022-08-16,2022-08-16,株式会社ｏｃｔ．,,株式会社,愛知県,名古屋市千種区,鹿子町６丁目１５番地の１－２０２号,,23,101,4640033,,,,,,,2022-08-16,1,,,,,オクト,0
1769,7180001152592,新規,0,2022-08-16,2022-08-16,株式会社はるひメディファ,,株式会社,愛知県,北名古屋市,熊之庄古井７１番地２,,23,234,4810006,,,,,,,2022-08-16,1,,,,,ハルヒメディファ,0
1770,7180001152618,新規,0,2022-08-16,2022-08-16,株式会社ＵＥ,,株式会社,愛知県,瀬戸市,新道町１７番地,,23,204,4890075,,,,,,,2022-08-16,1,,,,,ユーイー,0
1771,7180001152626,新規,0,2022-08-16,2022-08-16,オンオクリ株式会社,,株式会社,愛知県,名古屋市中区,正木４丁目８番８号（８０３号室）,,23,106,4600024,,,,,,,2022-08-16,1,,,,,オンオクリ,0
1772,7180001152659,新規,0,2022-08-16,2022-08-16,株式会社製造情報プラットフォーム,,株式会社,愛知県,名古屋市中村区,二瀬町１３３番地の１,,23,105,4530837,,,,,,,2022-08-16,1,,,,,セイゾウジョウホウプラットフォーム,0
1776,7180003024146,新規,0,2022-08-16,2022-08-16,合同会社元気商會,,合同会社,愛知県,春日井市,東野町９丁目２０番７号,,23,206,4860817,,,,,,,2022-08-16,1,,,,,ゲンキショウカイ,0
1777,7180003024154,新規,0,2022-08-16,2022-08-16,合同会社８０８,,合同会社,愛知県,名古屋市北区,上飯田西町２丁目４６番地の１ＡｒｓａＮＥＸＴ４０１号,,23,103,4620809,,,,,,,2022-08-16,1,,,,,,0
1782,7190003004064,新規,0,2022-08-16,2022-08-16,合同会社ｐｅａｋ,,合同会社,三重県,名張市,桔梗が丘３番町三街区９５番地,,24,208,5180623,,,,,,,2022-08-16,1,,,,,ピーク,0
1793,7250001019727,新規,0,2022-08-16,2022-08-16,株式会社Ｌａｆｔｅｌ,,株式会社,山口県,山口市,阿知須４８６番地２,,35,203,7541277,,,,,,,2022-08-16,1,,,,,ラフテル,0
1799,7290001098619,新規,0,2022-08-16,2022-08-16,株式会社ソーシャルワーク福岡,,株式会社,福岡県,福岡市中央区,警固２丁目９番１４号,,40,133,8100023,,,,,,,2022-08-16,1,,,,,ソーシャルワークフクオカ,0
1800,7290001098627,新規,0,2022-08-16,2022-08-16,Ｅｖｏｌ　Ｗｏｒｋｓ株式会社,,株式会社,福岡県,福岡市西区,野方３丁目２５番７号,,40,135,8190043,,,,,,,2022-08-16,1,,,,,エボルワークス,0
1808,7290801028799,新規,0,2022-08-16,2022-08-16,三ツ矢物流九州株式会社,,株式会社,福岡県,築上郡吉富町,大字直江１５１番地１,,40,642,8710831,,,,,,,2022-08-16,1,,,,,ミツヤブツリュウキュウシュウ,0
1816,7330001030015,新規,0,2022-08-16,2022-08-16,株式会社ｖａｓｔｕｓ,,株式会社,熊本県,熊本市北区,清水亀井町５５番６３号,,43,105,8618066,,,,,,,2022-08-16,1,,,,,バスタス,0
1817,7330001030031,新規,0,2022-08-16,2022-08-16,株式会社くまもとホーム,,株式会社,熊本県,熊本市中央区,南熊本４丁目４番２号南熊本ハイツＡ－２,,43,101,8600812,,,,,,,2022-08-16,1,,,,,クマモトホーム,0
1819,7360001030838,新規,0,2022-08-16,2022-08-16,株式会社ＭａｇｎｕｓどっとＶ,,株式会社,沖縄県,豊見城市,字豊崎３番地の５９,,47,212,9010225,,,,,,,2022-08-16,1,,,,,マグナスドットブイ,0
1821,7370003005804,新規,0,2022-08-16,2022-08-16,ＰＬＳ合同会社,,合同会社,宮城県,仙台市青葉区,栗生１丁目１７－２３ＢＢＭビル１０１,,04,101,9893122,,,,,,,2022-08-16,1,,,,,ピーエルエス,0
1826,7410003003695,新規,0,2022-08-16,2022-08-16,合同会社Ｌｉｂｅｒｏ,,合同会社,秋田県,北秋田市,七日市字田ノ沢１４０－１,,05,213,0183452,,,,,,,2022-08-16,1,,,,,リベロ,0
1836,7500003002878,新規,0,2022-08-16,2022-08-16,合同会社せせらぎ,,合同会社,愛媛県,松山市,平和通２丁目６番地７,,38,201,7900807,,,,,,,2022-08-16,1,,,,,セセラギ,0
1847,8010001228730,新規,0,2022-08-16,2022-08-16,嘉之源株式会社,,株式会社,東京都,中央区,日本橋本町１丁目７番１３号,,13,102,1030023,,,,,,,2022-08-16,1,,,,,カノゲン,0
1848,8010001228821,新規,0,2022-08-16,2022-08-16,株式会社うまいエクスプレス,,株式会社,東京都,中央区,築地６丁目２４番８号,,13,102,1040045,,,,,,,2022-08-16,1,,,,,ウマイエクスプレス,0
1849,8010001228887,新規,0,2022-08-16,2022-08-16,ＤＧＳ　Ｊａｐａｎ株式会社,,株式会社,東京都,千代田区,丸の内２丁目３番１号,,13,101,1000005,,,,,,,2022-08-16,1,,,,,ディージーエスジャパン,0
1853,8010003038376,新規,0,2022-08-16,2022-08-16,ハルモト商事合同会社,,合同会社,東京都,千代田区,神田佐久間町４丁目１４－１岩崎ビル１階,,13,101,1010025,,,,,,,2022-08-16,1,,,,,ハルモトショウジ,0
1863,8010401169112,新規,0,2022-08-16,2022-08-16,プリエイト株式会社,,株式会社,東京都,港区,三田２丁目７番７号（４０２号）,,13,103,1080073,,,,,,,2022-08-16,1,,,,,プリエイト,0
1865,8010501049222,新規,0,2022-08-16,2022-08-16,株式会社まんじゅう太郎,,株式会社,東京都,台東区,下谷１丁目１１番１７号,,13,106,1100004,,,,,,,2022-08-16,1,,,,,マンジュウタロウ,0
1868,8010601061688,新規,0,2022-08-16,2022-08-16,株式会社シーイーテクノロジー,,株式会社,東京都,墨田区,緑４丁目２１番１０号,,13,107,1300021,,,,,,,2022-08-16,1,,,,,シーイーテクノロジー,0
1869,8010603009693,新規,0,2022-08-16,2022-08-16,ＡｐｐＢｌｕｅ合同会社,,合同会社,東京都,江東区,平野２丁目２番３－６０１号,,13,108,1350023,,,,,,,2022-08-16,1,,,,,アップブルー,0
1872,8010701043074,新規,0,2022-08-16,2022-08-16,株式会社アンドハチ,,株式会社,東京都,品川区,上大崎１丁目３番３号,,13,109,1410021,,,,,,,2022-08-16,1,,,,,アンドハチ,0
1876,8010901051422,新規,0,2022-08-16,2022-08-16,株式会社寄り糸,,株式会社,東京都,世田谷区,三宿１丁目１３番４－１１０２号,,13,112,1540005,,,,,,,2022-08-16,1,,,,,ヨリイト,0
1883,8011001149173,新規,0,2022-08-16,2022-08-16,株式会社ｍｔｃ．ｃｏｇｎｉｓｓｉｏｎ,,株式会社,東京都,目黒区,三田２丁目１６－１０,,13,110,1530062,,,,,,,2022-08-16,1,,,,,エムティーシーコグニッション,0
1884,8011001149231,新規,0,2022-08-16,2022-08-16,株式会社Ａｏｉコンサルティング,,株式会社,東京都,目黒区,三田１丁目７番１３－４１５号ヒューリック目黒三田,,13,110,1530062,,,,,,,2022-08-16,1,,,,,アオイコンサルティング,0
1885,8011003015191,新規,0,2022-08-16,2022-08-16,合同会社Ｃｈｉｃｋ,,合同会社,東京都,渋谷区,神宮前６丁目２３番４号桑野ビル２階,,13,113,1500001,,,,,,,2022-08-16,1,,,,,チック,0
1886,8011003015200,新規,0,2022-08-16,2022-08-16,合同会社Ｂｅｌｓ,,合同会社,東京都,渋谷区,神宮前６丁目２３番４号桑野ビル２階,,13,113,1500001,,,,,,,2022-08-16,1,,,,,ベルズ,0
1887,8011003015217,新規,0,2022-08-16,2022-08-16,合同会社ｔｒｕｓｔ,,合同会社,東京都,渋谷区,渋谷２丁目１９番１５－６０９号,,13,113,1500002,,,,,,,2022-08-16,1,,,,,トラスト,0
1894,8011101099839,新規,0,2022-08-16,2022-08-16,ＰＥＡＫＴＲＥＥ株式会社,,株式会社,東京都,新宿区,新宿５丁目１３番５号,,13,104,1600022,,,,,,,2022-08-16,1,,,,,ピークツリー,0
1895,8011101099863,新規,0,2022-08-16,2022-08-16,株式会社マノワール,,株式会社,東京都,新宿区,新宿６丁目２７番２号パークフラッツ新宿イーストサイド５０１,,13,104,1600022,,,,,,,2022-08-16,1,,,,,マノワール,0
1896,8011101099871,新規,0,2022-08-16,2022-08-16,株式会社ＪＵＧ．,,株式会社,東京都,新宿区,新宿２丁目１１番７号第３３宮廷ビル９０６,,13,104,1600022,,,,,,,2022-08-16,1,,,,,ジャグ,0
1900,8011103012072,新規,0,2022-08-16,2022-08-16,合同会社わーお,,合同会社,東京都,新宿区,新宿１丁目３６番２号新宿第七葉山ビル３階,,13,104,1600022,,,,,,,2022-08-16,1,,,,,ワーオ,0
1907,8011401024471,新規,0,2022-08-16,2022-08-16,株式会社Ｋ＆Ｈ,,株式会社,東京都,板橋区,板橋２丁目６２番８号キャニオンマンション第２板橋３０１号室,,13,119,1730004,,,,,,,2022-08-16,1,,,,,ケーアンドエイチ,0
1919,8012801021785,新規,0,2022-08-16,2022-08-16,株式会社ＳＴＲＵＴ,,株式会社,東京都,国立市,東１丁目１４番２１号,,13,215,1860002,,,,,,,2022-08-16,1,,,,,ストラット,0
1920,8013103001162,新規,0,2022-08-16,2022-08-16,合同会社ＳＵＫＥＳＡＮ,,合同会社,東京都,羽村市,富士見平１丁目９番地１３―３０５,,13,227,2050013,,,,,,,2022-08-16,1,,,,,スケサン,0
1933,8020001147756,新規,0,2022-08-16,2022-08-16,Ｃａｒ　Ｅｘｃｅｌｌｅｎｃｅ　Ｊａｐａｎ株式会社,,株式会社,神奈川県,横浜市青葉区,新石川４丁目７番地３４,,14,117,2250003,,,,,,,2022-08-16,1,,,,,カーエクセレンスジャパン,0
1934,8020001147806,新規,0,2022-08-16,2022-08-16,株式会社ＧＳＭ,,株式会社,神奈川県,横浜市港北区,新横浜１丁目２番１号Ｂ１０３,,14,109,2220033,,,,,,,2022-08-16,1,,,,,ジーエスエム,0
1935,8020001147814,新規,0,2022-08-16,2022-08-16,株式会社ディーメイク,,株式会社,神奈川県,川崎市川崎区,砂子１丁目８番地８万年ビル２Ｆ,,14,131,2100006,,,,,,,2022-08-16,1,,,,,ディーメイク,0
1940,8020003022239,新規,0,2022-08-16,2022-08-16,カトウ誠作所合同会社,,合同会社,神奈川県,横浜市西区,宮崎町５８番地１,,14,103,2200031,,,,,,,2022-08-16,1,,,,,カトウセイサクショ,0
1942,8021003012048,新規,0,2022-08-16,2022-08-16,トータルオート運輸合同会社,,合同会社,神奈川県,足柄上郡中井町,井ノ口２４１６－１,,14,361,2590151,,,,,,,2022-08-16,1,,,,,トータルオートウンユ,0
1947,8030001149685,新規,0,2022-08-16,2022-08-16,えむ株式会社,,株式会社,埼玉県,川口市,飯塚３丁目９番１８号,,11,203,3320023,,,,,,,2022-08-16,1,,,,,エム,0
1948,8030001149693,新規,0,2022-08-16,2022-08-16,ＦＬＯＲ‐ＣＯＮＮＥＣＴ株式会社,,株式会社,埼玉県,上尾市,大字原市４１４４番地７,,11,219,3620021,,,,,,,2022-08-16,1,,,,,フロルコネクト,0
1955,8030005020958,新規,0,2022-08-16,2022-08-16,行政書士法人宮下弘和事務所,,その他の設立登記法人,埼玉県,川口市,元郷２丁目１３番１０号,,11,203,3320011,,,,,,,2022-08-16,1,,,,,ミヤシタヒロカズジムショ,0
1956,8030005020966,新規,0,2022-08-16,2022-08-16,一般社団法人ＵＮＳＳ,,その他の設立登記法人,埼玉県,さいたま市緑区,東浦和８丁目８番地６,,11,109,3360926,,,,,,,2022-08-16,1,,,,,ユーエヌエスエス,0
1967,8040003020629,新規,0,2022-08-16,2022-08-16,Ａｙａｎ　Ｔｒａｄｉｎｇ合同会社,,合同会社,千葉県,成田市,本城３２番地１５５パークハイツ本城台Ｂ棟２階２０２号室,,12,211,2860114,,,,,,,2022-08-16,1,,,,,アヤントレーディング,0
1971,8070001039544,新規,0,2022-08-16,2022-08-16,株式会社ルピエ,,株式会社,群馬県,桐生市,末広町３番８号,,10,203,3760045,,,,,,,2022-08-16,1,,,,,ルピエ,0
1973,8090001017738,新規,0,2022-08-16,2022-08-16,株式会社ファリンヌ,,株式会社,山梨県,甲府市,太田町２１番１５号,,19,201,4000865,,,,,,,2022-08-16,1,,,,,ファリンヌ,0
1977,8100001035606,新規,0,2022-08-16,2022-08-16,株式会社金虎,,株式会社,長野県,長野市,篠ノ井小松原１６６８番地４,,20,201,3812235,,,,,,,2022-08-16,1,,,,,キントラ,0
1987,8120001248172,新規,0,2022-08-16,2022-08-16,ＨＵＮＧ　ＴＨＩＮＨ株式会社,,株式会社,大阪府,枚方市,高野道２丁目３８番１６号,,27,210,5731131,,,,,,,2022-08-16,1,,,,,フンティン,0
1988,8120001248180,新規,0,2022-08-16,2022-08-16,池本電気株式会社,,株式会社,大阪府,大阪市都島区,友渕町１丁目６番５－１４１０号,,27,102,5340016,,,,,,,2022-08-16,1,,,,,イケモトデンキ,0
1989,8120003022245,新規,0,2022-08-16,2022-08-16,敦古不研古芸術品収蔵合同会社,,合同会社,大阪府,大阪市北区,与力町７番５－３０５号,,27,127,5300036,,,,,,,2022-08-16,1,,,,,トンコフケンコゲイジュツヒンシュウゾウ,0
1990,8120003022261,新規,0,2022-08-16,2022-08-16,ケイアンドケイ合同会社,,合同会社,大阪府,大阪市東住吉区,湯里４丁目３番１２号,,27,121,5460013,,,,,,,2022-08-16,1,,,,,ケイアンドケイ,0
1992,8120101066086,新規,0,2022-08-16,2022-08-16,株式会社西尾,,株式会社,大阪府,堺市南区,高倉台２丁４６番７号,,27,145,5900117,,,,,,,2022-08-16,1,,,,,ニシオ,0
1993,8120103004820,新規,0,2022-08-16,2022-08-16,合同会社歩,,合同会社,大阪府,泉南市,信達牧野２３４－１０,,27,228,5900522,,,,,,,2022-08-16,1,,,,,アユミ,0
1996,8122001036160,新規,0,2022-08-16,2022-08-16,井上メディカル株式会社,,株式会社,大阪府,八尾市,都塚１丁目２３,,27,212,5810023,,,,,,,2022-08-16,1,,,,,イノウエメディカル,0
2008,8140001127119,新規,0,2022-08-16,2022-08-16,株式会社アプレシエ,,株式会社,兵庫県,西宮市,鳴尾浜３丁目７番６号,,28,204,6638142,,,,,,,2022-08-16,1,,,,,アプレシエ,0
2010,8140003018035,新規,0,2022-08-16,2022-08-16,合同会社ｂｏｃｏａｒｔ,,合同会社,兵庫県,三木市,志染町中自由が丘２丁目５１番地の１１３,,28,215,6730552,,,,,,,2022-08-16,1,,,,,ボコアート,0
2012,8150001025767,新規,0,2022-08-16,2022-08-16,株式会社コミュニティケア,,株式会社,奈良県,大和郡山市,南井町１９番地６５,,29,203,6391024,,,,,,,2022-08-16,1,,,,,コミュニティケア,0
2020,8180001152633,新規,0,2022-08-16,2022-08-16,株式会社カワグチホールディングス,,株式会社,愛知県,名古屋市中村区,名駅１丁目１番１号ＪＰタワー名古屋,,23,105,4500002,,,,,,,2022-08-16,1,,,,,カワグチホールディングス,0
2028,8190003004063,新規,0,2022-08-16,2022-08-16,合同会社ライフシード,,合同会社,三重県,伊勢市,二見町溝口２６２番地１,,24,203,5190605,,,,,,,2022-08-16,1,,,,,ライフシード,0
2029,8200001040364,新規,0,2022-08-16,2022-08-16,株式会社岐阜中央物流,,株式会社,岐阜県,多治見市,旭ケ丘１０丁目２番地の２６９,,21,204,5070071,,,,,,,2022-08-16,1,,,,,ギフチュウオウブツリュウ,0
2036,8220001024992,新規,0,2022-08-16,2022-08-16,株式会社ｅｔｏ,,株式会社,石川県,金沢市,高岡町２２番５号,,17,201,9200864,,,,,,,2022-08-16,1,,,,,エト,0
2038,8240001060235,新規,0,2022-08-16,2022-08-16,ＭＣＦ　Ｅｌｅｃｔｒｉｃ　Ｄｒｉｖｅ株式会社,,株式会社,広島県,広島市南区,大州５丁目１１番１０号,,34,103,7320802,,,,,,,2022-08-16,1,,,,,エムシーエフエレクトリックドライブ,0
2048,8290001098634,新規,0,2022-08-16,2022-08-16,株式会社ＳＯＵ,,株式会社,福岡県,糟屋郡新宮町,大字上府１１０３番地１,,40,345,8110117,,,,,,,2022-08-16,1,,,,,ソウ,0
2057,8330003009485,新規,0,2022-08-16,2022-08-16,合同会社ツリーフォレスト,,合同会社,熊本県,八代市,松江町５００番地１（１－１）,,43,202,8660883,,,,,,,2022-08-16,1,,,,,ツリーフォレスト,0
2060,8340001024972,新規,0,2022-08-16,2022-08-16,株式会社ＲＹＯＹＵＵ,,株式会社,鹿児島県,鹿児島市,宇宿５丁目２８番５号グランドステージ宇宿１０１号,,46,201,8900073,,,,,,,2022-08-16,1,,,,,リョウユウ,0
2064,8370003005803,新規,0,2022-08-16,2022-08-16,ＥｍｏＶａＬｉｙ合同会社,,合同会社,宮城県,遠田郡涌谷町,字北田８８番地５,,04,501,9870131,,,,,,,2022-08-16,1,,,,,エモバーリィ,0
2072,8410001013258,新規,0,2022-08-16,2022-08-16,株式会社Ｂａｒｒｉｅｒ　Ｆｒｅｅ,,株式会社,秋田県,秋田市,将軍野南３丁目１０番９号,,05,201,0110936,,,,,,,2022-08-16,1,,,,,バリアフリー,0
2078,8480003001865,新規,0,2022-08-16,2022-08-16,晴耕雨読合同会社,,合同会社,徳島県,徳島市,八万町法花１３１番地６,,36,201,7708083,,,,,,,2022-08-16,1,,,,,セイコウウドク,0
2097,9010001228738,新規,0,2022-08-16,2022-08-16,サンホールディングス株式会社,,株式会社,東京都,千代田区,麹町２丁目１４番地,,13,101,1020083,,,,,,,2022-08-16,1,,,,,サンホールディングス,0
2098,9010001228845,新規,0,2022-08-16,2022-08-16,株式会社メディックスアーム東京,,株式会社,東京都,千代田区,神田淡路町１丁目１番１号,,13,101,1010063,,,,,,,2022-08-16,1,,,,,メディックスアームトウキョウ,0
2099,9010001228894,新規,0,2022-08-16,2022-08-16,Ｌｕｃｋｙ　Ｓｙｓｔｅｍｓ株式会社,,株式会社,東京都,千代田区,九段南１丁目５番６号りそな九段ビル５階ＫＳフロア,,13,101,1020074,,,,,,,2022-08-16,1,,,,,ラッキーシステム,0
2110,9010005035420,新規,0,2022-08-16,2022-08-16,一般社団法人ＮｕｒＣｅ脳神経外科看護研究会,,その他の設立登記法人,東京都,文京区,千石２丁目１１番９－１２６号,,13,105,1120011,,,,,,,2022-08-16,1,,,,,ナースノウシンケイゲカカンゴケンキュウカイ,0
2121,9010401168947,新規,0,2022-08-16,2022-08-16,Ｍｏｏｎｓｈｏｔ　Ｅｎｔｅｒｔａｉｎｍｅｎｔ株式会社,,株式会社,東京都,港区,三田３丁目４番３号ＲＩＰＬ９Ｂ２０２,,13,103,1080073,,,,,,,2022-08-16,1,,,,,ムーンショットエンターテインメント,0
2122,9010501049205,新規,0,2022-08-16,2022-08-16,株式会社フェローザ,,株式会社,東京都,台東区,台東２丁目１０－１３,,13,106,1100016,,,,,,,2022-08-16,1,,,,,フェローザ,0
2123,9010501049213,新規,0,2022-08-16,2022-08-16,株式会社ＨＩＴＳＵＪＩ　ＪＡＰＡＮ,,株式会社,東京都,台東区,谷中５丁目１－９,,13,106,1100001,,,,,,,2022-08-16,1,,,,,ヒツジジャパン,0
2132,9010703006359,新規,0,2022-08-16,2022-08-16,くれブックス合同会社,,合同会社,東京都,品川区,西五反田５丁目６－３１－１０２,,13,109,1410031,,,,,,,2022-08-16,1,,,,,クレブックス,0
2136,9010901051413,新規,0,2022-08-16,2022-08-16,株式会社ＡＮＩＭＡＴＩＯＮ　ｐｌｕｓ,,株式会社,東京都,世田谷区,代沢３丁目１７番１７号プレミスト代沢１０２,,13,112,1550032,,,,,,,2022-08-16,1,,,,,アニメーションプラス,0
2144,9011001149008,新規,0,2022-08-16,2022-08-16,インサイン株式会社,,株式会社,東京都,渋谷区,神宮前６丁目２３－４桑野ビル２階,,13,113,1500001,,,,,,,2022-08-16,1,,,,,インサイン,0
2145,9011001149222,新規,0,2022-08-16,2022-08-16,株式会社ＲＧＢ,,株式会社,東京都,渋谷区,本町５丁目７番７号,,13,113,1510071,,,,,,,2022-08-16,1,,,,,アールジービー,0
2146,9011001149230,新規,0,2022-08-16,2022-08-16,株式会社オクトパス,,株式会社,東京都,渋谷区,神南１丁目１２番１４号渋谷宮田ビル６Ｆ、７Ｆ、８Ｆ,,13,113,1500041,,,,,,,2022-08-16,1,,,,,オクトパス,0
2147,9011001149247,新規,0,2022-08-16,2022-08-16,株式会社ｎｏｒｍ,,株式会社,東京都,渋谷区,渋谷２丁目８番７号青山宮野ビル１０１,,13,113,1500002,,,,,,,2022-08-16,1,,,,,ノーム,0
2149,9011003015174,新規,0,2022-08-16,2022-08-16,ｅｌａｍａ合同会社,,合同会社,東京都,目黒区,自由が丘１丁目３１番７号２Ｆ,,13,110,1520035,,,,,,,2022-08-16,1,,,,,エラマ,0
2150,9011003015216,新規,0,2022-08-16,2022-08-16,合同会社ゴエモン,,合同会社,東京都,目黒区,下目黒２丁目１６－１４プラチナフォルム目黒１階,,13,110,1530064,,,,,,,2022-08-16,1,,,,,,0
2156,9011101099862,新規,0,2022-08-16,2022-08-16,吉時達株式会社,,株式会社,東京都,新宿区,四谷４丁目２４番１６号御苑ハイム３階,,13,104,1600004,,,,,,,2022-08-16,1,,,,,ジスダ,0
2157,9011101099870,新規,0,2022-08-16,2022-08-16,株式会社Ｃｈｅｆ’ｓ　Ｒｏｏｍ,,株式会社,東京都,新宿区,市谷甲良町２番１５号３階,,13,104,1620856,,,,,,,2022-08-16,1,,,,,シェフズルーム,0
2158,9011101099879,新規,0,2022-08-16,2022-08-16,回転わんこそば株式会社,,株式会社,東京都,新宿区,歌舞伎町１丁目２２番９号Ｊゴールドビル５階,,13,104,1600021,,,,,,,2022-08-16,1,,,,,カイテンワンコソバ,0
2159,9011201024035,新規,0,2022-08-16,2022-08-16,ＳＩＮＣＯＰＥ株式会社,,株式会社,東京都,中野区,新井５丁目１番９－５０５号,,13,114,1650026,,,,,,,2022-08-16,1,,,,,シンコペ,0
2160,9011203003895,新規,0,2022-08-16,2022-08-16,ＣＨＡＮＴ合同会社,,合同会社,東京都,中野区,弥生町１丁目５５－１１－４０２,,13,114,1640013,,,,,,,2022-08-16,1,,,,,チャント,0
2161,9011305002845,新規,0,2022-08-16,2022-08-16,一般社団法人サステナブル・デベロップメント推進協会,,その他の設立登記法人,東京都,杉並区,南荻窪２丁目７番３号,,13,115,1670052,,,,,,,2022-08-16,1,,,,,サステナブルデベロップメントスイシンキョウカイ,0
2168,9011501028388,新規,0,2022-08-16,2022-08-16,株式会社菜のはな,,株式会社,東京都,北区,赤羽北２丁目２５番８－１３０５号アクトピア北赤羽六番館,,13,117,1150052,,,,,,,2022-08-16,1,,,,,ナノハナ,0
2179,9012401039541,新規,0,2022-08-16,2022-08-16,株式会社オリジンジャパン,,株式会社,東京都,府中市,美好町３丁目４番地の２８,,13,206,1830045,,,,,,,2022-08-16,1,,,,,オリジンジャパン,0
2182,9012801021784,新規,0,2022-08-16,2022-08-16,株式会社クラブオーサム,,株式会社,東京都,国分寺市,泉町３丁目３５番１号,,13,214,1850024,,,,,,,2022-08-16,1,,,,,クラブオーサム,0
2184,9012803002857,新規,0,2022-08-16,2022-08-16,ＳＨＩＤＤＡ　ＢＨＩＲＡＶ合同会社,,合同会社,東京都,国分寺市,西恋ヶ窪３丁目６－６東京ビル６Ａ２０８,,13,214,1850013,,,,,,,2022-08-16,1,,,,,シッダビラブ,0
2191,9020001147813,新規,0,2022-08-16,2022-08-16,株式会社ＥＲＩＩ,,株式会社,神奈川県,横浜市中区,野毛町３丁目１３１番地１コスモ桜木町グランポール４１０号室,,14,104,2310064,,,,,,,2022-08-16,1,,,,,エリー,0
2201,9020003022254,新規,0,2022-08-16,2022-08-16,山建合同会社,,合同会社,神奈川県,横浜市中区,長者町３丁目７番地１３,,14,104,2310033,,,,,,,2022-08-16,1,,,,,ヤマケン,0
2203,9021001076647,新規,0,2022-08-16,2022-08-16,株式会社マチダヤ,,株式会社,神奈川県,相模原市南区,上鶴間本町８丁目４６番１６号,,14,153,2520318,,,,,,,2022-08-16,1,,,,,マチダヤ,0
2204,9021001076787,新規,0,2022-08-16,2022-08-16,ＯＦＦＩＣＥ　ＤＣ株式会社,,株式会社,神奈川県,秦野市,曽屋２丁目６番３４号,,14,211,2570031,,,,,,,2022-08-16,1,,,,,オフィスディーシー,0
2217,9030001149610,新規,0,2022-08-16,2022-08-16,株式会社ＩＨＧ,,株式会社,埼玉県,戸田市,大字新曽１８９２番地,,11,224,3350021,,,,,,,2022-08-16,1,,,,,アイエイチジー,0
2221,9030003020001,新規,0,2022-08-16,2022-08-16,合同会社ＳＴａｒｋ,,合同会社,埼玉県,本庄市,小島南１丁目２番１０号ＰＬＡＮＥＴＣ,,11,211,3670062,,,,,,,2022-08-16,1,,,,,シュタルク,0
2222,9030005020957,新規,0,2022-08-16,2022-08-16,一般社団法人赤ちゃんの頭の形と発達支援ベビベビ,,その他の設立登記法人,埼玉県,さいたま市大宮区,北袋町２丁目８２番地オークヒルズ南大宮２－２０２,,11,103,3300835,,,,,,,2022-08-16,1,,,,,アカチャンノアタマノカタチトハッタツシエンベビベビ,0
2223,9030005020973,新規,0,2022-08-16,2022-08-16,社会福祉法人わか草会,,その他の設立登記法人,埼玉県,さいたま市中央区,本町東４丁目５０６番２,,11,105,3380003,,,,,,,2022-08-16,1,,,,,ワカクサカイ,0
2227,9040001124645,新規,0,2022-08-16,2022-08-16,株式会社ＬＥＧＥＮＤ,,株式会社,千葉県,匝瑳市,春海１２２１番地１,,12,235,2892101,,,,,,,2022-08-16,1,,,,,レジェンド,0
2228,9040001124703,新規,0,2022-08-16,2022-08-16,株式会社ケーエステクノ,,株式会社,千葉県,千葉市稲毛区,長沼町２２３番地１２,,12,103,2630005,,,,,,,2022-08-16,1,,,,,ケーエステクノ,0
2229,9040001124711,新規,0,2022-08-16,2022-08-16,株式会社ＲＥＴＯＲＯＳ,,株式会社,千葉県,千葉市稲毛区,小仲台２丁目９番１号川村ビルＡ棟１０１,,12,103,2630043,,,,,,,2022-08-16,1,,,,,レトロス,0
2234,9040003020628,新規,0,2022-08-16,2022-08-16,ロッカ合同会社,,合同会社,千葉県,市川市,南八幡３丁目８番１３号,,12,203,2720023,,,,,,,2022-08-16,1,,,,,ロッカ,0
2236,9040005021698,新規,0,2022-08-16,2022-08-16,行政書士法人ＳＧＸ,,その他の設立登記法人,千葉県,松戸市,本町３－３横山ビル２階,,12,207,2710091,,,,,,,2022-08-16,1,,,,,エスジーエックス,0
2239,9050003006774,新規,0,2022-08-16,2022-08-16,ＩＮＳＵＫＩ　ＥＮＴＥＲＰＲＩＳＥＳ合同会社,,合同会社,茨城県,石岡市,柿岡２７４５番地,,08,205,3150116,,,,,,,2022-08-16,1,,,,,インスキエンタープライズ,0
2241,9080001025138,新規,0,2022-08-16,2022-08-16,株式会社ＳＧメディカルパートナーズ,,株式会社,静岡県,静岡市葵区,紺屋町１７－１葵タワー１階,,22,101,4200852,,,,,,,2022-08-16,1,,,,,エスジーメディカルパートナーズ,0
2246,9100003006653,新規,0,2022-08-16,2022-08-16,合同会社すみれ,,合同会社,長野県,佐久市,岩村田２０１３番地１,,20,217,3850022,,,,,,,2022-08-16,1,,,,,スミレ,0
2248,9110001036890,新規,0,2022-08-16,2022-08-16,株式会社フロッグワークス,,株式会社,新潟県,糸魚川市,大字桂６７７番地１,,15,216,9491337,,,,,,,2022-08-16,1,,,,,フロッグワークス,0
2258,9120001248196,新規,0,2022-08-16,2022-08-16,ＮＫｃｏｒｐｏｒａｔｉｏｎ株式会社,,株式会社,大阪府,門真市,石原町３７番１６号,,27,223,5710067,,,,,,,2022-08-16,1,,,,,エヌケイコーポレーション,0
2259,9120001248221,新規,0,2022-08-16,2022-08-16,株式会社日の出企画,,株式会社,大阪府,大阪市西区,西本町１丁目１４番２４号,,27,106,5500005,,,,,,,2022-08-16,1,,,,,ヒノデキカク,0
2263,9120003022277,新規,0,2022-08-16,2022-08-16,合同会社ＮＶＨ９Ｘ,,合同会社,大阪府,大阪市生野区,新今里３丁目２２番１９号サンハイツ今里２０１号,,27,116,5440001,,,,,,,2022-08-16,1,,,,,エヌブイエイチキューエックス,0
2264,9120003022285,新規,0,2022-08-16,2022-08-16,合同会社シャンスライフ,,合同会社,大阪府,大阪市淀川区,宮原２丁目７番１２号,,27,123,5320003,,,,,,,2022-08-16,1,,,,,シャンスライフ,0
2265,9120003022293,新規,0,2022-08-16,2022-08-16,エデュケーション合同会社,,合同会社,大阪府,大阪市城東区,今福西５丁目３番１１号アベリアＩＩＩ５０３号室,00127542,27,118,5360004,,,,,,,2022-08-16,1,,,,,エデュケーション,0
2271,9120101066085,新規,0,2022-08-16,2022-08-16,株式会社アーキリペイント,,株式会社,大阪府,藤井寺市,大井３丁目１２番６号,,27,226,5830008,,,,,,,2022-08-16,1,,,,,アーキリペイント,0
2272,9120101066093,新規,0,2022-08-16,2022-08-16,株式会社エターナル,,株式会社,大阪府,堺市西区,上１６７番地８,,27,144,5938311,,,,,,,2022-08-16,1,,,,,エターナル,0
2273,9120101066102,新規,0,2022-08-16,2022-08-16,株式会社ａｉ　ｎｏｗａ,,株式会社,大阪府,泉南郡田尻町,吉見７２５,,27,362,5980092,,,,,,,2022-08-16,1,,,,,アイノワ,0
2280,9122005003635,新規,0,2022-08-16,2022-08-16,一般社団法人空プロジェクト,,その他の設立登記法人,大阪府,八尾市,八尾木５丁目５５番の５,,27,212,5810027,,,,,,,2022-08-16,1,,,,,クウプロジェクト,0
2286,9130001072439,新規,0,2022-08-16,2022-08-16,株式会社八広ガレージ,,株式会社,京都府,京都市下京区,岩上通仏光寺上る雁金町４００－８,,26,106,6008393,,,,,,,2022-08-16,1,,,,,ハッコウガレージ,0
2290,9140001127068,新規,0,2022-08-16,2022-08-16,株式会社エフ・エス・ケー,,株式会社,兵庫県,西宮市,鳴尾浜１丁目２２番地５,,28,204,6638142,,,,,,,2022-08-16,1,,,,,エフエスケー,0
2291,9140001127118,新規,0,2022-08-16,2022-08-16,神明ホーム株式会社,,株式会社,兵庫県,神戸市垂水区,西舞子１丁目７番３７号,,28,108,6550048,,,,,,,2022-08-16,1,,,,,シンメイ,0
2295,9150003002755,新規,0,2022-08-16,2022-08-16,Ａｍｂｉｃｉｏｎ合同会社,,合同会社,奈良県,磯城郡三宅町,大字石見４５７番地の２,,29,362,6360212,,,,,,,2022-08-16,1,,,,,アンビシオン,0
2300,9180001152343,新規,0,2022-08-16,2022-08-16,株式会社ディーツーエックスアソシエイツ,,株式会社,愛知県,名古屋市中区,栄３丁目１５－２７いちご栄ビル９階,,23,106,4600008,,,,,,,2022-08-16,1,,,,,ディーツーエックスアソシエイツ,0
2301,9180001152574,新規,0,2022-08-16,2022-08-16,農業法人Ｉ．Ｋ．Ｔファーム株式会社,,株式会社,愛知県,稲沢市,平和町須ケ谷郷５２６番地,,23,220,4901301,,,,,,,2022-08-16,1,,,,,ノウギョウホウジンアイケイティーファーム,0
2302,9180001152616,新規,0,2022-08-16,2022-08-16,Ｇ．ＰＲＩＮＴ株式会社,,株式会社,愛知県,弥富市,加稲１丁目７番地２,,23,235,4980047,,,,,,,2022-08-16,1,,,,,ジープリント,0
2303,9180001152632,新規,0,2022-08-16,2022-08-16,株式会社ともプロダクション,,株式会社,愛知県,犬山市,大字羽黒字中深田１番地２３,,23,215,4840894,,,,,,,2022-08-16,1,,,,,トモプロダクション,0
2306,9180003024169,新規,0,2022-08-16,2022-08-16,合同会社ＡＳＫ,,合同会社,愛知県,名古屋市中区,丸の内１丁目７番１３号プレサンス丸の内アドブル４０５号,,23,106,4600002,,,,,,,2022-08-16,1,,,,,エーエスケー,0
2309,9220001024991,新規,0,2022-08-16,2022-08-16,株式会社ＥＴＭ,,株式会社,石川県,河北郡津幡町,字津幡ル４０番地２,,17,361,9290323,,,,,,,2022-08-16,1,,,,,イーティエム,0
2315,9240001060234,新規,0,2022-08-16,2022-08-16,株式会社ＥＮＫＥＩ,,株式会社,広島県,広島市中区,舟入本町３番２３－９０１号,,34,101,7300843,,,,,,,2022-08-16,1,,,,,エンケイ,0
2318,9260001037156,新規,0,2022-08-16,2022-08-16,株式会社八巻,,株式会社,岡山県,岡山市東区,古都南方３０７７番地１,,33,103,7038215,,,,,,,2022-08-16,1,,,,,ヤマキ,0
2322,9290001098625,新規,0,2022-08-16,2022-08-16,株式会社松田年生商店,,株式会社,福岡県,福岡市博多区,祇園町４番３－９０１号,,40,132,8120038,,,,,,,2022-08-16,1,,,,,マツダトシオショウテン,0
2326,9290801028814,新規,0,2022-08-16,2022-08-16,株式会社キタケン,,株式会社,福岡県,北九州市小倉北区,木町３丁目１０番１４号,,40,106,8030851,,,,,,,2022-08-16,1,,,,,キタケン,0
2329,9320005010012,新規,0,2022-08-16,2022-08-16,一般社団法人たけたうまれ,,その他の設立登記法人,大分県,竹田市,大字竹田町５５１,,44,208,8780012,,,,,,,2022-08-16,1,,,,,タケタウマレ,0
2330,9330001030021,新規,0,2022-08-16,2022-08-16,クロスディ株式会社,,株式会社,熊本県,熊本市西区,河内町野出４７番地１,,43,103,8615343,,,,,,,2022-08-16,1,,,,,クロスディ,0
2332,9340001024971,新規,0,2022-08-16,2022-08-16,株式会社ＳＴＳ　ＬＵＸＵＲＹ　ＪＡＰＡＮ,,株式会社,鹿児島県,鹿児島市,五ヶ別府町３３５１番地３　１０３号,,46,201,8910101,,,,,,,2022-08-16,1,,,,,,0
2333,9350003004145,新規,0,2022-08-16,2022-08-16,合同会社アップデイト・プラス１,,合同会社,宮崎県,西都市,有吉町１丁目４０番地,,45,208,8810011,,,,,,,2022-08-16,1,,,,,アップデイトプラスワン,0
2336,9360001030828,新規,0,2022-08-16,2022-08-16,株式会社當山内装,,株式会社,沖縄県,南城市,大里字稲嶺２１０１番地３９,,47,215,9011204,,,,,,,2022-08-16,1,,,,,トウヤマナイソウ,0
2337,9360001030836,新規,0,2022-08-16,2022-08-16,株式会社ユープロモ,,株式会社,沖縄県,那覇市,樋川１丁目２８番２８号ガーデンシャトー１０１号,,47,201,9000022,,,,,,,2022-08-16,1,,,,,ユープロモ,0
2338,9360001030844,新規,0,2022-08-16,2022-08-16,株式会社あにも,,株式会社,沖縄県,島尻郡八重瀬町,字伊覇６５番地２４,,47,362,9010405,,,,,,,2022-08-16,1,,,,,アニモ,0
2342,9380001033052,新規,0,2022-08-16,2022-08-16,株式会社ピーエス,,株式会社,福島県,福島市,東浜町７番３５号,,07,201,9608132,,,,,,,2022-08-16,1,,,,,,0
2347,9380005012606,新規,0,2022-08-16,2022-08-16,ＮＰＯ法人こどもと農がつながる給食だんだん,,その他の設立登記法人,福島県,郡山市,喜久田町坪沢４丁目１０２番地,,07,203,9630544,,,,,,,2022-08-16,1,,,,,コドモトノウガツナガルキュウショクダンダン,0
2348,9390001016997,新規,0,2022-08-16,2022-08-16,株式会社住まいずＯＮＥ,,株式会社,山形県,山形市,南栄町１丁目４８番２号,,06,201,9902445,,,,,,,2022-08-16,1,,,,,スマイズワン,0
2354,9470001019216,新規,0,2022-08-16,2022-08-16,株式会社剛板,,株式会社,香川県,高松市,新田町甲２７００番地７,,37,201,7610102,,,,,,,2022-08-16,1,,,,,ゴウバン,0
2358,9500001024402,新規,0,2022-08-16,2022-08-16,株式会社とみえい,,株式会社,愛媛県,西条市,壬生川５４６番地１,,38,206,7991341,,,,,,,2022-08-16,1,,,,,トミエイ,0
