sequenceNumber,corporateNumber,process,correct,updateDate,changeDate,name,nameImageId,kind,prefectureName,cityName,streetNumber,addressImageId,prefectureCode,cityCode,postCode,addressOutside,addressOutsideImageId,closeDate,closeCause,successorCorporateNumber,changeCause,assignmentDate,latest,enName,enPrefectureName,enCityName,enAddressOutside,furigana,hihyoji
7,1010001232342,新規,0,2023-01-23,2023-01-23,株式会社ＳＨＡＰＥ,,株式会社,東京都,中央区,日本橋３丁目２番１４号新槇町ビル別館第一１階,,13,102,1030027,,,,,,,2023-01-23,1,,,,,シェイプ,0
8,1010003039562,新規,0,2023-01-23,2023-01-23,合同会社８８ｍｉｌｒｅｃ,,合同会社,東京都,中央区,日本橋本町３丁目３番６号ワカ末ビル７階,,13,102,1030023,,,,,,,2023-01-23,1,,,,,ハチジュウハチマイルレック,0
9,1010003039645,新規,0,2023-01-23,2023-01-23,アルン合同会社,,合同会社,東京都,千代田区,神田和泉町１番地６－１６ヤマトビル４０５,,13,101,1010024,,,,,,,2023-01-23,1,,,,,アルン,0
10,1010003039661,新規,0,2023-01-23,2023-01-23,ライフデザイン合同会社,,合同会社,東京都,中央区,銀座１丁目２２番１１号銀座大竹ビジデンス２Ｆ,,13,102,1040061,,,,,,,2023-01-23,1,,,,,ライフデザイン,0
22,1010401172007,新規,0,2023-01-23,2023-01-23,株式会社Ｍｙ　Ｂｏｎｄ,,株式会社,東京都,港区,虎ノ門１丁目３番１号東京虎ノ門グローバルスクエア５階,,13,103,1050001,,,,,,,2023-01-23,1,,,,,マイボンド,0
24,1010403029353,新規,0,2023-01-23,2023-01-23,合同会社シェイク,,合同会社,東京都,港区,芝浦１丁目９－７おもだかビル４Ｆ,,13,103,1050023,,,,,,,2023-01-23,1,,,,,シェイク,0
28,1010601062453,新規,0,2023-01-23,2023-01-23,株式会社Ｂｅｌｌｅｚｚａ,,株式会社,東京都,墨田区,江東橋２丁目６番１３号,,13,107,1300022,,,,,,,2023-01-23,1,,,,,ベレッツァ,0
29,1010601062461,新規,0,2023-01-23,2023-01-23,株式会社テイクフィット,,株式会社,東京都,墨田区,緑２丁目１０番１０号,,13,107,1300021,,,,,,,2023-01-23,1,,,,,テイクフィット,0
64,1010901052393,新規,0,2023-01-23,2023-01-23,株式会社カブズツーナイン,,株式会社,東京都,世田谷区,下馬１丁目４５番６号－２Ｆ,,13,112,1540002,,,,,,,2023-01-23,1,,,,,,0
74,1011101101577,新規,0,2023-01-23,2023-01-23,ＵＰＰＥＲ　ＨＯＵＳＥ　ＣＬＵＢ　ＪＡＰＡＮ株式会社,,株式会社,東京都,新宿区,高田馬場４丁目１７番１５号東陽ビルディング６０５号室,,13,104,1690075,,,,,,,2023-01-23,1,,,,,アッパーハウスクラブジャパン,0
75,1011103012616,新規,0,2023-01-23,2023-01-23,Ｂｅｅ合同会社,,合同会社,東京都,新宿区,矢来町４７番地,,13,104,1620805,,,,,,,2023-01-23,1,,,,,ビー,0
87,1011501028890,新規,0,2023-01-23,2023-01-23,株式会社松橋,,株式会社,東京都,北区,志茂１丁目１５番１０号,,13,117,1150042,,,,,,,2023-01-23,1,,,,,マツハシ,0
92,1011601026522,新規,0,2023-01-23,2023-01-23,株式会社一番星玩具,,株式会社,東京都,練馬区,大泉学園町５丁目１２番２７号,,13,120,1780061,,,,,,,2023-01-23,1,,,,,イチバンボシガング,0
100,1011801041817,新規,0,2023-01-23,2023-01-23,ＶＡＳＩＬＥＵＳ株式会社,,株式会社,東京都,足立区,中央本町４丁目１５－７－５０６,,13,121,1210011,,,,,,,2023-01-23,1,,,,,ヴァシレウス,0
101,1011801041825,新規,0,2023-01-23,2023-01-23,株式会社ハミングバード,,株式会社,東京都,足立区,鹿浜３丁目１９番地２４号,,13,121,1230864,,,,,,,2023-01-23,1,,,,,ハミングバード,0
122,1013301050224,新規,0,2023-01-23,2023-01-23,株式会社ＧＭＬＳ　ＪＡＰＡＮ,,株式会社,東京都,豊島区,東池袋５丁目７番３号アゼリア東池袋４０１,,13,116,1700013,,,,,,,2023-01-23,1,,,,,ジーエムエルエスジャパン,0
131,1020001149817,新規,0,2023-01-23,2023-01-23,株式会社ＥｖｅｒＧｒｅｅｎ,,株式会社,神奈川県,横浜市磯子区,久木町３番３０－１号,,14,107,2350015,,,,,,,2023-01-23,1,,,,,エバーグリーン,0
132,1020001149916,新規,0,2023-01-23,2023-01-23,株式会社スノーボール,,株式会社,神奈川県,横浜市港南区,下永谷６丁目１９番８号,,14,111,2330016,,,,,,,2023-01-23,1,,,,,スノーボール,0
133,1020001149924,新規,0,2023-01-23,2023-01-23,株式会社エメラルド,,株式会社,神奈川県,横浜市港北区,新横浜２丁目５番１４号ｗｉｓｅｎｅｘｔ新横浜３階,,14,109,2220033,,,,,,,2023-01-23,1,,,,,エメラルド,0
134,1020001149932,新規,0,2023-01-23,2023-01-23,株式会社ＳＵＴＶＡ,,株式会社,神奈川県,横浜市保土ケ谷区,新桜ケ丘２丁目２８番２０号,,14,106,2400036,,,,,,,2023-01-23,1,,,,,ストヴァ,0
135,1020001149949,新規,0,2023-01-23,2023-01-23,株式会社ＩＮ‐ＤＩＲＥＴ,,株式会社,神奈川県,横浜市中区,本牧三之谷２４－１２－２,,14,104,2310824,,,,,,,2023-01-23,1,,,,,インディレット,0
136,1020003023136,新規,0,2023-01-23,2023-01-23,合同会社ｍｏｏｉ　ｃａｍｅｌｉａ,,合同会社,神奈川県,横浜市港南区,丸山台２丁目１５番９号,,14,111,2330013,,,,,,,2023-01-23,1,,,,,モイカメリア,0
137,1020003023152,新規,0,2023-01-23,2023-01-23,合同会社痛みを考える会,,合同会社,神奈川県,横浜市緑区,長津田７丁目１－１オークヒルズ５０６,,14,113,2260027,,,,,,,2023-01-23,1,,,,,イタミヲカンガエルカイ,0
140,1020005015825,新規,0,2023-01-23,2023-01-23,一般社団法人カラフルエデュ協会,,その他の設立登記法人,神奈川県,川崎市高津区,向ケ丘８１番地３,,14,134,2130035,,,,,,,2023-01-23,1,,,,,カラフルエデュキョウカイ,0
146,1021003012649,新規,0,2023-01-23,2023-01-23,ＡＰＩＡアカウンティング合同会社,,合同会社,神奈川県,茅ヶ崎市,共恵１丁目１－５ＢＬＤ・Ｎａｇａｓｈｉｍａ３０１ＣＯＰＬＡＣＥ・ＣＨＩＧＡＳＡＫＩ,,14,207,2530056,,,,,,,2023-01-23,1,,,,,エイピアアカウンティング,0
148,1030001151838,新規,0,2023-01-23,2023-01-23,株式会社ＬＩＥＮ,,株式会社,埼玉県,越谷市,南越谷１丁目２０番地１３第２ＪＭビル３階,,11,222,3430845,,,,,,,2023-01-23,1,,,,,リエン,0
149,1030001152043,新規,0,2023-01-23,2023-01-23,環盛株式会社,,株式会社,埼玉県,川口市,元郷１丁目９番９号サンシティー山本２０２,,11,203,3320011,,,,,,,2023-01-23,1,,,,,カンセイ,0
160,1040001126707,新規,0,2023-01-23,2023-01-23,株式会社Ｔ‐ＯＪＩＯ,,株式会社,千葉県,千葉市美浜区,真砂３丁目１３番４号美浜ウイング４Ｆ,,12,106,2610011,,,,,,,2023-01-23,1,,,,,ティーオジオ,0
161,1040001126731,新規,0,2023-01-23,2023-01-23,ふくふくのもり株式会社,,株式会社,千葉県,千葉市若葉区,若松町５４５番地６,,12,104,2640021,,,,,,,2023-01-23,1,,,,,フクフクノモリ,0
162,1040001126748,新規,0,2023-01-23,2023-01-23,株式会社Ｓｅｎｓｉｂｌｅ　Ａｄｖｉｓｏｒ,,株式会社,千葉県,柏市,末広町４－５金子ビルＡ棟２Ｆ、ＴＨＥ・ＨＵＢ・ＳＯＬＯ柏,,12,217,2770842,,,,,,,2023-01-23,1,,,,,センシブルアドバイザー,0
166,1040003021749,新規,0,2023-01-23,2023-01-23,ＡＬＨＡＡＤＩ　ＭＯＴＯＲＳ合同会社,,合同会社,千葉県,山武市,雨坪１０７番地１,,12,237,2891213,,,,,,,2023-01-23,1,,,,,アルハーディモータース,0
195,1080001025376,新規,0,2023-01-23,2023-01-23,株式会社ＲＣ,,株式会社,静岡県,榛原郡吉田町,川尻２３８番地,,22,424,4210302,,,,,,,2023-01-23,1,,,,,アールシー,0
197,1080003002927,新規,0,2023-01-23,2023-01-23,合同会社夏海,,合同会社,静岡県,静岡市葵区,吉野町４番７号,,22,101,4200046,,,,,,,2023-01-23,1,,,,,ナツウミ,0
200,1080103002728,新規,0,2023-01-23,2023-01-23,合同会社ＳＯＮＯ,,合同会社,静岡県,裾野市,茶畑２２３－４－１０２,,22,220,4101121,,,,,,,2023-01-23,1,,,,,ソーノ,0
203,1080403004705,新規,0,2023-01-23,2023-01-23,浜名ビジネス合同会社,,合同会社,静岡県,浜松市北区,細江町小野７６１－３,,22,135,4311301,,,,,,,2023-01-23,1,,,,,ハマナビジネス,0
206,1090003002232,新規,0,2023-01-23,2023-01-23,マイアミドリーム合同会社,,合同会社,山梨県,南都留郡山中湖村,平野５０６－２９６富士あざみ丘２－２,,19,425,4010502,,,,,,,2023-01-23,1,,,,,マイアミドリーム,0
209,1100003006850,新規,0,2023-01-23,2023-01-23,合同会社ＬＯＤＥ　Ｆｉｌｍ,,合同会社,長野県,長野市,青木島町青木島乙６７５番地２,,20,201,3812241,,,,,,,2023-01-23,1,,,,,ロデフィルム,0
211,1110001037252,新規,0,2023-01-23,2023-01-23,株式会社ＲＩＤＥ,,株式会社,新潟県,新潟市江南区,梅見台２丁目４番１５号リュージュＣ２０２号,,15,104,9500140,,,,,,,2023-01-23,1,,,,,ライド,0
222,1120001251851,新規,0,2023-01-23,2023-01-23,日和株式会社,,株式会社,大阪府,大阪市住之江区,西加賀屋４丁目３－２７フォンタル１－２０２号室,,27,125,5590016,,,,,,,2023-01-23,1,,,,,ヒヨリ,0
223,1120001251942,新規,0,2023-01-23,2023-01-23,株式会社ＧＵＩ,,株式会社,大阪府,大阪市北区,堂山町１１－２山よしビル５０１,,27,127,5300027,,,,,,,2023-01-23,1,,,,,ジーユーアイ,0
228,1120003023308,新規,0,2023-01-23,2023-01-23,ｓｋｙｒｉｃｈ合同会社,,合同会社,大阪府,枚方市,津田駅前２丁目９番１０－９０５号,,27,210,5730125,,,,,,,2023-01-23,1,,,,,スカイリッチ,0
229,1120005023413,新規,0,2023-01-23,2023-01-23,医療法人ＨＡＫＵＡＩ,,その他の設立登記法人,大阪府,大阪市生野区,林寺２丁目２３番１５号,,27,116,5440023,,,,,,,2023-01-23,1,,,,,ハクアイ,0
232,1120101066869,新規,0,2023-01-23,2023-01-23,株式会社カステッロヴェッキオ,,株式会社,大阪府,高石市,綾園５丁目６番５号,,27,225,5920014,,,,,,,2023-01-23,1,,,,,カステッロヴェッキオ,0
235,1120901047011,新規,0,2023-01-23,2023-01-23,Ｍ’ｓＣＬＡＮ株式会社,,株式会社,大阪府,豊中市,小曽根１丁目２０－３,,27,203,5610813,,,,,,,2023-01-23,1,,,,,エムズクラン,0
236,1120901047028,新規,0,2023-01-23,2023-01-23,株式会社保坂建設,,株式会社,大阪府,吹田市,千里丘下６番Ｂ－４０４号,,27,205,5650813,,,,,,,2023-01-23,1,,,,,ホサカケンセツ,0
238,1122003002497,新規,0,2023-01-23,2023-01-23,アドユァト合同会社,,合同会社,大阪府,東大阪市,岸田堂南町１番２２号,,27,227,5770847,,,,,,,2023-01-23,1,,,,,アドユァト,0
248,1140001128833,新規,0,2023-01-23,2023-01-23,株式会社心美,,株式会社,兵庫県,尼崎市,長洲西通２丁目８番３０号,,28,202,6600807,,,,,,,2023-01-23,1,,,,,ココミ,0
249,1140001128841,新規,0,2023-01-23,2023-01-23,株式会社高橋総合事務所,,株式会社,兵庫県,姫路市,東延末３丁目１８番地,,28,201,6700965,,,,,,,2023-01-23,1,,,,,タカハシソウゴウジムショ,0
253,1140003018628,新規,0,2023-01-23,2023-01-23,合同会社いしい事務所,,合同会社,兵庫県,神戸市長田区,松野通１丁目１０番７号３階,,28,106,6530841,,,,,,,2023-01-23,1,,,,,イシイジムショ,0
261,1180001154652,新規,0,2023-01-23,2023-01-23,株式会社リファクト,,株式会社,愛知県,名古屋市緑区,潮見が丘２丁目８９番地,,23,114,4580037,,,,,,,2023-01-23,1,,,,,リファクト,0
267,1180301037037,新規,0,2023-01-23,2023-01-23,名南事務所株式会社,,株式会社,愛知県,碧南市,前浜町５丁目３２番地,,23,209,4470827,,,,,,,2023-01-23,1,,,,,メイナンジムショ,0
272,1180303005578,新規,0,2023-01-23,2023-01-23,合同会社ＭＲＳ,,合同会社,愛知県,岡崎市,西本郷町字和志山６５番地１,,23,202,4440948,,,,,,,2023-01-23,1,,,,,エムアールエス,0
273,1180305009437,新規,0,2023-01-23,2023-01-23,一般社団法人ＴＡＲＳ,,その他の設立登記法人,愛知県,豊田市,小坂本町１丁目５－５ＹＡＭＡＭＯＴＯＢＬＤＧ２階,,23,211,4710034,,,,,,,2023-01-23,1,,,,,ターズ,0
278,1200003005801,新規,0,2023-01-23,2023-01-23,ブルーバイオデバイス合同会社,,合同会社,岐阜県,中津川市,高山３５４番地２２３,,21,206,5080204,,,,,,,2023-01-23,1,,,,,ブルーバイオデバイス,0
280,1220001025238,新規,0,2023-01-23,2023-01-23,株式会社ミライの人材,,株式会社,石川県,金沢市,本町２丁目１番１号パレスビル,,17,201,9200853,,,,,,,2023-01-23,1,,,,,ミライノジンザイ,0
282,1240001060984,新規,0,2023-01-23,2023-01-23,錦和株式会社,,株式会社,広島県,福山市,引野町北５丁目１番１０号,,34,207,7210941,,,,,,,2023-01-23,1,,,,,キンワ,0
283,1240005015506,新規,0,2023-01-23,2023-01-23,一般社団法人広島空き家流通促進ネットワーク,,その他の設立登記法人,広島県,東広島市,西条西本町１２番１号播磨ビル１０２号,,34,212,7390043,,,,,,,2023-01-23,1,,,,,ヒロシマアキヤリュウツウソクシンネットワーク,0
288,1290001100232,新規,0,2023-01-23,2023-01-23,株式会社Ｌｉｆｅ　Ｗａｔｅｒ,,株式会社,福岡県,福岡市南区,老司５丁目１３番２６号,,40,134,8111346,,,,,,,2023-01-23,1,,,,,ライフウォーター,0
289,1290001100307,新規,0,2023-01-23,2023-01-23,株式会社惟,,株式会社,福岡県,福岡市西区,上山門２丁目１９番２３号,,40,135,8190054,,,,,,,2023-01-23,1,,,,,ユイ,0
292,1320001019535,新規,0,2023-01-23,2023-01-23,ＳＫＹ　ＦＡＣＴＯＲＹ株式会社,,株式会社,大分県,玖珠郡玖珠町,大字戸畑１７４５番地の１,,44,462,8794331,,,,,,,2023-01-23,1,,,,,スカイファクトリー,0
295,1340005009547,新規,0,2023-01-23,2023-01-23,一般社団法人南九州福祉法務支援センター,,その他の設立登記法人,鹿児島県,鹿児島市,西田２丁目１０番１号,,46,201,8900046,,,,,,,2023-01-23,1,,,,,ミナミキュウシュウフクシホウムシエンセンター,0
301,1370005010592,新規,0,2023-01-23,2023-01-23,一般社団法人アイリック,,その他の設立登記法人,宮城県,仙台市青葉区,荒巻字青葉６－６－０４東北大学大学院工学研究科内,,04,101,9800845,,,,,,,2023-01-23,1,,,,,アイリック,0
304,1380001033415,新規,0,2023-01-23,2023-01-23,株式会社Ｈｏｒｓｅ　Ｖａｌｕｅ,,株式会社,福島県,南相馬市,小高区本町１丁目８７,,07,212,9792124,,,,,,,2023-01-23,1,,,,,ホースバリュー,0
308,1400001016136,新規,0,2023-01-23,2023-01-23,株式会社平六醸造,,株式会社,岩手県,紫波郡紫波町,日詰字郡山駅２４６番地,,03,321,0283305,,,,,,,2023-01-23,1,,,,,ヒラロクジョウゾウ,0
310,1420003002652,新規,0,2023-01-23,2023-01-23,合同会社マイホーム物語,,合同会社,青森県,青森市,安方２丁目９番１６号,,02,201,0300803,,,,,,,2023-01-23,1,,,,,マイホームモノガタリ,0
315,1460301005122,新規,0,2023-01-23,2023-01-23,ハンドル知床クリーンサービス株式会社,,株式会社,北海道,斜里郡斜里町,字豊倉４７番地１５,,01,545,0994141,,,,,,,2023-01-23,1,,,,,ハンドルシレトコクリーンサービス,0
316,1460405000110,新規,0,2023-01-23,2023-01-23,歯舞漁業会,,その他の設立登記法人,北海道,根室市,歯舞３丁目２７番地,,01,223,0870163,,,,,,,2023-01-23,1,,,,,,0
320,1700150113884,新規,0,2023-01-23,2023-01-23,Ｕｎｉｔｅｄ　Ｏｎｅ　Ｈｏｌｄｉｎｇｓ　Ｌｉｍｉｔｅｄ,,外国会社等,,,,,,,,Ｒｏｏｍ　４０１，Ｎｏ．２９，Ｙｕａｎｘｉａｔｉａｎ　３ｒｄ　Ｒｏａｄ　Ｙｏｎｇｐｉｎｇ　Ｓｔｒｅｅｔ，Ｂａｉｙｕｎ　Ｄｉｓｔｒｉｃｔ　Ｇｕａｎｇｚｈｏｕ，Ｃｈｉｎａ,,,,,,2023-01-23,1,,,,,ユナイテッドワンホールディングスリミテッド,0
329,2010001232408,新規,0,2023-01-23,2023-01-23,エムグランデ株式会社,,株式会社,東京都,中央区,銀座１丁目１２番４号Ｎ＆ＥＢＬＤ．６Ｆ,,13,102,1040061,,,,,,,2023-01-23,1,,,,,エムグランデ,0
330,2010001232432,新規,0,2023-01-23,2023-01-23,株式会社ＦＣＤアカウンティング,,株式会社,東京都,千代田区,神田淡路町１丁目１９番地１木村ビル２階,,13,101,1010063,,,,,,,2023-01-23,1,,,,,エフシーディーアカウンティング,0
331,2010003039561,新規,0,2023-01-23,2023-01-23,合同会社サイスペースセキュリティ,,合同会社,東京都,中央区,日本橋人形町３丁目４－２佐藤商事ビル３階,,13,102,1030013,,,,,,,2023-01-23,1,,,,,サイスペースセキュリティ,0
332,2010005036152,新規,0,2023-01-23,2023-01-23,一般社団法人日本理学療法機器工業会,,その他の設立登記法人,東京都,千代田区,霞が関３丁目２番５号霞が関ビルディング４階,,13,101,1000013,,,,,,,2023-01-23,1,,,,,ニホンリガクリョウホウキキコウギョウカイ,0
342,2010401172006,新規,0,2023-01-23,2023-01-23,株式会社アップライトコーポレーション,,株式会社,東京都,港区,芝浦３丁目１４番６号バリュー芝浦ビルヂング２階,,13,103,1080023,,,,,,,2023-01-23,1,,,,,アップライトコーポレーション,0
345,2010403029352,新規,0,2023-01-23,2023-01-23,合同会社Ａｎｅｓｔｈ　Ｒｉｖｅｒ,,合同会社,東京都,港区,麻布十番４丁目１番８号マストライフ麻布十番９０４,,13,103,1060045,,,,,,,2023-01-23,1,,,,,アネスリバー,0
346,2010405021712,新規,0,2023-01-23,2023-01-23,一般社団法人事業承継・後継者育成研究会,,その他の設立登記法人,東京都,港区,麻布十番２丁目１番８－９０４号,,13,103,1060045,,,,,,,2023-01-23,1,,,,,ジギョウショウケイコウケイシャイクセイケンキュウカイ,0
355,2010703006547,新規,0,2023-01-23,2023-01-23,ハリーフォレスターズ合同会社,,合同会社,東京都,品川区,西五反田１丁目２６番２号五反田サンハイツ９１１,,13,109,1410031,,,,,,,2023-01-23,1,,,,,ハリーフォレスターズ,0
360,2010801033609,新規,0,2023-01-23,2023-01-23,株式会社ライカ,,株式会社,東京都,大田区,大森北１丁目４番１号,,13,111,1430016,,,,,,,2023-01-23,1,,,,,ライカ,0
361,2010801033617,新規,0,2023-01-23,2023-01-23,株式会社ペレグリン,,株式会社,東京都,大田区,北千束３丁目２１番２号カーサコリーナ２０１,,13,111,1450062,,,,,,,2023-01-23,1,,,,,ペレグリン,0
373,2011001152034,新規,0,2023-01-23,2023-01-23,株式会社Ｆａｒａｄａｙ,,株式会社,東京都,渋谷区,神泉町１０番１５号,,13,113,1500045,,,,,,,2023-01-23,1,,,,,ファラデー,0
374,2011001152050,新規,0,2023-01-23,2023-01-23,株式会社Ｃｌｏｕｄｂｒｏ,,株式会社,東京都,渋谷区,神宮前６丁目２３番４号桑野ビル２階,,13,113,1500001,,,,,,,2023-01-23,1,,,,,クラウドブロウ,0
376,2011101006172,新規,0,2023-01-23,2023-01-23,株式会社ケ・アンド・ケ,,株式会社,東京都,新宿区,四谷４丁目１３番地１２,,13,104,1600004,,,,,,,2023-01-23,1,,,,,ケアンドケ,0
386,2011201024371,新規,0,2023-01-23,2023-01-23,ＳＭＡ日本株式会社,,株式会社,東京都,中野区,江古田４丁目２５番３号,,13,114,1650022,,,,,,,2023-01-23,1,,,,,エスエムエイニホン,0
394,2011403003883,新規,0,2023-01-23,2023-01-23,合同会社ＲＡＯ,,合同会社,東京都,板橋区,東新町２丁目４－１０－２０６,,13,119,1740074,,,,,,,2023-01-23,1,,,,,ラオ,0
430,2012701017427,新規,0,2023-01-23,2023-01-23,神藤商会株式会社,,株式会社,東京都,西東京市,富士町１丁目７番７２－９０４号,,13,229,2020014,,,,,,,2023-01-23,1,,,,,カントウショウカイ,0
431,2012701017435,新規,0,2023-01-23,2023-01-23,株式会社ＥＯＴＯ,,株式会社,東京都,西東京市,栄町２丁目１０－２,,13,229,2020006,,,,,,,2023-01-23,1,,,,,エトオ,0
435,2013105001819,新規,0,2023-01-23,2023-01-23,一般社団法人西多摩減災・防災ネットワーク,,その他の設立登記法人,東京都,あきる野市,牛沼５２０番地８,,13,228,1970826,,,,,,,2023-01-23,1,,,,,ニシタマゲンサイボウサイネットワーク,0
449,2020001149915,新規,0,2023-01-23,2023-01-23,株式会社ＨＯＭ,,株式会社,神奈川県,横浜市都筑区,佐江戸町２４１番地,,14,118,2240054,,,,,,,2023-01-23,1,,,,,エイチオーエム,0
450,2020001149923,新規,0,2023-01-23,2023-01-23,株式会社経理と人事労務,,株式会社,神奈川県,横浜市中区,桜木町１丁目１０１－１クロスゲート７階,,14,104,2310062,,,,,,,2023-01-23,1,,,,,ケイリトジンジロウム,0
451,2020001149931,新規,0,2023-01-23,2023-01-23,株式会社アヴニールクリエイション,,株式会社,神奈川県,横浜市青葉区,大場町３７７番地２６,,14,117,2250023,,,,,,,2023-01-23,1,,,,,アブニールクリエイション,0
452,2020001149956,新規,0,2023-01-23,2023-01-23,株式会社ＰＪＳＴＸ分割準備会社,,株式会社,神奈川県,川崎市幸区,堀川町７２番地３４,,14,132,2120013,,,,,,,2023-01-23,1,,,,,ピージェーエスティーエックスブンカツジュンビカイシャ,0
456,2020003023028,新規,0,2023-01-23,2023-01-23,合同会社ＳＡＶＡ,,合同会社,神奈川県,横浜市西区,高島２丁目１１番２号スカイメナー横浜５１９,,14,103,2200011,,,,,,,2023-01-23,1,,,,,サヴァ,0
457,2020003023151,新規,0,2023-01-23,2023-01-23,あいのうた合同会社,,合同会社,神奈川県,川崎市中原区,井田２丁目８番２６号,,14,133,2110035,,,,,,,2023-01-23,1,,,,,アイノウタ,0
460,2021001078022,新規,0,2023-01-23,2023-01-23,Ｇｏｏｄｎｅｉｇｈｂｏｒ株式会社,,株式会社,神奈川県,高座郡寒川町,倉見２３６１番地１１,,14,321,2530101,,,,,,,2023-01-23,1,,,,,グッドネイバー,0
461,2021003012648,新規,0,2023-01-23,2023-01-23,合同会社Ｔ‐ｔｏｎｙ,,合同会社,神奈川県,相模原市緑区,下九沢２８８３番地４,,14,151,2520134,,,,,,,2023-01-23,1,,,,,ティートニー,0
462,2021005012720,新規,0,2023-01-23,2023-01-23,一般社団法人汀渚会,,その他の設立登記法人,神奈川県,横須賀市,野比２丁目２０番５号,,14,201,2390841,,,,,,,2023-01-23,1,,,,,テイショカイ,0
464,2030001151721,新規,0,2023-01-23,2023-01-23,株式会社Ａｒｅｓ,,株式会社,埼玉県,上尾市,西宮下３丁目２００番地３,,11,219,3620043,,,,,,,2023-01-23,1,,,,,アレス,0
465,2030001152034,新規,0,2023-01-23,2023-01-23,株式会社レーヴペイント,,株式会社,埼玉県,鴻巣市,氷川町１２番地９,,11,217,3650045,,,,,,,2023-01-23,1,,,,,レーヴペイント,0
466,2030001152067,新規,0,2023-01-23,2023-01-23,株式会社ＴＫＩＣ,,株式会社,埼玉県,八潮市,大字西袋１３９１,,11,234,3400833,,,,,,,2023-01-23,1,,,,,ティーケーアイシー,0
472,2030003020973,新規,0,2023-01-23,2023-01-23,ＵＭＥＲ　ＴＲＡＤＩＮＧ合同会社,,合同会社,埼玉県,久喜市,伊坂北２丁目１番１５－１０６号,,11,232,3491126,,,,,,,2023-01-23,1,,,,,ウマールトレーディング,0
473,2030003021006,新規,0,2023-01-23,2023-01-23,今友合同会社,,合同会社,埼玉県,東松山市,大字上唐子９９１番地３,,11,212,3550077,,,,,,,2023-01-23,1,,,,,コンユウ,0
479,2040001126730,新規,0,2023-01-23,2023-01-23,株式会社Ｐｒｅｓｉｄｅｎｔ’ｓ　Ａｇｅｎｔ,,株式会社,千葉県,船橋市,本町２丁目２番７号,,12,204,2730005,,,,,,,2023-01-23,1,,,,,プレジデンツエージェント,0
480,2040001126739,新規,0,2023-01-23,2023-01-23,アクリア株式会社,,株式会社,千葉県,松戸市,常盤平３丁目３番地の２３,,12,207,2702261,,,,,,,2023-01-23,1,,,,,アクリア,0
481,2040001126747,新規,0,2023-01-23,2023-01-23,株式会社クリーンアース,,株式会社,千葉県,船橋市,東船橋３丁目１番１号東船橋グリーンハイツＩＩ－３０３号,00129166,12,204,2730002,,,,,,,2023-01-23,1,,,,,クリーンアース,0
483,2040003021756,新規,0,2023-01-23,2023-01-23,合同会社わらく,,合同会社,千葉県,千葉市中央区,富士見２丁目７－９富士見ビル６０９号,,12,101,2600015,,,,,,,2023-01-23,1,,,,,ワラク,0
500,2080003002926,新規,0,2023-01-23,2023-01-23,合同会社オキツグリーンテック,,合同会社,静岡県,静岡市駿河区,中島２９番地の９,,22,102,4228046,,,,,,,2023-01-23,1,,,,,オキツグリーンテック,0
507,2100003006858,新規,0,2023-01-23,2023-01-23,合同会社Ｂｕｌｌ　Ｈｏｕｓｅ,,合同会社,長野県,安曇野市,穂高有明７７４４番地１８,,20,220,3998301,,,,,,,2023-01-23,1,,,,,ブルハウス,0
508,2100005012961,新規,0,2023-01-23,2023-01-23,一般社団法人軽井沢ＡＲＫＳ,,その他の設立登記法人,長野県,北佐久郡軽井沢町,大字長倉２１８１番地１,,20,321,3890111,,,,,,,2023-01-23,1,,,,,カルイザワアークス,0
522,2120001251850,新規,0,2023-01-23,2023-01-23,エス・ティー・アイ株式会社,,株式会社,大阪府,大阪市淀川区,野中南１丁目６－１２メゾン・ド・ソフィー３１６号室,,27,123,5320022,,,,,,,2023-01-23,1,,,,,エスティーアイ,0
523,2120003023298,新規,0,2023-01-23,2023-01-23,ＭｉｎｅＬｙｙ合同会社,,合同会社,大阪府,大阪市西成区,天下茶屋東２丁目７番６号六谷ハイツＩＩ１０２号,00129178,27,122,5570011,,,,,,,2023-01-23,1,,,,,マイリー,0
524,2120003023307,新規,0,2023-01-23,2023-01-23,合同会社ＴＳＫスポーツカンパニー,,合同会社,大阪府,大阪市東住吉区,田辺１丁目３－５,,27,121,5460031,,,,,,,2023-01-23,1,,,,,ティーエスケースポーツカンパニー,0
525,2120005023412,新規,0,2023-01-23,2023-01-23,一般社団法人日本アーキテクト協会,,その他の設立登記法人,大阪府,大阪市西区,京町堀１丁目４番１６号センチュリービル６階,,27,106,5500003,,,,,,,2023-01-23,1,,,,,ニホンアーキテクトキョウカイ,0
532,2122001036570,新規,0,2023-01-23,2023-01-23,株式会社まのは,,株式会社,大阪府,八尾市,桂町５丁目６番地の２,,27,212,5810823,,,,,,,2023-01-23,1,,,,,マノハ,0
533,2122001036612,新規,0,2023-01-23,2023-01-23,タートルアント株式会社,,株式会社,大阪府,東大阪市,小阪１丁目１０番３１－４０３号,,27,227,5770801,,,,,,,2023-01-23,1,,,,,タートルアント,0
541,2130005016679,新規,0,2023-01-23,2023-01-23,特定非営利活動法人ＴＵＮＡｇＵミラクル,,その他の設立登記法人,京都府,木津川市,加茂町里東大間田８番地５,,26,214,6191152,,,,,,,2023-01-23,1,,,,,ツナグミラクル,0
553,2140001128832,新規,0,2023-01-23,2023-01-23,株式会社エヌアールエヌ,,株式会社,兵庫県,尼崎市,武庫之荘本町３丁目１７番２０号,,28,202,6610031,,,,,,,2023-01-23,1,,,,,エヌアールエヌ,0
554,2140005026462,新規,0,2023-01-23,2023-01-23,税理士法人山本税理士事務所,,その他の設立登記法人,兵庫県,神戸市中央区,八幡通３丁目２番５号ＩＮ東洋ビル５階,,28,110,6510085,,,,,,,2023-01-23,1,,,,,ヤマモトゼイリシジムショ,0
566,2180001154602,新規,0,2023-01-23,2023-01-23,株式会社ＢＡＮＡＮＡ,,株式会社,愛知県,稲沢市,六角堂東町５丁目６番地１２,,23,220,4928172,,,,,,,2023-01-23,1,,,,,バナナ,0
567,2180001154651,新規,0,2023-01-23,2023-01-23,株式会社スリーピース,,株式会社,愛知県,稲沢市,矢合町鈴置東２番地,,23,220,4928342,,,,,,,2023-01-23,1,,,,,スリーピース,0
568,2180301037036,新規,0,2023-01-23,2023-01-23,株式会社りすたーと,,株式会社,愛知県,豊川市,山道町２丁目６７番地の２,,23,207,4420873,,,,,,,2023-01-23,1,,,,,リスタート,0
569,2200001040881,新規,0,2023-01-23,2023-01-23,株式会社ＴＨＲＥＥ．,,株式会社,岐阜県,各務原市,鵜沼西町４丁目１４１番地３,,21,213,5090132,,,,,,,2023-01-23,1,,,,,スリー,0
572,2220003003439,新規,0,2023-01-23,2023-01-23,合同会社ネットマウス,,合同会社,石川県,金沢市,泉が丘２丁目５‐１３グランドサンピア１０２,,17,201,9218035,,,,,,,2023-01-23,1,,,,,,0
590,2290001100297,新規,0,2023-01-23,2023-01-23,株式会社総設,,株式会社,福岡県,糸島市,前原中央３丁目１９番２０－７０５号,,40,230,8191116,,,,,,,2023-01-23,1,,,,,ソウセツ,0
591,2290001100306,新規,0,2023-01-23,2023-01-23,Ｊ‐ＳＰＡＣＥ株式会社,,株式会社,福岡県,福津市,日蒔野１丁目１１番地の１３,,40,224,8113209,,,,,,,2023-01-23,1,,,,,ジェイスペース,0
597,2290005018924,新規,0,2023-01-23,2023-01-23,一般社団法人Ｌｉｎｋ　Ｕｐ,,その他の設立登記法人,福岡県,福岡市早良区,原１丁目１４番１４号,,40,137,8140022,,,,,,,2023-01-23,1,,,,,リンクアップ,0
598,2290801029232,新規,0,2023-01-23,2023-01-23,株式会社大任油脂,,株式会社,福岡県,田川郡大任町,大字今任原１７１番地,,40,608,8240511,,,,,,,2023-01-23,1,,,,,オオトウユシ,0
602,2320001019534,新規,0,2023-01-23,2023-01-23,株式会社ぶんごほけんサービス,,株式会社,大分県,大分市,末広町１丁目１番５号末光ビル２Ｆ,,44,201,8700027,,,,,,,2023-01-23,1,,,,,ブンゴホケンサービス,0
611,2350001018137,新規,0,2023-01-23,2023-01-23,株式会社ＯＴＳＵＧＥ,,株式会社,宮崎県,宮崎市,大字瓜生野６３７８番地２７,,45,201,8800044,,,,,,,2023-01-23,1,,,,,オツゲ,0
614,2350003004275,新規,0,2023-01-23,2023-01-23,合同会社ＧＹＰＳＯ,,合同会社,宮崎県,児湯郡都農町,大字川北３９０１番地７,,45,406,8891201,,,,,,,2023-01-23,1,,,,,ジプソ,0
618,2370001049527,新規,0,2023-01-23,2023-01-23,株式会社秀建,,株式会社,宮城県,仙台市若林区,今泉字小在家東９５番地,,04,103,9840835,,,,,,,2023-01-23,1,,,,,シュウケン,0
630,2400003003024,新規,0,2023-01-23,2023-01-23,合同会社ナナタク,,合同会社,岩手県,北上市,孫屋敷５番５号,,03,206,0240025,,,,,,,2023-01-23,1,,,,,ナナタク,0
633,2430003014679,新規,0,2023-01-23,2023-01-23,合同会社リズ・コンサル,,合同会社,北海道,北広島市,大曲並木２丁目３番地１サーム広島インター２０３号,,01,234,0611279,,,,,,,2023-01-23,1,,,,,リズコンサル,0
639,2700150113867,新規,0,2023-01-23,2023-01-23,Ｌｉｎｇ　Ｓｈｅｎｇ　ＰＴＥ．Ｌｔｄ．,,外国会社等,北海道,虻田郡倶知安町,ニセコひらふ一条３丁目２０４－４３－２２３,,01,400,0440080,１　Ｌａｄｙ　Ｈｉｌｌ　Ｒｏａｄ　＃０３－１０　Ｔｈｅ　Ｌａｄｙｈｉｌｌ　Ｓｉｎｇａｐｏｒｅ,,,,,,2023-01-23,1,,,,,リンシエンピーテイーイーリミテツド,0
640,2700150113883,新規,0,2023-01-23,2023-01-23,Ｓｈｅｎｚｈｅｎ　Ｊｉｍｕｙｉｄａ　Ｔｅｃｈｎｏｌｏｇｙ　Ｃｏ．，Ｌｔｄ,,外国会社等,,,,,,,,２１Ｆ　ＣＤ，Ｓｏｎｇｒｉ　Ｄｉｎｇｓｈｅｎｇ　Ｂｕｉｌｄｉｎｇ，Ｓｈｅｎｎａｎ　Ａｖｅｎｕｅ，Ｓｈｅｎｚｈｅｎ，Ｎａｎｓｈａｎ　Ｄｉｓｔｒｉｃｔ，Ｇｕａｎｇｄｏｎｇ　Ｐｒｏｖｉｎｃｅ，Ｃｈｉｎａ,,,,,,2023-01-23,1,,,,,シンセンジムイダテクノロジーカンパニーリミテッド,0
649,3010001232241,新規,0,2023-01-23,2023-01-23,株式会社ＡＦＴ,,株式会社,東京都,中央区,銀座８丁目１０番４号和孝銀座８丁目ビル１Ｆ,,13,102,1040061,,,,,,,2023-01-23,1,,,,,エーエフティー,0
650,3010001232415,新規,0,2023-01-23,2023-01-23,株式会社大菩薩,,株式会社,東京都,中央区,日本橋浜町２丁目５２番３号１Ｆ,,13,102,1030007,,,,,,,2023-01-23,1,,,,,ダイボサツ,0
664,3010501049904,新規,0,2023-01-23,2023-01-23,新安株式会社,,株式会社,東京都,台東区,上野６丁目７番１６号川久保ビル７０６号室,,13,106,1100005,,,,,,,2023-01-23,1,,,,,シンアン,0
669,3010601062451,新規,0,2023-01-23,2023-01-23,株式会社清将興業,,株式会社,東京都,墨田区,横川２丁目１２－２,,13,107,1300003,,,,,,,2023-01-23,1,,,,,キヨマサコウギョウ,0
679,3010705003467,新規,0,2023-01-23,2023-01-23,特定非営利活動法人Ｆｕｎ　Ｓｈｏｏｔｉｎｇ　Ｊａｐａｎ,,その他の設立登記法人,東京都,品川区,西五反田６丁目１７番１４号,,13,109,1410031,,,,,,,2023-01-23,1,,,,,ファンシューティングジャパン,0
694,3010901052375,新規,0,2023-01-23,2023-01-23,ＮＥＢ　ＩＮＴＥＲＮＡＴＩＯＮＡＬ株式会社,,株式会社,東京都,世田谷区,野沢１丁目２１－６,,13,112,1540003,,,,,,,2023-01-23,1,,,,,エヌイービーインターナショナル,0
695,3010901052383,新規,0,2023-01-23,2023-01-23,株式会社ｕｎｉｃｏｒｎ,,株式会社,東京都,世田谷区,北烏山１丁目４７番２４－１０４号,,13,112,1570061,,,,,,,2023-01-23,1,,,,,ユニコーン,0
699,3010903007914,新規,0,2023-01-23,2023-01-23,Ｌａ　Ｍａｉｓｏｎ　Ｃｏｎｃｉｅｒｇｅ合同会社,,合同会社,東京都,世田谷区,等々力４丁目１６番２４号ガーデンハウス２０８,,13,112,1580082,,,,,,,2023-01-23,1,,,,,ラメゾンコンシェルジュ,0
703,3011001152090,新規,0,2023-01-23,2023-01-23,はこぶね株式会社,,株式会社,東京都,目黒区,上目黒１丁目２６番１号,,13,110,1530051,,,,,,,2023-01-23,1,,,,,ハコブネ,0
704,3011003016112,新規,0,2023-01-23,2023-01-23,合同会社グローバルワークス,,合同会社,東京都,目黒区,祐天寺２丁目８番５－３０８号ルミエール祐天寺,,13,110,1530052,,,,,,,2023-01-23,1,,,,,グローバルワークス,0
705,3011005009915,新規,0,2023-01-23,2023-01-23,一般社団法人ｗｏｒｋ　ｗｉｔｈ　Ｐｒｉｄｅ,,その他の設立登記法人,東京都,渋谷区,神宮前２丁目３３番１８号,,13,113,1500001,,,,,,,2023-01-23,1,,,,,ワークウィズプライド,0
711,3011101101575,新規,0,2023-01-23,2023-01-23,株式会社ＡＢＳＯＬＩＵＭ,,株式会社,東京都,新宿区,新宿５丁目１８番２０号ルックハイツ新宿８０３号,,13,104,1600022,,,,,,,2023-01-23,1,,,,,アブソリューム,0
712,3011101101591,新規,0,2023-01-23,2023-01-23,株式会社Ｃｒｅａｔｉｖｅ　Ｆｒｅａｋｓ　ＴＯＫＹＯ,,株式会社,東京都,新宿区,西新宿７丁目５番５号Ｐｌａｚａ西新宿,,13,104,1600023,,,,,,,2023-01-23,1,,,,,クリエイティブフリークストウキョウ,0
735,3011801041823,新規,0,2023-01-23,2023-01-23,物件時代株式会社,,株式会社,東京都,足立区,綾瀬２丁目４０番１号１階,,13,121,1200005,,,,,,,2023-01-23,1,,,,,ブッケンジダイ,0
747,3012403005786,新規,0,2023-01-23,2023-01-23,合同会社Ａｎｅｓｔｈ　Ｂａｍｂｏｏ,,合同会社,東京都,小金井市,貫井南町５丁目２０番１３号,,13,210,1840014,,,,,,,2023-01-23,1,,,,,アネスバンブー,0
757,3013301050222,新規,0,2023-01-23,2023-01-23,Ｓｈｕｎ株式会社,,株式会社,東京都,豊島区,池袋本町１丁目７番１２－３０４号,,13,116,1700011,,,,,,,2023-01-23,1,,,,,シュン,0
768,3020001149922,新規,0,2023-01-23,2023-01-23,株式会社Ｍｙ　Ｗｅｌｌｎｅｓｓ,,株式会社,神奈川県,横浜市西区,北幸１丁目１１番５号相鉄ＫＳビル９Ｆ,,14,103,2200004,,,,,,,2023-01-23,1,,,,,マイウェルネス,0
769,3020001149930,新規,0,2023-01-23,2023-01-23,株式会社ＣＨＡＮＤＮＩ,,株式会社,神奈川県,横浜市港北区,高田西５丁目３３番２０号,,14,109,2230066,,,,,,,2023-01-23,1,,,,,チャンドニ,0
770,3020001149955,新規,0,2023-01-23,2023-01-23,株式会社西澤建築,,株式会社,神奈川県,横浜市瀬谷区,下瀬谷３丁目４３番地１０,,14,114,2460035,,,,,,,2023-01-23,1,,,,,ニシザワケンチク,0
777,3020003023150,新規,0,2023-01-23,2023-01-23,合同会社ＲＴＪ,,合同会社,神奈川県,横浜市磯子区,東町１５番３２号モンビル横浜根岸４０６－３号室,,14,107,2350005,,,,,,,2023-01-23,1,,,,,アールティジェイ,0
781,3021001077989,新規,0,2023-01-23,2023-01-23,株式会社ＮＡＯプランニング,,株式会社,神奈川県,藤沢市,城南１丁目８番２５号,,14,205,2510057,,,,,,,2023-01-23,1,,,,,ナオプランニング,0
782,3021001078013,新規,0,2023-01-23,2023-01-23,株式会社中村工務店,,株式会社,神奈川県,厚木市,下川入３４６番地５,,14,212,2430206,,,,,,,2023-01-23,1,,,,,ナカムラコウムテン,0
783,3021001078021,新規,0,2023-01-23,2023-01-23,株式会社ＦＵＫＵＲＯＵ,,株式会社,神奈川県,鎌倉市,坂ノ下３２番２２号,,14,204,2480021,,,,,,,2023-01-23,1,,,,,フクロウ,0
788,3030003020980,新規,0,2023-01-23,2023-01-23,ＭＩＲＡＩ　ＩＮＴＥＲＮＡＴＩＯＮＡＬ合同会社,,合同会社,埼玉県,蕨市,塚越６丁目２２番１７号さつき荘２０５,,11,223,3350002,,,,,,,2023-01-23,1,,,,,ミライインターナショナル,0
789,3030003021005,新規,0,2023-01-23,2023-01-23,ｓｏｎｉｙａ合同会社,,合同会社,埼玉県,坂戸市,八幡１丁目３－２２アルフアーウイングス４０２,,11,239,3500223,,,,,,,2023-01-23,1,,,,,ソニヤ,0
795,3040001126738,新規,0,2023-01-23,2023-01-23,御縁屋株式会社,,株式会社,千葉県,千葉市中央区,登戸１丁目２３番１６号,,12,101,2600032,,,,,,,2023-01-23,1,,,,,ゴエンヤ,0
796,3040001126754,新規,0,2023-01-23,2023-01-23,株式会社キートス,,株式会社,千葉県,市原市,大厩１２４１－３１,00129179,12,219,2900002,,,,,,,2023-01-23,1,,,,,キートス,0
802,3040003021623,新規,0,2023-01-23,2023-01-23,合同会社Ｔ‐ＴＩＭＥ,,合同会社,千葉県,鎌ケ谷市,鎌ケ谷１丁目１１番２４－２１０号,,12,224,2730105,,,,,,,2023-01-23,1,,,,,ティータイム,0
820,3060003004386,新規,0,2023-01-23,2023-01-23,合同会社ファイブリッチ,,合同会社,栃木県,那須郡那須町,大字伊王野１６０９,,09,407,3293436,,,,,,,2023-01-23,1,,,,,ファイブリッチ,0
825,3090003002230,新規,0,2023-01-23,2023-01-23,合同会社ｃａｆｎｅ,,合同会社,山梨県,南アルプス市,六科１５８６番地２,,19,208,4000206,,,,,,,2023-01-23,1,,,,,カフネ,0
826,3100001036055,新規,0,2023-01-23,2023-01-23,テトラモジュール株式会社,,株式会社,長野県,安曇野市,穂高有明２１０５番地２４５,,20,220,3998301,,,,,,,2023-01-23,1,,,,,テトラモジュール,0
828,3110003004967,新規,0,2023-01-23,2023-01-23,合同会社シーピーエス,,合同会社,新潟県,新潟市西区,新中浜６丁目２番地７,,15,107,9502163,,,,,,,2023-01-23,1,,,,,シーピーエス,0
846,3120001251809,新規,0,2023-01-23,2023-01-23,大川株式会社,,株式会社,大阪府,大阪市浪速区,恵美須西２丁目１４番３０－５０３,,27,111,5560003,,,,,,,2023-01-23,1,,,,,オオカワ,0
847,3120001251890,新規,0,2023-01-23,2023-01-23,株式会社オンド,,株式会社,大阪府,大阪市北区,芝田２丁目８番１１号共栄ビル３階,,27,127,5300012,,,,,,,2023-01-23,1,,,,,オンド,0
848,3120001251899,新規,0,2023-01-23,2023-01-23,Ｌｉｔｓ株式会社,,株式会社,大阪府,大阪市中央区,千日前１丁目４番１０号相合橋ビルＢ号２階,,27,128,5420074,,,,,,,2023-01-23,1,,,,,リッツ,0
849,3120001251908,新規,0,2023-01-23,2023-01-23,株式会社ＰＥＡＮＵＴｓ,,株式会社,大阪府,大阪市北区,豊崎３丁目１６番１６号ブランズタワー梅田ノース５０９号室,,27,127,5310072,,,,,,,2023-01-23,1,,,,,ピーナッツ,0
850,3120001251924,新規,0,2023-01-23,2023-01-23,恒光商事株式会社,,株式会社,大阪府,大阪市西区,九条南２丁目１６番１３号,,27,106,5500025,,,,,,,2023-01-23,1,,,,,ツネミツショウジ,0
851,3120001251932,新規,0,2023-01-23,2023-01-23,株式会社ＥＭＴ　ＧＲＯＵＰ,,株式会社,大阪府,大阪市中央区,安土町１丁目４番１１号,,27,128,5410052,,,,,,,2023-01-23,1,,,,,イーエムティーグループ,0
852,3120003023297,新規,0,2023-01-23,2023-01-23,合同会社ｅｔｃ．,,合同会社,大阪府,大阪市中央区,安堂寺町２丁目６番１４号ＯｓａｋａＭｅｔｒｏ松屋町ビル７階８Ｆ－１３,,27,128,5420061,,,,,,,2023-01-23,1,,,,,イーティーシー,0
855,3120005023411,新規,0,2023-01-23,2023-01-23,一般社団法人ＫＵＲＡ,,その他の設立登記法人,大阪府,大阪市浪速区,立葉２丁目６－１２－１Ｆ,,27,111,5560020,,,,,,,2023-01-23,1,,,,,クラ,0
857,3120101066867,新規,0,2023-01-23,2023-01-23,株式会社零コーポレーション,,株式会社,大阪府,藤井寺市,道明寺５丁目３番４０号,,27,226,5830012,,,,,,,2023-01-23,1,,,,,ゼロコーポレーション,0
859,3120105009665,新規,0,2023-01-23,2023-01-23,特定非営利活動法人日本語教育支援協会,,その他の設立登記法人,大阪府,堺市西区,津久野町１丁１３番１－１０６号,,27,144,5938322,,,,,,,2023-01-23,1,,,,,ニホンゴキョウイクシエンキョウカイ,0
861,3120905006408,新規,0,2023-01-23,2023-01-23,医療法人明実会,,その他の設立登記法人,大阪府,吹田市,新芦屋上２２番１号,,27,205,5650804,,,,,,,2023-01-23,1,,,,,メイジツカイ,0
864,3130001073533,新規,0,2023-01-23,2023-01-23,株式会社ハーモニーランド,,株式会社,京都府,京都市上京区,福島町３８０番地岡野マンション１階,,26,102,6028166,,,,,,,2023-01-23,1,,,,,ハーモニーランド,0
865,3130003008454,新規,0,2023-01-23,2023-01-23,合同会社チェリッシュ,,合同会社,京都府,京都市西京区,嵐山東海道町２番地２,,26,111,6160012,,,,,,,2023-01-23,1,,,,,チェリッシュ,0
873,3140001128831,新規,0,2023-01-23,2023-01-23,ツルタ不動産株式会社,,株式会社,兵庫県,神戸市兵庫区,兵庫町２丁目３番２１号３階Ｂ,,28,105,6520813,,,,,,,2023-01-23,1,,,,,ツルタフドウサン,0
878,3140003018618,新規,0,2023-01-23,2023-01-23,合同会社Ｐｅａｒｌ　Ｃｏｎｎｅｃｔｉｏｎ,,合同会社,兵庫県,芦屋市,茶屋之町８番２１－４０５号,,28,206,6590067,,,,,,,2023-01-23,1,,,,,パールコネクション,0
886,3180001154642,新規,0,2023-01-23,2023-01-23,株式会社Ｎ,,株式会社,愛知県,名古屋市守山区,小幡千代田２３番２０号,,23,113,4630053,,,,,,,2023-01-23,1,,,,,エヌ,0
887,3180001154650,新規,0,2023-01-23,2023-01-23,株式会社ＴＤＨ,,株式会社,愛知県,名古屋市中区,新栄２丁目１番９号,,23,106,4600007,,,,,,,2023-01-23,1,,,,,ティーディーエイチ,0
892,3180003024744,新規,0,2023-01-23,2023-01-23,合同会社ＨＡＶＮ,,合同会社,愛知県,名古屋市緑区,鳴海町字山ノ神５１番地の８,,23,114,4580801,,,,,,,2023-01-23,1,,,,,ハウン,0
903,3240001060990,新規,0,2023-01-23,2023-01-23,株式会社フリーゲート,,株式会社,広島県,広島市安芸区,瀬野西５丁目２０番６号,,34,107,7390313,,,,,,,2023-01-23,1,,,,,フリーゲート,0
907,3250005008795,新規,0,2023-01-23,2023-01-23,御庄村農業会,,その他の設立登記法人,山口県,岩国市,大字御庄１３７２番地,,35,208,7410083,,,,,,,2023-01-23,1,,,,,,0
908,3260001037599,新規,0,2023-01-23,2023-01-23,株式会社アールアイエム,,株式会社,岡山県,岡山市北区,尾上８６８番地２,,33,101,7011212,,,,,,,2023-01-23,1,,,,,アールアイエム,0
911,3290001100305,新規,0,2023-01-23,2023-01-23,株式会社Ｆａｎｔａｒｔ,,株式会社,福岡県,古賀市,日吉２丁目１６番１号ＲＨビル４Ｆ,,40,223,8113106,,,,,,,2023-01-23,1,,,,,ファンタート,0
912,3290001100313,新規,0,2023-01-23,2023-01-23,株式会社日本訪問看護センター,,株式会社,福岡県,福岡市南区,野間３丁目１８番３４号メゾンクラッセ南高宮１０１号,,40,134,8150041,,,,,,,2023-01-23,1,,,,,ニホンホウモンカンゴセンター,0
915,3290005018923,新規,0,2023-01-23,2023-01-23,ＮＰＯ法人ｆａｍｉｌｌｅ,,その他の設立登記法人,福岡県,久留米市,南１丁目１５番１０号,,40,203,8300051,,,,,,,2023-01-23,1,,,,,ファミーユ,0
917,3320001019533,新規,0,2023-01-23,2023-01-23,株式会社ティーエムベース,,株式会社,大分県,杵築市,大字南杵築２６００番地１,,44,210,8730002,,,,,,,2023-01-23,1,,,,,ティーエムベース,0
918,3330001030522,新規,0,2023-01-23,2023-01-23,うのこ滝に暮らす株式会社,,株式会社,熊本県,上益城郡山都町,田所字後口１２２１－２,,43,447,8613785,,,,,,,2023-01-23,1,,,,,ウノコダキニクラス,0
923,3350003004274,新規,0,2023-01-23,2023-01-23,合同会社絆,,合同会社,宮崎県,延岡市,伊形町５０３０番地５,,45,203,8890503,,,,,,,2023-01-23,1,,,,,キズナ,0
926,3370001049526,新規,0,2023-01-23,2023-01-23,株式会社大丸工業,,株式会社,宮城県,宮城郡利府町,神谷沢字広畑６番地８７,,04,406,9810121,,,,,,,2023-01-23,1,,,,,ダイマルコウギョウ,0
931,3370003005956,新規,0,2023-01-23,2023-01-23,スターソレイユ合同会社,,合同会社,宮城県,多賀城市,八幡３丁目２－２８レジデンス３３１、１０６号,,04,209,9850874,,,,,,,2023-01-23,1,,,,,スターソレイユ,0
951,3700150113866,新規,0,2023-01-23,2023-01-23,Ｇｒｏｖｅｒ　Ｉｎｔｅｒｎａｔｉｏｎａｌ　ＰＴＹ　ＬＴＤ,,外国会社等,,,,,,,,１　Ｎｅｍｅｓｉａ　Ｃｉｒｃｕｉｔ，Ｋａｌｋｉｔｅ　ＮＳＷ　Ａｕｓｔｒａｌｉａ,,,,,,2023-01-23,1,,,,,グローバーインターナシヨナルピーテイーワイリミテツド,0
952,3700150113874,新規,0,2023-01-23,2023-01-23,Ｍｉｒａｍｏｎｔｅ　Ｒｅａｌ　Ｅｓｔａｔｅ　Ｃｏｒｐｏｒａｔｉｏｎ　Ｌｉｍｉｔｅｄ,,外国会社等,北海道,虻田郡倶知安町,ニセコひらふ一条４丁目３－１７－５０６,,01,400,0440080,ＶｉｓｔｒａＣｏｒｐｅｒａｔｅＳｅｒｖｉｃｅｓＣｅｎｔｒｅＭａｒｌｂｏｒｏｕｇｈ＆ＱｕｅｅｎＳｔｒｅｅｔｓＮａｓｓａｕＮｅｗＰｒｏｖｉｄｅｎｃｅＢａｈａｍａｓ,,,,,,2023-01-23,1,,,,,ミラモンテリアルエステートコーポレーシヨンリミテツド,0
953,3700150113882,新規,0,2023-01-23,2023-01-23,ｓｈｅｎｚｈｅｎｓｈｉ　ｄｏｎｇｈｕｉｙｏｕｙｉ　ｗａｎｇｌｕｏｋｅｊｉ　ｙｏｕｘｉａｎｇｏｎｇｓｉ,,外国会社等,,,,,,,,Ｎｒ．５５－１，Ｄｏｒｆ　Ｓｈａｎｇｙｏｕｓｏｎｇ，Ｇｅｍｅｉｎｄｅ　Ｙｏｕｓｏｎｇ，Ｌｏｎｇｈｕａ　Ｓｔｒｅｅｔ　Ｂｅｚｉｒｋ　Ｌｏｎｇｈｕａ，Ｓｔａｄｔ　Ｓｈｅｎｚｈｅｎ，Ｐｒｏｖｉｎｚ　Ｇｕａｎｇｄｏｎｇ　Ｃｈｉｎａ,,,,,,2023-01-23,1,,,,,シンセンシトンボフェイヨウイワングルオケジユウゲンコウシ,0
960,4010001232372,新規,0,2023-01-23,2023-01-23,株式会社トライゴン,,株式会社,東京都,千代田区,平河町１丁目１番８号,,13,101,1020093,,,,,,,2023-01-23,1,,,,,トライゴン,0
961,4010001232406,新規,0,2023-01-23,2023-01-23,バリュークリエイト株式会社,,株式会社,東京都,千代田区,丸の内２丁目３－２郵船ビルディング１階,,13,101,1000005,,,,,,,2023-01-23,1,,,,,バリュークリエイト,0
966,4010003039601,新規,0,2023-01-23,2023-01-23,合同会社ＲＥロク,,合同会社,東京都,千代田区,神田錦町３丁目２０番地アイゼンビル５階,,13,101,1010054,,,,,,,2023-01-23,1,,,,,リロク,0
967,4010003039618,新規,0,2023-01-23,2023-01-23,合同会社東洋トレーディング,,合同会社,東京都,中央区,日本橋馬喰町２丁目４番６号アネックス日本橋ビル５階,,13,102,1030002,,,,,,,2023-01-23,1,,,,,トウヨウトレーディング,0
968,4010003039642,新規,0,2023-01-23,2023-01-23,合同会社ＢＵＴＡＮＣＨＩ,,合同会社,東京都,中央区,銀座１丁目１２番４号Ｎ＆ＥＢＬＤ．６Ｆ,,13,102,1040061,,,,,,,2023-01-23,1,,,,,ブタンチ,0
982,4010401172004,新規,0,2023-01-23,2023-01-23,株式会社ｐｌａｔｒａ,,株式会社,東京都,港区,赤坂３丁目８番１７号ＰＡＮＪＡＰＡＮＢＬＤＧ５Ｆ,,13,103,1070052,,,,,,,2023-01-23,1,,,,,プラトラ,0
983,4010403029350,新規,0,2023-01-23,2023-01-23,Ａｔｏｓ　Ｈｏｌｄｉｎｇ　Ｊａｐａｎ１合同会社,,合同会社,東京都,港区,虎ノ門１丁目２番２０号第３虎の門電気ビルディング６階,,13,103,1050001,,,,,,,2023-01-23,1,,,,,アトスホールディングジャパンワン,0
988,4010501049903,新規,0,2023-01-23,2023-01-23,株式会社栄和,,株式会社,東京都,台東区,台東４丁目２９番１３－４０１号,,13,106,1100016,,,,,,,2023-01-23,1,,,,,エイワ,0
990,4010601062459,新規,0,2023-01-23,2023-01-23,ＬＩＣ株式会社,,株式会社,東京都,江東区,亀戸７丁目５３番２号出店鉄鋼第２倉庫２Ｆ,,13,108,1360071,,,,,,,2023-01-23,1,,,,,エルアイシー,0
991,4010601062467,新規,0,2023-01-23,2023-01-23,古道株式会社,,株式会社,東京都,墨田区,両国２丁目１７番１７号両国ダイヤハイツ２０２－Ｕ,,13,107,1300026,,,,,,,2023-01-23,1,,,,,コドウ,0
997,4010703006553,新規,0,2023-01-23,2023-01-23,三晃化成ホールディングス合同会社,,合同会社,東京都,品川区,上大崎３丁目１番１号目黒セントラルスクエア１５階,,13,109,1410021,,,,,,,2023-01-23,1,,,,,サンコウカセイホールディングス,0
1001,4010801033615,新規,0,2023-01-23,2023-01-23,株式会社ワイズクリーン,,株式会社,東京都,大田区,蒲田２丁目５番３号,,13,111,1440052,,,,,,,2023-01-23,1,,,,,ワイズクリーン,0
1009,4010903007921,新規,0,2023-01-23,2023-01-23,ワンズ合同会社,,合同会社,東京都,世田谷区,下馬５丁目２１－２,,13,112,1540002,,,,,,,2023-01-23,1,,,,,ワンズ,0
1015,4011001151991,新規,0,2023-01-23,2023-01-23,株式会社Ｂ．Ｂ,,株式会社,東京都,渋谷区,笹塚１丁目４４番６－２０４号,,13,113,1510073,,,,,,,2023-01-23,1,,,,,ビービー,0
1016,4011001152008,新規,0,2023-01-23,2023-01-23,株式会社ニコタマスクエア,,株式会社,東京都,渋谷区,広尾５丁目１４番２号,,13,113,1500012,,,,,,,2023-01-23,1,,,,,ニコタマスクエア,0
1017,4011001152049,新規,0,2023-01-23,2023-01-23,カキモン株式会社,,株式会社,東京都,目黒区,柿の木坂３丁目５番１９号シャルム柿の木坂２０３,,13,110,1520022,,,,,,,2023-01-23,1,,,,,カキモン,0
1019,4011003016111,新規,0,2023-01-23,2023-01-23,合同会社ｔ＆ｔ,,合同会社,東京都,渋谷区,代々木５丁目４５番１２号,,13,113,1510053,,,,,,,2023-01-23,1,,,,,ティーアンドティー,0
1022,4011103012621,新規,0,2023-01-23,2023-01-23,合同会社ぷにぷに,,合同会社,東京都,新宿区,西新宿３丁目３番１３号西新宿水間ビル２Ｆ,,13,104,1600023,,,,,,,2023-01-23,1,,,,,プニプニ,0
1025,4011203003990,新規,0,2023-01-23,2023-01-23,合同会社モントレー,,合同会社,東京都,中野区,上高田４丁目３５－１３,,13,114,1640002,,,,,,,2023-01-23,1,,,,,モントレー,0
1052,4011801041830,新規,0,2023-01-23,2023-01-23,きんぼし株式会社,,株式会社,東京都,足立区,西新井１丁目９番１３号,,13,121,1230841,,,,,,,2023-01-23,1,,,,,キンボシ,0
1059,4012401040108,新規,0,2023-01-23,2023-01-23,株式会社アイザック,,株式会社,東京都,武蔵野市,吉祥寺本町３丁目８番１７号,,13,203,1800004,,,,,,,2023-01-23,1,,,,,アイザック,0
1060,4012705002340,新規,0,2023-01-23,2023-01-23,一般社団法人日本死の臨床研究会,,その他の設立登記法人,東京都,小平市,御幸町１３１番地の５,,13,211,1870012,,,,,,,2023-01-23,1,,,,,ニホンシノリンショウケンキュウカイ,0
1062,4013301050221,新規,0,2023-01-23,2023-01-23,株式会社ＯＮＥ　ＳＴＯＮＥ,,株式会社,東京都,豊島区,長崎６丁目１０番１０号,,13,116,1710051,,,,,,,2023-01-23,1,,,,,ワンストーン,0
1072,4020001149905,新規,0,2023-01-23,2023-01-23,株式会社木本商事,,株式会社,神奈川県,横浜市神奈川区,白幡向町２５－１,,14,102,2210077,,,,,,,2023-01-23,1,,,,,キモトショウジ,0
1073,4020001149938,新規,0,2023-01-23,2023-01-23,株式会社リーベル,,株式会社,神奈川県,川崎市多摩区,南生田５丁目８番１１号マイシャトル南生田１０２,,14,135,2140036,,,,,,,2023-01-23,1,,,,,リーベル,0
1076,4020003023158,新規,0,2023-01-23,2023-01-23,ａｏｐｓ合同会社,,合同会社,神奈川県,川崎市宮前区,小台１丁目６－２－５０４,,14,136,2160007,,,,,,,2023-01-23,1,,,,,エーオプス,0
1077,4020005015822,新規,0,2023-01-23,2023-01-23,一般社団法人こども未来ジャパン,,その他の設立登記法人,神奈川県,川崎市幸区,南幸町１丁目２５番地２,,14,132,2120016,,,,,,,2023-01-23,1,,,,,コドモミライジャパン,0
1079,4021001078012,新規,0,2023-01-23,2023-01-23,株式会社エフケー,,株式会社,神奈川県,藤沢市,鵠沼海岸６丁目１４番２６号ルミエール鵠沼２０３,,14,205,2510037,,,,,,,2023-01-23,1,,,,,エフケー,0
1081,4021003012638,新規,0,2023-01-23,2023-01-23,合同会社ベロスベルテ,,合同会社,神奈川県,海老名市,東柏ケ谷２丁目２８番２－１０２号,,14,215,2430401,,,,,,,2023-01-23,1,,,,,ベロスベルテ,0
1087,4030001152008,新規,0,2023-01-23,2023-01-23,Ｍ‐ｔｏｋｙｏ株式会社,,株式会社,埼玉県,本庄市,見福５丁目９番１号,,11,211,3670044,,,,,,,2023-01-23,1,,,,,エムトウキョウ,0
1089,4030003021012,新規,0,2023-01-23,2023-01-23,合同会社マハロフードサービス,,合同会社,埼玉県,さいたま市大宮区,天沼町２丁目７５９番地さいたまメディカルタウン２階,,11,103,3300834,,,,,,,2023-01-23,1,,,,,マハロフードサービス,0
1094,4040001126745,新規,0,2023-01-23,2023-01-23,株式会社なかむら屋,,株式会社,千葉県,習志野市,東習志野６丁目１３番２７,,12,216,2750001,,,,,,,2023-01-23,1,,,,,ナカムラヤ,0
1103,4040003021754,新規,0,2023-01-23,2023-01-23,合同会社ガーネットパーズ,,合同会社,千葉県,柏市,中央２丁目３番２８号コンフォルト柏３０１,,12,217,2770023,,,,,,,2023-01-23,1,,,,,ガーネットパーズ,0
1128,4060001035639,新規,0,2023-01-23,2023-01-23,株式会社ｎａｂｅｅ,,株式会社,栃木県,那須塩原市,共墾社８３番地８,,09,213,3250027,,,,,,,2023-01-23,1,,,,,ナビー,0
1129,4060003004385,新規,0,2023-01-23,2023-01-23,合同会社アルデバラン,,合同会社,栃木県,足利市,丸山町６８８番地７ブリーゼ足利４０１,,09,202,3260057,,,,,,,2023-01-23,1,,,,,アルデバラン,0
1131,4080101023756,新規,0,2023-01-23,2023-01-23,株式会社フジサミット,,株式会社,静岡県,富士宮市,ひばりが丘３－１グランディールひばりが丘,,22,207,4180003,,,,,,,2023-01-23,1,,,,,フジサミット,0
1133,4100001036079,新規,0,2023-01-23,2023-01-23,株式会社ＹＫＦ,,株式会社,長野県,下高井郡山ノ内町,大字戸狩９３８番地,,20,561,3810404,,,,,,,2023-01-23,1,,,,,ワイケイエフ,0
1147,4120001251840,新規,0,2023-01-23,2023-01-23,金野株式会社,,株式会社,大阪府,大阪市西成区,長橋２丁目６番１６号１Ｆ,,27,122,5570025,,,,,,,2023-01-23,1,,,,,キンノ,0
1154,4120101066874,新規,0,2023-01-23,2023-01-23,株式会社甲斐建築工房,,株式会社,大阪府,岸和田市,別所町２丁目１２番１７号,,27,202,5960045,,,,,,,2023-01-23,1,,,,,カイケンチクコウボウ,0
1160,4122001036610,新規,0,2023-01-23,2023-01-23,株式会社Ｙ‐ｕｎｉｔｙ,,株式会社,大阪府,東大阪市,善根寺町１丁目１番５１号,,27,227,5798001,,,,,,,2023-01-23,1,,,,,ユーユニティ,0
1162,4130001073540,新規,0,2023-01-23,2023-01-23,株式会社Ｋｉｎｇｓ,,株式会社,京都府,八幡市,八幡武蔵芝１０－２０ＧＨ－Ｓｔｙｌｅ武蔵１号,,26,210,6148052,,,,,,,2023-01-23,1,,,,,キングス,0
1164,4130003008429,新規,0,2023-01-23,2023-01-23,合同会社オフィスばけねこ,,合同会社,京都府,京丹後市,峰山町荒山２２１３,,26,212,6270004,,,,,,,2023-01-23,1,,,,,オフィスバケネコ,0
1171,4140001128814,新規,0,2023-01-23,2023-01-23,株式会社椋成,,株式会社,兵庫県,三木市,志染町広野３丁目７２番地,,28,215,6730541,,,,,,,2023-01-23,1,,,,,リョウセイ,0
1172,4140001128839,新規,0,2023-01-23,2023-01-23,ＣＣＣ株式会社,,株式会社,兵庫県,明石市,二見町福里６３２－５,,28,203,6740091,,,,,,,2023-01-23,1,,,,,シーシーシー,0
1173,4140003018625,新規,0,2023-01-23,2023-01-23,合同会社ＧＥＭＩＮＩ,,合同会社,兵庫県,神戸市中央区,生田町２丁目１番６号ハイツ生田２０１号,,28,110,6510092,,,,,,,2023-01-23,1,,,,,ゲミニ,0
1174,4140003018633,新規,0,2023-01-23,2023-01-23,ケアプランＮ＆Ｒ合同会社,,合同会社,兵庫県,神戸市須磨区,東落合３丁目８－２１,,28,107,6540152,,,,,,,2023-01-23,1,,,,,ケアプランエヌアンドアール,0
1182,4180001154633,新規,0,2023-01-23,2023-01-23,株式会社Ｏｎｅ　Ｋ,,株式会社,愛知県,知多郡東浦町,大字生路字弁財２５番地,,23,442,4702104,,,,,,,2023-01-23,1,,,,,ワンケー,0
1183,4180301037034,新規,0,2023-01-23,2023-01-23,株式会社シーケーダ,,株式会社,愛知県,岡崎市,本町通３丁目４７番地,,23,202,4440051,,,,,,,2023-01-23,1,,,,,シーケーダ,0
1188,4210001019213,新規,0,2023-01-23,2023-01-23,株式会社ＳＯＫＫＡ,,株式会社,福井県,越前市,京町１丁目１番９号,,18,209,9150813,,,,,,,2023-01-23,1,,,,,ソッカ,0
1207,4250003003211,新規,0,2023-01-23,2023-01-23,合同会社Ｓａｋｕｒａ,,合同会社,山口県,山口市,大内矢田南４丁目１１番３号,,35,203,7530222,,,,,,,2023-01-23,1,,,,,サクラ,0
1215,4290001100295,新規,0,2023-01-23,2023-01-23,株式会社竹藤工業,,株式会社,福岡県,福岡市南区,曰佐２丁目２２番５－２０１号ＭＬビル,,40,134,8111313,,,,,,,2023-01-23,1,,,,,タケフジコウギョウ,0
1220,4290003013446,新規,0,2023-01-23,2023-01-23,ＪＢ合同会社,,合同会社,福岡県,福岡市中央区,今泉１丁目１８番１３－９０８号,,40,133,8100021,,,,,,,2023-01-23,1,,,,,ジェイビー,0
1222,4290005018922,新規,0,2023-01-23,2023-01-23,医療法人令翔会,,その他の設立登記法人,福岡県,福岡市早良区,室見２丁目１５番２７号,,40,137,8140015,,,,,,,2023-01-23,1,,,,,レイショウカイ,0
1228,4300001013198,新規,0,2023-01-23,2023-01-23,株式会社繋心物流,,株式会社,佐賀県,神埼市,神埼町田道ヶ里２１２３番地１,,41,210,8420002,,,,,,,2023-01-23,1,,,,,ケイシンブツリュウ,0
1233,4330001030513,新規,0,2023-01-23,2023-01-23,株式会社Ｙ．Ｆ．Ｊ．ｓｅｒｖｉｃｅ,,株式会社,熊本県,熊本市中央区,水前寺公園７番４３号３Ｆ,,43,101,8620956,,,,,,,2023-01-23,1,,,,,ワイエフジェイサービス,0
1234,4330001030521,新規,0,2023-01-23,2023-01-23,Ｒｅｖｅ　ｆｏｒｃｅ株式会社,,株式会社,熊本県,熊本市西区,上熊本２丁目１０番１４号ステーションコート上熊本２０１,,43,103,8600079,,,,,,,2023-01-23,1,,,,,レーヴフォルス,0
1241,4330003009679,新規,0,2023-01-23,2023-01-23,合同会社Ｎａｏｓｕｓ,,合同会社,熊本県,八代市,福正元町１０番１２号,,43,202,8660822,,,,,,,2023-01-23,1,,,,,ナオサス,0
1244,4340003004027,新規,0,2023-01-23,2023-01-23,オゾン環境管理合同会社,,合同会社,鹿児島県,肝属郡南大隅町,根占川北６２８０番地,,46,491,8932501,,,,,,,2023-01-23,1,,,,,オゾンカンキョウカンリ,0
1248,4410003003748,新規,0,2023-01-23,2023-01-23,合同会社ＫＨ　Ｐｒｅｓｅｎｔｓ,,合同会社,秋田県,由利本荘市,川口字家ノ後３５２番地,,05,210,0150051,,,,,,,2023-01-23,1,,,,,ケイエイチプレゼンツ,0
1251,4430001088269,新規,0,2023-01-23,2023-01-23,株式会社スキエンティア,,株式会社,北海道,札幌市北区,新琴似一条１丁目５番１９号,,01,102,0010901,,,,,,,2023-01-23,1,,,,,スキエンティア,0
1258,4700150113865,新規,0,2023-01-23,2023-01-23,ＦＲＥＥＢＩＲＤ　ＴＲＡＤＩＮＧ　ＣＯ．，ＬＩＭＩＴＥＤ,,外国会社等,,,,,,,,Ｒｏｏｍ　６３，７／Ｆ，Ｗｏｏｎ　Ｌｅｅ　Ｃｏｍｍｅｒｃｉａｌ　Ｂｕｉｌｄｉｎｇ　７－９　Ａｕｓｔｉｎ　Ａｖｅ，Ｔｓｉｍ　Ｓｈａ　Ｔｓｕｉ，Ｋｏｗｌｏｏｎ，９９９０００，ＨｏｎｇＫｏｎｇ，Ｃｈｉｎａ,,,,,,2023-01-23,1,,,,,フリーバードトレーデイングカンパニーリミテツド,0
1259,4700150113873,新規,0,2023-01-23,2023-01-23,Ｙａｎｇｔｚｅ　Ｌｏｇｉｓｔｉｃｓ　Ｌｉｍｉｔｅｄ,,外国会社等,北海道,虻田郡留寿都村,字泉川２７番６の１００１,,01,397,0481711,ＶｉｓｔｒａＣｏｒｐｏｒａｔｅＳｅｒｖｉｃｅｓＣｅｎｔｒｅＷｉｃｋｈａｍｓＣａｙＩＩＲｏａｄＴｏｗｎＴｏｒｔｏｌａＶＧ１１１０ＢｒｉｔｉｓｈＶｉｒｇｉｎＩｓｌａｎｄｓ,00129160,,,,,2023-01-23,1,,,,,ヤンゼロジステイクスリミテツド,0
1260,4700150113881,新規,0,2023-01-23,2023-01-23,Ｓｈｅｎｚｈｅｎ　Ｏｕ　Ｘｉｎ　Ｌａｉ　Ｔｅｃｈｎｏｌｏｇｙ　Ｃｏ．，Ｌｉｍｉｔｅｄ,,外国会社等,,,,,,,,Ｒｏｏｍ　０５，２５／Ｆ，Ｓｈａｎｇｍｅｉ　Ｃｅｎｔｒｅ　Ｂｕｉｌｄｉｎｇ，Ｑｉｎｇｈｕ　Ｒｏａｄ，Ｑｉｎｇｈｕａ　Ｃｏｍｍｕｎｉｔｙ，Ｌｏｎｇｈｕａ　Ｓｔｒｅｅｔ，Ｌｏｎｇｈｕａ　Ｄｉｓｔｒｉｃｔ，Ｓｈｅｎｚｈｅｎ，Ｇｕａｎｇｄｏｎｇ，Ｃｈｉｎａ,,,,,,2023-01-23,1,,,,,シンセンオウキンライテクノロジーカンパニーリミテッド,0
1268,5010001232355,新規,0,2023-01-23,2023-01-23,株式会社ライフ,,株式会社,東京都,中央区,銀座６丁目１３番１６号,,13,102,1040061,,,,,,,2023-01-23,1,,,,,ライフ,0
1269,5010001232371,新規,0,2023-01-23,2023-01-23,インフォバザール株式会社,,株式会社,東京都,中央区,日本橋兜町５番１号兜町第一平和ビル３Ｆ,,13,102,1030026,,,,,,,2023-01-23,1,,,,,インフォバザール,0
1270,5010001232405,新規,0,2023-01-23,2023-01-23,株式会社リベ大レストラン,,株式会社,東京都,中央区,銀座１丁目１２－４Ｎ＆ＥＢＬＤ．７階,,13,102,1040061,,,,,,,2023-01-23,1,,,,,リベダイレストラン,0
1271,5010001232413,新規,0,2023-01-23,2023-01-23,株式会社ＮＯＲＶＩＬＥ,,株式会社,東京都,千代田区,九段南１丁目５番６号りそな九段ビル５階,,13,101,1020074,,,,,,,2023-01-23,1,,,,,ノービル,0
1273,5010005036125,新規,0,2023-01-23,2023-01-23,一般社団法人日本みどりの食料システム推進協議会,,その他の設立登記法人,東京都,千代田区,神田錦町１丁目１９番１号,,13,101,1010054,,,,,,,2023-01-23,1,,,,,ニホンミドリノショクリョウシステムスイシンキョウギカイ,0
1274,5010005036133,新規,0,2023-01-23,2023-01-23,一般社団法人日本遺産普及協会,,その他の設立登記法人,東京都,千代田区,東神田３丁目１－８萩原ビル４階,,13,101,1010031,,,,,,,2023-01-23,1,,,,,ニホンイサンフキュウキョウカイ,0
1281,5010401172003,新規,0,2023-01-23,2023-01-23,諦めない奴が最後に勝つ株式会社,,株式会社,東京都,港区,六本木４丁目１２番４号アドバンテージ飯田ビル３階,,13,103,1060032,,,,,,,2023-01-23,1,,,,,アキラメナイヤツガサイゴニカツ,0
1289,5010601062458,新規,0,2023-01-23,2023-01-23,東京留学生教育管理センター株式会社,,株式会社,東京都,江東区,東雲１丁目９番１１号,,13,108,1350062,,,,,,,2023-01-23,1,,,,,トウキョウリュウガクセイキョウイクカンリセンター,0
1304,5010703006552,新規,0,2023-01-23,2023-01-23,Ｃ　ｐｌｕｓ合同会社,,合同会社,東京都,品川区,西品川３丁目２０番３号,,13,109,1410033,,,,,,,2023-01-23,1,,,,,シープラス,0
1316,5010801033614,新規,0,2023-01-23,2023-01-23,株式会社雅由総業,,株式会社,東京都,大田区,南六郷１丁目３番４号,,13,111,1440045,,,,,,,2023-01-23,1,,,,,ガユウソウギョウ,0
1317,5010801033622,新規,0,2023-01-23,2023-01-23,オリジンコーヒートレーダーズ株式会社,,株式会社,東京都,大田区,仲六郷４丁目３２－１１ベルハウス蒲田南００１,,13,111,1440055,,,,,,,2023-01-23,1,,,,,オリジンコーヒートレーダーズ,0
1334,5011001151999,新規,0,2023-01-23,2023-01-23,株式会社四谷商事,,株式会社,東京都,渋谷区,神宮前６丁目２３番４号桑野ビル２階,,13,113,1500001,,,,,,,2023-01-23,1,,,,,ヨツヤショウジ,0
1335,5011001152007,新規,0,2023-01-23,2023-01-23,株式会社ＲＥＣＯＲ,,株式会社,東京都,渋谷区,神宮前６丁目２３番４号桑野ビル２階,,13,113,1500001,,,,,,,2023-01-23,1,,,,,リコル,0
1336,5011001152023,新規,0,2023-01-23,2023-01-23,株式会社Ｐｏｎｔｅｃｈ,,株式会社,東京都,渋谷区,道玄坂１丁目１０番８号渋谷道玄坂東急ビル２Ｆ－Ｃ,,13,113,1500043,,,,,,,2023-01-23,1,,,,,ポンテック,0
1338,5011003016151,新規,0,2023-01-23,2023-01-23,合同会社ＳＴＡＩＲＳ,,合同会社,東京都,渋谷区,道玄坂１丁目１０番８号渋谷道玄坂東急ビル２Ｆ－Ｃ,,13,113,1500043,,,,,,,2023-01-23,1,,,,,ステアーズ,0
1341,5011101101573,新規,0,2023-01-23,2023-01-23,株式会社ＡＸＩＥ,,株式会社,東京都,新宿区,西新宿３丁目３番１３号西新宿水間ビル６階,,13,104,1600023,,,,,,,2023-01-23,1,,,,,アクシー,0
1342,5011101101581,新規,0,2023-01-23,2023-01-23,株式会社ＭＰＡ,,株式会社,東京都,新宿区,東五軒町３番２３号ロータス東五軒町１０１,,13,104,1620813,,,,,,,2023-01-23,1,,,,,エムピーエー,0
1346,5011201024360,新規,0,2023-01-23,2023-01-23,株式会社Ｆ６０,,株式会社,東京都,中野区,中野１丁目２０番３号,,13,114,1640001,,,,,,,2023-01-23,1,,,,,エフロクジュウ,0
1362,5011501028895,新規,0,2023-01-23,2023-01-23,株式会社竹澤総合防水,,株式会社,東京都,荒川区,西尾久３丁目９番２１－２０３号メゾンド宮ノ前,,13,118,1160011,,,,,,,2023-01-23,1,,,,,タケザワソウゴウボウスイ,0
1368,5011503005447,新規,0,2023-01-23,2023-01-23,ＡＳＨＡＲ　ＡＬＯ合同会社,,合同会社,東京都,荒川区,荒川３丁目３７番７号第二北城荘３０１号室,,13,118,1160002,,,,,,,2023-01-23,1,,,,,アサルアロ,0
1393,5013301050229,新規,0,2023-01-23,2023-01-23,三友株式会社,,株式会社,東京都,豊島区,巣鴨４丁目２２番４号,,13,116,1700002,,,,,,,2023-01-23,1,,,,,ミトモ,0
1403,5020001149937,新規,0,2023-01-23,2023-01-23,ＭａｒＫ株式会社,,株式会社,神奈川県,横浜市金沢区,柳町３５番地２８リレイション柳町Ａ－１,,14,108,2360026,,,,,,,2023-01-23,1,,,,,マーク,0
1404,5020001149953,新規,0,2023-01-23,2023-01-23,小林工業株式会社,,株式会社,神奈川県,横浜市都筑区,北山田４丁目１７番Ｉ－１２０４号,00129180,14,118,2240021,,,,,,,2023-01-23,1,,,,,コバヤシコウギョウ,0
1409,5020003023140,新規,0,2023-01-23,2023-01-23,ＳＧ合同会社,,合同会社,神奈川県,横浜市都筑区,中川中央１丁目２１－３,,14,118,2240003,,,,,,,2023-01-23,1,,,,,エスジー,0
1410,5020003023149,新規,0,2023-01-23,2023-01-23,合同会社ピクシーダスト,,合同会社,神奈川県,横浜市西区,北幸２丁目１０番地２８むつみビル３Ｆ,,14,103,2200004,,,,,,,2023-01-23,1,,,,,ピクシーダスト,0
1411,5020003023165,新規,0,2023-01-23,2023-01-23,ＵＭＶＥＬＴ合同会社,,合同会社,神奈川県,川崎市麻生区,王禅寺東２丁目４番１５号,,14,137,2150018,,,,,,,2023-01-23,1,,,,,ウンヴェルト,0
1414,5021001078011,新規,0,2023-01-23,2023-01-23,株式会社ＭＥＤＩＣＬＩＭＢ,,株式会社,神奈川県,藤沢市,善行６丁目２－３４,,14,205,2510871,,,,,,,2023-01-23,1,,,,,メディクライム,0
1416,5021003012620,新規,0,2023-01-23,2023-01-23,合同会社エネコスパ,,合同会社,神奈川県,厚木市,寿町１丁目５－６,,14,212,2430003,,,,,,,2023-01-23,1,,,,,エネコスパ,0
1417,5021003012637,新規,0,2023-01-23,2023-01-23,合同会社オードリー,,合同会社,神奈川県,海老名市,東柏ケ谷２丁目２８番２－１０２号,,14,215,2430401,,,,,,,2023-01-23,1,,,,,オードリー,0
1418,5021003012645,新規,0,2023-01-23,2023-01-23,グリシナ合同会社,,合同会社,神奈川県,藤沢市,城南３丁目１番３３～４０２号,,14,205,2510057,,,,,,,2023-01-23,1,,,,,グリシナ,0
1419,5021003012653,新規,0,2023-01-23,2023-01-23,合同会社さなか,,合同会社,神奈川県,相模原市中央区,田名５３２０番地１４,,14,152,2520244,,,,,,,2023-01-23,1,,,,,サナカ,0
1434,5030001152031,新規,0,2023-01-23,2023-01-23,株式会社楽商会,,株式会社,埼玉県,坂戸市,南町１５－１０田中ビル２階,,11,239,3500233,,,,,,,2023-01-23,1,,,,,ラクショウカイ,0
1435,5030001152048,新規,0,2023-01-23,2023-01-23,熊屋株式会社,,株式会社,埼玉県,熊谷市,宮本町１７－１トワエモア熊谷Ｓｔａｔｉｏｎ２０１（２Ａ）,,11,202,3600822,,,,,,,2023-01-23,1,,,,,クマヤ,0
1442,5040001126736,新規,0,2023-01-23,2023-01-23,株式会社Ｍｉｒａｓｈｙ,,株式会社,千葉県,八街市,泉台２丁目８番地１７,,12,230,2891105,,,,,,,2023-01-23,1,,,,,ミラシィ,0
1443,5040001126752,新規,0,2023-01-23,2023-01-23,北総ランドスケープ株式会社,,株式会社,千葉県,成田市,久住中央１丁目９番地８,,12,211,2860819,,,,,,,2023-01-23,1,,,,,ホクソウランドスケープ,0
1448,5040003021737,新規,0,2023-01-23,2023-01-23,合同会社シナモン,,合同会社,千葉県,佐倉市,表町１丁目６番地３ラフィネ佐倉６０２,,12,212,2850811,,,,,,,2023-01-23,1,,,,,シナモン,0
1476,5060001035638,新規,0,2023-01-23,2023-01-23,ＭＡ　ＴＲＡＤＩＮＧ株式会社,,株式会社,栃木県,栃木市,大平町富田１１０番地１光ハイツ１号室,,09,203,3294404,,,,,,,2023-01-23,1,,,,,エムエートレーディング,0
1480,5070001040050,新規,0,2023-01-23,2023-01-23,株式会社デイブライト,,株式会社,群馬県,前橋市,下大島町１０５５番地１７１,,10,201,3792152,,,,,,,2023-01-23,1,,,,,デイブライト,0
1484,5080401026268,新規,0,2023-01-23,2023-01-23,ネクストラル株式会社,,株式会社,静岡県,浜松市中区,細島町１３ー２、２Ｆ,,22,131,4350045,,,,,,,2023-01-23,1,,,,,ネクストラル,0
1485,5080405007520,新規,0,2023-01-23,2023-01-23,一般社団法人未来へつなぐ工務店の会,,その他の設立登記法人,静岡県,浜松市東区,中郡町１９９７－１プライムタウン６２・６０１号,,22,132,4313111,,,,,,,2023-01-23,1,,,,,ミライヘツナグコウムテンノカイ,0
1497,5120001251897,新規,0,2023-01-23,2023-01-23,株式会社阪本本店,,株式会社,大阪府,大阪市阿倍野区,帝塚山１丁目６番１４号,,27,119,5450037,,,,,,,2023-01-23,1,,,,,サカモトホンテン,0
1498,5120001251947,新規,0,2023-01-23,2023-01-23,三水竹株式会社,,株式会社,大阪府,大阪市中央区,玉造１丁目２１番２２号第二高木ビル３０２号室,,27,128,5400004,,,,,,,2023-01-23,1,,,,,サンスイチク,0
1503,5120003023295,新規,0,2023-01-23,2023-01-23,ＤＴ　ＧＲＯＵＰ合同会社,,合同会社,大阪府,大阪市生野区,新今里３丁目５番１３号,,27,116,5440001,,,,,,,2023-01-23,1,,,,,ディーティーグループ,0
1504,5120003023304,新規,0,2023-01-23,2023-01-23,カタシロプラス合同会社,,合同会社,大阪府,大阪市北区,梅田１丁目２番２号大阪駅前第２ビル１２―１２,,27,127,5300001,,,,,,,2023-01-23,1,,,,,カタシロプラス,0
1505,5120003023312,新規,0,2023-01-23,2023-01-23,合同会社ＡｍａＧｉｓ,,合同会社,大阪府,大阪市阿倍野区,播磨町１丁目１２番９号,,27,119,5450022,,,,,,,2023-01-23,1,,,,,アマギス,0
1513,5130001073531,新規,0,2023-01-23,2023-01-23,株式会社ＡＱＵＡ,,株式会社,京都府,与謝郡伊根町,字亀島８３２番地１,,26,463,6260424,,,,,,,2023-01-23,1,,,,,アクア,0
1515,5130003008469,新規,0,2023-01-23,2023-01-23,合同会社グレイスカンパニー,,合同会社,京都府,京都市山科区,椥辻草海道町２３－１１７,00129177,26,110,6078162,,,,,,,2023-01-23,1,,,,,グレイスカンパニー,0
1521,5140001128846,新規,0,2023-01-23,2023-01-23,株式会社ＹＵＳＥＲＡ,,株式会社,兵庫県,加古川市,平岡町土山１１１０番地１０９号,,28,210,6750104,,,,,,,2023-01-23,1,,,,,ユセラ,0
1526,5140003018624,新規,0,2023-01-23,2023-01-23,合同会社独楽,,合同会社,兵庫県,丹波篠山市,今田町下小野原５９番地５３,,28,221,6692133,,,,,,,2023-01-23,1,,,,,コマ,0
1530,5170003001825,新規,0,2023-01-23,2023-01-23,合同会社サピュイエ,,合同会社,和歌山県,和歌山市,岩橋１０８７番地１２,,30,201,6408301,,,,,,,2023-01-23,1,,,,,サピュイエ,0
1538,5180001154541,新規,0,2023-01-23,2023-01-23,株式会社Ｏｎｅ　Ｔｈｒｅｅ,,株式会社,愛知県,名古屋市東区,泉１丁目１１番６号ミソカビル２Ｆ,,23,102,4610001,,,,,,,2023-01-23,1,,,,,ワンスリー,0
1539,5180001154649,新規,0,2023-01-23,2023-01-23,ＡＵＴＯ　ＳＥＮＳＥ株式会社,,株式会社,愛知県,海部郡飛島村,元起４丁目８番地,,23,427,4901437,,,,,,,2023-01-23,1,,,,,オートセンス,0
1544,5180301037033,新規,0,2023-01-23,2023-01-23,株式会社アジアンＨＲ,,株式会社,愛知県,豊橋市,富本町１番地３,,23,201,4418064,,,,,,,2023-01-23,1,,,,,アジアンエイチアール,0
1554,5240001060989,新規,0,2023-01-23,2023-01-23,株式会社甲陽建設,,株式会社,広島県,世羅郡世羅町,大字西上原１６６８番地２,,34,462,7221121,,,,,,,2023-01-23,1,,,,,コウヨウケンセツ,0
1558,5290001100294,新規,0,2023-01-23,2023-01-23,株式会社ＭＡＳＴ,,株式会社,福岡県,太宰府市,青葉台１丁目７番２号,,40,221,8180137,,,,,,,2023-01-23,1,,,,,マスト,0
1562,5290803004313,新規,0,2023-01-23,2023-01-23,合同会社スクエアフォーメーション,,合同会社,福岡県,北九州市小倉南区,朽網西４丁目２５番１０号,,40,107,8000233,,,,,,,2023-01-23,1,,,,,スクエアフォーメーション,0
1563,5300001013197,新規,0,2023-01-23,2023-01-23,株式会社サンユーリペア,,株式会社,佐賀県,嬉野市,嬉野町下宿字道徳丁１９１－１,,41,209,8430300,,,,,,,2023-01-23,1,,,,,サンユーリペア,0
1572,5330001030520,新規,0,2023-01-23,2023-01-23,株式会社ラルジュガーデン,,株式会社,熊本県,熊本市中央区,帯山２丁目１４番５５－１１０５号,,43,101,8620924,,,,,,,2023-01-23,1,,,,,ラルジュガーデン,0
1575,5350001018142,新規,0,2023-01-23,2023-01-23,株式会社Ｎ．ＣＲＥＷ,,株式会社,宮崎県,宮崎市,丸山２丁目２２８番地６,,45,201,8800052,,,,,,,2023-01-23,1,,,,,エヌドットクルー,0
1577,5360001031466,新規,0,2023-01-23,2023-01-23,株式会社サイバー企画,,株式会社,沖縄県,那覇市,牧志３丁目２０番３号フォレスト牧志４１０号,,47,201,9000013,,,,,,,2023-01-23,1,,,,,サイバーキカク,0
1581,5370001049524,新規,0,2023-01-23,2023-01-23,シスルナテクノロジーズ株式会社,,株式会社,宮城県,仙台市青葉区,荒巻字青葉４６８－１,,04,101,9800845,,,,,,,2023-01-23,1,,,,,シスルナテクノロジーズ,0
1589,5400001016132,新規,0,2023-01-23,2023-01-23,ＰＡＳＥＯ株式会社,,株式会社,岩手県,奥州市,江刺愛宕字観音堂沖４００番地１,,03,215,0231131,,,,,,,2023-01-23,1,,,,,パセオ,0
1603,5700150113864,新規,0,2023-01-23,2023-01-23,呉燦坤投資有限公司,,外国会社等,東京都,目黒区,三田１丁目４－３恵比寿ガーデンテラス壱番館１９０３,,13,110,1530062,台湾高雄市旗山區樹人路６３之８號１棲,,,,,,2023-01-23,1,,,,,ゴサンクントウシユウゲンコウシ,0
1604,5700150113872,新規,0,2023-01-23,2023-01-23,Ｇａｏｙｏｕ　Ｍｉｎｇｒｅｎ　Ｔｒａｄｉｎｇ　Ｃｏ．，Ｌｔｄ,,外国会社等,,,,,,,,Ｎｏ．７６－２７，Ｔａｉｂｅｉ　Ｒｏａｄ，Ｇａｏｙｏｕ　Ｃｉｔｙ,,,,,,2023-01-23,1,,,,,コウユウミンレントレーデイングカンパニーリミテツド,0
1605,5700150113889,新規,0,2023-01-23,2023-01-23,Ｈｅｆｅｉ　Ｌｉｎｇｗｕ　Ｉｎｄｕｓｔｒｉａｌ　Ｐｒｏｄｕｃｔ　Ｉｎｔｅｇｒａｔｉｏｎ　Ｄｅｓｉｇｎ　Ｃｏ．，ＬＴＤ,,外国会社等,,,,,,,,Ｔｏｎｇｌｉｎｇ　Ｒｏａｄ　Ｎｏ．１６９　Ｗａｎｈｅ　Ｘｉｎｃｈｅｎｇ　Ｐｌａｚａ，Ｂｌｏｃｋ　４　Ｒｏｏｍ　１－１３１２，Ｙａｏｈａｉ，Ｈｅｆｅｉ，Ａｎｈｕｉ，ｃｈｉｎａ,,,,,,2023-01-23,1,,,,,ヘフェイリンウインダストリアルプロダクトインテグレーションデザインカンパニーリミテッド,0
1612,6010001232370,新規,0,2023-01-23,2023-01-23,株式会社Ａ十ｐｌｕｓ,,株式会社,東京都,千代田区,神田駿河台１丁目５番６号コトー駿河台２１３,,13,101,1010062,,,,,,,2023-01-23,1,,,,,エープラス,0
1613,6010001232395,新規,0,2023-01-23,2023-01-23,株式会社モンドリアン,,株式会社,東京都,中央区,銀座６丁目１０番１号,,13,102,1040061,,,,,,,2023-01-23,1,,,,,モンドリアン,0
1614,6010001232445,新規,0,2023-01-23,2023-01-23,株式会社ベビーマークアソシエイツ,,株式会社,東京都,文京区,湯島３丁目３９番５号ラレーブ湯島５Ｆ,,13,105,1130034,,,,,,,2023-01-23,1,,,,,ベビーマークアソシエイツ,0
1616,6010005036165,新規,0,2023-01-23,2023-01-23,ＬＤＦ一般社団法人,,その他の設立登記法人,東京都,千代田区,丸の内３丁目１番１号東京共同会計事務所内,,13,101,1000005,,,,,,,2023-01-23,1,,,,,エルディーエフ,0
1625,6010401172002,新規,0,2023-01-23,2023-01-23,株式会社リスカーレ,,株式会社,東京都,港区,芝浦２丁目１４番６号Ｃｏａｓｔ芝浦４階,,13,103,1080023,,,,,,,2023-01-23,1,,,,,リスカーレ,0
1629,6010403029349,新規,0,2023-01-23,2023-01-23,合同会社ｒａｉｎｍａｋｅｒ　ａｄｖｉｓｏｒｙ,,合同会社,東京都,港区,芝浦１丁目６番４１号グローバルフロントタワー２８２７号室,,13,103,1050023,,,,,,,2023-01-23,1,,,,,レインメーカーアドバイザリー,0
1630,6010601062473,新規,0,2023-01-23,2023-01-23,株式会社シーナゲームズ,,株式会社,東京都,江東区,豊洲６丁目２番２９－３０８号,,13,108,1350061,,,,,,,2023-01-23,1,,,,,シーナゲームズ,0
1636,6010703006551,新規,0,2023-01-23,2023-01-23,Ｍａｉｓｏｎ５０１合同会社,,合同会社,東京都,品川区,西五反田１丁目２６－２－９１１,,13,109,1410031,,,,,,,2023-01-23,1,,,,,メゾンファイブオーワン,0
1646,6010901052380,新規,0,2023-01-23,2023-01-23,株式会社Ｍ’ｓ,,株式会社,東京都,世田谷区,上北沢３丁目２３－２２,,13,112,1560057,,,,,,,2023-01-23,1,,,,,エムズ,0
1649,6011001017695,新規,0,2023-01-23,2023-01-23,株式会社日本数理工学研究所,,株式会社,東京都,渋谷区,富ヶ谷１丁目９番２２号,,13,113,1510063,,,,,,,2023-01-23,1,,,,,,0
1653,6011001152014,新規,0,2023-01-23,2023-01-23,株式会社ＥＣＸ,,株式会社,東京都,渋谷区,渋谷２丁目１９番１５号宮益坂ビルディング６０９,,13,113,1500002,,,,,,,2023-01-23,1,,,,,イーシーエックス,0
1654,6011001152047,新規,0,2023-01-23,2023-01-23,エクソソームキャピタル株式会社,,株式会社,東京都,目黒区,上目黒１丁目１６番１２号,,13,110,1530051,,,,,,,2023-01-23,1,,,,,エクソソームキャピタル,0
1674,6011503005446,新規,0,2023-01-23,2023-01-23,木子合同会社,,合同会社,東京都,北区,赤羽台３丁目１４－２,,13,117,1150053,,,,,,,2023-01-23,1,,,,,キコ,0
1676,6011601026518,新規,0,2023-01-23,2023-01-23,電測株式会社,,株式会社,東京都,練馬区,北町５丁目５番７－２０３号,,13,120,1790081,,,,,,,2023-01-23,1,,,,,デンソク,0
1677,6011603003804,新規,0,2023-01-23,2023-01-23,合同会社小川哲事務所,,合同会社,東京都,練馬区,西大泉５丁目２０番１６号,,13,120,1780065,,,,,,,2023-01-23,1,,,,,オガワサトシジムショ,0
1700,6012403005791,新規,0,2023-01-23,2023-01-23,ＭＯＮＴＡＮＡ　ＭＡＮＡＧＥＭＥＮＴ合同会社,,合同会社,東京都,小金井市,本町５丁目３５番１０号,,13,210,1840004,,,,,,,2023-01-23,1,,,,,モンタナマネジメント,0
1708,6013303006459,新規,0,2023-01-23,2023-01-23,合同会社ＫＡ,,合同会社,東京都,豊島区,西池袋４丁目１１番１２号第８嶺岡マンション７０１号,,13,116,1710021,,,,,,,2023-01-23,1,,,,,ケーエー,0
1714,6020003023148,新規,0,2023-01-23,2023-01-23,合同会社Ｌｕｍｉｎｏｓｏ,,合同会社,神奈川県,横浜市港北区,綱島東４丁目９番３７号綱島イーストベース１０５,,14,109,2230052,,,,,,,2023-01-23,1,,,,,ルミノーゾ,0
1715,6020003023156,新規,0,2023-01-23,2023-01-23,合同会社Ｄｒｏｐ,,合同会社,神奈川県,横浜市都筑区,中川１丁目２１番１１－３０７,,14,118,2240001,,,,,,,2023-01-23,1,,,,,ドロップ,0
1720,6021001078010,新規,0,2023-01-23,2023-01-23,ＯＭＭＯ株式会社,,株式会社,神奈川県,鎌倉市,鎌倉山２丁目２３番７号,,14,204,2480031,,,,,,,2023-01-23,1,,,,,オーエムエムオー,0
1721,6021001078019,新規,0,2023-01-23,2023-01-23,株式会社サザンステップ,,株式会社,神奈川県,相模原市南区,下溝３０９５番地３,,14,153,2520335,,,,,,,2023-01-23,1,,,,,サザンステップ,0
1732,6030001152039,新規,0,2023-01-23,2023-01-23,株式会社アセンド,,株式会社,埼玉県,川口市,上青木１丁目２０番７－５０１号,,11,203,3330844,,,,,,,2023-01-23,1,,,,,アセンド,0
1755,6050001052286,新規,0,2023-01-23,2023-01-23,株式会社水戸藩御用蔵,,株式会社,茨城県,常陸太田市,中城町字御所下２４１１番地１,,08,212,3130061,,,,,,,2023-01-23,1,,,,,ミトハンゴヨウグラ,0
1783,6100003006846,新規,0,2023-01-23,2023-01-23,ＫｅｎＳｈｏ　Ｖｉｎｅｙａｒｄ合同会社,,合同会社,長野県,上田市,上田原５１１番地３プレミール上田原２１１号,,20,203,3861102,,,,,,,2023-01-23,1,,,,,ケンショウヴィンヤード,0
1802,6120001251905,新規,0,2023-01-23,2023-01-23,株式会社Ｆｒｅｅｔｙ,,株式会社,大阪府,大阪市西区,靱本町２丁目８番１０－８０３号,,27,106,5500004,,,,,,,2023-01-23,1,,,,,フリーティー,0
1803,6120001251954,新規,0,2023-01-23,2023-01-23,株式会社ＴＡＫＡ,,株式会社,大阪府,大阪市北区,大淀南２丁目２番９グランドメゾン新梅田タワーＴＨＥＣＬＵＢＲＥＳＩＤＥＮＣＥ４５０９号,,27,127,5310075,,,,,,,2023-01-23,1,,,,,タカ,0
1806,6120005023417,新規,0,2023-01-23,2023-01-23,医療法人すぎた内科クリニック,,その他の設立登記法人,大阪府,大阪市城東区,鴫野東１丁目３番８号ハイツ丹洋１階,,27,118,5360013,,,,,,,2023-01-23,1,,,,,スギタナイカクリニック,0
1811,6120101066856,新規,0,2023-01-23,2023-01-23,システムサポートエンジニアリング株式会社,,株式会社,大阪府,泉南郡熊取町,希望が丘１丁目２番８号,,27,361,5900422,,,,,,,2023-01-23,1,,,,,システムサポートエンジニアリング,0
1814,6120105009670,新規,0,2023-01-23,2023-01-23,一般社団法人ＣＵＲＩＯＳＩＴＡＳ,,その他の設立登記法人,大阪府,堺市堺区,三国ヶ丘御幸通１０番１号,,27,141,5900028,,,,,,,2023-01-23,1,,,,,クリオシータス,0
1816,6120901047023,新規,0,2023-01-23,2023-01-23,株式会社エイシン,,株式会社,大阪府,摂津市,鳥飼西４丁目１９番１８号,,27,224,5660072,,,,,,,2023-01-23,1,,,,,エイシン,0
1817,6120903004468,新規,0,2023-01-23,2023-01-23,アイズセル合同会社,,合同会社,大阪府,豊中市,上野西３丁目１９番１０の１号,,27,203,5600011,,,,,,,2023-01-23,1,,,,,アイズセル,0
1818,6120905006413,新規,0,2023-01-23,2023-01-23,医療法人栗田整形外科,,その他の設立登記法人,大阪府,豊中市,蛍池東町二丁目６番２１号,,27,203,5600000,,,,,,,2023-01-23,1,,,,,クリタセイケイゲカ,0
1819,6122001036600,新規,0,2023-01-23,2023-01-23,株式会社Ｒｅ．ｓｔａｇｅ,,株式会社,大阪府,東大阪市,西堤２丁目１番２６号,,27,227,5770042,,,,,,,2023-01-23,1,,,,,リステージ,0
1820,6122003002501,新規,0,2023-01-23,2023-01-23,合同会社楓曄,,合同会社,大阪府,東大阪市,森河内西１丁目２番２９号メゾン高井田,,27,227,5770061,,,,,,,2023-01-23,1,,,,,フウカ,0
1823,6130001073530,新規,0,2023-01-23,2023-01-23,ＮＡＫＡＮＯ　ＨＵＢ　ＦＩＥＬＤ株式会社,,株式会社,京都府,京丹後市,久美浜町永留１１３２番地,,26,212,6293551,,,,,,,2023-01-23,1,,,,,ナカノハブフィールド,0
1824,6130003008476,新規,0,2023-01-23,2023-01-23,ＡＢＦコンサルティング合同会社,,合同会社,京都府,京田辺市,山手東１丁目１０番地１２,,26,211,6100357,,,,,,,2023-01-23,1,,,,,エービーエフコンサルティング,0
1833,6140001128829,新規,0,2023-01-23,2023-01-23,株式会社タナカタツヤ写真事務所,,株式会社,兵庫県,西宮市,甲子園六番町７番８号ＢａｓｅＫ１０１号,,28,204,6638176,,,,,,,2023-01-23,1,,,,,タナカタツヤシャシンジムショ,0
1837,6140005026459,新規,0,2023-01-23,2023-01-23,一般社団法人ＳｅｅＫ４,,その他の設立登記法人,兵庫県,西宮市,柏堂町２番２８号,,28,204,6620097,,,,,,,2023-01-23,1,,,,,シークフォー,0
1840,6160003002781,新規,0,2023-01-23,2023-01-23,合同会社Ｔ‐ＰＬＡＮ,,合同会社,滋賀県,大津市,木下町６番３１号,,25,201,5200812,,,,,,,2023-01-23,1,,,,,ティープラン,0
1847,6180001154631,新規,0,2023-01-23,2023-01-23,株式会社イークイップ,,株式会社,愛知県,名古屋市緑区,大清水２丁目１６０３番地の２,,23,114,4580805,,,,,,,2023-01-23,1,,,,,イークイップ,0
1848,6180001154648,新規,0,2023-01-23,2023-01-23,株式会社シュクラン,,株式会社,愛知県,名古屋市中区,錦１丁目１５番８号ＡＭＩＴＩＥ１ｓｔＢＬＤ３階,,23,106,4600003,,,,,,,2023-01-23,1,,,,,シュクラン,0
1854,6180003024741,新規,0,2023-01-23,2023-01-23,Ｐｉ合同会社,,合同会社,愛知県,名古屋市緑区,鳴海町字細根１１８番地の４９,,23,114,4580827,,,,,,,2023-01-23,1,,,,,パイ,0
1857,6190001030113,新規,0,2023-01-23,2023-01-23,株式会社斉藤総業,,株式会社,三重県,伊勢市,船江３丁目４番２号,,24,203,5160008,,,,,,,2023-01-23,1,,,,,サイトウソウギョウ,0
1872,6290003013444,新規,0,2023-01-23,2023-01-23,合同会社ＳＡＧＬ,,合同会社,福岡県,福岡市中央区,草香江１丁目４番３４号,,40,133,8100045,,,,,,,2023-01-23,1,,,,,サグル,0
1875,6290801029220,新規,0,2023-01-23,2023-01-23,株式会社彌榮,,株式会社,福岡県,京都郡苅田町,大字与原３３４番地,,40,621,8000323,,,,,,,2023-01-23,1,,,,,ヤサカ,0
1876,6290803004312,新規,0,2023-01-23,2023-01-23,合同会社ａｖａｎｔｉ,,合同会社,福岡県,北九州市八幡西区,星ケ丘５丁目３番１３号,,40,109,8071264,,,,,,,2023-01-23,1,,,,,アヴァンティ,0
1886,6360001031465,新規,0,2023-01-23,2023-01-23,株式会社ＮＯＦＹ,,株式会社,沖縄県,沖縄市,泡瀬２丁目４５－１２,,47,211,9042172,,,,,,,2023-01-23,1,,,,,ノーフィー,0
1887,6360003012661,新規,0,2023-01-23,2023-01-23,合同会社Ｂｅ　ｙｏｕｒｓｅｌｆ,,合同会社,沖縄県,宮古島市,城辺字新城４６５番地１号,,47,214,9060102,,,,,,,2023-01-23,1,,,,,ビーユアセルフ,0
1892,6380003005366,新規,0,2023-01-23,2023-01-23,合同会社にっぽんの台所,,合同会社,福島県,郡山市,逢瀬町多田野字休石２４番地,,07,203,9630213,,,,,,,2023-01-23,1,,,,,ニッポンノダイドコロ,0
1895,6430001088267,新規,0,2023-01-23,2023-01-23,株式会社南商店,,株式会社,北海道,札幌市中央区,宮の森三条１１丁目１番５２号,,01,101,0640953,,,,,,,2023-01-23,1,,,,,ミナミショウテン,0
1898,6440003001508,新規,0,2023-01-23,2023-01-23,ｍａｓｓｉｍｏ合同会社,,合同会社,北海道,函館市,高松町３１５番地３ウェルズ１０１,,01,202,0420952,,,,,,,2023-01-23,1,,,,,マッシモ,0
1900,6460101007322,新規,0,2023-01-23,2023-01-23,株式会社ＣＯＲＳＡ,,株式会社,北海道,帯広市,西二十二条南１丁目９番地１２７,,01,207,0802472,,,,,,,2023-01-23,1,,,,,コルサ,0
1904,6700150113871,新規,0,2023-01-23,2023-01-23,Ｊｉａｘｉｎｇ　Ｚｉｃｈｉ　Ｔｒａｄｉｎｇ　Ｃｏ．，Ｌｔｄ．,,外国会社等,,,,,,,,６０２，Ｂｕｉｌｄｉｎｇ　９，Ｎｏ　３６，Ｃｈａｎｇｓｈｅｎｇ　Ｓｏｕｔｈ　Ｒｏａｄ，Ｅｃｏｎｏｍｉｃ　Ｄｅｖｅｌｏｐｍｅｎｔ　Ｚｏｎｅ，Ｊｉａｘｉｎｇ　Ｃｉｔｙ，ＺｈｅＪｉａｎｇ　Ｐｒｏｖｉｎｃｅ,,,,,,2023-01-23,1,,,,,ジヤシンズツウトレーデイングカンパニーリミテツド,0
1905,6700150113888,新規,0,2023-01-23,2023-01-23,ｓｈｅｎｚｈｅｎｓｈｉ　ｙｕｎｍｅｉｓｈｉｊｉ　ｋｅｊｉｙｏｕｘｉａｎｇｏｎｇｓｉ,,外国会社等,,,,,,,,２０４ｓｈｉ，２ｃｅｎｇ，ｔａｏｙｕａｎｌｕ４４ｈａｏ，ｈｕａｎｇｔｉａｎｓｈｅｑｕ，ｈａｎｇｃｈｅｎｇｊｉｅｄａｏ，ｂａｏａｎｑｕ，ｓｈｅｎｚｈｅｎｓｈｉ，ｇｕａｎｇｄｏｎｇｓｈｅｎｇ，Ｃｈｉｎａ,,,,,,2023-01-23,1,,,,,シンセンシユンメイシジケジユウゲンコウシ,0
1909,7010001232139,新規,0,2023-01-23,2023-01-23,株式会社プロセント,,株式会社,東京都,中央区,勝どき１丁目３番１－４３０６号,,13,102,1040054,,,,,,,2023-01-23,1,,,,,プロセント,0
1910,7010001232444,新規,0,2023-01-23,2023-01-23,橋本総業ファシリティーズ株式会社,,株式会社,東京都,中央区,日本橋小伝馬町９番９号,,13,102,1030001,,,,,,,2023-01-23,1,,,,,ハシモトソウギョウファシリティーズ,0
1915,7010003039648,新規,0,2023-01-23,2023-01-23,ラボコープ・ラボラトリーズ・ジャパン合同会社,,合同会社,東京都,中央区,築地２丁目１１番９号ＲＢＭ築地駅前ビル２階,,13,102,1040045,,,,,,,2023-01-23,1,,,,,ラボコープラボラトリーズジャパン,0
1923,7010401171655,新規,0,2023-01-23,2023-01-23,株式会社伯雲,,株式会社,東京都,港区,南青山４丁目１１番２号アズ表参道ビル１Ｆ,,13,103,1070062,,,,,,,2023-01-23,1,,,,,ハクウン,0
1927,7010403029323,新規,0,2023-01-23,2023-01-23,合同会社Ｆｏｕｂｉｒ,,合同会社,東京都,港区,南青山２丁目２番１５号,,13,103,1070062,,,,,,,2023-01-23,1,,,,,フォービア,0
1930,7010601062456,新規,0,2023-01-23,2023-01-23,ＤｕｇＯｕｔ株式会社,,株式会社,東京都,江東区,東雲２丁目２番１４－２９１７号,,13,108,1350062,,,,,,,2023-01-23,1,,,,,ダグアウト,0
1931,7010601062472,新規,0,2023-01-23,2023-01-23,株式会社ドリームアテンド,,株式会社,東京都,墨田区,横川２丁目３番４号ＣＡＳＡ２３４－３０２号,,13,107,1300003,,,,,,,2023-01-23,1,,,,,ドリームアテンド,0
1956,7010903007919,新規,0,2023-01-23,2023-01-23,Ｒａｉｎｙ　Ｍａｎ合同会社,,合同会社,東京都,世田谷区,船橋２丁目１９―２１,,13,112,1560055,,,,,,,2023-01-23,1,,,,,レイニーマン,0
1962,7011001152046,新規,0,2023-01-23,2023-01-23,株式会社ＱＴＴＡ,,株式会社,東京都,渋谷区,恵比寿南２丁目５－８,,13,113,1500022,,,,,,,2023-01-23,1,,,,,クッタ,0
1963,7011001152054,新規,0,2023-01-23,2023-01-23,株式会社アシスト,,株式会社,東京都,渋谷区,渋谷２丁目１９番１５号宮益坂ビルディング６０９,,13,113,1500002,,,,,,,2023-01-23,1,,,,,アシスト,0
1969,7011201024367,新規,0,2023-01-23,2023-01-23,株式会社堀野商事エンジニアリング,,株式会社,東京都,中野区,江原町２丁目１４番１７号,,13,114,1650023,,,,,,,2023-01-23,1,,,,,ホリノショウジエンジニアリング,0
1988,7011501028893,新規,0,2023-01-23,2023-01-23,ＭＫ商社株式会社,,株式会社,東京都,北区,豊島４丁目１８番７－１００４号プレミスト東京王子,,13,117,1140003,,,,,,,2023-01-23,1,,,,,エムケイショウシャ,0
2010,7013103001205,新規,0,2023-01-23,2023-01-23,合同会社小野道園,,合同会社,東京都,西多摩郡瑞穂町,長岡１丁目４５番地１ＴＭハイツ２０３号,,13,303,1901232,,,,,,,2023-01-23,1,,,,,オノミチエン,0
2017,7013301050219,新規,0,2023-01-23,2023-01-23,翔友コミュニケーションズ株式会社,,株式会社,東京都,豊島区,千川２丁目１７番１１号,,13,116,1710041,,,,,,,2023-01-23,1,,,,,ショウユウコミュニケーションズ,0
2027,7020001149927,新規,0,2023-01-23,2023-01-23,株式会社Ｒ＆Ｃ　ａｒｔ,,株式会社,神奈川県,川崎市川崎区,駅前本町１１番地２川崎フロンティアビル４階,,14,131,2100007,,,,,,,2023-01-23,1,,,,,,0
2035,7021001077985,新規,0,2023-01-23,2023-01-23,ステイゴールド株式会社,,株式会社,神奈川県,大和市,大和南１丁目１４番３号中丸ビル１Ｆ,,14,213,2420016,,,,,,,2023-01-23,1,,,,,ステイゴールド,0
2041,7021003012602,新規,0,2023-01-23,2023-01-23,合同会社ＲＯＶＥＲ,,合同会社,神奈川県,鎌倉市,坂ノ下３－７,,14,204,2480021,,,,,,,2023-01-23,1,,,,,,0
2042,7021003012643,新規,0,2023-01-23,2023-01-23,合同会社ｔｏｆｕ,,合同会社,神奈川県,茅ヶ崎市,菱沼海岸４－６４－２５,,14,207,2530037,,,,,,,2023-01-23,1,,,,,トウフ,0
2043,7021003012651,新規,0,2023-01-23,2023-01-23,ＤＡＩＳＵＫＥ　ＤＯＮＯＳＨＩＴＡ合同会社,,合同会社,神奈川県,茅ヶ崎市,松が丘２丁目８番２０－１５号,,14,207,2530025,,,,,,,2023-01-23,1,,,,,ダイスケドノシタ,0
2045,7030001152005,新規,0,2023-01-23,2023-01-23,株式会社ティエムコーポレーション,,株式会社,埼玉県,川越市,伊勢原町５丁目５番地７リバーサイド２－４０３,,11,201,3501108,,,,,,,2023-01-23,1,,,,,ティエムコーポレーション,0
2054,7040001126718,新規,0,2023-01-23,2023-01-23,株式会社千輝,,株式会社,千葉県,千葉市若葉区,みつわ台２丁目８番５－２号,,12,104,2640032,,,,,,,2023-01-23,1,,,,,センキ,0
2055,7040001126726,新規,0,2023-01-23,2023-01-23,株式会社すぺぷろ,,株式会社,千葉県,野田市,蕃昌２５７番地,,12,208,2780041,,,,,,,2023-01-23,1,,,,,スペプロ,0
2056,7040001126750,新規,0,2023-01-23,2023-01-23,株式会社博愛,,株式会社,千葉県,八千代市,八千代台西１０丁目３１番３号,,12,221,2760034,,,,,,,2023-01-23,1,,,,,ハクアイ,0
2058,7040003021735,新規,0,2023-01-23,2023-01-23,タイプライターＴＸ合同会社,,合同会社,千葉県,柏市,柏の葉５丁目４番地６,,12,217,2770882,,,,,,,2023-01-23,1,,,,,タイプライターティーエックス,0
2077,7060003004382,新規,0,2023-01-23,2023-01-23,佐野市省エネルギー推進合同会社,,合同会社,栃木県,佐野市,伊勢山町１４番地１３スカイビル３階,,09,204,3270817,,,,,,,2023-01-23,1,,,,,サノシショウエネルギースイシン,0
2100,7120001251904,新規,0,2023-01-23,2023-01-23,株式会社ＳＴＰ,,株式会社,大阪府,大阪市西区,新町１丁目３－１２,,27,106,5500013,,,,,,,2023-01-23,1,,,,,エスティーピー,0
2101,7120001251929,新規,0,2023-01-23,2023-01-23,株式会社ＬＩＢＥＲＡ　ＣＲＥＡＴＥ,,株式会社,大阪府,大阪市中央区,南船場２丁目６番２７号３０１,,27,128,5420081,,,,,,,2023-01-23,1,,,,,リベラクリエイト,0
2102,7120001251937,新規,0,2023-01-23,2023-01-23,株式会社アルフ,,株式会社,大阪府,大阪市北区,堂島２丁目１番２号,,27,127,5300003,,,,,,,2023-01-23,1,,,,,アルフ,0
2103,7120001251953,新規,0,2023-01-23,2023-01-23,株式会社ＳＪ,,株式会社,大阪府,大阪市中央区,博労町４丁目７番９号日宝博労町センタービル２階,,27,128,5410059,,,,,,,2023-01-23,1,,,,,エスジェイ,0
2107,7120003023302,新規,0,2023-01-23,2023-01-23,合同会社ユニティ,,合同会社,大阪府,大阪市住之江区,住之江１丁目４番３号,,27,125,5590004,,,,,,,2023-01-23,1,,,,,ユニティ,0
2112,7120101066871,新規,0,2023-01-23,2023-01-23,株式会社希新工業,,株式会社,大阪府,和泉市,みずき台２丁目２３番９号,,27,219,5941118,,,,,,,2023-01-23,1,,,,,キシンコウギョウ,0
2113,7120901047022,新規,0,2023-01-23,2023-01-23,ショッピングワールド株式会社,,株式会社,大阪府,吹田市,垂水町１丁目４１番１２号Ｄ８,,27,205,5640062,,,,,,,2023-01-23,1,,,,,ショッピングワールド,0
2114,7120903004467,新規,0,2023-01-23,2023-01-23,合同会社Ｌｉｌ．Ｇａｎｊａ,,合同会社,大阪府,豊中市,東豊中町３丁目２番８号Ｂ－２号,,27,203,5600003,,,,,,,2023-01-23,1,,,,,リルガンジャ,0
2115,7120905006412,新規,0,2023-01-23,2023-01-23,一般社団法人ラジーン,,その他の設立登記法人,大阪府,吹田市,広芝町２１－６,,27,205,5640052,,,,,,,2023-01-23,1,,,,,ラジーン,0
2117,7122003002500,新規,0,2023-01-23,2023-01-23,ハイダン合同会社,,合同会社,大阪府,東大阪市,太平寺１丁目８番１９号,,27,227,5770844,,,,,,,2023-01-23,1,,,,,ハイダン,0
2118,7130001073546,新規,0,2023-01-23,2023-01-23,株式会社ＭＩＥＺ,,株式会社,京都府,京都市右京区,西院六反田町１５番地デリード西京極パークフロント２０４号室,,26,108,6150047,,,,,,,2023-01-23,1,,,,,ミエズ,0
2120,7130005016682,新規,0,2023-01-23,2023-01-23,特定非営利活動法人グラス・ルーツ,,その他の設立登記法人,京都府,京都市右京区,梅津大縄場町６番地６嵐山ロイアルハイツ３号棟８１５号,,26,108,6150925,,,,,,,2023-01-23,1,,,,,グラスルーツ,0
2132,7140001128836,新規,0,2023-01-23,2023-01-23,クリアコネクト株式会社,,株式会社,兵庫県,神戸市中央区,北長狭通４丁目２番１９号アムズ元町ビル１Ｆ－３,,28,110,6500012,,,,,,,2023-01-23,1,,,,,クリアコネクト,0
2135,7140003018556,新規,0,2023-01-23,2023-01-23,合同会社Ｓａｒａ,,合同会社,兵庫県,神戸市北区,上津台２丁目４－１６－２０１,,28,109,6511515,,,,,,,2023-01-23,1,,,,,サラ,0
2136,7140003018622,新規,0,2023-01-23,2023-01-23,合同会社上山企画,,合同会社,兵庫県,神戸市長田区,四番町４丁目５６－３８－１３０４,,28,106,6530004,,,,,,,2023-01-23,1,,,,,ウエヤマキカク,0
2137,7150001026122,新規,0,2023-01-23,2023-01-23,株式会社中和緑化建設,,株式会社,奈良県,橿原市,中曽司町１２３番地の５９,,29,205,6340845,,,,,,,2023-01-23,1,,,,,チュウワリョッカケンセツ,0
2138,7160001024785,新規,0,2023-01-23,2023-01-23,株式会社ホッパーアド,,株式会社,滋賀県,大津市,大江６丁目４３番３５号,,25,201,5202141,,,,,,,2023-01-23,1,,,,,ホッパーアド,0
2141,7170001017441,新規,0,2023-01-23,2023-01-23,宿坊協会不動産・ＩＴ開発管理株式会社,,株式会社,和歌山県,伊都郡高野町,大字高野山４９番地,,30,344,6480211,,,,,,,2023-01-23,1,,,,,シュクボウキョウカイフドウサンアイティーカイハツカンリ,0
2146,7180001154639,新規,0,2023-01-23,2023-01-23,あまコンサルティング株式会社,,株式会社,愛知県,海部郡大治町,大字東條字郷内２２番地,,23,424,4901134,,,,,,,2023-01-23,1,,,,,アマコンサルティング,0
2152,7180301037023,新規,0,2023-01-23,2023-01-23,株式会社イーストワン,,株式会社,愛知県,田原市,田原町東大浜１２５番地,,23,231,4413421,,,,,,,2023-01-23,1,,,,,イーストワン,0
2161,7280001008867,新規,0,2023-01-23,2023-01-23,株式会社ビアンサ,,株式会社,島根県,松江市,東生馬町３８番地１７２,,32,201,6900864,,,,,,,2023-01-23,1,,,,,,0
2164,7290001100292,新規,0,2023-01-23,2023-01-23,株式会社ＯＴＡＳ,,株式会社,福岡県,福岡市早良区,重留６丁目１２番１２号,,40,137,8111101,,,,,,,2023-01-23,1,,,,,オータス,0
2173,7360001031472,新規,0,2023-01-23,2023-01-23,株式会社令和,,株式会社,沖縄県,豊見城市,字翁長８７０番地２,,47,212,9010223,,,,,,,2023-01-23,1,,,,,レイワ,0
2174,7360003012660,新規,0,2023-01-23,2023-01-23,ｓｈｉｍａｂｕｋｕｒｏ合同会社,,合同会社,沖縄県,島尻郡与那原町,字東浜７８番地の６５エトワール大政２０７,,47,348,9011304,,,,,,,2023-01-23,1,,,,,シマブクロ,0
2175,7360005006776,新規,0,2023-01-23,2023-01-23,ＮＰＯ法人ＫＹＯＵＳＥＩ沖縄,,その他の設立登記法人,沖縄県,那覇市,樋川１丁目６番２１号,,47,201,9000022,,,,,,,2023-01-23,1,,,,,キョウセイオキナワ,0
2189,7430001088274,新規,0,2023-01-23,2023-01-23,０Ｐｏｉｎｔ１Ｐｏｉｎｔ株式会社,,株式会社,北海道,札幌市中央区,南二条西１０丁目１番地２Ｆ,,01,101,0600062,,,,,,,2023-01-23,1,,,,,ゼロポイントワンポイント,0
2190,7430001088282,新規,0,2023-01-23,2023-01-23,株式会社Ｋｉｔｅ,,株式会社,北海道,札幌市白石区,菊水三条１丁目２－１０ルミエールさくら４０３,,01,104,0030803,,,,,,,2023-01-23,1,,,,,カイト,0
2191,7430003014674,新規,0,2023-01-23,2023-01-23,合同会社しあわせ空間,,合同会社,北海道,札幌市白石区,南郷通１６丁目北８番６号,,01,104,0030023,,,,,,,2023-01-23,1,,,,,シアワセクウカン,0
2192,7450001013890,新規,0,2023-01-23,2023-01-23,ホワイトファーム株式会社,,株式会社,北海道,雨竜郡北竜町,字和５５番地１６,,01,437,0782512,,,,,,,2023-01-23,1,,,,,ホワイトファーム,0
2195,7700150113870,新規,0,2023-01-23,2023-01-23,Ｓｈａｎｇｈａｉ　Ｊｉａｎ　Ｍａｎ　ｌｉ　Ｉｎｄｕｓｔｒｉａｌ　Ｃｏ．，ＬＴＤ,,外国会社等,,,,,,,,Ｒｏｏｍ　０３，Ｚｏｎｅ　Ｇ，Ｒｏｏｍ　１６０２，Ｂｕｉｌｄｉｎｇ　１，Ｎｏ．１８８，Ｙｉｎｇｑｉｎｇ　Ｒｏａｄ，Ｑｉｎｇｐｕ　Ｄｉｓｔｒｉｃｔ，Ｓｈａｎｇｈａｉ,,,,,,2023-01-23,1,,,,,シヤンハイジヤンマンリインダストリアルカンパニーリミテツド,0
2196,7700150113887,新規,0,2023-01-23,2023-01-23,ｓｈｅｎｚｈｅｎｓｈｉ　ｙｕｎｍｅｉｓｈｉｙｅ　ｙｏｕｘｉａｎｇｏｎｇｓｉ,,外国会社等,,,,,,,,２０５ｓｈｉ，２ｃｅｎｇ，ｔａｏｙｕａｎｌｕ　４４ｈａｏ，ｈｕａｎｇｔｉａｎｓｈｅｑｕ，ｈａｎｇｃｈｅｎｇｊｉｅｄａｏ，ｂａｏａｎｑｕ，ｓｈｅｎｚｈｅｎｓｈｉ，ｇｕａｎｇｄｏｎｇｓｈｅｎｇ，Ｃｈｉｎａ,,,,,,2023-01-23,1,,,,,シンセンシユンメイシエユウゲンコウシ,0
2200,8010001232369,新規,0,2023-01-23,2023-01-23,ＣＯＧＩＴＯ　ＳＯＦＴＷＡＲＥ株式会社,,株式会社,東京都,千代田区,九段北１丁目９番５号,,13,101,1020073,,,,,,,2023-01-23,1,,,,,コギトソフトウェア,0
2201,8010001232393,新規,0,2023-01-23,2023-01-23,株式会社ＬＯＩ　ａｇｅｎｔ,,株式会社,東京都,中央区,銀座１丁目１２番４号Ｎ＆ＥＢＬＤ．６Ｆ,,13,102,1040061,,,,,,,2023-01-23,1,,,,,エルオーアイエージェント,0
2202,8010001232410,新規,0,2023-01-23,2023-01-23,株式会社インフィニティ,,株式会社,東京都,中央区,日本橋２丁目２番３号ＲＩＳＨＥビルＵＣＦ４階,,13,102,1030027,,,,,,,2023-01-23,1,,,,,インフィニティ,0
2209,8010003039523,新規,0,2023-01-23,2023-01-23,合同会社ブランディングシード,,合同会社,東京都,中央区,銀座６丁目１３番１６号,,13,102,1040061,,,,,,,2023-01-23,1,,,,,ブランディングシード,0
2210,8010005036155,新規,0,2023-01-23,2023-01-23,一般社団法人ＲＯＣＫ,,その他の設立登記法人,東京都,千代田区,丸の内１丁目１１番１号パシフィックセンチュリープレイス丸の内２８階,,13,101,1000005,,,,,,,2023-01-23,1,,,,,ロック,0
2215,8010401172000,新規,0,2023-01-23,2023-01-23,若竹屋酒造株式会社,,株式会社,東京都,港区,赤坂３丁目１６番１１号東海赤坂ビル２階,,13,103,1070052,,,,,,,2023-01-23,1,,,,,ワカタケヤシュゾウ,0
2221,8010403029322,新規,0,2023-01-23,2023-01-23,合同会社ＨＡＮＡＮＡ１７ｔｈ,,合同会社,東京都,港区,芝浦３丁目１４番６号,,13,103,1080023,,,,,,,2023-01-23,1,,,,,ハナナセブンティーン,0
2222,8010403029347,新規,0,2023-01-23,2023-01-23,ＳＢＩＣＭ合同会社,,合同会社,東京都,港区,六本木１丁目６番１号,,13,103,1060032,,,,,,,2023-01-23,1,,,,,エスビーアイシーエム,0
2224,8010501049882,新規,0,2023-01-23,2023-01-23,超夢株式会社,,株式会社,東京都,台東区,清川１丁目２１－５ＷＡＬＬａｐａｒｔｍｅｎｔ５階大区画号室,,13,106,1110022,,,,,,,2023-01-23,1,,,,,チョウム,0
2226,8010503006857,新規,0,2023-01-23,2023-01-23,合同会社ＫＨＡＡＬＩＱトレーディング,,合同会社,東京都,台東区,上野５丁目８－９ＮＰＲビル上野御徒町５０３,,13,106,1100005,,,,,,,2023-01-23,1,,,,,カーリックトレーディング,0
2228,8010601062455,新規,0,2023-01-23,2023-01-23,インターストラテジー株式会社,,株式会社,東京都,江東区,豊洲２丁目５－３,,13,108,1350061,,,,,,,2023-01-23,1,,,,,インターストラテジー,0
2229,8010601062471,新規,0,2023-01-23,2023-01-23,Ｆｏｒｔｕｎａ　Ｓｐｏｒｔｓ株式会社,,株式会社,東京都,江東区,木場３丁目４番１５－３０７号,,13,108,1350042,,,,,,,2023-01-23,1,,,,,フォルトゥナスポーツ,0
2265,8011001152045,新規,0,2023-01-23,2023-01-23,株式会社ＡＭＡＴＥＲＡＳＵ,,株式会社,東京都,渋谷区,恵比寿南１丁目７番８－７０１号,,13,113,1500022,,,,,,,2023-01-23,1,,,,,アマテラス,0
2271,8011101101562,新規,0,2023-01-23,2023-01-23,株式会社ＤＮＰコアライズ,,株式会社,東京都,新宿区,市谷加賀町１丁目１番１号,,13,104,1620062,,,,,,,2023-01-23,1,,,,,ディーエヌピーコアライズ,0
2288,8011403003886,新規,0,2023-01-23,2023-01-23,本町商事合同会社,,合同会社,東京都,板橋区,本町３７番５－３０４号,,13,119,1730001,,,,,,,2023-01-23,1,,,,,ホンチョウショウジ,0
2292,8011501028892,新規,0,2023-01-23,2023-01-23,株式会社クロダ,,株式会社,東京都,北区,十条仲原１丁目３番５－２０６号,,13,117,1140031,,,,,,,2023-01-23,1,,,,,クロダ,0
2295,8011605002488,新規,0,2023-01-23,2023-01-23,一般社団法人放課後キャンパスクラブ,,その他の設立登記法人,東京都,練馬区,石神井町４丁目８－３,,13,120,1770041,,,,,,,2023-01-23,1,,,,,ホウカゴキャンパスクラブ,0
2312,8012801022098,新規,0,2023-01-23,2023-01-23,株式会社エイチイー,,株式会社,東京都,立川市,幸町４丁目２２番地の６、ＯＳビル３Ｆ,,13,202,1900002,,,,,,,2023-01-23,1,,,,,エイチイー,0
2315,8013301050226,新規,0,2023-01-23,2023-01-23,株式会社ラジオロジーワークス,,株式会社,東京都,豊島区,駒込３丁目１６－１７リビオ駒込妙義１０３号室,,13,116,1700003,,,,,,,2023-01-23,1,,,,,ラジオロジーワークス,0
2319,8020001149918,新規,0,2023-01-23,2023-01-23,ＲＩＳＥ情報株式会社,,株式会社,神奈川県,川崎市麻生区,虹ケ丘１丁目１番２３号,,14,137,2150015,,,,,,,2023-01-23,1,,,,,ライズジョウホウ,0
2320,8020001149934,新規,0,2023-01-23,2023-01-23,一山総業株式会社,,株式会社,神奈川県,横浜市泉区,下和泉３丁目２３番３８号,,14,116,2450021,,,,,,,2023-01-23,1,,,,,イチヤマソウギョウ,0
2321,8020003023154,新規,0,2023-01-23,2023-01-23,ＭＩＬＡＮ合同会社,,合同会社,神奈川県,横浜市泉区,中田南２丁目１６番３号,,14,116,2450014,,,,,,,2023-01-23,1,,,,,ミラン,0
2325,8021001077992,新規,0,2023-01-23,2023-01-23,株式会社ＬＯＧ,,株式会社,神奈川県,足柄下郡湯河原町,吉浜１９９６番地８７,,14,384,2590312,,,,,,,2023-01-23,1,,,,,ログ,0
2326,8021001078017,新規,0,2023-01-23,2023-01-23,株式会社グラウンド,,株式会社,神奈川県,三浦郡葉山町,下山口５２０番地の７,,14,301,2400116,,,,,,,2023-01-23,1,,,,,グラウンド,0
2327,8021001078025,新規,0,2023-01-23,2023-01-23,株式会社ヤマモト商事,,株式会社,神奈川県,鎌倉市,津西１丁目２３－８,,14,204,2480034,,,,,,,2023-01-23,1,,,,,ヤマモトショウジ,0
2328,8021005012723,新規,0,2023-01-23,2023-01-23,医療法人社団すいめい,,その他の設立登記法人,神奈川県,小田原市,栄町１丁目５番１７号オゾン３ビル１階,,14,206,2500011,,,,,,,2023-01-23,1,,,,,スイメイ,0
2334,8030003020984,新規,0,2023-01-23,2023-01-23,合同会社ｍｏｉ,,合同会社,埼玉県,川口市,上青木西１丁目６番７－２１８号ブローデン青木町公園,,11,203,3330845,,,,,,,2023-01-23,1,,,,,モイ,0
2335,8030003021009,新規,0,2023-01-23,2023-01-23,コムス合同会社,,合同会社,埼玉県,朝霞市,東弁財３丁目１５－３,,11,227,3510022,,,,,,,2023-01-23,1,,,,,コムス,0
2339,8040001126741,新規,0,2023-01-23,2023-01-23,株式会社ＦＰＮ,,株式会社,千葉県,鎌ケ谷市,西佐津間１丁目１３番１５号,,12,224,2730134,,,,,,,2023-01-23,1,,,,,エフピーエヌ,0
2340,8040001126758,新規,0,2023-01-23,2023-01-23,ＤＭＫ株式会社,,株式会社,千葉県,市川市,若宮１丁目１３番１８号,,12,203,2720812,,,,,,,2023-01-23,1,,,,,ディエムケイ,0
2342,8040003021742,新規,0,2023-01-23,2023-01-23,合同会社Ｓｈｉｎｙａ．Ｋ,,合同会社,千葉県,船橋市,習志野台６丁目１１番１８号,,12,204,2740063,,,,,,,2023-01-23,1,,,,,シンヤケー,0
2343,8040003021750,新規,0,2023-01-23,2023-01-23,合同会社滝滝電気工事,,合同会社,千葉県,千葉市稲毛区,宮野木町１５５１番地６０,,12,103,2630054,,,,,,,2023-01-23,1,,,,,タキタキデンキコウジ,0
2347,8050001052284,新規,0,2023-01-23,2023-01-23,株式会社ハタイ,,株式会社,茨城県,守谷市,美園３丁目１２番地１,,08,224,3020124,,,,,,,2023-01-23,1,,,,,ハタイ,0
2360,8050003007170,新規,0,2023-01-23,2023-01-23,スマイルジョワ合同会社,,合同会社,茨城県,神栖市,石神１４３３番地４,,08,232,3140124,,,,,,,2023-01-23,1,,,,,スマイルジョワ,0
2369,8070001040056,新規,0,2023-01-23,2023-01-23,株式会社ＧＡＴＥ,,株式会社,群馬県,伊勢崎市,国定町１丁目１２１１番地,,10,204,3792221,,,,,,,2023-01-23,1,,,,,ゲート,0
2374,8080401026265,新規,0,2023-01-23,2023-01-23,株式会社北谷電気管理事務所,,株式会社,静岡県,浜松市西区,舞阪町弁天島３３７１番地の１,,22,133,4310214,,,,,,,2023-01-23,1,,,,,キタヤデンキカンリジムショ,0
2376,8080403004698,新規,0,2023-01-23,2023-01-23,ＮＴＬ合同会社,,合同会社,静岡県,浜松市中区,布橋１丁目１７番４０号城北パーソナルハイツ２０７,,22,131,4328012,,,,,,,2023-01-23,1,,,,,エヌティエル,0
2379,8110003004970,新規,0,2023-01-23,2023-01-23,ライブコンサルタント合同会社,,合同会社,新潟県,新潟市中央区,本町通１２番町２７５６番地,,15,103,9518067,,,,,,,2023-01-23,1,,,,,ライブコンサルタント,0
2388,8120001251894,新規,0,2023-01-23,2023-01-23,イセヤホールディングス株式会社,,株式会社,大阪府,大阪市阿倍野区,松崎町４丁目２番４号,,27,119,5450053,,,,,,,2023-01-23,1,,,,,イセヤホールディングス,0
2389,8120001251928,新規,0,2023-01-23,2023-01-23,株式会社バンプラス,,株式会社,大阪府,大阪市西区,北堀江１丁目５番２号四ツ橋新興産ビル１１階－Ａ,,27,106,5500014,,,,,,,2023-01-23,1,,,,,バンプラス,0
2390,8120001251944,新規,0,2023-01-23,2023-01-23,株式会社ＭｅＲＩＳＥ,,株式会社,大阪府,大阪市淀川区,塚本６丁目１０－２４,,27,123,5320026,,,,,,,2023-01-23,1,,,,,ミライズ,0
2395,8120103005042,新規,0,2023-01-23,2023-01-23,合同会社ワンリンク,,合同会社,大阪府,堺市堺区,向陵中町２丁３番１４号,,27,141,5900024,,,,,,,2023-01-23,1,,,,,ワンリンク,0
2405,8130001073545,新規,0,2023-01-23,2023-01-23,株式会社西産,,株式会社,京都府,京都市西京区,大原野上里北ノ町５６６番地５,,26,111,6101121,,,,,,,2023-01-23,1,,,,,ニシサン,0
2409,8130003008474,新規,0,2023-01-23,2023-01-23,Ｂｉｇ‐Ｆａｃｅ合同会社,,合同会社,京都府,京都市下京区,西七条南衣田町７９－１,,26,106,6008884,,,,,,,2023-01-23,1,,,,,ビッグフェイス,0
2410,8130005016681,新規,0,2023-01-23,2023-01-23,一般社団法人しなやかすまい,,その他の設立登記法人,京都府,京都市山科区,御陵下御廟野町２９番地１－２０１,,26,110,6078426,,,,,,,2023-01-23,1,,,,,シナヤカスマイ,0
2417,8140001128835,新規,0,2023-01-23,2023-01-23,株式会社ＮＲ　Ｓｕｐｐｏｒｔ,,株式会社,兵庫県,神戸市中央区,中山手通３丁目１２－６神税ビル３１号,,28,110,6500004,,,,,,,2023-01-23,1,,,,,エヌアールサポート,0
2418,8140001128843,新規,0,2023-01-23,2023-01-23,株式会社ａｑｕｉａｈｏｒａ,,株式会社,兵庫県,伊丹市,森本２丁目１７９番地ルネス・サリート１０７号,,28,207,6640842,,,,,,,2023-01-23,1,,,,,アキアオラ,0
2423,8140003018621,新規,0,2023-01-23,2023-01-23,合同会社楓,,合同会社,兵庫県,神戸市長田区,二葉町９丁目９番１０号ステラコートＩ、２０１号,00129181,28,106,6530042,,,,,,,2023-01-23,1,,,,,カエデ,0
2430,8180001154646,新規,0,2023-01-23,2023-01-23,ブロネート株式会社,,株式会社,愛知県,名古屋市中村区,本陣通４丁目１９Ａ号室,,23,105,4530041,,,,,,,2023-01-23,1,,,,,ブロネート,0
2447,8250001019940,新規,0,2023-01-23,2023-01-23,株式会社樹樹,,株式会社,山口県,岩国市,麻里布町６丁目５番１３号（１０３号室）,,35,208,7400018,,,,,,,2023-01-23,1,,,,,ジュジュ,0
2459,8290001100234,新規,0,2023-01-23,2023-01-23,株式会社ＦｉｎｇｅｒｓＸ,,株式会社,福岡県,福岡市博多区,下呉服町４番３１号４階,,40,132,8120034,,,,,,,2023-01-23,1,,,,,フィンガーズエックス,0
2460,8290001100291,新規,0,2023-01-23,2023-01-23,株式会社アトラクティブ,,株式会社,福岡県,福岡市西区,今宿西１丁目２２番８号,,40,135,8190169,,,,,,,2023-01-23,1,,,,,アトラクティブ,0
2461,8290001100309,新規,0,2023-01-23,2023-01-23,株式会社ＰＯＬＥ,,株式会社,福岡県,大野城市,中３丁目１５番１２号,,40,219,8160906,,,,,,,2023-01-23,1,,,,,ポール,0
2477,8360003012651,新規,0,2023-01-23,2023-01-23,合同会社ＪＤＣ八重瀬ドローンスクール,,合同会社,沖縄県,那覇市,楚辺２丁目２１番１０号,,47,201,9000023,,,,,,,2023-01-23,1,,,,,ジェイディーシーヤエセドローンスクール,0
2498,8430001088281,新規,0,2023-01-23,2023-01-23,株式会社ＯＲＴＥＸ,,株式会社,北海道,札幌市豊平区,美園三条２丁目１－１１－３０２,,01,105,0620003,,,,,,,2023-01-23,1,,,,,オルテックス,0
2507,8700150113886,新規,0,2023-01-23,2023-01-23,ＭＥＬＥ　ＴＥＣＨＮＯＬＯＧＩＥＳ（ＳＨＥＮＺＨＥＮ）ＣＯ．，ＬＴＤ．,,外国会社等,,,,,,,,３ＦＷ，Ｎｏ．２８　Ｃｕｉｊｉｎｇ　Ｒｏａｄ，Ｌｏｎｇｔｉａｎ　Ｓｔｒｅｅｔ，Ｋｅｎｇｚｉ　Ｔｏｗｎ，Ｎａｖｉｇａｔｉｎｇ　Ｍａｉｌｅ　ｌｎｄｕｓｔｒｉａｌ　Ｐａｒｋ，Ｓｈｅｎｚｈｅｎ，Ｐｉｎｇｓｈａｎ　Ｄｉｓｔｒｉｃｔ，Ｇｕａｎｇｄｏｎｇ　Ｐｒｏｖｉｎｃｅ，Ｃｈｉｎａ,,,,,,2023-01-23,1,,,,,メレテクノロジーズシンセンカンパニーリミテッド,0
2513,9010001232376,新規,0,2023-01-23,2023-01-23,セントケアりまいん株式会社,,株式会社,東京都,中央区,京橋２丁目８番７号,,13,102,1040031,,,,,,,2023-01-23,1,,,,,セントケアリマイン,0
2514,9010001232401,新規,0,2023-01-23,2023-01-23,株式会社エイチワイ,,株式会社,東京都,中央区,銀座１丁目１２番４号,,13,102,1040061,,,,,,,2023-01-23,1,,,,,エイチワイ,0
2515,9010001232442,新規,0,2023-01-23,2023-01-23,望有株式会社,,株式会社,東京都,文京区,本郷１丁目３１番１２－１３０２号,,13,105,1130033,,,,,,,2023-01-23,1,,,,,ボウユウ,0
2520,9010003039638,新規,0,2023-01-23,2023-01-23,合同会社マーベリック,,合同会社,東京都,中央区,日本橋１丁目４番１号日本橋一丁目ビルディング,,13,102,1030027,,,,,,,2023-01-23,1,,,,,マーベリック,0
2521,9010003039646,新規,0,2023-01-23,2023-01-23,フラックス・コンサルティング合同会社,,合同会社,東京都,中央区,佃２丁目１－２－１２１４号室,,13,102,1040051,,,,,,,2023-01-23,1,,,,,フラックスコンサルティング,0
2522,9010003039654,新規,0,2023-01-23,2023-01-23,合同会社ＣＨＥＬＳＥＡ,,合同会社,東京都,千代田区,外神田１丁目６番地７号秋葉原センタービル７階,,13,101,1010021,,,,,,,2023-01-23,1,,,,,チェルシー,0
2523,9010003039662,新規,0,2023-01-23,2023-01-23,合同会社シルク,,合同会社,東京都,中央区,日本橋中洲２番１号ミスモ水天宮７０１号,,13,102,1030008,,,,,,,2023-01-23,1,,,,,シルク,0
2525,9010401171991,新規,0,2023-01-23,2023-01-23,ギャラガーブローカージャパン株式会社,,株式会社,東京都,港区,虎ノ門１丁目１７番１号虎ノ門ヒルズビジネスタワー,,13,103,1050001,,,,,,,2023-01-23,1,,,,,ギャラガーブローカージャパン,0
2526,9010401172024,新規,0,2023-01-23,2023-01-23,テンストレントジャパン株式会社,,株式会社,東京都,港区,西新橋１丁目２番９号日比谷セントラルビル１４階,,13,103,1050003,,,,,,,2023-01-23,1,,,,,テンストレントジャパン,0
2528,9010403029354,新規,0,2023-01-23,2023-01-23,合同会社エクスプローラー,,合同会社,東京都,港区,芝大門２丁目７番１－４０６号,,13,103,1050012,,,,,,,2023-01-23,1,,,,,エクスプローラー,0
2529,9010405021706,新規,0,2023-01-23,2023-01-23,チェスナット社会保険労務士法人,,その他の設立登記法人,東京都,港区,北青山３丁目５番１２号,,13,103,1070061,,,,,,,2023-01-23,1,,,,,チェスナット,0
2533,9010503006856,新規,0,2023-01-23,2023-01-23,ＹＡＮＡＫＡ　Ｃ＆Ｏ合同会社,,合同会社,東京都,台東区,谷中７丁目５番９号,,13,106,1100001,,,,,,,2023-01-23,1,,,,,ヤナカシーアンドオー,0
2557,9010901052378,新規,0,2023-01-23,2023-01-23,株式会社Ｌｉｐｌａｓ,,株式会社,東京都,世田谷区,駒沢３丁目２８番１１号,,13,112,1540012,,,,,,,2023-01-23,1,,,,,リプラス,0
2558,9010903007917,新規,0,2023-01-23,2023-01-23,プリントキャンパス合同会社,,合同会社,東京都,世田谷区,駒沢１丁目１７番１１号駒沢ＮＳビル４階,,13,112,1540012,,,,,,,2023-01-23,1,,,,,プリントキャンパス,0
2562,9011001151995,新規,0,2023-01-23,2023-01-23,株式会社ＳＯＷＥＲ,,株式会社,東京都,目黒区,目黒本町５丁目２番１０号,,13,110,1520002,,,,,,,2023-01-23,1,,,,,ソウェル,0
2563,9011001152028,新規,0,2023-01-23,2023-01-23,株式会社ＢｅｅＨｉｖｅ,,株式会社,東京都,目黒区,目黒１丁目２番２０－３０８号レジディア目黒ＩＩ,00129169,13,110,1530063,,,,,,,2023-01-23,1,,,,,ビーハイブ,0
2564,9011001152052,新規,0,2023-01-23,2023-01-23,行智株式会社,,株式会社,東京都,渋谷区,富ヶ谷１丁目１４－１４スタンフォードアネックスビル３Ｆ,,13,113,1510063,,,,,,,2023-01-23,1,,,,,ギョウチ,0
2565,9011001152069,新規,0,2023-01-23,2023-01-23,株式会社ＰＬＵＲＡＬ,,株式会社,東京都,渋谷区,桜丘町１４－６黒松ビル４０２,,13,113,1500031,,,,,,,2023-01-23,1,,,,,プルーラル,0
2568,9011003016123,新規,0,2023-01-23,2023-01-23,ＭｙＵｎｉｐｅｔ合同会社,,合同会社,東京都,渋谷区,道玄坂１丁目１０番８号渋谷道玄坂東急ビル２Ｆ－Ｃ,,13,113,1500043,,,,,,,2023-01-23,1,,,,,マイユニペット,0
2572,9011101101578,新規,0,2023-01-23,2023-01-23,春日イッピン株式会社,,株式会社,東京都,新宿区,西新宿７丁目５番５号ＵＣＦ４０６,,13,104,1600023,,,,,,,2023-01-23,1,,,,,ハルヒイッピン,0
2585,9011501028867,新規,0,2023-01-23,2023-01-23,ホエールテール株式会社,,株式会社,東京都,荒川区,町屋１丁目９番１８号,,13,118,1160001,,,,,,,2023-01-23,1,,,,,ホエールテール,0
2586,9011501028891,新規,0,2023-01-23,2023-01-23,株式会社ＬＨホールディング,,株式会社,東京都,北区,東田端１丁目６番９号根橋ビルＡ３０３,,13,117,1140013,,,,,,,2023-01-23,1,,,,,エルエイチホールディング,0
2594,9011701025961,新規,0,2023-01-23,2023-01-23,株式会社日英工業,,株式会社,東京都,江戸川区,北小岩６丁目１８番４号ＢＲＡＸＡ小岩４Ｂ,,13,123,1330051,,,,,,,2023-01-23,1,,,,,ニチエイコウギョウ,0
2618,9011803005481,新規,0,2023-01-23,2023-01-23,Ｆｐｓ合同会社,,合同会社,東京都,足立区,新田３丁目３６番２１号,,13,121,1230865,,,,,,,2023-01-23,1,,,,,エフピーエス,0
2622,9012403005789,新規,0,2023-01-23,2023-01-23,合同会社のうち,,合同会社,東京都,武蔵野市,吉祥寺本町１丁目２０番１５号東永ビル２Ｆ,,13,203,1800004,,,,,,,2023-01-23,1,,,,,ノウチ,0
2623,9012801022097,新規,0,2023-01-23,2023-01-23,株式会社エナニカ,,株式会社,東京都,日野市,多摩平２丁目３番地の１３リコービル３階,,13,212,1910062,,,,,,,2023-01-23,1,,,,,エナニカ,0
2626,9013301050225,新規,0,2023-01-23,2023-01-23,ＳＧ株式会社,,株式会社,東京都,豊島区,南大塚３丁目５４番３－３０１号,,13,116,1700005,,,,,,,2023-01-23,1,,,,,エスジー,0
2629,9020001149925,新規,0,2023-01-23,2023-01-23,株式会社タオ,,株式会社,神奈川県,横浜市青葉区,美しが丘西１丁目１１番地２９,,14,117,2250001,,,,,,,2023-01-23,1,,,,,タオ,0
2634,9020003023153,新規,0,2023-01-23,2023-01-23,合同会社柿のさとオフィス,,合同会社,神奈川県,川崎市麻生区,上麻生６丁目５番１２号フローラ藤屋２０８号室,,14,137,2150021,,,,,,,2023-01-23,1,,,,,カキノサトオフィス,0
2636,9020005015826,新規,0,2023-01-23,2023-01-23,一般社団法人内糖代研究会,,その他の設立登記法人,神奈川県,川崎市宮前区,菅生ケ丘１番１７－２０３号,,14,136,2160014,,,,,,,2023-01-23,1,,,,,ナイトウタイケンキュウカイ,0
2639,9021001078032,新規,0,2023-01-23,2023-01-23,株式会社ミモザハウス,,株式会社,神奈川県,相模原市中央区,鹿沼台１丁目１３－１１ＣＡＳＡ鹿沼台１０２,,14,152,2520233,,,,,,,2023-01-23,1,,,,,ミモザハウス,0
2646,9030001152044,新規,0,2023-01-23,2023-01-23,株式会社ＭＡＸ　ＶＡＬＵＥ,,株式会社,埼玉県,入間郡三芳町,大字藤久保６２５５番地,,11,324,3540041,,,,,,,2023-01-23,1,,,,,マックスバリュー,0
2650,9030003021008,新規,0,2023-01-23,2023-01-23,シンドラーコンサルティング合同会社,,合同会社,埼玉県,蕨市,南町２丁目３１番２号蕨サンハイツ１１２号室,,11,223,3350003,,,,,,,2023-01-23,1,,,,,シンドラーコンサルティング,0
2655,9040001126716,新規,0,2023-01-23,2023-01-23,株式会社ａｗａｋａｒａ,,株式会社,千葉県,館山市,北条１３１５番地の１０,,12,205,2940045,,,,,,,2023-01-23,1,,,,,アワカラ,0
2660,9040003021741,新規,0,2023-01-23,2023-01-23,合同会社ユキモータース,,合同会社,千葉県,山武市,木原２０３１番地３,,12,237,2891212,,,,,,,2023-01-23,1,,,,,ユキモータース,0
2681,9060001035642,新規,0,2023-01-23,2023-01-23,株式会社松翔工業,,株式会社,栃木県,下都賀郡壬生町,若草町３番３１－２号,,09,361,3210205,,,,,,,2023-01-23,1,,,,,マツショウコウギョウ,0
2684,9070003004792,新規,0,2023-01-23,2023-01-23,合同会社ＦＯＲＨ,,合同会社,群馬県,邑楽郡千代田町,大字舞木２１３９番地の１,,10,523,3700504,,,,,,,2023-01-23,1,,,,,フォーエイチ,0
2694,9090001017943,新規,0,2023-01-23,2023-01-23,株式会社峡東レンタカー,,株式会社,山梨県,甲州市,塩山西広門田２６６番地２,,19,213,4040037,,,,,,,2023-01-23,1,,,,,キョウトウレンタカー,0
2698,9100001036074,新規,0,2023-01-23,2023-01-23,株式会社ＴｒｅｅＬａｂｏ,,株式会社,長野県,上田市,下武石１２３５番地２,,20,203,3860503,,,,,,,2023-01-23,1,,,,,ツリーラボ,0
2714,9120001251893,新規,0,2023-01-23,2023-01-23,ゼアー株式会社,,株式会社,大阪府,大阪市北区,大淀中３丁目６番２１号,,27,127,5310076,,,,,,,2023-01-23,1,,,,,ゼアー,0
2722,9120003023309,新規,0,2023-01-23,2023-01-23,合同会社寿来,,合同会社,大阪府,大阪市中央区,安土町２丁目３番１３号大阪国際ビルディング７Ｆ（トライアングル株式会社内）,,27,128,5410052,,,,,,,2023-01-23,1,,,,,ジュライ,0
2725,9120103005041,新規,0,2023-01-23,2023-01-23,合同会社ＡＣＣＲＥＴＥ,,合同会社,大阪府,堺市南区,美木多上２６６９番地１階,,27,145,5900136,,,,,,,2023-01-23,1,,,,,アクリート,0
2726,9120905006410,新規,0,2023-01-23,2023-01-23,医療法人永心会,,その他の設立登記法人,大阪府,箕面市,白島１丁目２番１５号ラポール白島３階,,27,220,5620012,,,,,,,2023-01-23,1,,,,,エイシンカイ,0
2729,9122001036614,新規,0,2023-01-23,2023-01-23,株式会社山和,,株式会社,大阪府,東大阪市,三島３丁目１４番１４号メゾンルミエール２０５,,27,227,5780966,,,,,,,2023-01-23,1,,,,,サンワ,0
2733,9130001073528,新規,0,2023-01-23,2023-01-23,株式会社ミカーサ,,株式会社,京都府,舞鶴市,字浜１５４８番地３１,,26,202,6250036,,,,,,,2023-01-23,1,,,,,ミカーサ,0
2736,9130003008473,新規,0,2023-01-23,2023-01-23,北前商行合同会社,,合同会社,京都府,京都市左京区,下鴨松ノ木町１１－３３,,26,103,6060816,,,,,,,2023-01-23,1,,,,,キタマエショウコウ,0
2746,9140001128842,新規,0,2023-01-23,2023-01-23,株式会社マルトヨ商事,,株式会社,兵庫県,丹波篠山市,住吉台７８番地５,,28,221,6692231,,,,,,,2023-01-23,1,,,,,マルトヨショウジ,0
2751,9140003018629,新規,0,2023-01-23,2023-01-23,合同会社ｅｃｌｉｐｓｅ,,合同会社,兵庫県,神戸市中央区,中山手通２丁目１７番１７号６０１,,28,110,6500004,,,,,,,2023-01-23,1,,,,,エクリプス,0
2754,9170001017448,新規,0,2023-01-23,2023-01-23,株式会社Ｎｏｕｖｅｌ　ｅｓｐｏｉｒ,,株式会社,和歌山県,紀の川市,桃山町元８７３番地,,30,208,6496122,,,,,,,2023-01-23,1,,,,,ヌーベルエスポア,0
2765,9180001154645,新規,0,2023-01-23,2023-01-23,株式会社カルム,,株式会社,愛知県,海部郡大治町,大字北間島字藤田９６番地の２,,23,424,4901132,,,,,,,2023-01-23,1,,,,,カルム,0
2766,9180001154653,新規,0,2023-01-23,2023-01-23,株式会社朝日建装,,株式会社,愛知県,名古屋市南区,砂口町２２１番地の５,,23,112,4570054,,,,,,,2023-01-23,1,,,,,アサヒケンソウ,0
2772,9180003024739,新規,0,2023-01-23,2023-01-23,合同会社プライズ,,合同会社,愛知県,名古屋市中区,新栄２丁目３番６号,,23,106,4600007,,,,,,,2023-01-23,1,,,,,プライズ,0
2773,9180301037038,新規,0,2023-01-23,2023-01-23,株式会社ＧＷＡＤ,,株式会社,愛知県,みよし市,福田町大沢６番地２ウェルハウス２階,,23,236,4700225,,,,,,,2023-01-23,1,,,,,グワッド,0
2779,9200003005810,新規,0,2023-01-23,2023-01-23,合同会社ａｍｉｃａｌ,,合同会社,岐阜県,中津川市,坂下１６３１番地９,,21,206,5099232,,,,,,,2023-01-23,1,,,,,アミカル,0
2780,9230001019685,新規,0,2023-01-23,2023-01-23,拾花里株式会社,,株式会社,富山県,富山市,婦中町下轡田８１２番地１,,16,201,9392716,,,,,,,2023-01-23,1,,,,,ジュウカリ,0
2782,9240001060977,新規,0,2023-01-23,2023-01-23,株式会社Ｍｏａｎａ,,株式会社,広島県,福山市,三之丸町８番７－９０１号,,34,207,7200066,,,,,,,2023-01-23,1,,,,,モアナ,0
2784,9240003005988,新規,0,2023-01-23,2023-01-23,合同会社トクダ管工,,合同会社,広島県,広島市東区,牛田新町４丁目４番２０－５０１号,,34,102,7320068,,,,,,,2023-01-23,1,,,,,トクダカンコウ,0
2788,9270001008718,新規,0,2023-01-23,2023-01-23,株式会社ＡｆｔｅｒＴｅｃ,,株式会社,鳥取県,鳥取市,片原１丁目１０７番地開発ビル２Ｆ西号室,,31,201,6800023,,,,,,,2023-01-23,1,,,,,アフターテック,0
2795,9290001100290,新規,0,2023-01-23,2023-01-23,Ｂｕｄｄｙ　Ｍｏｖｉｅ株式会社,,株式会社,福岡県,福岡市東区,舞松原２丁目１０番７号,,40,131,8130042,,,,,,,2023-01-23,1,,,,,バディムービー,0
2810,9360001031487,新規,0,2023-01-23,2023-01-23,株式会社ＬｉｔＤａｔａ,,株式会社,沖縄県,島尻郡八重瀬町,字外間１５６－５,,47,362,9010417,,,,,,,2023-01-23,1,,,,,リットデータ,0
2811,9360003012659,新規,0,2023-01-23,2023-01-23,合同会社ＨｅＲｏ企画,,合同会社,沖縄県,那覇市,字真地３２１番地１１コーポｉ２０２,,47,201,9020072,,,,,,,2023-01-23,1,,,,,ヒロキカク,0
2814,9370001049529,新規,0,2023-01-23,2023-01-23,株式会社トラスポ,,株式会社,宮城県,仙台市若林区,一本杉町３５番３号,,04,103,9840828,,,,,,,2023-01-23,1,,,,,トラスポ,0
2822,9390001017145,新規,0,2023-01-23,2023-01-23,株式会社ほけんのＴＡＮＮＯ,,株式会社,山形県,東村山郡中山町,大字向新田２３番地,,06,302,9900404,,,,,,,2023-01-23,1,,,,,ホケンノタンノ,0
2827,9430001088264,新規,0,2023-01-23,2023-01-23,株式会社Ｎｅｏ　Ｅｉｇｈｔ,,株式会社,北海道,札幌市白石区,米里五条１丁目１１番１１ハイツリバーパーク１０１,,01,104,0030875,,,,,,,2023-01-23,1,,,,,ネオエイト,0
2828,9430001088272,新規,0,2023-01-23,2023-01-23,北海道防錆ペイント株式会社,,株式会社,北海道,小樽市,港町６番４号,,01,203,0470007,,,,,,,2023-01-23,1,,,,,ホッカイドウボウセイペイント,0
2833,9490003001731,新規,0,2023-01-23,2023-01-23,合同会社天風,,合同会社,高知県,高知市,上本宮町２３９番地２０コーポホリディ２０１,,39,201,7800946,,,,,,,2023-01-23,1,,,,,テンプウ,0
2835,9500001024732,新規,0,2023-01-23,2023-01-23,株式会社ウーフ,,株式会社,愛媛県,今治市,東村南１丁目３番５０号,,38,202,7991507,,,,,,,2023-01-23,1,,,,,ウーフ,0
2837,9700150113869,新規,0,2023-01-23,2023-01-23,湖南順正達建設有限公司,,外国会社等,東京都,板橋区,板橋２丁目９－９セントラルハイツ板橋５Ｆ－８号,,13,119,1730004,中国湖南省長沙市天心区湘府中路１９８号新南城商務中心Ａ棟１４２２,,,,,,2023-01-23,1,,,,,コナンジユンセイタケンセツ,0
2838,9700150113885,新規,0,2023-01-23,2023-01-23,ｓｈｅｎｚｈｅｎｓｈｉ　ｘｉａｏｙａｍａｏｙｉ　ｙｏｕｘｉａｎｇｏｎｇｓｉ,,外国会社等,,,,,,,,ｌｏｎｇｔｉａｎｊｉｅｄａｏ，ｚｈｕｋｅｎｇｓｈｅｑｕ，ｃｕｉｊｉｎｇｌｕ，２８ｈａｏ　ｍａｉｌｅｄａｓｈａ２０３，ｓｈｅｎｚｈｅｎｓｈｉ，ｐｉｎｇｓｈａｎｑｕ，ｇｕａｎｇｄｏｎｇ，ｃｈｉｎａ,,,,,,2023-01-23,1,,,,,シンセンシシャオヤマオイユウゲンコウシ,0
