sequenceNumber,corporateNumber,process,correct,updateDate,changeDate,name,nameImageId,kind,prefectureName,cityName,streetNumber,addressImageId,prefectureCode,cityCode,postCode,addressOutside,addressOutsideImageId,closeDate,closeCause,successorCorporateNumber,changeCause,assignmentDate,latest,enName,enPrefectureName,enCityName,enAddressOutside,furigana,hihyoji
1,1010001025812,登記記録の閉鎖等,0,2024-08-07,2024-07-25,西川電子部品株式会社,,株式会社,東京都,千代田区,外神田１丁目１０番１１号,,13,101,1010021,,,2024-07-25,清算の結了等,,,2015-10-05,1,,,,,ニシカワデンシブヒン,0
12,1010002013221,登記記録の閉鎖等,0,2024-08-07,2024-08-02,有限会社日信,,有限会社,東京都,千代田区,内幸町１丁目２番２号大阪ビル１号館内,,13,101,1000011,,,2024-08-02,清算の結了等,,,2015-10-05,1,,,,,ニッシン,0
25,1010401122176,登記記録の閉鎖等,0,2024-08-07,2024-07-16,ハートケアライフ東京株式会社,,株式会社,東京都,港区,南青山２丁目２番１５号ウィン青山９４２号室,,13,103,1070062,,,2024-07-16,清算の結了等,,,2015-12-18,1,,,,,ハートケアライフトウキョウ,0
28,1010405013933,登記記録の閉鎖等,0,2024-08-07,2024-07-16,一般社団法人日本カップケーキ協会,,その他の設立登記法人,東京都,港区,南青山２丁目２番１５号,,13,103,1070062,,,2024-07-16,清算の結了等,,,2015-10-05,1,,,,,ニホンカップケーキキョウカイ,0
32,1010602030483,登記記録の閉鎖等,0,2024-08-07,2024-08-06,有限会社重田理研,,有限会社,東京都,墨田区,東向島６丁目１４番１４号,,13,107,1310032,,,2024-08-06,清算の結了等,,,2015-10-05,1,,,,,シゲタリケン,0
39,1010702007605,登記記録の閉鎖等,0,2024-08-07,2024-07-31,有限会社マイテム,,有限会社,埼玉県,朝霞市,岡３丁目２７－３０,,11,227,3510007,,,2024-07-31,清算の結了等,,,2015-10-05,1,,,,,マイテム,0
41,1010803004484,登記記録の閉鎖等,0,2024-08-07,2024-07-30,合同会社Ｂａｐｅｓｔａ１９９４,,合同会社,東京都,大田区,大森西１丁目１５番１７号３０３,,13,111,1430015,,,2024-07-30,清算の結了等,,,2023-03-24,1,,,,,バペスタイチキュウキュウヨン,0
52,1011003006833,登記記録の閉鎖等,0,2024-08-07,2024-07-24,合同会社アヤト企画,,合同会社,東京都,千代田区,富士見１丁目７番８号飯田橋有山ビル２階,,13,101,1020071,,,2024-07-24,清算の結了等,,,2016-06-02,1,,,,,アヤトキカク,0
56,1011101048117,登記記録の閉鎖等,0,2024-08-07,2024-07-23,株式会社トワエ,,株式会社,東京都,新宿区,新宿１丁目３０番１１号,,13,104,1600022,,,2024-07-23,清算の結了等,,,2015-10-05,1,,,,,トワエ,0
63,1011302016707,登記記録の閉鎖等,0,2024-08-07,2024-08-01,有限会社ＳＲＴ,,有限会社,東京都,杉並区,高円寺南３丁目４７番８号,,13,115,1660003,,,2024-08-01,清算の結了等,,,2015-10-05,1,,,,,,0
79,1013102002977,登記記録の閉鎖等,0,2024-08-07,2024-08-05,有限会社トモエ商事,,有限会社,東京都,西多摩郡瑞穂町,長岡３丁目１０番地３,,13,303,1901232,,,2024-08-05,清算の結了等,,,2015-10-05,1,,,,,トモエショウジ,0
90,1021001039495,登記記録の閉鎖等,0,2024-08-07,2024-08-05,株式会社ツーダブルオー,,株式会社,神奈川県,鎌倉市,台５丁目８番２９号,,14,204,2470061,,,2024-08-05,清算の結了等,,,2015-10-05,1,,,,,ツーダブルオー,0
98,1021002053850,登記記録の閉鎖等,0,2024-08-07,2024-08-05,有限会社湘南シティ・ホーム,,有限会社,神奈川県,小田原市,下堀１３８番地３２,,14,206,2500871,,,2024-08-05,清算の結了等,,,2015-10-05,1,,,,,ショウナンシティホーム,0
113,1030005012656,登記記録の閉鎖等,0,2024-08-07,2024-08-01,川口スポーツ用品協同組合,,その他の設立登記法人,埼玉県,川口市,大字蓮沼２９７番地の１８,,11,203,3340064,,,2024-08-01,清算の結了等,,,2015-10-05,1,,,,,カワグチスポーツヨウヒン,0
114,1040001018409,登記記録の閉鎖等,0,2024-08-07,2024-07-23,株式会社ハウスコート,,株式会社,千葉県,船橋市,南三咲２丁目５番２号,,12,204,2740813,,,2024-07-23,清算の結了等,,,2015-10-05,1,,,,,ハウスコート,0
127,1040002038273,登記記録の閉鎖等,0,2024-08-07,2024-07-23,有限会社中村製作所,,有限会社,千葉県,鎌ケ谷市,軽井沢１９９６番地の２３,,12,224,2730131,,,2024-07-23,清算の結了等,,,2015-10-05,1,,,,,ナカムラセイサクショ,0
132,1050001011610,登記記録の閉鎖等,0,2024-08-07,2024-08-01,株式会社鈴商,,株式会社,茨城県,石岡市,山崎１６８８番地１,,08,205,3150125,,,2024-08-01,清算の結了等,,,2015-10-05,1,,,,,スズショウ,0
134,1050001036343,登記記録の閉鎖等,0,2024-08-07,2024-07-31,株式会社グリンデイ,,株式会社,茨城県,稲敷郡阿見町,大字荒川本郷１３４３番地９１,,08,443,3001152,,,2024-07-31,清算の結了等,,,2015-10-05,1,,,,,,0
137,1050002031467,登記記録の閉鎖等,0,2024-08-07,2024-07-31,有限会社緑商会,,有限会社,茨城県,日立市,鹿島町１丁目１０番１号,,08,202,3170071,,,2024-07-31,清算の結了等,,,2015-10-05,1,,,,,ミドリショウカイ,0
139,1060001010140,登記記録の閉鎖等,0,2024-08-07,2024-07-31,株式会社リーフ,,株式会社,栃木県,真岡市,中郷２７５番地,,09,209,3214308,,,2024-07-31,合併による解散等,6030001066965,令和６年７月１日埼玉県北葛飾郡松伏町築比地７９５番地１株式会社ウィーズ（6030001066965）に合併し解散,2015-10-05,1,,,,,リーフ,0
155,1080403003632,登記記録の閉鎖等,0,2024-08-07,2024-08-01,合同会社ＳＫＹ,,合同会社,静岡県,浜松市中央区,初生町１３７２番地の３,,22,138,4338112,,,2024-08-01,清算の結了等,,,2018-03-14,1,,,,,スカイ,0
165,1110003004787,登記記録の閉鎖等,0,2024-08-07,2024-07-29,合同会社リーベンスティル,,合同会社,新潟県,燕市,横田３４１３番地,,15,213,9590111,,,2024-07-29,清算の結了等,,,2022-06-10,1,,,,,リーベンスティル,0
188,1120905006376,登記記録の閉鎖等,0,2024-08-07,2024-07-31,特定非営利活動法人徳子の会,,その他の設立登記法人,大阪府,豊中市,上新田４丁目１６番１－４３号,,27,203,5600085,,,2024-07-31,清算の結了等,,,2022-09-27,1,,,,,トクシノカイ,0
196,1140001038751,登記記録の閉鎖等,0,2024-08-07,2024-08-01,株式会社今酢屋,,株式会社,兵庫県,姫路市,北条口２丁目８５番地ポレスタ－姫路ザ・レジデンス４０７,,28,201,6700935,,,2024-08-01,清算の結了等,,,2015-10-05,1,,,,,イマズヤ,0
200,1140001094497,登記記録の閉鎖等,0,2024-08-07,2024-07-31,株式会社佐藤板金工業,,株式会社,兵庫県,尼崎市,武庫之荘１丁目２０番４号,,28,202,6610035,,,2024-07-31,清算の結了等,,,2015-10-05,1,,,,,サトウバンキンコウギョウ,0
205,1140002039708,登記記録の閉鎖等,0,2024-08-07,2024-08-01,赤松金物有限会社,,有限会社,兵庫県,尼崎市,東本町３丁目６５番地,,28,202,6600824,,,2024-08-01,清算の結了等,,,2015-10-05,1,,,,,アカマツカナモノ,0
206,1140002065092,登記記録の閉鎖等,0,2024-08-07,2024-08-02,有限会社スワンズ,,有限会社,兵庫県,伊丹市,北野６丁目１１番,,28,207,6640007,,,2024-08-02,清算の結了等,,,2015-10-05,1,,,,,,0
224,1180002020523,登記記録の閉鎖等,0,2024-08-07,2024-07-22,有限会社土居運送,,有限会社,愛知県,名古屋市熱田区,一番２丁目７番２５号,,23,109,4560053,,,2024-07-22,清算の結了等,,,2015-10-05,1,,,,,ドイウンソウ,0
226,1180002072390,登記記録の閉鎖等,0,2024-08-07,2024-07-23,有限会社山中製陶,,有限会社,愛知県,瀬戸市,西拝戸町１９番地,,23,204,4890848,,,2024-07-23,清算の結了等,,,2015-10-05,1,,,,,ヤマナカセイトウ,0
227,1180003000227,登記記録の閉鎖等,0,2024-08-07,2024-07-29,合名会社大曾根モータース商会,,合名会社,愛知県,名古屋市千種区,汁谷町１０１番地,,23,101,4640013,,,2024-07-29,清算の結了等,,,2015-10-05,1,,,,,オオゾネモータースショウカイ,0
229,1180005019471,登記記録の閉鎖等,0,2024-08-07,2024-07-24,一般社団法人メディカルヒューマンリソース協会,,その他の設立登記法人,愛知県,名古屋市中村区,名駅３丁目２５番９号堀内ビル５階,,23,105,4500002,,,2024-07-24,清算の結了等,,,2021-10-11,1,,,,,メディカルヒューマンリソースキョウカイ,0
230,1180301024002,登記記録の閉鎖等,0,2024-08-07,2024-08-05,城南新建材株式会社,,株式会社,愛知県,新城市,富岡字門原野１７９番地,,23,221,4411335,,,2024-08-05,清算の結了等,,,2015-10-05,1,,,,,ジョウナンシンケンザイ,0
231,1180301031642,登記記録の閉鎖等,0,2024-08-07,2024-08-02,クリアスタッフ株式会社,,株式会社,愛知県,知立市,谷田町西１丁目３番地８,,23,225,4720014,,,2024-08-02,清算の結了等,,,2018-06-29,1,,,,,クリアスタッフ,0
237,1180305009305,登記記録の閉鎖等,0,2024-08-07,2024-07-31,一般社団法人申命会,,その他の設立登記法人,愛知県,岡崎市,魚町１丁目９番地,,23,202,4440058,,,2024-07-31,清算の結了等,,,2022-02-22,1,,,,,シンメイカイ,0
246,1240002047378,登記記録の閉鎖等,0,2024-08-07,2024-08-05,有限会社グレイス,,有限会社,広島県,福山市,駅家町江良３８番地の１,,34,207,7210000,,,2024-08-05,清算の結了等,,,2015-10-05,1,,,,,グレイス,0
253,1290001080994,登記記録の閉鎖等,0,2024-08-07,2024-07-01,ＳＣＭ株式会社,,株式会社,福岡県,福岡市中央区,桜坂３丁目４番２８号ハイムニュー桜坂２Ｆ,,40,133,8100024,,,2024-07-01,清算の結了等,,,2018-04-04,1,,,,,エスシーエム,0
269,1330002003925,登記記録の閉鎖等,0,2024-08-07,2024-07-30,有限会社ゴールドアングル,,有限会社,熊本県,熊本市北区,池田３丁目１２番５９号,,43,105,8600082,,,2024-07-30,清算の結了等,,,2015-10-05,1,,,,,ゴールドアングル,0
273,1350002009813,登記記録の閉鎖等,0,2024-08-07,2024-07-31,有限会社三輪青果,,有限会社,宮崎県,児湯郡都農町,大字川北１７５２３番地１７,,45,406,8891201,,,2024-07-31,清算の結了等,,,2015-10-05,1,,,,,ミワセイカ,0
276,1360005005230,登記記録の閉鎖等,0,2024-08-07,2024-08-02,一般社団法人Ｏｎｅｓ　Ｗｏｒｋ,,その他の設立登記法人,沖縄県,沖縄市,中央１丁目３－５、１階,,47,211,9040004,,,2024-08-02,清算の結了等,,,2015-11-13,1,,,,,ワンズワーク,0
290,1390001014711,登記記録の閉鎖等,0,2024-08-07,2024-07-24,株式会社庄交価値創造研究所,,株式会社,山形県,鶴岡市,錦町２番６０号,,06,203,9970031,,,2024-07-24,清算の結了等,,,2016-12-07,1,,,,,ショウコウカチソウゾウケンキュウジョ,0
294,1410002006218,登記記録の閉鎖等,0,2024-08-07,2024-07-31,船舶食糧商有限会社天野商店,,有限会社,秋田県,男鹿市,船川港船川字元浜町２２１番地の２,,05,206,0100511,,,2024-07-31,清算の結了等,,,2015-10-05,1,,,,,センパクショクリョウショウアマノショウテン,0
297,1420002007883,登記記録の閉鎖等,0,2024-08-07,2024-07-31,有限会社寺沢電器,,有限会社,青森県,八戸市,根城７丁目１番１号,,02,203,0391166,,,2024-07-31,清算の結了等,,,2015-10-05,1,,,,,テラサワデンキ,0
300,1430001085137,登記記録の閉鎖等,0,2024-08-07,2024-08-01,スノーフレーク株式会社,,株式会社,北海道,札幌市中央区,南二条西９丁目１番地２,,01,101,0600062,,,2024-08-01,合併による解散等,8430001073176,令和６年８月１日札幌市中央区南二条西九丁目１－２株式会社賃貸生活（8430001073176）に合併し解散,2021-10-08,1,,,,,スノーフレーク,0
306,1430003008252,登記記録の閉鎖等,0,2024-08-07,2024-07-31,合同会社ベルガモ,,合同会社,北海道,札幌市中央区,南十四条西９丁目３番２９－１４０３号,,01,101,0640914,,,2024-07-31,合併による解散等,5430001063774,令和６年７月３１日札幌市中央区南十四条西九丁目３番２９－１４０３号アラヤエステート株式会社（5430001063774）に合併し解散,2017-03-07,1,,,,,ベルガモ,0
313,1470002001782,登記記録の閉鎖等,0,2024-08-07,2024-07-31,有限会社カガワエキスプレスサービス,,有限会社,香川県,高松市,中間町６０７番地１,,37,201,7618043,,,2024-07-31,清算の結了等,,,2015-10-05,1,,,,,カガワエキスプレスサービス,0
316,1490005000739,登記記録の閉鎖等,0,2024-08-07,2024-08-02,医療法人小谷会,,その他の設立登記法人,高知県,高知市,吉田町２番８号,,39,201,7800048,,,2024-08-02,清算の結了等,,,2015-10-05,1,,,,,オダニカイ,0
320,2010001109804,登記記録の閉鎖等,0,2024-08-07,2024-07-17,株式会社プリズミル,,株式会社,東京都,中央区,東日本橋２丁目２８番地４号,,13,102,1030004,,,2024-07-17,清算の結了等,,,2015-10-05,1,,,,,プリズミル,0
344,2010401166255,登記記録の閉鎖等,0,2024-08-07,2024-07-08,株式会社スターリニア,,株式会社,東京都,港区,六本木７丁目７番７号トライセブンロッポンギ８階,,13,103,1060032,,,2024-07-08,清算の結了等,,,2022-03-17,1,,,,,スターリニア,0
369,2011005006756,登記記録の閉鎖等,0,2024-08-07,2024-07-17,一般社団法人国際アートセラピー色彩心理協会,,その他の設立登記法人,東京都,渋谷区,富ヶ谷２丁目３５番１５号,,13,113,1510063,,,2024-07-17,清算の結了等,,,2016-04-26,1,,,,,コクサイアートセラピーシキサイシンリキョウカイ,0
382,2011701011324,登記記録の閉鎖等,0,2024-08-07,2024-08-01,株式会社鈴木組,,株式会社,東京都,江戸川区,南葛西２丁目１番１号,,13,123,1340085,,,2024-08-01,清算の結了等,,,2015-10-05,1,,,,,スズキグミ,0
396,2012801016584,登記記録の閉鎖等,0,2024-08-07,2024-08-02,株式会社ＳＧ都市建築設計,,株式会社,東京都,国立市,富士見台３丁目９番地の８グリーンコーポ国立３０８号,,13,215,1860003,,,2024-08-02,清算の結了等,,,2015-10-05,1,,,,,,0
397,2012801017211,登記記録の閉鎖等,0,2024-08-07,2024-08-01,株式会社貴藤ホールディングス,,株式会社,東京都,昭島市,拝島町３丁目１番３号,,13,207,1960002,,,2024-08-01,合併による解散等,1012802003376,令和６年８月１日東京都昭島市拝島町三丁目１番３号株式会社貴藤（1012802003376）に合併し解散,2016-05-02,1,,,,,タカフジホールディングス,0
411,2020002010753,登記記録の閉鎖等,0,2024-08-07,2024-07-17,有限会社皆川カメラ店,,有限会社,神奈川県,横浜市磯子区,久木町２３番１７号,,14,107,2350015,,,2024-07-17,清算の結了等,,,2015-10-05,1,,,,,ミナガワカメラテン,0
415,2020003001330,登記記録の閉鎖等,0,2024-08-07,2024-07-17,合資会社大黒屋旅館,,合資会社,神奈川県,横浜市西区,戸部本町４２番１号,,14,103,2200041,,,2024-07-17,清算の結了等,,,2015-10-05,1,,,,,ダイコクヤリョカン,0
417,2021001017186,登記記録の閉鎖等,0,2024-08-07,2024-08-05,株式会社ソフトクラフツ,,株式会社,神奈川県,相模原市緑区,下九沢２３７１番地１９,,14,151,2520134,,,2024-08-05,清算の結了等,,,2015-10-05,1,,,,,ソフトクラフツ,0
419,2021001054790,登記記録の閉鎖等,0,2024-08-07,2024-08-05,株式会社大和東,,株式会社,神奈川県,大和市,大和東２丁目９番１７号,,14,213,2420017,,,2024-08-05,清算の結了等,,,2015-10-05,1,,,,,ヤマトヒガシ,0
420,2021001065607,登記記録の閉鎖等,0,2024-08-07,2024-08-05,株式会社ジーテック,,株式会社,神奈川県,厚木市,戸室１丁目２番１１号,,14,212,2430031,,,2024-08-05,清算の結了等,,,2018-09-11,1,,,,,ジーテック,0
433,2030001073949,登記記録の閉鎖等,0,2024-08-07,2024-08-01,株式会社エクステリア・アサノ,,株式会社,埼玉県,川口市,戸塚境町３３番２５号,,11,203,3330806,,,2024-08-01,清算の結了等,,,2015-10-05,1,,,,,エクステリアアサノ,0
447,2030003015379,登記記録の閉鎖等,0,2024-08-07,2024-07-17,Ｌｉｆｅｓｉｚｅ合同会社,,合同会社,埼玉県,熊谷市,西別府１７２２番地１,,11,202,3600857,,,2024-07-17,清算の結了等,,,2020-06-15,1,,,,,ライフサイズ,0
449,2040001036756,登記記録の閉鎖等,0,2024-08-07,2024-07-24,株式会社プロフェッショナルボウリングアカデミー,,株式会社,千葉県,松戸市,常盤平西窪町１１番地３２,,12,207,2702266,,,2024-07-24,清算の結了等,,,2015-10-05,1,,,,,プロフェッショナルボウリングアカデミー,0
457,2040002053016,登記記録の閉鎖等,0,2024-08-07,2024-07-24,有限会社ケアサポートまこと,,有限会社,千葉県,松戸市,二十世紀が丘梨元町１０４番地,,12,207,2710083,,,2024-07-24,清算の結了等,,,2015-10-05,1,,,,,ケアサポートマコト,0
465,2050002016384,登記記録の閉鎖等,0,2024-08-07,2024-07-31,有限会社エムエスジェイ,,有限会社,茨城県,石岡市,東石岡４丁目１１番２７号,,08,205,3150037,,,2024-07-31,清算の結了等,,,2015-10-05,1,,,,,エムエスジェイ,0
481,2120001019760,登記記録の閉鎖等,0,2024-08-07,2024-08-05,大村電機株式会社,,株式会社,大阪府,大阪市平野区,西脇１丁目１６番２４号,,27,126,5470035,,,2024-08-05,清算の結了等,,,2015-10-05,1,,,,,オオムラデンキ,0
510,2130002016780,登記記録の閉鎖等,0,2024-08-07,2024-07-31,有限会社立美家,,有限会社,京都府,京都市中京区,三条通河原町東入中島町８４の２,,26,104,6048004,,,2024-07-31,清算の結了等,,,2015-10-05,1,,,,,タツミヤ,0
511,2130003005080,登記記録の閉鎖等,0,2024-08-07,2024-08-06,Ｅ－Ｇ３合同会社,,合同会社,京都府,京都市伏見区,舞台町３５番地２ディオ・フェルティ丹波橋右芳館２０７号,,26,109,6128338,,,2024-08-06,清算の結了等,,,2017-06-05,1,,,,,イージーサン,0
514,2140001074382,登記記録の閉鎖等,0,2024-08-07,2024-08-02,株式会社とよえい,,株式会社,兵庫県,宝塚市,武庫山２丁目１９番１－６０４号,,28,214,6650005,,,2024-08-02,合併による解散等,9120001042005,令和６年８月１日大阪市西区本田二丁目６番１０号株式会社ＤＡＩＳＥＮ（9120001042005）に合併し解散,2015-10-05,1,,,,,トヨエイ,0
524,2170005005934,登記記録の閉鎖等,0,2024-08-07,2024-08-05,一般社団法人和歌山県医薬品登録販売者協会,,その他の設立登記法人,和歌山県,和歌山市,新在家１７０番地４５,,30,201,6408345,,,2024-08-05,清算の結了等,,,2015-10-05,1,,,,,ワカヤマケンイヤクヒントウロクハンバイシャキョウカイ,0
526,2180001113657,登記記録の閉鎖等,0,2024-08-07,2024-07-26,株式会社かとう新聞店,,株式会社,愛知県,稲沢市,一色川俣町１４９番地５,,23,220,4928366,,,2024-07-26,清算の結了等,,,2015-10-05,1,,,,,カトウシンブンテン,0
535,2180002054066,登記記録の閉鎖等,0,2024-08-07,2024-07-26,有限会社シンセティック,,有限会社,愛知県,名古屋市北区,光音寺町１丁目１００番地,,23,103,4620053,,,2024-07-26,清算の結了等,,,2015-10-05,1,,,,,シンセティック,0
544,2180303003622,登記記録の閉鎖等,0,2024-08-07,2024-08-05,合同会社とも,,合同会社,愛知県,西尾市,山下町八幡山１０２番地,,23,213,4450877,,,2024-08-05,清算の結了等,,,2016-05-18,1,,,,,トモ,0
549,2200001023795,登記記録の閉鎖等,0,2024-08-07,2024-08-01,株式会社双美屋,,株式会社,岐阜県,恵那市,大井町２９１番地の１６,,21,210,5097201,,,2024-08-01,清算の結了等,,,2015-10-05,1,,,,,フタミヤ,0
550,2200001035469,登記記録の閉鎖等,0,2024-08-07,2024-08-02,株式会社Ｒｉｒｕ　Ｎａｒａ,,株式会社,岐阜県,関市,肥田瀬２００番地１３,,21,205,5013911,,,2024-08-02,清算の結了等,,,2018-08-16,1,,,,,リルナラ,0
553,2210002014066,登記記録の閉鎖等,0,2024-08-07,2024-08-02,有限会社キダ,,有限会社,福井県,大飯郡高浜町,宮崎第４６号３１番地,,18,481,9192225,,,2024-08-02,清算の結了等,,,2015-10-05,1,,,,,キダ,0
561,2240001044672,登記記録の閉鎖等,0,2024-08-07,2024-08-01,株式会社ＨＫ企画,,株式会社,広島県,東広島市,西条町寺家７９６７番地１,,34,212,7390041,,,2024-08-01,合併による解散等,9240001022589,令和６年８月１日広島県東広島市八本松西一丁目３番４号株式会社伯和（9240001022589）に合併し解散,2015-10-05,1,,,,,エイチケイキカク,0
564,2240001053830,登記記録の閉鎖等,0,2024-08-07,2024-08-06,株式会社バックキャスト,,株式会社,広島県,広島市安佐南区,中筋３丁目８番１０号,,34,105,7310122,,,2024-08-06,清算の結了等,,,2019-01-21,1,,,,,バックキャスト,0
578,2290802014381,登記記録の閉鎖等,0,2024-08-07,2024-08-01,有限会社フロンティアＴ・Ｔ・Ｋ,,有限会社,山口県,下関市,秋根上町１丁目８番７号,,35,201,7510878,,,2024-08-01,清算の結了等,,,2015-10-05,1,,,,,フロンティアティーティーケー,0
583,2330001019046,登記記録の閉鎖等,0,2024-08-07,2024-07-25,株式会社４つ葉,,株式会社,熊本県,菊池郡菊陽町,大字原水１３２４番地１５,,43,404,8691102,,,2024-07-25,清算の結了等,,,2015-10-05,1,,,,,ヨツバ,0
591,2360002011536,登記記録の閉鎖等,0,2024-08-07,2024-08-02,有限会社ガキヤコンタクトセンター,,有限会社,沖縄県,沖縄市,胡屋１丁目１番６号,,47,211,9040021,,,2024-08-02,清算の結了等,,,2015-10-05,1,,,,,ガキヤコンタクトセンター,0
603,2390001006071,登記記録の閉鎖等,0,2024-08-07,2024-07-24,株式会社池商,,株式会社,山形県,酒田市,東大町２丁目２５番地の１２,,06,204,9980851,,,2024-07-24,清算の結了等,,,2015-10-05,1,,,,,イケショウ,0
604,2390001006542,登記記録の閉鎖等,0,2024-08-07,2024-07-25,株式会社本間卯吉商店,,株式会社,山形県,酒田市,卸町４番地の４,,06,204,9980823,,,2024-07-25,清算の結了等,,,2015-10-05,1,,,,,ホンマウキチショウテン,0
628,2500002013534,登記記録の閉鎖等,0,2024-08-07,2024-07-31,有限会社ほどの,,有限会社,愛媛県,八幡浜市,銀座通七丁目１４１０番地,,38,204,7960088,,,2024-07-31,清算の結了等,,,2015-10-05,1,,,,,ホドノ,0
636,3010001155376,登記記録の閉鎖等,0,2024-08-07,2024-07-24,山佐ＴＯＭ４リース株式会社,,株式会社,東京都,千代田区,丸の内３丁目１番１号東京共同会計事務所内,,13,101,1000005,,,2024-07-24,清算の結了等,,,2015-10-05,1,,,,,ヤマサティーオーエムヨンリース,0
641,3010001188995,登記記録の閉鎖等,0,2024-08-07,2024-07-24,アトリア株式会社,,株式会社,東京都,中央区,日本橋３丁目２番１４号,,13,102,1030027,,,2024-07-24,清算の結了等,,,2018-01-17,1,,,,,アトリア,0
642,3010001226400,登記記録の閉鎖等,0,2024-08-07,2024-07-23,株式会社ｎｅｘｔ　ｈｙｂｒｉｄ,,株式会社,東京都,新宿区,高田馬場１丁目２８番７号,,13,104,1690075,,,2024-07-23,清算の結了等,,,2022-05-13,1,,,,,ネクストハイブリッド,0
648,3010003018283,登記記録の閉鎖等,0,2024-08-07,2024-07-24,合同会社観光総合研究所,,合同会社,東京都,中央区,日本橋人形町１丁目２番１２号,,13,102,1030013,,,2024-07-24,清算の結了等,,,2015-10-05,1,,,,,カンコウソウゴウケンキュウジョ,0
656,3010401009306,登記記録の閉鎖等,0,2024-08-07,2024-07-16,株式会社ケイフローリスト,,株式会社,東京都,港区,赤坂８丁目６番２７号,,13,103,1070052,,,2024-07-16,清算の結了等,,,2015-10-05,1,,,,,ケイフローリスト,0
665,3010501002383,登記記録の閉鎖等,0,2024-08-07,2024-08-01,株式会社アールエフイー,,株式会社,東京都,世田谷区,代田３丁目２１番９号,,13,112,1550033,,,2024-08-01,合併による解散等,7010001159274,令和６年８月１日東京都世田谷区代田三丁目２１番９号株式会社ＡＦＥ．（7010001159274）に合併し解散,2015-10-05,1,,,,,アールエフイー,0
675,3010605001612,登記記録の閉鎖等,0,2024-08-07,2024-08-06,特定非営利活動法人子育て支援おやこ,,その他の設立登記法人,東京都,江東区,猿江１丁目１８番９－２０４号,,13,108,1350003,,,2024-08-06,清算の結了等,,,2015-10-05,1,,,,,コソダテシエンオヤコ,0
691,3011002018704,登記記録の閉鎖等,0,2024-08-07,2024-07-18,有限会社西上エンタープライズ,,有限会社,東京都,渋谷区,代々木１丁目５７番２号,,13,113,1510053,,,2024-07-18,清算の結了等,,,2015-10-05,1,,,,,ニシガミエンタープライズ,0
692,3011003008869,登記記録の閉鎖等,0,2024-08-07,2024-07-30,合同会社ネコキカク,,合同会社,埼玉県,富士見市,ふじみ野東１丁目１番地３－１００１,,11,235,3540036,,,2024-07-30,清算の結了等,,,2018-06-12,1,,,,,ネコキカク,0
695,3011101028851,登記記録の閉鎖等,0,2024-08-07,2024-07-25,株式会社福華,,株式会社,東京都,中央区,銀座８丁目１５番２号銀座ＣＯＭビル１２階,,13,102,1040061,,,2024-07-25,清算の結了等,,,2015-10-05,1,,,,,フクハナ,0
706,3011503003667,登記記録の閉鎖等,0,2024-08-07,2024-08-01,合同会社白井,,合同会社,東京都,北区,赤羽南１丁目１５番１２－３０２号,,13,117,1150044,,,2024-08-01,清算の結了等,,,2018-06-27,1,,,,,シライ,0
716,3012701010967,登記記録の閉鎖等,0,2024-08-07,2024-07-29,株式会社東海カレンダー埼玉,,株式会社,東京都,清瀬市,松山１丁目２８番６号センチュリー清瀬４０１,,13,221,2040022,,,2024-07-29,清算の結了等,,,2015-10-05,1,,,,,トウカイカレンダーサイタマ,0
725,3013202001183,登記記録の閉鎖等,0,2024-08-07,2024-07-16,株式会社ＱＪ,,株式会社,東京都,港区,六本木５丁目１５番１２,,13,103,1060032,,,2024-07-16,清算の結了等,,,2015-10-05,1,,,,,キュウジェイ,0
728,3020001049932,登記記録の閉鎖等,0,2024-08-07,2024-07-17,横浜ネットワーク株式会社,,株式会社,神奈川県,横浜市都筑区,早渕１丁目５番１３－３０２号,,14,118,2240025,,,2024-07-17,清算の結了等,,,2015-10-05,1,,,,,ヨコハマネットワーク,0
736,3021001007450,登記記録の閉鎖等,0,2024-08-07,2024-08-05,峯村ホーム株式会社,,株式会社,神奈川県,茅ヶ崎市,南湖２丁目６番３８号,,14,207,2530061,,,2024-08-05,清算の結了等,,,2015-10-05,1,,,,,ミネムラホーム,0
751,3030001078402,登記記録の閉鎖等,0,2024-08-07,2024-07-31,株式会社フナキ,,株式会社,埼玉県,川口市,中青木２丁目３番１５号,,11,203,3320032,,,2024-07-31,清算の結了等,,,2015-10-05,1,,,,,フナキ,0
768,3040001105353,登記記録の閉鎖等,0,2024-08-07,2024-07-22,株式会社創和クリエイト,,株式会社,千葉県,船橋市,本郷町４１３－３ＣＫ西船橋１Ｆ,,12,204,2730033,,,2024-07-22,清算の結了等,,,2018-07-09,1,,,,,ソウワクリエイト,0
785,3080102002917,登記記録の閉鎖等,0,2024-08-07,2024-08-02,有限会社花村精肉店,,有限会社,静岡県,沼津市,平町１１番１４号,,22,203,4100036,,,2024-08-02,清算の結了等,,,2015-10-05,1,,,,,ハナムラセイニクテン,0
791,3080401004102,登記記録の閉鎖等,0,2024-08-07,2024-07-31,浜松自動車工業株式会社,,株式会社,静岡県,浜松市中央区,和光町２２２番地,,22,138,4311101,,,2024-07-31,清算の結了等,,,2015-10-05,1,,,,,ハママツジドウシャコウギョウ,0
795,3080403003671,登記記録の閉鎖等,0,2024-08-07,2024-08-01,合同会社ＳＫＬ,,合同会社,静岡県,浜松市中央区,初生町１３７２番地の３,,22,138,4338112,,,2024-08-01,清算の結了等,,,2018-06-05,1,,,,,エスケーエル,0
797,3100001013723,登記記録の閉鎖等,0,2024-08-07,2024-07-19,長野特機株式会社,,株式会社,長野県,松本市,大字島立３７２６番地７,,20,202,3900852,,,2024-07-19,清算の結了等,,,2015-10-05,1,,,,,ナガノトッキ,0
800,3100003001412,登記記録の閉鎖等,0,2024-08-07,2024-08-01,合同会社リアル,,合同会社,長野県,上田市,下丸子６０２番地,,20,203,3860406,,,2024-08-01,清算の結了等,,,2015-10-05,1,,,,,リアル,0
804,3110001033142,登記記録の閉鎖等,0,2024-08-07,2024-07-31,株式会社一代サービス,,株式会社,新潟県,長岡市,信濃２丁目５番３６号,,15,202,9400098,,,2024-07-31,清算の結了等,,,2018-04-10,1,,,,,イチダイサービス,0
822,3120003009585,登記記録の閉鎖等,0,2024-08-07,2024-07-31,合同会社日本ベローズアクチュエータ,,合同会社,兵庫県,西宮市,名塩南台２丁目１５番地５,,28,204,6691132,,,2024-07-31,清算の結了等,,,2015-10-05,1,,,,,ニホンベローズアクチュエータ,0
831,3120101066009,登記記録の閉鎖等,0,2024-08-07,2024-08-01,株式会社はたまお,,株式会社,大阪府,堺市中区,深井畑山町２５００番地,,27,142,5998248,,,2024-08-01,清算の結了等,,,2022-08-02,1,,,,,ハタマオ,0
837,3130001046530,登記記録の閉鎖等,0,2024-08-07,2024-08-05,オアシス株式会社,,株式会社,兵庫県,神戸市東灘区,御影２丁目１５番１４号,,28,101,6580047,,,2024-08-05,合併による解散等,4120001112877,令和６年７月３１日大阪市北区曽根崎二丁目１２番７号リーガルスクエア株式会社（4120001112877）に合併し解散,2015-10-05,1,,,,,オアシス,0
838,3130001054640,登記記録の閉鎖等,0,2024-08-07,2024-08-01,キョート・パラマウント・ギャランティー株式会社,,株式会社,京都府,京都市南区,上鳥羽堀子町８１番４,,26,107,6018181,,,2024-08-01,合併による解散等,5130001006276,令和６年８月１日京都市南区上鳥羽堀子町８１番地４Ｋ・Ｐ・Ｇ株式会社（5130001006276）に合併し解散,2015-10-05,1,,,,,キョートパラマウントギャランティー,0
843,3140001118048,登記記録の閉鎖等,0,2024-08-07,2024-08-02,ＡＳ設計株式会社,,株式会社,兵庫県,明石市,藤江２０３２－５ラ・フラタニテ２０９,,28,203,6730044,,,2024-08-02,清算の結了等,,,2020-07-20,1,,,,,エーエスセッケイ,0
856,3180001083362,登記記録の閉鎖等,0,2024-08-07,2024-07-25,ニチカ産業株式会社,,株式会社,愛知県,一宮市,貴船１丁目９番１６号,,23,203,4910037,,,2024-07-25,清算の結了等,,,2015-10-05,1,,,,,ニチカサンギョウ,0
857,3180001095003,登記記録の閉鎖等,0,2024-08-07,2024-07-26,株式会社東海速記クラブ,,株式会社,愛知県,東海市,富木島町北島１７番地,,23,222,4760011,,,2024-07-26,清算の結了等,,,2015-10-05,1,,,,,トウカイソッキクラブ,0
870,3190001025479,登記記録の閉鎖等,0,2024-08-07,2024-08-06,株式会社裕工業,,株式会社,三重県,桑名市,大字桑部１２７１番地,,24,205,5110923,,,2024-08-06,清算の結了等,,,2018-04-19,1,,,,,ヒロコウギョウ,0
873,3190002006718,登記記録の閉鎖等,0,2024-08-07,2024-08-02,有限会社土田左官工業所,,有限会社,三重県,鈴鹿市,北長太町１８４番地の１,,24,207,5130049,,,2024-08-02,清算の結了等,,,2015-10-05,1,,,,,ツチダサカンコウギョウショ,0
885,3250001003098,登記記録の閉鎖等,0,2024-08-07,2024-07-31,大黒モータース株式会社,,株式会社,山口県,宇部市,大字西岐波４４６３番地の２４,,35,202,7550151,,,2024-07-31,清算の結了等,,,2015-10-05,1,,,,,オオグロモータース,0
898,3310002014914,登記記録の閉鎖等,0,2024-08-07,2024-07-30,有限会社池田測量設計,,有限会社,長崎県,諫早市,小川町４６番地２,,42,204,8540053,,,2024-07-30,清算の結了等,,,2015-10-05,1,,,,,イケダソクリョウセッケイ,0
903,3330005006816,登記記録の閉鎖等,0,2024-08-07,2024-07-29,医療法人堀田会,,その他の設立登記法人,熊本県,天草市,船之尾町８番３２号,,43,215,8630017,,,2024-07-29,清算の結了等,,,2015-10-05,1,,,,,ホリタカイ,0
907,3340005003036,登記記録の閉鎖等,0,2024-08-07,2024-08-01,加治木酒販協同組合,,その他の設立登記法人,鹿児島県,姶良市,加治木町港町１３１番地１９,,46,225,8995221,,,2024-08-01,合併による解散等,6340005006671,令和６年８月１日鹿児島県鹿屋市新栄町１４番２８号にしきえ酒販協同組合（6340005006671）に合併し解散,2015-10-05,1,,,,,カジキシュハン,0
908,3350001006719,登記記録の閉鎖等,0,2024-08-07,2024-07-31,木村鐵化株式会社,,株式会社,宮崎県,延岡市,大武町３９番地１９,,45,203,8820024,,,2024-07-31,清算の結了等,,,2015-10-05,1,,,,,キムラテッカ,0
914,3370003003472,登記記録の閉鎖等,0,2024-08-07,2024-07-19,リラシス合同会社,,合同会社,宮城県,白石市,新館町１番３４号,,04,206,9890246,,,2024-07-19,清算の結了等,,,2016-04-21,1,,,,,,0
916,3370502000755,登記記録の閉鎖等,0,2024-08-07,2024-07-17,有限会社パルコム,,有限会社,宮城県,気仙沼市,松崎萱１１４番地２,,04,205,9880121,,,2024-07-17,清算の結了等,,,2015-10-05,1,,,,,パルコム,0
917,3370602000894,登記記録の閉鎖等,0,2024-08-07,2024-07-18,有限会社新浜薬局,,有限会社,宮城県,塩竈市,新浜町１丁目１７番１６号,,04,203,9850001,,,2024-07-18,清算の結了等,,,2015-10-05,1,,,,,シンハマヤッキョク,0
921,3390001016680,登記記録の閉鎖等,0,2024-08-07,2024-07-26,株式会社リバ・クリエイト,,株式会社,山形県,南陽市,長瀞５９番地,00128438,06,213,9992266,,,2024-07-26,清算の結了等,,,2021-11-15,1,,,,,リバクリエイト,0
925,3430001038365,登記記録の閉鎖等,0,2024-08-07,2024-08-01,さなえ事務所株式会社,,株式会社,北海道,札幌市北区,北二十五条西１４丁目１番３号,,01,102,0010025,,,2024-08-01,清算の結了等,,,2015-10-05,1,,,,,サナエジムショ,0
938,3460102002300,登記記録の閉鎖等,0,2024-08-07,2024-08-01,東勝サービス有限会社,,有限会社,北海道,帯広市,西二十条南１丁目１４番地,,01,207,0802470,,,2024-08-01,合併による解散等,4460101001178,令和６年８月１日北海道帯広市西二十条南一丁目１４番地東勝物流株式会社（4460101001178）に合併し解散,2015-10-05,1,,,,,トウショウサービス,0
940,3470002001228,登記記録の閉鎖等,0,2024-08-07,2024-07-31,有限会社雲仙,,有限会社,香川県,高松市,西宝町１丁目１０番２２号,,37,201,7600004,,,2024-07-31,清算の結了等,,,2015-10-05,1,,,,,ウンゼン,0
950,4010001155375,登記記録の閉鎖等,0,2024-08-07,2024-07-24,山佐ＴＯＭ３リース株式会社,,株式会社,東京都,千代田区,丸の内３丁目１番１号東京共同会計事務所内,,13,101,1000005,,,2024-07-24,清算の結了等,,,2015-10-05,1,,,,,ヤマサティーオーエムサンリース,0
952,4010001231597,登記記録の閉鎖等,0,2024-08-07,2024-07-25,株式会社リヨンソー,,株式会社,東京都,中央区,銀座１丁目１２番４号Ｎ＆ＥＢＬＤ．７階,,13,102,1040061,,,2024-07-25,清算の結了等,,,2022-12-15,1,,,,,リヨンソー,0
966,4010401121596,登記記録の閉鎖等,0,2024-08-07,2024-07-16,株式会社ウカデミー,,株式会社,東京都,港区,赤坂９丁目５番１４号,,13,103,1070052,,,2024-07-16,清算の結了等,,,2015-11-18,1,,,,,ウカデミー,0
968,4010401179718,登記記録の閉鎖等,0,2024-08-07,2024-07-16,株式会社ゴード,,株式会社,東京都,港区,虎ノ門４丁目１番２８号虎ノ門タワーズオフィス１７階,,13,103,1050001,,,2024-07-16,清算の結了等,,,2024-01-12,1,,,,,ゴード,0
969,4010405014326,登記記録の閉鎖等,0,2024-08-07,2024-07-23,一般社団法人地方創生推進機構,,その他の設立登記法人,千葉県,いすみ市,岩船１８７２番地１南房総オーシャンフロントヴィラ２Ｆ,,12,238,2980011,,,2024-07-23,清算の結了等,,,2015-11-17,1,,,,,チホウソウセイスイシンキコウ,0
970,4010405022725,登記記録の閉鎖等,0,2024-08-07,2024-07-16,弁護士法人レイ・オネスト法律事務所,,その他の設立登記法人,東京都,港区,西新橋１丁目２番９号日比谷セントラルビル１４階,,13,103,1050003,,,2024-07-16,清算の結了等,,,2023-11-22,1,,,,,レイオネストホウリツジムショ,0
972,4010505001637,登記記録の閉鎖等,0,2024-08-07,2024-07-29,一般社団法人新運転個人タクシー協会,,その他の設立登記法人,東京都,台東区,根岸３丁目２５番６号,,13,106,1100003,,,2024-07-29,清算の結了等,,,2015-10-05,1,,,,,シンウンテンコジンタクシーキョウカイ,0
974,4010701008089,登記記録の閉鎖等,0,2024-08-07,2024-07-31,株式会社橋本屋商店,,株式会社,東京都,品川区,西中延１丁目４番１５－１０１号,,13,109,1420054,,,2024-07-31,清算の結了等,,,2015-10-05,1,,,,,ハシモトヤショウテン,0
999,4011801001058,登記記録の閉鎖等,0,2024-08-07,2024-08-02,株式会社亀山工務店,,株式会社,東京都,葛飾区,鎌倉４丁目３３番４号,,13,122,1250053,,,2024-08-02,清算の結了等,,,2015-10-05,1,,,,,カメヤマコウムテン,0
1002,4012401033714,登記記録の閉鎖等,0,2024-08-07,2024-07-25,株式会社ＣＲＩＭＺＯＮ,,株式会社,東京都,中央区,銀座１丁目２２－１１銀座大竹ビジデンス２Ｆ,,13,102,1040061,,,2024-07-25,清算の結了等,,,2018-03-07,1,,,,,クリムゾン,0
1003,4012401038754,登記記録の閉鎖等,0,2024-08-07,2024-07-16,株式会社プラスシンク,,株式会社,東京都,港区,南青山３丁目１番３６号青山丸竹ビル６階,,13,103,1070062,,,2024-07-16,清算の結了等,,,2022-01-19,1,,,,,プラスシンク,0
1007,4013202006504,登記記録の閉鎖等,0,2024-08-07,2024-07-17,有限会社モリヤマ,,有限会社,東京都,目黒区,祐天寺２丁目３番６号,,13,110,1530052,,,2024-07-17,合併による解散等,3013201014632,令和６年５月１日東京都目黒区祐天寺二丁目３番６号ファイブプレイス株式会社（3013201014632）に合併し解散,2015-10-05,1,,,,,モリヤマ,0
1014,4020001116491,登記記録の閉鎖等,0,2024-08-07,2024-07-18,株式会社ケンジカンパニー,,株式会社,神奈川県,横浜市都筑区,中川１丁目５番１７号,,14,118,2240001,,,2024-07-18,清算の結了等,,,2016-06-06,1,,,,,ケンジカンパニー,0
1041,4030002002640,登記記録の閉鎖等,0,2024-08-07,2024-08-01,有限会社大野洋服店,,有限会社,埼玉県,さいたま市浦和区,東高砂町１７番２号,,11,107,3300055,,,2024-08-01,清算の結了等,,,2015-10-05,1,,,,,オオノヨウフクテン,0
1042,4030002034824,登記記録の閉鎖等,0,2024-08-07,2024-08-01,有限会社井ケ田製作所,,有限会社,埼玉県,入間市,小谷田３丁目４番１５号,,11,225,3580026,,,2024-08-01,清算の結了等,,,2015-10-05,1,,,,,イゲタセイサクショ,0
1061,4050002000774,登記記録の閉鎖等,0,2024-08-07,2024-08-02,有限会社柿沼紙器製作所,,有限会社,茨城県,水戸市,大町３丁目２番５１号,,08,201,3100062,,,2024-08-02,清算の結了等,,,2015-10-05,1,,,,,カキヌマシキセイサクショ,0
1062,4050002030870,登記記録の閉鎖等,0,2024-08-07,2024-08-01,有限会社たかの電機,,有限会社,茨城県,日立市,森山町２丁目５番３号,,08,202,3160025,,,2024-08-01,清算の結了等,,,2015-10-05,1,,,,,タカノデンキ,0
1069,4070001036966,登記記録の閉鎖等,0,2024-08-07,2024-08-05,ＫＹＯＤＯＫｏＢＡＩ株式会社,,株式会社,群馬県,館林市,足次町４７５番地２,,10,207,3740073,,,2024-08-05,清算の結了等,,,2020-06-26,1,,,,,キョウドウコウバイ,0
1083,4100001021667,登記記録の閉鎖等,0,2024-08-07,2024-08-01,株式会社シロニクス,,株式会社,長野県,上伊那郡辰野町,大字辰野２０３５番地,,20,382,3990421,,,2024-08-01,清算の結了等,,,2015-10-05,1,,,,,シロニクス,0
1085,4100002010999,登記記録の閉鎖等,0,2024-08-07,2024-07-19,有限会社滝沢鉄工所,,有限会社,長野県,北佐久郡立科町,大字山部１５７番地１,,20,324,3842307,,,2024-07-19,清算の結了等,,,2015-10-05,1,,,,,タキザワテッコウショ,0
1086,4100002029841,登記記録の閉鎖等,0,2024-08-07,2024-08-01,有限会社カネサン今井幸雄商店,,有限会社,長野県,茅野市,宮川５５３３番地,,20,214,3910013,,,2024-08-01,清算の結了等,,,2015-10-05,1,,,,,カネサンイマイユキオショウテン,0
1095,4120001134327,登記記録の閉鎖等,0,2024-08-07,2024-08-06,株式会社未來エンジニアリング,,株式会社,大阪府,大阪市西区,京町堀１丁目４番３号,,27,106,5500003,,,2024-08-06,清算の結了等,,,2015-10-05,1,,,,,ミライエンジニアリング,0
1116,4120101054433,登記記録の閉鎖等,0,2024-08-07,2024-08-01,株式会社岩本興産,,株式会社,大阪府,門真市,上島町４４番１２号,,27,223,5710071,,,2024-08-01,合併による解散等,3120101020766,令和６年８月１日大阪府門真市上島町４４番１２号株式会社岩商（3120101020766）に合併し解散,2016-03-08,1,,,,,イワモトコウサン,0
1120,4120905006175,登記記録の閉鎖等,0,2024-08-07,2024-07-31,一般社団法人ウェルネスライフ協会,,その他の設立登記法人,大阪府,吹田市,豊津町２番１１号,,27,205,5640051,,,2024-07-31,清算の結了等,,,2021-05-18,1,,,,,ウェルネスライフキョウカイ,0
1136,4180001001364,登記記録の閉鎖等,0,2024-08-07,2024-07-23,ヤナギ工業株式会社,,株式会社,愛知県,名古屋市守山区,松坂町４９番地の２,,23,113,4630007,,,2024-07-23,清算の結了等,,,2015-10-05,1,,,,,ヤナギコウギョウ,0
1161,4190002014042,登記記録の閉鎖等,0,2024-08-07,2024-08-05,有限会社ダイカイトラベルサービス,,有限会社,三重県,松阪市,高町５０２番地,,24,204,5150011,,,2024-08-05,清算の結了等,,,2015-10-05,1,,,,,ダイカイトラベルサービス,0
1165,4190003004579,登記記録の閉鎖等,0,2024-08-07,2024-07-31,合名会社中村家具店,,合名会社,三重県,名張市,本町３３９番地の２,,24,208,5180726,,,2024-07-31,清算の結了等,,,2024-02-15,1,,,,,ナカムラカグテン,0
1167,4190005006598,登記記録の閉鎖等,0,2024-08-07,2024-08-05,医療法人社団山門整形外科,,その他の設立登記法人,三重県,松阪市,川井町８２６番地,,24,204,5150818,,,2024-08-05,清算の結了等,,,2015-10-05,1,,,,,,0
1179,4240001043516,登記記録の閉鎖等,0,2024-08-07,2024-08-02,株式会社せとうち経済圏・シップ・パートナーズ,,株式会社,広島県,広島市中区,銀山町３番１号ひろしまハイビル２１－６階,,34,101,7300022,,,2024-08-02,清算の結了等,,,2015-10-05,1,,,,,セトウチケイザイケンシップパートナーズ,0
1188,4260002034561,登記記録の閉鎖等,0,2024-08-07,2024-07-25,有限会社野崎クレー製造所,,有限会社,岡山県,備前市,吉永町岩崎７４１番地,,33,211,7090226,,,2024-07-25,清算の結了等,,,2024-01-11,1,,,,,ノザキクレーセイゾウショ,0
1198,4300002005434,登記記録の閉鎖等,0,2024-08-07,2024-08-01,有限会社ダイコー實業,,有限会社,佐賀県,佐賀市,富士町大字上熊川６８１番地２４,,41,201,8400512,,,2024-08-01,清算の結了等,,,2015-10-05,1,,,,,ダイコージツギョウ,0
1206,4360001022895,登記記録の閉鎖等,0,2024-08-07,2024-08-05,株式会社琉獅子堂,,株式会社,沖縄県,宜野湾市,我如古３丁目１番１７号サンＭ’ｓ２０２号,,47,205,9012214,,,2024-08-05,清算の結了等,,,2017-09-05,1,,,,,リュウシシドウ,0
1215,4380001011847,登記記録の閉鎖等,0,2024-08-07,2024-08-05,株式会社ナガヨシ,,株式会社,福島県,石川郡石川町,大字新屋敷字長土路４８番地,,07,501,9637827,,,2024-08-05,合併による解散等,3013102007446,令和６年８月１日東京都青梅市新町六丁目１５番地２０株式会社カネバン（3013102007446）に合併し解散,2015-10-05,1,,,,,,0
1219,4390001016721,登記記録の閉鎖等,0,2024-08-07,2024-07-25,株式会社ＳＥＡＧＵＬＬ,,株式会社,山形県,寒河江市,大字西根字石川西２９３,,06,206,9910003,,,2024-07-25,清算の結了等,,,2021-12-22,1,,,,,シーガル,0
1222,4430002028950,登記記録の閉鎖等,0,2024-08-07,2024-08-02,株式会社エスポアール,,株式会社,北海道,札幌市南区,真駒内柏丘９丁目２番１号,,01,106,0050022,,,2024-08-02,清算の結了等,,,2015-10-05,1,,,,,エスポアール,0
1228,4460102006366,登記記録の閉鎖等,0,2024-08-07,2024-08-01,有限会社レンカ堂,,有限会社,北海道,中川郡本別町,北２丁目２番地３,,01,646,0893334,,,2024-08-01,清算の結了等,,,2015-10-05,1,,,,,レンカドウ,0
1235,4500002022913,登記記録の閉鎖等,0,2024-08-07,2024-07-29,土居真珠有限会社,,有限会社,愛媛県,宇和島市,三浦西５１２１番地９,,38,203,7980102,,,2024-07-29,清算の結了等,,,2015-10-05,1,,,,,ドイシンジュ,0
1239,5010001145219,登記記録の閉鎖等,0,2024-08-07,2024-07-02,株式会社ｒｏｕｘｎｏ,,株式会社,東京都,港区,南麻布１丁目６番３５－３０１号,,13,103,1060047,,,2024-07-02,清算の結了等,,,2015-10-05,1,,,,,ルーノ,0
1240,5010001174630,登記記録の閉鎖等,0,2024-08-07,2024-07-25,宝田マテリアル株式会社,,株式会社,東京都,千代田区,丸の内１丁目７番１２号サピアタワー弁護士法人北浜法律事務所東京事務所,,13,101,1000005,,,2024-07-25,清算の結了等,,,2016-04-01,1,,,,,タカラダマテリアル,0
1250,5010003021005,登記記録の閉鎖等,0,2024-08-07,2024-07-25,日光１７７サン南桜塚合同会社,,合同会社,東京都,千代田区,丸の内３丁目１番１号東京共同会計事務所内,,13,101,1000005,,,2024-07-25,清算の結了等,,,2015-10-05,1,,,,,ニッコウワンハンドレッドセブンティーセブンサンミナミサクラヅカ,0
1255,5010101008416,登記記録の閉鎖等,0,2024-08-07,2024-08-05,株式会社あんじん武蔵野,,株式会社,東京都,八王子市,西寺方町１００６番地５７,,13,201,1920153,,,2024-08-05,清算の結了等,,,2015-10-05,1,,,,,アンジンムサシノ,0
1262,5010403011002,登記記録の閉鎖等,0,2024-08-07,2024-07-16,合同会社ＴＥＣＨＡ,,合同会社,東京都,港区,虎ノ門３丁目１４番１－２６０４号,,13,103,1050001,,,2024-07-16,清算の結了等,,,2015-10-05,1,,,,,テェチャ,0
1281,5011201004759,登記記録の閉鎖等,0,2024-08-07,2024-08-05,株式会社フオワード,,株式会社,東京都,中野区,中央５丁目２２番９号横山マンション１階,,13,114,1640011,,,2024-08-05,清算の結了等,,,2015-10-05,1,,,,,フオワード,0
1282,5011301017124,登記記録の閉鎖等,0,2024-08-07,2024-08-01,株式会社フィナンシャルリテール・アイティ・コンサルタンツ,,株式会社,東京都,杉並区,和田１丁目６０番２４号,,13,115,1660012,,,2024-08-01,清算の結了等,,,2015-10-05,1,,,,,フィナンシャルリテールアイティコンサルタンツ,0
1289,5011802020403,登記記録の閉鎖等,0,2024-08-07,2024-08-01,有限会社和菜商事,,有限会社,東京都,足立区,扇３丁目１３番３１号,,13,121,1230873,,,2024-08-01,清算の結了等,,,2015-10-05,1,,,,,ワカナショウジ,0
1291,5012401000564,登記記録の閉鎖等,0,2024-08-07,2024-08-06,株式会社サンエコー,,株式会社,東京都,府中市,浅間町３丁目７番地の４９,,13,206,1830001,,,2024-08-06,清算の結了等,,,2015-10-05,1,,,,,サンエコー,0
1295,5013103001330,登記記録の閉鎖等,0,2024-08-07,2024-08-06,合同会社パートナー梅村,,合同会社,東京都,福生市,本町９６番地２セレクト福生３０３号室,,13,218,1970022,,,2024-08-06,清算の結了等,,,2024-04-15,1,,,,,パートナーウメムラ,0
1365,5110001020626,登記記録の閉鎖等,0,2024-08-07,2024-07-31,株式会社スリーフィート,,株式会社,新潟県,上越市,仲町６丁目３番３１号,,15,222,9430831,,,2024-07-31,清算の結了等,,,2015-10-05,1,,,,,スリーフィート,0
1416,5180001094440,登記記録の閉鎖等,0,2024-08-07,2024-07-26,東海フーズ株式会社,,株式会社,愛知県,東海市,富木島町向イ８７番地の３,,23,222,4760011,,,2024-07-26,清算の結了等,,,2015-10-05,1,,,,,トウカイフーズ,0
1423,5180002018555,登記記録の閉鎖等,0,2024-08-07,2024-07-24,有限会社宝産業,,有限会社,愛知県,名古屋市中区,丸の内１丁目１４番２４号ライオンズビル第２丸の内３Ｆ,,23,106,4600002,,,2024-07-24,清算の結了等,,,2015-10-05,1,,,,,タカラサンギョウ,0
1424,5180003024239,登記記録の閉鎖等,0,2024-08-07,2024-07-25,合同会社つめぴかぴか,,合同会社,愛知県,名古屋市中村区,二ツ橋町３丁目５番地,,23,105,4530813,,,2024-07-25,清算の結了等,,,2022-09-08,1,,,,,ツメピカピカ,0
1429,5180303001755,登記記録の閉鎖等,0,2024-08-07,2024-07-29,合名会社宮地荘,,合名会社,愛知県,豊川市,幸町１２５番地,,23,207,4420046,,,2024-07-29,清算の結了等,,,2015-10-05,1,,,,,ミヤチソウ,0
1431,5190002014495,登記記録の閉鎖等,0,2024-08-07,2024-08-02,有限会社大黒屋本舗,,有限会社,三重県,松阪市,日丘町１３９８番地２４,,24,204,5150835,,,2024-08-02,清算の結了等,,,2015-10-05,1,,,,,ダイコクヤホンポ,0
1436,5240001027872,登記記録の閉鎖等,0,2024-08-07,2024-08-01,株式会社平和,,株式会社,広島県,呉市,吉浦本町２丁目６番１８号,,34,202,7370861,,,2024-08-01,清算の結了等,,,2015-10-05,1,,,,,ヘイワ,0
1439,5240001049099,登記記録の閉鎖等,0,2024-08-07,2024-08-02,株式会社メイコー不動産コンサルティング,,株式会社,広島県,広島市南区,比治山町３番１４号ダイアパレスリバーサイド比治山２０６号,,34,103,7320817,,,2024-08-02,清算の結了等,,,2016-04-07,1,,,,,メイコーフドウサンコンサルティング,0
1442,5240002028424,登記記録の閉鎖等,0,2024-08-07,2024-08-01,有限会社マルコーコンサルタント,,有限会社,広島県,東広島市,高屋町稲木２９２７番地２,,34,212,7392106,,,2024-08-01,合併による解散等,6240001023029,令和６年８月１日広島県東広島市西条町御薗宇６２２７番地５株式会社和幸設計（6240001023029）に合併し解散,2015-10-05,1,,,,,マルコーコンサルタント,0
1444,5260001036772,登記記録の閉鎖等,0,2024-08-07,2024-07-25,株式会社岡山データシステムズ,,株式会社,岡山県,岡山市北区,谷万成１丁目１８番１２号,,33,101,7000071,,,2024-07-25,清算の結了等,,,2022-04-26,1,,,,,オカヤマデータシステムズ,0
1457,5320002007345,登記記録の閉鎖等,0,2024-08-07,2024-07-31,リゾート開発有限会社,,有限会社,大分県,大分市,大字上野８４８番地の１,,44,201,8700100,,,2024-07-31,清算の結了等,,,2015-10-05,1,,,,,リゾートカイハツ,0
1461,5340002019479,登記記録の閉鎖等,0,2024-08-07,2024-08-01,有限会社立石木材,,有限会社,鹿児島県,熊毛郡中種子町,野間５２９３番地３０,,46,501,8913604,,,2024-08-01,清算の結了等,,,2015-10-05,1,,,,,タテイシモクザイ,0
1462,5340002020874,登記記録の閉鎖等,0,2024-08-07,2024-08-01,有限会社さつま路,,有限会社,鹿児島県,奄美市,名瀬金久町６番４号,,46,222,8940031,,,2024-08-01,清算の結了等,,,2015-10-05,1,,,,,サツマジ,0
1469,5370001007894,登記記録の閉鎖等,0,2024-08-07,2024-07-16,株式会社経営情報システム,,株式会社,宮城県,宮城郡松島町,松島字東浜４番地の５７,,04,401,9810213,,,2024-07-16,清算の結了等,,,2015-10-05,1,,,,,ケイエイジョウホウシステム,0
1470,5370102000022,登記記録の閉鎖等,0,2024-08-07,2024-07-18,株式会社アートキュービック,,株式会社,宮城県,柴田郡村田町,大字沼辺字赤沼１５０番地の１,,04,322,9891321,,,2024-07-18,清算の結了等,,,2015-10-05,1,,,,,アートキュービック,0
1473,5380002028294,登記記録の閉鎖等,0,2024-08-07,2024-07-31,有限会社カワテック,,有限会社,福島県,南相馬市,原町区中太田字天狗田１２０番地の１０,,07,212,9750052,,,2024-07-31,清算の結了等,,,2015-10-05,1,,,,,カワテック,0
1474,5380002032940,登記記録の閉鎖等,0,2024-08-07,2024-07-31,有限会社福田土建,,有限会社,福島県,会津若松市,住吉町１４番６号,,07,202,9650855,,,2024-07-31,清算の結了等,,,2015-10-05,1,,,,,フクダドケン,0
1488,5430001054063,登記記録の閉鎖等,0,2024-08-07,2024-08-01,株式会社緑泉郷,,株式会社,北海道,白老郡白老町,字萩野３４１番地,,01,578,0590922,,,2024-08-01,清算の結了等,,,2015-10-05,1,,,,,リョクセンキョウ,0
1492,5430002047594,登記記録の閉鎖等,0,2024-08-07,2024-08-01,有限会社ことぶきバス,,有限会社,北海道,恵庭市,文京町４丁目８番６号,,01,231,0611425,,,2024-08-01,清算の結了等,,,2015-10-05,1,,,,,,0
1494,5430003006640,登記記録の閉鎖等,0,2024-08-07,2024-07-31,合同会社マカン,,合同会社,北海道,札幌市中央区,南十四条西９丁目３番２９－１４０３号,,01,101,0640914,,,2024-07-31,合併による解散等,5430001063774,令和６年７月３１日札幌市中央区南十四条西九丁目３番２９－１４０３号アラヤエステート株式会社（5430001063774）に合併し解散,2015-10-05,1,,,,,マカン,0
1495,5430003007440,登記記録の閉鎖等,0,2024-08-07,2024-08-02,合同会社丸谷工業,,合同会社,北海道,札幌市西区,発寒三条１丁目３番１０号,,01,107,0630823,,,2024-08-02,清算の結了等,,,2016-03-15,1,,,,,マルヤコウギョウ,0
1518,6010003020996,登記記録の閉鎖等,0,2024-08-07,2024-07-25,日光１７１ベルピア桐生合同会社,,合同会社,東京都,千代田区,丸の内３丁目１番１号東京共同会計事務所内,,13,101,1000005,,,2024-07-25,清算の結了等,,,2015-10-05,1,,,,,ニッコウワンハンドレッドセブンティーワンベルピアキリュウ,0
1565,6011701012145,登記記録の閉鎖等,0,2024-08-07,2024-07-31,ｅａｓｅ株式会社,,株式会社,東京都,江戸川区,小松川３丁目９番２－１１２号,,13,123,1320034,,,2024-07-31,清算の結了等,,,2015-10-05,1,,,,,イーズ,0
1566,6011701019470,登記記録の閉鎖等,0,2024-08-07,2024-07-16,椿建設株式会社,,株式会社,東京都,品川区,戸越６丁目４番７号,,13,109,1420041,,,2024-07-16,合併による解散等,7010701012872,令和６年６月３０日東京都品川区戸越六丁目４番７号西澤建設株式会社（7010701012872）に合併し解散,2015-12-16,1,,,,,ツバキケンセツ,0
1569,6011801010916,登記記録の閉鎖等,0,2024-08-07,2024-08-01,日映精機株式会社,,株式会社,東京都,足立区,小台２丁目５０番５号,,13,121,1200046,,,2024-08-01,清算の結了等,,,2015-10-05,1,,,,,ニチエイセイキ,0
1572,6011802004537,登記記録の閉鎖等,0,2024-08-07,2024-08-02,有限会社大黒屋酒店,,有限会社,東京都,葛飾区,青戸７丁目８番１７号,,13,122,1250062,,,2024-08-02,清算の結了等,,,2015-10-05,1,,,,,ダイコクヤサケテン,0
1603,6030001110913,登記記録の閉鎖等,0,2024-08-07,2024-08-01,株式会社ＧＯＯＤＦＩＥＬＤ,,株式会社,埼玉県,富士見市,西みずほ台１丁目２０番地８号,,11,235,3540018,,,2024-08-01,清算の結了等,,,2015-10-20,1,,,,,グッドフィールド,0
1612,6030002083489,登記記録の閉鎖等,0,2024-08-07,2024-08-02,有限会社中村金物店,,有限会社,埼玉県,北本市,古市場２丁目１２６番地５,,11,233,3640003,,,2024-08-02,清算の結了等,,,2015-10-05,1,,,,,ナカムラカナモノテン,0
1615,6040001023651,登記記録の閉鎖等,0,2024-08-07,2024-07-24,株式会社クリエイトワークス,,株式会社,千葉県,船橋市,南三咲１丁目１９番６号,,12,204,2740813,,,2024-07-24,清算の結了等,,,2015-10-05,1,,,,,クリエイトワークス,0
1616,6040001036637,登記記録の閉鎖等,0,2024-08-07,2024-07-24,小宮商事株式会社,,株式会社,千葉県,松戸市,大谷口５０４番地,,12,207,2700005,,,2024-07-24,清算の結了等,,,2015-10-05,1,,,,,コミヤショウジ,0
1626,6040002033609,登記記録の閉鎖等,0,2024-08-07,2024-08-02,有限会社極東,,有限会社,千葉県,市川市,東大和田２丁目１番２号極東ビル２０１号,,12,203,2720026,,,2024-08-02,合併による解散等,1040001026056,令和６年８月１日千葉県市川市東大和田一丁目７番１号極東オイル株式会社（1040001026056）に合併し解散,2015-10-05,1,,,,,,0
1630,6050001027395,登記記録の閉鎖等,0,2024-08-07,2024-07-31,株式会社海老原冷凍機,,株式会社,茨城県,取手市,寺田３８９０番地７,,08,217,3020021,,,2024-07-31,清算の結了等,,,2015-10-05,1,,,,,エビハラレイトウキ,0
1641,6080001015579,登記記録の閉鎖等,0,2024-08-07,2024-07-26,見原空調設備株式会社,,株式会社,静岡県,焼津市,小土１３２８番地の８,,22,212,4250086,,,2024-07-26,清算の結了等,,,2015-10-05,1,,,,,ミハラクウチョウセツビ,0
1644,6080002003236,登記記録の閉鎖等,0,2024-08-07,2024-07-26,有限会社静岡南新聞販売所,,有限会社,静岡県,静岡市駿河区,中田４丁目５番３５号,,22,102,4228041,,,2024-07-26,清算の結了等,,,2015-10-05,1,,,,,,0
1645,6080002014225,登記記録の閉鎖等,0,2024-08-07,2024-07-26,有限会社中村水道,,有限会社,静岡県,島田市,川根町家山６５１番地の５,,22,209,4280104,,,2024-07-26,清算の結了等,,,2015-10-05,1,,,,,ナカムラスイドウ,0
1648,6080401018355,登記記録の閉鎖等,0,2024-08-07,2024-08-01,株式会社アクト,,株式会社,静岡県,掛川市,浜野２９４０番地の１４４,,22,213,4371424,,,2024-08-01,清算の結了等,,,2015-10-05,1,,,,,アクト,0
1651,6100001011914,登記記録の閉鎖等,0,2024-08-07,2024-08-02,飯山東栄化成株式会社,,株式会社,長野県,下水内郡栄村,大字豊栄６３１番地１,,20,602,3892701,,,2024-08-02,合併による解散等,8020001011805,令和６年７月１日東京都板橋区蓮沼町４５番４号東栄化成株式会社（8020001011805）に合併し解散,2015-10-05,1,,,,,イイヤマトウエイカセイ,0
1656,6120001089569,登記記録の閉鎖等,0,2024-08-07,2024-08-05,株式会社マーケティング・ジャーナル,,株式会社,大阪府,大阪市東成区,中道３丁目１５番１６号毎日東ビル,,27,115,5370025,,,2024-08-05,清算の結了等,,,2015-10-05,1,,,,,マーケティングジャーナル,0
1683,6140001088164,登記記録の閉鎖等,0,2024-08-07,2024-08-02,株式会社立志実業,,株式会社,兵庫県,神戸市西区,上新地１丁目１番地７,,28,111,6512411,,,2024-08-02,清算の結了等,,,2015-10-05,1,,,,,,0
1699,6180001063411,登記記録の閉鎖等,0,2024-08-07,2024-07-29,ハンワテック株式会社,,株式会社,愛知県,名古屋市中村区,豊幡町８２番地,,23,105,4530051,,,2024-07-29,清算の結了等,,,2015-10-05,1,,,,,ハンワテック,0
1712,6180003006013,登記記録の閉鎖等,0,2024-08-07,2024-07-25,合資会社山七呉服店,,合資会社,愛知県,名古屋市中川区,八田町１７０２番地の１,,23,110,4540877,,,2024-07-25,清算の結了等,,,2015-10-05,1,,,,,ヤマヒチゴフクテン,0
1713,6180301003678,登記記録の閉鎖等,0,2024-08-07,2024-08-01,株式会社清水総合設備,,株式会社,愛知県,岡崎市,大樹寺３丁目１１番地３１,,23,202,4442134,,,2024-08-01,清算の結了等,,,2015-10-05,1,,,,,シミズソウゴウセツビ,0
1714,6180301031489,登記記録の閉鎖等,0,2024-08-07,2024-08-02,株式会社藤銀,,株式会社,愛知県,安城市,今池町２丁目２番３１号,,23,212,4460071,,,2024-08-02,清算の結了等,,,2018-05-09,1,,,,,フジギン,0
1727,6230002013896,登記記録の閉鎖等,0,2024-08-07,2024-08-02,有限会社イハチワークス,,有限会社,富山県,射水市,鷲塚１１２番地,,16,211,9390305,,,2024-08-02,清算の結了等,,,2015-10-05,1,,,,,イハチワークス,0
1751,6290001085048,登記記録の閉鎖等,0,2024-08-07,2024-07-02,西和メンテナンス株式会社,,株式会社,福岡県,福岡市博多区,金の隈２丁目１８番４１号,,40,132,8120863,,,2024-07-02,合併による解散等,5290001026102,令和６年７月１日福岡市博多区金の隈二丁目１８番４１号株式会社西和（5290001026102）に合併し解散,2019-05-08,1,,,,,セイワメンテナンス,0
1764,6370002005005,登記記録の閉鎖等,0,2024-08-07,2024-07-18,有限会社コーワ歯研,,有限会社,宮城県,仙台市若林区,六丁の目中町１０番１６号,,04,103,9840012,,,2024-07-18,清算の結了等,,,2015-10-05,1,,,,,コーワシケン,0
1780,6410001007113,登記記録の閉鎖等,0,2024-08-07,2024-07-31,株式会社ジュンノインテリアクラフト,,株式会社,秋田県,能代市,字臥竜山３１番地１０,,05,202,0160878,,,2024-07-31,清算の結了等,,,2015-10-05,1,,,,,ジュンノインテリアクラフト,0
1783,6420002007887,登記記録の閉鎖等,0,2024-08-07,2024-07-31,有限会社東北金属工業,,有限会社,青森県,八戸市,大字櫛引字上矢倉１番地１,,02,203,0391107,,,2024-07-31,清算の結了等,,,2015-10-05,1,,,,,トウホクキンゾクコウギョウ,0
1789,6430001065885,登記記録の閉鎖等,0,2024-08-07,2024-08-01,株式会社ケアサポートグループ,,株式会社,北海道,札幌市北区,新川西一条４丁目２番８号,,01,102,0010931,,,2024-08-01,清算の結了等,,,2015-10-05,1,,,,,ケアサポートグループ,0
1797,6460003000540,登記記録の閉鎖等,0,2024-08-07,2024-08-05,釧路さけ定置漁業合同会社,,合同会社,北海道,釧路市,浜町３番１２号,,01,206,0850024,,,2024-08-05,清算の結了等,,,2015-10-05,1,,,,,クシロサケテイチギョギョウ,0
1803,7010001027943,登記記録の閉鎖等,0,2024-08-07,2024-07-25,古屋タイヤ株式会社,,株式会社,東京都,文京区,湯島３丁目１番２－２０３号,,13,105,1130034,,,2024-07-25,清算の結了等,,,2015-10-05,1,,,,,フルヤタイヤ,0
1810,7010003020995,登記記録の閉鎖等,0,2024-08-07,2024-07-25,日光１７０ベルピア上渕名合同会社,,合同会社,東京都,千代田区,丸の内３丁目１番１号東京共同会計事務所内,,13,101,1000005,,,2024-07-25,清算の結了等,,,2015-10-05,1,,,,,ニッコウワンハンドレッドセブンティーベルピアカミフチナ,0
1815,7010005029184,登記記録の閉鎖等,0,2024-08-07,2024-07-25,一般社団法人パブリックヘルス推進協会,,その他の設立登記法人,東京都,千代田区,麹町５丁目３番３号麹町ＫＳビル７Ｆ,,13,101,1020083,,,2024-07-25,清算の結了等,,,2018-10-05,1,,,,,パブリックヘルススイシンキョウカイ,0
1831,7010902015154,登記記録の閉鎖等,0,2024-08-07,2024-07-31,有限会社目黒硝子工業所,,有限会社,東京都,世田谷区,瀬田２丁目１３番１１号,,13,112,1580095,,,2024-07-31,清算の結了等,,,2015-10-05,1,,,,,メグロガラスコウギョウショ,0
1855,7013101004507,登記記録の閉鎖等,0,2024-08-07,2024-08-05,株式会社アイビーム,,株式会社,東京都,青梅市,新町５丁目９番地９号,,13,205,1980024,,,2024-08-05,清算の結了等,,,2015-10-05,1,,,,,アイビーム,0
1870,7021001023816,登記記録の閉鎖等,0,2024-08-07,2024-08-05,株式会社タンザワネット,,株式会社,神奈川県,厚木市,妻田北２丁目１７番６号,,14,212,2430812,,,2024-08-05,清算の結了等,,,2015-10-05,1,,,,,,0
1873,7021001046627,登記記録の閉鎖等,0,2024-08-07,2024-08-05,株式会社開成,,株式会社,神奈川県,足柄上郡開成町,吉田島２０３３番地１,,14,366,2580021,,,2024-08-05,清算の結了等,,,2015-10-05,1,,,,,カイセイ,0
1898,7040003011868,登記記録の閉鎖等,0,2024-08-07,2024-07-24,ＹＮＡ合同会社,,合同会社,千葉県,千葉市中央区,弁天１丁目８番６号,,12,101,2600045,,,2024-07-24,清算の結了等,,,2018-07-05,1,,,,,ワイエヌエー,0
1912,7070001018648,登記記録の閉鎖等,0,2024-08-07,2024-08-01,株式会社天笠設計,,株式会社,群馬県,太田市,由良町１７４５番地１,,10,205,3730036,,,2024-08-01,清算の結了等,,,2015-10-05,1,,,,,アマガサセッケイ,0
1915,7070003003945,登記記録の閉鎖等,0,2024-08-07,2024-08-05,合同会社ＳＨＡＫＨＩ,,合同会社,群馬県,桐生市,菱町１丁目３４０７番地の８,,10,203,3760001,,,2024-08-05,清算の結了等,,,2020-12-09,1,,,,,シャキ,0
1922,7080401010988,登記記録の閉鎖等,0,2024-08-07,2024-07-31,株式会社ユースタッフ,,株式会社,静岡県,浜松市中央区,高塚町４５７２番地８,,22,138,4328065,,,2024-07-31,清算の結了等,,,2015-10-05,1,,,,,ユースタッフ,0
1925,7080403003420,登記記録の閉鎖等,0,2024-08-07,2024-08-01,合同会社ＳＨＩＧＡ,,合同会社,静岡県,磐田市,岡１００８番地５プランドール１０１,,22,211,4380204,,,2024-08-01,合併による解散等,1080403003236,令和６年８月１日浜松市中央区雄踏町宇布見８８４４番地の２合同会社ＢＯＤ（1080403003236）に合併し解散,2017-03-15,1,,,,,シガ,0
1936,7110002026728,登記記録の閉鎖等,0,2024-08-07,2024-07-31,有限会社アレンジメント・フラワーマミ,,有限会社,新潟県,長岡市,南町１丁目８番１１号,,15,202,9400081,,,2024-07-31,清算の結了等,,,2015-10-05,1,,,,,アレンジメントフラワーマミ,0
1941,7120001179749,登記記録の閉鎖等,0,2024-08-07,2024-08-05,株式会社アセットバンク,,株式会社,大阪府,大阪市北区,中崎２丁目７番９号,,27,127,5300016,,,2024-08-05,清算の結了等,,,2015-10-05,1,,,,,アセットバンク,0
1943,7120001211932,登記記録の閉鎖等,0,2024-08-07,2024-07-31,株式会社三永,,株式会社,大阪府,大阪市住吉区,帝塚山東２丁目３番１５号プラウド帝塚山東１０４号,00117564,27,120,5580054,,,2024-07-31,清算の結了等,,,2018-03-12,1,,,,,サンエイ,0
1954,7120002018930,登記記録の閉鎖等,0,2024-08-07,2024-08-05,有限会社寺井商会,,有限会社,大阪府,大阪市福島区,野田１丁目１番８６号,,27,103,5530005,,,2024-08-05,清算の結了等,,,2015-10-05,1,,,,,テライショウカイ,0
1960,7120101022692,登記記録の閉鎖等,0,2024-08-07,2024-08-05,株式会社フュネラル大野,,株式会社,大阪府,堺市東区,日置荘西町５丁２番１４号,,27,143,5998114,,,2024-08-05,清算の結了等,,,2015-10-05,1,,,,,フュネラルオオノ,0
1961,7120102020811,登記記録の閉鎖等,0,2024-08-07,2024-08-05,有限会社植田管工,,有限会社,大阪府,岸和田市,阿間河滝町１５６３番地,,27,202,5960845,,,2024-08-05,清算の結了等,,,2015-10-05,1,,,,,ウエダカンコウ,0
1968,7140001038639,登記記録の閉鎖等,0,2024-08-07,2024-08-01,三原自動車株式会社,,株式会社,兵庫県,たつの市,揖保川町原８３８番地の６,,28,229,6711641,,,2024-08-01,清算の結了等,,,2015-10-05,1,,,,,ミハラジドウシャ,0
1979,7140002002057,登記記録の閉鎖等,0,2024-08-07,2024-08-01,有限会社ナルオカ,,有限会社,兵庫県,神戸市東灘区,北青木３丁目８番８号,,28,101,6580014,,,2024-08-01,清算の結了等,,,2015-10-05,1,,,,,ナルオカ,0
1983,7140003013417,登記記録の閉鎖等,0,2024-08-07,2024-08-02,合同会社えびたん,,合同会社,兵庫県,神戸市中央区,多聞通２丁目２番１６号,,28,110,6500015,,,2024-08-02,清算の結了等,,,2018-10-29,1,,,,,エビタン,0
1986,7150005004792,登記記録の閉鎖等,0,2024-08-07,2024-08-01,奈良スキー靴工業協同組合,,その他の設立登記法人,奈良県,磯城郡三宅町,大字上但馬１７９番地吉川弘商店内,,29,362,6360215,,,2024-08-01,清算の結了等,,,2015-10-05,1,,,,,ナラスキークツコウギョウ,0
2002,7180301006416,登記記録の閉鎖等,0,2024-08-07,2024-07-31,トミタビル株式会社,,株式会社,愛知県,豊橋市,花園町７４番地,,23,201,4400895,,,2024-07-31,清算の結了等,,,2015-10-05,1,,,,,トミタビル,0
2029,7310001009408,登記記録の閉鎖等,0,2024-08-07,2024-07-31,株式会社アメニティープラン設計,,株式会社,長崎県,諫早市,若葉町５１０番地３１,,42,204,8540064,,,2024-07-31,清算の結了等,,,2015-10-05,1,,,,,アメニティープランセッケイ,0
2037,7320005006210,登記記録の閉鎖等,0,2024-08-07,2024-07-30,大分プレカット協同組合,,その他の設立登記法人,大分県,豊後大野市,清川町砂田２２２１番地,,44,212,8796903,,,2024-07-30,清算の結了等,,,2015-10-05,1,,,,,オオイタプレカット,0
2041,7340001007391,登記記録の閉鎖等,0,2024-08-07,2024-08-01,株式会社森建設,,株式会社,鹿児島県,霧島市,国分福島１丁目９番７号,,46,218,8994322,,,2024-08-01,清算の結了等,,,2015-10-05,1,,,,,モリケンセツ,0
2048,7370201002058,登記記録の閉鎖等,0,2024-08-07,2024-07-22,陸前観光交通株式会社,,株式会社,宮城県,大崎市,鳴子温泉字星沼３９番地の６,,04,215,9896832,,,2024-07-22,清算の結了等,,,2015-10-05,1,,,,,,0
2055,7400602001051,登記記録の閉鎖等,0,2024-08-07,2024-07-23,有限会社美光社,,有限会社,岩手県,奥州市,水沢字川口町４番地,,03,215,0230034,,,2024-07-23,清算の結了等,,,2015-10-05,1,,,,,ビコウシャ,0
2064,7430001083432,登記記録の閉鎖等,0,2024-08-07,2024-07-31,株式会社花郎,,株式会社,北海道,札幌市東区,北四十一条東７丁目２番１０号,,01,103,0070841,,,2024-07-31,合併による解散等,8430001007183,令和６年７月３１日札幌市北区北二十四条西十六丁目３番１５号株式会社ディアネス（8430001007183）に合併し解散,2021-02-15,1,,,,,ファラン,0
2072,7470002000572,登記記録の閉鎖等,0,2024-08-07,2024-08-01,有限会社アーク機材,,有限会社,香川県,高松市,屋島中町２６３番地１,,37,201,7610112,,,2024-08-01,清算の結了等,,,2015-10-05,1,,,,,アークキザイ,0
2077,7500001021021,登記記録の閉鎖等,0,2024-08-07,2024-07-31,株式会社ＳｉｇｎＦａｃｔｏｒｙ,,株式会社,愛媛県,松山市,北久米町１０００番地の２,,38,201,7900923,,,2024-07-31,清算の結了等,,,2017-12-04,1,,,,,サインファクトリー,0
2080,8010001135506,登記記録の閉鎖等,0,2024-08-07,2024-07-29,トレード・サイエンス株式会社,,株式会社,東京都,中央区,日本橋小舟町８番１号,,13,102,1030024,,,2024-07-29,合併による解散等,9010001042585,令和６年７月１日東京都中央区日本橋小舟町８番１号あかつき証券株式会社（9010001042585）に合併し解散,2015-10-05,1,,,,,トレードサイエンス,0
2106,8010402032921,登記記録の閉鎖等,0,2024-08-07,2024-08-01,有限会社目的計画,,有限会社,大阪府,大阪市平野区,瓜破２丁目２番６号,,27,126,5470024,,,2024-08-01,合併による解散等,3120001024223,令和６年８月１日大阪市天王寺区上本町八丁目６番２６号太平地所株式会社（3120001024223）に合併し解散,2015-10-05,1,,,,,モクテキケイカク,0
2107,8010403025651,登記記録の閉鎖等,0,2024-08-07,2024-07-16,ＡＳ　ＡＬＷＡＹＳ合同会社,,合同会社,東京都,港区,南麻布２丁目９番１７号ＣＩＲＣＬＥ南麻布３０１号室,,13,103,1060047,,,2024-07-16,清算の結了等,,,2021-07-05,1,,,,,アズオールウェイズ,0
2109,8010601031055,登記記録の閉鎖等,0,2024-08-07,2024-07-31,株式会社インサイドビューティ,,株式会社,東京都,江東区,塩浜１丁目４番３３－９０８号,,13,108,1350043,,,2024-07-31,清算の結了等,,,2015-10-05,1,,,,,,0
2155,8011201021693,登記記録の閉鎖等,0,2024-08-07,2024-08-05,株式会社ｋｉｓｙｏ,,株式会社,東京都,中野区,沼袋１丁目３７番２号,,13,114,1650025,,,2024-08-05,清算の結了等,,,2019-10-08,1,,,,,キショー,0
2183,8020001090675,登記記録の閉鎖等,0,2024-08-07,2024-08-01,株式会社かもし堂,,株式会社,東京都,世田谷区,奥沢３丁目４５番６号,,13,112,1580083,,,2024-08-01,合併による解散等,3010901027823,令和６年８月１日東京都世田谷区奥沢三丁目４５番６号株式会社トータルライフケア（3010901027823）に合併し解散,2015-10-05,1,,,,,カモシドウ,0
2185,8020001136321,登記記録の閉鎖等,0,2024-08-07,2024-07-17,ウチディ株式会社,,株式会社,神奈川県,横浜市青葉区,桂台２丁目３８番地１１小田急コアロード青葉台５０５号,,14,117,2270034,,,2024-07-17,清算の結了等,,,2020-06-03,1,,,,,ウチディ,0
2190,8020003014327,登記記録の閉鎖等,0,2024-08-07,2024-07-23,グランド合同会社,,合同会社,東京都,新宿区,富久町８－２０カーサ富久町,,13,104,1620067,,,2024-07-23,清算の結了等,,,2018-05-11,1,,,,,グランド,0
2194,8021001049991,登記記録の閉鎖等,0,2024-08-07,2024-08-05,株式会社フラン・インターナショナル,,株式会社,神奈川県,鎌倉市,鎌倉山１丁目１３番５－６０１号,,14,204,2480031,,,2024-08-05,清算の結了等,,,2015-10-05,1,,,,,フランインターナショナル,0
2217,8040001060040,登記記録の閉鎖等,0,2024-08-07,2024-07-23,株式会社ハヤショク,,株式会社,千葉県,茂原市,早野２９９６番地ＮＢマンション１０２,,12,210,2970037,,,2024-07-23,清算の結了等,,,2015-10-05,1,,,,,ハヤショク,0
2225,8040003013525,登記記録の閉鎖等,0,2024-08-07,2024-07-24,合同会社ＬｅａｄｉｎｇＨｉｔｔｅｒ,,合同会社,千葉県,柏市,布施１１１０番地５,,12,217,2770825,,,2024-07-24,清算の結了等,,,2019-06-20,1,,,,,リーディングヒッター,0
2229,8050002032698,登記記録の閉鎖等,0,2024-08-07,2024-07-30,有限会社渡辺工業,,有限会社,茨城県,北茨城市,中郷町上桜井４７１番地,,08,215,3191559,,,2024-07-30,清算の結了等,,,2015-10-05,1,,,,,ワタナベコウギョウ,0
2261,8120001192387,登記記録の閉鎖等,0,2024-08-07,2024-08-05,株式会社オデッセイ,,株式会社,沖縄県,宮古島市,下地字上地５１７－３,,47,214,9060304,,,2024-08-05,清算の結了等,,,2015-10-05,1,,,,,オデッセイ,0
2264,8120001246399,登記記録の閉鎖等,0,2024-08-07,2024-07-30,株式会社ＤＫ　Ｉｎｎｏｖａｔｉｏｎ　Ｊａｐａｎ,,株式会社,大阪府,大阪市中央区,久太郎町２丁目５番６号,,27,128,5410056,,,2024-07-30,清算の結了等,,,2022-06-03,1,,,,,ディーケーイノベーションジャパン,0
2284,8122001007442,登記記録の閉鎖等,0,2024-08-07,2024-08-02,株式会社メディオ,,株式会社,大阪府,東大阪市,今米２丁目７番６号,,27,227,5780903,,,2024-08-02,清算の結了等,,,2015-10-05,1,,,,,メディオ,0
2285,8122002016921,登記記録の閉鎖等,0,2024-08-07,2024-08-02,有限会社つぼうち,,有限会社,大阪府,八尾市,小畑町２丁目３３番１０号,,27,212,5810835,,,2024-08-02,清算の結了等,,,2015-10-05,1,,,,,,0
2317,8180002064456,登記記録の閉鎖等,0,2024-08-07,2024-07-25,有限会社イナガキ住建,,有限会社,愛知県,豊明市,阿野町奥屋９５番地,,23,229,4701141,,,2024-07-25,清算の結了等,,,2015-10-05,1,,,,,イナガキジュウケン,0
2321,8190002014591,登記記録の閉鎖等,0,2024-08-07,2024-08-05,有限会社モリコウ商会,,有限会社,三重県,松阪市,上川町２７０８番地の３,,24,204,5150041,,,2024-08-05,清算の結了等,,,2015-10-05,1,,,,,モリコウショウカイ,0
2331,8240001002006,登記記録の閉鎖等,0,2024-08-07,2024-08-02,株式会社オフイス太刀,,株式会社,広島県,広島市南区,東雲本町３丁目２番１０号,,34,103,7340023,,,2024-08-02,清算の結了等,,,2015-10-05,1,,,,,オフィスタチ,0
2338,8240002036366,登記記録の閉鎖等,0,2024-08-07,2024-08-05,有限会社飯盛メンテナンス,,有限会社,広島県,廿日市市,宮内１丁目１番１７号,,34,213,7380034,,,2024-08-05,清算の結了等,,,2015-10-05,1,,,,,イイモリメンテナンス,0
2389,8450001002257,登記記録の閉鎖等,0,2024-08-07,2024-08-02,株式会社中町,,株式会社,北海道,旭川市,五条通２５丁目４０３番地５,,01,204,0788215,,,2024-08-02,清算の結了等,,,2015-10-05,1,,,,,ナカマチ,0
2392,8460002001752,登記記録の閉鎖等,0,2024-08-07,2024-08-02,有限会社大吉阿部蒲鉾店,,有限会社,北海道,釧路市,栄町８丁目１番地,,01,206,0850013,,,2024-08-02,清算の結了等,,,2015-10-05,1,,,,,ダイキチアベカマボコテン,0
2401,8500002021960,登記記録の閉鎖等,0,2024-08-07,2024-07-29,有限会社横野鉄工所,,有限会社,愛媛県,四国中央市,妻鳥町８１４番地,,38,213,7990113,,,2024-07-29,清算の結了等,,,2015-10-05,1,,,,,ヨコノテッコウ,0
2403,8500005006273,登記記録の閉鎖等,0,2024-08-07,2024-08-02,神道修成派宇和島中教会,,その他の設立登記法人,愛媛県,宇和島市,和霊元町３丁目４番１０号,,38,203,7980015,,,2024-08-02,清算の結了等,,,2015-10-05,1,,,,,,0
2411,9010001185062,登記記録の閉鎖等,0,2024-08-07,2024-07-25,株式会社ａｌｄ,,株式会社,東京都,文京区,本郷３丁目５番２号第２田中ビル８階,,13,105,1130033,,,2024-07-25,清算の結了等,,,2017-07-25,1,,,,,エイエルディー,0
2426,9010401159599,登記記録の閉鎖等,0,2024-08-07,2024-07-16,株式会社ＭａＹｕ．ｈｄ,,株式会社,東京都,港区,西麻布２丁目１３番６号ケイズ西麻布７Ｆ,,13,103,1060031,,,2024-07-16,清算の結了等,,,2021-04-19,1,,,,,マユホールディングス,0
2433,9010602025682,登記記録の閉鎖等,0,2024-08-07,2024-08-05,有限会社浅草佐藤保険事務所,,有限会社,東京都,江東区,牡丹３丁目３０番５号,,13,108,1350046,,,2024-08-05,清算の結了等,,,2015-10-05,1,,,,,アサクササトウホケンジムショ,0
2434,9010702003844,登記記録の閉鎖等,0,2024-08-07,2024-07-29,有限会社シンク,,有限会社,東京都,品川区,戸越３丁目５番９号,,13,109,1420041,,,2024-07-29,清算の結了等,,,2015-10-05,1,,,,,シンク,0
2435,9010703006367,登記記録の閉鎖等,0,2024-08-07,2024-07-31,リュミエール合同会社,,合同会社,東京都,品川区,荏原４丁目５番１７号,,13,109,1420063,,,2024-07-31,清算の結了等,,,2022-08-30,1,,,,,リュミエール,0
2477,9012702005275,登記記録の閉鎖等,0,2024-08-07,2024-07-30,有限会社榎本商店,,有限会社,東京都,西東京市,谷戸町２丁目１５番１１号,,13,229,1880001,,,2024-07-30,清算の結了等,,,2015-10-05,1,,,,,エノモトショウテン,0
2480,9013201003860,登記記録の閉鎖等,0,2024-08-07,2024-07-18,株式会社天狼プロダクション,,株式会社,東京都,目黒区,鷹番１丁目１５番１３号,,13,110,1520004,,,2024-07-18,清算の結了等,,,2015-10-05,1,,,,,テンロウプロダクション,0
2496,9030001083223,登記記録の閉鎖等,0,2024-08-07,2024-08-01,株式会社ドリーム,,株式会社,埼玉県,川口市,大字安行原１４１１番地の１,,11,203,3340057,,,2024-08-01,清算の結了等,,,2015-10-05,1,,,,,ドリーム,0
2513,9040001084146,登記記録の閉鎖等,0,2024-08-07,2024-07-24,株式会社たかみね,,株式会社,千葉県,鎌ケ谷市,東初富３丁目８番７－４号,,12,224,2730122,,,2024-07-24,清算の結了等,,,2015-10-05,1,,,,,タカミネ,0
2531,9050003007665,登記記録の閉鎖等,0,2024-08-07,2024-07-18,合同会社すみれプロダクション,,合同会社,東京都,港区,浜松町２丁目２番１５号浜松町ダイヤビル２Ｆ,,13,103,1050013,,,2024-07-18,清算の結了等,,,2023-07-19,1,,,,,スミレプロダクション,0
2545,9080102021291,登記記録の閉鎖等,0,2024-08-07,2024-08-02,有限会社賀茂薬調剤センター,,有限会社,静岡県,賀茂郡南伊豆町,下賀茂１９３番地の２,,22,304,4150303,,,2024-08-02,清算の結了等,,,2015-10-05,1,,,,,カモヤクチョウザイセンター,0
2557,9120001019226,登記記録の閉鎖等,0,2024-08-07,2024-08-05,吉野薬品商事株式会社,,株式会社,大阪府,大阪市生野区,中川４丁目１９番１６号,,27,116,5440005,,,2024-08-05,清算の結了等,,,2015-10-05,1,,,,,ヨシノヤクヒンショウジ,0
2561,9120001217903,登記記録の閉鎖等,0,2024-08-07,2024-08-05,株式会社ｅｎ,,株式会社,大阪府,枚方市,村野東町４６番２２号,,27,210,5730015,,,2024-08-05,清算の結了等,,,2018-12-19,1,,,,,エン,0
2609,9180001102793,登記記録の閉鎖等,0,2024-08-07,2024-07-24,株式会社エコ・エイト,,株式会社,愛知県,名古屋市天白区,野並２丁目３６９番地,,23,116,4680045,,,2024-07-24,清算の結了等,,,2015-10-05,1,,,,,エコエイト,0
2623,9190002007685,登記記録の閉鎖等,0,2024-08-07,2024-08-06,有限会社アンフィニコーポレーションズ,,有限会社,三重県,鈴鹿市,小社町１２５番地３,,24,207,5190324,,,2024-08-06,清算の結了等,,,2015-10-05,1,,,,,,0
2625,9200002013491,登記記録の閉鎖等,0,2024-08-07,2024-08-02,有限会社岐大石材工業,,有限会社,岐阜県,安八郡神戸町,大字西保４７８番地の１,,21,381,5032323,,,2024-08-02,清算の結了等,,,2015-10-05,1,,,,,ギダイセキザイコウギョウ,0
2646,9240002047098,登記記録の閉鎖等,0,2024-08-07,2024-08-01,中央商事有限会社,,有限会社,広島県,府中市,府中町６６８番地の１,,34,208,7260005,,,2024-08-01,清算の結了等,,,2015-10-05,1,,,,,チュウオウショウジ,0
2649,9250001011310,登記記録の閉鎖等,0,2024-08-07,2024-08-05,株式会社リブロ,,株式会社,広島県,広島市安佐南区,東野１丁目１５番３２－４－Ｂ２０１号,,34,105,7310111,,,2024-08-05,清算の結了等,,,2015-10-05,1,,,,,リブロ,0
2651,9250002015566,登記記録の閉鎖等,0,2024-08-07,2024-08-01,有限会社石原通商,,有限会社,山口県,下松市,藤光町１丁目１０番１１号,,35,207,7440028,,,2024-08-01,清算の結了等,,,2015-10-05,1,,,,,イシハラツウショウ,0
2659,9290002006702,登記記録の閉鎖等,0,2024-08-07,2024-07-02,クロキ木材有限会社,,有限会社,福岡県,福岡市城南区,大字東油山４９４番地の２,,40,136,8140155,,,2024-07-02,清算の結了等,,,2015-10-05,1,,,,,クロキモクザイ,0
2668,9330002021754,登記記録の閉鎖等,0,2024-08-07,2024-08-01,エイケイ鉄筋工業有限会社,,有限会社,熊本県,荒尾市,荒尾３６１２番地３８,,43,204,8640041,,,2024-08-01,清算の結了等,,,2015-10-05,1,,,,,エイケイテッキンコウギョウ,0
2679,9400605000288,登記記録の閉鎖等,0,2024-08-07,2024-07-24,農事組合法人小菅生ホップ生産組合,,その他の設立登記法人,岩手県,奥州市,江刺玉里字小菅生沢８６７番地,,03,215,0231134,,,2024-07-24,清算の結了等,,,2015-10-05,1,,,,,コスゴウホップセイサンクミアイ,0
2680,9410001001393,登記記録の閉鎖等,0,2024-08-07,2024-07-31,株式会社城南だいでん,,株式会社,秋田県,秋田市,牛島東５丁目５番１７号,,05,201,0100062,,,2024-07-31,清算の結了等,,,2015-10-05,1,,,,,ジョウナンダイデン,0
2681,9410001011847,登記記録の閉鎖等,0,2024-08-07,2024-07-23,株式会社ホープホールディングス,,株式会社,千葉県,いすみ市,岩船１８７２番地１南房総オーシャンフロントヴィラ２Ｆ,,12,238,2980011,,,2024-07-23,清算の結了等,,,2018-05-09,1,,,,,ホープホールディングス,0
2683,9430001042403,登記記録の閉鎖等,0,2024-08-07,2024-08-01,株式会社小原電装工業,,株式会社,北海道,江別市,高砂町３４番地の１３,,01,217,0670074,,,2024-08-01,合併による解散等,7430001042818,令和６年８月１日北海道江別市高砂町３４番地の１３株式会社小原まつざき建設工業（7430001042818）に合併し解散,2015-10-05,1,,,,,オバラデンソウコウギョウ,0
