sequenceNumber,corporateNumber,process,correct,updateDate,changeDate,name,nameImageId,kind,prefectureName,cityName,streetNumber,addressImageId,prefectureCode,cityCode,postCode,addressOutside,addressOutsideImageId,closeDate,closeCause,successorCorporateNumber,changeCause,assignmentDate,latest,enName,enPrefectureName,enCityName,enAddressOutside,furigana,hihyoji
12,1010003040660,新規,0,2023-05-24,2023-05-24,合同会社クロノス,,合同会社,東京都,千代田区,丸の内３丁目１番１号東京共同会計事務所内,,13,101,1000005,,,,,,,2023-05-24,1,,,,,クロノス,0
13,1010003040685,新規,0,2023-05-24,2023-05-24,カガクル合同会社,,合同会社,東京都,中央区,銀座１丁目１２－４Ｎ＆ＥＢＬＤ．７階,,13,102,1040061,,,,,,,2023-05-24,1,,,,,カガクル,0
19,1010401174473,新規,0,2023-05-24,2023-05-24,株式会社Ａ‐ｌｉｎｅ,,株式会社,東京都,港区,六本木３丁目１０番１０号藤井ビル４Ｆ－Ｂ,,13,103,1060032,,,,,,,2023-05-24,1,,,,,エーライン,0
20,1010401174531,新規,0,2023-05-24,2023-05-24,文華国際株式会社,,株式会社,東京都,港区,新橋４丁目３１番３号第三名和ビル１Ｆ－９Ｆ,,13,103,1050004,,,,,,,2023-05-24,1,,,,,ブンカコクサイ,0
24,1010403030146,新規,0,2023-05-24,2023-05-24,青山イズミビル合同会社,,合同会社,東京都,港区,北青山３丁目１４番４号,,13,103,1070061,,,,,,,2023-05-24,1,,,,,アオヤマイズミビル,0
26,1010405022166,新規,0,2023-05-24,2023-05-24,Ｙｏｙｏｇｉ　Ｏｆｆｉｃｅ一般社団法人,,その他の設立登記法人,東京都,港区,六本木１丁目９番１０号アークヒルズ仙石山森タワー４０階,,13,103,1060032,,,,,,,2023-05-24,1,,,,,ヨヨギオフィス,0
31,1010703006705,新規,0,2023-05-24,2023-05-24,リンデンライフ合同会社,,合同会社,東京都,品川区,大崎２丁目５－７ヒルフラットオオサキ２２２,,13,109,1410032,,,,,,,2023-05-24,1,,,,,リンデンライフ,0
36,1010903008170,新規,0,2023-05-24,2023-05-24,合同会社ＡＮＮＩＶＥＲＳＡＲＹ,,合同会社,東京都,世田谷区,用賀１丁目１－７,,13,112,1580097,,,,,,,2023-05-24,1,,,,,アニバーサリー,0
39,1011001154535,新規,0,2023-05-24,2023-05-24,株式会社ＮＥＯＲＩＡ,,株式会社,東京都,目黒区,大橋２丁目５番５号,,13,110,1530044,,,,,,,2023-05-24,1,,,,,ネオリア,0
40,1011001154592,新規,0,2023-05-24,2023-05-24,株式会社ＴＪＩＰインターナショナル,,株式会社,東京都,目黒区,目黒３丁目３番２６－２０３号,,13,110,1530063,,,,,,,2023-05-24,1,,,,,ティージェイアイピーインターナショナル,0
45,1011201024661,新規,0,2023-05-24,2023-05-24,株式会社光学設計研究所,,株式会社,東京都,中野区,弥生町４丁目７番１４－１１０１号,,13,114,1640013,,,,,,,2023-05-24,1,,,,,コウガクセッケイケンキュウジョ,0
52,1012703002717,新規,0,2023-05-24,2023-05-24,Ｔｏｏｋａ合同会社,,合同会社,東京都,西東京市,向台町４丁目２０番２６号,,13,229,1880013,,,,,,,2023-05-24,1,,,,,トーカ,0
53,1013301050810,新規,0,2023-05-24,2023-05-24,株式会社十九十,,株式会社,東京都,豊島区,西池袋４丁目２５番８号,,13,116,1710021,,,,,,,2023-05-24,1,,,,,トクジュウ,0
66,1020001151723,新規,0,2023-05-24,2023-05-24,大塚不動産コンサルティング株式会社,,株式会社,神奈川県,横浜市西区,戸部町３丁目７８番地１,,14,103,2200042,,,,,,,2023-05-24,1,,,,,オオツカフドウサンコンサルティング,0
68,1020003023953,新規,0,2023-05-24,2023-05-24,合同会社ＭＡＧ,,合同会社,神奈川県,川崎市川崎区,下並木１２番地１－１０１,,14,131,2100025,,,,,,,2023-05-24,1,,,,,マグ,0
77,1030001153941,新規,0,2023-05-24,2023-05-24,ソアレスト株式会社,,株式会社,埼玉県,所沢市,緑町３丁目２９番９号,,11,208,3591111,,,,,,,2023-05-24,1,,,,,ソアレスト,0
78,1030001154023,新規,0,2023-05-24,2023-05-24,株式会社Ｂｒｕｃｋｎｅｒ,,株式会社,埼玉県,所沢市,東所沢２丁目１７番地レクセルガーデン所沢けやきの杜１３１１,,11,208,3590021,,,,,,,2023-05-24,1,,,,,ブルックナー,0
79,1030001154031,新規,0,2023-05-24,2023-05-24,朝日商事株式会社,,株式会社,埼玉県,川口市,本町４丁目７番２１－７０７号オーベル川口本町,,11,203,3320012,,,,,,,2023-05-24,1,,,,,アサヒショウジ,0
89,1040001128323,新規,0,2023-05-24,2023-05-24,株式会社ＫＭＣ,,株式会社,千葉県,白井市,大山口２丁目８番３棟３０４号,,12,232,2701434,,,,,,,2023-05-24,1,,,,,ケイエムシー,0
90,1040001128538,新規,0,2023-05-24,2023-05-24,株式会社Ｂｕｚｚ,,株式会社,千葉県,船橋市,夏見３丁目３２番１６号,,12,204,2730865,,,,,,,2023-05-24,1,,,,,バズ,0
94,1040003022664,新規,0,2023-05-24,2023-05-24,合同会社やすみや,,合同会社,千葉県,成田市,玉造１丁目３１番地７,,12,211,2860011,,,,,,,2023-05-24,1,,,,,ヤスミヤ,0
95,1040003022672,新規,0,2023-05-24,2023-05-24,合同会社ＳＵＮ　ＴＲＡＤＩＮＧ,,合同会社,千葉県,柏市,北柏台１番地５,,12,217,2770836,,,,,,,2023-05-24,1,,,,,サントレーディング,0
96,1040003022689,新規,0,2023-05-24,2023-05-24,合同会社ＴＮＳ,,合同会社,千葉県,千葉市中央区,中央３丁目１８番３号,,12,101,2600013,,,,,,,2023-05-24,1,,,,,ティエヌエス,0
99,1040005022002,新規,0,2023-05-24,2023-05-24,一般社団法人Ｓｐｉｃｅ,,その他の設立登記法人,千葉県,千葉市中央区,中央２丁目５－１千葉中央ツインビル２号館７階,,12,101,2600013,,,,,,,2023-05-24,1,,,,,スパイス,0
104,1050001052877,新規,0,2023-05-24,2023-05-24,鹿島観光ツーリスト株式会社,,株式会社,茨城県,神栖市,波崎９２８２番地１,,08,232,3140408,,,,,,,2023-05-24,1,,,,,カシマカンコウツーリスト,0
105,1050001052885,新規,0,2023-05-24,2023-05-24,株式会社しんちゃん商店,,株式会社,茨城県,水戸市,酒門町４４８４番地の４７,,08,201,3100841,,,,,,,2023-05-24,1,,,,,シンチャンショウテン,0
117,1080103002810,新規,0,2023-05-24,2023-05-24,合同会社ＴＯＭＩコーポレーション,,合同会社,静岡県,御殿場市,中畑６２３番地,,22,215,4120006,,,,,,,2023-05-24,1,,,,,トミコーポレーション,0
134,1120001255126,新規,0,2023-05-24,2023-05-24,株式会社ブリガデイロ,,株式会社,大阪府,大阪市西区,江之子島１丁目７番３号,,27,106,5500006,,,,,,,2023-05-24,1,,,,,ブリガデイロ,0
135,1120001255150,新規,0,2023-05-24,2023-05-24,Ｌｕｐｉｎｅ株式会社,,株式会社,大阪府,大阪市福島区,福島８丁目１６番１０号２Ｆ,,27,103,5530003,,,,,,,2023-05-24,1,,,,,ルピナス,0
136,1120001255175,新規,0,2023-05-24,2023-05-24,株式会社いつば,,株式会社,大阪府,大阪市東成区,大今里南４丁目１番１６号,,27,115,5370013,,,,,,,2023-05-24,1,,,,,イツバ,0
139,1120003024140,新規,0,2023-05-24,2023-05-24,合同会社ゼロアートプラス,,合同会社,大阪府,大阪市天王寺区,上汐３丁目８番１０－５０２号,,27,109,5430002,,,,,,,2023-05-24,1,,,,,ゼロアートプラス,0
140,1120005023628,新規,0,2023-05-24,2023-05-24,一般社団法人いきいきライフ協会淀川,,その他の設立登記法人,大阪府,大阪市西淀川区,柏里２丁目７番２７号ビクトワール塚本６０１,,27,113,5550022,,,,,,,2023-05-24,1,,,,,イキイキライフキョウカイヨドガワ,0
141,1120005023636,新規,0,2023-05-24,2023-05-24,一般社団法人おやこで育つ・愛とゆうきの会,,その他の設立登記法人,大阪府,大阪市天王寺区,大道２丁目１３番２１－４０２号,,27,109,5430052,,,,,,,2023-05-24,1,,,,,オヤコデソダツアイトユウキノカイ,0
143,1120101067578,新規,0,2023-05-24,2023-05-24,ｈｏｍｅ２４株式会社,,株式会社,大阪府,堺市西区,浜寺船尾町東４丁６４番地,,27,144,5928341,,,,,,,2023-05-24,1,,,,,ホームニシ,0
144,1120105009725,新規,0,2023-05-24,2023-05-24,一般社団法人ネクストワン,,その他の設立登記法人,大阪府,泉佐野市,南中樫井６９４番地,,27,213,5980035,,,,,,,2023-05-24,1,,,,,ネクストワン,0
149,1122001037009,新規,0,2023-05-24,2023-05-24,株式会社システム設備ＹＡＯ,,株式会社,大阪府,八尾市,中田１丁目８９番地の１,,27,212,5810014,,,,,,,2023-05-24,1,,,,,システムセツビヤオ,0
153,1122003002588,新規,0,2023-05-24,2023-05-24,合同会社ＴＳＴ,,合同会社,大阪府,大東市,平野屋１丁目２－２４,,27,218,5740022,,,,,,,2023-05-24,1,,,,,ティーエスティー,0
156,1130001074384,新規,0,2023-05-24,2023-05-24,株式会社ｆａｍ,,株式会社,京都府,京都市左京区,北白川下池田町１５６番地１,,26,103,6068284,,,,,,,2023-05-24,1,,,,,ファム,0
157,1130003008753,新規,0,2023-05-24,2023-05-24,Ｆｒａｇｍｅｎｔｓｈｉｐ合同会社,,合同会社,京都府,京都市下京区,朱雀宝蔵町４４番地協栄ビル２階京都朱雀スタジオ,,26,106,6008846,,,,,,,2023-05-24,1,,,,,フラグメントシップ,0
163,1150001026417,新規,0,2023-05-24,2023-05-24,株式会社大和建設エンジニア,,株式会社,奈良県,五條市,野原東６丁目３番５号,,29,207,6370038,,,,,,,2023-05-24,1,,,,,ヤマトケンセツエンジニア,0
164,1150003002969,新規,0,2023-05-24,2023-05-24,合同会社ネットトップ,,合同会社,奈良県,生駒市,緑ケ丘１４２２番地３,,29,209,6300262,,,,,,,2023-05-24,1,,,,,ネットトップ,0
174,1180001156392,新規,0,2023-05-24,2023-05-24,株式会社Ｍｅｄｉｃａｌ　Ｃｒｅａｔｅ,,株式会社,愛知県,名古屋市中区,錦１丁目４番１９号プラウドタワー名古屋丸の内１００１号,,23,106,4600003,,,,,,,2023-05-24,1,,,,,メディカルクリエイト,0
177,1180301037417,新規,0,2023-05-24,2023-05-24,株式会社オギノ企画,,株式会社,愛知県,安城市,大山町２丁目９番地４１,,23,212,4460042,,,,,,,2023-05-24,1,,,,,オギノキカク,0
182,1190001030431,新規,0,2023-05-24,2023-05-24,株式会社竹内高速艇研究所,,株式会社,三重県,四日市市,松寺３丁目７番１５号,,24,202,5108021,,,,,,,2023-05-24,1,,,,,タケウチコウソクテイケンキュウショ,0
186,1210001019323,新規,0,2023-05-24,2023-05-24,株式会社大角ドアメイク,00130591,株式会社,福井県,大飯郡高浜町,中山第１２号１番地,,18,481,9192371,,,,,,,2023-05-24,1,,,,,オオスミドアメイク,0
187,1210003001650,新規,0,2023-05-24,2023-05-24,和楽ｅｎｔｅｒｔａｉｎｍｅｎｔ合同会社,,合同会社,福井県,福井市,新田塚２丁目１１４番６号,,18,201,9100067,,,,,,,2023-05-24,1,,,,,ワラクエンターテイメント,0
192,1240001061561,新規,0,2023-05-24,2023-05-24,インシー株式会社,,株式会社,広島県,東広島市,八本松町米満１１２７番地２,,34,212,7390133,,,,,,,2023-05-24,1,,,,,インシー,0
196,1250001020112,新規,0,2023-05-24,2023-05-24,株式会社ＡＮＤ　ＴＨＥ　ＢＥＡＵＴＹ,,株式会社,山口県,山口市,元町３番７号,,35,203,7530063,,,,,,,2023-05-24,1,,,,,アンドザビューティー,0
197,1260003004319,新規,0,2023-05-24,2023-05-24,合同会社生活と表現,,合同会社,岡山県,岡山市北区,磨屋町３‐１０ＴＯＧＩＴＯＧＩ２Ｆ,,33,101,7000826,,,,,,,2023-05-24,1,,,,,セイカツトヒョウゲン,0
198,1280001008947,新規,0,2023-05-24,2023-05-24,株式会社ライフワークス,,株式会社,島根県,松江市,浜佐田町１０９７番地１７,,32,201,6900855,,,,,,,2023-05-24,1,,,,,ライフワークス,0
208,1290003013944,新規,0,2023-05-24,2023-05-24,合同会社ＬＰＴ,,合同会社,福岡県,古賀市,天神５丁目１４‐２２‐ＩＩ１０３,00130602,40,223,8113101,,,,,,,2023-05-24,1,,,,,エルピーティー,0
209,1290005019048,新規,0,2023-05-24,2023-05-24,一般社団法人エッセンシャルワーカー協会,,その他の設立登記法人,福岡県,福岡市中央区,大名１丁目３番３２号ラ・コルテ大名２０３ＣＲＥＡＴＩＶＥＲＯＯＭ内,,40,133,8100041,,,,,,,2023-05-24,1,,,,,エッセンシャルワーカーキョウカイ,0
211,1300003001971,新規,0,2023-05-24,2023-05-24,合同会社ソラマメ,,合同会社,佐賀県,佐賀市,諸富町大字徳富１３番地３,,41,201,8402104,,,,,,,2023-05-24,1,,,,,ソラマメ,0
214,1350001018369,新規,0,2023-05-24,2023-05-24,株式会社こころケア,,株式会社,宮崎県,宮崎市,佐土原町下田島１９５０８番地２,,45,201,8800211,,,,,,,2023-05-24,1,,,,,ココロケア,0
216,1350003004359,新規,0,2023-05-24,2023-05-24,フィーリーコネクト合同会社,,合同会社,宮崎県,宮崎市,田野町南原２丁目２０番地４,,45,201,8891704,,,,,,,2023-05-24,1,,,,,フィーリーコネクト,0
232,1450001013995,新規,0,2023-05-24,2023-05-24,株式会社モノクロジャパン,,株式会社,北海道,留萌市,花園町１丁目１番１６号,,01,212,0770028,,,,,,,2023-05-24,1,,,,,モノクロジャパン,0
237,1490001010485,新規,0,2023-05-24,2023-05-24,田所刃物株式会社,,株式会社,高知県,土佐市,波介５５８６番地２４,,39,205,7811143,,,,,,,2023-05-24,1,,,,,タドコロハモノ,0
242,1700150113595,新規,0,2023-05-24,2023-01-11,ＡＩＲＦＬＩＰ,,その他,大阪府,寝屋川市,末広町１６－２２,,27,215,5720009,,,,,,,2023-01-11,1,,,,,エアーフリツプ,0
243,1700150116441,新規,0,2023-05-24,2023-05-24,Ｓｈａｎｔｏｕｓｈｉ　Ｗａｎｈｕ　Ｍａｏｙｉ　Ｙｏｕｘｉａｎｇｏｎｇｓｉ,,外国会社等,,,,,,,,Ｎｏ．４３，Ｇｕｆｅｎｇ　Ｒｏａｄ，Ｓｈａｎｇｂａｏ　Ｖｉｌｌａｇｅ，Ｃｈａｏｙａｎｇ　Ｄｉｓｔｒｉｃｔ　Ｓｈａｎｔｏｕ　Ｇｕａｎｇｄｏｎｇ,,,,,,2023-05-24,1,,,,,サントウシワンフマオイユウゲンコウシ,0
244,1700150116458,新規,0,2023-05-24,2023-05-24,ｙｉｗｕｓｈｉ　ｓｈｅｎｇｐｉｎｇ　ｄｉａｎｚｉｓｈａｎｇｗｕ　ｙｏｕｘｉａｎｇｏｎｇｓｉ,,外国会社等,,,,,,,,ｂｅｉｙｕａｎｊｉｅｄａｏ　ｃｈｕｎｈａｎｅｒｑｕ１２３ｚｈｕａｎｇ３ｄａｎｙｕａｎ３０６ｓｈｉ　ｊｉｎｈｕａｓｈｉ　ｙｉｗｕｓｈｉ　ｚｈｅｊｉａｎｇｓｈｅｎｇ　ＣＮ,,,,,,2023-05-24,1,,,,,イーウーシシェンピンデンシショウムユウゲンコウシ,0
245,1700150116466,新規,0,2023-05-24,2023-05-24,ｈｕｎａｎｍｉｎｇｈｕａｊｉｄｉａｎｓｈｉｙｅｙｏｕｘｉａｎｇｏｎｇｓｉ,,外国会社等,,,,,,,,１３１５　Ｗｅｎｈｕａｄａｓｈａ，Ｎｏ．１３９　Ｓｈａｏｓｈａｎ　Ｎｏｒｔｈ　Ｒｏａｄ　Ｃｈａｏｙａｎｇ　Ｓｔｒｅｅｔ，Ｆｕｒｏｎｇ　Ｄｉｓｔｒｉｃｔ　Ｃｈａｎｇｓｈａ　Ｈｕｎａｎ　Ｃｈｉｎａ　４１００１１,,,,,,2023-05-24,1,,,,,フーナンミンフワージーディエンシーイエヨウシエンゴンスー,0
246,1700150116474,新規,0,2023-05-24,2023-05-24,Ｓｈｅｎｚｈｅｎ　Ｙｉｊｉａｈａｏ　Ｉｎｆｏｒｍａｔｉｏｎ　Ｃｏｎｓｕｌｔｉｎｇ　Ｃｏ．，Ｌｔｄ,,外国会社等,,,,,,,,ＢａｏＡｎ　Ｑｕ　ＹａｎＬｕｏ　ＪｉｅＤａｏ　ＹａｎＣｈｕａｎ　ＳｈｅＱｕ　ＹａｎＣｈａｏ　Ｌｕ　５７Ｈａｏ　Ｂｅｉ　１Ｄｏｎｇ　ＺｏｎｇＨｅＬｏｕ　１０２　Ｓｈｅｎｚｈｅｎ　Ｇｕａｎｇｄｏｎｇ　５１８０００　ＣＮ,,,,,,2023-05-24,1,,,,,シェンジェンシーイージャーハオシンシーズーシンヨウシエンゴンスー,0
254,2010001235484,新規,0,2023-05-24,2023-05-24,ＬＡＭＩ株式会社,,株式会社,東京都,中央区,日本橋富沢町３番１８号サンウォールビル４Ｆ,,13,102,1030006,,,,,,,2023-05-24,1,,,,,ラミ,0
255,2010001235550,新規,0,2023-05-24,2023-05-24,株式会社エース,,株式会社,東京都,中央区,銀座６丁目１３番１６号銀座ＷａｌｌビルＵＣＦ５階,,13,102,1040061,,,,,,,2023-05-24,1,,,,,エース,0
256,2010001235575,新規,0,2023-05-24,2023-05-24,ｎｅａｒｂｙ株式会社,,株式会社,東京都,中央区,八丁堀２丁目２０番９号八丁堀ＦＲＯＮＴ１階,,13,102,1040032,,,,,,,2023-05-24,1,,,,,ニアーバイ,0
257,2010003040676,新規,0,2023-05-24,2023-05-24,ＢｒａｖｅＸ合同会社,,合同会社,東京都,中央区,銀座１丁目１２－４Ｎ＆ＥＢＬＤ．７階,,13,102,1040061,,,,,,,2023-05-24,1,,,,,ブレイヴエックス,0
258,2010101015621,新規,0,2023-05-24,2023-05-24,千年星株式会社,,株式会社,東京都,八王子市,子安町１丁目４８番９号共立リライアンス２０２号室,,13,201,1920904,,,,,,,2023-05-24,1,,,,,センネンボシ,0
259,2010101015654,新規,0,2023-05-24,2023-05-24,株式会社サンクライン,,株式会社,東京都,八王子市,堀之内３丁目１番地２３ロイヤルハイツ堀之内２１０号,,13,201,1920355,,,,,,,2023-05-24,1,,,,,サンクライン,0
274,2010403030161,新規,0,2023-05-24,2023-05-24,合同会社クリーンエナジーアセット,,合同会社,東京都,港区,新橋２丁目１２番７号,,13,103,1050004,,,,,,,2023-05-24,1,,,,,クリーンエナジーアセット,0
284,2010801033988,新規,0,2023-05-24,2023-05-24,ＪＩ株式会社,,株式会社,東京都,大田区,中央８丁目３３番２号,,13,111,1430024,,,,,,,2023-05-24,1,,,,,ジェイアイ,0
297,2011101102780,新規,0,2023-05-24,2023-05-24,ＬＥＤ　ＪＡＰＡＮ株式会社,,株式会社,東京都,新宿区,四谷１丁目１８ｂｅｌｌｅ四谷５階,,13,104,1600004,,,,,,,2023-05-24,1,,,,,エルイーディジャパン,0
298,2011101102896,新規,0,2023-05-24,2023-05-24,株式会社ＨＡＰＰｉＸ　ｗｅｌｌｎｅｓｓ,,株式会社,東京都,新宿区,中落合４丁目１８番１０号,,13,104,1610032,,,,,,,2023-05-24,1,,,,,ハピックスウェルネス,0
299,2011101102979,新規,0,2023-05-24,2023-05-24,華良株式会社,,株式会社,東京都,新宿区,早稲田鶴巻町５３８番１９リンクス早稲田ビル５１１,,13,104,1620041,,,,,,,2023-05-24,1,,,,,カリョウ,0
302,2011301028727,新規,0,2023-05-24,2023-05-24,協立住宅株式会社,,株式会社,東京都,杉並区,高井戸東３丁目２４番９号,,13,115,1680072,,,,,,,2023-05-24,1,,,,,キョウリツジュウタク,0
308,2012703002716,新規,0,2023-05-24,2023-05-24,合同会社フューチャーリーダーズ,,合同会社,東京都,西東京市,東町２丁目６番１６号ヴェレーナ保谷１０７号,,13,229,2020012,,,,,,,2023-05-24,1,,,,,フューチャーリーダーズ,0
310,2013103001234,新規,0,2023-05-24,2023-05-24,ＮＡＲＧＡ合同会社,,合同会社,東京都,西多摩郡瑞穂町,箱根ケ崎東松原２６番地２４,,13,303,1901222,,,,,,,2023-05-24,1,,,,,ナーガ,0
326,2020001151722,新規,0,2023-05-24,2023-05-24,山海株式会社,,株式会社,神奈川県,横浜市西区,みなとみらい５丁目３番３－２００１号,,14,103,2200012,,,,,,,2023-05-24,1,,,,,サンカイ,0
327,2020001151730,新規,0,2023-05-24,2023-05-24,央和商事株式会社,,株式会社,神奈川県,横浜市緑区,鴨居４丁目４８番１７号,,14,113,2260003,,,,,,,2023-05-24,1,,,,,オウワショウジ,0
330,2020003023952,新規,0,2023-05-24,2023-05-24,合同会社滝澤ビル,,合同会社,神奈川県,川崎市中原区,苅宿１７番３４号,,14,133,2110022,,,,,,,2023-05-24,1,,,,,タキザワビル,0
335,2021001079103,新規,0,2023-05-24,2023-05-24,アイ・マスト株式会社,,株式会社,神奈川県,横須賀市,根岸町４丁目１２番１号,,14,201,2390807,,,,,,,2023-05-24,1,,,,,アイマスト,0
347,2030001153932,新規,0,2023-05-24,2023-05-24,株式会社エルケ,,株式会社,埼玉県,さいたま市北区,宮原町４丁目２５番地１０,,11,102,3310812,,,,,,,2023-05-24,1,,,,,エルケ,0
350,2030003021757,新規,0,2023-05-24,2023-05-24,合同会社ＵＢコーポレーション,,合同会社,埼玉県,さいたま市大宮区,宮町１丁目８６番１号,,11,103,3300802,,,,,,,2023-05-24,1,,,,,ユービーコーポレーション,0
359,2040001128487,新規,0,2023-05-24,2023-05-24,株式会社サム,,株式会社,千葉県,松戸市,常盤平４丁目８番地の２７,,12,207,2702261,,,,,,,2023-05-24,1,,,,,サム,0
360,2040001128512,新規,0,2023-05-24,2023-05-24,株式会社Ｌ＆Ｆホールディングス,,株式会社,千葉県,千葉市中央区,栄町２６番地８－７０４号,,12,101,2600016,,,,,,,2023-05-24,1,,,,,エルアンドエフホールディングス,0
361,2040001128529,新規,0,2023-05-24,2023-05-24,株式会社Ｊ‐ｍｅｌｏｄｙ,,株式会社,千葉県,白井市,けやき台１丁目１番Ｌプラッツ西白井２棟５０３号,,12,232,2701433,,,,,,,2023-05-24,1,,,,,ジェイメロディ,0
364,2040003022688,新規,0,2023-05-24,2023-05-24,ＹＡＣＨＩＹＯ　ＮＩＲＩＮ　ＬＡＮＫＡ　ＬＯＧＩＳＴＩＣＳ　ＡＮＤ　ＴＲＡＤＩＮＧＳ合同会社,,合同会社,千葉県,八街市,朝日３９９番３,,12,230,2891101,,,,,,,2023-05-24,1,,,,,ヤチヨニリンランカロジスティクスアンドトレーディングス,0
369,2060003004569,新規,0,2023-05-24,2023-05-24,合同会社ＲＹＯ,,合同会社,栃木県,鹿沼市,上日向７６７番地２,,09,205,3220076,,,,,,,2023-05-24,1,,,,,リョオ,0
373,2070001040482,新規,0,2023-05-24,2023-05-24,株式会社ｋａｎａｆｕ,,株式会社,群馬県,北群馬郡吉岡町,大字小倉１１９番地１,,10,345,3703607,,,,,,,2023-05-24,1,,,,,カナウ,0
390,2120001255083,新規,0,2023-05-24,2023-05-24,速見不動産投資株式会社,,株式会社,大阪府,大阪市阿倍野区,阪南町２丁目２３番１６－５１４号,,27,119,5450021,,,,,,,2023-05-24,1,,,,,ハヤミフドウサントウシ,0
391,2120001255133,新規,0,2023-05-24,2023-05-24,株式会社伸栄,,株式会社,大阪府,大阪市中央区,南船場３丁目２－２８ＮＩＰＰＯタイヨービル５１１号,,27,128,5420081,,,,,,,2023-05-24,1,,,,,シンエイ,0
392,2120001255158,新規,0,2023-05-24,2023-05-24,エスアイ工業株式会社,,株式会社,大阪府,大阪市鶴見区,緑２丁目４番２９号,,27,124,5380054,,,,,,,2023-05-24,1,,,,,エスアイコウギョウ,0
393,2120001255166,新規,0,2023-05-24,2023-05-24,株式会社恒達,,株式会社,大阪府,大阪市東淀川区,豊里２丁目１８－１４アヴァンス淀川－ｅａｓｔ,,27,114,5330013,,,,,,,2023-05-24,1,,,,,コウタツ,0
394,2120001255174,新規,0,2023-05-24,2023-05-24,株式会社ＬＧＯ,,株式会社,大阪府,大阪市中央区,東心斎橋２丁目４－２９,,27,128,5420083,,,,,,,2023-05-24,1,,,,,エルジーオー,0
399,2122001037008,新規,0,2023-05-24,2023-05-24,株式会社ＣｏＣｏ,,株式会社,大阪府,東大阪市,友井４丁目１０番１７－１０５号,,27,227,5770816,,,,,,,2023-05-24,1,,,,,ココ,0
401,2122003002595,新規,0,2023-05-24,2023-05-24,合同会社麻野興業,,合同会社,大阪府,大東市,赤井１丁目１５番５号Ｌｕｘｅ住道１２０１号,,27,218,5740046,,,,,,,2023-05-24,1,,,,,アサノコウギョウ,0
409,2140001130276,新規,0,2023-05-24,2023-05-24,見津が丘不動産株式会社,,株式会社,兵庫県,神戸市西区,見津が丘２丁目１番８号,,28,111,6512228,,,,,,,2023-05-24,1,,,,,ミツガオカフドウサン,0
410,2140001130284,新規,0,2023-05-24,2023-05-24,株式会社ｓｔｙｌｅ８２,,株式会社,兵庫県,神戸市中央区,磯辺通１丁目１番２０号ＫＯＷＡビル３階,,28,110,6510084,,,,,,,2023-05-24,1,,,,,スタイルハチニー,0
413,2160001025061,新規,0,2023-05-24,2023-05-24,須田デザインオフィス株式会社,,株式会社,滋賀県,東近江市,伊庭町３０８９番地４,,25,213,5211235,,,,,,,2023-05-24,1,,,,,スダデザインオフィス,0
417,2180001156359,新規,0,2023-05-24,2023-05-24,株式会社ＴＨ商事,,株式会社,愛知県,名古屋市南区,加福本通１丁目６番地,,23,112,4570836,,,,,,,2023-05-24,1,,,,,ティーエイチショウジ,0
418,2180001156409,新規,0,2023-05-24,2023-05-24,株式会社ＧＡ　Ｄｅｓｉｇｎ,,株式会社,愛知県,名古屋市南区,滝春町１９番地の２６,,23,112,4570819,,,,,,,2023-05-24,1,,,,,ジーエーデザイン,0
421,2180003025264,新規,0,2023-05-24,2023-05-24,合同会社あかり,,合同会社,愛知県,名古屋市中川区,八田本町１０番地,,23,110,4540904,,,,,,,2023-05-24,1,,,,,アカリ,0
424,2190001030430,新規,0,2023-05-24,2023-05-24,株式会社高島工業,00130595,株式会社,三重県,伊賀市,阿保３６２番地の１,,24,216,5180226,,,,,,,2023-05-24,1,,,,,タカシマコウギョウ,0
435,2250001020111,新規,0,2023-05-24,2023-05-24,株式会社両替屋,,株式会社,山口県,山口市,小郡下郷１４０１番地６,,35,203,7540002,,,,,,,2023-05-24,1,,,,,リョウガエヤ,0
446,2290003013943,新規,0,2023-05-24,2023-05-24,合同会社ＲＡＰＯＲＴＵＳ,,合同会社,福岡県,福岡市中央区,天神３丁目５番２２号ＯＡＫＶＩＬＬＡ天神プラストロワ７Ｆ,,40,133,8100001,,,,,,,2023-05-24,1,,,,,ラポータス,0
448,2320003004088,新規,0,2023-05-24,2023-05-24,合同会社ミウラリペア,,合同会社,大分県,大分市,金池南１丁目５番１号コレジオ大分１階,,44,201,8700839,,,,,,,2023-05-24,1,,,,,ミウラリペア,0
450,2330001030886,新規,0,2023-05-24,2023-05-24,サンブリッジ株式会社,,株式会社,熊本県,熊本市東区,神水一丁目６番３号２Ｆ,,43,102,8610000,,,,,,,2023-05-24,1,,,,,サンブリッジ,0
455,2350001018368,新規,0,2023-05-24,2023-05-24,株式会社ひなたホーム,,株式会社,宮崎県,宮崎市,大和町９０番地２　１Ｆ,,45,201,8800878,,,,,,,2023-05-24,1,,,,,ヒナタホーム,0
460,2360003012962,新規,0,2023-05-24,2023-05-24,合同会社Ｌｉｎｋ　Ｏｋｉｎａｗａ,,合同会社,沖縄県,中頭郡読谷村,字長浜１５６５番地,,47,324,9040324,,,,,,,2023-05-24,1,,,,,リンクオキナワ,0
461,2360003012987,新規,0,2023-05-24,2023-05-24,ＮＣ　Ｇｌｏｂａｌ合同会社,,合同会社,沖縄県,那覇市,壺川１丁目１６－１５ｉｈｏｍｅ壺川１－Ｂ,,47,201,9000025,,,,,,,2023-05-24,1,,,,,エヌシーグローバル,0
477,2430001089186,新規,0,2023-05-24,2023-05-24,株式会社ＳＧ,,株式会社,北海道,札幌市南区,川沿一条２丁目１番６号,,01,106,0050801,,,,,,,2023-05-24,1,,,,,エスジー,0
481,2470003002424,新規,0,2023-05-24,2023-05-24,ＫｉＮｏＨｉＴｏ合同会社,,合同会社,香川県,丸亀市,飯野町東二甲４４９番地１,,37,202,7630084,,,,,,,2023-05-24,1,,,,,,0
484,2700150115987,新規,0,2023-05-24,2023-05-10,渭北街づくり協議会,,その他,徳島県,徳島市,北前川町２丁目７－３,,36,201,7700806,,,,,,,2023-05-10,1,,,,,イホクマチヅクリキヨウギカイ,0
485,2700150116408,新規,0,2023-05-24,2023-05-24,Ｍｉｎｔａｋａ　Ｌｉｍｉｔｅｄ,,外国会社等,東京都,港区,虎ノ門３丁目２２番１０－２０１号,,13,103,1050001,ジャージー代官管轄区ジャージー島ＪＥ２－３ＱＢセント・ヘリア、エスプラネード４８－５０、サー・ウォルター・ローリー・ハウス２階,,,,,,2023-05-24,1,,,,,ミンタカリミテツド,0
486,2700150116424,新規,0,2023-05-24,2023-05-24,ＷＥＳＴ　ＦＩＥＬＤ　ＥＶＥＮＴ　ＭＡＮＡＧＥＭＥＮＴ,,外国会社等,東京都,渋谷区,広尾２丁目１－１８広尾Ｎビル３階,,13,113,1500012,アラブ首長国連邦ジュベル・アリイブンバトゥータオフィスビルディングコンプレックス４０３ｅ,,,,,,2023-05-24,1,,,,,ウエストフイールドイベントマネジメント,0
487,2700150116440,新規,0,2023-05-24,2023-05-24,Ｓｈｅｎｚｈｅｎ　Ｒｕｉｆｕ　Ｅ　Ｃｏｍｍｅｒｃｅ　Ｃｏ　Ｌｔｄ,,外国会社等,,,,,,,,ｌｉｚｈｉｈｕａｙｕａｎ　ｃ９　ｄｏｎｇ　４１５　ｌｏｎｇｇａｎｇ　ｎａｎｗａｎｊｉｅｄａｏ　Ｓｈｅｎｚｈｅｎ　Ｇｕａｎｇｄｏｎｇ　Ｃｈｉｎｅｓｅ　ｍａｉｎｌａｎｄ,,,,,,2023-05-24,1,,,,,シンセンルィフイコマースカンパニーリミテッド,0
488,2700150116449,新規,0,2023-05-24,2023-05-24,Ｃｈｏｎｇｑｉｎｇ　Ｎａｎｙｉｈａｎ　Ｓｃｉｅｎｃｅ　ａｎｄ　Ｔｅｃｈｎｏｌｏｇｙ　Ｃｏ．，Ｌｔｄ．,,外国会社等,,,,,,,,０１－１１－１６９，ｆｌｏｏｒ　１３，ｕｎｉｔ　１，ｂｕｉｌｄｉｎｇ　１９，Ｎｏ．１８，Ｑｉｘｉａ　Ｒｏａｄ　ｃｈｏｎｇｑｉｎｇ　Ｎｏｒｔｈｅｒｎ　Ｎｅｗ　Ａｒｅａ　ＣＮ,,,,,,2023-05-24,1,,,,,ツォンチンナンイハンサイエンスアンドテクノロジーカンパニーリミテッド,0
489,2700150116457,新規,0,2023-05-24,2023-05-24,ｆｏｓｈａｎ　ｓｈａｎｇｙｉｎｇ　ｃｈａｎｙｅ　ｔｏｕｚｉ　ｙｏｕｘｉａｎ　ｇｏｎｇｓｉ,,外国会社等,,,,,,,,Ｎｏ．１　Ｙｕｅｊｉｎ　Ｓｏｕｔｈ　Ｒｏａｄ，Ｂｅｉｊｉａｏ　Ｃｏｍｍｕｎｉｔｙ，Ｂｅｉｊｉａｏ，Ｓｈｕｎｄｅ　Ｓｈｏｐ　５０７，５ｔｈ　Ｆｌｏｏｒ，Ｂｌｏｃｋ　Ｂ，Ｙｕｅｊｉｎ　Ｃｅｎｔｅｒ　Ｂｕｉｌｄｉｎｇ　Ｆｏｓｈａｎ　Ｇｕａｎｇｄｏｎｇ,,,,,,2023-05-24,1,,,,,フォサンシャンインチァンイェトォウジユウゲンコウシ,0
490,2700150116465,新規,0,2023-05-24,2023-05-24,ＦｕＪｉａｎＳｈｅｎｇＳａｎＤｉＧｕＤｉａｎＪｉａＪｕＹｏｕＸｉａｎＧｏｎｇＳｉ,,外国会社等,,,,,,,,Ｆｕ　Ｊｉａｎ　Ｓｈｅｎｇ　Ｐｕ　Ｔｉａｎ　Ｓｈｉ　Ｘｉａｎ　Ｙｏｕ　Ｘｉａｎ　Ｄａ　Ｊｉ　Ｚｈｅｎ　Ｓｈａｎ　Ｃｅｎ　Ｃｕｎ　Ｄｏｎｇ　Ｆｅｎｇ　１８　Ｈａｏ,,,,,,2023-05-24,1,,,,,フージエンションサンディーグーディエンジャージーヨウシエンゴンスー,0
491,2700150116473,新規,0,2023-05-24,2023-05-24,Ｓｈｅｎｚｈｅｎ　Ｌｉａｎｇｃｈｅｎ　Ｅ　ｃｏｍｍｅｒｃｅ　Ｌｉｍｉｔｅｄ,,外国会社等,,,,,,,,Ｒｏｏｍ　６０３，Ｈｏｎｇｙｕｎ　Ｄｏｒｍｉｔｏｒｙ，Ｎｏ．２０１６，Ｎａｎｘｉｎ　Ｒｏａｄ，Ｎａｎｓｈａｎ　Ｓｔｒｅｅ　Ｇｕａｎｇｚｈｏｕ　Ｇｕａｎｇｄｏｎｇ　５１８０００　ＣＮ,,,,,,2023-05-24,1,,,,,シェンジェンシーリャンチェンディエンズーシャンウーヨウシエンゴンスー,0
498,3010001235525,新規,0,2023-05-24,2023-05-24,株式会社Ｋ‐ＡＳＳＥＴ,,株式会社,東京都,中央区,銀座４丁目１０番１０号,,13,102,1040061,,,,,,,2023-05-24,1,,,,,ケーアセット,0
499,3010001235574,新規,0,2023-05-24,2023-05-24,株式会社Ｔａｘ３．０,,株式会社,東京都,中央区,日本橋１丁目２番地１０号,,13,102,1030027,,,,,,,2023-05-24,1,,,,,タックススリー,0
500,3010003040683,新規,0,2023-05-24,2023-05-24,Ａｙａｎａ’ｓ合同会社,,合同会社,東京都,中央区,銀座６丁目１３番１６号銀座ＷａｌｌビルＵＣＦ５階,,13,102,1040061,,,,,,,2023-05-24,1,,,,,アヤナズ,0
501,3010005036705,新規,0,2023-05-24,2023-05-24,一般社団法人三福会,,その他の設立登記法人,東京都,千代田区,九段南１丁目５番６号りそな九段ビル５階ＫＳフロア,,13,101,1020074,,,,,,,2023-05-24,1,,,,,サンプクカイ,0
502,3010005036738,新規,0,2023-05-24,2023-05-24,一般社団法人ＶＥＲＥＤ５,,その他の設立登記法人,東京都,中央区,八丁堀４丁目２番１０号ＡＯＪ税理士法人内,,13,102,1040032,,,,,,,2023-05-24,1,,,,,ヴェレッドファイブ,0
504,3010103002146,新規,0,2023-05-24,2023-05-24,Ｔ＆Ｔ合同会社,,合同会社,東京都,八王子市,元横山町３丁目２１番６号ハイムＡ２０１号,,13,201,1920063,,,,,,,2023-05-24,1,,,,,ティーアンドティー,0
517,3010401174447,新規,0,2023-05-24,2023-05-24,株式会社ＬＥＩ　ｃｏｎｓｕｌｔｉｎｇ,,株式会社,東京都,港区,赤坂１丁目１２番３２号赤坂アークヒルズアーク森ビル１３階,,13,103,1070052,,,,,,,2023-05-24,1,,,,,レイコンサルティング,0
518,3010401174496,新規,0,2023-05-24,2023-05-24,株式会社パルミラ,,株式会社,東京都,港区,南麻布２丁目２番２－１００２号,,13,103,1060047,,,,,,,2023-05-24,1,,,,,パルミラ,0
519,3010401174538,新規,0,2023-05-24,2023-05-24,株式会社Ｈ１,,株式会社,東京都,港区,虎ノ門１丁目２１番１０－１００５号,,13,103,1050001,,,,,,,2023-05-24,1,,,,,エイチワン,0
520,3010403030144,新規,0,2023-05-24,2023-05-24,合同会社ＮＲＥ‐４８インベストメント,,合同会社,東京都,港区,虎ノ門２丁目１０番４号オークラプレステージタワー,,13,103,1050001,,,,,,,2023-05-24,1,,,,,エヌアールイーヨンジュウハチインベストメント,0
522,3010601063152,新規,0,2023-05-24,2023-05-24,元辰株式会社,,株式会社,東京都,墨田区,両国２丁目１７番１７号両国ダイヤハイツ２０２－Ｄ,,13,107,1300026,,,,,,,2023-05-24,1,,,,,モトタツ,0
539,3011001154590,新規,0,2023-05-24,2023-05-24,ＴＩＧＥＲ株式会社,,株式会社,東京都,目黒区,上目黒３丁目１番１４－３０４号,,13,110,1530051,,,,,,,2023-05-24,1,,,,,,0
555,3012401040554,新規,0,2023-05-24,2023-05-24,株式会社ＭＡＲＲＯＮＮＩＥＲ,,株式会社,東京都,武蔵野市,関前３丁目１０番１２号メルヴェイユ１０２,,13,203,1800014,,,,,,,2023-05-24,1,,,,,マロニエ,0
556,3012801022375,新規,0,2023-05-24,2023-05-24,Ｒｅａｌｔｙ　Ｈｏｍｅ株式会社,,株式会社,東京都,昭島市,田中町２丁目８－２,,13,207,1960014,,,,,,,2023-05-24,1,,,,,リアリティホーム,0
559,3013305003481,新規,0,2023-05-24,2023-05-24,一般財団法人輝星ノ杜,,その他の設立登記法人,東京都,豊島区,西池袋２丁目３６番１１－１００４号,,13,116,1710021,,,,,,,2023-05-24,1,,,,,コウセイノモリ,0
572,3020003023951,新規,0,2023-05-24,2023-05-24,合同会社ランド,,合同会社,神奈川県,横浜市西区,霞ケ丘８５番地１７,,14,103,2200035,,,,,,,2023-05-24,1,,,,,ランド,0
577,3021001079119,新規,0,2023-05-24,2023-05-24,株式会社室山工業,,株式会社,神奈川県,小田原市,矢作３３６番地６,,14,206,2500873,,,,,,,2023-05-24,1,,,,,ムロヤマコウギョウ,0
583,3030001154070,新規,0,2023-05-24,2023-05-24,三ツ矢ライン株式会社,,株式会社,埼玉県,朝霞市,本町１丁目３６番１１－７０１号,,11,227,3510011,,,,,,,2023-05-24,1,,,,,ミツヤライン,0
584,3030001154120,新規,0,2023-05-24,2023-05-24,株式会社ＫａｎｄＫ,,株式会社,埼玉県,草加市,新里町１４２２番地ヴイ・シティ草加３－１０５号,,11,221,3400031,,,,,,,2023-05-24,1,,,,,ケイアンドケイ,0
594,3030003021806,新規,0,2023-05-24,2023-05-24,合同会社スズキカク,,合同会社,埼玉県,さいたま市南区,四谷１丁目２番２８－１号,,11,108,3360032,,,,,,,2023-05-24,1,,,,,スズキカク,0
600,3040001128453,新規,0,2023-05-24,2023-05-24,株式会社６,,株式会社,千葉県,千葉市中央区,都町８丁目１３番４号,,12,101,2600001,,,,,,,2023-05-24,1,,,,,ロク,0
601,3040001128511,新規,0,2023-05-24,2023-05-24,株式会社かける,,株式会社,千葉県,柏市,旭町１丁目２番１３号,,12,217,2770852,,,,,,,2023-05-24,1,,,,,カケル,0
602,3040001128528,新規,0,2023-05-24,2023-05-24,株式会社金ノ豆,,株式会社,千葉県,松戸市,高塚新田６１７番２２号,,12,207,2702222,,,,,,,2023-05-24,1,,,,,キンノマメ,0
603,3040001128536,新規,0,2023-05-24,2023-05-24,株式会社２０,,株式会社,千葉県,浦安市,弁天２丁目２７番３号,,12,227,2790026,,,,,,,2023-05-24,1,,,,,トゥエンティ,0
608,3040003022687,新規,0,2023-05-24,2023-05-24,ＡＬ　ＮＡＺＡＤ　ＥＮＴＥＲＰＲＩＳＥＳ合同会社,,合同会社,千葉県,山武市,松尾町借毛本郷２３００番地１,,12,237,2891537,,,,,,,2023-05-24,1,,,,,アルナザドエンタープライズ,0
610,3050001052883,新規,0,2023-05-24,2023-05-24,株式会社キャリアボル,,株式会社,茨城県,つくば市,吾妻１丁目５－７ダイワロイネットホテルつくばビル２Ｆリージャスつくば,,08,220,3050031,,,,,,,2023-05-24,1,,,,,キャリアボル,0
619,3070001040473,新規,0,2023-05-24,2023-05-24,ＹＡＭ　ＴＲＡＤＩＮＧ株式会社,,株式会社,群馬県,館林市,北成島町２５４４－１０８,,10,207,3740057,,,,,,,2023-05-24,1,,,,,ヤムトレーディング,0
622,3080101024029,新規,0,2023-05-24,2023-05-24,ＥＰＩＭＯＮＩ株式会社,,株式会社,静岡県,富士宮市,大鹿窪９２９番地の１,,22,207,4190303,,,,,,,2023-05-24,1,,,,,エピモニ,0
623,3100001036435,新規,0,2023-05-24,2023-05-24,株式会社原村青果センター,,株式会社,長野県,諏訪郡原村,上里１７７８９番地１,,20,363,3910111,,,,,,,2023-05-24,1,,,,,ハラムラセイカセンター,0
634,3120001255082,新規,0,2023-05-24,2023-05-24,株式会社ＧＯ‐ＥＮ,,株式会社,大阪府,大阪市生野区,林寺２丁目７番１号１Ｆ,,27,116,5440023,,,,,,,2023-05-24,1,,,,,ゴエン,0
635,3120001255099,新規,0,2023-05-24,2023-05-24,Ｆｉｒｓｔｙｌｅ株式会社,,株式会社,大阪府,大阪市中央区,備後町１丁目４番６－３０６号,,27,128,5410051,,,,,,,2023-05-24,1,,,,,ファースタイル,0
636,3120001255157,新規,0,2023-05-24,2023-05-24,株式会社凌建,,株式会社,大阪府,寝屋川市,打上元町２１番２１号,,27,215,5720858,,,,,,,2023-05-24,1,,,,,リョウケン,0
637,3120001255165,新規,0,2023-05-24,2023-05-24,情報テック株式会社,,株式会社,大阪府,大阪市北区,梅田１丁目２番２号大阪駅前第２ビル１２－１２,,27,127,5300001,,,,,,,2023-05-24,1,,,,,ジョウホウテック,0
638,3120001255173,新規,0,2023-05-24,2023-05-24,株式会社コバケン,,株式会社,大阪府,大阪市淀川区,十八条３丁目４番１３号エルコート三国２０１号,,27,123,5320001,,,,,,,2023-05-24,1,,,,,コバケン,0
641,3120003024139,新規,0,2023-05-24,2023-05-24,合同会社ＤＡＩＳＵＫＥ,,合同会社,大阪府,大阪市中央区,谷町９丁目５番１６号ウエムラバロンヴェールビル２０１号,,27,128,5420012,,,,,,,2023-05-24,1,,,,,ダイスケ,0
643,3120901047562,新規,0,2023-05-24,2023-05-24,株式会社Ｎｅｗｒｏｎａ,,株式会社,大阪府,吹田市,広芝町１３－３５－５０３,,27,205,5640052,,,,,,,2023-05-24,1,,,,,ニューロナ,0
644,3120903004652,新規,0,2023-05-24,2023-05-24,合同会社ＯＭ,,合同会社,大阪府,茨木市,舟木町７番１１号,,27,211,5670828,,,,,,,2023-05-24,1,,,,,オーエム,0
645,3120905006465,新規,0,2023-05-24,2023-05-24,一般社団法人全国保育事業革新協議会,,その他の設立登記法人,大阪府,吹田市,桃山台１丁目１番８号,,27,205,5650854,,,,,,,2023-05-24,1,,,,,ゼンコクホイクジギョウカクシンキョウギカイ,0
648,3130001074374,新規,0,2023-05-24,2023-05-24,株式会社エイディス,,株式会社,京都府,京都市右京区,西院巽町４番地,,26,108,6150014,,,,,,,2023-05-24,1,,,,,エイディス,0
651,3130003008743,新規,0,2023-05-24,2023-05-24,Ｂｅｒｇ　Ｈｏｕｓｅ合同会社,,合同会社,京都府,京都市上京区,馬喰町８８７番地３０,,26,102,6028386,,,,,,,2023-05-24,1,,,,,バーグハウス,0
656,3140003019120,新規,0,2023-05-24,2023-05-24,ＹＴワークス合同会社,,合同会社,兵庫県,加古川市,尾上町口里１３０番地９１,,28,210,6750022,,,,,,,2023-05-24,1,,,,,ワイティワークス,0
668,3180001156449,新規,0,2023-05-24,2023-05-24,株式会社グレースＫ,,株式会社,愛知県,稲沢市,長野１丁目４番２－１３０５号,,23,220,4928142,,,,,,,2023-05-24,1,,,,,グレースケー,0
674,3180003025164,新規,0,2023-05-24,2023-05-24,合同会社ｉｔ,,合同会社,愛知県,名古屋市中区,千代田１丁目８－９ＧＵＲＡＮＤＵＫＥ丸田町９０２,,23,106,4600012,,,,,,,2023-05-24,1,,,,,イット,0
679,3200001041342,新規,0,2023-05-24,2023-05-24,株式会社ＨＩＤＥ　ＯＵＴ,,株式会社,岐阜県,本巣市,屋井４４９番地４,,21,218,5010417,,,,,,,2023-05-24,1,,,,,ハイドアウト,0
681,3200005013486,新規,0,2023-05-24,2023-05-24,一般社団法人日本連雲港経済文化交流協会,,その他の設立登記法人,岐阜県,加茂郡白川町,河岐８７３番地１,,21,506,5091105,,,,,,,2023-05-24,1,,,,,ニホンレンウンコウケイザイブンカコウリュウキョウカイ,0
688,3230003002018,新規,0,2023-05-24,2023-05-24,合同会社ＹＯＲＩＳＯＩ,,合同会社,富山県,射水市,戸破１１６８番地５,,16,211,9390351,,,,,,,2023-05-24,1,,,,,ヨリソイ,0
697,3260003004317,新規,0,2023-05-24,2023-05-24,合同会社Ｌｕｌｌ,,合同会社,岡山県,和気郡和気町,福富５６１番地１２,,33,346,7090442,,,,,,,2023-05-24,1,,,,,ルル,0
700,3280003001733,新規,0,2023-05-24,2023-05-24,合同会社ニプロ,,合同会社,島根県,出雲市,知井宮町７１３番地,,32,203,6930033,,,,,,,2023-05-24,1,,,,,ニプロ,0
702,3290001101641,新規,0,2023-05-24,2023-05-24,株式会社なないろ,,株式会社,福岡県,福岡市中央区,唐人町１丁目１０番８号,,40,133,8100063,,,,,,,2023-05-24,1,,,,,ナナイロ,0
704,3290003013942,新規,0,2023-05-24,2023-05-24,サティバイ合同会社,,合同会社,福岡県,古賀市,舞の里２丁目９番１号セジュール千鳥１０５号,,40,223,8113114,,,,,,,2023-05-24,1,,,,,サティバイ,0
712,3320003004087,新規,0,2023-05-24,2023-05-24,合同会社明晃会,,合同会社,大分県,大分市,大字猪野１３４８番地の６,,44,201,8700134,,,,,,,2023-05-24,1,,,,,メイコウカイ,0
732,3430001089193,新規,0,2023-05-24,2023-05-24,株式会社ＴＡＫＡコーポレーション,,株式会社,北海道,北広島市,高台町５丁目１１番地７,,01,234,0611146,,,,,,,2023-05-24,1,,,,,タカコーポレーション,0
744,3430003015081,新規,0,2023-05-24,2023-05-24,合同会社ｅｎｎｅ,,合同会社,北海道,札幌市北区,北七条西４丁目１番１号トーカン札幌第一キャステール６０７,,01,102,0600807,,,,,,,2023-05-24,1,,,,,エンネ,0
749,3700150115978,新規,0,2023-05-24,2023-05-10,法奥コミュニティ推進協議会,,その他,青森県,十和田市,大字奥瀬字中平７０－３,,02,206,0340301,,,,,,,2023-05-10,1,,,,,ホウオクコミユニテイスイシンキヨウギカイ,0
750,3700150116415,新規,0,2023-05-24,2023-05-24,瑪颯祺悦機電設備昆山有限公司,,外国会社等,大阪府,高槻市,下田部町２丁目４１番１５号,,27,207,5690062,中華人民共和国江蘇省蘇州市昆山市玉山町紫竹路６９９号九方城市花園３号楼８室,,,,,,2023-05-24,1,,,,,マサキヨキデンセツビコンサンユウゲンコウシ,0
751,3700150116423,新規,0,2023-05-24,2023-05-24,Ｄ．Ｓ．Ｐ　ＥＮＴＥＲＰＲＩＳＥＳ,,外国会社等,千葉県,白井市,十余一１４番地１,,12,232,2701411,スリランカ民主社会主義共和国ウバ州、バドゥーラ地区、エラ、ヤハレウェラ、パッサラロード、２６８／Ｂ号,,,,,,2023-05-24,1,,,,,デイーエスピーエンタプライゼス,0
752,3700150116448,新規,0,2023-05-24,2023-05-24,Ｈｕｎａｎ　ｍａｉｃｈｅｎｇ　ｄｉａｎｚｉｓｈａｎｇｗｕ　ｙｏｕｘｉａｎｇｏｎｇｓｉ,,外国会社等,,,,,,,,ＣＮ，Ｈｕｎａｎｓｈｅｎｇ，Ｃｈａｎｇｓｈａｓｈｉ，Ｙｕｅｌｕｑｕ，Ｘｉａｎｊｉａｈｕｊｉｅｄａｏ　Ｇｕｆｅｎｇｎａｎｌｕ　９ｈａｏ　ｇａｏｘｉｎｘｉａｎｇｒｉｋｕｉｙｕａｎ　１２ｄｏｎｇ，２ｃｅｎｇ　２０５，２０７，２０８，２０９ｈａｏｆａｎｇｗｕ－１２３ｈａｏ,,,,,,2023-05-24,1,,,,,フナンマイチェンデンシショウムユウゲンコウシ,0
753,3700150116456,新規,0,2023-05-24,2023-05-24,ｓｈｅｎｚｈｅｎｓｈｉ　ｓｈｅｎｇｑｉｎｇｌｏｎｇｋｅｊｉ　ｙｏｕｘｉａｎｇｏｎｇｓｉ,,外国会社等,,,,,,,,ＬａｉＷＵＳｈａｎ　Ｄｏｎｇｑｕ４ｈａｏ　６０３，Ｔｏｎｇｓｈｅｎｇ　ｓｈｅｑｕ，Ｄａｌａｎｇｊｉｅｄａｏ，ｓｈｅｎｚｈｅｎｓｈｉ　ｌｏｎｇｈｕａｑｕ,,,,,,2023-05-24,1,,,,,シンセンシセンチンロンケジユウゲンコウシ,0
754,3700150116464,新規,0,2023-05-24,2023-05-24,ｈｅｎａｎｙａｏｎｕｓｈａｎｇｍａｏｙｏｕｘｉａｎｇｏｎｇｓｉ,,外国会社等,,,,,,,,ｇａｏｘｉｎｑｕｊｉｎｊｕｊｉｅｈａｎｌｉｎｇｕｏｊｉ　ｄｉｎｇｌｏｕｚｈｕａｎｇｙｕａｎ１３ｈａｏｌｏｕ１ｄａｎｙｕａｎ３１ｃｅｎｇ１１０ｈａｏ　ｚｈｅｎｇｚｈｏｕ　ｈｅｎａｎ　４５００００　ＣＮ,,,,,,2023-05-24,1,,,,,ホーナンヤオヌーシャンマオヨウシエンゴンスー,0
755,3700150116472,新規,0,2023-05-24,2023-05-24,Ｓｈｅｎｚｈｅｎ　Ｂｕｌｌｆｒｏｇ　Ｔｅｃｈｎｏｌｏｇｙ　Ｃｏ．，Ｌｔｄ,,外国会社等,,,,,,,,Ｈｅｄｏｎｇ　Ｃｏｍｍｕｎｉｔｙ，Ｘｉｘｉａｎｇ　Ｓｔｒｅｅｔ，Ｂａｏａｎ　Ｄｉｓｔｒｉｃｔ，Ｃ５０１，Ｂｕｉｌｄｉｎｇ　１，Ｆｕｄｏｎｇ　Ｇａｒｄｅｎ，Ｓｈｅｎｚｈｅｎ　Ｇｕａｎｇｄｏｎｇ　５１８１２６　ＣＮ,,,,,,2023-05-24,1,,,,,シェンジェンニューワーコージーヨウシエンゴンスー,0
758,4010001235425,新規,0,2023-05-24,2023-05-24,発祥株式会社,,株式会社,東京都,中央区,八丁堀４丁目１０番１号甲東ビル３０４号室,,13,102,1040032,,,,,,,2023-05-24,1,,,,,ハッショウ,0
761,4010003040666,新規,0,2023-05-24,2023-05-24,ＰａｇｅＣｒａｆｔ合同会社,,合同会社,東京都,中央区,日本橋兜町１７番２号兜町第６葉山ビル４Ｆ,,13,102,1030026,,,,,,,2023-05-24,1,,,,,ページクラフト,0
768,4010401174520,新規,0,2023-05-24,2023-05-24,株式会社サージ,,株式会社,東京都,港区,新橋４丁目２１－３新橋東急ビル２Ｆ・３Ｆ,,13,103,1050004,,,,,,,2023-05-24,1,,,,,サージ,0
769,4010401174594,新規,0,2023-05-24,2023-05-24,メイベルインターナショナル株式会社,,株式会社,東京都,港区,元麻布３丁目１番６号,,13,103,1060046,,,,,,,2023-05-24,1,,,,,メイベルインターナショナル,0
772,4010405022122,新規,0,2023-05-24,2023-05-24,ＳＢＩプライベートリート投資法人,,その他の設立登記法人,東京都,港区,六本木１丁目６番１号,,13,103,1060032,,,,,,,2023-05-24,1,,,,,エスビーアイプライベートリート,0
773,4010501050497,新規,0,2023-05-24,2023-05-24,リンク株式会社,,株式会社,東京都,台東区,台東３丁目１５番３号,,13,106,1100016,,,,,,,2023-05-24,1,,,,,リンク,0
778,4010601063151,新規,0,2023-05-24,2023-05-24,井方旭子株式会社,,株式会社,東京都,墨田区,両国２丁目１７番１７号両国ダイヤハイツ２０２－Ｑ,,13,107,1300026,,,,,,,2023-05-24,1,,,,,イカタアサコ,0
793,4011001152841,新規,0,2023-05-24,2023-05-24,株式会社ＯＦＦＩＣＥ　ＳＡＫＡＴＡ,,株式会社,東京都,渋谷区,上原３丁目７番１１号,,13,113,1510064,,,,,,,2023-05-24,1,,,,,オフィスサカタ,0
794,4011001154557,新規,0,2023-05-24,2023-05-24,株式会社ＮＡＢキャピタル,,株式会社,東京都,渋谷区,千駄ヶ谷３丁目５番１５号,,13,113,1510051,,,,,,,2023-05-24,1,,,,,エヌエービーキャピタル,0
795,4011001154615,新規,0,2023-05-24,2023-05-24,株式会社ＩＳＭ,,株式会社,東京都,渋谷区,南平台町２番８号－２０２,,13,113,1500036,,,,,,,2023-05-24,1,,,,,イズム,0
798,4011101102886,新規,0,2023-05-24,2023-05-24,株式会社ランタンキャピタル,,株式会社,東京都,新宿区,神楽坂４丁目５番３号,,13,104,1620825,,,,,,,2023-05-24,1,,,,,ランタンキャピタル,0
799,4011101102969,新規,0,2023-05-24,2023-05-24,木元株式会社,,株式会社,東京都,新宿区,新宿７丁目２６番７－３１２号室,,13,104,1600022,,,,,,,2023-05-24,1,,,,,キモト,0
801,4011105010664,新規,0,2023-05-24,2023-05-24,一般社団法人浅草ホールディングス,,その他の設立登記法人,東京都,新宿区,西新宿８丁目５番１号,,13,104,1600023,,,,,,,2023-05-24,1,,,,,アサクサホールディングス,0
811,4011601026833,新規,0,2023-05-24,2023-05-24,真剣卍興業株式会社,,株式会社,東京都,練馬区,旭町３丁目２３番１５号－２０２,,13,120,1790071,,,,,,,2023-05-24,1,,,,,マジマンジコウギョウ,0
814,4012401040561,新規,0,2023-05-24,2023-05-24,株式会社ＩＴＯ,,株式会社,東京都,調布市,布田４丁目５番地１,,13,208,1820024,,,,,,,2023-05-24,1,,,,,アイティーオー,0
832,4020001151704,新規,0,2023-05-24,2023-05-24,カセイ株式会社,,株式会社,神奈川県,横浜市西区,北幸２丁目１０－３９日総第５ビル３Ｆウィンドベース横浜西口３０３,,14,103,2200004,,,,,,,2023-05-24,1,,,,,カセイ,0
833,4020001151712,新規,0,2023-05-24,2023-05-24,株式会社Ｐｉｎｅ,,株式会社,神奈川県,横浜市中区,本牧原１２－１ベイタウン本牧５番街４Ｆ,,14,104,2310821,,,,,,,2023-05-24,1,,,,,パイン,0
834,4020001151729,新規,0,2023-05-24,2023-05-24,あおばメディカル株式会社,,株式会社,神奈川県,横浜市青葉区,美しが丘西１丁目３番地５３,,14,117,2250001,,,,,,,2023-05-24,1,,,,,アオバメディカル,0
838,4020003023950,新規,0,2023-05-24,2023-05-24,ＨＯＡＮＧ　ＮＧＨＩ合同会社,,合同会社,神奈川県,横浜市鶴見区,市場東中町３番１２号,,14,101,2300022,,,,,,,2023-05-24,1,,,,,ホアンギイ,0
839,4020005016011,新規,0,2023-05-24,2023-05-24,一般社団法人人材教育研究所,,その他の設立登記法人,神奈川県,横浜市青葉区,大場町３８５番地１６,,14,117,2250023,,,,,,,2023-05-24,1,,,,,ジンザイキョウイクケンキュウジョ,0
841,4021001079092,新規,0,2023-05-24,2023-05-24,株式会社一心,,株式会社,神奈川県,小田原市,成田１０５１番地１,,14,206,2500862,,,,,,,2023-05-24,1,,,,,イッシン,0
842,4021001079134,新規,0,2023-05-24,2023-05-24,株式会社翔,,株式会社,神奈川県,横須賀市,追浜町２丁目１－３９追浜レジデンス１０２,,14,201,2370064,,,,,,,2023-05-24,1,,,,,ショウ,0
850,4030001153947,新規,0,2023-05-24,2023-05-24,株式会社スポンサル,,株式会社,埼玉県,さいたま市北区,土呂町３６８,,11,102,3310804,,,,,,,2023-05-24,1,,,,,スポンサル,0
853,4030003021796,新規,0,2023-05-24,2023-05-24,合同会社ＯＭレジデンス,,合同会社,埼玉県,さいたま市大宮区,上小町３７３－７,,11,103,3300855,,,,,,,2023-05-24,1,,,,,オーエムレジデンス,0
861,4040001128519,新規,0,2023-05-24,2023-05-24,株式会社Ｌｉｚ．,,株式会社,千葉県,東金市,田間２丁目１９番地１,,12,213,2830005,,,,,,,2023-05-24,1,,,,,リズドット,0
862,4040001128543,新規,0,2023-05-24,2023-05-24,東閃株式会社,,株式会社,千葉県,成田市,取香５１３番地６８,,12,211,2860106,,,,,,,2023-05-24,1,,,,,トウセン,0
867,4040003022645,新規,0,2023-05-24,2023-05-24,ホリス・ウェル合同会社,,合同会社,千葉県,市川市,八幡１丁目３番６号,,12,203,2720021,,,,,,,2023-05-24,1,,,,,ホリスウェル,0
868,4040003022678,新規,0,2023-05-24,2023-05-24,合同会社Ｐａｘ　Ｃｏｍｍｕｎｉｔｙ,,合同会社,千葉県,千葉市若葉区,貝塚町１９２番地７４,,12,104,2640023,,,,,,,2023-05-24,1,,,,,パックスコミュニティ,0
869,4040003022686,新規,0,2023-05-24,2023-05-24,ＡＬＩＹＡ　ＭＯＴＯＲＳ合同会社,,合同会社,千葉県,山武市,小松１６８番地３５,,12,237,2891302,,,,,,,2023-05-24,1,,,,,アリヤモータース,0
870,4040005022008,新規,0,2023-05-24,2023-05-24,一般社団法人大浦事務所,,その他の設立登記法人,千葉県,千葉市中央区,川崎町６０番地,,12,101,2600835,,,,,,,2023-05-24,1,,,,,オオウラジムショ,0
872,4050001052833,新規,0,2023-05-24,2023-05-24,株式会社ＳＴアトリエ,,株式会社,茨城県,守谷市,ひがし野２丁目１番地ブランズシティ守谷１０８号室,,08,224,3020131,,,,,,,2023-05-24,1,,,,,エスティーアトリエ,0
881,4070001040480,新規,0,2023-05-24,2023-05-24,アイ・エフパートナー株式会社,,株式会社,群馬県,伊勢崎市,連取町３２８６番地１３,,10,204,3720812,,,,,,,2023-05-24,1,,,,,アイエフパートナー,0
882,4070003004954,新規,0,2023-05-24,2023-05-24,ダイエーテクニカ合同会社,,合同会社,群馬県,伊勢崎市,韮塚町３０９番地４,,10,204,3720813,,,,,,,2023-05-24,1,,,,,ダイエーテクニカ,0
889,4090003002320,新規,0,2023-05-24,2023-05-24,合同会社楓の木,,合同会社,山梨県,甲府市,和田町２７１１番２,,19,201,4000001,,,,,,,2023-05-24,1,,,,,カエデノキ,0
890,4090005007565,新規,0,2023-05-24,2023-05-24,一般社団法人十五社,,その他の設立登記法人,山梨県,南アルプス市,十五所１１０番地,,19,208,4000305,,,,,,,2023-05-24,1,,,,,ジュウゴシャ,0
891,4110001037563,新規,0,2023-05-24,2023-05-24,リード株式会社,,株式会社,新潟県,新潟市東区,もえぎ野２丁目８番１６号,,15,102,9500842,,,,,,,2023-05-24,1,,,,,リード,0
897,4120001255098,新規,0,2023-05-24,2023-05-24,株式会社松,,株式会社,大阪府,大阪市都島区,東野田町５丁目１４番１２号,,27,102,5340024,,,,,,,2023-05-24,1,,,,,マツ,0
898,4120001255156,新規,0,2023-05-24,2023-05-24,飛燕株式会社,,株式会社,大阪府,大阪市生野区,田島２丁目７－２０田島ハイツ３０１号室,,27,116,5440011,,,,,,,2023-05-24,1,,,,,ヒエン,0
899,4120001255172,新規,0,2023-05-24,2023-05-24,ＪＳ旅行株式会社,,株式会社,大阪府,大阪市中央区,南船場１丁目１２番３号,,27,128,5420081,,,,,,,2023-05-24,1,,,,,ジェイエスリョコウ,0
900,4120001255180,新規,0,2023-05-24,2023-05-24,株式会社星盛,,株式会社,大阪府,大阪市中央区,日本橋１丁目２１番２０号丸富日本橋パールビル５０４号,,27,128,5420073,,,,,,,2023-05-24,1,,,,,ホシモリ,0
901,4120003024138,新規,0,2023-05-24,2023-05-24,合同会社Ｔ‐ＰＯＳ,,合同会社,大阪府,大阪市東淀川区,相川２丁目２０－１０－４０１,,27,114,5330007,,,,,,,2023-05-24,1,,,,,ティーポス,0
905,4122001037014,新規,0,2023-05-24,2023-05-24,株式会社寺澤企画,,株式会社,大阪府,東大阪市,西石切町３丁目８番４１号,,27,227,5798013,,,,,,,2023-05-24,1,,,,,テラサワキカク,0
906,4122003002585,新規,0,2023-05-24,2023-05-24,合同会社ＹＯＳＨＩ,,合同会社,大阪府,東大阪市,御厨南１丁目２－１１Ｌｅｍｍｏｎ御厨１０２,,27,227,5770034,,,,,,,2023-05-24,1,,,,,ヨシ,0
907,4122003002593,新規,0,2023-05-24,2023-05-24,青水合同会社,,合同会社,大阪府,八尾市,老原４丁目３－５,,27,212,5810092,,,,,,,2023-05-24,1,,,,,アオミズ,0
911,4130001074365,新規,0,2023-05-24,2023-05-24,ＫＯＫＯＮＡ株式会社,,株式会社,京都府,京都市左京区,田中東高原町２７番白川セントラルハイツ１０４,,26,103,6068243,,,,,,,2023-05-24,1,,,,,ココナ,0
914,4140001130274,新規,0,2023-05-24,2023-05-24,株式会社日本商事,,株式会社,兵庫県,神戸市中央区,三宮町２丁目１１番１号センタープラザ西館Ｂ１,,28,110,6500021,,,,,,,2023-05-24,1,,,,,ニッポンショウジ,0
921,4180001156431,新規,0,2023-05-24,2023-05-24,株式会社ＹＳＫＤ,,株式会社,愛知県,名古屋市守山区,小六町５番１８号,,23,113,4630054,,,,,,,2023-05-24,1,,,,,ワイエスケイディ,0
926,4190001030429,新規,0,2023-05-24,2023-05-24,株式会社コンパス,,株式会社,三重県,松阪市,久保町９１１番地１ルソレイユ２０２,,24,204,5150044,,,,,,,2023-05-24,1,,,,,コンパス,0
929,4190003004331,新規,0,2023-05-24,2023-05-24,合同会社ヒラノＳＤＧｓ１７,,合同会社,三重県,桑名市,長島町平方１１１番地,,24,205,5111147,,,,,,,2023-05-24,1,,,,,ヒラノエスディージーズセブンティーン,0
942,4260001037978,新規,0,2023-05-24,2023-05-24,株式会社真備営農センター,,株式会社,岡山県,倉敷市,真備町川辺７６５番地,,33,202,7101313,,,,,,,2023-05-24,1,,,,,マビエイノウセンター,0
943,4260005011236,新規,0,2023-05-24,2023-05-24,一般社団法人人材支縁事業承継協会,,その他の設立登記法人,岡山県,岡山市北区,本町４番１６号コア本町６０３,,33,101,7000901,,,,,,,2023-05-24,1,,,,,ジンザイシエンジギョウショウケイキョウカイ,0
958,4310001018428,新規,0,2023-05-24,2023-05-24,エヌプロ株式会社,,株式会社,長崎県,壱岐市,郷ノ浦町志原南触１３７４番地,,42,210,8115124,,,,,,,2023-05-24,1,,,,,エヌプロ,0
959,4320003004086,新規,0,2023-05-24,2023-05-24,ゆふいん合同会社,,合同会社,大分県,由布市,湯布院町川上３５４９－２,,44,213,8795102,,,,,,,2023-05-24,1,,,,,ユフイン,0
964,4350001018366,新規,0,2023-05-24,2023-05-24,株式会社ＭａｉｎＭａｎ,,株式会社,宮崎県,宮崎市,大字本郷南方２７５０番地７,,45,201,8800921,,,,,,,2023-05-24,1,,,,,メインマン,0
980,4400001016257,新規,0,2023-05-24,2023-05-24,株式会社夢の街創造委員会,,株式会社,岩手県,滝沢市,鵜飼臨安１０２番地ペットの里内,,03,216,0200682,,,,,,,2023-05-24,1,,,,,ユメノマチソウゾウイインカイ,0
989,4430001089168,新規,0,2023-05-24,2023-05-24,佐竹工業株式会社,,株式会社,北海道,苫小牧市,元中野町４丁目１２番６号,,01,213,0530005,,,,,,,2023-05-24,1,,,,,サタケコウギョウ,0
990,4430001089226,新規,0,2023-05-24,2023-05-24,株式会社ＬＩＮＫ　ＯＦ,,株式会社,北海道,札幌市東区,北三十条東１５丁目１番１９号,,01,103,0650030,,,,,,,2023-05-24,1,,,,,リンクオブ,0
999,4700150037791,新規,0,2023-05-24,2015-10-09,田島祇園祭屋台歌舞伎保存会,,その他,福島県,南会津郡南会津町,田島字宮本東２２,,07,368,9670004,,,,,,,2015-10-09,1,,,,,タジマギオンサイヤタイカブキホゾンカイ,0
1000,4700150116430,新規,0,2023-05-24,2023-05-24,ＭＴＪ　ＩＮＴＥＲＮＡＴＩＯＮＡＬ,,外国会社等,茨城県,取手市,配松４７８－１０６,,08,217,3001541,スリランカ民主社会主義共和国、タンガッレ、ベリアッタロード、７５／Ａ,,,,,,2023-05-24,1,,,,,エムテイジエイインターナシヨナル,0
1001,4700150116439,新規,0,2023-05-24,2023-05-24,Ｄｏｎｇｇｕａｎｓｈｉ　Ｌｉｋｅｊｉａ　Ｄｉａｎｚｉ　Ｙｏｕｘｉａｎｇｏｎｇｓｉ,,外国会社等,,,,,,,,Ｔａｎｇｘｉａｚｈｅｎｇ　Ｔｉａｎｘｉｎｓｈｅｑｕ　Ｆｅｎｇｄａｇｏｎｇｙｅｙｕａｎ　Ｆｅｎｇｄａｌｕ　１　Ｈａｏ　２　Ｆｌｏｏｒ　Ｄｏｎｇｇｕａｎｓｈｉ　Ｇｕａｎｇｄｏｎｇｓｈｅｎｇ,,,,,,2023-05-24,1,,,,,ドングァンシリケジャデンシユウゲンコウシ,0
1002,4700150116447,新規,0,2023-05-24,2023-05-24,Ｓｈｅｎｚｈｅｎｓｈｉ　Ｐｅｉｙａ　ＫｅＪｉ　Ｙｏｕｘｉａｎｇｏｎｇｓｉ,,外国会社等,,,,,,,,Ｒ５０９　３Ｄｏｎｇ　Ｈｏｎｇｓｈｅｎｇ　Ｋｅｊｉｙｕａｎ　４３３６　ＢａｏＡｎ　Ｄａｄａｏ　Ｇｕｘｉｎｇ　Ｓｈｅｑｕ　Ｘｉｘｉａｎｇ　Ｊｉｅｄａｏ　ＢａｏＡｎＱｕ　Ｓｈｅｎｚｈｅｎ　Ｇｕａｎｇｄｏｎｇ　ＣＮ,,,,,,2023-05-24,1,,,,,シェンゼェンシペイヤケジユウゲンコウシ,0
1003,4700150116455,新規,0,2023-05-24,2023-05-24,ｍｉｎｑｉｎｇｘｉａｎ　ｙｉｃｈｅｎｄｉａｎｚｉｓｈａｎｇｗｕ　ｙｏｕｘｉａｎｇｏｎｇｓｉ,,外国会社等,,,,,,,,ｆｕｊｉａｎｓｈｅｎｇ　ｆｕｚｈｏｕｓｈｉ　ｍｉｎｑｉｎｇｘｉａｎ　ｍｅｉｃｈｅｎｇｚｈｅｎ　ｘｉｄａｌｕ　５３２ｈａｏ　ｚａｙｉｃｅｎｇ２ｈａｏ,,,,,,2023-05-24,1,,,,,ミンチンシェンイチェンデンシシャンウユウゲンコウシ,0
1004,4700150116463,新規,0,2023-05-24,2023-05-24,ｈｅｎａｎｄｉｅｚｏｕｓｈａｎｇｍａｏｙｏｕｘｉａｎｇｏｎｇｓｉ,,外国会社等,,,,,,,,ｇａｏｘｉｎｊｉｓｈｕｃｈａｎｙｅｋａｉｆａｑｕｄｏｎｇｑｉｎｇｊｉｅ２６ｈａｏ　ｈｅｎａｎｄｉａｎｚｉｓｈａｎｇｗｕｃｈａｎｙｅｙｕａｎ５－７０５　ｚｈｅｎｇｚｈｏｕ　ｈｅｎａｎ　４５００００　ＣＮ,,,,,,2023-05-24,1,,,,,ホーナンディエゾウシャンマオヨウシエンゴンスー,0
1005,4700150116471,新規,0,2023-05-24,2023-05-24,Ｗｕｈａｎ　Ｚｈｉｙｉｈｅｎｇ　Ｔｅｃｈｎｏｌｏｇｙ　Ｃｏ．，Ｌｔｄ．,,外国会社等,,,,,,,,Ｈｏｎｇｇｕａｎｇｂａｏｚｕｏ　Ｆｌｏｏｒ　９，Ｆ　ｒｏｏｍ　Ｎｏ６　Ｍｉｎｚｈｕ　Ｒｏａｄ　Ｎｏ７８２，Ｚｈｏｎｇｎａｎｌｕ　Ｓｔｒｅｅｔ，Ｗｕｃｈａｎｇ　Ｗｕｈａｎ　Ｈｕｂｅｉ　４３００７１　ＣＮ,,,,,,2023-05-24,1,,,,,ウーハンジーイーホンコージーヨウシエンゴンスー,0
1009,5010001235424,新規,0,2023-05-24,2023-05-24,遠海株式会社,,株式会社,東京都,中央区,八丁堀４丁目１０－２八丁堀ビル７０１号室,,13,102,1040032,,,,,,,2023-05-24,1,,,,,エンカイ,0
1010,5010001235432,新規,0,2023-05-24,2023-05-24,杉山＆外交アソシエイツ株式会社,,株式会社,東京都,千代田区,内幸町１丁目１番１号,,13,101,1000011,,,,,,,2023-05-24,1,,,,,スギヤマアンドガイコウアソシエイツ,0
1011,5010001235449,新規,0,2023-05-24,2023-05-24,株式会社ＵＪＡ　ＧＬＯＢＡＬ　ＡＤＶＩＳＯＲＹ　ＪＡＰＡＮ,,株式会社,東京都,中央区,銀座６丁目１３番９号ｂｉｚｃｕｂｅ,,13,102,1040061,,,,,,,2023-05-24,1,,,,,ユージェーエーグローバルアドバイザリージャパン,0
1012,5010001235548,新規,0,2023-05-24,2023-05-24,連勝株式会社,,株式会社,東京都,千代田区,一番町６番地３ライオンズマンション一番町２０７号,,13,101,1020082,,,,,,,2023-05-24,1,,,,,レンショウ,0
1013,5010001235564,新規,0,2023-05-24,2023-05-24,株式会社Ｒ．Ｖ．Ｐｒｅｓｅｎｔｓ,,株式会社,東京都,千代田区,神田須田町１丁目１５－１－３０３,,13,101,1010041,,,,,,,2023-05-24,1,,,,,アールブイプレゼンツ,0
1016,5010005036736,新規,0,2023-05-24,2023-05-24,一般社団法人ＤＩＭＳ,,その他の設立登記法人,東京都,中央区,日本橋１丁目４番１号日本橋一丁目ビルディング,,13,102,1030027,,,,,,,2023-05-24,1,,,,,ディーアイエムエス,0
1027,5010403030118,新規,0,2023-05-24,2023-05-24,合同会社ベンチャーバース,,合同会社,東京都,港区,南青山３丁目１番３６号青山丸竹ビル６階,,13,103,1070062,,,,,,,2023-05-24,1,,,,,ベンチャーバース,0
1031,5010601063150,新規,0,2023-05-24,2023-05-24,株式会社ピンクモンスター,,株式会社,東京都,墨田区,文花１丁目１８番１３号,,13,107,1310044,,,,,,,2023-05-24,1,,,,,ピンクモンスター,0
1034,5010701044298,新規,0,2023-05-24,2023-05-24,株式会社Ｎｅｘｔ　Ｆｉｅｌｄ,,株式会社,東京都,品川区,上大崎２丁目１５－１９ＭＧ目黒駅前ビル,,13,109,1410021,,,,,,,2023-05-24,1,,,,,ネクストフィールド,0
1042,5010901053108,新規,0,2023-05-24,2023-05-24,株式会社Ｌｕｃｋ,,株式会社,東京都,世田谷区,奥沢５丁目１番１１号メゾンドジョワ２０２,,13,112,1580083,,,,,,,2023-05-24,1,,,,,ラック,0
1053,5011001154390,新規,0,2023-05-24,2023-05-24,株式会社ＲＥＣＡＲＥ,,株式会社,東京都,渋谷区,神宮前６丁目２３番４号桑野ビル２階,,13,113,1500001,,,,,,,2023-05-24,1,,,,,リケア,0
1054,5011001154564,新規,0,2023-05-24,2023-05-24,株式会社三上,,株式会社,東京都,渋谷区,渋谷２丁目１９番１５号宮益坂ビルディング６０９,,13,113,1500002,,,,,,,2023-05-24,1,,,,,ミカミ,0
1055,5011001154580,新規,0,2023-05-24,2023-05-24,株式会社ＲＸ　ｔｅｃｈｎｏｌｏｇｉｅｓ,,株式会社,東京都,渋谷区,広尾５丁目１９－１－５０１,,13,113,1500012,,,,,,,2023-05-24,1,,,,,アールエックステクノロジーズ,0
1061,5011103013073,新規,0,2023-05-24,2023-05-24,合同会社ツバキホールディングス,,合同会社,東京都,新宿区,歌舞伎町２丁目８番３号最上ビル６０１,,13,104,1600021,,,,,,,2023-05-24,1,,,,,ツバキホールディングス,0
1064,5011605002524,新規,0,2023-05-24,2023-05-24,特定非営利活動法人世界言語文化研究機構,,その他の設立登記法人,東京都,練馬区,北町８丁目５番２号２０７,,13,120,1790081,,,,,,,2023-05-24,1,,,,,セカイゲンゴブンカケンキュウキコウ,0
1079,5020001151728,新規,0,2023-05-24,2023-05-24,ごえん株式会社,,株式会社,神奈川県,川崎市高津区,久本１丁目１６番１２号武蔵野ビル２階,,14,134,2130011,,,,,,,2023-05-24,1,,,,,ゴエン,0
1080,5020001151744,新規,0,2023-05-24,2023-05-24,株式会社ＣＯＮＮＥＣＴＡ,,株式会社,神奈川県,横浜市青葉区,千草台３９番地２５,,14,117,2270051,,,,,,,2023-05-24,1,,,,,コネクタ,0
1084,5020003023891,新規,0,2023-05-24,2023-05-24,ジパング・ストラテジック・ファイナンス合同会社,,合同会社,神奈川県,横浜市戸塚区,戸塚町５０９９番２号ザ・パークハウス戸塚レジデンス１０５,,14,110,2440003,,,,,,,2023-05-24,1,,,,,ジパングストラテジックファイナンス,0
1085,5020005016010,新規,0,2023-05-24,2023-05-24,一般社団法人モチベーター協会,,その他の設立登記法人,神奈川県,横浜市西区,みなとみらい４丁目４番２号横浜ブルーアベニュー１２Ｆ,,14,103,2200012,,,,,,,2023-05-24,1,,,,,モチベーターキョウカイ,0
1092,5021003013123,新規,0,2023-05-24,2023-05-24,テツダッテ合同会社,,合同会社,神奈川県,厚木市,飯山南２丁目３番１－１０９号,,14,212,2430218,,,,,,,2023-05-24,1,,,,,テツダッテ,0
1098,5030001153979,新規,0,2023-05-24,2023-05-24,株式会社エムズプラス,,株式会社,埼玉県,川口市,大字榛松６１７番地の１,,11,203,3340062,,,,,,,2023-05-24,1,,,,,エムズプラス,0
1099,5030001154085,新規,0,2023-05-24,2023-05-24,株式会社ＭＲリビング,,株式会社,埼玉県,さいたま市桜区,西堀３丁目５番１３－３０６号,,11,106,3380832,,,,,,,2023-05-24,1,,,,,エムアールリビング,0
1106,5040001128518,新規,0,2023-05-24,2023-05-24,株式会社トミオナーサリー,,株式会社,千葉県,千葉市若葉区,高品町２５０番地１,,12,104,2640024,,,,,,,2023-05-24,1,,,,,トミオナーサリー,0
1113,5040003022669,新規,0,2023-05-24,2023-05-24,合同会社ＲＥＤＥＳＳ,,合同会社,千葉県,印西市,高花６丁目４１－１３,,12,231,2701342,,,,,,,2023-05-24,1,,,,,レデス,0
1114,5040003022677,新規,0,2023-05-24,2023-05-24,合同会社フロントベース,,合同会社,千葉県,習志野市,津田沼２丁目１１番１９－３０４号,,12,216,2750016,,,,,,,2023-05-24,1,,,,,フロントベース,0
1115,5040003022685,新規,0,2023-05-24,2023-05-24,ＡＭＩＮＡ　ＡＵＴＯ合同会社,,合同会社,千葉県,東金市,東金１４８１番地１,,12,213,2830802,,,,,,,2023-05-24,1,,,,,アミナオート,0
1118,5060001036017,新規,0,2023-05-24,2023-05-24,野口タクシー株式会社,,株式会社,栃木県,下都賀郡壬生町,大字安塚９１５－４,,09,361,3210201,,,,,,,2023-05-24,1,,,,,ノグチタクシー,0
1125,5080101024027,新規,0,2023-05-24,2023-05-24,株式会社羽切建築設計事務所,00130589,株式会社,静岡県,沼津市,小諏訪３７番地の３,,22,203,4100872,,,,,,,2023-05-24,1,,,,,ハキリケンチクセッケイジムショ,0
1135,5120001255155,新規,0,2023-05-24,2023-05-24,東辰株式会社,,株式会社,大阪府,大阪市生野区,田島２丁目７－２０田島ハイツ２０３号室,,27,116,5440011,,,,,,,2023-05-24,1,,,,,トウシン,0
1141,5120003024137,新規,0,2023-05-24,2023-05-24,ｃｏｎｓｔｙｌｅ合同会社,,合同会社,大阪府,大阪市西区,土佐堀３丁目２番１８号奥内土佐堀ビル,,27,106,5500001,,,,,,,2023-05-24,1,,,,,コンスタイル,0
1142,5120003024145,新規,0,2023-05-24,2023-05-24,合同会社ＨＡＪＩＭＡＲＵ,,合同会社,大阪府,大阪市北区,梅田１丁目２番２号大阪駅前第２ビル１２‐１２,,27,127,5300001,,,,,,,2023-05-24,1,,,,,ハジマル,0
1145,5122003002592,新規,0,2023-05-24,2023-05-24,合同会社Ｎ‐Ｆｕｓｉｏｎ,,合同会社,大阪府,東大阪市,渋川町１丁目３番１５号エス・グランデ渋川１０２号,,27,227,5770836,,,,,,,2023-05-24,1,,,,,エヌフュージョン,0
1147,5130001074364,新規,0,2023-05-24,2023-05-24,株式会社ｗｅｅｗｏｏ,,株式会社,京都府,城陽市,寺田市ノ久保７６番地の７,,26,207,6100121,,,,,,,2023-05-24,1,,,,,ウィーウー,0
1154,5140001130281,新規,0,2023-05-24,2023-05-24,株式会社アイビー,,株式会社,兵庫県,小野市,下来住町１１７９番地の１,,28,218,6751344,,,,,,,2023-05-24,1,,,,,アイビー,0
1160,5170003001874,新規,0,2023-05-24,2023-05-24,合同会社ＢＳＮコンサルティング,,合同会社,和歌山県,橋本市,高野口町名古曽５１－１,,30,203,6497203,,,,,,,2023-05-24,1,,,,,ビーエスエヌコンサルティング,0
1177,5190003004330,新規,0,2023-05-24,2023-05-24,合同会社みずのうつわ,,合同会社,三重県,鈴鹿市,国府町６２番地の１,,24,207,5130836,,,,,,,2023-05-24,1,,,,,ミズノウツワ,0
1186,5220001025416,新規,0,2023-05-24,2023-05-24,１２３株式会社,,株式会社,石川県,金沢市,泉本町４丁目１０１‐２‐１０７,,17,201,9218042,,,,,,,2023-05-24,1,,,,,イチニサン,0
1192,5240001061558,新規,0,2023-05-24,2023-05-24,株式会社Ｎｉｊｉ,,株式会社,広島県,広島市中区,西十日市町３番３０号Ｄｏ－Ｃｕｌｔｕｒｅ５０２,,34,101,7300806,,,,,,,2023-05-24,1,,,,,ニジ,0
1207,5290001101615,新規,0,2023-05-24,2023-05-24,大地不動産株式会社,,株式会社,福岡県,福岡市博多区,奈良屋町１０－３西日本奈良屋ビル５０２,,40,132,8120023,,,,,,,2023-05-24,1,,,,,ダイチフドウサン,0
1223,5360003012976,新規,0,2023-05-24,2023-05-24,合同会社沖縄かりゆしレンタカー,,合同会社,沖縄県,那覇市,首里末吉町２丁目１１２番地３,,47,201,9030801,,,,,,,2023-05-24,1,,,,,オキナワカリユシレンタカー,0
1238,5430003015063,新規,0,2023-05-24,2023-05-24,合同会社ウィステリア,,合同会社,北海道,札幌市白石区,菊水三条５丁目２番１－２０８号,,01,104,0030803,,,,,,,2023-05-24,1,,,,,ウィステリア,0
1239,5430005014724,新規,0,2023-05-24,2023-05-24,一般社団法人北海道三笠観光協会,,その他の設立登記法人,北海道,三笠市,岡山１０５６番地,,01,222,0682165,,,,,,,2023-05-24,1,,,,,ホッカイドウミカサカンコウキョウカイ,0
1240,5470001019632,新規,0,2023-05-24,2023-05-24,株式会社安戸,,株式会社,香川県,高松市,牟礼町牟礼２１３３番地３,,37,201,7610121,,,,,,,2023-05-24,1,,,,,アンド,0
1244,5700150116438,新規,0,2023-05-24,2023-05-24,ｆｏｓｈａｎｓｈｉ　ｋａｌａｉｓｉ　ｍａｏｙｉ　ｙｏｕｘｉａｎｇｏｎｇｓｉ,,外国会社等,,,,,,,,ｄａｌｉｚｈｅｎｙａｎｂｕｃｈａｎｌｏｎｇｌｕ１ｈａｏｍｅｉｓｉｇｕａｎｇｃｈａｎｇＢｄｏｎｇ１７０７ｓｈｉ　ｆｏｓｈａｎｓｈｉｎａｎｈａｉｑｕ　ｇｕａｎｇｄｏｎｇｓｈｅｎｇ　ＣＮ,,,,,,2023-05-24,1,,,,,フォーシャンシカライスマオイユウゲンコウシ,0
1245,5700150116446,新規,0,2023-05-24,2023-05-24,Ｘｉｎｙａｎｇ　ｘｕｅｓｈｉＹｏｕｐｉｎ　Ｅｌｅｃｔｒｏｎｉｃ　Ｔｅｃｈｎｏｌｏｇｙ　Ｃｏ．，Ｌｔｄ,,外国会社等,,,,,,,,Ｓｈｅｎｚｈｕａｎｇ　Ｖｉｌｌａｇｅ，Ｈｕｄｉａｎ　Ｔｏｗｎｓｈｉｐ　Ｗｅｓｔ　Ｆｉｅｌｄ　Ｇｒｏｕｐ　Ｎｏ．８　Ｐｉｎｇｑｉａｏ　Ｄｉｓｔｒｉｃｔ，Ｘｉｎｙａｎｇ　Ｃｉｔｙ　Ｈｅｎａｎ　Ｐｒｏｖｉｎｃｅ　ＣＮ,,,,,,2023-05-24,1,,,,,シンヤンシュエシヨウピンイレクトゥロニックテクノロジーカンパニーリミテッド,0
1246,5700150116454,新規,0,2023-05-24,2023-05-24,Ｓｈｅｎｚｈｅｎ　Ｈｅｎｇｘｉｎｇｓｈｅｎｇ　Ｅｌｅｃｔｒｏｎｉｃｓ　Ｃｏ．，Ｌｔｄ．,,外国会社等,,,,,,,,Ａｒｅａ　Ａ，５ｔｈ　Ｆｌｏｏｒ，Ｓｈａｂｉａｎｃｈｅｎｇｄｏｎｇ　Ｉｎｄｕｓｔｒｉａｌ　Ｚｏｎｅ，Ｎａｎｃｈａｎ　Ｓｈｅｎｚｈｅｎ　Ｇｕａｎｇｄｏｎｇ,,,,,,2023-05-24,1,,,,,シンセンヘンシンセンイレクトゥロニクスカンパニーリミテッド,0
1247,5700150116462,新規,0,2023-05-24,2023-05-24,ｚｈｅｎｇｚｈｏｕｓｈｉｗｅｎａｏｓｈａｎｇｍａｏｙｏｕｘｉａｎｚｅｒｅｎｇｏｎｇｓｉ,,外国会社等,,,,,,,,４０３－１，Ｂｕｉｌｄｉｎｇ　５，Ｈｅｎａｎ　Ｅ－ｃｏｍｍｅｒｃｅ　Ｉｎｄｕｓｔｒｉａｌ　Ｐａｒｋ，２６　Ｄｏｎｇｑｉｎｇ　Ｓｔｒｅｅｔ，Ｇａｏｘｉｎ　Ｔｅｃｈｎｏｌｏｇｙ　Ｉｎｄｕｓｔｒｉａｌ　Ｄｅｖｅｌｏｐｍｅｎｔ　Ｚｏｎｅ，Ｚｈｅｎｇｚｈｏｕ　Ｃｉｔｙ，Ｈｅｎａｎ　Ｐｒｏｖｉｎｃｅ,,,,,,2023-05-24,1,,,,,ジョンジョウシーウェンアオシャンマオヨウシエンゾーレンゴンスー,0
1248,5700150116470,新規,0,2023-05-24,2023-05-24,Ｊｉｎａｎ　Ｘｉｎｓｈｕｎｙｕａｎ　Ｐａｃｋｉｎｇ　Ｃｏ．，Ｌｔｄ．,,外国会社等,,,,,,,,ｚｈａｎｇｑｉｕｑｕｎｉｎｇｊｉａｂｕｊｉｅｄａｏ　ｌｉｕｊｉａｃｕｎ　ｊｉｎａｎ　ｓｈａｎｄｏｎｇ　２５０２００　ＣＮ,,,,,,2023-05-24,1,,,,,ジーナンシンシュンユエンバオジュワンヨウシエンゴンスー,0
1254,6010001235497,新規,0,2023-05-24,2023-05-24,ナセル株式会社,,株式会社,東京都,中央区,日本橋室町１丁目１１番１２号日本橋水野ビル７階,,13,102,1030022,,,,,,,2023-05-24,1,,,,,ナセル,0
1255,6010001235547,新規,0,2023-05-24,2023-05-24,ギャラクシーボーイズ株式会社,,株式会社,東京都,中央区,晴海３丁目１３番１－４５２４号,,13,102,1040053,,,,,,,2023-05-24,1,,,,,ギャラクシーボーイズ,0
1256,6010001235563,新規,0,2023-05-24,2023-05-24,株式会社Ａｎｏｔｈｅｒ　Ｐｌａｃｅ,,株式会社,東京都,中央区,日本橋室町１丁目１１番１２号日本橋水野ビル７階,,13,102,1030022,,,,,,,2023-05-24,1,,,,,アナザープレイス,0
1260,6010101015659,新規,0,2023-05-24,2023-05-24,ＭＯＲＥ　ＴＨＩＮＫ株式会社,,株式会社,東京都,八王子市,子安町１丁目４８－９共立リライアンス２０２,,13,201,1920904,,,,,,,2023-05-24,1,,,,,モアシンク,0
1273,6010401174576,新規,0,2023-05-24,2023-05-24,株式会社オルタンシア,,株式会社,東京都,港区,芝２丁目１８番２号ＴＨＥＣＩＴＹ芝公園２階,,13,103,1050014,,,,,,,2023-05-24,1,,,,,オルタンシア,0
1274,6010401174592,新規,0,2023-05-24,2023-05-24,Ｆｌｅｘ　Ｂａｔｔｅｒｙ　Ｉｎｖｅｓｔｍｅｎｔ株式会社,,株式会社,東京都,港区,北青山２丁目５番１号,,13,103,1070061,,,,,,,2023-05-24,1,,,,,フレックスバッテリーインベストメント,0
1276,6010403030166,新規,0,2023-05-24,2023-05-24,合同会社ドミナス,,合同会社,東京都,港区,南青山３丁目６番４号新幸ビルディング１１号室,,13,103,1070062,,,,,,,2023-05-24,1,,,,,ドミナス,0
1277,6010405022129,新規,0,2023-05-24,2023-05-24,一般社団法人ｉｃｈｉｇｏ,,その他の設立登記法人,東京都,港区,浜松町２丁目２番１５号,,13,103,1050013,,,,,,,2023-05-24,1,,,,,イチゴ,0
1278,6010405022161,新規,0,2023-05-24,2023-05-24,エスエルピーシー特定目的会社,,その他の設立登記法人,東京都,港区,元赤坂１丁目１番８号株式会社赤坂国際会計内,,13,103,1070051,,,,,,,2023-05-24,1,,,,,エスエルピーシー,0
1285,6010701044289,新規,0,2023-05-24,2023-05-24,株式会社幸和,,株式会社,東京都,品川区,豊町２丁目１２番１５号,,13,109,1420042,,,,,,,2023-05-24,1,,,,,コウワ,0
1286,6010701044297,新規,0,2023-05-24,2023-05-24,ＪａｄｅＣｏｍｉＸ株式会社,,株式会社,東京都,品川区,西品川１丁目１番１号,,13,109,1410033,,,,,,,2023-05-24,1,,,,,ジェイドコミックス,0
1287,6010701044306,新規,0,2023-05-24,2023-05-24,株式会社ＬＥＡＮ,,株式会社,東京都,品川区,豊町５丁目４番７号,,13,109,1420042,,,,,,,2023-05-24,1,,,,,リーン,0
1302,6011001154456,新規,0,2023-05-24,2023-05-24,ＫＵＲＯＧＯ株式会社,,株式会社,東京都,渋谷区,道玄坂１丁目１０番８号渋谷道玄坂東急ビル２Ｆ－Ｃ,,13,113,1500043,,,,,,,2023-05-24,1,,,,,クロゴ,0
1303,6011001154464,新規,0,2023-05-24,2023-05-24,株式会社Ｑｕｉｎｅ,,株式会社,東京都,渋谷区,渋谷２丁目１９－１５宮益坂ビルディング６０９,,13,113,1500002,,,,,,,2023-05-24,1,,,,,クワイン,0
1304,6011003016745,新規,0,2023-05-24,2023-05-24,クリエイティブリテイリング合同会社,,合同会社,東京都,渋谷区,神宮前６丁目２３番４号桑野ビル２階,,13,113,1500001,,,,,,,2023-05-24,1,,,,,クリエイティブリテイリング,0
1308,6011101102967,新規,0,2023-05-24,2023-05-24,トラセル株式会社,,株式会社,東京都,新宿区,早稲田鶴巻町５３８番地１９平成ビル４階,,13,104,1620041,,,,,,,2023-05-24,1,,,,,トラセル,0
1313,6011103013072,新規,0,2023-05-24,2023-05-24,合同会社アクミヤ,,合同会社,東京都,新宿区,新宿７丁目２７番４７号オルソ東新宿３０１,,13,104,1600022,,,,,,,2023-05-24,1,,,,,アクミヤ,0
1319,6011701026260,新規,0,2023-05-24,2023-05-24,株式会社ａｍｏｕｒ,,株式会社,東京都,江戸川区,江戸川１丁目８－２,,13,123,1320013,,,,,,,2023-05-24,1,,,,,アムール,0
1321,6011801042414,新規,0,2023-05-24,2023-05-24,スマイリーホーム株式会社,,株式会社,東京都,足立区,六町２丁目３番３８号,,13,121,1210073,,,,,,,2023-05-24,1,,,,,スマイリーホーム,0
1322,6011801042455,新規,0,2023-05-24,2023-05-24,日本算話株式会社,,株式会社,東京都,足立区,千住４丁目２３番１２号さくら北千住１階１０１号室,,13,121,1200034,,,,,,,2023-05-24,1,,,,,ニホンサンワ,0
1339,6020001151693,新規,0,2023-05-24,2023-05-24,株式会社ダブルエース,,株式会社,神奈川県,横浜市青葉区,千草台３８番地２４－７０３,,14,117,2270051,,,,,,,2023-05-24,1,,,,,ダブルエース,0
1340,6020001151710,新規,0,2023-05-24,2023-05-24,株式会社スイッチオン,,株式会社,神奈川県,横浜市中区,山下町１５０番７、３Ｆ,,14,104,2310023,,,,,,,2023-05-24,1,,,,,スイッチオン,0
1341,6020001151727,新規,0,2023-05-24,2023-05-24,株式会社ウィルエステート,,株式会社,神奈川県,横浜市都筑区,北山田３丁目１２番１３号アルテミス１階,,14,118,2240021,,,,,,,2023-05-24,1,,,,,ウィルエステート,0
1342,6020001151735,新規,0,2023-05-24,2023-05-24,株式会社トレード,,株式会社,神奈川県,横浜市泉区,岡津町２６８８番４号コンフォートヒルズ３番館１０２,,14,116,2450003,,,,,,,2023-05-24,1,,,,,トレード,0
1344,6020003023949,新規,0,2023-05-24,2023-05-24,合同会社ビエント,,合同会社,神奈川県,横浜市西区,北幸２丁目１０－２８むつみビル３Ｆ,,14,103,2200004,,,,,,,2023-05-24,1,,,,,ビエント,0
1349,6021001079140,新規,0,2023-05-24,2023-05-24,株式会社さくら組,,株式会社,神奈川県,厚木市,下依知３丁目１８番１号,,14,212,2430806,,,,,,,2023-05-24,1,,,,,サクラグミ,0
1355,6030001154027,新規,0,2023-05-24,2023-05-24,株式会社弁財,,株式会社,埼玉県,草加市,両新田西町３４７番地２,,11,221,3400027,,,,,,,2023-05-24,1,,,,,ベンザイ,0
1356,6030001154051,新規,0,2023-05-24,2023-05-24,ＪＡＸ株式会社,,株式会社,埼玉県,川口市,元郷２丁目１５－２－１００９エルザタワー３２,,11,203,3320011,,,,,,,2023-05-24,1,,,,,ジャックス,0
1359,6030003021803,新規,0,2023-05-24,2023-05-24,合同会社Ｓ‐ＧＣ,,合同会社,埼玉県,川口市,西川口１丁目１７番８号牛車ビル５階,,11,203,3320021,,,,,,,2023-05-24,1,,,,,エスジーシー,0
1360,6030003021811,新規,0,2023-05-24,2023-05-24,合同会社Ｔｉｎｙ　Ｔｅｅｎｙ,,合同会社,埼玉県,さいたま市大宮区,大門町２丁目２０番地２号ＴＭＯ北棟２０５号室,,11,103,3300846,,,,,,,2023-05-24,1,,,,,タイニーティーニィー,0
1364,6040001128509,新規,0,2023-05-24,2023-05-24,ＧＬＯＢＡＬ　ＭＥＤＩＬＩＦＥ株式会社,,株式会社,千葉県,千葉市稲毛区,黒砂２丁目１２番２１－２号,,12,103,2630042,,,,,,,2023-05-24,1,,,,,グローバルメディライフ,0
1365,6040001128533,新規,0,2023-05-24,2023-05-24,株式会社式波,,株式会社,千葉県,千葉市稲毛区,穴川２丁目１３番３号,,12,103,2630024,,,,,,,2023-05-24,1,,,,,シキナミ,0
1370,6040003022684,新規,0,2023-05-24,2023-05-24,合同会社ＲＡＩＳＥ,,合同会社,千葉県,千葉市緑区,おゆみ野６丁目３０番地５ガーデンハイツＥ棟２０１号,,12,105,2660031,,,,,,,2023-05-24,1,,,,,レイズ,0
1378,6050003007528,新規,0,2023-05-24,2023-05-24,合同会社ＦＴＳ,,合同会社,茨城県,日立市,久慈町６丁目１７番１４－１０３,,08,202,3191222,,,,,,,2023-05-24,1,,,,,,0
1390,6080101024026,新規,0,2023-05-24,2023-05-24,ニューホープ株式会社,,株式会社,静岡県,富士市,平垣本町１５－１シャトルフジビル４ＦＡ,,22,210,4160913,,,,,,,2023-05-24,1,,,,,ニューホープ,0
1401,6120001255154,新規,0,2023-05-24,2023-05-24,株式会社ユニプラマー,,株式会社,大阪府,大阪市西成区,松３丁目１１番９号,,27,122,5570034,,,,,,,2023-05-24,1,,,,,ユニプラマー,0
1409,6120901047568,新規,0,2023-05-24,2023-05-24,明株式会社,,株式会社,大阪府,茨木市,北春日丘２丁目１２－９,,27,211,5670048,,,,,,,2023-05-24,1,,,,,アカリ,0
1410,6122001037004,新規,0,2023-05-24,2023-05-24,株式会社ワイルドサイドエンターテイメント,,株式会社,大阪府,東大阪市,吉田１丁目７番１３号,,27,227,5780924,,,,,,,2023-05-24,1,,,,,ワイルドサイドエンターテイメント,0
1416,6140003019019,新規,0,2023-05-24,2023-05-24,合同会社ＹＢ工業,,合同会社,兵庫県,尼崎市,名神町３丁目１１番２－１１８号,,28,202,6610021,,,,,,,2023-05-24,1,,,,,,0
1417,6140005026632,新規,0,2023-05-24,2023-05-24,労働者協同組合アソビバ,,その他の設立登記法人,兵庫県,豊岡市,三坂町４－５２,,28,209,6680047,,,,,,,2023-05-24,1,,,,,アソビバ,0
1433,6180301037412,新規,0,2023-05-24,2023-05-24,株式会社ネクストライ,,株式会社,愛知県,刈谷市,半城土中町２丁目８番地１,,23,210,4480805,,,,,,,2023-05-24,1,,,,,ネクストライ,0
1446,6240001061557,新規,0,2023-05-24,2023-05-24,オリゾン株式会社,,株式会社,広島県,福山市,神辺町字十九軒屋２８４番地１,,34,207,7202106,,,,,,,2023-05-24,1,,,,,オリゾン,0
1447,6240001061565,新規,0,2023-05-24,2023-05-24,株式会社Ｌｉｆｅ　Ａｒｔ,,株式会社,広島県,広島市東区,牛田新町３丁目１５番６５－１０１号牛田不動院前パークハウス,,34,102,7320068,,,,,,,2023-05-24,1,,,,,ライフアート,0
1452,6250003003275,新規,0,2023-05-24,2023-05-24,合同会社Ｔ＆Ａ,,合同会社,山口県,下松市,せせらぎ町１丁目５番１６号,,35,207,7440076,,,,,,,2023-05-24,1,,,,,ティアンドエー,0
1464,6320005010080,新規,0,2023-05-24,2023-05-24,一般社団法人経営支援Ｌａｂｏ,,その他の設立登記法人,大分県,大分市,東津留１丁目５番１号,,44,201,8700934,,,,,,,2023-05-24,1,,,,,ケイエイシエンラボ,0
1472,6360001032059,新規,0,2023-05-24,2023-05-24,株式会社Ｃｏｏｌ　ｂａｎａｎａ,,株式会社,沖縄県,名護市,大北３丁目２１番１９－２０５号フェニックスマンション,,47,209,9050019,,,,,,,2023-05-24,1,,,,,クールバナナ,0
1500,6450001013999,新規,0,2023-05-24,2023-05-24,ＭＫシステム株式会社,,株式会社,北海道,旭川市,永山九条８丁目５番５－２号,,01,204,0798419,,,,,,,2023-05-24,1,,,,,エムケーシステム,0
1505,6480005006963,新規,0,2023-05-24,2023-05-24,一般社団法人絆国際交流協会,,その他の設立登記法人,徳島県,徳島市,昭和町８丁目２７番地,,36,201,7700942,,,,,,,2023-05-24,1,,,,,キズナコクサイコウリュウキョウカイ,0
1509,6500005008610,新規,0,2023-05-24,2023-05-24,ＮＰＯ法人山のボランティアＮｅｔｗｏｒｋ,,その他の設立登記法人,愛媛県,西条市,下島山甲４５１番地３,,38,206,7930006,,,,,,,2023-05-24,1,,,,,ヤマノボランティアネットワーク,0
1510,6700150116412,新規,0,2023-05-24,2023-05-24,ブラウン・アドバイザリー・リミテッド,,外国会社等,東京都,渋谷区,恵比寿４丁目３番５号７０４号室　アークアウトソーシング株式会社内,,13,113,1500013,英国、Ｗ１Ｓ１ＪＹ、ロンドン、ハノーバースクエア１８,,,,,,2023-05-24,1,,,,,ブラウンアドバイザリーリミテツド,0
1511,6700150116420,新規,0,2023-05-24,2023-05-24,慧捷国際経貿大連有限公司,,外国会社等,愛知県,名古屋市緑区,定納山２丁目１２０１番地の１,,23,114,4598011,中華人民共和国遼寧省大連市中山区人民路８７号３６階Ａ、Ｂ、Ｃ戸,,,,,,2023-05-24,1,,,,,ケイシヨウコクサイケイエキダイレンユウゲンコウシ,0
1512,6700150116437,新規,0,2023-05-24,2023-05-24,ｑｕａｎ　ｚｈｏｕ　ｙｉｎ　ｙｕａｎ　ｋｅ　ｊｉ　ｙｏｕ　ｘｉａｎ　ｇｏｎｇ　ｓｉ,,外国会社等,,,,,,,,ｆｕ　ｊｉａｎ　ｓｈｅｎｇ　ｑｕａｎ　ｚｈｏｕ　ｓｈｉ　ｊｉｎ　ｊｉａｎｇ　ｓｈｉ　ｃｈｉ　ｄｉａｎ　ｚｈｅｎ　ｘｉｎ　ｄｉａｎ　ｃｕｎ　ｑｕａｎ　ａｎ　ｂｅｉ　ｌｕ　３７４　ｈａｏ　ｌｏｎｇ　ｈｕ　ｃｈｉ　ｄｉａｎ　ｎａｎ　ｘｉａｎｇ　ｍｕ　ｓｈｉ　ｙｉ　ｑｉ　１０　ｃｈｕａｎｇ　３４０９　ｓｈｉ,,,,,,2023-05-24,1,,,,,チェンゾォウインユェンケジユウゲンコウシ,0
1513,6700150116445,新規,0,2023-05-24,2023-05-24,ｓｈｅｎｚｈｅｎｓｈｉ　ｙｉｎｇｎｕｏｓｈｕｍａ　ｙｏｕｘｉａｎｇｏｎｇｓｉ,,外国会社等,,,,,,,,ｌｏｎｇｇａｎｇｑｕｂａｎｔｉａｎｊｉｅｄａｏｘｉａｎｇｊｉａｏｔａｎｇｓｈｅｑｕｘｕｅｇａｎｇｎａｎｌｕ１１７１ｈａｏ　ｃｈｅｎｇｓｈｉｓｈａｎｈａｉｙｕｎｈｕｉｅｒｑｉＣｄｏｎｇｓａｎｃｅｎｇ３１８　ｓｈｅｎｚｈｅｎｓｈｉ　ｇｕａｎｇｄｏｎｇｓｈｅｎｇ　ＣＮ,,,,,,2023-05-24,1,,,,,シェンゼェシインヌオシュマユウゲンコウシ,0
1514,6700150116453,新規,0,2023-05-24,2023-05-24,ｄｏｎｇｇｕａｎｓｈｉ　ｙｉｓｈｅｎｇｄｉａｎｚｉｓｈａｎｇｗｕ　ｙｏｕｘｉａｎｇｏｎｇｓｉ,,外国会社等,,,,,,,,ｈｕｍｅｎｚｈｅｎ　ｈｕｍｅｎｄａｄａｏ　９７ｈａｏ１０７ｆａｎｇ　ｄｏｎｇｇｕａｎｓｈｉ　ｇｕａｎｇｄｏｎｇｓｈｅｎｇ,,,,,,2023-05-24,1,,,,,ドングァンシイシェンデンシシャンウユウゲンコウシ,0
1515,6700150116461,新規,0,2023-05-24,2023-05-24,ｔａｉ　ａｎ　ｂｏ　ｓｈｅｎｇ　ｄｉａｎ　ｚｉ　ｓｈａｎｇ　ｗｕ　ｙｏｕ　ｘｉａｎ　ｇｏｎｇ　ｓｉ,,外国会社等,,,,,,,,Ｓｈａｎ　Ｄｏｎｇ　Ｓｈｅｎｇ　Ｔａｉ　Ａｎ　Ｓｈｉ　Ｎｉｎｇ　Ｙａｎｇ　Ｘｉａｎ　Ｂａ　Ｘｉａｎ　Ｑｉａｏ　Ｊｉｅ　Ｄａｏ　Ｂａｎ　Ｓｈｉ　Ｃｈｕ　Ｘｉ　Ｊｉｅ　Ｄｉａｎ　Ｙｉｎｇ　Ｙｕａｎ　Ｄｏｎｇ　Ｌｉｎ,,,,,,2023-05-24,1,,,,,タイアンボシェンデンシショウムユウゲンコウシ,0
1516,6700150116478,新規,0,2023-05-24,2023-05-24,Ｇｕａｎｇ　Ｚｈｏｕ　Ｓｈｉ　Ｔｕ　Ｑｕ　Ｍａｏ　Ｙｉ　Ｙｏｕ　Ｘｉａｎ　Ｇｏｎｇ　Ｓｉ,,外国会社等,,,,,,,,Ｇｕａｎｇ　Ｚｈｏｕ　Ｓｈｉ　Ｈｕａ　Ｄｕ　Ｑｕ　Ｓｈｉ　Ｌｉｎｇ　Ｚｈｅｎ　Ｚｈｅｎ　Ｘｉｎｇ　Ｃｕｎ　Ｈｕｏ　Ｚｈｕａｎ　Ｗｕ　Ｌｉｕ　Ｘｉａｎｇ　１５　Ｈａｏ　Ｇｕａｎｇ　Ｚｈｏｕ　Ｇｕａｎｇ　Ｄｏｎｇ　５１１０００　ＣＮ,,,,,,2023-05-24,1,,,,,グワンジョウシートゥーチーマオイーヨウシエンゴンスー,0
1520,7010001235471,新規,0,2023-05-24,2023-05-24,株式会社Ｃｏ‐Ｇｒｏｗｔｈ,,株式会社,東京都,中央区,銀座１丁目１２番４号Ｎ＆ＥＢＬＤ．６Ｆ,,13,102,1040061,,,,,,,2023-05-24,1,,,,,コーグロース,0
1521,7010001235488,新規,0,2023-05-24,2023-05-24,株式会社大和キリン,,株式会社,東京都,中央区,銀座１丁目１２番４号Ｎ＆Ｅビル７階,,13,102,1040061,,,,,,,2023-05-24,1,,,,,ヤマトキリン,0
1522,7010001235554,新規,0,2023-05-24,2023-05-24,株式会社風の音カンパニー,,株式会社,東京都,中央区,銀座７丁目１３番２０号銀座ＴＨビル９階,,13,102,1040061,,,,,,,2023-05-24,1,,,,,カゼノオトカンパニー,0
1523,7010001235562,新規,0,2023-05-24,2023-05-24,株式会社Ｃａｔｓ‐Ｕｐ,,株式会社,東京都,中央区,新川１丁目３－２１ＢＩＺＳＭＡＲＴ茅場町３階,,13,102,1040033,,,,,,,2023-05-24,1,,,,,キャッツアップ,0
1524,7010003040457,新規,0,2023-05-24,2023-05-24,合同会社コリン,,合同会社,東京都,文京区,本郷３丁目２２－１０加藤インテリアビル１０１,,13,105,1130033,,,,,,,2023-05-24,1,,,,,コリン,0
1525,7010003040671,新規,0,2023-05-24,2023-05-24,ＭＯＲＡＬＩＴＹ合同会社,,合同会社,東京都,千代田区,麹町４丁目３番地４,,13,101,1020083,,,,,,,2023-05-24,1,,,,,モラリティー,0
1533,7010401174575,新規,0,2023-05-24,2023-05-24,Ｂｒｉｇｈｔ　Ｖｉｓｉｏｎ　Ｊａｐａｎ株式会社,,株式会社,東京都,港区,愛宕２丁目５番１号愛宕グリーンヒルズＭＯＲＩタワー３４Ｆ,,13,103,1050002,,,,,,,2023-05-24,1,,,,,ブライトビジョンジャパン,0
1538,7010403030157,新規,0,2023-05-24,2023-05-24,エスエルピーシー合同会社,,合同会社,東京都,港区,元赤坂１丁目１番８号株式会社赤坂国際会計内,,13,103,1070051,,,,,,,2023-05-24,1,,,,,エスエルピーシー,0
1539,7010403030165,新規,0,2023-05-24,2023-05-24,合同会社トルース,,合同会社,東京都,港区,南青山３丁目６番４号新幸ビルディング１５号室,,13,103,1070062,,,,,,,2023-05-24,1,,,,,トルース,0
1540,7010403030173,新規,0,2023-05-24,2023-05-24,ジャパンロジスティクス２合同会社,,合同会社,東京都,港区,六本木１丁目９番１０号アークヒルズ仙石山森タワー４０階,,13,103,1060032,,,,,,,2023-05-24,1,,,,,ジャパンロジスティクスツー,0
1545,7010503007006,新規,0,2023-05-24,2023-05-24,ＦＴカンパニー合同会社,,合同会社,東京都,台東区,寿２丁目６－７藤井ビル３Ｆ,,13,106,1110042,,,,,,,2023-05-24,1,,,,,エフティーカンパニー,0
1563,7011001154430,新規,0,2023-05-24,2023-05-24,株式会社ヘンミ,,株式会社,東京都,渋谷区,円山町５番５号Ｎａｖｉ渋谷Ｖ３階,,13,113,1500044,,,,,,,2023-05-24,1,,,,,ヘンミ,0
1564,7011001154604,新規,0,2023-05-24,2023-05-24,株式会社ＵＮＤＥＲＤＯＧ,,株式会社,東京都,渋谷区,神宮前６丁目２３番４号桑野ビル２階,,13,113,1500001,,,,,,,2023-05-24,1,,,,,アンダードッグ,0
1565,7011001154612,新規,0,2023-05-24,2023-05-24,Ｔｈｅ　Ｄｅｎ株式会社,,株式会社,東京都,渋谷区,千駄ヶ谷５丁目２９番１１－５０１号,,13,113,1510051,,,,,,,2023-05-24,1,,,,,ザデン,0
1568,7011101102891,新規,0,2023-05-24,2023-05-24,株式会社Ｖｏｙａｇｅ,,株式会社,東京都,新宿区,中落合２丁目１１番３－２０２号,,13,104,1610032,,,,,,,2023-05-24,1,,,,,ボヤージュ,0
1569,7011101102909,新規,0,2023-05-24,2023-05-24,株式会社Ｐｅａｃｅｍａｋｅｒ,,株式会社,東京都,新宿区,西新宿３丁目３番１３号,,13,104,1600023,,,,,,,2023-05-24,1,,,,,ピースメーカー,0
1570,7011101102974,新規,0,2023-05-24,2023-05-24,株式会社Ｐｏｌｙ　Ｌｉｎｋｓ,,株式会社,東京都,新宿区,西新宿３丁目７番２１号陽輪台西新宿１００１,,13,104,1600023,,,,,,,2023-05-24,1,,,,,ポリリンクス,0
1571,7011101102990,新規,0,2023-05-24,2023-05-24,株式会社Ｂｒｉｇｈｔ　Ｍａｎａｇｅｍｅｎｔ,,株式会社,東京都,新宿区,新宿２丁目１２番４号,,13,104,1600022,,,,,,,2023-05-24,1,,,,,ブライトマネジメント,0
1573,7011103013071,新規,0,2023-05-24,2023-05-24,合同会社バクランテ,,合同会社,東京都,新宿区,西新宿３丁目３番１３号,,13,104,1600023,,,,,,,2023-05-24,1,,,,,バクランテ,0
1576,7011201024664,新規,0,2023-05-24,2023-05-24,Ｓｕｃｃｅｓｓ　Ｇｏａｌ　Ｌａｂ．株式会社,,株式会社,東京都,中野区,本町３丁目２８番８－１０１０号,,13,114,1640012,,,,,,,2023-05-24,1,,,,,サクセスゴールラボ,0
1577,7011301028730,新規,0,2023-05-24,2023-05-24,看山プロパティマネジメント株式会社,,株式会社,東京都,杉並区,成田東５丁目１５番６号,,13,115,1660015,,,,,,,2023-05-24,1,,,,,カンザンプロパティマネジメント,0
1584,7011601026839,新規,0,2023-05-24,2023-05-24,株式会社ソリチュード,,株式会社,東京都,練馬区,練馬１丁目２番１１号－４０１号室,,13,120,1760001,,,,,,,2023-05-24,1,,,,,ソリチュード,0
1585,7011801042454,新規,0,2023-05-24,2023-05-24,株式会社根本商事,,株式会社,東京都,葛飾区,東新小岩８丁目３０番１４号,,13,122,1240023,,,,,,,2023-05-24,1,,,,,ネモトショウジ,0
1589,7012401040559,新規,0,2023-05-24,2023-05-24,株式会社みのり建設,,株式会社,東京都,府中市,住吉町３丁目８３番地の１,,13,206,1830034,,,,,,,2023-05-24,1,,,,,ミノリケンセツ,0
1599,7020001151726,新規,0,2023-05-24,2023-05-24,株式会社ｓｉｓｕ,,株式会社,神奈川県,横浜市青葉区,美しが丘１丁目１３番地１０吉村ビル１０７号,,14,117,2250002,,,,,,,2023-05-24,1,,,,,シス,0
1600,7020001151742,新規,0,2023-05-24,2023-05-24,株式会社ハヤジン,,株式会社,神奈川県,横浜市栄区,桂台西１丁目６番１２号,,14,115,2470035,,,,,,,2023-05-24,1,,,,,ハヤジン,0
1605,7020003023948,新規,0,2023-05-24,2023-05-24,合同会社ＳＨＩＲＴ,,合同会社,神奈川県,横浜市青葉区,桜台１番地４６グランテーブル宮田３０１,,14,117,2270061,,,,,,,2023-05-24,1,,,,,シャツ,0
1610,7021003013113,新規,0,2023-05-24,2023-05-24,合同会社Ｂａｍｂｏｏ　Ｔｒｉｂｅ,,合同会社,神奈川県,藤沢市,城南５丁目３番４３号,,14,205,2510057,,,,,,,2023-05-24,1,,,,,バンブートライブ,0
1616,7030001154018,新規,0,2023-05-24,2023-05-24,株式会社羽月,,株式会社,埼玉県,羽生市,南５丁目２２－１１,,11,216,3480053,,,,,,,2023-05-24,1,,,,,ハヅキ,0
1617,7030001154026,新規,0,2023-05-24,2023-05-24,ヨシムラ内装株式会社,,株式会社,埼玉県,さいたま市西区,大字指扇６４０番地５,,11,101,3310047,,,,,,,2023-05-24,1,,,,,ヨシムラナイソウ,0
1621,7030003021802,新規,0,2023-05-24,2023-05-24,合同会社さくら地方選挙コンサルティング,,合同会社,埼玉県,越谷市,越ヶ谷本町５番３０－３号,,11,222,3430818,,,,,,,2023-05-24,1,,,,,サクラチホウセンキョコンサルティング,0
1625,7040001128482,新規,0,2023-05-24,2023-05-24,株式会社クルミ,,株式会社,千葉県,いすみ市,岬町東中滝１５番地７３,,12,238,2994621,,,,,,,2023-05-24,1,,,,,クルミ,0
1626,7040001128532,新規,0,2023-05-24,2023-05-24,株式会社杉山企画,,株式会社,千葉県,市原市,更級１丁目６番地１,,12,219,2900050,,,,,,,2023-05-24,1,,,,,スギヤマキカク,0
1628,7040003022691,新規,0,2023-05-24,2023-05-24,コージーハウス合同会社,,合同会社,千葉県,柏市,花野井１９２５番地の１６,,12,217,2770812,,,,,,,2023-05-24,1,,,,,コージーハウス,0
1629,7040005022005,新規,0,2023-05-24,2023-05-24,スピード・スタッフ協同組合,,その他の設立登記法人,千葉県,大網白里市,南横川３１４８番地２０,,12,239,2993223,,,,,,,2023-05-24,1,,,,,スピードスタッフ,0
1639,7060001036023,新規,0,2023-05-24,2023-05-24,株式会社アインス,,株式会社,栃木県,足利市,葉鹿町１丁目９番地２０,,09,202,3260143,,,,,,,2023-05-24,1,,,,,アインス,0
1642,7070001040478,新規,0,2023-05-24,2023-05-24,Ｈｏｎｅｓｔ企画株式会社,,株式会社,群馬県,高崎市,東貝沢町３丁目３５番地４,,10,202,3700041,,,,,,,2023-05-24,1,,,,,オネストキカク,0
1644,7080103002813,新規,0,2023-05-24,2023-05-24,合同会社ＰｌｕｓＰ,,合同会社,静岡県,裾野市,富沢２４７番地の８,,22,220,4101125,,,,,,,2023-05-24,1,,,,,プラスピー,0
1646,7080401026489,新規,0,2023-05-24,2023-05-24,株式会社イスコ,,株式会社,静岡県,浜松市中区,佐藤１丁目２５番２１号,,22,131,4300807,,,,,,,2023-05-24,1,,,,,イスコ,0
1662,7120003024135,新規,0,2023-05-24,2023-05-24,合同会社Ａｚ　Ｗｏｒｋｓ,,合同会社,大阪府,大阪市西成区,花園北２丁目３－８ＭＫアリーナ２０２号,,27,122,5570016,,,,,,,2023-05-24,1,,,,,アズワークス,0
1663,7120005023630,新規,0,2023-05-24,2023-05-24,一般社団法人ＩＫＩＧＡＩ　ＦＡＣＴＯＲＹ,,その他の設立登記法人,大阪府,大阪市天王寺区,玉造本町１番２１号,,27,109,5430013,,,,,,,2023-05-24,1,,,,,イキガイファクトリー,0
1670,7122001037003,新規,0,2023-05-24,2023-05-24,プログレス株式会社,,株式会社,大阪府,東大阪市,衣摺１丁目１５番９号プロスパービル衣摺３Ｆ,,27,227,5770827,,,,,,,2023-05-24,1,,,,,プログレス,0
1675,7130001074362,新規,0,2023-05-24,2023-05-24,株式会社Ｍｅｄｉｃａｌ　Ｚｅｒｏ,,株式会社,京都府,京都市中京区,高倉通夷川上る福屋町７１８番地,,26,104,6040882,,,,,,,2023-05-24,1,,,,,メディカルゼロ,0
1679,7130003008748,新規,0,2023-05-24,2023-05-24,合同会社コタニジュエル,,合同会社,京都府,京都市北区,小山堀池町１３番地の１３,,26,101,6038145,,,,,,,2023-05-24,1,,,,,コタニジュエル,0
1683,7140001130271,新規,0,2023-05-24,2023-05-24,フィービー商事株式会社,,株式会社,兵庫県,尼崎市,西長洲町２丁目３６－７,,28,202,6600805,,,,,,,2023-05-24,1,,,,,フィービーショウジ,0
1686,7140003019100,新規,0,2023-05-24,2023-05-24,合同会社ニーロンジャ,,合同会社,兵庫県,姫路市,飾磨区細江４６４－３,,28,201,6728064,,,,,,,2023-05-24,1,,,,,ニーロンジャ,0
1691,7180001156387,新規,0,2023-05-24,2023-05-24,株式会社星和フーズ,,株式会社,愛知県,一宮市,大和町毛受字正寺３１番地,,23,203,4910932,,,,,,,2023-05-24,1,,,,,セイワフーズ,0
1693,7180301037411,新規,0,2023-05-24,2023-05-24,株式会社ＤＲＳ,,株式会社,愛知県,豊橋市,小松原町字下出口９番地１,,23,201,4413123,,,,,,,2023-05-24,1,,,,,ディーアールエス,0
1695,7190001030426,新規,0,2023-05-24,2023-05-24,ＡＲＣＡＤＩＡ株式会社,,株式会社,三重県,鈴鹿市,白子本町１２番２９号,,24,207,5100242,,,,,,,2023-05-24,1,,,,,アルカディア,0
1698,7190003004329,新規,0,2023-05-24,2023-05-24,ＳＵＺＵＫＡ　ＨＡＬＡＬ　ＭＡＲＴ合同会社,,合同会社,三重県,鈴鹿市,神戸１丁目３番１１号,,24,207,5130801,,,,,,,2023-05-24,1,,,,,スズカハラールマート,0
1702,7210001019326,新規,0,2023-05-24,2023-05-24,株式会社Ｍ．Ｉ．Ｄ,,株式会社,福井県,福井市,板垣３丁目９２０番地アクルックス１棟２０１,,18,201,9188104,,,,,,,2023-05-24,1,,,,,エムアイディー,0
1703,7220001025422,新規,0,2023-05-24,2023-05-24,金沢交通株式会社,,株式会社,石川県,金沢市,西金沢１丁目１０２番地１,,17,201,9218054,,,,,,,2023-05-24,1,,,,,カナザワコウツウ,0
1708,7240001061556,新規,0,2023-05-24,2023-05-24,株式会社ナオＹＡ,,株式会社,広島県,尾道市,高須町５９６番地２,,34,205,7290141,,,,,,,2023-05-24,1,,,,,ナオヤ,0
1709,7240001061564,新規,0,2023-05-24,2023-05-24,株式会社オモテナシファクトリー,,株式会社,広島県,広島市中区,舟入幸町８番１号,,34,101,7300844,,,,,,,2023-05-24,1,,,,,オモテナシファクトリー,0
1715,7250001020107,新規,0,2023-05-24,2023-05-24,株式会社秋工業,,株式会社,山口県,山口市,黒川１９５７番地２４,,35,203,7530851,,,,,,,2023-05-24,1,,,,,アキコウギョウ,0
1718,7260001037975,新規,0,2023-05-24,2023-05-24,四正建設株式会社,,株式会社,岡山県,倉敷市,西田５５４番地１,,33,202,7100027,,,,,,,2023-05-24,1,,,,,シセイケンセツ,0
1723,7290001101605,新規,0,2023-05-24,2023-05-24,株式会社西都損害鑑定事務所,,株式会社,福岡県,福岡市西区,西都１丁目７番１３－４０１号,,40,135,8190367,,,,,,,2023-05-24,1,,,,,サイトソンガイカンテイジムショ,0
1724,7290001101613,新規,0,2023-05-24,2023-05-24,株式会社Ｎａｇａｅ,,株式会社,福岡県,福岡市博多区,奈良屋町１４番３－９０２号,,40,132,8120023,,,,,,,2023-05-24,1,,,,,ナガエ,0
1727,7320001019785,新規,0,2023-05-24,2023-05-24,株式会社仲道製作所,,株式会社,大分県,大分市,萩原３丁目４番２０号,,44,201,8700921,,,,,,,2023-05-24,1,,,,,ナカミチセイサクショ,0
1730,7340001025600,新規,0,2023-05-24,2023-05-24,株式会社ＡＬＢＵＭ,,株式会社,鹿児島県,鹿児島市,吉野町６０１２番地１,,46,201,8920871,,,,,,,2023-05-24,1,,,,,アルバム,0
1731,7340003004131,新規,0,2023-05-24,2023-05-24,合同会社永山珈琲,,合同会社,鹿児島県,鹿児島市,上之園町４番地１０,,46,201,8900052,,,,,,,2023-05-24,1,,,,,ナガヤマコーヒー,0
1734,7360001032058,新規,0,2023-05-24,2023-05-24,株式会社神楽,,株式会社,沖縄県,うるま市,勝連比嘉木瓜１４１５番,,47,213,9042316,,,,,,,2023-05-24,1,,,,,カグラ,0
1742,7410003003803,新規,0,2023-05-24,2023-05-24,合同会社八伸ＨＤ．,,合同会社,秋田県,横手市,赤川字村北荒堰間１７６番地１,,05,203,0130073,,,,,,,2023-05-24,1,,,,,ハッシンホールディングス,0
1749,7430001089165,新規,0,2023-05-24,2023-05-24,株式会社大道商事,,株式会社,北海道,札幌市中央区,南七条西６丁目７番６－１５０１号,,01,101,0640807,,,,,,,2023-05-24,1,,,,,ダイドウショウジ,0
1750,7430001089181,新規,0,2023-05-24,2023-05-24,株式会社アシスト,,株式会社,北海道,札幌市白石区,北郷八条７丁目１番５号,,01,104,0030838,,,,,,,2023-05-24,1,,,,,アシスト,0
1759,7430003015078,新規,0,2023-05-24,2023-05-24,Ｒｅｂｏｒｎ合同会社,,合同会社,北海道,札幌市北区,北七条西４丁目１番１号トーカン札幌第一キャステール６０７,,01,102,0600807,,,,,,,2023-05-24,1,,,,,リボーン,0
1764,7470003002428,新規,0,2023-05-24,2023-05-24,合同会社シグナル,,合同会社,香川県,高松市,宮脇町２丁目１０番９３号,,37,201,7600005,,,,,,,2023-05-24,1,,,,,シグナル,0
1768,7700150115958,新規,0,2023-05-24,2023-05-09,八本松住民自治協議会,,その他,広島県,東広島市,八本松南２丁目１番１号,,34,212,7390144,,,,,,,2023-05-09,1,,,,,ハチホンマツジユウミンジチキヨウギカイ,0
1769,7700150116452,新規,0,2023-05-24,2023-05-24,ＧｕｉＺｈｏｕ　ＫｕｏＸｉａｎＳｈａｎｇＭａｏ　ＹｏｕＸｉａｎＧｏｎｇＳｉ,,外国会社等,,,,,,,,Ｚｈｏｎｇ　Ｈｕａ　Ｂｅｉ　Ｌｕ　Ｊｉｎ　Ｙｉｎ　Ｘｉｎ　Ｃｕｎ　２７－２Ｄｏｎｇ　２Ｃｅｎｇ　２　Ｈａｏ　Ｚｕｎ　Ｙｉ　Ｓｈｉ　Ｇｕｉ　Ｚｈｏｕ　Ｓｈｅｎｇ　Ｈｏｎｇ　Ｈｕａ　Ｇａｎｇ　Ｑｕ,,,,,,2023-05-24,1,,,,,グゥイゾォウクオシェンシャンマォユウゲンコウシ,0
1770,7700150116460,新規,0,2023-05-24,2023-05-24,ｓｈｅｎｚｈｅｎｓｈｉ　ｓａｎｍｕｄｉａｎｚｉｓｈａｎｇｗｕ　ｙｏｕｘｉａｎｚｅｒｅｎｇｏｎｇｓｉ,,外国会社等,,,,,,,,２０７，Ｎｏ．８，Ｓａｎｈｅ　Ｈｕａｑｉａｏ　２ｎｄ　Ｄｉｓｔｒｉｃｔ　Ｔｏｎｇｓｈｅｎｇ　Ｃｏｍｍｕｎｉｔｙ，Ｄａｌａｎｇ　Ｓｔｒｅｅｔ，Ｌｏｎｇｈｕａ　Ｄｉｓｔｒｉｃｔ，Ｓｈｅｎｚｈｅｎｓｈｉ　Ｇｕａｎｇｄｏｎｇｓｈｅｎｇ,,,,,,2023-05-24,1,,,,,シンセンシサンムデンシシャンウユウゲンゼレンコウシ,0
1771,7700150116469,新規,0,2023-05-24,2023-05-24,ＳｈｅｎＺｈｅｎＳｈｉ　ＹｏｕＷｅｉＥｒＫｅＪｉ　ＹｏｕＸｉａｎＧｏｎｇＳｉ,,外国会社等,,,,,,,,ＢａｏＡｎＱｕＸｉＸｉａｎｇＪｉｅＤａｏＮａｎＣｈａｎｇＳｈｅＱｕＨａｎｇＣｈｅｎｇＤａＤａｏ　ＨｕａＦｅｎｇＧｕｏＪｉＪｉＱｉＲｅｎＣｈａｎＹｅＹｕａｎＧＤｏｎｇＧ１０１ＹｉＣｅｎｇＺｈｉＷｕＣｅｎｇＱｉＣｅｎｇ　ＳｈｅｎＺｈｅｎＳｈｉ　ＧｕａｎｇＤｏｎｇＳｈｅｎｇ　５１８１２６　ＣＮ,,,,,,2023-05-24,1,,,,,シェンジェンシーヨウウェイアーコージーヨウシエンゴンスー,0
1772,7700150116477,新規,0,2023-05-24,2023-05-24,ｇｕａｎｇｚｈｏｕ　ｊｉｎｏｕｍａｏｙｉ　ｙｏｕｘｉａｎｇｏｎｇｓｉ,,外国会社等,,,,,,,,ｂａｉｙｕｎｑｕｙｏｎｇｐｉｎｇｊｉｅ　ｂａｉｙｕｎｄａｄａｏｂｅｉ１２９８ｈａｏ　ｇｕａｎｇｚｈｏｕｓｈｉ　ｇｕａｎｇｄｏｎｇｓｈｅｎｇ　５１００８０　ＣＮ,,,,,,2023-05-24,1,,,,,グワンジョウジンオウマオイーヨウシエンゴンスー,0
1777,8010001235330,新規,0,2023-05-24,2023-05-24,株式会社イーグルラン,,株式会社,東京都,中央区,大伝馬町１２－２０ＫＫビル３Ｆ,,13,102,1030000,,,,,,,2023-05-24,1,,,,,イーグルラン,0
1778,8010001235537,新規,0,2023-05-24,2023-05-24,株式会社ＳＨＡＮ,,株式会社,東京都,文京区,白山２丁目６－６グリンカ白山３０４号,,13,105,1120001,,,,,,,2023-05-24,1,,,,,シャン,0
1781,8010103002141,新規,0,2023-05-24,2023-05-24,Ｌｉｆｅ　ｉｓ　ｇｏｏｄ合同会社,,合同会社,東京都,八王子市,台町４丁目４－６,,13,201,1930931,,,,,,,2023-05-24,1,,,,,ライフイズグッド,0
1790,8010403030131,新規,0,2023-05-24,2023-05-24,ｅｍ　ｓｔｕｄｉｏ合同会社,,合同会社,東京都,港区,浜松町２丁目２番１５号浜松町ダイヤビル２Ｆ,,13,103,1050013,,,,,,,2023-05-24,1,,,,,イーエムスタジオ,0
1791,8010403030180,新規,0,2023-05-24,2023-05-24,合同会社ベストセッター,,合同会社,東京都,港区,浜松町２丁目２番１５号浜松町ダイヤビル２Ｆ,,13,103,1050013,,,,,,,2023-05-24,1,,,,,ベストセッター,0
1795,8010503007005,新規,0,2023-05-24,2023-05-24,タッチデザインファクトリー合同会社,,合同会社,東京都,台東区,蔵前２丁目４番６号ニューライフ蔵前２０４,,13,106,1110051,,,,,,,2023-05-24,1,,,,,タッチデザインファクトリー,0
1799,8010803004560,新規,0,2023-05-24,2023-05-24,ＴＩＤＡ．ＤＩＶＡ合同会社,,合同会社,東京都,大田区,東雪谷４丁目１５番４－５１８号,,13,111,1450065,,,,,,,2023-05-24,1,,,,,ティーダディーバ,0
1806,8011001154529,新規,0,2023-05-24,2023-05-24,互の株式会社,,株式会社,東京都,渋谷区,神山町９番２０号ガーデンシャガ３０２,,13,113,1500047,,,,,,,2023-05-24,1,,,,,タガイノ,0
1809,8011101102965,新規,0,2023-05-24,2023-05-24,株式会社ＵＮＩＴＹ,,株式会社,東京都,新宿区,歌舞伎町２丁目２５番６号ホライズンビル２階,,13,104,1600021,,,,,,,2023-05-24,1,,,,,ユニティ,0
1810,8011101102981,新規,0,2023-05-24,2023-05-24,海科株式会社,,株式会社,東京都,新宿区,早稲田鶴巻町５３８番１９リンクス早稲田ビル５１２,,13,104,1620041,,,,,,,2023-05-24,1,,,,,カイカ,0
1814,8011201024647,新規,0,2023-05-24,2023-05-24,株式会社ｍｏｓａｖａ,,株式会社,東京都,中野区,野方２丁目５６－１２,,13,114,1650027,,,,,,,2023-05-24,1,,,,,モサバ,0
1823,8011801042453,新規,0,2023-05-24,2023-05-24,株式会社Ａｐｒｅｎｄｅｒ　ｅｑｕｉｐｏ,,株式会社,東京都,足立区,東和２丁目２８番１９号,,13,121,1200003,,,,,,,2023-05-24,1,,,,,アプレンデールエキーポ,0
1824,8011803005631,新規,0,2023-05-24,2023-05-24,合同会社エゼル,,合同会社,東京都,葛飾区,東金町１丁目４４－１金町ＴＶビル２Ｆ,,13,122,1250041,,,,,,,2023-05-24,1,,,,,エゼル,0
1827,8012405004864,新規,0,2023-05-24,2023-05-24,ＮＰＯ法人みらいサポート狛江,,その他の設立登記法人,東京都,狛江市,岩戸北１丁目２３番１４号グランヴィラージュ壱番館１０１号室,,13,219,2010004,,,,,,,2023-05-24,1,,,,,ミライサポートコマエ,0
1828,8012701017660,新規,0,2023-05-24,2023-05-24,株式会社エイト,,株式会社,東京都,小平市,小川町１丁目３２１番地の１９,,13,211,1870032,,,,,,,2023-05-24,1,,,,,エイト,0
1830,8012801022370,新規,0,2023-05-24,2023-05-24,アニメスタジオ扇株式会社,,株式会社,東京都,立川市,栄町３丁目５６番地の１７,,13,202,1900003,,,,,,,2023-05-24,1,,,,,アニメスタジオオウギ,0
1838,8020001151741,新規,0,2023-05-24,2023-05-24,株式会社ナユタ,,株式会社,神奈川県,横浜市保土ケ谷区,常盤台６４番１７号,,14,106,2400067,,,,,,,2023-05-24,1,,,,,ナユタ,0
1845,8020003023947,新規,0,2023-05-24,2023-05-24,Ａｃｃｏｒｄｏ合同会社,,合同会社,神奈川県,横浜市青葉区,奈良４丁目１番地１Ｄ－１０５,,14,117,2270038,,,,,,,2023-05-24,1,,,,,アコルド,0
1863,8030003021801,新規,0,2023-05-24,2023-05-24,合同会社ＡＯＵ,,合同会社,埼玉県,新座市,東北２丁目３９－１０ドゥーセット弐番館６Ｆ－ＢＩＺｃｏｍｆｏｒｔ志木,,11,230,3520001,,,,,,,2023-05-24,1,,,,,アオウ,0
1864,8030003021826,新規,0,2023-05-24,2023-05-24,ウミエステート合同会社,,合同会社,埼玉県,さいたま市大宮区,大成町１丁目５３２番地１セントレー大宮６０４号室,,11,103,3300852,,,,,,,2023-05-24,1,,,,,ウミエステート,0
1871,8040001128507,新規,0,2023-05-24,2023-05-24,株式会社Ａ’ｚ,,株式会社,千葉県,船橋市,藤原７丁目１０番１号,,12,204,2730047,,,,,,,2023-05-24,1,,,,,アズ,0
1872,8040001128515,新規,0,2023-05-24,2023-05-24,株式会社パズル,,株式会社,千葉県,柏市,柏７丁目１０番２４号ゑびすＩＩ２０１号,00130596,12,217,2770005,,,,,,,2023-05-24,1,,,,,パズル,0
1873,8040001128531,新規,0,2023-05-24,2023-05-24,Ｍｉｎｏｒｉ　ｅｘｉｍ株式会社,,株式会社,千葉県,八千代市,勝田台南１丁目１６番１８号,,12,221,2760025,,,,,,,2023-05-24,1,,,,,ミノリエクシム,0
1879,8040003022682,新規,0,2023-05-24,2023-05-24,合同会社ｓｈｉｇｉｓ,,合同会社,千葉県,白井市,冨士２８番地の８６,,12,232,2701432,,,,,,,2023-05-24,1,,,,,シーギス,0
1880,8040003022690,新規,0,2023-05-24,2023-05-24,エフテック合同会社,,合同会社,千葉県,市原市,姉崎７８７番地３ロータリーパレス姉ケ崎１０５,,12,219,2990111,,,,,,,2023-05-24,1,,,,,エフテック,0
1886,8060003004555,新規,0,2023-05-24,2023-05-24,合同会社Ｕｎｄｅｒ　Ｓｕｎファームズ,,合同会社,栃木県,足利市,利保町６７番２,,09,202,3260006,,,,,,,2023-05-24,1,,,,,アンダーサンファームズ,0
1893,8090001018133,新規,0,2023-05-24,2023-05-24,株式会社Ｇダ・ヴィンチ,,株式会社,山梨県,甲府市,後屋町３８４番地２,,19,201,4000045,,,,,,,2023-05-24,1,,,,,ジーダヴィンチ,0
1907,8120001255086,新規,0,2023-05-24,2023-05-24,衆楽商事株式会社,,株式会社,大阪府,大阪市平野区,喜連４丁目８番３９号,,27,126,5470027,,,,,,,2023-05-24,1,,,,,シュウラクショウジ,0
1908,8120001255152,新規,0,2023-05-24,2023-05-24,株式会社いろは,,株式会社,大阪府,大阪市生野区,田島１丁目２番２１号,,27,116,5440011,,,,,,,2023-05-24,1,,,,,イロハ,0
1909,8120001255160,新規,0,2023-05-24,2023-05-24,ＴｈｅｏｒｙＫｅｙ　Ｓｏｌｕｔｉｏｎｓ株式会社,,株式会社,大阪府,大阪市西区,新町１丁目３０番２号新町ダイアパレスＩＩ号館３０２号室,00130594,27,106,5500013,,,,,,,2023-05-24,1,,,,,セオリーキーソリューションズ,0
1910,8120001255169,新規,0,2023-05-24,2023-05-24,株式会社エルアール,,株式会社,大阪府,大阪市北区,長柄中１丁目６番２号,,27,127,5310062,,,,,,,2023-05-24,1,,,,,エルアール,0
1912,8120901047500,新規,0,2023-05-24,2023-05-24,ＥＸＣＥＬ　ＴＲＥＥＳＯＬＵＴＩＯＮＳ株式会社,,株式会社,大阪府,豊能郡豊能町,木代４９７番地１,,27,321,5630215,,,,,,,2023-05-24,1,,,,,エクセルツリーソリューションズ,0
1913,8120901047558,新規,0,2023-05-24,2023-05-24,ＳＢＳ電工株式会社,,株式会社,大阪府,高槻市,大字原１９０３番地の５,,27,207,5691051,,,,,,,2023-05-24,1,,,,,エスビーエスデンコウ,0
1918,8130001074361,新規,0,2023-05-24,2023-05-24,株式会社米平,,株式会社,京都府,綴喜郡井手町,大字井手小字辻垣内２３番地,00130590,26,343,6100302,,,,,,,2023-05-24,1,,,,,コメヘイ,0
1922,8140001130287,新規,0,2023-05-24,2023-05-24,株式会社Ｌｉｓｅｉｍ,,株式会社,兵庫県,神戸市長田区,駒ケ林町６丁目４番９号,,28,106,6530043,,,,,,,2023-05-24,1,,,,,リセイム,0
1925,8140003019124,新規,0,2023-05-24,2023-05-24,合同会社ｆｕｔｕｒｅ,,合同会社,兵庫県,明石市,朝霧南町２丁目５番２７号,,28,203,6730870,,,,,,,2023-05-24,1,,,,,フューチャー,0
1926,8150005009485,新規,0,2023-05-24,2023-05-24,特定非営利活動法人パイレーツスポーツクラブ,,その他の設立登記法人,奈良県,大和郡山市,筒井町７２７番地,,29,203,6391123,,,,,,,2023-05-24,1,,,,,パイレーツスポーツクラブ,0
1931,8180001156345,新規,0,2023-05-24,2023-05-24,株式会社ＰＥＦ,,株式会社,愛知県,名古屋市東区,泉１丁目１８－３泉ステイトリービル８０１,,23,102,4610001,,,,,,,2023-05-24,1,,,,,ペフ,0
1944,8210001019325,新規,0,2023-05-24,2023-05-24,株式会社田地工務店,,株式会社,福井県,越前市,中新庄町第６１号１０７番地,,18,209,9150001,,,,,,,2023-05-24,1,,,,,タヂコウムテン,0
1947,8220001025421,新規,0,2023-05-24,2023-05-24,株式会社クリーンプラン,,株式会社,石川県,河北郡津幡町,字太田ほ３３２番地５,,17,361,9290345,,,,,,,2023-05-24,1,,,,,クリーンプラン,0
1950,8240001061571,新規,0,2023-05-24,2023-05-24,株式会社恵輝コーポレーション,,株式会社,広島県,広島市東区,戸坂出江２丁目５－１８－３０５,,34,102,7320016,,,,,,,2023-05-24,1,,,,,ケイキコーポレーション,0
1951,8240003006153,新規,0,2023-05-24,2023-05-24,Ｒｅ’ｂｉｒｔｈ合同会社,,合同会社,広島県,広島市佐伯区,八幡１丁目２４番１０－８０１号,,34,108,7315116,,,,,,,2023-05-24,1,,,,,リバース,0
1967,8290001101620,新規,0,2023-05-24,2023-05-24,株式会社月組,,株式会社,福岡県,飯塚市,津島４１４番地８,,40,205,8200064,,,,,,,2023-05-24,1,,,,,ツキグミ,0
1974,8320005010079,新規,0,2023-05-24,2023-05-24,一般社団法人くにみらネクスト,,その他の設立登記法人,大分県,国東市,国東町鶴川５３３番地１国東セントラルプラザ２０２号,,44,214,8730503,,,,,,,2023-05-24,1,,,,,クニミラネクスト,0
1979,8340001025599,新規,0,2023-05-24,2023-05-24,株式会社きざはし,,株式会社,鹿児島県,鹿児島市,下伊敷３丁目６９番６号,,46,201,8900005,,,,,,,2023-05-24,1,,,,,キザハシ,0
1985,8360003012949,新規,0,2023-05-24,2023-05-24,Ｒｙｕｋｙｕ　ｆｏｏｄ　ｔｅｃｈ．合同会社,,合同会社,沖縄県,中頭郡北谷町,字美浜９－１デポアイランドＡ棟２階,,47,326,9040115,,,,,,,2023-05-24,1,,,,,リュウキュウフードテック,0
1986,8360003012981,新規,0,2023-05-24,2023-05-24,合同会社きん鮮魚店,,合同会社,沖縄県,国頭郡金武町,字金武７９１３番地２,,47,314,9041201,,,,,,,2023-05-24,1,,,,,キンセンギョテン,0
1997,8420003002729,新規,0,2023-05-24,2023-05-24,合同会社おっとりの部屋,,合同会社,青森県,青森市,本町５丁目７番６号マリンシティＪＩＮ２０３,,02,201,0300802,,,,,,,2023-05-24,1,,,,,オットリノヘヤ,0
2004,8430001089189,新規,0,2023-05-24,2023-05-24,株式会社Ｂ‐Ｎｅｘｔ,,株式会社,北海道,札幌市北区,北二十九条西１４丁目１番３号アベニュー南麻生２０３号,,01,102,0010029,,,,,,,2023-05-24,1,,,,,ビーネクスト,0
2008,8450001013997,新規,0,2023-05-24,2023-05-24,ふらのＣＥ株式会社,,株式会社,北海道,富良野市,錦町１４番３号,,01,229,0760028,,,,,,,2023-05-24,1,,,,,フラノシーイー,0
2009,8460101007386,新規,0,2023-05-24,2023-05-24,株式会社十勝平野蒸溜所,,株式会社,北海道,中川郡幕別町,字日新１３番地の６５,,01,643,0890574,,,,,,,2023-05-24,1,,,,,トカチヘイヤジョウリュウジョ,0
2017,8700150116410,新規,0,2023-05-24,2023-05-24,株式会社ＭＡＮＹＡＬＩＴＴＬＥ,,外国会社等,東京都,千代田区,神田紺屋町４６ａｌｔａビル３階,,13,101,1010035,大韓民国京畿道城南市プンダン区パンギョヨッロ２４０、エイドン７０６号（サンピョンドン、サンファンハイパックス）,,,,,,2023-05-24,1,,,,,カブシキガイシヤメニーアリトル,0
2018,8700150116443,新規,0,2023-05-24,2023-05-24,Ｓｈａｎｇｈａｉ　Ｐｉｎｚｈｕｏ　Ａｕｔｏｍｏｂｉｌｅ　Ｓａｌｅｓ　Ｃｏ．，Ｌｔｄ,,外国会社等,,,,,,,,Ｒｏｏｍ　２Ａ０７０，１７３０　Ｐｉｎｇｌｉａｎｇ　Ｒｏａｄ　Ｙａｎｇｐｕ　Ｄｉｓｔｒｉｃｔ　Ｓｈａｎｇｈａｉ　ＣＮ,,,,,,2023-05-24,1,,,,,シャンハイピンゾォウオートモビールセイルズカンパニーリミテッド,0
2019,8700150116451,新規,0,2023-05-24,2023-05-24,Ｓｈｅｎｚｈｅｎｓｈｉｈａｉｔｕｎ　Ｓｈａｎｇｗｕｙｏｕｘｉａｎｇｏｎｇｓｉ,,外国会社等,,,,,,,,３０６　Ｓａｎｘｉａｎｇ７ｈａｏ　Ｍａｔｉｓｈａｎｃｕｎ　Ｇａｎｇｔｏｕｓｈｅｑｕ　Ｂａｎｔｉａｎｊｉｅｄａｏ　Ｌｏｎｇｇａｎｇｑｕ　ＳＨＥＮＺＨＥＮ　ＧＵＡＮＧＤＯＮＧ　ＣＮ,,,,,,2023-05-24,1,,,,,シンセンシハイトゥンシャンウユウゲンコウシ,0
2020,8700150116468,新規,0,2023-05-24,2023-05-24,ｓｈｅｎｚｈｅｎｓｈｉｘｉｄｉｌａｉｔｅｋｅｊｉｙｏｕｘｉａｎｇｏｎｇｓｉ,,外国会社等,,,,,,,,ｂａｏａｎｑｕｓｈｉｙａｎｊｉｅｄａｏｓｈａｎｇｗｕｓｈｅｑｕ　ｙｕａｎｌｉｎｇｇｏｎｇｙｅｑｕｃｈａｎｇｆａｎｇ６ｄｏｎｇ２－３ｌｏｕ　ｓｈｅｎｚｈｅｎ　ｇｕａｎｇｄｏｎｇ　５１８１０８　ＣＮ,,,,,,2023-05-24,1,,,,,シェンジェンシーシーディーライターコージーヨウシエンゴンスー,0
2021,8700150116476,新規,0,2023-05-24,2023-05-24,Ｇｕａｎｇｚｈｏｕ　ｂａｎｇｙｉｓｈａｎｇｍａｏ　ｙｏｕｘｉａｎｇｏｎｇｓｉ,,外国会社等,,,,,,,,ｙｕｅｘｉｕｑｕｇｕａｎｇｙｕａｎｄｏｎｇｌｕ１５４６ｈａｏ　ｇｕａｎｇｚｈｏｕｓｈｉ　ｇｕａｎｇｄｏｎｇｓｈｅｎｇ　５１００３０　ＣＮ,,,,,,2023-05-24,1,,,,,グワンジョウバンイーシャンマオヨウシエンゴンスー,0
2028,9010001235387,新規,0,2023-05-24,2023-05-24,青木物産株式会社,,株式会社,東京都,千代田区,神田和泉町１番地６－１６ヤマトビル４０５,,13,101,1010024,,,,,,,2023-05-24,1,,,,,アオキブッサン,0
2032,9010003040661,新規,0,2023-05-24,2023-05-24,合同会社ムーバルトーラス,,合同会社,東京都,千代田区,丸の内３丁目１番１号東京共同会計事務所内,,13,101,1000005,,,,,,,2023-05-24,1,,,,,ムーバルトーラス,0
2045,9010401174557,新規,0,2023-05-24,2023-05-24,株式会社Ｄｕｋｅ　ｒｅｓｅａｒｃｈ,,株式会社,東京都,港区,南青山３丁目１番３６号青山丸竹ビル６Ｆ,,13,103,1070062,,,,,,,2023-05-24,1,,,,,デュークリサーチ,0
2050,9010405022118,新規,0,2023-05-24,2023-05-24,一般社団法人日本社団,,その他の設立登記法人,東京都,港区,虎ノ門３丁目１８番６号朝日虎ノ門マンション６１４号室,,13,103,1050001,,,,,,,2023-05-24,1,,,,,ニッポンシャダン,0
2051,9010405022126,新規,0,2023-05-24,2023-05-24,一般社団法人美容コンシェルジュ協会,,その他の設立登記法人,東京都,港区,愛宕２丁目５番１号愛宕グリーンヒルズＭＯＲＩタワー３４Ｆ,,13,103,1050002,,,,,,,2023-05-24,1,,,,,ビヨウコンシェルジュキョウカイ,0
2052,9010501050484,新規,0,2023-05-24,2023-05-24,株式会社ＷＡＮＯＭＩ,,株式会社,東京都,台東区,台東４丁目２９番１５号,,13,106,1100016,,,,,,,2023-05-24,1,,,,,ワノミ,0
2056,9010601063147,新規,0,2023-05-24,2023-05-24,ＮＶＣホールディングス株式会社,,株式会社,東京都,江東区,木場１丁目５番６５号,,13,108,1350042,,,,,,,2023-05-24,1,,,,,エヌヴィーシーホールディングス,0
2057,9010601063155,新規,0,2023-05-24,2023-05-24,株式会社嘉誠,,株式会社,東京都,江東区,牡丹３丁目１４番４－８０１号,,13,108,1350046,,,,,,,2023-05-24,1,,,,,カセイ,0
2064,9010905004482,新規,0,2023-05-24,2023-05-24,一般社団法人日本強皮症患者の会・絆,,その他の設立登記法人,東京都,世田谷区,祖師谷３丁目１２番６号,,13,112,1570072,,,,,,,2023-05-24,1,,,,,ニホンキョウヒショウカンジャノカイキズナ,0
2071,9011003016841,新規,0,2023-05-24,2023-05-24,合同会社クロスジェット,,合同会社,東京都,渋谷区,道玄坂１丁目１０番８号渋谷道玄坂東急ビル２Ｆ－Ｃ,,13,113,1500043,,,,,,,2023-05-24,1,,,,,クロスジェット,0
2072,9011003016882,新規,0,2023-05-24,2023-05-24,合同会社Ｔ‐ｗｅｂ,,合同会社,東京都,目黒区,祐天寺２丁目８番５－３０８号ルミエール祐天寺,,13,110,1530052,,,,,,,2023-05-24,1,,,,,ティーウェブ,0
2075,9011101102964,新規,0,2023-05-24,2023-05-24,株式会社ＫＩ,,株式会社,東京都,新宿区,新宿１丁目３６番２号新宿第七葉山ビル３Ｆ,,13,104,1600022,,,,,,,2023-05-24,1,,,,,ケーアイ,0
2076,9011101102980,新規,0,2023-05-24,2023-05-24,芸曦株式会社,,株式会社,東京都,新宿区,早稲田鶴巻町５３８番１９リンクス早稲田ビル５０９,,13,104,1620041,,,,,,,2023-05-24,1,,,,,ゲイキ,0
2077,9011101102989,新規,0,2023-05-24,2023-05-24,株式会社ＭＫアセットマネージメント２,,株式会社,東京都,新宿区,西新宿７丁目１７番７号,,13,104,1600023,,,,,,,2023-05-24,1,,,,,エムケーアセットマネージメントツー,0
2079,9011301028729,新規,0,2023-05-24,2023-05-24,株式会社ｒｅｖｏｌｌ,,株式会社,東京都,杉並区,成田東５丁目２番１９号,,13,115,1660015,,,,,,,2023-05-24,1,,,,,リボル,0
2104,9020001151724,新規,0,2023-05-24,2023-05-24,株式会社Ｒ．Ｈ,,株式会社,神奈川県,川崎市中原区,下新城２丁目６－３須山ビル１Ｆ,,14,133,2110042,,,,,,,2023-05-24,1,,,,,アールエイチ,0
2114,9021001079105,新規,0,2023-05-24,2023-05-24,株式会社Ｍａｔｔｈｅｗ,,株式会社,神奈川県,大和市,下鶴間２５７０番地１ダイアパレス鶴間７１２号,,14,213,2420001,,,,,,,2023-05-24,1,,,,,マシュー,0
2115,9021001079138,新規,0,2023-05-24,2023-05-24,Ｉ‐ＰＬＡＮ株式会社,,株式会社,神奈川県,藤沢市,本鵠沼５丁目３－４,,14,205,2510028,,,,,,,2023-05-24,1,,,,,アイプラン,0
2121,9030001154032,新規,0,2023-05-24,2023-05-24,株式会社新京国際,,株式会社,埼玉県,北葛飾郡松伏町,田中１丁目１６番地６,,11,465,3430117,,,,,,,2023-05-24,1,,,,,シンキョウコクサイ,0
2131,9040001128506,新規,0,2023-05-24,2023-05-24,株式会社華卓瀛,,株式会社,千葉県,木更津市,東中央１丁目４－８松澤ビル２Ｆ,,12,206,2920057,,,,,,,2023-05-24,1,,,,,カタクエイ,0
2132,9040001128522,新規,0,2023-05-24,2023-05-24,スリーエンジニアリング株式会社,,株式会社,千葉県,木更津市,朝日３丁目３番１０－３０２号,,12,206,2920055,,,,,,,2023-05-24,1,,,,,スリーエンジニアリング,0
2136,9040003022681,新規,0,2023-05-24,2023-05-24,合同会社ＣＯＣＲＥＡ,,合同会社,千葉県,流山市,おおたかの森北１丁目８番地の６バルケッタ８０５,,12,220,2700119,,,,,,,2023-05-24,1,,,,,コクリエ,0
2137,9040005022003,新規,0,2023-05-24,2023-05-24,一般社団法人患者家計サポート協会,,その他の設立登記法人,千葉県,千葉市美浜区,打瀬２丁目１４,,12,106,2610013,,,,,,,2023-05-24,1,,,,,カンジャカケイサポートキョウカイ,0
2144,9050003007525,新規,0,2023-05-24,2023-05-24,合同会社ＶｅｓｔＢａｎｄＪ,,合同会社,茨城県,つくば市,大曽根３４３４番地５－２０４号,,08,220,3003253,,,,,,,2023-05-24,1,,,,,ベッツバンドジェイ,0
2147,9060001036013,新規,0,2023-05-24,2023-05-24,ＨＡＲ　ＣＯＲＰＯＲＡＴＩＯＮ株式会社,,株式会社,栃木県,小山市,大字出井３２４－１,,09,208,3230808,,,,,,,2023-05-24,1,,,,,ハルコーポレーション,0
2148,9060001036021,新規,0,2023-05-24,2023-05-24,株式会社ＡＬＣＡ,,株式会社,栃木県,下野市,駅東７丁目１－９,,09,216,3290413,,,,,,,2023-05-24,1,,,,,アルカ,0
2150,9070001040476,新規,0,2023-05-24,2023-05-24,株式会社ＮＳトキワ輸送,,株式会社,群馬県,伊勢崎市,宮子町３４８３番地４‐１０１号,,10,204,3720801,,,,,,,2023-05-24,1,,,,,エヌエストキワユソウ,0
2153,9080103002811,新規,0,2023-05-24,2023-05-24,合同会社Ａｉｍｅｒ,,合同会社,静岡県,富士宮市,北山１１１６番地１,,22,207,4180112,,,,,,,2023-05-24,1,,,,,エメ,0
2157,9100001036446,新規,0,2023-05-24,2023-05-24,株式会社エスケー工業,,株式会社,長野県,長野市,川中島町四ツ屋１６１９番地１ノモトハイツ１１号室,,20,201,3812231,,,,,,,2023-05-24,1,,,,,エスケーコウギョウ,0
2160,9100003007016,新規,0,2023-05-24,2023-05-24,合同会社ＨｉＴＴｉＳＹＯ,,合同会社,長野県,東筑摩郡生坂村,万平７０４７,,20,448,3997201,,,,,,,2023-05-24,1,,,,,ヒッタイショ,0
2176,9120001255143,新規,0,2023-05-24,2023-05-24,株式会社ＬＩＶＡＬＥＳＴ,,株式会社,大阪府,大阪市北区,梅田１丁目１－３大阪駅前第３ビル２９階１－１－１号室,,27,127,5300001,,,,,,,2023-05-24,1,,,,,リバレスト,0
2177,9120001255151,新規,0,2023-05-24,2023-05-24,アラヤシキ株式会社,,株式会社,大阪府,大阪市中央区,難波５丁目１－６０なんばスカイオ２７Ｆ,,27,128,5420076,,,,,,,2023-05-24,1,,,,,アラヤシキ,0
2178,9120101067587,新規,0,2023-05-24,2023-05-24,ＨＳＧ’ｓ株式会社,,株式会社,大阪府,堺市西区,平岡町８９番地３ＫＬビル２０１,,27,144,5938307,,,,,,,2023-05-24,1,,,,,エイチエスジーズ,0
2180,9120901047557,新規,0,2023-05-24,2023-05-24,株式会社Ｂ‐ＤＡＳＨ,,株式会社,大阪府,池田市,城南１丁目６番１９号,,27,204,5630025,,,,,,,2023-05-24,1,,,,,ビーダッシュ,0
2186,9130001074377,新規,0,2023-05-24,2023-05-24,株式会社ｚｅｎｏ,,株式会社,京都府,京都市北区,西賀茂川上町６５番地シェーネブリランテ１０１号室,,26,101,6038817,,,,,,,2023-05-24,1,,,,,ゼノ,0
2187,9130001074385,新規,0,2023-05-24,2023-05-24,株式会社ジャパンツーリズム京都,,株式会社,京都府,京都市下京区,四条通室町東入函谷鉾町１０１,,26,106,6008009,,,,,,,2023-05-24,1,,,,,ジャパンツーリズムキョウト,0
2189,9130003008746,新規,0,2023-05-24,2023-05-24,合同会社ベスト,,合同会社,京都府,京都市下京区,善長寺町１４４番地ヴィラ烏丸四条１００３,,26,106,6008431,,,,,,,2023-05-24,1,,,,,ベスト,0
2191,9140001130286,新規,0,2023-05-24,2023-05-24,株式会社ＴｉｍｅＸ,,株式会社,兵庫県,尼崎市,富松町４丁目１６番１２号,,28,202,6610003,,,,,,,2023-05-24,1,,,,,タイムエックス,0
2204,9180001156427,新規,0,2023-05-24,2023-05-24,株式会社コレクテ,,株式会社,愛知県,名古屋市北区,東味鋺２丁目２３１４番４,,23,103,4620013,,,,,,,2023-05-24,1,,,,,コレクテ,0
2210,9180303005711,新規,0,2023-05-24,2023-05-24,ＴＯＮＡＲ　Ｐｉｌｚ合同会社,,合同会社,愛知県,豊田市,永覚町梨畔３３番地,,23,211,4701205,,,,,,,2023-05-24,1,,,,,トナーピルズ,0
2211,9190001030432,新規,0,2023-05-24,2023-05-24,株式会社ＬＳＫ　ＨＯＭＥ,,株式会社,三重県,鈴鹿市,算所３丁目７番３２号メソニックビル２階,,24,207,5130806,,,,,,,2023-05-24,1,,,,,エルエスケーホーム,0
2221,9230001019850,新規,0,2023-05-24,2023-05-24,株式会社蒼電機工業,,株式会社,富山県,南砺市,才川七４５０番地,,16,210,9391681,,,,,,,2023-05-24,1,,,,,ソウデンキコウギョウ,0
2226,9240001061570,新規,0,2023-05-24,2023-05-24,株式会社折一電設,,株式会社,広島県,廿日市市,陽光台５丁目８番地１０,,34,213,7380060,,,,,,,2023-05-24,1,,,,,オリイチデンセツ,0
2228,9250001020105,新規,0,2023-05-24,2023-05-24,株式会社ＫＡＮＥＳＹＯＵ,,株式会社,山口県,下関市,稗田中町２０番９号エクリュ稗田Ａ－４号,,35,201,7510856,,,,,,,2023-05-24,1,,,,,カネショウ,0
2236,9290001101628,新規,0,2023-05-24,2023-05-24,株式会社Ｓ．Ｐ．Ｎ,,株式会社,福岡県,福岡市早良区,賀茂３丁目１７－１８,,40,137,8140164,,,,,,,2023-05-24,1,,,,,エスピーエヌ,0
2238,9290801029548,新規,0,2023-05-24,2023-05-24,会計ドットコム株式会社,,株式会社,福岡県,北九州市小倉南区,星和台２丁目１８番１１号,,40,107,8020973,,,,,,,2023-05-24,1,,,,,カイケイドットコム,0
2241,9320001019783,新規,0,2023-05-24,2023-05-24,株式会社ＳＨＩＮ‐ＫＥＮ,,株式会社,大分県,大分市,仲西町２丁目５番２７号,,44,201,8700135,,,,,,,2023-05-24,1,,,,,シンケン,0
2246,9340005009606,新規,0,2023-05-24,2023-05-24,一般財団法人土地所有者等救済支援機構,,その他の設立登記法人,鹿児島県,鹿児島市,西田２丁目１０番１号,,46,201,8900046,,,,,,,2023-05-24,1,,,,,トチショユウシャトウキュウサイシエンキコウ,0
2251,9360001032056,新規,0,2023-05-24,2023-05-24,株式会社ＡＳＳＥＴＬＩＮＫ,,株式会社,沖縄県,宮古島市,平良字西仲宗根２－１３,,47,214,9060006,,,,,,,2023-05-24,1,,,,,アセットリンク,0
2254,9360003012980,新規,0,2023-05-24,2023-05-24,合同会社インベストワールド,,合同会社,沖縄県,那覇市,壺川２丁目１０番地６県営大橋市街地住宅１１０２,,47,201,9000025,,,,,,,2023-05-24,1,,,,,インベストワールド,0
2256,9370001049999,新規,0,2023-05-24,2023-05-24,株式会社ｂｒｅｅｚｅ,,株式会社,宮城県,大崎市,岩出山字細峯１３番地１５４,,04,215,9896444,,,,,,,2023-05-24,1,,,,,ブリーズ,0
2264,9420003002728,新規,0,2023-05-24,2023-05-24,合同会社夏子商店,,合同会社,青森県,八戸市,旭ケ丘３丁目１番地１６,,02,203,0310824,,,,,,,2023-05-24,1,,,,,ナツコショウテン,0
2265,9420005007849,新規,0,2023-05-24,2023-05-24,農事組合法人アスノツガル,,その他の設立登記法人,青森県,弘前市,大字境関字西田３４番地２,,02,202,0368076,,,,,,,2023-05-24,1,,,,,,0
2270,9430001089188,新規,0,2023-05-24,2023-05-24,株式会社インターリージョン,,株式会社,北海道,江別市,文京台緑町５８２,,01,217,0690836,,,,,,,2023-05-24,1,,,,,インターリージョン,0
2273,9430003015076,新規,0,2023-05-24,2023-05-24,Ｂｅａｕｔｙ　Ｍｏｄｅ　Ｌｏｕｎｇｅ合同会社,,合同会社,北海道,室蘭市,知利別町１丁目９番９号,,01,205,0500076,,,,,,,2023-05-24,1,,,,,ビューティーモードラウンジ,0
2274,9430005014720,新規,0,2023-05-24,2023-05-24,一般社団法人クロステクノロジーズ,,その他の設立登記法人,北海道,札幌市白石区,菊水八条２丁目１番３３－１０５号,,01,104,0030808,,,,,,,2023-05-24,1,,,,,クロステクノロジーズ,0
2275,9450001013996,新規,0,2023-05-24,2023-05-24,株式会社ネクストワン,,株式会社,北海道,旭川市,川端町二条７丁目３番１号,,01,204,0700812,,,,,,,2023-05-24,1,,,,,ネクストワン,0
2277,9700150115964,新規,0,2023-05-24,2023-05-09,上野方地域振興会,,その他,富山県,魚津市,大海寺野１３７０,,16,204,9370816,,,,,,,2023-05-09,1,,,,,カミノガタチイキシンコウカイ,0
2278,9700150116442,新規,0,2023-05-24,2023-05-24,Ｃｈａｎｇｓｈａ　Ｓａｉ　Ｊｉｎｇ　Ｄｉａｎ　Ｚｉ　Ｋｅ　Ｊｉ　Ｙｏｕ　Ｘｉａｎ　Ｇｏｎｇ　Ｓｉ,,外国会社等,,,,,,,,ＧａｏＸｉｎＫａｉＦａＱｕ　ＹｕｅＬｕＸｉＤａＤａｏ　５８８Ｈａｏ　ＸｉｎＣｈｅｎｇＫｅＪｉＹｕａｎ　２Ｄｏｎｇ４０８Ｆａｎｇ　ＣｈａｎｇＳｈａ　ＨｕＮａｎ　ＣＮ,,,,,,2023-05-24,1,,,,,チャンササイジンデンシケジユウゲンコウシ,0
2279,9700150116450,新規,0,2023-05-24,2023-05-24,ｇｕａｎｇｚｈｏｕ　ｗａｎｇｃｈａｏｍａｏｙｉ　ｙｏｕｘｉａｎｇｏｎｇｓｉ,,外国会社等,,,,,,,,ｈａｉｚｈｕｑｕ，ｙｉｙｕａｎｎａｎｌｕ　１３ｈａｏｄａｙｕａｎ，１１ｈａｏ３０２ｆａｎｇ　ｇｕａｎｇｚｈｏｕｓｈｉ　ｇｕａｎｇｄｏｎｇｓｈｅｎｇ,,,,,,2023-05-24,1,,,,,グゥアンゾォウワンチャオマオイユウゲンコウシ,0
2280,9700150116459,新規,0,2023-05-24,2023-05-24,ｓｈｅｎｚｈｅｎｓｈｉ　ｃｈｕａｎｇｓｈｉｋｅｊｉ　ｙｏｕｘｉａｎｇｏｎｇｓｉ,,外国会社等,,,,,,,,ｌｏｎｇｇａｎｇｑｕｌｏｎｇｇａｎｇｊｉｅｄａｏｌｏｎｇｇａｎｇｌｕ１０ｈａｏ　ｇｕｉｇｕｄｏｎｇｌｉ６０７　ｓｈｅｎｚｈｅｎ　Ｇｕａｎｇｄｏｎｇ,,,,,,2023-05-24,1,,,,,シンセンシツァンシケジユウゲンコウシ,0
2281,9700150116467,新規,0,2023-05-24,2023-05-24,Ｓｈｅｎｚｈｅｎ　Ｘｉｓｈｅｎｇ　Ｔｅｃｈｎｏｌｏｇｙ　Ｃｏ．，ＬＴＤ,,外国会社等,,,,,,,,ｎａｎ　ｓｈａｎ　ｑｕ　ｙｕｅ　ｈａｉ　ｊｉｅ　ｄａｏ　ｋｅ　ｊｉ　ｙｕａｎ　ｓｈｅ　ｑｕ　ｋｅ　ｆａ　ｌｕ　８　ｈａｏ　ｊｉｎ　ｒｏｎｇ　ｆｕ　ｗｕ　ｊｉ　ｓｈｕ　ｃｈｕａｎｇ　ｘｉｎ　ｊｉ　ｄｉ　１　ｄｏｎｇ　１０Ｃ－２　ｓｈｅｎ　ｚｈｅｎ　５１８０００　ＣＮ,,,,,,2023-05-24,1,,,,,シェンジェンシーションコージーヨウシエンゴンスー,0
2282,9700150116475,新規,0,2023-05-24,2023-05-24,ｇｕａｎｇｚｈｏｕｃｈｉｘｉａｎｇｄｅｎｇｓｈｉ　ｍａｏｙｉｙｏｕｘｉａｎｇｏｎｇｓｉ,,外国会社等,,,,,,,,ｈｕａｎｇｐｕｑｕｂａｎｈｅｌｕ１１６ｈａｏ　ｇｕａｎｇｚｈｏｕｓｈｉ　ｇｕａｎｇｄｏｎｇｓｈｅｎｇ　５１０７００　ＣＮ,,,,,,2023-05-24,1,,,,,グワンジョウチーシャンドンシーマオイーヨウシエンゴンスー,0
