sequenceNumber,corporateNumber,process,correct,updateDate,changeDate,name,nameImageId,kind,prefectureName,cityName,streetNumber,addressImageId,prefectureCode,cityCode,postCode,addressOutside,addressOutsideImageId,closeDate,closeCause,successorCorporateNumber,changeCause,assignmentDate,latest,enName,enPrefectureName,enCityName,enAddressOutside,furigana,hihyoji
4,1010001124119,登記記録の閉鎖等,0,2024-07-12,2024-07-01,株式会社ホスピタリティコミュニケーションズ,,株式会社,東京都,千代田区,神田錦町２丁目５番１６号,,13,101,1010054,,,2024-07-01,合併による解散等,9010001094544,令和６年７月１日東京都千代田区神田錦町二丁目５番１６号株式会社ホスピタリティパートナーズ（9010001094544）に合併し解散,2015-10-05,1,,,,,ホスピタリティコミュニケーションズ,0
22,1010003027765,登記記録の閉鎖等,0,2024-07-12,2024-07-01,合同会社福田事務所,,合同会社,東京都,中央区,佃２丁目２番１０号,,13,102,1040051,,,2024-07-01,合併による解散等,5010003030583,令和６年６月３０日東京都中央区佃二丁目２番１０－１３０３号合同会社フクタ（5010003030583）に合併し解散,2018-06-21,1,,,,,フクダジムショ,0
40,1010403024453,登記記録の閉鎖等,0,2024-07-12,2024-06-28,合同会社ＨｉＪｏＪｏ　Ｆｕｎｄ１４,,合同会社,東京都,港区,西新橋１丁目７番２号,,13,103,1050003,,,2024-06-28,清算の結了等,,,2021-01-08,1,,,,,ヒジョージョーファンドジュウヨン,0
43,1010405009584,登記記録の閉鎖等,0,2024-07-12,2024-06-27,特定非営利活動法人東ティモール日本文化センター,,その他の設立登記法人,宮城県,仙台市泉区,高森５丁目２０番地の１高橋道郎気付,00082426,04,105,9813203,,,2024-06-27,清算の結了等,,,2015-10-05,1,,,,,ヒガシティモールニホンブンカセンター,0
61,1011001130148,登記記録の閉鎖等,0,2024-07-12,2024-07-10,株式会社Ｖａｌｖｅ,,株式会社,東京都,渋谷区,代官山町１３－７ベルビー代官山１Ｆ,,13,113,1500034,,,2024-07-10,清算の結了等,,,2019-10-02,1,,,,,バルブ,0
71,1011301002336,登記記録の閉鎖等,0,2024-07-12,2024-07-08,五光産業株式会社,,株式会社,東京都,杉並区,上井草１丁目１８番３号,,13,115,1670023,,,2024-07-08,清算の結了等,,,2015-10-05,1,,,,,ゴコウサンギョウ,0
73,1011501004280,登記記録の閉鎖等,0,2024-07-12,2024-07-08,細川ビル株式会社,,株式会社,埼玉県,川口市,大字差間８３番地の７,,11,203,3330816,,,2024-07-08,清算の結了等,,,2015-10-05,1,,,,,ホソカワビル,0
74,1011601005179,登記記録の閉鎖等,0,2024-07-12,2024-07-01,ｂｌｏｏｍ株式会社,,株式会社,東京都,中央区,築地２丁目１番１６号,,13,102,1040045,,,2024-07-01,合併による解散等,7011601024157,令和６年７月１日東京都中央区築地２－１－１６Ｆｒｕｉｔｓ株式会社（7011601024157）に合併し解散,2015-10-05,1,,,,,ブルーム,0
77,1011702002240,登記記録の閉鎖等,0,2024-07-12,2024-07-04,有限会社大島自動車,,有限会社,東京都,江戸川区,松島１丁目２０番２２号,,13,123,1320031,,,2024-07-04,清算の結了等,,,2015-10-05,1,,,,,オオシマジドウシャ,0
83,1012701004153,登記記録の閉鎖等,0,2024-07-12,2024-07-04,株式会社東京美術工芸社,,株式会社,東京都,清瀬市,中里１丁目１７３９番地の７,,13,221,2040003,,,2024-07-04,清算の結了等,,,2015-10-05,1,,,,,,0
93,1020001111702,登記記録の閉鎖等,0,2024-07-12,2024-07-08,株式会社ハピネス・オブ・ライフ,,株式会社,神奈川県,横浜市港北区,新横浜２丁目５番１０号第２楓ビル９階Ｂ室,,14,109,2220033,,,2024-07-08,合併による解散等,6030001066965,令和６年６月１日埼玉県北葛飾郡松伏町築比地７９５番地１株式会社ウィーズ（6030001066965）に合併し解散,2015-10-05,1,,,,,ハピネスオブライフ,0
100,1020005014265,登記記録の閉鎖等,0,2024-07-12,2024-06-28,林部・坪谷税理士法人,,その他の設立登記法人,神奈川県,横浜市泉区,弥生台２５番７号エクセルコート弥生台２Ｆ,,14,116,2450008,,,2024-06-28,清算の結了等,,,2019-08-19,1,,,,,ハヤシベツボヤ,0
113,1040002022351,登記記録の閉鎖等,0,2024-07-12,2024-07-01,サンクラフト有限会社,,有限会社,千葉県,船橋市,上山町１丁目２０８番地２３,,12,204,2730046,,,2024-07-01,清算の結了等,,,2015-10-05,1,,,,,サンクラフト,0
117,1040003022623,登記記録の閉鎖等,0,2024-07-12,2024-06-28,合同会社ダンケア,,合同会社,千葉県,松戸市,本町１７－１１芹澤ビル６Ｆ,,12,207,2710091,,,2024-06-28,清算の結了等,,,2023-05-17,1,,,,,ダンケア,0
118,1050001049576,登記記録の閉鎖等,0,2024-07-12,2024-07-04,株式会社リファインゼロ,,株式会社,茨城県,取手市,吉田３番地２,,08,217,3020007,,,2024-07-04,清算の結了等,,,2021-07-26,1,,,,,リファインゼロ,0
124,1070002014866,登記記録の閉鎖等,0,2024-07-12,2024-07-09,有限会社スーパーオギノ,,有限会社,群馬県,安中市,松井田町新堀３５５番地,,10,211,3790221,,,2024-07-09,清算の結了等,,,2015-10-05,1,,,,,スーパーオギノ,0
127,1080002005955,登記記録の閉鎖等,0,2024-07-12,2024-07-01,有限会社モリシタパック,,有限会社,静岡県,静岡市葵区,昭府２丁目３０番２８－１号,,22,101,4200871,,,2024-07-01,清算の結了等,,,2015-10-05,1,,,,,モリシタパック,0
143,1120001232686,登記記録の閉鎖等,0,2024-07-12,2024-07-05,豊臣保証株式会社,,株式会社,大阪府,大阪市浪速区,戎本町１丁目９番２１号,,27,111,5560013,,,2024-07-05,清算の結了等,,,2020-10-28,1,,,,,トヨトミホショウ,0
162,1120901007551,登記記録の閉鎖等,0,2024-07-12,2024-07-09,株式会社トータルライフコーポレーション,,株式会社,大阪府,吹田市,広芝町３番２号,,27,205,5640052,,,2024-07-09,清算の結了等,,,2015-10-05,1,,,,,トータルライフコーポレーション,0
177,1140002011740,登記記録の閉鎖等,0,2024-07-12,2024-07-09,有限会社彫工社,,有限会社,兵庫県,神戸市兵庫区,塚本通７丁目３番７号,,28,105,6520804,,,2024-07-09,清算の結了等,,,2015-10-05,1,,,,,チョウコウシャ,0
180,1140002050061,登記記録の閉鎖等,0,2024-07-12,2024-07-09,有限会社ノト・アンド・サンズ,,有限会社,兵庫県,姫路市,南今宿４番１５号,,28,201,6700054,,,2024-07-09,清算の結了等,,,2015-10-05,1,,,,,ノトアンドサンズ,0
181,1140002061819,登記記録の閉鎖等,0,2024-07-12,2024-07-05,有限会社大樹産業,,有限会社,兵庫県,西脇市,黒田庄町田高３１４番地の３７,,28,213,6790321,,,2024-07-05,清算の結了等,,,2015-10-05,1,,,,,ダイキサンギョウ,0
184,1160002002606,登記記録の閉鎖等,0,2024-07-12,2024-07-08,有限会社オーク,,有限会社,滋賀県,大津市,大江３丁目５番２５号,,25,201,5202141,,,2024-07-08,合併による解散等,6030001066965,令和６年６月１日埼玉県北葛飾郡松伏町築比地７９５番地１株式会社ウィーズ（6030001066965）に合併し解散,2015-10-05,1,,,,,オーク,0
186,1170002006440,登記記録の閉鎖等,0,2024-07-12,2024-07-04,銀鈴有限会社,,有限会社,和歌山県,海南市,幡川１８４番地,,30,202,6420028,,,2024-07-04,合併による解散等,2170001005673,令和６年７月１日和歌山県海南市幡川２００番地紀州グループ株式会社（2170001005673）に合併し解散,2015-10-05,1,,,,,ギンレイ,0
197,1190002018095,登記記録の閉鎖等,0,2024-07-12,2024-07-03,有限会社さのや石井書店,,有限会社,三重県,いなべ市,北勢町阿下喜１０４６番地,,24,214,5110428,,,2024-07-03,清算の結了等,,,2015-10-05,1,,,,,サノヤイシイショテン,0
203,1200005007102,登記記録の閉鎖等,0,2024-07-12,2024-07-04,農事組合法人五加茶生産組合,,その他の設立登記法人,岐阜県,加茂郡東白川村,五加１２３１番地の１,,21,507,5091303,,,2024-07-04,清算の結了等,,,2015-10-05,1,,,,,ゴカチャセイサンクミアイ,0
208,1240002042511,登記記録の閉鎖等,0,2024-07-12,2024-07-05,有限会社ビユーテイーサロンエル,,有限会社,広島県,福山市,入船町２丁目８番６号,,34,207,7200801,,,2024-07-05,清算の結了等,,,2015-10-05,1,,,,,ビューテイサロンエル,0
220,1350001010350,登記記録の閉鎖等,0,2024-07-12,2024-07-03,株式会社エネルギア星倉サービス,,株式会社,宮崎県,日南市,吾田東１０丁目８番６号,,45,204,8892541,,,2024-07-03,清算の結了等,,,2015-10-05,1,,,,,エネルギアホシクラサービス,0
222,1360001008121,登記記録の閉鎖等,0,2024-07-12,2024-07-01,株式会社光明,,株式会社,沖縄県,うるま市,字江洲４５７番地１,,47,213,9042244,,,2024-07-01,合併による解散等,3360001015355,令和６年７月１日沖縄県うるま市字江洲４５７番地１株式会社大知（3360001015355）に合併し解散,2015-10-05,1,,,,,コウメイ,0
229,1380001014225,登記記録の閉鎖等,0,2024-07-12,2024-07-05,いわき太平電気株式会社,,株式会社,福島県,いわき市,小島町２丁目９番地の１８,,07,204,9738411,,,2024-07-05,合併による解散等,5380001005055,令和６年７月１日福島県郡山市待池台一丁目５５番３３光栄電気通信工業株式会社（5380001005055）に合併し解散,2015-10-05,1,,,,,,0
249,1480001004018,登記記録の閉鎖等,0,2024-07-12,2024-07-09,株式会社セントリック,,株式会社,徳島県,徳島市,名東町２丁目４６５番地の４,,36,201,7700047,,,2024-07-09,清算の結了等,,,2015-10-05,1,,,,,セントリック,0
253,2010001117666,登記記録の閉鎖等,0,2024-07-12,2024-07-01,ビュートラス株式会社,,株式会社,東京都,文京区,小石川１丁目２４番１５－８０１号,,13,105,1120002,,,2024-07-01,合併による解散等,2010001187239,令和６年７月１日東京都文京区小石川一丁目２４番１５－８０１号メトラスワークス株式会社（2010001187239）に合併し解散,2015-10-05,1,,,,,ビュートラス,0
273,2010402022498,登記記録の閉鎖等,0,2024-07-12,2024-06-28,有限会社ヴィコラージュ,,有限会社,東京都,港区,六本木３丁目１６番３５－５０８号,,13,103,1060032,,,2024-06-28,清算の結了等,,,2015-10-05,1,,,,,ヴィコラージュ,0
315,2012801004358,登記記録の閉鎖等,0,2024-07-12,2024-07-08,株式会社柏友堂,,株式会社,東京都,立川市,高松町３丁目１３番１５号,,13,202,1900011,,,2024-07-08,合併による解散等,6030001066965,令和６年６月１日埼玉県北葛飾郡松伏町築比地７９５番地１株式会社ウィーズ（6030001066965）に合併し解散,2015-10-05,1,,,,,ハクユウドウ,0
320,2020001063199,登記記録の閉鎖等,0,2024-07-12,2024-06-27,株式会社イナステップ,,株式会社,神奈川県,横浜市南区,永田山王台３８番１７号,,14,105,2320074,,,2024-06-27,清算の結了等,,,2015-10-05,1,,,,,イナステップ,0
324,2021002044816,登記記録の閉鎖等,0,2024-07-12,2024-07-10,門倉商事有限会社,,有限会社,神奈川県,海老名市,国分南１丁目１３番４８号１０１,,14,215,2430405,,,2024-07-10,清算の結了等,,,2015-10-05,1,,,,,カドクラショウジ,0
328,2030001131368,登記記録の閉鎖等,0,2024-07-12,2024-07-08,万搬株式会社,,株式会社,埼玉県,八潮市,大字浮塚７８０番地,,11,234,3400835,,,2024-07-08,清算の結了等,,,2019-06-12,1,,,,,マンパン,0
338,2040001067314,登記記録の閉鎖等,0,2024-07-12,2024-07-01,株式会社トーホーテクノス,,株式会社,千葉県,柏市,十余二字伊勢原５７４番４４,,12,217,2770872,,,2024-07-01,清算の結了等,,,2015-10-05,1,,,,,トーホーテクノス,0
342,2040002011023,登記記録の閉鎖等,0,2024-07-12,2024-07-01,有限会社丸昇,,有限会社,千葉県,千葉市緑区,あすみが丘３丁目６５番地３,,12,105,2670066,,,2024-07-01,清算の結了等,,,2015-10-05,1,,,,,マルショウ,0
343,2040002095917,登記記録の閉鎖等,0,2024-07-12,2024-07-10,有限会社矯正ラボラトリー高山,,有限会社,神奈川県,相模原市中央区,相生４丁目４番８－２号,,14,152,2520235,,,2024-07-10,清算の結了等,,,2015-10-05,1,,,,,キョウセイラボラトリータカヤマ,0
344,2040003001114,登記記録の閉鎖等,0,2024-07-12,2024-07-01,合名会社安竝化学衡器製作所,,合名会社,千葉県,市川市,新田２丁目２５番１１号,,12,203,2720035,,,2024-07-01,清算の結了等,,,2015-10-05,1,,,,,ヤスナミカガクコウキセイサクショ,0
350,2060002005460,登記記録の閉鎖等,0,2024-07-12,2024-07-02,有限会社大一商会,,有限会社,栃木県,宇都宮市,錦３丁目６番１４号グランドハイツ八幡４０１,,09,201,3210967,,,2024-07-02,清算の結了等,,,2015-10-05,1,,,,,ダイイチショウカイ,0
356,2070002029137,登記記録の閉鎖等,0,2024-07-12,2024-07-01,有限会社木枯本舗,,有限会社,群馬県,太田市,藪塚町２２２番地,00026802,10,205,3792301,,,2024-07-01,合併による解散等,7070001019324,令和６年６月２２日群馬県太田市藪塚町２０５番３株式会社産業工学研究所（7070001019324）に合併し解散,2015-10-05,1,,,,,コガラシホンポ,0
374,2120002000463,登記記録の閉鎖等,0,2024-07-12,2024-07-11,有限会社大功商事,,有限会社,大阪府,大阪市旭区,清水１丁目１８番１９号,,27,117,5350021,,,2024-07-11,清算の結了等,,,2015-10-05,1,,,,,タイコウショウジ,0
388,2130001021559,登記記録の閉鎖等,0,2024-07-12,2024-07-08,株式会社タナカ電材,,株式会社,京都府,京都市中京区,西ノ京星池町１９番地,,26,104,6048416,,,2024-07-08,清算の結了等,,,2015-10-05,1,,,,,タナカデンザイ,0
409,2160003002678,登記記録の閉鎖等,0,2024-07-12,2024-07-05,ひかり合同会社,,合同会社,滋賀県,彦根市,銀座町５番２号,,25,202,5220088,,,2024-07-05,清算の結了等,,,2022-09-28,1,,,,,ヒカリ,0
413,2180001127351,登記記録の閉鎖等,0,2024-07-12,2024-06-28,株式会社ＫＤＫ,,株式会社,愛知県,愛西市,稲葉町村南２０番地６,,23,232,4960907,,,2024-06-28,清算の結了等,,,2017-04-17,1,,,,,ケイディケイ,0
418,2180002007148,登記記録の閉鎖等,0,2024-07-12,2024-06-24,有限会社べんてん商事,,有限会社,愛知県,名古屋市中川区,牛立町３丁目５８番地,,23,110,4540043,,,2024-06-24,合併による解散等,7180001020948,令和６年６月２４日名古屋市中川区牛立町一丁目６３番地株式会社丸直（7180001020948）に合併し解散,2015-10-05,1,,,,,ベンテンショウジ,0
431,2240001003769,登記記録の閉鎖等,0,2024-07-12,2024-07-08,株式会社山陽エヌエフ販売,,株式会社,広島県,広島市西区,横川町２丁目１４番４号,,34,104,7330011,,,2024-07-08,合併による解散等,3020001136004,令和６年７月１日横浜市港北区綱島東六丁目３番２０号株式会社エヌエフ回路設計ブロック（3020001136004）に合併し解散,2015-10-05,1,,,,,サンヨウエヌエフハンバイ,0
433,2240002045918,登記記録の閉鎖等,0,2024-07-12,2024-07-05,有限会社やつたにフーズ,,有限会社,広島県,福山市,駅家町大字万能倉８３０番地の１,,34,207,7201131,,,2024-07-05,清算の結了等,,,2015-10-05,1,,,,,ヤツタニフーズ,0
443,2290001075952,登記記録の閉鎖等,0,2024-07-12,2024-07-01,株式会社サンリアルエステート,,株式会社,福岡県,福岡市東区,多の津１丁目１２番２号,,40,131,8130034,,,2024-07-01,合併による解散等,9290001071458,令和６年６月３０日福岡市東区多の津一丁目１２番２号株式会社トライアルホールディングス（9290001071458）に合併し解散,2016-12-01,1,,,,,サンリアルエステート,0
444,2290001078410,登記記録の閉鎖等,0,2024-07-12,2024-06-13,中島建設株式会社,,株式会社,福岡県,久留米市,三潴町玉満３７４番地,,40,203,8300112,,,2024-06-13,清算の結了等,,,2017-07-19,1,,,,,ナカシマケンセツ,0
448,2290005011631,登記記録の閉鎖等,0,2024-07-12,2024-06-10,明照院,,その他の設立登記法人,福岡県,柳川市,三橋町久末４７３番地,,40,207,8320816,,,2024-06-10,清算の結了等,,,2015-10-05,1,,,,,メイショウイン,0
457,2320002019822,登記記録の閉鎖等,0,2024-07-12,2024-07-01,有限会社アシスト,,有限会社,大分県,玖珠郡九重町,大字右田１０４４番地の１,,44,461,8794601,,,2024-07-01,清算の結了等,,,2015-10-05,1,,,,,アシスト,0
468,2380001014612,登記記録の閉鎖等,0,2024-07-12,2024-07-03,株式会社ヨーロス,,株式会社,福島県,いわき市,小名浜大原字北君ケ塚７３番地の７,,07,204,9718111,,,2024-07-03,清算の結了等,,,2015-10-05,1,,,,,ヨーロス,0
473,2380005010079,登記記録の閉鎖等,0,2024-07-12,2024-07-02,特定非営利活動法人ゆいネット只見,,その他の設立登記法人,福島県,南会津郡只見町,大字只見字原７０５番地,,07,367,9680421,,,2024-07-02,清算の結了等,,,2015-10-05,1,,,,,ユイネットタダミ,0
476,2410003002479,登記記録の閉鎖等,0,2024-07-12,2024-06-28,合名会社泉電機商会,,合名会社,秋田県,横手市,婦気大堤字高ノ森１番地８０,,05,203,0130063,,,2024-06-28,清算の結了等,,,2015-10-05,1,,,,,イズミデンキショウカイ,0
479,2430001086497,登記記録の閉鎖等,0,2024-07-12,2024-07-02,株式会社Ｐｒｏｏｆ　Ｏｆ　Ｃｏｎｃｅｐｔ‐Ｓａｐｐｏｒｏ　ＡＩＯＴ　Ｌａｂ．,,株式会社,北海道,札幌市中央区,南三条西１２丁目３２５－９,,01,101,0600063,,,2024-07-02,清算の結了等,,,2022-04-25,1,,,,,プルーフオブコンセプトサッポロエイアイオーティーラボ,0
482,2470001000999,登記記録の閉鎖等,0,2024-07-12,2024-07-01,株式会社ピエド,,株式会社,香川県,高松市,国分寺町新居１３９９番地２,,37,201,7690101,,,2024-07-01,合併による解散等,8470001001380,令和６年７月１日香川県高松市国分寺町新居１３４４番地２株式会社レガルト（8470001001380）に合併し解散,2015-10-05,1,,,,,ピエド,0
493,3010001154378,登記記録の閉鎖等,0,2024-07-12,2024-07-01,Ｍｅｍｂｒａｎ　Ｊａｐａｎ株式会社,,株式会社,東京都,中央区,八重洲２丁目１１番７号一新ビル８階,,13,102,1040028,,,2024-07-01,清算の結了等,,,2015-10-05,1,,,,,メンブランジャパン,0
494,3010001162397,登記記録の閉鎖等,0,2024-07-12,2024-07-09,株式会社アトリエダブルアール,,株式会社,神奈川県,大和市,中央５丁目２番２６－１１０３号,,14,213,2420021,,,2024-07-09,清算の結了等,,,2015-10-05,1,,,,,アトリエダブルアール,0
500,3010005017556,登記記録の閉鎖等,0,2024-07-12,2024-07-02,一般社団法人リックスレリア,,その他の設立登記法人,東京都,中央区,日本橋１丁目４番１号日本橋一丁目ビルディング,,13,102,1030027,,,2024-07-02,清算の結了等,,,2015-10-05,1,,,,,リックスレリア,0
520,3010701039201,登記記録の閉鎖等,0,2024-07-12,2024-06-24,株式会社アイアイ・ミッション,,株式会社,東京都,品川区,西五反田８丁目１番１３号タケウチビル２階,,13,109,1410031,,,2024-06-24,清算の結了等,,,2020-04-23,1,,,,,アイアイミッション,0
524,3010702009161,登記記録の閉鎖等,0,2024-07-12,2024-07-04,有限会社城南真空工業所,,有限会社,東京都,品川区,豊町３丁目１３番９号,,13,109,1420042,,,2024-07-04,清算の結了等,,,2015-10-05,1,,,,,ジョウナンシンクウコウギョウショ,0
525,3010702011274,登記記録の閉鎖等,0,2024-07-12,2024-07-01,有限会社日向商事,,有限会社,東京都,品川区,荏原１丁目１０番１０号,,13,109,1420063,,,2024-07-01,合併による解散等,6010701008806,令和６年７月１日東京都品川区荏原一丁目１０番１０号プラム電気工業株式会社（6010701008806）に合併し解散,2015-10-05,1,,,,,ヒュウガショウジ,0
540,3011001123835,登記記録の閉鎖等,0,2024-07-12,2024-06-28,スマニューラボ株式会社,,株式会社,東京都,渋谷区,神宮前６丁目２５番１６号,,13,113,1500001,,,2024-06-28,清算の結了等,,,2018-08-23,1,,,,,スマニューラボ,0
541,3011001126235,登記記録の閉鎖等,0,2024-07-12,2024-07-10,株式会社ｎｏｏｎ,,株式会社,東京都,渋谷区,松濤１丁目２８－２,,13,113,1500046,,,2024-07-10,清算の結了等,,,2019-01-23,1,,,,,ヌーン,0
556,3011802017954,登記記録の閉鎖等,0,2024-07-12,2024-07-11,有限会社福相工務店,,有限会社,東京都,足立区,大谷田３丁目８番１８号,,13,121,1200001,,,2024-07-11,清算の結了等,,,2015-10-05,1,,,,,フクソウコウムテン,0
559,3012705001847,登記記録の閉鎖等,0,2024-07-12,2024-07-05,一般財団法人多磨の杜,,その他の設立登記法人,東京都,東村山市,青葉町２丁目３１番６,,13,213,1890002,,,2024-07-05,清算の結了等,,,2015-10-05,1,,,,,タマノモリ,0
570,3020002031352,登記記録の閉鎖等,0,2024-07-12,2024-06-28,有限会社古屋モータース,,有限会社,神奈川県,横浜市南区,大岡２丁目２０番４号,,14,105,2320061,,,2024-06-28,清算の結了等,,,2015-10-05,1,,,,,フルヤモータース,0
584,3021005004931,登記記録の閉鎖等,0,2024-07-12,2024-07-08,管理組合法人シャンボール相模原,,その他の設立登記法人,神奈川県,座間市,相模が丘１丁目２７番地の１０,,14,216,2520001,,,2024-07-08,清算の結了等,,,2015-10-05,1,,,,,シャンボールサガミハラ,0
593,3040001044130,登記記録の閉鎖等,0,2024-07-12,2024-07-10,アンドーパイル販売株式会社,,株式会社,千葉県,印旛郡栄町,矢口神明１丁目５番７号,,12,329,2701501,,,2024-07-10,合併による解散等,2011501013181,令和６年７月１日東京都北区赤羽西一丁目２６番２号シリウスビル株式会社シリウス（2011501013181）に合併し解散,2015-10-05,1,,,,,アンドーパイルハンバイ,0
609,3070001022926,登記記録の閉鎖等,0,2024-07-12,2024-07-04,昭和化成工業株式会社,,株式会社,群馬県,沼田市,高橋場町４４３番地,,10,206,3780056,,,2024-07-04,合併による解散等,3110001014191,令和６年７月１日新潟県三条市塚野目２１５３番地５株式会社ＳＡＮＫＡ（3110001014191）に合併し解散,2015-10-05,1,,,,,ショウワカセイコウギョウ,0
616,3080001021729,登記記録の閉鎖等,0,2024-07-12,2024-07-02,株式会社エスエイト,,株式会社,静岡県,静岡市葵区,羽鳥３丁目２４番１６号,,22,101,4211215,,,2024-07-02,清算の結了等,,,2017-08-01,1,,,,,エスエイト,0
617,3080401010380,登記記録の閉鎖等,0,2024-07-12,2024-07-05,株式会社大東工業,,株式会社,静岡県,浜松市浜名区,於呂４１８１番地の１,,22,139,4340015,,,2024-07-05,清算の結了等,,,2015-10-05,1,,,,,ダイドウコウギョウ,0
619,3120001024628,登記記録の閉鎖等,0,2024-07-12,2024-07-04,ナガイ印刷株式会社,,株式会社,大阪府,大阪市中央区,谷町７丁目３番４－２２０号,,27,128,5420012,,,2024-07-04,清算の結了等,,,2015-10-05,1,,,,,ナガイインサツ,0
625,3120001197515,登記記録の閉鎖等,0,2024-07-12,2024-07-05,株式会社ドラゴンコンストラクション,,株式会社,大阪府,大阪市浪速区,大国１丁目３番８号,,27,111,5560014,,,2024-07-05,清算の結了等,,,2016-04-13,1,,,,,ドラゴンコンストラクション,0
627,3120001233022,登記記録の閉鎖等,0,2024-07-12,2024-07-10,株式会社ＧＴＮリーシングサービス,,株式会社,大阪府,大阪市中央区,本町１丁目７番２号,,27,128,5410053,,,2024-07-10,合併による解散等,2013301022734,令和６年７月１日東京都豊島区東池袋一丁目２１番１１号株式会社グローバルトラストネットワークス（2013301022734）に合併し解散,2020-11-10,1,,,,,ジーティーエヌリーシングサービス,0
639,3122001029895,登記記録の閉鎖等,0,2024-07-12,2024-07-11,エビデンス株式会社,,株式会社,大阪府,東大阪市,西堤本通西１丁目３番３０号３Ｆ,,27,227,5770046,,,2024-07-11,清算の結了等,,,2016-08-30,1,,,,,エビデンス,0
661,3160001004064,登記記録の閉鎖等,0,2024-07-12,2024-07-08,株式会社研心庵,,株式会社,滋賀県,大津市,中央２丁目２番２２号ニューバラビル１０４号室,,25,201,5200043,,,2024-07-08,合併による解散等,3120001138964,令和６年７月１日京都市下京区烏丸通松原上ル因幡堂町６８２番地ハン六ホールディングス株式会社（3120001138964）に合併し解散,2015-10-05,1,,,,,ケンシンアン,0
676,3220001020229,登記記録の閉鎖等,0,2024-07-12,2024-07-04,株式会社丸喜建設,,株式会社,石川県,小松市,原町８７番地２,,17,203,9230075,,,2024-07-04,清算の結了等,,,2015-10-05,1,,,,,マルキケンセツ,0
679,3230001017785,登記記録の閉鎖等,0,2024-07-12,2024-07-08,株式会社ＨＩＮＡ,,株式会社,富山県,富山市,奥田寿町１５番８号,,16,201,9300852,,,2024-07-08,合併による解散等,6030001066965,令和６年６月１日埼玉県北葛飾郡松伏町築比地７９５番地１株式会社ウィーズ（6030001066965）に合併し解散,2019-03-06,1,,,,,ヒナ,0
682,3250001006274,登記記録の閉鎖等,0,2024-07-12,2024-07-08,船越製菓株式会社,,株式会社,山口県,下関市,赤間町７番２３号,,35,201,7500007,,,2024-07-08,清算の結了等,,,2015-10-05,1,,,,,フナコシセイカ,0
685,3260001002685,登記記録の閉鎖等,0,2024-07-12,2024-07-03,山陽図書出版株式会社,,株式会社,岡山県,岡山市中区,藤原４７番地,,33,102,7038245,,,2024-07-03,清算の結了等,,,2015-10-05,1,,,,,サンヨウトショシュッパン,0
711,3360002020156,登記記録の閉鎖等,0,2024-07-12,2024-07-04,有限会社ボーノ,,有限会社,沖縄県,浦添市,伊祖２丁目２８番５－４０２号　コーポ浦城,,47,208,9012132,,,2024-07-04,清算の結了等,,,2015-10-05,1,,,,,ボーノ,0
720,3420002011181,登記記録の閉鎖等,0,2024-07-12,2024-07-03,有限会社西北開発,,有限会社,青森県,五所川原市,みどり町７丁目７０番地,,02,205,0370024,,,2024-07-03,清算の結了等,,,2015-10-05,1,,,,,セイホクカイハツ,0
722,3430001064808,登記記録の閉鎖等,0,2024-07-12,2024-07-08,株式会社ファースト・スキー,,株式会社,北海道,虻田郡倶知安町,南八条東１丁目１番地６,,01,400,0440022,,,2024-07-08,清算の結了等,,,2015-10-05,1,,,,,ファーストスキー,0
748,4010102006106,登記記録の閉鎖等,0,2024-07-12,2024-07-11,有限会社フルスカイ,,有限会社,東京都,八王子市,川町３９番地,,13,201,1930821,,,2024-07-11,清算の結了等,,,2015-10-05,1,,,,,,0
762,4010501014568,登記記録の閉鎖等,0,2024-07-12,2024-07-08,目良昇鉄工株式会社,,株式会社,埼玉県,川口市,本町３丁目１０番１５号,,11,203,3320012,,,2024-07-08,清算の結了等,,,2015-10-05,1,,,,,メラノボルテッコウ,0
767,4010701015556,登記記録の閉鎖等,0,2024-07-12,2024-07-02,株式会社アライドテレシス総合研究所,,株式会社,東京都,品川区,西五反田７丁目２１番１１号,,13,109,1410031,,,2024-07-02,合併による解散等,5010701015555,令和６年７月１日東京都品川区西五反田七丁目２１番１１号アライドテレシス株式会社（5010701015555）に合併し解散,2015-10-05,1,,,,,アライドテレシスソウゴウケンキュウジョ,0
769,4010701028871,登記記録の閉鎖等,0,2024-07-12,2024-07-02,株式会社コレガ,,株式会社,東京都,品川区,西五反田７丁目２１番１１号,,13,109,1410031,,,2024-07-02,合併による解散等,5010701015555,令和６年７月１日東京都品川区西五反田七丁目２１番１１号アライドテレシス株式会社（5010701015555）に合併し解散,2015-10-05,1,,,,,コレガ,0
771,4010701040447,登記記録の閉鎖等,0,2024-07-12,2024-07-08,ヒノキアセット株式会社,,株式会社,東京都,品川区,東五反田５丁目２－１３,,13,109,1410022,,,2024-07-08,清算の結了等,,,2021-02-03,1,,,,,ヒノキアセット,0
785,4011401021588,登記記録の閉鎖等,0,2024-07-12,2024-07-04,株式会社向こう三軒両隣,,株式会社,東京都,板橋区,板橋３丁目３５番１１号ディアグレース２階Ａ号,,13,119,1730004,,,2024-07-04,清算の結了等,,,2019-01-18,1,,,,,ムコウサンゲンリョウドナリ,0
794,4011702000596,登記記録の閉鎖等,0,2024-07-12,2024-07-04,有限会社アピナス,,有限会社,東京都,江戸川区,北小岩２丁目２４番１４号,,13,123,1330051,,,2024-07-04,清算の結了等,,,2015-10-05,1,,,,,,0
799,4012403001561,登記記録の閉鎖等,0,2024-07-12,2024-07-08,株式会社エンタップ,,株式会社,兵庫県,神戸市中央区,磯上通４丁目１番１４号,,28,110,6510086,,,2024-07-08,清算の結了等,,,2015-10-05,1,,,,,,0
813,4021001065695,登記記録の閉鎖等,0,2024-07-12,2024-07-10,株式会社グランテック,,株式会社,神奈川県,相模原市中央区,横山２丁目１２番１５号,,14,152,2520242,,,2024-07-10,清算の結了等,,,2018-09-25,1,,,,,グランテック,0
814,4021002014577,登記記録の閉鎖等,0,2024-07-12,2024-07-10,有限会社工房ガラ,,有限会社,神奈川県,鎌倉市,稲村ガ崎５丁目２８番８号,,14,204,2480024,,,2024-07-10,清算の結了等,,,2015-10-05,1,,,,,コウボウガラ,0
827,4030002003424,登記記録の閉鎖等,0,2024-07-12,2024-07-09,有限会社嘉兵衛商事,,有限会社,埼玉県,さいたま市南区,内谷７丁目２０番７号,,11,108,3360034,,,2024-07-09,清算の結了等,,,2015-10-05,1,,,,,カヘエショウジ,0
831,4030002032860,登記記録の閉鎖等,0,2024-07-12,2024-07-05,有限会社フューチャーワークス,,有限会社,埼玉県,所沢市,小手指台４番地１７モアステージ西所沢５０２号,,11,208,3591148,,,2024-07-05,清算の結了等,,,2015-10-05,1,,,,,フューチャーワークス,0
836,4050001040573,登記記録の閉鎖等,0,2024-07-12,2024-07-05,株式会社Ｈ＆Ｃアローズ,,株式会社,茨城県,ひたちなか市,大字田彦１４３５番地１３,,08,221,3120063,,,2024-07-05,清算の結了等,,,2016-03-14,1,,,,,エッチアンドシーアローズ,0
838,4060002014971,登記記録の閉鎖等,0,2024-07-12,2024-07-01,有限会社サイトー総合保険,,有限会社,栃木県,日光市,木和田島１５７１番地３２８,,09,206,3212345,,,2024-07-01,清算の結了等,,,2015-10-05,1,,,,,サイトーソウゴウホケン,0
842,4070001014253,登記記録の閉鎖等,0,2024-07-12,2024-07-08,筑井木工株式会社,,株式会社,群馬県,佐波郡玉村町,大字上福島４４３番地１,,10,464,3701104,,,2024-07-08,清算の結了等,,,2015-10-05,1,,,,,ツクイモッコウ,0
848,4080002013781,登記記録の閉鎖等,0,2024-07-12,2024-07-01,有限会社テクノグリーン,,有限会社,静岡県,島田市,向谷４丁目９５１番地の８,,22,209,4270039,,,2024-07-01,清算の結了等,,,2015-10-05,1,,,,,テクノグリーン,0
852,4100001023622,登記記録の閉鎖等,0,2024-07-12,2024-07-04,株式会社ブロードアシスト,,株式会社,長野県,下伊那郡阿南町,富草４３６２番地の３,,20,404,3991505,,,2024-07-04,清算の結了等,,,2015-10-05,1,,,,,ブロードアシスト,0
862,4120001197695,登記記録の閉鎖等,0,2024-07-12,2024-07-04,株式会社ヒューマンボンド,,株式会社,大阪府,大阪市阿倍野区,阿倍野筋３丁目１０番１号あべのベルタＢ１,,27,119,5450052,,,2024-07-04,清算の結了等,,,2016-04-21,1,,,,,ヒューマンボンド,0
869,4120002023000,登記記録の閉鎖等,0,2024-07-12,2024-07-04,有限会社ブランクール,,有限会社,大阪府,大阪市阿倍野区,阿倍野元町５番７号,,27,119,5450034,,,2024-07-04,清算の結了等,,,2015-10-05,1,,,,,ブランクール,0
886,4150001016968,登記記録の閉鎖等,0,2024-07-12,2024-07-11,東栄企画株式会社,,株式会社,奈良県,北葛城郡上牧町,大字上牧２２０９－１,,29,424,6390214,,,2024-07-11,清算の結了等,,,2015-10-05,1,,,,,,0
887,4160001004063,登記記録の閉鎖等,0,2024-07-12,2024-07-08,ハン六三財・ＤＡＮ付担土地建物管理代行株式会社,,株式会社,滋賀県,大津市,浜大津１丁目１番１３号ハン六内,,25,201,5200047,,,2024-07-08,合併による解散等,3120001138964,令和６年７月１日京都市下京区烏丸通松原上ル因幡堂町６８２番地ハン六ホールディングス株式会社（3120001138964）に合併し解散,2015-10-05,1,,,,,ハンロクサンザイダンフタントチタテモノカンリダイコウ,0
890,4170003001603,登記記録の閉鎖等,0,2024-07-12,2024-07-10,ＴＥＣＨ　ＭＯＢＩＬ合同会社,,合同会社,和歌山県,田辺市,中万呂３４番地の３・３０５,,30,206,6460003,,,2024-07-10,清算の結了等,,,2021-07-26,1,,,,,テックモービル,0
904,4180301012061,登記記録の閉鎖等,0,2024-07-12,2024-07-01,株式会社明和商事,,株式会社,愛知県,豊橋市,八町通５丁目７番地,,23,201,4400806,,,2024-07-01,合併による解散等,7180301005698,令和６年７月１日愛知県豊橋市八町通五丁目７番地ササキ株式会社（7180301005698）に合併し解散,2015-10-05,1,,,,,メイワショウジ,0
905,4180301013035,登記記録の閉鎖等,0,2024-07-12,2024-07-01,太平商事株式会社,00074571,株式会社,愛知県,安城市,里町東大道８番地,,23,212,4460001,,,2024-07-01,合併による解散等,4180301016814,令和６年７月１日愛知県安城市里町三郎１１番地株式会社ＨＧＣ（4180301016814）に合併し解散,2015-10-05,1,,,,,タイヘイショウジ,0
913,4210001003068,登記記録の閉鎖等,0,2024-07-12,2024-07-08,福井タイプ印刷株式会社,,株式会社,福井県,福井市,二の宮１丁目６番１９号,,18,201,9100015,,,2024-07-08,清算の結了等,,,2015-10-05,1,,,,,フクイタイプインサツ,0
916,4210003001334,登記記録の閉鎖等,0,2024-07-12,2024-07-04,株式会社ＢＥＸＴ,,株式会社,大阪府,大阪市北区,万歳町３番３９－１２０６号,,27,127,5300028,,,2024-07-04,清算の結了等,,,2021-04-07,1,,,,,ベクスト,0
917,4220003001127,登記記録の閉鎖等,0,2024-07-12,2024-07-03,合名会社丸二商会,,合名会社,石川県,七尾市,府中町２４０番地の２,,17,202,9260041,,,2024-07-03,清算の結了等,,,2015-10-05,1,,,,,マルニショウカイ,0
923,4250002005217,登記記録の閉鎖等,0,2024-07-12,2024-07-01,有限会社寺尾工務店,,有限会社,山口県,宇部市,浜町２丁目３番６９号,,35,202,7550065,,,2024-07-01,合併による解散等,2250002005482,令和６年７月１日山口県宇部市西梶返三丁目１２番１３－５号株式会社原田建設（2250002005482）に合併し解散,2015-10-05,1,,,,,テラオコウムテン,0
925,4260002022756,登記記録の閉鎖等,0,2024-07-12,2024-06-26,有限会社アゾテック,,有限会社,岡山県,倉敷市,中畝７丁目６番８号,,33,202,7128051,,,2024-06-26,清算の結了等,,,2015-10-05,1,,,,,アゾテック,0
932,4290002010444,登記記録の閉鎖等,0,2024-07-12,2024-07-08,有限会社杏林調剤薬局,,有限会社,福岡県,福岡市早良区,次郎丸２丁目１０番４４号,,40,137,8140165,,,2024-07-08,合併による解散等,4300001005170,令和６年７月１日佐賀県藤津郡太良町大字多良１５６０番地１株式会社アルナ薬局（4300001005170）に合併し解散,2015-10-05,1,,,,,キョウリンチョウザイヤッキョク,0
946,4320001009376,登記記録の閉鎖等,0,2024-07-12,2024-07-01,株式会社まちづくり佐伯,,株式会社,大分県,佐伯市,向島１丁目１０番１号,,44,205,8760844,,,2024-07-01,清算の結了等,,,2015-10-05,1,,,,,マチヅクリサイキ,0
959,4360002022630,登記記録の閉鎖等,0,2024-07-12,2024-07-08,有限会社北ファーム,,有限会社,沖縄県,宮古島市,上野字野原１１９０番地の２１７,,47,214,9060201,,,2024-07-08,清算の結了等,,,2015-10-05,1,,,,,キタファーム,0
973,4370801000208,登記記録の閉鎖等,0,2024-07-12,2024-06-27,なとり住生活株式会社,,株式会社,宮城県,名取市,愛島笠島字西上平４２番地,,04,207,9811238,,,2024-06-27,清算の結了等,,,2015-10-05,1,,,,,ナトリジュウセイカツ,0
984,4430002049658,登記記録の閉鎖等,0,2024-07-12,2024-07-04,有限会社花扇,,有限会社,北海道,岩見沢市,美園五条３丁目１番１９号,,01,210,0680815,,,2024-07-04,清算の結了等,,,2015-10-05,1,,,,,,0
1000,5010003018364,登記記録の閉鎖等,0,2024-07-12,2024-07-01,合同会社セントラル大阪インベストメント,,合同会社,東京都,中央区,新川１丁目１７番１８号,,13,102,1040033,,,2024-07-01,清算の結了等,,,2015-10-05,1,,,,,セントラルオオサカインベストメント,0
1001,5010003019379,登記記録の閉鎖等,0,2024-07-12,2024-07-01,合同会社竜王町インベストメント,,合同会社,東京都,中央区,新川１丁目１７番１８号,,13,102,1040033,,,2024-07-01,清算の結了等,,,2015-10-05,1,,,,,リュウオウチョウインベストメント,0
1015,5010403023550,登記記録の閉鎖等,0,2024-07-12,2024-06-28,合同会社ＨｉＪｏＪｏ　Ｆｕｎｄ５,,合同会社,東京都,港区,西新橋１丁目７番２号,,13,103,1050003,,,2024-06-28,清算の結了等,,,2020-08-26,1,,,,,ヒジョージョーファンドゴ,0
1018,5010405015777,登記記録の閉鎖等,0,2024-07-12,2024-06-27,Ｗｉｎｄｓｏｒ特定目的会社,,その他の設立登記法人,東京都,港区,虎ノ門５丁目１番４号,,13,103,1050001,,,2024-06-27,清算の結了等,,,2017-05-24,1,,,,,ウィンザー,0
1021,5010601058893,登記記録の閉鎖等,0,2024-07-12,2024-07-08,新維思創株式会社,,株式会社,東京都,墨田区,立花５丁目５０番２８－５２９号ソライエ・プレミアムテラス,,13,107,1310043,,,2024-07-08,清算の結了等,,,2021-03-05,1,,,,,シンイシソウ,0
1025,5010701014375,登記記録の閉鎖等,0,2024-07-12,2024-07-11,株式会社インタラクティブ・マネジメント・サポート,,株式会社,東京都,八王子市,元八王子町２丁目３３０１番地の２,,13,201,1930826,,,2024-07-11,清算の結了等,,,2015-10-05,1,,,,,インタラクティブマネジメントサポート,0
1028,5010803001429,登記記録の閉鎖等,0,2024-07-12,2024-07-08,ＡＮＳ合同会社,,合同会社,東京都,大田区,南蒲田３丁目１５番１０号,,13,111,1440035,,,2024-07-08,清算の結了等,,,2015-10-05,1,,,,,エーエヌエス,0
1043,5011601019241,登記記録の閉鎖等,0,2024-07-12,2024-07-08,株式会社Ｋ－ｎｅｘｔ,,株式会社,東京都,練馬区,春日町５丁目２１番３３号,,13,120,1790074,,,2024-07-08,清算の結了等,,,2015-10-05,1,,,,,ケーネクスト,0
1045,5011602023226,登記記録の閉鎖等,0,2024-07-12,2024-07-08,有限会社アトラクティブ,,有限会社,東京都,練馬区,旭丘１丁目４６番１３号,,13,120,1760005,,,2024-07-08,清算の結了等,,,2015-10-05,1,,,,,,0
1080,5030002057106,登記記録の閉鎖等,0,2024-07-12,2024-07-05,有限会社ダイレック,,有限会社,埼玉県,桶川市,大字上日出谷９２３番地の２９,,11,231,3630026,,,2024-07-05,清算の結了等,,,2015-10-05,1,,,,,ダイレック,0
1086,5040002094924,登記記録の閉鎖等,0,2024-07-12,2024-07-09,有限会社オルシス,,有限会社,千葉県,我孫子市,本町２丁目４番３号弥生ビル４階,,12,222,2701151,,,2024-07-09,合併による解散等,8010402034265,令和６年７月１日東京都千代田区麹町三丁目１番７号東京ビル株式会社たまきち（8010402034265）に合併し解散,2015-10-05,1,,,,,オルシス,0
1098,5080402016391,登記記録の閉鎖等,0,2024-07-12,2024-07-11,有限会社竹内ポンプ,,有限会社,静岡県,浜松市天竜区,山東４２７０番地の１,,22,140,4313303,,,2024-07-11,清算の結了等,,,2015-10-05,1,,,,,,0
1100,5110001003845,登記記録の閉鎖等,0,2024-07-12,2024-07-02,株式会社新潟スカイツーリスト,,株式会社,新潟県,新潟市中央区,堀之内南２丁目１９番１４号,,15,103,9500982,,,2024-07-02,清算の結了等,,,2015-10-05,1,,,,,ニイガタスカイツーリスト,0
1111,5120002042718,登記記録の閉鎖等,0,2024-07-12,2024-07-04,有限会社エムケイ企画,,有限会社,大阪府,大阪市住吉区,苅田２丁目６番１号,,27,120,5580011,,,2024-07-04,清算の結了等,,,2015-10-05,1,,,,,,0
1127,5122002005670,登記記録の閉鎖等,0,2024-07-12,2024-07-11,有限会社日伸工作所,,有限会社,大阪府,東大阪市,新喜多１丁目８番２９号,,27,227,5770052,,,2024-07-11,清算の結了等,,,2015-10-05,1,,,,,ニッシンコウサクショ,0
1128,5122002011999,登記記録の閉鎖等,0,2024-07-12,2024-07-05,豊基興産有限会社,,有限会社,大阪府,大東市,平野屋新町２番１４号,,27,218,5740021,,,2024-07-05,合併による解散等,3140002000964,令和６年７月１日神戸市東灘区本山町岡本字梅林１１５７番地アイティエス興業株式会社（3140002000964）に合併し解散,2015-10-05,1,,,,,,0
1130,5140001028996,登記記録の閉鎖等,0,2024-07-12,2024-07-08,株式会社希望新風,,株式会社,兵庫県,神戸市灘区,記田町５丁目６番１６号,,28,102,6570034,,,2024-07-08,清算の結了等,,,2015-10-05,1,,,,,,0
1143,5170002006321,登記記録の閉鎖等,0,2024-07-12,2024-07-04,ジョイフル銀鈴有限会社,,有限会社,和歌山県,海南市,幡川１８４番地,,30,202,6420028,,,2024-07-04,合併による解散等,2170001005673,令和６年７月１日和歌山県海南市幡川２００番地紀州グループ株式会社（2170001005673）に合併し解散,2015-10-05,1,,,,,ジョイフルギンレイ,0
1150,5180003025344,登記記録の閉鎖等,0,2024-07-12,2024-07-10,合同会社ホロムア,,合同会社,愛知県,名古屋市中村区,名駅４丁目２４番５号第２森ビル４０１,,23,105,4500002,,,2024-07-10,清算の結了等,,,2023-06-12,1,,,,,ホロムア,0
1152,5200002016110,登記記録の閉鎖等,0,2024-07-12,2024-07-08,有限会社清和カラー研究所,,有限会社,岐阜県,美濃加茂市,山之上町２６６０番地の３０,,21,211,5050003,,,2024-07-08,清算の結了等,,,2015-10-05,1,,,,,セイワカラーケンキュウショ,0
1163,5240002002692,登記記録の閉鎖等,0,2024-07-12,2024-07-05,有限会社王,,有限会社,広島県,広島市安佐南区,祇園４丁目５０番５号,,34,105,7310138,,,2024-07-05,清算の結了等,,,2015-10-05,1,,,,,,0
1164,5240002008491,登記記録の閉鎖等,0,2024-07-12,2024-07-08,有限会社砂入呉服店,,有限会社,広島県,広島市佐伯区,八幡３丁目１２番２４号,,34,108,7315116,,,2024-07-08,清算の結了等,,,2015-10-05,1,,,,,スナイリゴフクテン,0
1182,5330001001257,登記記録の閉鎖等,0,2024-07-12,2024-07-01,株式会社熊電総業,,株式会社,熊本県,熊本市東区,江津３丁目４番２３号,,43,102,8620942,,,2024-07-01,合併による解散等,4330001008179,令和６年７月１日熊本市中央区本荘六丁目１６番３４号株式会社竜之介（4330001008179）に合併し解散,2015-10-05,1,,,,,クマデンソウギョウ,0
1186,5340002002732,登記記録の閉鎖等,0,2024-07-12,2024-07-04,有限会社川畑靴店,,有限会社,鹿児島県,鹿児島市,中央町２１番地３０,,46,201,8900053,,,2024-07-04,清算の結了等,,,2015-10-05,1,,,,,カワバタクツテン,0
1187,5340002009653,登記記録の閉鎖等,0,2024-07-12,2024-07-04,有限会社明産商会,,有限会社,鹿児島県,鹿児島市,荒田２丁目３９番７号,,46,201,8900054,,,2024-07-04,清算の結了等,,,2015-10-05,1,,,,,メイサンショウカイ,0
1196,5370001000874,登記記録の閉鎖等,0,2024-07-12,2024-06-27,株式会社高工建設,00081374,株式会社,宮城県,仙台市泉区,山の寺１丁目４２番７号,,04,105,9813103,,,2024-06-27,清算の結了等,,,2015-10-05,1,,,,,タカコウケンセツ,0
1235,6010001212042,登記記録の閉鎖等,0,2024-07-12,2024-07-09,インターナショナルブランズ株式会社,,株式会社,東京都,港区,三田４丁目８番４１号,,13,103,1080073,,,2024-07-09,合併による解散等,4370001007078,令和６年７月１日仙台市青葉区上杉一丁目１７番３０号インターナショナルブランズ株式会社（4370001007078）に合併し解散,2020-09-11,1,,,,,インターナショナルブランズ,0
1238,6010001228699,登記記録の閉鎖等,0,2024-07-12,2024-07-01,株式会社Ｒａｉｎｂｏｗ　ＬｉｆｅＴｅｃｈ,,株式会社,東京都,中央区,築地５丁目４番１９号,,13,102,1040045,,,2024-07-01,清算の結了等,,,2022-08-15,1,,,,,レインボーライフテック,0
1260,6010901036945,登記記録の閉鎖等,0,2024-07-12,2024-07-08,株式会社バタフライエフェクト,,株式会社,東京都,世田谷区,下馬５丁目３５番５号,,13,112,1540002,,,2024-07-08,清算の結了等,,,2015-10-21,1,,,,,バタフライエフェクト,0
1261,6010901037340,登記記録の閉鎖等,0,2024-07-12,2024-07-05,楽天ゲームズ株式会社,,株式会社,東京都,世田谷区,玉川１丁目１４番１号,,13,112,1580094,,,2024-07-05,清算の結了等,,,2016-01-08,1,,,,,ラクテンゲームズ,0
1281,6011801010296,登記記録の閉鎖等,0,2024-07-12,2024-07-08,東興産業株式会社,,株式会社,埼玉県,八潮市,八潮８丁目１７番３号,,11,234,3400815,,,2024-07-08,清算の結了等,,,2015-10-05,1,,,,,トウコウサンギョウ,0
1296,6020002047593,登記記録の閉鎖等,0,2024-07-12,2024-06-27,レオン商事有限会社,,有限会社,神奈川県,横浜市戸塚区,舞岡町１５４２番地３,,14,110,2440813,,,2024-06-27,清算の結了等,,,2015-10-05,1,,,,,レオンショウジ,0
1298,6021001016845,登記記録の閉鎖等,0,2024-07-12,2024-07-10,ＳＳＣ株式会社,,株式会社,神奈川県,座間市,相模が丘２丁目２９番２号５０４,,14,216,2520001,,,2024-07-10,清算の結了等,,,2015-10-05,1,,,,,エスエスシイ,0
1308,6030002041281,登記記録の閉鎖等,0,2024-07-12,2024-07-08,有限会社ツバサ,,有限会社,埼玉県,加須市,南篠崎２丁目１９番地１,,11,210,3470017,,,2024-07-08,清算の結了等,,,2015-10-05,1,,,,,ツバサ,0
1319,6040002093966,登記記録の閉鎖等,0,2024-07-12,2024-07-01,有限会社松山,,有限会社,千葉県,我孫子市,南新木４丁目１１番地の２３,,12,222,2701119,,,2024-07-01,清算の結了等,,,2015-10-05,1,,,,,,0
1323,6050001034425,登記記録の閉鎖等,0,2024-07-12,2024-07-05,共栄産業株式会社,,株式会社,茨城県,神栖市,大野原中央４丁目６番４０号,,08,232,3140128,,,2024-07-05,清算の結了等,,,2015-10-05,1,,,,,キョウエイサンギョウ,0
1325,6050002014327,登記記録の閉鎖等,0,2024-07-12,2024-07-05,有限会社豊水エンジニアリング,,有限会社,茨城県,かすみがうら市,稲吉東４丁目２番２２号,,08,230,3150053,,,2024-07-05,清算の結了等,,,2015-10-05,1,,,,,ホウスイエンジニアリング,0
1335,6060002030810,登記記録の閉鎖等,0,2024-07-12,2024-07-01,有限会社江田化工,,有限会社,栃木県,下野市,小金井３００４番地３,,09,216,3290414,,,2024-07-01,清算の結了等,,,2015-10-05,1,,,,,エダカコウ,0
1340,6080002001198,登記記録の閉鎖等,0,2024-07-12,2024-07-01,有限会社ＴＡＰ,,有限会社,静岡県,静岡市葵区,岳美２０番３０号,,22,101,4200934,,,2024-07-01,清算の結了等,,,2015-10-05,1,,,,,,0
1347,6100002017150,登記記録の閉鎖等,0,2024-07-12,2024-07-04,有限会社篠井商店,,有限会社,長野県,飯山市,大字飯山９７７番地,,20,213,3892253,,,2024-07-04,合併による解散等,9030001003544,令和６年７月１日埼玉県さいたま市大宮区桜木町一丁目１１番地５株式会社サイサン（9030001003544）に合併し解散,2015-10-05,1,,,,,シノイショウテン,0
1353,6120001200226,登記記録の閉鎖等,0,2024-07-12,2024-07-09,誠源国際貿易株式会社,,株式会社,大阪府,泉南郡熊取町,紺屋２丁目１６番４号,,27,361,5900412,,,2024-07-09,清算の結了等,,,2016-08-18,1,,,,,セイゲンコクサイボウエキ,0
1365,6120101023931,登記記録の閉鎖等,0,2024-07-12,2024-07-05,株式会社健剛,,株式会社,大阪府,堺市堺区,山本町２丁５５番地８,,27,141,5900983,,,2024-07-05,清算の結了等,,,2015-10-05,1,,,,,ケンゴウ,0
1374,6122001012915,登記記録の閉鎖等,0,2024-07-12,2024-07-11,株式会社エム・ケイ・シー,,株式会社,大阪府,東大阪市,東鴻池町１丁目４番４０号,,27,227,5780973,,,2024-07-11,清算の結了等,,,2015-10-05,1,,,,,エムケイシー,0
1385,6140001032072,登記記録の閉鎖等,0,2024-07-12,2024-07-08,株式会社エタニティファーマ,,株式会社,兵庫県,神戸市北区,筑紫が丘７丁目４番地の１,,28,109,6511212,,,2024-07-08,清算の結了等,,,2015-10-05,1,,,,,エタニティファーマ,0
1398,6150002002420,登記記録の閉鎖等,0,2024-07-12,2024-07-10,有限会社まゆ,,有限会社,奈良県,奈良市,大宮町６丁目９番１号,,29,201,6308115,,,2024-07-10,清算の結了等,,,2015-10-05,1,,,,,,0
1399,6160001017708,登記記録の閉鎖等,0,2024-07-12,2024-07-08,株式会社護京繁緑四代目社,,株式会社,滋賀県,大津市,穴太３丁目３番１９号六庵内,,25,201,5200114,,,2024-07-08,合併による解散等,3120001138964,令和６年７月１日京都市下京区烏丸通松原上ル因幡堂町６８２番地ハン六ホールディングス株式会社（3120001138964）に合併し解散,2015-10-05,1,,,,,ゴキョウハンロクヨンダイメシャ,0
1418,6220002009078,登記記録の閉鎖等,0,2024-07-12,2024-07-08,有限会社クボタ食産,,有限会社,石川県,白山市,安吉町６８番地,,17,210,9240843,,,2024-07-08,清算の結了等,,,2015-10-05,1,,,,,クボタショクサン,0
1448,6330002011270,登記記録の閉鎖等,0,2024-07-12,2024-07-02,有限会社よつぎマンシヨン,,有限会社,熊本県,熊本市東区,八反田２丁目１４番２８号,,43,102,8618034,,,2024-07-02,清算の結了等,,,2015-10-05,1,,,,,ヨツギマンション,0
1453,6370002016803,登記記録の閉鎖等,0,2024-07-12,2024-06-27,有限会社ＳＫＪ,,有限会社,宮城県,仙台市泉区,紫山１丁目９番地の１,,04,105,9813205,,,2024-06-27,清算の結了等,,,2015-10-05,1,,,,,エスケージェイ,0
1461,6402702000702,登記記録の閉鎖等,0,2024-07-12,2024-06-25,有限会社沢,,有限会社,岩手県,大船渡市,三陸町綾里字大明神７８番地１,,03,203,0220211,,,2024-06-25,清算の結了等,,,2015-10-05,1,,,,,サワ,0
1482,7010001149119,登記記録の閉鎖等,0,2024-07-12,2024-07-01,ジョーンズラングラサールコンストラクションズ株式会社,,株式会社,東京都,千代田区,紀尾井町１番３号,,13,101,1020094,,,2024-07-01,合併による解散等,7010001084935,令和６年７月１日東京都千代田区紀尾井町１番３号ジョーンズラングラサール株式会社（7010001084935）に合併し解散,2015-10-05,1,,,,,ジョーンズラングラサールコンストラクションズ,0
1504,7010402021999,登記記録の閉鎖等,0,2024-07-12,2024-06-25,有限会社北中工業,,有限会社,東京都,港区,南麻布４丁目２番４８号,,13,103,1060047,,,2024-06-25,清算の結了等,,,2015-10-05,1,,,,,,0
1511,7010603009661,登記記録の閉鎖等,0,2024-07-12,2024-07-09,ＲＩＴＺ　ＭＯＯＮ合同会社,,合同会社,東京都,江東区,門前仲町２丁目２－１５大竹ビル３０３,,13,108,1350048,,,2024-07-09,清算の結了等,,,2022-08-03,1,,,,,リッズムーン,0
1514,7010701026831,登記記録の閉鎖等,0,2024-07-12,2024-07-02,アライドテレシスキャピタルジャパン株式会社,,株式会社,東京都,品川区,西五反田７丁目２１番１１号,,13,109,1410031,,,2024-07-02,合併による解散等,5010701015555,令和６年７月１日東京都品川区西五反田七丁目２１番１１号アライドテレシス株式会社（5010701015555）に合併し解散,2015-10-05,1,,,,,アライドテレシスキャピタルジャパン,0
1518,7010802001717,登記記録の閉鎖等,0,2024-07-12,2024-07-04,有限会社上田コンタクトレンズ研究所,,有限会社,東京都,大田区,大森北４丁目１５番２２号,,13,111,1430016,,,2024-07-04,清算の結了等,,,2015-10-05,1,,,,,ウエダコンタクトレンズケンキュウショ,0
1519,7010802005627,登記記録の閉鎖等,0,2024-07-12,2024-07-04,有限会社小柳電機製作所,,有限会社,東京都,大田区,北馬込２丁目４９番６号,,13,111,1430021,,,2024-07-04,清算の結了等,,,2015-10-05,1,,,,,コヤナギデンキセイサクショ,0
1525,7011101056312,登記記録の閉鎖等,0,2024-07-12,2024-07-05,株式会社オーエス・オーエス,,株式会社,静岡県,熱海市,伊豆山２６２番地の２４、２２０２号,,22,205,4130002,,,2024-07-05,清算の結了等,,,2015-10-05,1,,,,,オーエスオーエス,0
1547,7013301011229,登記記録の閉鎖等,0,2024-07-12,2024-07-02,細沼興業株式会社,,株式会社,東京都,新宿区,西新宿２丁目４番１号,,13,104,1600023,,,2024-07-02,合併による解散等,1011101027327,令和６年７月１日東京都新宿区西新宿二丁目４番１号株式会社グローバル住販（1011101027327）に合併し解散,2015-10-05,1,,,,,ホソヌマコウギョウ,0
1549,7020001055448,登記記録の閉鎖等,0,2024-07-12,2024-06-28,株式会社パインフィールドジャパン,,株式会社,神奈川県,横浜市西区,みなとみらい４丁目７番１－３０１６号,,14,103,2200012,,,2024-06-28,清算の結了等,,,2015-10-05,1,,,,,パインフィールドジャパン,0
1561,7021002055354,登記記録の閉鎖等,0,2024-07-12,2024-07-09,有限会社小田商事,,有限会社,神奈川県,足柄上郡大井町,金子５５０番地の１,,14,362,2580019,,,2024-07-09,清算の結了等,,,2015-10-05,1,,,,,,0
1572,7030002041280,登記記録の閉鎖等,0,2024-07-12,2024-07-09,有限会社辻九,,有限会社,埼玉県,加須市,志多見１８０６番地の１,,11,210,3470042,,,2024-07-09,清算の結了等,,,2015-10-05,1,,,,,ツジキュウ,0
1573,7030002107726,登記記録の閉鎖等,0,2024-07-12,2024-07-08,有限会社望月製作所,,有限会社,埼玉県,川口市,元郷１丁目４番２７号,,11,203,3320011,,,2024-07-08,清算の結了等,,,2015-10-05,1,,,,,モチヅキセイサクジョ,0
1577,7040001099360,登記記録の閉鎖等,0,2024-07-12,2024-07-05,株式会社Ｓ・Ｋ・Ｙ,,株式会社,東京都,江戸川区,西瑞江４丁目２１番７号,,13,123,1340015,,,2024-07-05,清算の結了等,,,2017-03-22,1,,,,,エスケーワイ,0
1596,7110001009403,登記記録の閉鎖等,0,2024-07-12,2024-07-02,クロスインシステム株式会社,,株式会社,新潟県,新潟市東区,下山２丁目１３１９番地４,,15,102,9500003,,,2024-07-02,清算の結了等,,,2015-10-05,1,,,,,クロスインシステム,0
1599,7120001001037,登記記録の閉鎖等,0,2024-07-12,2024-07-10,株式会社ファミリーミュージッククリエーション,,株式会社,大阪府,大阪市旭区,太子橋３丁目２番３－３０３号,,27,117,5350001,,,2024-07-10,清算の結了等,,,2015-10-05,1,,,,,ファミリーミュージッククリエーション,0
1601,7120001054704,登記記録の閉鎖等,0,2024-07-12,2024-07-01,株式会社岸本工務店,,株式会社,大阪府,大阪市淀川区,東三国５丁目２番２０号,,27,123,5320002,,,2024-07-01,合併による解散等,4120001051514,令和６年７月１日大阪市東淀川区西淡路一丁目１３番３号株式会社岸本不動産建設（4120001051514）に合併し解散,2015-10-05,1,,,,,キシモトコウムテン,0
1607,7120001242804,登記記録の閉鎖等,0,2024-07-12,2024-07-05,株式会社ＷＥＭＡＩＳＯＮ,,株式会社,大阪府,大阪市浪速区,難波中２丁目３番６号,,27,111,5560011,,,2024-07-05,清算の結了等,,,2022-01-04,1,,,,,ウィーメゾン,0
1636,7140002017229,登記記録の閉鎖等,0,2024-07-12,2024-07-08,有限会社ディムサム,,有限会社,兵庫県,芦屋市,朝日ケ丘町７番１２号－３０１号室,,28,206,6590012,,,2024-07-08,清算の結了等,,,2015-10-05,1,,,,,ディムサム,0
1646,7180001155678,登記記録の閉鎖等,0,2024-07-12,2024-06-28,Ｏｆｆｉｃｅ　Ｉ’ｓ株式会社,,株式会社,愛知県,名古屋市中区,新栄２丁目１番２５号ＮＲ新栄８０２号,,23,106,4600007,,,2024-06-28,清算の結了等,,,2023-04-07,1,,,,,オフィスアイズ,0
1655,7180301001103,登記記録の閉鎖等,0,2024-07-12,2024-07-03,城北運輸株式会社,,株式会社,愛知県,岡崎市,大樹寺１丁目１番地２６,,23,202,4442134,,,2024-07-03,清算の結了等,,,2015-10-05,1,,,,,ジョウホクウンユ,0
1660,7200002017800,登記記録の閉鎖等,0,2024-07-12,2024-07-08,有限会社吉田繊維,,有限会社,岐阜県,加茂郡八百津町,八百津８２９６番地３,,21,505,5050301,,,2024-07-08,清算の結了等,,,2015-10-05,1,,,,,ヨシダセンイ,0
1683,7290802006639,登記記録の閉鎖等,0,2024-07-12,2024-07-09,山口建設有限会社,,有限会社,福岡県,北九州市小倉南区,大字道原３５３番地,,40,107,8030266,,,2024-07-09,清算の結了等,,,2015-10-05,1,,,,,ヤマグチケンセツ,0
1684,7300001004698,登記記録の閉鎖等,0,2024-07-12,2024-07-01,株式会社相川水飴製造所,,株式会社,佐賀県,嬉野市,嬉野町大字下宿甲３２４４番地２,,41,209,8430301,,,2024-07-01,合併による解散等,7300001007040,令和６年７月１日佐賀県嬉野市嬉野町大字下宿甲３２４４番地２株式会社相川（7300001007040）に合併し解散,2015-10-05,1,,,,,アイカワミズアメセイゾウショ,0
1697,7370001031653,登記記録の閉鎖等,0,2024-07-12,2024-06-27,株式会社きくち建築工房,,株式会社,宮城県,亘理郡亘理町,逢隈田沢字早川６８番地,00103229,04,361,9892383,,,2024-06-27,清算の結了等,,,2015-10-05,1,,,,,,0
1710,7430001056025,登記記録の閉鎖等,0,2024-07-12,2024-07-08,北海道フライトサービス株式会社,,株式会社,北海道,札幌市中央区,南十七条西１３丁目１番３５－４０１号,,01,101,0640917,,,2024-07-08,清算の結了等,,,2015-10-05,1,,,,,ホッカイドウフライトサービス,0
1711,7430001077005,登記記録の閉鎖等,0,2024-07-12,2024-07-10,ホワイトファーム株式会社,,株式会社,北海道,札幌市北区,屯田九条１１丁目１３番１１号,,01,102,0020859,,,2024-07-10,清算の結了等,,,2018-07-13,1,,,,,ホワイトファーム,0
1713,7430002036769,登記記録の閉鎖等,0,2024-07-12,2024-07-05,有限会社ウィスカーズ,,有限会社,北海道,札幌市中央区,南一条西２６丁目１番１号,,01,101,0640801,,,2024-07-05,清算の結了等,,,2015-10-05,1,,,,,ウィスカーズ,0
1738,8010403027747,登記記録の閉鎖等,0,2024-07-12,2024-06-28,合同会社ＨｉＪｏＪｏ　Ｆｕｎｄ２５,,合同会社,東京都,港区,西新橋１丁目７番２号,,13,103,1050003,,,2024-06-28,清算の結了等,,,2022-05-26,1,,,,,ヒジョージョーファンドニジュウゴ,0
1745,8010601020909,登記記録の閉鎖等,0,2024-07-12,2024-07-08,浅間産業株式会社,,株式会社,東京都,墨田区,錦糸３丁目５番１１号,,13,107,1300013,,,2024-07-08,清算の結了等,,,2015-10-05,1,,,,,,0
1748,8010801011633,登記記録の閉鎖等,0,2024-07-12,2024-07-03,株式会社ミユキ自動車,,株式会社,東京都,大田区,北糀谷１丁目４番１０号,,13,111,1440032,,,2024-07-03,清算の結了等,,,2015-10-05,1,,,,,ミユキジドウシャ,0
1752,8010905001679,登記記録の閉鎖等,0,2024-07-12,2024-07-08,特定非営利活動法人クリカ,,その他の設立登記法人,東京都,世田谷区,玉川３丁目３番１４－５０４号二子玉川宝ロイアルハイツ,,13,112,1580094,,,2024-07-08,清算の結了等,,,2015-10-05,1,,,,,クリカ,0
1753,8011001046321,登記記録の閉鎖等,0,2024-07-12,2024-06-27,株式会社キャリアン,,株式会社,東京都,渋谷区,千駄ヶ谷１丁目６番１１,,13,113,1510051,,,2024-06-27,清算の結了等,,,2015-10-05,1,,,,,キャリアン,0
1782,8011801014254,登記記録の閉鎖等,0,2024-07-12,2024-06-27,茜商事株式会社,,株式会社,東京都,渋谷区,本町２丁目５番１号,,13,113,1510071,,,2024-06-27,清算の結了等,,,2015-10-05,1,,,,,アカネショウジ,0
1790,8013301022654,登記記録の閉鎖等,0,2024-07-12,2024-07-04,株式会社ＫＴＤＥＳＩＧＮ,,株式会社,東京都,板橋区,前野町２丁目３２番６－１０５号,,13,119,1740063,,,2024-07-04,清算の結了等,,,2015-10-05,1,,,,,ケーティーデザイン,0
1797,8020002062475,登記記録の閉鎖等,0,2024-07-12,2024-06-27,有限会社樫建設,,有限会社,神奈川県,横浜市青葉区,市ケ尾町１１６１番地１４,,14,117,2250024,,,2024-06-27,清算の結了等,,,2015-10-05,1,,,,,カシケンセツ,0
1800,8021002027889,登記記録の閉鎖等,0,2024-07-12,2024-07-10,有限会社圭白,,有限会社,埼玉県,所沢市,北野南３丁目６番地の２４,,11,208,3591156,,,2024-07-10,合併による解散等,2100001009193,令和６年７月１日東京都墨田区東向島四丁目２５番２号株式会社Ａ－ｈｅａｄ（2100001009193）に合併し解散,2015-10-05,1,,,,,ケイハク,0
1802,8030001096416,登記記録の閉鎖等,0,2024-07-12,2024-07-08,株式会社光矢,,株式会社,埼玉県,加須市,上崎２６９１番地１,,11,210,3470125,,,2024-07-08,清算の結了等,,,2015-10-05,1,,,,,コウヤ,0
1804,8030001096977,登記記録の閉鎖等,0,2024-07-12,2024-07-08,株式会社居宅介護支援事業所ナガヤマ,,株式会社,埼玉県,北葛飾郡松伏町,田中３丁目１４番地３,,11,465,3430117,,,2024-07-08,清算の結了等,,,2015-10-05,1,,,,,シエンジギョウショナガヤマ,0
1813,8040001047434,登記記録の閉鎖等,0,2024-07-12,2024-07-01,三井陶業株式会社,,株式会社,千葉県,四街道市,大日１８６７番地１,,12,228,2840001,,,2024-07-01,清算の結了等,,,2015-10-05,1,,,,,,0
1852,8080405003104,登記記録の閉鎖等,0,2024-07-12,2024-07-05,医療法人社団長島内科医院,,その他の設立登記法人,静岡県,浜松市中央区,小池町２６５９番地の１,,22,138,4350056,,,2024-07-05,清算の結了等,,,2015-10-05,1,,,,,ナガシマナイカイイン,0
1854,8100002017000,登記記録の閉鎖等,0,2024-07-12,2024-07-03,有限会社石澤屋履物店,,有限会社,長野県,飯山市,大字飯山１１７３番地イ,,20,213,3892253,,,2024-07-03,清算の結了等,,,2015-10-05,1,,,,,イシザワヤハキモノテン,0
1858,8110002015242,登記記録の閉鎖等,0,2024-07-12,2024-07-02,有限会社高松毛糸店,,有限会社,新潟県,新発田市,中央町３丁目１番２号,,15,206,9570053,,,2024-07-02,清算の結了等,,,2015-10-05,1,,,,,タカマツケイトテン,0
1860,8120001034894,登記記録の閉鎖等,0,2024-07-12,2024-07-04,株式会社高繊,,株式会社,大阪府,大阪市福島区,吉野３丁目１６番３４号,,27,103,5530006,,,2024-07-04,清算の結了等,,,2015-10-05,1,,,,,,0
1866,8120001111207,登記記録の閉鎖等,0,2024-07-12,2024-07-11,株式会社Ｓｔａｇｅ２２創都研究所,,株式会社,大阪府,大阪市北区,末広町３番３号,,27,127,5300053,,,2024-07-11,清算の結了等,,,2015-10-05,1,,,,,ステージニジュウニソウトケンキュウショ,0
1869,8120001191067,登記記録の閉鎖等,0,2024-07-12,2024-07-11,株式会社サンエターナル,,株式会社,大阪府,大阪市北区,西天満３丁目６番２２号日宝北大阪屋ビル,,27,127,5300047,,,2024-07-11,清算の結了等,,,2015-10-05,1,,,,,サンエターナル,0
1874,8120003006339,登記記録の閉鎖等,0,2024-07-12,2024-07-04,マインド・デザイン・ワークス合同会社,,合同会社,滋賀県,大津市,北小松１７４８番地の９５,,25,201,5200501,,,2024-07-04,清算の結了等,,,2015-10-05,1,,,,,マインドデザインワークス,0
1876,8120101048373,登記記録の閉鎖等,0,2024-07-12,2024-07-05,株式会社ジーティーリンク,,株式会社,大阪府,和泉市,王子町１１２０番地の２３１,,27,219,5940004,,,2024-07-05,清算の結了等,,,2015-10-05,1,,,,,ジーティーリンク,0
1900,8180002080057,登記記録の閉鎖等,0,2024-07-12,2024-06-25,有限会社丸正工業,,有限会社,愛知県,一宮市,千秋町加納馬場字清水３９番地の１,,23,203,4910811,,,2024-06-25,清算の結了等,,,2015-10-05,1,,,,,マルショウコウギョウ,0
1902,8180305008416,登記記録の閉鎖等,0,2024-07-12,2024-07-02,一般社団法人まるしょう,,その他の設立登記法人,愛知県,西尾市,丁田町中ノ切４７番地,,23,213,4450062,,,2024-07-02,清算の結了等,,,2015-10-05,1,,,,,マルショウ,0
1919,8260002023718,登記記録の閉鎖等,0,2024-07-12,2024-07-01,山陽紙器有限会社,,有限会社,岡山県,総社市,金井戸２４２番地の１,,33,208,7191114,,,2024-07-01,清算の結了等,,,2015-10-05,1,,,,,サンヨウシキ,0
1936,8300001013112,登記記録の閉鎖等,0,2024-07-12,2024-07-08,株式会社ヨゾラ,,株式会社,佐賀県,杵島郡江北町,大字山口１３９９番地５ユメックスマンション江北８０３号,,41,424,8490501,,,2024-07-08,清算の結了等,,,2022-11-04,1,,,,,ヨゾラ,0
1938,8340001024361,登記記録の閉鎖等,0,2024-07-12,2024-07-03,株式会社ＬＰスイーツファーム,,株式会社,鹿児島県,薩摩川内市,中郷４丁目１７番地,,46,215,8950072,,,2024-07-03,合併による解散等,5340002017210,令和６年７月１日鹿児島県薩摩川内市中郷二丁目８番１号株式会社ルプレジール（5340002017210）に合併し解散,2022-01-12,1,,,,,エルピースイーツファーム,0
1940,8340002001145,登記記録の閉鎖等,0,2024-07-12,2024-07-05,有限会社アリミズ保険事務所,,有限会社,鹿児島県,鹿児島市,下伊敷１丁目３５番６号,,46,201,8900005,,,2024-07-05,清算の結了等,,,2015-10-05,1,,,,,アリミズホケンジムショ,0
1943,8360003010309,登記記録の閉鎖等,0,2024-07-12,2024-07-08,エステック青森合同会社,,合同会社,沖縄県,那覇市,松山２丁目１番１２号,,47,201,9000032,,,2024-07-08,清算の結了等,,,2020-05-26,1,,,,,エステックアオモリ,0
1972,8450001005937,登記記録の閉鎖等,0,2024-07-12,2024-07-08,Ｔ＆Ｆ株式会社,,株式会社,北海道,上川郡愛別町,字協和１１５２番地,,01,456,0781414,,,2024-07-08,清算の結了等,,,2015-10-05,1,,,,,ティアンドエフ,0
1979,8490002011393,登記記録の閉鎖等,0,2024-07-12,2024-07-05,有限会社宮地商会,,有限会社,高知県,香美市,土佐山田町岩積１４０番地,,39,212,7820017,,,2024-07-05,清算の結了等,,,2015-10-05,1,,,,,ミヤヂショウカイ,0
2008,9010401125337,登記記録の閉鎖等,0,2024-07-12,2024-07-02,株式会社グローバルサポート,,株式会社,東京都,港区,北青山２丁目１２番２８号青山ビル５Ｆ,,13,103,1070061,,,2024-07-02,合併による解散等,2011601017223,令和６年７月１日東京都港区北青山二丁目１２番２８号株式会社ビーボ（2011601017223）に合併し解散,2016-06-13,1,,,,,,0
2010,9010401141581,登記記録の閉鎖等,0,2024-07-12,2024-07-04,株式会社ａｌｉｆｅ,,株式会社,神奈川県,南足柄市,塚原４３６０－１６,,14,217,2500117,,,2024-07-04,清算の結了等,,,2018-10-18,1,,,,,エーライフ,0
2028,9010601041648,登記記録の閉鎖等,0,2024-07-12,2024-07-01,株式会社アドバンス,,株式会社,東京都,江東区,木場５丁目１１番１７号,,13,108,1350042,,,2024-07-01,合併による解散等,4010601022181,令和６年７月１日東京都江東区木場五丁目１１番１７号株式会社ルーセントスクエア（4010601022181）に合併し解散,2015-10-05,1,,,,,アドバンス,0
2042,9011101075946,登記記録の閉鎖等,0,2024-07-12,2024-07-10,株式会社Ｋ－ＶＡＬＵＥ,,株式会社,埼玉県,所沢市,三ケ島１丁目６７番地,,11,208,3591164,,,2024-07-10,合併による解散等,2100001009193,令和６年７月１日東京都墨田区東向島四丁目２５番２号株式会社Ａ－ｈｅａｄ（2100001009193）に合併し解散,2016-02-08,1,,,,,,0
2045,9011103013680,登記記録の閉鎖等,0,2024-07-12,2024-06-25,ＭＴＫ合同会社,,合同会社,東京都,新宿区,四谷２丁目９番地１５東京ユナイテッド綜合事務所内,,13,104,1600004,,,2024-06-25,合併による解散等,5011103010863,令和６年６月２５日東京都新宿区四谷二丁目９番地１５東京ユナイテッド綜合事務所内Ｍ１合同会社（5011103010863）に合併し解散,2023-11-06,1,,,,,エムティーケー,0
2046,9011201001447,登記記録の閉鎖等,0,2024-07-12,2024-07-10,窪寺工業株式会社,,株式会社,東京都,中野区,新井１丁目５番４号,,13,114,1650026,,,2024-07-10,清算の結了等,,,2015-10-05,1,,,,,クボデラコウギョウ,0
2062,9013302007281,登記記録の閉鎖等,0,2024-07-12,2024-07-08,有限会社ドラッグハタ,,有限会社,東京都,豊島区,要町３丁目１１番３号,,13,116,1710043,,,2024-07-08,合併による解散等,6030001066965,令和６年６月１日埼玉県北葛飾郡松伏町築比地７９５番地１株式会社ウィーズ（6030001066965）に合併し解散,2015-10-05,1,,,,,ドラッグハタ,0
2072,9020001099451,登記記録の閉鎖等,0,2024-07-12,2024-07-02,株式会社ティーアイ・ジャパン,,株式会社,長崎県,長崎市,元船町１４番１０号,,42,201,8500035,,,2024-07-02,清算の結了等,,,2015-10-05,1,,,,,ティーアイジャパン,0
2074,9020001153464,登記記録の閉鎖等,0,2024-07-12,2024-07-09,株式会社たんぽぽ四季の森,,株式会社,神奈川県,横浜市旭区,上白根町７７４番地１８１,,14,112,2410001,,,2024-07-09,合併による解散等,8021001073331,令和６年７月１日神奈川県相模原市緑区西橋本一丁目１６番１８号株式会社アルプスケアハート（8021001073331）に合併し解散,2023-09-13,1,,,,,タンポポシキノモリ,0
2084,9030001005292,登記記録の閉鎖等,0,2024-07-12,2024-07-09,高砂コンベア株式会社,00014466,株式会社,埼玉県,さいたま市大宮区,上小町２４０番地,,11,103,3300855,,,2024-07-09,清算の結了等,,,2015-10-05,1,,,,,タカサゴコンベア,0
2087,9030001147085,登記記録の閉鎖等,0,2024-07-12,2024-07-09,株式会社スプリング,,株式会社,埼玉県,草加市,谷塚上町９４番１,,11,221,3400024,,,2024-07-09,清算の結了等,,,2022-03-02,1,,,,,スプリング,0
2088,9030002001720,登記記録の閉鎖等,0,2024-07-12,2024-07-08,有限会社薄田エンジニアリング,,有限会社,埼玉県,さいたま市南区,大字太田窪２２８４番地５,,11,108,3360015,,,2024-07-08,清算の結了等,,,2015-10-05,1,,,,,ウスダエンジニアリング,0
2123,9100002026396,登記記録の閉鎖等,0,2024-07-12,2024-07-03,有限会社坂井林業,,有限会社,長野県,安曇野市,穂高北穂高３１６３番地,,20,220,3998302,,,2024-07-03,清算の結了等,,,2015-10-05,1,,,,,サカイリンギョウ,0
2126,9110002016306,登記記録の閉鎖等,0,2024-07-12,2024-07-02,有限会社村上屋旅館,,有限会社,新潟県,胎内市,表町６番１９－６号,,15,227,9592631,,,2024-07-02,清算の結了等,,,2015-10-05,1,,,,,ムラカミヤリョカン,0
2131,9120001068859,登記記録の閉鎖等,0,2024-07-12,2024-07-02,株式会社ジャニック,,株式会社,大阪府,大阪市中央区,粉川町２番９号,,27,128,5400018,,,2024-07-02,合併による解散等,8120001103823,令和６年３月２９日大阪市中央区粉川町２番９号株式会社ダイヤモンドソサエティ（8120001103823）に合併し解散,2015-10-05,1,,,,,ジャニック,0
2133,9120001183113,登記記録の閉鎖等,0,2024-07-12,2024-07-02,株式会社ソラーレ,,株式会社,大阪府,大阪市北区,野崎町１－３０－２９０８号,,27,127,5300055,,,2024-07-02,清算の結了等,,,2015-10-05,1,,,,,ソラーレ,0
2162,9140001028662,登記記録の閉鎖等,0,2024-07-12,2024-07-08,株式会社アート・ソーイング,,株式会社,兵庫県,神戸市須磨区,戎町５丁目３番１３号,,28,107,6540023,,,2024-07-08,清算の結了等,,,2015-10-05,1,,,,,アートソーイング,0
2168,9140001091677,登記記録の閉鎖等,0,2024-07-12,2024-07-08,オガワ工務店株式会社,,株式会社,兵庫県,西宮市,若草町１丁目２番３６号,,28,204,6638181,,,2024-07-08,清算の結了等,,,2015-10-05,1,,,,,,0
2169,9140001100074,登記記録の閉鎖等,0,2024-07-12,2024-07-10,株式会社ＳＹビル,,株式会社,大阪府,大阪市西淀川区,出来島２丁目９番２号,,27,113,5550031,,,2024-07-10,清算の結了等,,,2015-11-19,1,,,,,エスワイビル,0
2174,9140002065853,登記記録の閉鎖等,0,2024-07-12,2024-07-09,有限会社ＫＭ．Ｃｏｒｐ．,,有限会社,兵庫県,伊丹市,中野北４丁目１番２１号,,28,207,6640029,,,2024-07-09,清算の結了等,,,2015-10-05,1,,,,,ケーエムコープ,0
2177,9150001018919,登記記録の閉鎖等,0,2024-07-12,2024-07-10,ニッタアソシオ株式会社,,株式会社,奈良県,大和郡山市,池沢町１７２番地,,29,203,6391032,,,2024-07-10,合併による解散等,4120001039435,令和６年７月１日大阪市浪速区桜川四丁目４番２６号ニッタ株式会社（4120001039435）に合併し解散,2015-10-05,1,,,,,ニッタアソシオ,0
2182,9180001106679,登記記録の閉鎖等,0,2024-07-12,2024-06-28,株式会社スピード,,株式会社,愛知県,名古屋市東区,泉１丁目８番５号,,23,102,4610001,,,2024-06-28,清算の結了等,,,2015-10-05,1,,,,,スピード,0
2189,9190002020440,登記記録の閉鎖等,0,2024-07-12,2024-07-08,有限会社新栄製作所,,有限会社,三重県,三重郡川越町,大字亀尾新田９６番地,,24,344,5108113,,,2024-07-08,清算の結了等,,,2015-10-05,1,,,,,,0
2196,9230001002641,登記記録の閉鎖等,0,2024-07-12,2024-07-10,株式会社ファッション工房,,株式会社,富山県,富山市,上本町７番３号,,16,201,9300057,,,2024-07-10,清算の結了等,,,2015-10-05,1,,,,,ファッションコウボウ,0
2197,9240001034155,登記記録の閉鎖等,0,2024-07-12,2024-07-05,ヒカリ薬品株式会社,,株式会社,広島県,府中市,府川町４６８番地７,,34,208,7260004,,,2024-07-05,清算の結了等,,,2015-10-05,1,,,,,ヒカリヤクヒン,0
2209,9260005003303,登記記録の閉鎖等,0,2024-07-12,2024-06-28,岡山県エルピーガス玉島保安事業協同組合,,その他の設立登記法人,岡山県,倉敷市,玉島八島１３０２番地,,33,202,7138113,,,2024-06-28,清算の結了等,,,2015-10-05,1,,,,,オカヤマケンエルピーガスタマシマホアン,0
2214,9290001020803,登記記録の閉鎖等,0,2024-07-12,2024-06-13,ディ・アルファ株式会社,,株式会社,福岡県,福岡市中央区,白金１丁目１３番１号,,40,133,8100012,,,2024-06-13,清算の結了等,,,2015-10-05,1,,,,,ディアルファ,0
2232,9320002005964,登記記録の閉鎖等,0,2024-07-12,2024-07-02,有限会社双葉看護婦家政婦紹介所,,有限会社,大分県,大分市,新川町２丁目６番２４号,,44,201,8700016,,,2024-07-02,清算の結了等,,,2015-10-05,1,,,,,フタバカンゴフカセイフショウカイジョ,0
2240,9340001001681,登記記録の閉鎖等,0,2024-07-12,2024-07-04,株式会社小島建設,,株式会社,鹿児島県,鹿児島市,西坂元町１４番５号,,46,201,8920863,,,2024-07-04,清算の結了等,,,2015-10-05,1,,,,,コジマケンセツ,0
2241,9340001024419,登記記録の閉鎖等,0,2024-07-12,2024-07-08,株式会社Ｃｏｍｆｙ　ｂｅｓｔ,,株式会社,鹿児島県,鹿児島市,東谷山５丁目４１番７号セジュールＳ１０２号,,46,201,8910113,,,2024-07-08,清算の結了等,,,2022-01-12,1,,,,,コンフィベスト,0
2264,9460002000860,登記記録の閉鎖等,0,2024-07-12,2024-07-11,有限会社釧路機器サービス,,有限会社,北海道,釧路市,鶴野東３丁目１７番２３号,,01,206,0840923,,,2024-07-11,清算の結了等,,,2015-10-05,1,,,,,クシロキキサービス,0
2269,9480005000187,登記記録の閉鎖等,0,2024-07-12,2024-07-09,園瀬川漁業協同組合,,その他の設立登記法人,徳島県,名東郡佐那河内村,下字下野９７番地２６,,36,321,7714101,,,2024-07-09,清算の結了等,,,2015-10-05,1,,,,,ソノセガワ,0
