sequenceNumber,corporateNumber,process,correct,updateDate,changeDate,name,nameImageId,kind,prefectureName,cityName,streetNumber,addressImageId,prefectureCode,cityCode,postCode,addressOutside,addressOutsideImageId,closeDate,closeCause,successorCorporateNumber,changeCause,assignmentDate,latest,enName,enPrefectureName,enCityName,enAddressOutside,furigana,hihyoji
12,1010005015157,登記記録の閉鎖等,0,2023-11-28,2023-11-24,特定目的会社レゴ,,その他の設立登記法人,東京都,新宿区,四谷２丁目９番地１５あると綜合事務所内,,13,104,1600004,,,2023-11-24,清算の結了等,,,2015-10-05,1,,,,,レゴ,0
28,1010402018893,登記記録の閉鎖等,0,2023-11-28,2023-11-24,有限会社レリアンス,,有限会社,東京都,港区,新橋５丁目２５番５号,,13,103,1050004,,,2023-11-24,清算の結了等,,,2015-10-05,1,,,,,レリアンス,0
29,1010405017315,登記記録の閉鎖等,0,2023-11-28,2023-11-24,ＧＳＳＧ　Ｓｏｌａｒ　Ｊａｐａｎ　Ｈｏｌｄｉｎｇｓ９一般社団法人,,その他の設立登記法人,東京都,港区,赤坂１丁目１１番４４号赤坂インターシティ５階Ｍａｚａｒｓ・Ｊａｐａｎ株式会社内,,13,103,1070052,,,2023-11-24,清算の結了等,,,2018-12-25,1,,,,,ジーエスエスジーソーラージャパンホールディングスナイン,0
35,1010602015716,登記記録の閉鎖等,0,2023-11-28,2023-11-24,有限会社峯尾木工,,有限会社,東京都,墨田区,八広２丁目２８番３号,,13,107,1310041,,,2023-11-24,清算の結了等,,,2015-10-05,1,,,,,ミネオモッコウ,0
44,1011001124851,登記記録の閉鎖等,0,2023-11-28,2023-11-22,株式会社エルフ,,株式会社,東京都,渋谷区,渋谷３丁目１番９号矢沢ビル３階,,13,113,1500002,,,2023-11-22,清算の結了等,,,2018-10-23,1,,,,,エルフ,0
71,1011105008455,登記記録の閉鎖等,0,2023-11-28,2023-11-24,オセアン港特定目的会社,,その他の設立登記法人,東京都,新宿区,四谷４丁目３２番８号ＹＫＢサニービル６階,,13,104,1600004,,,2023-11-24,清算の結了等,,,2018-07-26,1,,,,,オセアンミナト,0
73,1011301027374,登記記録の閉鎖等,0,2023-11-28,2023-11-16,株式会社日本馬生,,株式会社,東京都,杉並区,井草４丁目２番１０号,,13,115,1670021,,,2023-11-16,清算の結了等,,,2021-11-29,1,,,,,,0
91,1012801008517,登記記録の閉鎖等,0,2023-11-28,2023-11-20,株式会社ライト,,株式会社,東京都,東大和市,中央３丁目８５６番地の３コーポ石川２０３号,,13,220,2070015,,,2023-11-20,清算の結了等,,,2015-10-05,1,,,,,ライト,0
110,1021005008281,登記記録の閉鎖等,0,2023-11-28,2023-11-24,一般社団法人一の坂道,,その他の設立登記法人,神奈川県,横須賀市,池田町１丁目１７番１０号,,14,201,2390806,,,2023-11-24,清算の結了等,,,2015-10-05,1,,,,,イチノサカミチ,0
117,1030001086522,登記記録の閉鎖等,0,2023-11-28,2023-11-17,冨士鋳鉄株式会社,,株式会社,埼玉県,深谷市,上野台２２３３番地１,,11,218,3660801,,,2023-11-17,清算の結了等,,,2015-10-05,1,,,,,フジチュウテツ,0
125,1030005020279,登記記録の閉鎖等,0,2023-11-28,2023-11-15,一般社団法人日本獅子舞協会,,その他の設立登記法人,東京都,新宿区,西新宿３丁目３番１３号西新宿水間ビル６階,,13,104,1600023,,,2023-11-15,清算の結了等,,,2021-02-25,1,,,,,ニホンシシマイキョウカイ,0
137,1060005007975,登記記録の閉鎖等,0,2023-11-28,2023-11-24,一般社団法人訪問看護ステーションゆりの木,,その他の設立登記法人,栃木県,大田原市,山の手１丁目１番７号,,09,210,3240051,,,2023-11-24,清算の結了等,,,2015-10-05,1,,,,,ホウモンカンゴステーションユリノキ,0
148,1100001031941,登記記録の閉鎖等,0,2023-11-28,2023-11-22,株式会社友商机械貿易,,株式会社,長野県,上伊那郡箕輪町,大字中箕輪１４６１３番地３５７,,20,383,3994601,,,2023-11-22,清算の結了等,,,2019-02-06,1,,,,,ユウショウキカイボウエキ,0
173,1120002048834,登記記録の閉鎖等,0,2023-11-28,2023-11-22,有限会社エアーブレーン,,有限会社,大阪府,大阪市中央区,南船場３丁目１番６－２０２号,,27,128,5420081,,,2023-11-22,清算の結了等,,,2015-10-05,1,,,,,エアーブレーン,0
194,1130002031038,登記記録の閉鎖等,0,2023-11-28,2023-11-22,有限会社田辺無線,,有限会社,京都府,京田辺市,田辺沓脱４８番地,,26,211,6100331,,,2023-11-22,清算の結了等,,,2015-10-05,1,,,,,タナベムセン,0
229,1200002027193,登記記録の閉鎖等,0,2023-11-28,2023-11-24,有限会社大前木工,,有限会社,岐阜県,下呂市,萩原町萩原１２０７番地５,,21,220,5092517,,,2023-11-24,清算の結了等,,,2015-10-05,1,,,,,オオマエモッコウ,0
235,1230001005453,登記記録の閉鎖等,0,2023-11-28,2023-11-24,芝園ユースウェアサービス株式会社,,株式会社,富山県,富山市,桜町２丁目３番９号,,16,201,9300003,,,2023-11-24,清算の結了等,,,2015-10-05,1,,,,,シバゾノユースウェアサービス,0
237,1230005000756,登記記録の閉鎖等,0,2023-11-28,2023-11-24,富山県化粧品小売協同組合,,その他の設立登記法人,富山県,富山市,奥田寿町１９番１－１１２号,,16,201,9300852,,,2023-11-24,清算の結了等,,,2015-10-05,1,,,,,トヤマケンケショウヒンコウリ,0
244,1260002031388,登記記録の閉鎖等,0,2023-11-28,2023-11-24,有限会社写真アップル,,有限会社,岡山県,瀬戸内市,長船町土師１４８番地の１,,33,212,7014264,,,2023-11-24,清算の結了等,,,2015-10-05,1,,,,,,0
250,1290001068156,登記記録の閉鎖等,0,2023-11-28,2023-11-16,株式会社ｃｏｒｅ　Ｆａｃｔｏｒｙ,,株式会社,福岡県,福岡市博多区,山王２丁目２番１２－４０９号,,40,132,8120015,,,2023-11-16,清算の結了等,,,2015-10-05,1,,,,,コアファクトリー,0
256,1290005007003,登記記録の閉鎖等,0,2023-11-28,2023-11-21,特定非営利活動法人福岡健康・スポーツ推進協会,,その他の設立登記法人,福岡県,大野城市,紫台２番８号スポーツクラブフェニックス内,,40,219,8160954,,,2023-11-21,清算の結了等,,,2015-10-05,1,,,,,フクオカケンコウスポーツスイシンキョウカイ,0
267,1340002001382,登記記録の閉鎖等,0,2023-11-28,2023-11-27,有限会社イチムラ,,有限会社,鹿児島県,鹿児島市,荒田１丁目１６番１５号,,46,201,8900054,,,2023-11-27,清算の結了等,,,2015-10-05,1,,,,,イチムラ,0
290,1430001028698,登記記録の閉鎖等,0,2023-11-28,2023-11-20,株式会社ボリビア物産,,株式会社,北海道,札幌市清田区,平岡一条２丁目５番１５号,,01,110,0040871,,,2023-11-20,清算の結了等,,,2015-10-05,1,,,,,ボリビアブッサン,0
308,2010001038029,登記記録の閉鎖等,0,2023-11-28,2023-11-21,エース不動産株式会社,,株式会社,東京都,中央区,日本橋茅場町２丁目１番１１号,,13,102,1030025,,,2023-11-21,清算の結了等,,,2015-10-05,1,,,,,エースフドウサン,0
317,2010003018350,登記記録の閉鎖等,0,2023-11-28,2023-11-22,ＧＡＳＪＡ６合同会社,,合同会社,東京都,千代田区,丸の内３丁目１番１号東京共同会計事務所内,,13,101,1000005,,,2023-11-22,清算の結了等,,,2015-10-05,1,,,,,ガスジャシックス,0
318,2010003019209,登記記録の閉鎖等,0,2023-11-28,2023-11-24,ＤａｙＳｔａｒ合同会社,,合同会社,東京都,港区,虎ノ門５丁目１番４号,,13,103,1050001,,,2023-11-24,清算の結了等,,,2015-10-05,1,,,,,ディスター,0
319,2010003028647,登記記録の閉鎖等,0,2023-11-28,2023-11-21,合同会社ＳＩ開発,,合同会社,東京都,千代田区,霞が関３丁目２番５号,,13,101,1000013,,,2023-11-21,清算の結了等,,,2018-11-07,1,,,,,エスアイカイハツ,0
325,2010401066083,登記記録の閉鎖等,0,2023-11-28,2023-11-21,ＴＧＳ株式会社,,株式会社,東京都,中央区,新富１丁目９番６号,,13,102,1040041,,,2023-11-21,清算の結了等,,,2015-10-05,1,,,,,ティージーエス,0
352,2010602001541,登記記録の閉鎖等,0,2023-11-28,2023-11-24,有限会社柏川鉄工所,,有限会社,東京都,江東区,東砂３丁目３番３号,,13,108,1360074,,,2023-11-24,清算の結了等,,,2015-10-05,1,,,,,カシカワテッコウショ,0
371,2011103009776,登記記録の閉鎖等,0,2023-11-28,2023-11-24,ＢＲＩＣＯＬＡＧＥ合同会社,,合同会社,東京都,新宿区,新宿３丁目１２番４号新宿Ｎタウンプラザ３０９号,,13,104,1600022,,,2023-11-24,清算の結了等,,,2020-06-24,1,,,,,ブリコラージュ,0
373,2011105009642,登記記録の閉鎖等,0,2023-11-28,2023-11-24,松戸ロジスティクス特定目的会社,,その他の設立登記法人,東京都,新宿区,四谷２丁目９番地１５東京ユナイテッド綜合事務所内,,13,104,1600004,,,2023-11-24,清算の結了等,,,2021-01-04,1,,,,,マツドロジスティクス,0
390,2012802007392,登記記録の閉鎖等,0,2023-11-28,2023-11-20,有限会社サンオーク,,有限会社,東京都,東大和市,南街３丁目３３番地の５,,13,220,2070014,,,2023-11-20,清算の結了等,,,2015-10-05,1,,,,,サンオーク,0
391,2013101007002,登記記録の閉鎖等,0,2023-11-28,2023-11-24,株式会社まちつくり青梅,,株式会社,東京都,青梅市,本町１６０番地１８,,13,205,1980083,,,2023-11-24,清算の結了等,,,2015-10-05,1,,,,,マチツクリオウメ,0
409,2030001104720,登記記録の閉鎖等,0,2023-11-28,2023-11-20,株式会社ＣｏＳｅＣｏ,,株式会社,埼玉県,児玉郡上里町,大字七本木２４１２番１号,,11,385,3690306,,,2023-11-20,清算の結了等,,,2015-10-05,1,,,,,コセコ,0
417,2050003004982,登記記録の閉鎖等,0,2023-11-28,2023-11-24,ひかる興業合同会社,,合同会社,茨城県,笠間市,旭町３８７番地２,,08,216,3091717,,,2023-11-24,清算の結了等,,,2019-12-27,1,,,,,ヒカルコウギョウ,0
424,2080001000700,登記記録の閉鎖等,0,2023-11-28,2023-11-24,株式会社エトワール,,株式会社,静岡県,島田市,船木４０４３番地の１８,,22,209,4270107,,,2023-11-24,清算の結了等,,,2015-10-05,1,,,,,エトワール,0
426,2080002010384,登記記録の閉鎖等,0,2023-11-28,2023-11-27,有限会社清和エステート,,有限会社,静岡県,静岡市清水区,万世町２丁目６番１３号,,22,103,4240826,,,2023-11-27,清算の結了等,,,2015-10-05,1,,,,,セイワエステート,0
433,2100001027600,登記記録の閉鎖等,0,2023-11-28,2023-11-17,株式会社４Ｄ　ｓｔｕｄｉｏ　Ｎａｇａｎｏ,,株式会社,長野県,長野市,大橋南２丁目９番地１,,20,201,3812207,,,2023-11-17,清算の結了等,,,2015-10-05,1,,,,,ヨンディースタジオナガノ,0
436,2100001033144,登記記録の閉鎖等,0,2023-11-28,2023-11-21,株式会社ｏｎｅ　ａｎｄ　ｏｎｌｙ,,株式会社,長野県,松本市,並柳２丁目１２番４９号,,20,202,3900825,,,2023-11-21,清算の結了等,,,2020-04-27,1,,,,,ワンアンドオンリー,0
439,2110002028415,登記記録の閉鎖等,0,2023-11-28,2023-11-24,有限会社東洋機械製作所,,有限会社,新潟県,長岡市,高見町字大潟３０２４番地,,15,202,9400004,,,2023-11-24,清算の結了等,,,2015-10-05,1,,,,,トウヨウキカイセイサクジョ,0
440,2110002033423,登記記録の閉鎖等,0,2023-11-28,2023-11-24,有限会社雪国書販,,有限会社,新潟県,南魚沼市,塩沢１１８８番地,,15,226,9496408,,,2023-11-24,清算の結了等,,,2015-10-05,1,,,,,ユキグニショハン,0
446,2120001092163,登記記録の閉鎖等,0,2023-11-28,2023-11-27,リーブラ株式会社,,株式会社,大阪府,大阪市中央区,平野町２丁目２番１２号,,27,128,5410046,,,2023-11-27,清算の結了等,,,2015-10-05,1,,,,,リーブラ,0
447,2120001127150,登記記録の閉鎖等,0,2023-11-28,2023-11-21,株式会社ＤＩＹ　ＮＥＴ　ＪＡＰＡＮ,,株式会社,大阪府,富田林市,若松町東３丁目４番５３号,,27,214,5840023,,,2023-11-21,清算の結了等,,,2015-10-05,1,,,,,ディアイワイネットジャパン,0
471,2130001021468,登記記録の閉鎖等,0,2023-11-28,2023-11-24,株式会社高木印刷,00047216,株式会社,京都府,京都市中京区,東洞院二条上ル壺屋町５１６－２,,26,104,6040000,,,2023-11-24,清算の結了等,,,2015-10-05,1,,,,,タカギインサツ,0
505,2290002034247,登記記録の閉鎖等,0,2023-11-28,2023-11-17,有限会社上田綿業,,有限会社,福岡県,糟屋郡新宮町,大字上府５４４番地の４,,40,345,8110117,,,2023-11-17,清算の結了等,,,2015-10-05,1,,,,,ウエダメンギョウ,0
539,2370301002904,登記記録の閉鎖等,0,2023-11-28,2023-11-22,株式会社サンテック,,株式会社,宮城県,東松島市,矢本字大溜７６番地６,,04,214,9810503,,,2023-11-22,清算の結了等,,,2015-10-05,1,,,,,サンテック,0
541,2380002016384,登記記録の閉鎖等,0,2023-11-28,2023-11-22,有限会社丹治内装,,有限会社,福島県,二本松市,木幡字関屋３３番地,,07,210,9640203,,,2023-11-22,清算の結了等,,,2015-10-05,1,,,,,タンジナイソウ,0
543,2390005007768,登記記録の閉鎖等,0,2023-11-28,2023-11-22,特定非営利活動法人ＳＡＧＡＥ郷,,その他の設立登記法人,山形県,寒河江市,字中河原２２２番地の２,,06,206,9910005,,,2023-11-22,清算の結了等,,,2015-10-05,1,,,,,サガエノサト,0
549,2430001067919,登記記録の閉鎖等,0,2023-11-28,2023-11-20,エリアネット株式会社,,株式会社,北海道,札幌市中央区,南二条西７丁目８番２号南２条ビル４階,,01,101,0600062,,,2023-11-20,清算の結了等,,,2015-10-05,1,,,,,エリアネット,0
557,2480001000924,登記記録の閉鎖等,0,2023-11-28,2023-11-28,大同サッシ工業株式会社,,株式会社,徳島県,徳島市,南矢三町１丁目１０番１５号,,36,201,7700005,,,2023-11-28,清算の結了等,,,2015-10-05,1,,,,,ダイドウサッシコウギョウ,0
578,3010001204208,登記記録の閉鎖等,0,2023-11-28,2023-11-21,ＫＫＡＭ株式会社,,株式会社,東京都,中央区,日本橋茅場町３丁目２番２号ＥＫＫビル,,13,102,1030025,,,2023-11-21,清算の結了等,,,2019-10-01,1,,,,,ケイケイエイエム,0
580,3010001221244,登記記録の閉鎖等,0,2023-11-28,2023-11-22,株式会社Ｓｌｅｅｐ　Ｓｔｙｌｉｎｇ,,株式会社,東京都,中央区,銀座１丁目２２－１１銀座大竹ビジデンス２階,,13,102,1040061,,,2023-11-22,清算の結了等,,,2021-09-21,1,,,,,スリープスタイリング,0
632,3012401037286,登記記録の閉鎖等,0,2023-11-28,2023-11-24,株式会社ＡｔｅｌｉｅｒＪＩＪＩ,,株式会社,東京都,港区,南青山２丁目２番１５号,,13,103,1070062,,,2023-11-24,清算の結了等,,,2020-12-16,1,,,,,アトリエジジ,0
634,3012405003838,登記記録の閉鎖等,0,2023-11-28,2023-11-21,税理士法人大野会計事務所,,その他の設立登記法人,東京都,小金井市,本町６丁目５番３号シャトー小金井１Ｆ－２１,,13,210,1840004,,,2023-11-21,清算の結了等,,,2016-01-04,1,,,,,,0
639,3013301042921,登記記録の閉鎖等,0,2023-11-28,2023-11-17,株式会社ＥＬＣ,,株式会社,東京都,豊島区,南大塚２丁目１１番１０号ミモザビル３階,,13,116,1700005,,,2023-11-17,清算の結了等,,,2018-10-16,1,,,,,イーエルシー,0
646,3021001024132,登記記録の閉鎖等,0,2023-11-28,2023-11-24,株式会社インビジコム,,株式会社,神奈川県,厚木市,中町４丁目１３番２－１８０８号,,14,212,2430018,,,2023-11-24,清算の結了等,,,2015-10-05,1,,,,,インビジコム,0
654,3030002044799,登記記録の閉鎖等,0,2023-11-28,2023-11-17,有限会社平産業,,有限会社,埼玉県,草加市,新里町１６０３番地１,,11,221,3400031,,,2023-11-17,清算の結了等,,,2015-10-05,1,,,,,タイラサンギョウ,0
655,3030002049286,登記記録の閉鎖等,0,2023-11-28,2023-11-15,有限会社タケダ,,有限会社,埼玉県,三郷市,早稲田６丁目１０番地１グリーンパーク早稲田Ｉ－２０１号,00016717,11,237,3410018,,,2023-11-15,清算の結了等,,,2015-10-05,1,,,,,タケダ,0
675,3080403004348,登記記録の閉鎖等,0,2023-11-28,2023-11-24,合同会社エコハート,,合同会社,静岡県,浜松市中区,海老塚町１番地の４０松家ビル４Ｆ,,22,131,4328032,,,2023-11-24,清算の結了等,,,2021-08-13,1,,,,,エコハート,0
679,3090002001869,登記記録の閉鎖等,0,2023-11-28,2023-11-13,有限会社体全矯正整体術療院,,有限会社,山梨県,甲府市,酒折３丁目１１番５号レヂオンス甲府パートＩＩＩＡ棟２１１,00068826,19,201,4000805,,,2023-11-13,清算の結了等,,,2015-10-05,1,,,,,タイゼンキョウセイセイタイジュツリョウイン,0
687,3120001164787,登記記録の閉鎖等,0,2023-11-28,2023-11-24,株式会社ｅｓｋｏｎ,,株式会社,大阪府,大阪市浪速区,桜川１丁目１－２８,,27,111,5560022,,,2023-11-24,清算の結了等,,,2015-10-05,1,,,,,,0
711,3120101044559,登記記録の閉鎖等,0,2023-11-28,2023-11-22,株式会社ミセル,,株式会社,大阪府,泉佐野市,りんくう往来南５番地１４,,27,213,5980047,,,2023-11-22,清算の結了等,,,2015-10-05,1,,,,,ミセル,0
726,3130005010433,登記記録の閉鎖等,0,2023-11-28,2023-11-20,北西町商店街協同組合,,その他の設立登記法人,京都府,綾部市,若松町８０番地,,26,203,6230015,,,2023-11-20,清算の結了等,,,2015-10-05,1,,,,,キタニシマチショウテンガイ,0
729,3140001048906,登記記録の閉鎖等,0,2023-11-28,2023-11-21,株式会社サンキューオート,,株式会社,兵庫県,西宮市,苦楽園四番町１８番２２号,,28,204,6620088,,,2023-11-21,清算の結了等,,,2015-10-05,1,,,,,サンキューオート,0
730,3140001061413,登記記録の閉鎖等,0,2023-11-28,2023-11-22,フジリース株式会社,,株式会社,兵庫県,姫路市,飯田３丁目２４３番地７,,28,201,6700974,,,2023-11-22,清算の結了等,,,2015-10-05,1,,,,,フジリース,0
738,3160001022280,登記記録の閉鎖等,0,2023-11-28,2023-11-24,ネオソフィア株式会社,,株式会社,滋賀県,彦根市,平田町４２２番地６,,25,202,5220041,,,2023-11-24,清算の結了等,,,2020-02-07,1,,,,,,0
754,3240001026447,登記記録の閉鎖等,0,2023-11-28,2023-11-20,株式会社日野商事,,株式会社,広島県,呉市,東中央２丁目８番２３号,,34,202,7370052,,,2023-11-20,清算の結了等,,,2015-10-05,1,,,,,ヒノショウジ,0
762,3260005001618,登記記録の閉鎖等,0,2023-11-28,2023-11-21,医療法人仙仁会,,その他の設立登記法人,岡山県,岡山市南区,東畦１１２番地３８,,33,104,7010211,,,2023-11-21,清算の結了等,,,2015-10-05,1,,,,,センニンカイ,0
763,3280002000430,登記記録の閉鎖等,0,2023-11-28,2023-11-27,有限会社太田度量衡店,,有限会社,島根県,松江市,天神町７番地,,32,201,6900064,,,2023-11-27,清算の結了等,,,2015-10-05,1,,,,,オオタドリョウコウテン,0
766,3290001082873,登記記録の閉鎖等,0,2023-11-28,2023-11-27,株式会社Ｈｏｎｄｏｕ,,株式会社,鹿児島県,鹿児島市,照国町１７番２１号,,46,201,8920841,,,2023-11-27,清算の結了等,,,2018-09-28,1,,,,,ホンドウ,0
767,3290001086214,登記記録の閉鎖等,0,2023-11-28,2023-11-17,株式会社ソエル,,株式会社,福岡県,筑後市,大字井田９２６番地の１,,40,211,8330036,,,2023-11-17,清算の結了等,,,2019-08-14,1,,,,,ソエル,0
769,3290003012267,登記記録の閉鎖等,0,2023-11-28,2023-11-13,合同会社緩,,合同会社,福岡県,太宰府市,五条４丁目１１－１５新崎アパート２０７号,,40,221,8180125,,,2023-11-13,清算の結了等,,,2022-03-15,1,,,,,ユルム,0
770,3290005016357,登記記録の閉鎖等,0,2023-11-28,2023-11-20,一般社団法人スマイル,,その他の設立登記法人,福岡県,筑後市,大字前津６１３番地１,,40,211,8330002,,,2023-11-20,清算の結了等,,,2017-04-13,1,,,,,スマイル,0
776,3290802022937,登記記録の閉鎖等,0,2023-11-28,2023-11-27,有限会社泰幸商事,,有限会社,福岡県,行橋市,西宮市２丁目１番１１号,,40,213,8240031,,,2023-11-27,清算の結了等,,,2015-10-05,1,,,,,タイコウショウジ,0
793,3370401000534,登記記録の閉鎖等,0,2023-11-28,2023-11-21,株式会社東北福祉サービス,,株式会社,宮城県,登米市,迫町佐沼字西舘１番地の８,,04,212,9870511,,,2023-11-21,清算の結了等,,,2015-10-05,1,,,,,トウホクフクシサービス,0
794,3380002010683,登記記録の閉鎖等,0,2023-11-28,2023-11-20,有限会社鼓電気工事店,,有限会社,福島県,郡山市,堤下町７番１１号,,07,203,9638878,,,2023-11-20,清算の結了等,,,2015-10-05,1,,,,,ツヅミデンキコウジテン,0
802,3460301003000,登記記録の閉鎖等,0,2023-11-28,2023-11-27,株式会社エイチ・エム,,株式会社,北海道,北見市,清月町９１番地３３,,01,208,0900805,,,2023-11-27,清算の結了等,,,2015-10-05,1,,,,,,0
820,4010001107459,登記記録の閉鎖等,0,2023-11-28,2023-11-21,株式会社エヌアイジー,,株式会社,東京都,調布市,染地３丁目１番地１０５多摩川住宅ロ１４－１０６号,,13,208,1820023,,,2023-11-21,清算の結了等,,,2015-10-05,1,,,,,エヌアイジー,0
824,4010001204207,登記記録の閉鎖等,0,2023-11-28,2023-11-21,株式会社トーラスインベスコ,,株式会社,東京都,中央区,日本橋茅場町３丁目２番２号ＥＫＫビル,,13,102,1030025,,,2023-11-21,清算の結了等,,,2019-10-01,1,,,,,トーラスインベスコ,0
847,4010403029103,登記記録の閉鎖等,0,2023-11-28,2023-11-22,Ｇｉｇａ　Ｔｏｋｙｏ合同会社,,合同会社,東京都,港区,南青山３丁目１番３６号青山丸竹ビル６Ｆ,,13,103,1070062,,,2023-11-22,清算の結了等,,,2022-12-08,1,,,,,ギガトウキョウ,0
853,4010801000326,登記記録の閉鎖等,0,2023-11-28,2023-11-21,株式会社アカサカデザインハウス,,株式会社,東京都,大田区,西蒲田８丁目１３番７号,,13,111,1440051,,,2023-11-21,清算の結了等,,,2015-10-05,1,,,,,アカサカデザインハウス,0
856,4010801014152,登記記録の閉鎖等,0,2023-11-28,2023-11-20,株式会社エル・ワイ産業,,株式会社,東京都,大田区,東海３丁目７番１号,,13,111,1430001,,,2023-11-20,清算の結了等,,,2015-10-05,1,,,,,エルワイサンギョウ,0
865,4011001119873,登記記録の閉鎖等,0,2023-11-28,2023-11-22,駅まで株式会社,,株式会社,東京都,渋谷区,千駄ヶ谷５丁目１６番１６号千駄ヶ谷フラワーマンション３０１号室,,13,113,1510051,,,2023-11-22,清算の結了等,,,2017-12-26,1,,,,,エキマデ,0
886,4011602004623,登記記録の閉鎖等,0,2023-11-28,2023-11-24,有限会社サンワールド,,有限会社,東京都,練馬区,中村南１丁目３１番６号,,13,120,1760025,,,2023-11-24,清算の結了等,,,2015-10-05,1,,,,,サンワールド,0
901,4013202004144,登記記録の閉鎖等,0,2023-11-28,2023-11-22,長栄総業有限会社,,有限会社,東京都,目黒区,下目黒３丁目２０番２号,,13,110,1530064,,,2023-11-22,清算の結了等,,,2015-10-05,1,,,,,チョウエイソウギョウ,0
918,4021002037859,登記記録の閉鎖等,0,2023-11-28,2023-11-22,株式会社後楽園,,株式会社,神奈川県,秦野市,堀西９４番地,,14,211,2591331,,,2023-11-22,清算の結了等,,,2015-10-05,1,,,,,コウラクエン,0
931,4040002074497,登記記録の閉鎖等,0,2023-11-28,2023-11-20,有限会社長崎運輸,,有限会社,千葉県,市原市,牛久６４番地１,,12,219,2900225,,,2023-11-20,清算の結了等,,,2015-10-05,1,,,,,ナガサキウンユ,0
938,4070001006804,登記記録の閉鎖等,0,2023-11-28,2023-11-21,黒沢重機株式会社,,株式会社,群馬県,高崎市,下豊岡町６００番地４,,10,202,3700873,,,2023-11-21,清算の結了等,,,2015-10-05,1,,,,,クロサワジュウキ,0
944,4080001008477,登記記録の閉鎖等,0,2023-11-28,2023-11-27,株式会社清和ハウジング,,株式会社,静岡県,静岡市清水区,万世町２丁目６番１３号,,22,103,4240826,,,2023-11-27,清算の結了等,,,2015-10-05,1,,,,,セイワハウジング,0
949,4110002004034,登記記録の閉鎖等,0,2023-11-28,2023-11-27,有限会社田中物産,,有限会社,新潟県,新潟市江南区,嘉瀬１５１０番地,,15,104,9500323,,,2023-11-27,清算の結了等,,,2015-10-05,1,,,,,タナカブッサン,0
950,4110002020254,登記記録の閉鎖等,0,2023-11-28,2023-11-24,有限会社入澤電気,,有限会社,新潟県,刈羽郡刈羽村,大字刈羽３６５４番地４,,15,504,9450307,,,2023-11-24,清算の結了等,,,2015-10-05,1,,,,,イリサワデンキ,0
951,4110002034964,登記記録の閉鎖等,0,2023-11-28,2023-11-24,有限会社横山電機,,有限会社,新潟県,佐渡市,上横山３７４番地,,15,224,9520024,,,2023-11-24,清算の結了等,,,2015-10-05,1,,,,,ヨコヤマデンキ,0
974,4120902012283,登記記録の閉鎖等,0,2023-11-28,2023-11-22,ダイムグラフィックアーツ有限会社,,有限会社,大阪府,吹田市,江坂町２丁目６番５号,,27,205,5640063,,,2023-11-22,清算の結了等,,,2015-10-05,1,,,,,ダイムグラフィックアーツ,0
1010,4190005010996,登記記録の閉鎖等,0,2023-11-28,2023-11-22,特定非営利活動法人立田地区秀真ふるさと農園,,その他の設立登記法人,三重県,いなべ市,藤原町篠立３３９０番地９６,,24,214,5110522,,,2023-11-22,清算の結了等,,,2016-11-10,1,,,,,タツタチクホツマフルサトノウエン,0
1017,4260001014291,登記記録の閉鎖等,0,2023-11-28,2023-11-24,難波産業株式会社,00003176,株式会社,岡山県,倉敷市,児島上の町１丁目１１番３８号,,33,202,7110907,,,2023-11-24,清算の結了等,,,2015-10-05,1,,,,,ナンバサンギョウ,0
1044,4440002009512,登記記録の閉鎖等,0,2023-11-28,2023-11-24,有限会社いちりき商店,,有限会社,北海道,檜山郡江差町,字本町８５番地,,01,361,0430043,,,2023-11-24,清算の結了等,,,2015-10-05,1,,,,,イチリキショウテン,0
1054,5010001185058,登記記録の閉鎖等,0,2023-11-28,2023-11-16,イーストランドエージェント株式会社,,株式会社,長野県,北佐久郡御代田町,大字塩野４８２番地２０３,,20,323,3890201,,,2023-11-16,清算の結了等,,,2017-07-26,1,,,,,イーストランドエージェント,0
1059,5010003015205,登記記録の閉鎖等,0,2023-11-28,2023-11-21,合同会社インフィニティー,,合同会社,東京都,中央区,日本橋３丁目２番１４号日本橋ＫＮビル４階,,13,102,1030027,,,2023-11-21,清算の結了等,,,2015-10-05,1,,,,,インフィニティー,0
1066,5010403020713,登記記録の閉鎖等,0,2023-11-28,2023-11-24,Ｈａｎｚｏｍｏｎ合同会社,,合同会社,東京都,港区,虎ノ門５丁目１番４号,,13,103,1050001,,,2023-11-24,清算の結了等,,,2019-05-16,1,,,,,ハンゾウモン,0
1086,5011101068367,登記記録の閉鎖等,0,2023-11-28,2023-11-24,株式会社Ｐｈｉｌｉｎｔｅｒ　Ｊａｐａｎ,,株式会社,東京都,新宿区,百人町１丁目１０－７一番街ビル３階３０３号,,13,104,1690073,,,2023-11-24,清算の結了等,,,2015-10-05,1,,,,,フィリンタージャパン,0
1090,5011102007316,登記記録の閉鎖等,0,2023-11-28,2023-11-24,有限会社セリアート,,有限会社,東京都,新宿区,若松町３８番２４号,,13,104,1620056,,,2023-11-24,清算の結了等,,,2015-10-05,1,,,,,セリアート,0
1092,5011105009631,登記記録の閉鎖等,0,2023-11-28,2023-11-24,松戸ホールディングス一般社団法人,,その他の設立登記法人,東京都,新宿区,四谷２丁目９番地１５東京ユナイテッド綜合事務所内,,13,104,1600004,,,2023-11-24,清算の結了等,,,2020-12-18,1,,,,,マツドホールディングス,0
1109,5011802009520,登記記録の閉鎖等,0,2023-11-28,2023-11-22,有限会社イグチ店舗デザイン,,有限会社,東京都,足立区,佐野２丁目３９番６号,,13,121,1210053,,,2023-11-22,清算の結了等,,,2015-10-05,1,,,,,イグチテンポデザイン,0
1123,5013402004331,登記記録の閉鎖等,0,2023-11-28,2023-11-21,有限会社サニーコントロールサービス,,有限会社,東京都,稲城市,矢野口４０２番地,,13,225,2060812,,,2023-11-21,清算の結了等,,,2015-10-05,1,,,,,,0
1124,5020001012541,登記記録の閉鎖等,0,2023-11-28,2023-11-21,株式会社石井,,株式会社,神奈川県,横浜市南区,白妙町４丁目４３番１７,,14,105,2320023,,,2023-11-21,清算の結了等,,,2015-10-05,1,,,,,イシイ,0
1127,5020001077106,登記記録の閉鎖等,0,2023-11-28,2023-11-22,大観商事株式会社,,株式会社,神奈川県,川崎市多摩区,生田４丁目８番１２号,,14,135,2140038,,,2023-11-22,清算の結了等,,,2015-10-05,1,,,,,タイカンショウジ,0
1148,5021005006414,登記記録の閉鎖等,0,2023-11-28,2023-11-24,特定非営利活動法人在宅福祉しあわせサービスあしがら,,その他の設立登記法人,神奈川県,足柄上郡松田町,松田惣領１２４９番地,,14,363,2580003,,,2023-11-24,清算の結了等,,,2015-10-05,1,,,,,ザイタクフクシシアワセサービスアシガラ,0
1162,5030002058426,登記記録の閉鎖等,0,2023-11-28,2023-11-21,有限会社ケルン,,有限会社,埼玉県,朝霞市,根岸台２丁目８番３－２０１号,,11,227,3510005,,,2023-11-21,清算の結了等,,,2015-10-05,1,,,,,ケルン,0
1176,5100002036944,登記記録の閉鎖等,0,2023-11-28,2023-11-20,有限会社中原,,有限会社,長野県,下伊那郡阿智村,智里１８１０番地,,20,407,3950304,,,2023-11-20,清算の結了等,,,2015-10-05,1,,,,,ナカハラ,0
1203,5120902013834,登記記録の閉鎖等,0,2023-11-28,2023-11-22,ダイムビジネスソリューションズ有限会社,,有限会社,大阪府,吹田市,江坂町２丁目６番５号,,27,205,5640063,,,2023-11-22,清算の結了等,,,2015-10-05,1,,,,,ダイムビジネスソリューションズ,0
1214,5140001081475,登記記録の閉鎖等,0,2023-11-28,2023-11-14,交洋住建株式会社,,株式会社,兵庫県,宝塚市,中筋９丁目３９番２号,,28,214,6650874,,,2023-11-14,清算の結了等,,,2015-10-05,1,,,,,コウヨウジュウケン,0
1219,5140002041916,登記記録の閉鎖等,0,2023-11-28,2023-11-24,有限会社中原電気,,有限会社,兵庫県,尼崎市,西長洲町２丁目３５番１０号,,28,202,6600805,,,2023-11-24,清算の結了等,,,2015-10-05,1,,,,,,0
1231,5180302021977,登記記録の閉鎖等,0,2023-11-28,2023-11-20,有限会社光陽技研,,有限会社,愛知県,豊田市,大島町片平７５番地８,,23,211,4730935,,,2023-11-20,清算の結了等,,,2015-10-05,1,,,,,コウヨウギケン,0
1242,5260002011428,登記記録の閉鎖等,0,2023-11-28,2023-11-24,有限会社若狭石材店,,有限会社,岡山県,赤磐市,坂辺１６５５番地,,33,213,7012202,,,2023-11-24,清算の結了等,,,2015-10-05,1,,,,,ワカサセキザイテン,0
1256,5290801025402,登記記録の閉鎖等,0,2023-11-28,2023-11-24,株式会社竹内たたみ店,,株式会社,福岡県,北九州市戸畑区,新池１丁目５番３７号,,40,105,8040082,,,2023-11-24,清算の結了等,,,2019-04-04,1,,,,,タケウチタタミテン,0
1273,5400002010068,登記記録の閉鎖等,0,2023-11-28,2023-11-16,有限会社ＣＯＭ　ＳＴＡＦＦ　ＯＦＦＩＣＥ,,有限会社,岩手県,北上市,川岸４丁目１４番地１２,,03,206,0240032,,,2023-11-16,清算の結了等,,,2015-10-05,1,,,,,コムスタッフオフィス,0
1290,6010001031681,登記記録の閉鎖等,0,2023-11-28,2023-11-22,吉澤株式会社,,株式会社,東京都,千代田区,内神田１丁目１８番１４号,,13,101,1010047,,,2023-11-22,清算の結了等,,,2015-10-05,1,,,,,ヨシザワ,0
1300,6010005036644,登記記録の閉鎖等,0,2023-11-28,2023-11-22,行政書士法人未来計画,,その他の設立登記法人,東京都,中央区,新川２丁目２１番１０号,,13,102,1040033,,,2023-11-22,清算の結了等,,,2023-05-15,1,,,,,ミライケイカク,0
1304,6010401108922,登記記録の閉鎖等,0,2023-11-28,2023-11-21,株式会社ＺＥＲＯ　ＯＮＥ　Ｆａｃｔｏｒｙ,,株式会社,東京都,港区,赤坂９丁目６－３０,,13,103,1070052,,,2023-11-21,清算の結了等,,,2015-10-05,1,,,,,ゼロワンファクトリー,0
1314,6010403019878,登記記録の閉鎖等,0,2023-11-28,2023-11-24,ナチュラルエナジーパートナーズ太陽光発電合同会社,,合同会社,東京都,港区,高輪１丁目３番１３号ＮＢＦ高輪ビル７階,,13,103,1080074,,,2023-11-24,清算の結了等,,,2018-12-25,1,,,,,ナチュラルエナジーパートナーズタイヨウコウハツデン,0
1323,6010802000348,登記記録の閉鎖等,0,2023-11-28,2023-11-21,有限会社安久井製作所,,有限会社,東京都,大田区,西蒲田３丁目６番１号ハイツ竹井１０１,,13,111,1440051,,,2023-11-21,清算の結了等,,,2015-10-05,1,,,,,アクイセイサクショ,0
1326,6010803002335,登記記録の閉鎖等,0,2023-11-28,2023-11-02,合同会社ストッパーインコード,,合同会社,東京都,大田区,久が原４丁目７番１３号,,13,111,1460085,,,2023-11-02,清算の結了等,,,2017-03-29,1,,,,,ストッパーインコード,0
1330,6011001136132,登記記録の閉鎖等,0,2023-11-28,2023-11-22,株式会社ケイアンドアッシュ,,株式会社,東京都,目黒区,自由が丘２丁目２２－３－２０１,,13,110,1520035,,,2023-11-22,清算の結了等,,,2020-10-02,1,,,,,ケイアンドアッシュ,0
1342,6011201014732,登記記録の閉鎖等,0,2023-11-28,2023-11-17,ＵＫ　Ｖｏｉｃｅｗｏｒｋｓ株式会社,,株式会社,東京都,調布市,深大寺元町３丁目１２番４４号,,13,208,1820017,,,2023-11-17,清算の結了等,,,2015-10-05,1,,,,,ユーケーボイスワークス,0
1363,6013201014258,登記記録の閉鎖等,0,2023-11-28,2023-11-22,株式会社コンピュータコンパニオン,,株式会社,東京都,目黒区,鷹番１丁目１４番１３号,,13,110,1520004,,,2023-11-22,清算の結了等,,,2015-10-05,1,,,,,コンピュータコンパニオン,0
1370,6020001024536,登記記録の閉鎖等,0,2023-11-28,2023-11-24,株式会社マルヒサ,,株式会社,神奈川県,海老名市,国分北４丁目５番２３号,,14,215,2430406,,,2023-11-24,清算の結了等,,,2015-10-05,1,,,,,マルヒサ,0
1390,6021001077243,登記記録の閉鎖等,0,2023-11-28,2023-11-22,株式会社ノキノ,,株式会社,神奈川県,秦野市,横野８４番地の４,,14,211,2591307,,,2023-11-22,清算の結了等,,,2022-10-20,1,,,,,ノキノ,0
1398,6030002071254,登記記録の閉鎖等,0,2023-11-28,2023-11-22,有限会社イトウ,,有限会社,埼玉県,北葛飾郡杉戸町,大字鷲巣３８２番地２,,11,464,3450002,,,2023-11-22,清算の結了等,,,2015-10-05,1,,,,,イトウ,0
1413,6040005007246,登記記録の閉鎖等,0,2023-11-28,2023-11-17,医療法人社団良友会,,その他の設立登記法人,千葉県,八街市,榎戸６５６番地４,,12,230,2891106,,,2023-11-17,清算の結了等,,,2015-10-05,1,,,,,リョウユウカイ,0
1415,6050005011239,登記記録の閉鎖等,0,2023-11-28,2023-11-08,特定非営利活動法人城山を考える会,,その他の設立登記法人,茨城県,つくばみらい市,南９２４番地,,08,235,3002404,,,2023-11-08,清算の結了等,,,2015-10-05,1,,,,,シロヤマヲカンガエルカイ,0
1430,6100005002281,登記記録の閉鎖等,0,2023-11-28,2023-11-21,特定非営利活動法人長野ウェルネス大学,,その他の設立登記法人,長野県,長野市,大字西長野６のロ,,20,201,3810000,,,2023-11-21,清算の結了等,,,2015-10-05,1,,,,,ナガノウェルネスダイガク,0
1452,6122001031337,登記記録の閉鎖等,0,2023-11-28,2023-11-24,ＣＮＯ株式会社,,株式会社,大阪府,大阪市中央区,島之内１丁目８番８号長堀橋ＫＯＵＲＩＮビル,,27,128,5420082,,,2023-11-24,清算の結了等,,,2018-02-14,1,,,,,シーエヌオー,0
1477,6170002002773,登記記録の閉鎖等,0,2023-11-28,2023-11-24,有限会社ナカスヂ事務器,,有限会社,和歌山県,和歌山市,南材木丁１丁目３２番地,,30,201,6408112,,,2023-11-24,清算の結了等,,,2015-10-05,1,,,,,ナカスヂジムキ,0
1492,6220002001258,登記記録の閉鎖等,0,2023-11-28,2023-11-27,有限会社ヴィザヴィ,,有限会社,石川県,金沢市,長坂１丁目４－７２,,17,201,9218112,,,2023-11-27,清算の結了等,,,2015-10-05,1,,,,,ヴィザヴィ,0
1494,6240001052845,登記記録の閉鎖等,0,2023-11-28,2023-11-13,株式会社ＤＥＰＥＣ堂本技術コンサルタント,,株式会社,広島県,東広島市,安芸津町風早８９５番地４５,,34,212,7392403,,,2023-11-13,清算の結了等,,,2018-05-25,1,,,,,ディーイーペックドウモトギジュツコンサルタント,0
1497,6270002004289,登記記録の閉鎖等,0,2023-11-28,2023-11-15,有限会社イナバ商工,,有限会社,鳥取県,八頭郡八頭町,郡家５８６番地２,,31,329,6800461,,,2023-11-15,清算の結了等,,,2015-10-05,1,,,,,イナバショウコウ,0
1501,6290001080049,登記記録の閉鎖等,0,2023-11-28,2023-11-21,ＹＴロジ株式会社,,株式会社,福岡県,福岡市東区,土井２丁目５番１８号,,40,131,8130032,,,2023-11-21,清算の結了等,,,2017-12-22,1,,,,,ワイティロジ,0
1517,6340003002739,登記記録の閉鎖等,0,2023-11-28,2023-11-27,合同会社山野草,,合同会社,鹿児島県,鹿児島市,皇徳寺台３丁目１４番３号,,46,201,8910103,,,2023-11-27,清算の結了等,,,2019-01-15,1,,,,,サンヤソウ,0
1528,6380002015606,登記記録の閉鎖等,0,2023-11-28,2023-11-22,有限会社吉栄社,,有限会社,福島県,田村市,常葉町久保字宮ノ前６３番地,,07,211,9634605,,,2023-11-22,清算の結了等,,,2015-10-05,1,,,,,キチエイシャ,0
1532,6400001016370,登記記録の閉鎖等,0,2023-11-28,2023-11-15,株式会社受皿,,株式会社,岩手県,北上市,さくら通り５丁目１２番３８号,,03,206,0240084,,,2023-11-15,合併による解散等,4400001015242,令和５年１１月１５日岩手県北上市さくら通り五丁目１０番３８号ＡＮ株式会社（4400001015242）に合併し解散,2023-09-08,1,,,,,ウケザラ,0
1541,6430002035160,登記記録の閉鎖等,0,2023-11-28,2023-11-20,有限会社加藤建設,,有限会社,北海道,札幌市豊平区,中の島一条１０丁目１番２６号,,01,105,0620921,,,2023-11-20,清算の結了等,,,2015-10-05,1,,,,,カトウケンセツ,0
1560,7010001196937,登記記録の閉鎖等,0,2023-11-28,2023-11-21,三光通販株式会社,,株式会社,東京都,中央区,東日本橋２丁目２番６号,,13,102,1030004,,,2023-11-21,合併による解散等,4010001145351,令和５年１１月２１日東京都中央区東日本橋二丁目２番６号株式会社エー・アンド・イー（4010001145351）に合併し解散,2018-12-06,1,,,,,サンコウツウハン,0
1563,7010001233509,登記記録の閉鎖等,0,2023-11-28,2023-11-21,株式会社日本フリーランス総研,,株式会社,東京都,中央区,銀座１丁目１２－４Ｎ＆Ｅ－ＢＬＤ．７階,,13,102,1040061,,,2023-11-21,清算の結了等,,,2023-03-07,1,,,,,ニホンフリーランスソウケン,0
1598,7011001123261,登記記録の閉鎖等,0,2023-11-28,2023-11-24,株式会社ＬｉｖｅＬＹ,,株式会社,東京都,港区,浜松町２丁目２番１５号,,13,103,1050013,,,2023-11-24,清算の結了等,,,2018-07-19,1,,,,,リブリー,0
1629,7012702002919,登記記録の閉鎖等,0,2023-11-28,2023-11-24,有限会社杉山油脂商店,,有限会社,東京都,東村山市,青葉町２丁目１０番１号,,13,213,1890002,,,2023-11-24,清算の結了等,,,2015-10-05,1,,,,,スギヤマユシショウテン,0
1637,7020001139977,登記記録の閉鎖等,0,2023-11-28,2023-11-22,株式会社ＧＬＨ,,株式会社,神奈川県,川崎市幸区,南幸町３丁目１番地２,,14,132,2120016,,,2023-11-22,清算の結了等,,,2021-02-18,1,,,,,ジーエルエイチ,0
1643,7020002038088,登記記録の閉鎖等,0,2023-11-28,2023-11-22,有限会社小林機工,,有限会社,神奈川県,横浜市鶴見区,元宮２丁目４番７１号,,14,101,2300004,,,2023-11-22,清算の結了等,,,2015-10-05,1,,,,,コバヤシキコウ,0
1644,7020002043022,登記記録の閉鎖等,0,2023-11-28,2023-11-22,有限会社シナノ,,有限会社,神奈川県,横浜市中区,伊勢佐木町６丁目１３２番地１,,14,104,2310045,,,2023-11-22,清算の結了等,,,2015-10-05,1,,,,,シナノ,0
1655,7021002070824,登記記録の閉鎖等,0,2023-11-28,2023-11-22,有限会社成三建設,,有限会社,神奈川県,横須賀市,浜見台２丁目５番１号,,14,201,2370077,,,2023-11-22,清算の結了等,,,2015-10-05,1,,,,,ナルミケンセツ,0
1662,7030002106315,登記記録の閉鎖等,0,2023-11-28,2023-11-20,有限会社ビット,,有限会社,埼玉県,川口市,元郷３丁目２２番２号,,11,203,3320011,,,2023-11-20,清算の結了等,,,2015-10-05,1,,,,,ビット,0
1666,7040001021547,登記記録の閉鎖等,0,2023-11-28,2023-11-17,株式会社スクエアノット,,株式会社,千葉県,船橋市,海神町２丁目２２６番地１,,12,204,2730022,,,2023-11-17,清算の結了等,,,2015-10-05,1,,,,,スクエアノット,0
1671,7050001012982,登記記録の閉鎖等,0,2023-11-28,2023-11-22,株式会社ユネック,,株式会社,茨城県,石岡市,旭台２丁目１９番１６号,,08,205,3150038,,,2023-11-22,清算の結了等,,,2015-10-05,1,,,,,ユネック,0
1675,7050002017312,登記記録の閉鎖等,0,2023-11-28,2023-11-20,有限会社大島洋一商店,,有限会社,茨城県,結城郡八千代町,大字村貫８９８番地の４,,08,521,3003563,,,2023-11-20,清算の結了等,,,2015-10-05,1,,,,,オオシマヨウイチショウテン,0
1682,7080401016309,登記記録の閉鎖等,0,2023-11-28,2023-11-24,株式会社アイザック,,株式会社,静岡県,磐田市,蛭池２２４番地５,,22,211,4371207,,,2023-11-24,清算の結了等,,,2015-10-05,1,,,,,アイザック,0
1690,7110002025795,登記記録の閉鎖等,0,2023-11-28,2023-11-20,有限会社樋熊染工場,00070978,有限会社,新潟県,十日町市,下条２丁目６７番地,,15,210,9498603,,,2023-11-20,清算の結了等,,,2015-10-05,1,,,,,ヒグマソメコウジョウ,0
1691,7110003004311,登記記録の閉鎖等,0,2023-11-28,2023-11-24,合同会社ＰＧ,,合同会社,新潟県,新潟市江南区,西町３丁目６番１３号,,15,104,9500165,,,2023-11-24,清算の結了等,,,2020-11-10,1,,,,,ピージー,0
1697,7120001046222,登記記録の閉鎖等,0,2023-11-28,2023-11-24,ニッカ工業株式会社,,株式会社,大阪府,大阪市住吉区,東粉浜１丁目４番２７号,,27,120,5580051,,,2023-11-24,清算の結了等,,,2015-10-05,1,,,,,ニッカコウギョウ,0
1708,7120101048424,登記記録の閉鎖等,0,2023-11-28,2023-11-22,株式会社ＯＮＥ’Ｓ,,株式会社,兵庫県,尼崎市,上坂部１丁目８番２－６０１号,,28,202,6610979,,,2023-11-22,清算の結了等,,,2015-10-05,1,,,,,ワンズ,0
1709,7120101048762,登記記録の閉鎖等,0,2023-11-28,2023-11-24,ＳＡＫ株式会社,,株式会社,大阪府,堺市北区,中村町１１０８,,27,146,5918012,,,2023-11-24,清算の結了等,,,2015-10-05,1,,,,,エスエイケイ,0
1713,7120103001348,登記記録の閉鎖等,0,2023-11-28,2023-11-24,合資会社ニュータウン情報サイト,,合資会社,大阪府,和泉市,光明台１丁目２７番１２号,,27,219,5941111,,,2023-11-24,清算の結了等,,,2015-10-05,1,,,,,,0
1715,7120901020185,登記記録の閉鎖等,0,2023-11-28,2023-11-22,株式会社イマイ,,株式会社,大阪府,箕面市,新稲１丁目７番４号,,27,220,5620005,,,2023-11-22,清算の結了等,,,2015-10-05,1,,,,,イマイ,0
1730,7150003002559,登記記録の閉鎖等,0,2023-11-28,2023-11-27,合同会社ｇｏｏｄｎｅｉｇｈｂｏｒｓ　ｎａｒａ,,合同会社,奈良県,生駒市,谷田町８７６－３,,29,209,6300251,,,2023-11-27,清算の結了等,,,2021-12-10,1,,,,,グッドネイバーズナラ,0
1736,7190005003956,登記記録の閉鎖等,0,2023-11-28,2023-11-22,特定非営利活動法人中部国際フォーラム,,その他の設立登記法人,三重県,北牟婁郡紀北町,相賀８０９番地２,,24,543,5193406,,,2023-11-22,清算の結了等,,,2015-10-05,1,,,,,チュウブコクサイフォーラム,0
1755,7290002036263,登記記録の閉鎖等,0,2023-11-28,2023-11-16,有限会社共和技研,,有限会社,福岡県,糟屋郡宇美町,障子岳南１丁目１番５号,,40,341,8112126,,,2023-11-16,清算の結了等,,,2015-10-05,1,,,,,キョウワギケン,0
1763,7330002006303,登記記録の閉鎖等,0,2023-11-28,2023-11-22,有限会社大洋家電サービス,,有限会社,熊本県,熊本市東区,花立５丁目１番２２号,,43,102,8620918,,,2023-11-22,清算の結了等,,,2015-10-05,1,,,,,タイヨウカデンサービス,0
1764,7330003009478,登記記録の閉鎖等,0,2023-11-28,2023-11-15,Ｊ＆Ｍ合同会社,,合同会社,熊本県,山鹿市,鹿北町岩野字陣内２４２番地２,,43,208,8610603,,,2023-11-15,清算の結了等,,,2022-08-19,1,,,,,ジェイアンドエム,0
1771,7350003003025,登記記録の閉鎖等,0,2023-11-28,2023-11-17,リードフォーシーズン合同会社,,合同会社,宮崎県,宮崎市,大塚町横立１５０９番地５,,45,201,8800951,,,2023-11-17,清算の結了等,,,2017-12-27,1,,,,,リードフォーシーズン,0
1779,7380002028499,登記記録の閉鎖等,0,2023-11-28,2023-11-22,有限会社佐藤鉄工,,有限会社,福島県,南相馬市,鹿島区塩崎字房田１２３番地,,07,212,9792332,,,2023-11-22,清算の結了等,,,2015-10-05,1,,,,,サトウテッコウ,0
1780,7400001016394,登記記録の閉鎖等,0,2023-11-28,2023-11-15,株式会社債権管理,,株式会社,岩手県,北上市,さくら通り５丁目１２番３８号,,03,206,0240084,,,2023-11-15,合併による解散等,4400001015242,令和５年１１月１５日岩手県北上市さくら通り五丁目１０番３８号ＡＮ株式会社（4400001015242）に合併し解散,2023-10-03,1,,,,,サイケンカンリ,0
1791,7470001013690,登記記録の閉鎖等,0,2023-11-28,2023-11-24,サヌキ松谷株式会社,,株式会社,香川県,綾歌郡宇多津町,吉田４００１番１１,,37,386,7690221,,,2023-11-24,清算の結了等,,,2015-10-05,1,,,,,サヌキマツタニ,0
1792,7490001008805,登記記録の閉鎖等,0,2023-11-28,2023-11-24,株式会社テクノサービス,,株式会社,高知県,高知市,口細山５４番地７８,,39,201,7800963,,,2023-11-24,清算の結了等,,,2017-10-19,1,,,,,テクノサービス,0
1802,8010001022035,登記記録の閉鎖等,0,2023-11-28,2023-11-16,株式会社玉川ビル,,株式会社,東京都,千代田区,西神田２丁目７番５号東海西神田マンション３０３号室,,13,101,1010065,,,2023-11-16,清算の結了等,,,2015-10-05,1,,,,,タマガワビル,0
1804,8010001060621,登記記録の閉鎖等,0,2023-11-28,2023-11-22,株式会社ルー,,株式会社,東京都,中央区,日本橋馬喰町１丁目６番１３号,,13,102,1030002,,,2023-11-22,清算の結了等,,,2015-10-05,1,,,,,ルー,0
1810,8010001159042,登記記録の閉鎖等,0,2023-11-28,2023-11-22,株式会社Ａ＆Ｉコンサルティング,,株式会社,東京都,中央区,八丁堀３丁目２６番８号,,13,102,1040032,,,2023-11-22,清算の結了等,,,2015-10-05,1,,,,,エーアンドアイコンサルティング,0
1811,8010001175287,登記記録の閉鎖等,0,2023-11-28,2023-11-21,二光通販株式会社,,株式会社,東京都,中央区,東日本橋２丁目２番６号,,13,102,1030004,,,2023-11-21,合併による解散等,3010001117566,令和５年１１月２１日東京都千代田区東神田三丁目２番４号株式会社常和（3010001117566）に合併し解散,2016-04-28,1,,,,,ニコウツウハン,0
1816,8010002010162,登記記録の閉鎖等,0,2023-11-28,2023-11-17,有限会社サカイファーストフーズ,,有限会社,埼玉県,草加市,瀬崎１丁目１０番１９号,,11,221,3400022,,,2023-11-17,清算の結了等,,,2015-10-05,1,,,,,サカイファーストフーズ,0
1838,8010403029355,登記記録の閉鎖等,0,2023-11-28,2023-11-24,ｅｌｅｖｅｎ合同会社,,合同会社,東京都,港区,南青山２丁目２番１５号,,13,103,1070062,,,2023-11-24,清算の結了等,,,2023-01-20,1,,,,,イレブン,0
1839,8010601020628,登記記録の閉鎖等,0,2023-11-28,2023-11-22,興和産商株式会社,,株式会社,東京都,墨田区,東駒形２丁目１５番７号,,13,107,1300005,,,2023-11-22,清算の結了等,,,2015-10-05,1,,,,,コウワサンショウ,0
1852,8011101000640,登記記録の閉鎖等,0,2023-11-28,2023-11-22,赤玉リビング株式会社,,株式会社,大阪府,大阪市中央区,平野町３丁目３番１６号,,27,128,5410046,,,2023-11-22,清算の結了等,,,2015-10-05,1,,,,,アカダマリビング,0
1858,8011301020091,登記記録の閉鎖等,0,2023-11-28,2023-11-16,三美システム株式会社,,株式会社,東京都,杉並区,天沼２丁目１６番２号,,13,115,1670032,,,2023-11-16,清算の結了等,,,2015-10-05,1,,,,,サンビシステム,0
1886,8020001075387,登記記録の閉鎖等,0,2023-11-28,2023-11-21,株式会社荏原部品製作所,,株式会社,神奈川県,川崎市高津区,下野毛３丁目５番７号,,14,134,2130006,,,2023-11-21,清算の結了等,,,2015-10-05,1,,,,,エバラブヒンセイサクショ,0
1931,8100001008850,登記記録の閉鎖等,0,2023-11-28,2023-11-20,総信興産株式会社,,株式会社,長野県,北佐久郡軽井沢町,中軽井沢１７番地９,,20,321,3890112,,,2023-11-20,清算の結了等,,,2015-10-05,1,,,,,ソウシンコウサン,0
1933,8100001015442,登記記録の閉鎖等,0,2023-11-28,2023-11-21,株式会社やまこう,,株式会社,長野県,東筑摩郡筑北村,東条２１１１番地,,20,452,3997502,,,2023-11-21,清算の結了等,,,2015-10-05,1,,,,,ヤマコウ,0
1935,8100002018493,登記記録の閉鎖等,0,2023-11-28,2023-11-21,有限会社小松屋商店,,有限会社,長野県,下高井郡山ノ内町,大字平穏２２３０番地,,20,561,3810401,,,2023-11-21,清算の結了等,,,2015-10-05,1,,,,,コマツヤショウテン,0
1939,8120001017387,登記記録の閉鎖等,0,2023-11-28,2023-11-24,株式会社壽荘,,株式会社,大阪府,大阪市生野区,新今里４丁目２番２７号,,27,116,5440001,,,2023-11-24,清算の結了等,,,2015-10-05,1,,,,,コトブキソウ,0
1942,8120001164758,登記記録の閉鎖等,0,2023-11-28,2023-11-22,株式会社難波テナントサービス,,株式会社,大阪府,大阪市中央区,難波３丁目７番３号若松治産ビル２Ｆ,,27,128,5420076,,,2023-11-22,清算の結了等,,,2015-10-05,1,,,,,ナンバテナントサービス,0
1975,8140002036319,登記記録の閉鎖等,0,2023-11-28,2023-11-22,日進自動車整備有限会社,,有限会社,兵庫県,加古川市,別府町朝日町４３番地,,28,210,6750123,,,2023-11-22,清算の結了等,,,2015-10-05,1,,,,,ニッシンジドウシャセイビ,0
1994,8200002006595,登記記録の閉鎖等,0,2023-11-28,2023-11-27,有限会社マルエイ塗装店,,有限会社,岐阜県,山県市,高木７番地の１,,21,215,5012113,,,2023-11-27,清算の結了等,,,2015-10-05,1,,,,,マルエイトソウテン,0
2001,8260002027207,登記記録の閉鎖等,0,2023-11-28,2023-11-22,有限会社光琳工芸,,有限会社,岡山県,新見市,高尾２２７２番地の６,,33,210,7180003,,,2023-11-22,清算の結了等,,,2015-10-05,1,,,,,コウリンコウゲイ,0
2004,8290002048051,登記記録の閉鎖等,0,2023-11-28,2023-11-17,有限会社Ｅ・Ｕライン,,有限会社,福岡県,八女郡広川町,大字長延５９７番地,,40,544,8340105,,,2023-11-17,清算の結了等,,,2015-10-05,1,,,,,,0
2010,8300002008219,登記記録の閉鎖等,0,2023-11-28,2023-11-24,有限会社脇田酒店,,有限会社,佐賀県,伊万里市,脇田町１７３番地１,,41,205,8480028,,,2023-11-24,清算の結了等,,,2015-10-05,1,,,,,ワキタサケテン,0
2032,8400001016369,登記記録の閉鎖等,0,2023-11-28,2023-11-15,株式会社２１世紀ＨＤ,,株式会社,岩手県,北上市,さくら通り５丁目１２番３８号,,03,206,0240084,,,2023-11-15,合併による解散等,2400001009543,令和５年１１月１５日岩手県北上市さくら通り五丁目１２番３８号株式会社２１世紀（2400001009543）に合併し解散,2023-09-08,1,,,,,ニジュウイッセーキエイチディー,0
2039,8460105000536,登記記録の閉鎖等,0,2023-11-28,2023-11-22,医療法人社団いしだ内科・循環器科,,その他の設立登記法人,北海道,帯広市,西二十四条南３丁目３１番地１２,,01,207,0802474,,,2023-11-22,清算の結了等,,,2015-10-05,1,,,,,イシダナイカジュンカンキカ,0
2106,9011001147052,登記記録の閉鎖等,0,2023-11-28,2023-11-24,株式会社Ｗｏｒｌｄ　ａｒｔ,,株式会社,東京都,目黒区,青葉台４丁目５番１２号ａｐｌａｃｅ－２０２,,13,110,1530042,,,2023-11-24,清算の結了等,,,2022-04-21,1,,,,,ワールドアート,0
2133,9012402000337,登記記録の閉鎖等,0,2023-11-28,2023-11-20,有限会社稲田屋,,有限会社,東京都,府中市,天神町１丁目１６番地の２２,,13,206,1830053,,,2023-11-20,清算の結了等,,,2015-10-05,1,,,,,,0
2161,9021002006454,登記記録の閉鎖等,0,2023-11-28,2023-11-22,有限会社サンライズ,,有限会社,神奈川県,藤沢市,鵠沼海岸２丁目１０番１６号,,14,205,2510037,,,2023-11-22,清算の結了等,,,2015-10-05,1,,,,,サンライズ,0
2162,9021005008225,登記記録の閉鎖等,0,2023-11-28,2023-11-16,特定非営利活動法人ぽっかぽか荘,,その他の設立登記法人,神奈川県,横須賀市,公郷町６丁目２０番地１９３,,14,201,2380022,,,2023-11-16,清算の結了等,,,2015-10-05,1,,,,,ポッカポカソウ,0
2176,9030002002727,登記記録の閉鎖等,0,2023-11-28,2023-11-20,有限会社小川興業,,有限会社,埼玉県,さいたま市桜区,中島３丁目１０番２５号,,11,106,3380822,,,2023-11-20,清算の結了等,,,2015-10-05,1,,,,,オガワコウギョウ,0
2180,9030002122021,登記記録の閉鎖等,0,2023-11-28,2023-11-17,有限会社三島,,有限会社,埼玉県,秩父郡小鹿野町,下小鹿野１９９０番地,,11,365,3680101,,,2023-11-17,清算の結了等,,,2015-10-05,1,,,,,ミシマ,0
2192,9070001025155,登記記録の閉鎖等,0,2023-11-28,2023-11-20,カトウ株式会社,,株式会社,群馬県,沼田市,高橋場町２１１５番地１,,10,206,3780056,,,2023-11-20,清算の結了等,,,2015-10-05,1,,,,,カトウ,0
2206,9110002017056,登記記録の閉鎖等,0,2023-11-28,2023-11-24,有限会社建央社,,有限会社,新潟県,三条市,直江町１丁目１番１１号,,15,204,9550832,,,2023-11-24,清算の結了等,,,2015-10-05,1,,,,,ケンオウシャ,0
2208,9120001024110,登記記録の閉鎖等,0,2023-11-28,2023-11-24,株式会社体育文化指導協会,,株式会社,大阪府,大阪市天王寺区,勝山２丁目１２番８号,,27,109,5430043,,,2023-11-24,清算の結了等,,,2015-10-05,1,,,,,タイイクブンカシドウキョウカイ,0
2229,9120901015844,登記記録の閉鎖等,0,2023-11-28,2023-11-24,株式会社アルファインターナショナル,,株式会社,大阪府,茨木市,駅前４丁目４番２７号,,27,211,5670888,,,2023-11-24,清算の結了等,,,2015-10-05,1,,,,,アルファインターナショナル,0
2250,9160005009806,登記記録の閉鎖等,0,2023-11-28,2023-11-24,司法書士法人隼,,その他の設立登記法人,滋賀県,草津市,野村２丁目３番１８号,,25,206,5250027,,,2023-11-24,清算の結了等,,,2015-10-05,1,,,,,ハヤブサ,0
2262,9180301032154,登記記録の閉鎖等,0,2023-11-28,2023-11-24,株式会社ＳＭＤ,,株式会社,愛知県,豊橋市,曙町字測点１４９番地２,,23,201,4418151,,,2023-11-24,清算の結了等,,,2018-12-26,1,,,,,アイチジョウホウセンター,0
2263,9180302027153,登記記録の閉鎖等,0,2023-11-28,2023-11-20,有限会社犬塚鶏卵,00075253,有限会社,愛知県,西尾市,細池町南側２４番地,,23,213,4450047,,,2023-11-20,清算の結了等,,,2015-10-05,1,,,,,イヌヅカケイラン,0
2267,9190002012272,登記記録の閉鎖等,0,2023-11-28,2023-11-22,有限会社ナカマサコーポレーシヨン,,有限会社,三重県,伊賀市,湯屋谷１１０７番地,,24,216,5181146,,,2023-11-22,清算の結了等,,,2015-10-05,1,,,,,ナカマサコーポレーション,0
2274,9220003001015,登記記録の閉鎖等,0,2023-11-28,2023-11-27,合同会社無極,,合同会社,石川県,金沢市,片町１丁目５番１５号,,17,201,9200981,,,2023-11-27,清算の結了等,,,2015-10-05,1,,,,,ムキョク,0
2279,9260001014824,登記記録の閉鎖等,0,2023-11-28,2023-11-24,丸徳食品株式会社,,株式会社,岡山県,倉敷市,児島味野４丁目１０番８号,,33,202,7110913,,,2023-11-24,清算の結了等,,,2015-10-05,1,,,,,マルトクショクヒン,0
2280,9260001023924,登記記録の閉鎖等,0,2023-11-28,2023-11-24,株式会社アートクラフト,,株式会社,岡山県,岡山市南区,三浜町２丁目２番１１号,,33,104,7028036,,,2023-11-24,清算の結了等,,,2015-10-05,1,,,,,,0
2281,9260002021786,登記記録の閉鎖等,0,2023-11-28,2023-11-27,有限会社ヤシロ,,有限会社,岡山県,倉敷市,水島西常盤町８番２５号,,33,202,7128059,,,2023-11-27,清算の結了等,,,2015-10-05,1,,,,,ヤシロ,0
2283,9290001058331,登記記録の閉鎖等,0,2023-11-28,2023-11-21,株式会社ＭＬＦ,,株式会社,東京都,中央区,日本橋堀留町２丁目６番６号,,13,102,1030012,,,2023-11-21,清算の結了等,,,2015-10-05,1,,,,,エムエルエフ,0
2296,9290801008758,登記記録の閉鎖等,0,2023-11-28,2023-11-27,ｓａｋｕｒａ　ｆｏｏｄｓ株式会社,,株式会社,福岡県,北九州市小倉北区,下到津５丁目９番３１号,,40,106,8030846,,,2023-11-27,清算の結了等,,,2015-10-05,1,,,,,,0
2307,9340002004428,登記記録の閉鎖等,0,2023-11-28,2023-11-27,有限会社佐土原測量設計社,,有限会社,鹿児島県,鹿児島市,魚見町１５５番地３２,,46,201,8910112,,,2023-11-27,清算の結了等,,,2015-10-05,1,,,,,サドハラソクリョウセッケイシャ,0
2309,9360001016918,登記記録の閉鎖等,0,2023-11-28,2023-11-24,ユウケンくりま株式会社,,株式会社,沖縄県,宮古島市,下地字来間２７２番地８,,47,214,9060306,,,2023-11-24,清算の結了等,,,2015-10-05,1,,,,,ユウケンクリマ,0
2318,9430001001540,登記記録の閉鎖等,0,2023-11-28,2023-11-21,株式会社一光社,,株式会社,北海道,札幌市西区,山の手六条７丁目３番２号,,01,107,0630006,,,2023-11-21,清算の結了等,,,2015-10-05,1,,,,,イッコウシャ,0
