sequenceNumber,corporateNumber,process,correct,updateDate,changeDate,name,nameImageId,kind,prefectureName,cityName,streetNumber,addressImageId,prefectureCode,cityCode,postCode,addressOutside,addressOutsideImageId,closeDate,closeCause,successorCorporateNumber,changeCause,assignmentDate,latest,enName,enPrefectureName,enCityName,enAddressOutside,furigana,hihyoji
4,1010001226708,新規,0,2022-05-20,2022-05-20,株式会社Ｙ・ＳＱＵＡＲＥ,,株式会社,東京都,中央区,晴海１丁目８番５－３０６号,,13,102,1040053,,,,,,,2022-05-20,1,,,,,ワイスクエア,0
5,1010001226716,新規,0,2022-05-20,2022-05-20,株式会社ＫＩＺＵＮＡ,,株式会社,東京都,千代田区,外神田２丁目１番４号－４０９,,13,101,1010021,,,,,,,2022-05-20,1,,,,,キズナ,0
10,1010003037715,新規,0,2022-05-20,2022-05-20,合同会社ＡＮＺＡＩ,,合同会社,東京都,文京区,大塚１丁目４番１５号,,13,105,1120012,,,,,,,2022-05-20,1,,,,,アンザイ,0
16,1010401167279,新規,0,2022-05-20,2022-05-20,株式会社ＡＬＯＭＹ,,株式会社,東京都,港区,赤坂２丁目１６番６号ＢＩＺＭＡＲＫＳ赤坂,,13,103,1070052,,,,,,,2022-05-20,1,,,,,アロミー,0
17,1010401167287,新規,0,2022-05-20,2022-05-20,株式会社ＰＲＯＪＥＣＴＳ,,株式会社,東京都,港区,浜松町２丁目２－１５浜松町ダイヤビル２Ｆ,,13,103,1050013,,,,,,,2022-05-20,1,,,,,プロジェクツ,0
18,1010401167386,新規,0,2022-05-20,2022-05-20,ＫＤＤＩ　Ｄｉｇｉｔａｌ　Ｄｉｖｅｒｇｅｎｃｅ　Ｈｏｌｄｉｎｇｓ株式会社,,株式会社,東京都,港区,虎ノ門２丁目１０番１号,,13,103,1050001,,,,,,,2022-05-20,1,,,,,ケイディーディーアイデジタルダイバージェンスホールディングス,0
21,1010403027621,新規,0,2022-05-20,2022-05-20,合同会社シップスビレッジ,,合同会社,東京都,港区,白金３丁目５－１１Ｄグランセ白金３０２,,13,103,1080072,,,,,,,2022-05-20,1,,,,,シップスビレッジ,0
22,1010403027662,新規,0,2022-05-20,2022-05-20,合同会社Ｍ‐ＣＩＴＲＩＮＥ,,合同会社,東京都,港区,南青山５丁目４番１９号２０３,,13,103,1070062,,,,,,,2022-05-20,1,,,,,エムシトリン,0
23,1010403027679,新規,0,2022-05-20,2022-05-20,Ｋ‐Ｋｉｔｃｈｅｎ合同会社,,合同会社,東京都,港区,元麻布１丁目５番１６ー１０２号,,13,103,1060046,,,,,,,2022-05-20,1,,,,,ケイキッチン,0
31,1010701042669,新規,0,2022-05-20,2022-05-20,株式会社Ｓｔａｒ　Ｐｌａｔｉｎｕｍ　Ｃｏｍｍｕｎｉｃａｔｉｏｎｓ,,株式会社,東京都,品川区,西五反田８丁目３番１６号,,13,109,1410031,,,,,,,2022-05-20,1,,,,,スタープラチナコミュニケーションズ,0
36,1010801032982,新規,0,2022-05-20,2022-05-20,ヴルーヴ株式会社,,株式会社,東京都,大田区,羽田空港１丁目１番４号,,13,111,1440041,,,,,,,2022-05-20,1,,,,,ヴルーヴ,0
50,1011001147456,新規,0,2022-05-20,2022-05-20,株式会社Ｃｌｏｕｔｉｅｒ,,株式会社,東京都,渋谷区,富ヶ谷１丁目３５番１２－４０１号グランレ・ジェイド渋谷富ヶ谷,,13,113,1510063,,,,,,,2022-05-20,1,,,,,クラウティア,0
51,1011001147588,新規,0,2022-05-20,2022-05-20,株式会社ユニバーサル・ラボラトリーズ,,株式会社,東京都,渋谷区,道玄坂１丁目１０番８号渋谷道玄坂東急ビル２Ｆ－Ｃ,,13,113,1500043,,,,,,,2022-05-20,1,,,,,,0
52,1011001147605,新規,0,2022-05-20,2022-05-20,Ｈｕｅｅｅ株式会社,,株式会社,東京都,渋谷区,渋谷２丁目１９－１５宮益坂ビルディング６０９,,13,113,1500002,,,,,,,2022-05-20,1,,,,,ヒュー,0
55,1011003014695,新規,0,2022-05-20,2022-05-20,Ｖｉｏｌｙ合同会社,,合同会社,東京都,渋谷区,神宮前６丁目２３番４号桑野ビル２階,,13,113,1500001,,,,,,,2022-05-20,1,,,,,,0
59,1011101098888,新規,0,2022-05-20,2022-05-20,株式会社ＫＦＦ商事,,株式会社,東京都,新宿区,大久保３丁目１０番１－８０３号,,13,104,1690072,,,,,,,2022-05-20,1,,,,,ケイエフエフショウジ,0
60,1011101098896,新規,0,2022-05-20,2022-05-20,株式会社おもしろく,,株式会社,東京都,新宿区,市谷本村町３番２５－６０４号,,13,104,1620845,,,,,,,2022-05-20,1,,,,,オモシロク,0
66,1011401024239,新規,0,2022-05-20,2022-05-20,株式会社Ｒｉｚ,,株式会社,東京都,板橋区,蓮沼町８－３,,13,119,1740052,,,,,,,2022-05-20,1,,,,,ライズ,0
67,1011403003661,新規,0,2022-05-20,2022-05-20,合同会社八伸サービス,,合同会社,東京都,板橋区,成増１丁目２６－５トレジャリィ成増４０２号室,,13,119,1750094,,,,,,,2022-05-20,1,,,,,ハチノブサービス,0
74,1011801040744,新規,0,2022-05-20,2022-05-20,株式会社アイキクレール,,株式会社,東京都,足立区,古千谷本町４丁目６番５号,,13,121,1210832,,,,,,,2022-05-20,1,,,,,アイキクレール,0
75,1011803005101,新規,0,2022-05-20,2022-05-20,合同会社ＲＥＤ　ＬＩＮＥ,,合同会社,東京都,葛飾区,青戸７丁目２３番１１号,,13,122,1250062,,,,,,,2022-05-20,1,,,,,レッドライン,0
77,1012401039219,新規,0,2022-05-20,2022-05-20,株式会社アーク,,株式会社,東京都,武蔵野市,境南町５丁目１１番３０号,,13,203,1800023,,,,,,,2022-05-20,1,,,,,アーク,0
78,1012801021585,新規,0,2022-05-20,2022-05-20,株式会社頑亭文庫,,株式会社,東京都,国立市,中２丁目２番地の１,,13,215,1860004,,,,,,,2022-05-20,1,,,,,ガンテイブンコ,0
93,1021001076010,新規,0,2022-05-20,2022-05-20,株式会社ベアブック,,株式会社,神奈川県,相模原市中央区,淵野辺２丁目５番６１－２１２号,,14,152,2520206,,,,,,,2022-05-20,1,,,,,ベアブック,0
108,1030003019430,新規,0,2022-05-20,2022-05-20,合同会社唐木木工,,合同会社,埼玉県,川越市,幸町１４番地３,,11,201,3500063,,,,,,,2022-05-20,1,,,,,カラキモッコウ,0
109,1030003019447,新規,0,2022-05-20,2022-05-20,合同会社Ｖｏｙａｇｅｒ,,合同会社,埼玉県,桶川市,西２丁目９番４２号,,11,231,3630017,,,,,,,2022-05-20,1,,,,,ボイジャー,0
110,1030003019455,新規,0,2022-05-20,2022-05-20,ＣＳホールディングス合同会社,,合同会社,埼玉県,草加市,吉町５丁目６番４２号マリーズＡ－１０６号,,11,221,3400017,,,,,,,2022-05-20,1,,,,,シーエスホールディングス,0
120,1040003020057,新規,0,2022-05-20,2022-05-20,合同会社リコネット,,合同会社,千葉県,千葉市美浜区,稲毛海岸１丁目１－２８パークホームズ稲毛海岸ラコリエル６０１,,12,106,2610005,,,,,,,2022-05-20,1,,,,,リコネット,0
128,1070001039253,新規,0,2022-05-20,2022-05-20,株式会社ＺＡＬＭＩ　ＴＲＡＤＩＮＧ,,株式会社,群馬県,太田市,熊野町２８番８号２Ｃ,,10,205,3730025,,,,,,,2022-05-20,1,,,,,ザルミトレーディング,0
131,1070005009995,新規,0,2022-05-20,2022-05-20,ＮＰＯ法人ぐんまアサーションラボ,,その他の設立登記法人,群馬県,藤岡市,上戸塚３３番地３,,10,209,3750013,,,,,,,2022-05-20,1,,,,,グンマアサーションラボ,0
150,1120001246018,新規,0,2022-05-20,2022-05-20,株式会社Ｍａｘ　Ｓｔｙｌｅ,,株式会社,大阪府,大阪市浪速区,下寺２丁目６－１０シエスタイレブン３０２号,,27,111,5560001,,,,,,,2022-05-20,1,,,,,マックススタイル,0
152,1120101065615,新規,0,2022-05-20,2022-05-20,株式会社禰占,,株式会社,大阪府,高石市,綾園５丁目１番６号,,27,225,5920014,,,,,,,2022-05-20,1,,,,,ネジメ,0
155,1120901045980,新規,0,2022-05-20,2022-05-20,株式会社ＢＡＲＤＩＮＧ,,株式会社,大阪府,茨木市,三島丘２丁目８番１４号,,27,211,5670021,,,,,,,2022-05-20,1,,,,,バーディング,0
156,1120903004159,新規,0,2022-05-20,2022-05-20,ＩＴＯＭＡ合同会社,,合同会社,大阪府,吹田市,南金田２丁目２８－２２ハーヴェスト江坂６０２号室,,27,205,5640044,,,,,,,2022-05-20,1,,,,,イトマ,0
165,1140001126052,新規,0,2022-05-20,2022-05-20,株式会社ＢＯＮ　ＣＨＩＣ・ＨＯＭＥ,,株式会社,兵庫県,姫路市,佃町８７番地,,28,201,6728049,,,,,,,2022-05-20,1,,,,,ボンシックホーム,0
187,1180005019777,新規,0,2022-05-20,2022-05-20,一般社団法人名古屋市立大学外科同門会,,その他の設立登記法人,愛知県,名古屋市瑞穂区,瑞穂町字川澄１番地,,23,108,4670001,,,,,,,2022-05-20,1,,,,,ナゴヤイチリツダイガクゲカドウモンカイ,0
200,1240001059787,新規,0,2022-05-20,2022-05-20,株式会社シナプルリンク,,株式会社,広島県,広島市中区,大手町１丁目１番２６号,,34,101,7300051,,,,,,,2022-05-20,1,,,,,シナプルリンク,0
209,1260001036859,新規,0,2022-05-20,2022-05-20,株式会社ＴｈｅｒａＧＡＴＥ,,株式会社,岡山県,岡山市北区,柳町２丁目１１－２０ダイレクトビル２Ｆ,,33,101,7000904,,,,,,,2022-05-20,1,,,,,セラゲート,0
215,1290001097601,新規,0,2022-05-20,2022-05-20,株式会社Ｇｏ　Ｒｕｄｏｒａ,,株式会社,福岡県,福岡市博多区,住吉３丁目１－８０オヌキ新博多ビル１１０４,,40,132,8120018,,,,,,,2022-05-20,1,,,,,ゴールドラ,0
219,1290003012509,新規,0,2022-05-20,2022-05-20,合同会社エフ・アイ,,合同会社,福岡県,筑紫野市,大字若江６１番地１（エスポワール６０５号）,,40,217,8180023,,,,,,,2022-05-20,1,,,,,エフアイ,0
220,1290003012533,新規,0,2022-05-20,2022-05-20,合同会社ブルー企画,,合同会社,福岡県,古賀市,青柳町３４２番地３,,40,223,8113133,,,,,,,2022-05-20,1,,,,,ブルーキカク,0
221,1290801028549,新規,0,2022-05-20,2022-05-20,株式会社ケーフォース,,株式会社,福岡県,北九州市八幡西区,熊手３丁目１番４－９１０号,,40,109,8060028,,,,,,,2022-05-20,1,,,,,ケーフォース,0
224,1320001019072,新規,0,2022-05-20,2022-05-20,株式会社Ｐ＆Ａ　ＬＵＭＩＮＥ,,株式会社,大分県,大分市,大字月形字大坪７２４番地,,44,201,8797872,,,,,,,2022-05-20,1,,,,,ピーアンドエールミネ,0
229,1360001030430,新規,0,2022-05-20,2022-05-20,株式会社ＫＪ,,株式会社,沖縄県,浦添市,宮城４丁目１番５号,,47,208,9012126,,,,,,,2022-05-20,1,,,,,ケイジェイ,0
230,1360005006658,新規,0,2022-05-20,2022-05-20,税理士法人山猫会計,,その他の設立登記法人,沖縄県,宮古島市,平良字東仲宗根７５７番地１５,,47,214,9060007,,,,,,,2022-05-20,1,,,,,ヤマネコカイケイ,0
239,1430001086647,新規,0,2022-05-20,2022-05-20,株式会社ＳＨＩＮＥＩ,,株式会社,北海道,札幌市白石区,菊水元町七条４丁目５番２０－２０３号,,01,104,0030827,,,,,,,2022-05-20,1,,,,,シンエイ,0
240,1430001086671,新規,0,2022-05-20,2022-05-20,株式会社エスエイト,,株式会社,北海道,札幌市中央区,南四条西６丁目８番地晴ばれビル,,01,101,0640804,,,,,,,2022-05-20,1,,,,,エスエイト,0
247,1450005004339,新規,0,2022-05-20,2022-05-20,農事組合法人セイビセンター,,その他の設立登記法人,北海道,上川郡美瑛町,字置杵牛上精美,,01,459,0710234,,,,,,,2022-05-20,1,,,,,セイビセンター,0
249,1700150108496,新規,0,2022-05-20,2022-05-06,ＮＡＧＡＮＯスマートシティコミッション,,その他,長野県,長野市,大字鶴賀緑町１６１３,,20,201,3800813,,,,,,,2022-05-06,1,,,,,ナガノスマートシテイコミツシヨン,0
250,1700150108505,新規,0,2022-05-20,2022-05-06,Ｅｓｔｕｄｉｏ　Ｆｕｔｕｒｏ,,その他,東京都,目黒区,八雲３丁目１８番１号パインハースト荘１０２,,13,110,1520023,,,,,,,2022-05-06,1,,,,,エストウーデイオフトウーロ,0
261,2010003037689,新規,0,2022-05-20,2022-05-20,八峰風力インベストメント合同会社,,合同会社,東京都,中央区,日本橋１丁目４番１号日本橋一丁目ビルディング,,13,102,1030027,,,,,,,2022-05-20,1,,,,,ハッポウフウリョクインベストメント,0
268,2010401167360,新規,0,2022-05-20,2022-05-20,株式会社ナナイト,,株式会社,東京都,港区,港南１丁目１５番１号品川インターシティＡ棟２８階,,13,103,1080075,,,,,,,2022-05-20,1,,,,,ナナイト,0
269,2010401167385,新規,0,2022-05-20,2022-05-20,株式会社シネマイニュティル,,株式会社,東京都,港区,赤坂２丁目５番８号ヒューリックＪＰ赤坂ビル５Ｆ,,13,103,1070052,,,,,,,2022-05-20,1,,,,,シネマイニュティル,0
271,2010403027661,新規,0,2022-05-20,2022-05-20,合同会社Ｍ‐ＥＭＥＲＡＬＤ,,合同会社,東京都,港区,南青山５丁目４番１９号２０３,,13,103,1070062,,,,,,,2022-05-20,1,,,,,エムエメラルド,0
272,2010403027678,新規,0,2022-05-20,2022-05-20,合同会社ＣＣＭ一級ＦＰ事務所,,合同会社,東京都,港区,南青山２丁目２番１５号,,13,103,1070062,,,,,,,2022-05-20,1,,,,,シーシーエムイッキュウエフピージムショ,0
275,2010703006225,新規,0,2022-05-20,2022-05-20,ＴＥＣＨ　ＰＬＵＳ合同会社,,合同会社,東京都,品川区,大崎３丁目５番３号ＬＤＳ本社ビル６階,,13,109,1410032,,,,,,,2022-05-20,1,,,,,テックプラス,0
278,2010801032965,新規,0,2022-05-20,2022-05-20,株式会社フィンカ,,株式会社,東京都,大田区,田園調布２丁目６１番１－７０５号,,13,111,1450071,,,,,,,2022-05-20,1,,,,,フィンカ,0
282,2010901050883,新規,0,2022-05-20,2022-05-20,株式会社ライクライフ,,株式会社,東京都,世田谷区,奥沢２丁目３３番７号－１,,13,112,1580083,,,,,,,2022-05-20,1,,,,,ライクライフ,0
283,2010901050900,新規,0,2022-05-20,2022-05-20,ＲＯＯＢＩＫ株式会社,,株式会社,東京都,世田谷区,岡本３丁目２４番６号,,13,112,1570076,,,,,,,2022-05-20,1,,,,,ルービック,0
292,2011001147406,新規,0,2022-05-20,2022-05-20,株式会社ｈｕｍｏｒｏｕｓ,,株式会社,東京都,目黒区,中根１丁目１６番１９号,,13,110,1520031,,,,,,,2022-05-20,1,,,,,ユーモラス,0
293,2011001147414,新規,0,2022-05-20,2022-05-20,株式会社ＡＣＨＲＯＭＯＮＯ,,株式会社,東京都,渋谷区,渋谷２丁目１９－１５宮益坂ビルディング６０９,,13,113,1500002,,,,,,,2022-05-20,1,,,,,,0
294,2011001147645,新規,0,2022-05-20,2022-05-20,株式会社Ｓｐｉｃａ,,株式会社,東京都,渋谷区,恵比寿南１丁目１０番７－９０８号,,13,113,1500022,,,,,,,2022-05-20,1,,,,,スピカ,0
295,2011003014694,新規,0,2022-05-20,2022-05-20,合同会社ＶＡＵＬＴ,,合同会社,東京都,渋谷区,渋谷２丁目１９－１５宮益坂ビルディング６０９,,13,113,1500002,,,,,,,2022-05-20,1,,,,,,0
297,2011101098879,新規,0,2022-05-20,2022-05-20,株式会社Ｊ‐ＳＴＡＲ,,株式会社,東京都,新宿区,高田馬場１丁目２７番３号,,13,104,1690075,,,,,,,2022-05-20,1,,,,,ジェイスター,0
298,2011101098895,新規,0,2022-05-20,2022-05-20,株式会社ＦＡＩＲマーケティング,,株式会社,東京都,新宿区,西新宿７丁目７－２６ワコーレ新宿第一ビル８０７,,13,104,1600023,,,,,,,2022-05-20,1,,,,,フェアーマーケティング,0
303,2011403003660,新規,0,2022-05-20,2022-05-20,合同会社Ａ＆Ｒ,,合同会社,東京都,板橋区,赤塚新町１丁目２４番８号阿部ビル地下１階,,13,119,1750093,,,,,,,2022-05-20,1,,,,,エーアンドアール,0
313,2011701025308,新規,0,2022-05-20,2022-05-20,株式会社テラス,,株式会社,東京都,江戸川区,西小岩３丁目３４番１２号,,13,123,1330057,,,,,,,2022-05-20,1,,,,,テラス,0
340,2021001076018,新規,0,2022-05-20,2022-05-20,株式会社ヒロプランニング,,株式会社,神奈川県,高座郡寒川町,小谷１丁目９番５号メゾンドアカシヤ１０５号,,14,321,2530103,,,,,,,2022-05-20,1,,,,,ヒロプランニング,0
341,2021003011716,新規,0,2022-05-20,2022-05-20,合同会社ＧＥ,,合同会社,神奈川県,鎌倉市,由比ガ浜１丁目１番３０－１０１号,,14,204,2480014,,,,,,,2022-05-20,1,,,,,ジーイー,0
348,2030001148271,新規,0,2022-05-20,2022-05-20,株式会社ｏｎｅ　ｓ,,株式会社,埼玉県,富士見市,鶴馬２丁目６番１３号,,11,235,3540021,,,,,,,2022-05-20,1,,,,,ワンエス,0
353,2030003019438,新規,0,2022-05-20,2022-05-20,合同会社コモンズ,,合同会社,埼玉県,さいたま市南区,南本町２丁目１４－１８第壱六ユーセードムス４０５,,11,108,3360018,,,,,,,2022-05-20,1,,,,,コモンズ,0
354,2030003019446,新規,0,2022-05-20,2022-05-20,Ｋ　Ｐｒｉｎｃｅｓｓ合同会社,,合同会社,埼玉県,さいたま市南区,大字太田窪２２４０番地１トマトハウス２０１,,11,108,3360015,,,,,,,2022-05-20,1,,,,,ケイプリンセス,0
364,2040003020064,新規,0,2022-05-20,2022-05-20,ＤＥＥＮ　ＴＲＡＤＩＮＧ合同会社,,合同会社,千葉県,柏市,泉４２８番地１,,12,217,2701456,,,,,,,2022-05-20,1,,,,,ディーントレーディング,0
368,2050003006566,新規,0,2022-05-20,2022-05-20,合同会社いちばん星,,合同会社,茨城県,稲敷郡阿見町,南平台１丁目２３番地３,,08,443,3000312,,,,,,,2022-05-20,1,,,,,イチバンボシ,0
372,2070001039252,新規,0,2022-05-20,2022-05-20,株式会社ハイドロテクニカ,,株式会社,群馬県,前橋市,南町４丁目３７番地１アルファビル南町１０２号,,10,201,3710805,,,,,,,2022-05-20,1,,,,,ハイドロテクニカ,0
390,2120001246009,新規,0,2022-05-20,2022-05-20,株式会社とよじ屋,,株式会社,大阪府,大阪市東成区,深江北２丁目１４番１１号,,27,115,5370001,,,,,,,2022-05-20,1,,,,,トヨジヤ,0
391,2120001246033,新規,0,2022-05-20,2022-05-20,ＴＥＣＨＲＥＮＴ株式会社,,株式会社,大阪府,大阪市北区,梅田２丁目５番１３号,,27,127,5300001,,,,,,,2022-05-20,1,,,,,テックレント,0
399,2122001035886,新規,0,2022-05-20,2022-05-20,ＦＴＨ株式会社,,株式会社,大阪府,八尾市,春日町４丁目２番１８号,,27,212,5810061,,,,,,,2022-05-20,1,,,,,エフティーエイチ,0
403,2130003007936,新規,0,2022-05-20,2022-05-20,新京都観光タクシーグループ合同会社,,合同会社,京都府,京都市山科区,小山西御所町２１番地２０５号,,26,110,6078109,,,,,,,2022-05-20,1,,,,,シンキョウトカンコウタクシーグループ,0
412,2140003017703,新規,0,2022-05-20,2022-05-20,合同会社アトエプロダクション,,合同会社,兵庫県,神戸市中央区,磯上通４丁目１－１４三宮スカイビル７Ｆ,,28,110,6510086,,,,,,,2022-05-20,1,,,,,アトエプロダクション,0
415,2150001025558,新規,0,2022-05-20,2022-05-20,株式会社ウエルビーファーマシー,,株式会社,奈良県,北葛城郡広陵町,馬見北５丁目１番地２１号,,29,426,6350831,,,,,,,2022-05-20,1,,,,,ウエルビーファーマシー,0
435,2180005019776,新規,0,2022-05-20,2022-05-20,一般社団法人大番頭Ｍ＆Ａサポート,,その他の設立登記法人,愛知県,名古屋市中区,正木４丁目１０番１６,,23,106,4600024,,,,,,,2022-05-20,1,,,,,オオバンドウエムアンドエーサポート,0
449,2260001036858,新規,0,2022-05-20,2022-05-20,株式会社にじいろの空,,株式会社,岡山県,加賀郡吉備中央町,西２９０番地,,33,681,7161554,,,,,,,2022-05-20,1,,,,,ニジイロノソラ,0
459,2290003012524,新規,0,2022-05-20,2022-05-20,ナシエンテ合同会社,,合同会社,福岡県,大牟田市,大字宮部３６２番地１２,,40,202,8370914,,,,,,,2022-05-20,1,,,,,ナシエンテ,0
470,2360001030454,新規,0,2022-05-20,2022-05-20,株式会社翔業,,株式会社,沖縄県,那覇市,泊１丁目７番地１０コンフォートゲンジュン６０５,,47,201,9000012,,,,,,,2022-05-20,1,,,,,ショウギョウ,0
476,2390001016896,新規,0,2022-05-20,2022-05-20,株式会社ＲＥＣＲＡＳ,,株式会社,山形県,山形市,蔵王半郷２５０番地８,,06,201,9902305,,,,,,,2022-05-20,1,,,,,リクラス,0
481,2430001086670,新規,0,2022-05-20,2022-05-20,ＫＲＳ株式会社,,株式会社,北海道,石狩市,花川北二条１丁目５番地５８,,01,235,0613212,,,,,,,2022-05-20,1,,,,,ケーアールエス,0
485,2700150108388,新規,0,2022-05-20,2022-04-27,音文協年末公演実行委員会,,その他,石川県,金沢市,平和町１丁目３－１石川県平和町庁舎,,17,201,9218105,,,,,,,2022-04-27,1,,,,,オンブンキヨウネンマツコウエンジツコウイインカイ,0
486,2700150108883,新規,0,2022-05-20,2022-05-20,Ｌｉｎｏｄｅ　Ｉｎｔｅｒｎａｔｉｏｎａｌ　Ｓｅｒｖｉｃｅｓ，Ｃｏ．,,外国会社等,東京都,品川区,東品川２丁目２－４３,,13,109,1400002,アメリカ合衆国ペンシルベニア州フィラデルフィア、アーチ・ストリート２４９,,,,,,2022-05-20,1,,,,,リノードインターナシヨナルサービシーズコーポレーシヨン,0
494,3010001226664,新規,0,2022-05-20,2022-05-20,株式会社ＴＷＩＮ　ＳＴＡＲ,,株式会社,東京都,千代田区,丸の内１丁目８番２号鉄鋼ビルディング４Ｆ,,13,101,1000005,,,,,,,2022-05-20,1,,,,,ツインスター,0
495,3010001226771,新規,0,2022-05-20,2022-05-20,株式会社オーバーラップホールディングス,,株式会社,東京都,千代田区,大手町１丁目１番１号,,13,101,1000004,,,,,,,2022-05-20,1,,,,,オーバーラップホールディングス,0
498,3010003037721,新規,0,2022-05-20,2022-05-20,合同会社ＢＭ　Ｉｎｔｅｒｎａｔｉｏｎａｌ,,合同会社,東京都,文京区,関口１丁目２３番６号,,13,105,1120014,,,,,,,2022-05-20,1,,,,,ビーエムインターナショナル,0
503,3010103001916,新規,0,2022-05-20,2022-05-20,合同会社愛珠咲,,合同会社,東京都,八王子市,下恩方町１５７１番地３,,13,201,1920154,,,,,,,2022-05-20,1,,,,,アズサ,0
505,3010401167194,新規,0,2022-05-20,2022-05-20,株式会社一如,,株式会社,東京都,港区,赤坂３丁目１１番７号ソシアル赤坂４階,,13,103,1070052,,,,,,,2022-05-20,1,,,,,イチニョ,0
506,3010401167302,新規,0,2022-05-20,2022-05-20,株式会社キッズリターン,,株式会社,東京都,港区,西麻布３丁目２番４３号西麻布３２４３ビル３階,,13,103,1060031,,,,,,,2022-05-20,1,,,,,キッズリターン,0
507,3010401167368,新規,0,2022-05-20,2022-05-20,ＧｒｏｗＨａｃｋ株式会社,,株式会社,東京都,港区,海岸３丁目６－３２レグノオンザベイ８０５,,13,103,1080022,,,,,,,2022-05-20,1,,,,,グローハック,0
509,3010405020993,新規,0,2022-05-20,2022-05-20,一般社団法人地熱電力推進協会,,その他の設立登記法人,東京都,港区,南麻布２丁目５番２１号イデア南麻布６階,,13,103,1060047,,,,,,,2022-05-20,1,,,,,チネツデンリョクスイシンキョウカイ,0
519,3010701042675,新規,0,2022-05-20,2022-05-20,ＮＳ医療コンサルティング株式会社,,株式会社,東京都,品川区,旗の台２丁目５番３－４０４号,,13,109,1420064,,,,,,,2022-05-20,1,,,,,エヌエスイリョウコンサルティング,0
524,3010901050882,新規,0,2022-05-20,2022-05-20,株式会社スリード,,株式会社,東京都,世田谷区,太子堂４丁目３０番６号,,13,112,1540004,,,,,,,2022-05-20,1,,,,,スリード,0
529,3011001147454,新規,0,2022-05-20,2022-05-20,株式会社ローカルマーケティングパートナーズ,,株式会社,東京都,渋谷区,渋谷２丁目１９－１５宮益坂ビルディング６０９,,13,113,1500002,,,,,,,2022-05-20,1,,,,,ローカルマーケティングパートナーズ,0
530,3011001147470,新規,0,2022-05-20,2022-05-20,株式会社Ｓｐｕｍａ,,株式会社,東京都,渋谷区,道玄坂２丁目１６番３号キャッツビル７階,,13,113,1500043,,,,,,,2022-05-20,1,,,,,スプーマ,0
531,3011001147520,新規,0,2022-05-20,2022-05-20,株式会社Ｎｏ　Ｓａｉｎｔ．＆Ｂｌｏｏｍ,,株式会社,東京都,渋谷区,神宮前６丁目２３番４号桑野ビル２階,,13,113,1500001,,,,,,,2022-05-20,1,,,,,,0
532,3011001147561,新規,0,2022-05-20,2022-05-20,株式会社ＭａｒｖｅｌＷｏｒｋｓ,,株式会社,東京都,渋谷区,神泉町１番２０－３０１号,,13,113,1500045,,,,,,,2022-05-20,1,,,,,マーベルワークス,0
533,3011001147603,新規,0,2022-05-20,2022-05-20,株式会社キネクト,,株式会社,東京都,渋谷区,道玄坂１丁目１０番８号渋谷道玄坂東急ビル２Ｆ－Ｃ,,13,113,1500043,,,,,,,2022-05-20,1,,,,,,0
534,3011003014693,新規,0,2022-05-20,2022-05-20,Ｒｏｌｌｕｐ合同会社,,合同会社,東京都,渋谷区,道玄坂１丁目１０番８号渋谷道玄坂東急ビル２Ｆ－Ｃ,,13,113,1500043,,,,,,,2022-05-20,1,,,,,,0
535,3011003014710,新規,0,2022-05-20,2022-05-20,合同会社オフィスｎｅｋｏｇｏｒｏ,,合同会社,東京都,目黒区,大橋１丁目８番１１－７０６号クオリア目黒大橋ウエスト,,13,110,1530044,,,,,,,2022-05-20,1,,,,,オフィスネコゴロ,0
537,3011101098911,新規,0,2022-05-20,2022-05-20,株式会社エアライズ,,株式会社,東京都,新宿区,西落合１丁目２０－１８ルーブル新宿西落合参番館１０５,,13,104,1610031,,,,,,,2022-05-20,1,,,,,エアライズ,0
540,3011103011764,新規,0,2022-05-20,2022-05-20,合同会社Ｓｐｅｓ　Ｌｅａｄ,,合同会社,東京都,新宿区,西新宿３丁目３番１３号西新宿水間ビル６階,,13,104,1600023,,,,,,,2022-05-20,1,,,,,,0
541,3011103011772,新規,0,2022-05-20,2022-05-20,ｎＬｉｆｅ合同会社,,合同会社,東京都,新宿区,富久町３６－１２サンハイツ富久２０６,,13,104,1620067,,,,,,,2022-05-20,1,,,,,エヌライフ,0
554,3011701025315,新規,0,2022-05-20,2022-05-20,株式会社ＡＡＹＵＳＨ,,株式会社,東京都,江戸川区,西小岩１丁目７番１３号コーポヤマザキ４０３,,13,123,1330057,,,,,,,2022-05-20,1,,,,,アユス,0
574,3020005015526,新規,0,2022-05-20,2022-05-20,一般社団法人横浜川崎相続相談センター,,その他の設立登記法人,神奈川県,横浜市中区,尾上町１丁目６番地,,14,104,2310015,,,,,,,2022-05-20,1,,,,,ヨコハマカワサキソウゾクソウダンセンター,0
576,3021001076017,新規,0,2022-05-20,2022-05-20,株式会社あかつきエンジニアリング,,株式会社,神奈川県,相模原市中央区,清新７丁目１４番地２４号１０１,,14,152,2520216,,,,,,,2022-05-20,1,,,,,アカツキエンジニアリング,0
591,3030003019429,新規,0,2022-05-20,2022-05-20,４Ｕ合同会社,,合同会社,埼玉県,新座市,中野２丁目３番９号,,11,230,3520005,,,,,,,2022-05-20,1,,,,,フォーユー,0
592,3030003019437,新規,0,2022-05-20,2022-05-20,合同会社黒ナンＣＡＲ,,合同会社,埼玉県,川口市,大字東本郷１０１７番地１階,,11,203,3340063,,,,,,,2022-05-20,1,,,,,クロナンカー,0
593,3030003019445,新規,0,2022-05-20,2022-05-20,ＳＡＩ合同会社,,合同会社,埼玉県,上尾市,大字今泉９７番地１,,11,219,3620047,,,,,,,2022-05-20,1,,,,,エスエーアイ,0
606,3040001123388,新規,0,2022-05-20,2022-05-20,株式会社ｆｉｌｏ,,株式会社,千葉県,木更津市,畑沢１１２９－１１,,12,206,2920825,,,,,,,2022-05-20,1,,,,,フィーロ,0
607,3040001123454,新規,0,2022-05-20,2022-05-20,株式会社ＢＬＡＣＫ　ＮＥＯＮ,,株式会社,千葉県,千葉市稲毛区,小仲台６丁目１番１号Ｐ’ｓＦＲＯＮＴ稲毛６Ｆ,,12,103,2630043,,,,,,,2022-05-20,1,,,,,ブラックネオン,0
610,3040003020063,新規,0,2022-05-20,2022-05-20,合同会社プランコーポレーション,,合同会社,千葉県,市川市,鬼高２丁目２６番１号２０５,,12,203,2720015,,,,,,,2022-05-20,1,,,,,プランコーポレーション,0
611,3050003006565,新規,0,2022-05-20,2022-05-20,合同会社ＳＫＧ,,合同会社,茨城県,猿島郡境町,２１７４番地６２,,08,546,3060433,,,,,,,2022-05-20,1,,,,,エスケージー,0
615,3070005009993,新規,0,2022-05-20,2022-05-20,一般財団法人ＳＭＩ,,その他の設立登記法人,群馬県,伊勢崎市,寿町９６番地,,10,204,3720052,,,,,,,2022-05-20,1,,,,,エスエムアイ,0
623,3090005007491,新規,0,2022-05-20,2022-05-20,一般社団法人カノエサル,,その他の設立登記法人,山梨県,富士吉田市,上吉田５丁目１２－７,,19,202,4030005,,,,,,,2022-05-20,1,,,,,カノエサル,0
638,3120001246024,新規,0,2022-05-20,2022-05-20,株式会社ニッシンホーム,,株式会社,大阪府,大阪市天王寺区,大道５丁目６番８号,,27,109,5430052,,,,,,,2022-05-20,1,,,,,ニッシンホーム,0
642,3120003021714,新規,0,2022-05-20,2022-05-20,合同会社空色ラッシュ,,合同会社,大阪府,大阪市北区,梅田１丁目１－３大阪駅前第３ビル２９階１－１－１号室,,27,127,5300001,,,,,,,2022-05-20,1,,,,,ソライロラッシュ,0
643,3120003021722,新規,0,2022-05-20,2022-05-20,ＳＥＶＥＮ　ＬＯＴＵＳ合同会社,,合同会社,大阪府,大阪市阿倍野区,天王寺町北１丁目８番４７－３１７号,,27,119,5450001,,,,,,,2022-05-20,1,,,,,セブンロータス,0
648,3120901045987,新規,0,2022-05-20,2022-05-20,株式会社ＳＡＫＵＲＡ,,株式会社,大阪府,吹田市,出口町３０番１６号入江マンションＤ棟５０３号,,27,205,5640072,,,,,,,2022-05-20,1,,,,,サクラ,0
649,3122001035885,新規,0,2022-05-20,2022-05-20,株式会社Ｓ＆Ｔ,,株式会社,大阪府,八尾市,光南町１丁目２番９号２Ｆ,,27,212,5810007,,,,,,,2022-05-20,1,,,,,エスアンドティー,0
655,3140001126067,新規,0,2022-05-20,2022-05-20,ＦＬＡＧ株式会社,,株式会社,兵庫県,相生市,本郷町１－１ＴＫビル６０７,,28,208,6780006,,,,,,,2022-05-20,1,,,,,フラッグ,0
657,3140003017702,新規,0,2022-05-20,2022-05-20,ロードメディカル合同会社,,合同会社,兵庫県,神戸市東灘区,鴨子ケ原３丁目２７番１４号,,28,101,6580064,,,,,,,2022-05-20,1,,,,,ロードメディカル,0
678,3200003005568,新規,0,2022-05-20,2022-05-20,エーエム商事合同会社,,合同会社,岐阜県,関市,前山町１９番１号,,21,205,5013937,,,,,,,2022-05-20,1,,,,,エーエムショウジ,0
693,3260001036857,新規,0,2022-05-20,2022-05-20,株式会社ロンくめる,,株式会社,岡山県,総社市,西坂台１６５番地,,33,208,7191165,,,,,,,2022-05-20,1,,,,,ロンクメル,0
704,3290003012531,新規,0,2022-05-20,2022-05-20,合同会社ａｅｃｕｓ,,合同会社,福岡県,福岡市南区,的場１丁目１０番２６号,,40,134,8111314,,,,,,,2022-05-20,1,,,,,イークス,0
705,3330003009374,新規,0,2022-05-20,2022-05-20,合同会社ヒカリあーる,,合同会社,熊本県,上益城郡山都町,白藤６５４,,43,447,8613664,,,,,,,2022-05-20,1,,,,,ヒカリアール,0
717,3410001013188,新規,0,2022-05-20,2022-05-20,株式会社エムコレ,,株式会社,秋田県,潟上市,飯田川下虻川字道心谷地４８番地４,,05,211,0181502,,,,,,,2022-05-20,1,,,,,エムコレ,0
719,3410003003658,新規,0,2022-05-20,2022-05-20,合同会社Ｃ’ｓ　Ｇａｒｄｅｎ,,合同会社,秋田県,大仙市,大花町８番８号,,05,212,0140022,,,,,,,2022-05-20,1,,,,,シーズガーデン,0
727,3430001086686,新規,0,2022-05-20,2022-05-20,株式会社ｆｏｒｔｕｎａ,,株式会社,北海道,札幌市中央区,宮の森二条１０丁目１－３２－３０１,,01,101,0640952,,,,,,,2022-05-20,1,,,,,フォルトゥーナ,0
737,3700150107744,新規,0,2022-05-20,2022-04-11,石川県マジック＆パフォーマー協会,,その他,石川県,白山市,福留町２０９３－１,,17,210,9240051,,,,,,,2022-04-11,1,,,,,イシカワケンマジツクアンドパフオーマーキヨウカイ,0
738,3700150108206,新規,0,2022-05-20,2022-04-21,朽木地域住みよいまちづくり推進協議会,,その他,滋賀県,高島市,朽木市場６０４番地,,25,212,5201401,,,,,,,2022-04-21,1,,,,,クツキチイキスミヨイマチヅクリスイシンキヨウギカイ,0
739,3700150108552,新規,0,2022-05-20,2022-05-09,玖島地区コミュニティ推進協議会,,その他,広島県,廿日市市,玖島４３２３,,34,213,7380205,,,,,,,2022-05-09,1,,,,,クジマチクコミユニテイスイシンキヨウギカイ,0
740,3700150108635,新規,0,2022-05-20,2022-05-11,Ｃｅｒｃｈｉｏ,,その他,京都府,京都市左京区,松ケ崎芝本町１－１ビラ妙松館１０１,,26,103,6060913,,,,,,,2022-05-11,1,,,,,チエルキオ,0
741,3700150108742,新規,0,2022-05-20,2022-05-16,水戸トランペットアンサンブル,,その他,茨城県,ひたちなか市,津田東２丁目７－１３,,08,221,3120036,,,,,,,2022-05-16,1,,,,,ミトトランペツトアンサンブル,0
742,3700150108882,新規,0,2022-05-20,2022-05-20,ＤＲＡＧＯＮ　ＳＥＡＬ　ＬＩＭＩＴＥＤ,,外国会社等,神奈川県,藤沢市,辻堂元町６丁目２４－８,,14,205,2510043,Ｖｉｓｔｒａ　Ｃｏｒｐｏｔａｒｅ　Ｓｅｒｖｉｃｅｓ　Ｃｅｎｔｒｅ，Ｗｉｃｋｈａｍｓ　Ｃａｙ　ＩＩ，Ｒｏａｄ　Ｔｏｗｎ，Ｔｏｒｔｏｌａ，ＶＧ１１１０，Ｂｒｉｔｉｓｈ　Ｖｉｒｇｉｎ　Ｉｓｌａｎｄｓ,00126590,,,,,2022-05-20,1,,,,,ドラゴンシールリミテツド,0
743,3700150108899,新規,0,2022-05-20,2022-05-20,ＳＱＵＡＲＥ　ＫＮＯＴ　ＬＴＤ．,,外国会社等,東京都,目黒区,上目黒１丁目１３－１２サンライズ中目黒３０３,,13,110,1530051,アメリカ合衆国デラウェア州ニューアーク、サンセットレイクロード２０３５、Ｂ－２号室,,,,,,2022-05-20,1,,,,,スクエアノツトエルテイデイー,0
758,4010001226688,新規,0,2022-05-20,2022-05-20,株式会社ＦＩＬＡＲＥ,,株式会社,東京都,文京区,本郷１丁目２８番３２－１０１号,,13,105,1130033,,,,,,,2022-05-20,1,,,,,フィラーレ,0
759,4010001226721,新規,0,2022-05-20,2022-05-20,ｓａｌｖｕｓ株式会社,,株式会社,東京都,中央区,日本橋人形町１丁目２番１２号,,13,102,1030013,,,,,,,2022-05-20,1,,,,,サルヴァス,0
760,4010001226754,新規,0,2022-05-20,2022-05-20,株式会社エクシブトレーディング,,株式会社,東京都,千代田区,神田三崎町３丁目３番３号３０２,,13,101,1010061,,,,,,,2022-05-20,1,,,,,エクシブトレーディング,0
767,4010401167243,新規,0,2022-05-20,2022-05-20,株式会社Ｋ‐ＢＲＩＣ＆Ａｓｓｏｃｉａｔｅｓ,,株式会社,東京都,港区,北青山２丁目７－１３プラセオ青山,,13,103,1070061,,,,,,,2022-05-20,1,,,,,ケイブリックアンドアソシエーツ,0
768,4010401167318,新規,0,2022-05-20,2022-05-20,ＹＯＰＬＡＮＤ株式会社,,株式会社,東京都,港区,芝浦４丁目２０番２－２４２２号,,13,103,1080023,,,,,,,2022-05-20,1,,,,,ヨップランド,0
769,4010401167375,新規,0,2022-05-20,2022-05-20,株式会社輝信,,株式会社,東京都,港区,南麻布２丁目５番１４号,,13,103,1060047,,,,,,,2022-05-20,1,,,,,キシン,0
770,4010401167400,新規,0,2022-05-20,2022-05-20,株式会社ピースフラットシステム,,株式会社,東京都,港区,南青山２丁目２番１５号ＷＩＮ青山５３１,,13,103,1070062,,,,,,,2022-05-20,1,,,,,ピースフラットシステム,0
771,4010401167417,新規,0,2022-05-20,2022-05-20,株式会社Ｌｉｎｏａ,,株式会社,東京都,港区,芝２丁目５番１号,,13,103,1050014,,,,,,,2022-05-20,1,,,,,リノア,0
773,4010403027619,新規,0,2022-05-20,2022-05-20,ｄｔｂ合同会社,,合同会社,東京都,港区,南青山７丁目１０－１０パークアクシス南青山７丁目９０２,,13,103,1070062,,,,,,,2022-05-20,1,,,,,ディーティービー,0
774,4010403027627,新規,0,2022-05-20,2022-05-20,合同会社Ｐｉｃｋ　Ｙｏｕｒ　Ｏｗｎ,,合同会社,東京都,港区,南青山２丁目２番１５号,,13,103,1070062,,,,,,,2022-05-20,1,,,,,ピックユアオウン,0
779,4010601061188,新規,0,2022-05-20,2022-05-20,株式会社レギンレイヴテクノロジー,,株式会社,東京都,江東区,東陽３丁目２３番２６号東陽町コーポラス３Ｆ－７,,13,108,1350016,,,,,,,2022-05-20,1,,,,,レギンレイヴテクノロジー,0
781,4010701042674,新規,0,2022-05-20,2022-05-20,フォーアイディールジャパン株式会社,,株式会社,東京都,品川区,小山台１丁目６番８号,,13,109,1420061,,,,,,,2022-05-20,1,,,,,フォーアイディールジャパン,0
785,4010901050881,新規,0,2022-05-20,2022-05-20,株式会社ＢＯＮＤＳ東京カウンセリングサービス,,株式会社,東京都,世田谷区,松原６丁目３４番９号,,13,112,1560043,,,,,,,2022-05-20,1,,,,,ボンズトウキョウカウンセリングサービス,0
793,4011005009575,新規,0,2022-05-20,2022-05-20,弁理士法人山崎国際特許事務所,,その他の設立登記法人,東京都,渋谷区,幡ヶ谷１丁目８番３号ＶＯＲＴ幡ヶ谷９階,,13,113,1510072,,,,,,,2022-05-20,1,,,,,ヤマザキコクサイトッキョジムショ,0
794,4011005009583,新規,0,2022-05-20,2022-05-20,一般社団法人ブラザーフッド,,その他の設立登記法人,東京都,渋谷区,神宮前６丁目２３番４号桑野ビル２階,,13,113,1500001,,,,,,,2022-05-20,1,,,,,ブラザーフッド,0
800,4011101098893,新規,0,2022-05-20,2022-05-20,株式会社ＯＮＥ　ＰＩＥＣＥ,,株式会社,東京都,新宿区,新宿５丁目１８番２０号ルックハイツ新宿８０３号,,13,104,1600022,,,,,,,2022-05-20,1,,,,,ワンピース,0
807,4011401024244,新規,0,2022-05-20,2022-05-20,ＹＫロジスティクス株式会社,,株式会社,東京都,板橋区,高島平９丁目２８番１６号Ｔ．Ｎ－Ｂ１０４,,13,119,1750082,,,,,,,2022-05-20,1,,,,,ワイケイロジスティクス,0
808,4011601025967,新規,0,2022-05-20,2022-05-20,ｓｔｕｄｉｏ　ｉｎｆｉｎｉｔｅ株式会社,,株式会社,東京都,練馬区,光が丘６丁目１番３号,,13,120,1790072,,,,,,,2022-05-20,1,,,,,スタディオインフィニット,0
809,4011701025314,新規,0,2022-05-20,2022-05-20,株式会社ＨＩＭＡＬＡＹＡ,,株式会社,東京都,江戸川区,西小岩１丁目５番１０号ぎんれい荘３０２,,13,123,1330057,,,,,,,2022-05-20,1,,,,,ヒマラヤ,0
817,4012403005372,新規,0,2022-05-20,2022-05-20,まなびナビ合同会社,,合同会社,東京都,稲城市,向陽台５丁目１０番地リベレ向陽台１－４１４号,,13,225,2060803,,,,,,,2022-05-20,1,,,,,マナビナビ,0
825,4013301049115,新規,0,2022-05-20,2022-05-20,ディファレンスエンジン株式会社,,株式会社,東京都,豊島区,南池袋４丁目３－４,,13,116,1710022,,,,,,,2022-05-20,1,,,,,ディファレンスエンジン,0
839,4020001146563,新規,0,2022-05-20,2022-05-20,株式会社Ｍａｋｅ　ｕｐ,,株式会社,神奈川県,川崎市多摩区,枡形２丁目１５番９号,,14,135,2140032,,,,,,,2022-05-20,1,,,,,メイクアップ,0
843,4021001076016,新規,0,2022-05-20,2022-05-20,株式会社Ｇｏｌｄｅｎ　Ｃｏｍｐａｎｙ,,株式会社,神奈川県,藤沢市,鵠沼海岸７丁目７番８号,,14,205,2510037,,,,,,,2022-05-20,1,,,,,ゴールデンカンパニー,0
847,4030001148237,新規,0,2022-05-20,2022-05-20,株式会社ユーテック,,株式会社,埼玉県,川口市,川口５丁目９番３１号,,11,203,3320015,,,,,,,2022-05-20,1,,,,,ユーテック,0
856,4030003019436,新規,0,2022-05-20,2022-05-20,合同会社東川口土地建物,,合同会社,埼玉県,川口市,戸塚３丁目３７番１１号２Ｆ,,11,203,3330811,,,,,,,2022-05-20,1,,,,,ヒガシカワグチトチタテモノ,0
861,4040001123429,新規,0,2022-05-20,2022-05-20,さくら建機販売株式会社,,株式会社,千葉県,佐倉市,馬渡１３４０番地１,,12,212,2850804,,,,,,,2022-05-20,1,,,,,サクラケンキハンバイ,0
862,4040001123461,新規,0,2022-05-20,2022-05-20,株式会社市原学校給食サービス,,株式会社,千葉県,市原市,惣社１丁目１番地２２,,12,219,2900023,,,,,,,2022-05-20,1,,,,,イチハラガッコウキュウショクサービス,0
867,4040003020070,新規,0,2022-05-20,2022-05-20,合同会社Ｇａｕｄｉ,,合同会社,千葉県,東金市,八坂台４丁目１０－２０,,12,213,2830801,,,,,,,2022-05-20,1,,,,,ガウディ,0
882,4120001245982,新規,0,2022-05-20,2022-05-20,ＧＲＥＥＮ　ＮＥＳＴ株式会社,,株式会社,大阪府,大阪市東住吉区,湯里５丁目１６番地５号３Ｆ－Ｅ,,27,121,5460013,,,,,,,2022-05-20,1,,,,,グリーンネスト,0
883,4120001246023,新規,0,2022-05-20,2022-05-20,株式会社カマラード,,株式会社,大阪府,枚方市,小倉町４番３号,,27,210,5731173,,,,,,,2022-05-20,1,,,,,カマラード,0
889,4120003021671,新規,0,2022-05-20,2022-05-20,合同会社ＫＡＮＴＡＴＥ,,合同会社,大阪府,門真市,上島町３３番１５号,,27,223,5710071,,,,,,,2022-05-20,1,,,,,カンタテ,0
890,4120003021713,新規,0,2022-05-20,2022-05-20,合同会社おつかれサポート,,合同会社,大阪府,大阪市西区,江戸堀３丁目６番２５－３０５号,,27,106,5500002,,,,,,,2022-05-20,1,,,,,オツカレサポート,0
891,4120005022957,新規,0,2022-05-20,2022-05-20,一般社団法人Ｄａｉｇａｓ不動産ファンド第１号,,その他の設立登記法人,大阪府,大阪市中央区,高麗橋４丁目３番７号淀屋橋総合会計内,,27,128,5410043,,,,,,,2022-05-20,1,,,,,ダイガスフドウサンファンドダイイチゴウ,0
898,4120901045986,新規,0,2022-05-20,2022-05-20,株式会社鴻運,,株式会社,大阪府,高槻市,昭和台町２丁目１５番９号,,27,207,5690815,,,,,,,2022-05-20,1,,,,,コウウン,0
901,4122001035868,新規,0,2022-05-20,2022-05-20,株式会社川部,,株式会社,大阪府,東大阪市,長堂３丁目１５番１５号,,27,227,5770056,,,,,,,2022-05-20,1,,,,,カワベ,0
902,4122001035884,新規,0,2022-05-20,2022-05-20,株式会社トライアングル,,株式会社,大阪府,東大阪市,横沼町３丁目４番８号,,27,227,5770808,,,,,,,2022-05-20,1,,,,,トライアングル,0
918,4180001151259,新規,0,2022-05-20,2022-05-20,株式会社ＬＩＣ,,株式会社,愛知県,名古屋市中村区,松重町４番５５号レーベン名古屋松重町ＧＲＡＮＤ　ＡＵＢＥ７０６号,,23,105,4500004,,,,,,,2022-05-20,1,,,,,リック,0
926,4180301036242,新規,0,2022-05-20,2022-05-20,新ＹＧＮサービス株式会社,,株式会社,愛知県,刈谷市,西境町花池８０番地１,,23,210,4480006,,,,,,,2022-05-20,1,,,,,シンワイジーエヌサービス,0
930,4190001029421,新規,0,2022-05-20,2022-05-20,株式会社フィールドテック,,株式会社,三重県,伊賀市,桐ケ丘１丁目２８８番地,,24,216,5180225,,,,,,,2022-05-20,1,,,,,フィールドテック,0
933,4200001040079,新規,0,2022-05-20,2022-05-20,株式会社ＫＣＦ,,株式会社,岐阜県,各務原市,蘇原東島町２丁目５０番地,,21,213,5040816,,,,,,,2022-05-20,1,,,,,ケーシーエフ,0
943,4250001019572,新規,0,2022-05-20,2022-05-20,株式会社ＴＳＵＲＵＴＡコーポレーション,,株式会社,山口県,玖珂郡和木町,和木５丁目１番１号,,35,321,7400061,,,,,,,2022-05-20,1,,,,,ツルタコーポレーション,0
945,4250003003070,新規,0,2022-05-20,2022-05-20,なちゅり合同会社,,合同会社,山口県,宇部市,大字東岐波１９６７－１３,,35,202,7550241,,,,,,,2022-05-20,1,,,,,,0
953,4290001097598,新規,0,2022-05-20,2022-05-20,株式会社Ｓａｆｒｉｅ,,株式会社,福岡県,福岡市南区,曰佐３丁目１７番１８号,,40,134,8111313,,,,,,,2022-05-20,1,,,,,サフリエ,0
956,4290003012530,新規,0,2022-05-20,2022-05-20,合同会社ｂｌｏｏｍｃｏｍｍｅｒｃｅ,,合同会社,福岡県,大野城市,栄町３丁目１－２４ＣＬＵＢ春日原２－２,,40,219,8160924,,,,,,,2022-05-20,1,,,,,ブルームコマース,0
961,4320001019078,新規,0,2022-05-20,2022-05-20,株式会社ＬＩＥＮ,,株式会社,大分県,大分市,府内町３丁目４番２０号大分恒和ビル４階,,44,201,8700021,,,,,,,2022-05-20,1,,,,,リアン,0
966,4330003009373,新規,0,2022-05-20,2022-05-20,合同会社Ｔ’ｓ　ｃｏｖｅ,,合同会社,熊本県,熊本市南区,川尻４丁目２番３８号,,43,104,8614115,,,,,,,2022-05-20,1,,,,,ティーズコーヴ,0
970,4350001017748,新規,0,2022-05-20,2022-05-20,株式会社ｓｍｉＬＤＫ,,株式会社,宮崎県,都城市,志比田町５１７２番地２,,45,202,8850093,,,,,,,2022-05-20,1,,,,,スマエルディーケー,0
972,4360003011979,新規,0,2022-05-20,2022-05-20,タカロジテック合同会社,,合同会社,沖縄県,中頭郡北谷町,字桑江３５０番地２８,,47,326,9040103,,,,,,,2022-05-20,1,,,,,タカロジテック,0
976,4380003005178,新規,0,2022-05-20,2022-05-20,合同会社土井吟商店,,合同会社,福島県,双葉郡浪江町,大字権現堂字東住寺３２番地１,,07,547,9791521,,,,,,,2022-05-20,1,,,,,ドイギンショウテン,0
982,4420001017856,新規,0,2022-05-20,2022-05-20,株式会社ピース,,株式会社,青森県,青森市,古川３丁目６番１６号ＢＥＴＴＥＲＲ１０－１０２号,,02,201,0300862,,,,,,,2022-05-20,1,,,,,ピース,0
986,4430001086669,新規,0,2022-05-20,2022-05-20,株式会社アール工業,,株式会社,北海道,江別市,大麻桜木町３３番地の２,,01,217,0690846,,,,,,,2022-05-20,1,,,,,アールコウギョウ,0
987,4430001086677,新規,0,2022-05-20,2022-05-20,ラビットシステム株式会社,,株式会社,北海道,札幌市中央区,北二条西３丁目１番地敷島ビル７階,,01,101,0600002,,,,,,,2022-05-20,1,,,,,ラビットシステム,0
997,4500001024217,新規,0,2022-05-20,2022-05-20,株式会社ロイスファクトリー,,株式会社,愛媛県,西条市,栄町２５２番地１,,38,206,7930025,,,,,,,2022-05-20,1,,,,,ロイスファクトリー,0
999,4700150102538,新規,0,2022-05-20,2021-03-25,豊川児童くらぶ,,その他,大分県,宇佐市,大字大塚５４２番地の２,,44,211,8790464,,,,,,,2021-03-25,1,,,,,トヨカワジドウクラブ,0
1000,4700150107289,新規,0,2022-05-20,2022-03-07,内藤プランニング,,その他,神奈川県,横浜市中区,山下町２８－２ライオンズプラザ山下公園６０２,,14,104,2310023,,,,,,,2022-03-07,1,,,,,ナイトウプランニング,0
1001,4700150108411,新規,0,2022-05-20,2022-04-28,クレドソルプロジェクト,,その他,東京都,中央区,勝どき１丁目８－１勝どきビュータワー１９０８,,13,102,1040054,,,,,,,2022-04-28,1,,,,,クレドソルプロジエクト,0
1002,4700150108527,新規,0,2022-05-20,2022-05-06,落語ステージ・ワゴン,,その他,滋賀県,草津市,草津１丁目１３－１２－５０２スペリオン草津,,25,206,5250034,,,,,,,2022-05-06,1,,,,,ラクゴステージワゴン,0
1003,4700150108717,新規,0,2022-05-20,2022-05-13,西成アメスピクラブ,,その他,大阪府,大阪市西成区,山王２丁目７－２２,,27,122,5570001,,,,,,,2022-05-13,1,,,,,ニシナリアメスピクラブ,0
1004,4700150108774,新規,0,2022-05-20,2022-05-16,ＮＢＯ,,その他,東京都,中野区,弥生町１丁目５０番１２号メゾンブロア２０３,,13,114,1640013,,,,,,,2022-05-16,1,,,,,ンボ,0
1005,4700150108881,新規,0,2022-05-20,2022-05-20,ＡＬＰＨＡ　ＯＭＥＧＡ,,外国会社等,千葉県,山武市,上横地３１７７番地２,,12,237,2891313,スリランカ民主社会主義共和国、西部州、コロンボ地区、コロンボ１３、メイフィールドレーン、４５－１,,,,,,2022-05-20,1,,,,,アルフアオメガ,0
1013,5010001226729,新規,0,2022-05-20,2022-05-20,株式会社Ｌｉｆｅ　ｉｓ　Ｎｏｖｅｌ,,株式会社,東京都,千代田区,一番町１０番地８一番町ウエストビル５階,,13,101,1020082,,,,,,,2022-05-20,1,,,,,ライフイズノベル,0
1014,5010001226761,新規,0,2022-05-20,2022-05-20,ＹＭＣ株式会社,,株式会社,東京都,中央区,築地４丁目３番１１号,,13,102,1040045,,,,,,,2022-05-20,1,,,,,ワイエムコンサルティング,0
1019,5010003037728,新規,0,2022-05-20,2022-05-20,合同会社トライフォース,,合同会社,東京都,中央区,銀座１丁目２２番１１号銀座大竹ビジデンス２階,,13,102,1040061,,,,,,,2022-05-20,1,,,,,トライフォース,0
1026,5010401167192,新規,0,2022-05-20,2022-05-20,Ｓｔ　ＥＳＴＡＴＥ株式会社,,株式会社,東京都,港区,東麻布２丁目５番１－３０２号,,13,103,1060044,,,,,,,2022-05-20,1,,,,,エスティーエステート,0
1027,5010401167317,新規,0,2022-05-20,2022-05-20,株式会社ＩＦ,,株式会社,東京都,港区,虎ノ門５丁目３番２０号３０６,,13,103,1050001,,,,,,,2022-05-20,1,,,,,アイエフ,0
1028,5010401167374,新規,0,2022-05-20,2022-05-20,株式会社ウィステリア,,株式会社,東京都,港区,芝浦４丁目２０－２芝浦アイランドブルームタワー３９１３号室,,13,103,1080023,,,,,,,2022-05-20,1,,,,,ウィステリア,0
1029,5010401167399,新規,0,2022-05-20,2022-05-20,Ｍｙ　Ｐｌａｃｅ株式会社,,株式会社,東京都,港区,六本木７丁目９番６号Ｈｏｎｄａビル３Ｃ,,13,103,1060032,,,,,,,2022-05-20,1,,,,,マイプレイス,0
1030,5010403027667,新規,0,2022-05-20,2022-05-20,合同会社ｚａｎｇｌｅ,,合同会社,東京都,港区,南青山２丁目２番１５号,,13,103,1070062,,,,,,,2022-05-20,1,,,,,ジアングル,0
1032,5010501048854,新規,0,2022-05-20,2022-05-20,ＨＯＢＩＣＯ株式会社,,株式会社,東京都,台東区,下谷１丁目１１－１５ソレイユ入谷２Ｆ,,13,106,1100004,,,,,,,2022-05-20,1,,,,,ホビコ,0
1034,5010601061187,新規,0,2022-05-20,2022-05-20,朗日株式会社,,株式会社,東京都,江東区,東陽３丁目２３番２６号東陽町コーポラス３階,,13,108,1350016,,,,,,,2022-05-20,1,,,,,ロウジツ,0
1035,5010701042681,新規,0,2022-05-20,2022-05-20,株式会社ＫＦアセットマネジメント,,株式会社,東京都,品川区,東五反田５丁目１１番１号２０２,,13,109,1410022,,,,,,,2022-05-20,1,,,,,ケーエフアセットマネジメント,0
1036,5010703006247,新規,0,2022-05-20,2022-05-20,合同会社新潟東インド会社,,合同会社,東京都,品川区,南大井１丁目３番４号ルーブル品川南大井３０４,,13,109,1400013,,,,,,,2022-05-20,1,,,,,ニイガタヒガシインドガイシャ,0
1041,5010901050889,新規,0,2022-05-20,2022-05-20,株式会社きのけん,,株式会社,東京都,世田谷区,太子堂１丁目４番３４－１００４号,,13,112,1540004,,,,,,,2022-05-20,1,,,,,キノケン,0
1050,5011001147460,新規,0,2022-05-20,2022-05-20,ＰｒａｙＦｏｒ株式会社,,株式会社,東京都,渋谷区,恵比寿３丁目１番４－２０２号,,13,113,1500013,,,,,,,2022-05-20,1,,,,,プレイフォー,0
1051,5011001147592,新規,0,2022-05-20,2022-05-20,株式会社ヘムヘム,,株式会社,東京都,渋谷区,渋谷２丁目１９－１５宮益坂ビルディング６０９,,13,113,1500002,,,,,,,2022-05-20,1,,,,,,0
1052,5011001147626,新規,0,2022-05-20,2022-05-20,Ｅ＆Ｅ　ＦＯＯＤＳ　ＪＡＰＡＮ株式会社,,株式会社,東京都,渋谷区,神宮前２丁目４番１２号,,13,113,1500001,,,,,,,2022-05-20,1,,,,,イーアンドイーフーズジャパン,0
1053,5011001147634,新規,0,2022-05-20,2022-05-20,株式会社グローバルセールスパートナーズ,,株式会社,東京都,渋谷区,本町１丁目６０番３号ＫＢＤタックビル００Ｅ号室,,13,113,1510071,,,,,,,2022-05-20,1,,,,,グローバルセールスパートナーズ,0
1060,5011101098901,新規,0,2022-05-20,2022-05-20,株式会社ＲｅＦａｎｔａｓｙ,,株式会社,東京都,新宿区,西新宿３丁目３番１３号西新宿水間ビル６階,,13,104,1600023,,,,,,,2022-05-20,1,,,,,リファンタジー,0
1061,5011101098918,新規,0,2022-05-20,2022-05-20,玉屏株式会社,,株式会社,東京都,新宿区,榎町３４－３榎町ビル５階,,13,104,1620806,,,,,,,2022-05-20,1,,,,,ギョクヘイ,0
1063,5011103011770,新規,0,2022-05-20,2022-05-20,合同会社ゴーエイト,,合同会社,東京都,新宿区,西新宿３丁目３番１３号西新宿水間ビル６階,,13,104,1600023,,,,,,,2022-05-20,1,,,,,ゴーエイト,0
1067,5011401024243,新規,0,2022-05-20,2022-05-20,株式会社プライムデイズ,,株式会社,東京都,板橋区,高島平１丁目４１番６号サンセイル西台４０９,,13,119,1750082,,,,,,,2022-05-20,1,,,,,プライムデイズ,0
1074,5011801040716,新規,0,2022-05-20,2022-05-20,株式会社Ｎ．Ｗ．Ａ,,株式会社,東京都,足立区,島根１丁目１１番５－４０２号,,13,121,1210815,,,,,,,2022-05-20,1,,,,,エヌダブリューエー,0
1076,5012305002013,新規,0,2022-05-20,2022-05-20,一般社団法人えがおのいえ,,その他の設立登記法人,東京都,町田市,金井７丁目１４番７号,,13,209,1950072,,,,,,,2022-05-20,1,,,,,エガオノイエ,0
1107,5021001076015,新規,0,2022-05-20,2022-05-20,株式会社ＲＥＮＤＥＺ‐ＶＯＵＳ,,株式会社,神奈川県,逗子市,新宿３丁目１１番１３号,,14,208,2490007,,,,,,,2022-05-20,1,,,,,ランデヴー,0
1116,5030001148277,新規,0,2022-05-20,2022-05-20,株式会社Ｓｙｎｃ,,株式会社,埼玉県,鴻巣市,市ノ縄２０８番地３,,11,217,3650072,,,,,,,2022-05-20,1,,,,,シンク,0
1117,5030001148302,新規,0,2022-05-20,2022-05-20,ランドロード株式会社,,株式会社,埼玉県,越谷市,大字下間久里１０６２番地１３,,11,222,3430045,,,,,,,2022-05-20,1,,,,,ランドロード,0
1120,5030003019451,新規,0,2022-05-20,2022-05-20,ショウサイン合同会社,,合同会社,埼玉県,川口市,並木４丁目１５番２２号,,11,203,3320034,,,,,,,2022-05-20,1,,,,,ショウサイン,0
1127,5040001123469,新規,0,2022-05-20,2022-05-20,株式会社Ｂ‐ｓｔｏｃｋ,,株式会社,千葉県,松戸市,竹ケ花２３４番地の１ＢＬＥＳＳ松戸Ａ棟３０１号,,12,207,2710072,,,,,,,2022-05-20,1,,,,,ビーストック,0
1128,5040001123477,新規,0,2022-05-20,2022-05-20,株式会社地域会議,,株式会社,千葉県,市川市,堀之内３丁目１９番７－５０４号（エーヴィゲス市川）,,12,203,2720837,,,,,,,2022-05-20,1,,,,,チイキカイギ,0
1135,5040003020061,新規,0,2022-05-20,2022-05-20,合同会社ホクラクアグリ,,合同会社,千葉県,八千代市,大和田新田１８８番地,,12,221,2760046,,,,,,,2022-05-20,1,,,,,ホクラクアグリ,0
1138,5050001051090,新規,0,2022-05-20,2022-05-20,株式会社サンホールディングス,,株式会社,茨城県,筑西市,みどり町１丁目６番地５,,08,227,3080042,,,,,,,2022-05-20,1,,,,,サンホールディングス,0
1139,5050005013079,新規,0,2022-05-20,2022-05-20,一般社団法人共信会しらうめ館,,その他の設立登記法人,茨城県,水戸市,白梅３丁目２番９号,,08,201,3100804,,,,,,,2022-05-20,1,,,,,キョウシンカイシラウメカン,0
1142,5060001034879,新規,0,2022-05-20,2022-05-20,Ｂｏｓｓ　ｔｒａｄｉｎｇ株式会社,,株式会社,栃木県,栃木市,岩舟町新里１３０４番地６号,,09,203,3294316,,,,,,,2022-05-20,1,,,,,ボストレーディング,0
1147,5060005009984,新規,0,2022-05-20,2022-05-20,ＮＰＯ法人総合型地域スポーツクラブおにっこクラブ,,その他の設立登記法人,栃木県,小山市,天神町２丁目４番１７号,,09,208,3230032,,,,,,,2022-05-20,1,,,,,ソウゴウガタチイキスポーツクラブオニッコクラブ,0
1156,5090001017575,新規,0,2022-05-20,2022-05-20,株式会社若狹丸,,株式会社,山梨県,南巨摩郡身延町,古関１４５番地１,,19,365,4093106,,,,,,,2022-05-20,1,,,,,ワカサマル,0
1164,5120001246022,新規,0,2022-05-20,2022-05-20,株式会社ヤナイ,,株式会社,大阪府,寝屋川市,明徳２丁目４番３９号,,27,215,5720011,,,,,,,2022-05-20,1,,,,,ヤナイ,0
1165,5120001246030,新規,0,2022-05-20,2022-05-20,シティビルド株式会社,,株式会社,大阪府,大阪市中央区,今橋２丁目２番１１号,,27,128,5410042,,,,,,,2022-05-20,1,,,,,シティビルド,0
1166,5120003021720,新規,0,2022-05-20,2022-05-20,合同会社かとう,,合同会社,大阪府,大阪市此花区,酉島３丁目１０番９号,,27,104,5540051,,,,,,,2022-05-20,1,,,,,カトウ,0
1168,5120101065603,新規,0,2022-05-20,2022-05-20,株式会社永遠,,株式会社,大阪府,泉南市,樽井３丁目３７番３号,,27,228,5900521,,,,,,,2022-05-20,1,,,,,トワ,0
1169,5120105009564,新規,0,2022-05-20,2022-05-20,一般財団法人しらさぎ育英基金,,その他の設立登記法人,大阪府,堺市東区,白鷺町１丁１９番１９号,,27,143,5998107,,,,,,,2022-05-20,1,,,,,シラサギイクエイキキン,0
1175,5122001035867,新規,0,2022-05-20,2022-05-20,株式会社野村,,株式会社,大阪府,東大阪市,御厨中１丁目５番３０号,,27,227,5770035,,,,,,,2022-05-20,1,,,,,ノムラ,0
1176,5122001035883,新規,0,2022-05-20,2022-05-20,株式会社Ｌｕｔｔｅ,,株式会社,大阪府,東大阪市,長田西６丁目２番２１号,,27,227,5770016,,,,,,,2022-05-20,1,,,,,ルッテ,0
1184,5140003017700,新規,0,2022-05-20,2022-05-20,ソラナハーツ合同会社,,合同会社,兵庫県,宝塚市,美座２丁目２１番１５号,,28,214,6650834,,,,,,,2022-05-20,1,,,,,ソラナハーツ,0
1200,5180303005335,新規,0,2022-05-20,2022-05-20,合同会社ジタビタロボットラボ,,合同会社,愛知県,刈谷市,若松町３丁目９,,23,210,4480858,,,,,,,2022-05-20,1,,,,,ジタビタロボットラボ,0
1201,5180305009342,新規,0,2022-05-20,2022-05-20,一般社団法人ウクライナ人道支援ジャクユーサポート,,その他の設立登記法人,愛知県,安城市,大東町１１番２０号,,23,212,4460065,,,,,,,2022-05-20,1,,,,,ウクライナジンドウシエンジャクユーサポート,0
1202,5190001029420,新規,0,2022-05-20,2022-05-20,ユーユーカイカン株式会社,,株式会社,三重県,四日市市,西坂部町４７８９番地２,,24,202,5120913,,,,,,,2022-05-20,1,,,,,ユーユーカイカン,0
1204,5200001040078,新規,0,2022-05-20,2022-05-20,テックドック株式会社,,株式会社,岐阜県,可児市,下恵土４５７番地６,,21,214,5090203,,,,,,,2022-05-20,1,,,,,テックドック,0
1208,5220001024855,新規,0,2022-05-20,2022-05-20,株式会社生命科学研究所,,株式会社,石川県,金沢市,諸江町中丁１７７番地１,,17,201,9200016,,,,,,,2022-05-20,1,,,,,セイメイカガクケンキュウショ,0
1223,5290001097507,新規,0,2022-05-20,2022-05-20,株式会社ＦＡＴＥ,,株式会社,福岡県,福岡市博多区,住吉３丁目１番２０号６０４号室,,40,132,8120018,,,,,,,2022-05-20,1,,,,,フェイト,0
1232,5310003004367,新規,0,2022-05-20,2022-05-20,合同会社ＨＡＳＵＭＩ,,合同会社,長崎県,大村市,池田新町７６３番地６０ＭＴコーポ２０３,,42,205,8560029,,,,,,,2022-05-20,1,,,,,ハスミ,0
1239,5340003003795,新規,0,2022-05-20,2022-05-20,合同会社Ｋｏｎｎｅｃｔ,,合同会社,鹿児島県,鹿児島市,鴨池１丁目３番３号,,46,201,8900063,,,,,,,2022-05-20,1,,,,,コネクト,0
1243,5360003012027,新規,0,2022-05-20,2022-05-20,合同会社かがやき会,,合同会社,沖縄県,沖縄市,泡瀬１丁目２２番１５号マンションＡ・２－Ｂ,,47,211,9042172,,,,,,,2022-05-20,1,,,,,カガヤキカイ,0
1245,5370001048575,新規,0,2022-05-20,2022-05-20,株式会社タイムイコール,,株式会社,宮城県,仙台市青葉区,二日町１６番２－９１４号,,04,101,9800802,,,,,,,2022-05-20,1,,,,,タイムイコール,0
1246,5370003005698,新規,0,2022-05-20,2022-05-20,合同会社アズレスト,,合同会社,宮城県,仙台市青葉区,子平町１番１－６号パナハイツ橘Ａ－２,,04,101,9810944,,,,,,,2022-05-20,1,,,,,アズレスト,0
1254,5420001017855,新規,0,2022-05-20,2022-05-20,ＡＤＤ　Ｌｉｎｅ　Ｈｏｍｅ　Ｌａｂｏｒａｔｏｒｙ株式会社,,株式会社,青森県,青森市,新町２丁目２ー１１東奥日報新町ビル２Ｆ,,02,201,0300801,,,,,,,2022-05-20,1,,,,,アドラインホームラボラトリー,0
1264,5430001086668,新規,0,2022-05-20,2022-05-20,株式会社リンクスエムズカンパニー,,株式会社,北海道,札幌市白石区,北郷一条１丁目３番１２号,,01,104,0030831,,,,,,,2022-05-20,1,,,,,リンクスエムズカンパニー,0
1268,5430003013926,新規,0,2022-05-20,2022-05-20,合同会社ＴＯＢＩＲＡ,,合同会社,北海道,札幌市東区,北四十一条東１７丁目２番５号,,01,103,0070841,,,,,,,2022-05-20,1,,,,,トビラ,0
1272,5700150108369,新規,0,2022-05-20,2022-04-27,音故知新,,その他,埼玉県,さいたま市浦和区,上木崎６丁目１４－２３,,11,107,3300071,,,,,,,2022-04-27,1,,,,,オンコチシン,0
1273,5700150108880,新規,0,2022-05-20,2022-05-20,四川川航物流有限公司　日本駐在員事務所,,外国会社等,東京都,港区,新橋１丁目１番１号,,13,103,1050004,中華人民共和国四川省自由貿易試験区成都市双流区西航港街道双流机場北亦川航基地２棟１－４楼１号,00126589,,,,,2022-05-20,1,,,,,シセンカワコウブツリユウユウゲンガイシヤニホンチユウザイインジムシヨ,0
1282,6010001226728,新規,0,2022-05-20,2022-05-20,ジーエルバレイ株式会社,,株式会社,東京都,中央区,東日本橋２丁目２８番４号日本橋ＣＥＴビル２階,,13,102,1030004,,,,,,,2022-05-20,1,,,,,ジーエルバレイ,0
1283,6010001226760,新規,0,2022-05-20,2022-05-20,株式会社トリプル・ワーク,,株式会社,東京都,中央区,日本橋茅場町２丁目５番６号,,13,102,1030025,,,,,,,2022-05-20,1,,,,,トリプルワーク,0
1290,6010003037727,新規,0,2022-05-20,2022-05-20,合同会社アップスコア,,合同会社,東京都,千代田区,神田佐久間町１丁目８番４号アルテール秋葉原７０９,,13,101,1010025,,,,,,,2022-05-20,1,,,,,アップスコア,0
1297,6010401167290,新規,0,2022-05-20,2022-05-20,株式会社ごえん,,株式会社,東京都,港区,西新橋１丁目１８番１４号,,13,103,1050003,,,,,,,2022-05-20,1,,,,,ゴエン,0
1298,6010401167407,新規,0,2022-05-20,2022-05-20,株式会社ＦＧ,,株式会社,東京都,港区,新橋３丁目１１－８,,13,103,1050004,,,,,,,2022-05-20,1,,,,,エフジー,0
1299,6010403027666,新規,0,2022-05-20,2022-05-20,ＮｏＣｏｎｃｅｐｔ合同会社,,合同会社,東京都,港区,芝浦４丁目２２番１－８０２号,,13,103,1080023,,,,,,,2022-05-20,1,,,,,ノーコンセプト,0
1320,6010901050888,新規,0,2022-05-20,2022-05-20,株式会社Ｈ＆Ａマネジメント,,株式会社,東京都,世田谷区,粕谷３丁目２８番９号ブランシュール２０２,,13,112,1570063,,,,,,,2022-05-20,1,,,,,エイチアンドエイマネジメント,0
1321,6010901050896,新規,0,2022-05-20,2022-05-20,株式会社クオン,,株式会社,東京都,世田谷区,池尻２丁目３４番１８号,,13,112,1540001,,,,,,,2022-05-20,1,,,,,クオン,0
1329,6011001147484,新規,0,2022-05-20,2022-05-20,ＤＳＩ株式会社,,株式会社,東京都,渋谷区,松濤１丁目１３番７号クレイン松濤２０１,,13,113,1500046,,,,,,,2022-05-20,1,,,,,,0
1330,6011001147625,新規,0,2022-05-20,2022-05-20,クリフサイドワーク株式会社,,株式会社,東京都,渋谷区,神宮前６丁目２３番４号,,13,113,1500001,,,,,,,2022-05-20,1,,,,,クリフサイドワーク,0
1338,6011101098909,新規,0,2022-05-20,2022-05-20,株式会社アジア物流,,株式会社,東京都,新宿区,北山伏町１番１０－５０３号,,13,104,1620853,,,,,,,2022-05-20,1,,,,,アジアブツリュウ,0
1341,6011103011729,新規,0,2022-05-20,2022-05-20,合同会社アイシステック,,合同会社,東京都,新宿区,西新宿３丁目３番１３号西新宿水間ビル６階,,13,104,1600023,,,,,,,2022-05-20,1,,,,,アイシステック,0
1344,6011203003816,新規,0,2022-05-20,2022-05-20,合同会社１２ｔｈ,,合同会社,東京都,中野区,新井４丁目１６番２号パシフィックニュー中野２０５号室,,13,114,1650026,,,,,,,2022-05-20,1,,,,,トゥエルブス,0
1346,6011301027790,新規,0,2022-05-20,2022-05-20,ＳｋｙＢｅａｒ株式会社,,株式会社,東京都,杉並区,成田東３丁目３２番１６号,,13,115,1660015,,,,,,,2022-05-20,1,,,,,スカイベア,0
1348,6011401024242,新規,0,2022-05-20,2022-05-20,Ｔｏｍｏｒｒｏｗ株式会社,,株式会社,東京都,板橋区,板橋１丁目５３番１２－１８１４室,,13,119,1730004,,,,,,,2022-05-20,1,,,,,アシタ,0
1350,6011503005165,新規,0,2022-05-20,2022-05-20,合同会社ＮＵＭＡＮＯＩ,,合同会社,東京都,北区,上中里１丁目７番１０号,,13,117,1140016,,,,,,,2022-05-20,1,,,,,ヌマノイ,0
1355,6011801040723,新規,0,2022-05-20,2022-05-20,株式会社ＴＡＬＭ,,株式会社,東京都,足立区,東保木間２丁目９番３号,,13,121,1210063,,,,,,,2022-05-20,1,,,,,タルム,0
1356,6011801040748,新規,0,2022-05-20,2022-05-20,トライアスロンモダンロジスティックス株式会社,,株式会社,東京都,足立区,中央本町３丁目１７－１２－１０１７,,13,121,1210011,,,,,,,2022-05-20,1,,,,,トライアスロンモダンロジスティックス,0
1358,6011803005096,新規,0,2022-05-20,2022-05-20,合同会社ソーラーワンダー,,合同会社,東京都,葛飾区,亀有３丁目２番８号－１１０３号パークホームズ亀有,,13,122,1250061,,,,,,,2022-05-20,1,,,,,ソーラーワンダー,0
1380,6030001148276,新規,0,2022-05-20,2022-05-20,株式会社ストゥープ,,株式会社,埼玉県,戸田市,笹目２丁目１番地の１５,,11,224,3350034,,,,,,,2022-05-20,1,,,,,ストゥープ,0
1381,6030001148292,新規,0,2022-05-20,2022-05-20,株式会社スリーハート,,株式会社,埼玉県,さいたま市北区,今羽町２１１番地６,,11,102,3310801,,,,,,,2022-05-20,1,,,,,スリーハート,0
1391,6040001123484,新規,0,2022-05-20,2022-05-20,株式会社什伸電設,,株式会社,千葉県,船橋市,海神町東１丁目１３８７番地ポセイドン５０４号,,12,204,2730028,,,,,,,2022-05-20,1,,,,,ジュウシンデンセツ,0
1395,6050001051098,新規,0,2022-05-20,2022-05-20,株式会社スケガワ,,株式会社,茨城県,常陸太田市,町田町２１２番地１,,08,212,3130213,,,,,,,2022-05-20,1,,,,,スケガワ,0
1397,6050005013078,新規,0,2022-05-20,2022-05-20,農事組合法人播田実営農組合,,その他の設立登記法人,茨城県,水戸市,鯉淵町５７４８番地の２,,08,201,3190323,,,,,,,2022-05-20,1,,,,,ハタミエイノウクミアイ,0
1399,6060003004078,新規,0,2022-05-20,2022-05-20,合同会社ガーシュ,,合同会社,栃木県,宇都宮市,陽東４丁目１２番４５号,,09,201,3210904,,,,,,,2022-05-20,1,,,,,ガーシュ,0
1402,6070001039232,新規,0,2022-05-20,2022-05-20,株式会社カーム,,株式会社,群馬県,伊勢崎市,南千木町５２０９－２ＳＴＹＬＥ１０３号,,10,204,3720033,,,,,,,2022-05-20,1,,,,,カーム,0
1415,6100001035351,新規,0,2022-05-20,2022-05-20,株式会社ＦＵＴＵＲＥ　ＦＯＸ　ＳＡＵＮＡ,,株式会社,長野県,下伊那郡松川町,上片桐９８２番地５,,20,402,3993301,,,,,,,2022-05-20,1,,,,,フューチャーフォックスサウナ,0
1425,6120001245923,新規,0,2022-05-20,2022-05-20,株式会社シャンス,,株式会社,大阪府,大阪市城東区,森之宮２丁目４番３１号エスリード大阪城クローグ３０１,,27,118,5360025,,,,,,,2022-05-20,1,,,,,シャンス,0
1426,6120001245948,新規,0,2022-05-20,2022-05-20,株式会社Ｓｅｌｌ　ｍｏｒｅ,,株式会社,大阪府,大阪市中央区,安土町２丁目５－５,,27,128,5410052,,,,,,,2022-05-20,1,,,,,セルモア,0
1427,6120001245989,新規,0,2022-05-20,2022-05-20,株式会社令和興業,,株式会社,大阪府,大阪市淀川区,田川１丁目４－９,,27,123,5320027,,,,,,,2022-05-20,1,,,,,レイワコウギョウ,0
1428,6120001246021,新規,0,2022-05-20,2022-05-20,株式会社ｉＭａ,,株式会社,大阪府,大阪市都島区,内代町１丁目１４－７,,27,102,5340013,,,,,,,2022-05-20,1,,,,,イマ,0
1430,6120003021686,新規,0,2022-05-20,2022-05-20,ＣＯＤ合同会社,,合同会社,大阪府,大阪市都島区,都島本通２丁目９－６クレストヴィラ都島４０３,,27,102,5340021,,,,,,,2022-05-20,1,,,,,シーオーディー,0
1431,6120003021703,新規,0,2022-05-20,2022-05-20,合同会社ＶＥＲ．ｏｆ　ｙｏｕ,,合同会社,大阪府,大阪市東成区,玉津２丁目１１番２７－１００３号,,27,115,5370023,,,,,,,2022-05-20,1,,,,,バージョンオブユー,0
1436,6122003002344,新規,0,2022-05-20,2022-05-20,合同会社Ｃａｌｍｅ,,合同会社,大阪府,八尾市,沼１丁目４３番地の９,,27,212,5810036,,,,,,,2022-05-20,1,,,,,カルム,0
1440,6130003007940,新規,0,2022-05-20,2022-05-20,合同会社あたらし,,合同会社,京都府,相楽郡精華町,大字祝園小字古屋敷１５番地５,,26,366,6190241,,,,,,,2022-05-20,1,,,,,アタラシ,0
1442,6140003017699,新規,0,2022-05-20,2022-05-20,合同会社パウゼ・プロ,,合同会社,兵庫県,神戸市中央区,熊内町５丁目２番２４－５０３号,,28,110,6510056,,,,,,,2022-05-20,1,,,,,パウゼプロ,0
1444,6150001025554,新規,0,2022-05-20,2022-05-20,株式会社ＧＡＲＯＮＥ,,株式会社,奈良県,御所市,大字林３４５番地,,29,208,6392333,,,,,,,2022-05-20,1,,,,,ガロン,0
1446,6150005009396,新規,0,2022-05-20,2022-05-20,一般社団法人未来絵,,その他の設立登記法人,奈良県,大和高田市,幸町２番３３号奈良県産業会館４０８号室,,29,202,6350015,,,,,,,2022-05-20,1,,,,,ミライエ,0
1447,6160001024217,新規,0,2022-05-20,2022-05-20,プレープランニング株式会社,,株式会社,滋賀県,大津市,衣川１丁目３３番４０号,,25,201,5200244,,,,,,,2022-05-20,1,,,,,プレープランニング,0
1472,6270001008522,新規,0,2022-05-20,2022-05-20,株式会社鳥取砂丘ムーンパーク,,株式会社,鳥取県,鳥取市,千代水２丁目８８番地,,31,201,6800911,,,,,,,2022-05-20,1,,,,,トットリサキュウムーンパーク,0
1476,6290001097605,新規,0,2022-05-20,2022-05-20,ＩＣＯＭＳ株式会社,,株式会社,福岡県,福岡市中央区,白金１丁目５番２１号,,40,133,8100012,,,,,,,2022-05-20,1,,,,,アイコムズ,0
1477,6290003012537,新規,0,2022-05-20,2022-05-20,合同会社ＦＥＲＮＡＶＡＩＬ,,合同会社,福岡県,福岡市南区,塩原３丁目２１番５号ラフォーレ大橋１０２号,,40,134,8150032,,,,,,,2022-05-20,1,,,,,フェルベイル,0
1481,6310003004366,新規,0,2022-05-20,2022-05-20,合同会社マユラ,,合同会社,長崎県,大村市,上諏訪町９１１番地１２,,42,205,8560023,,,,,,,2022-05-20,1,,,,,マユラ,0
1485,6350001017754,新規,0,2022-05-20,2022-05-20,株式会社Ｉｍｏｖａｔｉｏｎ,,株式会社,宮崎県,都城市,都島町３３３番地,,45,202,8850083,,,,,,,2022-05-20,1,,,,,イモベーション,0
1486,6360001030450,新規,0,2022-05-20,2022-05-20,株式会社桜さくら,,株式会社,沖縄県,中頭郡北谷町,字桑江６１８番地７,,47,326,9040103,,,,,,,2022-05-20,1,,,,,オウサクラ,0
1494,6370005010480,新規,0,2022-05-20,2022-05-20,特定非営利活動法人修学旅行研究所,,その他の設立登記法人,宮城県,仙台市泉区,八乙女中央３丁目８番２１－２０４号,,04,105,9813135,,,,,,,2022-05-20,1,,,,,,0
1502,6430001086675,新規,0,2022-05-20,2022-05-20,株式会社Ｍ’Ｓ　ＷＥＳＴ,,株式会社,北海道,札幌市中央区,南二条西６丁目８番地１４,,01,101,0600062,,,,,,,2022-05-20,1,,,,,エムズウエスト,0
1506,6430003013917,新規,0,2022-05-20,2022-05-20,合同会社ｐｉｒｋａ,,合同会社,北海道,札幌市北区,あいの里四条３丁目１０番１号,,01,102,0028074,,,,,,,2022-05-20,1,,,,,ピリカ,0
1520,7010001226289,新規,0,2022-05-20,2022-05-20,株式会社全管協総研,,株式会社,東京都,中央区,八重洲１丁目３番７号,,13,102,1030028,,,,,,,2022-05-20,1,,,,,ゼンカンキョウソウケン,0
1521,7010001226784,新規,0,2022-05-20,2022-05-20,株式会社アスター,,株式会社,東京都,文京区,本駒込２丁目１２－１６シャレール本駒込４１０,,13,105,1130021,,,,,,,2022-05-20,1,,,,,アスター,0
1529,7010005035026,新規,0,2022-05-20,2022-05-20,一般社団法人ＡＰＧＩ０１,,その他の設立登記法人,東京都,千代田区,霞が関３丁目２番５号,,13,101,1000013,,,,,,,2022-05-20,1,,,,,エーピージーアイゼロワン,0
1538,7010401167356,新規,0,2022-05-20,2022-05-20,タカシ株式会社,,株式会社,東京都,港区,西麻布１丁目１１番６－１００２号,,13,103,1060031,,,,,,,2022-05-20,1,,,,,タカシ,0
1539,7010401167380,新規,0,2022-05-20,2022-05-20,株式会社Ｅ・Ｆｏｒｃｅ　Ｓｔｕｄｉｏ,,株式会社,東京都,港区,虎ノ門５丁目１番４号,,13,103,1050001,,,,,,,2022-05-20,1,,,,,イーフォーススタジオ,0
1540,7010403027665,新規,0,2022-05-20,2022-05-20,Ｇｏ　Ｃｉｔｙ合同会社,,合同会社,東京都,港区,南麻布３丁目１９番２３号オーク南麻布ビル２階,,13,103,1060047,,,,,,,2022-05-20,1,,,,,ゴーシティ,0
1544,7010601061185,新規,0,2022-05-20,2022-05-20,フレンズ株式会社,,株式会社,東京都,江東区,大島６丁目２２番６号,,13,108,1360072,,,,,,,2022-05-20,1,,,,,フレンズ,0
1548,7010703006245,新規,0,2022-05-20,2022-05-20,合同会社Ｙ．ｐｍ,,合同会社,東京都,品川区,南品川４丁目４－１７品川サウスタワー,,13,109,1400004,,,,,,,2022-05-20,1,,,,,ワイピーエム,0
1549,7010801032977,新規,0,2022-05-20,2022-05-20,株式会社エンデバー,,株式会社,東京都,大田区,下丸子１丁目１５番２２－２０１号,,13,111,1460092,,,,,,,2022-05-20,1,,,,,エンデバー,0
1552,7010803004173,新規,0,2022-05-20,2022-05-20,合同会社零,,合同会社,東京都,大田区,西蒲田４丁目６－５－６０３,,13,111,1440051,,,,,,,2022-05-20,1,,,,,ゼロ,0
1553,7010805002943,新規,0,2022-05-20,2022-05-20,一般社団法人Ｌｕｃｋｓ,,その他の設立登記法人,東京都,大田区,矢口１丁目７番３号ルクシェール武蔵新田３０１,,13,111,1460093,,,,,,,2022-05-20,1,,,,,ラックス,0
1570,7011001147368,新規,0,2022-05-20,2022-05-20,株式会社Ｉｎｔｅｇｒａｌ,,株式会社,東京都,渋谷区,道玄坂１丁目１０番８号渋谷道玄坂東急ビル２Ｆ－Ｃ,,13,113,1500043,,,,,,,2022-05-20,1,,,,,インテグラル,0
1571,7011001147541,新規,0,2022-05-20,2022-05-20,株式会社ＩＴ　Ｊａｐａｎ,,株式会社,東京都,渋谷区,神宮前４丁目３２番８号,,13,113,1500001,,,,,,,2022-05-20,1,,,,,アイティージャパン,0
1572,7011001147558,新規,0,2022-05-20,2022-05-20,株式会社Ｋ‐ＰＲＯＪＥＣＴ,,株式会社,東京都,渋谷区,道玄坂１丁目１０番８号渋谷道玄坂東急ビル２Ｆ－Ｃ,,13,113,1500043,,,,,,,2022-05-20,1,,,,,ケイプロジェクト,0
1573,7011001147608,新規,0,2022-05-20,2022-05-20,株式会社アドラクト,,株式会社,東京都,渋谷区,桜丘町９番８号,,13,113,1500031,,,,,,,2022-05-20,1,,,,,アドラクト,0
1576,7011003014640,新規,0,2022-05-20,2022-05-20,合同会社Ｎ　Ｗｏｒｋｓ,,合同会社,東京都,渋谷区,広尾４丁目１番１４号,,13,113,1500012,,,,,,,2022-05-20,1,,,,,エヌワークス,0
1578,7011101098882,新規,0,2022-05-20,2022-05-20,株式会社東方舎,,株式会社,東京都,新宿区,大久保１丁目１番３０号,,13,104,1690072,,,,,,,2022-05-20,1,,,,,トウホウシャ,0
1579,7011101098899,新規,0,2022-05-20,2022-05-20,株式会社Ｗｅｂｅｒ,,株式会社,東京都,新宿区,四谷２丁目４番１８号,,13,104,1600004,,,,,,,2022-05-20,1,,,,,ウェバー,0
1600,7011803005087,新規,0,2022-05-20,2022-05-20,合同会社ｓｕｍｏ国際サービス,,合同会社,東京都,葛飾区,新小岩４丁目４４番７号,,13,122,1240024,,,,,,,2022-05-20,1,,,,,スーモコクサイサービス,0
1601,7011803005095,新規,0,2022-05-20,2022-05-20,合同会社Ｍｙｕｕ,,合同会社,東京都,足立区,千住柳町４番２号,,13,121,1200032,,,,,,,2022-05-20,1,,,,,ミュウ,0
1608,7013101008920,新規,0,2022-05-20,2022-05-20,新土木設計株式会社,,株式会社,東京都,青梅市,住江町４２番地の８,,13,205,1980084,,,,,,,2022-05-20,1,,,,,シンドボクセッケイ,0
1622,7020001146494,新規,0,2022-05-20,2022-05-20,株式会社まるひろ,,株式会社,神奈川県,横浜市青葉区,藤が丘１丁目３番地２４,,14,117,2270043,,,,,,,2022-05-20,1,,,,,マルヒロ,0
1627,7020005015539,新規,0,2022-05-20,2022-05-20,一般社団法人メディカルケアネットワーク,,その他の設立登記法人,神奈川県,横浜市中区,港町２丁目９番地関内駅前第二ビル４Ｇ,,14,104,2310017,,,,,,,2022-05-20,1,,,,,メディカルケアネットワーク,0
1628,7021001076013,新規,0,2022-05-20,2022-05-20,株式会社エスシーン,,株式会社,神奈川県,鎌倉市,大船４丁目２１番８号アミュレット鎌倉１Ｆ,,14,204,2470056,,,,,,,2022-05-20,1,,,,,エスシーン,0
1629,7021003011728,新規,0,2022-05-20,2022-05-20,合同会社ＮＮＹＣ８,,合同会社,神奈川県,茅ヶ崎市,中海岸１丁目１番５８号,,14,207,2530055,,,,,,,2022-05-20,1,,,,,,0
1637,7030001148184,新規,0,2022-05-20,2022-05-20,株式会社ＫＭ　ＡＳＰＬＵＳ,,株式会社,埼玉県,さいたま市大宮区,桜木町２丁目３番地大宮マルイ７階,,11,103,3300854,,,,,,,2022-05-20,1,,,,,ケーエムアプラス,0
1638,7030001148275,新規,0,2022-05-20,2022-05-20,株式会社エニクス,,株式会社,埼玉県,新座市,片山１丁目２番２７号国分ビル２０２,,11,230,3520025,,,,,,,2022-05-20,1,,,,,エニクス,0
1639,7030001148283,新規,0,2022-05-20,2022-05-20,京涵商事株式会社,,株式会社,埼玉県,川口市,飯塚３丁目６番１７号,,11,203,3320023,,,,,,,2022-05-20,1,,,,,キョウヒタショウジ,0
1640,7030001148291,新規,0,2022-05-20,2022-05-20,株式会社アリス,,株式会社,埼玉県,川口市,中青木３丁目１－１６グリーンコーポ川口Ｂ棟３３４号,,11,203,3320032,,,,,,,2022-05-20,1,,,,,アリス,0
1650,7040003020051,新規,0,2022-05-20,2022-05-20,合同会社ひまりな,,合同会社,千葉県,千葉市花見川区,幕張町５丁目４１７番地２４９号,,12,102,2620032,,,,,,,2022-05-20,1,,,,,ヒマリナ,0
1651,7040003020068,新規,0,2022-05-20,2022-05-20,合同会社ＡＸＥＬ,,合同会社,千葉県,松戸市,本町１７－１１芹澤ビル６階,,12,207,2710091,,,,,,,2022-05-20,1,,,,,アクセル,0
1653,7060001034852,新規,0,2022-05-20,2022-05-20,ライフラボ株式会社,,株式会社,栃木県,佐野市,町谷町２９３番地１６,,09,204,3270812,,,,,,,2022-05-20,1,,,,,ライフラボ,0
1654,7060001034893,新規,0,2022-05-20,2022-05-20,株式会社亀山,,株式会社,栃木県,小山市,大字萱橋８１１番地,,09,208,3230804,,,,,,,2022-05-20,1,,,,,カメヤマ,0
1674,7120001246061,新規,0,2022-05-20,2022-05-20,株式会社ＥＮＳＩＡ,,株式会社,大阪府,大阪市北区,梅田１丁目２番２－２００号大阪駅前第２ビル２階３の１の２,,27,127,5300001,,,,,,,2022-05-20,1,,,,,エンシア,0
1679,7120103004706,新規,0,2022-05-20,2022-05-20,合同会社トライロ,,合同会社,大阪府,和泉市,府中町５丁目３－１３－１０２,,27,219,5940071,,,,,,,2022-05-20,1,,,,,トライロ,0
1682,7122003002343,新規,0,2022-05-20,2022-05-20,合同会社ＲＡＰＴＯＲ,,合同会社,大阪府,東大阪市,菱江５丁目７－１６,,27,227,5780984,,,,,,,2022-05-20,1,,,,,ラプター,0
1690,7130001071797,新規,0,2022-05-20,2022-05-20,株式会社ＥＤＧＥ,,株式会社,京都府,京都市山科区,竹鼻サイカシ町６番地８,,26,110,6078087,,,,,,,2022-05-20,1,,,,,エッジ,0
1692,7130003007907,新規,0,2022-05-20,2022-05-20,合同会社ＰＬＥＳＩＡＳ,,合同会社,京都府,京都市伏見区,深草大亀谷西久宝寺町４９－２２,,26,109,6120862,,,,,,,2022-05-20,1,,,,,プレジアス,0
1702,7160001024216,新規,0,2022-05-20,2022-05-20,株式会社ｅＮ‐ｃＨａｒｔ,,株式会社,滋賀県,東近江市,五個荘五位田町５９６番地４,,25,213,5291415,,,,,,,2022-05-20,1,,,,,エンチャート,0
1720,7200001040076,新規,0,2022-05-20,2022-05-20,株式会社はるきた,,株式会社,岐阜県,高山市,本町３丁目６０番地,,21,203,5060011,,,,,,,2022-05-20,1,,,,,ハルキタ,0
1721,7210001018939,新規,0,2022-05-20,2022-05-20,株式会社ＩＺＵＭＯ　ＬＡＢＥＬ,,株式会社,福井県,福井市,志津が丘３丁目１６３番地１,,18,201,9103635,,,,,,,2022-05-20,1,,,,,イズモレーベル,0
1722,7210003001513,新規,0,2022-05-20,2022-05-20,合同会社スカイネクスト,,合同会社,福井県,三方上中郡若狭町,玉置第３７号１６番地,,18,501,9191556,,,,,,,2022-05-20,1,,,,,スカイネクスト,0
1730,7240003005627,新規,0,2022-05-20,2022-05-20,合同会社ゆっしぃオート,,合同会社,広島県,三次市,粟屋町２３１８番地１,,34,209,7280025,,,,,,,2022-05-20,1,,,,,ユッシィオート,0
1761,7360001030425,新規,0,2022-05-20,2022-05-20,株式会社名徳,,株式会社,沖縄県,那覇市,長田２丁目１３番４号,,47,201,9020077,,,,,,,2022-05-20,1,,,,,メイトク,0
1762,7360003012033,新規,0,2022-05-20,2022-05-20,合同会社新崎ガス圧接工業,,合同会社,沖縄県,宮古島市,平良字西仲宗根４８６番地５,,47,214,9060006,,,,,,,2022-05-20,1,,,,,アラサキガスアッセツコウギョウ,0
1763,7370001048573,新規,0,2022-05-20,2022-05-20,株式会社Ｄａ．Ｄａ,,株式会社,宮城県,仙台市泉区,泉中央４丁目１５番地の５ライオンズマンション七北田公園１０２,,04,105,9813133,,,,,,,2022-05-20,1,,,,,ダダ,0
1768,7380001032824,新規,0,2022-05-20,2022-05-20,株式会社ジブカン,,株式会社,福島県,白河市,新白河４丁目４,,07,205,9610856,,,,,,,2022-05-20,1,,,,,ジブカン,0
1772,7430001086666,新規,0,2022-05-20,2022-05-20,株式会社ＭＴアグリ,,株式会社,北海道,虻田郡京極町,字三崎５６番地,,01,399,0440121,,,,,,,2022-05-20,1,,,,,エムティアグリ,0
1773,7430001086674,新規,0,2022-05-20,2022-05-20,ホウナル株式会社,,株式会社,北海道,札幌市東区,北三十九条東１０丁目１番３号,,01,103,0070839,,,,,,,2022-05-20,1,,,,,ホウナル,0
1777,7430003013932,新規,0,2022-05-20,2022-05-20,合同会社フィジード,,合同会社,北海道,札幌市東区,苗穂町３丁目４－２７,,01,103,0650043,,,,,,,2022-05-20,1,,,,,フィジード,0
1782,7700150104969,新規,0,2022-05-20,2021-10-04,手をつないでゴール,,その他,東京都,葛飾区,立石８丁目５５－１１－２０５,,13,122,1240012,,,,,,,2021-10-04,1,,,,,テヲツナイデゴール,0
1783,7700150108879,新規,0,2022-05-20,2022-05-20,ＧｕｎｇＨｏ　Ｏｎｌｉｎｅ　Ｅｎｔｅｒｔａｉｎｍｅｎｔ　Ａｍｅｒｉｃａ，Ｉｎｃ．,,外国会社等,,,,,,,,１２７Ｗ　Ｔｏｒｒｅｎｃｅ　Ｂｌｖｄ．Ｒｅｄｏｎｄｏ　Ｂｅａｃｈ　ＣＡ，９０２７７,,,,,,2022-05-20,1,,,,,ガンホーオンラインエンターテイメントアメリカインク,0
1793,8010001226734,新規,0,2022-05-20,2022-05-20,株式会社ＯＡＣＤ,,株式会社,東京都,中央区,勝どき３丁目１２番１２－１６０３号,,13,102,1040054,,,,,,,2022-05-20,1,,,,,オーエーシーデー,0
1794,8010001226783,新規,0,2022-05-20,2022-05-20,ユニバーサル大家株式会社,,株式会社,東京都,中央区,銀座１丁目２２番１１号銀座大竹ビジデンス２Ｆ,,13,102,1040061,,,,,,,2022-05-20,1,,,,,ユニバーサルオオヤ,0
1801,8010003037709,新規,0,2022-05-20,2022-05-20,合同会社エンブルー投資１号,,合同会社,東京都,千代田区,神田三崎町２丁目２番１４号ＢＲＩＣＫＧＡＴＥ水道橋４階,,13,101,1010061,,,,,,,2022-05-20,1,,,,,エンブルートウシイチゴウ,0
1802,8010003037725,新規,0,2022-05-20,2022-05-20,合同会社メアリ,,合同会社,東京都,中央区,日本橋茅場町１丁目５－２シグマ茅場町ビル２Ｆ,,13,102,1030025,,,,,,,2022-05-20,1,,,,,メアリ,0
1803,8010005035025,新規,0,2022-05-20,2022-05-20,一般社団法人福島郡山みらいエネルギー,,その他の設立登記法人,東京都,中央区,日本橋１丁目４番１号日本橋一丁目ビルディング,,13,102,1030027,,,,,,,2022-05-20,1,,,,,フクシマコオリヤマミライエネルギー,0
1812,8010401167396,新規,0,2022-05-20,2022-05-20,ＹＹパートナーズ株式会社,,株式会社,東京都,港区,高輪２丁目１６番２８－５０４号,,13,103,1080074,,,,,,,2022-05-20,1,,,,,ワイワイパートナーズ,0
1813,8010401167454,新規,0,2022-05-20,2022-05-20,ケアリング株式会社,,株式会社,東京都,港区,新橋２丁目１６－１ニュー新橋ビル３０５Ｃ,,13,103,1050004,,,,,,,2022-05-20,1,,,,,ケアリング,0
1817,8010405020997,新規,0,2022-05-20,2022-05-20,一般社団法人中村紘子音楽研究所,,その他の設立登記法人,東京都,港区,三田２丁目３番３４－１３０２号,,13,103,1080073,,,,,,,2022-05-20,1,,,,,ナカムラヒロコオンガクケンキュウショ,0
1823,8010601061192,新規,0,2022-05-20,2022-05-20,フェアバリューアドバイザリー株式会社,,株式会社,東京都,江東区,豊洲５丁目１番１３－１７２０号,,13,108,1350061,,,,,,,2022-05-20,1,,,,,フェアバリューアドバイザリー,0
1827,8010703006244,新規,0,2022-05-20,2022-05-20,合同会社ジョーヌ,,合同会社,東京都,品川区,大崎３丁目５番３号,,13,109,1410032,,,,,,,2022-05-20,1,,,,,ジョーヌ,0
1830,8010803004172,新規,0,2022-05-20,2022-05-20,合同会社ＡＬＬＯ,,合同会社,東京都,大田区,蒲田５丁目２０－７Ｋ５２０ビル８Ｆ,,13,111,1440052,,,,,,,2022-05-20,1,,,,,アロ,0
1833,8010901050894,新規,0,2022-05-20,2022-05-20,Ｑｕｅｌ株式会社,,株式会社,東京都,世田谷区,太子堂２丁目１７－５佐藤ビル３Ｆ４Ｆ,,13,112,1540004,,,,,,,2022-05-20,1,,,,,クエル,0
1834,8010903007389,新規,0,2022-05-20,2022-05-20,合同会社茅ヶ崎キャピタル,,合同会社,東京都,世田谷区,玉川３丁目１番１８－１２０５号,,13,112,1580094,,,,,,,2022-05-20,1,,,,,チガサキキャピタル,0
1843,8011001147383,新規,0,2022-05-20,2022-05-20,株式会社ＷＩＳＥＬ,,株式会社,東京都,目黒区,碑文谷４丁目１８番４号－Ａ,,13,110,1520003,,,,,,,2022-05-20,1,,,,,ワイゼル,0
1844,8011001147499,新規,0,2022-05-20,2022-05-20,株式会社ＬＯＬ,,株式会社,東京都,目黒区,鷹番３丁目４番４号,,13,110,1520004,,,,,,,2022-05-20,1,,,,,エルオーエル,0
1845,8011001147508,新規,0,2022-05-20,2022-05-20,ＭＯＮＯＶＥＲＸ株式会社,,株式会社,東京都,渋谷区,桜丘町４－１４ＶＯＲＴ渋谷桜丘ビル５Ｆ,,13,113,1500031,,,,,,,2022-05-20,1,,,,,,0
1846,8011001147540,新規,0,2022-05-20,2022-05-20,株式会社ＨＡＫＵＡＩ,,株式会社,東京都,目黒区,上目黒２丁目２４番１５号ボヌール・中目黒８０１,,13,110,1530051,,,,,,,2022-05-20,1,,,,,ハクアイ,0
1847,8011001147607,新規,0,2022-05-20,2022-05-20,株式会社ＥＸＰＥＲＩＭＥＮＴＳ,,株式会社,東京都,渋谷区,道玄坂１丁目１０番８号渋谷道玄坂東急ビル２Ｆ－Ｃ,,13,113,1500043,,,,,,,2022-05-20,1,,,,,,0
1852,8011101098881,新規,0,2022-05-20,2022-05-20,株式会社ＦＲＯＮＴＩＥＲ,,株式会社,東京都,新宿区,歌舞伎町２丁目２７－１Ｌｅｅ２ビルＢ１－Ｉ,,13,104,1600021,,,,,,,2022-05-20,1,,,,,フロンティア,0
1853,8011101098898,新規,0,2022-05-20,2022-05-20,株式会社ＬｉｆｅＭａｋｅｒ,,株式会社,東京都,新宿区,四谷２丁目４番１８号,,13,104,1600004,,,,,,,2022-05-20,1,,,,,ライフメイカー,0
1854,8011101098907,新規,0,2022-05-20,2022-05-20,Ｓｕｓｔａｉｎａｂｌｅ　Ｃｅｌｌ　Ｔｈｅｒａｐｅｕｔｉｃｓ株式会社,,株式会社,東京都,新宿区,須賀町８番地,,13,104,1600018,,,,,,,2022-05-20,1,,,,,サステナブルセルセラピューティクス,0
1864,8011501028050,新規,0,2022-05-20,2022-05-20,株式会社三縁堂,,株式会社,東京都,荒川区,南千住１丁目５３番１２号,,13,118,1160003,,,,,,,2022-05-20,1,,,,,サンエンドウ,0
1871,8011801040746,新規,0,2022-05-20,2022-05-20,通達建設株式会社,,株式会社,東京都,足立区,六木２丁目４番３号,,13,121,1210052,,,,,,,2022-05-20,1,,,,,ツウタツケンセツ,0
1893,8021003011727,新規,0,2022-05-20,2022-05-20,ＯＷＯＮ　ＪＡＰＡＮ合同会社,,合同会社,神奈川県,相模原市南区,南台５丁目２番３－３０８号,,14,153,2520314,,,,,,,2022-05-20,1,,,,,オウオンジャパン,0
1900,8030001148274,新規,0,2022-05-20,2022-05-20,株式会社ＤＡＩＫＩＣＨＩ不動産,,株式会社,埼玉県,深谷市,上柴町東６丁目８番１１号,,11,218,3660051,,,,,,,2022-05-20,1,,,,,ダイキチフドウサン,0
1905,8030003019399,新規,0,2022-05-20,2022-05-20,合同会社ＴＲアセットソリューション,,合同会社,埼玉県,久喜市,栗橋東４丁目８番７－７号,,11,232,3491103,,,,,,,2022-05-20,1,,,,,ティアールアセットソリューション,0
1907,8030005020867,新規,0,2022-05-20,2022-05-20,一般社団法人埼玉韓日文化交流センター,,その他の設立登記法人,埼玉県,さいたま市浦和区,常盤４丁目１６番７号,,11,107,3300061,,,,,,,2022-05-20,1,,,,,サイタマカンニチブンカコウリュウセンター,0
1918,8040001123458,新規,0,2022-05-20,2022-05-20,ＡＯＩ株式会社,,株式会社,千葉県,千葉市中央区,富士見１丁目１４番１３号千葉大栄ビル８階,,12,101,2600015,,,,,,,2022-05-20,1,,,,,アオイ,0
1926,8060001034851,新規,0,2022-05-20,2022-05-20,株式会社あんしん・サポート,,株式会社,栃木県,日光市,瀬尾３９１番地１１,,09,206,3211264,,,,,,,2022-05-20,1,,,,,アンシンサポート,0
1927,8060001034876,新規,0,2022-05-20,2022-05-20,ＳＭ　ＴＲＡＤＩＮＧ株式会社,,株式会社,栃木県,下都賀郡野木町,大字佐川野字寺家山４７２－３、３階３０１号室,,09,364,3290104,,,,,,,2022-05-20,1,,,,,エスエムトレーディング,0
1932,8070003004488,新規,0,2022-05-20,2022-05-20,合同会社プレーン,,合同会社,群馬県,富岡市,上高瀬１３番地１０,,10,210,3702334,,,,,,,2022-05-20,1,,,,,プレーン,0
1939,8080101023298,新規,0,2022-05-20,2022-05-20,株式会社桜亥,,株式会社,静岡県,富士宮市,小泉２４１２番地の９,,22,207,4180022,,,,,,,2022-05-20,1,,,,,サクライ,0
1945,8100001035358,新規,0,2022-05-20,2022-05-20,株式会社ぼうけん製作所,,株式会社,長野県,長野市,居町９５番地３グランドハイツベスティ居町３０４,,20,201,3800901,,,,,,,2022-05-20,1,,,,,ボウケンセイサクジョ,0
1955,8120001246011,新規,0,2022-05-20,2022-05-20,ＪＰ‐Ｌｉｋｅｓ株式会社,,株式会社,大阪府,大阪市西成区,天下茶屋１丁目４番１８号ＳＵＮ生一番館２０２号室,,27,122,5570014,,,,,,,2022-05-20,1,,,,,ジェーピーライクス,0
1956,8120003021718,新規,0,2022-05-20,2022-05-20,合同会社ヒューマンインテリジェントサービス,,合同会社,大阪府,大阪市中央区,島之内１丁目１５番４号,,27,128,5420082,,,,,,,2022-05-20,1,,,,,ヒューマンインテリジェントサービス,0
1966,8120901045990,新規,0,2022-05-20,2022-05-20,株式会社ＭＭＩ,,株式会社,大阪府,高槻市,宮田町２丁目１８番１０号,,27,207,5691142,,,,,,,2022-05-20,1,,,,,エムエムアイ,0
1969,8122003002342,新規,0,2022-05-20,2022-05-20,ＴＲＪ合同会社,,合同会社,大阪府,東大阪市,御厨６丁目５番５号,,27,227,5770032,,,,,,,2022-05-20,1,,,,,ティーアールジェイ,0
1971,8130003007939,新規,0,2022-05-20,2022-05-20,合同会社エーファクトリー,,合同会社,京都府,京都市南区,久世上久世町７９－２,,26,107,6018212,,,,,,,2022-05-20,1,,,,,エーファクトリー,0
1994,8180001151370,新規,0,2022-05-20,2022-05-20,株式会社ＣＵＲＩＯＳＴＡ,,株式会社,愛知県,名古屋市中区,正木１丁目１３番３号ＩＺ　ＲＥＳＩＤＥＮＣＥ　２０２,,23,106,4600024,,,,,,,2022-05-20,1,,,,,キュリオスタ,0
2001,8220001024852,新規,0,2022-05-20,2022-05-20,株式会社イチゴイチエ,,株式会社,石川県,金沢市,間明町１丁目６６番地ＩＩ号室,00126610,17,201,9218005,,,,,,,2022-05-20,1,,,,,イチゴイチエ,0
2003,8230001019364,新規,0,2022-05-20,2022-05-20,効新株式会社,,株式会社,富山県,高岡市,佐野１１８１番地,,16,202,9330826,,,,,,,2022-05-20,1,,,,,コウシン,0
2007,8240003005626,新規,0,2022-05-20,2022-05-20,合同会社奏,,合同会社,広島県,福山市,草戸町１丁目２３番９号,,34,207,7200831,,,,,,,2022-05-20,1,,,,,カナデ,0
2020,8290003012535,新規,0,2022-05-20,2022-05-20,合同会社サポートワン,,合同会社,福岡県,春日市,大和町２丁目４番地２Ｂｅａｔｕｓ南福岡２０３号,,40,218,8160874,,,,,,,2022-05-20,1,,,,,サポートワン,0
2022,8310001017863,新規,0,2022-05-20,2022-05-20,株式会社小野総建,,株式会社,長崎県,佐世保市,白岳町４４０番地１０,,42,202,8571164,,,,,,,2022-05-20,1,,,,,オノソウケン,0
2023,8320005009996,新規,0,2022-05-20,2022-05-20,一般社団法人総合型スポーツクラブＬｉｎｋｓ,,その他の設立登記法人,大分県,中津市,沖代町２丁目６番２１号,,44,203,8710021,,,,,,,2022-05-20,1,,,,,ソウゴウガタスポーツクラブリンクス,0
2030,8340003003792,新規,0,2022-05-20,2022-05-20,ＢＡＣＫ　ＦＬＯＯＲ合同会社,,合同会社,鹿児島県,志布志市,志布志町帖６４９２,,46,221,8997102,,,,,,,2022-05-20,1,,,,,バックフロア,0
2035,8360003012016,新規,0,2022-05-20,2022-05-20,合同会社島むすめＬＵＡＮＡ,,合同会社,沖縄県,宮古島市,平良字久貝７２６番地１サザンリッチＨｉｓａｍａｔｓｕ３０６,,47,214,9060015,,,,,,,2022-05-20,1,,,,,シマムスメルアナ,0
2054,8430003013915,新規,0,2022-05-20,2022-05-20,合同会社ＡＩＭＥＳＬＡ,,合同会社,北海道,札幌市東区,北五条東１０丁目１６－４－２３０２,,01,103,0650005,,,,,,,2022-05-20,1,,,,,アイメスラ,0
2055,8430003013931,新規,0,2022-05-20,2022-05-20,合同会社レガリア,,合同会社,北海道,札幌市中央区,北二条東１丁目５番２号,,01,101,0600032,,,,,,,2022-05-20,1,,,,,レガリア,0
2056,8430005014473,新規,0,2022-05-20,2022-05-20,共生リンク協同組合,,その他の設立登記法人,北海道,札幌市清田区,平岡公園東４丁目９－５,,01,110,0040882,,,,,,,2022-05-20,1,,,,,キョウセイリンク,0
2057,8440003001456,新規,0,2022-05-20,2022-05-20,合同会社エムズ企画,,合同会社,北海道,寿都郡黒松内町,字黒松内４３,,01,393,0480101,,,,,,,2022-05-20,1,,,,,エムズキカク,0
2064,8470005006442,新規,0,2022-05-20,2022-05-20,労住協第１１ビル管理組合法人,,その他の設立登記法人,香川県,坂出市,京町３丁目７番２７号,,37,203,7620001,,,,,,,2022-05-20,1,,,,,ロウジュウキョウダイジュウイチビル,0
2071,8700150034513,新規,0,2022-05-20,2015-10-09,ぽぽんた市場運営管理組合,,その他,北海道,勇払郡むかわ町,松風３丁目１,,01,586,0540041,,,,,,,2015-10-09,1,,,,,ポポンタイチバウンエイカンリクミアイ,0
2072,8700150108580,新規,0,2022-05-20,2022-05-10,仮想定規,,その他,東京都,世田谷区,桜上水２丁目１１－２１,,13,112,1560045,,,,,,,2022-05-10,1,,,,,カソウジヨウギ,0
2073,8700150108713,新規,0,2022-05-20,2022-05-13,房総楽友協会,,その他,千葉県,君津市,南久保３丁目５－１０,,12,225,2991154,,,,,,,2022-05-13,1,,,,,ボウソウガクユウキヨウカイ,0
2074,8700150108903,新規,0,2022-05-20,2022-05-20,Ｓｏｎｙ　Ｉｎｄｉａ　Ｓｏｆｔｗａｒｅ　Ｃｅｎｔｒｅ　Ｐｒｉｖａｔｅ　Ｌｉｍｉｔｅｄ,,外国会社等,,,,,,,,２ｎｄ　Ｆｌｏｏｒ　Ｓｏｕｔｈ　Ｗｉｎｇ，Ｔｏｗｅｒ　２，Ｈｉｂｉｓｃｕｓ，Ｅｍｂａｓｓｙ　Ｔｅｃｈ　Ｖｉｌｌａｇｅ（ＳＥＺ），Ｏｕｔｅｒ　Ｒｉｎｇ,,,,,,2022-05-20,1,,,,,ソニーインデイアソフトウエアセンタープライベートリミテツド,0
2090,9010001226700,新規,0,2022-05-20,2022-05-20,ＪＳＦＰバリュークリエーション株式会社,,株式会社,東京都,千代田区,大手町２丁目２番２号,,13,101,1000004,,,,,,,2022-05-20,1,,,,,ジェイエスエフピーバリュークリエーション,0
2097,9010003037716,新規,0,2022-05-20,2022-05-20,グッドライフ合同会社,,合同会社,東京都,中央区,銀座１丁目２２番１１号銀座大竹ビジデンス２階,,13,102,1040061,,,,,,,2022-05-20,1,,,,,グッドライフ,0
2098,9010003037724,新規,0,2022-05-20,2022-05-20,Ｃｒｏａｔｉｖｅ合同会社,,合同会社,東京都,文京区,千石２丁目３９番２号,,13,105,1120011,,,,,,,2022-05-20,1,,,,,,0
2100,9010101015185,新規,0,2022-05-20,2022-05-20,ＬｉｅＮ株式会社,,株式会社,東京都,八王子市,鑓水２丁目８３番地３－１００８,,13,201,1920375,,,,,,,2022-05-20,1,,,,,リエン,0
2103,9010401167387,新規,0,2022-05-20,2022-05-20,ＫＤＤＩアジャイル開発センター株式会社,,株式会社,東京都,港区,虎ノ門２丁目１０番１号,,13,103,1050001,,,,,,,2022-05-20,1,,,,,ケイディーディーアイアジャイルカイハツセンター,0
2104,9010403027589,新規,0,2022-05-20,2022-05-20,ＢＢ＆Ａ合同会社,,合同会社,東京都,港区,芝浦４丁目１９番１号芝浦アイランドケープタワー８０６,,13,103,1080023,,,,,,,2022-05-20,1,,,,,ビービーアンドエー,0
2112,9010701042686,新規,0,2022-05-20,2022-05-20,株式会社セキューリド,,株式会社,東京都,品川区,東五反田２丁目９番１－２３０１号,,13,109,1410022,,,,,,,2022-05-20,1,,,,,セキューリド,0
2117,9010703006243,新規,0,2022-05-20,2022-05-20,合同会社フィールド,,合同会社,東京都,品川区,西大井４丁目７番７号,,13,109,1400015,,,,,,,2022-05-20,1,,,,,フィールド,0
2118,9010801032983,新規,0,2022-05-20,2022-05-20,株式会社宇山,,株式会社,東京都,大田区,東糀谷３丁目４番１８号,,13,111,1440033,,,,,,,2022-05-20,1,,,,,ウヤマ,0
2125,9010903007388,新規,0,2022-05-20,2022-05-20,合同会社花一米,,合同会社,東京都,世田谷区,用賀３丁目１７番１８号,,13,112,1580097,,,,,,,2022-05-20,1,,,,,ハナイチマイ,0
2132,9011001147507,新規,0,2022-05-20,2022-05-20,株式会社アンドミナ,,株式会社,東京都,渋谷区,桜丘町４－１４ＶＯＲＴ渋谷桜丘ビル５Ｆ,,13,113,1500031,,,,,,,2022-05-20,1,,,,,,0
2135,9011003014688,新規,0,2022-05-20,2022-05-20,ＰＨＩＬ’Ｓ合同会社,,合同会社,東京都,渋谷区,神山町３１－５プラウド神山町１０４,,13,113,1500047,,,,,,,2022-05-20,1,,,,,フィルズ,0
2137,9011005009570,新規,0,2022-05-20,2022-05-20,税理士法人ベイシス,,その他の設立登記法人,東京都,渋谷区,渋谷２丁目１４番１３号,,13,113,1500002,,,,,,,2022-05-20,1,,,,,,0
2140,9011101098906,新規,0,2022-05-20,2022-05-20,株式会社ｇｏａｌｓ,,株式会社,東京都,新宿区,下落合３丁目１７番３１号オープンレジデンシア目白アベニュー４０２,,13,104,1610033,,,,,,,2022-05-20,1,,,,,ゴールズ,0
2143,9011301027788,新規,0,2022-05-20,2022-05-20,ＳＡＣＳ株式会社,,株式会社,東京都,杉並区,松ノ木１丁目１２番５０－１０号,,13,115,1660014,,,,,,,2022-05-20,1,,,,,サックス,0
2151,9011701025318,新規,0,2022-05-20,2022-05-20,ビジョン教育株式会社,,株式会社,東京都,江戸川区,東葛西７丁目２－９サリダ６０１,,13,123,1340084,,,,,,,2022-05-20,1,,,,,ビジョンキョウイク,0
2158,9012403005376,新規,0,2022-05-20,2022-05-20,タネノス合同会社,,合同会社,東京都,多摩市,落合１丁目４６番１号ココリア多摩センター７階,,13,224,2060033,,,,,,,2022-05-20,1,,,,,タネノス,0
2166,9013303006159,新規,0,2022-05-20,2022-05-20,合同会社シイケーケー,,合同会社,東京都,豊島区,雑司が谷１丁目２８番１２号,,13,116,1710032,,,,,,,2022-05-20,1,,,,,シイケーケー,0
2172,9020003021792,新規,0,2022-05-20,2022-05-20,ｃｏｒｔｉ合同会社,,合同会社,神奈川県,川崎市中原区,木月１丁目３２番３号,,14,133,2110025,,,,,,,2022-05-20,1,,,,,,0
2173,9020005015537,新規,0,2022-05-20,2022-05-20,行政書士法人ＹＭＤ合同事務所,,その他の設立登記法人,神奈川県,横浜市西区,北幸２丁目１０番４０号ＴＹビル７階,,14,103,2200004,,,,,,,2022-05-20,1,,,,,ワイエムディーゴウドウジムショ,0
2180,9021001076011,新規,0,2022-05-20,2022-05-20,日越ゆい産業株式会社,,株式会社,神奈川県,鎌倉市,七里ガ浜東２丁目９番７号,,14,204,2480025,,,,,,,2022-05-20,1,,,,,ニチエツユイサンギョウ,0
2184,9021003011726,新規,0,2022-05-20,2022-05-20,合同会社Ｍ４建築設計事務所,,合同会社,神奈川県,相模原市緑区,二本松２丁目４０番２号,,14,151,2520137,,,,,,,2022-05-20,1,,,,,エムフォーケンチクセッケイジムショ,0
2195,9030005020866,新規,0,2022-05-20,2022-05-20,一般社団法人石原莞爾記念館,,その他の設立登記法人,埼玉県,さいたま市浦和区,常盤１丁目３番９号ロイヤルプラザ常盤２０５,,11,107,3300061,,,,,,,2022-05-20,1,,,,,イシハラカンジキネンカン,0
2196,9030005020874,新規,0,2022-05-20,2022-05-20,司法書士法人チェスター大宮,,その他の設立登記法人,埼玉県,さいたま市大宮区,仲町２丁目２８番３号,,11,103,3300845,,,,,,,2022-05-20,1,,,,,チェスターオオミヤ,0
2201,9040001123481,新規,0,2022-05-20,2022-05-20,ＯＨＴ株式会社,,株式会社,千葉県,流山市,平和台２丁目１０番地の４,,12,220,2700157,,,,,,,2022-05-20,1,,,,,オーエイチティー,0
2210,9050001051095,新規,0,2022-05-20,2022-05-20,株式会社ティー・エム・ケー,,株式会社,茨城県,つくば市,高崎１７９３番地１,,08,220,3001245,,,,,,,2022-05-20,1,,,,,ティーエムケー,0
2215,9070001039238,新規,0,2022-05-20,2022-05-20,株式会社ＡＴＨＥＮＡ’Ｓ,,株式会社,群馬県,太田市,西矢島町５４４番地６ヒカリビル３階,,10,205,3730823,,,,,,,2022-05-20,1,,,,,アテナス,0
2216,9070003004487,新規,0,2022-05-20,2022-05-20,合同会社ＴＡＩＺＡＮトレーディング,,合同会社,群馬県,館林市,成島町５８１番地１成島ハイツ１０３,,10,207,3740055,,,,,,,2022-05-20,1,,,,,タイザントレーディング,0
2217,9080101023297,新規,0,2022-05-20,2022-05-20,株式会社フジケアコネクト,,株式会社,静岡県,富士市,森島１７番地の２０,,22,210,4160948,,,,,,,2022-05-20,1,,,,,フジケアコネクト,0
2221,9090005007494,新規,0,2022-05-20,2022-05-20,一般社団法人アモナ,,その他の設立登記法人,山梨県,甲府市,池田２丁目６番３４号,,19,201,4000062,,,,,,,2022-05-20,1,,,,,アモナ,0
2229,9120001245994,新規,0,2022-05-20,2022-05-20,嘉禾商事株式会社,,株式会社,大阪府,大阪市住吉区,遠里小野３丁目１１番５－１００１号,,27,120,5580032,,,,,,,2022-05-20,1,,,,,カカショウジ,0
2231,9120003021709,新規,0,2022-05-20,2022-05-20,合同会社Ｙｏｕ＆Ｉ,,合同会社,大阪府,大阪市生野区,鶴橋２丁目２番１９号２Ｆ,,27,116,5440031,,,,,,,2022-05-20,1,,,,,ユーアンドアイ,0
2232,9120003021725,新規,0,2022-05-20,2022-05-20,合同会社まりも,,合同会社,大阪府,大阪市生野区,林寺２丁目１７番３６号,,27,116,5440023,,,,,,,2022-05-20,1,,,,,マリモ,0
2236,9120101065608,新規,0,2022-05-20,2022-05-20,株式会社ＣＯＲＥＬＡＶＩＳＨ,,株式会社,大阪府,羽曳野市,南恵我之荘４丁目１番１５号３Ｆ,,27,222,5830885,,,,,,,2022-05-20,1,,,,,コアラビッシュ,0
2247,9140003017671,新規,0,2022-05-20,2022-05-20,合同会社ＦＪコネクト,,合同会社,兵庫県,西宮市,丸橋町８番５２－１１０号,,28,204,6620831,,,,,,,2022-05-20,1,,,,,エフジェイコネクト,0
2287,9290003012534,新規,0,2022-05-20,2022-05-20,合同会社ＤＥＮＥＮ,,合同会社,福岡県,福岡市早良区,南庄６丁目４番２２－４０３号,,40,137,8140031,,,,,,,2022-05-20,1,,,,,デンエン,0
2291,9340001024740,新規,0,2022-05-20,2022-05-20,株式会社大世,,株式会社,鹿児島県,鹿児島市,田上５丁目８番３４号,,46,201,8900034,,,,,,,2022-05-20,1,,,,,,0
2293,9350001017751,新規,0,2022-05-20,2022-05-20,株式会社ＤＭＫ,,株式会社,宮崎県,児湯郡都農町,大字川北１８８４０番地２,,45,406,8891201,,,,,,,2022-05-20,1,,,,,ディーエムケイ,0
2303,9360003012031,新規,0,2022-05-20,2022-05-20,合同会社ＵＣＬ,,合同会社,沖縄県,うるま市,勝連南風原４４３１番地１ウエストオーシャンはえばる１０３号,,47,213,9042311,,,,,,,2022-05-20,1,,,,,ユーシーエル,0
2304,9360005006659,新規,0,2022-05-20,2022-05-20,一般社団法人実戦沖縄武道連盟琉成會,,その他の設立登記法人,沖縄県,中頭郡西原町,字翁長５０８－２,,47,329,9030117,,,,,,,2022-05-20,1,,,,,ジッセンオキナワブドウレンメイリュウセイカイ,0
2311,9430001086672,新規,0,2022-05-20,2022-05-20,株式会社ストラーダ,,株式会社,北海道,札幌市北区,北二十七条西７丁目３－７－５,,01,102,0010027,,,,,,,2022-05-20,1,,,,,ストラーダ,0
2312,9430001086706,新規,0,2022-05-20,2022-05-20,株式会社イロドリ,,株式会社,北海道,札幌市中央区,南十三条西２３丁目１番１５－１０５号,,01,101,0640913,,,,,,,2022-05-20,1,,,,,イロドリ,0
2313,9430003013930,新規,0,2022-05-20,2022-05-20,朱雀高科合同会社,,合同会社,北海道,札幌市豊平区,福住三条１２丁目１１番３号,,01,105,0620043,,,,,,,2022-05-20,1,,,,,スザクコウカ,0
2314,9430005014472,新規,0,2022-05-20,2022-05-20,一般社団法人アクセプト,,その他の設立登記法人,北海道,札幌市東区,北九条東１２丁目２番１５号,,01,103,0650009,,,,,,,2022-05-20,1,,,,,アクセプト,0
2315,9460103001460,新規,0,2022-05-20,2022-05-20,ＢＭＺ　Ｔｒａｄｉｎｇ合同会社,,合同会社,北海道,中川郡本別町,美里別９２番地２,,01,646,0893300,,,,,,,2022-05-20,1,,,,,ビーエムゼットトレーディング,0
2316,9480001011741,新規,0,2022-05-20,2022-05-20,株式会社ＬＡＵＧＨ　ＰＬＡＮ,,株式会社,徳島県,徳島市,川内町宮島本浦１５７番地,,36,201,7710114,,,,,,,2022-05-20,1,,,,,ラフプラン,0
2324,9700150031724,新規,0,2022-05-20,2015-10-09,長浜市湖北地域農作物病害虫防除組合,,その他,滋賀県,長浜市,湖北高田町７５３－２,,25,203,5290342,,,,,,,2015-10-09,1,,,,,ナガハマシコホクチイキノウサクモツビヨウガイチユウボウジヨクミアイ,0
2325,9700150107796,新規,0,2022-05-20,2022-04-11,Ａｔａｃｈｉｔａｃｈｉ,,その他,東京都,台東区,元浅草３丁目２２－１,,13,106,1110041,,,,,,,2022-04-11,1,,,,,アタチタチ,0
2326,9700150108415,新規,0,2022-05-20,2022-04-28,ミュージカルＳＭＩＬＥ実行委員会,,その他,福岡県,福津市,畦町７００,,40,224,8113202,,,,,,,2022-04-28,1,,,,,ミユージカルスマイルジツコウイインカイ,0
2327,9700150108539,新規,0,2022-05-20,2022-05-09,音楽企画ふたりのフランツ,,その他,東京都,調布市,若葉町１丁目２９－１－４１２,,13,208,1820003,,,,,,,2022-05-09,1,,,,,オンガクキカクフタリノフランツ,0
2328,9700150108893,新規,0,2022-05-20,2022-05-20,ＹＣＰホールディングスグローバルリミテッド,,外国会社等,東京都,港区,南青山１丁目１番１号,,13,103,1070062,シンガポール共和国、フレイザー・ストリート３、デュオ・タワー＃０５－２１,,,,,,2022-05-20,1,,,,,ワイシーピーホールデイングスグローバルリミテッド,0
2329,9700150108902,新規,0,2022-05-20,2022-05-20,Ｓ．Ｍ．ＥＮＴＥＲＰＲＩＳＥＳ,,外国会社等,千葉県,八街市,東吉田４９４番地２２,,12,230,2891114,スリランカ民主社会主義共和国、キャンディ、アクラナ、テランブガハワッタ、２８７－Ｃ,,,,,,2022-05-20,1,,,,,エスエムエンタープライセス,0
