sequenceNumber,corporateNumber,process,correct,updateDate,changeDate,name,nameImageId,kind,prefectureName,cityName,streetNumber,addressImageId,prefectureCode,cityCode,postCode,addressOutside,addressOutsideImageId,closeDate,closeCause,successorCorporateNumber,changeCause,assignmentDate,latest,enName,enPrefectureName,enCityName,enAddressOutside,furigana,hihyoji
5,1010001226170,新規,0,2022-05-10,2022-05-10,株式会社リエラ,,株式会社,東京都,八丈島八丈町,三根１５４９,,13,401,1001511,,,,,,,2022-05-10,1,,,,,リエラ,0
6,1010001226245,新規,0,2022-05-10,2022-05-10,リヒトコンサルティング株式会社,,株式会社,東京都,千代田区,丸の内１丁目１番３号日本生命丸の内ガーデンタワー３Ｆ,,13,101,1000005,,,,,,,2022-05-10,1,,,,,リヒトコンサルティング,0
7,1010001226344,新規,0,2022-05-10,2022-05-10,ＣＯＮＳＴＲＵＣＴＩＯＮ　ＮＥＴＷＯＲＫ株式会社,,株式会社,東京都,千代田区,丸の内３丁目４番２号,,13,101,1000005,,,,,,,2022-05-10,1,,,,,コンストラクションネットワーク,0
8,1010001226377,新規,0,2022-05-10,2022-05-10,株式会社彩コーポレーション,,株式会社,東京都,千代田区,丸の内１丁目８番３号丸の内トラストタワー本館２０階,,13,101,1000005,,,,,,,2022-05-10,1,,,,,サイコーポレーション,0
9,1010001226393,新規,0,2022-05-10,2022-05-10,Ｏｉｍ株式会社,,株式会社,東京都,中央区,築地６丁目１番１０号２階,,13,102,1040045,,,,,,,2022-05-10,1,,,,,オーエム,0
10,1010001226402,新規,0,2022-05-10,2022-05-10,Ｊａｐａｎ　Ｅｃｏ　Ｐｕｍｐ株式会社,,株式会社,東京都,中央区,東日本橋２丁目２８番５号５０８,,13,102,1030004,,,,,,,2022-05-10,1,,,,,ジャパンエコパンプ,0
11,1010001226419,新規,0,2022-05-10,2022-05-10,株式会社エトワール,,株式会社,東京都,中央区,銀座７丁目１３番６号サガミビル２階,,13,102,1040061,,,,,,,2022-05-10,1,,,,,エトワール,0
12,1010001226427,新規,0,2022-05-10,2022-05-10,株式会社Ｈｕｂ４Ｂｅａｕｔｉｅｓ,,株式会社,東京都,千代田区,一番町１３番地２,,13,101,1020082,,,,,,,2022-05-10,1,,,,,ハブフォービューティーズ,0
13,1010001226451,新規,0,2022-05-10,2022-05-10,株式会社Ｈｏｎｅｙｓ,,株式会社,東京都,文京区,千石１丁目２１番９号１階,,13,105,1120011,,,,,,,2022-05-10,1,,,,,ハニーズ,0
14,1010001226476,新規,0,2022-05-10,2022-05-10,株式会社レガッタ知財総合コンサルティング,,株式会社,東京都,中央区,銀座１丁目２７番８号,,13,102,1040061,,,,,,,2022-05-10,1,,,,,レガッタチザイソウゴウコンサルティング,0
15,1010001226484,新規,0,2022-05-10,2022-05-10,株式会社ＡＭＦｉ,,株式会社,東京都,千代田区,内神田３丁目１２－４第一岸ビル４０２,,13,101,1010047,,,,,,,2022-05-10,1,,,,,アンフィ,0
16,1010003037640,新規,0,2022-05-10,2022-05-10,合同会社さすらい,,合同会社,東京都,千代田区,二番町５番地２麹町駅プラザ９０１,,13,101,1020084,,,,,,,2022-05-10,1,,,,,サスライ,0
17,1010005034974,新規,0,2022-05-10,2022-05-10,一般社団法人森林資源再生,,その他の設立登記法人,東京都,中央区,八丁堀３丁目１２番８号,,13,102,1040032,,,,,,,2022-05-10,1,,,,,シンリンシゲンサイセイ,0
20,1010401166917,新規,0,2022-05-10,2022-05-10,Ｄｉｃｅ　Ｔｅｃｈｎｏｌｏｇｉｅｓ株式会社,,株式会社,東京都,港区,浜松町１丁目２７番１７号三和ビル４階,,13,103,1050013,,,,,,,2022-05-10,1,,,,,ダイステクノロジーズ,0
25,1010603009527,新規,0,2022-05-10,2022-05-10,合同会社Ｎｕｋｕｍａｒｕ　Ｔａｂｌｅ,,合同会社,東京都,江東区,福住１丁目２番８号芹澤ビル１階,,13,108,1350032,,,,,,,2022-05-10,1,,,,,ヌクマルテーブル,0
26,1010701042603,新規,0,2022-05-10,2022-05-10,株式会社レイジードラゴン,,株式会社,東京都,品川区,東五反田５丁目１３番１７号,,13,109,1410022,,,,,,,2022-05-10,1,,,,,レイジードラゴン,0
27,1010801032941,新規,0,2022-05-10,2022-05-10,株式会社オズモス,,株式会社,東京都,大田区,北千束３丁目３５番５号ＮｅｆｒｏｃｋＬａｂＯｏｋａｙａｍａ４０１,,13,111,1450062,,,,,,,2022-05-10,1,,,,,オズモス,0
28,1010803004162,新規,0,2022-05-10,2022-05-10,合同会社Ｄ．Ｅ．フューチャー,,合同会社,東京都,大田区,田園調布５丁目２５－６,,13,111,1450071,,,,,,,2022-05-10,1,,,,,ディーイーフューチャー,0
31,1010901050728,新規,0,2022-05-10,2022-05-10,株式会社Ｐｌｅａｐ,,株式会社,東京都,世田谷区,成城６丁目２１番７号,,13,112,1570066,,,,,,,2022-05-10,1,,,,,,0
32,1010901050827,新規,0,2022-05-10,2022-05-10,株式会社トップ・ランド,,株式会社,東京都,世田谷区,北烏山９丁目２４番１７号,,13,112,1570061,,,,,,,2022-05-10,1,,,,,トップランド,0
42,1011001147324,新規,0,2022-05-10,2022-05-10,株式会社クオーラ,,株式会社,東京都,渋谷区,渋谷１丁目１番３号アミーホール３階,,13,113,1500002,,,,,,,2022-05-10,1,,,,,クオーラ,0
43,1011001147365,新規,0,2022-05-10,2022-05-10,株式会社ｒｏｍｐ,,株式会社,東京都,渋谷区,恵比寿１丁目９番５号恵比寿ＳＴビル３０１,,13,113,1500013,,,,,,,2022-05-10,1,,,,,ロンプ,0
44,1011003014596,新規,0,2022-05-10,2022-05-10,ＣＩＲＦ合同会社,,合同会社,東京都,渋谷区,神宮前６丁目２３番４号桑野ビル２階,,13,113,1500001,,,,,,,2022-05-10,1,,,,,サーフ,0
45,1011003014646,新規,0,2022-05-10,2022-05-10,合同会社サニーデイソーダ,,合同会社,東京都,渋谷区,恵比寿３丁目４３番１－９０３号,,13,113,1500013,,,,,,,2022-05-10,1,,,,,サニーデイソーダ,0
50,1011101098756,新規,0,2022-05-10,2022-05-10,インテルコム・サービス株式会社,,株式会社,東京都,新宿区,高田馬場１丁目２０－７－３０５,,13,104,1690075,,,,,,,2022-05-10,1,,,,,インテルコムサービス,0
51,1011101098780,新規,0,2022-05-10,2022-05-10,ＦＵＮＸＳＢ株式会社,,株式会社,東京都,新宿区,西新宿４丁目３２－６－７０５,,13,104,1600023,,,,,,,2022-05-10,1,,,,,ファンクスエスビー,0
52,1011103011725,新規,0,2022-05-10,2022-05-10,合同会社ＫＥＹ　ＩＸ,,合同会社,東京都,新宿区,新宿２丁目１２番１３号新宿アントレサロンビル２階,,13,104,1600022,,,,,,,2022-05-10,1,,,,,ケイナイン,0
54,1011203003812,新規,0,2022-05-10,2022-05-10,合同会社リープレイ,,合同会社,東京都,中野区,上鷺宮１丁目２５番１‐３０６号,,13,114,1650031,,,,,,,2022-05-10,1,,,,,リープレイ,0
57,1011401024214,新規,0,2022-05-10,2022-05-10,株式会社Ｏｎｌｙ　ｙｏｕｒｓ,,株式会社,東京都,板橋区,弥生町２１－１０,,13,119,1730021,,,,,,,2022-05-10,1,,,,,オンリーユアーズ,0
58,1011403003653,新規,0,2022-05-10,2022-05-10,合同会社Ｋ３,,合同会社,東京都,板橋区,赤塚新町１丁目２１番１０号浪間ビル１階,,13,119,1750093,,,,,,,2022-05-10,1,,,,,ケースリー,0
65,1011701025283,新規,0,2022-05-10,2022-05-10,山口工業株式会社,,株式会社,東京都,江戸川区,中葛西３丁目２４番２１号,,13,123,1340083,,,,,,,2022-05-10,1,,,,,ヤマグチコウギョウ,0
67,1012401039169,新規,0,2022-05-10,2022-05-10,株式会社ＫＳＣ,,株式会社,東京都,調布市,国領町３丁目１３番地５２,,13,208,1820022,,,,,,,2022-05-10,1,,,,,ケイエスシー,0
68,1012401039185,新規,0,2022-05-10,2022-05-10,株式会社鳶佐々木土建,,株式会社,東京都,府中市,押立町５丁目７番地の７６,,13,206,1830012,,,,,,,2022-05-10,1,,,,,トビササキドケン,0
71,1012801021552,新規,0,2022-05-10,2022-05-10,株式会社Ｏｎｅ　Ｎａｉｌ,,株式会社,東京都,武蔵村山市,残堀４丁目４１番地の２,,13,223,2080034,,,,,,,2022-05-10,1,,,,,ワンネイル,0
74,1020001146392,新規,0,2022-05-10,2022-05-10,株式会社かなで,,株式会社,神奈川県,横浜市泉区,弥生台２２番地３－５－２０３,,14,116,2450008,,,,,,,2022-05-10,1,,,,,カナデ,0
75,1020001146401,新規,0,2022-05-10,2022-05-10,株式会社ＳＫＳ,,株式会社,神奈川県,川崎市宮前区,菅生３丁目３番２４－２号,,14,136,2160015,,,,,,,2022-05-10,1,,,,,エスケーエス,0
76,1020001146442,新規,0,2022-05-10,2022-05-10,株式会社プルーム,,株式会社,神奈川県,横浜市港北区,新吉田町３２１９番地１７,,14,109,2230056,,,,,,,2022-05-10,1,,,,,プルーム,0
80,1021001075887,新規,0,2022-05-10,2022-05-10,株式会社ＦＦＣヘリテージ,,株式会社,神奈川県,秦野市,今泉９８１番地,,14,211,2570014,,,,,,,2022-05-10,1,,,,,エフエフシーヘリテージ,0
84,1021003011667,新規,0,2022-05-10,2022-05-10,合同会社白亜,,合同会社,神奈川県,大和市,福田４０３７番地６,,14,213,2420024,,,,,,,2022-05-10,1,,,,,ハクア,0
90,1030001148025,新規,0,2022-05-10,2022-05-10,ＧｒｅｅｎＰａｒａｄｅ株式会社,,株式会社,埼玉県,狭山市,柏原４１３４,,11,215,3501335,,,,,,,2022-05-10,1,,,,,グリーンパレード,0
91,1030001148041,新規,0,2022-05-10,2022-05-10,株式会社秋本建設,,株式会社,埼玉県,八潮市,大字伊勢野１３３番地７,,11,234,3400821,,,,,,,2022-05-10,1,,,,,アキモトケンセツ,0
92,1030001148058,新規,0,2022-05-10,2022-05-10,株式会社アチーブメント,,株式会社,埼玉県,上尾市,大字上野７２番地３,,11,219,3620058,,,,,,,2022-05-10,1,,,,,アチーブメント,0
93,1030001148074,新規,0,2022-05-10,2022-05-10,株式会社サンク・リープ,,株式会社,埼玉県,さいたま市桜区,町谷４丁目９番１７号,,11,106,3380836,,,,,,,2022-05-10,1,,,,,サンクリープ,0
94,1030001148108,新規,0,2022-05-10,2022-05-10,東洋テクノロジー株式会社,,株式会社,埼玉県,戸田市,新曽南３丁目６番１－２０９号シティテラス戸田公園,,11,224,3350026,,,,,,,2022-05-10,1,,,,,トウヨウテクノロジー,0
95,1030001148116,新規,0,2022-05-10,2022-05-10,株式会社青木堂,,株式会社,埼玉県,さいたま市大宮区,三橋４丁目８８９番地１,,11,103,3300856,,,,,,,2022-05-10,1,,,,,アオキドウ,0
101,1030003019364,新規,0,2022-05-10,2022-05-10,合同会社ＮＥＧＩＳＥＡ,,合同会社,埼玉県,さいたま市桜区,大字神田４６４番地２ディーオリザイア１０７号,,11,106,3380812,,,,,,,2022-05-10,1,,,,,ネギシー,0
102,1030003019372,新規,0,2022-05-10,2022-05-10,イルカ合同会社,,合同会社,埼玉県,川口市,西川口３丁目２番８－６０４号,,11,203,3320021,,,,,,,2022-05-10,1,,,,,イルカ,0
105,1040001123274,新規,0,2022-05-10,2022-05-10,株式会社大聖設備,,株式会社,千葉県,千葉市若葉区,若松台１丁目５番２８号,,12,104,2640027,,,,,,,2022-05-10,1,,,,,タイセイセツビ,0
106,1040001123290,新規,0,2022-05-10,2022-05-10,株式会社宗芯,,株式会社,千葉県,柏市,岩井７９２番地１５,,12,217,2701445,,,,,,,2022-05-10,1,,,,,ソウシン,0
107,1040001123299,新規,0,2022-05-10,2022-05-10,株式会社シンクアクト,,株式会社,千葉県,四街道市,めいわ２丁目１８番２２号,,12,228,2840043,,,,,,,2022-05-10,1,,,,,シンクアクト,0
108,1040001123340,新規,0,2022-05-10,2022-05-10,株式会社ＫＯＶＯ,,株式会社,千葉県,柏市,若柴１７８番地４柏の葉キャンパス１４８街区２ショップ＆オフィス棟６Ｆ,,12,217,2770871,,,,,,,2022-05-10,1,,,,,コヴォ,0
114,1040003019990,新規,0,2022-05-10,2022-05-10,ＡＴＳ合同会社,,合同会社,千葉県,八千代市,八千代台東２丁目１番３号,,12,221,2760032,,,,,,,2022-05-10,1,,,,,エーティーエス,0
117,1050001051029,新規,0,2022-05-10,2022-05-10,株式会社Ａ,,株式会社,茨城県,稲敷郡阿見町,大字鈴木４０番地１５,,08,443,3000334,,,,,,,2022-05-10,1,,,,,エイ,0
126,1070001039204,新規,0,2022-05-10,2022-05-10,株式会社Ｈａｌｃｒａｆｔ,,株式会社,群馬県,高崎市,福島町７３３番地１,,10,202,3703523,,,,,,,2022-05-10,1,,,,,ハルクラフト,0
127,1070001039220,新規,0,2022-05-10,2022-05-10,株式会社真下電気,,株式会社,群馬県,藤岡市,保美１５５１番地１,,10,209,3750035,,,,,,,2022-05-10,1,,,,,マシモデンキ,0
130,1070003004486,新規,0,2022-05-10,2022-05-10,合同会社Ｎｅｏ,,合同会社,群馬県,高崎市,菅谷町５９番地１,,10,202,3703522,,,,,,,2022-05-10,1,,,,,ネオ,0
136,1090001017554,新規,0,2022-05-10,2022-05-10,エムグリーンコンサルタント株式会社,,株式会社,山梨県,甲府市,高畑２丁目５番２５号,,19,201,4000042,,,,,,,2022-05-10,1,,,,,エムグリーンコンサルタント,0
140,1100001035307,新規,0,2022-05-10,2022-05-10,ｏｍｏｃｈｉ．株式会社,,株式会社,長野県,長野市,豊野町豊野１３６３－１高野ハイツＡ２０２,,20,201,3891105,,,,,,,2022-05-10,1,,,,,オモチドット,0
141,1100003006537,新規,0,2022-05-10,2022-05-10,ｅエンパシー合同会社,,合同会社,長野県,諏訪郡下諏訪町,社７０７６番地６,,20,361,3930000,,,,,,,2022-05-10,1,,,,,イーエンパシー,0
142,1100005012871,新規,0,2022-05-10,2022-05-10,一般社団法人終活ネットワーク協会,,その他の設立登記法人,長野県,松本市,平田東３丁目１２番１号,,20,202,3990014,,,,,,,2022-05-10,1,,,,,シュウカツネットワークキョウカイ,0
144,1110001036634,新規,0,2022-05-10,2022-05-10,株式会社Ｓａｌｕｔ,,株式会社,新潟県,燕市,殿島１丁目１２番６号,,15,213,9591233,,,,,,,2022-05-10,1,,,,,サリュ,0
145,1110001036642,新規,0,2022-05-10,2022-05-10,株式会社ルフティエラ,,株式会社,新潟県,佐渡市,新穂６１番地１,,15,224,9520116,,,,,,,2022-05-10,1,,,,,ルフティエラ,0
146,1110001036650,新規,0,2022-05-10,2022-05-10,株式会社ａｂｏｓ,,株式会社,新潟県,新潟市西区,小針３丁目２６－１９大堀ビル２０１,,15,107,9502022,,,,,,,2022-05-10,1,,,,,アボズ,0
163,1120001245639,新規,0,2022-05-10,2022-05-10,株式会社ヒューマンプロポーザル,,株式会社,大阪府,大阪市浪速区,幸町３丁目３番１０－１２０３号,,27,111,5560021,,,,,,,2022-05-10,1,,,,,ヒューマンプロポーザル,0
164,1120001245671,新規,0,2022-05-10,2022-05-10,株式会社ナンワ,,株式会社,大阪府,大阪市淀川区,田川北１丁目６番１４号,,27,123,5320021,,,,,,,2022-05-10,1,,,,,ナンワ,0
165,1120001245705,新規,0,2022-05-10,2022-05-10,株式会社大村産業,,株式会社,大阪府,大阪市住之江区,南港中４丁目７－２４－１２１１,,27,125,5590033,,,,,,,2022-05-10,1,,,,,オオムラサンギョウ,0
166,1120001245738,新規,0,2022-05-10,2022-05-10,株式会社ななつのりんご,,株式会社,大阪府,大阪市大正区,泉尾１丁目３１番３号,,27,108,5510031,,,,,,,2022-05-10,1,,,,,ナナツノリンゴ,0
167,1120001245746,新規,0,2022-05-10,2022-05-10,株式会社ハイテック,,株式会社,大阪府,大阪市城東区,今福西２丁目８番１３号,,27,118,5360004,,,,,,,2022-05-10,1,,,,,ハイテック,0
168,1120001245754,新規,0,2022-05-10,2022-05-10,株式会社西村正悟,,株式会社,大阪府,大阪市鶴見区,鶴見５丁目１番９号,,27,124,5380053,,,,,,,2022-05-10,1,,,,,ニシムラショウゴ,0
169,1120001245770,新規,0,2022-05-10,2022-05-10,株式会社サポートプラス,,株式会社,大阪府,大阪市西淀川区,花川２丁目１０番８号,,27,113,5550023,,,,,,,2022-05-10,1,,,,,サポートプラス,0
170,1120001245787,新規,0,2022-05-10,2022-05-10,株式会社ツーアズワン,,株式会社,大阪府,大阪市平野区,瓜破西１丁目１３番７－２０１号,,27,126,5470025,,,,,,,2022-05-10,1,,,,,ツーアズワン,0
177,1120003021600,新規,0,2022-05-10,2022-05-10,合同会社Ｋ‐ＰＯＲＴ,,合同会社,大阪府,大阪市西区,北堀江１丁目１７番１号,,27,106,5500014,,,,,,,2022-05-10,1,,,,,ケーポート,0
178,1120003021609,新規,0,2022-05-10,2022-05-10,合同会社いがらし企画,,合同会社,大阪府,大阪市天王寺区,東高津町９番１２号,,27,109,5430021,,,,,,,2022-05-10,1,,,,,イガラシキカク,0
179,1120003021625,新規,0,2022-05-10,2022-05-10,合同会社Ｕｎｉｔｙ,,合同会社,大阪府,大阪市北区,芝田２丁目８番１１号共栄ビル３Ｆ,,27,127,5300012,,,,,,,2022-05-10,1,,,,,ユニティ,0
182,1120101065516,新規,0,2022-05-10,2022-05-10,株式会社ＴＳＣＭ,,株式会社,大阪府,和泉市,池田下町３７８番地の１０,,27,219,5940032,,,,,,,2022-05-10,1,,,,,ティエスシーエム,0
183,1120101065532,新規,0,2022-05-10,2022-05-10,株式会社ＭＡＫＥ　ＴＲＵＳＴ,,株式会社,大阪府,藤井寺市,林５丁目６－２９－４０２号,,27,226,5830007,,,,,,,2022-05-10,1,,,,,メイクトラスト,0
184,1120101065540,新規,0,2022-05-10,2022-05-10,株式会社川端,,株式会社,大阪府,泉南市,信達岡中１２１２番地,,27,228,5900523,,,,,,,2022-05-10,1,,,,,カワバタ,0
185,1120101065549,新規,0,2022-05-10,2022-05-10,株式会社泰政,,株式会社,大阪府,和泉市,松尾寺町４７５番地の１,,27,219,5941154,,,,,,,2022-05-10,1,,,,,タイセイ,0
186,1120101065557,新規,0,2022-05-10,2022-05-10,株式会社横井水道設備,,株式会社,大阪府,藤井寺市,道明寺４丁目８番５－３０８号,,27,226,5830012,,,,,,,2022-05-10,1,,,,,ヨコイスイドウセツビ,0
189,1120901045915,新規,0,2022-05-10,2022-05-10,株式会社ＬＩＮＫ,,株式会社,大阪府,高槻市,奈佐原４丁目６－３３,,27,207,5691041,,,,,,,2022-05-10,1,,,,,リンク,0
192,1122001035862,新規,0,2022-05-10,2022-05-10,株式会社Ａｎｏｍａｌｙ,,株式会社,大阪府,東大阪市,下小阪４丁目９番１０号,,27,227,5770803,,,,,,,2022-05-10,1,,,,,アノマリー,0
194,1130003007920,新規,0,2022-05-10,2022-05-10,合同会社ｎｏｃｈｉ,,合同会社,京都府,京都市下京区,岩戸山町４４０江村ビル２Ｆ,,26,106,6008445,,,,,,,2022-05-10,1,,,,,ノチ,0
197,1130005016473,新規,0,2022-05-10,2022-05-10,一般社団法人Ｋｉｋｕｊｉｎ,,その他の設立登記法人,京都府,京都市下京区,朱雀宝蔵町４４番地協栄ビル２階京都朱雀スタジオ,,26,106,6008846,,,,,,,2022-05-10,1,,,,,キクジン,0
202,1140001125847,新規,0,2022-05-10,2022-05-10,株式会社視覚,,株式会社,兵庫県,神戸市中央区,琴ノ緒町３丁目３番５－３２号,,28,110,6510094,,,,,,,2022-05-10,1,,,,,シカク,0
203,1140001125871,新規,0,2022-05-10,2022-05-10,ＨＯＭＥ　ＲＥＸＵＳ株式会社,,株式会社,兵庫県,神戸市灘区,日尾町２丁目１番１号,,28,102,6570029,,,,,,,2022-05-10,1,,,,,ホームレクサス,0
204,1140001125888,新規,0,2022-05-10,2022-05-10,株式会社ユーガ,,株式会社,兵庫県,姫路市,網干区新在家２６４番地５２,,28,201,6711234,,,,,,,2022-05-10,1,,,,,ユーガ,0
207,1150001025518,新規,0,2022-05-10,2022-05-10,株式会社さくら設備興業,,株式会社,奈良県,葛城市,當麻１８２,,29,211,6390276,,,,,,,2022-05-10,1,,,,,サクラセツビコウギョウ,0
208,1160001024171,新規,0,2022-05-10,2022-05-10,アイズセキュリティ株式会社,,株式会社,滋賀県,米原市,堂谷１２５７番地,,25,214,5210213,,,,,,,2022-05-10,1,,,,,アイズセキュリティ,0
211,1160003002563,新規,0,2022-05-10,2022-05-10,ＯＧ．ＣＯＭＰＡＮＹ合同会社,,合同会社,滋賀県,大津市,山百合の丘１７－３１,,25,201,5200357,,,,,,,2022-05-10,1,,,,,オージーカンパニー,0
212,1170001017100,新規,0,2022-05-10,2022-05-10,株式会社将和創建,,株式会社,和歌山県,新宮市,五新１番３１号,,30,207,6470053,,,,,,,2022-05-10,1,,,,,ショウワソウケン,0
221,1180001151212,新規,0,2022-05-10,2022-05-10,株式会社ネクスト,,株式会社,愛知県,大府市,共栄町６丁目４３５番地３０５号,,23,223,4740074,,,,,,,2022-05-10,1,,,,,ネクスト,0
222,1180001151245,新規,0,2022-05-10,2022-05-10,株式会社大洋,,株式会社,愛知県,愛西市,勝幡町塩畑２５５９番地３,,23,232,4968001,,,,,,,2022-05-10,1,,,,,タイヨウ,0
223,1180003023756,新規,0,2022-05-10,2022-05-10,合同会社ＩＧＵＡＳ,,合同会社,愛知県,半田市,寺町１３６番地の１,,23,205,4750844,,,,,,,2022-05-10,1,,,,,イグアス,0
224,1180003023780,新規,0,2022-05-10,2022-05-10,合同会社ＴＰＣ,,合同会社,愛知県,名古屋市千種区,末盛通５丁目２７番地の２（ピュア本山４０２号）,,23,101,4640821,,,,,,,2022-05-10,1,,,,,ティーピーシー,0
225,1180003023789,新規,0,2022-05-10,2022-05-10,ＳＧ合同会社,,合同会社,愛知県,半田市,有楽町３丁目５５番地,,23,205,4750837,,,,,,,2022-05-10,1,,,,,エスジー,0
226,1180003023806,新規,0,2022-05-10,2022-05-10,合同会社笑う門には客来る,,合同会社,愛知県,名古屋市瑞穂区,妙音通４丁目４２番地の１コスモパレス新瑞１Ｆ南号室,,23,108,4670842,,,,,,,2022-05-10,1,,,,,ワラウカドニハキャクキタル,0
232,1190001029390,新規,0,2022-05-10,2022-05-10,仲村建築株式会社,,株式会社,三重県,北牟婁郡紀北町,矢口浦２９４番地１,,24,543,5193415,,,,,,,2022-05-10,1,,,,,ナカムラケンチク,0
233,1190001029399,新規,0,2022-05-10,2022-05-10,ＰＥＡＣＥｃａｒｒｙ株式会社,,株式会社,三重県,津市,河芸町東千里５６３番地,,24,201,5100303,,,,,,,2022-05-10,1,,,,,ピースキャリー,0
235,1190003003971,新規,0,2022-05-10,2022-05-10,合同会社ジョイアスライフ,,合同会社,三重県,伊賀市,伊勢路６番地の２,,24,216,5180205,,,,,,,2022-05-10,1,,,,,ジョイアスライフ,0
243,1220005008668,新規,0,2022-05-10,2022-05-10,一般社団法人ミッション・ワーク石川,,その他の設立登記法人,石川県,金沢市,藤江北１丁目９５番地１,,17,201,9200345,,,,,,,2022-05-10,1,,,,,ミッションワークイシカワ,0
245,1240001059721,新規,0,2022-05-10,2022-05-10,株式会社Ｄ‐Ｂａｓｅ,,株式会社,広島県,広島市佐伯区,利松３丁目２６番２９号,,34,108,7315106,,,,,,,2022-05-10,1,,,,,ディーベース,0
246,1240001059738,新規,0,2022-05-10,2022-05-10,株式会社ＹＡＴＡ,,株式会社,広島県,呉市,阿賀中央８丁目５番６－２号,,34,202,7370003,,,,,,,2022-05-10,1,,,,,ヤタ,0
247,1240001059754,新規,0,2022-05-10,2022-05-10,株式会社つつみ,,株式会社,広島県,山県郡安芸太田町,大字穴３２２番地,,34,368,7313411,,,,,,,2022-05-10,1,,,,,ツツミ,0
258,1270003001406,新規,0,2022-05-10,2022-05-10,合同会社Ｍａｋａｎａ,,合同会社,鳥取県,鳥取市,富安２丁目１０２番地２サーパス鳥取駅前弐番館１００６号,,31,201,6800845,,,,,,,2022-05-10,1,,,,,マカナ,0
261,1280001008690,新規,0,2022-05-10,2022-05-10,株式会社万葉林業,,株式会社,島根県,鹿足郡津和野町,中川２４３番地２,,32,501,6995634,,,,,,,2022-05-10,1,,,,,マンヨウリンギョウ,0
262,1280003001611,新規,0,2022-05-10,2022-05-10,合同会社アーチブック,,合同会社,島根県,松江市,学園２丁目２－３ポレスター松江学園通り５０２号室,,32,201,6900825,,,,,,,2022-05-10,1,,,,,,0
266,1290001097428,新規,0,2022-05-10,2022-05-10,Ｊ’ｓ　ＨＯＬＤＩＮＧ株式会社,,株式会社,福岡県,福岡市博多区,春町３丁目５番３０号,,40,132,8120872,,,,,,,2022-05-10,1,,,,,ジェイズホールディング,0
267,1290001097436,新規,0,2022-05-10,2022-05-10,株式会社アイエスリーフ,,株式会社,福岡県,大牟田市,上官町２丁目８９番地１８,,40,202,8360866,,,,,,,2022-05-10,1,,,,,アイエスリーフ,0
268,1290001097444,新規,0,2022-05-10,2022-05-10,グローバル警備株式会社,,株式会社,福岡県,筑後市,大字西牟田４００３番地５,,40,211,8330053,,,,,,,2022-05-10,1,,,,,グローバルケイビ,0
269,1290001097477,新規,0,2022-05-10,2022-05-10,株式会社辻デザイン,00126504,株式会社,福岡県,福岡市博多区,金の隈３丁目１８番１２号,,40,132,8120863,,,,,,,2022-05-10,1,,,,,ツジデザイン,0
271,1290003012475,新規,0,2022-05-10,2022-05-10,合同会社ＴＡＧ,,合同会社,福岡県,春日市,春日原東町１丁目２５番地４０１号,,40,218,8160801,,,,,,,2022-05-10,1,,,,,タグ,0
272,1290003012483,新規,0,2022-05-10,2022-05-10,合同会社Ｕ‐ｃａｒｅ,,合同会社,福岡県,福岡市南区,横手４丁目１１番１５－６０３号,,40,134,8111311,,,,,,,2022-05-10,1,,,,,ユーケア,0
278,1300005007075,新規,0,2022-05-10,2022-05-10,一般社団法人ＴＨＥ　ＷＯＯＤＹＳ　ＫＩＹＡＭＡ,,その他の設立登記法人,佐賀県,三養基郡基山町,大字小倉２３８０番地,,41,341,8410201,,,,,,,2022-05-10,1,,,,,ザウッディズキヤマ,0
288,1330001029707,新規,0,2022-05-10,2022-05-10,Ｂｒｏｏｋ株式会社,,株式会社,熊本県,熊本市北区,清水新地４丁目７番８４号Ｃ２０３,,43,105,8618075,,,,,,,2022-05-10,1,,,,,ブルック,0
289,1330001029715,新規,0,2022-05-10,2022-05-10,株式会社Ｗｒｉｔｉｎｇ　ｗｏｒｋ,,株式会社,熊本県,玉名市,築地９５５番地１５,,43,206,8650065,,,,,,,2022-05-10,1,,,,,ライティングワーク,0
290,1330001029723,新規,0,2022-05-10,2022-05-10,株式会社ＫＵＯＮ,,株式会社,熊本県,熊本市西区,松尾町近津１１７９番地２,,43,103,8615281,,,,,,,2022-05-10,1,,,,,クウオン,0
294,1340001024715,新規,0,2022-05-10,2022-05-10,株式会社弘建装,,株式会社,鹿児島県,大島郡知名町,大字田皆１３０４番地１,,46,534,8919231,,,,,,,2022-05-10,1,,,,,コウケンソウ,0
296,1340003003766,新規,0,2022-05-10,2022-05-10,合同会社結華,,合同会社,鹿児島県,鹿児島市,広木２丁目７２番１０号,,46,201,8900037,,,,,,,2022-05-10,1,,,,,ユウカ,0
298,1350003004078,新規,0,2022-05-10,2022-05-10,合同会社Ａｓ　ａ　ｐｅｒｓｏｎ,,合同会社,宮崎県,西都市,大字三宅３０５１番地,,45,208,8810005,,,,,,,2022-05-10,1,,,,,アズアパーソン,0
302,1370001048546,新規,0,2022-05-10,2022-05-10,ひすい財経株式会社,,株式会社,宮城県,仙台市泉区,松森字中道２６番地の１ＭＳＫコート３０６,,04,105,9813111,,,,,,,2022-05-10,1,,,,,ヒスイザイケイ,0
315,1430001086523,新規,0,2022-05-10,2022-05-10,啓光不動産株式会社,,株式会社,北海道,苫小牧市,桜木町４丁目１３番１２号,,01,213,0530832,,,,,,,2022-05-10,1,,,,,ケイコウフドウサン,0
316,1430001086548,新規,0,2022-05-10,2022-05-10,株式会社なまら,,株式会社,北海道,札幌市中央区,南九条西３丁目１番２８－３１１号,,01,101,0640809,,,,,,,2022-05-10,1,,,,,ナマラ,0
319,1430003013863,新規,0,2022-05-10,2022-05-10,合同会社Ｗｅｓｔ　Ｈｏｒｉｚｏｎ,,合同会社,北海道,苫小牧市,青雲町２丁目２１番１０号,,01,213,0591263,,,,,,,2022-05-10,1,,,,,ウエストホライズン,0
324,1480001011732,新規,0,2022-05-10,2022-05-10,株式会社夢明日テクノロジー,,株式会社,徳島県,阿南市,那賀川町島尻１２１４番地,,36,204,7791117,,,,,,,2022-05-10,1,,,,,ユメアステクノロジー,0
326,1480005006902,新規,0,2022-05-10,2022-05-10,一般社団法人徳島県南部古民家再生協会,,その他の設立登記法人,徳島県,小松島市,江田町字敷地前７９番地１,,36,203,7730014,,,,,,,2022-05-10,1,,,,,トクシマケンナンブコミンカサイセイキョウカイ,0
330,1500001024203,新規,0,2022-05-10,2022-05-10,株式会社ソレイユ,,株式会社,愛媛県,四国中央市,金生町下分２０３番地４,,38,213,7990111,,,,,,,2022-05-10,1,,,,,ソレイユ,0
346,2010001226401,新規,0,2022-05-10,2022-05-10,京都藤野株式会社,,株式会社,東京都,中央区,東日本橋２丁目２８番５号５０８,,13,102,1030004,,,,,,,2022-05-10,1,,,,,キョウトフジノ,0
347,2010001226418,新規,0,2022-05-10,2022-05-10,株式会社ＣｏｒｅＲａｒｅ,,株式会社,東京都,千代田区,神田須田町２丁目１５－１ＡｋｉｂａＢａｓｅＪｕｎｋ,,13,101,1010041,,,,,,,2022-05-10,1,,,,,コアレア,0
348,2010001226442,新規,0,2022-05-10,2022-05-10,株式会社ＳＯＬＡ　ＡＮＩＭＡＴＩＯＮ,,株式会社,東京都,千代田区,四番町２番地１２,,13,101,1020081,,,,,,,2022-05-10,1,,,,,ソラアニメーション,0
349,2010001226450,新規,0,2022-05-10,2022-05-10,Ｇｎｏｍｅ株式会社,,株式会社,東京都,中央区,東日本橋３丁目３番７号Ｒｅ－Ｋｎｏｗ東日本橋３Ａ,,13,102,1030004,,,,,,,2022-05-10,1,,,,,ノーム,0
350,2010001226459,新規,0,2022-05-10,2022-05-10,サイドライン株式会社,,株式会社,東京都,中央区,日本橋久松町５番６号イマス久松町ビル４Ｆ,,13,102,1030005,,,,,,,2022-05-10,1,,,,,サイドライン,0
351,2010001226467,新規,0,2022-05-10,2022-05-10,株式会社ＢＯＳＳ,,株式会社,東京都,中央区,銀座６丁目１３番９号ｂｉｚｃｕｂｅ,,13,102,1040061,,,,,,,2022-05-10,1,,,,,ボス,0
355,2010003037581,新規,0,2022-05-10,2022-05-10,合同会社女性開花,,合同会社,東京都,中央区,銀座７丁目１３番６号サガミビル２Ｆ,,13,102,1040061,,,,,,,2022-05-10,1,,,,,,0
356,2010003037623,新規,0,2022-05-10,2022-05-10,合同会社ＭＡパートナーズ,,合同会社,東京都,中央区,銀座１丁目１６番７号銀座大栄ビル６階,,13,102,1040061,,,,,,,2022-05-10,1,,,,,エムエイパートナーズ,0
357,2010003037631,新規,0,2022-05-10,2022-05-10,合同会社ネクアス,,合同会社,東京都,中央区,勝どき６丁目３番２－５２１７号,,13,102,1040054,,,,,,,2022-05-10,1,,,,,ネクアス,0
358,2010003037656,新規,0,2022-05-10,2022-05-10,合同会社プライムジーピー,,合同会社,東京都,千代田区,丸の内１丁目６番５号,,13,101,1000005,,,,,,,2022-05-10,1,,,,,プライムジーピー,0
362,2010103001909,新規,0,2022-05-10,2022-05-10,合同会社ＤＡＮＢＥＥ,,合同会社,東京都,八王子市,南大沢４丁目１０番９－４０９号,,13,201,1920364,,,,,,,2022-05-10,1,,,,,,0
366,2010401167162,新規,0,2022-05-10,2022-05-10,株式会社スチュワード,,株式会社,東京都,港区,東新橋２丁目１８番４号,,13,103,1050021,,,,,,,2022-05-10,1,,,,,スチュワード,0
367,2010401167212,新規,0,2022-05-10,2022-05-10,株式会社アット・スタッフ,,株式会社,東京都,港区,西新橋１丁目１８番１４号,,13,103,1050003,,,,,,,2022-05-10,1,,,,,アットスタッフ,0
368,2010401167220,新規,0,2022-05-10,2022-05-10,Ｏｒｂ　Ｐａｒｔｎｅｒｓ株式会社,,株式会社,東京都,港区,新橋５丁目２７－１,,13,103,1050004,,,,,,,2022-05-10,1,,,,,オーブパートナーズ,0
380,2010601061025,新規,0,2022-05-10,2022-05-10,株式会社はさこたフーズ,,株式会社,東京都,江東区,富岡１丁目７番２号,,13,108,1350047,,,,,,,2022-05-10,1,,,,,ハサコタフーズ,0
381,2010601061108,新規,0,2022-05-10,2022-05-10,株式会社インベリー,,株式会社,東京都,墨田区,両国３丁目２１－１５－１１０２,,13,107,1300026,,,,,,,2022-05-10,1,,,,,インベリー,0
383,2010701042602,新規,0,2022-05-10,2022-05-10,ＳＡＩＬＩＮＧ株式会社,,株式会社,東京都,品川区,大崎１丁目２０番４－１２０１号,,13,109,1410032,,,,,,,2022-05-10,1,,,,,セーリング,0
389,2010803004161,新規,0,2022-05-10,2022-05-10,合同会社Ｉｎ　Ｔｈｅ　Ｂｏｏｋ’ｓ,,合同会社,東京都,大田区,東嶺町１３番１９号,,13,111,1450074,,,,,,,2022-05-10,1,,,,,インザブックス,0
390,2010901050818,新規,0,2022-05-10,2022-05-10,鴻宝国際貿易株式会社,,株式会社,東京都,世田谷区,経堂１丁目３８番２０－１０６号,,13,112,1560052,,,,,,,2022-05-10,1,,,,,コウホウコクサイボウエキ,0
400,2011001147257,新規,0,2022-05-10,2022-05-10,ソウルコネクション株式会社,,株式会社,東京都,渋谷区,鶯谷町４番１７オリオール渋谷２０２,,13,113,1500032,,,,,,,2022-05-10,1,,,,,ソウルコネクション,0
401,2011001147364,新規,0,2022-05-10,2022-05-10,株式会社マイル,,株式会社,東京都,渋谷区,東２丁目１８番６号松岡ビル２０２,,13,113,1500011,,,,,,,2022-05-10,1,,,,,マイル,0
402,2011001147389,新規,0,2022-05-10,2022-05-10,ＳＫトラスト株式会社,,株式会社,東京都,渋谷区,円山町５番６号,,13,113,1500044,,,,,,,2022-05-10,1,,,,,エスケートラスト,0
403,2011001147439,新規,0,2022-05-10,2022-05-10,株式会社ソロモンリサーチ＆コンサルティング,,株式会社,東京都,渋谷区,広尾２丁目１番４－２０１号,,13,113,1500012,,,,,,,2022-05-10,1,,,,,ソロモンリサーチアンドコンサルティング,0
409,2011101098739,新規,0,2022-05-10,2022-05-10,株式会社Ａｌｅｘａｎｄｒｉｔｅ,,株式会社,東京都,新宿区,西新宿７丁目５番９－２７０３号,,13,104,1600023,,,,,,,2022-05-10,1,,,,,アレクサンドリット,0
410,2011101098747,新規,0,2022-05-10,2022-05-10,株式会社１０,,株式会社,東京都,新宿区,西早稲田１丁目２２番３－１１０３号,,13,104,1690051,,,,,,,2022-05-10,1,,,,,テン,0
411,2011101098755,新規,0,2022-05-10,2022-05-10,株式会社五穀,,株式会社,東京都,新宿区,西新宿３丁目３番１３号,,13,104,1600023,,,,,,,2022-05-10,1,,,,,ゴコク,0
412,2011103011724,新規,0,2022-05-10,2022-05-10,合同会社サクラギ,,合同会社,東京都,新宿区,西新宿７丁目７番２６号ワコーレ新宿第一ビル５０６,,13,104,1600023,,,,,,,2022-05-10,1,,,,,サクラギ,0
418,2011203003811,新規,0,2022-05-10,2022-05-10,合同会社ビバミュージック,,合同会社,東京都,中野区,上高田１丁目３７番２５号,,13,114,1640002,,,,,,,2022-05-10,1,,,,,ビバミュージック,0
422,2011401024213,新規,0,2022-05-10,2022-05-10,株式会社イリーゾ,,株式会社,東京都,板橋区,熊野町１８番２－３０３号,,13,119,1730025,,,,,,,2022-05-10,1,,,,,イリーゾ,0
423,2011403003652,新規,0,2022-05-10,2022-05-10,ルンビニ合同会社,,合同会社,東京都,板橋区,新河岸３丁目８番１４号３階,,13,119,1750081,,,,,,,2022-05-10,1,,,,,ルンビニ,0
428,2011601025936,新規,0,2022-05-10,2022-05-10,島田工業株式会社,,株式会社,東京都,練馬区,谷原３丁目２１番１号,,13,120,1770032,,,,,,,2022-05-10,1,,,,,シマダコウギョウ,0
430,2011701025282,新規,0,2022-05-10,2022-05-10,株式会社作田家,,株式会社,東京都,江戸川区,西小岩１丁目２９番６号,,13,123,1330057,,,,,,,2022-05-10,1,,,,,サクタヤ,0
431,2011801040677,新規,0,2022-05-10,2022-05-10,株式会社ファシネイション,,株式会社,東京都,葛飾区,奥戸４丁目１４番６号アンジェリーヴ奥戸１０１,,13,122,1240022,,,,,,,2022-05-10,1,,,,,ファシネイション,0
432,2011803005075,新規,0,2022-05-10,2022-05-10,合同会社佐々木シーリング,,合同会社,東京都,足立区,西伊興２丁目６番２１号,,13,121,1210824,,,,,,,2022-05-10,1,,,,,ササキシーリング,0
433,2012401039176,新規,0,2022-05-10,2022-05-10,株式会社フリクリ,,株式会社,東京都,調布市,若葉町２丁目２３番地２０－２０２号,,13,208,1820003,,,,,,,2022-05-10,1,,,,,フリクリ,0
434,2012401039184,新規,0,2022-05-10,2022-05-10,株式会社Ｔｙｒａｇｏ,,株式会社,東京都,三鷹市,牟礼４丁目１８番２号,,13,204,1810002,,,,,,,2022-05-10,1,,,,,ティラゴ,0
435,2012801021568,新規,0,2022-05-10,2022-05-10,株式会社Ｕｎｉｔｙ,,株式会社,東京都,立川市,西砂町３丁目８番地の３,,13,202,1900034,,,,,,,2022-05-10,1,,,,,ユニティ,0
436,2012803002764,新規,0,2022-05-10,2022-05-10,Ｄｉｖｅ合同会社,,合同会社,東京都,立川市,柏町３丁目５６番地の２２テラスハウスかしわＢ号室,,13,202,1900004,,,,,,,2022-05-10,1,,,,,ディーバ,0
437,2013101008909,新規,0,2022-05-10,2022-05-10,株式会社仁恕苑,,株式会社,東京都,あきる野市,草花７４８番地３,,13,228,1970802,,,,,,,2022-05-10,1,,,,,ジンジョエン,0
440,2013301049050,新規,0,2022-05-10,2022-05-10,株式会社ＭＷ,,株式会社,東京都,豊島区,東池袋１丁目１７番１１号パークハイツ池袋１１０５号,,13,116,1700013,,,,,,,2022-05-10,1,,,,,エムダブリュ,0
448,2020001146334,新規,0,2022-05-10,2022-05-10,株式会社ＶＩＮＴＡＬＥ,,株式会社,神奈川県,横浜市緑区,霧が丘５丁目１３番３２号,,14,113,2260016,,,,,,,2022-05-10,1,,,,,ビンテール,0
449,2020001146391,新規,0,2022-05-10,2022-05-10,株式会社ケイレイ,,株式会社,神奈川県,横浜市泉区,白百合２丁目１８番２３号,,14,116,2450005,,,,,,,2022-05-10,1,,,,,ケイレイ,0
450,2020001146400,新規,0,2022-05-10,2022-05-10,株式会社ハーバールーム,,株式会社,神奈川県,横浜市南区,永田東１丁目１２番１１－１号,,14,105,2320072,,,,,,,2022-05-10,1,,,,,ハーバールーム,0
451,2020001146417,新規,0,2022-05-10,2022-05-10,ホームアプライアンスリカバリー株式会社,,株式会社,神奈川県,横浜市都筑区,川和町１５２５番地４４,,14,118,2240057,,,,,,,2022-05-10,1,,,,,ホームアプライアンスリカバリー,0
452,2020001146425,新規,0,2022-05-10,2022-05-10,株式会社鈴村建設,,株式会社,神奈川県,横浜市泉区,岡津町２１６４番地２,,14,116,2450003,,,,,,,2022-05-10,1,,,,,スズムラケンセツ,0
453,2020001146433,新規,0,2022-05-10,2022-05-10,株式会社千葉電設,,株式会社,神奈川県,川崎市高津区,坂戸３丁目１２番２０号,,14,134,2130012,,,,,,,2022-05-10,1,,,,,チバデンセツ,0
454,2020001146441,新規,0,2022-05-10,2022-05-10,株式会社ＴａｋｅＭｏｎ,,株式会社,神奈川県,横浜市港北区,菊名４丁目１２番１５号ラ・ベル菊名グリーンアルカディア６０１号室,,14,109,2220011,,,,,,,2022-05-10,1,,,,,タケモン,0
457,2020003021733,新規,0,2022-05-10,2022-05-10,合同会社Ｗｅａｔｈｅｒ,,合同会社,神奈川県,川崎市麻生区,岡上５丁目１４番５号１０３,,14,137,2150027,,,,,,,2022-05-10,1,,,,,ウエザー,0
458,2020003021741,新規,0,2022-05-10,2022-05-10,合同会社クリアーライン,,合同会社,神奈川県,横浜市青葉区,桂台２丁目２４番地１５,,14,117,2270034,,,,,,,2022-05-10,1,,,,,クリアーライン,0
462,2021001075878,新規,0,2022-05-10,2022-05-10,株式会社アルティス,,株式会社,神奈川県,三浦市,初声町和田３５０７番地,,14,210,2380114,,,,,,,2022-05-10,1,,,,,アルティス,0
470,2030001148016,新規,0,2022-05-10,2022-05-10,リデザイン株式会社,,株式会社,埼玉県,新座市,東北２丁目３９番１０号ドゥーセット弐番館６Ｆ,,11,230,3520001,,,,,,,2022-05-10,1,,,,,リデザイン,0
471,2030001148024,新規,0,2022-05-10,2022-05-10,ＭＲＮ株式会社,,株式会社,埼玉県,越谷市,東越谷８丁目６番地７,,11,222,3430023,,,,,,,2022-05-10,1,,,,,,0
472,2030001148040,新規,0,2022-05-10,2022-05-10,株式会社クレバス,,株式会社,埼玉県,三郷市,谷口５５３番地１２,,11,237,3410042,,,,,,,2022-05-10,1,,,,,クレバス,0
473,2030001148057,新規,0,2022-05-10,2022-05-10,株式会社ＨＯＮＥＳＳ,,株式会社,埼玉県,戸田市,美女木３丁目２３番地の１２,,11,224,3350031,,,,,,,2022-05-10,1,,,,,ホーネス,0
474,2030001148065,新規,0,2022-05-10,2022-05-10,株式会社グランテック,,株式会社,埼玉県,川越市,大字的場２２０２番地６２,,11,201,3501101,,,,,,,2022-05-10,1,,,,,グランテック,0
475,2030001148073,新規,0,2022-05-10,2022-05-10,株式会社濱野工業,00126499,株式会社,埼玉県,春日部市,下大増新田４２番地４,,11,214,3440036,,,,,,,2022-05-10,1,,,,,ハマノコウギョウ,0
476,2030001148081,新規,0,2022-05-10,2022-05-10,株式会社燕来舎,,株式会社,埼玉県,越谷市,赤山本町３番地２４－１２０１号,,11,222,3430808,,,,,,,2022-05-10,1,,,,,エンライシャ,0
477,2030001148107,新規,0,2022-05-10,2022-05-10,株式会社ウエハラ,,株式会社,埼玉県,春日部市,大畑８２６番地７,,11,214,3440022,,,,,,,2022-05-10,1,,,,,ウエハラ,0
478,2030001148131,新規,0,2022-05-10,2022-05-10,株式会社えにしや,,株式会社,埼玉県,新座市,栗原６丁目２番６号,,11,230,3520035,,,,,,,2022-05-10,1,,,,,エニシヤ,0
479,2030001148148,新規,0,2022-05-10,2022-05-10,株式会社Ｒｅｌｕｍｅ,,株式会社,埼玉県,桶川市,朝日２丁目１１番３号,,11,231,3630023,,,,,,,2022-05-10,1,,,,,レリューム,0
483,2030003019355,新規,0,2022-05-10,2022-05-10,合同会社スカイリープ,,合同会社,埼玉県,本庄市,寿３丁目５番１４号,,11,211,3670023,,,,,,,2022-05-10,1,,,,,スカイリープ,0
484,2030003019363,新規,0,2022-05-10,2022-05-10,合同会社イチカワ,,合同会社,埼玉県,春日部市,備後東６丁目６番３２号,,11,214,3440032,,,,,,,2022-05-10,1,,,,,イチカワ,0
492,2040001123265,新規,0,2022-05-10,2022-05-10,株式会社化学洗浄研究所,,株式会社,千葉県,千葉市中央区,新田町２６番６号,,12,101,2600027,,,,,,,2022-05-10,1,,,,,カガクセンジョウケンキュウジョ,0
493,2040001123298,新規,0,2022-05-10,2022-05-10,株式会社生浜断熱,,株式会社,千葉県,千葉市中央区,浜野町３９６番地２１,,12,101,2600824,,,,,,,2022-05-10,1,,,,,オイハマダンネツ,0
494,2040001123348,新規,0,2022-05-10,2022-05-10,株式会社Ｋ＆Ｍ,,株式会社,千葉県,千葉市中央区,春日２丁目９番５号クレールマロニエ２０１,,12,101,2600033,,,,,,,2022-05-10,1,,,,,ケイアンドエム,0
498,2040003019981,新規,0,2022-05-10,2022-05-10,合同会社ｂｅｔｔｅｒｐｌａｃｅ,,合同会社,千葉県,習志野市,本大久保３丁目５番１８号,,12,216,2750012,,,,,,,2022-05-10,1,,,,,ベタープレイス,0
499,2040003020007,新規,0,2022-05-10,2022-05-10,合同会社グリーンフル,,合同会社,千葉県,千葉市中央区,松波３丁目２０番１１号,,12,101,2600044,,,,,,,2022-05-10,1,,,,,グリーンフル,0
503,2040005021597,新規,0,2022-05-10,2022-05-10,医療法人社団健守会,,その他の設立登記法人,千葉県,我孫子市,柴崎台２丁目８番１９号１階,,12,222,2701176,,,,,,,2022-05-10,1,,,,,ケンシュカイ,0
504,2050001051044,新規,0,2022-05-10,2022-05-10,大寿エンジニアリング株式会社,,株式会社,茨城県,鉾田市,大竹１８６４番地,,08,234,3111513,,,,,,,2022-05-10,1,,,,,ダイジュエンジニアリング,0
505,2050005013073,新規,0,2022-05-10,2022-05-10,一般社団法人百景社,,その他の設立登記法人,茨城県,土浦市,真鍋３丁目１０番１８号,,08,203,3000051,,,,,,,2022-05-10,1,,,,,ヒャッケイシャ,0
506,2060001034849,新規,0,2022-05-10,2022-05-10,株式会社ハイブリッジクラフト,,株式会社,栃木県,河内郡上三川町,大字西汗１６５８番地１４,,09,301,3290607,,,,,,,2022-05-10,1,,,,,ハイブリッジクラフト,0
507,2060001034857,新規,0,2022-05-10,2022-05-10,株式会社コンフィテック,,株式会社,栃木県,宇都宮市,戸祭町２６３８番地１２,,09,201,3200053,,,,,,,2022-05-10,1,,,,,コンフィテック,0
510,2060003004065,新規,0,2022-05-10,2022-05-10,合同会社杏桜,,合同会社,栃木県,佐野市,金井上町２２４１番地,,09,204,3270015,,,,,,,2022-05-10,1,,,,,キョウオウ,0
513,2070001039203,新規,0,2022-05-10,2022-05-10,株式会社ケイズフィールド,,株式会社,群馬県,前橋市,住吉町２丁目３番１４号群央住吉ビル３０１号室,,10,201,3710021,,,,,,,2022-05-10,1,,,,,ケイズフィールド,0
515,2080101023270,新規,0,2022-05-10,2022-05-10,える株式会社,,株式会社,静岡県,富士市,松岡１２７４番地,,22,210,4160909,,,,,,,2022-05-10,1,,,,,エル,0
516,2080101023279,新規,0,2022-05-10,2022-05-10,株式会社ｇｌｉｎｔ,,株式会社,静岡県,伊東市,池８９３番地の２８５,,22,208,4130234,,,,,,,2022-05-10,1,,,,,グリント,0
517,2080105006255,新規,0,2022-05-10,2022-05-10,一般社団法人富士山企画,,その他の設立登記法人,静岡県,富士市,北松野６１５番地の３,,22,210,4213301,,,,,,,2022-05-10,1,,,,,フジサンキカク,0
519,2080401025784,新規,0,2022-05-10,2022-05-10,株式会社ｍ．ｋテック,,株式会社,静岡県,御前崎市,池新田４７２２番地の１,,22,223,4371612,,,,,,,2022-05-10,1,,,,,エムケイテック,0
520,2080401025801,新規,0,2022-05-10,2022-05-10,株式会社ヘルストロン静岡セイブ,,株式会社,静岡県,浜松市東区,大瀬町２７番地の２３３,,22,132,4313113,,,,,,,2022-05-10,1,,,,,ヘルストロンシズオカセイブ,0
523,2100001035314,新規,0,2022-05-10,2022-05-10,株式会社オスカーＥＳＢ,,株式会社,長野県,千曲市,大字上徳間１６２２番地２,,20,218,3890805,,,,,,,2022-05-10,1,,,,,オスカーイーエスビー,0
525,2110001036633,新規,0,2022-05-10,2022-05-10,株式会社ＥＫＳ,,株式会社,新潟県,長岡市,才津西町２２５９番地１,,15,202,9402133,,,,,,,2022-05-10,1,,,,,イーケーエス,0
526,2110003004753,新規,0,2022-05-10,2022-05-10,合同会社みちしるべ,,合同会社,新潟県,村上市,坂町３３０８番地１４ロイヤルメゾン優１０３号,,15,212,9593132,,,,,,,2022-05-10,1,,,,,ミチシルベ,0
545,2120001245662,新規,0,2022-05-10,2022-05-10,セブンブリッジ株式会社,,株式会社,大阪府,寝屋川市,香里南之町６番５号,,27,215,5720084,,,,,,,2022-05-10,1,,,,,セブンブリッジ,0
546,2120001245679,新規,0,2022-05-10,2022-05-10,ＴＳＵＮＥ株式会社,,株式会社,大阪府,大阪市東成区,中本３丁目１６番１１号,,27,115,5370022,,,,,,,2022-05-10,1,,,,,ツネ,0
547,2120001245687,新規,0,2022-05-10,2022-05-10,株式会社リーブルサポート,,株式会社,大阪府,大阪市平野区,瓜破２丁目１－３６－２０１,,27,126,5470024,,,,,,,2022-05-10,1,,,,,リーブルサポート,0
548,2120001245704,新規,0,2022-05-10,2022-05-10,株式会社ライフワン,,株式会社,大阪府,守口市,藤田町３丁目１７番１０号１Ｆ,,27,209,5700014,,,,,,,2022-05-10,1,,,,,ライフワン,0
549,2120001245720,新規,0,2022-05-10,2022-05-10,ＩＮＮＯＶＡＴＩＶＥ株式会社,,株式会社,大阪府,大阪市北区,梅田１丁目１１番４号大阪駅前第４ビル９階９２３－１６３５号,,27,127,5300001,,,,,,,2022-05-10,1,,,,,イノベイティブ,0
550,2120001245737,新規,0,2022-05-10,2022-05-10,株式会社ハセガワ,,株式会社,大阪府,大阪市西淀川区,御幣島１丁目１０番２５号,,27,113,5550012,,,,,,,2022-05-10,1,,,,,ハセガワ,0
551,2120001245745,新規,0,2022-05-10,2022-05-10,株式会社ＡＹＵＭｉ,,株式会社,大阪府,大阪市中央区,日本橋１丁目４－１６オーガストビル３階,,27,128,5420073,,,,,,,2022-05-10,1,,,,,アユミ,0
552,2120001245753,新規,0,2022-05-10,2022-05-10,株式会社ＳｅｌＰｒｏ,,株式会社,大阪府,大阪市北区,梅田１丁目１－３大阪駅前第３ビル２９階１－１－１号室,,27,127,5300001,,,,,,,2022-05-10,1,,,,,セルプロ,0
553,2120001245778,新規,0,2022-05-10,2022-05-10,株式会社ＯＧＭＳ,,株式会社,大阪府,大阪市北区,梅田１丁目１番３号大阪駅前第３ビル２９階１－１－１号室,,27,127,5300001,,,,,,,2022-05-10,1,,,,,オージーエムエス,0
554,2120001245786,新規,0,2022-05-10,2022-05-10,Ｂｅｓｔｏｎｅ　Ｔｅｃｈｎｏｌｏｇｉｅｓ株式会社,,株式会社,大阪府,大阪市天王寺区,空清町４－１１杉野ビル本館２０２号室,,27,109,5430018,,,,,,,2022-05-10,1,,,,,ベストワンテクノロジーズ,0
557,2120003021632,新規,0,2022-05-10,2022-05-10,合同会社藤本どうぶつ病院,,合同会社,大阪府,大阪市城東区,関目３丁目１１番２５－１階,,27,118,5360008,,,,,,,2022-05-10,1,,,,,フジモトドウブツビョウイン,0
562,2120101065523,新規,0,2022-05-10,2022-05-10,株式会社イーラ,,株式会社,大阪府,堺市中区,土塔町３１９１番地３,,27,142,5998234,,,,,,,2022-05-10,1,,,,,,0
563,2120101065531,新規,0,2022-05-10,2022-05-10,ＰＵＰＵＦＯＯＴ株式会社,,株式会社,大阪府,岸和田市,神須屋町９１番地の１,,27,202,5960833,,,,,,,2022-05-10,1,,,,,ププフット,0
569,2120901045939,新規,0,2022-05-10,2022-05-10,株式会社どれみホーム,,株式会社,大阪府,箕面市,今宮３丁目２２番４号,,27,220,5620033,,,,,,,2022-05-10,1,,,,,ドレミホーム,0
570,2120901045947,新規,0,2022-05-10,2022-05-10,株式会社ＧＳ,,株式会社,大阪府,摂津市,鳥飼西２丁目１８番７号,,27,224,5660072,,,,,,,2022-05-10,1,,,,,ジーエス,0
575,2120903004141,新規,0,2022-05-10,2022-05-10,合同会社ＮＥＸＴ,,合同会社,大阪府,吹田市,垂水町３丁目１６－２４ネバーランド江坂垂水１１０１,,27,205,5640062,,,,,,,2022-05-10,1,,,,,ネクスト,0
577,2122001035845,新規,0,2022-05-10,2022-05-10,株式会社ＰＬＵＳ　ａ,,株式会社,大阪府,八尾市,空港１丁目１７２番４号,,27,212,5810043,,,,,,,2022-05-10,1,,,,,プラスアルファ,0
584,2140001125870,新規,0,2022-05-10,2022-05-10,株式会社２６ＷＯＲＫＳ,,株式会社,兵庫県,姫路市,東今宿１丁目５番１０－６０１号ネオハイツ今宿Ａ棟,,28,201,6700056,,,,,,,2022-05-10,1,,,,,ジローワークス,0
585,2140001125887,新規,0,2022-05-10,2022-05-10,株式会社ＨＡＳＨＩＭＯＴＯ・ＳＹＯＵＴＥＮ,,株式会社,兵庫県,淡路市,岩屋１２３７番地,,28,226,6562401,,,,,,,2022-05-10,1,,,,,ハシモトショウテン,0
586,2140001125895,新規,0,2022-05-10,2022-05-10,株式会社ａｔｅｌｉｅｒ９,,株式会社,兵庫県,姫路市,砥堀７７９番地２,,28,201,6700802,,,,,,,2022-05-10,1,,,,,アトリエナイン,0
587,2140001125904,新規,0,2022-05-10,2022-05-10,株式会社翼工業,,株式会社,兵庫県,姫路市,広畑区西蒲田８４２番地,,28,201,6711107,,,,,,,2022-05-10,1,,,,,ツバサコウギョウ,0
588,2140001125912,新規,0,2022-05-10,2022-05-10,株式会社Ｃ．Ｔ．Ｍ,,株式会社,兵庫県,神戸市長田区,御蔵通３丁目２０２番地の５,,28,106,6530014,,,,,,,2022-05-10,1,,,,,シーティエム,0
592,2140003017645,新規,0,2022-05-10,2022-05-10,合同会社ＡＲＫ‐ＢＡＳＥ,,合同会社,兵庫県,尼崎市,南武庫之荘４丁目１５－２８－１０１,,28,202,6610033,,,,,,,2022-05-10,1,,,,,アークベース,0
593,2140003017661,新規,0,2022-05-10,2022-05-10,合同会社との山ライフ＆ガーデン,,合同会社,兵庫県,西宮市,殿山町１３－６,,28,204,6620065,,,,,,,2022-05-10,1,,,,,トノヤマライフアンドガーデン,0
603,2160001024170,新規,0,2022-05-10,2022-05-10,株式会社Ｌｅａｐ,,株式会社,滋賀県,愛知郡愛荘町,畑田１１番地,,25,425,5291323,,,,,,,2022-05-10,1,,,,,リープ,0
604,2160001024179,新規,0,2022-05-10,2022-05-10,株式会社Ｒａｉｓｅ,,株式会社,滋賀県,栗東市,辻７０３ｗａｋａｂａＢ棟１０３,00126495,25,208,5203042,,,,,,,2022-05-10,1,,,,,レイズ,0
605,2160001024187,新規,0,2022-05-10,2022-05-10,株式会社ＩＤ,,株式会社,滋賀県,栗東市,出庭１６３８番地６０,,25,208,5203041,,,,,,,2022-05-10,1,,,,,アイディー,0
606,2160003002562,新規,0,2022-05-10,2022-05-10,サイセイ管理合同会社,,合同会社,滋賀県,近江八幡市,堀上町１８９番地６,,25,204,5230031,,,,,,,2022-05-10,1,,,,,サイセイカンリ,0
611,2180001151178,新規,0,2022-05-10,2022-05-10,株式会社一道,,株式会社,愛知県,名古屋市守山区,八剣２丁目１８０３番地,,23,113,4630022,,,,,,,2022-05-10,1,,,,,イチドウ,0
612,2180001151186,新規,0,2022-05-10,2022-05-10,株式会社千種修繕サービス,,株式会社,愛知県,名古屋市千種区,竹越１丁目１３番２３号－２,,23,101,4640007,,,,,,,2022-05-10,1,,,,,チクサシュウゼンサービス,0
613,2180001151194,新規,0,2022-05-10,2022-05-10,ＮＥＸＴ　ＩＮＮＯＶＡＴＩＯＮ株式会社,,株式会社,愛知県,一宮市,伝法寺４丁目１番地２４,,23,203,4910828,,,,,,,2022-05-10,1,,,,,ネクストイノベーション,0
614,2180001151211,新規,0,2022-05-10,2022-05-10,株式会社宮本,,株式会社,愛知県,豊明市,西川町長田１７番地３７,,23,229,4701122,,,,,,,2022-05-10,1,,,,,ミヤモト,0
615,2180001151244,新規,0,2022-05-10,2022-05-10,株式会社クマペラ,,株式会社,愛知県,名古屋市中区,錦１丁目１０番１２号ハットリビル７階,,23,106,4600003,,,,,,,2022-05-10,1,,,,,クマペラ,0
616,2180001151260,新規,0,2022-05-10,2022-05-10,株式会社石原,,株式会社,愛知県,名古屋市西区,中小田井３丁目２８９番地５０１号,,23,104,4520822,,,,,,,2022-05-10,1,,,,,イシハラ,0
620,2180003023796,新規,0,2022-05-10,2022-05-10,合同会社ミーティア,,合同会社,愛知県,名古屋市守山区,城土町６４番地の１,,23,113,4630093,,,,,,,2022-05-10,1,,,,,ミーティア,0
621,2180003023813,新規,0,2022-05-10,2022-05-10,合同会社ＦＲＵＯＲＥ,,合同会社,愛知県,名古屋市西区,名駅２丁目３４番１７号セントラル名古屋１１０１号,,23,104,4510045,,,,,,,2022-05-10,1,,,,,フルオーレ,0
622,2180003023821,新規,0,2022-05-10,2022-05-10,ＢＮＮ合同会社,,合同会社,愛知県,半田市,東大矢知町３丁目８３番地の４,,23,205,4750003,,,,,,,2022-05-10,1,,,,,ビーエヌエヌ,0
623,2180301036186,新規,0,2022-05-10,2022-05-10,株式会社美藤造園,,株式会社,愛知県,豊田市,井上町１２丁目１２５番地１５,,23,211,4700372,,,,,,,2022-05-10,1,,,,,ビトウゾウエン,0
624,2180301036194,新規,0,2022-05-10,2022-05-10,株式会社ラグランファーム,,株式会社,愛知県,豊橋市,瓜郷町一新替３７番地の９,,23,201,4400092,,,,,,,2022-05-10,1,,,,,ラグランファーム,0
625,2180301036211,新規,0,2022-05-10,2022-05-10,ＭＳＳトレーディング株式会社,,株式会社,愛知県,豊橋市,神ノ輪町６３番地,,23,201,4418068,,,,,,,2022-05-10,1,,,,,エムエスエストレーディング,0
630,2190001029373,新規,0,2022-05-10,2022-05-10,株式会社ゴールデン・ＣＴ,,株式会社,三重県,四日市市,新浜町９番６号,,24,202,5100024,,,,,,,2022-05-10,1,,,,,ゴールデンシーティー,0
631,2190001029381,新規,0,2022-05-10,2022-05-10,株式会社便利屋スマイルユウ,,株式会社,三重県,四日市市,釆女町２０５８番地１北号室,,24,202,5100954,,,,,,,2022-05-10,1,,,,,ベンリヤスマイルユウ,0
633,2200001040064,新規,0,2022-05-10,2022-05-10,ギフビソー株式会社,,株式会社,岐阜県,美濃市,２６９７番地６,,21,207,5013701,,,,,,,2022-05-10,1,,,,,ギフビソー,0
635,2210001018919,新規,0,2022-05-10,2022-05-10,株式会社セイユー,,株式会社,福井県,福井市,江端町第２２号３５番地ドミールＴ＆Ｋ１０２,,18,201,9188016,,,,,,,2022-05-10,1,,,,,セイユー,0
640,2240001059720,新規,0,2022-05-10,2022-05-10,株式会社フリーダム工業,,株式会社,広島県,尾道市,沖側町５番７号,,34,205,7220006,,,,,,,2022-05-10,1,,,,,フリーダムコウギョウ,0
641,2240001059729,新規,0,2022-05-10,2022-05-10,株式会社ユーアイトラスト,,株式会社,広島県,東広島市,西条町下三永２１４７番地４,,34,212,7390023,,,,,,,2022-05-10,1,,,,,ユーアイトラスト,0
648,2270003001405,新規,0,2022-05-10,2022-05-10,合同会社山根断熱,,合同会社,鳥取県,東伯郡湯梨浜町,大字国信１９８番地,,31,370,6890726,,,,,,,2022-05-10,1,,,,,ヤマネダンネツ,0
649,2280003001610,新規,0,2022-05-10,2022-05-10,合同会社ＯＡＫＴＲＥＥ,,合同会社,島根県,浜田市,朝日町１５１８番地,,32,202,6970033,,,,,,,2022-05-10,1,,,,,オークツリー,0
656,2290001097427,新規,0,2022-05-10,2022-05-10,株式会社ＳＴｉ,,株式会社,福岡県,福岡市城南区,樋井川３丁目１８番２３－５０２号,,40,136,8140153,,,,,,,2022-05-10,1,,,,,エスティーアイ,0
657,2290001097476,新規,0,2022-05-10,2022-05-10,株式会社Ｓ＆Ｉ企画,,株式会社,福岡県,大川市,大字道海島中開１０９番地３,,40,212,8310007,,,,,,,2022-05-10,1,,,,,エスアンドアイキカク,0
660,2290003012490,新規,0,2022-05-10,2022-05-10,合同会社Ｆｕｔｕｒｅ　Ｇａｔｅ,,合同会社,福岡県,福岡市博多区,博多駅東２丁目２番１１号,,40,132,8120013,,,,,,,2022-05-10,1,,,,,フューチャーゲート,0
661,2290005018668,新規,0,2022-05-10,2022-05-10,行政書士法人パル法務事務所,,その他の設立登記法人,福岡県,嘉麻市,上臼井３２３番地１,,40,227,8200502,,,,,,,2022-05-10,1,,,,,パルホウムジムショ,0
664,2290801028498,新規,0,2022-05-10,2022-05-10,株式会社ＹＧＭ,,株式会社,福岡県,北九州市八幡東区,西台良町３番２号,,40,108,8050064,,,,,,,2022-05-10,1,,,,,ワイジーエム,0
665,2290801028507,新規,0,2022-05-10,2022-05-10,株式会社Ｓｍｉｌｅ　Ｔａｃｔ,,株式会社,福岡県,中間市,中央２丁目１３番１２号,,40,215,8090030,,,,,,,2022-05-10,1,,,,,スマイルタクト,0
666,2300003001839,新規,0,2022-05-10,2022-05-10,合同会社ＫＧ８８ＪＡＰＡＮ,,合同会社,佐賀県,三養基郡上峰町,大字坊所２４３６番地４グレースコート上峰Ｉ番館１０１,00126493,41,345,8490123,,,,,,,2022-05-10,1,,,,,ケージーハチハチジャパン,0
669,2310003004353,新規,0,2022-05-10,2022-05-10,合同会社寺島興業,,合同会社,長崎県,佐世保市,宇久町寺島１２０２－１,,42,202,8574816,,,,,,,2022-05-10,1,,,,,テラシマコウギョウ,0
670,2320001019055,新規,0,2022-05-10,2022-05-10,株式会社宇佐の風,,株式会社,大分県,宇佐市,大字樋田４７番地,,44,211,8790461,,,,,,,2022-05-10,1,,,,,ウサノカゼ,0
671,2320001019063,新規,0,2022-05-10,2022-05-10,燕昇株式会社,,株式会社,大分県,大分市,大在北３丁目５番１２号オレンジハイツＩＩ１０２,00126491,44,201,8700245,,,,,,,2022-05-10,1,,,,,エンショウ,0
673,2330001029714,新規,0,2022-05-10,2022-05-10,株式会社セーブ,,株式会社,熊本県,熊本市中央区,紺屋今町１番１号,,43,101,8600012,,,,,,,2022-05-10,1,,,,,セーブ,0
674,2330001029730,新規,0,2022-05-10,2022-05-10,株式会社トライト,,株式会社,熊本県,八代市,平山新町５４９７番地１,,43,202,8660074,,,,,,,2022-05-10,1,,,,,トライト,0
676,2330003009359,新規,0,2022-05-10,2022-05-10,合同会社ＨＩＴ,,合同会社,熊本県,上天草市,松島町合津４２７６番地５８,,43,212,8616102,,,,,,,2022-05-10,1,,,,,エイチアイティー,0
681,2340001024714,新規,0,2022-05-10,2022-05-10,株式会社ＲｅＡＣＴ,,株式会社,鹿児島県,奄美市,名瀬長浜町２－１１　１Ｆ,,46,222,8940036,,,,,,,2022-05-10,1,,,,,リアクト,0
684,2340003003781,新規,0,2022-05-10,2022-05-10,合同会社ＹＡＭＡＯＵ,,合同会社,鹿児島県,鹿屋市,串良町有里１２９２番地１,,46,203,8931602,,,,,,,2022-05-10,1,,,,,ヤマオウ,0
685,2350001017725,新規,0,2022-05-10,2022-05-10,株式会社比昌,,株式会社,宮崎県,都城市,鷹尾３丁目１５街区４号,,45,202,8850081,,,,,,,2022-05-10,1,,,,,ヒショウ,0
688,2350003004077,新規,0,2022-05-10,2022-05-10,はっぴいフーズ合同会社,,合同会社,宮崎県,西臼杵郡高千穂町,大字三田井１２６２番地３,,45,441,8821101,,,,,,,2022-05-10,1,,,,,ハッピーフーズ,0
689,2360003011907,新規,0,2022-05-10,2022-05-10,ＲＵＳＨ合同会社,,合同会社,沖縄県,名護市,東江５丁目１８－７－５０５,,47,209,9050021,,,,,,,2022-05-10,1,,,,,ラッシュ,0
690,2360003011980,新規,0,2022-05-10,2022-05-10,合同会社ＦｏｏｄＴｅｃＬａｂ,,合同会社,沖縄県,国頭郡本部町,字並里１２４１－１１,,47,308,9050222,,,,,,,2022-05-10,1,,,,,フードテックラボ,0
692,2370001048545,新規,0,2022-05-10,2022-05-10,株式会社小川商店,,株式会社,宮城県,仙台市太白区,四郎丸字前９３番地の４０,,04,104,9811101,,,,,,,2022-05-10,1,,,,,オガワショウテン,0
699,2390001016888,新規,0,2022-05-10,2022-05-10,ｍｉｒａｉ株式会社,,株式会社,山形県,山形市,江南２丁目９番１３号,,06,201,9900863,,,,,,,2022-05-10,1,,,,,ミライ,0
700,2400005008244,新規,0,2022-05-10,2022-05-10,ＮＰＯ法人奥州わらすば,,その他の設立登記法人,岩手県,奥州市,水沢真城字東大深沢３２番地７,,03,215,0230841,,,,,,,2022-05-10,1,,,,,,0
705,2420001017841,新規,0,2022-05-10,2022-05-10,株式会社北将ファシリティーサービス,,株式会社,青森県,青森市,緑２丁目２０番地２３,,02,201,0300845,,,,,,,2022-05-10,1,,,,,ホクショウファシリティーサービス,0
715,2460003000899,新規,0,2022-05-10,2022-05-10,合同会社グラビティージャム,,合同会社,北海道,釧路市,栄町１１番地１１,,01,206,0850000,,,,,,,2022-05-10,1,,,,,グラビティージャム,0
716,2460301005063,新規,0,2022-05-10,2022-05-10,株式会社Ｋ’Ｍｉｎｄ,,株式会社,北海道,斜里郡斜里町,朝日町２２番地１５,,01,545,0994114,,,,,,,2022-05-10,1,,,,,ケーズマインド,0
717,2470001019065,新規,0,2022-05-10,2022-05-10,昭栄機工株式会社,,株式会社,香川県,丸亀市,三条町１０９２番地１,,37,202,7630094,,,,,,,2022-05-10,1,,,,,ショウエイキコウ,0
723,2480001011723,新規,0,2022-05-10,2022-05-10,株式会社グラウンドサン,,株式会社,徳島県,吉野川市,川島町桑村１５９８番地,,36,205,7793303,,,,,,,2022-05-10,1,,,,,グラウンドサン,0
724,2490003001655,新規,0,2022-05-10,2022-05-10,和リフォーム合同会社,,合同会社,高知県,高知市,竹島町１８番地１２,,39,201,7808018,,,,,,,2022-05-10,1,,,,,ナゴミリフォーム,0
728,2500003002825,新規,0,2022-05-10,2022-05-10,合同会社カンティーネ,,合同会社,愛媛県,松山市,生石町６４９番地１１－５０２号,,38,201,7900051,,,,,,,2022-05-10,1,,,,,カンティーネ,0
737,3010001225831,新規,0,2022-05-10,2022-05-10,株式会社ＲＰＯ,,株式会社,東京都,千代田区,麹町１丁目６番地３クレール麹町１００１号,,13,101,1020083,,,,,,,2022-05-10,1,,,,,アールピーオー,0
738,3010001226383,新規,0,2022-05-10,2022-05-10,株式会社ＭａｓｓＡｇｅ,,株式会社,東京都,中央区,日本橋本石町３丁目１番２号,,13,102,1030021,,,,,,,2022-05-10,1,,,,,マスエイジ,0
739,3010001226409,新規,0,2022-05-10,2022-05-10,クロスボーダーＭ＆Ａ株式会社,,株式会社,東京都,中央区,銀座４丁目１３－８岩藤ビル５Ｆ,,13,102,1040061,,,,,,,2022-05-10,1,,,,,クロスボーダーエムアンドエー,0
740,3010001226417,新規,0,2022-05-10,2022-05-10,株式会社シンメ,,株式会社,東京都,文京区,小石川３丁目３６番１９号,,13,105,1120002,,,,,,,2022-05-10,1,,,,,シンメ,0
741,3010001226425,新規,0,2022-05-10,2022-05-10,Ｂａｓｉｃａｌ　Ｈｅａｌｔｈ株式会社,,株式会社,東京都,千代田区,神田錦町２丁目２番地１ＫＡＮＤＡＳＱＵＡＲＥ１１階ＷｅＷｏｒｋ内,,13,101,1010054,,,,,,,2022-05-10,1,,,,,ベーシカルヘルス,0
742,3010001226458,新規,0,2022-05-10,2022-05-10,株式会社Ｇｏｌｄｔｒｕｓｔ,,株式会社,東京都,中央区,日本橋浜町２丁目２５番４号青木ビル２０１号,,13,102,1030007,,,,,,,2022-05-10,1,,,,,ゴールドトラスト,0
745,3010003037580,新規,0,2022-05-10,2022-05-10,ゼロシー合同会社,,合同会社,東京都,千代田区,平河町１丁目６－１５ＵＳビル８Ｆ,,13,101,1020093,,,,,,,2022-05-10,1,,,,,ゼロシー,0
747,3010005034964,新規,0,2022-05-10,2022-05-10,福知山ロジスティクス特定目的会社,,その他の設立登記法人,東京都,中央区,日本橋１丁目４番１号,,13,102,1030027,,,,,,,2022-05-10,1,,,,,フクチヤマロジスティクス,0
748,3010005034980,新規,0,2022-05-10,2022-05-10,ＮＩＨＯＮＢＡＳＨＩ３一般社団法人,,その他の設立登記法人,東京都,中央区,日本橋１丁目４番１号日本橋一丁目ビルディング,,13,102,1030027,,,,,,,2022-05-10,1,,,,,ニホンバシスリー,0
749,3010103001908,新規,0,2022-05-10,2022-05-10,合同会社雨のち晴,,合同会社,東京都,八王子市,川口町２６３６－８,,13,201,1930801,,,,,,,2022-05-10,1,,,,,アメノチハレ,0
755,3010401167228,新規,0,2022-05-10,2022-05-10,株式会社オトメジム,,株式会社,東京都,港区,浜松町２丁目２番１５号浜松町ダイヤビル２階,,13,103,1050013,,,,,,,2022-05-10,1,,,,,オトメジム,0
756,3010401167260,新規,0,2022-05-10,2022-05-10,株式会社パフ,,株式会社,東京都,港区,芝浦４丁目２０番２号芝浦アイランドブルームタワー３８２０,,13,103,1080023,,,,,,,2022-05-10,1,,,,,パフ,0
757,3010403027553,新規,0,2022-05-10,2022-05-10,ビーナスインフラファンド合同会社,,合同会社,東京都,港区,元赤坂１丁目１番７号,,13,103,1070051,,,,,,,2022-05-10,1,,,,,ビーナスインフラファンド,0
758,3010501048807,新規,0,2022-05-10,2022-05-10,株式会社Ｓｋｙｒｏｃｋｅｔｓ,,株式会社,東京都,台東区,上野２丁目１２－１８池之端ヒロハイツ２階インスクエア内,,13,106,1100005,,,,,,,2022-05-10,1,,,,,スカイロケッツ,0
759,3010603009517,新規,0,2022-05-10,2022-05-10,ＷＣＣ合同会社,,合同会社,東京都,江東区,有明２丁目１－２－１９０１,,13,108,1350063,,,,,,,2022-05-10,1,,,,,ダブリューシーシー,0
760,3010701042576,新規,0,2022-05-10,2022-05-10,株式会社ａｙａｂａｂｙ,,株式会社,東京都,品川区,上大崎２丁目１０番１１号アビティ目黒２０２,,13,109,1410021,,,,,,,2022-05-10,1,,,,,アヤベイビー,0
761,3010701042601,新規,0,2022-05-10,2022-05-10,株式会社ケイリ,,株式会社,東京都,品川区,西五反田３丁目１０－１８－１９０１,,13,109,1410031,,,,,,,2022-05-10,1,,,,,ケイリ,0
762,3010703006224,新規,0,2022-05-10,2022-05-10,合同会社北野,,合同会社,東京都,品川区,東品川３丁目７－３－９０７,,13,109,1400002,,,,,,,2022-05-10,1,,,,,キタノ,0
781,3011001147314,新規,0,2022-05-10,2022-05-10,株式会社ｋｏｋｏｄｅａｒ,,株式会社,東京都,渋谷区,神南１丁目６番５号,,13,113,1500041,,,,,,,2022-05-10,1,,,,,,0
782,3011001147371,新規,0,2022-05-10,2022-05-10,株式会社ＥｉＧＯ,,株式会社,東京都,渋谷区,千駄ヶ谷５丁目２番２号,,13,113,1510051,,,,,,,2022-05-10,1,,,,,イーゴ,0
784,3011005009568,新規,0,2022-05-10,2022-05-10,ダイネス壱番館渋谷管理組合法人,,その他の設立登記法人,東京都,渋谷区,神南１丁目１１番５号,,13,113,1500041,,,,,,,2022-05-10,1,,,,,ダイネスイチバンカンシブヤ,0
786,3011101098738,新規,0,2022-05-10,2022-05-10,株式会社リロードマインド,,株式会社,東京都,新宿区,西新宿７丁目２番６号,,13,104,1600023,,,,,,,2022-05-10,1,,,,,リロードマインド,0
788,3011201023819,新規,0,2022-05-10,2022-05-10,株式会社ＵＴレンタル,,株式会社,東京都,中野区,東中野５丁目６番地２３号東中野ハイム１０１３号室,,13,114,1640003,,,,,,,2022-05-10,1,,,,,ユーティーレンタル,0
791,3011305002818,新規,0,2022-05-10,2022-05-10,ＮＰＯ法人カケルとミチル,,その他の設立登記法人,東京都,杉並区,阿佐谷北３丁目２番１０号,,13,115,1660001,,,,,,,2022-05-10,1,,,,,カケルトミチル,0
792,3011401024212,新規,0,2022-05-10,2022-05-10,株式会社サクセス,,株式会社,東京都,板橋区,南常盤台１丁目３３番１１号,,13,119,1740072,,,,,,,2022-05-10,1,,,,,サクセス,0
793,3011401024220,新規,0,2022-05-10,2022-05-10,株式会社アドバンス,,株式会社,東京都,板橋区,大和町３５番１０号さざなみビル１階,,13,119,1730012,,,,,,,2022-05-10,1,,,,,アドバンス,0
794,3011403003651,新規,0,2022-05-10,2022-05-10,睿策合同会社,,合同会社,東京都,板橋区,熊野町５番１４号ティエラ北池袋３０３,,13,119,1730025,,,,,,,2022-05-10,1,,,,,エイサク,0
796,3011501028022,新規,0,2022-05-10,2022-05-10,株式会社フェリッツ,,株式会社,東京都,荒川区,荒川４丁目３６番２号,,13,118,1160002,,,,,,,2022-05-10,1,,,,,フェリッツ,0
797,3011503005151,新規,0,2022-05-10,2022-05-10,合同会社エフダイニング,,合同会社,東京都,北区,赤羽南１丁目８番５号ＴＳビル５階,,13,117,1150044,,,,,,,2022-05-10,1,,,,,エフダイニング,0
802,3011701025281,新規,0,2022-05-10,2022-05-10,水野内装株式会社,,株式会社,東京都,江戸川区,東葛西５丁目５３番６号,,13,123,1340084,,,,,,,2022-05-10,1,,,,,ミズノナイソウ,0
803,3011703003137,新規,0,2022-05-10,2022-05-10,合同会社Ｔ‐ＳＴＡＲ,,合同会社,東京都,江戸川区,東小岩５丁目３７番１５－８０２号,,13,123,1330052,,,,,,,2022-05-10,1,,,,,ティースター,0
804,3011801040676,新規,0,2022-05-10,2022-05-10,己午株式会社,,株式会社,東京都,足立区,千住橋戸町６２－２天宏ビル２０２号室,,13,121,1200038,,,,,,,2022-05-10,1,,,,,キゴ,0
805,3012401039175,新規,0,2022-05-10,2022-05-10,株式会社ＺＥＮ,,株式会社,東京都,武蔵野市,吉祥寺北町４丁目１１番２－２１０号,,13,203,1800001,,,,,,,2022-05-10,1,,,,,ゼン,0
806,3012401039183,新規,0,2022-05-10,2022-05-10,株式会社オルタナ,,株式会社,東京都,武蔵野市,中町２丁目１番９号,,13,203,1800006,,,,,,,2022-05-10,1,,,,,オルタナ,0
807,3012403005349,新規,0,2022-05-10,2022-05-10,合同会社すずらん,,合同会社,東京都,狛江市,岩戸南３丁目２６番９号,,13,219,2010005,,,,,,,2022-05-10,1,,,,,スズラン,0
808,3012403005365,新規,0,2022-05-10,2022-05-10,合同会社ＡＭＫ,,合同会社,東京都,三鷹市,野崎３丁目２－３,,13,204,1810014,,,,,,,2022-05-10,1,,,,,エーエムケイ,0
811,3012801021559,新規,0,2022-05-10,2022-05-10,株式会社ｆｌａｕｓ,,株式会社,東京都,立川市,柴崎町３丁目３番２号立川ステーションフロントビル７Ｆ,,13,202,1900023,,,,,,,2022-05-10,1,,,,,フラウス,0
815,3020001146358,新規,0,2022-05-10,2022-05-10,株式会社Ｔｒｕｓｔ　Ｐｒｏｖｉｓｉｏｎ,,株式会社,神奈川県,横浜市港北区,篠原町１５６５－４１,,14,109,2220026,,,,,,,2022-05-10,1,,,,,トラストプロヴィジョン,0
816,3020001146374,新規,0,2022-05-10,2022-05-10,カメーダ株式会社,,株式会社,神奈川県,横浜市青葉区,恩田町１１７１番地７,,14,117,2270065,,,,,,,2022-05-10,1,,,,,カメーダ,0
817,3020001146382,新規,0,2022-05-10,2022-05-10,株式会社インテリア多々内,,株式会社,神奈川県,横浜市鶴見区,下末吉１丁目３１番１６号,,14,101,2300012,,,,,,,2022-05-10,1,,,,,インテリアタダウチ,0
827,3020003021732,新規,0,2022-05-10,2022-05-10,合同会社ファイヤーバード,,合同会社,神奈川県,横浜市神奈川区,神大寺１丁目２６－６,,14,102,2210801,,,,,,,2022-05-10,1,,,,,ファイヤーバード,0
828,3020003021749,新規,0,2022-05-10,2022-05-10,合同会社美容室菊地,,合同会社,神奈川県,横浜市都筑区,北山田５丁目１０番１２号,,14,118,2240021,,,,,,,2022-05-10,1,,,,,ビヨウシツキクチ,0
833,3021001075877,新規,0,2022-05-10,2022-05-10,株式会社大木空調,,株式会社,神奈川県,綾瀬市,小園１２０３－１サニーコート栗原１０２号,,14,218,2521121,,,,,,,2022-05-10,1,,,,,オオキクウチョウ,0
834,3021001075885,新規,0,2022-05-10,2022-05-10,株式会社Ｌｕａｎａ,,株式会社,神奈川県,厚木市,水引２丁目６番２３号コーポ水引１０５,,14,212,2430004,,,,,,,2022-05-10,1,,,,,ルアナ,0
835,3021001075902,新規,0,2022-05-10,2022-05-10,ワイズコンサルタント株式会社,,株式会社,神奈川県,相模原市南区,東林間２丁目２３番３号,,14,153,2520311,,,,,,,2022-05-10,1,,,,,ワイズコンサルタント,0
839,3021003011665,新規,0,2022-05-10,2022-05-10,合同会社ゴトオ,,合同会社,神奈川県,藤沢市,鵠沼桜が岡３丁目１番１－２２４号,00126507,14,205,2510027,,,,,,,2022-05-10,1,,,,,ゴトオ,0
840,3030001147883,新規,0,2022-05-10,2022-05-10,穴澤電設サービス株式会社,,株式会社,埼玉県,鴻巣市,箕田３８３１番地２０,,11,217,3650062,,,,,,,2022-05-10,1,,,,,アナザワデンセツサービス,0
841,3030001147966,新規,0,2022-05-10,2022-05-10,株式会社ＳＨＣ,,株式会社,埼玉県,八潮市,八潮６丁目１５番地５メゾンフローラルＩＶ－Ａ,00126500,11,234,3400815,,,,,,,2022-05-10,1,,,,,エスエイチシー,0
842,3030001148007,新規,0,2022-05-10,2022-05-10,株式会社クレスト,,株式会社,埼玉県,新座市,東３丁目１２番２３号,,11,230,3520002,,,,,,,2022-05-10,1,,,,,クレスト,0
843,3030001148064,新規,0,2022-05-10,2022-05-10,拓実建築株式会社,,株式会社,埼玉県,さいたま市桜区,大字宿２２９番地７,,11,106,3380814,,,,,,,2022-05-10,1,,,,,タクミケンチク,0
844,3030001148072,新規,0,2022-05-10,2022-05-10,株式会社Ｈｉｌｉｎａ’ｉ　ｃｏｍｐａｎｙ,,株式会社,埼玉県,飯能市,大字双柳１１８７番地２４,,11,209,3570021,,,,,,,2022-05-10,1,,,,,ヒリナイカンパニー,0
845,3030001148106,新規,0,2022-05-10,2022-05-10,株式会社双柳,,株式会社,埼玉県,飯能市,大字双柳５２５番地１,,11,209,3570021,,,,,,,2022-05-10,1,,,,,ナミヤナギ,0
846,3030001148130,新規,0,2022-05-10,2022-05-10,株式会社Ｂ＆Ｗ,,株式会社,埼玉県,さいたま市大宮区,天沼町１丁目４５９番地１グランドメゾン大宮１０１号室,,11,103,3300834,,,,,,,2022-05-10,1,,,,,ビーアンドダブリュー,0
847,3030001148147,新規,0,2022-05-10,2022-05-10,株式会社Ｌｅａｄ　Ｓｔｅｐ,,株式会社,埼玉県,蕨市,南町４丁目３３番８号,,11,223,3350003,,,,,,,2022-05-10,1,,,,,リードステップ,0
852,3030003019354,新規,0,2022-05-10,2022-05-10,国神測量合同会社,,合同会社,埼玉県,所沢市,大字荒幡８８１番地の１５,,11,208,3591133,,,,,,,2022-05-10,1,,,,,コクシンソクリョウ,0
853,3030003019370,新規,0,2022-05-10,2022-05-10,ＭＫＴ’ｓ合同会社,,合同会社,埼玉県,川口市,大字新堀１６３番地,,11,203,3340061,,,,,,,2022-05-10,1,,,,,エムケイティーズ,0
863,3040001123124,新規,0,2022-05-10,2022-05-10,宝鼎産業株式会社,,株式会社,千葉県,習志野市,東習志野５丁目３２番１２－１０５号,,12,216,2750001,,,,,,,2022-05-10,1,,,,,ホウテイサンギョウ,0
864,3040001123256,新規,0,2022-05-10,2022-05-10,株式会社豊島電機設備,,株式会社,千葉県,千葉市花見川区,武石町１丁目３３番地１,,12,102,2620031,,,,,,,2022-05-10,1,,,,,トヨシマデンキセツビ,0
865,3040001123264,新規,0,2022-05-10,2022-05-10,株式会社ＴＯＤＯＫＥＬＬ,,株式会社,千葉県,千葉市緑区,おゆみ野南３丁目１８番地２１,,12,105,2660033,,,,,,,2022-05-10,1,,,,,トドケル,0
866,3040001123339,新規,0,2022-05-10,2022-05-10,株式会社きさこんショップ,,株式会社,千葉県,木更津市,中島４３７０番地２,,12,206,2920008,,,,,,,2022-05-10,1,,,,,キサコンショップ,0
869,3040005021588,新規,0,2022-05-10,2022-05-10,一般社団法人Ｔｅｒｒａｃｅ,,その他の設立登記法人,千葉県,東金市,下武射田４２番地２,,12,213,2830012,,,,,,,2022-05-10,1,,,,,テラス,0
871,3050003006549,新規,0,2022-05-10,2022-05-10,合同会社つなぐ不動産,,合同会社,茨城県,神栖市,知手中央３丁目５番１０号,,08,232,3140112,,,,,,,2022-05-10,1,,,,,ツナグフドウサン,0
872,3060001034848,新規,0,2022-05-10,2022-05-10,株式会社シーエックスマネジメント,,株式会社,栃木県,小山市,西城南６丁目２０－３,,09,208,3230820,,,,,,,2022-05-10,1,,,,,シーエックスマネジメント,0
876,3070003004484,新規,0,2022-05-10,2022-05-10,ＫｓＥＣＷ合同会社,,合同会社,群馬県,高崎市,下中居町１５番地３,,10,202,3700853,,,,,,,2022-05-10,1,,,,,ケイエスイーシーダブリュー,0
888,3100001035305,新規,0,2022-05-10,2022-05-10,喜笑楽株式会社,,株式会社,長野県,松本市,鎌田２丁目８番４３－１号,,20,202,3900837,,,,,,,2022-05-10,1,,,,,キエラ,0
889,3100001035321,新規,0,2022-05-10,2022-05-10,つたや菓子舗株式会社,,株式会社,長野県,須坂市,大字小山５２９番地７,,20,207,3820000,,,,,,,2022-05-10,1,,,,,ツタヤカシホ,0
890,3100003006535,新規,0,2022-05-10,2022-05-10,合同会社シエルブルーファーム,,合同会社,長野県,下高井郡山ノ内町,大字平穏３６１７番地２,,20,561,3810401,,,,,,,2022-05-10,1,,,,,シエルブルーファーム,0
893,3110001036632,新規,0,2022-05-10,2022-05-10,株式会社ディー・レストレイション,,株式会社,新潟県,新潟市東区,豊２丁目２番８号,,15,102,9500812,,,,,,,2022-05-10,1,,,,,ディーレストレイション,0
894,3110001036640,新規,0,2022-05-10,2022-05-10,田村建築株式会社,,株式会社,新潟県,村上市,鋳物師５５６番地,,15,212,9580813,,,,,,,2022-05-10,1,,,,,タムラケンチク,0
913,3120001245661,新規,0,2022-05-10,2022-05-10,株式会社ＬｕｂＲｅｃ,,株式会社,大阪府,大阪市住吉区,住吉２丁目１４番８号,,27,120,5580045,,,,,,,2022-05-10,1,,,,,ルブレック,0
914,3120001245678,新規,0,2022-05-10,2022-05-10,九豊株式会社,,株式会社,大阪府,大阪市淀川区,西中島２丁目１２番８－４１８号,,27,123,5320011,,,,,,,2022-05-10,1,,,,,キュウホウ,0
915,3120001245694,新規,0,2022-05-10,2022-05-10,株式会社リンクファミリア,,株式会社,大阪府,大阪市阿倍野区,松崎町３丁目１３番２３－９１８号,,27,119,5450053,,,,,,,2022-05-10,1,,,,,リンクファミリア,0
916,3120001245703,新規,0,2022-05-10,2022-05-10,株式会社ピースデザイン,,株式会社,大阪府,大阪市淀川区,新高６丁目１６番１６－１１１５号,,27,123,5320033,,,,,,,2022-05-10,1,,,,,ピースデザイン,0
917,3120001245711,新規,0,2022-05-10,2022-05-10,ＰＩＮＥＭＩＬＬｓ株式会社,,株式会社,大阪府,大阪市西区,京町堀１丁目７番９号東洋ビル４０５,,27,106,5500003,,,,,,,2022-05-10,1,,,,,パインミルズ,0
918,3120001245728,新規,0,2022-05-10,2022-05-10,ＭＡＳ株式会社,,株式会社,大阪府,枚方市,楠葉丘１丁目９番１８号,,27,210,5731104,,,,,,,2022-05-10,1,,,,,エムエーエス,0
919,3120001245752,新規,0,2022-05-10,2022-05-10,株式会社コブレス,,株式会社,大阪府,大阪市東淀川区,東中島１丁目１７番５号,,27,114,5330033,,,,,,,2022-05-10,1,,,,,コブレス,0
920,3120001245760,新規,0,2022-05-10,2022-05-10,義和株式会社,,株式会社,大阪府,大阪市西成区,山王１丁目１４番１９号,,27,122,5570001,,,,,,,2022-05-10,1,,,,,ギワ,0
921,3120001245777,新規,0,2022-05-10,2022-05-10,株式会社ｄｅｔｏ,,株式会社,大阪府,大阪市住吉区,長居東４丁目６番８号,,27,120,5580004,,,,,,,2022-05-10,1,,,,,デト,0
922,3120001245793,新規,0,2022-05-10,2022-05-10,セブンエス株式会社,,株式会社,大阪府,大阪市中央区,東心斎橋１丁目４番１号,,27,128,5420083,,,,,,,2022-05-10,1,,,,,セブンエス,0
928,3120003021615,新規,0,2022-05-10,2022-05-10,合同会社ファーマ管理,,合同会社,大阪府,大阪市中央区,久太郎町１丁目９番４号,,27,128,5410056,,,,,,,2022-05-10,1,,,,,ファーマカンリ,0
929,3120003021623,新規,0,2022-05-10,2022-05-10,総合事務サービス合同会社,,合同会社,大阪府,大阪市中央区,北浜２丁目３番９号入商八木ビル８階,,27,128,5410041,,,,,,,2022-05-10,1,,,,,ソウゴウジムサービス,0
930,3120003021631,新規,0,2022-05-10,2022-05-10,合同会社城東体操教室,,合同会社,大阪府,大阪市城東区,成育３丁目１６番１６号２Ｆ,,27,118,5360007,,,,,,,2022-05-10,1,,,,,ジョウトウタイソウキョウシツ,0
931,3120003021656,新規,0,2022-05-10,2022-05-10,合同会社Ｈｉｐｐｏ　Ｔｕｓｋｓ,,合同会社,大阪府,大阪市東淀川区,下新庄２丁目８番１３号,,27,114,5330021,,,,,,,2022-05-10,1,,,,,ヒッポータスクス,0
935,3120101065530,新規,0,2022-05-10,2022-05-10,株式会社Ａｃｔ　Ｇｌｏｂａｌｌｙ,,株式会社,大阪府,羽曳野市,軽里３丁目２２１番地の１,,27,222,5830854,,,,,,,2022-05-10,1,,,,,アクトグローバリー,0
937,3120103004692,新規,0,2022-05-10,2022-05-10,合同会社Ｄｅｓｉｒｅ　Ｅｓｔａｔｅ,,合同会社,大阪府,堺市北区,長曽根町３０４８番地１２メゾンドール１０１号,,27,146,5918025,,,,,,,2022-05-10,1,,,,,デザイアエステート,0
939,3120901045946,新規,0,2022-05-10,2022-05-10,株式会社和技研,,株式会社,大阪府,豊中市,今在家１８番２３号,,27,203,5600000,,,,,,,2022-05-10,1,,,,,カズギケン,0
941,3120903004140,新規,0,2022-05-10,2022-05-10,バルフォイ合同会社,,合同会社,大阪府,高槻市,富田町２丁目１３番１８号吉田ハイツ８８－３号,00126498,27,207,5690814,,,,,,,2022-05-10,1,,,,,バルフォイ,0
945,3130001071693,新規,0,2022-05-10,2022-05-10,一華株式会社,,株式会社,京都府,京都市右京区,嵯峨朝日町３５－３,,26,108,6168343,,,,,,,2022-05-10,1,,,,,イッカ,0
946,3130001071727,新規,0,2022-05-10,2022-05-10,株式会社サクラエンタプライズ,,株式会社,京都府,京都市中京区,壬生東大竹町１１番地２六角ビル２階,,26,104,6048852,,,,,,,2022-05-10,1,,,,,サクラエンタプライズ,0
949,3130005016471,新規,0,2022-05-10,2022-05-10,一般社団法人日本感染対策協会,,その他の設立登記法人,京都府,京都市左京区,北白川小倉町４０番地１３,,26,103,6068264,,,,,,,2022-05-10,1,,,,,ニホンカンセンタイサクキョウカイ,0
951,3140001125878,新規,0,2022-05-10,2022-05-10,ワイアール運送株式会社,,株式会社,兵庫県,川西市,一庫３丁目６番３７号,,28,217,6660153,,,,,,,2022-05-10,1,,,,,ワイアールウンソウ,0
952,3140001125886,新規,0,2022-05-10,2022-05-10,株式会社ＭＴサービス,,株式会社,兵庫県,高砂市,米田町塩市２１６番地９,,28,216,6760806,,,,,,,2022-05-10,1,,,,,エムティサービス,0
953,3140001125903,新規,0,2022-05-10,2022-05-10,橋本電装株式会社,,株式会社,兵庫県,姫路市,青山北３丁目３１番２０－９０６号,,28,201,6712221,,,,,,,2022-05-10,1,,,,,ハシモトデンソウ,0
957,3150001025516,新規,0,2022-05-10,2022-05-10,株式会社Ｈａｔａホームサービス,,株式会社,奈良県,大和高田市,大字大谷３６１－１,,29,202,6350076,,,,,,,2022-05-10,1,,,,,ハタホームサービス,0
965,3160001024161,新規,0,2022-05-10,2022-05-10,コマツ・エンジニアリングサービス株式会社,,株式会社,滋賀県,米原市,中多良６０３番地１サンビレッジ米原６０４,,25,214,5210011,,,,,,,2022-05-10,1,,,,,コマツエンジニアリングサービス,0
966,3160001024178,新規,0,2022-05-10,2022-05-10,日中夢楽観光株式会社,,株式会社,滋賀県,大津市,打出浜２番１号コラボしが２１、４階４２１号室,,25,201,5200806,,,,,,,2022-05-10,1,,,,,ニッチュウユメラクカンコウ,0
967,3160001024186,新規,0,2022-05-10,2022-05-10,株式会社ブライラント,,株式会社,滋賀県,大津市,本堅田５丁目６番７号,,25,201,5200242,,,,,,,2022-05-10,1,,,,,ブライラント,0
974,3180001151160,新規,0,2022-05-10,2022-05-10,株式会社アミティエ,,株式会社,愛知県,名古屋市中区,丸の内２丁目１４番４号エグゼ丸の内ビル８０８,,23,106,4600002,,,,,,,2022-05-10,1,,,,,アミティエ,0
975,3180001151169,新規,0,2022-05-10,2022-05-10,株式会社晴人＆カンパニー,,株式会社,愛知県,名古屋市東区,葵２丁目１１番２２号,,23,102,4610004,,,,,,,2022-05-10,1,,,,,パレットアンドカンパニー,0
976,3180001151193,新規,0,2022-05-10,2022-05-10,株式会社イノベーションワークス,,株式会社,愛知県,東海市,名和町寅新田４０番地の１フェアライズ小島１－Ａ,,23,222,4760002,,,,,,,2022-05-10,1,,,,,イノベーションワークス,0
977,3180001151210,新規,0,2022-05-10,2022-05-10,株式会社Ｒｍｙ,,株式会社,愛知県,尾張旭市,吉岡町２丁目２番地２２,,23,226,4880827,,,,,,,2022-05-10,1,,,,,アールエムワイ,0
978,3180001151227,新規,0,2022-05-10,2022-05-10,株式会社えんのまち,,株式会社,愛知県,名古屋市千種区,天満通２丁目１９番地,,23,101,4640095,,,,,,,2022-05-10,1,,,,,エンノマチ,0
979,3180001151243,新規,0,2022-05-10,2022-05-10,株式会社ｍｅ,,株式会社,愛知県,江南市,小折東町旭１６８番地,,23,217,4838125,,,,,,,2022-05-10,1,,,,,ミイ,0
980,3180001151251,新規,0,2022-05-10,2022-05-10,株式会社リーファーズ,,株式会社,愛知県,名古屋市北区,清水５丁目１３番８号,,23,103,4620844,,,,,,,2022-05-10,1,,,,,リーファーズ,0
991,3180003023787,新規,0,2022-05-10,2022-05-10,合同会社ｍｅｅｋｌｙ,,合同会社,愛知県,名古屋市中区,大須４丁目１番９号菱水ビル２Ｆ,,23,106,4600011,,,,,,,2022-05-10,1,,,,,ミークリー,0
992,3180003023804,新規,0,2022-05-10,2022-05-10,合同会社Ｏｎｅ　ｏｎ　Ｏｎｅ,,合同会社,愛知県,一宮市,殿町１丁目３２番地１,,23,203,4910848,,,,,,,2022-05-10,1,,,,,ワンオンワン,0
993,3180003023812,新規,0,2022-05-10,2022-05-10,合同会社ＫＭ技建,,合同会社,愛知県,名古屋市北区,西味鋺５丁目７１４番地の１,,23,103,4620016,,,,,,,2022-05-10,1,,,,,ケーエムギケン,0
995,3180005019767,新規,0,2022-05-10,2022-05-10,グロースリンク行政書士法人,,その他の設立登記法人,愛知県,名古屋市中村区,平池町４丁目６０番地の１２,,23,105,4530872,,,,,,,2022-05-10,1,,,,,グロースリンク,0
999,3180301036202,新規,0,2022-05-10,2022-05-10,コマツ塗装株式会社,,株式会社,愛知県,豊川市,伊奈町佐脇原６１２番地２１,,23,207,4410105,,,,,,,2022-05-10,1,,,,,コマツトソウ,0
1000,3180301036210,新規,0,2022-05-10,2022-05-10,株式会社ティーエージー,,株式会社,愛知県,豊田市,西町２丁目１８番地２,,23,211,4710025,,,,,,,2022-05-10,1,,,,,ティーエージー,0
1006,3180305009336,新規,0,2022-05-10,2022-05-10,一般社団法人平田炊飯研究所,,その他の設立登記法人,愛知県,豊川市,国府町下坊入６番地の６レインボー國府Ｃ２０５号,,23,207,4420854,,,,,,,2022-05-10,1,,,,,ヒラタスイハンケンキュウジョ,0
1008,3190001029389,新規,0,2022-05-10,2022-05-10,株式会社植村木材店,,株式会社,三重県,北牟婁郡紀北町,相賀１４３番地３７,,24,543,5193406,,,,,,,2022-05-10,1,,,,,ウエムラモクザイテン,0
1009,3190001029397,新規,0,2022-05-10,2022-05-10,株式会社畑中不動産事務所,,株式会社,三重県,津市,一身田上津部田１４８８番地９９,,24,201,5140061,,,,,,,2022-05-10,1,,,,,ハタナカフドウサンジムショ,0
1013,3200001040055,新規,0,2022-05-10,2022-05-10,株式会社ハンドスリー,,株式会社,岐阜県,海津市,南濃町奥条２９２番地９,,21,221,5030412,,,,,,,2022-05-10,1,,,,,ハンドスリー,0
1018,3220001024832,新規,0,2022-05-10,2022-05-10,株式会社菊屋,,株式会社,石川県,金沢市,木曳野３丁目１７１番地,,17,201,9200339,,,,,,,2022-05-10,1,,,,,キクヤ,0
1019,3220005008666,新規,0,2022-05-10,2022-05-10,医療法人社団鳳珠会,,その他の設立登記法人,石川県,金沢市,大友３丁目２番地,,17,201,9208205,,,,,,,2022-05-10,1,,,,,ホウジュカイ,0
1022,3240001059711,新規,0,2022-05-10,2022-05-10,株式会社横山自動車,,株式会社,広島県,呉市,広古新開３丁目３番９号,,34,202,7370112,,,,,,,2022-05-10,1,,,,,ヨコヤマジドウシャ,0
1023,3240001059760,新規,0,2022-05-10,2022-05-10,株式会社エヌテック,,株式会社,広島県,広島市安芸区,船越１丁目４３番１０－１０３号,,34,107,7360081,,,,,,,2022-05-10,1,,,,,エヌテック,0
1024,3240003005606,新規,0,2022-05-10,2022-05-10,合同会社エレテク,,合同会社,広島県,大竹市,立戸３丁目８番２３号,,34,211,7390605,,,,,,,2022-05-10,1,,,,,エレテク,0
1026,3250003003063,新規,0,2022-05-10,2022-05-10,ｍｉｋｉｄｏｌｌ合同会社,,合同会社,山口県,下関市,丸山町２丁目１番２０－３０２号第１橋本ビル,,35,201,7500019,,,,,,,2022-05-10,1,,,,,ミキドール,0
1033,3290001097418,新規,0,2022-05-10,2022-05-10,株式会社栄鉄,,株式会社,福岡県,糸島市,波多江駅南２丁目１１番１号,,40,230,8191108,,,,,,,2022-05-10,1,,,,,エイテツ,0
1034,3290001097442,新規,0,2022-05-10,2022-05-10,株式会社フィグ,,株式会社,福岡県,福岡市博多区,下川端町１‐３明治通りビジネスセンター別館ビル５０３号室,,40,132,8120027,,,,,,,2022-05-10,1,,,,,フィグ,0
1035,3290001097475,新規,0,2022-05-10,2022-05-10,株式会社Ｔ‐ｓｅｎｓｅ,,株式会社,福岡県,福岡市中央区,伊崎６番４－５号,,40,133,8100067,,,,,,,2022-05-10,1,,,,,ティーセンス,0
1036,3290001097491,新規,0,2022-05-10,2022-05-10,株式会社やまうらスポーツクラブ,,株式会社,福岡県,福岡市城南区,七隈８丁目４番３号,,40,136,8140133,,,,,,,2022-05-10,1,,,,,ヤマウラスポーツクラブ,0
1039,3290003012498,新規,0,2022-05-10,2022-05-10,心心からパワー合同会社,,合同会社,福岡県,福岡市西区,石丸２丁目４１番３０－８０３号リーベスト姪浜南,,40,135,8190025,,,,,,,2022-05-10,1,,,,,ココカラパワー,0
1044,3290801028514,新規,0,2022-05-10,2022-05-10,株式会社ＭＡＰＬＥ,,株式会社,福岡県,北九州市戸畑区,一枝２丁目８番５号,,40,105,8040021,,,,,,,2022-05-10,1,,,,,メープル,0
1047,3300001012928,新規,0,2022-05-10,2022-05-10,株式会社みぞぐちホーム,,株式会社,佐賀県,佐賀市,高木瀬東３丁目７番３号,,41,201,8490922,,,,,,,2022-05-10,1,,,,,ミゾグチホーム,0
1050,3310001017843,新規,0,2022-05-10,2022-05-10,前田商会株式会社,,株式会社,長崎県,平戸市,中野大久保町６７番地１,,42,207,8595133,,,,,,,2022-05-10,1,,,,,マエダショウカイ,0
1053,3320001019062,新規,0,2022-05-10,2022-05-10,株式会社伊東商事,,株式会社,大分県,臼杵市,大字諏訪１４３２番地の２,,44,206,8750011,,,,,,,2022-05-10,1,,,,,イトウショウジ,0
1055,3330001029705,新規,0,2022-05-10,2022-05-10,株式会社スギモト建装,,株式会社,熊本県,八代市,鏡町両出１番地１,,43,202,8694222,,,,,,,2022-05-10,1,,,,,スギモトケンソウ,0
1056,3330001029721,新規,0,2022-05-10,2022-05-10,株式会社ＲｉＰｒｅｓｏ　Ｍａｒｕｋｏ．Ｒ,,株式会社,熊本県,熊本市中央区,上林町３番３４－７０３号,,43,101,8600847,,,,,,,2022-05-10,1,,,,,リプレッソマルコアール,0
1060,3340001024705,新規,0,2022-05-10,2022-05-10,株式会社わたなべ山業,,株式会社,鹿児島県,姶良市,西餅田１１６５番地,,46,225,8995431,,,,,,,2022-05-10,1,,,,,ワタナベサンギョウ,0
1064,3350001017724,新規,0,2022-05-10,2022-05-10,株式会社甲斐林興,,株式会社,宮崎県,延岡市,北方町藤の木酉８６３番地,,45,203,8820107,,,,,,,2022-05-10,1,,,,,カイリンコウ,0
1065,3350003004076,新規,0,2022-05-10,2022-05-10,合同会社プロステラーテ,,合同会社,宮崎県,宮崎市,花ケ島町１２３０番地１,,45,201,8800036,,,,,,,2022-05-10,1,,,,,プロステラーテ,0
1069,3370001048528,新規,0,2022-05-10,2022-05-10,株式会社マキニスタエンドー,,株式会社,宮城県,遠田郡美里町,成田字元成田３０番地２,,04,505,9870024,,,,,,,2022-05-10,1,,,,,マキニスタエンドー,0
1070,3370001048536,新規,0,2022-05-10,2022-05-10,株式会社ＳＥＣＵＲＥ４Ｄ,,株式会社,宮城県,仙台市宮城野区,五輪１丁目１２番８号,,04,102,9830842,,,,,,,2022-05-10,1,,,,,セキュアフォーディ,0
1078,3390001016887,新規,0,2022-05-10,2022-05-10,株式会社アグリファーム相馬,,株式会社,山形県,山形市,蔵王成沢１１５番地,,06,201,9902334,,,,,,,2022-05-10,1,,,,,アグリファームソウマ,0
1092,3470001019072,新規,0,2022-05-10,2022-05-10,ＤＡスポーツ株式会社,,株式会社,香川県,さぬき市,志度５４１２番地,,37,206,7692101,,,,,,,2022-05-10,1,,,,,ディーエースポーツ,0
1097,3480001011722,新規,0,2022-05-10,2022-05-10,株式会社石井鉄工所,,株式会社,徳島県,鳴門市,撫養町立岩字五枚４６番地,,36,202,7720017,,,,,,,2022-05-10,1,,,,,イシイテッコウショ,0
1099,3490003001654,新規,0,2022-05-10,2022-05-10,合同会社太陽と海風,,合同会社,高知県,土佐清水市,小江町３番６号,,39,209,7870322,,,,,,,2022-05-10,1,,,,,タイヨウトウミカゼ,0
1117,4010001226333,新規,0,2022-05-10,2022-05-10,豊潤株式会社,,株式会社,東京都,千代田区,六番町１５番２号鳳翔ビル３Ｆ,,13,101,1020085,,,,,,,2022-05-10,1,,,,,ホウジュン,0
1118,4010001226416,新規,0,2022-05-10,2022-05-10,株式会社ｅｂｅｌ,,株式会社,東京都,中央区,銀座１丁目２２番１１号銀座大竹ビジデンス２Ｆ,,13,102,1040061,,,,,,,2022-05-10,1,,,,,イーベル,0
1119,4010001226424,新規,0,2022-05-10,2022-05-10,株式会社ＤＡＩコーポレーション,,株式会社,東京都,千代田区,内神田１丁目７番６号,,13,101,1010047,,,,,,,2022-05-10,1,,,,,ダイコーポレーション,0
1120,4010001226449,新規,0,2022-05-10,2022-05-10,新成人株式会社,,株式会社,東京都,中央区,銀座６丁目１６番３号東京真珠ビル４階,,13,102,1040061,,,,,,,2022-05-10,1,,,,,シンセイジン,0
1121,4010001226465,新規,0,2022-05-10,2022-05-10,株式会社ボトラーズ,,株式会社,東京都,千代田区,神田須田町２丁目２３番１号,,13,101,1010041,,,,,,,2022-05-10,1,,,,,ボトラーズ,0
1125,4010003037588,新規,0,2022-05-10,2022-05-10,ＯＩＫ合同会社,,合同会社,東京都,中央区,銀座１丁目２２番１１号銀座大竹ビジデンス２階,,13,102,1040061,,,,,,,2022-05-10,1,,,,,オーアイケー,0
1126,4010101015173,新規,0,2022-05-10,2022-05-10,ＹＫＲメディカル株式会社,,株式会社,東京都,八王子市,北野町５４５番地３きたのタウン６Ｆ,,13,201,1920906,,,,,,,2022-05-10,1,,,,,ワイケーアールメディカル,0
1131,4010401167219,新規,0,2022-05-10,2022-05-10,株式会社ビリーフ,,株式会社,東京都,港区,六本木６丁目１２番４号,,13,103,1060032,,,,,,,2022-05-10,1,,,,,ビリーフ,0
1135,4010501048797,新規,0,2022-05-10,2022-05-10,ＧＯＩＣＨＩ株式会社,,株式会社,東京都,台東区,三筋１丁目９番４号３Ｆ,,13,106,1110055,,,,,,,2022-05-10,1,,,,,ゴイチ,0
1136,4010501048806,新規,0,2022-05-10,2022-05-10,株式会社ＭｅｄＰａｙ,,株式会社,東京都,台東区,柳橋２丁目５番６号ＴＯＭビル２階,,13,106,1110052,,,,,,,2022-05-10,1,,,,,メディペイ,0
1139,4010601061122,新規,0,2022-05-10,2022-05-10,株式会社ａｎｄｂａｓｅ,,株式会社,東京都,墨田区,京島１丁目８－８,,13,107,1310046,,,,,,,2022-05-10,1,,,,,アンドベース,0
1143,4010701042583,新規,0,2022-05-10,2022-05-10,株式会社ｉ,,株式会社,東京都,品川区,小山３丁目１５番２－２８０８号,,13,109,1420062,,,,,,,2022-05-10,1,,,,,アイ,0
1144,4010703006223,新規,0,2022-05-10,2022-05-10,合同会社ゆん和,,合同会社,東京都,品川区,南品川５丁目４番１６号,,13,109,1400004,,,,,,,2022-05-10,1,,,,,ユンワ,0
1147,4010801032939,新規,0,2022-05-10,2022-05-10,エトライジン株式会社,,株式会社,東京都,大田区,北馬込１丁目２３番４号,,13,111,1430021,,,,,,,2022-05-10,1,,,,,エトライジン,0
1148,4010805002938,新規,0,2022-05-10,2022-05-10,一般社団法人光ＪＳみらい,,その他の設立登記法人,東京都,大田区,南馬込５丁目４２番１０号ディアステート南馬込７０１,,13,111,1430025,,,,,,,2022-05-10,1,,,,,ヒカリジェイエスミライ,0
1150,4010903007343,新規,0,2022-05-10,2022-05-10,合同会社プライムクオリティ,,合同会社,東京都,世田谷区,代沢４丁目１６番１５号,,13,112,1550032,,,,,,,2022-05-10,1,,,,,プライムクオリティ,0
1152,4011001147288,新規,0,2022-05-10,2022-05-10,株式会社ＭＥＧＭＡ,,株式会社,東京都,渋谷区,道玄坂１丁目１０番８号渋谷道玄坂東急ビル２Ｆ－Ｃ,,13,113,1500043,,,,,,,2022-05-10,1,,,,,メグマ,0
1153,4011001147313,新規,0,2022-05-10,2022-05-10,株式会社Ｉｉｄｅｓｈｏｗ,,株式会社,東京都,渋谷区,千駄ヶ谷５丁目２７番７号,,13,113,1510051,,,,,,,2022-05-10,1,,,,,,0
1154,4011001147370,新規,0,2022-05-10,2022-05-10,株式会社ダンスナンバー,,株式会社,東京都,目黒区,下目黒３丁目５番１６－２０３号,,13,110,1530064,,,,,,,2022-05-10,1,,,,,ダンスナンバー,0
1155,4011001147379,新規,0,2022-05-10,2022-05-10,ＴＯＧＯ株式会社,,株式会社,東京都,渋谷区,大山町１８番２３号Ｂ１Ｆ,,13,113,1510065,,,,,,,2022-05-10,1,,,,,トウゴウ,0
1156,4011001147395,新規,0,2022-05-10,2022-05-10,株式会社Ｋｉｍｏｃｈｉｉｌａｎｄ,,株式会社,東京都,渋谷区,神宮前６丁目２９番４号,,13,113,1500001,,,,,,,2022-05-10,1,,,,,キモチイイランド,0
1157,4011003014619,新規,0,2022-05-10,2022-05-10,リニエ合同会社,,合同会社,東京都,渋谷区,神宮前６丁目２３番４号桑野ビル２Ｆ,,13,113,1500001,,,,,,,2022-05-10,1,,,,,リニエ,0
1158,4011003014643,新規,0,2022-05-10,2022-05-10,合同会社ねこのて,,合同会社,東京都,渋谷区,道玄坂１丁目１０番８号渋谷道玄坂東急ビル２Ｆ－Ｃ,,13,113,1500043,,,,,,,2022-05-10,1,,,,,ネコノテ,0
1165,4011101098737,新規,0,2022-05-10,2022-05-10,株式会社Ｔｈｉｓ,,株式会社,東京都,新宿区,西新宿３丁目１番３号７階,,13,104,1600023,,,,,,,2022-05-10,1,,,,,ディス,0
1166,4011101098753,新規,0,2022-05-10,2022-05-10,株式会社たからメディカル,,株式会社,東京都,新宿区,上落合１丁目２２番６－１０２号,,13,104,1610034,,,,,,,2022-05-10,1,,,,,タカラメディカル,0
1167,4011101098761,新規,0,2022-05-10,2022-05-10,株式会社和久田幸佑建築設計事務所,,株式会社,東京都,新宿区,高田馬場１丁目３３番６号平和相互ビル７０１,,13,104,1690075,,,,,,,2022-05-10,1,,,,,ワクダコウスケケンチクセッケイジムショ,0
1168,4011101098778,新規,0,2022-05-10,2022-05-10,株式会社キャメルテクノロジー,,株式会社,東京都,新宿区,西新宿３丁目３番１３号西新宿水間ビル６階,,13,104,1600023,,,,,,,2022-05-10,1,,,,,キャメルテクノロジー,0
1178,4011503005150,新規,0,2022-05-10,2022-05-10,合同会社あすか,,合同会社,東京都,北区,東十条１丁目４番３号,,13,117,1140001,,,,,,,2022-05-10,1,,,,,アスカ,0
1184,4011801040667,新規,0,2022-05-10,2022-05-10,株式会社レストック,,株式会社,東京都,葛飾区,高砂８丁目１１番１１号,,13,122,1250054,,,,,,,2022-05-10,1,,,,,レストック,0
1185,4011801040675,新規,0,2022-05-10,2022-05-10,澤アセットマネジメント株式会社,,株式会社,東京都,足立区,千住３丁目１８番地２Ｋｅｎ’ｓ３－３０２,,13,121,1200034,,,,,,,2022-05-10,1,,,,,サワアセットマネジメント,0
1187,4012401039174,新規,0,2022-05-10,2022-05-10,株式会社アルモニ,,株式会社,東京都,調布市,菊野台１丁目１６番地５,,13,208,1820007,,,,,,,2022-05-10,1,,,,,アルモニ,0
1188,4012401039182,新規,0,2022-05-10,2022-05-10,株式会社Ｄｏｇｇｙｓ,,株式会社,東京都,調布市,東つつじケ丘２丁目２６番地１６ファースト１１３,,13,208,1820005,,,,,,,2022-05-10,1,,,,,ドギーズ,0
1189,4012401039190,新規,0,2022-05-10,2022-05-10,ＧＥＬ株式会社,,株式会社,東京都,府中市,住吉町２丁目３０番地の４０,,13,206,1830034,,,,,,,2022-05-10,1,,,,,ジェル,0
1195,4012803002770,新規,0,2022-05-10,2022-05-10,ＨＡＮＩＷＡ　ＳＴＵＤＩＯ合同会社,,合同会社,東京都,立川市,砂川町８丁目８９番地の７,,13,202,1900031,,,,,,,2022-05-10,1,,,,,ハニワスタジオ,0
1208,4020003021723,新規,0,2022-05-10,2022-05-10,Ｆｒｏｎｔｉｅｒ　Ｒｏｓｅ合同会社,,合同会社,神奈川県,横浜市鶴見区,下末吉５丁目２２番３５号,,14,101,2300012,,,,,,,2022-05-10,1,,,,,フロンティアローズ,0
1209,4020003021731,新規,0,2022-05-10,2022-05-10,合同会社パインビレ,,合同会社,神奈川県,川崎市多摩区,菅馬場２丁目９番１６号,,14,135,2140004,,,,,,,2022-05-10,1,,,,,パインビレ,0
1212,4021001075876,新規,0,2022-05-10,2022-05-10,萩原土木開発株式会社,,株式会社,神奈川県,相模原市緑区,大島１７０１番地,,14,151,2520135,,,,,,,2022-05-10,1,,,,,ハギワラドボクカイハツ,0
1213,4021001075884,新規,0,2022-05-10,2022-05-10,株式会社ＢＳＤ,,株式会社,神奈川県,横須賀市,上町３丁目１２番地１２,,14,201,2380017,,,,,,,2022-05-10,1,,,,,ビーエスディー,0
1217,4021003011664,新規,0,2022-05-10,2022-05-10,合同会社ｂｌｕｅｅｅｅ　ｓｐｉｒｉｔ,,合同会社,神奈川県,座間市,入谷西２丁目１番１号,,14,216,2520029,,,,,,,2022-05-10,1,,,,,ブルースピリット,0
1219,4030001147882,新規,0,2022-05-10,2022-05-10,株式会社栄エンジニアリング,,株式会社,埼玉県,三郷市,幸房５９６－１,,11,237,3410026,,,,,,,2022-05-10,1,,,,,サカエエンジニアリング,0
1220,4030001148022,新規,0,2022-05-10,2022-05-10,株式会社トータルベストパートナー,,株式会社,埼玉県,さいたま市緑区,大字中尾１６９５番地１１,,11,109,3360932,,,,,,,2022-05-10,1,,,,,トータルベストパートナー,0
1221,4030001148039,新規,0,2022-05-10,2022-05-10,株式会社ＦＵＳＥ,,株式会社,埼玉県,春日部市,小渕８７３番地６,,11,214,3440007,,,,,,,2022-05-10,1,,,,,フセ,0
1222,4030001148055,新規,0,2022-05-10,2022-05-10,株式会社清水建築,,株式会社,埼玉県,さいたま市岩槻区,大字掛１６９番地,,11,110,3390078,,,,,,,2022-05-10,1,,,,,シミズケンチク,0
1223,4030001148063,新規,0,2022-05-10,2022-05-10,株式会社ぺん銀モータースポーツプロジェクト,,株式会社,埼玉県,志木市,中宗岡５丁目２６番１６－３０２号,,11,228,3530002,,,,,,,2022-05-10,1,,,,,ペンギンモータースポーツプロジェクト,0
1224,4030001148071,新規,0,2022-05-10,2022-05-10,澤ちゃん管財株式会社,,株式会社,埼玉県,入間市,大字下藤沢１９９番地８,,11,225,3580011,,,,,,,2022-05-10,1,,,,,サワチャンカンザイ,0
1225,4030001148088,新規,0,2022-05-10,2022-05-10,株式会社スリーエス,,株式会社,埼玉県,狭山市,大字水野１４１番地２,,11,215,3501317,,,,,,,2022-05-10,1,,,,,スリーエス,0
1226,4030001148105,新規,0,2022-05-10,2022-05-10,株式会社ＡＸｉＳ,,株式会社,埼玉県,入間郡三芳町,大字藤久保７０５４番地,,11,324,3540041,,,,,,,2022-05-10,1,,,,,アクシス,0
1227,4030001148113,新規,0,2022-05-10,2022-05-10,株式会社ベストサウナ,,株式会社,埼玉県,さいたま市南区,別所６丁目１７－８－７０８,,11,108,3360021,,,,,,,2022-05-10,1,,,,,ベストサウナ,0
1228,4030001148121,新規,0,2022-05-10,2022-05-10,株式会社ジオテクト,,株式会社,埼玉県,狭山市,大字北入曽１０８番地の４,,11,215,3501315,,,,,,,2022-05-10,1,,,,,ジオテクト,0
1229,4030001148146,新規,0,2022-05-10,2022-05-10,株式会社アリエス,,株式会社,埼玉県,坂戸市,にっさい花みず木２丁目５番地７,,11,239,3500269,,,,,,,2022-05-10,1,,,,,アリエス,0
1230,4030003019361,新規,0,2022-05-10,2022-05-10,合同会社オフィスＫ,,合同会社,埼玉県,さいたま市大宮区,桜木町２丁目３番地大宮マルイ７階,,11,103,3300854,,,,,,,2022-05-10,1,,,,,オフィスケイ,0
1232,4040001123296,新規,0,2022-05-10,2022-05-10,株式会社ＩｒｏｈＡ,,株式会社,千葉県,香取市,佐原イ１９７８番地,,12,236,2870003,,,,,,,2022-05-10,1,,,,,イロハ,0
1237,4040003019996,新規,0,2022-05-10,2022-05-10,合同会社和田,,合同会社,千葉県,八千代市,八千代台南３丁目１３番１号,,12,221,2760033,,,,,,,2022-05-10,1,,,,,ワダ,0
1238,4050001051034,新規,0,2022-05-10,2022-05-10,株式会社もりた家,,株式会社,茨城県,古河市,大堤６８２・ベイシア敷地内・買取専門売るナビベイシア古河総和店,,08,204,3060236,,,,,,,2022-05-10,1,,,,,モリタヤ,0
1241,4060001034806,新規,0,2022-05-10,2022-05-10,株式会社ＢＬＵＥ・ＬＩＮＫＳ,,株式会社,栃木県,鹿沼市,玉田町６９５番地１,,09,205,3220072,,,,,,,2022-05-10,1,,,,,ブルーリンクス,0
1242,4060001034830,新規,0,2022-05-10,2022-05-10,株式会社ＧＡＰ　ｔｒａｄｉｎｇ　ｃｏｍｐａｎｙ,,株式会社,栃木県,佐野市,小中町２０番地１,,09,204,3270001,,,,,,,2022-05-10,1,,,,,ジーエーピートレーディングカンパニー,0
1243,4060001034847,新規,0,2022-05-10,2022-05-10,株式会社レアリゼ,,株式会社,栃木県,那須塩原市,山中新田５５番地３,,09,213,3293141,,,,,,,2022-05-10,1,,,,,レアリゼ,0
1244,4060001034855,新規,0,2022-05-10,2022-05-10,株式会社ＫＩＡ,,株式会社,栃木県,真岡市,下高間木１丁目２７番地１３,,09,209,3214335,,,,,,,2022-05-10,1,,,,,ケーアイエー,0
1250,4070001039218,新規,0,2022-05-10,2022-05-10,株式会社サトウ工業,,株式会社,群馬県,高崎市,箕郷町生原８３０番地３,,10,202,3703102,,,,,,,2022-05-10,1,,,,,サトウコウギョウ,0
1258,4080401025799,新規,0,2022-05-10,2022-05-10,ＫＫＢ株式会社,,株式会社,静岡県,袋井市,岡崎２４９６番地の１,,22,216,4371312,,,,,,,2022-05-10,1,,,,,ケーケービー,0
1261,4100001035304,新規,0,2022-05-10,2022-05-10,株式会社ＫＲＳ,,株式会社,長野県,塩尻市,大字大門１０７９番地２８,,20,215,3990744,,,,,,,2022-05-10,1,,,,,ケーアールエス,0
1262,4100001035320,新規,0,2022-05-10,2022-05-10,株式会社ＳＯＲＡ,,株式会社,長野県,上水内郡信濃町,大字富濃３０６４番地１,,20,583,3891312,,,,,,,2022-05-10,1,,,,,ソラ,0
1263,4110001036648,新規,0,2022-05-10,2022-05-10,株式会社エヌプラス,,株式会社,新潟県,村上市,藤沢５７番地５,,15,212,9593131,,,,,,,2022-05-10,1,,,,,エヌプラス,0
1280,4120001245677,新規,0,2022-05-10,2022-05-10,株式会社ｅａｓｉｅｒ,,株式会社,大阪府,寝屋川市,三井南町１６番２－１３号,,27,215,5720019,,,,,,,2022-05-10,1,,,,,イージア,0
1281,4120001245693,新規,0,2022-05-10,2022-05-10,株式会社ＫＳファミリー,,株式会社,大阪府,大阪市東淀川区,豊新３丁目２２番１５号,,27,114,5330014,,,,,,,2022-05-10,1,,,,,ケーエスファミリー,0
1282,4120001245702,新規,0,2022-05-10,2022-05-10,株式会社上城建設,,株式会社,大阪府,大阪市中央区,高津１丁目３番１７号ファミールＫＯＵＺＴＯＷＥＲ１９０１号,,27,128,5420072,,,,,,,2022-05-10,1,,,,,カミシロケンセツ,0
1283,4120001245719,新規,0,2022-05-10,2022-05-10,株式会社坂本防水,,株式会社,大阪府,大阪市平野区,長吉長原東１丁目７番１６号,,27,126,5470013,,,,,,,2022-05-10,1,,,,,サカモトボウスイ,0
1284,4120001245735,新規,0,2022-05-10,2022-05-10,株式会社Ｔｏｔａｌ　Ｃａｒｅｅｒ　Ｅｄｕｃａｔｉｏｎ,,株式会社,大阪府,大阪市西区,北堀江１丁目１番２７号８Ｈ,,27,106,5500014,,,,,,,2022-05-10,1,,,,,トータルキャリアエデュケーション,0
1285,4120001245751,新規,0,2022-05-10,2022-05-10,株式会社山口総合補償,,株式会社,大阪府,大阪市住吉区,我孫子東２丁目５番２号,,27,120,5580013,,,,,,,2022-05-10,1,,,,,ヤマグチソウゴウホショウ,0
1286,4120001245792,新規,0,2022-05-10,2022-05-10,株式会社Ｃｌｏｕｄ　Ｐｏｓｉｔｉｏｎ,,株式会社,大阪府,大阪市北区,梅田１丁目１番３号大阪駅前第３ビル２９階１－１－１号室,,27,127,5300001,,,,,,,2022-05-10,1,,,,,クラウドポジション,0
1290,4120003021639,新規,0,2022-05-10,2022-05-10,タルフ・バイオサイエンシズ合同会社,,合同会社,大阪府,大阪市北区,梅田１丁目１番３号大阪駅前第３ビル２９階１－１－１号室,,27,127,5300001,,,,,,,2022-05-10,1,,,,,タルフバイオサイエンシズ,0
1294,4120101065538,新規,0,2022-05-10,2022-05-10,ＩｎｄｏＭａｂｉｌｅ株式会社,,株式会社,大阪府,堺市南区,野々井１２１番地１,,27,145,5900155,,,,,,,2022-05-10,1,,,,,インドマービル,0
1295,4120101065554,新規,0,2022-05-10,2022-05-10,株式会社美建,,株式会社,大阪府,羽曳野市,河原城８９２番地の６,,27,222,5830867,,,,,,,2022-05-10,1,,,,,ビケン,0
1296,4120101065562,新規,0,2022-05-10,2022-05-10,朋ノ運輸株式会社,,株式会社,大阪府,堺市南区,高尾３丁２２０番地５－１０３,,27,145,5900157,,,,,,,2022-05-10,1,,,,,トモノウンユ,0
1297,4120103004691,新規,0,2022-05-10,2022-05-10,青山ビジネスパートナーズ合同会社,,合同会社,大阪府,富田林市,藤沢台５丁目１３番１２号,,27,214,5840071,,,,,,,2022-05-10,1,,,,,アオヤマビジネスパートナーズ,0
1300,4120901045929,新規,0,2022-05-10,2022-05-10,株式会社ＴＭＮＹ　ＨＯＭＥ,,株式会社,大阪府,茨木市,玉櫛１丁目２番１号三吉マンション１０８号,,27,211,5670895,,,,,,,2022-05-10,1,,,,,ティムニーホーム,0
1301,4120901045937,新規,0,2022-05-10,2022-05-10,アクロス株式会社,,株式会社,大阪府,高槻市,城東町２番７号,,27,207,5690052,,,,,,,2022-05-10,1,,,,,アクロス,0
1302,4120901045945,新規,0,2022-05-10,2022-05-10,株式会社ＬＩＦＥＬＩＴＺ,,株式会社,大阪府,茨木市,庄１丁目９番２６－８０２号,,27,211,5670806,,,,,,,2022-05-10,1,,,,,ライフリッツ,0
1310,4130001071701,新規,0,2022-05-10,2022-05-10,株式会社ＤｅｖＥＬＥＭＥＮＴ,,株式会社,京都府,京都市山科区,御陵別所町１３８－１３クレセントみささぎ２０２号,,26,110,6078417,,,,,,,2022-05-10,1,,,,,ディブエレメント,0
1311,4130001071726,新規,0,2022-05-10,2022-05-10,株式会社ＢＯＮＳＢＯＮＳ,,株式会社,京都府,京都市北区,小山東花池町２３番地２,,26,101,6038144,,,,,,,2022-05-10,1,,,,,ボンズボンズ,0
1312,4130001071734,新規,0,2022-05-10,2022-05-10,株式会社Ｒｅ．ｗｏｒｋｓ,,株式会社,京都府,京都市左京区,二条通川端東入二丁目杉本町２５９－３,,26,103,6060000,,,,,,,2022-05-10,1,,,,,リワークス,0
1318,4140001125885,新規,0,2022-05-10,2022-05-10,株式会社朝日新聞芦屋,00126505,株式会社,兵庫県,芦屋市,津知町８番１号,,28,206,6590075,,,,,,,2022-05-10,1,,,,,アサヒシンブンアシヤ,0
1319,4140001125893,新規,0,2022-05-10,2022-05-10,株式会社ＴＳＣ,,株式会社,兵庫県,尼崎市,西昆陽３丁目３１－２４－２,,28,202,6610047,,,,,,,2022-05-10,1,,,,,ティーエスシー,0
1320,4140001125910,新規,0,2022-05-10,2022-05-10,松井農機株式会社,,株式会社,兵庫県,豊岡市,塩津町９番３８号,,28,209,6680054,,,,,,,2022-05-10,1,,,,,マツイノウキ,0
1327,4140005026171,新規,0,2022-05-10,2022-05-10,一般社団法人日本希望の光・愛他協会,,その他の設立登記法人,兵庫県,神戸市中央区,港島中町６丁目１４番地ポートピアプラザＢ棟２２０４号,,28,110,6500046,,,,,,,2022-05-10,1,,,,,ニホンキボウノヒカリアイタキョウカイ,0
1329,4160001024177,新規,0,2022-05-10,2022-05-10,株式会社雅建設,,株式会社,滋賀県,東近江市,五個荘川並町１６８番地１７,,25,213,5291441,,,,,,,2022-05-10,1,,,,,ミヤビケンセツ,0
1349,4180001151184,新規,0,2022-05-10,2022-05-10,株式会社Ｍ＆Ｓ,,株式会社,愛知県,春日井市,中切町２丁目２番地６,,23,206,4860925,,,,,,,2022-05-10,1,,,,,エムアンドエス,0
1350,4180001151201,新規,0,2022-05-10,2022-05-10,株式会社石橋,,株式会社,愛知県,津島市,西愛宕町２丁目１８４番地１,,23,208,4960037,,,,,,,2022-05-10,1,,,,,イシバシ,0
1351,4180001151218,新規,0,2022-05-10,2022-05-10,株式会社濱田製作所,,株式会社,愛知県,名古屋市緑区,大高町字殿山２０番地の５７,,23,114,4598001,,,,,,,2022-05-10,1,,,,,ハマダセイサクショ,0
1352,4180001151226,新規,0,2022-05-10,2022-05-10,株式会社破風,,株式会社,愛知県,名古屋市千種区,丸山町２丁目２２番地,,23,101,4640843,,,,,,,2022-05-10,1,,,,,ハフウ,0
1353,4180001151267,新規,0,2022-05-10,2022-05-10,石原管工株式会社,,株式会社,愛知県,稲沢市,奥田町田畑切６４８０番地１０,,23,220,4928242,,,,,,,2022-05-10,1,,,,,イシハラカンコウ,0
1356,4180003023761,新規,0,2022-05-10,2022-05-10,合同会社エフシーアイ,,合同会社,愛知県,名古屋市昭和区,川名町４丁目９３番４号,,23,107,4660856,,,,,,,2022-05-10,1,,,,,エフシーアイ,0
1357,4180003023794,新規,0,2022-05-10,2022-05-10,合同会社リンクス・ファイン,,合同会社,愛知県,名古屋市緑区,姥子山２丁目９１０番地の４,,23,114,4580830,,,,,,,2022-05-10,1,,,,,リンクスファイン,0
1358,4180003023811,新規,0,2022-05-10,2022-05-10,合同会社俺色,,合同会社,愛知県,一宮市,三ツ井８丁目１３番３号,,23,203,4910827,,,,,,,2022-05-10,1,,,,,オレイロ,0
1362,4180301036218,新規,0,2022-05-10,2022-05-10,株式会社Ａｔｔｏ製作所,,株式会社,愛知県,安城市,根崎町西新切２７番地,,23,212,4441211,,,,,,,2022-05-10,1,,,,,アットセイサクショ,0
1364,4190001029396,新規,0,2022-05-10,2022-05-10,株式会社ＭＲＫ工業,,株式会社,三重県,伊勢市,御薗町高向８３７番地５,,24,203,5160805,,,,,,,2022-05-10,1,,,,,エムアールケーコウギョウ,0
1368,4200001040054,新規,0,2022-05-10,2022-05-10,株式会社スタジオエス,,株式会社,岐阜県,瑞穂市,十八条３９０番地１,,21,216,5010314,,,,,,,2022-05-10,1,,,,,スタジオエス,0
1372,4210001018925,新規,0,2022-05-10,2022-05-10,福井バスケットボール株式会社,,株式会社,福井県,福井市,栂野町第１５号１番地２,,18,201,9102178,,,,,,,2022-05-10,1,,,,,フクイバスケットボール,0
1377,4240001059710,新規,0,2022-05-10,2022-05-10,株式会社ヤマノ建設,,株式会社,広島県,大竹市,小方ケ丘４番３３号,,34,211,7390628,,,,,,,2022-05-10,1,,,,,ヤマノケンセツ,0
1378,4240001059719,新規,0,2022-05-10,2022-05-10,株式会社小田塗装,,株式会社,広島県,大竹市,油見１丁目１番２４番,,34,211,7390612,,,,,,,2022-05-10,1,,,,,オダトソウ,0
1380,4240003005613,新規,0,2022-05-10,2022-05-10,ＭＩＮＡＸＩＡ合同会社,,合同会社,広島県,広島市東区,馬木６丁目１９０６－６,,34,102,7320031,,,,,,,2022-05-10,1,,,,,ミナクシア,0
1381,4250003003062,新規,0,2022-05-10,2022-05-10,合同会社ＹＭＲ,,合同会社,山口県,宇部市,常藤町５番３８－２号,,35,202,7550021,,,,,,,2022-05-10,1,,,,,ワイエムアール,0
1390,4290001097441,新規,0,2022-05-10,2022-05-10,株式会社三寿鉄工所,,株式会社,福岡県,柳川市,大和町明野１３２７番地３,,40,207,8390251,,,,,,,2022-05-10,1,,,,,サンジュテッコウショ,0
1391,4290001097458,新規,0,2022-05-10,2022-05-10,株式会社京,,株式会社,福岡県,春日市,上白水１丁目３９番地,,40,218,8160844,,,,,,,2022-05-10,1,,,,,キョウ,0
1392,4290001097490,新規,0,2022-05-10,2022-05-10,株式会社オンキ,,株式会社,福岡県,糸島市,志摩小富士９０４番地,,40,230,8191321,,,,,,,2022-05-10,1,,,,,オンキ,0
1400,4290005018674,新規,0,2022-05-10,2022-05-10,行政書士法人小金丸,,その他の設立登記法人,福岡県,福岡市東区,千早３丁目９番２３号福岡交通会館内,,40,131,8130044,,,,,,,2022-05-10,1,,,,,コガネマル,0
1401,4290801028488,新規,0,2022-05-10,2022-05-10,ＭＢサービス株式会社,,株式会社,福岡県,北九州市八幡西区,本城１丁目１９番１号－１０１,,40,109,8070801,,,,,,,2022-05-10,1,,,,,エムビーサービス,0
1402,4290801028521,新規,0,2022-05-10,2022-05-10,株式会社ヒーローズエステート,,株式会社,福岡県,北九州市八幡西区,本城東３丁目９番８号,,40,109,8070815,,,,,,,2022-05-10,1,,,,,ヒーローズエステート,0
1404,4290803004124,新規,0,2022-05-10,2022-05-10,Ｓ・Ｈ・Ｍ合同会社,,合同会社,福岡県,北九州市八幡東区,川淵町１１番１８号,,40,108,8050012,,,,,,,2022-05-10,1,,,,,エスエイチエム,0
1405,4300001012919,新規,0,2022-05-10,2022-05-10,Ｌ＆Ｔクリエイト株式会社,,株式会社,佐賀県,佐賀市,高木瀬町大字長瀬３０１番地２６,,41,201,8490917,,,,,,,2022-05-10,1,,,,,エルアンドティークリエイト,0
1409,4310001017842,新規,0,2022-05-10,2022-05-10,株式会社ＡＲＴＲＡＣＴＩＯＮ,,株式会社,長崎県,大村市,岩松町１１５４番地５８,,42,205,8560044,,,,,,,2022-05-10,1,,,,,アートラクション,0
1410,4320001019061,新規,0,2022-05-10,2022-05-10,株式会社Ｌｉｎｏ,,株式会社,大分県,大分市,大字千歳２７７番地の１０,,44,201,8700132,,,,,,,2022-05-10,1,,,,,リノ,0
1411,4320005009991,新規,0,2022-05-10,2022-05-10,医療法人ネクスタ,,その他の設立登記法人,大分県,大分市,城崎町１丁目５番６号甲斐歯科ビル２Ｆ,,44,201,8700045,,,,,,,2022-05-10,1,,,,,ネクスタ,0
1412,4330001029720,新規,0,2022-05-10,2022-05-10,株式会社エムケー企画,,株式会社,熊本県,八代市,鏡町両出１２５９番地６,,43,202,8694222,,,,,,,2022-05-10,1,,,,,エムケーキカク,0
1418,4340001024704,新規,0,2022-05-10,2022-05-10,株式会社美咲商会,,株式会社,鹿児島県,熊毛郡中種子町,野間１１９０５番地１,,46,501,8913604,,,,,,,2022-05-10,1,,,,,ミサキショウカイ,0
1419,4340001024712,新規,0,2022-05-10,2022-05-10,株式会社前村板塗工業,,株式会社,鹿児島県,指宿市,開聞仙田１９８１番地,,46,210,8910604,,,,,,,2022-05-10,1,,,,,マエムラバントコウギョウ,0
1423,4350001017731,新規,0,2022-05-10,2022-05-10,株式会社杉優,,株式会社,宮崎県,えびの市,大字上江２２４２番地,,45,209,8894304,,,,,,,2022-05-10,1,,,,,スギユウ,0
1426,4370001048535,新規,0,2022-05-10,2022-05-10,株式会社及川商事,,株式会社,宮城県,登米市,米山町中津山字粟ケ崎７番地,,04,212,9870331,,,,,,,2022-05-10,1,,,,,オイカワショウジ,0
1427,4370001048543,新規,0,2022-05-10,2022-05-10,株式会社ＯＮＥ　Ｏ　ＯＮＥ,,株式会社,宮城県,仙台市青葉区,二日町１７番２２－４１２号,,04,101,9800802,,,,,,,2022-05-10,1,,,,,ワンオーワン,0
1428,4370003005682,新規,0,2022-05-10,2022-05-10,合同会社Ｎ．Ｏ．Ｂ,,合同会社,宮城県,栗原市,若柳字川南南大通六丁目１１番地ファミーユ川南１０１,,04,213,9895502,,,,,,,2022-05-10,1,,,,,エヌオービー,0
1431,4380001032793,新規,0,2022-05-10,2022-05-10,株式会社高橋電気工事,,株式会社,福島県,岩瀬郡鏡石町,北町１７６番地,,07,342,9690402,,,,,,,2022-05-10,1,,,,,,0
1436,4400003002932,新規,0,2022-05-10,2022-05-10,合同会社澪標,,合同会社,岩手県,盛岡市,南青山町１番８号,,03,201,0200134,,,,,,,2022-05-10,1,,,,,ミオツクシ,0
1437,4410003003649,新規,0,2022-05-10,2022-05-10,合同会社ＳｔａｎｄＢｙＵ,,合同会社,秋田県,秋田市,土崎港中央１丁目１０番３８号,,05,201,0110946,,,,,,,2022-05-10,1,,,,,スタンドバイユー,0
1444,4430003013869,新規,0,2022-05-10,2022-05-10,合同会社やーたく,,合同会社,北海道,札幌市厚別区,厚別町上野幌６８６番地３６,,01,108,0040039,,,,,,,2022-05-10,1,,,,,ヤータク,0
1449,4490003001653,新規,0,2022-05-10,2022-05-10,合同会社高知エム・フレッグサービス,,合同会社,高知県,高知市,二葉町１５－１４知紗ハイツ二葉町３０１号,,39,201,7810815,,,,,,,2022-05-10,1,,,,,コウチエムフレッグサービス,0
1451,4500001024200,新規,0,2022-05-10,2022-05-10,株式会社ｌｉｎｋ．ｃｏｒｐ．,,株式会社,愛媛県,松山市,枝松２丁目１番４１号,,38,201,7900962,,,,,,,2022-05-10,1,,,,,リンクコープ,0
1458,4700150108279,新規,0,2022-05-10,2022-04-22,Ｐｅｒｆｏｒｍａｎｃｅ　Ｔｅａｍ　ＰＡＤＭＡ,,その他,東京都,中央区,日本橋小網町１６－１９－Ｂ１,,13,102,1030016,,,,,,,2022-04-22,1,,,,,パフオーマンスチームパドマ,0
1473,5010001226051,新規,0,2022-05-10,2022-05-10,株式会社ＳＢＬ,,株式会社,東京都,千代田区,外神田３丁目１４番９号第２６東ビル８Ｆ,,13,101,1010021,,,,,,,2022-05-10,1,,,,,エスビーエル,0
1474,5010001226373,新規,0,2022-05-10,2022-05-10,株式会社アイン,,株式会社,東京都,中央区,銀座７丁目１３番６号サガミビル２階,,13,102,1040061,,,,,,,2022-05-10,1,,,,,アイン,0
1475,5010001226407,新規,0,2022-05-10,2022-05-10,株式会社Ｓｕｎｒｉｓｅ　Ｄｕｏ,,株式会社,東京都,中央区,月島１丁目２２番１－１５１２号,,13,102,1040052,,,,,,,2022-05-10,1,,,,,サンライズドゥオ,0
1476,5010001226415,新規,0,2022-05-10,2022-05-10,Ｇｒｅｅｎ　Ｃｏｍｍｕｎｉｔｉｅｓ株式会社,,株式会社,東京都,中央区,銀座８丁目１３番１号,,13,102,1040061,,,,,,,2022-05-10,1,,,,,グリーンコミュニティーズ,0
1477,5010001226448,新規,0,2022-05-10,2022-05-10,株式会社ルーム管理,,株式会社,東京都,中央区,銀座６丁目１３番１６号ヒューリック銀座ウォールビル７階,,13,102,1040061,,,,,,,2022-05-10,1,,,,,ルームカンリ,0
1478,5010001226472,新規,0,2022-05-10,2022-05-10,株式会社成合,,株式会社,東京都,中央区,日本橋室町１丁目２番６号大栄ビル７階,,13,102,1030022,,,,,,,2022-05-10,1,,,,,ナリアイ,0
1479,5010001226497,新規,0,2022-05-10,2022-05-10,株式会社Ｋｉｒａｎａｈ　Ｒｅｓｏｒｔ,,株式会社,東京都,千代田区,丸の内１丁目１１番１号,,13,101,1000005,,,,,,,2022-05-10,1,,,,,キラナリゾート,0
1482,5010003037595,新規,0,2022-05-10,2022-05-10,ｙｕｔｏｋａ合同会社,,合同会社,東京都,中央区,日本橋蛎殻町１丁目１７番２－７１４号,,13,102,1030014,,,,,,,2022-05-10,1,,,,,ユトカ,0
1483,5010003037629,新規,0,2022-05-10,2022-05-10,合同会社ファーストドラム,,合同会社,東京都,千代田区,九段南１丁目５番６号りそな九段ビル５階ＫＳフロア,,13,101,1020074,,,,,,,2022-05-10,1,,,,,ファーストドラム,0
1486,5010005034970,新規,0,2022-05-10,2022-05-10,一般社団法人ＩＢＣ,,その他の設立登記法人,東京都,千代田区,神田淡路町１丁目９－５－６０４,,13,101,1010063,,,,,,,2022-05-10,1,,,,,アイビーシー,0
1487,5010101015172,新規,0,2022-05-10,2022-05-10,株式会社ゲートウェアハウス,,株式会社,東京都,八王子市,東浅川町９８６番地４,,13,201,1930834,,,,,,,2022-05-10,1,,,,,ゲートウェアハウス,0
1489,5010401166913,新規,0,2022-05-10,2022-05-10,一期株式会社,,株式会社,東京都,港区,南青山３丁目１０番３２号５０３,,13,103,1070062,,,,,,,2022-05-10,1,,,,,イチゴ,0
1491,5010403027618,新規,0,2022-05-10,2022-05-10,合同会社マーシーエコロジー,,合同会社,東京都,港区,浜松町２丁目２番１５号浜松町ダイヤビル２Ｆ,,13,103,1050013,,,,,,,2022-05-10,1,,,,,マーシーエコロジー,0
1493,5010503006579,新規,0,2022-05-10,2022-05-10,合同会社コネクト,,合同会社,東京都,台東区,東上野３丁目３番１３号第一斉藤ビル３０１,,13,106,1100015,,,,,,,2022-05-10,1,,,,,コネクト,0
1497,5010701042616,新規,0,2022-05-10,2022-05-10,株式会社ｓｔｅｌｌａｒｔｅ,,株式会社,東京都,品川区,旗の台５丁目１番１０号,,13,109,1420064,,,,,,,2022-05-10,1,,,,,ステラルテ,0
1499,5010703006222,新規,0,2022-05-10,2022-05-10,合同会社ＡＫＲ,,合同会社,東京都,品川区,西品川１丁目２番１号大崎ガーデンレジデンス１６１１号室,,13,109,1410033,,,,,,,2022-05-10,1,,,,,エーケーアール,0
1502,5010801032938,新規,0,2022-05-10,2022-05-10,株式会社ハイドロコア,,株式会社,東京都,大田区,矢口１丁目１３番５－８０３号,,13,111,1460093,,,,,,,2022-05-10,1,,,,,ハイドロコア,0
1503,5010801032946,新規,0,2022-05-10,2022-05-10,ソル株式会社,,株式会社,東京都,大田区,西蒲田７丁目１２番１０－７０２号,,13,111,1440051,,,,,,,2022-05-10,1,,,,,ソル,0
1508,5010901050823,新規,0,2022-05-10,2022-05-10,株式会社ＯＲＤＩＮＡＲＹ　ＢＯＯＫＳ,,株式会社,東京都,世田谷区,給田５丁目８番５号,,13,112,1570064,,,,,,,2022-05-10,1,,,,,オーディナリーブックス,0
1509,5011001147337,新規,0,2022-05-10,2022-05-10,株式会社デイプロ,,株式会社,東京都,渋谷区,笹塚１丁目５４番７号ＫＳビルヂング３Ｆ,,13,113,1510073,,,,,,,2022-05-10,1,,,,,デイプロ,0
1512,5011101098744,新規,0,2022-05-10,2022-05-10,株式会社ＢｒｉＤｇｅ‐ＢｕｉｌＤｉｎｇ,,株式会社,東京都,新宿区,高田馬場１丁目２９番２２号,,13,104,1690075,,,,,,,2022-05-10,1,,,,,ブリッジビルディング,0
1513,5011101098777,新規,0,2022-05-10,2022-05-10,株式会社Ｐｉｎｉｎ,,株式会社,東京都,新宿区,新宿２丁目３番１１号グレイスビル５Ｆ,,13,104,1600022,,,,,,,2022-05-10,1,,,,,ピニン,0
1522,5011401024210,新規,0,2022-05-10,2022-05-10,株式会社シャイニング,,株式会社,東京都,板橋区,高島平１丁目３６番１６号パレスモトハシ,,13,119,1750082,,,,,,,2022-05-10,1,,,,,シャイニング,0
1523,5011401024219,新規,0,2022-05-10,2022-05-10,株式会社エイチアンドワイフィットネス,,株式会社,東京都,板橋区,大谷口上町７６番１３号,,13,119,1730032,,,,,,,2022-05-10,1,,,,,エイチアンドワイフィットネス,0
1525,5011501028012,新規,0,2022-05-10,2022-05-10,株式会社池沢インテリア,,株式会社,東京都,北区,浮間１丁目１番７号,,13,117,1150051,,,,,,,2022-05-10,1,,,,,イケザワインテリア,0
1526,5011501028020,新規,0,2022-05-10,2022-05-10,株式会社Ｄｅｇｕｒｉｎ,,株式会社,東京都,荒川区,西日暮里３丁目１１番８号,,13,118,1160013,,,,,,,2022-05-10,1,,,,,デグリン,0
1528,5011505002467,新規,0,2022-05-10,2022-05-10,一般社団法人フリードパーソン協会,,その他の設立登記法人,東京都,荒川区,南千住６丁目２５番１３号瑞光ビル３０２号室,,13,118,1160003,,,,,,,2022-05-10,1,,,,,フリードパーソンキョウカイ,0
1535,5011601025933,新規,0,2022-05-10,2022-05-10,株式会社エフィール,,株式会社,東京都,練馬区,練馬４丁目２０番６号,,13,120,1760001,,,,,,,2022-05-10,1,,,,,エフィール,0
1536,5011601025941,新規,0,2022-05-10,2022-05-10,株式会社トライフロー,,株式会社,東京都,練馬区,桜台２丁目３２番５号,,13,120,1760002,,,,,,,2022-05-10,1,,,,,トライフロー,0
1539,5012401039173,新規,0,2022-05-10,2022-05-10,株式会社Ｇｏｏｄ　Ｖｉｂｅｓ,,株式会社,東京都,三鷹市,牟礼６丁目２５番７号,,13,204,1810002,,,,,,,2022-05-10,1,,,,,グッドバイブス,0
1540,5012403005347,新規,0,2022-05-10,2022-05-10,ニューサンズ合同会社,,合同会社,東京都,武蔵野市,吉祥寺南町３丁目４９番１０号,,13,203,1800003,,,,,,,2022-05-10,1,,,,,ニューサンズ,0
1541,5012403005355,新規,0,2022-05-10,2022-05-10,合同会社ＪａｐａｎＢｒａｎｄＬａｂｏｒａｔｏｒｙ,,合同会社,東京都,小金井市,緑町３丁目７番１３号コスモグリーン１０５,,13,210,1840003,,,,,,,2022-05-10,1,,,,,ジャパンブランドラボラトリー,0
1549,5012801021557,新規,0,2022-05-10,2022-05-10,ＥＭＰＯＷＥＲ　ＥＮＴＥＲＴＡＩＮＭＥＮＴ株式会社,,株式会社,東京都,国分寺市,光町１丁目９－２５,,13,214,1850034,,,,,,,2022-05-10,1,,,,,エンパワーエンタテインメント,0
1552,5013301049056,新規,0,2022-05-10,2022-05-10,翔辰株式会社,,株式会社,東京都,豊島区,西池袋１丁目４３番７号福住ビル７階,,13,116,1710021,,,,,,,2022-05-10,1,,,,,ショウシン,0
1553,5013301049064,新規,0,2022-05-10,2022-05-10,株式会社日緬ブリッジ,,株式会社,東京都,豊島区,池袋２丁目１３番４号,,13,116,1710014,,,,,,,2022-05-10,1,,,,,ニチメンブリッジ,0
1557,5020001146364,新規,0,2022-05-10,2022-05-10,オリオンイノテックジャパン株式会社,,株式会社,神奈川県,横浜市都筑区,茅ケ崎南２丁目１４番１１－２０２号,,14,118,2240037,,,,,,,2022-05-10,1,,,,,オリオンイノテックジャパン,0
1558,5020001146380,新規,0,2022-05-10,2022-05-10,塩崎工業株式会社,,株式会社,神奈川県,横浜市中区,千歳町１番地２横浜ＴＨビル５１０号室,,14,104,2310035,,,,,,,2022-05-10,1,,,,,シオザキコウギョウ,0
1559,5020001146414,新規,0,2022-05-10,2022-05-10,株式会社ＡＰＯＬＬＯ　ＰＩＣＴＵＲＥ,,株式会社,神奈川県,横浜市港北区,菊名２丁目５－３－５０１,,14,109,2220011,,,,,,,2022-05-10,1,,,,,アポロピクチャー,0
1560,5020001146439,新規,0,2022-05-10,2022-05-10,株式会社ｖｏｉｃｅ　ｔｒｅｅ,,株式会社,神奈川県,横浜市鶴見区,岸谷３丁目２８番９号オックスヘッドＩ３０５,00126509,14,101,2300078,,,,,,,2022-05-10,1,,,,,ヴォイスツリー,0
1561,5020001146455,新規,0,2022-05-10,2022-05-10,株式会社Ｋ‐ＤＡＳＨ,,株式会社,神奈川県,横浜市中区,長者町８丁目１３３番７号－７０１,,14,104,2310033,,,,,,,2022-05-10,1,,,,,ケーダッシュ,0
1563,5020003021532,新規,0,2022-05-10,2022-05-10,ナレッジマネジメント合同会社,,合同会社,神奈川県,横浜市港北区,綱島西４丁目１－１４－２,,14,109,2230053,,,,,,,2022-05-10,1,,,,,ナレッジマネジメント,0
1564,5020003021739,新規,0,2022-05-10,2022-05-10,Ａ．Ｓ．Ｋ．ｄｅｓｉｇｎ合同会社,,合同会社,神奈川県,横浜市青葉区,青葉台１丁目３３番地１８,,14,117,2270062,,,,,,,2022-05-10,1,,,,,エーエスケーデザイン,0
1569,5021001075875,新規,0,2022-05-10,2022-05-10,株式会社ノイトラール,,株式会社,神奈川県,中郡大磯町,大磯２０８９番地１,,14,341,2550003,,,,,,,2022-05-10,1,,,,,ノイトラール,0
1570,5021001075883,新規,0,2022-05-10,2022-05-10,株式会社ＧＬＩＴ,,株式会社,神奈川県,相模原市南区,下溝２５６０番地１０,,14,153,2520335,,,,,,,2022-05-10,1,,,,,グリット,0
1571,5021001075900,新規,0,2022-05-10,2022-05-10,Ｂ‐ＴＴＲＡＤＩＮＧ株式会社,,株式会社,神奈川県,伊勢原市,白根４１７番地の３,,14,214,2591147,,,,,,,2022-05-10,1,,,,,ビーティトラディング,0
1578,5030001147980,新規,0,2022-05-10,2022-05-10,株式会社アトリエミハラ,,株式会社,埼玉県,児玉郡上里町,大字七本木３４８５番地７,,11,385,3690306,,,,,,,2022-05-10,1,,,,,アトリエミハラ,0
1579,5030001148046,新規,0,2022-05-10,2022-05-10,株式会社光建,,株式会社,埼玉県,川越市,大字安比奈新田３７８番地１,,11,201,3501173,,,,,,,2022-05-10,1,,,,,コウケン,0
1580,5030001148062,新規,0,2022-05-10,2022-05-10,オルド株式会社,,株式会社,埼玉県,さいたま市北区,奈良町３８番地５－５０５号,,11,102,3310822,,,,,,,2022-05-10,1,,,,,オルド,0
1581,5030001148087,新規,0,2022-05-10,2022-05-10,株式会社オリーブ,,株式会社,埼玉県,さいたま市岩槻区,本丸１丁目１１番１７号,,11,110,3390058,,,,,,,2022-05-10,1,,,,,オリーブ,0
1582,5030001148095,新規,0,2022-05-10,2022-05-10,株式会社Ｉｍｏｎｄ,,株式会社,埼玉県,さいたま市大宮区,大成町３丁目５３３番地大成南団地４０４,,11,103,3300852,,,,,,,2022-05-10,1,,,,,アイモンド,0
1583,5030001148112,新規,0,2022-05-10,2022-05-10,株式会社イセコー,,株式会社,埼玉県,川口市,南鳩ヶ谷５丁目１６番２５号,,11,203,3340013,,,,,,,2022-05-10,1,,,,,イセコー,0
1584,5030001148120,新規,0,2022-05-10,2022-05-10,ミハル建工株式会社,,株式会社,埼玉県,鶴ヶ島市,脚折町３丁目１７番８号,,11,241,3502211,,,,,,,2022-05-10,1,,,,,ミハルケンコウ,0
1585,5030001148129,新規,0,2022-05-10,2022-05-10,ＮｅｘｔＳｔａｇｅ株式会社,,株式会社,埼玉県,東松山市,大字松山１８２０番地３,,11,212,3550005,,,,,,,2022-05-10,1,,,,,ネクストステージ,0
1586,5030001148161,新規,0,2022-05-10,2022-05-10,ボディー株式会社,,株式会社,埼玉県,ふじみ野市,上野台１丁目４－１オハナふじみ野上野台ブロッサム１２０,,11,245,3560017,,,,,,,2022-05-10,1,,,,,ボディー,0
1588,5030003019344,新規,0,2022-05-10,2022-05-10,合同会社達,,合同会社,埼玉県,深谷市,上野台２９６３番地３,,11,218,3660801,,,,,,,2022-05-10,1,,,,,タツ,0
1589,5030003019377,新規,0,2022-05-10,2022-05-10,合同会社あなたの味方,,合同会社,埼玉県,川越市,岸町３丁目１７番１４号,,11,201,3501131,,,,,,,2022-05-10,1,,,,,アナタノミカタ,0
1594,5040001123238,新規,0,2022-05-10,2022-05-10,株式会社ナカムラテクノ,,株式会社,千葉県,船橋市,海神５丁目２９番２１－２０９号,,12,204,2730021,,,,,,,2022-05-10,1,,,,,ナカムラテクノ,0
1595,5040001123279,新規,0,2022-05-10,2022-05-10,株式会社シマテック,,株式会社,千葉県,山武郡九十九里町,作田５４６７番地２１,,12,403,2830101,,,,,,,2022-05-10,1,,,,,シマテック,0
1596,5040001123295,新規,0,2022-05-10,2022-05-10,株式会社ＷＯＮＧＯ　ＩＮＴＥＲＮＡＴＩＯＮＡＬ,,株式会社,千葉県,柏市,高柳４５２番地３,,12,217,2770941,,,,,,,2022-05-10,1,,,,,ウォンゴインターナショナル,0
1597,5040001123329,新規,0,2022-05-10,2022-05-10,Ｍｅｄｉｃａｌ　Ｂｅｉｎｇ株式会社,,株式会社,千葉県,千葉市中央区,松波２丁目１３番８号,,12,101,2600044,,,,,,,2022-05-10,1,,,,,メディカルビーイング,0
1598,5040001123353,新規,0,2022-05-10,2022-05-10,Ｓａｋｕｒａ　Ｎａｉｌ株式会社,,株式会社,千葉県,佐倉市,表町１丁目５番地２,,12,212,2850811,,,,,,,2022-05-10,1,,,,,サクラネイル,0
1601,5040003019979,新規,0,2022-05-10,2022-05-10,西野バレエグローバルＨＩＲＯＭＩ合同会社,,合同会社,千葉県,習志野市,谷津５丁目２２番１１号,,12,216,2750026,,,,,,,2022-05-10,1,,,,,ニシノバレエグローバルヒロミ,0
1602,5040003019987,新規,0,2022-05-10,2022-05-10,合同会社山本グリーン千葉,,合同会社,千葉県,市原市,東五所３３番地２６,,12,219,2900064,,,,,,,2022-05-10,1,,,,,ヤマモトグリーンチバ,0
1604,5050001051041,新規,0,2022-05-10,2022-05-10,株式会社谷島工建,,株式会社,茨城県,筑西市,谷永島２２番地４,,08,227,3091121,,,,,,,2022-05-10,1,,,,,ヤジマコウケン,0
1605,5050001051058,新規,0,2022-05-10,2022-05-10,株式会社ＹＭＹ,,株式会社,茨城県,神栖市,深芝南１丁目２０番地１,,08,232,3140142,,,,,,,2022-05-10,1,,,,,ワイエムワイ,0
1607,5050003006547,新規,0,2022-05-10,2022-05-10,合同会社にこいち,,合同会社,茨城県,牛久市,中央４丁目１０番地１９,,08,219,3001234,,,,,,,2022-05-10,1,,,,,ニコイチ,0
1609,5060001034838,新規,0,2022-05-10,2022-05-10,株式会社４０５ｆｉｒｍ,,株式会社,栃木県,宇都宮市,吉野２丁目６番１０号ヒガノビル２０２号室,,09,201,3200838,,,,,,,2022-05-10,1,,,,,ヨンマルゴファーム,0
1615,5080101023276,新規,0,2022-05-10,2022-05-10,デジール株式会社,,株式会社,静岡県,裾野市,御宿１３４３番地の３,,22,220,4101107,,,,,,,2022-05-10,1,,,,,デジール,0
1621,5100001035311,新規,0,2022-05-10,2022-05-10,株式会社ＡＴ‐ＬＡＢＯ,,株式会社,長野県,長野市,大字小島１０９番地宮澤ビルヂング２０４,,20,201,3810017,,,,,,,2022-05-10,1,,,,,アットラボ,0
1622,5100003006533,新規,0,2022-05-10,2022-05-10,合同会社セイジン,,合同会社,長野県,小諸市,相生町１丁目２－３,,20,208,3840025,,,,,,,2022-05-10,1,,,,,セイジン,0
1623,5100003006541,新規,0,2022-05-10,2022-05-10,合同会社スフィーダ,,合同会社,長野県,松本市,平田西１丁目４番４号,,20,202,3990015,,,,,,,2022-05-10,1,,,,,スフィーダ,0
1624,5110001036630,新規,0,2022-05-10,2022-05-10,株式会社ワーク・デザイン,,株式会社,新潟県,新潟市中央区,美咲町１丁目３２番３－５０１号,,15,103,9500954,,,,,,,2022-05-10,1,,,,,ワークデザイン,0
1625,5110003004750,新規,0,2022-05-10,2022-05-10,合同会社ゼアレット技研,,合同会社,新潟県,新潟市北区,松浜５丁目１３番地８７,,15,101,9503126,,,,,,,2022-05-10,1,,,,,ゼアレットギケン,0
1639,5120001245684,新規,0,2022-05-10,2022-05-10,株式会社ＹＵＫＡＩ,,株式会社,大阪府,大阪市中央区,南船場４丁目１０番５号南船場ＳＯＨＯビル７０２,,27,128,5420081,,,,,,,2022-05-10,1,,,,,ユカイ,0
1640,5120001245692,新規,0,2022-05-10,2022-05-10,株式会社Ｃｈｉｃ,,株式会社,大阪府,枚方市,山之上北町３３番３１号,,27,210,5730049,,,,,,,2022-05-10,1,,,,,シック,0
1641,5120001245718,新規,0,2022-05-10,2022-05-10,株式会社Ｆｉｒｓｔ　Ｓｔｅｐ,,株式会社,大阪府,守口市,京阪本通１丁目１番１１号リエス守口２０２号室,,27,209,5700083,,,,,,,2022-05-10,1,,,,,ファーストステップ,0
1642,5120001245726,新規,0,2022-05-10,2022-05-10,株式会社ＳＡＮＴＡＬ,,株式会社,大阪府,大阪市福島区,野田５丁目１８番２４－２０１号,,27,103,5530005,,,,,,,2022-05-10,1,,,,,サンタル,0
1643,5120001245742,新規,0,2022-05-10,2022-05-10,デルタ・ステーション株式会社,,株式会社,大阪府,大阪市淀川区,西中島６丁目２番３号チサンマンション第七新大阪１１０９号室,,27,123,5320011,,,,,,,2022-05-10,1,,,,,デルタステーション,0
1644,5120001245750,新規,0,2022-05-10,2022-05-10,トーケンメディカル株式会社,,株式会社,大阪府,大阪市天王寺区,寺田町２丁目２番１０号アッサンビル８０１号,,27,109,5430045,,,,,,,2022-05-10,1,,,,,トーケンメディカル,0
1645,5120001245759,新規,0,2022-05-10,2022-05-10,株式会社八まいル,,株式会社,大阪府,大阪市北区,大淀中３丁目２番２３号ハイムラポールＰａｒｔＸＩＩ１００１号室,00126490,27,127,5310076,,,,,,,2022-05-10,1,,,,,ハチマイル,0
1646,5120001245767,新規,0,2022-05-10,2022-05-10,株式会社長尾,,株式会社,大阪府,大阪市生野区,小路２丁目１１番２３号,,27,116,5440002,,,,,,,2022-05-10,1,,,,,ナガオ,0
1647,5120001245783,新規,0,2022-05-10,2022-05-10,株式会社Ｃｏｌｏｎ,,株式会社,大阪府,守口市,梶町３丁目３１番９号,,27,209,5700015,,,,,,,2022-05-10,1,,,,,コロン,0
1652,5120003021638,新規,0,2022-05-10,2022-05-10,合同会社幸成建装,,合同会社,大阪府,大阪市西成区,花園北１丁目５番１６－３０５号,,27,122,5570016,,,,,,,2022-05-10,1,,,,,コウセイケンソウ,0
1653,5120003021646,新規,0,2022-05-10,2022-05-10,ブルーチップ合同会社,,合同会社,大阪府,大阪市中央区,南本町２丁目４－１６本町デビスビル４Ｆ,,27,128,5410054,,,,,,,2022-05-10,1,,,,,ブルーチップ,0
1654,5120003021654,新規,0,2022-05-10,2022-05-10,合同会社Ｍ,,合同会社,大阪府,大阪市港区,波除３丁目５番１０号アミューズメントパーク弁天２階,,27,107,5520001,,,,,,,2022-05-10,1,,,,,エム,0
1655,5120101065529,新規,0,2022-05-10,2022-05-10,株式会社セグクリエイト,,株式会社,大阪府,泉佐野市,日根野１５６８番地,,27,213,5980021,,,,,,,2022-05-10,1,,,,,セグクリエイト,0
1656,5120101065537,新規,0,2022-05-10,2022-05-10,株式会社皇将,,株式会社,大阪府,堺市中区,福田１６９番地２,,27,142,5998241,,,,,,,2022-05-10,1,,,,,コウショウ,0
1657,5120101065545,新規,0,2022-05-10,2022-05-10,株式会社ｃｏｉ,,株式会社,大阪府,阪南市,黒田５６０番地の２４,,27,232,5990203,,,,,,,2022-05-10,1,,,,,コイ,0
1658,5120101065553,新規,0,2022-05-10,2022-05-10,株式会社ｎｉｃｏｌａ,,株式会社,大阪府,松原市,三宅西２丁目１９番４－３０１号,,27,217,5800045,,,,,,,2022-05-10,1,,,,,ニコラ,0
1659,5120103004690,新規,0,2022-05-10,2022-05-10,合同会社ここロード,,合同会社,大阪府,堺市堺区,戎島町２丁６２番地８（２０３号）,,27,141,5900985,,,,,,,2022-05-10,1,,,,,ココロード,0
1661,5120901045944,新規,0,2022-05-10,2022-05-10,株式会社Ｎｏｉ‐Ｔｅｃｈ,,株式会社,大阪府,吹田市,泉町３丁目１３－１７－１０５,,27,205,5640041,,,,,,,2022-05-10,1,,,,,ノイテック,0
1663,5120903004139,新規,0,2022-05-10,2022-05-10,はてな企画合同会社,,合同会社,大阪府,豊中市,服部南町５丁目６番１号２階,,27,203,5610853,,,,,,,2022-05-10,1,,,,,ハテナキカク,0
1666,5130001071700,新規,0,2022-05-10,2022-05-10,株式会社ＴＫＪ,,株式会社,京都府,京都市南区,吉祥院這登中町６番地－３０２,,26,107,6018353,,,,,,,2022-05-10,1,,,,,ティーケージェー,0
1667,5130001071725,新規,0,2022-05-10,2022-05-10,株式会社光電創,,株式会社,京都府,宇治市,五ケ庄一番割８２番地の１３,,26,204,6110011,,,,,,,2022-05-10,1,,,,,ヒカリデンソウ,0
1676,5140001125868,新規,0,2022-05-10,2022-05-10,株式会社Ａｌｌｐｌｕｓ,,株式会社,兵庫県,神戸市中央区,神若通２丁目２番９号住田ビル２０１号室,,28,110,6510067,,,,,,,2022-05-10,1,,,,,オールプラス,0
1677,5140001125892,新規,0,2022-05-10,2022-05-10,Ａｓｃｅｎｓｉｏｎ株式会社,,株式会社,兵庫県,芦屋市,春日町３番１４号,,28,206,6590021,,,,,,,2022-05-10,1,,,,,アセンション,0
1678,5140001125901,新規,0,2022-05-10,2022-05-10,株式会社エステック,,株式会社,兵庫県,尼崎市,稲葉元町１丁目３番３号,,28,202,6600055,,,,,,,2022-05-10,1,,,,,エステック,0
1679,5140001125950,新規,0,2022-05-10,2022-05-10,株式会社ＫＵＲＯ,,株式会社,兵庫県,三木市,加佐５９９－１,,28,215,6730402,,,,,,,2022-05-10,1,,,,,クロ,0
1681,5140003017659,新規,0,2022-05-10,2022-05-10,合同会社コイデ,,合同会社,兵庫県,神戸市兵庫区,神田町１２－１０,,28,105,6520006,,,,,,,2022-05-10,1,,,,,コイデ,0
1684,5140005026170,新規,0,2022-05-10,2022-05-10,一般社団法人山守,,その他の設立登記法人,兵庫県,丹波市,氷上町北油良４０８,,28,223,6693653,,,,,,,2022-05-10,1,,,,,ヤマモリ,0
1686,5150003002676,新規,0,2022-05-10,2022-05-10,合同会社ユニーズ,,合同会社,奈良県,生駒郡平群町,緑ケ丘６丁目１番１７号,,29,342,6360941,,,,,,,2022-05-10,1,,,,,ユニーズ,0
1689,5160001024168,新規,0,2022-05-10,2022-05-10,株式会社Ｏ・Ｒ・Ｅ,,株式会社,滋賀県,守山市,今浜町２６２０番１４,,25,207,5240101,,,,,,,2022-05-10,1,,,,,オーアールイー,0
1690,5160001024176,新規,0,2022-05-10,2022-05-10,マトバ産業株式会社,,株式会社,滋賀県,米原市,春照３６４番地,,25,214,5210314,,,,,,,2022-05-10,1,,,,,マトバサンギョウ,0
1691,5160001024184,新規,0,2022-05-10,2022-05-10,株式会社ＢＡＳＥ,,株式会社,滋賀県,大津市,南志賀１丁目３番６号,,25,201,5200011,,,,,,,2022-05-10,1,,,,,ベース,0
1698,5170003001718,新規,0,2022-05-10,2022-05-10,ＮＳＨ企画合同会社,,合同会社,和歌山県,和歌山市,六十谷２７５－４－２０１,,30,201,6408482,,,,,,,2022-05-10,1,,,,,エヌエスエイチキカク,0
1708,5180001151159,新規,0,2022-05-10,2022-05-10,株式会社Ｎｏｒｔｈ　Ｏｎ,,株式会社,愛知県,名古屋市中村区,白子町４丁目３２番地の２,,23,105,4530817,,,,,,,2022-05-10,1,,,,,ノースオン,0
1709,5180001151200,新規,0,2022-05-10,2022-05-10,フローネットホールディングス株式会社,,株式会社,愛知県,名古屋市中区,松原１丁目１６番２５号,,23,106,4600017,,,,,,,2022-05-10,1,,,,,フローネットホールディングス,0
1710,5180001151233,新規,0,2022-05-10,2022-05-10,豊伸株式会社,,株式会社,愛知県,東海市,名和町中屋敷４８番地の１,,23,222,4760002,,,,,,,2022-05-10,1,,,,,トヨシン,0
1711,5180001151258,新規,0,2022-05-10,2022-05-10,株式会社Ｔａｋｅ　Ｐｏｗｅｒ５９３,,株式会社,愛知県,名古屋市北区,喜惣治２丁目８４番地１,,23,103,4620065,,,,,,,2022-05-10,1,,,,,テイクパワーゴーキューサン,0
1715,5180003023802,新規,0,2022-05-10,2022-05-10,合同会社ＥＭＺＥＱ,,合同会社,愛知県,一宮市,神戸町２０番地１グランモア神戸Ｂ棟２０１号室,,23,203,4910055,,,,,,,2022-05-10,1,,,,,エムゼック,0
1716,5180003023810,新規,0,2022-05-10,2022-05-10,合同会社ｂｅａｕ,,合同会社,愛知県,名古屋市熱田区,金山町２丁目７番１７号,,23,109,4560002,,,,,,,2022-05-10,1,,,,,ボー,0
1717,5180005019765,新規,0,2022-05-10,2022-05-10,一般社団法人ソウルクリア協会,,その他の設立登記法人,愛知県,名古屋市千種区,千種通７丁目１０１番地オオクラビル４Ｆ,,23,101,4640855,,,,,,,2022-05-10,1,,,,,ソウルクリアキョウカイ,0
1718,5180301036200,新規,0,2022-05-10,2022-05-10,株式会社バラクーダ,,株式会社,愛知県,岡崎市,鴨田町字広元１９５番地,,23,202,4442121,,,,,,,2022-05-10,1,,,,,バラクーダ,0
1719,5180301036209,新規,0,2022-05-10,2022-05-10,株式会社ガレージランド,,株式会社,愛知県,豊橋市,西浜町２番地１０,,23,201,4410156,,,,,,,2022-05-10,1,,,,,ガレージランド,0
1723,5180303005327,新規,0,2022-05-10,2022-05-10,合同会社ＨＫＳトレーディング,,合同会社,愛知県,安城市,三河安城本町２丁目１－１０カガヤキスクエア９Ｆ,,23,212,4460059,,,,,,,2022-05-10,1,,,,,エイチケイエストレーディング,0
1725,5190001029379,新規,0,2022-05-10,2022-05-10,株式会社ショーワ水道,,株式会社,三重県,鈴鹿市,下大久保町１２４０番地の１,,24,207,5131123,,,,,,,2022-05-10,1,,,,,ショーワスイドウ,0
1735,5210003001507,新規,0,2022-05-10,2022-05-10,合同会社健総業,,合同会社,福井県,福井市,寺前町第５号１５番地メゾネット中藤１０１,,18,201,9100801,,,,,,,2022-05-10,1,,,,,ケンソウギョウ,0
1736,5220001024830,新規,0,2022-05-10,2022-05-10,株式会社ケアウェスト,,株式会社,石川県,金沢市,西泉６丁目１４１番地１,,17,201,9218043,,,,,,,2022-05-10,1,,,,,ケアウェスト,0
1742,5240001059734,新規,0,2022-05-10,2022-05-10,株式会社セイワ,,株式会社,広島県,世羅郡世羅町,大字西上原２６５番地５,,34,462,7221121,,,,,,,2022-05-10,1,,,,,セイワ,0
1745,5240003005604,新規,0,2022-05-10,2022-05-10,大信合同会社,,合同会社,広島県,広島市西区,楠木町１丁目１５番９－５０４号,,34,104,7330002,,,,,,,2022-05-10,1,,,,,ダイシン,0
1749,5250001019539,新規,0,2022-05-10,2022-05-10,株式会社ベイ・リープ,,株式会社,山口県,山口市,黒川２３９２番地１２,,35,203,7530851,,,,,,,2022-05-10,1,,,,,ベイリープ,0
1756,5250005008744,新規,0,2022-05-10,2022-05-10,下関水産物輸出協同組合,,その他の設立登記法人,山口県,下関市,彦島西山町５丁目６番２号,,35,201,7500093,,,,,,,2022-05-10,1,,,,,シモノセキスイサンブツユシュツ,0
1762,5260001036814,新規,0,2022-05-10,2022-05-10,株式会社ＢＡＬＡＮＣＥ,,株式会社,岡山県,倉敷市,水島北緑町４番１８号,,33,202,7128022,,,,,,,2022-05-10,1,,,,,バランス,0
1766,5280005007479,新規,0,2022-05-10,2022-05-10,隠岐の島町地域人材づくり協同組合,,その他の設立登記法人,島根県,隠岐郡隠岐の島町,城北町１番地,,32,528,6850016,,,,,,,2022-05-10,1,,,,,オキノシマチョウチイキジンザイヅクリ,0
1774,5290001097481,新規,0,2022-05-10,2022-05-10,株式会社九州水道設備,,株式会社,福岡県,福岡市博多区,博多駅前３丁目１８番８－６１１号,,40,132,8120011,,,,,,,2022-05-10,1,,,,,キュウシュウスイドウセツビ,0
1777,5290801028504,新規,0,2022-05-10,2022-05-10,株式会社Ｒ‐ｓｙｓｔｅｍ,,株式会社,福岡県,北九州市八幡西区,楠橋南３丁目１８番３号,,40,109,8071143,,,,,,,2022-05-10,1,,,,,アールシステム,0
1778,5290801028512,新規,0,2022-05-10,2022-05-10,株式会社ＲｅＢｏｒｎＨｏｕｓｅ,,株式会社,福岡県,北九州市小倉北区,浅野３丁目８番１号,,40,106,8020001,,,,,,,2022-05-10,1,,,,,リボーンハウス,0
1779,5290801028520,新規,0,2022-05-10,2022-05-10,株式会社プログレス,,株式会社,福岡県,田川郡福智町,伊方４２３３番地４,,40,610,8221211,,,,,,,2022-05-10,1,,,,,プログレス,0
1780,5300001012926,新規,0,2022-05-10,2022-05-10,株式会社マルヤス,,株式会社,佐賀県,神埼郡吉野ヶ里町,石動２６６２番地５,,41,327,8420102,,,,,,,2022-05-10,1,,,,,マルヤス,0
1781,5310001017841,新規,0,2022-05-10,2022-05-10,株式会社ＫＭＮ,,株式会社,長崎県,佐世保市,日宇町２９２１番地,,42,202,8571151,,,,,,,2022-05-10,1,,,,,ケーエムエヌ,0
1783,5310003004359,新規,0,2022-05-10,2022-05-10,合同会社健康スタジオ幹本舗,,合同会社,長崎県,大村市,久原２丁目１０３８番地１４,,42,205,8560835,,,,,,,2022-05-10,1,,,,,ケンコウスタジオミキホンポ,0
1784,5320001019060,新規,0,2022-05-10,2022-05-10,Ｙ＆Ｅ企画株式会社,,株式会社,大分県,日田市,大字日高２５１８番地９,,44,204,8770000,,,,,,,2022-05-10,1,,,,,ワイアンドイーキカク,0
1785,5320003003806,新規,0,2022-05-10,2022-05-10,合同会社ごちナビ,,合同会社,大分県,別府市,北浜１丁目６番１６号アクテムビル２０３号,,44,202,8740920,,,,,,,2022-05-10,1,,,,,ゴチナビ,0
1786,5330001029703,新規,0,2022-05-10,2022-05-10,山下水産株式会社,,株式会社,熊本県,上天草市,松島町合津７０３６番地１,,43,212,8616102,,,,,,,2022-05-10,1,,,,,ヤマシタスイサン,0
1787,5330003009356,新規,0,2022-05-10,2022-05-10,合同会社Ｈ＆ＧＲＯＷ,,合同会社,熊本県,八代市,松崎町６０５番地２３,,43,202,8660884,,,,,,,2022-05-10,1,,,,,エイチアンドグロウ,0
1789,5340001024711,新規,0,2022-05-10,2022-05-10,株式会社堀之内俊雄商店,,株式会社,鹿児島県,薩摩郡さつま町,宮之城屋地２７７５番地４,,46,392,8951803,,,,,,,2022-05-10,1,,,,,ホリノウチトシオショウテン,0
1792,5340003003779,新規,0,2022-05-10,2022-05-10,合同会社ＡＧＲＩＴＺ,,合同会社,鹿児島県,霧島市,溝辺町有川１７９番地６,,46,218,8996401,,,,,,,2022-05-10,1,,,,,アグリッツ,0
1795,5350005006069,新規,0,2022-05-10,2022-05-10,一般社団法人ＨＩＮＡＴＡバレーボールアカデミー,,その他の設立登記法人,宮崎県,宮崎市,花ケ島町笹原２２９７番地１クレセントハイツ４０９,,45,201,8800036,,,,,,,2022-05-10,1,,,,,ヒナタバレーボールアカデミー,0
1798,5370003005681,新規,0,2022-05-10,2022-05-10,合同会社ＥＥＥ,,合同会社,宮城県,石巻市,あけぼの３丁目４番地１２,,04,202,9860862,,,,,,,2022-05-10,1,,,,,イーイーイー,0
1802,5400003002931,新規,0,2022-05-10,2022-05-10,ｓｕｍｉｍａｓ合同会社,,合同会社,岩手県,北上市,川岸１丁目２番３３－４０２号ポレスターステーションシティ北上,,03,206,0240032,,,,,,,2022-05-10,1,,,,,スミマス,0
1805,5410005006467,新規,0,2022-05-10,2022-05-10,一般社団法人グローカル政経総研,,その他の設立登記法人,秋田県,秋田市,中通１丁目３番５号秋田キャッスルホテル３０５Ｂ,,05,201,0100001,,,,,,,2022-05-10,1,,,,,グローカルセイケイソウケン,0
1806,5420001017830,新規,0,2022-05-10,2022-05-10,株式会社タクミインターナショナル,,株式会社,青森県,八戸市,売市１丁目１番２０号,,02,203,0310073,,,,,,,2022-05-10,1,,,,,タクミインターナショナル,0
1808,5430001086544,新規,0,2022-05-10,2022-05-10,株式会社サイレンスＸ,,株式会社,北海道,札幌市豊平区,中の島一条３丁目４番５号１０２,,01,105,0620921,,,,,,,2022-05-10,1,,,,,サイレンスエックス,0
1811,5430003013876,新規,0,2022-05-10,2022-05-10,合同会社ＦＲＥＥ＆ＰＥＡＣＥ,,合同会社,北海道,札幌市北区,屯田五条３丁目４－１０,,01,102,0020855,,,,,,,2022-05-10,1,,,,,フリーアンドピース,0
1817,5500001024199,新規,0,2022-05-10,2022-05-10,株式会社レオテック,,株式会社,愛媛県,今治市,町谷甲１８７番地１,,38,202,7991514,,,,,,,2022-05-10,1,,,,,レオテック,0
1831,6010001226389,新規,0,2022-05-10,2022-05-10,Ｌｉｇｈｔ　ｕｐ株式会社,,株式会社,東京都,中央区,銀座１丁目２２番１１号銀座大竹ビジデンス２階,,13,102,1040061,,,,,,,2022-05-10,1,,,,,ライトアップ,0
1832,6010001226414,新規,0,2022-05-10,2022-05-10,株式会社ｘｔｒｅｍｅ‐ｔｏｐ,,株式会社,東京都,中央区,佃２丁目１０－９２７０６号,,13,102,1040051,,,,,,,2022-05-10,1,,,,,エクストリームトップ,0
1833,6010001226422,新規,0,2022-05-10,2022-05-10,株式会社智製,,株式会社,東京都,千代田区,岩本町１丁目２番１７号,,13,101,1010032,,,,,,,2022-05-10,1,,,,,チセイ,0
1834,6010001226447,新規,0,2022-05-10,2022-05-10,株式会社ＤＯＴＳ,,株式会社,東京都,中央区,日本橋２丁目２番３号ＲＩＳＨＥビル４０２,,13,102,1030027,,,,,,,2022-05-10,1,,,,,ドッツ,0
1835,6010001226471,新規,0,2022-05-10,2022-05-10,ＴｒａｎｚＯｃｅａｎ　Ｊａｐａｎ株式会社,,株式会社,東京都,千代田区,四番町４番地９新東京国際リーガル内,,13,101,1020081,,,,,,,2022-05-10,1,,,,,トランズオーシャンジャパン,0
1836,6010001226496,新規,0,2022-05-10,2022-05-10,株式会社えがお・ワークラボ,,株式会社,東京都,千代田区,丸の内１丁目１番３号日本生命丸の内ガーデンタワー３階,,13,101,1000005,,,,,,,2022-05-10,1,,,,,エガオワークラボ,0
1839,6010003037628,新規,0,2022-05-10,2022-05-10,合同会社ＭａｎａＬｏｋａｈｉ,,合同会社,東京都,中央区,銀座１丁目２２番１１号銀座大竹ビジデンス２階,,13,102,1040061,,,,,,,2022-05-10,1,,,,,マナロカヒ,0
1840,6010003037644,新規,0,2022-05-10,2022-05-10,合同会社道長,,合同会社,東京都,中央区,銀座１丁目２２番１１号銀座大竹ビジデンス２階,,13,102,1040061,,,,,,,2022-05-10,1,,,,,ミチナガ,0
1841,6010101015171,新規,0,2022-05-10,2022-05-10,株式会社昇造園,,株式会社,東京都,八王子市,川口町１３８３番地２,,13,201,1930801,,,,,,,2022-05-10,1,,,,,ノボルゾウエン,0
1844,6010401167217,新規,0,2022-05-10,2022-05-10,株式会社ＴＨＥ　ＣＯＮＣＥＰＴ,,株式会社,東京都,港区,西麻布３丁目６番１号,,13,103,1060031,,,,,,,2022-05-10,1,,,,,ザコンセプト,0
1849,6010501048795,新規,0,2022-05-10,2022-05-10,ＰｉＡＮ株式会社,,株式会社,東京都,台東区,入谷２丁目３９番２－８０１号,,13,106,1100013,,,,,,,2022-05-10,1,,,,,ピアン,0
1850,6010501048812,新規,0,2022-05-10,2022-05-10,精誠達実業株式会社,,株式会社,東京都,台東区,台東２丁目２７番３号ＮＳＫビル１０Ｆ,,13,106,1100016,,,,,,,2022-05-10,1,,,,,セイセイタツジツギョウ,0
1853,6010601061112,新規,0,2022-05-10,2022-05-10,株式会社グリーンリノベーション,,株式会社,東京都,墨田区,東向島５丁目２１番１５号,,13,107,1310032,,,,,,,2022-05-10,1,,,,,グリーンリノベーション,0
1855,6010701042607,新規,0,2022-05-10,2022-05-10,ＡＡ　Ｈｅａｌｔｈ　Ｄｙｎａｍｉｃｓ株式会社,,株式会社,東京都,品川区,西五反田２丁目１９番１２号五反田井門ビル,,13,109,1410031,,,,,,,2022-05-10,1,,,,,エーエーヘルスダイナミクス,0
1856,6010701042615,新規,0,2022-05-10,2022-05-10,株式会社ムーヴディバイン,,株式会社,東京都,品川区,東大井５丁目１９番９号,,13,109,1400011,,,,,,,2022-05-10,1,,,,,ムーヴディバイン,0
1857,6010703006221,新規,0,2022-05-10,2022-05-10,合同会社えのまち,,合同会社,東京都,品川区,小山３丁目２７－５武蔵小山創業支援センター６Ｆコワーキングスペース内,,13,109,1420062,,,,,,,2022-05-10,1,,,,,エノマチ,0
1858,6010801032937,新規,0,2022-05-10,2022-05-10,ザイミックス株式会社,,株式会社,東京都,大田区,西蒲田６丁目７番１７－４０１号,,13,111,1440051,,,,,,,2022-05-10,1,,,,,ザイミックス,0
1859,6010803004166,新規,0,2022-05-10,2022-05-10,合同会社夢源,,合同会社,東京都,大田区,萩中３丁目２７番１４号,,13,111,1440047,,,,,,,2022-05-10,1,,,,,ムゲン,0
1866,6011001147294,新規,0,2022-05-10,2022-05-10,株式会社ＮｅｗＴｒｙ,,株式会社,東京都,渋谷区,広尾１丁目１１番５号,,13,113,1500012,,,,,,,2022-05-10,1,,,,,ニュートライ,0
1867,6011001147369,新規,0,2022-05-10,2022-05-10,株式会社恵比寿不動産鑑定,,株式会社,東京都,渋谷区,東２丁目２４番６号,,13,113,1500011,,,,,,,2022-05-10,1,,,,,エビスフドウサンカンテイ,0
1868,6011001147377,新規,0,2022-05-10,2022-05-10,株式会社トレンドキャスケット,,株式会社,東京都,渋谷区,神南１丁目１２－１６,,13,113,1500041,,,,,,,2022-05-10,1,,,,,トレンドキャスケット,0
1869,6011001147385,新規,0,2022-05-10,2022-05-10,ファイト株式会社,,株式会社,東京都,渋谷区,東２丁目２７番１４号ペガサスマンション恵比寿２０２,,13,113,1500011,,,,,,,2022-05-10,1,,,,,ファイト,0
1874,6011101098743,新規,0,2022-05-10,2022-05-10,ＮＡＴ株式会社,,株式会社,東京都,新宿区,新宿５丁目７番１４号秀和レジデンス１１０,,13,104,1600022,,,,,,,2022-05-10,1,,,,,エヌエイティ,0
1875,6011101098751,新規,0,2022-05-10,2022-05-10,株式会社エキュメノポリス,,株式会社,東京都,新宿区,西早稲田１丁目２２番３号,,13,104,1690051,,,,,,,2022-05-10,1,,,,,エキュメノポリス,0
1876,6011101098768,新規,0,2022-05-10,2022-05-10,株式会社フォース・エンターテインメント,,株式会社,東京都,新宿区,西新宿７丁目１８番１５－３０１号,,13,104,1600023,,,,,,,2022-05-10,1,,,,,フォースエンターテインメント,0
1878,6011201023816,新規,0,2022-05-10,2022-05-10,株式会社トキワサービス,,株式会社,東京都,中野区,沼袋４丁目５番１１号フラット沼袋１－２０１,,13,114,1650025,,,,,,,2022-05-10,1,,,,,トキワサービス,0
1884,6011403003657,新規,0,2022-05-10,2022-05-10,合同会社栗原,,合同会社,東京都,板橋区,板橋１丁目３０番２号,,13,119,1730004,,,,,,,2022-05-10,1,,,,,クリハラ,0
1885,6011501028011,新規,0,2022-05-10,2022-05-10,株式会社Ｅｄｄ,,株式会社,東京都,北区,岩淵町３７番９－８０４号,,13,117,1150041,,,,,,,2022-05-10,1,,,,,エッド,0
1889,6011601025940,新規,0,2022-05-10,2022-05-10,株式会社スリックエンジニアリング,,株式会社,東京都,練馬区,南大泉４丁目１１番３号,,13,120,1780064,,,,,,,2022-05-10,1,,,,,スリックエンジニアリング,0
1891,6011701025295,新規,0,2022-05-10,2022-05-10,株式会社ふらっとゲート,,株式会社,東京都,江戸川区,西葛西５丁目７番８号第２ドミール森田２０６,,13,123,1340088,,,,,,,2022-05-10,1,,,,,フラットゲート,0
1894,6011801040707,新規,0,2022-05-10,2022-05-10,株式会社Ｂｌｏｏｍ,,株式会社,東京都,葛飾区,金町３丁目１０番１５号ビラカナマチ１Ｆ,,13,122,1250042,,,,,,,2022-05-10,1,,,,,ブルーム,0
1898,6012401039164,新規,0,2022-05-10,2022-05-10,ＴＫＣ株式会社,,株式会社,東京都,調布市,緑ケ丘１丁目４１番地３２,,13,208,1820001,,,,,,,2022-05-10,1,,,,,ティーケーシー,0
1899,6012401039172,新規,0,2022-05-10,2022-05-10,株式会社ＧＲｉＴ‐Ａｉ,,株式会社,東京都,調布市,小島町２丁目３８番地７パレ・ソレイユ調布３０２,,13,208,1820026,,,,,,,2022-05-10,1,,,,,グリットアイ,0
1900,6012401039180,新規,0,2022-05-10,2022-05-10,株式会社Ｅｎ　ｃｒａｆｔ,,株式会社,東京都,狛江市,岩戸南２丁目１９番７号,,13,219,2010005,,,,,,,2022-05-10,1,,,,,エンクラフト,0
1901,6012401039189,新規,0,2022-05-10,2022-05-10,株式会社３ｒｄ　Ｉｅ,,株式会社,東京都,武蔵野市,吉祥寺南町２丁目２番５号,,13,203,1800003,,,,,,,2022-05-10,1,,,,,サードアイ,0
1902,6012403005354,新規,0,2022-05-10,2022-05-10,合同会社グッデイ,,合同会社,東京都,三鷹市,下連雀４丁目１４番２０号ＰＵＲＥＣＯＵＲＴ３０２,,13,204,1810013,,,,,,,2022-05-10,1,,,,,グッデイ,0
1904,6012705002306,新規,0,2022-05-10,2022-05-10,特定非営利活動法人アンファン・ボンヌ,,その他の設立登記法人,東京都,小平市,学園東町１丁目７番２４号,,13,211,1870043,,,,,,,2022-05-10,1,,,,,アンファンボンヌ,0
1911,6020001146413,新規,0,2022-05-10,2022-05-10,株式会社ピア,,株式会社,神奈川県,横浜市港北区,新吉田町１４７番地,,14,109,2230056,,,,,,,2022-05-10,1,,,,,ピア,0
1912,6020001146438,新規,0,2022-05-10,2022-05-10,Ａｖｅｎｔｕｒｅｓ株式会社,,株式会社,神奈川県,横浜市神奈川区,羽沢南３丁目６番５－１０３号,,14,102,2210866,,,,,,,2022-05-10,1,,,,,アベンチャーズ,0
1920,6021001075882,新規,0,2022-05-10,2022-05-10,株式会社ｉｎｑｕｉｒｙ,,株式会社,神奈川県,藤沢市,西俣野５４番地の１１,,14,205,2520812,,,,,,,2022-05-10,1,,,,,インクワイアリー,0
1922,6030001148004,新規,0,2022-05-10,2022-05-10,ＯＬＡ株式会社,,株式会社,埼玉県,川越市,大字寺尾７８５番地１１,,11,201,3501141,,,,,,,2022-05-10,1,,,,,オールエイ,0
1923,6030001148037,新規,0,2022-05-10,2022-05-10,株式会社ＯＮＥ　ＷＯＲＬＤ,,株式会社,埼玉県,深谷市,田谷４２４番地４深町ハイツＣ１０１号,,11,218,3660821,,,,,,,2022-05-10,1,,,,,ワンワールド,0
1924,6030001148061,新規,0,2022-05-10,2022-05-10,株式会社＿源,00126496,株式会社,埼玉県,川口市,大字安行領根岸９１７番地３,,11,203,3330834,,,,,,,2022-05-10,1,,,,,シンゲン,0
1925,6030001148128,新規,0,2022-05-10,2022-05-10,株式会社Ｎ‐ＤＡＳＨ,,株式会社,埼玉県,秩父市,下影森１７３番地４,,11,207,3691871,,,,,,,2022-05-10,1,,,,,エヌダッシュ,0
1927,6030003019351,新規,0,2022-05-10,2022-05-10,合同会社利喜堂,,合同会社,埼玉県,羽生市,大字神戸１４６８番地,,11,216,3480024,,,,,,,2022-05-10,1,,,,,リキドウ,0
1928,6030003019376,新規,0,2022-05-10,2022-05-10,Ｏｎｅｓｅｌｆ　Ｃｒｅａｔｉｖｅ合同会社,,合同会社,埼玉県,さいたま市大宮区,桜木町１丁目３７８番地,,11,103,3300854,,,,,,,2022-05-10,1,,,,,ワンセルフクリエイティブ,0
1932,6040001123237,新規,0,2022-05-10,2022-05-10,株式会社技術の杜,,株式会社,千葉県,千葉市花見川区,宮野木台３丁目３番１号,,12,102,2620015,,,,,,,2022-05-10,1,,,,,ギジュツノモリ,0
1933,6040001123253,新規,0,2022-05-10,2022-05-10,株式会社エコガイア,,株式会社,千葉県,柏市,柏の葉１丁目８番地１５,,12,217,2770882,,,,,,,2022-05-10,1,,,,,エコガイア,0
1934,6040001123278,新規,0,2022-05-10,2022-05-10,Ｆｉｒｓｔ　Ｏｆ　Ａｌｌ株式会社,,株式会社,千葉県,市原市,君塚１丁目３番地９,,12,219,2900051,,,,,,,2022-05-10,1,,,,,ファーストオブオール,0
1935,6040001123311,新規,0,2022-05-10,2022-05-10,株式会社ＦＤＫ,,株式会社,千葉県,千葉市中央区,星久喜町６３８番地４１,,12,101,2600808,,,,,,,2022-05-10,1,,,,,エフディーケイ,0
1936,6040001123328,新規,0,2022-05-10,2022-05-10,株式会社前田空調,,株式会社,千葉県,市川市,大野町２丁目１９０５番地１５,,12,203,2720805,,,,,,,2022-05-10,1,,,,,マエダクウチョウ,0
1937,6040001123352,新規,0,2022-05-10,2022-05-10,みらいモータース株式会社,,株式会社,千葉県,八街市,八街ろ１８５番地１４３シャトーレのぞみ３０１,,12,230,2891144,,,,,,,2022-05-10,1,,,,,ミライモータース,0
1941,6040003020003,新規,0,2022-05-10,2022-05-10,合同会社ｏｎｅ＆ｂｅ,,合同会社,千葉県,柏市,富里２丁目３番２９－２０７号,,12,217,2770081,,,,,,,2022-05-10,1,,,,,ワンアンドビー,0
1945,6050001051040,新規,0,2022-05-10,2022-05-10,株式会社熊田家,,株式会社,茨城県,常総市,水海道山田町４７４６番地２,,08,211,3030031,,,,,,,2022-05-10,1,,,,,クマダヤ,0
1946,6050001051049,新規,0,2022-05-10,2022-05-10,株式会社ゼロイチ,,株式会社,茨城県,取手市,本郷１丁目６番３０号,,08,217,3020022,,,,,,,2022-05-10,1,,,,,ゼロイチ,0
1947,6050001051057,新規,0,2022-05-10,2022-05-10,株式会社いちばん亭,,株式会社,茨城県,小美玉市,堅倉１６１５番地３４,,08,236,3190106,,,,,,,2022-05-10,1,,,,,イチバンテイ,0
1949,6050003006546,新規,0,2022-05-10,2022-05-10,合同会社オール,,合同会社,茨城県,鉾田市,串挽１１２３番地１１,,08,234,3111523,,,,,,,2022-05-10,1,,,,,オール,0
1951,6060001034837,新規,0,2022-05-10,2022-05-10,株式会社戸上建築,,株式会社,栃木県,那須郡那須町,大字寄居１０５８番地,,09,407,3293441,,,,,,,2022-05-10,1,,,,,トガミケンチク,0
1960,6070001039208,新規,0,2022-05-10,2022-05-10,美真総合リフォーム株式会社,,株式会社,群馬県,高崎市,上大類町４６６番地２０,,10,202,3700031,,,,,,,2022-05-10,1,,,,,ビシンソウゴウリフォーム,0
1965,6080101023275,新規,0,2022-05-10,2022-05-10,エンライフジョイ株式会社,,株式会社,静岡県,伊東市,荻１１９番地の１,,22,208,4140053,,,,,,,2022-05-10,1,,,,,エンライフジョイ,0
1967,6080405007453,新規,0,2022-05-10,2022-05-10,行政書士法人ふたば,,その他の設立登記法人,静岡県,浜松市中区,南浅田２丁目２番１１号,,22,131,4328044,,,,,,,2022-05-10,1,,,,,フタバ,0
1973,6100001035302,新規,0,2022-05-10,2022-05-10,株式会社丘の上ファーム,,株式会社,長野県,下伊那郡豊丘村,大字神稲４５０２番地２,,20,416,3993202,,,,,,,2022-05-10,1,,,,,オカノウエファーム,0
1974,6100001035310,新規,0,2022-05-10,2022-05-10,株式会社ヤマガエンジニア,,株式会社,長野県,長野市,大字富竹８４３番地３,,20,201,3810006,,,,,,,2022-05-10,1,,,,,ヤマガエンジニア,0
1975,6100001035319,新規,0,2022-05-10,2022-05-10,株式会社ＹＡＭＡＵＲＡ,,株式会社,長野県,上水内郡飯綱町,大字倉井４５５８番地１,,20,590,3891204,,,,,,,2022-05-10,1,,,,,ヤマウラ,0
1976,6100003006532,新規,0,2022-05-10,2022-05-10,合同会社サステナブルアシスト,,合同会社,長野県,伊那市,山寺２６１５－３,,20,209,3960023,,,,,,,2022-05-10,1,,,,,サステナブルアシスト,0
1978,6110001036638,新規,0,2022-05-10,2022-05-10,株式会社ソウマ,,株式会社,新潟県,阿賀野市,山口町１丁目３番４号,,15,223,9592005,,,,,,,2022-05-10,1,,,,,ソウマ,0
1979,6110001036646,新規,0,2022-05-10,2022-05-10,クレッシェンドコンサルティング株式会社,,株式会社,新潟県,新潟市中央区,本町通６番町１１４１番地１ストークビル新潟一番館３階Ｃｒｏｓｓｉｎｇ本町３０４号,,15,103,9518067,,,,,,,2022-05-10,1,,,,,クレッシェンドコンサルティング,0
1988,6120001245675,新規,0,2022-05-10,2022-05-10,ＴＫＴアセット株式会社,,株式会社,大阪府,大阪市平野区,流町１丁目１番２３号,,27,126,5470032,,,,,,,2022-05-10,1,,,,,ティーケーティーアセット,0
1989,6120001245683,新規,0,2022-05-10,2022-05-10,テイク電気工事株式会社,,株式会社,大阪府,大阪市城東区,放出西２丁目７番３０号,,27,118,5360011,,,,,,,2022-05-10,1,,,,,テイクデンキコウジ,0
1990,6120001245691,新規,0,2022-05-10,2022-05-10,ｂｏｎｄ１００株式会社,,株式会社,大阪府,大阪市此花区,春日出北２丁目１１－１,,27,104,5540021,,,,,,,2022-05-10,1,,,,,ボンドヒャク,0
1991,6120001245709,新規,0,2022-05-10,2022-05-10,株式会社西村工業,,株式会社,大阪府,大阪市西淀川区,野里１丁目８番２４－２０５号,,27,113,5550024,,,,,,,2022-05-10,1,,,,,ニシムラコウギョウ,0
1992,6120001245717,新規,0,2022-05-10,2022-05-10,株式会社サンパティック,,株式会社,大阪府,大阪市中央区,中寺１丁目３番２３－１４０１号,,27,128,5420065,,,,,,,2022-05-10,1,,,,,サンパティック,0
1993,6120001245725,新規,0,2022-05-10,2022-05-10,ティックス株式会社,,株式会社,大阪府,大阪市中央区,南久宝寺町４丁目１番１号,,27,128,5410058,,,,,,,2022-05-10,1,,,,,ティックス,0
1994,6120001245741,新規,0,2022-05-10,2022-05-10,株式会社ＡＣＴＩＶＥ,,株式会社,大阪府,大阪市中央区,博労町１丁目４番６号,,27,128,5410059,,,,,,,2022-05-10,1,,,,,アクティブ,0
1995,6120001245766,新規,0,2022-05-10,2022-05-10,株式会社Ｈａｎａ,,株式会社,大阪府,大阪市住之江区,中加賀屋３丁目６番１３号,,27,125,5590017,,,,,,,2022-05-10,1,,,,,ハナ,0
1996,6120001245774,新規,0,2022-05-10,2022-05-10,株式会社エムキューブ,,株式会社,大阪府,大阪市中央区,高津１丁目１０番１８号栄光ビル６０３号室,,27,128,5420072,,,,,,,2022-05-10,1,,,,,エムキューブ,0
1997,6120001245782,新規,0,2022-05-10,2022-05-10,株式会社ＤＡＷＮ‐５,,株式会社,大阪府,大阪市北区,豊崎３丁目１５番５号ＴＫビル２Ｆ,,27,127,5310072,,,,,,,2022-05-10,1,,,,,ドーンファイブ,0
2001,6120003021620,新規,0,2022-05-10,2022-05-10,中川商店合同会社,,合同会社,大阪府,枚方市,北中振３丁目２２番１３号,,27,210,5730064,,,,,,,2022-05-10,1,,,,,ナカガワショウテン,0
2002,6120003021629,新規,0,2022-05-10,2022-05-10,合同会社ｖｉｖａｃｅ,,合同会社,大阪府,大阪市生野区,林寺５丁目５番１２号,,27,116,5440023,,,,,,,2022-05-10,1,,,,,ヴィヴァーチェ,0
2003,6120003021637,新規,0,2022-05-10,2022-05-10,一行合同会社,,合同会社,大阪府,大阪市住之江区,南加賀屋２丁目５番１４号,,27,125,5590015,,,,,,,2022-05-10,1,,,,,イチギョウ,0
2009,6120101065511,新規,0,2022-05-10,2022-05-10,株式会社パッサー,,株式会社,大阪府,堺市堺区,綾之町東１丁１番５－６号,,27,141,5900925,,,,,,,2022-05-10,1,,,,,パッサー,0
2010,6120101065528,新規,0,2022-05-10,2022-05-10,株式会社Ｗａｌｌｓｔｏｎｅ,,株式会社,大阪府,河内長野市,西代町６番２１号,,27,216,5860016,,,,,,,2022-05-10,1,,,,,ウォールストーン,0
2011,6120101065552,新規,0,2022-05-10,2022-05-10,株式会社Ｃａｅａｎ,,株式会社,大阪府,堺市南区,庭代台２丁３－２５,,27,145,5900133,,,,,,,2022-05-10,1,,,,,カエアン,0
2014,6120103004681,新規,0,2022-05-10,2022-05-10,合同会社ｃｒｅａｍ,,合同会社,大阪府,泉大津市,戎町６番３６号,,27,206,5950041,,,,,,,2022-05-10,1,,,,,クリーム,0
2025,6130003007916,新規,0,2022-05-10,2022-05-10,合同会社Ｐ＆Ｃ３,,合同会社,京都府,京都市中京区,高倉通蛸薬師下る貝屋町５５８澤田ビル３Ｆ,,26,104,6048126,,,,,,,2022-05-10,1,,,,,ピーアンドシースリー,0
2026,6130005016469,新規,0,2022-05-10,2022-05-10,特定非営利活動法人東行社,,その他の設立登記法人,京都府,京都市南区,吉祥院嶋樫山町６０,,26,107,6018371,,,,,,,2022-05-10,1,,,,,トウギョウシャ,0
2037,6140001125875,新規,0,2022-05-10,2022-05-10,株式会社光興業,,株式会社,兵庫県,相生市,若狭野町野々１１３４番地,,28,208,6780082,,,,,,,2022-05-10,1,,,,,ヒカリコウギョウ,0
2038,6140001125883,新規,0,2022-05-10,2022-05-10,株式会社Ｎｏｖｏ,,株式会社,兵庫県,宝塚市,高司１丁目３番８号,,28,214,6650051,,,,,,,2022-05-10,1,,,,,ノーボ,0
2039,6140001125900,新規,0,2022-05-10,2022-05-10,株式会社カサブランカ,,株式会社,兵庫県,宝塚市,武庫川町１番５号,,28,214,6650844,,,,,,,2022-05-10,1,,,,,カサブランカ,0
2040,6140001125917,新規,0,2022-05-10,2022-05-10,株式会社中島工業,,株式会社,兵庫県,姫路市,東今宿３丁目５番２０号今村店舗２Ｆ東,,28,201,6700056,,,,,,,2022-05-10,1,,,,,ナカシマコウギョウ,0
2043,6150001025513,新規,0,2022-05-10,2022-05-10,エイ・ペックス株式会社,,株式会社,奈良県,葛城市,新庄２４番地,,29,211,6392147,,,,,,,2022-05-10,1,,,,,エイペックス,0
2044,6150003002675,新規,0,2022-05-10,2022-05-10,合同会社ルーディ,,合同会社,奈良県,奈良市,学園南３丁目４番２２号,,29,201,6310034,,,,,,,2022-05-10,1,,,,,ルーディ,0
2045,6160001024167,新規,0,2022-05-10,2022-05-10,株式会社ＥＮＯＮ,,株式会社,滋賀県,高島市,朽木雲洞谷９３５番地,,25,212,5201453,,,,,,,2022-05-10,1,,,,,エノン,0
2046,6160001024175,新規,0,2022-05-10,2022-05-10,株式会社寿,,株式会社,滋賀県,草津市,木川町２３３番地,,25,206,5250051,,,,,,,2022-05-10,1,,,,,コトブキ,0
2054,6180001151240,新規,0,2022-05-10,2022-05-10,株式会社自在クリエイト,,株式会社,愛知県,名古屋市天白区,植田３丁目１２０８番地,,23,116,4680051,,,,,,,2022-05-10,1,,,,,ジザイクリエイト,0
2059,6180301036190,新規,0,2022-05-10,2022-05-10,株式会社やすむろ事務所,,株式会社,愛知県,豊川市,諏訪２丁目４２５番地,,23,207,4420068,,,,,,,2022-05-10,1,,,,,ヤスムロジムショ,0
2060,6180301036199,新規,0,2022-05-10,2022-05-10,株式会社ニシムラデザインワークス,,株式会社,愛知県,蒲郡市,豊岡町薮田１９番地１５,,23,214,4430011,,,,,,,2022-05-10,1,,,,,ニシムラデザインワークス,0
2061,6180301036208,新規,0,2022-05-10,2022-05-10,サンクスゲート株式会社,,株式会社,愛知県,みよし市,打越町島ノ山８２番地１,,23,236,4700213,,,,,,,2022-05-10,1,,,,,,0
2063,6190001029394,新規,0,2022-05-10,2022-05-10,株式会社里守人,,株式会社,三重県,亀山市,関町新所１７４４番地,,24,210,5191111,,,,,,,2022-05-10,1,,,,,サトモリ,0
2065,6190003003983,新規,0,2022-05-10,2022-05-10,エクセル合同会社,,合同会社,三重県,南牟婁郡紀宝町,鵜殿８１４番地１０,,24,562,5195701,,,,,,,2022-05-10,1,,,,,エクセル,0
2070,6200001040060,新規,0,2022-05-10,2022-05-10,藤田設備株式会社,,株式会社,岐阜県,海津市,平田町高田９７９番地２,,21,221,5030313,,,,,,,2022-05-10,1,,,,,フジタセツビ,0
2077,6220003003278,新規,0,2022-05-10,2022-05-10,ｅ’Ｍｉｒｉｎｏ合同会社,,合同会社,石川県,野々市市,二日市５丁目２２４,,17,212,9218809,,,,,,,2022-05-10,1,,,,,エミリノ,0
2081,6240001059717,新規,0,2022-05-10,2022-05-10,株式会社共栄作物,,株式会社,広島県,広島市佐伯区,皆賀３丁目８番１１号,,34,108,7315124,,,,,,,2022-05-10,1,,,,,キョウエイサクモツ,0
2082,6240001059758,新規,0,2022-05-10,2022-05-10,株式会社伸栄電設,,株式会社,広島県,安芸郡府中町,浜田１丁目３番４０－８号,,34,302,7350013,,,,,,,2022-05-10,1,,,,,シンエイデンセツ,0
2086,6250001019538,新規,0,2022-05-10,2022-05-10,株式会社ケーティマリックスホールディングス,,株式会社,山口県,下関市,南部町２０番３－５０３号,,35,201,7500006,,,,,,,2022-05-10,1,,,,,ケーティマリックスホールディングス,0
2088,6250003003060,新規,0,2022-05-10,2022-05-10,合同会社エスピリト,,合同会社,山口県,下松市,瑞穂町１丁目１５番１８号,,35,207,7440075,,,,,,,2022-05-10,1,,,,,エスピリト,0
2090,6260001036838,新規,0,2022-05-10,2022-05-10,株式会社Ｒｅｃｅｐｔｉｏｎ,,株式会社,岡山県,岡山市北区,中央町３－３０クリスタルビル４Ｆ４０１,,33,101,7000836,,,,,,,2022-05-10,1,,,,,レセプション,0
2094,6290001097415,新規,0,2022-05-10,2022-05-10,株式会社浦川設備,,株式会社,福岡県,福岡市早良区,小田部２丁目７番１５号,,40,137,8140032,,,,,,,2022-05-10,1,,,,,ウラカワセツビ,0
2095,6290001097456,新規,0,2022-05-10,2022-05-10,アシダ製菓株式会社,,株式会社,福岡県,福岡市東区,箱崎７丁目２０番１号,,40,131,8120053,,,,,,,2022-05-10,1,,,,,アシダセイカ,0
2096,6290001097472,新規,0,2022-05-10,2022-05-10,株式会社インステック・アール,,株式会社,福岡県,久留米市,御井町２１６１番地１ルナリアス３０３号室,,40,203,8390851,,,,,,,2022-05-10,1,,,,,インステックアール,0
2104,6290801028503,新規,0,2022-05-10,2022-05-10,株式会社ｈｅｌｌｂｌａｕ,,株式会社,福岡県,北九州市八幡西区,八枝３丁目４番１号,,40,109,8070856,,,,,,,2022-05-10,1,,,,,ヘルブラウ,0
2105,6290801028511,新規,0,2022-05-10,2022-05-10,株式会社優花の森,,株式会社,福岡県,築上郡上毛町,大字吉岡５９５番地１,,40,646,8710912,,,,,,,2022-05-10,1,,,,,ユウカノモリ,0
2106,6290803004122,新規,0,2022-05-10,2022-05-10,キュウリン合同会社,,合同会社,福岡県,北九州市戸畑区,中本町１１番２号前田ビルＢ号室,,40,105,8040061,,,,,,,2022-05-10,1,,,,,,0
2107,6300001012925,新規,0,2022-05-10,2022-05-10,株式会社ＬＡＦＡ,,株式会社,佐賀県,佐賀市,駅前中央１丁目７番８－３０１号,,41,201,8400801,,,,,,,2022-05-10,1,,,,,ラーファ,0
2108,6310003004358,新規,0,2022-05-10,2022-05-10,合同会社ＥＭＷ,,合同会社,長崎県,長崎市,中川１丁目５番２５－４０５号,,42,201,8500013,,,,,,,2022-05-10,1,,,,,イーエムダブリュ,0
2109,6310005008613,新規,0,2022-05-10,2022-05-10,土地家屋調査士法人秋寄事務所,,その他の設立登記法人,長崎県,大村市,東本町２４番地１,,42,205,8560831,,,,,,,2022-05-10,1,,,,,アキヨセジムショ,0
2110,6320001019051,新規,0,2022-05-10,2022-05-10,株式会社ククラズ,,株式会社,大分県,大分市,中央町２丁目２番１８号豊国屋ビル２０２,,44,201,8700035,,,,,,,2022-05-10,1,,,,,ククラズ,0
2115,6320003003805,新規,0,2022-05-10,2022-05-10,合同会社立花興業,,合同会社,大分県,大分市,大字神崎１７１番地の１５,,44,201,8700100,,,,,,,2022-05-10,1,,,,,タチバナコウギョウ,0
2117,6330001029702,新規,0,2022-05-10,2022-05-10,株式会社キヨマサ,,株式会社,熊本県,熊本市東区,長嶺南８丁目２番３０－３号,,43,102,8618039,,,,,,,2022-05-10,1,,,,,キヨマサ,0
2119,6340001024710,新規,0,2022-05-10,2022-05-10,株式会社チームチェスト,,株式会社,鹿児島県,霧島市,横川町上ノ４４０６番地,,46,218,8996301,,,,,,,2022-05-10,1,,,,,チームチェスト,0
2120,6350001017721,新規,0,2022-05-10,2022-05-10,株式会社赤木林業,,株式会社,宮崎県,延岡市,北川町川内名７２０６番地４,,45,203,8890101,,,,,,,2022-05-10,1,,,,,アカギリンギョウ,0
2121,6360001030392,新規,0,2022-05-10,2022-05-10,株式会社マカト,,株式会社,沖縄県,那覇市,泉崎１丁目１６番１４号,,47,201,9000021,,,,,,,2022-05-10,1,,,,,マカト,0
2124,6370001048517,新規,0,2022-05-10,2022-05-10,株式会社ティープランニング,,株式会社,宮城県,仙台市太白区,中田町字後河原３番地の１７,,04,104,9811103,,,,,,,2022-05-10,1,,,,,ティープランニング,0
2125,6370001048533,新規,0,2022-05-10,2022-05-10,株式会社イエワークス,,株式会社,宮城県,仙台市泉区,長命ケ丘３丁目２７番３号オメガコートビル２階,,04,105,9813212,,,,,,,2022-05-10,1,,,,,イエワークス,0
2126,6370001048541,新規,0,2022-05-10,2022-05-10,木村建工株式会社,,株式会社,宮城県,石巻市,鹿又字小金袋１２４番地２,,04,202,9861111,,,,,,,2022-05-10,1,,,,,キムラケンコウ,0
2134,6410005006466,新規,0,2022-05-10,2022-05-10,行政書士法人ライゼル,,その他の設立登記法人,秋田県,大仙市,富士見町８番１４号,,05,212,0140011,,,,,,,2022-05-10,1,,,,,ライゼル,0
2137,6420005007810,新規,0,2022-05-10,2022-05-10,ＮＰＯ法人情熱七戸,,その他の設立登記法人,青森県,上北郡七戸町,字蒼前１９番地,,02,402,0392515,,,,,,,2022-05-10,1,,,,,エヌピーオーホウジンジョウネツシチノヘ,0
2139,6430001086535,新規,0,2022-05-10,2022-05-10,ＭＫ株式会社,,株式会社,北海道,登別市,新川町４丁目３２番地５,,01,230,0590015,,,,,,,2022-05-10,1,,,,,エムケー,0
2140,6430001086551,新規,0,2022-05-10,2022-05-10,株式会社札幌建装社,,株式会社,北海道,札幌市北区,百合が原１１丁目１８８番地,,01,102,0028081,,,,,,,2022-05-10,1,,,,,サッポロケンソウシャ,0
2141,6450001013693,新規,0,2022-05-10,2022-05-10,株式会社ネクストディケイドコンサルティング,,株式会社,北海道,旭川市,神楽五条１０丁目１番１７号,,01,204,0708005,,,,,,,2022-05-10,1,,,,,ネクストディケイドコンサルティング,0
2145,6500001024207,新規,0,2022-05-10,2022-05-10,株式会社ワールドブレイン,,株式会社,愛媛県,松山市,安城寺町２６３番地１１,,38,201,7918006,,,,,,,2022-05-10,1,,,,,ワールドブレイン,0
2158,7010001226371,新規,0,2022-05-10,2022-05-10,リベイル株式会社,,株式会社,東京都,中央区,銀座１丁目１２－４Ｎ＆Ｅ、ＢＬＤ．７階,,13,102,1040061,,,,,,,2022-05-10,1,,,,,リベイル,0
2159,7010001226405,新規,0,2022-05-10,2022-05-10,イチニーイチサン株式会社,,株式会社,東京都,千代田区,神田佐久間町１丁目１４番第２東ビル３０３,,13,101,1010025,,,,,,,2022-05-10,1,,,,,イチニーイチサン,0
2160,7010001226446,新規,0,2022-05-10,2022-05-10,株式会社プルミエモンテ,,株式会社,東京都,千代田区,神田紺屋町６番地１,,13,101,1010035,,,,,,,2022-05-10,1,,,,,プルミエモンテ,0
2161,7010001226454,新規,0,2022-05-10,2022-05-10,株式会社エーステック,,株式会社,東京都,中央区,月島２丁目２番８－５０３号,,13,102,1040052,,,,,,,2022-05-10,1,,,,,エーステック,0
2162,7010001226495,新規,0,2022-05-10,2022-05-10,株式会社ＩＲＯＤＯＲＩ,,株式会社,東京都,文京区,関口１丁目３２番１０号文京石黒ビル１階,,13,105,1120014,,,,,,,2022-05-10,1,,,,,イロドリ,0
2163,7010003037429,新規,0,2022-05-10,2022-05-10,合同会社グッドロータス,,合同会社,東京都,大島町,元町出払４１７番１００,,13,361,1000101,,,,,,,2022-05-10,1,,,,,グッドロータス,0
2164,7010003037619,新規,0,2022-05-10,2022-05-10,テクラ技研合同会社,,合同会社,東京都,千代田区,岩本町２丁目１０番９号岩本町手塚ビル６Ｆ,,13,101,1010032,,,,,,,2022-05-10,1,,,,,テクラギケン,0
2167,7010005034977,新規,0,2022-05-10,2022-05-10,弁理士法人加藤国際特許事務所,,その他の設立登記法人,東京都,千代田区,神田須田町１丁目２８番,,13,101,1010041,,,,,,,2022-05-10,1,,,,,カトウコクサイトッキョジムショ,0
2168,7010005034985,新規,0,2022-05-10,2022-05-10,一般社団法人博愛会,,その他の設立登記法人,東京都,中央区,銀座１丁目２２番１１号銀座大竹ビジデンス２階,,13,102,1040061,,,,,,,2022-05-10,1,,,,,ハクアイカイ,0
2171,7010401166936,新規,0,2022-05-10,2022-05-10,ＯＣＥＡＮ’Ｓ株式会社,,株式会社,東京都,港区,麻布十番２丁目２０番７号,,13,103,1060045,,,,,,,2022-05-10,1,,,,,オーシャンズ,0
2172,7010401167109,新規,0,2022-05-10,2022-05-10,株式会社Ｗｉｔｈ　ｙｏｕ,,株式会社,東京都,港区,南青山２丁目２番１５号ウィン青山９４２,,13,103,1070062,,,,,,,2022-05-10,1,,,,,ウィズユー,0
2173,7010401167240,新規,0,2022-05-10,2022-05-10,株式会社ＥＧＧ,,株式会社,東京都,港区,北青山３丁目１－６、３１６青山５０１号室,,13,103,1070061,,,,,,,2022-05-10,1,,,,,エッグ,0
2175,7010403027632,新規,0,2022-05-10,2022-05-10,合同会社ロッソＳＰ１,,合同会社,東京都,港区,六本木４丁目３番２１号,,13,103,1060032,,,,,,,2022-05-10,1,,,,,ロッソエスピーワン,0
2187,7010701042606,新規,0,2022-05-10,2022-05-10,株式会社ＫａＵＰメディカルコンサルティング,,株式会社,東京都,品川区,北品川３丁目７番１１－４０５号,,13,109,1400001,,,,,,,2022-05-10,1,,,,,カップメディカルコンサルティング,0
2188,7010701042614,新規,0,2022-05-10,2022-05-10,株式会社グロリアス,,株式会社,東京都,品川区,西五反田８丁目１番１２号アール五反田７Ａ,,13,109,1410031,,,,,,,2022-05-10,1,,,,,グロリアス,0
2192,7010801032936,新規,0,2022-05-10,2022-05-10,若杉木工株式会社,,株式会社,東京都,大田区,南馬込３丁目１２番２３号,,13,111,1430025,,,,,,,2022-05-10,1,,,,,ワカスギモッコウ,0
2194,7010803004165,新規,0,2022-05-10,2022-05-10,合同会社ラグナシステム,,合同会社,東京都,大田区,上池台２丁目２５－１,,13,111,1450064,,,,,,,2022-05-10,1,,,,,ラグナシステム,0
2203,7011001147327,新規,0,2022-05-10,2022-05-10,株式会社Ｔｈｅ　Ｆｏｕｎｄｅｒｓ　ＪＡＰＡＮ,,株式会社,東京都,渋谷区,幡ヶ谷３丁目３９番１２号渋谷ウェストビル１階,,13,113,1510072,,,,,,,2022-05-10,1,,,,,ザファウンダーズジャパン,0
2204,7011001147418,新規,0,2022-05-10,2022-05-10,株式会社Ｎｅｏ　Ａｎｅｍｏｓ,,株式会社,東京都,渋谷区,道玄坂１丁目１０番８号渋谷道玄坂東急ビル２Ｆ―Ｃ,,13,113,1500043,,,,,,,2022-05-10,1,,,,,ネオアネモス,0
2206,7011003014541,新規,0,2022-05-10,2022-05-10,合同会社Ｂｏｏｓｔｅｒ,,合同会社,東京都,渋谷区,道玄坂１丁目１０番８号渋谷道玄坂東急ビル２Ｆ―Ｃ,,13,113,1500043,,,,,,,2022-05-10,1,,,,,ブースター,0
2210,7011101098742,新規,0,2022-05-10,2022-05-10,株式会社ＰＯＫＥＲ　ＢＲＯＴＨＥＲＳ,,株式会社,東京都,新宿区,歌舞伎町１丁目２２番９号Ｊゴールドビル６階,,13,104,1600021,,,,,,,2022-05-10,1,,,,,ポーカーブラザーズ,0
2211,7011101098750,新規,0,2022-05-10,2022-05-10,株式会社ＨＩＲＯＧＡＲＵ,,株式会社,東京都,新宿区,下落合４丁目５番７号,,13,104,1610033,,,,,,,2022-05-10,1,,,,,ヒロガル,0
2212,7011101098759,新規,0,2022-05-10,2022-05-10,Ｆｏｒｃｕｓ株式会社,,株式会社,東京都,新宿区,西新宿１丁目２６番２号新宿野村ビル３２階,,13,104,1600023,,,,,,,2022-05-10,1,,,,,フォーカス,0
2218,7011403003656,新規,0,2022-05-10,2022-05-10,合同会社東京消防設備点検研究所,,合同会社,東京都,板橋区,高島平９丁目２－２０－１４０５,,13,119,1750082,,,,,,,2022-05-10,1,,,,,トウキョウショウボウセツビテンケンケンキュウショ,0
2220,7011501028010,新規,0,2022-05-10,2022-05-10,三誠加工株式会社,,株式会社,東京都,荒川区,東尾久２丁目１１番１１号,,13,118,1160012,,,,,,,2022-05-10,1,,,,,サンセイカコウ,0
2223,7011601025931,新規,0,2022-05-10,2022-05-10,株式会社ＱＵＯＲＩ,,株式会社,東京都,練馬区,羽沢２丁目３１番８－３０３号,,13,120,1760003,,,,,,,2022-05-10,1,,,,,クオリ,0
2225,7011605002448,新規,0,2022-05-10,2022-05-10,特定非営利活動法人モーニンググローリー,,その他の設立登記法人,東京都,練馬区,大泉学園町６丁目２７番３１号パークハウス大泉Ｃ－７,,13,120,1780061,,,,,,,2022-05-10,1,,,,,モーニンググローリー,0
2230,7011801040689,新規,0,2022-05-10,2022-05-10,ＳＡＷＡＺ株式会社,,株式会社,東京都,足立区,花畑１丁目９－１３,,13,121,1210061,,,,,,,2022-05-10,1,,,,,サワズ,0
2233,7012401039171,新規,0,2022-05-10,2022-05-10,株式会社ｒａｖｅｎｓ‐ｓｔｕｄｉｏ,,株式会社,東京都,武蔵野市,吉祥寺南町３丁目２４－３クラッシー吉祥寺・斉藤ビル２Ｂ,,13,203,1800003,,,,,,,2022-05-10,1,,,,,レイヴンズスタジオ,0
2234,7012401039188,新規,0,2022-05-10,2022-05-10,株式会社調布竹屋,,株式会社,東京都,調布市,上石原１丁目４０番地１,,13,208,1820035,,,,,,,2022-05-10,1,,,,,チョウフタケヤ,0
2236,7012403005353,新規,0,2022-05-10,2022-05-10,フツララ合同会社,,合同会社,東京都,多摩市,連光寺１丁目２番地１ライオンズ聖蹟桜ヶ丘パシーナ７０２,,13,224,2060021,,,,,,,2022-05-10,1,,,,,フツララ,0
2239,7012703002455,新規,0,2022-05-10,2022-05-10,合同会社マルイ商会,,合同会社,東京都,清瀬市,中里２丁目１４４６番地５,,13,221,2040003,,,,,,,2022-05-10,1,,,,,マルイショウカイ,0
2240,7012803002768,新規,0,2022-05-10,2022-05-10,合同会社なぎ,,合同会社,東京都,立川市,砂川町２丁目９番地の２１,,13,202,1900031,,,,,,,2022-05-10,1,,,,,ナギ,0
2244,7013301049062,新規,0,2022-05-10,2022-05-10,株式会社東京コンサル,,株式会社,東京都,豊島区,東池袋１丁目３４番５号いちご東池袋ビル６Ｆ,,13,116,1700013,,,,,,,2022-05-10,1,,,,,トウキョウコンサル,0
2245,7013303006144,新規,0,2022-05-10,2022-05-10,合同会社ＳＫビューティー,,合同会社,東京都,豊島区,池袋２丁目２３番３号橘ビル６Ｆ,,13,116,1710014,,,,,,,2022-05-10,1,,,,,エスケービューティー,0
2253,7020001146395,新規,0,2022-05-10,2022-05-10,株式会社華成商行,,株式会社,神奈川県,横浜市南区,井土ケ谷中町３７番６号２Ｆ,,14,105,2320052,,,,,,,2022-05-10,1,,,,,カセイショウコウ,0
2254,7020001146404,新規,0,2022-05-10,2022-05-10,株式会社新日本メディア,,株式会社,神奈川県,横浜市港北区,綱島西１丁目１番３２号シックスセンス５階,,14,109,2230053,,,,,,,2022-05-10,1,,,,,シンニホンメディア,0
2255,7020001146412,新規,0,2022-05-10,2022-05-10,株式会社ＢｒｏＷｉｎｇ,,株式会社,神奈川県,横浜市鶴見区,市場下町３番２６－５０６号ネオマイム鶴見市場,,14,101,2300024,,,,,,,2022-05-10,1,,,,,ブローウィング,0
2258,7020003021720,新規,0,2022-05-10,2022-05-10,Ｇｒａｎｄｅ‐Ｔｏｒ合同会社,,合同会社,神奈川県,横浜市南区,万世町２丁目３８番地大津ビル２－Ａ,,14,105,2320032,,,,,,,2022-05-10,1,,,,,グランデートール,0
2259,7020003021737,新規,0,2022-05-10,2022-05-10,合同会社クラップス,,合同会社,神奈川県,横浜市神奈川区,片倉１丁目３０番３０－３０９号,,14,102,2210865,,,,,,,2022-05-10,1,,,,,クラップス,0
2260,7020005015522,新規,0,2022-05-10,2022-05-10,医療法人彗鳳会,,その他の設立登記法人,神奈川県,横浜市旭区,都岡町２０番地１２マンションレオ１階１０３,,14,112,2410805,,,,,,,2022-05-10,1,,,,,スイオウカイ,0
2263,7021001075873,新規,0,2022-05-10,2022-05-10,株式会社ワンモアプレイ,,株式会社,神奈川県,藤沢市,辻堂元町２丁目１０番３６号,,14,205,2510043,,,,,,,2022-05-10,1,,,,,ワンモアプレイ,0
2264,7021001075881,新規,0,2022-05-10,2022-05-10,大解株式会社,,株式会社,神奈川県,横須賀市,馬堀海岸１丁目４番３号,,14,201,2390801,,,,,,,2022-05-10,1,,,,,ダイカイ,0
2271,7030001148028,新規,0,2022-05-10,2022-05-10,株式会社旭日,,株式会社,埼玉県,ふじみ野市,西２丁目１２番２２号３,,11,245,3560005,,,,,,,2022-05-10,1,,,,,アサヒ,0
2272,7030001148036,新規,0,2022-05-10,2022-05-10,東陽株式会社,,株式会社,埼玉県,さいたま市浦和区,本太３丁目２９番１－１１０１号,,11,107,3300052,,,,,,,2022-05-10,1,,,,,トウヨウ,0
2273,7030001148044,新規,0,2022-05-10,2022-05-10,株式会社ベアファクトリー,,株式会社,埼玉県,さいたま市大宮区,宮町４丁目１１４番地１－２０５号,,11,103,3300802,,,,,,,2022-05-10,1,,,,,ベアファクトリー,0
2274,7030001148060,新規,0,2022-05-10,2022-05-10,Ｆｒｅｅｄｏｍ　Ｓｔｙｌｅ株式会社,,株式会社,埼玉県,さいたま市岩槻区,大字馬込１５１４番地２,,11,110,3390077,,,,,,,2022-05-10,1,,,,,フリーダムスタイル,0
2275,7030001148069,新規,0,2022-05-10,2022-05-10,株式会社ＭＡＲＫＥＴ,,株式会社,埼玉県,大里郡寄居町,大字折原８１３番地１,,11,408,3691234,,,,,,,2022-05-10,1,,,,,マーケット,0
2276,7030001148110,新規,0,2022-05-10,2022-05-10,株式会社アンジュ,,株式会社,埼玉県,和光市,新倉１丁目１１番７１号,,11,229,3510115,,,,,,,2022-05-10,1,,,,,アンジュ,0
2277,7030001148127,新規,0,2022-05-10,2022-05-10,株式会社３５８,,株式会社,埼玉県,越谷市,東越谷５丁目１８番地１２,,11,222,3430023,,,,,,,2022-05-10,1,,,,,サンゴウハチ,0
2278,7030001148135,新規,0,2022-05-10,2022-05-10,ミリオン部品株式会社,,株式会社,埼玉県,狭山市,富士見２丁目１９番３３号,,11,215,3501306,,,,,,,2022-05-10,1,,,,,ミリオンブヒン,0
2287,7040001123260,新規,0,2022-05-10,2022-05-10,株式会社丸信,,株式会社,千葉県,千葉市稲毛区,黒砂２丁目６番１１号,,12,103,2630042,,,,,,,2022-05-10,1,,,,,マルシン,0
2288,7040001123269,新規,0,2022-05-10,2022-05-10,株式会社Ｂｅａｕｔｙ＆Ｒａｙ,,株式会社,千葉県,千葉市稲毛区,園生町１１１１番地１プチモンド稲毛３０１号,,12,103,2630051,,,,,,,2022-05-10,1,,,,,ビューティーアンドレイ,0
2289,7040001123302,新規,0,2022-05-10,2022-05-10,株式会社ＭＩＲＡＦＴ,,株式会社,千葉県,松戸市,根本３５１－１シティテラス松戸１２０６,,12,207,2710077,,,,,,,2022-05-10,1,,,,,ミラフト,0
2290,7040001123327,新規,0,2022-05-10,2022-05-10,ジーアイエヌ株式会社,,株式会社,千葉県,千葉市中央区,中央４丁目８番７号グランデ千葉県庁前ビル２Ｆ,,12,101,2600013,,,,,,,2022-05-10,1,,,,,ジーアイエヌ,0
2291,7040001123351,新規,0,2022-05-10,2022-05-10,株式会社ＳＨＩＮＹＡＭＡ,,株式会社,千葉県,松戸市,栄町西３丁目９９２番地の９,,12,207,2710061,,,,,,,2022-05-10,1,,,,,シンヤマ,0
2294,7040003019886,新規,0,2022-05-10,2022-05-10,合同会社セカンドエフォート,,合同会社,千葉県,市川市,湊新田１丁目１番７―４０５号,,12,203,2720132,,,,,,,2022-05-10,1,,,,,セカンドエフォート,0
2295,7040003020002,新規,0,2022-05-10,2022-05-10,ＤＯＫＥＥＰ合同会社,,合同会社,千葉県,千葉市中央区,神明町１１番地８東葉レジデンス４０１号,,12,101,2600022,,,,,,,2022-05-10,1,,,,,ドゥーケープ,0
2296,7040005021601,新規,0,2022-05-10,2022-05-10,一般社団法人首都圏ＰＣＲ検査機構,,その他の設立登記法人,千葉県,君津市,東坂田１丁目６番１号君津ファーストビル１０１,,12,225,2991144,,,,,,,2022-05-10,1,,,,,シュトケンピーシーアールケンサキコウ,0
2301,7050001051056,新規,0,2022-05-10,2022-05-10,株式会社エフジェイクリーン,,株式会社,茨城県,土浦市,荒川沖東３丁目５番３号,,08,203,3000871,,,,,,,2022-05-10,1,,,,,エフジェイクリーン,0
2302,7060001034836,新規,0,2022-05-10,2022-05-10,株式会社北伸産業,,株式会社,栃木県,那須塩原市,高林１２５３－１５,,09,213,3250107,,,,,,,2022-05-10,1,,,,,ホクシンサンギョウ,0
2304,7070001039181,新規,0,2022-05-10,2022-05-10,株式会社五十鈴Ｐ‐ＨＯＵＳＥ,,株式会社,群馬県,みどり市,笠懸町阿左美２１１３番地１,,10,212,3792311,,,,,,,2022-05-10,1,,,,,イスズピーハウス,0
2305,7070001039207,新規,0,2022-05-10,2022-05-10,木田製作所株式会社,,株式会社,群馬県,甘楽郡甘楽町,大字白倉４４８番地９,,10,384,3702213,,,,,,,2022-05-10,1,,,,,キダセイサクショ,0
2317,7080405007452,新規,0,2022-05-10,2022-05-10,特定非営利活動法人シラスカリフォルニア,,その他の設立登記法人,静岡県,湖西市,白須賀８５３番地の２,,22,221,4310451,,,,,,,2022-05-10,1,,,,,シラスカリフォルニア,0
2318,7090001017557,新規,0,2022-05-10,2022-05-10,株式会社白木造林,,株式会社,山梨県,大月市,七保町瀬戸１８５０番地,,19,206,4090626,,,,,,,2022-05-10,1,,,,,シラキゾウリン,0
2320,7100001035318,新規,0,2022-05-10,2022-05-10,株式会社ＴＡＫＥＺＡＷＡ,,株式会社,長野県,上伊那郡飯島町,飯島２８６３番地６４,,20,384,3993702,,,,,,,2022-05-10,1,,,,,タケザワ,0
2328,7110001036645,新規,0,2022-05-10,2022-05-10,株式会社樽蔵,00126510,株式会社,新潟県,三島郡出雲崎町,大字尼瀬１６０番地,,15,405,9494308,,,,,,,2022-05-10,1,,,,,タルゾウ,0
2339,7120001245484,新規,0,2022-05-10,2022-05-10,ソキアホールディングス株式会社,,株式会社,大阪府,大阪市東淀川区,東中島２丁目９番１５号,,27,114,5330033,,,,,,,2022-05-10,1,,,,,ソキアホールディングス,0
2340,7120001245609,新規,0,2022-05-10,2022-05-10,株式会社テンジンガード,,株式会社,大阪府,大阪市北区,天神橋１丁目１８番２７号天神ビル４０１,,27,127,5300041,,,,,,,2022-05-10,1,,,,,テンジンガード,0
2341,7120001245674,新規,0,2022-05-10,2022-05-10,株式会社トライアングル,,株式会社,大阪府,大阪市住之江区,東加賀屋１丁目１０番１１号,,27,125,5590012,,,,,,,2022-05-10,1,,,,,トライアングル,0
2342,7120001245708,新規,0,2022-05-10,2022-05-10,株式会社ＶＡＲＲＯＷＳ,,株式会社,大阪府,大阪市北区,長柄東１丁目４番２３－５０１号,,27,127,5310063,,,,,,,2022-05-10,1,,,,,ヴァロウズ,0
2343,7120001245724,新規,0,2022-05-10,2022-05-10,株式会社ＰＥＡＣＥＫＩＤＳ,,株式会社,大阪府,大阪市北区,天神橋７丁目１５－１１,,27,127,5310041,,,,,,,2022-05-10,1,,,,,ピースキッズ,0
2344,7120001245740,新規,0,2022-05-10,2022-05-10,株式会社ＫＯＵＳＥＩ,,株式会社,大阪府,大阪市生野区,巽北３丁目１２番２７号,00126487,27,116,5440004,,,,,,,2022-05-10,1,,,,,コウセイ,0
2345,7120001245749,新規,0,2022-05-10,2022-05-10,株式会社ＣＩＴＹ,,株式会社,大阪府,大阪市旭区,今市１丁目１３番３号,,27,117,5350011,,,,,,,2022-05-10,1,,,,,シティ,0
2346,7120001245757,新規,0,2022-05-10,2022-05-10,ＬＩＦＥ　ＯＮＥ株式会社,,株式会社,大阪府,門真市,野里町１５番５－Ａ号,,27,223,5710079,,,,,,,2022-05-10,1,,,,,ライフワン,0
2347,7120001245765,新規,0,2022-05-10,2022-05-10,株式会社Ｙ’ｓ　ｗｅｓｔ,,株式会社,大阪府,大阪市都島区,善源寺町２丁目２番８－７０３号,,27,102,5340015,,,,,,,2022-05-10,1,,,,,ワイズウエスト,0
2353,7120003021611,新規,0,2022-05-10,2022-05-10,合同会社伊藤,,合同会社,大阪府,大阪市北区,本庄西３丁目７番１５号,,27,127,5310073,,,,,,,2022-05-10,1,,,,,イトウ,0
2354,7120003021644,新規,0,2022-05-10,2022-05-10,合同会社天ｔｏ天,,合同会社,大阪府,大阪市北区,豊崎６丁目１５番１４号ＬＥＧＡＬ・ＴＯＹＯＳＡＫＩ５０３号室,,27,127,5310072,,,,,,,2022-05-10,1,,,,,アマトテン,0
2355,7120005022938,新規,0,2022-05-10,2022-05-10,一般社団法人西日本華僑華人社団聯合会,,その他の設立登記法人,大阪府,大阪市港区,港晴２丁目８番１７号,,27,107,5520023,,,,,,,2022-05-10,1,,,,,ニシニホンカキョウカジンシャダンレンゴウカイ,0
2356,7120101065519,新規,0,2022-05-10,2022-05-10,株式会社ゼロコレ,,株式会社,大阪府,河内長野市,三日市町３２番地１フォレスト三日市３階,,27,216,5860048,,,,,,,2022-05-10,1,,,,,ゼロコレ,0
2358,7120901045942,新規,0,2022-05-10,2022-05-10,株式会社ピース,,株式会社,大阪府,豊中市,日出町１丁目６番５号,,27,203,5610821,,,,,,,2022-05-10,1,,,,,ピース,0
2359,7120903004137,新規,0,2022-05-10,2022-05-10,合同会社イチキュウ,,合同会社,大阪府,豊中市,浜３丁目１９番１３号フューチャービル３階,,27,203,5610817,,,,,,,2022-05-10,1,,,,,イチキュウ,0
2360,7120905006321,新規,0,2022-05-10,2022-05-10,特定非営利活動法人砂屋本店,,その他の設立登記法人,大阪府,豊中市,曽根東町２丁目５番１２号,,27,203,5610802,,,,,,,2022-05-10,1,,,,,スナヤホンテン,0
2362,7122001035840,新規,0,2022-05-10,2022-05-10,株式会社Ｔｓ‐ＣＲＡＦＴ,,株式会社,大阪府,大東市,御領１丁目８番１号,,27,218,5740064,,,,,,,2022-05-10,1,,,,,ティーズクラフト,0
2371,7130001071723,新規,0,2022-05-10,2022-05-10,株式会社祇園ビール,00126492,株式会社,京都府,京都市西京区,大枝北福西町３丁目１番地１９８,,26,111,6101112,,,,,,,2022-05-10,1,,,,,ギオンビール,0
2372,7130001071731,新規,0,2022-05-10,2022-05-10,桜川株式会社,,株式会社,京都府,京都市東山区,大和大路通四条下る博多町１０１番地８ヤマトマンション１階１０２号室,,26,105,6050000,,,,,,,2022-05-10,1,,,,,サクラガワ,0
2374,7130003007915,新規,0,2022-05-10,2022-05-10,合同会社ＫＨＥＭＹＳ,,合同会社,京都府,与謝郡与謝野町,字四辻７１６番地５,,26,465,6292312,,,,,,,2022-05-10,1,,,,,ケーミーズ,0
2375,7130005016476,新規,0,2022-05-10,2022-05-10,アイネックス行政書士法人,,その他の設立登記法人,京都府,京都市下京区,烏丸通四条下る水銀屋町６２０ＣＯＣＯＮ烏丸５Ｆ,,26,106,6008411,,,,,,,2022-05-10,1,,,,,アイネックス,0
2378,7140001125874,新規,0,2022-05-10,2022-05-10,株式会社ＮＵＴ　ＨＹＯＵＧＯ,,株式会社,兵庫県,明石市,魚住町錦が丘４丁目１３番地の８,,28,203,6740081,,,,,,,2022-05-10,1,,,,,ナッツヒョウゴ,0
2379,7140001125882,新規,0,2022-05-10,2022-05-10,宮崎住設株式会社,00126494,株式会社,兵庫県,小野市,丸山町５２番地の１７,,28,218,6751376,,,,,,,2022-05-10,1,,,,,ミヤザキジュウセツ,0
2380,7140001125890,新規,0,2022-05-10,2022-05-10,株式会社田野電化,,株式会社,兵庫県,尼崎市,若王寺２丁目１番１１号,,28,202,6610974,,,,,,,2022-05-10,1,,,,,タノデンカ,0
2381,7140001125899,新規,0,2022-05-10,2022-05-10,株式会社アドネクスト,,株式会社,兵庫県,宝塚市,山手台西２丁目３０番８号,,28,214,6650886,,,,,,,2022-05-10,1,,,,,アドネクスト,0
2382,7140001125916,新規,0,2022-05-10,2022-05-10,株式会社エムケイエンタープライズ,,株式会社,兵庫県,小野市,小田町１０１５番地の９,,28,218,6751301,,,,,,,2022-05-10,1,,,,,エムケイエンタープライズ,0
2383,7140001125949,新規,0,2022-05-10,2022-05-10,株式会社ｎｉｃｏｎｉｃｏ,,株式会社,兵庫県,伊丹市,伊丹１丁目２番地１４号３階３０１号室,,28,207,6640846,,,,,,,2022-05-10,1,,,,,ニコニコ,0
2385,7140003017649,新規,0,2022-05-10,2022-05-10,エフコーポレーション合同会社,,合同会社,兵庫県,姫路市,飾磨区玉地１丁目９８番地,,28,201,6728052,,,,,,,2022-05-10,1,,,,,エフコーポレーション,0
2386,7140003017657,新規,0,2022-05-10,2022-05-10,合同会社播州電設メンテナンス,,合同会社,兵庫県,明石市,東仲ノ町４番９号,,28,203,6730886,,,,,,,2022-05-10,1,,,,,バンシュウデンセツメンテナンス,0
2387,7140005026169,新規,0,2022-05-10,2022-05-10,一般財団法人ノーリツぬくもり財団,,その他の設立登記法人,兵庫県,神戸市中央区,江戸町９３番地,,28,110,6500033,,,,,,,2022-05-10,1,,,,,ノーリツヌクモリザイダン,0
2390,7150001025537,新規,0,2022-05-10,2022-05-10,株式会社デザドア,,株式会社,奈良県,奈良市,三条町４７５番地,,29,201,6308244,,,,,,,2022-05-10,1,,,,,デザドア,0
2400,7160001024182,新規,0,2022-05-10,2022-05-10,株式会社たぬきホーム,,株式会社,滋賀県,近江八幡市,中小森町３２７番地７,,25,204,5230041,,,,,,,2022-05-10,1,,,,,タヌキホーム,0
2410,7180001151033,新規,0,2022-05-10,2022-05-10,株式会社ＵＭＡ,,株式会社,愛知県,瀬戸市,十軒町４１８番１０,,23,204,4890901,,,,,,,2022-05-10,1,,,,,ユーマ,0
2411,7180001151124,新規,0,2022-05-10,2022-05-10,株式会社Ｍ．ｓトラスト,,株式会社,愛知県,名古屋市東区,砂田橋４丁目１番５７号メガシティテラス２棟３１３号,,23,102,4610045,,,,,,,2022-05-10,1,,,,,エムズトラスト,0
2412,7180001151173,新規,0,2022-05-10,2022-05-10,株式会社ｇｒａｎｄ　ｔｅｒｒｅ,,株式会社,愛知県,名古屋市中区,伊勢山１丁目５番３０号,,23,106,4600026,,,,,,,2022-05-10,1,,,,,グランドテール,0
2413,7180001151198,新規,0,2022-05-10,2022-05-10,三豊ＥＮＧ株式会社,,株式会社,愛知県,一宮市,天王３丁目２番５号,,23,203,4910046,,,,,,,2022-05-10,1,,,,,サンポウイーエヌジー,0
2414,7180001151207,新規,0,2022-05-10,2022-05-10,株式会社ＹＥＡＩＮ．ｅｎｔ,,株式会社,愛知県,名古屋市中区,丸の内３丁目２３番２３号リエトコート丸の内９０１号,,23,106,4600002,,,,,,,2022-05-10,1,,,,,イェインエンターテイメント,0
2415,7180001151215,新規,0,2022-05-10,2022-05-10,株式会社大和Ｄｉｎｉｎｇ,,株式会社,愛知県,名古屋市西区,名駅１丁目１番１７号名駅ダイヤメイテツビル１１階,,23,104,4510045,,,,,,,2022-05-10,1,,,,,ヤマトダイニング,0
2416,7180001151223,新規,0,2022-05-10,2022-05-10,株式会社Ｎａｔｕｒｅ　ｄｏｅｓ　ｎｏｔｈｉｎｇ　ｕｓｅｌｅｓｓｌｙ．,,株式会社,愛知県,名古屋市中村区,椿町１６番７号,,23,105,4530015,,,,,,,2022-05-10,1,,,,,ネイチャーダズナッシングユースレスリィ,0
2417,7180001151231,新規,0,2022-05-10,2022-05-10,株式会社リトルフ,,株式会社,愛知県,名古屋市守山区,深沢２丁目１０１番地,,23,113,4630811,,,,,,,2022-05-10,1,,,,,リトルフ,0
2418,7180001151256,新規,0,2022-05-10,2022-05-10,株式会社ＵＮ‐ＳＨＥＬＬＹ,,株式会社,愛知県,長久手市,上川原１１番地２－３０５,,23,238,4801132,,,,,,,2022-05-10,1,,,,,アンシェリー,0
2419,7180001151272,新規,0,2022-05-10,2022-05-10,株式会社瑞晶,,株式会社,愛知県,名古屋市南区,内田橋２丁目６番２２号,,23,112,4570862,,,,,,,2022-05-10,1,,,,,スイショウ,0
2431,7180003023817,新規,0,2022-05-10,2022-05-10,ＯＨＡＮＡＢＩ合同会社,,合同会社,愛知県,江南市,村久野町寺東１５９番地,,23,217,4838319,,,,,,,2022-05-10,1,,,,,オハナビ,0
2433,7180301036207,新規,0,2022-05-10,2022-05-10,株式会社ＤｅＬＩＦＥ,,株式会社,愛知県,豊田市,豊栄町３丁目１３１番地,,23,211,4701201,,,,,,,2022-05-10,1,,,,,ディライフ,0
2434,7180301036215,新規,0,2022-05-10,2022-05-10,テイクテック株式会社,,株式会社,愛知県,安城市,浜屋町北裏１番地,,23,212,4460006,,,,,,,2022-05-10,1,,,,,テイクテック,0
2437,7180303005325,新規,0,2022-05-10,2022-05-10,合同会社Ｗプランニング,,合同会社,愛知県,豊川市,牛久保町城跡３６番地の２１,,23,207,4420826,,,,,,,2022-05-10,1,,,,,ダブルプランニング,0
2438,7190001029385,新規,0,2022-05-10,2022-05-10,株式会社セレッソ,,株式会社,三重県,三重郡菰野町,大字菰野１５７２番地,,24,341,5101233,,,,,,,2022-05-10,1,,,,,セレッソ,0
2439,7190001029393,新規,0,2022-05-10,2022-05-10,株式会社ハウジングワーク,,株式会社,三重県,四日市市,川尻町２２１４番地２,,24,202,5100871,,,,,,,2022-05-10,1,,,,,ハウジングワーク,0
2440,7190001029402,新規,0,2022-05-10,2022-05-10,株式会社ｂｉｇ　ｆｏＲＥｓｔ,,株式会社,三重県,鈴鹿市,野町西１丁目５番６号東側,,24,207,5100218,,,,,,,2022-05-10,1,,,,,ビックフォレスト,0
2446,7200003005556,新規,0,2022-05-10,2022-05-10,合同会社ルタボーディ,,合同会社,岐阜県,羽島市,竹鼻町２４３４番地１,,21,209,5016241,,,,,,,2022-05-10,1,,,,,ルタボーディ,0
2448,7210001018914,新規,0,2022-05-10,2022-05-10,株式会社Ｋ２,,株式会社,福井県,勝山市,旭町１丁目５番３５号,,18,206,9110803,,,,,,,2022-05-10,1,,,,,ケイツー,0
2451,7220001024829,新規,0,2022-05-10,2022-05-10,株式会社Ｓｗｉｍ　Ｌａｂｏ,,株式会社,石川県,金沢市,上安原南２８番地１,,17,201,9200374,,,,,,,2022-05-10,1,,,,,スイムラボ,0
2453,7220003003277,新規,0,2022-05-10,2022-05-10,アンフィニッシュト合同会社,,合同会社,石川県,金沢市,藤江南３丁目１７１番地,,17,201,9200346,,,,,,,2022-05-10,1,,,,,アンフィニッシュト,0
2455,7230001019349,新規,0,2022-05-10,2022-05-10,株式会社ＢＶＢＲＯＴＨＥＲＳ,,株式会社,富山県,射水市,作道２１４０番地３,,16,211,9340042,,,,,,,2022-05-10,1,,,,,ビーブイブラザーズ,0
2456,7230005009230,新規,0,2022-05-10,2022-05-10,一般社団法人ミッション・ワーク富山,,その他の設立登記法人,富山県,富山市,桜町２丁目４番４号富山センタービル３階Ｃ,,16,201,9300003,,,,,,,2022-05-10,1,,,,,ミッションワークトヤマ,0
2458,7240001059716,新規,0,2022-05-10,2022-05-10,ＴＭアシスト株式会社,,株式会社,広島県,福山市,坪生町６丁目５番４３－１号,,34,207,7210903,,,,,,,2022-05-10,1,,,,,ティーエムアシスト,0
2461,7240003005610,新規,0,2022-05-10,2022-05-10,合同会社広和カンパニー,,合同会社,広島県,広島市西区,鈴が峰町４０番１６－３０２号,,34,104,7330852,,,,,,,2022-05-10,1,,,,,コウワカンパニー,0
2466,7270001008513,新規,0,2022-05-10,2022-05-10,株式会社テン・フィールド,,株式会社,鳥取県,西伯郡伯耆町,岸本６４７番地１,,31,390,6894132,,,,,,,2022-05-10,1,,,,,テンフィールド,0
2472,7290001097397,新規,0,2022-05-10,2022-05-10,株式会社トラストフォー,,株式会社,福岡県,古賀市,舞の里３丁目１１番１１号,,40,223,8113114,,,,,,,2022-05-10,1,,,,,トラストフォー,0
2473,7290001097422,新規,0,2022-05-10,2022-05-10,株式会社優大,,株式会社,福岡県,久留米市,城島町大依３９０番地２,,40,203,8300205,,,,,,,2022-05-10,1,,,,,ユウダイ,0
2474,7290001097439,新規,0,2022-05-10,2022-05-10,株式会社サスティンマネジメント,,株式会社,福岡県,春日市,春日９丁目１７番地１０,,40,218,8160814,,,,,,,2022-05-10,1,,,,,サスティンマネジメント,0
2475,7290001097463,新規,0,2022-05-10,2022-05-10,株式会社ＳＥＡＳＯＮ２,,株式会社,福岡県,福岡市中央区,天神２丁目３番１０号天神パインクレスト７１９号,,40,133,8100001,,,,,,,2022-05-10,1,,,,,シーズンツー,0
2477,7290801028519,新規,0,2022-05-10,2022-05-10,株式会社上昇建設,,株式会社,福岡県,北九州市八幡西区,大字馬場山字大谷２１番地の２,,40,109,8071136,,,,,,,2022-05-10,1,,,,,ジョウショウケンセツ,0
2479,7290803004121,新規,0,2022-05-10,2022-05-10,合同会社あんにん薬局,,合同会社,福岡県,北九州市小倉南区,北方２丁目２４番１０号トーカンマンション北九大前１０３号室,,40,107,8020841,,,,,,,2022-05-10,1,,,,,アンニンヤッキョク,0
2480,7300001012924,新規,0,2022-05-10,2022-05-10,株式会社タイズ,,株式会社,佐賀県,佐賀市,川副町大字西古賀１２１４番地１,,41,201,8402204,,,,,,,2022-05-10,1,,,,,タイズ,0
2482,7300003001834,新規,0,2022-05-10,2022-05-10,Ａｒａｕ合同会社,,合同会社,佐賀県,杵島郡白石町,大字馬洗５４０番地２,,41,425,8491114,,,,,,,2022-05-10,1,,,,,アラウ,0
2489,7320001019059,新規,0,2022-05-10,2022-05-10,株式会社ＶＩＮＥＡ,,株式会社,大分県,大分市,高江中央１丁目２５番地の８,,44,201,8701116,,,,,,,2022-05-10,1,,,,,ヴィネア,0
2490,7320003003804,新規,0,2022-05-10,2022-05-10,日田農林産合同会社,,合同会社,大分県,日田市,大字石井１２０３番地,,44,204,8770061,,,,,,,2022-05-10,1,,,,,ヒタノウリンサン,0
2491,7330001029718,新規,0,2022-05-10,2022-05-10,未来総合設備株式会社,,株式会社,熊本県,熊本市北区,龍田陣内三丁目２８番３６号,,43,105,8610000,,,,,,,2022-05-10,1,,,,,ミライソウゴウセツビ,0
2494,7340001024701,新規,0,2022-05-10,2022-05-10,南九州製作所株式会社,,株式会社,鹿児島県,薩摩川内市,青山町４５９７番地２,,46,215,8950044,,,,,,,2022-05-10,1,,,,,ミナミキュウシュウセイサクジョ,0
2498,7340003003777,新規,0,2022-05-10,2022-05-10,合同会社カネシマ,,合同会社,鹿児島県,志布志市,有明町伊崎田８８２９番地２１,,46,221,8997401,,,,,,,2022-05-10,1,,,,,カネシマ,0
2500,7340005009459,新規,0,2022-05-10,2022-05-10,特定非営利活動法人コチュカ,,その他の設立登記法人,鹿児島県,鹿児島市,荒田１丁目４３番６号,,46,201,8900054,,,,,,,2022-05-10,1,,,,,,0
2501,7350003004080,新規,0,2022-05-10,2022-05-10,合同会社Ｙｏｕ　Ｇｒｏｕｐ,,合同会社,宮崎県,延岡市,祇園町２丁目３番地７,,45,203,8820043,,,,,,,2022-05-10,1,,,,,ユーグループ,0
2502,7350005006067,新規,0,2022-05-10,2022-05-10,行政書士法人黒木事務所,,その他の設立登記法人,宮崎県,宮崎市,宮田町２番２９号燃料会館２Ｆ,,45,201,8800804,,,,,,,2022-05-10,1,,,,,クロキジムショ,0
2504,7370001048540,新規,0,2022-05-10,2022-05-10,株式会社佐倉産業,,株式会社,宮城県,柴田郡大河原町,字町１２番地１ウェストパークＩＩＩ１０６号,00126506,04,321,9891241,,,,,,,2022-05-10,1,,,,,サクラサンギョウ,0
2507,7370003005688,新規,0,2022-05-10,2022-05-10,合同会社菅健建築,,合同会社,宮城県,名取市,愛島北目字上原２９番地,,04,207,9811237,,,,,,,2022-05-10,1,,,,,スガケンケンチク,0
2517,7430001086641,新規,0,2022-05-10,2022-05-10,株式会社ＪＵＧＡＡＤ,,株式会社,北海道,札幌市清田区,清田七条４丁目３番２９号,,01,110,0040847,,,,,,,2022-05-10,1,,,,,ジュガード,0
2519,7430003013858,新規,0,2022-05-10,2022-05-10,合同会社ヒラノユタカ,,合同会社,北海道,小樽市,潮見台１丁目１４番２２号,,01,203,0470002,,,,,,,2022-05-10,1,,,,,ヒラノユタカ,0
2520,7430003013866,新規,0,2022-05-10,2022-05-10,合同会社エムズ企画,,合同会社,北海道,滝川市,黄金町西３丁目２番２５号,,01,225,0730011,,,,,,,2022-05-10,1,,,,,エムズキカク,0
2523,7440003001457,新規,0,2022-05-10,2022-05-10,合同会社マルコ,,合同会社,北海道,茅部郡森町,字上台町３０５番地２３,,01,345,0492311,,,,,,,2022-05-10,1,,,,,マルコ,0
2524,7460101007189,新規,0,2022-05-10,2022-05-10,株式会社エムエー技検,,株式会社,北海道,帯広市,西二十一条南３丁目２３番地１６,,01,207,0802471,,,,,,,2022-05-10,1,,,,,エムエーギケン,0
2525,7460103001454,新規,0,2022-05-10,2022-05-10,ｒａｒｅＡＬＬ合同会社,,合同会社,北海道,帯広市,西六条南１１丁目４４番地,,01,207,0800016,,,,,,,2022-05-10,1,,,,,レアオール,0
2528,7500001024197,新規,0,2022-05-10,2022-05-10,株式会社ティーメックホールディングス,,株式会社,愛媛県,松山市,美沢１丁目８番４６号,,38,201,7918022,,,,,,,2022-05-10,1,,,,,ティーメックホールディングス,0
2531,7700150044190,新規,0,2022-05-10,2015-10-09,日本アッセンブリーズ・オブ・ゴッド教団豊橋キリスト教会,,その他,愛知県,豊橋市,草間町字平東１９８－８,,23,201,4418141,,,,,,,2015-10-09,1,,,,,ニホンアツセンブリーズオブゴツドキヨウダントヨハシキリストキヨウカイ,0
2546,8010001226296,新規,0,2022-05-10,2022-05-10,美桜テック株式会社,,株式会社,東京都,千代田区,神田須田町１丁目７番地１,,13,101,1010041,,,,,,,2022-05-10,1,,,,,ミオテック,0
2547,8010001226346,新規,0,2022-05-10,2022-05-10,株式会社２７ｔｈ,,株式会社,東京都,千代田区,富士見１丁目３－１１,,13,101,1020071,,,,,,,2022-05-10,1,,,,,トゥエンティーセブンス,0
2548,8010001226404,新規,0,2022-05-10,2022-05-10,株式会社ｅｎｌｉｇｈｔ　ｃｏｎｓｕｌｔｉｎｇ,,株式会社,東京都,文京区,本郷２丁目１６番１２－４０２号,,13,105,1130033,,,,,,,2022-05-10,1,,,,,エンライトコンサルティング,0
2549,8010001226453,新規,0,2022-05-10,2022-05-10,株式会社ティエムケイ,,株式会社,東京都,千代田区,神田佐久間町２丁目１１番地１,,13,101,1010025,,,,,,,2022-05-10,1,,,,,ティエムケイ,0
2550,8010001226461,新規,0,2022-05-10,2022-05-10,井上ホールディングス株式会社,,株式会社,東京都,中央区,日本橋兜町１番７号,,13,102,1030026,,,,,,,2022-05-10,1,,,,,イノウエホールディングス,0
2551,8010001226486,新規,0,2022-05-10,2022-05-10,株式会社ＳＥＬＥＣＴＲＹ,,株式会社,東京都,中央区,銀座８丁目１０－５ＤＥＮＳＡＮビルＧ－５０６６６,,13,102,1040061,,,,,,,2022-05-10,1,,,,,セレクトリー,0
2552,8010001226494,新規,0,2022-05-10,2022-05-10,株式会社ＩＲＪビジネスコンサルティングスタッフ,,株式会社,東京都,千代田区,霞が関３丁目２番５号,,13,101,1000013,,,,,,,2022-05-10,1,,,,,アイアールジェービジネスコンサルティングスタッフ,0
2553,8010001226503,新規,0,2022-05-10,2022-05-10,株式会社ＮＮＥ,,株式会社,東京都,中央区,築地３丁目２番３－１００１号,,13,102,1040045,,,,,,,2022-05-10,1,,,,,エヌエヌイー,0
2555,8010003037618,新規,0,2022-05-10,2022-05-10,合同会社サラ,,合同会社,東京都,中央区,新川２丁目３０－１０,,13,102,1040033,,,,,,,2022-05-10,1,,,,,サラ,0
2556,8010003037634,新規,0,2022-05-10,2022-05-10,合同会社磯部,,合同会社,東京都,中央区,銀座８丁目１０番５号ＤＥＮＳＡＮビルＧ―１３３３８,,13,102,1040061,,,,,,,2022-05-10,1,,,,,イソベ,0
2558,8010005034712,新規,0,2022-05-10,2022-05-10,一般社団法人ＭＩＫＫＥ,,その他の設立登記法人,東京都,千代田区,外神田６丁目３番３号,,13,101,1010021,,,,,,,2022-05-10,1,,,,,ミッケ,0
2564,8010401167099,新規,0,2022-05-10,2022-05-10,株式会社Ｌ＆Ｐａｒｔｎｅｒｓ,,株式会社,東京都,港区,南青山２丁目２番１５号,,13,103,1070062,,,,,,,2022-05-10,1,,,,,エルアンドパートナーズ,0
2565,8010401167198,新規,0,2022-05-10,2022-05-10,株式会社ＲＩＤＥＴＨＥＳＨＩＰ,,株式会社,東京都,港区,南青山２丁目２番１５号,,13,103,1070062,,,,,,,2022-05-10,1,,,,,ライドザシップ,0
2566,8010401167256,新規,0,2022-05-10,2022-05-10,株式会社ヴァリエ,,株式会社,東京都,港区,赤坂３丁目２番１２号,,13,103,1070052,,,,,,,2022-05-10,1,,,,,ヴァリエ,0
2577,8010701042613,新規,0,2022-05-10,2022-05-10,ＡＣ　Ｃｏｎｓｕｌｔｉｎｇ　Ｇｒｏｕｐ株式会社,,株式会社,東京都,品川区,二葉１丁目２３番９号ウィステリア品川二葉１０１,,13,109,1420043,,,,,,,2022-05-10,1,,,,,エーシーコンサルティンググループ,0
2581,8010801032935,新規,0,2022-05-10,2022-05-10,株式会社ＬａＮａｔｕｒｅ,,株式会社,東京都,大田区,下丸子４丁目２１番１５－２００２号,,13,111,1460092,,,,,,,2022-05-10,1,,,,,ラナチュール,0
2582,8010801032943,新規,0,2022-05-10,2022-05-10,株式会社ワンズプライム,,株式会社,東京都,大田区,田園調布５丁目４８番４号,,13,111,1450071,,,,,,,2022-05-10,1,,,,,ワンズプライム,0
2584,8010803004164,新規,0,2022-05-10,2022-05-10,合同会社Ｒｅｂｉｒｔｈ,,合同会社,東京都,大田区,北千束２丁目２１－９－２０５,,13,111,1450062,,,,,,,2022-05-10,1,,,,,リバース,0
2593,8011001147326,新規,0,2022-05-10,2022-05-10,株式会社ＮＯＴＨＩＮＧ　ＮＥＷ,,株式会社,東京都,渋谷区,上原３丁目１０－１１アスコット上原１－Ｃ,,13,113,1510064,,,,,,,2022-05-10,1,,,,,ナッシングニュー,0
2594,8011001147367,新規,0,2022-05-10,2022-05-10,資産経営株式会社,,株式会社,東京都,渋谷区,千駄ヶ谷５丁目２６番５－１１０２号,,13,113,1510051,,,,,,,2022-05-10,1,,,,,シサンケイエイ,0
2595,8011001147417,新規,0,2022-05-10,2022-05-10,ｆｏｒｅｓｔ１株式会社,,株式会社,東京都,渋谷区,円山町５番５号Ｎａｖｉ渋谷Ｖ３階,00126497,13,113,1500044,,,,,,,2022-05-10,1,,,,,フォレストワン,0
2597,8011003014664,新規,0,2022-05-10,2022-05-10,合同会社ＤＭＴ．ＪＡＰＡＮ,,合同会社,東京都,目黒区,自由が丘２丁目１６－１２ＬＣ１Ｆ,,13,110,1520035,,,,,,,2022-05-10,1,,,,,ディエムティジャパン,0
2604,8011101098741,新規,0,2022-05-10,2022-05-10,株式会社ウェイシン西日本,,株式会社,東京都,新宿区,若葉１丁目１０番５号,,13,104,1600011,,,,,,,2022-05-10,1,,,,,ウェイシンニシニホン,0
2605,8011103011727,新規,0,2022-05-10,2022-05-10,合同会社ＭａｒｅＢｌｕ,,合同会社,東京都,新宿区,神楽坂２丁目１６番５号,,13,104,1620825,,,,,,,2022-05-10,1,,,,,マーレブルー,0
2609,8011201023814,新規,0,2022-05-10,2022-05-10,株式会社スノーシダー,,株式会社,東京都,中野区,中野５丁目３７番１６号,,13,114,1640001,,,,,,,2022-05-10,1,,,,,スノーシダー,0
2610,8011201023822,新規,0,2022-05-10,2022-05-10,株式会社ｍ・ｉ・ＲＯＶＥＲ,,株式会社,東京都,中野区,中野２丁目１６番４号プレミアムキューブ中野４０７,,13,114,1640001,,,,,,,2022-05-10,1,,,,,エムアイローバー,0
2613,8011401024208,新規,0,2022-05-10,2022-05-10,東川ホールディングス株式会社,,株式会社,東京都,板橋区,高島平２丁目２６番３－８２７号,,13,119,1750082,,,,,,,2022-05-10,1,,,,,ヒガシカワホールディングス,0
2614,8011401024216,新規,0,2022-05-10,2022-05-10,大柔株式会社,,株式会社,東京都,板橋区,赤塚２丁目２番４号東出ビル１階,,13,119,1750092,,,,,,,2022-05-10,1,,,,,ダイジュウ,0
2615,8011403003655,新規,0,2022-05-10,2022-05-10,合同会社ＴＧＤ,,合同会社,東京都,板橋区,坂下１丁目３８番２５号,,13,119,1740043,,,,,,,2022-05-10,1,,,,,ティージーディー,0
2620,8011603003595,新規,0,2022-05-10,2022-05-10,合同会社Ｒｅ　ａｒｔｓ　Ｇａｒｄｅｎ,,合同会社,東京都,練馬区,練馬２丁目３３－１８,,13,120,1760001,,,,,,,2022-05-10,1,,,,,リアーツガーデン,0
2622,8011703003124,新規,0,2022-05-10,2022-05-10,シャーリー合同会社,,合同会社,東京都,江戸川区,平井４丁目８番２６－５０１号,,13,123,1320035,,,,,,,2022-05-10,1,,,,,シャーリー,0
2625,8012401039170,新規,0,2022-05-10,2022-05-10,株式会社ＦＡＶＯＲ,,株式会社,東京都,小金井市,前原町５丁目１５番８号ウッドストック小金井１Ｆ,,13,210,1840013,,,,,,,2022-05-10,1,,,,,フェイヴァー,0
2626,8012401039179,新規,0,2022-05-10,2022-05-10,株式会社永島建築事務所,,株式会社,東京都,調布市,国領町８丁目２番地９,,13,208,1820022,,,,,,,2022-05-10,1,,,,,ナガシマケンチクジムショ,0
2629,8012703002454,新規,0,2022-05-10,2022-05-10,ラピッド合資会社,,合資会社,東京都,西東京市,西原町５丁目３番１２号,,13,229,1880004,,,,,,,2022-05-10,1,,,,,ラピッド,0
2630,8012803002767,新規,0,2022-05-10,2022-05-10,合同会社ウリィーダム,,合同会社,東京都,日野市,平山４丁目２８番１１号,,13,212,1910043,,,,,,,2022-05-10,1,,,,,ウリィーダム,0
2634,8013303006143,新規,0,2022-05-10,2022-05-10,合同会社ＨＲＮ,,合同会社,東京都,豊島区,上池袋２丁目２－１６－１０１,,13,116,1700012,,,,,,,2022-05-10,1,,,,,,0
2638,8020001146361,新規,0,2022-05-10,2022-05-10,株式会社ｎＯｒｌ,,株式会社,神奈川県,川崎市麻生区,金程２丁目１６番９号,,14,137,2150006,,,,,,,2022-05-10,1,,,,,ノール,0
2639,8020001146386,新規,0,2022-05-10,2022-05-10,株式会社志村自動車興業,,株式会社,神奈川県,横浜市都筑区,荏田南町６７０番地９,,14,118,2240008,,,,,,,2022-05-10,1,,,,,シムラジドウシャコウギョウ,0
2640,8020001146403,新規,0,2022-05-10,2022-05-10,株式会社ＲＯＮＥＫ,,株式会社,神奈川県,横浜市港北区,新吉田東８丁目５４番１号,,14,109,2230058,,,,,,,2022-05-10,1,,,,,ロネック,0
2641,8020001146411,新規,0,2022-05-10,2022-05-10,ａ‐ｈａ株式会社,,株式会社,神奈川県,横浜市青葉区,桜台４３番地１リビオ青葉桜台５１０号,,14,117,2270061,,,,,,,2022-05-10,1,,,,,アハ,0
2645,8020003021744,新規,0,2022-05-10,2022-05-10,合同会社マルベリー,,合同会社,神奈川県,横浜市磯子区,久木町１７番７号,,14,107,2350015,,,,,,,2022-05-10,1,,,,,マルベリー,0
2646,8020005015521,新規,0,2022-05-10,2022-05-10,一般社団法人Ｗｉｔｈ　Ｂｌｉｎｄ,,その他の設立登記法人,神奈川県,横浜市鶴見区,小野町６番５－１００９号,,14,101,2300046,,,,,,,2022-05-10,1,,,,,ウィズブラインド,0
2649,8021001075872,新規,0,2022-05-10,2022-05-10,エスアンドケイネイル株式会社,,株式会社,神奈川県,藤沢市,大庭５００６番地の１２,,14,205,2510861,,,,,,,2022-05-10,1,,,,,エスアンドケイネイル,0
2650,8021001075880,新規,0,2022-05-10,2022-05-10,株式会社綾波,,株式会社,神奈川県,海老名市,門沢橋３丁目６番２７－８０２号,,14,215,2430426,,,,,,,2022-05-10,1,,,,,アヤナミ,0
2655,8030001147978,新規,0,2022-05-10,2022-05-10,グロウス・ユニバース警備保障株式会社,,株式会社,埼玉県,熊谷市,原島１２５８－３,,11,202,3600811,,,,,,,2022-05-10,1,,,,,グロウスユニバース,0
2656,8030001148002,新規,0,2022-05-10,2022-05-10,株式会社フィールドマウス,,株式会社,埼玉県,草加市,花栗３丁目５番２１号,,11,221,3400044,,,,,,,2022-05-10,1,,,,,フィールドマウス,0
2657,8030001148010,新規,0,2022-05-10,2022-05-10,吉田株式会社,,株式会社,埼玉県,蓮田市,関山４丁目１番１９号,,11,238,3490121,,,,,,,2022-05-10,1,,,,,ヨシダ,0
2658,8030001148027,新規,0,2022-05-10,2022-05-10,インテリシー株式会社,,株式会社,埼玉県,川口市,栄町３丁目２番６－９０４号,,11,203,3320017,,,,,,,2022-05-10,1,,,,,インテリシー,0
2659,8030001148043,新規,0,2022-05-10,2022-05-10,ｍｉｎｇｌｅ株式会社,,株式会社,埼玉県,川口市,戸塚南２丁目２１番２６号ガーディアン２０３号,,11,203,3330817,,,,,,,2022-05-10,1,,,,,ミングル,0
2660,8030001148118,新規,0,2022-05-10,2022-05-10,Ｔａｋａｓｅ株式会社,,株式会社,埼玉県,川口市,赤井１丁目１２番２号,,11,203,3340073,,,,,,,2022-05-10,1,,,,,タカセ,0
2661,8030001148126,新規,0,2022-05-10,2022-05-10,株式会社よこやまペットクリニック,,株式会社,埼玉県,さいたま市浦和区,仲町４丁目１１番１２号タバタビルディング１Ｆ,,11,107,3300062,,,,,,,2022-05-10,1,,,,,ヨコヤマペットクリニック,0
2662,8030001148134,新規,0,2022-05-10,2022-05-10,株式会社ヒューマンサポート,,株式会社,埼玉県,草加市,弁天５丁目３４番４号コンフォート内田１階,,11,221,3400004,,,,,,,2022-05-10,1,,,,,ヒューマンサポート,0
2663,8030001148159,新規,0,2022-05-10,2022-05-10,株式会社Ｍｅｄｉｅｎ,,株式会社,埼玉県,川口市,大字芝５０９７番地の２南浦和パークハイツ４０４,,11,203,3330866,,,,,,,2022-05-10,1,,,,,メディエン,0
2666,8030003019366,新規,0,2022-05-10,2022-05-10,ＡＬＯＨＡＳＥＲＶＩＣＥ合同会社,,合同会社,埼玉県,草加市,遊馬町１１１３番地１１,,11,221,3400032,,,,,,,2022-05-10,1,,,,,アロハサービス,0
2669,8040001123227,新規,0,2022-05-10,2022-05-10,株式会社ウィズアールワン,,株式会社,千葉県,市原市,青柳７５４番地１０,,12,219,2990102,,,,,,,2022-05-10,1,,,,,ウィズアールワン,0
2670,8040001123235,新規,0,2022-05-10,2022-05-10,株式会社壮美,,株式会社,千葉県,浦安市,猫実４丁目１８－３０ユーステム浦安４０７,,12,227,2790004,,,,,,,2022-05-10,1,,,,,ソウビ,0
2671,8040001123243,新規,0,2022-05-10,2022-05-10,株式会社ｓｍａｒｔ,,株式会社,千葉県,野田市,西三ケ尾５９４番地２,,12,208,2780015,,,,,,,2022-05-10,1,,,,,スマート,0
2672,8040001123251,新規,0,2022-05-10,2022-05-10,ＹＡＫ　ＣＯＲＰＯＲＡＴＩＯＮ株式会社,,株式会社,千葉県,柏市,戸張１２４２番地３,,12,217,2770008,,,,,,,2022-05-10,1,,,,,ヤークコーポレーション,0
2673,8040001123268,新規,0,2022-05-10,2022-05-10,株式会社ＫＩＲＹＵカンパニー,,株式会社,千葉県,千葉市中央区,今井町１４０９番地５,,12,101,2600815,,,,,,,2022-05-10,1,,,,,キリュウカンパニー,0
2674,8040001123292,新規,0,2022-05-10,2022-05-10,株式会社ＣｌｉＭＴｅｃｈ,,株式会社,千葉県,船橋市,夏見４丁目３７番４４号,,12,204,2730865,,,,,,,2022-05-10,1,,,,,クリムテック,0
2675,8040001123318,新規,0,2022-05-10,2022-05-10,ビーディーラボ株式会社,,株式会社,千葉県,松戸市,松戸１３０７－１松戸ビル,,12,207,2710092,,,,,,,2022-05-10,1,,,,,ビーディーラボ,0
2681,8040005021591,新規,0,2022-05-10,2022-05-10,一般社団法人カザグルマ,,その他の設立登記法人,千葉県,成田市,加良部５丁目５番地５,,12,211,2860036,,,,,,,2022-05-10,1,,,,,カザグルマ,0
2682,8050001051055,新規,0,2022-05-10,2022-05-10,株式会社きつねのおやど,,株式会社,茨城県,日立市,小木津町１丁目９番２０号,,08,202,3191413,,,,,,,2022-05-10,1,,,,,キツネノオヤド,0
2685,8050003006544,新規,0,2022-05-10,2022-05-10,下田プロパティ合同会社,,合同会社,茨城県,結城市,大字結城５５６番１メゾン白銀５５６－２０２,,08,207,3070001,,,,,,,2022-05-10,1,,,,,シモダプロパティ,0
2692,8060003004068,新規,0,2022-05-10,2022-05-10,合同会社ｆｅｓｔａｌｅｇａ,,合同会社,栃木県,佐野市,植上町１５６０－１,,09,204,3270832,,,,,,,2022-05-10,1,,,,,フェスタレガ,0
2693,8070001039206,新規,0,2022-05-10,2022-05-10,株式会社タナカ備装,,株式会社,群馬県,佐波郡玉村町,大字下新田４８１番地６,,10,464,3701132,,,,,,,2022-05-10,1,,,,,タナカビソウ,0
2694,8070001039214,新規,0,2022-05-10,2022-05-10,株式会社エルバッチャ,,株式会社,群馬県,邑楽郡千代田町,大字上中森１４２６番地の１９,,10,523,3700725,,,,,,,2022-05-10,1,,,,,エルバッチャ,0
2704,8080403004533,新規,0,2022-05-10,2022-05-10,アリーズ合同会社,,合同会社,静岡県,浜松市中区,田町３１５番地２２ぬい屋田町ビル３階,,22,131,4300944,,,,,,,2022-05-10,1,,,,,アリーズ,0
2708,8100001035325,新規,0,2022-05-10,2022-05-10,株式会社縄文屋根,,株式会社,長野県,長野市,戸隠豊岡４４９０番地,,20,201,3814102,,,,,,,2022-05-10,1,,,,,ジョウモンヤネ,0
2709,8100003006539,新規,0,2022-05-10,2022-05-10,合同会社オフィスＴ．Ｋ,,合同会社,長野県,下伊那郡泰阜村,４３４５番地,,20,414,3991801,,,,,,,2022-05-10,1,,,,,オフィスティーケイ,0
2712,8110001036636,新規,0,2022-05-10,2022-05-10,株式会社くろべえ,,株式会社,新潟県,三条市,長野４４４番地,,15,204,9550132,,,,,,,2022-05-10,1,,,,,クロベエ,0
2713,8110003004756,新規,0,2022-05-10,2022-05-10,合同会社ｆＵｋＵｉｋＵ,,合同会社,新潟県,阿賀野市,深町２０７－２,,15,223,9592049,,,,,,,2022-05-10,1,,,,,フクイク,0
2728,8120001245500,新規,0,2022-05-10,2022-05-10,株式会社Ｍｏｌｄ,,株式会社,大阪府,大阪市福島区,大開１丁目１２番地１８号,,27,103,5530007,,,,,,,2022-05-10,1,,,,,モールド,0
2729,8120001245608,新規,0,2022-05-10,2022-05-10,Ａｖｉｄ株式会社,,株式会社,大阪府,大阪市浪速区,桜川４丁目１２番２６－９０５号,,27,111,5560022,,,,,,,2022-05-10,1,,,,,アヴィド,0
2730,8120001245649,新規,0,2022-05-10,2022-05-10,Ｗ＆Ｚ　ＣＫＪ商事株式会社,,株式会社,大阪府,大阪市中央区,上本町西１丁目１番９号ハイマート上町２０１号室,,27,128,5420062,,,,,,,2022-05-10,1,,,,,ダブリューアンドゼッドシーケージェーショウジ,0
2731,8120001245657,新規,0,2022-05-10,2022-05-10,株式会社ダ・ヴィンチ企画工房,,株式会社,大阪府,大阪市住吉区,長居４丁目１Ｂ－５０５,,27,120,5580003,,,,,,,2022-05-10,1,,,,,ダヴィンチキカクコウボウ,0
2732,8120001245665,新規,0,2022-05-10,2022-05-10,株式会社彩雲,,株式会社,大阪府,大阪市中央区,東心斎橋１丁目１３番２０号,,27,128,5420083,,,,,,,2022-05-10,1,,,,,サイウン,0
2733,8120001245723,新規,0,2022-05-10,2022-05-10,株式会社ＳＴＡＮＤ　ＣＨＡＳＥ,,株式会社,大阪府,大阪市住之江区,北加賀屋１丁目４番１７－９０５号,,27,125,5590011,,,,,,,2022-05-10,1,,,,,スタンドチェイス,0
2734,8120001245756,新規,0,2022-05-10,2022-05-10,株式会社Ｓｕｎ　Ｃｉｔｙ,,株式会社,大阪府,大阪市西区,江之子島１丁目７－３奥内阿波座駅前ビル３０７号,,27,106,5500006,,,,,,,2022-05-10,1,,,,,サンシティ,0
2735,8120001245822,新規,0,2022-05-10,2022-05-10,ナカタニ設備工業株式会社,,株式会社,大阪府,大阪市鶴見区,今津中１丁目７番３５号,,27,124,5380042,,,,,,,2022-05-10,1,,,,,ナカタニセツビコウギョウ,0
2736,8120003021602,新規,0,2022-05-10,2022-05-10,合同会社Ｇｒｅｅｎ　Ｖｏｉｃｅ,,合同会社,大阪府,大阪市中央区,上町１丁目１番２７号,,27,128,5400005,,,,,,,2022-05-10,1,,,,,グリーンボイス,0
2737,8120003021627,新規,0,2022-05-10,2022-05-10,合同会社さくらいろ,,合同会社,大阪府,大阪市北区,中崎西２丁目６－３パステルワンビル５０４号,,27,127,5300015,,,,,,,2022-05-10,1,,,,,サクライロ,0
2738,8120003021635,新規,0,2022-05-10,2022-05-10,合同会社ｎｙ,,合同会社,大阪府,大阪市北区,梅田１丁目２番２号大阪駅前第２ビル２階５－６号室,,27,127,5300001,,,,,,,2022-05-10,1,,,,,ニー,0
2739,8120003021643,新規,0,2022-05-10,2022-05-10,合同会社赤色キッチン,,合同会社,大阪府,大阪市都島区,内代町２丁目３番１７号,,27,102,5340013,,,,,,,2022-05-10,1,,,,,アカイロキッチン,0
2742,8120101065526,新規,0,2022-05-10,2022-05-10,株式会社栄グループ,,株式会社,大阪府,堺市北区,奥本町１丁３１８番地,,27,146,5918007,,,,,,,2022-05-10,1,,,,,サカエグループ,0
2743,8120101065534,新規,0,2022-05-10,2022-05-10,株式会社ＮｅｘＴ,,株式会社,大阪府,堺市西区,浜寺船尾町西１丁２７７番地１,,27,144,5928342,,,,,,,2022-05-10,1,,,,,ネクスト,0
2744,8120101065559,新規,0,2022-05-10,2022-05-10,株式会社巴コーポレーション,,株式会社,大阪府,泉佐野市,南中安松１６８１番地の２,,27,213,5980033,,,,,,,2022-05-10,1,,,,,トモエコーポレーション,0
2747,8120901045925,新規,0,2022-05-10,2022-05-10,アルファーサム株式会社,,株式会社,大阪府,豊中市,小曽根１丁目９番３３－Ｂ１０５号,,27,203,5610813,,,,,,,2022-05-10,1,,,,,アルファーサム,0
2748,8120905006320,新規,0,2022-05-10,2022-05-10,一般社団法人ベンチャー監査役協会,,その他の設立登記法人,大阪府,吹田市,桃山台３丁目３９番１０号,,27,205,5650854,,,,,,,2022-05-10,1,,,,,ベンチャーカンサヤクキョウカイ,0
2753,8130005016467,新規,0,2022-05-10,2022-05-10,一般社団法人京田辺みんなの働くプロジェクト,,その他の設立登記法人,京都府,京田辺市,三山木中央６丁目５番地１０,,26,211,6100313,,,,,,,2022-05-10,1,,,,,キョウタナベミンナノハタラクプロジェクト,0
2758,8140001125832,新規,0,2022-05-10,2022-05-10,株式会社ゲンキスタイル,,株式会社,兵庫県,西宮市,甲子園口北町１番８号,,28,204,6638112,,,,,,,2022-05-10,1,,,,,ゲンキスタイル,0
2759,8140001125873,新規,0,2022-05-10,2022-05-10,株式会社ハヤシダジャパン,,株式会社,兵庫県,神戸市北区,桜森町１２番地の８,,28,109,6511214,,,,,,,2022-05-10,1,,,,,ハヤシダジャパン,0
2760,8140001125898,新規,0,2022-05-10,2022-05-10,株式会社プライドキャリー,,株式会社,兵庫県,丹波篠山市,吹上８３番地１９,,28,221,6692344,,,,,,,2022-05-10,1,,,,,プライドキャリー,0
2764,8160001024173,新規,0,2022-05-10,2022-05-10,株式会社宝樹,,株式会社,滋賀県,彦根市,八坂町１４９６番地１,,25,202,5220057,,,,,,,2022-05-10,1,,,,,ホウジュ,0
2770,8170001017093,新規,0,2022-05-10,2022-05-10,株式会社松本組,,株式会社,和歌山県,紀の川市,桃山町野田原９２５－１,,30,208,6496103,,,,,,,2022-05-10,1,,,,,マツモトグミ,0
2778,8180001151164,新規,0,2022-05-10,2022-05-10,株式会社Ｒ‐Ｐｏｉｎｔ,,株式会社,愛知県,名古屋市中区,丸の内３丁目７番２６号,,23,106,4600002,,,,,,,2022-05-10,1,,,,,アールポイント,0
2779,8180001151214,新規,0,2022-05-10,2022-05-10,株式会社グリーンコンストラクティブ,,株式会社,愛知県,稲沢市,下津町東下町６４番地,,23,220,4928075,,,,,,,2022-05-10,1,,,,,グリーンコンストラクティブ,0
2780,8180001151247,新規,0,2022-05-10,2022-05-10,株式会社メロディトラベル,,株式会社,愛知県,知多市,新知東町３丁目４３番地２,,23,224,4780065,,,,,,,2022-05-10,1,,,,,メロディトラベル,0
2789,8180301036164,新規,0,2022-05-10,2022-05-10,ＰＵＮ株式会社,,株式会社,愛知県,豊田市,四郷町下古屋６１番地２,,23,211,4700373,,,,,,,2022-05-10,1,,,,,プン,0
2790,8180301036214,新規,0,2022-05-10,2022-05-10,株式会社ＲＥＡＬ　ＣＯＯＬ,,株式会社,愛知県,豊川市,牛久保町岸組２番地の１,,23,207,4420826,,,,,,,2022-05-10,1,,,,,リアルクール,0
2792,8180303005324,新規,0,2022-05-10,2022-05-10,合同会社大鐘,,合同会社,愛知県,豊橋市,北島町字北島１４８番地の３,,23,201,4400071,,,,,,,2022-05-10,1,,,,,オオガネ,0
2794,8190001029384,新規,0,2022-05-10,2022-05-10,株式会社ミズノモーター,,株式会社,三重県,桑名市,枇杷島台８番地,,24,205,5110803,,,,,,,2022-05-10,1,,,,,ミズノモーター,0
2812,8240001059715,新規,0,2022-05-10,2022-05-10,株式会社Ｙ．Ｊ,,株式会社,広島県,呉市,下蒲刈町下島３２０６番地７,,34,202,7370303,,,,,,,2022-05-10,1,,,,,ワイジェイ,0
2813,8240001059756,新規,0,2022-05-10,2022-05-10,清心株式会社,,株式会社,広島県,福山市,水呑町４３７３番地水呑三新田５２－１－１,,34,207,7200832,,,,,,,2022-05-10,1,,,,,セイシン,0
2814,8240001059764,新規,0,2022-05-10,2022-05-10,株式会社山建工,,株式会社,広島県,福山市,草戸町３丁目１４番１８－１０４号,,34,207,7200831,,,,,,,2022-05-10,1,,,,,サンケンコウ,0
2822,8280001008692,新規,0,2022-05-10,2022-05-10,株式会社チェリーサポート,,株式会社,島根県,出雲市,大津新崎町５丁目４７番地１,,32,203,6930012,,,,,,,2022-05-10,1,,,,,チェリーサポート,0
2829,8290001097438,新規,0,2022-05-10,2022-05-10,株式会社明徳商事,,株式会社,福岡県,八女市,立花町白木４６３９番地２０,,40,210,8340084,,,,,,,2022-05-10,1,,,,,メイトクショウジ,0
2830,8290001097446,新規,0,2022-05-10,2022-05-10,株式会社末安商店,,株式会社,福岡県,久留米市,安武町安武本４６４番地,,40,203,8300072,,,,,,,2022-05-10,1,,,,,スエヤスショウテン,0
2831,8290001097487,新規,0,2022-05-10,2022-05-10,株式会社ＩＲＩＳ,,株式会社,福岡県,福岡市南区,弥永３丁目１７番２号,,40,134,8111323,,,,,,,2022-05-10,1,,,,,イリス,0
2837,8300001012923,新規,0,2022-05-10,2022-05-10,株式会社大法工業,,株式会社,佐賀県,佐賀市,開成３丁目２番２８号,,41,201,8490934,,,,,,,2022-05-10,1,,,,,ダイホウコウギョウ,0
2838,8300003001841,新規,0,2022-05-10,2022-05-10,合同会社双葉,,合同会社,佐賀県,藤津郡太良町,大字多良１７１６番地,,41,441,8491602,,,,,,,2022-05-10,1,,,,,フタバ,0
2839,8310001017847,新規,0,2022-05-10,2022-05-10,トーラテックス株式会社,,株式会社,長崎県,佐世保市,小佐々町西川内５８１番地２,,42,202,8570412,,,,,,,2022-05-10,1,,,,,トーラテックス,0
2840,8310001017855,新規,0,2022-05-10,2022-05-10,株式会社フナトウヅ,,株式会社,長崎県,松浦市,鷹島町舩唐津免１０３１番地,,42,208,8594308,,,,,,,2022-05-10,1,,,,,フナトウヅ,0
2844,8320001019058,新規,0,2022-05-10,2022-05-10,別府総建株式会社,,株式会社,大分県,別府市,上田の湯町１７番６号７０３,,44,202,8740908,,,,,,,2022-05-10,1,,,,,ベップソウケン,0
2846,8320003003803,新規,0,2022-05-10,2022-05-10,深町農林合同会社,,合同会社,大分県,日田市,淡窓１丁目１番１６号,,44,204,8770012,,,,,,,2022-05-10,1,,,,,フカマチノウリン,0
2849,8330001029709,新規,0,2022-05-10,2022-05-10,株式会社エンシアプラス,,株式会社,熊本県,熊本市中央区,水前寺６丁目１０番３０号２階,,43,101,8620950,,,,,,,2022-05-10,1,,,,,エンシアプラス,0
2850,8330001029717,新規,0,2022-05-10,2022-05-10,株式会社松南防災,,株式会社,熊本県,宇城市,松橋町豊福１１２０番地５,,43,213,8690524,,,,,,,2022-05-10,1,,,,,ショウナンボウサイ,0
2851,8330001029725,新規,0,2022-05-10,2022-05-10,株式会社杉山企画,,株式会社,熊本県,熊本市東区,小山１丁目２番５１－１号,,43,102,8618045,,,,,,,2022-05-10,1,,,,,スギヤマキカク,0
2852,8340001024725,新規,0,2022-05-10,2022-05-10,株式会社中村工建,,株式会社,鹿児島県,姶良市,西餅田３９６６－１８,,46,225,8995431,,,,,,,2022-05-10,1,,,,,ナカムラコウケン,0
2857,8350001017736,新規,0,2022-05-10,2022-05-10,株式会社山口牧場,,株式会社,宮崎県,児湯郡新富町,大字日置５１５７番地１,,45,402,8891401,,,,,,,2022-05-10,1,,,,,ヤマグチボクジョウ,0
2865,8380001032781,新規,0,2022-05-10,2022-05-10,株式会社岡部,,株式会社,福島県,東白川郡鮫川村,大字青生野字赤小名３０番地,,07,484,9638404,,,,,,,2022-05-10,1,,,,,オカベ,0
2869,8390001016882,新規,0,2022-05-10,2022-05-10,ＰＲＥ‐ＥＶモビリティ株式会社,,株式会社,山形県,山形市,大字十文字８１２番地,,06,201,9902211,,,,,,,2022-05-10,1,,,,,プレイーブイモビリティ,0
2872,8410003003653,新規,0,2022-05-10,2022-05-10,合同会社山崎モータース,,合同会社,秋田県,南秋田郡五城目町,富津内下山内字下川原４９番地１,,05,361,0181856,,,,,,,2022-05-10,1,,,,,ヤマザキモータース,0
2876,8430001086525,新規,0,2022-05-10,2022-05-10,Ｂｌｕｅ　Ｐｌａｎｅｔ　Ｓｅｎｓｉｎｇ株式会社,,株式会社,北海道,岩見沢市,有明町南１番地１２,,01,210,0680034,,,,,,,2022-05-10,1,,,,,ブループラネットセンシング,0
2877,8430001086533,新規,0,2022-05-10,2022-05-10,錦億株式会社,,株式会社,北海道,岩見沢市,幌向北一条３丁目５６１番地３０,,01,210,0690381,,,,,,,2022-05-10,1,,,,,キンオク,0
2882,8460101007188,新規,0,2022-05-10,2022-05-10,株式会社成田機械サービス,,株式会社,北海道,河西郡芽室町,西二条２丁目１番地１,,01,637,0820032,,,,,,,2022-05-10,1,,,,,ナリタキカイサービス,0
2883,8460103001453,新規,0,2022-05-10,2022-05-10,合同会社彩,,合同会社,北海道,帯広市,西二十四条南２丁目５番地,,01,207,0802474,,,,,,,2022-05-10,1,,,,,アヤ,0
2886,8460401001246,新規,0,2022-05-10,2022-05-10,株式会社北海道秀フーズ,,株式会社,北海道,根室市,平内町２丁目１９番地,,01,223,0870048,,,,,,,2022-05-10,1,,,,,ホッカイドウヒデフーズ,0
2891,8480001011734,新規,0,2022-05-10,2022-05-10,株式会社ハッピーライフ,,株式会社,徳島県,徳島市,春日１丁目２番１１－３０３号,,36,201,7700002,,,,,,,2022-05-10,1,,,,,ハッピーライフ,0
2893,8490005006845,新規,0,2022-05-10,2022-05-10,一般社団法人地域学校協働・家庭教育支援・世代間交流センターもうひとつの大きな家族,,その他の設立登記法人,高知県,高知市,高見町３４８番地,,39,201,7808027,,,,,,,2022-05-10,1,,,,,チイキガッコウキョウドウカテイキョウイクシエンセダイカンコウリュウセンターモウヒトツノオオキナカゾク,0
2895,8500003002828,新規,0,2022-05-10,2022-05-10,合同会社Ｌｅｇａｌ　Ｉｓｌａｎｄ,,合同会社,愛媛県,東温市,志津川南１丁目２番地５,,38,215,7910206,,,,,,,2022-05-10,1,,,,,リーガルアイランド,0
2904,9010001226337,新規,0,2022-05-10,2022-05-10,株式会社石田屋,,株式会社,東京都,中央区,日本橋小網町８－２ＢＩＺＭＡＲＫＳ日本橋茅場町,,13,102,1030016,,,,,,,2022-05-10,1,,,,,イシダヤ,0
2905,9010001226403,新規,0,2022-05-10,2022-05-10,株式会社メドリッヒ,,株式会社,東京都,千代田区,丸の内１丁目８－３丸の内トラストタワー本館２０階,,13,101,1000005,,,,,,,2022-05-10,1,,,,,メドリッヒ,0
2906,9010001226411,新規,0,2022-05-10,2022-05-10,株式会社ソルトシェイカー,,株式会社,東京都,中央区,築地１丁目５番８号,,13,102,1040045,,,,,,,2022-05-10,1,,,,,ソルトシェイカー,0
2907,9010001226428,新規,0,2022-05-10,2022-05-10,株式会社ＵｎｉＬａｂｓ,,株式会社,東京都,千代田区,一番町７番地１一番町ビルヂング６階,,13,101,1020082,,,,,,,2022-05-10,1,,,,,ユニラボ,0
2908,9010001226444,新規,0,2022-05-10,2022-05-10,株式会社ＤｉｒｅｃｔｏｒｓＤｏｃｋ,,株式会社,東京都,千代田区,岩本町１丁目２番１３号,,13,101,1010032,,,,,,,2022-05-10,1,,,,,ディレクターズドック,0
2909,9010001226452,新規,0,2022-05-10,2022-05-10,株式会社キヨシー,,株式会社,東京都,千代田区,神田淡路町２丁目１０１番地ワテラスタワーレジデンス３５０６号,,13,101,1010063,,,,,,,2022-05-10,1,,,,,キヨシー,0
2910,9010001226460,新規,0,2022-05-10,2022-05-10,株式会社ＡＤＥＬＡＮＴＥ,,株式会社,東京都,中央区,銀座１丁目４番４号ギンザ１０４ビル８階,,13,102,1040061,,,,,,,2022-05-10,1,,,,,アデランテ,0
2911,9010001226493,新規,0,2022-05-10,2022-05-10,ウィズダムリンクス・ジャパン株式会社,,株式会社,東京都,中央区,銀座５丁目１５番１号,,13,102,1040061,,,,,,,2022-05-10,1,,,,,ウィズダムリンクスジャパン,0
2912,9010003037625,新規,0,2022-05-10,2022-05-10,合同会社ＥＸＩＡ,,合同会社,東京都,中央区,銀座１丁目２２番１１号銀座大竹ビジデンス２階,,13,102,1040061,,,,,,,2022-05-10,1,,,,,エクシア,0
2914,9010005034967,新規,0,2022-05-10,2022-05-10,一般社団法人ＩＭＡ価値共創研究会,,その他の設立登記法人,東京都,千代田区,一番町１０－８一番町ウェストビル５階,,13,101,1020082,,,,,,,2022-05-10,1,,,,,アイエムエイカチキョウソウケンキュウカイ,0
2922,9010401167180,新規,0,2022-05-10,2022-05-10,株式会社ＰａＷａ,,株式会社,東京都,港区,新橋５丁目１２－１１天翔新橋五丁目ビル,,13,103,1050004,,,,,,,2022-05-10,1,,,,,パワ,0
2923,9010401167222,新規,0,2022-05-10,2022-05-10,株式会社ロボフルワークス,,株式会社,東京都,港区,南青山２丁目２番１５号,,13,103,1070062,,,,,,,2022-05-10,1,,,,,ロボフルワークス,0
2925,9010403027597,新規,0,2022-05-10,2022-05-10,日本医療地域連携支援合同会社,,合同会社,東京都,港区,南青山７丁目２番１０号パークナードフィット南青山ガーデン２０６,,13,103,1070062,,,,,,,2022-05-10,1,,,,,ニホンイリョウチイキレンケイシエン,0
2927,9010405020955,新規,0,2022-05-10,2022-05-10,ビーナスインフラホールディングス一般社団法人,,その他の設立登記法人,東京都,港区,元赤坂１丁目１番７号,,13,103,1070051,,,,,,,2022-05-10,1,,,,,ビーナスインフラホールディングス,0
2934,9010601061043,新規,0,2022-05-10,2022-05-10,株式会社ＨａＳ,,株式会社,東京都,墨田区,亀沢４丁目２１－３ケイエスビル３Ｆｃｏ－ｌａｂ墨田亀沢,,13,107,1300014,,,,,,,2022-05-10,1,,,,,ハンズアンドストーンズ,0
2937,9010701042612,新規,0,2022-05-10,2022-05-10,ＣＡ　Ｇｒｏｕｐ　Ｃｏｍｐａｎｙ株式会社,,株式会社,東京都,品川区,二葉１丁目２３番９号ウィステリア品川二葉１０１,,13,109,1420043,,,,,,,2022-05-10,1,,,,,シーエーグループカンパニー,0
2940,9010801032934,新規,0,2022-05-10,2022-05-10,グリシーナ・アカンパニー株式会社,,株式会社,東京都,大田区,大森北１丁目３３番７－６０３号,,13,111,1430016,,,,,,,2022-05-10,1,,,,,グリシーナアカンパニー,0
2941,9010801032942,新規,0,2022-05-10,2022-05-10,株式会社ＡＳＳＩＳＴ　ＡＬＦＡ,,株式会社,東京都,大田区,大森西５丁目１６番１５号ウィル・フラット２０１,,13,111,1430015,,,,,,,2022-05-10,1,,,,,アシストアルファ,0
2942,9010803004163,新規,0,2022-05-10,2022-05-10,合同会社ナナサン,,合同会社,東京都,大田区,上池台３丁目３６番３号,,13,111,1450064,,,,,,,2022-05-10,1,,,,,ナナサン,0
2952,9011001147382,新規,0,2022-05-10,2022-05-10,株式会社神宮前ラボ,,株式会社,東京都,渋谷区,神宮前６丁目１８番２号グランドマンション原宿４０１,,13,113,1500001,,,,,,,2022-05-10,1,,,,,ジングウマエラボ,0
2953,9011001147408,新規,0,2022-05-10,2022-05-10,株式会社リーデル,,株式会社,東京都,渋谷区,本町３丁目４１番１８－６０３号,,13,113,1510071,,,,,,,2022-05-10,1,,,,,リーデル,0
2954,9011001147432,新規,0,2022-05-10,2022-05-10,株式会社日本健康文化振興会,,株式会社,東京都,渋谷区,渋谷３丁目１８番５号,,13,113,1500002,,,,,,,2022-05-10,1,,,,,ニホンケンコウブンカシンコウカイ,0
2957,9011101098740,新規,0,2022-05-10,2022-05-10,株式会社ウェイシン東日本,,株式会社,東京都,新宿区,若葉１丁目１０番５号,,13,104,1600011,,,,,,,2022-05-10,1,,,,,ウェイシンヒガシニホン,0
2958,9011101098749,新規,0,2022-05-10,2022-05-10,株式会社アクセル,,株式会社,東京都,新宿区,西新宿７丁目５番５号Ｐｌａｚａ西新宿ＵＣＦ４階,,13,104,1600023,,,,,,,2022-05-10,1,,,,,アクセル,0
2959,9011101098757,新規,0,2022-05-10,2022-05-10,株式会社リカレント,,株式会社,東京都,新宿区,新宿３丁目１番１３号,,13,104,1600022,,,,,,,2022-05-10,1,,,,,リカレント,0
2960,9011101098773,新規,0,2022-05-10,2022-05-10,Ｈｅａｌｔｈｃａｒｅ株式会社,,株式会社,東京都,新宿区,新宿１丁目３１－１６第一交栄ビル５階,,13,104,1600022,,,,,,,2022-05-10,1,,,,,ヘルスケア,0
2961,9011103011718,新規,0,2022-05-10,2022-05-10,ＤＡＩＴＯＳＯＲＡ合同会社,,合同会社,東京都,新宿区,高田馬場３丁目１９番１４号,,13,104,1690075,,,,,,,2022-05-10,1,,,,,ダイトソラ,0
2967,9011401024215,新規,0,2022-05-10,2022-05-10,株式会社ＡｉｒＰｈｏｔｏ,,株式会社,東京都,板橋区,中丸町３１番７号澤田ビル２Ｆ,,13,119,1730026,,,,,,,2022-05-10,1,,,,,エアフォト,0
2968,9011403003654,新規,0,2022-05-10,2022-05-10,合同会社ふろあぶる,,合同会社,東京都,板橋区,赤塚２丁目１７番１２号,,13,119,1750092,,,,,,,2022-05-10,1,,,,,フロアブル,0
2972,9011601025946,新規,0,2022-05-10,2022-05-10,アンティーゾ株式会社,,株式会社,東京都,練馬区,北町７丁目４－６－２０２,,13,120,1790081,,,,,,,2022-05-10,1,,,,,アンティーゾ,0
2976,9011801040687,新規,0,2022-05-10,2022-05-10,株式会社ジャンプ,,株式会社,東京都,葛飾区,奥戸５丁目１９番１７号,,13,122,1240022,,,,,,,2022-05-10,1,,,,,ジャンプ,0
2977,9012401039145,新規,0,2022-05-10,2022-05-10,株式会社ブレイクドットエージェント,,株式会社,東京都,狛江市,中和泉４丁目３－３２アイディスクエア３０１,,13,219,2010012,,,,,,,2022-05-10,1,,,,,ブレイクドットエージェント,0
2978,9012401039178,新規,0,2022-05-10,2022-05-10,株式会社ＬＡＵＧＨＩＮＧ　ＱＵＥＳＴ,,株式会社,東京都,調布市,調布ケ丘３丁目１４番地６号ルプレジール１０１,,13,208,1820021,,,,,,,2022-05-10,1,,,,,ラフィンクエスト,0
2980,9012403005351,新規,0,2022-05-10,2022-05-10,合同会社ワンサンシックス,,合同会社,東京都,武蔵野市,吉祥寺本町４丁目１２番１０号,,13,203,1800004,,,,,,,2022-05-10,1,,,,,ワンサンシックス,0
2996,9020001146385,新規,0,2022-05-10,2022-05-10,慶真工業株式会社,,株式会社,神奈川県,横浜市栄区,飯島町１０４５番地,,14,115,2440842,,,,,,,2022-05-10,1,,,,,ケイシンコウギョウ,0
2997,9020001146410,新規,0,2022-05-10,2022-05-10,株式会社ｉｎｇｒａｆｔ,,株式会社,神奈川県,横浜市青葉区,美しが丘２丁目４－１たまプラーザ美しが丘スカイマンションＡ－７０５,,14,117,2250002,,,,,,,2022-05-10,1,,,,,イングラフト,0
2998,9020001146427,新規,0,2022-05-10,2022-05-10,株式会社ＧＯＡＴ,,株式会社,神奈川県,川崎市川崎区,浜町２丁目１０番１号,,14,131,2100851,,,,,,,2022-05-10,1,,,,,ゴート,0
2999,9020001146443,新規,0,2022-05-10,2022-05-10,株式会社Ｍ・Ｙカンパニー,,株式会社,神奈川県,横浜市南区,蒔田町字原１３５番地,,14,105,2320043,,,,,,,2022-05-10,1,,,,,エムワイカンパニー,0
3005,9021001075888,新規,0,2022-05-10,2022-05-10,株式会社宏咲,,株式会社,神奈川県,横須賀市,吉井２丁目７番２１－３０２号,,14,201,2390804,,,,,,,2022-05-10,1,,,,,コウショウ,0
3007,9021003011668,新規,0,2022-05-10,2022-05-10,大城設計合同会社,,合同会社,神奈川県,座間市,入谷西１丁目４番１６－５０７号,,14,216,2520029,,,,,,,2022-05-10,1,,,,,オオキセッケイ,0
3009,9030001148018,新規,0,2022-05-10,2022-05-10,株式会社食と人,,株式会社,埼玉県,所沢市,若狭４丁目２５１８番地の８,,11,208,3591151,,,,,,,2022-05-10,1,,,,,ショクトヒト,0
3010,9030001148026,新規,0,2022-05-10,2022-05-10,株式会社ポンチャートレイン,,株式会社,埼玉県,久喜市,久喜東５丁目２０番３号,,11,232,3460016,,,,,,,2022-05-10,1,,,,,ポンチャートレイン,0
3011,9030001148042,新規,0,2022-05-10,2022-05-10,株式会社飯田工業,,株式会社,埼玉県,吉川市,吉川１丁目１５番地１４,,11,243,3420055,,,,,,,2022-05-10,1,,,,,イイダコウギョウ,0
3012,9030001148067,新規,0,2022-05-10,2022-05-10,つばさ綜合管理株式会社,,株式会社,埼玉県,飯能市,栄町２２番地６,,11,209,3570025,,,,,,,2022-05-10,1,,,,,ツバサソウゴウカンリ,0
3013,9030001148083,新規,0,2022-05-10,2022-05-10,株式会社ミルディール,,株式会社,埼玉県,幸手市,大字松石１７０番地,,11,240,3400105,,,,,,,2022-05-10,1,,,,,ミルディール,0
3014,9030001148117,新規,0,2022-05-10,2022-05-10,株式会社イノベーティス,,株式会社,埼玉県,さいたま市浦和区,常盤４丁目１４番７－１０２号,,11,107,3300061,,,,,,,2022-05-10,1,,,,,イノベーティス,0
3015,9030001148133,新規,0,2022-05-10,2022-05-10,Ｎｉｐｐｏｎ　Ｔｒｅｎｄｓ　Ｆｏｏｄ　Ｓｅｒｖｉｃｅ　Ｊａｐａｎ株式会社,,株式会社,埼玉県,さいたま市南区,鹿手袋２丁目１７番１８－５０６号,,11,108,3360031,,,,,,,2022-05-10,1,,,,,ニッポントレンズフードサービスジャパン,0
3016,9030001148141,新規,0,2022-05-10,2022-05-10,ヤナギサワファクトリー株式会社,,株式会社,埼玉県,川口市,中青木１丁目９－１８ハイリーハイツ中青木３０３,,11,203,3320032,,,,,,,2022-05-10,1,,,,,ヤナギサワファクトリー,0
3018,9030003019357,新規,0,2022-05-10,2022-05-10,合同会社ＰＬＡＮ　Ｂ,,合同会社,埼玉県,草加市,弁天１丁目２５番１５号,,11,221,3400004,,,,,,,2022-05-10,1,,,,,プランビー,0
3023,9040001123250,新規,0,2022-05-10,2022-05-10,株式会社セブンツー・４,,株式会社,千葉県,千葉市美浜区,浜田１丁目３番地コロンブスシティ１３２１号,,12,106,2610025,,,,,,,2022-05-10,1,,,,,セブンツーフォー,0
3024,9040001123259,新規,0,2022-05-10,2022-05-10,アマテラス株式会社,,株式会社,千葉県,千葉市緑区,おゆみ野南５丁目２４番地２おゆみ野パークハウス２番館６０１号,,12,105,2660033,,,,,,,2022-05-10,1,,,,,アマテラス,0
3025,9040001123275,新規,0,2022-05-10,2022-05-10,株式会社ＩＴＳ,,株式会社,千葉県,四街道市,旭ケ丘２丁目５番１号,,12,228,2840024,,,,,,,2022-05-10,1,,,,,アイティーエス,0
3026,9040001123283,新規,0,2022-05-10,2022-05-10,株式会社ミントステート,,株式会社,千葉県,松戸市,根木内５５６番地の２８,,12,207,2700011,,,,,,,2022-05-10,1,,,,,ミントステート,0
3027,9040001123291,新規,0,2022-05-10,2022-05-10,昌盛工業株式会社,,株式会社,千葉県,木更津市,清見台東１丁目９番９号,,12,206,2920041,,,,,,,2022-05-10,1,,,,,ショウセイコウギョウ,0
3028,9040001123341,新規,0,2022-05-10,2022-05-10,株式会社稲坂緑化,,株式会社,千葉県,東金市,大沼田４７２番地２,,12,213,2830051,,,,,,,2022-05-10,1,,,,,イナサカリョッカ,0
3030,9040003019983,新規,0,2022-05-10,2022-05-10,合同会社和興,,合同会社,千葉県,市原市,能満１９０７番地１２４,,12,219,2900011,,,,,,,2022-05-10,1,,,,,ワコウ,0
3031,9040003020009,新規,0,2022-05-10,2022-05-10,ＨＯＬＯＭＵＡ合同会社,,合同会社,千葉県,富里市,日吉台６丁目２４番地３,,12,233,2860201,,,,,,,2022-05-10,1,,,,,ホロムア,0
3034,9050001051054,新規,0,2022-05-10,2022-05-10,綿引興業株式会社,,株式会社,茨城県,那珂市,菅谷３７７３番地２,,08,226,3110105,,,,,,,2022-05-10,1,,,,,ワタヒキコウギョウ,0
3036,9050003006543,新規,0,2022-05-10,2022-05-10,合同会社ディールズオンウィールズ,,合同会社,茨城県,東茨城郡茨城町,大字長岡３３１８番地８７,,08,302,3113116,,,,,,,2022-05-10,1,,,,,ディールズオンウィールズ,0
3037,9050003006551,新規,0,2022-05-10,2022-05-10,合同会社吉田開発,,合同会社,茨城県,古河市,関戸１２８０番地２４,,08,204,3060205,,,,,,,2022-05-10,1,,,,,ヨシダカイハツ,0
3040,9060001034842,新規,0,2022-05-10,2022-05-10,株式会社シェアリングファーム,,株式会社,栃木県,足利市,寺岡町３５１番地,,09,202,3294213,,,,,,,2022-05-10,1,,,,,シェアリングファーム,0
3041,9060001034850,新規,0,2022-05-10,2022-05-10,株式会社エスケーホーム鹿沼,,株式会社,栃木県,鹿沼市,上石川１４８０番地５５,,09,205,3220015,,,,,,,2022-05-10,1,,,,,エスケーホームカヌマ,0
3042,9060001034859,新規,0,2022-05-10,2022-05-10,株式会社大貫ＲＣ巧建,,株式会社,栃木県,那須塩原市,鍋掛１４９１番地４,,09,213,3250013,,,,,,,2022-05-10,1,,,,,オオヌキアールシーコウケン,0
3046,9060003004067,新規,0,2022-05-10,2022-05-10,Ｐｒｏｊｅｃｔ　Ｋ合同会社,,合同会社,栃木県,日光市,板橋３２４２－２,,09,206,3211102,,,,,,,2022-05-10,1,,,,,プロジェクトケイ,0
3047,9070001039205,新規,0,2022-05-10,2022-05-10,Ｇｒｅｅｎ　Ｔｏｐ　Ｆａｒｍ株式会社,,株式会社,群馬県,高崎市,棟高町１３３８番地１－１号,,10,202,3703521,,,,,,,2022-05-10,1,,,,,グリーントップファーム,0
3048,9070001039213,新規,0,2022-05-10,2022-05-10,株式会社清水工業,,株式会社,群馬県,太田市,高林南町２１２番地１,,10,205,3730827,,,,,,,2022-05-10,1,,,,,シミズコウギョウ,0
3056,9080403004532,新規,0,2022-05-10,2022-05-10,合同会社アイリスメディアアーツ,,合同会社,静岡県,磐田市,見付１５３７番地１,,22,211,4380086,,,,,,,2022-05-10,1,,,,,アイリスメディアアーツ,0
3059,9100001035308,新規,0,2022-05-10,2022-05-10,Ｍ株式会社,,株式会社,長野県,松本市,大手４丁目１番３－３０３号リヴァージュ松本縄手,,20,202,3900874,,,,,,,2022-05-10,1,,,,,エム,0
3060,9100001035316,新規,0,2022-05-10,2022-05-10,株式会社メカニック太陽,,株式会社,長野県,長野市,大字川合新田８０１番地２,,20,201,3800913,,,,,,,2022-05-10,1,,,,,メカニックタイヨウ,0
3063,9100003006538,新規,0,2022-05-10,2022-05-10,合同会社Ｓｈｏｐ吉川,,合同会社,長野県,飯田市,上郷別府３３４９番地１９,,20,205,3950003,,,,,,,2022-05-10,1,,,,,ショップヨシカワ,0
3066,9110001036643,新規,0,2022-05-10,2022-05-10,株式会社ＨＭ　ＴＲＡＤＩＮＧ,,株式会社,新潟県,新潟市北区,横土居３４０２番地,,15,101,9503303,,,,,,,2022-05-10,1,,,,,,0
3067,9110003004755,新規,0,2022-05-10,2022-05-10,合同会社ｅｎｔｏ,,合同会社,新潟県,燕市,東太田１３５９,,15,213,9591289,,,,,,,2022-05-10,1,,,,,,0
3068,9110005016807,新規,0,2022-05-10,2022-05-10,医療法人社団ＭＮＣ,,その他の設立登記法人,新潟県,新潟市東区,物見山４丁目７番１６号,,15,102,9500021,,,,,,,2022-05-10,1,,,,,エムエヌシイ,0
3085,9120001245689,新規,0,2022-05-10,2022-05-10,株式会社ウッドプラン,,株式会社,大阪府,大阪市生野区,巽東３丁目２番２８号,00126489,27,116,5440014,,,,,,,2022-05-10,1,,,,,ウッドプラン,0
3086,9120001245697,新規,0,2022-05-10,2022-05-10,株式会社ＣＯＺＷＩＳＨ　ＪＡＰＡＮ,,株式会社,大阪府,大阪市中央区,北浜東１番１２号天満橋フジタビル８０２,,27,128,5400031,,,,,,,2022-05-10,1,,,,,コズウィッシュジャパン,0
3087,9120001245706,新規,0,2022-05-10,2022-05-10,Ｙ’ｓ株式会社,,株式会社,大阪府,大阪市中央区,伏見町４丁目４番１号,,27,128,5410044,,,,,,,2022-05-10,1,,,,,ワイズ,0
3088,9120001245730,新規,0,2022-05-10,2022-05-10,セールス・インテリジェンス株式会社,,株式会社,大阪府,大阪市西区,西本町１丁目４番１号オリックス本町ビル４階,,27,106,5500005,,,,,,,2022-05-10,1,,,,,セールスインテリジェンス,0
3089,9120001245739,新規,0,2022-05-10,2022-05-10,株式会社ダブルアール,,株式会社,大阪府,大阪市平野区,瓜破東２丁目１０番５４号３０２,,27,126,5470022,,,,,,,2022-05-10,1,,,,,ダブルアール,0
3090,9120001245763,新規,0,2022-05-10,2022-05-10,株式会社響,,株式会社,大阪府,大阪市旭区,大宮５丁目１番２９号プランドール大宮３０１号,,27,117,5350002,,,,,,,2022-05-10,1,,,,,キョウ,0
3091,9120001245771,新規,0,2022-05-10,2022-05-10,株式会社スタナー,,株式会社,大阪府,大阪市浪速区,難波中２丁目４番８号アインエステートビル６階,,27,111,5560011,,,,,,,2022-05-10,1,,,,,スタナー,0
3093,9120003021626,新規,0,2022-05-10,2022-05-10,合同会社ノリシロ,,合同会社,大阪府,大阪市北区,梅田２丁目４番９号,,27,127,5300001,,,,,,,2022-05-10,1,,,,,ノリシロ,0
3094,9120003021642,新規,0,2022-05-10,2022-05-10,パスアクロス合同会社,,合同会社,大阪府,大阪市東住吉区,杭全５丁目４－１,,27,121,5460002,,,,,,,2022-05-10,1,,,,,パスアクロス,0
3095,9120003021650,新規,0,2022-05-10,2022-05-10,Ｂｒｉｃｏｌｅｕｓｅ合同会社,,合同会社,大阪府,大阪市西区,南堀江１丁目１４番１４号,,27,106,5500015,,,,,,,2022-05-10,1,,,,,ブリコルーズ,0
3100,9120101065517,新規,0,2022-05-10,2022-05-10,隆誠建設株式会社,,株式会社,大阪府,堺市北区,東浅香山町２丁１８番地７,,27,146,5918008,,,,,,,2022-05-10,1,,,,,リュウセイケンセツ,0
3101,9120101065558,新規,0,2022-05-10,2022-05-10,株式会社小嶋紙工,,株式会社,大阪府,富田林市,伏山３丁目１６番１２号,,27,214,5840061,,,,,,,2022-05-10,1,,,,,コジマシコウ,0
3104,9120103004687,新規,0,2022-05-10,2022-05-10,ニューアトランティス合同会社,,合同会社,大阪府,河内長野市,美加の台７丁目２７番７号,,27,216,5860044,,,,,,,2022-05-10,1,,,,,ニューアトランティス,0
3105,9120901045940,新規,0,2022-05-10,2022-05-10,株式会社ＩＭＡＤＡ,,株式会社,大阪府,箕面市,小野原東５丁目１８番１０号（２０２号）,,27,220,5620031,,,,,,,2022-05-10,1,,,,,イマダ,0
3107,9120903004143,新規,0,2022-05-10,2022-05-10,合同会社３６９産業,,合同会社,大阪府,豊中市,上野坂１丁目１０－８,,27,203,5600012,,,,,,,2022-05-10,1,,,,,ミロクサンギョウ,0
3111,9130001071721,新規,0,2022-05-10,2022-05-10,株式会社ｓｔｅｌｌａ,,株式会社,京都府,京都市山科区,竹鼻外田町１９－２,,26,110,6078081,,,,,,,2022-05-10,1,,,,,ステラ,0
3112,9130005016466,新規,0,2022-05-10,2022-05-10,特定非営利活動法人京都社会福祉推進協議会,,その他の設立登記法人,京都府,京都市上京区,丸太町通黒門東入藁屋町５３６番地１号元待賢小学校３階３０７号室,,26,102,6028144,,,,,,,2022-05-10,1,,,,,キョウトシャカイフクシスイシンキョウギカイ,0
3120,9140001125872,新規,0,2022-05-10,2022-05-10,エヌケー保険サービス株式会社,,株式会社,兵庫県,加東市,社７８０番地コーポ佐保１０１号,,28,228,6731431,,,,,,,2022-05-10,1,,,,,エヌケーホケンサービス,0
3128,9160001024164,新規,0,2022-05-10,2022-05-10,株式会社ドリームアシスト滋賀,,株式会社,滋賀県,彦根市,八坂町３０７３番地１,,25,202,5220057,,,,,,,2022-05-10,1,,,,,ドリームアシストシガ,0
3129,9160001024172,新規,0,2022-05-10,2022-05-10,Ｏｌｄ　Ｒｏｃｋ　Ｓｈｉｐ株式会社,,株式会社,滋賀県,蒲生郡竜王町,大字山中１７２６番地１７,,25,384,5202542,,,,,,,2022-05-10,1,,,,,オールドロックシップ,0
3146,9180001151163,新規,0,2022-05-10,2022-05-10,ＤＡＮＲＯ株式会社,,株式会社,愛知県,名古屋市熱田区,伝馬１丁目８番１０号（オープンレジデンシア神宮南５０２号）,,23,109,4560034,,,,,,,2022-05-10,1,,,,,ダンロ,0
3147,9180001151196,新規,0,2022-05-10,2022-05-10,ホットスペース株式会社,,株式会社,愛知県,名古屋市中区,栄５丁目２４番１５号,,23,106,4600008,,,,,,,2022-05-10,1,,,,,ホットスペース,0
3148,9180001151246,新規,0,2022-05-10,2022-05-10,株式会社アイワ塗装技建,,株式会社,愛知県,名古屋市西区,中小田井３丁目３４５番地,,23,104,4520822,,,,,,,2022-05-10,1,,,,,アイワトソウギケン,0
3156,9180301036196,新規,0,2022-05-10,2022-05-10,株式会社ミライン,,株式会社,愛知県,岡崎市,上六名１丁目４番地２,,23,202,4440858,,,,,,,2022-05-10,1,,,,,ミライン,0
3157,9180301036205,新規,0,2022-05-10,2022-05-10,株式会社ＯＲＥＺ,,株式会社,愛知県,西尾市,花蔵寺町上島４９番地,,23,213,4450035,,,,,,,2022-05-10,1,,,,,オレズ,0
3160,9180303005323,新規,0,2022-05-10,2022-05-10,合同会社ｍｏｎｏ　ｃｒａｆｔ,,合同会社,愛知県,安城市,東栄町５丁目３２番地８,,23,212,4460007,,,,,,,2022-05-10,1,,,,,モノクラフト,0
3163,9190005011701,新規,0,2022-05-10,2022-05-10,一般社団法人タケガワふれあい動物園,,その他の設立登記法人,三重県,松阪市,新松ヶ島町１９０番地７,,24,204,5150801,,,,,,,2022-05-10,1,,,,,タケガワフレアイドウブツエン,0
3168,9210001018912,新規,0,2022-05-10,2022-05-10,株式会社晃功設備,,株式会社,福井県,越前市,芝原４丁目３番１号,,18,209,9150805,,,,,,,2022-05-10,1,,,,,コウコウセツビ,0
3171,9220001024827,新規,0,2022-05-10,2022-05-10,株式会社ＣＰ・ＣＯＭＰＡＮＹ,,株式会社,石川県,金沢市,八日市１丁目２９７番地３,,17,201,9218064,,,,,,,2022-05-10,1,,,,,シーピーカンパニー,0
3172,9220005008669,新規,0,2022-05-10,2022-05-10,一般社団法人ライフプロデュース協会,,その他の設立登記法人,石川県,金沢市,薬師町ロ１１１番地２６,,17,201,9200174,,,,,,,2022-05-10,1,,,,,ライフプロデュースキョウカイ,0
3175,9240001059730,新規,0,2022-05-10,2022-05-10,株式会社エヌズ,,株式会社,広島県,福山市,東深津町３丁目８番３３号,,34,207,7210974,,,,,,,2022-05-10,1,,,,,エヌズ,0
3176,9240001059747,新規,0,2022-05-10,2022-05-10,ｌａ　ｌｉｂｅｒｔａ　ｄｅｓｉｇｎ　ｏｆｆｉｃｅ株式会社,,株式会社,広島県,広島市中区,大手町５丁目２１番１－６０５号,,34,101,7300051,,,,,,,2022-05-10,1,,,,,ラリベルタデザインオフィス,0
3177,9240001059755,新規,0,2022-05-10,2022-05-10,廣神汽船株式会社,,株式会社,広島県,東広島市,安芸津町木谷４１１番地４,,34,212,7392401,,,,,,,2022-05-10,1,,,,,コウジンキセン,0
3178,9240001059763,新規,0,2022-05-10,2022-05-10,株式会社ネクスト,,株式会社,広島県,安芸郡府中町,浜田３丁目１２番１０－２０２号,,34,302,7350013,,,,,,,2022-05-10,1,,,,,ネクスト,0
3181,9250001019543,新規,0,2022-05-10,2022-05-10,デザインプラス株式会社,,株式会社,山口県,大島郡周防大島町,大字東三蒲４８１番地１,,35,305,7422102,,,,,,,2022-05-10,1,,,,,デザインプラス,0
3185,9280001008691,新規,0,2022-05-10,2022-05-10,株式会社叶,,株式会社,島根県,松江市,殿町２５４番地,,32,201,6900887,,,,,,,2022-05-10,1,,,,,カナウ,0
3196,9290001097429,新規,0,2022-05-10,2022-05-10,株式会社カドワキ機械,,株式会社,福岡県,那珂川市,大字後野６１１番地５,,40,231,8111241,,,,,,,2022-05-10,1,,,,,カドワキキカイ,0
3197,9290001097453,新規,0,2022-05-10,2022-05-10,株式会社タカノ工務店,,株式会社,福岡県,飯塚市,西徳前６番４７－１号,,40,205,8200031,,,,,,,2022-05-10,1,,,,,タカノコウムテン,0
3199,9290003012476,新規,0,2022-05-10,2022-05-10,合同会社ブループリント,,合同会社,福岡県,宗像市,日の里９丁目７番地７,,40,220,8113425,,,,,,,2022-05-10,1,,,,,ブループリント,0
3200,9290003012492,新規,0,2022-05-10,2022-05-10,レイジーググ合同会社,,合同会社,福岡県,福岡市中央区,白金１丁目２１番１６号２階ｇｏｏｄｏｆｆｉｃｅ薬院１号室,,40,133,8100012,,,,,,,2022-05-10,1,,,,,レイジーググ,0
3203,9290801028509,新規,0,2022-05-10,2022-05-10,株式会社Ｃｌａｒｉｔｈ,,株式会社,福岡県,遠賀郡遠賀町,大字鬼津１７４０番地の１,,40,384,8114341,,,,,,,2022-05-10,1,,,,,クラリス,0
3208,9300001012914,新規,0,2022-05-10,2022-05-10,株式会社サイラー,,株式会社,佐賀県,西松浦郡有田町,本町字赤松原丙７８５番地７,,41,401,8440018,,,,,,,2022-05-10,1,,,,,サイラー,0
3209,9300001012922,新規,0,2022-05-10,2022-05-10,株式会社丸上青果,,株式会社,佐賀県,佐賀市,鍋島町大字森田２７２１番地１,,41,201,8490936,,,,,,,2022-05-10,1,,,,,マルガミセイカ,0
3213,9310001017854,新規,0,2022-05-10,2022-05-10,株式会社ＰＵＫＰＵＫ,,株式会社,長崎県,長崎市,鍛冶屋町７－４８,,42,201,8500831,,,,,,,2022-05-10,1,,,,,プクプク,0
3216,9320003003802,新規,0,2022-05-10,2022-05-10,合同会社サクセスプレイス,,合同会社,大分県,大分市,大字下郡３０５５番地の５パークサイド下ごおり北１００６,,44,201,8700951,,,,,,,2022-05-10,1,,,,,サクセスプレイス,0
3222,9340001024716,新規,0,2022-05-10,2022-05-10,株式会社ＯＮ　ＳＨＯＲＥ,,株式会社,鹿児島県,大島郡龍郷町,大勝２２０５－１５,,46,527,8940105,,,,,,,2022-05-10,1,,,,,オンショア,0
3223,9340001024724,新規,0,2022-05-10,2022-05-10,株式会社特総,,株式会社,鹿児島県,鹿児島市,西田２丁目１７番２７号Ｃ号,,46,201,8900046,,,,,,,2022-05-10,1,,,,,トクソウ,0
3225,9340003003767,新規,0,2022-05-10,2022-05-10,合同会社フリーク,,合同会社,鹿児島県,鹿児島市,広木２丁目７２番１０号,,46,201,8900037,,,,,,,2022-05-10,1,,,,,フリーク,0
3226,9340003003775,新規,0,2022-05-10,2022-05-10,合同会社ｃｈｉｉｎａｈａ,,合同会社,鹿児島県,鹿児島市,中央町３１番地１,,46,201,8900053,,,,,,,2022-05-10,1,,,,,チーナハ,0
3230,9360001030365,新規,0,2022-05-10,2022-05-10,株式会社離島未来ラボ,,株式会社,沖縄県,宮古島市,下地字来間１２６番地３,,47,214,9060306,,,,,,,2022-05-10,1,,,,,リトウミライラボ,0
3231,9360003011999,新規,0,2022-05-10,2022-05-10,合同会社ココロおき楽,,合同会社,沖縄県,島尻郡南風原町,字神里５５番地２,,47,350,9011114,,,,,,,2022-05-10,1,,,,,ココロオキラク,0
3234,9370001048514,新規,0,2022-05-10,2022-05-10,株式会社エフエムなとり,,株式会社,宮城県,名取市,増田字柳田３８５－３,,04,207,9811224,,,,,,,2022-05-10,1,,,,,エフエムナトリ,0
3235,9370001048530,新規,0,2022-05-10,2022-05-10,株式会社布田興業,,株式会社,宮城県,岩沼市,三色吉字杉ノ内２４番地の３,,04,211,9892464,,,,,,,2022-05-10,1,,,,,フダコウギョウ,0
3236,9370003005686,新規,0,2022-05-10,2022-05-10,合同会社エープラス,,合同会社,宮城県,仙台市青葉区,北根３丁目１５番１３－３０６号,,04,101,9810902,,,,,,,2022-05-10,1,,,,,エープラス,0
3246,9390001016881,新規,0,2022-05-10,2022-05-10,株式会社ＡｕＢｏｎＡｃｃｕｅｉｌ,,株式会社,山形県,鶴岡市,大宝寺字日本国３７８番地４７,,06,203,9970017,,,,,,,2022-05-10,1,,,,,オーボナクイユ,0
3251,9410003003652,新規,0,2022-05-10,2022-05-10,合同会社佐々木建築設計事務所,,合同会社,秋田県,秋田市,広面字糠塚３２番地１,,05,201,0100041,,,,,,,2022-05-10,1,,,,,ササキケンチクセッケイジムショ,0
3254,9430001086557,新規,0,2022-05-10,2022-05-10,トキテクノ株式会社,,株式会社,北海道,札幌市北区,太平四条６丁目５番６号,,01,102,0028004,,,,,,,2022-05-10,1,,,,,トキテクノ,0
3259,9430003013864,新規,0,2022-05-10,2022-05-10,合同会社ＣＲＡＮＥ,,合同会社,北海道,石狩市,花川南三条３丁目１７７番地,,01,235,0613203,,,,,,,2022-05-10,1,,,,,クレイン,0
3260,9430003013872,新規,0,2022-05-10,2022-05-10,合同会社Ｒ‐ＦＩＶＥ,,合同会社,北海道,札幌市中央区,南二条西１０丁目１０００－４－８０３,,01,101,0600062,,,,,,,2022-05-10,1,,,,,アールファイブ,0
3263,9450001013699,新規,0,2022-05-10,2022-05-10,株式会社旭産業,,株式会社,北海道,旭川市,豊岡四条１０丁目７番１９号,,01,204,0788234,,,,,,,2022-05-10,1,,,,,アサヒサンギョウ,0
3267,9470001019067,新規,0,2022-05-10,2022-05-10,株式会社グラントレンタカー,,株式会社,香川県,高松市,高松町４６８番地３,,37,201,7610104,,,,,,,2022-05-10,1,,,,,グラントレンタカー,0
3270,9480001011725,新規,0,2022-05-10,2022-05-10,ＢＯＮＤＳ　ＲＩＳＥホールディングス株式会社,,株式会社,徳島県,徳島市,福島２丁目５番４１号,,36,201,7700868,,,,,,,2022-05-10,1,,,,,ボンズライズホールディングス,0
3279,9500005008491,新規,0,2022-05-10,2022-05-10,一般社団法人ミッション・ワーク愛媛,,その他の設立登記法人,愛媛県,松山市,本町６丁目６番地７,,38,201,7900811,,,,,,,2022-05-10,1,,,,,ミッションワークエヒメ,0
