sequenceNumber,corporateNumber,process,correct,updateDate,changeDate,name,nameImageId,kind,prefectureName,cityName,streetNumber,addressImageId,prefectureCode,cityCode,postCode,addressOutside,addressOutsideImageId,closeDate,closeCause,successorCorporateNumber,changeCause,assignmentDate,latest,enName,enPrefectureName,enCityName,enAddressOutside,furigana,hihyoji
11,1010001238488,新規,0,2023-09-19,2023-09-19,緑化ビルド株式会社,,株式会社,東京都,千代田区,神田和泉町１番地１２－７冨岡ビル,,13,101,1010024,,,,,,,2023-09-19,1,,,,,リョクカビルド,0
12,1010001238513,新規,0,2023-09-19,2023-09-19,株式会社大西浩樹事務所,,株式会社,東京都,中央区,晴海３丁目１３番１－３７０７号,,13,102,1040053,,,,,,,2023-09-19,1,,,,,オオニシヒロキジムショ,0
13,1010001238521,新規,0,2023-09-19,2023-09-19,旻＿株式会社,00131943,株式会社,東京都,中央区,晴海２丁目３番２－４１０４号,,13,102,1040053,,,,,,,2023-09-19,1,,,,,ミンシン,0
17,1010003041683,新規,0,2023-09-19,2023-09-19,合同会社えこる,,合同会社,東京都,文京区,湯島３丁目３８番１１号,,13,105,1130034,,,,,,,2023-09-19,1,,,,,エコル,0
26,1010401177237,新規,0,2023-09-19,2023-09-19,株式会社ＢＥ,,株式会社,東京都,港区,白金台２丁目２６番２２号,,13,103,1080071,,,,,,,2023-09-19,1,,,,,ビィ,0
27,1010403030930,新規,0,2023-09-19,2023-09-19,ＴｓｕＫａＳａ　Ｓ‐ｓｔｙｌｅ合同会社,,合同会社,東京都,港区,南青山３丁目８番３号,,13,103,1070062,,,,,,,2023-09-19,1,,,,,ツカサエススタイル,0
28,1010405022521,新規,0,2023-09-19,2023-09-19,一般社団法人ＮＩＫＫＯ,,その他の設立登記法人,東京都,港区,愛宕１丁目６番８号,,13,103,1050002,,,,,,,2023-09-19,1,,,,,ニッコー,0
29,1010501051069,新規,0,2023-09-19,2023-09-19,株式会社５ＴＡＫＵ．ＮＥＴ,,株式会社,東京都,台東区,日本堤２丁目１０番１２号ファミーユＫＮ１Ｆ,,13,106,1110021,,,,,,,2023-09-19,1,,,,,オタクドットネット,0
32,1010601063807,新規,0,2023-09-19,2023-09-19,株式会社ＰＡＺＥＬＡ　ＨＯＭＥ,,株式会社,東京都,墨田区,太平２丁目６－１－３０２号室,,13,107,1300012,,,,,,,2023-09-19,1,,,,,パゼラホーム,0
35,1010701044847,新規,0,2023-09-19,2023-09-19,株式会社ブルクプロダクション,,株式会社,東京都,品川区,上大崎２丁目１０番１１号,,13,109,1410021,,,,,,,2023-09-19,1,,,,,ブルクプロダクション,0
36,1010701044863,新規,0,2023-09-19,2023-09-19,株式会社秋山泰商店,,株式会社,東京都,品川区,大崎１丁目６番４号大崎ニューシティー４号館,,13,109,1410032,,,,,,,2023-09-19,1,,,,,アキヤマヤスシショウテン,0
37,1010703006861,新規,0,2023-09-19,2023-09-19,合同会社Ｅｘｉｌｅ　Ｆａｃｔｏｒｙ,,合同会社,東京都,品川区,西五反田８丁目９番１１号グレンパークＧ－ＷＥＳＴ８０７,,13,109,1410031,,,,,,,2023-09-19,1,,,,,エグザイルファクトリー,0
38,1010801034335,新規,0,2023-09-19,2023-09-19,株式会社エイティーエイト,,株式会社,東京都,大田区,田園調布２丁目２６番１１号,,13,111,1450071,,,,,,,2023-09-19,1,,,,,エイティーエイト,0
40,1010803004682,新規,0,2023-09-19,2023-09-19,合同会社壱哲,,合同会社,東京都,大田区,西蒲田７丁目６３番７号,,13,111,1440051,,,,,,,2023-09-19,1,,,,,イッテツ,0
45,1010901053813,新規,0,2023-09-19,2023-09-19,株式会社萬両,,株式会社,東京都,世田谷区,上北沢５丁目６－４,,13,112,1560057,,,,,,,2023-09-19,1,,,,,,0
51,1011001157026,新規,0,2023-09-19,2023-09-19,株式会社ＫＡＬＯＮ,,株式会社,東京都,渋谷区,恵比寿西２丁目２０番１号,,13,113,1500021,,,,,,,2023-09-19,1,,,,,カロン,0
53,1011003017558,新規,0,2023-09-19,2023-09-19,合同会社小山古書,,合同会社,東京都,目黒区,目黒本町４丁目１７番１９号安藤ハイム２０２,,13,110,1520002,,,,,,,2023-09-19,1,,,,,コヤマコショ,0
55,1011101104407,新規,0,2023-09-19,2023-09-19,株式会社ＢＬＵＥ,,株式会社,東京都,新宿区,歌舞伎町１丁目１６番２号富士ビルディング７階,,13,104,1600021,,,,,,,2023-09-19,1,,,,,ブルー,0
57,1011105010782,新規,0,2023-09-19,2023-09-19,一般財団法人地域社会課題解決研究所,,その他の設立登記法人,東京都,新宿区,西五軒町１番１号西五軒町ビル５Ｆ,,13,104,1620812,,,,,,,2023-09-19,1,,,,,チイキシャカイカダイカイケツケンキュウジョ,0
64,1011403004115,新規,0,2023-09-19,2023-09-19,ＭＫ資産管理合同会社,,合同会社,東京都,板橋区,小豆沢３丁目４番８－７０２号,,13,119,1740051,,,,,,,2023-09-19,1,,,,,エムケイシサンカンリ,0
69,1011605002544,新規,0,2023-09-19,2023-09-19,一般社団法人珠スタ,,その他の設立登記法人,東京都,練馬区,春日町４丁目２４番１号,,13,120,1790074,,,,,,,2023-09-19,1,,,,,タマスタ,0
71,1011801043053,新規,0,2023-09-19,2023-09-19,株式会社ＣｒｅｓｔＬａｂ,,株式会社,東京都,葛飾区,南水元１丁目１１番４号ベル・ドゥ・プレシーユ１０３号,,13,122,1250035,,,,,,,2023-09-19,1,,,,,クレストラボ,0
73,1011803005836,新規,0,2023-09-19,2023-09-19,合同会社マウント,,合同会社,東京都,葛飾区,新小岩４丁目４１番１０号フレグラント宮元１０５,,13,122,1240024,,,,,,,2023-09-19,1,,,,,マウント,0
74,1011805003301,新規,0,2023-09-19,2023-09-19,一般社団法人心泉,,その他の設立登記法人,東京都,足立区,梅田６丁目２８番５号グリーンコーポ１０１,,13,121,1230851,,,,,,,2023-09-19,1,,,,,シンセン,0
77,1012801022633,新規,0,2023-09-19,2023-09-19,株式会社ナカヤマ,,株式会社,東京都,立川市,幸町３丁目１２番地の５,,13,202,1900002,,,,,,,2023-09-19,1,,,,,ナカヤマ,0
78,1012803003185,新規,0,2023-09-19,2023-09-19,Ｍ＆Ｒ合同会社,,合同会社,東京都,東大和市,狭山３丁目１２２５番地の１,,13,220,2070003,,,,,,,2023-09-19,1,,,,,エムアンドアール,0
83,1013301051255,新規,0,2023-09-19,2023-09-19,株式会社朝夕,,株式会社,東京都,豊島区,池袋４丁目１４番１７号コーポ多田１０２,,13,116,1710014,,,,,,,2023-09-19,1,,,,,チョウユウ,0
84,1013301051346,新規,0,2023-09-19,2023-09-19,名廷株式会社,,株式会社,東京都,豊島区,西池袋３丁目１７－１８大晃サンハイムＢ３０１号室,,13,116,1710021,,,,,,,2023-09-19,1,,,,,メイテイ,0
96,1020001153538,新規,0,2023-09-19,2023-09-19,株式会社ＮＩＮＵ,,株式会社,神奈川県,横浜市泉区,和泉中央北２丁目１０番２号,,14,116,2450024,,,,,,,2023-09-19,1,,,,,ニヌ,0
97,1020001153562,新規,0,2023-09-19,2023-09-19,株式会社ブルースカイ,,株式会社,神奈川県,川崎市多摩区,長沢４丁目２２番４－２号,,14,135,2140035,,,,,,,2023-09-19,1,,,,,ブルースカイ,0
98,1020001153570,新規,0,2023-09-19,2023-09-19,ＴＢテクノス株式会社,,株式会社,神奈川県,横浜市西区,藤棚町１丁目８２番ドエル西横浜４０２号室,,14,103,2200053,,,,,,,2023-09-19,1,,,,,テイビイテクノス,0
104,1020003024613,新規,0,2023-09-19,2023-09-19,合同会社Ｎ＆Ｒ,,合同会社,神奈川県,横浜市瀬谷区,下瀬谷２丁目２３番地５ザ・ピューラー横浜Ｎｏ．２－２０５,,14,114,2460035,,,,,,,2023-09-19,1,,,,,エヌアンドアール,0
110,1030001155748,新規,0,2023-09-19,2023-09-19,株式会社ＢＩＳＭＩＬＬＡＨ　ＩＮＴＥＲＮＡＴＩＯＮＡＬ,,株式会社,埼玉県,坂戸市,芦山町１２番地１０,,11,239,3500273,,,,,,,2023-09-19,1,,,,,ビスミラインターナショナル,0
111,1030001155756,新規,0,2023-09-19,2023-09-19,株式会社プログレス,,株式会社,埼玉県,桶川市,大字加納７４番地２８,,11,231,3630001,,,,,,,2023-09-19,1,,,,,プログレス,0
112,1030001155764,新規,0,2023-09-19,2023-09-19,株式会社村上建設工業,,株式会社,埼玉県,草加市,谷塚上町４８４番地３６,,11,221,3400024,,,,,,,2023-09-19,1,,,,,ムラカミケンセツ,0
132,1040003023365,新規,0,2023-09-19,2023-09-19,ヘルツ合同会社,,合同会社,千葉県,松戸市,本町１７－１１芹澤ビル６Ｆ,,12,207,2710091,,,,,,,2023-09-19,1,,,,,ヘルツ,0
139,1050001053495,新規,0,2023-09-19,2023-09-19,株式会社ＴＵＫＵＲＵ,,株式会社,茨城県,ひたちなか市,大字田彦７１３－９,,08,221,3120063,,,,,,,2023-09-19,1,,,,,ツクル,0
142,1050003007747,新規,0,2023-09-19,2023-09-19,合同会社Ｙプランニング,,合同会社,茨城県,つくばみらい市,筒戸１９５５番地３、Ａ２０２,,08,235,3002435,,,,,,,2023-09-19,1,,,,,ワイプランニング,0
143,1050003007796,新規,0,2023-09-19,2023-09-19,ＩＳＨＡＲＡ　ＴＲＡＤＩＮＧ合同会社,,合同会社,茨城県,桜川市,真壁町下谷貝１５９６番地,,08,231,3004426,,,,,,,2023-09-19,1,,,,,イシャラトレーディング,0
145,1060001036318,新規,0,2023-09-19,2023-09-19,株式会社江俣商店,,株式会社,栃木県,下都賀郡壬生町,大字助谷９７５番地５,,09,361,3210233,,,,,,,2023-09-19,1,,,,,エマタショウテン,0
146,1060001036350,新規,0,2023-09-19,2023-09-19,株式会社栄,,株式会社,栃木県,那須塩原市,東三島１丁目１０４番地１１５,,09,213,3292751,,,,,,,2023-09-19,1,,,,,サカエ,0
150,1070003005105,新規,0,2023-09-19,2023-09-19,合同会社Ｒ’ＳＴＮ,,合同会社,群馬県,邑楽郡千代田町,大字赤岩２３７番地の３,,10,523,3700503,,,,,,,2023-09-19,1,,,,,レッドストーン,0
151,1080001025863,新規,0,2023-09-19,2023-09-19,Ｓａｔｏ　Ｐａｉｎｔ株式会社,,株式会社,静岡県,静岡市清水区,宮加三６７２番地の２０,,22,103,4240911,,,,,,,2023-09-19,1,,,,,サトウペイント,0
152,1080003003058,新規,0,2023-09-19,2023-09-19,スギ合同会社,,合同会社,静岡県,静岡市葵区,秋山町１１番５号,,22,101,4200948,,,,,,,2023-09-19,1,,,,,スギ,0
156,1080105006363,新規,0,2023-09-19,2023-09-19,一般社団法人ふじ山リンク,,その他の設立登記法人,静岡県,富士宮市,万野原新田３３２７番地の１,,22,207,4180001,,,,,,,2023-09-19,1,,,,,フジヤマリンク,0
159,1100001036783,新規,0,2023-09-19,2023-09-19,株式会社サスケ,,株式会社,長野県,長野市,大字上駒沢１７３番地１－Ｍ棟２０２号,,20,201,3810082,,,,,,,2023-09-19,1,,,,,サスケ,0
162,1100003007188,新規,0,2023-09-19,2023-09-19,合同会社大幸,,合同会社,長野県,大町市,平２８１１番地５９,,20,212,3980001,,,,,,,2023-09-19,1,,,,,ダイコウ,0
163,1110001037847,新規,0,2023-09-19,2023-09-19,株式会社アイエステート,,株式会社,新潟県,長岡市,幸町３丁目８番１４号,,15,202,9400084,,,,,,,2023-09-19,1,,,,,アイエステート,0
168,1120001258104,新規,0,2023-09-19,2023-09-19,株式会社Ｉ‐ＰＲＩＺＥ,,株式会社,大阪府,大阪市住之江区,粉浜３丁目８番３号,,27,125,5590001,,,,,,,2023-09-19,1,,,,,アイプライズ,0
169,1120001258112,新規,0,2023-09-19,2023-09-19,株式会社ｆａｍｉｌｉｎｋ　ｃｒｅａｔｅ,,株式会社,大阪府,大阪市鶴見区,鶴見４丁目１０番１８号マッシーモ鶴見１Ｆ,,27,124,5380053,,,,,,,2023-09-19,1,,,,,ファミリンククリエイト,0
170,1120001258236,新規,0,2023-09-19,2023-09-19,株式会社和忠,,株式会社,大阪府,大阪市北区,天満３丁目１０番１３－４０２号,,27,127,5300043,,,,,,,2023-09-19,1,,,,,ワチュウ,0
172,1120003024883,新規,0,2023-09-19,2023-09-19,合同会社虹の仏,,合同会社,大阪府,大阪市平野区,加美西２丁目１１番４０号,,27,126,5470005,,,,,,,2023-09-19,1,,,,,ニジノホトケ,0
173,1120003024891,新規,0,2023-09-19,2023-09-19,合同会社Ｆケア,,合同会社,大阪府,交野市,倉治３丁目５１－３,,27,230,5760051,,,,,,,2023-09-19,1,,,,,エフケア,0
175,1120101068213,新規,0,2023-09-19,2023-09-19,株式会社ネクスプラス,,株式会社,大阪府,堺市堺区,南旅篭町東４丁４番１２号,,27,141,5900965,,,,,,,2023-09-19,1,,,,,ネクスプラス,0
180,1130001075201,新規,0,2023-09-19,2023-09-19,株式会社ＫｙｏＥｌｅ,,株式会社,京都府,宇治市,木幡南山畑３３番地３,,26,204,6110002,,,,,,,2023-09-19,1,,,,,キョーエレ,0
183,1130005016886,新規,0,2023-09-19,2023-09-19,一般社団法人みをつくし,,その他の設立登記法人,京都府,京都市中京区,壬生下溝町４３－３２,,26,104,6048832,,,,,,,2023-09-19,1,,,,,ミヲツクシ,0
190,1140001131647,新規,0,2023-09-19,2023-09-19,株式会社Ｐｅｒｉ．,,株式会社,兵庫県,宝塚市,米谷１丁目１３番１号ワークヒルズ宝塚３０１,,28,214,6650831,,,,,,,2023-09-19,1,,,,,ペリドット,0
191,1140001131671,新規,0,2023-09-19,2023-09-19,株式会社プロスペリティ・プラス,,株式会社,兵庫県,姫路市,三左衛門堀西の町５４番地クラスターＢＬＤＶ２０２号,00131958,28,201,6700940,,,,,,,2023-09-19,1,,,,,プロスペリティプラス,0
206,1180001158075,新規,0,2023-09-19,2023-09-19,株式会社コーディアルエステート,,株式会社,愛知県,名古屋市昭和区,南山町２０番地６,,23,107,4660835,,,,,,,2023-09-19,1,,,,,コーディアルエステート,0
207,1180001158091,新規,0,2023-09-19,2023-09-19,ＫＳＧホールディングス株式会社,,株式会社,愛知県,名古屋市中区,丸の内３丁目１８番２８号,,23,106,4600002,,,,,,,2023-09-19,1,,,,,ケーエスジーホールディングス,0
214,1180301037805,新規,0,2023-09-19,2023-09-19,株式会社Ｉ．Ｂ．Ｃ,,株式会社,愛知県,豊橋市,大岩町字北山６－１１３９,,23,201,4413141,,,,,,,2023-09-19,1,,,,,アイビーシー,0
227,1240001062139,新規,0,2023-09-19,2023-09-19,株式会社プラス,,株式会社,広島県,呉市,押込１丁目１４番２５号,,34,202,7370915,,,,,,,2023-09-19,1,,,,,プラス,0
234,1270001008840,新規,0,2023-09-19,2023-09-19,株式会社Ｓｅｅｄファーム,,株式会社,鳥取県,西伯郡南部町,阿賀１１１番地,,31,389,6830322,,,,,,,2023-09-19,1,,,,,シードファーム,0
246,1290001103020,新規,0,2023-09-19,2023-09-19,株式会社ＭＹ,,株式会社,福岡県,福岡市博多区,中洲４丁目７番２０号フジキビル４Ｆ,,40,132,8100801,,,,,,,2023-09-19,1,,,,,エムワイ,0
249,1290003014364,新規,0,2023-09-19,2023-09-19,合同会社スターリッチ,,合同会社,福岡県,福岡市早良区,田村４丁目１番８－１０３号,,40,137,8140175,,,,,,,2023-09-19,1,,,,,スターリッチ,0
250,1290005019147,新規,0,2023-09-19,2023-09-19,一般社団法人イエノワプロジェクト,,その他の設立登記法人,福岡県,柳川市,三橋町白鳥４７０番地１,,40,207,8320815,,,,,,,2023-09-19,1,,,,,イエノワプロジェクト,0
251,1290801029877,新規,0,2023-09-19,2023-09-19,株式会社ＯＮＥ　ｕｎｉｔｙ,,株式会社,福岡県,北九州市八幡西区,折尾５丁目５番１５－５０３号,,40,109,8070825,,,,,,,2023-09-19,1,,,,,ワンユニティー,0
253,1310005008709,新規,0,2023-09-19,2023-09-19,一般社団法人高島活性化コンベンション協会ＥＳＰＯ,,その他の設立登記法人,長崎県,佐世保市,高島町６７６番地１６,,42,202,8580931,,,,,,,2023-09-19,1,,,,,タカシマカッセイカコンベンションキョウカイエスポ,0
255,1330003009970,新規,0,2023-09-19,2023-09-19,合同会社メディケアライフ,,合同会社,熊本県,合志市,須屋３４５番地１２,,43,216,8611102,,,,,,,2023-09-19,1,,,,,メディケアライフ,0
256,1330003009979,新規,0,2023-09-19,2023-09-19,合同会社西熊ホーム,,合同会社,熊本県,熊本市西区,花園６丁目９番３９－２号,,43,103,8600072,,,,,,,2023-09-19,1,,,,,セイユウホーム,0
258,1340001025886,新規,0,2023-09-19,2023-09-19,ＨＡＭＺＡ　ＴＲＡＤＩＮＧ株式会社,,株式会社,鹿児島県,霧島市,国分広瀬１丁目１６－１７－５アクアマリン１０２号室,,46,218,8994321,,,,,,,2023-09-19,1,,,,,ハムザトレーディング,0
262,1360003013284,新規,0,2023-09-19,2023-09-19,合同会社ゴールド,,合同会社,沖縄県,沖縄市,古謝２丁目２７番１８号,,47,211,9042161,,,,,,,2023-09-19,1,,,,,ゴールド,0
263,1360003013292,新規,0,2023-09-19,2023-09-19,合同会社しんこう,,合同会社,沖縄県,那覇市,前島３丁目２５番２号泊ポートビル１階,,47,201,9000016,,,,,,,2023-09-19,1,,,,,シンコウ,0
270,1380001033992,新規,0,2023-09-19,2023-09-19,株式会社友士,,株式会社,福島県,いわき市,自由ケ丘１２番地の１１,,07,204,9708033,,,,,,,2023-09-19,1,,,,,ユウシ,0
275,1430001089922,新規,0,2023-09-19,2023-09-19,株式会社友装,,株式会社,北海道,岩見沢市,七条東１３丁目２２番地９６シティライフＩＩ２０２,00131952,01,210,0680007,,,,,,,2023-09-19,1,,,,,ユウソウ,0
276,1430003015455,新規,0,2023-09-19,2023-09-19,合同会社Ｔｅｒｍｉｎａｒｔ,,合同会社,北海道,札幌市中央区,南二条西３丁目１３番地４カタオカビル３Ｆ,,01,101,0600062,,,,,,,2023-09-19,1,,,,,ターミナート,0
284,1470001019818,新規,0,2023-09-19,2023-09-19,株式会社ＹＵＹＡＮ,,株式会社,香川県,高松市,多肥下町３３１番地６,,37,201,7618075,,,,,,,2023-09-19,1,,,,,ユーヤン,0
289,2010001050751,新規,0,2023-09-19,2023-09-19,帝国産金興業株式会社,,株式会社,東京都,中央区,銀座８丁目９番４号,,13,102,1040061,,,,,,,2023-09-19,1,,,,,テイコクサンキンコウギョウ,0
293,2010001238149,新規,0,2023-09-19,2023-09-19,ククル株式会社,,株式会社,東京都,千代田区,神田神保町３丁目２番地高橋ビル６階,,13,101,1010051,,,,,,,2023-09-19,1,,,,,ククル,0
294,2010001238520,新規,0,2023-09-19,2023-09-19,ＤＴＢ第一号株式会社,,株式会社,東京都,千代田区,大手町１丁目９番６号,,13,101,1000004,,,,,,,2023-09-19,1,,,,,ディーティービーダイイチゴウ,0
295,2010001238529,新規,0,2023-09-19,2023-09-19,株式会社お茶の水龍名館,,株式会社,東京都,千代田区,神田駿河台３丁目４番地３,,13,101,1010062,,,,,,,2023-09-19,1,,,,,オチャノミズリュウメイカン,0
296,2010001238553,新規,0,2023-09-19,2023-09-19,株式会社ＢＣＪ‐７６,,株式会社,東京都,千代田区,丸の内１丁目１番１号パレスビル５階,,13,101,1000005,,,,,,,2023-09-19,1,,,,,ビーシージェイセブンティーシックス,0
300,2010003041682,新規,0,2023-09-19,2023-09-19,ＤＴＢ第二号合同会社,,合同会社,東京都,千代田区,大手町１丁目９番６号,,13,101,1000004,,,,,,,2023-09-19,1,,,,,ディーティービーダイニゴウ,0
301,2010003041699,新規,0,2023-09-19,2023-09-19,合同会社ＭＩＲＡＩ,,合同会社,東京都,中央区,日本橋室町１丁目１１番１２号日本橋水野ビル７階,,13,102,1030022,,,,,,,2023-09-19,1,,,,,ミライ,0
304,2010401177236,新規,0,2023-09-19,2023-09-19,株式会社ＩＮＣＯＭＰＬＥＴＥ,,株式会社,東京都,港区,浜松町１丁目１８番地１３号高桑ビル３階,,13,103,1050013,,,,,,,2023-09-19,1,,,,,インコンプリート,0
305,2010401177244,新規,0,2023-09-19,2023-09-19,株式会社Ｕｂｕｎｔｕ,,株式会社,東京都,港区,南青山２丁目１５番５号ＦＡＲＯ青山１階,,13,103,1070062,,,,,,,2023-09-19,1,,,,,ウブントゥ,0
306,2010401177252,新規,0,2023-09-19,2023-09-19,株式会社ｃｕｅ,,株式会社,東京都,港区,南青山５丁目９番１９号ＭＡＲ’Ｓ南青山５Ｆ,,13,103,1070062,,,,,,,2023-09-19,1,,,,,キュー,0
308,2010403030608,新規,0,2023-09-19,2023-09-19,合同会社Ｍｉｎｔ　Ｂｌｕｅ＆Ｐｅａｒｌ　Ｄｉａｍｏｎｄ　ＬＬＣ,,合同会社,東京都,港区,北青山２丁目１０－１６,,13,103,1070061,,,,,,,2023-09-19,1,,,,,ミントブブルーアンドパールダイヤモンドエルエルシー,0
309,2010403030954,新規,0,2023-09-19,2023-09-19,合同会社誉,,合同会社,東京都,港区,北青山１丁目３番１号アールキューブ青山３階,,13,103,1070061,,,,,,,2023-09-19,1,,,,,ホマレ,0
314,2010601063797,新規,0,2023-09-19,2023-09-19,株式会社ｋｏｊｉｍａｋｅ,,株式会社,東京都,江東区,平野２丁目６－８,,13,108,1350023,,,,,,,2023-09-19,1,,,,,コジマケ,0
322,2010701044854,新規,0,2023-09-19,2023-09-19,株式会社ＤＸスコープ,,株式会社,東京都,品川区,西五反田７丁目２１番１１号,,13,109,1410031,,,,,,,2023-09-19,1,,,,,ディエックススコープ,0
324,2010703006836,新規,0,2023-09-19,2023-09-19,合同会社ラスカルテクノロジーズ,,合同会社,東京都,品川区,西五反田８丁目１番１６号スパシエルクス五反田７０２,,13,109,1410031,,,,,,,2023-09-19,1,,,,,ラスカルテクノロジーズ,0
325,2010703006869,新規,0,2023-09-19,2023-09-19,合同会社ｏｎｅ　ｐａｐｅｒ,,合同会社,東京都,品川区,荏原１丁目５―８パーソネージュ第２・４０７号室,,13,109,1420063,,,,,,,2023-09-19,1,,,,,ワンペーパー,0
326,2010801034342,新規,0,2023-09-19,2023-09-19,株式会社ナカレン,,株式会社,東京都,大田区,中央４丁目３番３号セントラルハイツコパ２０１,,13,111,1430024,,,,,,,2023-09-19,1,,,,,ナカレン,0
327,2010803004681,新規,0,2023-09-19,2023-09-19,合同会社くるりん,,合同会社,東京都,大田区,北馬込１丁目６番６号,,13,111,1430021,,,,,,,2023-09-19,1,,,,,クルリン,0
328,2010901053845,新規,0,2023-09-19,2023-09-19,株式会社Ａｌｉｔｓ,,株式会社,東京都,世田谷区,上馬２丁目３３番１１号パセーオ三軒茶屋２０４,,13,112,1540011,,,,,,,2023-09-19,1,,,,,アリッツ,0
331,2010903008450,新規,0,2023-09-19,2023-09-19,グリーンパークス合同会社,,合同会社,東京都,世田谷区,深沢１丁目６番５号,,13,112,1580081,,,,,,,2023-09-19,1,,,,,グリーンパークス,0
339,2011001156456,新規,0,2023-09-19,2023-09-19,株式会社ｕｎ,,株式会社,東京都,渋谷区,恵比寿南２丁目１２番４号せらびＥＢＩＳＵ１０８,,13,113,1500022,,,,,,,2023-09-19,1,,,,,アン,0
340,2011001157025,新規,0,2023-09-19,2023-09-19,株式会社ＳＨＡＮＵ　ＡＧＡＲＷＡＬ,,株式会社,東京都,渋谷区,大山町２１番１５号,,13,113,1510065,,,,,,,2023-09-19,1,,,,,シャヌアガルワル,0
346,2011101104406,新規,0,2023-09-19,2023-09-19,太一株式会社,,株式会社,東京都,新宿区,西早稲田１丁目１１番８号ヴィラ早稲田２０１,,13,104,1690051,,,,,,,2023-09-19,1,,,,,タイチ,0
347,2011201024917,新規,0,2023-09-19,2023-09-19,葉月株式会社,,株式会社,東京都,中野区,江古田１丁目３４－１９,,13,114,1650022,,,,,,,2023-09-19,1,,,,,ハズキ,0
351,2011401025459,新規,0,2023-09-19,2023-09-19,株式会社ＮＯＷＳＯＮ,,株式会社,東京都,板橋区,徳丸５丁目１１番３－７０３号,,13,119,1750083,,,,,,,2023-09-19,1,,,,,ナウソン,0
352,2011401025467,新規,0,2023-09-19,2023-09-19,株式会社ツキ,,株式会社,東京都,板橋区,板橋１丁目４９番３－１１０１号,,13,119,1730004,,,,,,,2023-09-19,1,,,,,ツキ,0
355,2011601027131,新規,0,2023-09-19,2023-09-19,ＫＩＤＺＫＩ株式会社,,株式会社,東京都,練馬区,大泉町３丁目３３番２６号,,13,120,1780062,,,,,,,2023-09-19,1,,,,,キズキ,0
359,2011803005835,新規,0,2023-09-19,2023-09-19,合同会社マッシュ,,合同会社,東京都,葛飾区,お花茶屋２丁目２０番１３号,,13,122,1240003,,,,,,,2023-09-19,1,,,,,マッシュ,0
360,2012803003184,新規,0,2023-09-19,2023-09-19,合同会社清幸プロパティ,,合同会社,東京都,国立市,青柳１丁目１３番地の１８メイプル国立２０２号室,,13,215,1860013,,,,,,,2023-09-19,1,,,,,セイコウプロパティ,0
365,2013301051361,新規,0,2023-09-19,2023-09-19,株式会社ｂｉｏｔｏｐｅ,,株式会社,東京都,豊島区,西池袋２丁目３－１０,,13,116,1710021,,,,,,,2023-09-19,1,,,,,ビオトープ,0
366,2013303006792,新規,0,2023-09-19,2023-09-19,合同会社ヤスオ＆エイコ,,合同会社,東京都,豊島区,東池袋１丁目２３番９号,,13,116,1700013,,,,,,,2023-09-19,1,,,,,ヤスオアンドエイコ,0
368,2020001153545,新規,0,2023-09-19,2023-09-19,株式会社メディカルアーツ,,株式会社,神奈川県,横浜市緑区,台村町１２６番地３プレステージ中山３０１号,,14,113,2260014,,,,,,,2023-09-19,1,,,,,メディカルアーツ,0
369,2020001153553,新規,0,2023-09-19,2023-09-19,株式会社８３ｇｒａｐｈｉｃｓ,,株式会社,神奈川県,横浜市青葉区,藤が丘２丁目３６－１４サンヴェール藤が丘５０３,,14,117,2270043,,,,,,,2023-09-19,1,,,,,ハチサングラフィックス,0
370,2020001153561,新規,0,2023-09-19,2023-09-19,ＳＵＧＡＯ株式会社,,株式会社,神奈川県,横浜市金沢区,高舟台２丁目２６番１４号,,14,108,2360044,,,,,,,2023-09-19,1,,,,,スガオ,0
372,2020003024612,新規,0,2023-09-19,2023-09-19,合同会社Ｒｅｖｉｒｔａｉｎ,,合同会社,神奈川県,川崎市川崎区,本町１丁目８番地１３－１２０２,,14,131,2100001,,,,,,,2023-09-19,1,,,,,リバーテイン,0
373,2020003024620,新規,0,2023-09-19,2023-09-19,コンコルディア合同会社,,合同会社,神奈川県,横浜市中区,日本大通７,,14,104,2310021,,,,,,,2023-09-19,1,,,,,コンコルディア,0
377,2021001080192,新規,0,2023-09-19,2023-09-19,株式会社ワイズエステート,,株式会社,神奈川県,座間市,さがみ野１丁目１番１６号クリオさがみ野１０番館２０５号,,14,216,2520005,,,,,,,2023-09-19,1,,,,,ワイズエステート,0
379,2021003013588,新規,0,2023-09-19,2023-09-19,合同会社Ａｂｉｒａ　ｅｎｔｅｒｐｒｉｓｉｎｇ,,合同会社,神奈川県,厚木市,中依知７２番地２東邦ハイツ５０８号室,,14,212,2430805,,,,,,,2023-09-19,1,,,,,アビラエンタープライジング,0
392,2030001155870,新規,0,2023-09-19,2023-09-19,株式会社石井塗装所,,株式会社,埼玉県,北足立郡伊奈町,大字小室６８８２番地３,,11,301,3620806,,,,,,,2023-09-19,1,,,,,イシイトソウジョ,0
393,2030001156043,新規,0,2023-09-19,2023-09-19,株式会社アマナイ,,株式会社,埼玉県,さいたま市緑区,大字間宮３０６番地,,11,109,3360965,,,,,,,2023-09-19,1,,,,,アマナイ,0
397,2030003022598,新規,0,2023-09-19,2023-09-19,合同会社リオール,,合同会社,埼玉県,北本市,宮内７丁目２０６番地,,11,233,3640002,,,,,,,2023-09-19,1,,,,,リオール,0
411,2040001130014,新規,0,2023-09-19,2023-09-19,株式会社Ｌａｇｏｐｕｓ　Ａｌｂａ,,株式会社,千葉県,千葉市花見川区,幕張町５丁目４１７番地１６幕張ファミールハイツ１棟５０３号,,12,102,2620032,,,,,,,2023-09-19,1,,,,,ラゴプスアルバ,0
412,2040001130179,新規,0,2023-09-19,2023-09-19,日本の経理株式会社,,株式会社,千葉県,松戸市,栄町８丁目７１１番地,,12,207,2710062,,,,,,,2023-09-19,1,,,,,ニッポンノケイリ,0
420,2050001012211,新規,0,2023-09-19,2023-09-19,株式会社田山鉄工,,株式会社,茨城県,小美玉市,江戸５７５番地の１８,,08,236,3190122,,,,,,,2023-09-19,1,,,,,タヤマテッコウ,0
424,2050001053494,新規,0,2023-09-19,2023-09-19,株式会社ＵＲＵＯＵ,,株式会社,茨城県,日立市,城南町５丁目１０番７号,,08,202,3170077,,,,,,,2023-09-19,1,,,,,ウルオウ,0
427,2050003007795,新規,0,2023-09-19,2023-09-19,合同会社にれい企画,,合同会社,茨城県,稲敷郡阿見町,南平台１丁目１３番地６,,08,443,3000312,,,,,,,2023-09-19,1,,,,,ニレイキカク,0
428,2060001036358,新規,0,2023-09-19,2023-09-19,株式会社サトウ,,株式会社,栃木県,宇都宮市,陽東３丁目２７番１５号,,09,201,3210904,,,,,,,2023-09-19,1,,,,,サトウ,0
433,2070003005104,新規,0,2023-09-19,2023-09-19,合同会社ＨＡＭＡＰ,,合同会社,群馬県,桐生市,相生町３丁目５６５番地の２,,10,203,3760011,,,,,,,2023-09-19,1,,,,,ハマップ,0
436,2080001025862,新規,0,2023-09-19,2023-09-19,株式会社いろは,,株式会社,静岡県,静岡市葵区,東２丁目１４２５,,22,101,4200962,,,,,,,2023-09-19,1,,,,,イロハ,0
438,2080003003057,新規,0,2023-09-19,2023-09-19,ｎｏｖｉｔａ合同会社,,合同会社,静岡県,静岡市葵区,研屋町６０,,22,101,4200029,,,,,,,2023-09-19,1,,,,,ノビタ,0
441,2080401026725,新規,0,2023-09-19,2023-09-19,株式会社掛川銀行,,株式会社,静岡県,掛川市,掛川４７６番地,,22,213,4360079,,,,,,,2023-09-19,1,,,,,カケガワギンコウ,0
442,2080403004869,新規,0,2023-09-19,2023-09-19,合同会社ＫＡＷＡＭＵＲＡ’Ｓ　ＧＲＯＵＰ,,合同会社,静岡県,磐田市,福田３２０６番地３,,22,211,4371203,,,,,,,2023-09-19,1,,,,,カワムラグループ,0
445,2090003002388,新規,0,2023-09-19,2023-09-19,エイトクレスツ合同会社,,合同会社,山梨県,北杜市,明野町浅尾５２５９番３１３,,19,209,4080201,,,,,,,2023-09-19,1,,,,,エイトクレスツ,0
466,2120001258086,新規,0,2023-09-19,2023-09-19,株式会社Ｌｅｏｎ,,株式会社,大阪府,大阪市北区,西天満６丁目４－１６－７０５,,27,127,5300047,,,,,,,2023-09-19,1,,,,,レオン,0
467,2120001258111,新規,0,2023-09-19,2023-09-19,株式会社ラインリンク,,株式会社,大阪府,大阪市中央区,大手前１丁目７番３１号ＯＭＭ１階ＳｅｒｖｉｃｅＯｆｆｉｃｅＷ天満橋,,27,128,5400008,,,,,,,2023-09-19,1,,,,,ラインリンク,0
468,2120001258128,新規,0,2023-09-19,2023-09-19,株式会社三秋,,株式会社,大阪府,大阪市西成区,天下茶屋北２丁目５番４号,,27,122,5570003,,,,,,,2023-09-19,1,,,,,サンシュウ,0
470,2120003024882,新規,0,2023-09-19,2023-09-19,合同会社ＯＲＣＡ　Ｃａｐｉｔａｌ,,合同会社,大阪府,大阪市住之江区,西住之江１丁目７番８号,,27,125,5590005,,,,,,,2023-09-19,1,,,,,オルカキャピタル,0
471,2120003024908,新規,0,2023-09-19,2023-09-19,ＦＮ託信合同会社,,合同会社,大阪府,大阪市阿倍野区,阪南町５丁目１３番１０号,,27,119,5450021,,,,,,,2023-09-19,1,,,,,エフエヌタクシン,0
473,2120101068212,新規,0,2023-09-19,2023-09-19,ウォールテック株式会社,,株式会社,大阪府,岸和田市,作才町４４番地,,27,202,5960826,,,,,,,2023-09-19,1,,,,,ウォールテック,0
480,2130001075183,新規,0,2023-09-19,2023-09-19,エムズフィールド株式会社,,株式会社,京都府,京都市南区,久世中久世町１丁目１１４番地シャーメゾンルミエール１０２号,,26,107,6018213,,,,,,,2023-09-19,1,,,,,エムズフィールド,0
481,2130001075209,新規,0,2023-09-19,2023-09-19,株式会社ＡＴＳ,,株式会社,京都府,京都市伏見区,竹田西小屋ノ内町１３番地,,26,109,6128449,,,,,,,2023-09-19,1,,,,,エーティーエス,0
491,2140001131662,新規,0,2023-09-19,2023-09-19,株式会社吉泉,,株式会社,兵庫県,川西市,緑台７丁目８番地の８、８０２,,28,217,6660129,,,,,,,2023-09-19,1,,,,,キチセン,0
492,2140003019559,新規,0,2023-09-19,2023-09-19,ＪＯＹＦＯＲＴ合同会社,,合同会社,兵庫県,西宮市,上大市５丁目２番２５号,,28,204,6638003,,,,,,,2023-09-19,1,,,,,ジョイフォート,0
493,2140003019567,新規,0,2023-09-19,2023-09-19,合同会社福むすび,,合同会社,兵庫県,神戸市北区,上津台３丁目５番２０号,,28,109,6511515,,,,,,,2023-09-19,1,,,,,フクムスビ,0
494,2150001026713,新規,0,2023-09-19,2023-09-19,株式会社ＢＥ　ＦＲＥＥ,,株式会社,奈良県,天理市,柳本町１１８９番地１,,29,204,6320052,,,,,,,2023-09-19,1,,,,,ビーフリー,0
495,2160001025350,新規,0,2023-09-19,2023-09-19,アスプラ不動産株式会社,,株式会社,滋賀県,草津市,南草津プリムタウン３丁目１１番地４,,25,206,5250068,,,,,,,2023-09-19,1,,,,,アスプラフドウサン,0
496,2170001017776,新規,0,2023-09-19,2023-09-19,株式会社出崎商事,00131940,株式会社,和歌山県,和歌山市,紀三井寺６４０番地１,,30,201,6410012,,,,,,,2023-09-19,1,,,,,デサキショウジ,0
502,2180001158058,新規,0,2023-09-19,2023-09-19,株式会社ＩＮＧ,,株式会社,愛知県,名古屋市中村区,太閤２丁目１１番５号,,23,105,4530801,,,,,,,2023-09-19,1,,,,,アイエヌジー,0
503,2180001158066,新規,0,2023-09-19,2023-09-19,株式会社ショウカク,,株式会社,愛知県,知多郡南知多町,大字山海字荒布越１０８番地,,23,445,4703322,,,,,,,2023-09-19,1,,,,,ショウカク,0
504,2180001158099,新規,0,2023-09-19,2023-09-19,株式会社ＨＹＳ,,株式会社,愛知県,江南市,松竹町西瀬古３９番地,,23,217,4838355,,,,,,,2023-09-19,1,,,,,エイチワイエス,0
505,2180001158108,新規,0,2023-09-19,2023-09-19,株式会社ＤＯＮＤＯ　Ｃｏｍｍｕｎｉｃａｔｉｏｎ,,株式会社,愛知県,名古屋市中区,千代田４丁目１７番２６号メゾン・ド・タクト　３０１,,23,106,4600012,,,,,,,2023-09-19,1,,,,,ドンドコミュニケーション,0
509,2180003025743,新規,0,2023-09-19,2023-09-19,らしく合同会社,,合同会社,愛知県,尾張旭市,緑町緑ケ丘６－６シャトルＩ１０１号,00131957,23,226,4880822,,,,,,,2023-09-19,1,,,,,ラシク,0
510,2180003025751,新規,0,2023-09-19,2023-09-19,合同会社ハラマツ,,合同会社,愛知県,名古屋市中区,大須１丁目７番１４号パークＩＭビル２Ｆ,,23,106,4600011,,,,,,,2023-09-19,1,,,,,ハラマツ,0
511,2180005020354,新規,0,2023-09-19,2023-09-19,Ｂｌｕｅ　Ｒｉｂｂｏｎ協同組合,,その他の設立登記法人,愛知県,名古屋市中区,丸の内３丁目７番１９号,,23,106,4600002,,,,,,,2023-09-19,1,,,,,ブルーリボン,0
516,2200001041723,新規,0,2023-09-19,2023-09-19,株式会社ＲＫインターナショナル,,株式会社,岐阜県,岐阜市,黒野１７３－１８（ＲＡＮＡ　ＨＯＵＳＥ）,,21,201,5011131,,,,,,,2023-09-19,1,,,,,アールケーインターナショナル,0
520,2220003003587,新規,0,2023-09-19,2023-09-19,合同会社Ｓｋｙ・ｉ,,合同会社,石川県,金沢市,笠市町４番１０号,,17,201,9200851,,,,,,,2023-09-19,1,,,,,スカイアイ,0
524,2240001062138,新規,0,2023-09-19,2023-09-19,株式会社イチカガ,,株式会社,広島県,広島市中区,舟入町１番１３－２０３号,,34,101,7300841,,,,,,,2023-09-19,1,,,,,イチカガ,0
526,2250005008862,新規,0,2023-09-19,2023-09-19,一般社団法人ゆうわ,,その他の設立登記法人,山口県,山口市,朝倉町２番４９号,,35,203,7530061,,,,,,,2023-09-19,1,,,,,ユウワ,0
529,2260001038326,新規,0,2023-09-19,2023-09-19,株式会社東陽商事,,株式会社,岡山県,岡山市北区,富町１丁目２０－１４デュナミス富町６０１,,33,101,7000031,,,,,,,2023-09-19,1,,,,,トウヨウショウジ,0
543,2290001102913,新規,0,2023-09-19,2023-09-19,株式会社久遠,,株式会社,福岡県,福岡市中央区,平尾２丁目５番１６－７０９号,,40,133,8100014,,,,,,,2023-09-19,1,,,,,クオン,0
544,2290001102987,新規,0,2023-09-19,2023-09-19,株式会社ＮＰテクノロジーズ,,株式会社,福岡県,福岡市中央区,渡辺通５丁目８番１８号,,40,133,8100004,,,,,,,2023-09-19,1,,,,,エヌピーテクノロジーズ,0
545,2290001103028,新規,0,2023-09-19,2023-09-19,株式会社糸島製作所,,株式会社,福岡県,福岡市城南区,友泉亭１４番９号,,40,136,8140122,,,,,,,2023-09-19,1,,,,,イトシマセイサクジョ,0
546,2290001103044,新規,0,2023-09-19,2023-09-19,株式会社天照,,株式会社,福岡県,福岡市東区,唐原３丁目１３番１０号,,40,131,8130001,,,,,,,2023-09-19,1,,,,,テンショウ,0
549,2290003014322,新規,0,2023-09-19,2023-09-19,合同会社ＴＭＫＫＹ,,合同会社,福岡県,福岡市早良区,次郎丸４丁目１０番５４‐３０２号ジョーヴァネソプラ,,40,137,8140165,,,,,,,2023-09-19,1,,,,,ティーエムケーケーワイ,0
550,2290003014363,新規,0,2023-09-19,2023-09-19,合同会社ＦＩＬＯ,,合同会社,福岡県,福津市,宮司ヶ丘３０－１０,,40,224,8113312,,,,,,,2023-09-19,1,,,,,フィーロ,0
551,2290003014371,新規,0,2023-09-19,2023-09-19,アローパートナーズ合同会社,,合同会社,福岡県,福岡市早良区,百道１丁目３３番３号,,40,137,8140006,,,,,,,2023-09-19,1,,,,,アローパートナーズ,0
554,2290801029876,新規,0,2023-09-19,2023-09-19,株式会社ＡＢＵＭＩ,,株式会社,福岡県,北九州市八幡西区,小嶺３丁目９番１１号,,40,109,8070081,,,,,,,2023-09-19,1,,,,,アブミ,0
555,2320001020005,新規,0,2023-09-19,2023-09-19,株式会社成昇,,株式会社,大分県,中津市,大字大塚８２３番地５リベルタＩＩＡ棟,00131941,44,203,8710008,,,,,,,2023-09-19,1,,,,,セイショウ,0
556,2330001031273,新規,0,2023-09-19,2023-09-19,株式会社友輪,,株式会社,熊本県,菊池郡大津町,大字引水８９１番地１グリーングラスＩＩ１０１号,00131959,43,403,8691234,,,,,,,2023-09-19,1,,,,,ユウワ,0
567,2360003013291,新規,0,2023-09-19,2023-09-19,ＮＫＰ合同会社,,合同会社,沖縄県,島尻郡八重瀬町,字伊覇２２６番地２Ｆ,,47,362,9010405,,,,,,,2023-09-19,1,,,,,エヌケーピー,0
568,2360003013300,新規,0,2023-09-19,2023-09-19,ＦＬＡＧＳＨＩＰ　ＯＫＩＮＡＷＡ合同会社,,合同会社,沖縄県,沖縄市,上地１丁目７番１６号,,47,211,9040031,,,,,,,2023-09-19,1,,,,,フラッグシップオキナワ,0
569,2370001050402,新規,0,2023-09-19,2023-09-19,株式会社我妻興業,,株式会社,宮城県,大崎市,古川大宮３丁目２番３５号,,04,215,9896221,,,,,,,2023-09-19,1,,,,,ワガツマコウギョウ,0
576,2380001033991,新規,0,2023-09-19,2023-09-19,株式会社レディーワークス,,株式会社,福島県,いわき市,泉ケ丘１丁目１２番地の９,,07,204,9718171,,,,,,,2023-09-19,1,,,,,レディーワークス,0
583,2430001089921,新規,0,2023-09-19,2023-09-19,株式会社京電気,,株式会社,北海道,札幌市東区,東苗穂十二条４丁目２３番３号,,01,103,0070812,,,,,,,2023-09-19,1,,,,,キョウデンキ,0
584,2430003015462,新規,0,2023-09-19,2023-09-19,合同会社ＴＨＥ,,合同会社,北海道,岩見沢市,春日町２丁目４‐７,,01,210,0680827,,,,,,,2023-09-19,1,,,,,ティーエイチイー,0
587,2470001019817,新規,0,2023-09-19,2023-09-19,ケイムズ株式会社,,株式会社,香川県,高松市,御厩町１２７７番地６,,37,201,7618042,,,,,,,2023-09-19,1,,,,,ケイムズ,0
597,3010001238503,新規,0,2023-09-19,2023-09-19,株式会社強欲の壺,,株式会社,東京都,文京区,白山５丁目１７番１８号,,13,105,1120001,,,,,,,2023-09-19,1,,,,,ゴウヨクノツボ,0
598,3010001238511,新規,0,2023-09-19,2023-09-19,株式会社カーチスキャピタルマネージメント,,株式会社,東京都,千代田区,紀尾井町４番１号新紀尾井町ビル,,13,101,1020094,,,,,,,2023-09-19,1,,,,,カーチスキャピタルマネージメント,0
599,3010001238536,新規,0,2023-09-19,2023-09-19,株式会社ウェル・ラボラトリーズ,,株式会社,東京都,中央区,銀座４丁目１０番１４号１１階,,13,102,1040061,,,,,,,2023-09-19,1,,,,,ウェルラボラトリーズ,0
600,3010001238577,新規,0,2023-09-19,2023-09-19,ＮＯＳＴＲＡ株式会社,,株式会社,東京都,文京区,本郷４丁目１－３明和本郷ビル７Ｆ,,13,105,1130033,,,,,,,2023-09-19,1,,,,,ノストラ,0
608,3010401177243,新規,0,2023-09-19,2023-09-19,大東バイオエナジー株式会社,,株式会社,東京都,港区,港南２丁目１６番１号,,13,103,1080075,,,,,,,2023-09-19,1,,,,,ダイトウバイオエナジー,0
609,3010401177276,新規,0,2023-09-19,2023-09-19,Ｄｉｑｉｔ　Ｂｕｓｉｎｅｓｓ　Ｓｏｌｕｔｉｏｎｓ株式会社,,株式会社,東京都,港区,元麻布３丁目１番６号,,13,103,1060046,,,,,,,2023-09-19,1,,,,,ディキットビジネスソリューションズ,0
610,3010403030607,新規,0,2023-09-19,2023-09-19,合同会社Ｐｒｏｐｅｒｔｙ　Ｍａｎａｇｅｍｅｎｔ　Ｏｆｆｉｃｅ　ＬＬＣ,,合同会社,東京都,港区,北青山２丁目１０－１６,,13,103,1070061,,,,,,,2023-09-19,1,,,,,プロパティマネジメントオフィスエルエルシー,0
611,3010403030879,新規,0,2023-09-19,2023-09-19,イーグルアイ合同会社,,合同会社,東京都,港区,南青山７丁目１０番１４号,,13,103,1070062,,,,,,,2023-09-19,1,,,,,イーグルアイ,0
612,3010403030961,新規,0,2023-09-19,2023-09-19,糸島地域開発合同会社,,合同会社,東京都,港区,赤坂２丁目１７番７号赤坂溜池タワー９階,,13,103,1070052,,,,,,,2023-09-19,1,,,,,イトシマチイキカイハツ,0
614,3010405022528,新規,0,2023-09-19,2023-09-19,一般社団法人大阪本町アドバイザーズワン,,その他の設立登記法人,東京都,港区,虎ノ門３丁目１８番１２－５０２号株式会社虎ノ門会計神谷町分室内,,13,103,1050001,,,,,,,2023-09-19,1,,,,,オオサカホンマチアドバイザーズワン,0
617,3010601063796,新規,0,2023-09-19,2023-09-19,株式会社ＲＢＧＰ１,,株式会社,東京都,江東区,有明３丁目７番２６号有明フロンティアビルＢ棟９階,,13,108,1350063,,,,,,,2023-09-19,1,,,,,アールビージーピーイチ,0
621,3010801034341,新規,0,2023-09-19,2023-09-19,株式会社トヨウケ,,株式会社,東京都,大田区,蒲田５丁目２４番４号Ｎｏ．Ｒ蒲田６Ｆ,,13,111,1440052,,,,,,,2023-09-19,1,,,,,トヨウケ,0
625,3010901053852,新規,0,2023-09-19,2023-09-19,株式会社パイナス,,株式会社,東京都,世田谷区,用賀３丁目２５番１８－４１７号,,13,112,1580097,,,,,,,2023-09-19,1,,,,,パイナス,0
634,3011001156281,新規,0,2023-09-19,2023-09-19,株式会社ＵＮＩＴＩＦＹ,,株式会社,東京都,渋谷区,恵比寿南３丁目９番８号,,13,113,1500022,,,,,,,2023-09-19,1,,,,,ユニティファイ,0
635,3011001157008,新規,0,2023-09-19,2023-09-19,ＮＡＩＤＩ株式会社,,株式会社,東京都,渋谷区,神宮前３丁目４－５－３Ｆ,,13,113,1500001,,,,,,,2023-09-19,1,,,,,ナイディ,0
636,3011001157016,新規,0,2023-09-19,2023-09-19,株式会社美容マスター,,株式会社,東京都,目黒区,自由が丘１丁目２番１２号アレーロ自由が丘２０６,,13,110,1520035,,,,,,,2023-09-19,1,,,,,ビヨウマスター,0
638,3011101104405,新規,0,2023-09-19,2023-09-19,秋日和株式会社,,株式会社,東京都,新宿区,西早稲田１丁目１１番８号ヴィラ早稲田Ｂ１,,13,104,1690051,,,,,,,2023-09-19,1,,,,,アキビヨリ,0
639,3011103013496,新規,0,2023-09-19,2023-09-19,合同会社Ｃｒｅａｔｅ　Ｏｎｅ,,合同会社,東京都,新宿区,西新宿３丁目５－１２トーカン新宿第二キャステール３１０号室,,13,104,1600023,,,,,,,2023-09-19,1,,,,,クリエートワン,0
641,3011301029006,新規,0,2023-09-19,2023-09-19,株式会社ＳＴＯＮＥ,,株式会社,東京都,杉並区,高円寺北２丁目３番１５－５０２号,,13,115,1660002,,,,,,,2023-09-19,1,,,,,ストーン,0
643,3011401025458,新規,0,2023-09-19,2023-09-19,株式会社フィジオバンク,,株式会社,東京都,板橋区,加賀１丁目８番１６－１１５号アトラス加賀,,13,119,1730003,,,,,,,2023-09-19,1,,,,,フィジオバンク,0
650,3011805003299,新規,0,2023-09-19,2023-09-19,医療法人社団徳昭会,,その他の設立登記法人,東京都,足立区,西竹の塚２丁目１番７号ナパージュ竹ノ塚駅前１階,,13,121,1210822,,,,,,,2023-09-19,1,,,,,トクショウカイ,0
652,3012401041016,新規,0,2023-09-19,2023-09-19,ｆｕｔｕｒｅ　ｓｔｒａｔｅｇｙ株式会社,,株式会社,東京都,多摩市,馬引沢２丁目８番地の２１ヴィラ・フェア・スプリング２０６号室,,13,224,2060023,,,,,,,2023-09-19,1,,,,,フューチャーストラテジー,0
653,3012403006181,新規,0,2023-09-19,2023-09-19,合同会社ＮＯＲＴＨ　ＹＯＲＫ,,合同会社,東京都,三鷹市,下連雀３丁目１１番１７号岸田マンション２０１,,13,204,1810013,,,,,,,2023-09-19,1,,,,,ノースヨーク,0
654,3012703002789,新規,0,2023-09-19,2023-09-19,合同会社ＩＭＬ商事,,合同会社,東京都,東村山市,美住町１丁目４番１８Ｋ－８階,,13,213,1890023,,,,,,,2023-09-19,1,,,,,アイエムエルショウジ,0
655,3012801022631,新規,0,2023-09-19,2023-09-19,株式会社隆建設,,株式会社,東京都,日野市,東豊田１丁目９番地の１９,,13,212,1910052,,,,,,,2023-09-19,1,,,,,リュウケンセツ,0
656,3013301051352,新規,0,2023-09-19,2023-09-19,株式会社ＴＣＧ流通センター,,株式会社,東京都,豊島区,千早２丁目１８番４号富有マンション１Ｆ,,13,116,1710044,,,,,,,2023-09-19,1,,,,,ティーシージーリュウツウセンター,0
664,3020001153528,新規,0,2023-09-19,2023-09-19,秘密結社ナム株式会社,,株式会社,神奈川県,横浜市西区,岡野１丁目１７番１５－５０３号,,14,103,2200073,,,,,,,2023-09-19,1,,,,,ヒミツケッシャナム,0
665,3020001153544,新規,0,2023-09-19,2023-09-19,順興株式会社,,株式会社,神奈川県,横浜市磯子区,久木町２３番７－１,,14,107,2350015,,,,,,,2023-09-19,1,,,,,,0
666,3020001153560,新規,0,2023-09-19,2023-09-19,ユニオン住宅管理株式会社,,株式会社,神奈川県,横浜市緑区,台村町２９２番地,,14,113,2260014,,,,,,,2023-09-19,1,,,,,ユニオンジュウタクカンリ,0
674,3021001080191,新規,0,2023-09-19,2023-09-19,株式会社ＨＢＤコンサルティング,,株式会社,神奈川県,三浦郡葉山町,一色５３０－２０４,,14,301,2400111,,,,,,,2023-09-19,1,,,,,,0
679,3021003013579,新規,0,2023-09-19,2023-09-19,合同会社涼風,,合同会社,神奈川県,藤沢市,長後１３５２番地の１４,,14,205,2520801,,,,,,,2023-09-19,1,,,,,スズカゼ,0
680,3021003013587,新規,0,2023-09-19,2023-09-19,曽田エンジニアリング合同会社,,合同会社,神奈川県,藤沢市,本町２丁目７－１０マンション蔵１０３,,14,205,2510053,,,,,,,2023-09-19,1,,,,,ソタエンジニアリング,0
684,3030001155787,新規,0,2023-09-19,2023-09-19,Ｋｉｒａｃｕ株式会社,,株式会社,埼玉県,さいたま市緑区,大字大門１７６４番地５８,,11,109,3360963,,,,,,,2023-09-19,1,,,,,キラク,0
685,3030001155894,新規,0,2023-09-19,2023-09-19,株式会社翔美工業,,株式会社,埼玉県,北本市,深井６丁目９７番地７,,11,233,3640001,,,,,,,2023-09-19,1,,,,,ショウビコウギョウ,0
686,3030001155952,新規,0,2023-09-19,2023-09-19,株式会社ＡＸＩＶＥ,,株式会社,埼玉県,三郷市,中央１丁目１５番地５ライフピア三郷中央１２０１号室,,11,237,3410038,,,,,,,2023-09-19,1,,,,,アクシブ,0
698,3040001130005,新規,0,2023-09-19,2023-09-19,株式会社エチ・アル８３,,株式会社,千葉県,市原市,旭五所１６－１９リバーサイド関本Ａ棟６号室,,12,219,2900063,,,,,,,2023-09-19,1,,,,,エチアルハチジュウサン,0
699,3040001130087,新規,0,2023-09-19,2023-09-19,株式会社コクタク,,株式会社,千葉県,千葉市稲毛区,長沼原町４８３－３１,,12,103,2630001,,,,,,,2023-09-19,1,,,,,コクタク,0
707,3040003023347,新規,0,2023-09-19,2023-09-19,合同会社ＴＮＫ,,合同会社,千葉県,千葉市中央区,中央３丁目１８番３号,,12,101,2600013,,,,,,,2023-09-19,1,,,,,ティエヌケイ,0
712,3050001053485,新規,0,2023-09-19,2023-09-19,Ｅａｓｔｇａｔｅ　Ｔｒａｄｅｒｓ株式会社,,株式会社,茨城県,猿島郡五霞町,原宿台２丁目２－３－２０２,,08,542,3060306,,,,,,,2023-09-19,1,,,,,イーストゲートトレダース,0
714,3050003007794,新規,0,2023-09-19,2023-09-19,Ｃｌａｎ合同会社,,合同会社,茨城県,笠間市,下市毛２７１番地１,,08,216,3091626,,,,,,,2023-09-19,1,,,,,クラン,0
715,3050003007803,新規,0,2023-09-19,2023-09-19,Ｐ．Ｓ．Ｍ．Ａｄｖｅｎｔｕｒｅ　Ｊａｐａｎ合同会社,,合同会社,茨城県,水戸市,元吉田町１１１１番地の３,,08,201,3100836,,,,,,,2023-09-19,1,,,,,ピーエスエムアドベンチャージャパン,0
722,3060003004717,新規,0,2023-09-19,2023-09-19,Ａｆａｎ　Ｔｒａｄｉｎｇ合同会社,,合同会社,栃木県,栃木市,岩舟町新里１３０３－２－３２,,09,203,3294316,,,,,,,2023-09-19,1,,,,,アファントレーディング,0
725,3070001040886,新規,0,2023-09-19,2023-09-19,株式会社Ｔ．Ｈ．Ｍ,,株式会社,群馬県,高崎市,中泉町６０１番地１６,,10,202,3703524,,,,,,,2023-09-19,1,,,,,ティーエイチエム,0
732,3090003002387,新規,0,2023-09-19,2023-09-19,合同会社ワイワイネクスト,,合同会社,山梨県,甲府市,貢川１丁目１０番２５号ＳＴ甲府・貢川ハイツ１０２,,19,201,4000065,,,,,,,2023-09-19,1,,,,,ワイワイネクスト,0
746,3120001257590,新規,0,2023-09-19,2023-09-19,Ｎ　Ａｌｌｉａｎｃｅ株式会社,,株式会社,大阪府,大阪市中央区,東心斎橋１丁目７番２５号５階,,27,128,5420083,,,,,,,2023-09-19,1,,,,,エヌアライアンス,0
747,3120001257995,新規,0,2023-09-19,2023-09-19,トクユキ株式会社,,株式会社,大阪府,大阪市中央区,内本町１丁目４番９号メゾン東船場４０４号室,,27,128,5400026,,,,,,,2023-09-19,1,,,,,トクユキ,0
748,3120001258011,新規,0,2023-09-19,2023-09-19,株式会社シーアンドエムジャパン,,株式会社,大阪府,大阪市住之江区,南港北２丁目１番１０号,,27,125,5590034,,,,,,,2023-09-19,1,,,,,シーアンドエムジャパン,0
749,3120001258069,新規,0,2023-09-19,2023-09-19,株式会社ＮＥＸＴ‐ＳＭＩＬＥ,,株式会社,大阪府,大阪市生野区,巽北２丁目２番２号ショーマンション１０２号,00131949,27,116,5440004,,,,,,,2023-09-19,1,,,,,ネクストスマイル,0
750,3120001258085,新規,0,2023-09-19,2023-09-19,株式会社Ｔａｋａｄａ　Ｅｎｇｉｎｅｅｒｉｎｇ,,株式会社,大阪府,大阪市住之江区,新北島３丁目７番４５－３０５号,,27,125,5590024,,,,,,,2023-09-19,1,,,,,タカダエンジニアリング,0
751,3120001258102,新規,0,2023-09-19,2023-09-19,株式会社カネダホールディングス,,株式会社,大阪府,大阪市西淀川区,福町１丁目１０番１５号,,27,113,5550034,,,,,,,2023-09-19,1,,,,,カネダホールディングス,0
752,3120001258267,新規,0,2023-09-19,2023-09-19,株式会社ＡＮＹＣＡＲＥ,,株式会社,大阪府,大阪市東住吉区,今林２丁目１番１号ユリシス・エン・ファミエ１階,,27,121,5460001,,,,,,,2023-09-19,1,,,,,エニーケア,0
754,3120003024881,新規,0,2023-09-19,2023-09-19,合同会社ＫＰ産業医事務所,,合同会社,大阪府,大阪市西区,新町２丁目１番２－１２０５号,,27,106,5500013,,,,,,,2023-09-19,1,,,,,ケイピーサンギョウイジムショ,0
755,3120005023881,新規,0,2023-09-19,2023-09-19,行政書士法人兵頭事務所,,その他の設立登記法人,大阪府,大阪市中央区,谷町２丁目５番６－３０１号,,27,128,5400012,,,,,,,2023-09-19,1,,,,,ヒョウドウジムショ,0
761,3122001037378,新規,0,2023-09-19,2023-09-19,株式会社ＳＯＵ,,株式会社,大阪府,八尾市,南亀井町４丁目２番２２号,,27,212,5810054,,,,,,,2023-09-19,1,,,,,ソウ,0
762,3122003002669,新規,0,2023-09-19,2023-09-19,ＫＺＣＰＴ合同会社,,合同会社,大阪府,四條畷市,田原台９丁目４番５号,,27,229,5750013,,,,,,,2023-09-19,1,,,,,ケーゼットシーピーティ,0
770,3130001075166,新規,0,2023-09-19,2023-09-19,株式会社ｆｉｒｓｔ,,株式会社,京都府,京都市東山区,祇園町南側５８５番地４森田ビル,,26,105,6050074,,,,,,,2023-09-19,1,,,,,ファースト,0
771,3130001075182,新規,0,2023-09-19,2023-09-19,株式会社アンフィニソレイユ,,株式会社,京都府,京都市北区,紫野西泉堂町６番３号１Ｆ,,26,101,6038246,,,,,,,2023-09-19,1,,,,,アンフィニソレイユ,0
795,3180001158098,新規,0,2023-09-19,2023-09-19,株式会社ワークレイジー,,株式会社,愛知県,名古屋市千種区,今池４丁目４番２号,,23,101,4640850,,,,,,,2023-09-19,1,,,,,ワークレイジー,0
806,3240001062137,新規,0,2023-09-19,2023-09-19,株式会社ＩＮＮＯＶＩＳ,,株式会社,広島県,福山市,大門町１丁目２番１９号,,34,207,7210926,,,,,,,2023-09-19,1,,,,,イノビス,0
809,3250001020283,新規,0,2023-09-19,2023-09-19,株式会社ミカサテック,,株式会社,山口県,下関市,丸山町１丁目８番１号,,35,201,7500019,,,,,,,2023-09-19,1,,,,,ミカサテック,0
822,3290003014362,新規,0,2023-09-19,2023-09-19,ネクストダイヤモンド合同会社,,合同会社,福岡県,八女市,本村４５４番地１０,,40,210,8340063,,,,,,,2023-09-19,1,,,,,ネクストダイヤモンド,0
823,3290003014370,新規,0,2023-09-19,2023-09-19,ＴＭ合同会社,,合同会社,福岡県,福岡市東区,箱崎２丁目３５－４－１０３エスポワール箱崎宮前,,40,131,8120053,,,,,,,2023-09-19,1,,,,,ティーエム,0
833,3320001020004,新規,0,2023-09-19,2023-09-19,株式会社アイエムジー,,株式会社,大分県,大分市,大字猪野１４６５番地の５８,,44,201,8700134,,,,,,,2023-09-19,1,,,,,アイエムジー,0
834,3320003004178,新規,0,2023-09-19,2023-09-19,合同会社ファイブ大分,,合同会社,大分県,別府市,駅前本町９－２０,,44,202,8740934,,,,,,,2023-09-19,1,,,,,ファイブオオイタ,0
835,3320005010100,新規,0,2023-09-19,2023-09-19,一般社団法人大分県鳶土工業連合会,,その他の設立登記法人,大分県,大分市,畑中２丁目６番６号,,44,201,8700856,,,,,,,2023-09-19,1,,,,,オオイタケントビドコウギョウレンゴウカイ,0
837,3330001031272,新規,0,2023-09-19,2023-09-19,株式会社未来開発,,株式会社,熊本県,熊本市中央区,菅原町７番２１号,,43,101,8620957,,,,,,,2023-09-19,1,,,,,ミライカイハツ,0
842,3360001032549,新規,0,2023-09-19,2023-09-19,ＭＩＹＡＫＯ　ＣＲＥＡＴＩＯＮ株式会社,,株式会社,沖縄県,宮古島市,平良字西原３２９番地２,,47,214,9060005,,,,,,,2023-09-19,1,,,,,ミヤコクリエイション,0
846,3380001033990,新規,0,2023-09-19,2023-09-19,コネクトエナジー株式会社,,株式会社,福島県,会津若松市,インター西９８番地,,07,202,9650059,,,,,,,2023-09-19,1,,,,,コネクトエナジー,0
849,3400001016381,新規,0,2023-09-19,2023-09-19,株式会社ＬＳコネクト,,株式会社,岩手県,盛岡市,向中野４丁目３１番１７号,,03,201,0200851,,,,,,,2023-09-19,1,,,,,エルエスコネクト,0
850,3400003003147,新規,0,2023-09-19,2023-09-19,合同会社ナンバー３９,,合同会社,岩手県,花巻市,大迫町内川目３９地割１６番地,,03,205,0283201,,,,,,,2023-09-19,1,,,,,ナンバーサンジュウキュウ,0
854,3430003015445,新規,0,2023-09-19,2023-09-19,合同会社マカロン,,合同会社,北海道,札幌市北区,新琴似三条３丁目２番１５－２号,,01,102,0010903,,,,,,,2023-09-19,1,,,,,マカロン,0
855,3440001009324,新規,0,2023-09-19,2023-09-19,株式会社細田総業,,株式会社,北海道,函館市,昭和町７６番地２,,01,202,0410823,,,,,,,2023-09-19,1,,,,,ホソダソウギョウ,0
857,3700150120482,新規,0,2023-09-19,2023-09-19,聯潤翔青島紡織科技有限公司,,外国会社等,大阪府,大阪市西区,江戸堀１丁目１８番３５号６階６０５号室,,27,106,5500002,中華人民共和国山東省青島市市南区香港中路１０号１号楼４００２戸,,,,,,2023-09-19,1,,,,,レンジユンシヨウチンタオボウシヨクカギユウゲンコウシ,0
870,4010001238510,新規,0,2023-09-19,2023-09-19,株式会社ＢＨＳＮ　ＪＡＰＡＮ,,株式会社,東京都,千代田区,丸の内１丁目６番５号,,13,101,1000005,,,,,,,2023-09-19,1,,,,,ビーエイチエスエヌジャパン,0
871,4010001238543,新規,0,2023-09-19,2023-09-19,株式会社エーワイエム・マーケティング,,株式会社,東京都,中央区,日本橋室町１丁目１１番１２号日本橋水野ビル７階,,13,102,1030022,,,,,,,2023-09-19,1,,,,,エーワイエムマーケティング,0
874,4010003041680,新規,0,2023-09-19,2023-09-19,合同会社ｙｅｓ,,合同会社,東京都,文京区,本郷５丁目２６番４号,,13,105,1130033,,,,,,,2023-09-19,1,,,,,イエス,0
875,4010003041689,新規,0,2023-09-19,2023-09-19,合同会社ＢＣＪ‐７５,,合同会社,東京都,千代田区,丸の内１丁目１番１号パレスビル５階,,13,101,1000005,,,,,,,2023-09-19,1,,,,,ビーシージェイセブンティーファイブ,0
879,4010403030960,新規,0,2023-09-19,2023-09-19,合同会社ｅｓｔｐｌｕｓ,,合同会社,東京都,港区,三田２丁目１９番１０－２０６号,,13,103,1080073,,,,,,,2023-09-19,1,,,,,エストプラス,0
880,4010405022469,新規,0,2023-09-19,2023-09-19,Ｈｕｍｍｅｒ一般社団法人,,その他の設立登記法人,東京都,港区,赤坂２丁目１０番５号税理士法人赤坂国際会計事務所内,,13,103,1070052,,,,,,,2023-09-19,1,,,,,ハマー,0
888,4010601063812,新規,0,2023-09-19,2023-09-19,株式会社ＭＯＢＥＳＴ,,株式会社,東京都,墨田区,緑４丁目２０番１６－２０４号,,13,107,1300021,,,,,,,2023-09-19,1,,,,,モベスト,0
889,4010603010358,新規,0,2023-09-19,2023-09-19,合同会社川野美装,,合同会社,東京都,墨田区,江東橋３丁目１０番１０号７Ｂ,,13,107,1300022,,,,,,,2023-09-19,1,,,,,カワノビソウ,0
890,4010703006867,新規,0,2023-09-19,2023-09-19,合同会社ＩＢ,,合同会社,東京都,品川区,大井４丁目２番４－１４０２号,,13,109,1400014,,,,,,,2023-09-19,1,,,,,アイビー,0
892,4010805003060,新規,0,2023-09-19,2023-09-19,特定非営利活動法人生活支援サポートリリース,,その他の設立登記法人,東京都,大田区,多摩川１丁目３５番５号クリスタルハイム３０３,,13,111,1460095,,,,,,,2023-09-19,1,,,,,セイカツシエンサポートリリース,0
894,4010901053802,新規,0,2023-09-19,2023-09-19,株式会社ＹＤＫ,,株式会社,東京都,世田谷区,代田３丁目５８－１２,,13,112,1550033,,,,,,,2023-09-19,1,,,,,ワイディーケー,0
895,4010901053827,新規,0,2023-09-19,2023-09-19,株式会社ｓ・ｔｒｉｃａ,,株式会社,東京都,世田谷区,若林１丁目２３－１２,,13,112,1540023,,,,,,,2023-09-19,1,,,,,エストリカ,0
896,4010901053843,新規,0,2023-09-19,2023-09-19,コンセプトホールディングス株式会社,,株式会社,東京都,世田谷区,太子堂４丁目３番１号,,13,112,1540004,,,,,,,2023-09-19,1,,,,,コンセプトホールディングス,0
897,4010901053851,新規,0,2023-09-19,2023-09-19,株式会社Ｗａ．Ｌａ．Ｋａ,,株式会社,東京都,世田谷区,岡本１丁目３３番８－４０２号,,13,112,1570076,,,,,,,2023-09-19,1,,,,,ワラカ,0
898,4010903008457,新規,0,2023-09-19,2023-09-19,合同会社ソルカンパニー,,合同会社,東京都,世田谷区,駒沢５丁目１２番３号フォーシーズンズ２０２,,13,112,1540012,,,,,,,2023-09-19,1,,,,,ソルカンパニー,0
905,4011001157015,新規,0,2023-09-19,2023-09-19,株式会社スカイビルケア,,株式会社,東京都,目黒区,柿の木坂２丁目２７番１８号ホワイトシャトル柿の木坂１０５,,13,110,1520022,,,,,,,2023-09-19,1,,,,,スカイビルケア,0
906,4011001157023,新規,0,2023-09-19,2023-09-19,Ｐｏｒｔｏｂｅｌｌｏ　Ｒｏａｄ株式会社,,株式会社,東京都,渋谷区,恵比寿４丁目２０番３号恵比寿ガーデンプレイスタワー１８階,,13,113,1500013,,,,,,,2023-09-19,1,,,,,ポートベローロード,0
907,4011001157031,新規,0,2023-09-19,2023-09-19,株式会社シンフォニア,,株式会社,東京都,渋谷区,道玄坂１丁目１０番８号渋谷道玄坂東急ビル２Ｆ－Ｃ,,13,113,1500043,,,,,,,2023-09-19,1,,,,,シンフォニア,0
926,4011801043050,新規,0,2023-09-19,2023-09-19,株式会社半崎興業,00131945,株式会社,東京都,葛飾区,西水元２丁目９番１５号,,13,122,1250031,,,,,,,2023-09-19,1,,,,,,0
929,4012305002063,新規,0,2023-09-19,2023-09-19,労働者協同組合ワーカーズ・コレクティブＨａｒｍｏｎｙ,,その他の設立登記法人,東京都,町田市,成瀬が丘２丁目２７番１号ＦＳビル１Ｆ,,13,209,1940011,,,,,,,2023-09-19,1,,,,,ワーカーズコレクティブハーモニー,0
930,4012401040909,新規,0,2023-09-19,2023-09-19,株式会社Ｍ．Ｍ．Ｇ,,株式会社,東京都,狛江市,中和泉２丁目１１番２４号,,13,219,2010012,,,,,,,2023-09-19,1,,,,,エムエムジー,0
933,4012701017846,新規,0,2023-09-19,2023-09-19,レジスタ株式会社,,株式会社,東京都,西東京市,住吉町３丁目１０番２５－３１０４号,,13,229,2020005,,,,,,,2023-09-19,1,,,,,レジスタ,0
934,4012703002796,新規,0,2023-09-19,2023-09-19,合同会社ＬＩＨＯＰＥ,,合同会社,東京都,清瀬市,中里３丁目８９６番地１,,13,221,2040003,,,,,,,2023-09-19,1,,,,,リホープ,0
935,4012801022630,新規,0,2023-09-19,2023-09-19,株式会社Ｅｘｃｅｅｄ,,株式会社,東京都,日野市,豊田３丁目３番地の３１サンハイム１０５,,13,212,1910053,,,,,,,2023-09-19,1,,,,,エクシード,0
936,4012803003158,新規,0,2023-09-19,2023-09-19,合同会社Ｓｈｅｄ　ｌｉｇｈｔ　ｏｎ　ｈｉｓｔｏｒｙ,,合同会社,東京都,日野市,万願寺６丁目３３－２２,,13,212,1910024,,,,,,,2023-09-19,1,,,,,シェドライトオンヒストリー,0
943,4020001153543,新規,0,2023-09-19,2023-09-19,クエーサー株式会社,,株式会社,神奈川県,横浜市西区,北幸１丁目１１番１号水信ビル７階,,14,103,2200004,,,,,,,2023-09-19,1,,,,,クエーサー,0
944,4020001153551,新規,0,2023-09-19,2023-09-19,株式会社トップワン,,株式会社,神奈川県,横浜市港北区,新吉田東３丁目９番２号Ｂ－１０２,,14,109,2230058,,,,,,,2023-09-19,1,,,,,トップワン,0
945,4020001153568,新規,0,2023-09-19,2023-09-19,株式会社ＴＡＭＡＩ　ｓｔｕｄｉｏ,,株式会社,神奈川県,川崎市中原区,苅宿３番５６－２号,,14,133,2110022,,,,,,,2023-09-19,1,,,,,タマイスタジオ,0
948,4020003024619,新規,0,2023-09-19,2023-09-19,合同会社ｒｅｂｏｒｎ,,合同会社,神奈川県,横浜市中区,曙町３丁目３２番地,,14,104,2310057,,,,,,,2023-09-19,1,,,,,リボーン,0
951,4021001080208,新規,0,2023-09-19,2023-09-19,株式会社ＳＰＣ,,株式会社,神奈川県,相模原市中央区,横山３丁目１８番１号,,14,152,2520242,,,,,,,2023-09-19,1,,,,,エスピーシー,0
952,4021001080232,新規,0,2023-09-19,2023-09-19,株式会社ＢＬＵＥ　ＯＣＥＡＮ,,株式会社,神奈川県,横須賀市,ハイランド５丁目３番８号,,14,201,2390833,,,,,,,2023-09-19,1,,,,,ブルーオーシャン,0
968,4030003022464,新規,0,2023-09-19,2023-09-19,合同会社富生,,合同会社,埼玉県,さいたま市南区,文蔵４丁目１１－４,,11,108,3360025,,,,,,,2023-09-19,1,,,,,トミセイ,0
989,4050001053476,新規,0,2023-09-19,2023-09-19,株式会社くすの木ファルマ,,株式会社,茨城県,行方市,井貝３５４,,08,233,3113803,,,,,,,2023-09-19,1,,,,,クスノキファルマ,0
990,4050001053484,新規,0,2023-09-19,2023-09-19,株式会社Ｙｏｍｉ,,株式会社,茨城県,筑西市,羽方１５８番地,,08,227,3080014,,,,,,,2023-09-19,1,,,,,ヨミ,0
991,4050001053492,新規,0,2023-09-19,2023-09-19,株式会社サンエイトパートナーズ,,株式会社,茨城県,守谷市,中央３丁目１２番地４,,08,224,3020115,,,,,,,2023-09-19,1,,,,,サンエイトパートナーズ,0
993,4060001036356,新規,0,2023-09-19,2023-09-19,株式会社ＥＡＲＴＨ・ＺＥＲＯ,,株式会社,栃木県,宇都宮市,中今泉３丁目１５番２０号,,09,201,3210968,,,,,,,2023-09-19,1,,,,,アースゼロ,0
996,4070001040885,新規,0,2023-09-19,2023-09-19,株式会社ガレージＴＫ,,株式会社,群馬県,伊勢崎市,香林町２丁目１２０１番地,,10,204,3792206,,,,,,,2023-09-19,1,,,,,ガレージティーケー,0
997,4070003005102,新規,0,2023-09-19,2023-09-19,合同会社Ｒｒｒ,,合同会社,群馬県,渋川市,北橘町八崎１８２８－３,,10,208,3770064,,,,,,,2023-09-19,1,,,,,アール,0
998,4070005010174,新規,0,2023-09-19,2023-09-19,一般社団法人群馬ドローン普及協会,,その他の設立登記法人,群馬県,伊勢崎市,上諏訪町２１１２番地１９－２０４号,,10,204,3720021,,,,,,,2023-09-19,1,,,,,グンマドローンフキュウキョウカイ,0
1007,4100001036780,新規,0,2023-09-19,2023-09-19,株式会社ＣＲ　ＡＵＴＯ,,株式会社,長野県,小諸市,甲１４５６－１コーポ詩ポエム１階Ｃ号室,,20,208,3840801,,,,,,,2023-09-19,1,,,,,シーアールオート,0
1008,4100003007177,新規,0,2023-09-19,2023-09-19,合同会社こがね,,合同会社,長野県,松本市,中央１丁目１４番２０号レインボータウンビル６階,,20,202,3900811,,,,,,,2023-09-19,1,,,,,コガネ,0
1009,4100003007185,新規,0,2023-09-19,2023-09-19,ＣＲＡＦＴ　ＳＴＹＬＥ合同会社,,合同会社,長野県,安曇野市,穂高７９９９－６,,20,220,3998303,,,,,,,2023-09-19,1,,,,,クラフトスタイル,0
1031,4120001257986,新規,0,2023-09-19,2023-09-19,株式会社ＡＣ,,株式会社,大阪府,大阪市北区,曾根崎新地１丁目７番１７号ＭＹビル３Ｂ,,27,127,5300002,,,,,,,2023-09-19,1,,,,,エーシー,0
1032,4120001258035,新規,0,2023-09-19,2023-09-19,株式会社ジェイエイチサービス,,株式会社,大阪府,大阪市天王寺区,味原本町１３番２１号メゾントレーズ３Ａ号,,27,109,5430022,,,,,,,2023-09-19,1,,,,,ジェイエイチサービス,0
1033,4120001258043,新規,0,2023-09-19,2023-09-19,株式会社Ｓｍａｒｔ　Ｉｎｆｏｒｍａｔｉｏｎ,,株式会社,大阪府,大阪市中央区,南船場４丁目１２番８号関西心斎橋ビル８０２,,27,128,5420081,,,,,,,2023-09-19,1,,,,,スマートインフォメーション,0
1034,4120001258068,新規,0,2023-09-19,2023-09-19,株式会社トレス,,株式会社,大阪府,大阪市中央区,農人橋２丁目４－１８ネイリングセンタービル９０１,,27,128,5400011,,,,,,,2023-09-19,1,,,,,トレス,0
1035,4120001258101,新規,0,2023-09-19,2023-09-19,株式会社アートフル,,株式会社,大阪府,寝屋川市,讃良西町４番１３号,,27,215,5720818,,,,,,,2023-09-19,1,,,,,アートフル,0
1037,4120003024897,新規,0,2023-09-19,2023-09-19,合同会社ＡＱＵＡＲＴ,,合同会社,大阪府,大阪市中央区,瓦屋町３丁目４－８ＫｉｔｃｈｅｎＢＡＳＥなんば３０５,,27,128,5420066,,,,,,,2023-09-19,1,,,,,アクアート,0
1038,4120003024906,新規,0,2023-09-19,2023-09-19,Ｓｋｙｔ合同会社,,合同会社,大阪府,大阪市浪速区,難波中２丁目１０番７０号難波パークスタワー１９階,,27,111,5560011,,,,,,,2023-09-19,1,,,,,スカイティ,0
1039,4120005023880,新規,0,2023-09-19,2023-09-19,社会保険労務士法人シエロコンサルティング,,その他の設立登記法人,大阪府,大阪市中央区,南船場４丁目２番１８－５０１,,27,128,5420081,,,,,,,2023-09-19,1,,,,,シエロコンサルティング,0
1040,4120105009763,新規,0,2023-09-19,2023-09-19,一般社団法人やかみっこ,,その他の設立登記法人,大阪府,堺市美原区,大饗２１３番地５,,27,147,5870063,,,,,,,2023-09-19,1,,,,,ヤカミッコ,0
1043,4122001037385,新規,0,2023-09-19,2023-09-19,瑛瑠興業株式会社,,株式会社,大阪府,東大阪市,新池島町１丁目１７番３１号,,27,227,5798065,,,,,,,2023-09-19,1,,,,,エルコウギョウ,0
1052,4130001075165,新規,0,2023-09-19,2023-09-19,株式会社蒼蓮,,株式会社,京都府,京都市下京区,天王町１５３番地,,26,106,6008013,,,,,,,2023-09-19,1,,,,,ソウレン,0
1053,4130001075223,新規,0,2023-09-19,2023-09-19,株式会社Ｒ,,株式会社,京都府,京都市右京区,梅津尻溝町３０番地１１,00131946,26,108,6150924,,,,,,,2023-09-19,1,,,,,アール,0
1061,4140001131628,新規,0,2023-09-19,2023-09-19,株式会社Ｔｏ‐Ｋｉｎｇ,,株式会社,兵庫県,西宮市,南越木岩町１０番１２号,,28,204,6620075,,,,,,,2023-09-19,1,,,,,トキン,0
1065,4140003019565,新規,0,2023-09-19,2023-09-19,合同会社一,,合同会社,兵庫県,尼崎市,武庫元町１丁目２０番１号,,28,202,6610043,,,,,,,2023-09-19,1,,,,,イチ,0
1068,4150005009506,新規,0,2023-09-19,2023-09-19,一般社団法人ＥＣＬＡＴ,,その他の設立登記法人,奈良県,奈良市,あやめ池南１丁目１番２１号,,29,201,6310033,,,,,,,2023-09-19,1,,,,,エクラ,0
1076,4180001158056,新規,0,2023-09-19,2023-09-19,株式会社グルーオン,,株式会社,愛知県,名古屋市中村区,名駅４丁目２４番５号第２森ビル４０１,,23,105,4500002,,,,,,,2023-09-19,1,,,,,グルーオン,0
1077,4180001158064,新規,0,2023-09-19,2023-09-19,株式会社ｍｙｌ,,株式会社,愛知県,名古屋市中区,丸の内３丁目７番９号,,23,106,4600002,,,,,,,2023-09-19,1,,,,,マイル,0
1078,4180001158097,新規,0,2023-09-19,2023-09-19,株式会社ＦＩＴ　ＡＮＤ　ＭＥＤＩＣＡＬ,,株式会社,愛知県,名古屋市天白区,一つ山２丁目６番地,,23,116,4680033,,,,,,,2023-09-19,1,,,,,フィットアンドメディカル,0
1079,4180001158106,新規,0,2023-09-19,2023-09-19,株式会社ＯＭＮＩ　ｃｏｒｐｏｒａｔｉｏｎ,,株式会社,愛知県,名古屋市中区,丸の内２丁目１０－１１リブラ丸の内６－６０１号室,,23,106,4600002,,,,,,,2023-09-19,1,,,,,オムニコーポレーション,0
1083,4180005020352,新規,0,2023-09-19,2023-09-19,特定非営利活動法人三方よし,,その他の設立登記法人,愛知県,名古屋市中区,新栄２丁目２５番４号第２いづもビル１階,,23,106,4600007,,,,,,,2023-09-19,1,,,,,サンポウヨシ,0
1084,4180005020360,新規,0,2023-09-19,2023-09-19,一般社団法人あいち福祉支援機構,,その他の設立登記法人,愛知県,清須市,清洲１丁目１５番地５,,23,233,4520942,,,,,,,2023-09-19,1,,,,,アイチフクシシエンキコウ,0
1088,4190001030742,新規,0,2023-09-19,2023-09-19,株式会社ＡＴＫライズ,,株式会社,三重県,尾鷲市,野地町１番１７号,,24,209,5193617,,,,,,,2023-09-19,1,,,,,エーティーケーライズ,0
1092,4210001019469,新規,0,2023-09-19,2023-09-19,株式会社Ｇｒｏｗｉｎｇ,,株式会社,福井県,鯖江市,下野田町第５号１５番地７,,18,207,9160073,,,,,,,2023-09-19,1,,,,,グローイング,0
1096,4230001020012,新規,0,2023-09-19,2023-09-19,株式会社クルパ,,株式会社,富山県,氷見市,島尾３２３番地５,,16,205,9350032,,,,,,,2023-09-19,1,,,,,クルパ,0
1097,4230001020020,新規,0,2023-09-19,2023-09-19,ＪＩＮ株式会社,,株式会社,富山県,富山市,西山王町２番２１号,,16,201,9300073,,,,,,,2023-09-19,1,,,,,ジェイアイエヌ,0
1100,4240001062144,新規,0,2023-09-19,2023-09-19,株式会社レジデンシャル,,株式会社,広島県,広島市東区,二葉の里１丁目４番１８－７０３号,,34,102,7320057,,,,,,,2023-09-19,1,,,,,レジデンシャル,0
1101,4240003006314,新規,0,2023-09-19,2023-09-19,合同会社ＭＣＫ,,合同会社,広島県,福山市,明治町１３番２４（１０１）,,34,207,7200807,,,,,,,2023-09-19,1,,,,,エムシーケー,0
1109,4290001103050,新規,0,2023-09-19,2023-09-19,株式会社エスパネット,,株式会社,福岡県,福岡市中央区,長浜２丁目３番６号,,40,133,8100072,,,,,,,2023-09-19,1,,,,,エスパネット,0
1112,4290002057758,新規,0,2023-09-19,2023-09-19,有限会社都城丸善,,有限会社,福岡県,福岡市中央区,薬院４丁目２番３号,,40,133,8100022,,,,,,,2023-09-19,1,,,,,ミヤコノジョウマルゼン,0
1114,4290005019152,新規,0,2023-09-19,2023-09-19,一般社団法人ＦＵスポーツコミュニティ,,その他の設立登記法人,福岡県,福岡市城南区,七隈８丁目１９番１号,,40,136,8140133,,,,,,,2023-09-19,1,,,,,,0
1119,4300001013470,新規,0,2023-09-19,2023-09-19,株式会社テンフィールド,,株式会社,佐賀県,嬉野市,嬉野町大字不動山甲２６８１番地,,41,209,8430305,,,,,,,2023-09-19,1,,,,,テンフィールド,0
1120,4310003004640,新規,0,2023-09-19,2023-09-19,合同会社さつき,,合同会社,長崎県,対馬市,上対馬町比田勝９６５番地１,,42,209,8171701,,,,,,,2023-09-19,1,,,,,サツキ,0
1122,4320001020003,新規,0,2023-09-19,2023-09-19,株式会社ＡＭＴ,,株式会社,大分県,佐伯市,鶴岡西町２丁目１４０番地,,44,205,8760047,,,,,,,2023-09-19,1,,,,,エーエムティー,0
1123,4320001020011,新規,0,2023-09-19,2023-09-19,ＡＲＡコンサルタント九州株式会社,,株式会社,大分県,大分市,中島東１丁目４番１０号,,44,201,8700043,,,,,,,2023-09-19,1,,,,,エーアールエーコンサルタントキュウシュウ,0
1125,4330001031247,新規,0,2023-09-19,2023-09-19,株式会社尾崎,,株式会社,熊本県,八代市,坂本町葉木１６１１番地,,43,202,8696111,,,,,,,2023-09-19,1,,,,,,0
1126,4330001031271,新規,0,2023-09-19,2023-09-19,リンリンク株式会社,,株式会社,熊本県,熊本市南区,馬渡２丁目６番１９号,,43,104,8620968,,,,,,,2023-09-19,1,,,,,リンリンク,0
1128,4350005006177,新規,0,2023-09-19,2023-09-19,特定非営利活動法人手話ランゲージ,,その他の設立登記法人,宮崎県,都城市,松元町１０街区１３号,,45,202,8850077,,,,,,,2023-09-19,1,,,,,シュワランゲージ,0
1130,4360001032523,新規,0,2023-09-19,2023-09-19,株式会社ジェイク沖縄,,株式会社,沖縄県,名護市,宇茂佐の森１丁目１５番地１４,,47,209,9050009,,,,,,,2023-09-19,1,,,,,ジェイクオキナワ,0
1131,4360001032564,新規,0,2023-09-19,2023-09-19,株式会社クバカサ,,株式会社,沖縄県,那覇市,字天久１００３番地,,47,201,9000005,,,,,,,2023-09-19,1,,,,,クバカサ,0
1136,4370003006284,新規,0,2023-09-19,2023-09-19,合同会社ケーエム,,合同会社,宮城県,気仙沼市,松崎高谷５８番地１４,,04,205,9880124,,,,,,,2023-09-19,1,,,,,ケーエム,0
1145,4430001090002,新規,0,2023-09-19,2023-09-19,株式会社Ｓ．Ｖ．Ｋ,,株式会社,北海道,恵庭市,戸磯４４番地８,,01,231,0611405,,,,,,,2023-09-19,1,,,,,エスブイケー,0
1148,4430003015444,新規,0,2023-09-19,2023-09-19,合同会社翔,,合同会社,北海道,札幌市清田区,北野七条２丁目１７番５号ルミエール北野１０１号,,01,110,0040867,,,,,,,2023-09-19,1,,,,,ショウ,0
1149,4430003015452,新規,0,2023-09-19,2023-09-19,合同会社ＴＯＢＥ,,合同会社,北海道,札幌市東区,北四十条東５丁目２番８号,,01,103,0070840,,,,,,,2023-09-19,1,,,,,トゥービー,0
1157,4500003003103,新規,0,2023-09-19,2023-09-19,合同会社まつもと経営コンサルタント,,合同会社,愛媛県,松山市,森松町１０１１番地３篠田マンション１階,,38,201,7911113,,,,,,,2023-09-19,1,,,,,マツモトケイエイコンサルタント,0
1158,4700150118484,新規,0,2023-09-19,2023-09-19,Ｓｈｅｎｚｈｅｎ　Ｄｅｈａｉ　Ｅ－ｃｏｍｍｅｒｃｅ　Ｃｏ．，ＬＴＤ,,外国会社等,,,,,,,,ｈｕａｎａｎｄａｄａｏｙｉｈａｏ，ｈｕａｎａｎｇｕｏｊｉｆａｎｇｚｈｉｆｕｚｈｕａｎｇ　ｙｕａｎｆｕｌｉａｏｗｕｌｉｕｑｕｅｒｑｉ　２ｈａｏｇｕａｎｇｃｈａｎｇＢ１Ｆ－０８７　ｓｈｅｎｚｈｅｎｓｈｉ，ｌｏｎｇｇａｎｇｑｕ，ｐｉｎｇｈｕｊｉｅｄａｏ，ｈｅｈｕａｓｈｅｑｕｇｕａｎｇｄｏｎｇｓｈｅｎｇＣＮ,,,,,,2023-09-19,1,,,,,シエンゼエンデハイイーコマースカンパニーリミテツド,0
1168,5010001238501,新規,0,2023-09-19,2023-09-19,恒松株式会社,,株式会社,東京都,中央区,人形町一丁目２番５号,,13,102,1030000,,,,,,,2023-09-19,1,,,,,ツネマツ,0
1169,5010001238518,新規,0,2023-09-19,2023-09-19,株式会社壱明,,株式会社,東京都,文京区,本駒込２丁目２７番１８－８０１号,,13,105,1130021,,,,,,,2023-09-19,1,,,,,イチミョウ,0
1170,5010001238550,新規,0,2023-09-19,2023-09-19,漫画堂株式会社,,株式会社,東京都,千代田区,外神田３丁目１３番２号,,13,101,1010021,,,,,,,2023-09-19,1,,,,,マンガドウ,0
1171,5010001238575,新規,0,2023-09-19,2023-09-19,ジャパンカカオ株式会社,,株式会社,東京都,千代田区,一番町２０番地７,,13,101,1020082,,,,,,,2023-09-19,1,,,,,ジャパンカカオ,0
1174,5010003041696,新規,0,2023-09-19,2023-09-19,合同会社オカリロ,,合同会社,東京都,中央区,日本橋室町１丁目１１番１２号日本橋水野ビル７階,,13,102,1030022,,,,,,,2023-09-19,1,,,,,オカリロ,0
1181,5010401177183,新規,0,2023-09-19,2023-09-19,ＡＲＣＨ株式会社,,株式会社,東京都,港区,新橋６丁目１１番１３－２１０３,,13,103,1050004,,,,,,,2023-09-19,1,,,,,アーチ,0
1182,5010401177191,新規,0,2023-09-19,2023-09-19,Ｏｋｕｒａ　Ｉｎｖｅｓｔｍｅｎｔｓ株式会社,,株式会社,東京都,港区,西麻布４丁目１番１０号,,13,103,1060031,,,,,,,2023-09-19,1,,,,,オクラインベストメンツ,0
1183,5010401177225,新規,0,2023-09-19,2023-09-19,株式会社Ｇｏｏｄ　Ｈｅｒｏ　Ｔｈｅｒａｐｅｕｔｉｃｓ,,株式会社,東京都,港区,虎ノ門４丁目３番１号城山トラストタワー２７階,,13,103,1050001,,,,,,,2023-09-19,1,,,,,グッドヒーローセラピューティクス,0
1184,5010401177266,新規,0,2023-09-19,2023-09-19,エイムトラスト株式会社,,株式会社,東京都,港区,芝２丁目１５番３－８０２号,,13,103,1050014,,,,,,,2023-09-19,1,,,,,エイムトラスト,0
1185,5010403030951,新規,0,2023-09-19,2023-09-19,合同会社ＲＧ　Ｉｎｖｅｓｔｍｅｎｔｓ,,合同会社,東京都,港区,白金１丁目２番１号Ｅ－１５１３,,13,103,1080072,,,,,,,2023-09-19,1,,,,,アールジーインベストメンツ,0
1186,5010405022468,新規,0,2023-09-19,2023-09-19,一般財団法人ＦｏｎｄａｔｉｏｎＴＥＩ　ＬｅＴｅｍｐｓＥｓｔＵｎｅＩｌｌｕｓｉｏｎ,,その他の設立登記法人,東京都,港区,南青山６丁目１番３号コレッツィオーネ,,13,103,1070062,,,,,,,2023-09-19,1,,,,,フォンダシオンテイルトンエユヌイリューズィオン,0
1188,5010501051065,新規,0,2023-09-19,2023-09-19,サンレート株式会社,,株式会社,東京都,台東区,浅草３丁目２１－９トーラス浅草２２０号,,13,106,1110032,,,,,,,2023-09-19,1,,,,,サンレート,0
1189,5010501051073,新規,0,2023-09-19,2023-09-19,株式会社Ｔｒａｎｓ　Ｗｏｒｌｄ,,株式会社,東京都,台東区,台東３丁目４１番１０号精工ビル１０１,,13,106,1100016,,,,,,,2023-09-19,1,,,,,トランスワールド,0
1190,5010601063786,新規,0,2023-09-19,2023-09-19,エッジアンドマネジメント株式会社,,株式会社,東京都,江東区,亀戸５丁目２３番１１号,,13,108,1360071,,,,,,,2023-09-19,1,,,,,エッジアンドマネジメント,0
1191,5010601063794,新規,0,2023-09-19,2023-09-19,株式会社ＮＴＳ,,株式会社,東京都,江東区,東陽２丁目２３番２６号東陽町コーポラス３Ｆ－４０号,,13,108,1350016,,,,,,,2023-09-19,1,,,,,エヌティーエス,0
1192,5010601063803,新規,0,2023-09-19,2023-09-19,ＵＲアセット株式会社,,株式会社,東京都,墨田区,立花５丁目１９番６号,,13,107,1310043,,,,,,,2023-09-19,1,,,,,ユーアールアセット,0
1194,5010701044851,新規,0,2023-09-19,2023-09-19,株式会社ライズ,,株式会社,東京都,品川区,大崎３丁目１番５号ルミネ五反田第２・２０２号室,,13,109,1410032,,,,,,,2023-09-19,1,,,,,ライズ,0
1197,5010703006866,新規,0,2023-09-19,2023-09-19,ＢＥＮＡＣＨＩ合同会社,,合同会社,東京都,品川区,小山７丁目１４－７,,13,109,1420062,,,,,,,2023-09-19,1,,,,,ビナッチ,0
1200,5010901053859,新規,0,2023-09-19,2023-09-19,株式会社ｉＳＫＩ　ＪＡＰＡＮ,,株式会社,東京都,世田谷区,東玉川２丁目１０番４号,,13,112,1580084,,,,,,,2023-09-19,1,,,,,アイスキジャパン,0
1207,5011001157022,新規,0,2023-09-19,2023-09-19,株式会社テイクチャージ,,株式会社,東京都,渋谷区,渋谷２丁目１９－１５宮益坂ビルディング６０９,,13,113,1500002,,,,,,,2023-09-19,1,,,,,テイクチャージ,0
1208,5011001157030,新規,0,2023-09-19,2023-09-19,株式会社ミライのゲンバ,,株式会社,東京都,渋谷区,円山町２８番１号渋谷道玄坂スカイビル１１Ｆ,,13,113,1500044,,,,,,,2023-09-19,1,,,,,ミライノゲンバ,0
1209,5011001157039,新規,0,2023-09-19,2023-09-19,株式会社ＳＥＡ７,,株式会社,東京都,目黒区,青葉台３丁目１番１号,,13,110,1530042,,,,,,,2023-09-19,1,,,,,シーナ,0
1210,5011003017554,新規,0,2023-09-19,2023-09-19,合同会社デポルテ１９,,合同会社,東京都,渋谷区,上原２丁目４７番５－３１２号,,13,113,1510064,,,,,,,2023-09-19,1,,,,,デポルテナインティーン,0
1212,5011101104403,新規,0,2023-09-19,2023-09-19,株式会社Ｎｕｍｂｅｒ　ｅｓｔａｔｅ,,株式会社,東京都,新宿区,矢来町１１４番地高橋ビル２階,,13,104,1620805,,,,,,,2023-09-19,1,,,,,ナンバーエステート,0
1214,5011103013494,新規,0,2023-09-19,2023-09-19,ＣＯＵ合同会社,,合同会社,東京都,新宿区,西新宿３丁目３番１３号西新宿水間ビル６階,,13,104,1600023,,,,,,,2023-09-19,1,,,,,シーオーユー,0
1216,5011401025456,新規,0,2023-09-19,2023-09-19,谷北会計コンサルティング株式会社,,株式会社,東京都,板橋区,坂下１丁目３３番２１号シティハウス志村三丁目ザ・レジデンス２０４,,13,119,1740043,,,,,,,2023-09-19,1,,,,,タニキタカイケイコンサルティング,0
1217,5011505002582,新規,0,2023-09-19,2023-09-19,医療法人社団睿心会,,その他の設立登記法人,東京都,北区,田端４丁目３番２号山積ビル１階,,13,117,1140014,,,,,,,2023-09-19,1,,,,,エイシンカイ,0
1229,5012303001875,新規,0,2023-09-19,2023-09-19,合同会社ウォーキングインザパーク,,合同会社,東京都,町田市,玉川学園５丁目２８番４号プロパティ玉川学園５号,,13,209,1940041,,,,,,,2023-09-19,1,,,,,ウォーキングインザパーク,0
1231,5012405004900,新規,0,2023-09-19,2023-09-19,一般社団法人聖蹟桜ヶ丘エリアマネジメント,,その他の設立登記法人,東京都,多摩市,関戸１丁目９番１号,,13,224,2060011,,,,,,,2023-09-19,1,,,,,セイセキサクラガオカエリアマネジメント,0
1232,5012701017845,新規,0,2023-09-19,2023-09-19,株式会社Ｂｕｆｆ,,株式会社,東京都,西東京市,新町１丁目４番７－５０６号,,13,229,2020023,,,,,,,2023-09-19,1,,,,,バフ,0
1236,5013301051359,新規,0,2023-09-19,2023-09-19,株式会社ＭＨＣ,,株式会社,東京都,豊島区,駒込１丁目３７番１２号,,13,116,1700003,,,,,,,2023-09-19,1,,,,,エムエイチシー,0
1241,5020001153550,新規,0,2023-09-19,2023-09-19,株式会社光輝トレンド,,株式会社,神奈川県,横浜市南区,浦舟町１丁目１番地１１フェアリーガーデン横濱阪東橋２０１号,,14,105,2320024,,,,,,,2023-09-19,1,,,,,コウキトレンド,0
1242,5020001153559,新規,0,2023-09-19,2023-09-19,株式会社池田架設,,株式会社,神奈川県,川崎市宮前区,南野川１丁目６番１７号,,14,136,2160042,,,,,,,2023-09-19,1,,,,,イケダカセツ,0
1243,5020001153567,新規,0,2023-09-19,2023-09-19,株式会社ＤＲＧ,,株式会社,神奈川県,横浜市戸塚区,名瀬町２３７番地１ソフィア戸塚アクアステージ５１０号,00131960,14,110,2450051,,,,,,,2023-09-19,1,,,,,ディーアールジー,0
1244,5020001153583,新規,0,2023-09-19,2023-09-19,Ｔｍｍ．デザイン株式会社,,株式会社,神奈川県,川崎市麻生区,上麻生４丁目３４番１号,,14,137,2150021,,,,,,,2023-09-19,1,,,,,ティーエムエムデザイン,0
1248,5020005016126,新規,0,2023-09-19,2023-09-19,医療法人社団颯陽会,,その他の設立登記法人,神奈川県,川崎市中原区,市ノ坪４４９番地３シティタワー武蔵小杉２階,,14,133,2110016,,,,,,,2023-09-19,1,,,,,ソウヨウカイ,0
1255,5021001080198,新規,0,2023-09-19,2023-09-19,東京エシカルパートナーズ株式会社,,株式会社,神奈川県,横須賀市,小川町２７番地１９日神パレステージ横須賀マリンスクエア６０４号室,,14,201,2380004,,,,,,,2023-09-19,1,,,,,トウキョウエシカルパートナーズ,0
1267,5030001156024,新規,0,2023-09-19,2023-09-19,株式会社窪田建築,,株式会社,埼玉県,上尾市,栄町１０番１０－４号,,11,219,3620033,,,,,,,2023-09-19,1,,,,,クボタケンチク,0
1271,5030005021380,新規,0,2023-09-19,2023-09-19,一般社団法人日本業務委託推進協会,,その他の設立登記法人,埼玉県,狭山市,富士見１丁目１４番６号速玉テラス４０１,,11,215,3501306,,,,,,,2023-09-19,1,,,,,ニホンギョウムイタクスイシンキョウカイ,0
1280,5040003023072,新規,0,2023-09-19,2023-09-19,合同会社ＳＡＹＹＯＵ,,合同会社,千葉県,佐倉市,井野１４６８―２６,,12,212,2850855,,,,,,,2023-09-19,1,,,,,セイユウ,0
1281,5040005022122,新規,0,2023-09-19,2023-09-19,一般社団法人習志野市環境公社,,その他の設立登記法人,千葉県,習志野市,茜浜３丁目４番１０号,,12,216,2750024,,,,,,,2023-09-19,1,,,,,ナラシノシカンキョウコウシャ,0
1284,5050001053483,新規,0,2023-09-19,2023-09-19,株式会社ふゆみん,,株式会社,茨城県,常陸大宮市,鷹巣１６０３番地の１,,08,225,3192214,,,,,,,2023-09-19,1,,,,,フユミン,0
1285,5050003007792,新規,0,2023-09-19,2023-09-19,ＭＵＳＳＡ　ＴＲＡＤＩＮＧ合同会社,,合同会社,茨城県,坂東市,逆井３５３６大都ビル２０５,,08,228,3060501,,,,,,,2023-09-19,1,,,,,ムサトレーディング,0
1288,5070001040884,新規,0,2023-09-19,2023-09-19,はたらーく株式会社,,株式会社,群馬県,前橋市,南町３丁目３６番地２ワンライフ駅南ビル２Ｆ,,10,201,3710805,,,,,,,2023-09-19,1,,,,,ハタラーク,0
1292,5080103002889,新規,0,2023-09-19,2023-09-19,ｍｉｎａｍｏ合同会社,,合同会社,静岡県,富士市,田中新田１８６,,22,210,4170843,,,,,,,2023-09-19,1,,,,,ミナモ,0
1298,5100001036755,新規,0,2023-09-19,2023-09-19,株式会社ＭＡＬＣＨＩＮＫＨＵＵ,,株式会社,長野県,北佐久郡軽井沢町,大字長倉４５３３－２７８,,20,321,3890111,,,,,,,2023-09-19,1,,,,,マルチンフー,0
1304,5100003007184,新規,0,2023-09-19,2023-09-19,合同会社ＭＩＭＩＫ,,合同会社,長野県,佐久市,臼田１３７０番１,,20,217,3840301,,,,,,,2023-09-19,1,,,,,ミミク,0
1322,5120001258075,新規,0,2023-09-19,2023-09-19,ＺＯＬＡ株式会社,,株式会社,大阪府,大阪市中央区,東心斎橋２丁目１番１７号３Ｆ,,27,128,5420083,,,,,,,2023-09-19,1,,,,,ゾラ,0
1330,5120901048071,新規,0,2023-09-19,2023-09-19,株式会社Ｄｕｋａ　ｌａ　ｍａｄａｗａ,,株式会社,大阪府,豊中市,北桜塚３丁目９番１５－１０２号,,27,203,5600022,,,,,,,2023-09-19,1,,,,,ドゥカラマダワ,0
1339,5130001075206,新規,0,2023-09-19,2023-09-19,株式会社壬生エステート,,株式会社,京都府,京都市下京区,中堂寺壬生川町２９番地１、４２２号室,,26,106,6008806,,,,,,,2023-09-19,1,,,,,ミブエステート,0
1340,5130001075230,新規,0,2023-09-19,2023-09-19,木森株式会社,,株式会社,京都府,京都市左京区,聖護院東町１６番地３プレージア京都聖護院ノ邸３０２号室,,26,103,6068325,,,,,,,2023-09-19,1,,,,,コモリ,0
1356,5140001131593,新規,0,2023-09-19,2023-09-19,株式会社シャトレ,,株式会社,兵庫県,伊丹市,美鈴町１丁目４番地１セントラル新伊丹１０２号,,28,207,6640884,,,,,,,2023-09-19,1,,,,,シャトレ,0
1357,5140001131627,新規,0,2023-09-19,2023-09-19,株式会社サニーベスト,,株式会社,兵庫県,神戸市中央区,中町通３丁目１番８号ライオンズステーションプラザ神戸３０４号,,28,110,6500027,,,,,,,2023-09-19,1,,,,,サニーベスト,0
1358,5140001131651,新規,0,2023-09-19,2023-09-19,株式会社マルシン,,株式会社,兵庫県,豊岡市,泉町２番２４号,,28,209,6680021,,,,,,,2023-09-19,1,,,,,マルシン,0
1359,5140001131676,新規,0,2023-09-19,2023-09-19,侍ｉｓｍほけん株式会社,,株式会社,兵庫県,姫路市,城見台２丁目１１１１番地２７２,,28,201,6700803,,,,,,,2023-09-19,1,,,,,サムライズムホケン,0
1368,5180001158006,新規,0,2023-09-19,2023-09-19,ＭＡＹＣＡＬＬ株式会社,,株式会社,愛知県,名古屋市昭和区,西畑町７６番地の３,,23,107,4660806,,,,,,,2023-09-19,1,,,,,メイコール,0
1369,5180001158055,新規,0,2023-09-19,2023-09-19,株式会社ＢＡＹＳＥＲ,,株式会社,愛知県,北名古屋市,六ツ師松葉１４７番地,,23,234,4810001,,,,,,,2023-09-19,1,,,,,バイセル,0
1370,5180001158063,新規,0,2023-09-19,2023-09-19,株式会社ＥＴＲＥ　ＭＩＵ,,株式会社,愛知県,一宮市,森本５丁目１７番２９号,,23,203,4910831,,,,,,,2023-09-19,1,,,,,エトレミュー,0
1371,5180001158071,新規,0,2023-09-19,2023-09-19,株式会社サクラ,,株式会社,愛知県,名古屋市西区,則武新町１丁目３番１７号,,23,104,4510051,,,,,,,2023-09-19,1,,,,,サクラ,0
1372,5180001158096,新規,0,2023-09-19,2023-09-19,株式会社ＲＯＷＢＥＬＬＥ,,株式会社,愛知県,名古屋市中村区,名駅４丁目２４番５号第２森ビル４０１,,23,105,4500002,,,,,,,2023-09-19,1,,,,,ロウベル,0
1377,5190001030741,新規,0,2023-09-19,2023-09-19,株式会社サーティーエイト,,株式会社,三重県,鈴鹿市,神戸７丁目１３番２５号,,24,207,5130801,,,,,,,2023-09-19,1,,,,,,0
1379,5190003004446,新規,0,2023-09-19,2023-09-19,合同会社あおいろハウス,,合同会社,三重県,四日市市,天カ須賀２丁目４－１２,,24,202,5108001,,,,,,,2023-09-19,1,,,,,アオイロハウス,0
1382,5210001019468,新規,0,2023-09-19,2023-09-19,株式会社ｓｈｉｒｏ,,株式会社,福井県,福井市,若杉１丁目３２０５番地,,18,201,9188055,,,,,,,2023-09-19,1,,,,,シロ,0
1397,5290001103058,新規,0,2023-09-19,2023-09-19,株式会社ラーナ,,株式会社,福岡県,福岡市博多区,博多駅前４丁目９番２８号エヌケイビル２Ｆ,,40,132,8120011,,,,,,,2023-09-19,1,,,,,ラーナ,0
1406,5290005019151,新規,0,2023-09-19,2023-09-19,一般社団法人ジャパングコンシェルジュ協会,,その他の設立登記法人,福岡県,糸島市,二丈深江１４５６番地１ヴィライチキＤ号室,,40,230,8191601,,,,,,,2023-09-19,1,,,,,ジャパングコンシェルジュキョウカイ,0
1407,5290801029881,新規,0,2023-09-19,2023-09-19,ブルーポート北九州株式会社,,株式会社,福岡県,京都郡苅田町,大字苅田３７８７番地６１,,40,621,8000365,,,,,,,2023-09-19,1,,,,,ブルーポートキタキュウシュウ,0
1411,5320001020010,新規,0,2023-09-19,2023-09-19,株式会社雅,,株式会社,大分県,大分市,大字賀来４５１番地の６,,44,201,8700877,,,,,,,2023-09-19,1,,,,,ミヤビ,0
1417,5330003009975,新規,0,2023-09-19,2023-09-19,合同会社Ａｎｙ　Ｇｒｏｕｐ,,合同会社,熊本県,熊本市中央区,南坪井町６番３号１階,,43,101,8600848,,,,,,,2023-09-19,1,,,,,エニーグループ,0
1418,5340005009659,新規,0,2023-09-19,2023-09-19,医療法人真正会,,その他の設立登記法人,鹿児島県,霧島市,国分中央１丁目３番２２号,,46,218,8994332,,,,,,,2023-09-19,1,,,,,シンセイカイ,0
1420,5350003004438,新規,0,2023-09-19,2023-09-19,合同会社興梠建築,,合同会社,宮崎県,宮崎市,橘通西５丁目３番２５号,,45,201,8800001,,,,,,,2023-09-19,1,,,,,コウロギケンチク,0
1423,5360001032555,新規,0,2023-09-19,2023-09-19,テックワンジャパン株式会社,,株式会社,沖縄県,那覇市,久米２丁目３番１５号,,47,201,9000033,,,,,,,2023-09-19,1,,,,,テックワンジャパン,0
1426,5360003013297,新規,0,2023-09-19,2023-09-19,琉球マーケティング合同会社,,合同会社,沖縄県,浦添市,沢岻１丁目４６番５号２階,,47,208,9012112,,,,,,,2023-09-19,1,,,,,リュウキュウマーケティング,0
1431,5400005008357,新規,0,2023-09-19,2023-09-19,おおつち百年之業協同組合,,その他の設立登記法人,岩手県,上閉伊郡大槌町,小鎚第２７地割３番地４,,03,461,0281121,,,,,,,2023-09-19,1,,,,,オオツチヒャクネンノギョウ,0
1433,5430001089992,新規,0,2023-09-19,2023-09-19,株式会社ＬＥＢＥＮ　ＳＴＥＡＬ,,株式会社,北海道,札幌市白石区,菊水三条４丁目４番２４号,,01,104,0030803,,,,,,,2023-09-19,1,,,,,レーベンスティール,0
1434,5430003015435,新規,0,2023-09-19,2023-09-19,合同会社宮崎塗建,00131942,合同会社,北海道,石狩市,生振南八線１６８－１８,,01,235,0613245,,,,,,,2023-09-19,1,,,,,ミヤザキトケン,0
1435,5430003015443,新規,0,2023-09-19,2023-09-19,合同会社Ｓｐｅｅｄ,,合同会社,北海道,札幌市中央区,南七条西８丁目１番地１８ＣＢ１号館ビル６階,,01,101,0640807,,,,,,,2023-09-19,1,,,,,スピード,0
1436,5430003015451,新規,0,2023-09-19,2023-09-19,シュポルトリーベン合同会社,,合同会社,北海道,札幌市南区,南沢１８３８番地９,,01,106,0050827,,,,,,,2023-09-19,1,,,,,シュポルトリーベン,0
1437,5430005014773,新規,0,2023-09-19,2023-09-19,農事組合法人ばーてっくす,,その他の設立登記法人,北海道,札幌市手稲区,西宮の沢二条５丁目５番１１号,,01,109,0060002,,,,,,,2023-09-19,1,,,,,バーテックス,0
1442,5470001019814,新規,0,2023-09-19,2023-09-19,株式会社佐竹,,株式会社,香川県,坂出市,王越町乃生６７９番地,,37,203,7620013,,,,,,,2023-09-19,1,,,,,サタケ,0
1443,5480001012215,新規,0,2023-09-19,2023-09-19,株式会社福井設備工業,,株式会社,徳島県,徳島市,国府町矢野４７３番地の１,,36,201,7793126,,,,,,,2023-09-19,1,,,,,フクイセツビコウギョウ,0
1457,6010001238517,新規,0,2023-09-19,2023-09-19,プラチナゲート株式会社,,株式会社,東京都,中央区,日本橋室町１丁目１１番１２号日本橋水野ビル７階,,13,102,1030022,,,,,,,2023-09-19,1,,,,,プラチナゲート,0
1458,6010001238541,新規,0,2023-09-19,2023-09-19,株式会社ＰＲＯＷＩＳＥ,,株式会社,東京都,中央区,銀座１丁目２２－１１銀座大竹ビジデンス２Ｆ,,13,102,1040061,,,,,,,2023-09-19,1,,,,,プロワイズ,0
1461,6010003041687,新規,0,2023-09-19,2023-09-19,合同会社グッドコム・レジデンシャルファンド１,,合同会社,東京都,中央区,八丁堀４丁目２番１０号ＡＯＪ税理士法人内,,13,102,1040032,,,,,,,2023-09-19,1,,,,,グッドコムレジデンシャルファンドワン,0
1466,6010401177249,新規,0,2023-09-19,2023-09-19,ＳＴＫ株式会社,,株式会社,東京都,港区,南青山３丁目１番３６号青山丸竹ビル６階,,13,103,1070062,,,,,,,2023-09-19,1,,,,,エスティケイ,0
1468,6010403030942,新規,0,2023-09-19,2023-09-19,合同会社ＹＡＳＶ,,合同会社,東京都,港区,西新橋１丁目２２番２号２Ｆ,,13,103,1050003,,,,,,,2023-09-19,1,,,,,ワイエーエスブイ,0
1469,6010501051072,新規,0,2023-09-19,2023-09-19,株式会社ＬＵＪＡＮ,,株式会社,東京都,台東区,橋場１丁目２４番１０号,,13,106,1110023,,,,,,,2023-09-19,1,,,,,ルハン,0
1470,6010503007163,新規,0,2023-09-19,2023-09-19,合同会社岩田研究所,,合同会社,東京都,台東区,元浅草２丁目１０－６浅草参番館７０１,,13,106,1110041,,,,,,,2023-09-19,1,,,,,イワタケンキュウショ,0
1471,6010601063810,新規,0,2023-09-19,2023-09-19,株式会社狼煙,,株式会社,東京都,墨田区,太平４丁目１－１ブリリアタワー東京２４０１,,13,107,1300012,,,,,,,2023-09-19,1,,,,,ノロシ,0
1472,6010603010364,新規,0,2023-09-19,2023-09-19,国際商事合同会社,,合同会社,東京都,墨田区,立川１丁目１４番４号,,13,107,1300023,,,,,,,2023-09-19,1,,,,,コクサイショウジ,0
1474,6010703006857,新規,0,2023-09-19,2023-09-19,合同会社ＬａｎｄＲ,,合同会社,東京都,品川区,平塚２丁目２０－１０－１０２,,13,109,1420051,,,,,,,2023-09-19,1,,,,,ランドアール,0
1478,6010801034339,新規,0,2023-09-19,2023-09-19,株式会社ＴＲＡＶＥＬ　ＢＯＯＫＩＮＧ　Ｋ．Ｋ,,株式会社,東京都,大田区,大森北６丁目２番１１号第２ＴＡＣビル３０４,,13,111,1430016,,,,,,,2023-09-19,1,,,,,トラベルブッキングケードットケー,0
1481,6010803004678,新規,0,2023-09-19,2023-09-19,合同会社ＡＫＫクラフト,,合同会社,東京都,大田区,仲六郷２丁目１０番６－１０１号,,13,111,1440055,,,,,,,2023-09-19,1,,,,,エーケーケークラフト,0
1487,6011001157021,新規,0,2023-09-19,2023-09-19,株式会社ＫＡＩＬＹＮＡＲＴ,,株式会社,東京都,渋谷区,西原３丁目３５番１号,,13,113,1510066,,,,,,,2023-09-19,1,,,,,カイリンアート,0
1494,6011101104410,新規,0,2023-09-19,2023-09-19,冉廷株式会社,,株式会社,東京都,新宿区,西早稲田１丁目１１番８号ヴィラ早稲田１０１Ｂ,,13,104,1690051,,,,,,,2023-09-19,1,,,,,ゼンテイ,0
1495,6011101104427,新規,0,2023-09-19,2023-09-19,株式会社ｍｏｚｅ,,株式会社,東京都,新宿区,西新宿３丁目３番１３号西新宿水間ビル２Ｆ,,13,104,1600023,,,,,,,2023-09-19,1,,,,,モゼ,0
1496,6011103013477,新規,0,2023-09-19,2023-09-19,合同会社シンフォニックス,,合同会社,東京都,新宿区,弁天町９４番地１フィーカ牛込柳町２０２,,13,104,1620851,,,,,,,2023-09-19,1,,,,,シンフォニックス,0
1497,6011401025463,新規,0,2023-09-19,2023-09-19,ＳＩＮ‐ＤＡＩ　ＳＹＳＴＥＭ株式会社,,株式会社,東京都,板橋区,板橋２丁目４１番１２号大森ビル,,13,119,1730004,,,,,,,2023-09-19,1,,,,,シンダイシステム,0
1499,6011501029777,新規,0,2023-09-19,2023-09-19,株式会社Ｌｉｆｅ　Ｐｒｉｍｅ,,株式会社,東京都,北区,十条仲原１丁目４番１４－４０２号,,13,117,1140031,,,,,,,2023-09-19,1,,,,,ライフプライム,0
1504,6011801043049,新規,0,2023-09-19,2023-09-19,株式会社ハイブリッジ・ワン,,株式会社,東京都,葛飾区,堀切１丁目５番９号松浦コーポ１０１,,13,122,1240006,,,,,,,2023-09-19,1,,,,,ハイブリッジワン,0
1508,6012701017844,新規,0,2023-09-19,2023-09-19,株式会社ＷＩＬＬグループ,,株式会社,東京都,東村山市,本町１丁目１０番地２プランドール１０５,,13,213,1890014,,,,,,,2023-09-19,1,,,,,ウィルグループ,0
1509,6013101009250,新規,0,2023-09-19,2023-09-19,株式会社あべこうむてん,,株式会社,東京都,あきる野市,五日市１９０番地,,13,228,1900164,,,,,,,2023-09-19,1,,,,,,0
1515,6013303006797,新規,0,2023-09-19,2023-09-19,フロー合同会社,,合同会社,東京都,豊島区,雑司が谷３丁目３番２５－７０５号,,13,116,1710032,,,,,,,2023-09-19,1,,,,,フロー,0
1518,6020001153450,新規,0,2023-09-19,2023-09-19,エリザベス株式会社,,株式会社,神奈川県,川崎市川崎区,大島１丁目１８－１５,,14,131,2100834,,,,,,,2023-09-19,1,,,,,エリザベス,0
1519,6020001153541,新規,0,2023-09-19,2023-09-19,株式会社ＫＩＧ神奈川,,株式会社,神奈川県,横浜市鶴見区,鶴見中央１丁目２１番２８号,,14,101,2300051,,,,,,,2023-09-19,1,,,,,ケーアイジーカナガワ,0
1527,6021001080197,新規,0,2023-09-19,2023-09-19,株式会社湘南ウッディスタイル,,株式会社,神奈川県,横須賀市,池上３丁目１番８号,,14,201,2380035,,,,,,,2023-09-19,1,,,,,ショウナンウッディスタイル,0
1531,6021003013584,新規,0,2023-09-19,2023-09-19,合同会社ＷｏｎＭｏｎ,,合同会社,神奈川県,相模原市中央区,千代田３丁目１５番１０号,,14,152,2520237,,,,,,,2023-09-19,1,,,,,ワンモン,0
1535,6030001155966,新規,0,2023-09-19,2023-09-19,株式会社ＬＯＯＰｔｅｃｈ,,株式会社,埼玉県,川越市,大字小堤８４１番地７,,11,201,3500811,,,,,,,2023-09-19,1,,,,,ループテック,0
1536,6030001156048,新規,0,2023-09-19,2023-09-19,三株式会社,,株式会社,埼玉県,越谷市,宮本町４丁目５６番地ハイツＷＡＫＩ２０３,,11,222,3430806,,,,,,,2023-09-19,1,,,,,サン,0
1539,6030003022561,新規,0,2023-09-19,2023-09-19,Ｃｏｎｔｅｎｔｓ　Ｃｏｎｓｔｒｕｃｔｉｏｎ合同会社,,合同会社,埼玉県,上尾市,西宮下３丁目７５－１１,,11,219,3620043,,,,,,,2023-09-19,1,,,,,コンテンツコンストラクション,0
1546,6040005022121,新規,0,2023-09-19,2023-09-19,一般社団法人ＭＭ企画ちば,,その他の設立登記法人,千葉県,千葉市稲毛区,小仲台９丁目３番２６号,,12,103,2630043,,,,,,,2023-09-19,1,,,,,エムエムキカクチバ,0
1548,6050001053482,新規,0,2023-09-19,2023-09-19,株式会社Ｓｕｎｆｏｒｉｎｅ,,株式会社,茨城県,取手市,取手２丁目３番７号取手センタービル２Ｆ,,08,217,3020004,,,,,,,2023-09-19,1,,,,,サンフォーライン,0
1549,6050001053490,新規,0,2023-09-19,2023-09-19,株式会社ＭＩＲＡＩ‐Ｋ,,株式会社,茨城県,つくばみらい市,陽光台２丁目１番地８,,08,235,3002358,,,,,,,2023-09-19,1,,,,,ミライケー,0
1552,6050003007791,新規,0,2023-09-19,2023-09-19,合同会社北浦農園,,合同会社,茨城県,鹿嶋市,大字荒井５６２番地７,,08,222,3112204,,,,,,,2023-09-19,1,,,,,キタウラノウエン,0
1556,6060001036354,新規,0,2023-09-19,2023-09-19,株式会社エムプラス,,株式会社,栃木県,小山市,大字土塔２５３番地４,,09,208,3230812,,,,,,,2023-09-19,1,,,,,エムプラス,0
1560,6060003004722,新規,0,2023-09-19,2023-09-19,合同会社ＬＩＮＯＬＩＮＯ,,合同会社,栃木県,那須郡那須町,大字高久乙伊藤台３３７４番地５４６,,09,407,3250303,,,,,,,2023-09-19,1,,,,,,0
1564,6070001040883,新規,0,2023-09-19,2023-09-19,株式会社ＳＵＮＰＩＧＳ,,株式会社,群馬県,高崎市,飯塚町２６０－１ＹＳビル,,10,202,3700069,,,,,,,2023-09-19,1,,,,,サンピッグス,0
1574,6100001036787,新規,0,2023-09-19,2023-09-19,株式会社ＭＴ　ｍｏｔｏｒｓ,,株式会社,長野県,長野市,青木島町大塚２番地２,,20,201,3812205,,,,,,,2023-09-19,1,,,,,エムティーモータース,0
1575,6100001036795,新規,0,2023-09-19,2023-09-19,株式会社ちとせアグリベース,,株式会社,長野県,諏訪郡原村,１７２１７番地１０１９,,20,363,3910100,,,,,,,2023-09-19,1,,,,,チトセアグリベース,0
1578,6100003007183,新規,0,2023-09-19,2023-09-19,生甲斐組合同会社,,合同会社,長野県,飯山市,大字瑞穂字岡ノ田５４６８番地１,,20,213,3892322,,,,,,,2023-09-19,1,,,,,イキガイグミ,0
1580,6120001258058,新規,0,2023-09-19,2023-09-19,永縁株式会社,,株式会社,大阪府,大阪市住吉区,遠里小野３丁目１番１２号,,27,120,5580032,,,,,,,2023-09-19,1,,,,,エイエン,0
1581,6120001258066,新規,0,2023-09-19,2023-09-19,株式会社Ｊ＆Ａ,,株式会社,大阪府,大阪市阿倍野区,阿倍野筋３丁目７番１２号,,27,119,5450052,,,,,,,2023-09-19,1,,,,,ジェイアンドエー,0
1582,6120001258074,新規,0,2023-09-19,2023-09-19,株式会社日創商事,,株式会社,大阪府,大阪市住之江区,御崎５丁目１５番１号－４０１号,,27,125,5590013,,,,,,,2023-09-19,1,,,,,ニッソウショウジ,0
1583,6120001258108,新規,0,2023-09-19,2023-09-19,ｓｏｕｒｉａｎｔ株式会社,,株式会社,大阪府,大阪市東住吉区,南田辺１丁目１０番２６号南田辺レジデンス２０１号,,27,121,5460033,,,,,,,2023-09-19,1,,,,,スリアン,0
1584,6120003024870,新規,0,2023-09-19,2023-09-19,合同会社ワールド,,合同会社,大阪府,大阪市阿倍野区,桃ケ池町２丁目１１番２３号柚樹ハウス３０１号,,27,119,5450012,,,,,,,2023-09-19,1,,,,,ワールド,0
1585,6120003024895,新規,0,2023-09-19,2023-09-19,スマイルサーブ合同会社,,合同会社,大阪府,大阪市生野区,新今里４丁目１０番３号,,27,116,5440001,,,,,,,2023-09-19,1,,,,,スマイルサーブ,0
1590,6120101068225,新規,0,2023-09-19,2023-09-19,株式会社関西ライブネット,,株式会社,大阪府,松原市,田井城４丁目１４５番地の１１,,27,217,5800044,,,,,,,2023-09-19,1,,,,,カンサイライブネット,0
1591,6120101068233,新規,0,2023-09-19,2023-09-19,Ｆ＆コンサルティング株式会社,,株式会社,大阪府,堺市堺区,三国ヶ丘御幸通１０番地１三幸ビル５Ｆ,,27,141,5900028,,,,,,,2023-09-19,1,,,,,エフアンドコンサルティング,0
1593,6120901048062,新規,0,2023-09-19,2023-09-19,株式会社クオッカ,,株式会社,大阪府,豊中市,上野東２丁目２番２９号,,27,203,5600013,,,,,,,2023-09-19,1,,,,,クオッカ,0
1595,6122001037383,新規,0,2023-09-19,2023-09-19,イーグルライフ株式会社,,株式会社,大阪府,八尾市,亀井町３丁目４番１１号,,27,212,5810065,,,,,,,2023-09-19,1,,,,,イーグルライフ,0
1596,6122001037391,新規,0,2023-09-19,2023-09-19,ｓｈｉｏｎ株式会社,,株式会社,大阪府,東大阪市,新上小阪１２番１５号,,27,227,5770813,,,,,,,2023-09-19,1,,,,,シオン,0
1599,6130001075295,新規,0,2023-09-19,2023-09-19,株式会社ＷＥＬＬ,,株式会社,京都府,向日市,寺戸町梅ノ木５番地,,26,208,6170002,,,,,,,2023-09-19,1,,,,,ウェル,0
1603,6140001131650,新規,0,2023-09-19,2023-09-19,株式会社菊理,,株式会社,兵庫県,加古川市,野口町良野１２１番地の４６,,28,210,6750017,,,,,,,2023-09-19,1,,,,,ククリ,0
1609,6170001017780,新規,0,2023-09-19,2023-09-19,ＲＥＳＴＡＲＴ株式会社,,株式会社,和歌山県,和歌山市,西８６番地２２,,30,201,6408313,,,,,,,2023-09-19,1,,,,,リスタート,0
1614,6180001158062,新規,0,2023-09-19,2023-09-19,カリモク藤江株式会社,,株式会社,愛知県,知多郡東浦町,大字藤江字皆栄町１０８番地,,23,442,4702105,,,,,,,2023-09-19,1,,,,,カリモクフジエ,0
1615,6180001158079,新規,0,2023-09-19,2023-09-19,株式会社ＷｅｂＳｕｎ,,株式会社,愛知県,名古屋市中区,上前津１丁目１４番１６号プレサンス上前津グレース７０３号,,23,106,4600013,,,,,,,2023-09-19,1,,,,,ウェブサン,0
1616,6180001158095,新規,0,2023-09-19,2023-09-19,株式会社アールビューティー,,株式会社,愛知県,春日井市,若草通３丁目５７,,23,206,4860914,,,,,,,2023-09-19,1,,,,,アールビューティー,0
1617,6180001158104,新規,0,2023-09-19,2023-09-19,タナカノ株式会社,,株式会社,愛知県,丹羽郡扶桑町,大字柏森字黒野１３７番地６,,23,362,4800103,,,,,,,2023-09-19,1,,,,,タナカノ,0
1619,6180003025748,新規,0,2023-09-19,2023-09-19,合同会社ＡＣＭ,,合同会社,愛知県,名古屋市守山区,桜坂５丁目６２６番地,,23,113,4630018,,,,,,,2023-09-19,1,,,,,エーシーエム,0
1626,6180303005838,新規,0,2023-09-19,2023-09-19,合同会社七緒ワークス,,合同会社,愛知県,豊川市,西桜木町２丁目５８番地の１７,,23,207,4420063,,,,,,,2023-09-19,1,,,,,ナナオワークス,0
1629,6190003004445,新規,0,2023-09-19,2023-09-19,合同会社稲穂の里,,合同会社,三重県,四日市市,山田町４４０５番地３,,24,202,5121111,,,,,,,2023-09-19,1,,,,,イナホノサト,0
1635,6200001041736,新規,0,2023-09-19,2023-09-19,株式会社ＬｉＢ,,株式会社,岐阜県,大垣市,和合本町２丁目１４０番地１Ｆ,,21,202,5030005,,,,,,,2023-09-19,1,,,,,リブ,0
1637,6210001019467,新規,0,2023-09-19,2023-09-19,株式会社勝哉地所,,株式会社,福井県,坂井市,春江町随応寺第１１号８番地,,18,210,9190413,,,,,,,2023-09-19,1,,,,,カツヤチショ,0
1639,6220001025605,新規,0,2023-09-19,2023-09-19,株式会社オオツカ,,株式会社,石川県,白山市,徳丸町１５７番地６,,17,210,9240804,,,,,,,2023-09-19,1,,,,,オオツカ,0
1641,6230001020019,新規,0,2023-09-19,2023-09-19,アイラブトヤマカンパニー株式会社,,株式会社,富山県,富山市,中央通り１丁目４番１６号,,16,201,9300044,,,,,,,2023-09-19,1,,,,,アイラブトヤマカンパニー,0
1645,6240001062142,新規,0,2023-09-19,2023-09-19,ＮＶＣ株式会社,,株式会社,広島県,廿日市市,山陽園７番２８－１号,,34,213,7380002,,,,,,,2023-09-19,1,,,,,エヌブイシー,0
1662,6290001103049,新規,0,2023-09-19,2023-09-19,株式会社エンジン,,株式会社,福岡県,福岡市早良区,西新５丁目１５番１６‐９０２号,,40,137,8140002,,,,,,,2023-09-19,1,,,,,エンジン,0
1668,6290005019126,新規,0,2023-09-19,2023-09-19,一般社団法人九州ウォータースポーツ運営協会,,その他の設立登記法人,福岡県,福岡市西区,小戸３丁目５８番１号,,40,135,8190001,,,,,,,2023-09-19,1,,,,,キュウシュウウォータースポーツウンエイキョウカイ,0
1670,6300001013469,新規,0,2023-09-19,2023-09-19,アイゼンフーズ株式会社,,株式会社,佐賀県,三養基郡みやき町,大字中津隈６５番地１１,,41,346,8490114,,,,,,,2023-09-19,1,,,,,アイゼンフーズ,0
1671,6320003004175,新規,0,2023-09-19,2023-09-19,合同会社えがお,,合同会社,大分県,佐伯市,池船町２６番２３号,,44,205,8760833,,,,,,,2023-09-19,1,,,,,エガオ,0
1673,6330003009966,新規,0,2023-09-19,2023-09-19,合同会社ＣＵＲＥ　ＰＲＯ,,合同会社,熊本県,熊本市東区,月出８丁目２－３,,43,102,8620920,,,,,,,2023-09-19,1,,,,,キュアプロ,0
1675,6360001032538,新規,0,2023-09-19,2023-09-19,平正左官株式会社,,株式会社,沖縄県,宜野湾市,我如古２丁目３番１－６０３号,,47,205,9012214,,,,,,,2023-09-19,1,,,,,ヒラマササカン,0
1676,6360001032554,新規,0,2023-09-19,2023-09-19,株式会社Ｍａｋｅ　Ｐｌａｃｅ,,株式会社,沖縄県,名護市,字宇茂佐１７１０番地２３,,47,209,9050006,,,,,,,2023-09-19,1,,,,,メイクプレイス,0
1678,6370001050431,新規,0,2023-09-19,2023-09-19,富石株式会社,,株式会社,宮城県,仙台市青葉区,台原３丁目３８－２,,04,101,9810911,,,,,,,2023-09-19,1,,,,,トミイシ,0
1684,6430001089983,新規,0,2023-09-19,2023-09-19,株式会社高橋重建,00131944,株式会社,北海道,札幌市厚別区,もみじ台南５丁目１番２号,,01,108,0040012,,,,,,,2023-09-19,1,,,,,タカハシジュウケン,0
1685,6430001089991,新規,0,2023-09-19,2023-09-19,株式会社ａｉｐａｔｏ,,株式会社,北海道,札幌市中央区,北五条西２７丁目２－１－８０８,,01,101,0640825,,,,,,,2023-09-19,1,,,,,アイパト,0
1686,6430003015442,新規,0,2023-09-19,2023-09-19,Ｉ＆Ｓ合同会社,,合同会社,北海道,虻田郡倶知安町,北一条東１丁目１番地１,,01,400,0440001,,,,,,,2023-09-19,1,,,,,アイアンドエス,0
1690,6700150119522,新規,0,2023-09-19,2023-08-29,村山車庫証明センター,,その他,山形県,東根市,大字郡山４３番地,,06,211,9993774,,,,,,,2023-08-29,1,,,,,ムラヤマシヤコシヨウメイセンター,0
1698,7010001238499,新規,0,2023-09-19,2023-09-19,エッグス株式会社,,株式会社,東京都,千代田区,丸の内２丁目２番１号岸本ビルヂング６階,,13,101,1000005,,,,,,,2023-09-19,1,,,,,エッグス,0
1699,7010001238516,新規,0,2023-09-19,2023-09-19,株式会社ＡＺＡＫ,,株式会社,東京都,中央区,日本橋大伝馬町３番９－５０１号,,13,102,1030011,,,,,,,2023-09-19,1,,,,,アザック,0
1700,7010001238524,新規,0,2023-09-19,2023-09-19,株式会社ＣＡＩＲ,,株式会社,東京都,中央区,日本橋室町１丁目１１番１２号日本橋水野ビル７階,,13,102,1030022,,,,,,,2023-09-19,1,,,,,シーエアー,0
1701,7010003041694,新規,0,2023-09-19,2023-09-19,Ｒｅｄｍｏｎ合同会社,,合同会社,東京都,中央区,銀座１丁目２２－１１銀座大竹ビジデンス２Ｆ,,13,102,1040061,,,,,,,2023-09-19,1,,,,,レッドモン,0
1702,7010003041703,新規,0,2023-09-19,2023-09-19,ＴＯＰ　ＤＥＡＤ　ＣＥＮＴＥＲ合同会社,,合同会社,東京都,千代田区,神田和泉町１番地６－１６ヤマトビル４０５,,13,101,1010024,,,,,,,2023-09-19,1,,,,,トップデッドセンター,0
1705,7010401177132,新規,0,2023-09-19,2023-09-19,株式会社ＥＮＥＣＯ,,株式会社,東京都,港区,南青山２丁目２－１５ＷｉｎＡｏｙａｍａビルＵＣＦ６３５,,13,103,1070062,,,,,,,2023-09-19,1,,,,,エネコ,0
1706,7010401177256,新規,0,2023-09-19,2023-09-19,株式会社Ａ‐ＬＩＮＥ,,株式会社,東京都,港区,西新橋１丁目２３番９号,,13,103,1050003,,,,,,,2023-09-19,1,,,,,エーライン,0
1707,7010401177289,新規,0,2023-09-19,2023-09-19,株式会社オモイヲツナグ,,株式会社,東京都,港区,南青山２丁目２番１５号ウィン青山９４２,,13,103,1070062,,,,,,,2023-09-19,1,,,,,オモイヲツナグ,0
1709,7010403030958,新規,0,2023-09-19,2023-09-19,うみんど合同会社,,合同会社,東京都,港区,西麻布３丁目１７番２３号プティコワン西麻布５階,,13,103,1060031,,,,,,,2023-09-19,1,,,,,ウミンド,0
1712,7010503007162,新規,0,2023-09-19,2023-09-19,合同会社和泉屋,,合同会社,東京都,台東区,今戸１丁目２３番１２号,,13,106,1110024,,,,,,,2023-09-19,1,,,,,イズミヤ,0
1713,7010601063776,新規,0,2023-09-19,2023-09-19,株式会社ｓｈｉｎ　ｃｏｒｐ．,,株式会社,東京都,江東区,南砂４丁目１２番１０－１３１８号,,13,108,1360076,,,,,,,2023-09-19,1,,,,,シンコーポレーション,0
1714,7010601063801,新規,0,2023-09-19,2023-09-19,株式会社Ｂｅ　Ｔｏｕｇｈ,,株式会社,東京都,墨田区,両国４丁目２４－２クリオラベルディ３０２,,13,107,1300026,,,,,,,2023-09-19,1,,,,,ブィータフ,0
1716,7010701044858,新規,0,2023-09-19,2023-09-19,株式会社ＳＨＯＳＡＢＩ,,株式会社,東京都,品川区,西五反田８丁目１番１４号,,13,109,1410031,,,,,,,2023-09-19,1,,,,,ショサビ,0
1719,7010803004677,新規,0,2023-09-19,2023-09-19,合同会社ナインティフォー,,合同会社,東京都,大田区,大森本町１丁目５番１号－２Ｆ,,13,111,1430011,,,,,,,2023-09-19,1,,,,,ナインティフォー,0
1722,7010901053840,新規,0,2023-09-19,2023-09-19,株式会社ＲＨＹＭＥＲＩＣＨ,,株式会社,東京都,世田谷区,桜新町１丁目３番８号グリーンハイム５０３,,13,112,1540015,,,,,,,2023-09-19,1,,,,,ライムリッチ,0
1736,7011101104310,新規,0,2023-09-19,2023-09-19,株式会社ｓｙｓ‐ａｕｔｏ,,株式会社,東京都,新宿区,西新宿３丁目３番１３号,,13,104,1600023,,,,,,,2023-09-19,1,,,,,シスオート,0
1737,7011101104401,新規,0,2023-09-19,2023-09-19,株式会社スターライト,,株式会社,東京都,新宿区,大久保１丁目２番２０－２０５号,,13,104,1690072,,,,,,,2023-09-19,1,,,,,スターライト,0
1744,7011801043048,新規,0,2023-09-19,2023-09-19,ロータスハーモニー株式会社,,株式会社,東京都,足立区,西新井栄町１丁目１７番２０－５１４号,,13,121,1230843,,,,,,,2023-09-19,1,,,,,ロータスハーモニー,0
1746,7011803005839,新規,0,2023-09-19,2023-09-19,Ｒｂａｙ合同会社,,合同会社,東京都,足立区,中川１丁目２１番１５号ＮＡＫＡＧＡＷＡＦＬＡＴ１０２号室,,13,121,1200002,,,,,,,2023-09-19,1,,,,,アルベイ,0
1751,7012703002793,新規,0,2023-09-19,2023-09-19,合同会社求楽の杜,,合同会社,東京都,東村山市,栄町２丁目８番地３,,13,213,1890013,,,,,,,2023-09-19,1,,,,,グラクノモリ,0
1752,7012801022628,新規,0,2023-09-19,2023-09-19,森林舎株式会社,,株式会社,東京都,立川市,富士見町４丁目８番１号大沼ビル１階,,13,202,1900013,,,,,,,2023-09-19,1,,,,,シンリンシャ,0
1763,7020001153565,新規,0,2023-09-19,2023-09-19,智的商事株式会社,,株式会社,神奈川県,横浜市保土ケ谷区,岡沢町１１番地７ユナイト岡沢マックスタイラー２０７号,,14,106,2400062,,,,,,,2023-09-19,1,,,,,チテキショウジ,0
1766,7021001080155,新規,0,2023-09-19,2023-09-19,株式会社相建,,株式会社,神奈川県,平塚市,万田１丁目１４番４１号,,14,203,2540913,,,,,,,2023-09-19,1,,,,,アイケン,0
1770,7021003013567,新規,0,2023-09-19,2023-09-19,ＮＩＳＡ　ＴＲＡＤＩＮＧ合同会社,,合同会社,神奈川県,座間市,相模が丘４丁目２０番２－１０３号,,14,216,2520001,,,,,,,2023-09-19,1,,,,,ニーサトレーディング,0
1780,7030001155734,新規,0,2023-09-19,2023-09-19,株式会社ムラヤマ設計,,株式会社,埼玉県,桶川市,南１丁目３番１７号ＤＳ－Ｉ１Ｆ,00131947,11,231,3630015,,,,,,,2023-09-19,1,,,,,ムラヤマセッケイ,0
1781,7030001155767,新規,0,2023-09-19,2023-09-19,ランダッピー株式会社,,株式会社,埼玉県,新座市,新座３丁目３番１０－５０１,,11,230,3520006,,,,,,,2023-09-19,1,,,,,ランダッピー,0
1782,7030001155800,新規,0,2023-09-19,2023-09-19,株式会社驍騏商事,,株式会社,埼玉県,さいたま市南区,別所３丁目１６番１１号３階３０３号Ｂ室,,11,108,3360021,,,,,,,2023-09-19,1,,,,,エクシードショウジ,0
1783,7030001156071,新規,0,2023-09-19,2023-09-19,株式会社Ｋｉｚｕｎａ,,株式会社,埼玉県,戸田市,中町１丁目５番地の１,,11,224,3350012,,,,,,,2023-09-19,1,,,,,キズナ,0
1784,7030001156154,新規,0,2023-09-19,2023-09-19,ＭＫ渡辺株式会社,,株式会社,埼玉県,和光市,本町３１番２１号,,11,229,3510114,,,,,,,2023-09-19,1,,,,,エムケーワタナベ,0
1790,7040001130075,新規,0,2023-09-19,2023-09-19,１７ｉｎａ株式会社,,株式会社,千葉県,千葉市中央区,新千葉１丁目７番２号,,12,101,2600031,,,,,,,2023-09-19,1,,,,,ジュウナナアイエヌエイ,0
1800,7050001053498,新規,0,2023-09-19,2023-09-19,株式会社さんくふる,,株式会社,茨城県,水戸市,千波町２８３２番地の１０２,,08,201,3100851,,,,,,,2023-09-19,1,,,,,サンクフル,0
1801,7050003007782,新規,0,2023-09-19,2023-09-19,合同会社ろーこみ,,合同会社,茨城県,つくば市,天久保３丁目１９－６,,08,220,3050005,,,,,,,2023-09-19,1,,,,,ローコミ,0
1802,7050003007790,新規,0,2023-09-19,2023-09-19,合同会社サンクチュアリカンパニー,,合同会社,茨城県,土浦市,桜町２丁目５番９号,,08,203,3000037,,,,,,,2023-09-19,1,,,,,サンクチュアリカンパニー,0
1804,7050005013333,新規,0,2023-09-19,2023-09-19,一般社団法人清き風,,その他の設立登記法人,茨城県,常陸太田市,宮本町４２２番地の２,,08,212,3130006,,,,,,,2023-09-19,1,,,,,キヨキカゼ,0
1807,7060001036353,新規,0,2023-09-19,2023-09-19,株式会社幸和,,株式会社,栃木県,宇都宮市,ゆいの杜６丁目２５番２５号,,09,201,3213226,,,,,,,2023-09-19,1,,,,,コウワ,0
1810,7070001040890,新規,0,2023-09-19,2023-09-19,株式会社リベロ,,株式会社,群馬県,桐生市,広沢町２丁目４１２３－１０,,10,203,3760013,,,,,,,2023-09-19,1,,,,,リベロ,0
1813,7080101024215,新規,0,2023-09-19,2023-09-19,マスタード・シーズ株式会社,,株式会社,静岡県,富士市,松岡１４番地の１６,,22,210,4160909,,,,,,,2023-09-19,1,,,,,マスタードシーズ,0
1814,7080101024223,新規,0,2023-09-19,2023-09-19,株式会社Ｄｅｆｅｎｄｅｒ,,株式会社,静岡県,伊豆市,大平１３３番地の１,,22,222,4102415,,,,,,,2023-09-19,1,,,,,ディフェンダー,0
1817,7080103002887,新規,0,2023-09-19,2023-09-19,合同会社ｓ．ｓｔｙｌｅ,,合同会社,静岡県,伊豆の国市,小坂２９３―１,,22,225,4102203,,,,,,,2023-09-19,1,,,,,エススタイル,0
1820,7100001036786,新規,0,2023-09-19,2023-09-19,株式会社ＫｅｙＳｔｏｎｅ．,,株式会社,長野県,長野市,大字南長野新田町１１２１番地荻野ビル２階２号室,,20,201,3800835,,,,,,,2023-09-19,1,,,,,キーストーン,0
1824,7100005013063,新規,0,2023-09-19,2023-09-19,一般財団法人馬越陽子おぶせ記念美術館,,その他の設立登記法人,長野県,上高井郡小布施町,大字雁田１１７１番地,,20,541,3810211,,,,,,,2023-09-19,1,,,,,マコシヨウコオブセキネンビジュツカン,0
1837,7120001257802,新規,0,2023-09-19,2023-09-19,株式会社健ナースステーション,,株式会社,大阪府,枚方市,星丘３丁目１番４３号,,27,210,5730013,,,,,,,2023-09-19,1,,,,,ケンナースステーション,0
1838,7120001258065,新規,0,2023-09-19,2023-09-19,株式会社エム・アンド・ケイ・エステート,,株式会社,大阪府,大阪市東淀川区,北江口１丁目４番４－６０３号,,27,114,5330002,,,,,,,2023-09-19,1,,,,,エムアンドケイエステート,0
1842,7120003024903,新規,0,2023-09-19,2023-09-19,合同会社ＰＬＵＳ,,合同会社,大阪府,大阪市西区,西本町１丁目４番１号オリックス本町ビル４Ｆ,,27,106,5500005,,,,,,,2023-09-19,1,,,,,プリュス,0
1844,7120005023878,新規,0,2023-09-19,2023-09-19,一般社団法人こども未来ラボ,,その他の設立登記法人,大阪府,大阪市西成区,松２丁目５番２号,,27,122,5570034,,,,,,,2023-09-19,1,,,,,コドモミライラボ,0
1847,7120101068224,新規,0,2023-09-19,2023-09-19,万成株式会社,,株式会社,大阪府,和泉市,納花町４０８－２４,,27,219,5941116,,,,,,,2023-09-19,1,,,,,マンセイ,0
1855,7130001075294,新規,0,2023-09-19,2023-09-19,株式会社エスシス,,株式会社,京都府,京都市中京区,西ノ京池ノ内町２４番地２４,,26,104,6048375,,,,,,,2023-09-19,1,,,,,エスシス,0
1863,7140001131658,新規,0,2023-09-19,2023-09-19,サウスルポン株式会社,,株式会社,兵庫県,姫路市,北条８８２番地,,28,201,6700947,,,,,,,2023-09-19,1,,,,,サウスルポン,0
1864,7140001131690,新規,0,2023-09-19,2023-09-19,株式会社リライザー,,株式会社,兵庫県,神戸市北区,鹿の子台北町１丁目１６番１－２号,,28,109,6511513,,,,,,,2023-09-19,1,,,,,リライザー,0
1867,7140003019538,新規,0,2023-09-19,2023-09-19,合同会社薬学補習塾,,合同会社,兵庫県,神戸市中央区,下山手通５丁目６番１６－２２０１号,,28,110,6500011,,,,,,,2023-09-19,1,,,,,ヤクガクホシュウジュク,0
1870,7150001026725,新規,0,2023-09-19,2023-09-19,株式会社ＯＫＩＮＡＲＡ,,株式会社,奈良県,生駒市,東生駒１丁目１６３番地１９,,29,209,6300213,,,,,,,2023-09-19,1,,,,,オキナラ,0
1874,7160005011227,新規,0,2023-09-19,2023-09-19,医療法人さんおう会,,その他の設立登記法人,滋賀県,大津市,見世２丁目１２番１２号,,25,201,5200004,,,,,,,2023-09-19,1,,,,,サンオウカイ,0
1879,7180001158045,新規,0,2023-09-19,2023-09-19,中部服飾株式会社,,株式会社,愛知県,名古屋市中区,千代田２丁目８番１７号（グリーンハイツ鶴舞公園４０５号）,,23,106,4600012,,,,,,,2023-09-19,1,,,,,チュウブフクショク,0
1880,7180001158061,新規,0,2023-09-19,2023-09-19,株式会社コメヒョウルークス,,株式会社,愛知県,名古屋市中区,大須３丁目２５番３１号,,23,106,4600011,,,,,,,2023-09-19,1,,,,,コメヒョウルークス,0
1881,7180001158086,新規,0,2023-09-19,2023-09-19,株式会社ＳＭＹ,,株式会社,愛知県,一宮市,大和町妙興寺字中之町４０番地,,23,203,4910922,,,,,,,2023-09-19,1,,,,,エスエムワイ,0
1882,7180001158094,新規,0,2023-09-19,2023-09-19,アベトラスト不動産株式会社,,株式会社,愛知県,名古屋市天白区,植田３丁目８１０番地,,23,116,4680051,,,,,,,2023-09-19,1,,,,,アベトラストフドウサン,0
1885,7180301037824,新規,0,2023-09-19,2023-09-19,一色うなぎ稚魚漁業株式会社,,株式会社,愛知県,西尾市,一色町対米船原１８番地,,23,213,4440406,,,,,,,2023-09-19,1,,,,,イシキウナギチギョギョギョウ,0
1889,7180303005837,新規,0,2023-09-19,2023-09-19,合同会社鳥井元,,合同会社,愛知県,碧南市,権田町１丁目３５番地サンライズ杉浦１棟３０２,,23,209,4470838,,,,,,,2023-09-19,1,,,,,トリイモト,0
1892,7190001030731,新規,0,2023-09-19,2023-09-19,株式会社井川工業,,株式会社,三重県,四日市市,楠町南川７６番地１,,24,202,5100105,,,,,,,2023-09-19,1,,,,,イガワコウギョウ,0
1895,7190003004444,新規,0,2023-09-19,2023-09-19,ＭＯＤＥＲＮ　ＬＡＮＫＡ　ＴＲＡＤＩＮＧ合同会社,,合同会社,三重県,鈴鹿市,住吉町８３３２番地オフィス２号,,24,207,5130825,,,,,,,2023-09-19,1,,,,,モダンランカトレーディング,0
1897,7200001041735,新規,0,2023-09-19,2023-09-19,株式会社江戸研,,株式会社,岐阜県,各務原市,那加新加納町３７７１番地,,21,213,5040958,,,,,,,2023-09-19,1,,,,,エドケン,0
1899,7220001025604,新規,0,2023-09-19,2023-09-19,株式会社ジャマナイ,,株式会社,石川県,金沢市,玉鉾２丁目５０２番地トラスティビル３０１号室,,17,201,9218002,,,,,,,2023-09-19,1,,,,,ジャマナイ,0
1902,7230001020018,新規,0,2023-09-19,2023-09-19,株式会社プラスワン,,株式会社,富山県,滑川市,山王町２０２７番地,,16,206,9360069,,,,,,,2023-09-19,1,,,,,プラスワン,0
1909,7240001062133,新規,0,2023-09-19,2023-09-19,株式会社建輝広島,,株式会社,広島県,広島市佐伯区,八幡３丁目２６番１９－２０２号,,34,108,7315116,,,,,,,2023-09-19,1,,,,,ケンキヒロシマ,0
1917,7260001038321,新規,0,2023-09-19,2023-09-19,株式会社升田農園,,株式会社,岡山県,岡山市東区,升田５６４番地,,33,103,7048163,,,,,,,2023-09-19,1,,,,,マスダノウエン,0
1932,7290001103048,新規,0,2023-09-19,2023-09-19,地域みらい小水力発電株式会社,,株式会社,福岡県,福岡市中央区,白金１丁目２番２１号,,40,133,8100012,,,,,,,2023-09-19,1,,,,,チイキミライショウスイリョクハツデン,0
1945,7330001031260,新規,0,2023-09-19,2023-09-19,株式会社光彦,,株式会社,熊本県,合志市,須屋２８０３番地４,,43,216,8611102,,,,,,,2023-09-19,1,,,,,ミツヒコ,0
1946,7330001031269,新規,0,2023-09-19,2023-09-19,株式会社スタラバ,,株式会社,熊本県,玉名市,立願寺２７０番地７,,43,206,8650061,,,,,,,2023-09-19,1,,,,,スタラバ,0
1947,7330003009973,新規,0,2023-09-19,2023-09-19,合同会社トキックス,,合同会社,熊本県,熊本市西区,中原町１０７９－２,,43,103,8615271,,,,,,,2023-09-19,1,,,,,トキックス,0
1956,7410001013597,新規,0,2023-09-19,2023-09-19,株式会社メイティ,,株式会社,秋田県,秋田市,千秋矢留町２番１１号２０５,,05,201,0100877,,,,,,,2023-09-19,1,,,,,メイティ,0
1959,7430001090008,新規,0,2023-09-19,2023-09-19,株式会社ｒｕｔｉｌｅ,,株式会社,北海道,札幌市中央区,北八条西１６丁目１－１－３０８,,01,101,0600008,,,,,,,2023-09-19,1,,,,,ルチル,0
1961,7430003015433,新規,0,2023-09-19,2023-09-19,合同会社綺翠,,合同会社,北海道,札幌市手稲区,星置二条７丁目１番１号,,01,109,0060852,,,,,,,2023-09-19,1,,,,,キスイ,0
1962,7430003015441,新規,0,2023-09-19,2023-09-19,合同会社宮下建設リフォーム,,合同会社,北海道,札幌市白石区,北郷三条９丁目７　２Ｆ,,01,104,0030833,,,,,,,2023-09-19,1,,,,,ミヤシタケンセツリフォーム,0
1965,7450002013213,新規,0,2023-09-19,2023-09-19,有限会社重岡商店,,有限会社,北海道,旭川市,三条通８丁目左８号,,01,204,0700033,,,,,,,2023-09-19,1,,,,,シゲオカショウテン,0
1966,7450003002388,新規,0,2023-09-19,2023-09-19,合同会社ＴＯＭＯＮＩ,,合同会社,北海道,旭川市,東光九条４丁目２番１７号アスティオンＩＩ２０２,00131948,01,204,0788349,,,,,,,2023-09-19,1,,,,,トモニ,0
1969,7470002019687,新規,0,2023-09-19,2023-09-19,有限会社常磐温泉,,有限会社,香川県,高松市,亀井町１０番地１５,,37,201,7600050,,,,,,,2023-09-19,1,,,,,,0
1970,7470003002493,新規,0,2023-09-19,2023-09-19,合同会社Ａｃｔｒｙ,,合同会社,香川県,高松市,檀紙町８４１番地１０,,37,201,7618041,,,,,,,2023-09-19,1,,,,,,0
1972,7480001012213,新規,0,2023-09-19,2023-09-19,株式会社イースチール,,株式会社,徳島県,徳島市,南佐古四番町２番１１号,,36,201,7700034,,,,,,,2023-09-19,1,,,,,イースチール,0
1977,7700150002990,新規,0,2023-09-19,2015-10-09,東京都瓦工事職能組合,,その他,東京都,千代田区,飯田橋１丁目７－１１ダン・リーガルビル３Ｆ,,13,101,1020072,,,,,,,2015-10-09,1,,,,,トウキヨウトカワラコウジシヨクノウクミアイ,0
1978,7700150119868,新規,0,2023-09-19,2023-09-06,多摩ニュータウン市場自治会,,その他,東京都,多摩市,永山７丁目４,,13,224,2060025,,,,,,,2023-09-06,1,,,,,タマニユータウンシジヨウジチカイ,0
1983,8010001238507,新規,0,2023-09-19,2023-09-19,さんかく株式会社,,株式会社,東京都,千代田区,東神田２丁目１０番１３号日本ビル３階,,13,101,1010031,,,,,,,2023-09-19,1,,,,,サンカク,0
1984,8010001238515,新規,0,2023-09-19,2023-09-19,株式会社クウォッカ,,株式会社,東京都,千代田区,神田和泉町１番地６の１６ヤマトビル４０５,,13,101,1010024,,,,,,,2023-09-19,1,,,,,クウォッカ,0
1985,8010001238523,新規,0,2023-09-19,2023-09-19,アンダンゴ株式会社,,株式会社,東京都,中央区,日本橋兜町１７－２兜町第６葉山ビル４Ｆ,,13,102,1030026,,,,,,,2023-09-19,1,,,,,アンダンゴ,0
1986,8010001238531,新規,0,2023-09-19,2023-09-19,株式会社５Ｍ,,株式会社,東京都,中央区,日本橋２丁目１番１７号丹生ビル２階,,13,102,1030027,,,,,,,2023-09-19,1,,,,,ファイブエム,0
1987,8010001238548,新規,0,2023-09-19,2023-09-19,株式会社寰宇優仕,,株式会社,東京都,中央区,銀座１丁目１２番４号Ｎ＆ＥＢＬＤ．６Ｆ,,13,102,1040061,,,,,,,2023-09-19,1,,,,,カンウユウシ,0
1988,8010001238564,新規,0,2023-09-19,2023-09-19,梵香国際株式会社,,株式会社,東京都,文京区,関口１丁目１０番１７－５０１号,,13,105,1120014,,,,,,,2023-09-19,1,,,,,ボンカコクサイ,0
1989,8010001238572,新規,0,2023-09-19,2023-09-19,コンパスパートナーズ株式会社,,株式会社,東京都,中央区,銀座１丁目１２番４号Ｎ＆ＥＢＬＤ．６Ｆ,,13,102,1040061,,,,,,,2023-09-19,1,,,,,コンパスパートナーズ,0
1992,8010003041677,新規,0,2023-09-19,2023-09-19,Ｓｙｍｐａ合同会社,,合同会社,東京都,千代田区,九段南１丁目５番６号りそな九段ビル５階ＫＳフロア,,13,101,1020074,,,,,,,2023-09-19,1,,,,,サンパ,0
1993,8010003041685,新規,0,2023-09-19,2023-09-19,合同会社ダブルオーイレブン,,合同会社,東京都,中央区,日本橋１丁目４番１号日本橋一丁目ビルディング,,13,102,1030027,,,,,,,2023-09-19,1,,,,,ダブルオーイレブン,0
1994,8010003041693,新規,0,2023-09-19,2023-09-19,４Ｇｒｏｗｔｈ　Ｐａｒｔｎｅｒ合同会社,,合同会社,東京都,中央区,銀座１丁目１２番４号Ｎ＆ＥＢＬＤ．６Ｆ,,13,102,1040061,,,,,,,2023-09-19,1,,,,,フォーグロースパートナー,0
1997,8010401177255,新規,0,2023-09-19,2023-09-19,株式会社ＦＵＲＯＳＨＩＫＩ,,株式会社,東京都,港区,高輪４丁目１０番１８号,,13,103,1080074,,,,,,,2023-09-19,1,,,,,フロシキ,0
1998,8010401177271,新規,0,2023-09-19,2023-09-19,株式会社ＲＩＳＥ,,株式会社,東京都,港区,浜松町２丁目１２番１号ガーデン浜松町２階,,13,103,1050013,,,,,,,2023-09-19,1,,,,,ライズ,0
2000,8010403030924,新規,0,2023-09-19,2023-09-19,合同会社ピリナ,,合同会社,東京都,港区,赤坂６丁目１９番１１－５０３号,,13,103,1070052,,,,,,,2023-09-19,1,,,,,ピリナ,0
2001,8010403030957,新規,0,2023-09-19,2023-09-19,合同会社Ｕｎｉｂｏｏｓｔ,,合同会社,東京都,港区,南青山２丁目２番１５号,,13,103,1070062,,,,,,,2023-09-19,1,,,,,ユニブースト,0
2002,8010405022523,新規,0,2023-09-19,2023-09-19,税理士法人小川税務会計事務所,,その他の設立登記法人,東京都,港区,赤坂４丁目３番１５号ＦＳＫ赤坂ビル３階,,13,103,1070052,,,,,,,2023-09-19,1,,,,,オガワゼイムカイケイジムショ,0
2004,8010501051062,新規,0,2023-09-19,2023-09-19,株式会社トリックルフォワード,,株式会社,東京都,台東区,松が谷２丁目３０番１号,,13,106,1110036,,,,,,,2023-09-19,1,,,,,,0
2013,8010601063800,新規,0,2023-09-19,2023-09-19,純一株式会社,,株式会社,東京都,江東区,亀戸３丁目２番８号,,13,108,1360071,,,,,,,2023-09-19,1,,,,,ジュンイチ,0
2015,8010603010354,新規,0,2023-09-19,2023-09-19,合同会社ＨＥＹＫＩＮ,,合同会社,東京都,江東区,豊洲４丁目８番８号,,13,108,1350061,,,,,,,2023-09-19,1,,,,,ヘイキン,0
2018,8010801034337,新規,0,2023-09-19,2023-09-19,株式会社ハヤサカ,,株式会社,東京都,大田区,大森西４丁目２番１５号,,13,111,1430015,,,,,,,2023-09-19,1,,,,,ハヤサカ,0
2020,8010803004676,新規,0,2023-09-19,2023-09-19,合同会社ＭＡＧｉ‐Ｒｅｓｅａｒｃｈ,,合同会社,東京都,大田区,中央３丁目１６番７号,,13,111,1430024,,,,,,,2023-09-19,1,,,,,マギリサーチ,0
2021,8010903008445,新規,0,2023-09-19,2023-09-19,合同会社Ｃｈａｎｎｅｌ　Ｅｖｅｒｓ,,合同会社,東京都,世田谷区,奥沢８丁目３－２田園マンション５０９,,13,112,1580083,,,,,,,2023-09-19,1,,,,,チャンネルエヴァーズ,0
2029,8011001157036,新規,0,2023-09-19,2023-09-19,株式会社Ｓａｃｈｉ　ａｒｔ　ｗｏｒｋ,,株式会社,東京都,目黒区,下目黒６丁目２０－８ニューガイアリルーム目黒２９‐３０２,,13,110,1530064,,,,,,,2023-09-19,1,,,,,サチアートワーク,0
2031,8011101104400,新規,0,2023-09-19,2023-09-19,株式会社ｂｌａｃｋｗｈｉｔｅ,,株式会社,東京都,新宿区,西新宿４丁目１７番３号ベル・パークシティ西新宿３１１号室,,13,104,1600023,,,,,,,2023-09-19,1,,,,,ブラックホワイト,0
2032,8011101104409,新規,0,2023-09-19,2023-09-19,株式会社Ｒｅｄ,,株式会社,東京都,新宿区,歌舞伎町１丁目１６番２号富士ビルディング９階,,13,104,1600021,,,,,,,2023-09-19,1,,,,,レッド,0
2036,8011401025461,新規,0,2023-09-19,2023-09-19,株式会社Ｐｒｉｍｅ　Ｖｉｅｗ,,株式会社,東京都,板橋区,前野町１丁目１２－８,,13,119,1740063,,,,,,,2023-09-19,1,,,,,プライムビュー,0
2038,8011501029775,新規,0,2023-09-19,2023-09-19,東京大和工業株式会社,,株式会社,東京都,荒川区,南千住３丁目２７－２浅草ビル,,13,118,1160003,,,,,,,2023-09-19,1,,,,,トウキョウヤマトコウギョウ,0
2045,8011801043047,新規,0,2023-09-19,2023-09-19,株式会社Ｎ３Ｔ,,株式会社,東京都,葛飾区,青戸２丁目１９番７号,,13,122,1250062,,,,,,,2023-09-19,1,,,,,ネット,0
2046,8011803005838,新規,0,2023-09-19,2023-09-19,合同会社ＨＲ,,合同会社,東京都,足立区,六町１丁目７－１７－２０５,,13,121,1210073,,,,,,,2023-09-19,1,,,,,エイチアール,0
2047,8012301013597,新規,0,2023-09-19,2023-09-19,株式会社ＢＷＭグループ,,株式会社,東京都,町田市,原町田６丁目１１番１７号原町田共同ビル３階,,13,209,1940013,,,,,,,2023-09-19,1,,,,,ビーダブリューエムグループ,0
2049,8012401041011,新規,0,2023-09-19,2023-09-19,株式会社ムサシ,,株式会社,東京都,小金井市,本町１丁目１１番３号,,13,210,1840004,,,,,,,2023-09-19,1,,,,,ムサシ,0
2054,8012403006185,新規,0,2023-09-19,2023-09-19,金岡大合同会社,,合同会社,東京都,調布市,国領町１丁目１９番地１６セトルハウス２０８,,13,208,1820022,,,,,,,2023-09-19,1,,,,,カナオカダイ,0
2058,8012801022627,新規,0,2023-09-19,2023-09-19,株式会社クリエイティブプラス,,株式会社,東京都,国立市,北２丁目１６番の２１,,13,215,1860001,,,,,,,2023-09-19,1,,,,,クリエイティブプラス,0
2059,8013101009249,新規,0,2023-09-19,2023-09-19,ホンダ商事株式会社,,株式会社,東京都,西多摩郡瑞穂町,大字高根６５３番地２７８,,13,303,1901203,,,,,,,2023-09-19,1,,,,,,0
2064,8020001153548,新規,0,2023-09-19,2023-09-19,株式会社ＤＹＭ,,株式会社,神奈川県,横浜市鶴見区,平安町２丁目１９番地５－１０４号,,14,101,2300031,,,,,,,2023-09-19,1,,,,,ディーワイエム,0
2065,8020001153564,新規,0,2023-09-19,2023-09-19,株式会社ベイプランニング,,株式会社,神奈川県,横浜市中区,桜木町１丁目１０１番地１クロスゲート７階,,14,104,2310062,,,,,,,2023-09-19,1,,,,,ベイプランニング,0
2078,8030003022469,新規,0,2023-09-19,2023-09-19,合同会社わかばの杜,,合同会社,埼玉県,熊谷市,石原１丁目１２１,,11,202,3600816,,,,,,,2023-09-19,1,,,,,ワカバノモリ,0
2091,8040001130108,新規,0,2023-09-19,2023-09-19,株式会社Ｂ‐ｇａｒａｇｅ,,株式会社,千葉県,習志野市,香澄３丁目７－７－２,,12,216,2750022,,,,,,,2023-09-19,1,,,,,ビーガレージ,0
2094,8050003007798,新規,0,2023-09-19,2023-09-19,合同会社Ｖｏｇｕｅ,,合同会社,茨城県,古河市,諸川５９８番地３,,08,204,3060126,,,,,,,2023-09-19,1,,,,,ボーグ,0
2095,8050005013332,新規,0,2023-09-19,2023-09-19,医療法人攻歯会,,その他の設立登記法人,茨城県,つくば市,みどりの２丁目４０番１４,,08,220,3050881,,,,,,,2023-09-19,1,,,,,コウシカイ,0
2097,8060001036344,新規,0,2023-09-19,2023-09-19,株式会社ウィルコーポレーション,,株式会社,栃木県,足利市,借宿町１丁目１番地１８,,09,202,3260826,,,,,,,2023-09-19,1,,,,,ウィルコーポレーション,0
2098,8060001036352,新規,0,2023-09-19,2023-09-19,株式会社沼野電工,,株式会社,栃木県,矢板市,乙畑１２３９番地２,,09,211,3291574,,,,,,,2023-09-19,1,,,,,ヌマノデンコウ,0
2102,8060003004720,新規,0,2023-09-19,2023-09-19,合同会社ＢｉＬａｎｄ,,合同会社,栃木県,宇都宮市,鐺山町６２０番地１０,,09,201,3213235,,,,,,,2023-09-19,1,,,,,バイランド,0
2104,8070001040881,新規,0,2023-09-19,2023-09-19,株式会社スマベジファーム,,株式会社,群馬県,藤岡市,下栗須４３０番地１,,10,209,3750014,,,,,,,2023-09-19,1,,,,,スマベジファーム,0
2113,8080401026736,新規,0,2023-09-19,2023-09-19,株式会社マイプレイス,,株式会社,静岡県,浜松市北区,都田町９２９７番地の３,,22,135,4312102,,,,,,,2023-09-19,1,,,,,マイプレイス,0
2116,8100001036785,新規,0,2023-09-19,2023-09-19,株式会社訪問看護ステーションなゆき,,株式会社,長野県,伊那市,西箕輪６８９０番地２,,20,209,3994501,,,,,,,2023-09-19,1,,,,,ホウモンカンゴステーションナユキ,0
2121,8120001258080,新規,0,2023-09-19,2023-09-19,株式会社ＹＵＲＫプラン,,株式会社,大阪府,大阪市中央区,備後町２丁目４－６ＫＯＫＫＡビル１Ａ,,27,128,5410051,,,,,,,2023-09-19,1,,,,,ユルクプラン,0
2122,8120001258089,新規,0,2023-09-19,2023-09-19,株式会社金田工業,,株式会社,大阪府,大阪市浪速区,戎本町１丁目４番１６号,,27,111,5560013,,,,,,,2023-09-19,1,,,,,カネダコウギョウ,0
2123,8120001258097,新規,0,2023-09-19,2023-09-19,株式会社ウェルビーイングｐｌｕｓ,,株式会社,大阪府,大阪市中央区,北浜３丁目１－２２,,27,128,5410041,,,,,,,2023-09-19,1,,,,,ウェルビーイングプラス,0
2124,8120001258130,新規,0,2023-09-19,2023-09-19,株式会社エフ．トリップ,,株式会社,大阪府,大阪市北区,堂島浜１丁目１番１５号,,27,127,5300004,,,,,,,2023-09-19,1,,,,,エフトリップ,0
2129,8120003024893,新規,0,2023-09-19,2023-09-19,合同会社まじめ２,,合同会社,大阪府,大阪市北区,梅田１丁目２番２号大阪駅前第２ビル１２－１２,,27,127,5300001,,,,,,,2023-09-19,1,,,,,マジメニ,0
2131,8120103005439,新規,0,2023-09-19,2023-09-19,合同会社ＹｏＵ　ＭＥ,,合同会社,大阪府,堺市堺区,田出井町２－９シャルマンフジ堺シティフロント１４０３号,,27,141,5900014,,,,,,,2023-09-19,1,,,,,ユーミー,0
2136,8122001037373,新規,0,2023-09-19,2023-09-19,株式会社弥栄道,,株式会社,大阪府,東大阪市,中石切町５丁目５番１８号,,27,227,5798014,,,,,,,2023-09-19,1,,,,,ヤサカドウ,0
2147,8140001131657,新規,0,2023-09-19,2023-09-19,株式会社ディアナ＆リアナエステート,,株式会社,兵庫県,川西市,見野３丁目１番１０号,,28,217,6660105,,,,,,,2023-09-19,1,,,,,ディアナアンドリアナエステート,0
2155,8180001158060,新規,0,2023-09-19,2023-09-19,株式会社Ｒｅホームズ,,株式会社,愛知県,名古屋市天白区,平針４丁目１１１１番地,,23,116,4680011,,,,,,,2023-09-19,1,,,,,アールイーホームズ,0
2156,8180001158085,新規,0,2023-09-19,2023-09-19,ＪＰ株式会社,,株式会社,愛知県,名古屋市中区,大須１丁目７番１４号パークＩＭビル２Ｆ,,23,106,4600011,,,,,,,2023-09-19,1,,,,,ジェーピー,0
2159,8180005020357,新規,0,2023-09-19,2023-09-19,医療法人優々,,その他の設立登記法人,愛知県,名古屋市北区,元志賀町１丁目４番１,,23,103,4620044,,,,,,,2023-09-19,1,,,,,ユウユウ,0
2161,8180303005836,新規,0,2023-09-19,2023-09-19,合同会社ＬＩＣ,,合同会社,愛知県,豊橋市,西幸町字幸１０６番地９,,23,201,4418113,,,,,,,2023-09-19,1,,,,,リック,0
2163,8190001030739,新規,0,2023-09-19,2023-09-19,株式会社知加良,,株式会社,三重県,桑名市,大字矢田３１６番地１７,,24,205,5110821,,,,,,,2023-09-19,1,,,,,チカラ,0
2169,8200001041734,新規,0,2023-09-19,2023-09-19,株式会社益和製作所,,株式会社,岐阜県,瑞浪市,釜戸町字森前７８５番地,,21,208,5096472,,,,,,,2023-09-19,1,,,,,エキワセイサクショ,0
2170,8220001025603,新規,0,2023-09-19,2023-09-19,株式会社チョビレオン,,株式会社,石川県,小松市,白江町カ１２８番地２,,17,203,9230811,,,,,,,2023-09-19,1,,,,,チョビレオン,0
2172,8230001020017,新規,0,2023-09-19,2023-09-19,雅マシナリー株式会社,,株式会社,富山県,高岡市,問屋町１４７番地,,16,202,9330804,,,,,,,2023-09-19,1,,,,,ミヤビマシナリー,0
2174,8230005009337,新規,0,2023-09-19,2023-09-19,行政書士法人星野事務所,,その他の設立登記法人,富山県,富山市,東町２丁目１番１６号,,16,201,9300039,,,,,,,2023-09-19,1,,,,,ホシノジムショ,0
2186,8290001103071,新規,0,2023-09-19,2023-09-19,株式会社Ｆｌｏｗｅｒ,,株式会社,福岡県,福岡市中央区,天神２丁目３－１０－７１９,,40,133,8100001,,,,,,,2023-09-19,1,,,,,フラワー,0
2194,8290005019149,新規,0,2023-09-19,2023-09-19,ダイアパレスグランデージ大名管理組合法人,,その他の設立登記法人,福岡県,福岡市中央区,大名１丁目４番３０号管理員室,,40,133,8100041,,,,,,,2023-09-19,1,,,,,ダイアパレスグランデージダイミョウ,0
2195,8290801029887,新規,0,2023-09-19,2023-09-19,株式会社エスプレッソハブ,,株式会社,福岡県,北九州市小倉北区,上富野２丁目１番１０号（２０３号）,,40,106,8020022,,,,,,,2023-09-19,1,,,,,エスプレッソハブ,0
2203,8380003005570,新規,0,2023-09-19,2023-09-19,合同会社Ｚｅｎ,,合同会社,福島県,南相馬市,原町区大原字町２２番地,,07,212,9750079,,,,,,,2023-09-19,1,,,,,ゼン,0
2204,8400001016377,新規,0,2023-09-19,2023-09-19,株式会社もんぶらん,,株式会社,岩手県,北上市,花園町３丁目４番３０号,,03,206,0240035,,,,,,,2023-09-19,1,,,,,モンブラン,0
2206,8410001013596,新規,0,2023-09-19,2023-09-19,株式会社Ｅ‐ｃｈａｎｇｅｓ　ｌａｂｓ,,株式会社,秋田県,仙北郡美郷町,六郷字馬町１０２番地,,05,434,0191404,,,,,,,2023-09-19,1,,,,,イーチェンジラボ,0
2214,8430005014779,新規,0,2023-09-19,2023-09-19,医療法人令徳会,,その他の設立登記法人,北海道,札幌市中央区,大通西１丁目１３番地ル・トロワ６階,,01,101,0600042,,,,,,,2023-09-19,1,,,,,レイトクカイ,0
2221,8500001025203,新規,0,2023-09-19,2023-09-19,株式会社ライフデザイン高智,00131950,株式会社,愛媛県,松山市,樽味２丁目２番５号,,38,201,7900905,,,,,,,2023-09-19,1,,,,,ライフデザインコウチ,0
2226,9010001238506,新規,0,2023-09-19,2023-09-19,株式会社Ｓｋｉｌｌ　Ｒｉｎｇ,,株式会社,東京都,中央区,京橋３丁目１番１号東京スクエアガーデン１４階,,13,102,1040031,,,,,,,2023-09-19,1,,,,,スキルリング,0
2227,9010001238522,新規,0,2023-09-19,2023-09-19,株式会社ＧＳインベストメント,,株式会社,東京都,千代田区,永田町２丁目１３－１４－３５０２,,13,101,1000014,,,,,,,2023-09-19,1,,,,,ジーエスインベストメント,0
2228,9010001238563,新規,0,2023-09-19,2023-09-19,Ｄｅｌｑ＆Ｐａｒｔｎｅｒｓ株式会社,,株式会社,東京都,文京区,関口３丁目３番３号,,13,105,1120014,,,,,,,2023-09-19,1,,,,,デルクアンドパートナーズ,0
2230,9010003041676,新規,0,2023-09-19,2023-09-19,Ｅｄｇｅｃｒａｆｔ　Ｊａｐａｎ合同会社,,合同会社,東京都,中央区,銀座１丁目１２番４号Ｎ＆ＥＢＬＤ．６Ｆ,,13,102,1040061,,,,,,,2023-09-19,1,,,,,エッジクラフトジャパン,0
2231,9010003041684,新規,0,2023-09-19,2023-09-19,Ｓプランニング合同会社,,合同会社,東京都,中央区,銀座１丁目１２－４Ｎ＆ＥＢＬＤ．７階,,13,102,1040061,,,,,,,2023-09-19,1,,,,,エスプランニング,0
2239,9010401177270,新規,0,2023-09-19,2023-09-19,株式会社ムート,,株式会社,東京都,港区,高輪２丁目１７番１２号,,13,103,1080074,,,,,,,2023-09-19,1,,,,,ムート,0
2240,9010403030923,新規,0,2023-09-19,2023-09-19,ＲＡＶ合同会社,,合同会社,東京都,港区,元麻布２丁目４番１１号河庄ガーデンＢ,,13,103,1060046,,,,,,,2023-09-19,1,,,,,ラブ,0
2241,9010403030972,新規,0,2023-09-19,2023-09-19,合同会社ＴＴコーポレーション２,,合同会社,東京都,港区,白金台３丁目２番３４号,,13,103,1080071,,,,,,,2023-09-19,1,,,,,ティーティーコーポレーションツー,0
2249,9010601063799,新規,0,2023-09-19,2023-09-19,株式会社ＷＡＮＳ,,株式会社,東京都,江東区,豊洲３丁目４－１,,13,108,1350061,,,,,,,2023-09-19,1,,,,,ワンズ,0
2250,9010603010361,新規,0,2023-09-19,2023-09-19,ケーサービス合同会社,,合同会社,東京都,墨田区,東墨田１丁目９番１号,,13,107,1310042,,,,,,,2023-09-19,1,,,,,ケーサービス,0
2252,9010701044856,新規,0,2023-09-19,2023-09-19,株式会社ＤＡＤＡ　Ｐｌｕｓ,,株式会社,東京都,品川区,西五反田２丁目２４番７号,,13,109,1410031,,,,,,,2023-09-19,1,,,,,ダダプラス,0
2254,9010703006870,新規,0,2023-09-19,2023-09-19,合同会社しろくま,,合同会社,東京都,品川区,東品川３丁目１１番５号,,13,109,1400002,,,,,,,2023-09-19,1,,,,,シロクマ,0
2260,9011001157010,新規,0,2023-09-19,2023-09-19,株式会社クラウドアセット,,株式会社,東京都,目黒区,青葉台３丁目１３番１号,,13,110,1530042,,,,,,,2023-09-19,1,,,,,クラウドアセット,0
2261,9011001157027,新規,0,2023-09-19,2023-09-19,株式会社ＶＡＬＯＲ,,株式会社,東京都,渋谷区,恵比寿１丁目２３番１７号,,13,113,1500013,,,,,,,2023-09-19,1,,,,,バロール,0
2263,9011003017534,新規,0,2023-09-19,2023-09-19,合同会社ｎｏｗｌｙ,,合同会社,東京都,渋谷区,道玄坂１丁目１０番８号渋谷道玄坂東急ビル２Ｆ－Ｃ,,13,113,1500043,,,,,,,2023-09-19,1,,,,,ナウリー,0
2265,9011101104408,新規,0,2023-09-19,2023-09-19,株式会社Ｇｒｅｅｎ,,株式会社,東京都,新宿区,歌舞伎町１丁目１６番２号富士ビルディング８階,,13,104,1600021,,,,,,,2023-09-19,1,,,,,グリーン,0
2266,9011101104416,新規,0,2023-09-19,2023-09-19,株式会社ＬＪＨ,,株式会社,東京都,新宿区,西新宿５丁目２番１－２８０５号,,13,104,1600023,,,,,,,2023-09-19,1,,,,,エルジェイエイチ,0
2269,9011103013482,新規,0,2023-09-19,2023-09-19,合同会社ＲＭＰ,,合同会社,東京都,新宿区,矢来町１０２番７号,,13,104,1620805,,,,,,,2023-09-19,1,,,,,リュウイチマルオフォトグラフィー,0
2272,9011203004175,新規,0,2023-09-19,2023-09-19,合同会社Ｋｏｄｏｍｏ茶道,,合同会社,東京都,中野区,南台５丁目１５番２０号レクセルマンション笹塚５０３号,,13,114,1640014,,,,,,,2023-09-19,1,,,,,コドモサドウ,0
2275,9011505002579,新規,0,2023-09-19,2023-09-19,特定非営利活動法人Ｊ・リアルエステート,,その他の設立登記法人,東京都,荒川区,東日暮里１丁目３０番５号モルゲンロート２０１号室,,13,118,1160014,,,,,,,2023-09-19,1,,,,,ジェイリアルエステート,0
2277,9011701026605,新規,0,2023-09-19,2023-09-19,株式会社三協エステート,,株式会社,東京都,江戸川区,船堀２丁目１９番１１号,,13,123,1340091,,,,,,,2023-09-19,1,,,,,サンキョウエステート,0
2280,9011801043046,新規,0,2023-09-19,2023-09-19,スガワラＨＤ株式会社,,株式会社,東京都,葛飾区,四つ木５丁目９番１６号,,13,122,1240011,,,,,,,2023-09-19,1,,,,,スガワラホールディングス,0
2281,9011801043054,新規,0,2023-09-19,2023-09-19,本丸防災株式会社,,株式会社,東京都,葛飾区,堀切３丁目１４番８－８０１号レクセルプラザ堀切菖蒲園,,13,122,1240006,,,,,,,2023-09-19,1,,,,,ホンマルボウサイ,0
2282,9011803005837,新規,0,2023-09-19,2023-09-19,合同会社はまぐり,,合同会社,東京都,足立区,堀之内１丁目１３番３９号,,13,121,1230874,,,,,,,2023-09-19,1,,,,,ハマグリ,0
2283,9012301013596,新規,0,2023-09-19,2023-09-19,侑興株式会社,,株式会社,東京都,町田市,南成瀬１丁目１８番地５,,13,209,1940045,,,,,,,2023-09-19,1,,,,,ユウコウ,0
2287,9012403006184,新規,0,2023-09-19,2023-09-19,合同会社Ｐｒａｎｋｓｔｙｌｅ,,合同会社,東京都,小金井市,緑町５丁目３番３７号,,13,210,1840003,,,,,,,2023-09-19,1,,,,,プランクスタイル,0
2290,9012801022634,新規,0,2023-09-19,2023-09-19,株式会社オーキツドプランニング,,株式会社,東京都,立川市,柴崎町２丁目２６番１号,,13,202,1900023,,,,,,,2023-09-19,1,,,,,オーキツドプランニング,0
2298,9020001153539,新規,0,2023-09-19,2023-09-19,株式会社ａ．ｄ．ｒ．エステート,,株式会社,神奈川県,横浜市港北区,篠原町２７４１番地１０,,14,109,2220026,,,,,,,2023-09-19,1,,,,,エイディアールエステート,0
2299,9020001153555,新規,0,2023-09-19,2023-09-19,株式会社ミラサポ,,株式会社,神奈川県,横浜市栄区,上之町２１番１６号,,14,115,2470025,,,,,,,2023-09-19,1,,,,,ミラサポ,0
2300,9020003024614,新規,0,2023-09-19,2023-09-19,合同会社アイエルエス,,合同会社,神奈川県,横浜市中区,宮川町２丁目５４番地,,14,104,2310065,,,,,,,2023-09-19,1,,,,,アイエルエス,0
2305,9021003013573,新規,0,2023-09-19,2023-09-19,八大龍王合同会社,,合同会社,神奈川県,藤沢市,辻堂西海岸１丁目７番８号,,14,205,2510046,,,,,,,2023-09-19,1,,,,,ハチダイリュウオウ,0
2306,9021003013581,新規,0,2023-09-19,2023-09-19,合同会社すずらん,,合同会社,神奈川県,海老名市,泉２丁目２番１２号相模ビル２階,,14,215,2430437,,,,,,,2023-09-19,1,,,,,スズラン,0
2311,9030001156053,新規,0,2023-09-19,2023-09-19,きぼう株式会社,,株式会社,埼玉県,草加市,瀬崎３丁目８番３０号,,11,221,3400022,,,,,,,2023-09-19,1,,,,,キボウ,0
2326,9040003023317,新規,0,2023-09-19,2023-09-19,合同会社エルオーカマクラ,,合同会社,千葉県,千葉市美浜区,若葉３丁目１番地１９幕張ベイパーククロスタワー２００４号,,12,106,2610014,,,,,,,2023-09-19,1,,,,,エルオーカマクラ,0
2327,9040005022119,新規,0,2023-09-19,2023-09-19,一般社団法人松戸市薬業会,,その他の設立登記法人,千葉県,松戸市,竹ケ花４５番地,,12,207,2710072,,,,,,,2023-09-19,1,,,,,マツドシヤクギョウカイ,0
2331,9050001053488,新規,0,2023-09-19,2023-09-19,イー・アール・ホールディングス株式会社,,株式会社,茨城県,牛久市,牛久町２７９番１号,,08,219,3001221,,,,,,,2023-09-19,1,,,,,イーアールホールディングス,0
2332,9050001053505,新規,0,2023-09-19,2023-09-19,鉱立方株式会社,,株式会社,茨城県,常陸大宮市,上小瀬２０８４－２０３室,,08,225,3192401,,,,,,,2023-09-19,1,,,,,マイニングキューブ,0
2336,9070001040889,新規,0,2023-09-19,2023-09-19,株式会社ＮＴＥＣエンジニア,,株式会社,群馬県,伊勢崎市,安堀町１９０４番地１０安堀ハイム８号室,,10,204,3720007,,,,,,,2023-09-19,1,,,,,エヌテックエンジニア,0
2338,9080101024221,新規,0,2023-09-19,2023-09-19,株式会社ｍａｈａｌｏ,,株式会社,静岡県,沼津市,黒瀬町４１番地２,,22,203,4100819,,,,,,,2023-09-19,1,,,,,マハロ,0
2343,9090001018322,新規,0,2023-09-19,2023-09-19,株式会社Ｓｐｏｒｔｓ　Ｐｌｕｓ,,株式会社,山梨県,笛吹市,一宮町田中１２４６番地,,19,211,4050078,,,,,,,2023-09-19,1,,,,,スポーツプラス,0
2344,9100001036735,新規,0,2023-09-19,2023-09-19,株式会社ＭｏｎＢＲａｎ,,株式会社,長野県,諏訪郡原村,１７８７４番地１,,20,363,3910100,,,,,,,2023-09-19,1,,,,,モンブラン,0
2345,9100001036784,新規,0,2023-09-19,2023-09-19,株式会社凪,,株式会社,長野県,松本市,南松本１丁目６番４号,,20,202,3900832,,,,,,,2023-09-19,1,,,,,ナギ,0
2352,9120001258055,新規,0,2023-09-19,2023-09-19,株式会社Ｍ２ＮＫ,,株式会社,大阪府,大阪市中央区,南船場２丁目８番２４号５階,,27,128,5420081,,,,,,,2023-09-19,1,,,,,エムツーノック,0
2353,9120001258063,新規,0,2023-09-19,2023-09-19,株式会社ＢＯＵＱＵＥＴ　ＧＡＲＮＩ＆ＮＡＲＤ　ＪＡＰＡＮ,,株式会社,大阪府,大阪市中央区,博労町４丁目３番２号,,27,128,5410059,,,,,,,2023-09-19,1,,,,,ブーケガルニアンドナードジャパン,0
2354,9120001258096,新規,0,2023-09-19,2023-09-19,秋吉電工株式会社,,株式会社,大阪府,寝屋川市,日新町１４番３１号,,27,215,5720028,,,,,,,2023-09-19,1,,,,,アキヨシデンコウ,0
2358,9120003024884,新規,0,2023-09-19,2023-09-19,合同会社さくらんぼ,,合同会社,大阪府,大阪市生野区,中川５丁目１０－１４,,27,116,5440005,,,,,,,2023-09-19,1,,,,,サクランボ,0
2363,9122003002671,新規,0,2023-09-19,2023-09-19,合同会社さくら経営アシスト,,合同会社,大阪府,東大阪市,岩田町１丁目３番１６号,,27,227,5780941,,,,,,,2023-09-19,1,,,,,サクラケイエイアシスト,0
2369,9130001075202,新規,0,2023-09-19,2023-09-19,株式会社ＥＡＳＹ,,株式会社,京都府,京都市東山区,清水４丁目１６３番地６,,26,105,6050862,,,,,,,2023-09-19,1,,,,,イージー,0
2372,9130003008985,新規,0,2023-09-19,2023-09-19,合同会社Ｈａｎｄｙ　Ｅｎｇｌｉｓｈ,,合同会社,京都府,京都市伏見区,南新地４番地１２８,,26,109,6128228,,,,,,,2023-09-19,1,,,,,ハンディイングリッシュ,0
2376,9140001131631,新規,0,2023-09-19,2023-09-19,株式会社イルカウエスト,,株式会社,兵庫県,神戸市中央区,京町７８,,28,110,6500034,,,,,,,2023-09-19,1,,,,,イルカウエスト,0
2377,9140001131656,新規,0,2023-09-19,2023-09-19,株式会社ＫＩパートナーズ,,株式会社,兵庫県,神戸市灘区,泉通５丁目２番２号,,28,102,6570834,,,,,,,2023-09-19,1,,,,,ケーアイパートナーズ,0
2380,9140003019560,新規,0,2023-09-19,2023-09-19,合同会社ＲＪＮＥＸＴ,,合同会社,兵庫県,神戸市東灘区,向洋町中６丁目９番地神戸ファッションマート,,28,101,6580032,,,,,,,2023-09-19,1,,,,,アールジェイネクスト,0
2381,9140003019569,新規,0,2023-09-19,2023-09-19,合同会社ぼんぼん,,合同会社,兵庫県,芦屋市,春日町３番６号春日マンション１０１,,28,206,6590021,,,,,,,2023-09-19,1,,,,,ボンボン,0
2389,9180001158051,新規,0,2023-09-19,2023-09-19,株式会社菊の屋,,株式会社,愛知県,名古屋市中村区,中島町３丁目５１番地の１,,23,105,4530022,,,,,,,2023-09-19,1,,,,,キクノヤ,0
2391,9180003025761,新規,0,2023-09-19,2023-09-19,カーネルワーカー合同会社,,合同会社,愛知県,名古屋市南区,星崎１丁目１０５番地,,23,112,4570064,,,,,,,2023-09-19,1,,,,,カーネルワーカー,0
2395,9190001030738,新規,0,2023-09-19,2023-09-19,株式会社ノーブル不動産,,株式会社,三重県,鈴鹿市,南江島町１８番３３号,,24,207,5100235,,,,,,,2023-09-19,1,,,,,ノーブルフドウサン,0
2403,9210003001701,新規,0,2023-09-19,2023-09-19,合同会社ヌルネバーランド,,合同会社,福井県,福井市,上森田２丁目９０９番地２,,18,201,9100142,,,,,,,2023-09-19,1,,,,,ヌルネバーランド,0
2410,9270001008841,新規,0,2023-09-19,2023-09-19,株式会社ＡＬＡＭ,,株式会社,鳥取県,八頭郡八頭町,坂田３９４－１,,31,329,6800473,,,,,,,2023-09-19,1,,,,,アラム,0
2422,9290001103038,新規,0,2023-09-19,2023-09-19,株式会社Ｒｅｏ,,株式会社,福岡県,福岡市南区,向新町２丁目１１番２７号,,40,134,8111345,,,,,,,2023-09-19,1,,,,,レオ,0
2423,9290001103070,新規,0,2023-09-19,2023-09-19,株式会社Ｎａｎａｔｕｙａ,,株式会社,福岡県,福岡市博多区,中洲５丁目３番２０－１００２号エンクレスト博多ハーモニー,,40,132,8100801,,,,,,,2023-09-19,1,,,,,ナナツヤ,0
2430,9290003014365,新規,0,2023-09-19,2023-09-19,合同会社シンママ応援の会,,合同会社,福岡県,福岡市中央区,天神２丁目２番１２号Ｔ＆Ｊビルディング７Ｆ,,40,133,8100001,,,,,,,2023-09-19,1,,,,,シンママオウエンノカイ,0
2434,9370001050429,新規,0,2023-09-19,2023-09-19,Ｕｌｌｍａｎ株式会社,,株式会社,宮城県,仙台市青葉区,北根黒松８番１２号昭和マンション２０３号,,04,101,9810901,,,,,,,2023-09-19,1,,,,,ウルマン,0
2435,9370003006288,新規,0,2023-09-19,2023-09-19,Ａ合同会社,,合同会社,宮城県,仙台市青葉区,上杉１丁目７番１,,04,101,9800011,,,,,,,2023-09-19,1,,,,,エー,0
2445,9430001089989,新規,0,2023-09-19,2023-09-19,株式会社ハイキャリア,,株式会社,北海道,北広島市,大曲南ヶ丘４丁目１２番地７サンピア４丁目館３階,,01,234,0611275,,,,,,,2023-09-19,1,,,,,ハイキャリア,0
2446,9430001090006,新規,0,2023-09-19,2023-09-19,株式会社明成,,株式会社,北海道,札幌市白石区,中央一条３丁目２番２５号,,01,104,0030011,,,,,,,2023-09-19,1,,,,,メイセイ,0
2448,9450001014094,新規,0,2023-09-19,2023-09-19,ＭＯＭＯＮＯ株式会社,,株式会社,北海道,深川市,錦町西７番７０号,,01,228,0740026,,,,,,,2023-09-19,1,,,,,モモノ,0
2449,9460301005172,新規,0,2023-09-19,2023-09-19,丸幅商会株式会社,,株式会社,北海道,北見市,留辺蘂町旭１区２４４番地３,,01,208,0910029,,,,,,,2023-09-19,1,,,,,マルハバショウカイ,0
2450,9470003002491,新規,0,2023-09-19,2023-09-19,合同会社Ｌ・Ｈ・Ｄ,,合同会社,香川県,高松市,庵治町４２９９番地２,,37,201,7610130,,,,,,,2023-09-19,1,,,,,エルエイチディ,0
2452,9480005006985,新規,0,2023-09-19,2023-09-19,一般社団法人阿波の国経済同友会,,その他の設立登記法人,徳島県,鳴門市,撫養町大桑島字北ノ浜６６番地３鳴門屋ビル３Ｆ,,36,202,7720011,,,,,,,2023-09-19,1,,,,,アワノクニケイザイドウユウカイ,0
