sequenceNumber,corporateNumber,process,correct,updateDate,changeDate,name,nameImageId,kind,prefectureName,cityName,streetNumber,addressImageId,prefectureCode,cityCode,postCode,addressOutside,addressOutsideImageId,closeDate,closeCause,successorCorporateNumber,changeCause,assignmentDate,latest,enName,enPrefectureName,enCityName,enAddressOutside,furigana,hihyoji
13,1010001259063,新規,0,2025-10-08,2025-10-08,株式会社ｉｄｅａｌ　ｂａｒｂｅｒ,,株式会社,東京都,千代田区,神田淡路町２丁目２５－９,,13,101,1010063,,,,,,,2025-10-08,1,,,,,アイデアルバーバー,0
14,1010001259311,新規,0,2025-10-08,2025-10-08,株式会社東也,,株式会社,東京都,中央区,八丁堀２丁目２９番１３－５０１号,,13,102,1040032,,,,,,,2025-10-08,1,,,,,トウヤ,0
16,1010003048877,新規,0,2025-10-08,2025-10-08,Ｃｏｎｔｉｎｕｕｍ　Ｊａｐａｎ合同会社,,合同会社,東京都,中央区,銀座１丁目１２番４号Ｎ＆ＥＢＬＤ．６Ｆ,,13,102,1040061,,,,,,,2025-10-08,1,,,,,コンティニュウムジャパン,0
17,1010003048976,新規,0,2025-10-08,2025-10-08,Ａｌｌｙｓｈｉｐ合同会社,,合同会社,東京都,中央区,銀座１丁目２２番１１号銀座大竹ビジデンス２Ｆ,,13,102,1040061,,,,,,,2025-10-08,1,,,,,アライシップ,0
19,1010005040758,新規,0,2025-10-08,2025-10-08,日高中津一般社団法人,,その他の設立登記法人,東京都,中央区,銀座２丁目１５番２号ＫＲＧｉｎｚａＩＩ７Ｆ,00140990,13,102,1040061,,,,,,,2025-10-08,1,,,,,ヒダカナカツ,0
25,1010401193465,新規,0,2025-10-08,2025-10-08,株式会社ＷｉｔｈＵ,,株式会社,東京都,港区,虎ノ門１丁目１６番１６号,,13,103,1050001,,,,,,,2025-10-08,1,,,,,ウィズユー,0
26,1010401193498,新規,0,2025-10-08,2025-10-08,株式会社ランドウェル,,株式会社,東京都,港区,麻布十番２丁目５番１１号,,13,103,1060045,,,,,,,2025-10-08,1,,,,,ランドウェル,0
27,1010401193523,新規,0,2025-10-08,2025-10-08,株式会社ルモラ,,株式会社,東京都,港区,南青山３丁目１番３６号青山丸竹ビル６Ｆ,,13,103,1070062,,,,,,,2025-10-08,1,,,,,ルモラ,0
28,1010401193531,新規,0,2025-10-08,2025-10-08,株式会社聴脳科学総合研究所,,株式会社,東京都,港区,南青山３丁目１番３６号青山丸竹ビル６階,,13,103,1070062,,,,,,,2025-10-08,1,,,,,チョウノウカガクソウゴウケンキュウジョ,0
29,1010405024831,新規,0,2025-10-08,2025-10-08,Ｏｃｔｏｐｕｓ一般社団法人,,その他の設立登記法人,東京都,港区,北青山１丁目２番３号,,13,103,1070061,,,,,,,2025-10-08,1,,,,,オクトパス,0
43,1010603011846,新規,0,2025-10-08,2025-10-08,ＤＦＳ合同会社,,合同会社,東京都,江東区,木場５丁目１番５号メイプルハイム木場Ｂ１１９号室,,13,108,1350042,,,,,,,2025-10-08,1,,,,,ディエフエス,0
44,1010701048435,新規,0,2025-10-08,2025-10-08,アルカナパートナーズ株式会社,,株式会社,東京都,品川区,西五反田２丁目２２－６アトラスタワー五反田,,13,109,1410031,,,,,,,2025-10-08,1,,,,,アルカナパートナーズ,0
45,1010703007942,新規,0,2025-10-08,2025-10-08,合同会社Ｂａｚｏｏｏｃａ,,合同会社,東京都,品川区,西大井６丁目４－８－２０１,,13,109,1400015,,,,,,,2025-10-08,1,,,,,バズーカ,0
46,1010703007950,新規,0,2025-10-08,2025-10-08,白山コネクト合同会社,,合同会社,東京都,品川区,上大崎３丁目１番１号目黒セントラルスクエア１５階,,13,109,1410021,,,,,,,2025-10-08,1,,,,,ハクサンコネクト,0
50,1010803005573,新規,0,2025-10-08,2025-10-08,合同会社ＵＲＩ,,合同会社,東京都,大田区,田園調布１丁目２番６－５０８号,,13,111,1450071,,,,,,,2025-10-08,1,,,,,ウエノリサーチインスティテュート,0
55,1010901058234,新規,0,2025-10-08,2025-10-08,株式会社ＬｉｎｋＭａｎ,,株式会社,東京都,世田谷区,用賀４丁目９番１２号Ａｓｔａｇｅ用賀Ｂ１,,13,112,1580097,,,,,,,2025-10-08,1,,,,,リンクマン,0
61,1011001172413,新規,0,2025-10-08,2025-10-08,みけねこ株式会社,,株式会社,東京都,渋谷区,恵比寿西２丁目８番１３号平野ビル５０２号室,,13,113,1500021,,,,,,,2025-10-08,1,,,,,ミケネコ,0
62,1011001172529,新規,0,2025-10-08,2025-10-08,株式会社ＭＡＢ,,株式会社,東京都,渋谷区,円山町５番３号ＭＩＥＵＸ渋谷ビル８階,,13,113,1500044,,,,,,,2025-10-08,1,,,,,マブ,0
63,1011001172545,新規,0,2025-10-08,2025-10-08,株式会社ＴＨＲＥＥＭＥ,,株式会社,東京都,渋谷区,道玄坂１丁目１０番８号渋谷道玄坂東急ビル２Ｆ－Ｃ,,13,113,1500043,,,,,,,2025-10-08,1,,,,,スリーミー,0
64,1011001172594,新規,0,2025-10-08,2025-10-08,株式会社Ｓｎｏｗ　Ｓｔｅｌｌａ,,株式会社,東京都,渋谷区,神宮前６丁目２３－４桑野ビル２階,,13,113,1500001,,,,,,,2025-10-08,1,,,,,スノウステラ,0
65,1011001172603,新規,0,2025-10-08,2025-10-08,株式会社アトムズ,,株式会社,東京都,渋谷区,代々木２丁目２６－２第２桑野ビル５ａ点,,13,113,1510053,,,,,,,2025-10-08,1,,,,,アトムズ,0
66,1011001172628,新規,0,2025-10-08,2025-10-08,株式会社えんぴつ,,株式会社,東京都,目黒区,緑が丘１丁目４番１９号スタイルハウス目黒緑が丘２０６,,13,110,1520034,,,,,,,2025-10-08,1,,,,,エンピツ,0
67,1011001172636,新規,0,2025-10-08,2025-10-08,株式会社ＯＣＥＶＩＡ　Ｈｏｌｄｉｎｇｓ,,株式会社,東京都,渋谷区,松濤１丁目２９番１号渋谷クロスロード６階,,13,113,1500046,,,,,,,2025-10-08,1,,,,,オセヴィアホールディングス,0
68,1011001173056,新規,0,2025-10-08,2025-10-08,株式会社ＩＭＰＭｅ,,株式会社,東京都,渋谷区,南平台町２番１７号Ａ－ＰＬＡＣＥ渋谷南平台２階,,13,113,1500036,,,,,,,2025-10-08,1,,,,,インプミー,0
72,1011101113408,新規,0,2025-10-08,2025-10-08,株式会社Ｎａｒｉｎａ,,株式会社,東京都,新宿区,戸山１丁目１５－１３－１０３,,13,104,1620052,,,,,,,2025-10-08,1,,,,,ナリーナ,0
73,1011101113440,新規,0,2025-10-08,2025-10-08,リアテックインターナショナル株式会社,,株式会社,東京都,新宿区,下落合３丁目１６番１７号４０１号室,,13,104,1610033,,,,,,,2025-10-08,1,,,,,リアテックインターナショナル,0
74,1011101113556,新規,0,2025-10-08,2025-10-08,株式会社ＴＩＳエデュジャパン,,株式会社,東京都,新宿区,余丁町８－２－１０５－Ｂ,,13,104,1620055,,,,,,,2025-10-08,1,,,,,ティーアイエスエデュジャパン,0
75,1011105011590,新規,0,2025-10-08,2025-10-08,医療法人社団公真会,,その他の設立登記法人,東京都,新宿区,上落合３丁目１０番１号宮越マンション１階,,13,104,1610034,,,,,,,2025-10-08,1,,,,,コウシンカイ,0
81,1011601029046,新規,0,2025-10-08,2025-10-08,株式会社Ａｓｃｅｎｄ,,株式会社,東京都,練馬区,東大泉６丁目４７番１５－５０６号,,13,120,1780063,,,,,,,2025-10-08,1,,,,,アセンド,0
85,1011701028831,新規,0,2025-10-08,2025-10-08,友瀬化学株式会社,,株式会社,東京都,江戸川区,江戸川６丁目４０番１４－２２７号,,13,123,1340013,,,,,,,2025-10-08,1,,,,,トモセカガク,0
87,1011801046881,新規,0,2025-10-08,2025-10-08,株式会社松原商店,,株式会社,東京都,足立区,西新井１丁目３８番７号,,13,121,1230841,,,,,,,2025-10-08,1,,,,,マツバラショウテン,0
88,1011805003490,新規,0,2025-10-08,2025-10-08,一般社団法人グルン・サマジ・ジャパン,,その他の設立登記法人,東京都,葛飾区,南水元３丁目３番１０－１１５号,,13,122,1250035,,,,,,,2025-10-08,1,,,,,グルンサマジジャパン,0
91,1012401043658,新規,0,2025-10-08,2025-10-08,株式会社サンホープ,,株式会社,東京都,調布市,上石原２丁目１１－３７,,13,208,1820035,,,,,,,2025-10-08,1,,,,,サンホープ,0
92,1012701019119,新規,0,2025-10-08,2025-10-08,株式会社ＧＥＮＳＨＩＮ,,株式会社,東京都,清瀬市,松山３丁目１－７２,,13,221,2040022,,,,,,,2025-10-08,1,,,,,ゲンシン,0
95,1012803003895,新規,0,2025-10-08,2025-10-08,合同会社Ｙ４Ｔ,,合同会社,東京都,立川市,錦町１丁目４番２７号サンクレイドル立川ステーションウィズ５０４号,,13,202,1900022,,,,,,,2025-10-08,1,,,,,ワイフォーティー,0
96,1013101009817,新規,0,2025-10-08,2025-10-08,Ｂａｓｅ　Ｓｉｄｅ　Ｐｒｏｄｕｃｔｉｏｎ株式会社,,株式会社,東京都,福生市,大字福生１９９番地,,13,218,1970011,,,,,,,2025-10-08,1,,,,,ベースサイドプロダクション,0
103,1013301055074,新規,0,2025-10-08,2025-10-08,株式会社Ｓｙｎｓｏｎｉｃｏｎ,,株式会社,東京都,豊島区,高田３丁目３３番６号,,13,116,1710033,,,,,,,2025-10-08,1,,,,,シソニカ,0
104,1013301055082,新規,0,2025-10-08,2025-10-08,株式会社Ｎｅｘａｃｙ,,株式会社,東京都,豊島区,駒込４丁目６番２号,,13,116,1700003,,,,,,,2025-10-08,1,,,,,ネクシー,0
105,1013301055090,新規,0,2025-10-08,2025-10-08,あけあけａｎｉｍｅ株式会社,,株式会社,東京都,豊島区,南池袋３丁目１３番７号ビジネスヴィップ池袋５０１号室－Ｅ,,13,116,1710022,,,,,,,2025-10-08,1,,,,,アケアケアニメ,0
109,1020001164972,新規,0,2025-10-08,2025-10-08,天空ＡＩ・ＵＡＶエンジニアリング株式会社,,株式会社,神奈川県,横浜市金沢区,柳町３３－２－１０１,,14,108,2360026,,,,,,,2025-10-08,1,,,,,テンクウエーアイユーエーブイエンジニアリング,0
110,1020001164989,新規,0,2025-10-08,2025-10-08,ＦｒｅｅＬｉｎｋ株式会社,,株式会社,神奈川県,横浜市中区,住吉町２丁目２４－２－６０２,,14,104,2310013,,,,,,,2025-10-08,1,,,,,,0
111,1020001165112,新規,0,2025-10-08,2025-10-08,株式会社ワインダーク,,株式会社,神奈川県,横浜市西区,浅間町１丁目４番３号ウィザードビル４０２,,14,103,2200072,,,,,,,2025-10-08,1,,,,,ワインダーク,0
116,1021001086463,新規,0,2025-10-08,2025-10-08,株式会社ＣＨＩＣ,,株式会社,神奈川県,藤沢市,大庭５４２２番地の３０,,14,205,2510861,,,,,,,2025-10-08,1,,,,,シック,0
117,1021001086471,新規,0,2025-10-08,2025-10-08,株式会社リトルグリーン,,株式会社,神奈川県,茅ヶ崎市,富士見町３番８－１０２号,,14,207,2530031,,,,,,,2025-10-08,1,,,,,リトルグリーン,0
118,1021001086488,新規,0,2025-10-08,2025-10-08,井上企画株式会社,,株式会社,神奈川県,相模原市南区,下溝４４９番地１,,14,153,2520335,,,,,,,2025-10-08,1,,,,,イノウエキカク,0
119,1021001086521,新規,0,2025-10-08,2025-10-08,株式会社Ｒカンパニー,,株式会社,神奈川県,横須賀市,内川２丁目５番５０号,,14,201,2390836,,,,,,,2025-10-08,1,,,,,アールカンパニー,0
128,1030001168997,新規,0,2025-10-08,2025-10-08,株式会社ＡＮＤＡ,,株式会社,埼玉県,川口市,並木３丁目２１番１－２０１号,,11,203,3320034,,,,,,,2025-10-08,1,,,,,アンダ,0
129,1030001169005,新規,0,2025-10-08,2025-10-08,株式会社ＡＳＯ,,株式会社,埼玉県,越谷市,大間野町３丁目１５２番地,,11,222,3430844,,,,,,,2025-10-08,1,,,,,エーエスオー,0
130,1030001169038,新規,0,2025-10-08,2025-10-08,株式会社里峯,,株式会社,埼玉県,川越市,砂新田４丁目１番地２０,,11,201,3501137,,,,,,,2025-10-08,1,,,,,リホウ,0
131,1030001169054,新規,0,2025-10-08,2025-10-08,東洋株式会社,,株式会社,埼玉県,蕨市,塚越５丁目４７番１４号,,11,223,3350002,,,,,,,2025-10-08,1,,,,,トウヨウ,0
132,1030001169070,新規,0,2025-10-08,2025-10-08,株式会社弘寧,,株式会社,埼玉県,川口市,江戸２丁目７番１９号,,11,203,3340074,,,,,,,2025-10-08,1,,,,,ヒロネ,0
135,1030003027821,新規,0,2025-10-08,2025-10-08,合同会社オレンジサイド,,合同会社,埼玉県,羽生市,大字藤井下組５２５番地１,,11,216,3480065,,,,,,,2025-10-08,1,,,,,オレンジサイド,0
140,1040001140815,新規,0,2025-10-08,2025-10-08,株式会社Ａ‐Ｐ‐Ｇ,,株式会社,千葉県,千葉市中央区,神明町３－３２,,12,101,2600022,,,,,,,2025-10-08,1,,,,,エーピージー,0
141,1040001140848,新規,0,2025-10-08,2025-10-08,新千葉貿易株式会社,,株式会社,千葉県,四街道市,和田１７１番地８,,12,228,2840035,,,,,,,2025-10-08,1,,,,,シンチバボウエキ,0
142,1040001140897,新規,0,2025-10-08,2025-10-08,株式会社Ｓｎコーポレーション,,株式会社,千葉県,船橋市,本町４丁目４２－１１,,12,204,2730005,,,,,,,2025-10-08,1,,,,,,0
144,1040003028703,新規,0,2025-10-08,2025-10-08,合同会社ＢＡＲＡＴＩ,,合同会社,千葉県,四街道市,栗山１０５２番地２４７,,12,228,2840027,,,,,,,2025-10-08,1,,,,,バラティ,0
145,1040005022877,新規,0,2025-10-08,2025-10-08,一般社団法人デジタルライフサポート,,その他の設立登記法人,千葉県,船橋市,薬円台６丁目１８番１２－２０１号,,12,204,2740077,,,,,,,2025-10-08,1,,,,,デジタルライフサポート,0
151,1050001057380,新規,0,2025-10-08,2025-10-08,ＤＥＥＧＡ　ＪＡＰＡＮ　ＩＮＶＥＳＴＭＥＮＴＳ株式会社,,株式会社,茨城県,桜川市,真壁町田１１５０－１４,,08,231,3004411,,,,,,,2025-10-08,1,,,,,ディーガジャパンインベストメンツ,0
152,1050001057389,新規,0,2025-10-08,2025-10-08,株式会社村田農園,,株式会社,茨城県,鉾田市,子生７９６番地１４,,08,234,3111414,,,,,,,2025-10-08,1,,,,,ムラタノウエン,0
154,1050003009586,新規,0,2025-10-08,2025-10-08,合同会社園日和,,合同会社,茨城県,つくば市,大形１３７８番,,08,220,3004221,,,,,,,2025-10-08,1,,,,,ソノビヨリ,0
155,1050003009669,新規,0,2025-10-08,2025-10-08,ＨＯＰＥ合同会社,,合同会社,茨城県,つくば市,二の宮１丁目２番地２ＳＡＫＡＩビル,,08,220,3050051,,,,,,,2025-10-08,1,,,,,ホープ,0
157,1060001038660,新規,0,2025-10-08,2025-10-08,株式会社Ｃｏｎｎｅｃｔ　ｐｌｕｓ,,株式会社,栃木県,鹿沼市,千渡２３１５番地２２,,09,205,3220002,,,,,,,2025-10-08,1,,,,,コネクトプラス,0
159,1070001043429,新規,0,2025-10-08,2025-10-08,株式会社ＪＢＮ　ＴＲＡＤＩＮＧ,,株式会社,群馬県,太田市,東本町３４番２３,,10,205,3730026,,,,,,,2025-10-08,1,,,,,ジェイビーエヌトレーディング,0
166,1080101025838,新規,0,2025-10-08,2025-10-08,キャストプランニング株式会社,,株式会社,静岡県,三島市,中央町３番２９号,,22,206,4110858,,,,,,,2025-10-08,1,,,,,キャストプランニング,0
168,1090001019550,新規,0,2025-10-08,2025-10-08,株式会社すみれ商店,,株式会社,山梨県,富士吉田市,大明見２丁目４０番１２号,,19,202,4030003,,,,,,,2025-10-08,1,,,,,スミレショウテン,0
172,1100001039027,新規,0,2025-10-08,2025-10-08,株式会社Ｓｏｌ　Ｎａｃｉｅｎｔｅ,,株式会社,長野県,松本市,元町１丁目１－２５フルラージュ翠１０２,,20,202,3900803,,,,,,,2025-10-08,1,,,,,ソルナシエンテ,0
176,1110003005918,新規,0,2025-10-08,2025-10-08,ＳＣＨＥＦＦＬＥＲ合同会社,,合同会社,新潟県,新潟市西区,五十嵐２の町８２７４番地１２,,15,107,9502102,,,,,,,2025-10-08,1,,,,,シェフラー,0
189,1120001280454,新規,0,2025-10-08,2025-10-08,ＱＴ株式会社,,株式会社,大阪府,大阪市都島区,都島中通２丁目１２－２５－１０１,,27,102,5340022,,,,,,,2025-10-08,1,,,,,キューティー,0
190,1120001280553,新規,0,2025-10-08,2025-10-08,オーレリア・グローバル株式会社,,株式会社,大阪府,大阪市東住吉区,中野４丁目１番１６号リベラルオリエンテ中野６０４Ａ,,27,121,5460012,,,,,,,2025-10-08,1,,,,,オーレリアグローバル,0
191,1120001280644,新規,0,2025-10-08,2025-10-08,株式会社ＡＬＬ　ＣＬＥＡＮ９６,,株式会社,大阪府,守口市,八雲中町３丁目１３番６０－６０１号,,27,209,5700005,,,,,,,2025-10-08,1,,,,,オールクリーンキュウロク,0
192,1120001280792,新規,0,2025-10-08,2025-10-08,麗景株式会社,,株式会社,大阪府,大阪市北区,中之島６丁目１番３８－３５１８号,,27,127,5300005,,,,,,,2025-10-08,1,,,,,レイケイ,0
195,1120003030808,新規,0,2025-10-08,2025-10-08,オービア合同会社,,合同会社,大阪府,大阪市淀川区,木川東４丁目５－２２,,27,123,5320012,,,,,,,2025-10-08,1,,,,,オービア,0
196,1120003030832,新規,0,2025-10-08,2025-10-08,近藤商店合同会社,,合同会社,大阪府,枚方市,山之上５丁目１５番１９号,,27,210,5730047,,,,,,,2025-10-08,1,,,,,コンドウショウテン,0
197,1120003030849,新規,0,2025-10-08,2025-10-08,ＳＥＲＲＵＤＯ合同会社,,合同会社,大阪府,大阪市淀川区,西中島６丁目２－３チサンマンション第７新大阪９０３,,27,123,5320011,,,,,,,2025-10-08,1,,,,,セルドー,0
202,1120101072561,新規,0,2025-10-08,2025-10-08,株式会社千並,,株式会社,大阪府,富田林市,高辺台２丁目２０番７号,,27,214,5840072,,,,,,,2025-10-08,1,,,,,センナミ,0
206,1120103006781,新規,0,2025-10-08,2025-10-08,合同会社菅原,,合同会社,大阪府,和泉市,いぶき野４丁目３番１‐４０１号,,27,219,5940041,,,,,,,2025-10-08,1,,,,,スガハラ,0
208,1120901051616,新規,0,2025-10-08,2025-10-08,株式会社オースクＨＤ,,株式会社,大阪府,摂津市,鳥飼本町４丁目３番４３号,,27,224,5660052,,,,,,,2025-10-08,1,,,,,オースクエイチディー,0
211,1122005003849,新規,0,2025-10-08,2025-10-08,一般社団法人東大阪河内ボーイズ硬式野球協会,,その他の設立登記法人,大阪府,東大阪市,横小路町６番７号２５,,27,227,5770000,,,,,,,2025-10-08,1,,,,,ヒガシオオサカカワチボーイズコウシキヤキュウキョウカイ,0
217,1130003010833,新規,0,2025-10-08,2025-10-08,合同会社Ｌｉｅｒ　ＳＡＧＡＮＯ,,合同会社,京都府,亀岡市,篠町夕日ケ丘４丁目２番地１,,26,206,6210829,,,,,,,2025-10-08,1,,,,,リエールサガノ,0
220,1140001140219,新規,0,2025-10-08,2025-10-08,ＳＡＩＳＥＩ不動産株式会社,,株式会社,兵庫県,加古川市,加古川町稲屋３６番地の２グランプレステージ加古川ＩＩ－７１２号,00140999,28,210,6750034,,,,,,,2025-10-08,1,,,,,サイセイフドウサン,0
221,1140001140227,新規,0,2025-10-08,2025-10-08,姫路キャピタル株式会社,,株式会社,兵庫県,姫路市,御立西３丁目１２番２１号,,28,201,6700074,,,,,,,2025-10-08,1,,,,,ヒメジキャピタル,0
222,1140001140268,新規,0,2025-10-08,2025-10-08,株式会社利建,,株式会社,兵庫県,神戸市中央区,楠町３丁目１－１,,28,110,6500017,,,,,,,2025-10-08,1,,,,,トシケン,0
223,1140003022679,新規,0,2025-10-08,2025-10-08,合同会社丸石水産,,合同会社,兵庫県,淡路市,郡家１１６０番地２,,28,226,6561511,,,,,,,2025-10-08,1,,,,,マルイシスイサン,0
224,1150001028462,新規,0,2025-10-08,2025-10-08,Ｓａｋｕｒａ　Ｔｒｅａｓｕｒｅ株式会社,,株式会社,奈良県,生駒市,あすか野北３丁目８番１８号,,29,209,6300134,,,,,,,2025-10-08,1,,,,,サクラトレジャー,0
228,1170001018825,新規,0,2025-10-08,2025-10-08,ＡＳＨＩＳＵＴＯ株式会社,,株式会社,和歌山県,岩出市,安上６２０番地の２,,30,209,6496252,,,,,,,2025-10-08,1,,,,,アシスト,0
235,1180001168859,新規,0,2025-10-08,2025-10-08,Ａｒｃ　ｂｏｘ株式会社,,株式会社,愛知県,名古屋市名東区,若葉台１４１６番地,,23,115,4650015,,,,,,,2025-10-08,1,,,,,アークボックス,0
236,1180001168875,新規,0,2025-10-08,2025-10-08,ＶｉｖｉｄＷｏｒｋｓ株式会社,,株式会社,愛知県,名古屋市中区,門前町３番２６号－２,,23,106,4600018,,,,,,,2025-10-08,1,,,,,ヴィヴィッドワークス,0
237,1180001168974,新規,0,2025-10-08,2025-10-08,株式会社壱,,株式会社,愛知県,名古屋市瑞穂区,牛巻町４番５号,,23,108,4670863,,,,,,,2025-10-08,1,,,,,イチ,0
244,1180003029159,新規,0,2025-10-08,2025-10-08,Ｓ　Ｌ　ＮＩＨＯＮ合同会社,,合同会社,愛知県,名古屋市港区,神宮寺１丁目１５０６アネックス神宮寺南５０２,,23,111,4550834,,,,,,,2025-10-08,1,,,,,エスエルニホン,0
245,1180003029217,新規,0,2025-10-08,2025-10-08,合同会社ＳＦＡウェルネス,,合同会社,愛知県,名古屋市中村区,名駅３丁目４－１０アルティメイト名駅１ｓｔ２階,,23,105,4500002,,,,,,,2025-10-08,1,,,,,エスエフエーウェルネス,0
248,1180005021270,新規,0,2025-10-08,2025-10-08,司法書士法人Ａｖａｎｔｉ,,その他の設立登記法人,愛知県,春日井市,中央台６丁目７番地１,,23,206,4870011,,,,,,,2025-10-08,1,,,,,アヴァンティ,0
251,1180301040305,新規,0,2025-10-08,2025-10-08,株式会社ＹＯＬＯ,,株式会社,愛知県,碧南市,西山町４丁目１５番地１,,23,209,4470064,,,,,,,2025-10-08,1,,,,,ヨロ,0
252,1180301040313,新規,0,2025-10-08,2025-10-08,谷野不動産コンサルタント株式会社,,株式会社,愛知県,岡崎市,明大寺町字大圦３６番地２１,,23,202,4440865,,,,,,,2025-10-08,1,,,,,タニノフドウサンコンサルタント,0
261,1210005010229,新規,0,2025-10-08,2025-10-08,一般社団法人ぐるぐるふくい,,その他の設立登記法人,福井県,越前市,平和町１０番６号,,18,209,9150827,,,,,,,2025-10-08,1,,,,,グルグルフクイ,0
263,1220003004116,新規,0,2025-10-08,2025-10-08,合同会社ｄｏｕｂｌｅ‐ｂｏｏｋ,,合同会社,石川県,野々市市,本町２丁目２４番３号,,17,212,9218815,,,,,,,2025-10-08,1,,,,,ダブルブック,0
267,1240001065620,新規,0,2025-10-08,2025-10-08,株式会社ＭＩＯＲＡ,,株式会社,広島県,広島市安佐北区,安佐町飯室１９８２,,34,106,7391700,,,,,,,2025-10-08,1,,,,,ミオラ,0
271,1250001021382,新規,0,2025-10-08,2025-10-08,株式会社ミワラボ,,株式会社,山口県,長門市,東深川１９７８番地５,,35,211,7594101,,,,,,,2025-10-08,1,,,,,ミワラボ,0
275,1260001040638,新規,0,2025-10-08,2025-10-08,株式会社Ｓｔｙｖｉａ,,株式会社,岡山県,倉敷市,浜町２丁目１３番１８－１０２号,,33,202,7100062,,,,,,,2025-10-08,1,,,,,スタイビア,0
293,1300001014380,新規,0,2025-10-08,2025-10-08,株式会社ティエム企画,,株式会社,佐賀県,神埼郡吉野ヶ里町,大曲４０８１番地７,,41,327,8420103,,,,,,,2025-10-08,1,,,,,ティエムキカク,0
297,1310003005105,新規,0,2025-10-08,2025-10-08,合同会社縁夢堂,,合同会社,長崎県,長崎市,三原１丁目５－２３ＩＭＰＲОＶＥ三原１０１号室,,42,201,8528123,,,,,,,2025-10-08,1,,,,,エンムドウ,0
306,1370001053125,新規,0,2025-10-08,2025-10-08,ダイワインダストリー株式会社,,株式会社,宮城県,名取市,美田園５丁目４番地の１０,,04,207,9811217,,,,,,,2025-10-08,1,,,,,ダイワインダストリー,0
308,1370003007319,新規,0,2025-10-08,2025-10-08,合同会社Ｂｕｄ　ｊｏｉｎｔｗｏｒｋｓ,,合同会社,宮城県,仙台市泉区,南光台４丁目７―１８,,04,105,9818003,,,,,,,2025-10-08,1,,,,,バドジョイントワークス,0
312,1410003004162,新規,0,2025-10-08,2025-10-08,合同会社エスペラシオン,,合同会社,秋田県,大仙市,豊川字上水無３１番地５,,05,212,0140711,,,,,,,2025-10-08,1,,,,,,0
314,1430001095301,新規,0,2025-10-08,2025-10-08,株式会社Ｑ‐ＬＡＢ,,株式会社,北海道,札幌市西区,琴似四条６丁目２－２１,,01,107,0630814,,,,,,,2025-10-08,1,,,,,キューラボ,0
315,1430001095359,新規,0,2025-10-08,2025-10-08,株式会社高一,,株式会社,北海道,白老郡白老町,字石山３９番地６８２,,01,578,0590921,,,,,,,2025-10-08,1,,,,,タカイチ,0
317,1430003018128,新規,0,2025-10-08,2025-10-08,合同会社ｍｅｔａｍｏｎ,,合同会社,北海道,赤平市,平岸曙町１丁目３８番地,,01,218,0791285,,,,,,,2025-10-08,1,,,,,メタモン,0
318,1430003018185,新規,0,2025-10-08,2025-10-08,Ａｘｉｍｏ合同会社,,合同会社,北海道,札幌市白石区,栄通１２丁目３番１号,,01,104,0030021,,,,,,,2025-10-08,1,,,,,アクシモ,0
319,1440001009697,新規,0,2025-10-08,2025-10-08,株式会社結政工業,,株式会社,北海道,函館市,美原４丁目１０番２３号,,01,202,0410806,,,,,,,2025-10-08,1,,,,,ユウセイコウギョウ,0
321,1460101007764,新規,0,2025-10-08,2025-10-08,株式会社ｈｍｃ,,株式会社,北海道,河西郡芽室町,西一条１丁目５番地,,01,637,0820031,,,,,,,2025-10-08,1,,,,,エイチエムシー,0
328,1500001026570,新規,0,2025-10-08,2025-10-08,株式会社ＴＫオフィス,,株式会社,愛媛県,松山市,御幸１丁目５９９番地２７,,38,201,7900824,,,,,,,2025-10-08,1,,,,,ティーケーオフィス,0
342,2010001259013,新規,0,2025-10-08,2025-10-08,株式会社パーソナルメモリーズ,,株式会社,東京都,中央区,日本橋兜町１７－２－４,,13,102,1030026,,,,,,,2025-10-08,1,,,,,パーソナルメモリーズ,0
343,2010001259087,新規,0,2025-10-08,2025-10-08,１５ＣＯＭＢＯ株式会社,,株式会社,東京都,千代田区,神田須田町１丁目７番８号ＶＯＲＴ秋葉原ＩＶ２Ｆ,00140992,13,101,1010041,,,,,,,2025-10-08,1,,,,,イチゴコンボ,0
344,2010001259153,新規,0,2025-10-08,2025-10-08,株式会社ＴａｂｉＨｕｂ,,株式会社,東京都,千代田区,平河町１丁目３－６,,13,101,1020093,,,,,,,2025-10-08,1,,,,,タビハブ,0
345,2010001259161,新規,0,2025-10-08,2025-10-08,株式会社ナナメイト,,株式会社,東京都,中央区,日本橋小網町１番５－８０３号,,13,102,1030016,,,,,,,2025-10-08,1,,,,,,0
346,2010001259194,新規,0,2025-10-08,2025-10-08,株式会社リーガルプラス,,株式会社,東京都,中央区,日本橋２丁目２番３号リッシュビル４階４０１号,,13,102,1030027,,,,,,,2025-10-08,1,,,,,リーガルプラス,0
349,2010003048901,新規,0,2025-10-08,2025-10-08,日本危機管理エージェンシー合同会社,,合同会社,東京都,千代田区,麹町１丁目３番２３号,,13,101,1020083,,,,,,,2025-10-08,1,,,,,ニホンキキカンリエージェンシー,0
350,2010003048934,新規,0,2025-10-08,2025-10-08,有明プロパティ合同会社,,合同会社,東京都,中央区,日本橋１丁目４番１号日本橋一丁目ビルディング,,13,102,1030027,,,,,,,2025-10-08,1,,,,,アリアケプロパティ,0
351,2010003048967,新規,0,2025-10-08,2025-10-08,京都福知山蓄電合同会社,,合同会社,東京都,千代田区,神田須田町１丁目１８番地６第一谷ビル７０１,,13,101,1010041,,,,,,,2025-10-08,1,,,,,キョウトフクチヤマチクデン,0
353,2010101016891,新規,0,2025-10-08,2025-10-08,株式会社Ｃ５,,株式会社,東京都,八王子市,大楽寺町４４８番地１,,13,201,1930816,,,,,,,2025-10-08,1,,,,,シークインテット,0
360,2010401193340,新規,0,2025-10-08,2025-10-08,ＤＹＮＡ．ＡＩ株式会社,,株式会社,東京都,港区,赤坂４丁目１４－４,,13,103,1070052,,,,,,,2025-10-08,1,,,,,ダイナエーアイ,0
361,2010401193506,新規,0,2025-10-08,2025-10-08,株式会社ＨＢＮＥＴ,,株式会社,東京都,港区,赤坂３丁目２１番２０号,,13,103,1070052,,,,,,,2025-10-08,1,,,,,エイチビーネット,0
362,2010401193530,新規,0,2025-10-08,2025-10-08,株式会社ＵＮＩＶＡ　ＦＩＴ,,株式会社,東京都,港区,虎ノ門１丁目３番１号,,13,103,1050001,,,,,,,2025-10-08,1,,,,,ユニヴァフィット,0
363,2010401193539,新規,0,2025-10-08,2025-10-08,株式会社２ＢＡＳＥ,,株式会社,東京都,港区,浜松町２丁目２番１５号浜松町ダイヤビル２Ｆ,,13,103,1050013,,,,,,,2025-10-08,1,,,,,セカンドベース,0
364,2010401193670,新規,0,2025-10-08,2025-10-08,株式会社ローズ・ヴェイズ,,株式会社,東京都,港区,赤坂２丁目２１番４号,,13,103,1070052,,,,,,,2025-10-08,1,,,,,ローズヴェイズ,0
365,2010401193704,新規,0,2025-10-08,2025-10-08,株式会社オーレオンスペースシステムズ,,株式会社,東京都,港区,南青山４丁目５番８号,,13,103,1070062,,,,,,,2025-10-08,1,,,,,オーレオンスペースシステムズ,0
366,2010403036142,新規,0,2025-10-08,2025-10-08,合同会社Ｄｏｓｌｉｎｋ　Ｊａｐａｎ,,合同会社,東京都,港区,虎ノ門４丁目３番１号城山トラストタワー２７Ｆ、１０５－６０２７,,13,103,1050001,,,,,,,2025-10-08,1,,,,,ドスリンクジャパン,0
369,2010501054830,新規,0,2025-10-08,2025-10-08,株式会社ＭＨＹ,,株式会社,東京都,台東区,台東２丁目２０番１０号,,13,106,1100016,,,,,,,2025-10-08,1,,,,,エムエイチワイ,0
371,2010503008033,新規,0,2025-10-08,2025-10-08,ＢＡＢＡ　ＶＯＣＡＬＳＴＵＤＩＯ合同会社,,合同会社,東京都,台東区,浅草橋２丁目１７番７号リトルズトーン浅草橋７０１,,13,106,1110053,,,,,,,2025-10-08,1,,,,,ババヴォーカルスタジオ,0
373,2010601068094,新規,0,2025-10-08,2025-10-08,Ｔｏｍｙ株式会社,,株式会社,東京都,墨田区,東駒形２丁目２－１３東駒形二丁目ビル４０２室,,13,107,1300005,,,,,,,2025-10-08,1,,,,,トーミ,0
377,2010603011837,新規,0,2025-10-08,2025-10-08,ロック・グループ合同会社,,合同会社,東京都,江東区,青海２丁目５番１０号テレコムセンタービル東棟１４階モノ,,13,108,1350064,,,,,,,2025-10-08,1,,,,,ロックグループ,0
379,2010703007941,新規,0,2025-10-08,2025-10-08,合同会社正光,,合同会社,東京都,品川区,北品川２丁目２３番１５号,,13,109,1400001,,,,,,,2025-10-08,1,,,,,マサミツ,0
380,2010705003815,新規,0,2025-10-08,2025-10-08,一般社団法人白山コネクト,,その他の設立登記法人,東京都,品川区,上大崎３丁目１番１号目黒セントラルスクエア１５階,,13,109,1410021,,,,,,,2025-10-08,1,,,,,ハクサンコネクト,0
382,2010801036669,新規,0,2025-10-08,2025-10-08,孝拡メディカルコンサルティング株式会社,,株式会社,東京都,大田区,多摩川２丁目４番８号ＣＲＥＡ・Ｈ１０１,,13,111,1460095,,,,,,,2025-10-08,1,,,,,タカヒロメディカルコンサルティング,0
384,2010803005572,新規,0,2025-10-08,2025-10-08,合同会社カゼブランカ,,合同会社,東京都,大田区,北千束３丁目９番１８号Ｆｌｏｒｅｎｃｅ大岡山１０４,,13,111,1450062,,,,,,,2025-10-08,1,,,,,カゼブランカ,0
407,2011001172453,新規,0,2025-10-08,2025-10-08,株式会社ｍｉｄｒｅｂ,,株式会社,東京都,渋谷区,道玄坂１丁目１０番８号渋谷道玄坂東急ビル２Ｆ－Ｃ,,13,113,1500043,,,,,,,2025-10-08,1,,,,,ミドリブ,0
408,2011001172494,新規,0,2025-10-08,2025-10-08,株式会社Ｑｕｉｎｔｅ,,株式会社,東京都,渋谷区,恵比寿３丁目１２番３号,,13,113,1500013,,,,,,,2025-10-08,1,,,,,クインテ,0
409,2011001172528,新規,0,2025-10-08,2025-10-08,株式会社ＰＯＰＧＯ,,株式会社,東京都,渋谷区,道玄坂１丁目１０番８号渋谷道玄坂東急ビル２Ｆ－Ｃ,,13,113,1500043,,,,,,,2025-10-08,1,,,,,ポップゴー,0
410,2011001172585,新規,0,2025-10-08,2025-10-08,平和島開発株式会社,,株式会社,東京都,渋谷区,松濤２丁目１番２号,,13,113,1500046,,,,,,,2025-10-08,1,,,,,ヘイワジマカイハツ,0
411,2011001172593,新規,0,2025-10-08,2025-10-08,Ｃｈａｒｄｉａ株式会社,,株式会社,東京都,渋谷区,恵比寿西２丁目８番４号ＥＸ恵比寿西ビル５階,,13,113,1500021,,,,,,,2025-10-08,1,,,,,シャルディア,0
412,2011001172602,新規,0,2025-10-08,2025-10-08,株式会社Ａｌａｎｆａｉｒｙ,,株式会社,東京都,渋谷区,円山町１４番２号福富ビル２０１,,13,113,1500044,,,,,,,2025-10-08,1,,,,,アランフェアリー,0
413,2011001172643,新規,0,2025-10-08,2025-10-08,Ｘｐａｙ株式会社,,株式会社,東京都,渋谷区,宇田川町３７番１０号麻仁ビル４階,,13,113,1500042,,,,,,,2025-10-08,1,,,,,エックスペイ,0
414,2011003022532,新規,0,2025-10-08,2025-10-08,合同会社一谷コンサルティング,,合同会社,東京都,目黒区,三田１丁目４番４－２０９号恵比寿ビュータワー,,13,110,1530062,,,,,,,2025-10-08,1,,,,,イチタニコンサルティング,0
415,2011003022565,新規,0,2025-10-08,2025-10-08,虹の翼合同会社,,合同会社,東京都,目黒区,洗足２丁目２４番１５号,,13,110,1520012,,,,,,,2025-10-08,1,,,,,ニジノツバサ,0
416,2011003022573,新規,0,2025-10-08,2025-10-08,合同会社Ｃｒｅａｓｕ,,合同会社,東京都,渋谷区,恵比寿西２丁目８番４号ＥＸ恵比寿西ビル５階,,13,113,1500021,,,,,,,2025-10-08,1,,,,,クレアス,0
418,2011101113118,新規,0,2025-10-08,2025-10-08,株式会社ＭＡＲＺ,,株式会社,東京都,新宿区,若葉１丁目２２番１６号四ツ谷ＡＳＴＹ３０１,,13,104,1600011,,,,,,,2025-10-08,1,,,,,マーズ,0
419,2011101113407,新規,0,2025-10-08,2025-10-08,株式会社ｅｎｂｕｎ,,株式会社,東京都,新宿区,西新宿３丁目３－１３西新宿水間ビル６階,,13,104,1600023,,,,,,,2025-10-08,1,,,,,エンブン,0
420,2011103016491,新規,0,2025-10-08,2025-10-08,合同会社ＮＡＮＡ,,合同会社,東京都,新宿区,愛住町１９番地ＢＲＩＣＫＳ四谷,,13,104,1600005,,,,,,,2025-10-08,1,,,,,ナナ,0
421,2011103016533,新規,0,2025-10-08,2025-10-08,合同会社マラット,,合同会社,東京都,新宿区,弁天町１４７番地コンフォリア早稲田２１４,,13,104,1620851,,,,,,,2025-10-08,1,,,,,マラット,0
424,2011203004842,新規,0,2025-10-08,2025-10-08,合同会社Ｌｉｏｒａ,,合同会社,東京都,中野区,野方２丁目５１－１４リッチビラＳＫ１０１,,13,114,1650027,,,,,,,2025-10-08,1,,,,,リオラ,0
425,2011303005749,新規,0,2025-10-08,2025-10-08,合同会社オティアス,,合同会社,東京都,杉並区,荻窪３丁目４５番３号,,13,115,1670051,,,,,,,2025-10-08,1,,,,,オティアス,0
428,2011601029045,新規,0,2025-10-08,2025-10-08,匯誠イノベーション株式会社,,株式会社,東京都,練馬区,春日町６丁目１６番１１号フォーチュン光が丘２０６,,13,120,1790074,,,,,,,2025-10-08,1,,,,,カイセイイノベーション,0
430,2011701028830,新規,0,2025-10-08,2025-10-08,株式会社プリーレ,,株式会社,東京都,江戸川区,西小岩１丁目２７番２９号東京グランファースト１０１,,13,123,1330057,,,,,,,2025-10-08,1,,,,,プリーレ,0
432,2011801046872,新規,0,2025-10-08,2025-10-08,株式会社かねだい東京足立,,株式会社,東京都,足立区,東保木間２丁目３番２０号,,13,121,1210063,,,,,,,2025-10-08,1,,,,,カネダイトウキョウアダチ,0
436,2012401043657,新規,0,2025-10-08,2025-10-08,株式会社ｄａｗｇ,,株式会社,東京都,三鷹市,下連雀４丁目２‐３２リムテラス三鷹下連雀ザ・グラン１０４号室,,13,204,1810013,,,,,,,2025-10-08,1,,,,,ドーグ,0
437,2012401043681,新規,0,2025-10-08,2025-10-08,株式会社アーキテクチャーオフィスオデン,,株式会社,東京都,武蔵野市,吉祥寺本町１丁目５番１号,,13,203,1800004,,,,,,,2025-10-08,1,,,,,アーキテクチャーオフィスオデン,0
448,2013301055073,新規,0,2025-10-08,2025-10-08,株式会社３ｂクリエイション,,株式会社,東京都,豊島区,千早４丁目４２番５号千早ＧＡＬＡＸＹ２Ｓ号室,,13,116,1710044,,,,,,,2025-10-08,1,,,,,スリービークリエイション,0
454,2020001164988,新規,0,2025-10-08,2025-10-08,株式会社Ａｓｉａ　ＮａｎｏＴｅｃｈ　Ｃｅｎｔｅｒ,,株式会社,神奈川県,横浜市西区,北幸２丁目１０番４８号むつみビル３階,,14,103,2200004,,,,,,,2025-10-08,1,,,,,アジアナノテックセンター,0
463,2020003029512,新規,0,2025-10-08,2025-10-08,合同会社Ｓｋｙ　Ｏｃｅａｎ　Ｃｏｒｐｏｒａｔｉｏｎ,,合同会社,神奈川県,横浜市南区,中村町４丁目２７４番地１８,,14,105,2320033,,,,,,,2025-10-08,1,,,,,スカイオーシャンコーポレーション,0
467,2021001086388,新規,0,2025-10-08,2025-10-08,北島商事株式会社,,株式会社,神奈川県,相模原市中央区,上溝２０３２番地１２,,14,152,2520243,,,,,,,2025-10-08,1,,,,,キタジマショウジ,0
468,2021001086470,新規,0,2025-10-08,2025-10-08,株式会社エスワンテック,,株式会社,神奈川県,大和市,上和田１７７３番地２エムオーハイム１０３号室,,14,213,2420014,,,,,,,2025-10-08,1,,,,,エスワンテック,0
469,2021001086545,新規,0,2025-10-08,2025-10-08,株式会社ＳＡＪＪＡＤ　ＴＲＡＤＩＮＧ　ＣＯＭＰＡＮＹ,,株式会社,神奈川県,相模原市中央区,田名４８３６番地１１コーポミエ１０１号室,,14,152,2520244,,,,,,,2025-10-08,1,,,,,サジャードトレーディングカンパニー,0
476,2030001168963,新規,0,2025-10-08,2025-10-08,株式会社Ｇｒｏｗｔｉｍｅ,,株式会社,埼玉県,さいたま市南区,南浦和２丁目３９番１８号,,11,108,3360017,,,,,,,2025-10-08,1,,,,,グロータイム,0
477,2030001168988,新規,0,2025-10-08,2025-10-08,シソラノ株式会社,,株式会社,埼玉県,越谷市,千間台西４丁目３番地４４,,11,222,3430041,,,,,,,2025-10-08,1,,,,,シソラノ,0
478,2030001169029,新規,0,2025-10-08,2025-10-08,株式会社エーエーコーポレーション,,株式会社,埼玉県,さいたま市岩槻区,大字末田１１４０－３,,11,110,3390021,,,,,,,2025-10-08,1,,,,,エーエーコーポレーション,0
479,2030001169037,新規,0,2025-10-08,2025-10-08,オーラシンク株式会社,,株式会社,埼玉県,八潮市,大字木曽根８３９番地１,,11,234,3400813,,,,,,,2025-10-08,1,,,,,,0
480,2030001169086,新規,0,2025-10-08,2025-10-08,株式会社ソルト,,株式会社,埼玉県,さいたま市大宮区,仲町２丁目５５番地大宮仲町ビル３階,,11,103,3300845,,,,,,,2025-10-08,1,,,,,ソルト,0
481,2030001169094,新規,0,2025-10-08,2025-10-08,オトタイマー株式会社,,株式会社,埼玉県,川口市,青木５丁目２番３１号,,11,203,3320031,,,,,,,2025-10-08,1,,,,,オトタイマー,0
482,2030001169103,新規,0,2025-10-08,2025-10-08,株式会社ＥＮ,,株式会社,埼玉県,さいたま市大宮区,大成町２丁目１６０番地４ＳＯＨＯ大成１０４号室,,11,103,3300852,,,,,,,2025-10-08,1,,,,,エン,0
486,2030003027795,新規,0,2025-10-08,2025-10-08,ヒロム合同会社,,合同会社,埼玉県,鴻巣市,三町免７３番地３,,11,217,3690134,,,,,,,2025-10-08,1,,,,,ヒロム,0
487,2030003027812,新規,0,2025-10-08,2025-10-08,合同会社ことのてら,,合同会社,埼玉県,八潮市,大字鶴ケ曽根８２７番地１６,,11,234,3400802,,,,,,,2025-10-08,1,,,,,コトノテラ,0
488,2030003027829,新規,0,2025-10-08,2025-10-08,合同会社Ｃｈｉｍａｋｉ,,合同会社,埼玉県,越谷市,北越谷４丁目２３番３９号東武越谷サンライトマンション１１０号,,11,222,3430026,,,,,,,2025-10-08,1,,,,,チマキ,0
492,2040001140806,新規,0,2025-10-08,2025-10-08,株式会社ｖｉｅｒｔ,,株式会社,千葉県,市川市,原木２丁目１３－２０－Ｂ,,12,203,2720004,,,,,,,2025-10-08,1,,,,,フィーアト,0
498,2050001057396,新規,0,2025-10-08,2025-10-08,株式会社おみ農園,,株式会社,茨城県,鉾田市,飯島７８０番地１,,08,234,3112112,,,,,,,2025-10-08,1,,,,,オミノウエン,0
499,2050001057413,新規,0,2025-10-08,2025-10-08,株式会社プロスパー,,株式会社,茨城県,土浦市,天川１丁目５番３１号,,08,203,3000818,,,,,,,2025-10-08,1,,,,,プロスパー,0
503,2050003009668,新規,0,2025-10-08,2025-10-08,合同会社ｕｎｏ,,合同会社,茨城県,那珂郡東海村,大字白方４３９番地１,,08,341,3191106,,,,,,,2025-10-08,1,,,,,ウノ,0
505,2070001043436,新規,0,2025-10-08,2025-10-08,株式会社ベースボールミュージック,,株式会社,群馬県,伊勢崎市,山王町１６５６番地４,,10,204,3720831,,,,,,,2025-10-08,1,,,,,ベースボールミュージック,0
508,2070003006143,新規,0,2025-10-08,2025-10-08,エリシャ日本合同会社,,合同会社,群馬県,邑楽郡千代田町,大字赤岩１８０４番地６,,10,523,3700503,,,,,,,2025-10-08,1,,,,,エリシャニッポン,0
509,2080001027181,新規,0,2025-10-08,2025-10-08,静岡ガスアスライフデザイン株式会社,,株式会社,静岡県,静岡市駿河区,八幡１丁目５番３８号,,22,102,4228076,,,,,,,2025-10-08,1,,,,,シズオカガスアスライフデザイン,0
510,2080001027207,新規,0,2025-10-08,2025-10-08,株式会社てくの,,株式会社,静岡県,静岡市葵区,北安東４丁目２８番３３－９号,,22,101,4200881,,,,,,,2025-10-08,1,,,,,テクノ,0
511,2080003003577,新規,0,2025-10-08,2025-10-08,ＷＡＴＲＹ合同会社,,合同会社,静岡県,静岡市葵区,内牧７５２番地の１,,22,101,4212118,,,,,,,2025-10-08,1,,,,,ワトリィ,0
512,2080103003444,新規,0,2025-10-08,2025-10-08,合同会社ＶＥＬＴ,,合同会社,静岡県,沼津市,原１１１９番地の１１,,22,203,4100312,,,,,,,2025-10-08,1,,,,,ヴェルト,0
519,2100001039026,新規,0,2025-10-08,2025-10-08,株式会社ＦＯＲＴＵＮＥ　ＴＲＥＥ,,株式会社,長野県,上田市,蒼久保１３４０番地,,20,203,3860155,,,,,,,2025-10-08,1,,,,,フォーチュントゥリー,0
520,2100003008425,新規,0,2025-10-08,2025-10-08,合同会社温ね撚る,,合同会社,長野県,須坂市,大字須坂６０５番地３,,20,207,3820911,,,,,,,2025-10-08,1,,,,,タズネヨル,0
521,2110001039636,新規,0,2025-10-08,2025-10-08,株式会社竜馬商事,,株式会社,新潟県,新潟市西区,寺尾台２丁目２番１６号,,15,107,9502063,,,,,,,2025-10-08,1,,,,,リュウマショウジ,0
524,2110003005917,新規,0,2025-10-08,2025-10-08,合同会社スイナラ,,合同会社,新潟県,上越市,北城町２丁目４番１０号,,15,222,9430824,,,,,,,2025-10-08,1,,,,,スイナラ,0
530,2120001280429,新規,0,2025-10-08,2025-10-08,富見株式会社,,株式会社,大阪府,大阪市淀川区,西宮原３丁目２番１号新大阪ビジネス第２ニッケンマンション３０２号,,27,123,5320004,,,,,,,2025-10-08,1,,,,,フミ,0
531,2120001280478,新規,0,2025-10-08,2025-10-08,株式会社ＳＯＰ,,株式会社,大阪府,大阪市中央区,東心斎橋１丁目９番２１－８０３号,,27,128,5420083,,,,,,,2025-10-08,1,,,,,エスオーピー,0
532,2120001280775,新規,0,2025-10-08,2025-10-08,合森株式会社,,株式会社,大阪府,大阪市西成区,松３丁目１１番２２－２１０号,,27,122,5570034,,,,,,,2025-10-08,1,,,,,ゴウシン,0
533,2120001280791,新規,0,2025-10-08,2025-10-08,株式会社アーストレックロボティクス,,株式会社,大阪府,大阪市西区,阿波座２丁目２番１８号,,27,106,5500011,,,,,,,2025-10-08,1,,,,,アーストレックロボティクス,0
538,2120101072569,新規,0,2025-10-08,2025-10-08,株式会社クロッシルリサーチ,,株式会社,大阪府,堺市中区,学園町１番１号,,27,142,5998231,,,,,,,2025-10-08,1,,,,,クロッシルリサーチ,0
539,2120101072577,新規,0,2025-10-08,2025-10-08,株式会社Ｂｕｅｎｏｓ,,株式会社,大阪府,松原市,南新町２丁目１番３１号,,27,217,5800023,,,,,,,2025-10-08,1,,,,,ブエノス,0
540,2120101072585,新規,0,2025-10-08,2025-10-08,株式会社Ｃｏｚｙ　Ｓｐａｃｅ,,株式会社,大阪府,堺市美原区,小寺６０－１－Ａ,,27,147,5870065,,,,,,,2025-10-08,1,,,,,コージースペース,0
541,2120103006731,新規,0,2025-10-08,2025-10-08,合同会社デザインエッジ,,合同会社,大阪府,貝塚市,麻生中１１５６番地１９,,27,208,5970081,,,,,,,2025-10-08,1,,,,,デザインエッジ,0
543,2120903005890,新規,0,2025-10-08,2025-10-08,合同会社Ｈ．Ｒ．Ｂ．Ａ,,合同会社,大阪府,豊中市,新千里東町１丁目４―１阪急千里中央ビル８Ｆ,,27,203,5600082,,,,,,,2025-10-08,1,,,,,エイチアールビーエー,0
547,2130001080687,新規,0,2025-10-08,2025-10-08,株式会社やまよび,,株式会社,京都府,京都市伏見区,桃山長岡越中南町７３番地,,26,109,6120058,,,,,,,2025-10-08,1,,,,,ヤマヨビ,0
548,2130001080737,新規,0,2025-10-08,2025-10-08,ＨＫホールディングス株式会社,,株式会社,京都府,京都市右京区,西京極北庄境町２７の１,,26,108,6150802,,,,,,,2025-10-08,1,,,,,エイチケイホールディングス,0
551,2130003010832,新規,0,2025-10-08,2025-10-08,合同会社アプリコット,,合同会社,京都府,亀岡市,南つつじケ丘桜台２丁目７番地９号,,26,206,6210847,,,,,,,2025-10-08,1,,,,,アプリコット,0
553,2140001140226,新規,0,2025-10-08,2025-10-08,株式会社山崎商店,,株式会社,兵庫県,明石市,藤江２０２９番地の１明石市公設地方卸売市場内,,28,203,6730044,,,,,,,2025-10-08,1,,,,,ヤマサキショウテン,0
554,2140001140259,新規,0,2025-10-08,2025-10-08,Ｔｈｅ　Ｒｅｊｏｉｃｅ　Ｍａｒｋｅｔｉｎｇ株式会社,,株式会社,兵庫県,神戸市中央区,御幸通８丁目１－６神戸国際会館２２Ｆ,,28,110,6510087,,,,,,,2025-10-08,1,,,,,リジョイスマーケティング,0
555,2140001140267,新規,0,2025-10-08,2025-10-08,株式会社松助,,株式会社,兵庫県,姫路市,古二階町７番地２０１,,28,201,6700936,,,,,,,2025-10-08,1,,,,,マツスケ,0
556,2140001140275,新規,0,2025-10-08,2025-10-08,株式会社ウエスト姫路,,株式会社,兵庫県,姫路市,三左衛門堀西の町３９番地１,,28,201,6700940,,,,,,,2025-10-08,1,,,,,ウエストヒメジ,0
557,2140001140300,新規,0,2025-10-08,2025-10-08,永山勝敏レーシング株式会社,,株式会社,兵庫県,神戸市中央区,下山手通３丁目１０番１４号,,28,110,6500011,,,,,,,2025-10-08,1,,,,,ナガヤマカツトシレーシング,0
561,2140003022678,新規,0,2025-10-08,2025-10-08,合同会社ＧＩＦＴｏＣ,,合同会社,兵庫県,伊丹市,寺本４丁目６４番地１６－６０５号,,28,207,6640026,,,,,,,2025-10-08,1,,,,,ギフトック,0
571,2180001168882,新規,0,2025-10-08,2025-10-08,株式会社清水工業,,株式会社,愛知県,岩倉市,大山寺町前畑５番地,,23,228,4820014,,,,,,,2025-10-08,1,,,,,シミズコウギョウ,0
572,2180001168890,新規,0,2025-10-08,2025-10-08,株式会社ミリオン,,株式会社,愛知県,一宮市,大赤見字才勝２５番地１,,23,203,4910015,,,,,,,2025-10-08,1,,,,,ミリオン,0
573,2180001168908,新規,0,2025-10-08,2025-10-08,株式会社ル・シャトレ寺島,,株式会社,愛知県,長久手市,五合池７３５番地,,23,238,4801156,,,,,,,2025-10-08,1,,,,,ルシャトレテラシマ,0
574,2180001168916,新規,0,2025-10-08,2025-10-08,株式会社ｅｎｎｅ,,株式会社,愛知県,春日井市,松本町１丁目３番地１６,,23,206,4870027,,,,,,,2025-10-08,1,,,,,エン,0
575,2180001168957,新規,0,2025-10-08,2025-10-08,株式会社ＬＩＶＥＬＹ　ＬＩＦＥ,,株式会社,愛知県,名古屋市中村区,名駅５丁目４番１４号,,23,105,4500002,,,,,,,2025-10-08,1,,,,,ライブリーライフ,0
576,2180001168965,新規,0,2025-10-08,2025-10-08,福田エステート株式会社,,株式会社,愛知県,名古屋市西区,大金町３丁目５８番地メゾンドエム２Ｃ号室,,23,104,4510082,,,,,,,2025-10-08,1,,,,,フクタエステート,0
577,2180001168973,新規,0,2025-10-08,2025-10-08,株式会社日喜屋,,株式会社,愛知県,名古屋市西区,那古野１丁目２１番２１号,,23,104,4510042,,,,,,,2025-10-08,1,,,,,ヒヨシヤ,0
581,2180003029190,新規,0,2025-10-08,2025-10-08,さくら建設合同会社,,合同会社,愛知県,江南市,島宮町水堀８７番地,,23,217,4838268,,,,,,,2025-10-08,1,,,,,サクラケンセツ,0
586,2180301040312,新規,0,2025-10-08,2025-10-08,株式会社ＳＡＭ,,株式会社,愛知県,豊田市,三軒町１丁目２番地,,23,211,4710037,,,,,,,2025-10-08,1,,,,,エスエーエム,0
590,2190001032591,新規,0,2025-10-08,2025-10-08,株式会社リッチスペース,,株式会社,三重県,鈴鹿市,白子４丁目６番１６号,,24,207,5100243,,,,,,,2025-10-08,1,,,,,リッチスペース,0
591,2200001044296,新規,0,2025-10-08,2025-10-08,株式会社グランツコンサルティング,,株式会社,岐阜県,瑞浪市,松ヶ瀬町４丁目２８番地の２,,21,208,5096134,,,,,,,2025-10-08,1,,,,,グランツコンサルティング,0
596,2220001026961,新規,0,2025-10-08,2025-10-08,株式会社スペースシステムズエステート,,株式会社,石川県,小松市,泉町２番地,,17,203,9230901,,,,,,,2025-10-08,1,,,,,スペースシステムズエステート,0
600,2240001065628,新規,0,2025-10-08,2025-10-08,ハイフィールド株式会社,,株式会社,広島県,安芸高田市,高宮町原田１５９６番地３５,,34,214,7391805,,,,,,,2025-10-08,1,,,,,ハイフィールド,0
602,2240003007438,新規,0,2025-10-08,2025-10-08,合同会社ｆｌａｔ　ｐｌｕｓ,,合同会社,広島県,広島市安佐北区,落合南３丁目１３番３７号,,34,106,7391732,,,,,,,2025-10-08,1,,,,,フラットプラス,0
603,2250001021373,新規,0,2025-10-08,2025-10-08,株式会社ＹＵＭＥ,,株式会社,山口県,宇部市,大字東岐波２２３番地,,35,202,7550241,,,,,,,2025-10-08,1,,,,,ユメ,0
606,2260005011527,新規,0,2025-10-08,2025-10-08,一般社団法人Ｌｕｍｏｓ,,その他の設立登記法人,岡山県,倉敷市,老松町３丁目５番１５号スマイリービル３階,,33,202,7100826,,,,,,,2025-10-08,1,,,,,ルーモス,0
612,2290001111591,新規,0,2025-10-08,2025-10-08,Ｌａ　ＭＵＳＥ株式会社,,株式会社,福岡県,福岡市博多区,博多駅前１丁目２３番２号ＰａｒｋＦｒｏｎｔ博多駅前一丁目５Ｆ－Ｂ,,40,132,8120011,,,,,,,2025-10-08,1,,,,,ラミューズ,0
619,2290003017449,新規,0,2025-10-08,2025-10-08,ＡＲＩＴＯＮ合同会社,,合同会社,福岡県,福岡市中央区,天神２丁目１１番１号福岡ＰＡＲＣＯ新館５Ｆ,,40,133,8100001,,,,,,,2025-10-08,1,,,,,アリトン,0
620,2290003017548,新規,0,2025-10-08,2025-10-08,合同会社Ｍａｒｓ,,合同会社,福岡県,福岡市博多区,中洲４丁目１－２８ＣＡＮＮＡＲＹ人形小路１０１,,40,132,8100801,,,,,,,2025-10-08,1,,,,,マーズ,0
624,2290801031898,新規,0,2025-10-08,2025-10-08,株式会社ＭＵＨ,,株式会社,福岡県,田川郡糸田町,１８１０番地１１,,40,604,8221300,,,,,,,2025-10-08,1,,,,,エムユーエイチ,0
626,2310001019816,新規,0,2025-10-08,2025-10-08,株式会社Ｎｅｘｉ,,株式会社,長崎県,諫早市,野中町５２４番地２２,,42,204,8540047,,,,,,,2025-10-08,1,,,,,ネクシ,0
628,2310003005095,新規,0,2025-10-08,2025-10-08,合同会社ＫＡＳＵＭＩＮ,,合同会社,長崎県,長崎市,上町４番３７号Ｕ－フラット４０２,,42,201,8500054,,,,,,,2025-10-08,1,,,,,カスミン,0
629,2310003005104,新規,0,2025-10-08,2025-10-08,合同会社ＤＡＩＳＥＮ,,合同会社,長崎県,五島市,玉之浦町中須２１７番地１,,42,211,8530505,,,,,,,2025-10-08,1,,,,,ダイセン,0
631,2320001021382,新規,0,2025-10-08,2025-10-08,株式会社ＨＡＲＢＯＲ　ＮＥＳＴ,,株式会社,大分県,大分市,府内町１丁目２番２号大分トレンドビル２Ｆ,,44,201,8700021,,,,,,,2025-10-08,1,,,,,ハーバーネスト,0
635,2330001033633,新規,0,2025-10-08,2025-10-08,水本農園株式会社,,株式会社,熊本県,玉名市,横島町共栄５０番地,,43,206,8650073,,,,,,,2025-10-08,1,,,,,ミズモトノウエン,0
639,2330003011249,新規,0,2025-10-08,2025-10-08,ＮＥＵＴＲＡＬ合同会社,,合同会社,熊本県,八代市,横手町１６７５番地１,,43,202,8660873,,,,,,,2025-10-08,1,,,,,ニュートラル,0
640,2330003011257,新規,0,2025-10-08,2025-10-08,合同会社ソルトムーン・インベストメンツ,,合同会社,熊本県,熊本市東区,昭和町１８‐１９,,43,102,8612108,,,,,,,2025-10-08,1,,,,,ソルトムーンインベストメンツ,0
645,2360001035890,新規,0,2025-10-08,2025-10-08,株式会社西平設備興業,,株式会社,沖縄県,中頭郡北谷町,字桑江４６９番地１６キタヒルズ１０２,,47,326,9040103,,,,,,,2025-10-08,1,,,,,ニシヒラセツビコウギョウ,0
661,2430001095382,新規,0,2025-10-08,2025-10-08,スマイルネクスト株式会社,,株式会社,北海道,小樽市,奥沢１丁目３番１７号,,01,203,0470013,,,,,,,2025-10-08,1,,,,,スマイルネクスト,0
664,2450001014745,新規,0,2025-10-08,2025-10-08,株式会社滝上産業,,株式会社,北海道,紋別郡滝上町,字オシラネップ原野１５７９番地の５,,01,560,0995600,,,,,,,2025-10-08,1,,,,,タキノウエサンギョウ,0
666,2470003002993,新規,0,2025-10-08,2025-10-08,合同会社まほろばの杜,,合同会社,香川県,高松市,小村町６３５番地９,,37,201,7610431,,,,,,,2025-10-08,1,,,,,,0
667,2490001011177,新規,0,2025-10-08,2025-10-08,株式会社リザルトサービスマネジメント,,株式会社,高知県,高知市,大津甲２００５番地３１,,39,201,7815102,,,,,,,2025-10-08,1,,,,,リザルトサービスマネジメント,0
669,2500001026561,新規,0,2025-10-08,2025-10-08,株式会社まつしま,,株式会社,愛媛県,松山市,勝岡町１１９番地３,,38,201,7992661,,,,,,,2025-10-08,1,,,,,マツシマ,0
691,3010001258815,新規,0,2025-10-08,2025-10-08,タミヤファーム株式会社,,株式会社,東京都,中央区,日本橋兜町１７番１号　日本橋ロイヤルプラザ７０６,,13,102,1030026,,,,,,,2025-10-08,1,,,,,タミヤファーム,0
692,3010001259160,新規,0,2025-10-08,2025-10-08,Ｄａｌｔｕｔｈ株式会社,,株式会社,東京都,文京区,小石川１丁目３番１１号ライジングプラザ後楽園７階,,13,105,1120002,,,,,,,2025-10-08,1,,,,,ダルタス,0
693,3010001259193,新規,0,2025-10-08,2025-10-08,ＭＳＤ企業投資Ｃ号株式会社,,株式会社,東京都,千代田区,大手町１丁目９番２号,,13,101,1000004,,,,,,,2025-10-08,1,,,,,エムエスディーキギョウトウシシーゴウ,0
694,3010001259202,新規,0,2025-10-08,2025-10-08,株式会社謙和,,株式会社,東京都,中央区,日本橋蛎殻町２丁目１２番８号栗原ビル２階,,13,102,1030014,,,,,,,2025-10-08,1,,,,,ケンワ,0
697,3010003048966,新規,0,2025-10-08,2025-10-08,今金ウインド合同会社,,合同会社,東京都,千代田区,永田町２丁目１１番１号山王パークタワー２１階,,13,101,1000014,,,,,,,2025-10-08,1,,,,,イマカネウインド,0
702,3010005040764,新規,0,2025-10-08,2025-10-08,一般社団法人粕屋インベストメント,,その他の設立登記法人,東京都,千代田区,丸の内１丁目４番１号東京共同会計事務所内,,13,101,1000005,,,,,,,2025-10-08,1,,,,,カスヤインベストメント,0
716,3010401191582,新規,0,2025-10-08,2025-10-08,株式会社ＥｉｇｈｔＶａｎｃｅ,,株式会社,東京都,港区,北青山１丁目３‐３,,13,103,1070061,,,,,,,2025-10-08,1,,,,,エイトバンス,0
717,3010401193380,新規,0,2025-10-08,2025-10-08,Ａｌｍｅｄｉｃａｌ株式会社,,株式会社,東京都,港区,新橋６丁目２番８号コンシェリア芝公園Ｄ’ｓ１５０１号室,,13,103,1050004,,,,,,,2025-10-08,1,,,,,アルメディカル,0
718,3010401193587,新規,0,2025-10-08,2025-10-08,株式会社ヒューマンアド,,株式会社,東京都,港区,芝２丁目２番１２号５階,,13,103,1050014,,,,,,,2025-10-08,1,,,,,ヒューマンアド,0
721,3010403036083,新規,0,2025-10-08,2025-10-08,ンメソマ合同会社,,合同会社,東京都,港区,六本木４丁目１番２－２Ｆ,,13,103,1060032,,,,,,,2025-10-08,1,,,,,,0
722,3010403036216,新規,0,2025-10-08,2025-10-08,Ｆｒｅｎｃｈｉｅ　Ｃｒｅｗ合同会社,,合同会社,東京都,港区,六本木３丁目１６番１２号六本木ＫＳビル５Ｆ,,13,103,1060032,,,,,,,2025-10-08,1,,,,,フレンチクルー,0
726,3010501054838,新規,0,2025-10-08,2025-10-08,スリーエレファンツ株式会社,,株式会社,東京都,台東区,下谷２丁目１９番５号,,13,106,1100004,,,,,,,2025-10-08,1,,,,,スリーエレファンツ,0
727,3010503008032,新規,0,2025-10-08,2025-10-08,クーブ合同会社,,合同会社,東京都,台東区,台東２丁目７番６号,,13,106,1100016,,,,,,,2025-10-08,1,,,,,クーブ,0
733,3010601068119,新規,0,2025-10-08,2025-10-08,ＴａｇｉＪａｐａｎ株式会社,,株式会社,東京都,江東区,北砂３丁目２８番１号不動コーポ４０５号室,,13,108,1360073,,,,,,,2025-10-08,1,,,,,タギジャパン,0
740,3010701048391,新規,0,2025-10-08,2025-10-08,株式会社ミカエル,,株式会社,東京都,品川区,上大崎１丁目１番１７号プライムメゾン白金台タワー１５階,,13,109,1410021,,,,,,,2025-10-08,1,,,,,ミカエル,0
741,3010803005571,新規,0,2025-10-08,2025-10-08,合同会社ＧＯＮ,,合同会社,東京都,大田区,蒲田５丁目１９－１第八村上ビル２階,,13,111,1440052,,,,,,,2025-10-08,1,,,,,ゴン,0
743,3010901058208,新規,0,2025-10-08,2025-10-08,アジャイルユナイテッドデジタル株式会社,,株式会社,東京都,世田谷区,松原５丁目４７番３号ベルエア東松原３０１,,13,112,1560043,,,,,,,2025-10-08,1,,,,,アジャイルユナイテッドデジタル,0
744,3010901058224,新規,0,2025-10-08,2025-10-08,株式会社麗櫻,,株式会社,東京都,世田谷区,大原２丁目２８番３号サカエ代田橋マンション１０３号室,,13,112,1560041,,,,,,,2025-10-08,1,,,,,レイオウ,0
750,3011001172312,新規,0,2025-10-08,2025-10-08,株式会社奉優会コンサルティング,,株式会社,東京都,目黒区,駒場１丁目８－５－１０２,,13,110,1530041,,,,,,,2025-10-08,1,,,,,ホウユウカイコンサルティング,0
751,3011001172527,新規,0,2025-10-08,2025-10-08,株式会社モティオ,,株式会社,東京都,渋谷区,道玄坂１丁目１０番８号渋谷道玄坂東急ビル２Ｆ－Ｃ,,13,113,1500043,,,,,,,2025-10-08,1,,,,,モティオ,0
752,3011001172551,新規,0,2025-10-08,2025-10-08,株式会社ＹＯＥＮＣＯ,,株式会社,東京都,渋谷区,千駄ヶ谷１丁目１１番１４号ビジデンス千駄ヶ谷５０２,,13,113,1510051,,,,,,,2025-10-08,1,,,,,ヨエンコ,0
753,3011001172642,新規,0,2025-10-08,2025-10-08,株式会社ＬＹパートナーズ,,株式会社,東京都,渋谷区,道玄坂１丁目１０番８号渋谷道玄坂東急ビル２Ｆ－Ｃ,,13,113,1500043,,,,,,,2025-10-08,1,,,,,エルワイパートナーズ,0
754,3011001173054,新規,0,2025-10-08,2025-10-08,Ｏｎｆｆ株式会社,,株式会社,東京都,渋谷区,広尾１丁目２番地１号ヒカリビル４階,,13,113,1500012,,,,,,,2025-10-08,1,,,,,オンフ,0
755,3011001173070,新規,0,2025-10-08,2025-10-08,株式会社リシーボ,,株式会社,東京都,渋谷区,渋谷２丁目１９番１５号宮益坂ビルディング６０９,,13,113,1500002,,,,,,,2025-10-08,1,,,,,リシーボ,0
757,3011003022449,新規,0,2025-10-08,2025-10-08,ＢＬＵＥＧＲＥＥＮ合同会社,,合同会社,東京都,渋谷区,神宮前６丁目２３番４号桑野ビル２階,,13,113,1500001,,,,,,,2025-10-08,1,,,,,ブルーグリーン,0
758,3011003022507,新規,0,2025-10-08,2025-10-08,合同会社Ｍｉｒａｃｔ,,合同会社,東京都,渋谷区,道玄坂１丁目１０番８号渋谷道玄坂東急ビル２Ｆ－Ｃ,,13,113,1500043,,,,,,,2025-10-08,1,,,,,ミラクト,0
759,3011003022746,新規,0,2025-10-08,2025-10-08,Ｔ＆Ｃ　Ｃａｐｉｔａｌ合同会社,,合同会社,東京都,目黒区,中目黒５丁目３番１６号,,13,110,1530061,,,,,,,2025-10-08,1,,,,,ティーアンドシーキャピタル,0
762,3011005011202,新規,0,2025-10-08,2025-10-08,一般社団法人日本住宅監査機構,,その他の設立登記法人,東京都,目黒区,下目黒１丁目１番１４号コノトラビル７Ｆ,,13,110,1530064,,,,,,,2025-10-08,1,,,,,ニホンジュウタクカンサキコウ,0
764,3011101113513,新規,0,2025-10-08,2025-10-08,株式会社Ｌｉｏｎ　Ｆｉｒｓｔ,,株式会社,東京都,新宿区,西新宿３丁目３番１３号西新宿水間ビル６階,,13,104,1600023,,,,,,,2025-10-08,1,,,,,リオンファースト,0
766,3011105011622,新規,0,2025-10-08,2025-10-08,ファイブグッド社会保険労務士法人,,その他の設立登記法人,東京都,新宿区,新宿４丁目３番１７号,,13,104,1600022,,,,,,,2025-10-08,1,,,,,ファイブグッド,0
769,3011201026706,新規,0,2025-10-08,2025-10-08,株式会社ステラアセットリビング,,株式会社,東京都,中野区,野方２丁目４番６－７０５号,,13,114,1650027,,,,,,,2025-10-08,1,,,,,ステラアセットリビング,0
772,3011503006728,新規,0,2025-10-08,2025-10-08,合同会社サンスプリング,,合同会社,東京都,北区,王子４丁目１５番１号,,13,117,1140002,,,,,,,2025-10-08,1,,,,,サンスプリング,0
773,3011601029036,新規,0,2025-10-08,2025-10-08,ＴＭＳ　ＩＮＶＥＳＴＭＥＮＴ株式会社,,株式会社,東京都,練馬区,桜台１丁目７番７号４階,,13,120,1760002,,,,,,,2025-10-08,1,,,,,ティーエムエスインベストメント,0
778,3011801046863,新規,0,2025-10-08,2025-10-08,株式会社Ｓｅｃｏｎｄ　Ｖｉｌｌａｇｅ,,株式会社,東京都,葛飾区,新小岩１丁目５４番９号富士ハイム３０２,,13,122,1240024,,,,,,,2025-10-08,1,,,,,セカンドビレッジ,0
779,3011801046871,新規,0,2025-10-08,2025-10-08,株式会社ＣＷＰ,,株式会社,東京都,葛飾区,東新小岩３丁目１番５－１０２号,,13,122,1240023,,,,,,,2025-10-08,1,,,,,シーダブリューピー,0
784,3012401043656,新規,0,2025-10-08,2025-10-08,ＭＴＫインベストメント株式会社,,株式会社,東京都,三鷹市,新川６丁目３番１０号４０５,,13,204,1810004,,,,,,,2025-10-08,1,,,,,エムティーケーインベストメント,0
785,3012401043672,新規,0,2025-10-08,2025-10-08,ひとひら株式会社,,株式会社,東京都,府中市,美好町３丁目４―２分倍河原フラッツ３０２,,13,206,1830045,,,,,,,2025-10-08,1,,,,,ヒトヒラ,0
787,3012703003382,新規,0,2025-10-08,2025-10-08,合同会社ｕｎｅ　ｂｒｉｓｅ,,合同会社,東京都,東久留米市,前沢１丁目４番２９号,,13,222,2030032,,,,,,,2025-10-08,1,,,,,ユヌブリーズ,0
788,3012705002481,新規,0,2025-10-08,2025-10-08,一般社団法人Ｋｉｒａｔ　Ｙａｋｔｈｕｎｇ　Ｃｈｕｍｌｕｎｇ　Ｊａｐａｎ,,その他の設立登記法人,東京都,東村山市,美住町１丁目３番地美住町一丁目第２アパート２－１０３,,13,213,1890023,,,,,,,2025-10-08,1,,,,,キラトヤクスラングチャムラングジャパン,0
796,3013301055114,新規,0,2025-10-08,2025-10-08,株式会社Ｅｌ　Ｐｕｅｎｔｅ,,株式会社,東京都,豊島区,東池袋４丁目３７番１号ブランズ東池袋５０６号,,13,116,1700013,,,,,,,2025-10-08,1,,,,,エルプエンテ,0
798,3013303007914,新規,0,2025-10-08,2025-10-08,合同会社Ｈｉｂｉ,,合同会社,東京都,豊島区,南長崎２丁目２１番９号オーシャンナイン２０４号,,13,116,1710052,,,,,,,2025-10-08,1,,,,,ハイビ,0
801,3020001165135,新規,0,2025-10-08,2025-10-08,株式会社友一,,株式会社,神奈川県,川崎市川崎区,貝塚１丁目４番１７号グランドコート川崎１０２,,14,131,2100014,,,,,,,2025-10-08,1,,,,,トモイチ,0
813,3020003029544,新規,0,2025-10-08,2025-10-08,合同会社ルピナス,,合同会社,神奈川県,横浜市都筑区,牛久保東１丁目１２番７号,,14,118,2240014,,,,,,,2025-10-08,1,,,,,ルピナス,0
817,3021001086420,新規,0,2025-10-08,2025-10-08,株式会社ＲＡＵ,,株式会社,神奈川県,相模原市中央区,千代田１丁目６－８オアシス相模原ビル３０３号室,,14,152,2520237,,,,,,,2025-10-08,1,,,,,ラウ,0
818,3021001086478,新規,0,2025-10-08,2025-10-08,ＮＹＡＮＫＯ　ＧＲＯＵＰ株式会社,,株式会社,神奈川県,大和市,中央２丁目２番５号横山ビル３０１,,14,213,2420021,,,,,,,2025-10-08,1,,,,,ニャンコグループ,0
819,3021001086486,新規,0,2025-10-08,2025-10-08,株式会社吉川工業,,株式会社,神奈川県,相模原市中央区,田名２９５４番地１０,,14,152,2520244,,,,,,,2025-10-08,1,,,,,ヨシカワコウギョウ,0
826,3030001168995,新規,0,2025-10-08,2025-10-08,榎本造園土木株式会社,,株式会社,埼玉県,新座市,馬場４丁目１２番５号,,11,230,3520016,,,,,,,2025-10-08,1,,,,,エノモトゾウエンドボク,0
827,3030001169003,新規,0,2025-10-08,2025-10-08,株式会社杉本設備,,株式会社,埼玉県,新座市,野火止４丁目１番３０号,,11,230,3520011,,,,,,,2025-10-08,1,,,,,スギモトセツビ,0
828,3030001169069,新規,0,2025-10-08,2025-10-08,株式会社ＬＩＮＫ,,株式会社,埼玉県,熊谷市,樋春１９８１番地１９,00140996,11,202,3600112,,,,,,,2025-10-08,1,,,,,リンク,0
829,3030001169085,新規,0,2025-10-08,2025-10-08,株式会社ヒューマテリアル,,株式会社,埼玉県,川口市,三ツ和１丁目２４番１５号,,11,203,3340011,,,,,,,2025-10-08,1,,,,,ヒューマテリアル,0
830,3030001169110,新規,0,2025-10-08,2025-10-08,株式会社真・永井工務店,,株式会社,埼玉県,川越市,石原町２丁目２４番地４２,,11,201,3500824,,,,,,,2025-10-08,1,,,,,シンナガイコウムテン,0
837,3030003027811,新規,0,2025-10-08,2025-10-08,合同会社９８２２,,合同会社,埼玉県,比企郡小川町,大字高見１３４番地,,11,343,3550306,,,,,,,2025-10-08,1,,,,,キュウハチニーニー,0
838,3030003027836,新規,0,2025-10-08,2025-10-08,合同会社ＤｏＷｅＬＬ,,合同会社,埼玉県,加須市,北下新井１５５番地１グリチネＢ２０１号室,,11,210,3491134,,,,,,,2025-10-08,1,,,,,ドゥウエル,0
840,3030005022298,新規,0,2025-10-08,2025-10-08,医療法人社団章美会,,その他の設立登記法人,埼玉県,さいたま市緑区,大字大門１７４６番地１階,,11,109,3360963,,,,,,,2025-10-08,1,,,,,ショウビカイ,0
842,3040001140887,新規,0,2025-10-08,2025-10-08,株式会社ＣｏｒｅＬｉｎｋ,,株式会社,千葉県,市原市,五井８９８１番地,,12,219,2900056,,,,,,,2025-10-08,1,,,,,コアリンク,0
845,3040003028651,新規,0,2025-10-08,2025-10-08,合同会社ヨシダ,,合同会社,千葉県,市川市,本北方２丁目３７番８号,,12,203,2720816,,,,,,,2025-10-08,1,,,,,ヨシダ,0
847,3050001057395,新規,0,2025-10-08,2025-10-08,麺の杜株式会社,,株式会社,茨城県,小美玉市,手堤１９８番地,,08,236,3190136,,,,,,,2025-10-08,1,,,,,メンノモリ,0
848,3050001057412,新規,0,2025-10-08,2025-10-08,株式会社クレストファクトリー,,株式会社,茨城県,神栖市,波崎３９６番地,,08,232,3140408,,,,,,,2025-10-08,1,,,,,クレストファクトリー,0
849,3050003009667,新規,0,2025-10-08,2025-10-08,合同会社兎独のグルメ,,合同会社,茨城県,古河市,水海３００４番地フォレスト１０４,,08,204,3060215,,,,,,,2025-10-08,1,,,,,トドクノグルメ,0
855,3060001038667,新規,0,2025-10-08,2025-10-08,株式会社横田いちご園,,株式会社,栃木県,真岡市,横田１２５３番地,,09,209,3214501,,,,,,,2025-10-08,1,,,,,ヨコタイチゴエン,0
856,3070001043435,新規,0,2025-10-08,2025-10-08,株式会社亀井,,株式会社,群馬県,伊勢崎市,野町５４番地,,10,204,3792205,,,,,,,2025-10-08,1,,,,,カメイ,0
865,3080103003435,新規,0,2025-10-08,2025-10-08,Ｈｕｓｋ合同会社,,合同会社,静岡県,富士宮市,大宮町１２―１０,,22,207,4180066,,,,,,,2025-10-08,1,,,,,ハスク,0
877,3120001280592,新規,0,2025-10-08,2025-10-08,株式会社ＧＬＯＷ,,株式会社,大阪府,門真市,末広町３６番２０号,,27,223,5710030,,,,,,,2025-10-08,1,,,,,グロウ,0
878,3120001280774,新規,0,2025-10-08,2025-10-08,合成株式会社,,株式会社,大阪府,大阪市西成区,松３丁目１１番２２－２０９号,,27,122,5570034,,,,,,,2025-10-08,1,,,,,ゴウセイ,0
888,3120103006763,新規,0,2025-10-08,2025-10-08,合同会社三田総合事務所,,合同会社,大阪府,堺市南区,城山台１丁１８番５３－４０８号,,27,145,5900137,,,,,,,2025-10-08,1,,,,,ミタソウゴウジムショ,0
889,3120103006771,新規,0,2025-10-08,2025-10-08,合同会社Ｓｏｌｉｓ,,合同会社,大阪府,岸和田市,岡山町１７８番地の８－３０２,,27,202,5960814,,,,,,,2025-10-08,1,,,,,ソリス,0
891,3130001080703,新規,0,2025-10-08,2025-10-08,株式会社丸益西村屋,,株式会社,京都府,京都市中京区,壺屋町４４６番地,,26,104,6048255,,,,,,,2025-10-08,1,,,,,マルマスニシムラヤ,0
892,3130001080728,新規,0,2025-10-08,2025-10-08,鈴蘭堂株式会社,,株式会社,京都府,京都市下京区,七条通油小路東入大黒町２２７番地第２キョートビル４０２,,26,106,6008223,,,,,,,2025-10-08,1,,,,,スズランドウ,0
893,3130001080744,新規,0,2025-10-08,2025-10-08,ナカイ建設株式会社,,株式会社,京都府,京都市右京区,西院高田町２４番地,,26,108,6150031,,,,,,,2025-10-08,1,,,,,ナカイケンセツ,0
897,3130003010856,新規,0,2025-10-08,2025-10-08,Ｂａｄｖｅｒｔｉｓｉｎｇ合同会社,,合同会社,京都府,京都市東山区,今熊野南日吉町１１１－１６,,26,105,6050953,,,,,,,2025-10-08,1,,,,,バドヴァタイジング,0
902,3140001140217,新規,0,2025-10-08,2025-10-08,株式会社桑原工業,,株式会社,兵庫県,加古川市,尾上町長田５１７番地の１８３,,28,210,6750024,,,,,,,2025-10-08,1,,,,,クワハラコウギョウ,0
905,3140003022669,新規,0,2025-10-08,2025-10-08,合同会社真友,,合同会社,兵庫県,川西市,東多田１丁目７番２９号,,28,217,6660122,,,,,,,2025-10-08,1,,,,,シンユウ,0
921,3180003029181,新規,0,2025-10-08,2025-10-08,ＹＧメンテナンス合同会社,,合同会社,愛知県,長久手市,山越３１５番地,,23,238,4801111,,,,,,,2025-10-08,1,,,,,ワイジーメンテナンス,0
922,3180005021252,新規,0,2025-10-08,2025-10-08,特定非営利活動法人ｙｏｏＴＨ,,その他の設立登記法人,愛知県,名古屋市天白区,原１丁目５０２番地ライオンズマンション原駅３‐１２号,,23,116,4680015,,,,,,,2025-10-08,1,,,,,ユース,0
923,3180005021269,新規,0,2025-10-08,2025-10-08,税理士法人加藤会計事務所,,その他の設立登記法人,愛知県,瀬戸市,宮里町１番地,,23,204,4890077,,,,,,,2025-10-08,1,,,,,カトウカイケイジムショ,0
925,3180301040253,新規,0,2025-10-08,2025-10-08,株式会社ヒコサン,,株式会社,愛知県,豊橋市,東岩田１丁目１８番地７ルノン宮Ａ,,23,201,4400033,,,,,,,2025-10-08,1,,,,,ヒコサン,0
926,3180303006764,新規,0,2025-10-08,2025-10-08,合同会社アドバンシング,,合同会社,愛知県,豊田市,竹生町３丁目４１番地,,23,211,4710077,,,,,,,2025-10-08,1,,,,,アドバンシング,0
928,3190001032590,新規,0,2025-10-08,2025-10-08,株式会社フジヤマ,,株式会社,三重県,桑名市,大字大福３２６番地,,24,205,5110834,,,,,,,2025-10-08,1,,,,,フジヤマ,0
929,3190001032599,新規,0,2025-10-08,2025-10-08,株式会社ＫＩメディカル,,株式会社,三重県,いなべ市,員弁町石仏１９０６番地４,,24,214,5110204,,,,,,,2025-10-08,1,,,,,ケイアイメディカル,0
930,3190003005215,新規,0,2025-10-08,2025-10-08,合同会社ＲＯＸ　ＲＡＣＩＮＧ,,合同会社,三重県,名張市,滝之原２６番地１号,,24,208,5180411,,,,,,,2025-10-08,1,,,,,ロックスレーシング,0
931,3200001044320,新規,0,2025-10-08,2025-10-08,株式会社ＭＵＨＡＭＭＡＤ　ＩＮＴＥＲＮＡＴＩＯＮＡＬ,,株式会社,岐阜県,岐阜市,今川７２番地６,,21,201,5011114,,,,,,,2025-10-08,1,,,,,ムハマドインターナショナル,0
940,3240003007437,新規,0,2025-10-08,2025-10-08,合同会社ブルーアートゲストハウス,,合同会社,広島県,山県郡北広島町,大朝２４２６－２,,34,369,7312104,,,,,,,2025-10-08,1,,,,,ブルーアートゲストハウス,0
950,3260005011526,新規,0,2025-10-08,2025-10-08,一般財団法人石井滋久記念財団,,その他の設立登記法人,岡山県,岡山市北区,野田３丁目１２番３３号,,33,101,7000971,,,,,,,2025-10-08,1,,,,,イシイシゲヒサキネンザイダン,0
958,3290001111558,新規,0,2025-10-08,2025-10-08,栗原建設工業株式会社,,株式会社,福岡県,八女郡広川町,大字新代７９８番地２,,40,544,8340115,,,,,,,2025-10-08,1,,,,,クリハラケンセツコウギョウ,0
959,3290001111582,新規,0,2025-10-08,2025-10-08,株式会社トラスト,,株式会社,福岡県,福岡市中央区,大濠２丁目１３番２８－３０１号,,40,133,8100052,,,,,,,2025-10-08,1,,,,,トラスト,0
960,3290001111707,新規,0,2025-10-08,2025-10-08,株式会社ＨＥＲＴ,,株式会社,福岡県,古賀市,天神６丁目７番１２号,,40,223,8113101,,,,,,,2025-10-08,1,,,,,ヒート,0
961,3290001111731,新規,0,2025-10-08,2025-10-08,株式会社外構プロ,,株式会社,福岡県,福岡市東区,和白丘２丁目２番６３号２Ｆ,,40,131,8110213,,,,,,,2025-10-08,1,,,,,ガイコウプロ,0
963,3290003017480,新規,0,2025-10-08,2025-10-08,合同会社宵灯,,合同会社,福岡県,福岡市中央区,清川１丁目１１－９ステイツ天神南４０１号室,,40,133,8100005,,,,,,,2025-10-08,1,,,,,ヨイアカリ,0
964,3290003017489,新規,0,2025-10-08,2025-10-08,合同会社ＭＩＮＯＲＩＴＹ,,合同会社,福岡県,福岡市東区,若宮５丁目２０番３号,,40,131,8130036,,,,,,,2025-10-08,1,,,,,マイノリティー,0
966,3300002011771,新規,0,2025-10-08,2025-10-08,有限会社鹿島家具センター,,有限会社,佐賀県,鹿島市,大字高津原４４１９番地１,,41,207,8491311,,,,,,,2025-10-08,1,,,,,,0
968,3310001019815,新規,0,2025-10-08,2025-10-08,株式会社明和産業,,株式会社,長崎県,諫早市,小長井町打越８００番地１２,,42,204,8590151,,,,,,,2025-10-08,1,,,,,メイワサンギョウ,0
971,3320001021381,新規,0,2025-10-08,2025-10-08,株式会社エイトワン,,株式会社,大分県,速見郡日出町,大字川崎４６５番地５ライジングサン河野２０３,,44,341,8791505,,,,,,,2025-10-08,1,,,,,エイトワン,0
978,3320003004789,新規,0,2025-10-08,2025-10-08,ＰＬＵＭＥ合同会社,,合同会社,大分県,別府市,上人本町１番１９号,,44,202,8740032,,,,,,,2025-10-08,1,,,,,プリュム,0
980,3330001033649,新規,0,2025-10-08,2025-10-08,株式会社中村興業,,株式会社,熊本県,熊本市南区,城南町永１０６０番地,,43,104,8614234,,,,,,,2025-10-08,1,,,,,ナカムラコウギョウ,0
985,3340001027690,新規,0,2025-10-08,2025-10-08,株式会社ライスセンターひがし,,株式会社,鹿児島県,日置市,伊集院町徳重１丁目１６番地１４,,46,216,8992502,,,,,,,2025-10-08,1,,,,,ライスセンターヒガシ,0
989,3350001019753,新規,0,2025-10-08,2025-10-08,株式会社瑠璃色,,株式会社,宮崎県,延岡市,島浦町６１６番地１,,45,203,8820096,,,,,,,2025-10-08,1,,,,,ルリイロ,0
994,3360001035840,新規,0,2025-10-08,2025-10-08,株式会社旅するショップ,,株式会社,沖縄県,国頭郡本部町,字山川５６１マンションカツ２０１,,47,308,9050205,,,,,,,2025-10-08,1,,,,,タビスルショップ,0
996,3360003015312,新規,0,2025-10-08,2025-10-08,合同会社光ホーム,,合同会社,沖縄県,那覇市,具志２丁目１０番２３号－玉井マンション２０３,,47,201,9010146,,,,,,,2025-10-08,1,,,,,ヒカリホーム,0
999,3370001053098,新規,0,2025-10-08,2025-10-08,株式会社ＪＩＮＫＡ,,株式会社,宮城県,仙台市太白区,土手内３丁目１番２７号,,04,104,9820026,,,,,,,2025-10-08,1,,,,,ジンカ,0
1000,3370001053123,新規,0,2025-10-08,2025-10-08,愛の杜エステート株式会社,,株式会社,宮城県,名取市,愛の杜１丁目１７番地の１,,04,207,9811230,,,,,,,2025-10-08,1,,,,,アイノモリエステート,0
1010,3390005009136,新規,0,2025-10-08,2025-10-08,一般社団法人ｍａｍａｒｅ,,その他の設立登記法人,山形県,寒河江市,高田１丁目７番地の４,,06,206,9910013,,,,,,,2025-10-08,1,,,,,ママーレ,0
1012,3400001017198,新規,0,2025-10-08,2025-10-08,株式会社ＫＴＳ,,株式会社,岩手県,胆沢郡金ケ崎町,西根前野１３１番地２サングランデュアＦ棟,,03,381,0294503,,,,,,,2025-10-08,1,,,,,ケーティーエス,0
1019,3430003018209,新規,0,2025-10-08,2025-10-08,合同会社Ｌｉｆｅ　Ｓｔｙｌｅ　Ｓａｐｐｏｒｏ,,合同会社,北海道,札幌市東区,北五条東１０丁目１６番４－９０１号,,01,103,0650005,,,,,,,2025-10-08,1,,,,,ライフスタイルサッポロ,0
1020,3450001014744,新規,0,2025-10-08,2025-10-08,ＦＡＲ　ＦＡＲ　ＡＷＡＹ　ＯＵＴＤＯＯＲ株式会社,,株式会社,北海道,富良野市,朝日町１番１６号,,01,229,0760026,,,,,,,2025-10-08,1,,,,,ファーファーアウェイアウトドア,0
1021,3480001012976,新規,0,2025-10-08,2025-10-08,株式会社レオン,,株式会社,徳島県,徳島市,万代町５丁目６番地４－２Ａ,,36,201,7700941,,,,,,,2025-10-08,1,,,,,,0
1023,3480003002331,新規,0,2025-10-08,2025-10-08,奥森林業合同会社,,合同会社,徳島県,美馬市,木屋平字川井９５番地２,,36,207,7770302,,,,,,,2025-10-08,1,,,,,,0
1029,3700150132461,新規,0,2025-10-08,2025-10-08,ＭＡＨＡＮＵＷＡＲＡ　ＭＯＴＯＲＳ,,外国会社等,千葉県,夷隅郡大多喜町,下大多喜３２４５番地１オフィス３号,,12,441,2980202,スリランカ民主社会主義共和国、カトゥガストタ、クルネガラロード、Ｎｏ．１９,,,,,,2025-10-08,1,,,,,マハヌワラモータース,0
1039,4010001258211,新規,0,2025-10-08,2025-10-08,ＡＫ．ｒｅｎｅ株式会社,,株式会社,東京都,中央区,新川１丁目２２－１７グランド茅場町ビル７階,,13,102,1040033,,,,,,,2025-10-08,1,,,,,,0
1040,4010001259069,新規,0,2025-10-08,2025-10-08,株式会社エムタス,,株式会社,東京都,中央区,銀座７丁目１３番２１号ＧｉｎｚａＲｏｋｕｓｈｕビル２階,,13,102,1040061,,,,,,,2025-10-08,1,,,,,エムタス,0
1041,4010001259119,新規,0,2025-10-08,2025-10-08,株式会社ことわり研究所,,株式会社,東京都,中央区,銀座１丁目１２－４Ｎ＆ＥＢＬＤ．７階,,13,102,1040061,,,,,,,2025-10-08,1,,,,,コトワリケンキュウジョ,0
1042,4010001259127,新規,0,2025-10-08,2025-10-08,株式会社黛電気設計,,株式会社,東京都,千代田区,九段南１丁目５番６号りそな九段ビル５階,,13,101,1020074,,,,,,,2025-10-08,1,,,,,マユズミデンキセッケイ,0
1043,4010001259184,新規,0,2025-10-08,2025-10-08,株式会社ビズプランラボラトリー,,株式会社,東京都,千代田区,麹町５丁目５番３号ＤＵＡＲＥＳ麹町ＯＮＹＸ５０３,,13,101,1020083,,,,,,,2025-10-08,1,,,,,ビズプランラボラトリー,0
1044,4010001259192,新規,0,2025-10-08,2025-10-08,堤綜合パートナーズ株式会社,,株式会社,東京都,千代田区,麹町１丁目３番地５ミクニビル７階,,13,101,1020083,,,,,,,2025-10-08,1,,,,,ツツミソウゴウパートナーズ,0
1048,4010003048940,新規,0,2025-10-08,2025-10-08,合同会社京浜出版,,合同会社,東京都,千代田区,神田鍛冶町３丁目５番地第五古川ビル２０８号室,,13,101,1010045,,,,,,,2025-10-08,1,,,,,ケイヒンシュッパン,0
1049,4010003048965,新規,0,2025-10-08,2025-10-08,合同会社ＡＫ　ＧＲＯＵＰ,,合同会社,東京都,中央区,銀座１丁目２２番１１号銀座大竹ビジデンス２Ｆ,,13,102,1040061,,,,,,,2025-10-08,1,,,,,エーケーグループ,0
1050,4010005040755,新規,0,2025-10-08,2025-10-08,一般社団法人税務調査共済会,,その他の設立登記法人,東京都,千代田区,九段南２丁目７番１号,,13,101,1020074,,,,,,,2025-10-08,1,,,,,ゼイムチョウサキョウサイカイ,0
1063,4010401193256,新規,0,2025-10-08,2025-10-08,株式会社ＳＰＡＲＫ　ＳＴＵＤＩＯ,,株式会社,東京都,港区,六本木７丁目１６番５号六本木戸田ビルＢＣ号室,,13,103,1060032,,,,,,,2025-10-08,1,,,,,スパークスタジオ,0
1064,4010401193363,新規,0,2025-10-08,2025-10-08,日本フィットエイブル株式会社,,株式会社,東京都,港区,浜松町２丁目２番１５号浜松町ダイヤビル２Ｆ,,13,103,1050013,,,,,,,2025-10-08,1,,,,,ニホンフィットエイブル,0
1065,4010401193405,新規,0,2025-10-08,2025-10-08,株式会社Ｚｅｌｌｅｎ,,株式会社,東京都,港区,赤坂２丁目５番８号ヒューリックＪＰ赤坂ビル３階－６階,,13,103,1070052,,,,,,,2025-10-08,1,,,,,ゼレン,0
1066,4010401193413,新規,0,2025-10-08,2025-10-08,Ｉｂｕｋｉ株式会社,,株式会社,東京都,港区,北青山１丁目３番１号アールキューブ青山３階,,13,103,1070061,,,,,,,2025-10-08,1,,,,,イブキ,0
1067,4010401193479,新規,0,2025-10-08,2025-10-08,株式会社カニフィッシュ,,株式会社,東京都,港区,北青山１丁目３番１号アールキューブ青山３階,,13,103,1070061,,,,,,,2025-10-08,1,,,,,カニフィッシュ,0
1068,4010401193495,新規,0,2025-10-08,2025-10-08,株式会社コアパレット,,株式会社,東京都,港区,六本木７丁目１７番３６号ＲＯＰＰＯＮＧＩＴＥＲＲＡＣＥ３Ｄ,,13,103,1060032,,,,,,,2025-10-08,1,,,,,コアパレット,0
1069,4010401193504,新規,0,2025-10-08,2025-10-08,株式会社ラグゼ,,株式会社,東京都,港区,浜松町２丁目２番１５号浜松町ダイヤビル２Ｆ,,13,103,1050013,,,,,,,2025-10-08,1,,,,,ラグゼ,0
1070,4010401193537,新規,0,2025-10-08,2025-10-08,株式会社笑軍,,株式会社,東京都,港区,高輪２丁目１４番１７号グレイス高輪ビル,,13,103,1080074,,,,,,,2025-10-08,1,,,,,ショウグン,0
1071,4010401193586,新規,0,2025-10-08,2025-10-08,株式会社ＷＥＩＮ　Ｍ＆Ａ,,株式会社,東京都,港区,芝２丁目２番１２号５階,,13,103,1050014,,,,,,,2025-10-08,1,,,,,ウェインエムアンドエー,0
1079,4010403036173,新規,0,2025-10-08,2025-10-08,幸浦ファシリティ２合同会社,,合同会社,東京都,港区,六本木１丁目６番１号泉ガーデンタワー,,13,103,1060032,,,,,,,2025-10-08,1,,,,,サチウラファシリティツー,0
1080,4010403036198,新規,0,2025-10-08,2025-10-08,合同会社宇宙酒場,,合同会社,東京都,港区,北青山３丁目６番７号青山パラシオタワー１１階,,13,103,1070061,,,,,,,2025-10-08,1,,,,,ウチュウサカバ,0
1082,4010501054845,新規,0,2025-10-08,2025-10-08,芳彩ジュエリー株式会社,,株式会社,東京都,台東区,浅草５丁目３番１号１０４号室,,13,106,1110032,,,,,,,2025-10-08,1,,,,,ホウサイジュエリー,0
1087,4010601068084,新規,0,2025-10-08,2025-10-08,株式会社セラフィム,,株式会社,東京都,墨田区,東駒形３丁目１番１４号,,13,107,1300005,,,,,,,2025-10-08,1,,,,,セラフィム,0
1090,4010701048424,新規,0,2025-10-08,2025-10-08,ＢＯＯＢＡＳＥ株式会社,,株式会社,東京都,品川区,東品川１丁目２８番１１－１００４号,,13,109,1400002,,,,,,,2025-10-08,1,,,,,ブーベイス,0
1092,4010703007948,新規,0,2025-10-08,2025-10-08,ＴＩＥＲＲＡ　ＳＯＬ合同会社,,合同会社,東京都,品川区,小山７丁目１５番２１号プレミール洗足Ｂ１,,13,109,1420062,,,,,,,2025-10-08,1,,,,,ティエラソル,0
1100,4010901058198,新規,0,2025-10-08,2025-10-08,株式会社シンアイ,,株式会社,東京都,世田谷区,上用賀５丁目３番９号,,13,112,1580098,,,,,,,2025-10-08,1,,,,,シンアイ,0
1106,4011001172534,新規,0,2025-10-08,2025-10-08,９ｒｅｗ株式会社,,株式会社,東京都,渋谷区,恵比寿１丁目８番１８号Ｋ－１ビル３階,,13,113,1500013,,,,,,,2025-10-08,1,,,,,クルー,0
1107,4011001172575,新規,0,2025-10-08,2025-10-08,株式会社ｌｕｚｓ,,株式会社,東京都,渋谷区,道玄坂１丁目１０番８号渋谷道玄坂東急ビル２Ｆ－Ｃ,,13,113,1500043,,,,,,,2025-10-08,1,,,,,ルズ,0
1108,4011001172591,新規,0,2025-10-08,2025-10-08,Ｙ‐ＢＡＳＥ　Ｈｏｌｄｉｎｇｓ株式会社,,株式会社,東京都,渋谷区,神宮前３丁目１番３０号,,13,113,1500001,,,,,,,2025-10-08,1,,,,,ワイベースホールディングス,0
1109,4011001172633,新規,0,2025-10-08,2025-10-08,株式会社ＡＣＲＹＳＴＡＬ,,株式会社,東京都,渋谷区,千駄ヶ谷２丁目２８番１－１２０１号,,13,113,1510051,,,,,,,2025-10-08,1,,,,,アクリスタル,0
1110,4011001172641,新規,0,2025-10-08,2025-10-08,株式会社Ｓａｋｕｒａ　Ｐａｒｔｎｅｒｓ,,株式会社,東京都,渋谷区,恵比寿西２丁目４番８号ウィンド恵比寿ビル８階,,13,113,1500021,,,,,,,2025-10-08,1,,,,,サクラパートナーズ,0
1111,4011001172699,新規,0,2025-10-08,2025-10-08,株式会社鰻登り,,株式会社,東京都,渋谷区,笹塚２丁目７番９号ＴＨＥＣＩＴＹＩＩ１階,00141015,13,113,1510073,,,,,,,2025-10-08,1,,,,,ウナギノボリ,0
1112,4011003022522,新規,0,2025-10-08,2025-10-08,ＨｕｍａｎＷｏｖｅｎ合同会社,,合同会社,東京都,渋谷区,恵比寿西２丁目８番４号ＥＸ恵比寿西ビル５階,,13,113,1500021,,,,,,,2025-10-08,1,,,,,ヒューマンウーブン,0
1113,4011003022571,新規,0,2025-10-08,2025-10-08,合同会社ＩＭＯＮ,,合同会社,東京都,渋谷区,恵比寿西２丁目８番４号ＥＸ恵比寿西ビル５階,,13,113,1500021,,,,,,,2025-10-08,1,,,,,イモン,0
1114,4011003022596,新規,0,2025-10-08,2025-10-08,Ｇｒｅａｔ　Ｄｅｐｔｈ合同会社,,合同会社,東京都,目黒区,中目黒３丁目６番２号中目黒ＦＳビル５Ｆ,,13,110,1530061,,,,,,,2025-10-08,1,,,,,グレートデプス,0
1121,4011101113446,新規,0,2025-10-08,2025-10-08,Ｔａｌｅｎｓｈｉｐ株式会社,,株式会社,東京都,新宿区,新宿１丁目９番１号第２タケビル８階,,13,104,1600022,,,,,,,2025-10-08,1,,,,,タレンシップ,0
1123,4011105011621,新規,0,2025-10-08,2025-10-08,ＬＬＨＣ特定目的会社,,その他の設立登記法人,東京都,新宿区,四谷２丁目９番地１５東京ユナイテッド綜合事務所内,,13,104,1600004,,,,,,,2025-10-08,1,,,,,エルエルエイチシー,0
1126,4011301030945,新規,0,2025-10-08,2025-10-08,株式会社ＲＡＩＳＥ,,株式会社,東京都,杉並区,上井草２丁目４５番３号１Ｆ,,13,115,1670023,,,,,,,2025-10-08,1,,,,,レイズ,0
1128,4011501032659,新規,0,2025-10-08,2025-10-08,ヒロイアジア株式会社,,株式会社,東京都,荒川区,西尾久７丁目４１番６号６０３室,,13,118,1160011,,,,,,,2025-10-08,1,,,,,ヒロイアジア,0
1130,4011503006719,新規,0,2025-10-08,2025-10-08,合同会社健成ダイア工業,,合同会社,東京都,北区,上中里３丁目２０番１０号,,13,117,1140016,,,,,,,2025-10-08,1,,,,,ケンセイダイアコウギョウ,0
1131,4011601029035,新規,0,2025-10-08,2025-10-08,株式会社マネーウィズ,,株式会社,東京都,練馬区,立野町２４番２４号,,13,120,1770054,,,,,,,2025-10-08,1,,,,,マネーウィズ,0
1136,4011803007128,新規,0,2025-10-08,2025-10-08,ＯＳＭＡＮ合同会社,,合同会社,東京都,葛飾区,白鳥１丁目３番５－３０５号,,13,122,1250063,,,,,,,2025-10-08,1,,,,,ウスマン,0
1137,4011805003488,新規,0,2025-10-08,2025-10-08,医療法人社団拍伸会,,その他の設立登記法人,東京都,葛飾区,立石１丁目１番８号ダイゴパレス立石１０１,,13,122,1240012,,,,,,,2025-10-08,1,,,,,ハクシンカイ,0
1140,4013101009830,新規,0,2025-10-08,2025-10-08,株式会社ＰＳＧ,,株式会社,東京都,福生市,本町１４２番地内田ビル２Ｆ,,13,218,1970022,,,,,,,2025-10-08,1,,,,,ピーエスジー,0
1142,4013301055096,新規,0,2025-10-08,2025-10-08,水星インテリジェントテクノロジー株式会社,,株式会社,東京都,豊島区,南大塚２丁目３８番１号リードシー大塚ビル７－０８,00140989,13,116,1700005,,,,,,,2025-10-08,1,,,,,スイセイインテリジェントテクノロジー,0
1153,4020001165019,新規,0,2025-10-08,2025-10-08,株式会社ＦＵＮＲＩＳＥ,,株式会社,神奈川県,横浜市神奈川区,金港町５－１４クアドリフォリオ８階,,14,102,2210056,,,,,,,2025-10-08,1,,,,,ファンライズ,0
1154,4020001165159,新規,0,2025-10-08,2025-10-08,株式会社スマートホーム,,株式会社,神奈川県,川崎市中原区,上小田中３丁目２１番１０号,,14,133,2110053,,,,,,,2025-10-08,1,,,,,スマートホーム,0
1156,4020003029527,新規,0,2025-10-08,2025-10-08,Ｈａｎｄ　ｏｆｆ　Ｗｏｒｋｓ合同会社,,合同会社,神奈川県,横浜市西区,北幸２丁目１０番４８号むつみビル３階,,14,103,2200004,,,,,,,2025-10-08,1,,,,,,0
1157,4020003029551,新規,0,2025-10-08,2025-10-08,ワールドツリー合同会社,,合同会社,神奈川県,横浜市中区,山下町７４番地６ロクマルビル５０２号室,,14,104,2310023,,,,,,,2025-10-08,1,,,,,ワールドツリー,0
1163,4021001086551,新規,0,2025-10-08,2025-10-08,Ａｌｌ　Ｍｙ　ＦａＭ株式会社,,株式会社,神奈川県,高座郡寒川町,一之宮９丁目２６番３９号,,14,321,2530111,,,,,,,2025-10-08,1,,,,,オールマイファム,0
1167,4030001168953,新規,0,2025-10-08,2025-10-08,株式会社こどものおかげです,,株式会社,埼玉県,所沢市,西新井町６番２３号,,11,208,3590035,,,,,,,2025-10-08,1,,,,,コドモノオカゲデス,0
1168,4030001169002,新規,0,2025-10-08,2025-10-08,株式会社石川ホールディングス,,株式会社,埼玉県,加須市,上樋遣川７０５８番地３,,11,210,3470003,,,,,,,2025-10-08,1,,,,,イシカワホールディングス,0
1169,4030001169035,新規,0,2025-10-08,2025-10-08,森アセットマネジメント株式会社,,株式会社,埼玉県,ふじみ野市,上野台１丁目２番１１棟５０５号,,11,245,3560017,,,,,,,2025-10-08,1,,,,,モリアセットマネジメント,0
1170,4030001169084,新規,0,2025-10-08,2025-10-08,株式会社ＥＺＡＴ　ＴＲＡＤＩＮＧ,,株式会社,埼玉県,北葛飾郡松伏町,大字魚沼５１５番地,,11,465,3430101,,,,,,,2025-10-08,1,,,,,イザトトレーディング,0
1176,4030003027802,新規,0,2025-10-08,2025-10-08,合同会社アセンディア,,合同会社,埼玉県,さいたま市南区,別所３丁目５番１２号,,11,108,3360021,,,,,,,2025-10-08,1,,,,,アセンディア,0
1178,4030005022297,新規,0,2025-10-08,2025-10-08,医療法人久仁会,,その他の設立登記法人,埼玉県,秩父市,中村町４丁目９番２２号,,11,207,3680051,,,,,,,2025-10-08,1,,,,,キュウジンカイ,0
1184,4040001140812,新規,0,2025-10-08,2025-10-08,株式会社ＡＦＭ,,株式会社,千葉県,佐倉市,鍋山町９４番地３,,12,212,2850033,,,,,,,2025-10-08,1,,,,,エイエフエム,0
1186,4040003028477,新規,0,2025-10-08,2025-10-08,合同会社うみねこやまねこ,,合同会社,千葉県,船橋市,葛飾町２丁目３７６番２号ワイズ西船橋６０２号,,12,204,2730032,,,,,,,2025-10-08,1,,,,,ウミネコヤマネコ,0
1187,4040003028717,新規,0,2025-10-08,2025-10-08,ＡＴ合同会社,,合同会社,千葉県,富里市,御料５５９番５,,12,233,2860211,,,,,,,2025-10-08,1,,,,,エーティー,0
1189,4050001057428,新規,0,2025-10-08,2025-10-08,株式会社Ｎｉｃｏｒｅ,,株式会社,茨城県,つくば市,天久保１丁目１５番地３‐１０３号,,08,220,3050005,,,,,,,2025-10-08,1,,,,,ニコア,0
1191,4050005013708,新規,0,2025-10-08,2025-10-08,一般社団法人神栖市指定管工事協会,,その他の設立登記法人,茨城県,神栖市,鰐川３００番１５２,,08,232,3140147,,,,,,,2025-10-08,1,,,,,,0
1194,4070001043401,新規,0,2025-10-08,2025-10-08,ＶＥＲＹ　ＧＯＯＤホールディングス株式会社,,株式会社,群馬県,渋川市,赤城町津久田２１４番地１３,,10,208,3791103,,,,,,,2025-10-08,1,,,,,ベリーグッドホールディングス,0
1200,4080103003442,新規,0,2025-10-08,2025-10-08,合同会社フジライフハウス,,合同会社,静岡県,富士市,平垣１６２－１４,,22,210,4160916,,,,,,,2025-10-08,1,,,,,フジライフハウス,0
1202,4080401028199,新規,0,2025-10-08,2025-10-08,スカイ・ドリーム株式会社,,株式会社,静岡県,菊川市,吉沢３４４番地の４,,22,224,4390009,,,,,,,2025-10-08,1,,,,,スカイドリーム,0
1203,4080401028208,新規,0,2025-10-08,2025-10-08,さいとう設備株式会社,,株式会社,静岡県,浜松市中央区,三島町７３９番地の５,,22,138,4300853,,,,,,,2025-10-08,1,,,,,サイトウセツビ,0
1204,4090003002915,新規,0,2025-10-08,2025-10-08,合同会社いたやま米舎,,合同会社,山梨県,山梨市,北６４９番地１,,19,205,4050041,,,,,,,2025-10-08,1,,,,,イタヤマベイシャ,0
1205,4100003008407,新規,0,2025-10-08,2025-10-08,美翔合同会社,,合同会社,長野県,上田市,築地１８１番地１,,20,203,3861107,,,,,,,2025-10-08,1,,,,,ビショウ,0
1206,4100003008423,新規,0,2025-10-08,2025-10-08,Ｃｕｒａｎｏｖａ合同会社,,合同会社,長野県,松本市,丸の内２－１１,,20,202,3900873,,,,,,,2025-10-08,1,,,,,クラノバ,0
1207,4110001039634,新規,0,2025-10-08,2025-10-08,株式会社アースワン,,株式会社,新潟県,上越市,春日新田２丁目１１番２－２４５号県営春日新田住宅２棟２４５号,,15,222,9420061,,,,,,,2025-10-08,1,,,,,アースワン,0
1219,4120001280410,新規,0,2025-10-08,2025-10-08,株式会社シグニクス,,株式会社,大阪府,大阪市城東区,関目４丁目１３番２０号,,27,118,5360008,,,,,,,2025-10-08,1,,,,,シグニクス,0
1220,4120001280427,新規,0,2025-10-08,2025-10-08,株式会社ＹＵＫＡＩ,,株式会社,大阪府,大阪市北区,末広町２番１７号エステムコート梅田東アクアパレス９０４号,,27,127,5300053,,,,,,,2025-10-08,1,,,,,ユカイ,0
1221,4120001280534,新規,0,2025-10-08,2025-10-08,和星株式会社,,株式会社,大阪府,大阪市港区,三先１丁目１２番９号倉本ビル２１３号室,,27,107,5520016,,,,,,,2025-10-08,1,,,,,ワセイ,0
1222,4120001280674,新規,0,2025-10-08,2025-10-08,株式会社Ｒｅｌｉｅｆ,,株式会社,大阪府,大阪市東成区,東中本３丁目２０番２２号,,27,115,5370021,,,,,,,2025-10-08,1,,,,,リリーフ,0
1223,4120001280757,新規,0,2025-10-08,2025-10-08,ＴＳパートナーズ株式会社,,株式会社,大阪府,大阪市都島区,網島町５番６－２０５号,,27,102,5340026,,,,,,,2025-10-08,1,,,,,ティーエスパートナーズ,0
1224,4120001280807,新規,0,2025-10-08,2025-10-08,泰平株式会社,,株式会社,大阪府,大阪市東成区,中本５丁目１９番１４号Ｄ号室,,27,115,5370022,,,,,,,2025-10-08,1,,,,,タイヘイ,0
1233,4120003030887,新規,0,2025-10-08,2025-10-08,合同会社エースクリア,,合同会社,大阪府,大阪市東成区,玉津３丁目４番２２－２０９号,,27,115,5370023,,,,,,,2025-10-08,1,,,,,エースクリア,0
1237,4120101072542,新規,0,2025-10-08,2025-10-08,株式会社長居電気設備,,株式会社,大阪府,松原市,天美西４丁目２番２９号,,27,217,5800034,,,,,,,2025-10-08,1,,,,,ナガイデンキセツビ,0
1238,4120101072583,新規,0,2025-10-08,2025-10-08,株式会社アスカ,,株式会社,大阪府,和泉市,内田町２丁目７番１８号,,27,219,5941156,,,,,,,2025-10-08,1,,,,,アスカ,0
1243,4120901051588,新規,0,2025-10-08,2025-10-08,久＿株式会社,00140993,株式会社,大阪府,池田市,伏尾町７６－１６,,27,204,5630011,,,,,,,2025-10-08,1,,,,,ヒサニ,0
1251,4130001080677,新規,0,2025-10-08,2025-10-08,Ｎ３Ｐｏｉｎｔ株式会社,,株式会社,京都府,京都市山科区,椥辻番所ケ口町４５番地５インサイトルポ山科新十条５０１,,26,110,6078166,,,,,,,2025-10-08,1,,,,,エヌスリーポイント,0
1253,4140001140216,新規,0,2025-10-08,2025-10-08,株式会社ＫＨソリューション,,株式会社,兵庫県,神戸市灘区,篠原字伯母野山町三丁目１８番４号２階,,28,102,6570002,,,,,,,2025-10-08,1,,,,,ケーエイチソリューション,0
1254,4140001140249,新規,0,2025-10-08,2025-10-08,株式会社トラストリンク,,株式会社,兵庫県,尼崎市,長洲中通３丁目１８番５号ハイツ大武２０２,,28,202,6600802,,,,,,,2025-10-08,1,,,,,トラストリンク,0
1255,4140001140257,新規,0,2025-10-08,2025-10-08,株式会社Ｌｅａ　Ｌｉｆｅ,,株式会社,兵庫県,西宮市,甲子園春風町７番３１号,,28,204,6638161,,,,,,,2025-10-08,1,,,,,レアライフ,0
1257,4140003022692,新規,0,2025-10-08,2025-10-08,合同会社リサード,,合同会社,兵庫県,神戸市中央区,磯辺通１丁目１番１８号カサベラ国際プラザビル７０７号室,,28,110,6510084,,,,,,,2025-10-08,1,,,,,リサード,0
1265,4180001168872,新規,0,2025-10-08,2025-10-08,株式会社タールタール,,株式会社,愛知県,丹羽郡大口町,大屋敷３丁目１２番地１,,23,361,4800137,,,,,,,2025-10-08,1,,,,,タールタール,0
1266,4180001168914,新規,0,2025-10-08,2025-10-08,株式会社ＴＯＮＯＲＩ,,株式会社,愛知県,愛西市,戸倉町中屋敷９０番地,,23,232,4960933,,,,,,,2025-10-08,1,,,,,トノリ,0
1270,4180003029172,新規,0,2025-10-08,2025-10-08,合同会社タカヤナギ,,合同会社,愛知県,稲沢市,清水西川原町１１０番地,,23,220,4928311,,,,,,,2025-10-08,1,,,,,タカヤナギ,0
1273,4180301040293,新規,0,2025-10-08,2025-10-08,株式会社ｋａｗａｕｓｏ,,株式会社,愛知県,知立市,八橋町的場６９番地６４,,23,225,4720001,,,,,,,2025-10-08,1,,,,,カワウソ,0
1277,4190005012076,新規,0,2025-10-08,2025-10-08,地方独立行政法人名張市立病院,,その他の設立登記法人,三重県,名張市,百合が丘西１番町１７８番地,,24,208,5180481,,,,,,,2025-10-08,1,,,,,ナバリシリツビョウイン,0
1290,4240001065626,新規,0,2025-10-08,2025-10-08,株式会社タスクサービス,,株式会社,広島県,安芸郡海田町,砂走２番１３号,,34,304,7360001,,,,,,,2025-10-08,1,,,,,タスクサービス,0
1302,4260001040627,新規,0,2025-10-08,2025-10-08,株式会社ＥｎＬｏｏｐ,,株式会社,岡山県,備前市,西片上１５３４－１,,33,211,7050021,,,,,,,2025-10-08,1,,,,,エンループ,0
1305,4280001009521,新規,0,2025-10-08,2025-10-08,株式会社新財間酒場,,株式会社,島根県,鹿足郡津和野町,中座ロ３４番地,,32,501,6995612,,,,,,,2025-10-08,1,,,,,シンザイマサカバ,0
1308,4290001111755,新規,0,2025-10-08,2025-10-08,株式会社アストロ企画,,株式会社,福岡県,福岡市博多区,青木１丁目１４番２４－３０３号Ｃｌｕｂ博多の森参番館,,40,132,8120851,,,,,,,2025-10-08,1,,,,,アストロキカク,0
1309,4290001111763,新規,0,2025-10-08,2025-10-08,歩防災株式会社,,株式会社,福岡県,久留米市,宮ノ陣町大杜３７８番地３３,,40,203,8390803,,,,,,,2025-10-08,1,,,,,アユミボウサイ,0
1311,4290003017562,新規,0,2025-10-08,2025-10-08,合同会社マヨナカ,,合同会社,福岡県,福岡市南区,多賀１丁目２０番６号,,40,134,8150072,,,,,,,2025-10-08,1,,,,,マヨナカ,0
1312,4290003017587,新規,0,2025-10-08,2025-10-08,合同会社Ｇ‐Ｌｕｃｋ,,合同会社,福岡県,朝倉郡筑前町,高田６３２番地１,,40,447,8380814,,,,,,,2025-10-08,1,,,,,ジーラック,0
1314,4290801031905,新規,0,2025-10-08,2025-10-08,株式会社ベジシード,,株式会社,福岡県,北九州市小倉北区,浅野１丁目１番１号ビエラ小倉１階ＤＩＳＣＯＶＥＲＹ－１６６号,,40,106,8020001,,,,,,,2025-10-08,1,,,,,ベジシード,0
1315,4300001014378,新規,0,2025-10-08,2025-10-08,株式会社Ｄｅｖｅｒａｇｅ,,株式会社,佐賀県,佐賀市,駅前中央１丁目１番１８号アクロス４０７号室,,41,201,8400801,,,,,,,2025-10-08,1,,,,,デベレージ,0
1317,4320001021380,新規,0,2025-10-08,2025-10-08,株式会社ライフサポート城戸崎,00140988,株式会社,大分県,中津市,大字永添１７９７番地１２,,44,203,8710162,,,,,,,2025-10-08,1,,,,,ライフサポートキトザキ,0
1318,4320003004788,新規,0,2025-10-08,2025-10-08,合同会社風と根,,合同会社,大分県,日田市,港町２番１３号,,44,204,8770006,,,,,,,2025-10-08,1,,,,,カゼトネ,0
1320,4340001027698,新規,0,2025-10-08,2025-10-08,株式会社３Ｈカンパニー,,株式会社,鹿児島県,霧島市,溝辺町麓８６２番地２,,46,218,8996404,,,,,,,2025-10-08,1,,,,,スリーエイチカンパニー,0
1324,4360001035889,新規,0,2025-10-08,2025-10-08,株式会社Ｄ．Ｈ,,株式会社,沖縄県,那覇市,牧志２丁目１６番４６号タカラマンションマキシー１　１５０１号,,47,201,9000013,,,,,,,2025-10-08,1,,,,,ディーエイチ,0
1325,4360001035897,新規,0,2025-10-08,2025-10-08,オルナ株式会社,,株式会社,沖縄県,那覇市,松尾１丁目１０番地２４号,,47,201,9000014,,,,,,,2025-10-08,1,,,,,オルナ,0
1334,4370003007308,新規,0,2025-10-08,2025-10-08,合同会社ｓｐａｃｅｏｎ,,合同会社,宮城県,仙台市青葉区,上愛子字蛇台原５９―１１,,04,101,9893124,,,,,,,2025-10-08,1,,,,,スペースオン,0
1335,4370003007324,新規,0,2025-10-08,2025-10-08,合同会社エンリンク,,合同会社,宮城県,加美郡加美町,字町裏九番１２番地７,,04,445,9814261,,,,,,,2025-10-08,1,,,,,エンリンク,0
1340,4420001019299,新規,0,2025-10-08,2025-10-08,株式会社マルコウメタル,,株式会社,青森県,八戸市,大字湊町字鮫ノ口１６番地２１,,02,203,0310812,,,,,,,2025-10-08,1,,,,,マルコウメタル,0
1345,4430003018199,新規,0,2025-10-08,2025-10-08,合同会社ＫＯＴＡＴＳＵＫＩ,,合同会社,北海道,札幌市中央区,南二条西５丁目３１‐１ＲＭＢｌｄ．７０１,,01,101,0600062,,,,,,,2025-10-08,1,,,,,コタツキ,0
1347,4470003002991,新規,0,2025-10-08,2025-10-08,合同会社Ｓ,,合同会社,香川県,観音寺市,吉岡町６４１番地１,,37,205,7680021,,,,,,,2025-10-08,1,,,,,,0
1352,4500001026568,新規,0,2025-10-08,2025-10-08,株式会社リリーフ,,株式会社,愛媛県,今治市,＿園町二丁目３番１０号,00141008,38,202,7940000,,,,,,,2025-10-08,1,,,,,リリーフ,0
1354,4700150132460,新規,0,2025-10-08,2025-10-08,ＭＩＲＯＫＵ　ＢＵＤＹ　ＭＡＲＴ,,外国会社等,埼玉県,羽生市,大字今泉５４４,,11,216,3480017,スリランカ民主社会主義共和国、ＮＯ．８４／Ｅ、ガンポラロード、グルデニヤ、ゲリオヤ,,,,,,2025-10-08,1,,,,,ミロクバデイーマート,0
1362,5010001258672,新規,0,2025-10-08,2025-10-08,株式会社Ｎｅｘｕｓ　Ｍ＆Ａ　Ｓｏｌｕｔｉｏｎｓ　ＪＡＰＡＮ,,株式会社,東京都,千代田区,神田小川町３丁目１１Ｅ／Ｆｒｏｎｔビル６階,,13,101,1010052,,,,,,,2025-10-08,1,,,,,ネクサスエムアンドエーソリューションズジャパン,0
1363,5010001259010,新規,0,2025-10-08,2025-10-08,株式会社ＳＯ．ＫＩＮＤ‐Ｐａｒｔｎｅｒｓ,,株式会社,東京都,中央区,銀座４丁目８善隣ビル８Ｆ,,13,102,1040061,,,,,,,2025-10-08,1,,,,,ソーカインドパートナーズ,0
1364,5010001259019,新規,0,2025-10-08,2025-10-08,株式会社デュクシエージェンシー,,株式会社,東京都,中央区,新富２丁目５番地２－８０１号,,13,102,1040041,,,,,,,2025-10-08,1,,,,,デュクシエージェンシー,0
1365,5010001259167,新規,0,2025-10-08,2025-10-08,ＧｒｅｅｎＣｏｒｅ株式会社,,株式会社,東京都,中央区,晴海２丁目２番４２－３３１６号,,13,102,1040053,,,,,,,2025-10-08,1,,,,,グリーンコア,0
1367,5010003048857,新規,0,2025-10-08,2025-10-08,合同会社ＭＯＴＣＨＡＬＩＮＩ,,合同会社,東京都,中央区,銀座６丁目１３番１６号銀座ＷａｌｌビルＵＣＦ５０１,,13,102,1040061,,,,,,,2025-10-08,1,,,,,モッチャリーニ,0
1368,5010003048931,新規,0,2025-10-08,2025-10-08,イースト・レガシー・キャピタル合同会社,,合同会社,東京都,千代田区,丸の内２丁目３番２号郵船ビルディング１階,,13,101,1000005,,,,,,,2025-10-08,1,,,,,イーストレガシーキャピタル,0
1369,5010003048964,新規,0,2025-10-08,2025-10-08,合同会社西麻布ＰＪ,,合同会社,東京都,千代田区,霞が関３丁目２番１号,,13,101,1000013,,,,,,,2025-10-08,1,,,,,ニシアザブプロジェクト,0
1370,5010005040754,新規,0,2025-10-08,2025-10-08,一般社団法人久慈戸呂風力発電,,その他の設立登記法人,東京都,千代田区,内神田１丁目３番７号４０１あすな会計事務所内,,13,101,1010047,,,,,,,2025-10-08,1,,,,,クジヘロフウリョクハツデン,0
1371,5010101016889,新規,0,2025-10-08,2025-10-08,エヌエスオフィス株式会社,,株式会社,東京都,八王子市,子安町４丁目１５番８－３０２号,,13,201,1920904,,,,,,,2025-10-08,1,,,,,エヌエスオフィス,0
1372,5010103002664,新規,0,2025-10-08,2025-10-08,Ｂｅ合同会社,,合同会社,東京都,八王子市,緑町６５番地６２ヒルトップハイツ２０６号,,13,201,1930932,,,,,,,2025-10-08,1,,,,,ビー,0
1379,5010401193494,新規,0,2025-10-08,2025-10-08,株式会社バロニスタ,,株式会社,東京都,港区,三田３丁目３番８号,,13,103,1080073,,,,,,,2025-10-08,1,,,,,バロニスタ,0
1380,5010401193528,新規,0,2025-10-08,2025-10-08,Ｏｕｒ　Ｄｅｓｋ株式会社,,株式会社,東京都,港区,南青山１丁目１５番２７号ＹＭビル１階,,13,103,1070062,,,,,,,2025-10-08,1,,,,,アワーデスク,0
1383,5010403036172,新規,0,2025-10-08,2025-10-08,幸浦ファシリティ１合同会社,,合同会社,東京都,港区,六本木１丁目６番１号泉ガーデンタワー,,13,103,1060032,,,,,,,2025-10-08,1,,,,,サチウラファシリティワン,0
1384,5010403036230,新規,0,2025-10-08,2025-10-08,ブルーフレイム合同会社,,合同会社,東京都,港区,元赤坂１丁目１番７－８０７号,,13,103,1070051,,,,,,,2025-10-08,1,,,,,ブルーフレイム,0
1385,5010403036255,新規,0,2025-10-08,2025-10-08,合同会社ＴＳＭ１７４,,合同会社,東京都,港区,元赤坂１丁目１番７号,,13,103,1070051,,,,,,,2025-10-08,1,,,,,ティーエスエムヒャクナナジュウヨン,0
1386,5010405024877,新規,0,2025-10-08,2025-10-08,一般社団法人ＴＳＭ１７４,,その他の設立登記法人,東京都,港区,元赤坂１丁目１番７号,,13,103,1070051,,,,,,,2025-10-08,1,,,,,ティーエスエムヒャクナナジュウヨン,0
1393,5010501054836,新規,0,2025-10-08,2025-10-08,株式会社延世,,株式会社,東京都,台東区,東上野１丁目９番７号ＹＴＳビル６階,,13,106,1100015,,,,,,,2025-10-08,1,,,,,ヨンセ,0
1394,5010501054852,新規,0,2025-10-08,2025-10-08,宝彩株式会社,,株式会社,東京都,台東区,松が谷２丁目１５番８号浅草Ｋ２ビル３１１号室,,13,106,1110036,,,,,,,2025-10-08,1,,,,,ホウサイ,0
1403,5010701048423,新規,0,2025-10-08,2025-10-08,三ツ千株式会社,,株式会社,東京都,品川区,東品川２丁目６番４号寺田倉庫Ｇ１ビル２階,,13,109,1400002,,,,,,,2025-10-08,1,,,,,ミツセン,0
1406,5010801036682,新規,0,2025-10-08,2025-10-08,株式会社ＭＯＵ,,株式会社,東京都,大田区,中央７丁目１６番２号オークラハイム大森４０４号,,13,111,1430024,,,,,,,2025-10-08,1,,,,,エムオーユー,0
1408,5010901058239,新規,0,2025-10-08,2025-10-08,株式会社ＳＨＡＫＥ,,株式会社,東京都,世田谷区,下馬４丁目１６番１６号,,13,112,1540002,,,,,,,2025-10-08,1,,,,,シェイク,0
1411,5011001172475,新規,0,2025-10-08,2025-10-08,株式会社ソルビア,,株式会社,東京都,目黒区,緑が丘１丁目１９番８号,,13,110,1520034,,,,,,,2025-10-08,1,,,,,ソルビア,0
1412,5011001172541,新規,0,2025-10-08,2025-10-08,エアライテック株式会社,,株式会社,東京都,渋谷区,広尾１丁目２番地１号ヒカリビル４階,,13,113,1500012,,,,,,,2025-10-08,1,,,,,エアライテック,0
1413,5011001172582,新規,0,2025-10-08,2025-10-08,株式会社ＤＷＨＤ,,株式会社,東京都,渋谷区,本町４丁目４３番１号高野ビル２０３,,13,113,1510071,,,,,,,2025-10-08,1,,,,,ディーダブリューエッチディー,0
1414,5011001172590,新規,0,2025-10-08,2025-10-08,株式会社Ｒａ,,株式会社,東京都,渋谷区,恵比寿１丁目３４番１１－１４１４号グランドヒルズ恵比寿,,13,113,1500013,,,,,,,2025-10-08,1,,,,,アールエー,0
1415,5011003022570,新規,0,2025-10-08,2025-10-08,合同会社ＳＴＥＰＥＲ,,合同会社,東京都,目黒区,上目黒３丁目３番９号,,13,110,1530051,,,,,,,2025-10-08,1,,,,,ステッパー,0
1416,5011003022579,新規,0,2025-10-08,2025-10-08,合同会社街道クラブ,,合同会社,東京都,渋谷区,広尾５丁目１９番１８号フェンテ広尾４０１,,13,113,1500012,,,,,,,2025-10-08,1,,,,,カイドウクラブ,0
1417,5011003022686,新規,0,2025-10-08,2025-10-08,ボックスクリヤー合同会社,,合同会社,東京都,渋谷区,円山町５番３号ＭＩＥＵＸ渋谷ビル８階,,13,113,1500044,,,,,,,2025-10-08,1,,,,,ボックスクリヤー,0
1421,5011101113536,新規,0,2025-10-08,2025-10-08,株式会社ＮＦＳ,,株式会社,東京都,新宿区,高田馬場２丁目１６番１１号高田馬場２１６ビル７階,,13,104,1690075,,,,,,,2025-10-08,1,,,,,エヌエフエス,0
1422,5011101113544,新規,0,2025-10-08,2025-10-08,株式会社ＢＳ,,株式会社,東京都,新宿区,百人町２丁目２番３号ＴＲＮ新大久保ビル９Ｆ,,13,104,1690073,,,,,,,2025-10-08,1,,,,,ビーエス,0
1431,5011501032658,新規,0,2025-10-08,2025-10-08,威爾士株式会社,,株式会社,東京都,荒川区,南千住３丁目２７－２浅草ビル５０８,,13,118,1160003,,,,,,,2025-10-08,1,,,,,ウェールズ,0
1432,5011501032666,新規,0,2025-10-08,2025-10-08,株式会社リターズ,,株式会社,東京都,北区,赤羽１丁目４２番２号グリーンキャピタル赤羽１０３号室,,13,117,1150045,,,,,,,2025-10-08,1,,,,,リターズ,0
1433,5011503006718,新規,0,2025-10-08,2025-10-08,合同会社八慧,,合同会社,東京都,北区,赤羽西４丁目２７番８号メゾンドブラン赤羽西１０５号,,13,117,1150055,,,,,,,2025-10-08,1,,,,,ヤエ,0
1434,5011503006734,新規,0,2025-10-08,2025-10-08,キワイ合同会社,,合同会社,東京都,北区,浮間２丁目１１－１７ルイシャトレ浮間公園４０４号室,,13,117,1150051,,,,,,,2025-10-08,1,,,,,キワイ,0
1436,5011701028828,新規,0,2025-10-08,2025-10-08,当空照株式会社,,株式会社,東京都,江戸川区,江戸川６丁目４０番１４－２３２号,,13,123,1340013,,,,,,,2025-10-08,1,,,,,サンシャイン,0
1438,5011801046853,新規,0,2025-10-08,2025-10-08,株式会社恵糸,,株式会社,東京都,葛飾区,東四つ木１丁目１３番６号イトーピア四つ木１０６号,,13,122,1240014,,,,,,,2025-10-08,1,,,,,ケイト,0
1440,5011803007119,新規,0,2025-10-08,2025-10-08,ＡＶＥＮＵＥ合同会社,,合同会社,東京都,足立区,栗原１丁目１０－１０－２－Ａ号室,,13,121,1230842,,,,,,,2025-10-08,1,,,,,アベニュー,0
1446,5013301055087,新規,0,2025-10-08,2025-10-08,株式会社良のゑ経営労務,,株式会社,東京都,豊島区,東池袋５丁目７番３号,,13,116,1700013,,,,,,,2025-10-08,1,,,,,ヨシノエケイエイロウム,0
1447,5013301055095,新規,0,2025-10-08,2025-10-08,株式会社マイ・エンターテインメント,,株式会社,東京都,豊島区,高松１丁目２番４号,,13,116,1710042,,,,,,,2025-10-08,1,,,,,マイエンターテインメント,0
1456,5020001165059,新規,0,2025-10-08,2025-10-08,株式会社リサイクリーン,,株式会社,神奈川県,横浜市南区,中村町２丁目１２０番地の６,,14,105,2320033,,,,,,,2025-10-08,1,,,,,リサイクリーン,0
1457,5020001165091,新規,0,2025-10-08,2025-10-08,青海パートナーズ株式会社,,株式会社,神奈川県,横浜市鶴見区,下野谷町２丁目７４番地９,,14,101,2300047,,,,,,,2025-10-08,1,,,,,アオミパートナーズ,0
1458,5020001165265,新規,0,2025-10-08,2025-10-08,株式会社４ｍｉｎｕｔｅｓ,,株式会社,神奈川県,横浜市青葉区,市ケ尾町２０－３プロスタイル市ヶ尾６０６,,14,117,2250024,,,,,,,2025-10-08,1,,,,,フォーミニッツ,0
1463,5020003029518,新規,0,2025-10-08,2025-10-08,Ｓｏｏｔｈｉｎｇ　Ｂｏｗｌ合同会社,,合同会社,神奈川県,川崎市高津区,末長２丁目４番１０－８０６号セブンフォレストヒルメイプルコート,,14,134,2130013,,,,,,,2025-10-08,1,,,,,スージングボール,0
1464,5020005017000,新規,0,2025-10-08,2025-10-08,一般社団法人鳳凰堂,,その他の設立登記法人,神奈川県,横浜市中区,本牧町１丁目４４番地１アーバンピア本牧１０１Ｄ,,14,104,2310806,,,,,,,2025-10-08,1,,,,,ホウオウドウ,0
1467,5021001086419,新規,0,2025-10-08,2025-10-08,株式会社ｅＺｅ,,株式会社,神奈川県,鎌倉市,材木座３丁目４番３５号,,14,204,2480013,,,,,,,2025-10-08,1,,,,,,0
1468,5021001086476,新規,0,2025-10-08,2025-10-08,株式会社ひだまり,,株式会社,神奈川県,藤沢市,藤沢９７６番地２秀明ビル,,14,205,2510052,,,,,,,2025-10-08,1,,,,,ヒダマリ,0
1469,5021001086484,新規,0,2025-10-08,2025-10-08,株式会社ＯＫ経営サポート,,株式会社,神奈川県,海老名市,中央３丁目５番５号４階２号室,,14,215,2430432,,,,,,,2025-10-08,1,,,,,オッケーケイエイサポート,0
1477,5030001168993,新規,0,2025-10-08,2025-10-08,株式会社セキュアフィールド,,株式会社,埼玉県,戸田市,喜沢２丁目２１番地の１エスポワール喜沢１０１号室,,11,224,3350013,,,,,,,2025-10-08,1,,,,,セキュアフィールド,0
1478,5030001169026,新規,0,2025-10-08,2025-10-08,株式会社堂下工業,,株式会社,埼玉県,ふじみ野市,新駒林３丁目４番１８号,,11,245,3560030,,,,,,,2025-10-08,1,,,,,ドウシタコウギョウ,0
1479,5030001169059,新規,0,2025-10-08,2025-10-08,株式会社ゼクトホーム,,株式会社,埼玉県,加須市,麦倉１０４１－１,,11,210,3491212,,,,,,,2025-10-08,1,,,,,ゼクトホーム,0
1480,5030001169100,新規,0,2025-10-08,2025-10-08,株式会社ＯｎｏＡｓ,,株式会社,埼玉県,蕨市,中央１丁目９番１１号４Ｆ,,11,223,3350004,,,,,,,2025-10-08,1,,,,,オノアス,0
1490,5030003027801,新規,0,2025-10-08,2025-10-08,合同会社アザミ,,合同会社,埼玉県,さいたま市大宮区,三橋１丁目１４２０番地４,,11,103,3300856,,,,,,,2025-10-08,1,,,,,アザミ,0
1500,5040001140860,新規,0,2025-10-08,2025-10-08,株式会社クレルヴィータ,,株式会社,千葉県,松戸市,中和倉３６番地の３,,12,207,2700025,,,,,,,2025-10-08,1,,,,,クレルヴィータ,0
1501,5040001140910,新規,0,2025-10-08,2025-10-08,岐源国際株式会社,,株式会社,千葉県,山武郡九十九里町,西野１０,,12,403,2830116,,,,,,,2025-10-08,1,,,,,シゲンコクサイ,0
1504,5040003028716,新規,0,2025-10-08,2025-10-08,合同会社プラントサービス,,合同会社,千葉県,山武市,板川２２７番地,,12,237,2891201,,,,,,,2025-10-08,1,,,,,プラントサービス,0
1511,5050001057377,新規,0,2025-10-08,2025-10-08,株式会社ＡＩＳ,,株式会社,茨城県,取手市,駒場１丁目５－２０,,08,217,3020027,,,,,,,2025-10-08,1,,,,,エイアイエス,0
1512,5050001057393,新規,0,2025-10-08,2025-10-08,株式会社アグリプラットフォーム茨城,,株式会社,茨城県,つくば市,高野台２丁目４番地２２,,08,220,3050074,,,,,,,2025-10-08,1,,,,,アグリプラットフォームイバラキ,0
1513,5050003009582,新規,0,2025-10-08,2025-10-08,ＬＯＣ　ＴＨＩＥＮ　ＰＨＡＴ合同会社,,合同会社,茨城県,土浦市,小松１丁目３４番２０号,,08,203,3000823,,,,,,,2025-10-08,1,,,,,ロックティエンファット,0
1514,5060001038657,新規,0,2025-10-08,2025-10-08,株式会社成和工務店,,株式会社,栃木県,小山市,大字雨ケ谷新田２７番地２グランパルクＣ棟２０１号室,,09,208,3230824,,,,,,,2025-10-08,1,,,,,セイワコウムテン,0
1516,5070001043417,新規,0,2025-10-08,2025-10-08,株式会社イナホタカ,,株式会社,群馬県,伊勢崎市,日乃出町９０９番地４,,10,204,3720022,,,,,,,2025-10-08,1,,,,,イナホタカ,0
1522,5080401028207,新規,0,2025-10-08,2025-10-08,株式会社エーエイチケー,,株式会社,静岡県,浜松市中央区,入野町１６１３７番地の８,,22,138,4328061,,,,,,,2025-10-08,1,,,,,エーエイチケー,0
1523,5100001039031,新規,0,2025-10-08,2025-10-08,株式会社ｔａｔｓｕｍａ,,株式会社,長野県,長野市,大字小鍋１０番地２６,,20,201,3800875,,,,,,,2025-10-08,1,,,,,タツマ,0
1525,5100003008414,新規,0,2025-10-08,2025-10-08,Ｗ＆Ｙ合同会社,,合同会社,長野県,北安曇郡白馬村,大字神城２４１９４番地４５,,20,485,3999211,,,,,,,2025-10-08,1,,,,,ダブリューアンドワイ,0
1526,5100005013395,新規,0,2025-10-08,2025-10-08,税理士法人みらいパートナーズ,,その他の設立登記法人,長野県,飯田市,追手町１丁目３３番地、２階,,20,205,3950034,,,,,,,2025-10-08,1,,,,,ミライパートナーズ,0
1531,5110003005889,新規,0,2025-10-08,2025-10-08,合同会社リノオハナ,,合同会社,新潟県,見附市,新町２丁目８番１１号,,15,211,9540057,,,,,,,2025-10-08,1,,,,,リノオハナ,0
1532,5110003005897,新規,0,2025-10-08,2025-10-08,合同会社ＶＡＬＯＣＫ,,合同会社,新潟県,柏崎市,柳橋町９―５６,,15,205,9450831,,,,,,,2025-10-08,1,,,,,バロック,0
1533,5110003005922,新規,0,2025-10-08,2025-10-08,合同会社Ｍフラット,,合同会社,新潟県,新潟市中央区,小張木１丁目１番８号,,15,103,9500942,,,,,,,2025-10-08,1,,,,,エムフラット,0
1543,5120001280310,新規,0,2025-10-08,2025-10-08,三勝株式会社,,株式会社,大阪府,大阪市北区,西天満４丁目３番１１号西天満ＦＵＫＵＥビル６０２,,27,127,5300047,,,,,,,2025-10-08,1,,,,,サンショウ,0
1544,5120001280351,新規,0,2025-10-08,2025-10-08,株式会社Ｔｓｕｇｕｍｉｒａｉ,,株式会社,大阪府,大阪市淀川区,宮原５丁目６番６号新大阪第２ダイヤモンドマンション１０６号室,,27,123,5320003,,,,,,,2025-10-08,1,,,,,ツグミライ,0
1545,5120001280450,新規,0,2025-10-08,2025-10-08,株式会社ヘセドアセットパートナーズ,,株式会社,大阪府,大阪市中央区,大手通２丁目２番９－５０３号,,27,128,5400021,,,,,,,2025-10-08,1,,,,,ヘセドアセットパートナーズ,0
1546,5120001280475,新規,0,2025-10-08,2025-10-08,Ｉｎｐｕｂｌｉｃ株式会社,,株式会社,大阪府,大阪市西成区,長橋１丁目３番１５号ＮＥＯＳＰＡＣＥ長橋３０１,,27,122,5570025,,,,,,,2025-10-08,1,,,,,インパブリック,0
1547,5120001280616,新規,0,2025-10-08,2025-10-08,アーキテクト再生株式会社,,株式会社,大阪府,大阪市淀川区,塚本１丁目１９－２７プレアール塚本ＩＩ２０２号,00140997,27,123,5320026,,,,,,,2025-10-08,1,,,,,アーキテクトサイセイ,0
1548,5120001280715,新規,0,2025-10-08,2025-10-08,核聚科技イノベーション株式会社,,株式会社,大阪府,大阪市中央区,農人橋２丁目１－３１第６松屋ビル６３５号室,,27,128,5400011,,,,,,,2025-10-08,1,,,,,カクシュカギ,0
1549,5120001280748,新規,0,2025-10-08,2025-10-08,スミヨシ興産株式会社,,株式会社,大阪府,大阪市鶴見区,今津南４丁目８番１０号,,27,124,5380043,,,,,,,2025-10-08,1,,,,,スミヨシコウサン,0
1552,5120003030911,新規,0,2025-10-08,2025-10-08,合同会社ＭＫＲ,,合同会社,大阪府,大阪市鶴見区,今津北２丁目１０番３６号,,27,124,5380041,,,,,,,2025-10-08,1,,,,,エムケイアール,0
1553,5120005025174,新規,0,2025-10-08,2025-10-08,一般財団法人健康卓球鳳凰会,,その他の設立登記法人,大阪府,大阪市淀川区,西宮原２丁目６番１６－２０７Ａ号,,27,123,5320004,,,,,,,2025-10-08,1,,,,,ケンコウタッキュウホウオウカイ,0
1557,5120101072590,新規,0,2025-10-08,2025-10-08,株式会社ＧＬＯＷ,,株式会社,大阪府,堺市堺区,甲斐町東１－１－１０－３Ｆ,,27,141,5900000,,,,,,,2025-10-08,1,,,,,グロー,0
1558,5120103006778,新規,0,2025-10-08,2025-10-08,合同会社クレイングレイトファル,,合同会社,大阪府,堺市西区,浜寺石津町東２丁３番１４号,,27,144,5928335,,,,,,,2025-10-08,1,,,,,クレイングレイトファル,0
1559,5120105010076,新規,0,2025-10-08,2025-10-08,一般社団法人凪,,その他の設立登記法人,大阪府,泉佐野市,泉ケ丘２丁目６番１４号,,27,213,5980072,,,,,,,2025-10-08,1,,,,,ナギ,0
1565,5122003003335,新規,0,2025-10-08,2025-10-08,Ｈｉｋａｒｉ　Ｍｉｒａｉ合同会社,,合同会社,大阪府,東大阪市,岸田堂北町３番２０－１０１号,,27,227,5770846,,,,,,,2025-10-08,1,,,,,ヒカリミライ,0
1569,5130001080701,新規,0,2025-10-08,2025-10-08,ｂｏｄｉ株式会社,,株式会社,京都府,宇治市,木幡南山１７番地の３９,,26,204,6110002,,,,,,,2025-10-08,1,,,,,ボディ,0
1570,5130001080734,新規,0,2025-10-08,2025-10-08,株式会社Ｆｒｅａｋｓ　Ｓｅｓｓｉｏｎ,,株式会社,京都府,長岡京市,一文橋１丁目１５番１０号,,26,209,6170825,,,,,,,2025-10-08,1,,,,,フリークスセッション,0
1576,5140001140231,新規,0,2025-10-08,2025-10-08,ケイツウサービス株式会社,,株式会社,兵庫県,尼崎市,神田北通４丁目４６番地の１メロディーハイム５０４号,,28,202,6600883,,,,,,,2025-10-08,1,,,,,,0
1577,5140001140256,新規,0,2025-10-08,2025-10-08,ＴＯＭ．Ｇｏｌｄ株式会社,,株式会社,兵庫県,神戸市中央区,神戸港地方字口一里山４８番地,,28,110,6500007,,,,,,,2025-10-08,1,,,,,トムゴールド,0
1578,5140001140272,新規,0,2025-10-08,2025-10-08,株式会社ＧＥＳＴ‐Ｘ,,株式会社,兵庫県,西宮市,名次町４番２２号パラシオ夙川名次１０７号室,,28,204,6620024,,,,,,,2025-10-08,1,,,,,ゲストエックス,0
1579,5140003022667,新規,0,2025-10-08,2025-10-08,合同会社ＨＩＮＡＨＡＲＵ,,合同会社,兵庫県,尼崎市,武庫川町３丁目７５番地,,28,202,6600084,,,,,,,2025-10-08,1,,,,,ヒナハル,0
1580,5140003022675,新規,0,2025-10-08,2025-10-08,合同会社木山産業,,合同会社,兵庫県,加西市,野田町１１６番地の１,,28,220,6752211,,,,,,,2025-10-08,1,,,,,,0
1581,5140005027648,新規,0,2025-10-08,2025-10-08,一般社団法人ＺＩＢＡＳＡＮ,,その他の設立登記法人,兵庫県,加西市,鴨谷町８９４番地の１,,28,220,6752444,,,,,,,2025-10-08,1,,,,,ジバサン,0
1582,5150001028459,新規,0,2025-10-08,2025-10-08,株式会社昴,,株式会社,奈良県,橿原市,曲川町６丁目１６番１１号,,29,205,6340837,,,,,,,2025-10-08,1,,,,,スバル,0
1597,5180001168871,新規,0,2025-10-08,2025-10-08,株式会社ＡＵＲＩＸ,,株式会社,愛知県,名古屋市中区,錦２丁目５番２４号,,23,106,4600003,,,,,,,2025-10-08,1,,,,,オーリクス,0
1598,5180001168888,新規,0,2025-10-08,2025-10-08,株式会社Ｌｉｅｎ,,株式会社,愛知県,名古屋市中区,平和２丁目９番１８号,,23,106,4600021,,,,,,,2025-10-08,1,,,,,リアン,0
1602,5180003029147,新規,0,2025-10-08,2025-10-08,合同会社そらのわ,,合同会社,愛知県,名古屋市東区,泉１丁目１５番地１４号,,23,102,4610001,,,,,,,2025-10-08,1,,,,,ソラノワ,0
1608,5180301040276,新規,0,2025-10-08,2025-10-08,シナジー株式会社,,株式会社,愛知県,岡崎市,上佐々木町字中切３４番地１,,23,202,4440936,,,,,,,2025-10-08,1,,,,,シナジー,0
1609,5180301040292,新規,0,2025-10-08,2025-10-08,株式会社ＴＫファクトリー,,株式会社,愛知県,豊田市,金谷町１丁目１９４番地１第一サンハイツ川原２０１号,,23,211,4710876,,,,,,,2025-10-08,1,,,,,ティーケーファクトリー,0
1610,5180301040318,新規,0,2025-10-08,2025-10-08,株式会社本田電気,,株式会社,愛知県,岡崎市,下青野町字番城１３番地３,,23,202,4440244,,,,,,,2025-10-08,1,,,,,ホンダデンキ,0
1613,5190001032580,新規,0,2025-10-08,2025-10-08,株式会社マイスターオートガラス,,株式会社,三重県,鈴鹿市,南玉垣町４９２５番地の１６,,24,207,5130816,,,,,,,2025-10-08,1,,,,,マイスターオートガラス,0
1614,5190001032589,新規,0,2025-10-08,2025-10-08,株式会社トラストエステート,,株式会社,三重県,鈴鹿市,阿古曽町１８番６号,,24,207,5130828,,,,,,,2025-10-08,1,,,,,カブシキガシサカイシャトラストエステート,0
1616,5190003005213,新規,0,2025-10-08,2025-10-08,合同会社ＨＡＲＡＰＥＣＯ,,合同会社,三重県,津市,稲葉町２４７２番地７５,,24,201,5141252,,,,,,,2025-10-08,1,,,,,ハラペコ,0
1617,5190005012075,新規,0,2025-10-08,2025-10-08,一般財団法人ＩＸファウンデーション,,その他の設立登記法人,三重県,伊勢市,小俣町相合１３０６番地,,24,203,5190502,,,,,,,2025-10-08,1,,,,,アイエックスファウンデーション,0
1619,5200001044319,新規,0,2025-10-08,2025-10-08,株式会社Ｗｉｌｌ,,株式会社,岐阜県,本巣郡北方町,北方１９２番地,,21,421,5010431,,,,,,,2025-10-08,1,,,,,ウィル,0
1621,5200003007091,新規,0,2025-10-08,2025-10-08,合同会社サンクチュアリ,,合同会社,岐阜県,岐阜市,柳津町東塚２丁目８３番地（グレイス２０３）,,21,201,5016102,,,,,,,2025-10-08,1,,,,,サンクチュアリ,0
1622,5210001020335,新規,0,2025-10-08,2025-10-08,株式会社上太田商店,,株式会社,福井県,越前市,上太田町第３４号３５番地の２,,18,209,9150882,,,,,,,2025-10-08,1,,,,,カミオオダショウテン,0
1623,5210001020343,新規,0,2025-10-08,2025-10-08,豪傑国際株式会社,,株式会社,福井県,福井市,みのり３丁目１７番１１号,,18,201,9188005,,,,,,,2025-10-08,1,,,,,ゴウケツコクサイ,0
1626,5240001065617,新規,0,2025-10-08,2025-10-08,株式会社ＯＫＯＭＥ　ＫＯＢＯ,,株式会社,広島県,広島市佐伯区,石内北２丁目３２－３３,,34,108,7315109,,,,,,,2025-10-08,1,,,,,オコメコウボウ,0
1629,5250001021379,新規,0,2025-10-08,2025-10-08,株式会社ヨシムラ,,株式会社,山口県,岩国市,麻里布町６丁目１３番８－６０３号,,35,208,7400018,,,,,,,2025-10-08,1,,,,,ヨシムラ,0
1630,5250001021387,新規,0,2025-10-08,2025-10-08,株式会社中村電工,,株式会社,山口県,下関市,勝谷新町４丁目１４番２７号,,35,201,7510802,,,,,,,2025-10-08,1,,,,,ナカムラデンコウ,0
1635,5260003005379,新規,0,2025-10-08,2025-10-08,合同会社ケアンズ,,合同会社,岡山県,岡山市北区,山上１１０７,,33,101,7011526,,,,,,,2025-10-08,1,,,,,ケアンズ,0
1639,5290001111606,新規,0,2025-10-08,2025-10-08,株式会社ＣＨＥＣＫＩＮ,,株式会社,福岡県,久留米市,中央町２２番地４０第２ロイヤルビル１Ｆ,,40,203,8300023,,,,,,,2025-10-08,1,,,,,チェックイン,0
1641,5290003017438,新規,0,2025-10-08,2025-10-08,合同会社ＣＩＴＲＩＮＥ,,合同会社,福岡県,福岡市南区,平和１丁目３０番１８号,,40,134,8150071,,,,,,,2025-10-08,1,,,,,シトリン,0
1642,5290003017470,新規,0,2025-10-08,2025-10-08,合同会社ＭｏｏｎＳｐｏｏｎ,,合同会社,福岡県,福岡市中央区,天神２丁目２番１２号Ｔ＆Ｊビルディング７Ｆ,,40,133,8100001,,,,,,,2025-10-08,1,,,,,ムーンスプーン,0
1643,5290003017520,新規,0,2025-10-08,2025-10-08,合同会社エンウェーブ,,合同会社,福岡県,久留米市,安武町安武本３１１６－２－１０１,,40,203,8300072,,,,,,,2025-10-08,1,,,,,エンウェーブ,0
1648,5290803005179,新規,0,2025-10-08,2025-10-08,合同会社大森,,合同会社,福岡県,京都郡苅田町,若久町１丁目６－１８,,40,621,8000302,,,,,,,2025-10-08,1,,,,,オオモリ,0
1651,5320005010263,新規,0,2025-10-08,2025-10-08,税理士法人ＬｕｎａＳｏｌ,,その他の設立登記法人,大分県,杵築市,大字南杵築１８７６番地５,,44,210,8730002,,,,,,,2025-10-08,1,,,,,ルナソル,0
1663,5360001035896,新規,0,2025-10-08,2025-10-08,株式会社Ｓ＆Ｌ,,株式会社,沖縄県,浦添市,勢理客２丁目１４番７－９０７号プレミアムコート浦添勢理客,,47,208,9012122,,,,,,,2025-10-08,1,,,,,エスアンドエル,0
1667,5370001053121,新規,0,2025-10-08,2025-10-08,株式会社ＲＩＫＵＥＩ,,株式会社,宮城県,仙台市太白区,東郡山２丁目４７番２３号,,04,104,9820006,,,,,,,2025-10-08,1,,,,,リクエイ,0
1673,5400001017196,新規,0,2025-10-08,2025-10-08,株式会社ケーアイエフ,,株式会社,岩手県,一関市,上大槻街３番３３号,,03,209,0210882,,,,,,,2025-10-08,1,,,,,ケーアイエフ,0
1674,5400003003533,新規,0,2025-10-08,2025-10-08,ＴＯＭビジネス合同会社,,合同会社,岩手県,一関市,新大町２－３８大町店舗（１階北側）,,03,209,0210883,,,,,,,2025-10-08,1,,,,,トムビジネス,0
1684,5430003018207,新規,0,2025-10-08,2025-10-08,合同会社ＨａｙａｂｕｓａＬａｂｓ,,合同会社,北海道,札幌市中央区,南二条西５丁目３１‐１ＲＭＢｌｄ．７０１,,01,101,0600062,,,,,,,2025-10-08,1,,,,,ハヤブサラボ,0
1699,6010001258960,新規,0,2025-10-08,2025-10-08,Ｃａｒｅｇｉｌｉｔｙ株式会社,,株式会社,東京都,中央区,八丁堀４丁目４番４号梅崎ビル３階,,13,102,1040032,,,,,,,2025-10-08,1,,,,,ケアギリティー,0
1700,6010001259182,新規,0,2025-10-08,2025-10-08,株式会社ｒｉＮＡＮＡ,,株式会社,東京都,中央区,築地３丁目９番１０号築地ビル９階ＰＨＯＥＮＩＸ,,13,102,1040045,,,,,,,2025-10-08,1,,,,,リナナ,0
1701,6010001259281,新規,0,2025-10-08,2025-10-08,Ｍｅｘｉ　Ａｅｓｔｈｅｔｉｃｓ株式会社,,株式会社,東京都,中央区,日本橋３丁目９番１号日本橋三丁目スクエア１１階,,13,102,1030027,,,,,,,2025-10-08,1,,,,,メキシエステティックス,0
1702,6010003048955,新規,0,2025-10-08,2025-10-08,セトルリンク合同会社,,合同会社,東京都,千代田区,神田和泉町１－１１－１５－４０２,,13,101,1010024,,,,,,,2025-10-08,1,,,,,セトルリンク,0
1703,6010003049004,新規,0,2025-10-08,2025-10-08,合同会社粕屋インベストメント,,合同会社,東京都,千代田区,丸の内１丁目４番１号東京共同会計事務所内,,13,101,1000005,,,,,,,2025-10-08,1,,,,,カスヤインベストメント,0
1706,6010005040753,新規,0,2025-10-08,2025-10-08,一般社団法人軽米風力発電,,その他の設立登記法人,東京都,千代田区,内神田１丁目３番７号４０１あすな会計事務所内,,13,101,1010047,,,,,,,2025-10-08,1,,,,,カルマイフウリョクハツデン,0
1712,6010401193361,新規,0,2025-10-08,2025-10-08,玖鑚國際精品株式会社,,株式会社,東京都,港区,浜松町２丁目３－８,,13,103,1050013,,,,,,,2025-10-08,1,,,,,ジュウサンコクサイショウヒン,0
1713,6010401193502,新規,0,2025-10-08,2025-10-08,株式会社ＹＭＴ,,株式会社,東京都,港区,南青山２丁目７番７号Ｂｅｌｌ南青山３０３号室,,13,103,1070062,,,,,,,2025-10-08,1,,,,,ワイエムティー,0
1714,6010401193519,新規,0,2025-10-08,2025-10-08,株式会社ＭＯＯＮ　ＬＩＧＨＴ,,株式会社,東京都,港区,南麻布３丁目１９番１１号,,13,103,1060047,,,,,,,2025-10-08,1,,,,,ムーンライト,0
1715,6010401193527,新規,0,2025-10-08,2025-10-08,株式会社ＡＵＮ企画,,株式会社,東京都,港区,高輪４丁目１８番１２号,,13,103,1080074,,,,,,,2025-10-08,1,,,,,エーユーエヌキカク,0
1719,6010403036171,新規,0,2025-10-08,2025-10-08,合同会社Ｏｃｔｏｐｕｓ,,合同会社,東京都,港区,北青山１丁目２番３号,,13,103,1070061,,,,,,,2025-10-08,1,,,,,オクトパス,0
1720,6010403036188,新規,0,2025-10-08,2025-10-08,Ｓｅｎｎａ１１０２合同会社,,合同会社,東京都,港区,高輪４丁目１５番９号,,13,103,1080074,,,,,,,2025-10-08,1,,,,,セナイチイチゼロニ,0
1727,6010501054819,新規,0,2025-10-08,2025-10-08,東京花想景観株式会社,,株式会社,東京都,台東区,柳橋１丁目２番１２号５階ＡＢＳ・Ｂ－７,,13,106,1110052,,,,,,,2025-10-08,1,,,,,トウキョウカソウケイカン,0
1734,6010703007946,新規,0,2025-10-08,2025-10-08,合同会社ＰｒｏＳｐｅｃｔｒａ,,合同会社,東京都,品川区,大崎５丁目９番３号ラフィネ大崎１１０６,,13,109,1410032,,,,,,,2025-10-08,1,,,,,プロスペクトラ,0
1736,6010801036681,新規,0,2025-10-08,2025-10-08,株式会社ＡＯＡＯ,,株式会社,東京都,大田区,大森西３丁目２８番５号コスモリード大森西２階５号室,,13,111,1430015,,,,,,,2025-10-08,1,,,,,アオアオ,0
1747,6011001172391,新規,0,2025-10-08,2025-10-08,株式会社ＫＵＲＵＭＡＤＥ,,株式会社,東京都,渋谷区,恵比寿４丁目２０番３号１８Ｆ,,13,113,1500013,,,,,,,2025-10-08,1,,,,,クルメイド,0
1748,6011001172417,新規,0,2025-10-08,2025-10-08,株式会社ＡＫＳ,,株式会社,東京都,渋谷区,本町３丁目１４番２号ステージファースト西新宿ＩＩ２０４号室,00141000,13,113,1510071,,,,,,,2025-10-08,1,,,,,,0
1749,6011001172508,新規,0,2025-10-08,2025-10-08,カンパニーファクトリー株式会社,,株式会社,東京都,渋谷区,道玄坂１丁目１０番８号渋谷道玄坂東急ビル２Ｆ－Ｃ,,13,113,1500043,,,,,,,2025-10-08,1,,,,,カンパニーファクトリー,0
1753,6011003022470,新規,0,2025-10-08,2025-10-08,Ｌａｔｉｎ　Ｃｏｎｎｅｃｔｉｏｎ合同会社,,合同会社,東京都,目黒区,上目黒５丁目２０－１８カーザ上目黒１０２,,13,110,1530051,,,,,,,2025-10-08,1,,,,,ラテンコネクション,0
1754,6011003022529,新規,0,2025-10-08,2025-10-08,Ｎｅｘｕｓ　Ｃｈｅｍ合同会社,,合同会社,東京都,渋谷区,円山町１４番３－１０３号,,13,113,1500044,,,,,,,2025-10-08,1,,,,,ネクサスケム,0
1755,6011003022578,新規,0,2025-10-08,2025-10-08,合同会社クロスリンク,,合同会社,東京都,渋谷区,道玄坂１丁目１０番８号渋谷道玄坂東急ビル２Ｆ－Ｃ,,13,113,1500043,,,,,,,2025-10-08,1,,,,,クロスリンク,0
1757,6011101113493,新規,0,2025-10-08,2025-10-08,株式会社ＢＯＲＥＣＡ,,株式会社,東京都,新宿区,高田馬場１丁目３５番３号,,13,104,1690075,,,,,,,2025-10-08,1,,,,,ボレカ,0
1758,6011101113510,新規,0,2025-10-08,2025-10-08,株式会社レアリッシュ,,株式会社,東京都,新宿区,西新宿３丁目３番１３号西新宿水間ビル２Ｆ,,13,104,1600023,,,,,,,2025-10-08,1,,,,,レアリッシュ,0
1760,6011201026686,新規,0,2025-10-08,2025-10-08,Ｖａｚｙｍｅ　Ｊａｐａｎ株式会社,,株式会社,東京都,中野区,中央４丁目１番３号ボニータ新中野ビル８階,,13,114,1640011,,,,,,,2025-10-08,1,,,,,ヴァザイムジャパン,0
1764,6011503006725,新規,0,2025-10-08,2025-10-08,Ｊパートナーズ合同会社,,合同会社,東京都,北区,豊島４丁目１０番３号,,13,117,1140003,,,,,,,2025-10-08,1,,,,,,0
1766,6011603004876,新規,0,2025-10-08,2025-10-08,シリー合同会社,,合同会社,東京都,練馬区,土支田１丁目２８番－１３号ＫＩビル１階,,13,120,1790076,,,,,,,2025-10-08,1,,,,,シリー,0
1771,6011801046885,新規,0,2025-10-08,2025-10-08,株式会社バルボア,,株式会社,東京都,足立区,江北４丁目１６番１６号,,13,121,1230872,,,,,,,2025-10-08,1,,,,,バルボア,0
1772,6011803007126,新規,0,2025-10-08,2025-10-08,ｆｒｅｅ　ｔｏ　ｄｅｓｉｇｎ合同会社,,合同会社,東京都,足立区,西綾瀬２丁目２０番６号,,13,121,1200014,,,,,,,2025-10-08,1,,,,,フリートゥデザイン,0
1781,6013301055094,新規,0,2025-10-08,2025-10-08,株式会社ＡＬＯＯ,,株式会社,東京都,豊島区,南大塚３丁目５５－１第三田村ビル,,13,116,1700005,,,,,,,2025-10-08,1,,,,,アロー,0
1787,6020001164976,新規,0,2025-10-08,2025-10-08,オールドクロウズ株式会社,,株式会社,神奈川県,横浜市西区,浅間町１丁目４番３号ウィザードビル４０２,,14,103,2200072,,,,,,,2025-10-08,1,,,,,オールドクロウズ,0
1788,6020001165116,新規,0,2025-10-08,2025-10-08,株式会社ｖｉｒｔｕｅ,,株式会社,神奈川県,横浜市青葉区,榎が丘１番地１１,,14,117,2270063,,,,,,,2025-10-08,1,,,,,ヴァーチュー,0
1791,6020003029525,新規,0,2025-10-08,2025-10-08,Ｓｈｏｒｅｓ　Ｊａｐａｎ合同会社,,合同会社,神奈川県,横浜市中区,諏訪町１１番地５,,14,104,2310863,,,,,,,2025-10-08,1,,,,,ショアーズジャパン,0
1793,6021001086475,新規,0,2025-10-08,2025-10-08,株式会社カナコー喜々楽,,株式会社,神奈川県,相模原市南区,麻溝台８丁目１２番５号,,14,153,2520328,,,,,,,2025-10-08,1,,,,,カナコーキキラ,0
1794,6021001086533,新規,0,2025-10-08,2025-10-08,株式会社グリーン・アンド・パートナーズ,,株式会社,神奈川県,相模原市中央区,鹿沼台２丁目９番２０－４２８号,,14,152,2520233,,,,,,,2025-10-08,1,,,,,グリーンアンドパートナーズ,0
1802,6030001168910,新規,0,2025-10-08,2025-10-08,エイチエムエスジャパン株式会社,,株式会社,埼玉県,所沢市,狭山ケ丘２丁目２７番１６号,,11,208,3591161,,,,,,,2025-10-08,1,,,,,エイチエムエスジャパン,0
1803,6030001169099,新規,0,2025-10-08,2025-10-08,敬愛サポート株式会社,,株式会社,埼玉県,川越市,新宿町１丁目１７番地１７ウエスタ川越５１８号,,11,201,3501124,,,,,,,2025-10-08,1,,,,,ケイアイサポート,0
1804,6030001169116,新規,0,2025-10-08,2025-10-08,株式会社ネクエス,,株式会社,埼玉県,川口市,戸塚２丁目９－１４,,11,203,3330811,,,,,,,2025-10-08,1,,,,,ネクエス,0
1807,6030003027817,新規,0,2025-10-08,2025-10-08,ココビコウ合同会社,,合同会社,埼玉県,川口市,並木３丁目３番１９号,,11,203,3320034,,,,,,,2025-10-08,1,,,,,ココビコウ,0
1819,6040001140802,新規,0,2025-10-08,2025-10-08,株式会社ムン,,株式会社,千葉県,千葉市中央区,院内１丁目２－２１フラッツ１００、４１３号室,,12,101,2600018,,,,,,,2025-10-08,1,,,,,ムン,0
1822,6040003028649,新規,0,2025-10-08,2025-10-08,合同会社ＣＵＲＩＯＮＥＳＴ,,合同会社,千葉県,市川市,香取２丁目９番１８イニシア行徳７０６号,,12,203,2720141,,,,,,,2025-10-08,1,,,,,クリオネスト,0
1824,6050001057384,新規,0,2025-10-08,2025-10-08,株式会社ａｄｉｖｅ,,株式会社,茨城県,つくば市,鍋沼新田４０２番地８,,08,220,3002663,,,,,,,2025-10-08,1,,,,,アドイベ,0
1829,6070003006148,新規,0,2025-10-08,2025-10-08,プロンテス合同会社,,合同会社,群馬県,沼田市,薄根町３６４１番地９フォレストＡ－２０２号,,10,206,3780031,,,,,,,2025-10-08,1,,,,,プロンテス,0
1840,6100001038998,新規,0,2025-10-08,2025-10-08,株式会社ＨＥＹ,,株式会社,長野県,松本市,大字島立６４５番地１,,20,202,3900852,,,,,,,2025-10-08,1,,,,,ヘイ,0
1846,6110001039599,新規,0,2025-10-08,2025-10-08,株式会社プチトマト,,株式会社,新潟県,新潟市中央区,鳥屋野２丁目４番１６号フロンティア２－Ｂ,,15,103,9500951,,,,,,,2025-10-08,1,,,,,プチトマト,0
1847,6110001039608,新規,0,2025-10-08,2025-10-08,株式会社羊画廊,,株式会社,新潟県,新潟市中央区,西堀通７番町１５５１番地２ホワイトプラザ西堀００３,,15,103,9518061,,,,,,,2025-10-08,1,,,,,ヒツジガロウ,0
1850,6110003005921,新規,0,2025-10-08,2025-10-08,合同会社ｓｅｒｅｎｏｗａ,,合同会社,新潟県,新潟市江南区,諏訪２丁目４－２８,,15,104,9500127,,,,,,,2025-10-08,1,,,,,セレノワ,0
1859,6120001280409,新規,0,2025-10-08,2025-10-08,株式会社Ａ　ｎｅｘｔ,,株式会社,大阪府,大阪市城東区,古市１丁目１番２５号,,27,118,5360001,,,,,,,2025-10-08,1,,,,,エーネクスト,0
1860,6120001280557,新規,0,2025-10-08,2025-10-08,株式会社宇光,,株式会社,大阪府,大阪市北区,松ケ枝町１番４１－３０３号,,27,127,5300037,,,,,,,2025-10-08,1,,,,,ウコウ,0
1861,6120001280862,新規,0,2025-10-08,2025-10-08,懿禾教育株式会社,,株式会社,大阪府,大阪市中央区,島之内２丁目９番１５－２０７号,,27,128,5420082,,,,,,,2025-10-08,1,,,,,イカキョウイク,0
1863,6120003030852,新規,0,2025-10-08,2025-10-08,合同会社お米企画,,合同会社,大阪府,大阪市北区,浮田２丁目１－３Ｒｅ：ＺＯＮＥ天六０１－３０７号室,,27,127,5300021,,,,,,,2025-10-08,1,,,,,オコメキカク,0
1864,6120003030943,新規,0,2025-10-08,2025-10-08,合同会社ｎｅｏ,,合同会社,大阪府,大阪市西成区,長橋３丁目２番２９－１０１号,,27,122,5570025,,,,,,,2025-10-08,1,,,,,ネオ,0
1877,6130001080700,新規,0,2025-10-08,2025-10-08,株式会社Ｍｔ．ＰＥＡＣＥ,,株式会社,京都府,亀岡市,保津町山ノ坊４８番地,,26,206,6210005,,,,,,,2025-10-08,1,,,,,マウントピース,0
1878,6130001080709,新規,0,2025-10-08,2025-10-08,株式会社Ｌｉ‐Ｌｕ,,株式会社,京都府,京都市伏見区,横大路芝生３０番地８,,26,109,6128246,,,,,,,2025-10-08,1,,,,,リール,0
1880,6130003010829,新規,0,2025-10-08,2025-10-08,合同会社Ａｓａｈｉ　ＤＸ,,合同会社,京都府,京都市南区,久世高田町３７３番地１京都桂川つむぎの街グランスクエア１３１０号,,26,107,6018211,,,,,,,2025-10-08,1,,,,,アサヒディーエックス,0
1886,6140001140255,新規,0,2025-10-08,2025-10-08,株式会社山一,,株式会社,兵庫県,宝塚市,末成町３１番２４号グリーンハイツ１０３号,,28,214,6650044,,,,,,,2025-10-08,1,,,,,ヤマイチ,0
1888,6140003022658,新規,0,2025-10-08,2025-10-08,合同会社ＡＴＳ　ＡＴＨＬＥＴＥ　ＨＯＲＳＥＳ,,合同会社,兵庫県,神戸市北区,山田町小部字惣六畑山鈴蘭乗馬クラブ内,,28,109,6511101,,,,,,,2025-10-08,1,,,,,エーティーエスアスリートホーシーズ,0
1889,6140003022666,新規,0,2025-10-08,2025-10-08,お魚旬船便合同会社,,合同会社,兵庫県,姫路市,白浜町甲９１２番地８,,28,201,6728023,,,,,,,2025-10-08,1,,,,,オサカナシュンセンビン,0
1890,6140003022674,新規,0,2025-10-08,2025-10-08,合同会社山崎工業,00140995,合同会社,兵庫県,神戸市垂水区,本多聞２丁目１５番４号,,28,108,6550006,,,,,,,2025-10-08,1,,,,,ヤマサキコウギョウ,0
1895,6170001018829,新規,0,2025-10-08,2025-10-08,株式会社ゼクロスアーク,,株式会社,和歌山県,和歌山市,砂山南４丁目２番１７号,,30,201,6408272,,,,,,,2025-10-08,1,,,,,ゼクロスアーク,0
1904,6180001168771,新規,0,2025-10-08,2025-10-08,株式会社ＥＣＭ　ＪＰ,,株式会社,愛知県,津島市,今市場町３丁目９０番地,,23,208,4960803,,,,,,,2025-10-08,1,,,,,イーシーエムジェイピー,0
1905,6180001168813,新規,0,2025-10-08,2025-10-08,スガワラくんレーシング株式会社,,株式会社,愛知県,名古屋市中村区,名駅南１丁目２４番３０号名古屋三井ビル本館,,23,105,4500003,,,,,,,2025-10-08,1,,,,,スガワラクンレーシング,0
1906,6180001168879,新規,0,2025-10-08,2025-10-08,株式会社アイベクトル,,株式会社,愛知県,稲沢市,高御堂５丁目１６０番地１４,,23,220,4928213,,,,,,,2025-10-08,1,,,,,アイベクトル,0
1907,6180001168887,新規,0,2025-10-08,2025-10-08,株式会社なな,,株式会社,愛知県,名古屋市東区,泉３丁目１４番１２号アーデン泉プレミア７０４号,,23,102,4610001,,,,,,,2025-10-08,1,,,,,ナナ,0
1908,6180001168895,新規,0,2025-10-08,2025-10-08,株式会社Ｗｏｒｌｄ　Ｂｉｔｅ,,株式会社,愛知県,西春日井郡豊山町,大字豊場字新栄１４３番地,,23,342,4800202,,,,,,,2025-10-08,1,,,,,ワールドバイト,0
1909,6180001168929,新規,0,2025-10-08,2025-10-08,ＡＭＡＮＩ株式会社,,株式会社,愛知県,東海市,富木島町前田面１２６－１,,23,222,4760011,,,,,,,2025-10-08,1,,,,,アマニ,0
1913,6180003029195,新規,0,2025-10-08,2025-10-08,ワンパーム合同会社,,合同会社,愛知県,常滑市,新田町２丁目２４－２,,23,216,4790855,,,,,,,2025-10-08,1,,,,,ワンパーム,0
1915,6180005021266,新規,0,2025-10-08,2025-10-08,一般社団法人かみのくら子どもＢＡＳＥ,,その他の設立登記法人,愛知県,名古屋市緑区,元徳重２丁目５０４番地,,23,114,4580852,,,,,,,2025-10-08,1,,,,,カミノクラコドモベース,0
1921,6190001032588,新規,0,2025-10-08,2025-10-08,株式会社フィロファータ,,株式会社,三重県,鈴鹿市,道伯４丁目４番１２号,,24,207,5130823,,,,,,,2025-10-08,1,,,,,フィロファータ,0
1922,6190001032596,新規,0,2025-10-08,2025-10-08,株式会社亀田建材,,株式会社,三重県,鈴鹿市,自由ヶ丘３丁目７番２５号,,24,207,5131124,,,,,,,2025-10-08,1,,,,,カメダケンザイ,0
1924,6200001044292,新規,0,2025-10-08,2025-10-08,芯和空調株式会社,,株式会社,岐阜県,岐阜市,芥見町屋２丁目２５４番地,,21,201,5013116,,,,,,,2025-10-08,1,,,,,シンワクウチョウ,0
1925,6200001044318,新規,0,2025-10-08,2025-10-08,ＴＹＭ株式会社,,株式会社,岐阜県,中津川市,中津川字北野７９３番地１,,21,206,5080001,,,,,,,2025-10-08,1,,,,,ティーワイエム,0
1927,6200003007090,新規,0,2025-10-08,2025-10-08,ＦＡＬＣＯＮ　ＴＲＡＤＩＮＧ合同会社,,合同会社,岐阜県,美濃加茂市,西町７丁目３１３番地西町テナント３－Ｂ,,21,211,5050046,,,,,,,2025-10-08,1,,,,,ファルコントレーディング,0
1928,6210001020334,新規,0,2025-10-08,2025-10-08,株式会社ＨＡＤＡＹＡＴ　ＴＲＡＤＩＮＧ,,株式会社,福井県,福井市,寺前町３－２５－６,,18,201,9100801,,,,,,,2025-10-08,1,,,,,ハダヤットトレーディング,0
1929,6210001020342,新規,0,2025-10-08,2025-10-08,敦賀気比酒造株式会社,,株式会社,福井県,敦賀市,本町１丁目４番１３号,,18,202,9140051,,,,,,,2025-10-08,1,,,,,ツルガケヒシュゾウ,0
1930,6230001021124,新規,0,2025-10-08,2025-10-08,ＯＨＡＮＡ　ＢＯＥＫＩ株式会社,,株式会社,富山県,富山市,岩木１２４番地,,16,201,9392246,,,,,,,2025-10-08,1,,,,,オハナボーエキ,0
1933,6250001021386,新規,0,2025-10-08,2025-10-08,ＨＩＴＯｔｏＷＡホールディングス株式会社,,株式会社,山口県,岩国市,周東町下久原１０２３番地７,,35,208,7420417,,,,,,,2025-10-08,1,,,,,ヒトトワホールディングス,0
1934,6260003005378,新規,0,2025-10-08,2025-10-08,合同会社クリーンマスター,,合同会社,岡山県,赤磐市,桜が丘西６丁目１２番２０号,,33,213,7090802,,,,,,,2025-10-08,1,,,,,クリーンマスター,0
1936,6270001009306,新規,0,2025-10-08,2025-10-08,株式会社ＹＯＣＯ,,株式会社,鳥取県,東伯郡北栄町,妻波７４１,,31,372,6892224,,,,,,,2025-10-08,1,,,,,ヨーコー,0
1937,6290001111761,新規,0,2025-10-08,2025-10-08,ＣｒｏｓｓＦｉｅｌｄ　Ｌａｂｓ株式会社,,株式会社,福岡県,福岡市東区,名島５丁目６７番３５－１００５号,,40,131,8130043,,,,,,,2025-10-08,1,,,,,クロスフィールドラボ,0
1939,6290003017585,新規,0,2025-10-08,2025-10-08,合同会社ＡＹＵＭＯＲＥ,,合同会社,福岡県,久留米市,北野町中４４８－１,,40,203,8301113,,,,,,,2025-10-08,1,,,,,アユモア,0
1940,6290801031928,新規,0,2025-10-08,2025-10-08,株式会社釜田建設,,株式会社,福岡県,中間市,長津３丁目１２番１１－２号,,40,215,8090036,,,,,,,2025-10-08,1,,,,,カマダケンセツ,0
1941,6290801031936,新規,0,2025-10-08,2025-10-08,株式会社Ｌｉｚ　ＪＡＰＡＮ,,株式会社,福岡県,北九州市小倉南区,田原新町２丁目５番１号１階,,40,107,8000226,,,,,,,2025-10-08,1,,,,,リズジャパン,0
1942,6290803005178,新規,0,2025-10-08,2025-10-08,合同会社ルート,,合同会社,福岡県,北九州市八幡東区,尾倉１丁目１３番１号,,40,108,8050059,,,,,,,2025-10-08,1,,,,,ルート,0
1945,6310003005100,新規,0,2025-10-08,2025-10-08,合同会社ファイブエーコンサルタント,,合同会社,長崎県,佐世保市,三川内町６７４番地２,,42,202,8593155,,,,,,,2025-10-08,1,,,,,ファイブエーコンサルタント,0
1946,6310005008877,新規,0,2025-10-08,2025-10-08,一般社団法人僚船の詩,,その他の設立登記法人,長崎県,長崎市,大浦町１番３３－８０８号,,42,201,8500918,,,,,,,2025-10-08,1,,,,,リョウセンノウタ,0
1952,6330001033638,新規,0,2025-10-08,2025-10-08,木下圧送株式会社,,株式会社,熊本県,八代市,千反町１丁目７号２番地,,43,202,8660053,,,,,,,2025-10-08,1,,,,,キノシタアッソウ,0
1957,6340003004966,新規,0,2025-10-08,2025-10-08,南通信エナジー合同会社,,合同会社,鹿児島県,鹿児島市,船津町１番１１号,,46,201,8920831,,,,,,,2025-10-08,1,,,,,ミナミツウシンエナジー,0
1959,6360001035887,新規,0,2025-10-08,2025-10-08,株式会社ＬＩＦＩＮＫ,,株式会社,沖縄県,うるま市,安慶名２丁目１０番３４号・１Ｆ,,47,213,9042214,,,,,,,2025-10-08,1,,,,,ライフィンク,0
1964,6370001053095,新規,0,2025-10-08,2025-10-08,株式会社ＪＳＫ,,株式会社,宮城県,登米市,迫町新田字狼ノ欠３１番地３２ユングフラウＩＩ号館２０１号室,00141005,04,212,9894601,,,,,,,2025-10-08,1,,,,,ジェーエスケー,0
1986,6490001011181,新規,0,2025-10-08,2025-10-08,株式会社Ｗｏｏｐｒｏｓｐｅｒｉｔｙ,,株式会社,高知県,高知市,追手筋１丁目３番８号前田ビル２Ｆ,,39,201,7800842,,,,,,,2025-10-08,1,,,,,ウープロスペリティ,0
1987,6500001026566,新規,0,2025-10-08,2025-10-08,株式会社Ｌｉｅｕ,,株式会社,愛媛県,四国中央市,妻鳥町４６５番地５,,38,213,7990113,,,,,,,2025-10-08,1,,,,,リュウ,0
2003,7010001258984,新規,0,2025-10-08,2025-10-08,ＣＯＤＥＳＣＩＥＮＣＥ株式会社,,株式会社,東京都,中央区,日本橋茅場町２丁目５番６号６１０号室,,13,102,1030025,,,,,,,2025-10-08,1,,,,,コードサイエンス,0
2004,7010001259149,新規,0,2025-10-08,2025-10-08,株式会社ＲｅＳＦｉＤａ,,株式会社,東京都,中央区,銀座１丁目１２－４Ｎ＆ＥＢＬＤ．７階,,13,102,1040061,,,,,,,2025-10-08,1,,,,,レスフィーダ,0
2005,7010001259173,新規,0,2025-10-08,2025-10-08,株式会社ＨｏｇａＬａｂ,,株式会社,東京都,千代田区,内神田３丁目５番５号,,13,101,1010047,,,,,,,2025-10-08,1,,,,,ホガラボ,0
2006,7010001259181,新規,0,2025-10-08,2025-10-08,ＶＭＦｉ株式会社,,株式会社,東京都,中央区,八重洲２丁目２番１号東京ミッドタウン八重洲八重洲セントラルタワー７階Ａ－０２０室,,13,102,1040028,,,,,,,2025-10-08,1,,,,,ヴイエムファイ,0
2007,7010001259207,新規,0,2025-10-08,2025-10-08,ＣＩ　Ｐｌｕｓ　Ｐａｒｔｎｅｒｓ株式会社,,株式会社,東京都,千代田区,永田町２丁目１２番８号永田町ＳＲビル８Ｆ,,13,101,1000014,,,,,,,2025-10-08,1,,,,,シーアイプラスパートナーズ,0
2009,7010003048970,新規,0,2025-10-08,2025-10-08,合同会社エラワン,,合同会社,東京都,文京区,弥生２丁目１１番１４号,,13,105,1130032,,,,,,,2025-10-08,1,,,,,エラワン,0
2013,7010005040728,新規,0,2025-10-08,2025-10-08,特定非営利活動法人まるっと生前対策サポート協会,,その他の設立登記法人,東京都,中央区,日本橋箱崎町３５番３号ＢＲＩＣＫＧＡＴＥ日本橋２階,,13,102,1030015,,,,,,,2025-10-08,1,,,,,マルットセイゼンタイサクサポートキョウカイ,0
2014,7010103002662,新規,0,2025-10-08,2025-10-08,合同会社オンユアマーク,,合同会社,東京都,八王子市,館町２９３１番地６,,13,201,1930944,,,,,,,2025-10-08,1,,,,,オンユアマーク,0
2027,7010401193526,新規,0,2025-10-08,2025-10-08,株式会社ＦＩＴ＆Ｃｏｍｐａｎｙ,,株式会社,東京都,港区,北青山１丁目３番１号アールキューブ青山３階,,13,103,1070061,,,,,,,2025-10-08,1,,,,,フィットアンドカンパニー,0
2028,7010401193534,新規,0,2025-10-08,2025-10-08,ＲＩＶＩＣＡ株式会社,,株式会社,東京都,港区,南麻布１丁目５番８号南麻布スキップフラット４０２,,13,103,1060047,,,,,,,2025-10-08,1,,,,,リヴィカ,0
2029,7010403036138,新規,0,2025-10-08,2025-10-08,ＡＲＫＯＬ合同会社,,合同会社,東京都,港区,南青山７丁目４番１４号,,13,103,1070062,,,,,,,2025-10-08,1,,,,,アルコル,0
2030,7010403036245,新規,0,2025-10-08,2025-10-08,よつばインクルージョン合同会社,,合同会社,東京都,港区,新橋２丁目１６番１号ニュー新橋ビル７０８Ｃ‐５号室,,13,103,1050004,,,,,,,2025-10-08,1,,,,,ヨツバインクルージョン,0
2034,7010501054834,新規,0,2025-10-08,2025-10-08,株式会社ＣＩＴＲＩＮ,,株式会社,東京都,台東区,谷中３丁目１８番６号,,13,106,1100001,,,,,,,2025-10-08,1,,,,,シトリン,0
2035,7010501054850,新規,0,2025-10-08,2025-10-08,株式会社ネヅク,,株式会社,東京都,台東区,浅草橋２丁目２８番１７－４０２号サンメゾン浅草橋,,13,106,1110053,,,,,,,2025-10-08,1,,,,,ネヅク,0
2036,7010505003647,新規,0,2025-10-08,2025-10-08,一般社団法人講談協会,,その他の設立登記法人,東京都,台東区,上野５丁目５番１０号,,13,106,1100005,,,,,,,2025-10-08,1,,,,,コウダンキョウカイ,0
2040,7010601068098,新規,0,2025-10-08,2025-10-08,マルテラス株式会社,,株式会社,東京都,江東区,森下５丁目２０番６号ＫＫ－ＲＥＴＲＥＡＴ１０１,,13,108,1350004,,,,,,,2025-10-08,1,,,,,マルテラス,0
2044,7010701048421,新規,0,2025-10-08,2025-10-08,株式会社ｍｅｚａｓｈｉ,,株式会社,東京都,品川区,西大井１丁目１番２－１６０１号,,13,109,1400015,,,,,,,2025-10-08,1,,,,,メザシ,0
2049,7010801036672,新規,0,2025-10-08,2025-10-08,株式会社ＳａｋｕｒａＮａＭｏｍｏ,,株式会社,東京都,大田区,久が原６丁目１番３号,,13,111,1460085,,,,,,,2025-10-08,1,,,,,サクラナモモ,0
2050,7010801036680,新規,0,2025-10-08,2025-10-08,ＢＬＩＳＳ　ＭＥＲＭＡＩＤ株式会社,,株式会社,東京都,大田区,大森西１丁目１７番１８－２０３号,,13,111,1430015,,,,,,,2025-10-08,1,,,,,ブリスマーメイド,0
2051,7010901058237,新規,0,2025-10-08,2025-10-08,株式会社ソルシュ,,株式会社,東京都,世田谷区,太子堂４丁目１８番－１５号,,13,112,1540004,,,,,,,2025-10-08,1,,,,,ソルシュ,0
2059,7011001172399,新規,0,2025-10-08,2025-10-08,株式会社Ｐｕｎｋｓコンテンツ,,株式会社,東京都,目黒区,三田１丁目４－４－３０５,,13,110,1530062,,,,,,,2025-10-08,1,,,,,パンクスコンテンツ,0
2060,7011001172507,新規,0,2025-10-08,2025-10-08,三和会計株式会社,,株式会社,東京都,目黒区,碑文谷６丁目１番２号,,13,110,1520003,,,,,,,2025-10-08,1,,,,,サンワカイケイ,0
2061,7011001172589,新規,0,2025-10-08,2025-10-08,深糺テクノロジー株式会社,,株式会社,東京都,渋谷区,道玄坂１丁目１０番８号渋谷道玄坂東急ビル２Ｆ－Ｃ,,13,113,1500043,,,,,,,2025-10-08,1,,,,,シンキュウテクノロジー,0
2062,7011001172639,新規,0,2025-10-08,2025-10-08,株式会社Ａｄｓｅｎｔ,,株式会社,東京都,渋谷区,神南１丁目１１番４号ＦＰＧリンクス神南５階,,13,113,1500041,,,,,,,2025-10-08,1,,,,,アドセント,0
2063,7011001172960,新規,0,2025-10-08,2025-10-08,株式会社ＰＩＣＯ　ｎｏｔｅ,,株式会社,東京都,渋谷区,道玄坂１丁目１０番８号渋谷道玄坂東急ビル２Ｆ－Ｃ,,13,113,1500043,,,,,,,2025-10-08,1,,,,,ピコノート,0
2070,7011103016512,新規,0,2025-10-08,2025-10-08,合同会社Ｅｄｉｔｉｏｎ,,合同会社,東京都,新宿区,西新宿３丁目３番１３号西新宿水間ビル２Ｆ,,13,104,1600023,,,,,,,2025-10-08,1,,,,,エディション,0
2074,7011501032656,新規,0,2025-10-08,2025-10-08,株式会社万嘉,,株式会社,東京都,北区,東十条１丁目１９番地６ルビ城北２０２,,13,117,1140001,,,,,,,2025-10-08,1,,,,,バンカ,0
2076,7011503006716,新規,0,2025-10-08,2025-10-08,明智産業合同会社,,合同会社,東京都,荒川区,東日暮里６丁目２４番１６－１Ｆ,,13,118,1160014,,,,,,,2025-10-08,1,,,,,メイチサンギョウ,0
2077,7011503006724,新規,0,2025-10-08,2025-10-08,ＤＫ合同会社,,合同会社,東京都,北区,浮間３丁目２１番１４号グリーンビレッジＩＩ－２０３号,00141003,13,117,1150051,,,,,,,2025-10-08,1,,,,,ディーケー,0
2080,7011801046868,新規,0,2025-10-08,2025-10-08,ＳＭＹホールディングス株式会社,,株式会社,東京都,足立区,大谷田５丁目３３番７号,,13,121,1200001,,,,,,,2025-10-08,1,,,,,エスエムワイホールディングス,0
2081,7011801046884,新規,0,2025-10-08,2025-10-08,方圓株式会社,,株式会社,東京都,葛飾区,東新小岩５丁目１４番１６号１０５（Ａ）室,,13,122,1240023,,,,,,,2025-10-08,1,,,,,ホウエン,0
2082,7011801046892,新規,0,2025-10-08,2025-10-08,株式会社ＫＡＪＩホールディングス,,株式会社,東京都,足立区,鹿浜５丁目２０番１１号,,13,121,1230864,,,,,,,2025-10-08,1,,,,,カジホールディングス,0
2083,7012403007382,新規,0,2025-10-08,2025-10-08,フタバ合同会社,,合同会社,東京都,武蔵野市,西久保３丁目２１番９号,,13,203,1800013,,,,,,,2025-10-08,1,,,,,フタバ,0
2085,7012801024293,新規,0,2025-10-08,2025-10-08,株式会社ＨＩＧＨ　ＴＩＭＥ,,株式会社,東京都,立川市,高松町１丁目１番１４号,,13,202,1900011,,,,,,,2025-10-08,1,,,,,ハイタイム,0
2090,7013301055093,新規,0,2025-10-08,2025-10-08,スカイビジョン株式会社,,株式会社,東京都,豊島区,池袋２丁目６５番６－１階,,13,116,1710014,,,,,,,2025-10-08,1,,,,,スカイビジョン,0
2095,7020001164983,新規,0,2025-10-08,2025-10-08,株式会社キャプテンメソッド,,株式会社,神奈川県,川崎市川崎区,駅前本町１１番地２川崎フロンティアビル４階,,14,131,2100007,,,,,,,2025-10-08,1,,,,,キャプテンメソッド,0
2096,7020001165115,新規,0,2025-10-08,2025-10-08,アールノア株式会社,,株式会社,神奈川県,川崎市中原区,木月伊勢町９番３５号,,14,133,2110032,,,,,,,2025-10-08,1,,,,,アールノア,0
2097,7020001165131,新規,0,2025-10-08,2025-10-08,タッドポールン株式会社,,株式会社,神奈川県,横浜市港北区,綱島東１丁目２２番９号ギ・ヒュッゲ２０２,,14,109,2230052,,,,,,,2025-10-08,1,,,,,タッドポールン,0
2098,7020001165180,新規,0,2025-10-08,2025-10-08,株式会社ＴＩＬ,,株式会社,神奈川県,横浜市神奈川区,金港町５番地１４クアドリフォリオ８階,,14,102,2210056,,,,,,,2025-10-08,1,,,,,ティアイエル,0
2103,7021001086524,新規,0,2025-10-08,2025-10-08,株式会社村田,,株式会社,神奈川県,厚木市,松枝１丁目５番５号,,14,212,2430005,,,,,,,2025-10-08,1,,,,,ムラタ,0
2105,7021003016677,新規,0,2025-10-08,2025-10-08,Ｃｈａｎｇｅ　ｏｎｅ合同会社,,合同会社,神奈川県,厚木市,中町３丁目１２番４号山口歯科ビル１Ｆ,,14,212,2430018,,,,,,,2025-10-08,1,,,,,チェンジワン,0
2106,7021003016685,新規,0,2025-10-08,2025-10-08,Ａｕｔｏｈａｕｓ　Ｋａｉｚｅｎ合同会社,,合同会社,神奈川県,厚木市,中町４丁目１４番１号サクセス本厚木ビル６０３,,14,212,2430018,,,,,,,2025-10-08,1,,,,,オートハウスカイゼン,0
2117,7030001168884,新規,0,2025-10-08,2025-10-08,株式会社ＭＡＲＵ,,株式会社,埼玉県,さいたま市浦和区,岸町４丁目２６番１－７０７号,,11,107,3300064,,,,,,,2025-10-08,1,,,,,マル,0
2119,7030003027782,新規,0,2025-10-08,2025-10-08,合同会社ＢＳＧ　ｌｏｇｉｓｔｉｃ,,合同会社,埼玉県,入間郡毛呂山町,大字西戸９４８,,11,326,3500438,,,,,,,2025-10-08,1,,,,,ビーエスジーロジテック,0
2126,7040003028573,新規,0,2025-10-08,2025-10-08,合同会社プラッツ,,合同会社,千葉県,富津市,小久保２８３４‐２,,12,226,2930042,,,,,,,2025-10-08,1,,,,,プラッツ,0
2127,7040003028706,新規,0,2025-10-08,2025-10-08,合同会社ＢＬＵＥＢＩＲＤＳ,,合同会社,千葉県,松戸市,新松戸南３丁目１５４番地,,12,207,2700035,,,,,,,2025-10-08,1,,,,,ブルーバーズ,0
2130,7050001057409,新規,0,2025-10-08,2025-10-08,株式会社関口家具,,株式会社,茨城県,古河市,下大野１９９３番地,,08,204,3060204,,,,,,,2025-10-08,1,,,,,セキグチカグ,0
2131,7050001057417,新規,0,2025-10-08,2025-10-08,猿島浄化槽メンテナンス株式会社,,株式会社,茨城県,坂東市,山１９４７番地２,,08,228,3060502,,,,,,,2025-10-08,1,,,,,サシマジョウカソウメンテナンス,0
2132,7050001057425,新規,0,2025-10-08,2025-10-08,株式会社ＯＭＨＴ,,株式会社,茨城県,ひたちなか市,田中後２３番地１２,,08,221,3111235,,,,,,,2025-10-08,1,,,,,オーエムエイチティー,0
2136,7050003009671,新規,0,2025-10-08,2025-10-08,合同会社ＭＯＲＩ,,合同会社,茨城県,稲敷郡美浦村,大字布佐１５１８番地,,08,442,3000427,,,,,,,2025-10-08,1,,,,,モリ,0
2138,7070001043431,新規,0,2025-10-08,2025-10-08,株式会社ＣＲ　ＴＲＡＤＥＲＳ,,株式会社,群馬県,太田市,大原町１１１－３６,,10,205,3792304,,,,,,,2025-10-08,1,,,,,,0
2144,7070003006147,新規,0,2025-10-08,2025-10-08,ＡＤＨＩＰＡＴＩ合同会社,,合同会社,群馬県,館林市,緑町２丁目２７番３７号半田ビル２号室,,10,207,3740025,,,,,,,2025-10-08,1,,,,,アディパティ,0
2146,7080001027202,新規,0,2025-10-08,2025-10-08,株式会社ネクストビジョン,,株式会社,静岡県,藤枝市,天王町３丁目８番３４号,,22,214,4260019,,,,,,,2025-10-08,1,,,,,ネクストビジョン,0
2147,7080003003572,新規,0,2025-10-08,2025-10-08,合同会社オールケア清水,,合同会社,静岡県,静岡市清水区,川原町１９－５,,22,103,4240857,,,,,,,2025-10-08,1,,,,,オールケアシミズ,0
2148,7080403005359,新規,0,2025-10-08,2025-10-08,合同会社Ｋｅｕｓ,,合同会社,静岡県,御前崎市,塩原新田１７４番地５,,22,223,4371614,,,,,,,2025-10-08,1,,,,,ケウス,0
2156,7100005013393,新規,0,2025-10-08,2025-10-08,労働者協同組合ヤマコープ,,その他の設立登記法人,長野県,下高井郡山ノ内町,大字平穏２９４３番地１０,,20,561,3810401,,,,,,,2025-10-08,1,,,,,ヤマコープ,0
2178,7120001280366,新規,0,2025-10-08,2025-10-08,楽宅株式会社,,株式会社,大阪府,大阪市生野区,新今里６丁目９番１７号ロイヤルコート４１１号室,,27,116,5440001,,,,,,,2025-10-08,1,,,,,ラクタク,0
2179,7120001280630,新規,0,2025-10-08,2025-10-08,和煦逐光株式会社,,株式会社,大阪府,大阪市東成区,中道１丁目５－２４木杉ビル２０２号,,27,115,5370025,,,,,,,2025-10-08,1,,,,,ナゴミノヒカリ,0
2180,7120001280671,新規,0,2025-10-08,2025-10-08,株式会社サンアリウム,,株式会社,大阪府,大阪市東住吉区,湯里５丁目５番８号,,27,121,5460013,,,,,,,2025-10-08,1,,,,,サンアリウム,0
2181,7120001280861,新規,0,2025-10-08,2025-10-08,可位株式会社,,株式会社,大阪府,大阪市浪速区,大国１丁目９番１５－５０２号,,27,111,5560014,,,,,,,2025-10-08,1,,,,,カイ,0
2184,7120005025197,新規,0,2025-10-08,2025-10-08,一般社団法人ＯＵ,,その他の設立登記法人,大阪府,大阪市淀川区,木川東３丁目４番１１号,,27,123,5320012,,,,,,,2025-10-08,1,,,,,オーユー,0
2188,7120101072556,新規,0,2025-10-08,2025-10-08,株式会社Ｙ’ｓ,,株式会社,大阪府,泉佐野市,元町８番１３号,,27,213,5980056,,,,,,,2025-10-08,1,,,,,ワイズ,0
2189,7120101072589,新規,0,2025-10-08,2025-10-08,株式会社ＢＬＵＥ,,株式会社,大阪府,堺市堺区,甲斐町東１－１－１０－３Ｆ,,27,141,5900000,,,,,,,2025-10-08,1,,,,,ブルー,0
2193,7120901051635,新規,0,2025-10-08,2025-10-08,株式会社エステート前川,,株式会社,大阪府,茨木市,平田２丁目２２番１６号,,27,211,5670845,,,,,,,2025-10-08,1,,,,,エステートマエカワ,0
2195,7122001039742,新規,0,2025-10-08,2025-10-08,アイダ照明株式会社,,株式会社,大阪府,八尾市,宮町６丁目３番１号,,27,212,5810815,,,,,,,2025-10-08,1,,,,,アイダショウメイ,0
2197,7130001080757,新規,0,2025-10-08,2025-10-08,株式会社ピーエイチアール,,株式会社,京都府,宇治市,槇島町一町田１１番地１３信開ビル３０２号,,26,204,6110041,,,,,,,2025-10-08,1,,,,,ピーエイチアール,0
2200,7140001140163,新規,0,2025-10-08,2025-10-08,株式会社ビー,,株式会社,兵庫県,姫路市,東辻井１丁目９番２４号,00141002,28,201,6700084,,,,,,,2025-10-08,1,,,,,ビー,0
2201,7140001140262,新規,0,2025-10-08,2025-10-08,株式会社シースリー,,株式会社,兵庫県,尼崎市,大庄中通１丁目１番地,,28,202,6600075,,,,,,,2025-10-08,1,,,,,シースリー,0
2202,7140001140312,新規,0,2025-10-08,2025-10-08,株式会社ブール,,株式会社,兵庫県,神戸市兵庫区,西上橘通１丁目４番１－１００２号,,28,105,6520033,,,,,,,2025-10-08,1,,,,,ブール,0
2203,7140001140353,新規,0,2025-10-08,2025-10-08,株式会社黒勢,,株式会社,兵庫県,三田市,狭間が丘３丁目５番地５,,28,219,6691545,,,,,,,2025-10-08,1,,,,,クロセ,0
2205,7140003022681,新規,0,2025-10-08,2025-10-08,ナゴミフーズ合同会社,,合同会社,兵庫県,朝来市,和田山町法興寺６４番地８,,28,225,6695267,,,,,,,2025-10-08,1,,,,,ナゴミフーズ,0
2217,7180001168878,新規,0,2025-10-08,2025-10-08,株式会社山栄,,株式会社,愛知県,名古屋市中村区,名楽町１丁目２３番地の３１,,23,105,4530024,,,,,,,2025-10-08,1,,,,,サンエイ,0
2218,7180001168911,新規,0,2025-10-08,2025-10-08,昭和ホールディングス株式会社,,株式会社,愛知県,名古屋市熱田区,明野町２番３号,,23,109,4560071,,,,,,,2025-10-08,1,,,,,ショウワホールディングス,0
2219,7180001168936,新規,0,2025-10-08,2025-10-08,株式会社ＳＪＮ,,株式会社,愛知県,名古屋市港区,川間町２丁目６５番地,,23,111,4550076,,,,,,,2025-10-08,1,,,,,エスジェイエヌ,0
2220,7180001168960,新規,0,2025-10-08,2025-10-08,株式会社Ｓｅｎｇａ,,株式会社,愛知県,名古屋市南区,砂口町１９番地ユニーブル笠寺５０３号,,23,112,4570054,,,,,,,2025-10-08,1,,,,,センガ,0
2221,7180001169042,新規,0,2025-10-08,2025-10-08,株式会社ＲＳ,,株式会社,愛知県,名古屋市中区,門前町１番６０号,,23,106,4600018,,,,,,,2025-10-08,1,,,,,アールエス,0
2227,7180301040316,新規,0,2025-10-08,2025-10-08,株式会社ＮＯＡ,,株式会社,愛知県,豊川市,三上町下屋敷１０４番地,,23,207,4420812,,,,,,,2025-10-08,1,,,,,ノア,0
2228,7180301040324,新規,0,2025-10-08,2025-10-08,株式会社コクドジャパン,,株式会社,愛知県,西尾市,丁田町落１４番地１,,23,213,4450062,,,,,,,2025-10-08,1,,,,,コクドジャパン,0
2230,7190001032595,新規,0,2025-10-08,2025-10-08,株式会社セラヴィ＆Ｎ’ｓテーブル,,株式会社,三重県,津市,半田１０１７番地４,,24,201,5140823,,,,,,,2025-10-08,1,,,,,セラヴィアンドエヌズテーブル,0
2231,7190001032604,新規,0,2025-10-08,2025-10-08,株式会社メドグリッド,,株式会社,三重県,津市,雲出本郷町１３４６番地１,,24,201,5140304,,,,,,,2025-10-08,1,,,,,メドグリッド,0
2234,7220001026965,新規,0,2025-10-08,2025-10-08,オルビリンク株式会社,,株式会社,石川県,金沢市,保古２丁目１４,,17,201,9218052,,,,,,,2025-10-08,1,,,,,オルビリンク,0
2252,7260001040632,新規,0,2025-10-08,2025-10-08,株式会社絆ノ樹,,株式会社,岡山県,赤磐市,桜が丘東４丁目４番地５５６,,33,213,7090721,,,,,,,2025-10-08,1,,,,,キズナノキ,0
2256,7260003005377,新規,0,2025-10-08,2025-10-08,一二三四五合同会社,,合同会社,岡山県,岡山市北区,天瀬南町７番１号（２０１）,,33,101,7000834,,,,,,,2025-10-08,1,,,,,ヒフミヨイ,0
2262,7290001111604,新規,0,2025-10-08,2025-10-08,株式会社日本ヴァルデラン,,株式会社,福岡県,福岡市博多区,比恵町１１番１９―６０１号,,40,132,8120014,,,,,,,2025-10-08,1,,,,,ニホンヴァルデラン,0
2263,7290001111760,新規,0,2025-10-08,2025-10-08,松亀建設株式会社,,株式会社,福岡県,春日市,桜ヶ丘８丁目４７番地２,,40,218,8160872,,,,,,,2025-10-08,1,,,,,マツカメケンセツ,0
2264,7290001111785,新規,0,2025-10-08,2025-10-08,未来ｇｒｏｕｐ株式会社,,株式会社,福岡県,宗像市,田野１８９４番地,,40,220,8113514,,,,,,,2025-10-08,1,,,,,ミライグループ,0
2271,7290003017519,新規,0,2025-10-08,2025-10-08,ＢＬＵＥ　ＳＫＹ合同会社,,合同会社,福岡県,福岡市中央区,春吉３丁目１５番３号テソロ天神５０５号,,40,133,8100003,,,,,,,2025-10-08,1,,,,,ブルースカイ,0
2272,7290003017543,新規,0,2025-10-08,2025-10-08,合同会社エトワール,,合同会社,福岡県,春日市,原町２丁目６３番１－１０１号,,40,218,8160804,,,,,,,2025-10-08,1,,,,,エトワール,0
2275,7290803005169,新規,0,2025-10-08,2025-10-08,ＫＩＴＡＫＹＵＢＡＳＥ合同会社,,合同会社,福岡県,北九州市小倉南区,城野４丁目５－４７,,40,107,8020802,,,,,,,2025-10-08,1,,,,,キタキューベース,0
2276,7300001014383,新規,0,2025-10-08,2025-10-08,株式会社ＥＳＯＲＡ,,株式会社,佐賀県,佐賀市,鍋島２丁目５番２７号けやきビル１Ｆ,,41,201,8490937,,,,,,,2025-10-08,1,,,,,エソラ,0
2278,7320003004793,新規,0,2025-10-08,2025-10-08,合同会社熊懐,,合同会社,大分県,豊後大野市,三重町秋葉６３９番地３,,44,212,8797141,,,,,,,2025-10-08,1,,,,,クマダキ,0
2279,7330001033653,新規,0,2025-10-08,2025-10-08,しらいし海苔株式会社,,株式会社,熊本県,熊本市南区,海路口町３３４番地３,,43,104,8614124,,,,,,,2025-10-08,1,,,,,シライシノリ,0
2281,7330003011252,新規,0,2025-10-08,2025-10-08,合同会社ハビリス,,合同会社,熊本県,天草市,亀場町亀川１４２番地１１,,43,215,8630043,,,,,,,2025-10-08,1,,,,,ハビリス,0
2285,7340001027704,新規,0,2025-10-08,2025-10-08,株式会社ピカソ種子島,,株式会社,鹿児島県,西之表市,天神町５番地１３,,46,213,8913115,,,,,,,2025-10-08,1,,,,,ピカソタネガシマ,0
2287,7360001035886,新規,0,2025-10-08,2025-10-08,株式会社ｍ’ｓ　ｙａｅｙａｍａ,,株式会社,沖縄県,石垣市,字平得２０７番地１粟盛店舗１０２号,,47,207,9070003,,,,,,,2025-10-08,1,,,,,エムズヤエヤマ,0
2292,7370001053128,新規,0,2025-10-08,2025-10-08,株式会社クウライフ,,株式会社,宮城県,富谷市,とちの木１丁目２３－１５,,04,216,9813312,,,,,,,2025-10-08,1,,,,,クウライフ,0
2298,7380005013011,新規,0,2025-10-08,2025-10-08,Ｕｐ　ＤＡＴＥ　Ｃｉｔｙふくしま戸建て住宅街区ソラチエ団地管理組合法人,,その他の設立登記法人,福島県,伊達市,保原町高子岡２３４番地,,07,213,9600689,,,,,,,2025-10-08,1,,,,,アップデートシティフクシマコダテジュウタクガイクソラチエ,0
2310,7430001095386,新規,0,2025-10-08,2025-10-08,株式会社トライ,,株式会社,北海道,札幌市北区,北二十三条西５丁目１番１－２０３号,,01,102,0010023,,,,,,,2025-10-08,1,,,,,トライ,0
2311,7430001095403,新規,0,2025-10-08,2025-10-08,株式会社入福ホールディングス,,株式会社,北海道,札幌市西区,二十四軒一条３丁目１番３０号,,01,107,0630801,,,,,,,2025-10-08,1,,,,,イリフクホールディングス,0
2320,7490001011180,新規,0,2025-10-08,2025-10-08,株式会社マルヒラホールディングス,,株式会社,高知県,高知市,愛宕町３丁目１３番３号,,39,201,7800051,,,,,,,2025-10-08,1,,,,,マルヒラホールディングス,0
2321,7490003002054,新規,0,2025-10-08,2025-10-08,合同会社ＥＮＮ,,合同会社,高知県,高知市,通町１１６－２サーパス通町一番館４０２号,,39,201,7800904,,,,,,,2025-10-08,1,,,,,エン,0
2322,7500005008824,新規,0,2025-10-08,2025-10-08,一般社団法人八坂霊園管理センター,,その他の設立登記法人,愛媛県,松山市,鷹子町３７２番地１,,38,201,7900925,,,,,,,2025-10-08,1,,,,,ヤサカレイエンカンリセンター,0
2325,7700150090383,新規,0,2025-10-08,2018-08-17,郵政近畿共助会,,その他,大阪府,大阪市中央区,本町橋２－２６　内本町ヤマトビル６０１,,27,128,5400029,,,,,,,2018-08-17,1,,,,,ユウセイキンキキヨウジヨカイ,0
2335,8010001259148,新規,0,2025-10-08,2025-10-08,株式会社Ｋｅｙｓｔｏｎｅ　Ｓｔｕｄｉｏ,,株式会社,東京都,中央区,日本橋室町１丁目１１番１２号日本橋水野ビル７階,,13,102,1030022,,,,,,,2025-10-08,1,,,,,キーストーンスタジオ,0
2336,8010001259189,新規,0,2025-10-08,2025-10-08,株式会社ちとせ１号,,株式会社,東京都,千代田区,九段南１丁目５番６号りそな九段ビル５階ＫＳフロア,,13,101,1020074,,,,,,,2025-10-08,1,,,,,チトセイチゴウ,0
2337,8010001259222,新規,0,2025-10-08,2025-10-08,株式会社ＫＲＡＹ　Ｊａｐａｎ,,株式会社,東京都,中央区,銀座１丁目１２番４号Ｎ＆ＥＢＬＤ．６Ｆ,,13,102,1040061,,,,,,,2025-10-08,1,,,,,クレイジャパン,0
2338,8010001259263,新規,0,2025-10-08,2025-10-08,株式会社ＲｅＳｔａ,,株式会社,東京都,文京区,小石川１丁目１３番１２号ＷＡＫＯＵ小石川６階,,13,105,1120002,,,,,,,2025-10-08,1,,,,,リスタ,0
2340,8010003048953,新規,0,2025-10-08,2025-10-08,Ｎｅｖａｍｉｎｄ　ＡＩ合同会社,,合同会社,東京都,千代田区,岩本町２丁目１７号４番泰合ビルＩＩ２－２０５,00140991,13,101,1010032,,,,,,,2025-10-08,1,,,,,ネバーマインドエーアイ,0
2341,8010005040735,新規,0,2025-10-08,2025-10-08,社会保険労務士法人綜合労務,,その他の設立登記法人,東京都,千代田区,九段北１丁目３番１号,,13,101,1020073,,,,,,,2025-10-08,1,,,,,ソウゴウロウム,0
2342,8010101016894,新規,0,2025-10-08,2025-10-08,レイエス・アイ株式会社,,株式会社,東京都,八王子市,東町１番１０号グランデハイツ八王子４０１号,,13,201,1920082,,,,,,,2025-10-08,1,,,,,レイエスアイ,0
2349,8010401193500,新規,0,2025-10-08,2025-10-08,株式会社Ａｒｅｎ,,株式会社,東京都,港区,赤坂６丁目１０番６－２０７号,,13,103,1070052,,,,,,,2025-10-08,1,,,,,アレン,0
2350,8010401193517,新規,0,2025-10-08,2025-10-08,ＴＯＫＹＯ　ＤＥＳＴＩＮＡＴＩＯＮＳ株式会社,,株式会社,東京都,港区,六本木３丁目１６番１２号六本木ＫＳビル５Ｆ,,13,103,1060032,,,,,,,2025-10-08,1,,,,,トウキョウデスティネーションズ,0
2351,8010401193541,新規,0,2025-10-08,2025-10-08,株式会社ＡｎｏｕＶ,,株式会社,東京都,港区,六本木３丁目１６番１２号六本木ＫＳビル５Ｆ,,13,103,1060032,,,,,,,2025-10-08,1,,,,,アノーブ,0
2352,8010401193590,新規,0,2025-10-08,2025-10-08,株式会社ナギ・アンド・コーポレーション,,株式会社,東京都,港区,虎ノ門１丁目２３番１号虎ノ門ヒルズ森タワー６階,,13,103,1050001,,,,,,,2025-10-08,1,,,,,ナギアンドコーポレーション,0
2353,8010401193640,新規,0,2025-10-08,2025-10-08,株式会社地域みらいブレインリンク,,株式会社,東京都,港区,高輪２丁目２１番１号,,13,103,1080074,,,,,,,2025-10-08,1,,,,,チイキミライブレインリンク,0
2354,8010403036153,新規,0,2025-10-08,2025-10-08,メイドインジャパン合同会社,,合同会社,東京都,港区,西麻布４丁目２－１２麻布ハウス３０１,,13,103,1060031,,,,,,,2025-10-08,1,,,,,メイドインジャパン,0
2355,8010403036244,新規,0,2025-10-08,2025-10-08,合同会社ＨＣ,,合同会社,東京都,港区,東麻布３丁目６－４アルページ麻布２０３号室,,13,103,1060044,,,,,,,2025-10-08,1,,,,,,0
2359,8010501054825,新規,0,2025-10-08,2025-10-08,株式会社あづいち,,株式会社,東京都,台東区,竜泉３丁目５番１号ＲＯＬＥＳ竜泉２０１,,13,106,1100012,,,,,,,2025-10-08,1,,,,,アヅイチ,0
2371,8010803005575,新規,0,2025-10-08,2025-10-08,Ｃｏｍｃｉｅｒｇｅ合同会社,,合同会社,東京都,大田区,蒲田本町１丁目１２番１７号,,13,111,1440053,,,,,,,2025-10-08,1,,,,,コムシェルジュ,0
2378,8011001172398,新規,0,2025-10-08,2025-10-08,株式会社２ｎｄ　ｃｈｉｌｄｒｅｎ’ｓ,,株式会社,東京都,目黒区,青葉台３丁目１５番１７号ＦＡＲＯ中目黒１階,,13,110,1530042,,,,,,,2025-10-08,1,,,,,セカンドチルドレンズ,0
2379,8011001172431,新規,0,2025-10-08,2025-10-08,株式会社ＭＩＮＥ,,株式会社,東京都,渋谷区,道玄坂１丁目１０番８号渋谷道玄坂東急ビル２Ｆ－Ｃ,,13,113,1500043,,,,,,,2025-10-08,1,,,,,マイン,0
2380,8011001172448,新規,0,2025-10-08,2025-10-08,株式会社Ｘｅｎｏｌｉｋｅ,,株式会社,東京都,渋谷区,道玄坂１丁目１０番８号渋谷道玄坂東急ビル２Ｆ－Ｃ,,13,113,1500043,,,,,,,2025-10-08,1,,,,,ゼノライク,0
2381,8011001172480,新規,0,2025-10-08,2025-10-08,株式会社ＹＲＺＹ．,,株式会社,東京都,渋谷区,幡ヶ谷３丁目４６番２号洛雲館１Ｆ,,13,113,1510072,,,,,,,2025-10-08,1,,,,,ヨロズヤ,0
2382,8011001172497,新規,0,2025-10-08,2025-10-08,株式会社Ａｂｙｓｓ　Ｗａｌｋｅｒ,,株式会社,東京都,渋谷区,神宮前１丁目２３番８号ブリスベージュ神宮前２１２号室,,13,113,1500001,,,,,,,2025-10-08,1,,,,,アビスウォーカー,0
2383,8011001172506,新規,0,2025-10-08,2025-10-08,株式会社ＫＹＲＡＨ,,株式会社,東京都,目黒区,青葉台３丁目１５番１７号ＦＡＲＯ中目黒１階,,13,110,1530042,,,,,,,2025-10-08,1,,,,,キイラ,0
2384,8011001172530,新規,0,2025-10-08,2025-10-08,ｃｕｅｖｅ株式会社,,株式会社,東京都,渋谷区,神南１丁目１１番４号ＦＰＧリンクス神南５階,,13,113,1500041,,,,,,,2025-10-08,1,,,,,キューブ,0
2385,8011001172563,新規,0,2025-10-08,2025-10-08,株式会社エンキャリ,,株式会社,東京都,渋谷区,恵比寿西１丁目２９番５号カプリ代官山２０３,,13,113,1500021,,,,,,,2025-10-08,1,,,,,エンキャリ,0
2391,8011003022535,新規,0,2025-10-08,2025-10-08,合同会社ｖｉｚｈａｃｋｅｒ,,合同会社,東京都,渋谷区,恵比寿西２丁目８番４号ＥＸ恵比寿西ビル５階,,13,113,1500021,,,,,,,2025-10-08,1,,,,,ビズハッカー,0
2392,8011003022568,新規,0,2025-10-08,2025-10-08,ふらべる合同会社,,合同会社,東京都,渋谷区,恵比寿西１丁目３番９号田中ビル２階,,13,113,1500021,,,,,,,2025-10-08,1,,,,,フラベル,0
2393,8011003022592,新規,0,2025-10-08,2025-10-08,オービット合同会社,,合同会社,東京都,渋谷区,道玄坂１丁目１０番８号渋谷道玄坂東急ビル２Ｆ－Ｃ道玄坂,,13,113,1500043,,,,,,,2025-10-08,1,,,,,オービット,0
2395,8011101113483,新規,0,2025-10-08,2025-10-08,株式会社エルファント,,株式会社,東京都,新宿区,戸山３丁目５番３号,,13,104,1620052,,,,,,,2025-10-08,1,,,,,エルファント,0
2396,8011101113533,新規,0,2025-10-08,2025-10-08,株式会社ＮＥＳ,,株式会社,東京都,新宿区,高田馬場２丁目１６番１１号高田馬場２１６ビル７階,,13,104,1690075,,,,,,,2025-10-08,1,,,,,エヌイーエス,0
2400,8011503006731,新規,0,2025-10-08,2025-10-08,一心合同会社,,合同会社,東京都,荒川区,荒川２丁目６番５－１０２号ディスティーノレジデンシア荒川,,13,118,1160002,,,,,,,2025-10-08,1,,,,,イッシン,0
2405,8011601029031,新規,0,2025-10-08,2025-10-08,株式会社泉南,,株式会社,東京都,練馬区,南大泉１丁目６番３７号,,13,120,1780064,,,,,,,2025-10-08,1,,,,,イズミミナミ,0
2406,8011601029048,新規,0,2025-10-08,2025-10-08,王子株式会社,,株式会社,東京都,練馬区,春日町６丁目１６番１１号フォーチュン光が丘２６０号室,,13,120,1790074,,,,,,,2025-10-08,1,,,,,オウジ,0
2407,8011601029056,新規,0,2025-10-08,2025-10-08,株式会社ティーエヌコーポレーション,,株式会社,東京都,練馬区,早宮２丁目１７番３３号,,13,120,1790085,,,,,,,2025-10-08,1,,,,,ティーエヌコーポレーション,0
2410,8011701028825,新規,0,2025-10-08,2025-10-08,株式会社Ｋｅ＆Ｊ,,株式会社,東京都,江戸川区,西葛西５丁目７番６号５０１号室,,13,123,1340088,,,,,,,2025-10-08,1,,,,,ケーアンドジェ,0
2413,8011801046875,新規,0,2025-10-08,2025-10-08,株式会社ロビにん,,株式会社,東京都,足立区,千住河原町３番７－７０１号,,13,121,1200037,,,,,,,2025-10-08,1,,,,,ロビニン,0
2414,8012403007381,新規,0,2025-10-08,2025-10-08,ＣＧ合同会社,,合同会社,東京都,武蔵野市,中町２丁目５番２０号第三中央荘１０３号,,13,203,1800006,,,,,,,2025-10-08,1,,,,,,0
2416,8012801024292,新規,0,2025-10-08,2025-10-08,株式会社カラクサフードメンテナンス,,株式会社,東京都,昭島市,中神町１３５８番地９,,13,207,1960022,,,,,,,2025-10-08,1,,,,,カラクサフードメンテナンス,0
2417,8012803003897,新規,0,2025-10-08,2025-10-08,Ｊａｐａｎ　Ｒｅａｌ　Ｅｓｔａｔｅ合同会社,,合同会社,東京都,昭島市,もくせいの杜２丁目１１番１８号,,13,207,1960035,,,,,,,2025-10-08,1,,,,,ジャパンリアルエステート,0
2420,8013301055118,新規,0,2025-10-08,2025-10-08,東京汽配株式会社,,株式会社,東京都,豊島区,南大塚１丁目５１番１１号ライオンズマンション４０６号,,13,116,1700005,,,,,,,2025-10-08,1,,,,,トウキョウキハイ,0
2422,8020001164999,新規,0,2025-10-08,2025-10-08,株式会社ＫＹＳＫ,,株式会社,神奈川県,横浜市港北区,大曽根２丁目３８番１３号,,14,109,2220003,,,,,,,2025-10-08,1,,,,,ケイワイエスケイ,0
2423,8020001165155,新規,0,2025-10-08,2025-10-08,ＡＩラボ株式会社,,株式会社,神奈川県,横浜市港北区,新横浜２丁目１４番８号,,14,109,2220033,,,,,,,2025-10-08,1,,,,,エーアイラボ,0
2424,8020001165171,新規,0,2025-10-08,2025-10-08,株式会社ワイズ,,株式会社,神奈川県,横浜市港北区,綱島西２丁目１１番２９号オークラ綱島ビルＩＶ２階,00141001,14,109,2230053,,,,,,,2025-10-08,1,,,,,ワイズ,0
2425,8020001165188,新規,0,2025-10-08,2025-10-08,株式会社風張鉄筋,,株式会社,神奈川県,横浜市瀬谷区,竹村町４番地１２,,14,114,2460005,,,,,,,2025-10-08,1,,,,,カザハリテッキン,0
2428,8021001086300,新規,0,2025-10-08,2025-10-08,株式会社Ｃｉｒｃｕｌａ,,株式会社,神奈川県,小田原市,栄町１丁目１４番２８号ＮＴＴ小田原ビル１Ｆ,,14,206,2500011,,,,,,,2025-10-08,1,,,,,サーキュラ,0
2429,8021001086457,新規,0,2025-10-08,2025-10-08,株式会社北川設備工業,,株式会社,神奈川県,足柄下郡湯河原町,中央２丁目６番地５,,14,384,2590301,,,,,,,2025-10-08,1,,,,,キタガワセツビコウギョウ,0
2430,8021001086473,新規,0,2025-10-08,2025-10-08,株式会社サンシャイン工業,,株式会社,神奈川県,横須賀市,佐野町５丁目３番地,,14,201,2380052,,,,,,,2025-10-08,1,,,,,サンシャインコウギョウ,0
2431,8021001086481,新規,0,2025-10-08,2025-10-08,株式会社山久,,株式会社,神奈川県,海老名市,中野１丁目３４番３９号,,14,215,2430425,,,,,,,2025-10-08,1,,,,,ヤマク,0
2440,8030001168958,新規,0,2025-10-08,2025-10-08,株式会社満グループ,,株式会社,埼玉県,所沢市,東町１０番７号２Ｆ,,11,208,3591116,,,,,,,2025-10-08,1,,,,,マングループ,0
2441,8030001168966,新規,0,2025-10-08,2025-10-08,株式会社英,,株式会社,埼玉県,北葛飾郡杉戸町,内田４丁目１７番７号,,11,464,3450035,,,,,,,2025-10-08,1,,,,,ハナブサ,0
2442,8030001169015,新規,0,2025-10-08,2025-10-08,ＡＲＡＩホールディングス株式会社,,株式会社,埼玉県,さいたま市岩槻区,大字浮谷２３６２番地,,11,110,3390037,,,,,,,2025-10-08,1,,,,,アライホールディングス,0
2443,8030001169023,新規,0,2025-10-08,2025-10-08,株式会社ＡＬＩインターナショナル,,株式会社,埼玉県,川口市,大字新堀６１３番地,,11,203,3340061,,,,,,,2025-10-08,1,,,,,アリインターナショナル,0
2444,8030001169064,新規,0,2025-10-08,2025-10-08,ＣＡＲＢＯＹ株式会社,,株式会社,埼玉県,越谷市,千間台西６丁目２６番地１,,11,222,3430041,,,,,,,2025-10-08,1,,,,,カーボーイ,0
2445,8030001169114,新規,0,2025-10-08,2025-10-08,株式会社Ｍｉｎｔｙ,,株式会社,埼玉県,狭山市,大字南入曽７番地の２５,,11,215,3501316,,,,,,,2025-10-08,1,,,,,ミンティ,0
2451,8030003027815,新規,0,2025-10-08,2025-10-08,明慶パートナーズ合同会社,,合同会社,埼玉県,さいたま市浦和区,元町２丁目３１番１６号,,11,107,3300073,,,,,,,2025-10-08,1,,,,,メイケイパートナーズ,0
2452,8030003027823,新規,0,2025-10-08,2025-10-08,合同会社犬道,,合同会社,埼玉県,所沢市,上新井４丁目２４番地の６,,11,208,3591142,,,,,,,2025-10-08,1,,,,,ケンドウ,0
2453,8030003027831,新規,0,2025-10-08,2025-10-08,合同会社Ｍｉｒｅｏ,,合同会社,埼玉県,入間市,宮寺１５１７番地５,,11,225,3580014,,,,,,,2025-10-08,1,,,,,ミレオ,0
2454,8030005022302,新規,0,2025-10-08,2025-10-08,医療法人社団徳池会,,その他の設立登記法人,埼玉県,川口市,栄町３丁目１３番１号樹モールプラザ３階,,11,203,3320017,,,,,,,2025-10-08,1,,,,,トクチカイ,0
2462,8040001140734,新規,0,2025-10-08,2025-10-08,アルヴェリア株式会社,,株式会社,千葉県,柏市,若柴１７８番地４柏の葉キャンパス１４８街区１パークシティ柏の葉キャンパスザ・ゲートタワーウェスト３階Ｖ１５０,,12,217,2770871,,,,,,,2025-10-08,1,,,,,アルヴェリア,0
2463,8040001140809,新規,0,2025-10-08,2025-10-08,株式会社ＬＵＸＥＲＡ,,株式会社,千葉県,白井市,根８００番地の１２６,,12,232,2701431,,,,,,,2025-10-08,1,,,,,ルクセラ,0
2464,8040001140817,新規,0,2025-10-08,2025-10-08,株式会社＿＿,00141006,株式会社,千葉県,茂原市,本小轡１０９９番地１３,,12,210,2970005,,,,,,,2025-10-08,1,,,,,,0
2465,8040001140825,新規,0,2025-10-08,2025-10-08,株式会社三月商事,,株式会社,千葉県,千葉市稲毛区,長沼町２９３－２６５,,12,103,2630005,,,,,,,2025-10-08,1,,,,,ミツキショウジ,0
2466,8040001140833,新規,0,2025-10-08,2025-10-08,Ｍ＆Ｍ株式会社,,株式会社,千葉県,八街市,に１８８番地３４,,12,230,2891100,,,,,,,2025-10-08,1,,,,,エムアンドエム,0
2468,8040003028713,新規,0,2025-10-08,2025-10-08,ＧＯＬＤＥＮ　ＬＡＮＤ合同会社,,合同会社,千葉県,松戸市,西馬橋幸町１１７ロザール松戸２０１,,12,207,2710047,,,,,,,2025-10-08,1,,,,,ゴールデンランド,0
2469,8040003028721,新規,0,2025-10-08,2025-10-08,合同会社めい,,合同会社,千葉県,野田市,中根２２５番地の２３,,12,208,2780031,,,,,,,2025-10-08,1,,,,,メイ,0
2472,8050001057432,新規,0,2025-10-08,2025-10-08,株式会社樹総建,,株式会社,茨城県,那珂郡東海村,大字村松３３３２番地１４,,08,341,3191112,,,,,,,2025-10-08,1,,,,,イツキソウケン,0
2477,8070001043430,新規,0,2025-10-08,2025-10-08,株式会社柏葉外構,,株式会社,群馬県,安中市,安中３８８８番地１,,10,211,3790116,,,,,,,2025-10-08,1,,,,,カシワバガイコウ,0
2479,8070003006146,新規,0,2025-10-08,2025-10-08,合同会社まなびや,,合同会社,群馬県,藤岡市,藤岡１６３３番地３－２階,,10,209,3750024,,,,,,,2025-10-08,1,,,,,マナビヤ,0
2483,8080101025823,新規,0,2025-10-08,2025-10-08,株式会社みつば造園,,株式会社,静岡県,賀茂郡東伊豆町,稲取２９３５番地,,22,301,4130411,,,,,,,2025-10-08,1,,,,,ミツバゾウエン,0
2484,8080103003439,新規,0,2025-10-08,2025-10-08,合同会社Ｓｔｅｐａｔｈ,,合同会社,静岡県,富士宮市,北山４４０６番地,,22,207,4180112,,,,,,,2025-10-08,1,,,,,ステッパス,0
2488,8110001039639,新規,0,2025-10-08,2025-10-08,株式会社藤四郎,,株式会社,新潟県,新潟市東区,河渡２丁目４番３３号,,15,102,9500024,,,,,,,2025-10-08,1,,,,,トウシロウ,0
2500,8120001280423,新規,0,2025-10-08,2025-10-08,良味株式会社,,株式会社,大阪府,大阪市中央区,農人橋２丁目１番３１号,,27,128,5400011,,,,,,,2025-10-08,1,,,,,リョウミ,0
2501,8120001280472,新規,0,2025-10-08,2025-10-08,Ｇｌｏｂａｌ　Ｌｉｎｋ株式会社,,株式会社,大阪府,大阪市東淀川区,淡路４丁目６番４８－２０２号,,27,114,5330032,,,,,,,2025-10-08,1,,,,,グローバルリンク,0
2502,8120001280704,新規,0,2025-10-08,2025-10-08,株式会社日本アスリート支援機構,,株式会社,大阪府,大阪市北区,梅田２丁目２番２号ヒルトンプラザウエストオフィスタワー１８階,,27,127,5300001,,,,,,,2025-10-08,1,,,,,ニホンアスリートシエンキコウ,0
2503,8120001280860,新規,0,2025-10-08,2025-10-08,ＣＨＯＳＥＮ　ＯＮＥ株式会社,,株式会社,大阪府,大阪市浪速区,大国１丁目９番１５－６０２号,,27,111,5560014,,,,,,,2025-10-08,1,,,,,チョーズンワン,0
2505,8120003030644,新規,0,2025-10-08,2025-10-08,Ｋｈａｄｋａ　ｇｒｏｕｐ合同会社,,合同会社,大阪府,大阪市此花区,島屋２丁目１番１－５０１号,,27,104,5540024,,,,,,,2025-10-08,1,,,,,カドカグループ,0
2506,8120003030801,新規,0,2025-10-08,2025-10-08,青音合同会社,,合同会社,大阪府,大阪市港区,港晴３丁目７－１５アワーホウス港晴３０１,,27,107,5520023,,,,,,,2025-10-08,1,,,,,アオネ,0
2507,8120005025196,新規,0,2025-10-08,2025-10-08,一般社団法人ＨＡＶＩＦＵＮ,,その他の設立登記法人,大阪府,大阪市城東区,諏訪２丁目１５番１７号,,27,118,5360021,,,,,,,2025-10-08,1,,,,,ハビファン,0
2509,8120101072547,新規,0,2025-10-08,2025-10-08,株式会社ＴＨＲＩＶＥ,,株式会社,大阪府,堺市西区,菱木２丁２３０８－５,,27,144,5938315,,,,,,,2025-10-08,1,,,,,スライヴ,0
2510,8120103006775,新規,0,2025-10-08,2025-10-08,ＧＩＡ　ＡＮ合同会社,,合同会社,大阪府,富田林市,西板持町８丁目１５番３号,,27,214,5840048,,,,,,,2025-10-08,1,,,,,ザアン,0
2512,8120901051592,新規,0,2025-10-08,2025-10-08,株式会社Ｗｏｌｓｅｏｎｇ,,株式会社,大阪府,豊中市,北緑丘１丁目７番１４６号,,27,203,5600001,,,,,,,2025-10-08,1,,,,,ウォルソン,0
2517,8130001080707,新規,0,2025-10-08,2025-10-08,京ナミ株式会社,,株式会社,京都府,京都市左京区,吉田本町３６番地１国際科学イノベーション棟西館１階１０４号室,,26,103,6068317,,,,,,,2025-10-08,1,,,,,キョウナミ,0
2518,8130001080715,新規,0,2025-10-08,2025-10-08,株式会社シェノンウエスト,,株式会社,京都府,京都市右京区,太秦馬塚町２０番地２８,00141014,26,108,6168177,,,,,,,2025-10-08,1,,,,,シュノンウエスト,0
2519,8130001080723,新規,0,2025-10-08,2025-10-08,株式会社ロフトマンＨＤ,,株式会社,京都府,京都市中京区,寺町通蛸薬師下る円福寺前町２８０番地,00141017,26,104,6048045,,,,,,,2025-10-08,1,,,,,ロフトマンホールディングス,0
2520,8130003010835,新規,0,2025-10-08,2025-10-08,バイオフィリックラボ合同会社,,合同会社,京都府,京都市山科区,安朱東海道町３４ＮＥＫＯＴＯ山科安朱１０６号室,,26,110,6078008,,,,,,,2025-10-08,1,,,,,バイオフィリックラボ,0
2523,8140003022672,新規,0,2025-10-08,2025-10-08,合同会社エクシード,,合同会社,兵庫県,西宮市,川添町５番９号,,28,204,6620944,,,,,,,2025-10-08,1,,,,,エクシード,0
2525,8150001028456,新規,0,2025-10-08,2025-10-08,株式会社Ｔ‐ｇｒｏｕｐ,,株式会社,奈良県,生駒郡三郷町,立野北１丁目４１番１２号,,29,343,6360821,,,,,,,2025-10-08,1,,,,,ティーグループ,0
2526,8150001028464,新規,0,2025-10-08,2025-10-08,ＦＪハイドリンク株式会社,,株式会社,奈良県,磯城郡川西町,大字結崎１５００番地１,,29,361,6360202,,,,,,,2025-10-08,1,,,,,エフジェイハイドリンク,0
2530,8160005011440,新規,0,2025-10-08,2025-10-08,一般社団法人グッジョブジョブ,,その他の設立登記法人,滋賀県,長浜市,堀部町９８１番地,,25,203,5260813,,,,,,,2025-10-08,1,,,,,グッジョブジョブ,0
2532,8170003002317,新規,0,2025-10-08,2025-10-08,Ｋｅｅｐ　Ｒｉｇｈｔ合同会社,,合同会社,和歌山県,和歌山市,田野２２６番地１－２０２号,,30,201,6410061,,,,,,,2025-10-08,1,,,,,キープライト,0
2538,8180001168844,新規,0,2025-10-08,2025-10-08,株式会社Ｃｏｌｏｆｉ,,株式会社,愛知県,名古屋市千種区,四谷通２丁目１番地（マストスクエア本山四谷通５０１号）,,23,101,4640819,,,,,,,2025-10-08,1,,,,,コロフィ,0
2539,8180001168869,新規,0,2025-10-08,2025-10-08,ＮＳＰＡＣＥ株式会社,,株式会社,愛知県,名古屋市中村区,靖国町２丁目２５番地（ハイツ希望２Ｄ号）,,23,105,4530065,,,,,,,2025-10-08,1,,,,,エヌスペース,0
2540,8180001168885,新規,0,2025-10-08,2025-10-08,株式会社Ｓ　ｓｉｚｅ　ｍａｒｋｅｔ,,株式会社,愛知県,名古屋市昭和区,藤成通２丁目１２番地の１藤成ビル１Ｂ号,,23,107,4660845,,,,,,,2025-10-08,1,,,,,エスサイズマーケット,0
2541,8180001168893,新規,0,2025-10-08,2025-10-08,ＦＡＩＳＨＡＬ　ＩＮＴＥＲＮＡＴＩＯＮＡＬ株式会社,,株式会社,愛知県,一宮市,三ツ井１丁目５番１５号－２０２,,23,203,4910827,,,,,,,2025-10-08,1,,,,,ファイサルインターナショナル,0
2542,8180001168943,新規,0,2025-10-08,2025-10-08,株式会社Ｔ‐ＡＶＡＮＺＡ,,株式会社,愛知県,名古屋市名東区,豊が丘１８１０番地,,23,115,4650035,,,,,,,2025-10-08,1,,,,,ティーアバンザ,0
2543,8180001169017,新規,0,2025-10-08,2025-10-08,ディノミ株式会社,,株式会社,愛知県,名古屋市瑞穂区,津賀田町２丁目２７番地ドール津賀田４０５号室,,23,108,4670823,,,,,,,2025-10-08,1,,,,,ディノミ,0
2544,8180001169025,新規,0,2025-10-08,2025-10-08,株式会社ＭＲ　ＴＲＡＤＩＮＧ,,株式会社,愛知県,弥富市,稲元６丁目２２番,,23,235,4980045,,,,,,,2025-10-08,1,,,,,エムアールトレーディング,0
2550,8180003029160,新規,0,2025-10-08,2025-10-08,ＢＡＪＷＡ　ＥＮＴＥＲＰＲＩＳＥＳ合同会社,,合同会社,愛知県,名古屋市中川区,高畑１丁目１２６番地高畑ハイツ３０４,,23,110,4540911,,,,,,,2025-10-08,1,,,,,バジャワエンタープライズ,0
2552,8180301040307,新規,0,2025-10-08,2025-10-08,株式会社蓮,,株式会社,愛知県,刈谷市,山池町５丁目１０２番地１,,23,210,4480036,,,,,,,2025-10-08,1,,,,,レン,0
2553,8180301040315,新規,0,2025-10-08,2025-10-08,英自動車株式会社,,株式会社,愛知県,豊田市,室町７丁目１７番地,,23,211,4710818,,,,,,,2025-10-08,1,,,,,ハナブサジドウシャ,0
2566,8220001026964,新規,0,2025-10-08,2025-10-08,Ｃｕｒａｒ株式会社,,株式会社,石川県,金沢市,森山１丁目２７番３号,,17,201,9200843,,,,,,,2025-10-08,1,,,,,クラール,0
2567,8230001021122,新規,0,2025-10-08,2025-10-08,Ｗｅａｌｔｈ　Ｒｅｖｉｖａｌ株式会社,,株式会社,富山県,中新川郡上市町,三日市１０番地プランソレイユＢ棟２０２号,,16,322,9300325,,,,,,,2025-10-08,1,,,,,ウェルスリバイバル,0
2572,8250003003827,新規,0,2025-10-08,2025-10-08,合同会社Ｔｉａｎ,,合同会社,山口県,下松市,生野屋西４丁目２番１０号,,35,207,7440032,,,,,,,2025-10-08,1,,,,,ティアン,0
2575,8260001040631,新規,0,2025-10-08,2025-10-08,株式会社ガイナホーム不動産,,株式会社,岡山県,倉敷市,笹沖１０５５番地２,,33,202,7100834,,,,,,,2025-10-08,1,,,,,ガイナホームフドウサン,0
2578,8270001009304,新規,0,2025-10-08,2025-10-08,株式会社協由,,株式会社,鳥取県,米子市,糀町２丁目７１番地,,31,202,6830054,,,,,,,2025-10-08,1,,,,,キョウユウ,0
2582,8290001111611,新規,0,2025-10-08,2025-10-08,宏盛株式会社,,株式会社,福岡県,福岡市東区,松島２丁目３－３１ハイツ松島３０３号,,40,131,8120062,,,,,,,2025-10-08,1,,,,,コウセイ,0
2586,8290803005176,新規,0,2025-10-08,2025-10-08,合同会社７２１,,合同会社,福岡県,北九州市戸畑区,新池１丁目６番６号,,40,105,8040082,,,,,,,2025-10-08,1,,,,,ナナニイチ,0
2587,8320001021369,新規,0,2025-10-08,2025-10-08,株式会社姫建,,株式会社,大分県,大分市,大字政所３６４５番地ＤＫ大在１,,44,201,8700268,,,,,,,2025-10-08,1,,,,,ヒメケン,0
2591,8330001033628,新規,0,2025-10-08,2025-10-08,株式会社ＪＶＤＲＡＧＯＮ,,株式会社,熊本県,熊本市南区,城南町坂野７７１番地,,43,104,8614201,,,,,,,2025-10-08,1,,,,,ジェイブイドラゴン,0
2592,8330003011251,新規,0,2025-10-08,2025-10-08,合同会社宮崎電気,00140987,合同会社,熊本県,熊本市北区,龍田７丁目９番３５号,,43,105,8618006,,,,,,,2025-10-08,1,,,,,ミヤザキデンキ,0
2595,8360001035893,新規,0,2025-10-08,2025-10-08,株式会社ＩＣＨＩ,,株式会社,沖縄県,沖縄市,山内２丁目２６番６号,,47,211,9040034,,,,,,,2025-10-08,1,,,,,イチ,0
2599,8360003015308,新規,0,2025-10-08,2025-10-08,合同会社新垣電機工業,,合同会社,沖縄県,宜野湾市,赤道２丁目２１番１３－１０２号桜ハイツ,,47,205,9012205,,,,,,,2025-10-08,1,,,,,アラカキデンキコウギョウ,0
2603,8370001053102,新規,0,2025-10-08,2025-10-08,株式会社早坂総合企画,,株式会社,宮城県,仙台市青葉区,大町２丁目５番３－３０１号,,04,101,9800804,,,,,,,2025-10-08,1,,,,,ハヤサカソウゴウキカク,0
2606,8380001035628,新規,0,2025-10-08,2025-10-08,株式会社会津超音波計測検査,,株式会社,福島県,耶麻郡磐梯町,大字更科字横達３８５５番地２,,07,407,9693302,,,,,,,2025-10-08,1,,,,,アイヅチョウオンパケイソクケンサ,0
2609,8390001018128,新規,0,2025-10-08,2025-10-08,株式会社ワイズ,,株式会社,山形県,山形市,城北町１丁目７番４－１０３号,,06,201,9900825,,,,,,,2025-10-08,1,,,,,ワイズ,0
2612,8400001017202,新規,0,2025-10-08,2025-10-08,菅原ファーム株式会社,,株式会社,岩手県,奥州市,前沢字簾森３７番地２１０,,03,215,0294206,,,,,,,2025-10-08,1,,,,,スガワラファーム,0
2613,8400003003539,新規,0,2025-10-08,2025-10-08,合同会社菊池建築,,合同会社,岩手県,盛岡市,三本柳２３地割９番地７３,,03,201,0200831,,,,,,,2025-10-08,1,,,,,キクチケンチク,0
2625,8430005015331,新規,0,2025-10-08,2025-10-08,一般社団法人犬猫保護団体Ｂｅｌｌ,,その他の設立登記法人,北海道,札幌市中央区,南十一条西９丁目３－３２,,01,101,0640811,,,,,,,2025-10-08,1,,,,,,0
2631,8462501001043,新規,0,2025-10-08,2025-10-08,株式会社武井塗装興業,,株式会社,北海道,標津郡中標津町,東二十八条北６丁目２番地２,,01,692,0861068,,,,,,,2025-10-08,1,,,,,タケイトソウコウギョウ,0
2632,8470001020918,新規,0,2025-10-08,2025-10-08,株式会社ＬＡＫＩ,,株式会社,香川県,高松市,下田井町３７２番地１,,37,201,7610313,,,,,,,2025-10-08,1,,,,,ラキ,0
2633,8480001012963,新規,0,2025-10-08,2025-10-08,ＴＨＥ　ＧＬＯＣＡＬ　ＨＤ株式会社,,株式会社,徳島県,美馬市,美馬町字露口８４番地７,,36,207,7712103,,,,,,,2025-10-08,1,,,,,ザグローカルホールディング,0
2636,8490003002053,新規,0,2025-10-08,2025-10-08,合同会社ＴＡＫＡ,,合同会社,高知県,四万十市,古津賀１丁目１３４番地３,,39,210,7870010,,,,,,,2025-10-08,1,,,,,タカ,0
2643,9010001258784,新規,0,2025-10-08,2025-10-08,株式会社ウィルクリエイターズ,,株式会社,東京都,千代田区,神田須田町１丁目７番８号,,13,101,1010041,,,,,,,2025-10-08,1,,,,,ウィルクリエイターズ,0
2644,9010001258999,新規,0,2025-10-08,2025-10-08,亜東株式会社,,株式会社,東京都,文京区,湯島２丁目４番３－８０１号,,13,105,1130034,,,,,,,2025-10-08,1,,,,,アトウ,0
2645,9010001259023,新規,0,2025-10-08,2025-10-08,株式会社ＴＥＲＲＡ　ＩＮＴＥＲＮＡＴＩＯＮＡＬ,,株式会社,東京都,中央区,日本橋室町４丁目３－１０秀永日本橋室町ビル６・７Ｆ,,13,102,1030022,,,,,,,2025-10-08,1,,,,,テラインターナショナル,0
2646,9010001259089,新規,0,2025-10-08,2025-10-08,ＮＡＴＳＵＫＡ株式会社,,株式会社,東京都,中央区,日本橋３丁目２番１４号新槇町ビル別館第一２階,,13,102,1030027,,,,,,,2025-10-08,1,,,,,ナツカ,0
2647,9010001259130,新規,0,2025-10-08,2025-10-08,ポエックソリューション株式会社,,株式会社,東京都,中央区,日本橋本町１丁目８番１６号,,13,102,1030023,,,,,,,2025-10-08,1,,,,,ポエックソリューション,0
2648,9010001259205,新規,0,2025-10-08,2025-10-08,ＡＰホールディングス株式会社,,株式会社,東京都,千代田区,麹町３丁目２番地垣見麹町ビル別館４階,,13,101,1020083,,,,,,,2025-10-08,1,,,,,エーピーホールディングス,0
2649,9010001259238,新規,0,2025-10-08,2025-10-08,株式会社ＢＬＡＮ‐Ｃ,,株式会社,東京都,中央区,銀座６丁目１３番１６号銀座ＷａｌｌビルＵＣＦ５階,,13,102,1040061,,,,,,,2025-10-08,1,,,,,ブランシー,0
2652,9010003048936,新規,0,2025-10-08,2025-10-08,イークラウドＮＥＸＴ３号合同会社,,合同会社,東京都,中央区,京橋２丁目２番１号京橋エドグランサウス４階トラスティルグループ内,,13,102,1040031,,,,,,,2025-10-08,1,,,,,イークラウドネクストサンゴウ,0
2653,9010003048969,新規,0,2025-10-08,2025-10-08,合同会社ＳＣＳ,,合同会社,東京都,文京区,目白台２丁目２－２－１０２,,13,105,1120015,,,,,,,2025-10-08,1,,,,,エスシーエス,0
2657,9010005040759,新規,0,2025-10-08,2025-10-08,もばら特定目的会社,,その他の設立登記法人,東京都,千代田区,霞が関３丁目２番５号,,13,101,1000013,,,,,,,2025-10-08,1,,,,,モバラ,0
2658,9010101016893,新規,0,2025-10-08,2025-10-08,株式会社Ｌ．Ｇ．Ｏ,,株式会社,東京都,八王子市,堀之内２丁目１７番地９,,13,201,1920355,,,,,,,2025-10-08,1,,,,,エルジーオー,0
2666,9010401193367,新規,0,2025-10-08,2025-10-08,株式会社ＢＵＴＡＩ,,株式会社,東京都,港区,北青山１丁目３－３三橋ビル３階ＤＭＭバーチャルオフィス青山店,,13,103,1070061,,,,,,,2025-10-08,1,,,,,ブタイ,0
2667,9010401193417,新規,0,2025-10-08,2025-10-08,株式会社Ｎｅｒｕｋｏ,,株式会社,東京都,港区,六本木３丁目１６番１２号六本木ＫＳビル５Ｆ,,13,103,1060032,,,,,,,2025-10-08,1,,,,,ネルコ,0
2668,9010401193516,新規,0,2025-10-08,2025-10-08,クラスメソッドプロパティーズ株式会社,,株式会社,東京都,港区,西新橋１丁目１番１号,,13,103,1050003,,,,,,,2025-10-08,1,,,,,クラスメソッドプロパティーズ,0
2669,9010401193524,新規,0,2025-10-08,2025-10-08,株式会社エタニティ,,株式会社,東京都,港区,麻布十番３丁目８番１号日比谷麻布十番ビル,,13,103,1060045,,,,,,,2025-10-08,1,,,,,エタニティ,0
2670,9010401193532,新規,0,2025-10-08,2025-10-08,株式会社エビス・プロ,,株式会社,東京都,港区,六本木７丁目７－７Ｔｒｉ－ＳｅｖｅｎＲｏｐｐｏｎｇｉ８階,,13,103,1060032,,,,,,,2025-10-08,1,,,,,エビスプロ,0
2671,9010401193648,新規,0,2025-10-08,2025-10-08,ミーチェ株式会社,,株式会社,東京都,港区,元麻布３丁目４番２６号,,13,103,1060046,,,,,,,2025-10-08,1,,,,,ミーチェ,0
2672,9010401193664,新規,0,2025-10-08,2025-10-08,ＯＶＯ株式会社,,株式会社,東京都,港区,赤坂５丁目２番３３号ＩｓａＩＡｋａｓａｋＡ５０２,,13,103,1070052,,,,,,,2025-10-08,1,,,,,オヴォ,0
2673,9010401193672,新規,0,2025-10-08,2025-10-08,株式会社カンタメコンパス,,株式会社,東京都,港区,北青山１丁目３番１号アールキューブ青山３階,,13,103,1070061,,,,,,,2025-10-08,1,,,,,カンタメコンパス,0
2674,9010403036128,新規,0,2025-10-08,2025-10-08,ＪＩＢ合同会社,,合同会社,東京都,港区,浜松町１丁目２１－５薩田ビル３階,,13,103,1050013,,,,,,,2025-10-08,1,,,,,ジェイアイビー,0
2675,9010405024832,新規,0,2025-10-08,2025-10-08,幸浦ファシリティ１一般社団法人,,その他の設立登記法人,東京都,港区,六本木１丁目６番１号泉ガーデンタワー,,13,103,1060032,,,,,,,2025-10-08,1,,,,,サチウラファシリティワン,0
2678,9010501054824,新規,0,2025-10-08,2025-10-08,山川造園株式会社,,株式会社,東京都,台東区,東上野３丁目３９番５号バンズビルディング４０３,,13,106,1100015,,,,,,,2025-10-08,1,,,,,ヤマカワゾウエン,0
2685,9010701048436,新規,0,2025-10-08,2025-10-08,法人ＦＰマネジメントソリューションズ株式会社,,株式会社,東京都,品川区,東品川４丁目１２－６品川シーサイドキャナルタワー４Ｆ,,13,109,1400002,,,,,,,2025-10-08,1,,,,,ホウジンエフピーマネジメントソリューションズ,0
2688,9010901058243,新規,0,2025-10-08,2025-10-08,株式会社Ｈａｙａｔｏ　Ｔａｋａｄａ　Ｏｆｆｉｃｅ,,株式会社,東京都,世田谷区,池尻２丁目２３番２５－２０５号,,13,112,1540001,,,,,,,2025-10-08,1,,,,,ハヤトタカダオフィス,0
2693,9011001172414,新規,0,2025-10-08,2025-10-08,株式会社グロースコミット,,株式会社,東京都,渋谷区,神宮前６丁目２３番４号桑野ビル２階,,13,113,1500001,,,,,,,2025-10-08,1,,,,,グロースコミット,0
2694,9011001172471,新規,0,2025-10-08,2025-10-08,株式会社煌,,株式会社,東京都,渋谷区,道玄坂１丁目１０番８号渋谷道玄坂東急ビル２Ｆ－Ｃ,,13,113,1500043,,,,,,,2025-10-08,1,,,,,キラメキ,0
2695,9011001172496,新規,0,2025-10-08,2025-10-08,株式会社Ｃａｓａ．６６,,株式会社,東京都,渋谷区,富ヶ谷２丁目２６番１６号,,13,113,1510063,,,,,,,2025-10-08,1,,,,,カーサヴィルゴラ,0
2696,9011001172513,新規,0,2025-10-08,2025-10-08,ＧＯＡＴ　Ｔｅｃｈｎｏｌｏｇｉｅｓ株式会社,,株式会社,東京都,渋谷区,道玄坂１丁目１０番８号渋谷道玄坂東急ビル２Ｆ－Ｃ,,13,113,1500043,,,,,,,2025-10-08,1,,,,,ゴートテクノロジーズ,0
2697,9011001172546,新規,0,2025-10-08,2025-10-08,株式会社Ｍ＆Ａスタート,,株式会社,東京都,渋谷区,恵比寿西２丁目１９－９フランセスビル１階Ｒｅｇｕｓ１２２,,13,113,1500021,,,,,,,2025-10-08,1,,,,,エムアンドエースタート,0
2698,9011001172595,新規,0,2025-10-08,2025-10-08,株式会社Ｎｏｖａｒｉｓ　Ｃａｐｉｔａｌ,,株式会社,東京都,渋谷区,神山町１７番３－１０８号ネイバーズ渋谷神山町,,13,113,1500047,,,,,,,2025-10-08,1,,,,,ノヴァリスキャピタル,0
2699,9011001172612,新規,0,2025-10-08,2025-10-08,株式会社ＤＦＴ　Ｓｏｌｕｔｉｏｎｓ,,株式会社,東京都,渋谷区,神南１丁目１１番４号ＦＰＧリンクス神南５階,,13,113,1500041,,,,,,,2025-10-08,1,,,,,ディーエフティーソリューションズ,0
2700,9011001172901,新規,0,2025-10-08,2025-10-08,株式会社ｅ’ｌｌｅ,,株式会社,東京都,渋谷区,道玄坂１丁目１３番２号第１宝ビル２階,,13,113,1500043,,,,,,,2025-10-08,1,,,,,エル,0
2701,9011001172918,新規,0,2025-10-08,2025-10-08,株式会社ＵＮＢＵＩＬＴ,,株式会社,東京都,目黒区,下目黒１丁目５番２１号,,13,110,1530064,,,,,,,2025-10-08,1,,,,,アンビルト,0
2702,9011001172926,新規,0,2025-10-08,2025-10-08,株式会社Ｏｖａｌ,,株式会社,東京都,渋谷区,代々木１丁目１３番４号代々木ブラウンビル,,13,113,1510053,,,,,,,2025-10-08,1,,,,,オーバル,0
2703,9011001172950,新規,0,2025-10-08,2025-10-08,株式会社タスクリ,,株式会社,東京都,渋谷区,神南１丁目１１－４ＦＰＧリンクス神南５階,,13,113,1500041,,,,,,,2025-10-08,1,,,,,タスクリ,0
2705,9011003022542,新規,0,2025-10-08,2025-10-08,合同会社シュリーヴ,,合同会社,東京都,渋谷区,道玄坂１丁目１０番８号渋谷道玄坂東急ビル２Ｆ－Ｃ,,13,113,1500043,,,,,,,2025-10-08,1,,,,,シュリーヴ,0
2706,9011003022550,新規,0,2025-10-08,2025-10-08,合同会社ＣＡＲＡＶＡＮ,,合同会社,東京都,目黒区,中町１丁目２３番１９号２０２,,13,110,1530065,,,,,,,2025-10-08,1,,,,,キャラバン,0
2707,9011003022575,新規,0,2025-10-08,2025-10-08,Ｓｌｉｇｈｔｌｙ　Ｒｅｃｋｌｅｓｓ　Ｇａｍｅｓ合同会社,,合同会社,東京都,渋谷区,神宮前６丁目２８番９号東武ビル５階５０８号室,,13,113,1500001,,,,,,,2025-10-08,1,,,,,スライトリーレックレスゲームズ,0
2708,9011003022633,新規,0,2025-10-08,2025-10-08,クリーンブックス会計合同会社,,合同会社,東京都,渋谷区,神宮前６丁目２８－９東武ビル６１２号室,,13,113,1500001,,,,,,,2025-10-08,1,,,,,クリーンブックスカイケイ,0
2709,9011003022674,新規,0,2025-10-08,2025-10-08,アニウェル合同会社,,合同会社,東京都,渋谷区,円山町５番５号Ｎａｖｉ渋谷Ｖ３階,00141004,13,113,1500044,,,,,,,2025-10-08,1,,,,,アニウェル,0
2710,9011003022732,新規,0,2025-10-08,2025-10-08,Ｍａｃｒｏ　Ｌｏｇｉｃ合同会社,,合同会社,東京都,渋谷区,恵比寿西２丁目４番８号ウィンド恵比寿ビル８階,,13,113,1500021,,,,,,,2025-10-08,1,,,,,マクロロジック,0
2713,9011101113409,新規,0,2025-10-08,2025-10-08,株式会社Ｎａｓｓｉｓｔ,,株式会社,東京都,新宿区,納戸町３４番地７,,13,104,1620837,,,,,,,2025-10-08,1,,,,,ナシスト,0
2716,9011203004844,新規,0,2025-10-08,2025-10-08,合同会社ＬＩＶＯＲＹ,,合同会社,東京都,中野区,東中野５丁目２番１３－８０７号,,13,114,1640003,,,,,,,2025-10-08,1,,,,,リヴォリー,0
2724,9011503006714,新規,0,2025-10-08,2025-10-08,レイリョウ合同会社,,合同会社,東京都,北区,浮間５丁目３番４３－７１４号,,13,117,1150051,,,,,,,2025-10-08,1,,,,,レイリョウ,0
2725,9011503006730,新規,0,2025-10-08,2025-10-08,合同会社Ｓ＆Ｅ,,合同会社,東京都,北区,田端５丁目５番６号メゾン・ル・ヴェール２０６号,,13,117,1140014,,,,,,,2025-10-08,1,,,,,,0
2726,9011601029030,新規,0,2025-10-08,2025-10-08,株式会社ＲＳＰ　Ｗｏｒｋｓ,,株式会社,東京都,練馬区,南大泉１丁目６番３７号,,13,120,1780064,,,,,,,2025-10-08,1,,,,,アールエスピーワークス,0
2727,9011603004873,新規,0,2025-10-08,2025-10-08,合同会社ＰＬＵＳ　ＯＮＥ,,合同会社,東京都,練馬区,春日町１丁目１６番１４号フェリーチェ２０１,,13,120,1790074,,,,,,,2025-10-08,1,,,,,プラスワン,0
2729,9011703004419,新規,0,2025-10-08,2025-10-08,合同会社宮内興業,,合同会社,東京都,江戸川区,春江町２丁目１３番１８号グリーンガーデンＩＹＯ１０３,,13,123,1320003,,,,,,,2025-10-08,1,,,,,ミヤウチコウギョウ,0
2734,9012403007380,新規,0,2025-10-08,2025-10-08,合同会社Ｎｏｅｃｈｒｏｍｅ,,合同会社,東京都,狛江市,西野川３丁目８番２号,,13,219,2010001,,,,,,,2025-10-08,1,,,,,ノエクローム,0
2753,9020001165113,新規,0,2025-10-08,2025-10-08,株式会社ＭＫＧホールディングス,,株式会社,神奈川県,横浜市都筑区,中川１丁目１２番１４－２０３号,,14,118,2240001,,,,,,,2025-10-08,1,,,,,エムケージーホールディングス,0
2759,9020003029522,新規,0,2025-10-08,2025-10-08,合同会社ＬＵＣＲＩＭＡ,,合同会社,神奈川県,川崎市川崎区,駅前本町１１番地２川崎フロンティアビル４階,,14,131,2100007,,,,,,,2025-10-08,1,,,,,ルクリマ,0
2766,9030001168949,新規,0,2025-10-08,2025-10-08,Ｓａｋｕｒａ・Ｂ＆Ｇ株式会社,,株式会社,埼玉県,深谷市,針ヶ谷１２４８－３,,11,218,3690213,,,,,,,2025-10-08,1,,,,,サクラビーアンジー,0
2767,9030001169006,新規,0,2025-10-08,2025-10-08,株式会社ＥＮＥＲＧＹ　ＷＯＲＫＳ,,株式会社,埼玉県,吉川市,美南１丁目３７番地６ヘリオス吉川美南クロノス２０５号,,11,243,3420038,,,,,,,2025-10-08,1,,,,,エナジーワークス,0
2768,9030001169039,新規,0,2025-10-08,2025-10-08,ＴＴＣ株式会社,,株式会社,埼玉県,桶川市,末広２丁目１１番２２号ティアラレジデンス４０７号,,11,231,3630012,,,,,,,2025-10-08,1,,,,,ティーティーシー,0
2769,9030001169105,新規,0,2025-10-08,2025-10-08,丸善住研株式会社,,株式会社,埼玉県,さいたま市緑区,大字三室１４０９番地１１,,11,109,3360911,,,,,,,2025-10-08,1,,,,,マルゼンジュウケン,0
2773,9030003027830,新規,0,2025-10-08,2025-10-08,合同会社ＨＲ,,合同会社,埼玉県,三郷市,早稲田５丁目１７‐２１,,11,237,3410018,,,,,,,2025-10-08,1,,,,,エイチアール,0
2784,9040003028704,新規,0,2025-10-08,2025-10-08,合同会社ＬＡＨＩＲＵ　ＥＮＴＥＲＰＲＩＳＥＳ,,合同会社,千葉県,山武市,埴谷２２７４番地７－Ｃ,,12,237,2891223,,,,,,,2025-10-08,1,,,,,ラヒルエンタープライゼス,0
2797,9070003006145,新規,0,2025-10-08,2025-10-08,合同会社カイム設計,,合同会社,群馬県,伊勢崎市,赤堀鹿島町７４２－９,,10,204,3792202,,,,,,,2025-10-08,1,,,,,カイムセッケイ,0
2798,9080001027175,新規,0,2025-10-08,2025-10-08,環境のミカタホールディングス株式会社,,株式会社,静岡県,藤枝市,前島２丁目２１番１号,,22,214,4260067,,,,,,,2025-10-08,1,,,,,カンキョウノミカタホールディングス,0
2799,9080101025822,新規,0,2025-10-08,2025-10-08,ラボテックス株式会社,,株式会社,静岡県,沼津市,北高島町１２番２号,,22,203,4100054,,,,,,,2025-10-08,1,,,,,ラボテックス,0
2801,9080405007772,新規,0,2025-10-08,2025-10-08,医療法人社団東秋会,,その他の設立登記法人,静岡県,浜松市中央区,元城町２１８番地の１１,,22,138,4300946,,,,,,,2025-10-08,1,,,,,トウシュウカイ,0
2802,9090001019551,新規,0,2025-10-08,2025-10-08,株式会社新中央エンジニアリング,,株式会社,山梨県,甲府市,堀之内町３６８番地１,,19,201,4000056,,,,,,,2025-10-08,1,,,,,,0
2814,9120001280257,新規,0,2025-10-08,2025-10-08,Ｎｏｖａ　Ｋｏｏｄｏ株式会社,,株式会社,大阪府,大阪市西成区,萩之茶屋１丁目１２番７号万葉ビル１１７号室,,27,122,5570004,,,,,,,2025-10-08,1,,,,,ノヴァコード,0
2815,9120001280298,新規,0,2025-10-08,2025-10-08,株式会社ＳＡＫＵ,,株式会社,大阪府,大阪市港区,築港３丁目３番１－９１４号,,27,107,5520021,,,,,,,2025-10-08,1,,,,,サク,0
2816,9120001280348,新規,0,2025-10-08,2025-10-08,合衆商事株式会社,,株式会社,大阪府,大阪市北区,黒崎町３－２６－２Ｃ,,27,127,5300023,,,,,,,2025-10-08,1,,,,,ガッシュウショウジ,0
2817,9120001280686,新規,0,2025-10-08,2025-10-08,ディーアイエコサイクル株式会社,,株式会社,大阪府,大阪市平野区,加美北４丁目８番２４号,,27,126,5470001,,,,,,,2025-10-08,1,,,,,ディーアイエコサイクル,0
2818,9120001280694,新規,0,2025-10-08,2025-10-08,株式会社ＡＧＡＳＡ,,株式会社,大阪府,大阪市中央区,瓦屋町１丁目５番１０号,,27,128,5420066,,,,,,,2025-10-08,1,,,,,アガサ,0
2819,9120001280711,新規,0,2025-10-08,2025-10-08,株式会社ヤマヒサ,,株式会社,大阪府,大阪市北区,太融寺町３番２４号日本生命梅田第二ビル,,27,127,5300051,,,,,,,2025-10-08,1,,,,,ヤマヒサ,0
2820,9120001280744,新規,0,2025-10-08,2025-10-08,株式会社ＳＧライズ,,株式会社,大阪府,大阪市東成区,東小橋３丁目１９番８号,,27,115,5370024,,,,,,,2025-10-08,1,,,,,エスジーライズ,0
2821,9120001280892,新規,0,2025-10-08,2025-10-08,株式会社ｃｈｅｌｍａ,,株式会社,大阪府,大阪市西区,南堀江１丁目３番１２号,,27,106,5500015,,,,,,,2025-10-08,1,,,,,チェルマ,0
2824,9120003030866,新規,0,2025-10-08,2025-10-08,ＰＲＯＭＩＳＥＬＡＮＤ　ＬＩＭＩＴＥＤ合同会社,,合同会社,大阪府,大阪市北区,天神橋２丁目２番２０－２０６号,,27,127,5300041,,,,,,,2025-10-08,1,,,,,プロミスランドリミテッド,0
2825,9120005025195,新規,0,2025-10-08,2025-10-08,一般社団法人日本語生活支援アソシエイツＨＯＰ　ＳＴＥＰ　ＪＡＰＡＮ,,その他の設立登記法人,大阪府,大阪市北区,芝田２丁目８－１１共栄ビル３Ｆ,,27,127,5300012,,,,,,,2025-10-08,1,,,,,ニホンゴセイカツシエンアソシエイツホップステップジャパン,0
2829,9120101072562,新規,0,2025-10-08,2025-10-08,なにわ女子プロレス株式会社,,株式会社,大阪府,和泉市,鶴山台３丁目４番７－２０３号,,27,219,5940013,,,,,,,2025-10-08,1,,,,,ナニワジョシプロレス,0
2830,9120105010072,新規,0,2025-10-08,2025-10-08,一般社団法人ＫＥＩＳＨＩＮ,,その他の設立登記法人,大阪府,羽曳野市,軽里３丁目７番１８号,,27,222,5830854,,,,,,,2025-10-08,1,,,,,ケイシン,0
2831,9120901051600,新規,0,2025-10-08,2025-10-08,ＬＩＶ株式会社,,株式会社,大阪府,吹田市,広芝町２０番１６－２０１号,,27,205,5640052,,,,,,,2025-10-08,1,,,,,リブ,0
2834,9130001080689,新規,0,2025-10-08,2025-10-08,株式会社京成建工,,株式会社,京都府,亀岡市,下矢田町４丁目２４番９号,,26,206,6210854,,,,,,,2025-10-08,1,,,,,キョウセイケンコウ,0
2838,9140001140236,新規,0,2025-10-08,2025-10-08,株式会社ＨＭ,,株式会社,兵庫県,宝塚市,雲雀丘３丁目４番１８号,,28,214,6650805,,,,,,,2025-10-08,1,,,,,エッチエム,0
2839,9140001140260,新規,0,2025-10-08,2025-10-08,株式会社コウムテン・エフ,,株式会社,兵庫県,神戸市灘区,灘南通１丁目３番８号,,28,102,6570841,,,,,,,2025-10-08,1,,,,,コウムテンエフ,0
2840,9140001140269,新規,0,2025-10-08,2025-10-08,株式会社ＭＡＫＯ,,株式会社,兵庫県,尼崎市,南武庫之荘２丁目２２番１－４０３号,,28,202,6610033,,,,,,,2025-10-08,1,,,,,マコ,0
2841,9140001140302,新規,0,2025-10-08,2025-10-08,あいある不動産株式会社,,株式会社,兵庫県,明石市,大明石町２丁目４番１１号,,28,203,6730891,,,,,,,2025-10-08,1,,,,,アイアルフドウサン,0
2843,9150001028463,新規,0,2025-10-08,2025-10-08,株式会社ＬＥＮＴＡＩＬ,,株式会社,奈良県,奈良市,尼辻北町９番４７号,00141016,29,201,6308025,,,,,,,2025-10-08,1,,,,,レンテイル,0
2854,9180001168868,新規,0,2025-10-08,2025-10-08,久商会株式会社,,株式会社,愛知県,岩倉市,西市町小柳２５番地１７,,23,228,4820036,,,,,,,2025-10-08,1,,,,,ヒサショウカイ,0
2855,9180001168934,新規,0,2025-10-08,2025-10-08,株式会社ＤＥＮＳＨＯ　Ｌａｂｏｒａｔｏｒｙ,,株式会社,愛知県,瀬戸市,美濃池町１５番地３,,23,204,4890932,,,,,,,2025-10-08,1,,,,,デンショウラボラトリー,0
2856,9180001168967,新規,0,2025-10-08,2025-10-08,株式会社セラムホールディングス,,株式会社,愛知県,名古屋市北区,大曽根１丁目２６番２３号,,23,103,4620825,,,,,,,2025-10-08,1,,,,,セラムホールディングス,0
2857,9180001168975,新規,0,2025-10-08,2025-10-08,株式会社ＳＫＹ＆ＹＯＵ,,株式会社,愛知県,名古屋市中区,栄３丁目３１番７号大河内ビル４階,,23,106,4600008,,,,,,,2025-10-08,1,,,,,エスケイワイアンドユー,0
2858,9180001169073,新規,0,2025-10-08,2025-10-08,ＧＲＥＣＯ　ＣＯＲＰＯＲＡＴＩＯＮ株式会社,,株式会社,愛知県,名古屋市昭和区,汐見町３９番地,,23,107,4660837,,,,,,,2025-10-08,1,,,,,グレココーポレーション,0
2866,9180005021271,新規,0,2025-10-08,2025-10-08,エープロス社会保険労務士法人,,その他の設立登記法人,愛知県,名古屋市東区,東桜１丁目３番８号ヴェッセル丸杉ビル７階,,23,102,4610005,,,,,,,2025-10-08,1,,,,,エープロス,0
2869,9180301040289,新規,0,2025-10-08,2025-10-08,株式会社ジュンジインベスターズ,,株式会社,愛知県,碧南市,中山町３丁目１４番地８,,23,209,4470035,,,,,,,2025-10-08,1,,,,,ジュンジインベスターズ,0
2870,9180301040314,新規,0,2025-10-08,2025-10-08,株式会社ネクスタアカデミー,,株式会社,愛知県,刈谷市,御幸町４丁目２１０番地３０１号室,,23,210,4480821,,,,,,,2025-10-08,1,,,,,ネクスタアカデミー,0
2871,9180301040322,新規,0,2025-10-08,2025-10-08,株式会社ＴＫコンストラクション,,株式会社,愛知県,刈谷市,大正町６丁目２０２番地,,23,210,4480855,,,,,,,2025-10-08,1,,,,,ティーケイコンストラクション,0
2873,9190001032593,新規,0,2025-10-08,2025-10-08,株式会社ＫＯＳＨＩＭＡ,,株式会社,三重県,松阪市,下村町９７１番地３,,24,204,5150043,,,,,,,2025-10-08,1,,,,,コウシマ,0
2876,9210001020331,新規,0,2025-10-08,2025-10-08,株式会社水上土木,,株式会社,福井県,越前市,野岡町第３０号２８番地１３,,18,209,9150264,,,,,,,2025-10-08,1,,,,,ミズカミドボク,0
2877,9220001026963,新規,0,2025-10-08,2025-10-08,株式会社帆夏,,株式会社,石川県,金沢市,木倉町６番８号ケンコービル１階,,17,201,9200988,,,,,,,2025-10-08,1,,,,,ホナツ,0
2878,9230003002516,新規,0,2025-10-08,2025-10-08,合同会社小花,,合同会社,富山県,富山市,金山新桜ヶ丘６９６番地７２,,16,201,9302204,,,,,,,2025-10-08,1,,,,,コハナ,0
2881,9240001065613,新規,0,2025-10-08,2025-10-08,株式会社アイビー設計,,株式会社,広島県,広島市西区,観音町１番４号１Ｆ,,34,104,7330031,,,,,,,2025-10-08,1,,,,,アイビーセッケイ,0
2883,9250001021383,新規,0,2025-10-08,2025-10-08,株式会社星心,,株式会社,山口県,周南市,本町１丁目２６－１,,35,215,7450036,,,,,,,2025-10-08,1,,,,,セイシン,0
2886,9260001040630,新規,0,2025-10-08,2025-10-08,オーシャンサイド株式会社,,株式会社,岡山県,倉敷市,大島３６９番地１,,33,202,7100047,,,,,,,2025-10-08,1,,,,,オーシャンサイド,0
2888,9260003005367,新規,0,2025-10-08,2025-10-08,ＢＵＴＴ　ＢＲＯＴＨＥＲＳ合同会社,,合同会社,岡山県,瀬戸内市,牛窓町鹿忍１１１１番地Ａ棟１号室,,33,212,7014303,,,,,,,2025-10-08,1,,,,,バットブラザーズ,0
2889,9270001009303,新規,0,2025-10-08,2025-10-08,株式会社ヤスバン,,株式会社,鳥取県,米子市,両三柳９８番地３,,31,202,6830853,,,,,,,2025-10-08,1,,,,,ヤスバン,0
2891,9290001111585,新規,0,2025-10-08,2025-10-08,株式会社ＩＳＤ,,株式会社,福岡県,福岡市博多区,春町１丁目２番２８号,,40,132,8120872,,,,,,,2025-10-08,1,,,,,アイエスディ,0
2892,9290001111701,新規,0,2025-10-08,2025-10-08,株式会社筑前組,,株式会社,福岡県,福岡市南区,寺塚２丁目２３－１５,,40,134,8150074,,,,,,,2025-10-08,1,,,,,チクゼングミ,0
2893,9290001111742,新規,0,2025-10-08,2025-10-08,さくら工房株式会社,,株式会社,福岡県,大川市,大字向島６５８番地３,,40,212,8310005,,,,,,,2025-10-08,1,,,,,サクラコウボウ,0
2895,9290005019858,新規,0,2025-10-08,2025-10-08,佐治鷲津税理士法人,,その他の設立登記法人,福岡県,福岡市中央区,桜坂３丁目４番２８号,,40,133,8100024,,,,,,,2025-10-08,1,,,,,サジワシヅ,0
2896,9290801031925,新規,0,2025-10-08,2025-10-08,クリエイトホールディングス株式会社,,株式会社,福岡県,京都郡みやこ町,勝山黒田８７２番地１,,40,625,8240822,,,,,,,2025-10-08,1,,,,,クリエイトホールディングス,0
2899,9310003005106,新規,0,2025-10-08,2025-10-08,合同会社ａｍｏｕｒ　ｅ’ｔｅｒｎｅｌ,,合同会社,長崎県,東彼杵郡波佐見町,永尾郷３２９番地１０,,42,323,8593705,,,,,,,2025-10-08,1,,,,,アムールエテルネル,0
2905,9330001033627,新規,0,2025-10-08,2025-10-08,株式会社ＦＵＲＵＳＡＷＡ,,株式会社,熊本県,荒尾市,日の出町１３番３０号,,43,204,8640055,,,,,,,2025-10-08,1,,,,,フルサワ,0
2906,9330001033635,新規,0,2025-10-08,2025-10-08,株式会社Ａｌｌ．ｌｉｆｅ,,株式会社,熊本県,熊本市北区,龍田９丁目４－３４ライズＫＵＳＵＮＯＫＩ１０３,,43,105,8618006,,,,,,,2025-10-08,1,,,,,オールライフ,0
2911,9330003011250,新規,0,2025-10-08,2025-10-08,合同会社フルショウエンタープライズ,,合同会社,熊本県,熊本市中央区,坪井３丁目１番１６－５０３号アーバンパレスアクス坪井,,43,101,8600863,,,,,,,2025-10-08,1,,,,,フルショウエンタープライズ,0
2912,9340001027702,新規,0,2025-10-08,2025-10-08,株式会社ＫＭ　ＮＥＴＷＯＲＫ,,株式会社,鹿児島県,鹿児島市,西別府町３２６０番地１７,,46,201,8900033,,,,,,,2025-10-08,1,,,,,ケイエムネットワーク,0
2923,9370001053126,新規,0,2025-10-08,2025-10-08,株式会社ＬｉｖＧｒｅｅｎ,,株式会社,宮城県,仙台市宮城野区,五輪１丁目１５－１９,,04,102,9830842,,,,,,,2025-10-08,1,,,,,リブグリーン,0
2926,9380003006155,新規,0,2025-10-08,2025-10-08,ＦＳ‐Ｔｅｃｈ合同会社,,合同会社,福島県,須賀川市,仁井田字館内６６番地２,,07,207,9620402,,,,,,,2025-10-08,1,,,,,エフエステック,0
2928,9400001017201,新規,0,2025-10-08,2025-10-08,株式会社ｉＤＥＡＬ,,株式会社,岩手県,奥州市,水沢姉体町字島田１０２番地３,,03,215,0230831,,,,,,,2025-10-08,1,,,,,アイディール,0
2929,9410003004163,新規,0,2025-10-08,2025-10-08,合同会社ＣｏＬｉｔ　Ｐｅｏｐｌｅ,,合同会社,秋田県,秋田市,楢山南中町１番５１‐４号,,05,201,0100022,,,,,,,2025-10-08,1,,,,,,0
2930,9420003003197,新規,0,2025-10-08,2025-10-08,合同会社ＳＥＺＢＩＣ,,合同会社,青森県,八戸市,白銀台４丁目１番地７,,02,203,0310832,,,,,,,2025-10-08,1,,,,,セツビック,0
2933,9430001095426,新規,0,2025-10-08,2025-10-08,株式会社恒ビル,,株式会社,北海道,札幌市白石区,菊水七条１丁目２番１２号,,01,104,0030807,,,,,,,2025-10-08,1,,,,,ツネビル,0
2936,9450001014747,新規,0,2025-10-08,2025-10-08,株式会社タケオカンパニー,,株式会社,北海道,旭川市,東旭川町旭正２２８番地,,01,204,0788368,,,,,,,2025-10-08,1,,,,,タケオカンパニー,0
2937,9460001006041,新規,0,2025-10-08,2025-10-08,株式会社和の音,,株式会社,北海道,釧路郡釧路町,大字昆布森村字又飯時８番地,,01,661,0852273,,,,,,,2025-10-08,1,,,,,ナゴミノオト,0
2939,9490001011179,新規,0,2025-10-08,2025-10-08,株式会社幸栄丸,,株式会社,高知県,高知市,浦戸５７９番地,,39,201,7810262,,,,,,,2025-10-08,1,,,,,コウエイマル,0
2940,9490003002052,新規,0,2025-10-08,2025-10-08,クロスクラフト合同会社,,合同会社,高知県,高知市,愛宕町１丁目９番１２号,,39,201,7800051,,,,,,,2025-10-08,1,,,,,クロスクラフト,0
