sequenceNumber,corporateNumber,process,correct,updateDate,changeDate,name,nameImageId,kind,prefectureName,cityName,streetNumber,addressImageId,prefectureCode,cityCode,postCode,addressOutside,addressOutsideImageId,closeDate,closeCause,successorCorporateNumber,changeCause,assignmentDate,latest,enName,enPrefectureName,enCityName,enAddressOutside,furigana,hihyoji
1,1010001008486,登記記録の閉鎖等,0,2021-09-15,2021-09-09,株式会社ルックス,,株式会社,東京都,文京区,大塚３丁目４４番２号,,13,105,1120012,,,2021-09-09,清算の結了等,,,2015-10-05,1,,,,,ルックス,0
22,1010005027771,登記記録の閉鎖等,0,2021-09-15,2021-09-09,道玄坂ビルマネジメント特定目的会社,,その他の設立登記法人,東京都,中央区,日本橋１丁目４番１号,,13,102,1030027,,,2021-09-09,清算の結了等,,,2017-11-28,1,,,,,ドウゲンザカビルマネジメント,0
30,1010402007962,登記記録の閉鎖等,0,2021-09-15,2021-09-07,有限会社田口商店,,有限会社,東京都,港区,新橋３丁目２２番９号,,13,103,1050004,,,2021-09-07,清算の結了等,,,2015-10-05,1,,,,,タグチショウテン,0
35,1010802014617,登記記録の閉鎖等,0,2021-09-15,2021-09-06,有限会社師岡鈑金製作所,,有限会社,東京都,大田区,新蒲田１丁目１１番５号,,13,111,1440054,,,2021-09-06,清算の結了等,,,2015-10-05,1,,,,,モロオカバンキンセイサクショ,0
37,1010902009376,登記記録の閉鎖等,0,2021-09-15,2021-09-09,有限会社瀧建具店,,有限会社,東京都,世田谷区,松原２丁目３７番１号,,13,112,1560043,,,2021-09-09,清算の結了等,,,2015-10-05,1,,,,,タキタテグテン,0
44,1011001098468,登記記録の閉鎖等,0,2021-09-15,2021-09-10,株式会社ＭＰ福岡・鞍手,,株式会社,福岡県,鞍手郡鞍手町,大字中山１番地４１,,40,402,8071312,,,2021-09-10,合併による解散等,1011001098336,令和３年９月１日東京都新宿区西新宿三丁目２０番２号株式会社ジェイエムエス・シックス（1011001098336）に合併し解散,2015-10-05,1,,,,,,0
63,1011801007322,登記記録の閉鎖等,0,2021-09-15,2021-09-13,久保紙器印刷株式会社,,株式会社,東京都,足立区,平野３丁目１７番１７号,,13,121,1210076,,,2021-09-13,清算の結了等,,,2015-10-05,1,,,,,クボシキインサツ,0
77,1013401004988,登記記録の閉鎖等,0,2021-09-15,2021-09-13,株式会社旭保険,,株式会社,東京都,日野市,旭が丘６丁目７番地の７,,13,212,1910065,,,2021-09-13,清算の結了等,,,2015-10-05,1,,,,,アサヒホケン,0
85,1021001007634,登記記録の閉鎖等,0,2021-09-15,2021-09-10,株式会社ドリーム・ジャーニー,,株式会社,神奈川県,茅ヶ崎市,香川１丁目１９番２３号,,14,207,2530082,,,2021-09-10,清算の結了等,,,2015-10-05,1,,,,,ドリームジャーニー,0
100,1030002056227,登記記録の閉鎖等,0,2021-09-15,2021-09-06,有限会社ワタナベ開発,,有限会社,埼玉県,桶川市,大字上日出谷１９９番地の４０,,11,231,3630026,,,2021-09-06,清算の結了等,,,2015-10-05,1,,,,,ワタナベカイハツ,0
116,1040002091586,登記記録の閉鎖等,0,2021-09-15,2021-09-07,有限会社堀口モータース,,有限会社,千葉県,柏市,東台本町６番３２号,,12,217,2770013,,,2021-09-07,清算の結了等,,,2015-10-05,1,,,,,ホリグチモータース,0
123,1060001020684,登記記録の閉鎖等,0,2021-09-15,2021-09-08,株式会社山口商店,,株式会社,栃木県,佐野市,万町２７７５番地,,09,204,3270028,,,2021-09-08,清算の結了等,,,2015-10-05,1,,,,,ヤマグチショウテン,0
150,1120001212952,登記記録の閉鎖等,0,2021-09-15,2021-09-09,株式会社健創,,株式会社,大阪府,大阪市城東区,鴫野西５丁目１５番２３号,,27,118,5360014,,,2021-09-09,清算の結了等,,,2018-04-23,1,,,,,ケンソウ,0
201,1170001003240,登記記録の閉鎖等,0,2021-09-15,2021-09-09,三益産業株式会社,,株式会社,和歌山県,和歌山市,太田２丁目８番１１号,,30,201,6408323,,,2021-09-09,清算の結了等,,,2015-11-17,1,,,,,ミマスサンギョウ,0
207,1180001058903,登記記録の閉鎖等,0,2021-09-15,2021-09-10,株式会社ＨＯＰ,,株式会社,愛知県,名古屋市緑区,横吹町２００６番地,,23,114,4580816,,,2021-09-10,清算の結了等,,,2015-10-05,1,,,,,ホップ,0
222,1220001014744,登記記録の閉鎖等,0,2021-09-15,2021-09-13,株式会社バイオアプライ,,株式会社,石川県,金沢市,土清水１丁目９５番地,,17,201,9200955,,,2021-09-13,清算の結了等,,,2015-10-05,1,,,,,バイオアプライ,0
223,1220002010577,登記記録の閉鎖等,0,2021-09-15,2021-09-10,有限会社小松コンタクトレンズセンター,,有限会社,石川県,小松市,土居原町１４４番地３,,17,203,9230921,,,2021-09-10,清算の結了等,,,2015-10-05,1,,,,,コマツコンタクトレンズセンター,0
241,1290001015562,登記記録の閉鎖等,0,2021-09-15,2021-08-31,株式会社ニシヒラ,,株式会社,福岡県,福岡市博多区,上牟田３丁目４番１１号,,40,132,8120006,,,2021-08-31,清算の結了等,,,2015-10-05,1,,,,,ニシヒラ,0
269,1330002014682,登記記録の閉鎖等,0,2021-09-15,2021-09-13,有限会社メゾン横田,,有限会社,熊本県,熊本市西区,横手５丁目２番７号,,43,103,8600046,,,2021-09-13,清算の結了等,,,2015-10-05,1,,,,,メゾンヨコタ,0
272,1340002020960,登記記録の閉鎖等,0,2021-09-15,2021-09-09,有限会社奄美自然農産,,有限会社,鹿児島県,大島郡宇検村,大字湯湾１０８６番地５,,46,524,8943301,,,2021-09-09,清算の結了等,,,2015-10-05,1,,,,,アマミシゼンノウサン,0
297,1430002062218,登記記録の閉鎖等,0,2021-09-15,2021-09-07,有限会社近藤牧場,,有限会社,北海道,浦河郡浦河町,字西舎４１１番地,,01,607,0570171,,,2021-09-07,清算の結了等,,,2015-10-05,1,,,,,,0
307,1470005005830,登記記録の閉鎖等,0,2021-09-15,2021-09-06,特定非営利活動法人香川県空き家等対策協会,,その他の設立登記法人,香川県,高松市,御厩町１６６０番地,00103101,37,201,7618042,,,2021-09-06,清算の結了等,,,2015-10-05,1,,,,,カガワケンアキヤトウタイサクキョウカイ,0
308,1480002011442,登記記録の閉鎖等,0,2021-09-15,2021-09-08,栄進商事有限会社,,有限会社,徳島県,板野郡藍住町,東中富字龍池傍示５４番地の３,,36,403,7711220,,,2021-09-08,清算の結了等,,,2015-10-05,1,,,,,エイシンショウジ,0
309,1480002012738,登記記録の閉鎖等,0,2021-09-15,2021-09-07,有限会社ウッディマツモト,,有限会社,徳島県,阿南市,那賀川町上福井南川淵２０４番地,,36,204,7791243,,,2021-09-07,清算の結了等,,,2015-10-05,1,,,,,ウッディマツモト,0
312,1500001021638,登記記録の閉鎖等,0,2021-09-15,2021-09-13,株式会社ストーリア,,株式会社,愛媛県,四国中央市,土居町津根３５４４番地２,,38,213,7990704,,,2021-09-13,清算の結了等,,,2018-10-17,1,,,,,ストーリア,0
316,1500002016389,登記記録の閉鎖等,0,2021-09-15,2021-09-13,有限会社弘清測量設計事務所,,有限会社,愛媛県,新居浜市,又野３丁目３番５１号,,38,205,7920882,,,2021-09-13,清算の結了等,,,2015-10-05,1,,,,,コウセイソクリョウセッケイジムショ,0
318,1500005002907,登記記録の閉鎖等,0,2021-09-15,2021-09-14,医療法人米川医院,,その他の設立登記法人,愛媛県,大洲市,長浜甲３９５番地の１,,38,207,7993401,,,2021-09-14,清算の結了等,,,2015-10-05,1,,,,,ヨネカワイイン,0
325,2010001181679,登記記録の閉鎖等,0,2021-09-15,2021-09-06,民泊ＪＡＰＡＮ株式会社,,株式会社,東京都,中央区,八重洲１丁目３番７号八重洲ファーストフィナンシャルビル１３Ｆ,,13,102,1030028,,,2021-09-06,清算の結了等,,,2017-02-23,1,,,,,ミンパクジャパン,0
327,2010002021719,登記記録の閉鎖等,0,2021-09-15,2021-09-07,大興印刷有限会社,,有限会社,東京都,中央区,新川２丁目２４番２号,,13,102,1040033,,,2021-09-07,清算の結了等,,,2015-10-05,1,,,,,ダイコウインサツ,0
333,2010102010786,登記記録の閉鎖等,0,2021-09-15,2021-09-13,有限会社パタナ,,有限会社,東京都,八王子市,犬目町７５番地８号,,13,201,1930802,,,2021-09-13,清算の結了等,,,2015-10-05,1,,,,,パタナ,0
357,2011101043728,登記記録の閉鎖等,0,2021-09-15,2021-09-03,株式会社地酒,,株式会社,東京都,新宿区,西新宿８丁目１１番１号日東星野ビルＢ１－１０２,,13,104,1600023,,,2021-09-03,清算の結了等,,,2015-10-05,1,,,,,ジザケ,0
369,2011501012729,登記記録の閉鎖等,0,2021-09-15,2021-09-10,株式会社母音,,株式会社,東京都,荒川区,東日暮里５丁目４８番５号,,13,118,1160014,,,2021-09-10,清算の結了等,,,2015-10-05,1,,,,,ボイン,0
374,2011701003321,登記記録の閉鎖等,0,2021-09-15,2021-09-09,株式会社阪秀,,株式会社,東京都,江戸川区,船堀４丁目６番１６号,,13,123,1340091,,,2021-09-09,清算の結了等,,,2015-10-05,1,,,,,サカヒデ,0
384,2011802001653,登記記録の閉鎖等,0,2021-09-15,2021-09-13,有限会社小野製作所,,有限会社,東京都,葛飾区,白鳥４丁目１４番２０号,,13,122,1250063,,,2021-09-13,清算の結了等,,,2015-10-05,1,,,,,オノセイサクショ,0
414,2021002003945,登記記録の閉鎖等,0,2021-09-15,2021-09-10,有限会社バックステージパス,,有限会社,神奈川県,藤沢市,藤沢１丁目１番１６号,,14,205,2510052,,,2021-09-10,清算の結了等,,,2015-10-05,1,,,,,バックステージパス,0
419,2030001045403,登記記録の閉鎖等,0,2021-09-15,2021-09-06,株式会社タカヤ,,株式会社,埼玉県,志木市,下宗岡２丁目１９番４８号,,11,228,3530003,,,2021-09-06,清算の結了等,,,2015-10-05,1,,,,,タカヤ,0
436,2040002014991,登記記録の閉鎖等,0,2021-09-15,2021-09-08,有限会社ハナホームケア,,有限会社,千葉県,千葉市若葉区,桜木北２丁目４番３０号ネオハイツ都賀１０２号,,12,104,2640029,,,2021-09-08,清算の結了等,,,2015-10-05,1,,,,,ハナホームケア,0
438,2040002029296,登記記録の閉鎖等,0,2021-09-15,2021-09-08,有限会社清水屋,00019975,有限会社,千葉県,八千代市,八千代台北１１丁目８番３号,,12,221,2760031,,,2021-09-08,清算の結了等,,,2015-10-05,1,,,,,シミズヤ,0
465,2080402006552,登記記録の閉鎖等,0,2021-09-15,2021-09-13,有限会社林建材,,有限会社,静岡県,浜松市中区,西伊場町２１番１７号,,22,131,4328038,,,2021-09-13,清算の結了等,,,2015-10-05,1,,,,,ハヤシケンザイ,0
477,2120001057208,登記記録の閉鎖等,0,2021-09-15,2021-09-08,株式会社トップ・アイテム,,株式会社,大阪府,大阪市淀川区,塚本５丁目８番１２号,,27,123,5320026,,,2021-09-08,清算の結了等,,,2015-10-05,1,,,,,トップアイテム,0
505,2140003015764,登記記録の閉鎖等,0,2021-09-15,2021-09-10,合同会社ユーラシアＮＧＪ,,合同会社,兵庫県,西宮市,菊谷町７番２９号,,28,204,6620078,,,2021-09-10,清算の結了等,,,2021-01-04,1,,,,,ユーラシアエヌジージェイ,0
506,2140005025010,登記記録の閉鎖等,0,2021-09-15,2021-09-09,特定非営利活動法人ケア工房ひらの,,その他の設立登記法人,兵庫県,神戸市兵庫区,下祇園町３２番１８号,,28,105,6520015,,,2021-09-09,清算の結了等,,,2020-02-10,1,,,,,ケアコウボウヒラノ,0
511,2180001065452,登記記録の閉鎖等,0,2021-09-15,2021-09-08,株式会社ＹＭＳ,,株式会社,愛知県,名古屋市緑区,乗鞍１丁目９０５番地の２,,23,114,4580004,,,2021-09-08,清算の結了等,,,2015-10-05,1,,,,,ワイエムエス,0
525,2190005004892,登記記録の閉鎖等,0,2021-09-15,2021-07-19,天理教伊勢豊浜分教会,,その他の設立登記法人,三重県,伊勢市,有滝町２７８１番地,,24,203,5150501,,,2021-07-19,合併による解散等,3190005004909,令和３年７月１９日三重県伊勢市神久三丁目５番７４号天理教勢山分教会（3190005004909）に合併し解散,2015-10-05,1,,,,,,0
532,2230002011020,登記記録の閉鎖等,0,2021-09-15,2021-09-09,有限会社幸知商事,,有限会社,富山県,高岡市,戸出町３丁目９番６号,,16,202,9391104,,,2021-09-09,清算の結了等,,,2015-10-05,1,,,,,コウチショウジ,0
540,2240002032800,登記記録の閉鎖等,0,2021-09-15,2021-09-08,有限会社児玉設備,,有限会社,広島県,呉市,宮原７丁目６番３０号,,34,202,7370024,,,2021-09-08,清算の結了等,,,2015-10-05,1,,,,,コダマセツビ,0
547,2260001033657,登記記録の閉鎖等,0,2021-09-15,2021-09-13,株式会社ＳＡＴＵＫＩ,,株式会社,岡山県,岡山市南区,新福１丁目１番３０号,,33,104,7000943,,,2021-09-13,清算の結了等,,,2019-10-18,1,,,,,サツキ,0
563,2290002054369,登記記録の閉鎖等,0,2021-09-15,2021-08-31,有限会社富安産業,,有限会社,福岡県,柳川市,三橋町中山１０８６番地,,40,207,8320811,,,2021-08-31,清算の結了等,,,2015-10-05,1,,,,,トミヤスサンギョウ,0
587,2420001005417,登記記録の閉鎖等,0,2021-09-15,2021-09-10,株式会社ホクトサービス,,株式会社,青森県,青森市,桜川７丁目２番３号,,02,201,0300945,,,2021-09-10,清算の結了等,,,2015-10-05,1,,,,,ホクトサービス,0
604,2500002021644,登記記録の閉鎖等,0,2021-09-15,2021-09-13,有限会社新栄,,有限会社,愛媛県,四国中央市,土居町津根３６２４番地,,38,213,7990704,,,2021-09-13,清算の結了等,,,2015-10-05,1,,,,,シンエイ,0
610,3010001193021,登記記録の閉鎖等,0,2021-09-15,2021-09-10,テックビューロホールディングス株式会社,,株式会社,東京都,千代田区,丸の内１丁目１１番１号１３階,,13,101,1000005,,,2021-09-10,合併による解散等,1120001184556,令和３年９月１日大阪市西区靭本町一丁目５番１８号テックビューロ株式会社（1120001184556）に合併し解散,2018-07-23,1,,,,,テックビューロホールディングス,0
617,3010002034174,登記記録の閉鎖等,0,2021-09-15,2021-09-09,有限会社ワイ・エス・ユー,,有限会社,東京都,台東区,池之端１丁目４番３３－１６０６号,,13,106,1100008,,,2021-09-09,清算の結了等,,,2015-10-05,1,,,,,ワイエスユー,0
648,3010801027709,登記記録の閉鎖等,0,2021-09-15,2021-09-09,株式会社三立リトラス,,株式会社,東京都,大田区,仲六郷２丁目４３番５号,,13,111,1440055,,,2021-09-09,合併による解散等,9010401011867,令和３年９月１日東京都港区三田三丁目４番１７号三立興産株式会社（9010401011867）に合併し解散,2017-04-21,1,,,,,サンリツリトラス,0
659,3011001091041,登記記録の閉鎖等,0,2021-09-15,2021-09-10,株式会社ＪＭ福岡・東峰,,株式会社,福岡県,朝倉郡東峰村,大字福井１６２６番地,,40,448,8381702,,,2021-09-10,合併による解散等,7011001091772,令和３年９月１日東京都新宿区西新宿三丁目２０番２号株式会社ジェイエムエス・ツー（7011001091772）に合併し解散,2015-10-05,1,,,,,ジェイエムフクオカトウホウ,0
669,3011303001648,登記記録の閉鎖等,0,2021-09-15,2021-09-08,アルムネット合同会社,,合同会社,東京都,杉並区,成田西１丁目２８番１１号,,13,115,1660016,,,2021-09-08,清算の結了等,,,2015-10-05,1,,,,,アルムネット,0
679,3011802010158,登記記録の閉鎖等,0,2021-09-15,2021-09-13,有限会社梅田塗装工業所,,有限会社,東京都,足立区,梅田２丁目１４番２号,,13,121,1230851,,,2021-09-13,清算の結了等,,,2015-10-05,1,,,,,ウメダトソウコウギョウショ,0
697,3021001009257,登記記録の閉鎖等,0,2021-09-15,2021-09-10,株式会社ゼンジ,,株式会社,神奈川県,鎌倉市,大町７丁目１５５２番地１,,14,204,2480007,,,2021-09-10,清算の結了等,,,2015-10-05,1,,,,,ゼンジ,0
701,3021005011572,登記記録の閉鎖等,0,2021-09-15,2021-09-10,一般社団法人青い風の会,,その他の設立登記法人,神奈川県,海老名市,東柏ケ谷５丁目１１番３６号,,14,215,2430401,,,2021-09-10,清算の結了等,,,2019-04-09,1,,,,,アオイカゼノカイ,0
727,3040001102409,登記記録の閉鎖等,0,2021-09-15,2021-09-08,ルディクル株式会社,,株式会社,千葉県,千葉市中央区,蘇我４丁目１０番１３号,,12,101,2600822,,,2021-09-08,清算の結了等,,,2017-11-06,1,,,,,ルディクル,0
739,3050005011217,登記記録の閉鎖等,0,2021-09-15,2021-09-10,特定非営利活動法人福寿,,その他の設立登記法人,茨城県,鉾田市,上幡木５５８番地１,,08,234,3112113,,,2021-09-10,清算の結了等,,,2015-10-05,1,,,,,フクジュ,0
740,3060001006269,登記記録の閉鎖等,0,2021-09-15,2021-09-01,株式会社公正社,,株式会社,栃木県,宇都宮市,本町１３番１０号,,09,201,3200033,,,2021-09-01,清算の結了等,,,2015-10-05,1,,,,,コウセイシャ,0
747,3070002000047,登記記録の閉鎖等,0,2021-09-15,2021-09-10,有限会社青木勝工務店,,有限会社,群馬県,前橋市,総社町高井５２４番地３,,10,201,3710856,,,2021-09-10,清算の結了等,,,2015-10-05,1,,,,,アオキマサルコウムテン,0
757,3110002021567,登記記録の閉鎖等,0,2021-09-15,2021-09-09,有限会社新朝開発工業,,有限会社,新潟県,村上市,北大平４１４番地１,,15,212,9580212,,,2021-09-09,清算の結了等,,,2015-10-05,1,,,,,シンチョウカイハツコウギョウ,0
759,3110002030072,登記記録の閉鎖等,0,2021-09-15,2021-09-06,有限会社清水行李店,,有限会社,新潟県,長岡市,緑町１丁目３８番地２７１,,15,202,9402105,,,2021-09-06,清算の結了等,,,2015-10-05,1,,,,,シミズコウリテン,0
760,3120001006130,登記記録の閉鎖等,0,2021-09-15,2021-09-07,畠山デンタル株式会社,,株式会社,大阪府,大阪市阿倍野区,播磨町１丁目２２番１０号,,27,119,5450022,,,2021-09-07,清算の結了等,,,2015-10-05,1,,,,,ハタケヤマデンタル,0
788,3130005015300,登記記録の閉鎖等,0,2021-09-15,2021-09-07,特定非営利活動法人しーそー,,その他の設立登記法人,京都府,京田辺市,河原北口３番地,,26,211,6100361,,,2021-09-07,清算の結了等,,,2018-05-16,1,,,,,シーソー,0
795,3140005002462,登記記録の閉鎖等,0,2021-09-15,2021-09-01,須磨プロパンガス協業組合,,その他の設立登記法人,兵庫県,神戸市須磨区,妙法寺字荒打３１３－１,,28,107,6540121,,,2021-09-01,清算の結了等,,,2015-10-05,1,,,,,,0
799,3160001002506,登記記録の閉鎖等,0,2021-09-15,2021-09-10,株式会社ガイア,,株式会社,滋賀県,大津市,稲葉台６番１号,,25,201,5200065,,,2021-09-10,清算の結了等,,,2015-10-05,1,,,,,ガイア,0
803,3180001072852,登記記録の閉鎖等,0,2021-09-15,2021-09-10,株式会社ｉｍｐｒｅｓｓｉｏｎ,,株式会社,愛知県,名古屋市東区,泉１丁目２１番６号,,23,102,4610001,,,2021-09-10,清算の結了等,,,2015-10-05,1,,,,,インプレッション,0
809,3180002073585,登記記録の閉鎖等,0,2021-09-15,2021-09-07,有限会社キット,,有限会社,愛知県,尾張旭市,根の鼻町２丁目１６番地２６,,23,226,4880002,,,2021-09-07,清算の結了等,,,2015-10-05,1,,,,,キット,0
823,3190003001908,登記記録の閉鎖等,0,2021-09-15,2021-09-13,合同会社輝澄,,合同会社,三重県,伊賀市,陽光台２０１５番地の８,,24,216,5180840,,,2021-09-13,清算の結了等,,,2015-10-05,1,,,,,キスミ,0
830,3220002006771,登記記録の閉鎖等,0,2021-09-15,2021-09-13,有限会社小林工業,,有限会社,石川県,金沢市,西金沢新町１９２番地,,17,201,9218055,,,2021-09-13,清算の結了等,,,2015-10-05,1,,,,,コバヤシコウギョウ,0
855,3280005002580,登記記録の閉鎖等,0,2021-09-15,2021-09-10,特定非営利活動法人菌体肥料・未利用有機資源利用促進協会,,その他の設立登記法人,島根県,松江市,八束町江島１１１３番地,,32,201,6901401,,,2021-09-10,清算の結了等,,,2015-10-05,1,,,,,キンタイヒリョウミリヨウユウキシゲンリヨウソクシンキョウカイ,0
874,3320002010409,登記記録の閉鎖等,0,2021-09-15,2021-09-13,有限会社マルヨシ電創,,有限会社,大分県,大分市,富士見が丘東３丁目５番６号,,44,201,8701176,,,2021-09-13,清算の結了等,,,2015-10-05,1,,,,,マルヨシデンソウ,0
877,3330001026388,登記記録の閉鎖等,0,2021-09-15,2021-09-13,株式会社朝日水産,,株式会社,熊本県,熊本市北区,植木町轟２２５２番地５,,43,105,8610155,,,2021-09-13,清算の結了等,,,2019-05-15,1,,,,,アサヒスイサン,0
882,3340002028259,登記記録の閉鎖等,0,2021-09-15,2021-09-08,有限会社永田不動産,,有限会社,鹿児島県,曽於市,末吉町諏訪方８４６３番地４,,46,217,8998604,,,2021-09-08,清算の結了等,,,2015-10-05,1,,,,,ナガタフドウサン,0
895,3380002027174,登記記録の閉鎖等,0,2021-09-15,2021-09-08,有限会社工,,有限会社,福島県,いわき市,常磐下湯長谷町１丁目９６番地,,07,204,9728317,,,2021-09-08,清算の結了等,,,2015-10-05,1,,,,,タクミ,0
898,3410002009128,登記記録の閉鎖等,0,2021-09-15,2021-09-13,有限会社伊藤クリーニング,,有限会社,秋田県,大館市,有浦５丁目１番４１号,,05,204,0170043,,,2021-09-13,清算の結了等,,,2015-10-05,1,,,,,イトウクリーニング,0
919,3500002006512,登記記録の閉鎖等,0,2021-09-15,2021-09-13,有限会社アイダ,,有限会社,愛媛県,松山市,森松町１４７番地１,,38,201,7911113,,,2021-09-13,清算の結了等,,,2015-10-05,1,,,,,アイダ,0
936,4010003006122,登記記録の閉鎖等,0,2021-09-15,2021-09-10,合資会社喜久川,,合資会社,東京都,中央区,日本橋富沢町１３番２号,,13,102,1030006,,,2021-09-10,清算の結了等,,,2015-10-05,1,,,,,キクカワ,0
996,4012802004933,登記記録の閉鎖等,0,2021-09-15,2021-09-06,有限会社福島商事,,有限会社,東京都,武蔵村山市,残堀５丁目７番地の２,,13,223,2080034,,,2021-09-06,清算の結了等,,,2015-10-05,1,,,,,フクシマショウジ,0
998,4020001000720,登記記録の閉鎖等,0,2021-09-15,2021-09-02,渋谷建設株式会社,,株式会社,神奈川県,横浜市泉区,和泉町４６１番地,,14,116,2450016,,,2021-09-02,清算の結了等,,,2021-04-09,1,,,,,シブヤケンセツ,0
1011,4021002015526,登記記録の閉鎖等,0,2021-09-15,2021-09-10,有限会社船倉商事,,有限会社,神奈川県,鎌倉市,植木３６２番地,,14,204,2470073,,,2021-09-10,清算の結了等,,,2015-10-05,1,,,,,フナクラショウジ,0
1041,4050005005944,登記記録の閉鎖等,0,2021-09-15,2021-09-09,特定非営利活動法人南太平洋眼科医療協力会,,その他の設立登記法人,茨城県,水戸市,吉沢町２２３番地の１,,08,201,3100845,,,2021-09-09,清算の結了等,,,2015-10-05,1,,,,,ミナミタイヘイヨウガンカイリョウキョウリョクカイ,0
1062,4120001008489,登記記録の閉鎖等,0,2021-09-15,2021-09-07,株式会社フォーライフ・メディカル,,株式会社,大阪府,大阪市都島区,都島中通３丁目２０番１８号,,27,102,5340022,,,2021-09-07,清算の結了等,,,2015-10-05,1,,,,,フォーライフメディカル,0
1106,4150005008061,登記記録の閉鎖等,0,2021-09-15,2021-09-07,税理士法人金田・谷合同税理士事務所,,その他の設立登記法人,奈良県,吉野郡大淀町,大字下渕６６番地の３,,29,442,6380821,,,2021-09-07,清算の結了等,,,2015-10-05,1,,,,,カネダタニゴウドウゼイリシジムショ,0
1109,4170001009573,登記記録の閉鎖等,0,2021-09-15,2021-09-13,株式会社サンエス商会,,株式会社,和歌山県,西牟婁郡白浜町,平１０６９番地の１,,30,401,6492331,,,2021-09-13,清算の結了等,,,2015-10-05,1,,,,,サンエスショウカイ,0
1119,4180002071737,登記記録の閉鎖等,0,2021-09-15,2021-09-08,有限会社小坂井青果,,有限会社,愛知県,瀬戸市,幡野町５１０番地,,23,204,4890874,,,2021-09-08,清算の結了等,,,2015-10-05,1,,,,,コザカイセイカ,0
1120,4180002082503,登記記録の閉鎖等,0,2021-09-15,2021-09-09,有限会社野田組,,有限会社,愛知県,岩倉市,野寄町９４４番地,,23,228,4820016,,,2021-09-09,清算の結了等,,,2015-10-05,1,,,,,ノダグミ,0
1121,4180003017739,登記記録の閉鎖等,0,2021-09-15,2021-07-21,Ｔ＆Ｍ名古屋合同会社,,合同会社,愛知県,名古屋市港区,入船２丁目１番２６号ライオンズ名古屋港レジデンス７０２号,,23,111,4550032,,,2021-07-21,清算の結了等,,,2017-02-27,1,,,,,ティーアンドエムナゴヤ,0
1129,4190002023150,登記記録の閉鎖等,0,2021-09-15,2021-09-06,有限会社宝殿社,,有限会社,三重県,四日市市,平尾町字宝殿６６５番地,,24,202,5121205,,,2021-09-06,清算の結了等,,,2020-12-04,1,,,,,ホウデンシャ,0
1134,4220001000089,登記記録の閉鎖等,0,2021-09-15,2021-09-10,株式会社オレンジ,,株式会社,東京都,中央区,銀座３丁目１３番１９号東銀座３１３ビル２階,,13,102,1040061,,,2021-09-10,清算の結了等,,,2015-10-05,1,,,,,オレンジ,0
1137,4220002000765,登記記録の閉鎖等,0,2021-09-15,2021-09-13,有限会社アイエム,,有限会社,石川県,金沢市,鞍月東２丁目４８番地,,17,201,9208201,,,2021-09-13,清算の結了等,,,2015-10-05,1,,,,,アイエム,0
1152,4260002028984,登記記録の閉鎖等,0,2021-09-15,2021-09-08,有限会社トダ,,有限会社,岡山県,津山市,元魚町５３番地,,33,203,7080061,,,2021-09-08,清算の結了等,,,2021-06-30,1,,,,,,0
1158,4290001063154,登記記録の閉鎖等,0,2021-09-15,2021-09-10,株式会社ＳＪ福岡・小竹,,株式会社,福岡県,鞍手郡小竹町,大字御徳字波打２７９番地１,,40,401,8201101,,,2021-09-10,合併による解散等,2011001094086,令和３年９月１日東京都新宿区西新宿三丁目２０番２号株式会社ジェイエムエス・スリー（2011001094086）に合併し解散,2015-10-05,1,,,,,エスジェイフクオカコタケ,0
1179,4330002025454,登記記録の閉鎖等,0,2021-09-15,2021-09-13,有限会社ＦＰの生命保険相談センター,,有限会社,熊本県,宇土市,松山町１６３９番地５,,43,211,8690416,,,2021-09-13,清算の結了等,,,2015-10-05,1,,,,,エフピーノセイメイホケンソウダンセンター,0
1187,4350002001412,登記記録の閉鎖等,0,2021-09-15,2021-09-10,有限会社釘﨑建設,00100636,有限会社,宮崎県,宮崎市,大字本郷北方２４９８番地１５,,45,201,8800925,,,2021-09-10,清算の結了等,,,2015-10-05,1,,,,,クギサキケンセツ,0
1200,4420002010983,登記記録の閉鎖等,0,2021-09-15,2021-09-09,有限会社大久保設備工業,,有限会社,青森県,五所川原市,大字飯詰字福泉２８７番地,,02,205,0370002,,,2021-09-09,清算の結了等,,,2015-10-05,1,,,,,オオクボセツビコウギョウ,0
1208,4430002039948,登記記録の閉鎖等,0,2021-09-15,2021-09-08,有限会社ノン,,有限会社,北海道,札幌市中央区,南四条西２１丁目２番８－１５０２号,,01,101,0640804,,,2021-09-08,清算の結了等,,,2015-10-05,1,,,,,ノン,0
1218,5010001136011,登記記録の閉鎖等,0,2021-09-15,2021-09-10,三井物産スティールトレード株式会社,,株式会社,東京都,千代田区,大手町１丁目２番１号,,13,101,1000004,,,2021-09-10,清算の結了等,,,2015-10-05,1,,,,,ミツイブッサンスティールトレード,0
1221,5010001185660,登記記録の閉鎖等,0,2021-09-15,2021-09-08,株式会社しおかぜ地所,,株式会社,愛知県,名古屋市中区,栄１丁目２３番２９号,,23,106,4600008,,,2021-09-08,合併による解散等,2011701018575,令和３年９月１日東京都中央区銀座六丁目１４番８号株式会社都市住研（2011701018575）に合併し解散,2017-08-15,1,,,,,シオカゼジショ,0
1227,5010002028166,登記記録の閉鎖等,0,2021-09-15,2021-09-07,有限会社大阪アニメーター学院,,有限会社,東京都,千代田区,神田三崎町３丁目１０番１号,,13,101,1010061,,,2021-09-07,清算の結了等,,,2015-10-05,1,,,,,オオサカアニメーターガクイン,0
1228,5010005026456,登記記録の閉鎖等,0,2021-09-15,2021-09-10,一般社団法人アセットファイナンス東神奈川,,その他の設立登記法人,東京都,千代田区,神田神保町３丁目５番地,,13,101,1010051,,,2021-09-10,清算の結了等,,,2017-02-21,1,,,,,アセットファイナンスヒガシカナガワ,0
1243,5010601010086,登記記録の閉鎖等,0,2021-09-15,2021-08-27,川口工業株式会社,,株式会社,東京都,墨田区,八広２丁目５１番１号,,13,107,1310041,,,2021-08-27,清算の結了等,,,2015-10-05,1,,,,,カワグチコウギョウ,0
1257,5011001096170,登記記録の閉鎖等,0,2021-09-15,2021-09-10,株式会社ＳＪ広島・呉,,株式会社,広島県,呉市,音戸町引地２丁目２番１号,,34,202,7371202,,,2021-09-10,合併による解散等,2011001094086,令和３年９月１日東京都新宿区西新宿三丁目２０番２号株式会社ジェイエムエス・スリー（2011001094086）に合併し解散,2015-10-05,1,,,,,,0
1266,5011101092532,登記記録の閉鎖等,0,2021-09-15,2021-09-03,株式会社ＳＫ商事,,株式会社,東京都,新宿区,百人町１丁目１５番２４号,,13,104,1690073,,,2021-09-03,清算の結了等,,,2020-09-15,1,,,,,エスケイショウジ,0
1284,5012802004635,登記記録の閉鎖等,0,2021-09-15,2021-09-06,有限会社第一精工,,有限会社,東京都,武蔵村山市,学園１丁目２５番地の２,,13,223,2080011,,,2021-09-06,清算の結了等,,,2015-10-05,1,,,,,ダイイチセイコウ,0
1294,5020005006424,登記記録の閉鎖等,0,2021-09-15,2021-07-15,医療法人財団敬愛会,,その他の設立登記法人,神奈川県,横浜市金沢区,谷津町３８４番地金沢文庫京急ビル４Ｆ,,14,108,2360016,,,2021-07-15,合併による解散等,4030005006218,令和３年７月１日埼玉県上尾市柏座一丁目１０番１０号医療法人社団愛友会（4030005006218）に合併し解散,2015-10-05,1,,,,,,0
1305,5021003002621,登記記録の閉鎖等,0,2021-09-15,2021-09-10,合資会社湘南テイクオン,,合資会社,神奈川県,平塚市,南原１丁目２０番２０号１０１号室,,14,203,2540065,,,2021-09-10,清算の結了等,,,2015-10-05,1,,,,,ショウナンテイクオン,0
1320,5040005009821,登記記録の閉鎖等,0,2021-09-15,2021-09-07,ＮＰＯ法人知的コミュニケーション研究機関連合,,その他の設立登記法人,千葉県,市原市,東国吉４９５番地,,12,219,2900163,,,2021-09-07,清算の結了等,,,2015-10-05,1,,,,,チテキコミュニケーションケンキュウキカンレンゴウ,0
1342,5100001030122,登記記録の閉鎖等,0,2021-09-15,2021-09-10,株式会社スタート,,株式会社,長野県,松本市,中央１丁目８番２０号,,20,202,3900811,,,2021-09-10,合併による解散等,2100001028656,令和３年９月１０日長野県松本市出川一丁目２番８号株式会社ジェーワン（2100001028656）に合併し解散,2017-04-06,1,,,,,スタート,0
1344,5100001033595,登記記録の閉鎖等,0,2021-09-15,2021-09-10,株式会社林良一コンサルタント,,株式会社,長野県,諏訪市,大字四賀３１６４番地１,,20,206,3920012,,,2021-09-10,清算の結了等,,,2020-10-07,1,,,,,ハヤシリョウイチコンサルタント,0
1379,5130001004610,登記記録の閉鎖等,0,2021-09-15,2021-09-08,株式会社きものアート室町,,株式会社,京都府,京都市北区,平野宮本町９０番地の１,,26,101,6038322,,,2021-09-08,清算の結了等,,,2015-10-05,1,,,,,キモノアートムロマチ,0
1387,5140001023972,登記記録の閉鎖等,0,2021-09-15,2021-08-23,株式会社シンキライジング,,株式会社,大阪府,大阪市北区,天神橋２丁目２番４号,,27,127,5300041,,,2021-08-23,清算の結了等,,,2015-10-05,1,,,,,シンキライジング,0
1418,5180301034369,登記記録の閉鎖等,0,2021-09-15,2021-09-13,株式会社チェスター,,株式会社,愛知県,岡崎市,上里１丁目２１番地７,,23,202,4442136,,,2021-09-13,清算の結了等,,,2020-12-02,1,,,,,チェスター,0
1434,5230001010532,登記記録の閉鎖等,0,2021-09-15,2021-09-02,株式会社トーカン,,株式会社,富山県,高岡市,蓮花寺２０６番地の１,,16,202,9330802,,,2021-09-02,清算の結了等,,,2021-07-09,1,,,,,トーカン,0
1446,5280002009668,登記記録の閉鎖等,0,2021-09-15,2021-09-14,有限会社森脇組,,有限会社,島根県,邑智郡邑南町,下亀谷６９６番地４,,32,449,6960223,,,2021-09-14,清算の結了等,,,2015-10-05,1,,,,,モリワキグミ,0
1451,5290001040573,登記記録の閉鎖等,0,2021-09-15,2021-08-31,株式会社加野而青堂,,株式会社,福岡県,太宰府市,宰府２丁目７番２５号,,40,221,8180117,,,2021-08-31,清算の結了等,,,2015-10-05,1,,,,,カノニショウドウ,0
1465,5290002008462,登記記録の閉鎖等,0,2021-09-15,2021-09-01,有限会社デン,,有限会社,福岡県,福岡市早良区,百道２丁目８番６号２０２,,40,137,8140006,,,2021-09-01,清算の結了等,,,2015-10-05,1,,,,,デン,0
1470,5290801027563,登記記録の閉鎖等,0,2021-09-15,2021-09-02,大光インテリアデザイン株式会社,,株式会社,福岡県,北九州市戸畑区,牧山新町１番１号,,40,105,8040054,,,2021-09-02,清算の結了等,,,2021-07-15,1,,,,,タイコウインテリアデザイン,0
1471,5290802025839,登記記録の閉鎖等,0,2021-09-15,2021-09-01,有限会社Ｓ．Ｔ．Ｒ,,有限会社,福岡県,田川市,大字伊加利１８０５番３５,,40,206,8250001,,,2021-09-01,清算の結了等,,,2015-10-05,1,,,,,エスティーアール,0
1480,5340005005922,登記記録の閉鎖等,0,2021-09-15,2021-09-10,特定非営利活動法人エコ・リンク・アソシエーション,,その他の設立登記法人,鹿児島県,南さつま市,加世田本町５３番６号,,46,220,8970006,,,2021-09-10,清算の結了等,,,2015-10-05,1,,,,,エコリンクアソシエーション,0
1512,5430002062676,登記記録の閉鎖等,0,2021-09-15,2021-09-06,有限会社大熊石油店,,有限会社,北海道,沙流郡日高町,字厚賀町１０３番地,,01,601,0592243,,,2021-09-06,清算の結了等,,,2015-10-05,1,,,,,オオクマセキユテン,0
1519,5470002006316,登記記録の閉鎖等,0,2021-09-15,2021-09-13,有限会社松尾広告,,有限会社,香川県,高松市,浜ノ町５４番８号,,37,201,7600011,,,2021-09-13,清算の結了等,,,2015-10-05,1,,,,,マツオコウコク,0
1526,6010001175347,登記記録の閉鎖等,0,2021-09-15,2021-08-31,株式会社ＳＳＹ,,株式会社,東京都,渋谷区,広尾１丁目１３番１号,,13,113,1500012,,,2021-08-31,合併による解散等,8010401114423,令和３年８月３１日東京都渋谷区広尾一丁目１３番１号株式会社Ｌｅｏ　Ｓｏｐｈｉａ（8010401114423）に合併し解散,2016-04-28,1,,,,,エスエスワイ,0
1533,6010105001878,登記記録の閉鎖等,0,2021-09-15,2021-09-08,一般社団法人ＣＨＩＥＬＡＢＯ,,その他の設立登記法人,福島県,いわき市,平字月見町５３月見マンション１０４,,07,204,9708026,,,2021-09-08,清算の結了等,,,2016-08-08,1,,,,,チエラボ,0
1558,6011001091047,登記記録の閉鎖等,0,2021-09-15,2021-09-10,株式会社ＳＪ福岡・添田,,株式会社,福岡県,田川郡添田町,大字庄２５５５番地の２９,,40,602,8240601,,,2021-09-10,合併による解散等,2011001094086,令和３年９月１日東京都新宿区西新宿三丁目２０番２号株式会社ジェイエムエス・スリー（2011001094086）に合併し解散,2015-10-05,1,,,,,エスジェイフクオカソエダ,0
1563,6011101053698,登記記録の閉鎖等,0,2021-09-15,2021-09-13,株式会社テクノ,,株式会社,東京都,足立区,西新井３丁目１０番７号,,13,121,1230841,,,2021-09-13,清算の結了等,,,2015-10-05,1,,,,,テクノ,0
1564,6011101062939,登記記録の閉鎖等,0,2021-09-15,2021-09-01,スカイジャパン株式会社,,株式会社,兵庫県,姫路市,東夢前台３丁目６２番地,,28,201,6700064,,,2021-09-01,合併による解散等,4140001045118,令和３年９月１日兵庫県姫路市東夢前台三丁目６２番地スカイジャパン株式会社（4140001045118）に合併し解散,2015-10-05,1,,,,,スカイジャパン,0
1565,6011102025928,登記記録の閉鎖等,0,2021-09-15,2021-09-06,スリー・ジー・コミュニケーションズ有限会社,,有限会社,東京都,新宿区,上落合１丁目１２番地１０,,13,104,1610034,,,2021-09-06,清算の結了等,,,2015-10-05,1,,,,,スリージーコミュニケーションズ,0
1566,6011301020408,登記記録の閉鎖等,0,2021-09-15,2021-09-10,Ｐ．Ｓ．Ｊ株式会社,,株式会社,東京都,世田谷区,北沢４丁目４番２３－２０３号,,13,112,1550031,,,2021-09-10,合併による解散等,2010001062813,令和３年９月３日東京都中央区日本橋茅場町三丁目９番１０号荏原商事株式会社（2010001062813）に合併し解散,2015-10-05,1,,,,,ピーエスジェイ,0
1575,6011802026465,登記記録の閉鎖等,0,2021-09-15,2021-09-13,有限会社大崎工業所,,有限会社,東京都,葛飾区,堀切５丁目１２番１１号,,13,122,1240006,,,2021-09-13,清算の結了等,,,2015-10-05,1,,,,,オオサキコウギョウショ,0
1621,6040002082036,登記記録の閉鎖等,0,2021-09-15,2021-09-09,有限会社ネイションワイド,,有限会社,東京都,中央区,銀座４丁目９番８号,,13,102,1040061,,,2021-09-09,清算の結了等,,,2015-10-05,1,,,,,ネイションワイド,0
1676,6130001059661,登記記録の閉鎖等,0,2021-09-15,2021-09-10,京都テクニカソリューションズ株式会社,,株式会社,京都府,京都市下京区,烏丸通五条下る大坂町３９６番地第３キョートビル９階,,26,106,6008177,,,2021-09-10,合併による解散等,7370001009526,令和３年９月１日仙台市青葉区国分町一丁目７番１８号東洋ワーク株式会社（7370001009526）に合併し解散,2017-04-20,1,,,,,キョウトテクニカソリューションズ,0
1679,6130002032989,登記記録の閉鎖等,0,2021-09-15,2021-09-10,有限会社大江商会,,有限会社,京都府,福知山市,夜久野町額田１２３５番地,,26,201,6291304,,,2021-09-10,清算の結了等,,,2015-10-05,1,,,,,オオエショウカイ,0
1685,6140001074684,登記記録の閉鎖等,0,2021-09-15,2021-09-06,株式会社アンフスタイル・テクノソリューション,,株式会社,大阪府,大阪市中央区,伏見町４丁目２番１４号,,27,128,5410044,,,2021-09-06,合併による解散等,1120001113985,令和３年９月１日大阪市中央区伏見町四丁目２番１４号株式会社アンフ・スタイル（1120001113985）に合併し解散,2015-10-05,1,,,,,アンフスタイルテクノソリューション,0
1692,6180001039519,登記記録の閉鎖等,0,2021-09-15,2021-09-09,株式会社日軽商会,,株式会社,愛知県,名古屋市中区,千代田２丁目２４番２３号,,23,106,4600012,,,2021-09-09,清算の結了等,,,2015-10-05,1,,,,,ニッケイショウカイ,0
1743,6290801007556,登記記録の閉鎖等,0,2021-09-15,2021-09-02,株式会社九州イマセン,,株式会社,福岡県,北九州市小倉南区,大字朽網３９１４番６９,,40,107,8000231,,,2021-09-02,清算の結了等,,,2015-10-05,1,,,,,キュウシュウイマセン,0
1747,6320001015876,登記記録の閉鎖等,0,2021-09-15,2021-09-10,株式会社シーエムジェイ,,株式会社,東京都,千代田区,丸の内１丁目１１番１号１３階,,13,101,1000005,,,2021-09-10,合併による解散等,1120001184556,令和３年９月１日大阪市西区靭本町一丁目５番１８号テックビューロ株式会社（1120001184556）に合併し解散,2017-08-24,1,,,,,シーエムジェイ,0
1776,6430001038098,登記記録の閉鎖等,0,2021-09-15,2021-09-08,株式会社ノースピアホーム,,株式会社,北海道,札幌市中央区,北八条西１９丁目１番地４,,01,101,0600008,,,2021-09-08,清算の結了等,,,2015-10-05,1,,,,,ノースピアホーム,0
1787,6430005013460,登記記録の閉鎖等,0,2021-09-15,2021-09-08,特定非営利活動法人光を照らすプロジェクト,,その他の設立登記法人,北海道,札幌市中央区,大通西４丁目６番５号,,01,101,0600042,,,2021-09-08,清算の結了等,,,2018-07-30,1,,,,,ヒカリヲテラスプロジェクト,0
1790,6480001005060,登記記録の閉鎖等,0,2021-09-15,2021-09-08,富崎建材株式会社,,株式会社,徳島県,鳴門市,大麻町松村字土井５０番地１,,36,202,7790304,,,2021-09-08,清算の結了等,,,2015-10-05,1,,,,,,0
1792,6480002010010,登記記録の閉鎖等,0,2021-09-15,2021-09-07,有限会社阿佐工務店,,有限会社,徳島県,吉野川市,山川町諏訪２７９番地の３,,36,205,7793403,,,2021-09-07,清算の結了等,,,2015-10-05,1,,,,,アサコウムテン,0
1826,7010401155237,登記記録の閉鎖等,0,2021-09-15,2021-09-10,リードプラス株式会社,,株式会社,東京都,中央区,新富１丁目８番２号,,13,102,1040041,,,2021-09-10,合併による解散等,6010401141196,令和３年９月１日東京都世田谷区若林一丁目１８番１０号リードプラス株式会社（6010401141196）に合併し解散,2020-09-16,1,,,,,リードプラス,0
1835,7010701039370,登記記録の閉鎖等,0,2021-09-15,2021-09-13,株式会社誼屋,,株式会社,東京都,品川区,荏原４丁目９番４－４０４号,,13,109,1420063,,,2021-09-13,清算の結了等,,,2020-06-15,1,,,,,ヨシミヤ,0
1854,7011101045273,登記記録の閉鎖等,0,2021-09-15,2021-09-09,株式会社アレーナフォトスタジオ,,株式会社,東京都,新宿区,新宿５丁目１７番１１号,,13,104,1600022,,,2021-09-09,合併による解散等,6011101027883,令和３年９月１日東京都新宿区新宿五丁目１７番１１号株式会社光潮社（6011101027883）に合併し解散,2015-10-05,1,,,,,,0
1889,7020002012134,登記記録の閉鎖等,0,2021-09-15,2021-09-09,有限会社相友サッシ興業,,有限会社,神奈川県,横浜市戸塚区,原宿４丁目２７番Ｂ－４－２０３号,,14,110,2450063,,,2021-09-09,清算の結了等,,,2015-10-05,1,,,,,ソウユウサッシコウギョウ,0
1894,7021001022586,登記記録の閉鎖等,0,2021-09-15,2021-09-10,秀和建設株式会社,,株式会社,神奈川県,秦野市,南矢名２３０番地の１豊ビル２Ｆ,,14,211,2570003,,,2021-09-10,清算の結了等,,,2015-10-05,1,,,,,シュウワケンセツ,0
1917,7040001038335,登記記録の閉鎖等,0,2021-09-15,2021-09-08,株式会社ノア,,株式会社,千葉県,流山市,加１丁目１５９５番地の１,,12,220,2700176,,,2021-09-08,清算の結了等,,,2015-10-05,1,,,,,ノア,0
1945,7080101000034,登記記録の閉鎖等,0,2021-09-15,2021-09-08,株式会社アイネ,,株式会社,静岡県,沼津市,足高字尾上２８８番地１,,22,203,4100001,,,2021-09-08,清算の結了等,,,2015-10-05,1,,,,,アイネ,0
1953,7110002025226,登記記録の閉鎖等,0,2021-09-15,2021-09-08,有限会社けいなん石油,,有限会社,新潟県,妙高市,田町２丁目２番２号,,15,217,9440031,,,2021-09-08,清算の結了等,,,2015-10-05,1,,,,,ケイナンセキユ,0
1981,7122001025338,登記記録の閉鎖等,0,2021-09-15,2021-09-10,親広産業株式会社,,株式会社,大阪府,東大阪市,今米２丁目２番２７号,,27,227,5780903,,,2021-09-10,清算の結了等,,,2015-10-05,1,,,,,シンコウサンギョウ,0
1987,7130005006056,登記記録の閉鎖等,0,2021-09-15,2021-09-08,特定非営利活動法人ふれあいほうむどうぞ,,その他の設立登記法人,京都府,京都市中京区,西ノ京小倉町２２－１０,,26,104,6048414,,,2021-09-08,清算の結了等,,,2015-10-05,1,,,,,フレアイホウムドウゾ,0
1998,7140003004754,登記記録の閉鎖等,0,2021-09-15,2021-09-10,あらたま合資会社,,合資会社,兵庫県,神戸市須磨区,横尾２丁目１４番地の３,,28,107,6540131,,,2021-09-10,清算の結了等,,,2015-10-05,1,,,,,アラタマ,0
2017,7180301004337,登記記録の閉鎖等,0,2021-09-15,2021-09-14,ライフ設備株式会社,,株式会社,愛知県,額田郡幸田町,大字芦谷字毛倉３４番地４,00074437,23,501,4440116,,,2021-09-14,清算の結了等,,,2015-10-05,1,,,,,ライフセツビ,0
2019,7190002006111,登記記録の閉鎖等,0,2021-09-15,2021-09-13,有限会社大桑建塗工業,,有限会社,三重県,鈴鹿市,長太栄町４丁目２２番６号,,24,207,5130043,,,2021-09-13,清算の結了等,,,2015-10-05,1,,,,,オオクワケントコウギョウ,0
2044,7290001051429,登記記録の閉鎖等,0,2021-09-15,2021-08-31,株式会社フロンティア,,株式会社,福岡県,久留米市,山川沓形町１番２４号,,40,203,8390815,,,2021-08-31,清算の結了等,,,2015-10-05,1,,,,,フロンティア,0
2063,7310002015660,登記記録の閉鎖等,0,2021-09-15,2021-09-10,有限会社ヤマウ建設,,有限会社,長崎県,諫早市,福田町１０４１番地,,42,204,8540001,,,2021-09-10,清算の結了等,,,2015-10-05,1,,,,,ヤマウケンセツ,0
2070,7330005002159,登記記録の閉鎖等,0,2021-09-15,2021-09-13,九州電気管理技術者熊本協同組合,,その他の設立登記法人,熊本県,熊本市中央区,呉服町１丁目２６番地,,43,101,8600035,,,2021-09-13,清算の結了等,,,2015-10-05,1,,,,,キュウシュウデンキカンリギジュツシャクマモト,0
2085,7380002018392,登記記録の閉鎖等,0,2021-09-15,2021-09-07,有限会社フラップ加工,,有限会社,福島県,西白河郡泉崎村,大字泉崎字十八夜１番地,,07,464,9690101,,,2021-09-07,清算の結了等,,,2015-10-05,1,,,,,,0
2097,7430002057856,登記記録の閉鎖等,0,2021-09-15,2021-09-07,有限会社橋本工務,,有限会社,北海道,苫小牧市,日吉町３丁目７番４号,,01,213,0530816,,,2021-09-07,清算の結了等,,,2015-10-05,1,,,,,ハシモトコウム,0
2101,7460403000222,登記記録の閉鎖等,0,2021-09-15,2021-09-13,合同会社プロシード,,合同会社,北海道,根室市,琴平町１丁目６７番地,,01,223,0870055,,,2021-09-13,清算の結了等,,,2015-10-05,1,,,,,プロシード,0
2106,7480002007831,登記記録の閉鎖等,0,2021-09-15,2021-09-09,椎平建設有限会社,,有限会社,徳島県,勝浦郡勝浦町,大字棚野字西久保３７番地６,,36,301,7714306,,,2021-09-09,清算の結了等,,,2015-10-05,1,,,,,シイヒラケンセツ,0
2111,8010001143491,登記記録の閉鎖等,0,2021-09-15,2021-09-09,株式会社エムユー,,株式会社,東京都,台東区,池之端１丁目４番３３－１６０６号,,13,106,1100008,,,2021-09-09,清算の結了等,,,2015-10-05,1,,,,,エムユー,0
2113,8010001189857,登記記録の閉鎖等,0,2021-09-15,2021-09-10,株式会社Ｍｅｄｉｓｉｓｔ,,株式会社,東京都,中央区,銀座４丁目９番８号,,13,102,1040061,,,2021-09-10,清算の結了等,,,2018-02-23,1,,,,,メディシスト,0
2125,8010401129743,登記記録の閉鎖等,0,2021-09-15,2021-09-07,株式会社ＡＫ　Ｈｏｌｄｉｎｇｓ,,株式会社,東京都,港区,虎ノ門４丁目１番２８号虎ノ門タワーズオフィス,,13,103,1050001,,,2021-09-07,合併による解散等,6010401071344,令和３年８月３１日東京都港区虎ノ門四丁目１番２８号虎ノ門タワーズオフィス株式会社ソニー・ピクチャーズエンタテインメント（6010401071344）に合併し解散,2017-02-14,1,,,,,エーケーホールディングス,0
2132,8010401152084,登記記録の閉鎖等,0,2021-09-15,2021-09-07,株式会社リミテッド,,株式会社,東京都,港区,南青山３丁目１５番９号,,13,103,1070062,,,2021-09-07,清算の結了等,,,2020-04-07,1,,,,,リミテッド,0
2163,8011001091409,登記記録の閉鎖等,0,2021-09-15,2021-09-10,株式会社本気人,,株式会社,東京都,目黒区,上目黒３丁目７番８号,,13,110,1530051,,,2021-09-10,合併による解散等,9040001014549,令和３年９月１日千葉県習志野市実籾四丁目８番２４号株式会社世拡（9040001014549）に合併し解散,2015-10-05,1,,,,,マジビト,0
2165,8011001114706,登記記録の閉鎖等,0,2021-09-15,2021-09-01,株式会社アースビート,,株式会社,東京都,渋谷区,桜丘町１２番１０号,,13,113,1500031,,,2021-09-01,合併による解散等,9011001039720,令和３年８月３１日東京都渋谷区桜丘町１２番１０号株式会社トップコート（9011001039720）に合併し解散,2017-02-02,1,,,,,アースビート,0
2171,8011002035554,登記記録の閉鎖等,0,2021-09-15,2021-08-31,有限会社ＭＡＭＯ,,有限会社,東京都,渋谷区,神山町２０番４６号グランドメゾン松濤２０３,,13,113,1500047,,,2021-08-31,清算の結了等,,,2015-10-05,1,,,,,マモ,0
2172,8011002036189,登記記録の閉鎖等,0,2021-09-15,2021-08-31,有限会社センキュー,,有限会社,東京都,渋谷区,道玄坂２丁目１６番３号,,13,113,1500043,,,2021-08-31,清算の結了等,,,2015-10-05,1,,,,,センキュウ,0
2189,8013102001683,登記記録の閉鎖等,0,2021-09-15,2021-09-10,有限会社石井電設,,有限会社,東京都,あきる野市,雨間７２１番地,,13,228,1970825,,,2021-09-10,清算の結了等,,,2015-10-05,1,,,,,イシイデンセツ,0
2191,8013401002168,登記記録の閉鎖等,0,2021-09-15,2021-09-08,和輝工業株式会社,,株式会社,東京都,稲城市,大丸２９４番地１１,,13,225,2060801,,,2021-09-08,清算の結了等,,,2015-10-05,1,,,,,,0
2192,8013401005170,登記記録の閉鎖等,0,2021-09-15,2021-09-08,株式会社ビオハウス,,株式会社,東京都,多摩市,連光寺３丁目５０番地の１７,,13,224,2060021,,,2021-09-08,清算の結了等,,,2015-10-05,1,,,,,,0
2194,8020002003248,登記記録の閉鎖等,0,2021-09-15,2021-09-10,有限会社野中電子工業,,有限会社,神奈川県,横浜市泉区,下和泉４丁目１３番１９号,,14,116,2450021,,,2021-09-10,清算の結了等,,,2015-10-05,1,,,,,ノナカデンシコウギョウ,0
2201,8021002047061,登記記録の閉鎖等,0,2021-09-15,2021-09-10,山下畜産有限会社,,有限会社,神奈川県,綾瀬市,上土棚北１丁目４番１２号,,14,218,2521111,,,2021-09-10,清算の結了等,,,2015-10-05,1,,,,,ヤマシタチクサン,0
2219,8040002085318,登記記録の閉鎖等,0,2021-09-15,2021-09-08,有限会社尾鷲商店,,有限会社,千葉県,銚子市,幸町１丁目２６番地,,12,202,2880073,,,2021-09-08,清算の結了等,,,2015-10-05,1,,,,,,0
2220,8040005008416,登記記録の閉鎖等,0,2021-09-15,2021-09-08,久留里商店街振興組合,,その他の設立登記法人,千葉県,君津市,久留里市場５３７番地の６,,12,225,2920421,,,2021-09-08,清算の結了等,,,2015-10-05,1,,,,,クルリショウテンガイ,0
2228,8060002009646,登記記録の閉鎖等,0,2021-09-15,2021-09-09,有限会社和光工務店,,有限会社,栃木県,宇都宮市,氷室町１１９７番地,,09,201,3213232,,,2021-09-09,清算の結了等,,,2015-10-05,1,,,,,ワコウコウムテン,0
2229,8060002037639,登記記録の閉鎖等,0,2021-09-15,2021-09-06,有限会社山崎パンチング,,有限会社,栃木県,足利市,小俣町４８５番地の２,,09,202,3260141,,,2021-09-06,清算の結了等,,,2015-10-05,1,,,,,ヤマザキパンチング,0
2232,8070001008094,登記記録の閉鎖等,0,2021-09-15,2021-09-13,株式会社ハマノ群馬,,株式会社,群馬県,高崎市,緑町１丁目２７番地９,,10,202,3700073,,,2021-09-13,清算の結了等,,,2015-10-05,1,,,,,ハマノグンマ,0
2238,8080001021914,登記記録の閉鎖等,0,2021-09-15,2021-09-13,株式会社富士ロジテック・ビジネスソリューションズ,,株式会社,静岡県,静岡市清水区,清開２丁目２番１２号,,22,103,4240924,,,2021-09-13,合併による解散等,2080001004503,令和３年９月１日静岡市清水区清開二丁目２番１２号株式会社富士ロジテックホールディングス（2080001004503）に合併し解散,2017-11-08,1,,,,,フジロジテックビジネスソリューションズ,0
2242,8080102009016,登記記録の閉鎖等,0,2021-09-15,2021-09-07,有限会社カイコーポレイション,,有限会社,静岡県,伊豆の国市,中１０００番地の１０５,,22,225,4102113,,,2021-09-07,清算の結了等,,,2015-10-05,1,,,,,カイコーポレイション,0
2252,8120001100325,登記記録の閉鎖等,0,2021-09-15,2021-09-07,株式会社クロスレート,,株式会社,大阪府,大阪市中央区,南本町１丁目３番９号,,27,128,5410054,,,2021-09-07,清算の結了等,,,2015-10-05,1,,,,,,0
2257,8120001190052,登記記録の閉鎖等,0,2021-09-15,2021-09-09,バリュエンスアート＆アンティークス株式会社,,株式会社,大阪府,大阪市浪速区,難波中３丁目１６番５号,,27,111,5560011,,,2021-09-09,合併による解散等,1010401148089,令和３年９月１日東京都港区港南一丁目２番７０号品川シーズンテラス２８階バリュエンスジャパン株式会社（1010401148089）に合併し解散,2015-10-05,1,,,,,,0
2269,8120005014661,登記記録の閉鎖等,0,2021-09-15,2021-09-10,大阪鳶土工事業協同組合,,その他の設立登記法人,大阪府,門真市,島頭４丁目２６番１６号Ｂ－７,,27,223,5710016,,,2021-09-10,清算の結了等,,,2015-10-05,1,,,,,オオサカトビドコウ,0
2272,8120102007477,登記記録の閉鎖等,0,2021-09-15,2021-09-10,有限会社アリスチール,,有限会社,大阪府,堺市西区,上野芝町５丁６番１１号,,27,144,5938301,,,2021-09-10,清算の結了等,,,2015-10-05,1,,,,,アリスチール,0
2276,8130001008187,登記記録の閉鎖等,0,2021-09-15,2021-09-10,株式会社小寺勘商店,,株式会社,京都府,京都市西京区,桂池尻町３７番地の１９,,26,111,6158081,,,2021-09-10,清算の結了等,,,2015-10-05,1,,,,,コテラカンショウテン,0
2280,8130002005547,登記記録の閉鎖等,0,2021-09-15,2021-09-09,有限会社スミダコンタクトレンズ,,有限会社,京都府,京都市左京区,高野西開町４１番地デ・リード北大路６０４号,,26,103,6068103,,,2021-09-09,清算の結了等,,,2015-10-05,1,,,,,スミダコンタクトレンズ,0
2285,8140001086802,登記記録の閉鎖等,0,2021-09-15,2021-09-10,株式会社ビジネスイノベーションコンサルティング,,株式会社,兵庫県,神戸市東灘区,向洋町中６丁目９番地神戸ファッションマート,,28,101,6580032,,,2021-09-10,清算の結了等,,,2015-10-05,1,,,,,ビジネスイノベーションコンサルティング,0
2298,8180001067022,登記記録の閉鎖等,0,2021-09-15,2021-09-10,株式会社村上,,株式会社,愛知県,愛知郡東郷町,大字春木字音貝４３番地の１５２,,23,302,4700162,,,2021-09-10,清算の結了等,,,2015-10-05,1,,,,,ムラカミ,0
2309,8190001003422,登記記録の閉鎖等,0,2021-09-15,2021-09-13,白金製函株式会社,,株式会社,三重県,亀山市,関町会下１３６３番地の４,,24,210,5191106,,,2021-09-13,清算の結了等,,,2015-10-05,1,,,,,,0
2310,8200001018476,登記記録の閉鎖等,0,2021-09-15,2021-09-10,株式会社アスカ,,株式会社,岐阜県,美濃加茂市,森山町３丁目１番２５号,,21,211,5050021,,,2021-09-10,清算の結了等,,,2015-10-05,1,,,,,アスカ,0
2326,8230002008515,登記記録の閉鎖等,0,2021-09-15,2021-09-10,有限会社北陸サービス,,有限会社,富山県,下新川郡朝日町,平柳２７番地の６,,16,343,9390744,,,2021-09-10,清算の結了等,,,2015-10-05,1,,,,,ホクリクサービス,0
2345,8290002044620,登記記録の閉鎖等,0,2021-09-15,2021-08-31,有限会社井上食品,,有限会社,福岡県,嘉麻市,岩崎９８８番地の５,,40,227,8200205,,,2021-08-31,清算の結了等,,,2015-10-05,1,,,,,イノウエショクヒン,0
2346,8290002046872,登記記録の閉鎖等,0,2021-09-15,2021-08-31,有限会社草刈工業,,有限会社,福岡県,嘉穂郡桂川町,大字吉隈１３番地１４１,,40,421,8200609,,,2021-08-31,清算の結了等,,,2015-10-05,1,,,,,クサカリコウギョウ,0
2347,8290002048646,登記記録の閉鎖等,0,2021-09-15,2021-08-31,有限会社カキツカ広告社,,有限会社,福岡県,久留米市,荘島町１５番地の２４,,40,203,8300042,,,2021-08-31,清算の結了等,,,2015-10-05,1,,,,,カキツカコウコクシャ,0
2354,8310001006940,登記記録の閉鎖等,0,2021-09-15,2021-09-08,株式会社山田組,,株式会社,長崎県,南松浦郡新上五島町,青方郷１８１６番地１,,42,411,8574404,,,2021-09-08,清算の結了等,,,2018-04-23,1,,,,,ヤマダグミ,0
2376,8380002003971,登記記録の閉鎖等,0,2021-09-15,2021-09-08,有限会社旅館大松,,有限会社,福島県,福島市,花園町１番３１号,,07,201,9608112,,,2021-09-08,清算の結了等,,,2015-10-05,1,,,,,リョカンダイマツ,0
2378,8380003004754,登記記録の閉鎖等,0,2021-09-15,2021-09-08,合同会社ＥＦＴ,,合同会社,福島県,福島市,飯坂町湯野字愛宕前１番地の９,,07,201,9600211,,,2021-09-08,清算の結了等,,,2020-09-25,1,,,,,イーエフティー,0
2386,8430001017843,登記記録の閉鎖等,0,2021-09-15,2021-09-08,株式会社リラ,,株式会社,北海道,札幌市白石区,東札幌三条２丁目１番５７－８１１号,,01,104,0030003,,,2021-09-08,清算の結了等,,,2015-10-05,1,,,,,リラ,0
2401,8500001015204,登記記録の閉鎖等,0,2021-09-15,2021-09-13,株式会社セレモプリント,,株式会社,愛媛県,四国中央市,土居町津根３５４４番地２,,38,213,7990704,,,2021-09-13,清算の結了等,,,2015-10-05,1,,,,,セレモプリント,0
2404,9010001131842,登記記録の閉鎖等,0,2021-09-15,2021-09-09,株式会社中村事務所,,株式会社,東京都,八丈島八丈町,大賀郷４３２６番７,,13,401,1001401,,,2021-09-09,清算の結了等,,,2015-10-05,1,,,,,ナカムラジムショ,0
2413,9010003024012,登記記録の閉鎖等,0,2021-09-15,2021-09-10,スパークス・ジャパンソーラーＭ３合同会社,,合同会社,東京都,千代田区,丸の内３丁目１番１号東京共同会計事務所内,,13,101,1000005,,,2021-09-10,清算の結了等,,,2016-08-24,1,,,,,スパークスジャパンソーラーエムスリー,0
2414,9010003024169,登記記録の閉鎖等,0,2021-09-15,2021-09-10,合同会社ＩＫインベストメント・フォー,,合同会社,東京都,千代田区,丸の内３丁目１番１号東京共同会計事務所内,,13,101,1000005,,,2021-09-10,清算の結了等,,,2016-09-26,1,,,,,アイケイインベストメントフォー,0
2417,9010005025628,登記記録の閉鎖等,0,2021-09-15,2021-09-10,一般社団法人三条,,その他の設立登記法人,東京都,千代田区,霞が関３丁目２番５号,,13,101,1000013,,,2021-09-10,清算の結了等,,,2016-08-03,1,,,,,サンジョウ,0
2425,9010401112112,登記記録の閉鎖等,0,2021-09-15,2021-09-13,Ｈ－Ｇｌｏｂａｌ　Ｐａｒｔｎｅｒｓ　Ｊａｐａｎ株式会社,,株式会社,東京都,港区,芝４丁目１０番１号,,13,103,1080014,,,2021-09-13,清算の結了等,,,2015-10-05,1,,,,,エイチグローバルパートナーズジャパン,0
2447,9010902025762,登記記録の閉鎖等,0,2021-09-15,2021-09-03,有限会社トレジャーホールディング,,有限会社,東京都,世田谷区,深沢３丁目２８番２５号,,13,112,1580081,,,2021-09-03,清算の結了等,,,2015-10-05,1,,,,,,0
2452,9011001091044,登記記録の閉鎖等,0,2021-09-15,2021-09-10,株式会社ＭＳ広島・世羅,,株式会社,広島県,世羅郡世羅町,大字別迫２８５番地４９,,34,462,7293305,,,2021-09-10,合併による解散等,9011001090260,令和３年９月１日東京都新宿区西新宿三丁目２０番２号株式会社ジェイエムエス・ワン（9011001090260）に合併し解散,2015-10-05,1,,,,,,0
2453,9011001098469,登記記録の閉鎖等,0,2021-09-15,2021-09-10,株式会社ＭＰ福岡・宗像,,株式会社,福岡県,宗像市,河東４７０番地９,,40,220,8113402,,,2021-09-10,合併による解散等,1011001098336,令和３年９月１日東京都新宿区西新宿三丁目２０番２号株式会社ジェイエムエス・シックス（1011001098336）に合併し解散,2015-10-05,1,,,,,エムピーフクオカムナカタ,0
2459,9011003007196,登記記録の閉鎖等,0,2021-09-15,2021-08-31,合同会社ｗ００ｒｋ,,合同会社,東京都,目黒区,目黒２丁目１１番３号,,13,110,1530063,,,2021-08-31,清算の結了等,,,2016-11-10,1,,,,,ワーク,0
2461,9011103007055,登記記録の閉鎖等,0,2021-09-15,2021-09-09,合同会社ＹＰＭ,,合同会社,東京都,新宿区,新宿２丁目１３番１０号エルハイム新宿８０５号室,,13,104,1600022,,,2021-09-09,合併による解散等,5030003007365,令和３年８月３１日埼玉県さいたま市浦和区瀬ヶ崎三丁目１４番３号クレドール瀬ヶ崎２０３号室合同会社ＮＯＰ（5030003007365）に合併し解散,2017-05-17,1,,,,,,0
2463,9011201021412,登記記録の閉鎖等,0,2021-09-15,2021-09-01,株式会社Ｒマネジメント,,株式会社,東京都,渋谷区,代官山町８－７Ｄａｉｗａ代官山ビル,,13,113,1500034,,,2021-09-01,清算の結了等,,,2019-06-07,1,,,,,アールマネジメント,0
2465,9011502011038,登記記録の閉鎖等,0,2021-09-15,2021-09-10,有限会社堀工芸,,有限会社,東京都,荒川区,西尾久２丁目１８番１０号,,13,118,1160011,,,2021-09-10,清算の結了等,,,2015-10-05,1,,,,,ホリコウゲイ,0
2481,9020002009368,登記記録の閉鎖等,0,2021-09-15,2021-09-08,有限会社がんこ亭,,有限会社,神奈川県,横浜市磯子区,氷取沢町３５６番地,,14,107,2350043,,,2021-09-08,清算の結了等,,,2015-10-05,1,,,,,ガンコテイ,0
2531,9080102008495,登記記録の閉鎖等,0,2021-09-15,2021-09-09,有限会社鍋島商店,,有限会社,静岡県,伊豆市,湯ケ島２６４３番地の４,,22,222,4103206,,,2021-09-09,清算の結了等,,,2015-10-05,1,,,,,ナベシマショウテン,0
2533,9080403003988,登記記録の閉鎖等,0,2021-09-15,2021-08-26,合同会社八六商店,,合同会社,静岡県,浜松市中区,高丘東５丁目２１番１号コーポエクセスＢ－６,,22,131,4338117,,,2021-08-26,清算の結了等,,,2020-02-21,1,,,,,ハチロクショウテン,0
2536,9100003003213,登記記録の閉鎖等,0,2021-09-15,2021-09-09,株式会社ウィズ・ファシリティーズ,,株式会社,長野県,諏訪市,大字中洲５８５３－３,,20,206,3920015,,,2021-09-09,合併による解散等,6100001016789,令和３年９月１日長野県塩尻市広丘高出２００７－５株式会社ソーシャル・ネットワーク（6100001016789）に合併し解散,2015-10-05,1,,,,,ウィズファシリティーズ,0
2551,9120102007071,登記記録の閉鎖等,0,2021-09-15,2021-09-10,有限会社京田設備,,有限会社,大阪府,堺市中区,土師町１丁４番３８号,,27,142,5998238,,,2021-09-10,清算の結了等,,,2015-10-05,1,,,,,キョウダセツビ,0
2557,9130001061318,登記記録の閉鎖等,0,2021-09-15,2021-09-10,あそびばＲＣＦ株式会社,,株式会社,京都府,京都市中京区,柳馬場通三条上る油屋町８９番地グラン・ブルー三条柳馬場４０５号,,26,104,6048103,,,2021-09-10,清算の結了等,,,2018-01-16,1,,,,,アソビバアールシーエフ,0
2562,9140001016790,登記記録の閉鎖等,0,2021-09-15,2021-09-10,株式会社プロショップイマニシ,,株式会社,兵庫県,神戸市長田区,滝谷町３丁目９番７号,,28,106,6530881,,,2021-09-10,清算の結了等,,,2015-10-05,1,,,,,プロショップイマニシ,0
2566,9140001096767,登記記録の閉鎖等,0,2021-09-15,2021-09-01,スカイジャパンホールディングス株式会社,,株式会社,兵庫県,姫路市,東夢前台３丁目６２番地,,28,201,6700064,,,2021-09-01,合併による解散等,4140001045118,令和３年９月１日兵庫県姫路市東夢前台三丁目６２番地スカイジャパン株式会社（4140001045118）に合併し解散,2015-10-05,1,,,,,スカイジャパンホールディングス,0
2587,9180001124061,登記記録の閉鎖等,0,2021-09-15,2021-09-07,サムライカンパニーＲｅ株式会社,,株式会社,愛知県,名古屋市東区,葵３丁目１２番７号,,23,102,4610004,,,2021-09-07,清算の結了等,,,2016-07-13,1,,,,,サムライカンパニーアールイー,0
2600,9200002016998,登記記録の閉鎖等,0,2021-09-15,2021-09-13,有限会社高英建設,,有限会社,岐阜県,可児市,久々利１５６６番地,,21,214,5090224,,,2021-09-13,清算の結了等,,,2015-10-05,1,,,,,コウエイケンセツ,0
2623,9240005014079,登記記録の閉鎖等,0,2021-09-15,2021-09-13,一般社団法人ひろしまドリームマップ協会,,その他の設立登記法人,広島県,広島市西区,高須台６丁目１０番５号,,34,104,7330876,,,2021-09-13,清算の結了等,,,2016-01-25,1,,,,,ヒロシマドリームマップキョウカイ,0
2644,9290802025496,登記記録の閉鎖等,0,2021-09-15,2021-09-02,有限会社アゲイン,,有限会社,福岡県,田川市,大字伊田５０００番地,,40,206,8250002,,,2021-09-02,清算の結了等,,,2015-10-05,1,,,,,アゲイン,0
2649,9310005005137,登記記録の閉鎖等,0,2021-09-15,2021-09-03,長崎県牛乳事業協同組合,,その他の設立登記法人,長崎県,佐世保市,田原町１６番２０号,,42,202,8570136,,,2021-09-03,清算の結了等,,,2015-10-05,1,,,,,ナガサキケンギュウニュウジギョウ,0
