sequenceNumber,corporateNumber,process,correct,updateDate,changeDate,name,nameImageId,kind,prefectureName,cityName,streetNumber,addressImageId,prefectureCode,cityCode,postCode,addressOutside,addressOutsideImageId,closeDate,closeCause,successorCorporateNumber,changeCause,assignmentDate,latest,enName,enPrefectureName,enCityName,enAddressOutside,furigana,hihyoji
10,1010001254378,新規,0,2025-04-23,2025-04-23,株式会社サケネットワークス,,株式会社,東京都,千代田区,丸の内２丁目７番２号ＪＰタワー２３階,,13,101,1000005,,,,,,,2025-04-23,1,,,,,サケネットワークス,0
11,1010001254411,新規,0,2025-04-23,2025-04-23,株式会社インソース総合研究所,,株式会社,東京都,千代田区,神田小川町３丁目２０番地,,13,101,1010052,,,,,,,2025-04-23,1,,,,,インソースソウゴウケンキュウショ,0
12,1010001254428,新規,0,2025-04-23,2025-04-23,ｍｅｔａｔｒｏｐｉ株式会社,,株式会社,東京都,千代田区,外神田５丁目１－１０千住ビル１Ｆ,,13,101,1010021,,,,,,,2025-04-23,1,,,,,メタトロピー,0
13,1010001254444,新規,0,2025-04-23,2025-04-23,グリーン・ゴールド・エナジー・ジャパン株式会社,,株式会社,東京都,中央区,日本橋室町１丁目２－６日本橋大栄ビル７階,,13,102,1030022,,,,,,,2025-04-23,1,,,,,グリーンゴールドエナジージャパン,0
14,1010001254460,新規,0,2025-04-23,2025-04-23,株式会社リファラ,,株式会社,東京都,千代田区,神田松永町１３番地,,13,101,1010023,,,,,,,2025-04-23,1,,,,,リファラ,0
15,1010003047029,新規,0,2025-04-23,2025-04-23,Ｂｒｉｄｇｅ‐ＩＩ合同会社,,合同会社,東京都,中央区,銀座１丁目６番１１号土志田ビルディング３Ｆ,,13,102,1040061,,,,,,,2025-04-23,1,,,,,ブリッジツー,0
21,1010101016645,新規,0,2025-04-23,2025-04-23,ネクセラ株式会社,,株式会社,東京都,八王子市,横山町２－９クリオ八王子横山町５０８号室,,13,201,1920081,,,,,,,2025-04-23,1,,,,,ネクセラ,0
24,1010103002560,新規,0,2025-04-23,2025-04-23,ニニギ合同会社,,合同会社,東京都,八王子市,七国４丁目４７－２,,13,201,1920919,,,,,,,2025-04-23,1,,,,,ニニギ,0
30,1010401189686,新規,0,2025-04-23,2025-04-23,Ｌｕｌｌａｂｙ株式会社,,株式会社,東京都,港区,北青山３丁目１０番５号ＳｐｒｉｎｇＴｅｒｒａｃｅＯｍｏｔｅｓａｎｄｏ２Ｆ,,13,103,1070061,,,,,,,2025-04-23,1,,,,,ララバイ,0
31,1010401189752,新規,0,2025-04-23,2025-04-23,株式会社ＰｏｔｅｎｔｉａＲＩＳＥ,,株式会社,東京都,港区,北青山１丁目３－３三橋ビル３階,,13,103,1070061,,,,,,,2025-04-23,1,,,,,ポテンシャライズ,0
32,1010401189810,新規,0,2025-04-23,2025-04-23,ａｉｉｐ株式会社,,株式会社,東京都,港区,虎ノ門１丁目１６番６号ＲＡＰＯ－ＴＯビルＵＣＦ７０３,,13,103,1050001,,,,,,,2025-04-23,1,,,,,エーアイアイピー,0
33,1010401189868,新規,0,2025-04-23,2025-04-23,株式会社日明,,株式会社,東京都,港区,三田３丁目２番１号（弓和三田ビジデンス６１１）,,13,103,1080073,,,,,,,2025-04-23,1,,,,,ヒアガリ,0
35,1010403034915,新規,0,2025-04-23,2025-04-23,合同会社ＧＴＭ,,合同会社,東京都,港区,赤坂３丁目１１番１４－８０３号,,13,103,1070052,,,,,,,2025-04-23,1,,,,,ジーティーエム,0
36,1010403034956,新規,0,2025-04-23,2025-04-23,合同会社ＣＬｅＰ１,,合同会社,東京都,港区,赤坂４丁目２番６号,,13,103,1070052,,,,,,,2025-04-23,1,,,,,クレップワン,0
37,1010405024286,新規,0,2025-04-23,2025-04-23,一般社団法人日本精神・心理領域理学療法学会,,その他の設立登記法人,東京都,港区,六本木７丁目１１番１０号,,13,103,1060032,,,,,,,2025-04-23,1,,,,,ニホンセイシンシンリリョウイキリガクリョウホウガッカイ,0
38,1010405024336,新規,0,2025-04-23,2025-04-23,一般社団法人訪日運転者支援協会,,その他の設立登記法人,東京都,港区,芝１丁目４番１号芝コバヤシビル４階,,13,103,1050014,,,,,,,2025-04-23,1,,,,,ホウニチウンテンシャシエンキョウカイ,0
41,1010505003594,新規,0,2025-04-23,2025-04-23,一般社団法人江戸伝統文化推進燈虹塾,,その他の設立登記法人,東京都,台東区,竜泉１丁目２０番１９号,,13,106,1100012,,,,,,,2025-04-23,1,,,,,エドデントウブンカスイシントウコウジュク,0
44,1010601067171,新規,0,2025-04-23,2025-04-23,株式会社アクセル太陽光発電所,,株式会社,東京都,江東区,豊洲２丁目５番１号,,13,108,1350061,,,,,,,2025-04-23,1,,,,,アクセルタイヨウコウハツデンショ,0
46,1010701047593,新規,0,2025-04-23,2025-04-23,株式会社ＶＩＳＵＡＬＮＯＴＥＳ．,,株式会社,東京都,品川区,東品川４丁目１２－４品川シーサイドパークタワー９階,,13,109,1400002,,,,,,,2025-04-23,1,,,,,ヴィジュアルノーツ,0
48,1010801036075,新規,0,2025-04-23,2025-04-23,株式会社Ｂｒｉｇｈｔｏｎ　Ｒｅａｌ　Ｅｓｔａｔｅ,,株式会社,東京都,大田区,南久が原２丁目１０番１８号,,13,111,1460084,,,,,,,2025-04-23,1,,,,,ブライトンリアルエステート,0
53,1010901057228,新規,0,2025-04-23,2025-04-23,株式会社ＢＵＥＬＣＯ,,株式会社,東京都,世田谷区,三宿１丁目２番９号,,13,112,1540005,,,,,,,2025-04-23,1,,,,,ブエルコ,0
54,1010901057236,新規,0,2025-04-23,2025-04-23,株式会社ＫＣマイスタイル,,株式会社,東京都,世田谷区,上馬１丁目３２番９号,,13,112,1540011,,,,,,,2025-04-23,1,,,,,ケーシーマイスタイル,0
58,1011001169079,新規,0,2025-04-23,2025-04-23,メディピールジャパン株式会社,,株式会社,東京都,渋谷区,恵比寿西２丁目４番８号ウィンド恵比寿ビル８階,,13,113,1500021,,,,,,,2025-04-23,1,,,,,メディピールジャパン,0
59,1011001169087,新規,0,2025-04-23,2025-04-23,株式会社ＶＴＡジャパン,,株式会社,東京都,渋谷区,富ヶ谷１丁目１４－１４スタンフォードアネックスビル４Ｆ,,13,113,1510063,,,,,,,2025-04-23,1,,,,,ブイティーエージャパン,0
60,1011001169095,新規,0,2025-04-23,2025-04-23,株式会社Ａｓｃｅｎｄｉｕｍ,,株式会社,東京都,渋谷区,神宮前６丁目２３番４号桑野ビル２階,,13,113,1500001,,,,,,,2025-04-23,1,,,,,アセンディウム,0
61,1011001169120,新規,0,2025-04-23,2025-04-23,株式会社ワイス,,株式会社,東京都,渋谷区,恵比寿南３丁目１－１いちご恵比寿グリーングラスビル６階,,13,113,1500022,,,,,,,2025-04-23,1,,,,,ワイス,0
62,1011003021444,新規,0,2025-04-23,2025-04-23,Ｓａｓｕｇａ　Ｃａｐｉｔａｌ　Ｐａｒｔｎｅｒｓ合同会社,,合同会社,東京都,渋谷区,神山町６－１１アクシルコート渋谷神山町２０３,,13,113,1500047,,,,,,,2025-04-23,1,,,,,サスガキャピタルパートナーズ,0
63,1011003021452,新規,0,2025-04-23,2025-04-23,Ｏｕｉ合同会社,,合同会社,東京都,渋谷区,道玄坂１丁目１０番８号渋谷道玄坂東急ビル２Ｆ－Ｃ,,13,113,1500043,,,,,,,2025-04-23,1,,,,,ウイ,0
65,1011101111460,新規,0,2025-04-23,2025-04-23,株式会社かもめ,,株式会社,東京都,新宿区,西新宿６丁目１５番１号セントラルパークタワーラ・トゥール新宿５Ｆ,,13,104,1600023,,,,,,,2025-04-23,1,,,,,カモメ,0
66,1011101111510,新規,0,2025-04-23,2025-04-23,ワールドアイ株式会社,,株式会社,東京都,新宿区,大久保２丁目２７番１３号,,13,104,1690072,,,,,,,2025-04-23,1,,,,,ワールドアイ,0
67,1011101111519,新規,0,2025-04-23,2025-04-23,株式会社リノベスタ,,株式会社,東京都,新宿区,西新宿３丁目３番１３号西新宿水間ビル２Ｆ,,13,104,1600023,,,,,,,2025-04-23,1,,,,,リノベスタ,0
72,1011401027035,新規,0,2025-04-23,2025-04-23,ＭＹ‐ＳＴＹＬＥ株式会社,,株式会社,東京都,板橋区,本町２７番９－１１０号,,13,119,1730001,,,,,,,2025-04-23,1,,,,,エムワイスタイル,0
81,1012403007090,新規,0,2025-04-23,2025-04-23,合同会社ベーグルくらし,,合同会社,東京都,狛江市,駒井町３丁目６番７号,,13,219,2010016,,,,,,,2025-04-23,1,,,,,ベーグルクラシ,0
82,1012703003252,新規,0,2025-04-23,2025-04-23,合同会社アールエム,,合同会社,東京都,清瀬市,上清戸２丁目１番１１号,,13,221,2040013,,,,,,,2025-04-23,1,,,,,アールエム,0
85,1012803003714,新規,0,2025-04-23,2025-04-23,合同会社福屋榮山堂ケアサポート愛鈴,,合同会社,東京都,国立市,東３丁目５番地の２５シェトワ２０３,,13,215,1860002,,,,,,,2025-04-23,1,,,,,フクヤエイザンドウケアサポートアイリン,0
93,1013303007635,新規,0,2025-04-23,2025-04-23,ＭＡＳＡＮＡ合同会社,,合同会社,東京都,豊島区,池袋本町４丁目４６番１１号,,13,116,1700011,,,,,,,2025-04-23,1,,,,,マサナ,0
97,1020001162472,新規,0,2025-04-23,2025-04-23,株式会社庵,,株式会社,神奈川県,横浜市青葉区,あざみ野２丁目１３番地６－２０１号,,14,117,2250011,,,,,,,2025-04-23,1,,,,,イオリ,0
98,1020001162514,新規,0,2025-04-23,2025-04-23,株式会社Ｔｈｉｒｄ,,株式会社,神奈川県,川崎市高津区,諏訪１丁目５番５号フォーレ３０６号室,,14,134,2130004,,,,,,,2025-04-23,1,,,,,サード,0
99,1020001162522,新規,0,2025-04-23,2025-04-23,ｂｏｒｎ＆Ｃｏ株式会社,,株式会社,神奈川県,横浜市旭区,白根７丁目３６番１０号,,14,112,2410005,,,,,,,2025-04-23,1,,,,,ボーンアンドコ,0
101,1021001085028,新規,0,2025-04-23,2025-04-23,株式会社ウィステリア,,株式会社,神奈川県,茅ヶ崎市,矢畑８９７－１パークスクエア湘南茅ヶ崎Ｓ９２１,,14,207,2530085,,,,,,,2025-04-23,1,,,,,ウィステリア,0
107,1030001166118,新規,0,2025-04-23,2025-04-23,株式会社サラ,,株式会社,埼玉県,さいたま市南区,南本町１丁目４番８号,,11,108,3360018,,,,,,,2025-04-23,1,,,,,サラ,0
108,1030001166126,新規,0,2025-04-23,2025-04-23,株式会社プレイフル,,株式会社,埼玉県,熊谷市,新堀４８４番地２,,11,202,3600841,,,,,,,2025-04-23,1,,,,,プレイフル,0
109,1030001166142,新規,0,2025-04-23,2025-04-23,株式会社Ｆｕｔｕｒ,,株式会社,埼玉県,川口市,元郷３丁目１１番１４号,,11,203,3320011,,,,,,,2025-04-23,1,,,,,フュチュール,0
110,1030001166175,新規,0,2025-04-23,2025-04-23,ＡＩＴＯＫＵ株式会社,,株式会社,埼玉県,越谷市,レイクタウン９丁目４１番地２,,11,222,3430828,,,,,,,2025-04-23,1,,,,,アイトク,0
112,1030003026641,新規,0,2025-04-23,2025-04-23,合同会社ストレート,,合同会社,埼玉県,所沢市,大字北秋津７０３番地の２ファミールハイツ２－２０５,,11,208,3590038,,,,,,,2025-04-23,1,,,,,ストレート,0
121,1040003027382,新規,0,2025-04-23,2025-04-23,ＨＴ合同会社,,合同会社,千葉県,船橋市,海神町南１丁目１７３９番地エステートピア・ジュネス２０６号,,12,204,2730024,,,,,,,2025-04-23,1,,,,,エッチティー,0
122,1040005022737,新規,0,2025-04-23,2025-04-23,医療法人社団桜明会,,その他の設立登記法人,千葉県,佐倉市,大崎台４丁目３番地１号,,12,212,2850817,,,,,,,2025-04-23,1,,,,,オウメイカイ,0
128,1070003005889,新規,0,2025-04-23,2025-04-23,アジア友人合同会社,,合同会社,群馬県,太田市,新田木崎町１３１８番地３２,,10,205,3700321,,,,,,,2025-04-23,1,,,,,,0
131,1080101025458,新規,0,2025-04-23,2025-04-23,株式会社日弘ホールディングス,,株式会社,静岡県,沼津市,足高３６８番地の５,,22,203,4100001,,,,,,,2025-04-23,1,,,,,ニッコウホールディングス,0
132,1080403005249,新規,0,2025-04-23,2025-04-23,ふじの丘合同会社,,合同会社,静岡県,浜松市中央区,神立町１３９番地の１,,22,138,4300801,,,,,,,2025-04-23,1,,,,,フジノオカ,0
133,1090001019237,新規,0,2025-04-23,2025-04-23,富士吉田ＧＸテクノロジー株式会社,,株式会社,山梨県,富士吉田市,下吉田２丁目３１番１４号,,19,202,4030004,,,,,,,2025-04-23,1,,,,,フジヨシダジーエックステクノロジー,0
152,1120001274794,新規,0,2025-04-23,2025-04-23,株式会社ＵｒｅＳｅｅｄ,,株式会社,大阪府,大阪市城東区,関目１丁目１５番７－１２０１号,,27,118,5360008,,,,,,,2025-04-23,1,,,,,ウレシード,0
153,1120001274803,新規,0,2025-04-23,2025-04-23,株式会社ネオファイヤー,,株式会社,大阪府,大阪市平野区,瓜破東２丁目１１番１１－４０３号,,27,126,5470022,,,,,,,2025-04-23,1,,,,,ネオファイヤー,0
154,1120001274811,新規,0,2025-04-23,2025-04-23,ＬＵＮＩＶＯＲ　ＪＡＰＡＮ株式会社,,株式会社,大阪府,大阪市港区,市岡３丁目１４番２１－１０２号,,27,107,5520012,,,,,,,2025-04-23,1,,,,,ルニヴォルジャパン,0
163,1120101071522,新規,0,2025-04-23,2025-04-23,株式会社らくらく,,株式会社,大阪府,堺市堺区,二条通１－２,,27,141,5900047,,,,,,,2025-04-23,1,,,,,ラクラク,0
178,1130001079474,新規,0,2025-04-23,2025-04-23,株式会社Ｆｕｎｚｉ,,株式会社,京都府,京都市下京区,玉津島町２９４－５Ｆ,,26,106,6008427,,,,,,,2025-04-23,1,,,,,ファンジ,0
179,1130001079482,新規,0,2025-04-23,2025-04-23,株式会社水上,,株式会社,京都府,八幡市,八幡久保田１０－２,,26,210,6148045,,,,,,,2025-04-23,1,,,,,ミズカミ,0
180,1130001079499,新規,0,2025-04-23,2025-04-23,株式会社ＫｙｏＴｏｋｉ,,株式会社,京都府,京都市伏見区,桃山与五郎町１番地６３０,,26,109,6128025,,,,,,,2025-04-23,1,,,,,キョウトキ,0
185,1140001138246,新規,0,2025-04-23,2025-04-23,ＳＹ株式会社,,株式会社,兵庫県,南あわじ市,松帆古津路６４５番地,,28,224,6560304,,,,,,,2025-04-23,1,,,,,エスワイ,0
190,1160001026705,新規,0,2025-04-23,2025-04-23,株式会社Ｈ＆Ｍ,,株式会社,滋賀県,草津市,西渋川１丁目３番２０号,,25,206,5250025,,,,,,,2025-04-23,1,,,,,エッチアンドエム,0
191,1170001018585,新規,0,2025-04-23,2025-04-23,株式会社中長ホールディングス,,株式会社,和歌山県,和歌山市,堀止東１丁目１番２７号,,30,201,6408136,,,,,,,2025-04-23,1,,,,,ナカチョウホールディングス,0
202,1180001166499,新規,0,2025-04-23,2025-04-23,株式会社ＤＳ,,株式会社,愛知県,名古屋市中区,栄３丁目１５番６号,,23,106,4600008,,,,,,,2025-04-23,1,,,,,ディーエス,0
203,1180001166508,新規,0,2025-04-23,2025-04-23,株式会社ハブックストイ,,株式会社,愛知県,名古屋市中村区,岩塚町字高道１番地１,,23,105,4530862,,,,,,,2025-04-23,1,,,,,ハブックストイ,0
204,1180001166524,新規,0,2025-04-23,2025-04-23,株式会社ＤｅｒａＭｅｄｉａ,,株式会社,愛知県,稲沢市,小池３丁目２１番２０号,,23,220,4928144,,,,,,,2025-04-23,1,,,,,デラメディア,0
208,1180303006543,新規,0,2025-04-23,2025-04-23,合同会社ミューズリンク,,合同会社,愛知県,刈谷市,末広町２丁目１３番地５,,23,210,4480802,,,,,,,2025-04-23,1,,,,,ミューズリンク,0
215,1220001026640,新規,0,2025-04-23,2025-04-23,ワークウィーズ株式会社,,株式会社,石川県,金沢市,間明町２丁目１０番地かいてきビル５階５０３号室,,17,201,9218005,,,,,,,2025-04-23,1,,,,,ワークウィーズ,0
216,1220003004017,新規,0,2025-04-23,2025-04-23,合同会社金沢代行くん,,合同会社,石川県,金沢市,月浦町ロ１６６番地１,,17,201,9200178,,,,,,,2025-04-23,1,,,,,カナザワダイコウクン,0
218,1230001020857,新規,0,2025-04-23,2025-04-23,ＲＥＮＯＢＡＳＥ株式会社,,株式会社,富山県,高岡市,蓮美町２２,,16,202,9330865,,,,,,,2025-04-23,1,,,,,リノベース,0
221,1240001064845,新規,0,2025-04-23,2025-04-23,ＴＡＩＳＥＩエネルギー株式会社,,株式会社,広島県,広島市南区,段原日出２丁目３番２０号,,34,103,7320818,,,,,,,2025-04-23,1,,,,,タイセイエネルギー,0
224,1240005015935,新規,0,2025-04-23,2025-04-23,特定非営利活動法人ＷＥＡＶＥ,,その他の設立登記法人,広島県,三次市,三良坂町三良坂１７６０番地７,,34,209,7294304,,,,,,,2025-04-23,1,,,,,ウィーヴ,0
225,1250001021110,新規,0,2025-04-23,2025-04-23,Ｔ‐Ｎｅｘｕｓ株式会社,,株式会社,山口県,宇部市,大字矢矯３３５番地２,,35,202,7570217,,,,,,,2025-04-23,1,,,,,ティーネクサス,0
235,1290001109760,新規,0,2025-04-23,2025-04-23,株式会社ＮＥＸＴ　ＶＩＳＩＯＮ,,株式会社,福岡県,福岡市南区,大橋４丁目２番５号＆ＴＡＯａｒｃｈｉｔ．３０４,,40,134,8150033,,,,,,,2025-04-23,1,,,,,ネクストビジョン,0
236,1290001109769,新規,0,2025-04-23,2025-04-23,株式会社楢崎装建,00138874,株式会社,福岡県,福岡市東区,三苫４丁目６番１４号,,40,131,8110201,,,,,,,2025-04-23,1,,,,,ナラザキソウケン,0
237,1290001109785,新規,0,2025-04-23,2025-04-23,株式会社シンコー物産,,株式会社,福岡県,福岡市東区,美和台３丁目３６番５０号,,40,131,8110212,,,,,,,2025-04-23,1,,,,,シンコーブッサン,0
238,1290001109793,新規,0,2025-04-23,2025-04-23,株式会社ワームス,,株式会社,福岡県,福岡市博多区,諸岡５丁目１５番６号,,40,132,8120894,,,,,,,2025-04-23,1,,,,,ワームス,0
239,1290001109819,新規,0,2025-04-23,2025-04-23,株式会社テックブリッジ,,株式会社,福岡県,那珂川市,中原２丁目１２０博多南駅前ビル２階,,40,231,8111213,,,,,,,2025-04-23,1,,,,,,0
240,1290003016732,新規,0,2025-04-23,2025-04-23,合同会社Ｓ＆Ｋ,,合同会社,福岡県,福岡市中央区,平尾３丁目１７番２０－１号,,40,133,8100014,,,,,,,2025-04-23,1,,,,,エスアンドケイ,0
248,1330003010945,新規,0,2025-04-23,2025-04-23,合同会社幸和企画,,合同会社,熊本県,熊本市北区,楠野町４３８番地５,,43,105,8615511,,,,,,,2025-04-23,1,,,,,コウワキカク,0
254,1360001035099,新規,0,2025-04-23,2025-04-23,株式会社Ｂｏｎｄ,,株式会社,沖縄県,宜野湾市,大謝名２丁目２７番２－１０１号,,47,205,9012225,,,,,,,2025-04-23,1,,,,,ボンド,0
259,1360003014869,新規,0,2025-04-23,2025-04-23,合同会社ＷＳＪ,,合同会社,沖縄県,那覇市,首里儀保町１丁目２１－７ライオンズマンション儀保８０２,,47,201,9030821,,,,,,,2025-04-23,1,,,,,ダブリューエスジェイ,0
260,1360003014877,新規,0,2025-04-23,2025-04-23,Ｃ．Ｊ．合同会社,,合同会社,沖縄県,宜野湾市,宇地泊１丁目１７番１－１０３号ＣＯＷ　ＨＯＵＳＩＮＧ,,47,205,9012227,,,,,,,2025-04-23,1,,,,,シージェイ,0
264,1360005007219,新規,0,2025-04-23,2025-04-23,医療法人彩慶会,,その他の設立登記法人,沖縄県,島尻郡八重瀬町,字東風平１２００番地５－２Ｆ,,47,362,9010401,,,,,,,2025-04-23,1,,,,,サイケイカイ,0
267,1370001052498,新規,0,2025-04-23,2025-04-23,株式会社友進,,株式会社,宮城県,仙台市太白区,山田北前町３３番４８－３号,,04,104,9820813,,,,,,,2025-04-23,1,,,,,ユウシン,0
268,1370001052507,新規,0,2025-04-23,2025-04-23,株式会社ＰＬＯＴ,,株式会社,宮城県,仙台市太白区,鈎取３丁目１０番１０号,,04,104,9820804,,,,,,,2025-04-23,1,,,,,プロット,0
282,1400003003438,新規,0,2025-04-23,2025-04-23,合同会社丸金商店,,合同会社,岩手県,一関市,東山町長坂字羽根堀１３５番地,,03,209,0290302,,,,,,,2025-04-23,1,,,,,マルキンショウテン,0
293,1430001094212,新規,0,2025-04-23,2025-04-23,グローバルキャピタル株式会社,,株式会社,北海道,札幌市白石区,本郷通８丁目北７－８－４０３,,01,104,0030025,,,,,,,2025-04-23,1,,,,,グローバルキャピタル,0
294,1430001094220,新規,0,2025-04-23,2025-04-23,株式会社Ｓ‐Ｔｒｕｓｔ,,株式会社,北海道,札幌市白石区,川北五条１丁目６番１０号,,01,104,0030855,,,,,,,2025-04-23,1,,,,,エストラスト,0
297,1430003017550,新規,0,2025-04-23,2025-04-23,ノンコード合同会社,,合同会社,北海道,札幌市西区,西野二条７丁目６番１２号,,01,107,0630032,,,,,,,2025-04-23,1,,,,,ノンコード,0
301,1470001020684,新規,0,2025-04-23,2025-04-23,株式会社ＵＮＩＶＥＸ,,株式会社,香川県,高松市,郷東町３番地１ナカハラビル３階東側,,37,201,7618031,,,,,,,2025-04-23,1,,,,,ユニベックス,0
308,1500003003493,新規,0,2025-04-23,2025-04-23,合同会社ホクラニ,,合同会社,愛媛県,松山市,東長戸２丁目１１番１３号,,38,201,7918005,,,,,,,2025-04-23,1,,,,,ホクラニ,0
310,1700150130104,新規,0,2025-04-23,2025-04-23,ｋｅｌｅｃｈｏｎｇｗｕｙｏｎｇｐｉｎ（ｓｈａｎｄｏｎｇ）ｙｏｕｘｉａｎｇｏｎｇｓｉ,,外国会社等,,,,,,,,ｌａｎｓｈａｎｑｕｌａｎｓｈａｎｊｉｅｄａｏｄａｓｈａｎｌｕｙｕｇｏｎｇｙｅｄａｄａｏｊｉａｏｈｕｉａｏｌｏｎｇｘｉｅｃｈｅｎｇＣｑｕ１０２３ｈａｏ,,,,,,2025-04-23,1,,,,,コーラーチョンウーヨンピンシャンドンヨウシエンゴンスー,0
313,2010001254311,新規,0,2025-04-23,2025-04-23,株式会社ブイシンク販売,,株式会社,東京都,中央区,銀座６丁目６番１号銀座風月堂ビル５階,,13,102,1040061,,,,,,,2025-04-23,1,,,,,ブイシンクハンバイ,0
314,2010001254369,新規,0,2025-04-23,2025-04-23,株式会社ＡＵＲＩＳＥ,,株式会社,東京都,千代田区,一番町６番地,,13,101,1020082,,,,,,,2025-04-23,1,,,,,オウライズ,0
315,2010001254377,新規,0,2025-04-23,2025-04-23,株式会社エクセルリスクフロンティア,,株式会社,東京都,千代田区,大手町１丁目６番１号大手町ビル,,13,101,1000004,,,,,,,2025-04-23,1,,,,,エクセルリスクフロンティア,0
316,2010001254385,新規,0,2025-04-23,2025-04-23,株式会社ＷＩＬＤ　ＴＨＩＮＫ　Ｄｅｓｉｇｎ,,株式会社,東京都,千代田区,九段南３丁目８番１３号,,13,101,1020074,,,,,,,2025-04-23,1,,,,,ワイルドシンクデザイン,0
317,2010001254393,新規,0,2025-04-23,2025-04-23,桜グループホールディングス株式会社,,株式会社,東京都,千代田区,丸の内１丁目８番３号丸の内トラストタワー本館２０階,,13,101,1000005,,,,,,,2025-04-23,1,,,,,サクラグループホールディングス,0
318,2010001254443,新規,0,2025-04-23,2025-04-23,ＮＯＭＯＮ＆Ｃｏ．株式会社,,株式会社,東京都,千代田区,四番町２番地１,,13,101,1020081,,,,,,,2025-04-23,1,,,,,ノモンアンドカンパニー,0
319,2010001254476,新規,0,2025-04-23,2025-04-23,株式会社エンネクト,,株式会社,東京都,千代田区,神田松永町１３番地ＶＯＲＴ秋葉原ＩＩ,00138881,13,101,1010023,,,,,,,2025-04-23,1,,,,,エンネクト,0
323,2010003047119,新規,0,2025-04-23,2025-04-23,合同会社はたらくねこ,,合同会社,東京都,千代田区,東神田１丁目１７－５東神田イチオクビル２Ｆ－Ｃ,,13,101,1010031,,,,,,,2025-04-23,1,,,,,ハタラクネコ,0
324,2010005039964,新規,0,2025-04-23,2025-04-23,一般社団法人エリアアプレイザル丸の内,,その他の設立登記法人,東京都,千代田区,神田和泉町１番地６－１６,,13,101,1010024,,,,,,,2025-04-23,1,,,,,エリアアプレイザルマルノウチ,0
333,2010401189735,新規,0,2025-04-23,2025-04-23,９ｇｒｏｕｐ株式会社,,株式会社,東京都,港区,新橋４丁目１４番１新橋ＡＵＮＢＬＤＧ４階,,13,103,1050004,,,,,,,2025-04-23,1,,,,,ナイングループ,0
334,2010401189900,新規,0,2025-04-23,2025-04-23,ＳＩＲＩＵＳ　ＰＡＴＨ株式会社,,株式会社,東京都,港区,南青山２丁目２番１５号,,13,103,1070062,,,,,,,2025-04-23,1,,,,,シリウスパス,0
335,2010401189925,新規,0,2025-04-23,2025-04-23,株式会社ｏｌｉｖｅ,,株式会社,東京都,港区,六本木６丁目１２番３－２２０３号,,13,103,1060032,,,,,,,2025-04-23,1,,,,,オリーブ,0
336,2010403034897,新規,0,2025-04-23,2025-04-23,合同会社ＢＡＳＴＡＲＤＡＳ,,合同会社,東京都,港区,新橋２丁目２０番１５号,,13,103,1050004,,,,,,,2025-04-23,1,,,,,バスタルダス,0
337,2010403034906,新規,0,2025-04-23,2025-04-23,合同会社Ｔｉｃｙ,,合同会社,東京都,港区,北青山１丁目３－３三橋ビル３階,,13,103,1070061,,,,,,,2025-04-23,1,,,,,ティーアイシーワイ,0
340,2010405024285,新規,0,2025-04-23,2025-04-23,一般社団法人日本ウィメンズヘルス・メンズヘルス理学療法学会,,その他の設立登記法人,東京都,港区,六本木７丁目１１番１０号,,13,103,1060032,,,,,,,2025-04-23,1,,,,,ニホンウィメンズヘルスメンズヘルスリガクリョウホウガッカイ,0
343,2010503007786,新規,0,2025-04-23,2025-04-23,合同会社伝世舎,,合同会社,東京都,台東区,池之端４丁目１６番１１号上野ハイツ１３,,13,106,1100008,,,,,,,2025-04-23,1,,,,,デンセイシャ,0
347,2010601067170,新規,0,2025-04-23,2025-04-23,三木株式会社,,株式会社,東京都,墨田区,千歳１丁目２番８号,,13,107,1300025,,,,,,,2025-04-23,1,,,,,ミキ,0
348,2010601067195,新規,0,2025-04-23,2025-04-23,サトランスホールディングス株式会社,,株式会社,東京都,江東区,深川１丁目１番５号和倉ビル７０２,,13,108,1350033,,,,,,,2025-04-23,1,,,,,サトランスホールディングス,0
351,2010701047592,新規,0,2025-04-23,2025-04-23,株式会社Ｌｅａｄ＆Ｆｏｌｌｏｗ,,株式会社,東京都,品川区,旗の台３丁目１５－１リブスタイル旗の台３０５,,13,109,1420064,,,,,,,2025-04-23,1,,,,,リードアンドフォロー,0
352,2010705003757,新規,0,2025-04-23,2025-04-23,一般社団法人けやき,,その他の設立登記法人,東京都,品川区,旗の台１丁目２番１４号,,13,109,1420064,,,,,,,2025-04-23,1,,,,,ケヤキ,0
354,2010903009845,新規,0,2025-04-23,2025-04-23,合同会社フィナンシェール,,合同会社,東京都,世田谷区,太子堂１丁目３番３６－４１３号,,13,112,1540004,,,,,,,2025-04-23,1,,,,,フィナンシェール,0
361,2011001168906,新規,0,2025-04-23,2025-04-23,株式会社ＣｙＸｅｎ,,株式会社,東京都,目黒区,青葉台３丁目１番１９号,,13,110,1530042,,,,,,,2025-04-23,1,,,,,サイゼン,0
362,2011001169086,新規,0,2025-04-23,2025-04-23,株式会社ＴＨＥ　ＥＮＤＯ,,株式会社,東京都,渋谷区,道玄坂１丁目１７番６号プロスペクト渋谷道玄坂３０３,,13,113,1500043,,,,,,,2025-04-23,1,,,,,ジエンド,0
363,2011001169094,新規,0,2025-04-23,2025-04-23,株式会社マイクロニティ,,株式会社,東京都,渋谷区,渋谷２丁目２４番１２号,,13,113,1500002,,,,,,,2025-04-23,1,,,,,マイクロニティ,0
367,2011003021443,新規,0,2025-04-23,2025-04-23,合同会社ユニヴァース,,合同会社,東京都,渋谷区,本町５丁目３３番８号,,13,113,1510071,,,,,,,2025-04-23,1,,,,,ユニヴァース,0
368,2011005010956,新規,0,2025-04-23,2025-04-23,一般社団法人美容医療適正広告推進協議会,,その他の設立登記法人,東京都,目黒区,中目黒４丁目９番１０号ＳＡＩＳＯＮＧＡＲＤＥＮ－１０１,,13,110,1530061,,,,,,,2025-04-23,1,,,,,ビヨウイリョウテキセイコウコクスイシンキョウギカイ,0
370,2011101111476,新規,0,2025-04-23,2025-04-23,ブリリアント・インターナショナル株式会社,,株式会社,東京都,新宿区,新宿１丁目１９番８号,,13,104,1600022,,,,,,,2025-04-23,1,,,,,ブリリアントインターナショナル,0
371,2011101111492,新規,0,2025-04-23,2025-04-23,盛太株式会社,,株式会社,東京都,新宿区,新宿４丁目１番２２号新宿コムロビル,,13,104,1600022,,,,,,,2025-04-23,1,,,,,モリタ,0
372,2011101111501,新規,0,2025-04-23,2025-04-23,株式会社Ｅｎ‐Ｌｉｎｅ,,株式会社,東京都,新宿区,西新宿３丁目５番３号西新宿ダイヤモンドパレス２１４,,13,104,1600023,,,,,,,2025-04-23,1,,,,,エンライン,0
375,2011401027034,新規,0,2025-04-23,2025-04-23,株式会社ニュースター,,株式会社,東京都,板橋区,板橋２丁目１４番４号,,13,119,1730004,,,,,,,2025-04-23,1,,,,,ニュースター,0
379,2011605002650,新規,0,2025-04-23,2025-04-23,一般社団法人ＣＦコネクト,,その他の設立登記法人,東京都,練馬区,豊玉北４丁目３１番１３号,,13,120,1760012,,,,,,,2025-04-23,1,,,,,シーエフコネクト,0
380,2011701028285,新規,0,2025-04-23,2025-04-23,ＣｌｉｍａｘＶｉｓｉｏｎ株式会社,,株式会社,東京都,江戸川区,松島３丁目１４番７－２０５号若林ビル,,13,123,1320031,,,,,,,2025-04-23,1,,,,,クリーマックスビジョン,0
382,2011801045957,新規,0,2025-04-23,2025-04-23,株式会社Ｍｉｒｕｓ　ａｉｒｃｒａｆｔ　ｓｅａｔ,,株式会社,東京都,足立区,千住緑町３丁目２３番２１号シャングリラＩＩ３０２号室,00138882,13,121,1200044,,,,,,,2025-04-23,1,,,,,ミルスエアクラフトシート,0
388,2012401043013,新規,0,2025-04-23,2025-04-23,株式会社ＨｅａｒｔＪｏｉｎｔ,,株式会社,東京都,府中市,清水が丘２丁目１０番地の１８,,13,206,1830015,,,,,,,2025-04-23,1,,,,,ハートジョイント,0
389,2012401043021,新規,0,2025-04-23,2025-04-23,株式会社ｓｕｒｇｉｌｉｎｋ,,株式会社,東京都,三鷹市,牟礼５丁目９番７号,,13,204,1810002,,,,,,,2025-04-23,1,,,,,サージリンク,0
391,2012403007065,新規,0,2025-04-23,2025-04-23,合同会社Ｏ＆Ｓｔｏｎｅ,,合同会社,東京都,調布市,西つつじケ丘３丁目３１番地２フランシェールつつじケ丘８０１,,13,208,1820006,,,,,,,2025-04-23,1,,,,,オーエンドストーン,0
392,2012403007081,新規,0,2025-04-23,2025-04-23,レオニダス合同会社,,合同会社,東京都,稲城市,押立９６９ホリホック１０１,,13,225,2060811,,,,,,,2025-04-23,1,,,,,レオニダス,0
394,2012703003251,新規,0,2025-04-23,2025-04-23,合同会社ＬＡＭＢ　ＣＨＯＰ,,合同会社,東京都,小平市,花小金井５丁目３０番８号,,13,211,1870002,,,,,,,2025-04-23,1,,,,,ラムチョップ,0
400,2020001162546,新規,0,2025-04-23,2025-04-23,株式会社コネクト,,株式会社,神奈川県,横浜市神奈川区,東神奈川１丁目９番地８びゅうリエット横浜東神奈川１０１７号,,14,102,2210044,,,,,,,2025-04-23,1,,,,,コネクト,0
404,2021001084994,新規,0,2025-04-23,2025-04-23,株式会社ＮＵＰＨＯＲＩＡ,,株式会社,神奈川県,逗子市,新宿３丁目２－４０ＡＭＩＧＯＨＯＵＳＥ,,14,208,2490007,,,,,,,2025-04-23,1,,,,,ニューフォリア,0
405,2021001085010,新規,0,2025-04-23,2025-04-23,株式会社ｃａｌｍ,,株式会社,神奈川県,平塚市,馬入本町１２－１５エクセレント湘南シーサイド１階,,14,203,2540024,,,,,,,2025-04-23,1,,,,,カーム,0
406,2021001085043,新規,0,2025-04-23,2025-04-23,株式会社ＬａＧ,,株式会社,神奈川県,相模原市緑区,橋本３丁目２７番６号,,14,151,2520143,,,,,,,2025-04-23,1,,,,,ラグ,0
407,2021001085076,新規,0,2025-04-23,2025-04-23,株式会社ＭＴ　ＳＯＬＵＴＩＯＮ,,株式会社,神奈川県,藤沢市,辻堂太平台１丁目１３－３,,14,205,2510044,,,,,,,2025-04-23,1,,,,,エムティソリューション,0
411,2021003015898,新規,0,2025-04-23,2025-04-23,合同会社ＫＴＭパートナーズ,,合同会社,神奈川県,綾瀬市,大上９丁目１９番２６号,,14,218,2521104,,,,,,,2025-04-23,1,,,,,ケーティーエムパートナーズ,0
416,2030001166083,新規,0,2025-04-23,2025-04-23,株式会社ＯｒｂｉｓＷｏｒｋｓ,,株式会社,埼玉県,所沢市,北野１丁目２５－４６,,11,208,3591152,,,,,,,2025-04-23,1,,,,,オルビスワークス,0
417,2030001166141,新規,0,2025-04-23,2025-04-23,株式会社Ｇｌｏｉｒｅ,,株式会社,埼玉県,川口市,元郷３丁目１１番１４号,,11,203,3320011,,,,,,,2025-04-23,1,,,,,グロワール,0
418,2030001166166,新規,0,2025-04-23,2025-04-23,株式会社町田工業,,株式会社,埼玉県,深谷市,東方町１丁目１４番地４２,,11,218,3660042,,,,,,,2025-04-23,1,,,,,マチダコウギョウ,0
419,2030001166174,新規,0,2025-04-23,2025-04-23,ゴルディー株式会社,,株式会社,埼玉県,さいたま市桜区,田島１丁目２番１号,,11,106,3380837,,,,,,,2025-04-23,1,,,,,ゴルディー,0
421,2030003026640,新規,0,2025-04-23,2025-04-23,合同会社Ｔａｓｋｌｅ,,合同会社,埼玉県,さいたま市見沼区,春岡３丁目４７番地８,,11,104,3370008,,,,,,,2025-04-23,1,,,,,タスクル,0
431,2050001056563,新規,0,2025-04-23,2025-04-23,ＭＹリユースカンパニー株式会社,,株式会社,茨城県,つくば市,安食２５４４番地３５,,08,220,3004205,,,,,,,2025-04-23,1,,,,,マイリユースカンパニー,0
437,2080001026885,新規,0,2025-04-23,2025-04-23,株式会社ＮＥＳＴＡＴＥ,,株式会社,静岡県,榛原郡吉田町,神戸２３１８番地の１サンフォーラム東側店舗,,22,424,4210304,,,,,,,2025-04-23,1,,,,,ネステイト,0
439,2080101025457,新規,0,2025-04-23,2025-04-23,ｍｅｅｔ　ｔｈｅ　ｎｅｘｔ株式会社,,株式会社,静岡県,沼津市,岡一色３９３番地,,22,203,4100012,,,,,,,2025-04-23,1,,,,,ミートザネクスト,0
440,2090001019236,新規,0,2025-04-23,2025-04-23,株式会社三井工業所,,株式会社,山梨県,北杜市,大泉町谷戸４３０９番地,,19,209,4091502,,,,,,,2025-04-23,1,,,,,,0
445,2100005013340,新規,0,2025-04-23,2025-04-23,一般社団法人信州松本ヘルスケアネットワーク,,その他の設立登記法人,長野県,松本市,本庄２丁目５番１号,,20,202,3900814,,,,,,,2025-04-23,1,,,,,シンシュウマツモトヘルスケアネットワーク,0
456,2120001274802,新規,0,2025-04-23,2025-04-23,麗駿商貿株式会社,,株式会社,大阪府,大阪市生野区,中川３丁目４番１７号２０５室,,27,116,5440005,,,,,,,2025-04-23,1,,,,,レイシュンショウボウ,0
457,2120001274942,新規,0,2025-04-23,2025-04-23,株式会社ｎｏｖｏ,,株式会社,大阪府,大阪市阿倍野区,旭町２丁目１－１あべのマルシェ１５５,,27,119,5450051,,,,,,,2025-04-23,1,,,,,ノボ,0
460,2120005024897,新規,0,2025-04-23,2025-04-23,一般社団法人待兼山データサイエンス,,その他の設立登記法人,大阪府,大阪市北区,梅田１丁目２番地２号大阪駅前第２ビル１２－１２号,,27,127,5300001,,,,,,,2025-04-23,1,,,,,マチカネヤマデータサイエンス,0
463,2120101071521,新規,0,2025-04-23,2025-04-23,株式会社Ｅ‐ＬＩＮＥ,,株式会社,大阪府,岸和田市,岡山町２２３番地の３０,,27,202,5960814,,,,,,,2025-04-23,1,,,,,イーライン,0
464,2120101071546,新規,0,2025-04-23,2025-04-23,株式会社テトラエステート,,株式会社,大阪府,和泉市,府中町２丁目２－１２川上ビル２０１号,,27,219,5940071,,,,,,,2025-04-23,1,,,,,テトラエステート,0
475,2130001079498,新規,0,2025-04-23,2025-04-23,株式会社Ｔｏｐｏｐｈｉｌｉａ,,株式会社,京都府,京都市左京区,下鴨高木町４６番地１じょい下鴨８０４,,26,103,6060864,,,,,,,2025-04-23,1,,,,,トポフィリア,0
477,2130003010394,新規,0,2025-04-23,2025-04-23,ＫＴＦ合同会社,,合同会社,京都府,京都市中京区,西ノ京月輪町２０番地ルシエル西ノ京御池９０２号,,26,104,6048444,,,,,,,2025-04-23,1,,,,,ケーティーエフ,0
482,2140001138261,新規,0,2025-04-23,2025-04-23,Ｗｉｔｈ　Ｙｏｕ株式会社,,株式会社,兵庫県,神戸市兵庫区,御崎町２丁目１７番１５号,,28,105,6520855,,,,,,,2025-04-23,1,,,,,ウィズユー,0
486,2140003021960,新規,0,2025-04-23,2025-04-23,合同会社金麦,,合同会社,兵庫県,姫路市,飾西４６番地１,,28,201,6712216,,,,,,,2025-04-23,1,,,,,キンムギ,0
488,2150003003578,新規,0,2025-04-23,2025-04-23,合同会社Ｌｕｃｃｉ,,合同会社,奈良県,天理市,武蔵町５４０番地,,29,204,6320065,,,,,,,2025-04-23,1,,,,,ルッチ,0
492,2160001026712,新規,0,2025-04-23,2025-04-23,株式会社山本送電,,株式会社,滋賀県,大津市,坂本８丁目３番３号,,25,201,5200113,,,,,,,2025-04-23,1,,,,,ヤマモトソウデン,0
494,2170003002198,新規,0,2025-04-23,2025-04-23,合同会社フルーツキャット,,合同会社,和歌山県,和歌山市,金谷４９２,,30,201,6496274,,,,,,,2025-04-23,1,,,,,フルーツキャット,0
495,2180001166465,新規,0,2025-04-23,2025-04-23,株式会社ＥＸＴＨＡＮＸＩ,,株式会社,愛知県,春日井市,御幸町３丁目１番地１ダイナース御幸壱番館６０３号,,23,206,4860953,,,,,,,2025-04-23,1,,,,,エクスタンジ,0
496,2180001166498,新規,0,2025-04-23,2025-04-23,株式会社ＴＺＫ,,株式会社,愛知県,名古屋市中村区,黄金通７丁目２１番地の１,,23,105,4530804,,,,,,,2025-04-23,1,,,,,ティーズィーケー,0
497,2180001166515,新規,0,2025-04-23,2025-04-23,株式会社ユーアイ,,株式会社,愛知県,愛知郡東郷町,大字和合字北蚊谷２６２番地５,,23,302,4700153,,,,,,,2025-04-23,1,,,,,ユーアイ,0
498,2180001166523,新規,0,2025-04-23,2025-04-23,株式会社オールハート,,株式会社,愛知県,豊明市,新栄町７丁目１４７番地ガーデンプラザ新栄Ａ棟１０１号,,23,229,4701154,,,,,,,2025-04-23,1,,,,,オールハート,0
499,2180001166531,新規,0,2025-04-23,2025-04-23,株式会社バイモコーポレート,,株式会社,愛知県,名古屋市中区,松原３丁目４番２７号（ＳｃｕｄｅｔｔｏＭａｔｓｕｂａｒａ８０３号）,,23,106,4600017,,,,,,,2025-04-23,1,,,,,バイモコーポレート,0
503,2180003028366,新規,0,2025-04-23,2025-04-23,合同会社ＰＯＭ,,合同会社,愛知県,名古屋市昭和区,御器所４丁目４番３号（メイツ御器所２０８号）,,23,107,4660051,,,,,,,2025-04-23,1,,,,,ピーオーエム,0
504,2180005021071,新規,0,2025-04-23,2025-04-23,一般社団法人Ｌｅａｄ　ｏｎｅ,,その他の設立登記法人,愛知県,小牧市,大字三ツ渕５３６番地１０,,23,219,4850075,,,,,,,2025-04-23,1,,,,,リードワン,0
505,2180301039742,新規,0,2025-04-23,2025-04-23,Ｎｅｌｕｍ株式会社,,株式会社,愛知県,豊橋市,羽根井町１１１番地１,,23,201,4418025,,,,,,,2025-04-23,1,,,,,ネルム,0
506,2180301039750,新規,0,2025-04-23,2025-04-23,株式会社アイエス工業,,株式会社,愛知県,豊川市,市田町河尻６１番地２,,23,207,4420862,,,,,,,2025-04-23,1,,,,,アイエスコウギョウ,0
510,2200005013751,新規,0,2025-04-23,2025-04-23,特定非営利活動法人ＭＯＳＨＩＭＯＳＨＩ,,その他の設立登記法人,岐阜県,高山市,七日町１丁目５６番地１,,21,203,5060005,,,,,,,2025-04-23,1,,,,,モシモシ,0
514,2220005008956,新規,0,2025-04-23,2025-04-23,一般社団法人能登キリコ祭りＤＭＯ,,その他の設立登記法人,石川県,鳳珠郡能登町,字宇出津ラ５９,,17,463,9270433,,,,,,,2025-04-23,1,,,,,,0
516,2230001020864,新規,0,2025-04-23,2025-04-23,株式会社ＣＪ貿易,,株式会社,富山県,中新川郡立山町,浦田３８０番地,,16,323,9300208,,,,,,,2025-04-23,1,,,,,シージェイボウエキ,0
523,2240003007157,新規,0,2025-04-23,2025-04-23,合同会社３ｉｘ,,合同会社,広島県,福山市,延広町２番７号２Ｆ,,34,207,7200064,,,,,,,2025-04-23,1,,,,,ミックス,0
527,2260003005150,新規,0,2025-04-23,2025-04-23,合同会社スエルテ,,合同会社,岡山県,総社市,駅前１丁目４番３２号,,33,208,7191136,,,,,,,2025-04-23,1,,,,,スエルテ,0
529,2290001109727,新規,0,2025-04-23,2025-04-23,株式会社結,,株式会社,福岡県,大野城市,中３丁目６番４２号,,40,219,8160906,,,,,,,2025-04-23,1,,,,,ユウ,0
530,2290001109743,新規,0,2025-04-23,2025-04-23,株式会社Ｐｏｓｈ,,株式会社,福岡県,福岡市中央区,平尾１丁目２番１３号ミモザリバースクウェア薬院４０５号,,40,133,8100014,,,,,,,2025-04-23,1,,,,,ポッシュ,0
531,2290001109768,新規,0,2025-04-23,2025-04-23,株式会社シビルグローバルコネクト,,株式会社,福岡県,久留米市,東合川新町７番１９号,,40,203,8390808,,,,,,,2025-04-23,1,,,,,シビルグローバルコネクト,0
532,2290001109776,新規,0,2025-04-23,2025-04-23,ＳＫＹホールディングス株式会社,,株式会社,福岡県,糟屋郡粕屋町,戸原西３丁目１番２５号,,40,349,8112319,,,,,,,2025-04-23,1,,,,,エスケイワイホールディングス,0
533,2290001109801,新規,0,2025-04-23,2025-04-23,株式会社ｉｎｆｕｔｕｒｏ,,株式会社,福岡県,福岡市博多区,空港前５丁目１番５号,,40,132,8120002,,,,,,,2025-04-23,1,,,,,インフトゥーロ,0
535,2290801031477,新規,0,2025-04-23,2025-04-23,株式会社Ｓｉｏｒｉｃｈ,,株式会社,福岡県,北九州市八幡東区,大蔵３丁目２－１２,,40,108,8050048,,,,,,,2025-04-23,1,,,,,シオリッシュ,0
537,2290805009825,新規,0,2025-04-23,2025-04-23,一般社団法人滉美会,,その他の設立登記法人,福岡県,北九州市小倉北区,京町３丁目１０番２５号３階,,40,106,8020002,,,,,,,2025-04-23,1,,,,,コウビカイ,0
539,2300001014157,新規,0,2025-04-23,2025-04-23,小侍精米所株式会社,,株式会社,佐賀県,多久市,西多久町大字板屋２１２３番地２,,41,204,8460041,,,,,,,2025-04-23,1,,,,,コサムライセイマイショ,0
543,2330001033113,新規,0,2025-04-23,2025-04-23,株式会社ホン商屋,,株式会社,熊本県,八代市,高小原町１６３７番地２,,43,202,8660012,,,,,,,2025-04-23,1,,,,,ホンショウヤ,0
544,2330001033121,新規,0,2025-04-23,2025-04-23,株式会社マース・ベジ,,株式会社,熊本県,上益城郡益城町,大字宮園７８８番地,,43,443,8612241,,,,,,,2025-04-23,1,,,,,マースベジ,0
552,2360001035098,新規,0,2025-04-23,2025-04-23,株式会社ノウル南城,,株式会社,沖縄県,南城市,字つきしろ１６５４番地４,,47,215,9011407,,,,,,,2025-04-23,1,,,,,ノウルナンジョウ,0
564,2410003004087,新規,0,2025-04-23,2025-04-23,ナレジア合同会社,,合同会社,秋田県,大仙市,大曲船場町１丁目１３番１１－３号,,05,212,0140057,,,,,,,2025-04-23,1,,,,,ナレジア,0
569,2430001094228,新規,0,2025-04-23,2025-04-23,株式会社ＴＡＫＡＨＡＳＨＩ,,株式会社,北海道,空知郡南幌町,栄町１丁目２,,01,423,0690237,,,,,,,2025-04-23,1,,,,,タカハシ,0
570,2430001094252,新規,0,2025-04-23,2025-04-23,株式会社プルーフ,,株式会社,北海道,札幌市白石区,菊水元町二条５丁目５番２３号,,01,104,0030822,,,,,,,2025-04-23,1,,,,,プルーフ,0
571,2430001094269,新規,0,2025-04-23,2025-04-23,株式会社辰,,株式会社,北海道,札幌市厚別区,厚別中央一条６丁目３番１０－３００７号,,01,108,0040051,,,,,,,2025-04-23,1,,,,,シン,0
576,2460303000863,新規,0,2025-04-23,2025-04-23,ＢＡＢＡＲ　ＴＲＡＤＩＮＧ合同会社,,合同会社,北海道,網走郡美幌町,字新町２丁目７６,,01,543,0920015,,,,,,,2025-04-23,1,,,,,ババールトレーディング,0
577,2470001020683,新規,0,2025-04-23,2025-04-23,株式会社今吉社寺,,株式会社,香川県,綾歌郡宇多津町,大字東分１７４４番地１,,37,386,7690213,,,,,,,2025-04-23,1,,,,,イマヨシシャジ,0
579,2500001026256,新規,0,2025-04-23,2025-04-23,シルバーネクスト株式会社,,株式会社,愛媛県,今治市,馬越町３丁目３番５２号,,38,202,7940062,,,,,,,2025-04-23,1,,,,,シルバーネクスト,0
580,2500003003492,新規,0,2025-04-23,2025-04-23,からふる合同会社,,合同会社,愛媛県,大洲市,新谷町甲６９－８,,38,207,7950073,,,,,,,2025-04-23,1,,,,,カラフル,0
590,3010001254302,新規,0,2025-04-23,2025-04-23,Ｆｏｒｗａｒｄ　Ｅｎｅｒｇｙ株式会社,,株式会社,東京都,中央区,銀座１丁目２２番１１号銀座大竹ビジデンス２Ｆ,,13,102,1040061,,,,,,,2025-04-23,1,,,,,フォワードエナジー,0
591,3010001254426,新規,0,2025-04-23,2025-04-23,ＥｒａＣＡＮ株式会社,,株式会社,東京都,中央区,日本橋本町３丁目８－５日本橋ライフサイエンスビルディング５－２Ｆ,,13,102,1030023,,,,,,,2025-04-23,1,,,,,エラキャン,0
594,3010003047076,新規,0,2025-04-23,2025-04-23,合同会社渋谷三丁目,,合同会社,東京都,中央区,日本橋１丁目４番１号日本橋一丁目ビルディング,,13,102,1030027,,,,,,,2025-04-23,1,,,,,シブヤサンチョウメ,0
596,3010005039947,新規,0,2025-04-23,2025-04-23,一般社団法人日本社会人団体馬術連盟,,その他の設立登記法人,東京都,中央区,新川２丁目６番１６号馬事畜産会館内,,13,102,1040033,,,,,,,2025-04-23,1,,,,,ニホンシャカイジンダンタイバジュツレンメイ,0
599,3010101016643,新規,0,2025-04-23,2025-04-23,株式会社ＲＩＳＥ　ＣＲＡＦＴ,,株式会社,東京都,八王子市,大谷町５１２番地１３,,13,201,1920034,,,,,,,2025-04-23,1,,,,,ライズクラフト,0
601,3010103002559,新規,0,2025-04-23,2025-04-23,合同会社シルバー,,合同会社,東京都,八王子市,越野８－１４－２０３,,13,201,1920361,,,,,,,2025-04-23,1,,,,,シルバー,0
607,3010401189726,新規,0,2025-04-23,2025-04-23,ＧＬＯＲＡＫＵ株式会社,,株式会社,東京都,港区,南青山５丁目１７番２号,,13,103,1070062,,,,,,,2025-04-23,1,,,,,グロラク,0
608,3010401189899,新規,0,2025-04-23,2025-04-23,株式会社エイジス・ジャパン,,株式会社,東京都,港区,虎ノ門５丁目１１番１２号虎ノ門ＡＣＴビル４１０号室,,13,103,1050001,,,,,,,2025-04-23,1,,,,,エイジスジャパン,0
609,3010401189908,新規,0,2025-04-23,2025-04-23,株式会社ＳＴ　Ｍｏｂｉｌｅ,,株式会社,東京都,港区,芝浦３丁目１７番１１－１００８号,,13,103,1080023,,,,,,,2025-04-23,1,,,,,エスティーモバイル,0
612,3010503007785,新規,0,2025-04-23,2025-04-23,ＯＵＡ合同会社,,合同会社,東京都,台東区,上野６丁目１番６号御徒町グリーンハイツ１００５号,,13,106,1100005,,,,,,,2025-04-23,1,,,,,オーユーエー,0
613,3010601067178,新規,0,2025-04-23,2025-04-23,株式会社ＷｅｌｌＧｒｏＦｉｔ,,株式会社,東京都,江東区,森下２丁目２番５号森下駅前ビル２階,,13,108,1350004,,,,,,,2025-04-23,1,,,,,ウェルグロフィット,0
614,3010603011530,新規,0,2025-04-23,2025-04-23,彦景合同会社,,合同会社,東京都,墨田区,東向島３丁目２２番３号,,13,107,1310032,,,,,,,2025-04-23,1,,,,,ヒコケイ,0
616,3010701047591,新規,0,2025-04-23,2025-04-23,株式会社ナレッジホールディングス,,株式会社,東京都,品川区,大井６丁目１０番１号後町ビル２Ｆ,,13,109,1400014,,,,,,,2025-04-23,1,,,,,ナレッジホールディングス,0
620,3010801036065,新規,0,2025-04-23,2025-04-23,信創株式会社,,株式会社,東京都,大田区,西蒲田５丁目１２－８　阿久津ハイツ１０２号室,,13,111,1440051,,,,,,,2025-04-23,1,,,,,,0
621,3010801036073,新規,0,2025-04-23,2025-04-23,ｃａｎｖａｓ株式会社,,株式会社,東京都,大田区,久が原５丁目２７－３－３０９,,13,111,1460085,,,,,,,2025-04-23,1,,,,,キャンバス,0
641,3011001169110,新規,0,2025-04-23,2025-04-23,Ｂｅｓｍｉｌｅ　Ｇｒｏｕｐ株式会社,,株式会社,東京都,目黒区,下目黒５丁目７番７号,,13,110,1530064,,,,,,,2025-04-23,1,,,,,ビースマイルグループ,0
642,3011001169119,新規,0,2025-04-23,2025-04-23,ＡＥＣ株式会社,,株式会社,東京都,渋谷区,富ヶ谷１丁目１４番１４号４Ｆ,,13,113,1510063,,,,,,,2025-04-23,1,,,,,エーイーシー,0
643,3011001169201,新規,0,2025-04-23,2025-04-23,ウェブミックス株式会社,,株式会社,東京都,渋谷区,恵比寿西２丁目８番４号ＥＸ恵比寿西ビル５階,,13,113,1500021,,,,,,,2025-04-23,1,,,,,ウェブミックス,0
653,3011103015798,新規,0,2025-04-23,2025-04-23,未来リンク合同会社,,合同会社,東京都,新宿区,新宿７丁目２７－９リブレ東新宿２００８,,13,104,1600022,,,,,,,2025-04-23,1,,,,,ミライリンク,0
654,3011103015831,新規,0,2025-04-23,2025-04-23,合同会社サイドパートナー,,合同会社,東京都,新宿区,歌舞伎町２丁目２０－１７朝日新宿館２０１,,13,104,1600021,,,,,,,2025-04-23,1,,,,,サイドパートナー,0
655,3011105011408,新規,0,2025-04-23,2025-04-23,一般社団法人古武道会,,その他の設立登記法人,東京都,新宿区,市谷砂土原町２丁目１番地４－５１３,,13,104,1620842,,,,,,,2025-04-23,1,,,,,コブドウカイ,0
658,3011301030517,新規,0,2025-04-23,2025-04-23,株式会社Ａｓｉａ　Ｏｄｙｓｓｅｙ　Ｔｒａｖｅｌ　Ｊａｐａｎ,,株式会社,東京都,杉並区,高円寺南５丁目２２番１４号,,13,115,1660003,,,,,,,2025-04-23,1,,,,,アジアオデッセイトラベルジャパン,0
660,3011401027033,新規,0,2025-04-23,2025-04-23,ＡＲＫ株式会社,,株式会社,東京都,板橋区,大山西町５番１号,,13,119,1730033,,,,,,,2025-04-23,1,,,,,アーク,0
661,3011401027041,新規,0,2025-04-23,2025-04-23,ＩＳＳＨＩＮ　ＨＯＬＤＩＮＧＳ　ＪＡＰＡＮ株式会社,,株式会社,東京都,板橋区,中台１丁目５５番１０号,,13,119,1740064,,,,,,,2025-04-23,1,,,,,イッシンホールディングスジャパン,0
664,3011601028582,新規,0,2025-04-23,2025-04-23,ＤｉＤｉ株式会社,,株式会社,東京都,練馬区,東大泉４丁目４－１２,,13,120,1780063,,,,,,,2025-04-23,1,,,,,ディディ,0
666,3011701028276,新規,0,2025-04-23,2025-04-23,ＴＯＫＹＯ　ＰＨＯＥＮＩＸ　ＳＴＡＲＴＩＮＧ株式会社,,株式会社,東京都,江戸川区,東小松川４丁目１２番２９号,,13,123,1320033,,,,,,,2025-04-23,1,,,,,トウキョウフェニックススターティング,0
670,3012401043020,新規,0,2025-04-23,2025-04-23,株式会社ＯＳＯＴＯ,,株式会社,東京都,武蔵野市,吉祥寺本町３丁目２２番１６－２１１号吉祥寺タウンホーム,,13,203,1800004,,,,,,,2025-04-23,1,,,,,オソト,0
671,3012403007080,新規,0,2025-04-23,2025-04-23,合同会社ピーサン,,合同会社,東京都,武蔵野市,境南町２丁目１０番２１号,,13,203,1800023,,,,,,,2025-04-23,1,,,,,ピーサン,0
672,3012405005108,新規,0,2025-04-23,2025-04-23,一般社団法人全府中女子硬式野球倶楽部,,その他の設立登記法人,東京都,府中市,南町６丁目３６番地の２,,13,206,1830026,,,,,,,2025-04-23,1,,,,,オールフチュウジョシコウシキヤキュウクラブ,0
675,3013101009682,新規,0,2025-04-23,2025-04-23,株式会社伸和工業,,株式会社,東京都,西多摩郡瑞穂町,大字箱根ケ崎４９７番地８,,13,303,1901221,,,,,,,2025-04-23,1,,,,,シンワコウギョウ,0
679,3013301054116,新規,0,2025-04-23,2025-04-23,株式会社リトリート,,株式会社,東京都,豊島区,池袋２丁目６５番１号９０６号室,,13,116,1710014,,,,,,,2025-04-23,1,,,,,リトリート,0
680,3013301054124,新規,0,2025-04-23,2025-04-23,ミヤビテクノロジー株式会社,,株式会社,東京都,豊島区,東池袋２丁目６２番地８号ＢＩＧオフィスプラザ池袋１２０６,,13,116,1700013,,,,,,,2025-04-23,1,,,,,ミヤビテクノロジー,0
682,3013303007633,新規,0,2025-04-23,2025-04-23,合同会社ＴＡＹＬＥ,,合同会社,東京都,豊島区,目白４丁目３０－１３,,13,116,1710031,,,,,,,2025-04-23,1,,,,,テイル,0
687,3020001162512,新規,0,2025-04-23,2025-04-23,株式会社ＳＴＯＣＫ　ＬＡＮＤ,,株式会社,神奈川県,横浜市西区,久保町６－２６－４０１,,14,103,2200061,,,,,,,2025-04-23,1,,,,,ストックランド,0
688,3020001162529,新規,0,2025-04-23,2025-04-23,渡邉塗総株式会社,,株式会社,神奈川県,横浜市鶴見区,梶山２丁目６番５０－３号,,14,101,2300072,,,,,,,2025-04-23,1,,,,,ワタナベトソウ,0
693,3021001084993,新規,0,2025-04-23,2025-04-23,ラビットケア株式会社,,株式会社,神奈川県,茅ヶ崎市,円蔵２丁目６番４０,,14,207,2530084,,,,,,,2025-04-23,1,,,,,ラビットケア,0
694,3021001085042,新規,0,2025-04-23,2025-04-23,株式会社イシマル彫刻,,株式会社,神奈川県,平塚市,東八幡４丁目１番８号,,14,203,2540016,,,,,,,2025-04-23,1,,,,,イシマルチョウコク,0
695,3021001085050,新規,0,2025-04-23,2025-04-23,ＭｉｃｏＢｒｉｌｌｅｒ株式会社,,株式会社,神奈川県,海老名市,上郷１丁目１－１海老名マンション２０１,,14,215,2430434,,,,,,,2025-04-23,1,,,,,ミコブリエ,0
696,3021001085067,新規,0,2025-04-23,2025-04-23,Ｓｉｇｎ株式会社,,株式会社,神奈川県,相模原市中央区,下九沢１１５９番地１号,,14,152,2520254,,,,,,,2025-04-23,1,,,,,サイン,0
701,3030001166116,新規,0,2025-04-23,2025-04-23,株式会社ネクストワン,,株式会社,埼玉県,越谷市,大字増林６００７番地３,,11,222,3430011,,,,,,,2025-04-23,1,,,,,ネクストワン,0
702,3030001166132,新規,0,2025-04-23,2025-04-23,株式会社新美味,,株式会社,埼玉県,吉川市,大字吉川１５５８番地１,,11,243,3420055,,,,,,,2025-04-23,1,,,,,シンミミ,0
703,3030001166165,新規,0,2025-04-23,2025-04-23,株式会社ユニヴェスト不動産,,株式会社,埼玉県,所沢市,小手指町３丁目３１番２７,,11,208,3591141,,,,,,,2025-04-23,1,,,,,ユニヴェストフドウサン,0
704,3030001166173,新規,0,2025-04-23,2025-04-23,株式会社ベーネ,,株式会社,埼玉県,草加市,瀬崎１丁目９番１号谷塚コリーナ・ライオンズタワー谷塚３０１Ｃ,,11,221,3400022,,,,,,,2025-04-23,1,,,,,ベーネ,0
705,3030001166198,新規,0,2025-04-23,2025-04-23,株式会社オフィス九十九,,株式会社,埼玉県,川口市,東領家１丁目２番７号,,11,203,3320003,,,,,,,2025-04-23,1,,,,,オフィスツクモ,0
710,3040001138295,新規,0,2025-04-23,2025-04-23,株式会社ＲＡＲ,,株式会社,千葉県,千葉市中央区,中央４丁目１０番地８コーケンボイス千葉中央６０１,,12,101,2600013,,,,,,,2025-04-23,1,,,,,アールエーアール,0
713,3040003027389,新規,0,2025-04-23,2025-04-23,Ｄｉｎｉｎｇ　Ｋ合同会社,,合同会社,千葉県,松戸市,小金原６丁目５番地の１０福岡書店ビル１階,,12,207,2700021,,,,,,,2025-04-23,1,,,,,ダイニングケー,0
716,3050001056570,新規,0,2025-04-23,2025-04-23,株式会社テリア,,株式会社,茨城県,つくばみらい市,陽光台２丁目１－９５,,08,235,3002358,,,,,,,2025-04-23,1,,,,,テリア,0
717,3050001056579,新規,0,2025-04-23,2025-04-23,株式会社アールゲイン,,株式会社,茨城県,つくば市,学園南２丁目２番地７レーベンつくば研究学園７０２号,,08,220,3050818,,,,,,,2025-04-23,1,,,,,アールゲイン,0
718,3050003009221,新規,0,2025-04-23,2025-04-23,合同会社グロウアップ,,合同会社,茨城県,笠間市,大古山５２８番地３８,,08,216,3091724,,,,,,,2025-04-23,1,,,,,グロウアップ,0
725,3070001042874,新規,0,2025-04-23,2025-04-23,ミノラスライフデザイン株式会社,,株式会社,群馬県,高崎市,新町３０２４番地４,,10,202,3701301,,,,,,,2025-04-23,1,,,,,ミノラスライフデザイン,0
727,3080001026892,新規,0,2025-04-23,2025-04-23,株式会社アーキラボ・ステラ,,株式会社,静岡県,藤枝市,清里１丁目２７番地の１６,,22,214,4260223,,,,,,,2025-04-23,1,,,,,アーキラボステラ,0
728,3080103003303,新規,0,2025-04-23,2025-04-23,合同会社ＳＥＲＩＺＡＷＡ．ＦＯＯＤ．ＣＯＭＰＡＮＹ,,合同会社,静岡県,御殿場市,二の岡１丁目７番２２号Ａ１０１,,22,215,4120025,,,,,,,2025-04-23,1,,,,,セリザワフードカンパニー,0
738,3120001274818,新規,0,2025-04-23,2025-04-23,勝威株式会社,,株式会社,大阪府,大阪市東住吉区,湯里２丁目１４番２６－２０３号,,27,121,5460013,,,,,,,2025-04-23,1,,,,,カムイ,0
764,3140001138260,新規,0,2025-04-23,2025-04-23,株式会社ｋａｆｕｕ,,株式会社,兵庫県,尼崎市,杭瀬本町２丁目１－３,,28,202,6600814,,,,,,,2025-04-23,1,,,,,カフウ,0
773,3140005027492,新規,0,2025-04-23,2025-04-23,医療法人社団鳳凰会,,その他の設立登記法人,兵庫県,伊丹市,西台１丁目８番１７号,,28,207,6640858,,,,,,,2025-04-23,1,,,,,ホウオウカイ,0
774,3150003003577,新規,0,2025-04-23,2025-04-23,優新興業合同会社,,合同会社,奈良県,磯城郡田原本町,３６８－１,,29,363,6360300,,,,,,,2025-04-23,1,,,,,ユウシンコウギョウ,0
775,3150005009688,新規,0,2025-04-23,2025-04-23,一般社団法人ＣＯＴＯＩＫＵ,,その他の設立登記法人,奈良県,生駒市,鹿畑町６２番地４、２０１号室,,29,209,6300115,,,,,,,2025-04-23,1,,,,,コトイク,0
776,3160001026703,新規,0,2025-04-23,2025-04-23,株式会社ヘッドオン,,株式会社,滋賀県,東近江市,今町字中河原１３９６番地７,,25,213,5211211,,,,,,,2025-04-23,1,,,,,ヘッドオン,0
780,3170003002197,新規,0,2025-04-23,2025-04-23,合同会社ＢＡＮＲＩ,,合同会社,和歌山県,有田郡有田川町,大字徳田１３６３番地美・グレイス２０１,,30,366,6430801,,,,,,,2025-04-23,1,,,,,バンリ,0
782,3180001166480,新規,0,2025-04-23,2025-04-23,Ｍｓｔｙｌｅ株式会社,,株式会社,愛知県,稲沢市,一色川俣町１４１番地３,,23,220,4928366,,,,,,,2025-04-23,1,,,,,エムスタイル,0
783,3180001166514,新規,0,2025-04-23,2025-04-23,株式会社水設,,株式会社,愛知県,弥富市,平島町甲新田５５番地８,,23,235,4980031,,,,,,,2025-04-23,1,,,,,スイセツ,0
784,3180001166539,新規,0,2025-04-23,2025-04-23,株式会社とうまランドサーベイ,,株式会社,愛知県,名古屋市港区,九番町５丁目３番地の１,,23,111,4550008,,,,,,,2025-04-23,1,,,,,トウマランドサーベイ,0
786,3180003028373,新規,0,2025-04-23,2025-04-23,合同会社燈弥,,合同会社,愛知県,名古屋市中川区,万場１丁目３０１－３,,23,110,4540997,,,,,,,2025-04-23,1,,,,,トウヤ,0
787,3180003028381,新規,0,2025-04-23,2025-04-23,合同会社Ｔ．Ｂ．Ｋｎｅｅｓ,,合同会社,愛知県,名古屋市中川区,中野新町５丁目５１番地アクティブ小塚Ｃ号,,23,110,4540837,,,,,,,2025-04-23,1,,,,,ティービーニーズ,0
800,3200001043669,新規,0,2025-04-23,2025-04-23,ギルドジャパン株式会社,,株式会社,岐阜県,羽島市,福寿町浅平２２１番地１グリーンマンション５０２号室,,21,209,5016255,,,,,,,2025-04-23,1,,,,,ギルドジャパン,0
801,3220003004015,新規,0,2025-04-23,2025-04-23,合同会社登路,,合同会社,石川県,野々市市,郷２丁目１０８番地,,17,212,9218849,,,,,,,2025-04-23,1,,,,,トロ,0
802,3220005008955,新規,0,2025-04-23,2025-04-23,医療法人社団はんだ整形外科クリニック,,その他の設立登記法人,石川県,金沢市,出雲町イ２２０番地,,17,201,9200056,,,,,,,2025-04-23,1,,,,,ハンダセイケイゲカクリニック,0
803,3230001020863,新規,0,2025-04-23,2025-04-23,株式会社ｐｓｍｌ,,株式会社,富山県,滑川市,東金屋１４６番地,,16,206,9360837,,,,,,,2025-04-23,1,,,,,ピーエスエムエル,0
810,3240001064835,新規,0,2025-04-23,2025-04-23,株式会社スターブリッジ,,株式会社,広島県,広島市安佐南区,伴南５丁目３番９号,,34,105,7313168,,,,,,,2025-04-23,1,,,,,スターブリッジ,0
821,3290001109726,新規,0,2025-04-23,2025-04-23,株式会社ユース,,株式会社,福岡県,大牟田市,中友町１番地８カーサ大牟田駅西５０７号,,40,202,8360025,,,,,,,2025-04-23,1,,,,,ユース,0
822,3290001109775,新規,0,2025-04-23,2025-04-23,ボルン株式会社,,株式会社,福岡県,福岡市博多区,博多駅前１丁目２３番２号ＰａｒｋＦｒｏｎｔ博多駅前１丁目５Ｆ－Ｂ,,40,132,8120011,,,,,,,2025-04-23,1,,,,,ボルン,0
823,3290001109817,新規,0,2025-04-23,2025-04-23,株式会社朝倉調査事務所,,株式会社,福岡県,朝倉郡筑前町,四三嶋１１３５番地６,,40,447,8380212,,,,,,,2025-04-23,1,,,,,,0
824,3290003016706,新規,0,2025-04-23,2025-04-23,合同会社みどりのみち,,合同会社,福岡県,福岡市博多区,青木１丁目１６番１９－５号,,40,132,8120851,,,,,,,2025-04-23,1,,,,,ミドリノミチ,0
825,3290003016714,新規,0,2025-04-23,2025-04-23,合同会社茶白,,合同会社,福岡県,福岡市南区,三宅３丁目３０－３権藤ビル１０１,,40,134,8111344,,,,,,,2025-04-23,1,,,,,チャシロ,0
826,3290003016747,新規,0,2025-04-23,2025-04-23,合同会社ケアプランあさがお,,合同会社,福岡県,福岡市西区,野方３丁目４９番８号,,40,135,8190043,,,,,,,2025-04-23,1,,,,,ケアプランアサガオ,0
833,3310001019567,新規,0,2025-04-23,2025-04-23,久保メタル株式会社,,株式会社,長崎県,長崎市,小浦町２０番地,,42,201,8500067,,,,,,,2025-04-23,1,,,,,クボメタル,0
838,3350001019497,新規,0,2025-04-23,2025-04-23,株式会社ＶＯＩＣＥ　ｌａｂ．,,株式会社,宮崎県,宮崎市,田代町７５番地テクノロジーズビル５階,,45,201,8800855,,,,,,,2025-04-23,1,,,,,ボイスラボ,0
843,3370001052496,新規,0,2025-04-23,2025-04-23,みやぎ蔵王苺農園株式会社,,株式会社,宮城県,刈田郡蔵王町,大字平沢字山の入前１４５番地,,04,301,9890831,,,,,,,2025-04-23,1,,,,,ミヤギザオウイチゴノウエン,0
844,3370001052505,新規,0,2025-04-23,2025-04-23,株式会社向陽測量設計,,株式会社,宮城県,大崎市,古川李埣１丁目１番２７号ＦＫビル２０２号,,04,215,9896116,,,,,,,2025-04-23,1,,,,,コウヨウソクリョウセッケイ,0
846,3370003007060,新規,0,2025-04-23,2025-04-23,エリーズニューヨーク合同会社,,合同会社,宮城県,岩沼市,土ケ崎３丁目７番２１－１号,,04,211,9892451,,,,,,,2025-04-23,1,,,,,エリーズニューヨーク,0
867,3430003017508,新規,0,2025-04-23,2025-04-23,合同会社ＳＫ．ｃｏｎｓｕｌｔｉｎｇ,,合同会社,北海道,小樽市,色内２丁目１１番１号,,01,203,0470031,,,,,,,2025-04-23,1,,,,,エスケーコンサルティング,0
868,3430003017557,新規,0,2025-04-23,2025-04-23,合同会社ＣＯＲ,,合同会社,北海道,札幌市白石区,平和通１２丁目北３番１１号,,01,104,0030029,,,,,,,2025-04-23,1,,,,,コール,0
869,3430003017565,新規,0,2025-04-23,2025-04-23,阿部プレシジョンオプティクス合同会社,,合同会社,北海道,札幌市厚別区,もみじ台西７丁目９番１２号,,01,108,0040013,,,,,,,2025-04-23,1,,,,,アベプレシジョンオプティクス,0
870,3430003017573,新規,0,2025-04-23,2025-04-23,合同会社よつば警備,,合同会社,北海道,石狩市,花川南三条３丁目６１番地,,01,235,0613203,,,,,,,2025-04-23,1,,,,,ヨツバケイビ,0
875,3450001014604,新規,0,2025-04-23,2025-04-23,株式会社Ｌｉｎｋ,,株式会社,北海道,旭川市,末広七条１丁目１番１４号,,01,204,0718137,,,,,,,2025-04-23,1,,,,,リンク,0
881,3480005007080,新規,0,2025-04-23,2025-04-23,一般社団法人高大院接続支援機構,,その他の設立登記法人,徳島県,徳島市,沖浜東１丁目５番地第２コーポＨＡＭＡＤＡ６Ｇ号室,,36,201,7708053,,,,,,,2025-04-23,1,,,,,コウダイインセツゾクシエンキコウ,0
884,3500001026255,新規,0,2025-04-23,2025-04-23,株式会社Ｈａｃｈｉ,,株式会社,愛媛県,新居浜市,滝の宮町５番６号,,38,205,7920034,,,,,,,2025-04-23,1,,,,,ハチ,0
885,3500003003491,新規,0,2025-04-23,2025-04-23,Ｌｉｇｈｔｓ合同会社,,合同会社,愛媛県,松山市,新石手甲２２７番地６,,38,201,7900901,,,,,,,2025-04-23,1,,,,,ライツ,0
894,4010001254425,新規,0,2025-04-23,2025-04-23,サノダインセラピューティクス株式会社,,株式会社,東京都,中央区,日本橋室町３丁目２番１号日本橋室町三井タワー７階,,13,102,1030022,,,,,,,2025-04-23,1,,,,,サノダインセラピューティクス,0
895,4010001254433,新規,0,2025-04-23,2025-04-23,株式会社ＴＯＴＴ,,株式会社,東京都,千代田区,神田三崎町３丁目４番２号,,13,101,1010061,,,,,,,2025-04-23,1,,,,,トット,0
896,4010001254441,新規,0,2025-04-23,2025-04-23,株式会社日本フレグランス,,株式会社,東京都,千代田区,四番町９番地６四番町プラザ６０４号,,13,101,1020081,,,,,,,2025-04-23,1,,,,,ニホンフレグランス,0
898,4010003047091,新規,0,2025-04-23,2025-04-23,合同会社ネクシード,,合同会社,東京都,千代田区,岩本町３丁目２番１号ビリーフ岩本町１０Ｆ,,13,101,1010032,,,,,,,2025-04-23,1,,,,,ネクシード,0
899,4010003047141,新規,0,2025-04-23,2025-04-23,ＪＰファームズ合同会社,,合同会社,東京都,中央区,日本橋室町１丁目１１番１２号日本橋水野ビル７階,,13,102,1030022,,,,,,,2025-04-23,1,,,,,ジェイピーファームズ,0
900,4010005039954,新規,0,2025-04-23,2025-04-23,一般社団法人丸の内地下広場マネジメント,,その他の設立登記法人,東京都,千代田区,大手町２丁目３番１号,,13,101,1000004,,,,,,,2025-04-23,1,,,,,マルノウチチカヒロバマネジメント,0
906,4010103002558,新規,0,2025-04-23,2025-04-23,ＤａＦａ合同会社,,合同会社,東京都,八王子市,子安町１丁目４８番９号２０２室,,13,201,1920904,,,,,,,2025-04-23,1,,,,,ダーファー,0
908,4010401189758,新規,0,2025-04-23,2025-04-23,株式会社ＣＳＧ　ＪＡＰＡＮ,,株式会社,東京都,港区,海岸１丁目１６番１号,,13,103,1050022,,,,,,,2025-04-23,1,,,,,シーエスジージャパン,0
909,4010403034862,新規,0,2025-04-23,2025-04-23,マハロ合同会社,,合同会社,東京都,港区,浜松町２丁目２－１５浜松町ダイヤビル２Ｆ,,13,103,1050013,,,,,,,2025-04-23,1,,,,,マハロ,0
910,4010405024275,新規,0,2025-04-23,2025-04-23,一般財団法人大竹伸朗アーカイブ,,その他の設立登記法人,東京都,港区,東麻布２丁目１４番８号３Ｆ,,13,103,1060044,,,,,,,2025-04-23,1,,,,,オオタケシンロウアーカイブ,0
911,4010405024358,新規,0,2025-04-23,2025-04-23,一般社団法人カーボンニュートラル,,その他の設立登記法人,東京都,港区,南青山４丁目２１番２６号リュエル青山Ｃ棟Ｂ１細谷総合会計事務所内,,13,103,1070062,,,,,,,2025-04-23,1,,,,,カーボンニュートラル,0
922,4010601067193,新規,0,2025-04-23,2025-04-23,楽意学株式会社,,株式会社,東京都,墨田区,墨田５丁目４０番１６－２０１号,,13,107,1310031,,,,,,,2025-04-23,1,,,,,ラクイガク,0
926,4010605004449,新規,0,2025-04-23,2025-04-23,税理士法人中小企業経営,,その他の設立登記法人,東京都,江東区,深川１丁目３－１１パークフロントビル６Ｆ,,13,108,1350033,,,,,,,2025-04-23,1,,,,,チュウショウキギョウケイエイ,0
929,4010701047582,新規,0,2025-04-23,2025-04-23,株式会社Ｔａｌｋｌｅ,,株式会社,東京都,品川区,大井６丁目２１‐１１,,13,109,1400014,,,,,,,2025-04-23,1,,,,,トークル,0
930,4010701047599,新規,0,2025-04-23,2025-04-23,管地株式会社,,株式会社,東京都,品川区,小山３丁目１５番２号パークシティ武蔵小山ザタワー１８１３,,13,109,1420062,,,,,,,2025-04-23,1,,,,,カンチ,0
931,4010703007683,新規,0,2025-04-23,2025-04-23,合同会社ＮＹ　ＴＯＫＹＯ,,合同会社,東京都,品川区,小山３丁目８番１９号,,13,109,1420062,,,,,,,2025-04-23,1,,,,,エヌワイトウキョウ,0
933,4010901057233,新規,0,2025-04-23,2025-04-23,日本セラミックス株式会社,,株式会社,東京都,世田谷区,代田３丁目４９番７号,,13,112,1550033,,,,,,,2025-04-23,1,,,,,ニホンセラミックス,0
937,4011001169101,新規,0,2025-04-23,2025-04-23,株式会社ケージー・プラス,,株式会社,東京都,渋谷区,道玄坂１丁目１０番８号渋谷道玄坂東急ビル２Ｆ－Ｃ,,13,113,1500043,,,,,,,2025-04-23,1,,,,,ケージープラス,0
939,4011003021433,新規,0,2025-04-23,2025-04-23,Ｓｔａｎｄａｒｄ　Ｌａｂ合同会社,,合同会社,東京都,渋谷区,神宮前６丁目２３番４号桑野ビル２階,,13,113,1500001,,,,,,,2025-04-23,1,,,,,スタンダードラボ,0
940,4011003021441,新規,0,2025-04-23,2025-04-23,合同会社ニギヤカシ,,合同会社,東京都,目黒区,平町２丁目３番２２号フラット平町２Ｆ,,13,110,1520032,,,,,,,2025-04-23,1,,,,,ニギヤカシ,0
941,4011003021458,新規,0,2025-04-23,2025-04-23,合同会社ＡＣＥ,,合同会社,東京都,目黒区,自由が丘２丁目１６番１２号ＲＪ３,,13,110,1520035,,,,,,,2025-04-23,1,,,,,エース,0
949,4011101111466,新規,0,2025-04-23,2025-04-23,株式会社Ｅ　ＳＰＡＣＥ,,株式会社,東京都,新宿区,高田馬場２丁目８番２号Ｂ１,,13,104,1690075,,,,,,,2025-04-23,1,,,,,イースペース,0
950,4011103015830,新規,0,2025-04-23,2025-04-23,合同会社ランウェイ,,合同会社,東京都,新宿区,四谷三栄町１１－１５－１１０４,,13,104,1600008,,,,,,,2025-04-23,1,,,,,ランウェイ,0
959,4011701028275,新規,0,2025-04-23,2025-04-23,安宇株式会社,,株式会社,東京都,江戸川区,西小岩５丁目１２－１６ＫＵＲＡＳＳＫＯＩＷＡ１Ｃ号室,,13,123,1330057,,,,,,,2025-04-23,1,,,,,アンウ,0
963,4012301014351,新規,0,2025-04-23,2025-04-23,株式会社喜明楽,,株式会社,東京都,町田市,金森１丁目１８番２０号,,13,209,1940012,,,,,,,2025-04-23,1,,,,,キアラ,0
965,4012401042970,新規,0,2025-04-23,2025-04-23,株式会社ｃｏｎ‐ｓｙｎ,,株式会社,東京都,三鷹市,井口４丁目８－５,,13,204,1810011,,,,,,,2025-04-23,1,,,,,コンシン,0
966,4012401043011,新規,0,2025-04-23,2025-04-23,株式会社パレットデイズ,,株式会社,東京都,三鷹市,大沢３丁目２番２０号,,13,204,1810015,,,,,,,2025-04-23,1,,,,,パレットデイズ,0
970,4012403007088,新規,0,2025-04-23,2025-04-23,合同会社東京財管,,合同会社,東京都,狛江市,岩戸北４丁目１０番１３号ＫＩＴＡＭＩＦＬＡＴＰＡＲＴ１、２０１号室,,13,219,2010004,,,,,,,2025-04-23,1,,,,,トウキョウザイカン,0
971,4012405005107,新規,0,2025-04-23,2025-04-23,行政書士法人おひとりさまサポート,,その他の設立登記法人,東京都,多摩市,永山２丁目２３番地の３７,,13,224,2060025,,,,,,,2025-04-23,1,,,,,オヒトリサマサポート,0
973,4012803003711,新規,0,2025-04-23,2025-04-23,ＪＣＴ合同会社,,合同会社,東京都,国分寺市,戸倉４丁目６番地３６,,13,214,1850003,,,,,,,2025-04-23,1,,,,,ジェーシーティー,0
981,4020001162445,新規,0,2025-04-23,2025-04-23,松達情報技術株式会社,,株式会社,神奈川県,川崎市川崎区,小田１丁目１５番５－４１０レーベン川崎小田一丁目,,14,131,2100846,,,,,,,2025-04-23,1,,,,,マツダツジョウホウギジュツ,0
982,4020001162511,新規,0,2025-04-23,2025-04-23,株式会社荻原綜合調査研究所,,株式会社,神奈川県,横浜市鶴見区,鶴見中央２丁目２番２３号,,14,101,2300051,,,,,,,2025-04-23,1,,,,,オギワラソウゴウチョウサケンキュウジョ,0
983,4020001162544,新規,0,2025-04-23,2025-04-23,株式会社海横商事,,株式会社,神奈川県,横浜市中区,長者町２丁目５番５号８０４室,,14,104,2310033,,,,,,,2025-04-23,1,,,,,カイオウショウジ,0
985,4020003028339,新規,0,2025-04-23,2025-04-23,ＴＡＫＡＫＵ合同会社,,合同会社,神奈川県,川崎市多摩区,堰２丁目２－１６－４０７,,14,135,2140022,,,,,,,2025-04-23,1,,,,,タカク,0
991,4021001084984,新規,0,2025-04-23,2025-04-23,ＪＡＰＡＮ　ＳＡ　ＡＵＴＯ　ＴＲＡＤＩＮＧ株式会社,,株式会社,神奈川県,伊勢原市,大住台１丁目１２番地２,,14,214,2591105,,,,,,,2025-04-23,1,,,,,ジャパンエスエーオートトレーディング,0
992,4021001085041,新規,0,2025-04-23,2025-04-23,株式会社ＺＮホールディングス,,株式会社,神奈川県,藤沢市,亀井野３９３番地の４ハウスＫ１０１,,14,205,2520813,,,,,,,2025-04-23,1,,,,,ゼットエヌホールディングス,0
995,4021005013353,新規,0,2025-04-23,2025-04-23,特定非営利活動法人はらぺこ賄い食堂,,その他の設立登記法人,神奈川県,伊勢原市,下糟屋１３１２番地,,14,214,2591143,,,,,,,2025-04-23,1,,,,,ハラペコマカナイショクドウ,0
1004,4030001166131,新規,0,2025-04-23,2025-04-23,株式会社ＡＮＣＨＯＲＡｇｅ,,株式会社,埼玉県,さいたま市北区,東大成町１丁目５８４番地アイマウスビル３０１号,,11,102,3310814,,,,,,,2025-04-23,1,,,,,アンカレッジ,0
1005,4030001166148,新規,0,2025-04-23,2025-04-23,株式会社ＢＡＳＥアグリさいたま,,株式会社,埼玉県,熊谷市,妻沼３２８番地３,,11,202,3600201,,,,,,,2025-04-23,1,,,,,ベースアグリサイタマ,0
1006,4030001166180,新規,0,2025-04-23,2025-04-23,株式会社エーワイ,,株式会社,埼玉県,鴻巣市,小松３丁目１０－２０,,11,217,3650041,,,,,,,2025-04-23,1,,,,,エーワイ,0
1016,4030003026630,新規,0,2025-04-23,2025-04-23,合同会社ＦＵＷＡＲＩ,,合同会社,埼玉県,朝霞市,岡１丁目２０番２４号シアン・フィデール２０１,,11,227,3510007,,,,,,,2025-04-23,1,,,,,フワリ,0
1023,4070001042873,新規,0,2025-04-23,2025-04-23,ＤＮＺＣ株式会社,,株式会社,群馬県,前橋市,前箱田町３８７－１,,10,201,3710835,,,,,,,2025-04-23,1,,,,,ディーエヌゼットシー,0
1024,4080001026891,新規,0,2025-04-23,2025-04-23,ＭＲＭ株式会社,,株式会社,静岡県,静岡市清水区,上清水町３番１９号,,22,103,4240835,,,,,,,2025-04-23,1,,,,,エムアールエム,0
1031,4100005013339,新規,0,2025-04-23,2025-04-23,一般社団法人事業用畳支援協会,,その他の設立登記法人,長野県,岡谷市,今井１７８０番地１,,20,204,3940001,,,,,,,2025-04-23,1,,,,,ジギョウヨウタタミシエンキョウカイ,0
1038,4120001274775,新規,0,2025-04-23,2025-04-23,下地経営株式会社,,株式会社,大阪府,大阪市北区,曾根崎１丁目７番２号曽根崎ＦＵＫＵＥビル１０３,,27,127,5300057,,,,,,,2025-04-23,1,,,,,シモジケイエイ,0
1039,4120001274783,新規,0,2025-04-23,2025-04-23,未来開発株式会社,,株式会社,大阪府,大阪市中央区,北久宝寺町１丁目５－６堺筋本町アーバンライフ７１６,,27,128,5410057,,,,,,,2025-04-23,1,,,,,ミライカイハツ,0
1043,4120003029161,新規,0,2025-04-23,2025-04-23,Ｏｓａｋａｃｏｎｎｅｃｔｄｏｔｃｏｍ合同会社,,合同会社,大阪府,大阪市西区,江戸堀２丁目１番１号江戸堀センタービル９階,,27,106,5500002,,,,,,,2025-04-23,1,,,,,オオサカコネクトドットコム,0
1053,4122003003179,新規,0,2025-04-23,2025-04-23,合同会社Ｔ＆Ｒ,,合同会社,大阪府,東大阪市,西堤本通東３丁目２番９号,,27,227,5770045,,,,,,,2025-04-23,1,,,,,ティーアンドアール,0
1062,4130001079488,新規,0,2025-04-23,2025-04-23,株式会社ＮＥＯ　ＴＲＵＳＴ,,株式会社,京都府,京都市伏見区,川東町１４番地３丹波橋日光ハイツ１１０２号,,26,109,6128375,,,,,,,2025-04-23,1,,,,,ネオトラスト,0
1068,4140001138251,新規,0,2025-04-23,2025-04-23,稲津電工株式会社,,株式会社,兵庫県,神戸市長田区,明泉寺町２丁目１番１７－４０１号,,28,106,6530884,,,,,,,2025-04-23,1,,,,,イナツデンコウ,0
1071,4140003021901,新規,0,2025-04-23,2025-04-23,バンブー合同会社,,合同会社,兵庫県,神戸市中央区,元町通６丁目１番８号,,28,110,6500022,,,,,,,2025-04-23,1,,,,,バンブー,0
1073,4140005027491,新規,0,2025-04-23,2025-04-23,医療法人社団泰仁会,,その他の設立登記法人,兵庫県,西宮市,上田中町１７－２６,,28,204,6638134,,,,,,,2025-04-23,1,,,,,タイジンカイ,0
1075,4150001028055,新規,0,2025-04-23,2025-04-23,Ｔ．Ｔ株式会社,,株式会社,奈良県,大和高田市,大字出９１番地７,,29,202,6350043,,,,,,,2025-04-23,1,,,,,ティーティー,0
1076,4150003003576,新規,0,2025-04-23,2025-04-23,のちはれ合同会社,,合同会社,奈良県,奈良市,三条町４７５松田ビル２Ｆ・ＹＡＭＡＴＯＢＡＳＥ,,29,201,6308244,,,,,,,2025-04-23,1,,,,,ノチハレ,0
1081,4160001026702,新規,0,2025-04-23,2025-04-23,株式会社ＷＤＰホールディングス,,株式会社,滋賀県,大津市,萱野浦１６番１号,,25,201,5202143,,,,,,,2025-04-23,1,,,,,ダブリュディーピーホールディングス,0
1084,4160005011403,新規,0,2025-04-23,2025-04-23,一般社団法人日本ホツマツタヱ協会,,その他の設立登記法人,滋賀県,高島市,今津町中沼１丁目１番地７,,25,212,5201622,,,,,,,2025-04-23,1,,,,,ホツマツタヱキョウカイ,0
1087,4180001166447,新規,0,2025-04-23,2025-04-23,株式会社ＧＯパワー,,株式会社,愛知県,名古屋市緑区,上旭２丁目１２２６番地,,23,114,4580016,,,,,,,2025-04-23,1,,,,,ゴーパワー,0
1088,4180001166496,新規,0,2025-04-23,2025-04-23,株式会社ＯＡＫ　ｆｏｒｅｓｔ,,株式会社,愛知県,半田市,清城町３丁目２番地の６,,23,205,4750917,,,,,,,2025-04-23,1,,,,,オークフォレスト,0
1089,4180001166505,新規,0,2025-04-23,2025-04-23,株式会社Ｃ．Ｐ．,,株式会社,愛知県,名古屋市中区,栄４丁目１２番６号ロイヤルビル栄４階Ａ,,23,106,4600008,,,,,,,2025-04-23,1,,,,,シーピー,0
1090,4180001166521,新規,0,2025-04-23,2025-04-23,株式会社Ｓｈｉｎｅ,,株式会社,愛知県,小牧市,大字小松寺１１１８番地２４３,,23,219,4850828,,,,,,,2025-04-23,1,,,,,シャイン,0
1091,4180001166538,新規,0,2025-04-23,2025-04-23,株式会社セキュアライン,,株式会社,愛知県,弥富市,平島町北広畑１１番地９,,23,235,4980031,,,,,,,2025-04-23,1,,,,,セキュアライン,0
1092,4180003028372,新規,0,2025-04-23,2025-04-23,合同会社スキルシンク,,合同会社,愛知県,半田市,天神町５３番地の４,,23,205,4750921,,,,,,,2025-04-23,1,,,,,スキルシンク,0
1096,4180301039732,新規,0,2025-04-23,2025-04-23,＿森貿易株式会社,00138873,株式会社,愛知県,豊橋市,菰口町５丁目４６番地３,,23,201,4418011,,,,,,,2025-04-23,1,,,,,ホウシンボウエキ,0
1101,4200005013758,新規,0,2025-04-23,2025-04-23,特定非営利活動法人スリーピース,,その他の設立登記法人,岐阜県,可児市,中恵土２０６８番地１,,21,214,5090202,,,,,,,2025-04-23,1,,,,,スリーピース,0
1104,4220005008954,新規,0,2025-04-23,2025-04-23,医療法人社団長歯科医院,,その他の設立登記法人,石川県,小松市,平面町カ１８６番の１,,17,203,9230036,,,,,,,2025-04-23,1,,,,,チョウシカイイン,0
1110,4240003007139,新規,0,2025-04-23,2025-04-23,合同会社Ｔａｐ＆Ｓｍｉｌｅ,,合同会社,広島県,広島市東区,温品２丁目１－１,,34,102,7320033,,,,,,,2025-04-23,1,,,,,タップアンドスマイル,0
1111,4250001021082,新規,0,2025-04-23,2025-04-23,株式会社竹伸,,株式会社,山口県,下関市,大字石原１７５番地６シャーメゾン石原２０３号,,35,201,7510886,,,,,,,2025-04-23,1,,,,,タケシン,0
1116,4260005011475,新規,0,2025-04-23,2025-04-23,一般社団法人ともえ,,その他の設立登記法人,岡山県,美作市,湯郷３２３－１,,33,215,7070062,,,,,,,2025-04-23,1,,,,,トモエ,0
1119,4280001009414,新規,0,2025-04-23,2025-04-23,株式会社Ｕｉ,,株式会社,島根県,出雲市,今市町８２２番地１０－２０１,,32,203,6930001,,,,,,,2025-04-23,1,,,,,ユイ,0
1123,4290001109601,新規,0,2025-04-23,2025-04-23,イークロノス株式会社,,株式会社,福岡県,福岡市城南区,友丘１丁目７番１号,,40,136,8140112,,,,,,,2025-04-23,1,,,,,イークロノス,0
1124,4290001109717,新規,0,2025-04-23,2025-04-23,ＷＩＮ　ＷＩＮ　ＧＲＯＵＰ株式会社,,株式会社,福岡県,福岡市東区,香住ヶ丘２丁目２番８号,,40,131,8130003,,,,,,,2025-04-23,1,,,,,ウィンウィングループ,0
1125,4290001109758,新規,0,2025-04-23,2025-04-23,株式会社ゴマアーキテクツ一級建築士事務所,,株式会社,福岡県,福岡市南区,大楠２丁目１２番３２号,,40,134,8150082,,,,,,,2025-04-23,1,,,,,ゴマアーキテクツイッキュウケンチクシジムショ,0
1126,4290001109782,新規,0,2025-04-23,2025-04-23,株式会社ＶＥＲＩＴＡ,,株式会社,福岡県,福岡市博多区,博多駅前１丁目２３番１号ＰａｒｋＦｒｏｎｔ博多駅前一丁目５Ｆ－Ｂ,,40,132,8120011,,,,,,,2025-04-23,1,,,,,ヴェリタ,0
1127,4290001109824,新規,0,2025-04-23,2025-04-23,株式会社挾間牧場,,株式会社,福岡県,糸島市,波多江３７４番地２,,40,230,8191104,,,,,,,2025-04-23,1,,,,,ハザマボクジョウ,0
1131,4290003016713,新規,0,2025-04-23,2025-04-23,合同会社ＤｉｇＲｉｖｅｒ,,合同会社,福岡県,古賀市,小竹２１３－２０,,40,223,8113135,,,,,,,2025-04-23,1,,,,,ディグリバー,0
1132,4290003016738,新規,0,2025-04-23,2025-04-23,合同会社ＡＸＩＳ　Ｌａｂｏ,,合同会社,福岡県,福岡市東区,和白東５丁目１８番１０－１０２号ローダンセ福工大前,,40,131,8110214,,,,,,,2025-04-23,1,,,,,アクシスラボ,0
1134,4310001019566,新規,0,2025-04-23,2025-04-23,株式会社ＲＥＣ,,株式会社,長崎県,佐世保市,西大久保町３番１６号,,42,202,8570048,,,,,,,2025-04-23,1,,,,,アールイーシー,0
1135,4310003004995,新規,0,2025-04-23,2025-04-23,合同会社ｉｋｅ屋,,合同会社,長崎県,長崎市,中小島１丁目３－１,,42,201,8500836,,,,,,,2025-04-23,1,,,,,イケヤ,0
1136,4320001021067,新規,0,2025-04-23,2025-04-23,株式会社テラ・シップ,,株式会社,大分県,中津市,大字下宮永８６番地６,,44,203,8710029,,,,,,,2025-04-23,1,,,,,テラシップ,0
1141,4330001033136,新規,0,2025-04-23,2025-04-23,株式会社オカダ,,株式会社,熊本県,熊本市中央区,手取本町４番１５号ごえんビル地下１階,,43,101,8600808,,,,,,,2025-04-23,1,,,,,オカダ,0
1145,4340001027285,新規,0,2025-04-23,2025-04-23,株式会社ＫＵＢＯＳＹＯ,,株式会社,鹿児島県,鹿屋市,大浦町１３８０３番地５,,46,203,8930067,,,,,,,2025-04-23,1,,,,,クボショウ,0
1147,4350003004918,新規,0,2025-04-23,2025-04-23,合同会社思いやり,,合同会社,宮崎県,都城市,早水町３４号４番地１ひまわりマンション１０１号室,,45,202,8850016,,,,,,,2025-04-23,1,,,,,オモイヤリ,0
1153,4360001035088,新規,0,2025-04-23,2025-04-23,株式会社ＳＡＴＰＡＴ,,株式会社,沖縄県,豊見城市,字翁長８５４－１－６階,,47,212,9010223,,,,,,,2025-04-23,1,,,,,サットパット,0
1154,4360001035096,新規,0,2025-04-23,2025-04-23,株式会社モケンエステート,,株式会社,沖縄県,浦添市,仲間２丁目１１番３号,,47,208,9012103,,,,,,,2025-04-23,1,,,,,モケンエステート,0
1155,4360001035105,新規,0,2025-04-23,2025-04-23,株式会社Ｕ’ＮＩ,,株式会社,沖縄県,那覇市,久茂地２丁目９番１号,,47,201,9000015,,,,,,,2025-04-23,1,,,,,ユニ,0
1157,4370001052495,新規,0,2025-04-23,2025-04-23,株式会社ＨＥＬＬＯ．,,株式会社,宮城県,多賀城市,高橋４丁目２番２号,,04,209,9850853,,,,,,,2025-04-23,1,,,,,ハロー,0
1158,4370001052512,新規,0,2025-04-23,2025-04-23,株式会社ノービス,,株式会社,宮城県,仙台市宮城野区,銀杏町２９番３２号,,04,102,9830047,,,,,,,2025-04-23,1,,,,,ノービス,0
1159,4370003007043,新規,0,2025-04-23,2025-04-23,ＳＨＯＷＮＥＳＳ合同会社,,合同会社,宮城県,仙台市青葉区,台原５丁目７番８号Ｌｕｍｉｎａｒｅ台原Ｉ－１０２,,04,101,9810911,,,,,,,2025-04-23,1,,,,,ショウネス,0
1174,4410005006641,新規,0,2025-04-23,2025-04-23,特定非営利活動法人ルピナス,,その他の設立登記法人,秋田県,秋田市,濁川字井戸尻４５番地８,,05,201,0100821,,,,,,,2025-04-23,1,,,,,,0
1179,4430001094250,新規,0,2025-04-23,2025-04-23,株式会社ＲＩＮＫ,,株式会社,北海道,札幌市中央区,大通西１８丁目１番地４７カレラ近代美術館前８０１号,,01,101,0600042,,,,,,,2025-04-23,1,,,,,リンク,0
1182,4430003017564,新規,0,2025-04-23,2025-04-23,合同会社ＴＨＥＲＫ,,合同会社,北海道,札幌市手稲区,稲穂二条６丁目１０番７号,,01,109,0060032,,,,,,,2025-04-23,1,,,,,ザーク,0
1184,4440003001682,新規,0,2025-04-23,2025-04-23,合同会社渡建設,,合同会社,北海道,茅部郡森町,字森川町３０３番地３５,,01,345,0492313,,,,,,,2025-04-23,1,,,,,ワタリケンセツ,0
1185,4450001014603,新規,0,2025-04-23,2025-04-23,株式会社ＳＤ,,株式会社,北海道,旭川市,四条通６丁目４０３番地１ライオンビル河内館５階,,01,204,0700034,,,,,,,2025-04-23,1,,,,,エスディ,0
1186,4450003002647,新規,0,2025-04-23,2025-04-23,合同会社ＲａｓｉＱ,,合同会社,北海道,旭川市,春光台五条３丁目１番１１号,,01,204,0718145,,,,,,,2025-04-23,1,,,,,ラシク,0
1187,4470001020681,新規,0,2025-04-23,2025-04-23,株式会社セトナミ,,株式会社,香川県,東かがわ市,三本松９３４番地１４,,37,207,7692601,,,,,,,2025-04-23,1,,,,,セトナミ,0
1190,4490001011027,新規,0,2025-04-23,2025-04-23,株式会社ＵＴＡＧＥ,,株式会社,高知県,高知市,堺町９番１９－１１０３号,,39,201,7800834,,,,,,,2025-04-23,1,,,,,ウタゲ,0
1192,4500001026262,新規,0,2025-04-23,2025-04-23,稲心株式会社,,株式会社,愛媛県,今治市,高市甲２６５番地２,,38,202,7991512,,,,,,,2025-04-23,1,,,,,イナシン,0
1200,5010001253962,新規,0,2025-04-23,2025-04-23,株式会社壇,,株式会社,東京都,中央区,銀座８丁目５番１３号,,13,102,1040061,,,,,,,2025-04-23,1,,,,,ダン,0
1201,5010001254358,新規,0,2025-04-23,2025-04-23,株式会社Ｂ　Ｗｉｎｅｒｙ,,株式会社,東京都,中央区,築地２丁目１５番１５号セントラル東銀座１０８,,13,102,1040045,,,,,,,2025-04-23,1,,,,,ビーワイナリー,0
1202,5010001254399,新規,0,2025-04-23,2025-04-23,株式会社ステア,,株式会社,東京都,中央区,銀座１丁目１２－４Ｎ＆ＥＢＬＤ．７階,,13,102,1040061,,,,,,,2025-04-23,1,,,,,ステア,0
1203,5010001254424,新規,0,2025-04-23,2025-04-23,株式会社スペクトリランク,,株式会社,東京都,中央区,銀座７丁目１３番６号サガミビル２階,,13,102,1040061,,,,,,,2025-04-23,1,,,,,スペクトリランク,0
1204,5010001254440,新規,0,2025-04-23,2025-04-23,Ｖｉ　Ｇａｌ株式会社,,株式会社,東京都,文京区,千石１丁目２０番６号,,13,105,1120011,,,,,,,2025-04-23,1,,,,,ヴィガル,0
1205,5010001254449,新規,0,2025-04-23,2025-04-23,Ｎ＆Ｃ株式会社,,株式会社,東京都,中央区,月島３丁目２５番６－８０３号,,13,102,1040052,,,,,,,2025-04-23,1,,,,,エヌアンドシー,0
1208,5010003047149,新規,0,2025-04-23,2025-04-23,合同会社陽葉商会,,合同会社,東京都,千代田区,神田和泉町１番地６－１６ヤマトビル４０５,,13,101,1010024,,,,,,,2025-04-23,1,,,,,ヨウヨウショウカイ,0
1214,5010401189749,新規,0,2025-04-23,2025-04-23,ｓｃｈｏｌｅ株式会社,,株式会社,東京都,港区,高輪１丁目２７－３７－７１４,,13,103,1080074,,,,,,,2025-04-23,1,,,,,スコレー,0
1215,5010401189757,新規,0,2025-04-23,2025-04-23,株式会社ＩＮＰＥＸスルパン,,株式会社,東京都,港区,赤坂５丁目３番１号,,13,103,1070052,,,,,,,2025-04-23,1,,,,,インペックススルパン,0
1216,5010401189823,新規,0,2025-04-23,2025-04-23,株式会社ＢＲＳ,,株式会社,東京都,港区,虎ノ門５丁目３番２１号ＡＵＢＥ虎ノ門１０１,,13,103,1050001,,,,,,,2025-04-23,1,,,,,ビーアールエス,0
1220,5010403034804,新規,0,2025-04-23,2025-04-23,Ｃｈｅｅｒｓ合同会社,,合同会社,東京都,港区,北青山１丁目３－３三橋ビル３階,,13,103,1070061,,,,,,,2025-04-23,1,,,,,チアーズ,0
1221,5010403034894,新規,0,2025-04-23,2025-04-23,ＴＡＫＥ　ＦＡＶ合同会社,,合同会社,東京都,港区,三田５丁目３番８－１０２号,,13,103,1080073,,,,,,,2025-04-23,1,,,,,テイクファボ,0
1223,5010405024282,新規,0,2025-04-23,2025-04-23,一般社団法人岩室郷,,その他の設立登記法人,東京都,港区,高輪１丁目２３番２３－２５０８号,,13,103,1080074,,,,,,,2025-04-23,1,,,,,イワムロゴウ,0
1224,5010405024290,新規,0,2025-04-23,2025-04-23,一般財団法人日本財団スポＧＯＭＩ連盟,,その他の設立登記法人,東京都,港区,赤坂１丁目２番２号,,13,103,1070052,,,,,,,2025-04-23,1,,,,,ニッポンザイダンスポゴミレンメイ,0
1227,5010603011529,新規,0,2025-04-23,2025-04-23,合同会社ＲＥＩＹＵ,,合同会社,東京都,墨田区,八広３丁目９番６号,,13,107,1310041,,,,,,,2025-04-23,1,,,,,レイユ,0
1228,5010605004448,新規,0,2025-04-23,2025-04-23,一般社団法人サムライキッズ,,その他の設立登記法人,東京都,墨田区,石原４丁目１６－５,,13,107,1300011,,,,,,,2025-04-23,1,,,,,サムライキッズ,0
1230,5010701047581,新規,0,2025-04-23,2025-04-23,株式会社ＡＩパートナーズ,,株式会社,東京都,品川区,西五反田１丁目２４－４タキゲンビル７０１,,13,109,1410031,,,,,,,2025-04-23,1,,,,,エイアイパートナーズ,0
1232,5010901057232,新規,0,2025-04-23,2025-04-23,株式会社和佐,,株式会社,東京都,世田谷区,成城９丁目２０番２号１０２,,13,112,1570066,,,,,,,2025-04-23,1,,,,,ワサ,0
1238,5011001169018,新規,0,2025-04-23,2025-04-23,株式会社ＷＩＳＤＯＭ,,株式会社,東京都,渋谷区,道玄坂１丁目１０番８号渋谷道玄坂東急ビル２Ｆ－Ｃ,,13,113,1500043,,,,,,,2025-04-23,1,,,,,ウィズダム,0
1239,5011001169075,新規,0,2025-04-23,2025-04-23,株式会社ウカマス,,株式会社,東京都,渋谷区,恵比寿西２丁目４番８号ウィンド恵比寿ビル８Ｆ,,13,113,1500021,,,,,,,2025-04-23,1,,,,,ウカマス,0
1240,5011001169083,新規,0,2025-04-23,2025-04-23,ＹＮｅｘｕｓ株式会社,,株式会社,東京都,渋谷区,恵比寿西２丁目３番１１号,,13,113,1500021,,,,,,,2025-04-23,1,,,,,ワイネクサス,0
1241,5011001169091,新規,0,2025-04-23,2025-04-23,株式会社スタジオピクセル．,,株式会社,東京都,渋谷区,千駄ヶ谷３丁目６０番５号１階,,13,113,1510051,,,,,,,2025-04-23,1,,,,,スタジオピクセル,0
1242,5011001169109,新規,0,2025-04-23,2025-04-23,株式会社ナチュラルナイン,,株式会社,東京都,渋谷区,渋谷１丁目１５番１５号テラス渋谷美竹６１５,,13,113,1500002,,,,,,,2025-04-23,1,,,,,ナチュラルナイン,0
1248,5011105011406,新規,0,2025-04-23,2025-04-23,一般社団法人日本グローバルＩＴ人材協会,,その他の設立登記法人,東京都,新宿区,西新宿２丁目７番１号Ｓ４,,13,104,1600023,,,,,,,2025-04-23,1,,,,,ニホングローバルアイティージンザイキョウカイ,0
1251,5011201026299,新規,0,2025-04-23,2025-04-23,ＲＨＴｏｋｙｏ株式会社,,株式会社,東京都,中野区,中野５丁目４１番８－３０３号,,13,114,1640001,,,,,,,2025-04-23,1,,,,,アールエイチトウキョウ,0
1252,5011203004674,新規,0,2025-04-23,2025-04-23,ボンタ合同会社,,合同会社,東京都,中野区,東中野５丁目３－１ムサシビルＢ１,,13,114,1640003,,,,,,,2025-04-23,1,,,,,ボンタ,0
1258,5011701028282,新規,0,2025-04-23,2025-04-23,日本順達株式会社,,株式会社,東京都,江戸川区,中央２丁目３３番６号,,13,123,1320021,,,,,,,2025-04-23,1,,,,,ニホンジュンタツ,0
1259,5011703004208,新規,0,2025-04-23,2025-04-23,合同会社パワー・トライアングル,,合同会社,東京都,江戸川区,西葛西８丁目１３番１号,,13,123,1340088,,,,,,,2025-04-23,1,,,,,パワートライアングル,0
1260,5012301014350,新規,0,2025-04-23,2025-04-23,トーテック・グループ株式会社,,株式会社,東京都,町田市,中町３丁目１０番９号,,13,209,1940021,,,,,,,2025-04-23,1,,,,,トーテックグループ,0
1262,5012401043019,新規,0,2025-04-23,2025-04-23,株式会社ＭａｇｉｃａｌＣｏｎｎｅｃｔ,,株式会社,東京都,三鷹市,井の頭４丁目１９－１０井上メゾネットＡ,,13,204,1810001,,,,,,,2025-04-23,1,,,,,マジカルコネクト,0
1266,5012803003702,新規,0,2025-04-23,2025-04-23,合同会社ミナトチカ,,合同会社,東京都,国立市,東１丁目１５番１１号４４８ビル３階,,13,215,1860002,,,,,,,2025-04-23,1,,,,,ミナトチカ,0
1270,5020001162510,新規,0,2025-04-23,2025-04-23,株式会社リビンユニティ,,株式会社,神奈川県,横浜市神奈川区,羽沢町１２０１番地２６,,14,102,2210863,,,,,,,2025-04-23,1,,,,,リビンユニティ,0
1272,5021001085040,新規,0,2025-04-23,2025-04-23,まちのことば株式会社,,株式会社,神奈川県,鎌倉市,稲村ガ崎３丁目１３番４６号,,14,204,2480024,,,,,,,2025-04-23,1,,,,,マチノコトバ,0
1273,5021001085049,新規,0,2025-04-23,2025-04-23,株式会社ウェルスデザイン,,株式会社,神奈川県,鎌倉市,笛田３丁目３３－４１,,14,204,2480027,,,,,,,2025-04-23,1,,,,,ウェルスデザイン,0
1274,5021003015895,新規,0,2025-04-23,2025-04-23,商社湘南合同会社,,合同会社,神奈川県,茅ヶ崎市,新栄町７－５ＣｈｉｇａｓａｋｉＢｉｚ－ｎａｚ３Ｆ,,14,207,2530044,,,,,,,2025-04-23,1,,,,,ショウシャショウナン,0
1275,5021003015904,新規,0,2025-04-23,2025-04-23,ＡＩパートナーズ合同会社,,合同会社,神奈川県,相模原市中央区,上溝２３９４番地８,,14,152,2520243,,,,,,,2025-04-23,1,,,,,エーアイパートナーズ,0
1276,5021005013352,新規,0,2025-04-23,2025-04-23,一般社団法人ＦｉｒｅｆｌｙＧｌｏｗ,,その他の設立登記法人,神奈川県,逗子市,桜山７丁目９番２６号,,14,208,2490005,,,,,,,2025-04-23,1,,,,,ファイアフライグロウ,0
1277,5030001166139,新規,0,2025-04-23,2025-04-23,株式会社ｄｏｒｏｉｃｈｉ,,株式会社,埼玉県,川越市,六軒町１丁目２１－２ルネスカシーラ１０１号室,,11,201,3500041,,,,,,,2025-04-23,1,,,,,ドロイチ,0
1278,5030001166147,新規,0,2025-04-23,2025-04-23,株式会社ＴＵＫＵＲＵＫＡ,,株式会社,埼玉県,蕨市,中央１丁目７番１号シティタワー蕨１７１０号,,11,223,3350004,,,,,,,2025-04-23,1,,,,,ツクルカ,0
1279,5030001166163,新規,0,2025-04-23,2025-04-23,株式会社高野総合コンサルティング,00138883,株式会社,埼玉県,新座市,東北１丁目８番２０－１０６号,,11,230,3520001,,,,,,,2025-04-23,1,,,,,タカノソウゴウコンサルティング,0
1288,5040003027404,新規,0,2025-04-23,2025-04-23,合同会社Ｄａｉｍａｒｕ不動産,,合同会社,千葉県,習志野市,鷺沼台２丁目２０番３７号,,12,216,2750015,,,,,,,2025-04-23,1,,,,,ダイマルフドウサン,0
1289,5040003027437,新規,0,2025-04-23,2025-04-23,合同会社タカラＰＳＷ,,合同会社,千葉県,柏市,柏７丁目４番１６号テラス柏２０５号室,,12,217,2770005,,,,,,,2025-04-23,1,,,,,タカラピーエスダブリュー,0
1297,5070001042872,新規,0,2025-04-23,2025-04-23,株式会社ＬＥＸ,,株式会社,群馬県,伊勢崎市,喜多町７３番地４５,,10,204,3720056,,,,,,,2025-04-23,1,,,,,レックス,0
1313,5120001274576,新規,0,2025-04-23,2025-04-23,株式会社チャボ,,株式会社,大阪府,大阪市西区,川口３丁目８番２号,,27,106,5500021,,,,,,,2025-04-23,1,,,,,チャボ,0
1314,5120001274667,新規,0,2025-04-23,2025-04-23,匠ｋｎｏｗｌｅｄｇｅ　ＣＦＰ株式会社,,株式会社,大阪府,大阪市西淀川区,姫島２丁目１３番３号,,27,113,5550033,,,,,,,2025-04-23,1,,,,,タクミナレッジシーエフピー,0
1315,5120001274782,新規,0,2025-04-23,2025-04-23,株式会社ふらん,,株式会社,大阪府,大阪市中央区,南本町１丁目４－６－５Ｆ５号室,,27,128,5410054,,,,,,,2025-04-23,1,,,,,フラン,0
1316,5120001274948,新規,0,2025-04-23,2025-04-23,２１１ＡＭＯＹ株式会社,,株式会社,大阪府,大阪市東淀川区,東中島１丁目１３番４３号９２４号室,,27,114,5330033,,,,,,,2025-04-23,1,,,,,ニイチイチアモイ,0
1321,5120101071519,新規,0,2025-04-23,2025-04-23,株式会社颯修館,,株式会社,大阪府,高石市,羽衣１丁目１４番２２号,,27,225,5920002,,,,,,,2025-04-23,1,,,,,ソクシュウカン,0
1323,5120103006415,新規,0,2025-04-23,2025-04-23,星光タウン合同会社,,合同会社,大阪府,富田林市,喜志町５丁目８番１４号５０７,,27,214,5840005,,,,,,,2025-04-23,1,,,,,セイコウタウン,0
1328,5122001039100,新規,0,2025-04-23,2025-04-23,株式会社ディールワークス,,株式会社,大阪府,東大阪市,小若江４丁目１２－１８小若江４丁目ビル３階,,27,227,5770818,,,,,,,2025-04-23,1,,,,,ディールワークス,0
1342,5140001138259,新規,0,2025-04-23,2025-04-23,株式会社Ｐｉｋｏｎａコーポレーション,,株式会社,兵庫県,神戸市灘区,上河原通３丁目４番１４号,,28,102,6570055,,,,,,,2025-04-23,1,,,,,ピコナコーポレーション,0
1344,5150001028054,新規,0,2025-04-23,2025-04-23,株式会社レイテスト,,株式会社,奈良県,香芝市,瓦口１０６４番地,,29,210,6390225,,,,,,,2025-04-23,1,,,,,レイテスト,0
1345,5150001028062,新規,0,2025-04-23,2025-04-23,株式会社ペイントマン,,株式会社,奈良県,大和高田市,中三倉堂２丁目１６番１２号,,29,202,6350045,,,,,,,2025-04-23,1,,,,,ペイントマン,0
1346,5150003003575,新規,0,2025-04-23,2025-04-23,合同会社悠々,,合同会社,奈良県,生駒郡三郷町,立野南１丁目２４番５－４０５号,,29,343,6360822,,,,,,,2025-04-23,1,,,,,ユウユウ,0
1352,5170005007151,新規,0,2025-04-23,2025-04-23,一般社団法人大地虹色,,その他の設立登記法人,和歌山県,岩出市,根来２２７９番地の２７,,30,209,6496202,,,,,,,2025-04-23,1,,,,,ダイチニジイロ,0
1353,5180001166495,新規,0,2025-04-23,2025-04-23,株式会社Ｋ．Ａ．ＨＯＵＳＥ,,株式会社,愛知県,名古屋市守山区,川北町１４８番地,,23,113,4630098,,,,,,,2025-04-23,1,,,,,ケーエーハウス,0
1354,5180001166512,新規,0,2025-04-23,2025-04-23,株式会社レナエステート,,株式会社,愛知県,名古屋市東区,白壁４丁目７９番地の２,,23,102,4610011,,,,,,,2025-04-23,1,,,,,レナエステート,0
1355,5180001166537,新規,0,2025-04-23,2025-04-23,株式会社Ｐｒｉｍｅ　Ｆｏｒｔｈ,,株式会社,愛知県,名古屋市中村区,名駅５丁目３３－２１アクアタウン納屋橋１９１１号,,23,105,4500002,,,,,,,2025-04-23,1,,,,,プライムフォース,0
1356,5180003028355,新規,0,2025-04-23,2025-04-23,合同会社ファミリー,,合同会社,愛知県,一宮市,馬見塚字郷内４２番地１,,23,203,4910874,,,,,,,2025-04-23,1,,,,,ファミリー,0
1357,5180003028363,新規,0,2025-04-23,2025-04-23,ｍ．ａ．ｂｕｉｌｄ合同会社,,合同会社,愛知県,春日井市,東野町１０丁目１５番地３,,23,206,4860817,,,,,,,2025-04-23,1,,,,,エムエービルド,0
1358,5180003028371,新規,0,2025-04-23,2025-04-23,合同会社Ｓｅａｍａｉｒ　Ｂｈｅａｇ,,合同会社,愛知県,名古屋市熱田区,伝馬２丁目２９番３０号,,23,109,4560034,,,,,,,2025-04-23,1,,,,,シャマーヴェーグ,0
1361,5180301039748,新規,0,2025-04-23,2025-04-23,株式会社マキホーム,,株式会社,愛知県,岡崎市,栄町４丁目８７番地,,23,202,4440012,,,,,,,2025-04-23,1,,,,,マキホーム,0
1363,5200001043675,新規,0,2025-04-23,2025-04-23,株式会社ＯＫＢＣ２,,株式会社,岐阜県,大垣市,郭町２丁目２５番地,,21,202,5030887,,,,,,,2025-04-23,1,,,,,オーケービーシーツー,0
1370,5220003004013,新規,0,2025-04-23,2025-04-23,アートコア合同会社,,合同会社,石川県,輪島市,門前町藤浜１０の３番地１,,17,204,9272355,,,,,,,2025-04-23,1,,,,,アートコア,0
1371,5230001020861,新規,0,2025-04-23,2025-04-23,株式会社戸出製作所,,株式会社,富山県,高岡市,醍醐３３６番地１,,16,202,9391131,,,,,,,2025-04-23,1,,,,,トイデセイサクショ,0
1373,5240003007162,新規,0,2025-04-23,2025-04-23,イーチコネクト合同会社,,合同会社,広島県,広島市南区,宇品御幸１丁目１１番５ミユキエンタービル３０４,,34,103,7340015,,,,,,,2025-04-23,1,,,,,イーチコネクト,0
1374,5250001021115,新規,0,2025-04-23,2025-04-23,株式会社松下商店,,株式会社,山口県,岩国市,関戸９１２番地１,,35,208,7410063,,,,,,,2025-04-23,1,,,,,マツシタショウテン,0
1378,5290001109732,新規,0,2025-04-23,2025-04-23,株式会社ＦＧＳ商会,,株式会社,福岡県,大野城市,南ケ丘６丁目６番１５号,,40,219,8160964,,,,,,,2025-04-23,1,,,,,エフジイエスショウカイ,0
1379,5290001109765,新規,0,2025-04-23,2025-04-23,株式会社Ｋ‐ｔｅｃｈ,,株式会社,福岡県,福岡市西区,今宿東１丁目１３番１５号,,40,135,8190161,,,,,,,2025-04-23,1,,,,,ケーテック,0
1380,5290001109781,新規,0,2025-04-23,2025-04-23,株式会社フナドリ,,株式会社,福岡県,福岡市中央区,大名１丁目１１番２７－１０６号,,40,133,8100041,,,,,,,2025-04-23,1,,,,,フナドリ,0
1381,5290001109807,新規,0,2025-04-23,2025-04-23,株式会社Ｆａｂ‐Ｏｎｅ,,株式会社,福岡県,大牟田市,健老町４６１番地,,40,202,8360011,,,,,,,2025-04-23,1,,,,,ファブワン,0
1386,5290003016695,新規,0,2025-04-23,2025-04-23,合同会社イーグルワン,,合同会社,福岡県,福岡市早良区,田村５丁目１７番２６号,,40,137,8140175,,,,,,,2025-04-23,1,,,,,イーグルワン,0
1387,5290003016720,新規,0,2025-04-23,2025-04-23,合同会社結相談室,,合同会社,福岡県,朝倉市,堤４６０番地８,,40,228,8380062,,,,,,,2025-04-23,1,,,,,ユウソウダンシツ,0
1388,5290003016729,新規,0,2025-04-23,2025-04-23,合同会社ステークホルダー,,合同会社,福岡県,福岡市博多区,博多駅南５丁目１２番２号ＭＯＤＥＲＮＰＡＬＡＺＺＯ博多ｔｒｅｓ９０２号,,40,132,8120016,,,,,,,2025-04-23,1,,,,,ステークホルダー,0
1389,5290003016737,新規,0,2025-04-23,2025-04-23,合同会社ＥＬＥＶＥＮ,,合同会社,福岡県,糟屋郡宇美町,障子岳南３丁目１０－１７,,40,341,8112126,,,,,,,2025-04-23,1,,,,,イレブン,0
1390,5290003016753,新規,0,2025-04-23,2025-04-23,合同会社ＤＡ　Ｐｌｕｓ,,合同会社,福岡県,福岡市博多区,住吉２丁目１５番１０－１０１０号カーサ博多,,40,132,8120018,,,,,,,2025-04-23,1,,,,,ディエイプラス,0
1399,5350001019504,新規,0,2025-04-23,2025-04-23,株式会社ウィルキャン,,株式会社,宮崎県,東諸県郡国富町,大字三名１２６４番地１,,45,382,8801114,,,,,,,2025-04-23,1,,,,,ウィルキャン,0
1401,5360003014865,新規,0,2025-04-23,2025-04-23,合同会社山田興産,,合同会社,沖縄県,浦添市,勢理客３丁目６番２８号,,47,208,9012122,,,,,,,2025-04-23,1,,,,,ヤマダコウサン,0
1402,5360003014873,新規,0,2025-04-23,2025-04-23,プライム合同会社,,合同会社,沖縄県,石垣市,字新川２３６１番地５,,47,207,9070024,,,,,,,2025-04-23,1,,,,,プライム,0
1404,5370001052503,新規,0,2025-04-23,2025-04-23,株式会社Ｌｉｖｅｒｏ,,株式会社,宮城県,宮城郡七ヶ浜町,代ヶ崎浜字細田４９番地の８１,,04,404,9850801,,,,,,,2025-04-23,1,,,,,リベロ,0
1412,5400003003442,新規,0,2025-04-23,2025-04-23,Ｎ．Ｈ商事合同会社,,合同会社,岩手県,北上市,上野町５丁目１２番２６号,,03,206,0240021,,,,,,,2025-04-23,1,,,,,エヌエイチショウジ,0
1428,5430003017571,新規,0,2025-04-23,2025-04-23,ＨＣ　Ｓｅｒｖｉｃｅｓ合同会社,,合同会社,北海道,虻田郡ニセコ町,字曽我７５１番地２３,,01,395,0481522,,,,,,,2025-04-23,1,,,,,エイチシーサービシーズ,0
1432,5450001014602,新規,0,2025-04-23,2025-04-23,ゼネラルソリューション株式会社,,株式会社,北海道,旭川市,亀吉一条２丁目１番１７号,,01,204,0700081,,,,,,,2025-04-23,1,,,,,ゼネラルソリューション,0
1439,5470001020680,新規,0,2025-04-23,2025-04-23,株式会社真明,,株式会社,香川県,丸亀市,川西町北１７００番地,,37,202,7630091,,,,,,,2025-04-23,1,,,,,シンメイ,0
1440,5480001012818,新規,0,2025-04-23,2025-04-23,株式会社エムゼック,,株式会社,徳島県,徳島市,北佐古二番町３番３２号,,36,201,7700012,,,,,,,2025-04-23,1,,,,,エムゼック,0
1444,5490001011018,新規,0,2025-04-23,2025-04-23,株式会社Ｋ・ライズホールディングス,,株式会社,高知県,高知市,杉井流５番１８号,,39,201,7800072,,,,,,,2025-04-23,1,,,,,ケイライズホールディングス,0
1445,5490001011026,新規,0,2025-04-23,2025-04-23,未来鮮魚株式会社,,株式会社,高知県,幡多郡大月町,大字弘見４２５８番地１１４,,39,424,7880302,,,,,,,2025-04-23,1,,,,,ミライセンギョ,0
1447,5500001026253,新規,0,2025-04-23,2025-04-23,株式会社耕作,,株式会社,愛媛県,松山市,中野町甲９７番地３,,38,201,7911121,,,,,,,2025-04-23,1,,,,,コウサク,0
1448,5500001026261,新規,0,2025-04-23,2025-04-23,Ｆａｒｍｌａｎｄ株式会社,,株式会社,愛媛県,今治市,高橋甲５５３番地の１,,38,202,7940066,,,,,,,2025-04-23,1,,,,,ファームランド,0
1458,6010001254340,新規,0,2025-04-23,2025-04-23,株式会社一＿,00138879,株式会社,東京都,文京区,千石４丁目２６番２－３Ｂ０２,,13,105,1120011,,,,,,,2025-04-23,1,,,,,イケイ,0
1459,6010001254357,新規,0,2025-04-23,2025-04-23,Ｇ．Ｙ．Ｎ株式会社,,株式会社,東京都,中央区,銀座７丁目１５番８号,,13,102,1040061,,,,,,,2025-04-23,1,,,,,ジーワイエヌ,0
1460,6010001254373,新規,0,2025-04-23,2025-04-23,ソルナホールディングス株式会社,,株式会社,東京都,中央区,銀座１丁目１２番４号Ｎ＆Ｅ・ＢＬＤ．６Ｆ,,13,102,1040061,,,,,,,2025-04-23,1,,,,,ソルナホールディングス,0
1461,6010001254456,新規,0,2025-04-23,2025-04-23,株式会社菊クリエイティブ,,株式会社,東京都,千代田区,永田町２丁目１７番１７号アイオス永田町４０１,,13,101,1000014,,,,,,,2025-04-23,1,,,,,キククリエイティブ,0
1462,6010003047148,新規,0,2025-04-23,2025-04-23,ＴＫインベストメント合同会社,,合同会社,東京都,文京区,本郷３丁目４４番１１－４０１号,,13,105,1130033,,,,,,,2025-04-23,1,,,,,ティーケーインベストメント,0
1463,6010003047156,新規,0,2025-04-23,2025-04-23,コールドストレージファンド１号合同会社,,合同会社,東京都,中央区,日本橋１丁目４番１号,,13,102,1030027,,,,,,,2025-04-23,1,,,,,コールドストレージファンドイチゴウ,0
1473,6010401189673,新規,0,2025-04-23,2025-04-23,株式会社ＬＭｌａｂｏ,,株式会社,東京都,港区,東麻布２丁目３５番１ＫＣビル６Ｆ,,13,103,1060044,,,,,,,2025-04-23,1,,,,,エルエムラボ,0
1474,6010403034811,新規,0,2025-04-23,2025-04-23,合同会社フェアリーリーフ,,合同会社,東京都,港区,三田３丁目２番４号,,13,103,1080073,,,,,,,2025-04-23,1,,,,,フェアリーリーフ,0
1475,6010403034893,新規,0,2025-04-23,2025-04-23,合同会社グランハンド,,合同会社,東京都,港区,北青山３丁目６－７青山パラシオタワー１１階,,13,103,1070061,,,,,,,2025-04-23,1,,,,,グランハンド,0
1476,6010403034951,新規,0,2025-04-23,2025-04-23,ＨＭＯＫ合同会社,,合同会社,東京都,港区,南麻布５丁目２番５－６１２号,,13,103,1060047,,,,,,,2025-04-23,1,,,,,エイチエムオーケー,0
1478,6010505003598,新規,0,2025-04-23,2025-04-23,一般社団法人オルソボット研究協会,,その他の設立登記法人,東京都,台東区,元浅草２丁目６番６号,,13,106,1110041,,,,,,,2025-04-23,1,,,,,オルソボットケンキュウキョウカイ,0
1481,6010601067175,新規,0,2025-04-23,2025-04-23,株式会社クレアライン,,株式会社,東京都,江東区,三好２丁目３番１５号,,13,108,1350022,,,,,,,2025-04-23,1,,,,,クレアライン,0
1482,6010603011528,新規,0,2025-04-23,2025-04-23,ＷＩＤ合同会社,,合同会社,東京都,墨田区,東向島３丁目１７番１３－４０２号,,13,107,1310032,,,,,,,2025-04-23,1,,,,,ダブリューアイディー,0
1487,6010901057231,新規,0,2025-04-23,2025-04-23,株式会社ＥＶＡ,,株式会社,東京都,世田谷区,太子堂５丁目９番１７号,,13,112,1540004,,,,,,,2025-04-23,1,,,,,イーブイエー,0
1492,6011001169116,新規,0,2025-04-23,2025-04-23,株式会社ＡｌｌｉｎＸ,,株式会社,東京都,目黒区,目黒４丁目６番１０号,,13,110,1530063,,,,,,,2025-04-23,1,,,,,オールインエックス,0
1495,6011003021489,新規,0,2025-04-23,2025-04-23,合同会社ＯＴＣ,,合同会社,東京都,渋谷区,千駄ヶ谷３丁目５５－１５－８０２,,13,113,1510051,,,,,,,2025-04-23,1,,,,,オーティーシー,0
1498,6011101111506,新規,0,2025-04-23,2025-04-23,ＨＩＧＨＬＩＴ株式会社,,株式会社,東京都,新宿区,中落合２丁目８－２２－１Ｆ,,13,104,1610032,,,,,,,2025-04-23,1,,,,,ハイリット,0
1499,6011101111555,新規,0,2025-04-23,2025-04-23,Ｚｙｎｉｑｏ株式会社,,株式会社,東京都,新宿区,西落合１丁目１４番１１号白の館３０１,,13,104,1610031,,,,,,,2025-04-23,1,,,,,ジニコ,0
1501,6011103015795,新規,0,2025-04-23,2025-04-23,ＭＡＳＳＩ合同会社,,合同会社,東京都,新宿区,西新宿６丁目５番１号新宿アイランドタワー２階,,13,104,1600023,,,,,,,2025-04-23,1,,,,,マッシ,0
1502,6011103015812,新規,0,2025-04-23,2025-04-23,合同会社ｓｍａｋｓ,,合同会社,東京都,新宿区,中落合１丁目７番３－１０２号,,13,104,1610032,,,,,,,2025-04-23,1,,,,,スマックス,0
1504,6011201026298,新規,0,2025-04-23,2025-04-23,富日山株式会社,,株式会社,東京都,中野区,東中野４丁目１５番２号ＳＦ東中野ビル１０１,,13,114,1640003,,,,,,,2025-04-23,1,,,,,トミヒヤマ,0
1512,6011501031972,新規,0,2025-04-23,2025-04-23,ニクマン株式会社,,株式会社,東京都,北区,王子本町１丁目２２番１号ＫＳＧビル１０３号室,,13,117,1140022,,,,,,,2025-04-23,1,,,,,ニクマン,0
1513,6011501031980,新規,0,2025-04-23,2025-04-23,株式会社サニーデイ,,株式会社,東京都,北区,赤羽２丁目２４番９－１２０４号,,13,117,1150045,,,,,,,2025-04-23,1,,,,,サニーデイ,0
1517,6011703004215,新規,0,2025-04-23,2025-04-23,合同会社サルース,,合同会社,東京都,江戸川区,本一色２丁目２５番７号グローバル・シティ壱番館２０１,,13,123,1330044,,,,,,,2025-04-23,1,,,,,サルース,0
1524,6012401043018,新規,0,2025-04-23,2025-04-23,株式会社ルリアンホリズ,,株式会社,東京都,小金井市,桜町１丁目９番１２号小金井第二丸信マンション２０１,,13,210,1840005,,,,,,,2025-04-23,1,,,,,ルリアンホリズ,0
1525,6012403007086,新規,0,2025-04-23,2025-04-23,ジーシー管理合同会社,,合同会社,東京都,府中市,寿町２丁目１４番地の１,,13,206,1830056,,,,,,,2025-04-23,1,,,,,ジーシーカンリ,0
1527,6013103001437,新規,0,2025-04-23,2025-04-23,合同会社ＹＯＵビジョン,,合同会社,東京都,福生市,大字福生字加美１２００番１０,,13,218,1970011,,,,,,,2025-04-23,1,,,,,ユウビジョン,0
1530,6013301054113,新規,0,2025-04-23,2025-04-23,駝峰株式会社,,株式会社,東京都,豊島区,南池袋３丁目９番５－６１１号,,13,116,1710022,,,,,,,2025-04-23,1,,,,,ダホウ,0
1548,6020003028295,新規,0,2025-04-23,2025-04-23,合同会社Ｔｕｍｂｌｉｎｇ　Ｄｉｃｅ,,合同会社,神奈川県,川崎市幸区,大宮町１４番地３フォレストマインズ３０２,,14,132,2120014,,,,,,,2025-04-23,1,,,,,タンブリングダイス,0
1549,6021001085048,新規,0,2025-04-23,2025-04-23,株式会社ディーファースト,,株式会社,神奈川県,横須賀市,追浜南町２丁目１７番地５,,14,201,2370065,,,,,,,2025-04-23,1,,,,,ディーファースト,0
1552,6021003015928,新規,0,2025-04-23,2025-04-23,合同会社湘南サービス,,合同会社,神奈川県,小田原市,本町３丁目１１番２０―５０３レアージュ小田原本町,,14,206,2500012,,,,,,,2025-04-23,1,,,,,ショウナンサービス,0
1553,6030001166146,新規,0,2025-04-23,2025-04-23,株式会社関東住販,,株式会社,埼玉県,富士見市,ふじみ野東１丁目３番地１レリアふじみ野ステーションイースト２０８,,11,235,3540036,,,,,,,2025-04-23,1,,,,,カントウジュウハン,0
1554,6030001166187,新規,0,2025-04-23,2025-04-23,株式会社Ｌａｈｉｄｕ,,株式会社,埼玉県,川口市,芝富士２丁目８番２０号,,11,203,3330854,,,,,,,2025-04-23,1,,,,,,0
1556,6030003026629,新規,0,2025-04-23,2025-04-23,合同会社いのくま,,合同会社,埼玉県,さいたま市緑区,東浦和２丁目６７番地１イーストシティーみずき街１棟５０６号,,11,109,3360926,,,,,,,2025-04-23,1,,,,,イノクマ,0
1563,6040003027403,新規,0,2025-04-23,2025-04-23,合同会社ピーマンぽこぽこ,,合同会社,千葉県,千葉市緑区,あすみが丘東３丁目１２番地９,,12,105,2670067,,,,,,,2025-04-23,1,,,,,ピーマンポコポコ,0
1572,6080005007688,新規,0,2025-04-23,2025-04-23,一般社団法人アーユルヴェーダ美人塾,,その他の設立登記法人,静岡県,焼津市,東小川１丁目３番２２号サランケイＣ１０１,,22,212,4250035,,,,,,,2025-04-23,1,,,,,アーユルヴェーダビジンジュク,0
1590,6120001274823,新規,0,2025-04-23,2025-04-23,橋桜株式会社,,株式会社,大阪府,大阪市住吉区,杉本１丁目９番１６－１０２号,,27,120,5580022,,,,,,,2025-04-23,1,,,,,キョウオウ,0
1591,6120001274864,新規,0,2025-04-23,2025-04-23,ＬＩＦＥ　ＮＥＸＴ株式会社,,株式会社,大阪府,大阪市中央区,南船場３丁目１１番１０号心斎橋大陽ビル地下１階,,27,128,5420081,,,,,,,2025-04-23,1,,,,,ライフネクスト,0
1595,6120003028946,新規,0,2025-04-23,2025-04-23,合同会社ペクボス,,合同会社,大阪府,大阪市西区,新町４丁目１０‐１１西長堀ハイデンス３０４,,27,106,5500013,,,,,,,2025-04-23,1,,,,,ペクボス,0
1597,6120101071518,新規,0,2025-04-23,2025-04-23,鄙産業株式会社,,株式会社,大阪府,岸和田市,下池田町１丁目２５番１５号,,27,202,5960811,,,,,,,2025-04-23,1,,,,,ヒナビサンギョウ,0
1598,6120101071526,新規,0,2025-04-23,2025-04-23,株式会社Ｈ＆Ｙ,,株式会社,大阪府,堺市北区,奥本町１丁３３番地ルミエール国際３０１号,,27,146,5918007,,,,,,,2025-04-23,1,,,,,エイチアンドワイ,0
1600,6120901050662,新規,0,2025-04-23,2025-04-23,株式会社ＴＡＩＬ,,株式会社,大阪府,池田市,畑４丁目２－２１ＴＮＧ畑３０４,,27,204,5630021,,,,,,,2025-04-23,1,,,,,テイル,0
1601,6120901050753,新規,0,2025-04-23,2025-04-23,株式会社経積,,株式会社,大阪府,吹田市,千里丘北１番３－１０号,,27,205,5650815,,,,,,,2025-04-23,1,,,,,ケイセキ,0
1613,6140001138217,新規,0,2025-04-23,2025-04-23,株式会社Ｄ．ＨＯＬＤＩＮＧＳ,,株式会社,兵庫県,川西市,丸山台１丁目４－３花咲く丘の町Ｃ－９０１,,28,217,6660152,,,,,,,2025-04-23,1,,,,,ディーホールディングス,0
1614,6140001138241,新規,0,2025-04-23,2025-04-23,株式会社福山メディカル産業医事務所,,株式会社,兵庫県,神戸市東灘区,御影３丁目１３番１３号,,28,101,6580047,,,,,,,2025-04-23,1,,,,,フクヤマメディカルサンギョウイジムショ,0
1615,6140001138258,新規,0,2025-04-23,2025-04-23,株式会社ＡＲＫ,,株式会社,兵庫県,伊丹市,西台３丁目９番２２号Ｒｅ：ＺＯＮＥ０５号,,28,207,6640858,,,,,,,2025-04-23,1,,,,,アーク,0
1617,6150001028061,新規,0,2025-04-23,2025-04-23,株式会社ヒカリアホーム,,株式会社,奈良県,橿原市,醍醐町５２２番地１,,29,205,6340072,,,,,,,2025-04-23,1,,,,,ヒカリアホーム,0
1618,6150003003582,新規,0,2025-04-23,2025-04-23,合同会社ｓｏｒａ,,合同会社,奈良県,生駒市,松美台１２０番地３,,29,209,6300241,,,,,,,2025-04-23,1,,,,,ソラ,0
1623,6170005007150,新規,0,2025-04-23,2025-04-23,かつらぎ町未来づくり協同組合,,その他の設立登記法人,和歌山県,伊都郡かつらぎ町,大字笠田東５５０番地,,30,341,6497161,,,,,,,2025-04-23,1,,,,,カツラギチョウミライヅクリ,0
1627,6180001166528,新規,0,2025-04-23,2025-04-23,株式会社Ｒ．Ｂコンサルティング,,株式会社,愛知県,名古屋市中村区,則武２丁目１４－１１名駅富士ビルＣ４０,,23,105,4530014,,,,,,,2025-04-23,1,,,,,アールビーコンサルティング,0
1628,6180001166544,新規,0,2025-04-23,2025-04-23,株式会社テクノグッチ,,株式会社,愛知県,弥富市,松名５丁目２００番地１６,,23,235,4980042,,,,,,,2025-04-23,1,,,,,テクノグッチ,0
1631,6180003028387,新規,0,2025-04-23,2025-04-23,名古屋観光合同会社,,合同会社,愛知県,名古屋市中区,錦３丁目８番１９号ライフ錦ビル４０２号,,23,106,4600003,,,,,,,2025-04-23,1,,,,,ナゴヤカンコウ,0
1636,6180301039747,新規,0,2025-04-23,2025-04-23,東真株式会社,,株式会社,愛知県,岡崎市,上地４丁目２６番地２,,23,202,4440823,,,,,,,2025-04-23,1,,,,,トウシン,0
1642,6200003006778,新規,0,2025-04-23,2025-04-23,合同会社丸川,,合同会社,岐阜県,各務原市,蘇原沢上町３丁目６,,21,213,5040827,,,,,,,2025-04-23,1,,,,,マルカワ,0
1646,6210005010199,新規,0,2025-04-23,2025-04-23,医療法人地域包括ケア振興会,,その他の設立登記法人,福井県,越前市,府中１丁目２番３号センチュリープラザ１階,,18,209,9150071,,,,,,,2025-04-23,1,,,,,チイキホウカツケアシンコウカイ,0
1647,6220001026636,新規,0,2025-04-23,2025-04-23,株式会社小松企画,,株式会社,石川県,小松市,龍助町２９番地１,,17,203,9230926,,,,,,,2025-04-23,1,,,,,コマツキカク,0
1655,6240001064840,新規,0,2025-04-23,2025-04-23,株式会社ＦＩＤＤＬＥＲ,,株式会社,広島県,広島市南区,松原町５番２号２６０３,,34,103,7320822,,,,,,,2025-04-23,1,,,,,フィドラー,0
1668,6290001109608,新規,0,2025-04-23,2025-04-23,Ｂｕｓｉｃａｔｉｏｎ株式会社,,株式会社,福岡県,福岡市中央区,天神４丁目３－８ミーナ天神８階,,40,133,8100001,,,,,,,2025-04-23,1,,,,,ビジケイション,0
1669,6290001109780,新規,0,2025-04-23,2025-04-23,フリー株式会社,,株式会社,福岡県,福岡市中央区,港１丁目２－２４－５０１,,40,133,8100075,,,,,,,2025-04-23,1,,,,,フリー,0
1670,6290001109822,新規,0,2025-04-23,2025-04-23,株式会社ａｎｄ　Ｓｍｉｔｈ,,株式会社,福岡県,大牟田市,中白川町３丁目２６０,,40,202,8370927,,,,,,,2025-04-23,1,,,,,アンドスミス,0
1672,6290003016711,新規,0,2025-04-23,2025-04-23,Ｓ．Ｋ　ＴＲＡＤＩＮＧ合同会社,,合同会社,福岡県,大牟田市,大字橘９９８番地１フォーブル川原２棟１０１号,,40,202,8370911,,,,,,,2025-04-23,1,,,,,エスケイトレーディング,0
1675,6290801031473,新規,0,2025-04-23,2025-04-23,サンサントホーム株式会社,,株式会社,福岡県,京都郡苅田町,大字尾倉３３０５番地５,,40,621,8000353,,,,,,,2025-04-23,1,,,,,サンサントホーム,0
1678,6310001019572,新規,0,2025-04-23,2025-04-23,株式会社上五島訪問看護リハビリステーション,,株式会社,長崎県,南松浦郡新上五島町,奈良尾郷４１７番地３,,42,411,8533101,,,,,,,2025-04-23,1,,,,,カミゴトウホウモンカンゴリハビリステーション,0
1679,6330001033134,新規,0,2025-04-23,2025-04-23,株式会社熊本経営企画,,株式会社,熊本県,熊本市東区,健軍１丁目１８－７,,43,102,8620911,,,,,,,2025-04-23,1,,,,,クマモトケイエイキカク,0
1683,6360001035094,新規,0,2025-04-23,2025-04-23,株式会社工電,,株式会社,沖縄県,うるま市,字江洲３８１番地１,,47,213,9042244,,,,,,,2025-04-23,1,,,,,コウデン,0
1684,6360003014880,新規,0,2025-04-23,2025-04-23,リザード合同会社,,合同会社,沖縄県,那覇市,西２丁目１６番地３号屋島組本社ビル２Ｆ,,47,201,9000036,,,,,,,2025-04-23,1,,,,,リザード,0
1687,6370001052510,新規,0,2025-04-23,2025-04-23,株式会社川名工業,,株式会社,宮城県,大崎市,田尻大貫字宿下屋敷４７番地２,,04,215,9894302,,,,,,,2025-04-23,1,,,,,カワナコウギョウ,0
1688,6370005010951,新規,0,2025-04-23,2025-04-23,一般社団法人宮城就業支援ネットワーク,,その他の設立登記法人,宮城県,仙台市泉区,根白石字判在家２５番地の２,,04,105,9813221,,,,,,,2025-04-23,1,,,,,ミヤギシュウギョウシエンネットワーク,0
1697,6400003003441,新規,0,2025-04-23,2025-04-23,合同会社ＴｒａｎｓＰａｃ　Ｔｒａｄｅ　Ｓｏｌｕｔｉｏｎｓ,,合同会社,岩手県,八幡平市,平舘第２８地割１－２－１０６,,03,214,0287405,,,,,,,2025-04-23,1,,,,,トランスパックトレードソリューションズ,0
1706,6430001094216,新規,0,2025-04-23,2025-04-23,株式会社Ｍｉｎｔｉｍｅ,,株式会社,北海道,札幌市中央区,北一条東３丁目２番地１クリーンリバーフィネス大通公園東８０２号,,01,101,0600031,,,,,,,2025-04-23,1,,,,,ミンタイム,0
1707,6430001094224,新規,0,2025-04-23,2025-04-23,ＡＮＢ株式会社,,株式会社,北海道,札幌市厚別区,厚別西五条４丁目８番３号,,01,108,0040065,,,,,,,2025-04-23,1,,,,,アンビ,0
1708,6430001094249,新規,0,2025-04-23,2025-04-23,株式会社ＦｒｅｅＡｄｖａｎｃｅ,,株式会社,北海道,札幌市豊平区,中の島二条１２丁目４番３－２号,,01,105,0620922,,,,,,,2025-04-23,1,,,,,フリーアドバンス,0
1709,6430001094257,新規,0,2025-04-23,2025-04-23,ユニ・フレックスＮｅｏ株式会社,,株式会社,北海道,札幌市東区,北二十二条東９丁目１番５号,,01,103,0650022,,,,,,,2025-04-23,1,,,,,ユニフレックスネオ,0
1710,6430003017554,新規,0,2025-04-23,2025-04-23,合同会社サバさん家,,合同会社,北海道,札幌市清田区,平岡九条１丁目８－１５,,01,110,0040879,,,,,,,2025-04-23,1,,,,,サバサンチ,0
1711,6430003017570,新規,0,2025-04-23,2025-04-23,合同会社ＴＭ,,合同会社,北海道,札幌市中央区,南十条西１０丁目１－２０さくらビル４階Ｃ,,01,101,0640810,,,,,,,2025-04-23,1,,,,,ティーエム,0
1712,6430005015226,新規,0,2025-04-23,2025-04-23,一般社団法人さっぽろクエスト,,その他の設立登記法人,北海道,札幌市中央区,南四条西４丁目１６番恵愛ビル８Ｆ,,01,101,0640804,,,,,,,2025-04-23,1,,,,,サッポロクエスト,0
1719,6490001011025,新規,0,2025-04-23,2025-04-23,株式会社アクアフィットケア,,株式会社,高知県,高知市,鴨部１丁目１０番２９号,,39,201,7808052,,,,,,,2025-04-23,1,,,,,アクアフィットケア,0
1720,6700150130108,新規,0,2025-04-23,2025-04-23,国立健康危機管理研究機構健康保険組合,,その他,東京都,新宿区,戸山１丁目２１－１,,13,104,1620052,,,,,,,2025-04-23,1,,,,,コクリツケンコウキキカンリケンキユウキコウケンコウホケンクミアイ,0
1725,7010001254364,新規,0,2025-04-23,2025-04-23,株式会社Ｐａｃｉｆｉｃ　Ｂｒｅｅｚｅ,,株式会社,東京都,中央区,八丁堀３丁目１１番１３号,,13,102,1040032,,,,,,,2025-04-23,1,,,,,パシフィックブリーズ,0
1726,7010001254372,新規,0,2025-04-23,2025-04-23,株式会社エクセルアドバンスパートナーズ,,株式会社,東京都,千代田区,大手町１丁目６番１号大手町ビル,,13,101,1000004,,,,,,,2025-04-23,1,,,,,エクセルアドバンスパートナーズ,0
1727,7010001254389,新規,0,2025-04-23,2025-04-23,Ｓａｍｕｒａｉ　Ｌｅａｄ　Ｂａｎｋ株式会社,,株式会社,東京都,千代田区,六番町６番地４ＬＨ番町スクエア５階,,13,101,1020085,,,,,,,2025-04-23,1,,,,,サムライリードバンク,0
1728,7010001254397,新規,0,2025-04-23,2025-04-23,ＣａｒｂｏｎＮｅｓｔ株式会社,,株式会社,東京都,千代田区,神田須田町１丁目７番８号ＶＯＲＴ秋葉原ＩＶ２Ｆ,00138880,13,101,1010041,,,,,,,2025-04-23,1,,,,,カーボンネスト,0
1729,7010001254422,新規,0,2025-04-23,2025-04-23,株式会社ｌｍｉｎｎ,,株式会社,東京都,中央区,銀座１丁目１２－４Ｎ＆ＥＢＬＤ．７階,,13,102,1040061,,,,,,,2025-04-23,1,,,,,リミン,0
1730,7010001254439,新規,0,2025-04-23,2025-04-23,株式会社ＴＫアドバンス,,株式会社,東京都,文京区,千駄木１丁目１３番８号,,13,105,1130022,,,,,,,2025-04-23,1,,,,,ティーケーアドバンス,0
1731,7010001254455,新規,0,2025-04-23,2025-04-23,株式会社ＥＴＡＬ,,株式会社,東京都,中央区,日本橋堀留町２丁目６－２－１１０２,,13,102,1030012,,,,,,,2025-04-23,1,,,,,エタル,0
1740,7010101016648,新規,0,2025-04-23,2025-04-23,株式会社ｃｏｒｅ,,株式会社,東京都,八王子市,元本郷町３丁目１６番９号誠光ビル２階,,13,201,1920051,,,,,,,2025-04-23,1,,,,,コア,0
1748,7010401189532,新規,0,2025-04-23,2025-04-23,株式会社創栄堂,,株式会社,東京都,港区,新橋４丁目１４番１新橋ＡＵＮＢＬＤＧ４階,,13,103,1050004,,,,,,,2025-04-23,1,,,,,ソウエイドウ,0
1749,7010401189854,新規,0,2025-04-23,2025-04-23,インタビュールーム株式会社,,株式会社,東京都,港区,赤坂２丁目１４－８山口建設ビル,,13,103,1070052,,,,,,,2025-04-23,1,,,,,インタビュールーム,0
1750,7010401189887,新規,0,2025-04-23,2025-04-23,株式会社ダーマス,,株式会社,東京都,港区,北青山１丁目３番１号アールキューブ青山３階,,13,103,1070061,,,,,,,2025-04-23,1,,,,,ダーマス,0
1751,7010401189920,新規,0,2025-04-23,2025-04-23,株式会社従業員承継１号,,株式会社,東京都,港区,新橋２丁目１－１山口ビルディング１階,,13,103,1050004,,,,,,,2025-04-23,1,,,,,ジュウギョウインショウケイイチゴウ,0
1754,7010403034950,新規,0,2025-04-23,2025-04-23,阿賀新潟合同会社,,合同会社,東京都,港区,赤坂２丁目１４番５号,,13,103,1070052,,,,,,,2025-04-23,1,,,,,アガニイガタ,0
1755,7010405024355,新規,0,2025-04-23,2025-04-23,一般社団法人ＣＬｅＰ,,その他の設立登記法人,東京都,港区,赤坂４丁目２番６号,,13,103,1070052,,,,,,,2025-04-23,1,,,,,クレップ,0
1760,7010601067174,新規,0,2025-04-23,2025-04-23,株式会社まごころ水道店,,株式会社,東京都,江東区,亀戸２丁目３９番４号吉村ビル１０１,,13,108,1360071,,,,,,,2025-04-23,1,,,,,マゴコロスイドウテン,0
1761,7010601067182,新規,0,2025-04-23,2025-04-23,東鹿株式会社,,株式会社,東京都,江東区,亀戸３丁目４１番１８号,,13,108,1360071,,,,,,,2025-04-23,1,,,,,トウカ,0
1762,7010601067190,新規,0,2025-04-23,2025-04-23,株式会社エイトコンサルティング,,株式会社,東京都,江東区,豊洲６丁目２番３１－３９２９号,,13,108,1350061,,,,,,,2025-04-23,1,,,,,エイトコンサルティング,0
1764,7010605004446,新規,0,2025-04-23,2025-04-23,一般社団法人金融犯罪対策協会,,その他の設立登記法人,東京都,江東区,豊洲３丁目２番２４号ＳＣＳＫＲｅｇＴｅｃｈＥｄｇｅ株式会社内,,13,108,1350061,,,,,,,2025-04-23,1,,,,,キンユウハンザイタイサクキョウカイ,0
1767,7010701047596,新規,0,2025-04-23,2025-04-23,株式会社アトズ,,株式会社,東京都,品川区,南大井１丁目１７番６－２０６号,,13,109,1400013,,,,,,,2025-04-23,1,,,,,アトズ,0
1768,7010701047605,新規,0,2025-04-23,2025-04-23,株式会社Ｖａｚ　Ｐｒｏｍｏｔｉｏｎ,,株式会社,東京都,品川区,豊町１丁目８番１９号,,13,109,1420042,,,,,,,2025-04-23,1,,,,,バズプロモーション,0
1769,7010803005353,新規,0,2025-04-23,2025-04-23,合同会社ＫＰＳＪ,,合同会社,東京都,大田区,久が原３丁目３４番１３号コロラードマルワ２０５号,,13,111,1460085,,,,,,,2025-04-23,1,,,,,ケーピーエスジェイ,0
1775,7010901057230,新規,0,2025-04-23,2025-04-23,ＮＥＯ　ＰＥＴＴＯ株式会社,,株式会社,東京都,世田谷区,砧４丁目３０番１８号－１,,13,112,1570073,,,,,,,2025-04-23,1,,,,,ネオペット,0
1776,7010905004765,新規,0,2025-04-23,2025-04-23,一般社団法人Ｔｅａｍ　Ｈｕｓｔｌｅ,,その他の設立登記法人,東京都,世田谷区,船橋４丁目３９－２３,,13,112,1560055,,,,,,,2025-04-23,1,,,,,チームハッスル,0
1785,7011001169073,新規,0,2025-04-23,2025-04-23,株式会社Ｒ２,,株式会社,東京都,渋谷区,神宮前６丁目１２番２５号,,13,113,1500001,,,,,,,2025-04-23,1,,,,,アールツー,0
1789,7011101111488,新規,0,2025-04-23,2025-04-23,株式会社旅プラス,,株式会社,東京都,新宿区,高田馬場２丁目１９番８号,,13,104,1690075,,,,,,,2025-04-23,1,,,,,タビプラス,0
1790,7011101111496,新規,0,2025-04-23,2025-04-23,ステイゴールド株式会社,,株式会社,東京都,新宿区,山吹町３１５番地２ｎｅｓｔａｙｉｎｎｔｏｋｙｏ神楽坂２０１,,13,104,1620801,,,,,,,2025-04-23,1,,,,,ステイゴールド,0
1791,7011101111554,新規,0,2025-04-23,2025-04-23,株式会社ドングリ,,株式会社,東京都,新宿区,大久保２丁目１４番１６号西大久保イレブン３０６,,13,104,1690072,,,,,,,2025-04-23,1,,,,,ドングリ,0
1793,7011103015828,新規,0,2025-04-23,2025-04-23,合同会社メンピカ,,合同会社,東京都,新宿区,新宿５丁目１０番１９号大和ビル１０２,,13,104,1600022,,,,,,,2025-04-23,1,,,,,メンピカ,0
1796,7011301030513,新規,0,2025-04-23,2025-04-23,株式会社ＳｅｃｏｎｄＲｏｏｍ,,株式会社,東京都,杉並区,高井戸東３丁目１４番３５－６号,,13,115,1680072,,,,,,,2025-04-23,1,,,,,セカンドルーム,0
1797,7011301030521,新規,0,2025-04-23,2025-04-23,ＴＩＮＲＵＮ株式会社,,株式会社,東京都,杉並区,梅里１丁目２２－２６－２０７号室,,13,115,1660011,,,,,,,2025-04-23,1,,,,,ティンラン,0
1798,7011303005513,新規,0,2025-04-23,2025-04-23,合同会社ＹＯＭＩ,,合同会社,東京都,杉並区,和田１丁目２１番１号,,13,115,1660012,,,,,,,2025-04-23,1,,,,,ヨミ,0
1799,7011501031971,新規,0,2025-04-23,2025-04-23,株式会社ＦＩＯＲＥ,,株式会社,東京都,北区,豊島１丁目８－３ＵＲビル５Ｆ,,13,117,1140003,,,,,,,2025-04-23,1,,,,,フィオーレ,0
1801,7011603004677,新規,0,2025-04-23,2025-04-23,合同会社ＴＯＫＵＳＹＯ,,合同会社,東京都,練馬区,北町１丁目２５－１３－２０１,,13,120,1790081,,,,,,,2025-04-23,1,,,,,トクショウ,0
1816,7012401043017,新規,0,2025-04-23,2025-04-23,株式会社渋谷工務店,,株式会社,東京都,府中市,四谷３丁目５５番地の１３６,,13,206,1830035,,,,,,,2025-04-23,1,,,,,シブヤコウムテン,0
1839,7020001162517,新規,0,2025-04-23,2025-04-23,株式会社エイワンマネジメント,,株式会社,神奈川県,横浜市緑区,三保町３００６番地１１,,14,113,2260015,,,,,,,2025-04-23,1,,,,,エイワンマネジメント,0
1840,7020001162533,新規,0,2025-04-23,2025-04-23,株式会社川辺創業,,株式会社,神奈川県,川崎市宮前区,有馬６丁目１４番１３－２０３号,,14,136,2160003,,,,,,,2025-04-23,1,,,,,カワベソウギョウ,0
1843,7020003028336,新規,0,2025-04-23,2025-04-23,ＳＯＦＡ合同会社,,合同会社,神奈川県,横浜市西区,北幸２丁目１０番４８号むつみビル３階,,14,103,2200004,,,,,,,2025-04-23,1,,,,,ソファー,0
1844,7021001084981,新規,0,2025-04-23,2025-04-23,株式会社アズオブ,,株式会社,神奈川県,平塚市,明石町１６番１８号,,14,203,2540042,,,,,,,2025-04-23,1,,,,,アズオブ,0
1845,7021001085039,新規,0,2025-04-23,2025-04-23,Ｈｙｄｒｏｆｏｉｌ　Ａｄｖｅｎｔｕｒｅｒ株式会社,,株式会社,神奈川県,茅ヶ崎市,共恵１丁目１６番３号,,14,207,2530056,,,,,,,2025-04-23,1,,,,,ハイドロフォイルアドベンチャー,0
1846,7021001085047,新規,0,2025-04-23,2025-04-23,株式会社絆,,株式会社,神奈川県,横須賀市,二葉１丁目４３番１３号,,14,201,2390814,,,,,,,2025-04-23,1,,,,,キズナ,0
1847,7021001085063,新規,0,2025-04-23,2025-04-23,株式会社ＨＯＬＹ湘南,,株式会社,神奈川県,鎌倉市,腰越７７３番地６,,14,204,2480033,,,,,,,2025-04-23,1,,,,,ホーリーショウナン,0
1857,7030001166129,新規,0,2025-04-23,2025-04-23,株式会社アサカ窓業,,株式会社,埼玉県,朝霞市,三原３丁目２６番１－６１４号,,11,227,3510025,,,,,,,2025-04-23,1,,,,,アサカソウギョウ,0
1858,7030001166161,新規,0,2025-04-23,2025-04-23,株式会社くろねこＣｏ．Ｌｔｄ,,株式会社,埼玉県,さいたま市浦和区,北浦和２丁目３番８号ノースピアＬ４０２号室,,11,107,3300074,,,,,,,2025-04-23,1,,,,,クロネココーポレーションリミテッド,0
1867,7040001138366,新規,0,2025-04-23,2025-04-23,株式会社Ｉｎｆｉｘ,,株式会社,千葉県,船橋市,湊町１丁目１０番７－２号,,12,204,2730011,,,,,,,2025-04-23,1,,,,,インフィックス,0
1868,7040001138408,新規,0,2025-04-23,2025-04-23,Ｌｏｇｉｐｅｒｔ株式会社,,株式会社,千葉県,船橋市,八木が谷３丁目１２番１９号,,12,204,2740802,,,,,,,2025-04-23,1,,,,,ロジパート,0
1872,7040003027369,新規,0,2025-04-23,2025-04-23,Ｌａｖｉｅ合同会社,,合同会社,千葉県,成田市,玉造２丁目２５番地３５,,12,211,2860011,,,,,,,2025-04-23,1,,,,,ラヴィエ,0
1876,7050001056575,新規,0,2025-04-23,2025-04-23,株式会社アポロスター,,株式会社,茨城県,稲敷郡阿見町,大字阿見４１８番地６０,,08,443,3000331,,,,,,,2025-04-23,1,,,,,アポロスター,0
1878,7050003009218,新規,0,2025-04-23,2025-04-23,合同会社ＭＧＭ　Ｗｏｒｌｄｗｉｄｅ,,合同会社,茨城県,牛久市,久野町１４７８番地１,,08,219,3001288,,,,,,,2025-04-23,1,,,,,エムジーエムワールドワイド,0
1879,7060001038127,新規,0,2025-04-23,2025-04-23,ＫＨＡＬＩＦＡ　ＴＲＡＤＥＲＳ株式会社,,株式会社,栃木県,小山市,大字南和泉９５７番地２,,09,208,3230816,,,,,,,2025-04-23,1,,,,,カリファトレーダーズ,0
1882,7080001026889,新規,0,2025-04-23,2025-04-23,株式会社ＮＳホールディングス,,株式会社,静岡県,藤枝市,岡部町岡部１２０７番地の１,,22,214,4211121,,,,,,,2025-04-23,1,,,,,エヌエスホールディングス,0
1883,7080101025460,新規,0,2025-04-23,2025-04-23,中村鉄筋工業株式会社,,株式会社,静岡県,熱海市,清水町４番１６号,,22,205,4130021,,,,,,,2025-04-23,1,,,,,ナカムラテッキンコウギョウ,0
1901,7120001274707,新規,0,2025-04-23,2025-04-23,Ｌｅｏｎｉｓ株式会社,,株式会社,大阪府,大阪市中央区,南船場３丁目１１番２７号,,27,128,5420081,,,,,,,2025-04-23,1,,,,,レオニス,0
1902,7120001274780,新規,0,2025-04-23,2025-04-23,ＳＰＡＲＫ株式会社,,株式会社,大阪府,大阪市鶴見区,横堤１丁目７番２０号,,27,124,5380052,,,,,,,2025-04-23,1,,,,,スパーク,0
1903,7120001274789,新規,0,2025-04-23,2025-04-23,株式会社鑑,,株式会社,大阪府,大阪市天王寺区,烏ケ辻１丁目３番１８号７０４,,27,109,5430042,,,,,,,2025-04-23,1,,,,,カガミ,0
1904,7120001274814,新規,0,2025-04-23,2025-04-23,株式会社つなぐ,,株式会社,大阪府,枚方市,田口山１丁目３５番１０－２０５号,,27,210,5730001,,,,,,,2025-04-23,1,,,,,ツナグ,0
1914,7120901050736,新規,0,2025-04-23,2025-04-23,株式会社色,,株式会社,大阪府,豊中市,庄内西町３丁目１９－１８,,27,203,5610832,,,,,,,2025-04-23,1,,,,,イロ,0
1917,7130001079477,新規,0,2025-04-23,2025-04-23,株式会社ＡＬＶＥＬＬＡ,,株式会社,京都府,京都市中京区,六角通室町西入玉蔵町１２３番地グランレブリー室町六角１０１,,26,104,6048211,,,,,,,2025-04-23,1,,,,,アルベラ,0
1924,7140001138240,新規,0,2025-04-23,2025-04-23,株式会社アシスト,,株式会社,兵庫県,尼崎市,神田南通２丁目４３番地の２,,28,202,6600885,,,,,,,2025-04-23,1,,,,,アシスト,0
1925,7140001138257,新規,0,2025-04-23,2025-04-23,株式会社ホリストラ,,株式会社,兵庫県,丹波市,氷上町成松２５２番地,,28,223,6693601,,,,,,,2025-04-23,1,,,,,ホリストラ,0
1928,7140005027489,新規,0,2025-04-23,2025-04-23,医療法人社団嘴円会,,その他の設立登記法人,兵庫県,宝塚市,中筋８丁目１３番１３号,,28,214,6650874,,,,,,,2025-04-23,1,,,,,シエンカイ,0
1937,7180001166353,新規,0,2025-04-23,2025-04-23,中国瀛海株式会社,,株式会社,愛知県,名古屋市南区,柴田本通１丁目２番地,,23,112,4570814,,,,,,,2025-04-23,1,,,,,チュウゴクイーハイ,0
1938,7180001166519,新規,0,2025-04-23,2025-04-23,株式会社グルリックス,,株式会社,愛知県,名古屋市東区,筒井１丁目１４番１８号,,23,102,4610003,,,,,,,2025-04-23,1,,,,,グルリックス,0
1944,7190001032174,新規,0,2025-04-23,2025-04-23,株式会社ＧＲＥＥＮＳＴＡＲ,,株式会社,三重県,三重郡川越町,大字南福崎５３番地６,,24,344,5108124,,,,,,,2025-04-23,1,,,,,,0
1947,7220001026635,新規,0,2025-04-23,2025-04-23,株式会社Ｇａｌｌｅｒｙかじ乙,,株式会社,石川県,金沢市,尾張町１丁目４番５号,,17,201,9200902,,,,,,,2025-04-23,1,,,,,ギャラリーカジオト,0
1953,7240001064831,新規,0,2025-04-23,2025-04-23,株式会社アメニティプラスＵ,,株式会社,広島県,広島市中区,竹屋町３番２１－４０２号,,34,101,7300048,,,,,,,2025-04-23,1,,,,,アメニティプラスユー,0
1957,7250003003662,新規,0,2025-04-23,2025-04-23,ＦＵＬＬＢＡＣＫ合同会社,,合同会社,山口県,長門市,東深川１８６－１,,35,211,7594101,,,,,,,2025-04-23,1,,,,,フルバック,0
1963,7290001109722,新規,0,2025-04-23,2025-04-23,星河之息株式会社,,株式会社,福岡県,福岡市南区,多賀１丁目４番２５号多賀荘１０２号,,40,134,8150072,,,,,,,2025-04-23,1,,,,,セイガノイキ,0
1964,7290001109805,新規,0,2025-04-23,2025-04-23,株式会社ＳＡＩ建築社,,株式会社,福岡県,福岡市早良区,野芥４丁目４５番５１号,,40,137,8140171,,,,,,,2025-04-23,1,,,,,サイケンチクシャ,0
1966,7290003016719,新規,0,2025-04-23,2025-04-23,アリア合同会社,,合同会社,福岡県,福岡市中央区,大宮２丁目５番２１－４０３号ラフィネスネオシティ平尾,,40,133,8100013,,,,,,,2025-04-23,1,,,,,アリア,0
1967,7290003016743,新規,0,2025-04-23,2025-04-23,合同会社ｎｉｓａ,,合同会社,福岡県,福岡市博多区,中洲２丁目６番７号ジョイフルヤマモトビル６階４号室,,40,132,8100801,,,,,,,2025-04-23,1,,,,,ニーサ,0
1972,7320001021056,新規,0,2025-04-23,2025-04-23,株式会社Ｇ・Ｍａｓｔｅｒ　Ｊａｐａｎ,,株式会社,大分県,別府市,照波園町２－５０・１０８号,,44,202,8740031,,,,,,,2025-04-23,1,,,,,ジマスタージャパン,0
1973,7330001033125,新規,0,2025-04-23,2025-04-23,株式会社Ｍ．ＧＲＩＴサポート,,株式会社,熊本県,熊本市西区,谷尾崎町４７０番地１０,,43,103,8600044,,,,,,,2025-04-23,1,,,,,エムグリットサポート,0
1974,7330001033133,新規,0,2025-04-23,2025-04-23,株式会社北里農林,,株式会社,熊本県,熊本市西区,花園７丁目６－３３,,43,103,8600072,,,,,,,2025-04-23,1,,,,,キタサトノウリン,0
1976,7330003010972,新規,0,2025-04-23,2025-04-23,合同会社虹いろ,,合同会社,熊本県,熊本市南区,出仲間１丁目８番１２号,,43,104,8620963,,,,,,,2025-04-23,1,,,,,ニジイロ,0
1978,7340003004833,新規,0,2025-04-23,2025-04-23,合同会社シェノン,,合同会社,鹿児島県,薩摩川内市,国分寺町６８２６番地３,,46,215,8950073,,,,,,,2025-04-23,1,,,,,シェノン,0
1985,7360005007221,新規,0,2025-04-23,2025-04-23,一般社団法人ごさまるっ子,,その他の設立登記法人,沖縄県,中頭郡中城村,字南上原５５５番地,,47,328,9012424,,,,,,,2025-04-23,1,,,,,ゴサマルッコ,0
1986,7370003007057,新規,0,2025-04-23,2025-04-23,合同会社輪廻,,合同会社,宮城県,仙台市青葉区,堤町３丁目５－２８ｃｕｂｅ北仙台１Ｆ,,04,101,9810912,,,,,,,2025-04-23,1,,,,,リンネ,0
1998,7400003003440,新規,0,2025-04-23,2025-04-23,合同会社江和セキュリティ,,合同会社,岩手県,北上市,下江釣子１３地割７０番地１,,03,206,0240073,,,,,,,2025-04-23,1,,,,,コウワセキュリティ,0
2000,7410005006639,新規,0,2025-04-23,2025-04-23,一般社団法人秋田県ドローン協会,,その他の設立登記法人,秋田県,秋田市,山王３丁目８番２６号セントラルアネックスビル２Ｆ,,05,201,0100951,,,,,,,2025-04-23,1,,,,,アキタケンドローンキョウカイ,0
2008,7430001094215,新規,0,2025-04-23,2025-04-23,株式会社アテナデベロップメント,,株式会社,北海道,千歳市,清水町４丁目１０－５,,01,224,0660041,,,,,,,2025-04-23,1,,,,,アテナデベロップメント,0
2009,7430001094248,新規,0,2025-04-23,2025-04-23,Ｌｉｆｅ　Ｒｏｏｍ株式会社,,株式会社,北海道,札幌市南区,簾舞三条５丁目８番３１,,01,106,0612263,,,,,,,2025-04-23,1,,,,,ライフルーム,0
2010,7430001094264,新規,0,2025-04-23,2025-04-23,株式会社ＡＧＵ,,株式会社,北海道,札幌市白石区,菊水上町一条１丁目４５番地１－３０２号,,01,104,0030811,,,,,,,2025-04-23,1,,,,,アグ,0
2015,7470001020679,新規,0,2025-04-23,2025-04-23,株式会社光洋不動産,,株式会社,香川県,坂出市,築港町２丁目７番１２号,,37,203,7620055,,,,,,,2025-04-23,1,,,,,コウヨウフドウサン,0
2016,7470003002873,新規,0,2025-04-23,2025-04-23,アース合同会社,,合同会社,香川県,高松市,鍛冶屋町３番地香川三友ビル５Ｆ,,37,201,7600028,,,,,,,2025-04-23,1,,,,,アース,0
2022,7500005008790,新規,0,2025-04-23,2025-04-23,一般社団法人Ｌｏｖｅ＆Ｓａｆｅｔｙさいじょう,,その他の設立登記法人,愛媛県,西条市,神拝甲６１８番地１テナント１０３号,,38,206,7930041,,,,,,,2025-04-23,1,,,,,ラブアンドセーフティサイジョウ,0
2023,7700150130107,新規,0,2025-04-23,2025-04-23,Ｗｕｘｉ　Ｓｕｏｗｅｉ　Ｔｅｃｈｎｏｌｏｇｙ　Ｃｏ．，Ｌｔｄ,,外国会社等,,,,,,,,９－１５１９　Ｓｈｅｎｇａｎｇｄｕｈｕｉ　Ｐｌａｚａ　Ｎｏ．２９９　Ｆａｎｇｃｈｅｎｇ　Ｒｏａｄ　Ｘｉｎｗｕ　Ｄｉｓｔｒｉｃｔ　Ｗｕｘｉ,,,,,,2025-04-23,1,,,,,ウーシースオウェイコージーヨウシエンゴンスー,0
2033,8010001254339,新規,0,2025-04-23,2025-04-23,日林製薬株式会社,,株式会社,東京都,千代田区,外神田３丁目１－１,,13,101,1010021,,,,,,,2025-04-23,1,,,,,ニチリンセイヤク,0
2034,8010001254355,新規,0,2025-04-23,2025-04-23,ＰＥＰ株式会社,,株式会社,東京都,千代田区,神田佐久間町３丁目２８星野ビル４Ｆ１１号,,13,101,1010025,,,,,,,2025-04-23,1,,,,,ピーイーピー,0
2035,8010001254388,新規,0,2025-04-23,2025-04-23,フロンティアフォー株式会社,,株式会社,東京都,千代田区,神田和泉町１番地１３の１３,,13,101,1010024,,,,,,,2025-04-23,1,,,,,フロンティアフォー,0
2036,8010001254396,新規,0,2025-04-23,2025-04-23,株式会社ビジネスドア,,株式会社,東京都,中央区,日本橋３丁目６番２号日本橋フロント１階,,13,102,1030027,,,,,,,2025-04-23,1,,,,,ビジネスドア,0
2037,8010001254438,新規,0,2025-04-23,2025-04-23,ＭＨりんりん薬局株式会社,,株式会社,東京都,中央区,築地２丁目８番１－１０２号,,13,102,1040045,,,,,,,2025-04-23,1,,,,,エムエイチリンリンヤッキョク,0
2038,8010001254454,新規,0,2025-04-23,2025-04-23,株式会社ヴィジョンマインドウェル,,株式会社,東京都,中央区,銀座１丁目２２番１１号銀座大竹ビジデンス２Ｆ,,13,102,1040061,,,,,,,2025-04-23,1,,,,,,0
2041,8010003047105,新規,0,2025-04-23,2025-04-23,合同会社Ｒｅｒｕｎ,,合同会社,東京都,中央区,銀座１丁目１２番４号Ｎ＆ＥＢＬＤ．７階,,13,102,1040061,,,,,,,2025-04-23,1,,,,,リラン,0
2042,8010003047121,新規,0,2025-04-23,2025-04-23,ＰＭＩ　ＷＷ　Ｂｒａｎｄｓ　Ｊａｐａｎ合同会社,,合同会社,東京都,中央区,銀座６丁目１０番１号,,13,102,1040061,,,,,,,2025-04-23,1,,,,,ピーエムアイダブリューダブリューブランズジャパン,0
2043,8010003047138,新規,0,2025-04-23,2025-04-23,合同会社フォーティーフォー,,合同会社,東京都,中央区,勝どき１丁目８番１－２８０９号,,13,102,1040054,,,,,,,2025-04-23,1,,,,,フォーティーフォー,0
2044,8010003047146,新規,0,2025-04-23,2025-04-23,合同会社ＴＥＮ,,合同会社,東京都,千代田区,外神田３丁目８－３,,13,101,1010021,,,,,,,2025-04-23,1,,,,,テン,0
2045,8010003047162,新規,0,2025-04-23,2025-04-23,合同会社オーギュメント,,合同会社,東京都,千代田区,岩本町１丁目２番１６号,,13,101,1010032,,,,,,,2025-04-23,1,,,,,オーギュメント,0
2047,8010101016647,新規,0,2025-04-23,2025-04-23,株式会社リペアワークス,,株式会社,東京都,八王子市,鹿島２２番地・１－４１４,,13,201,1920353,,,,,,,2025-04-23,1,,,,,リペアワークス,0
2053,8010401189886,新規,0,2025-04-23,2025-04-23,ＲＳＢＭ株式会社,,株式会社,東京都,港区,六本木６丁目３番１号六本木ヒルズクロスポイント６階,,13,103,1060032,,,,,,,2025-04-23,1,,,,,アールエスビーエム,0
2059,8010403034875,新規,0,2025-04-23,2025-04-23,Ｃｏｔｏｎｏｈａ合同会社,,合同会社,東京都,港区,北青山１丁目３－３三橋ビル３階,,13,103,1070061,,,,,,,2025-04-23,1,,,,,コトノハ,0
2062,8010503007772,新規,0,2025-04-23,2025-04-23,合同会社ＪＴＫ,,合同会社,東京都,台東区,上野５丁目１６番１６号,,13,106,1100005,,,,,,,2025-04-23,1,,,,,ジェイティーケー,0
2064,8010601067198,新規,0,2025-04-23,2025-04-23,株式会社恒益,,株式会社,東京都,江東区,亀戸７丁目３９番１８号トレゾール亀戸５０１,,13,108,1360071,,,,,,,2025-04-23,1,,,,,コウエキ,0
2066,8010801036085,新規,0,2025-04-23,2025-04-23,株式会社天栄商店,,株式会社,東京都,大田区,大森西３丁目３２番１７－３０６号,,13,111,1430015,,,,,,,2025-04-23,1,,,,,テンエイショウテン,0
2071,8010905004772,新規,0,2025-04-23,2025-04-23,一般社団法人みんなのがっこう,,その他の設立登記法人,東京都,世田谷区,代沢２丁目３６番３号,,13,112,1550032,,,,,,,2025-04-23,1,,,,,ミンナノガッコウ,0
2075,8011001169106,新規,0,2025-04-23,2025-04-23,株式会社Ｒａｉｓｅｅｅ,,株式会社,東京都,渋谷区,神南１丁目１１－４ＦＰＧリンクス神南５階,,13,113,1500041,,,,,,,2025-04-23,1,,,,,レイズ,0
2076,8011001169114,新規,0,2025-04-23,2025-04-23,株式会社ルクスリサーチ＆プランニング,,株式会社,東京都,渋谷区,道玄坂１丁目１０番８号渋谷道玄坂東急ビル２Ｆ－Ｃ,,13,113,1500043,,,,,,,2025-04-23,1,,,,,ルクスリサーチアンドプランニング,0
2079,8011003021454,新規,0,2025-04-23,2025-04-23,合同会社Ｊｉｋｕ,,合同会社,東京都,渋谷区,神泉町１０番１５号アネックス神泉３０１,,13,113,1500045,,,,,,,2025-04-23,1,,,,,ジク,0
2080,8011003021487,新規,0,2025-04-23,2025-04-23,合同会社ＡＩｃｅ　Ｂｒｉｄｇｅ,,合同会社,東京都,渋谷区,恵比寿西２丁目４番８号ウィンド恵比寿ビル,,13,113,1500021,,,,,,,2025-04-23,1,,,,,アイスブリッジ,0
2081,8011005010991,新規,0,2025-04-23,2025-04-23,一般社団法人わたしらしく生きる認知症ネットワーク,,その他の設立登記法人,東京都,目黒区,目黒１丁目４番１６号目黒Ｇビル７階,,13,110,1530063,,,,,,,2025-04-23,1,,,,,ワタシラシクイキルニンチショウネットワーク,0
2086,8011101111487,新規,0,2025-04-23,2025-04-23,ゆうねい貿易株式会社,,株式会社,東京都,新宿区,百人町１丁目１８番８号大久保カドビルＬｉｎｋＳｐａｃｅ百人町Ａ０８,,13,104,1690073,,,,,,,2025-04-23,1,,,,,ユウネイボウエキ,0
2087,8011101111504,新規,0,2025-04-23,2025-04-23,ネットサポート株式会社,,株式会社,東京都,新宿区,西新宿３丁目３番１３号西新宿水間ビル２Ｆ,,13,104,1600023,,,,,,,2025-04-23,1,,,,,ネットサポート,0
2092,8011201026296,新規,0,2025-04-23,2025-04-23,株式会社三拓商事,,株式会社,東京都,中野区,中央４丁目６番１２－１１０７号,,13,114,1640011,,,,,,,2025-04-23,1,,,,,ミタクショウジ,0
2093,8011201026305,新規,0,2025-04-23,2025-04-23,株式会社ＪＳＳＫ・雲水,,株式会社,東京都,中野区,南台３丁目３１番１５－２０４号,,13,114,1640014,,,,,,,2025-04-23,1,,,,,ジェイエスエスケーウンスイ,0
2095,8011301030520,新規,0,2025-04-23,2025-04-23,東致株式会社,,株式会社,東京都,杉並区,梅里１丁目２２－２６－２１１号室,,13,115,1660011,,,,,,,2025-04-23,1,,,,,トウチ,0
2110,8012301014348,新規,0,2025-04-23,2025-04-23,株式会社Ｃｏｎｎｅｃｔｅｄ,,株式会社,東京都,町田市,中町１丁目４番２号町田新産業創造センター,,13,209,1940021,,,,,,,2025-04-23,1,,,,,コネクティッド,0
2111,8012401043008,新規,0,2025-04-23,2025-04-23,株式会社ＳｈａｋｅＨａｎｄｓ,,株式会社,東京都,三鷹市,下連雀２丁目１９番９号,,13,204,1810013,,,,,,,2025-04-23,1,,,,,シェイクハンズ,0
2112,8012401043016,新規,0,2025-04-23,2025-04-23,株式会社ルーミー,,株式会社,東京都,武蔵野市,吉祥寺南町１丁目９番１０号ＴＯＰ吉祥寺２・５０３号室,,13,203,1800003,,,,,,,2025-04-23,1,,,,,ルーミー,0
2115,8012403007084,新規,0,2025-04-23,2025-04-23,合同会社ＫＭＧ,,合同会社,東京都,三鷹市,下連雀３丁目６番４８号メゾンピナＡ１０２,,13,204,1810013,,,,,,,2025-04-23,1,,,,,ケーエムジー,0
2116,8012701018824,新規,0,2025-04-23,2025-04-23,株式会社ｋｎｏｔ　ｃｒｅａｔｉｖｅ,,株式会社,東京都,小平市,仲町４８０番地の６,,13,211,1870042,,,,,,,2025-04-23,1,,,,,ノットクリエイティブ,0
2120,8013301054185,新規,0,2025-04-23,2025-04-23,株式会社ＮＥＸＸＴ,,株式会社,東京都,豊島区,東池袋２丁目６２番８号ＢＩＧオフィスプラザ池袋１２０６,,13,116,1700013,,,,,,,2025-04-23,1,,,,,ネクスト,0
2129,8020001162557,新規,0,2025-04-23,2025-04-23,株式会社ＪＳＮ,,株式会社,神奈川県,横浜市鶴見区,駒岡４丁目３９番８－３０８号,,14,101,2300071,,,,,,,2025-04-23,1,,,,,ジェイエスエヌ,0
2131,8020005016817,新規,0,2025-04-23,2025-04-23,医療法人社団ＴＤＣ,,その他の設立登記法人,神奈川県,横浜市金沢区,釜利谷東２丁目１４番１３号柳下ビル１階,,14,108,2360042,,,,,,,2025-04-23,1,,,,,ティーディーシー,0
2132,8021001085038,新規,0,2025-04-23,2025-04-23,株式会社ＩＧＮＩＴＥＱ,,株式会社,神奈川県,藤沢市,湘南台２丁目１０－５アンドウビル５Ｆ,,14,205,2520804,,,,,,,2025-04-23,1,,,,,イグナイテック,0
2137,8030001166128,新規,0,2025-04-23,2025-04-23,株式会社川俣電気,,株式会社,埼玉県,さいたま市中央区,本町東１丁目１３番９－３０１号,,11,105,3380003,,,,,,,2025-04-23,1,,,,,カワマタデンキ,0
2140,8030003026627,新規,0,2025-04-23,2025-04-23,Ａｎｆａｎｇ合同会社,,合同会社,埼玉県,春日部市,大場５４６番地１６,,11,214,3440021,,,,,,,2025-04-23,1,,,,,アンファング,0
2144,8040001138398,新規,0,2025-04-23,2025-04-23,株式会社ｔｒｉｐｌｉｎｋ,,株式会社,千葉県,東金市,二之袋２３２番地９,,12,213,2830052,,,,,,,2025-04-23,1,,,,,トリップリンク,0
2146,8040005022722,新規,0,2025-04-23,2025-04-23,一般財団法人まちづくり支援財団ＫＩＳＡＬＡＢ,,その他の設立登記法人,千葉県,木更津市,新田２丁目９番２８号,,12,206,2920832,,,,,,,2025-04-23,1,,,,,マチヅクリシエンザイダンキサラブ,0
2153,8080403005250,新規,0,2025-04-23,2025-04-23,合同会社ｌｏｕｒｅ,,合同会社,静岡県,浜松市浜名区,貴布祢１２４７番地,,22,139,4340038,,,,,,,2025-04-23,1,,,,,ルエ,0
2158,8110003005738,新規,0,2025-04-23,2025-04-23,合同会社紬,,合同会社,新潟県,新潟市江南区,木津２丁目３番３３号,,15,104,9500206,,,,,,,2025-04-23,1,,,,,ツムギ,0
2165,8120001274755,新規,0,2025-04-23,2025-04-23,株式会社森,,株式会社,大阪府,大阪市東淀川区,相川２丁目２３番１７－２０６号,,27,114,5330007,,,,,,,2025-04-23,1,,,,,モリ,0
2166,8120001275118,新規,0,2025-04-23,2025-04-23,株式会社Ａ＆Ｔコーポレーション,,株式会社,大阪府,大阪市淀川区,十三東４丁目７－２１００３号,,27,123,5320023,,,,,,,2025-04-23,1,,,,,エーアンドティーコーポレーション,0
2168,8120101071516,新規,0,2025-04-23,2025-04-23,ＮＦ株式会社,,株式会社,大阪府,堺市中区,深井清水町３４７０番地,,27,142,5998273,,,,,,,2025-04-23,1,,,,,エヌエフ,0
2169,8120101071524,新規,0,2025-04-23,2025-04-23,株式会社喜らく,,株式会社,大阪府,泉大津市,東助松町２丁目１－２８－３０１,,27,206,5950006,,,,,,,2025-04-23,1,,,,,キラク,0
2170,8120101071532,新規,0,2025-04-23,2025-04-23,株式会社美ｅａｔｓ,,株式会社,大阪府,岸和田市,池尻町２６３番地の３,,27,202,5960813,,,,,,,2025-04-23,1,,,,,ビイーツ,0
2171,8120101071540,新規,0,2025-04-23,2025-04-23,久井オート株式会社,,株式会社,大阪府,大阪狭山市,東野西１丁目９６８番地の８,,27,231,5890001,,,,,,,2025-04-23,1,,,,,ヒサイオート,0
2183,8130003010397,新規,0,2025-04-23,2025-04-23,合同会社ＥＤＥＮ,,合同会社,京都府,京都市中京区,河原町通三条下る２丁目山崎町２５８番地１９地下１階,,26,104,6048032,,,,,,,2025-04-23,1,,,,,エデン,0
2188,8140001138223,新規,0,2025-04-23,2025-04-23,津田商会株式会社,,株式会社,兵庫県,淡路市,北山２９４番地３,,28,226,6561512,,,,,,,2025-04-23,1,,,,,ツダショウカイ,0
2189,8140001138231,新規,0,2025-04-23,2025-04-23,株式会社ｄｕｕｔｉｎｄａ,,株式会社,兵庫県,姫路市,網干区垣内中町６２番地,,28,201,6711253,,,,,,,2025-04-23,1,,,,,ドゥーティンダ,0
2190,8140001138248,新規,0,2025-04-23,2025-04-23,ＭＫ設立準備株式会社,,株式会社,兵庫県,淡路市,大谷１１５２番地２,,28,226,6562224,,,,,,,2025-04-23,1,,,,,エムケイセツリツジュンビ,0
2191,8140001138256,新規,0,2025-04-23,2025-04-23,商業プロパティーズ株式会社,,株式会社,兵庫県,神戸市西区,北別府３丁目８番地の１,,28,111,6512117,,,,,,,2025-04-23,1,,,,,ショウギョウプロパティーズ,0
2192,8140001138289,新規,0,2025-04-23,2025-04-23,株式会社ｎｅｋｏ　ａｎｄ,,株式会社,兵庫県,西宮市,東鳴尾町１丁目６番３１－２号,,28,204,6638132,,,,,,,2025-04-23,1,,,,,ネコアンド,0
2196,8140003021930,新規,0,2025-04-23,2025-04-23,ウイングワイズ合同会社,,合同会社,兵庫県,姫路市,増位新町１丁目２４ミラキタシティ姫路４０３,,28,201,6700806,,,,,,,2025-04-23,1,,,,,ウイングワイズ,0
2197,8140003021955,新規,0,2025-04-23,2025-04-23,八咫烏マテリアル合同会社,,合同会社,兵庫県,丹波市,氷上町絹山５５０番地,,28,223,6693641,,,,,,,2025-04-23,1,,,,,ヤタガラスマテリアル,0
2198,8150003003580,新規,0,2025-04-23,2025-04-23,ならクリ合同会社,,合同会社,奈良県,生駒市,西旭ケ丘六丁目３８番地さつき荘１０６号室,,29,209,6300261,,,,,,,2025-04-23,1,,,,,ナラクリ,0
2203,8160001026707,新規,0,2025-04-23,2025-04-23,株式会社ワイズ,,株式会社,滋賀県,栗東市,綣９丁目１１番１２号,,25,208,5203031,,,,,,,2025-04-23,1,,,,,ワイズ,0
2206,8170001018587,新規,0,2025-04-23,2025-04-23,リビングライフ株式会社,,株式会社,和歌山県,岩出市,備前４６番地の１,,30,209,6496233,,,,,,,2025-04-23,1,,,,,リビングライフ,0
2220,8180301039745,新規,0,2025-04-23,2025-04-23,株式会社ＮＤＫ,,株式会社,愛知県,岡崎市,赤渋町字上池２９番地,,23,202,4440241,,,,,,,2025-04-23,1,,,,,エヌディーケー,0
2225,8220001026634,新規,0,2025-04-23,2025-04-23,株式会社ＭＩＴＩ,,株式会社,石川県,かほく市,七窪へ８２番地１６,,17,209,9291122,,,,,,,2025-04-23,1,,,,,ミチ,0
2236,8270001009188,新規,0,2025-04-23,2025-04-23,株式会社出雲テクノロジー,,株式会社,鳥取県,米子市,大篠津町２１７９番地,,31,202,6830101,,,,,,,2025-04-23,1,,,,,イズモテクノロジー,0
2239,8290001109787,新規,0,2025-04-23,2025-04-23,三浦鼎洋株式会社,,株式会社,福岡県,福岡市城南区,別府３丁目４番２８号,,40,136,8140104,,,,,,,2025-04-23,1,,,,,ミウラテイヨウ,0
2241,8290003016726,新規,0,2025-04-23,2025-04-23,合同会社Ｍｅ．ｍｏｌａ,,合同会社,福岡県,福岡市中央区,天神２丁目２番１２号Ｔ＆Ｊビルディング７Ｆ,,40,133,8100001,,,,,,,2025-04-23,1,,,,,メモーラ,0
2242,8290003016742,新規,0,2025-04-23,2025-04-23,合同会社ｋａｎｚｅｏｎ,,合同会社,福岡県,福岡市博多区,光丘町２丁目２番１１号,,40,132,8120874,,,,,,,2025-04-23,1,,,,,カンゼオン,0
2246,8310001019570,新規,0,2025-04-23,2025-04-23,株式会社ＬＵＭＩＳＥＣ,,株式会社,長崎県,長崎市,万屋町５番４号,,42,201,8500852,,,,,,,2025-04-23,1,,,,,ルミセック,0
2248,8330003010971,新規,0,2025-04-23,2025-04-23,ＭＨＡ合同会社,,合同会社,熊本県,上益城郡嘉島町,大字上島１１４５番地１,,43,442,8613106,,,,,,,2025-04-23,1,,,,,エムエイチエー,0
2252,8340003004832,新規,0,2025-04-23,2025-04-23,合同会社南国ばなな,,合同会社,鹿児島県,鹿児島市,西千石町７－２０－３０１,,46,201,8920847,,,,,,,2025-04-23,1,,,,,ナンゴクバナナ,0
2265,8360001035101,新規,0,2025-04-23,2025-04-23,株式会社ＡｄＲｉｓｅ,,株式会社,沖縄県,那覇市,久茂地１丁目１番１号９階,,47,201,9000015,,,,,,,2025-04-23,1,,,,,アドライズ,0
2268,8360003014870,新規,0,2025-04-23,2025-04-23,合同会社ＷＥＢでええじゃないか,,合同会社,沖縄県,那覇市,宇栄原３丁目６番１６号ビッグ・キャッスル３０６,,47,201,9010153,,,,,,,2025-04-23,1,,,,,ウェブデエエジャナイカ,0
2269,8360003014879,新規,0,2025-04-23,2025-04-23,合同会社フレア,,合同会社,沖縄県,浦添市,牧港５丁目１６－７,,47,208,9012131,,,,,,,2025-04-23,1,,,,,,0
2290,8430003017544,新規,0,2025-04-23,2025-04-23,合同会社健食の杜,,合同会社,北海道,札幌市北区,屯田七条１丁目１２番１６号,,01,102,0020857,,,,,,,2025-04-23,1,,,,,ケンショクノモリ,0
2291,8430003017577,新規,0,2025-04-23,2025-04-23,ＶｉｔａｌＲｉｓｅ合同会社,,合同会社,北海道,札幌市中央区,南二条西５丁目３１－１ＲＭＢｌｄ．７０１,,01,101,0600062,,,,,,,2025-04-23,1,,,,,バイタルライズ,0
2292,8440003001679,新規,0,2025-04-23,2025-04-23,ＬＩＦＥ　ｉｓ合同会社,,合同会社,北海道,二海郡八雲町,元町６６,,01,346,0493101,,,,,,,2025-04-23,1,,,,,ライフイズ,0
2297,8470003002872,新規,0,2025-04-23,2025-04-23,合同会社侑輝にしダイニング,,合同会社,香川県,高松市,一宮町４３３番地５,,37,201,7618084,,,,,,,2025-04-23,1,,,,,ユキニシダイニング,0
2299,8480005007084,新規,0,2025-04-23,2025-04-23,一般社団法人すばこアートラボ,,その他の設立登記法人,徳島県,徳島市,徳島町３丁目６１番２,,36,201,7700852,,,,,,,2025-04-23,1,,,,,スバコアートラボ,0
2302,8700150130106,新規,0,2025-04-23,2025-04-23,Ｓｈｅｎｚｈｅｎ　ＷＥＭＡ　Ｉｎｎｏｖａｔｉｏｎｓ　Ｔｅｃｈｎｏｌｏｇｙ　Ｃｏ．，Ｌｔｄ．,,外国会社等,,,,,,,,Ｒｏｏｍ　４０３，Ｄａｓａｎ　Ｖｉｌｌａｇｅ，Ｘｉｎｇｆｕ　Ｃｏｍｍｕｎｉｔｙ，Ｆｕｃｈｅｎｇ　Ｓｔｒｅｅｔ，Ｌｏｎｇｈｕａ　Ｄｉｓｔｒｉｃｔ，Ｓｈｅｎｚｈｅｎ，Ｃｈｉｎａ,,,,,,2025-04-23,1,,,,,シェンジェンシーウェイマーチュワンシンコージーヨウシエンゴンスー,0
2303,8700150130122,新規,0,2025-04-23,2025-04-23,Ｔｉｎｇｙｉ　Ｃａｙｍａｎ　Ｉｓｌａｎｄｓ　Ｈｏｌｄｉｎｇ　Ｃｏｒｐ．,,外国会社等,東京都,港区,赤坂３丁目５－２　サンヨー赤坂ビル９Ｆ,,13,103,1070052,英国領島ケーマン島，ＫＹ１－１１０４グランドケーマン，アグランドハウス，メイプルズ・コーポレート・サービス・リミテッド郵便ボックス３０９,,,,,,2025-04-23,1,,,,,テインイーケイマンホールデイングコープ,0
2318,9010001254288,新規,0,2025-04-23,2025-04-23,株式会社Ｔｒｉｐｌｅ　Ｅｉｇｈｔ,,株式会社,東京都,中央区,勝どき６丁目３番２－３５２１号,,13,102,1040054,,,,,,,2025-04-23,1,,,,,トリプルエイト,0
2319,9010001254305,新規,0,2025-04-23,2025-04-23,株式会社ミズナラ,,株式会社,東京都,中央区,月島４丁目１４－１１シティハウス月島ステーションコート９０２,,13,102,1040052,,,,,,,2025-04-23,1,,,,,ミズナラ,0
2320,9010001254395,新規,0,2025-04-23,2025-04-23,Ｄ‐ＤＡＯ・ＪＡＰＡＮ株式会社,,株式会社,東京都,千代田区,永田町２丁目４－７秀和永田町レジデンス３０１,,13,101,1000014,,,,,,,2025-04-23,1,,,,,ディーダオジャパン,0
2321,9010001254420,新規,0,2025-04-23,2025-04-23,信安ＺＪ株式会社,,株式会社,東京都,文京区,本郷１丁目３２番１４－１１０３号,,13,105,1130033,,,,,,,2025-04-23,1,,,,,シンアンゼットジェー,0
2322,9010001254461,新規,0,2025-04-23,2025-04-23,株式会社ダブルオー,,株式会社,東京都,中央区,銀座８丁目１４番９－６０２号,,13,102,1040061,,,,,,,2025-04-23,1,,,,,ダブルオー,0
2323,9010001254478,新規,0,2025-04-23,2025-04-23,Ｐｕｒｉｔｙ　ｏｆ　Ｍｉｎｄ株式会社,,株式会社,東京都,中央区,八丁堀４丁目４番４号梅崎ビル３階,,13,102,1040032,,,,,,,2025-04-23,1,,,,,ピュリティーオブマインド,0
2324,9010003047145,新規,0,2025-04-23,2025-04-23,合同会社ＭＥ,,合同会社,東京都,千代田区,内神田３丁目１９番７号神田北口駅前ビル４階,,13,101,1010047,,,,,,,2025-04-23,1,,,,,ミー,0
2325,9010101016646,新規,0,2025-04-23,2025-04-23,株式会社エンドロール,,株式会社,東京都,八王子市,川町６２１番地７,,13,201,1930821,,,,,,,2025-04-23,1,,,,,エンドロール,0
2329,9010401189489,新規,0,2025-04-23,2025-04-23,グローバルアセット株式会社,,株式会社,東京都,港区,赤坂７丁目５番３４－３１４号,,13,103,1070052,,,,,,,2025-04-23,1,,,,,グローバルアセット,0
2330,9010401189745,新規,0,2025-04-23,2025-04-23,株式会社ＭＫボンド,,株式会社,東京都,港区,南青山１丁目１番３６号青山丸竹ビル６階,,13,103,1070062,,,,,,,2025-04-23,1,,,,,エムケーボンド,0
2331,9010401189753,新規,0,2025-04-23,2025-04-23,ｍｇｈ株式会社,,株式会社,東京都,港区,西新橋３丁目１６番１１号愛宕イーストビル１３階,,13,103,1050003,,,,,,,2025-04-23,1,,,,,エムジーエイチ,0
2332,9010403034882,新規,0,2025-04-23,2025-04-23,合同会社ミドリ資産管理,,合同会社,東京都,港区,北青山１丁目３番１号アールキューブ青山３階,,13,103,1070061,,,,,,,2025-04-23,1,,,,,ミドリシサンカンリ,0
2333,9010403034940,新規,0,2025-04-23,2025-04-23,合同会社ＢＯＬＡ　ＪＡＰＡＮ,,合同会社,東京都,港区,東麻布２丁目３５番１号ＫＣビル３２１号室,,13,103,1060044,,,,,,,2025-04-23,1,,,,,ボラジャパン,0
2334,9010405024353,新規,0,2025-04-23,2025-04-23,阿賀新潟一般社団法人,,その他の設立登記法人,東京都,港区,赤坂２丁目１４番５号,,13,103,1070052,,,,,,,2025-04-23,1,,,,,アガニイガタ,0
2337,9010601067180,新規,0,2025-04-23,2025-04-23,株式会社Ｍｉｒａ‐ｉｓｍ,,株式会社,東京都,江東区,東陽６丁目３番３８号３階,,13,108,1350016,,,,,,,2025-04-23,1,,,,,ミライズム,0
2343,9010901057229,新規,0,2025-04-23,2025-04-23,株式会社キュリオ,,株式会社,東京都,世田谷区,三軒茶屋１丁目６番４号,,13,112,1540024,,,,,,,2025-04-23,1,,,,,キュリオ,0
2345,9010903009855,新規,0,2025-04-23,2025-04-23,合同会社Ａｓｉａ　Ｄｅｆｅｎｓｅ　Ｉｎｎｏｖａｔｉｏｎ　Ｆｕｎｄ,,合同会社,東京都,世田谷区,北沢１丁目３７－１１ＰＡＳＥＯ下北沢４０２,,13,112,1550031,,,,,,,2025-04-23,1,,,,,アジアディフェンスイノベーションファンド,0
2346,9010903009871,新規,0,2025-04-23,2025-04-23,合同会社ニフロ,,合同会社,東京都,世田谷区,羽根木１丁目２０番１６号,,13,112,1560042,,,,,,,2025-04-23,1,,,,,ニフロ,0
2352,9011001169063,新規,0,2025-04-23,2025-04-23,Ａｍｕｌｅｔｔｅ株式会社,,株式会社,東京都,渋谷区,恵比寿４丁目２０－３恵比寿ガーデンプレイスタワー１８階,,13,113,1500013,,,,,,,2025-04-23,1,,,,,アミュレット,0
2353,9011001169105,新規,0,2025-04-23,2025-04-23,株式会社ＧＡＭ０１２,,株式会社,東京都,渋谷区,千駄ヶ谷２丁目３０番１号,,13,113,1510051,,,,,,,2025-04-23,1,,,,,ジーエーエムゼロイチニ,0
2357,9011003021437,新規,0,2025-04-23,2025-04-23,Ｓ＆Ｎ　ＪＰＮ合同会社,,合同会社,東京都,渋谷区,道玄坂１丁目１０番８号渋谷道玄坂東急ビル２Ｆ－Ｃ,,13,113,1500043,,,,,,,2025-04-23,1,,,,,エスアンドエヌジェーピーエヌ,0
2358,9011003021445,新規,0,2025-04-23,2025-04-23,ＲＺＭＡ合同会社,,合同会社,東京都,渋谷区,神南１丁目１１－４,,13,113,1500041,,,,,,,2025-04-23,1,,,,,アールゼットエムエー,0
2359,9011003021552,新規,0,2025-04-23,2025-04-23,合同会社メディケアネット,,合同会社,東京都,渋谷区,円山町５番３号ＭＩＥＵＸ渋谷ビル８階,,13,113,1500044,,,,,,,2025-04-23,1,,,,,メディケアネット,0
2360,9011101111511,新規,0,2025-04-23,2025-04-23,アイリス株式会社,,株式会社,東京都,新宿区,大久保１丁目１５－１８みゆきビル４０２,,13,104,1690072,,,,,,,2025-04-23,1,,,,,アイリス,0
2361,9011101111528,新規,0,2025-04-23,2025-04-23,株式会社エイドス,,株式会社,東京都,新宿区,西新宿３丁目３番１３号西新宿水間ビル２Ｆ,,13,104,1600023,,,,,,,2025-04-23,1,,,,,エイドス,0
2362,9011103015735,新規,0,2025-04-23,2025-04-23,合同会社ＦＥＤＩＣ,,合同会社,東京都,新宿区,西新宿３丁目３－１３西新宿水間ビル２Ｆ,,13,104,1600023,,,,,,,2025-04-23,1,,,,,フェディック,0
2365,9011201026295,新規,0,2025-04-23,2025-04-23,株式会社ｓｉｘ,,株式会社,東京都,中野区,中央４丁目２７－４－７０２,,13,114,1640011,,,,,,,2025-04-23,1,,,,,シックス,0
2370,9012401043007,新規,0,2025-04-23,2025-04-23,株式会社ＪＤＣ,,株式会社,東京都,調布市,飛田給１丁目３５番地６,,13,208,1820036,,,,,,,2025-04-23,1,,,,,ジェイディシー,0
2372,9012403007083,新規,0,2025-04-23,2025-04-23,アイリス合同会社,,合同会社,東京都,調布市,調布ケ丘３丁目１０番地２３,,13,208,1820021,,,,,,,2025-04-23,1,,,,,アイリス,0
2373,9012701018823,新規,0,2025-04-23,2025-04-23,株式会社清凛社,,株式会社,東京都,西東京市,緑町１丁目８番７－５１０号,,13,229,1880002,,,,,,,2025-04-23,1,,,,,セイリンシャ,0
2376,9013305003708,新規,0,2025-04-23,2025-04-23,一般社団法人新月観測日本委員会,,その他の設立登記法人,東京都,豊島区,南大塚３丁目４２番７号,,13,116,1700005,,,,,,,2025-04-23,1,,,,,シンゲツカンソクニホンイインカイ,0
2381,9020001162572,新規,0,2025-04-23,2025-04-23,株式会社ＳＨＩＦＴ　ＵＰ,,株式会社,神奈川県,川崎市中原区,新丸子東２丁目９０５番地１０ボストーク小杉３０２,,14,133,2110004,,,,,,,2025-04-23,1,,,,,シフトアップ,0
2382,9020003028276,新規,0,2025-04-23,2025-04-23,合同会社Ｉｔｏｓｈｉ,,合同会社,神奈川県,横浜市中区,桜木町１丁目１０１番地１クロスゲート７階,,14,104,2310062,,,,,,,2025-04-23,1,,,,,イトシ,0
2384,9021001085045,新規,0,2025-04-23,2025-04-23,Ｍｅａｎｉｎｇｆｕｌ株式会社,,株式会社,神奈川県,鎌倉市,大町１丁目９番２２号,,14,204,2480007,,,,,,,2025-04-23,1,,,,,ミーニングフル,0
2385,9021001085061,新規,0,2025-04-23,2025-04-23,株式会社ＶＥＲＴＥＸ,,株式会社,神奈川県,平塚市,四之宮４丁目２０番２１－２号,,14,203,2540014,,,,,,,2025-04-23,1,,,,,バーテックス,0
2390,9030001166143,新規,0,2025-04-23,2025-04-23,Ｉｎｔｅｒｉｏｒ　ｋｉｓｈｉ株式会社,,株式会社,埼玉県,さいたま市北区,宮原町４丁目８１番地７,,11,102,3310812,,,,,,,2025-04-23,1,,,,,インテリアキシ,0
2391,9030001166176,新規,0,2025-04-23,2025-04-23,株式会社ココロエ事務所,,株式会社,埼玉県,八潮市,伊草２丁目１２番地２６アーバンヒル２０７,,11,234,3400806,,,,,,,2025-04-23,1,,,,,ココロエジムショ,0
2394,9030003026626,新規,0,2025-04-23,2025-04-23,合同会社ＷＯＲＫＥＲ’Ｓ,,合同会社,埼玉県,川口市,大字安行北谷６３９番地の１４,,11,203,3340054,,,,,,,2025-04-23,1,,,,,ワーカーズ,0
2395,9030003026634,新規,0,2025-04-23,2025-04-23,合同会社リライフ,,合同会社,埼玉県,所沢市,くすのき台１丁目１３番２号ガーデンシティ所沢２階,,11,208,3590037,,,,,,,2025-04-23,1,,,,,リライフ,0
2396,9030003026642,新規,0,2025-04-23,2025-04-23,ｍａｎｉｍａｎｉ　ｌｉｎｋｓ合同会社,,合同会社,埼玉県,久喜市,菖蒲町菖蒲１２１３番地４,,11,232,3460106,,,,,,,2025-04-23,1,,,,,マニマニリンクス,0
2401,9040003027268,新規,0,2025-04-23,2025-04-23,合同会社かみやま足腰整骨院,,合同会社,千葉県,松戸市,常盤平５丁目１９－１五香駅西口ビル３階,,12,207,2702261,,,,,,,2025-04-23,1,,,,,カミヤマアシコシセイコツイン,0
2402,9040005022721,新規,0,2025-04-23,2025-04-23,特定非営利活動法人ちばこども協働創造ネットワーク,,その他の設立登記法人,千葉県,千葉市若葉区,千城台北１丁目１５番１号,,12,104,2640005,,,,,,,2025-04-23,1,,,,,チバコドモキョウドウソウゾウネットワーク,0
2403,9040005022738,新規,0,2025-04-23,2025-04-23,寺行政書士法人,,その他の設立登記法人,千葉県,松戸市,本町１番２３号Ｗ松戸７Ｆ７０６号室,,12,207,2710091,,,,,,,2025-04-23,1,,,,,デラ,0
2405,9080001026895,新規,0,2025-04-23,2025-04-23,株式会社Ｗ‐Ｔｒｕｓｔ,,株式会社,静岡県,静岡市駿河区,丸子７１０７番地の６７,,22,102,4210103,,,,,,,2025-04-23,1,,,,,ダブルトラスト,0
2406,9080101025459,新規,0,2025-04-23,2025-04-23,株式会社ＥＩＧＨＴ,,株式会社,静岡県,駿東郡長泉町,元長窪２７１番地の２８,,22,342,4110936,,,,,,,2025-04-23,1,,,,,エイト,0
2409,9080401027873,新規,0,2025-04-23,2025-04-23,株式会社ＭＯＥＧＩＳ,,株式会社,静岡県,磐田市,下神増１１３２番地１,,22,211,4380126,,,,,,,2025-04-23,1,,,,,モエギス,0
2410,9080403005241,新規,0,2025-04-23,2025-04-23,合同会社輝風丸,,合同会社,静岡県,御前崎市,白羽７５０９,,22,223,4371622,,,,,,,2025-04-23,1,,,,,キフウマル,0
2429,9120001274721,新規,0,2025-04-23,2025-04-23,ピンクピーチ株式会社,,株式会社,大阪府,大阪市旭区,千林２丁目１１－１３,,27,117,5350012,,,,,,,2025-04-23,1,,,,,ピンクピーチ,0
2430,9120001274770,新規,0,2025-04-23,2025-04-23,株式会社ライアブル,,株式会社,大阪府,大阪市住之江区,南港中５丁目５番３６－３０９号,,27,125,5590033,,,,,,,2025-04-23,1,,,,,ライアブル,0
2431,9120001274795,新規,0,2025-04-23,2025-04-23,ＥＸＡ株式会社,,株式会社,大阪府,大阪市旭区,高殿７丁目１４番２３号３Ａ,,27,117,5350031,,,,,,,2025-04-23,1,,,,,エクサ,0
2432,9120101071531,新規,0,2025-04-23,2025-04-23,株式会社ポラリス,,株式会社,大阪府,泉佐野市,中町２丁目５番２５－１０５号,,27,213,5980013,,,,,,,2025-04-23,1,,,,,ポラリス,0
2438,9130001079467,新規,0,2025-04-23,2025-04-23,株式会社ＷｉｅＭａｘ,,株式会社,京都府,京都市伏見区,鑓屋町１０６４番地１プレサンスロジェ伏見５０２号室,,26,109,6120084,,,,,,,2025-04-23,1,,,,,ヴィーマックス,0
2444,9130003010388,新規,0,2025-04-23,2025-04-23,合同会社ＨＡＬＥ,,合同会社,京都府,京都市右京区,西京極北大入町１９番地カサ・ロサール４０５号室,,26,108,6150881,,,,,,,2025-04-23,1,,,,,ハレ,0
2445,9130003010396,新規,0,2025-04-23,2025-04-23,合同会社桜コンサルティング,,合同会社,京都府,京都市北区,紫竹上芝本町４８番地,,26,101,6038423,,,,,,,2025-04-23,1,,,,,サクラコンサルティング,0
2446,9130005017349,新規,0,2025-04-23,2025-04-23,一般財団法人京都円山公園文化サロン,,その他の設立登記法人,京都府,京都市東山区,八坂鳥居前東入円山町６２０番１,,26,105,6050071,,,,,,,2025-04-23,1,,,,,キョウトマルヤマコウエンブンカサロン,0
2453,9140003021970,新規,0,2025-04-23,2025-04-23,合同会社満吉,,合同会社,兵庫県,神戸市中央区,加納町３丁目１０番９号宮井マンション１階,,28,110,6500001,,,,,,,2025-04-23,1,,,,,マンキチ,0
2454,9140005027487,新規,0,2025-04-23,2025-04-23,一般社団法人愛犬ライフパスポート協会,,その他の設立登記法人,兵庫県,神戸市東灘区,青木５丁目２番１３号１Ｆ,,28,101,6580027,,,,,,,2025-04-23,1,,,,,アイケンライフパスポートキョウカイ,0
2458,9160003003455,新規,0,2025-04-23,2025-04-23,合同会社まちづくり元気エナジー,,合同会社,滋賀県,高島市,新旭町旭１丁目８番５号,,25,212,5201501,,,,,,,2025-04-23,1,,,,,マチヅクリゲンキエナジー,0
2460,9170001018586,新規,0,2025-04-23,2025-04-23,株式会社鈴鋼,,株式会社,和歌山県,有田市,糸我町西１１９番地,,30,204,6490422,,,,,,,2025-04-23,1,,,,,スズコウ,0
2463,9180001166500,新規,0,2025-04-23,2025-04-23,株式会社ジョイプラン,,株式会社,愛知県,瀬戸市,西本地町１丁目７０番地の３,,23,204,4890971,,,,,,,2025-04-23,1,,,,,ジョイプラン,0
2464,9180003028376,新規,0,2025-04-23,2025-04-23,合同会社Ｒｅ　Ｂｅｌｌｅｖｉｅ,,合同会社,愛知県,名古屋市中村区,名駅４丁目２４番５号第２森ビル４０１,,23,105,4500002,,,,,,,2025-04-23,1,,,,,リベルヴィ,0
2470,9200003006791,新規,0,2025-04-23,2025-04-23,合同会社ふんわり,,合同会社,岐阜県,可児市,土田２５０９番地７,,21,214,5090206,,,,,,,2025-04-23,1,,,,,フンワリ,0
2476,9240001064846,新規,0,2025-04-23,2025-04-23,株式会社サンライズ,,株式会社,広島県,福山市,高西町川尻４１５２番地３,,34,207,7290101,,,,,,,2025-04-23,1,,,,,サンライズ,0
2480,9250001021111,新規,0,2025-04-23,2025-04-23,株式会社遊心,,株式会社,山口県,宇部市,厚南北５丁目１番１６号,,35,202,7590209,,,,,,,2025-04-23,1,,,,,ユウシン,0
2493,9290001109753,新規,0,2025-04-23,2025-04-23,株式会社Ｎ．Ｔ　Ｌａｂ,,株式会社,福岡県,糟屋郡宇美町,神武原１丁目５番８号,,40,341,8112129,,,,,,,2025-04-23,1,,,,,エヌティラボ,0
2494,9290001109786,新規,0,2025-04-23,2025-04-23,株式会社Ｍａｉｓｏｎ　Ｉｎｎｏｖａｔｉｏｎ,,株式会社,福岡県,福岡市博多区,博多駅前１丁目２３番２号ＰａｒｋＦｒｏｎｔ博多駅前１丁目５Ｆ－Ｂ,,40,132,8120011,,,,,,,2025-04-23,1,,,,,メゾンイノベーション,0
2495,9290001109803,新規,0,2025-04-23,2025-04-23,株式会社創支,,株式会社,福岡県,福岡市南区,平和１丁目１２番３号,,40,134,8150071,,,,,,,2025-04-23,1,,,,,ソウシ,0
2496,9290003016717,新規,0,2025-04-23,2025-04-23,和光合同会社,,合同会社,福岡県,福岡市早良区,曙２丁目８番１－４０１号,,40,137,8140004,,,,,,,2025-04-23,1,,,,,ワコウ,0
2507,9330003010962,新規,0,2025-04-23,2025-04-23,モコスマイル合同会社,,合同会社,熊本県,熊本市南区,元三町３丁目２番１０号,,43,104,8614105,,,,,,,2025-04-23,1,,,,,モコスマイル,0
2514,9340001027272,新規,0,2025-04-23,2025-04-23,株式会社エイト,,株式会社,鹿児島県,鹿児島市,下荒田４丁目２２番８－９０４号,,46,201,8900056,,,,,,,2025-04-23,1,,,,,エイト,0
2517,9350001019500,新規,0,2025-04-23,2025-04-23,株式会社スイショウ,,株式会社,宮崎県,都城市,今町８７９１番地１５,,45,202,8850064,,,,,,,2025-04-23,1,,,,,スイショウ,0
2521,9360001035091,新規,0,2025-04-23,2025-04-23,株式会社ＥｍＴｒｉｐ,,株式会社,沖縄県,沖縄市,中央１丁目７－８,,47,211,9040004,,,,,,,2025-04-23,1,,,,,エントリップ,0
2522,9360001035100,新規,0,2025-04-23,2025-04-23,株式会社３０３０,,株式会社,沖縄県,那覇市,首里石嶺町４丁目２４２番地５,,47,201,9030804,,,,,,,2025-04-23,1,,,,,サーティンサーティン,0
2530,9400003003439,新規,0,2025-04-23,2025-04-23,合同会社Ｌ．プランニング,,合同会社,岩手県,盛岡市,小鳥沢２丁目３番１３号,,03,201,0200104,,,,,,,2025-04-23,1,,,,,エルプランニング,0
2537,9430001094221,新規,0,2025-04-23,2025-04-23,株式会社ＦＬＥＸ,,株式会社,北海道,札幌市北区,屯田五条７丁目３番２０号,,01,102,0020855,,,,,,,2025-04-23,1,,,,,フレックス,0
2538,9430001094262,新規,0,2025-04-23,2025-04-23,株式会社ユナイテッドスノー,,株式会社,北海道,札幌市東区,北二十一条東１丁目３番１５－５０１号,,01,103,0650021,,,,,,,2025-04-23,1,,,,,ユナイテッドスノー,0
2541,9430003017568,新規,0,2025-04-23,2025-04-23,朱祐合同会社,,合同会社,北海道,虻田郡ニセコ町,字曽我５７８番地３２,,01,395,0481522,,,,,,,2025-04-23,1,,,,,シュウユウ,0
2543,9450001014598,新規,0,2025-04-23,2025-04-23,株式会社Ｏａｓｉｓ　Ｂｉｅｉ,,株式会社,北海道,上川郡美瑛町,字新星第３,,01,459,0710473,,,,,,,2025-04-23,1,,,,,,0
2545,9470001020685,新規,0,2025-04-23,2025-04-23,株式会社アドバンスエムズ,,株式会社,香川県,丸亀市,土居町２丁目１番１２号,,37,202,7630012,,,,,,,2025-04-23,1,,,,,アドバンスエムズ,0
2546,9470003002871,新規,0,2025-04-23,2025-04-23,合同会社ヨコヤマ,,合同会社,香川県,仲多度郡多度津町,北鴨３丁目３番４３号,,37,404,7640022,,,,,,,2025-04-23,1,,,,,ヨコヤマ,0
2551,9480005007083,新規,0,2025-04-23,2025-04-23,特定非営利活動法人ひまわりとたんぽぽ,,その他の設立登記法人,徳島県,板野郡板野町,川端字関ノ本３番,,36,404,7790102,,,,,,,2025-04-23,1,,,,,ヒマワリトタンポポ,0
2552,9490001011022,新規,0,2025-04-23,2025-04-23,株式会社アール・エス,,株式会社,高知県,高知市,薊野西町３丁目２４番５号,,39,201,7810015,,,,,,,2025-04-23,1,,,,,アールエス,0
2554,9700150130105,新規,0,2025-04-23,2025-04-23,Ｇｕａｎｇｚｈｏｕ　Ｓｉｈｕ　Ｆｕｔｕｒｅ　Ｔｅｃｈｎｏｌｏｇｙ　ｃｏ．，Ｌｔｄ,,外国会社等,,,,,,,,Ｒｏｏｍ　１０１２，Ｎｏ．４，Ｇｒｅｅｎ　Ｈａｒｂｏｒ　Ｓｏｕｔｈ　Ｔｈｉｒｄ　Ｓｔｒｅｅｔ，Ｈｕａｄｕ　Ｄｉｓｔｒｉｃｔ，Ｇｕａｎｇｚｈｏｕ　Ｃｉｔｙ（Ａｉｒｐｏｒｔ　Ｈｕａｄｕ）,,,,,,2025-04-23,1,,,,,グワンジョウスーフーウェイライコージーヨウシエンゴンスー,0
