sequenceNumber,corporateNumber,process,correct,updateDate,changeDate,name,nameImageId,kind,prefectureName,cityName,streetNumber,addressImageId,prefectureCode,cityCode,postCode,addressOutside,addressOutsideImageId,closeDate,closeCause,successorCorporateNumber,changeCause,assignmentDate,latest,enName,enPrefectureName,enCityName,enAddressOutside,furigana,hihyoji
6,1010001241905,新規,0,2024-02-02,2024-02-02,株式会社ＴｉｍｅＳｔａｍｐ,,株式会社,東京都,千代田区,神田須田町２丁目８番地１９パレ・ドール神田５０５号,,13,101,1010041,,,,,,,2024-02-02,1,,,,,タイムスタンプ,0
7,1010001241987,新規,0,2024-02-02,2024-02-02,ＰＩＮＥＣＯＮＥ　Ｈｏｌｄｉｎｇｓ株式会社,,株式会社,東京都,中央区,日本橋兜町５番１号,,13,102,1030026,,,,,,,2024-02-02,1,,,,,パインコンホールディングス,0
18,1010401179902,新規,0,2024-02-02,2024-02-02,ＢｉｔＴｅｃｈ株式会社,,株式会社,東京都,港区,芝５丁目１２－１０芝五丁目４０１,,13,103,1080014,,,,,,,2024-02-02,1,,,,,ビットテック,0
19,1010401180141,新規,0,2024-02-02,2024-02-02,株式会社４１ＳＥＲ,,株式会社,東京都,港区,東麻布１丁目９－１１,,13,103,1060044,,,,,,,2024-02-02,1,,,,,シーサー,0
20,1010403031862,新規,0,2024-02-02,2024-02-02,ｆｏｒｔｕｎｅ合同会社,,合同会社,東京都,港区,麻布十番２丁目８番１６号ＩＳＩビル５Ｆ,,13,103,1060045,,,,,,,2024-02-02,1,,,,,フォーチュン,0
25,1010701045498,新規,0,2024-02-02,2024-02-02,ｅｓ株式会社,,株式会社,東京都,品川区,西五反田１丁目２６番２号五反田サンハイツビル２Ｆ,,13,109,1410031,,,,,,,2024-02-02,1,,,,,エス,0
26,1010701045507,新規,0,2024-02-02,2024-02-02,株式会社ＡＩ　Ｍｏｄｅｌ,,株式会社,東京都,品川区,大崎１丁目１１番２号,,13,109,1410032,,,,,,,2024-02-02,1,,,,,エーアイモデル,0
32,1010901054646,新規,0,2024-02-02,2024-02-02,株式会社ｋｉｋｋａ,,株式会社,東京都,世田谷区,太子堂５丁目２９番２０号,,13,112,1540004,,,,,,,2024-02-02,1,,,,,キッカ,0
44,1011001159765,新規,0,2024-02-02,2024-02-02,株式会社みずほココナラ,,株式会社,東京都,渋谷区,桜丘町２０番１号,,13,113,1500031,,,,,,,2024-02-02,1,,,,,ミズホココナラ,0
45,1011001159773,新規,0,2024-02-02,2024-02-02,株式会社アルアイ,,株式会社,東京都,渋谷区,千駄ヶ谷３丁目１６番５号,,13,113,1510051,,,,,,,2024-02-02,1,,,,,アルアイ,0
46,1011001159781,新規,0,2024-02-02,2024-02-02,ＭｅＧｏ株式会社,,株式会社,東京都,目黒区,中目黒３丁目６番２号中目黒Ｆ・Ｓビル５階,,13,110,1530061,,,,,,,2024-02-02,1,,,,,ミーゴー,0
49,1011003018341,新規,0,2024-02-02,2024-02-02,ＯＮＥ　ｆｏｒ　Ａｌｌ合同会社,,合同会社,東京都,目黒区,鷹番３丁目１９番５－５０５号シャトーエスペランス,,13,110,1520004,,,,,,,2024-02-02,1,,,,,ワンフォーオール,0
50,1011003018424,新規,0,2024-02-02,2024-02-02,合同会社ＤａｔａＮａｔｉｖｅ,,合同会社,東京都,渋谷区,渋谷２丁目１９－１５宮益坂ビルディング６０９,,13,113,1500002,,,,,,,2024-02-02,1,,,,,データネイティブ,0
53,1011101105999,新規,0,2024-02-02,2024-02-02,株式会社ＣＵＷ,,株式会社,東京都,新宿区,四谷坂町６番３９号２Ｆ,,13,104,1600002,,,,,,,2024-02-02,1,,,,,シーユーダブリュウ,0
54,1011101106015,新規,0,2024-02-02,2024-02-02,株式会社アケクレ,,株式会社,東京都,新宿区,西新宿３丁目９－７－３１２,,13,104,1600023,,,,,,,2024-02-02,1,,,,,アケクレ,0
55,1011101106048,新規,0,2024-02-02,2024-02-02,コードカート株式会社,,株式会社,東京都,新宿区,西新宿２丁目６番１号新宿住友ビル４５階,,13,104,1600023,,,,,,,2024-02-02,1,,,,,コードカート,0
56,1011101106056,新規,0,2024-02-02,2024-02-02,株式会社Ｕｎｔａｍｅｄｓ,,株式会社,東京都,新宿区,西新宿３丁目３番１３号西新宿水間ビル２Ｆ,,13,104,1600023,,,,,,,2024-02-02,1,,,,,アンテイムズ,0
57,1011101106080,新規,0,2024-02-02,2024-02-02,株式会社ラジオロジーコンサルティング,,株式会社,東京都,新宿区,四谷坂町１１番１８号,,13,104,1600002,,,,,,,2024-02-02,1,,,,,ラジオロジーコンサルティング,0
62,1011401025831,新規,0,2024-02-02,2024-02-02,株式会社クラウン,,株式会社,東京都,板橋区,東新町２丁目１１番１０号ディアコート２０５号室,,13,119,1740074,,,,,,,2024-02-02,1,,,,,クラウン,0
66,1011801043730,新規,0,2024-02-02,2024-02-02,株式会社ナンザイ,,株式会社,東京都,足立区,南花畑５丁目１番地の５グレースコート竹ノ塚４１２,,13,121,1210062,,,,,,,2024-02-02,1,,,,,ナンザイ,0
68,1012303001937,新規,0,2024-02-02,2024-02-02,合同会社み鳥,,合同会社,東京都,町田市,原町田６丁目９－８,,13,209,1940013,,,,,,,2024-02-02,1,,,,,ミドリ,0
71,1013303006983,新規,0,2024-02-02,2024-02-02,メゾフォルテ合同会社,,合同会社,東京都,豊島区,長崎４丁目４６番１０号,,13,116,1710051,,,,,,,2024-02-02,1,,,,,メゾフォルテ,0
77,1020001155617,新規,0,2024-02-02,2024-02-02,株式会社裕心アセットマネジメント,,株式会社,神奈川県,横浜市磯子区,西町６番３９号,,14,107,2350007,,,,,,,2024-02-02,1,,,,,ユウシンアセットマネジメント,0
83,1021001081357,新規,0,2024-02-02,2024-02-02,株式会社ＲＯＺＡ,,株式会社,神奈川県,藤沢市,長後９４０番地の１ベルアーク長後Ｂ１０２,,14,205,2520801,,,,,,,2024-02-02,1,,,,,ロザ,0
84,1021001081365,新規,0,2024-02-02,2024-02-02,株式会社恒成技建,,株式会社,神奈川県,座間市,栗原８６９番地１,,14,216,2520013,,,,,,,2024-02-02,1,,,,,コウセイギケン,0
87,1021003014109,新規,0,2024-02-02,2024-02-02,合同会社ＯＮＥ,,合同会社,神奈川県,藤沢市,鵠沼石上１丁目４番２号藤沢Ｄビル４Ｆ,,14,205,2510025,,,,,,,2024-02-02,1,,,,,ワン,0
95,1030001158478,新規,0,2024-02-02,2024-02-02,株式会社ＳＨＩＩＫＥ,,株式会社,埼玉県,志木市,上宗岡２丁目１９番２８号,,11,228,3530001,,,,,,,2024-02-02,1,,,,,シーク,0
105,1040001131954,新規,0,2024-02-02,2024-02-02,株式会社Ｓ２Ｒ,,株式会社,千葉県,印旛郡酒々井町,酒々井１７５２－１,,12,322,2850927,,,,,,,2024-02-02,1,,,,,エスツーアール,0
111,1050001054205,新規,0,2024-02-02,2024-02-02,興海株式会社,,株式会社,茨城県,常陸大宮市,上小瀬２０８４番地２０１号室,,08,225,3192401,,,,,,,2024-02-02,1,,,,,コウカイ,0
112,1050001054213,新規,0,2024-02-02,2024-02-02,株式会社Ｃｏ‐Ｃｒｅａｔｉｏｎ,,株式会社,茨城県,水戸市,見川２丁目５０－２５,,08,201,3100912,,,,,,,2024-02-02,1,,,,,コークリエイション,0
114,1060001036788,新規,0,2024-02-02,2024-02-02,株式会社さわしょう,,株式会社,栃木県,宇都宮市,ゆいの杜６丁目２７番３０号,,09,201,3213226,,,,,,,2024-02-02,1,,,,,サワショウ,0
116,1080001026110,新規,0,2024-02-02,2024-02-02,マーシャル・ジャパン株式会社,,株式会社,静岡県,静岡市清水区,船越南町２３９番地の５,,22,103,4240863,,,,,,,2024-02-02,1,,,,,マーシャルジャパン,0
117,1080101024501,新規,0,2024-02-02,2024-02-02,株式会社アクロス,,株式会社,静岡県,富士市,厚原４６７番地の９富士美マンション１０３,,22,210,4190201,,,,,,,2024-02-02,1,,,,,アクロス,0
121,1100003007386,新規,0,2024-02-02,2024-02-02,合同会社ベジモファーム,,合同会社,長野県,佐久市,佐久平駅南１８－３ヴァローレビル１階１０２,,20,217,3850029,,,,,,,2024-02-02,1,,,,,ベジモファーム,0
132,1120001261891,新規,0,2024-02-02,2024-02-02,錦城株式会社,,株式会社,大阪府,大阪市大正区,小林東２丁目９番５号５０１,,27,108,5510011,,,,,,,2024-02-02,1,,,,,キンジョウ,0
133,1120001261909,新規,0,2024-02-02,2024-02-02,株式会社ＢＯＮＤ,,株式会社,大阪府,大阪市中央区,南船場３丁目２番２８号ＮＩＰＰＯタイヨービル５１１号,,27,128,5420081,,,,,,,2024-02-02,1,,,,,ボンド,0
134,1120001261925,新規,0,2024-02-02,2024-02-02,株式会社まる笑,,株式会社,大阪府,大阪市東成区,大今里１丁目２０番２４号,,27,115,5370012,,,,,,,2024-02-02,1,,,,,マルショウ,0
136,1120003025824,新規,0,2024-02-02,2024-02-02,合同会社Ｄ＆Ｃ,,合同会社,大阪府,大阪市西区,西本町２丁目１番３０－４１３号,,27,106,5500005,,,,,,,2024-02-02,1,,,,,ディーアンドシー,0
141,1120903005033,新規,0,2024-02-02,2024-02-02,合同会社とよなか彩り,,合同会社,大阪府,豊中市,柴原町５丁目５番２３号,,27,203,5600055,,,,,,,2024-02-02,1,,,,,トヨナカイロドリ,0
142,1120905006566,新規,0,2024-02-02,2024-02-02,ＮＰＯ法人あんしゃんて,,その他の設立登記法人,大阪府,豊中市,服部本町１丁目５番２７号,,27,203,5610852,,,,,,,2024-02-02,1,,,,,アンシャンテ,0
148,1140001133172,新規,0,2024-02-02,2024-02-02,株式会社Ｅｄｏｔｏｍｙ,,株式会社,兵庫県,神戸市東灘区,西岡本７丁目１７番１－９０４号,,28,101,6580073,,,,,,,2024-02-02,1,,,,,エドトミー,0
160,1170001017991,新規,0,2024-02-02,2024-02-02,株式会社ひろ福丸水産,,株式会社,和歌山県,西牟婁郡白浜町,椿１４１番地の１０,,30,401,6492326,,,,,,,2024-02-02,1,,,,,ヒロフクマルスイサン,0
171,1180001159908,新規,0,2024-02-02,2024-02-02,株式会社ヒトキャリ,,株式会社,愛知県,名古屋市中川区,水里５丁目２,,23,110,4540963,,,,,,,2024-02-02,1,,,,,ヒトキャリ,0
172,1180001160007,新規,0,2024-02-02,2024-02-02,ＣＨＩＲＥＳＨ株式会社,,株式会社,愛知県,名古屋市千種区,吹上２丁目１番２１号,,23,101,4640856,,,,,,,2024-02-02,1,,,,,チレッシュ,0
173,1180001160015,新規,0,2024-02-02,2024-02-02,ＺＡＩ株式会社,,株式会社,愛知県,名古屋市中村区,中村本町３丁目１８番地,,23,105,4530828,,,,,,,2024-02-02,1,,,,,ザイ,0
174,1180001160023,新規,0,2024-02-02,2024-02-02,株式会社ＢＥＹＯＮＤ　ＧＲＯＵＰ　ＨＯＬＤＩＮＧＳ,,株式会社,愛知県,岩倉市,大地新町３丁目４５番地１ＢＥＹＯＮＤ－Ｚビル２Ｆ,,23,228,4820025,,,,,,,2024-02-02,1,,,,,ビヨンドグループホールディングス,0
190,1180305009544,新規,0,2024-02-02,2024-02-02,医療法人筒伍会,,その他の設立登記法人,愛知県,西尾市,羽塚西ノ山１丁目４０番,,23,213,4440317,,,,,,,2024-02-02,1,,,,,トウゴカイ,0
196,1210001019620,新規,0,2024-02-02,2024-02-02,株式会社ＳＥＥＤ,,株式会社,福井県,小浜市,新小松原第３号１番地１２,,18,204,9170008,,,,,,,2024-02-02,1,,,,,シード,0
206,1250003003429,新規,0,2024-02-02,2024-02-02,合同会社Ｓ．コンサルティング,,合同会社,山口県,山口市,中央３丁目１番３７号,,35,203,7530074,,,,,,,2024-02-02,1,,,,,エスコンサルティング,0
207,1260001038723,新規,0,2024-02-02,2024-02-02,株式会社ＥＡＶＥＬ,,株式会社,岡山県,岡山市中区,海吉１５３９－９,,33,102,7038261,,,,,,,2024-02-02,1,,,,,イーベル,0
208,1260001038731,新規,0,2024-02-02,2024-02-02,株式会社ＢｅＣＡＤ,,株式会社,岡山県,倉敷市,吉岡２７９－２吉岡ビル２Ｆ,,33,202,7100842,,,,,,,2024-02-02,1,,,,,ビーキャド,0
213,1290001104555,新規,0,2024-02-02,2024-02-02,株式会社ｓｉｎｓｅｍｉｌｌａ,,株式会社,福岡県,嘉麻市,下臼井１２６７番地５,,40,227,8200504,,,,,,,2024-02-02,1,,,,,シンセミラ,0
214,1290001104571,新規,0,2024-02-02,2024-02-02,株式会社ＧＡＮＡＮ,,株式会社,福岡県,福岡市西区,小戸１丁目４７番５号,,40,135,8190001,,,,,,,2024-02-02,1,,,,,ガナン,0
215,1290001104596,新規,0,2024-02-02,2024-02-02,株式会社ひばる空換,,株式会社,福岡県,福岡市南区,桧原２丁目３５番２８号,,40,134,8111355,,,,,,,2024-02-02,1,,,,,ヒバルクウカン,0
219,1290003014926,新規,0,2024-02-02,2024-02-02,合同会社晴月,,合同会社,福岡県,福岡市東区,箱崎１丁目２５番２３,,40,131,8120053,,,,,,,2024-02-02,1,,,,,ハヅキ,0
220,1290005019287,新規,0,2024-02-02,2024-02-02,一般社団法人リフレッシュ＆スマイル,,その他の設立登記法人,福岡県,大牟田市,橋口町３番地７,,40,202,8360043,,,,,,,2024-02-02,1,,,,,リフレッシュアンドスマイル,0
236,1390003002202,新規,0,2024-02-02,2024-02-02,やまがた小水力発電合同会社,,合同会社,山形県,酒田市,一番町１３番１０号,,06,204,9980046,,,,,,,2024-02-02,1,,,,,ヤマガタショウスイリョクハツデン,0
239,1430001090979,新規,0,2024-02-02,2024-02-02,矢武企画株式会社,,株式会社,北海道,札幌市西区,二十四軒三条１丁目１番地３１号水戸ビル４Ｆ,,01,107,0630803,,,,,,,2024-02-02,1,,,,,ヤブキカク,0
242,1430003015918,新規,0,2024-02-02,2024-02-02,合同会社ＳＰコネクション,,合同会社,北海道,札幌市豊平区,美園十条６丁目３番２１－３０２号,,01,105,0620010,,,,,,,2024-02-02,1,,,,,エスピーコネクション,0
244,1450001014218,新規,0,2024-02-02,2024-02-02,株式会社Ｙ’ｓ建設,,株式会社,北海道,旭川市,三条通２２丁目１番地の９６,,01,204,0788213,,,,,,,2024-02-02,1,,,,,ワイズケンセツ,0
245,1450003002435,新規,0,2024-02-02,2024-02-02,合同会社ＡＬＥＧＲＩＡ,,合同会社,北海道,苫前郡羽幌町,大字焼尻字豊崎１８２番地の３,,01,484,0783871,,,,,,,2024-02-02,1,,,,,,0
246,1460101007491,新規,0,2024-02-02,2024-02-02,株式会社プロパケア,,株式会社,北海道,帯広市,西十五条南１６丁目２番地８,,01,207,0800025,,,,,,,2024-02-02,1,,,,,プロパケア,0
248,1470003002573,新規,0,2024-02-02,2024-02-02,合同会社ＤＨモーターズ,,合同会社,香川県,木田郡三木町,大字井上２７３５番地,,37,341,7610705,,,,,,,2024-02-02,1,,,,,ディーエイチモーターズ,0
249,1490001010691,新規,0,2024-02-02,2024-02-02,株式会社Ｅｎｏｌ,,株式会社,高知県,高知市,水源町１９番地１,,39,201,7800944,,,,,,,2024-02-02,1,,,,,エノル,0
254,1500001025449,新規,0,2024-02-02,2024-02-02,シャインズ株式会社,,株式会社,愛媛県,松山市,山越５丁目１番４号,,38,201,7918013,,,,,,,2024-02-02,1,,,,,シャインズ,0
272,2010003042838,新規,0,2024-02-02,2024-02-02,合同会社ＮＰＥ２０２３Ｔ,,合同会社,東京都,千代田区,丸の内３丁目１番１号東京共同会計事務所内,,13,101,1000005,,,,,,,2024-02-02,1,,,,,エヌピーイーニゼロニサンティー,0
274,2010005037828,新規,0,2024-02-02,2024-02-02,一般社団法人日本先端技術産業振興機構,,その他の設立登記法人,東京都,中央区,日本橋本町４丁目５番１３号,,13,102,1030023,,,,,,,2024-02-02,1,,,,,ニホンセンタンギジュツサンギョウシンコウキコウ,0
285,2010401180099,新規,0,2024-02-02,2024-02-02,株式会社Ｒｈｅａ．ｋ,,株式会社,東京都,港区,新橋６丁目２０番１１号ＴｏｔｓｕＳｈｉｍｂａｓｈｉＢＬＤ．ＩＩ７Ｆ,00133601,13,103,1050004,,,,,,,2024-02-02,1,,,,,レアケ,0
286,2010401180124,新規,0,2024-02-02,2024-02-02,株式会社ｐｅｔｉｔ　ａ　ｐｅｔｉｔ,,株式会社,東京都,港区,南麻布２丁目１３番１９－１００３号,,13,103,1060047,,,,,,,2024-02-02,1,,,,,プティタプティ,0
287,2010401180181,新規,0,2024-02-02,2024-02-02,ビーアンビー株式会社,,株式会社,東京都,港区,東新橋２丁目６番６号,,13,103,1050021,,,,,,,2024-02-02,1,,,,,ビーアンビー,0
292,2010403031845,新規,0,2024-02-02,2024-02-02,ＲＭＰ合同会社,,合同会社,東京都,港区,北青山１丁目３番１号アールキューブ青山３Ｆ,,13,103,1070061,,,,,,,2024-02-02,1,,,,,アールエムピー,0
293,2010403031861,新規,0,2024-02-02,2024-02-02,六本木新開発合同会社,,合同会社,東京都,港区,虎ノ門５丁目１番４号,,13,103,1050001,,,,,,,2024-02-02,1,,,,,ロッポンギシンカイハツ,0
296,2010501051695,新規,0,2024-02-02,2024-02-02,株式会社アクシオウェル,,株式会社,東京都,台東区,上野７丁目９番１５号,,13,106,1100005,,,,,,,2024-02-02,1,,,,,アクシオウェル,0
298,2010503007332,新規,0,2024-02-02,2024-02-02,合同会社ＲＡ,,合同会社,東京都,台東区,西浅草３丁目２９番１８－５０１号,,13,106,1110035,,,,,,,2024-02-02,1,,,,,アールエー,0
302,2010901054645,新規,0,2024-02-02,2024-02-02,株式会社デルタ,,株式会社,東京都,世田谷区,奥沢５丁目１６番２号,,13,112,1580083,,,,,,,2024-02-02,1,,,,,デルタ,0
310,2011001159772,新規,0,2024-02-02,2024-02-02,株式会社カーワン,,株式会社,東京都,渋谷区,千駄ヶ谷３丁目１６番５号,,13,113,1510051,,,,,,,2024-02-02,1,,,,,カーワン,0
311,2011001159780,新規,0,2024-02-02,2024-02-02,イハラノ株式会社,,株式会社,東京都,目黒区,下目黒１丁目１番１４号コノトラビル７Ｆ,,13,110,1530064,,,,,,,2024-02-02,1,,,,,イハラノ,0
313,2011005010361,新規,0,2024-02-02,2024-02-02,一般社団法人社長チップス,,その他の設立登記法人,東京都,渋谷区,千駄ヶ谷３丁目１７番１１号,,13,113,1510051,,,,,,,2024-02-02,1,,,,,シャチョウチップス,0
317,2011101106039,新規,0,2024-02-02,2024-02-02,辰隆株式会社,,株式会社,東京都,新宿区,西新宿６丁目１６番６号新宿タツミビル１００２,,13,104,1600023,,,,,,,2024-02-02,1,,,,,トキタカ,0
318,2011101106047,新規,0,2024-02-02,2024-02-02,株式会社Ａｆｆｅｃｔｉｏｎ　Ｍｕｔｕｅｌｌｅ,,株式会社,東京都,新宿区,新宿５丁目１４番１２号,,13,104,1600022,,,,,,,2024-02-02,1,,,,,アフェクションミューチュエル,0
319,2011103014058,新規,0,2024-02-02,2024-02-02,合同会社ＶＡＺＺＬＥ,,合同会社,東京都,新宿区,西新宿７丁目５－９－９１４,,13,104,1600023,,,,,,,2024-02-02,1,,,,,バズル,0
320,2011201025213,新規,0,2024-02-02,2024-02-02,ｒｏｍａｎ株式会社,,株式会社,東京都,中野区,中野５丁目５２番１２号ブロードウェイ２階２５７号室,,13,114,1640001,,,,,,,2024-02-02,1,,,,,ローマン,0
321,2011201025221,新規,0,2024-02-02,2024-02-02,ｔｕｒｎｉｎｇ　ｕｐ株式会社,,株式会社,東京都,中野区,鷺宮３丁目１１番２７号,,13,114,1650032,,,,,,,2024-02-02,1,,,,,ターニングアップ,0
324,2011301029378,新規,0,2024-02-02,2024-02-02,株式会社Ｌａｆ,,株式会社,東京都,杉並区,高円寺南２丁目２番１３号,,13,115,1660003,,,,,,,2024-02-02,1,,,,,ラフ,0
328,2011501030268,新規,0,2024-02-02,2024-02-02,Ａ　Ｌｉｔｔｌｅ　Ｗａｔｅｒ株式会社,,株式会社,東京都,北区,西ケ原２丁目１２番１０号,,13,117,1140024,,,,,,,2024-02-02,1,,,,,リトルウォーター,0
329,2011501030276,新規,0,2024-02-02,2024-02-02,さくらＴＤ株式会社,,株式会社,東京都,荒川区,西日暮里２丁目２６番１２号ガーネットビル８階,,13,118,1160013,,,,,,,2024-02-02,1,,,,,サクラティーディー,0
336,2012303001936,新規,0,2024-02-02,2024-02-02,合同会社ＭＣＤ,,合同会社,東京都,町田市,原町田６丁目１０番１０号第３５東京ビル地下一階北側,,13,209,1940013,,,,,,,2024-02-02,1,,,,,エムシーディー,0
337,2013101009337,新規,0,2024-02-02,2024-02-02,株式会社田原,,株式会社,東京都,青梅市,今寺５丁目４－２７,,13,205,1980021,,,,,,,2024-02-02,1,,,,,,0
346,2020003025478,新規,0,2024-02-02,2024-02-02,合同会社ＦＬＡＴ　ＰＩＮＥ,,合同会社,神奈川県,横浜市磯子区,栗木３丁目３５番４０－６０３号,,14,107,2350041,,,,,,,2024-02-02,1,,,,,フラットパイン,0
348,2021001081356,新規,0,2024-02-02,2024-02-02,株式会社美海,,株式会社,神奈川県,藤沢市,江の島１丁目５番８号,,14,205,2510036,,,,,,,2024-02-02,1,,,,,ウミ,0
349,2021001081364,新規,0,2024-02-02,2024-02-02,浜翔機工株式会社,,株式会社,神奈川県,座間市,ひばりが丘１丁目５０番２４号,,14,216,2520003,,,,,,,2024-02-02,1,,,,,ハマショウキコウ,0
351,2021003014116,新規,0,2024-02-02,2024-02-02,サンジョイ合同会社,,合同会社,神奈川県,秦野市,寿町６番４－８０５号,,14,211,2570042,,,,,,,2024-02-02,1,,,,,サンジョイ,0
361,2030001158262,新規,0,2024-02-02,2024-02-02,株式会社アンバースカイ,,株式会社,埼玉県,北葛飾郡杉戸町,大字下高野１７４４番地５,,11,464,3450043,,,,,,,2024-02-02,1,,,,,アンバースカイ,0
375,2040003024255,新規,0,2024-02-02,2024-02-02,合同会社ＫＨＬ,,合同会社,千葉県,香取市,石納４０３番地,,12,236,2870826,,,,,,,2024-02-02,1,,,,,ケーエイチエル,0
376,2040005022273,新規,0,2024-02-02,2024-02-02,医療法人社団誠優の杜,,その他の設立登記法人,千葉県,習志野市,袖ケ浦１丁目１２番８号,,12,216,2750021,,,,,,,2024-02-02,1,,,,,シャダンセイユウノモリ,0
380,2050001054204,新規,0,2024-02-02,2024-02-02,東日本ＳＮＴエネルギー株式会社,,株式会社,茨城県,坂東市,岩井３９８４,,08,228,3060631,,,,,,,2024-02-02,1,,,,,ヒガシニホンエスエヌティエネルギー,0
388,2080101024509,新規,0,2024-02-02,2024-02-02,ＳＵＮＲＩＳＥ株式会社,,株式会社,静岡県,熱海市,水口町１２番２９号２０９号,,22,205,4130016,,,,,,,2024-02-02,1,,,,,サンライズ,0
391,2080402022649,新規,0,2024-02-02,2024-02-02,三幸建物有限会社,,有限会社,静岡県,浜松市中央区,高丘町１１１番地の３,,22,138,4320000,,,,,,,2024-02-02,1,,,,,,0
392,2090003002487,新規,0,2024-02-02,2024-02-02,合同会社まほろば,,合同会社,山梨県,富士吉田市,松山５丁目１０番２号２階１号,,19,202,4030016,,,,,,,2024-02-02,1,,,,,マホロバ,0
395,2100001037178,新規,0,2024-02-02,2024-02-02,株式会社尾崎農園,,株式会社,長野県,松本市,大字和田８０００番地５５４号,,20,202,3901242,,,,,,,2024-02-02,1,,,,,オザキノウエン,0
397,2110001038142,新規,0,2024-02-02,2024-02-02,株式会社ＡＲＫ,,株式会社,新潟県,新潟市中央区,米山３丁目１番６０－１１０１号,,15,103,9500916,,,,,,,2024-02-02,1,,,,,アーク,0
398,2110001038150,新規,0,2024-02-02,2024-02-02,株式会社中央プランニング,,株式会社,新潟県,新潟市中央区,美咲町１丁目４番１５号,,15,103,9500954,,,,,,,2024-02-02,1,,,,,チュウオウプランニング,0
405,2120001261775,新規,0,2024-02-02,2024-02-02,希望株式会社,,株式会社,大阪府,大阪市中央区,船場中央２丁目１－４船場センタービル４号館地下一階Ｂ１０８ロイヤルオフィス内０２室,,27,128,5410055,,,,,,,2024-02-02,1,,,,,キボウ,0
406,2120001261998,新規,0,2024-02-02,2024-02-02,株式会社ＨＯＫＵＥＩ建設Ｐｌｕｓ,,株式会社,大阪府,大阪市東住吉区,針中野３丁目１番３０号２階,,27,121,5460011,,,,,,,2024-02-02,1,,,,,ホクエイケンセツプラス,0
412,2120101069004,新規,0,2024-02-02,2024-02-02,株式会社ＯＳ開発,,株式会社,大阪府,大阪狭山市,大野台１丁目３２－２７,,27,231,5890023,,,,,,,2024-02-02,1,,,,,オーエスカイハツ,0
413,2120101069012,新規,0,2024-02-02,2024-02-02,株式会社美伽国際,,株式会社,大阪府,堺市堺区,田出井町１番３－１６０５号,,27,141,5900014,,,,,,,2024-02-02,1,,,,,ミカコクサイ,0
415,2120901048727,新規,0,2024-02-02,2024-02-02,Ｂｅｓｔｐｌａｎ株式会社,,株式会社,大阪府,高槻市,日吉台六番町４０番２０号,,27,207,5691022,,,,,,,2024-02-02,1,,,,,ベストプラン,0
416,2120903005040,新規,0,2024-02-02,2024-02-02,合同会社ＢＬＵＥ,,合同会社,大阪府,吹田市,内本町１丁目７番１３号,,27,205,5640032,,,,,,,2024-02-02,1,,,,,ブルー,0
419,2130001076264,新規,0,2024-02-02,2024-02-02,株式会社ＤＡＩＫＯＫＵ,,株式会社,京都府,京都市下京区,小稲荷町８５番地８,,26,106,6008208,,,,,,,2024-02-02,1,,,,,ダイコク,0
423,2140001133114,新規,0,2024-02-02,2024-02-02,千秋株式会社,,株式会社,兵庫県,神戸市中央区,相生町５丁目１７－６カサベラ神戸３０６号,,28,110,6500025,,,,,,,2024-02-02,1,,,,,センシュウ,0
424,2140001133213,新規,0,2024-02-02,2024-02-02,株式会社ＧＦＥ,,株式会社,兵庫県,宝塚市,湯本町一丁目３９－２０６,,28,214,6650003,,,,,,,2024-02-02,1,,,,,ジーエフイー,0
428,2160003003107,新規,0,2024-02-02,2024-02-02,合同会社絆,,合同会社,滋賀県,湖南市,サイドタウン４丁目１２番４１号,,25,211,5203244,,,,,,,2024-02-02,1,,,,,キズナ,0
442,2180001159964,新規,0,2024-02-02,2024-02-02,株式会社ＲＡＤＩＡＮＴ,,株式会社,愛知県,名古屋市中区,大須４丁目３番４０号アークゾーン７Ｂ,,23,106,4600011,,,,,,,2024-02-02,1,,,,,ラディアント,0
443,2180001160022,新規,0,2024-02-02,2024-02-02,株式会社Ｒｅｖｉｖａｌ,,株式会社,愛知県,名古屋市中村区,名駅４丁目２４番５号第２森ビル４０１,,23,105,4500002,,,,,,,2024-02-02,1,,,,,リバイバル,0
444,2180001160030,新規,0,2024-02-02,2024-02-02,株式会社ブリッジブックコーポレーション,,株式会社,愛知県,名古屋市中区,丸の内２丁目６番２１号アクセス丸の内ビル９階,,23,106,4600002,,,,,,,2024-02-02,1,,,,,ブリッジブックコーポレーション,0
445,2180001160039,新規,0,2024-02-02,2024-02-02,株式会社Ｆｒｏｎｔｉｅｒ,,株式会社,愛知県,名古屋市中区,大須２丁目５番１７号,,23,106,4600011,,,,,,,2024-02-02,1,,,,,フロンティア,0
447,2180003026295,新規,0,2024-02-02,2024-02-02,合同会社ＫＴＸ‐ＳＴＲＡＴＯＳ,,合同会社,愛知県,江南市,安良町地蔵５１番地,,23,217,4838111,,,,,,,2024-02-02,1,,,,,ケーティエックスストラトス,0
448,2180003026304,新規,0,2024-02-02,2024-02-02,合同会社ＴＫＴ中部,,合同会社,愛知県,名古屋市守山区,廿軒家１５番２２号エレストビル２階,,23,113,4630065,,,,,,,2024-02-02,1,,,,,ティーケーティーチュウブ,0
450,2180005020503,新規,0,2024-02-02,2024-02-02,ＮＰＯ法人はないちもんめ,,その他の設立登記法人,愛知県,名古屋市中村区,小鴨町１６８番地,,23,105,4530844,,,,,,,2024-02-02,1,,,,,ハナイチモンメ,0
460,2200001042119,新規,0,2024-02-02,2024-02-02,富金属株式会社,,株式会社,岐阜県,各務原市,各務西町６丁目３２２番地２,,21,213,5090106,,,,,,,2024-02-02,1,,,,,トミキンゾク,0
461,2200001042127,新規,0,2024-02-02,2024-02-02,株式会社絃坊設備,,株式会社,岐阜県,安八郡神戸町,大字北一色７６８番地の１７,,21,381,5032306,,,,,,,2024-02-02,1,,,,,ケンボウセツビ,0
473,2240001062740,新規,0,2024-02-02,2024-02-02,ひろぎんライフパートナーズ株式会社,,株式会社,広島県,広島市中区,紙屋町１丁目３番８号,,34,101,7300031,,,,,,,2024-02-02,1,,,,,ヒロギンライフパートナーズ,0
476,2260001038739,新規,0,2024-02-02,2024-02-02,株式会社ＵＮＩ,,株式会社,岡山県,岡山市北区,西古松１丁目３０番４－２号,,33,101,7000927,,,,,,,2024-02-02,1,,,,,ユーエヌアイ,0
487,2290001104554,新規,0,2024-02-02,2024-02-02,日本ミュージックサポート協会Ｓｔｏｒｉａ株式会社,,株式会社,福岡県,飯塚市,本町７番１９号,,40,205,8200042,,,,,,,2024-02-02,1,,,,,ニホンミュージックサポートキョウカイストーリア,0
491,2290005019286,新規,0,2024-02-02,2024-02-02,丸善建設協同組合,,その他の設立登記法人,福岡県,久留米市,善導寺町飯田４１５番地１,,40,203,8390824,,,,,,,2024-02-02,1,,,,,マルゼンケンセツ,0
492,2290801030264,新規,0,2024-02-02,2024-02-02,株式会社Ｇ．ｗｉｔｈ,,株式会社,福岡県,北九州市小倉北区,浅野３丁目８－１ＡＩＭビル６階,,40,106,8020001,,,,,,,2024-02-02,1,,,,,ジーウィズ,0
493,2290801030280,新規,0,2024-02-02,2024-02-02,樹電業株式会社,,株式会社,福岡県,北九州市小倉南区,蜷田若園３丁目７番２９号,,40,107,8020814,,,,,,,2024-02-02,1,,,,,イツキデンギョウ,0
509,2340001026256,新規,0,2024-02-02,2024-02-02,サンエー不動産株式会社,,株式会社,鹿児島県,鹿児島市,西田２丁目１５番５号,,46,201,8900046,,,,,,,2024-02-02,1,,,,,サンエーフドウサン,0
510,2340001026264,新規,0,2024-02-02,2024-02-02,みんなのジム株式会社,,株式会社,鹿児島県,鹿児島市,桜ヶ丘４丁目１－１３Ａコープ桜ヶ丘２階,,46,201,8910175,,,,,,,2024-02-02,1,,,,,ミンナノジム,0
521,2360005006979,新規,0,2024-02-02,2024-02-02,一般社団法人伝統建築防災協会,,その他の設立登記法人,沖縄県,沖縄市,上地４丁目２番８号,,47,211,9040031,,,,,,,2024-02-02,1,,,,,デントウケンチクボウサイキョウカイ,0
527,2390003002201,新規,0,2024-02-02,2024-02-02,合同会社架け橋,,合同会社,山形県,寒河江市,元町４丁目３－３,,06,206,9910053,,,,,,,2024-02-02,1,,,,,カケハシ,0
534,2430001090994,新規,0,2024-02-02,2024-02-02,株式会社ＪＳサポート,,株式会社,北海道,札幌市北区,あいの里二条７丁目２番１号,,01,102,0028072,,,,,,,2024-02-02,1,,,,,ジェイエスサポート,0
535,2430001091002,新規,0,2024-02-02,2024-02-02,株式会社松田製作所,,株式会社,北海道,札幌市北区,北七条西４丁目１番地１トーカン札幌第一キャステール６０７,,01,102,0600807,,,,,,,2024-02-02,1,,,,,マツダセイサクショ,0
541,2450001014217,新規,0,2024-02-02,2024-02-02,株式会社野菜田,,株式会社,北海道,富良野市,山部北町６番１８号,,01,229,0791562,,,,,,,2024-02-02,1,,,,,ヤサダ,0
543,2460101007490,新規,0,2024-02-02,2024-02-02,オバタ林業株式会社,,株式会社,北海道,中川郡幕別町,忠類錦町４３２番地４３,,01,643,0891707,,,,,,,2024-02-02,1,,,,,オバタリンギョウ,0
548,2480003002084,新規,0,2024-02-02,2024-02-02,合同会社ｔｅｒｒａ　ｐｌｕｓ,,合同会社,徳島県,阿波市,阿波町五明８９番地２,,36,206,7711705,,,,,,,2024-02-02,1,,,,,テラプラス,0
553,2500001025448,新規,0,2024-02-02,2024-02-02,株式会社イミテート,,株式会社,愛媛県,西条市,吉田１６１５番地１,,38,206,7991372,,,,,,,2024-02-02,1,,,,,,0
554,2500005008671,新規,0,2024-02-02,2024-02-02,医療法人山田内科クリニック,,その他の設立登記法人,愛媛県,松山市,三番町５丁目９番地４,,38,201,7900003,,,,,,,2024-02-02,1,,,,,ヤマダナイカクリニック,0
560,3010001241977,新規,0,2024-02-02,2024-02-02,Ｎｏｔｏｓ株式会社,,株式会社,東京都,千代田区,永田町２丁目１４番２号山王グランドビル３階スリーアイズキャピタル株式会社内,,13,101,1000014,,,,,,,2024-02-02,1,,,,,ノトス,0
561,3010001241993,新規,0,2024-02-02,2024-02-02,株式会社ＣＡＴＳ,,株式会社,東京都,中央区,日本橋蛎殻町１丁目１７番２号,,13,102,1030014,,,,,,,2024-02-02,1,,,,,キャッツ,0
562,3010001242001,新規,0,2024-02-02,2024-02-02,株式会社ｔ,,株式会社,東京都,中央区,勝どき５丁目３番１－４２１３号,,13,102,1040054,,,,,,,2024-02-02,1,,,,,ティー,0
563,3010001242018,新規,0,2024-02-02,2024-02-02,株式会社ＢＣＪ‐８０,,株式会社,東京都,千代田区,丸の内１丁目１番１号パレスビル５階,,13,101,1000005,,,,,,,2024-02-02,1,,,,,ビーシージェイエイティー,0
564,3010001242026,新規,0,2024-02-02,2024-02-02,株式会社クスリコ,,株式会社,東京都,中央区,銀座１丁目１２番４号,,13,102,1040061,,,,,,,2024-02-02,1,,,,,クスリコ,0
565,3010001242059,新規,0,2024-02-02,2024-02-02,株式会社石井工務店,,株式会社,東京都,文京区,白山３丁目４番１３号,,13,105,1120001,,,,,,,2024-02-02,1,,,,,イシイコウムテン,0
576,3010401180040,新規,0,2024-02-02,2024-02-02,株式会社ＲＭＥ,,株式会社,東京都,港区,白金台５丁目４番１３－４０２号,,13,103,1080071,,,,,,,2024-02-02,1,,,,,アールエムイー,0
577,3010401180115,新規,0,2024-02-02,2024-02-02,アタラクシア株式会社,,株式会社,東京都,港区,北青山１丁目３番１号アールキューブ青山３階,,13,103,1070061,,,,,,,2024-02-02,1,,,,,アタラクシア,0
580,3010403031852,新規,0,2024-02-02,2024-02-02,合同会社キッチン,,合同会社,東京都,港区,白金６丁目１７番５－２０７号,,13,103,1080072,,,,,,,2024-02-02,1,,,,,キッチン,0
581,3010501051728,新規,0,2024-02-02,2024-02-02,株式会社ｉｓｓｏｗｉｔｈ,,株式会社,東京都,台東区,下谷２丁目４番３－１００２号クラルテ入谷,,13,106,1100004,,,,,,,2024-02-02,1,,,,,イッソウィズ,0
588,3010903008771,新規,0,2024-02-02,2024-02-02,合同会社ＳＳＧ企画,,合同会社,東京都,世田谷区,下馬１丁目２番地１０号,,13,112,1540002,,,,,,,2024-02-02,1,,,,,エスエスジーキカク,0
593,3011001159771,新規,0,2024-02-02,2024-02-02,Ｄｒａｇｏｎｂａｓｅ　Ｌａｂｓ株式会社,,株式会社,東京都,渋谷区,東４丁目９番１７号,,13,113,1500011,,,,,,,2024-02-02,1,,,,,ドラゴンベースラブズ,0
594,3011003018422,新規,0,2024-02-02,2024-02-02,Ｃｈｉａｖｅ合同会社,,合同会社,東京都,渋谷区,円山町５番５号Ｎａｖｉ渋谷Ｖ３階,,13,113,1500044,,,,,,,2024-02-02,1,,,,,キアーヴェ,0
595,3011005010360,新規,0,2024-02-02,2024-02-02,一般社団法人けんせつぴーあーる,,その他の設立登記法人,東京都,渋谷区,道玄坂１丁目１０番８号,,13,113,1500043,,,,,,,2024-02-02,1,,,,,ケンセツピーアール,0
598,3011101106038,新規,0,2024-02-02,2024-02-02,ＤＵＲＤＥＮ株式会社,,株式会社,東京都,新宿区,下宮比町２番２８号,,13,104,1620822,,,,,,,2024-02-02,1,,,,,ダーデン,0
601,3011103014057,新規,0,2024-02-02,2024-02-02,計算社会分析研究所合同会社,,合同会社,東京都,新宿区,西新宿３丁目３番１３号西新宿水間ビル２Ｆ,,13,104,1600023,,,,,,,2024-02-02,1,,,,,ケイサンシャカイブンセキケンキュウジョ,0
606,3011203004296,新規,0,2024-02-02,2024-02-02,合同会社ＯＴＯＭ,,合同会社,東京都,中野区,中野５丁目５６－１０第９８東京ビル２階Ａ店舗,,13,114,1640001,,,,,,,2024-02-02,1,,,,,オーティーオーエム,0
610,3011305002958,新規,0,2024-02-02,2024-02-02,司法書士法人オルティ,,その他の設立登記法人,東京都,杉並区,天沼３丁目１３番５号ストーリア荻窪１Ｆ,,13,115,1670032,,,,,,,2024-02-02,1,,,,,オルティ,0
611,3011501030283,新規,0,2024-02-02,2024-02-02,株式会社朝顔,,株式会社,東京都,北区,浮間３丁目１番４１号大久保ビル２階,,13,117,1150051,,,,,,,2024-02-02,1,,,,,アサガオ,0
612,3011501030291,新規,0,2024-02-02,2024-02-02,株式会社三和,,株式会社,東京都,荒川区,荒川１丁目２９－５,,13,118,1160002,,,,,,,2024-02-02,1,,,,,サンワ,0
622,3013301052020,新規,0,2024-02-02,2024-02-02,株式会社ｅｒ,,株式会社,東京都,豊島区,東池袋１丁目３４番５号いちご東池袋ビル６階,,13,116,1700013,,,,,,,2024-02-02,1,,,,,アー,0
627,3020003025477,新規,0,2024-02-02,2024-02-02,合同会社キュリアス,,合同会社,神奈川県,横浜市緑区,台村町６２０番地４,,14,113,2260014,,,,,,,2024-02-02,1,,,,,キュリアス,0
631,3021001081363,新規,0,2024-02-02,2024-02-02,ＨＡＮＡＺＡ　ＴＲＡＤＩＮＧ株式会社,,株式会社,神奈川県,厚木市,温水２２２６番地３神崎ハイツ１０１,,14,212,2430033,,,,,,,2024-02-02,1,,,,,ハナザトレーディング,0
632,3021003014107,新規,0,2024-02-02,2024-02-02,合同会社吉野ジャパン,,合同会社,神奈川県,愛甲郡清川村,煤ヶ谷３２７８番川田商事ハイツＡ２階１０１号室,,14,402,2430112,,,,,,,2024-02-02,1,,,,,ヨシノジャパン,0
633,3021003014115,新規,0,2024-02-02,2024-02-02,ＤＲＥＡＭ合同会社,,合同会社,神奈川県,横須賀市,汐入町２丁目１７番地１２,,14,201,2380042,,,,,,,2024-02-02,1,,,,,ドリーム,0
646,3030003023406,新規,0,2024-02-02,2024-02-02,合同会社ＴＫ,,合同会社,埼玉県,新座市,東３丁目７－５,,11,230,3520002,,,,,,,2024-02-02,1,,,,,ティーケー,0
649,3040005022272,新規,0,2024-02-02,2024-02-02,一般社団法人野田関宿郷土保存会,,その他の設立登記法人,千葉県,野田市,木間ケ瀬１６２６番地１,,12,208,2700222,,,,,,,2024-02-02,1,,,,,ノダセキヤドキョウドホゾンカイ,0
651,3050001054203,新規,0,2024-02-02,2024-02-02,株式会社Ｌ．Ｃ．Ｐ　ＪＡＰＡＮ,,株式会社,茨城県,坂東市,菅谷２１２０番地２,,08,228,3060505,,,,,,,2024-02-02,1,,,,,エルシーピージャパン,0
652,3050001054211,新規,0,2024-02-02,2024-02-02,株式会社ＡＳＡ,,株式会社,茨城県,取手市,谷中４９０番地７,,08,217,3001532,,,,,,,2024-02-02,1,,,,,エーエスエー,0
656,3070003005251,新規,0,2024-02-02,2024-02-02,合同会社ｓｈｉｎｅ,,合同会社,群馬県,前橋市,元総社町１９０番地４サンパレス心彰３０３号,,10,201,3710846,,,,,,,2024-02-02,1,,,,,シャイン,0
660,3080401026988,新規,0,2024-02-02,2024-02-02,株式会社アンド・ワイ,,株式会社,静岡県,磐田市,福田中島１５番地１,,22,211,4371204,,,,,,,2024-02-02,1,,,,,アンドワイ,0
661,3090001018526,新規,0,2024-02-02,2024-02-02,株式会社Ｓ‐ｗｏｒｋｓ,,株式会社,山梨県,中巨摩郡昭和町,押越２０９７番地,,19,384,4093864,,,,,,,2024-02-02,1,,,,,エスワークス,0
662,3090001018534,新規,0,2024-02-02,2024-02-02,株式会社ＩＮＦＩＮＩＴＹ　ＡＧＥＮＣＹ,,株式会社,山梨県,甲府市,伊勢３丁目３番１０号,,19,201,4000856,,,,,,,2024-02-02,1,,,,,インフィニティエージェンシー,0
676,3120001261808,新規,0,2024-02-02,2024-02-02,羅盤株式会社,,株式会社,大阪府,大阪市浪速区,下寺３丁目１９－３海越ビル５０１,,27,111,5560001,,,,,,,2024-02-02,1,,,,,ラバン,0
677,3120001261923,新規,0,2024-02-02,2024-02-02,株式会社ＰＲＩＨＯＲＳＥ,,株式会社,大阪府,大阪市北区,本庄東１丁目２３番２－５０１号,,27,127,5310074,,,,,,,2024-02-02,1,,,,,プリホース,0
680,3120101068987,新規,0,2024-02-02,2024-02-02,株式会社ＭＲＴエステート,,株式会社,大阪府,泉大津市,二田町３丁目７番１１号,,27,206,5950015,,,,,,,2024-02-02,1,,,,,エムアールティエステート,0
681,3120101069003,新規,0,2024-02-02,2024-02-02,株式会社ＳＰＡＲＫＹ,,株式会社,大阪府,松原市,西野々２丁目１２番２８号,,27,217,5800004,,,,,,,2024-02-02,1,,,,,スパーキー,0
683,3120103005658,新規,0,2024-02-02,2024-02-02,合同会社Ｋ＆Ｓ,,合同会社,大阪府,和泉市,山荘町３丁目７番２１号,,27,219,5940021,,,,,,,2024-02-02,1,,,,,ケーエス,0
686,3120901048726,新規,0,2024-02-02,2024-02-02,株式会社あつを,,株式会社,大阪府,茨木市,豊原町９番２０－５１５号,,27,211,5670053,,,,,,,2024-02-02,1,,,,,アツヲ,0
688,3122001037799,新規,0,2024-02-02,2024-02-02,株式会社ＢＴテック,,株式会社,大阪府,東大阪市,玉串町東３丁目３番８７号,,27,227,5780932,,,,,,,2024-02-02,1,,,,,ビーティーテック,0
693,3130001076263,新規,0,2024-02-02,2024-02-02,株式会社大勢,,株式会社,京都府,京都市下京区,小稲荷町８５番地８,,26,106,6008208,,,,,,,2024-02-02,1,,,,,タイセイ,0
698,3140001133245,新規,0,2024-02-02,2024-02-02,株式会社ＭＩＲＡＩ創研,,株式会社,兵庫県,芦屋市,平田町４番２４号,,28,206,6590074,,,,,,,2024-02-02,1,,,,,ミライソウケン,0
701,3140003020111,新規,0,2024-02-02,2024-02-02,合同会社唯一企画,,合同会社,兵庫県,神戸市中央区,加納町３丁目１４番６号,,28,110,6500001,,,,,,,2024-02-02,1,,,,,ユイイツキカク,0
730,3180001159971,新規,0,2024-02-02,2024-02-02,株式会社カラクル,,株式会社,愛知県,東海市,東海町６丁目１番９号,,23,222,4760015,,,,,,,2024-02-02,1,,,,,カラクル,0
742,3180003026294,新規,0,2024-02-02,2024-02-02,ＣＭＣ合同会社,,合同会社,愛知県,名古屋市天白区,平針１丁目１９１６番地ヒューマンアリー４Ｄ号,,23,116,4680011,,,,,,,2024-02-02,1,,,,,シーエムシー,0
746,3190001031023,新規,0,2024-02-02,2024-02-02,株式会社Ｆｉｌ　ｅｔ　Ｆｉｌ,,株式会社,三重県,桑名市,大字桑名６２５番地８ダイアパレス桑名レジデンス９０３号,,24,205,5110009,,,,,,,2024-02-02,1,,,,,フィルエフィル,0
747,3190001031080,新規,0,2024-02-02,2024-02-02,株式会社ジョブスタ,,株式会社,三重県,津市,半田１５３３番地６,,24,201,5140823,,,,,,,2024-02-02,1,,,,,ジョブスタ,0
748,3190003004571,新規,0,2024-02-02,2024-02-02,ウエスト工業合同会社,,合同会社,三重県,津市,一志町八太３４０番地１,,24,201,5152515,,,,,,,2024-02-02,1,,,,,ウエストコウギョウ,0
752,3210001019619,新規,0,2024-02-02,2024-02-02,株式会社福井商会,,株式会社,福井県,福井市,西開発４丁目４１７番地の２,,18,201,9100843,,,,,,,2024-02-02,1,,,,,フクイショウカイ,0
753,3210001019627,新規,0,2024-02-02,2024-02-02,株式会社おおのテラス,,株式会社,福井県,大野市,要町３番１４号,,18,205,9120026,,,,,,,2024-02-02,1,,,,,オオノテラス,0
760,3240005015710,新規,0,2024-02-02,2024-02-02,特定非営利活動法人ホープスマイル,,その他の設立登記法人,広島県,広島市安佐北区,深川６丁目４６番２号,,34,106,7391751,,,,,,,2024-02-02,1,,,,,ホープスマイル,0
767,3270001008913,新規,0,2024-02-02,2024-02-02,株式会社和冨,,株式会社,鳥取県,鳥取市,末広温泉町３６９,,31,201,6800833,,,,,,,2024-02-02,1,,,,,カズトミ,0
772,3290003014932,新規,0,2024-02-02,2024-02-02,合同会社ＧＯ,,合同会社,福岡県,久留米市,小森野１丁目３番３０号,,40,203,8300001,,,,,,,2024-02-02,1,,,,,ゴウ,0
780,3320001020268,新規,0,2024-02-02,2024-02-02,株式会社エイトス,,株式会社,大分県,大分市,六坊北町７番１２号２０２号室,,44,201,8700841,,,,,,,2024-02-02,1,,,,,エイトス,0
786,3340001026263,新規,0,2024-02-02,2024-02-02,Ｇｅｍｕｅｔｌｉｃｈ株式会社,,株式会社,鹿児島県,鹿児島市,吉野３丁目４９番１３号,,46,201,8920877,,,,,,,2024-02-02,1,,,,,ゲミュートリッヒ,0
792,3350003004555,新規,0,2024-02-02,2024-02-02,合同会社キサヌキ開発,,合同会社,宮崎県,延岡市,粟野名町２１３１番地Ｔｕｒｑｕｏｉｓｅ５０１,,45,203,8820025,,,,,,,2024-02-02,1,,,,,キサヌキカイハツ,0
794,3370001050896,新規,0,2024-02-02,2024-02-02,株式会社ｕＮｉｖｅｒｓ,,株式会社,宮城県,名取市,相互台２丁目８番地の７,,04,207,9811246,,,,,,,2024-02-02,1,,,,,ユニヴェール,0
800,3390001017514,新規,0,2024-02-02,2024-02-02,株式会社オーエフ総業,,株式会社,山形県,寒河江市,中央２丁目７‐４５,,06,206,9910021,,,,,,,2024-02-02,1,,,,,オーエフソウギョウ,0
808,3430003015916,新規,0,2024-02-02,2024-02-02,合同会社ゼノ,,合同会社,北海道,札幌市中央区,南五条西１５丁目２－３リズム医大前５０３号室,,01,101,0640805,,,,,,,2024-02-02,1,,,,,ゼノ,0
810,3470001020014,新規,0,2024-02-02,2024-02-02,株式会社寛翠苑,,株式会社,香川県,善通寺市,原田町３６９番地２,,37,204,7650032,,,,,,,2024-02-02,1,,,,,ヒロショウエン,0
815,3480003002083,新規,0,2024-02-02,2024-02-02,ダイレクトライン合同会社,,合同会社,徳島県,板野郡藍住町,徳命字名田２３０番地１,,36,403,7711210,,,,,,,2024-02-02,1,,,,,ダイレクトライン,0
816,3500001025447,新規,0,2024-02-02,2024-02-02,株式会社縁,,株式会社,愛媛県,松山市,西石井１丁目２番３０号,,38,201,7900931,,,,,,,2024-02-02,1,,,,,エニシ,0
819,3500005008670,新規,0,2024-02-02,2024-02-02,医療法人日向会,,その他の設立登記法人,愛媛県,松山市,山越５丁目７番３０号,,38,201,7918013,,,,,,,2024-02-02,1,,,,,ヒナタカイ,0
823,4010001241968,新規,0,2024-02-02,2024-02-02,株式会社ＪＰＫ　Ｊａｐａｎ,,株式会社,東京都,中央区,勝どき１丁目８番１号,,13,102,1040054,,,,,,,2024-02-02,1,,,,,ジェーピーケージャパン,0
824,4010001241976,新規,0,2024-02-02,2024-02-02,Ｏｐｓ株式会社,,株式会社,東京都,千代田区,永田町２丁目１４番２号山王グランドビル３階スリーアイズキャピタル株式会社内,,13,101,1000014,,,,,,,2024-02-02,1,,,,,オプス,0
825,4010001242000,新規,0,2024-02-02,2024-02-02,株式会社マーサ,,株式会社,東京都,中央区,銀座１丁目１２－４Ｎ＆ＥＢＬＤ．７階,,13,102,1040061,,,,,,,2024-02-02,1,,,,,マーサ,0
849,4010403031843,新規,0,2024-02-02,2024-02-02,合同会社スターサポート,,合同会社,東京都,港区,北青山１丁目３番１号アールキューブ青山３階,,13,103,1070061,,,,,,,2024-02-02,1,,,,,スターサポート,0
850,4010403031851,新規,0,2024-02-02,2024-02-02,合同会社ｏｐｔｉｏｎ,,合同会社,東京都,港区,北青山１丁目３番１号アールキューブ青山３階,,13,103,1070061,,,,,,,2024-02-02,1,,,,,オプション,0
851,4010405022907,新規,0,2024-02-02,2024-02-02,六本木新開発一般社団法人,,その他の設立登記法人,東京都,港区,虎ノ門５丁目１番４号,,13,103,1050001,,,,,,,2024-02-02,1,,,,,ロッポンギシンカイハツ,0
855,4010501051727,新規,0,2024-02-02,2024-02-02,株式会社ｔｒｉＭ,,株式会社,東京都,台東区,入谷１丁目２７－５共栄入谷ビル４Ｆ,,13,106,1100013,,,,,,,2024-02-02,1,,,,,トリム,0
861,4010903008787,新規,0,2024-02-02,2024-02-02,ｎ　ｃａｐｉｔａｌ合同会社,,合同会社,東京都,世田谷区,野沢４丁目１４番５号,,13,112,1540003,,,,,,,2024-02-02,1,,,,,エヌキャピタル,0
872,4011001159738,新規,0,2024-02-02,2024-02-02,株式会社石塚映像制作,,株式会社,東京都,目黒区,上目黒２丁目４４－１４,,13,110,1530051,,,,,,,2024-02-02,1,,,,,イシヅカエイゾウセイサク,0
873,4011001159779,新規,0,2024-02-02,2024-02-02,株式会社ＣＯＮＳＰＬＥＤＧＥ,,株式会社,東京都,渋谷区,円山町５番５号Ｎａｖｉ渋谷Ｖ３階,,13,113,1500044,,,,,,,2024-02-02,1,,,,,コンスプレッジ,0
874,4011001159787,新規,0,2024-02-02,2024-02-02,株式会社ｐａｐｉｐｏｐ,,株式会社,東京都,渋谷区,恵比寿西２丁目４番８号,,13,113,1500021,,,,,,,2024-02-02,1,,,,,パピポップ,0
880,4011101106053,新規,0,2024-02-02,2024-02-02,株式会社アイク,,株式会社,東京都,新宿区,矢来町１１５番地９０３号,,13,104,1620805,,,,,,,2024-02-02,1,,,,,アイク,0
882,4011103014056,新規,0,2024-02-02,2024-02-02,ライフパートナーズ合同会社,,合同会社,東京都,新宿区,中落合３丁目７番６－８０４,,13,104,1610032,,,,,,,2024-02-02,1,,,,,ライフパートナーズ,0
888,4011501030274,新規,0,2024-02-02,2024-02-02,株式会社ユーアイホーム,,株式会社,東京都,荒川区,東日暮里６丁目４２番１３号ユーアイホーム東日暮里１０１号,,13,118,1160014,,,,,,,2024-02-02,1,,,,,ユーアイホーム,0
889,4011501030282,新規,0,2024-02-02,2024-02-02,株式会社ミセルパブリッシング,,株式会社,東京都,北区,赤羽２丁目１９番８号伊澤ビル２０２号室,,13,117,1150045,,,,,,,2024-02-02,1,,,,,ミセルパブリッシング,0
890,4011501030290,新規,0,2024-02-02,2024-02-02,銭進株式会社,,株式会社,東京都,荒川区,東尾久２丁目２番９号三祥ビル２２５,,13,118,1160012,,,,,,,2024-02-02,1,,,,,センシン,0
892,4011603004234,新規,0,2024-02-02,2024-02-02,合同会社ＴＬＭＡ,,合同会社,東京都,練馬区,谷原５丁目１３－１４,,13,120,1770032,,,,,,,2024-02-02,1,,,,,トルマ,0
896,4011803006071,新規,0,2024-02-02,2024-02-02,Ａｖｉｔａ合同会社,,合同会社,東京都,足立区,千住３丁目２５番地,,13,121,1200034,,,,,,,2024-02-02,1,,,,,アヴィータ,0
914,4020001155622,新規,0,2024-02-02,2024-02-02,株式会社メディカルアシスト,,株式会社,神奈川県,川崎市幸区,北加瀬３丁目２３番１０－２０１号,,14,132,2120057,,,,,,,2024-02-02,1,,,,,メディカルアシスト,0
918,4021001081362,新規,0,2024-02-02,2024-02-02,株式会社吉國農園,,株式会社,神奈川県,相模原市緑区,下九沢５３１番地３,,14,151,2520134,,,,,,,2024-02-02,1,,,,,ヨシクニノウエン,0
922,4021003014114,新規,0,2024-02-02,2024-02-02,合同会社ｈｉＫＫ,,合同会社,神奈川県,藤沢市,辻堂３丁目５番２９号,,14,205,2510047,,,,,,,2024-02-02,1,,,,,ハイケーケー,0
927,4030001158450,新規,0,2024-02-02,2024-02-02,株式会社樹,,株式会社,埼玉県,春日部市,藤塚２０５６番地２１,,11,214,3440011,,,,,,,2024-02-02,1,,,,,タツキ,0
928,4030001158467,新規,0,2024-02-02,2024-02-02,小林不動産管理株式会社,,株式会社,埼玉県,さいたま市見沼区,大和田町１丁目３１９番地,,11,104,3370053,,,,,,,2024-02-02,1,,,,,コバヤシフドウサンカンリ,0
930,4030003023438,新規,0,2024-02-02,2024-02-02,合同会社Ｐａｒｍ,,合同会社,埼玉県,川口市,柳根町１５―３インプレスト東浦和３０８,,11,203,3330864,,,,,,,2024-02-02,1,,,,,パルム,0
931,4030003023553,新規,0,2024-02-02,2024-02-02,合同会社シャイングローリー,,合同会社,埼玉県,さいたま市南区,松本３丁目１４番６－６号,,11,108,3360035,,,,,,,2024-02-02,1,,,,,シャイングローリー,0
933,4030005021547,新規,0,2024-02-02,2024-02-02,特定非営利活動法人くまがやおもちゃ病院,,その他の設立登記法人,埼玉県,熊谷市,別府２丁目２０３番地２,,11,202,3600856,,,,,,,2024-02-02,1,,,,,クマガヤオモチャビョウイン,0
939,4040001131869,新規,0,2024-02-02,2024-02-02,株式会社インバウンドセンター,,株式会社,千葉県,千葉市花見川区,浪花町７７４番地１リバーテラス２０３号,,12,102,2620024,,,,,,,2024-02-02,1,,,,,インバウンドセンター,0
940,4040001131992,新規,0,2024-02-02,2024-02-02,ＵＰ株式会社,,株式会社,千葉県,松戸市,根本３３４番地大塚コーポ１０２号,,12,207,2710077,,,,,,,2024-02-02,1,,,,,ユーピー,0
941,4040001132000,新規,0,2024-02-02,2024-02-02,株式会社ホークス・アイズ,,株式会社,千葉県,成田市,江弁須１８７番地５ソレイユ・アサノ２号室,,12,211,2860047,,,,,,,2024-02-02,1,,,,,ホークスアイズ,0
942,4040001132017,新規,0,2024-02-02,2024-02-02,株式会社威耀,,株式会社,千葉県,千葉市中央区,千葉寺町３３番地,,12,101,2600844,,,,,,,2024-02-02,1,,,,,イヨウ,0
959,4050001054193,新規,0,2024-02-02,2024-02-02,株式会社Ｓｅｔｓｕｎａ,,株式会社,茨城県,守谷市,本町６８４－９,,08,224,3020109,,,,,,,2024-02-02,1,,,,,セツナ,0
964,4070003005259,新規,0,2024-02-02,2024-02-02,合同会社Ａｐｈｒｏｄｉｔｅ,,合同会社,群馬県,渋川市,石原１１００番地１,,10,208,3770007,,,,,,,2024-02-02,1,,,,,アフロディテ,0
966,4080001026108,新規,0,2024-02-02,2024-02-02,株式会社純正ＡＩ,,株式会社,静岡県,静岡市清水区,蒲原中６２３番地,,22,103,4213213,,,,,,,2024-02-02,1,,,,,ジュンセイエーアイ,0
968,4080401026987,新規,0,2024-02-02,2024-02-02,株式会社奏,,株式会社,静岡県,磐田市,上野部６４０番地１,,22,211,4380111,,,,,,,2024-02-02,1,,,,,カナデ,0
971,4090001018533,新規,0,2024-02-02,2024-02-02,株式会社Ｓ＆Ｋ,,株式会社,山梨県,甲府市,中央１丁目２番１号２階,,19,201,4000032,,,,,,,2024-02-02,1,,,,,エスアンドケイ,0
974,4110001038157,新規,0,2024-02-02,2024-02-02,株式会社ＯＰＵＳＩＡ,,株式会社,新潟県,新潟市東区,河渡２丁目５番１６号,,15,102,9500024,,,,,,,2024-02-02,1,,,,,オプシア,0
976,4110003005279,新規,0,2024-02-02,2024-02-02,合同会社エルオ,,合同会社,新潟県,三条市,居島一丁目２１番１号,,15,204,9550066,,,,,,,2024-02-02,1,,,,,エルオ,0
985,4120001261897,新規,0,2024-02-02,2024-02-02,潤安株式会社,,株式会社,大阪府,大阪市東成区,中本３丁目８番２１号プレステイジ緑橋,,27,115,5370022,,,,,,,2024-02-02,1,,,,,ジュンアン,0
986,4120001261914,新規,0,2024-02-02,2024-02-02,太古株式会社,,株式会社,大阪府,大阪市西成区,旭２丁目３番１号,,27,122,5570032,,,,,,,2024-02-02,1,,,,,タイコ,0
987,4120001261971,新規,0,2024-02-02,2024-02-02,株式会社ｗｅｌｒｉｎｇ,,株式会社,大阪府,大阪市中央区,東心斎橋１丁目１９番６号ステージ心斎橋ビルＩＩ２階,00133607,27,128,5420083,,,,,,,2024-02-02,1,,,,,ウェーリング,0
990,4120101069002,新規,0,2024-02-02,2024-02-02,株式会社ＲＯＣＣＡ,,株式会社,大阪府,堺市堺区,大町東１丁１番９号カルタ堺１階,,27,141,5900954,,,,,,,2024-02-02,1,,,,,ロッカ,0
994,4130001076295,新規,0,2024-02-02,2024-02-02,株式会社ロセウム,,株式会社,京都府,京都市伏見区,竹田真幡木町１４６番地,,26,109,6128427,,,,,,,2024-02-02,1,,,,,ロセウム,0
999,4130003009278,新規,0,2024-02-02,2024-02-02,ＳＯＣＩＯ．ＬＬＣ合同会社,,合同会社,京都府,京都市伏見区,竹田西桶ノ井町７２番地１,,26,109,6128428,,,,,,,2024-02-02,1,,,,,ソシオエルエルシー,0
1004,4140001133178,新規,0,2024-02-02,2024-02-02,坂藤建築工房株式会社,,株式会社,兵庫県,姫路市,林田町林田１４３番地,,28,201,6794206,,,,,,,2024-02-02,1,,,,,サカトウケンチクコウボウ,0
1005,4140001133194,新規,0,2024-02-02,2024-02-02,株式会社日建トラスト,,株式会社,兵庫県,神戸市中央区,中町通２丁目２－１７武田ビル２Ｂ号室,,28,110,6500027,,,,,,,2024-02-02,1,,,,,ニッケントラスト,0
1018,4180001160012,新規,0,2024-02-02,2024-02-02,株式会社ドットイスト,,株式会社,愛知県,名古屋市名東区,大針２丁目２４６番地,,23,115,4650064,,,,,,,2024-02-02,1,,,,,ドットイスト,0
1019,4180001160029,新規,0,2024-02-02,2024-02-02,株式会社燈,,株式会社,愛知県,名古屋市千種区,日岡町１丁目５８番地の２ドエルクレストＩＩ３０２号,00133600,23,101,4640834,,,,,,,2024-02-02,1,,,,,トモシビ,0
1045,4240001062739,新規,0,2024-02-02,2024-02-02,シー・ケイサービス株式会社,,株式会社,広島県,広島市中区,東白島町３番１３号,,34,101,7300004,,,,,,,2024-02-02,1,,,,,シーケイサービス,0
1054,4260001038729,新規,0,2024-02-02,2024-02-02,サザンクロス株式会社,,株式会社,岡山県,岡山市中区,江崎１５０番地１０,,33,102,7028005,,,,,,,2024-02-02,1,,,,,サザンクロス,0
1056,4260003004563,新規,0,2024-02-02,2024-02-02,ＨＡＭＡＮＡ　ＣＯＭＭＵＮＩＣＡＴＥ合同会社,,合同会社,岡山県,岡山市北区,奉還町３丁目９－９,,33,101,7000026,,,,,,,2024-02-02,1,,,,,ハマナコミュニケート,0
1059,4290001104585,新規,0,2024-02-02,2024-02-02,株式会社ベルデ,,株式会社,福岡県,太宰府市,梅香苑１丁目５番１７号,,40,221,8180124,,,,,,,2024-02-02,1,,,,,ベルデ,0
1060,4290001104610,新規,0,2024-02-02,2024-02-02,株式会社悠,,株式会社,福岡県,福岡市東区,水谷３丁目１７番２２号,,40,131,8130041,,,,,,,2024-02-02,1,,,,,ユウ,0
1069,4290801030279,新規,0,2024-02-02,2024-02-02,垂門設備工業株式会社,,株式会社,福岡県,北九州市八幡西区,楠橋下方３丁目１３番２２号,,40,109,8071146,,,,,,,2024-02-02,1,,,,,タルカドセツビコウギョウ,0
1070,4300001013611,新規,0,2024-02-02,2024-02-02,株式会社田中制作所,,株式会社,佐賀県,小城市,牛津町乙柳９９４,,41,208,8490301,,,,,,,2024-02-02,1,,,,,タナカセイサクショ,0
1074,4320001020267,新規,0,2024-02-02,2024-02-02,株式会社ひらく事ム所,,株式会社,大分県,佐伯市,中の島３丁目１０番２０号,,44,205,8760843,,,,,,,2024-02-02,1,,,,,ヒラクジムショ,0
1089,4370003006474,新規,0,2024-02-02,2024-02-02,合同会社仙台ＩＣＴアカデミー,,合同会社,宮城県,仙台市太白区,長町１丁目１番１３号第三旭コーポラス１１０３号室,,04,104,9820011,,,,,,,2024-02-02,1,,,,,センダイアイシーティーアカデミー,0
1091,4380001034278,新規,0,2024-02-02,2024-02-02,株式会社テイワズ,,株式会社,福島県,福島市,森合字道端１７番地の１,,07,201,9608003,,,,,,,2024-02-02,1,,,,,テイワズ,0
1094,4390001017513,新規,0,2024-02-02,2024-02-02,株式会社林七,,株式会社,山形県,西置賜郡飯豊町,大字椿７３７番地,,06,403,9990604,,,,,,,2024-02-02,1,,,,,リンシチ,0
1098,4430001091000,新規,0,2024-02-02,2024-02-02,株式会社繁,,株式会社,北海道,札幌市白石区,東米里２１６０番８６号,,01,104,0030876,,,,,,,2024-02-02,1,,,,,ハン,0
1101,4430003015915,新規,0,2024-02-02,2024-02-02,合同会社ぴよ,,合同会社,北海道,札幌市西区,発寒五条３丁目１０－１４,,01,107,0630825,,,,,,,2024-02-02,1,,,,,ピヨ,0
1104,4460101007489,新規,0,2024-02-02,2024-02-02,株式会社ネクストフェーズ,,株式会社,北海道,帯広市,西二十条南５丁目２１―１４,,01,207,0802470,,,,,,,2024-02-02,1,,,,,ネクストフェーズ,0
1106,4470001020021,新規,0,2024-02-02,2024-02-02,株式会社訪問看護ステーション山下,,株式会社,香川県,高松市,太田上町１０６０番地１４,,37,201,7618074,,,,,,,2024-02-02,1,,,,,ホウモンカンゴステーションヤマシタ,0
1107,4480003002082,新規,0,2024-02-02,2024-02-02,合同会社Ｇｒａｔｉｓ,,合同会社,徳島県,板野郡藍住町,富吉字須崎３３－１－２Ｆ,,36,403,7711231,,,,,,,2024-02-02,1,,,,,グラティス,0
1112,5010001241934,新規,0,2024-02-02,2024-02-02,株式会社セブンスター,,株式会社,東京都,中央区,月島４丁目２１番６－５０７号,,13,102,1040052,,,,,,,2024-02-02,1,,,,,セブンスター,0
1113,5010001242016,新規,0,2024-02-02,2024-02-02,株式会社ラナ・ソリューションズ,,株式会社,東京都,千代田区,神田岩本町一丁目１番岩本町ビル７４,,13,101,1010033,,,,,,,2024-02-02,1,,,,,ラナソリューションズ,0
1114,5010001242049,新規,0,2024-02-02,2024-02-02,秋田県南部沖浮体式洋上風力株式会社,,株式会社,東京都,千代田区,大手町１丁目４番２号,,13,101,1000004,,,,,,,2024-02-02,1,,,,,アキタケンナンブオキフタイシキヨウジョウフウリョク,0
1117,5010003042851,新規,0,2024-02-02,2024-02-02,未来創電蒲生日野合同会社,,合同会社,東京都,千代田区,丸の内３丁目１番１号東京共同会計事務所内,,13,101,1000005,,,,,,,2024-02-02,1,,,,,ミライソウデンガモウヒノ,0
1124,5010401180113,新規,0,2024-02-02,2024-02-02,株式会社マトリクス,,株式会社,東京都,港区,北青山１丁目３番１号アールキューブ青山３階,,13,103,1070061,,,,,,,2024-02-02,1,,,,,マトリクス,0
1136,5010403031801,新規,0,2024-02-02,2024-02-02,合同会社ＳＡＫＵＲＡ,,合同会社,東京都,港区,南青山３丁目１番３６号青山丸竹ビル６Ｆ,,13,103,1070062,,,,,,,2024-02-02,1,,,,,サクラ,0
1137,5010403031826,新規,0,2024-02-02,2024-02-02,一三合同会社,,合同会社,東京都,港区,東麻布１丁目８番４－６０１号,,13,103,1060044,,,,,,,2024-02-02,1,,,,,イチサン,0
1139,5010501051726,新規,0,2024-02-02,2024-02-02,株式会社Ｕ＆Ｐ,,株式会社,東京都,台東区,下谷１丁目５番３０－１４０２号,,13,106,1100004,,,,,,,2024-02-02,1,,,,,ユーアンドピー,0
1140,5010501051734,新規,0,2024-02-02,2024-02-02,ワンズ株式会社,,株式会社,東京都,台東区,台東１丁目７番９号谷口ビル７階,,13,106,1100016,,,,,,,2024-02-02,1,,,,,ワンズ,0
1143,5010601064578,新規,0,2024-02-02,2024-02-02,株式会社センス,,株式会社,東京都,江東区,東陽２丁目２番１４－１１７号,,13,108,1350016,,,,,,,2024-02-02,1,,,,,センス,0
1150,5010803004836,新規,0,2024-02-02,2024-02-02,ＯＫＳＡＮＡ合同会社,,合同会社,東京都,大田区,下丸子３丁目２１番１３号ヒル・ハウス２Ｃ号,,13,111,1460092,,,,,,,2024-02-02,1,,,,,オクサナ,0
1151,5010901054650,新規,0,2024-02-02,2024-02-02,株式会社Ａｔｔｒａｂｌｏｍ,,株式会社,東京都,世田谷区,駒沢４丁目１９番１２号プレール・ドゥーク駒沢公園７０１,,13,112,1540012,,,,,,,2024-02-02,1,,,,,アトラブロム,0
1161,5011001159753,新規,0,2024-02-02,2024-02-02,株式会社アストゼイン,,株式会社,東京都,渋谷区,桜丘町１８－４二宮ビル１Ｆ－４３,,13,113,1500031,,,,,,,2024-02-02,1,,,,,アストゼイン,0
1162,5011001159778,新規,0,2024-02-02,2024-02-02,株式会社ＷＯＨ,,株式会社,東京都,渋谷区,恵比寿西１丁目１０－１－１Ｆクリーンパレス,,13,113,1500021,,,,,,,2024-02-02,1,,,,,ウォー,0
1167,5011103014039,新規,0,2024-02-02,2024-02-02,シップテック合同会社,,合同会社,東京都,新宿区,中井２丁目１０番８号二の坂シティハウス１０８,,13,104,1610035,,,,,,,2024-02-02,1,,,,,シップテック,0
1168,5011103014055,新規,0,2024-02-02,2024-02-02,合同会社リスミック,,合同会社,東京都,新宿区,西新宿３丁目３番１３号西新宿水間ビル６階,,13,104,1600023,,,,,,,2024-02-02,1,,,,,リスミック,0
1176,5011503005942,新規,0,2024-02-02,2024-02-02,山本企画合同会社,,合同会社,東京都,荒川区,東日暮里５丁目４０番１－４０２号,,13,118,1160014,,,,,,,2024-02-02,1,,,,,ヤマモトキカク,0
1178,5011701026988,新規,0,2024-02-02,2024-02-02,株式会社ｋｏｋｏｒｏｂｉ,,株式会社,東京都,江戸川区,西葛西３丁目１３番１３－８０５号,,13,123,1340088,,,,,,,2024-02-02,1,,,,,ココロビ,0
1180,5011801043735,新規,0,2024-02-02,2024-02-02,株式会社東大セミナー,,株式会社,東京都,葛飾区,西新小岩５丁目２５番１７号,,13,122,1240025,,,,,,,2024-02-02,1,,,,,トウダイセミナー,0
1181,5011803006070,新規,0,2024-02-02,2024-02-02,合同会社Ｒｅａｓｓｕｒｅ,,合同会社,東京都,足立区,東綾瀬２丁目１番１０－５０４号,,13,121,1200004,,,,,,,2024-02-02,1,,,,,リアシュール,0
1186,5013303006988,新規,0,2024-02-02,2024-02-02,合同会社Ｒ＆Ｙ　ＯＦＦＩＣＥ,,合同会社,東京都,豊島区,要町１丁目１５番１２号,,13,116,1710043,,,,,,,2024-02-02,1,,,,,アールアンドワイオフィス,0
1191,5020001155588,新規,0,2024-02-02,2024-02-02,株式会社ウートピ,,株式会社,神奈川県,川崎市宮前区,土橋２丁目６番地１５,,14,136,2160005,,,,,,,2024-02-02,1,,,,,ウートピ,0
1192,5020001155596,新規,0,2024-02-02,2024-02-02,株式会社イチオンホーム,,株式会社,神奈川県,横浜市旭区,今宿２丁目６８番５号,,14,112,2410817,,,,,,,2024-02-02,1,,,,,イチオンホーム,0
1193,5020001155646,新規,0,2024-02-02,2024-02-02,まるみや株式会社,,株式会社,神奈川県,横浜市港南区,港南台１丁目２９番１５号,,14,111,2340054,,,,,,,2024-02-02,1,,,,,マルミヤ,0
1197,5020003025450,新規,0,2024-02-02,2024-02-02,ＧＣＭ合同会社,,合同会社,神奈川県,横浜市保土ケ谷区,仏向町１３８１番地２,,14,106,2400044,,,,,,,2024-02-02,1,,,,,ジーシーエム,0
1198,5020003025467,新規,0,2024-02-02,2024-02-02,張天師合同会社,,合同会社,神奈川県,横浜市中区,伊勢佐木町７丁目１５１番地２グランドガーラ横浜伊勢佐木町９０１室,,14,104,2310045,,,,,,,2024-02-02,1,,,,,チョウテンシ,0
1205,5021003014113,新規,0,2024-02-02,2024-02-02,合同会社三角四角,,合同会社,神奈川県,横須賀市,長坂４丁目１３－６２,,14,201,2400101,,,,,,,2024-02-02,1,,,,,サンカクシカク,0
1214,5030001158466,新規,0,2024-02-02,2024-02-02,株式会社清水,,株式会社,埼玉県,入間市,大字善蔵新田２１４番地４８,,11,225,3580025,,,,,,,2024-02-02,1,,,,,シミズ,0
1220,5030003023552,新規,0,2024-02-02,2024-02-02,六福合同会社,,合同会社,埼玉県,川口市,並木２丁目１５番１５号金川ビル３０９号室,,11,203,3320034,,,,,,,2024-02-02,1,,,,,ロクフク,0
1222,5040001132016,新規,0,2024-02-02,2024-02-02,ＳＫＹＲＡＹ株式会社,,株式会社,千葉県,君津市,大和田１丁目１番地１１サンテラス５,,12,225,2991146,,,,,,,2024-02-02,1,,,,,スカイレイ,0
1223,5040001132040,新規,0,2024-02-02,2024-02-02,株式会社フロークス,,株式会社,千葉県,柏市,船戸１丁目２番地２４,,12,217,2770802,,,,,,,2024-02-02,1,,,,,,0
1224,5040001132049,新規,0,2024-02-02,2024-02-02,株式会社マルズ,,株式会社,千葉県,松戸市,松戸１２３０番地の１ピアザビル９階,,12,207,2710092,,,,,,,2024-02-02,1,,,,,マルズ,0
1226,5040005022270,新規,0,2024-02-02,2024-02-02,医療法人社団香進会,,その他の設立登記法人,千葉県,船橋市,本中山２丁目１５番１２号リリスポスト４階,,12,204,2730035,,,,,,,2024-02-02,1,,,,,シャダンコウシンカイ,0
1234,5060001036784,新規,0,2024-02-02,2024-02-02,秋田ホールディングス株式会社,,株式会社,栃木県,宇都宮市,上野町６０７７番地１,,09,201,3210981,,,,,,,2024-02-02,1,,,,,アキタホールディングス,0
1235,5060001036792,新規,0,2024-02-02,2024-02-02,株式会社Ｙ，ｓ　ｆａｒｍ,,株式会社,栃木県,鹿沼市,下石川４５４番地,,09,205,3220017,,,,,,,2024-02-02,1,,,,,ワイズファーム,0
1245,5080401026986,新規,0,2024-02-02,2024-02-02,株式会社成燕電気工事,,株式会社,静岡県,浜松市浜名区,中瀬２５８９番地の８,,22,139,4340012,,,,,,,2024-02-02,1,,,,,セイエンデンキコウジ,0
1250,5090001018532,新規,0,2024-02-02,2024-02-02,株式会社穂積ブロイラー,,株式会社,山梨県,南巨摩郡富士川町,小室５８８９番地１００,,19,368,4000512,,,,,,,2024-02-02,1,,,,,ホヅミブロイラー,0
1263,5120001261921,新規,0,2024-02-02,2024-02-02,順欣株式会社,,株式会社,大阪府,大阪市阿倍野区,阪南町３丁目２１番６号,,27,119,5450021,,,,,,,2024-02-02,1,,,,,ジュンキン,0
1264,5120001261946,新規,0,2024-02-02,2024-02-02,株式会社サンハウス,,株式会社,大阪府,大阪市西成区,長橋３丁目４番２０号,,27,122,5570025,,,,,,,2024-02-02,1,,,,,サンハウス,0
1265,5120001262003,新規,0,2024-02-02,2024-02-02,ロード運送株式会社,,株式会社,大阪府,大阪市鶴見区,横堤３丁目１０番２０号,,27,124,5380052,,,,,,,2024-02-02,1,,,,,ロードウンソウ,0
1266,5120001262011,新規,0,2024-02-02,2024-02-02,株式会社Ｅｓｓｅｎｔｉａｌ　Ｑｕａｌｉｔｉｅｓ,,株式会社,大阪府,大阪市生野区,小路東４丁目１８番１６号,,27,116,5440003,,,,,,,2024-02-02,1,,,,,エッセンシャルクオリティーズ,0
1268,5120003025804,新規,0,2024-02-02,2024-02-02,共創合同会社,,合同会社,大阪府,大阪市西成区,橘３丁目１７－１０,,27,122,5570051,,,,,,,2024-02-02,1,,,,,キョウソウ,0
1273,5120901048716,新規,0,2024-02-02,2024-02-02,０１Ｂａｎｋ設立準備株式会社,,株式会社,大阪府,吹田市,豊津町９番１号,,27,205,5640051,,,,,,,2024-02-02,1,,,,,ゼロワンバンクセツリツジュンビ,0
1274,5120903005038,新規,0,2024-02-02,2024-02-02,合同会社Ｂｅｌｉｅｆ,,合同会社,大阪府,吹田市,佐竹台２丁目４－２０プレミスト南千里８０６号室,,27,205,5650855,,,,,,,2024-02-02,1,,,,,ビリーフ,0
1299,5180001160003,新規,0,2024-02-02,2024-02-02,ＥＬＩＴＥ．ＴＯＰＡＫ株式会社,,株式会社,愛知県,名古屋市名東区,名東本通５丁目４２番地バウハウス５－Ａ号,,23,115,4650087,,,,,,,2024-02-02,1,,,,,エリートトパック,0
1300,5180001160011,新規,0,2024-02-02,2024-02-02,株式会社Ｆｕｇａｋｕ,,株式会社,愛知県,名古屋市天白区,池見２丁目１２番地の１,,23,116,4680067,,,,,,,2024-02-02,1,,,,,フガク,0
1301,5180001160044,新規,0,2024-02-02,2024-02-02,株式会社銘和,,株式会社,愛知県,名古屋市守山区,大字上志段味字東谷２０８６番地の４２７,,23,113,4630001,,,,,,,2024-02-02,1,,,,,メイワ,0
1309,5180003026301,新規,0,2024-02-02,2024-02-02,ヘッズ経済経営機構合同会社,,合同会社,愛知県,名古屋市千種区,南明町２丁目６５番地,,23,101,4640845,,,,,,,2024-02-02,1,,,,,ヘッズケイザイケイエイキコウ,0
1314,5190001031079,新規,0,2024-02-02,2024-02-02,株式会社ＡＮＴＡみえ,,株式会社,三重県,津市,神戸２０２番地,,24,201,5140824,,,,,,,2024-02-02,1,,,,,アンタミエ,0
1321,5230003002148,新規,0,2024-02-02,2024-02-02,合同会社ビクトリー,,合同会社,富山県,富山市,桑原１４５番地５５,,16,201,9301336,,,,,,,2024-02-02,1,,,,,ビクトリー,0
1342,5290001104568,新規,0,2024-02-02,2024-02-02,株式会社ＥＴ,,株式会社,福岡県,福岡市東区,香椎照葉６丁目２番５２－２６０３号アイランドシティオーシャン＆フォレストタワーレジデンスＷＥＳＴ棟,,40,131,8130017,,,,,,,2024-02-02,1,,,,,イーティー,0
1343,5290001104584,新規,0,2024-02-02,2024-02-02,株式会社Ｎｅｘｔ,,株式会社,福岡県,福岡市博多区,博多駅前４丁目１８番１９号４階,,40,132,8120011,,,,,,,2024-02-02,1,,,,,ネクスト,0
1346,5300001013610,新規,0,2024-02-02,2024-02-02,株式会社くらつぼ,,株式会社,佐賀県,神埼郡吉野ヶ里町,吉田９７７－１５,,41,327,8420031,,,,,,,2024-02-02,1,,,,,クラツボ,0
1347,5320001020266,新規,0,2024-02-02,2024-02-02,株式会社平成瓦,,株式会社,大分県,臼杵市,大字家野１７９９番地,,44,206,8750065,,,,,,,2024-02-02,1,,,,,ヘイセイカワラ,0
1355,5340001026261,新規,0,2024-02-02,2024-02-02,株式会社コスモ,,株式会社,鹿児島県,大島郡和泊町,大字国頭２６８９番地４,,46,533,8919101,,,,,,,2024-02-02,1,,,,,コスモ,0
1375,5390001017512,新規,0,2024-02-02,2024-02-02,株式会社久里栄人,,株式会社,山形県,村山市,大字田沢９０７番地７,,06,208,9950051,,,,,,,2024-02-02,1,,,,,クリエイト,0
1377,5400001016545,新規,0,2024-02-02,2024-02-02,株式会社ＹＳＣ,,株式会社,岩手県,盛岡市,中ノ橋通１丁目１２番１０号,,03,201,0200871,,,,,,,2024-02-02,1,,,,,ワイエスシー,0
1378,5410001013723,新規,0,2024-02-02,2024-02-02,株式会社Ｓｈｉｂｕｋｅｎ　Ｆｏｏｄｓ,,株式会社,秋田県,秋田市,新屋松美町１８番２１号,,05,201,0101604,,,,,,,2024-02-02,1,,,,,シブケンフーズ,0
1383,5430003015914,新規,0,2024-02-02,2024-02-02,合同会社Ｒａｐｐｏｒｔ,,合同会社,北海道,札幌市中央区,南六条西３丁目１ニューオリンピアビル６階,,01,101,0640806,,,,,,,2024-02-02,1,,,,,ラポール,0
1384,5430003015922,新規,0,2024-02-02,2024-02-02,合同会社うららかサン,,合同会社,北海道,札幌市東区,東苗穂十四条３丁目２２番３号,,01,103,0070814,,,,,,,2024-02-02,1,,,,,ウララカサン,0
1395,6010001241900,新規,0,2024-02-02,2024-02-02,株式会社横山企画,,株式会社,東京都,千代田区,一番町４－４ＴＨＥＣＲＯＳＳ一番町Ｂ１,,13,101,1020082,,,,,,,2024-02-02,1,,,,,ヨコヤマキカク,0
1396,6010001242007,新規,0,2024-02-02,2024-02-02,株式会社Ｋａｔａｎａ,,株式会社,東京都,中央区,勝どき１丁目１番１－１１０２号,,13,102,1040054,,,,,,,2024-02-02,1,,,,,カタナ,0
1397,6010001242048,新規,0,2024-02-02,2024-02-02,株式会社Ｃａｌｍｉａ,,株式会社,東京都,千代田区,九段南３丁目５番２号九段下宝タワービル３階,,13,101,1020074,,,,,,,2024-02-02,1,,,,,カルミア,0
1407,6010401179699,新規,0,2024-02-02,2024-02-02,株式会社Ｇｒｅｅｎ　Ｌｉｇｈｔ,,株式会社,東京都,港区,西新橋２丁目１１番６号,,13,103,1050003,,,,,,,2024-02-02,1,,,,,,0
1408,6010401180087,新規,0,2024-02-02,2024-02-02,株式会社ＴＡＸＸＩ,,株式会社,東京都,港区,高輪２丁目１４番１７号グレイス高輪ビル８Ｆ,,13,103,1080074,,,,,,,2024-02-02,1,,,,,タクシー,0
1409,6010401180104,新規,0,2024-02-02,2024-02-02,株式会社ユースジョブ,,株式会社,東京都,港区,南青山３丁目３－３リビエラ南青山Ａ,,13,103,1070062,,,,,,,2024-02-02,1,,,,,ユースジョブ,0
1410,6010401180129,新規,0,2024-02-02,2024-02-02,Ｌ＆Ｍグローバルコンサルタンツ株式会社,,株式会社,東京都,港区,赤坂４丁目８番１９号,,13,103,1070052,,,,,,,2024-02-02,1,,,,,エルアンドエムグローバルコンサルタンツ,0
1411,6010403031833,新規,0,2024-02-02,2024-02-02,合同会社カードコレ,,合同会社,東京都,港区,白金３丁目１番１３号日恵ビル２階,,13,103,1080072,,,,,,,2024-02-02,1,,,,,カードコレ,0
1412,6010403031858,新規,0,2024-02-02,2024-02-02,合同会社表参道不動産,,合同会社,東京都,港区,南青山１丁目１番１号新青山ビル東館１９階,,13,103,1070062,,,,,,,2024-02-02,1,,,,,,0
1416,6010801034751,新規,0,2024-02-02,2024-02-02,株式会社ドンカリ,,株式会社,東京都,大田区,東矢口３丁目３－３－８０４,,13,111,1460094,,,,,,,2024-02-02,1,,,,,ドンカリ,0
1418,6010901054641,新規,0,2024-02-02,2024-02-02,株式会社Ｍ＆Ａコンサルティング,,株式会社,東京都,世田谷区,中町５丁目３６番５号,,13,112,1580091,,,,,,,2024-02-02,1,,,,,エムアンドエーコンサルティング,0
1419,6010901054658,新規,0,2024-02-02,2024-02-02,ＶＥＧＡ株式会社,,株式会社,東京都,世田谷区,深沢５丁目２３番１号,,13,112,1580081,,,,,,,2024-02-02,1,,,,,ベガ,0
1420,6010903008793,新規,0,2024-02-02,2024-02-02,合同会社尾関,,合同会社,東京都,世田谷区,用賀１丁目２７番１０－２０３号,,13,112,1580097,,,,,,,2024-02-02,1,,,,,オゼキ,0
1424,6011003018428,新規,0,2024-02-02,2024-02-02,Ｄ２ＨＯＬＩＣ合同会社,,合同会社,東京都,目黒区,中目黒４丁目６番１－４０３号プラウド中目黒,,13,110,1530061,,,,,,,2024-02-02,1,,,,,ディーツーホリック,0
1438,6011401025827,新規,0,2024-02-02,2024-02-02,賢明選択株式会社,,株式会社,東京都,板橋区,徳丸６丁目１３－２－１０２号,,13,119,1750083,,,,,,,2024-02-02,1,,,,,ケイメイセンタク,0
1440,6011501030256,新規,0,2024-02-02,2024-02-02,株式会社ねこねこネットワーク,,株式会社,東京都,北区,西ケ原３丁目５番９号,,13,117,1140024,,,,,,,2024-02-02,1,,,,,,0
1441,6011501030289,新規,0,2024-02-02,2024-02-02,１８７２株式会社,,株式会社,東京都,北区,浮間１丁目１番１４号リムジンビル１３６号,,13,117,1150051,,,,,,,2024-02-02,1,,,,,,0
1448,6011801043726,新規,0,2024-02-02,2024-02-02,株式会社マロンＤＯリス,,株式会社,東京都,葛飾区,西新小岩１丁目３番４号シティハイツ新小岩１Ｆ,,13,122,1240025,,,,,,,2024-02-02,1,,,,,マロンドウリス,0
1451,6011805003338,新規,0,2024-02-02,2024-02-02,司法書士法人ライトストーン法務事務所,,その他の設立登記法人,東京都,葛飾区,金町６丁目４番１号金町木下ビル３０８号室,,13,122,1250042,,,,,,,2024-02-02,1,,,,,ライトストーンホウムジムショ,0
1452,6012301013764,新規,0,2024-02-02,2024-02-02,株式会社ＰＰＱ,,株式会社,東京都,町田市,玉川学園３丁目２３番１２号,,13,209,1940041,,,,,,,2024-02-02,1,,,,,ピーピーキュー,0
1460,6013301052018,新規,0,2024-02-02,2024-02-02,ニホンラクコウ株式会社,,株式会社,東京都,豊島区,池袋３丁目３４番７号,,13,116,1710014,,,,,,,2024-02-02,1,,,,,ニホンラクコウ,0
1465,6020001155496,新規,0,2024-02-02,2024-02-02,株式会社ｗｉｔｈ．,,株式会社,神奈川県,横浜市西区,北幸２丁目１０番４８号むつみビル３階,,14,103,2200004,,,,,,,2024-02-02,1,,,,,ウィズ,0
1466,6020001155645,新規,0,2024-02-02,2024-02-02,株式会社ヘキルリ,,株式会社,神奈川県,川崎市宮前区,宮崎１丁目１３番地７－３１２,,14,136,2160033,,,,,,,2024-02-02,1,,,,,ヘキルリ,0
1473,6021001081369,新規,0,2024-02-02,2024-02-02,Ａ‐ＰＬＡＮＮＩＮＧ株式会社,,株式会社,神奈川県,茅ヶ崎市,甘沼５６６番地,,14,207,2530004,,,,,,,2024-02-02,1,,,,,エープランニング,0
1477,6021003014112,新規,0,2024-02-02,2024-02-02,合同会社アセットプラス,,合同会社,神奈川県,海老名市,門沢橋３丁目１７番１号,,14,215,2430426,,,,,,,2024-02-02,1,,,,,アセットプラス,0
1486,6030001158457,新規,0,2024-02-02,2024-02-02,株式会社アクシーズ,,株式会社,埼玉県,春日部市,中央１丁目８番１５号,,11,214,3440067,,,,,,,2024-02-02,1,,,,,アクシーズ,0
1490,6030003023543,新規,0,2024-02-02,2024-02-02,合同会社ＡＮＡエステート,,合同会社,埼玉県,深谷市,岡３１０４番地,,11,218,3690201,,,,,,,2024-02-02,1,,,,,アナエステート,0
1501,6040001132015,新規,0,2024-02-02,2024-02-02,株式会社ＨＭＳ,,株式会社,千葉県,茂原市,ゆたか１７番地２,,12,210,2970079,,,,,,,2024-02-02,1,,,,,エイチエムエス,0
1517,6080401026985,新規,0,2024-02-02,2024-02-02,株式会社スズキメカニクス,,株式会社,静岡県,袋井市,清水町５番地の１３,,22,216,4370037,,,,,,,2024-02-02,1,,,,,スズキメカニクス,0
1519,6080403004948,新規,0,2024-02-02,2024-02-02,合同会社ヘルプガーデン７,,合同会社,静岡県,磐田市,豊岡１１１３番地１,,22,211,4380231,,,,,,,2024-02-02,1,,,,,ヘルプガーデンセブン,0
1522,6090001018531,新規,0,2024-02-02,2024-02-02,ＰＬＵＳ　Ｎ株式会社,,株式会社,山梨県,甲府市,中小河原町６４５番地１ルピナスＩ２０３号室,00133598,19,201,4000854,,,,,,,2024-02-02,1,,,,,プラスエヌ,0
1526,6110001038147,新規,0,2024-02-02,2024-02-02,株式会社大協ホールディング,,株式会社,新潟県,南蒲原郡田上町,大字川船河甲８９８番地１,,15,361,9591513,,,,,,,2024-02-02,1,,,,,ダイキョウホールディング,0
1538,6120001261813,新規,0,2024-02-02,2024-02-02,尚簡株式会社,,株式会社,大阪府,大阪市西成区,玉出東２丁目２番１６号,,27,122,5570043,,,,,,,2024-02-02,1,,,,,ショウカン,0
1539,6120001261895,新規,0,2024-02-02,2024-02-02,日本鴻蒙株式会社,,株式会社,大阪府,大阪市住吉区,庭井２丁目８番６号１階,,27,120,5580012,,,,,,,2024-02-02,1,,,,,ジャパンハーモニー,0
1540,6120001261945,新規,0,2024-02-02,2024-02-02,株式会社ノンク,,株式会社,大阪府,大阪市平野区,西脇２丁目６番１２－６０８号,,27,126,5470035,,,,,,,2024-02-02,1,,,,,ノンク,0
1541,6120001262010,新規,0,2024-02-02,2024-02-02,株式会社ナノテクナカタニ,,株式会社,大阪府,大阪市中央区,瓦町４丁目３番６号,,27,128,5410048,,,,,,,2024-02-02,1,,,,,ナノテクナカタニ,0
1542,6120001262076,新規,0,2024-02-02,2024-02-02,株式会社ウッズライフ,,株式会社,大阪府,大阪市中央区,北新町４番１号,,27,128,5400023,,,,,,,2024-02-02,1,,,,,ウッズライフ,0
1543,6120003025737,新規,0,2024-02-02,2024-02-02,安然合同会社,,合同会社,大阪府,大阪市生野区,巽北１丁目２１番２９号７１９号,00133603,27,116,5440004,,,,,,,2024-02-02,1,,,,,アンゼン,0
1544,6120003025852,新規,0,2024-02-02,2024-02-02,ＤＡＩＫＯメンテナンス合同会社,,合同会社,大阪府,大阪市港区,海岸通２丁目３番１号,,27,107,5520022,,,,,,,2024-02-02,1,,,,,ダイコーメンテナンス,0
1550,6120901048715,新規,0,2024-02-02,2024-02-02,株式会社Ｆｅｌｌｏｗｓ　Ｊａｐａｎ,,株式会社,大阪府,高槻市,芥川町２丁目１４番２０号ハウスネットビル３Ｆ,,27,207,5691123,,,,,,,2024-02-02,1,,,,,フェローズジャパン,0
1551,6120903005037,新規,0,2024-02-02,2024-02-02,合同会社ＡＲＲＯＷ,,合同会社,大阪府,茨木市,園田町１８番３０号,,27,211,5670825,,,,,,,2024-02-02,1,,,,,アロー,0
1553,6122001037796,新規,0,2024-02-02,2024-02-02,株式会社Ｌコネクション,,株式会社,大阪府,東大阪市,岸田堂西２丁目８番２５号,,27,227,5770848,,,,,,,2024-02-02,1,,,,,エルコネクション,0
1554,6130001076285,新規,0,2024-02-02,2024-02-02,株式会社ＫＵＮ,,株式会社,京都府,京都市東山区,祇園町北側６２７番地先私有地４７番,,26,105,6050073,,,,,,,2024-02-02,1,,,,,クン,0
1557,6130005016997,新規,0,2024-02-02,2024-02-02,一般社団法人サンライズ,,その他の設立登記法人,京都府,南丹市,日吉町上胡麻口仏原２７,,26,213,6290312,,,,,,,2024-02-02,1,,,,,サンライズ,0
1566,6140003020109,新規,0,2024-02-02,2024-02-02,ＳＯＲＴＥ　ＧＬＡＳＳ合同会社,,合同会社,兵庫県,丹波篠山市,福住字長尾１９８－３,,28,221,6692513,,,,,,,2024-02-02,1,,,,,ソルテグラス,0
1567,6140003020117,新規,0,2024-02-02,2024-02-02,合同会社アリエル,,合同会社,兵庫県,丹波市,柏原町挙田７１２番地８ビレッジハウス柏原１－２０１号,,28,223,6693314,,,,,,,2024-02-02,1,,,,,アリエル,0
1568,6150001027055,新規,0,2024-02-02,2024-02-02,テクノサーフェス株式会社,,株式会社,奈良県,天理市,石上町１２２５番地２,,29,204,6320011,,,,,,,2024-02-02,1,,,,,テクノサーフェス,0
1569,6160001025669,新規,0,2024-02-02,2024-02-02,株式会社Ｓｅｅｄ　Ｐｒｏｄｕｃｔｉｏｎ,,株式会社,滋賀県,蒲生郡竜王町,大字薬師１１７８番地８１０,,25,384,5202551,,,,,,,2024-02-02,1,,,,,シードプロダクション,0
1570,6160003003111,新規,0,2024-02-02,2024-02-02,オレンジネットワークス合同会社,,合同会社,滋賀県,彦根市,正法寺町５０７番地３５,,25,202,5220024,,,,,,,2024-02-02,1,,,,,オレンジネットワークス,0
1581,6180001160002,新規,0,2024-02-02,2024-02-02,株式会社ＣＬＡＳＫＡ,,株式会社,愛知県,名古屋市中区,錦３丁目７番５号,,23,106,4600003,,,,,,,2024-02-02,1,,,,,クラスカ,0
1591,6180003026300,新規,0,2024-02-02,2024-02-02,合同会社いやさかコーポレーション,,合同会社,愛知県,名古屋市名東区,名東本町７３番地の１ユニロイヤル星ヶ丘３０７号,,23,115,4650088,,,,,,,2024-02-02,1,,,,,イヤサカコーポレーション,0
1596,6200001042123,新規,0,2024-02-02,2024-02-02,株式会社石寅,,株式会社,岐阜県,大垣市,丸の内２丁目２０番地,,21,202,5030888,,,,,,,2024-02-02,1,,,,,イシトラ,0
1597,6200005013566,新規,0,2024-02-02,2024-02-02,一般社団法人福の家,,その他の設立登記法人,岐阜県,岐阜市,梅河町２丁目２１番地１,,21,201,5008815,,,,,,,2024-02-02,1,,,,,フクノイエ,0
1605,6260001038727,新規,0,2024-02-02,2024-02-02,株式会社ファースト,,株式会社,岡山県,岡山市東区,古都南方２７５７番地３,,33,103,7038215,,,,,,,2024-02-02,1,,,,,ファースト,0
1616,6290001104559,新規,0,2024-02-02,2024-02-02,株式会社長浜エステート,,株式会社,福岡県,福岡市中央区,赤坂３丁目１３番１５号,,40,133,8100042,,,,,,,2024-02-02,1,,,,,ナガハマエステート,0
1617,6290001104567,新規,0,2024-02-02,2024-02-02,株式会社Ｍ,,株式会社,福岡県,福岡市南区,大平寺２丁目３４番６号,,40,134,8111354,,,,,,,2024-02-02,1,,,,,エム,0
1618,6290001104591,新規,0,2024-02-02,2024-02-02,株式会社Ｇｏｏｄ　ｐｒｏｄｕｃｅ,,株式会社,福岡県,福岡市博多区,吉塚本町２－２８－１０１号,,40,132,8120046,,,,,,,2024-02-02,1,,,,,グッドプロデュース,0
1619,6290001104609,新規,0,2024-02-02,2024-02-02,株式会社Ｍ４,,株式会社,福岡県,福岡市博多区,祇園町八丁目１２番１０１６号,,40,132,8120038,,,,,,,2024-02-02,1,,,,,エムフォー,0
1627,6310001018839,新規,0,2024-02-02,2024-02-02,Ｃｏｍｍｕｎｉｔａｓ株式会社,,株式会社,長崎県,長崎市,片淵１丁目１０番２０号,,42,201,8500003,,,,,,,2024-02-02,1,,,,,コムニタス,0
1639,6360003013668,新規,0,2024-02-02,2024-02-02,合同会社ｈａｒｕ,,合同会社,沖縄県,宮古島市,平良字西里４４８番地,,47,214,9060012,,,,,,,2024-02-02,1,,,,,ハル,0
1642,6380001034276,新規,0,2024-02-02,2024-02-02,株式会社アグリスタやぶき,,株式会社,福島県,西白河郡矢吹町,井戸尻１５０番地,,07,466,9690287,,,,,,,2024-02-02,1,,,,,アグリスタヤブキ,0
1644,6390001017511,新規,0,2024-02-02,2024-02-02,株式会社蔵王花園,,株式会社,山形県,寒河江市,大字高屋３６５番地,,06,206,9910042,,,,,,,2024-02-02,1,,,,,ザオウカエン,0
1646,6410005006565,新規,0,2024-02-02,2024-02-02,一般社団法人秋田志育経営実践会,,その他の設立登記法人,秋田県,横手市,増田町増田字上町１２７番地３,,05,203,0190701,,,,,,,2024-02-02,1,,,,,アキタシイクケイエイジッセンカイ,0
1652,6430001090990,新規,0,2024-02-02,2024-02-02,田中ホールディングス株式会社,,株式会社,北海道,札幌市北区,北八条西１丁目３番地,,01,102,0600808,,,,,,,2024-02-02,1,,,,,タナカホールディングス,0
1653,6430003015888,新規,0,2024-02-02,2024-02-02,合同会社守破離,,合同会社,北海道,札幌市中央区,宮の森三条１２丁目７番地３４号,,01,101,0640953,,,,,,,2024-02-02,1,,,,,シュハリ,0
1660,6480003002080,新規,0,2024-02-02,2024-02-02,合同会社チョウドリーインターナショナル,,合同会社,徳島県,徳島市,東吉野町２丁目２５番地ハイツフジタ３０８号室,,36,201,7700811,,,,,,,2024-02-02,1,,,,,チョウドリーインターナショナル,0
1661,6500001025444,新規,0,2024-02-02,2024-02-02,株式会社えがみ産業,,株式会社,愛媛県,伊予郡砥部町,宮内４３７番地１,,38,402,7912120,,,,,,,2024-02-02,1,,,,,エガミサンギョウ,0
1665,6700150123086,新規,0,2024-02-02,2024-02-02,ＡＨＥＡＤ，Ｉｎｃ．,,外国会社等,,,,,,,,４０１　Ｎ　Ｍｉｃｈｉｇａｎ　Ａｖｅ，Ｃｈｉｃａｇｏ，ＩＬ　６０６１１，ＵＳ,,,,,,2024-02-02,1,,,,,アヘツドインコーポレーテツド,0
1666,6700150123763,新規,0,2024-02-02,2024-02-02,Ａｔｉｔｅｃｈ　Ｓ．ｐ．Ａ．,,外国会社等,大阪府,泉南郡田尻町,泉州空港中１番地南ウイング１階０９５０室,,27,362,5490011,イタリア共和国ナポリ、カポディキーノ空港、フルコ・ルッフォ・ディ・カラーブリア通り、パラッツォ・アティテック,,,,,,2024-02-02,1,,,,,アテイテツクエスピーエー,0
1670,7010001241957,新規,0,2024-02-02,2024-02-02,ＴＯＬＵＣ株式会社,,株式会社,東京都,千代田区,四番町８番地３,,13,101,1020081,,,,,,,2024-02-02,1,,,,,トゥーラック,0
1671,7010001241965,新規,0,2024-02-02,2024-02-02,株式会社晴工雨読,,株式会社,東京都,千代田区,神田小川町３丁目２８番地５,,13,101,1010052,,,,,,,2024-02-02,1,,,,,セイコウウドク,0
1678,7010101015988,新規,0,2024-02-02,2024-02-02,株式会社ＭＨＳ,,株式会社,東京都,八王子市,諏訪町１１７－１１,,13,201,1930812,,,,,,,2024-02-02,1,,,,,エムエイチエス,0
1689,7010401180078,新規,0,2024-02-02,2024-02-02,株式会社ＲＥＬＩＡＢＬＥ,,株式会社,東京都,港区,南青山２丁目２番１５号,,13,103,1070062,,,,,,,2024-02-02,1,,,,,リライアブル,0
1690,7010401180111,新規,0,2024-02-02,2024-02-02,株式会社ＭＹＧＢ．Ｊａｐａｎ,,株式会社,東京都,港区,南青山２丁目１０番１１号パールハイム南青山２０１,,13,103,1070062,,,,,,,2024-02-02,1,,,,,エムワイジービージャパン,0
1691,7010401180128,新規,0,2024-02-02,2024-02-02,スマートプラス株式会社,,株式会社,東京都,港区,赤坂４丁目８番１９号赤坂フロントタウン３階,,13,103,1070052,,,,,,,2024-02-02,1,,,,,スマートプラス,0
1692,7010401180136,新規,0,2024-02-02,2024-02-02,株式会社ＳＵＯＮＯ,,株式会社,東京都,港区,西麻布２丁目２０番１５号ディアレンス西麻布２０３号室,,13,103,1060031,,,,,,,2024-02-02,1,,,,,スオーノ,0
1694,7010403031824,新規,0,2024-02-02,2024-02-02,合同会社元麻布１１,,合同会社,東京都,港区,元麻布１丁目１番１８号,,13,103,1060046,,,,,,,2024-02-02,1,,,,,モトアザブイチイチ,0
1703,7010601064576,新規,0,2024-02-02,2024-02-02,株式会社ｇｌｅａｒ　ｃｏｍｐａｎｙ,,株式会社,東京都,江東区,東砂２丁目１番７号,,13,108,1360074,,,,,,,2024-02-02,1,,,,,グレアーカンパニー,0
1708,7010801034750,新規,0,2024-02-02,2024-02-02,株式会社誠和,,株式会社,東京都,大田区,羽田３丁目１番７号日興パレスＰＡＲＴ２－４０８号,,13,111,1440043,,,,,,,2024-02-02,1,,,,,セイワ,0
1710,7010903008784,新規,0,2024-02-02,2024-02-02,ＬＯＯＳＥ　ＣＨＡＮＧＥ合同会社,,合同会社,東京都,世田谷区,経堂４丁目１０番１５号千歳船橋ハイム４０１号,,13,112,1560052,,,,,,,2024-02-02,1,,,,,ルースチェンジ,0
1714,7011001159768,新規,0,2024-02-02,2024-02-02,ｆｉｎｎｏ株式会社,,株式会社,東京都,渋谷区,宇田川町３６番６号ワ－ルド宇田川ビル６階,,13,113,1500042,,,,,,,2024-02-02,1,,,,,フィーノ,0
1719,7011101106018,新規,0,2024-02-02,2024-02-02,株式会社Ｓｉｗａｓｕ,,株式会社,東京都,新宿区,西新宿３丁目３番１３号西新宿水間ビル２Ｆ,,13,104,1600023,,,,,,,2024-02-02,1,,,,,シワス,0
1720,7011101106042,新規,0,2024-02-02,2024-02-02,株式会社リズム,,株式会社,東京都,新宿区,西新宿７丁目５番９号,,13,104,1600023,,,,,,,2024-02-02,1,,,,,リズム,0
1721,7011101106050,新規,0,2024-02-02,2024-02-02,株式会社アーマン・ホールディングス,,株式会社,東京都,新宿区,西新宿６丁目２４番１号,,13,104,1600023,,,,,,,2024-02-02,1,,,,,アーマンホールディングス,0
1722,7011101106059,新規,0,2024-02-02,2024-02-02,株式会社ＺＥＹＬＥＮ,,株式会社,東京都,新宿区,西新宿６丁目１２番７号ストーク新宿１階,,13,104,1600023,,,,,,,2024-02-02,1,,,,,ゼイレン,0
1728,7011401025834,新規,0,2024-02-02,2024-02-02,株式会社揮山,,株式会社,東京都,板橋区,東坂下１丁目７番８号,,13,119,1740042,,,,,,,2024-02-02,1,,,,,キザン,0
1731,7011701027002,新規,0,2024-02-02,2024-02-02,銀凱株式会社,,株式会社,東京都,江戸川区,西葛西５丁目７番６－４０５号,,13,123,1340088,,,,,,,2024-02-02,1,,,,,ギンガイ,0
1732,7011801043725,新規,0,2024-02-02,2024-02-02,株式会社石井電気工事,,株式会社,東京都,葛飾区,東新小岩７丁目２６番１７号２０２,,13,122,1240023,,,,,,,2024-02-02,1,,,,,イシイデンキコウジ,0
1733,7011803006069,新規,0,2024-02-02,2024-02-02,サンライズ合同会社,,合同会社,東京都,葛飾区,金町５丁目２３番８号８０１号室,,13,122,1250042,,,,,,,2024-02-02,1,,,,,サンライズ,0
1735,7012301013763,新規,0,2024-02-02,2024-02-02,ＳＲＲ自動車部品株式会社,,株式会社,東京都,町田市,根岸町１００８番地２０リリーハイツ２－Ａ,,13,209,1940034,,,,,,,2024-02-02,1,,,,,エスアールアールジドウシャブヒン,0
1736,7012705002387,新規,0,2024-02-02,2024-02-02,特定非営利活動法人にゃーご,,その他の設立登記法人,東京都,小平市,小川町１丁目３５０番地の１８,,13,211,1870032,,,,,,,2024-02-02,1,,,,,ニャーゴ,0
1739,7013301052017,新規,0,2024-02-02,2024-02-02,ＡＩＳＨＡ株式会社,,株式会社,東京都,豊島区,駒込１丁目３５－３駒込タウンブリーズＢ１０２,,13,116,1700003,,,,,,,2024-02-02,1,,,,,アイシャ,0
1753,7021003014111,新規,0,2024-02-02,2024-02-02,合同会社賀陽電設,,合同会社,神奈川県,平塚市,大神１９４９－１プラザ湘南,,14,203,2540012,,,,,,,2024-02-02,1,,,,,カヤデンセツ,0
1773,7040003024259,新規,0,2024-02-02,2024-02-02,合同会社ビーファクトリー,,合同会社,千葉県,千葉市若葉区,若松町２１５２－６,,12,104,2640021,,,,,,,2024-02-02,1,,,,,ビーファクトリー,0
1780,7070001041344,新規,0,2024-02-02,2024-02-02,株式会社大嵩,,株式会社,群馬県,伊勢崎市,太田町１１４７番地１,,10,204,3720006,,,,,,,2024-02-02,1,,,,,ダイタカ,0
1783,7080101024512,新規,0,2024-02-02,2024-02-02,株式会社Ｃｌｏｖｅｒ．Ｗｏｒｋｓ,,株式会社,静岡県,三島市,北沢２５３番地の２２,,22,206,4110805,,,,,,,2024-02-02,1,,,,,クローバーワークス,0
1785,7080403004947,新規,0,2024-02-02,2024-02-02,合同会社まるふく事務所,,合同会社,静岡県,浜松市浜名区,小松７８７番地の１,,22,139,4340042,,,,,,,2024-02-02,1,,,,,マルフクジムショ,0
1788,7090001018522,新規,0,2024-02-02,2024-02-02,ＷＯＲＬＤ　ＯＲＤＥＲ株式会社,,株式会社,山梨県,都留市,夏狩５７９番地４,,19,204,4020035,,,,,,,2024-02-02,1,,,,,ワールドオーダー,0
1790,7110001038138,新規,0,2024-02-02,2024-02-02,Ｉｋｉｇａｉ　Ｍｙｏｋｏ株式会社,,株式会社,新潟県,妙高市,大字赤倉１０８番地４７,,15,217,9492111,,,,,,,2024-02-02,1,,,,,イキガイミョウコウ,0
1794,7120001261886,新規,0,2024-02-02,2024-02-02,ｅｇｇｙｍｉｎｄ株式会社,,株式会社,大阪府,守口市,日吉町１丁目４番１号,,27,209,5700081,,,,,,,2024-02-02,1,,,,,エッギーマインド,0
1795,7120001261894,新規,0,2024-02-02,2024-02-02,凌雲株式会社,,株式会社,大阪府,大阪市浪速区,元町１丁目１１－１６－１００９,,27,111,5560016,,,,,,,2024-02-02,1,,,,,リョウウン,0
1796,7120001261944,新規,0,2024-02-02,2024-02-02,株式会社ｄａｎｒｕｎ,,株式会社,大阪府,寝屋川市,秦町１０－２,,27,215,5720848,,,,,,,2024-02-02,1,,,,,ダンラン,0
1798,7120003025810,新規,0,2024-02-02,2024-02-02,合同会社ＳＡＯ　ＶＡＮＧ,,合同会社,大阪府,大阪市東住吉区,湯里２丁目１３－２－３０１,,27,121,5460013,,,,,,,2024-02-02,1,,,,,サオヴァン,0
1819,7140005026937,新規,0,2024-02-02,2024-02-02,司法書士法人ソラシド,,その他の設立登記法人,兵庫県,三木市,加佐２４３番地の１,,28,215,6730402,,,,,,,2024-02-02,1,,,,,ソラシド,0
1831,7180001160034,新規,0,2024-02-02,2024-02-02,株式会社ＧＯＡＴ,,株式会社,愛知県,名古屋市千種区,香流橋２丁目２－１２ユーステージ香流壱番館５０４,,23,101,4640002,,,,,,,2024-02-02,1,,,,,ゴート,0
1844,7190001031077,新規,0,2024-02-02,2024-02-02,株式会社ＧＬパートナーズ,,株式会社,三重県,松阪市,嬉野黒田町２０番地６１,,24,204,5152311,,,,,,,2024-02-02,1,,,,,ジーエルパートナーズ,0
1851,7200003006224,新規,0,2024-02-02,2024-02-02,合同会社ＯＫＡＧＥＳＵＮファーム,,合同会社,岐阜県,養老郡養老町,大巻５４７３番地,,21,341,5031275,,,,,,,2024-02-02,1,,,,,オカゲサンファーム,0
1852,7210001019623,新規,0,2024-02-02,2024-02-02,株式会社ワイアップ,,株式会社,福井県,福井市,北四ツ居２丁目１３番３号,,18,201,9188205,,,,,,,2024-02-02,1,,,,,ワイアップ,0
1857,7240001062744,新規,0,2024-02-02,2024-02-02,株式会社セキシン旅行企画,,株式会社,広島県,安芸郡海田町,栄町２番１０号,,34,304,7360043,,,,,,,2024-02-02,1,,,,,セキシンリョコウコウキカク,0
1858,7240003006518,新規,0,2024-02-02,2024-02-02,合同会社ＮＩＨ,,合同会社,広島県,広島市南区,段原南２丁目６番１２－１５０１号,,34,103,7320814,,,,,,,2024-02-02,1,,,,,エヌアイエイチ,0
1862,7260001038726,新規,0,2024-02-02,2024-02-02,株式会社倉敷電気設備,,株式会社,岡山県,倉敷市,西坂１３４２－１２７,,33,202,7100004,,,,,,,2024-02-02,1,,,,,クラシキデンキセツビ,0
1875,7290001104459,新規,0,2024-02-02,2024-02-02,株式会社Ｄ’ａｍｂｒｏｓｉｏ　Ｋｉｔｃｈｅｎ　Ｇｒｏｕｐ　Ｊａｐａｎ,,株式会社,福岡県,福岡市中央区,天神１丁目９番１７号,,40,133,8100001,,,,,,,2024-02-02,1,,,,,ダンブロシオキッチングループジャパン,0
1876,7290001104566,新規,0,2024-02-02,2024-02-02,株式会社ｉｆｒｅｅｅｓ,,株式会社,福岡県,福岡市中央区,天神４丁目６－２８天神ファーストビル７階,,40,133,8100001,,,,,,,2024-02-02,1,,,,,アイフリース,0
1877,7290001104608,新規,0,2024-02-02,2024-02-02,オンナチュラル株式会社,,株式会社,福岡県,久留米市,江戸屋敷２丁目４番３３－１号,,40,203,8300059,,,,,,,2024-02-02,1,,,,,オンナチュラル,0
1878,7290003014929,新規,0,2024-02-02,2024-02-02,Ｌ＆Ｌ合同会社,,合同会社,福岡県,福岡市東区,香椎４丁目１－３５マイルーム参道Ａ棟１０５,,40,131,8130011,,,,,,,2024-02-02,1,,,,,エルアンドエル,0
1879,7290003014937,新規,0,2024-02-02,2024-02-02,ＹＯＫＡＲＯＢＯ合同会社,,合同会社,福岡県,福岡市博多区,大博町５番２９－１号博多スズキビル４Ｆ,,40,132,8120033,,,,,,,2024-02-02,1,,,,,ヨカロボ,0
1881,7300001013609,新規,0,2024-02-02,2024-02-02,株式会社ＧＬＯＷ,,株式会社,佐賀県,三養基郡みやき町,大字江口３２４６番地リベスト０８,,41,346,8490112,,,,,,,2024-02-02,1,,,,,グロウ,0
1882,7310001018838,新規,0,2024-02-02,2024-02-02,株式会社ＡＰＹＧ,,株式会社,長崎県,南島原市,深江町丙６６７番地,,42,214,8591503,,,,,,,2024-02-02,1,,,,,エーピーワイジー,0
1887,7330001031723,新規,0,2024-02-02,2024-02-02,株式会社オカ建創,,株式会社,熊本県,熊本市南区,砂原町５６０番地１,,43,104,8615255,,,,,,,2024-02-02,1,,,,,オカケンソウ,0
1891,7330003010196,新規,0,2024-02-02,2024-02-02,合同会社Ａｌｃａｎａｓｏｆｔ,,合同会社,熊本県,上益城郡益城町,大字宮園７５１番地６,,43,443,8612241,,,,,,,2024-02-02,1,,,,,アルカナソフト,0
1900,7360001033147,新規,0,2024-02-02,2024-02-02,北造不動産株式会社,,株式会社,沖縄県,国頭郡宜野座村,字惣慶１５１４番地,,47,313,9041303,,,,,,,2024-02-02,1,,,,,ホクゾウフドウサン,0
1902,7370001050901,新規,0,2024-02-02,2024-02-02,株式会社フリーライフ,,株式会社,宮城県,仙台市太白区,長町１丁目９－３８－１,,04,104,9820011,,,,,,,2024-02-02,1,,,,,フリーライフ,0
1904,7380001034275,新規,0,2024-02-02,2024-02-02,株式会社ＳＫ　Ｓｈｉｎｒｙｏ　Ｇｌｏｂａｌ　Ｗｏｒｋ,,株式会社,福島県,いわき市,平字東町５番地の７,,07,204,9708026,,,,,,,2024-02-02,1,,,,,エスケーシンリョウグローバルワーク,0
1909,7430003015887,新規,0,2024-02-02,2024-02-02,合同会社Ｍｕｓｔ,,合同会社,北海道,札幌市南区,中ノ沢５丁目１－３,,01,106,0050831,,,,,,,2024-02-02,1,,,,,マスト,0
1910,7430003015920,新規,0,2024-02-02,2024-02-02,合同会社ビースト,,合同会社,北海道,札幌市中央区,南九条西１０丁目１番３６号クチュール９１０－１０３号,,01,101,0640809,,,,,,,2024-02-02,1,,,,,ビースト,0
1913,7450003002438,新規,0,2024-02-02,2024-02-02,合同会社たけっちょラボ,,合同会社,北海道,上川郡上川町,南町１０３３番地２,,01,457,0781753,,,,,,,2024-02-02,1,,,,,,0
1915,7470001020019,新規,0,2024-02-02,2024-02-02,彩花園芸株式会社,,株式会社,香川県,高松市,岡本町５２番地３,,37,201,7618047,,,,,,,2024-02-02,1,,,,,サイカエンゲイ,0
1922,7500003003182,新規,0,2024-02-02,2024-02-02,合同会社ＧＨＲ,,合同会社,愛媛県,松山市,別府町１番地１,,38,201,7918056,,,,,,,2024-02-02,1,,,,,ジーエイチアール,0
1925,8010001241956,新規,0,2024-02-02,2024-02-02,株式会社Ｓｅｃｏｎｄ,,株式会社,東京都,中央区,銀座７丁目７番６号アスタープラザビルディング地下１階,,13,102,1040061,,,,,,,2024-02-02,1,,,,,セカンド,0
1931,8010005037839,新規,0,2024-02-02,2024-02-02,未来創電蒲生日野一般社団法人,,その他の設立登記法人,東京都,千代田区,丸の内３丁目１番１号東京共同会計事務所内,,13,101,1000005,,,,,,,2024-02-02,1,,,,,ミライソウデンガモウヒノ,0
1932,8010105002247,新規,0,2024-02-02,2024-02-02,特定非営利活動法人女性の就業支援エンジェルの会,,その他の設立登記法人,東京都,八王子市,大和田町５丁目９番１６号,,13,201,1920045,,,,,,,2024-02-02,1,,,,,ジョセイノシュウギョウシエンエンジェルノカイ,0
1940,8010401180085,新規,0,2024-02-02,2024-02-02,楽創ビジネス株式会社,,株式会社,東京都,港区,新橋６丁目１３－１２ＶＯＲＴ新橋ＩＩ３Ｆ,00133602,13,103,1050004,,,,,,,2024-02-02,1,,,,,ラクソウビジネス,0
1941,8010401180093,新規,0,2024-02-02,2024-02-02,株式会社キッズアスリード,,株式会社,東京都,港区,南青山２丁目１５番５号ＦＡＲＯ青山１階,,13,103,1070062,,,,,,,2024-02-02,1,,,,,キッズアスリード,0
1942,8010401180102,新規,0,2024-02-02,2024-02-02,ＳＨＩＮ株式会社,,株式会社,東京都,港区,芝２丁目１番３３号,,13,103,1050014,,,,,,,2024-02-02,1,,,,,エスエイチアイエヌ,0
1943,8010401180192,新規,0,2024-02-02,2024-02-02,ジーアイエナジーストレージマネジメント株式会社,,株式会社,東京都,港区,北青山２丁目５番１号,,13,103,1070061,,,,,,,2024-02-02,1,,,,,ジーアイエナジーストレージマネジメント,0
1944,8010403031848,新規,0,2024-02-02,2024-02-02,合同会社豊洲食堂,,合同会社,東京都,港区,六本木６丁目１５番１号六本木ヒルズけやき坂テラス３階,,13,103,1060032,,,,,,,2024-02-02,1,,,,,トヨスショクドウ,0
1945,8010403031856,新規,0,2024-02-02,2024-02-02,合同会社みらい,,合同会社,東京都,港区,赤坂６丁目１９番３３号,,13,103,1070052,,,,,,,2024-02-02,1,,,,,ミライ,0
1946,8010403031872,新規,0,2024-02-02,2024-02-02,合同会社輝き,,合同会社,東京都,港区,白金１丁目１４番１－６０４号,,13,103,1080072,,,,,,,2024-02-02,1,,,,,カガヤキ,0
1953,8010603010619,新規,0,2024-02-02,2024-02-02,エムエスカンパニー合同会社,,合同会社,東京都,江東区,有明２丁目１番１－２２１３号,,13,108,1350063,,,,,,,2024-02-02,1,,,,,エムエスカンパニー,0
1956,8010701045500,新規,0,2024-02-02,2024-02-02,株式会社グレイトフルエージェント,,株式会社,東京都,品川区,東品川５丁目９番１５号,,13,109,1400002,,,,,,,2024-02-02,1,,,,,グレイトフルエージェント,0
1959,8010901054648,新規,0,2024-02-02,2024-02-02,株式会社ひととせ,,株式会社,東京都,世田谷区,上用賀５丁目２７番１７号,,13,112,1580098,,,,,,,2024-02-02,1,,,,,ヒトトセ,0
1967,8011001159783,新規,0,2024-02-02,2024-02-02,株式会社エフクラ,,株式会社,東京都,渋谷区,代々木１丁目３０番１４号,,13,113,1510053,,,,,,,2024-02-02,1,,,,,エフクラ,0
1968,8011005010356,新規,0,2024-02-02,2024-02-02,渋谷パートナーズ税理士法人,,その他の設立登記法人,東京都,渋谷区,渋谷３丁目１１番７号,,13,113,1500002,,,,,,,2024-02-02,1,,,,,シブヤパートナーズ,0
1973,8011101106033,新規,0,2024-02-02,2024-02-02,Ｋ株式会社,,株式会社,東京都,新宿区,歌舞伎町１丁目２６番６号灯ビル８階,,13,104,1600021,,,,,,,2024-02-02,1,,,,,ケー,0
1977,8011105010933,新規,0,2024-02-02,2024-02-02,一般社団法人日本ＡＤＨＤ学会,,その他の設立登記法人,東京都,新宿区,新宿１丁目２７番２号,,13,104,1600022,,,,,,,2024-02-02,1,,,,,ニホンエーディーエイチディーガッカイ,0
1980,8011401025833,新規,0,2024-02-02,2024-02-02,ノリ・クリエイティブ＆ソリューションズ株式会社,,株式会社,東京都,板橋区,常盤台２丁目１０番９号,,13,119,1740071,,,,,,,2024-02-02,1,,,,,ノリクリエイティブアンドソリューションズ,0
1981,8011403004257,新規,0,2024-02-02,2024-02-02,合同会社ソレイユ,,合同会社,東京都,板橋区,赤塚４丁目１２番１６号,,13,119,1750092,,,,,,,2024-02-02,1,,,,,ソレイユ,0
1984,8011501030279,新規,0,2024-02-02,2024-02-02,訪問看護まなびサポート株式会社,,株式会社,東京都,北区,中十条２丁目１番８号,,13,117,1140032,,,,,,,2024-02-02,1,,,,,ホウモンカンゴマナビサポート,0
1992,8011803006068,新規,0,2024-02-02,2024-02-02,マルマン橋本商店合同会社,,合同会社,東京都,葛飾区,東新小岩３丁目９番２号,,13,122,1240023,,,,,,,2024-02-02,1,,,,,マルマンハシモトショウテン,0
1993,8012301013746,新規,0,2024-02-02,2024-02-02,株式会社ＹＵＳＫ,,株式会社,東京都,町田市,金森６丁目６－１６,,13,209,1940012,,,,,,,2024-02-02,1,,,,,ワイユウエスケイ,0
1994,8012301013762,新規,0,2024-02-02,2024-02-02,株式会社久保,,株式会社,東京都,町田市,根岸２丁目３０番地７レジデンス２１－１０１,,13,209,1940038,,,,,,,2024-02-02,1,,,,,クボ,0
2010,8020003025480,新規,0,2024-02-02,2024-02-02,合同会社材木座ハウス,,合同会社,神奈川県,横浜市港南区,大久保２丁目７番１７号,,14,111,2330007,,,,,,,2024-02-02,1,,,,,ザイモクザハウス,0
2023,8021001081334,新規,0,2024-02-02,2024-02-02,愛苗株式会社,,株式会社,神奈川県,平塚市,大神２丁目７番１５号,,14,203,2540012,,,,,,,2024-02-02,1,,,,,アイナ,0
2024,8021001081359,新規,0,2024-02-02,2024-02-02,株式会社Ｄａｎｋ　Ｊａｐａｎ,,株式会社,神奈川県,横須賀市,須軽谷８６２番地,,14,201,2380314,,,,,,,2024-02-02,1,,,,,ダンクジャパン,0
2046,8040003024258,新規,0,2024-02-02,2024-02-02,ミラーマスター合同会社,,合同会社,千葉県,市原市,五井中央西２丁目７番地１５ウルマビル４１６,,12,219,2900081,,,,,,,2024-02-02,1,,,,,ミラーマスター,0
2050,8050001054140,新規,0,2024-02-02,2024-02-02,ＡＬ　ＩＫＨＬＡＳ株式会社,,株式会社,茨城県,古河市,東山田５８１番地８,,08,204,3060112,,,,,,,2024-02-02,1,,,,,アルイクラス,0
2052,8050003008111,新規,0,2024-02-02,2024-02-02,常澄合同会社,,合同会社,茨城県,水戸市,下大野町１３６０－３,,08,201,3111131,,,,,,,2024-02-02,1,,,,,ツネズミ,0
2057,8080001026104,新規,0,2024-02-02,2024-02-02,株式会社ＩＮ　ＶＡＬＬＥＹ,,株式会社,静岡県,藤枝市,岡部町内谷１１５番地の１,,22,214,4211131,,,,,,,2024-02-02,1,,,,,インバレー,0
2058,8080001026112,新規,0,2024-02-02,2024-02-02,株式会社ＴＵＮ,,株式会社,静岡県,静岡市葵区,産女１２８３番地の６バンショウビル２階北側,,22,101,4211222,,,,,,,2024-02-02,1,,,,,トゥン,0
2062,8080103002977,新規,0,2024-02-02,2024-02-02,合同会社訪問看護ステーションハッピー,,合同会社,静岡県,沼津市,岡一色３０番地の２プリンスマンション沼津２０２,,22,203,4100012,,,,,,,2024-02-02,1,,,,,ホウモンカンゴステーションハッピー,0
2065,8080401026983,新規,0,2024-02-02,2024-02-02,水嶋宅建株式会社,,株式会社,静岡県,浜松市中央区,中郡町１９９番地の１,,22,138,4313111,,,,,,,2024-02-02,1,,,,,ミズシマタッケン,0
2067,8080403004946,新規,0,2024-02-02,2024-02-02,イーグルアイ合同会社,,合同会社,静岡県,浜松市中央区,佐藤１丁目４３番１－７０３号セントラルガーデン西館,,22,138,4300807,,,,,,,2024-02-02,1,,,,,イーグルアイ,0
2071,8110001038153,新規,0,2024-02-02,2024-02-02,株式会社ＭＳＰ,,株式会社,新潟県,新潟市江南区,江口３３１１番地７,,15,104,9500101,,,,,,,2024-02-02,1,,,,,エムエスピー,0
2081,8120001261290,新規,0,2024-02-02,2024-02-02,Ｓｈｏｄａ　Ｉｎｔｅｒｎａｔｉｏｎａｌ　Ｂａｎｋ株式会社,,株式会社,大阪府,大阪市住之江区,南港北２丁目１－１０ＡＴＣビル,,27,125,5590034,,,,,,,2024-02-02,1,,,,,ショダインターナショナルバンク,0
2082,8120001261803,新規,0,2024-02-02,2024-02-02,華＿龍東瀛株式会社,00133596,株式会社,大阪府,大阪市都島区,中野町４丁目３番６号Ｈ２Ｈ大阪桜之宮邸４Ｅ－２,,27,102,5340027,,,,,,,2024-02-02,1,,,,,カレイリュウトウエイ,0
2083,8120001261893,新規,0,2024-02-02,2024-02-02,宇恒株式会社,,株式会社,大阪府,大阪市東住吉区,照ケ丘矢田２丁目７番２号淘金ビルＤ号室,,27,121,5460021,,,,,,,2024-02-02,1,,,,,ウコウ,0
2084,8120001261910,新規,0,2024-02-02,2024-02-02,株式会社ｎｅｗ　ｏｌｄ,,株式会社,大阪府,大阪市東成区,大今里南４丁目９番６－３０９号,,27,115,5370013,,,,,,,2024-02-02,1,,,,,ニューオールド,0
2085,8120001261927,新規,0,2024-02-02,2024-02-02,株式会社リフト,,株式会社,大阪府,大阪市中央区,日本橋１丁目５番２２号,,27,128,5420073,,,,,,,2024-02-02,1,,,,,リフト,0
2086,8120001261951,新規,0,2024-02-02,2024-02-02,遠倉株式会社,,株式会社,大阪府,大阪市中央区,南船場１丁目１６－１２エステムコート心斎橋アルテール２階,,27,128,5420081,,,,,,,2024-02-02,1,,,,,エンソウ,0
2087,8120001261992,新規,0,2024-02-02,2024-02-02,株式会社植義興業,,株式会社,大阪府,大阪市北区,豊崎１丁目１番１８号,,27,127,5310072,,,,,,,2024-02-02,1,,,,,ウエヨシコウギョウ,0
2090,8120103005661,新規,0,2024-02-02,2024-02-02,合同会社ＲＴＳ,,合同会社,大阪府,富田林市,藤沢台３丁目１０番２２号,,27,214,5840071,,,,,,,2024-02-02,1,,,,,アールティエス,0
2093,8120901048721,新規,0,2024-02-02,2024-02-02,株式会社ＲｅｇａｌＣｒｅｗ　Ｃｏｎｓｕｌｔｉｎｇ,,株式会社,大阪府,箕面市,新稲６丁目１１番３３号の１,,27,220,5620005,,,,,,,2024-02-02,1,,,,,リーガルクルーコンサルティング,0
2097,8122001037803,新規,0,2024-02-02,2024-02-02,株式会社誠和,,株式会社,大阪府,八尾市,山本町南１丁目７番２８－７０３号,,27,212,5810013,,,,,,,2024-02-02,1,,,,,セイワ,0
2100,8130001076242,新規,0,2024-02-02,2024-02-02,株式会社伏見高原水,,株式会社,京都府,京都市東山区,今熊野日吉町１２番２,,26,105,6050925,,,,,,,2024-02-02,1,,,,,フシミコウゲンスイ,0
2101,8130003009274,新規,0,2024-02-02,2024-02-02,愛楽客合同会社,,合同会社,京都府,京都市西京区,嵐山朝月町３８番地,,26,111,6160022,,,,,,,2024-02-02,1,,,,,アイラク,0
2107,8140001133166,新規,0,2024-02-02,2024-02-02,株式会社ＰＬＡＩＳＩＲ,,株式会社,兵庫県,西宮市,神祇官町７番１３－２０２号,00133595,28,204,6620843,,,,,,,2024-02-02,1,,,,,プレジール,0
2108,8140001133174,新規,0,2024-02-02,2024-02-02,株式会社天馬福祉会,,株式会社,兵庫県,相生市,那波西本町１９１０番,,28,208,6780054,,,,,,,2024-02-02,1,,,,,テンマフクシカイ,0
2110,8140003020115,新規,0,2024-02-02,2024-02-02,ＧＯＯＤ＆ＷＥＬＬ合同会社,,合同会社,兵庫県,神戸市垂水区,西舞子６丁目３番７０－１１０６号,,28,108,6550048,,,,,,,2024-02-02,1,,,,,グッドアンドウェル,0
2113,8150003003176,新規,0,2024-02-02,2024-02-02,合同会社トースティー,,合同会社,奈良県,大和高田市,曽大根２丁目１２番２３号,,29,202,6350055,,,,,,,2024-02-02,1,,,,,トースティー,0
2119,8170001017993,新規,0,2024-02-02,2024-02-02,株式会社梅華苑,,株式会社,和歌山県,田辺市,芳養町２９３３番地１,,30,206,6460056,,,,,,,2024-02-02,1,,,,,バイカエン,0
2126,8180001160009,新規,0,2024-02-02,2024-02-02,株式会社Ｗ・リッチ,,株式会社,愛知県,名古屋市北区,瑠璃光町５丁目１１藤ハイツ１階,,23,103,4620866,,,,,,,2024-02-02,1,,,,,ダブルリッチ,0
2127,8180001160025,新規,0,2024-02-02,2024-02-02,株式会社ＵｘＩｓｔ,,株式会社,愛知県,名古屋市中村区,名駅１丁目１番地１号ＪＰタワー名古屋２１階,,23,105,4500002,,,,,,,2024-02-02,1,,,,,ユージスト,0
2128,8180001160033,新規,0,2024-02-02,2024-02-02,株式会社レジデンスプラス,,株式会社,愛知県,小牧市,大字舟津６０７番地４,,23,219,4850073,,,,,,,2024-02-02,1,,,,,レジデンスプラス,0
2135,8180003026298,新規,0,2024-02-02,2024-02-02,合同会社ＰＩＸＹ　Ｗｉｚ,,合同会社,愛知県,名古屋市中村区,名駅４丁目２４番５号第２森ビル４０１,,23,105,4500002,,,,,,,2024-02-02,1,,,,,ピクシーウィズ,0
2136,8180003026307,新規,0,2024-02-02,2024-02-02,合同会社ＧＩＧＡトリリオン,,合同会社,愛知県,名古屋市中村区,名駅４丁目２４－５第２森ビル４０１,,23,105,4500002,,,,,,,2024-02-02,1,,,,,ギガトリリオン,0
2139,8190001031076,新規,0,2024-02-02,2024-02-02,株式会社勝幾,,株式会社,三重県,松阪市,大黒田町７０２番地レジデンスグローリー１０２号室,,24,204,5150063,,,,,,,2024-02-02,1,,,,,ショウキ,0
2140,8190001031084,新規,0,2024-02-02,2024-02-02,幸和イノベーション株式会社,,株式会社,三重県,鈴鹿市,池田町１３４０番地１３,,24,207,5130032,,,,,,,2024-02-02,1,,,,,コウワイノベーション,0
2143,8200001042121,新規,0,2024-02-02,2024-02-02,株式会社ジョイアス,,株式会社,岐阜県,岐阜市,城東通３丁目４８番地,,21,201,5008441,,,,,,,2024-02-02,1,,,,,ジョイアス,0
2151,8240001062743,新規,0,2024-02-02,2024-02-02,株式会社アドバンスアカデミー,,株式会社,広島県,広島市安佐南区,中筋３丁目２４－１５フィールドコート中筋３０１,,34,105,7310122,,,,,,,2024-02-02,1,,,,,アドバンスアカデミー,0
2154,8240003006517,新規,0,2024-02-02,2024-02-02,合同会社ｍｏｃａ,,合同会社,広島県,廿日市市,林が原１丁目１１番１４号,,34,213,7390444,,,,,,,2024-02-02,1,,,,,モカ,0
2158,8260001038733,新規,0,2024-02-02,2024-02-02,株式会社エア・デザイン,,株式会社,岡山県,岡山市南区,彦崎２９６１番地３,,33,104,7091213,,,,,,,2024-02-02,1,,,,,エアデザイン,0
2159,8270001008917,新規,0,2024-02-02,2024-02-02,株式会社ＴーＦｏｒｅｓｔｒｙ,,株式会社,鳥取県,鳥取市,桂木２３１番地,,31,201,6891104,,,,,,,2024-02-02,1,,,,,ティーフォレストリー,0
2165,8290001104581,新規,0,2024-02-02,2024-02-02,株式会社禄商,,株式会社,福岡県,大野城市,仲畑２丁目１０番２２号,,40,219,8160921,,,,,,,2024-02-02,1,,,,,ロクショ,0
2166,8290001104598,新規,0,2024-02-02,2024-02-02,株式会社ＭＡＶＥＲＩＣＫＳ,,株式会社,福岡県,福岡市中央区,高砂２丁目１５番１５－５０３号リブル高砂,,40,133,8100011,,,,,,,2024-02-02,1,,,,,マーヴェリックス,0
2167,8290001104607,新規,0,2024-02-02,2024-02-02,株式会社ＫＥＮＣＨＡＯ,,株式会社,福岡県,福岡市早良区,賀茂２丁目１７番１２号,,40,137,8140164,,,,,,,2024-02-02,1,,,,,ケンチャオ,0
2171,8290801030275,新規,0,2024-02-02,2024-02-02,株式会社デザインワークス,,株式会社,福岡県,北九州市小倉北区,片野１丁目１４番３４－３０３号,,40,106,8020064,,,,,,,2024-02-02,1,,,,,デザインワークス,0
2172,8290803004608,新規,0,2024-02-02,2024-02-02,西の宮石油合同会社,,合同会社,福岡県,直方市,大字上頓野２１２２番地,,40,204,8220003,,,,,,,2024-02-02,1,,,,,ニシノミヤセキユ,0
2178,8330001031714,新規,0,2024-02-02,2024-02-02,株式会社八紘金属,,株式会社,熊本県,熊本市東区,長嶺南５丁目２番５号,,43,102,8618039,,,,,,,2024-02-02,1,,,,,ハッコウキンゾク,0
2181,8350001018775,新規,0,2024-02-02,2024-02-02,株式会社アイビップ,,株式会社,宮崎県,宮崎市,大塚町八所３７６９番地７,,45,201,8800951,,,,,,,2024-02-02,1,,,,,アイビップ,0
2184,8360003013674,新規,0,2024-02-02,2024-02-02,合同会社セブンス,,合同会社,沖縄県,中頭郡読谷村,字渡慶次１２４９番地５,,47,324,9040326,,,,,,,2024-02-02,1,,,,,セブンス,0
2195,8400001016542,新規,0,2024-02-02,2024-02-02,株式会社Ｃａｓｓｉｏｐｅｉａ　ＤＭＣ,,株式会社,岩手県,盛岡市,本宮字大宮４８番地,,03,201,0200866,,,,,,,2024-02-02,1,,,,,カシオペアディーエムシー,0
2198,8420001018578,新規,0,2024-02-02,2024-02-02,株式会社Ｐｒｉｍｅ　Ｓｕｐｐｏｒｔ,,株式会社,青森県,八戸市,大字十三日町１ヴィアノヴァ３Ｆ,,02,203,0310042,,,,,,,2024-02-02,1,,,,,プライムサポート,0
2204,8430001090980,新規,0,2024-02-02,2024-02-02,株式会社ファンワーク,,株式会社,北海道,札幌市東区,北十三条東１６丁目１番２８－６０５号,,01,103,0650013,,,,,,,2024-02-02,1,,,,,ファンワーク,0
2205,8430001091013,新規,0,2024-02-02,2024-02-02,株式会社ＡＯ３,,株式会社,北海道,札幌市豊平区,美園十二条６丁目３番１７号國谷ハイム１０１室,,01,105,0620012,,,,,,,2024-02-02,1,,,,,エーオースリー,0
2213,8480001012377,新規,0,2024-02-02,2024-02-02,株式会社Ｆ‐ＬＩＮＥ,,株式会社,徳島県,徳島市,中島田町４丁目２番地２,,36,201,7700052,,,,,,,2024-02-02,1,,,,,エフライン,0
2216,8500001025442,新規,0,2024-02-02,2024-02-02,株式会社ＴＳＵＤＯＩ,,株式会社,愛媛県,四国中央市,中之庄町８７８番地５,,38,213,7990422,,,,,,,2024-02-02,1,,,,,ツドイ,0
2217,8500001025450,新規,0,2024-02-02,2024-02-02,株式会社シンクス,,株式会社,愛媛県,松山市,和泉南５丁目４番１９号リトモフェリーチェＩＩＩ１０１号,00133599,38,201,7900941,,,,,,,2024-02-02,1,,,,,シンクス,0
2223,9010001241897,新規,0,2024-02-02,2024-02-02,株式会社クロスビュー,,株式会社,東京都,文京区,本郷４丁目３７番１８号いろは本郷ビル３階,,13,105,1130033,,,,,,,2024-02-02,1,,,,,クロスビュー,0
2224,9010001241947,新規,0,2024-02-02,2024-02-02,ＣＣＨ７ｅ株式会社,,株式会社,東京都,千代田区,一番町２番地,,13,101,1020082,,,,,,,2024-02-02,1,,,,,シーシーエイチセブンイー,0
2225,9010001241971,新規,0,2024-02-02,2024-02-02,株式会社ＡＵＳＰＩＣＩＯＵＳ,,株式会社,東京都,中央区,日本橋堀留町１丁目１０番１号カクタビル２階,,13,102,1030012,,,,,,,2024-02-02,1,,,,,アスピシャス,0
2236,9010401180118,新規,0,2024-02-02,2024-02-02,株式会社リュクスジャポン,,株式会社,東京都,港区,南青山２丁目２番１５号,,13,103,1070062,,,,,,,2024-02-02,1,,,,,リュクスジャポン,0
2237,9010401180150,新規,0,2024-02-02,2024-02-02,株式会社Ｌｉｂｒａ　Ｃｏｒｐｏｒａｔｉｏｎ,,株式会社,東京都,港区,西麻布３丁目１９番１３－３０９号,,13,103,1060031,,,,,,,2024-02-02,1,,,,,リブラコーポレーション,0
2241,9010403031830,新規,0,2024-02-02,2024-02-02,ロングドア合同会社,,合同会社,東京都,港区,北青山１丁目２番１８－７０２号,,13,103,1070061,,,,,,,2024-02-02,1,,,,,ロングドア,0
2246,9010701045474,新規,0,2024-02-02,2024-02-02,株式会社ボイスストラクチャ,,株式会社,東京都,品川区,西五反田３丁目４番１０号目黒ＭＡＲＣレジデンスタワー５１０,,13,109,1410031,,,,,,,2024-02-02,1,,,,,ボイスストラクチャ,0
2247,9010701045499,新規,0,2024-02-02,2024-02-02,株式会社Ｕｒｂａｎ　Ｓｔｏｒａｇｅ,,株式会社,東京都,品川区,西五反田３丁目４番１０号目黒ＭＡＲＣレジデンスタワー１２１０,,13,109,1410031,,,,,,,2024-02-02,1,,,,,アーバンストレージ,0
2253,9010901054647,新規,0,2024-02-02,2024-02-02,株式会社大隅ホールディングス,,株式会社,東京都,世田谷区,等々力７丁目２０番１９号,,13,112,1580082,,,,,,,2024-02-02,1,,,,,オオスミホールディングス,0
2261,9011001159766,新規,0,2024-02-02,2024-02-02,株式会社ＡＸＩＯ,,株式会社,東京都,目黒区,目黒４丁目８番２号,,13,110,1530063,,,,,,,2024-02-02,1,,,,,アクシオ,0
2262,9011003018359,新規,0,2024-02-02,2024-02-02,合同会社Ａｉｍｅｒ,,合同会社,東京都,目黒区,碑文谷１丁目１２番５号,,13,110,1520003,,,,,,,2024-02-02,1,,,,,エメ,0
2263,9011003018417,新規,0,2024-02-02,2024-02-02,合同会社Ｑ星群,,合同会社,東京都,渋谷区,渋谷２丁目１９番１５号宮益坂ビルディング６０９,,13,113,1500002,,,,,,,2024-02-02,1,,,,,キューセイグン,0
2264,9011005010355,新規,0,2024-02-02,2024-02-02,一般社団法人鎌倉フェローシップ,,その他の設立登記法人,東京都,渋谷区,道玄坂１丁目１０番８号渋谷道玄坂東急ビル２Ｆ－Ｃ,,13,113,1500043,,,,,,,2024-02-02,1,,,,,カマクラフェローシップ,0
2268,9011101105991,新規,0,2024-02-02,2024-02-02,株式会社通販の虎,,株式会社,東京都,新宿区,北新宿１丁目１３番１９号弘林ビル４階,,13,104,1690074,,,,,,,2024-02-02,1,,,,,ツウハンノトラ,0
2269,9011101106032,新規,0,2024-02-02,2024-02-02,株式会社ＮＳＩＮＳ,,株式会社,東京都,新宿区,大久保１丁目１番４５－８０４号,,13,104,1690072,,,,,,,2024-02-02,1,,,,,エンシンス,0
2273,9011201025223,新規,0,2024-02-02,2024-02-02,ＪＣＫ設計株式会社,,株式会社,東京都,中野区,中野６丁目２－１９,,13,114,1640001,,,,,,,2024-02-02,1,,,,,ジェシーケイセッケイ,0
2294,9013301052007,新規,0,2024-02-02,2024-02-02,ＢＬＫＳ　Ｔｅｃｈｎｏｌｏｇｙ　Ｊａｐａｎ株式会社,,株式会社,東京都,豊島区,南池袋１丁目２７番１０号油木第一ビル９階,,13,116,1710022,,,,,,,2024-02-02,1,,,,,バルクステクノロジージャパン,0
2307,9020001155626,新規,0,2024-02-02,2024-02-02,エムズピー株式会社,,株式会社,神奈川県,横浜市西区,浅間町１丁目４番３号ウィザードビル４０２,,14,103,2200072,,,,,,,2024-02-02,1,,,,,エムズピー,0
2308,9020001155634,新規,0,2024-02-02,2024-02-02,直興業株式会社,,株式会社,神奈川県,横浜市港北区,下田町３丁目１６－４１－Ａ１０１,,14,109,2230064,,,,,,,2024-02-02,1,,,,,ナオコウギョウ,0
2310,9020003025488,新規,0,2024-02-02,2024-02-02,アイザック合同会社,,合同会社,神奈川県,横浜市港北区,新横浜２丁目１７番地７リシェ新横浜パークフロント８０１号,,14,109,2220033,,,,,,,2024-02-02,1,,,,,アイザック,0
2320,9030001158446,新規,0,2024-02-02,2024-02-02,株式会社すぎもとコンサル,,株式会社,埼玉県,加須市,下高柳２０１番地３,,11,210,3470033,,,,,,,2024-02-02,1,,,,,スギモトコンサル,0
2321,9030001158470,新規,0,2024-02-02,2024-02-02,株式会社庚電工,,株式会社,埼玉県,戸田市,中町２丁目１番１１号１０１,,11,224,3350012,,,,,,,2024-02-02,1,,,,,カノエデンコウ,0
2329,9040001132029,新規,0,2024-02-02,2024-02-02,株式会社ＷＯＲＬＤ　ＰＥＡＣＥ,,株式会社,千葉県,千葉市中央区,院内１丁目１９番１２号１階,,12,101,2600018,,,,,,,2024-02-02,1,,,,,ワールドピース,0
2334,9050001054206,新規,0,2024-02-02,2024-02-02,株式会社Ａｍｄｏ,,株式会社,茨城県,土浦市,若松町２０番３３号,,08,203,3000063,,,,,,,2024-02-02,1,,,,,アマド,0
2336,9050003008110,新規,0,2024-02-02,2024-02-02,合同会社ＭＡＤＵ　ＥＮＴＥＲＰＲＩＳＥＳ,,合同会社,茨城県,鉾田市,樅山１９１番地,,08,234,3111426,,,,,,,2024-02-02,1,,,,,マデュエンタープライズ,0
2339,9060001036789,新規,0,2024-02-02,2024-02-02,株式会社ＭＯＺ,,株式会社,栃木県,宇都宮市,弥生２丁目１５番４０号,,09,201,3200837,,,,,,,2024-02-02,1,,,,,モズ,0
2342,9070001041342,新規,0,2024-02-02,2024-02-02,株式会社めだかのがっこうＮｏｒｔｈ,,株式会社,群馬県,高崎市,中居町４丁目２－２１トミケンビル１０１,,10,202,3700852,,,,,,,2024-02-02,1,,,,,メダカノガッコウノース,0
2344,9080101024510,新規,0,2024-02-02,2024-02-02,ＭＯＯＮＬＩＧＨＴ株式会社,,株式会社,静岡県,熱海市,水口町１２番２９号２０９号,,22,205,4130016,,,,,,,2024-02-02,1,,,,,ムーンライト,0
2345,9080403004945,新規,0,2024-02-02,2024-02-02,ＴＲＥＳＴＹ合同会社,,合同会社,静岡県,浜松市中央区,山手町９番１０号,,22,138,4328022,,,,,,,2024-02-02,1,,,,,トレスティ,0
2362,9120001261884,新規,0,2024-02-02,2024-02-02,麗輝茜貿易株式会社,,株式会社,大阪府,大阪市東成区,中道４丁目１６－２１－４０６号室,,27,115,5370025,,,,,,,2024-02-02,1,,,,,リキセンボウエキ,0
2363,9120001261892,新規,0,2024-02-02,2024-02-02,澤雲株式会社,,株式会社,大阪府,大阪市浪速区,大国１丁目８－１浪速パールハイツ４０５号室,,27,111,5560014,,,,,,,2024-02-02,1,,,,,サワクモ,0
2364,9120003025817,新規,0,2024-02-02,2024-02-02,東海商事合同会社,,合同会社,大阪府,大阪市淀川区,東三国２丁目１０－３,,27,123,5320002,,,,,,,2024-02-02,1,,,,,トウカイショウジ,0
2365,9120003025866,新規,0,2024-02-02,2024-02-02,ヴァーミリオン合同会社,,合同会社,大阪府,大阪市淀川区,十三東３丁目１番５号,,27,123,5320023,,,,,,,2024-02-02,1,,,,,ヴァーミリオン,0
2367,9120101069006,新規,0,2024-02-02,2024-02-02,株式会社ＢＥＬＬ,,株式会社,大阪府,南河内郡河南町,大字東山３番地の４,,27,382,5850001,,,,,,,2024-02-02,1,,,,,ベル,0
2374,9120901048704,新規,0,2024-02-02,2024-02-02,ｗｋｐ株式会社,,株式会社,大阪府,吹田市,江坂町５丁目１１番７号,,27,205,5640063,,,,,,,2024-02-02,1,,,,,ダブルケーピー,0
2377,9122001037802,新規,0,2024-02-02,2024-02-02,株式会社陽晃電設,,株式会社,大阪府,東大阪市,本庄西１丁目９番１４号,,27,227,5780965,,,,,,,2024-02-02,1,,,,,ヨウコウデンセツ,0
2383,9130001076274,新規,0,2024-02-02,2024-02-02,株式会社ＩＫＥＤＡ,,株式会社,京都府,京都市伏見区,深草池ノ内町７番地９,,26,109,6120031,,,,,,,2024-02-02,1,,,,,イケダ,0
2386,9130003009265,新規,0,2024-02-02,2024-02-02,合同会社ミエステート,,合同会社,京都府,宇治市,菟道出口４０番地の９,00133609,26,204,6110000,,,,,,,2024-02-02,1,,,,,ミエステート,0
2390,9140003020106,新規,0,2024-02-02,2024-02-02,合同会社勇進,,合同会社,兵庫県,神戸市兵庫区,西多聞通１丁目１番２５－４０１号,,28,105,6520035,,,,,,,2024-02-02,1,,,,,ユウシン,0
2391,9140003020114,新規,0,2024-02-02,2024-02-02,合同会社輝洋,,合同会社,兵庫県,川西市,鼓が滝２丁目１４番２５－２号,,28,217,6660123,,,,,,,2024-02-02,1,,,,,キヨウ,0
2392,9150001027052,新規,0,2024-02-02,2024-02-02,株式会社ＴＡＫＥＳＨＩＭＡ,,株式会社,奈良県,北葛城郡上牧町,大字上牧１１５２番地,,29,424,6390214,,,,,,,2024-02-02,1,,,,,タケシマ,0
2394,9170003001978,新規,0,2024-02-02,2024-02-02,合同会社ＴＫカンパニー,,合同会社,和歌山県,和歌山市,谷町３６,,30,201,6408133,,,,,,,2024-02-02,1,,,,,ティーケーカンパニー,0
2413,9180001160008,新規,0,2024-02-02,2024-02-02,株式会社ＴｅｎＴｅｎ,,株式会社,愛知県,名古屋市港区,小碓４丁目３５６番地の１,,23,111,4550801,,,,,,,2024-02-02,1,,,,,テンテン,0
2414,9180001160016,新規,0,2024-02-02,2024-02-02,株式会社マンゾク,,株式会社,愛知県,名古屋市北区,辻町１丁目３２番地の１辻町住宅併存店舗４－５,,23,103,4620032,,,,,,,2024-02-02,1,,,,,マンゾク,0
2415,9180001160040,新規,0,2024-02-02,2024-02-02,株式会社アイディーエー,,株式会社,愛知県,春日井市,柏原町５丁目３７番地２,,23,206,4860913,,,,,,,2024-02-02,1,,,,,アイディーエー,0
2423,9180003026289,新規,0,2024-02-02,2024-02-02,合同会社ＴＡＫＥ　ＢＹ　ＰＬＡＣＥ,,合同会社,愛知県,名古屋市東区,泉１丁目７番３８号星和泉コーポラス４０１号,,23,102,4610001,,,,,,,2024-02-02,1,,,,,タケバイプレイス,0
2429,9190001031075,新規,0,2024-02-02,2024-02-02,株式会社ＴＫＳ,,株式会社,三重県,四日市市,追分２丁目３番１３号,,24,202,5100882,,,,,,,2024-02-02,1,,,,,ティーケーエス,0
2436,9230001020197,新規,0,2024-02-02,2024-02-02,株式会社Ｕｔｉｌｉｔｙ,,株式会社,富山県,小矢部市,下後亟４８１番地,,16,209,9320101,,,,,,,2024-02-02,1,,,,,ユーティリティ,0
2440,9250001020501,新規,0,2024-02-02,2024-02-02,ＳＵＯ株式会社,,株式会社,山口県,大島郡周防大島町,大字平野１２０７,,35,305,7422512,,,,,,,2024-02-02,1,,,,,スオー,0
2442,9260001038732,新規,0,2024-02-02,2024-02-02,株式会社はぴねす,,株式会社,岡山県,浅口市,金光町占見新田３１８５番地１,,33,216,7190104,,,,,,,2024-02-02,1,,,,,ハピネス,0
2443,9270001008916,新規,0,2024-02-02,2024-02-02,株式会社ミハル電工,,株式会社,鳥取県,鳥取市,馬場２３３番地１,,31,201,6801131,,,,,,,2024-02-02,1,,,,,ミハルデンコウ,0
2444,9280001009112,新規,0,2024-02-02,2024-02-02,ＣＳＡホールディングス株式会社,,株式会社,島根県,出雲市,上塩冶町１５３番地１,,32,203,6930022,,,,,,,2024-02-02,1,,,,,シーエスエーホールディングス,0
2446,9280003001810,新規,0,2024-02-02,2024-02-02,合同会社北村風月堂,,合同会社,島根県,江津市,浅利町３５８番地１７,,32,207,6950002,,,,,,,2024-02-02,1,,,,,キタムラフウゲツドウ,0
2447,9280005007590,新規,0,2024-02-02,2024-02-02,一般社団法人美郷景観美化,,その他の設立登記法人,島根県,邑智郡美郷町,浜原２１８番地１,,32,448,6994701,,,,,,,2024-02-02,1,,,,,,0
2449,9290003014935,新規,0,2024-02-02,2024-02-02,Ｎ２合同会社,,合同会社,福岡県,春日市,白水ヶ丘６丁目２８番地ブルーハイツＳＳ２０２号,,40,218,8160845,,,,,,,2024-02-02,1,,,,,エヌツー,0
2452,9310001018836,新規,0,2024-02-02,2024-02-02,株式会社ＭＩＡ,,株式会社,長崎県,佐世保市,三川内新町２６番地１,,42,202,8593153,,,,,,,2024-02-02,1,,,,,ミーア,0
2455,9310003004719,新規,0,2024-02-02,2024-02-02,合同会社カンポン・バル,,合同会社,長崎県,長崎市,諏訪町５番３号ウエストフィールド諏訪４０１,,42,201,8500873,,,,,,,2024-02-02,1,,,,,カンポンバル,0
2457,9320001020270,新規,0,2024-02-02,2024-02-02,大分プレカット株式会社,,株式会社,大分県,豊後大野市,清川町砂田２２２１番地,,44,212,8796903,,,,,,,2024-02-02,1,,,,,オオイタプレカット,0
2461,9330001031713,新規,0,2024-02-02,2024-02-02,株式会社グラーティア,,株式会社,熊本県,熊本市西区,春日７丁目１９番６号,,43,103,8600047,,,,,,,2024-02-02,1,,,,,グラーティア,0
2462,9330003010194,新規,0,2024-02-02,2024-02-02,ＢＣアーツサプライズジャパン合同会社,,合同会社,熊本県,熊本市南区,御幸笛田３丁目２番４号,,43,104,8614172,,,,,,,2024-02-02,1,,,,,ビーシーアーツサプライズジャパン,0
2475,9390003002203,新規,0,2024-02-02,2024-02-02,合同会社ＵＮＤＥＲＤＯＧＳ,,合同会社,山形県,山形市,飯田４丁目６番１７‐１号,,06,201,9902332,,,,,,,2024-02-02,1,,,,,アンダードッグス,0
2476,9400001016541,新規,0,2024-02-02,2024-02-02,株式会社アグレック,,株式会社,岩手県,奥州市,衣川外の沢１６５番,,03,215,0294304,,,,,,,2024-02-02,1,,,,,アグレック,0
2483,9430003015869,新規,0,2024-02-02,2024-02-02,合同会社一心庵,,合同会社,北海道,札幌市清田区,平岡公園東８丁目１１番２１号,,01,110,0040882,,,,,,,2024-02-02,1,,,,,イッシンアン,0
2485,9480001012376,新規,0,2024-02-02,2024-02-02,株式会社美徳島,,株式会社,徳島県,鳴門市,撫養町小桑島字前浜１６０番地ハイムシルフィー２０６,,36,202,7720012,,,,,,,2024-02-02,1,,,,,ビトクシマ,0
