sequenceNumber,corporateNumber,process,correct,updateDate,changeDate,name,nameImageId,kind,prefectureName,cityName,streetNumber,addressImageId,prefectureCode,cityCode,postCode,addressOutside,addressOutsideImageId,closeDate,closeCause,successorCorporateNumber,changeCause,assignmentDate,latest,enName,enPrefectureName,enCityName,enAddressOutside,furigana,hihyoji
23,1010401172295,登記記録の閉鎖等,0,2025-04-03,2025-03-24,アマン株式会社,,株式会社,東京都,港区,六本木６丁目１０番１号六本木ヒルズ森タワー１７階,,13,103,1060032,,,2025-03-24,清算の結了等,,,2023-02-03,1,,,,,アマン,0
52,1012701014805,登記記録の閉鎖等,0,2025-04-03,2025-03-31,ＡＹＫトレーディング株式会社,,株式会社,京都府,京田辺市,山手南２丁目２０番地１１１,,26,211,6100354,,,2025-03-31,清算の結了等,,,2018-05-08,1,,,,,エイワイケイトレーディング,0
58,1013402001225,登記記録の閉鎖等,0,2025-04-03,2025-03-18,有限会社日野サクセン工業所,,有限会社,東京都,日野市,三沢３丁目２番地の１３,,13,212,1910032,,,2025-03-18,清算の結了等,,,2015-10-05,1,,,,,ヒノサクセンコウギョウショ,0
64,1020002052425,登記記録の閉鎖等,0,2025-04-03,2025-03-21,有限会社スペースクラフト,,有限会社,神奈川県,横浜市青葉区,あざみ野２丁目３４番地１２パークホームズあざみ野ザ・レジデンス２２８,,14,117,2250011,,,2025-03-21,清算の結了等,,,2015-10-05,1,,,,,スペースクラフト,0
73,1021003009034,登記記録の閉鎖等,0,2025-04-03,2025-04-02,合同会社ＲＥＳＰコンサルティング,,合同会社,神奈川県,小田原市,栄町１丁目４番２号第１２松本ビル５階,,14,206,2500011,,,2025-04-02,合併による解散等,8011101087991,令和７年３月１日東京都新宿区神楽坂四丁目１番１号オザワビル６階士業不動産サポート株式会社（8011101087991）に合併し解散,2020-01-24,1,,,,,リスプコンサルティング,0
85,1040002075127,登記記録の閉鎖等,0,2025-04-03,2025-03-21,有限会社眞砂工業,,有限会社,千葉県,市原市,郡本１丁目１３１番地,,12,219,2900013,,,2025-03-21,清算の結了等,,,2015-10-05,1,,,,,マサゴコウギョウ,0
86,1040002102541,登記記録の閉鎖等,0,2025-04-03,2025-03-24,有限会社房翔ポートリー,,有限会社,千葉県,夷隅郡御宿町,実谷１５３番地５,,12,443,2995114,,,2025-03-24,清算の結了等,,,2015-10-05,1,,,,,ボウショウポートリー,0
89,1050001032937,登記記録の閉鎖等,0,2025-04-03,2025-03-26,株式会社柳澤工務店,,株式会社,茨城県,結城市,大字結城９５６９番地４,,08,207,3070001,,,2025-03-26,清算の結了等,,,2015-10-05,1,,,,,ヤナギサワコウムテン,0
119,1120901035569,登記記録の閉鎖等,0,2025-04-03,2025-03-31,株式会社ジーゲイト,,株式会社,大阪府,吹田市,津雲台７丁目１番３８－４０２号,,27,205,5650862,,,2025-03-31,清算の結了等,,,2015-10-05,1,,,,,ジーゲイト,0
150,1180005002469,登記記録の閉鎖等,0,2025-04-03,2025-03-31,医療法人済美会,,その他の設立登記法人,愛知県,名古屋市南区,鳥栖１丁目１５番２８号,,23,112,4570006,,,2025-03-31,清算の結了等,,,2015-10-05,1,,,,,サイビカイ,0
166,1240001060753,登記記録の閉鎖等,0,2025-04-03,2025-04-01,株式会社新生,,株式会社,広島県,広島市西区,商工センター７丁目５番２６号,,34,104,7330833,,,2025-04-01,合併による解散等,9240001000041,令和７年４月１日広島市西区商工センター七丁目５番５２号株式会社ユニバーサルポスト（9240001000041）に合併し解散,2022-12-05,1,,,,,シンセイ,0
180,1290002034891,登記記録の閉鎖等,0,2025-04-03,2025-03-25,有限会社ＥＣＨＯ,,有限会社,福岡県,宗像市,日の里７丁目２８番地７,,40,220,8113425,,,2025-03-25,清算の結了等,,,2015-10-05,1,,,,,エコー,0
188,1300001000389,登記記録の閉鎖等,0,2025-04-03,2025-03-31,サガシキ物流株式会社,,株式会社,佐賀県,佐賀市,高木瀬西６丁目３番２号,,41,201,8490921,,,2025-03-31,合併による解散等,1300001000380,令和７年３月３１日佐賀市高木瀬西六丁目３番２号株式会社サガシキ（1300001000380）に合併し解散,2015-10-05,1,,,,,サガシキブツリュウ,0
189,1300001003400,登記記録の閉鎖等,0,2025-04-03,2025-04-01,祐徳通商株式会社,,株式会社,佐賀県,小城市,牛津町上砥川２８１番地２,,41,208,8490305,,,2025-04-01,合併による解散等,6300001004996,令和７年４月１日佐賀県鹿島市大字高津原４０９７番地２祐徳自動車株式会社（6300001004996）に合併し解散,2015-10-05,1,,,,,ユウトクツウショウ,0
194,1330001013834,登記記録の閉鎖等,0,2025-04-03,2025-03-28,太田工業株式会社,,株式会社,熊本県,八代郡氷川町,新田２２８番地,,43,468,8694801,,,2025-03-28,清算の結了等,,,2015-10-05,1,,,,,オオタコウギョウ,0
195,1340003002339,登記記録の閉鎖等,0,2025-04-03,2025-03-31,シンボルフードサービス鹿児島合同会社,,合同会社,鹿児島県,鹿児島市,下伊敷１丁目５０番３０号徳重ビル２階,,46,201,8900005,,,2025-03-31,清算の結了等,,,2017-05-17,1,,,,,シンボルフードサービスカゴシマ,0
199,1350003004202,登記記録の閉鎖等,0,2025-04-03,2025-03-31,合同会社プラスアルファー,,合同会社,宮崎県,宮崎市,大字芳士８５４番地１,,45,201,8800123,,,2025-03-31,清算の結了等,,,2022-10-19,1,,,,,プラスアルファー,0
202,1360001014623,登記記録の閉鎖等,0,2025-04-03,2025-03-31,株式会社Ｍｅｓｓａｇｅ,,株式会社,沖縄県,名護市,宮里７丁目８番２９号,,47,209,9050011,,,2025-03-31,清算の結了等,,,2015-10-05,1,,,,,メッセージ,0
205,1370001014746,登記記録の閉鎖等,0,2025-04-03,2025-03-25,株式会社エグレットトラスト,,株式会社,宮城県,仙台市若林区,表柴田町６２番地の２,,04,103,9840055,,,2025-03-25,清算の結了等,,,2015-10-05,1,,,,,エグレットトラスト,0
250,2010902020919,登記記録の閉鎖等,0,2025-04-03,2025-03-31,有限会社アンタイトル,,有限会社,東京都,世田谷区,砧５丁目２１番２１号,,13,112,1570073,,,2025-03-31,清算の結了等,,,2015-10-05,1,,,,,,0
251,2010902021280,登記記録の閉鎖等,0,2025-04-03,2025-04-01,有限会社都南不動産,,有限会社,東京都,世田谷区,上北沢４丁目１９番地１０号,,13,112,1560057,,,2025-04-01,清算の結了等,,,2015-10-05,1,,,,,トナンフドウサン,0
275,2011402019699,登記記録の閉鎖等,0,2025-04-03,2025-03-26,有限会社サンホーム,,有限会社,東京都,板橋区,舟渡３丁目８番４号,,13,119,1740041,,,2025-03-26,清算の結了等,,,2015-10-05,1,,,,,サンホーム,0
279,2011602004476,登記記録の閉鎖等,0,2025-04-03,2025-03-11,有限会社サトー・リシン工業所,,有限会社,東京都,練馬区,高松４丁目１２番１７号,,13,120,1790075,,,2025-03-11,清算の結了等,,,2015-10-05,1,,,,,サトーリシンコウギョウショ,0
285,2011802025925,登記記録の閉鎖等,0,2025-04-03,2025-03-24,有限会社テクノ防災,,有限会社,東京都,葛飾区,新宿３丁目１３番１３号,,13,122,1250051,,,2025-03-24,清算の結了等,,,2015-10-05,1,,,,,テクノボウサイ,0
292,2013102001549,登記記録の閉鎖等,0,2025-04-03,2025-04-01,山本建設有限会社,,有限会社,東京都,羽村市,双葉町２丁目５番２２号,,13,227,2050022,,,2025-04-01,清算の結了等,,,2015-10-05,1,,,,,ヤマモトケンセツ,0
293,2020001105100,登記記録の閉鎖等,0,2025-04-03,2025-03-21,株式会社クベラ,,株式会社,神奈川県,横浜市磯子区,杉田１丁目１７番１,,14,107,2350033,,,2025-03-21,清算の結了等,,,2015-10-05,1,,,,,クベラ,0
296,2020001112534,登記記録の閉鎖等,0,2025-04-03,2025-04-01,アンダンテグループ株式会社,,株式会社,神奈川県,横浜市港北区,新横浜２丁目６番地１３新横浜ステーションビル７階,,14,109,2220033,,,2025-04-01,合併による解散等,1020001110539,令和７年４月１日横浜市港北区新横浜二丁目６番地１３新横浜ステーションビル７階アンダンテフードサービス株式会社（1020001110539）に合併し解散,2015-10-05,1,,,,,アンダンテグループ,0
298,2020001116808,登記記録の閉鎖等,0,2025-04-03,2025-04-01,アンダンテフード鎌倉株式会社,,株式会社,神奈川県,横浜市戸塚区,平戸３丁目９番５号,,14,110,2440802,,,2025-04-01,合併による解散等,1020001110539,令和７年４月１日横浜市港北区新横浜二丁目６番地１３新横浜ステーションビル７階アンダンテフードサービス株式会社（1020001110539）に合併し解散,2016-08-02,1,,,,,アンダンテフードカマクラ,0
316,2040001076744,登記記録の閉鎖等,0,2025-04-03,2025-03-21,株式会社牛尾,,株式会社,千葉県,君津市,郡１丁目６番２５号,,12,225,2991127,,,2025-03-21,清算の結了等,,,2015-10-05,1,,,,,ウシオ,0
344,2100002031469,登記記録の閉鎖等,0,2025-04-03,2025-03-26,有限会社高市薬局,,有限会社,長野県,岡谷市,川岸上３丁目２番５号,,20,204,3940048,,,2025-03-26,清算の結了等,,,2015-10-05,1,,,,,タカイチヤッキョク,0
345,2100002035676,登記記録の閉鎖等,0,2025-04-03,2025-03-26,有限会社和泉,,有限会社,長野県,飯田市,伝馬町１丁目２３番地,,20,205,3950016,,,2025-03-26,清算の結了等,,,2015-10-05,1,,,,,イズミ,0
351,2120001063890,登記記録の閉鎖等,0,2025-04-03,2025-04-01,株式会社コスモホームヘルプサービス,,株式会社,大阪府,大阪市北区,西天満４丁目１１番２３号,,27,127,5300047,,,2025-04-01,合併による解散等,4120001063856,令和７年４月１日大阪市中央区西心斎橋二丁目２番７号株式会社ＫＯＳＭＯ（4120001063856）に合併し解散,2015-10-05,1,,,,,コスモホームヘルプサービス,0
397,2180005017425,登記記録の閉鎖等,0,2025-04-03,2025-03-31,一般社団法人日本カサンドラ支援協会,,その他の設立登記法人,愛知県,名古屋市中区,松原２丁目２番２９号,,23,106,4600017,,,2025-03-31,清算の結了等,,,2017-08-02,1,,,,,ニホンカサンドラシエンキョウカイ,0
404,2220002016029,登記記録の閉鎖等,0,2025-04-03,2025-03-26,有限会社ボディショップ小林,,有限会社,石川県,鳳珠郡穴水町,字川島ヘの４２番地２,,17,461,9270027,,,2025-03-26,清算の結了等,,,2015-10-05,1,,,,,ボディショップコバヤシ,0
407,2240001010006,登記記録の閉鎖等,0,2025-04-03,2025-04-01,もみじ地所株式会社,,株式会社,広島県,広島市中区,胡町１番２４号,,34,101,7300021,,,2025-04-01,合併による解散等,3240001012810,令和７年４月１日広島市中区胡町１番２４号株式会社もみじ銀行（3240001012810）に合併し解散,2015-10-05,1,,,,,モミジジショ,0
423,2290003013935,登記記録の閉鎖等,0,2025-04-03,2025-03-24,合同会社ＳＩ・ｄｅｓｉｇｎ,,合同会社,福岡県,福岡市中央区,春吉２丁目１６－１５東峰マンション渡辺通３１０,,40,133,8100003,,,2025-03-24,清算の結了等,,,2023-05-19,1,,,,,エスアイデザイン,0
432,2320002019764,登記記録の閉鎖等,0,2025-04-03,2025-04-01,有限会社ダイシン,,有限会社,大分県,日田市,大字内河野５６番地１,,44,204,8770000,,,2025-04-01,清算の結了等,,,2015-10-05,1,,,,,,0
451,2380001004547,登記記録の閉鎖等,0,2025-04-03,2025-03-18,石塚建築株式会社,00083004,株式会社,福島県,郡山市,富田町字池向３２番地の８,,07,203,9638041,,,2025-03-18,清算の結了等,,,2015-10-05,1,,,,,イシヅカケンチク,0
453,2400001006912,登記記録の閉鎖等,0,2025-04-03,2025-03-14,株式会社東建ハウス,,株式会社,岩手県,宮古市,長町１丁目７番６号,,03,202,0270053,,,2025-03-14,清算の結了等,,,2015-10-05,1,,,,,トウケンハウス,0
458,2430001068628,登記記録の閉鎖等,0,2025-04-03,2025-04-01,株式会社絆心,,株式会社,北海道,札幌市中央区,南二十二条西１１丁目１－２２－８０２,,01,101,0640922,,,2025-04-01,清算の結了等,,,2015-10-05,1,,,,,ハンシン,0
489,3010601038765,登記記録の閉鎖等,0,2025-04-03,2025-04-01,カネオカビル管理株式会社,,株式会社,東京都,墨田区,両国１丁目１２番１０号,,13,107,1300026,,,2025-04-01,合併による解散等,1040001082454,令和７年３月１７日千葉県長生郡一宮町一宮２５１８番地ＫＫホールディングス株式会社（1040001082454）に合併し解散,2015-10-05,1,,,,,カネオカビルカンリ,0
494,3010801002975,登記記録の閉鎖等,0,2025-04-03,2025-03-25,貴船紙器株式会社,,株式会社,東京都,大田区,大森東３丁目１０番７号,,13,111,1430012,,,2025-03-25,清算の結了等,,,2015-10-05,1,,,,,キフネシキ,0
506,3011402002968,登記記録の閉鎖等,0,2025-04-03,2025-03-28,有限会社クロノ,,有限会社,東京都,板橋区,幸町１番１６－７０３号,,13,119,1730034,,,2025-03-28,清算の結了等,,,2015-10-05,1,,,,,クロノ,0
515,3011702002024,登記記録の閉鎖等,0,2025-04-03,2025-04-01,有限会社エハラ,,有限会社,東京都,江戸川区,春江町２丁目３４番８号,,13,123,1320003,,,2025-04-01,清算の結了等,,,2015-10-05,1,,,,,エハラ,0
525,3013201007735,登記記録の閉鎖等,0,2025-04-03,2025-03-26,株式会社ブライト,,株式会社,東京都,渋谷区,千駄ヶ谷４丁目２７番１３号,,13,113,1510051,,,2025-03-26,清算の結了等,,,2015-10-05,1,,,,,ブライト,0
545,3060001024254,登記記録の閉鎖等,0,2025-04-03,2025-04-01,光陽ホールディングス株式会社,,株式会社,栃木県,宇都宮市,宝木町２丁目８８０番地,,09,201,3200061,,,2025-04-01,合併による解散等,6060001001639,令和７年４月１日栃木県宇都宮市宝木町二丁目８８０番地光陽エンジニアリング株式会社（6060001001639）に合併し解散,2015-10-05,1,,,,,コウヨウホールディングス,0
550,3070002035720,登記記録の閉鎖等,0,2025-04-03,2025-03-31,有限会社藤屋電気,,有限会社,群馬県,利根郡みなかみ町,布施１６３６番地１,,10,449,3791414,,,2025-03-31,清算の結了等,,,2015-10-05,1,,,,,フジヤデンキ,0
557,3100001018961,登記記録の閉鎖等,0,2025-04-03,2025-03-26,株式会社オレンジゼリー本舗,,株式会社,長野県,茅野市,宮川４１７３番地,,20,214,3910013,,,2025-03-26,清算の結了等,,,2015-10-05,1,,,,,オレンジゼリーホンポ,0
571,3120005014567,登記記録の閉鎖等,0,2025-04-03,2025-03-31,一般財団法人森下育英会,,その他の設立登記法人,大阪府,大阪市中央区,農人橋２丁目１番３５号,,27,128,5400011,,,2025-03-31,清算の結了等,,,2015-10-05,1,,,,,モリシタイクエイカイ,0
575,3120902013877,登記記録の閉鎖等,0,2025-04-03,2025-03-21,有限会社サン．エー製作所,,有限会社,大阪府,大阪市鶴見区,横堤５丁目１０番１１号,,27,124,5380052,,,2025-03-21,清算の結了等,,,2015-10-05,1,,,,,,0
576,3120902022250,登記記録の閉鎖等,0,2025-04-03,2025-03-28,有限会社諏訪ホームサービス,,有限会社,大阪府,箕面市,桜ケ丘３丁目１３番７号,,27,220,5620046,,,2025-03-28,清算の結了等,,,2015-10-05,1,,,,,スワホームサービス,0
578,3130001068806,登記記録の閉鎖等,0,2025-04-03,2025-03-24,株式会社うめぼし,,株式会社,京都府,京都市左京区,田中大久保町２６番地１５,,26,103,6068236,,,2025-03-24,清算の結了等,,,2021-03-12,1,,,,,ウメボシ,0
592,3180005018141,登記記録の閉鎖等,0,2025-04-03,2025-03-31,特定非営利活動法人Ｔａｇｓ　Ｎｅｗ,,その他の設立登記法人,愛知県,丹羽郡扶桑町,大字高雄字堂子３５番地３,,23,362,4800102,,,2025-03-31,清算の結了等,,,2019-02-13,1,,,,,タグズニュウ,0
601,3220003000014,登記記録の閉鎖等,0,2025-04-03,2025-03-31,合名会社飯田早十治商店,,合名会社,石川県,金沢市,三口町火６５番地１,,17,201,9200018,,,2025-03-31,合併による解散等,8220001001034,令和７年３月３１日石川県金沢市三口町火６５番地株式会社イイダ（8220001001034）に合併し解散,2015-10-05,1,,,,,イイダソトジショウテン,0
605,3240001055611,登記記録の閉鎖等,0,2025-04-03,2025-04-01,ＴＫＯＮ株式会社,,株式会社,広島県,広島市西区,井口台２丁目２５番１０号,,34,104,7330844,,,2025-04-01,清算の結了等,,,2020-01-31,1,,,,,ティーコン,0
617,3290001019339,登記記録の閉鎖等,0,2025-04-03,2025-03-25,株式会社創和,,株式会社,福岡県,福岡市東区,美和台７丁目２４番５号,,40,131,8110212,,,2025-03-25,清算の結了等,,,2015-10-05,1,,,,,ソウワ,0
651,3360002001585,登記記録の閉鎖等,0,2025-04-03,2025-03-31,有限会社ケイエヌ自動車整備工業,,有限会社,沖縄県,那覇市,字仲井真１４１番地,,47,201,9020074,,,2025-03-31,清算の結了等,,,2015-10-05,1,,,,,ケイエヌジドウシャセイビコウギョウ,0
655,3390001005865,登記記録の閉鎖等,0,2025-04-03,2025-04-01,株式会社下大湯,,株式会社,山形県,上山市,十日町９番３０号,,06,207,9993153,,,2025-04-01,合併による解散等,5390003002339,令和７年４月１日山形県上山市十日町９番３０号合同会社下大湯（5390003002339）に合併し解散,2025-01-28,1,,,,,シモオオユ,0
665,3440002008151,登記記録の閉鎖等,0,2025-04-03,2025-03-28,株式会社ドリームファクトリー,,株式会社,北海道,函館市,西桔梗町８６０番地の１３,,01,202,0410824,,,2025-03-28,合併による解散等,8430001034599,令和７年３月２１日北海道石狩市新港西二丁目７５４番地１コープフーズ株式会社（8430001034599）に合併し解散,2015-10-05,1,,,,,ドリームファクトリー,0
724,4011101049112,登記記録の閉鎖等,0,2025-04-03,2025-03-31,株式会社ヒスペース,,株式会社,東京都,西東京市,富士町３丁目２番９－４０３号,,13,229,2020014,,,2025-03-31,清算の結了等,,,2015-10-05,1,,,,,ヒスペース,0
726,4011102010691,登記記録の閉鎖等,0,2025-04-03,2025-03-04,有限会社ヒョウドウコンサルタントグループ,,有限会社,東京都,渋谷区,代々木１丁目３８番２号,,13,113,1510053,,,2025-03-04,清算の結了等,,,2015-10-05,1,,,,,ヒョウドウコンサルタントグループ,0
750,4020001128165,登記記録の閉鎖等,0,2025-04-03,2025-04-01,株式会社Ｃｏｌｏｒｉｙ,,株式会社,東京都,八王子市,本郷町１０－６ＬＣＢＬＤＧ．,,13,201,1920052,,,2025-04-01,清算の結了等,,,2018-10-05,1,,,,,カラリー,0
752,4021001050128,登記記録の閉鎖等,0,2025-04-03,2025-03-31,株式会社アクティビティセンター湘南,,株式会社,神奈川県,平塚市,小鍋島１１０９番地の２,,14,203,2540004,,,2025-03-31,清算の結了等,,,2015-10-05,1,,,,,アクティビティセンターショウナン,0
783,4110001010628,登記記録の閉鎖等,0,2025-04-03,2025-03-28,株式会社とやの健康ヴィレッジ,,株式会社,新潟県,新潟市中央区,鳥屋野２丁目１３番３２号,,15,103,9500951,,,2025-03-28,清算の結了等,,,2015-10-05,1,,,,,トヤノケンコウヴィレッジ,0
792,4120001231859,登記記録の閉鎖等,0,2025-04-03,2025-03-31,株式会社アールノート,,株式会社,大阪府,大阪市中央区,東高麗橋２番３２号ＢＲＡＶＥ北浜２０２,,27,128,5400039,,,2025-03-31,清算の結了等,,,2020-09-17,1,,,,,アールノート,0
800,4120003018684,登記記録の閉鎖等,0,2025-04-03,2025-03-31,合同会社Ｒｉｇｕｌｕｓ,,合同会社,大阪府,東大阪市,御厨２丁目４－１６－２０１,,27,227,5770032,,,2025-03-31,清算の結了等,,,2021-01-06,1,,,,,リグルス,0
822,4140002065701,登記記録の閉鎖等,0,2025-04-03,2025-03-31,有限会社Ｐｈａｎｒｉｃ,,有限会社,兵庫県,伊丹市,高台１丁目１１０番地,,28,207,6640892,,,2025-03-31,清算の結了等,,,2015-10-05,1,,,,,,0
823,4140003011118,登記記録の閉鎖等,0,2025-04-03,2025-03-31,アジアネット株式会社,,株式会社,京都府,相楽郡和束町,大字湯船小字岩坂尻１２０番地１,,26,365,6191203,,,2025-03-31,清算の結了等,,,2015-12-22,1,,,,,アジアネット,0
831,4180002065202,登記記録の閉鎖等,0,2025-04-03,2025-03-31,岩本電気有限会社,,有限会社,愛知県,春日井市,朝宮町２丁目２番地の１１,,23,206,4860846,,,2025-03-31,清算の結了等,,,2015-10-05,1,,,,,イワモトデンキ,0
832,4180005008348,登記記録の閉鎖等,0,2025-04-03,2025-03-24,味美商店街振興組合,,その他の設立登記法人,愛知県,春日井市,西本町２丁目１２番地５,,23,206,4860958,,,2025-03-24,清算の結了等,,,2015-10-05,1,,,,,アジヨシ,0
833,4180301019866,登記記録の閉鎖等,0,2025-04-03,2025-04-01,アイシン化工株式会社,,株式会社,愛知県,豊田市,藤岡飯野町大川ケ原１１４１番地１,,23,211,4700451,,,2025-04-01,合併による解散等,6180301013611,令和７年４月１日愛知県刈谷市朝日町二丁目１番地株式会社アイシン（6180301013611）に合併し解散,2015-10-05,1,,,,,アイシンカコウ,0
837,4210001012564,登記記録の閉鎖等,0,2025-04-03,2025-03-28,株式会社セイメイ,,株式会社,福井県,丹生郡越前町,東内郡３丁目２０７番地,,18,423,9160156,,,2025-03-28,清算の結了等,,,2015-10-05,1,,,,,セイメイ,0
843,4230002005400,登記記録の閉鎖等,0,2025-04-03,2025-03-31,有限会社スリー・コード,,有限会社,富山県,富山市,婦中町速星６５６番地２９,,16,201,9392706,,,2025-03-31,清算の結了等,,,2015-10-05,1,,,,,スリーコード,0
845,4240001054595,登記記録の閉鎖等,0,2025-04-03,2025-03-31,株式会社ハニーサックル,,株式会社,広島県,福山市,御幸町大字中津原１２１４番地５,,34,207,7200004,,,2025-03-31,清算の結了等,,,2019-06-28,1,,,,,ハニーサックル,0
851,4260002017269,登記記録の閉鎖等,0,2025-04-03,2025-03-31,有限会社カーチャンプ,,有限会社,岡山県,倉敷市,二子２１４番地の１,,33,202,7010115,,,2025-03-31,清算の結了等,,,2015-10-05,1,,,,,カーチャンプ,0
876,4400003003096,登記記録の閉鎖等,0,2025-04-03,2025-03-19,奥のほそ道．ｃｏｍ合同会社,,合同会社,岩手県,盛岡市,本宮字大柳４３番地１９,,03,201,0200866,,,2025-03-19,清算の結了等,,,2023-06-12,1,,,,,オクノホソミチドットコム,0
880,4420002010018,登記記録の閉鎖等,0,2025-04-03,2025-03-31,有限会社西塚建設工業,,有限会社,青森県,三戸郡南部町,大字斗賀字沼田５番地７,,02,445,0390611,,,2025-03-31,清算の結了等,,,2015-10-05,1,,,,,ニシヅカケンセツコウギョウ,0
881,4430001004770,登記記録の閉鎖等,0,2025-04-03,2025-03-28,株式会社共立空輸,,株式会社,北海道,札幌市白石区,流通センター２丁目６番６号,,01,104,0030030,,,2025-03-28,清算の結了等,,,2015-10-05,1,,,,,キョウリツクウユ,0
960,5012701012078,登記記録の閉鎖等,0,2025-04-03,2025-03-31,アートラインサービス株式会社,,株式会社,東京都,小平市,花小金井６丁目４８番１３号,,13,211,1870002,,,2025-03-31,清算の結了等,,,2015-10-05,1,,,,,アートラインサービス,0
962,5013102000622,登記記録の閉鎖等,0,2025-04-03,2025-04-02,西多摩畜犬有限会社,,有限会社,東京都,福生市,大字熊川１０９７番地,,13,218,1970003,,,2025-04-02,清算の結了等,,,2015-10-05,1,,,,,ニシタマチクケン,0
968,5020001134567,登記記録の閉鎖等,0,2025-04-03,2025-03-21,Ｍ．Ｌ．株式会社,,株式会社,神奈川県,横浜市青葉区,すすき野３丁目３番地２－２２－５０２,,14,117,2250021,,,2025-03-21,清算の結了等,,,2020-01-22,1,,,,,エムエル,0
1029,5130002004130,登記記録の閉鎖等,0,2025-04-03,2025-04-01,ニューシモフサ有限会社,,有限会社,京都府,京都市北区,大宮一ノ井町２１番地５,,26,101,6038477,,,2025-04-01,清算の結了等,,,2015-10-05,1,,,,,ニューシモフサ,0
1031,5140001062236,登記記録の閉鎖等,0,2025-04-03,2025-03-21,ライオン・ビル株式会社,,株式会社,兵庫県,姫路市,綿町１４６番地,,28,201,6700921,,,2025-03-21,清算の結了等,,,2015-10-05,1,,,,,ライオンビル,0
1033,5140001104459,登記記録の閉鎖等,0,2025-04-03,2025-03-31,株式会社ナルミコーポレーション,,株式会社,兵庫県,西宮市,上甲子園３丁目１番２０号,,28,204,6638114,,,2025-03-31,清算の結了等,,,2016-12-22,1,,,,,ナルミコーポレーション,0
1051,5180002027085,登記記録の閉鎖等,0,2025-04-03,2025-03-28,有限会社市栄工業,,有限会社,愛知県,名古屋市中村区,荒輪井町２丁目９８番地,,23,105,4530848,,,2025-03-28,清算の結了等,,,2015-10-05,1,,,,,イチエイコウギョウ,0
1052,5180002071190,登記記録の閉鎖等,0,2025-04-03,2025-03-31,有限会社雄俊,,有限会社,愛知県,春日井市,岩野町２丁目６番地３,,23,206,4860805,,,2025-03-31,清算の結了等,,,2015-10-05,1,,,,,ユウシュン,0
1086,5300001013800,登記記録の閉鎖等,0,2025-04-03,2025-03-31,株式会社スリーポンズ,,株式会社,佐賀県,佐賀市,嘉瀬町大字扇町２４６９番地５,,41,201,8400862,,,2025-03-31,合併による解散等,2300001000818,令和７年３月３１日佐賀市兵庫町大字渕４３２５番地１株式会社大東（2300001000818）に合併し解散,2024-06-20,1,,,,,スリーポンズ,0
1108,5400002010778,登記記録の閉鎖等,0,2025-04-03,2025-03-18,株式会社ひまわり薬局,,株式会社,岩手県,宮古市,神田沢町３番１４号,,03,202,0270042,,,2025-03-18,清算の結了等,,,2015-10-05,1,,,,,ヒマワリヤッキョク,0
1141,6010003031614,登記記録の閉鎖等,0,2025-04-03,2025-03-27,東祥合同会社,,合同会社,東京都,千代田区,平河町１丁目６番１５号シルスフィア会計事務所内,,13,101,1020093,,,2025-03-27,清算の結了等,,,2020-02-10,1,,,,,トウショウ,0
1145,6010101001361,登記記録の閉鎖等,0,2025-04-03,2025-04-01,株式会社三江,,株式会社,東京都,八王子市,下柚木２丁目８番地の１８,,13,201,1920372,,,2025-04-01,清算の結了等,,,2015-10-05,1,,,,,,0
1149,6010401105333,登記記録の閉鎖等,0,2025-04-03,2025-03-07,株式会社ＳＯＬＩＡ,,株式会社,東京都,港区,南青山１丁目１番１号,,13,103,1070062,,,2025-03-07,合併による解散等,8010401186413,令和７年２月２８日東京都港区南青山一丁目１番１号株式会社ＳＯＬＩＡ（8010401186413）に合併し解散,2015-10-05,1,,,,,ソリア,0
1162,6010801025180,登記記録の閉鎖等,0,2025-04-03,2025-03-24,株式会社ＨＡＬＥ　ＨＯＮＵ　ＨＡＷＡＩＩ,,株式会社,東京都,大田区,山王１丁目６番１２号,,13,111,1430023,,,2025-03-24,清算の結了等,,,2015-10-05,1,,,,,ハレホヌハワイ,0
1163,6010802010999,登記記録の閉鎖等,0,2025-04-03,2025-03-21,有限会社錦製作所,,有限会社,東京都,大田区,西糀谷３丁目２６番９号,,13,111,1440034,,,2025-03-21,清算の結了等,,,2015-10-05,1,,,,,ニシキセイサクショ,0
1199,6021002021704,登記記録の閉鎖等,0,2025-04-03,2025-03-31,有限会社相高自動車工業,00013174,有限会社,神奈川県,相模原市中央区,上溝６丁目２５番４４号,,14,152,2520243,,,2025-03-31,清算の結了等,,,2015-10-05,1,,,,,ソウコウジドウシャコウギョウ,0
1205,6030001109311,登記記録の閉鎖等,0,2025-04-03,2025-03-28,株式会社電幸,,株式会社,埼玉県,さいたま市岩槻区,大字南下新井９９４番地７,,11,110,3390032,,,2025-03-28,清算の結了等,,,2015-10-05,1,,,,,デンコウ,0
1208,6030002025020,登記記録の閉鎖等,0,2025-04-03,2025-03-28,有限会社東日本アイチサービス,,有限会社,埼玉県,戸田市,川岸２丁目３番１８号,,11,224,3350015,,,2025-03-28,清算の結了等,,,2015-10-05,1,,,,,ヒガシニホンアイチサービス,0
1216,6040002102702,登記記録の閉鎖等,0,2025-04-03,2025-03-24,有限会社まいしょっぷ山崎屋商店,,有限会社,千葉県,夷隅郡大多喜町,上原４６番地,,12,441,2980223,,,2025-03-24,清算の結了等,,,2015-10-05,1,,,,,,0
1284,6180001127240,登記記録の閉鎖等,0,2025-04-03,2025-03-31,株式会社ドローンＯＮＥ,,株式会社,愛知県,名古屋市東区,相生町５０番地１,,23,102,4610012,,,2025-03-31,清算の結了等,,,2017-04-11,1,,,,,ドローンワン,0
1293,6180005015012,登記記録の閉鎖等,0,2025-04-03,2025-03-28,弁護士法人金森総合法律事務所,,その他の設立登記法人,愛知県,名古屋市中区,錦１丁目１７番１３号名興中駒ビル５１３号室,,23,106,4600003,,,2025-03-28,清算の結了等,,,2015-10-05,1,,,,,カナモリソウゴウホウリツジムショ,0
1302,6200002013263,登記記録の閉鎖等,0,2025-04-03,2025-03-31,森岡運輸有限会社,,有限会社,岐阜県,大垣市,青墓町３丁目４２７番地１１,,21,202,5032221,,,2025-03-31,清算の結了等,,,2015-10-05,1,,,,,モリオカウンユ,0
1327,6320001008863,登記記録の閉鎖等,0,2025-04-03,2025-03-31,江藤米穀株式会社,,株式会社,大分県,佐伯市,城下西町５番１９号,,44,205,8760847,,,2025-03-31,清算の結了等,,,2015-10-05,1,,,,,エトウベイコク,0
1332,6320002002171,登記記録の閉鎖等,0,2025-04-03,2025-04-01,有限会社木下製作所,,有限会社,大分県,大分市,大字片島３９３番地の２,,44,201,8700943,,,2025-04-01,清算の結了等,,,2015-10-05,1,,,,,キノシタセイサクショ,0
1344,6370001006292,登記記録の閉鎖等,0,2025-04-03,2025-03-25,ユニヴァーサル商事株式会社,,株式会社,宮城県,仙台市宮城野区,扇町５丁目１番１１号,,04,102,9830034,,,2025-03-25,清算の結了等,,,2015-10-05,1,,,,,ユニヴァーサルショウジ,0
1362,6470001000987,登記記録の閉鎖等,0,2025-04-03,2025-03-31,香川日産商事株式会社,,株式会社,香川県,高松市,花園町１丁目１番８号,,37,201,7600072,,,2025-03-31,清算の結了等,,,2015-10-05,1,,,,,カガワニッサンショウジ,0
1363,6490001007130,登記記録の閉鎖等,0,2025-04-03,2025-03-31,株式会社ホンダソーラー高知,,株式会社,高知県,高知市,薊野東町９番２５号,,39,201,7810012,,,2025-03-31,清算の結了等,,,2015-10-05,1,,,,,ホンダソーラーコウチ,0
1392,7010405018167,登記記録の閉鎖等,0,2025-04-03,2025-03-10,一般社団法人ＰＦＩ開発支援機構,,その他の設立登記法人,東京都,港区,六本木３丁目２番１号,,13,103,1060032,,,2025-03-10,清算の結了等,,,2019-10-15,1,,,,,ピーエフアイカイハツシエンキコウ,0
1395,7010901013191,登記記録の閉鎖等,0,2025-04-03,2025-03-27,株式会社渡辺木工所,,株式会社,東京都,世田谷区,梅丘２丁目３４番１５号,,13,112,1540022,,,2025-03-27,清算の結了等,,,2015-10-05,1,,,,,ワタナベモッコウショ,0
1400,7011001125811,登記記録の閉鎖等,0,2025-04-03,2025-03-21,株式会社ネクストアーチ,,株式会社,東京都,大田区,山王２丁目５番３号Ｂ１,,13,111,1430023,,,2025-03-21,清算の結了等,,,2018-12-25,1,,,,,ネクストアーチ,0
1405,7011002036058,登記記録の閉鎖等,0,2025-04-03,2025-03-21,有限会社エスフィールド,,有限会社,東京都,大田区,北千束１丁目４番２０号Ｇ－ＦＬＡＴ５０２,,13,111,1450062,,,2025-03-21,清算の結了等,,,2015-10-05,1,,,,,エスフィールド,0
1409,7011305002970,登記記録の閉鎖等,0,2025-04-03,2025-04-01,一般社団法人フードビジネスナリッジ,,その他の設立登記法人,東京都,杉並区,桃井１丁目２３－７,,13,115,1670034,,,2025-04-01,清算の結了等,,,2024-03-15,1,,,,,フードビジネスナリッジ,0
1428,7021001009963,登記記録の閉鎖等,0,2025-04-03,2025-03-07,株式会社ＳＨＩＦＦＯＮ,,株式会社,東京都,港区,赤坂５丁目２番２０号赤坂パークビル１８階,,13,103,1070052,,,2025-03-07,合併による解散等,3010401187028,令和７年３月１日東京都港区赤坂五丁目２番２０号赤坂パークビル１８階株式会社ＳＦＮ（3010401187028）に合併し解散,2015-10-05,1,,,,,シフォン,0
1448,7070002028935,登記記録の閉鎖等,0,2025-04-03,2025-03-28,有限会社九合電気,,有限会社,群馬県,太田市,飯塚町１３４０番地,,10,205,3730817,,,2025-03-28,清算の結了等,,,2015-10-05,1,,,,,クアイデンキ,0
1462,7110002016423,登記記録の閉鎖等,0,2025-04-03,2025-03-28,有限会社藤井技建,,有限会社,新潟県,新発田市,住吉町４丁目６番６号,,15,206,9570061,,,2025-03-28,清算の結了等,,,2015-10-05,1,,,,,フジイギケン,0
1486,7122001028860,登記記録の閉鎖等,0,2025-04-03,2025-03-31,株式会社春芽Ｈａｒｕｍｅ,,株式会社,大阪府,東大阪市,吉田本町３丁目５番５６号－２０３号,,27,227,5780982,,,2025-03-31,清算の結了等,,,2015-10-05,1,,,,,ハルメハルメ,0
1488,7130001052987,登記記録の閉鎖等,0,2025-04-03,2025-03-31,株式会社Ｆｕｋｕｍｉｍｉ,,株式会社,京都府,京都市中京区,新町通夷川下る二条新町７１０番地２,,26,104,6040013,,,2025-03-31,清算の結了等,,,2015-10-05,1,,,,,フクミミ,0
1509,7180002022357,登記記録の閉鎖等,0,2025-04-03,2025-03-31,有限会社モケイヤ,,有限会社,愛知県,名古屋市天白区,御前場町２３０番地,,23,116,4680023,,,2025-03-31,清算の結了等,,,2015-10-05,1,,,,,モケイヤ,0
1510,7180002073160,登記記録の閉鎖等,0,2025-04-03,2025-03-26,有限会社サミーズコーポレーション,,有限会社,愛知県,尾張旭市,東大久手町１丁目１０番地の７,,23,226,4880003,,,2025-03-26,清算の結了等,,,2015-10-05,1,,,,,サミーズコーポレーション,0
1512,7180301010244,登記記録の閉鎖等,0,2025-04-03,2025-03-27,株式会社丸和運送,,株式会社,愛知県,豊川市,市田町上新屋４８番地,,23,207,4420862,,,2025-03-27,清算の結了等,,,2015-10-05,1,,,,,マルワウンソウ,0
1526,7240002053057,登記記録の閉鎖等,0,2025-04-03,2025-03-31,有限会社髪工房,,有限会社,広島県,三原市,糸崎２丁目７番１５号,,34,204,7290324,,,2025-03-31,清算の結了等,,,2015-10-05,1,,,,,カミコウボウ,0
1527,7250001009876,登記記録の閉鎖等,0,2025-04-03,2025-04-01,株式会社エムラ,,株式会社,山口県,周南市,川崎１丁目６番３号,,35,215,7460001,,,2025-04-01,清算の結了等,,,2015-10-05,1,,,,,エムラ,0
1540,7320005001756,登記記録の閉鎖等,0,2025-04-03,2025-03-31,医療法人博敏会,,その他の設立登記法人,大分県,大分市,中央町２丁目７番２２号,,44,201,8700035,,,2025-03-31,清算の結了等,,,2015-10-05,1,,,,,ハクビンカイ,0
1543,7330001029940,登記記録の閉鎖等,0,2025-04-03,2025-03-31,株式会社オンリーケア,,株式会社,熊本県,熊本市東区,若葉２丁目１０番２４号,,43,102,8620903,,,2025-03-31,清算の結了等,,,2022-07-29,1,,,,,オンリーケア,0
1552,7370005010190,登記記録の閉鎖等,0,2025-04-03,2025-03-27,一般社団法人クラソウ,,その他の設立登記法人,宮城県,仙台市泉区,泉中央３丁目２７番地の１０,,04,105,9813133,,,2025-03-27,清算の結了等,,,2020-11-20,1,,,,,クラソウ,0
1557,7410005002951,登記記録の閉鎖等,0,2025-04-03,2025-03-19,日本聖公会東北教区大館聖パウロ教会,,その他の設立登記法人,秋田県,大館市,字裏町１１番地,,05,204,0170894,,,2025-03-19,合併による解散等,7370005000662,令和７年２月６日仙台市青葉区国分町二丁目１３番１５号日本聖公会東北教区（7370005000662）に合併し解散,2015-10-05,1,,,,,,0
1558,7410005003958,登記記録の閉鎖等,0,2025-04-03,2025-03-19,日本聖公会能代キリスト教会,,その他の設立登記法人,秋田県,能代市,富町４番４１号,,05,202,0160816,,,2025-03-19,合併による解散等,7370005000662,令和７年２月６日仙台市青葉区国分町二丁目１３番１５号日本聖公会東北教区（7370005000662）に合併し解散,2015-10-05,1,,,,,,0
1579,8010001174248,登記記録の閉鎖等,0,2025-04-03,2025-03-21,株式会社マンションクラウドパートナー,,株式会社,岩手県,二戸市,浄法寺町下藤４５番地１,,03,213,0286983,,,2025-03-21,清算の結了等,,,2016-03-17,1,,,,,マンションクラウドパートナー,0
1580,8010001184098,登記記録の閉鎖等,0,2025-04-03,2025-03-31,Ｗａｋｒａｋ株式会社,,株式会社,東京都,港区,東新橋２丁目１４番１号,,13,103,1050021,,,2025-03-31,合併による解散等,7290001078190,令和７年３月１４日福岡市博多区博多駅前二丁目１番１号株式会社ワールドスタッフィング（7290001078190）に合併し解散,2017-06-08,1,,,,,ワクラク,0
1581,8010001214540,登記記録の閉鎖等,0,2025-04-03,2025-04-01,トヨタ・コニック・アルファ株式会社,,株式会社,東京都,千代田区,神田淡路町２丁目１０１番地,,13,101,1010063,,,2025-04-01,合併による解散等,8010001052899,令和７年４月１日東京都千代田区神田淡路町二丁目１０１番地トヨタ・コニック・プロ株式会社（8010001052899）に合併し解散,2020-12-16,1,,,,,トヨタコニックアルファ,0
1594,8010401073231,登記記録の閉鎖等,0,2025-04-03,2025-03-21,株式会社チーム・ファクトリー,,株式会社,神奈川県,横浜市西区,高島１丁目２番５号３階,,14,103,2200011,,,2025-03-21,清算の結了等,,,2015-10-05,1,,,,,チームファクトリー,0
1599,8010401149799,登記記録の閉鎖等,0,2025-04-03,2025-03-31,株式会社ＭＶホールディングス,,株式会社,愛知県,名古屋市中区,栄１丁目２９番２９号,,23,106,4600008,,,2025-03-31,合併による解散等,1011001164402,令和７年３月１日東京都目黒区自由が丘２‐１６‐１２ＲＪ３株式会社ＭＶホールディングス（1011001164402）に合併し解散,2019-12-11,1,,,,,エムブイホールディングス,0
1639,8011103011875,登記記録の閉鎖等,0,2025-04-03,2025-03-19,合同会社メディアクルー,,合同会社,東京都,新宿区,若松町８番６－１１０３号,,13,104,1620056,,,2025-03-19,清算の結了等,,,2022-06-21,1,,,,,メディアクルー,0
1641,8011301024638,登記記録の閉鎖等,0,2025-04-03,2025-03-31,とわづくり株式会社,,株式会社,東京都,杉並区,堀ノ内３丁目４９番３号スペース２階,,13,115,1660013,,,2025-03-31,清算の結了等,,,2018-11-27,1,,,,,トワヅクリ,0
1646,8011702004016,登記記録の閉鎖等,0,2025-04-03,2025-04-01,有限会社小池ニット,,有限会社,東京都,江戸川区,平井７丁目３４番３１号,,13,123,1320035,,,2025-04-01,清算の結了等,,,2015-10-05,1,,,,,コイケニット,0
1653,8013302000931,登記記録の閉鎖等,0,2025-04-03,2025-03-21,有限会社稲毛屋酒店,,有限会社,東京都,豊島区,千早２丁目２８番８号,,13,116,1710044,,,2025-03-21,清算の結了等,,,2015-10-05,1,,,,,イナゲヤサケテン,0
1654,8020001040886,登記記録の閉鎖等,0,2025-04-03,2025-03-21,株式会社神奈川ソイル,,株式会社,神奈川県,横浜市磯子区,丸山２丁目１２番１５号,,14,107,2350011,,,2025-03-21,清算の結了等,,,2015-10-05,1,,,,,,0
1658,8020002081921,登記記録の閉鎖等,0,2025-04-03,2025-03-21,有限会社山岸デザイン事務所,,有限会社,神奈川県,川崎市幸区,戸手本町１丁目１１７番地２,,14,132,2120023,,,2025-03-21,清算の結了等,,,2015-10-05,1,,,,,ヤマギシデザインジムショ,0
1668,8030001144793,登記記録の閉鎖等,0,2025-04-03,2025-03-28,株式会社Ｃａｆｅ′ｌｏｕｐ　Ａｚ,,株式会社,埼玉県,蓮田市,末広１丁目４番１５号,,11,238,3490124,,,2025-03-28,清算の結了等,,,2021-10-13,1,,,,,カフェルアズ,0
1677,8030005021139,登記記録の閉鎖等,0,2025-04-03,2025-03-28,一般社団法人花蔵,,その他の設立登記法人,埼玉県,深谷市,上柴町西５丁目７番地１２６,,11,218,3660052,,,2025-03-28,清算の結了等,,,2023-02-09,1,,,,,カグラ,0
1680,8040002041213,登記記録の閉鎖等,0,2025-04-03,2025-03-18,有限会社タブロー,,有限会社,千葉県,千葉市緑区,あすみが丘８丁目１７番地５号,,12,105,2670066,,,2025-03-18,清算の結了等,,,2015-10-05,1,,,,,タブロー,0
1697,8100001031737,登記記録の閉鎖等,0,2025-04-03,2025-03-26,サロンドララ株式会社,,株式会社,長野県,佐久市,志賀３５８８番地１,,20,217,3850006,,,2025-03-26,清算の結了等,,,2018-11-06,1,,,,,サロンドララ,0
1701,8100005009201,登記記録の閉鎖等,0,2025-04-03,2025-03-26,特定非営利活動法人いいさとねっと,,その他の設立登記法人,長野県,上伊那郡飯島町,飯島２３２９番地７,,20,384,3993702,,,2025-03-26,清算の結了等,,,2015-10-05,1,,,,,イイサトネット,0
1704,8110002025365,登記記録の閉鎖等,0,2025-04-03,2025-03-28,有限会社和泉屋,,有限会社,新潟県,十日町市,本町１丁目下２７８番地,,15,210,9480083,,,2025-03-28,清算の結了等,,,2015-10-05,1,,,,,イズミヤ,0
1726,8130001009771,登記記録の閉鎖等,0,2025-04-03,2025-04-01,株式会社吉水園,,株式会社,京都府,京都市伏見区,小栗栖小阪町８５番地４４,,26,109,6011455,,,2025-04-01,清算の結了等,,,2015-10-05,1,,,,,ヨシミズエン,0
1740,8140002003640,登記記録の閉鎖等,0,2025-04-03,2025-03-31,有限会社サワテック,,有限会社,兵庫県,神戸市灘区,篠原南町１丁目６番３１－１０５号,,28,102,6570059,,,2025-03-31,清算の結了等,,,2015-10-05,1,,,,,サワテック,0
1753,8180002021498,登記記録の閉鎖等,0,2025-04-03,2025-03-31,有限会社サンテク,,有限会社,愛知県,名古屋市天白区,山郷町３番地,,23,116,4680032,,,2025-03-31,清算の結了等,,,2015-10-05,1,,,,,サンテク,0
1761,8200002016727,登記記録の閉鎖等,0,2025-04-03,2025-03-28,有限会社高井プレス,,有限会社,岐阜県,加茂郡富加町,滝田１６６０番地,,21,502,5013305,,,2025-03-28,清算の結了等,,,2015-10-05,1,,,,,タカイプレス,0
1769,8210005005635,登記記録の閉鎖等,0,2025-04-03,2025-03-27,松田生産森林組合,,その他の設立登記法人,福井県,勝山市,荒土町松田第１号１２番地,,18,206,9110042,,,2025-03-27,清算の結了等,,,2015-10-05,1,,,,,マツタ,0
1773,8220002008929,登記記録の閉鎖等,0,2025-04-03,2025-03-27,有限会社エルフ,,有限会社,石川県,白山市,法仏町５２５番地,,17,210,9240076,,,2025-03-27,清算の結了等,,,2015-10-05,1,,,,,エルフ,0
1774,8220003001247,登記記録の閉鎖等,0,2025-04-03,2025-03-31,合名会社紫水,,合名会社,石川県,輪島市,熊野町ロの１番地の２,,17,204,9280016,,,2025-03-31,合併による解散等,4220001016820,令和７年３月３１日石川県七尾市盤若野町カ部４番地２日興商事株式会社（4220001016820）に合併し解散,2015-10-05,1,,,,,シスイ,0
1775,8240001000141,登記記録の閉鎖等,0,2025-04-03,2025-03-31,株式会社アイジィー通信,,株式会社,広島県,広島市西区,西観音町８番８号,,34,104,7330037,,,2025-03-31,清算の結了等,,,2015-10-05,1,,,,,アイジィーツウシン,0
1790,8300001006280,登記記録の閉鎖等,0,2025-04-03,2025-03-31,株式会社サガシキ環境開発,,株式会社,佐賀県,佐賀市,高木瀬西６丁目３番１号,,41,201,8490921,,,2025-03-31,合併による解散等,1300001000380,令和７年３月３１日佐賀市高木瀬西六丁目３番２号株式会社サガシキ（1300001000380）に合併し解散,2015-10-05,1,,,,,サガシキカンキョウカイハツ,0
1803,8330002027174,登記記録の閉鎖等,0,2025-04-03,2025-03-31,スペースメンテナンス株式会社,,株式会社,熊本県,八代市,島田町９６１番地の２,,43,202,8660827,,,2025-03-31,清算の結了等,,,2015-10-05,1,,,,,スペースメンテナンス,0
1824,8470002003624,登記記録の閉鎖等,0,2025-04-03,2025-03-31,昌栄海運有限会社,,有限会社,香川県,高松市,郷東町７９２番地,,37,201,7618031,,,2025-03-31,清算の結了等,,,2015-10-05,1,,,,,ショウエイカイウン,0
1861,9010901040052,登記記録の閉鎖等,0,2025-04-03,2025-03-27,保険プロテクトジャパン株式会社,,株式会社,東京都,府中市,小柳町２丁目１２番地の１プランタン細野２０３,,13,206,1830013,,,2025-03-27,清算の結了等,,,2017-05-10,1,,,,,ホケンプロテクトジャパン,0
1862,9011001042237,登記記録の閉鎖等,0,2025-04-03,2025-03-04,株式会社マグスタイル,,株式会社,東京都,渋谷区,神宮前６丁目２７番８号,,13,113,1500001,,,2025-03-04,合併による解散等,7011001016671,令和７年３月１日東京都渋谷区神宮前六丁目２７番８号株式会社ナイスクラップ（7011001016671）に合併し解散,2015-10-05,1,,,,,マグスタイル,0
1875,9011301004993,登記記録の閉鎖等,0,2025-04-03,2025-04-01,東榮石油販賣株式会社,,株式会社,東京都,杉並区,久我山５丁目２９番２号,,13,115,1680082,,,2025-04-01,清算の結了等,,,2015-10-05,1,,,,,トウエイセキユハンバイ,0
1878,9011401021583,登記記録の閉鎖等,0,2025-04-03,2025-03-28,Ｇｒａｔｅｆｕｌ　Ｄｉｎｉｎｇ株式会社,,株式会社,東京都,板橋区,赤塚新町１丁目２１番１号豊嶋屋ビル４階,,13,119,1750093,,,2025-03-28,清算の結了等,,,2019-01-17,1,,,,,グレイトフルダイニング,0
1882,9011801033088,登記記録の閉鎖等,0,2025-04-03,2025-03-31,株式会社ＭＭｓ,,株式会社,東京都,葛飾区,東新小岩３丁目９番２号,,13,122,1240023,,,2025-03-31,清算の結了等,,,2017-03-30,1,,,,,エムエムエス,0
1892,9020001153753,登記記録の閉鎖等,0,2025-04-03,2025-03-21,株式会社ザシティ埼玉,,株式会社,神奈川県,横浜市神奈川区,鶴屋町３丁目３３番地の８アーバンセンター横浜ウエスト３Ｆ,,14,102,2210835,,,2025-03-21,合併による解散等,8020001044862,令和７年３月２１日横浜市神奈川区鶴屋町三丁目３３番地の８アーバンセンター横浜ウエスト３Ｆ株式会社ザシティ（8020001044862）に合併し解散,2023-10-04,1,,,,,ザシティサイタマ,0
1896,9021001052680,登記記録の閉鎖等,0,2025-04-03,2025-04-02,株式会社グリンシップ,,株式会社,神奈川県,茅ヶ崎市,東海岸南３丁目１２番１２号,,14,207,2530054,,,2025-04-02,清算の結了等,,,2015-10-05,1,,,,,グリンシップ,0
1897,9021002026477,登記記録の閉鎖等,0,2025-04-03,2025-04-01,有限会社ケイエス商事,,有限会社,神奈川県,相模原市南区,若松５丁目４番７号,,14,153,2520334,,,2025-04-01,清算の結了等,,,2015-10-05,1,,,,,ケイエスショウジ,0
1914,9040001123886,登記記録の閉鎖等,0,2025-04-03,2025-03-24,株式会社ｉ．ｍｏ,,株式会社,千葉県,茂原市,粟生野字北蓮沼４番１,,12,210,2994106,,,2025-03-24,清算の結了等,,,2022-06-20,1,,,,,アイモ,0
1916,9040002072257,登記記録の閉鎖等,0,2025-04-03,2025-03-18,有限会社石井瓦店,,有限会社,千葉県,市原市,平田８１９番地,,12,219,2900053,,,2025-03-18,清算の結了等,,,2015-10-05,1,,,,,イシイカワラテン,0
1921,9050005006376,登記記録の閉鎖等,0,2025-04-03,2025-03-24,行方商業協同組合,,その他の設立登記法人,茨城県,行方市,麻生１２２１番地,,08,233,3113832,,,2025-03-24,清算の結了等,,,2015-10-05,1,,,,,ナメカタショウギョウ,0
1924,9080102012357,登記記録の閉鎖等,0,2025-04-03,2025-03-26,有限会社ストーンクラフトツール,,有限会社,静岡県,駿東郡清水町,伏見７８１番地の４,,22,341,4110907,,,2025-03-26,清算の結了等,,,2015-10-05,1,,,,,ストーンクラフトツール,0
1925,9080401002356,登記記録の閉鎖等,0,2025-04-03,2025-03-26,株式会社城北設計事務所,,株式会社,静岡県,浜松市中央区,城北２丁目１６番３号,,22,138,4328011,,,2025-03-26,清算の結了等,,,2025-03-07,1,,,,,ジョウホクセッケイジムショ,0
1958,9140005020129,登記記録の閉鎖等,0,2025-04-03,2025-03-31,特定非営利活動法人すもと共生ネットワーク,,その他の設立登記法人,兵庫県,洲本市,物部３丁目３番８号,,28,205,6560051,,,2025-03-31,清算の結了等,,,2015-10-05,1,,,,,スモトキョウセイネットワーク,0
1965,9180001007225,登記記録の閉鎖等,0,2025-04-03,2025-03-31,株式会社ハチブン,,株式会社,愛知県,海部郡蟹江町,宝４丁目１４番地,,23,425,4970030,,,2025-03-31,清算の結了等,,,2015-10-05,1,,,,,ハチブン,0
1974,9180005018020,登記記録の閉鎖等,0,2025-04-03,2025-03-28,特定非営利活動法人ＮＰＯ農福連,,その他の設立登記法人,愛知県,名古屋市天白区,植田東２丁目５０４番地ライオンズマンション植田４０１号,,23,116,4680006,,,2025-03-28,清算の結了等,,,2018-11-01,1,,,,,エヌピーオーノーフクレン,0
1979,9210005007977,登記記録の閉鎖等,0,2025-04-03,2025-03-28,福井精光協同組合,,その他の設立登記法人,福井県,鯖江市,石田下町第７号１２番地,,18,207,9160081,,,2025-03-28,清算の結了等,,,2015-10-05,1,,,,,フクイセイコウ,0
1980,9210005009172,登記記録の閉鎖等,0,2025-04-03,2025-03-26,特定非営利活動法人青の里地球まるごと会議,,その他の設立登記法人,福井県,大飯郡高浜町,宮崎第７３号５番地２,,18,481,9192225,,,2025-03-26,清算の結了等,,,2015-10-05,1,,,,,アオノサトチキュウマルゴトカイギ,0
2014,9300002011238,登記記録の閉鎖等,0,2025-04-03,2025-04-01,株式会社共栄建設,,株式会社,佐賀県,唐津市,鏡４３９３番地２,,41,202,8470022,,,2025-04-01,清算の結了等,,,2015-10-05,1,,,,,キョウエイケンセツ,0
2025,9360003007378,登記記録の閉鎖等,0,2025-04-03,2025-03-31,農業生産法人合同会社ホロスファーム,,合同会社,沖縄県,うるま市,与那城宮城２８８０番地１７,,47,213,9042423,,,2025-03-31,清算の結了等,,,2015-12-11,1,,,,,ホロスファーム,0
2027,9390001010810,登記記録の閉鎖等,0,2025-04-03,2025-03-31,株式会社りんご苑クリエイト,,株式会社,山形県,東置賜郡高畠町,大字高畠２１３０番地の３,,06,381,9920351,,,2025-03-31,合併による解散等,3390001010460,令和７年３月３１日山形県東置賜郡高畠町大字高畠２１３０番地の３株式会社りんご苑（3390001010460）に合併し解散,2015-10-05,1,,,,,リンゴエンクリエイト,0
2043,9500001001756,登記記録の閉鎖等,0,2025-04-03,2025-03-31,株式会社さかもと本店,,株式会社,愛媛県,松山市,三番町５丁目２番地９,,38,201,7900003,,,2025-03-31,清算の結了等,,,2015-10-05,1,,,,,サカモトホンテン,0
2044,9500001004206,登記記録の閉鎖等,0,2025-04-03,2025-03-31,株式会社三恵商事,,株式会社,愛媛県,松山市,内宮町３７４番地４,,38,201,7992654,,,2025-03-31,清算の結了等,,,2015-10-05,1,,,,,ミエショウジ,0
