sequenceNumber,corporateNumber,process,correct,updateDate,changeDate,name,nameImageId,kind,prefectureName,cityName,streetNumber,addressImageId,prefectureCode,cityCode,postCode,addressOutside,addressOutsideImageId,closeDate,closeCause,successorCorporateNumber,changeCause,assignmentDate,latest,enName,enPrefectureName,enCityName,enAddressOutside,furigana,hihyoji
10,1010001252976,新規,0,2025-03-10,2025-03-10,東京エネルギー株式会社,,株式会社,東京都,中央区,銀座３丁目４番１号大倉別館５階,,13,102,1040061,,,,,,,2025-03-10,1,,,,,トウキョウエネルギー,0
17,1010005039692,新規,0,2025-03-10,2025-03-10,一般社団法人日本オープンイノベーション研究会,,その他の設立登記法人,東京都,文京区,後楽２丁目２番２３号住友不動産飯田橋ビル２号館３Ｆ,,13,105,1120004,,,,,,,2025-03-10,1,,,,,ニホンオープンイノベーションケンキュウカイ,0
18,1010005039701,新規,0,2025-03-10,2025-03-10,一般社団法人ＭＡＥ,,その他の設立登記法人,東京都,中央区,日本橋３丁目３番１１号第一中央ビル５階,,13,102,1030027,,,,,,,2025-03-10,1,,,,,エムエーイー,0
23,1010401188738,新規,0,2025-03-10,2025-03-10,株式会社エンパワメントサービス,,株式会社,東京都,港区,西新橋１丁目２０番３－１２０２号,,13,103,1050003,,,,,,,2025-03-10,1,,,,,エンパワメントサービス,0
24,1010401188746,新規,0,2025-03-10,2025-03-10,株式会社アプリエイト,,株式会社,東京都,港区,南青山２丁目２番１５号ウィン青山９４２,,13,103,1070062,,,,,,,2025-03-10,1,,,,,アプリエイト,0
26,1010403034592,新規,0,2025-03-10,2025-03-10,Ｈｕｎｔｅｒマスターリース合同会社,,合同会社,東京都,港区,虎ノ門２丁目６番１号,,13,103,1050001,,,,,,,2025-03-10,1,,,,,ハンターマスターリース,0
29,1010501053759,新規,0,2025-03-10,2025-03-10,株式会社米茂,,株式会社,東京都,台東区,根岸１丁目５番２－５０５号,,13,106,1100003,,,,,,,2025-03-10,1,,,,,ヨネシゲ,0
33,1010601066891,新規,0,2025-03-10,2025-03-10,ＮＳホールディングス株式会社,,株式会社,東京都,墨田区,立花２丁目１番１１号,,13,107,1310043,,,,,,,2025-03-10,1,,,,,エヌエスホールディングス,0
35,1010701047255,新規,0,2025-03-10,2025-03-10,株式会社エンリレーションズ,,株式会社,東京都,品川区,大井１丁目２３番１１号,,13,109,1400014,,,,,,,2025-03-10,1,,,,,エンリレーションズ,0
36,1010701047338,新規,0,2025-03-10,2025-03-10,株式会社クラッチフィールド,,株式会社,東京都,品川区,旗の台３丁目１６－９,,13,109,1420064,,,,,,,2025-03-10,1,,,,,クラッチフィールド,0
37,1010701047354,新規,0,2025-03-10,2025-03-10,株式会社ＩＤＴ,,株式会社,東京都,品川区,東品川３丁目１７－４－３１０,,13,109,1400002,,,,,,,2025-03-10,1,,,,,アイディーティー,0
38,1010701047362,新規,0,2025-03-10,2025-03-10,株式会社Ｂｌｉｓｓｌｉｎｋ,,株式会社,東京都,品川区,上大崎３丁目３－５新陽ＣＫビル１０３,,13,109,1410021,,,,,,,2025-03-10,1,,,,,ブリスリンク,0
48,1011001168221,新規,0,2025-03-10,2025-03-10,株式会社吉田商店,,株式会社,東京都,渋谷区,幡ヶ谷２丁目８番９号,,13,113,1510072,,,,,,,2025-03-10,1,,,,,ヨシダショウテン,0
52,1011103015635,新規,0,2025-03-10,2025-03-10,ＫＡＭＩＫＡＺＥ合同会社,,合同会社,東京都,新宿区,西新宿６丁目１１Ｄタワー西新宿２６０５,,13,104,1600023,,,,,,,2025-03-10,1,,,,,カミカゼ,0
54,1011303005428,新規,0,2025-03-10,2025-03-10,Ｃａｍｅｌｉａ　Ｄｅｓｉｇｎｗｏｒｋｓ合同会社,,合同会社,東京都,杉並区,下井草４丁目１９番２号,,13,115,1670022,,,,,,,2025-03-10,1,,,,,カメリアデザインワークス,0
59,1011601028477,新規,0,2025-03-10,2025-03-10,株式会社ＷＫ２サービス,,株式会社,東京都,練馬区,東大泉３丁目８番３号ＬＡＢＯＸ１Ｆ,,13,120,1780063,,,,,,,2025-03-10,1,,,,,ダブルケーツーサービス,0
62,1011701028138,新規,0,2025-03-10,2025-03-10,ＴＯＫＩＯ　ＳＴＵＤＹＯ株式会社,,株式会社,東京都,江戸川区,宇喜田町１４５５番地３,,13,123,1340082,,,,,,,2025-03-10,1,,,,,トキオスタジオ,0
63,1011803006727,新規,0,2025-03-10,2025-03-10,合同会社博愛興業,,合同会社,東京都,足立区,保木間５丁目１８－１０,,13,121,1210064,,,,,,,2025-03-10,1,,,,,ハクアイコウギョウ,0
66,1012801023796,新規,0,2025-03-10,2025-03-10,株式会社あけぼの,,株式会社,東京都,国立市,東４丁目１－１０サンライズ国立１０４号,,13,215,1860002,,,,,,,2025-03-10,1,,,,,アケボノ,0
67,1012801023805,新規,0,2025-03-10,2025-03-10,株式会社ワークウォーター工業,,株式会社,東京都,立川市,富士見町５丁目１９番７号,,13,202,1900013,,,,,,,2025-03-10,1,,,,,ワークウォーターコウギョウ,0
68,1012801023813,新規,0,2025-03-10,2025-03-10,株式会社ランチパッドデザイン,,株式会社,東京都,立川市,幸町２丁目９番地の５,,13,202,1900002,,,,,,,2025-03-10,1,,,,,ランチパッドデザイン,0
69,1012803003656,新規,0,2025-03-10,2025-03-10,合同会社高梨企画,00138266,合同会社,東京都,昭島市,宮沢町５１９番地４３,,13,207,1960024,,,,,,,2025-03-10,1,,,,,タカナシキカク,0
72,1013301053879,新規,0,2025-03-10,2025-03-10,日本上光電株式会社,,株式会社,東京都,豊島区,南長崎３丁目４２番１９号ライフピア椎名町２０２号,,13,116,1710052,,,,,,,2025-03-10,1,,,,,ニホンジョウコウデン,0
73,1013301053887,新規,0,2025-03-10,2025-03-10,株式会社ＳｏｌｏｐｔｉＬｉｎｋ,,株式会社,東京都,豊島区,東池袋２丁目６２番８号ビッグオフィスプラザ池袋８０８,,13,116,1700013,,,,,,,2025-03-10,1,,,,,ソルオプティリンク,0
74,1013301053895,新規,0,2025-03-10,2025-03-10,株式会社ＲＥＡＬＩＺＥ．ＨＵＢ,,株式会社,東京都,豊島区,西池袋１丁目１７番７号池袋ルミエールビル４階ｃｏ－ｂａ,,13,116,1710021,,,,,,,2025-03-10,1,,,,,リアライズハブ,0
75,1013301053904,新規,0,2025-03-10,2025-03-10,イリスコンサルティング株式会社,,株式会社,東京都,豊島区,東池袋２丁目４４番１号小林ビル３０３号,,13,116,1700013,,,,,,,2025-03-10,1,,,,,イリスコンサルティング,0
78,1020001161706,新規,0,2025-03-10,2025-03-10,株式会社ユーティー,,株式会社,神奈川県,川崎市川崎区,旭町１丁目１１番９号,,14,131,2100808,,,,,,,2025-03-10,1,,,,,ユーティー,0
79,1020001161714,新規,0,2025-03-10,2025-03-10,ＣｒａｙｏｎＰａｎｄａ．ｔｏｋｙｏ株式会社,,株式会社,神奈川県,川崎市高津区,二子６丁目１３番１アーバンパーク溝の口１０６号,,14,134,2130002,,,,,,,2025-03-10,1,,,,,クレヨンパンダトウキョウ,0
80,1020001161747,新規,0,2025-03-10,2025-03-10,株式会社田中興業,,株式会社,神奈川県,横浜市瀬谷区,三ツ境８１番地１３三ツ境南住宅４棟２０４号,,14,114,2460022,,,,,,,2025-03-10,1,,,,,タナカコウギョウ,0
83,1020003027995,新規,0,2025-03-10,2025-03-10,合同会社Ｊｅｌｌｙ　Ｆ,,合同会社,神奈川県,横浜市西区,浅間町１丁目４番３号ウィザードビル４０２,,14,103,2200072,,,,,,,2025-03-10,1,,,,,ジェリーエフ,0
84,1020005016732,新規,0,2025-03-10,2025-03-10,医療法人にじのわ,,その他の設立登記法人,神奈川県,横浜市港北区,北新横浜１丁目２番地３三橋ビル２階－Ｄ,,14,109,2230059,,,,,,,2025-03-10,1,,,,,ニジノワ,0
101,1030003026278,新規,0,2025-03-10,2025-03-10,合同会社アリアシェルタ,,合同会社,埼玉県,川口市,東領家２丁目２０番５号,,11,203,3320003,,,,,,,2025-03-10,1,,,,,アリアシェルタ,0
102,1030005022069,新規,0,2025-03-10,2025-03-10,農事組合法人柳沢カンパニー,,その他の設立登記法人,埼玉県,加須市,東栄１丁目９－１８オフィス重本Ｅ,,11,210,3470064,,,,,,,2025-03-10,1,,,,,,0
105,1040005022679,新規,0,2025-03-10,2025-03-10,一般社団法人カトリンク,,その他の設立登記法人,千葉県,香取市,佐原イ５４７番地４,,12,236,2870003,,,,,,,2025-03-10,1,,,,,カトリンク,0
107,1060003005460,新規,0,2025-03-10,2025-03-10,合同会社はろ,,合同会社,栃木県,宇都宮市,海道町７番地１２,,09,201,3210971,,,,,,,2025-03-10,1,,,,,ハロ,0
121,1100001038375,新規,0,2025-03-10,2025-03-10,Ｆｕｍｏｔｏ　Ｈａｋｕｂａ株式会社,,株式会社,長野県,北安曇郡小谷村,大字千国乙５３８番地１,,20,486,3999422,,,,,,,2025-03-10,1,,,,,フモトハクバ,0
124,1110001039100,新規,0,2025-03-10,2025-03-10,株式会社てっぺい新潟,,株式会社,新潟県,小千谷市,上ノ山４丁目８番１６号,,15,208,9470026,,,,,,,2025-03-10,1,,,,,テッペイニイガタ,0
143,1120001273383,新規,0,2025-03-10,2025-03-10,株式会社ＩＮＡＤ,,株式会社,大阪府,大阪市淀川区,木川東２丁目２０番８号,,27,123,5320012,,,,,,,2025-03-10,1,,,,,イナド,0
144,1120001273474,新規,0,2025-03-10,2025-03-10,株式会社ｅｎｄｌｅｓｓ,,株式会社,大阪府,大阪市北区,南扇町２－１１エスライズ梅田東２０５,,27,127,5300052,,,,,,,2025-03-10,1,,,,,エンドレス,0
145,1120003028777,新規,0,2025-03-10,2025-03-10,合同会社Ｍｙ　Ｃａｎｖａｓ,,合同会社,大阪府,大阪市天王寺区,上汐４丁目５番８－２０１号,,27,109,5430002,,,,,,,2025-03-10,1,,,,,マイキャンバス,0
146,1120003028810,新規,0,2025-03-10,2025-03-10,サント・テラス合同会社,,合同会社,大阪府,大阪市淀川区,西三国３丁目３番２５号１階,,27,123,5320006,,,,,,,2025-03-10,1,,,,,サントテラス,0
149,1120101071183,新規,0,2025-03-10,2025-03-10,株式会社ＨｉｒｏＳｉｎ,,株式会社,大阪府,羽曳野市,向野３丁目１１番２７号,,27,222,5830883,,,,,,,2025-03-10,1,,,,,ヒロシン,0
150,1120101071200,新規,0,2025-03-10,2025-03-10,株式会社ＫＴＴ,,株式会社,大阪府,堺市北区,金岡町２７９２番地６,,27,146,5918022,,,,,,,2025-03-10,1,,,,,ケーティーティー,0
155,1130003010263,新規,0,2025-03-10,2025-03-10,興栄商店合同会社,,合同会社,京都府,京都市伏見区,醍醐中山町３９－２,,26,109,6011373,,,,,,,2025-03-10,1,,,,,コウエイショウテン,0
160,1140001137470,新規,0,2025-03-10,2025-03-10,株式会社ＰＥＮＴＯＲＹ,,株式会社,兵庫県,神戸市長田区,大日丘町２丁目７番２号,,28,106,6530872,,,,,,,2025-03-10,1,,,,,ペントリー,0
161,1140001137652,新規,0,2025-03-10,2025-03-10,株式会社ＧＯＷＤ,,株式会社,兵庫県,伊丹市,中央５丁目２番６号１階,,28,207,6640851,,,,,,,2025-03-10,1,,,,,ジーオーダブルディー,0
163,1150001027927,新規,0,2025-03-10,2025-03-10,ＳａｎＳｔｅｅｌ株式会社,,株式会社,奈良県,北葛城郡河合町,久美ケ丘２丁目１２番地６,,29,427,6360063,,,,,,,2025-03-10,1,,,,,サンスチール,0
165,1160003003413,新規,0,2025-03-10,2025-03-10,合同会社ＢａｓｉｌＨｏｕｓｅ,,合同会社,滋賀県,大津市,比叡平２丁目２５番２６号,,25,201,5200016,,,,,,,2025-03-10,1,,,,,バジルハウス,0
166,1170001018528,新規,0,2025-03-10,2025-03-10,株式会社ライトフォース,,株式会社,和歌山県,和歌山市,西布経丁１丁目１番地ルシェール２Ｆ,,30,201,6408211,,,,,,,2025-03-10,1,,,,,ライトフォース,0
173,1180001165757,新規,0,2025-03-10,2025-03-10,株式会社ＹＴ,,株式会社,愛知県,名古屋市北区,丸新町２１０番地,,23,103,4620063,,,,,,,2025-03-10,1,,,,,ワイティー,0
176,1180301039561,新規,0,2025-03-10,2025-03-10,株式会社ＨＳＩヒスイ,,株式会社,愛知県,豊田市,千石町５丁目１８番地,,23,211,4710016,,,,,,,2025-03-10,1,,,,,エイチエスアイヒスイ,0
179,1180303006477,新規,0,2025-03-10,2025-03-10,合同会社小椋,,合同会社,愛知県,岡崎市,大和町字平野３４番地５,,23,202,4440931,,,,,,,2025-03-10,1,,,,,オグラ,0
181,1190001032056,新規,0,2025-03-10,2025-03-10,株式会社７２Ｐｒｏｊｅｃｔ,,株式会社,三重県,鈴鹿市,稲生町９５９０－１１７,,24,207,5100201,,,,,,,2025-03-10,1,,,,,セブンツープロジェクト,0
184,1210001020090,新規,0,2025-03-10,2025-03-10,ＬＥＯ株式会社,,株式会社,福井県,坂井市,春江町江留下第３号１８番地２,,18,210,9190415,,,,,,,2025-03-10,1,,,,,レオ,0
205,1290001109240,新規,0,2025-03-10,2025-03-10,株式会社くぼやま,,株式会社,福岡県,八女市,本町２番地５４９,,40,210,8340031,,,,,,,2025-03-10,1,,,,,クボヤマ,0
207,1290003016476,新規,0,2025-03-10,2025-03-10,Ｉｎｄｉｇｒｏｗ合同会社,,合同会社,福岡県,福岡市中央区,大濠１丁目１３番１５号,,40,133,8100052,,,,,,,2025-03-10,1,,,,,インディグロウ,0
221,1350001019425,新規,0,2025-03-10,2025-03-10,株式会社宮崎創研ファーム,,株式会社,宮崎県,児湯郡川南町,大字川南１２２０番地１,,45,405,8891301,,,,,,,2025-03-10,1,,,,,ミヤザキソウケンファーム,0
224,1370001052333,新規,0,2025-03-10,2025-03-10,株式会社ヒューマン・アソシエイツ,,株式会社,宮城県,仙台市青葉区,一番町２丁目６－１シティハウス一番町中央２Ｆ,,04,101,9800811,,,,,,,2025-03-10,1,,,,,ヒューマンアソシエイツ,0
225,1380001035122,新規,0,2025-03-10,2025-03-10,株式会社翔尋建設,,株式会社,福島県,須賀川市,高久田境３４番地９,,07,207,9620837,,,,,,,2025-03-10,1,,,,,ショウジンケンセツ,0
226,1380001035139,新規,0,2025-03-10,2025-03-10,株式会社みらい,,株式会社,福島県,須賀川市,丸田町１６６番地,,07,207,9620022,,,,,,,2025-03-10,1,,,,,ミライ,0
227,1380001035147,新規,0,2025-03-10,2025-03-10,株式会社ＦＯＲＴＵＮＡ,,株式会社,福島県,いわき市,小名浜大原字堀米２２０番地の１０,,07,204,9718111,,,,,,,2025-03-10,1,,,,,フォルトゥナ,0
229,1390001017904,新規,0,2025-03-10,2025-03-10,株式会社Ｃｙｂｅｒ　Ｔｒｏｎ,,株式会社,山形県,山形市,幸町６番１号,,06,201,9900038,,,,,,,2025-03-10,1,,,,,サイバートロン,0
236,1430001093817,新規,0,2025-03-10,2025-03-10,株式会社フローライト,,株式会社,北海道,札幌市東区,北十八条東９丁目１番３７号,,01,103,0650018,,,,,,,2025-03-10,1,,,,,フローライト,0
238,1430003017311,新規,0,2025-03-10,2025-03-10,ジャパウライフ合同会社,,合同会社,北海道,虻田郡ニセコ町,字有島８番地５３,,01,395,0481531,,,,,,,2025-03-10,1,,,,,ジャパウライフ,0
239,1430003017352,新規,0,2025-03-10,2025-03-10,合同会社ＣＲＥＥＤ,,合同会社,北海道,札幌市中央区,南七条西２３丁目２番２０号,,01,101,0640807,,,,,,,2025-03-10,1,,,,,クリード,0
241,1480005007066,新規,0,2025-03-10,2025-03-10,一般社団法人Ａ．Ｓ．Ｄ．Ａ,,その他の設立登記法人,徳島県,徳島市,川内町米津２６番地２,,36,201,7710139,,,,,,,2025-03-10,1,,,,,エーエスディーエー,0
252,2010001252769,新規,0,2025-03-10,2025-03-10,株式会社ＦｕｈＥＮ,,株式会社,東京都,中央区,築地２丁目１０番６号Ｄａｉｗａ築地駅前ビル１０階,,13,102,1040045,,,,,,,2025-03-10,1,,,,,フヘン,0
253,2010001252918,新規,0,2025-03-10,2025-03-10,株式会社ここはな,,株式会社,東京都,中央区,銀座６丁目４番１８号マキシ・ド・ピアビル２階,,13,102,1040061,,,,,,,2025-03-10,1,,,,,ココハナ,0
254,2010001252926,新規,0,2025-03-10,2025-03-10,ゴウイン株式会社,,株式会社,東京都,千代田区,神田神保町３丁目１１番１安田神保町マンション６０７号室,,13,101,1010051,,,,,,,2025-03-10,1,,,,,ゴウイン,0
272,2010601066908,新規,0,2025-03-10,2025-03-10,ＣＰＫ商事株式会社,,株式会社,東京都,江東区,亀戸７丁目５－８シティーマークス亀戸３０２室,,13,108,1360071,,,,,,,2025-03-10,1,,,,,シーピーケイショウジ,0
273,2010601066916,新規,0,2025-03-10,2025-03-10,株式会社ＬＣ,,株式会社,東京都,江東区,枝川１丁目４番１２－６０３号,,13,108,1350051,,,,,,,2025-03-10,1,,,,,エルシー,0
280,2011001168039,新規,0,2025-03-10,2025-03-10,株式会社ＭＩＮＯＲＩＣＡ,,株式会社,東京都,渋谷区,神泉町１０番１５号アネックス神泉３０１,,13,113,1500045,,,,,,,2025-03-10,1,,,,,ミノリカ,0
281,2011001168154,新規,0,2025-03-10,2025-03-10,ＲｅＩＮＮ株式会社,,株式会社,東京都,渋谷区,道玄坂１丁目２１番１号,,13,113,1500043,,,,,,,2025-03-10,1,,,,,リイン,0
282,2011001168162,新規,0,2025-03-10,2025-03-10,株式会社ＡＫａＦＵＪＩ,,株式会社,東京都,渋谷区,代々木２丁目１８番３号,,13,113,1510053,,,,,,,2025-03-10,1,,,,,アカフジ,0
283,2011001168303,新規,0,2025-03-10,2025-03-10,株式会社スケールアップ,,株式会社,東京都,渋谷区,渋谷２丁目９番１１号インテリックス青山通ビル２０１号室,,13,113,1500002,,,,,,,2025-03-10,1,,,,,スケールアップ,0
285,2011003021121,新規,0,2025-03-10,2025-03-10,合同会社Ｓｉｅｓｔａ,,合同会社,東京都,目黒区,原町１丁目６－４レジデンス後藤４０３,,13,110,1520011,,,,,,,2025-03-10,1,,,,,シエスタ,0
288,2011201026178,新規,0,2025-03-10,2025-03-10,株式会社８０８,,株式会社,東京都,中野区,松が丘２丁目３３番６号,,13,114,1650024,,,,,,,2025-03-10,1,,,,,ハチマルハチ,0
289,2011205002679,新規,0,2025-03-10,2025-03-10,農事組合法人ナカノ,,その他の設立登記法人,東京都,中野区,松が丘１丁目７－５石井マンションＡ５０１,,13,114,1650024,,,,,,,2025-03-10,1,,,,,ナカノ,0
293,2011403004642,新規,0,2025-03-10,2025-03-10,合同会社Ｊｕｎｏｚａ,,合同会社,東京都,板橋区,仲宿６３番地７号ＯＥＯｆｆｉｃｅＢｌｄｇ．３１１号,,13,119,1730005,,,,,,,2025-03-10,1,,,,,ジュノザ,0
294,2011501031794,新規,0,2025-03-10,2025-03-10,株式会社Ｋ‐３,,株式会社,東京都,荒川区,東尾久３丁目８番３号,,13,118,1160012,,,,,,,2025-03-10,1,,,,,ケイスリー,0
295,2011701028137,新規,0,2025-03-10,2025-03-10,シーエムディーワイ株式会社,,株式会社,東京都,江戸川区,平井２丁目１３－１０,,13,123,1320035,,,,,,,2025-03-10,1,,,,,シーエムディーワイ,0
301,2011803006726,新規,0,2025-03-10,2025-03-10,合同会社ＣＣ,,合同会社,東京都,足立区,西新井３丁目２２－５,,13,121,1230841,,,,,,,2025-03-10,1,,,,,シーシー,0
305,2012401042865,新規,0,2025-03-10,2025-03-10,株式会社千葉設計社,,株式会社,東京都,府中市,西原町３丁目１９番地の７,,13,206,1830046,,,,,,,2025-03-10,1,,,,,チバセッケイシャ,0
308,2012405005083,新規,0,2025-03-10,2025-03-10,医療法人社団翔紘会,,その他の設立登記法人,東京都,府中市,白糸台４丁目９番地１クリニックモールむさしの台１階１０３号室,,13,206,1830011,,,,,,,2025-03-10,1,,,,,ショウコウカイ,0
309,2012701018739,新規,0,2025-03-10,2025-03-10,株式会社藤,,株式会社,東京都,西東京市,ひばりが丘２丁目８番１号,,13,229,2020001,,,,,,,2025-03-10,1,,,,,フジ,0
312,2013103001416,新規,0,2025-03-10,2025-03-10,合同会社ひまわり,,合同会社,東京都,あきる野市,山田５６８－７,,13,228,1900144,,,,,,,2025-03-10,1,,,,,ヒマワリ,0
322,2020001161770,新規,0,2025-03-10,2025-03-10,株式会社Ｒｅｖｏｍ,,株式会社,神奈川県,川崎市川崎区,榎町５番８－５０１号レクシオ川崎,,14,131,2100002,,,,,,,2025-03-10,1,,,,,リーヴォン,0
325,2020003027961,新規,0,2025-03-10,2025-03-10,合同会社アイスリー,,合同会社,神奈川県,横浜市緑区,長津田７丁目１７－１６東急ドエルアルス長津田１０１,,14,113,2260027,,,,,,,2025-03-10,1,,,,,アイスリー,0
326,2020005016731,新規,0,2025-03-10,2025-03-10,一般社団法人日本生活知識普及協会,,その他の設立登記法人,神奈川県,横浜市神奈川区,金港町５番地１４クアドリフォリオ８階,,14,102,2210056,,,,,,,2025-03-10,1,,,,,ニホンセイカツチシキフキュウキョウカイ,0
329,2021001084631,新規,0,2025-03-10,2025-03-10,株式会社ＫＡＭＡＮＯ,,株式会社,神奈川県,鎌倉市,今泉台７丁目１１番１１号,,14,204,2470053,,,,,,,2025-03-10,1,,,,,カマノ,0
330,2021001084656,新規,0,2025-03-10,2025-03-10,株式会社本音,,株式会社,神奈川県,鎌倉市,長谷５丁目８番９号,,14,204,2480016,,,,,,,2025-03-10,1,,,,,ホンネ,0
333,2021003015700,新規,0,2025-03-10,2025-03-10,おばけ合同会社,,合同会社,神奈川県,平塚市,見附町４４番１３号,,14,203,2540045,,,,,,,2025-03-10,1,,,,,オバケ,0
346,2030001165168,新規,0,2025-03-10,2025-03-10,株式会社ちちぶＦＡＲＭぷらす,,株式会社,埼玉県,秩父市,上影森１２２番地４,,11,207,3691872,,,,,,,2025-03-10,1,,,,,チチブファームプラス,0
347,2030001165234,新規,0,2025-03-10,2025-03-10,シン・ホールディングス株式会社,,株式会社,埼玉県,所沢市,大字久米５５１番地の３,,11,208,3591131,,,,,,,2025-03-10,1,,,,,シンホールディングス,0
348,2030001165250,新規,0,2025-03-10,2025-03-10,株式会社ＢＬＵＥ　ＯＷＬ,,株式会社,埼玉県,入間市,東町１丁目９番９号,,11,225,3580002,,,,,,,2025-03-10,1,,,,,ブルーアウル,0
349,2030001165283,新規,0,2025-03-10,2025-03-10,ＨＡＳＥホールディングス株式会社,,株式会社,埼玉県,川口市,大字芝５３４６番地５,,11,203,3330866,,,,,,,2025-03-10,1,,,,,ハセホールディングス,0
350,2030001165300,新規,0,2025-03-10,2025-03-10,株式会社ＩＮＧホールディングス,,株式会社,埼玉県,さいたま市中央区,本町東２丁目１０番３号,,11,105,3380003,,,,,,,2025-03-10,1,,,,,アイエヌジーホールディングス,0
351,2030001165309,新規,0,2025-03-10,2025-03-10,株式会社ＮＥＸＴＤＯＯＲ,,株式会社,埼玉県,北足立郡伊奈町,内宿台４丁目１１１－２グラン・ホワイエ３０２,,11,301,3620812,,,,,,,2025-03-10,1,,,,,ネクストドア,0
355,2030003026260,新規,0,2025-03-10,2025-03-10,合同会社オーク・ファミーリエ,,合同会社,埼玉県,さいたま市南区,大字大谷口５３８７番地ヴァンベール向ＩＩ－２０５,00138263,11,108,3360042,,,,,,,2025-03-10,1,,,,,オークファミーリエ,0
372,2070001042693,新規,0,2025-03-10,2025-03-10,株式会社池上設備工業,,株式会社,群馬県,太田市,東金井町９３７番地１,,10,205,3730022,,,,,,,2025-03-10,1,,,,,イケガミセツビコウギョウ,0
388,2110001039090,新規,0,2025-03-10,2025-03-10,株式会社ＫＲＨ,,株式会社,新潟県,長岡市,和島北野８６４番地,,15,202,9494503,,,,,,,2025-03-10,1,,,,,キクチリードホールディングス,0
394,2120001273390,新規,0,2025-03-10,2025-03-10,Ｎａｇｏｍｉ　Ｈｉｐｐｏ株式会社,,株式会社,大阪府,大阪市阿倍野区,阪南町３丁目４０－９,,27,119,5450021,,,,,,,2025-03-10,1,,,,,ナゴミヒッポ,0
395,2120001273399,新規,0,2025-03-10,2025-03-10,株式会社ＡｑｏｕｒｓＢｕｎｎｙｓ,,株式会社,大阪府,大阪市都島区,高倉町３丁目５番２１号,,27,102,5340011,,,,,,,2025-03-10,1,,,,,アクアバニーズ,0
396,2120001273432,新規,0,2025-03-10,2025-03-10,株式会社ＡＫＩシステム,,株式会社,大阪府,大阪市西淀川区,姫島３丁目７番５号,,27,113,5550033,,,,,,,2025-03-10,1,,,,,アキシステム,0
397,2120001273457,新規,0,2025-03-10,2025-03-10,タナカＢＰホールディングス株式会社,,株式会社,大阪府,大阪市北区,浮田１丁目３番１０号,,27,127,5300021,,,,,,,2025-03-10,1,,,,,タナカビーピーホールディングス,0
398,2120001273507,新規,0,2025-03-10,2025-03-10,株式会社ハラウクリーニング,,株式会社,大阪府,大阪市中央区,南船場１丁目１６番１０号,,27,128,5420081,,,,,,,2025-03-10,1,,,,,ハラウクリーニング,0
399,2120001273548,新規,0,2025-03-10,2025-03-10,株式会社ＣＬＡＲＩＡ,,株式会社,大阪府,大阪市都島区,都島本通３丁目２７番９号,,27,102,5340021,,,,,,,2025-03-10,1,,,,,クラリア,0
401,2120003028826,新規,0,2025-03-10,2025-03-10,おたんこ合同会社,,合同会社,大阪府,交野市,星田３丁目１番７号,,27,230,5760016,,,,,,,2025-03-10,1,,,,,オタンコ,0
403,2120005024823,新規,0,2025-03-10,2025-03-10,一般財団法人日本診療放射線技師能力開発協会,,その他の設立登記法人,大阪府,大阪市北区,豊崎３丁目１６番１６－３９１０号,,27,127,5310072,,,,,,,2025-03-10,1,,,,,ニホンシンリョウホウシャセンギシノウリョクカイハツキョウカイ,0
404,2120101071182,新規,0,2025-03-10,2025-03-10,株式会社ウェルビーパートナーズ,,株式会社,大阪府,堺市南区,槇塚台３丁４２番７号,,27,145,5900114,,,,,,,2025-03-10,1,,,,,ウェルビーパートナーズ,0
407,2120901050542,新規,0,2025-03-10,2025-03-10,平成協和株式会社,,株式会社,大阪府,豊中市,清風荘１丁目７番１７号,,27,203,5600041,,,,,,,2025-03-10,1,,,,,ヘイセイキョウワ,0
408,2120901050550,新規,0,2025-03-10,2025-03-10,株式会社住まいるでんき館いけだ,,株式会社,大阪府,高槻市,土室町５番１３号,,27,207,5691147,,,,,,,2025-03-10,1,,,,,スマイルデンキカンイケダ,0
409,2120905006697,新規,0,2025-03-10,2025-03-10,特定非営利活動法人ＴＥＡＭしらかわ,,その他の設立登記法人,大阪府,茨木市,新堂３丁目２番２号,,27,211,5670835,,,,,,,2025-03-10,1,,,,,,0
410,2130001079127,新規,0,2025-03-10,2025-03-10,株式会社藤建商,,株式会社,京都府,京都市西京区,大枝沓掛町２－３２,,26,111,6101106,,,,,,,2025-03-10,1,,,,,フジケンショウ,0
412,2130003010270,新規,0,2025-03-10,2025-03-10,合同会社古都ファーム,,合同会社,京都府,京都市右京区,西京極大門町２１西京極大門ハイツ３１５,,26,108,6150812,,,,,,,2025-03-10,1,,,,,コトファーム,0
422,2140001137619,新規,0,2025-03-10,2025-03-10,株式会社ｉｌ．,,株式会社,兵庫県,神戸市北区,泉台５丁目１６番地の７,,28,109,6511141,,,,,,,2025-03-10,1,,,,,イルドット,0
423,2140001137651,新規,0,2025-03-10,2025-03-10,株式会社のらネコＤＤ,,株式会社,兵庫県,川西市,東多田２丁目２８番２号,,28,217,6660122,,,,,,,2025-03-10,1,,,,,ノラネコディーディー,0
424,2140001137676,新規,0,2025-03-10,2025-03-10,株式会社的場ＳＴＯＮＥ,,株式会社,兵庫県,豊岡市,日高町岩中９２番地の４,,28,209,6695302,,,,,,,2025-03-10,1,,,,,マトバストーン,0
426,2150005009672,新規,0,2025-03-10,2025-03-10,一般社団法人シューマッハ・カレッジ・サポーターズ,,その他の設立登記法人,奈良県,生駒市,西旭ケ丘５番３８号マウンテンビラ２０３,,29,209,6300261,,,,,,,2025-03-10,1,,,,,シューマッハカレッジサポーターズ,0
428,2170003002173,新規,0,2025-03-10,2025-03-10,合同会社ＫＩＮＧＳＴＡＲ,,合同会社,和歌山県,和歌山市,六番丁１５番地,,30,201,6408154,,,,,,,2025-03-10,1,,,,,キングスター,0
434,2180001165756,新規,0,2025-03-10,2025-03-10,Ｒｉｄｄｌｅ　Ｔｉｍｅｚ株式会社,,株式会社,愛知県,名古屋市中村区,名駅３丁目４番１０号,,23,105,4500002,,,,,,,2025-03-10,1,,,,,リドルタイムズ,0
435,2180001165797,新規,0,2025-03-10,2025-03-10,シンガークレンタカー株式会社,,株式会社,愛知県,一宮市,浅野字大島１２,,23,203,4910871,,,,,,,2025-03-10,1,,,,,シンガークレンタカー,0
436,2180001165806,新規,0,2025-03-10,2025-03-10,ＡＹＥ　ＣＨＡＮ株式会社,,株式会社,愛知県,名古屋市千種区,覚王山通９丁目２８－４シンタックスビルＩＩ３０２号室,00138274,23,101,4640841,,,,,,,2025-03-10,1,,,,,エーチャン,0
442,2190001032055,新規,0,2025-03-10,2025-03-10,株式会社ヤマカワ不動産,,株式会社,三重県,津市,一身田上津部田１５０３番地３,,24,201,5140061,,,,,,,2025-03-10,1,,,,,ヤマカワフドウサン,0
448,2240003007099,新規,0,2025-03-10,2025-03-10,香林業合同会社,,合同会社,広島県,庄原市,西城町中野５６０５番地６,,34,210,7295742,,,,,,,2025-03-10,1,,,,,カオルリンギョウ,0
463,2290001109231,新規,0,2025-03-10,2025-03-10,株式会社アストラ,,株式会社,福岡県,福岡市東区,原田４丁目２４番５５－３０１号　ＥＡＳＴ棟,,40,131,8120063,,,,,,,2025-03-10,1,,,,,アストラ,0
465,2290005019674,新規,0,2025-03-10,2025-03-10,ＮＰＯ法人アキナイ,,その他の設立登記法人,福岡県,福岡市早良区,四箇２丁目１番５号,,40,137,8111103,,,,,,,2025-03-10,1,,,,,アキナイ,0
466,2290801031329,新規,0,2025-03-10,2025-03-10,株式会社笑咲苑,,株式会社,福岡県,北九州市小倉南区,志井６丁目２番７号,,40,107,8020985,,,,,,,2025-03-10,1,,,,,ニコサクエン,0
468,2290803004984,新規,0,2025-03-10,2025-03-10,図南合同会社,,合同会社,福岡県,行橋市,大字稲童３２８－３,,40,213,8240022,,,,,,,2025-03-10,1,,,,,ズミナミ,0
471,2330003010886,新規,0,2025-03-10,2025-03-10,合同会社みんしあ,,合同会社,熊本県,熊本市中央区,帯山３丁目３５番１号１０３号室,,43,101,8620924,,,,,,,2025-03-10,1,,,,,ミンシア,0
479,2370001052332,新規,0,2025-03-10,2025-03-10,株式会社Ｋ・Ｔ水産,,株式会社,宮城県,宮城郡松島町,松島字普賢堂３８－８,,04,401,9810213,,,,,,,2025-03-10,1,,,,,ケイテイスイサン,0
484,2380001035138,新規,0,2025-03-10,2025-03-10,株式会社泉沢アグリファーム,,株式会社,福島県,南相馬市,小高区水谷字宮前３６番地,,07,212,9792132,,,,,,,2025-03-10,1,,,,,イズミサワアグリファーム,0
485,2380001035146,新規,0,2025-03-10,2025-03-10,株式会社ＣＲＥＳＴ,,株式会社,福島県,須賀川市,滝字雁田１番地,,07,207,9620211,,,,,,,2025-03-10,1,,,,,クレスト,0
486,2380005012926,新規,0,2025-03-10,2025-03-10,一般社団法人Ｔ‐ａｍｉｇｏ,,その他の設立登記法人,福島県,田村市,船引町船引字馬場４５番地１,,07,211,9634312,,,,,,,2025-03-10,1,,,,,ティーアミーゴ,0
499,2430001093840,新規,0,2025-03-10,2025-03-10,株式会社龍匠,,株式会社,北海道,札幌市南区,石山東７丁目１番６０－３０７号,,01,106,0050850,,,,,,,2025-03-10,1,,,,,タクミ,0
502,2480005007065,新規,0,2025-03-10,2025-03-10,特定非営利活動法人おえっこスポーツクラブ,,その他の設立登記法人,徳島県,吉野川市,鴨島町鴨島２５２番地１吉野川市民プラザ内,,36,205,7760010,,,,,,,2025-03-10,1,,,,,オエッコスポーツクラブ,0
503,2500003003451,新規,0,2025-03-10,2025-03-10,合同会社サリト,,合同会社,愛媛県,西条市,楠甲４０５番地７,,38,206,7991302,,,,,,,2025-03-10,1,,,,,サリト,0
516,3010003046706,新規,0,2025-03-10,2025-03-10,合同会社ＳｍａｒｔＤｅｓｉｇｎｅｒ,,合同会社,東京都,中央区,晴海３丁目１３－２ＤＥＵＸＴＯＵＲＳ１３０７,,13,102,1040053,,,,,,,2025-03-10,1,,,,,スマートデザイナー,0
522,3010503007752,新規,0,2025-03-10,2025-03-10,Ｃｈｅｍｉｅ合同会社,,合同会社,東京都,台東区,上野６丁目１番６号御徒町グリーンハイツ１００５号,,13,106,1100005,,,,,,,2025-03-10,1,,,,,ケミー,0
525,3010701047311,新規,0,2025-03-10,2025-03-10,天都株式会社,,株式会社,東京都,品川区,北品川３丁目６番９号,,13,109,1400001,,,,,,,2025-03-10,1,,,,,テント,0
536,3011101110915,新規,0,2025-03-10,2025-03-10,ミネラルＴＯＫＹＯ株式会社,,株式会社,東京都,新宿区,西新宿３丁目１５番８号,,13,104,1600023,,,,,,,2025-03-10,1,,,,,ミネラルトウキョウ,0
537,3011103015633,新規,0,2025-03-10,2025-03-10,合同会社Ｔｒｉｐｔｙｃｈ,,合同会社,東京都,新宿区,西新宿３丁目３番１３号西新宿水間ビル６階,,13,104,1600023,,,,,,,2025-03-10,1,,,,,トリプティック,0
538,3011201026177,新規,0,2025-03-10,2025-03-10,株式会社ハルマイ,,株式会社,東京都,中野区,中野５丁目５２番１５号,,13,114,1640001,,,,,,,2025-03-10,1,,,,,ハルマイ,0
540,3011205002678,新規,0,2025-03-10,2025-03-10,農事組合法人赤ずきん,,その他の設立登記法人,東京都,中野区,松が丘１丁目７－５石井マンションＡ５０１,,13,114,1650024,,,,,,,2025-03-10,1,,,,,アカズキン,0
544,3011501031810,新規,0,2025-03-10,2025-03-10,咲友不動産株式会社,,株式会社,東京都,北区,志茂２丁目２９番２号,,13,117,1150042,,,,,,,2025-03-10,1,,,,,サキトモフドウサン,0
556,3012401042864,新規,0,2025-03-10,2025-03-10,株式会社ＣｏｌｌａＢｒｉｄｇｅ,,株式会社,東京都,府中市,是政４丁目８番地の１ルイシャトレ府中是政３１１,,13,206,1830014,,,,,,,2025-03-10,1,,,,,コラブリッジ,0
560,3012801023811,新規,0,2025-03-10,2025-03-10,大正産業株式会社,,株式会社,東京都,立川市,曙町３丁目５番１０号,,13,202,1900012,,,,,,,2025-03-10,1,,,,,ダイセイサンギョウ,0
566,3013301053893,新規,0,2025-03-10,2025-03-10,コイタバシ株式会社,,株式会社,東京都,豊島区,東池袋１丁目１７番１１号パークハイツ池袋１１０５号,,13,116,1700013,,,,,,,2025-03-10,1,,,,,コイタバシ,0
569,3020001161704,新規,0,2025-03-10,2025-03-10,株式会社ＴＳＵＫＵＳＵ,,株式会社,神奈川県,横浜市保土ケ谷区,岩井町３４８番地１,,14,106,2400023,,,,,,,2025-03-10,1,,,,,ツクス,0
570,3020001161720,新規,0,2025-03-10,2025-03-10,カナマルヒヤリングケア株式会社,,株式会社,神奈川県,川崎市麻生区,上麻生１丁目６番３号新百合ヶ丘マプレ１階,,14,137,2150021,,,,,,,2025-03-10,1,,,,,カナマルヒヤリングケア,0
571,3020001161745,新規,0,2025-03-10,2025-03-10,株式会社コロレ,,株式会社,神奈川県,川崎市中原区,上丸子山王町１丁目８７４番地ユーテムビル３階,,14,133,2110002,,,,,,,2025-03-10,1,,,,,コロレ,0
575,3020003027969,新規,0,2025-03-10,2025-03-10,リノベル合同会社,,合同会社,神奈川県,横浜市保土ケ谷区,東川島町２０－６－１Ｆ,,14,106,2400041,,,,,,,2025-03-10,1,,,,,リノベル,0
581,3021005013296,新規,0,2025-03-10,2025-03-10,医療法人アイビス,,その他の設立登記法人,神奈川県,座間市,相模が丘３丁目５３番１０号,,14,216,2520001,,,,,,,2025-03-10,1,,,,,アイビス,0
585,3030001165167,新規,0,2025-03-10,2025-03-10,株式会社マイリップ,,株式会社,埼玉県,新座市,東北２丁目３７番１０号高野ビル３０２号,,11,230,3520001,,,,,,,2025-03-10,1,,,,,マイリップ,0
586,3030001165200,新規,0,2025-03-10,2025-03-10,ここはれて株式会社,,株式会社,埼玉県,上尾市,大字上尾村１２６９番地１ビレッジハウス上尾向原３－１０２,,11,219,3620013,,,,,,,2025-03-10,1,,,,,ココハレテ,0
587,3030001165258,新規,0,2025-03-10,2025-03-10,株式会社あいてぃ,,株式会社,埼玉県,草加市,金明町６６１番地２,,11,221,3400052,,,,,,,2025-03-10,1,,,,,アイティ,0
588,3030001165274,新規,0,2025-03-10,2025-03-10,株式会社リバーサル,,株式会社,埼玉県,本庄市,西富田２２０番地２木村貸事務所２階,,11,211,3670035,,,,,,,2025-03-10,1,,,,,リバーサル,0
589,3030001165308,新規,0,2025-03-10,2025-03-10,レゾナントアール株式会社,,株式会社,埼玉県,飯能市,美杉台５丁目１４－２２,,11,209,3570041,,,,,,,2025-03-10,1,,,,,レゾナントアール,0
593,3030005022067,新規,0,2025-03-10,2025-03-10,一般社団法人さいたまライフ保証,,その他の設立登記法人,埼玉県,さいたま市岩槻区,大字尾ヶ崎４８６番地１,,11,110,3390027,,,,,,,2025-03-10,1,,,,,,0
597,3040003027050,新規,0,2025-03-10,2025-03-10,合同会社ＶＥＫ　Ａｃａｄｅｍｙ,,合同会社,千葉県,習志野市,藤崎１丁目４番３４－３０７号,,12,216,2750017,,,,,,,2025-03-10,1,,,,,ベックアカデミー,0
601,3060001037990,新規,0,2025-03-10,2025-03-10,株式会社スピカマネジメント,,株式会社,栃木県,足利市,大久保町１２７９番地,,09,202,3260012,,,,,,,2025-03-10,1,,,,,スピカマネジメント,0
605,3060003005459,新規,0,2025-03-10,2025-03-10,合同会社トミヤマ電設,,合同会社,栃木県,小山市,大字小山２６６６番地１９,,09,208,3230825,,,,,,,2025-03-10,1,,,,,トミヤマデンセツ,0
610,3090001019152,新規,0,2025-03-10,2025-03-10,深澤技研工業株式会社,,株式会社,山梨県,甲府市,大里町３６５３－３,,19,201,4000053,,,,,,,2025-03-10,1,,,,,フカサワギケンコウギョウ,0
620,3120001273365,新規,0,2025-03-10,2025-03-10,ＤＥＥＰ　ＨＯＬＤＩＮＧＳ株式会社,,株式会社,大阪府,大阪市中央区,淡路町３丁目２番２号２２０７号室,,27,128,5410047,,,,,,,2025-03-10,1,,,,,ディープホールディングス,0
621,3120001273407,新規,0,2025-03-10,2025-03-10,株式会社養濱,,株式会社,大阪府,大阪市港区,市岡４丁目５番１８－３０１号,,27,107,5520012,,,,,,,2025-03-10,1,,,,,ヨウヒン,0
622,3120001273514,新規,0,2025-03-10,2025-03-10,三都株式会社,,株式会社,大阪府,大阪市東淀川区,西淡路１丁目１４－１７,,27,114,5330031,,,,,,,2025-03-10,1,,,,,サント,0
623,3120003028791,新規,0,2025-03-10,2025-03-10,合同会社ドリームコネクト,,合同会社,大阪府,寝屋川市,御幸東町３１番３号,,27,215,5720055,,,,,,,2025-03-10,1,,,,,ドリームコネクト,0
629,3120903005576,新規,0,2025-03-10,2025-03-10,合同会社ホームケアＮｏａｎ,,合同会社,大阪府,茨木市,春日１丁目８番２６号春日ビル４階４０１号室,,27,211,5670031,,,,,,,2025-03-10,1,,,,,ホームケアノアン,0
631,3122003003139,新規,0,2025-03-10,2025-03-10,ＨＢＫ合同会社,,合同会社,大阪府,大東市,灰塚５丁目１１－１４,,27,218,5740043,,,,,,,2025-03-10,1,,,,,エイチビーケー,0
633,3130001079150,新規,0,2025-03-10,2025-03-10,株式会社ＤＰ京都,,株式会社,京都府,京都市右京区,西院寿町４０番地３,,26,108,6150033,,,,,,,2025-03-10,1,,,,,ディーピーキョウト,0
642,3140001137592,新規,0,2025-03-10,2025-03-10,紅河貿易株式会社,,株式会社,兵庫県,神戸市中央区,吾妻通６丁目２番１８号,,28,110,6510076,,,,,,,2025-03-10,1,,,,,コウカボウエキ,0
643,3140001137659,新規,0,2025-03-10,2025-03-10,ＡＧＲ　Ｉｎｄｕｓｔｒｙ株式会社,,株式会社,兵庫県,西宮市,苦楽園四番町１０番２６号六麓荘ヒルズＥ棟１０６号,,28,204,6620088,,,,,,,2025-03-10,1,,,,,エージーアールインダストリー,0
646,3140003021753,新規,0,2025-03-10,2025-03-10,ＦＬＡＧ　Ａｗａｊｉ合同会社,,合同会社,兵庫県,淡路市,釜口５５７番地１,,28,226,6562334,,,,,,,2025-03-10,1,,,,,フラッグアワジ,0
649,3150001027925,新規,0,2025-03-10,2025-03-10,株式会社ＹＳホールディングス,,株式会社,奈良県,生駒市,あすか野南２丁目１番８号,,29,209,6300133,,,,,,,2025-03-10,1,,,,,ワイエスホールディングス,0
651,3160001026595,新規,0,2025-03-10,2025-03-10,ドローン総合コンサルティング株式会社,,株式会社,滋賀県,守山市,今浜町２６２０番地９９琵琶湖アーバンリゾートＩ番館６０５号,00138258,25,207,5240101,,,,,,,2025-03-10,1,,,,,ドローンソウゴウコンサルティング,0
656,3180001165805,新規,0,2025-03-10,2025-03-10,株式会社Ｙｐｒｏｊｅｃｔ,,株式会社,愛知県,名古屋市中川区,前田西町２丁目１０８番地（パレスＴ前田西ＩＩＩ１０１号）,00138273,23,110,4540941,,,,,,,2025-03-10,1,,,,,ワイプロジェクト,0
664,3180003028092,新規,0,2025-03-10,2025-03-10,合同会社ケアライフサポート,,合同会社,愛知県,名古屋市東区,泉３丁目１４－３号ヨシコービル泉４Ｃ号,,23,102,4610001,,,,,,,2025-03-10,1,,,,,ケアライフサポート,0
665,3180301039601,新規,0,2025-03-10,2025-03-10,株式会社木曽川匠の会,,株式会社,愛知県,知立市,谷田町本林３丁目６番地５ライオンズマンション知立南弐番館３０１号,,23,225,4720015,,,,,,,2025-03-10,1,,,,,キソガワタクミノカイ,0
670,3200001043504,新規,0,2025-03-10,2025-03-10,ＨＯＪＩＴＳＵ　ＨＯＬＤＩＮＧＳ株式会社,,株式会社,岐阜県,加茂郡富加町,羽生２１４６番地２,,21,502,5013303,,,,,,,2025-03-10,1,,,,,ホウジツホールディングス,0
672,3200003006723,新規,0,2025-03-10,2025-03-10,合同会社ＮＩＰＰＯＮ　ＣＥＹＬＯＮ,,合同会社,岐阜県,岐阜市,薮田南５丁目８番２１号,,21,201,5008384,,,,,,,2025-03-10,1,,,,,ニッポンセイロン,0
676,3220001026523,新規,0,2025-03-10,2025-03-10,ＡＳＯＢＥＥ株式会社,,株式会社,石川県,金沢市,山科町ヘ４１番地２２,,17,201,9218174,,,,,,,2025-03-10,1,,,,,アソビー,0
686,3290001109239,新規,0,2025-03-10,2025-03-10,株式会社リフレッシュ,,株式会社,福岡県,飯塚市,立岩９６４番地２７アーバンパレス新飯塚駅マークプレイス１００７,,40,205,8200003,,,,,,,2025-03-10,1,,,,,リフレッシュ,0
687,3290001109255,新規,0,2025-03-10,2025-03-10,株式会社スターブリッジ,,株式会社,福岡県,福岡市中央区,薬院４丁目１８番１５号,,40,133,8100022,,,,,,,2025-03-10,1,,,,,,0
701,3360003014751,新規,0,2025-03-10,2025-03-10,合同会社アクアマリンアンティーナ,,合同会社,沖縄県,国頭郡本部町,字崎本部２６６,,47,308,9050225,,,,,,,2025-03-10,1,,,,,アクアマリンアンティーナ,0
702,3370003006962,新規,0,2025-03-10,2025-03-10,ＭＨＥ合同会社,,合同会社,宮城県,仙台市泉区,住吉台西３丁目８番地の９,,04,105,9813223,,,,,,,2025-03-10,1,,,,,エムエイチイー,0
703,3370003006970,新規,0,2025-03-10,2025-03-10,合同会社雅Ｃｌｅａｎ　Ｌｅｉ,,合同会社,宮城県,仙台市泉区,泉中央１丁目７番地１地下鉄泉中央駅ビル３階,,04,105,9813133,,,,,,,2025-03-10,1,,,,,ミヤビクリーンレイ,0
708,3400005008474,新規,0,2025-03-10,2025-03-10,一般社団法人くまの子クラブ,,その他の設立登記法人,岩手県,一関市,字台町４８番地３１,,03,209,0210873,,,,,,,2025-03-10,1,,,,,クマノコクラブ,0
710,3430001093856,新規,0,2025-03-10,2025-03-10,株式会社ｌａ　ｐｅａｕ,,株式会社,北海道,札幌市中央区,南一条西１６丁目１－３２３春野ビル３Ｆ,,01,101,0600061,,,,,,,2025-03-10,1,,,,,ラプー,0
714,3430003017359,新規,0,2025-03-10,2025-03-10,合同会社えんのした,,合同会社,北海道,札幌市厚別区,大谷地西３丁目１３番１号,,01,108,0040042,,,,,,,2025-03-10,1,,,,,エンノシタ,0
718,3490001010987,新規,0,2025-03-10,2025-03-10,株式会社凪建築工房,,株式会社,高知県,高知市,福井町２２６９番地１９２,,39,201,7800965,,,,,,,2025-03-10,1,,,,,ナギケンチクコウボウ,0
721,3500001026189,新規,0,2025-03-10,2025-03-10,株式会社スイ企画,,株式会社,愛媛県,松山市,来住町１０７２番地６,,38,201,7911102,,,,,,,2025-03-10,1,,,,,スイキカク,0
734,4010001252882,新規,0,2025-03-10,2025-03-10,山佐ＫＬＭ８リース株式会社,,株式会社,東京都,千代田区,丸の内１丁目４番１号東京共同会計事務所内,,13,101,1000005,,,,,,,2025-03-10,1,,,,,ヤマサケーエルエムエイトリース,0
735,4010001252981,新規,0,2025-03-10,2025-03-10,株式会社インフィニタス,,株式会社,東京都,千代田区,神田須田町１丁目７－１アントレオフィス秋葉原４Ｆ４２２室,,13,101,1010041,,,,,,,2025-03-10,1,,,,,インフィニタス,0
746,4010005039707,新規,0,2025-03-10,2025-03-10,Ｍｉｘ　Ｓａｎｄ　Ｈａｋａｔａ　Ｅａｓｔ特定目的会社,,その他の設立登記法人,東京都,千代田区,霞が関３丁目２番５号,,13,101,1000013,,,,,,,2025-03-10,1,,,,,ミックスサンドハカタイースト,0
749,4010403034565,新規,0,2025-03-10,2025-03-10,ハイビック・インベストメント合同会社,,合同会社,東京都,港区,南青山２丁目２番１５号ウィン青山９４２,,13,103,1070062,,,,,,,2025-03-10,1,,,,,ハイビックインベストメント,0
752,4010501053764,新規,0,2025-03-10,2025-03-10,阿宝株式会社,,株式会社,東京都,台東区,柳橋１丁目１６－３－４Ｆ－Ｇ,,13,106,1110052,,,,,,,2025-03-10,1,,,,,アボー,0
753,4010503007743,新規,0,2025-03-10,2025-03-10,一花合同会社,,合同会社,東京都,台東区,西浅草２丁目２７－８ＤＥＣＯＲＧＲＡＮＤＥ浅草４０１号室,,13,106,1110035,,,,,,,2025-03-10,1,,,,,イチカ,0
756,4010701047376,新規,0,2025-03-10,2025-03-10,株式会社プランタン,,株式会社,東京都,品川区,西大井１丁目１番２号,,13,109,1400015,,,,,,,2025-03-10,1,,,,,プランタン,0
775,4011001168235,新規,0,2025-03-10,2025-03-10,株式会社アゲテク,,株式会社,東京都,渋谷区,渋谷２丁目１９－１５宮益坂ビルディング６０９,,13,113,1500002,,,,,,,2025-03-10,1,,,,,アゲテク,0
776,4011001168276,新規,0,2025-03-10,2025-03-10,マサトレードインターナショナル株式会社,,株式会社,東京都,目黒区,緑が丘２丁目１４番１０－４０３号フォルテ自由が丘,,13,110,1520034,,,,,,,2025-03-10,1,,,,,マサトレードインターナショナル,0
777,4011001168301,新規,0,2025-03-10,2025-03-10,Ｎｅｘｔ　ＥＣ　Ｐａｒｔｎｅｒｓ株式会社,,株式会社,東京都,渋谷区,道玄坂１丁目１０番８号渋谷道玄坂東急ビル２Ｆ－Ｃ,,13,113,1500043,,,,,,,2025-03-10,1,,,,,ネクストイーシーパートナーズ,0
778,4011003021128,新規,0,2025-03-10,2025-03-10,合同会社５１Ｋ,,合同会社,東京都,渋谷区,渋谷２丁目１９－１５宮益坂ビルディング６０９,,13,113,1500002,,,,,,,2025-03-10,1,,,,,ゴジュウイチケー,0
784,4011101110922,新規,0,2025-03-10,2025-03-10,株式会社ＳＡＮＫＯ　ＯＣＥＡＮ　ＷＯＲＫＳ,,株式会社,東京都,新宿区,高田馬場１丁目２８番１０号バンフォーレ三慶ビル２Ｆ,,13,104,1690075,,,,,,,2025-03-10,1,,,,,サンコーオーシャンワークス,0
785,4011101110930,新規,0,2025-03-10,2025-03-10,株式会社ＡｉＧａｇｅ,,株式会社,東京都,新宿区,市谷仲之町３番４５－６０３号,,13,104,1620064,,,,,,,2025-03-10,1,,,,,アイゲージ,0
787,4011103015632,新規,0,2025-03-10,2025-03-10,合同会社ロニトトレディング,,合同会社,東京都,新宿区,大久保１丁目１５－２５フラット大久保Ｆ１０２,,13,104,1690072,,,,,,,2025-03-10,1,,,,,ロニトトレディング,0
788,4011205002677,新規,0,2025-03-10,2025-03-10,農事組合法人サンタ,,その他の設立登記法人,東京都,中野区,松が丘１丁目７－５石井マンションＡ５０１,,13,114,1650024,,,,,,,2025-03-10,1,,,,,サンタ,0
789,4011301030400,新規,0,2025-03-10,2025-03-10,株式会社Ｕｒ　ＡＩ,,株式会社,東京都,杉並区,高円寺北４丁目２番１３号,,13,115,1660002,,,,,,,2025-03-10,1,,,,,ユアエーアイ,0
790,4011505002682,新規,0,2025-03-10,2025-03-10,医療法人社団健久会,,その他の設立登記法人,東京都,北区,赤羽西１丁目３６番１１号メディカルヒルズ赤羽３階,,13,117,1150055,,,,,,,2025-03-10,1,,,,,ケンキュウカイ,0
791,4011601028490,新規,0,2025-03-10,2025-03-10,ｆｏｒ　ｙｏｕｒ　ｄａｔａ株式会社,,株式会社,東京都,練馬区,中村南３丁目５番７号,,13,120,1760025,,,,,,,2025-03-10,1,,,,,フォーユアデータ,0
792,4011705001880,新規,0,2025-03-10,2025-03-10,医療法人社団賢令会,,その他の設立登記法人,東京都,江戸川区,松本１丁目３４番７号フォレストガーデン２階,,13,123,1330043,,,,,,,2025-03-10,1,,,,,ケンレイカイ,0
794,4011801045708,新規,0,2025-03-10,2025-03-10,ＣＡＳＷＡＹ株式会社,,株式会社,東京都,葛飾区,東金町６丁目６番５号センタービル金町４階４１５室,,13,122,1250041,,,,,,,2025-03-10,1,,,,,キャスウェイ,0
795,4011805003439,新規,0,2025-03-10,2025-03-10,医療法人社団実聖会,,その他の設立登記法人,東京都,足立区,千住宮元町１番１号,,13,121,1200043,,,,,,,2025-03-10,1,,,,,ジッセイカイ,0
797,4012303002123,新規,0,2025-03-10,2025-03-10,価値共創サービス合同会社,,合同会社,東京都,町田市,森野１丁目３６番２号セレステ町田１Ｆ,,13,209,1940022,,,,,,,2025-03-10,1,,,,,カチキョウソウサービス,0
804,4012805003321,新規,0,2025-03-10,2025-03-10,医療法人社団ファミーリエ,,その他の設立登記法人,東京都,日野市,大坂上１丁目３２番地１１伊藤ビル１階,,13,212,1910061,,,,,,,2025-03-10,1,,,,,ファミーリエ,0
815,4013303007566,新規,0,2025-03-10,2025-03-10,合同会社Ｂｏｈ,,合同会社,東京都,豊島区,長崎１丁目５番１５号,,13,116,1710051,,,,,,,2025-03-10,1,,,,,ボー,0
817,4020001161694,新規,0,2025-03-10,2025-03-10,株式会社ＰＯＢ,,株式会社,神奈川県,横浜市旭区,南本宿町１０－６,,14,112,2410833,,,,,,,2025-03-10,1,,,,,ポブ,0
818,4020003028000,新規,0,2025-03-10,2025-03-10,合同会社フィフティプラス,,合同会社,神奈川県,横浜市港南区,笹下５丁目２－２８－５０６,,14,111,2340052,,,,,,,2025-03-10,1,,,,,フィフティプラス,0
819,4020003028025,新規,0,2025-03-10,2025-03-10,Ｂｅｓａ　Ｍａｒｉ合同会社,,合同会社,神奈川県,横浜市都筑区,荏田東２丁目８番２２号,,14,118,2240006,,,,,,,2025-03-10,1,,,,,ベサマリ,0
824,4021001084662,新規,0,2025-03-10,2025-03-10,株式会社ＫｅｙＳｅｎｓｅ,,株式会社,神奈川県,藤沢市,鵠沼桜が岡２丁目１番２４号,,14,205,2510027,,,,,,,2025-03-10,1,,,,,キーセンス,0
832,4030001165182,新規,0,2025-03-10,2025-03-10,株式会社ネクストクリエーション,,株式会社,埼玉県,川口市,前川２丁目２９番１号,,11,203,3330842,,,,,,,2025-03-10,1,,,,,ネクストクリエーション,0
833,4030001165199,新規,0,2025-03-10,2025-03-10,株式会社ムラタヒロシ,,株式会社,埼玉県,所沢市,西新井町１３番１７号,,11,208,3590035,,,,,,,2025-03-10,1,,,,,ムラタヒロシ,0
834,4030001165257,新規,0,2025-03-10,2025-03-10,株式会社ＳａｍＳａｍ,,株式会社,埼玉県,越谷市,南越谷４丁目１１番地４,,11,222,3430845,,,,,,,2025-03-10,1,,,,,サムサム,0
835,4030001165265,新規,0,2025-03-10,2025-03-10,株式会社はるく,,株式会社,埼玉県,行田市,大字持田２４９８番地１,,11,206,3610056,,,,,,,2025-03-10,1,,,,,ハルク,0
841,4030003026291,新規,0,2025-03-10,2025-03-10,合同会社Ｏｎｅ　ｄａｙ,,合同会社,埼玉県,さいたま市見沼区,堀崎町６１８番地７,,11,104,3370052,,,,,,,2025-03-10,1,,,,,ワンデイ,0
853,4060001037957,新規,0,2025-03-10,2025-03-10,ＫＫ　Ｔｒａｄｉｎｇ株式会社,,株式会社,栃木県,栃木市,大平町北武井１１０９番地１,,09,203,3294412,,,,,,,2025-03-10,1,,,,,ケーケートレーディング,0
855,4080101025356,新規,0,2025-03-10,2025-03-10,株式会社ＹＵＫＩ,,株式会社,静岡県,田方郡函南町,平井１７５３番１０４３ラッキークレスト２０２室,,22,325,4190107,,,,,,,2025-03-10,1,,,,,ユウキ,0
858,4080401027787,新規,0,2025-03-10,2025-03-10,株式会社エターナル浜松,,株式会社,静岡県,浜松市中央区,東伊場１丁目１番２６号,,22,138,4328036,,,,,,,2025-03-10,1,,,,,エターナルハママツ,0
866,4100001038348,新規,0,2025-03-10,2025-03-10,株式会社ｎｏｎ‐ｎｏｎ,,株式会社,長野県,安曇野市,穂高５９８８－１－１０３,,20,220,3998303,,,,,,,2025-03-10,1,,,,,ノンノン,0
877,4120001273397,新規,0,2025-03-10,2025-03-10,株式会社Ｎテック,,株式会社,大阪府,大阪市阿倍野区,松崎町３丁目１３番２３－５１４号,,27,119,5450053,,,,,,,2025-03-10,1,,,,,エヌテック,0
878,4120001273496,新規,0,2025-03-10,2025-03-10,株式会社Ｏｒａｎｇｅ　Ｈａｗａｉｉ,,株式会社,大阪府,大阪市北区,梅田１丁目１番３－６２４号室,,27,127,5300001,,,,,,,2025-03-10,1,,,,,オレンジハワイ,0
879,4120001273513,新規,0,2025-03-10,2025-03-10,泓康商事株式会社,,株式会社,大阪府,大阪市中央区,北久宝寺町１丁目５番６号７０２号室,,27,128,5410057,,,,,,,2025-03-10,1,,,,,オウコウショウジ,0
882,4120003028808,新規,0,2025-03-10,2025-03-10,合同会社統計勉強会ＬＩＫＥＬＩＨＯＯＤ　Ｃｏ．,,合同会社,大阪府,大阪市北区,梅田１丁目２番２号大阪駅前第２ビル１２－１２,,27,127,5300001,,,,,,,2025-03-10,1,,,,,トウケイベンキョウカイライクリフッドコドット,0
885,4120101071206,新規,0,2025-03-10,2025-03-10,結翔株式会社,,株式会社,大阪府,堺市北区,南花田町６０番地－４－１０５号,,27,146,5918011,,,,,,,2025-03-10,1,,,,,ユイショウ,0
888,4120901050540,新規,0,2025-03-10,2025-03-10,株式会社アメイジン,,株式会社,大阪府,豊中市,豊南町南５丁目１番１号,,27,203,5610815,,,,,,,2025-03-10,1,,,,,アメイジン,0
889,4120901050549,新規,0,2025-03-10,2025-03-10,ＵＮＹ株式会社,,株式会社,大阪府,吹田市,新芦屋上１０番１－１００４号,,27,205,5650804,,,,,,,2025-03-10,1,,,,,ユーエヌワイ,0
890,4120901050557,新規,0,2025-03-10,2025-03-10,株式会社五月山公園墓地管理事務所,,株式会社,大阪府,池田市,畑３丁目５－８,,27,204,5630021,,,,,,,2025-03-10,1,,,,,サツキヤマコウエンボチカンリジムショ,0
896,4130001079141,新規,0,2025-03-10,2025-03-10,株式会社池島造園,,株式会社,京都府,京都市西京区,大枝北沓掛町２丁目３番地４,,26,111,6101101,,,,,,,2025-03-10,1,,,,,イケジマゾウエン,0
897,4130005017304,新規,0,2025-03-10,2025-03-10,一般社団法人ｅ‐Ｋ．Ａコンサルティング,,その他の設立登記法人,京都府,京都市下京区,仏光寺通烏丸東入上柳町３３１番地５４３号室,,26,106,6008099,,,,,,,2025-03-10,1,,,,,イーケイエイコンサルティング,0
901,4140001137575,新規,0,2025-03-10,2025-03-10,株式会社ワイイーエスコミュニティ,,株式会社,兵庫県,西宮市,甲陽園目神山町３４番２３号,,28,204,6620011,,,,,,,2025-03-10,1,,,,,ワイイーエスコミュニティ,0
902,4140001137617,新規,0,2025-03-10,2025-03-10,株式会社ミツバ,,株式会社,兵庫県,姫路市,別所町小林１６２番地の１,,28,201,6710222,,,,,,,2025-03-10,1,,,,,ミツバ,0
903,4140001137666,新規,0,2025-03-10,2025-03-10,株式会社柊,,株式会社,兵庫県,川西市,火打２丁目１３番１９－１号,,28,217,6660017,,,,,,,2025-03-10,1,,,,,ヒイラギ,0
904,4140001137682,新規,0,2025-03-10,2025-03-10,株式会社ＲｅＲｏｏｔｓ,,株式会社,兵庫県,西宮市,本町９番２０号,,28,204,6620914,,,,,,,2025-03-10,1,,,,,リルーツ,0
907,4140003021752,新規,0,2025-03-10,2025-03-10,プレファイア合同会社,,合同会社,兵庫県,神戸市中央区,磯辺通１丁目１番１８号カサベラ国際プラザビル７０７号室,,28,110,6510084,,,,,,,2025-03-10,1,,,,,プレファイア,0
908,4140003021760,新規,0,2025-03-10,2025-03-10,合同会社ローカルデザインラボ,,合同会社,兵庫県,朝来市,和田山町竹田１６０菓子屋菜ノ花,,28,225,6695252,,,,,,,2025-03-10,1,,,,,ローカルデザインラボ,0
912,4150001027924,新規,0,2025-03-10,2025-03-10,株式会社煌成,,株式会社,奈良県,磯城郡田原本町,大字八尾６４５の５,,29,363,6360311,,,,,,,2025-03-10,1,,,,,コウセイ,0
915,4160001026594,新規,0,2025-03-10,2025-03-10,株式会社ＨＩＫＯ‐ＳＡＫＵ,,株式会社,滋賀県,長浜市,西浅井町塩津浜６５０番地,,25,203,5290701,,,,,,,2025-03-10,1,,,,,ヒコサク,0
918,4180001165738,新規,0,2025-03-10,2025-03-10,株式会社Ｎｏｒｄｆｙｒ,,株式会社,愛知県,名古屋市西区,児玉２丁目２２番１９号,,23,104,4510066,,,,,,,2025-03-10,1,,,,,ノードフュール,0
919,4180001165804,新規,0,2025-03-10,2025-03-10,株式会社ガルダ,,株式会社,愛知県,知多郡阿久比町,大字白沢字カナクソ７番地２,,23,441,4702201,,,,,,,2025-03-10,1,,,,,ガルダ,0
922,4180003028075,新規,0,2025-03-10,2025-03-10,合同会社ＣＨＡＫＲＡ,,合同会社,愛知県,長久手市,岩作宮後４９番地１,,23,238,4801103,,,,,,,2025-03-10,1,,,,,チャクラ,0
923,4180003028091,新規,0,2025-03-10,2025-03-10,合同会社Ｈ．Ｌ,,合同会社,愛知県,春日井市,中野町２丁目２３番地１０メゾンウッドリバー１０３号,,23,206,4860957,,,,,,,2025-03-10,1,,,,,エイチエル,0
924,4180003028100,新規,0,2025-03-10,2025-03-10,合同会社白,,合同会社,愛知県,半田市,岩滑西町２丁目３３番地１,,23,205,4750966,,,,,,,2025-03-10,1,,,,,ハク,0
925,4180003028109,新規,0,2025-03-10,2025-03-10,合同会社ｉＤｅｎｔｅａｌ,,合同会社,愛知県,名古屋市西区,城西３丁目１３番１２号ゼルコヴァ城西２０３号,,23,104,4510031,,,,,,,2025-03-10,1,,,,,アイデンティール,0
926,4180301039600,新規,0,2025-03-10,2025-03-10,株式会社ＰｒｉｍｅＷｏｒｋｓ,,株式会社,愛知県,刈谷市,桜町５丁目５番地はとやビル３階,,23,210,4480028,,,,,,,2025-03-10,1,,,,,プライムワークス,0
929,4180303006482,新規,0,2025-03-10,2025-03-10,吉良デジタルシステムズ合同会社,,合同会社,愛知県,西尾市,吉良町上横須賀宮前４番地,,23,213,4440521,,,,,,,2025-03-10,1,,,,,キラデジタルシステムズ,0
961,4290001109254,新規,0,2025-03-10,2025-03-10,株式会社一新ハウス,,株式会社,福岡県,福岡市東区,筥松４丁目８番８８－７０４号,,40,131,8120061,,,,,,,2025-03-10,1,,,,,,0
965,4290003016507,新規,0,2025-03-10,2025-03-10,合同会社ＳＴＡＲＫ　ｈｙｄｒａｕｌｉｃｓ,,合同会社,福岡県,大牟田市,大字歴木１４８０番地６,,40,202,8370924,,,,,,,2025-03-10,1,,,,,スタークハイドロリクス,0
967,4290005019672,新規,0,2025-03-10,2025-03-10,一般社団法人曽田豊二文庫,,その他の設立登記法人,福岡県,福岡市西区,生の松原３丁目１８番３号,,40,135,8190055,,,,,,,2025-03-10,1,,,,,ソダトヨジブンコ,0
976,4330001032930,新規,0,2025-03-10,2025-03-10,株式会社サンソニック,,株式会社,熊本県,上益城郡嘉島町,大字井寺２５０番地９,,43,442,8613103,,,,,,,2025-03-10,1,,,,,サンソニック,0
989,4360003014734,新規,0,2025-03-10,2025-03-10,合同会社れもん,,合同会社,沖縄県,糸満市,字阿波根７５５－１,,47,210,9010301,,,,,,,2025-03-10,1,,,,,レモン,0
990,4360003014750,新規,0,2025-03-10,2025-03-10,Ｃｕｒｉｏｕｓ合同会社,,合同会社,沖縄県,浦添市,字前田１３５２－４－２０５,,47,208,9012102,,,,,,,2025-03-10,1,,,,,キュリアス,0
995,4380005012924,新規,0,2025-03-10,2025-03-10,ＮＰＯ法人くおん,,その他の設立登記法人,福島県,相馬市,中村２丁目７,,07,209,9760042,,,,,,,2025-03-10,1,,,,,クオン,0
997,4400001016967,新規,0,2025-03-10,2025-03-10,株式会社日めくり,,株式会社,岩手県,花巻市,石鳥谷町五大堂６－４２,,03,205,0283141,,,,,,,2025-03-10,1,,,,,ヒメクリ,0
1001,4400005008473,新規,0,2025-03-10,2025-03-10,医療法人社団健幸会,,その他の設立登記法人,岩手県,紫波郡矢巾町,大字南矢幅第７地割４５５,,03,322,0283615,,,,,,,2025-03-10,1,,,,,ケンコウカイ,0
1010,4430001093806,新規,0,2025-03-10,2025-03-10,北海道財務パートナーズ株式会社,,株式会社,北海道,札幌市白石区,菊水五条２丁目４番２３号パークヒルズ菊水１階,,01,104,0030805,,,,,,,2025-03-10,1,,,,,ホッカイドウザイムパートナーズ,0
1011,4430001093839,新規,0,2025-03-10,2025-03-10,株式会社さくせす,,株式会社,北海道,札幌市中央区,南一条西５丁目１６番地プレジデント松井ビル１００－９０２Ｂ,,01,101,0600061,,,,,,,2025-03-10,1,,,,,サクセス,0
1024,5010001252634,新規,0,2025-03-10,2025-03-10,株式会社もち,,株式会社,東京都,中央区,日本橋室町１丁目１１番１２号日本橋水野ビル７階,,13,102,1030022,,,,,,,2025-03-10,1,,,,,モチ,0
1025,5010001252956,新規,0,2025-03-10,2025-03-10,株式会社ＡＩメタバース,,株式会社,東京都,千代田区,神田和泉町１番地６－１６ヤマトビル４０５,,13,101,1010024,,,,,,,2025-03-10,1,,,,,エーアイメタバース,0
1026,5010001252964,新規,0,2025-03-10,2025-03-10,Ｅｇｇｏｐｓ株式会社,,株式会社,東京都,中央区,銀座１丁目１２－４Ｎ＆ＥＢＬＤ．７階,,13,102,1040061,,,,,,,2025-03-10,1,,,,,エッグオプス,0
1027,5010001252972,新規,0,2025-03-10,2025-03-10,Ａｄｖｉｓｉｏ株式会社,,株式会社,東京都,中央区,銀座１丁目１２－４Ｎ＆ＥＢＬＤ．６Ｆ,,13,102,1040061,,,,,,,2025-03-10,1,,,,,アドビジオ,0
1028,5010001253005,新規,0,2025-03-10,2025-03-10,株式会社Ｗｉｓｅｄｙｎａｌ,,株式会社,東京都,中央区,銀座１丁目１２番４号Ｎ＆ＥＢＬＤ．６Ｆ,,13,102,1040061,,,,,,,2025-03-10,1,,,,,ワイズダイナル,0
1043,5010401188718,新規,0,2025-03-10,2025-03-10,株式会社アップリンク,,株式会社,東京都,港区,浜松町２丁目２番１５号,,13,103,1050013,,,,,,,2025-03-10,1,,,,,アップリンク,0
1045,5010403034564,新規,0,2025-03-10,2025-03-10,合同会社ハセガワコーポレーション,,合同会社,東京都,港区,白金１丁目７番１９号,,13,103,1080072,,,,,,,2025-03-10,1,,,,,ハセガワコーポレーション,0
1049,5010501053714,新規,0,2025-03-10,2025-03-10,Ｘ　Ｃｕｂｅ　Ｓｏｌｕｔｉｏｎｓ株式会社,,株式会社,東京都,台東区,蔵前３丁目７番４－９０１号,,13,106,1110051,,,,,,,2025-03-10,1,,,,,エックスキューブソリューションズ,0
1050,5010501053755,新規,0,2025-03-10,2025-03-10,株式会社熊本サード,,株式会社,東京都,台東区,台東１丁目１０番６号,,13,106,1100016,,,,,,,2025-03-10,1,,,,,クマモトサード,0
1059,5010803005306,新規,0,2025-03-10,2025-03-10,ディニティコス合同会社,,合同会社,東京都,大田区,西六郷１丁目２０番８号,,13,111,1440056,,,,,,,2025-03-10,1,,,,,ディニティコス,0
1060,5010803005314,新規,0,2025-03-10,2025-03-10,合同会社Ｓｔｒｕｃｔｉａ,,合同会社,東京都,大田区,下丸子４丁目１９番２４号タマハイツ２０５,,13,111,1460092,,,,,,,2025-03-10,1,,,,,ストラクティア,0
1062,5010903009776,新規,0,2025-03-10,2025-03-10,合同会社エンビロ,,合同会社,東京都,世田谷区,駒沢５丁目３番５－２１１号,,13,112,1540012,,,,,,,2025-03-10,1,,,,,エンビロ,0
1067,5011001168135,新規,0,2025-03-10,2025-03-10,株式会社ＩＳＦ,,株式会社,東京都,渋谷区,恵比寿南１丁目４－８,,13,113,1500022,,,,,,,2025-03-10,1,,,,,アイエスエフ,0
1068,5011001168143,新規,0,2025-03-10,2025-03-10,株式会社Ｂｅａｒ　Ｆｕｌｌ　Ｆｒｕｉｔ　Ｓｙｓｔｅｍ,,株式会社,東京都,渋谷区,渋谷２丁目１９－１５宮益坂ビルディング６０９,,13,113,1500002,,,,,,,2025-03-10,1,,,,,ベアフルフルーツシステム,0
1069,5011001168317,新規,0,2025-03-10,2025-03-10,Ａ２Ｃａｒｅ・メディカルソリューションズ株式会社,,株式会社,東京都,渋谷区,千駄ヶ谷４丁目２０番１号,,13,113,1510051,,,,,,,2025-03-10,1,,,,,エーツーケアメディカルソリューションズ,0
1072,5011003021127,新規,0,2025-03-10,2025-03-10,合同会社ＤＥＮＩＳ　Ｃａｐｉｔａｌ　Ｐａｒｔｎｅｒｓ,,合同会社,東京都,目黒区,碑文谷６丁目１０番２１号,,13,110,1520003,,,,,,,2025-03-10,1,,,,,ドゥニキャピタルパートナーズ,0
1079,5011101110814,新規,0,2025-03-10,2025-03-10,株式会社ＳｍａｒｔＣｏｎｔａｃｔ,,株式会社,東京都,新宿区,新小川町２番１１号双葉ビル３階,,13,104,1620814,,,,,,,2025-03-10,1,,,,,スマートコンタクト,0
1080,5011101110888,新規,0,2025-03-10,2025-03-10,株式会社ｌｅｍｏｎｒｉｓｅ,,株式会社,東京都,新宿区,高田馬場２丁目４番１１号ＫＳＥビル１階,,13,104,1690075,,,,,,,2025-03-10,1,,,,,レモンライズ,0
1081,5011101110921,新規,0,2025-03-10,2025-03-10,ＫＡＭＥＳＵＮＧＹＭ株式会社,,株式会社,東京都,新宿区,山吹町８１コーポラス８１－１Ｆ,,13,104,1620801,,,,,,,2025-03-10,1,,,,,カメサンジム,0
1082,5011103015631,新規,0,2025-03-10,2025-03-10,ＧＰＢ　Ｍａｎａｇｅｍｅｎｔ合同会社,,合同会社,東京都,新宿区,百人町１丁目２３－１４－２０２号,,13,104,1690073,,,,,,,2025-03-10,1,,,,,ジーピービーマネージメント,0
1084,5011205002676,新規,0,2025-03-10,2025-03-10,農事組合法人エビス,,その他の設立登記法人,東京都,中野区,松が丘１丁目７－５石井マンションＡ５０１,,13,114,1650024,,,,,,,2025-03-10,1,,,,,エビス,0
1087,5011401026891,新規,0,2025-03-10,2025-03-10,株式会社江戸瑞恒,,株式会社,東京都,板橋区,熊野町３７番６号,,13,119,1730025,,,,,,,2025-03-10,1,,,,,エドズイコウ,0
1089,5011501031759,新規,0,2025-03-10,2025-03-10,株式会社ロボットスポーツゲームズ,,株式会社,東京都,荒川区,町屋２丁目２２－４フィルパーク町屋３階,,13,118,1160001,,,,,,,2025-03-10,1,,,,,ロボットスポーツゲームズ,0
1090,5011503006445,新規,0,2025-03-10,2025-03-10,合同会社ｐｅａｃｈ,,合同会社,東京都,荒川区,東日暮里４丁目１９番８－５０５号,,13,118,1160014,,,,,,,2025-03-10,1,,,,,ピーチ,0
1091,5011505002681,新規,0,2025-03-10,2025-03-10,医療法人社団結育会,,その他の設立登記法人,東京都,北区,赤羽西１丁目３６番１１号メディカルヒルズ赤羽２階,,13,117,1150055,,,,,,,2025-03-10,1,,,,,ユイイクカイ,0
1096,5011701028134,新規,0,2025-03-10,2025-03-10,ＪＭＴ株式会社,,株式会社,東京都,江戸川区,松島２丁目１９番１５号,,13,123,1320031,,,,,,,2025-03-10,1,,,,,ジェイエムティー,0
1098,5011801045764,新規,0,2025-03-10,2025-03-10,株式会社ＴＯＰＰＹ,,株式会社,東京都,足立区,千住旭町４０番２号長谷ビル１Ａ,,13,121,1200026,,,,,,,2025-03-10,1,,,,,トッピー,0
1099,5011805003438,新規,0,2025-03-10,2025-03-10,一般社団法人日中ＥＤＣ協会,,その他の設立登記法人,東京都,葛飾区,新宿６丁目２－１シティタワー金町１２２５室,,13,122,1250051,,,,,,,2025-03-10,1,,,,,ニッチュウイーディーシーキョウカイ,0
1124,5021005013294,新規,0,2025-03-10,2025-03-10,医療法人社団湘南台脳神経外科クリニック,,その他の設立登記法人,神奈川県,藤沢市,湘南台２丁目７番地の１５東急ドエルアルス湘南台アネックス１階１０２号室,,14,205,2520804,,,,,,,2025-03-10,1,,,,,ショウナンダイノウシンケイゲカクリニック,0
1132,5030001165231,新規,0,2025-03-10,2025-03-10,ラ・メール株式会社,,株式会社,埼玉県,さいたま市浦和区,領家５丁目１２番３号,,11,107,3300072,,,,,,,2025-03-10,1,,,,,ラメール,0
1133,5030001165280,新規,0,2025-03-10,2025-03-10,株式会社Ｏｒｉｇｉｎ貿易,,株式会社,埼玉県,加須市,船越２７９番地７,,11,210,3470021,,,,,,,2025-03-10,1,,,,,オリジンボウエキ,0
1134,5030001165297,新規,0,2025-03-10,2025-03-10,株式会社バリアント,,株式会社,埼玉県,新座市,野火止８丁目２４番８－４８号,,11,230,3520011,,,,,,,2025-03-10,1,,,,,バリアント,0
1135,5030001165314,新規,0,2025-03-10,2025-03-10,株式会社Ｂｒａｖｅ,,株式会社,埼玉県,川口市,栄町３丁目１３番１－１７１１号,,11,203,3320017,,,,,,,2025-03-10,1,,,,,ブレイブ,0
1138,5030003026290,新規,0,2025-03-10,2025-03-10,合同会社テクアド,,合同会社,埼玉県,さいたま市南区,四谷３丁目１３番地１５号セントエルモ浦和２０９号室,,11,108,3360032,,,,,,,2025-03-10,1,,,,,テクアド,0
1143,5040003027073,新規,0,2025-03-10,2025-03-10,ＦｏｒｅｓｔＶｉｌｌａｇｅ合同会社,,合同会社,千葉県,浦安市,高洲５丁目１番Ａー８０４号レジアスフォート新浦安,,12,227,2790023,,,,,,,2025-03-10,1,,,,,フォレストビレッジ,0
1145,5060001037989,新規,0,2025-03-10,2025-03-10,株式会社ＨＡＲＤＹＳ,,株式会社,栃木県,足利市,新宿町１０９６番地２,,09,202,3260834,,,,,,,2025-03-10,1,,,,,ハーディーズ,0
1152,5070003005811,新規,0,2025-03-10,2025-03-10,合同会社ＪＤＲ　ＴＲＡＤＩＮＧ,,合同会社,群馬県,桐生市,小曽根町１０番２１－１号室,,10,203,3760000,,,,,,,2025-03-10,1,,,,,ジェイディーアールトレーディング,0
1155,5080103003268,新規,0,2025-03-10,2025-03-10,うめファクトリー合同会社,,合同会社,静岡県,田方郡函南町,平井１７４０番地の１３５９,,22,325,4190107,,,,,,,2025-03-10,1,,,,,,0
1158,5080403005220,新規,0,2025-03-10,2025-03-10,合同会社ＹＭＴ,,合同会社,静岡県,掛川市,幡鎌１０３－３,,22,213,4360117,,,,,,,2025-03-10,1,,,,,ワイエムティー,0
1159,5090001019167,新規,0,2025-03-10,2025-03-10,株式会社和ｈｅａｒｔ,,株式会社,山梨県,山梨市,三富徳和４５３番地１,,19,205,4040205,,,,,,,2025-03-10,1,,,,,ワハート,0
1162,5100003008026,新規,0,2025-03-10,2025-03-10,合同会社ＹＯＭＯＧＩ　ＢＡＳＥ,,合同会社,長野県,諏訪市,大字湖南４６９１,,20,206,3920131,,,,,,,2025-03-10,1,,,,,ヨモギベース,0
1171,5120001273438,新規,0,2025-03-10,2025-03-10,株式会社ＴｏＢｅ,,株式会社,大阪府,大阪市中央区,難波５丁目１－６０なんばスカイオ２７Ｆ,,27,128,5420076,,,,,,,2025-03-10,1,,,,,トゥービー,0
1172,5120001273462,新規,0,2025-03-10,2025-03-10,株式会社Ｎｅｘｔ　Ｔｒｉｐ,,株式会社,大阪府,大阪市住吉区,清水丘３丁目５番１７号,,27,120,5580033,,,,,,,2025-03-10,1,,,,,ネクストトリップ,0
1173,5120001273470,新規,0,2025-03-10,2025-03-10,株式会社環整備開発,,株式会社,大阪府,大阪市淀川区,塚本３丁目４番１号２Ｆ,,27,123,5320026,,,,,,,2025-03-10,1,,,,,カンセイビカイハツ,0
1174,5120001273520,新規,0,2025-03-10,2025-03-10,株式会社緑匠,,株式会社,大阪府,大阪市中央区,南船場１丁目７番１３号,,27,128,5420081,,,,,,,2025-03-10,1,,,,,リョクショウ,0
1175,5120001273537,新規,0,2025-03-10,2025-03-10,Ｆｕｔｕｒｅ　Ｓｐａｃｅ株式会社,,株式会社,大阪府,大阪市東成区,東今里３丁目１５番２７号１０１号,,27,115,5370011,,,,,,,2025-03-10,1,,,,,フューチャースペース,0
1185,5120101071188,新規,0,2025-03-10,2025-03-10,本山株式会社,,株式会社,大阪府,堺市西区,上野芝町５丁６－２７杉本ビル２階２０３号室,,27,144,5938301,,,,,,,2025-03-10,1,,,,,モトヤマ,0
1186,5120101071221,新規,0,2025-03-10,2025-03-10,株式会社さくら住建,,株式会社,大阪府,藤井寺市,林２丁目６番４６－３１０号,,27,226,5830007,,,,,,,2025-03-10,1,,,,,サクラジュウケン,0
1187,5120901050548,新規,0,2025-03-10,2025-03-10,株式会社エムケイファイブアゲイン,,株式会社,大阪府,豊中市,穂積２丁目８番５号,,27,203,5610856,,,,,,,2025-03-10,1,,,,,エムケイファイブアゲイン,0
1188,5120901050556,新規,0,2025-03-10,2025-03-10,株式会社ＴＡＫＥ５,,株式会社,大阪府,茨木市,大手町１０番２４号,,27,211,5670883,,,,,,,2025-03-10,1,,,,,テイクファイブ,0
1189,5120903005574,新規,0,2025-03-10,2025-03-10,合同会社ＭＹソリューションズ,,合同会社,大阪府,茨木市,下中条町９番６号,,27,211,5670886,,,,,,,2025-03-10,1,,,,,エムワイソリューションズ,0
1190,5122001038969,新規,0,2025-03-10,2025-03-10,Ｒ＆Ｓグループ株式会社,,株式会社,大阪府,八尾市,上之島町南１丁目３１番地,,27,212,5810846,,,,,,,2025-03-10,1,,,,,アールアンドエスグループ,0
1191,5122003003137,新規,0,2025-03-10,2025-03-10,ＴＭＴＣ合同会社,,合同会社,大阪府,柏原市,今町２丁目２－１５,,27,221,5820002,,,,,,,2025-03-10,1,,,,,ティーエムティーシー,0
1200,5140001137558,新規,0,2025-03-10,2025-03-10,株式会社イーゲルコット,,株式会社,兵庫県,西宮市,甲風園１丁目１３番５号２階,,28,204,6620832,,,,,,,2025-03-10,1,,,,,イーゲルコット,0
1201,5140001137616,新規,0,2025-03-10,2025-03-10,株式会社ｙ‐ｓｅｌｆ,,株式会社,兵庫県,尼崎市,御園町２４番地尼崎第一ビル４０２号,,28,202,6600861,,,,,,,2025-03-10,1,,,,,ワイセルフ,0
1202,5140001137640,新規,0,2025-03-10,2025-03-10,ルミエール株式会社,,株式会社,兵庫県,姫路市,南畝町２丁目５０番地,,28,201,6700961,,,,,,,2025-03-10,1,,,,,ルミエール,0
1203,5140001137649,新規,0,2025-03-10,2025-03-10,株式会社モンテアジュダ,,株式会社,兵庫県,西宮市,甲陽園山王町５番１１号,,28,204,6620018,,,,,,,2025-03-10,1,,,,,モンテアジュダ,0
1204,5140001137665,新規,0,2025-03-10,2025-03-10,株式会社からす,,株式会社,兵庫県,伊丹市,昆陽２丁目１６４番地の８ペディレジデンスＢ１０２,,28,207,6640881,,,,,,,2025-03-10,1,,,,,カラス,0
1212,5140003021751,新規,0,2025-03-10,2025-03-10,合同会社神戸三田屋総本家,,合同会社,兵庫県,三田市,南が丘２丁目１５番３５号,,28,219,6691535,,,,,,,2025-03-10,1,,,,,コウベサンダヤソウホンケ,0
1223,5180001165729,新規,0,2025-03-10,2025-03-10,株式会社トリストＬＡＢ,,株式会社,愛知県,名古屋市中川区,万場３丁目１３１４番地,,23,110,4540997,,,,,,,2025-03-10,1,,,,,トリストラボ,0
1224,5180001165761,新規,0,2025-03-10,2025-03-10,株式会社カハク,,株式会社,愛知県,名古屋市昭和区,南分町４丁目５５番地（パルシオ広路１０２号）,,23,107,4660849,,,,,,,2025-03-10,1,,,,,カハク,0
1225,5180001165786,新規,0,2025-03-10,2025-03-10,株式会社三方良,,株式会社,愛知県,名古屋市南区,桜台２丁目６番２号,,23,112,4570005,,,,,,,2025-03-10,1,,,,,サンポウヨシ,0
1226,5180001165803,新規,0,2025-03-10,2025-03-10,株式会社尾関屋,,株式会社,愛知県,江南市,小杁町明土４３番地,,23,217,4838407,,,,,,,2025-03-10,1,,,,,オゼキヤ,0
1257,5260001039981,新規,0,2025-03-10,2025-03-10,株式会社Ｉ’Ｓｔｙｌｅ,,株式会社,岡山県,井原市,高屋町２４５番地４,,33,207,7150024,,,,,,,2025-03-10,1,,,,,アイスタイル,0
1260,5290001109220,新規,0,2025-03-10,2025-03-10,株式会社ＬＥＧＡＲＥ,,株式会社,福岡県,古賀市,中央２丁目８番３５号メゾンドエクセル１０６,,40,223,8113103,,,,,,,2025-03-10,1,,,,,レガーレ,0
1261,5290001109261,新規,0,2025-03-10,2025-03-10,株式会社ＮＯＶＡｔｅｃｈ,,株式会社,福岡県,久留米市,北野町中３２０７番地１プロムナード・コスモス１０３号,,40,203,8301113,,,,,,,2025-03-10,1,,,,,ノバテック,0
1264,5290003016497,新規,0,2025-03-10,2025-03-10,ＴＲＥＡＤ合同会社,,合同会社,福岡県,福岡市中央区,天神２丁目２番１２号Ｔ＆Ｊビルディング７Ｆ,,40,133,8100001,,,,,,,2025-03-10,1,,,,,トレッド,0
1276,5340001027177,新規,0,2025-03-10,2025-03-10,株式会社つきよみ,,株式会社,鹿児島県,鹿児島市,郡元１丁目２番１１－１４０３号,,46,201,8900065,,,,,,,2025-03-10,1,,,,,ツキヨミ,0
1287,5370001052338,新規,0,2025-03-10,2025-03-10,株式会社和,,株式会社,宮城県,宮城郡七ヶ浜町,境山２丁目９番２５号,,04,404,9850824,,,,,,,2025-03-10,1,,,,,ヤワラギ,0
1288,5370003006969,新規,0,2025-03-10,2025-03-10,ＯＬＩＶＥ合同会社,,合同会社,宮城県,仙台市青葉区,国分町２丁目１０－２８ＹＳビックビル４階,,04,101,9800803,,,,,,,2025-03-10,1,,,,,オリーブ,0
1292,5380001035135,新規,0,2025-03-10,2025-03-10,株式会社ふぁーむよしだ,,株式会社,福島県,耶麻郡猪苗代町,大字磐里字仁蔵２番地,,07,408,9693141,,,,,,,2025-03-10,1,,,,,ファームヨシダ,0
1293,5380001035143,新規,0,2025-03-10,2025-03-10,株式会社角部内,,株式会社,福島県,南相馬市,小高区角部内字谷地８５番地,,07,212,9792142,,,,,,,2025-03-10,1,,,,,ツノベウチ,0
1297,5380003005986,新規,0,2025-03-10,2025-03-10,合同会社スタートダッシュ,,合同会社,福島県,須賀川市,古屋敷７５番地,,07,207,9620854,,,,,,,2025-03-10,1,,,,,スタートダッシュ,0
1301,5430001093747,新規,0,2025-03-10,2025-03-10,株式会社トラリ,,株式会社,北海道,札幌市豊平区,平岸三条１２丁目５番１４号,,01,105,0620933,,,,,,,2025-03-10,1,,,,,トラリ,0
1302,5430001093854,新規,0,2025-03-10,2025-03-10,株式会社Ｔ　Ｗｏｒｋｓ,,株式会社,北海道,苫小牧市,新中野町１丁目１０－２２－１０５,,01,213,0530006,,,,,,,2025-03-10,1,,,,,ティーワークス,0
1308,5430003017349,新規,0,2025-03-10,2025-03-10,合同会社夢倉庫,,合同会社,北海道,札幌市南区,石山二条３丁目１４－１１－２０４,,01,106,0050842,,,,,,,2025-03-10,1,,,,,ユメソウコ,0
1309,5430005015169,新規,0,2025-03-10,2025-03-10,一般社団法人岩見沢市広域協定,,その他の設立登記法人,北海道,岩見沢市,六条西７丁目１,,01,210,0680026,,,,,,,2025-03-10,1,,,,,イワミザワシコウイキキョウテイ,0
1331,6010005039671,新規,0,2025-03-10,2025-03-10,一般財団法人ハッシュパワー＆エネルギー未来創造機構,,その他の設立登記法人,東京都,中央区,日本橋本町４丁目１５番１号タカコービル４階,,13,102,1030023,,,,,,,2025-03-10,1,,,,,ハッシュパワーアンドエネルギーミライソウゾウキコウ,0
1332,6010005039705,新規,0,2025-03-10,2025-03-10,医療法人社団孝恵会,,その他の設立登記法人,東京都,中央区,銀座１丁目９番１３号プライム銀座柳通りビル７階,,13,102,1040061,,,,,,,2025-03-10,1,,,,,コウケイカイ,0
1341,6010401188691,新規,0,2025-03-10,2025-03-10,株式会社ＡＲＲＩＶＡＬ,,株式会社,東京都,港区,赤坂２丁目２１番２１－６０２号ミディアススカイコート,,13,103,1070052,,,,,,,2025-03-10,1,,,,,アライバル,0
1342,6010401188725,新規,0,2025-03-10,2025-03-10,株式会社エムバディジャパン,,株式会社,東京都,港区,南麻布２丁目８番２１号ＳＮＵＧ南麻布４０１,,13,103,1060047,,,,,,,2025-03-10,1,,,,,エムバディジャパン,0
1343,6010401188741,新規,0,2025-03-10,2025-03-10,株式会社Ｘ‐テック,,株式会社,東京都,港区,六本木３丁目８－５－９０５,,13,103,1060032,,,,,,,2025-03-10,1,,,,,クロステック,0
1352,6010601066912,新規,0,2025-03-10,2025-03-10,株式会社ストリクス,,株式会社,東京都,墨田区,亀沢３丁目１５－８安斉ビル４Ｆ,,13,107,1300014,,,,,,,2025-03-10,1,,,,,ストリクス,0
1353,6010603011412,新規,0,2025-03-10,2025-03-10,アカマン屋合同会社,,合同会社,東京都,江東区,塩浜２丁目７番５－６０６号,,13,108,1350043,,,,,,,2025-03-10,1,,,,,アカマンヤ,0
1354,6010701047374,新規,0,2025-03-10,2025-03-10,株式会社Ｏｒａｌ　Ｖｉｌｌａｇｅ,,株式会社,東京都,品川区,戸越５丁目１９―１、４０２,,13,109,1420041,,,,,,,2025-03-10,1,,,,,オーラルビレッジ,0
1355,6010701047390,新規,0,2025-03-10,2025-03-10,株式会社ＲＯＷＢＩＤＳ,,株式会社,東京都,品川区,西五反田１丁目２６番２号五反田サンハイツ９１１,,13,109,1410031,,,,,,,2025-03-10,1,,,,,ロウビッド,0
1356,6010803005313,新規,0,2025-03-10,2025-03-10,Ｂｅｙｏｎｄ　Ｐｅａｋｓ合同会社,,合同会社,東京都,大田区,上池台１丁目４４番５号山興ビル上池台５０２,,13,111,1450064,,,,,,,2025-03-10,1,,,,,ビヨンドピークス,0
1358,6010903009767,新規,0,2025-03-10,2025-03-10,合同会社アンドラフ,,合同会社,東京都,世田谷区,駒沢５丁目１１－２３ｃｏｅｎ２０３,,13,112,1540012,,,,,,,2025-03-10,1,,,,,アンドラフ,0
1368,6011001168200,新規,0,2025-03-10,2025-03-10,株式会社ｂｕｉｌｄ,,株式会社,東京都,渋谷区,恵比寿４丁目２０番３号恵比寿ガーデンプレイスタワー１８階,,13,113,1500013,,,,,,,2025-03-10,1,,,,,ビルド,0
1369,6011001168225,新規,0,2025-03-10,2025-03-10,株式会社Ｒｅｍｉｎｕｓ,,株式会社,東京都,渋谷区,渋谷２丁目１９番１５号宮益坂ビルディング６０９,,13,113,1500002,,,,,,,2025-03-10,1,,,,,レミナス,0
1370,6011001168324,新規,0,2025-03-10,2025-03-10,神沢食品株式会社,,株式会社,東京都,渋谷区,恵比寿南３丁目１番２６号クオリアＹ’Ｚ恵比寿６０８号室,,13,113,1500022,,,,,,,2025-03-10,1,,,,,カンザワショクヒン,0
1373,6011101110912,新規,0,2025-03-10,2025-03-10,株式会社ソシエイド,,株式会社,東京都,新宿区,西新宿１丁目２５－１新宿センタービル４７階,,13,104,1600023,,,,,,,2025-03-10,1,,,,,ソシエイド,0
1374,6011103015630,新規,0,2025-03-10,2025-03-10,ＮｉｎｅＡＩ　Ｃｏｎｓｕｌｔｉｎｇ合同会社,,合同会社,東京都,新宿区,中落合４丁目４－７,,13,104,1610032,,,,,,,2025-03-10,1,,,,,ナインエーアイコンサルティング,0
1375,6011201026174,新規,0,2025-03-10,2025-03-10,善哲株式会社,,株式会社,東京都,中野区,中央３丁目４８－５＋ＰＬＵＳＤＯＯＲ・ＮＡＫＡＮＯ２０２号室,,13,114,1640011,,,,,,,2025-03-10,1,,,,,ゼンテツ,0
1377,6011401026882,新規,0,2025-03-10,2025-03-10,株式会社Ｄ　ｔｏ　Ｄ,,株式会社,東京都,板橋区,赤塚３丁目１９番８号,00138265,13,119,1750092,,,,,,,2025-03-10,1,,,,,ディートゥーディー,0
1383,6011801045747,新規,0,2025-03-10,2025-03-10,株式会社アーク,,株式会社,東京都,足立区,六木２丁目５番１０号,,13,121,1210052,,,,,,,2025-03-10,1,,,,,アーク,0
1384,6011801045771,新規,0,2025-03-10,2025-03-10,新富通株式会社,,株式会社,東京都,葛飾区,新小岩２丁目７番１１号ダイチビール２Ｆ,,13,122,1240024,,,,,,,2025-03-10,1,,,,,シンフツウ,0
1387,6012301014291,新規,0,2025-03-10,2025-03-10,株式会社セカンドツーリスト,,株式会社,東京都,町田市,木曽西５丁目２０番２３号,,13,209,1940037,,,,,,,2025-03-10,1,,,,,セカンドツーリスト,0
1388,6012303002121,新規,0,2025-03-10,2025-03-10,合同会社カスミ,,合同会社,東京都,町田市,東玉川学園１丁目１３番１５号,,13,209,1940042,,,,,,,2025-03-10,1,,,,,カスミ,0
1390,6012401042845,新規,0,2025-03-10,2025-03-10,ウイスコブイオーシー株式会社,,株式会社,東京都,小金井市,貫井南町３丁目１２番８号,,13,210,1840014,,,,,,,2025-03-10,1,,,,,ウイスコブイオーシー,0
1391,6012403007012,新規,0,2025-03-10,2025-03-10,合同会社さんぽ,,合同会社,東京都,多摩市,和田４２５－１６,,13,224,2060001,,,,,,,2025-03-10,1,,,,,サンポ,0
1392,6012703003215,新規,0,2025-03-10,2025-03-10,ウィズアップ合同会社,,合同会社,東京都,西東京市,富士町５丁目５－１３－１,,13,229,2020014,,,,,,,2025-03-10,1,,,,,ウィズアップ,0
1394,6012801023809,新規,0,2025-03-10,2025-03-10,株式会社岩波地下構造技術士事務所,,株式会社,東京都,立川市,柴崎町４丁目２番４号,,13,202,1900023,,,,,,,2025-03-10,1,,,,,イワナミチカコウゾウギジュツシジムショ,0
1396,6013301053908,新規,0,2025-03-10,2025-03-10,株式会社リバティ,,株式会社,東京都,豊島区,北大塚２丁目３１番５－１０６号,,13,116,1700004,,,,,,,2025-03-10,1,,,,,リバティ,0
1401,6020001161701,新規,0,2025-03-10,2025-03-10,株式会社ＡＱＵＯＳＳ,,株式会社,神奈川県,横浜市金沢区,町屋町１４番１５号,,14,108,2360022,,,,,,,2025-03-10,1,,,,,アクオス,0
1402,6020001161775,新規,0,2025-03-10,2025-03-10,Ｉｎｖｅｒｓａｌ株式会社,,株式会社,神奈川県,横浜市西区,楠町１８番地４小池ビル２０３号,,14,103,2200003,,,,,,,2025-03-10,1,,,,,インバーサル,0
1409,6021001084660,新規,0,2025-03-10,2025-03-10,株式会社ワ組,,株式会社,神奈川県,大和市,福田４丁目１４番地１５,,14,213,2420024,,,,,,,2025-03-10,1,,,,,ワクミ,0
1411,6021003015696,新規,0,2025-03-10,2025-03-10,合同会社のれん,,合同会社,神奈川県,小田原市,鴨宮８２１番５号,,14,206,2500874,,,,,,,2025-03-10,1,,,,,ノレン,0
1415,6030001165197,新規,0,2025-03-10,2025-03-10,株式会社くるまステーション,,株式会社,埼玉県,狭山市,大字上赤坂６０８番地３,,11,215,3501313,,,,,,,2025-03-10,1,,,,,クルマステーション,0
1416,6030001165222,新規,0,2025-03-10,2025-03-10,アニーパントリー株式会社,,株式会社,埼玉県,蕨市,中央３丁目２２番１５号金沢ビル２階,,11,223,3350004,,,,,,,2025-03-10,1,,,,,アニーパントリー,0
1417,6030001165288,新規,0,2025-03-10,2025-03-10,ＲｏｕｔｅＢｏｘ株式会社,,株式会社,埼玉県,春日部市,南中曽根７２５番地２３,,11,214,3440048,,,,,,,2025-03-10,1,,,,,ルートボックス,0
1418,6030001165296,新規,0,2025-03-10,2025-03-10,株式会社Ｃｏｄｅ　Ｃｏｒｅ,,株式会社,埼玉県,狭山市,富士見２丁目９番１２号,,11,215,3501306,,,,,,,2025-03-10,1,,,,,コードコア,0
1419,6030001165313,新規,0,2025-03-10,2025-03-10,株式会社カラ,,株式会社,埼玉県,さいたま市桜区,桜田１丁目１９番２２号西浦和ガーデン２０２号室,,11,106,3380833,,,,,,,2025-03-10,1,,,,,カラ,0
1429,6040001137625,新規,0,2025-03-10,2025-03-10,株式会社ＹＨＤＨ,,株式会社,千葉県,松戸市,小金原１丁目２８番地の２１,,12,207,2700021,,,,,,,2025-03-10,1,,,,,ワイエイチディエイチ,0
1433,6050001056287,新規,0,2025-03-10,2025-03-10,株式会社Ｅ‐Ｗｏｒｋｓ,,株式会社,茨城県,取手市,東４丁目２番２８－５号,,08,217,3020005,,,,,,,2025-03-10,1,,,,,イーワークス,0
1442,6060003005456,新規,0,2025-03-10,2025-03-10,ジェーシーケービー合同会社,,合同会社,栃木県,小山市,大字神鳥谷１８７１番地１８,,09,208,3230827,,,,,,,2025-03-10,1,,,,,ジェーシーケービー,0
1445,6080001026774,新規,0,2025-03-10,2025-03-10,株式会社コンシステント,,株式会社,静岡県,静岡市葵区,東千代田２丁目１８番２号,,22,101,4200801,,,,,,,2025-03-10,1,,,,,コンシステント,0
1449,6100001038354,新規,0,2025-03-10,2025-03-10,犬処ケンケン株式会社,,株式会社,長野県,須坂市,大字須坂１４１６番地,,20,207,3820000,,,,,,,2025-03-10,1,,,,,イヌドコロケンケン,0
1456,6120001273445,新規,0,2025-03-10,2025-03-10,株式会社ティンバースタジオ,,株式会社,大阪府,大阪市西区,阿波座１丁目６番１３号,,27,106,5500011,,,,,,,2025-03-10,1,,,,,ティンバースタジオ,0
1457,6120001273453,新規,0,2025-03-10,2025-03-10,株式会社Ｎ．Ａ．Ｄ,,株式会社,大阪府,大阪市西区,新町１丁目２１番８－３２０６号,,27,106,5500013,,,,,,,2025-03-10,1,,,,,エヌエーディー,0
1458,6120001273461,新規,0,2025-03-10,2025-03-10,株式会社オーシャン,,株式会社,大阪府,大阪市中央区,東心斎橋１丁目２番１号ブランズタワーノース１７０７号,,27,128,5420083,,,,,,,2025-03-10,1,,,,,オーシャン,0
1459,6120001273528,新規,0,2025-03-10,2025-03-10,株式会社ＨＯＰＥクリーンサービス,,株式会社,大阪府,大阪市北区,梅田１丁目１番３号大阪駅前第３ビル２９階１－１－１号室,,27,127,5300001,,,,,,,2025-03-10,1,,,,,ホープクリーンサービス,0
1460,6120003028772,新規,0,2025-03-10,2025-03-10,合同会社ＱＡ　Ｂｅａｕｔｙ,,合同会社,大阪府,大阪市東住吉区,湯里２丁目１３番地２－５０２号室,,27,121,5460013,,,,,,,2025-03-10,1,,,,,キューエアビアウティー,0
1461,6120003028797,新規,0,2025-03-10,2025-03-10,合同会社２４,,合同会社,大阪府,大阪市北区,中津３丁目２９番２７－１００６号,,27,127,5310071,,,,,,,2025-03-10,1,,,,,ニジュウヨン,0
1464,6120101071220,新規,0,2025-03-10,2025-03-10,株式会社ズィー・グローリー,,株式会社,大阪府,貝塚市,二色２丁目１２番５－３０２号,,27,208,5970091,,,,,,,2025-03-10,1,,,,,ズィーグローリー,0
1465,6120103006307,新規,0,2025-03-10,2025-03-10,合同会社アピオ,,合同会社,大阪府,泉佐野市,鶴原３丁目１０番１号,,27,213,5980071,,,,,,,2025-03-10,1,,,,,アピオ,0
1468,6120901050539,新規,0,2025-03-10,2025-03-10,株式会社ＩＳＣ,,株式会社,大阪府,豊中市,新千里北町３丁目１番１２－９０５号,,27,203,5600081,,,,,,,2025-03-10,1,,,,,アイエスシー,0
1469,6120901050547,新規,0,2025-03-10,2025-03-10,弥生工業株式会社,,株式会社,大阪府,摂津市,鳥飼本町２丁目８番２９号,,27,224,5660052,,,,,,,2025-03-10,1,,,,,ヤヨイコウギョウ,0
1470,6122001038968,新規,0,2025-03-10,2025-03-10,まどかｖｉｃｔｏｒｙ株式会社,,株式会社,大阪府,大東市,野崎１丁目８－２２、１０３号,,27,218,5740015,,,,,,,2025-03-10,1,,,,,マドカビクトリー,0
1474,6130001079156,新規,0,2025-03-10,2025-03-10,株式会社元禾,,株式会社,京都府,京都市中京区,六角町３６８－１,,26,104,6048212,,,,,,,2025-03-10,1,,,,,モカ,0
1475,6130001079164,新規,0,2025-03-10,2025-03-10,東田産業株式会社,,株式会社,京都府,京都市下京区,西七条西八反田町３９番地,,26,106,6008892,,,,,,,2025-03-10,1,,,,,トウダサンギョウ,0
1485,6140001137656,新規,0,2025-03-10,2025-03-10,Ｋｉｒａｎａｈ　Ｆｏｏｄｓ株式会社,,株式会社,兵庫県,神戸市西区,王塚台１丁目４０,,28,111,6512135,,,,,,,2025-03-10,1,,,,,キラナフーズ,0
1489,6140003021742,新規,0,2025-03-10,2025-03-10,フィーロ合同会社,,合同会社,兵庫県,丹波市,氷上町上成松２２８番地５,,28,223,6693606,,,,,,,2025-03-10,1,,,,,フィーロ,0
1491,6140005027399,新規,0,2025-03-10,2025-03-10,一般社団法人まさきち,,その他の設立登記法人,兵庫県,神戸市中央区,元町通４丁目２番１４－５０５号,,28,110,6500022,,,,,,,2025-03-10,1,,,,,マサキチ,0
1504,6180001165703,新規,0,2025-03-10,2025-03-10,牧野コンサルティング株式会社,,株式会社,愛知県,知多郡武豊町,大字冨貴字砂水１１０番地,,23,447,4702531,,,,,,,2025-03-10,1,,,,,マキノコンサルティング,0
1505,6180001165802,新規,0,2025-03-10,2025-03-10,株式会社リンク,,株式会社,愛知県,一宮市,大和町宮地花池字下り松３４番地,,23,203,4910847,,,,,,,2025-03-10,1,,,,,リンク,0
1516,6200001043484,新規,0,2025-03-10,2025-03-10,株式会社Ｓｕｐｐｏｒｔ　ＰＲＯ,,株式会社,岐阜県,関市,西神野１０５８‐１,,21,205,5013202,,,,,,,2025-03-10,1,,,,,サポートプロ,0
1527,6260005011449,新規,0,2025-03-10,2025-03-10,一般社団法人かがみの光豐舎天桂寺,,その他の設立登記法人,岡山県,苫田郡鏡野町,井坂６６番地,,33,606,7080421,,,,,,,2025-03-10,1,,,,,カガミノコウボウシャテンケイジ,0
1528,6280003001929,新規,0,2025-03-10,2025-03-10,Ｃａｓｃａｄｅｒ合同会社,,合同会社,島根県,松江市,雑賀町２４１番地,,32,201,6900056,,,,,,,2025-03-10,1,,,,,カスケーダー,0
1532,6290003016505,新規,0,2025-03-10,2025-03-10,合同会社ＴＲＩＴＯＮ,,合同会社,福岡県,筑紫野市,大字永岡１８１番地１号３階,,40,217,8180066,,,,,,,2025-03-10,1,,,,,トリトン,0
1535,6310001019481,新規,0,2025-03-10,2025-03-10,株式会社長崎農業,,株式会社,長崎県,長崎市,琴海戸根町２６９２番地,,42,201,8513103,,,,,,,2025-03-10,1,,,,,ナガサキノウギョウ,0
1541,6330001032929,新規,0,2025-03-10,2025-03-10,株式会社Ｑ電気,,株式会社,熊本県,熊本市北区,龍田８丁目１６番４－１０６号ビレッジハウス竜田４号棟,,43,105,8618006,,,,,,,2025-03-10,1,,,,,キューデンキ,0
1552,6340001027176,新規,0,2025-03-10,2025-03-10,株式会社ゼロシステム,,株式会社,鹿児島県,鹿児島市,東千石町１１‐１４サムシングビル１階,,46,201,8920842,,,,,,,2025-03-10,1,,,,,ゼロシステム,0
1554,6340005009823,新規,0,2025-03-10,2025-03-10,特定非営利活動法人北薩の戦争遺産を後世に遺す会,,その他の設立登記法人,鹿児島県,出水市,下鯖町１７１８番地,,46,208,8990123,,,,,,,2025-03-10,1,,,,,ホクサツノセンソウイサンヲコウセイニノコスカイ,0
1555,6360003014749,新規,0,2025-03-10,2025-03-10,合同会社Ｄｅｓｉｇｎ　ｗｏｒｋｓ宮,,合同会社,沖縄県,沖縄市,泡瀬２丁目１４番１１号,,47,211,9042172,,,,,,,2025-03-10,1,,,,,デザインワークスミヤ,0
1559,6370001052329,新規,0,2025-03-10,2025-03-10,株式会社ｂｉｏｎｔｏ,,株式会社,宮城県,仙台市青葉区,荒巻字青葉４６８番地の１東北大学マテリアル・イノベーション・センター青葉山ガレージ内,,04,101,9800845,,,,,,,2025-03-10,1,,,,,ビオント,0
1560,6370001052337,新規,0,2025-03-10,2025-03-10,株式会社東宝,,株式会社,宮城県,仙台市若林区,若林２丁目５番５号３階Ａ,,04,103,9840826,,,,,,,2025-03-10,1,,,,,トウホウ,0
1561,6370003006976,新規,0,2025-03-10,2025-03-10,合同会社ＫＫＳ,,合同会社,宮城県,岩沼市,館下１丁目２番４‐１号,,04,211,9892441,,,,,,,2025-03-10,1,,,,,ケーケーエス,0
1563,6380001035142,新規,0,2025-03-10,2025-03-10,赤井総業株式会社,,株式会社,福島県,いわき市,泉もえぎ台１丁目３５番地の７,,07,204,9718188,,,,,,,2025-03-10,1,,,,,アカイソウギョウ,0
1564,6380001035150,新規,0,2025-03-10,2025-03-10,株式会社ＭＡＲＵＷ,,株式会社,福島県,安達郡大玉村,大山字仲ノ内１８４番地２４,,07,322,9691301,,,,,,,2025-03-10,1,,,,,マルゥ,0
1570,6430001093845,新規,0,2025-03-10,2025-03-10,北海道再エネアグリゲーション株式会社,,株式会社,北海道,札幌市中央区,大通西１丁目１４番地２桂和大通ビル５０・９Ｆ,,01,101,0600042,,,,,,,2025-03-10,1,,,,,ホッカイドウサイエネアグリゲーション,0
1573,6430003017356,新規,0,2025-03-10,2025-03-10,ＭｅｄＮｏｖａ　Ｓｙｓｔｅｍｓ合同会社,,合同会社,北海道,札幌市中央区,南二条西５丁目３１‐１ＲＭＢｌｄ．７０１,,01,101,0600062,,,,,,,2025-03-10,1,,,,,メドノヴァシステムズ,0
1574,6430005015168,新規,0,2025-03-10,2025-03-10,一般社団法人悠久会,,その他の設立登記法人,北海道,札幌市西区,西野十一条９丁目２０番３５号,,01,107,0630041,,,,,,,2025-03-10,1,,,,,ユウキュウカイ,0
1577,6440003001672,新規,0,2025-03-10,2025-03-10,合同会社Ｇ・Ｇカンパニー,,合同会社,北海道,函館市,宝来町３０番４号,,01,202,0400043,,,,,,,2025-03-10,1,,,,,ジージーカンパニー,0
1579,6460001005979,新規,0,2025-03-10,2025-03-10,株式会社Ｒ,,株式会社,北海道,釧路郡釧路町,北都２丁目２番地１４,,01,661,0880617,,,,,,,2025-03-10,1,,,,,アール,0
1594,7010001252830,新規,0,2025-03-10,2025-03-10,株式会社レリビルド,,株式会社,東京都,千代田区,外神田５丁目１番１０号千住ビル６階,,13,101,1010021,,,,,,,2025-03-10,1,,,,,レリビルド,0
1595,7010001252987,新規,0,2025-03-10,2025-03-10,ＥＬＥＭＥＮＴＡ株式会社,,株式会社,東京都,千代田区,丸の内１丁目１１番１号,,13,101,1000005,,,,,,,2025-03-10,1,,,,,エレメンタ,0
1596,7010001252995,新規,0,2025-03-10,2025-03-10,株式会社エスコッチコンサルティング,,株式会社,東京都,千代田区,九段北１丁目１番７号カーサ九段３０５号室,,13,101,1020073,,,,,,,2025-03-10,1,,,,,エスコッチコンサルティング,0
1610,7010501053745,新規,0,2025-03-10,2025-03-10,株式会社Ｇｅｒｂｅｒａ,,株式会社,東京都,台東区,浅草橋３丁目２０番１３－５０１号ルフォン浅草蔵前,,13,106,1110053,,,,,,,2025-03-10,1,,,,,,0
1613,7010601066903,新規,0,2025-03-10,2025-03-10,株式会社Ｖｉｇｏｒ,,株式会社,東京都,墨田区,業平１丁目１５番２号徳ビル,,13,107,1300002,,,,,,,2025-03-10,1,,,,,ヴィゴール,0
1615,7010701047340,新規,0,2025-03-10,2025-03-10,株式会社サーチファンド・ジャパン０７,,株式会社,東京都,品川区,小山台１丁目２０番１号,,13,109,1420061,,,,,,,2025-03-10,1,,,,,サーチファンドジャパンゼロセブン,0
1622,7011001168174,新規,0,2025-03-10,2025-03-10,株式会社ＫｉＬｉＧ,,株式会社,東京都,渋谷区,初台１丁目４５番２号,,13,113,1510061,,,,,,,2025-03-10,1,,,,,キリグ,0
1624,7011005010902,新規,0,2025-03-10,2025-03-10,一般社団法人アクティブサポーターズ,,その他の設立登記法人,東京都,渋谷区,渋谷２丁目１９番１５号宮益坂ビルディング６０９,,13,113,1500002,,,,,,,2025-03-10,1,,,,,アクティブサポーターズ,0
1627,7011101110820,新規,0,2025-03-10,2025-03-10,株式会社Ｐｒｅｅｍｉｎｅｎｔ,,株式会社,東京都,新宿区,西新宿４丁目８番３１号ＥＳ－Ｇｒａｎｄ西新宿２０６,,13,104,1600023,,,,,,,2025-03-10,1,,,,,プリエミネント,0
1628,7011201026181,新規,0,2025-03-10,2025-03-10,村合株式会社,,株式会社,東京都,中野区,中野１丁目３９番５号ゆうでん２１・３０１,,13,114,1640001,,,,,,,2025-03-10,1,,,,,ムラアイ,0
1637,7011301030414,新規,0,2025-03-10,2025-03-10,株式会社Ｓｈｅｒｐａ,,株式会社,東京都,杉並区,梅里１丁目１３番８号,,13,115,1660011,,,,,,,2025-03-10,1,,,,,シェルパ,0
1639,7011401026881,新規,0,2025-03-10,2025-03-10,致遠株式会社,,株式会社,東京都,板橋区,仲宿６３番地７号４０６室,,13,119,1730005,,,,,,,2025-03-10,1,,,,,チエン,0
1645,7011701028124,新規,0,2025-03-10,2025-03-10,１１株式会社,,株式会社,東京都,江戸川区,鹿骨５丁目３７番５号フローラ１０１,,13,123,1330073,,,,,,,2025-03-10,1,,,,,イレブン,0
1649,7011801045746,新規,0,2025-03-10,2025-03-10,グローバルエステート株式会社,,株式会社,東京都,葛飾区,東金町１丁目４４番１７号星野金町ビル６階,,13,122,1250041,,,,,,,2025-03-10,1,,,,,グローバルエステート,0
1650,7011801045762,新規,0,2025-03-10,2025-03-10,株式会社Ｙ＆Ｙリゾート,,株式会社,東京都,足立区,舎人１丁目１２番１１号,,13,121,1210831,,,,,,,2025-03-10,1,,,,,ワイアンドワイリゾート,0
1654,7012401042852,新規,0,2025-03-10,2025-03-10,株式会社優,,株式会社,東京都,調布市,深大寺元町５丁目３５番地３９,,13,208,1820017,,,,,,,2025-03-10,1,,,,,ユウ,0
1655,7012803003659,新規,0,2025-03-10,2025-03-10,Ｂｅｓｔ　Ｏｎｅ合同会社,,合同会社,東京都,立川市,錦町１丁目１５－２０アパートメント石原４０５号室,,13,202,1900022,,,,,,,2025-03-10,1,,,,,ベストワン,0
1658,7013301053907,新規,0,2025-03-10,2025-03-10,株式会社三桐,,株式会社,東京都,豊島区,南池袋２丁目１９番１５号,,13,116,1710022,,,,,,,2025-03-10,1,,,,,サンギリ,0
1659,7013303007563,新規,0,2025-03-10,2025-03-10,ソシテマタ合同会社,,合同会社,東京都,豊島区,東池袋５丁目７番３号東池袋五丁目ビル２階,,13,116,1700013,,,,,,,2025-03-10,1,,,,,ソシテマタ,0
1668,7020003028006,新規,0,2025-03-10,2025-03-10,合同会社三孝,,合同会社,神奈川県,川崎市中原区,小杉陣屋町１丁目８番２号,,14,133,2110062,,,,,,,2025-03-10,1,,,,,サンコウ,0
1674,7021005013292,新規,0,2025-03-10,2025-03-10,特定非営利活動法人シニアも社会を支える国へ,,その他の設立登記法人,神奈川県,茅ヶ崎市,共恵１丁目１番５号Ｂ．Ｌ．Ｄ・Ｎａｇａｓｈｉｍａ３０１号室,,14,207,2530056,,,,,,,2025-03-10,1,,,,,シニアモシャカイヲササエルクニヘ,0
1696,7060001037987,新規,0,2025-03-10,2025-03-10,株式会社無双,,株式会社,栃木県,那須塩原市,四区町１５２７番地１７,,09,213,3292746,,,,,,,2025-03-10,1,,,,,ムソウ,0
1697,7060001038003,新規,0,2025-03-10,2025-03-10,株式会社ＳｏｕｎｄＨｅａｒｔ,,株式会社,栃木県,那須塩原市,南郷屋３丁目１４４番地５０,,09,213,3292705,,,,,,,2025-03-10,1,,,,,サウンドハート,0
1700,7080001026798,新規,0,2025-03-10,2025-03-10,かぐら不動産株式会社,,株式会社,静岡県,静岡市駿河区,宮竹１丁目１番５０号,,22,102,4228035,,,,,,,2025-03-10,1,,,,,カグラフドウサン,0
1702,7080405007717,新規,0,2025-03-10,2025-03-10,遠州田園住宅協同組合,,その他の設立登記法人,静岡県,浜松市中央区,南浅田２丁目２番１号,,22,138,4328044,,,,,,,2025-03-10,1,,,,,エンシュウデンエンジュウタク,0
1707,7110003005689,新規,0,2025-03-10,2025-03-10,合同会社エクスピック,,合同会社,新潟県,新潟市西蒲区,和納９４０番地,,15,108,9530125,,,,,,,2025-03-10,1,,,,,エクスピック,0
1717,7120001273485,新規,0,2025-03-10,2025-03-10,三田ＭＴＰ株式会社,,株式会社,大阪府,大阪市西成区,北開１丁目３番２４号２Ｆ,,27,122,5570021,,,,,,,2025-03-10,1,,,,,サンダエムティーピー,0
1718,7120001273493,新規,0,2025-03-10,2025-03-10,株式会社Ｒｉｚａｒｄｓ,,株式会社,大阪府,大阪市浪速区,芦原２丁目５－４８,,27,111,5560029,,,,,,,2025-03-10,1,,,,,リザーズ,0
1725,7120101071228,新規,0,2025-03-10,2025-03-10,株式会社エンリング,,株式会社,大阪府,堺市北区,野遠町１９２番地１８,,27,146,5918013,,,,,,,2025-03-10,1,,,,,エンリング,0
1728,7120901050546,新規,0,2025-03-10,2025-03-10,株式会社ＩＰＰＯ　ＰＲＯＪＥＣＴ,,株式会社,大阪府,豊中市,東豊中町４丁目１７－２７,,27,203,5600003,,,,,,,2025-03-10,1,,,,,イッポプロジェクト,0
1733,7122001038959,新規,0,2025-03-10,2025-03-10,株式会社Ａｌｃｈｅｍｉａｅ,,株式会社,大阪府,大東市,深野３丁目１番７号,,27,218,5740072,,,,,,,2025-03-10,1,,,,,アルケミエ,0
1736,7130001079139,新規,0,2025-03-10,2025-03-10,株式会社アールホールディングス,,株式会社,京都府,京都市中京区,七観音町６２３第１１長谷ビル６階,,26,104,6048162,,,,,,,2025-03-10,1,,,,,アールホールディングス,0
1737,7130003010266,新規,0,2025-03-10,2025-03-10,ラジャマート合同会社,,合同会社,京都府,京都市下京区,西七条南月読町９２番地６,,26,106,6008885,,,,,,,2025-03-10,1,,,,,ラジャマート,0
1742,7140001137597,新規,0,2025-03-10,2025-03-10,株式会社アンチェノワ,,株式会社,兵庫県,神戸市中央区,磯辺通１丁目１番１８号カサベラ国際プラザビル７０７号室,,28,110,6510084,,,,,,,2025-03-10,1,,,,,アンチェノワ,0
1743,7140001137647,新規,0,2025-03-10,2025-03-10,株式会社下原築炉,,株式会社,兵庫県,尼崎市,南武庫之荘４丁目３番６－２号,,28,202,6610033,,,,,,,2025-03-10,1,,,,,シモハラチクロ,0
1754,7180001165751,新規,0,2025-03-10,2025-03-10,株式会社ネクスト,,株式会社,愛知県,名古屋市中村区,名駅３丁目４番１０号アルティメイト名駅１ｓｔ２階,,23,105,4500002,,,,,,,2025-03-10,1,,,,,ネクスト,0
1755,7180001165784,新規,0,2025-03-10,2025-03-10,株式会社グランツ,,株式会社,愛知県,名古屋市中区,錦３丁目９番１号シャインホワイト錦２Ｆ,,23,106,4600003,,,,,,,2025-03-10,1,,,,,グランツ,0
1758,7180003028089,新規,0,2025-03-10,2025-03-10,合同会社絆の実,,合同会社,愛知県,小牧市,光ケ丘１丁目１番地アクシス光ケ丘４号棟６０３号室,,23,219,4850811,,,,,,,2025-03-10,1,,,,,キズナノミ,0
1759,7180005020977,新規,0,2025-03-10,2025-03-10,一般社団法人ＡＩＣＨＩ　ＦＯＯＴＢＡＬＬ　ＡＣＡＤＥＭＹ,,その他の設立登記法人,愛知県,名古屋市名東区,勢子坊３丁目１３１７番地,,23,115,4650055,,,,,,,2025-03-10,1,,,,,アイチフットボールアカデミー,0
1760,7200001043509,新規,0,2025-03-10,2025-03-10,株式会社あおぞら,,株式会社,岐阜県,養老郡養老町,飯ノ木２１３番地１,,21,341,5031325,,,,,,,2025-03-10,1,,,,,アオゾラ,0
1761,7200005013730,新規,0,2025-03-10,2025-03-10,一般社団法人美濃加茂バスケットボール,,その他の設立登記法人,岐阜県,美濃加茂市,本郷町７丁目３番５８号,,21,211,5050027,,,,,,,2025-03-10,1,,,,,ミノカモバスケットボール,0
1766,7220005008935,新規,0,2025-03-10,2025-03-10,農事組合法人かなづの郷営農組合,,その他の設立登記法人,石川県,かほく市,横山リ１１０番地１の２,,17,209,9291105,,,,,,,2025-03-10,1,,,,,カナヅノサトエイノウクミアイ,0
1778,7290001109185,新規,0,2025-03-10,2025-03-10,株式会社ＪＯＢ　ＮＡＶＩ,,株式会社,福岡県,福岡市中央区,高砂１丁目１－２５－４０４,,40,133,8100011,,,,,,,2025-03-10,1,,,,,ジョブナビ,0
1779,7290001109193,新規,0,2025-03-10,2025-03-10,株式会社ｓｏｉｌ　ｓｅｌｅｃｔ,,株式会社,福岡県,柳川市,三橋町今古賀４２番地１,,40,207,8320823,,,,,,,2025-03-10,1,,,,,ソイルセレクト,0
1780,7290003016462,新規,0,2025-03-10,2025-03-10,合同会社えらく屋,,合同会社,福岡県,大野城市,南ケ丘４丁目８－１商工センタービル２０３,,40,219,8160964,,,,,,,2025-03-10,1,,,,,エラクヤ,0
1783,7310001019489,新規,0,2025-03-10,2025-03-10,株式会社ＣＯＬＯＲＳ,,株式会社,長崎県,佐世保市,本島町１番１号シネマ太陽本島ビル４０１号,,42,202,8570871,,,,,,,2025-03-10,1,,,,,カラーズ,0
1785,7320001020982,新規,0,2025-03-10,2025-03-10,株式会社大分事業承継プラザ,,株式会社,大分県,大分市,大字中判田１２４番地の１,,44,201,8701113,,,,,,,2025-03-10,1,,,,,オオイタジギョウショウケイプラザ,0
1798,7340001027175,新規,0,2025-03-10,2025-03-10,株式会社正方産業,,株式会社,鹿児島県,鹿児島市,新照院町２８番２号,,46,201,8900016,,,,,,,2025-03-10,1,,,,,セイホウサンギョウ,0
1806,7360003014723,新規,0,2025-03-10,2025-03-10,合同会社コープスホーム,,合同会社,沖縄県,那覇市,若狭１丁目３番２０号豊マンション３－Ｃ,,47,201,9000031,,,,,,,2025-03-10,1,,,,,コープスホーム,0
1808,7370001052311,新規,0,2025-03-10,2025-03-10,株式会社Ａｄｈｅｓｉｏｎ　Ｔｅｃｈ,,株式会社,宮城県,仙台市太白区,鈎取４丁目１２番２号シャーメゾン樹１０１,,04,104,9820804,,,,,,,2025-03-10,1,,,,,アドヒージョンテック,0
1809,7370003006975,新規,0,2025-03-10,2025-03-10,はあとｍｔ合同会社,,合同会社,宮城県,仙台市青葉区,昭和町５－２３－４０３,,04,101,9810913,,,,,,,2025-03-10,1,,,,,ハアトエムテイ,0
1813,7420003003083,新規,0,2025-03-10,2025-03-10,合同会社くらしっぷ,,合同会社,青森県,青森市,大字三内字沢部３４１番地８,,02,201,0380031,,,,,,,2025-03-10,1,,,,,クラシップ,0
1815,7430001093844,新規,0,2025-03-10,2025-03-10,株式会社鶴見農園,,株式会社,北海道,夕張郡長沼町,東２線北１３番地,,01,428,0691317,,,,,,,2025-03-10,1,,,,,ツルミノウエン,0
1818,7430003017355,新規,0,2025-03-10,2025-03-10,旭升リサイクル合同会社,,合同会社,北海道,岩見沢市,栄町１丁目１７－１８,,01,210,0680821,,,,,,,2025-03-10,1,,,,,キョクショウリサイクル,0
1819,7460001005978,新規,0,2025-03-10,2025-03-10,株式会社しんか,,株式会社,北海道,釧路郡釧路町,北都２丁目２番地１４,,01,661,0880617,,,,,,,2025-03-10,1,,,,,シンカ,0
1835,8010005039686,新規,0,2025-03-10,2025-03-10,戸田建設プライベートリート投資法人,,その他の設立登記法人,東京都,中央区,銀座１丁目１５番６号,,13,102,1040061,,,,,,,2025-03-10,1,,,,,トダケンセツプライベートリート,0
1840,8010403034553,新規,0,2025-03-10,2025-03-10,Ｓｏｈｏ　Ｈｏｕｓｅ　Ｔｏｋｙｏ合同会社,,合同会社,東京都,港区,六本木３丁目７番１－１７２０号,,13,103,1060032,,,,,,,2025-03-10,1,,,,,ソーホーハウストウキョウ,0
1844,8010601066877,新規,0,2025-03-10,2025-03-10,株式会社Ｖｅｅｄｉａ,,株式会社,東京都,墨田区,両国１丁目４番５号,,13,107,1300026,,,,,,,2025-03-10,1,,,,,ブイダイア,0
1845,8010601066910,新規,0,2025-03-10,2025-03-10,株式会社ＵＲＳ　Ｇａｍｅｓ,,株式会社,東京都,江東区,深川２丁目２番１８号,,13,108,1350033,,,,,,,2025-03-10,1,,,,,ユアーズゲームス,0
1846,8010701047364,新規,0,2025-03-10,2025-03-10,ＴＳＮｅｔ　Ｊａｐａｎ株式会社,,株式会社,東京都,品川区,東五反田２丁目４番４号ナカザワビル３階,,13,109,1410022,,,,,,,2025-03-10,1,,,,,ティエスネットジャパン,0
1847,8010901056925,新規,0,2025-03-10,2025-03-10,株式会社長谷美設計,,株式会社,東京都,世田谷区,南烏山５丁目１７番１１－４０２号,,13,112,1570062,,,,,,,2025-03-10,1,,,,,ハセミセッケイ,0
1848,8010901056941,新規,0,2025-03-10,2025-03-10,Ｓａｉｄａｉ株式会社,,株式会社,東京都,世田谷区,太子堂４丁目１８番１５号マガザン三軒茶屋２－３Ｆ－３,,13,112,1540004,,,,,,,2025-03-10,1,,,,,サイダイ,0
1853,8011001168280,新規,0,2025-03-10,2025-03-10,ＭａｇｅＬａｂｓ株式会社,,株式会社,東京都,渋谷区,宇田川町３４番５号サイト―ビルＩＩＩ５階３４,00138259,13,113,1500042,,,,,,,2025-03-10,1,,,,,メイジラボ,0
1858,8011003021124,新規,0,2025-03-10,2025-03-10,Ｌａｄｉｃａｌ合同会社,,合同会社,東京都,目黒区,鷹番２丁目２０番１２号３０２号室,,13,110,1520004,,,,,,,2025-03-10,1,,,,,ラディカル,0
1875,8011501031772,新規,0,2025-03-10,2025-03-10,ＨＩＣＳ株式会社,,株式会社,東京都,荒川区,東尾久２丁目２－９－２１４号室,,13,118,1160012,,,,,,,2025-03-10,1,,,,,ハイクス,0
1876,8011501031789,新規,0,2025-03-10,2025-03-10,新日本ｈｏｐｅ株式会社,,株式会社,東京都,北区,上十条１丁目２９番５号スターハイム十条１０２号室,,13,117,1140034,,,,,,,2025-03-10,1,,,,,シンニホンホープ,0
1879,8011701028131,新規,0,2025-03-10,2025-03-10,冠霖株式会社,,株式会社,東京都,江戸川区,平井６丁目５－１５－２０４号室,,13,123,1320035,,,,,,,2025-03-10,1,,,,,カンリン,0
1881,8011801045729,新規,0,2025-03-10,2025-03-10,Ｍｉ　Ｔｏ　Ｙｕ株式会社,,株式会社,東京都,足立区,千住東１丁目２２番３号,,13,121,1200025,,,,,,,2025-03-10,1,,,,,ミトユ,0
1883,8011803006720,新規,0,2025-03-10,2025-03-10,合同会社Ｂ‐Ｐｒｅｃｉｏｕｓ,,合同会社,東京都,葛飾区,堀切４丁目６番６号,,13,122,1240006,,,,,,,2025-03-10,1,,,,,ビープレシャス,0
1887,8012403007010,新規,0,2025-03-10,2025-03-10,ＨＡＷＫＳ合同会社,,合同会社,東京都,府中市,八幡町２丁目２０番地の３０,,13,206,1830016,,,,,,,2025-03-10,1,,,,,ホークス,0
1888,8012801023807,新規,0,2025-03-10,2025-03-10,株式会社ｋａｔｕ,,株式会社,東京都,国立市,中１丁目７－６２,,13,215,1860004,,,,,,,2025-03-10,1,,,,,カツ,0
1892,8013301053889,新規,0,2025-03-10,2025-03-10,サブリメイション株式会社,,株式会社,東京都,豊島区,東池袋３丁目１番１号サンシャイン６０－１２Ｆ,,13,116,1700013,,,,,,,2025-03-10,1,,,,,サブリメイション,0
1893,8013301053897,新規,0,2025-03-10,2025-03-10,ＭＹＭ株式会社,,株式会社,東京都,豊島区,東池袋４丁目５番１号,,13,116,1700013,,,,,,,2025-03-10,1,,,,,エムワイエム,0
1894,8013301053906,新規,0,2025-03-10,2025-03-10,株式会社ライスフィールズ,,株式会社,東京都,豊島区,池袋２丁目３９番１２号日神デュオステージ池袋１２０２号,,13,116,1710014,,,,,,,2025-03-10,1,,,,,ライスフィールズ,0
1899,8020001161749,新規,0,2025-03-10,2025-03-10,株式会社わたぐも,,株式会社,神奈川県,川崎市川崎区,池田１丁目１２番１３号,,14,131,2100022,,,,,,,2025-03-10,1,,,,,ワタグモ,0
1917,8021003015694,新規,0,2025-03-10,2025-03-10,ＭＪ商事合同会社,,合同会社,神奈川県,相模原市南区,上鶴間５丁目１番２０号アーバン３０１,,14,153,2520302,,,,,,,2025-03-10,1,,,,,エムジェイショウジ,0
1923,8030001165278,新規,0,2025-03-10,2025-03-10,株式会社ＡＵＴＯＬＯＧＩＣＳ,,株式会社,埼玉県,さいたま市中央区,本町西１丁目３番８－４号,,11,105,3380004,,,,,,,2025-03-10,1,,,,,オートロックス,0
1924,8030001165303,新規,0,2025-03-10,2025-03-10,株式会社メイセイ,,株式会社,埼玉県,所沢市,御幸町１番１６－６０２号,,11,208,3591115,,,,,,,2025-03-10,1,,,,,メイセイ,0
1928,8030003026263,新規,0,2025-03-10,2025-03-10,合同会社エヌテック,,合同会社,埼玉県,北葛飾郡松伏町,大字松伏２１４５－３,,11,465,3430111,,,,,,,2025-03-10,1,,,,,エヌテック,0
1929,8030005022070,新規,0,2025-03-10,2025-03-10,農事組合法人柳沢,,その他の設立登記法人,埼玉県,加須市,東栄１丁目９－１８オフィス重本Ｆ,,11,210,3470064,,,,,,,2025-03-10,1,,,,,,0
1959,8110005017194,新規,0,2025-03-10,2025-03-10,一般社団法人サンクチュアリつねよし,,その他の設立登記法人,新潟県,三条市,本町６丁目９－１,,15,204,9550071,,,,,,,2025-03-10,1,,,,,サンクチュアリツネヨシ,0
1965,8120001273410,新規,0,2025-03-10,2025-03-10,株式会社ＳＰプロパティ,,株式会社,大阪府,大阪市北区,西天満６丁目２番１４号,,27,127,5300047,,,,,,,2025-03-10,1,,,,,エスピープロパティ,0
1966,8120001273419,新規,0,2025-03-10,2025-03-10,株式会社ＬＯＬ．ｉｎｃ,,株式会社,大阪府,守口市,南寺方中通２丁目６番１０グランフェリシアＡ棟２０５号,,27,209,5700045,,,,,,,2025-03-10,1,,,,,エルオーエルインク,0
1967,8120001273427,新規,0,2025-03-10,2025-03-10,Ｌｋｉ株式会社,,株式会社,大阪府,大阪市中央区,南久宝寺町４丁目１－２御堂筋ダイビル４Ｆ,,27,128,5410058,,,,,,,2025-03-10,1,,,,,エルケーアイ,0
1968,8120001273468,新規,0,2025-03-10,2025-03-10,株式会社なかとも,,株式会社,大阪府,大阪市此花区,春日出中１丁目１１番１１号,,27,104,5540022,,,,,,,2025-03-10,1,,,,,ナカトモ,0
1969,8120001273550,新規,0,2025-03-10,2025-03-10,アマリロ株式会社,,株式会社,大阪府,大阪市中央区,北浜２丁目１番１３号,,27,128,5410041,,,,,,,2025-03-10,1,,,,,アマリロ,0
1971,8120003028795,新規,0,2025-03-10,2025-03-10,合同会社シーケーエヌグループ,,合同会社,大阪府,大阪市浪速区,桜川３丁目５番６号,,27,111,5560022,,,,,,,2025-03-10,1,,,,,シーケーエヌグループ,0
1973,8120103006313,新規,0,2025-03-10,2025-03-10,ＪＡＩＳＯＮ合同会社,,合同会社,大阪府,堺市美原区,南余部西１丁目１番３－５０７号,,27,147,5870054,,,,,,,2025-03-10,1,,,,,ジェイソン,0
1976,8120901050553,新規,0,2025-03-10,2025-03-10,株式会社フクテック,,株式会社,大阪府,豊能郡能勢町,宿野１６４番地の１,,27,322,5630341,,,,,,,2025-03-10,1,,,,,フクテック,0
1978,8130003010257,新規,0,2025-03-10,2025-03-10,合同会社ＡＯＺＯＲＡ,,合同会社,京都府,京都市下京区,下鱗形町５４０番地１・２Ｆ,,26,106,6008059,,,,,,,2025-03-10,1,,,,,アオゾラ,0
1984,8140001137621,新規,0,2025-03-10,2025-03-10,Ｈｏｒｉｚｏｎ　Ｌｉｎｋ株式会社,,株式会社,兵庫県,西宮市,上甲東園５丁目４番１７－２号,,28,204,6620813,,,,,,,2025-03-10,1,,,,,ホライズンリンク,0
1985,8140001137670,新規,0,2025-03-10,2025-03-10,株式会社Ｔａｂｌｅ　Ｎｏｔｅ,,株式会社,兵庫県,川西市,けやき坂２丁目５４－５,,28,217,6660145,,,,,,,2025-03-10,1,,,,,テーブルノート,0
1987,8150003003523,新規,0,2025-03-10,2025-03-10,合同会社ＧＡＫＵ,,合同会社,奈良県,北葛城郡広陵町,大字大野２５－３,,29,426,6350803,,,,,,,2025-03-10,1,,,,,ガク,0
1999,8180001165742,新規,0,2025-03-10,2025-03-10,株式会社とれたて堂,,株式会社,愛知県,半田市,白山町１丁目１１番地の３ベレッツァ白山１Ｄ号,,23,205,4750912,,,,,,,2025-03-10,1,,,,,トレタテドウ,0
2003,8180003028071,新規,0,2025-03-10,2025-03-10,合同会社幸和,,合同会社,愛知県,名古屋市中川区,中島新町３丁目１７０１ノーブルコート寺山２０２,,23,110,4540932,,,,,,,2025-03-10,1,,,,,コウワ,0
2004,8180003028096,新規,0,2025-03-10,2025-03-10,合同会社やまだや,,合同会社,愛知県,名古屋市瑞穂区,東栄町７丁目１７番地の３,,23,108,4670017,,,,,,,2025-03-10,1,,,,,ヤマダヤ,0
2008,8190003004955,新規,0,2025-03-10,2025-03-10,合同会社Ｓｍｉｌｅ　ＨＫプラン,,合同会社,三重県,いなべ市,北勢町麻生田１７９８番地１,,24,214,5110427,,,,,,,2025-03-10,1,,,,,スマイルエイチケープラン,0
2014,8210003001891,新規,0,2025-03-10,2025-03-10,合同会社おおの結まるケアセンター,,合同会社,福井県,大野市,下麻生嶋第９６号１番地,,18,205,9120815,,,,,,,2025-03-10,1,,,,,オオノユイマルケアセンター,0
2022,8230005009444,新規,0,2025-03-10,2025-03-10,土地家屋調査士法人吉森事務所,,その他の設立登記法人,富山県,射水市,鷲塚２５５番地３,,16,211,9390305,,,,,,,2025-03-10,1,,,,,ヨシモリジムショ,0
2035,8290003016511,新規,0,2025-03-10,2025-03-10,大手門開発合同会社,,合同会社,福岡県,福岡市中央区,大手門３丁目７番９－１号Ｗｅ大濠公園７０１号,,40,133,8100074,,,,,,,2025-03-10,1,,,,,オオテモンカイハツ,0
2043,8310003004959,新規,0,2025-03-10,2025-03-10,合同会社ｍｉｎｏｎ０３２７,,合同会社,長崎県,佐世保市,花高３丁目６０番地２９,,42,202,8593212,,,,,,,2025-03-10,1,,,,,ミノンゼロサンニーナナ,0
2045,8320001020981,新規,0,2025-03-10,2025-03-10,株式会社Ｓｕｇｉ７,,株式会社,大分県,大分市,都町３丁目５番２０号,,44,201,8700034,,,,,,,2025-03-10,1,,,,,スギナナ,0
2060,8350001019427,新規,0,2025-03-10,2025-03-10,株式会社ディレクションズ,,株式会社,宮崎県,宮崎市,橘通東３丁目３－１２ポールスタービル５Ｆ,,45,201,8800805,,,,,,,2025-03-10,1,,,,,ディレクションズ,0
2066,8360003014747,新規,0,2025-03-10,2025-03-10,ＨＡＰＰＩＮＥＳＳ合同会社,,合同会社,沖縄県,那覇市,若狭１丁目７番２号,,47,201,9000031,,,,,,,2025-03-10,1,,,,,ハピネス,0
2070,8370001052302,新規,0,2025-03-10,2025-03-10,株式会社ステップライフ,,株式会社,宮城県,石巻市,鹿又字町浦４５番地,,04,202,9861111,,,,,,,2025-03-10,1,,,,,ステップライフ,0
2071,8370001052310,新規,0,2025-03-10,2025-03-10,株式会社ＮＯＲＴＨＥＰＴＩＯＮ,,株式会社,宮城県,仙台市宮城野区,原町２丁目１番６３－３号ビアンカーラＢ１０５,,04,102,9830841,,,,,,,2025-03-10,1,,,,,ノーセプション,0
2072,8370001052327,新規,0,2025-03-10,2025-03-10,株式会社Ｂｕｌｌ　Ｖｅｇａｓ　Ｓａｎｄｓ,,株式会社,宮城県,仙台市青葉区,中央３丁目８番５－９０３号,,04,101,9800021,,,,,,,2025-03-10,1,,,,,ブルベガスサンズ,0
2076,8380001035132,新規,0,2025-03-10,2025-03-10,遠藤工務株式会社,,株式会社,福島県,いわき市,平馬目字中道１１２番地,,07,204,9700116,,,,,,,2025-03-10,1,,,,,エンドウコウム,0
2077,8380001035140,新規,0,2025-03-10,2025-03-10,株式会社ＰＬＵＳ８,,株式会社,福島県,須賀川市,守屋字源田原１１９番地２,,07,207,9620305,,,,,,,2025-03-10,1,,,,,プラスエイト,0
2078,8380001035149,新規,0,2025-03-10,2025-03-10,ブリスビア株式会社,,株式会社,福島県,福島市,渡利字渡利町９番地の５,,07,201,9608141,,,,,,,2025-03-10,1,,,,,ブリスビア,0
2080,8380003005983,新規,0,2025-03-10,2025-03-10,合同会社りらいと,,合同会社,福島県,本宮市,本宮字兼谷１６８－３,,07,214,9691141,,,,,,,2025-03-10,1,,,,,リライト,0
2085,8420003003082,新規,0,2025-03-10,2025-03-10,ノストレア合同会社,,合同会社,青森県,弘前市,大字品川町２５番地１－２０２号,,02,202,0368183,,,,,,,2025-03-10,1,,,,,ノストレア,0
2090,8430003017354,新規,0,2025-03-10,2025-03-10,Ｈｕｓｋｙ合同会社,,合同会社,北海道,札幌市中央区,南四条西６丁目８番地３‐５０１,,01,101,0640804,,,,,,,2025-03-10,1,,,,,ハスキー,0
2091,8430005015166,新規,0,2025-03-10,2025-03-10,一般社団法人Ｇｒｅｅｎ　Ｈｏｒｉｚｏｎ　Ｊａｐａｎ,,その他の設立登記法人,北海道,札幌市南区,藤野一条６丁目１０番１８号,,01,106,0612281,,,,,,,2025-03-10,1,,,,,グリーンホライズンジャパン,0
2105,9010001252829,新規,0,2025-03-10,2025-03-10,株式会社セカンドウインド,,株式会社,東京都,中央区,日本橋室町１丁目１１番１２号,,13,102,1030022,,,,,,,2025-03-10,1,,,,,セカンドウインド,0
2108,9010005039685,新規,0,2025-03-10,2025-03-10,医療法人社団アナザーメディカル,,その他の設立登記法人,東京都,中央区,銀座４丁目３番６号Ｇ４ＢＲＩＣＫＳＢＬＤ．６階,,13,102,1040061,,,,,,,2025-03-10,1,,,,,アナザーメディカル,0
2109,9010005039693,新規,0,2025-03-10,2025-03-10,医療法人社団トラスト,,その他の設立登記法人,東京都,中央区,銀座７丁目３番７号ブランエスパ銀座地下１階,,13,102,1040061,,,,,,,2025-03-10,1,,,,,トラスト,0
2110,9010005039702,新規,0,2025-03-10,2025-03-10,相模原開発特定目的会社,,その他の設立登記法人,東京都,千代田区,飯田橋４丁目７番１号結和税理士法人内,,13,101,1020072,,,,,,,2025-03-10,1,,,,,サガミハラカイハツ,0
2111,9010005039719,新規,0,2025-03-10,2025-03-10,一般社団法人ＡＩＲＡパワープラント,,その他の設立登記法人,東京都,千代田区,霞が関３丁目２番１号霞が関コモンゲート西館２２階株式会社Ｋエナジー内,,13,101,1000013,,,,,,,2025-03-10,1,,,,,アイラパワープラント,0
2114,9010401186420,新規,0,2025-03-10,2025-03-10,株式会社ＳＯＲＴ,,株式会社,東京都,港区,新橋５丁目１２－７ＴＯＴＳＵビル３Ｆ,,13,103,1050004,,,,,,,2025-03-10,1,,,,,ソート,0
2116,9010401188796,新規,0,2025-03-10,2025-03-10,Ｋａｒｍａ　Ｎｅｘｕｓ株式会社,,株式会社,東京都,港区,新橋４丁目１４番１号新橋ＡＵＮＢＬＤＧ４階,,13,103,1050004,,,,,,,2025-03-10,1,,,,,カルマネクサス,0
2118,9010601066918,新規,0,2025-03-10,2025-03-10,ｓｕｍｉｒｅ　ｆｏｒ　ｐｌｕｓ株式会社,,株式会社,東京都,江東区,亀戸２丁目７番１３－１００１号,,13,108,1360071,,,,,,,2025-03-10,1,,,,,スミレフォープラス,0
2123,9010603011418,新規,0,2025-03-10,2025-03-10,合同会社オフィスとらいあんぐる,,合同会社,東京都,墨田区,業平２丁目１５－９コモンドエフ３０２,,13,107,1300002,,,,,,,2025-03-10,1,,,,,オフィストライアングル,0
2128,9010901056940,新規,0,2025-03-10,2025-03-10,株式会社ｂｌｕｅ’ｓ　ｃｏｌｌｅｃｔｉｖｅ,,株式会社,東京都,世田谷区,世田谷４丁目８－７－３０２号室,,13,112,1540017,,,,,,,2025-03-10,1,,,,,ブルースコレクティブ,0
2129,9010903009764,新規,0,2025-03-10,2025-03-10,合同会社ポピー,,合同会社,東京都,世田谷区,太子堂４丁目１８番１５号マガザン三軒茶屋２・３Ｆ－３,,13,112,1540004,,,,,,,2025-03-10,1,,,,,ポピー,0
2136,9011001168131,新規,0,2025-03-10,2025-03-10,株式会社ＳｍａｒｔＲａｎｃｈ,,株式会社,東京都,渋谷区,渋谷２丁目１９－１５－６０９,,13,113,1500002,,,,,,,2025-03-10,1,,,,,スマートランチ,0
2137,9011001168206,新規,0,2025-03-10,2025-03-10,アイディーミュラー株式会社,,株式会社,東京都,渋谷区,神南１丁目１１番４号ＦＰＧリンクス神南５階,,13,113,1500041,,,,,,,2025-03-10,1,,,,,アイディーミュラー,0
2138,9011001168338,新規,0,2025-03-10,2025-03-10,株式会社ＩＣＨＩ,,株式会社,東京都,渋谷区,神宮前４丁目１９番１６－２０３号,,13,113,1500001,,,,,,,2025-03-10,1,,,,,イチ,0
2139,9011003021131,新規,0,2025-03-10,2025-03-10,合同会社Ｂｅｌｌｅ　ｄｏｕｃｅ,,合同会社,東京都,目黒区,上目黒２丁目９番３号,,13,110,1530051,,,,,,,2025-03-10,1,,,,,ベルドゥース,0
2142,9011105011360,新規,0,2025-03-10,2025-03-10,一般社団法人国際健康医療促進会,,その他の設立登記法人,東京都,新宿区,新宿６丁目２７番１０－２０６号,,13,104,1600022,,,,,,,2025-03-10,1,,,,,コクサイケンコウイリョウソクシンカイ,0
2144,9011205002680,新規,0,2025-03-10,2025-03-10,農事組合法人ハイジ,,その他の設立登記法人,東京都,中野区,松が丘１丁目７－５石井マンションＡ５０１,,13,114,1650024,,,,,,,2025-03-10,1,,,,,ハイジ,0
2145,9011303005429,新規,0,2025-03-10,2025-03-10,合同会社ｍｉｎｏｔａｋｅ,,合同会社,東京都,杉並区,下高井戸５丁目１０番６号,,13,115,1680073,,,,,,,2025-03-10,1,,,,,ミノタケ,0
2147,9011403004644,新規,0,2025-03-10,2025-03-10,合同会社ＫＭ,,合同会社,東京都,板橋区,赤塚６丁目１５番１６号,00138271,13,119,1750092,,,,,,,2025-03-10,1,,,,,ケイエム,0
2148,9011405002381,新規,0,2025-03-10,2025-03-10,一般社団法人日中禅宗文化促進協会,,その他の設立登記法人,東京都,板橋区,前野町６丁目５９番１号,,13,119,1740063,,,,,,,2025-03-10,1,,,,,ニッチュウゼンシュウブンカソクシンキョウカイ,0
2151,9011601028478,新規,0,2025-03-10,2025-03-10,株式会社フリーノワ,,株式会社,東京都,練馬区,中村北３丁目３番１３号,,13,120,1760023,,,,,,,2025-03-10,1,,,,,フリーノワ,0
2152,9011705001876,新規,0,2025-03-10,2025-03-10,特定非営利活動法人マツリゴト,,その他の設立登記法人,東京都,江戸川区,東葛西４丁目４９番６－３０５号ＮＯ．６吉橋マンション,,13,123,1340084,,,,,,,2025-03-10,1,,,,,マツリゴト,0
2157,9011803006728,新規,0,2025-03-10,2025-03-10,ワンアクティ合同会社,,合同会社,東京都,足立区,南花畑５丁目１番５－７０１号,,13,121,1210062,,,,,,,2025-03-10,1,,,,,ワンアクティ,0
2160,9012801023806,新規,0,2025-03-10,2025-03-10,カプセルコーポレーション株式会社,,株式会社,東京都,国立市,谷保５９３２番地３,,13,215,1860011,,,,,,,2025-03-10,1,,,,,,0
2167,9020001161632,新規,0,2025-03-10,2025-03-10,株式会社よもやま,,株式会社,神奈川県,川崎市中原区,市ノ坪４４９－３シティタワー武蔵小杉２３０２,,14,133,2110016,,,,,,,2025-03-10,1,,,,,ヨモヤマ,0
2168,9020001161707,新規,0,2025-03-10,2025-03-10,株式会社ビーウィット,,株式会社,神奈川県,川崎市麻生区,細山１丁目４番１０号,,14,137,2150001,,,,,,,2025-03-10,1,,,,,ビーウィット,0
2169,9020001161723,新規,0,2025-03-10,2025-03-10,株式会社ＧＯ,,株式会社,神奈川県,横浜市西区,浅間町１丁目４番３号ウィザードビル４０２,,14,103,2200072,,,,,,,2025-03-10,1,,,,,ゴウ,0
2170,9020001161756,新規,0,2025-03-10,2025-03-10,イマハウス株式会社,,株式会社,神奈川県,川崎市高津区,千年新町１１番地２,,14,134,2130021,,,,,,,2025-03-10,1,,,,,イマハウス,0
2171,9020001161764,新規,0,2025-03-10,2025-03-10,ＲＡＤ　Ｒｅａｌｔｙ　Ｐａｒｔｎｅｒｓ株式会社,,株式会社,神奈川県,横浜市中区,不老町１丁目５番５号柏野ビル６０３,,14,104,2310032,,,,,,,2025-03-10,1,,,,,ラッドリアルティパートナーズ,0
2177,9020003027963,新規,0,2025-03-10,2025-03-10,合同会社シーアンジュ,,合同会社,神奈川県,川崎市麻生区,白鳥４丁目２２番２５号モンテベルテ１０２,,14,137,2150024,,,,,,,2025-03-10,1,,,,,シーアンジュ,0
2182,9021003015685,新規,0,2025-03-10,2025-03-10,デフ・プランニング合同会社,,合同会社,神奈川県,大和市,南林間７丁目８番２２号,,14,213,2420006,,,,,,,2025-03-10,1,,,,,デフプランニング,0
2183,9021003015693,新規,0,2025-03-10,2025-03-10,ＭＳ　ｉｎｎｏｖａｔｉｏｎ合同会社,,合同会社,神奈川県,綾瀬市,深谷上８丁目１２－８,,14,218,2521108,,,,,,,2025-03-10,1,,,,,エムエスイノベーション,0
2188,9030001165194,新規,0,2025-03-10,2025-03-10,株式会社旭日コーポレーション,,株式会社,埼玉県,朝霞市,本町１丁目２４番９号心和ビル２０５号室,,11,227,3510011,,,,,,,2025-03-10,1,,,,,アサヒコーポレーション,0
2189,9030001165211,新規,0,2025-03-10,2025-03-10,株式会社グローバルステーション,,株式会社,埼玉県,久喜市,葛梅４５０番地１４,,11,232,3400214,,,,,,,2025-03-10,1,,,,,グローバルステーション,0
2190,9030001165310,新規,0,2025-03-10,2025-03-10,ＣＬＵＴＣＨ株式会社,,株式会社,埼玉県,入間郡毛呂山町,大字川角２１１－２,,11,326,3500436,,,,,,,2025-03-10,1,,,,,クラッチ,0
2198,9040001137746,新規,0,2025-03-10,2025-03-10,株式会社Ｂ．Ｕ．ＡＳＳＥＴ,,株式会社,千葉県,千葉市若葉区,原町１６２番地,,12,104,2640034,,,,,,,2025-03-10,1,,,,,ビーユーアセット,0
2199,9040001137754,新規,0,2025-03-10,2025-03-10,株式会社匠,,株式会社,千葉県,白井市,富士１９８－３７,,12,232,2701400,,,,,,,2025-03-10,1,,,,,タクミ,0
2202,9050001056243,新規,0,2025-03-10,2025-03-10,ザ・ロイヤルゴルフクラブ株式会社,,株式会社,茨城県,鉾田市,大蔵２００番地,,08,234,3112117,,,,,,,2025-03-10,1,,,,,ザロイヤルゴルフクラブ,0
2203,9060001037969,新規,0,2025-03-10,2025-03-10,ｉｎｇ株式会社,,株式会社,栃木県,宇都宮市,宝木本町１１８５番地１４,,09,201,3200075,,,,,,,2025-03-10,1,,,,,イング,0
2204,9060001037993,新規,0,2025-03-10,2025-03-10,株式会社Ｐｒｏｓｅｔｓ,,株式会社,栃木県,鹿沼市,下武子町３３５番地７,,09,205,3220004,,,,,,,2025-03-10,1,,,,,プロセッツ,0
2210,9070001042695,新規,0,2025-03-10,2025-03-10,株式会社ＭＲ塗装,,株式会社,群馬県,太田市,新井町５１９番地１１大和ビル２階北,,10,205,3730852,,,,,,,2025-03-10,1,,,,,エムアールトソウ,0
2211,9070001042704,新規,0,2025-03-10,2025-03-10,株式会社さくら不動産,,株式会社,群馬県,高崎市,金古町１１７６番地１,,10,202,3703511,,,,,,,2025-03-10,1,,,,,サクラフドウサン,0
2217,9080401027790,新規,0,2025-03-10,2025-03-10,株式会社優梨工業,,株式会社,静岡県,浜松市中央区,篠原町２０１３８番地パークウエスト２０１,,22,138,4310201,,,,,,,2025-03-10,1,,,,,ユウリコウギョウ,0
2220,9090003002761,新規,0,2025-03-10,2025-03-10,合同会社川登,,合同会社,山梨県,南都留郡山中湖村,平野２９１８番地の１９ヴィラ芙蓉台Ｊ棟１０３号,,19,425,4010502,,,,,,,2025-03-10,1,,,,,カワタカ,0
2223,9110001039101,新規,0,2025-03-10,2025-03-10,株式会社ジェンテ,,株式会社,新潟県,三条市,東三条１丁目５番１号川商第一ビル１階Ｂ号室,,15,204,9550047,,,,,,,2025-03-10,1,,,,,ジェンテ,0
2230,9120001273351,新規,0,2025-03-10,2025-03-10,ジンバンスチールジャパン株式会社,,株式会社,大阪府,大阪市中央区,安土町２丁目３－１３大阪国際ビルディング３１階,,27,128,5410052,,,,,,,2025-03-10,1,,,,,ジンバンスチールジャパン,0
2231,9120001273426,新規,0,2025-03-10,2025-03-10,ＴＡＫＡＫＥＮ株式会社,,株式会社,大阪府,大阪市此花区,島屋２丁目４－１７,,27,104,5540024,,,,,,,2025-03-10,1,,,,,タカケン,0
2232,9120001273434,新規,0,2025-03-10,2025-03-10,株式会社ａｌｕｍ,,株式会社,大阪府,大阪市中央区,南久宝寺町４丁目４－１３,,27,128,5410058,,,,,,,2025-03-10,1,,,,,アルム,0
2233,9120001273467,新規,0,2025-03-10,2025-03-10,株式会社ミクリエーション,,株式会社,大阪府,大阪市西区,新町１丁目１６番５号,,27,106,5500013,,,,,,,2025-03-10,1,,,,,ミクリエーション,0
2234,9120001273509,新規,0,2025-03-10,2025-03-10,株式会社花道,,株式会社,大阪府,大阪市中央区,南船場３丁目１番１０号８ＦＡ号室,,27,128,5420081,,,,,,,2025-03-10,1,,,,,ハナミチ,0
2235,9120001273517,新規,0,2025-03-10,2025-03-10,株式会社Ｓｔａｒ　ｔｏ　Ｌｉｎｅ,,株式会社,大阪府,大阪市中央区,南本町２丁目３番１２号ＥＤＧＥ本町３階３０９,,27,128,5410054,,,,,,,2025-03-10,1,,,,,スタートライン,0
2236,9120001273525,新規,0,2025-03-10,2025-03-10,株式会社日中総合学習学院,,株式会社,大阪府,大阪市淀川区,西三国１丁目１７番１５号シャトー西三国３０４号室,,27,123,5320006,,,,,,,2025-03-10,1,,,,,ニッチュウソウゴウガクシュウガクイン,0
2242,9122001038940,新規,0,2025-03-10,2025-03-10,明澤株式会社,,株式会社,大阪府,八尾市,弓削町南２丁目５１,,27,212,5810034,,,,,,,2025-03-10,1,,,,,メイサワ,0
2251,9140001137661,新規,0,2025-03-10,2025-03-10,株式会社ＬＡＩＣＯＲＯ,,株式会社,兵庫県,芦屋市,親王塚町１番７号ＡＩＲＯＳＥ芦屋,,28,206,6590016,,,,,,,2025-03-10,1,,,,,ライコロ,0
2252,9140001137686,新規,0,2025-03-10,2025-03-10,株式会社ｏｔｎｅｋ,,株式会社,兵庫県,芦屋市,伊勢町５番７－１号,,28,206,6590052,,,,,,,2025-03-10,1,,,,,オトネック,0
2255,9140003021707,新規,0,2025-03-10,2025-03-10,合同会社香美超おもしろか,,合同会社,兵庫県,美方郡香美町,村岡区和田２４３番地１,,28,585,6671367,,,,,,,2025-03-10,1,,,,,カミチョウオモシロカ,0
2256,9140003021764,新規,0,2025-03-10,2025-03-10,ＫＴ健康企画合同会社,,合同会社,兵庫県,神戸市東灘区,岡本５丁目８－５,,28,101,6580072,,,,,,,2025-03-10,1,,,,,ケーティーケンコウキカク,0
2258,9150001027936,新規,0,2025-03-10,2025-03-10,株式会社藍窟,,株式会社,奈良県,橿原市,新賀町３７８番地の１,,29,205,6340006,,,,,,,2025-03-10,1,,,,,アオノイワヤ,0
2263,9160003003414,新規,0,2025-03-10,2025-03-10,合同会社ユウモ,,合同会社,滋賀県,蒲生郡竜王町,大字駕輿丁４２６番地,,25,384,5202512,,,,,,,2025-03-10,1,,,,,ユウモ,0
2264,9170001018529,新規,0,2025-03-10,2025-03-10,株式会社マツ,,株式会社,和歌山県,有田市,辻堂６２７番地,00138275,30,204,6490311,,,,,,,2025-03-10,1,,,,,マツ,0
2265,9170003002175,新規,0,2025-03-10,2025-03-10,合同会社ウィルパートナー,,合同会社,和歌山県,和歌山市,和田１１７９－２６,,30,201,6410004,,,,,,,2025-03-10,1,,,,,ウィルパートナー,0
2272,9180001165733,新規,0,2025-03-10,2025-03-10,株式会社ＮＧＰ,,株式会社,愛知県,名古屋市昭和区,広見町３丁目４２番地の１,,23,107,4660046,,,,,,,2025-03-10,1,,,,,エヌジーピー,0
2275,9180003028112,新規,0,2025-03-10,2025-03-10,合同会社藤田商会,,合同会社,愛知県,名古屋市名東区,猪子石２丁目１６０２番地の２,,23,115,4650021,,,,,,,2025-03-10,1,,,,,フジタショウカイ,0
2276,9180005020975,新規,0,2025-03-10,2025-03-10,司法書士法人都築事務所,,その他の設立登記法人,愛知県,名古屋市中村区,名駅４丁目２番２８号名古屋第二埼玉ビル８階,,23,105,4500002,,,,,,,2025-03-10,1,,,,,ツヅキジムショ,0
2279,9190001032057,新規,0,2025-03-10,2025-03-10,株式会社ＦＵＬＬ　ＨＯＵＳＥ,,株式会社,三重県,桑名市,長島町福吉３５８番地２,,24,205,5111137,,,,,,,2025-03-10,1,,,,,フルハウス,0
2281,9200003006726,新規,0,2025-03-10,2025-03-10,合同会社ギフロット,,合同会社,岐阜県,岐阜市,大洞柏台６丁目６番地,,21,201,5013123,,,,,,,2025-03-10,1,,,,,ギフロット,0
2284,9230005009443,新規,0,2025-03-10,2025-03-10,一般社団法人コミュニティドライブ,,その他の設立登記法人,富山県,黒部市,金屋７７番地２,,16,207,9380022,,,,,,,2025-03-10,1,,,,,コミュニティドライブ,0
2293,9300005007225,新規,0,2025-03-10,2025-03-10,一般社団法人ドリサポ,,その他の設立登記法人,佐賀県,鳥栖市,元町１３３６番地６栄ビル２階,,41,203,8410051,,,,,,,2025-03-10,1,,,,,ドリサポ,0
2296,9320003004593,新規,0,2025-03-10,2025-03-10,合同会社ＡＭＳジャパン,,合同会社,大分県,杵築市,大字狩宿１０９２番地７ロイヤルサクセス１１０号室,,44,210,8730031,,,,,,,2025-03-10,1,,,,,エーエムエスジャパン,0
2303,9340001027173,新規,0,2025-03-10,2025-03-10,株式会社ＧＲＡＬＣＯ,,株式会社,鹿児島県,鹿児島市,船津町１－１１－３Ｆ,,46,201,8920831,,,,,,,2025-03-10,1,,,,,グラルコ,0
2309,9360003014746,新規,0,2025-03-10,2025-03-10,農業生産法人合同会社ＳＴＹファーム,,合同会社,沖縄県,宮古島市,平良字西里８８５番地,,47,214,9060012,,,,,,,2025-03-10,1,,,,,ノウギヨウセイサンホウジンエステイーワイフアーム,0
2314,9370001052342,新規,0,2025-03-10,2025-03-10,株式会社龍星社,,株式会社,宮城県,仙台市青葉区,本町２丁目１７番地３号,,04,101,9800014,,,,,,,2025-03-10,1,,,,,リュウセイシャ,0
2323,9410003004056,新規,0,2025-03-10,2025-03-10,合同会社ブランデュー,,合同会社,秋田県,秋田市,中通５丁目１０番４号,,05,201,0100001,,,,,,,2025-03-10,1,,,,,ブランデュー,0
2324,9410005006629,新規,0,2025-03-10,2025-03-10,農事組合法人ａｓｕｃａ,,その他の設立登記法人,秋田県,横手市,平鹿町中吉田字上藤根１４３番地,,05,203,0130106,,,,,,,2025-03-10,1,,,,,アスカ,0
2329,9430001093834,新規,0,2025-03-10,2025-03-10,株式会社庄陽,,株式会社,北海道,登別市,幌別町７丁目１５番地４,,01,230,0590013,,,,,,,2025-03-10,1,,,,,ショウヨウ,0
2330,9430001093842,新規,0,2025-03-10,2025-03-10,株式会社Ｍｉｋａｉ,,株式会社,北海道,札幌市北区,新川二条６丁目３－２９,,01,102,0010922,,,,,,,2025-03-10,1,,,,,ミカイ,0
2331,9430001093850,新規,0,2025-03-10,2025-03-10,ロックホールディングス株式会社,,株式会社,北海道,札幌市西区,福井５丁目１８番２６号,,01,107,0630012,,,,,,,2025-03-10,1,,,,,ロックホールディングス,0
2334,9450001014549,新規,0,2025-03-10,2025-03-10,株式会社Ｆａｒｍ菅原,,株式会社,北海道,士別市,東二条１９丁目４６５番地４,,01,220,0950012,,,,,,,2025-03-10,1,,,,,ファームスガワラ,0
2335,9460105002309,新規,0,2025-03-10,2025-03-10,一般社団法人ＴＣＮ,,その他の設立登記法人,北海道,帯広市,西二条南１０丁目２０番３号,,01,207,0800012,,,,,,,2025-03-10,1,,,,,ティーシーエヌ,0
2336,9470001020611,新規,0,2025-03-10,2025-03-10,株式会社ピー・エヌホールディングス,,株式会社,香川県,東かがわ市,西村１４８８番地１,,37,207,7692604,,,,,,,2025-03-10,1,,,,,ピーエヌホールディングス,0
2344,9700150129469,新規,0,2025-03-10,2025-03-10,ＨｏｎｇＫｏｎｇＱｉｎｇｆｅｎＴｉｎｇｘｉｕＥｌｅｃｔｒｏｎｉｃＴｅｃｈｎｏｌｏｇｙＣｏ．，Ｌｔｄ,,外国会社等,,,,,,,,ＲＭ　１８０１　ＥＡＳＥＹ　ＣＯＭＭ　ＢＬＤＧ　２５３－２６１　ＨＥＮＮＥＳＳＹ　ＲＯＡＤ　ＷＡＮＣＨＡＩ　ＨＫ,,,,,,2025-03-10,1,,,,,シャンガンチンフェンティンシューディエンズーコージーヨウシエンゴンスー,0
