sequenceNumber,corporateNumber,process,correct,updateDate,changeDate,name,nameImageId,kind,prefectureName,cityName,streetNumber,addressImageId,prefectureCode,cityCode,postCode,addressOutside,addressOutsideImageId,closeDate,closeCause,successorCorporateNumber,changeCause,assignmentDate,latest,enName,enPrefectureName,enCityName,enAddressOutside,furigana,hihyoji
1,1010001090352,登記記録の閉鎖等,0,2025-05-22,2025-05-01,株式会社タイト,,株式会社,東京都,千代田区,神田三崎町２丁目１４番２号,,13,101,1010061,,,2025-05-01,清算の結了等,,,2015-10-05,1,,,,,タイト,0
2,1010001178008,登記記録の閉鎖等,0,2025-05-22,2025-05-07,プライム株式会社,,株式会社,東京都,中央区,銀座６丁目６番１号,,13,102,1040061,,,2025-05-07,合併による解散等,1100001010929,令和７年４月１日東京都中央区銀座六丁目６番１号銀座風月堂ビル５階エコシンフォニー株式会社（1100001010929）に合併し解散,2016-08-30,1,,,,,プライム,0
6,1010001209019,登記記録の閉鎖等,0,2025-05-22,2025-05-07,ＦＯＤＳ株式会社,,株式会社,東京都,中央区,明石町１１番１５号ミキジ明石町ビル６階,,13,102,1040044,,,2025-05-07,合併による解散等,1100001010929,令和７年４月１日東京都中央区銀座六丁目６番１号銀座風月堂ビル５階エコシンフォニー株式会社（1100001010929）に合併し解散,2020-04-13,1,,,,,ホッズ,0
17,1010401040320,登記記録の閉鎖等,0,2025-05-22,2025-05-13,株式会社たびゲーター,,株式会社,東京都,品川区,東品川２丁目３番１１号,,13,109,1400002,,,2025-05-13,清算の結了等,,,2015-10-05,1,,,,,タビゲーター,0
26,1010405021424,登記記録の閉鎖等,0,2025-05-22,2025-04-17,一般社団法人Ｆ６Ｈｏｌｄｉｎｇｓ,,その他の設立登記法人,東京都,港区,虎ノ門５丁目１番４号,,13,103,1050001,,,2025-04-17,清算の結了等,,,2022-09-29,1,,,,,エフシックスホールディングス,0
27,1010505003330,登記記録の閉鎖等,0,2025-05-22,2025-04-22,一般社団法人飛鳥山,,その他の設立登記法人,東京都,台東区,台東４丁目２９番１３－８０２号,,13,106,1100016,,,2025-04-22,清算の結了等,,,2022-08-10,1,,,,,アスカヤマ,0
38,1010901054786,登記記録の閉鎖等,0,2025-05-22,2025-05-08,株式会社ＣＯＮＦＩＸ,,株式会社,東京都,世田谷区,祖師谷６丁目８番１２号,,13,112,1570072,,,2025-05-08,合併による解散等,7030001125745,令和７年５月１日東京都台東区上野一丁目１８番９号株式会社リンテグラ（7030001125745）に合併し解散,2024-03-01,1,,,,,コンフィックス,0
40,1011001038432,登記記録の閉鎖等,0,2025-05-22,2025-04-17,株式会社春日,,株式会社,東京都,渋谷区,代々木２丁目７番８号東京南新宿ビル７Ｆ,,13,113,1510053,,,2025-04-17,清算の結了等,,,2015-10-05,1,,,,,カスガ,0
52,1011201002114,登記記録の閉鎖等,0,2025-05-22,2025-05-02,株式会社佐藤興産,,株式会社,千葉県,君津市,豊英３５５番地１０,,12,225,2921179,,,2025-05-02,清算の結了等,,,2015-10-05,1,,,,,サトウコウサン,0
56,1011301019355,登記記録の閉鎖等,0,2025-05-22,2025-05-14,株式会社ポルボロン,,株式会社,東京都,杉並区,高円寺北２丁目２４番１６号,,13,115,1660002,,,2025-05-14,清算の結了等,,,2015-10-05,1,,,,,,0
71,1011801039555,登記記録の閉鎖等,0,2025-05-22,2025-05-14,友菱技研株式会社,,株式会社,東京都,葛飾区,新小岩４丁目２８番１４号,,13,122,1240024,,,2025-05-14,清算の結了等,,,2021-08-12,1,,,,,トモビシギケン,0
74,1011802008807,登記記録の閉鎖等,0,2025-05-22,2025-05-16,有限会社藍,,有限会社,東京都,足立区,青井１丁目６番２号,,13,121,1200012,,,2025-05-16,清算の結了等,,,2015-10-05,1,,,,,アイ,0
76,1012701016181,登記記録の閉鎖等,0,2025-05-22,2025-05-14,Ａ株式会社,,株式会社,東京都,小平市,花小金井６丁目３２－９,,13,211,1870002,,,2025-05-14,清算の結了等,,,2020-11-26,1,,,,,エー,0
78,1013301033261,登記記録の閉鎖等,0,2025-05-22,2025-04-15,株式会社ＩＣ　Ｍａｒｋｅｔｉｎｇ,,株式会社,東京都,渋谷区,神宮前６丁目１９番２１号,,13,113,1500001,,,2025-04-15,清算の結了等,,,2015-10-05,1,,,,,アイシーマーケティング,0
79,1020001041602,登記記録の閉鎖等,0,2025-05-22,2025-05-16,株式会社南州工業,,株式会社,神奈川県,横浜市港北区,新吉田東８丁目４７番２号,,14,109,2230058,,,2025-05-16,清算の結了等,,,2015-10-05,1,,,,,ナンシュウコウギョウ,0
89,1020003017154,登記記録の閉鎖等,0,2025-05-22,2025-05-21,ケイ・アーキテクト合同会社,,合同会社,神奈川県,横浜市金沢区,釜利谷東３丁目１１番５号,,14,108,2360042,,,2025-05-21,清算の結了等,,,2020-01-09,1,,,,,ケイアーキテクト,0
95,1030001046930,登記記録の閉鎖等,0,2025-05-22,2025-05-19,株式会社登富士,,株式会社,埼玉県,ふじみ野市,市沢３丁目７号３番ＹＯＵＣＩＴＹ３０３,,11,245,3560057,,,2025-05-19,清算の結了等,,,2015-10-05,1,,,,,トフジ,0
96,1030001055031,登記記録の閉鎖等,0,2025-05-22,2025-05-16,関谷建設工業株式会社,,株式会社,埼玉県,川越市,神明町１７番地１６,,11,201,3500823,,,2025-05-16,清算の結了等,,,2015-10-05,1,,,,,セキヤケンセツコウギョウ,0
121,1050001038455,登記記録の閉鎖等,0,2025-05-22,2025-05-01,ＭＳ　Ｉｎｃ．株式会社,,株式会社,千葉県,佐倉市,西御門４８６番地１０,,12,212,2850074,,,2025-05-01,合併による解散等,3010401148640,令和７年５月１日千葉県千葉市美浜区若葉三丁目１－１９－２０４ＭＥホールディングス株式会社（3010401148640）に合併し解散,2015-10-05,1,,,,,エムエスインク,0
135,1080001025921,登記記録の閉鎖等,0,2025-05-22,2025-05-19,株式会社ラフ,,株式会社,静岡県,島田市,道悦４丁目２１番１８号,,22,209,4270019,,,2025-05-19,清算の結了等,,,2023-10-19,1,,,,,ラフ,0
137,1080101007860,登記記録の閉鎖等,0,2025-05-22,2025-05-19,杉山興業株式会社,,株式会社,静岡県,伊豆の国市,大仁３７７番地の１,,22,225,4102323,,,2025-05-19,清算の結了等,,,2015-10-05,1,,,,,,0
142,1100001029192,登記記録の閉鎖等,0,2025-05-22,2025-04-25,恵源食品株式会社,,株式会社,長野県,佐久市,岩村田７５７番地３,,20,217,3850022,,,2025-04-25,合併による解散等,1100001010929,令和７年４月１日東京都中央区銀座六丁目６番１号銀座風月堂ビル５階エコシンフォニー株式会社（1100001010929）に合併し解散,2016-03-25,1,,,,,エゲンショクヒン,0
144,1100002010894,登記記録の閉鎖等,0,2025-05-22,2025-05-16,有限会社信州蓼科農園,,有限会社,長野県,北佐久郡立科町,大字芦田２９９９番地３,,20,324,3842305,,,2025-05-16,清算の結了等,,,2015-10-05,1,,,,,シンシュウタテシナノウエン,0
149,1110002013681,登記記録の閉鎖等,0,2025-05-22,2025-05-12,有限会社斎藤酒店,,有限会社,新潟県,五泉市,本町２丁目２番３３号,,15,218,9591865,,,2025-05-12,清算の結了等,,,2015-10-05,1,,,,,サイトウサケテン,0
164,1120002055269,登記記録の閉鎖等,0,2025-05-22,2025-04-28,有限会社ＵＰ－ＳＩＤＥ,,有限会社,東京都,新宿区,北新宿１丁目２３番１９号パークウエル西新宿１０１,,13,104,1690074,,,2025-04-28,清算の結了等,,,2015-10-05,1,,,,,アップサイド,0
169,1120005021020,登記記録の閉鎖等,0,2025-05-22,2025-05-19,ＮＰＯ法人さらら,,その他の設立登記法人,大阪府,枚方市,東香里３丁目３９番３０号,,27,210,5730075,,,2025-05-19,清算の結了等,,,2019-07-23,1,,,,,サララ,0
177,1140001004563,登記記録の閉鎖等,0,2025-05-22,2025-05-20,株式会社カイセイ,,株式会社,兵庫県,神戸市西区,玉津町居住１５１番地の１,,28,111,6512145,,,2025-05-20,清算の結了等,,,2015-10-05,1,,,,,カイセイ,0
178,1140001049732,登記記録の閉鎖等,0,2025-05-22,2025-05-16,株式会社大福堂,00039651,株式会社,兵庫県,尼崎市,神田南通２丁目４４番地,,28,202,6600885,,,2025-05-16,清算の結了等,,,2015-10-05,1,,,,,ダイフクドウ,0
180,1140001069508,登記記録の閉鎖等,0,2025-05-22,2025-05-19,株式会社テクノヒルズ,,株式会社,兵庫県,西宮市,高木西町１３番２０－１０３号,,28,204,6638032,,,2025-05-19,清算の結了等,,,2015-10-05,1,,,,,テクノヒルズ,0
181,1140001122588,登記記録の閉鎖等,0,2025-05-22,2025-05-15,大西プランニング株式会社,,株式会社,兵庫県,姫路市,新在家４丁目５番２３号,,28,201,6700095,,,2025-05-15,合併による解散等,2140001122595,令和７年５月５日兵庫県姫路市南駅前町９１番地８－１３０４号大西グループ株式会社（2140001122595）に合併し解散,2021-08-06,1,,,,,オオニシプランニング,0
182,1140001122596,登記記録の閉鎖等,0,2025-05-22,2025-05-15,大西ホールディングス株式会社,,株式会社,兵庫県,姫路市,南駅前町９１番地８－１３０４号,,28,201,6700962,,,2025-05-15,合併による解散等,2140001122595,令和７年５月５日兵庫県姫路市南駅前町９１番地８－１３０４号大西グループ株式会社（2140001122595）に合併し解散,2021-08-06,1,,,,,オオニシホールディングス,0
183,1140001126309,登記記録の閉鎖等,0,2025-05-22,2025-05-19,株式会社キックオフ,,株式会社,兵庫県,尼崎市,開明町２丁目１１番地神鋼建設ビル３階３０１号,,28,202,6600862,,,2025-05-19,清算の結了等,,,2022-06-10,1,,,,,キックオフ,0
187,1160001004280,登記記録の閉鎖等,0,2025-05-22,2025-05-07,株式会社里山郷働,,株式会社,滋賀県,大津市,伊香立北在地町６２７番地の４,,25,201,5200351,,,2025-05-07,清算の結了等,,,2015-10-05,1,,,,,サトヤマキョウドウ,0
190,1160001019279,登記記録の閉鎖等,0,2025-05-22,2025-05-19,株式会社ベストケア,,株式会社,滋賀県,近江八幡市,安土町内野１１４５番地,,25,204,5211333,,,2025-05-19,清算の結了等,,,2016-02-03,1,,,,,ベストケア,0
193,1170001005575,登記記録の閉鎖等,0,2025-05-22,2025-05-21,株式会社井戸浜製材所,,株式会社,和歌山県,海南市,船尾３７８番地２７,,30,202,6420001,,,2025-05-21,清算の結了等,,,2015-10-05,1,,,,,イドハマセイザイショ,0
205,1180301020711,登記記録の閉鎖等,0,2025-05-22,2025-05-16,株式会社中央測量調査事務所,,株式会社,愛知県,豊田市,四郷町森前南１番地６,,23,211,4700373,,,2025-05-16,清算の結了等,,,2015-10-05,1,,,,,チュウオウソクリョウチョウサジムショ,0
207,1180302020891,登記記録の閉鎖等,0,2025-05-22,2025-05-16,有限会社イノエック・クリンプラザ,,有限会社,愛知県,知立市,八橋町池下２０１番地,,23,225,4720001,,,2025-05-16,清算の結了等,,,2015-10-05,1,,,,,イノエッククリンプラザ,0
208,1180302024546,登記記録の閉鎖等,0,2025-05-22,2025-05-16,有限会社星野建築,,有限会社,愛知県,豊田市,四ツ松町鶚子３３番地,,23,211,4442312,,,2025-05-16,清算の結了等,,,2015-10-05,1,,,,,ホシノケンチク,0
224,1290001097576,登記記録の閉鎖等,0,2025-05-22,2025-05-12,株式会社ベストソングス,,株式会社,福岡県,福岡市博多区,博多駅前２丁目１番１号,,40,132,8120011,,,2025-05-12,清算の結了等,,,2022-05-19,1,,,,,ベストソングス,0
246,1400601001223,登記記録の閉鎖等,0,2025-05-22,2025-05-02,水野工業株式会社,,株式会社,岩手県,奥州市,水沢佐倉河字東広町４２番地,,03,215,0230003,,,2025-05-02,清算の結了等,,,2015-10-05,1,,,,,ミズノコウギョウ,0
257,2010001123375,登記記録の閉鎖等,0,2025-05-22,2025-04-18,イマジネーション・ジャパン株式会社,,株式会社,東京都,港区,赤坂２丁目２３番１号アークヒルズ・フロントタワーＲｏＰ８０６号室,,13,103,1070052,,,2025-04-18,清算の結了等,,,2015-10-05,1,,,,,イマジネーションジャパン,0
259,2010001209356,登記記録の閉鎖等,0,2025-05-22,2025-05-01,ＣａｒｅＭａｔｅｓ株式会社,,株式会社,東京都,千代田区,紀尾井町３番６号,,13,101,1020094,,,2025-05-01,清算の結了等,,,2020-04-27,1,,,,,ケアメイツ,0
278,2010401185569,登記記録の閉鎖等,0,2025-05-22,2025-04-21,ＦＯＵＲ　ＳＥＡＳＯＮＳ　ＰＲＩＶＡＴＥ　ＩＮＶＥＳＴＭＥＮＴＳ　ＰＴＥ株式会社,,株式会社,東京都,港区,赤坂２丁目１３番８号赤坂ロイヤルプラザ１０１号,,13,103,1070052,,,2025-04-21,清算の結了等,,,2024-10-07,1,,,,,ホーシーズンズプライベートインベストメンツピティイ,0
282,2010405020292,登記記録の閉鎖等,0,2025-05-22,2025-04-17,エス・シー・アイ一般社団法人,,その他の設立登記法人,東京都,港区,六本木１丁目６番１号泉ガーデンタワー,,13,103,1060032,,,2025-04-17,清算の結了等,,,2021-10-08,1,,,,,エスシーアイ,0
295,2010903009218,登記記録の閉鎖等,0,2025-05-22,2025-05-16,Ｙ＆Ｔ’ｓ合同会社,,合同会社,東京都,世田谷区,野沢３丁目３１－４－６０１,,13,112,1540003,,,2025-05-16,清算の結了等,,,2024-07-17,1,,,,,ワイアンドティーズ,0
298,2011001151259,登記記録の閉鎖等,0,2025-05-22,2025-04-16,株式会社ハンバーグ食べたい,,株式会社,東京都,渋谷区,宇田川町３６番地１９サーティー宇田川３階,,13,113,1500042,,,2025-04-16,清算の結了等,,,2022-12-02,1,,,,,ハンバーグタベタイ,0
305,2011101043298,登記記録の閉鎖等,0,2025-05-22,2025-05-13,株式会社ソシアス,,株式会社,東京都,国分寺市,南町２丁目１８番地３号,,13,214,1850021,,,2025-05-13,清算の結了等,,,2015-10-05,1,,,,,ソシアス,0
327,2011802023805,登記記録の閉鎖等,0,2025-05-22,2025-05-19,有限会社エル企画,,有限会社,東京都,足立区,千住２丁目５０番地１－１１１０,,13,121,1200034,,,2025-05-19,清算の結了等,,,2015-10-05,1,,,,,エルキカク,0
335,2013102003355,登記記録の閉鎖等,0,2025-05-22,2025-05-16,有限会社慶長サービス,,有限会社,東京都,福生市,志茂２００番地１,,13,218,1970023,,,2025-05-16,清算の結了等,,,2015-10-05,1,,,,,ケイチョウサービス,0
341,2020001125107,登記記録の閉鎖等,0,2025-05-22,2025-05-19,株式会社ＡＧ,,株式会社,神奈川県,横浜市金沢区,谷津町３４１番地８,,14,108,2360016,,,2025-05-19,清算の結了等,,,2018-02-14,1,,,,,エージー,0
353,2021002062347,登記記録の閉鎖等,0,2025-05-22,2025-05-15,クレモールアンドエルエイダブリュー有限会社,,有限会社,東京都,国分寺市,内藤２丁目８番７号,,13,214,1850033,,,2025-05-15,清算の結了等,,,2015-10-05,1,,,,,クレモールアンドエルエイダブリュー,0
358,2030001152273,登記記録の閉鎖等,0,2025-05-22,2025-05-19,株式会社スタジオ・プロワン,,株式会社,埼玉県,さいたま市南区,四谷３丁目７番９－５０４号ローヤルシティ武蔵浦和ガーデン,,11,108,3360032,,,2025-05-19,清算の結了等,,,2023-02-06,1,,,,,スタジオプロワン,0
361,2030002101915,登記記録の閉鎖等,0,2025-05-22,2025-05-12,有限会社河原機械製作所,00017639,有限会社,埼玉県,川口市,領家２丁目２２番地１４号,,11,203,3320004,,,2025-05-12,清算の結了等,,,2015-10-05,1,,,,,カワハラキカイセイサクジョ,0
364,2040001048537,登記記録の閉鎖等,0,2025-05-22,2025-05-02,日新ホーム株式会社,,株式会社,千葉県,佐倉市,表町３丁目３番５号,,12,212,2850811,,,2025-05-02,清算の結了等,,,2015-10-05,1,,,,,ニッシンホーム,0
370,2040002084275,登記記録の閉鎖等,0,2025-05-22,2025-05-02,有限会社魚安会館,,有限会社,千葉県,旭市,ニの６５４９番地,,12,215,2892504,,,2025-05-02,清算の結了等,,,2015-10-05,1,,,,,ウオヤスカイカン,0
385,2110001007031,登記記録の閉鎖等,0,2025-05-22,2025-05-02,東和産業株式会社,,株式会社,新潟県,新潟市中央区,東幸町１２番１号,,15,103,9500906,,,2025-05-02,清算の結了等,,,2025-01-14,1,,,,,トウワサンギョウ,0
388,2120001167007,登記記録の閉鎖等,0,2025-05-22,2025-05-12,大谷株式会社,,株式会社,大阪府,大阪市都島区,中野町５丁目１４番１－２０１号,,27,102,5340027,,,2025-05-12,清算の結了等,,,2015-10-05,1,,,,,オオタニ,0
400,2120901011420,登記記録の閉鎖等,0,2025-05-22,2025-05-13,株式会社アリガトウ,,株式会社,滋賀県,高島市,今津町浜分４２９番地１６,,25,212,5201604,,,2025-05-13,清算の結了等,,,2015-10-05,1,,,,,アリガトウ,0
411,2140001047941,登記記録の閉鎖等,0,2025-05-22,2025-05-19,株式会社エリート,,株式会社,兵庫県,尼崎市,武庫豊町３丁目１２番３号,,28,202,6610045,,,2025-05-19,清算の結了等,,,2015-10-05,1,,,,,エリート,0
426,2190002024051,登記記録の閉鎖等,0,2025-05-22,2025-05-16,有限会社ライフパートナー,,有限会社,三重県,四日市市,久保田２丁目５番２号,,24,202,5100821,,,2025-05-16,清算の結了等,,,2015-10-05,1,,,,,ライフパートナー,0
431,2210001019272,登記記録の閉鎖等,0,2025-05-22,2025-05-19,株式会社スノーピークサーキュレーションコア,,株式会社,福井県,福井市,中央１丁目１４番９号,,18,201,9100006,,,2025-05-19,合併による解散等,3110001014316,令和７年５月１日新潟県三条市中野原４５６番地株式会社スノーピーク（3110001014316）に合併し解散,2023-04-07,1,,,,,スノーピークサーキュレーションコア,0
434,2230002003050,登記記録の閉鎖等,0,2025-05-22,2025-05-20,有限会社舟橋ビル,,有限会社,富山県,富山市,舟橋南町４番２号,,16,201,9300095,,,2025-05-20,清算の結了等,,,2015-10-05,1,,,,,フナハシビル,0
467,2430001047623,登記記録の閉鎖等,0,2025-05-22,2025-05-21,株式会社マツダ商店,,株式会社,北海道,空知郡南幌町,中央３丁目１番２５号,,01,423,0690235,,,2025-05-21,清算の結了等,,,2015-10-05,1,,,,,,0
471,2430002033688,登記記録の閉鎖等,0,2025-05-22,2025-05-20,有限会社アトリエサヴァン,,有限会社,北海道,札幌市南区,川沿四条５丁目８番１８号,,01,106,0050804,,,2025-05-20,清算の結了等,,,2015-10-05,1,,,,,アトリエサヴァン,0
479,2500002000508,登記記録の閉鎖等,0,2025-05-22,2025-05-21,有限会社アートファニーズ,,有限会社,愛媛県,松山市,清住２丁目１０８２番地２,,38,201,7918055,,,2025-05-21,清算の結了等,,,2015-10-05,1,,,,,アートファニーズ,0
485,3010001088931,登記記録の閉鎖等,0,2025-05-22,2025-05-02,株式会社テイク４ＩＮＴＥＲＮＡＴＩＯＮＡＬ,,株式会社,千葉県,松戸市,栗山１５３,,12,207,2710097,,,2025-05-02,清算の結了等,,,2015-10-05,1,,,,,テイクフォーインターナショナル,0
509,3010005011501,登記記録の閉鎖等,0,2025-05-22,2025-05-20,特定非営利活動法人日中経営者協会,,その他の設立登記法人,東京都,千代田区,神田西福田町４－１,,13,101,1010037,,,2025-05-20,清算の結了等,,,2015-10-05,1,,,,,ニッチュウケイエイシャキョウカイ,0
512,3010102010744,登記記録の閉鎖等,0,2025-05-22,2025-05-19,有限会社華屋,,有限会社,東京都,八王子市,川口町１３３１番地６,,13,201,1930801,,,2025-05-19,清算の結了等,,,2015-10-05,1,,,,,ハナヤ,0
521,3010405020291,登記記録の閉鎖等,0,2025-05-22,2025-04-17,エス・シー・アイ特定目的会社,,その他の設立登記法人,東京都,港区,六本木１丁目６番１号泉ガーデンタワー,,13,103,1060032,,,2025-04-17,清算の結了等,,,2021-10-08,1,,,,,エスシーアイ,0
522,3010501040466,登記記録の閉鎖等,0,2025-05-22,2025-05-07,株式会社和晟,,株式会社,東京都,台東区,元浅草１丁目６番１２号,,13,106,1110041,,,2025-05-07,清算の結了等,,,2017-01-05,1,,,,,ワセイ,0
528,3010901053150,登記記録の閉鎖等,0,2025-05-22,2025-05-16,日本廾卜製薬株式会社,,株式会社,東京都,世田谷区,世田谷１丁目４１番２号,,13,112,1540017,,,2025-05-16,清算の結了等,,,2023-05-31,1,,,,,ニッポンキュウボクセイヤク,0
539,3011003013588,登記記録の閉鎖等,0,2025-05-22,2025-04-18,ＤＯＫＯＮＩ株式会社,,株式会社,東京都,渋谷区,恵比寿南３丁目１番１号恵比寿グリーングラス６－９階,,13,113,1500022,,,2025-04-18,清算の結了等,,,2021-10-22,1,,,,,ドコニ,0
557,3011602008419,登記記録の閉鎖等,0,2025-05-22,2025-05-19,有限会社ヒロテック,,有限会社,東京都,練馬区,大泉学園町６丁目１番１２号,,13,120,1780061,,,2025-05-19,清算の結了等,,,2015-10-05,1,,,,,ヒロテック,0
562,3013201003750,登記記録の閉鎖等,0,2025-05-22,2025-04-15,帝国興産株式会社,,株式会社,東京都,目黒区,洗足２丁目１７番２１号,,13,110,1520012,,,2025-04-15,清算の結了等,,,2015-10-05,1,,,,,テイコクコウサン,0
566,3020001065970,登記記録の閉鎖等,0,2025-05-22,2025-05-19,エース技研工業株式会社,,株式会社,神奈川県,川崎市高津区,久地４丁目１番５号,,14,134,2130032,,,2025-05-19,清算の結了等,,,2015-10-05,1,,,,,エースギケンコウギョウ,0
567,3020001092404,登記記録の閉鎖等,0,2025-05-22,2025-05-12,株式会社富岡アイティー,,株式会社,神奈川県,横浜市金沢区,富岡西２丁目４４番１６号,,14,108,2360052,,,2025-05-12,清算の結了等,,,2015-10-05,1,,,,,トミオカアイティー,0
570,3020002056341,登記記録の閉鎖等,0,2025-05-22,2025-05-21,有限会社コーラルサービス,,有限会社,神奈川県,横浜市青葉区,市ケ尾町２１６７番地２,,14,117,2250024,,,2025-05-21,清算の結了等,,,2015-10-05,1,,,,,コーラルサービス,0
592,3050001031697,登記記録の閉鎖等,0,2025-05-22,2025-05-02,株式会社石田金物店,,株式会社,茨城県,桜川市,真壁町真壁１４４番地２,,08,231,3004408,,,2025-05-02,清算の結了等,,,2015-10-05,1,,,,,イシダカナモノテン,0
597,3060001027315,登記記録の閉鎖等,0,2025-05-22,2025-05-19,株式会社マックスエンタープライズ,,株式会社,栃木県,宇都宮市,京町１１番地１,,09,201,3200842,,,2025-05-19,清算の結了等,,,2015-10-05,1,,,,,マックスエンタープライズ,0
598,3060002005311,登記記録の閉鎖等,0,2025-05-22,2025-05-19,有限会社扇美,,有限会社,栃木県,宇都宮市,六道町１２番３８号,,09,201,3200841,,,2025-05-19,清算の結了等,,,2015-10-05,1,,,,,オウミ,0
599,3060002033626,登記記録の閉鎖等,0,2025-05-22,2025-05-19,有限会社つがや,,有限会社,栃木県,栃木市,藤岡町部屋６７６番地,,09,203,3290315,,,2025-05-19,清算の結了等,,,2015-10-05,1,,,,,ツガヤ,0
600,3060002035770,登記記録の閉鎖等,0,2025-05-22,2025-05-15,有限会社風間,,有限会社,栃木県,足利市,久保田町１０１８番地の５,,09,202,3260324,,,2025-05-15,清算の結了等,,,2015-10-05,1,,,,,カザマ,0
602,3060005007692,登記記録の閉鎖等,0,2025-05-22,2025-05-15,特定非営利活動法人ルヴァン,,その他の設立登記法人,栃木県,宇都宮市,西川田南１丁目４番１９号,,09,201,3210155,,,2025-05-15,清算の結了等,,,2015-10-05,1,,,,,ルヴァン,0
606,3080001026835,登記記録の閉鎖等,0,2025-05-22,2025-05-19,株式会社ＴＰ,,株式会社,静岡県,静岡市清水区,由比北田１１４番地の１,,22,103,4213104,,,2025-05-19,合併による解散等,6080001026378,令和７年５月１０日静岡市清水区由比北田１１４番地の１株式会社いなば債権管理（6080001026378）に合併し解散,2025-04-02,1,,,,,ティーピー,0
629,3120901011840,登記記録の閉鎖等,0,2025-05-22,2025-05-13,株式会社ヒガシウラ,,株式会社,大阪府,高槻市,大字三島江２２３番地の３,,27,207,5690835,,,2025-05-13,清算の結了等,,,2015-10-05,1,,,,,ヒガシウラ,0
646,3140001122594,登記記録の閉鎖等,0,2025-05-22,2025-05-15,大西ヒルズ株式会社,,株式会社,兵庫県,姫路市,南駅前町９１番地８－１３０４号,,28,201,6700962,,,2025-05-15,合併による解散等,2140001122595,令和７年５月５日兵庫県姫路市南駅前町９１番地８－１３０４号大西グループ株式会社（2140001122595）に合併し解散,2021-08-06,1,,,,,オオニシヒルズ,0
648,3150003002380,登記記録の閉鎖等,0,2025-05-22,2025-05-13,合同会社カイカ,,合同会社,奈良県,生駒市,山崎町４－５ＮＤＡビル５階,,29,209,6300252,,,2025-05-13,合併による解散等,7150003002690,令和７年５月１３日奈良県生駒市山崎町４－５ＮＤＡビル５階合同会社ＨＩＲＡＫＵ（7150003002690）に合併し解散,2021-05-10,1,,,,,カイカ,0
653,3180001137647,登記記録の閉鎖等,0,2025-05-22,2025-05-19,株式会社野村商店,,株式会社,愛知県,一宮市,南小渕字屋敷１０９番地１,,23,203,4910014,,,2025-05-19,清算の結了等,,,2019-08-07,1,,,,,ノムラショウテン,0
659,3180003010868,登記記録の閉鎖等,0,2025-05-22,2025-05-16,合資会社丸三洋裝店,,合資会社,愛知県,瀬戸市,末広町２丁目１番地,,23,204,4890814,,,2025-05-16,清算の結了等,,,2015-10-05,1,,,,,マルサンヨウソウテン,0
674,3240002023022,登記記録の閉鎖等,0,2025-05-22,2025-05-20,有限会社ケントス,,有限会社,広島県,広島市南区,仁保１丁目８番２１号,,34,103,7340026,,,2025-05-20,清算の結了等,,,2015-10-05,1,,,,,ケントス,0
678,3260002010431,登記記録の閉鎖等,0,2025-05-22,2025-05-16,有限会社ユキコ・コーポレーション,,有限会社,岡山県,岡山市北区,兵団５番５０号,,33,101,7000805,,,2025-05-16,清算の結了等,,,2015-10-05,1,,,,,ユキココーポレーション,0
688,3290002034072,登記記録の閉鎖等,0,2025-05-22,2025-05-13,有限会社けたやま,,有限会社,福岡県,福津市,中央６丁目２５番１１号,,40,224,8113217,,,2025-05-13,清算の結了等,,,2015-10-05,1,,,,,ケタヤマ,0
700,3330005004670,登記記録の閉鎖等,0,2025-05-22,2025-05-08,医療法人寿孝会,,その他の設立登記法人,熊本県,玉名市,中３３番地,,43,206,8650064,,,2025-05-08,清算の結了等,,,2015-10-05,1,,,,,ジュコウカイ,0
710,3420002014052,登記記録の閉鎖等,0,2025-05-22,2025-05-12,有限会社弘前オート,,有限会社,青森県,弘前市,大字門外４丁目６番地１,,02,202,0368111,,,2025-05-12,清算の結了等,,,2015-10-05,1,,,,,ヒロサキオート,0
731,4010001208356,登記記録の閉鎖等,0,2025-05-22,2025-04-30,ＶＡＩＯ株式会社,,株式会社,長野県,安曇野市,豊科５４３２番地,,20,220,3998205,,,2025-04-30,合併による解散等,1020001159287,令和７年４月１日神奈川県横浜市西区南幸一丁目１番１号株式会社ＮＪＭ１（1020001159287）に合併し解散,2020-03-17,1,,,,,バイオ,0
743,4010401018363,登記記録の閉鎖等,0,2025-05-22,2025-05-21,株式会社テイーラ・ベント,,株式会社,東京都,世田谷区,新町３丁目１番１１号,,13,112,1540014,,,2025-05-21,清算の結了等,,,2015-10-05,1,,,,,ティーラベント,0
745,4010401142072,登記記録の閉鎖等,0,2025-05-22,2025-05-08,株式会社ラァーチェ,,株式会社,東京都,台東区,松が谷４丁目２５番３号,,13,106,1110036,,,2025-05-08,清算の結了等,,,2018-11-15,1,,,,,ラァーチェ,0
747,4010402016218,登記記録の閉鎖等,0,2025-05-22,2025-04-17,有限会社谷山広告,,有限会社,東京都,港区,南麻布１丁目７番３１号М・ＴＯＷＥＲ７０２号室,,13,103,1060047,,,2025-04-17,清算の結了等,,,2015-10-05,1,,,,,タニヤマコウコク,0
748,4010403020714,登記記録の閉鎖等,0,2025-05-22,2025-05-13,Ｃｏｐｐｅｒｌｅａｆ　Ｊａｐａｎ　Ｔｅｃｈｎｏｌｏｇｉｅｓ合同会社,,合同会社,東京都,中央区,日本橋３丁目９番１号日本橋三丁目スクエア１１階,,13,102,1030027,,,2025-05-13,合併による解散等,9010001009361,令和７年５月１日東京都千代田区大手町一丁目２番１号ＯｔｅｍａｃｈｉＯｎｅタワー２７階アイエフエスジャパン株式会社（9010001009361）に合併し解散,2019-05-20,1,,,,,コパーリーフジャパンテクノロジーズ,0
757,4011001027944,登記記録の閉鎖等,0,2025-05-22,2025-04-17,株式会社都市総合ハウジング,,株式会社,東京都,渋谷区,神山町１１番１７号－４０６号室,,13,113,1500047,,,2025-04-17,清算の結了等,,,2015-10-05,1,,,,,トシソウゴウハウジング,0
770,4011101091832,登記記録の閉鎖等,0,2025-05-22,2025-04-28,ＥＮ株式会社,,株式会社,東京都,新宿区,高田馬場４丁目１３番１１号松島第一ビル３階,,13,104,1690075,,,2025-04-28,清算の結了等,,,2020-07-10,1,,,,,エン,0
771,4011101097020,登記記録の閉鎖等,0,2025-05-22,2025-04-25,株式会社Ｇｉｆｔｅｃｈ,,株式会社,東京都,新宿区,西新宿５丁目２５番１４－９０４号,,13,104,1600023,,,2025-04-25,清算の結了等,,,2021-11-26,1,,,,,ギフテック,0
785,4011803005412,登記記録の閉鎖等,0,2025-05-22,2025-05-20,合同会社Ｚｘｔｅｎｄ,,合同会社,東京都,足立区,伊興３丁目２３―９ピュアハイツ２０４,,13,121,1210823,,,2025-05-20,清算の結了等,,,2022-12-02,1,,,,,ゼクステンド,0
797,4020001101056,登記記録の閉鎖等,0,2025-05-22,2025-05-19,株式会社ハンナコーポレーション,,株式会社,神奈川県,横浜市旭区,市沢町８１２番地４,,14,112,2410014,,,2025-05-19,清算の結了等,,,2015-10-05,1,,,,,ハンナコーポレーション,0
799,4020001102839,登記記録の閉鎖等,0,2025-05-22,2025-05-21,株式会社ＳＩサービス,,株式会社,神奈川県,横浜市港北区,新吉田町５２６９番地,,14,109,2230056,,,2025-05-21,清算の結了等,,,2015-10-05,1,,,,,エスアイサービス,0
805,4020002036210,登記記録の閉鎖等,0,2025-05-22,2025-05-19,有限会社モリテック,,有限会社,神奈川県,横浜市青葉区,桜台２０番地７,,14,117,2270061,,,2025-05-19,清算の結了等,,,2015-10-05,1,,,,,モリテック,0
808,4021001044212,登記記録の閉鎖等,0,2025-05-22,2025-05-21,株式会社グローバルマーケティング,,株式会社,東京都,あきる野市,雨間１９３７－４８,,13,228,1970825,,,2025-05-21,清算の結了等,,,2015-10-05,1,,,,,グローバルマーケティング,0
810,4021001074143,登記記録の閉鎖等,0,2025-05-22,2025-05-20,株式会社アクロ,,株式会社,神奈川県,茅ヶ崎市,東海岸南３丁目１番１１号クレシアＩ１０３,00124477,14,207,2530054,,,2025-05-20,清算の結了等,,,2021-10-06,1,,,,,アクロ,0
828,4040002089553,登記記録の閉鎖等,0,2025-05-22,2025-05-07,有限会社協和ホーム,,有限会社,千葉県,柏市,北柏台７番地１,,12,217,2770836,,,2025-05-07,清算の結了等,,,2015-10-05,1,,,,,キョウワホーム,0
840,4060002032668,登記記録の閉鎖等,0,2025-05-22,2025-05-16,有限会社マミ・ブラウン,,有限会社,栃木県,栃木市,平柳町２丁目１６番７号,,09,203,3280012,,,2025-05-16,清算の結了等,,,2015-10-05,1,,,,,マミブラウン,0
852,4100005011862,登記記録の閉鎖等,0,2025-05-22,2025-05-19,一般社団法人信州伊那國際ゴルフ倶楽部,,その他の設立登記法人,長野県,伊那市,西箕輪３３５０,,20,209,3994501,,,2025-05-19,清算の結了等,,,2016-05-16,1,,,,,シンシュウイナコクサイゴルフクラブ,0
875,4122002000235,登記記録の閉鎖等,0,2025-05-22,2025-05-15,有限会社憩,,有限会社,大阪府,東大阪市,小阪２丁目６番３２号,,27,227,5770801,,,2025-05-15,清算の結了等,,,2015-10-05,1,,,,,イコイ,0
881,4140001122593,登記記録の閉鎖等,0,2025-05-22,2025-05-15,大西フォース株式会社,,株式会社,兵庫県,姫路市,南駅前町９１番地８－１３０４号,,28,201,6700962,,,2025-05-15,合併による解散等,2140001122595,令和７年５月５日兵庫県姫路市南駅前町９１番地８－１３０４号大西グループ株式会社（2140001122595）に合併し解散,2021-08-06,1,,,,,オオニシフォース,0
885,4140005018202,登記記録の閉鎖等,0,2025-05-22,2025-04-14,松源寺,,その他の設立登記法人,兵庫県,伊丹市,口酒井１丁目６番２６号,,28,207,6640844,,,2025-04-14,合併による解散等,6140005018200,令和７年４月１４日兵庫県伊丹市中野北二丁目１１番５号常休寺（6140005018200）に合併し解散,2015-10-05,1,,,,,,0
896,4200001042884,登記記録の閉鎖等,0,2025-05-22,2025-05-16,株式会社まろぷち,,株式会社,岐阜県,加茂郡東白川村,越原２２３３－４,,21,507,5091301,,,2025-05-16,清算の結了等,,,2024-09-05,1,,,,,マロプチ,0
902,4270005000386,登記記録の閉鎖等,0,2025-05-22,2025-05-21,スカットセンター企業組合,,その他の設立登記法人,鳥取県,鳥取市,福部町湯山２１６４番地８０６,,31,201,6890105,,,2025-05-21,清算の結了等,,,2015-10-05,1,,,,,スカットセンター,0
908,4320001010037,登記記録の閉鎖等,0,2025-05-22,2025-05-12,株式会社新象,,株式会社,大分県,日田市,大字十二町５６３番地,,44,204,8770000,,,2025-05-12,清算の結了等,,,2015-10-05,1,,,,,シンショウ,0
918,4360003005361,登記記録の閉鎖等,0,2025-05-22,2025-05-12,合資会社農業生産法人長生農園,,合資会社,沖縄県,宮古島市,伊良部字池間添１６９５番地４,,47,214,9060502,,,2025-05-12,清算の結了等,,,2015-10-05,1,,,,,ノウギョウセイサンホウジンチョウセイノウエン,0
924,4370305000761,登記記録の閉鎖等,0,2025-05-22,2025-04-17,特定非営利活動法人石巻スポーツ振興サポートセンター,,その他の設立登記法人,宮城県,石巻市,中央３丁目６番６号,,04,202,9860822,,,2025-04-17,清算の結了等,,,2015-10-05,1,,,,,イシノマキスポーツシンコウサポートセンター,0
926,4400001015390,登記記録の閉鎖等,0,2025-05-22,2025-05-02,株式会社ＹＯＵＳ,,株式会社,岩手県,盛岡市,中央通１丁目７番３５号,,03,201,0200021,,,2025-05-02,清算の結了等,,,2021-04-01,1,,,,,ユース,0
948,5010003029270,登記記録の閉鎖等,0,2025-05-22,2025-05-01,合同会社雷門花川戸プロパティ,,合同会社,東京都,中央区,銀座２丁目１０番８号マニエラ銀座ビル４階ブリッジ・シー会計事務所内,,13,102,1040061,,,2025-05-01,清算の結了等,,,2019-02-14,1,,,,,カミナリモンハナカワドプロパティ,0
957,5010401180071,登記記録の閉鎖等,0,2025-05-22,2025-04-17,しあわせナース株式会社,,株式会社,東京都,港区,芝浦３丁目１７番７－５０５号,,13,103,1080023,,,2025-04-17,清算の結了等,,,2024-01-30,1,,,,,シアワセナース,0
968,5010403026586,登記記録の閉鎖等,0,2025-05-22,2025-04-17,ＲＢソーラースクエア合同会社,,合同会社,東京都,港区,虎ノ門３丁目２２番１０－２０１号,,13,103,1050001,,,2025-04-17,清算の結了等,,,2021-11-24,1,,,,,アールビーソーラースクエア,0
971,5010601046287,登記記録の閉鎖等,0,2025-05-22,2025-04-23,株式会社ＬＩＸＩＬホームファイナンス,,株式会社,東京都,品川区,西品川１丁目１番１号大崎ガーデンタワー,,13,109,1410033,,,2025-04-23,清算の結了等,,,2015-10-05,1,,,,,リクシルホームファイナンス,0
973,5010602019572,登記記録の閉鎖等,0,2025-05-22,2025-05-20,有限会社三木企画,,有限会社,東京都,江東区,森下３丁目２０番１８－４０２号,,13,108,1350004,,,2025-05-20,清算の結了等,,,2015-10-05,1,,,,,ミキキカク,0
978,5010901038488,登記記録の閉鎖等,0,2025-05-22,2025-05-20,株式会社コンパス,,株式会社,東京都,世田谷区,赤堤４丁目２３番５－６０２号,,13,112,1560044,,,2025-05-20,清算の結了等,,,2016-07-20,1,,,,,コンパス,0
1041,5021001026795,登記記録の閉鎖等,0,2025-05-22,2025-05-19,株式会社恭吉商事,,株式会社,神奈川県,海老名市,上今泉６丁目２６番４４－４号,,14,215,2430431,,,2025-05-19,清算の結了等,,,2015-10-05,1,,,,,キョウヨシショウジ,0
1042,5021001045085,登記記録の閉鎖等,0,2025-05-22,2025-05-16,マックテクニカルズ販売株式会社,,株式会社,神奈川県,藤沢市,遠藤６４５番地の３,,14,205,2520816,,,2025-05-16,清算の結了等,,,2015-10-05,1,,,,,マックテクニカルズハンバイ,0
1046,5030001061125,登記記録の閉鎖等,0,2025-05-22,2025-05-19,オキ・ニューエモーション株式会社,,株式会社,埼玉県,本庄市,見福２丁目８番４号,,11,211,3670044,,,2025-05-19,清算の結了等,,,2015-10-05,1,,,,,オキニューエモーション,0
1051,5030001143947,登記記録の閉鎖等,0,2025-05-22,2025-05-15,株式会社アイジーユー,,株式会社,東京都,足立区,東伊興３丁目４番１６－１０３号,,13,121,1210801,,,2025-05-15,清算の結了等,,,2021-08-25,1,,,,,アイジーユー,0
1058,5030002006673,登記記録の閉鎖等,0,2025-05-22,2025-05-20,有限会社シンワ,,有限会社,埼玉県,さいたま市緑区,芝原３丁目９番地２,,11,109,3360917,,,2025-05-20,清算の結了等,,,2015-10-05,1,,,,,シンワ,0
1065,5040001102514,登記記録の閉鎖等,0,2025-05-22,2025-05-07,恒源株式会社,,株式会社,千葉県,千葉市中央区,赤井町７５７番地３３,,12,101,2600804,,,2025-05-07,清算の結了等,,,2017-11-16,1,,,,,コウゲン,0
1102,5110001021995,登記記録の閉鎖等,0,2025-05-22,2025-05-09,株式会社雪輝屋,,株式会社,新潟県,十日町市,山野田２７０番地１,,15,210,9480143,,,2025-05-09,清算の結了等,,,2015-10-05,1,,,,,ユウキヤ,0
1122,5120003024046,登記記録の閉鎖等,0,2025-05-22,2025-05-20,合同会社ソマリデンタルオフィス,,合同会社,大阪府,東大阪市,友井３丁目７番１８号グラディオ友井７０１,,27,227,5770816,,,2025-05-20,清算の結了等,,,2023-05-16,1,,,,,ソマリデンタルオフィス,0
1126,5120101051074,登記記録の閉鎖等,0,2025-05-22,2025-05-15,靴屋のシェイク株式会社,,株式会社,大阪府,堺市南区,三原台４丁３２番１３号,,27,145,5900111,,,2025-05-15,清算の結了等,,,2015-10-05,1,,,,,クツヤノシェイク,0
1142,5140001122592,登記記録の閉鎖等,0,2025-05-22,2025-05-15,大西ユース株式会社,,株式会社,兵庫県,姫路市,新在家４丁目５番２３号,,28,201,6700095,,,2025-05-15,合併による解散等,2140001122595,令和７年５月５日兵庫県姫路市南駅前町９１番地８－１３０４号大西グループ株式会社（2140001122595）に合併し解散,2021-08-06,1,,,,,オオニシユース,0
1146,5140002041998,登記記録の閉鎖等,0,2025-05-22,2025-05-19,西村製材有限会社,,有限会社,兵庫県,尼崎市,杭瀬寺島１丁目２－６,,28,202,6600813,,,2025-05-19,清算の結了等,,,2015-10-05,1,,,,,ニシムラセイザイ,0
1152,5180001112482,登記記録の閉鎖等,0,2025-05-22,2025-05-19,株式会社サンライズ知多,,株式会社,愛知県,知多郡阿久比町,大字横松字芝原１番地４,,23,441,4702206,,,2025-05-19,清算の結了等,,,2015-10-05,1,,,,,サンライズチタ,0
1183,5260005009980,登記記録の閉鎖等,0,2025-05-22,2025-05-15,特定非営利活動法人日本・カンボジア教育支援協会,,その他の設立登記法人,岡山県,岡山市東区,西大寺上１丁目１９番１９号学校法人森教育学園内,,33,103,7048112,,,2025-05-15,清算の結了等,,,2015-10-23,1,,,,,ニホンカンボジアキョウイクシエンキョウカイ,0
1185,5290001062080,登記記録の閉鎖等,0,2025-05-22,2025-04-30,株式会社エムコーポレーション,,株式会社,福岡県,久留米市,合川町１５９４番地８,,40,203,8390861,,,2025-04-30,合併による解散等,2290001062777,令和７年４月３０日福岡県久留米市合川町１５９４番地８株式会社住まいるハウジング（2290001062777）に合併し解散,2015-10-05,1,,,,,エムコーポレーション,0
1186,5290001062584,登記記録の閉鎖等,0,2025-05-22,2025-05-12,ジェムテクノ株式会社,,株式会社,福岡県,福岡市博多区,博多駅前２丁目９番２８号福岡商工会議所ビル８階,,40,132,8120011,,,2025-05-12,清算の結了等,,,2015-10-05,1,,,,,,0
1197,5370001003687,登記記録の閉鎖等,0,2025-05-22,2025-05-12,株式会社東洋スーパー化学研究所,,株式会社,宮城県,仙台市若林区,六丁の目中町１０番４１号,,04,103,9840012,,,2025-05-12,清算の結了等,,,2015-10-05,1,,,,,トウヨウスーパーカガクケンキュウジョ,0
1200,5380005002478,登記記録の閉鎖等,0,2025-05-22,2025-05-01,一般財団法人慈山会医学研究所,,その他の設立登記法人,福島県,郡山市,安積町長久保１丁目１０番地１３,,07,203,9630105,,,2025-05-01,合併による解散等,6380005012914,令和７年５月１日福島県郡山市安積町長久保一丁目１０番地１３一般社団法人慈山会医学研究所（6380005012914）に合併により解散,2015-10-05,1,,,,,ジザンカイイガクケンキュウジョ,0
1201,5390002014021,登記記録の閉鎖等,0,2025-05-22,2025-05-16,有限会社エヌケー物流,,有限会社,山形県,米沢市,成島町１丁目６番７１－１号,,06,202,9920057,,,2025-05-16,清算の結了等,,,2015-10-05,1,,,,,エヌケーブツリュウ,0
1207,5430001066315,登記記録の閉鎖等,0,2025-05-22,2025-05-19,株式会社アムイ・プランニング,,株式会社,北海道,石狩市,八幡４丁目１６６番地４７,,01,235,0613361,,,2025-05-19,清算の結了等,,,2015-10-05,1,,,,,アムイプランニング,0
1223,5480002009086,登記記録の閉鎖等,0,2025-05-22,2025-05-21,有限会社蔵本運送,,有限会社,徳島県,吉野川市,山川町湯立２５８番地１,,36,205,7793404,,,2025-05-21,清算の結了等,,,2015-10-05,1,,,,,,0
1230,6010001207810,登記記録の閉鎖等,0,2025-05-22,2025-04-25,５Ｃ．ｌａｂｏ株式会社,,株式会社,長野県,佐久市,岩村田７５７番地３,,20,217,3850022,,,2025-04-25,合併による解散等,1100001010929,令和７年４月１日東京都中央区銀座六丁目６番１号銀座風月堂ビル５階エコシンフォニー株式会社（1100001010929）に合併し解散,2020-02-28,1,,,,,ファイブシーラボ,0
1242,6010401141601,登記記録の閉鎖等,0,2025-05-22,2025-04-11,株式会社イー・ライフ,,株式会社,東京都,港区,西新橋１丁目２番９号日比谷セントラルビル１４階,,13,103,1050003,,,2025-04-11,清算の結了等,,,2018-10-25,1,,,,,イーライフ,0
1258,6010902015262,登記記録の閉鎖等,0,2025-05-22,2025-05-20,有限会社毛利工務店,,有限会社,東京都,世田谷区,奥沢７丁目４３番１号,,13,112,1580083,,,2025-05-20,清算の結了等,,,2015-10-05,1,,,,,モウリコウムテン,0
1265,6011002005625,登記記録の閉鎖等,0,2025-05-22,2025-05-19,有限会社白石事務所,,有限会社,埼玉県,日高市,横手２丁目３５番地７,,11,242,3501257,,,2025-05-19,清算の結了等,,,2015-10-05,1,,,,,シライシジムショ,0
1271,6011101096680,登記記録の閉鎖等,0,2025-05-22,2025-04-25,株式会社日本モビリティサービス,,株式会社,東京都,新宿区,百人町２丁目２２番３号,,13,104,1690073,,,2025-04-25,清算の結了等,,,2021-10-25,1,,,,,ニホンモビリティサービス,0
1273,6011103011200,登記記録の閉鎖等,0,2025-05-22,2025-04-28,グローリーシールド合同会社,,合同会社,東京都,新宿区,四谷２丁目９番地１５東京ユナイテッド綜合事務所内,,13,104,1600004,,,2025-04-28,清算の結了等,,,2021-11-18,1,,,,,グローリーシールド,0
1282,6011502010190,登記記録の閉鎖等,0,2025-05-22,2025-05-15,有限会社中田金属工芸,,有限会社,東京都,荒川区,西尾久７丁目５１番５号,,13,118,1160011,,,2025-05-15,清算の結了等,,,2015-10-05,1,,,,,ナカタキンゾクコウゲイ,0
1295,6013102001875,登記記録の閉鎖等,0,2025-05-22,2025-05-20,有限会社共栄電設,,有限会社,東京都,あきる野市,雨間字大沢１９３５番地４３,,13,228,1970825,,,2025-05-20,清算の結了等,,,2015-10-05,1,,,,,キョウエイデンセツ,0
1296,6013102002956,登記記録の閉鎖等,0,2025-05-22,2025-05-21,有限会社つがる自動車販売,,有限会社,東京都,西多摩郡瑞穂町,箱根ケ崎東松原１１番地１,,13,303,1901222,,,2025-05-21,清算の結了等,,,2015-10-05,1,,,,,ツガルジドウシャハンバイ,0
1297,6013301023506,登記記録の閉鎖等,0,2025-05-22,2025-05-02,株式会社文福システムズ,,株式会社,東京都,豊島区,巣鴨３丁目１番１２号エスポワール巣鴨５０２号,,13,116,1700002,,,2025-05-02,清算の結了等,,,2015-10-05,1,,,,,ブンプクシステムズ,0
1301,6020001036829,登記記録の閉鎖等,0,2025-05-22,2025-05-19,株式会社三澤総業,,株式会社,神奈川県,横浜市鶴見区,鶴見中央５丁目１１番２１号,,14,101,2300051,,,2025-05-19,清算の結了等,,,2015-10-05,1,,,,,ミサワソウギョウ,0
1303,6020001084398,登記記録の閉鎖等,0,2025-05-22,2025-05-16,株式会社米村,,株式会社,神奈川県,横浜市港南区,大久保２丁目２２番２９－２０２号,,14,111,2330007,,,2025-05-16,清算の結了等,,,2015-10-05,1,,,,,ヨネムラ,0
1308,6020002079042,登記記録の閉鎖等,0,2025-05-22,2025-05-19,有限会社オンダ・ダンススクール,,有限会社,神奈川県,横浜市神奈川区,鶴屋町３丁目３２番地１ニッパツ西口ビル３階,,14,102,2210835,,,2025-05-19,清算の結了等,,,2015-10-05,1,,,,,オンダダンススクール,0
1313,6021001058961,登記記録の閉鎖等,0,2025-05-22,2025-05-16,株式会社Ｋａｄｏｙａアウトドアグッズ,,株式会社,神奈川県,横須賀市,本町２丁目８番地,,14,201,2380041,,,2025-05-16,清算の結了等,,,2016-04-11,1,,,,,カドヤアウトドアグッズ,0
1329,6040002015961,登記記録の閉鎖等,0,2025-05-22,2025-05-02,有限会社宮口設備,,有限会社,千葉県,千葉市稲毛区,作草部町１２８９番地１,,12,103,2630014,,,2025-05-02,清算の結了等,,,2015-10-05,1,,,,,ミヤグチセツビ,0
1335,6050002043301,登記記録の閉鎖等,0,2025-05-22,2025-05-02,有限会社ＴＫトータルプランニング,,有限会社,茨城県,つくば市,蓮沼１３２２番地１,,08,220,3003262,,,2025-05-02,清算の結了等,,,2015-10-05,1,,,,,ティーケートータルプランニング,0
1341,6060002010886,登記記録の閉鎖等,0,2025-05-22,2025-05-19,株式会社正健,,株式会社,栃木県,下都賀郡壬生町,大師町６番３号,,09,361,3210228,,,2025-05-19,清算の結了等,,,2015-10-05,1,,,,,ショウケン,0
1346,6080001012725,登記記録の閉鎖等,0,2025-05-22,2025-05-19,株式会社クープル,,株式会社,静岡県,静岡市葵区,一番町４１番地の２,,22,101,4200071,,,2025-05-19,清算の結了等,,,2015-10-05,1,,,,,クープル,0
1350,6080401010634,登記記録の閉鎖等,0,2025-05-22,2025-05-20,プラモ株式会社,,株式会社,静岡県,浜松市中央区,伊左地町３００５番地の１,,22,138,4311111,,,2025-05-20,合併による解散等,5080401002789,令和７年５月２０日静岡県浜松市中央区伊左地町３００５番地の１株式会社ソフテック（5080401002789）に合併し解散,2015-10-05,1,,,,,プラモ,0
1351,6080401014684,登記記録の閉鎖等,0,2025-05-22,2025-05-16,株式会社プロスパイラマニュファクチャリング,,株式会社,静岡県,掛川市,千浜４５６０番地,,22,213,4371412,,,2025-05-16,合併による解散等,4010001223933,令和７年５月１日神奈川県川崎市幸区堀川町５８０番地株式会社プロスパイラ（4010001223933）に合併し解散,2015-10-05,1,,,,,プロスパイラマニュファクチャリング,0
1358,6120001167589,登記記録の閉鎖等,0,2025-05-22,2025-05-15,株式会社井上工業,,株式会社,大阪府,門真市,四宮３丁目１番２８号,,27,223,5710017,,,2025-05-15,清算の結了等,,,2015-10-05,1,,,,,,0
1359,6120001175501,登記記録の閉鎖等,0,2025-05-22,2025-05-15,株式会社生田建設,,株式会社,大阪府,泉大津市,東雲町１５番２９－２号,,27,206,5950026,,,2025-05-15,清算の結了等,,,2015-10-05,1,,,,,イクタケンセツ,0
1366,6120101007018,登記記録の閉鎖等,0,2025-05-22,2025-05-15,株式会社ベストグリーン,,株式会社,大阪府,堺市美原区,菅生４９１番地３,,27,147,5870041,,,2025-05-15,清算の結了等,,,2015-10-05,1,,,,,,0
1372,6122002012195,登記記録の閉鎖等,0,2025-05-22,2025-05-15,株式会社ジェイパック,,株式会社,大阪府,大阪市大正区,小林東２丁目６番２５号,,27,108,5510011,,,2025-05-15,清算の結了等,,,2015-10-05,1,,,,,ジェイパック,0
1374,6130001013940,登記記録の閉鎖等,0,2025-05-22,2025-05-21,株式会社エー・エヌ・シー,,株式会社,愛知県,岡崎市,羽栗町字平松２８番地８,,23,202,4443514,,,2025-05-21,清算の結了等,,,2015-10-05,1,,,,,エーエヌシー,0
1380,6140001122591,登記記録の閉鎖等,0,2025-05-22,2025-05-15,大西ファースト株式会社,,株式会社,兵庫県,姫路市,新在家４丁目５番２３号,,28,201,6700095,,,2025-05-15,合併による解散等,2140001122595,令和７年５月５日兵庫県姫路市南駅前町９１番地８－１３０４号大西グループ株式会社（2140001122595）に合併し解散,2021-08-06,1,,,,,オオニシファースト,0
1385,6150001023616,登記記録の閉鎖等,0,2025-05-22,2025-05-13,株式会社ＡＳＵＭＯ,,株式会社,奈良県,生駒市,山崎町４－５ＮＤＡビル５階,,29,209,6300252,,,2025-05-13,合併による解散等,6150003002378,令和７年５月１３日奈良県生駒市山崎町４－５ＮＤＡビル５階ＨＩＲＡＫＵホールディングス株式会社（6150003002378）に合併し解散,2020-03-23,1,,,,,アスモ,0
1389,6180001064376,登記記録の閉鎖等,0,2025-05-22,2025-05-12,株式会社スマイリー,,株式会社,愛知県,名古屋市中区,丸の内３丁目５番３３号,,23,106,4600002,,,2025-05-12,清算の結了等,,,2015-10-05,1,,,,,スマイリー,0
1395,6180002079539,登記記録の閉鎖等,0,2025-05-22,2025-05-19,有限会社ルビーコスメ,,有限会社,愛知県,一宮市,若竹２丁目２番１－９０１,,23,203,4910832,,,2025-05-19,清算の結了等,,,2015-10-05,1,,,,,ルビーコスメ,0
1408,6210003001101,登記記録の閉鎖等,0,2025-05-22,2025-05-21,合同会社福銘齋,,合同会社,福井県,鯖江市,河和田町２１－１３－５,,18,207,9161222,,,2025-05-21,清算の結了等,,,2018-08-13,1,,,,,フクメイサイ,0
1409,6220001017701,登記記録の閉鎖等,0,2025-05-22,2025-05-15,株式会社村建,,株式会社,石川県,河北郡津幡町,字清水ア８番地,,17,361,9290326,,,2025-05-15,合併による解散等,7220001017634,令和７年５月１５日石川県河北郡津幡町字清水ア９番地株式会社津幡工業（7220001017634）に合併し解散,2015-10-05,1,,,,,ムラケン,0
1416,6250001020025,登記記録の閉鎖等,0,2025-05-22,2025-05-14,株式会社アクアス,,株式会社,山口県,山口市,小郡令和１丁目１番１号,,35,203,7540041,,,2025-05-14,清算の結了等,,,2023-03-23,1,,,,,アクアス,0
1431,6290002021968,登記記録の閉鎖等,0,2025-05-22,2025-05-12,有限会社西日本設備,,有限会社,福岡県,福岡市城南区,梅林３丁目１３番１９号,,40,136,8140144,,,2025-05-12,清算の結了等,,,2015-10-05,1,,,,,ニシニホンセツビ,0
1433,6290005002189,登記記録の閉鎖等,0,2025-05-22,2025-05-16,九州パイプライニング協同組合,,その他の設立登記法人,福岡県,福岡市南区,鶴田４丁目５２番６号,,40,134,8111352,,,2025-05-16,清算の結了等,,,2015-10-05,1,,,,,,0
1435,6290005018219,登記記録の閉鎖等,0,2025-05-22,2025-05-16,農事組合法人矢部の丘農園,,その他の設立登記法人,福岡県,八女市,矢部村北矢部８５４９番地８,,40,210,8341401,,,2025-05-16,清算の結了等,,,2021-05-14,1,,,,,ヤベノオカアノウエン,0
1448,6370001044318,登記記録の閉鎖等,0,2025-05-22,2025-05-02,野村架設工業株式会社,,株式会社,宮城県,遠田郡涌谷町,涌谷字追戸一１８番地１,,04,501,9870121,,,2025-05-02,清算の結了等,,,2019-05-08,1,,,,,ノムラカセツコウギョウ,0
1451,6380001000377,登記記録の閉鎖等,0,2025-05-22,2025-05-14,株式会社北日本福島バスガイド社,,株式会社,福島県,福島市,伏拝字沼ノ上２番地の２２２,,07,201,9608154,,,2025-05-14,清算の結了等,,,2015-10-05,1,,,,,キタニホンフクシマバスガイドシャ,0
1471,6450002012281,登記記録の閉鎖等,0,2025-05-22,2025-05-15,有限会社エンジニヤ商会,,有限会社,北海道,苫前郡苫前町,字古丹別１８８番地の３８,,01,483,0783621,,,2025-05-15,清算の結了等,,,2015-10-05,1,,,,,エンジニヤショウカイ,0
1473,6460101006373,登記記録の閉鎖等,0,2025-05-22,2025-05-19,武内建機株式会社,,株式会社,北海道,帯広市,東十三条南３丁目１番地３１,,01,207,0800813,,,2025-05-19,清算の結了等,,,2018-05-02,1,,,,,タケウチケンキ,0
1479,6490001002164,登記記録の閉鎖等,0,2025-05-22,2025-05-16,株式会社森本工務店,,株式会社,高知県,高知市,福井町１９５０番地１,,39,201,7800965,,,2025-05-16,清算の結了等,,,2015-10-05,1,,,,,モリモトコウムテン,0
1502,7010401086498,登記記録の閉鎖等,0,2025-05-22,2025-04-17,株式会社コーディアルエージェント,,株式会社,東京都,港区,南青山６丁目２番９号,,13,103,1070062,,,2025-04-17,清算の結了等,,,2015-10-05,1,,,,,コーディアルエージェント,0
1510,7010403026287,登記記録の閉鎖等,0,2025-05-22,2025-04-17,エス・シー・アイ２合同会社,,合同会社,東京都,港区,六本木１丁目６番１号泉ガーデンタワー,,13,103,1060032,,,2025-04-17,清算の結了等,,,2021-10-08,1,,,,,エスシーアイツー,0
1533,7011001141412,登記記録の閉鎖等,0,2025-05-22,2025-04-18,株式会社Ｂｉｒｃｈ,,株式会社,東京都,渋谷区,幡ヶ谷１丁目２－２京王幡ヶ谷ビル４階,,13,113,1510072,,,2025-04-18,清算の結了等,,,2021-06-30,1,,,,,バーチ,0
1553,7011303004366,登記記録の閉鎖等,0,2025-05-22,2025-05-14,合同会社えむけん,,合同会社,東京都,杉並区,清水３丁目７－２２,,13,115,1670033,,,2025-05-14,清算の結了等,,,2022-04-04,1,,,,,エムケン,0
1557,7011601026839,登記記録の閉鎖等,0,2025-05-22,2025-05-16,株式会社ソリチュード,,株式会社,東京都,練馬区,練馬１丁目２番１１号－４０１号室,,13,120,1760001,,,2025-05-16,清算の結了等,,,2023-05-24,1,,,,,ソリチュード,0
1580,7020002099832,登記記録の閉鎖等,0,2025-05-22,2025-05-13,有限会社楽楽,,有限会社,神奈川県,川崎市川崎区,日進町２７番地２,,14,131,2100024,,,2025-05-13,清算の結了等,,,2015-10-05,1,,,,,ラクラク,0
1594,7030003006662,登記記録の閉鎖等,0,2025-05-22,2025-05-20,アルファカルキュレイション合同会社,,合同会社,埼玉県,久喜市,江面１５７９番地,,11,232,3460029,,,2025-05-20,清算の結了等,,,2015-10-05,1,,,,,アルファカルキュレイション,0
1607,7050001019227,登記記録の閉鎖等,0,2025-05-22,2025-05-15,株式会社山田鉄工所,,株式会社,茨城県,古河市,仁連２２２４番地,,08,204,3060125,,,2025-05-15,清算の結了等,,,2015-10-05,1,,,,,ヤマダテッコウジョ,0
1621,7090005005104,登記記録の閉鎖等,0,2025-05-22,2025-05-19,農事組合法人清里ファーム,,その他の設立登記法人,山梨県,北杜市,高根町清里３５４５番地,,19,209,4070301,,,2025-05-19,清算の結了等,,,2015-10-05,1,,,,,,0
1643,7130002012651,登記記録の閉鎖等,0,2025-05-22,2025-05-19,有限会社馬場商店,,有限会社,京都府,京都市山科区,勧修寺西金ケ崎３２７番地,,26,110,6078221,,,2025-05-19,清算の結了等,,,2015-10-05,1,,,,,バンバショウテン,0
1646,7140001122590,登記記録の閉鎖等,0,2025-05-22,2025-05-15,大西フィル株式会社,,株式会社,兵庫県,姫路市,新在家４丁目５番２３号,,28,201,6700095,,,2025-05-15,合併による解散等,2140001122595,令和７年５月５日兵庫県姫路市南駅前町９１番地８－１３０４号大西グループ株式会社（2140001122595）に合併し解散,2021-08-06,1,,,,,オオニシフィル,0
1655,7180001043073,登記記録の閉鎖等,0,2025-05-22,2025-05-13,株式会社大喜,,株式会社,愛知県,名古屋市中川区,柳島町６丁目２５番地,,23,110,4540024,,,2025-05-13,清算の結了等,,,2015-10-05,1,,,,,ダイギ,0
1660,7180302023435,登記記録の閉鎖等,0,2025-05-22,2025-05-15,有限会社穂高電機工業,,有限会社,愛知県,豊田市,神池町２丁目１２３６番地１５１,,23,211,4710804,,,2025-05-15,清算の結了等,,,2015-10-05,1,,,,,ホダカデンキコウギョウ,0
1663,7200001008263,登記記録の閉鎖等,0,2025-05-22,2025-05-01,新日本テクニカル株式会社,,株式会社,岐阜県,各務原市,蘇原花園町２丁目４５番地２,,21,213,5040832,,,2025-05-01,合併による解散等,8200001002505,令和７年５月１日岐阜市則武東三丁目１５番７号新日本ガス株式会社（8200001002505）に合併し解散,2015-10-05,1,,,,,シンニホンテクニカル,0
1670,7240001034702,登記記録の閉鎖等,0,2025-05-22,2025-05-20,株式会社エトランジェ・ディ・コスタリカ,,株式会社,広島県,福山市,三吉町南１丁目１１番２５号,,34,207,7200032,,,2025-05-20,清算の結了等,,,2015-10-05,1,,,,,,0
1675,7240005008982,登記記録の閉鎖等,0,2025-05-22,2025-05-01,医療法人社団健信会木下メディカルクリニック,,その他の設立登記法人,広島県,福山市,沼隈町大字草深１７１１番地,,34,207,7200311,,,2025-05-01,合併による解散等,3240005007294,令和７年５月１日広島県福山市沼隈町大字常石１０８３番地社会医療法人社団沼南会（3240005007294）に合併し解散,2015-10-05,1,,,,,ケンシンカイキノシタメディカルクリニック,0
1678,7260001032976,登記記録の閉鎖等,0,2025-05-22,2025-05-21,株式会社クラッシー,,株式会社,広島県,広島市安佐南区,大塚東２丁目１８番２３号ＣＡＳＡＣＯｌｌｉｎａ１階,,34,105,7313166,,,2025-05-21,清算の結了等,,,2019-04-01,1,,,,,クラッシー,0
1683,7290803003321,登記記録の閉鎖等,0,2025-05-22,2025-05-21,合同会社ＡＸＩＡ,,合同会社,福岡県,北九州市門司区,春日町９番３３号,,40,101,8010823,,,2025-05-21,清算の結了等,,,2019-04-04,1,,,,,アクシア,0
1694,7330002006922,登記記録の閉鎖等,0,2025-05-22,2025-05-20,有限会社鶴井建築設計事務所,,有限会社,熊本県,熊本市東区,御領２丁目１８番５号,,43,102,8618035,,,2025-05-20,清算の結了等,,,2015-10-05,1,,,,,ツルイケンチクセッケイジムショ,0
1703,7380005005842,登記記録の閉鎖等,0,2025-05-22,2025-05-09,医療法人学徹会,,その他の設立登記法人,福島県,いわき市,郷ケ丘２丁目４０番地の４,,07,204,9708045,,,2025-05-09,清算の結了等,,,2015-10-05,1,,,,,ガクテツカイ,0
1715,7480001006553,登記記録の閉鎖等,0,2025-05-22,2025-05-20,株式会社Ｈ＆Ｈ,,株式会社,徳島県,徳島市,国府町芝原字宮ノ本３７番地の２,,36,201,7793112,,,2025-05-20,清算の結了等,,,2015-10-05,1,,,,,エイチアンドエイチ,0
1719,8010001044632,登記記録の閉鎖等,0,2025-05-22,2025-05-02,株式会社山栄社,,株式会社,東京都,中央区,八丁堀３丁目１８番３号,,13,102,1040032,,,2025-05-02,清算の結了等,,,2015-10-05,1,,,,,サンエイシャ,0
1722,8010001203196,登記記録の閉鎖等,0,2025-05-22,2025-04-30,ＶＪホールディングス３株式会社,,株式会社,東京都,千代田区,丸の内２丁目１番１号,,13,101,1000005,,,2025-04-30,合併による解散等,1020001159287,令和７年４月１日神奈川県横浜市西区南幸一丁目１番１号株式会社ＮＪＭ１（1020001159287）に合併し解散,2019-08-09,1,,,,,ブイジェイホールディングススリー,0
1742,8010403026286,登記記録の閉鎖等,0,2025-05-22,2025-04-17,エス・シー・アイ１合同会社,,合同会社,東京都,港区,六本木１丁目６番１号泉ガーデンタワー,,13,103,1060032,,,2025-04-17,清算の結了等,,,2021-10-08,1,,,,,エスシーアイワン,0
1765,8011001069504,登記記録の閉鎖等,0,2025-05-22,2025-05-21,株式会社アットジェイ,,株式会社,東京都,世田谷区,南烏山３丁目２３番２２号,,13,112,1570062,,,2025-05-21,清算の結了等,,,2015-10-05,1,,,,,,0
1766,8011001133177,登記記録の閉鎖等,0,2025-05-22,2025-04-16,株式会社カノエ,,株式会社,東京都,目黒区,東山３丁目１番地１５号,,13,110,1530043,,,2025-04-16,清算の結了等,,,2020-04-07,1,,,,,カノエ,0
1783,8011201014697,登記記録の閉鎖等,0,2025-05-22,2025-05-16,株式会社圓通,,株式会社,東京都,中野区,新井４丁目４番２号,,13,114,1650026,,,2025-05-16,清算の結了等,,,2015-10-05,1,,,,,エンツウ,0
1785,8011201021041,登記記録の閉鎖等,0,2025-05-22,2025-05-15,寰宇株式会社,,株式会社,東京都,北区,浮間１丁目１番１４号リムジンビル３２９,,13,117,1150051,,,2025-05-15,清算の結了等,,,2018-12-12,1,,,,,カンウ,0
1795,8011801000576,登記記録の閉鎖等,0,2025-05-22,2025-05-19,株式会社エイディープランニング,,株式会社,東京都,葛飾区,堀切５丁目１３番１号,,13,122,1240006,,,2025-05-19,清算の結了等,,,2015-10-05,1,,,,,エイディープランニング,0
1801,8020001095253,登記記録の閉鎖等,0,2025-05-22,2025-05-19,株式会社Ｇｒｅｅｎ　ｋｉｔｃｈｅｎ,,株式会社,神奈川県,川崎市宮前区,神木本町１丁目１８番１７号,,14,136,2160031,,,2025-05-19,清算の結了等,,,2015-10-05,1,,,,,グリーンキッチン,0
1806,8020002103436,登記記録の閉鎖等,0,2025-05-22,2025-05-13,有限会社テクノ・ビジョン,,有限会社,神奈川県,川崎市麻生区,王禅寺西１丁目２５番２号,,14,137,2150017,,,2025-05-13,清算の結了等,,,2015-10-05,1,,,,,テクノビジョン,0
1819,8030001090303,登記記録の閉鎖等,0,2025-05-22,2025-05-19,株式会社松商,,株式会社,埼玉県,日高市,大字中沢８４６番地４,,11,242,3501226,,,2025-05-19,清算の結了等,,,2015-10-05,1,,,,,マツショウ,0
1823,8030002046725,登記記録の閉鎖等,0,2025-05-22,2025-05-19,有限会社小幡建築研究所,,有限会社,埼玉県,八潮市,中央３丁目７番地１,,11,234,3400816,,,2025-05-19,清算の結了等,,,2015-10-05,1,,,,,オバタケンチクケンキュウショ,0
1828,8030003017683,登記記録の閉鎖等,0,2025-05-22,2025-05-19,合同会社ＳＴＩＣＫ　ＯＵＴ,,合同会社,埼玉県,朝霞市,本町２丁目１６番８号,,11,227,3510011,,,2025-05-19,清算の結了等,,,2021-07-28,1,,,,,スティックアウト,0
1845,8060002014976,登記記録の閉鎖等,0,2025-05-22,2025-05-19,有限会社三栄無線商会,,有限会社,栃木県,日光市,今市６３６番地,,09,206,3211261,,,2025-05-19,清算の結了等,,,2015-10-05,1,,,,,サンエイムセンショウカイ,0
1854,8120001103501,登記記録の閉鎖等,0,2025-05-22,2025-05-13,株式会社コスモパック,,株式会社,大阪府,大阪市東成区,玉津１丁目９番１０号,,27,115,5370023,,,2025-05-13,清算の結了等,,,2015-10-05,1,,,,,コスモパック,0
1863,8120002021181,登記記録の閉鎖等,0,2025-05-22,2025-05-12,有限会社一級建築士事務所アルゴデザイン,,有限会社,大阪府,大阪市西区,南堀江１丁目１２番１０号,,27,106,5500015,,,2025-05-12,清算の結了等,,,2015-10-05,1,,,,,イッキュウケンチクシジムショアルゴデザイン,0
1866,8120101000160,登記記録の閉鎖等,0,2025-05-22,2025-05-16,株式会社アラデン,,株式会社,大阪府,堺市堺区,陵西通３番１２号,,27,141,5900041,,,2025-05-16,清算の結了等,,,2015-10-05,1,,,,,アラデン,0
1867,8120101058645,登記記録の閉鎖等,0,2025-05-22,2025-05-16,ベターウェル＆ピリナ株式会社,,株式会社,大阪府,堺市中区,辻之１４０３番地９,00114257,27,142,5998245,,,2025-05-16,清算の結了等,,,2018-08-15,1,,,,,ベターウェルアンドピリナ,0
1871,8120102019902,登記記録の閉鎖等,0,2025-05-22,2025-05-14,有限会社スギムラ,,有限会社,大阪府,河内長野市,千代田台町５番１４号,,27,216,5860027,,,2025-05-14,清算の結了等,,,2015-10-05,1,,,,,スギムラ,0
1890,8180002088265,登記記録の閉鎖等,0,2025-05-22,2025-05-13,有限会社写真工房カワグチ,,有限会社,静岡県,榛原郡川根本町,上長尾４８９番地,,22,429,4280313,,,2025-05-13,清算の結了等,,,2015-10-05,1,,,,,シャシンコウボウカワグチ,0
1896,8210001002198,登記記録の閉鎖等,0,2025-05-22,2025-05-20,株式会社藤雲堂,,株式会社,福井県,福井市,照手１丁目１番１９号,,18,201,9100024,,,2025-05-20,清算の結了等,,,2015-10-05,1,,,,,トウウンドウ,0
1897,8210002007031,登記記録の閉鎖等,0,2025-05-22,2025-05-20,有限会社イワホリシーリング,,有限会社,福井県,坂井市,三国町緑ケ丘３丁目４番１５号,,18,210,9130048,,,2025-05-20,清算の結了等,,,2015-10-05,1,,,,,イワホリシーリング,0
1910,8260002000683,登記記録の閉鎖等,0,2025-05-22,2025-05-12,有限会社石川塗装鈑金工業所,,有限会社,岡山県,岡山市南区,西市５０７番地の６,,33,104,7000953,,,2025-05-12,清算の結了等,,,2015-10-05,1,,,,,イシカワバンキンコウギョウショ,0
1930,8320001013845,登記記録の閉鎖等,0,2025-05-22,2025-05-13,株式会社高橋設計,00096760,株式会社,大分県,臼杵市,大字江無田１３１番地１,,44,206,8750023,,,2025-05-13,清算の結了等,,,2015-10-05,1,,,,,タカハシセッケイ,0
1934,8330003006251,登記記録の閉鎖等,0,2025-05-22,2025-05-19,合同会社土和竹香,,合同会社,熊本県,玉名郡和水町,大字津田１４８８番地,,43,369,8650100,,,2025-05-19,清算の結了等,,,2015-10-05,1,,,,,トワチッカ,0
1946,8380003004572,登記記録の閉鎖等,0,2025-05-22,2025-04-28,プランテーション小高合同会社,,合同会社,福島県,南相馬市,小高区南鳩原字台畑１２８番地,,07,212,9792172,,,2025-04-28,合併による解散等,5010501031835,令和７年４月１０日福島県南相馬市小高区南鳩原字台畑１２８番地株式会社ヒナタバ（5010501031835）に合併し解散,2019-11-28,1,,,,,プランテーションオダカ,0
1963,8500001006434,登記記録の閉鎖等,0,2025-05-22,2025-05-20,エコ通信株式会社,,株式会社,愛媛県,松山市,高井町１２４５番地４,,38,201,7911111,,,2025-05-20,清算の結了等,,,2015-10-05,1,,,,,エコツウシン,0
1968,8500002015285,登記記録の閉鎖等,0,2025-05-22,2025-05-20,有限会社森川工事,,有限会社,愛媛県,西条市,丹原町願連寺４３９番地１０,,38,206,7910502,,,2025-05-20,清算の結了等,,,2015-10-05,1,,,,,モリカワコウジ,0
1996,9010601028918,登記記録の閉鎖等,0,2025-05-22,2025-05-19,株式会社ティ・コーポレーション,,株式会社,東京都,江東区,大島５丁目４６番６－１１０６号,,13,108,1360072,,,2025-05-19,清算の結了等,,,2015-10-05,1,,,,,ティコーポレーション,0
2007,9010802000114,登記記録の閉鎖等,0,2025-05-22,2025-05-02,有限会社アイケイディ,,有限会社,東京都,大田区,矢口３丁目１７番５号,,13,111,1460093,,,2025-05-02,清算の結了等,,,2015-10-05,1,,,,,アイケイディ,0
2010,9010903005730,登記記録の閉鎖等,0,2025-05-22,2025-05-20,合同会社サンライズ,,合同会社,東京都,世田谷区,若林１丁目２番２－５０３号,,13,112,1540023,,,2025-05-20,清算の結了等,,,2020-06-04,1,,,,,サンライズ,0
2012,9011001129034,登記記録の閉鎖等,0,2025-05-22,2025-05-21,株式会社郷土菓子研究社,,株式会社,東京都,世田谷区,太子堂２丁目９－２５,,13,112,1540004,,,2025-05-21,清算の結了等,,,2019-07-16,1,,,,,キョウドカシケンキュウシャ,0
2017,9011003012312,登記記録の閉鎖等,0,2025-05-22,2025-04-15,ＳＴＡＮＦＯＲＤ＆ＣＯ．合同会社,,合同会社,東京都,渋谷区,宇田川町３５番６号下田ビル３階,,13,113,1500042,,,2025-04-15,清算の結了等,,,2021-02-24,1,,,,,スタンフォードアンドコー,0
2029,9011601024064,登記記録の閉鎖等,0,2025-05-22,2025-05-19,タカヒロスチール株式会社,,株式会社,東京都,練馬区,大泉学園町７丁目１番３５号,,13,120,1780061,,,2025-05-19,清算の結了等,,,2020-03-13,1,,,,,タカヒロスチール,0
2039,9013201010287,登記記録の閉鎖等,0,2025-05-22,2025-04-15,株式会社アイピービー,,株式会社,東京都,目黒区,青葉台１丁目１３番１５－３０１号,,13,110,1530042,,,2025-04-15,清算の結了等,,,2015-10-05,1,,,,,アイピービー,0
2060,9020003006224,登記記録の閉鎖等,0,2025-05-22,2025-05-14,マイツ合同会社,,合同会社,神奈川県,川崎市多摩区,登戸２１３０番地２－２３０８,,14,135,2140014,,,2025-05-14,清算の結了等,,,2015-10-05,1,,,,,マイツ,0
2074,9030003002180,登記記録の閉鎖等,0,2025-05-22,2025-05-20,合同会社シャーバック,,合同会社,埼玉県,桶川市,大字坂田１７３０番１０号,,11,231,3630008,,,2025-05-20,清算の結了等,,,2015-10-05,1,,,,,シャーバック,0
2079,9040001062531,登記記録の閉鎖等,0,2025-05-22,2025-05-02,株式会社山本洋服店,,株式会社,千葉県,銚子市,前宿町２９７番地,,12,202,2880031,,,2025-05-02,清算の結了等,,,2015-10-05,1,,,,,ヤマモトヨウフクテン,0
2094,9050002044916,登記記録の閉鎖等,0,2025-05-22,2025-05-19,有限会社ヒロニシメタル,,有限会社,茨城県,結城市,大字結城５３６番地の８,,08,207,3070001,,,2025-05-19,清算の結了等,,,2015-10-05,1,,,,,ヒロニシメタル,0
2097,9060001000571,登記記録の閉鎖等,0,2025-05-22,2025-05-16,入江電器株式会社,,株式会社,栃木県,宇都宮市,平出工業団地１８番地,,09,201,3210905,,,2025-05-16,清算の結了等,,,2015-10-05,1,,,,,イリエデンキ,0
2109,9080101006319,登記記録の閉鎖等,0,2025-05-22,2025-05-15,株式会社むらまつハウス,,株式会社,静岡県,駿東郡長泉町,下土狩６番地の９,,22,342,4110943,,,2025-05-15,清算の結了等,,,2015-10-05,1,,,,,ムラマツハウス,0
2110,9080401003354,登記記録の閉鎖等,0,2025-05-22,2025-05-16,株式会社寺田鉄工所,,株式会社,静岡県,浜松市中央区,植松町１４４４番地,,22,138,4300803,,,2025-05-16,清算の結了等,,,2015-10-05,1,,,,,テラダテッコウジョ,0
2130,9120101000473,登記記録の閉鎖等,0,2025-05-22,2025-05-16,株式会社総合地所,,株式会社,大阪府,堺市中区,八田北町５４０番地,,27,142,5998262,,,2025-05-16,清算の結了等,,,2015-10-05,1,,,,,ソウゴウジショ,0
2149,9140001041376,登記記録の閉鎖等,0,2025-05-22,2025-05-20,株式会社山内鉄工,,株式会社,兵庫県,丹波市,山南町大河４６番地１,,28,223,6693123,,,2025-05-20,清算の結了等,,,2015-10-05,1,,,,,ヤマウチテッコウ,0
2150,9140001122589,登記記録の閉鎖等,0,2025-05-22,2025-05-15,大西ムーブ株式会社,,株式会社,兵庫県,姫路市,新在家４丁目５番２３号,,28,201,6700095,,,2025-05-15,合併による解散等,2140001122595,令和７年５月５日兵庫県姫路市南駅前町９１番地８－１３０４号大西グループ株式会社（2140001122595）に合併し解散,2021-08-06,1,,,,,オオニシムーブ,0
2151,9140001122597,登記記録の閉鎖等,0,2025-05-22,2025-05-15,大西アセットマネジメント株式会社,,株式会社,兵庫県,姫路市,南駅前町９１番地８－１３０４号,,28,201,6700962,,,2025-05-15,合併による解散等,2140001122595,令和７年５月５日兵庫県姫路市南駅前町９１番地８－１３０４号大西グループ株式会社（2140001122595）に合併し解散,2021-08-06,1,,,,,オオニシアセットマネジメント,0
2152,9140001130947,登記記録の閉鎖等,0,2025-05-22,2025-05-19,株式会社未来スイッチ,,株式会社,兵庫県,西宮市,甲東園１丁目１－６,,28,204,6620812,,,2025-05-19,清算の結了等,,,2023-07-20,1,,,,,ミライスイッチ,0
2168,9180302003303,登記記録の閉鎖等,0,2025-05-22,2025-05-21,有限会社ろばた松平,,有限会社,愛知県,岡崎市,藤川町字西小坂２７番地３,,23,202,4443523,,,2025-05-21,清算の結了等,,,2015-10-05,1,,,,,ロバタマツダイラ,0
2175,9210002007781,登記記録の閉鎖等,0,2025-05-22,2025-05-13,有限会社ケイエム工業,,有限会社,福井県,坂井市,丸岡町高柳１６－１６－２０,,18,210,9100373,,,2025-05-13,清算の結了等,,,2015-10-05,1,,,,,ケイエムコウギョウ,0
2199,9360002016883,登記記録の閉鎖等,0,2025-05-22,2025-04-02,有限会社プラン工業,,有限会社,沖縄県,宜野湾市,野嵩２丁目２７番９号,,47,205,9012203,,,2025-04-02,合併による解散等,5360001029031,令和７年１月３０日沖縄県那覇市久米二丁目１６番２５号ヤシマ工業株式会社（5360001029031）に合併し解散,2015-10-05,1,,,,,プランコウギョウ,0
2212,9470002018976,登記記録の閉鎖等,0,2025-05-22,2025-05-20,有限会社須浪潜水,,有限会社,香川県,小豆郡土庄町,小江１０００番地,,37,322,7614132,,,2025-05-20,清算の結了等,,,2015-10-05,1,,,,,スナミセンスイ,0
2213,9500002000039,登記記録の閉鎖等,0,2025-05-22,2025-05-20,有限会社浜田太陽堂,,有限会社,愛媛県,松山市,中島大浦１６４６番地,,38,201,7914501,,,2025-05-20,清算の結了等,,,2015-10-05,1,,,,,ハマダタイヨウドウ,0
