sequenceNumber,corporateNumber,process,correct,updateDate,changeDate,name,nameImageId,kind,prefectureName,cityName,streetNumber,addressImageId,prefectureCode,cityCode,postCode,addressOutside,addressOutsideImageId,closeDate,closeCause,successorCorporateNumber,changeCause,assignmentDate,latest,enName,enPrefectureName,enCityName,enAddressOutside,furigana,hihyoji
20,1010401071927,登記記録の閉鎖等,0,2023-09-07,2023-09-05,株式会社アイペックス,,株式会社,東京都,港区,西新橋１丁目１７番１１号リバティ１１、１Ｆ,,13,103,1050003,,,2023-09-05,合併による解散等,2010001046972,令和５年８月１日東京都千代田区紀尾井町３番１号ＫＫＤビル７階株式会社トランサポート（2010001046972）に合併し解散,2015-10-05,1,,,,,,0
21,1010401084945,登記記録の閉鎖等,0,2023-09-07,2023-08-16,株式会社ネットセーファー,,株式会社,東京都,港区,南麻布５丁目５番５号,,13,103,1060047,,,2023-08-16,清算の結了等,,,2015-10-05,1,,,,,ネットセーファー,0
30,1010601041110,登記記録の閉鎖等,0,2023-09-07,2023-09-01,株式会社アートプロモーション,,株式会社,東京都,江東区,亀戸６丁目１６番７号,,13,108,1360071,,,2023-09-01,清算の結了等,,,2015-10-05,1,,,,,アートプロモーション,0
39,1010801031134,登記記録の閉鎖等,0,2023-09-07,2023-09-04,株式会社ＳＰＣ　ＵＣＷ３,,株式会社,東京都,大田区,京浜島２丁目６番１７号,,13,111,1430003,,,2023-09-04,清算の結了等,,,2020-08-18,1,,,,,エスピーシーユーシーダブリュスリー,0
53,1011101066911,登記記録の閉鎖等,0,2023-09-07,2023-09-04,株式会社ＭＯＲＥ,,株式会社,東京都,新宿区,西新宿７丁目９－１５新宿ダイカンプラザビジネス清田ビル６０５,,13,104,1600023,,,2023-09-04,清算の結了等,,,2015-10-05,1,,,,,モア,0
61,1011601002614,登記記録の閉鎖等,0,2023-09-07,2023-09-04,株式会社サンクリン,,株式会社,東京都,練馬区,早宮１丁目２番５号,,13,120,1790085,,,2023-09-04,清算の結了等,,,2015-10-05,1,,,,,サンクリン,0
66,1011801008790,登記記録の閉鎖等,0,2023-09-07,2023-09-04,株式会社伸和,,株式会社,東京都,足立区,梅田７丁目１５番１３号,,13,121,1230851,,,2023-09-04,清算の結了等,,,2015-10-05,1,,,,,シンワ,0
98,1021005011070,登記記録の閉鎖等,0,2023-09-07,2023-09-01,一般社団法人ｐｏｔ・ａｕ・ｆｅｕプロジェクト協会,,その他の設立登記法人,神奈川県,三浦郡葉山町,上山口１４５４番地の１７,,14,301,2400115,,,2023-09-01,清算の結了等,,,2017-08-23,1,,,,,ポトフプロジェクトキョウカイ,0
104,1030002028201,登記記録の閉鎖等,0,2023-09-07,2023-08-10,有限会社石井瓦工業,,有限会社,埼玉県,所沢市,大字上安松４８６番地,,11,208,3590025,,,2023-08-10,清算の結了等,,,2015-10-05,1,,,,,イシイカワラコウギョウ,0
106,1030002038910,登記記録の閉鎖等,0,2023-09-07,2023-08-10,有限会社オーク,,有限会社,埼玉県,久喜市,菖蒲町菖蒲２６５６番地１,,11,232,3460106,,,2023-08-10,清算の結了等,,,2015-10-05,1,,,,,オーク,0
109,1030002114728,登記記録の閉鎖等,0,2023-09-07,2023-08-14,有限会社見内電気,,有限会社,埼玉県,熊谷市,西城６７３番地４,,11,202,3600214,,,2023-08-14,清算の結了等,,,2015-10-05,1,,,,,ミウチデンキ,0
112,1040001096140,登記記録の閉鎖等,0,2023-09-07,2023-08-21,株式会社大西義塾,,株式会社,千葉県,市川市,市川南３丁目１番２０－７０５号（シティコア・フドウ市川）,,12,203,2720033,,,2023-08-21,清算の結了等,,,2016-07-20,1,,,,,オオニシギジュク,0
129,1080101019906,登記記録の閉鎖等,0,2023-09-07,2023-09-01,株式会社桜陽工業,,株式会社,静岡県,富士宮市,外神３２３番地,,22,207,4180006,,,2023-09-01,清算の結了等,,,2017-07-05,1,,,,,オウヨウコウギョウ,0
131,1080405000322,登記記録の閉鎖等,0,2023-09-07,2023-09-01,医療法人社団長楽会,,その他の設立登記法人,静岡県,浜松市中区,鴨江２丁目５２番２９号,,22,131,4328023,,,2023-09-01,清算の結了等,,,2015-10-05,1,,,,,チョウラクカイ,0
147,1120001246612,登記記録の閉鎖等,0,2023-09-07,2023-09-04,株式会社ディマディ管理,,株式会社,大阪府,大阪市西区,新町３丁目８番１０－３０２号,,27,106,5500013,,,2023-09-04,清算の結了等,,,2022-06-16,1,,,,,ディマディカンリ,0
171,1140005021183,登記記録の閉鎖等,0,2023-09-07,2023-08-30,特定非営利活動法人播磨更生会,,その他の設立登記法人,兵庫県,加古川市,尾上町養田１３９４番地の２,,28,210,6750025,,,2023-08-30,清算の結了等,,,2015-10-05,1,,,,,ハリマコウセイカイ,0
179,1180001124878,登記記録の閉鎖等,0,2023-09-07,2023-09-01,株式会社Ｄ‐ＳＴＯＣＫ,,株式会社,愛知県,名古屋市東区,泉１丁目３番４１号,,23,102,4610001,,,2023-09-01,清算の結了等,,,2016-09-20,1,,,,,ディーストック,0
187,1180002020647,登記記録の閉鎖等,0,2023-09-07,2023-09-01,有限会社橋本プレス工業,,有限会社,愛知県,名古屋市熱田区,古新町１丁目１３１番地,,23,109,4560064,,,2023-09-01,清算の結了等,,,2015-10-05,1,,,,,ハシモトプレスコウギョウ,0
195,1190001003800,登記記録の閉鎖等,0,2023-09-07,2023-09-01,株式会社サクセス・ロード,,株式会社,三重県,津市,三重町津興４９２番地,,24,201,5140802,,,2023-09-01,清算の結了等,,,2015-10-05,1,,,,,サクセスロード,0
209,1220002002005,登記記録の閉鎖等,0,2023-09-07,2023-09-05,有限会社河村ガス設備,,有限会社,石川県,金沢市,富樫２丁目６番３７号,,17,201,9218171,,,2023-09-05,清算の結了等,,,2015-10-05,1,,,,,カワムラガスセツビ,0
213,1240002009782,登記記録の閉鎖等,0,2023-09-07,2023-09-01,有限会社武本ゴム工業,,有限会社,広島県,広島市安佐北区,可部８丁目１３番４５号,,34,106,7310221,,,2023-09-01,清算の結了等,,,2015-10-05,1,,,,,タケモトゴムコウギョウ,0
217,1260001035407,登記記録の閉鎖等,0,2023-09-07,2023-09-04,株式会社スイープ,,株式会社,岡山県,岡山市北区,大元２丁目４番１７号,,33,101,7000924,,,2023-09-04,清算の結了等,,,2021-04-05,1,,,,,スイープ,0
219,1270003001372,登記記録の閉鎖等,0,2023-09-07,2023-09-04,友森商会合同会社,,合同会社,鳥取県,米子市,葭津１３２５－１,,31,202,6830105,,,2023-09-04,清算の結了等,,,2021-12-02,1,,,,,トモモリショウカイ,0
220,1280001007528,登記記録の閉鎖等,0,2023-09-07,2023-09-05,株式会社樋野屋,00110867,株式会社,島根県,松江市,島根町野井４１５番地,,32,201,6901211,,,2023-09-05,清算の結了等,,,2017-07-19,1,,,,,ヒノヤ,0
241,1330005009151,登記記録の閉鎖等,0,2023-09-07,2023-08-30,一般社団法人天草市起業創業・中小企業支援機構,,その他の設立登記法人,熊本県,天草市,中央新町３番１７号,,43,215,8630023,,,2023-08-30,清算の結了等,,,2015-10-05,1,,,,,アマクサシキギョウソウギョウチュウショウキギョウシエンキコウ,0
256,1390002013984,登記記録の閉鎖等,0,2023-09-07,2023-09-04,マルセイ渡部建設有限会社,,有限会社,山形県,東置賜郡高畠町,大字夏茂９９０番地の１,,06,381,9992172,,,2023-09-04,清算の結了等,,,2015-10-05,1,,,,,マルセイワタナベケンセツ,0
266,1490002013140,登記記録の閉鎖等,0,2023-09-07,2023-09-04,有限会社町田建材店,,有限会社,高知県,室戸市,羽根町乙１０７６番地,,39,202,7816742,,,2023-09-04,清算の結了等,,,2015-10-05,1,,,,,マチダケンザイテン,0
301,2011001063231,登記記録の閉鎖等,0,2023-09-07,2023-09-01,株式会社アレスプランニング,,株式会社,東京都,渋谷区,神宮前６丁目９番１号,,13,113,1500001,,,2023-09-01,合併による解散等,5011001028801,令和５年９月１日東京都渋谷区神宮前六丁目９番１号２階株式会社アレスインターナショナル（5011001028801）に合併し解散,2015-10-05,1,,,,,アレスプランニング,0
302,2011001118043,登記記録の閉鎖等,0,2023-09-07,2023-09-01,株式会社ボイジャースイフト,,株式会社,東京都,渋谷区,神宮前５丁目４１番１４号,,13,113,1500001,,,2023-09-01,合併による解散等,2011001021528,令和５年９月１日東京都渋谷区神宮前五丁目４１番１４号株式会社ボイジャー（2011001021528）に合併し解散,2017-08-29,1,,,,,ボイジャースイフト,0
324,2011401010873,登記記録の閉鎖等,0,2023-09-07,2023-09-01,株式会社ゲイン,,株式会社,東京都,板橋区,蓮沼町６８番１３号,00054872,13,119,1740052,,,2023-09-01,合併による解散等,5011401011778,令和５年９月１日東京都板橋区蓮沼町７８番２号株式会社トックテック（5011401011778）に合併し解散,2015-10-05,1,,,,,ゲイン,0
329,2011702017923,登記記録の閉鎖等,0,2023-09-07,2023-08-31,有限会社サンネットワーク,,有限会社,東京都,江戸川区,清新町１丁目４番１５－２０２号,,13,123,1340087,,,2023-08-31,清算の結了等,,,2015-10-05,1,,,,,サンネットワーク,0
331,2011703003195,登記記録の閉鎖等,0,2023-09-07,2023-09-06,合同会社広京,,合同会社,東京都,江戸川区,西葛西５丁目１１番１１号司ビル３階,,13,123,1340088,,,2023-09-06,清算の結了等,,,2022-07-11,1,,,,,ヒロキョウ,0
332,2011801002173,登記記録の閉鎖等,0,2023-09-07,2023-09-04,株式会社正英,,株式会社,東京都,葛飾区,奥戸８丁目１８番９号,,13,122,1240022,,,2023-09-04,清算の結了等,,,2015-10-05,1,,,,,ショウエイ,0
378,2040001067090,登記記録の閉鎖等,0,2023-09-07,2023-08-21,臨床工学技術株式会社,,株式会社,千葉県,我孫子市,柴崎２９１４番地,,12,222,2701177,,,2023-08-21,清算の結了等,,,2015-10-05,1,,,,,リンショウコウガクギジュツ,0
379,2040001105957,登記記録の閉鎖等,0,2023-09-07,2023-08-23,株式会社Ｓｏｌｏ　Ｕｎｏ,,株式会社,千葉県,千葉市中央区,新宿１丁目１６番７号安田ビル１階,,12,101,2600021,,,2023-08-23,清算の結了等,,,2018-08-31,1,,,,,ソロウノ,0
387,2050001015981,登記記録の閉鎖等,0,2023-09-07,2023-08-18,株式会社トラストウェア,,株式会社,茨城県,つくば市,若葉８番地の５,,08,220,3001249,,,2023-08-18,清算の結了等,,,2015-10-05,1,,,,,トラストウェア,0
394,2060002019279,登記記録の閉鎖等,0,2023-09-07,2023-08-30,有限会社パン・デ・スマイル,,有限会社,栃木県,真岡市,下高間木２丁目８番地１,,09,209,3214335,,,2023-08-30,清算の結了等,,,2015-10-05,1,,,,,パンデスマイル,0
400,2080102018815,登記記録の閉鎖等,0,2023-09-07,2023-09-01,有限会社カフェエフェメラ,,有限会社,静岡県,熱海市,泉１０９番地の２２,,22,205,4130001,,,2023-09-01,清算の結了等,,,2015-10-05,1,,,,,カフェエフェメラ,0
404,2110002004424,登記記録の閉鎖等,0,2023-09-07,2023-09-01,東和電設有限会社,,有限会社,新潟県,新潟市東区,紫竹２丁目６番１号,,15,102,9500864,,,2023-09-01,清算の結了等,,,2015-10-05,1,,,,,トウワデンセツ,0
418,2120901022723,登記記録の閉鎖等,0,2023-09-07,2023-09-04,株式会社アローム・ヒライ,,株式会社,大阪府,豊中市,岡町南１丁目８番１１号,,27,203,5610883,,,2023-09-04,清算の結了等,,,2015-10-05,1,,,,,アロームヒライ,0
445,2200002007319,登記記録の閉鎖等,0,2023-09-07,2023-09-05,有限会社薫田工務店,,有限会社,岐阜県,各務原市,鵜沼羽場町２丁目１３３番地の２,,21,213,5090135,,,2023-09-05,清算の結了等,,,2015-10-05,1,,,,,クンダコウムテン,0
484,2330005001917,登記記録の閉鎖等,0,2023-09-07,2023-08-28,特定非営利活動法人こどもの教育,,その他の設立登記法人,熊本県,熊本市東区,小山４丁目６番４０号,,43,102,8618045,,,2023-08-28,清算の結了等,,,2015-10-05,1,,,,,コドモノキョウイク,0
510,2380002001741,登記記録の閉鎖等,0,2023-09-07,2023-09-04,秋栄商事有限会社,,有限会社,福島県,福島市,森合字丹波谷地前９番地の３,,07,201,9608003,,,2023-09-04,清算の結了等,,,2015-10-05,1,,,,,シュウエイショウジ,0
523,2450002000892,登記記録の閉鎖等,0,2023-09-07,2023-09-06,有限会社越中屋黒川藥局,,有限会社,北海道,旭川市,一条通９丁目右１号,,01,204,0700031,,,2023-09-06,清算の結了等,,,2015-10-05,1,,,,,エッチュウヤクロカワヤッキョク,0
529,2480002007902,登記記録の閉鎖等,0,2023-09-07,2023-09-06,株式会社辻マンション,,株式会社,徳島県,小松島市,堀川町１番１号,,36,203,7730004,,,2023-09-06,清算の結了等,,,2015-10-05,1,,,,,ツジマンション,0
541,3010001091010,登記記録の閉鎖等,0,2023-09-07,2023-09-01,株式会社オレンジワークス,,株式会社,東京都,千代田区,大手町１丁目１番３号,,13,101,1000004,,,2023-09-01,合併による解散等,6010001218568,令和５年９月１日東京都千代田区大手町一丁目１番３号株式会社ＯＮＯＤＥＲＡインターネットサービス（6010001218568）に合併し解散,2015-10-05,1,,,,,オレンジワークス,0
546,3010003038562,登記記録の閉鎖等,0,2023-09-07,2023-09-01,石神井台インベストメントワン合同会社,,合同会社,東京都,千代田区,九段南３丁目７番７号成和綜合会計事務所内,,13,101,1020074,,,2023-09-01,清算の結了等,,,2022-09-02,1,,,,,シャクジイダイインベストメントワン,0
553,3010401082518,登記記録の閉鎖等,0,2023-09-07,2023-08-15,株式会社銀座東作,,株式会社,東京都,港区,浜松町１丁目１７番８号,,13,103,1050013,,,2023-08-15,清算の結了等,,,2015-10-05,1,,,,,ギンザトウサク,0
554,3010401132297,登記記録の閉鎖等,0,2023-09-07,2023-08-16,株式会社サマンサタバサリゾート,,株式会社,東京都,港区,三田１丁目４番１号,,13,103,1080073,,,2023-08-16,清算の結了等,,,2017-06-30,1,,,,,サマンサタバサリゾート,0
571,3010801001366,登記記録の閉鎖等,0,2023-09-07,2023-09-04,永光警備保障株式会社,,株式会社,東京都,大田区,池上７丁目５番６号,,13,111,1460082,,,2023-09-04,清算の結了等,,,2015-10-05,1,,,,,,0
579,3011001116723,登記記録の閉鎖等,0,2023-09-07,2023-08-14,株式会社ＣＯＮＯ,,株式会社,埼玉県,川口市,金山町１２番１サウスゲートタワー川口２階,,11,203,3320014,,,2023-08-14,清算の結了等,,,2017-06-06,1,,,,,コーノ,0
589,3011103006459,登記記録の閉鎖等,0,2023-09-07,2023-09-01,ＣＥＣＩＬＣｕｔｅ合同会社,,合同会社,東京都,新宿区,西新宿７丁目１７番１４号,,13,104,1600023,,,2023-09-01,清算の結了等,,,2016-08-15,1,,,,,セシルキュート,0
593,3011402004139,登記記録の閉鎖等,0,2023-09-07,2023-09-04,進栄カーボン印刷有限会社,,有限会社,東京都,板橋区,清水町６３番９号,,13,119,1740053,,,2023-09-04,清算の結了等,,,2015-10-05,1,,,,,シンエイカーボンインサツ,0
596,3011705001048,登記記録の閉鎖等,0,2023-09-07,2023-09-01,一般社団法人サポーターズ,,その他の設立登記法人,東京都,千代田区,神田須田町１丁目５番地１０相鉄万世橋ビル,,13,101,1010041,,,2023-09-01,清算の結了等,,,2015-10-05,1,,,,,サポーターズ,0
597,3011801040585,登記記録の閉鎖等,0,2023-09-07,2023-09-01,経理Ｌａｎｄｓｃａｐｅ株式会社,,株式会社,東京都,足立区,千住仲町２３番１２号,,13,121,1200036,,,2023-09-01,清算の結了等,,,2022-04-13,1,,,,,ケイリランドスケープ,0
622,3020002104868,登記記録の閉鎖等,0,2023-09-07,2023-08-31,有限会社スリーワイ,,有限会社,神奈川県,川崎市麻生区,栗木２丁目８番２１号,,14,137,2150033,,,2023-08-31,清算の結了等,,,2015-10-05,1,,,,,スリーワイ,0
632,3030002077592,登記記録の閉鎖等,0,2023-09-07,2023-08-14,有限会社関設備工業,,有限会社,埼玉県,比企郡川島町,大字山ケ谷戸１１７番地２,,11,346,3500126,,,2023-08-14,清算の結了等,,,2015-10-05,1,,,,,セキセツビコウギョウ,0
654,3060002007101,登記記録の閉鎖等,0,2023-09-07,2023-08-30,有限会社ニユーカマシマ,,有限会社,栃木県,宇都宮市,二荒町９番４号,,09,201,3200804,,,2023-08-30,清算の結了等,,,2015-10-05,1,,,,,ニューカマシマ,0
660,3080401015875,登記記録の閉鎖等,0,2023-09-07,2023-09-05,株式会社大成ワークス,,株式会社,静岡県,磐田市,鳥之瀬１９２番地,,22,211,4380072,,,2023-09-05,清算の結了等,,,2015-10-05,1,,,,,タイセイワークス,0
662,3080402014298,登記記録の閉鎖等,0,2023-09-07,2023-09-05,有限会社浜松光栄保険事務所,,有限会社,静岡県,浜松市中区,幸２丁目５４番５号,,22,131,4338123,,,2023-09-05,清算の結了等,,,2015-10-05,1,,,,,ハママツコウエイホケンジムショ,0
664,3090005005685,登記記録の閉鎖等,0,2023-09-07,2023-07-31,峡南林業整備生産協同組合,,その他の設立登記法人,山梨県,南巨摩郡富士川町,鰍沢６７６番地２,,19,368,4000601,,,2023-07-31,清算の結了等,,,2015-10-05,1,,,,,キョウナンリンギョウセイビセイサン,0
677,3120001250257,登記記録の閉鎖等,0,2023-09-07,2023-09-05,株式会社ショウ蓮誘導,,株式会社,大阪府,大阪市港区,磯路３丁目２６－９三徳船舶ビル３０２,,27,107,5520003,,,2023-09-05,清算の結了等,,,2022-11-24,1,,,,,ショウレンユウドウ,0
697,3140002047254,登記記録の閉鎖等,0,2023-09-07,2023-08-31,有限会社朝倉商店,,有限会社,兵庫県,姫路市,延末２９５番地中央卸売市場内,,28,201,6700966,,,2023-08-31,清算の結了等,,,2015-10-05,1,,,,,アサクラショウテン,0
716,3200001037002,登記記録の閉鎖等,0,2023-09-07,2023-09-01,株式会社服部鉄工所,,株式会社,岐阜県,羽島郡笠松町,二見町６４番地の２,,21,303,5016047,,,2023-09-01,清算の結了等,,,2019-12-27,1,,,,,ハットリテッコウショ,0
718,3200003004652,登記記録の閉鎖等,0,2023-09-07,2023-09-04,中西合同会社,,合同会社,岐阜県,山県市,高富１５０２番地４,,21,215,5012105,,,2023-09-04,清算の結了等,,,2019-11-29,1,,,,,ナカニシ,0
721,3210001008605,登記記録の閉鎖等,0,2023-09-07,2023-09-05,株式会社イエローキャブ近畿,,株式会社,福井県,福井市,高木中央２丁目４０５番地１,,18,201,9100804,,,2023-09-05,合併による解散等,9220001010298,令和５年９月１日石川県金沢市割出町４６０番地１株式会社イエローハイサポート（9220001010298）に合併し解散,2015-10-05,1,,,,,イエローキャブキンキ,0
736,3280002011188,登記記録の閉鎖等,0,2023-09-07,2023-09-05,有限会社熱田木工所,,有限会社,島根県,雲南市,大東町飯田１９１番地４,,32,209,6991221,,,2023-09-05,清算の結了等,,,2015-10-05,1,,,,,アツタモッコウショ,0
744,3290005004444,登記記録の閉鎖等,0,2023-09-07,2023-08-04,特定非営利活動法人心理リハビリテイションセンター,,その他の設立登記法人,福岡県,福岡市南区,曰佐３丁目４２番１号,,40,134,8111313,,,2023-08-04,清算の結了等,,,2015-10-05,1,,,,,シンリリハビリテイションセンター,0
746,3290802005883,登記記録の閉鎖等,0,2023-09-07,2023-09-06,北信産業有限会社,,有限会社,福岡県,北九州市小倉南区,下吉田４丁目２６番９号,,40,107,8000203,,,2023-09-06,清算の結了等,,,2015-10-05,1,,,,,ホクシンサンギョウ,0
750,3290802013408,登記記録の閉鎖等,0,2023-09-07,2023-09-05,有限会社今吉電設,,有限会社,福岡県,北九州市八幡西区,町上津役西４丁目１１番５号,,40,109,8070074,,,2023-09-05,清算の結了等,,,2015-10-05,1,,,,,イマヨシデンセツ,0
766,3350002012765,登記記録の閉鎖等,0,2023-09-07,2023-08-31,有限会社村田建装,,有限会社,宮崎県,延岡市,出北１丁目１５番２８,,45,203,8820856,,,2023-08-31,清算の結了等,,,2015-10-05,1,,,,,ムラタケンソウ,0
785,3420001012445,登記記録の閉鎖等,0,2023-09-07,2023-09-01,株式会社野呂商店,,株式会社,青森県,むつ市,中央２丁目５２番８１号,,02,208,0350073,,,2023-09-01,清算の結了等,,,2015-10-05,1,,,,,ノロショウテン,0
801,3500001012916,登記記録の閉鎖等,0,2023-09-07,2023-09-01,株式会社大島ガスセンター,,株式会社,愛媛県,今治市,吉海町本庄３２６番地,,38,202,7942112,,,2023-09-01,合併による解散等,9500001012150,令和５年９月１日愛媛県今治市吉海町本庄３３２番地あいえす造船株式会社（9500001012150）に合併し解散,2015-10-05,1,,,,,オオシマガスセンター,0
827,4010401027752,登記記録の閉鎖等,0,2023-09-07,2023-08-16,株式会社サイバーシンクタンク・ドットコム,,株式会社,東京都,港区,高輪３丁目２５番３５号,,13,103,1080074,,,2023-08-16,清算の結了等,,,2015-10-05,1,,,,,サイバーシンクタンクドットコム,0
838,4010402010113,登記記録の閉鎖等,0,2023-09-07,2023-08-15,有限会社ノバコンピュータサービス,,有限会社,東京都,港区,芝大門２丁目１２番５号,,13,103,1050012,,,2023-08-15,清算の結了等,,,2015-10-05,1,,,,,ノバコンピュータサービス,0
860,4011001039997,登記記録の閉鎖等,0,2023-09-07,2023-09-01,ジャンヌダルク株式会社,,株式会社,東京都,渋谷区,渋谷１丁目９番８号朝日生命宮益坂ビル,,13,113,1500002,,,2023-09-01,合併による解散等,2011001006330,令和５年９月１日東京都渋谷区渋谷一丁目９番８号朝日生命宮益坂ビル旭東ホールディングス株式会社（2011001006330）に合併し解散,2015-10-05,1,,,,,ジャンヌダルク,0
861,4011001049352,登記記録の閉鎖等,0,2023-09-07,2023-09-04,株式会社Ｈａｍｍｅｒ　Ｈｏｕｓｅ,,株式会社,東京都,渋谷区,千駄ヶ谷３丁目１５番９号アピス神宮外苑７０２号,,13,113,1510051,,,2023-09-04,清算の結了等,,,2015-10-05,1,,,,,ハマーハウス,0
871,4011101091790,登記記録の閉鎖等,0,2023-09-07,2023-08-31,グリーンファシリティーズ株式会社,,株式会社,東京都,新宿区,百人町３丁目２８番１－３０４号,,13,104,1690073,,,2023-08-31,清算の結了等,,,2020-07-08,1,,,,,グリーンファシリティーズ,0
880,4011203000105,登記記録の閉鎖等,0,2023-09-07,2023-09-04,合同会社深沢商店,,合同会社,東京都,中野区,東中野１丁目３６番３号,,13,114,1640003,,,2023-09-04,清算の結了等,,,2015-10-05,1,,,,,フカザワショウテン,0
882,4011402001853,登記記録の閉鎖等,0,2023-09-07,2023-09-04,有限会社大貫製本所,,有限会社,東京都,板橋区,西台２丁目１６番３５号,,13,119,1750045,,,2023-09-04,清算の結了等,,,2015-10-05,1,,,,,オオヌキセイホンジョ,0
897,4013101001201,登記記録の閉鎖等,0,2023-09-07,2023-09-04,山水工業株式会社,,株式会社,東京都,あきる野市,雨間１８８０番地の１,,13,228,1970825,,,2023-09-04,清算の結了等,,,2015-10-05,1,,,,,サンスイコウギョウ,0
903,4020001079656,登記記録の閉鎖等,0,2023-09-07,2023-09-01,株式会社タキオン,,株式会社,東京都,千代田区,大手町１丁目１番３号,,13,101,1000004,,,2023-09-01,合併による解散等,6010001218568,令和５年９月１日東京都千代田区大手町一丁目１番３号株式会社ＯＮＯＤＥＲＡ　Ｃｒｅａｔｉｖｅ＆Ｔｅｃｈｎｏｌｏｇｙ（6010001218568）に合併し解散,2015-10-05,1,,,,,タキオン,0
904,4020001104488,登記記録の閉鎖等,0,2023-09-07,2023-09-01,株式会社アネシス水道横浜,,株式会社,東京都,渋谷区,渋谷３丁目１２番２２号,,13,113,1500002,,,2023-09-01,合併による解散等,4020001054980,令和５年８月１５日東京都渋谷区渋谷三丁目１２番２２号株式会社アネシス（4020001054980）に合併し解散,2015-10-05,1,,,,,アネシススイドウヨコハマ,0
915,4021002030327,登記記録の閉鎖等,0,2023-09-07,2023-09-01,有限会社わこ商事,,有限会社,神奈川県,相模原市南区,大野台６丁目１１番５号,,14,153,2520331,,,2023-09-01,清算の結了等,,,2015-10-05,1,,,,,ワコショウジ,0
916,4030001031590,登記記録の閉鎖等,0,2023-09-07,2023-08-14,株式会社須藤工務店,,株式会社,埼玉県,加須市,麦倉２１９４番地,,11,210,3491212,,,2023-08-14,清算の結了等,,,2015-10-05,1,,,,,スドウコウムテン,0
924,4030003012705,登記記録の閉鎖等,0,2023-09-07,2023-08-10,合同会社タガヤドリームズ,,合同会社,埼玉県,白岡市,上野田７８４番地１,,11,246,3490221,,,2023-08-10,清算の結了等,,,2018-11-21,1,,,,,タガヤドリームズ,0
929,4040001041705,登記記録の閉鎖等,0,2023-09-07,2023-08-22,株式会社ｆｅｅｌ,,株式会社,千葉県,流山市,名都借３２２番１０,,12,220,2700145,,,2023-08-22,清算の結了等,,,2015-10-05,1,,,,,フィール,0
932,4040001081081,登記記録の閉鎖等,0,2023-09-07,2023-08-22,株式会社ハートフーズ,,株式会社,千葉県,船橋市,駿河台１丁目２７番１号,,12,204,2730862,,,2023-08-22,清算の結了等,,,2015-10-05,1,,,,,ハートフーズ,0
936,4040002026498,登記記録の閉鎖等,0,2023-09-07,2023-08-21,有限会社エルミッツ,,有限会社,千葉県,船橋市,大穴南３丁目１４番７号,,12,204,2740067,,,2023-08-21,清算の結了等,,,2015-10-05,1,,,,,エルミッツ,0
946,4060005008145,登記記録の閉鎖等,0,2023-09-07,2023-08-30,一般社団法人相続問題研究所,,その他の設立登記法人,栃木県,宇都宮市,駒生町１６７５番地８,,09,201,3200065,,,2023-08-30,清算の結了等,,,2015-10-05,1,,,,,ソウゾクモンダイケンキュウジョ,0
958,4100005005187,登記記録の閉鎖等,0,2023-09-07,2023-09-04,特定非営利活動法人ふきんと,,その他の設立登記法人,長野県,下高井郡木島平村,大字穂高２８９５番地８号,,20,562,3892301,,,2023-09-04,清算の結了等,,,2015-10-05,1,,,,,フキント,0
959,4110001020734,登記記録の閉鎖等,0,2023-09-07,2023-09-01,株式会社ブナザワ,,株式会社,新潟県,上越市,鴨島３丁目２番３－２０３号ルネスシンフォニー・アルスノヴァ２０３号,,15,222,9430153,,,2023-09-01,清算の結了等,,,2015-10-05,1,,,,,ブナザワ,0
967,4120001234936,登記記録の閉鎖等,0,2023-09-07,2023-09-01,株式会社リプロ,,株式会社,大阪府,大阪市浪速区,元町１丁目９番３号,,27,111,5560016,,,2023-09-01,清算の結了等,,,2021-02-02,1,,,,,リプロ,0
985,4140001042412,登記記録の閉鎖等,0,2023-09-07,2023-08-31,株式会社アイ・エス・ピー,,株式会社,兵庫県,加古川市,加古川町北在家６０９番地の２８,,28,210,6750031,,,2023-08-31,清算の結了等,,,2015-10-05,1,,,,,アイエスピー,0
993,4140002027544,登記記録の閉鎖等,0,2023-09-07,2023-09-01,有限会社オフィス・シーズン,,有限会社,兵庫県,神戸市中央区,中町通３丁目１番３－８０３号,,28,110,6500027,,,2023-09-01,清算の結了等,,,2015-10-05,1,,,,,オフィスシーズン,0
997,4150002008824,登記記録の閉鎖等,0,2023-09-07,2023-09-05,有限会社カガヤ,,有限会社,奈良県,香芝市,良福寺１５１番地の２,,29,210,6390235,,,2023-09-05,清算の結了等,,,2015-10-05,1,,,,,カガヤ,0
1022,4230002000211,登記記録の閉鎖等,0,2023-09-07,2023-09-05,有限会社アプコム,,有限会社,富山県,富山市,栃谷４１０番地,,16,201,9300163,,,2023-09-05,清算の結了等,,,2015-10-05,1,,,,,アプコム,0
1035,4290001100683,登記記録の閉鎖等,0,2023-09-07,2023-08-22,株式会社筑紫住設センター,,株式会社,福岡県,筑紫野市,大字筑紫５０８番地８,,40,217,8180025,,,2023-08-22,清算の結了等,,,2023-03-06,1,,,,,チクシジュウセツセンター,0
1053,4360003007969,登記記録の閉鎖等,0,2023-09-07,2023-09-04,ワイ・アイ合同会社,,合同会社,沖縄県,那覇市,おもろまち１丁目１番２５－２０２２号,,47,201,9000006,,,2023-09-04,清算の結了等,,,2017-01-17,1,,,,,ワイアイ,0
1064,4410002003047,登記記録の閉鎖等,0,2023-09-07,2023-08-31,有限会社原田工務店,,有限会社,秋田県,秋田市,外旭川八柳３丁目１２番１５号,,05,201,0100803,,,2023-08-31,清算の結了等,,,2015-10-05,1,,,,,ハラダコウムテン,0
1086,4500003001866,登記記録の閉鎖等,0,2023-09-07,2023-09-05,オフィスマート合同会社,,合同会社,愛媛県,今治市,大西町宮脇甲４５７番地１,,38,202,7992205,,,2023-09-05,清算の結了等,,,2016-12-01,1,,,,,オフィスマート,0
1099,5010001091974,登記記録の閉鎖等,0,2023-09-07,2023-08-23,株式会社夢味スィーツ,,株式会社,千葉県,浦安市,高洲６丁目１番４－９０６号潮音の街,,12,227,2790023,,,2023-08-23,清算の結了等,,,2015-10-05,1,,,,,ユメミスィーツ,0
1112,5010005033915,登記記録の閉鎖等,0,2023-09-07,2023-09-01,一般社団法人Ｌ＆Ｄ協会,,その他の設立登記法人,東京都,千代田区,平河町１丁目６番１５号ＵＳビル８階,,13,101,1020093,,,2023-09-01,清算の結了等,,,2021-09-07,1,,,,,エルアンドディーキョウカイ,0
1113,5010005035449,登記記録の閉鎖等,0,2023-09-07,2023-09-01,石神井台インベストメントワン一般社団法人,,その他の設立登記法人,東京都,千代田区,九段南３丁目７番７号成和綜合会計事務所内,,13,101,1020074,,,2023-09-01,清算の結了等,,,2022-08-24,1,,,,,シャクジイダイインベストメントワン,0
1140,5010801002610,登記記録の閉鎖等,0,2023-09-07,2023-09-04,株式会社角浜製作所,,株式会社,東京都,大田区,仲六郷１丁目２１番３号,,13,111,1440055,,,2023-09-04,清算の結了等,,,2015-10-05,1,,,,,カクハマセイサクショ,0
1148,5011001018810,登記記録の閉鎖等,0,2023-09-07,2023-09-04,株式会社畑野,,株式会社,東京都,渋谷区,渋谷１丁目２４番１１号,,13,113,1500002,,,2023-09-04,清算の結了等,,,2015-10-05,1,,,,,ハタノ,0
1185,5011801002179,登記記録の閉鎖等,0,2023-09-07,2023-09-04,株式会社正英社,,株式会社,東京都,葛飾区,立石２丁目４番１１号,,13,122,1240012,,,2023-09-04,清算の結了等,,,2015-10-05,1,,,,,ショウエイシャ,0
1199,5012802010699,登記記録の閉鎖等,0,2023-09-07,2023-09-01,有限会社あすなろ,,有限会社,東京都,東大和市,奈良橋５丁目８１２番地１,,13,220,2070031,,,2023-09-01,合併による解散等,9012801007742,令和５年９月１日東京都東大和市仲原三丁目１３番地２４株式会社ピュア・ハート（9012801007742）に合併し解散,2015-10-05,1,,,,,アスナロ,0
1210,5020001145721,登記記録の閉鎖等,0,2023-09-07,2023-08-31,セバ・物産アニマルヘルス株式会社,,株式会社,神奈川県,横浜市鶴見区,末広町１丁目６番８号横浜バイオ産業センター,,14,101,2300045,,,2023-08-31,清算の結了等,,,2022-03-24,1,,,,,セバブッサンアニマルヘルス,0
1217,5021001024345,登記記録の閉鎖等,0,2023-09-07,2023-09-01,株式会社リフォームやました,,株式会社,神奈川県,厚木市,上依知１３６３番地１,,14,212,2430801,,,2023-09-01,合併による解散等,8021002033532,令和５年９月１日神奈川県厚木市上依知１３６６番地１株式会社山下材木店（8021002033532）に合併し解散,2015-10-05,1,,,,,リフォームヤマシタ,0
1224,5021002038591,登記記録の閉鎖等,0,2023-09-07,2023-09-01,有限会社藤屋,,有限会社,神奈川県,秦野市,桜町２丁目１番４５号,,14,211,2570045,,,2023-09-01,清算の結了等,,,2015-10-05,1,,,,,フジヤ,0
1237,5040001006797,登記記録の閉鎖等,0,2023-09-07,2023-08-22,株式会社ペクソン,,株式会社,千葉県,千葉市稲毛区,作草部町１２６６番地,,12,103,2630014,,,2023-08-22,清算の結了等,,,2015-10-05,1,,,,,ペクソン,0
1255,5060002012974,登記記録の閉鎖等,0,2023-09-07,2023-08-29,有限会社久野電気管理,,有限会社,栃木県,塩谷郡高根沢町,大字宝積寺１２２９番地６,,09,386,3291233,,,2023-08-29,清算の結了等,,,2015-10-05,1,,,,,クノデンキカンリ,0
1270,5110002019799,登記記録の閉鎖等,0,2023-09-07,2023-09-04,有限会社八王寺プレス,,有限会社,新潟県,燕市,八王寺１１１８番地,,15,213,9591264,,,2023-09-04,清算の結了等,,,2015-10-05,1,,,,,ハチオウジプレス,0
1280,5120001201480,登記記録の閉鎖等,0,2023-09-07,2023-09-05,株式会社シオン,,株式会社,大阪府,大阪市城東区,新喜多１丁目６番２９－９０４号,,27,118,5360015,,,2023-09-05,清算の結了等,,,2016-10-26,1,,,,,シオン,0
1300,5140001007967,登記記録の閉鎖等,0,2023-09-07,2023-09-01,里羽食品株式会社,,株式会社,兵庫県,神戸市須磨区,須磨浦通６丁目４－１１須磨浦ビラ４－Ｄ,,28,107,6540055,,,2023-09-01,清算の結了等,,,2015-10-05,1,,,,,サトハショクヒン,0
1302,5140001050471,登記記録の閉鎖等,0,2023-09-07,2023-08-31,南部電気工事株式会社,,株式会社,兵庫県,尼崎市,西向島町６３番地,,28,202,6600857,,,2023-08-31,清算の結了等,,,2015-10-05,1,,,,,ナンブデンキコウジ,0
1303,5140001064471,登記記録の閉鎖等,0,2023-09-07,2023-08-31,株式会社リアルリンクス,,株式会社,兵庫県,姫路市,勝原区山戸２１番地７,,28,201,6711214,,,2023-08-31,清算の結了等,,,2015-10-05,1,,,,,リアルリンクス,0
1313,5160002001414,登記記録の閉鎖等,0,2023-09-07,2023-09-01,有限会社野口山陽堂,,有限会社,滋賀県,大津市,唐橋町２２番１１号,,25,201,5200851,,,2023-09-01,清算の結了等,,,2015-10-05,1,,,,,ノグチサンヨウドウ,0
1321,5180003016541,登記記録の閉鎖等,0,2023-09-07,2023-09-05,合名会社フォルトゥナ,,合名会社,愛知県,名古屋市中区,栄３丁目７番４号トーシンサクラビル１０階,,23,106,4600008,,,2023-09-05,清算の結了等,,,2015-10-05,1,,,,,フォルトゥナ,0
1332,5200001015030,登記記録の閉鎖等,0,2023-09-07,2023-09-04,株式会社タナカ商事,,株式会社,岐阜県,養老郡養老町,押越７９０番地の１,,21,341,5031316,,,2023-09-04,清算の結了等,,,2015-10-05,1,,,,,タナカショウジ,0
1351,5260001009175,登記記録の閉鎖等,0,2023-09-07,2023-09-04,株式会社はざま建築事務所,,株式会社,岡山県,岡山市南区,新保１３１７番地４,,33,104,7000945,,,2023-09-04,清算の結了等,,,2015-10-05,1,,,,,ハザマケンチクジムショ,0
1354,5290001073755,登記記録の閉鎖等,0,2023-09-07,2023-08-24,シグナル株式会社,,株式会社,福岡県,大野城市,仲畑１丁目３０番５－２号,,40,219,8160921,,,2023-08-24,清算の結了等,,,2016-04-25,1,,,,,シグナル,0
1379,5380001013009,登記記録の閉鎖等,0,2023-09-07,2023-09-04,新栄工業株式会社,,株式会社,福島県,いわき市,小名浜島字高田町１番地の１,00083151,07,204,9718125,,,2023-09-04,清算の結了等,,,2015-10-05,1,,,,,シンエイコウギョウ,0
1385,5390002007124,登記記録の閉鎖等,0,2023-09-07,2023-08-31,有限会社チョウゼン,,有限会社,山形県,酒田市,緑町１４番１４号,,06,204,9980858,,,2023-08-31,清算の結了等,,,2015-10-05,1,,,,,チョウゼン,0
1400,5470001015680,登記記録の閉鎖等,0,2023-09-07,2023-09-05,株式会社かもめや,,株式会社,香川県,高松市,松縄町１０２１番地１６,,37,201,7600079,,,2023-09-05,清算の結了等,,,2016-04-25,1,,,,,カモメヤ,0
1404,5470002017940,登記記録の閉鎖等,0,2023-09-07,2023-09-05,有限会社のざき,,有限会社,香川県,さぬき市,志度５３８４番地,,37,206,7692101,,,2023-09-05,清算の結了等,,,2015-10-05,1,,,,,,0
1480,6020001068500,登記記録の閉鎖等,0,2023-09-07,2023-08-31,北部急送株式会社,,株式会社,神奈川県,川崎市宮前区,野川本町３丁目７番１７号,,14,136,2160041,,,2023-08-31,清算の結了等,,,2015-10-05,1,,,,,ホクブキュウソウ,0
1495,6021002031125,登記記録の閉鎖等,0,2023-09-07,2023-09-01,有限会社小笠原装飾,,有限会社,神奈川県,厚木市,上依知１３４１番地の１,,14,212,2430801,,,2023-09-01,清算の結了等,,,2015-10-05,1,,,,,オガサワラソウショク,0
1541,6120002024764,登記記録の閉鎖等,0,2023-09-07,2023-08-31,有限会社岡村事務所,,有限会社,大阪府,大阪市東淀川区,豊新４丁目１９番４号,,27,114,5330014,,,2023-08-31,合併による解散等,6120001123402,令和５年８月３１日大阪市東淀川区豊新四丁目１９番４号株式会社岡村（6120001123402）に合併し解散,2015-10-05,1,,,,,オカムラジムショ,0
1559,6140001051683,登記記録の閉鎖等,0,2023-09-07,2023-08-31,八百敏青果株式会社,,株式会社,兵庫県,尼崎市,潮江４丁目４番１号,,28,202,6610976,,,2023-08-31,清算の結了等,,,2015-10-05,1,,,,,ヤオトシセイカ,0
1570,6140002043795,登記記録の閉鎖等,0,2023-09-07,2023-08-31,有限会社浅井モータース,,有限会社,兵庫県,尼崎市,浜３丁目２番５号,,28,202,6610967,,,2023-08-31,清算の結了等,,,2015-10-05,1,,,,,アサイモータース,0
1571,6140003005092,登記記録の閉鎖等,0,2023-09-07,2023-08-31,合資会社諸和貿易,,合資会社,兵庫県,神戸市中央区,元町通５丁目４－３アーバンライフ３１７号,,28,110,6500022,,,2023-08-31,清算の結了等,,,2015-10-05,1,,,,,ショワボウエキ,0
1575,6150001007305,登記記録の閉鎖等,0,2023-09-07,2023-09-05,栄興樹脂株式会社,,株式会社,東京都,荒川区,西日暮里２丁目５３番１号,,13,118,1160013,,,2023-09-05,合併による解散等,7010501030034,令和５年９月１日東京都台東区東上野一丁目１１番４号大和樹脂株式会社（7010501030034）に合併し解散,2015-10-05,1,,,,,エイコウジュシ,0
1578,6170001009002,登記記録の閉鎖等,0,2023-09-07,2023-09-04,株式会社熊野路,,株式会社,和歌山県,西牟婁郡白浜町,大古３０番地,,30,401,6492521,,,2023-09-04,清算の結了等,,,2015-10-05,1,,,,,クマノジ,0
1597,6220001016406,登記記録の閉鎖等,0,2023-09-07,2023-09-04,株式会社アイ・サンキュー,,株式会社,石川県,七尾市,千野町い１９番,,17,202,9260033,,,2023-09-04,清算の結了等,,,2015-10-05,1,,,,,アイサンキュー,0
1615,6290801009016,登記記録の閉鎖等,0,2023-09-07,2023-09-05,九州東亜商事株式会社,,株式会社,福岡県,北九州市八幡東区,中央３丁目６番１３号,,40,108,8050019,,,2023-09-05,清算の結了等,,,2015-10-05,1,,,,,キュウシュウトウアショウジ,0
1616,6290802005625,登記記録の閉鎖等,0,2023-09-07,2023-09-05,有限会社フクイチ建美,,有限会社,福岡県,北九州市戸畑区,福柳木２丁目９番１９号,,40,105,8040025,,,2023-09-05,清算の結了等,,,2015-10-05,1,,,,,フクイチケンビ,0
1619,6300005004514,登記記録の閉鎖等,0,2023-09-07,2023-09-05,鳥栖電気工事業協同組合,,その他の設立登記法人,佐賀県,鳥栖市,秋葉町３丁目２９番地１,,41,203,8410036,,,2023-09-05,清算の結了等,,,2015-10-05,1,,,,,トスデンキコウジギョウ,0
1632,6370001010311,登記記録の閉鎖等,0,2023-09-07,2023-09-04,株式会社星ケアサービス,,株式会社,宮城県,仙台市青葉区,上杉１丁目１５番２２号,,04,101,9800011,,,2023-09-04,清算の結了等,,,2015-10-05,1,,,,,ホシケアサービス,0
1639,6390001015713,登記記録の閉鎖等,0,2023-09-07,2023-09-04,株式会社ライジングファーム山形,,株式会社,山形県,鶴岡市,城南町１５番５号,,06,203,9970814,,,2023-09-04,清算の結了等,,,2019-06-04,1,,,,,ライジングファームヤマガタ,0
1646,6420005006671,登記記録の閉鎖等,0,2023-09-07,2023-09-01,特定非営利活動法人グロウスマイル日本,,その他の設立登記法人,青森県,青森市,西大野３丁目２番地１１,,02,201,0300856,,,2023-09-01,清算の結了等,,,2015-10-05,1,,,,,グロウスマイルニッポン,0
1654,6470001015531,登記記録の閉鎖等,0,2023-09-07,2023-09-05,株式会社ＩｅＮＧ,,株式会社,香川県,さぬき市,志度１１５９番地４オリーブハイツＡ－１０２,,37,206,7692101,,,2023-09-05,清算の結了等,,,2016-01-29,1,,,,,,0
1667,6500002021698,登記記録の閉鎖等,0,2023-09-07,2023-09-01,株式会社高文,,株式会社,愛媛県,四国中央市,金生町下分１９５２番地の１,,38,213,7990111,,,2023-09-01,合併による解散等,5500001014596,令和５年９月１日愛媛県四国中央市金生町下分１９５２番地の１株式会社トーヨホールディングス（5500001014596）に合併し解散,2015-10-05,1,,,,,タカブン,0
1677,7010001038825,登記記録の閉鎖等,0,2023-09-07,2023-09-01,株式会社エル・エスコーポレーション,,株式会社,東京都,中央区,日本橋小伝馬町１３番４号共同ビル,,13,102,1030001,,,2023-09-01,合併による解散等,1010001012760,令和５年９月１日東京都中央区日本橋堀留町二丁目６番６号株式会社エル・エス管財（1010001012760）に合併し解散,2015-10-05,1,,,,,エルエスコーポレーション,0
1680,7010001198339,登記記録の閉鎖等,0,2023-09-07,2023-09-01,株式会社Ａｔ　Ｍａｒｕ,,株式会社,東京都,千代田区,九段南１丁目５号６番りそな九段ビル５Ｆ・ＫＳフロア,,13,101,1020074,,,2023-09-01,清算の結了等,,,2019-02-07,1,,,,,アットマル,0
1688,7010401137474,登記記録の閉鎖等,0,2023-09-07,2023-09-05,株式会社こいぬすてっぷ,,株式会社,大阪府,大阪市西区,江戸堀１丁目２３番１１号２階,,27,106,5500002,,,2023-09-05,合併による解散等,4011001133882,令和５年８月１日東京都港区虎ノ門四丁目１番１号神谷町トラストタワー２３Ｆ株式会社ラニマル（4011001133882）に合併し解散,2018-03-29,1,,,,,コイヌステップ,0
1695,7010503003921,登記記録の閉鎖等,0,2023-09-07,2023-09-01,合同会社しろくまハウス,,合同会社,東京都,台東区,蔵前２丁目８番３号,,13,106,1110051,,,2023-09-01,清算の結了等,,,2015-10-05,1,,,,,シロクマハウス,0
1704,7010801004035,登記記録の閉鎖等,0,2023-09-07,2023-09-01,寿産業株式会社,,株式会社,東京都,大田区,蒲田本町１丁目２番５号,,13,111,1440053,,,2023-09-01,合併による解散等,4010801008518,令和５年９月１日東京都大田区蒲田本町一丁目２番５号株式会社巴商会（4010801008518）に合併し解散,2015-10-05,1,,,,,コトブキサンギョウ,0
1706,7010801012707,登記記録の閉鎖等,0,2023-09-07,2023-08-14,労産住宅株式会社,,株式会社,東京都,大田区,蒲田５丁目１８番２号,,13,111,1440052,,,2023-08-14,清算の結了等,,,2015-10-05,1,,,,,ロウサンジュウタク,0
1708,7010803003209,登記記録の閉鎖等,0,2023-09-07,2023-09-05,笑母合同会社,,合同会社,東京都,大田区,西蒲田８丁目２４－１,,13,111,1440051,,,2023-09-05,清算の結了等,,,2019-12-19,1,,,,,エボ,0
1733,7011401001835,登記記録の閉鎖等,0,2023-09-07,2023-09-01,株式会社クレスグループ,,株式会社,東京都,板橋区,徳丸２丁目９番３号,,13,119,1750083,,,2023-09-01,合併による解散等,8011401022120,令和５年９月１日東京都板橋区徳丸二丁目９番３号株式会社クレス（8011401022120）に合併し解散,2015-10-05,1,,,,,クレスグループ,0
1738,7012301001710,登記記録の閉鎖等,0,2023-09-07,2023-09-01,株式会社トレジャーボイス,,株式会社,東京都,町田市,本町田２１５番地,,13,209,1940032,,,2023-09-01,清算の結了等,,,2015-10-05,1,,,,,トレジャーボイス,0
1745,7012701001839,登記記録の閉鎖等,0,2023-09-07,2023-09-04,株式会社ホンダオートセンター,,株式会社,東京都,小平市,鈴木町１丁目３８５番地の２４,,13,211,1870011,,,2023-09-04,清算の結了等,,,2015-10-05,1,,,,,ホンダオートセンター,0
1761,7020003012059,登記記録の閉鎖等,0,2023-09-07,2023-08-30,ライトニングデザインワークス合同会社,,合同会社,神奈川県,横浜市都筑区,加賀原１丁目４４番２－１０１号,,14,118,2240055,,,2023-08-30,清算の結了等,,,2016-11-25,1,,,,,ライトニングデザインワークス,0
1762,7020003012892,登記記録の閉鎖等,0,2023-09-07,2023-08-29,合同会社隣愛,,合同会社,神奈川県,横浜市都筑区,東山田町３７番地４,,14,118,2240024,,,2023-08-29,清算の結了等,,,2017-06-15,1,,,,,リンアイ,0
1763,7020003016984,登記記録の閉鎖等,0,2023-09-07,2023-09-01,ＢＥ　ＮＩＩＮＡ合同会社,,合同会社,神奈川県,横浜市青葉区,荏田北２丁目７番地２,,14,117,2250015,,,2023-09-01,清算の結了等,,,2019-11-26,1,,,,,ビーイーニーナ,0
1766,7021001032767,登記記録の閉鎖等,0,2023-09-07,2023-09-01,杉崎観光バス株式会社,,株式会社,神奈川県,小田原市,堀之内２４番地,,14,206,2500853,,,2023-09-01,合併による解散等,8021001032766,令和５年９月１日神奈川県小田原市桑原５７０番地杉崎運輸株式会社（8021001032766）に合併し解散,2015-10-05,1,,,,,スギザキカンコウバス,0
1774,7030001045290,登記記録の閉鎖等,0,2023-09-07,2023-08-10,宏和熱学株式会社,,株式会社,埼玉県,志木市,幸町３丁目１８番１７号,,11,228,3530005,,,2023-08-10,清算の結了等,,,2015-10-05,1,,,,,コウワネツガク,0
1775,7030001101473,登記記録の閉鎖等,0,2023-09-07,2023-09-01,株式会社アネシス水道埼玉,,株式会社,東京都,渋谷区,渋谷３丁目１２番２２号,,13,113,1500002,,,2023-09-01,合併による解散等,4020001054980,令和５年８月１５日東京都渋谷区渋谷三丁目１２番２２号株式会社アネシス（4020001054980）に合併し解散,2015-10-05,1,,,,,アネシススイドウサイタマ,0
1782,7030002121470,登記記録の閉鎖等,0,2023-09-07,2023-08-10,有限会社せきね,,有限会社,埼玉県,秩父市,桜木町２番２５号,,11,207,3680025,,,2023-08-10,清算の結了等,,,2015-10-05,1,,,,,セキネ,0
1819,7100005008831,登記記録の閉鎖等,0,2023-09-07,2023-09-01,日本寒天工業協同組合,,その他の設立登記法人,長野県,伊那市,西春近５０７４番地,,20,209,3994431,,,2023-09-01,清算の結了等,,,2015-10-05,1,,,,,ニホンカンテンコウギョウ,0
1823,7110002016951,登記記録の閉鎖等,0,2023-09-07,2023-09-04,有限会社織原熔接工業,,有限会社,新潟県,三条市,塚野目２丁目７番１７号,,15,204,9550055,,,2023-09-04,清算の結了等,,,2015-10-05,1,,,,,オリハラヨウセツコウギョウ,0
1827,7120001173413,登記記録の閉鎖等,0,2023-09-07,2023-09-01,株式会社ジェイ・エイチ・エル,,株式会社,大阪府,大阪市平野区,長吉長原西３丁目２番５号,,27,126,5470015,,,2023-09-01,合併による解散等,5120001061900,令和５年９月１日大阪市平野区長吉長原西三丁目２番５号株式会社エム・エイチ・シー（5120001061900）に合併し解散,2015-10-05,1,,,,,ジェイエイチエル,0
1834,7120002003866,登記記録の閉鎖等,0,2023-09-07,2023-09-04,吉井有限会社,,有限会社,大阪府,大阪市阿倍野区,天王寺町北２丁目２４番１４号,,27,119,5450001,,,2023-09-04,清算の結了等,,,2015-10-05,1,,,,,ヨシイ,0
1838,7120102023814,登記記録の閉鎖等,0,2023-09-07,2023-09-01,長滝帆布有限会社,,有限会社,大阪府,泉佐野市,長滝３９０１番地,,27,213,5980034,,,2023-09-01,清算の結了等,,,2015-10-05,1,,,,,ナガタキハンプ,0
1840,7120901037493,登記記録の閉鎖等,0,2023-09-07,2023-09-05,株式会社アシストサービス,,株式会社,大阪府,豊中市,上新田１丁目２４番Ｆ－１３０３号,,27,203,5600085,,,2023-09-05,合併による解散等,4120001085462,令和５年９月１日大阪市中央区南船場四丁目１１番１８号ＴＣＳトレーディング株式会社（4120001085462）に合併し解散,2016-10-03,1,,,,,,0
1854,7150001013608,登記記録の閉鎖等,0,2023-09-07,2023-09-05,株式会社山本米,,株式会社,奈良県,葛城市,疋田２５４番地の９,,29,211,6392101,,,2023-09-05,清算の結了等,,,2015-10-05,1,,,,,ヤマモトマイ,0
1866,7190001019865,登記記録の閉鎖等,0,2023-09-07,2023-09-01,株式会社森辻精肉店,00075772,株式会社,三重県,伊賀市,上野相生町２８５３番地の１,,24,216,5180859,,,2023-09-01,清算の結了等,,,2015-10-05,1,,,,,モリツジセイニクテン,0
1877,7220001021371,登記記録の閉鎖等,0,2023-09-07,2023-09-05,株式会社ＬＩＶＥＣＯ,,株式会社,石川県,金沢市,北町乙５９番地１,,17,201,9200055,,,2023-09-05,合併による解散等,1220001021253,令和５年８月３１日石川県金沢市太陽が丘第７工区１６街区７番地株式会社３ｅ（1220001021253）に合併し解散,2016-12-14,1,,,,,リブコ,0
1909,7330002029007,登記記録の閉鎖等,0,2023-09-07,2023-08-31,有限会社フーズまつなが,,有限会社,熊本県,天草市,御所浦町御所浦４３８８番地,,43,215,8660313,,,2023-08-31,清算の結了等,,,2015-10-05,1,,,,,フーズマツナガ,0
1913,7340002013950,登記記録の閉鎖等,0,2023-09-07,2023-09-04,有限会社ナカマル,,有限会社,鹿児島県,霧島市,国分向花１０５番地１,,46,218,8994352,,,2023-09-04,清算の結了等,,,2015-10-05,1,,,,,ナカマル,0
1923,7380001011976,登記記録の閉鎖等,0,2023-09-07,2023-09-01,株式会社ポパイ,,株式会社,福島県,須賀川市,向陽町４７８番地,,07,207,9620401,,,2023-09-01,清算の結了等,,,2015-10-05,1,,,,,ポパイ,0
1940,7460101005564,登記記録の閉鎖等,0,2023-09-07,2023-08-30,株式会社内藤,,株式会社,北海道,河西郡芽室町,西八条３丁目１番地１,,01,637,0820038,,,2023-08-30,清算の結了等,,,2015-10-05,1,,,,,ナイトウ,0
1964,8010001007432,登記記録の閉鎖等,0,2023-09-07,2023-09-01,株式会社中村写真事務所,,株式会社,東京都,文京区,春日１丁目６番７号,,13,105,1120003,,,2023-09-01,清算の結了等,,,2015-10-05,1,,,,,ナカムラシャシンジムショ,0
1969,8010001199014,登記記録の閉鎖等,0,2023-09-07,2023-09-01,サンデン制御株式会社,,株式会社,東京都,中央区,東日本橋２丁目２５番８号,,13,102,1030004,,,2023-09-01,合併による解散等,5010001022756,令和５年９月１日東京都中央区八丁堀四丁目１番４号中央無線電機株式会社（5010001022756）に合併し解散,2019-03-07,1,,,,,サンデンセイギョ,0
1986,8010401025331,登記記録の閉鎖等,0,2023-09-07,2023-08-17,株式会社平井商店,,株式会社,東京都,港区,新橋５丁目１７番３号,,13,103,1050004,,,2023-08-17,清算の結了等,,,2015-10-05,1,,,,,ヒライショウテン,0
1991,8010401175556,登記記録の閉鎖等,0,2023-09-07,2023-08-17,ＷＥホールディングス２株式会社,,株式会社,東京都,港区,浜松町２丁目４番１号,,13,103,1050013,,,2023-08-17,合併による解散等,5010401174651,令和５年８月１１日東京都港区浜松町二丁目４番１号ＷＥホールディングス株式会社（5010401174651）に合併し解散,2023-07-13,1,,,,,ダブリューイーホールディングスツー,0
2010,8011001102256,登記記録の閉鎖等,0,2023-09-07,2023-09-01,株式会社アネシスアルチザン,,株式会社,東京都,渋谷区,渋谷３丁目１２番２２号,,13,113,1500002,,,2023-09-01,合併による解散等,4020001054980,令和５年８月１５日東京都渋谷区渋谷三丁目１２番２２号株式会社アネシス（4020001054980）に合併し解散,2015-10-05,1,,,,,アネシスアルチザン,0
2011,8011001115241,登記記録の閉鎖等,0,2023-09-07,2023-08-16,株式会社アルテシマ,,株式会社,東京都,港区,赤坂９丁目４番１号,,13,103,1070052,,,2023-08-16,清算の結了等,,,2017-03-09,1,,,,,アルテシマ,0
2030,8011402005529,登記記録の閉鎖等,0,2023-09-07,2023-09-01,有限会社高木硝子店,,有限会社,東京都,板橋区,常盤台２丁目２９番１３号,,13,119,1740071,,,2023-09-01,清算の結了等,,,2015-10-05,1,,,,,,0
2051,8020001069505,登記記録の閉鎖等,0,2023-09-07,2023-09-01,シー・アール・エー株式会社,,株式会社,神奈川県,川崎市中原区,今井南町１０番４１号,,14,133,2110064,,,2023-09-01,合併による解散等,1020001070270,令和５年９月１日川崎市中原区今井南町１０番４１号三木プーリ米沢株式会社（1020001070270）に合併し解散,2015-10-05,1,,,,,シーアールエー,0
2076,8021002005119,登記記録の閉鎖等,0,2023-09-07,2023-09-01,有限会社山口研磨工業,,有限会社,神奈川県,藤沢市,鵠沼石上３丁目４番１４号,,14,205,2510025,,,2023-09-01,清算の結了等,,,2015-10-05,1,,,,,ヤマグチケンマコウギョウ,0
2089,8040001084650,登記記録の閉鎖等,0,2023-09-07,2023-09-01,株式会社アネシス水道千葉,,株式会社,東京都,渋谷区,渋谷３丁目１２番２２号,,13,113,1500002,,,2023-09-01,合併による解散等,4020001054980,令和５年８月１５日東京都渋谷区渋谷三丁目１２番２２号株式会社アネシス（4020001054980）に合併し解散,2015-10-05,1,,,,,アネシススイドウチバ,0
2099,8040003003492,登記記録の閉鎖等,0,2023-09-07,2023-08-17,合資会社島彦本店,,合資会社,千葉県,銚子市,双葉町３番地の１,,12,202,2880048,,,2023-08-17,清算の結了等,,,2015-10-05,1,,,,,シマヒコホンテン,0
2118,8110001033889,登記記録の閉鎖等,0,2023-09-07,2023-09-01,清エステート株式会社,,株式会社,新潟県,糸魚川市,寺島３丁目８番１号,,15,216,9410066,,,2023-09-01,合併による解散等,8110001021794,令和５年９月１日新潟県糸魚川市寺島三丁目８番１号清鋼材株式会社（8110001021794）に合併し解散,2019-03-18,1,,,,,スガエステート,0
2133,8120003012634,登記記録の閉鎖等,0,2023-09-07,2023-09-01,伊達合同事務所合同会社,,合同会社,大阪府,大阪市淀川区,西中島３丁目８番１５－６０１号,,27,123,5320011,,,2023-09-01,合併による解散等,9120001182610,令和５年９月１日大阪市淀川区西中島三丁目８番１５－６０１号株式会社朝陽法務（9120001182610）に合併し解散,2017-04-03,1,,,,,ダテゴウドウジムショ,0
2141,8120902017584,登記記録の閉鎖等,0,2023-09-07,2023-09-04,有限会社伊丹事務所,,有限会社,大阪府,豊中市,寺内１丁目４番２８号,,27,203,5610872,,,2023-09-04,清算の結了等,,,2015-10-05,1,,,,,イタミジムショ,0
2150,8140001015744,登記記録の閉鎖等,0,2023-09-07,2023-09-01,株式会社魚勝,,株式会社,兵庫県,神戸市長田区,五番町８丁目１番地の１５,,28,106,6530003,,,2023-09-01,合併による解散等,9140001090043,令和５年９月１日神戸市中央区元町通四丁目５番１０号播交キャピタル株式会社（9140001090043）に合併し解散,2015-10-05,1,,,,,ウオカツ,0
2158,8140002030263,登記記録の閉鎖等,0,2023-09-07,2023-08-31,有限会社おのえ商店,,有限会社,兵庫県,明石市,二見町東二見８８８番地の１,,28,203,6740092,,,2023-08-31,清算の結了等,,,2015-10-05,1,,,,,オノエショウテン,0
2161,8150001009357,登記記録の閉鎖等,0,2023-09-07,2023-09-06,株式会社城島亭,,株式会社,奈良県,桜井市,大字粟殿４７５番地,,29,206,6330062,,,2023-09-06,清算の結了等,,,2015-10-05,1,,,,,シキシマテイ,0
2181,8190002007703,登記記録の閉鎖等,0,2023-09-07,2023-09-01,有限会社あんしんＬＩＦＥ,,有限会社,三重県,鈴鹿市,中瀬古町５７７番地の２,,24,207,5100259,,,2023-09-01,清算の結了等,,,2015-10-05,1,,,,,アンシンライフ,0
2182,8200001020762,登記記録の閉鎖等,0,2023-09-07,2023-09-05,株式会社武内商店,,株式会社,岐阜県,多治見市,大正町３丁目１６番地,,21,204,5070024,,,2023-09-05,清算の結了等,,,2015-10-05,1,,,,,タケウチショウテン,0
2190,8210002010571,登記記録の閉鎖等,0,2023-09-07,2023-09-06,有限会社田保板金店,,有限会社,福井県,敦賀市,砂流１０号４番地の５（ひばりヶ丘町）,,18,202,9140136,,,2023-09-06,清算の結了等,,,2015-10-05,1,,,,,タボバンキンテン,0
2193,8230002002105,登記記録の閉鎖等,0,2023-09-07,2023-09-05,有限会社高柳麹味噌商会,00079017,有限会社,富山県,富山市,羽根１３７番地,,16,201,9300864,,,2023-09-05,清算の結了等,,,2015-10-05,1,,,,,タカヤナギコウジミソショウカイ,0
2204,8260001018702,登記記録の閉鎖等,0,2023-09-07,2023-09-04,株式会社サン・アート,,株式会社,岡山県,井原市,高屋町３丁目２４番地１,,33,207,7150024,,,2023-09-04,清算の結了等,,,2015-10-05,1,,,,,サンアート,0
2209,8290001080930,登記記録の閉鎖等,0,2023-09-07,2023-09-05,株式会社ＡＴＴＩＭＯ　ＪＡＰＡＮ,,株式会社,佐賀県,三養基郡基山町,けやき台４丁目１３番６号,,41,341,8410205,,,2023-09-05,清算の結了等,,,2018-03-29,1,,,,,アッティモジャパン,0
2219,8310002005594,登記記録の閉鎖等,0,2023-09-07,2023-09-04,有限会社村山金網,,有限会社,長崎県,長崎市,古町３７番地,,42,201,8500026,,,2023-09-04,清算の結了等,,,2015-10-05,1,,,,,ムラヤマカナアミ,0
2236,8380002034455,登記記録の閉鎖等,0,2023-09-07,2023-09-04,有限会社ふじた葬祭仏具センター,,有限会社,福島県,河沼郡会津坂下町,大字金上字的場２６２番地１,,07,421,9696521,,,2023-09-04,清算の結了等,,,2015-10-05,1,,,,,フジタソウサイブツグセンター,0
2246,8430005012188,登記記録の閉鎖等,0,2023-09-07,2023-09-01,特定非営利活動法人ハンズハーベスト北海道,,その他の設立登記法人,北海道,札幌市中央区,南二十四条西１５丁目１番５号,,01,101,0640924,,,2023-09-01,清算の結了等,,,2015-10-05,1,,,,,ハンズハーベストホッカイドウ,0
2247,8460102007708,登記記録の閉鎖等,0,2023-09-07,2023-09-04,有限会社アースサポート,,有限会社,北海道,中川郡幕別町,本町１５番地,,01,643,0890603,,,2023-09-04,清算の結了等,,,2015-10-05,1,,,,,アースサポート,0
2254,8470003002047,登記記録の閉鎖等,0,2023-09-07,2023-09-01,合同会社ＡＳＡ牟礼,,合同会社,香川県,高松市,牟礼町牟礼１１５７番地１,,37,201,7610121,,,2023-09-01,清算の結了等,,,2021-10-06,1,,,,,エイエスエイムレ,0
2304,9011201003006,登記記録の閉鎖等,0,2023-09-07,2023-09-05,株式会社大三,,株式会社,東京都,中野区,大和町１丁目１３番３号,,13,114,1650034,,,2023-09-05,清算の結了等,,,2015-10-05,1,,,,,ダイサン,0
2306,9011202003153,登記記録の閉鎖等,0,2023-09-07,2023-09-06,有限会社すぎさき,,有限会社,東京都,中野区,中野５丁目６６番８号,,13,114,1640001,,,2023-09-06,清算の結了等,,,2015-10-05,1,,,,,スギサキ,0
2314,9012401022555,登記記録の閉鎖等,0,2023-09-07,2023-09-05,株式会社日本ペットシッターサービス,,株式会社,東京都,武蔵野市,吉祥寺本町１丁目４番１１号,,13,203,1800004,,,2023-09-05,合併による解散等,4011001133882,令和５年８月１日東京都港区虎ノ門四丁目１番１号神谷町トラストタワー２３Ｆ株式会社ラニマル（4011001133882）に合併し解散,2015-10-05,1,,,,,ニホンペットシッターサービス,0
2320,9013201012787,登記記録の閉鎖等,0,2023-09-07,2023-09-01,株式会社ジェムインターナショナル,,株式会社,東京都,目黒区,青葉台３丁目２０番８号,,13,110,1530042,,,2023-09-01,合併による解散等,7013201005652,令和５年９月１日東京都目黒区青葉台三丁目２０番８号株式会社ミキモト装身具（7013201005652）に合併し解散,2015-10-05,1,,,,,ジェムインターナショナル,0
2324,9013202012695,登記記録の閉鎖等,0,2023-09-07,2023-09-01,有限会社メルレット,,有限会社,東京都,世田谷区,深沢１丁目７番４号,,13,112,1580081,,,2023-09-01,清算の結了等,,,2015-10-05,1,,,,,メルレット,0
2354,9030001066244,登記記録の閉鎖等,0,2023-09-07,2023-08-10,株式会社エムエスジ,,株式会社,埼玉県,吉川市,きよみ野３丁目１１番３号,,11,243,3420058,,,2023-08-10,清算の結了等,,,2015-10-05,1,,,,,エムエスジ,0
2403,9110001010508,登記記録の閉鎖等,0,2023-09-07,2023-09-04,株式会社オフィス・アイ,,株式会社,新潟県,新潟市東区,新石山３丁目５番地９,,15,102,9500851,,,2023-09-04,清算の結了等,,,2015-10-05,1,,,,,オフィスアイ,0
2433,9120902011025,登記記録の閉鎖等,0,2023-09-07,2023-09-04,有限会社浜田建材店,,有限会社,大阪府,高槻市,浦堂１丁目２番４号,,27,207,5691027,,,2023-09-04,清算の結了等,,,2015-10-05,1,,,,,ハマダケンザイテン,0
2452,9140002058469,登記記録の閉鎖等,0,2023-09-07,2023-09-01,有限会社セイコー,,有限会社,兵庫県,西宮市,山口町上山口字尼ノ子山２０１２番地の５,,28,204,6511421,,,2023-09-01,清算の結了等,,,2015-10-05,1,,,,,セイコー,0
2478,9220001023036,登記記録の閉鎖等,0,2023-09-07,2023-09-04,エネライフパートナー株式会社,,株式会社,石川県,金沢市,東力３丁目１４１番地,,17,201,9218015,,,2023-09-04,清算の結了等,,,2019-08-08,1,,,,,エネライフパートナー,0
2479,9230001013688,登記記録の閉鎖等,0,2023-09-07,2023-09-05,スペースアニバーサリー株式会社,,株式会社,富山県,富山市,栃谷４０７番地２,,16,201,9300163,,,2023-09-05,清算の結了等,,,2015-10-05,1,,,,,スペースアニバーサリー,0
2480,9230005005681,登記記録の閉鎖等,0,2023-09-07,2023-09-05,特定非営利活動法人富山県ゲートボール協会,,その他の設立登記法人,富山県,砺波市,深江１丁目２８０番地,,16,208,9391331,,,2023-09-05,清算の結了等,,,2015-10-05,1,,,,,トヤマケンゲートボールキョウカイ,0
2492,9260001013149,登記記録の閉鎖等,0,2023-09-07,2023-09-01,クラビ販売株式会社,,株式会社,岡山県,倉敷市,鳥羽９１７番地,,33,202,7100012,,,2023-09-01,合併による解散等,2260001013147,令和５年９月１日岡山県倉敷市幸町１５番２３号株式会社クラビ（2260001013147）に合併し解散,2015-10-05,1,,,,,クラビハンバイ,0
2508,9330002006854,登記記録の閉鎖等,0,2023-09-07,2023-08-31,有限会社ツールやまび,,有限会社,熊本県,熊本市中央区,細工町３丁目６番地,,43,101,8600041,,,2023-08-31,清算の結了等,,,2015-10-05,1,,,,,ツールヤマビ,0
2522,9370002019992,登記記録の閉鎖等,0,2023-09-07,2023-09-01,有限会社泉中央サービス,,有限会社,宮城県,富谷市,富ケ丘３丁目２番１７号,,04,216,9813352,,,2023-09-01,清算の結了等,,,2015-10-05,1,,,,,イズミチュウオウサービス,0
2531,9400005007677,登記記録の閉鎖等,0,2023-09-07,2023-09-01,一般社団法人遠野みらい創りカレッジ,,その他の設立登記法人,岩手県,遠野市,土淵町土淵４地割２１番地６,,03,208,0280555,,,2023-09-01,清算の結了等,,,2016-04-20,1,,,,,トオノミライヅクリカレッジ,0
2533,9420001006730,登記記録の閉鎖等,0,2023-09-07,2023-09-01,ユニバース興産株式会社,,株式会社,青森県,八戸市,大字長苗代字前田８３番地１,,02,203,0391103,,,2023-09-01,合併による解散等,2420001006729,令和５年９月１日青森県八戸市大字長苗代字前田８３番地１株式会社ユニバース（2420001006729）に合併し解散,2015-10-05,1,,,,,ユニバースコウサン,0
2534,9420002019211,登記記録の閉鎖等,0,2023-09-07,2023-09-01,農業生産法人有限会社アイエスファーム,,有限会社,青森県,三沢市,三川目４丁目１４５番地４３３号,,02,207,0330142,,,2023-09-01,清算の結了等,,,2015-10-05,1,,,,,ノウギョウセイサンホウジンアイエスファーム,0
2549,9500002014947,登記記録の閉鎖等,0,2023-09-07,2023-09-01,三和産業有限会社,,有限会社,愛媛県,新居浜市,観音原町甲６番地７,,38,205,7920851,,,2023-09-01,合併による解散等,8500001010048,令和５年９月１日愛媛県新居浜市観音原町甲６番地７正浩商事株式会社（8500001010048）に合併し解散,2015-10-05,1,,,,,サンワサンギョウ,0
