sequenceNumber,corporateNumber,process,correct,updateDate,changeDate,name,nameImageId,kind,prefectureName,cityName,streetNumber,addressImageId,prefectureCode,cityCode,postCode,addressOutside,addressOutsideImageId,closeDate,closeCause,successorCorporateNumber,changeCause,assignmentDate,latest,enName,enPrefectureName,enCityName,enAddressOutside,furigana,hihyoji
6,1010001254576,新規,0,2025-05-07,2025-05-07,株式会社ＹＤＤＳ,,株式会社,東京都,中央区,京橋２丁目２番１号,,13,102,1040031,,,,,,,2025-05-07,1,,,,,ワイディーディーエス,0
7,1010001254659,新規,0,2025-05-07,2025-05-07,株式会社ＳＵＧＡＲ＆ＳＰＩＣＥ,,株式会社,東京都,中央区,日本橋室町１丁目１番１２号日本橋水野ビル７階,,13,102,1030022,,,,,,,2025-05-07,1,,,,,シュガーアンドスパイス,0
8,1010001254675,新規,0,2025-05-07,2025-05-07,ラキリコ株式会社,,株式会社,東京都,中央区,銀座１丁目１２番４号Ｎ＆ＥＢＬＤ．６Ｆ,,13,102,1040061,,,,,,,2025-05-07,1,,,,,ラキリコ,0
9,1010003047219,新規,0,2025-05-07,2025-05-07,ＭＩＲＡ合同会社,,合同会社,東京都,中央区,日本橋室町１丁目１１番１２号日本橋水野ビル７階,,13,102,1030022,,,,,,,2025-05-07,1,,,,,ミラ,0
10,1010003047284,新規,0,2025-05-07,2025-05-07,合同会社ＦＵＬＬＭＩＴＡＳ,,合同会社,東京都,中央区,銀座１丁目１２番４号Ｎ＆ＥＢＬＤ．６Ｆ,,13,102,1040061,,,,,,,2025-05-07,1,,,,,フルミタス,0
12,1010101016653,新規,0,2025-05-07,2025-05-07,多摩産業株式会社,,株式会社,東京都,八王子市,子安町４丁目１０番１０号,,13,201,1920904,,,,,,,2025-05-07,1,,,,,タマサンギョウ,0
22,1010403034964,新規,0,2025-05-07,2025-05-07,合同会社ＯＱＵＹＵＫＩ,,合同会社,東京都,港区,北青山１丁目３－３三橋ビル３階,,13,103,1070061,,,,,,,2025-05-07,1,,,,,オクユキ,0
27,1010501054006,新規,0,2025-05-07,2025-05-07,ジェー・ユー商事株式会社,,株式会社,東京都,台東区,下谷３丁目１番２号ＧＯＧＯオフィス上野入谷８１２,,13,106,1100004,,,,,,,2025-05-07,1,,,,,ジェーユーショウジ,0
28,1010501054014,新規,0,2025-05-07,2025-05-07,株式会社ＴＡＫＡＭＥＲＵ,,株式会社,東京都,台東区,竜泉３丁目４２番７号,,13,106,1100012,,,,,,,2025-05-07,1,,,,,タカメル,0
30,1010601067246,新規,0,2025-05-07,2025-05-07,株式会社Ｓａｋｕｒａ,,株式会社,東京都,江東区,有明２丁目１番２－６１０,,13,108,1350063,,,,,,,2025-05-07,1,,,,,サクラ,0
31,1010601067254,新規,0,2025-05-07,2025-05-07,株式会社スカイパーク,,株式会社,東京都,墨田区,錦糸４丁目１３番３号パークサイド３１－２階,,13,107,1300013,,,,,,,2025-05-07,1,,,,,スカイパーク,0
35,1010701047651,新規,0,2025-05-07,2025-05-07,株式会社ワーク・キャリアエース,,株式会社,東京都,品川区,南大井６丁目２４番１４号第５下川ビル,,13,109,1400013,,,,,,,2025-05-07,1,,,,,ワークキャリアエース,0
36,1010801036117,新規,0,2025-05-07,2025-05-07,東洋株式会社,,株式会社,東京都,大田区,本羽田２丁目１４番１０号,,13,111,1440044,,,,,,,2025-05-07,1,,,,,トウヨウ,0
37,1010901057277,新規,0,2025-05-07,2025-05-07,株式会社Ｌｉｎｋ　Ｃｏｍｐａｎｙ,,株式会社,東京都,世田谷区,駒沢５丁目３番５号,,13,112,1540012,,,,,,,2025-05-07,1,,,,,リンクカンパニー,0
38,1010901057302,新規,0,2025-05-07,2025-05-07,株式会社Ａｘｉｓ,,株式会社,東京都,世田谷区,喜多見３丁目２２番１８号パストラル喜多見２０６,,13,112,1570067,,,,,,,2025-05-07,1,,,,,アクシス,0
43,1011001169277,新規,0,2025-05-07,2025-05-07,株式会社ＴｒｉＶｅｒｓｅ,,株式会社,東京都,渋谷区,道玄坂１丁目１０番８号渋谷道玄坂東急ビル２Ｆ－Ｃ,,13,113,1500043,,,,,,,2025-05-07,1,,,,,トライバース,0
44,1011003021502,新規,0,2025-05-07,2025-05-07,合同会社ことぶきキャピタルマネージメント,,合同会社,東京都,渋谷区,千駄ヶ谷５丁目２６－５代々木シティー７０３,,13,113,1510051,,,,,,,2025-05-07,1,,,,,コトブキキャピタルマネージメント,0
45,1011003021510,新規,0,2025-05-07,2025-05-07,合同会社Ｓｔａｂｉｌｌａ,,合同会社,東京都,目黒区,下目黒５丁目６番１４号,,13,110,1530064,,,,,,,2025-05-07,1,,,,,スタビラ,0
47,1011005011006,新規,0,2025-05-07,2025-05-07,一般社団法人Ｍｅｄｉｃａｌ　Ｐｅａｃｅ　Ｒｏａｄ,,その他の設立登記法人,東京都,目黒区,五本木２丁目３６番５号,,13,110,1530053,,,,,,,2025-05-07,1,,,,,メディカルピースロード,0
52,1011103015858,新規,0,2025-05-07,2025-05-07,ＨＨ　ｅｎｔ　ｊａｐａｎ合同会社,,合同会社,東京都,新宿区,百人町１丁目８－２新宿１８２ビル２階２Ｂ,,13,104,1690073,,,,,,,2025-05-07,1,,,,,エイチエイチエンターテインメントジャパン,0
53,1011201026328,新規,0,2025-05-07,2025-05-07,株式会社飲食フランチャイズ不動産,,株式会社,東京都,中野区,南台５丁目１７－２８ハイムローゼ４０１,,13,114,1640014,,,,,,,2025-05-07,1,,,,,インショクフランチャイズフドウサン,0
56,1011203004686,新規,0,2025-05-07,2025-05-07,合同会社ＦＫＤ,,合同会社,東京都,中野区,新井１丁目２３番９号,,13,114,1650026,,,,,,,2025-05-07,1,,,,,エフケーディー,0
58,1011401027068,新規,0,2025-05-07,2025-05-07,株式会社トモミ,,株式会社,東京都,板橋区,大山町１９番７,,13,119,1730023,,,,,,,2025-05-07,1,,,,,トモミ,0
76,1013301054167,新規,0,2025-05-07,2025-05-07,株式会社東亜,,株式会社,東京都,豊島区,池袋本町４丁目４６番１１号プラウドシティ池袋本町３４４,,13,116,1700011,,,,,,,2025-05-07,1,,,,,トウア,0
77,1013301054183,新規,0,2025-05-07,2025-05-07,株式会社ビクトリー・ワン,,株式会社,東京都,豊島区,南長崎４丁目３９番４号,,13,116,1710052,,,,,,,2025-05-07,1,,,,,ビクトリーワン,0
80,1013303007643,新規,0,2025-05-07,2025-05-07,ｔｅｃｈｓｆｒｅｅ合同会社,,合同会社,東京都,豊島区,東池袋２丁目６２番８号ＢＩＧオフィスプラザ池袋１２０６,,13,116,1700013,,,,,,,2025-05-07,1,,,,,テックスフリー,0
85,1020001162662,新規,0,2025-05-07,2025-05-07,ＨＩＲＯ株式会社,,株式会社,神奈川県,横浜市神奈川区,新町１－２６,,14,102,2210043,,,,,,,2025-05-07,1,,,,,ヒロ,0
86,1020001162679,新規,0,2025-05-07,2025-05-07,株式会社ＳＥＮＡ,,株式会社,神奈川県,横浜市西区,みなとみらい２丁目２番１号ランドマークタワー２０階,,14,103,2200012,,,,,,,2025-05-07,1,,,,,セナ,0
87,1020001162712,新規,0,2025-05-07,2025-05-07,ＭＯＲＥ　ＲＡＹ株式会社,,株式会社,神奈川県,横浜市神奈川区,金港町５－１４クアドリフォリオ８階,,14,102,2210056,,,,,,,2025-05-07,1,,,,,モアレイ,0
91,1020005016823,新規,0,2025-05-07,2025-05-07,一般社団法人ＮＩＴＴＡＩクラブ横浜,,その他の設立登記法人,神奈川県,横浜市青葉区,鴨志田町１２２１番地１,,14,117,2270033,,,,,,,2025-05-07,1,,,,,ニッタイクラブヨコハマ,0
92,1020005016831,新規,0,2025-05-07,2025-05-07,一般社団法人暖,,その他の設立登記法人,神奈川県,横浜市旭区,二俣川１丁目９番地１第一清水ビル２階,,14,112,2410821,,,,,,,2025-05-07,1,,,,,ダン,0
95,1021001085143,新規,0,2025-05-07,2025-05-07,株式会社ネオガイア,,株式会社,神奈川県,平塚市,豊原町１６番１９号,,14,203,2540051,,,,,,,2025-05-07,1,,,,,ネオガイア,0
103,1030001166332,新規,0,2025-05-07,2025-05-07,株式会社高盛企画,,株式会社,埼玉県,川口市,領家５丁目８－１７－１０１号室,,11,203,3320004,,,,,,,2025-05-07,1,,,,,タカモリキカク,0
105,1030003026699,新規,0,2025-05-07,2025-05-07,遥陸合同会社,,合同会社,埼玉県,ふじみ野市,富士見台２番１３号２,,11,245,3560032,,,,,,,2025-05-07,1,,,,,ヨウリク,0
106,1030003026708,新規,0,2025-05-07,2025-05-07,合同会社Ｍｅｎｔｉａ,,合同会社,埼玉県,南埼玉郡宮代町,本田１丁目２番１０号,,11,442,3450827,,,,,,,2025-05-07,1,,,,,メンティア,0
107,1030003026716,新規,0,2025-05-07,2025-05-07,合同会社エムプラス,,合同会社,埼玉県,入間市,宮寺２７２４番地１４カサ・ベルデ１０２,,11,225,3580014,,,,,,,2025-05-07,1,,,,,エムプラス,0
110,1040001138454,新規,0,2025-05-07,2025-05-07,アミリ株式会社,,株式会社,千葉県,四街道市,栗山１０８２－２２イーストワン２０３号室,,12,228,2840027,,,,,,,2025-05-07,1,,,,,アミリ,0
111,1040001138537,新規,0,2025-05-07,2025-05-07,ＳＴＡＲＢＵＲＳＴＡＲ株式会社,,株式会社,千葉県,八千代市,緑が丘１丁目４番１号カムザ・スクエア八千代緑が丘エスタシオン１００６号室,,12,221,2760049,,,,,,,2025-05-07,1,,,,,スターバースター,0
112,1040001138553,新規,0,2025-05-07,2025-05-07,かとうコンサルティンググループ株式会社,,株式会社,千葉県,松戸市,新松戸２丁目１２１番地６階,,12,207,2700034,,,,,,,2025-05-07,1,,,,,カトウコンサルティンググループ,0
113,1040001138561,新規,0,2025-05-07,2025-05-07,株式会社勝浦正樹,,株式会社,千葉県,鎌ケ谷市,東初富３丁目５番２－１号,,12,224,2730122,,,,,,,2025-05-07,1,,,,,カツウラマサキ,0
114,1040001138586,新規,0,2025-05-07,2025-05-07,鈴木塗装株式会社,,株式会社,千葉県,君津市,北子安５丁目１３番８号１０５,,12,225,2991161,,,,,,,2025-05-07,1,,,,,スズキトソウ,0
115,1040003027481,新規,0,2025-05-07,2025-05-07,０４７ＡＣＡＤＥＭＹ合同会社,,合同会社,千葉県,船橋市,本町５丁目４番５号,,12,204,2730005,,,,,,,2025-05-07,1,,,,,ゼロヨンナナアカデミー,0
127,1080001026911,新規,0,2025-05-07,2025-05-07,株式会社ＴＨＩＮＫＵＳ,,株式会社,静岡県,静岡市葵区,栄町２番地５アークビルディング内,,22,101,4200859,,,,,,,2025-05-07,1,,,,,シンカス,0
129,1080101025482,新規,0,2025-05-07,2025-05-07,株式会社しずとう不動産,,株式会社,静岡県,駿東郡長泉町,下長窪８８番地１ヴィクトリー８８・２０３号,,22,342,4110934,,,,,,,2025-05-07,1,,,,,シズトウフドウサン,0
131,1080105006504,新規,0,2025-05-07,2025-05-07,一般社団法人ＢＯＲＤＥＲＬＥＳＳ,,その他の設立登記法人,静岡県,三島市,梅名５４９番地の７,,22,206,4110816,,,,,,,2025-05-07,1,,,,,ボーダーレス,0
132,1080401027897,新規,0,2025-05-07,2025-05-07,株式会社Ｃｒａｙｓ,,株式会社,静岡県,浜松市中央区,初生町１３０４番地の４保田屋ビル２Ｆ－西,,22,138,4338112,,,,,,,2025-05-07,1,,,,,クレイズ,0
136,1100001038565,新規,0,2025-05-07,2025-05-07,株式会社カクナカエステート,,株式会社,長野県,松本市,筑摩２丁目２５番１号,,20,202,3900821,,,,,,,2025-05-07,1,,,,,カクナカエステート,0
137,1100001038581,新規,0,2025-05-07,2025-05-07,山中産業株式会社,,株式会社,長野県,長野市,アークス１０番１０号,,20,201,3800918,,,,,,,2025-05-07,1,,,,,ヤマナカサンギョウ,0
140,1100003008129,新規,0,2025-05-07,2025-05-07,ＳａｗａＬｅａｆ合同会社,,合同会社,長野県,北佐久郡御代田町,大字草越１１７３番地４７２,,20,323,3890202,,,,,,,2025-05-07,1,,,,,サワリーフ,0
141,1100003008137,新規,0,2025-05-07,2025-05-07,合同会社Ｉｎｔｅｒｐｌａｙ,,合同会社,長野県,松本市,大手２丁目４－２,,20,202,3900874,,,,,,,2025-05-07,1,,,,,インタープレイ,0
152,1120001275157,新規,0,2025-05-07,2025-05-07,楽成株式会社,,株式会社,大阪府,大阪市旭区,高殿４丁目１０番１６号,,27,117,5350031,,,,,,,2025-05-07,1,,,,,ラクセイ,0
153,1120001275173,新規,0,2025-05-07,2025-05-07,ＭＴプラント株式会社,,株式会社,大阪府,大阪市都島区,片町１丁目５番１３号大手前センチュリービル４階,,27,102,5340025,,,,,,,2025-05-07,1,,,,,エムティープラント,0
155,1120003029296,新規,0,2025-05-07,2025-05-07,暁エステート合同会社,,合同会社,大阪府,大阪市淀川区,東三国１丁目２２番４号,,27,123,5320002,,,,,,,2025-05-07,1,,,,,アカツキエステート,0
156,1120003029387,新規,0,2025-05-07,2025-05-07,合同会社サーティーン,,合同会社,大阪府,大阪市淀川区,十三東１丁目１６番２‐１１０４号,,27,123,5320023,,,,,,,2025-05-07,1,,,,,サーティーン,0
157,1120003029412,新規,0,2025-05-07,2025-05-07,ＺＢＯＳＡＩ合同会社,,合同会社,大阪府,大阪市北区,梅田１丁目２番２号大阪駅前第２ビル１２‐１２,,27,127,5300001,,,,,,,2025-05-07,1,,,,,ゼットボウサイ,0
159,1120005024923,新規,0,2025-05-07,2025-05-07,フローレンス社会保険労務士法人,,その他の設立登記法人,大阪府,大阪市北区,曾根崎新地１丁目１番４９号,,27,127,5300002,,,,,,,2025-05-07,1,,,,,フローレンス,0
163,1120903005636,新規,0,2025-05-07,2025-05-07,合同会社響喜,,合同会社,大阪府,箕面市,牧落５丁目２番３７号（Ａ－８号）,,27,220,5620004,,,,,,,2025-05-07,1,,,,,ヒビキ,0
166,1122001039137,新規,0,2025-05-07,2025-05-07,株式会社申悦堂,,株式会社,大阪府,八尾市,渋川町７丁目４番３号久宝寺コーポラスＡ棟５０８号室,,27,212,5810075,,,,,,,2025-05-07,1,,,,,シンエツドウ,0
167,1122001039161,新規,0,2025-05-07,2025-05-07,株式会社Ｎｅｘ　Ｂａｓｅ,,株式会社,大阪府,東大阪市,御厨西ノ町１丁目４番２号,,27,227,5770037,,,,,,,2025-05-07,1,,,,,ネクストベース,0
168,1122001039186,新規,0,2025-05-07,2025-05-07,株式会社ＭＫファクトリー,,株式会社,大阪府,東大阪市,稲田本町３丁目２４番５号,,27,227,5770007,,,,,,,2025-05-07,1,,,,,エムケーファクトリー,0
170,1130001079540,新規,0,2025-05-07,2025-05-07,Ｆａｋｅ　Ｒｉｖｅｒ　Ｓｔｕｄｉｏ株式会社,,株式会社,京都府,京都市北区,小山南上総町３番地の８,,26,101,6038149,,,,,,,2025-05-07,1,,,,,フェイクリバースタジオ,0
178,1140001138254,新規,0,2025-05-07,2025-05-07,ＭａｉｓｏｎＯｋａＫｏｓｈｉｅｎ株式会社,,株式会社,兵庫県,西宮市,甲子園浦風町１８番２３号,,28,204,6638165,,,,,,,2025-05-07,1,,,,,メゾンオカコウシエン,0
179,1140001138378,新規,0,2025-05-07,2025-05-07,株式会社シオンコーポレーション,,株式会社,兵庫県,尼崎市,富松町３丁目２０番３４号,,28,202,6610003,,,,,,,2025-05-07,1,,,,,シオンコーポレーション,0
180,1140001138394,新規,0,2025-05-07,2025-05-07,株式会社ｅｌｆ．,,株式会社,兵庫県,神戸市中央区,布引町２丁目３番１０－１５０８号,,28,110,6510097,,,,,,,2025-05-07,1,,,,,エルフ,0
192,1180001166623,新規,0,2025-05-07,2025-05-07,株式会社ＲＹＵＳＹＳＴＥＭ,,株式会社,愛知県,名古屋市昭和区,広路町字梅園２６番地の１,,23,107,4660834,,,,,,,2025-05-07,1,,,,,リュウシステム,0
193,1180001166672,新規,0,2025-05-07,2025-05-07,株式会社松山工業,,株式会社,愛知県,豊明市,新栄町７丁目２４９番地１,,23,229,4701154,,,,,,,2025-05-07,1,,,,,マツヤマコウギョウ,0
194,1180001166680,新規,0,2025-05-07,2025-05-07,ラビン株式会社,,株式会社,愛知県,名古屋市西区,名駅２丁目４番３号ウエスタンビル５階,,23,104,4510045,,,,,,,2025-05-07,1,,,,,ラビン,0
195,1180001166722,新規,0,2025-05-07,2025-05-07,株式会社ＴＭＫメディカルコンサルティング,,株式会社,愛知県,名古屋市中区,丸の内３丁目６番３３号（ザ・パークハウス久屋大通ローレルタワー１９０１号）,,23,106,4600002,,,,,,,2025-05-07,1,,,,,ティーエムケイメディカルコンサルティング,0
198,1180003028425,新規,0,2025-05-07,2025-05-07,合同会社フリーショップ,,合同会社,愛知県,丹羽郡大口町,余野４丁目１２０番地,,23,361,4800146,,,,,,,2025-05-07,1,,,,,フリーショップ,0
199,1180003028433,新規,0,2025-05-07,2025-05-07,合同会社Ｂａｓｔｉｏｎ,,合同会社,愛知県,愛知郡東郷町,大字春木字白土１番地２０９２,,23,302,4700162,,,,,,,2025-05-07,1,,,,,バスティオン,0
203,1180301039776,新規,0,2025-05-07,2025-05-07,株式会社うきゅう,,株式会社,愛知県,豊川市,新青馬町６丁目１４番地,,23,207,4420853,,,,,,,2025-05-07,1,,,,,ウキュウ,0
215,1200001043729,新規,0,2025-05-07,2025-05-07,株式会社オリーブ,,株式会社,岐阜県,岐阜市,加納村松町１丁目４０番地,,21,201,5008458,,,,,,,2025-05-07,1,,,,,オリーブ,0
218,1220001026665,新規,0,2025-05-07,2025-05-07,山本工務店株式会社,,株式会社,石川県,野々市市,稲荷１丁目８６番地信開ベルシー野々市稲荷４０８号,,17,212,9218805,,,,,,,2025-05-07,1,,,,,ヤマモトコウムテン,0
219,1220003004025,新規,0,2025-05-07,2025-05-07,合同会社ファーマーズ白山,,合同会社,石川県,白山市,一塚町１０９番地１,,17,210,9240005,,,,,,,2025-05-07,1,,,,,ファーマーズハクサン,0
221,1230001020881,新規,0,2025-05-07,2025-05-07,株式会社ヒート,,株式会社,富山県,富山市,大泉本町１丁目４番１４号,,16,201,9398094,,,,,,,2025-05-07,1,,,,,ヒート,0
222,1240001064903,新規,0,2025-05-07,2025-05-07,株式会社ＬＴ,,株式会社,広島県,東広島市,八本松南８丁目１２番９号,,34,212,7390144,,,,,,,2025-05-07,1,,,,,エルティー,0
225,1240003007190,新規,0,2025-05-07,2025-05-07,楽々市場合同会社,,合同会社,広島県,広島市佐伯区,楽々園４丁目６番２７号,,34,108,7315136,,,,,,,2025-05-07,1,,,,,ラクラクシジョウ,0
227,1250003003718,新規,0,2025-05-07,2025-05-07,合同会社中医薬膳学院,,合同会社,山口県,宇部市,文京町４番４４号,,35,202,7550056,,,,,,,2025-05-07,1,,,,,チュウイヤクゼンガクイン,0
230,1270005005644,新規,0,2025-05-07,2025-05-07,医療法人Ｓｍｉｌｅ中田歯科医院,,その他の設立登記法人,鳥取県,米子市,尾高２７４１番地４,,31,202,6893514,,,,,,,2025-05-07,1,,,,,スマイルナカダシカイイン,0
240,1290001109868,新規,0,2025-05-07,2025-05-07,株式会社１４１＆Ｃｏ．,,株式会社,福岡県,大川市,大字向島１６９８番地,,40,212,8310005,,,,,,,2025-05-07,1,,,,,イシイアンドコー,0
241,1290001109884,新規,0,2025-05-07,2025-05-07,瀬戸製作所株式会社,,株式会社,福岡県,糟屋郡新宮町,大字的野７３０番地３,,40,345,8110104,,,,,,,2025-05-07,1,,,,,セトセイサクショ,0
247,1290003016781,新規,0,2025-05-07,2025-05-07,合同会社ＫＡＩＺＡＮ,,合同会社,福岡県,筑後市,大字山ノ井７６３番地１２,,40,211,8330031,,,,,,,2025-05-07,1,,,,,カイザン,0
252,1290801031511,新規,0,2025-05-07,2025-05-07,株式会社束屋,,株式会社,福岡県,京都郡みやこ町,勝山黒田２１３６番地３,,40,625,8240822,,,,,,,2025-05-07,1,,,,,ツカヤ,0
258,1300001014174,新規,0,2025-05-07,2025-05-07,株式会社マナハナ,,株式会社,佐賀県,佐賀市,巨勢町大字高尾１８２番地３,,41,201,8400007,,,,,,,2025-05-07,1,,,,,マナハナ,0
259,1300001014182,新規,0,2025-05-07,2025-05-07,楽しむ未来株式会社,,株式会社,佐賀県,唐津市,千々賀６４８番地２,,41,202,8470831,,,,,,,2025-05-07,1,,,,,タノシムミライ,0
260,1300005007240,新規,0,2025-05-07,2025-05-07,一般社団法人みんなで幸せになる会,,その他の設立登記法人,佐賀県,佐賀市,諸富町大字為重２６番地１,,41,201,8402102,,,,,,,2025-05-07,1,,,,,ミンナデシアワセニナルカイ,0
271,1340003004847,新規,0,2025-05-07,2025-05-07,合同会社フロント・リバー,,合同会社,鹿児島県,鹿児島市,石谷町３０１７番地３号,,46,201,8992701,,,,,,,2025-05-07,1,,,,,フロントリバー,0
279,1360003014885,新規,0,2025-05-07,2025-05-07,ＮｅｘｔＴａｂｌｅＡｓｉａ合同会社,,合同会社,沖縄県,那覇市,西３丁目１１－１１－１００１,,47,201,9000036,,,,,,,2025-05-07,1,,,,,ネクストテーブルアジア,0
282,1370003007087,新規,0,2025-05-07,2025-05-07,合同会社フォア・ザ・カスタマー,,合同会社,宮城県,石巻市,大街道東４丁目５－４７,,04,202,9860855,,,,,,,2025-05-07,1,,,,,フォアザカスタマー,0
285,1380001035279,新規,0,2025-05-07,2025-05-07,甘党ＡＩ株式会社,,株式会社,福島県,会津若松市,一箕町大字鶴賀字下居合１４５番地の２,,07,202,9650006,,,,,,,2025-05-07,1,,,,,アマトウエーアイ,0
286,1380001035287,新規,0,2025-05-07,2025-05-07,株式会社福島ミライホールディングス,,株式会社,福島県,いわき市,勿来町白米酒井原２９番地の１,,07,204,9790143,,,,,,,2025-05-07,1,,,,,フクシマミライホールディングス,0
291,1400003003446,新規,0,2025-05-07,2025-05-07,パインエステート合同会社,,合同会社,岩手県,紫波郡紫波町,桜町字上野沢３５番地１,,03,321,0283307,,,,,,,2025-05-07,1,,,,,パインエステート,0
293,1430001094311,新規,0,2025-05-07,2025-05-07,株式会社海の実,,株式会社,北海道,札幌市中央区,北五条西１１丁目１５番地４,,01,101,0600005,,,,,,,2025-05-07,1,,,,,ウミノミ,0
297,1480001012821,新規,0,2025-05-07,2025-05-07,株式会社ＴＧＣホールディングス,,株式会社,徳島県,徳島市,北沖洲４丁目６番６２号,,36,201,7700872,,,,,,,2025-05-07,1,,,,,ティージーシーホールディングス,0
298,1480003002250,新規,0,2025-05-07,2025-05-07,Ｌｉｎｋｓ　ｔｗｏ合同会社,,合同会社,徳島県,徳島市,幸町３丁目１４番２Ｆ,,36,201,7700847,,,,,,,2025-05-07,1,,,,,リンクスツー,0
301,1500001026273,新規,0,2025-05-07,2025-05-07,株式会社ワイズ,,株式会社,愛媛県,松山市,来住町１３７０番地１セジュール来住Ｂ１０５号,,38,201,7911102,,,,,,,2025-05-07,1,,,,,ワイズ,0
302,1500001026281,新規,0,2025-05-07,2025-05-07,株式会社ギャラリーエステイト,,株式会社,愛媛県,松山市,久万ノ台２８３番地１,,38,201,7918016,,,,,,,2025-05-07,1,,,,,ギャラリーエステイト,0
306,1700150130310,新規,0,2025-05-07,2025-05-07,ＪｉａｘｉｎｇＳｈｉＺｈｅｎｇｑｉＧａｏｘｉｎＭｉａｎｌｉａｏＦｕｈｅＹｏｕｘｉａｎＧｏｎｇｓｉ,,外国会社等,,,,,,,,Ｂｕｉｌｄｉｎｇｓ　１－２　＆　４，４１５　Ｊｉａｎｇｎａｎ　Ｒｏａｄ，Ｄａｑｉａｏ　Ｔｏｗｎ，Ｎａｎｈｕ　Ｄｉｓｔｒｉｃｔ，Ｊｉａｘｉｎｇ　Ｃｉｔｙ，Ｚｈｅｊｉａｎｇ　Ｐｒｏｖｉｎｃｅ，Ｃｈｉｎａ,,,,,,2025-05-07,1,,,,,ジャーシンシゼンチガオシンメンリャオフクゴウユウゲンコウシ,0
313,2010001254815,新規,0,2025-05-07,2025-05-07,株式会社Ｐａｃｈｕｍｏ,,株式会社,東京都,文京区,湯島３丁目３９番７号湯島ＳＴビル３０１,,13,105,1130034,,,,,,,2025-05-07,1,,,,,パチュモ,0
314,2010003047234,新規,0,2025-05-07,2025-05-07,ｏｆｆｉｃｅ　Ｋ合同会社,,合同会社,東京都,千代田区,神田和泉町１番地６－１６ヤマトビル４０５,,13,101,1010024,,,,,,,2025-05-07,1,,,,,オフィスケイ,0
315,2010003047283,新規,0,2025-05-07,2025-05-07,合同会社ｂｌｅｎｎｙ,,合同会社,東京都,中央区,月島２丁目１０―１　ムーンアイランドタワー２７１２号室,,13,102,1040052,,,,,,,2025-05-07,1,,,,,ブレニー,0
319,2010101016660,新規,0,2025-05-07,2025-05-07,株式会社いろどり本間工房,,株式会社,東京都,八王子市,川口町２６３４番地７,,13,201,1930801,,,,,,,2025-05-07,1,,,,,イロドリホンマコウボウ,0
323,2010401189801,新規,0,2025-05-07,2025-05-07,株式会社ｔｏｒｏｔａｋ,,株式会社,東京都,港区,白金台５丁目４番１３－４０２号,,13,103,1080071,,,,,,,2025-05-07,1,,,,,トロタクッッ,0
324,2010401189933,新規,0,2025-05-07,2025-05-07,株式会社アスライズ,,株式会社,東京都,港区,六本木３丁目１番３０号Ａ・Ｂビル６Ｆ,,13,103,1060032,,,,,,,2025-05-07,1,,,,,アスライズ,0
327,2010403034971,新規,0,2025-05-07,2025-05-07,合同会社ユルリト,,合同会社,東京都,港区,北青山１丁目３－３三橋ビル３階,,13,103,1070061,,,,,,,2025-05-07,1,,,,,ユルリト,0
328,2010403035029,新規,0,2025-05-07,2025-05-07,合同会社櫻源郷,,合同会社,東京都,港区,芝４丁目６番１６号,,13,103,1080014,,,,,,,2025-05-07,1,,,,,オウゲンキョウ,0
329,2010405024384,新規,0,2025-05-07,2025-05-07,山中ホールディング２一般社団法人,,その他の設立登記法人,東京都,港区,虎ノ門３丁目２２番１０－２０１号,,13,103,1050001,,,,,,,2025-05-07,1,,,,,ヤマナカホールディングツー,0
330,2010501054005,新規,0,2025-05-07,2025-05-07,株式会社ガイアビルマネジメント,,株式会社,東京都,台東区,橋場１丁目３１番７号内田方,,13,106,1110023,,,,,,,2025-05-07,1,,,,,ガイアビルマネジメント,0
332,2010601067237,新規,0,2025-05-07,2025-05-07,株式会社ＡｒＣｏｓｍｏｓ,,株式会社,東京都,江東区,東雲１丁目９番４１号,,13,108,1350062,,,,,,,2025-05-07,1,,,,,アルコスモス,0
336,2010701047535,新規,0,2025-05-07,2025-05-07,ＳＹＳＫＯ株式会社,,株式会社,東京都,品川区,大崎３丁目５番２号エステージ大崎ビル６Ｆ,,13,109,1410032,,,,,,,2025-05-07,1,,,,,シスコ,0
339,2010901057276,新規,0,2025-05-07,2025-05-07,株式会社ハピネス,,株式会社,東京都,世田谷区,代田６丁目３２番６号,,13,112,1550033,,,,,,,2025-05-07,1,,,,,ハピネス,0
341,2010903009894,新規,0,2025-05-07,2025-05-07,合同会社Ｋｉｐｐｅｉ,,合同会社,東京都,世田谷区,上北沢５丁目１２番２－３０１号,,13,112,1560057,,,,,,,2025-05-07,1,,,,,キッペイ,0
347,2011001169268,新規,0,2025-05-07,2025-05-07,株式会社ＨｏｎｅｙＢｅｅ　Ｔｅｃｈ,,株式会社,東京都,渋谷区,道玄坂１丁目１０番８号渋谷道玄坂東急ビル２Ｆ－Ｃ,,13,113,1500043,,,,,,,2025-05-07,1,,,,,ハニービーテック,0
348,2011001169276,新規,0,2025-05-07,2025-05-07,Ａｉ　ＣＭＯ株式会社,,株式会社,東京都,目黒区,中町２丁目３７番１７号ジュネパレス・中町Ｂ,,13,110,1530065,,,,,,,2025-05-07,1,,,,,エーアイシーエムオー,0
350,2011003021534,新規,0,2025-05-07,2025-05-07,合同会社グロブナーマネジメント,,合同会社,東京都,渋谷区,神宮前３丁目３７番１－４０４号,,13,113,1500001,,,,,,,2025-05-07,1,,,,,グロブナーマネジメント,0
358,2011301030559,新規,0,2025-05-07,2025-05-07,株式会社ＡｒｇａＴｉｍｅ,,株式会社,東京都,杉並区,堀ノ内１丁目１４番４号エクセル・ハイム１Ｆ,,13,115,1660013,,,,,,,2025-05-07,1,,,,,アルガタイム,0
360,2011401027067,新規,0,2025-05-07,2025-05-07,株式会社良枠建設,,株式会社,東京都,板橋区,西台４丁目４番３号,,13,119,1750045,,,,,,,2025-05-07,1,,,,,リョウワクケンセツ,0
363,2011503006530,新規,0,2025-05-07,2025-05-07,合同会社リペアベース,,合同会社,東京都,北区,赤羽１丁目７－９赤羽第一葉山ビル４Ｆ,,13,117,1150045,,,,,,,2025-05-07,1,,,,,リペアベース,0
364,2011601028633,新規,0,2025-05-07,2025-05-07,ＣＢＢパートナーズ株式会社,,株式会社,東京都,練馬区,石神井町３丁目２５－１２プラウドタワー石神井公園２００１,,13,120,1770041,,,,,,,2025-05-07,1,,,,,シービービーパートナーズ,0
365,2011703004227,新規,0,2025-05-07,2025-05-07,純幸プランニング合同会社,,合同会社,東京都,江戸川区,南葛西５丁目１７番５－４２４号,,13,123,1340085,,,,,,,2025-05-07,1,,,,,ジュンコウプランニング,0
373,2012801023944,新規,0,2025-05-07,2025-05-07,株式会社プロスペリタス,,株式会社,東京都,日野市,平山２丁目２７番地の７,,13,212,1910043,,,,,,,2025-05-07,1,,,,,プロスペリタス,0
384,2020001162620,新規,0,2025-05-07,2025-05-07,株式会社Ｉ．ＳＱＵＡＤ,,株式会社,神奈川県,横浜市旭区,今宿町２６６０番地５６－１０１,,14,112,2410813,,,,,,,2025-05-07,1,,,,,アイスクワッド,0
394,2020003028415,新規,0,2025-05-07,2025-05-07,Ｋｎｏｗｎｅｘｔ合同会社,,合同会社,神奈川県,川崎市中原区,中丸子１３５番地１アールスタイルズ武蔵小杉ウエスト４０６,,14,133,2110012,,,,,,,2025-05-07,1,,,,,ノウネクスト,0
403,2030001166298,新規,0,2025-05-07,2025-05-07,東新インターナショナル株式会社,,株式会社,埼玉県,草加市,谷塚町１８０４番地１５,,11,221,3400023,,,,,,,2025-05-07,1,,,,,トウシンインターナショナル,0
404,2030001166323,新規,0,2025-05-07,2025-05-07,株式会社キャリアオプション,,株式会社,埼玉県,さいたま市大宮区,下町１丁目２１番地１,,11,103,3300844,,,,,,,2025-05-07,1,,,,,キャリアオプション,0
405,2030001166380,新規,0,2025-05-07,2025-05-07,Ｉ．Ｈ．Ｅ株式会社,,株式会社,埼玉県,川口市,仲町１８番１１,,11,203,3320022,,,,,,,2025-05-07,1,,,,,アイエッチイ,0
407,2030003026715,新規,0,2025-05-07,2025-05-07,ＴＭ‐Ｌａｂｏｒｏ合同会社,,合同会社,埼玉県,日高市,大字鹿山１５４番地１,,11,242,3501231,,,,,,,2025-05-07,1,,,,,ティーエムラボーロ,0
410,2040001138577,新規,0,2025-05-07,2025-05-07,Ｖａｘｅｅ　Ｊａｐａｎ株式会社,,株式会社,千葉県,千葉市花見川区,検見川町１丁目１０４番地１４柳川ビル１階,,12,102,2620023,,,,,,,2025-05-07,1,,,,,ヴァクシージャパン,0
411,2040001138593,新規,0,2025-05-07,2025-05-07,株式会社エスケイ,,株式会社,千葉県,千葉市中央区,寒川町１丁目１０４番地１ファーレ秋元２０３号,,12,101,2600832,,,,,,,2025-05-07,1,,,,,エスケイ,0
412,2040001138619,新規,0,2025-05-07,2025-05-07,ライトレフト株式会社,,株式会社,千葉県,市川市,市川２丁目１６番１,,12,203,2720034,,,,,,,2025-05-07,1,,,,,ライトレフト,0
413,2040003027530,新規,0,2025-05-07,2025-05-07,ＫＡＩ　ＰＭ合同会社,,合同会社,千葉県,柏市,大室１３４０番地４８,,12,217,2770813,,,,,,,2025-05-07,1,,,,,カイプログラムマネジメント,0
432,2080101025481,新規,0,2025-05-07,2025-05-07,株式会社スプリング,,株式会社,静岡県,富士市,今泉７丁目１１番２２号,,22,210,4170001,,,,,,,2025-05-07,1,,,,,スプリング,0
433,2080401027896,新規,0,2025-05-07,2025-05-07,株式会社陽なたぼっこ,,株式会社,静岡県,浜松市中央区,富塚町２０１９番地の８,,22,138,4328002,,,,,,,2025-05-07,1,,,,,ヒナタボッコ,0
445,2120001275148,新規,0,2025-05-07,2025-05-07,株式会社ブーストエックス,,株式会社,大阪府,大阪市城東区,成育２丁目１３番２７号クリニックステーション野江１－Ｂ,,27,118,5360007,,,,,,,2025-05-07,1,,,,,ブーストエックス,0
446,2120001275164,新規,0,2025-05-07,2025-05-07,潤味株式会社,,株式会社,大阪府,大阪市淀川区,西中島４丁目６－３０チサンマンション第５新大阪９０３号室,,27,123,5320011,,,,,,,2025-05-07,1,,,,,ウルミ,0
447,2120001275172,新規,0,2025-05-07,2025-05-07,株式会社ｈｅａｒｔ　ｌｉｎｋ,,株式会社,大阪府,大阪市阿倍野区,天王寺町北２丁目５番５号メゾン山崎２０１号室,,27,119,5450001,,,,,,,2025-05-07,1,,,,,ハートリンク,0
448,2120001275214,新規,0,2025-05-07,2025-05-07,株式会社ＵＣＨＲＯＮＩＡ,,株式会社,大阪府,大阪市淀川区,西中島６丁目２番３－４０７号,,27,123,5320011,,,,,,,2025-05-07,1,,,,,ユークロニア,0
449,2120001275222,新規,0,2025-05-07,2025-05-07,株式会社ＭＧＣホールディングス,,株式会社,大阪府,大阪市北区,東天満２丁目９番４号,,27,127,5300044,,,,,,,2025-05-07,1,,,,,エムジーシーホールディングス,0
450,2120001275544,新規,0,2025-05-07,2025-05-07,株式会社瑞和,,株式会社,大阪府,大阪市浪速区,下寺３丁目９番９－１０１号,,27,111,5560001,,,,,,,2025-05-07,1,,,,,ズイワ,0
451,2120003029262,新規,0,2025-05-07,2025-05-07,ＴＱ　ＧＬＯＢＡＬ合同会社,,合同会社,大阪府,大阪市東住吉区,矢田２丁目１６番７号,,27,121,5460023,,,,,,,2025-05-07,1,,,,,ティキュグローバル,0
452,2120003029295,新規,0,2025-05-07,2025-05-07,合同会社Ｃａｃｔｕｓ,,合同会社,大阪府,大阪市北区,梅田１丁目２番２号大阪駅前第２ビル１２－１２,,27,127,5300001,,,,,,,2025-05-07,1,,,,,カクタス,0
453,2120003029304,新規,0,2025-05-07,2025-05-07,合同会社ファミリー,,合同会社,大阪府,大阪市生野区,新今里４丁目１１番１９－２０３号クイーンライフ新今里,,27,116,5440001,,,,,,,2025-05-07,1,,,,,ファミリー,0
456,2120101071595,新規,0,2025-05-07,2025-05-07,株式会社Ｅａｒｔｈ　Ｓｅｅｄ,,株式会社,大阪府,堺市堺区,南庄町１丁１番３９－１１０１号,,27,141,5900008,,,,,,,2025-05-07,1,,,,,アースシード,0
457,2120101071604,新規,0,2025-05-07,2025-05-07,株式会社オオヒロコーポレーション,,株式会社,大阪府,岸和田市,岸野町１８番８号,,27,202,5960051,,,,,,,2025-05-07,1,,,,,オオヒロコーポレーション,0
458,2120103006442,新規,0,2025-05-07,2025-05-07,合同会社スカイ代行,,合同会社,大阪府,高石市,取石４丁目８番２２号,,27,225,5920013,,,,,,,2025-05-07,1,,,,,スカイダイコウ,0
460,2122001039177,新規,0,2025-05-07,2025-05-07,株式会社ヤマタネドキュメントマネジメント,,株式会社,大阪府,東大阪市,川俣１丁目１４番３０号,,27,227,5770063,,,,,,,2025-05-07,1,,,,,ヤマタネドキュメントマネジメント,0
467,2130001079564,新規,0,2025-05-07,2025-05-07,株式会社Ｔｉｍｅｌｅｓｓ,,株式会社,京都府,城陽市,市辺城下２１番地の１,,26,207,6100114,,,,,,,2025-05-07,1,,,,,タイムレス,0
470,2130003010428,新規,0,2025-05-07,2025-05-07,りあん合同会社,,合同会社,京都府,亀岡市,荒塚町２丁目６番３号,00139027,26,206,6210851,,,,,,,2025-05-07,1,,,,,リアン,0
472,2140001138393,新規,0,2025-05-07,2025-05-07,株式会社Ｐｉｌａｓｔｒｏ,,株式会社,兵庫県,神戸市長田区,松野通１丁目１０－７徳原ビル４Ｆ,,28,106,6530841,,,,,,,2025-05-07,1,,,,,ピラストロ,0
473,2140001138427,新規,0,2025-05-07,2025-05-07,トラストブリッジジャパン株式会社,,株式会社,兵庫県,神戸市兵庫区,築地町３番３０号,,28,105,6520845,,,,,,,2025-05-07,1,,,,,トラストブリッジジャパン,0
477,2140002071437,新規,0,2025-05-07,2025-05-07,有限会社中村建築設計工房,,有限会社,兵庫県,加古川市,平岡町新在家３０２番地,,28,210,6750101,,,,,,,2025-05-07,1,,,,,ナカムラケンチクセッケイコウボウ,0
484,2150001028107,新規,0,2025-05-07,2025-05-07,株式会社Ａｍａｔｅｒａｓｕ,,株式会社,奈良県,奈良市,杉ヶ町３９－１シャーメゾンＮＡＣ２０３号室,,29,201,6308357,,,,,,,2025-05-07,1,,,,,アマテラス,0
486,2150003003594,新規,0,2025-05-07,2025-05-07,ＴＫＧ合同会社,,合同会社,奈良県,橿原市,雲梯町５１３番地の６,,29,205,6340834,,,,,,,2025-05-07,1,,,,,ティーケージー,0
488,2160001026720,新規,0,2025-05-07,2025-05-07,日本ホーナー株式会社,,株式会社,滋賀県,甲賀市,水口町酒人２５３番地,,25,209,5280054,,,,,,,2025-05-07,1,,,,,ニホンホーナー,0
489,2160001026729,新規,0,2025-05-07,2025-05-07,株式会社サフィーラ,,株式会社,滋賀県,東近江市,八日市町４番３号,,25,213,5270029,,,,,,,2025-05-07,1,,,,,サフィーラ,0
491,2180001166663,新規,0,2025-05-07,2025-05-07,株式会社Ｍ’ｓ　Ｓｔｒｉｖｅ,,株式会社,愛知県,海部郡蟹江町,大字今字二之坪３８番地２４,,23,425,4970032,,,,,,,2025-05-07,1,,,,,エムズストライヴ,0
492,2180001166671,新規,0,2025-05-07,2025-05-07,つなぐ不動産株式会社,,株式会社,愛知県,名古屋市西区,平中町３４８番地,,23,104,4520843,,,,,,,2025-05-07,1,,,,,ツナグフドウサン,0
493,2180001166688,新規,0,2025-05-07,2025-05-07,Ｎプロマネジメント株式会社,,株式会社,愛知県,名古屋市北区,駒止町２丁目１３６番地,,23,103,4620059,,,,,,,2025-05-07,1,,,,,エヌプロマネジメント,0
494,2180001166738,新規,0,2025-05-07,2025-05-07,株式会社エスライド,,株式会社,愛知県,名古屋市中村区,名駅３丁目４番１０号アルティメイト１ｓｔ２階,,23,105,4500002,,,,,,,2025-05-07,1,,,,,エスライド,0
502,2180003028440,新規,0,2025-05-07,2025-05-07,合同会社ＪＯＳＨＯ,,合同会社,愛知県,名古屋市西区,名西１丁目２４－１５上良ビル２階,,23,104,4510064,,,,,,,2025-05-07,1,,,,,ジョーショウ,0
504,2180301039775,新規,0,2025-05-07,2025-05-07,株式会社ＷＯＬＫ,,株式会社,愛知県,豊川市,西塚町１丁目５５番地,00139033,23,207,4420838,,,,,,,2025-05-07,1,,,,,ウォルク,0
505,2180301039783,新規,0,2025-05-07,2025-05-07,株式会社ＳＡ商事,,株式会社,愛知県,豊田市,西中山町才ケ洞１０番地４０,,23,211,4700431,,,,,,,2025-05-07,1,,,,,エスエーショウジ,0
506,2180303006559,新規,0,2025-05-07,2025-05-07,合同会社ゼロベース,,合同会社,愛知県,豊橋市,花田町字中郷９２番地１１,,23,201,4418024,,,,,,,2025-05-07,1,,,,,ゼロベース,0
512,2190003005018,新規,0,2025-05-07,2025-05-07,合同会社エスジェイ,,合同会社,三重県,四日市市,あさけが丘２丁目１番地１８８,,24,202,5128055,,,,,,,2025-05-07,1,,,,,,0
515,2210001020156,新規,0,2025-05-07,2025-05-07,株式会社浦田商事,,株式会社,福井県,敦賀市,舞崎町４２－２－１,,18,202,9140053,,,,,,,2025-05-07,1,,,,,ウラタショウジ,0
516,2210005010203,新規,0,2025-05-07,2025-05-07,一般社団法人ＲＩＳＥＭＩＳＳＩＯＮ,,その他の設立登記法人,福井県,敦賀市,長沢４号５番地の４,,18,202,9140046,,,,,,,2025-05-07,1,,,,,ライズミッション,0
517,2220001026656,新規,0,2025-05-07,2025-05-07,株式会社大和電工,,株式会社,石川県,野々市市,本町６丁目１６番４－８号,,17,212,9218815,,,,,,,2025-05-07,1,,,,,ヤマトデンコウ,0
518,2220001026664,新規,0,2025-05-07,2025-05-07,株式会社だいだいだ,,株式会社,石川県,金沢市,諸江町上丁５０３番地２,,17,201,9200015,,,,,,,2025-05-07,1,,,,,ダイダイダ,0
519,2220003004024,新規,0,2025-05-07,2025-05-07,合同会社ＬＡＣマネージメント,,合同会社,石川県,金沢市,米泉町８丁目１４７番地３,,17,201,9218044,,,,,,,2025-05-07,1,,,,,ラックマネージメント,0
520,2230001020880,新規,0,2025-05-07,2025-05-07,株式会社ａｎｅ,,株式会社,富山県,富山市,上冨居２丁目９番８７号,,16,201,9300835,,,,,,,2025-05-07,1,,,,,エーエヌイー,0
525,2240001064902,新規,0,2025-05-07,2025-05-07,株式会社ファーストステップ,,株式会社,広島県,広島市中区,広瀬北町３番１１号,,34,101,7300803,,,,,,,2025-05-07,1,,,,,ファーストステップ,0
526,2240003007173,新規,0,2025-05-07,2025-05-07,合同会社ライフインデックス,,合同会社,広島県,広島市南区,東雲本町１丁目１１番７号,,34,103,7340023,,,,,,,2025-05-07,1,,,,,ライフインデックス,0
528,2250001021126,新規,0,2025-05-07,2025-05-07,ゆだホールディングス株式会社,,株式会社,山口県,山口市,大内長野４６２番地１,,35,203,7530211,,,,,,,2025-05-07,1,,,,,ユダホールディングス,0
529,2260001040158,新規,0,2025-05-07,2025-05-07,株式会社星輝,,株式会社,岡山県,岡山市北区,駅前町１丁目１ＰＥＳＣＡ岡山地下１号１７,,33,101,7000023,,,,,,,2025-05-07,1,,,,,スターライト,0
530,2260001040166,新規,0,2025-05-07,2025-05-07,株式会社ＭＩＳＡＫＡ,,株式会社,岡山県,岡山市南区,宗津９５９番地９,,33,104,7091216,,,,,,,2025-05-07,1,,,,,ミサカ,0
533,2260003005159,新規,0,2025-05-07,2025-05-07,合同会社めぐる,,合同会社,岡山県,岡山市北区,牟佐９２６番地４,,33,101,7012141,,,,,,,2025-05-07,1,,,,,メグル,0
534,2260003005167,新規,0,2025-05-07,2025-05-07,Ｎａｔｉｏｎａｌ　Ａｓｉａｎ合同会社,,合同会社,岡山県,岡山市北区,野田屋町２丁目３番２号,,33,101,7000815,,,,,,,2025-05-07,1,,,,,ナショナルアジアン,0
536,2280003001949,新規,0,2025-05-07,2025-05-07,合同会社エフ,,合同会社,島根県,松江市,学園２丁目１６番３５－１４０３号,,32,201,6900825,,,,,,,2025-05-07,1,,,,,エフ,0
540,2290001109875,新規,0,2025-05-07,2025-05-07,三大株式会社,,株式会社,福岡県,福岡市博多区,博多駅前２丁目１９番１７号トーカン博多第５ビル３１２号室,,40,132,8120011,,,,,,,2025-05-07,1,,,,,サンダイ,0
541,2290001109900,新規,0,2025-05-07,2025-05-07,クマガエ空調株式会社,,株式会社,福岡県,糟屋郡粕屋町,戸原東１丁目８番地１－１２０５号,,40,349,8112318,,,,,,,2025-05-07,1,,,,,クマガエクウチョウ,0
542,2290001109909,新規,0,2025-05-07,2025-05-07,株式会社アクシリンク,,株式会社,福岡県,福岡市博多区,那珂６丁目９－８,,40,132,8120893,,,,,,,2025-05-07,1,,,,,アクシリンク,0
543,2290001109917,新規,0,2025-05-07,2025-05-07,株式会社日電テクノラジ,,株式会社,福岡県,福岡市東区,松島３丁目２５番５号,,40,131,8130062,,,,,,,2025-05-07,1,,,,,ニチデンテクノラジ,0
546,2290003016780,新規,0,2025-05-07,2025-05-07,合同会社Ｎａｔｔｙ,,合同会社,福岡県,大野城市,筒井１丁目７番１０号ＳＡＫＵＲＡ２０３号,,40,219,8160931,,,,,,,2025-05-07,1,,,,,ナッティ,0
547,2290003016797,新規,0,2025-05-07,2025-05-07,合同会社ＲＭ＆Ｉ,,合同会社,福岡県,福岡市南区,的場２丁目３９－３,,40,134,8111314,,,,,,,2025-05-07,1,,,,,アールエムアンドアイ,0
550,2290005019732,新規,0,2025-05-07,2025-05-07,弁護士法人ＡＭＵＧＩ法律事務所,,その他の設立登記法人,福岡県,福岡市博多区,中洲５丁目３番８号アクア博多５Ｆ,,40,132,8100801,,,,,,,2025-05-07,1,,,,,アムギホウリツジムショ,0
557,2320001021085,新規,0,2025-05-07,2025-05-07,株式会社三軌,,株式会社,大分県,大分市,松原町３丁目５番６号,,44,201,8700913,,,,,,,2025-05-07,1,,,,,サンキ,0
558,2320005010241,新規,0,2025-05-07,2025-05-07,一般社団法人わくわくスマイル,,その他の設立登記法人,大分県,大分市,大字木上７７番地の１,,44,201,8701161,,,,,,,2025-05-07,1,,,,,ワクワクスマイル,0
560,2330001033170,新規,0,2025-05-07,2025-05-07,株式会社ホシノ,,株式会社,熊本県,天草市,牛深町１４４４番地４,,43,215,8631901,,,,,,,2025-05-07,1,,,,,ホシノ,0
574,2370001052539,新規,0,2025-05-07,2025-05-07,株式会社ＷｉＸ,,株式会社,宮城県,仙台市泉区,松陵３丁目３４番地の１２,,04,105,9813108,,,,,,,2025-05-07,1,,,,,ウィックス,0
575,2370003007086,新規,0,2025-05-07,2025-05-07,合同会社明志,,合同会社,宮城県,仙台市泉区,歩坂町５番２５号ハイライズ歩坂１０２,,04,105,9813106,,,,,,,2025-05-07,1,,,,,メイシ,0
576,2380001035278,新規,0,2025-05-07,2025-05-07,株式会社Ｊ．ＲＥＥＤ,,株式会社,福島県,郡山市,細沼町６番１２号,,07,203,9638015,,,,,,,2025-05-07,1,,,,,ジェイリード,0
589,2430001094310,新規,0,2025-05-07,2025-05-07,株式会社アスリア,,株式会社,北海道,登別市,若草町６丁目２４番地３,,01,230,0590035,,,,,,,2025-05-07,1,,,,,アスリア,0
590,2430001094327,新規,0,2025-05-07,2025-05-07,株式会社Ｋ‐４ｏｒｃｅ．ＬＩＦＥ,,株式会社,北海道,札幌市中央区,北三条東８丁目３７１番地２シャンテ北３条４０２号,,01,101,0600033,,,,,,,2025-05-07,1,,,,,ケーフォースライフ,0
591,2430003017558,新規,0,2025-05-07,2025-05-07,合同会社ＡＦＲＯ　ＰＡＲＴＹ,,合同会社,北海道,札幌市中央区,宮の森三条１２丁目１－１愛生館ラボ,,01,101,0640953,,,,,,,2025-05-07,1,,,,,アフロパーティー,0
594,2500001026280,新規,0,2025-05-07,2025-05-07,株式会社ＭＯＲＩＴＡ,,株式会社,愛媛県,松山市,北井門４丁目１９番３号,,38,201,7911105,,,,,,,2025-05-07,1,,,,,モリタ,0
610,3010001254649,新規,0,2025-05-07,2025-05-07,Ｒ１９９６株式会社,,株式会社,東京都,中央区,日本橋富沢町４番１０号京成日本橋富沢町ビル２Ｆ,,13,102,1030006,,,,,,,2025-05-07,1,,,,,アールイチキューキューロク,0
611,3010001254764,新規,0,2025-05-07,2025-05-07,株式会社ｏｒｂｉｓ,,株式会社,東京都,中央区,銀座１丁目２２番１１号銀座大竹ビジデンス２Ｆ,,13,102,1040061,,,,,,,2025-05-07,1,,,,,オルビス,0
614,3010003047266,新規,0,2025-05-07,2025-05-07,合同会社Ｌｅ　Ｄａｌｉ,,合同会社,東京都,中央区,銀座５丁目１４番１７号,,13,102,1040061,,,,,,,2025-05-07,1,,,,,ルダリ,0
615,3010003047274,新規,0,2025-05-07,2025-05-07,合同会社メープルコンサルティング,,合同会社,東京都,中央区,銀座１丁目１２番４号Ｎ＆ＥＢＬＤ．６Ｆ,,13,102,1040061,,,,,,,2025-05-07,1,,,,,メープルコンサルティング,0
616,3010003047282,新規,0,2025-05-07,2025-05-07,合同会社東流,,合同会社,東京都,文京区,西片１丁目１３番８－１０６号,,13,105,1130024,,,,,,,2025-05-07,1,,,,,アズマリュウ,0
619,3010005040021,新規,0,2025-05-07,2025-05-07,トリピックピーオー一般社団法人,,その他の設立登記法人,東京都,千代田区,丸の内１丁目４番１号東京共同会計事務所内,,13,101,1000005,,,,,,,2025-05-07,1,,,,,トリピックピーオー,0
628,3010401190147,新規,0,2025-05-07,2025-05-07,ノードリンク株式会社,,株式会社,東京都,港区,北青山１丁目３－３三橋ビル３階,,13,103,1070061,,,,,,,2025-05-07,1,,,,,ノードリンク,0
632,3010403034970,新規,0,2025-05-07,2025-05-07,三天合同会社,,合同会社,東京都,港区,北青山１丁目３－１アールキューブ青山３階,,13,103,1070061,,,,,,,2025-05-07,1,,,,,サンテン,0
633,3010403034987,新規,0,2025-05-07,2025-05-07,合同会社ＥＧＵ,,合同会社,東京都,港区,白金台３丁目１３番１号,,13,103,1080071,,,,,,,2025-05-07,1,,,,,イージーユー,0
634,3010405024383,新規,0,2025-05-07,2025-05-07,山中ホールディング１一般社団法人,,その他の設立登記法人,東京都,港区,虎ノ門３丁目２２番１０－２０１号,,13,103,1050001,,,,,,,2025-05-07,1,,,,,ヤマナカホールディングワン,0
645,3010601067211,新規,0,2025-05-07,2025-05-07,株式会社ノア,,株式会社,東京都,江東区,有明１丁目５番２号ブリリア有明シティタワー３１１６,,13,108,1350063,,,,,,,2025-05-07,1,,,,,ノア,0
646,3010601067228,新規,0,2025-05-07,2025-05-07,アリノバ株式会社,,株式会社,東京都,江東区,有明１丁目２番１１－２３０１号,,13,108,1350063,,,,,,,2025-05-07,1,,,,,アリノバ,0
649,3010703007701,新規,0,2025-05-07,2025-05-07,合同会社ケーエムエフワイ,,合同会社,東京都,品川区,豊町３丁目７－６－３０２,,13,109,1420042,,,,,,,2025-05-07,1,,,,,ケーエムエフワイ,0
653,3010901057309,新規,0,2025-05-07,2025-05-07,株式会社ＰＯＮＯ建築事務所,,株式会社,東京都,世田谷区,経堂２丁目７番１８号,,13,112,1560052,,,,,,,2025-05-07,1,,,,,ポノケンチクジムショ,0
665,3011001169275,新規,0,2025-05-07,2025-05-07,株式会社ＹｏｒｏｚＷｏｒｋｓ,,株式会社,東京都,渋谷区,道玄坂１丁目１０番８号渋谷道玄坂東急ビル２Ｆ－Ｃ,,13,113,1500043,,,,,,,2025-05-07,1,,,,,ヨロズワークス,0
666,3011001169366,新規,0,2025-05-07,2025-05-07,株式会社パッションムーバーズ,,株式会社,東京都,渋谷区,桜丘町２０番４号,,13,113,1500031,,,,,,,2025-05-07,1,,,,,パッションムーバーズ,0
667,3011001169416,新規,0,2025-05-07,2025-05-07,株式会社ＢＴＬ,,株式会社,東京都,渋谷区,恵比寿西２丁目８番４号ＥＸ恵比寿西ビル５階,,13,113,1500021,,,,,,,2025-05-07,1,,,,,ビーティーエル,0
668,3011001169663,新規,0,2025-05-07,2025-05-07,株式会社美肌道,,株式会社,東京都,渋谷区,渋谷２丁目１９－１５－６０９,,13,113,1500002,,,,,,,2025-05-07,1,,,,,ビハダドウ,0
676,3011203004676,新規,0,2025-05-07,2025-05-07,合同会社品原設計室一級建築士事務所,,合同会社,東京都,中野区,中央２丁目２６番５号,,13,114,1640011,,,,,,,2025-05-07,1,,,,,シナハラセッケイシツイッキュウケンチクシジムショ,0
684,3011301030566,新規,0,2025-05-07,2025-05-07,株式会社ＭＹＳＴ,,株式会社,東京都,杉並区,高円寺南４丁目４１番９号,,13,115,1660003,,,,,,,2025-05-07,1,,,,,ミスト,0
696,3012703003267,新規,0,2025-05-07,2025-05-07,ＭａｒｂｌｅＮｅｒｏ合同会社,,合同会社,東京都,清瀬市,下清戸１丁目２８８番地１９,,13,221,2040011,,,,,,,2025-05-07,1,,,,,マーブルネロ,0
700,3013301054165,新規,0,2025-05-07,2025-05-07,株式会社Ｄ・Ｏ・Ｉ,,株式会社,東京都,豊島区,池袋２丁目８番２号,,13,116,1710014,,,,,,,2025-05-07,1,,,,,,0
710,3020001162677,新規,0,2025-05-07,2025-05-07,株式会社Ｓ‐Ｌｏｇ,,株式会社,神奈川県,横浜市南区,永田北３丁目８－８－３０１,,14,105,2320071,,,,,,,2025-05-07,1,,,,,エスログ,0
714,3020003028348,新規,0,2025-05-07,2025-05-07,合同会社関東総合住建,,合同会社,神奈川県,横浜市保土ケ谷区,初音ケ丘３１－２６メゾン初音１０１,,14,106,2400016,,,,,,,2025-05-07,1,,,,,カントウソウゴウジュウケン,0
715,3020003028406,新規,0,2025-05-07,2025-05-07,ハーモニー経営コンサルティング合同会社,,合同会社,神奈川県,横浜市港南区,日野３丁目４番１２－４０６号,,14,111,2340051,,,,,,,2025-05-07,1,,,,,ハーモニーケイエイコンサルティング,0
725,3030001166322,新規,0,2025-05-07,2025-05-07,株式会社２１７ラボ,,株式会社,埼玉県,さいたま市浦和区,常盤２丁目１６番１４－２号,,11,107,3300061,,,,,,,2025-05-07,1,,,,,ニイナラボ,0
726,3030001166396,新規,0,2025-05-07,2025-05-07,株式会社ヨシ土建,,株式会社,埼玉県,川口市,上青木西２丁目６番１８号,,11,203,3330845,,,,,,,2025-05-07,1,,,,,ヨシドケン,0
732,3040001138353,新規,0,2025-05-07,2025-05-07,株式会社未来ｅｇｇｓ,,株式会社,千葉県,流山市,三輪野山２丁目７番地の３,,12,220,2700175,,,,,,,2025-05-07,1,,,,,ミライエッグス,0
733,3040001138394,新規,0,2025-05-07,2025-05-07,株式会社Ｒ＆Ｒ,,株式会社,千葉県,銚子市,清川町２丁目４－５,,12,202,2880817,,,,,,,2025-05-07,1,,,,,アールアンドアール,0
734,3040001138502,新規,0,2025-05-07,2025-05-07,フリークリエイト株式会社,,株式会社,千葉県,習志野市,奏の杜２丁目３番１号８０７,,12,216,2750028,,,,,,,2025-05-07,1,,,,,フリークリエイト,0
735,3040001138551,新規,0,2025-05-07,2025-05-07,株式会社Ｇｊａｌｌａｒｈｏｒｎ,,株式会社,千葉県,柏市,若柴１７８番地４柏の葉キャンパス１４８街区１パークシティ柏の葉キャンパス・ザ・ゲートタワーウェスト３階Ｖ１３９,,12,217,2770871,,,,,,,2025-05-07,1,,,,,ギャラルホルン,0
736,3040001138576,新規,0,2025-05-07,2025-05-07,株式会社クラウドシンクソリューションズ,,株式会社,千葉県,八千代市,上高野１１４２番地１０,,12,221,2760022,,,,,,,2025-05-07,1,,,,,クラウドシンクソリューションズ,0
737,3040001138584,新規,0,2025-05-07,2025-05-07,株式会社ＲＥＮＴＯ,,株式会社,千葉県,館山市,館山９４８番地,,12,205,2940036,,,,,,,2025-05-07,1,,,,,レント,0
742,3040003027463,新規,0,2025-05-07,2025-05-07,合同会社ＡＩＦｏｒｇｅ,,合同会社,千葉県,千葉市美浜区,幸町２丁目１４番１１棟５０６号,,12,106,2610001,,,,,,,2025-05-07,1,,,,,エーアイフォージ,0
743,3040003027488,新規,0,2025-05-07,2025-05-07,合同会社Ｒｏｏｔｓ,,合同会社,千葉県,船橋市,二子町４７１番地１リッツコート西船橋３０４,,12,204,2730034,,,,,,,2025-05-07,1,,,,,ルーツ,0
748,3080001026926,新規,0,2025-05-07,2025-05-07,株式会社ｅＬｉｇｈｔ,,株式会社,静岡県,静岡市駿河区,宮竹１丁目３番１０号ラビータ１０３,,22,102,4228035,,,,,,,2025-05-07,1,,,,,イーライト,0
759,3100001038563,新規,0,2025-05-07,2025-05-07,株式会社Ｓｔｕｄｉｏ　Ａ．Ａｌｉｇｎ,,株式会社,長野県,北佐久郡軽井沢町,大字長倉８１１番地１メリー・モナークＡ棟２０２,,20,321,3890111,,,,,,,2025-05-07,1,,,,,スタジオエーアライン,0
781,3120001275089,新規,0,2025-05-07,2025-05-07,ＳＵＢＡＲＵインターナショナル株式会社,,株式会社,大阪府,大阪市北区,角田町８番１号大阪梅田ツインタワーズ・ノース１９Ｆ,,27,127,5300017,,,,,,,2025-05-07,1,,,,,スバルインターナショナル,0
782,3120001275147,新規,0,2025-05-07,2025-05-07,かさねフーズ株式会社,,株式会社,大阪府,大阪市北区,芝田２丁目２番１７号梅田和光ビル７階,,27,127,5300012,,,,,,,2025-05-07,1,,,,,カサネフーズ,0
783,3120001275155,新規,0,2025-05-07,2025-05-07,株式会社よつ葉,,株式会社,大阪府,大阪市淀川区,十三本町１丁目７番３０号,,27,123,5320024,,,,,,,2025-05-07,1,,,,,ヨツバ,0
784,3120001275171,新規,0,2025-05-07,2025-05-07,ネオビジ株式会社,,株式会社,大阪府,大阪市西成区,南津守５丁目９番２３号３Ｆ,,27,122,5570063,,,,,,,2025-05-07,1,,,,,ネオビジ,0
785,3120001275196,新規,0,2025-05-07,2025-05-07,株式会社Ｈｕｉ．,,株式会社,大阪府,大阪市北区,長柄中１丁目７番７号ＬｕＸｅ天六ＩＩ１階,00139036,27,127,5310062,,,,,,,2025-05-07,1,,,,,フイ,0
786,3120001275221,新規,0,2025-05-07,2025-05-07,株式会社ＡＴＴＡ,,株式会社,大阪府,大阪市北区,豊崎３丁目１７番１５－３０１号,,27,127,5310072,,,,,,,2025-05-07,1,,,,,アッタ,0
792,3120003029311,新規,0,2025-05-07,2025-05-07,革工房リッキー合同会社,,合同会社,大阪府,大阪市大正区,泉尾３丁目１６番１５号,,27,108,5510031,,,,,,,2025-05-07,1,,,,,カワコウボウリッキー,0
793,3120003029410,新規,0,2025-05-07,2025-05-07,合同会社エヌケーティージャパン,,合同会社,大阪府,大阪市福島区,福島５丁目６番３号,,27,103,5530003,,,,,,,2025-05-07,1,,,,,エヌケーティージャパン,0
796,3120103006425,新規,0,2025-05-07,2025-05-07,合同会社ｏｎｅ　ｏｆｆ,,合同会社,大阪府,羽曳野市,伊賀２丁目１１番１０号,,27,222,5830876,,,,,,,2025-05-07,1,,,,,ワンオフ,0
797,3120103006441,新規,0,2025-05-07,2025-05-07,合同会社Ｑｕａｎ　Ｌｉｎｈ　Ｅｘｐｒｅｓｓ,,合同会社,大阪府,堺市西区,鳳西町２丁２９９番地の３－１階Ａ,,27,144,5938326,,,,,,,2025-05-07,1,,,,,クアンリンエクスプレス,0
803,3120903005642,新規,0,2025-05-07,2025-05-07,コーマファシリティーズ合同会社,,合同会社,大阪府,吹田市,千里山西２丁目１番４７号,,27,205,5650851,,,,,,,2025-05-07,1,,,,,コーマファシリティーズ,0
804,3122001039184,新規,0,2025-05-07,2025-05-07,株式会社Ａｉｏｎ　Ｎｅｘｔ,,株式会社,大阪府,東大阪市,加納１丁目５番１０－４０２号,,27,227,5780901,,,,,,,2025-05-07,1,,,,,アイオンネクスト,0
806,3122005003822,新規,0,2025-05-07,2025-05-07,一般社団法人私らしいキャリアデザイン,,その他の設立登記法人,大阪府,八尾市,上之島町北２丁目３１番地の１４,,27,212,5810845,,,,,,,2025-05-07,1,,,,,ワタシラシイキャリアデザイン,0
808,3130001079596,新規,0,2025-05-07,2025-05-07,株式会社アルク,,株式会社,京都府,京丹後市,久美浜町大向４１１番地,,26,212,6293423,,,,,,,2025-05-07,1,,,,,アルク,0
811,3130003010427,新規,0,2025-05-07,2025-05-07,下鴨パートナーズ合同会社,,合同会社,京都府,京都市左京区,下鴨梅ノ木町３７番地藤原マンション２－Ｂ,,26,103,6060851,,,,,,,2025-05-07,1,,,,,シモガモパートナーズ,0
818,3140001138351,新規,0,2025-05-07,2025-05-07,Ｙｏｕｔｏｐｉａ株式会社,,株式会社,兵庫県,姫路市,忍町１７２番地１－９０２号,,28,201,6700917,,,,,,,2025-05-07,1,,,,,ユートピア,0
819,3140001138384,新規,0,2025-05-07,2025-05-07,鉱盛貿易株式会社,,株式会社,兵庫県,三木市,大村４４３番地,,28,215,6730404,,,,,,,2025-05-07,1,,,,,コウセイボウエキ,0
820,3140001138418,新規,0,2025-05-07,2025-05-07,株式会社インターシティ,,株式会社,兵庫県,宝塚市,青葉台１丁目２１番３０号,,28,214,6650014,,,,,,,2025-05-07,1,,,,,インターシティ,0
821,3140001138426,新規,0,2025-05-07,2025-05-07,丸二森本機設株式会社,,株式会社,兵庫県,尼崎市,西昆陽１丁目７番６－２号,,28,202,6610047,,,,,,,2025-05-07,1,,,,,マルニモリモトキセツ,0
826,3160001026728,新規,0,2025-05-07,2025-05-07,エースＨＤ株式会社,,株式会社,滋賀県,草津市,岡本町１０００番地６８,,25,206,5250044,,,,,,,2025-05-07,1,,,,,エースホールディングス,0
828,3170001018617,新規,0,2025-05-07,2025-05-07,株式会社ＡＯパートナーズ,,株式会社,和歌山県,和歌山市,黒田１０８番地７,,30,201,6408341,,,,,,,2025-05-07,1,,,,,エイオーパートナーズ,0
835,3180001166588,新規,0,2025-05-07,2025-05-07,俊縁株式会社,,株式会社,愛知県,半田市,雁宿町２丁目２７番地の２２,,23,205,4750918,,,,,,,2025-05-07,1,,,,,シュンエン,0
836,3180001166613,新規,0,2025-05-07,2025-05-07,株式会社ＳＯＲＡＭＥＬ,,株式会社,愛知県,一宮市,花池２丁目２４番１０号シュヴェルニー１０２号室,,23,203,4910914,,,,,,,2025-05-07,1,,,,,ソラメル,0
837,3180001166662,新規,0,2025-05-07,2025-05-07,株式会社川美,,株式会社,愛知県,瀬戸市,見付町８８番地の１０,,23,204,4890808,,,,,,,2025-05-07,1,,,,,カワヨシ,0
838,3180001166679,新規,0,2025-05-07,2025-05-07,株式会社レイテック,,株式会社,愛知県,名古屋市守山区,天子田４丁目１２０４番地,,23,113,4630037,,,,,,,2025-05-07,1,,,,,レイテック,0
839,3180001166695,新規,0,2025-05-07,2025-05-07,株式会社廣設備,,株式会社,愛知県,名古屋市港区,小賀須４丁目２０３番地の２,,23,111,4550882,,,,,,,2025-05-07,1,,,,,ヒロセツビ,0
840,3180001166720,新規,0,2025-05-07,2025-05-07,株式会社Ｆｏｕｒ　Ｗｈｅｅｌ,,株式会社,愛知県,江南市,東野町神上１２９番地５－１４０８,,23,217,4838422,,,,,,,2025-05-07,1,,,,,フォーホイール,0
842,3180003028423,新規,0,2025-05-07,2025-05-07,合同会社ブレンウェーブ,,合同会社,愛知県,名古屋市中川区,東起町３丁目１７番地　ラ・メゾン・エスポワール２０２,,23,110,4540935,,,,,,,2025-05-07,1,,,,,ブレンウェーブ,0
844,3180301039782,新規,0,2025-05-07,2025-05-07,スタッフエージェント株式会社,,株式会社,愛知県,安城市,御幸本町７番８号ライジングサン安城Ｅ－ｒｏｏｍｓ３２（３２１号室）,,23,212,4460032,,,,,,,2025-05-07,1,,,,,スタッフエージェント,0
852,3200001043727,新規,0,2025-05-07,2025-05-07,株式会社ＪＳＩＮＴＥＲＮＡＴＩＯＮＡＬ,,株式会社,岐阜県,岐阜市,折立１３０番地１千万アパート西棟二－４５号室,,21,201,5011132,,,,,,,2025-05-07,1,,,,,ジェイエスインターナショナル,0
853,3200003006797,新規,0,2025-05-07,2025-05-07,尚林合同会社,,合同会社,岐阜県,飛騨市,古川町上野５８３－３,,21,217,5094263,,,,,,,2025-05-07,1,,,,,ショウリン,0
855,3210001020155,新規,0,2025-05-07,2025-05-07,株式会社建築一家,,株式会社,福井県,坂井市,丸岡町小黒第３４号１４番地,,18,210,9100315,,,,,,,2025-05-07,1,,,,,ケンチクイッカ,0
857,3210003001921,新規,0,2025-05-07,2025-05-07,Ｏｎｅ　Ｐｒｏｔｅｃｔｉｏｎ合同会社,,合同会社,福井県,越前市,矢放町第８号１１番地の９,,18,209,9150052,,,,,,,2025-05-07,1,,,,,ワンプロテクション,0
859,3220001026671,新規,0,2025-05-07,2025-05-07,株式会社Ｉｋｅｄａ　Ｓｔａｂｌｅ,,株式会社,石川県,金沢市,千木町ワ１１番地（アンシャンテ１０２号）,,17,201,9200001,,,,,,,2025-05-07,1,,,,,イケダステイブル,0
860,3240003007180,新規,0,2025-05-07,2025-05-07,合同会社松本,,合同会社,広島県,東広島市,黒瀬楢原東１丁目２番１０号,00139026,34,212,7392628,,,,,,,2025-05-07,1,,,,,マツモト,0
861,3240003007189,新規,0,2025-05-07,2025-05-07,ベスト管理合同会社,,合同会社,広島県,広島市西区,西観音町２１番１号,,34,104,7330037,,,,,,,2025-05-07,1,,,,,ベストカンリ,0
867,3260001040157,新規,0,2025-05-07,2025-05-07,ＫＳＪ２‐１株式会社,,株式会社,岡山県,岡山市北区,錦町１番１号岡山駅前ビル４階,,33,101,7000902,,,,,,,2025-05-07,1,,,,,ケイエスジェーツーワン,0
869,3260003005166,新規,0,2025-05-07,2025-05-07,Ｂａｂａｒ　Ｔｒａｄｉｎｇ合同会社,,合同会社,岡山県,岡山市北区,原１１１５番地の１,,33,101,7012154,,,,,,,2025-05-07,1,,,,,ババルトレーディング,0
872,3280003001948,新規,0,2025-05-07,2025-05-07,合同会社櫻堂,,合同会社,島根県,益田市,中島町イ１０４８番地,,32,204,6980043,,,,,,,2025-05-07,1,,,,,サクラドウ,0
881,3290001109833,新規,0,2025-05-07,2025-05-07,Ｎｅｘｓｐｉｒｅ株式会社,,株式会社,福岡県,福岡市博多区,博多駅前１丁目２３番２号ＰａｒｋＦｒｏｎｔ博多駅前１丁目５Ｆ－Ｂ,,40,132,8120011,,,,,,,2025-05-07,1,,,,,ネクスパイア,0
882,3290001109866,新規,0,2025-05-07,2025-05-07,株式会社フレックスインベスト,,株式会社,福岡県,久留米市,山川町１３１９番地３９,,40,203,8390817,,,,,,,2025-05-07,1,,,,,フレックスインベスト,0
883,3290001109874,新規,0,2025-05-07,2025-05-07,ＫＨ株式会社,,株式会社,福岡県,福岡市中央区,薬院３丁目８番１６－８０５号,,40,133,8100022,,,,,,,2025-05-07,1,,,,,ケーエイチ,0
888,3300001014172,新規,0,2025-05-07,2025-05-07,株式会社吉八工業,,株式会社,佐賀県,三養基郡みやき町,大字東津１０２８番地２,,41,346,8401104,,,,,,,2025-05-07,1,,,,,ヨシヤコウギョウ,0
889,3300001014180,新規,0,2025-05-07,2025-05-07,中央地所株式会社,,株式会社,佐賀県,佐賀市,高木瀬東２丁目２番３７号,,41,201,8490922,,,,,,,2025-05-07,1,,,,,チュウオウジショ,0
893,3320001021084,新規,0,2025-05-07,2025-05-07,株式会社深栄建設,,株式会社,大分県,大分市,大字猪野１５８０番地,,44,201,8700134,,,,,,,2025-05-07,1,,,,,シンエイケンセツ,0
894,3320003004649,新規,0,2025-05-07,2025-05-07,合同会社トビラボ,,合同会社,大分県,別府市,大字鉄輪２０３番地,,44,202,8740000,,,,,,,2025-05-07,1,,,,,トビラボ,0
900,3330001033161,新規,0,2025-05-07,2025-05-07,みのる緒方株式会社,,株式会社,熊本県,熊本市中央区,保田窪１丁目５番２３号,,43,101,8620926,,,,,,,2025-05-07,1,,,,,ミノルオガタ,0
901,3330003010992,新規,0,2025-05-07,2025-05-07,合同会社フォーエタニティー,,合同会社,熊本県,熊本市中央区,新町１丁目１０番３号コーポ山崎１Ｆ,,43,101,8600004,,,,,,,2025-05-07,1,,,,,フォーエタニティー,0
903,3350001019514,新規,0,2025-05-07,2025-05-07,株式会社Ｕ‐Ｔｒａｄ,,株式会社,宮崎県,宮崎市,佐土原町上田島３９５８番地２,,45,201,8800301,,,,,,,2025-05-07,1,,,,,ユートラッド,0
904,3350003004927,新規,0,2025-05-07,2025-05-07,アゲイン合同会社,,合同会社,宮崎県,宮崎市,希望ケ丘３丁目２番１３号,,45,201,8800923,,,,,,,2025-05-07,1,,,,,アゲイン,0
907,3370001052554,新規,0,2025-05-07,2025-05-07,ＢＥＫＯＡ株式会社,,株式会社,宮城県,仙台市太白区,郡山２丁目１１番６－２号,,04,104,9820003,,,,,,,2025-05-07,1,,,,,ベコア,0
913,3380003006029,新規,0,2025-05-07,2025-05-07,ｅ‐Ｆａｍｉｌｙ合同会社,,合同会社,福島県,会津若松市,一箕町大字鶴賀字下居合１４５番地２,,07,202,9650006,,,,,,,2025-05-07,1,,,,,イーファミリー,0
919,3410003004094,新規,0,2025-05-07,2025-05-07,合同会社ヨミノワ,,合同会社,秋田県,秋田市,御所野堤台１丁目６番７４－３号,,05,201,0101419,,,,,,,2025-05-07,1,,,,,ヨミノワ,0
921,3430001094334,新規,0,2025-05-07,2025-05-07,ＷＥＢＷＩＲＥ株式会社,,株式会社,北海道,札幌市白石区,本郷通８丁目南３番１号ライオンズマンション本郷通第二２Ｆ,,01,104,0030024,,,,,,,2025-05-07,1,,,,,ウェブワイア,0
922,3430001094367,新規,0,2025-05-07,2025-05-07,株式会社クラスエステート,,株式会社,北海道,札幌市中央区,伏見２丁目４番８号,,01,101,0640942,,,,,,,2025-05-07,1,,,,,クラスエステート,0
923,3430005015229,新規,0,2025-05-07,2025-05-07,特定非営利活動法人ＫＩＴｓ,,その他の設立登記法人,北海道,札幌市東区,北二十一条東１８丁目４－８イグレック２０２号室,,01,103,0650021,,,,,,,2025-05-07,1,,,,,キッツ,0
924,3440001009605,新規,0,2025-05-07,2025-05-07,株式会社Ｖｅｒｄｅ,,株式会社,北海道,函館市,田家町４番１４号,,01,202,0400081,,,,,,,2025-05-07,1,,,,,ヴェルデ,0
925,3460001006006,新規,0,2025-05-07,2025-05-07,株式会社ＡＫ産業,,株式会社,北海道,厚岸郡厚岸町,港町２丁目３番地ハスコート・リーヴァＩ２０２号室,00139019,01,662,0881128,,,,,,,2025-05-07,1,,,,,,0
926,3460301005293,新規,0,2025-05-07,2025-05-07,株式会社佐々木農園,,株式会社,北海道,斜里郡小清水町,南町１丁目４６番４－２０７号,,01,547,0993642,,,,,,,2025-05-07,1,,,,,ササキノウエン,0
928,3470001020690,新規,0,2025-05-07,2025-05-07,株式会社グローバルくらしサポート,,株式会社,香川県,高松市,番町４丁目１０番１６号,,37,201,7600017,,,,,,,2025-05-07,1,,,,,グローバルクラシサポート,0
931,3480005007089,新規,0,2025-05-07,2025-05-07,一般社団法人Ｍａｓｊｉｄ　Ｉｎｄｏｎｅｓｉａ　Ｔｏｋｕｓｈｉｍａ,,その他の設立登記法人,徳島県,吉野川市,川島町桑村２１８７番地１,,36,205,7793303,,,,,,,2025-05-07,1,,,,,マスジドインドネシアトクシマ,0
932,3490001011036,新規,0,2025-05-07,2025-05-07,株式会社ネクスト,,株式会社,高知県,高知市,上町１丁目１番１９号,,39,201,7800901,,,,,,,2025-05-07,1,,,,,ネクスト,0
935,3500001026271,新規,0,2025-05-07,2025-05-07,株式会社Ｖａｌｕｅ,,株式会社,愛媛県,松山市,南江戸５丁目２番３６号ベルエトワール３０１号,,38,201,7900062,,,,,,,2025-05-07,1,,,,,バリュー,0
946,4010001254648,新規,0,2025-05-07,2025-05-07,祝融文化株式会社,,株式会社,東京都,千代田区,西神田２丁目１－２,,13,101,1010065,,,,,,,2025-05-07,1,,,,,シュクユウ,0
947,4010001254747,新規,0,2025-05-07,2025-05-07,東京中央信用保証株式会社,,株式会社,東京都,中央区,新川２丁目２７番１号,,13,102,1040033,,,,,,,2025-05-07,1,,,,,トウキョウチュウオウシンヨウホショウ,0
948,4010001254771,新規,0,2025-05-07,2025-05-07,Ａｔａｇｏインテグラル２株式会社,,株式会社,東京都,千代田区,丸の内１丁目９番２号,,13,101,1000005,,,,,,,2025-05-07,1,,,,,アタゴインテグラルツー,0
949,4010001254813,新規,0,2025-05-07,2025-05-07,株式会社Ｓｅｖｅｎｓｔａｒｓ,,株式会社,東京都,千代田区,外神田６丁目１５番１４号外神田ストークビル３１４,,13,101,1010021,,,,,,,2025-05-07,1,,,,,セブンスターズ,0
954,4010005040004,新規,0,2025-05-07,2025-05-07,真庭ソーラー一般社団法人,,その他の設立登記法人,東京都,千代田区,霞が関３丁目２番５号霞が関ビルディング３１階,,13,101,1000013,,,,,,,2025-05-07,1,,,,,マニワソーラー,0
962,4010401189956,新規,0,2025-05-07,2025-05-07,Ａｎｃｈｏｒｓ　Ｐａｒｔｎｅｒ株式会社,,株式会社,東京都,港区,南青山３丁目１番３６号青山丸竹ビル６Ｆ,,13,103,1070062,,,,,,,2025-05-07,1,,,,,アンカーズパートナー,0
963,4010401190063,新規,0,2025-05-07,2025-05-07,Ｅｘｐｅｒｔ　Ｉｎｎｏｖａｔｉｏｎ　Ｌａｂｓ株式会社,,株式会社,東京都,港区,芝浦３丁目６番１４号、１１階,,13,103,1080023,,,,,,,2025-05-07,1,,,,,エキスパートイノベーションラブズ,0
964,4010403034953,新規,0,2025-05-07,2025-05-07,合同会社ＣＨＩＱＵＷＡ,,合同会社,東京都,港区,北青山１丁目３番１号アールキューブ青山３階,,13,103,1070061,,,,,,,2025-05-07,1,,,,,チクワ,0
967,4010601067243,新規,0,2025-05-07,2025-05-07,同乾投資株式会社,,株式会社,東京都,墨田区,東向島５丁目２番３号メゾン・ド・Ｕ１階,,13,107,1310032,,,,,,,2025-05-07,1,,,,,ドウカントウシ,0
972,4010902008417,新規,0,2025-05-07,2025-05-07,有限会社スワロー,,有限会社,東京都,世田谷区,船橋５丁目３１番７号,,13,112,1560055,,,,,,,2025-05-07,1,,,,,スワロー,0
976,4010903009892,新規,0,2025-05-07,2025-05-07,合同会社Ｓｈｉｆｔｅｘ,,合同会社,東京都,世田谷区,駒沢４丁目１８－１６フレンドバレー駒沢５０２,,13,112,1540012,,,,,,,2025-05-07,1,,,,,シフテックス,0
980,4011001169241,新規,0,2025-05-07,2025-05-07,Ｇ・ＣＡＴ株式会社,,株式会社,東京都,渋谷区,桜丘町２６番１号,,13,113,1500031,,,,,,,2025-05-07,1,,,,,ジーキャット,0
981,4011001169282,新規,0,2025-05-07,2025-05-07,株式会社スタイルレス,,株式会社,東京都,渋谷区,道玄坂１丁目１０番８号渋谷道玄坂東急ビル２Ｆ－Ｃ,,13,113,1500043,,,,,,,2025-05-07,1,,,,,スタイルレス,0
983,4011003021482,新規,0,2025-05-07,2025-05-07,合同会社たびびと,,合同会社,東京都,渋谷区,渋谷３丁目２－４,,13,113,1500002,,,,,,,2025-05-07,1,,,,,タビビト,0
989,4011103015780,新規,0,2025-05-07,2025-05-07,ＬＲＥ０１号合同会社,,合同会社,東京都,新宿区,四谷２丁目９番地１５東京ユナイテッド綜合事務所内,,13,104,1600004,,,,,,,2025-05-07,1,,,,,エルアールイーゼロイチゴウ,0
991,4011201026333,新規,0,2025-05-07,2025-05-07,株式会社かわつよ,,株式会社,東京都,中野区,本町２丁目４１番１４－１０８号,,13,114,1640012,,,,,,,2025-05-07,1,,,,,カワツヨ,0
993,4011401027065,新規,0,2025-05-07,2025-05-07,株式会社一安吉映,,株式会社,東京都,板橋区,大谷口北町３４番５号,,13,119,1730031,,,,,,,2025-05-07,1,,,,,イチヤスヨシエイ,0
1007,4012703003266,新規,0,2025-05-07,2025-05-07,合同会社Ｒｅ．ＮＩＮＥ,,合同会社,東京都,西東京市,向台六丁目１２番１５号,,13,229,2020000,,,,,,,2025-05-07,1,,,,,リアナイン,0
1008,4012801023942,新規,0,2025-05-07,2025-05-07,株式会社ＲｅＫｒｅｉ,,株式会社,東京都,立川市,錦町４丁目８番１２号タームスつかさ３０３号,,13,202,1900022,,,,,,,2025-05-07,1,,,,,リクレイ,0
1010,4013105001874,新規,0,2025-05-07,2025-05-07,一般社団法人ラポール,,その他の設立登記法人,東京都,青梅市,柚木町３丁目５７０番地の１,,13,205,1980064,,,,,,,2025-05-07,1,,,,,ラポール,0
1025,4020001162668,新規,0,2025-05-07,2025-05-07,株式会社ＲｅｖｏＬｅａｆ,,株式会社,神奈川県,横浜市西区,北幸２丁目１０番４８号むつみビル３階,,14,103,2200004,,,,,,,2025-05-07,1,,,,,レボリーフ,0
1028,4020003028388,新規,0,2025-05-07,2025-05-07,合同会社一凛,,合同会社,神奈川県,横浜市旭区,本宿町２０―３―１０５,,14,112,2410023,,,,,,,2025-05-07,1,,,,,イチリン,0
1029,4020003028405,新規,0,2025-05-07,2025-05-07,ＭｙｓＡ合同会社,,合同会社,神奈川県,横浜市鶴見区,豊岡町２０－２１,,14,101,2300062,,,,,,,2025-05-07,1,,,,,ミーサ,0
1030,4020005016845,新規,0,2025-05-07,2025-05-07,一般社団法人能の心を未来へ伝える会,,その他の設立登記法人,神奈川県,横浜市磯子区,岡村７丁目２９番１０号,,14,107,2350021,,,,,,,2025-05-07,1,,,,,ノウノココロヲミライヘツタエルカイ,0
1043,4030001165926,新規,0,2025-05-07,2025-05-07,株式会社リボンプロジェクト,,株式会社,埼玉県,狭山市,入間川１丁目２１番２号３,,11,215,3501305,,,,,,,2025-05-07,1,,,,,リボンプロジェクト,0
1044,4030001166321,新規,0,2025-05-07,2025-05-07,株式会社ノーブルガーデンエステーツ,,株式会社,埼玉県,川口市,安行出羽３丁目１番８号,,11,203,3340052,,,,,,,2025-05-07,1,,,,,ノーブルガーデンエステーツ,0
1045,4030001166354,新規,0,2025-05-07,2025-05-07,株式会社Ｄｓインテクト,,株式会社,埼玉県,さいたま市西区,プラザ３５番１２号,,11,101,3310063,,,,,,,2025-05-07,1,,,,,ディーエスインテクト,0
1046,4030001166379,新規,0,2025-05-07,2025-05-07,株式会社レイラカーズ,,株式会社,埼玉県,さいたま市岩槻区,東町２丁目６番１号,,11,110,3390055,,,,,,,2025-05-07,1,,,,,レイラカーズ,0
1048,4030003026688,新規,0,2025-05-07,2025-05-07,合同会社シャインオン,,合同会社,埼玉県,朝霞市,根岸台４丁目１３番４３－３号,,11,227,3510005,,,,,,,2025-05-07,1,,,,,シャインオン,0
1056,4040001138575,新規,0,2025-05-07,2025-05-07,株式会社さくらいデータビジネス,,株式会社,千葉県,浦安市,日の出７丁目５番８号,,12,227,2790013,,,,,,,2025-05-07,1,,,,,サクライデータビジネス,0
1057,4040001138583,新規,0,2025-05-07,2025-05-07,株式会社Ｎｕｒｖｉｓ,,株式会社,千葉県,袖ケ浦市,蔵波２９２２番地５７,,12,229,2990243,,,,,,,2025-05-07,1,,,,,ナーヴィス,0
1061,4040005022759,新規,0,2025-05-07,2025-05-07,一般社団法人Ｂｅｓｈａ千葉このえ,,その他の設立登記法人,千葉県,松戸市,松戸新田３４２番地の２１５,,12,207,2702241,,,,,,,2025-05-07,1,,,,,ビーシャナチバコノエ,0
1066,4060001038162,新規,0,2025-05-07,2025-05-07,ベンチャーテック株式会社,,株式会社,栃木県,河内郡上三川町,大字鞘堂４４８番地１１,,09,301,3290526,,,,,,,2025-05-07,1,,,,,ベンチャーテック,0
1072,4070001042741,新規,0,2025-05-07,2025-05-07,株式会社日本リサイクル産業,,株式会社,群馬県,太田市,東長岡町４２０番地３、２階,,10,205,3730812,,,,,,,2025-05-07,1,,,,,ニッポンリサイクルサンギョウ,0
1075,4070003005911,新規,0,2025-05-07,2025-05-07,合同会社美養と酵母を,,合同会社,群馬県,利根郡川場村,大字川場湯原２６９１番地,,10,444,3780102,,,,,,,2025-05-07,1,,,,,ビヨウトコウボヲ,0
1078,4080001026925,新規,0,2025-05-07,2025-05-07,株式会社ネオリックス,,株式会社,静岡県,静岡市駿河区,丸子６２９０－２９,,22,102,4210103,,,,,,,2025-05-07,1,,,,,ネオリックス,0
1082,4080401027894,新規,0,2025-05-07,2025-05-07,株式会社ＲＫアシスト,,株式会社,静岡県,磐田市,豊田１７３番地,,22,211,4380808,,,,,,,2025-05-07,1,,,,,アールケイアシスト,0
1090,4100001038562,新規,0,2025-05-07,2025-05-07,株式会社暁,,株式会社,長野県,長野市,大字鶴賀緑町１４１８番地,,20,201,3800813,,,,,,,2025-05-07,1,,,,,アカツキ,0
1097,4110001039238,新規,0,2025-05-07,2025-05-07,株式会社ＭｏＭＯ企画,,株式会社,新潟県,三条市,本町４丁目１番１３号,,15,204,9550071,,,,,,,2025-05-07,1,,,,,モモキカク,0
1114,4120001275146,新規,0,2025-05-07,2025-05-07,株式会社たもつ,,株式会社,大阪府,枚方市,招提大谷３丁目５番３号,,27,210,5731153,,,,,,,2025-05-07,1,,,,,タモツ,0
1115,4120001275170,新規,0,2025-05-07,2025-05-07,株式会社ＭＩＳＡＭＡＲＵ,,株式会社,大阪府,大阪市北区,梅田１丁目１－３大阪駅前第３ビル２９階１－１－１号室,,27,127,5300001,,,,,,,2025-05-07,1,,,,,ミサマル,0
1116,4120001275187,新規,0,2025-05-07,2025-05-07,株式会社長楽,,株式会社,大阪府,大阪市淀川区,西中島７丁目１－３チサンマンション第８新大阪１００７号室,,27,123,5320011,,,,,,,2025-05-07,1,,,,,ナガラク,0
1117,4120001275204,新規,0,2025-05-07,2025-05-07,エイワインターナショナル株式会社,,株式会社,大阪府,大阪市中央区,博労町４丁目２番８号ＬＯＧＥＲ４０１,,27,128,5410059,,,,,,,2025-05-07,1,,,,,エイワインターナショナル,0
1118,4120001275501,新規,0,2025-05-07,2025-05-07,Ｈａｒｍｏｎｙ　Ｈｏｍｅｓ株式会社,,株式会社,大阪府,大阪市中央区,南船場２丁目８番１１号シナプス心斎橋８０４号,,27,128,5420081,,,,,,,2025-05-07,1,,,,,ハーモニーホームズ,0
1119,4120001275526,新規,0,2025-05-07,2025-05-07,優正株式会社,,株式会社,大阪府,大阪市福島区,鷺洲５丁目７番２号,,27,103,5530002,,,,,,,2025-05-07,1,,,,,ユウセイ,0
1120,4120001275666,新規,0,2025-05-07,2025-05-07,株式会社ＶｉｔａＢａｓｅ,,株式会社,大阪府,大阪市北区,梅田１丁目２番２号大阪駅前第２ビル１２‐１２,,27,127,5300001,,,,,,,2025-05-07,1,,,,,ビータベース,0
1123,4120005024920,新規,0,2025-05-07,2025-05-07,一般社団法人日本レーザークリーナ協会,,その他の設立登記法人,大阪府,大阪市北区,梅田３丁目２番１２３号イノゲート大阪１５０２,,27,127,5300001,,,,,,,2025-05-07,1,,,,,ニホンレーザークリーナキョウカイ,0
1125,4120101071560,新規,0,2025-05-07,2025-05-07,株式会社アイシーイー,,株式会社,大阪府,貝塚市,窪田１６０番地１ミューズ二色Ｃ棟１０１号,,27,208,5970052,,,,,,,2025-05-07,1,,,,,アイシーイー,0
1126,4120101071577,新規,0,2025-05-07,2025-05-07,株式会社Ｍ．ＣＲＥＡＴＥ,,株式会社,大阪府,堺市西区,平岡町２８番地２０,,27,144,5938307,,,,,,,2025-05-07,1,,,,,エムクリエイト,0
1132,4122003003195,新規,0,2025-05-07,2025-05-07,ミライエ合同会社,,合同会社,大阪府,東大阪市,永和３丁目７番１０号,,27,227,5770809,,,,,,,2025-05-07,1,,,,,ミライエ,0
1134,4130001079554,新規,0,2025-05-07,2025-05-07,ジランドールすみくら株式会社,,株式会社,京都府,京都市中京区,新椹木町通二条上る角倉町２２２番地１ジランドールすみくら５０１号,,26,104,6040913,,,,,,,2025-05-07,1,,,,,ジランドールスミクラ,0
1136,4130003010426,新規,0,2025-05-07,2025-05-07,合同会社Ｂｌａｎｃ,,合同会社,京都府,京都市下京区,東洞院通七条東入材木町４９９番地京都駅前第七ビル３Ｆ,,26,106,6000000,,,,,,,2025-05-07,1,,,,,ブラン,0
1137,4130005017361,新規,0,2025-05-07,2025-05-07,一般社団法人ＤＵＳＳ,,その他の設立登記法人,京都府,京都市右京区,鳴滝本町２３番地,,26,108,6168242,,,,,,,2025-05-07,1,,,,,ディーユーエスエス,0
1140,4140001138318,新規,0,2025-05-07,2025-05-07,株式会社ｐｒｉｍａ,,株式会社,兵庫県,西宮市,門戸荘１７－６８,,28,204,6620825,,,,,,,2025-05-07,1,,,,,プリマ,0
1141,4140001138375,新規,0,2025-05-07,2025-05-07,株式会社サバイブル,,株式会社,兵庫県,尼崎市,潮江２丁目３９番２８号,,28,202,6610976,,,,,,,2025-05-07,1,,,,,サバイブル,0
1142,4140001138383,新規,0,2025-05-07,2025-05-07,東鵬飲料株式会社,,株式会社,兵庫県,神戸市東灘区,向洋町中６丁目９番地神戸ファッションマート,,28,101,6580032,,,,,,,2025-05-07,1,,,,,トウホウインリョウ,0
1143,4140001138425,新規,0,2025-05-07,2025-05-07,株式会社Ｓｐｌｕｓ,,株式会社,兵庫県,神戸市北区,上津台２丁目２番１７号,,28,109,6511515,,,,,,,2025-05-07,1,,,,,エスプラス,0
1144,4140001138458,新規,0,2025-05-07,2025-05-07,株式会社Ａｃａｎｔｈｕｓ,,株式会社,兵庫県,神戸市灘区,弓木町４丁目３番１号ラ・トゥール六甲Ｅ棟１９０５,,28,102,6570026,,,,,,,2025-05-07,1,,,,,アカンサス,0
1148,4150001028105,新規,0,2025-05-07,2025-05-07,株式会社ミチサポート,,株式会社,奈良県,生駒市,谷田町１６１５アコール生駒もやい館４階,,29,209,6300251,,,,,,,2025-05-07,1,,,,,ミチサポート,0
1149,4150005009695,新規,0,2025-05-07,2025-05-07,医療法人四つ葉会,,その他の設立登記法人,奈良県,奈良市,大安寺町５１４－１－Ｃ３,,29,201,6308134,,,,,,,2025-05-07,1,,,,,ヨツバカイ,0
1151,4170001018608,新規,0,2025-05-07,2025-05-07,株式会社榮,,株式会社,和歌山県,西牟婁郡白浜町,２６７９番地の３,,30,401,6492211,,,,,,,2025-05-07,1,,,,,サカエ,0
1157,4180001166637,新規,0,2025-05-07,2025-05-07,株式会社Ｄ．Ｃｏｒｐｏｒａｔｉｏｎ,,株式会社,愛知県,一宮市,萩原町萩原字押切１５番地１,,23,203,4910353,,,,,,,2025-05-07,1,,,,,ディーコーポレーション,0
1159,4180003028439,新規,0,2025-05-07,2025-05-07,冲日電気合同会社,,合同会社,愛知県,名古屋市天白区,原４丁目１３１０番地サンクレーア原２０１号,,23,116,4680015,,,,,,,2025-05-07,1,,,,,チュウニチデンキ,0
1162,4180005021086,新規,0,2025-05-07,2025-05-07,特定非営利活動法人アールズ,,その他の設立登記法人,愛知県,名古屋市北区,楠４丁目３１２番地２,,23,103,4620012,,,,,,,2025-05-07,1,,,,,アールズ,0
1168,4200003006805,新規,0,2025-05-07,2025-05-07,合同会社ＭＵＵ,,合同会社,岐阜県,高山市,初田町３丁目１４番地２３,,21,203,5060008,,,,,,,2025-05-07,1,,,,,ムー,0
1171,4210001020154,新規,0,2025-05-07,2025-05-07,株式会社ふじはらや,,株式会社,福井県,三方上中郡若狭町,世久見第１３号２６番地,,18,501,9191464,,,,,,,2025-05-07,1,,,,,フジハラヤ,0
1175,4220001026654,新規,0,2025-05-07,2025-05-07,株式会社夜木,,株式会社,石川県,金沢市,此花町２番４号,,17,201,9200852,,,,,,,2025-05-07,1,,,,,ヨギ,0
1176,4220001026662,新規,0,2025-05-07,2025-05-07,株式会社ＴＡＩＷＡ,,株式会社,石川県,金沢市,戸板５丁目１４０番地２,,17,201,9200068,,,,,,,2025-05-07,1,,,,,タイワ,0
1178,4220003004022,新規,0,2025-05-07,2025-05-07,合同会社ＷＡＢＩ,,合同会社,石川県,金沢市,みずき１丁目１９２番地,,17,201,9200201,,,,,,,2025-05-07,1,,,,,ワビ,0
1180,4230001020879,新規,0,2025-05-07,2025-05-07,株式会社草野オフィス,,株式会社,富山県,富山市,向新庄町７丁目１１番１３号,,16,201,9300916,,,,,,,2025-05-07,1,,,,,クサノオフィス,0
1181,4230001020887,新規,0,2025-05-07,2025-05-07,株式会社ケーオーシステムワークス,,株式会社,富山県,砺波市,小杉９２番地,,16,208,9391357,,,,,,,2025-05-07,1,,,,,ケーオーシステムワークス,0
1182,4230001020895,新規,0,2025-05-07,2025-05-07,株式会社ＢＡＮＤＯ,,株式会社,富山県,下新川郡入善町,西中３７９番地,,16,342,9380104,,,,,,,2025-05-07,1,,,,,バンドウ,0
1189,4250001021124,新規,0,2025-05-07,2025-05-07,ユナイテッドリカーズ株式会社,,株式会社,山口県,岩国市,山手町１丁目２１番２号,,35,208,7400022,,,,,,,2025-05-07,1,,,,,ユナイテッドリカーズ,0
1190,4250001021132,新規,0,2025-05-07,2025-05-07,株式会社ＭＩＨＡＴＡ,,株式会社,山口県,下松市,瑞穂町２丁目１４番１号,,35,207,7440075,,,,,,,2025-05-07,1,,,,,ミハタ,0
1191,4250001021140,新規,0,2025-05-07,2025-05-07,ＫＭテック株式会社,,株式会社,山口県,下松市,大字東豊井１１４４番地８,,35,207,7440002,,,,,,,2025-05-07,1,,,,,ケイエムテック,0
1195,4260001040172,新規,0,2025-05-07,2025-05-07,株式会社プラスイン,,株式会社,岡山県,岡山市中区,浜３丁目９番１８号１Ｆ,,33,102,7038256,,,,,,,2025-05-07,1,,,,,プラスイン,0
1205,4290003016770,新規,0,2025-05-07,2025-05-07,合同会社ロハス糸島,,合同会社,福岡県,福岡市博多区,博多駅前１丁目２３番２号５Ｆ－Ｂ,,40,132,8120011,,,,,,,2025-05-07,1,,,,,ロハスイトシマ,0
1208,4290801031509,新規,0,2025-05-07,2025-05-07,株式会社洸成工業,,株式会社,福岡県,北九州市門司区,松崎町４番２７号（１０５）,,40,101,8000012,,,,,,,2025-05-07,1,,,,,コウセイコウギョウ,0
1209,4290801031525,新規,0,2025-05-07,2025-05-07,株式会社ピーシーエー技術研究所,,株式会社,福岡県,北九州市小倉北区,大手町１０番５０－２０３号,,40,106,8030814,,,,,,,2025-05-07,1,,,,,ピーシーエーギジュツケンキュウショ,0
1213,4320001021083,新規,0,2025-05-07,2025-05-07,株式会社豊健,,株式会社,大分県,杵築市,大字片野８２８番地４,,44,210,8730007,,,,,,,2025-05-07,1,,,,,トヨケン,0
1215,4330001033169,新規,0,2025-05-07,2025-05-07,株式会社Ｆｋ・ｗｏｒｋｓ,,株式会社,熊本県,熊本市北区,楠８丁目４番２８号,,43,105,8618003,,,,,,,2025-05-07,1,,,,,エフケイワークス,0
1219,4350001019521,新規,0,2025-05-07,2025-05-07,株式会社結心,,株式会社,宮崎県,日南市,星倉４丁目８番地４,,45,204,8892533,,,,,,,2025-05-07,1,,,,,ユイシン,0
1225,4380001035276,新規,0,2025-05-07,2025-05-07,株式会社ＭＯＴＳ,,株式会社,福島県,いわき市,平北神谷字前ノ作８番地,,07,204,9700115,,,,,,,2025-05-07,1,,,,,モッツ,0
1226,4380001035284,新規,0,2025-05-07,2025-05-07,株式会社Ｂｕｔｔｅｒｆｌｙ　ｅｆｆｅｃｔ,,株式会社,福島県,福島市,永井川字杉ノ内３番地,,07,201,9601102,,,,,,,2025-05-07,1,,,,,バタフライエフェクト,0
1227,4380003006028,新規,0,2025-05-07,2025-05-07,まる福環境クリエイツ合同会社,,合同会社,福島県,福島市,南沢又字舘ノ内１２８番地,,07,201,9608254,,,,,,,2025-05-07,1,,,,,マルフクカンキョウクリエイツ,0
1229,4380005012965,新規,0,2025-05-07,2025-05-07,一般社団法人ｎｏｎｏｎｏｗａ,,その他の設立登記法人,福島県,田村市,船引町長外路字下ノ久保９番地,,07,211,9634432,,,,,,,2025-05-07,1,,,,,ノノノワ,0
1232,4410001014152,新規,0,2025-05-07,2025-05-07,リバーバレイト株式会社,,株式会社,秋田県,大仙市,高関上郷字高屋敷７０番地３,,05,212,0140103,,,,,,,2025-05-07,1,,,,,リバーバレイト,0
1233,4430001094309,新規,0,2025-05-07,2025-05-07,株式会社ナベ電,,株式会社,北海道,札幌市北区,拓北四条４丁目５番１０号,,01,102,0028064,,,,,,,2025-05-07,1,,,,,ナベデン,0
1234,4430001094366,新規,0,2025-05-07,2025-05-07,株式会社未来屋,,株式会社,北海道,札幌市西区,福井２丁目２番１４号,,01,107,0630012,,,,,,,2025-05-07,1,,,,,ミライヤ,0
1235,4430003017630,新規,0,2025-05-07,2025-05-07,たのしまち合同会社,,合同会社,北海道,札幌市豊平区,豊平九条９丁目２‐１０,,01,105,0620909,,,,,,,2025-05-07,1,,,,,タノシマチ,0
1240,4460001006005,新規,0,2025-05-07,2025-05-07,サクシード株式会社,,株式会社,北海道,釧路市,喜多町８番７号,,01,206,0850043,,,,,,,2025-05-07,1,,,,,サクシード,0
1242,4480005007088,新規,0,2025-05-07,2025-05-07,一般社団法人美波御塩,,その他の設立登記法人,徳島県,海部郡美波町,恵比須浜字田井９３番地１,,36,387,7792303,,,,,,,2025-05-07,1,,,,,ミナミゴエン,0
1243,4490001011035,新規,0,2025-05-07,2025-05-07,株式会社ターナリー,,株式会社,高知県,四万十市,楠島２１９５番地,,39,210,7870666,,,,,,,2025-05-07,1,,,,,ターナリー,0
1247,5010001030593,新規,0,2025-05-07,2025-05-07,株式会社明協,,株式会社,東京都,千代田区,岩本町２丁目１０番９号,,13,101,1010032,,,,,,,2025-05-07,1,,,,,メイキョウ,0
1255,5010001254746,新規,0,2025-05-07,2025-05-07,株式会社ブリッジニアプラス,,株式会社,東京都,中央区,八丁堀２丁目１２番７号,,13,102,1040032,,,,,,,2025-05-07,1,,,,,ブリッジニアプラス,0
1256,5010001254754,新規,0,2025-05-07,2025-05-07,株式会社ＲＡホールディングス,,株式会社,東京都,千代田区,丸の内１丁目１番２号,,13,101,1000005,,,,,,,2025-05-07,1,,,,,アールエーホールディングス,0
1257,5010001254770,新規,0,2025-05-07,2025-05-07,Ａｔａｇｏインテグラル１株式会社,,株式会社,東京都,千代田区,丸の内１丁目９番２号,,13,101,1000005,,,,,,,2025-05-07,1,,,,,アタゴインテグラルワン,0
1265,5010401189889,新規,0,2025-05-07,2025-05-07,サラ株式会社,,株式会社,東京都,港区,北青山１丁目３番１号,,13,103,1070061,,,,,,,2025-05-07,1,,,,,サラ,0
1266,5010403034886,新規,0,2025-05-07,2025-05-07,ＰＬＰ　Ａｒｃｈｉｔｅｃｔｕｒｅ　Ｊａｐａｎ合同会社,,合同会社,東京都,港区,港南２丁目１６番１号品川イーストワンタワー７階,,13,103,1080075,,,,,,,2025-05-07,1,,,,,ピーエルピーアーキテクチャジャパン,0
1267,5010403035034,新規,0,2025-05-07,2025-05-07,合同会社グリーンパワー稲庭田子ホールディングス,,合同会社,東京都,港区,赤坂１丁目１１番４４号赤坂インターシティ,,13,103,1070052,,,,,,,2025-05-07,1,,,,,グリーンパワーイナニワタッコホールディングス,0
1269,5010405024381,新規,0,2025-05-07,2025-05-07,Ｅｐｓｉｌｏｎ特定目的会社,,その他の設立登記法人,東京都,港区,虎ノ門５丁目１番４号,,13,103,1050001,,,,,,,2025-05-07,1,,,,,イプシロン,0
1273,5010501054019,新規,0,2025-05-07,2025-05-07,株式会社ＲＥＳＯＦＵＬ,,株式会社,東京都,台東区,元浅草４丁目５番１２－３０２号,,13,106,1110041,,,,,,,2025-05-07,1,,,,,リソフル,0
1275,5010603011545,新規,0,2025-05-07,2025-05-07,合同会社パッショーネ,,合同会社,東京都,江東区,牡丹３丁目１２番２号ぼたん杉野ビル４０２号室,,13,108,1350046,,,,,,,2025-05-07,1,,,,,パッショーネ,0
1276,5010701047656,新規,0,2025-05-07,2025-05-07,株式会社ＢＵＥＮＡ　ＶＩＳＴＡ,,株式会社,東京都,品川区,上大崎４丁目６番１０号,,13,109,1410021,,,,,,,2025-05-07,1,,,,,ブエナビスタ,0
1278,5010801036096,新規,0,2025-05-07,2025-05-07,株式会社遠藤工務店,,株式会社,東京都,大田区,仲六郷３丁目２６番１２号,,13,111,1440055,,,,,,,2025-05-07,1,,,,,エンドウコウムテン,0
1279,5010803005371,新規,0,2025-05-07,2025-05-07,Ｓｅｎｚｏｋｕ　Ｔｒａｄｅ合同会社,,合同会社,東京都,大田区,上池台２丁目１６番７号,,13,111,1450064,,,,,,,2025-05-07,1,,,,,センゾクトレード,0
1280,5010903009891,新規,0,2025-05-07,2025-05-07,ＯｐｅｎＪａｐａｎ合同会社,,合同会社,東京都,世田谷区,北沢３丁目３０番１２号ＫＭハイツ１０３,,13,112,1550031,,,,,,,2025-05-07,1,,,,,オープンジャパン,0
1284,5011003021614,新規,0,2025-05-07,2025-05-07,合同会社Ｔｒｅｎｄ　Ｓｅｔ,,合同会社,東京都,目黒区,下目黒１丁目１番１４号コノトラビル７Ｆ,,13,110,1530064,,,,,,,2025-05-07,1,,,,,トレンドセット,0
1289,5011103015870,新規,0,2025-05-07,2025-05-07,合同会社佐藤企画,,合同会社,東京都,新宿区,西新宿３丁目３番１３号西新宿水間ビル６階,,13,104,1600023,,,,,,,2025-05-07,1,,,,,サトウキカク,0
1291,5011201026332,新規,0,2025-05-07,2025-05-07,株式会社ＺＹＴＡＣ,,株式会社,東京都,中野区,中央４丁目１６番８号,,13,114,1640011,,,,,,,2025-05-07,1,,,,,ザイタック,0
1293,5011203004682,新規,0,2025-05-07,2025-05-07,ＹＫプロパティ合同会社,,合同会社,東京都,中野区,上高田２丁目２１番１６号,,13,114,1640002,,,,,,,2025-05-07,1,,,,,ワイケイプロパティ,0
1299,5011603004679,新規,0,2025-05-07,2025-05-07,合同会社ＰＡＲＡＤＯＸ　ＳＯＵＮＤ,,合同会社,東京都,練馬区,貫井２丁目３０番１４号,,13,120,1760021,,,,,,,2025-05-07,1,,,,,パラドックスサウンド,0
1307,5012301014359,新規,0,2025-05-07,2025-05-07,株式会社ＩＫＫＯ,,株式会社,東京都,町田市,三輪緑山１丁目２６番地１５,,13,209,1950055,,,,,,,2025-05-07,1,,,,,イッコー,0
1308,5012301014367,新規,0,2025-05-07,2025-05-07,株式会社まめかゆ,,株式会社,東京都,町田市,南町田５丁目１４番３－１２１０号,,13,209,1940005,,,,,,,2025-05-07,1,,,,,マメカユ,0
1314,5012801023941,新規,0,2025-05-07,2025-05-07,ＡＰＥＴ株式会社,,株式会社,東京都,立川市,西砂町４丁目３５番地の１２,,13,202,1900034,,,,,,,2025-05-07,1,,,,,エイペット,0
1320,5013301054155,新規,0,2025-05-07,2025-05-07,株式会社ｈｅｃｈｉｍａ,,株式会社,東京都,豊島区,東池袋２丁目６２番８号ＢＩＧオフィスプラザ池袋１２０６,,13,116,1700013,,,,,,,2025-05-07,1,,,,,ヘチマ,0
1328,5020001162642,新規,0,2025-05-07,2025-05-07,株式会社ヒトトシゴト,,株式会社,神奈川県,横浜市西区,北幸１丁目１１番１号水信ビル７階,,14,103,2200004,,,,,,,2025-05-07,1,,,,,ヒトトシゴト,0
1337,5020003028420,新規,0,2025-05-07,2025-05-07,合同会社山城,,合同会社,神奈川県,川崎市中原区,市ノ坪５８１－１市ノ坪住宅４４６号室,,14,133,2110016,,,,,,,2025-05-07,1,,,,,ヤマシロ,0
1342,5021001085148,新規,0,2025-05-07,2025-05-07,株式会社好縁建設,,株式会社,神奈川県,相模原市中央区,上溝９４６番地,,14,152,2520243,,,,,,,2025-05-07,1,,,,,コウエンケンセツ,0
1352,5030001166312,新規,0,2025-05-07,2025-05-07,株式会社カークリンＮＥＯ,,株式会社,埼玉県,所沢市,北所沢町２１９９番地の３８,,11,208,3590046,,,,,,,2025-05-07,1,,,,,カークリンネオ,0
1353,5030001166320,新規,0,2025-05-07,2025-05-07,グロッケン・アセット株式会社,,株式会社,埼玉県,さいたま市大宮区,桜木町２丁目３番地大宮マルイ７階,,11,103,3300854,,,,,,,2025-05-07,1,,,,,グロッケンアセット,0
1354,5030001166353,新規,0,2025-05-07,2025-05-07,株式会社五大工舎,,株式会社,埼玉県,吉川市,美南３丁目８番地２１,,11,243,3420038,,,,,,,2025-05-07,1,,,,,ゴダイコウシャ,0
1355,5030001166378,新規,0,2025-05-07,2025-05-07,株式会社ＮＹＫＥＬ,,株式会社,埼玉県,行田市,大字持田６８６番地２,,11,206,3610056,,,,,,,2025-05-07,1,,,,,ナイケル,0
1360,5040001138558,新規,0,2025-05-07,2025-05-07,株式会社クレリア,,株式会社,千葉県,流山市,大字西深井４９９番地の１,,12,220,2700107,,,,,,,2025-05-07,1,,,,,クレリア,0
1361,5040001138574,新規,0,2025-05-07,2025-05-07,株式会社エヌディー,,株式会社,千葉県,香取市,竜谷３５１番地１,,12,236,2870000,,,,,,,2025-05-07,1,,,,,エヌディー,0
1362,5040003027461,新規,0,2025-05-07,2025-05-07,ＤＩＬＳＨＡＮ　ＥＮＴＥＲＰＲＩＳＥＳ合同会社,,合同会社,千葉県,山武市,木原１４２０番地５６オフィス１,,12,237,2891212,,,,,,,2025-05-07,1,,,,,ディルシャンエンタープライゼズ,0
1363,5040003027478,新規,0,2025-05-07,2025-05-07,いしわたり園企画合同会社,,合同会社,千葉県,長生郡長生村,岩沼２２９２番地１,,12,423,2994336,,,,,,,2025-05-07,1,,,,,イシワタリエンキカク,0
1364,5040003027536,新規,0,2025-05-07,2025-05-07,合同会社美浜映像,,合同会社,千葉県,千葉市美浜区,真砂３丁目１８－３－１２０８,,12,106,2610011,,,,,,,2025-05-07,1,,,,,ミハマエイゾウ,0
1371,5060001038153,新規,0,2025-05-07,2025-05-07,株式会社カウェラ,,株式会社,栃木県,那須郡那須町,大字高久丙１３８９番地３３１,,09,407,3250302,,,,,,,2025-05-07,1,,,,,カウェラ,0
1374,5070001042906,新規,0,2025-05-07,2025-05-07,株式会社遼設,,株式会社,群馬県,高崎市,中里町５８２番地,,10,202,3703532,,,,,,,2025-05-07,1,,,,,リョウセツ,0
1379,5080101025479,新規,0,2025-05-07,2025-05-07,富士電工株式会社,,株式会社,静岡県,富士市,伝法４１３番地の１,,22,210,4170061,,,,,,,2025-05-07,1,,,,,フジデンコウ,0
1383,5080401027885,新規,0,2025-05-07,2025-05-07,やらかしまいか株式会社,,株式会社,静岡県,浜松市中央区,板屋町１０２番地の１５ＤＥＸＩ板屋,,22,138,4300928,,,,,,,2025-05-07,1,,,,,ヤラカシマイカ,0
1385,5090005007705,新規,0,2025-05-07,2025-05-07,一般社団法人相互尊重コミュニケーション協会,,その他の設立登記法人,山梨県,南都留郡富士河口湖町,船津２７７３番地５,,19,430,4010301,,,,,,,2025-05-07,1,,,,,ソウゴソンチョウコミュニケーションキョウカイ,0
1386,5100001038561,新規,0,2025-05-07,2025-05-07,株式会社桔梗,,株式会社,長野県,塩尻市,大字大門字桔梗ヶ原１０８０番地１,,20,215,3990744,,,,,,,2025-05-07,1,,,,,キキョウ,0
1387,5100005013346,新規,0,2025-05-07,2025-05-07,一般社団法人野外救護所普及推進協議会,,その他の設立登記法人,長野県,長野市,上松３丁目３０番２４号,,20,201,3800802,,,,,,,2025-05-07,1,,,,,ヤガイキュウゴショフキュウスイシンキョウギカイ,0
1398,5120001274997,新規,0,2025-05-07,2025-05-07,株式会社楽得,,株式会社,大阪府,大阪市生野区,鶴橋１丁目１番３３－５０５号,,27,116,5440031,,,,,,,2025-05-07,1,,,,,ラクトク,0
1399,5120001275095,新規,0,2025-05-07,2025-05-07,金益商事株式会社,,株式会社,大阪府,大阪市東成区,大今里西３丁目１４－１６－３０１,,27,115,5370014,,,,,,,2025-05-07,1,,,,,キンエキショウジ,0
1400,5120001275467,新規,0,2025-05-07,2025-05-07,株式会社叶多,,株式会社,大阪府,交野市,東倉治５丁目４番２２号,,27,230,5760061,,,,,,,2025-05-07,1,,,,,カナタ,0
1401,5120003029292,新規,0,2025-05-07,2025-05-07,ｍｅ’ｓ合同会社,,合同会社,大阪府,門真市,舟田町４０－１４,,27,223,5710021,,,,,,,2025-05-07,1,,,,,ミーズ,0
1405,5120101071535,新規,0,2025-05-07,2025-05-07,今井建設工業株式会社,,株式会社,大阪府,南河内郡河南町,大宝５丁目１２番４号,,27,382,5850005,,,,,,,2025-05-07,1,,,,,,0
1406,5120101071601,新規,0,2025-05-07,2025-05-07,株式会社信喜住宅,,株式会社,大阪府,堺市北区,常磐町３丁２２番地４,,27,146,5918001,,,,,,,2025-05-07,1,,,,,シンキジュウタク,0
1409,5120103006431,新規,0,2025-05-07,2025-05-07,合同会社ＳＯＴＯＴＯ,,合同会社,大阪府,堺市西区,草部６８６番地７,,27,144,5938312,,,,,,,2025-05-07,1,,,,,ソトト,0
1412,5120901050795,新規,0,2025-05-07,2025-05-07,ワイズ株式会社,,株式会社,大阪府,豊中市,城山町１丁目１１番７－４０３号,,27,203,5610803,,,,,,,2025-05-07,1,,,,,ワイズ,0
1423,5130003010433,新規,0,2025-05-07,2025-05-07,からすまビジネスラボ合同会社,,合同会社,京都府,京都市下京区,小稲荷町８５－２Ｇｒａｎｄ－Ｋ京都駅前ビル２０１,,26,106,6008208,,,,,,,2025-05-07,1,,,,,カラスマビジネスラボ,0
1426,5140001138366,新規,0,2025-05-07,2025-05-07,株式会社Ａｒｃ,,株式会社,兵庫県,神戸市灘区,篠原南町４丁目５番２号,,28,102,6570059,,,,,,,2025-05-07,1,,,,,アルク,0
1427,5140001138382,新規,0,2025-05-07,2025-05-07,株式会社りんごの木,,株式会社,兵庫県,西宮市,西宮浜４丁目１４番３－３０５号,,28,204,6620934,,,,,,,2025-05-07,1,,,,,リンゴノキ,0
1428,5140001138424,新規,0,2025-05-07,2025-05-07,晴々株式会社,,株式会社,兵庫県,姫路市,北八代１丁目３－１,,28,201,6700877,,,,,,,2025-05-07,1,,,,,ハレバレ,0
1430,5150003003591,新規,0,2025-05-07,2025-05-07,合同会社唯,,合同会社,奈良県,磯城郡田原本町,大字秦庄５７６－１,,29,363,6360343,,,,,,,2025-05-07,1,,,,,ユイ,0
1436,5180001166660,新規,0,2025-05-07,2025-05-07,株式会社ジェイシード,,株式会社,愛知県,名古屋市東区,葵２丁目３番１５号,,23,102,4610004,,,,,,,2025-05-07,1,,,,,ジェイシード,0
1437,5180001166685,新規,0,2025-05-07,2025-05-07,株式会社カートラスト,,株式会社,愛知県,名古屋市中川区,細米町１丁目１８番地１,,23,110,4540847,,,,,,,2025-05-07,1,,,,,カートラスト,0
1438,5180001166702,新規,0,2025-05-07,2025-05-07,株式会社ＣＳＢ,,株式会社,愛知県,名古屋市中川区,十番町１丁目６番地の７,,23,110,4540055,,,,,,,2025-05-07,1,,,,,シーエスビー,0
1443,5180003028396,新規,0,2025-05-07,2025-05-07,合同会社ケーワイ,,合同会社,愛知県,半田市,南末広町１２４－１０ファミリアーレ知多半田６０５,,23,205,4750853,,,,,,,2025-05-07,1,,,,,ケーワイ,0
1444,5180005021085,新規,0,2025-05-07,2025-05-07,一般財団法人光陽,,その他の設立登記法人,愛知県,名古屋市中区,錦３丁目６番２９号,,23,106,4600003,,,,,,,2025-05-07,1,,,,,コウヨウ,0
1447,5200001043725,新規,0,2025-05-07,2025-05-07,Ｋａｐｉｌｉｎａ株式会社,,株式会社,岐阜県,岐阜市,野一色３丁目１８番１８号,,21,201,5008226,,,,,,,2025-05-07,1,,,,,カピリナ,0
1450,5210001020161,新規,0,2025-05-07,2025-05-07,株式会社ＳＩＸＤＥＳＩＧＮ,,株式会社,福井県,鯖江市,神明町３丁目１番１３号,,18,207,9160017,,,,,,,2025-05-07,1,,,,,シックスデザイン,0
1452,5220001026653,新規,0,2025-05-07,2025-05-07,株式会社信栄建設,,株式会社,石川県,加賀市,山中温泉中田町ホ４４番地,,17,206,9220101,,,,,,,2025-05-07,1,,,,,シンエイケンセツ,0
1458,5240003007187,新規,0,2025-05-07,2025-05-07,光商会合同会社,,合同会社,広島県,広島市西区,田方１丁目７番１９－１３０７号,,34,104,7330851,,,,,,,2025-05-07,1,,,,,ヒカリショウカイ,0
1465,5260001040163,新規,0,2025-05-07,2025-05-07,テッズ企画株式会社,,株式会社,岡山県,倉敷市,玉島柏島５４３４番地１,,33,202,7138123,,,,,,,2025-05-07,1,,,,,テッズキカク,0
1468,5270001009199,新規,0,2025-05-07,2025-05-07,株式会社Ｙ‐ＲＥＦＯＲＭ,,株式会社,鳥取県,米子市,河崎１７５２番地４,,31,202,6830852,,,,,,,2025-05-07,1,,,,,ワイリフォーム,0
1471,5280003001946,新規,0,2025-05-07,2025-05-07,ヘリックス合同会社,,合同会社,島根県,松江市,下東川津町８０８,,32,201,6900822,,,,,,,2025-05-07,1,,,,,ヘリックス,0
1481,5290001109872,新規,0,2025-05-07,2025-05-07,ＹＡＫＵＭＯ株式会社,,株式会社,福岡県,久留米市,諏訪野町２３１１番地２－８０２,,40,203,8300037,,,,,,,2025-05-07,1,,,,,ヤクモ,0
1482,5290001109880,新規,0,2025-05-07,2025-05-07,株式会社ＢＲＩＴＵＲＥ,,株式会社,福岡県,福岡市博多区,博多駅中央街５番１１号,,40,132,8120012,,,,,,,2025-05-07,1,,,,,ブリチャー,0
1483,5290001109914,新規,0,2025-05-07,2025-05-07,株式会社ウルノス,,株式会社,福岡県,福岡市中央区,天神２丁目２番１２号Ｔ＆Ｊビルディング７Ｆ,,40,133,8100001,,,,,,,2025-05-07,1,,,,,ウルノス,0
1490,5290801031508,新規,0,2025-05-07,2025-05-07,株式会社九州フォレスト,,株式会社,福岡県,行橋市,泉中央８丁目１７番１号,,40,213,8240034,,,,,,,2025-05-07,1,,,,,キュウシュウフォレスト,0
1491,5290801031516,新規,0,2025-05-07,2025-05-07,スプルーツコンサルティング株式会社,,株式会社,福岡県,北九州市戸畑区,西大谷２丁目１２番２３号,,40,105,8040032,,,,,,,2025-05-07,1,,,,,スプルーツコンサルティング,0
1492,5290801031524,新規,0,2025-05-07,2025-05-07,ＭＫホテルマネジメント株式会社,,株式会社,福岡県,北九州市小倉北区,中井５丁目１６番１０号,,40,106,8030836,,,,,,,2025-05-07,1,,,,,エムケイホテルマネジメント,0
1499,5330003010990,新規,0,2025-05-07,2025-05-07,合同会社Ｏｎｔ,,合同会社,熊本県,熊本市東区,健軍３丁目３８号１３号,,43,102,8620911,,,,,,,2025-05-07,1,,,,,オント,0
1503,5350001019512,新規,0,2025-05-07,2025-05-07,ひじりてらす株式会社,,株式会社,宮崎県,宮崎市,大字芳士字今出２５２３番地４,,45,201,8800123,,,,,,,2025-05-07,1,,,,,ヒジリテラス,0
1511,5360001035112,新規,0,2025-05-07,2025-05-07,株式会社Ｎｏｌｅｇｇｉｏ,,株式会社,沖縄県,那覇市,牧志２丁目１７－２７－４０１,,47,201,9000013,,,,,,,2025-05-07,1,,,,,ノレージョ,0
1516,5370001052536,新規,0,2025-05-07,2025-05-07,株式会社ＡＮＹＣ,,株式会社,宮城県,石巻市,新境町１丁目１－７セシカ１１７－２階,,04,202,9860864,,,,,,,2025-05-07,1,,,,,エーエヌワイシー,0
1536,5470001020697,新規,0,2025-05-07,2025-05-07,株式会社アドマイクローブ,,株式会社,香川県,高松市,伏石町２０４９番地２３,,37,201,7618071,,,,,,,2025-05-07,1,,,,,アドマイクローブ,0
1538,5480005007087,新規,0,2025-05-07,2025-05-07,一般社団法人宿曜ノ誉協会,,その他の設立登記法人,徳島県,名西郡神山町,阿野字広野４８番地４,,36,342,7713201,,,,,,,2025-05-07,1,,,,,ショクヨウノホマレキョウカイ,0
1539,5490001011034,新規,0,2025-05-07,2025-05-07,株式会社Ｄｃｔ,,株式会社,高知県,高知市,追手筋１丁目５番２１号ＫＯＨＥＩビル５Ｆ,,39,201,7800842,,,,,,,2025-05-07,1,,,,,ディーシーティー,0
1540,5490003002015,新規,0,2025-05-07,2025-05-07,合同会社Ｔ＆Ｙ不動産,,合同会社,高知県,高知市,山手町５４番地メゾン東邦Ｉ,00139023,39,201,7800957,,,,,,,2025-05-07,1,,,,,ティーアンドワイフドウサン,0
1555,6010001254712,新規,0,2025-05-07,2025-05-07,株式会社３３１,,株式会社,東京都,中央区,日本橋蛎殻町１丁目２７番１０号,,13,102,1030014,,,,,,,2025-05-07,1,,,,,サンサンイチ,0
1560,6010003047164,新規,0,2025-05-07,2025-05-07,ＢＡ　Ｗｏｒｋｓ合同会社,,合同会社,東京都,中央区,銀座１丁目１２－４Ｎ＆ＥＢＬＤ．７階,,13,102,1040061,,,,,,,2025-05-07,1,,,,,ビーエーワークス,0
1561,6010003047288,新規,0,2025-05-07,2025-05-07,トリピックピーオー合同会社,,合同会社,東京都,千代田区,丸の内１丁目４番１号東京共同会計事務所内,,13,101,1000005,,,,,,,2025-05-07,1,,,,,トリピックピーオー,0
1562,6010101016665,新規,0,2025-05-07,2025-05-07,株式会社すずき,,株式会社,東京都,八王子市,別所１丁目２１番地６,,13,201,1920363,,,,,,,2025-05-07,1,,,,,スズキ,0
1572,6010403034976,新規,0,2025-05-07,2025-05-07,グロースエイド合同会社,,合同会社,東京都,港区,元赤坂１丁目５番１１号ミリオングランデ元赤坂ヒルズ８階,,13,103,1070051,,,,,,,2025-05-07,1,,,,,グロースエイド,0
1573,6010405024380,新規,0,2025-05-07,2025-05-07,Ｇａｍｍａ特定目的会社,,その他の設立登記法人,東京都,港区,虎ノ門５丁目１番４号,,13,103,1050001,,,,,,,2025-05-07,1,,,,,ガンマ,0
1575,6010601067191,新規,0,2025-05-07,2025-05-07,華＿株式会社,00139034,株式会社,東京都,墨田区,立花３丁目２０番８－１０６号平井パークホームズ,,13,107,1310043,,,,,,,2025-05-07,1,,,,,カキン,0
1576,6010601067225,新規,0,2025-05-07,2025-05-07,株式会社ＩＲＯＺＵＫＵ,,株式会社,東京都,江東区,亀戸７丁目４４－２ＢＩＺｃｏｍｆｏｒｔ亀戸南,,13,108,1360071,,,,,,,2025-05-07,1,,,,,イロヅク,0
1577,6010603011544,新規,0,2025-05-07,2025-05-07,チーム４Ｕ合同会社,,合同会社,東京都,墨田区,太平３丁目１３－７ＨＢ錦糸町３Ｆ,,13,107,1300012,,,,,,,2025-05-07,1,,,,,チームフォーユー,0
1578,6010605004455,新規,0,2025-05-07,2025-05-07,一般社団法人ＬＵＣＡ,,その他の設立登記法人,東京都,江東区,猿江２丁目１６番５号住吉メディカルモール７階,,13,108,1350003,,,,,,,2025-05-07,1,,,,,ルカ,0
1579,6010701047655,新規,0,2025-05-07,2025-05-07,株式会社エミアル,,株式会社,東京都,品川区,西五反田３丁目１２番１５号村上ビル１階,,13,109,1410031,,,,,,,2025-05-07,1,,,,,エミアル,0
1581,6010803005370,新規,0,2025-05-07,2025-05-07,合同会社Ｍ＆Ｎ　Ｆｕｎｃｔｉｏｎ,,合同会社,東京都,大田区,池上７丁目２４番２２号,,13,111,1460082,,,,,,,2025-05-07,1,,,,,エムアンドエヌファンクション,0
1587,6010903009866,新規,0,2025-05-07,2025-05-07,合同会社ＴＥＤ,,合同会社,東京都,世田谷区,千歳台６丁目１６番６－７０５号,,13,112,1570071,,,,,,,2025-05-07,1,,,,,テッド,0
1592,6011001169231,新規,0,2025-05-07,2025-05-07,株式会社ＮｅｏＭｅｅ,,株式会社,東京都,渋谷区,道玄坂１丁目１０番８号渋谷道玄坂東急ビル２Ｆ―Ｃ,,13,113,1500043,,,,,,,2025-05-07,1,,,,,ネオミー,0
1604,6011401027063,新規,0,2025-05-07,2025-05-07,株式会社Ｐ＆Ｔソリューションズ,,株式会社,東京都,板橋区,富士見町１９番１９－４０２号,,13,119,1740062,,,,,,,2025-05-07,1,,,,,ピーアンドティーソリューションズ,0
1605,6011501031997,新規,0,2025-05-07,2025-05-07,株式会社ＴＯＰ　ＯＮＥ,,株式会社,東京都,北区,神谷２丁目４０番８号,,13,117,1150043,,,,,,,2025-05-07,1,,,,,トップワン,0
1611,6012801023940,新規,0,2025-05-07,2025-05-07,株式会社武蔵野サービス,,株式会社,東京都,昭島市,東町１丁目１６番３９号,,13,207,1960033,,,,,,,2025-05-07,1,,,,,ムサシノサービス,0
1618,6013301054187,新規,0,2025-05-07,2025-05-07,株式会社久世地域カンパニー,,株式会社,東京都,豊島区,東池袋２丁目３４番１３号,,13,116,1700013,,,,,,,2025-05-07,1,,,,,クゼチイキカンパニー,0
1628,6020001162617,新規,0,2025-05-07,2025-05-07,株式会社ＳＫ警備保障,,株式会社,神奈川県,川崎市多摩区,中野島６丁目２８番３２号ハイツみのりＶ１０１,,14,135,2140012,,,,,,,2025-05-07,1,,,,,エスケイケイビホショウ,0
1629,6020001162716,新規,0,2025-05-07,2025-05-07,株式会社ＬＥＳＩＫＡ,,株式会社,神奈川県,川崎市宮前区,菅生３丁目１３番７－２号,,14,136,2160015,,,,,,,2025-05-07,1,,,,,レシカ,0
1636,6020003028444,新規,0,2025-05-07,2025-05-07,合同会社ＤＫ商事,,合同会社,神奈川県,横浜市中区,曙町３丁目４０－２－３Ｆ－Ａ,,14,104,2310057,,,,,,,2025-05-07,1,,,,,ディーケーショウジ,0
1649,6030001166360,新規,0,2025-05-07,2025-05-07,株式会社店舗開発コンサルティング,,株式会社,埼玉県,三郷市,彦成３丁目９番５－７０１号,,11,237,3410003,,,,,,,2025-05-07,1,,,,,テンポカイハツコンサルティング,0
1650,6030001166377,新規,0,2025-05-07,2025-05-07,株式会社Ｌ３,,株式会社,埼玉県,さいたま市緑区,大字三室２６２０番地２１,,11,109,3360911,,,,,,,2025-05-07,1,,,,,エルスリー,0
1652,6030003026728,新規,0,2025-05-07,2025-05-07,合同会社ＧＩ‐ｆｉｎｄ,,合同会社,埼玉県,さいたま市南区,白幡５丁目３－２６－４０７,,11,108,3360022,,,,,,,2025-05-07,1,,,,,ジーアイファインド,0
1657,6040001138524,新規,0,2025-05-07,2025-05-07,株式会社Ｋ３ＧＳ,,株式会社,千葉県,流山市,平和台５丁目６２番地の５,,12,220,2700157,,,,,,,2025-05-07,1,,,,,ケースリージーエス,0
1658,6040001138565,新規,0,2025-05-07,2025-05-07,株式会社アローアセットマネジメント,,株式会社,千葉県,野田市,花井９７番地の１,,12,208,2780026,,,,,,,2025-05-07,1,,,,,アローアセットマネジメント,0
1659,6040001138573,新規,0,2025-05-07,2025-05-07,株式会社フューロエデュケーションズ,,株式会社,千葉県,習志野市,津田沼２丁目１７番１号,,12,216,2750016,,,,,,,2025-05-07,1,,,,,フューロエデュケーションズ,0
1660,6040001138598,新規,0,2025-05-07,2025-05-07,株式会社Ｎｏｖａｒｅｓ,,株式会社,千葉県,大網白里市,北今泉中浜芝３５５５－３,,12,239,2993201,,,,,,,2025-05-07,1,,,,,ノバレス,0
1665,6040003027485,新規,0,2025-05-07,2025-05-07,合同会社２６０,,合同会社,千葉県,茂原市,茂原１５番地５－１０２,,12,210,2970026,,,,,,,2025-05-07,1,,,,,ニロクマル,0
1678,6080101025478,新規,0,2025-05-07,2025-05-07,株式会社境工業,,株式会社,静岡県,沼津市,大平２７１７番地の６,,22,203,4100821,,,,,,,2025-05-07,1,,,,,サカイコウギョウ,0
1683,6080401027892,新規,0,2025-05-07,2025-05-07,マル信電気株式会社,,株式会社,静岡県,浜松市浜名区,根堅１９３９番地の２３,,22,139,4340016,,,,,,,2025-05-07,1,,,,,マルシンデンキ,0
1700,6120001275103,新規,0,2025-05-07,2025-05-07,株式会社Ｒｉｓｏｕ,,株式会社,大阪府,大阪市西成区,潮路１丁目９－１９－２０７,,27,122,5570052,,,,,,,2025-05-07,1,,,,,リソウ,0
1701,6120001275152,新規,0,2025-05-07,2025-05-07,株式会社ワイエール,,株式会社,大阪府,大阪市東成区,中本３丁目１５番１６号８０１号室,,27,115,5370022,,,,,,,2025-05-07,1,,,,,ワイエール,0
1702,6120001275169,新規,0,2025-05-07,2025-05-07,ハドロス株式会社,,株式会社,大阪府,大阪市中央区,南船場３丁目２番２２号おおきに南船場ビル２０５,,27,128,5420081,,,,,,,2025-05-07,1,,,,,ハドロス,0
1703,6120001275177,新規,0,2025-05-07,2025-05-07,株式会社みやく,,株式会社,大阪府,大阪市浪速区,桜川２丁目２番２５－４０６号,,27,111,5560022,,,,,,,2025-05-07,1,,,,,ミヤク,0
1704,6120001275193,新規,0,2025-05-07,2025-05-07,株式会社Ｌｉｂｅｒｔｅ,,株式会社,大阪府,大阪市北区,梅田１丁目２番２号大阪駅前第２ビル１２－１２,,27,127,5300001,,,,,,,2025-05-07,1,,,,,リベルテ,0
1705,6120001275549,新規,0,2025-05-07,2025-05-07,株式会社滝下建装,,株式会社,大阪府,大阪市東住吉区,公園南矢田２丁目９番２８号,,27,121,5460024,,,,,,,2025-05-07,1,,,,,タキシタケンソウ,0
1706,6120001275607,新規,0,2025-05-07,2025-05-07,ＴＯＫＯ　ＯＳＡＫＡ株式会社,,株式会社,大阪府,大阪市中央区,道頓堀１丁目東５番１９号花昭ビル,,27,128,5420071,,,,,,,2025-05-07,1,,,,,トウコウオオサカ,0
1708,6120003029300,新規,0,2025-05-07,2025-05-07,合同会社ブラスパ,,合同会社,大阪府,大阪市福島区,鷺洲４丁目４番２１号,,27,103,5530002,,,,,,,2025-05-07,1,,,,,ブラスパ,0
1709,6120003029309,新規,0,2025-05-07,2025-05-07,ＴＡＹ　ＤＯ合同会社,,合同会社,大阪府,大阪市西成区,松１丁目１０－２９－２１１号,,27,122,5570034,,,,,,,2025-05-07,1,,,,,タイド,0
1712,6120101071591,新規,0,2025-05-07,2025-05-07,株式会社ＮＡＧ,,株式会社,大阪府,和泉市,いぶき野３丁目１０番１６号,,27,219,5940041,,,,,,,2025-05-07,1,,,,,エヌエージー,0
1713,6120101071633,新規,0,2025-05-07,2025-05-07,株式会社松村設備,,株式会社,大阪府,堺市南区,高尾１丁３２２番地７号,,27,145,5900157,,,,,,,2025-05-07,1,,,,,マツムラセツビ,0
1714,6120103006430,新規,0,2025-05-07,2025-05-07,合同会社ツインズ,,合同会社,大阪府,泉南市,樽井５８９番地の２,,27,228,5900521,,,,,,,2025-05-07,1,,,,,ツインズ,0
1722,6120901050794,新規,0,2025-05-07,2025-05-07,Ｗｅｌｆａｒｅ　ＩＲＩＳ株式会社,,株式会社,大阪府,吹田市,円山町５３番２２号,,27,205,5640061,,,,,,,2025-05-07,1,,,,,ウェルフェアアイリス,0
1728,6130003010432,新規,0,2025-05-07,2025-05-07,Ｖ合同会社,,合同会社,京都府,綾部市,橋上町簗４７番地,,26,203,6291257,,,,,,,2025-05-07,1,,,,,ブイ,0
1735,6140003022014,新規,0,2025-05-07,2025-05-07,ＮＡＳＩＲ　ＫＨＡＮ　ＴＲＡＤＩＮＧ合同会社,,合同会社,兵庫県,神戸市中央区,東雲通３丁目５－２,,28,110,6510079,,,,,,,2025-05-07,1,,,,,ナシールカーントレーディング,0
1737,6150001028078,新規,0,2025-05-07,2025-05-07,株式会社フォレスタ,,株式会社,奈良県,生駒市,本町６番８号,,29,209,6300256,,,,,,,2025-05-07,1,,,,,フォレスタ,0
1739,6160001026725,新規,0,2025-05-07,2025-05-07,株式会社ｍ　ｍｏｂｉｌｉｔｙ,,株式会社,滋賀県,栗東市,下戸山１０９４番地４,,25,208,5203011,,,,,,,2025-05-07,1,,,,,エムモビリティ,0
1742,6170001018614,新規,0,2025-05-07,2025-05-07,株式会社オレンジアニマルズ,,株式会社,和歌山県,日高郡みなべ町,北道２４７番地,,30,391,6450006,,,,,,,2025-05-07,1,,,,,オレンジアニマルズ,0
1757,6180005021084,新規,0,2025-05-07,2025-05-07,一般社団法人ちぇぶら,,その他の設立登記法人,愛知県,小牧市,桜井本町５０番地,,23,219,4850043,,,,,,,2025-05-07,1,,,,,チェブラ,0
1758,6180301039755,新規,0,2025-05-07,2025-05-07,株式会社伊良湖岬觀光サービスセンター,,株式会社,愛知県,田原市,亀山町石堂山１番地の１２,,23,231,4413625,,,,,,,2025-05-07,1,,,,,,0
1764,6200001043732,新規,0,2025-05-07,2025-05-07,ＳＵＢＨＡＮ　ＴＲＡＤＩＮＧ株式会社,,株式会社,岐阜県,美濃加茂市,西町６丁目２８番地コーポ西町２０５号室,,21,211,5050046,,,,,,,2025-05-07,1,,,,,サブハントレーディング,0
1768,6210003001919,新規,0,2025-05-07,2025-05-07,合同会社春江総合相談所,,合同会社,福井県,坂井市,春江町為国中区３番地１３,,18,210,9190436,,,,,,,2025-05-07,1,,,,,ハルエソウゴウソウダンショ,0
1770,6220001026652,新規,0,2025-05-07,2025-05-07,株式会社浅井組,,株式会社,石川県,加賀市,弓波町ロ４６番地３,,17,206,9220422,,,,,,,2025-05-07,1,,,,,アサイグミ,0
1773,6230005009462,新規,0,2025-05-07,2025-05-07,特定非営利活動法人知恵のバトン,,その他の設立登記法人,富山県,射水市,東太閤山３丁目５３番地,,16,211,9390319,,,,,,,2025-05-07,1,,,,,チエノバトン,0
1777,6240001064907,新規,0,2025-05-07,2025-05-07,株式会社ＡＳＤ,,株式会社,広島県,東広島市,高屋町高屋東４３９３番地３３,,34,212,7392113,,,,,,,2025-05-07,1,,,,,エーエスディー,0
1778,6240003007178,新規,0,2025-05-07,2025-05-07,Ｙ’ｓ合同会社,,合同会社,広島県,庄原市,比和町比和６１７番地５,,34,210,7270301,,,,,,,2025-05-07,1,,,,,ワイズ,0
1779,6240003007186,新規,0,2025-05-07,2025-05-07,アペイロンコーポレートアドバイザリー合同会社,,合同会社,広島県,広島市東区,二葉の里３丁目５－７ＧＲＡＮＯＤＥ広島３階,,34,102,7320057,,,,,,,2025-05-07,1,,,,,アペイロンコーポレートアドバイザリー,0
1780,6260001040162,新規,0,2025-05-07,2025-05-07,株式会社ウジョウホールディングス,,株式会社,岡山県,岡山市北区,東島田町１丁目５番２０号,,33,101,7000983,,,,,,,2025-05-07,1,,,,,ウジョウホールディングス,0
1782,6270001009198,新規,0,2025-05-07,2025-05-07,株式会社ひえづ村づくり公社,,株式会社,鳥取県,西伯郡日吉津村,大字日吉津１０２６番地１,,31,384,6893553,,,,,,,2025-05-07,1,,,,,ヒエヅムラヅクリコウシャ,0
1783,6280001009420,新規,0,2025-05-07,2025-05-07,株式会社キリークファーマシー,,株式会社,島根県,益田市,遠田町３３５８番地１,,32,204,6993676,,,,,,,2025-05-07,1,,,,,キリークファーマシー,0
1789,6290001109888,新規,0,2025-05-07,2025-05-07,株式会社タツケン,,株式会社,福岡県,古賀市,駅東１丁目４－３,,40,223,8113102,,,,,,,2025-05-07,1,,,,,タツケン,0
1790,6290001109995,新規,0,2025-05-07,2025-05-07,池田不動産株式会社,,株式会社,福岡県,福岡市東区,箱崎１丁目３２－２８－１０２,,40,131,8120053,,,,,,,2025-05-07,1,,,,,イケダフドウサン,0
1796,6300001014178,新規,0,2025-05-07,2025-05-07,株式会社ピースフル,,株式会社,佐賀県,三養基郡みやき町,大字白壁４３０７番地１２５,,41,346,8490111,,,,,,,2025-05-07,1,,,,,ピースフル,0
1797,6320001021081,新規,0,2025-05-07,2025-05-07,株式会社田畑農機,,株式会社,大分県,国東市,国東町鶴川１６１１番地８,,44,214,8730503,,,,,,,2025-05-07,1,,,,,タバタノウキ,0
1800,6330001033167,新規,0,2025-05-07,2025-05-07,偉成株式会社,,株式会社,熊本県,菊池郡菊陽町,沖野３丁目５８００番地１１０,,43,404,8691115,,,,,,,2025-05-07,1,,,,,イセイ,0
1801,6330001033175,新規,0,2025-05-07,2025-05-07,株式会社ｅＬｉａｓ,,株式会社,熊本県,熊本市北区,龍田８丁目１４番７４号,,43,105,8618006,,,,,,,2025-05-07,1,,,,,イリアス,0
1809,6340001027309,新規,0,2025-05-07,2025-05-07,株式会社小野製茶,,株式会社,鹿児島県,鹿児島市,和田１丁目３５番１２－１号,,46,201,8910143,,,,,,,2025-05-07,1,,,,,オノセイチャ,0
1811,6350001019511,新規,0,2025-05-07,2025-05-07,西村林産株式会社,,株式会社,宮崎県,北諸県郡三股町,大字樺山１２６８番地１,,45,341,8891901,,,,,,,2025-05-07,1,,,,,ニシムラリンサン,0
1815,6360001035111,新規,0,2025-05-07,2025-05-07,株式会社ミナト,,株式会社,沖縄県,那覇市,松尾２丁目１０番２３号１階,,47,201,9000014,,,,,,,2025-05-07,1,,,,,ミナト,0
1821,6370003007082,新規,0,2025-05-07,2025-05-07,合同会社ｎａｒｓこのか,,合同会社,宮城県,仙台市太白区,東郡山１丁目５番３６号,,04,104,9820006,,,,,,,2025-05-07,1,,,,,ナーズコノカ,0
1825,6400001017030,新規,0,2025-05-07,2025-05-07,株式会社Ｙ．Ｓフード,,株式会社,岩手県,盛岡市,中央通１丁目１１番７号,,03,201,0200021,,,,,,,2025-05-07,1,,,,,ワイエスフード,0
1827,6420001019132,新規,0,2025-05-07,2025-05-07,株式会社五分,,株式会社,青森県,三戸郡五戸町,大字倉石中市字中市６９番地１,,02,442,0391702,,,,,,,2025-05-07,1,,,,,ゴブ,0
1832,6430001094281,新規,0,2025-05-07,2025-05-07,金泉国際旅行株式会社,,株式会社,北海道,札幌市東区,東苗穂一条２丁目４番５１号,,01,103,0070801,,,,,,,2025-05-07,1,,,,,キンセンコクサイリョコウ,0
1833,6430001094307,新規,0,2025-05-07,2025-05-07,スマイルコネクト株式会社,,株式会社,北海道,札幌市西区,二十四軒四条５丁目１番８号ＳＡＫＵＲＡ－ＫＯＴＯＮＩ２階,,01,107,0630804,,,,,,,2025-05-07,1,,,,,スマイルコネクト,0
1834,6430001094364,新規,0,2025-05-07,2025-05-07,Ｕｎｉｖｅｒｓａｌ　Ｍａｒｋｅｔｉｎｇ株式会社,,株式会社,北海道,札幌市中央区,南一条西７丁目１番地ビルヂングフクダ８階,,01,101,0600061,,,,,,,2025-05-07,1,,,,,ユニバーサルマーケティング,0
1836,6430003017595,新規,0,2025-05-07,2025-05-07,合同会社キソトレ,,合同会社,北海道,札幌市中央区,北三条西１６丁目１番地１－２６０２号,,01,101,0600003,,,,,,,2025-05-07,1,,,,,キソトレ,0
1846,7010001254653,新規,0,2025-05-07,2025-05-07,株式会社東昇商事,,株式会社,東京都,中央区,日本橋３丁目３番１４号大木ビル４Ｆ,,13,102,1030027,,,,,,,2025-05-07,1,,,,,トウセイショウジ,0
1847,7010001254728,新規,0,2025-05-07,2025-05-07,株式会社Ｔｈｉｎｋ　Ｈａｒｄ,,株式会社,東京都,中央区,八丁堀４丁目１３番１４－２０５号,,13,102,1040032,,,,,,,2025-05-07,1,,,,,シンクハード,0
1848,7010001254793,新規,0,2025-05-07,2025-05-07,ノボセテック株式会社,,株式会社,東京都,中央区,銀座１丁目１２番４号Ｎ＆ＥＢＬＤ．７階,,13,102,1040061,,,,,,,2025-05-07,1,,,,,ノボセテック,0
1850,7010101016656,新規,0,2025-05-07,2025-05-07,Ｌｕｘ‐Ｈｙｐｅｒ株式会社,,株式会社,東京都,八王子市,松木１９－１３－サンパレス堀之内２０２,,13,201,1920362,,,,,,,2025-05-07,1,,,,,ラックスハイパー,0
1855,7010401190102,新規,0,2025-05-07,2025-05-07,株式会社田中山,,株式会社,東京都,港区,虎ノ門４丁目１番２０－２１０１号,,13,103,1050001,,,,,,,2025-05-07,1,,,,,タナカヤマ,0
1858,7010403035065,新規,0,2025-05-07,2025-05-07,フェスティブ合同会社,,合同会社,東京都,港区,芝４丁目１６番１－２７０１号,,13,103,1080014,,,,,,,2025-05-07,1,,,,,フェスティブ,0
1861,7010405024314,新規,0,2025-05-07,2025-05-07,一般社団法人月麗会,,その他の設立登記法人,東京都,港区,新橋５丁目８番６号,,13,103,1050004,,,,,,,2025-05-07,1,,,,,ゲツレイカイ,0
1864,7010503007831,新規,0,2025-05-07,2025-05-07,ＴｒａｎｓｆｏｒｍＡｒｔ合同会社,,合同会社,東京都,台東区,寿３丁目１５番４号,,13,106,1110042,,,,,,,2025-05-07,1,,,,,トランスフォームアート,0
1866,7010601067050,新規,0,2025-05-07,2025-05-07,惠宇株式会社,,株式会社,東京都,江東区,亀戸７丁目５０－２アーテプルミエ１０４号室,,13,108,1360071,,,,,,,2025-05-07,1,,,,,ケイウ,0
1876,7010901057288,新規,0,2025-05-07,2025-05-07,Ｃ．Ｈ．Ｅ．株式会社,,株式会社,東京都,世田谷区,太子堂２丁目１４番１３号,,13,112,1540004,,,,,,,2025-05-07,1,,,,,シーエイチイー,0
1877,7010901057296,新規,0,2025-05-07,2025-05-07,株式会社サンライズ,,株式会社,東京都,世田谷区,玉川１丁目１５番１－７０９号,,13,112,1580094,,,,,,,2025-05-07,1,,,,,サンライズ,0
1878,7010901057313,新規,0,2025-05-07,2025-05-07,株式会社ＡＬＬ　Ｍａｉｋｙ,,株式会社,東京都,世田谷区,野沢２丁目９－５リムテラス世田谷野沢１０９,,13,112,1540003,,,,,,,2025-05-07,1,,,,,オールマイキー,0
1880,7011001021853,新規,0,2025-05-07,2025-05-07,株式会社保谷住宅設備,,株式会社,東京都,渋谷区,笹塚２丁目２７番５号,,13,113,1510073,,,,,,,2025-05-07,1,,,,,ホウヤジュウタクセツビ,0
1884,7011001169263,新規,0,2025-05-07,2025-05-07,株式会社ＩＲＢＡＮＫ,,株式会社,東京都,目黒区,中目黒３丁目６番２号ＦＳビル６Ｆ,,13,110,1530061,,,,,,,2025-05-07,1,,,,,アイアールバンク,0
1885,7011003021505,新規,0,2025-05-07,2025-05-07,合同会社Ｚｅｆｏｒｅ,,合同会社,東京都,渋谷区,笹塚３丁目７－１,,13,113,1510073,,,,,,,2025-05-07,1,,,,,ゼフォレ,0
1887,7011103015836,新規,0,2025-05-07,2025-05-07,合同会社マーケットホールディングス,,合同会社,東京都,新宿区,新宿１丁目３６－２新宿第七葉山ビル３Ｆ,,13,104,1600022,,,,,,,2025-05-07,1,,,,,マーケットホールディングス,0
1891,7011301030562,新規,0,2025-05-07,2025-05-07,株式会社ケイサポート,,株式会社,東京都,杉並区,宮前３丁目１７番２２号Ｌ－２,,13,115,1680081,,,,,,,2025-05-07,1,,,,,ケイサポート,0
1894,7011401027062,新規,0,2025-05-07,2025-05-07,株式会社澤田企画,,株式会社,東京都,板橋区,四葉２丁目１９番１４号,,13,119,1750084,,,,,,,2025-05-07,1,,,,,サワダキカク,0
1895,7011403004687,新規,0,2025-05-07,2025-05-07,合同会社ＣＯＡ　ＪＡＰＡＮ,,合同会社,東京都,板橋区,赤塚２丁目１６番１号,00139025,13,119,1750092,,,,,,,2025-05-07,1,,,,,シーオーエージャパン,0
1903,7013101009687,新規,0,2025-05-07,2025-05-07,株式会社涼月造園,,株式会社,東京都,あきる野市,野辺１０６４番地５,,13,228,1970823,,,,,,,2025-05-07,1,,,,,リツキゾウエン,0
1907,7013301054178,新規,0,2025-05-07,2025-05-07,株式会社ケンティー,,株式会社,東京都,豊島区,東池袋１丁目７番１０号,,13,116,1700013,,,,,,,2025-05-07,1,,,,,ケンティー,0
1908,7013301054186,新規,0,2025-05-07,2025-05-07,株式会社ＲＥ,,株式会社,東京都,豊島区,南大塚２丁目３８番１号,,13,116,1700005,,,,,,,2025-05-07,1,,,,,アールイー,0
1917,7020001162541,新規,0,2025-05-07,2025-05-07,株式会社ＯＶＥＲＴＡＫＥ,,株式会社,神奈川県,横浜市瀬谷区,瀬谷１丁目２４－１－１０１号室,,14,114,2460031,,,,,,,2025-05-07,1,,,,,オーバーテイク,0
1918,7020001162574,新規,0,2025-05-07,2025-05-07,株式会社Ｈｏｍｉｅ,,株式会社,神奈川県,横浜市磯子区,西町１０－１６東和根岸ビル１０１号,,14,107,2350007,,,,,,,2025-05-07,1,,,,,ホーミー,0
1919,7020001162624,新規,0,2025-05-07,2025-05-07,株式会社Ｖｉｃｔｏｉｒｅｓ,,株式会社,神奈川県,横浜市瀬谷区,阿久和西１丁目７番３号,,14,114,2460025,,,,,,,2025-05-07,1,,,,,ヴィクトワール,0
1920,7020001162632,新規,0,2025-05-07,2025-05-07,株式会社横濱屋店舗開発,,株式会社,神奈川県,横浜市南区,宮元町４丁目９３番地山本商店ビル４０６号室,,14,105,2320016,,,,,,,2025-05-07,1,,,,,ヨコハマヤテンポカイハツ,0
1921,7020001162649,新規,0,2025-05-07,2025-05-07,株式会社アイエヌケー,,株式会社,神奈川県,川崎市川崎区,京町２丁目４番６号,,14,131,2100848,,,,,,,2025-05-07,1,,,,,アイエヌケー,0
1922,7020001162657,新規,0,2025-05-07,2025-05-07,アーティファクトコンサルティング株式会社,,株式会社,神奈川県,横浜市青葉区,柿の木台４－１０,,14,117,2270048,,,,,,,2025-05-07,1,,,,,アーティファクトコンサルティング,0
1923,7020001162665,新規,0,2025-05-07,2025-05-07,株式会社千高,,株式会社,神奈川県,横浜市中区,元町５丁目２０１番地オセアン元町ビル５０２,,14,104,2310861,,,,,,,2025-05-07,1,,,,,センコウ,0
1934,7021001085138,新規,0,2025-05-07,2025-05-07,株式会社ＡＲＤＯＲ,,株式会社,神奈川県,大和市,下鶴間２７６８番地１プルミエダブルアール３０５,,14,213,2420001,,,,,,,2025-05-07,1,,,,,アルドル,0
1946,7030001166327,新規,0,2025-05-07,2025-05-07,株式会社ソレイスホームズ,,株式会社,埼玉県,さいたま市大宮区,浅間町２丁目５８番地１日神デュオステージ大宮浅間町４０２,,11,103,3300842,,,,,,,2025-05-07,1,,,,,ソレイスホームズ,0
1947,7030001166376,新規,0,2025-05-07,2025-05-07,株式会社フラッグシップ経営,,株式会社,埼玉県,越谷市,中町１０番地２６,,11,222,3430817,,,,,,,2025-05-07,1,,,,,フラッグシップケイエイ,0
1950,7030005022154,新規,0,2025-05-07,2025-05-07,一般社団法人メディカルプラスアルファ,,その他の設立登記法人,埼玉県,さいたま市大宮区,桜木町２丁目３番地６９大原第一ビル４階,,11,103,3300854,,,,,,,2025-05-07,1,,,,,メディカルプラスアルファ,0
1956,7040001138548,新規,0,2025-05-07,2025-05-07,Ｓ・Ｓ・Ｄ株式会社,,株式会社,千葉県,習志野市,本大久保２丁目２番２号,,12,216,2750012,,,,,,,2025-05-07,1,,,,,エスエスディー,0
1957,7040001138564,新規,0,2025-05-07,2025-05-07,株式会社ｔｒｙ,,株式会社,千葉県,松戸市,六高台４丁目１４２番地,,12,207,2702203,,,,,,,2025-05-07,1,,,,,トライ,0
1958,7040001138572,新規,0,2025-05-07,2025-05-07,株式会社橋本工業,,株式会社,千葉県,市原市,五井西２丁目１８番地１１,,12,219,2900038,,,,,,,2025-05-07,1,,,,,ハシモトコウギョウ,0
1959,7040001138597,新規,0,2025-05-07,2025-05-07,株式会社業務事務効率化センター,,株式会社,千葉県,市原市,青柳北３丁目２番地１７,,12,219,2990101,,,,,,,2025-05-07,1,,,,,ギョウムジムコウリツカセンター,0
1961,7040003027419,新規,0,2025-05-07,2025-05-07,ＤＣＯＮＮＥＣＴ合同会社,,合同会社,千葉県,市川市,田尻５丁目１０番４セイビ田尻レジデンス２１１号,,12,203,2720014,,,,,,,2025-05-07,1,,,,,ディーコネクト,0
1962,7040003027468,新規,0,2025-05-07,2025-05-07,合同会社ブルーマインド,,合同会社,千葉県,市原市,五井西２丁目１２番地２,,12,219,2900038,,,,,,,2025-05-07,1,,,,,ブルーマインド,0
1963,7040003027476,新規,0,2025-05-07,2025-05-07,ＳＨＥＥＭＡ　ＥＮＴＥＲＰＲＩＳＥＳ合同会社,,合同会社,千葉県,山武市,麻生新田８５番地５,,12,237,2891203,,,,,,,2025-05-07,1,,,,,シーマエンタープライズ,0
1964,7040003027484,新規,0,2025-05-07,2025-05-07,合同会社ひなた,,合同会社,千葉県,松戸市,殿平賀１９９番地１北小金ビル３階,,12,207,2700004,,,,,,,2025-05-07,1,,,,,ヒナタ,0
1972,7070001042904,新規,0,2025-05-07,2025-05-07,株式会社フィーロ,,株式会社,群馬県,渋川市,伊香保町湯中子３６３番地２,,10,208,3770101,,,,,,,2025-05-07,1,,,,,フィーロ,0
1975,7070003005883,新規,0,2025-05-07,2025-05-07,ＴＨＩＥＮ　ＢＡＯ合同会社,,合同会社,群馬県,藤岡市,鬼石２２－１４－１Ｆ、Ｒｏｏｍ１,,10,209,3701401,,,,,,,2025-05-07,1,,,,,ティエンバオ,0
1976,7080001026922,新規,0,2025-05-07,2025-05-07,株式会社彩和堂,,株式会社,静岡県,静岡市葵区,西草深町６番３４－５０２号,,22,101,4200866,,,,,,,2025-05-07,1,,,,,サイワドウ,0
1979,7080101025477,新規,0,2025-05-07,2025-05-07,株式会社和友,,株式会社,静岡県,富士市,宮島９２０番地の２,,22,210,4160945,,,,,,,2025-05-07,1,,,,,ワユウ,0
1981,7080401027891,新規,0,2025-05-07,2025-05-07,株式会社Ｋアイ工房,,株式会社,静岡県,浜松市中央区,船越町４番１５号,,22,138,4300913,,,,,,,2025-05-07,1,,,,,ケイアイコウボウ,0
2002,7120001275143,新規,0,2025-05-07,2025-05-07,御松株式会社,,株式会社,大阪府,大阪市西成区,北開２丁目３番５－２０１号,,27,122,5570021,,,,,,,2025-05-07,1,,,,,オマツ,0
2003,7120001275176,新規,0,2025-05-07,2025-05-07,株式会社ＧＲＯＷＢＡＬ,,株式会社,大阪府,大阪市淀川区,木川東４丁目５番１－２０１号,,27,123,5320012,,,,,,,2025-05-07,1,,,,,グロウバル,0
2004,7120001275201,新規,0,2025-05-07,2025-05-07,株式会社美蘭,,株式会社,大阪府,大阪市西成区,花園南１丁目５番３号ホーミー花園南１Ｆ,,27,122,5570015,,,,,,,2025-05-07,1,,,,,ミラン,0
2005,7120001275523,新規,0,2025-05-07,2025-05-07,株式会社ｎｏｉｒｅ,,株式会社,大阪府,大阪市北区,梅田１丁目２番２号大阪駅前第２ビル１２－１２,,27,127,5300001,,,,,,,2025-05-07,1,,,,,ノワール,0
2006,7120001275548,新規,0,2025-05-07,2025-05-07,株式会社期望,,株式会社,大阪府,大阪市生野区,桃谷５丁目７番２５号,,27,116,5440034,,,,,,,2025-05-07,1,,,,,ノゾミ,0
2007,7120001275572,新規,0,2025-05-07,2025-05-07,大歓商事株式会社,,株式会社,大阪府,大阪市天王寺区,筆ケ崎町４番７号,,27,109,5430027,,,,,,,2025-05-07,1,,,,,ダイカンショウジ,0
2012,7120101071566,新規,0,2025-05-07,2025-05-07,タカラ株式会社,,株式会社,大阪府,阪南市,尾崎町５０８－３,,27,232,5990201,,,,,,,2025-05-07,1,,,,,タカラ,0
2013,7120101071632,新規,0,2025-05-07,2025-05-07,株式会社ＡＫＧ,,株式会社,大阪府,堺市中区,深井中町６１６番地１－１０６,,27,142,5998272,,,,,,,2025-05-07,1,,,,,エーケージー,0
2021,7122003003201,新規,0,2025-05-07,2025-05-07,ニシカワサーヴェイ合同会社,,合同会社,大阪府,東大阪市,永和２丁目２番２８－３０５号,,27,227,5770809,,,,,,,2025-05-07,1,,,,,ニシカワサーヴェイ,0
2030,7140001138380,新規,0,2025-05-07,2025-05-07,株式会社ＯＭＣ,,株式会社,兵庫県,尼崎市,東園田町２丁目１１０番地,,28,202,6610953,,,,,,,2025-05-07,1,,,,,オーエムシー,0
2031,7140001138422,新規,0,2025-05-07,2025-05-07,株式会社ＳＥＮＳＩＮ,,株式会社,兵庫県,神戸市長田区,東尻池町４丁目１番２９号,,28,106,6530022,,,,,,,2025-05-07,1,,,,,センシン,0
2032,7140003022013,新規,0,2025-05-07,2025-05-07,ＮＩＰＰＯＮ　ＡＵＴＯ　ＴＲＡＤＥＲＳ合同会社,,合同会社,兵庫県,神戸市中央区,山本通５丁目１－１３－２０２,,28,110,6500003,,,,,,,2025-05-07,1,,,,,ニッポンオートトレーダース,0
2033,7140005027497,新規,0,2025-05-07,2025-05-07,一般社団法人バリアフリービューティスト・ジャパン,,その他の設立登記法人,兵庫県,西宮市,若草町１丁目８番１６－２０１号,,28,204,6638181,,,,,,,2025-05-07,1,,,,,,0
2036,7150001028093,新規,0,2025-05-07,2025-05-07,株式会社グリーンモータース,,株式会社,奈良県,生駒郡斑鳩町,服部１丁目４番１３号,,29,344,6360131,,,,,,,2025-05-07,1,,,,,グリーンモータース,0
2037,7150003003598,新規,0,2025-05-07,2025-05-07,北出木工所ＫＭＲ合同会社,,合同会社,奈良県,宇陀郡曽爾村,大字伊賀見３８７番地の２,,29,385,6331201,,,,,,,2025-05-07,1,,,,,キタデモッコウショケイエムアール,0
2038,7160001026724,新規,0,2025-05-07,2025-05-07,株式会社Ｆａｖｉｌｉｏｎ,,株式会社,滋賀県,守山市,播磨田町１８１０－１,,25,207,5240012,,,,,,,2025-05-07,1,,,,,ファビリオン,0
2046,7180001166667,新規,0,2025-05-07,2025-05-07,株式会社ＣＯＮ・ＳＥＮＳＥ,,株式会社,愛知県,大府市,共和町末広５５番地エトワール末広２０２号,,23,223,4740057,,,,,,,2025-05-07,1,,,,,コンセンス,0
2047,7180001166675,新規,0,2025-05-07,2025-05-07,株式会社ｓａｉ,,株式会社,愛知県,名古屋市西区,浅間２丁目４番４号ストラーダ浅間１Ｆ,,23,104,4510035,,,,,,,2025-05-07,1,,,,,サイ,0
2048,7180001166683,新規,0,2025-05-07,2025-05-07,株式会社ＨＨＣ,,株式会社,愛知県,一宮市,森本２丁目９番２０号,,23,203,4910831,,,,,,,2025-05-07,1,,,,,エイチエイチシー,0
2049,7180001166691,新規,0,2025-05-07,2025-05-07,株式会社Ｍ＆Ｙサポート,,株式会社,愛知県,名古屋市西区,栄生１丁目１３番１２号,,23,104,4510052,,,,,,,2025-05-07,1,,,,,エムアンドワイサポート,0
2050,7180001166700,新規,0,2025-05-07,2025-05-07,株式会社ハヤリバ,,株式会社,愛知県,名古屋市西区,南川町１５２（Ａ）,,23,104,4520814,,,,,,,2025-05-07,1,,,,,ハヤリバ,0
2056,7180003028428,新規,0,2025-05-07,2025-05-07,合同会社アイティ電商,,合同会社,愛知県,春日井市,勝川新町３丁目７７番地,,23,206,4860941,,,,,,,2025-05-07,1,,,,,アイティデンショウ,0
2057,7180003028436,新規,0,2025-05-07,2025-05-07,合同会社ペガサス,,合同会社,愛知県,名古屋市千種区,自由ケ丘１丁目１３番８号,,23,101,4640044,,,,,,,2025-05-07,1,,,,,ペガサス,0
2058,7180003028444,新規,0,2025-05-07,2025-05-07,０００Ｐａｒｔｎｅｒｓｈｉｐ　Ｆｕｎｄ合同会社,,合同会社,愛知県,名古屋市中村区,名駅３丁目４－１０アルティメイト名駅１ｓｔ２階,,23,105,4500002,,,,,,,2025-05-07,1,,,,,ゼロスリーパートナーシップファンド,0
2060,7200001043731,新規,0,2025-05-07,2025-05-07,タナシンテック株式会社,,株式会社,岐阜県,中津川市,高山３５４番地１９９,,21,206,5080204,,,,,,,2025-05-07,1,,,,,タナシンテック,0
2063,7230001020892,新規,0,2025-05-07,2025-05-07,株式会社片原,,株式会社,富山県,富山市,久方町４番３１号,,16,201,9300848,,,,,,,2025-05-07,1,,,,,カタハラ,0
2065,7240001064897,新規,0,2025-05-07,2025-05-07,株式会社ＨＡＵＳ,,株式会社,広島県,広島市中区,河原町７番２２－１００２号,,34,101,7300856,,,,,,,2025-05-07,1,,,,,ハウス,0
2067,7240003007177,新規,0,2025-05-07,2025-05-07,合同会社開地設備,,合同会社,広島県,福山市,西深津町２丁目３番２号アルトデン２０１,,34,207,7210975,,,,,,,2025-05-07,1,,,,,カイチセツビ,0
2070,7260001040161,新規,0,2025-05-07,2025-05-07,株式会社ＴＯＡコーポレーション,,株式会社,岡山県,岡山市南区,妹尾２６８５番地４,,33,104,7010205,,,,,,,2025-05-07,1,,,,,トアコーポレーション,0
2071,7270001009197,新規,0,2025-05-07,2025-05-07,株式会社廣島建装,00139030,株式会社,鳥取県,境港市,明治町４０番地１,,31,204,6840022,,,,,,,2025-05-07,1,,,,,ヒロシマケンソウ,0
2076,7280005007659,新規,0,2025-05-07,2025-05-07,一般社団法人ＮＡＬＵ,,その他の設立登記法人,島根県,益田市,高津町イ２５７７番地３４,,32,204,6980041,,,,,,,2025-05-07,1,,,,,ナル,0
2079,7290001109895,新規,0,2025-05-07,2025-05-07,株式会社彩,,株式会社,福岡県,福岡市東区,和白１丁目３－２２グランブルーアクア４１６,,40,131,8110202,,,,,,,2025-05-07,1,,,,,サイ,0
2080,7290001109912,新規,0,2025-05-07,2025-05-07,株式会社ＡＤＢＡＳＥ,,株式会社,福岡県,福岡市中央区,今泉２丁目４－３１グリーンマンション今泉２０１号室,,40,133,8100021,,,,,,,2025-05-07,1,,,,,アドベース,0
2086,7290005019736,新規,0,2025-05-07,2025-05-07,一般社団法人国際ビューティー＆ヘルス協会,,その他の設立登記法人,福岡県,福岡市早良区,干隈５丁目１１番３０号,,40,137,8140163,,,,,,,2025-05-07,1,,,,,コクサイビューティーアンドヘルスキョウカイ,0
2087,7290801031497,新規,0,2025-05-07,2025-05-07,株式会社ＪＳ・ＲＩＳＥ,,株式会社,福岡県,田川市,大字夏吉１９２番地９,,40,206,8250004,,,,,,,2025-05-07,1,,,,,ジェイエスライズ,0
2090,7300001014169,新規,0,2025-05-07,2025-05-07,株式会社メディカルフェリーチェ,,株式会社,佐賀県,佐賀市,水ヶ江２丁目４番２１号,,41,201,8400054,,,,,,,2025-05-07,1,,,,,メディカルフェリーチェ,0
2091,7300001014177,新規,0,2025-05-07,2025-05-07,株式会社ｎｅｃｏｔｔｏ,,株式会社,佐賀県,佐賀市,本庄町大字本庄７番地２,,41,201,8400027,,,,,,,2025-05-07,1,,,,,ネコット,0
2092,7330001033166,新規,0,2025-05-07,2025-05-07,小林製材所株式会社,,株式会社,熊本県,天草市,牛深町２０３９番地１,,43,215,8631901,,,,,,,2025-05-07,1,,,,,コバヤシセイザイショ,0
2093,7340001027308,新規,0,2025-05-07,2025-05-07,株式会社ベスト,,株式会社,鹿児島県,鹿児島市,鴨池１丁目２番１８－１０６号,,46,201,8900063,,,,,,,2025-05-07,1,,,,,ベスト,0
2095,7340005009863,新規,0,2025-05-07,2025-05-07,あさひ行政書士法人,,その他の設立登記法人,鹿児島県,鹿児島市,荒田２丁目４５番１６号,,46,201,8900054,,,,,,,2025-05-07,1,,,,,アサヒ,0
2096,7350001019510,新規,0,2025-05-07,2025-05-07,株式会社ＬＯＲＤ　ＰＡＬＡＣＥ．,,株式会社,宮崎県,宮崎市,大島町原ノ島１６３３番地１４,,45,201,8800824,,,,,,,2025-05-07,1,,,,,ロードパレス,0
2099,7360003014797,新規,0,2025-05-07,2025-05-07,合同会社ノスタルジア,,合同会社,沖縄県,中頭郡北谷町,北谷１丁目１１番１３号,,47,326,9040116,,,,,,,2025-05-07,1,,,,,,0
2100,7370001052542,新規,0,2025-05-07,2025-05-07,株式会社ＯＮｅ,,株式会社,宮城県,仙台市青葉区,川平５丁目４－３０キャピタル中山４－Ｄ,,04,101,9810954,,,,,,,2025-05-07,1,,,,,ワン,0
2101,7370001052550,新規,0,2025-05-07,2025-05-07,株式会社Ｃｏｍｒｉｚｅ,,株式会社,宮城県,仙台市泉区,南光台南２丁目２１－５ＧＡＲＡＧＥＨＯＵＳＥ南光台Ｄ,,04,105,9818002,,,,,,,2025-05-07,1,,,,,コムライズ,0
2105,7380003006025,新規,0,2025-05-07,2025-05-07,合同会社幸愛,,合同会社,福島県,いわき市,平上荒川字島田７３番地,,07,204,9708034,,,,,,,2025-05-07,1,,,,,コウア,0
2106,7390001017980,新規,0,2025-05-07,2025-05-07,株式会社キムラ不動産,,株式会社,山形県,西村山郡河北町,谷地中央４丁目１１番地の１０,,06,321,9993512,,,,,,,2025-05-07,1,,,,,キムラフドウサン,0
2111,7430001094306,新規,0,2025-05-07,2025-05-07,株式会社サムルール,,株式会社,北海道,札幌市東区,北三十条東５丁目４番２２号,,01,103,0650030,,,,,,,2025-05-07,1,,,,,サムルール,0
2112,7430001094371,新規,0,2025-05-07,2025-05-07,株式会社Ｍ‐Ｃｏｒｐｏｒａｔｉｏｎ,,株式会社,北海道,札幌市厚別区,厚別中央二条５丁目２番２５号,,01,108,0040052,,,,,,,2025-05-07,1,,,,,エムコーポレーション,0
2114,7430003017594,新規,0,2025-05-07,2025-05-07,合同会社ディールド,,合同会社,北海道,恵庭市,恵み野東７丁目７番１５,,01,231,0611371,,,,,,,2025-05-07,1,,,,,ディールド,0
2120,7470001020695,新規,0,2025-05-07,2025-05-07,株式会社リフィックス,,株式会社,香川県,高松市,天神前６番７－２０１ロイヤルガーデン県庁前,,37,201,7600018,,,,,,,2025-05-07,1,,,,,リフィックス,0
2123,7500003003505,新規,0,2025-05-07,2025-05-07,合同会社ソートフルメカニクス,,合同会社,愛媛県,今治市,上徳甲３７番地４,,38,202,7991511,,,,,,,2025-05-07,1,,,,,ソートフルメカニクス,0
2130,8010001254405,新規,0,2025-05-07,2025-05-07,株式会社虹色えんぴつ,,株式会社,東京都,中央区,銀座４丁目１３－１１松竹倶楽部ビル４階,,13,102,1040061,,,,,,,2025-05-07,1,,,,,ニジイロエンピツ,0
2131,8010001254660,新規,0,2025-05-07,2025-05-07,東京マルマル株式会社,,株式会社,東京都,千代田区,外神田５丁目１－１５白桃書房１Ｆ,,13,101,1010021,,,,,,,2025-05-07,1,,,,,トウキョウマルマル,0
2140,8010005040009,新規,0,2025-05-07,2025-05-07,一般社団法人ハンドボールファミリー,,その他の設立登記法人,東京都,千代田区,九段北１丁目２番２号,,13,101,1020073,,,,,,,2025-05-07,1,,,,,ハンドボールファミリー,0
2146,8010401189903,新規,0,2025-05-07,2025-05-07,Ｃｅｎｔｏｅｎ株式会社,,株式会社,東京都,港区,南麻布２丁目１－１,,13,103,1060047,,,,,,,2025-05-07,1,,,,,セントエン,0
2147,8010401190200,新規,0,2025-05-07,2025-05-07,株式会社セブンマイル,,株式会社,東京都,港区,南青山５丁目５番１２－３０３号,,13,103,1070062,,,,,,,2025-05-07,1,,,,,セブンマイル,0
2148,8010403034966,新規,0,2025-05-07,2025-05-07,合同会社ＴＭ,,合同会社,東京都,港区,芝浦１丁目１５－７,,13,103,1050023,,,,,,,2025-05-07,1,,,,,ティーエム,0
2149,8010405024379,新規,0,2025-05-07,2025-05-07,Ｂｅｔａ特定目的会社,,その他の設立登記法人,東京都,港区,虎ノ門５丁目１番４号,,13,103,1050001,,,,,,,2025-05-07,1,,,,,ベータ,0
2151,8010501054016,新規,0,2025-05-07,2025-05-07,株式会社Ａｄａｎｓｏｎｉａ,,株式会社,東京都,台東区,東上野３丁目１２番１１全漁業ビル７Ａ,,13,106,1100015,,,,,,,2025-05-07,1,,,,,アダンソニア,0
2154,8010601067231,新規,0,2025-05-07,2025-05-07,株式会社Ｖｅｒｉｑｕｅ,,株式会社,東京都,墨田区,本所１丁目２５番１－７１５号ＧＲＡＮＪＯＵＥＴＨＯＮＪＯ,,13,107,1300004,,,,,,,2025-05-07,1,,,,,ベリーク,0
2155,8010603011542,新規,0,2025-05-07,2025-05-07,合同会社ｑｕｅｓｔｉｏｎ,,合同会社,東京都,江東区,塩浜２丁目２４番１０－１０９号,,13,108,1350043,,,,,,,2025-05-07,1,,,,,クエスチョン,0
2157,8010703007688,新規,0,2025-05-07,2025-05-07,Ｒ合同会社,,合同会社,東京都,品川区,西五反田２丁目２２－６,,13,109,1410031,,,,,,,2025-05-07,1,,,,,アール,0
2160,8010801036119,新規,0,2025-05-07,2025-05-07,暁興産株式会社,,株式会社,東京都,大田区,大森中３丁目４番１５号,,13,111,1430014,,,,,,,2025-05-07,1,,,,,アカツキコウサン,0
2161,8010801036135,新規,0,2025-05-07,2025-05-07,株式会社スカイフライヤー,,株式会社,東京都,大田区,山王１丁目３８番２号,,13,111,1430023,,,,,,,2025-05-07,1,,,,,スカイフライヤー,0
2163,8010901057287,新規,0,2025-05-07,2025-05-07,Ｗｈｅｎ　Ｉ　ｗａｓ　ｙｏｕｎｇ株式会社,,株式会社,東京都,世田谷区,豪徳寺１丁目４６番１５号,,13,112,1540021,,,,,,,2025-05-07,1,,,,,ウェナイワズヤン,0
2167,8011001169403,新規,0,2025-05-07,2025-05-07,株式会社天翔る,,株式会社,東京都,渋谷区,代々木１丁目１９番１２号新代々木ビル５階,,13,113,1510053,,,,,,,2025-05-07,1,,,,,アマカケル,0
2174,8011101111652,新規,0,2025-05-07,2025-05-07,株式会社ゼットリンカー,,株式会社,東京都,新宿区,西新宿３丁目３番１３号西新宿水間ビル２Ｆ,,13,104,1600023,,,,,,,2025-05-07,1,,,,,ゼットリンカー,0
2176,8011103000300,新規,0,2025-05-07,2025-05-07,合資会社井浦薬局,,合資会社,東京都,新宿区,大久保２丁目１番３号,,13,104,1690072,,,,,,,2025-05-07,1,,,,,イウラヤッキョク,0
2178,8011303005529,新規,0,2025-05-07,2025-05-07,合同会社ＳＯＹＡＮＧ,,合同会社,東京都,杉並区,井草３丁目２５番６号シャトー・ド・デューカル３０３,,13,115,1670021,,,,,,,2025-05-07,1,,,,,ソーヤング,0
2185,8011701028321,新規,0,2025-05-07,2025-05-07,株式会社Ｌｏｖｅｒ,,株式会社,東京都,江戸川区,中葛西４丁目１３―１１メゾンシカノ２２０２号,,13,123,1340083,,,,,,,2025-05-07,1,,,,,ラヴァー,0
2190,8013103001443,新規,0,2025-05-07,2025-05-07,合同会社Ｎｉｃｏ　ＰａＬ　ｈａｉｒｓａｌｏｎ,,合同会社,東京都,青梅市,河辺町５丁目２９番地３５－１Ｆ,,13,205,1980036,,,,,,,2025-05-07,1,,,,,ニコパルヘアーサロン,0
2194,8013301054160,新規,0,2025-05-07,2025-05-07,エクセライク株式会社,,株式会社,東京都,豊島区,東池袋４丁目２１番１号ＯＷＬＴＯＷＥＲ２０１,,13,116,1700013,,,,,,,2025-05-07,1,,,,,エクセライク,0
2195,8013301054202,新規,0,2025-05-07,2025-05-07,株式会社チケモ,,株式会社,東京都,豊島区,東池袋５丁目７番３号東池袋五丁目ビル１０階,,13,116,1700013,,,,,,,2025-05-07,1,,,,,チケモ,0
2204,8020001162648,新規,0,2025-05-07,2025-05-07,株式会社ＢＲＩＤＧＥ,,株式会社,神奈川県,川崎市中原区,丸子通１丁目６２７－６－５０１,,14,133,2110006,,,,,,,2025-05-07,1,,,,,ブリッジ,0
2205,8020001162755,新規,0,2025-05-07,2025-05-07,株式会社矩幸ＥＳＴＡＴＥ,,株式会社,神奈川県,川崎市多摩区,菅５丁目１８番１０号,,14,135,2140001,,,,,,,2025-05-07,1,,,,,カネコウエステート,0
2223,8021003015934,新規,0,2025-05-07,2025-05-07,Ｙ合同会社,,合同会社,神奈川県,藤沢市,鵠沼神明３丁目５番２０－２階,,14,205,2510021,,,,,,,2025-05-07,1,,,,,ワイ,0
2227,8030001166235,新規,0,2025-05-07,2025-05-07,新風活水株式会社,,株式会社,埼玉県,蕨市,中央２丁目８番３３号ワラビスカイハイツ７０１号,,11,223,3350004,,,,,,,2025-05-07,1,,,,,シンプウカッスイ,0
2228,8030001166301,新規,0,2025-05-07,2025-05-07,株式会社暁律堂,,株式会社,埼玉県,狭山市,大字水野１２９２番地の９,,11,215,3501317,,,,,,,2025-05-07,1,,,,,キョウリツドウ,0
2229,8030001166318,新規,0,2025-05-07,2025-05-07,株式会社ＯＮＥ　ＨＥＡＲＴ,,株式会社,埼玉県,川口市,柳崎３丁目１７番１０号,,11,203,3330861,,,,,,,2025-05-07,1,,,,,ワンハート,0
2230,8030001166359,新規,0,2025-05-07,2025-05-07,株式会社トリガー,,株式会社,埼玉県,草加市,栄町３丁目４番９号小櫃第２ビル３Ｆ,,11,221,3400011,,,,,,,2025-05-07,1,,,,,トリガー,0
2234,8030003026701,新規,0,2025-05-07,2025-05-07,ユニバディ合同会社,,合同会社,埼玉県,吉川市,大字木売新田３４８番地１,,11,243,3420044,,,,,,,2025-05-07,1,,,,,ユニバディ,0
2238,8040001138349,新規,0,2025-05-07,2025-05-07,三和建設株式会社,,株式会社,千葉県,流山市,木３丁目１０番地の２０,,12,220,2700162,,,,,,,2025-05-07,1,,,,,サンワケンセツ,0
2239,8040001138555,新規,0,2025-05-07,2025-05-07,株式会社古堅,,株式会社,千葉県,野田市,山崎１３８７番地の９,,12,208,2780022,,,,,,,2025-05-07,1,,,,,フルゲン,0
2240,8040001138563,新規,0,2025-05-07,2025-05-07,株式会社ＢＯＮＡＮＺＡハウス,,株式会社,千葉県,柏市,豊四季３５８番地１３エムティワン３０１号,,12,217,2770863,,,,,,,2025-05-07,1,,,,,ボナンザ,0
2241,8040001138596,新規,0,2025-05-07,2025-05-07,株式会社輸送品質安全車輌管理センター,,株式会社,千葉県,市原市,青柳北３丁目２番地１７,,12,219,2990101,,,,,,,2025-05-07,1,,,,,ユソウヒンシツアンゼンシャリョウカンリセンター,0
2242,8040001138605,新規,0,2025-05-07,2025-05-07,株式会社Ｆ＆Ｓ,,株式会社,千葉県,市川市,八幡５丁目１番５号,,12,203,2720021,,,,,,,2025-05-07,1,,,,,エフアンドエス,0
2249,8040003027475,新規,0,2025-05-07,2025-05-07,合同会社Ｍ．Ｋ‐Ｇ,,合同会社,千葉県,松戸市,二十世紀が丘戸山町８７番地カサベルデ戸山Ｃ棟１０１号,,12,207,2710082,,,,,,,2025-05-07,1,,,,,エムケージー,0
2250,8040003027483,新規,0,2025-05-07,2025-05-07,合同会社ＳＩＲＩＬＡＮＫＡ　ＧＥＭＳ,,合同会社,千葉県,野田市,山崎２４５３－３０ガーデニア２０２号室,,12,208,2780022,,,,,,,2025-05-07,1,,,,,シリランカジェムス,0
2254,8050005013621,新規,0,2025-05-07,2025-05-07,医療法人樹会,,その他の設立登記法人,茨城県,水戸市,宮町２丁目３番３８号シルバーイン３Ｆ,,08,201,3100015,,,,,,,2025-05-07,1,,,,,イツキカイ,0
2256,8060001038167,新規,0,2025-05-07,2025-05-07,株式会社加藤商事,,株式会社,栃木県,足利市,上渋垂町４９４番地５,,09,202,3260335,,,,,,,2025-05-07,1,,,,,カトウショウジ,0
2259,8070001042903,新規,0,2025-05-07,2025-05-07,株式会社Ｇ．Ｓ,,株式会社,群馬県,佐波郡玉村町,大字上福島３８５番地１７フローラＣ棟,,10,464,3701104,,,,,,,2025-05-07,1,,,,,ジーエス,0
2260,8080001026913,新規,0,2025-05-07,2025-05-07,郷島建設株式会社,,株式会社,静岡県,藤枝市,清里１丁目１５番地の３２,,22,214,4260223,,,,,,,2025-05-07,1,,,,,ゴウジマケンセツ,0
2263,8080101025476,新規,0,2025-05-07,2025-05-07,株式会社和田総業,,株式会社,静岡県,富士宮市,淀師１３６番地の７,,22,207,4180051,,,,,,,2025-05-07,1,,,,,ワダソウギョウ,0
2268,8080401027890,新規,0,2025-05-07,2025-05-07,株式会社河合塗装,,株式会社,静岡県,浜松市浜名区,引佐町井伊谷１７３５番地の９,,22,139,4312212,,,,,,,2025-05-07,1,,,,,カワイトソウ,0
2269,8080401027899,新規,0,2025-05-07,2025-05-07,住再産業株式会社,,株式会社,静岡県,浜松市中央区,和地町４１２３番地の２,,22,138,4311115,,,,,,,2025-05-07,1,,,,,ジュウサイサンギョウ,0
2278,8100001038567,新規,0,2025-05-07,2025-05-07,株式会社ＭＧＨ,,株式会社,長野県,下伊那郡阿智村,智里５３０－１,,20,407,3950304,,,,,,,2025-05-07,1,,,,,エムジーエイチ,0
2279,8100003008139,新規,0,2025-05-07,2025-05-07,合同会社Ｔ‐ＭＯＬＤ,,合同会社,長野県,埴科郡坂城町,大字上五明９１３番地２,,20,521,3890606,,,,,,,2025-05-07,1,,,,,ティーモールド,0
2280,8100005013343,新規,0,2025-05-07,2025-05-07,一般社団法人Ｆｉｆｔｙ４,,その他の設立登記法人,長野県,長野市,若宮２丁目６番地４,,20,201,3810032,,,,,,,2025-05-07,1,,,,,フィフティーフォー,0
2282,8110005017228,新規,0,2025-05-07,2025-05-07,一般社団法人ジェムストーン,,その他の設立登記法人,新潟県,新潟市秋葉区,善道町１丁目１番２４号,,15,105,9560865,,,,,,,2025-05-07,1,,,,,ジェムストーン,0
2290,8120001275068,新規,0,2025-05-07,2025-05-07,ＷＩＬＤＣＡＲＧＯ株式会社,,株式会社,大阪府,大阪市北区,堂島１丁目１番５号関電不動産梅田新道ビルＢ２Ｆ,,27,127,5300003,,,,,,,2025-05-07,1,,,,,ワイルドカーゴ,0
2291,8120001275191,新規,0,2025-05-07,2025-05-07,株式会社Ｓｕｎ,,株式会社,大阪府,大阪市中央区,南船場３丁目２番２２号おおきに南船場ビル２０５,,27,128,5420081,,,,,,,2025-05-07,1,,,,,サン,0
2292,8120001275200,新規,0,2025-05-07,2025-05-07,ＳＫＹＰＲＯ株式会社,,株式会社,大阪府,大阪市中央区,松屋町９番２０号ローレルステート松屋町１２０５Ａ,,27,128,5420067,,,,,,,2025-05-07,1,,,,,スカイプロ,0
2293,8120001275209,新規,0,2025-05-07,2025-05-07,株式会社ＳＳ,,株式会社,大阪府,大阪市西成区,玉出西２丁目３番２号,,27,122,5570045,,,,,,,2025-05-07,1,,,,,エスエス,0
2294,8120001275530,新規,0,2025-05-07,2025-05-07,株式会社ＰＲＯＦＩＬＥ,,株式会社,大阪府,大阪市北区,神山町９番２４－４０１号,,27,127,5300026,,,,,,,2025-05-07,1,,,,,プロフィール,0
2300,8120003029307,新規,0,2025-05-07,2025-05-07,ＥＬＭＡＲＣＯ合同会社,,合同会社,大阪府,大阪市北区,豊崎３丁目１６番１６ー１１０１号,,27,127,5310072,,,,,,,2025-05-07,1,,,,,エルマルコ,0
2311,8120901050792,新規,0,2025-05-07,2025-05-07,宝京株式会社,,株式会社,大阪府,箕面市,瀬川４丁目１８－１７キャンパスＬ１０５室,,27,220,5620045,,,,,,,2025-05-07,1,,,,,ホウキョウ,0
2314,8122001039196,新規,0,2025-05-07,2025-05-07,株式会社ＧｅａＲ,,株式会社,大阪府,八尾市,東本町５丁目１０番１号片山ビル３Ｆ,,27,212,5810004,,,,,,,2025-05-07,1,,,,,ギア,0
2316,8122003003191,新規,0,2025-05-07,2025-05-07,ゆきのひかり合同会社,,合同会社,大阪府,四條畷市,岡山東３丁目５番６３－１３０６号,,27,229,5750003,,,,,,,2025-05-07,1,,,,,ユキノヒカリ,0
2317,8122003003200,新規,0,2025-05-07,2025-05-07,合同会社八朔,,合同会社,大阪府,東大阪市,桜町３番８号,,27,227,5798047,,,,,,,2025-05-07,1,,,,,ハッサク,0
2321,8130001079575,新規,0,2025-05-07,2025-05-07,株式会社京都慈惠堂,,株式会社,京都府,船井郡京丹波町,豊田山内６９番地,,26,407,6220231,,,,,,,2025-05-07,1,,,,,キョウトジエイドウ,0
2322,8130001079583,新規,0,2025-05-07,2025-05-07,Ｅｐｈｅｍｅｒａｌ　Ｇｌａｄｅｓ　Ｓｏｆｔｗａｒｅ株式会社,,株式会社,京都府,京都市北区,上賀茂西上之段町２３番地５,,26,101,6038028,,,,,,,2025-05-07,1,,,,,エフェメラルグレーズソフトウェア,0
2323,8130001079641,新規,0,2025-05-07,2025-05-07,株式会社アサイックマネジメント,,株式会社,京都府,京都市中京区,西ノ京北円町４,,26,104,6048462,,,,,,,2025-05-07,1,,,,,アサイックマネジメント,0
2327,8140001138363,新規,0,2025-05-07,2025-05-07,秀治株式会社,,株式会社,兵庫県,三田市,下内神５１５番地３８,,28,219,6691333,,,,,,,2025-05-07,1,,,,,シュウジ,0
2328,8140001138396,新規,0,2025-05-07,2025-05-07,株式会社Ｔ＆Ｅ,,株式会社,兵庫県,神戸市須磨区,大池町４丁目１－８－７０３,,28,107,6540026,,,,,,,2025-05-07,1,,,,,トライアンドエラー,0
2329,8140001138462,新規,0,2025-05-07,2025-05-07,株式会社マングローブジャパン,,株式会社,兵庫県,神戸市中央区,磯辺通１丁目１番１８号カサベラ国際プラザビル７０７号室,,28,110,6510084,,,,,,,2025-05-07,1,,,,,マングローブジャパン,0
2334,8150001028101,新規,0,2025-05-07,2025-05-07,株式会社ＡＩ　Ｍｕｓｕｂｉ,,株式会社,奈良県,奈良市,瓦堂町９－１－３１０,,29,201,6308326,,,,,,,2025-05-07,1,,,,,アイムスビ,0
2335,8150002011188,新規,0,2025-05-07,2025-05-07,有限会社岡田晃建築士事務所,,有限会社,奈良県,吉野郡大淀町,大字新野４１番地の１,,29,442,6393126,,,,,,,2025-05-07,1,,,,,,0
2342,8180001166641,新規,0,2025-05-07,2025-05-07,株式会社鬼頭土建,,株式会社,愛知県,名古屋市天白区,御前場町１５３番地の１０（島田分譲５４８号）,,23,116,4680023,,,,,,,2025-05-07,1,,,,,キトウドケン,0
2343,8180001166658,新規,0,2025-05-07,2025-05-07,株式会社みどり塾,,株式会社,愛知県,名古屋市緑区,上旭１丁目４０７番地,,23,114,4580016,,,,,,,2025-05-07,1,,,,,ミドリジュク,0
2344,8180001166666,新規,0,2025-05-07,2025-05-07,株式会社Ｐｌａｃｅ,,株式会社,愛知県,名古屋市北区,楠味鋺３丁目３２０２番地,,23,103,4620014,,,,,,,2025-05-07,1,,,,,プレイス,0
2345,8180001166716,新規,0,2025-05-07,2025-05-07,株式会社ＴＡＣＴ　Ｏｎｅ,,株式会社,愛知県,あま市,小路２丁目４番地７,,23,237,4901106,,,,,,,2025-05-07,1,,,,,タクトワン,0
2347,8180003028443,新規,0,2025-05-07,2025-05-07,ＥａｓｙＡＩ合同会社,,合同会社,愛知県,名古屋市中村区,名駅３丁目４－１０アルティメイト名駅１ｓｔ２階,,23,105,4500002,,,,,,,2025-05-07,1,,,,,イージーエーアイ,0
2351,8180301039778,新規,0,2025-05-07,2025-05-07,イフジ空調株式会社,,株式会社,愛知県,豊橋市,南大清水町字元町１９３番地１,,23,201,4418132,,,,,,,2025-05-07,1,,,,,イフジクウチョウ,0
2353,8190003005020,新規,0,2025-05-07,2025-05-07,合同会社Ｌｉｔｅｒａ,,合同会社,三重県,鈴鹿市,高岡台３丁目１２番１２号,,24,207,5130019,,,,,,,2025-05-07,1,,,,,,0
2354,8190005012048,新規,0,2025-05-07,2025-05-07,特定非営利活動法人桑名城再建市民の会,,その他の設立登記法人,三重県,桑名市,新町６１番地１,,24,205,5110048,,,,,,,2025-05-07,1,,,,,クワナジョウサイケンシミンノカイ,0
2358,8200001043730,新規,0,2025-05-07,2025-05-07,株式会社ヤマモトＨＤ,,株式会社,岐阜県,揖斐郡揖斐川町,三倉１３３番地の１,,21,401,5010704,,,,,,,2025-05-07,1,,,,,ヤマモトホールディングス,0
2360,8220001026659,新規,0,2025-05-07,2025-05-07,株式会社ゑん総サービス,,株式会社,石川県,金沢市,城南２丁目４２―８　城南坂ビル２階,,17,201,9200966,,,,,,,2025-05-07,1,,,,,エンソウサービス,0
2361,8220001026667,新規,0,2025-05-07,2025-05-07,株式会社池田建築,,株式会社,石川県,鹿島郡中能登町,良川り部２８番地１,,17,407,9291717,,,,,,,2025-05-07,1,,,,,イケダケンチク,0
2365,8230001020883,新規,0,2025-05-07,2025-05-07,株式会社ＩＣＷ,,株式会社,富山県,小矢部市,島２１７番地１,,16,209,9320825,,,,,,,2025-05-07,1,,,,,アイシーダブリュ,0
2366,8230001020891,新規,0,2025-05-07,2025-05-07,株式会社ＯＳＫ,,株式会社,富山県,中新川郡上市町,大岩３２番地,,16,322,9300463,,,,,,,2025-05-07,1,,,,,オーエスケー,0
2367,8240001005925,新規,0,2025-05-07,2025-05-07,ダイケン食品株式会社,,株式会社,広島県,広島市中区,土橋町２番１８号,,34,101,7300854,,,,,,,2025-05-07,1,,,,,,0
2368,8240001064896,新規,0,2025-05-07,2025-05-07,株式会社イチゴイチエ,,株式会社,広島県,広島市東区,山根町７番３－７号,,34,102,7320048,,,,,,,2025-05-07,1,,,,,イチゴイチエ,0
2372,8260001040169,新規,0,2025-05-07,2025-05-07,株式会社ＹＴＡ,,株式会社,岡山県,倉敷市,幸町６番６－５０８号ケイマイティＩＩ,00139037,33,202,7100051,,,,,,,2025-05-07,1,,,,,ワイティーエー,0
2376,8270001009196,新規,0,2025-05-07,2025-05-07,ＫＯＹＯ工業株式会社,,株式会社,鳥取県,米子市,灘町３丁目１４８番地５０,,31,202,6830835,,,,,,,2025-05-07,1,,,,,コーヨーコウギョウ,0
2377,8280001009419,新規,0,2025-05-07,2025-05-07,ＩＤ　ｌａｂ株式会社,,株式会社,島根県,邑智郡川本町,大字因原１１４４番地２５,,32,441,6960003,,,,,,,2025-05-07,1,,,,,アイディーラボ,0
2387,8290001109878,新規,0,2025-05-07,2025-05-07,オクサリス株式会社,,株式会社,福岡県,飯塚市,八木山２１４９番地２,,40,205,8200047,,,,,,,2025-05-07,1,,,,,オクサリス,0
2388,8290001109886,新規,0,2025-05-07,2025-05-07,ティーコーポレーション株式会社,,株式会社,福岡県,福岡市博多区,半道橋２丁目６番３４号,,40,132,8120897,,,,,,,2025-05-07,1,,,,,ティーコーポレーション,0
2389,8290001109903,新規,0,2025-05-07,2025-05-07,株式会社ブルームブーケ,,株式会社,福岡県,大牟田市,東萩尾町３４４番地２,,40,202,8360097,,,,,,,2025-05-07,1,,,,,ブルームブーケ,0
2390,8290001109911,新規,0,2025-05-07,2025-05-07,ＡＮＧＥＬＩＣＡ　ＫＩＮＧ株式会社,,株式会社,福岡県,みやま市,高田町南新開１０４１,,40,229,8390205,,,,,,,2025-05-07,1,,,,,アンジェリカキング,0
2395,8290003016767,新規,0,2025-05-07,2025-05-07,合同会社オオガミ,,合同会社,福岡県,福岡市博多区,上呉服町２番７－１０２号ストリーム呉服町,,40,132,8120036,,,,,,,2025-05-07,1,,,,,,0
2397,8290005019735,新規,0,2025-05-07,2025-05-07,一般社団法人サポートぱんだ,,その他の設立登記法人,福岡県,大野城市,下大利４丁目７番３７号ＯＡＫＶＩＬＬＡ大野城レジデンス１０３号,,40,219,8160952,,,,,,,2025-05-07,1,,,,,サポートパンダ,0
2400,8290801031505,新規,0,2025-05-07,2025-05-07,ＡＩＴＯトレーディング株式会社,,株式会社,福岡県,北九州市八幡西区,則松５丁目１４番１号,,40,109,8070831,,,,,,,2025-05-07,1,,,,,アイトトレーディング,0
2401,8290805009828,新規,0,2025-05-07,2025-05-07,医療法人コン太会,,その他の設立登記法人,福岡県,北九州市八幡西区,八枝５丁目４番１１号,,40,109,8070856,,,,,,,2025-05-07,1,,,,,コンタカイ,0
2402,8300003002278,新規,0,2025-05-07,2025-05-07,合同会社Ｏｎｅ　Ｆａｃｔｏｒｙ,,合同会社,佐賀県,唐津市,東唐津３丁目６番３６号,,41,202,8470017,,,,,,,2025-05-07,1,,,,,ワンファクトリー,0
2406,8330003010988,新規,0,2025-05-07,2025-05-07,合同会社ＴＲＵＳＴＥＰＳ,,合同会社,熊本県,熊本市東区,尾ノ上２丁目１３番２２号,,43,102,8620913,,,,,,,2025-05-07,1,,,,,トラステップス,0
2411,8340005009862,新規,0,2025-05-07,2025-05-07,あさひ社会保険労務士法人,,その他の設立登記法人,鹿児島県,鹿児島市,荒田２丁目４５番１６号,,46,201,8900054,,,,,,,2025-05-07,1,,,,,アサヒ,0
2421,8370003007056,新規,0,2025-05-07,2025-05-07,合同会社ＳＳ開発,,合同会社,宮城県,亘理郡山元町,八手庭字屋敷４０－１,,04,362,9892207,,,,,,,2025-05-07,1,,,,,エスエスカイハツ,0
2424,8380001035272,新規,0,2025-05-07,2025-05-07,株式会社白河ラーメンやまだ,,株式会社,福島県,郡山市,安積町笹川字目光池西３２番地の１,,07,203,9630102,,,,,,,2025-05-07,1,,,,,シラカワラーメンヤマダ,0
2425,8380001035280,新規,0,2025-05-07,2025-05-07,株式会社ライススタート,,株式会社,福島県,郡山市,熱海町安子島字町１５２番地,,07,203,9631304,,,,,,,2025-05-07,1,,,,,ライススタート,0
2429,8380005012961,新規,0,2025-05-07,2025-05-07,一般社団法人別府農楽の会,,その他の設立登記法人,福島県,喜多方市,塩川町小府根字畑ケ田１７４７番地の２,,07,208,9693532,,,,,,,2025-05-07,1,,,,,ベップノウガクノカイ,0
2431,8400003003448,新規,0,2025-05-07,2025-05-07,合同会社伊保内,,合同会社,岩手県,九戸郡九戸村,大字荒谷第２地割２８番地,,03,506,0286501,,,,,,,2025-05-07,1,,,,,イボナイ,0
2433,8410003004098,新規,0,2025-05-07,2025-05-07,合同会社Ｆｕｎｔｅｃ,,合同会社,秋田県,南秋田郡八郎潟町,夜叉袋字下昼寝３６３番地１４,,05,363,0181606,,,,,,,2025-05-07,1,,,,,ファンテック,0
2434,8420005007957,新規,0,2025-05-07,2025-05-07,一般社団法人さくらもり,,その他の設立登記法人,青森県,弘前市,大字末広２丁目４番地３,,02,202,0368085,,,,,,,2025-05-07,1,,,,,サクラモリ,0
2437,8430001094354,新規,0,2025-05-07,2025-05-07,Ｄｗａｒｆ　Ｗｏｒｋｓ株式会社,,株式会社,北海道,石狩郡新篠津村,第４３線南１６番地,,01,304,0681100,,,,,,,2025-05-07,1,,,,,ドワーフワークス,0
2441,8430005015232,新規,0,2025-05-07,2025-05-07,特定非営利活動法人農とつながるラボ,,その他の設立登記法人,北海道,札幌市中央区,伏見１丁目１番１０号伏見タウンハウスＤ１０５号,,01,101,0640942,,,,,,,2025-05-07,1,,,,,ノウトツナガルラボ,0
2447,8700150130312,新規,0,2025-05-07,2025-05-07,Ｓｈｅｎｚｈｅｎｓｈｉｊｉｕｚｈｉｚｈｉｈｕｉｋｅｊｉｙｏｕｘｉａｎｇｏｎｇｓｉ,,外国会社等,,,,,,,,１４０４，Ｂｕｉｌｄｉｎｇ　２，Ｃｈｏｎｇｗｅｎ　Ｐａｒｋ，Ｎａｎｓｈａｎ　Ｚｈｉｙｕａｎ，Ｎｏ．３３７０，Ｌｉｕｘｉａｎ　Ａｖｅｎｕｅ，Ｆｕｇｕａｎｇ　Ｃｏｍｍｕｎｉｔｙ，Ｔａｏｙｕａｎ　Ｓｔｒｅｅｔ，Ｎａｎｓｈａｎ　Ｄｉｓｔｒｉｃｔ，Ｓｈｅｎｚｈｅｎ，Ｃｈｉｎａ,,,,,,2025-05-07,1,,,,,シンセンシジュウジチホゥイカギユウゲンコウシ,0
2459,9010001254404,新規,0,2025-05-07,2025-05-07,株式会社Ｐ２Ｍ,,株式会社,東京都,中央区,晴海１丁目８番５－１５０７号,,13,102,1040053,,,,,,,2025-05-07,1,,,,,ピーツーエム,0
2460,9010101016662,新規,0,2025-05-07,2025-05-07,株式会社ステア,,株式会社,東京都,八王子市,犬目町９１８番地１ロイヤルレジデンス１階１０１号室,,13,201,1930802,,,,,,,2025-05-07,1,,,,,ステア,0
2466,9010401189877,新規,0,2025-05-07,2025-05-07,株式会社ＦａｎＬｉｎｋ,,株式会社,東京都,港区,南青山２丁目２番１５号,,13,103,1070062,,,,,,,2025-05-07,1,,,,,ファンリンク,0
2467,9010401189910,新規,0,2025-05-07,2025-05-07,イーバリューサーブ・アイピー・コンサルティング株式会社,,株式会社,東京都,港区,赤坂２丁目２３番１号アークヒルズ・フロントタワーＲｏＰ８０６号室,,13,103,1070052,,,,,,,2025-05-07,1,,,,,イーバリューサーブアイピーコンサルティング,0
2469,9010403034981,新規,0,2025-05-07,2025-05-07,合同会社Ｒｉｎｋ８,,合同会社,東京都,港区,南青山３丁目１番３６号青山丸竹ビル６Ｆ,,13,103,1070062,,,,,,,2025-05-07,1,,,,,リンクエイト,0
2470,9010405024378,新規,0,2025-05-07,2025-05-07,Ａｌｐｈａ特定目的会社,,その他の設立登記法人,東京都,港区,虎ノ門５丁目１番４号,,13,103,1050001,,,,,,,2025-05-07,1,,,,,アルファ,0
2472,9010501054056,新規,0,2025-05-07,2025-05-07,株式会社ｔｓｕｍｕｇｉ,,株式会社,東京都,台東区,竜泉２丁目６番８－３０４号コンフォリア上野入谷,,13,106,1100012,,,,,,,2025-05-07,1,,,,,ツムギ,0
2475,9010503007821,新規,0,2025-05-07,2025-05-07,合同会社Ｊ,,合同会社,東京都,台東区,上野２丁目２番３号コロンビアビル２Ａ,,13,106,1100005,,,,,,,2025-05-07,1,,,,,ジェイ,0
2479,9010601067230,新規,0,2025-05-07,2025-05-07,ＫＳＰ株式会社,,株式会社,東京都,墨田区,錦糸１丁目４番１４相澤ビル３０１号室,,13,107,1300013,,,,,,,2025-05-07,1,,,,,ケーエスピー,0
2480,9010601067263,新規,0,2025-05-07,2025-05-07,ヒトトロボソリューション株式会社,,株式会社,東京都,江東区,潮見２丁目８番１０号,,13,108,1350052,,,,,,,2025-05-07,1,,,,,ヒトトロボソリューション,0
2482,9010603011541,新規,0,2025-05-07,2025-05-07,Ｒｅｌｏｃａｔｅ　Ｊａｐａｎ合同会社,,合同会社,東京都,江東区,有明３丁目７番２６号有明フロンティアビルＢ棟９階,,13,108,1350063,,,,,,,2025-05-07,1,,,,,リロケートジャパン,0
2492,9011001169047,新規,0,2025-05-07,2025-05-07,エムテック株式会社,,株式会社,東京都,渋谷区,恵比寿西２丁目８－４ＥＸ恵比寿西ビル５階,,13,113,1500021,,,,,,,2025-05-07,1,,,,,エムテック,0
2493,9011001169278,新規,0,2025-05-07,2025-05-07,ＡＤｏｐｉｃｘ株式会社,,株式会社,東京都,渋谷区,道玄坂１丁目１０番８号渋谷道玄坂東急ビル２Ｆ－Ｃ,,13,113,1500043,,,,,,,2025-05-07,1,,,,,アドピックス,0
2497,9011005011007,新規,0,2025-05-07,2025-05-07,一般社団法人ジジラボ,,その他の設立登記法人,東京都,目黒区,自由が丘２丁目１６番１２号ＲＪ３,,13,110,1520035,,,,,,,2025-05-07,1,,,,,ジジラボ,0
2499,9011101111684,新規,0,2025-05-07,2025-05-07,ＩＫＫＡＫＵ株式会社,,株式会社,東京都,新宿区,新宿１丁目２４番１２号ＴｈｅＧａｔｅ新宿御苑１階,,13,104,1600022,,,,,,,2025-05-07,1,,,,,イッカク,0
2505,9011201026329,新規,0,2025-05-07,2025-05-07,株式会社ＣＡＮＥＹ,,株式会社,東京都,中野区,中野３丁目３８番１０－３０３号,,13,114,1640001,,,,,,,2025-05-07,1,,,,,ケニー,0
2508,9011301030552,新規,0,2025-05-07,2025-05-07,株式会社クレント,,株式会社,東京都,杉並区,永福３丁目１０番２号,,13,115,1680064,,,,,,,2025-05-07,1,,,,,クレント,0
2509,9011301030560,新規,0,2025-05-07,2025-05-07,株式会社吉田板金工業,,株式会社,東京都,杉並区,上高井戸１丁目２２番４号ヴィレッジ・イン・芦花１０２,,13,115,1680074,,,,,,,2025-05-07,1,,,,,ヨシダバンキンコウギョウ,0
2510,9011303005528,新規,0,2025-05-07,2025-05-07,ＯｒｃａＬｅａｐ合同会社,,合同会社,東京都,杉並区,堀ノ内１丁目２－１０－１０５,,13,115,1660013,,,,,,,2025-05-07,1,,,,,オルカリープ,0
2513,9011401027060,新規,0,2025-05-07,2025-05-07,万徳株式会社,,株式会社,東京都,板橋区,大山町１９番７,,13,119,1730023,,,,,,,2025-05-07,1,,,,,マントク,0
2514,9011403004685,新規,0,2025-05-07,2025-05-07,合同会社メディソワン,,合同会社,東京都,板橋区,中板橋１１－１２,,13,119,1730016,,,,,,,2025-05-07,1,,,,,メディソワン,0
2517,9011601028627,新規,0,2025-05-07,2025-05-07,株式会社Ｃ‐ｓｕｉｔｅ＆Ｃｏ．,,株式会社,東京都,練馬区,早宮２丁目２１番３１号,,13,120,1790085,,,,,,,2025-05-07,1,,,,,シースイートアンドコー,0
2524,9012801023946,新規,0,2025-05-07,2025-05-07,株式会社山下ビル,,株式会社,東京都,武蔵村山市,榎２丁目８３番地の１,,13,223,2080022,,,,,,,2025-05-07,1,,,,,ヤマシタビル,0
2527,9013301054192,新規,0,2025-05-07,2025-05-07,株式会社ＡＳＡＲＡＳ,,株式会社,東京都,豊島区,西池袋４丁目２４番９－７０２号,,13,116,1710021,,,,,,,2025-05-07,1,,,,,アサラス,0
2537,9020001162622,新規,0,2025-05-07,2025-05-07,株式会社ＯＫＥＹＡ,,株式会社,神奈川県,川崎市幸区,小倉３丁目１９番８－２号,,14,132,2120054,,,,,,,2025-05-07,1,,,,,オケヤ,0
2538,9020001162721,新規,0,2025-05-07,2025-05-07,株式会社広川・アンド・カンパニー,,株式会社,神奈川県,川崎市宮前区,土橋２丁目１５番地２１ザ・ヒルズ鷺沼１０４,,14,136,2160005,,,,,,,2025-05-07,1,,,,,ヒロカワアンドカンパニー,0
2539,9020001162738,新規,0,2025-05-07,2025-05-07,株式会社大友ワークス,,株式会社,神奈川県,横浜市中区,本郷町３丁目２６８番地６,,14,104,2310843,,,,,,,2025-05-07,1,,,,,オオトモワークス,0
2544,9020003028367,新規,0,2025-05-07,2025-05-07,広誠合同会社,,合同会社,神奈川県,横浜市鶴見区,汐入町２丁目３５－５,,14,101,2300043,,,,,,,2025-05-07,1,,,,,コウセイ,0
2545,9020003028409,新規,0,2025-05-07,2025-05-07,ティーアンドエム合同会社,,合同会社,神奈川県,川崎市多摩区,栗谷４丁目１番４２号,,14,135,2140039,,,,,,,2025-05-07,1,,,,,ティーアンドエム,0
2546,9020003028417,新規,0,2025-05-07,2025-05-07,合同会社Ｊ’ｓ　Ｍｕｓｉｃ　Ｅｎｔｅｒｔａｉｎｍｅｎｔ,,合同会社,神奈川県,横浜市神奈川区,三ツ沢下町２４番５８号,,14,102,2210852,,,,,,,2025-05-07,1,,,,,ジェイズミュージックエンターテインメント,0
2553,9030001165863,新規,0,2025-05-07,2025-05-07,日天株式会社,,株式会社,埼玉県,朝霞市,三原１丁目７－１０スカイピア朝霞台２０５室,,11,227,3510025,,,,,,,2025-05-07,1,,,,,ニッテン,0
2554,9030001166325,新規,0,2025-05-07,2025-05-07,株式会社Ｋｉグループ,,株式会社,埼玉県,川口市,鳩ヶ谷本町２丁目９番１２－２０２号,,11,203,3340002,,,,,,,2025-05-07,1,,,,,ケイアイグループ,0
2555,9030001166333,新規,0,2025-05-07,2025-05-07,株式会社Ｈ．Ｙ．ＣＵＳＴＯＭ＆ＣＯ．,,株式会社,埼玉県,新座市,西堀２丁目１７番２７－５１号,,11,230,3520031,,,,,,,2025-05-07,1,,,,,エイチワイカスタムアンドコー,0
2556,9030001166424,新規,0,2025-05-07,2025-05-07,株式会社もふもふ堂,,株式会社,埼玉県,ふじみ野市,福岡３丁目９番８号,,11,245,3560011,,,,,,,2025-05-07,1,,,,,モフモフドウ,0
2560,9030003026700,新規,0,2025-05-07,2025-05-07,合同会社ＳＲＭ,,合同会社,埼玉県,さいたま市南区,辻３丁目３番２号１－６０９,00139018,11,108,3360026,,,,,,,2025-05-07,1,,,,,エスアールエム,0
2565,9040001138562,新規,0,2025-05-07,2025-05-07,株式会社ゼータエッジ,,株式会社,千葉県,市川市,南八幡３丁目１６番１号,,12,203,2720023,,,,,,,2025-05-07,1,,,,,ゼータエッジ,0
2566,9040001138579,新規,0,2025-05-07,2025-05-07,株式会社石い,,株式会社,千葉県,市川市,大野町１丁目７９番地,,12,203,2720805,,,,,,,2025-05-07,1,,,,,イシイ,0
2567,9040001138587,新規,0,2025-05-07,2025-05-07,株式会社ａ＆ｂ,,株式会社,千葉県,千葉市美浜区,稲毛海岸５丁目１番２８号稲毛カトレア７０８号,,12,106,2610005,,,,,,,2025-05-07,1,,,,,エーアンドビー,0
2568,9040001138620,新規,0,2025-05-07,2025-05-07,恩照株式会社,,株式会社,千葉県,柏市,花野井１２６－４スペリオｋ－ＩＩ２０２号室,00139032,12,217,2770812,,,,,,,2025-05-07,1,,,,,オンシュウ,0
2577,9070001042910,新規,0,2025-05-07,2025-05-07,株式会社グロニクス,,株式会社,群馬県,みどり市,笠懸町阿左美１３５２－４ファーストステージＡ２０３,,10,212,3792311,,,,,,,2025-05-07,1,,,,,,0
2579,9070003005898,新規,0,2025-05-07,2025-05-07,合同会社トウヤマ・クラフト,,合同会社,群馬県,桐生市,川内町５丁目３３３番地６,,10,203,3760041,,,,,,,2025-05-07,1,,,,,トウヤマクラフト,0
2580,9070003005915,新規,0,2025-05-07,2025-05-07,合同会社Ｃｏｌｏｒ’ｓ　Ｃｏｍｐａｎｙ,,合同会社,群馬県,高崎市,元島名町１４２－６,,10,202,3700014,,,,,,,2025-05-07,1,,,,,カラーズカンパニー,0
2582,9080401027898,新規,0,2025-05-07,2025-05-07,株式会社乗松鉄工,,株式会社,静岡県,浜松市中央区,新橋町５６１番地,,22,138,4328058,,,,,,,2025-05-07,1,,,,,ノリマツテッコウ,0
2585,9090003002811,新規,0,2025-05-07,2025-05-07,合同会社Ｔ’ｓ　ＰＲＩＮＴ,,合同会社,山梨県,甲州市,塩山下塩後７２３,,19,213,4040044,,,,,,,2025-05-07,1,,,,,ティーズプリント,0
2586,9100001038566,新規,0,2025-05-07,2025-05-07,株式会社きづきくみたてワンダーラボ,,株式会社,長野県,北佐久郡軽井沢町,大字軽井沢１０１２番地３５,,20,321,3890102,,,,,,,2025-05-07,1,,,,,キヅキクミタテワンダーラボ,0
2587,9100001038574,新規,0,2025-05-07,2025-05-07,株式会社西堀建築設計,,株式会社,長野県,長野市,大字高田１１３７－１７,,20,201,3810034,,,,,,,2025-05-07,1,,,,,ニシボリケンチクセッケイ,0
2589,9100005013342,新規,0,2025-05-07,2025-05-07,一般社団法人Ｎａｇａｎｏ　Ｔｅｃｈ　Ｓｔｙｌｅ　Ｌａｂ,,その他の設立登記法人,長野県,長野市,アークス９番１４号,,20,201,3800918,,,,,,,2025-05-07,1,,,,,ナガノテックスタイルラボ,0
2602,9120001275075,新規,0,2025-05-07,2025-05-07,ヤシの木コンサルティング株式会社,,株式会社,大阪府,大阪市西区,阿波座１丁目１２－２１レオイアビル８０２,,27,106,5500011,,,,,,,2025-05-07,1,,,,,ヤシノキコンサルティング,0
2603,9120001275125,新規,0,2025-05-07,2025-05-07,ＳＡＮＷＩＮ株式会社,,株式会社,大阪府,大阪市西成区,梅南２丁目２番６号,,27,122,5570033,,,,,,,2025-05-07,1,,,,,サンウィン,0
2604,9120001275133,新規,0,2025-05-07,2025-05-07,恒明株式会社,,株式会社,大阪府,寝屋川市,成田東町１５番１１号,,27,215,5720001,,,,,,,2025-05-07,1,,,,,コウメイ,0
2605,9120001275158,新規,0,2025-05-07,2025-05-07,株式会社宝道,,株式会社,大阪府,大阪市東住吉区,西今川１丁目７番４号,,27,121,5460042,,,,,,,2025-05-07,1,,,,,ホウドウ,0
2606,9120001275199,新規,0,2025-05-07,2025-05-07,志博株式会社,,株式会社,大阪府,大阪市都島区,中野町４丁目３番６号Ｈ２Ｈ大阪桜之宮邸３Ｃ－２,,27,102,5340027,,,,,,,2025-05-07,1,,,,,シハク,0
2607,9120001275224,新規,0,2025-05-07,2025-05-07,株式会社ＢＥＴＨＥＬ,,株式会社,大阪府,大阪市西区,南堀江３丁目８－３,,27,106,5500015,,,,,,,2025-05-07,1,,,,,ベテル,0
2608,9120001275232,新規,0,2025-05-07,2025-05-07,株式会社クロサワ,,株式会社,大阪府,大阪市淀川区,三津屋中３丁目４番１９号,,27,123,5320036,,,,,,,2025-05-07,1,,,,,クロサワ,0
2609,9120001275554,新規,0,2025-05-07,2025-05-07,株式会社ミヤビリース,,株式会社,大阪府,大阪市西区,新町１丁目２４番１１号,,27,106,5500013,,,,,,,2025-05-07,1,,,,,ミヤビリース,0
2610,9120101071564,新規,0,2025-05-07,2025-05-07,ドーリテック株式会社,,株式会社,大阪府,堺市北区,東上野芝町２丁５００－１－２－１１２,,27,146,5918035,,,,,,,2025-05-07,1,,,,,ドーリテック,0
2611,9120101071622,新規,0,2025-05-07,2025-05-07,株式会社ＧＥＮＴＥＮ,,株式会社,大阪府,堺市堺区,高砂町３丁１０２番地,,27,141,5900820,,,,,,,2025-05-07,1,,,,,ゲンテン,0
2614,9122001039195,新規,0,2025-05-07,2025-05-07,株式会社東建設,,株式会社,大阪府,東大阪市,柏田東町３番２５号,,27,227,5770833,,,,,,,2025-05-07,1,,,,,ヒガシケンセツ,0
2615,9122001039204,新規,0,2025-05-07,2025-05-07,株式会社シンセラスト,,株式会社,大阪府,東大阪市,足代１丁目１４番３号,,27,227,5770841,,,,,,,2025-05-07,1,,,,,シンセラスト,0
2622,9130001079574,新規,0,2025-05-07,2025-05-07,株式会社ジャスト,,株式会社,京都府,京都市右京区,西院東貝川町６４,,26,108,6150057,,,,,,,2025-05-07,1,,,,,ジャスト,0
2623,9130003010421,新規,0,2025-05-07,2025-05-07,合同会社商科村塾,,合同会社,京都府,京都市上京区,東桜町７,,26,102,6020858,,,,,,,2025-05-07,1,,,,,ショウカソンジュク,0
2627,9140001138461,新規,0,2025-05-07,2025-05-07,株式会社ＡＯＩコーポレーション,,株式会社,兵庫県,神戸市兵庫区,下祇園町９番１６号下祇園コーポ１０３,00139022,28,105,6520015,,,,,,,2025-05-07,1,,,,,アオイコーポレーション,0
2635,9150002007359,新規,0,2025-05-07,2025-05-07,有限会社グリーンホーム川端,,有限会社,奈良県,橿原市,葛本町７１０番地２,,29,205,6340007,,,,,,,2025-05-07,1,,,,,グリーンホームカワバタ,0
2636,9150003003596,新規,0,2025-05-07,2025-05-07,合同会社光和,,合同会社,奈良県,北葛城郡上牧町,米山台３丁目１６番１７号,,29,424,6390213,,,,,,,2025-05-07,1,,,,,コウワ,0
2638,9160001026722,新規,0,2025-05-07,2025-05-07,ＲｉｓｅＨｏｐｅ株式会社,,株式会社,滋賀県,彦根市,西沼波町１３０番地４アーバンパレス３番館１０７号,,25,202,5220038,,,,,,,2025-05-07,1,,,,,ライズホープ,0
2640,9170003002209,新規,0,2025-05-07,2025-05-07,合同会社ノア,,合同会社,和歌山県,紀の川市,東国分７３８番地２０,,30,208,6496428,,,,,,,2025-05-07,1,,,,,ノア,0
2653,9180001166566,新規,0,2025-05-07,2025-05-07,陽成株式会社,,株式会社,愛知県,瀬戸市,広之田町５５７－１,,23,204,4801203,,,,,,,2025-05-07,1,,,,,ハナ,0
2654,9180001166590,新規,0,2025-05-07,2025-05-07,株式会社ＥＨＬ　ＮＡＧＯＹＡ,,株式会社,愛知県,名古屋市中区,栄３丁目１５番３７号エフジー栄ビル７階,,23,106,4600008,,,,,,,2025-05-07,1,,,,,イーエイチエルナゴヤ,0
2655,9180001166640,新規,0,2025-05-07,2025-05-07,ｃｏｎｆｉｄｏ株式会社,,株式会社,愛知県,清須市,阿原八幡１０４番地,,23,233,4520901,,,,,,,2025-05-07,1,,,,,コンフィード,0
2656,9180001166649,新規,0,2025-05-07,2025-05-07,マルノワ株式会社,,株式会社,愛知県,名古屋市東区,葵１丁目９番２４号,,23,102,4610004,,,,,,,2025-05-07,1,,,,,マルノワ,0
2657,9180001166681,新規,0,2025-05-07,2025-05-07,株式会社市川建築,,株式会社,愛知県,名古屋市港区,甚兵衛通４丁目１番地の１,,23,111,4550822,,,,,,,2025-05-07,1,,,,,イチカワケンチク,0
2660,9180003028434,新規,0,2025-05-07,2025-05-07,Ａｓａｎｏ　Ｒｅａｌｔｙ合同会社,,合同会社,愛知県,名古屋市中村区,元中村町１丁目８７番地,,23,105,4530047,,,,,,,2025-05-07,1,,,,,アサノリアルティ,0
2661,9180003028442,新規,0,2025-05-07,2025-05-07,合同会社ＧＢＬ,,合同会社,愛知県,名古屋市中区,栄４丁目１１番１号,,23,106,4600008,,,,,,,2025-05-07,1,,,,,ジービーエル,0
2663,9190001032189,新規,0,2025-05-07,2025-05-07,株式会社豊受米穀店,,株式会社,三重県,伊勢市,中須町字友竹７６３番地,,24,203,5160053,,,,,,,2025-05-07,1,,,,,トヨウケベイコクテン,0
2668,9200001043738,新規,0,2025-05-07,2025-05-07,株式会社ユープランニング,,株式会社,岐阜県,大垣市,三塚町３８２番地,00139021,21,202,5030808,,,,,,,2025-05-07,1,,,,,ユープランニング,0
2674,9220001026658,新規,0,2025-05-07,2025-05-07,株式会社ＲＥハウス２１,,株式会社,石川県,金沢市,三十苅町乙１５７番地,,17,201,9218131,,,,,,,2025-05-07,1,,,,,リハウスニジュウイチ,0
2675,9220001026666,新規,0,2025-05-07,2025-05-07,株式会社遠水建材,,株式会社,石川県,白山市,北安田町１２７１番地,,17,210,9240024,,,,,,,2025-05-07,1,,,,,トオミズケンザイ,0
2677,9230001020882,新規,0,2025-05-07,2025-05-07,株式会社キノシタ板金,,株式会社,富山県,射水市,二口３１９５番地２,,16,211,9390234,,,,,,,2025-05-07,1,,,,,キノシタバンキン,0
2678,9230001020890,新規,0,2025-05-07,2025-05-07,株式会社ネイビー,,株式会社,富山県,富山市,田畑１０４６番地６,,16,201,9318403,,,,,,,2025-05-07,1,,,,,ネイビー,0
2679,9230001020899,新規,0,2025-05-07,2025-05-07,株式会社Ｍｏｖｅ　Ｃｒｅａｔｅ,,株式会社,富山県,滑川市,上島１１８‐１６,,16,206,9360852,,,,,,,2025-05-07,1,,,,,ムーヴクリエイト,0
2680,9230005009468,新規,0,2025-05-07,2025-05-07,Ｔｒｉｎｉｔｙ　Ｉｎｔｅｒｎａｔｉｏｎａｌ　Ｓｃｈｏｏｌ一般社団法人,,その他の設立登記法人,富山県,富山市,中冨居８番２０号,,16,201,9300832,,,,,,,2025-05-07,1,,,,,トリニティインターナショナルスクール,0
2681,9240001064904,新規,0,2025-05-07,2025-05-07,ＫＡＩＳＥＩ株式会社,,株式会社,広島県,三原市,沼田東町七宝１９０番地１２,,34,204,7230148,,,,,,,2025-05-07,1,,,,,カイセイ,0
2685,9250003003719,新規,0,2025-05-07,2025-05-07,合同会社大橋商会,,合同会社,山口県,宇部市,草江４丁目８番４０号,,35,202,7550004,,,,,,,2025-05-07,1,,,,,オオハシショウカイ,0
2688,9260001040168,新規,0,2025-05-07,2025-05-07,ベジタライス株式会社,,株式会社,岡山県,倉敷市,玉島乙島９５９番地２,,33,202,7138103,,,,,,,2025-05-07,1,,,,,ベジタライス,0
2699,9290001109893,新規,0,2025-05-07,2025-05-07,株式会社Ｈｅｐｔａｇｏｎ‐ＷＲ,,株式会社,福岡県,春日市,泉１丁目１２４番地,,40,218,8160853,,,,,,,2025-05-07,1,,,,,ヘプタゴンダブリューアール,0
2700,9290001109910,新規,0,2025-05-07,2025-05-07,株式会社Ｓｙｎｃ,,株式会社,福岡県,福岡市中央区,大手門２丁目１番１１号,,40,133,8100074,,,,,,,2025-05-07,1,,,,,シンク,0
2701,9290001109951,新規,0,2025-05-07,2025-05-07,山栄リペア株式会社,,株式会社,福岡県,福岡市中央区,高砂１丁目１番２５－９０３号,,40,133,8100011,,,,,,,2025-05-07,1,,,,,サンエイリペア,0
2710,9290003016675,新規,0,2025-05-07,2025-05-07,合同会社ＧＦＢ,,合同会社,福岡県,福岡市早良区,田隈２丁目３１－１４グランドソレイユ１０５,,40,137,8140174,,,,,,,2025-05-07,1,,,,,ジーエフビー,0
2712,9290005019734,新規,0,2025-05-07,2025-05-07,医療法人ＪＡＫ,,その他の設立登記法人,福岡県,春日市,小倉１丁目１,,40,218,8160824,,,,,,,2025-05-07,1,,,,,ジャック,0
2713,9290801031520,新規,0,2025-05-07,2025-05-07,株式会社ＩＳＨＩＩグループ,,株式会社,福岡県,鞍手郡鞍手町,大字新延１４８３番地１,,40,402,8071305,,,,,,,2025-05-07,1,,,,,イシイグループ,0
2715,9300001014175,新規,0,2025-05-07,2025-05-07,株式会社ＤＡ・ＧＩＮＯ,,株式会社,佐賀県,佐賀市,神野東３丁目７番１３号,,41,201,8400804,,,,,,,2025-05-07,1,,,,,ダジーノ,0
2716,9300001014183,新規,0,2025-05-07,2025-05-07,株式会社オートサービス池田,,株式会社,佐賀県,杵島郡白石町,大字福富下分２６５７番地１,,41,425,8490402,,,,,,,2025-05-07,1,,,,,オートサービスイケダ,0
2724,9330003010995,新規,0,2025-05-07,2025-05-07,合同会社４ＳＥＡＳＯＮＳ,,合同会社,熊本県,熊本市西区,島崎７丁目２２番２６号,,43,103,8600073,,,,,,,2025-05-07,1,,,,,フォーシーズンズ,0
2725,9340001027314,新規,0,2025-05-07,2025-05-07,株式会社東久保樹苗園,,株式会社,鹿児島県,鹿屋市,下祓川町２３０４番地６,,46,203,8930024,,,,,,,2025-05-07,1,,,,,トウクボジュビョウエン,0
2731,9360001035109,新規,0,2025-05-07,2025-05-07,株式会社ＳＣＡＳＨ沖縄,,株式会社,沖縄県,那覇市,西１丁目１３番９号,,47,201,9000036,,,,,,,2025-05-07,1,,,,,スカッシュオキナワ,0
2733,9360003014878,新規,0,2025-05-07,2025-05-07,合同会社ＭＯＥＬ,,合同会社,沖縄県,那覇市,山下町２８番３６号照屋アパート３０３号,,47,201,9000027,,,,,,,2025-05-07,1,,,,,モエル,0
2734,9360003014894,新規,0,2025-05-07,2025-05-07,合同会社ドリームハウス,,合同会社,沖縄県,糸満市,西川町１番１－３０１号プラウディアコート糸満西川,,47,210,9010304,,,,,,,2025-05-07,1,,,,,ドリームハウス,0
2737,9380001035288,新規,0,2025-05-07,2025-05-07,株式会社ＴＯＹＡ,,株式会社,福島県,いわき市,好間町下好間字一町坪１３２番地８,,07,204,9701151,,,,,,,2025-05-07,1,,,,,トヤ,0
2739,9390001017979,新規,0,2025-05-07,2025-05-07,株式会社Ｆｅダクト,,株式会社,山形県,山形市,南栄町１丁目１番４８－２号,,06,201,9902445,,,,,,,2025-05-07,1,,,,,エフイーダクト,0
2740,9400003003447,新規,0,2025-05-07,2025-05-07,合同会社ｓｍｉｌｅ　ｍｅｄｉｃａｌ,,合同会社,岩手県,一関市,山目字中野６２番地１,,03,209,0210053,,,,,,,2025-05-07,1,,,,,スマイルメディカル,0
2741,9410001014156,新規,0,2025-05-07,2025-05-07,株式会社ディゼル,,株式会社,秋田県,にかほ市,平沢字上町７７番地,,05,214,0180402,,,,,,,2025-05-07,1,,,,,ディゼル,0
2742,9410003004097,新規,0,2025-05-07,2025-05-07,合同会社ジェイデライフ,,合同会社,秋田県,秋田市,八橋田五郎２丁目５番５号,,05,201,0100972,,,,,,,2025-05-07,1,,,,,ジェイデライフ,0
2743,9410005006645,新規,0,2025-05-07,2025-05-07,農事組合法人山吹の里いわせ,,その他の設立登記法人,秋田県,秋田市,金足岩瀬字前山５６番地,,05,201,0100111,,,,,,,2025-05-07,1,,,,,ヤマブキノサトイワセ,0
2746,9430001094304,新規,0,2025-05-07,2025-05-07,株式会社ビレイヤ,,株式会社,北海道,札幌市西区,平和二条６丁目１番３０号,,01,107,0630022,,,,,,,2025-05-07,1,,,,,ビレイヤ,0
2748,9430003017618,新規,0,2025-05-07,2025-05-07,合同会社ＴＡＩＫＯ,,合同会社,北海道,札幌市中央区,南六条西２５丁目２番１１－４１１号,,01,101,0640806,,,,,,,2025-05-07,1,,,,,タイコ,0
2754,9480005007091,新規,0,2025-05-07,2025-05-07,ＮＰＯ法人保護猫はうすむげん,,その他の設立登記法人,徳島県,徳島市,伊賀町２丁目１７番地３,,36,201,7700926,,,,,,,2025-05-07,1,,,,,ホゴネコハウスムゲン,0
2755,9500001026282,新規,0,2025-05-07,2025-05-07,株式会社今治せとうち広告,,株式会社,愛媛県,今治市,朝倉上甲２４５９番地５,,38,202,7991607,,,,,,,2025-05-07,1,,,,,イマバリセトウチコウコク,0
2758,9700150130311,新規,0,2025-05-07,2025-05-07,ＬＩＮＫＴＡＰ　ＰＴＹ　ＬＴＤ,,外国会社等,,,,,,,,１９　ＢＥＬＬＢＩＲＤ　ＬＯＯＰ　ＬＡＷＳＯＮ　ＡＣＴ　２６１７　ＡＵＳＴＲＡＬＩＡ,,,,,,2025-05-07,1,,,,,リンクタッププロプライエタリーリミテッド,0
