sequenceNumber,corporateNumber,process,correct,updateDate,changeDate,name,nameImageId,kind,prefectureName,cityName,streetNumber,addressImageId,prefectureCode,cityCode,postCode,addressOutside,addressOutsideImageId,closeDate,closeCause,successorCorporateNumber,changeCause,assignmentDate,latest,enName,enPrefectureName,enCityName,enAddressOutside,furigana,hihyoji
11,1010001219752,新規,0,2021-07-19,2021-07-19,株式会社ハッピーゴーラッキー,,株式会社,東京都,中央区,日本橋箱崎町２０番３－３０１号,,13,102,1030015,,,,,,,2021-07-19,1,,,,,ハッピーゴーラッキー,0
12,1010001219760,新規,0,2021-07-19,2021-07-19,株式会社Ｊアセット,,株式会社,東京都,中央区,銀座１丁目１５番７号ＭＡＣ銀座ビル３Ｆ,,13,102,1040061,,,,,,,2021-07-19,1,,,,,ジェイアセット,0
13,1010001219777,新規,0,2021-07-19,2021-07-19,株式会社ＬＥＧＡＲＥＡ,,株式会社,東京都,中央区,銀座８丁目１８番３号銀座加藤ビル２階,,13,102,1040061,,,,,,,2021-07-19,1,,,,,レガリア,0
14,1010001219785,新規,0,2021-07-19,2021-07-19,ニコバ株式会社,,株式会社,東京都,千代田区,外神田４丁目９－２、１Ｆ,,13,101,1010021,,,,,,,2021-07-19,1,,,,,ニコバ,0
16,1010003035339,新規,0,2021-07-19,2021-07-19,日光Ｐｌｕｓ１９合同会社２,,合同会社,東京都,千代田区,丸の内３丁目１番１号東京共同会計事務所内,,13,101,1000005,,,,,,,2021-07-19,1,,,,,ニッコウプラスナインティーンニ,0
20,1010103001736,新規,0,2021-07-19,2021-07-19,合同会社ＥａｒｔｈＡｓｓｅｔ,,合同会社,東京都,八王子市,暁町１丁目１３番４号ハイネス王子３０２号,,13,201,1920043,,,,,,,2021-07-19,1,,,,,アースアセット,0
23,1010401161521,新規,0,2021-07-19,2021-07-19,株式会社みのりプロジェクト,,株式会社,東京都,港区,浜松町２丁目２番１５号浜松町ダイヤビル２Ｆ,,13,103,1050013,,,,,,,2021-07-19,1,,,,,ミノリプロジェクト,0
34,1010703005855,新規,0,2021-07-19,2021-07-19,Ｏｒｔｕｓ　Ｌｉｆｅ合同会社,,合同会社,東京都,品川区,北品川５丁目３－１－１６１２,,13,109,1410001,,,,,,,2021-07-19,1,,,,,オータスライフ,0
40,1010901049118,新規,0,2021-07-19,2021-07-19,Ｈｏｕｓｅｒｙ株式会社,,株式会社,東京都,世田谷区,代田３丁目１４番１８号,,13,112,1550033,,,,,,,2021-07-19,1,,,,,ハウサリー,0
52,1011001141707,新規,0,2021-07-19,2021-07-19,株式会社ＥＲＡ,,株式会社,東京都,渋谷区,渋谷１丁目７番３号,,13,113,1500002,,,,,,,2021-07-19,1,,,,,イーアールエー,0
53,1011001141780,新規,0,2021-07-19,2021-07-19,株式会社ｃｕｉｃｕｉ,,株式会社,東京都,渋谷区,東２丁目２２番５号,,13,113,1500011,,,,,,,2021-07-19,1,,,,,キュイキュイ,0
54,1011001141806,新規,0,2021-07-19,2021-07-19,株式会社ＤＬＬ．ｅｎｔｅｒｔａｉｎｍｅｎｔ,,株式会社,東京都,渋谷区,東２丁目２０番２号Ａｎｏｎ渋谷Ｂ－２０１,,13,113,1500011,,,,,,,2021-07-19,1,,,,,ディールエンターテイメント,0
55,1011001141839,新規,0,2021-07-19,2021-07-19,Ｗｅｓｔｂａｎｋ　Ｌｉｖｉｎｇ　Ｔｏｋｙｏ株式会社,,株式会社,東京都,渋谷区,千駄ヶ谷１丁目２８番１号佳秀ビル,,13,113,1510051,,,,,,,2021-07-19,1,,,,,ウェストバンクリビングトウキョウ,0
57,1011003013078,新規,0,2021-07-19,2021-07-19,合同会社ＲＡＩ,,合同会社,東京都,目黒区,青葉台１丁目９－６－１０２,,13,110,1530042,,,,,,,2021-07-19,1,,,,,ライ,0
63,1011101095753,新規,0,2021-07-19,2021-07-19,株式会社ＳＮＯＷ　ＦＡＬＬ,,株式会社,東京都,新宿区,百人町２丁目１番４５号赤煉瓦３０１,,13,104,1690073,,,,,,,2021-07-19,1,,,,,スノーフォール,0
70,1011203003597,新規,0,2021-07-19,2021-07-19,合同会社Ｌｕｃｅｎｔ－ｓｉｇｎ,,合同会社,東京都,中野区,中央２丁目５３番２５号,,13,114,1640011,,,,,,,2021-07-19,1,,,,,ルーセントサイン,0
76,1011601025268,新規,0,2021-07-19,2021-07-19,株式会社ダリア,,株式会社,東京都,練馬区,氷川台３丁目１０番１６号,,13,120,1790084,,,,,,,2021-07-19,1,,,,,ダリア,0
79,1011801039472,新規,0,2021-07-19,2021-07-19,株式会社エスター・アール・フード,,株式会社,東京都,葛飾区,金町３丁目３４－１０,,13,122,1250042,,,,,,,2021-07-19,1,,,,,エスターアールフード,0
82,1012301012630,新規,0,2021-07-19,2021-07-19,ＡＲＫ株式会社,,株式会社,東京都,町田市,高ヶ坂２丁目２７番１号,,13,209,1940014,,,,,,,2021-07-19,1,,,,,アーク,0
86,1012401038113,新規,0,2021-07-19,2021-07-19,インターマース株式会社,,株式会社,東京都,多摩市,落合１丁目４６番１号ココリア多摩センター７階,,13,224,2060033,,,,,,,2021-07-19,1,,,,,インターマース,0
88,1012701016586,新規,0,2021-07-19,2021-07-19,孔明ナンプレ株式会社,,株式会社,東京都,小平市,小川町２丁目１１５３番地の３６,,13,211,1870032,,,,,,,2021-07-19,1,,,,,コウメイナンプレ,0
98,1020001142284,新規,0,2021-07-19,2021-07-19,アメリカスタイル工務店株式会社,,株式会社,神奈川県,横浜市西区,宮ケ谷２５番地２,,14,103,2200006,,,,,,,2021-07-19,1,,,,,アメリカスタイルコウムテン,0
102,1020003020199,新規,0,2021-07-19,2021-07-19,合同会社ノクターン,,合同会社,神奈川県,横浜市中区,山下町２１１番地８ＡＬＰＳ山下町３０３号室,,14,104,2310023,,,,,,,2021-07-19,1,,,,,ノクターン,0
122,1030001143397,新規,0,2021-07-19,2021-07-19,株式会社ＣＨＡＲＮＡ,,株式会社,埼玉県,さいたま市大宮区,宮町２丁目３番地矢部ビル２Ｆ,,11,103,3300802,,,,,,,2021-07-19,1,,,,,シェルナ,0
130,1040001119421,新規,0,2021-07-19,2021-07-19,株式会社ＺＮ,,株式会社,千葉県,八千代市,大和田新田９１１－８モンテローザ緑が丘１１３,,12,221,2760046,,,,,,,2021-07-19,1,,,,,ゼットエヌ,0
131,1040001119438,新規,0,2021-07-19,2021-07-19,町水道株式会社,,株式会社,千葉県,船橋市,習志野台８丁目１１番２３号マルシンビル１０２号,,12,204,2740063,,,,,,,2021-07-19,1,,,,,マチスイドウ,0
132,1040001119462,新規,0,2021-07-19,2021-07-19,ＲＯＯＭ　ＯＵＴＳＩＤＥ株式会社,,株式会社,千葉県,千葉市緑区,あすみが丘東３丁目１８番地６,,12,105,2670067,,,,,,,2021-07-19,1,,,,,ルームアウトサイド,0
139,1040005021284,新規,0,2021-07-19,2021-07-19,一般社団法人日本陰陽五行美容協会,,その他の設立登記法人,千葉県,松戸市,西馬橋２丁目４０番地の４１,,12,207,2710044,,,,,,,2021-07-19,1,,,,,ニホンインヨウゴギョウビヨウキョウカイ,0
143,1060001033918,新規,0,2021-07-19,2021-07-19,宇都宮ライトパワー株式会社,,株式会社,栃木県,宇都宮市,東宿郷４丁目２番１６号,,09,201,3210953,,,,,,,2021-07-19,1,,,,,ウツノミヤライトパワー,0
145,1070001038288,新規,0,2021-07-19,2021-07-19,株式会社ＨＩＮＡＴＡ,,株式会社,群馬県,前橋市,天川大島町３丁目３９番地３,,10,201,3792154,,,,,,,2021-07-19,1,,,,,ヒナタ,0
149,1090001017109,新規,0,2021-07-19,2021-07-19,株式会社ヘルシースパサンロード身延湯の杜,,株式会社,山梨県,南巨摩郡身延町,飯富２３０９番地１５９,,19,365,4093423,,,,,,,2021-07-19,1,,,,,ヘルシースパサンロードミノブユノモリ,0
151,1100001034449,新規,0,2021-07-19,2021-07-19,株式会社イクゼン,,株式会社,長野県,長野市,中御所２丁目４６９番地５,,20,201,3800935,,,,,,,2021-07-19,1,,,,,イクゼン,0
152,1100001034457,新規,0,2021-07-19,2021-07-19,株式会社メディアビルド,,株式会社,長野県,飯田市,松尾上溝３２３８番地１,,20,205,3950811,,,,,,,2021-07-19,1,,,,,メディアビルド,0
180,1120001239129,新規,0,2021-07-19,2021-07-19,株式会社Ｌａｂｏｒａｔｏｒｙ,,株式会社,大阪府,大阪市中央区,南船場３丁目６番２４号,,27,128,5420081,,,,,,,2021-07-19,1,,,,,ラボラトリー,0
181,1120001239194,新規,0,2021-07-19,2021-07-19,山水溶接株式会社,,株式会社,大阪府,交野市,私部４丁目２１番７号,,27,230,5760052,,,,,,,2021-07-19,1,,,,,サンスイヨウセツ,0
188,1120005022398,新規,0,2021-07-19,2021-07-19,医療法人緑生会,,その他の設立登記法人,大阪府,大阪市西区,九条１丁目１４番２９号２Ｆ,,27,106,5500027,,,,,,,2021-07-19,1,,,,,リョクセイカイ,0
194,1120103004257,新規,0,2021-07-19,2021-07-19,合同会社ふぉーゆー,,合同会社,大阪府,岸和田市,上野町東１０番６０号,,27,202,5960047,,,,,,,2021-07-19,1,,,,,フォーユー,0
200,1122001035004,新規,0,2021-07-19,2021-07-19,株式会社Ａ＆Ｍ,,株式会社,大阪府,東大阪市,西石切町３丁目３番２０号,,27,227,5798013,,,,,,,2021-07-19,1,,,,,エイアンドエム,0
212,1140001122332,新規,0,2021-07-19,2021-07-19,株式会社大和興業,,株式会社,兵庫県,尼崎市,中在家町３丁目４５５番,,28,202,6600851,,,,,,,2021-07-19,1,,,,,ヤマトコウギョウ,0
213,1140001122340,新規,0,2021-07-19,2021-07-19,ＫＡＲＮＡ株式会社,,株式会社,兵庫県,姫路市,城見台２丁目１１１１－２０９,,28,201,6700803,,,,,,,2021-07-19,1,,,,,カルナ,0
214,1140003016524,新規,0,2021-07-19,2021-07-19,合同会社ＢＩＮＡＮ,,合同会社,兵庫県,神戸市長田区,四番町７丁目２７ワコーレ長田綜合ビル１１０４号,,28,106,6530004,,,,,,,2021-07-19,1,,,,,ビナン,0
218,1160003002332,新規,0,2021-07-19,2021-07-19,合同会社ａｏ企画,,合同会社,滋賀県,湖南市,石部中央３丁目１４番２２号,,25,211,5203106,,,,,,,2021-07-19,1,,,,,アオキカク,0
227,1180001147029,新規,0,2021-07-19,2021-07-19,株式会社バードリーム,,株式会社,愛知県,名古屋市南区,三条２丁目３番１７号,,23,112,4570866,,,,,,,2021-07-19,1,,,,,バードリーム,0
228,1180003022758,新規,0,2021-07-19,2021-07-19,合同会社虹色,,合同会社,愛知県,岩倉市,大市場町郷前２３４番地１,,23,228,4820002,,,,,,,2021-07-19,1,,,,,ニジイロ,0
229,1180005019356,新規,0,2021-07-19,2021-07-19,特定非営利活動法人おさんぽやなないろ,,その他の設立登記法人,愛知県,大府市,桃山町４丁目２２３番地,,23,223,4740026,,,,,,,2021-07-19,1,,,,,オサンポヤナナイロ,0
233,1180301035172,新規,0,2021-07-19,2021-07-19,株式会社安城ディーゼル,,株式会社,愛知県,安城市,和泉町庄司作９番地２８,,23,212,4441221,,,,,,,2021-07-19,1,,,,,アンジョウディーゼル,0
235,1180303005058,新規,0,2021-07-19,2021-07-19,プラグギャップス合同会社,,合同会社,愛知県,安城市,花ノ木町７番１８号グローリアスハイツ安城弐番館５０１,,23,212,4460039,,,,,,,2021-07-19,1,,,,,プラグギャップス,0
245,1200005013224,新規,0,2021-07-19,2021-07-19,一般社団法人Ｓ＆Ｌ　Ｈｕｍｍｉｎｇｂｉｒｄ,,その他の設立登記法人,岐阜県,美濃加茂市,太田町２６８９番地３０ｃｏｙａｎｅ２Ｆ,,21,211,5050041,,,,,,,2021-07-19,1,,,,,エスアンドエルハミングバード,0
246,1220003003084,新規,0,2021-07-19,2021-07-19,合同会社Ｓａｋｅｍｏｒｅ,,合同会社,石川県,加賀市,潮津町チの１５１番地,,17,206,9220411,,,,,,,2021-07-19,1,,,,,サケモア,0
249,1240001058310,新規,0,2021-07-19,2021-07-19,株式会社赤星,,株式会社,広島県,広島市東区,矢賀３丁目１３番９－１０１号Ｂ,,34,102,7320042,,,,,,,2021-07-19,1,,,,,アカボシ,0
265,1290001093889,新規,0,2021-07-19,2021-07-19,株式会社Ｗｉｔｈ,,株式会社,福岡県,糟屋郡宇美町,とびたけ３丁目４番２０号,,40,341,8112107,,,,,,,2021-07-19,1,,,,,ウィズ,0
266,1290001093906,新規,0,2021-07-19,2021-07-19,成和造作工房株式会社,,株式会社,福岡県,筑紫野市,大字筑紫３７７番地６,,40,217,8180025,,,,,,,2021-07-19,1,,,,,セイワゾウサクコウボウ,0
267,1290001093939,新規,0,2021-07-19,2021-07-19,株式会社アウタ,,株式会社,福岡県,福岡市中央区,渡辺通５丁目１５－３５ＣＩＥＬＯ渡辺通２０３,,40,133,8100004,,,,,,,2021-07-19,1,,,,,アウタ,0
268,1290001093947,新規,0,2021-07-19,2021-07-19,８餃子株式会社,,株式会社,福岡県,福岡市博多区,住吉１丁目１番９－４２２号,,40,132,8120018,,,,,,,2021-07-19,1,,,,,ハチギョウザ,0
270,1290003011428,新規,0,2021-07-19,2021-07-19,合同会社ベストサポート六本松,,合同会社,福岡県,福岡市中央区,六本松４丁目５番１７号,,40,133,8100044,,,,,,,2021-07-19,1,,,,,ベストサポートロッポンマツ,0
271,1290801027641,新規,0,2021-07-19,2021-07-19,Ｓｕｎ　Ｇｌａｎｚ株式会社,,株式会社,福岡県,北九州市八幡西区,春日台５丁目１８番２９号,,40,109,8070844,,,,,,,2021-07-19,1,,,,,サングランズ,0
280,1330003008980,新規,0,2021-07-19,2021-07-19,合同会社木村会計,,合同会社,熊本県,熊本市東区,若葉３丁目１４番５号１０１,,43,102,8620903,,,,,,,2021-07-19,1,,,,,キムラカイケイ,0
282,1340001023948,新規,0,2021-07-19,2021-07-19,山川水産株式会社,,株式会社,鹿児島県,指宿市,山川成川字塩干形７４６６番地,,46,210,8910516,,,,,,,2021-07-19,1,,,,,ヤマカワスイサン,0
297,1400001015526,新規,0,2021-07-19,2021-07-19,株式会社ウィルスマイル,,株式会社,岩手県,盛岡市,つつじが丘３０番７号,,03,201,0200802,,,,,,,2021-07-19,1,,,,,ウィルスマイル,0
312,1450003002105,新規,0,2021-07-19,2021-07-19,ノマド合同会社,,合同会社,北海道,上川郡当麻町,四条東３丁目１－１,,01,454,0781314,,,,,,,2021-07-19,1,,,,,ノマド,0
315,1470003001996,新規,0,2021-07-19,2021-07-19,合同会社Ｓｈｉｒａｉｓｈｉ,,合同会社,香川県,高松市,香南町西庄５８番地１,,37,201,7611406,,,,,,,2021-07-19,1,,,,,シライシ,0
318,1700150104090,新規,0,2021-07-19,2021-07-12,浄水地区コミュニティ会議,,その他,愛知県,豊田市,大清水町大清水１２－１,,23,211,4700342,,,,,,,2021-07-12,1,,,,,ジヨウスイチクコミユニテイカイギ,0
329,2010001218935,新規,0,2021-07-19,2021-07-19,株式会社ＶＡＳＤＡ　Ｐｏｉｎｔ,,株式会社,東京都,千代田区,神田佐久間町２丁目１番地大原ビル３階,,13,101,1010025,,,,,,,2021-07-19,1,,,,,ヴァスダポイント,0
330,2010001219719,新規,0,2021-07-19,2021-07-19,クロココンサルティング株式会社,,株式会社,東京都,中央区,銀座４丁目３番９号クイーンズハウス地下１階,,13,102,1040061,,,,,,,2021-07-19,1,,,,,クロココンサルティング,0
331,2010001219784,新規,0,2021-07-19,2021-07-19,ＰＩＣＣＥＬ株式会社,,株式会社,東京都,千代田区,丸の内１丁目８－３丸の内トラストタワー本館２０階,,13,101,1000005,,,,,,,2021-07-19,1,,,,,ピクセル,0
337,2010103001735,新規,0,2021-07-19,2021-07-19,合同会社ジモラボ,,合同会社,東京都,八王子市,元八王子町１丁目７番地４,,13,201,1930826,,,,,,,2021-07-19,1,,,,,ジモラボ,0
346,2010401161594,新規,0,2021-07-19,2021-07-19,株式会社ロハスパートナー,,株式会社,東京都,港区,浜松町２丁目２番地１５号浜松町ダイヤビル２Ｆ,,13,103,1050013,,,,,,,2021-07-19,1,,,,,ロハスパートナー,0
349,2010403025756,新規,0,2021-07-19,2021-07-19,ＳＳ光３０合同会社,,合同会社,東京都,港区,芝公園１丁目３番１号留園ビル６階,,13,103,1050011,,,,,,,2021-07-19,1,,,,,エスエスヒカリサーティ,0
350,2010405020029,新規,0,2021-07-19,2021-07-19,一般社団法人Ａ．Ｐ．１７,,その他の設立登記法人,東京都,港区,元赤坂１丁目１番８号赤坂コミュニティビル４階,,13,103,1070051,,,,,,,2021-07-19,1,,,,,エーピーセブンティーン,0
365,2010901049109,新規,0,2021-07-19,2021-07-19,株式会社ＯＵＴＲＥＶＯ,,株式会社,東京都,世田谷区,世田谷１丁目１１番２４号３０２,,13,112,1540017,,,,,,,2021-07-19,1,,,,,アウトレボ,0
366,2010901049117,新規,0,2021-07-19,2021-07-19,株式会社Ｃ,,株式会社,東京都,世田谷区,池尻３丁目１１番７－２０３号,,13,112,1540001,,,,,,,2021-07-19,1,,,,,シー,0
372,2011001141706,新規,0,2021-07-19,2021-07-19,株式会社みらいグロース,,株式会社,東京都,渋谷区,恵比寿南１丁目１－１,,13,113,1500022,,,,,,,2021-07-19,1,,,,,ミライグロース,0
373,2011001141747,新規,0,2021-07-19,2021-07-19,株式会社ＭＰ企画,,株式会社,東京都,渋谷区,幡ヶ谷３丁目１１番５－２０１号,,13,113,1510072,,,,,,,2021-07-19,1,,,,,エムピーキカク,0
376,2011003013069,新規,0,2021-07-19,2021-07-19,合同会社ランプアップゲームス,,合同会社,東京都,渋谷区,円山町５－５Ｎａｖｉ渋谷Ｖ３階,,13,113,1500044,,,,,,,2021-07-19,1,,,,,ランプアップゲームス,0
379,2011101095760,新規,0,2021-07-19,2021-07-19,株式会社相続そうだんオフィス,,株式会社,東京都,新宿区,四谷本塩町４番４０号光丘四谷ビル３階,,13,104,1600003,,,,,,,2021-07-19,1,,,,,ソウゾクソウダンオフィス,0
380,2011103010874,新規,0,2021-07-19,2021-07-19,Ｃａｍｉｌｌｅ　Ｅｎｔｅｒｐｒｉｓｅ合同会社,,合同会社,東京都,新宿区,上落合３丁目２番１１号アーバンステージ上落合３０３,,13,104,1610034,,,,,,,2021-07-19,1,,,,,カミーユエンタープライズ,0
382,2011203003596,新規,0,2021-07-19,2021-07-19,合同会社Ｋ．Ｎ．Ｄ,,合同会社,東京都,中野区,野方２丁目６３番３－５０３号,,13,114,1650027,,,,,,,2021-07-19,1,,,,,ケイエヌディー,0
399,2012405004614,新規,0,2021-07-19,2021-07-19,特定非営利活動法人文化遺産と考古学の学際的調査研究機構,,その他の設立登記法人,東京都,調布市,国領町４丁目４７－４ファインパレス１０１,,13,208,1820022,,,,,,,2021-07-19,1,,,,,,0
401,2012701016585,新規,0,2021-07-19,2021-07-19,株式会社原嶋住設,,株式会社,東京都,東久留米市,中央町５丁目２番３７号,,13,222,2030054,,,,,,,2021-07-19,1,,,,,ハラシマジュウセツ,0
403,2012805003034,新規,0,2021-07-19,2021-07-19,一般社団法人国際労務支援協会,,その他の設立登記法人,東京都,日野市,百草４８４番地の１,,13,212,1910033,,,,,,,2021-07-19,1,,,,,コクサイロウムシエンキョウカイ,0
416,2020003020207,新規,0,2021-07-19,2021-07-19,合同会社バンブーベル,,合同会社,神奈川県,横浜市都筑区,富士見が丘３１番２７号,,14,118,2240051,,,,,,,2021-07-19,1,,,,,バンブーベル,0
425,2030001143421,新規,0,2021-07-19,2021-07-19,株式会社いずみケアエステート,,株式会社,埼玉県,羽生市,南２丁目２５番３０号,,11,216,3480053,,,,,,,2021-07-19,1,,,,,イズミケアエステート,0
428,2030003017648,新規,0,2021-07-19,2021-07-19,合同会社ｍｉｎｉｃｏ,,合同会社,埼玉県,久喜市,上内１２９８番地７,,11,232,3400211,,,,,,,2021-07-19,1,,,,,ミニコ,0
442,2040001119420,新規,0,2021-07-19,2021-07-19,株式会社唐和サービス,,株式会社,千葉県,野田市,中野台４９３番地の１,,12,208,2780035,,,,,,,2021-07-19,1,,,,,トウワサービス,0
443,2040001119437,新規,0,2021-07-19,2021-07-19,リアンナット株式会社,,株式会社,千葉県,千葉市稲毛区,天台５丁目２２番１３号,,12,103,2630016,,,,,,,2021-07-19,1,,,,,リアンナット,0
444,2040001119453,新規,0,2021-07-19,2021-07-19,株式会社ＰＲＯＤＵＣＥＷＡＶＥＳ,,株式会社,千葉県,柏市,若柴１７８番地４柏の葉キャンパス１４８街区１パークシティ柏の葉キャンパスザ・ゲートタワーウェスト３階,,12,217,2770871,,,,,,,2021-07-19,1,,,,,プロデュースウェイブズ,0
445,2040001119461,新規,0,2021-07-19,2021-07-19,株式会社サンエー技研,,株式会社,千葉県,市原市,北国分寺台１丁目１１番地１７,,12,219,2900071,,,,,,,2021-07-19,1,,,,,サンエーギケン,0
467,2080001024328,新規,0,2021-07-19,2021-07-19,株式会社ＦＩＥＪＡ,,株式会社,静岡県,静岡市清水区,草薙３丁目１１番１号,,22,103,4240886,,,,,,,2021-07-19,1,,,,,フィージャ,0
474,2090005007419,新規,0,2021-07-19,2021-07-19,特定非営利活動法人にじいろのスイミー,,その他の設立登記法人,山梨県,都留市,下谷２５１６番地１,,19,204,4020051,,,,,,,2021-07-19,1,,,,,ニジイロノスイミー,0
476,2100001034456,新規,0,2021-07-19,2021-07-19,株式会社松村工業,,株式会社,長野県,飯田市,毛賀１３３番地１,,20,205,3950813,,,,,,,2021-07-19,1,,,,,マツムラコウギョウ,0
502,2120001239128,新規,0,2021-07-19,2021-07-19,株式会社ＬｉＮＣＵＥ,,株式会社,大阪府,大阪市東成区,東今里１丁目７番２４号グランディア１１０３号,,27,115,5370011,,,,,,,2021-07-19,1,,,,,リンク,0
503,2120001239152,新規,0,2021-07-19,2021-07-19,株式会社だいなん,,株式会社,大阪府,大阪市淀川区,東三国５丁目７番１４号エムリネージュ東三国２０２号,,27,123,5320002,,,,,,,2021-07-19,1,,,,,ダイナン,0
504,2120001239177,新規,0,2021-07-19,2021-07-19,株式会社ＬｉＢＥＬ,,株式会社,大阪府,交野市,星田９丁目１番３０号,,27,230,5760016,,,,,,,2021-07-19,1,,,,,リベル,0
523,2120905006202,新規,0,2021-07-19,2021-07-19,医療法人真縁会,,その他の設立登記法人,大阪府,吹田市,豊津町１１番４１号ファミリア江坂１階,,27,205,5640051,,,,,,,2021-07-19,1,,,,,シンエンカイ,0
525,2122001035003,新規,0,2021-07-19,2021-07-19,株式会社Ｇｒｏｗ　ＵＰ　Ｄｙｎａｍｉｃ,,株式会社,大阪府,大東市,太子田３丁目１番１１号,,27,218,5740045,,,,,,,2021-07-19,1,,,,,グローアップダイナミック,0
526,2122005003567,新規,0,2021-07-19,2021-07-19,医療法人友士会,,その他の設立登記法人,大阪府,東大阪市,菱屋西２丁目８番９号,,27,227,5770807,,,,,,,2021-07-19,1,,,,,ユウシカイ,0
537,2140001122356,新規,0,2021-07-19,2021-07-19,株式会社ＭＯＮＯＲＥＳ,,株式会社,兵庫県,加古川市,別府町新野辺２００６番地の３,,28,210,6750131,,,,,,,2021-07-19,1,,,,,モノリス,0
538,2140001122389,新規,0,2021-07-19,2021-07-19,ＡＭＣ　Ｒａｃｉｎｇ株式会社,,株式会社,兵庫県,加古川市,神野町石守７５３番地の９,,28,210,6750005,,,,,,,2021-07-19,1,,,,,エーエムシーレーシング,0
543,2140003016523,新規,0,2021-07-19,2021-07-19,合同会社５１００Ｆａｃｔｏｒｙ,,合同会社,兵庫県,神戸市兵庫区,福原町１９－２,,28,105,6520036,,,,,,,2021-07-19,1,,,,,ゴーイチゼロゼロファクトリー,0
546,2160001023478,新規,0,2021-07-19,2021-07-19,株式会社イチマルハチ,,株式会社,滋賀県,米原市,宇賀野２５０番地,,25,214,5210062,,,,,,,2021-07-19,1,,,,,イチマルハチ,0
549,2170001016670,新規,0,2021-07-19,2021-07-19,株式会社Ｔｅｃｈｎｏｌｏｇｙ　Ｄｏｃｋ,,株式会社,和歌山県,有田郡有田川町,大字徳田７０９－１,,30,366,6430801,,,,,,,2021-07-19,1,,,,,テクノロジードック,0
550,2170005006916,新規,0,2021-07-19,2021-07-19,弁護士法人佐藤生空,,その他の設立登記法人,和歌山県,田辺市,湊１４番２７号ＡＢＣビル３階,,30,206,6460031,,,,,,,2021-07-19,1,,,,,サトウセイクウ,0
553,2180001146946,新規,0,2021-07-19,2021-07-19,株式会社Ｍｏｎｔｅｓｓｏｒｉ　Ｅｄｕｃａｔｉｏｎ　Ｇｒｏｕｐ,,株式会社,愛知県,名古屋市千種区,末盛通１丁目１５番地の２荘苑覚王山９Ｒ号,,23,101,4640821,,,,,,,2021-07-19,1,,,,,モンテッソーリエヂュケーショングループ,0
559,2180301035171,新規,0,2021-07-19,2021-07-19,株式会社トーカイトレード,,株式会社,愛知県,刈谷市,東境町緑ケ丘１番地１,,23,210,4480007,,,,,,,2021-07-19,1,,,,,トーカイトレード,0
560,2180303005057,新規,0,2021-07-19,2021-07-19,かべ屋合同会社,,合同会社,愛知県,豊橋市,東高田町６１番地３,,23,201,4418115,,,,,,,2021-07-19,1,,,,,カベヤ,0
566,2220005008576,新規,0,2021-07-19,2021-07-19,一般社団法人全国大学研究支援機構,,その他の設立登記法人,石川県,能美市,旭台２丁目１３番地,,17,211,9231211,,,,,,,2021-07-19,1,,,,,ゼンコクダイガクケンキュウシエンキコウ,0
574,2240003005202,新規,0,2021-07-19,2021-07-19,合同会社ｖｅｔｌｉｆｅ,,合同会社,広島県,広島市安佐南区,八木５丁目２－８,,34,105,7310101,,,,,,,2021-07-19,1,,,,,ベットライフ,0
578,2260001035777,新規,0,2021-07-19,2021-07-19,株式会社藤田山陽鉄工,,株式会社,岡山県,岡山市南区,藤田２１７２番地,,33,104,7010221,,,,,,,2021-07-19,1,,,,,フジタサンヨウテッコウ,0
589,2290001093871,新規,0,2021-07-19,2021-07-19,株式会社Ｒｅ’ｓｅｌａ　Ｆａｒｍ,,株式会社,福岡県,福岡市東区,香住ヶ丘２丁目４８番５号,,40,131,8130003,,,,,,,2021-07-19,1,,,,,リセラファーム,0
590,2290001093905,新規,0,2021-07-19,2021-07-19,株式会社ＮＥＸＴＥＣ,,株式会社,福岡県,福岡市西区,下山門４丁目１７番１０号２号室,,40,135,8190052,,,,,,,2021-07-19,1,,,,,ネクステック,0
591,2290001093921,新規,0,2021-07-19,2021-07-19,ｂｌｕｅｅｌ株式会社,,株式会社,福岡県,久留米市,諏訪野町２３７８番地２９－５０１,,40,203,8300037,,,,,,,2021-07-19,1,,,,,ブルーイール,0
598,2290003011435,新規,0,2021-07-19,2021-07-19,合同会社ヨハクデザイン,,合同会社,福岡県,福岡市中央区,高砂１丁目１７－８－９０２,,40,133,8100011,,,,,,,2021-07-19,1,,,,,ヨハクデザイン,0
599,2290801027649,新規,0,2021-07-19,2021-07-19,星新プラント株式会社,,株式会社,福岡県,北九州市八幡西区,森下町２４番１６号,,40,109,8060046,,,,,,,2021-07-19,1,,,,,セイシンプラント,0
600,2290803003887,新規,0,2021-07-19,2021-07-19,合同会社寺岡衛生,,合同会社,福岡県,田川市,大字川宮１４４３番地１６,,40,206,8260042,,,,,,,2021-07-19,1,,,,,テラオカエイセイ,0
604,2320003003577,新規,0,2021-07-19,2021-07-19,合同会社ｓｉｃｕｒｅｚｚａ,,合同会社,大分県,中津市,大字万田６９０番地８,,44,203,8710025,,,,,,,2021-07-19,1,,,,,,0
607,2330001028815,新規,0,2021-07-19,2021-07-19,株式会社Ｋ　Ｄｉｇｉｔａｌ　Ｌａｂｏ,,株式会社,熊本県,熊本市東区,東本町１番１１０号,,43,102,8620902,,,,,,,2021-07-19,1,,,,,ケイデジタルラボ,0
611,2340001023947,新規,0,2021-07-19,2021-07-19,株式会社二反田電設,,株式会社,鹿児島県,日置市,伊集院町下谷口６７９番地２,,46,216,8992501,,,,,,,2021-07-19,1,,,,,ニタンダデンセツ,0
616,2360001029100,新規,0,2021-07-19,2021-07-19,株式会社東渡,,株式会社,沖縄県,うるま市,字具志川２９９５－２ルームＤ,,47,213,9042223,,,,,,,2021-07-19,1,,,,,トウド,0
617,2360003011262,新規,0,2021-07-19,2021-07-19,合同会社Ｓｐｏｒｔｓ　Ｐｒｅｓｃｒｉｐｔｉｏｎ,,合同会社,沖縄県,那覇市,長田２丁目２４－１７ライオンズガーデン長田６０８号,,47,201,9020077,,,,,,,2021-07-19,1,,,,,スポーツプレスクリプション,0
618,2360005006467,新規,0,2021-07-19,2021-07-19,東本願寺沖縄別院,,その他の設立登記法人,沖縄県,宜野湾市,大山２丁目３２番２１号,,47,205,9012223,,,,,,,2021-07-19,1,,,,,,0
621,2370001047340,新規,0,2021-07-19,2021-07-19,株式会社ライフビジョン,,株式会社,宮城県,仙台市青葉区,国見ケ丘５丁目１７番２５号,,04,101,9893201,,,,,,,2021-07-19,1,,,,,ライフビジョン,0
643,2440003001404,新規,0,2021-07-19,2021-07-19,合同会社黒澤企画,,合同会社,北海道,北斗市,久根別２丁目５番１３号,,01,236,0490121,,,,,,,2021-07-19,1,,,,,クロサワキカク,0
651,2470001018620,新規,0,2021-07-19,2021-07-19,アドックスコム株式会社,,株式会社,香川県,高松市,六条町９３４番地６,,37,201,7610303,,,,,,,2021-07-19,1,,,,,アドックスコム,0
661,2700150032729,新規,0,2021-07-19,2015-10-09,札樽地区測量設計協会,,その他,北海道,札幌市豊平区,中の島一条４丁目９番２号北海道測量会館３階,,01,105,0620921,,,,,,,2015-10-09,1,,,,,サツソンチクソクリヨウセツケイキヨウカイ,0
665,2700150103538,新規,0,2021-07-19,2021-06-04,三重地区連合自治会,,その他,長崎県,長崎市,三重町１１４２番地１,,42,201,8512204,,,,,,,2021-06-04,1,,,,,ミエチクレンゴウジチカイ,0
675,3010001219726,新規,0,2021-07-19,2021-07-19,株式会社Ｅｄｇｅ,,株式会社,東京都,文京区,千駄木４丁目１４－１０ハウスクル千駄木ビル２０１号室,,13,105,1130022,,,,,,,2021-07-19,1,,,,,エッジ,0
676,3010001219734,新規,0,2021-07-19,2021-07-19,株式会社ＮＥＷ　ＣＡＲＥＥＲ,,株式会社,東京都,中央区,勝どき５丁目３番１－２９２１号,,13,102,1040054,,,,,,,2021-07-19,1,,,,,ニューキャリア,0
677,3010001219775,新規,0,2021-07-19,2021-07-19,株式会社ＯＮＥ　ＨＯＭＥ,,株式会社,東京都,中央区,日本橋２丁目１番１７号丹生ビル７階,,13,102,1030027,,,,,,,2021-07-19,1,,,,,ワンホーム,0
680,3010003035279,新規,0,2021-07-19,2021-07-19,合同会社Ａｌｏ　Ｆｏｏｄ,,合同会社,東京都,千代田区,神田神保町２丁目４番地２９松本ビル１Ｆ,,13,101,1010051,,,,,,,2021-07-19,1,,,,,アロフード,0
681,3010003035345,新規,0,2021-07-19,2021-07-19,日光Ｐｌｕｓ１９合同会社８,,合同会社,東京都,千代田区,丸の内３丁目１番１号東京共同会計事務所内,,13,101,1000005,,,,,,,2021-07-19,1,,,,,ニッコウプラスナインティーンハチ,0
689,3010401161511,新規,0,2021-07-19,2021-07-19,株式会社オン,,株式会社,東京都,港区,浜松町２丁目２番１５号浜松町ダイヤビル２Ｆ,,13,103,1050013,,,,,,,2021-07-19,1,,,,,オン,0
691,3010403025739,新規,0,2021-07-19,2021-07-19,ＪＬ　Ｊａｐａｎ　Ｉｎｖｅｓｔｍｅｎｔ合同会社,,合同会社,東京都,港区,六本木６丁目２番３１号,,13,103,1060032,,,,,,,2021-07-19,1,,,,,ジェイエルジャパンインベストメント,0
692,3010403025755,新規,0,2021-07-19,2021-07-19,ＳＳ光２９合同会社,,合同会社,東京都,港区,芝公園１丁目３番１号留園ビル６階,,13,103,1050011,,,,,,,2021-07-19,1,,,,,エスエスヒカリトゥウェンティナイン,0
703,3010901049099,新規,0,2021-07-19,2021-07-19,株式会社イトウ建築計画,,株式会社,東京都,世田谷区,松原６丁目１番１２号,,13,112,1560043,,,,,,,2021-07-19,1,,,,,イトウケンチクケイカク,0
704,3010901049116,新規,0,2021-07-19,2021-07-19,Ｌｉｆｅ　Ｄｅｓｉｇｎ　Ｃｌｕｂ株式会社,,株式会社,東京都,世田谷区,瀬田４丁目１４番８号,,13,112,1580095,,,,,,,2021-07-19,1,,,,,ライフデザインクラブ,0
705,3010901049124,新規,0,2021-07-19,2021-07-19,株式会社グジャン,,株式会社,東京都,世田谷区,野沢２丁目３４番３号ＤＯＲＦ桂４０１,,13,112,1540003,,,,,,,2021-07-19,1,,,,,グジャン,0
711,3011001141705,新規,0,2021-07-19,2021-07-19,アート東京株式会社,,株式会社,東京都,目黒区,駒場１丁目３３番８号,,13,110,1530041,,,,,,,2021-07-19,1,,,,,アートトウキョウ,0
712,3011001141779,新規,0,2021-07-19,2021-07-19,株式会社菜波,,株式会社,東京都,渋谷区,神宮前６丁目２３番４号桑野ビル２階,,13,113,1500001,,,,,,,2021-07-19,1,,,,,ナナミ,0
713,3011001141804,新規,0,2021-07-19,2021-07-19,株式会社ＳＹＡＭ,,株式会社,東京都,渋谷区,広尾５丁目１４番２号,,13,113,1500012,,,,,,,2021-07-19,1,,,,,エスワイエーエム,0
714,3011003013076,新規,0,2021-07-19,2021-07-19,合同会社カロン,,合同会社,東京都,目黒区,青葉台３丁目１１番３号,,13,110,1530042,,,,,,,2021-07-19,1,,,,,カロン,0
715,3011003013101,新規,0,2021-07-19,2021-07-19,合同会社ジゲン,,合同会社,東京都,渋谷区,上原３丁目３２番９－２０４号リーフィアレジデンス上原,,13,113,1510064,,,,,,,2021-07-19,1,,,,,ジゲン,0
716,3011005009122,新規,0,2021-07-19,2021-07-19,一般社団法人身体美容家認定協会,,その他の設立登記法人,東京都,目黒区,青葉台３丁目１８番１０号第一目黒橋ビルカーサ青葉台２０３,,13,110,1530042,,,,,,,2021-07-19,1,,,,,カラダビヨウカニンテイキョウカイ,0
717,3011101095776,新規,0,2021-07-19,2021-07-19,飛馬建設株式会社,,株式会社,東京都,新宿区,西新宿１丁目２６番２号,,13,104,1600023,,,,,,,2021-07-19,1,,,,,ヒュウマケンセツ,0
726,3011801039470,新規,0,2021-07-19,2021-07-19,白社メンテック株式会社,,株式会社,東京都,足立区,皿沼２丁目２０番１９号,,13,121,1230862,,,,,,,2021-07-19,1,,,,,ハクシャメンテック,0
729,3012401038111,新規,0,2021-07-19,2021-07-19,株式会社山城屋,,株式会社,東京都,三鷹市,下連雀１丁目８番２３号ファインキャッスル１０１号,,13,204,1810013,,,,,,,2021-07-19,1,,,,,ヤマシロヤ,0
730,3012403004945,新規,0,2021-07-19,2021-07-19,ハイ・アンド・カンパニー合同会社,,合同会社,東京都,府中市,清水が丘３丁目４５番地の３,,13,206,1830015,,,,,,,2021-07-19,1,,,,,ハイアンドカンパニー,0
736,3013301047730,新規,0,2021-07-19,2021-07-19,株式会社根岸事務所,,株式会社,東京都,豊島区,上池袋３丁目４６番２号,,13,116,1700012,,,,,,,2021-07-19,1,,,,,ネギシジムショ,0
746,3020001142308,新規,0,2021-07-19,2021-07-19,株式会社ゴールドシップ,,株式会社,神奈川県,横浜市金沢区,高舟台２丁目３９番２３号,,14,108,2360044,,,,,,,2021-07-19,1,,,,,ゴールドシップ,0
748,3020003020206,新規,0,2021-07-19,2021-07-19,勝和商事合同会社,,合同会社,神奈川県,横浜市南区,中村町５丁目３１５番地８７,,14,105,2320033,,,,,,,2021-07-19,1,,,,,ショウワショウジ,0
751,3020005015138,新規,0,2021-07-19,2021-07-19,行政書士法人石田事務所,,その他の設立登記法人,神奈川県,横浜市中区,太田町４丁目４９番地,,14,104,2310011,,,,,,,2021-07-19,1,,,,,イシダジムショ,0
768,3030001143420,新規,0,2021-07-19,2021-07-19,Ａ＆Ｇ　Ｃｏｍｐａｎｙ株式会社,,株式会社,埼玉県,新座市,栗原４丁目１０番２－４１３号,,11,230,3520035,,,,,,,2021-07-19,1,,,,,エイアンドジーカンパニー,0
769,3030001143429,新規,0,2021-07-19,2021-07-19,株式会社ルポライフ,,株式会社,埼玉県,さいたま市見沼区,東大宮７丁目４０番地３０,,11,104,3370051,,,,,,,2021-07-19,1,,,,,ルポライフ,0
803,3070001038286,新規,0,2021-07-19,2021-07-19,株式会社カーショップＪＡＰＡＮ,,株式会社,群馬県,邑楽郡大泉町,大字吉田１８１４番地３ウェルビーイング２０３,,10,524,3700523,,,,,,,2021-07-19,1,,,,,カーショップジャパン,0
807,3080003002611,新規,0,2021-07-19,2021-07-19,合同会社マツナガ,,合同会社,静岡県,藤枝市,駅前２丁目３－８,,22,214,4260034,,,,,,,2021-07-19,1,,,,,マツナガ,0
811,3100001034447,新規,0,2021-07-19,2021-07-19,ＰＯＷＥＲＳＰＯＴ株式会社,,株式会社,長野県,下伊那郡喬木村,６７１４番地７,,20,415,3951100,,,,,,,2021-07-19,1,,,,,パワースポット,0
812,3100001034455,新規,0,2021-07-19,2021-07-19,虹屋株式会社,,株式会社,長野県,北安曇郡白馬村,大字神城２４８４０番地１,,20,485,3999211,,,,,,,2021-07-19,1,,,,,ニジヤ,0
844,3120001239176,新規,0,2021-07-19,2021-07-19,株式会社Ｍｏｎｏｌｉｔｈ　Ｃａｐｉｔａｌ,,株式会社,大阪府,大阪市西区,西本町１丁目５番９号,,27,106,5500005,,,,,,,2021-07-19,1,,,,,モノリスキャピタル,0
845,3120001239184,新規,0,2021-07-19,2021-07-19,株式会社宅翔,,株式会社,大阪府,大阪市西区,九条２丁目２７番１４号,,27,106,5500027,,,,,,,2021-07-19,1,,,,,タクショウ,0
846,3120001239192,新規,0,2021-07-19,2021-07-19,株式会社Ｈａｎａｒｅ,,株式会社,大阪府,大阪市住吉区,長居３丁目９－２０,,27,120,5580003,,,,,,,2021-07-19,1,,,,,ハナレ,0
849,3120003019881,新規,0,2021-07-19,2021-07-19,新大阪ＣＡＲＥ合同会社,,合同会社,大阪府,大阪市淀川区,西宮原３丁目２番１号新大阪第２ニッケンマンション３１９,,27,123,5320004,,,,,,,2021-07-19,1,,,,,シンオオサカケア,0
855,3120103004263,新規,0,2021-07-19,2021-07-19,合同会社ラ・グーカラボ,,合同会社,大阪府,岸和田市,上松町６１０番地の１４３,,27,202,5960827,,,,,,,2021-07-19,1,,,,,ラグーカラボ,0
859,3120905006184,新規,0,2021-07-19,2021-07-19,一般社団法人Ｇｌｏｒｉｏｕｓ　Ｔｏｍｏｒｒｏｗ,,その他の設立登記法人,大阪府,摂津市,昭和園２番４－４０６号,,27,224,5660031,,,,,,,2021-07-19,1,,,,,グロリアストゥモロー,0
871,3130003007373,新規,0,2021-07-19,2021-07-19,リバティーユ合同会社,,合同会社,京都府,京都市左京区,下鴨下川原町３４番地１,,26,103,6060803,,,,,,,2021-07-19,1,,,,,リバティーユ,0
878,3140001122306,新規,0,2021-07-19,2021-07-19,株式会社イーストＡ,,株式会社,兵庫県,西宮市,生瀬武庫川町１番５－２０８号,,28,204,6691104,,,,,,,2021-07-19,1,,,,,イーストエー,0
881,3140003016522,新規,0,2021-07-19,2021-07-19,ＳＡＬＴＡＨＩＫＥ合同会社,,合同会社,兵庫県,尼崎市,金楽寺町２丁目２７－２２,,28,202,6600806,,,,,,,2021-07-19,1,,,,,サルタハイク,0
886,3150003002430,新規,0,2021-07-19,2021-07-19,合同会社インヴィレッジ,,合同会社,奈良県,香芝市,旭ケ丘２丁目２４番地４,,29,210,6390266,,,,,,,2021-07-19,1,,,,,インヴィレッジ,0
892,3160001023477,新規,0,2021-07-19,2021-07-19,株式会社Ｆ．Ｔ．Ｍ,,株式会社,滋賀県,長浜市,神照町８１８番地１９,,25,203,5260015,,,,,,,2021-07-19,1,,,,,エフティーエム,0
899,3180001147027,新規,0,2021-07-19,2021-07-19,株式会社ＫＰライジング,,株式会社,愛知県,名古屋市守山区,鳥神町２２７番地,,23,113,4630088,,,,,,,2021-07-19,1,,,,,ケーピーライジング,0
903,3180003022764,新規,0,2021-07-19,2021-07-19,合同会社ＡＬＴＯ,,合同会社,愛知県,名古屋市中村区,名駅４丁目１７－３メイヨンビル２階,,23,105,4500002,,,,,,,2021-07-19,1,,,,,アルト,0
904,3180301035170,新規,0,2021-07-19,2021-07-19,株式会社スマイル,,株式会社,愛知県,岡崎市,大門４丁目２番地４,,23,202,4442135,,,,,,,2021-07-19,1,,,,,スマイル,0
905,3180301035179,新規,0,2021-07-19,2021-07-19,株式会社ＩＴＭ,,株式会社,愛知県,西尾市,今川町下落１４番地１,,23,213,4450063,,,,,,,2021-07-19,1,,,,,アイティエム,0
921,3260001035776,新規,0,2021-07-19,2021-07-19,株式会社武内工藝社,,株式会社,岡山県,倉敷市,阿知３丁目１０番４６号レジデンシア阿知南Ｋ号室,,33,202,7100055,,,,,,,2021-07-19,1,,,,,タケウチコウゲイシャ,0
928,3290001093838,新規,0,2021-07-19,2021-07-19,田口塗装株式会社,,株式会社,福岡県,久留米市,青峰２丁目１８番１１号,,40,203,8390853,,,,,,,2021-07-19,1,,,,,タグチトソウ,0
929,3290001093887,新規,0,2021-07-19,2021-07-19,トリプルワン株式会社,,株式会社,福岡県,福岡市中央区,春吉１丁目１番１号,,40,133,8100003,,,,,,,2021-07-19,1,,,,,トリプルワン,0
930,3290001093895,新規,0,2021-07-19,2021-07-19,株式会社トータス,,株式会社,福岡県,福岡市博多区,東那珂１丁目１９番２８号,,40,132,8120892,,,,,,,2021-07-19,1,,,,,トータス,0
931,3290001093912,新規,0,2021-07-19,2021-07-19,上村自動車株式会社,,株式会社,福岡県,八女郡広川町,大字藤田５２５番地１０,,40,544,8340123,,,,,,,2021-07-19,1,,,,,ウエムラジドウシャ,0
932,3290001093937,新規,0,2021-07-19,2021-07-19,株式会社ベストアセット,,株式会社,福岡県,柳川市,三橋町中山５４番地,,40,207,8320811,,,,,,,2021-07-19,1,,,,,ベストアセット,0
933,3290001093945,新規,0,2021-07-19,2021-07-19,株式会社白練,,株式会社,福岡県,福岡市博多区,寿町３丁目５番４５－１００６号,,40,132,8120884,,,,,,,2021-07-19,1,,,,,シロネリ,0
934,3290001094010,新規,0,2021-07-19,2021-07-19,株式会社ヴィンテージＴ,,株式会社,福岡県,福岡市東区,唐原７丁目１０番３９号,,40,131,8130001,,,,,,,2021-07-19,1,,,,,ヴィンテージティー,0
937,3290003011426,新規,0,2021-07-19,2021-07-19,ＡＫＩＲＡ　Ｃｏｍｐａｎｙ合同会社,,合同会社,福岡県,福岡市西区,今宿１丁目３番５号,,40,135,8190167,,,,,,,2021-07-19,1,,,,,アキラカンパニー,0
938,3290003011434,新規,0,2021-07-19,2021-07-19,合同会社福岡プラザ,,合同会社,福岡県,福岡市中央区,大宮２丁目５番１５－２０１号,,40,133,8100013,,,,,,,2021-07-19,1,,,,,フクオカプラザ,0
941,3290803003886,新規,0,2021-07-19,2021-07-19,合同会社プレアージュ,,合同会社,福岡県,行橋市,大字大野井８５８番地６,,40,213,8240041,,,,,,,2021-07-19,1,,,,,プレアージュ,0
944,3300001012564,新規,0,2021-07-19,2021-07-19,株式会社片岡精肉本店,,株式会社,佐賀県,伊万里市,伊万里町甲２５７番地,,41,205,8480047,,,,,,,2021-07-19,1,,,,,カタオカセイニクホンテン,0
952,3320003003576,新規,0,2021-07-19,2021-07-19,合同会社ティーエスカンパニー,,合同会社,大分県,大分市,大字三芳１１９９番地３６ドゥペール山の手台１００２号,,44,201,8700030,,,,,,,2021-07-19,1,,,,,ティーエスカンパニー,0
955,3340001023946,新規,0,2021-07-19,2021-07-19,株式会社鶴田商運,00123687,株式会社,鹿児島県,鹿児島市,伊敷４丁目１２番５号,,46,201,8900008,,,,,,,2021-07-19,1,,,,,ツルダショウウン,0
957,3340003003491,新規,0,2021-07-19,2021-07-19,スマートハウス電力合同会社,,合同会社,鹿児島県,鹿児島市,西田３丁目８番２１号,,46,201,8900046,,,,,,,2021-07-19,1,,,,,スマートハウスデンリョク,0
960,3360001029082,新規,0,2021-07-19,2021-07-19,株式会社美月商事,,株式会社,沖縄県,中頭郡西原町,字幸地１０５３番地１号,,47,329,9030116,,,,,,,2021-07-19,1,,,,,,0
977,3420001017510,新規,0,2021-07-19,2021-07-19,株式会社Ｋ２Ｄｅｓｉｇｎ,,株式会社,青森県,弘前市,大字富栄字笹崎６番地４,,02,202,0368382,,,,,,,2021-07-19,1,,,,,ケーツーデザイン,0
986,3480001011433,新規,0,2021-07-19,2021-07-19,株式会社グローバル,,株式会社,徳島県,徳島市,名東町３丁目１５１番地,,36,201,7700047,,,,,,,2021-07-19,1,,,,,グローバル,0
987,3490001009939,新規,0,2021-07-19,2021-07-19,Ｍ＆Ｋ株式会社,,株式会社,高知県,高知市,瀬戸西町３丁目１２９番地,,39,201,7810251,,,,,,,2021-07-19,1,,,,,エムアンドケー,0
1025,4010001219717,新規,0,2021-07-19,2021-07-19,株式会社Ｗ－１Ｇｒｏｕｐ,,株式会社,東京都,中央区,銀座１丁目２２－１１銀座大竹ビジデンス２階,,13,102,1040061,,,,,,,2021-07-19,1,,,,,ダブルワングループ,0
1026,4010001219741,新規,0,2021-07-19,2021-07-19,株式会社習い事研究所,,株式会社,東京都,中央区,銀座１丁目１２番４号,,13,102,1040061,,,,,,,2021-07-19,1,,,,,ナライゴトケンキュウジョ,0
1027,4010001219766,新規,0,2021-07-19,2021-07-19,株式会社ミーブン,,株式会社,東京都,千代田区,神田平河町１番地第３東ビル６階,,13,101,1010027,,,,,,,2021-07-19,1,,,,,ミーブン,0
1034,4010003035336,新規,0,2021-07-19,2021-07-19,合同会社みらいの手帖社,,合同会社,東京都,中央区,月島３丁目２番７－１３０２号,,13,102,1040052,,,,,,,2021-07-19,1,,,,,ミライノテチョウシャ,0
1035,4010003035344,新規,0,2021-07-19,2021-07-19,日光Ｐｌｕｓ１９合同会社７,,合同会社,東京都,千代田区,丸の内３丁目１番１号東京共同会計事務所内,,13,101,1000005,,,,,,,2021-07-19,1,,,,,ニッコウプラスナインティーンナナ,0
1037,4010005033668,新規,0,2021-07-19,2021-07-19,ムーン・ホールディング特定目的会社,,その他の設立登記法人,東京都,千代田区,丸の内３丁目１番１号東京共同会計事務所内,,13,101,1000005,,,,,,,2021-07-19,1,,,,,ムーンホールディング,0
1048,4010403025754,新規,0,2021-07-19,2021-07-19,ＳＳ光２８合同会社,,合同会社,東京都,港区,芝公園１丁目３番１号留園ビル６階,,13,103,1050011,,,,,,,2021-07-19,1,,,,,エスエスヒカリトゥウェンティエイト,0
1063,4010803003822,新規,0,2021-07-19,2021-07-19,合同会社Ｔ＆Ｃ,,合同会社,東京都,大田区,大森本町１丁目６－２－１５０９,,13,111,1430011,,,,,,,2021-07-19,1,,,,,ティーアンドシー,0
1065,4010901049115,新規,0,2021-07-19,2021-07-19,株式会社インプルーバ,,株式会社,東京都,世田谷区,桜丘３丁目１９番７号,,13,112,1560054,,,,,,,2021-07-19,1,,,,,インプルーバ,0
1071,4011001141712,新規,0,2021-07-19,2021-07-19,リラック株式会社,,株式会社,東京都,渋谷区,幡ヶ谷３丁目１０番１号ＬＡ・ＭＡＲＧＥ幡ヶ谷３０２,,13,113,1510072,,,,,,,2021-07-19,1,,,,,リラック,0
1072,4011001141786,新規,0,2021-07-19,2021-07-19,株式会社８７Ｔｅｃｈｎｏｌｏｇｙ,,株式会社,東京都,渋谷区,神宮前６丁目２３－４桑野ビル２Ｆ,,13,113,1500001,,,,,,,2021-07-19,1,,,,,ハチナナテクノロジー,0
1074,4011003013091,新規,0,2021-07-19,2021-07-19,Ｐａｏｌｏ　Ｇｉａｎｔｉ　Ｃｏｎｓｕｌｔｉｎｇ合同会社,,合同会社,東京都,渋谷区,神宮前６丁目２３番４号桑野ビル２階,,13,113,1500001,,,,,,,2021-07-19,1,,,,,パオロジャンティコンサルティング,0
1075,4011101095767,新規,0,2021-07-19,2021-07-19,アルマホスピタリティ株式会社,,株式会社,東京都,新宿区,西新宿３丁目７番２６－７１０号,,13,104,1600023,,,,,,,2021-07-19,1,,,,,アルマホスピタリティ,0
1079,4011201023116,新規,0,2021-07-19,2021-07-19,株式会社Ｊｏｕｒｎｅｙ　ｔｏ　Ｗｅｌｌｎｅｓｓ,,株式会社,東京都,中野区,東中野４丁目８番１号,,13,114,1640003,,,,,,,2021-07-19,1,,,,,ジャーニートゥーウェルネス,0
1090,4012401038102,新規,0,2021-07-19,2021-07-19,株式会社エムツーオー,,株式会社,東京都,多摩市,和田２１０９番地９,,13,224,2060001,,,,,,,2021-07-19,1,,,,,エムツーオー,0
1091,4012405004612,新規,0,2021-07-19,2021-07-19,一般社団法人惠愛会,,その他の設立登記法人,東京都,小金井市,前原町５丁目２０番１９号,,13,210,1840013,,,,,,,2021-07-19,1,,,,,ケイアイカイ,0
1092,4012703002268,新規,0,2021-07-19,2021-07-19,Ｌｕａｎａ　Ｈｏｍｅ合同会社,,合同会社,東京都,東久留米市,幸町４丁目７番１３号,,13,222,2030052,,,,,,,2021-07-19,1,,,,,ルアナホーム,0
1093,4013303005751,新規,0,2021-07-19,2021-07-19,Ｋ・Ｈコンサルティング合同会社,,合同会社,東京都,豊島区,南大塚３丁目３４番８－１２０１号,,13,116,1700005,,,,,,,2021-07-19,1,,,,,ケイエイチコンサルティング,0
1095,4013305003241,新規,0,2021-07-19,2021-07-19,ＥＭＰＬＯＩ－ＪＡＰＯＮ一般社団法人,,その他の設立登記法人,東京都,豊島区,西巣鴨１丁目３２番６号,,13,116,1700001,,,,,,,2021-07-19,1,,,,,アンプラージャポン,0
1101,4020001142273,新規,0,2021-07-19,2021-07-19,株式会社佐藤建設,,株式会社,神奈川県,川崎市宮前区,有馬５丁目１６番７号２０３号室,,14,136,2160003,,,,,,,2021-07-19,1,,,,,サトウケンセツ,0
1103,4020003020188,新規,0,2021-07-19,2021-07-19,ティーコンパス合同会社,,合同会社,神奈川県,川崎市麻生区,白鳥３丁目２番２５号,,14,137,2150024,,,,,,,2021-07-19,1,,,,,ティーコンパス,0
1104,4020003020205,新規,0,2021-07-19,2021-07-19,合同会社Ａｇｒｅｌ,,合同会社,神奈川県,横浜市神奈川区,白楽１００番地２３－Ａ２０２,,14,102,2210065,,,,,,,2021-07-19,1,,,,,アグレール,0
1106,4020005015137,新規,0,2021-07-19,2021-07-19,一般社団法人０意識ヒーリング協会,,その他の設立登記法人,神奈川県,横浜市青葉区,桜台３２番地６ウッズ桜台１０３,,14,117,2270061,,,,,,,2021-07-19,1,,,,,ゼロイシキヒーリングキョウカイ,0
1111,4021001073434,新規,0,2021-07-19,2021-07-19,株式会社グランリブ,,株式会社,神奈川県,座間市,相模が丘５丁目２番３３－６０１,,14,216,2520001,,,,,,,2021-07-19,1,,,,,グランリブ,0
1112,4021001073442,新規,0,2021-07-19,2021-07-19,株式会社ＴＯＭＩ,,株式会社,神奈川県,平塚市,唐ケ原２３７番地の４,,14,203,2540826,,,,,,,2021-07-19,1,,,,,トミ,0
1128,4030001143386,新規,0,2021-07-19,2021-07-19,株式会社ＲＫアセットマネジメント,,株式会社,埼玉県,ふじみ野市,駒林９２５番地１,,11,245,3560034,,,,,,,2021-07-19,1,,,,,アールケーアセットマネジメント,0
1129,4030001143411,新規,0,2021-07-19,2021-07-19,株式会社Ｐｌｕｓ,,株式会社,埼玉県,東松山市,美原町１丁目６番地４０グランメリーＡ２０１,,11,212,3550010,,,,,,,2021-07-19,1,,,,,プラス,0
1130,4030001143428,新規,0,2021-07-19,2021-07-19,株式会社ＡＯＢＡ,,株式会社,埼玉県,久喜市,青葉４丁目２５番地４,,11,232,3460013,,,,,,,2021-07-19,1,,,,,アオバ,0
1139,4030003017646,新規,0,2021-07-19,2021-07-19,Ｇａｎｇａ　Ｃｏｒｐｏｒａｔｉｏｎ合同会社,,合同会社,埼玉県,東松山市,元宿２丁目１６番地９メゾンロベリア１０２,,11,212,3550063,,,,,,,2021-07-19,1,,,,,ガンガコーポレーション,0
1150,4040001119410,新規,0,2021-07-19,2021-07-19,株式会社プライム,,株式会社,千葉県,船橋市,北本町２丁目１番９－９０７号,,12,204,2730864,,,,,,,2021-07-19,1,,,,,プライム,0
1151,4040001119419,新規,0,2021-07-19,2021-07-19,株式会社エブリ,,株式会社,千葉県,浦安市,舞浜２丁目３８番９号,,12,227,2790031,,,,,,,2021-07-19,1,,,,,エブリ,0
1152,4040001119468,新規,0,2021-07-19,2021-07-19,株式会社波乗商会,,株式会社,千葉県,長生郡一宮町,東浪見６９１８番地１号,,12,421,2994303,,,,,,,2021-07-19,1,,,,,ナミノリショウカイ,0
1167,4070001038285,新規,0,2021-07-19,2021-07-19,株式会社ＣＲＵＳＨ　ＩＴ,,株式会社,群馬県,伊勢崎市,波志江町４１２３番地５,,10,204,3720001,,,,,,,2021-07-19,1,,,,,クラッシュイット,0
1168,4080003002610,新規,0,2021-07-19,2021-07-19,合同会社東谷組,,合同会社,静岡県,静岡市葵区,羽鳥２丁目１８番１４号ぺイザージュ羽鳥Ⅱ２０１号,00123695,22,101,4211215,,,,,,,2021-07-19,1,,,,,トウヤグミ,0
1171,4080401025205,新規,0,2021-07-19,2021-07-19,株式会社ＡＺＬＩＶ,,株式会社,静岡県,浜松市南区,西伝寺町７２オギスビル２Ｆ,,22,134,4350035,,,,,,,2021-07-19,1,,,,,アズリブ,0
1176,4100001034454,新規,0,2021-07-19,2021-07-19,株式会社ｅｎｊｏｉ日本,,株式会社,長野県,千曲市,大字鋳物師屋２８７番地５,,20,218,3870015,,,,,,,2021-07-19,1,,,,,エンジョイニッポン,0
1213,4120005022404,新規,0,2021-07-19,2021-07-19,医療法人敬久会,,その他の設立登記法人,大阪府,大阪市此花区,酉島４丁目１番１４号２Ｆ,,27,104,5540051,,,,,,,2021-07-19,1,,,,,ケイキュウカイ,0
1215,4120101064003,新規,0,2021-07-19,2021-07-19,株式会社田川建装,,株式会社,大阪府,岸和田市,下松町２丁目１番４号,,27,202,5960823,,,,,,,2021-07-19,1,,,,,タガワケンソウ,0
1219,4120103004262,新規,0,2021-07-19,2021-07-19,合同会社ＣＬＥＡＲ,,合同会社,大阪府,高石市,東羽衣６丁目２１番２７号,,27,225,5920003,,,,,,,2021-07-19,1,,,,,クリア,0
1221,4120105009425,新規,0,2021-07-19,2021-07-19,医療法人新貴会,,その他の設立登記法人,大阪府,和泉市,上町４３６番地５,,27,219,5940002,,,,,,,2021-07-19,1,,,,,シンキカイ,0
1223,4120901044658,新規,0,2021-07-19,2021-07-19,ネクストフィールド株式会社,,株式会社,大阪府,吹田市,豊津町２番１号,,27,205,5640051,,,,,,,2021-07-19,1,,,,,ネクストフィールド,0
1226,4120903003752,新規,0,2021-07-19,2021-07-19,合同会社ジーフード,,合同会社,大阪府,豊中市,原田中１丁目８番１８号,,27,203,5610807,,,,,,,2021-07-19,1,,,,,ジーフード,0
1233,4130001069761,新規,0,2021-07-19,2021-07-19,キャロット株式会社,,株式会社,京都府,京都市伏見区,向島中島町９９番地,,26,109,6128113,,,,,,,2021-07-19,1,,,,,キャロット,0
1247,4140001122305,新規,0,2021-07-19,2021-07-19,株式会社一夢庵,,株式会社,兵庫県,明石市,大道町２丁目２番２３－２号,,28,203,6730029,,,,,,,2021-07-19,1,,,,,イチムアン,0
1248,4140001122338,新規,0,2021-07-19,2021-07-19,株式会社モットライト,,株式会社,兵庫県,神戸市中央区,元町通５丁目７番２６号３階,,28,110,6500022,,,,,,,2021-07-19,1,,,,,モットライト,0
1249,4140001122379,新規,0,2021-07-19,2021-07-19,株式会社ＦＴＳ,,株式会社,兵庫県,神戸市兵庫区,東出町３丁目１４番８号,,28,105,6520823,,,,,,,2021-07-19,1,,,,,エフティーエス,0
1250,4140001122387,新規,0,2021-07-19,2021-07-19,株式会社ＢＩＧ　ＳＴＯＮＥ,,株式会社,兵庫県,揖保郡太子町,鵤３５番地１,,28,464,6711561,,,,,,,2021-07-19,1,,,,,ビグストーン,0
1255,4140003016513,新規,0,2021-07-19,2021-07-19,合同会社南勢電力,,合同会社,兵庫県,三田市,けやき台３丁目６６番地８,,28,219,6691321,,,,,,,2021-07-19,1,,,,,ナンセイデンリョク,0
1259,4150001024806,新規,0,2021-07-19,2021-07-19,Ｌｅｆｔｙ株式会社,,株式会社,奈良県,御所市,大字條４７８番地の２,,29,208,6392276,,,,,,,2021-07-19,1,,,,,レフティー,0
1266,4180001147018,新規,0,2021-07-19,2021-07-19,名古屋整体からだ工房株式会社,,株式会社,愛知県,名古屋市中区,栄３丁目２７番７号,,23,106,4600008,,,,,,,2021-07-19,1,,,,,ナゴヤセイタイカラダコウボウ,0
1267,4180001147026,新規,0,2021-07-19,2021-07-19,Ｅ＆Ｉ株式会社,,株式会社,愛知県,名古屋市西区,名駅２丁目３４番１７号セントラル名古屋１１０１号,,23,104,4510045,,,,,,,2021-07-19,1,,,,,イーアンドアイ,0
1268,4180001147034,新規,0,2021-07-19,2021-07-19,株式会社ナカニシ商店,,株式会社,愛知県,大府市,追分町２丁目１６６番地の５,,23,223,4740027,,,,,,,2021-07-19,1,,,,,ナカニシショウテン,0
1272,4180301035178,新規,0,2021-07-19,2021-07-19,株式会社大橋設備,,株式会社,愛知県,豊川市,牛久保町岸下２９番地の５,,23,207,4420826,,,,,,,2021-07-19,1,,,,,オオハシセツビ,0
1275,4190001028522,新規,0,2021-07-19,2021-07-19,株式会社タニグチ,,株式会社,三重県,鈴鹿市,西條町３９２番地の１オーリエントビル２階,,24,207,5130808,,,,,,,2021-07-19,1,,,,,タニグチ,0
1299,4290001093894,新規,0,2021-07-19,2021-07-19,株式会社ＵＬＵ　ｅａｒｔｈ,,株式会社,福岡県,筑後市,大字若菜１３７６番地２,,40,211,8330047,,,,,,,2021-07-19,1,,,,,ウルアース,0
1300,4290001093936,新規,0,2021-07-19,2021-07-19,株式会社ｌｉｕｈｕａ,,株式会社,福岡県,福岡市中央区,大名２丁目１０番８－１３０３号プレミスト天神赤坂タワー,,40,133,8100041,,,,,,,2021-07-19,1,,,,,リウファ,0
1302,4290003011433,新規,0,2021-07-19,2021-07-19,合同会社あすか,,合同会社,福岡県,福岡市西区,今宿駅前１丁目１７番２２号,,40,135,8190168,,,,,,,2021-07-19,1,,,,,アスカ,0
1303,4290801027647,新規,0,2021-07-19,2021-07-19,株式会社ケアテック,,株式会社,福岡県,北九州市小倉北区,砂津１丁目５番２６号,,40,106,8020014,,,,,,,2021-07-19,1,,,,,ケアテック,0
1304,4290803003885,新規,0,2021-07-19,2021-07-19,ＫＡＴＡＥ　ＷＯＲＫＳＨＯＰ合同会社,,合同会社,福岡県,北九州市若松区,大字頓田２２３－１－２０５,,40,103,8080112,,,,,,,2021-07-19,1,,,,,カタエワークショップ,0
1317,4360001029081,新規,0,2021-07-19,2021-07-19,ＫＡＦＵ株式会社,,株式会社,沖縄県,中頭郡西原町,字小那覇１０９５番地１,,47,329,9030103,,,,,,,2021-07-19,1,,,,,カフー,0
1318,4360001029107,新規,0,2021-07-19,2021-07-19,株式会社天慎,,株式会社,沖縄県,中頭郡北中城村,字島袋８０８番地２,,47,327,9012301,,,,,,,2021-07-19,1,,,,,テンシン,0
1322,4370001047363,新規,0,2021-07-19,2021-07-19,株式会社クラリスリードコンサルタント,,株式会社,宮城県,仙台市宮城野区,苦竹３丁目１番６号,,04,102,9830036,,,,,,,2021-07-19,1,,,,,クラリスリードコンサルタント,0
1368,5010001219823,新規,0,2021-07-19,2021-07-19,ＩＥＣグロ－バル株式会社,,株式会社,東京都,千代田区,九段南１丁目５－６りそな九段ビル５Ｆ、ＫＳフロア,,13,101,1020074,,,,,,,2021-07-19,1,,,,,アイイーシーグローバル,0
1371,5010003035343,新規,0,2021-07-19,2021-07-19,日光Ｐｌｕｓ１９合同会社６,,合同会社,東京都,千代田区,丸の内３丁目１番１号東京共同会計事務所内,,13,101,1000005,,,,,,,2021-07-19,1,,,,,ニッコウプラスナインティーンロク,0
1380,5010403025729,新規,0,2021-07-19,2021-07-19,合同会社八峰町グリーン電力,,合同会社,東京都,港区,虎ノ門５丁目１３番１号虎ノ門４０ＭＴビル９階,,13,103,1050001,,,,,,,2021-07-19,1,,,,,ハッポウチョウグリーンデンリョク,0
1394,5010901049114,新規,0,2021-07-19,2021-07-19,Ｋプランニング株式会社,,株式会社,東京都,世田谷区,瀬田２丁目１０番９号Ｃ２,,13,112,1580095,,,,,,,2021-07-19,1,,,,,ケープランニング,0
1395,5010901049130,新規,0,2021-07-19,2021-07-19,株式会社ＪＰ　Ｎｕｓａｎｔａｒａ,,株式会社,東京都,世田谷区,玉川４丁目１４番１７号,,13,112,1580094,,,,,,,2021-07-19,1,,,,,ジェイピーヌサンタラ,0
1401,5011001141703,新規,0,2021-07-19,2021-07-19,ｃｏａｃｈｅｅ株式会社,,株式会社,東京都,渋谷区,神宮前６丁目２３番４号桑野ビル２階,,13,113,1500001,,,,,,,2021-07-19,1,,,,,コーチー,0
1402,5011001141810,新規,0,2021-07-19,2021-07-19,株式会社Ｃｕｅｎｅｘｔ,,株式会社,東京都,渋谷区,神宮前６丁目２３番４号桑野ビル２階,,13,113,1500001,,,,,,,2021-07-19,1,,,,,キューネクスト,0
1403,5011003013090,新規,0,2021-07-19,2021-07-19,合同会社ドゥーウィル,,合同会社,東京都,渋谷区,神宮前６丁目２３番４号桑野ビル２階,,13,113,1500001,,,,,,,2021-07-19,1,,,,,ドゥーウィル,0
1404,5011101095741,新規,0,2021-07-19,2021-07-19,Ｈ＆Ｙ　ｂｒｏｔｈｅｒｓ株式会社,,株式会社,東京都,新宿区,大久保１丁目３番１１号,,13,104,1690072,,,,,,,2021-07-19,1,,,,,エイチアンドワイブラザーズ,0
1405,5011101095774,新規,0,2021-07-19,2021-07-19,Ｔｅｎｊｏｙ株式会社,,株式会社,東京都,新宿区,築地町９番地３毛利ビル３階,,13,104,1620818,,,,,,,2021-07-19,1,,,,,テンジョイ,0
1406,5011103010855,新規,0,2021-07-19,2021-07-19,合同会社オーシャンツリー,,合同会社,東京都,新宿区,西落合２丁目２０番１号,,13,104,1610031,,,,,,,2021-07-19,1,,,,,オーシャンツリー,0
1411,5011201023123,新規,0,2021-07-19,2021-07-19,株式会社ルフォール,,株式会社,東京都,中野区,野方１丁目４４番４号モン・シャトー中野新館４０２,,13,114,1650027,,,,,,,2021-07-19,1,,,,,ルフォール,0
1417,5011501027138,新規,0,2021-07-19,2021-07-19,株式会社Ｒｎｕｖｏ,,株式会社,東京都,北区,西ケ原３丁目５２番１２－２０７号,,13,117,1140024,,,,,,,2021-07-19,1,,,,,アールヌーヴォー,0
1419,5011701024554,新規,0,2021-07-19,2021-07-19,株式会社ヤマ・テツ,,株式会社,東京都,江戸川区,東小松川４丁目２２番１３号,,13,123,1320033,,,,,,,2021-07-19,1,,,,,ヤマテツ,0
1422,5011801039469,新規,0,2021-07-19,2021-07-19,Ｋ－ＰＲＩＭＥ株式会社,,株式会社,東京都,葛飾区,宝町２丁目９番１５号,,13,122,1240005,,,,,,,2021-07-19,1,,,,,ケープライム,0
1427,5020001142207,新規,0,2021-07-19,2021-07-19,ｈａｔａｎａｎａ株式会社,,株式会社,神奈川県,横浜市戸塚区,前田町１８３番地２ヴェレーナ東戸塚６２４号,,14,110,2440804,,,,,,,2021-07-19,1,,,,,ハタナナ,0
1428,5020001142248,新規,0,2021-07-19,2021-07-19,雅株式会社,,株式会社,神奈川県,横浜市青葉区,柿の木台２９番地１１第二あか松ハイツ２０５,,14,117,2270048,,,,,,,2021-07-19,1,,,,,ミヤビ,0
1429,5020001142280,新規,0,2021-07-19,2021-07-19,鶴見株式会社,,株式会社,神奈川県,横浜市中区,山下町１６２番地,,14,104,2310023,,,,,,,2021-07-19,1,,,,,ツルミ,0
1432,5020003020179,新規,0,2021-07-19,2021-07-19,合同会社ｖａｒａｍｏ,,合同会社,神奈川県,川崎市中原区,田尻町３３番地１－４Ｆ,,14,133,2110014,,,,,,,2021-07-19,1,,,,,ヴァラモ,0
1433,5020003020195,新規,0,2021-07-19,2021-07-19,合同会社Ｎｅｘｃｃｅｓｓ　ＬＢＳ,,合同会社,神奈川県,横浜市中区,桜木町１丁目１０１番地１,,14,104,2310062,,,,,,,2021-07-19,1,,,,,ネクサスエルビーエス,0
1442,5021003010681,新規,0,2021-07-19,2021-07-19,合同会社メディカルテレマ,,合同会社,神奈川県,相模原市南区,相模大野６丁目２２番２２－５０７,,14,153,2520303,,,,,,,2021-07-19,1,,,,,メディカルテレマ,0
1443,5021003010698,新規,0,2021-07-19,2021-07-19,ＩＳＩＲＡ　ＥＮＴＥＲＰＲＩＳＥＳ合同会社,,合同会社,神奈川県,座間市,相模が丘２丁目３０番２２号コーポコバヤシ２０１号,,14,216,2520001,,,,,,,2021-07-19,1,,,,,イシラエンタープライズ,0
1446,5030001143336,新規,0,2021-07-19,2021-07-19,ネニュファール株式会社,,株式会社,埼玉県,草加市,長栄４丁目３番地１,,11,221,3400051,,,,,,,2021-07-19,1,,,,,ネニュファール,0
1447,5030001143385,新規,0,2021-07-19,2021-07-19,株式会社オアシス,,株式会社,埼玉県,さいたま市桜区,道場２丁目１番１号,,11,106,3380835,,,,,,,2021-07-19,1,,,,,オアシス,0
1452,5030003017645,新規,0,2021-07-19,2021-07-19,合同会社４１７,,合同会社,埼玉県,久喜市,栗橋東４丁目９番２５－５号,,11,232,3491103,,,,,,,2021-07-19,1,,,,,シイナ,0
1461,5040001119459,新規,0,2021-07-19,2021-07-19,株式会社イーコック,,株式会社,千葉県,千葉市緑区,おゆみ野中央７丁目１２番地２９,,12,105,2660032,,,,,,,2021-07-19,1,,,,,イーコック,0
1471,5050005012907,新規,0,2021-07-19,2021-07-19,一般社団法人ヒトマチプロジェクト,,その他の設立登記法人,茨城県,つくば市,研究学園１丁目２番地１５ＡＪ－ＨＩＬＬＳ・Ｄ号,,08,220,3050817,,,,,,,2021-07-19,1,,,,,ヒトマチプロジェクト,0
1477,5070001038292,新規,0,2021-07-19,2021-07-19,Ｌｅｈｍａｎｓ株式会社,,株式会社,群馬県,沼田市,久屋原町１４３－７シティハイツＢ２０１,,10,206,3780005,,,,,,,2021-07-19,1,,,,,リーマンズ,0
1483,5080103002385,新規,0,2021-07-19,2021-07-19,たんぽぽ商事合同会社,,合同会社,静岡県,賀茂郡河津町,田中２５８－３,,22,302,4130504,,,,,,,2021-07-19,1,,,,,タンポポショウジ,0
1486,5100001034445,新規,0,2021-07-19,2021-07-19,株式会社のらはな,,株式会社,長野県,飯田市,中央通り１丁目２６番地,,20,205,3950041,,,,,,,2021-07-19,1,,,,,ノラハナ,0
1487,5100001034453,新規,0,2021-07-19,2021-07-19,ＴＨＥ　ＣＩＲＣＬＥ株式会社,,株式会社,長野県,北佐久郡軽井沢町,軽井沢４７３－７,,20,321,3890103,,,,,,,2021-07-19,1,,,,,ザサークル,0
1514,5120001239158,新規,0,2021-07-19,2021-07-19,株式会社美－Ｂｅスタイル,,株式会社,大阪府,大阪市北区,茶屋町８番２１－６０７号,,27,127,5300013,,,,,,,2021-07-19,1,,,,,ビービースタイル,0
1515,5120001239166,新規,0,2021-07-19,2021-07-19,株式会社ｄｒｏｐｌｅｔ,,株式会社,大阪府,大阪市生野区,巽北３丁目１４番２４号,,27,116,5440004,,,,,,,2021-07-19,1,,,,,ドロップレット,0
1516,5120001239182,新規,0,2021-07-19,2021-07-19,株式会社Ｌａｄｙ　Ｂｉｒｄ,,株式会社,大阪府,枚方市,星丘３丁目４番１１号,,27,210,5730013,,,,,,,2021-07-19,1,,,,,レディバード,0
1517,5120001239199,新規,0,2021-07-19,2021-07-19,株式会社アイシェア,,株式会社,大阪府,大阪市生野区,勝山北５丁目２０番１５号,,27,116,5440033,,,,,,,2021-07-19,1,,,,,アイシェア,0
1522,5120003019871,新規,0,2021-07-19,2021-07-19,合同会社ＨＥＲＯ,,合同会社,大阪府,大阪市都島区,中野町１丁目６番８－９０６号,,27,102,5340027,,,,,,,2021-07-19,1,,,,,ヒーロー,0
1528,5120101063994,新規,0,2021-07-19,2021-07-19,株式会社ＯＲＬＡＮＺ,,株式会社,大阪府,堺市堺区,西湊町６丁３番７号,,27,141,5900835,,,,,,,2021-07-19,1,,,,,オーランツ,0
1529,5120101064002,新規,0,2021-07-19,2021-07-19,株式会社進弘,,株式会社,大阪府,高石市,取石６丁目２４番１４号,,27,225,5920013,,,,,,,2021-07-19,1,,,,,シンコウ,0
1530,5120103004261,新規,0,2021-07-19,2021-07-19,合同会社ＡＴＯＭＳ,,合同会社,大阪府,泉北郡忠岡町,忠岡東１丁目２５番３０号,,27,341,5950805,,,,,,,2021-07-19,1,,,,,アトムス,0
1533,5120905006208,新規,0,2021-07-19,2021-07-19,医療法人川口レディースクリニック,,その他の設立登記法人,大阪府,池田市,呉服町一丁目１番サンシティ池田西館３０５,,27,204,5630048,,,,,,,2021-07-19,1,,,,,カワグチレディースクリニック,0
1537,5122003002139,新規,0,2021-07-19,2021-07-19,合同会社スリーアール,,合同会社,大阪府,八尾市,萱振町７丁目５７番地の９,,27,212,5810834,,,,,,,2021-07-19,1,,,,,スリーアール,0
1559,5140001122287,新規,0,2021-07-19,2021-07-19,株式会社ＳｕｂＲｏｃｋ,,株式会社,兵庫県,明石市,小久保６丁目９番地の３３,,28,203,6730005,,,,,,,2021-07-19,1,,,,,サブロック,0
1564,5140003016529,新規,0,2021-07-19,2021-07-19,合同会社ＴａＳ,,合同会社,兵庫県,加西市,北条町小谷１３１番地の２,,28,220,6752301,,,,,,,2021-07-19,1,,,,,ティーエーエス,0
1565,5140005025750,新規,0,2021-07-19,2021-07-19,一般社団法人ＩＮＶＩＣＴＵＳ,,その他の設立登記法人,兵庫県,明石市,大久保町江井島９１２番地の７オリエンタルコート江井ヶ島３０１号,,28,203,6740064,,,,,,,2021-07-19,1,,,,,インビクタス,0
1569,5150003002429,新規,0,2021-07-19,2021-07-19,合同会社ティーエムデザイン,,合同会社,奈良県,香芝市,逢坂２丁目７１７番地５,00123686,29,210,6390251,,,,,,,2021-07-19,1,,,,,ティーエムデザイン,0
1570,5160005010957,新規,0,2021-07-19,2021-07-19,一般社団法人シガ－シガ,,その他の設立登記法人,滋賀県,大津市,南船路２７１番地１,,25,201,5200516,,,,,,,2021-07-19,1,,,,,シガーシガ,0
1573,5170001016676,新規,0,2021-07-19,2021-07-19,株式会社和幸重量,,株式会社,和歌山県,有田郡有田川町,大字角１４４番地３,,30,366,6430853,,,,,,,2021-07-19,1,,,,,ワコウジュウリョウ,0
1575,5170003001602,新規,0,2021-07-19,2021-07-19,ブランネーロ合同会社,,合同会社,和歌山県,和歌山市,東小二里町６番１１号,,30,201,6410032,,,,,,,2021-07-19,1,,,,,ブランネーロ,0
1580,5180001147041,新規,0,2021-07-19,2021-07-19,株式会社キャリーオン,,株式会社,愛知県,名古屋市中村区,横井２丁目１０番地,,23,105,4530866,,,,,,,2021-07-19,1,,,,,キャリーオン,0
1587,5190003003720,新規,0,2021-07-19,2021-07-19,合同会社ＲＥＲＩＴＹ　ＭＡＲＫ,,合同会社,三重県,員弁郡東員町,笹尾西４丁目８番１０,,24,324,5110231,,,,,,,2021-07-19,1,,,,,レリティマーク,0
1589,5200001038898,新規,0,2021-07-19,2021-07-19,株式会社ハルカアヤインターナショナル,,株式会社,岐阜県,岐阜市,清住町１丁目９番地カフェ・ド・トレビアン２階,,21,201,5008178,,,,,,,2021-07-19,1,,,,,ハルカアヤインターナショナル,0
1590,5200001038907,新規,0,2021-07-19,2021-07-19,株式会社成工業,,株式会社,岐阜県,加茂郡坂祝町,深萱５７番地３,,21,501,5050077,,,,,,,2021-07-19,1,,,,,ナリコウギョウ,0
1616,5260001035782,新規,0,2021-07-19,2021-07-19,株式会社フォレスト,,株式会社,岡山県,備前市,日生町日生２４６番地３２,,33,211,7013204,,,,,,,2021-07-19,1,,,,,フォレスト,0
1624,5290001093877,新規,0,2021-07-19,2021-07-19,株式会社武田牧場,,株式会社,福岡県,嘉麻市,大隈４６７番地,,40,227,8200304,,,,,,,2021-07-19,1,,,,,タケダボクジョウ,0
1625,5290001093885,新規,0,2021-07-19,2021-07-19,株式会社スイーツ＆フラワーカンパニー,,株式会社,福岡県,福岡市博多区,綱場町３番１６号,,40,132,8120024,,,,,,,2021-07-19,1,,,,,スイーツアンドフラワーカンパニー,0
1626,5290001093893,新規,0,2021-07-19,2021-07-19,株式会社エンリッチ,,株式会社,福岡県,福岡市博多区,博多駅前３丁目１８－２７－７Ｆ,,40,132,8120011,,,,,,,2021-07-19,1,,,,,エンリッチ,0
1627,5290001093910,新規,0,2021-07-19,2021-07-19,株式会社ちとせ,,株式会社,福岡県,福岡市西区,生松台３丁目８番７号,,40,135,8190044,,,,,,,2021-07-19,1,,,,,チトセ,0
1631,5290003011432,新規,0,2021-07-19,2021-07-19,エヌ・エー・レジデンス合同会社,,合同会社,福岡県,福岡市西区,愛宕南２丁目７番１６号,,40,135,8190007,,,,,,,2021-07-19,1,,,,,エヌエーレジデンス,0
1636,5300001012562,新規,0,2021-07-19,2021-07-19,株式会社ハッピーうれしの,,株式会社,佐賀県,嬉野市,嬉野町大字下野甲１４７番地１,,41,209,8430302,,,,,,,2021-07-19,1,,,,,ハッピーウレシノ,0
1644,5340001023944,新規,0,2021-07-19,2021-07-19,株式会社ＭＥＤ　ＥＮＧ,,株式会社,鹿児島県,霧島市,国分下井１９１１番地１,,46,218,8994463,,,,,,,2021-07-19,1,,,,,エムイーディーエンヂ,0
1645,5340001023952,新規,0,2021-07-19,2021-07-19,株式会社直新工建,,株式会社,鹿児島県,鹿児島市,星ヶ峯３丁目１７番２７号,,46,201,8910102,,,,,,,2021-07-19,1,,,,,チョクシンコウケン,0
1647,5350003003893,新規,0,2021-07-19,2021-07-19,合同会社島浜,,合同会社,宮崎県,宮崎市,青島６丁目１５番３号,,45,201,8892162,,,,,,,2021-07-19,1,,,,,シマハマ,0
1653,5370005010317,新規,0,2021-07-19,2021-07-19,一般社団法人閖上の記憶,,その他の設立登記法人,宮城県,名取市,閖上東３丁目５番１号,,04,207,9811204,,,,,,,2021-07-19,1,,,,,ユリアゲノキオク,0
1676,5440001008927,新規,0,2021-07-19,2021-07-19,株式会社センノ家コーポレーション,,株式会社,北海道,函館市,桔梗４丁目３番１７号,,01,202,0410808,,,,,,,2021-07-19,1,,,,,センノイエコーポレーション,0
1684,5480005006849,新規,0,2021-07-19,2021-07-19,一般社団法人ｋｉｔｔａｍｕ,,その他の設立登記法人,徳島県,吉野川市,山川町建石１４３番地１,,36,205,7793401,,,,,,,2021-07-19,1,,,,,キッタム,0
1689,5500001023572,新規,0,2021-07-19,2021-07-19,株式会社ＯＰクリーン,,株式会社,愛媛県,四国中央市,土居町中村９８３番地３,,38,213,7990701,,,,,,,2021-07-19,1,,,,,オーピークリーン,0
1693,5700150021869,新規,0,2021-07-19,2015-10-09,長野県建築物防災協会　松本支部,,その他,長野県,松本市,大字島立１０２０松本建設事務所建築課内,,20,202,3900852,,,,,,,2015-10-09,1,,,,,ナガノケンケンチクブツボウサイキヨウカイマツモトシブ,0
1696,5700150104013,新規,0,2021-07-19,2021-07-08,ソリッドロックチャーチ,,その他,北海道,札幌市厚別区,厚別中央三条３丁目３－２１－１０１,,01,108,0040053,,,,,,,2021-07-08,1,,,,,ソリツドロツクチヤーチ,0
1707,6010001219789,新規,0,2021-07-19,2021-07-19,スキンブルラーニングス株式会社,,株式会社,東京都,千代田区,九段南１丁目５番６号りそな九段ビル５階,,13,101,1020074,,,,,,,2021-07-19,1,,,,,スキンブルラーニングス,0
1708,6010001219814,新規,0,2021-07-19,2021-07-19,株式会社久喜市開発プロジェクト,,株式会社,東京都,中央区,銀座８丁目８番１号第７セントラルビル４階,,13,102,1040061,,,,,,,2021-07-19,1,,,,,クキシカイハツプロジェクト,0
1711,6010003035318,新規,0,2021-07-19,2021-07-19,Ｋｉｎｋｕｓｕ合同会社,,合同会社,東京都,文京区,湯島４丁目１２番８号,,13,105,1130034,,,,,,,2021-07-19,1,,,,,キンクス,0
1712,6010003035342,新規,0,2021-07-19,2021-07-19,日光Ｐｌｕｓ１９合同会社５,,合同会社,東京都,千代田区,丸の内３丁目１番１号東京共同会計事務所内,,13,101,1000005,,,,,,,2021-07-19,1,,,,,ニッコウプラスナインティーンゴ,0
1713,6010003035359,新規,0,2021-07-19,2021-07-19,レーベンエナジー１号合同会社,,合同会社,東京都,中央区,晴海１丁目８番８号,,13,102,1040053,,,,,,,2021-07-19,1,,,,,レーベンエナジーイチゴウ,0
1718,6010101014776,新規,0,2021-07-19,2021-07-19,株式会社スタジオピース一級建築士事務所,,株式会社,東京都,八王子市,明神町４丁目９番１号９０４,,13,201,1920046,,,,,,,2021-07-19,1,,,,,スタジオピースイッキュウケンチクシジムショ,0
1727,6010405019991,新規,0,2021-07-19,2021-07-19,特定目的会社ベンチャーＦ,,その他の設立登記法人,東京都,港区,虎ノ門３丁目２２番１０－２０１号,,13,103,1050001,,,,,,,2021-07-19,1,,,,,ベンチャーエフ,0
1735,6010801032152,新規,0,2021-07-19,2021-07-19,株式会社角豊,,株式会社,東京都,大田区,東海３丁目２番６号,,13,111,1430001,,,,,,,2021-07-19,1,,,,,カドトヨ,0
1736,6010803003812,新規,0,2021-07-19,2021-07-19,アイプラスエス合同会社,,合同会社,東京都,大田区,仲六郷２丁目２９－８－１Ｆ,,13,111,1440055,,,,,,,2021-07-19,1,,,,,アイプラスエス,0
1738,6010905004171,新規,0,2021-07-19,2021-07-19,一般社団法人ＴＥＴＴＥ,,その他の設立登記法人,東京都,世田谷区,砧８丁目１１番６号,,13,112,1570073,,,,,,,2021-07-19,1,,,,,テッテ,0
1745,6011001141677,新規,0,2021-07-19,2021-07-19,旺順株式会社,,株式会社,東京都,渋谷区,幡ヶ谷２丁目１９－１カーサ幡ヶ谷２０７号室,,13,113,1510072,,,,,,,2021-07-19,1,,,,,オウジュン,0
1746,6011001141784,新規,0,2021-07-19,2021-07-19,ＷｉＬＬ　Ｉｎｓｔｉｔｕｔｅ株式会社,,株式会社,東京都,渋谷区,恵比寿西１丁目３３番６号,,13,113,1500021,,,,,,,2021-07-19,1,,,,,ウィルインスティテュート,0
1747,6011001141826,新規,0,2021-07-19,2021-07-19,株式会社ネクストワン,,株式会社,東京都,渋谷区,道玄坂２丁目１９番１号丸八ビル１階,,13,113,1500043,,,,,,,2021-07-19,1,,,,,ネクストワン,0
1748,6011001141842,新規,0,2021-07-19,2021-07-19,株式会社笹塚の賃貸,,株式会社,東京都,渋谷区,笹塚１丁目１６番３号,,13,113,1510073,,,,,,,2021-07-19,1,,,,,ササズカノチンタイ,0
1749,6011003013098,新規,0,2021-07-19,2021-07-19,Ｉ　Ｂｌｉｓｓ合同会社,,合同会社,東京都,目黒区,柿の木坂３丁目１１番４号柿の木坂クアトロ２０７,,13,110,1520022,,,,,,,2021-07-19,1,,,,,アイブリス,0
1751,6011101095757,新規,0,2021-07-19,2021-07-19,株式会社ＴＥＮＧＯＯＤ,,株式会社,東京都,新宿区,西新宿７丁目５番８号ＧＯＷＡ西新宿ビル２Ｆ,,13,104,1600023,,,,,,,2021-07-19,1,,,,,テングッド,0
1752,6011103010870,新規,0,2021-07-19,2021-07-19,合同会社ａｔｔｒａｃｔ,,合同会社,東京都,新宿区,西新宿７丁目１８－１３,,13,104,1600023,,,,,,,2021-07-19,1,,,,,アトラクト,0
1761,6011801039468,新規,0,2021-07-19,2021-07-19,ＰＤＦ株式会社,,株式会社,東京都,足立区,南花畑４丁目３１番５号グリーンパールイワタ１０１,,13,121,1210062,,,,,,,2021-07-19,1,,,,,ピーディーエフ,0
1766,6012401038109,新規,0,2021-07-19,2021-07-19,株式会社アシスト,,株式会社,東京都,調布市,国領町１丁目３２番地１４ガット・リベロ２０３,,13,208,1820022,,,,,,,2021-07-19,1,,,,,アシスト,0
1767,6012403004942,新規,0,2021-07-19,2021-07-19,エコノス・ジャパン合同会社,,合同会社,東京都,調布市,柴崎１丁目１１番４３号,,13,208,1820014,,,,,,,2021-07-19,1,,,,,エコノスジャパン,0
1781,6020001142197,新規,0,2021-07-19,2021-07-19,株式会社ＺＨＩＥＮＤ,,株式会社,神奈川県,川崎市幸区,新小倉２番２ー１１０１号,,14,132,2120031,,,,,,,2021-07-19,1,,,,,ジエンド,0
1782,6020001142247,新規,0,2021-07-19,2021-07-19,株式会社ハウジングマネージメント,,株式会社,神奈川県,横浜市都筑区,中川中央１丁目２２番９号,,14,118,2240003,,,,,,,2021-07-19,1,,,,,ハウジングマネージメント,0
1785,6020003020194,新規,0,2021-07-19,2021-07-19,合同会社Ｎｅｘｃｃｅｓｓ　Ｅｓｔａｔｅ,,合同会社,神奈川県,横浜市中区,桜木町１丁目１０１番地１,,14,104,2310062,,,,,,,2021-07-19,1,,,,,ネクサスエステート,0
1809,6040001119417,新規,0,2021-07-19,2021-07-19,株式会社Ｐ＆Ｂ,,株式会社,千葉県,船橋市,上山町３丁目６３４番３０,,12,204,2730046,,,,,,,2021-07-19,1,,,,,ピーアンドービー,0
1810,6040001119433,新規,0,2021-07-19,2021-07-19,株式会社法実,,株式会社,千葉県,千葉市中央区,中央４丁目８番７号６階,,12,101,2600013,,,,,,,2021-07-19,1,,,,,ホウジツ,0
1811,6040001119441,新規,0,2021-07-19,2021-07-19,ＴＯＯＬＡ株式会社,,株式会社,千葉県,市原市,五井中央西１丁目７－１０,,12,219,2900081,,,,,,,2021-07-19,1,,,,,トーラ,0
1817,6040003018195,新規,0,2021-07-19,2021-07-19,ユニット合同会社,,合同会社,千葉県,東金市,極楽寺７８０番地,,12,213,2830835,,,,,,,2021-07-19,1,,,,,ユニット,0
1819,6040005021288,新規,0,2021-07-19,2021-07-19,一般社団法人リベラルアーツ学術院,,その他の設立登記法人,千葉県,船橋市,七林町４３６番地２７７,,12,204,2740821,,,,,,,2021-07-19,1,,,,,リベラルアーツガクジュツイン,0
1828,6070001038291,新規,0,2021-07-19,2021-07-19,株式会社ＳＩｒｅｘ,,株式会社,群馬県,高崎市,石原町１１６１番地１石原ハイツ２０４号,,10,202,3700864,,,,,,,2021-07-19,1,,,,,エスアイレックス,0
1831,6080001024332,新規,0,2021-07-19,2021-07-19,株式会社おたがいさま,,株式会社,静岡県,静岡市清水区,入江南町１４番２７号,,22,103,4240832,,,,,,,2021-07-19,1,,,,,オタガイサマ,0
1839,6100001034444,新規,0,2021-07-19,2021-07-19,株式会社くらた,,株式会社,長野県,松本市,大字惣社５００番地７,,20,202,3900305,,,,,,,2021-07-19,1,,,,,クラタ,0
1857,6120001239173,新規,0,2021-07-19,2021-07-19,株式会社蒼生舎,,株式会社,大阪府,大阪市生野区,林寺５丁目４番２０号,,27,116,5440023,,,,,,,2021-07-19,1,,,,,ソウセイシャ,0
1858,6120001239181,新規,0,2021-07-19,2021-07-19,株式会社ゴーウエスト,,株式会社,大阪府,大阪市西区,本田４丁目９番１３号,,27,106,5500022,,,,,,,2021-07-19,1,,,,,ゴーウエスト,0
1861,6120003019879,新規,0,2021-07-19,2021-07-19,カタルパイル合同会社,,合同会社,大阪府,大阪市鶴見区,横堤４丁目２７番１２－２０８号,,27,124,5380052,,,,,,,2021-07-19,1,,,,,カタルパイル,0
1863,6120005022393,新規,0,2021-07-19,2021-07-19,一般社団法人良職人,,その他の設立登記法人,大阪府,大阪市西区,京町堀１丁目１１番７号京旺ビル４階Ｂ号室,,27,106,5500003,,,,,,,2021-07-19,1,,,,,イイショクニン,0
1871,6120905006207,新規,0,2021-07-19,2021-07-19,医療法人碧山会,,その他の設立登記法人,大阪府,吹田市,泉町５丁目１１番１２号リーサイド豊津２１３号室,,27,205,5640041,,,,,,,2021-07-19,1,,,,,ヘキザンカイ,0
1894,6170001016675,新規,0,2021-07-19,2021-07-19,株式会社ＣＭＡ,,株式会社,和歌山県,和歌山市,松江北１丁目２番５号,,30,201,6408425,,,,,,,2021-07-19,1,,,,,シーエムエー,0
1899,6180001146975,新規,0,2021-07-19,2021-07-19,株式会社トイガー,,株式会社,愛知県,名古屋市緑区,水広２丁目１１１０番地,,23,114,4580848,,,,,,,2021-07-19,1,,,,,トイガー,0
1900,6180001147024,新規,0,2021-07-19,2021-07-19,株式会社グロース,,株式会社,愛知県,名古屋市千種区,吹上１丁目２番４号コアパレス２０５,,23,101,4640856,,,,,,,2021-07-19,1,,,,,グロース,0
1901,6180001147032,新規,0,2021-07-19,2021-07-19,株式会社八傳,,株式会社,愛知県,名古屋市東区,橦木町１丁目１５番地橦木ビル１Ｆ,,23,102,4610014,,,,,,,2021-07-19,1,,,,,ハチデン,0
1905,6180301035168,新規,0,2021-07-19,2021-07-19,株式会社Ｇｏｏｄ　Ｉｎｔｅｎｔｉｏｎｓ,,株式会社,愛知県,豊橋市,神明町４８番地１シティライフ豊橋マークス７０１,,23,201,4400882,,,,,,,2021-07-19,1,,,,,グッドインテンションズ,0
1906,6180303005061,新規,0,2021-07-19,2021-07-19,ＰＩＮＩＯＮ　ＴＥＣ合同会社,,合同会社,愛知県,碧南市,鶴見町１丁目８９番地,,23,209,4470057,,,,,,,2021-07-19,1,,,,,ピニオンテック,0
1929,6260001035773,新規,0,2021-07-19,2021-07-19,株式会社Ａｅｇｉｓ,,株式会社,岡山県,岡山市北区,伊福町１丁目１５－１８スカラトーレ伊福１Ｆ南,,33,101,7000013,,,,,,,2021-07-19,1,,,,,イージス,0
1932,6280003001516,新規,0,2021-07-19,2021-07-19,温泉津みらい合同会社,,合同会社,島根県,大田市,温泉津町温泉津ロ２０３番地,,32,205,6992501,,,,,,,2021-07-19,1,,,,,ユノツミライ,0
1939,6290001093819,新規,0,2021-07-19,2021-07-19,固定資産適正化株式会社,,株式会社,福岡県,福岡市南区,大橋２丁目１５番８号,,40,134,8150033,,,,,,,2021-07-19,1,,,,,コテイシサンテキセイカ,0
1941,6290003011431,新規,0,2021-07-19,2021-07-19,合同会社ＲｉｎＱ,,合同会社,福岡県,福岡市博多区,博多駅東２丁目４番１６号,,40,132,8120013,,,,,,,2021-07-19,1,,,,,リンク,0
1945,6290801027637,新規,0,2021-07-19,2021-07-19,株式会社ＳＨＡＲＫＡＲＡ,,株式会社,福岡県,田川市,丸山町１１番１３号,,40,206,8260033,,,,,,,2021-07-19,1,,,,,シャルカラ,0
1958,6340001023943,新規,0,2021-07-19,2021-07-19,株式会社ＭＥＤ,,株式会社,鹿児島県,霧島市,国分下井１９１１番地１,,46,218,8994463,,,,,,,2021-07-19,1,,,,,エムイーディー,0
1959,6340001023951,新規,0,2021-07-19,2021-07-19,株式会社薩摩プロジェクト,,株式会社,鹿児島県,鹿児島市,城南町１７番１号,,46,201,8920835,,,,,,,2021-07-19,1,,,,,サツマプロジェクト,0
1970,6360003011309,新規,0,2021-07-19,2021-07-19,合同会社りん,,合同会社,沖縄県,中頭郡北中城村,字安谷屋９５５番地２,,47,327,9012316,,,,,,,2021-07-19,1,,,,,,0
1994,6490001009936,新規,0,2021-07-19,2021-07-19,株式会社にゃごフィットネス,,株式会社,高知県,高知市,南はりまや町２丁目１４番５号フレンテカルポート３０２,,39,201,7800833,,,,,,,2021-07-19,1,,,,,ニャゴフィットネス,0
2014,7010001219739,新規,0,2021-07-19,2021-07-19,株式会社ステランサ,,株式会社,東京都,中央区,日本橋２丁目１番３号,,13,102,1030027,,,,,,,2021-07-19,1,,,,,ステランサ,0
2017,7010003035333,新規,0,2021-07-19,2021-07-19,合同会社フィンズベリー,,合同会社,東京都,中央区,日本橋兜町５番１号,,13,102,1030026,,,,,,,2021-07-19,1,,,,,フィンズベリー,0
2018,7010003035341,新規,0,2021-07-19,2021-07-19,日光Ｐｌｕｓ１９合同会社４,,合同会社,東京都,千代田区,丸の内３丁目１番１号東京共同会計事務所内,,13,101,1000005,,,,,,,2021-07-19,1,,,,,ニッコウプラスナインティーンヨン,0
2037,7010405019990,新規,0,2021-07-19,2021-07-19,特定目的会社ゴールドＨ,,その他の設立登記法人,東京都,港区,虎ノ門３丁目２２番１０－２０１号,,13,103,1050001,,,,,,,2021-07-19,1,,,,,ゴールドエイチ,0
2050,7010801032151,新規,0,2021-07-19,2021-07-19,株式会社ＴＮＫ,,株式会社,東京都,大田区,大森西２丁目２２番１５号,,13,111,1430015,,,,,,,2021-07-19,1,,,,,ティーエヌケイ,0
2051,7010901049129,新規,0,2021-07-19,2021-07-19,株式会社Ｖｉｅｗ　Ｆｉｎｄｅｒ,,株式会社,東京都,世田谷区,代田４丁目５番１４－４,,13,112,1550033,,,,,,,2021-07-19,1,,,,,ビューファインダー,0
2061,7011001141692,新規,0,2021-07-19,2021-07-19,株式会社ａｍｅｔｈｙｓｔ,,株式会社,東京都,目黒区,目黒３丁目９番９号ＢＯＮＢＯＮ－２Ａ,,13,110,1530063,,,,,,,2021-07-19,1,,,,,アメジスト,0
2062,7011001141809,新規,0,2021-07-19,2021-07-19,株式会社ｂｅｌｉｅｆ,,株式会社,東京都,渋谷区,神宮前３丁目６番５号ヴィラッジオ神宮前,,13,113,1500001,,,,,,,2021-07-19,1,,,,,ビリーフ,0
2063,7011001141833,新規,0,2021-07-19,2021-07-19,株式会社ｅＴＥＡＭ,,株式会社,東京都,渋谷区,神宮前６丁目２３番４号桑野ビル２階,,13,113,1500001,,,,,,,2021-07-19,1,,,,,イーチーム,0
2064,7011001141841,新規,0,2021-07-19,2021-07-19,株式会社平禄,,株式会社,東京都,目黒区,青葉台３丁目１番２１－６１２号パレステュディオ渋谷ＷＥＳＴ,,13,110,1530042,,,,,,,2021-07-19,1,,,,,ヘイロク,0
2065,7011003013072,新規,0,2021-07-19,2021-07-19,ｍｏｏｎｂｏｗ合同会社,,合同会社,東京都,渋谷区,上原３丁目１５－１０,,13,113,1510064,,,,,,,2021-07-19,1,,,,,ムーンボウ,0
2066,7011003013089,新規,0,2021-07-19,2021-07-19,合同会社Ａ．Ｋ．,,合同会社,東京都,渋谷区,東２丁目３－９,,13,113,1500011,,,,,,,2021-07-19,1,,,,,エーケー,0
2067,7011005009119,新規,0,2021-07-19,2021-07-19,一般社団法人三味線表現協会,,その他の設立登記法人,東京都,渋谷区,神宮前３丁目３６番１４号,,13,113,1500001,,,,,,,2021-07-19,1,,,,,シャミセンヒョウゲンキョウカイ,0
2070,7011101095772,新規,0,2021-07-19,2021-07-19,株式会社ＭＩＣＩ,,株式会社,東京都,新宿区,大京町２６番地１マジェスティハウス新宿御苑パークナード５１９,,13,104,1600015,,,,,,,2021-07-19,1,,,,,ミチ,0
2075,7011205002443,新規,0,2021-07-19,2021-07-19,一般社団法人エンパワーコーチング協会,,その他の設立登記法人,東京都,中野区,新井２丁目３１番１－４０１号,,13,114,1650026,,,,,,,2021-07-19,1,,,,,エンパワーコーチングキョウカイ,0
2081,7011501027144,新規,0,2021-07-19,2021-07-19,株式会社ビリスステート,,株式会社,東京都,荒川区,東尾久４丁目４１番５－１０１号,,13,118,1160012,,,,,,,2021-07-19,1,,,,,ビリスステート,0
2082,7011601025270,新規,0,2021-07-19,2021-07-19,株式会社ウチダホーム,,株式会社,東京都,練馬区,練馬１丁目２２番５号,,13,120,1760001,,,,,,,2021-07-19,1,,,,,ウチダホーム,0
2085,7011801039467,新規,0,2021-07-19,2021-07-19,凛凛株式会社,,株式会社,東京都,足立区,西新井３丁目１７－１パークプレミアムメイツ西新井さくらテラス２０３室,,13,121,1230841,,,,,,,2021-07-19,1,,,,,リンリン,0
2086,7011801039475,新規,0,2021-07-19,2021-07-19,株式会社ＩＲＯ,,株式会社,東京都,足立区,西新井栄町１丁目１３番９号,,13,121,1230843,,,,,,,2021-07-19,1,,,,,イロ,0
2092,7012401038116,新規,0,2021-07-19,2021-07-19,株式会社ＰＲＯＵＤ　ＨＯＭＥ,,株式会社,東京都,府中市,栄町２丁目１０番地の２６エイトビル４階,,13,206,1830051,,,,,,,2021-07-19,1,,,,,プラウドホーム,0
2100,7020001142304,新規,0,2021-07-19,2021-07-19,株式会社並木建工,,株式会社,神奈川県,横浜市旭区,市沢町１０４６番地,,14,112,2410014,,,,,,,2021-07-19,1,,,,,ナミキケンコウ,0
2103,7020003020193,新規,0,2021-07-19,2021-07-19,合同会社ＳＤＧｓ経営サポート,,合同会社,神奈川県,横浜市中区,桜木町１丁目１０１番地１クロスゲート７階,,14,104,2310062,,,,,,,2021-07-19,1,,,,,エスディージーズケイエイサポート,0
2121,7030001143400,新規,0,2021-07-19,2021-07-19,株式会社Ｆｒｅｅ　Ｎｅｘｔ,,株式会社,埼玉県,さいたま市見沼区,大字東門前１０６番地１,,11,104,3370016,,,,,,,2021-07-19,1,,,,,フリーネクスト,0
2122,7030001143433,新規,0,2021-07-19,2021-07-19,株式会社リノス,,株式会社,埼玉県,三郷市,新和４丁目４６３番地,,11,237,3410034,,,,,,,2021-07-19,1,,,,,リノス,0
2127,7030003017635,新規,0,2021-07-19,2021-07-19,合同会社ＧＲ研究所,,合同会社,埼玉県,草加市,青柳３丁目３４番１４－２号,,11,221,3400002,,,,,,,2021-07-19,1,,,,,ジーアールケンキュウジョ,0
2137,7040001119440,新規,0,2021-07-19,2021-07-19,Ｇｏｏ　Ｎｅｘｔｉｏｎ株式会社,,株式会社,千葉県,千葉市中央区,汐見丘町１３番１１号創建第２ビル３Ｆ,,12,101,2600034,,,,,,,2021-07-19,1,,,,,グーネクション,0
2138,7040001119457,新規,0,2021-07-19,2021-07-19,かずさ自然エネルギー株式会社,,株式会社,千葉県,夷隅郡大多喜町,面白３２６番地１,,12,441,2980279,,,,,,,2021-07-19,1,,,,,カズサシゼンエネルギー,0
2139,7040001119465,新規,0,2021-07-19,2021-07-19,ＭＩＧＨＴ株式会社,,株式会社,千葉県,野田市,山崎２０７６－３ローズシェル２－１０２,,12,208,2780022,,,,,,,2021-07-19,1,,,,,マイト,0
2147,7040003018186,新規,0,2021-07-19,2021-07-19,合同会社Ｍ＆Ｓ,,合同会社,千葉県,市川市,南行徳４丁目１０番２５号,,12,203,2720138,,,,,,,2021-07-19,1,,,,,エムアンドエス,0
2158,7070001038282,新規,0,2021-07-19,2021-07-19,株式会社宮城高橋ファーム,,株式会社,群馬県,前橋市,市之関町９９４番地,,10,201,3710245,,,,,,,2021-07-19,1,,,,,ミヤギタカハシファーム,0
2166,7100001034443,新規,0,2021-07-19,2021-07-19,株式会社正永精工,,株式会社,長野県,飯田市,大休１５９１番地３０,,20,205,3950068,,,,,,,2021-07-19,1,,,,,ショウエイセイコウ,0
2167,7100001034451,新規,0,2021-07-19,2021-07-19,株式会社ＰＨＯＥＮＩＸ,,株式会社,長野県,下伊那郡松川町,元大島６１９番地３,,20,402,3993303,,,,,,,2021-07-19,1,,,,,フェニックス,0
2168,7100003006168,新規,0,2021-07-19,2021-07-19,ＴｉｎＰｈａｔＪａｐａｎ合同会社,,合同会社,長野県,南佐久郡南相木村,５８８４番地,,20,306,3841211,,,,,,,2021-07-19,1,,,,,ティンファットジャパン,0
2197,7120005022401,新規,0,2021-07-19,2021-07-19,一般社団法人ルーパックファウンデーション,,その他の設立登記法人,大阪府,大阪市北区,中崎西１丁目５番２２号中山文甫会館４Ｄ,,27,127,5300015,,,,,,,2021-07-19,1,,,,,ルーパックファウンデーション,0
2201,7120101064009,新規,0,2021-07-19,2021-07-19,三宅防災株式会社,,株式会社,大阪府,堺市堺区,柳之町西３丁１番１７号,,27,141,5900930,,,,,,,2021-07-19,1,,,,,ミヤケボウサイ,0
2202,7120901044647,新規,0,2021-07-19,2021-07-19,株式会社二馬力,,株式会社,大阪府,箕面市,船場西１丁目７番１８－４０１号,,27,220,5620036,,,,,,,2021-07-19,1,,,,,ニバリキ,0
2204,7120905006206,新規,0,2021-07-19,2021-07-19,医療法人雅忠会,,その他の設立登記法人,大阪府,池田市,栄町２番１号池田阪急ビル３Ｆ,,27,204,5630056,,,,,,,2021-07-19,1,,,,,マサタダカイ,0
2219,7140001122310,新規,0,2021-07-19,2021-07-19,株式会社Ａ－ＬＥＡＰ,,株式会社,兵庫県,尼崎市,武庫之荘５丁目３２番１４号,,28,202,6610035,,,,,,,2021-07-19,1,,,,,アリープ,0
2220,7140001122343,新規,0,2021-07-19,2021-07-19,株式会社ウォルナット,,株式会社,兵庫県,伊丹市,森本５丁目５２番地３,,28,207,6640842,,,,,,,2021-07-19,1,,,,,ウォルナット,0
2224,7140003016527,新規,0,2021-07-19,2021-07-19,合同会社ＣａｎＶａｓ,,合同会社,兵庫県,姫路市,東山１５７番地６,,28,201,6728014,,,,,,,2021-07-19,1,,,,,キャンバス,0
2232,7170003001600,新規,0,2021-07-19,2021-07-19,合同会社Ｌ．Ｗ．Ｇ．,,合同会社,和歌山県,西牟婁郡白浜町,塩野４０８番地の３,,30,401,6492525,,,,,,,2021-07-19,1,,,,,エルドットダブルドットジードット,0
2241,7180001146974,新規,0,2021-07-19,2021-07-19,株式会社光陽メンテナンス,,株式会社,愛知県,一宮市,小信中島字御社来８番地１,,23,203,4940007,,,,,,,2021-07-19,1,,,,,コウヨウメンテナンス,0
2242,7180001147023,新規,0,2021-07-19,2021-07-19,株式会社田中ボーリング,,株式会社,愛知県,知多郡南知多町,大字内海字平田８０番地,,23,445,4703321,,,,,,,2021-07-19,1,,,,,タナカボーリング,0
2243,7180001147031,新規,0,2021-07-19,2021-07-19,株式会社ＶｉＶｉ,,株式会社,愛知県,北名古屋市,鹿田清水９９番地,,23,234,4810004,,,,,,,2021-07-19,1,,,,,ヴィヴィ,0
2244,7180003022760,新規,0,2021-07-19,2021-07-19,もも不動産合同会社,,合同会社,愛知県,名古屋市緑区,松が根台７８番地の２ラビデンス松ヶ根Ｎ館３０６号,,23,114,4580843,,,,,,,2021-07-19,1,,,,,モモフドウサン,0
2254,7200003005250,新規,0,2021-07-19,2021-07-19,合同会社ＫＭ　ＳＡＦＥＴＹ,,合同会社,岐阜県,大垣市,外花５丁目３２番地１,,21,202,5030954,,,,,,,2021-07-19,1,,,,,ケーエムセイフティー,0
2268,7260001035780,新規,0,2021-07-19,2021-07-19,株式会社レオラルタインスペクション,,株式会社,岡山県,倉敷市,沖新町２番地９ヴィラ沖２０３,,33,202,7100837,,,,,,,2021-07-19,1,,,,,レオラルタインスペクション,0
2275,7290001093891,新規,0,2021-07-19,2021-07-19,壱塗装株式会社,,株式会社,福岡県,福岡市西区,野方７丁目８５７番地１２,,40,135,8190043,,,,,,,2021-07-19,1,,,,,イチトソウ,0
2276,7290001093917,新規,0,2021-07-19,2021-07-19,株式会社プロブリッジ,,株式会社,福岡県,福岡市中央区,大名１丁目７－２けやきビル１０１,,40,133,8100041,,,,,,,2021-07-19,1,,,,,プロブリッジ,0
2279,7290801027652,新規,0,2021-07-19,2021-07-19,株式会社Ｋ,,株式会社,福岡県,北九州市小倉北区,熊本３丁目２番１－７０３号,,40,106,8020044,,,,,,,2021-07-19,1,,,,,ケイ,0
2282,7300001012560,新規,0,2021-07-19,2021-07-19,株式会社坂本工務店,,株式会社,佐賀県,唐津市,鎮西町打上３３０１番地,,41,202,8470322,,,,,,,2021-07-19,1,,,,,サカモトコウムテン,0
2285,7320003003580,新規,0,2021-07-19,2021-07-19,合同会社ダイワトラスト,,合同会社,大分県,大分市,明野南２丁目１４番２８－５０１号,,44,201,8700163,,,,,,,2021-07-19,1,,,,,ダイワトラスト,0
2288,7330001028810,新規,0,2021-07-19,2021-07-19,株式会社建人ホーム,,株式会社,熊本県,天草市,本町本５３番地,,43,215,8630007,,,,,,,2021-07-19,1,,,,,ケントホーム,0
2292,7340005009319,新規,0,2021-07-19,2021-07-19,協同組合トレードウィン,,その他の設立登記法人,鹿児島県,姶良市,西餅田１３４番地８,,46,225,8995431,,,,,,,2021-07-19,1,,,,,トレードウィン,0
2299,7360003011299,新規,0,2021-07-19,2021-07-19,えぐちラボ合同会社,,合同会社,沖縄県,那覇市,久茂地２丁目２－２タイムスビル２Ｆ,,47,201,9000015,,,,,,,2021-07-19,1,,,,,,0
2312,7390001016537,新規,0,2021-07-19,2021-07-19,株式会社Ｍｒ．もがな,,株式会社,山形県,天童市,東芳賀３丁目１４番１１号ラピスベルグ,,06,210,9940061,,,,,,,2021-07-19,1,,,,,ミスターモガナ,0
2327,7490001009935,新規,0,2021-07-19,2021-07-19,寰宇株式会社,,株式会社,高知県,高知市,桟橋通３丁目２５番１－５０２号,,39,201,7818010,,,,,,,2021-07-19,1,,,,,カンウ,0
2345,8010001219556,新規,0,2021-07-19,2021-07-19,株式会社リファインバースグループ,,株式会社,東京都,中央区,日本橋人形町３丁目１０番１号,,13,102,1030013,,,,,,,2021-07-19,1,,,,,リファインバースグループ,0
2346,8010001219738,新規,0,2021-07-19,2021-07-19,ＨＧホールディングス株式会社,,株式会社,東京都,中央区,晴海１丁目６番１－４６０９号,,13,102,1040053,,,,,,,2021-07-19,1,,,,,エイチジーホールディングス,0
2347,8010001219779,新規,0,2021-07-19,2021-07-19,Ｌｏｏｐ　Ｎｏｗ　Ｔｅｃｈｎｏｌｏｇｉｅｓ株式会社,,株式会社,東京都,千代田区,丸の内１丁目８番３号トラストタワー本館２０階,,13,101,1000005,,,,,,,2021-07-19,1,,,,,ループナウテクノロジーズ,0
2348,8010001219787,新規,0,2021-07-19,2021-07-19,株式会社Ｋａｓａｎａｒｉ　Ｅｎｔｅｒｔａｉｎｍｅｎｔ,,株式会社,東京都,文京区,小石川３丁目８番１１－２０３号,,13,105,1120002,,,,,,,2021-07-19,1,,,,,カサナリエンターテイメント,0
2349,8010001219820,新規,0,2021-07-19,2021-07-19,ＴＥＪホールディングス２株式会社,,株式会社,東京都,千代田区,丸の内２丁目１番１号,,13,101,1000005,,,,,,,2021-07-19,1,,,,,ティーイージェイホールディングスツー,0
2350,8010003035340,新規,0,2021-07-19,2021-07-19,日光Ｐｌｕｓ１９合同会社３,,合同会社,東京都,千代田区,丸の内３丁目１番１号東京共同会計事務所内,,13,101,1000005,,,,,,,2021-07-19,1,,,,,ニッコウプラスナインティーンサン,0
2353,8010005033631,新規,0,2021-07-19,2021-07-19,一般社団法人Ｃｒｉｔｉｃａｌ　Ｃａｒｅ　Ｒｅｓｅａｒｃｈ　Ｉｎｓｔｉｔｕｔｅ,,その他の設立登記法人,東京都,千代田区,九段北１丁目４－１日本地所ブルックスビル３階,,13,101,1020073,,,,,,,2021-07-19,1,,,,,クリティカルケアリサーチインスティテュート,0
2354,8010005033672,新規,0,2021-07-19,2021-07-19,一般社団法人ヨコハマライン,,その他の設立登記法人,東京都,千代田区,神田神保町１丁目１１番地さくら綜合事務所内,,13,101,1010051,,,,,,,2021-07-19,1,,,,,ヨコハマライン,0
2356,8010103001738,新規,0,2021-07-19,2021-07-19,合同会社ソフィ,,合同会社,東京都,八王子市,狭間町１４６２番地５,,13,201,1930941,,,,,,,2021-07-19,1,,,,,ソフィ,0
2378,8010901049128,新規,0,2021-07-19,2021-07-19,株式会社ディオメディック,,株式会社,東京都,世田谷区,豪徳寺１丁目２７番１２号,,13,112,1540021,,,,,,,2021-07-19,1,,,,,ディオメディック,0
2384,8011001141758,新規,0,2021-07-19,2021-07-19,ＢＵＲＯＮＩＣＡ株式会社,,株式会社,東京都,目黒区,中央町１丁目１４番９－４１４号,,13,110,1520001,,,,,,,2021-07-19,1,,,,,ブロニカ,0
2385,8011001141816,新規,0,2021-07-19,2021-07-19,北林Ｄａｎｋ不動産株式会社,,株式会社,東京都,目黒区,東が丘２丁目３番２１号,,13,110,1520021,,,,,,,2021-07-19,1,,,,,キタバヤシダンクフドウサン,0
2386,8011001141898,新規,0,2021-07-19,2021-07-19,株式会社セーニャ,,株式会社,東京都,目黒区,東山１丁目１５番３号,,13,110,1530043,,,,,,,2021-07-19,1,,,,,セーニャ,0
2388,8011003013088,新規,0,2021-07-19,2021-07-19,合同会社ｏｕｃａ,,合同会社,東京都,渋谷区,神宮前６丁目３５番３号コーポオリンピア３２４号室,,13,113,1500001,,,,,,,2021-07-19,1,,,,,オウカ,0
2396,8011201023120,新規,0,2021-07-19,2021-07-19,株式会社サントスグローバル,,株式会社,東京都,中野区,中野２丁目２８番１号,,13,114,1640001,,,,,,,2021-07-19,1,,,,,サントスグローバル,0
2398,8011501027119,新規,0,2021-07-19,2021-07-19,３ＣＨ株式会社,,株式会社,東京都,北区,王子本町１丁目９番１１号,,13,117,1140022,,,,,,,2021-07-19,1,,,,,トリプルシーエイチ,0
2402,8011803004708,新規,0,2021-07-19,2021-07-19,合同会社Ｋ’ｓ企画,,合同会社,東京都,葛飾区,西亀有３丁目２１番１２号,,13,122,1250002,,,,,,,2021-07-19,1,,,,,ゴウドウガイシャケーズキカク,0
2420,8021001073430,新規,0,2021-07-19,2021-07-19,大家不動産株式会社,,株式会社,神奈川県,小田原市,下堀１２０番地の９,,14,206,2500871,,,,,,,2021-07-19,1,,,,,オオヤフドウサン,0
2434,8030001143358,新規,0,2021-07-19,2021-07-19,リリーコンサルティング株式会社,,株式会社,埼玉県,さいたま市浦和区,常盤１丁目３番１８－２０４号,,11,107,3300061,,,,,,,2021-07-19,1,,,,,リリーコンサルティング,0
2435,8030001143390,新規,0,2021-07-19,2021-07-19,株式会社沼澤工業,,株式会社,埼玉県,さいたま市西区,大字飯田４３９番地３,,11,101,3310058,,,,,,,2021-07-19,1,,,,,ヌマザワコウギョウ,0
2443,8030003017642,新規,0,2021-07-19,2021-07-19,合同会社くまＲ,,合同会社,埼玉県,大里郡寄居町,大字富田１２番地２２,,11,408,3691216,,,,,,,2021-07-19,1,,,,,クマアール,0
2452,8040001119448,新規,0,2021-07-19,2021-07-19,アイビー株式会社,,株式会社,千葉県,船橋市,本町１丁目９番９号ルナパーク船橋２１０２号室,,12,204,2730005,,,,,,,2021-07-19,1,,,,,アイビー,0
2453,8040001119456,新規,0,2021-07-19,2021-07-19,アクエリアテレヴィジョン株式会社,,株式会社,千葉県,君津市,東坂田２丁目６番１６号サンプラザ２Ｆ,,12,225,2991144,,,,,,,2021-07-19,1,,,,,アクエリアテレヴィジョン,0
2469,8080001024322,新規,0,2021-07-19,2021-07-19,株式会社サン,,株式会社,静岡県,島田市,旭２丁目２７番３２号,,22,209,4270018,,,,,,,2021-07-19,1,,,,,サン,0
2470,8080001024330,新規,0,2021-07-19,2021-07-19,高熊造園株式会社,,株式会社,静岡県,焼津市,宗高１５７２番地の１,,22,212,4210205,,,,,,,2021-07-19,1,,,,,タカクマゾウエン,0
2473,8080101022663,新規,0,2021-07-19,2021-07-19,株式会社ＳＨＳ,,株式会社,静岡県,富士宮市,万野原新田４０７１番地の２６,,22,207,4180001,,,,,,,2021-07-19,1,,,,,エスエイチエス,0
2476,8080401025201,新規,0,2021-07-19,2021-07-19,浜松ビジネスソリューション株式会社,,株式会社,静岡県,浜松市中区,曳馬６丁目２２番１０号,,22,131,4300901,,,,,,,2021-07-19,1,,,,,ハママツビジネスソリューション,0
2479,8100001034442,新規,0,2021-07-19,2021-07-19,株式会社ＢｕｃｋｗｈＥＡＴ,,株式会社,長野県,安曇野市,豊科高家１１３７番地１８６,,20,220,3998204,,,,,,,2021-07-19,1,,,,,バックウィート,0
2480,8100001034450,新規,0,2021-07-19,2021-07-19,株式会社ホープ自動車,,株式会社,長野県,長野市,合戦場２丁目６９番地,,20,201,3888008,,,,,,,2021-07-19,1,,,,,ホープジドウシャ,0
2481,8100001034459,新規,0,2021-07-19,2021-07-19,株式会社アルファ・プラス,,株式会社,長野県,長野市,川中島町上氷鉋５０１番地４５,,20,201,3812233,,,,,,,2021-07-19,1,,,,,アルファプラス,0
2482,8100003006175,新規,0,2021-07-19,2021-07-19,合同会社和,,合同会社,長野県,岡谷市,赤羽２丁目３番３４号,,20,204,3940002,,,,,,,2021-07-19,1,,,,,ナゴミ,0
2511,8120001239097,新規,0,2021-07-19,2021-07-19,株式会社ＣＷＲ,,株式会社,大阪府,交野市,天野が原町３丁目１番２４－３号,,27,230,5760034,,,,,,,2021-07-19,1,,,,,シーダブリューアール,0
2516,8120005022383,新規,0,2021-07-19,2021-07-19,行政書士法人Ｇ　ｃｕｂｅ　ｐａｒｔｎｅｒｓ,,その他の設立登記法人,大阪府,大阪市北区,南森町１丁目３番１３号藤隆ビル２階,,27,127,5300054,,,,,,,2021-07-19,1,,,,,ジーキューブパートナーズ,0
2517,8120005022400,新規,0,2021-07-19,2021-07-19,一般社団法人国際ソフィアセラピスト協会,,その他の設立登記法人,大阪府,大阪市中央区,南船場２丁目１０番１３号ラドゥセール心斎橋１００１,,27,128,5420081,,,,,,,2021-07-19,1,,,,,コクサイソフィアセラピストキョウカイ,0
2522,8120101064008,新規,0,2021-07-19,2021-07-19,株式会社ｉｎｇ,,株式会社,大阪府,堺市南区,檜尾１２８９番地,,27,145,5900142,,,,,,,2021-07-19,1,,,,,イング,0
2528,8120901044646,新規,0,2021-07-19,2021-07-19,株式会社エタンセル,,株式会社,大阪府,吹田市,佐井寺１丁目２５番１号,,27,205,5650836,,,,,,,2021-07-19,1,,,,,エタンセル,0
2534,8130001069733,新規,0,2021-07-19,2021-07-19,株式会社クレール,,株式会社,京都府,京都市左京区,田中下柳町１番地１７－１Ｆ,,26,103,6068204,,,,,,,2021-07-19,1,,,,,クレール,0
2535,8130005016228,新規,0,2021-07-19,2021-07-19,医療法人モリ歯科医院,,その他の設立登記法人,京都府,京都市右京区,嵯峨大覚寺門前井頭町１７番地１４,,26,108,6168416,,,,,,,2021-07-19,1,,,,,モリシカイイン,0
2546,8140001122334,新規,0,2021-07-19,2021-07-19,ロケットチョップ株式会社,,株式会社,兵庫県,姫路市,本町１２７番地,,28,201,6700012,,,,,,,2021-07-19,1,,,,,ロケットチョップ,0
2547,8140001122342,新規,0,2021-07-19,2021-07-19,株式会社ＬＵＣＫＹ　ＣＨＡＲＭ,,株式会社,兵庫県,尼崎市,北大物町６番１４号,,28,202,6600804,,,,,,,2021-07-19,1,,,,,ラッキーチャーム,0
2548,8140001122400,新規,0,2021-07-19,2021-07-19,株式会社サテライトジャパン,,株式会社,兵庫県,芦屋市,松ノ内町１０番１９－１－２０２,,28,206,6590094,,,,,,,2021-07-19,1,,,,,サテライトジャパン,0
2567,8190001028519,新規,0,2021-07-19,2021-07-19,株式会社デマル,,株式会社,三重県,伊勢市,二見町茶屋２７７番地２,,24,203,5190609,,,,,,,2021-07-19,1,,,,,デマル,0
2569,8200001038904,新規,0,2021-07-19,2021-07-19,株式会社岩本ＩＴコンサルティング,,株式会社,岐阜県,岐阜市,鍵屋中町１３番地１０,,21,201,5008313,,,,,,,2021-07-19,1,,,,,イワモトアイティーコンサルティング,0
2584,8260005010936,新規,0,2021-07-19,2021-07-19,一般社団法人晴ればれ岡山サポートテラス,,その他の設立登記法人,岡山県,岡山市北区,原１１１９番地１,,33,101,7012154,,,,,,,2021-07-19,1,,,,,ハレバレオカヤマサポートテラス,0
2592,8290001093874,新規,0,2021-07-19,2021-07-19,株式会社Ｓｅｌｄｅｅ,,株式会社,福岡県,福岡市中央区,天神２丁目３番１０号天神パインクレスト７１９号,,40,133,8100001,,,,,,,2021-07-19,1,,,,,セルディー,0
2593,8290001093890,新規,0,2021-07-19,2021-07-19,株式会社ハートランド,,株式会社,福岡県,福岡市中央区,薬院３丁目１０番５－１００８号,,40,133,8100022,,,,,,,2021-07-19,1,,,,,ハートランド,0
2594,8290001093899,新規,0,2021-07-19,2021-07-19,株式会社ＫＯＤＡＷ,,株式会社,福岡県,福岡市中央区,長浜２丁目５番２２号Ｆビル３Ｆ,,40,133,8100072,,,,,,,2021-07-19,1,,,,,コドー,0
2595,8290001093908,新規,0,2021-07-19,2021-07-19,株式会社アーキ・リプロジェクト,,株式会社,福岡県,福岡市博多区,博多駅前２丁目１９番１７号トーカン博多第５ビル３１２号室,,40,132,8120011,,,,,,,2021-07-19,1,,,,,アーキリプロジェクト,0
2596,8290003011405,新規,0,2021-07-19,2021-07-19,福岡法務サービス合同会社,,合同会社,福岡県,福岡市中央区,大名２丁目８番１号肥後天神宝ビル８階,,40,133,8100041,,,,,,,2021-07-19,1,,,,,フクオカホウムサービス,0
2598,8290801027643,新規,0,2021-07-19,2021-07-19,株式会社はせがわ,,株式会社,福岡県,北九州市八幡西区,大平２丁目１１番２３号,,40,109,8070083,,,,,,,2021-07-19,1,,,,,ハセガワ,0
2613,8330001028818,新規,0,2021-07-19,2021-07-19,株式会社アライブセンス,,株式会社,熊本県,熊本市中央区,下通１丁目６番１５号,,43,101,8600807,,,,,,,2021-07-19,1,,,,,,0
2616,8330003008982,新規,0,2021-07-19,2021-07-19,夢不動産合同会社,,合同会社,熊本県,熊本市南区,南高江１丁目１５番１３号,,43,104,8614106,,,,,,,2021-07-19,1,,,,,ユメフドウサン,0
2652,8490003001567,新規,0,2021-07-19,2021-07-19,合同会社土佐丸,,合同会社,高知県,安芸郡芸西村,西分甲２５８８番地３,,39,307,7815703,,,,,,,2021-07-19,1,,,,,トサマル,0
2678,9010001219472,新規,0,2021-07-19,2021-07-19,株式会社ｐｏｔｅ十,,株式会社,東京都,文京区,千石４丁目３４－１,,13,105,1120011,,,,,,,2021-07-19,1,,,,,ポテト,0
2679,9010001219786,新規,0,2021-07-19,2021-07-19,株式会社Ｓａｇａｗａ　Ａｓｓｏｃｉａｔｅｓ,,株式会社,東京都,千代田区,神田錦町２丁目１番地５,,13,101,1010054,,,,,,,2021-07-19,1,,,,,サガワアソシエーツ,0
2680,9010003035224,新規,0,2021-07-19,2021-07-19,合同会社スマートアクアリウム静岡,,合同会社,東京都,千代田区,丸の内３丁目１番１号東京共同会計事務所内,,13,101,1000005,,,,,,,2021-07-19,1,,,,,スマートアクアリウムシズオカ,0
2681,9010003035307,新規,0,2021-07-19,2021-07-19,ＣＩＲＲＵＳ　ＩＮＴＥＲＮＡＴＩＯＮＡＬ　ＪＡＰＡＮ合同会社,,合同会社,東京都,千代田区,平河町１丁目２番１０号平河町第一生命ビルディング６Ｆ,,13,101,1020093,,,,,,,2021-07-19,1,,,,,サイラスインターナショナルジャパン,0
2702,9010703005856,新規,0,2021-07-19,2021-07-19,合同会社Ｋｅｅｓ,,合同会社,東京都,品川区,西五反田８丁目２－１２アール五反田７Ａ,,13,109,1410031,,,,,,,2021-07-19,1,,,,,キース,0
2706,9010901049102,新規,0,2021-07-19,2021-07-19,株式会社ＢＬＵＥ　ＢＲＡＮＤ,,株式会社,東京都,世田谷区,池尻２丁目４番５号,,13,112,1540001,,,,,,,2021-07-19,1,,,,,ブルーブランド,0
2707,9010901049119,新規,0,2021-07-19,2021-07-19,株式会社Ｒｏａｒｉｎｇ　４ｓ,,株式会社,東京都,世田谷区,三軒茶屋１丁目１６番８号,,13,112,1540024,,,,,,,2021-07-19,1,,,,,ロアリングフォース,0
2708,9010901049127,新規,0,2021-07-19,2021-07-19,株式会社２ｒｉｃｈ,,株式会社,東京都,世田谷区,代沢４丁目１５－２,,13,112,1550032,,,,,,,2021-07-19,1,,,,,ニリッチ,0
2720,9011001141708,新規,0,2021-07-19,2021-07-19,アダソフト株式会社,,株式会社,東京都,渋谷区,神宮前６丁目２３－４桑野ビル２Ｆ,,13,113,1500001,,,,,,,2021-07-19,1,,,,,アダソフト,0
2721,9011001141757,新規,0,2021-07-19,2021-07-19,株式会社ＴＲＩＢＥ,,株式会社,東京都,渋谷区,神宮前２丁目２１番１９号,,13,113,1500001,,,,,,,2021-07-19,1,,,,,トライブ,0
2722,9011001141807,新規,0,2021-07-19,2021-07-19,株式会社ばなお,,株式会社,東京都,渋谷区,笹塚３丁目１番１１号プライムアーバン笹塚３０６,,13,113,1510073,,,,,,,2021-07-19,1,,,,,バナオ,0
2731,9011303004100,新規,0,2021-07-19,2021-07-19,Ｂｒｉｄｇｅ　Ｃｏｎｓｕｌｔｉｎｇ合同会社,,合同会社,東京都,杉並区,高円寺北１丁目２２－６,,13,115,1660002,,,,,,,2021-07-19,1,,,,,ブリッジコンサルティング,0
2735,9011601025269,新規,0,2021-07-19,2021-07-19,株式会社ケアプラス,,株式会社,東京都,練馬区,西大泉４丁目２２番２１号,,13,120,1780065,,,,,,,2021-07-19,1,,,,,ケアプラス,0
2739,9011801039473,新規,0,2021-07-19,2021-07-19,スプリングハイカー株式会社,,株式会社,東京都,足立区,東六月町１１－４３,,13,121,1210071,,,,,,,2021-07-19,1,,,,,スプリングハイカー,0
2745,9012701016587,新規,0,2021-07-19,2021-07-19,株式会社イー・ヒット,,株式会社,東京都,小平市,学園西町２丁目１５番３－２０１号,,13,211,1870045,,,,,,,2021-07-19,1,,,,,イーヒット,0
2746,9012805003036,新規,0,2021-07-19,2021-07-19,社会保険労務士法人ミット,,その他の設立登記法人,東京都,日野市,豊田３丁目３６番地２６,,13,212,1910053,,,,,,,2021-07-19,1,,,,,,0
2747,9013101008679,新規,0,2021-07-19,2021-07-19,株式会社Ｓｃｉｎｔｉｌｌｅｒ,,株式会社,東京都,羽村市,小作台２丁目２番地１４,,13,227,2050001,,,,,,,2021-07-19,1,,,,,サンティエ,0
2753,9020001142236,新規,0,2021-07-19,2021-07-19,株式会社ファシラボ,,株式会社,神奈川県,横浜市港北区,樽町４丁目６番４０－２号,,14,109,2220001,,,,,,,2021-07-19,1,,,,,ファシラボ,0
2754,9020001142285,新規,0,2021-07-19,2021-07-19,Ｓａｒａ＆Ｃｏｍｐａｎｙ株式会社,,株式会社,神奈川県,横浜市中区,新山下３丁目１５番８－３２０号,,14,104,2310801,,,,,,,2021-07-19,1,,,,,サラアンドカンパニー,0
2755,9020001142293,新規,0,2021-07-19,2021-07-19,株式会社生田商事,,株式会社,神奈川県,横浜市中区,伊勢佐木町２丁目８１新起企画ビル６－Ａ１,,14,104,2310045,,,,,,,2021-07-19,1,,,,,イクタショウジ,0
2756,9020001142302,新規,0,2021-07-19,2021-07-19,株式会社Ｔｙ‐ｖｉｓｉｏｎ,,株式会社,神奈川県,横浜市都筑区,南山田２丁目２１番１４号,,14,118,2240029,,,,,,,2021-07-19,1,,,,,ティーワイビション,0
2766,9021003010703,新規,0,2021-07-19,2021-07-19,合同会社こはるびより,,合同会社,神奈川県,鎌倉市,城廻４２３番地４,,14,204,2470074,,,,,,,2021-07-19,1,,,,,コハルビヨリ,0
2777,9030001143415,新規,0,2021-07-19,2021-07-19,株式会社まとばセレモニー,,株式会社,埼玉県,川越市,大字的場１２２６番地,,11,201,3501101,,,,,,,2021-07-19,1,,,,,マトバセレモニー,0
2798,9040001119249,新規,0,2021-07-19,2021-07-19,株式会社日建国際学院,,株式会社,千葉県,千葉市中央区,要町２番１２号４階,,12,101,2600017,,,,,,,2021-07-19,1,,,,,ニッケンコクサイガクイン,0
2799,9040001119348,新規,0,2021-07-19,2021-07-19,株式会社一伸興業,,株式会社,千葉県,千葉市中央区,都町４丁目７番１２号,,12,101,2600001,,,,,,,2021-07-19,1,,,,,イッシンコウギョウ,0
2800,9040001119463,新規,0,2021-07-19,2021-07-19,株式会社ＦＯＲＭＥ,,株式会社,千葉県,市川市,南八幡４丁目１７番２６号,,12,203,2720023,,,,,,,2021-07-19,1,,,,,フォーム,0
2804,9040005021285,新規,0,2021-07-19,2021-07-19,一般社団法人グローバルＩＣＴ人材育成支援機構,,その他の設立登記法人,千葉県,千葉市美浜区,中瀬１丁目３番地幕張テクノガーデンＢ棟３階,,12,106,2610023,,,,,,,2021-07-19,1,,,,,グローバルアイシーティージンザイイクセイシエンキコウ,0
2809,9060001033919,新規,0,2021-07-19,2021-07-19,株式会社ＡＪＡＷＡ　Ｂｕｓｉｎｅｓｓ　Ｇｒｏｕｐ,,株式会社,栃木県,鹿沼市,西茂呂３丁目１９番２号,,09,205,3220029,,,,,,,2021-07-19,1,,,,,アジャワビジネスグループ,0
2815,9070001038289,新規,0,2021-07-19,2021-07-19,株式会社ｔａｍａＫｏｒｏ,,株式会社,群馬県,前橋市,箱田町１０１６番地４ライフコアＵ１－Ｄ号,,10,201,3710837,,,,,,,2021-07-19,1,,,,,タマコロ,0
2817,9080101022662,新規,0,2021-07-19,2021-07-19,株式会社エフ・リペア,,株式会社,静岡県,富士市,鈴川東町４番７号,,22,210,4170012,,,,,,,2021-07-19,1,,,,,エフリペア,0
2821,9080405007376,新規,0,2021-07-19,2021-07-19,一般社団法人自分らしさ発見協会,,その他の設立登記法人,静岡県,湖西市,岡崎２１９１番地の４１,,22,221,4310422,,,,,,,2021-07-19,1,,,,,ジブンラシサハッケンキョウカイ,0
2823,9090005007420,新規,0,2021-07-19,2021-07-19,一般社団法人Ａｄｖａｎｃｅ,,その他の設立登記法人,山梨県,甲斐市,竜王２１６２番地２,,19,210,4000118,,,,,,,2021-07-19,1,,,,,アドバンス,0
2824,9100001034458,新規,0,2021-07-19,2021-07-19,ＭｏｏｎＢａｓｅ株式会社,,株式会社,長野県,上伊那郡辰野町,大字辰野１７０５－１ＳＴＵＤＩＯリバー３Ｆ,,20,382,3990421,,,,,,,2021-07-19,1,,,,,ムーンベース,0
2844,9120001239146,新規,0,2021-07-19,2021-07-19,株式会社安泰,,株式会社,大阪府,大阪市東住吉区,今川６丁目２番６号,,27,121,5460003,,,,,,,2021-07-19,1,,,,,アンタイ,0
2845,9120001239170,新規,0,2021-07-19,2021-07-19,株式会社ＭＩＬＬパートナー,,株式会社,大阪府,大阪市淀川区,西中島３丁目１８番９号,,27,123,5320011,,,,,,,2021-07-19,1,,,,,ミルパートナー,0
2846,9120001239179,新規,0,2021-07-19,2021-07-19,株式会社ＦＵＳＡＴＡＲＯ,,株式会社,大阪府,大阪市鶴見区,放出東１丁目２７番３３号,,27,124,5380044,,,,,,,2021-07-19,1,,,,,フサタロウ,0
2847,9120001239195,新規,0,2021-07-19,2021-07-19,株式会社ＩＣＨ,,株式会社,大阪府,大阪市東住吉区,桑津１丁目３１番２０号,,27,121,5460041,,,,,,,2021-07-19,1,,,,,アイシーエイチ,0
2853,9120003019851,新規,0,2021-07-19,2021-07-19,合同会社ライズ,,合同会社,大阪府,大阪市中央区,南船場２丁目１０番１７号南愛ビル６０２,,27,128,5420081,,,,,,,2021-07-19,1,,,,,ライズ,0
2854,9120005022399,新規,0,2021-07-19,2021-07-19,医療法人瑞祥会,,その他の設立登記法人,大阪府,大阪市城東区,関目３丁目１２番３１号,,27,118,5360008,,,,,,,2021-07-19,1,,,,,スイショウカイ,0
2857,9120101063999,新規,0,2021-07-19,2021-07-19,大吉エステート株式会社,,株式会社,大阪府,岸和田市,藤井町２丁目１番２－３０１号,,27,202,5960046,,,,,,,2021-07-19,1,,,,,ダイキチエステート,0
2864,9120105009420,新規,0,2021-07-19,2021-07-19,医療法人雄美会,,その他の設立登記法人,大阪府,泉佐野市,りんくう往来北１番地りんくうパピリオ東棟,,27,213,5980048,,,,,,,2021-07-19,1,,,,,ユウミカイ,0
2872,9120905006204,新規,0,2021-07-19,2021-07-19,医療法人やまざわ歯科クリニック,,その他の設立登記法人,大阪府,豊中市,西泉丘３丁目２番２１号チャームスウィート緑地公園１Ｆ,,27,203,5610862,,,,,,,2021-07-19,1,,,,,ヤマザワシカクリニック,0
2874,9122003002135,新規,0,2021-07-19,2021-07-19,合同会社満月,,合同会社,大阪府,東大阪市,荒本新町２－１６,,27,227,5770022,,,,,,,2021-07-19,1,,,,,マンゲツ,0
2881,9130005016227,新規,0,2021-07-19,2021-07-19,医療法人川村歯科医院,,その他の設立登記法人,京都府,京都市中京区,烏丸通夷川上る少将井町２２２番地シカタオンズビルディング２０１号,,26,104,6040862,,,,,,,2021-07-19,1,,,,,カワムラシカイイン,0
2888,9140001122309,新規,0,2021-07-19,2021-07-19,株式会社だいじ,,株式会社,兵庫県,姫路市,飾磨区加茂１９８番地１－３１４,,28,201,6728074,,,,,,,2021-07-19,1,,,,,ダイジ,0
2889,9140001122317,新規,0,2021-07-19,2021-07-19,株式会社ミチスジ,,株式会社,兵庫県,神戸市中央区,中山手通１丁目２２－２３藤正ファインクラフト２０３,,28,110,6500004,,,,,,,2021-07-19,1,,,,,ミチスジ,0
2890,9140001122341,新規,0,2021-07-19,2021-07-19,株式会社エービーエヌアセット,,株式会社,兵庫県,西宮市,神楽町１０番２７号,,28,204,6620977,,,,,,,2021-07-19,1,,,,,エービーエヌアセット,0
2892,9140003016533,新規,0,2021-07-19,2021-07-19,ＳＯＮ合同会社,,合同会社,兵庫県,尼崎市,神田中通３丁目８０－１０１号室,,28,202,6600884,,,,,,,2021-07-19,1,,,,,ソン,0
2893,9140003016541,新規,0,2021-07-19,2021-07-19,合同会社ｅｎ,,合同会社,兵庫県,丹波市,山南町北太田２４６番地,,28,223,6693105,,,,,,,2021-07-19,1,,,,,エン,0
2897,9140005025747,新規,0,2021-07-19,2021-07-19,特定非営利活動法人あんじゅうサポートクラブ,,その他の設立登記法人,兵庫県,西宮市,大畑町３番１７号１階,,28,204,6620836,,,,,,,2021-07-19,1,,,,,アンジュウサポートクラブ,0
2899,9160003002333,新規,0,2021-07-19,2021-07-19,ＫＡＭＯ合同会社,,合同会社,滋賀県,東近江市,青葉町１番３３号,,25,213,5270039,,,,,,,2021-07-19,1,,,,,,0
2902,9170001016680,新規,0,2021-07-19,2021-07-19,株式会社Ｊ－ＢＲＩＤＧＥ,,株式会社,和歌山県,和歌山市,本町４丁目３２番地,,30,201,6408033,,,,,,,2021-07-19,1,,,,,ジェイブリッジ,0
2912,9180001146964,新規,0,2021-07-19,2021-07-19,株式会社アポロプロジェクト,,株式会社,愛知県,名古屋市瑞穂区,白羽根町２丁目４２－５,,23,108,4670014,,,,,,,2021-07-19,1,,,,,アポロプロジェクト,0
2924,9230005009154,新規,0,2021-07-19,2021-07-19,行政書士法人朝風のドア,,その他の設立登記法人,富山県,富山市,本郷町１３０番地１１,,16,201,9398045,,,,,,,2021-07-19,1,,,,,アサカゼノドア,0
2929,9240005015242,新規,0,2021-07-19,2021-07-19,Ａ・Ｉ税理士法人,,その他の設立登記法人,広島県,広島市中区,上八丁堀４番２８号松田ハイツ２０４号,,34,101,7300012,,,,,,,2021-07-19,1,,,,,アイ,0
2934,9290001093898,新規,0,2021-07-19,2021-07-19,株式会社Ａｒｅａ．Ｍｓ,,株式会社,福岡県,春日市,塚原台２丁目１番１号メゾネットＭ２－１０３号,,40,218,8160841,,,,,,,2021-07-19,1,,,,,エリアエムズ,0
2935,9290001093907,新規,0,2021-07-19,2021-07-19,株式会社ＥＮＥＸコンサルティング,,株式会社,福岡県,福岡市博多区,博多駅前３丁目２７番２２号ガーデン博多駅前ビル７階,,40,132,8120011,,,,,,,2021-07-19,1,,,,,エネックスコンサルティング,0
2936,9290001093972,新規,0,2021-07-19,2021-07-19,鎌田商運株式会社,,株式会社,福岡県,嘉麻市,漆生８９３－１,,40,227,8200201,,,,,,,2021-07-19,1,,,,,カマダショウウン,0
2938,9290003011420,新規,0,2021-07-19,2021-07-19,Ｂｅｌｉｅｆステーション合同会社,,合同会社,福岡県,福岡市東区,水谷３丁目２７番２８号,,40,131,8130041,,,,,,,2021-07-19,1,,,,,ビリーフステーション,0
2939,9290003011429,新規,0,2021-07-19,2021-07-19,合同会社Ｒｅｍｉｎｅ,,合同会社,福岡県,福岡市博多区,奈良屋町１４番２０号ベスト大博ビル６０２,,40,132,8120023,,,,,,,2021-07-19,1,,,,,リマイン,0
2941,9290801027642,新規,0,2021-07-19,2021-07-19,株式会社ＭＳＮ,,株式会社,福岡県,北九州市小倉北区,中島１丁目１２番７号,,40,106,8020076,,,,,,,2021-07-19,1,,,,,エムエスエヌ,0
2942,9290801027650,新規,0,2021-07-19,2021-07-19,株式会社Ｃ・Ｓ,,株式会社,福岡県,北九州市小倉北区,赤坂２丁目１８番４５－２０６号,,40,106,8020032,,,,,,,2021-07-19,1,,,,,シーエス,0
2950,9330001028809,新規,0,2021-07-19,2021-07-19,株式会社Ｋ－Ｆａｃｔｏｒｙ,,株式会社,熊本県,菊池郡菊陽町,新山３丁目１５番２５号,,43,404,8691109,,,,,,,2021-07-19,1,,,,,ケイファクトリー,0
2951,9330001028817,新規,0,2021-07-19,2021-07-19,株式会社ＳＵＮＮＥＸＴ,,株式会社,熊本県,玉名市,岱明町野口１４番地１,,43,206,8690222,,,,,,,2021-07-19,1,,,,,サンネクスト,0
2956,9340001023949,新規,0,2021-07-19,2021-07-19,フクモト産業株式会社,,株式会社,鹿児島県,鹿児島市,武１丁目１９番２５号１階,,46,201,8900045,,,,,,,2021-07-19,1,,,,,フクモトサンギョウ,0
2960,9360003011297,新規,0,2021-07-19,2021-07-19,合同会社ＨＡＰＰＹ　ＰＬＡＣＥ,,合同会社,沖縄県,南城市,佐敷字佐敷西上原１３３７番５,,47,215,9011403,,,,,,,2021-07-19,1,,,,,,0
2979,9420001017513,新規,0,2021-07-19,2021-07-19,株式会社イロドリファーマ,,株式会社,青森県,むつ市,横迎町２丁目１番８号,,02,208,0350033,,,,,,,2021-07-19,1,,,,,イロドリファーマ,0
2987,9470003001997,新規,0,2021-07-19,2021-07-19,アウル合同会社,,合同会社,香川県,高松市,浜ノ町７３番９－８０２号,,37,201,7600011,,,,,,,2021-07-19,1,,,,,アウル,0
2989,9480003001690,新規,0,2021-07-19,2021-07-19,合同会社ハミノル,,合同会社,徳島県,徳島市,下助任町２丁目１２番地,,36,201,7700805,,,,,,,2021-07-19,1,,,,,ハミノル,0
2993,9500001023569,新規,0,2021-07-19,2021-07-19,株式会社中野工業,,株式会社,愛媛県,新居浜市,上原１丁目３番１０号ハッピー上原タウン２０３号,,38,205,7920046,,,,,,,2021-07-19,1,,,,,ナカノコウギョウ,0
