sequenceNumber,corporateNumber,process,correct,updateDate,changeDate,name,nameImageId,kind,prefectureName,cityName,streetNumber,addressImageId,prefectureCode,cityCode,postCode,addressOutside,addressOutsideImageId,closeDate,closeCause,successorCorporateNumber,changeCause,assignmentDate,latest,enName,enPrefectureName,enCityName,enAddressOutside,furigana,hihyoji
6,1010001259261,新規,0,2025-10-09,2025-10-09,株式会社栄光興産,,株式会社,東京都,中央区,銀座６丁目２番７号,,13,102,1040061,,,,,,,2025-10-09,1,,,,,エイコウコウサン,0
7,1010001259303,新規,0,2025-10-09,2025-10-09,株式会社ちるか,,株式会社,東京都,中央区,日本橋室町１丁目１１番１２日本橋水野ビル７階,,13,102,1030022,,,,,,,2025-10-09,1,,,,,チルカ,0
9,1010003048951,新規,0,2025-10-09,2025-10-09,合同会社Ｆｌｏｏ,,合同会社,東京都,中央区,勝どき４丁目６－１－２８２５,,13,102,1040054,,,,,,,2025-10-09,1,,,,,,0
10,1010003048984,新規,0,2025-10-09,2025-10-09,ＧｌｏｂａｌＴｒａｄｅ合同会社,,合同会社,東京都,中央区,銀座１丁目１２番４号Ｎ＆ＥＢＬＤ．６階,,13,102,1040061,,,,,,,2025-10-09,1,,,,,グローバルトレード,0
20,1010401193515,新規,0,2025-10-09,2025-10-09,株式会社六泉,,株式会社,東京都,港区,赤坂２丁目１０番７－７０５号,,13,103,1070052,,,,,,,2025-10-09,1,,,,,ロクセン,0
21,1010401193746,新規,0,2025-10-09,2025-10-09,株式会社ロンジェビティケア,,株式会社,東京都,港区,東麻布２丁目１５番５号アルカディア東麻布２０２,,13,103,1060044,,,,,,,2025-10-09,1,,,,,ロンジェビティケア,0
24,1010403036192,新規,0,2025-10-09,2025-10-09,合同会社Ｗ,,合同会社,東京都,港区,赤坂６丁目３番１５号Ｊ－ＡＫＡＳＡＫＡ７０３,,13,103,1070052,,,,,,,2025-10-09,1,,,,,ダブリュー,0
34,1010601068104,新規,0,2025-10-09,2025-10-09,株式会社ＲＥＴＶＯＳ,,株式会社,東京都,墨田区,東向島３丁目３０－３－１Ｆ,,13,107,1310032,,,,,,,2025-10-09,1,,,,,レトヴォス,0
36,1010701048451,新規,0,2025-10-09,2025-10-09,株式会社リンク,,株式会社,東京都,品川区,北品川１丁目２３番１６号ＮｅｏＴｏｋｙｏＡｎｎｅｘ,,13,109,1400001,,,,,,,2025-10-09,1,,,,,,0
37,1010801036678,新規,0,2025-10-09,2025-10-09,ＢＯＲＤＥＲＬＥＳＳ株式会社,,株式会社,東京都,大田区,西蒲田７丁目４２番７号ＳＰＡＣＥ・ＫＵＲＯ１０１号,,13,111,1440051,,,,,,,2025-10-09,1,,,,,ボーダレス,0
38,1010801036686,新規,0,2025-10-09,2025-10-09,株式会社Ｊｏｌｌｙ　Ｂｅｅ,,株式会社,東京都,大田区,蒲田５丁目４５－５ドミール蒲田５０８,,13,111,1440052,,,,,,,2025-10-09,1,,,,,ジョリービー,0
41,1010901058201,新規,0,2025-10-09,2025-10-09,月兎ホールディングス株式会社,,株式会社,東京都,世田谷区,中町２丁目１２－１３タナカビル４０２,,13,112,1580091,,,,,,,2025-10-09,1,,,,,ゲットホールディングス,0
42,1010901058226,新規,0,2025-10-09,2025-10-09,リファインドコンサルティング株式会社,,株式会社,東京都,世田谷区,粕谷３丁目１８番２号,,13,112,1570063,,,,,,,2025-10-09,1,,,,,リファインドコンサルティング,0
47,1011001172611,新規,0,2025-10-09,2025-10-09,株式会社ＪＧＩＳ,,株式会社,東京都,渋谷区,千駄ヶ谷１丁目２０番１８号,,13,113,1510051,,,,,,,2025-10-09,1,,,,,ジェージーアイエス,0
48,1011001172660,新規,0,2025-10-09,2025-10-09,株式会社Ｉｍｐｅｒｉｕｍ　Ｂｌａｎｃ,,株式会社,東京都,渋谷区,恵比寿２丁目１４番６－４０５号,,13,113,1500013,,,,,,,2025-10-09,1,,,,,インペリウムブラン,0
49,1011001172743,新規,0,2025-10-09,2025-10-09,令和ダイニング株式会社,,株式会社,東京都,渋谷区,代々木２丁目１０番１２号ＪＡ東京南新宿ビル８階,,13,113,1510053,,,,,,,2025-10-09,1,,,,,レイワダイニング,0
51,1011003022599,新規,0,2025-10-09,2025-10-09,合同会社一丸,,合同会社,東京都,目黒区,東山１丁目１７番２号キャッスル東山４０４,,13,110,1530043,,,,,,,2025-10-09,1,,,,,イチマル,0
52,1011003022608,新規,0,2025-10-09,2025-10-09,合同会社ＮＯＤＥＳ,,合同会社,東京都,渋谷区,道玄坂１丁目１０番８号渋谷道玄坂東急ビル２Ｆ－Ｃ,,13,113,1500043,,,,,,,2025-10-09,1,,,,,ノーズ,0
53,1011003022616,新規,0,2025-10-09,2025-10-09,合同会社１０６．ｉｎｋ,,合同会社,東京都,目黒区,上目黒４丁目１７番１３号ソレイユ祐天寺２０１,,13,110,1530051,,,,,,,2025-10-09,1,,,,,イチゼロロクインク,0
57,1011103016419,新規,0,2025-10-09,2025-10-09,ＭＩＯ合同会社,,合同会社,東京都,新宿区,西新宿３丁目３番１３号西新宿水間ビル２Ｆ,,13,104,1600023,,,,,,,2025-10-09,1,,,,,エムアイオー,0
58,1011103016518,新規,0,2025-10-09,2025-10-09,Ｓａｉｌ　Ｐａｒｔｎｅｒｓ合同会社,,合同会社,東京都,新宿区,西新宿５丁目８－２惠徳ビル９１１号室,,13,104,1600023,,,,,,,2025-10-09,1,,,,,セイルパートナーズ,0
64,1011301030948,新規,0,2025-10-09,2025-10-09,Ｕｎｏｂｕｙ株式会社,,株式会社,東京都,杉並区,下井草２丁目７－１７－２０３,,13,115,1670022,,,,,,,2025-10-09,1,,,,,ウノバイ,0
67,1011501032661,新規,0,2025-10-09,2025-10-09,Ｓ＆Ｃｏ．株式会社,,株式会社,東京都,北区,滝野川２丁目５番１０－６０５号,,13,117,1140023,,,,,,,2025-10-09,1,,,,,エスアンドコー,0
72,1011601029038,新規,0,2025-10-09,2025-10-09,株式会社ミライラボ,,株式会社,東京都,練馬区,西大泉２丁目１－１３,,13,120,1780065,,,,,,,2025-10-09,1,,,,,ミライラボ,0
73,1011601029054,新規,0,2025-10-09,2025-10-09,小馬過海株式会社,,株式会社,東京都,練馬区,春日町６丁目１６番１１号２８１号室,,13,120,1790074,,,,,,,2025-10-09,1,,,,,コウマカカイ,0
79,1011705001917,新規,0,2025-10-09,2025-10-09,特定非営利活動法人Ｄｏ　Ｓｉｎ,,その他の設立登記法人,東京都,江戸川区,清新町２丁目８番４－１０４号,,13,123,1340087,,,,,,,2025-10-09,1,,,,,ドウシン,0
83,1011801046865,新規,0,2025-10-09,2025-10-09,ＴＥＮ　ｌｉｆｅ　ｓｕｐｐｏｒｔ株式会社,,株式会社,東京都,足立区,保木間１丁目５番１２－８０４号,,13,121,1210064,,,,,,,2025-10-09,1,,,,,テンライフサポート,0
84,1011801046898,新規,0,2025-10-09,2025-10-09,株式会社Ｓｔａｒｌｉｔ　Ｓｕｎ,,株式会社,東京都,足立区,皿沼２丁目１３番２号,,13,121,1230862,,,,,,,2025-10-09,1,,,,,スターリットサン,0
85,1011801046907,新規,0,2025-10-09,2025-10-09,株式会社宗神主,,株式会社,東京都,葛飾区,亀有４丁目３番３号,,13,122,1250061,,,,,,,2025-10-09,1,,,,,ソシジ,0
88,1012401043682,新規,0,2025-10-09,2025-10-09,株式会社ＷＡＲＡＫＵ,,株式会社,東京都,小金井市,中町３丁目２２－１０小金井中町マンション５１０号,,13,210,1840012,,,,,,,2025-10-09,1,,,,,ワラク,0
89,1012401043690,新規,0,2025-10-09,2025-10-09,北中庭店株式会社,,株式会社,東京都,三鷹市,大沢６丁目１０番２号,,13,204,1810015,,,,,,,2025-10-09,1,,,,,キタナカニワテン,0
90,1012401043699,新規,0,2025-10-09,2025-10-09,株式会社御廟管理,,株式会社,東京都,調布市,調布ケ丘２丁目２１番地５,,13,208,1820021,,,,,,,2025-10-09,1,,,,,ゴビョウカンリ,0
93,1012403007388,新規,0,2025-10-09,2025-10-09,合同会社ｂｅｙｏｎｄ　ｈｅａｌｔｈ　ｃｕｒｅ,,合同会社,東京都,府中市,晴見町１丁目２４番地の２４,,13,206,1830057,,,,,,,2025-10-09,1,,,,,ビヨンドヘルスキュア,0
104,1020001164948,新規,0,2025-10-09,2025-10-09,星鴻株式会社,,株式会社,神奈川県,川崎市多摩区,登戸７９６大伸参番館２０７室,,14,135,2140014,,,,,,,2025-10-09,1,,,,,セイコウ,0
105,1020001165129,新規,0,2025-10-09,2025-10-09,株式会社ＳＥＥＤＳ　ＯＦ,,株式会社,神奈川県,横浜市神奈川区,青木町５番地６平和ビル７０１号,,14,102,2210057,,,,,,,2025-10-09,1,,,,,シーズオブ,0
106,1020001165178,新規,0,2025-10-09,2025-10-09,株式会社ウィークワンス,,株式会社,神奈川県,横浜市港北区,小机町１１６６番地９,,14,109,2220036,,,,,,,2025-10-09,1,,,,,ウィークワンス,0
107,1020001165186,新規,0,2025-10-09,2025-10-09,ｇｒｏｕｎｄ　Ａ株式会社,,株式会社,神奈川県,横浜市鶴見区,馬場２丁目１番１－８０６号,,14,101,2300076,,,,,,,2025-10-09,1,,,,,グランドエー,0
108,1020001165244,新規,0,2025-10-09,2025-10-09,株式会社ＳＷＡＹ,,株式会社,神奈川県,横浜市中区,石川町１丁目１９番地７平野ビル３０１,,14,104,2310868,,,,,,,2025-10-09,1,,,,,スウェイ,0
110,1020003029463,新規,0,2025-10-09,2025-10-09,ＡＳＳＩＳＴ神奈川合同会社,,合同会社,神奈川県,横浜市旭区,さちが丘１８９番地５パトレーゼさちが丘３０５,,14,112,2410822,,,,,,,2025-10-09,1,,,,,アシストカナガワ,0
111,1020003029471,新規,0,2025-10-09,2025-10-09,合同会社アセットマネジメント高田,,合同会社,神奈川県,横浜市神奈川区,金港町５―１４クアドリフォリオ８階,,14,102,2210056,,,,,,,2025-10-09,1,,,,,アセットマネジメントタカタ,0
112,1020003029562,新規,0,2025-10-09,2025-10-09,合同会社Ｌｉｂｅｒ,,合同会社,神奈川県,川崎市多摩区,生田１丁目１９－１６－３０３号,,14,135,2140038,,,,,,,2025-10-09,1,,,,,リベル,0
119,1021001086422,新規,0,2025-10-09,2025-10-09,株式会社アロハピース,,株式会社,神奈川県,横須賀市,舟倉１丁目１３－８,,14,201,2390805,,,,,,,2025-10-09,1,,,,,アロハピース,0
120,1021001086579,新規,0,2025-10-09,2025-10-09,株式会社ＹＵＴＯＲＩＥ,,株式会社,神奈川県,相模原市中央区,相模原２丁目１３番１４号小津ビル２階,,14,152,2520231,,,,,,,2025-10-09,1,,,,,ユトリエ,0
127,1030001168857,新規,0,2025-10-09,2025-10-09,株式会社慈鼎商事,,株式会社,埼玉県,さいたま市大宮区,三橋２丁目５３９番地３,,11,103,3300856,,,,,,,2025-10-09,1,,,,,ジテイショウジ,0
128,1030001169104,新規,0,2025-10-09,2025-10-09,株式会社トウマ,,株式会社,埼玉県,春日部市,増富５４４番地,,11,214,3440041,,,,,,,2025-10-09,1,,,,,トウマ,0
129,1030001169129,新規,0,2025-10-09,2025-10-09,イッシンキャピタルソリューションズ株式会社,,株式会社,埼玉県,加須市,北小浜３０２番地４,,11,210,3470011,,,,,,,2025-10-09,1,,,,,イッシンキャピタルソリューションズ,0
130,1030001169153,新規,0,2025-10-09,2025-10-09,株式会社ダンドリデザイン,,株式会社,埼玉県,さいたま市大宮区,桜木町２丁目３番地大宮マルイ７階,,11,103,3300854,,,,,,,2025-10-09,1,,,,,ダンドリデザイン,0
131,1030001169161,新規,0,2025-10-09,2025-10-09,ＰＩＰＡ　Ｒａｉｎｂｏｗ　Ｉｎｔｅｒｎａｔｉｏｎａｌ株式会社,,株式会社,埼玉県,久喜市,鷲宮中央２丁目３番３９号,,11,232,3400216,,,,,,,2025-10-09,1,,,,,ピパレンボーインターナショナル,0
138,1040001140807,新規,0,2025-10-09,2025-10-09,株式会社ノブレ,,株式会社,千葉県,成田市,南羽鳥１４５１,,12,211,2860805,,,,,,,2025-10-09,1,,,,,ノブレ,0
139,1040003028728,新規,0,2025-10-09,2025-10-09,合同会社ラム,,合同会社,千葉県,野田市,清水公園東１丁目２９番地の１８,,12,208,2780047,,,,,,,2025-10-09,1,,,,,ラム,0
140,1040003028736,新規,0,2025-10-09,2025-10-09,高島博信合同会社,00141032,合同会社,千葉県,市川市,曽谷４丁目７番７号,,12,203,2720832,,,,,,,2025-10-09,1,,,,,タカシマヒロノブ,0
148,1060001038669,新規,0,2025-10-09,2025-10-09,ＢＤ　ＳＯＵＷＡ株式会社,,株式会社,栃木県,小山市,城東７丁目１６番２６号アーバンハイツ青空１０３号室,,09,208,3230807,,,,,,,2025-10-09,1,,,,,ビーデーソウワ,0
149,1060005010384,新規,0,2025-10-09,2025-10-09,医療法人ふらてクリニック,,その他の設立登記法人,栃木県,真岡市,寺久保１丁目３番地２,,09,209,3214368,,,,,,,2025-10-09,1,,,,,フラテクリニック,0
157,1070003006144,新規,0,2025-10-09,2025-10-09,Ｊａｐａｎ　Ｃａｒ　Ｔｒａｄｉｎｇ合同会社,,合同会社,群馬県,桐生市,宮本町４丁目９番３８号,,10,203,3760056,,,,,,,2025-10-09,1,,,,,,0
160,1080001027208,新規,0,2025-10-09,2025-10-09,株式会社Ｎｅｗ　Ｖｉｌｌａｇｅ,,株式会社,静岡県,焼津市,岡当目４００番地の１,,22,212,4250013,,,,,,,2025-10-09,1,,,,,ニューヴィレッジ,0
164,1080401028210,新規,0,2025-10-09,2025-10-09,ＡＮｄ　ｍｕｎｉ株式会社,,株式会社,静岡県,浜松市中央区,鍛冶町１００番地の１ザザシティ浜松中央館Ｂ１Ｆ、ＦＵＳＥ内,,22,138,4300933,,,,,,,2025-10-09,1,,,,,アンドムニ,0
166,1080403005364,新規,0,2025-10-09,2025-10-09,ＩＫＵＭＡ　Ｌｉｎｋ＆Ｃｏｎｎｅｃｔ合同会社,,合同会社,静岡県,磐田市,大久保５４８番地１,,22,211,4380002,,,,,,,2025-10-09,1,,,,,イクマリンクアンドコネクト,0
167,1080405007771,新規,0,2025-10-09,2025-10-09,一般社団法人地域政策研究機構,,その他の設立登記法人,静岡県,浜松市中央区,名塚町１３４番地の１,00141039,22,138,4320000,,,,,,,2025-10-09,1,,,,,チイキセイサクケンキュウキコウ,0
173,1100003008418,新規,0,2025-10-09,2025-10-09,Ｈ．ｃｏｍｐａｎｙ合同会社,,合同会社,長野県,上田市,住吉２９００番地１グランドゥールＢ２０２,,20,203,3860002,,,,,,,2025-10-09,1,,,,,エイチカンパニー,0
191,1120001280512,新規,0,2025-10-09,2025-10-09,株式会社ふくふく,,株式会社,大阪府,門真市,下馬伏町８番１号,,27,223,5710009,,,,,,,2025-10-09,1,,,,,フクフク,0
192,1120001280669,新規,0,2025-10-09,2025-10-09,株式会社ＡＢＯサポート,,株式会社,大阪府,大阪市城東区,古市２丁目２番２４号,,27,118,5360001,,,,,,,2025-10-09,1,,,,,アボサポート,0
193,1120001280941,新規,0,2025-10-09,2025-10-09,天有株式会社,,株式会社,大阪府,大阪市東住吉区,中野４丁目１番１６号リベラルオリエンテ中野４０６Ａ,,27,121,5460012,,,,,,,2025-10-09,1,,,,,テンユウ,0
200,1120003030873,新規,0,2025-10-09,2025-10-09,駿義合同会社,,合同会社,大阪府,大阪市住吉区,長居東４丁目１５－２１ビラ長居１０１Ａ,,27,120,5580004,,,,,,,2025-10-09,1,,,,,シュンギ,0
201,1120101072545,新規,0,2025-10-09,2025-10-09,株式会社ストラテジック,,株式会社,大阪府,泉南市,樽井７丁目２８番２６号,,27,228,5900521,,,,,,,2025-10-09,1,,,,,ストラテジック,0
202,1120101072553,新規,0,2025-10-09,2025-10-09,株式会社ＴｒｕｓｔＴｒｉｂｅ,,株式会社,大阪府,高石市,東羽衣５丁目３番３６号,,27,225,5920003,,,,,,,2025-10-09,1,,,,,トラストトライブ,0
206,1122003003339,新規,0,2025-10-09,2025-10-09,ＴＨＡＮＨ　ＨＯＡ合同会社,,合同会社,大阪府,東大阪市,荒川３丁目１５－２６センチュリーシティ荒川１０３,,27,227,5770843,,,,,,,2025-10-09,1,,,,,タンホア,0
208,1130001080738,新規,0,2025-10-09,2025-10-09,株式会社ディライツホールディングス,,株式会社,京都府,京都市左京区,岩倉中町２４３番地３,,26,103,6060025,,,,,,,2025-10-09,1,,,,,ディライツホールディングス,0
213,1140001140210,新規,0,2025-10-09,2025-10-09,ミコノス株式会社,,株式会社,兵庫県,西宮市,甲陽園西山町２－２２－１,,28,204,6620017,,,,,,,2025-10-09,1,,,,,ミコノス,0
214,1140001140292,新規,0,2025-10-09,2025-10-09,ＨＫＹ株式会社,,株式会社,兵庫県,三木市,志染町三津田２６番地の１,,28,215,6730515,,,,,,,2025-10-09,1,,,,,エイチケーワイ,0
219,1140003022670,新規,0,2025-10-09,2025-10-09,合同会社Ｍ’ｓ　Ｌ’ＡＶＥＮＩＲ,,合同会社,兵庫県,神戸市東灘区,御影石町２丁目１番１５号,,28,101,6580045,,,,,,,2025-10-09,1,,,,,エムズラヴニール,0
220,1140003022687,新規,0,2025-10-09,2025-10-09,ＡＡＭＡ．ＮＰＪＰ合同会社,,合同会社,兵庫県,神戸市兵庫区,水木通３丁目３番１８号,,28,105,6520802,,,,,,,2025-10-09,1,,,,,アマドットエヌピジェピィ,0
221,1140003022720,新規,0,2025-10-09,2025-10-09,泉ビジネス合同会社,,合同会社,兵庫県,川西市,鼓が滝１丁目２６番１７号,,28,217,6660123,,,,,,,2025-10-09,1,,,,,イズミビジネス,0
223,1140005027651,新規,0,2025-10-09,2025-10-09,メラプティ協同組合,,その他の設立登記法人,兵庫県,西宮市,東町１丁目２－３,,28,204,6620922,,,,,,,2025-10-09,1,,,,,メラプティ,0
229,1180001168941,新規,0,2025-10-09,2025-10-09,株式会社輪九,,株式会社,愛知県,名古屋市港区,秋葉２丁目３７番地の３,,23,111,4550857,,,,,,,2025-10-09,1,,,,,リンク,0
230,1180001168990,新規,0,2025-10-09,2025-10-09,福Ｌｉｎｋ株式会社,,株式会社,愛知県,名古屋市天白区,島田２丁目３０１番地（島田橋住宅１棟８０８号）,,23,116,4680056,,,,,,,2025-10-09,1,,,,,フクリンク,0
233,1180003029118,新規,0,2025-10-09,2025-10-09,ＮＳＨ　ＩＮＴＥＲＮＡＴＩＯＮＡＬ合同会社,,合同会社,愛知県,名古屋市西区,枇杷島４丁目１２番１０号羽根柳マンション３０２,,23,104,4510053,,,,,,,2025-10-09,1,,,,,エヌエスエイチインターナショナル,0
243,1200001044322,新規,0,2025-10-09,2025-10-09,株式会社ＴＫ,,株式会社,岐阜県,可児市,菅刈１３７３番地１グランディーハイツ西可児７０１,,21,214,5090262,,,,,,,2025-10-09,1,,,,,ティーケイ,0
244,1200001044330,新規,0,2025-10-09,2025-10-09,ＤＨＩＬＬＯ　ＥＮＴＥＲＰＲＩＳＥ株式会社,,株式会社,岐阜県,美濃加茂市,田島町３丁目１番１０号,,21,211,5050032,,,,,,,2025-10-09,1,,,,,ディロエンタープライズ,0
248,1200003007087,新規,0,2025-10-09,2025-10-09,合同会社細江四郎左衛門商店,,合同会社,岐阜県,下呂市,金山町中津原１５８番地１,,21,220,5091613,,,,,,,2025-10-09,1,,,,,ホソエシロウザエモンショウテン,0
249,1200003007095,新規,0,2025-10-09,2025-10-09,合同会社明櫻ＤＣ,,合同会社,岐阜県,関市,武芸川町宇多院２９８番地,,21,205,5012607,,,,,,,2025-10-09,1,,,,,メイオウディーシー,0
252,1220001026962,新規,0,2025-10-09,2025-10-09,株式会社ＣＳＳ,,株式会社,石川県,金沢市,桜田町２丁目２０番地２,,17,201,9200057,,,,,,,2025-10-09,1,,,,,,0
253,1220005009006,新規,0,2025-10-09,2025-10-09,一般社団法人スパイラルオブライフｗｉｔｈ能登,,その他の設立登記法人,石川県,珠洲市,若山町洲巻ホの部４番地,,17,205,9271316,,,,,,,2025-10-09,1,,,,,スパイラルオブライフウィズノト,0
255,1230001021129,新規,0,2025-10-09,2025-10-09,株式会社インテリアあゆみ,,株式会社,富山県,砺波市,宮沢町２番２１号,,16,208,9391388,,,,,,,2025-10-09,1,,,,,インテリアアユミ,0
257,1240001065612,新規,0,2025-10-09,2025-10-09,ＪＣ．ＴＥＣＨ株式会社,,株式会社,広島県,広島市安佐北区,倉掛２丁目２９番２０号,,34,106,7391743,,,,,,,2025-10-09,1,,,,,ジェイシーテック,0
268,1290001111618,新規,0,2025-10-09,2025-10-09,ＭｅＬｉｋｅ　Ｃｏｍｐａｎｙ株式会社,,株式会社,福岡県,福岡市中央区,天神２丁目２番１２Ｔ＆Ｊビルディング７Ｆ,,40,133,8100001,,,,,,,2025-10-09,1,,,,,ミーライクカンパニー,0
269,1290001111626,新規,0,2025-10-09,2025-10-09,株式会社梁興,,株式会社,福岡県,福岡市中央区,港１丁目２番１８－２８０６号,,40,133,8100075,,,,,,,2025-10-09,1,,,,,リョウコウ,0
270,1290001111758,新規,0,2025-10-09,2025-10-09,株式会社ＨＹＬＥＲ,,株式会社,福岡県,久留米市,中央町２１番地２,,40,203,8300023,,,,,,,2025-10-09,1,,,,,ハイラー,0
276,1290801031932,新規,0,2025-10-09,2025-10-09,株式会社Ｘｃｅｅｄ　Ｄｅｓｉｇｎ　Ｇａｒａｇｅ,,株式会社,福岡県,北九州市小倉北区,魚町３丁目３番１０－１００３号,,40,106,8020006,,,,,,,2025-10-09,1,,,,,エクシードデザインガレージ,0
277,1290801031940,新規,0,2025-10-09,2025-10-09,ＫＣＭ株式会社,,株式会社,福岡県,北九州市小倉北区,片野２丁目１０番１７号,,40,106,8020064,,,,,,,2025-10-09,1,,,,,ケーシーエム,0
291,1330003011258,新規,0,2025-10-09,2025-10-09,ＪＰＥ合同会社,,合同会社,熊本県,合志市,幾久富字池尻１８３３番３６,,43,216,8611112,,,,,,,2025-10-09,1,,,,,ジェイピーイー,0
296,1370001053133,新規,0,2025-10-09,2025-10-09,株式会社ＨＵＧ‐ＢＡＳＥ,,株式会社,宮城県,岩沼市,あさひ野２丁目３番地の２,,04,211,9892478,,,,,,,2025-10-09,1,,,,,ハグベース,0
300,1380001035626,新規,0,2025-10-09,2025-10-09,Ｌｉｂｒａ株式会社,,株式会社,福島県,福島市,南矢野目字三角田８番地,,07,201,9600112,,,,,,,2025-10-09,1,,,,,リブラ,0
301,1400001017191,新規,0,2025-10-09,2025-10-09,株式会社Ａｒｔｓ,,株式会社,岩手県,盛岡市,本宮３丁目１１番１１号,,03,201,0200866,,,,,,,2025-10-09,1,,,,,アーツ,0
307,1460103001749,新規,0,2025-10-09,2025-10-09,ガンケビール合同会社,,合同会社,北海道,上川郡新得町,字屈足西１線４９－４,,01,635,0810154,,,,,,,2025-10-09,1,,,,,ガンケビール,0
310,1470003002994,新規,0,2025-10-09,2025-10-09,合同会社ひだまり,,合同会社,香川県,綾歌郡綾川町,陶７３７５－３,,37,387,7612103,,,,,,,2025-10-09,1,,,,,,0
311,1480001012978,新規,0,2025-10-09,2025-10-09,株式会社ＴＳＵＤＡ電気,,株式会社,徳島県,徳島市,南昭和町５丁目９８番地の６浜の前マンション２０３号室,,36,201,7700944,,,,,,,2025-10-09,1,,,,,ツダデンキ,0
312,1480003002333,新規,0,2025-10-09,2025-10-09,合同会社ワッカベース,,合同会社,徳島県,美馬市,脇町大字猪尻字西分３０番地,,36,207,7793602,,,,,,,2025-10-09,1,,,,,ワッカベース,0
313,1490001011178,新規,0,2025-10-09,2025-10-09,株式会社高知ＤＥ起業,,株式会社,高知県,高知市,帯屋町１丁目６－１２境ビル３Ｆ,,39,201,7800841,,,,,,,2025-10-09,1,,,,,コウチデキギョウ,0
323,2010001258964,新規,0,2025-10-09,2025-10-09,Ｒｅｄ　Ｄｉａｍｏｎｄ　Ｃｏｎｓｕｌｔｉｎｇ株式会社,,株式会社,東京都,千代田区,五番町１２番地７－２０４３,,13,101,1020076,,,,,,,2025-10-09,1,,,,,,0
324,2010001259310,新規,0,2025-10-09,2025-10-09,株式会社ＢＬＥＳＳＯＲＩＡ,,株式会社,東京都,中央区,銀座６丁目１４－８銀座石井ビル４Ｆ,,13,102,1040061,,,,,,,2025-10-09,1,,,,,ブレッソリア,0
328,2010003049024,新規,0,2025-10-09,2025-10-09,合同会社日本ＡＩコンテンツ管理機構,,合同会社,東京都,千代田区,神田錦町３丁目７番２号,,13,101,1010054,,,,,,,2025-10-09,1,,,,,ニホンエイアイコンテンツカンリキコウ,0
331,2010101016900,新規,0,2025-10-09,2025-10-09,株式会社ＣＲＡＦＴ　Ｉ,,株式会社,東京都,八王子市,大和田町２丁目５番１８号,,13,201,1920045,,,,,,,2025-10-09,1,,,,,クラフトアイ,0
338,2010401193555,新規,0,2025-10-09,2025-10-09,株式会社はじめ,,株式会社,東京都,港区,三田２丁目１２番８号シャローム三田１０１,,13,103,1080073,,,,,,,2025-10-09,1,,,,,ハジメ,0
339,2010401193720,新規,0,2025-10-09,2025-10-09,サツマパートナーズ株式会社,,株式会社,東京都,港区,麻布十番１丁目２番７号ラフィネ麻布十番７０１号室,,13,103,1060045,,,,,,,2025-10-09,1,,,,,サツマパートナーズ,0
340,2010403036126,新規,0,2025-10-09,2025-10-09,ＴＯＲＩ　Ｓｔｕｄｉｏ合同会社,,合同会社,東京都,港区,浜松町２丁目７番１７号イーグル浜松町天翔オフィス浜松町大門１０階１０４６号室,,13,103,1050013,,,,,,,2025-10-09,1,,,,,トリスタジオ,0
341,2010403036191,新規,0,2025-10-09,2025-10-09,合同会社Ｓｔａｎｄｅｌｌａ,,合同会社,東京都,港区,北青山１丁目３－３三橋ビル３階,,13,103,1070061,,,,,,,2025-10-09,1,,,,,スタンデラ,0
342,2010403036209,新規,0,2025-10-09,2025-10-09,合同会社保房コーポレーション,,合同会社,東京都,港区,南青山７丁目１番２１－５１１号,,13,103,1070062,,,,,,,2025-10-09,1,,,,,ホボウコーポレーション,0
344,2010405024871,新規,0,2025-10-09,2025-10-09,アラスカ特定目的会社,,その他の設立登記法人,東京都,港区,六本木１丁目６番１号泉ガーデンタワー,,13,103,1060032,,,,,,,2025-10-09,1,,,,,アラスカ,0
345,2010601068037,新規,0,2025-10-09,2025-10-09,ＨＯＮ株式会社,,株式会社,東京都,江東区,辰巳１丁目６番１７－９０４号,,13,108,1350053,,,,,,,2025-10-09,1,,,,,エイチオーエヌ,0
346,2010601068103,新規,0,2025-10-09,2025-10-09,株式会社ミラクル,,株式会社,東京都,墨田区,石原４丁目３１番９号,,13,107,1300011,,,,,,,2025-10-09,1,,,,,ミラクル,0
353,2010901058233,新規,0,2025-10-09,2025-10-09,松村総合マネジメント株式会社,,株式会社,東京都,世田谷区,喜多見８丁目４番３２号,,13,112,1570067,,,,,,,2025-10-09,1,,,,,マツムラソウゴウマネジメント,0
356,2010903010316,新規,0,2025-10-09,2025-10-09,合同会社オフィスたっち,,合同会社,東京都,世田谷区,松原２丁目３５番１号,,13,112,1560043,,,,,,,2025-10-09,1,,,,,オフィスタッチ,0
362,2011001172742,新規,0,2025-10-09,2025-10-09,日本旺莱山株式会社,,株式会社,東京都,渋谷区,代々木５丁目６３番１３号,,13,113,1510053,,,,,,,2025-10-09,1,,,,,ニホンワンライサン,0
363,2011001172965,新規,0,2025-10-09,2025-10-09,株式会社プレシアラ,,株式会社,東京都,目黒区,下目黒１丁目１番１４号コノトラビル７Ｆ,,13,110,1530064,,,,,,,2025-10-09,1,,,,,プレシアラ,0
364,2011001173039,新規,0,2025-10-09,2025-10-09,株式会社民部田ホールディングス,,株式会社,東京都,渋谷区,渋谷３丁目２番３号帝都青山ビル５階,,13,113,1500002,,,,,,,2025-10-09,1,,,,,ミンブタホールディングス,0
369,2011003022557,新規,0,2025-10-09,2025-10-09,合同会社ＮＥＸＳＴＯＲＹ,,合同会社,東京都,渋谷区,宇田川町３７－１１－４０８,,13,113,1500042,,,,,,,2025-10-09,1,,,,,ネクストリ,0
370,2011003022598,新規,0,2025-10-09,2025-10-09,合同会社Ｔｒｉｍｅ,,合同会社,東京都,渋谷区,恵比寿４丁目２８番２－５０３号,,13,113,1500013,,,,,,,2025-10-09,1,,,,,ティーライム,0
371,2011003022607,新規,0,2025-10-09,2025-10-09,ＤｅｖＲｅｖ　Ｊａｐａｎ合同会社,,合同会社,東京都,渋谷区,渋谷２丁目２４番１２号,,13,113,1500002,,,,,,,2025-10-09,1,,,,,デブレブジャパン,0
372,2011003022747,新規,0,2025-10-09,2025-10-09,合同会社ＭＩＮＴＡＫ,,合同会社,東京都,渋谷区,広尾１丁目２番地１号ヒカリビル４階,,13,113,1500012,,,,,,,2025-10-09,1,,,,,ミンタク,0
378,2011105011607,新規,0,2025-10-09,2025-10-09,一般社団法人プレカリ被害者の会,,その他の設立登記法人,東京都,新宿区,歌舞伎町１丁目１番１６号,,13,104,1600021,,,,,,,2025-10-09,1,,,,,プレカリヒガイシャノカイ,0
388,2011501032660,新規,0,2025-10-09,2025-10-09,株式会社丸和コーポレーション,,株式会社,東京都,北区,西ケ原２丁目８番１－３０７号,,13,117,1140024,,,,,,,2025-10-09,1,,,,,マルワコーポレーション,0
389,2011501032669,新規,0,2025-10-09,2025-10-09,株式会社Ａ．プラマー,,株式会社,東京都,北区,神谷３丁目４８番１３号コーポラス神谷ＩＩ－１０１号,00141031,13,117,1150043,,,,,,,2025-10-09,1,,,,,エープラマー,0
391,2011503006720,新規,0,2025-10-09,2025-10-09,合同会社Ｓｉｎｂａ,,合同会社,東京都,北区,赤羽南１丁目７番３号正一ビル２階,,13,117,1150044,,,,,,,2025-10-09,1,,,,,シンバ,0
393,2011601029061,新規,0,2025-10-09,2025-10-09,株式会社夏の空,,株式会社,東京都,練馬区,田柄５丁目１４番１２号,,13,120,1790073,,,,,,,2025-10-09,1,,,,,ナツノソラ,0
394,2011605002675,新規,0,2025-10-09,2025-10-09,医療法人社団翔陽会,,その他の設立登記法人,東京都,練馬区,谷原６丁目９番８号,,13,120,1770032,,,,,,,2025-10-09,1,,,,,ショウヨウカイ,0
398,2012403007387,新規,0,2025-10-09,2025-10-09,合同会社ワンズベスト,,合同会社,東京都,三鷹市,大沢１丁目３番１２号,,13,204,1810015,,,,,,,2025-10-09,1,,,,,ワンズベスト,0
399,2012801024298,新規,0,2025-10-09,2025-10-09,ＡＰメンテナンス株式会社,,株式会社,東京都,立川市,砂川町８丁目１０番地の２７,,13,202,1900031,,,,,,,2025-10-09,1,,,,,エーピーメンテナンス,0
400,2012805003372,新規,0,2025-10-09,2025-10-09,一般社団法人テクノピア,,その他の設立登記法人,東京都,昭島市,田中町３丁目５番２１－１０６号,,13,207,1960014,,,,,,,2025-10-09,1,,,,,テクノピア,0
401,2013101009832,新規,0,2025-10-09,2025-10-09,株式会社ＲＥＶ．ＫＲＡＦＴＳ,,株式会社,東京都,あきる野市,草花６９４番地１８,,13,228,1970802,,,,,,,2025-10-09,1,,,,,リヴクラフツ,0
409,2020001164963,新規,0,2025-10-09,2025-10-09,Ｓｈｏｂｕ株式会社,,株式会社,神奈川県,横浜市中区,本牧原３番１－６０５号,,14,104,2310821,,,,,,,2025-10-09,1,,,,,ショーブ,0
410,2020001165086,新規,0,2025-10-09,2025-10-09,株式会社ＭＹ企画,,株式会社,神奈川県,横浜市西区,北幸２丁目１０番４８号,,14,103,2200004,,,,,,,2025-10-09,1,,,,,エムワイキカク,0
411,2020001165193,新規,0,2025-10-09,2025-10-09,株式会社ＭＹＬＯＧ,,株式会社,神奈川県,横浜市緑区,台村町６９９番地プランドールＢ２０２,,14,113,2260014,,,,,,,2025-10-09,1,,,,,マイログ,0
412,2020001165219,新規,0,2025-10-09,2025-10-09,株式会社大角,,株式会社,神奈川県,横浜市戸塚区,南舞岡１丁目２４番２４号,,14,110,2440814,,,,,,,2025-10-09,1,,,,,オオスミ,0
413,2020001165251,新規,0,2025-10-09,2025-10-09,株式会社都南電業,,株式会社,神奈川県,横浜市保土ケ谷区,狩場町２９３番地１１５,,14,106,2400025,,,,,,,2025-10-09,1,,,,,トナンデンギョウ,0
420,2021003016649,新規,0,2025-10-09,2025-10-09,合同会社コンペイトウ,,合同会社,神奈川県,大和市,下鶴間２７７１番地７８,,14,213,2420001,,,,,,,2025-10-09,1,,,,,コンペイトウ,0
426,2030001088303,新規,0,2025-10-09,2025-10-09,株式会社御宿ゴルフ倶楽部,,株式会社,埼玉県,深谷市,本田６４２２番地,,11,218,3691105,,,,,,,2025-10-09,1,,,,,オンジュクゴルフクラブ,0
429,2030001169160,新規,0,2025-10-09,2025-10-09,リアライズ株式会社,,株式会社,埼玉県,さいたま市岩槻区,美園東１丁目１８番地１２,,11,110,3390028,,,,,,,2025-10-09,1,,,,,リアライズ,0
433,2030003027705,新規,0,2025-10-09,2025-10-09,崇徳商事合同会社,,合同会社,埼玉県,熊谷市,桜木町２丁目５シティホームズ桜木町２０５,,11,202,3600036,,,,,,,2025-10-09,1,,,,,スウトクショウジ,0
434,2030003027804,新規,0,2025-10-09,2025-10-09,マヒン合同会社,,合同会社,埼玉県,さいたま市岩槻区,城南２丁目４番１１－１号,,11,110,3390043,,,,,,,2025-10-09,1,,,,,マヒン,0
435,2030003027837,新規,0,2025-10-09,2025-10-09,ＭＡＶＥＲＩＣＫ　ＳＰＡＤＥ　ＭＯＴＯＲＳ合同会社,,合同会社,埼玉県,北本市,本宿６丁目３番地７,,11,233,3640005,,,,,,,2025-10-09,1,,,,,マベリックスペードモータース,0
441,2040001140698,新規,0,2025-10-09,2025-10-09,株式会社仲蔵,,株式会社,千葉県,流山市,駒木台４１０－２９,,12,220,2700113,,,,,,,2025-10-09,1,,,,,ナカゾウ,0
442,2040001140896,新規,0,2025-10-09,2025-10-09,株式会社フライズｍｋシステム,,株式会社,千葉県,柏市,柏４丁目２番１号,,12,217,2770005,,,,,,,2025-10-09,1,,,,,フライズエムケーシステム,0
443,2040001140921,新規,0,2025-10-09,2025-10-09,株式会社ＫＩＮＧ　ＴＯＹＫＡ,,株式会社,千葉県,柏市,柏６丁目４番２４号柏ビルディング三階コルメ柏Ｍルーム,,12,217,2770005,,,,,,,2025-10-09,1,,,,,キングトイカ,0
448,2040003028603,新規,0,2025-10-09,2025-10-09,星海食品合同会社,,合同会社,千葉県,成田市,十余三３０－４３,,12,211,2860101,,,,,,,2025-10-09,1,,,,,ホシウミショクヒン,0
449,2040003028669,新規,0,2025-10-09,2025-10-09,合同会社ムーンポート,,合同会社,千葉県,浦安市,高洲５丁目１番Ｆ１０４号,,12,227,2790023,,,,,,,2025-10-09,1,,,,,ムーンポート,0
450,2040003028768,新規,0,2025-10-09,2025-10-09,合同会社ｉｒｏｐｌｕｓ,,合同会社,千葉県,香取市,福田１３１－６,,12,236,2870024,,,,,,,2025-10-09,1,,,,,イロプラス,0
451,2040005022884,新規,0,2025-10-09,2025-10-09,一般社団法人チャレンジスクール,,その他の設立登記法人,千葉県,旭市,鎌数４３８７番地９,,12,215,2892505,,,,,,,2025-10-09,1,,,,,チャレンジスクール,0
456,2050003009676,新規,0,2025-10-09,2025-10-09,合同会社パーチェ,,合同会社,茨城県,つくば市,島名４４３６番地（香取台Ｂ５７街区１）ガレリアヴェール１３０２号,,08,220,3002655,,,,,,,2025-10-09,1,,,,,パーチェ,0
457,2050003009692,新規,0,2025-10-09,2025-10-09,合同会社ＩＧＮＩＴＥ　ＡＧＥＮＴ,,合同会社,茨城県,龍ケ崎市,中根台４丁目１５番地１４,,08,208,3010002,,,,,,,2025-10-09,1,,,,,イグナイトエージェント,0
460,2080101025837,新規,0,2025-10-09,2025-10-09,株式会社大川屋,,株式会社,静岡県,賀茂郡河津町,谷津３０３番地の３,,22,302,4130515,,,,,,,2025-10-09,1,,,,,オオカワヤ,0
461,2080401028218,新規,0,2025-10-09,2025-10-09,株式会社そら不動産,,株式会社,静岡県,磐田市,大泉町２９―９,,22,211,4380044,,,,,,,2025-10-09,1,,,,,ソラフドウサン,0
465,2080405007770,新規,0,2025-10-09,2025-10-09,医療法人社団杤久保,,その他の設立登記法人,静岡県,浜松市中央区,有玉南町１４９５番地の１,,22,138,4313122,,,,,,,2025-10-09,1,,,,,トチクボ,0
470,2100003008409,新規,0,2025-10-09,2025-10-09,合同会社田村商店,,合同会社,長野県,佐久市,三塚２２４番地１３,,20,217,3850055,,,,,,,2025-10-09,1,,,,,タムラショウテン,0
482,2120001280552,新規,0,2025-10-09,2025-10-09,卓信電子網絡科技株式会社,,株式会社,大阪府,大阪市東住吉区,中野４丁目１番１６号リベラルオリエンテ中野３０１Ａ,,27,121,5460012,,,,,,,2025-10-09,1,,,,,タクシンデンシオウラクカギ,0
483,2120001280692,新規,0,2025-10-09,2025-10-09,株式会社のぼるみらい,,株式会社,大阪府,大阪市鶴見区,横堤５丁目１番４号,,27,124,5380052,,,,,,,2025-10-09,1,,,,,ノボルミライ,0
486,2120101072552,新規,0,2025-10-09,2025-10-09,槿禾文化株式会社,,株式会社,大阪府,高石市,綾園１丁目１１番２４－２０６号,,27,225,5920014,,,,,,,2025-10-09,1,,,,,キンカブンカ,0
487,2120101072560,新規,0,2025-10-09,2025-10-09,東建築株式会社,,株式会社,大阪府,堺市南区,高尾１丁３５８番地１,,27,145,5900157,,,,,,,2025-10-09,1,,,,,アズマケンチク,0
488,2120101072593,新規,0,2025-10-09,2025-10-09,株式会社ＶｉＶｉ,,株式会社,大阪府,堺市堺区,南三国ヶ丘町１丁２番２２号,,27,141,5900023,,,,,,,2025-10-09,1,,,,,ビビ,0
489,2120101072619,新規,0,2025-10-09,2025-10-09,株式会社ＪＫ　ＧＲＯＵＰＳ,,株式会社,大阪府,南河内郡河南町,大字東山８０４,,27,382,5850001,,,,,,,2025-10-09,1,,,,,ジェイケーグループス,0
490,2120103006780,新規,0,2025-10-09,2025-10-09,合同会社Ｒ３,,合同会社,大阪府,松原市,高見の里５丁目５０７番地の１（１－１１１号）,,27,217,5800021,,,,,,,2025-10-09,1,,,,,アールスリー,0
494,2120903005866,新規,0,2025-10-09,2025-10-09,合同会社Ｕｒａｒｉｅ,,合同会社,大阪府,吹田市,円山町５０番１８号,,27,205,5640061,,,,,,,2025-10-09,1,,,,,ウラリエ,0
495,2120903005874,新規,0,2025-10-09,2025-10-09,合同会社ＲＡＤ　Ｌｉｆｅ,,合同会社,大阪府,吹田市,桃山台１丁目１番５－１０７号,,27,205,5650854,,,,,,,2025-10-09,1,,,,,ラッドライフ,0
505,2140001140283,新規,0,2025-10-09,2025-10-09,株式会社Ｉｎｃｒｅａｓｅｄ　Ｆａｒｍ,,株式会社,兵庫県,神戸市垂水区,名谷町１５７９番地,,28,108,6550852,,,,,,,2025-10-09,1,,,,,インクリーストファーム,0
508,2140003022703,新規,0,2025-10-09,2025-10-09,ＣｏｏＷｏｒｋｓ合同会社,,合同会社,兵庫県,神戸市中央区,磯辺通１丁目１番１８号カサベラ国際プラザビル７０７号室,,28,110,6510084,,,,,,,2025-10-09,1,,,,,クーワークス,0
509,2140005027659,新規,0,2025-10-09,2025-10-09,一般社団法人神龍,,その他の設立登記法人,兵庫県,神戸市灘区,八幡町１丁目９番７号,,28,102,6570051,,,,,,,2025-10-09,1,,,,,ジンリュウ,0
515,2160003003627,新規,0,2025-10-09,2025-10-09,合同会社ｌｉｖｅ　ｉｎ　ｅａｒｔｈ,,合同会社,滋賀県,大津市,仰木の里東１丁目８番１５号,,25,201,5200248,,,,,,,2025-10-09,1,,,,,リブインアース,0
517,2170003002314,新規,0,2025-10-09,2025-10-09,合同会社ＨＩＲＯ,,合同会社,和歌山県,和歌山市,新生町２－５第１クラウンハイツ２０２号室,,30,201,6408325,,,,,,,2025-10-09,1,,,,,ヒロ,0
523,2180001169014,新規,0,2025-10-09,2025-10-09,株式会社ソラエ,,株式会社,愛知県,小牧市,大字岩崎２０７７番地７,,23,219,4850011,,,,,,,2025-10-09,1,,,,,ソラエ,0
524,2180002078197,新規,0,2025-10-09,2025-10-09,有限会社桑政毛織,,有限会社,愛知県,一宮市,篭屋２丁目６番４０号,,23,203,4940002,,,,,,,2025-10-09,1,,,,,クワマサケオリ,0
525,2180003029109,新規,0,2025-10-09,2025-10-09,ＮＯＯＲ　ＴＲＡＤＩＮＧ合同会社,,合同会社,愛知県,一宮市,大和町毛受字辻畑３８番地,,23,203,4910932,,,,,,,2025-10-09,1,,,,,ノオルトレーディング,0
526,2180003029117,新規,0,2025-10-09,2025-10-09,Ａ　Ｊ　ＧＬＯＢＡＬ　ＴＲＡＤＩＮＧ合同会社,,合同会社,愛知県,瀬戸市,東本町１丁目６１番地,,23,204,4890816,,,,,,,2025-10-09,1,,,,,エージェイグローバルトレーディング,0
527,2180003029232,新規,0,2025-10-09,2025-10-09,合同会社ＹＵＺＵ,,合同会社,愛知県,瀬戸市,松原町３丁目２６３番地,,23,204,4890985,,,,,,,2025-10-09,1,,,,,ユズ,0
531,2190001032600,新規,0,2025-10-09,2025-10-09,株式会社Ｔｓｕｎａｇａｒｉ．ｌａｂ,,株式会社,三重県,津市,野田２１番地５７,,24,201,5140826,,,,,,,2025-10-09,1,,,,,ツナガリラボ,0
538,2200001044321,新規,0,2025-10-09,2025-10-09,Ａｌ　Ｍｕｒｅｅｄ　Ｔｒａｄｉｎｇ株式会社,,株式会社,岐阜県,可児郡御嵩町,上恵土５５６番地１,,21,521,5050126,,,,,,,2025-10-09,1,,,,,アルムリードトレーディング,0
541,2200003007094,新規,0,2025-10-09,2025-10-09,絆合同会社,,合同会社,岐阜県,下呂市,湯之島８６７番地３－２Ｆ,,21,220,5092207,,,,,,,2025-10-09,1,,,,,キズナ,0
544,2210001020338,新規,0,2025-10-09,2025-10-09,株式会社キタジマホールディングス,,株式会社,福井県,福井市,高木中央２丁目３２１４番地,,18,201,9100804,,,,,,,2025-10-09,1,,,,,キタジマホールディングス,0
545,2210003001963,新規,0,2025-10-09,2025-10-09,合同会社ｍｉｌｋ１０４,,合同会社,福井県,福井市,三郎丸２丁目３０７番地,,18,201,9100033,,,,,,,2025-10-09,1,,,,,ミルクテンシ,0
551,2260001040637,新規,0,2025-10-09,2025-10-09,株式会社ＭＵＳＡＳＨＩ,,株式会社,岡山県,倉敷市,平田９４３－２,,33,202,7100003,,,,,,,2025-10-09,1,,,,,ムサシ,0
555,2270001009301,新規,0,2025-10-09,2025-10-09,桜ｆｕｎｓ株式会社,,株式会社,鳥取県,境港市,中野町５００６番地,,31,204,6840041,,,,,,,2025-10-09,1,,,,,サクラファンズ,0
560,2290001111583,新規,0,2025-10-09,2025-10-09,日本宏景株式会社,,株式会社,福岡県,福岡市中央区,薬院４丁目１８番１５－９０１号,,40,133,8100022,,,,,,,2025-10-09,1,,,,,ニホンコウケイ,0
561,2290001111617,新規,0,2025-10-09,2025-10-09,泰柳堂株式会社,00141028,株式会社,福岡県,福岡市中央区,笹丘３丁目２６番４号,,40,133,8100034,,,,,,,2025-10-09,1,,,,,ホウリュウドウ,0
566,2290003017523,新規,0,2025-10-09,2025-10-09,合同会社ＳＵＮＥＸＴ,,合同会社,福岡県,福岡市南区,塩原３丁目１４－２３デイブレス大橋１０２,,40,134,8150032,,,,,,,2025-10-09,1,,,,,サンネクスト,0
571,2330001033641,新規,0,2025-10-09,2025-10-09,株式会社エコフォレスタ小国,,株式会社,熊本県,阿蘇郡小国町,大字宮原１８０２番地の１,,43,424,8692501,,,,,,,2025-10-09,1,,,,,エコフォレスタオグニ,0
578,2350005006336,新規,0,2025-10-09,2025-10-09,特定非営利活動法人九州自然歩道みやざきハイキングクラブ,,その他の設立登記法人,宮崎県,東諸県郡綾町,大字入野３９７５番地,,45,383,8801301,,,,,,,2025-10-09,1,,,,,キュウシュウシゼンホドウミヤザキハイキングクラブ,0
587,2370001053124,新規,0,2025-10-09,2025-10-09,株式会社Ｔｗｏ　Ｌｉｇｈｔ,,株式会社,宮城県,仙台市若林区,古城３丁目１１番８－３号,,04,103,9840825,,,,,,,2025-10-09,1,,,,,トゥーライト,0
589,2370003007326,新規,0,2025-10-09,2025-10-09,Ｌｉｎｋｔｏｎｅ合同会社,,合同会社,宮城県,仙台市太白区,長町２丁目６番４７－４０２号,,04,104,9820011,,,,,,,2025-10-09,1,,,,,リンクトーン,0
598,2410003004161,新規,0,2025-10-09,2025-10-09,合同会社ＣＳＩ,,合同会社,秋田県,横手市,平城町１１番２６号ビュープラザ平城Ｄ－３,,05,203,0130027,,,,,,,2025-10-09,1,,,,,シーエスアイ,0
603,2430001095390,新規,0,2025-10-09,2025-10-09,Ｌ．Ｋ株式会社,,株式会社,北海道,札幌市清田区,平岡二条３丁目６番５１号,,01,110,0040872,,,,,,,2025-10-09,1,,,,,エルドッドケー,0
605,2430003018151,新規,0,2025-10-09,2025-10-09,小樽思源民泊合同会社,,合同会社,北海道,小樽市,最上２丁目２１番１４号,,01,203,0470023,,,,,,,2025-10-09,1,,,,,オタルシゲンミンパク,0
607,2450001014753,新規,0,2025-10-09,2025-10-09,ジェネシスクラス株式会社,,株式会社,北海道,旭川市,豊岡四条８丁目２番１号,,01,204,0788234,,,,,,,2025-10-09,1,,,,,ジェネシスクラス,0
609,2460103001748,新規,0,2025-10-09,2025-10-09,合同会社ライフケアねっと,,合同会社,北海道,上川郡清水町,字清水基線４８番地２４,,01,636,0890103,,,,,,,2025-10-09,1,,,,,ライフケアネット,0
615,2480001012977,新規,0,2025-10-09,2025-10-09,いろはに工務店株式会社,,株式会社,徳島県,徳島市,吉野本町６丁目６３番地の８,,36,201,7700802,,,,,,,2025-10-09,1,,,,,イロハニコウムテン,0
638,3010001258922,新規,0,2025-10-09,2025-10-09,株式会社Ｇ＆Ｓコンサルティング,,株式会社,東京都,中央区,日本橋室町３丁目４番７号,,13,102,1030022,,,,,,,2025-10-09,1,,,,,ジーアンドエスコンサルティング,0
639,3010001259219,新規,0,2025-10-09,2025-10-09,株式会社ＨＫ　Ｖｏｙａｇｅ,,株式会社,東京都,千代田区,神田和泉町１番地６－１６ヤマトビル４０５,,13,101,1010024,,,,,,,2025-10-09,1,,,,,エイチケーボヤージュ,0
653,3010401193414,新規,0,2025-10-09,2025-10-09,株式会社エテルナグロー,,株式会社,東京都,港区,南青山３丁目１番３６号青山丸竹ビル６Ｆ,,13,103,1070062,,,,,,,2025-10-09,1,,,,,エテルナグロー,0
654,3010401193629,新規,0,2025-10-09,2025-10-09,Ｎｏｖａｔｒａ株式会社,,株式会社,東京都,港区,南青山３丁目１番３６号青山丸竹ビル６Ｆ,,13,103,1070062,,,,,,,2025-10-09,1,,,,,ノヴァトラ,0
656,3010403036208,新規,0,2025-10-09,2025-10-09,サンテ合同会社,,合同会社,東京都,港区,港南２丁目１６番１号品川イーストワンタワー４Ｆ,,13,103,1080075,,,,,,,2025-10-09,1,,,,,サンテ,0
674,3010901058232,新規,0,2025-10-09,2025-10-09,株式会社ハイファイブ,,株式会社,東京都,世田谷区,中町５丁目９番３号,,13,112,1580091,,,,,,,2025-10-09,1,,,,,ハイファイブ,0
676,3011001172254,新規,0,2025-10-09,2025-10-09,株式会社ＲＦコーポレーション,,株式会社,東京都,渋谷区,千駄ヶ谷５丁目１６－２エルスタンザ代々木３０６,,13,113,1510051,,,,,,,2025-10-09,1,,,,,アールエフコーポレーション,0
677,3011001172568,新規,0,2025-10-09,2025-10-09,株式会社一石百鳥,,株式会社,東京都,渋谷区,東２丁目２０番２号三和ビル２０２,,13,113,1500011,,,,,,,2025-10-09,1,,,,,イッセキヒャクチョウ,0
678,3011001172650,新規,0,2025-10-09,2025-10-09,株式会社ＳｉｌｖｅｒＷａｖｅ　Ｄｉｇｉｔａｌ,,株式会社,東京都,目黒区,青葉台２丁目２１番１３－２０５号,,13,110,1530042,,,,,,,2025-10-09,1,,,,,シルバーウェーブデジタル,0
679,3011001172659,新規,0,2025-10-09,2025-10-09,Ｍｕｒａｖｅ株式会社,,株式会社,東京都,渋谷区,渋谷２丁目５番１２号アトラス青山レジデンシャル８０４,,13,113,1500002,,,,,,,2025-10-09,1,,,,,ムラーヴ,0
680,3011001172691,新規,0,2025-10-09,2025-10-09,株式会社ＩＫＥＤＡ　Ｎｅｘｕｓ,,株式会社,東京都,渋谷区,恵比寿西１丁目２９番５号カプリ代官山２０３,,13,113,1500021,,,,,,,2025-10-09,1,,,,,イケダネクサス,0
681,3011001172717,新規,0,2025-10-09,2025-10-09,株式会社ダイヤ,,株式会社,東京都,目黒区,目黒本町６丁目１３番５号,,13,110,1520002,,,,,,,2025-10-09,1,,,,,ダイヤ,0
682,3011001172733,新規,0,2025-10-09,2025-10-09,ラーテルキャリア株式会社,,株式会社,東京都,目黒区,碑文谷４丁目１４－９Ｗｏｏｄｓ碑文谷Ｃ号室,,13,110,1520003,,,,,,,2025-10-09,1,,,,,ラーテルキャリア,0
683,3011001172980,新規,0,2025-10-09,2025-10-09,株式会社ＷＩＮＤ　ＤＵＳＴ,,株式会社,東京都,渋谷区,道玄坂１丁目１０番８号渋谷道玄坂東急ビル２Ｆ－Ｃ,,13,113,1500043,,,,,,,2025-10-09,1,,,,,ウィンダスト,0
684,3011003022556,新規,0,2025-10-09,2025-10-09,合同会社アルファ,,合同会社,東京都,渋谷区,道玄坂１丁目１０番８号渋谷道玄坂東急ビル２Ｆ―Ｃ,,13,113,1500043,,,,,,,2025-10-09,1,,,,,アルファ,0
685,3011003022614,新規,0,2025-10-09,2025-10-09,合同会社ＴＳ　Ｃａｐｉｔａｌ,,合同会社,東京都,渋谷区,初台１丁目２番５－７０１号,,13,113,1510061,,,,,,,2025-10-09,1,,,,,ティーエスキャピタル,0
686,3011101113488,新規,0,2025-10-09,2025-10-09,ワークスキャリア株式会社,,株式会社,東京都,新宿区,西新宿３丁目２番７号ＫＤＸ新宿ビル,,13,104,1600023,,,,,,,2025-10-09,1,,,,,ワークスキャリア,0
695,3011601029052,新規,0,2025-10-09,2025-10-09,株式会社ＭＭＣ,,株式会社,東京都,練馬区,光が丘３丁目９番１－４０２号室,,13,120,1790072,,,,,,,2025-10-09,1,,,,,エムエムシー,0
696,3011601029060,新規,0,2025-10-09,2025-10-09,Ｇｒａｎｄ　Ｖｉｓｉｏｎ株式会社,,株式会社,東京都,練馬区,南大泉５丁目３８番９号ツインリーフ南大泉２０８号室,,13,120,1780064,,,,,,,2025-10-09,1,,,,,グランドビジョン,0
700,3011701028805,新規,0,2025-10-09,2025-10-09,ＺＥＮＺＨＩ株式会社,,株式会社,東京都,江戸川区,松江２丁目２９番２１号,,13,123,1320025,,,,,,,2025-10-09,1,,,,,ゼンジ,0
703,3011803007137,新規,0,2025-10-09,2025-10-09,合同会社うすざわ接骨院,,合同会社,東京都,葛飾区,西水元５丁目１３番３号,,13,122,1250031,,,,,,,2025-10-09,1,,,,,ウスザワセッコツイン,0
705,3012401043689,新規,0,2025-10-09,2025-10-09,株式会社シュガーエイト,,株式会社,東京都,調布市,小島町１丁目３４番地２１三笠ビル３Ｆ,,13,208,1820026,,,,,,,2025-10-09,1,,,,,シュガーエイト,0
707,3012403007386,新規,0,2025-10-09,2025-10-09,ＦｏｒｔｕｎｅＮｅｓｔ合同会社,,合同会社,東京都,稲城市,長峰３丁目２番地杜の一番街２－１１０５,,13,225,2060821,,,,,,,2025-10-09,1,,,,,フォーチュンネスト,0
710,3012701019117,新規,0,2025-10-09,2025-10-09,株式会社Ｔ‐ＮＥＴ,,株式会社,東京都,小平市,上水本町３丁目４番２５号,,13,211,1870022,,,,,,,2025-10-09,1,,,,,ティーネット,0
711,3012801024297,新規,0,2025-10-09,2025-10-09,株式会社ＮＭ　Ｃｏｍｐａｎｙ,,株式会社,東京都,立川市,柴崎町３丁目７－１７,,13,202,1900023,,,,,,,2025-10-09,1,,,,,エヌエムカンパニー,0
712,3013101009831,新規,0,2025-10-09,2025-10-09,株式会社ＧＯＬＤサービス,,株式会社,東京都,福生市,大字熊川２２１番地４,,13,218,1970003,,,,,,,2025-10-09,1,,,,,ゴールドサービス,0
723,3020001165052,新規,0,2025-10-09,2025-10-09,株式会社ＪＯＩＥ,,株式会社,神奈川県,川崎市幸区,新小倉２番７－８２７号,,14,132,2120031,,,,,,,2025-10-09,1,,,,,ジョワ,0
724,3020001165192,新規,0,2025-10-09,2025-10-09,株式会社ＣＲＤ,,株式会社,神奈川県,横浜市西区,みなとみらい２丁目２番１号横浜ランドマークプラザ５Ｆ,,14,103,2200012,,,,,,,2025-10-09,1,,,,,シーアールディー,0
725,3020001165234,新規,0,2025-10-09,2025-10-09,株式会社長澤設備,,株式会社,神奈川県,横浜市金沢区,釜利谷西１丁目４９番９号,,14,108,2360046,,,,,,,2025-10-09,1,,,,,ナガサワセツビ,0
726,3020001165291,新規,0,2025-10-09,2025-10-09,ｓｏｌｅｉｌ　ｐｒｏｔｅｃｔ株式会社,,株式会社,神奈川県,川崎市川崎区,駅前本町１１番地２川崎フロンティアビル４階,,14,131,2100007,,,,,,,2025-10-09,1,,,,,ソレイユプロテクト,0
727,3020001165333,新規,0,2025-10-09,2025-10-09,株式会社ＯＲＣＡ　ＪＡＰＡＮ,,株式会社,神奈川県,横浜市神奈川区,鶴屋町２丁目１０番地１ＭＩＮＤＡＮＢＬＤＧ．４Ｆ,,14,102,2210835,,,,,,,2025-10-09,1,,,,,オルカジャパン,0
736,3021001086379,新規,0,2025-10-09,2025-10-09,小森田株式会社,,株式会社,神奈川県,相模原市南区,新磯野２丁目１－５東成ビル２０２号室,,14,153,2520325,,,,,,,2025-10-09,1,,,,,コモリダ,0
737,3021001086544,新規,0,2025-10-09,2025-10-09,株式会社ナシカ,,株式会社,神奈川県,鎌倉市,材木座３丁目１６番３１－２号,,14,204,2480013,,,,,,,2025-10-09,1,,,,,ナシカ,0
745,3030001169028,新規,0,2025-10-09,2025-10-09,株式会社エレガンス・エッジ,,株式会社,埼玉県,春日部市,南４丁目６番１８号,,11,214,3440064,,,,,,,2025-10-09,1,,,,,エレガンスエッジ,0
746,3030001169102,新規,0,2025-10-09,2025-10-09,エフミールデザイン株式会社,,株式会社,埼玉県,春日部市,大畑字前２１７－１Ｈｏｂｂｙ００２,,11,214,3440022,,,,,,,2025-10-09,1,,,,,エフミールデザイン,0
747,3030001169119,新規,0,2025-10-09,2025-10-09,株式会社ＳＡＭＩ　ＴＲＡＤＩＮＧ,,株式会社,埼玉県,春日部市,牛島１４３５番地,,11,214,3440004,,,,,,,2025-10-09,1,,,,,サミトレーディング,0
748,3030001169135,新規,0,2025-10-09,2025-10-09,株式会社Ｋａｎｎａｒｙ　Ｇｌｏｂａｌ　Ｐａｒｔｓ,,株式会社,埼玉県,川越市,大字上戸１０８番地１４,,11,201,3500816,,,,,,,2025-10-09,1,,,,,カンナリーグローバルパーツ,0
749,3030001169143,新規,0,2025-10-09,2025-10-09,株式会社ＡＬＶＡＮ,,株式会社,埼玉県,新座市,石神３丁目１６番３５号三榮マンション１０１号室,,11,230,3520033,,,,,,,2025-10-09,1,,,,,アルヴァン,0
755,3030003027803,新規,0,2025-10-09,2025-10-09,デマンドサプライ合同会社,,合同会社,埼玉県,さいたま市岩槻区,大字小溝９７番地１１８,,11,110,3390003,,,,,,,2025-10-09,1,,,,,デマンドサプライ,0
761,3040001140755,新規,0,2025-10-09,2025-10-09,株式会社Ｉｓｌａｎｄ　ｄｏｏｒ,,株式会社,千葉県,千葉市花見川区,畑町２１４９番地８,,12,102,2620018,,,,,,,2025-10-09,1,,,,,アイランドドア,0
762,3040001140796,新規,0,2025-10-09,2025-10-09,株式会社ＴＳＵＭＥ,,株式会社,千葉県,柏市,柏２丁目９番１３号,,12,217,2770005,,,,,,,2025-10-09,1,,,,,ツメ,0
763,3040001140854,新規,0,2025-10-09,2025-10-09,株式会社Ｋｙグループ,,株式会社,千葉県,千葉市花見川区,花見川２番１２棟５０９号,,12,102,2620046,,,,,,,2025-10-09,1,,,,,ケイワイグループ,0
764,3040001140862,新規,0,2025-10-09,2025-10-09,シニアライフマネージメント株式会社,,株式会社,千葉県,千葉市中央区,大森町４４５番地３５,,12,101,2600811,,,,,,,2025-10-09,1,,,,,シニアライフマネージメント,0
768,3040003028742,新規,0,2025-10-09,2025-10-09,タニン合同会社,,合同会社,千葉県,旭市,三川１１５８１番地１,,12,215,2892714,,,,,,,2025-10-09,1,,,,,タニン,0
772,3050001057437,新規,0,2025-10-09,2025-10-09,株式会社アース,,株式会社,茨城県,下妻市,高道祖１３６６‐７２,,08,210,3040031,,,,,,,2025-10-09,1,,,,,アース,0
774,3050003009584,新規,0,2025-10-09,2025-10-09,ＳＮ　ＩＮＴＥＲＮＡＴＩＯＮＡＬ合同会社,,合同会社,茨城県,つくば市,安食９３２－３,,08,220,3004205,,,,,,,2025-10-09,1,,,,,エスエヌインターナショナル,0
775,3060001038659,新規,0,2025-10-09,2025-10-09,株式会社ＲＥＣＨ,,株式会社,栃木県,佐野市,黒袴町７９６番地１,,09,204,3270813,,,,,,,2025-10-09,1,,,,,レック,0
778,3080001027206,新規,0,2025-10-09,2025-10-09,株式会社誠洋環境,,株式会社,静岡県,静岡市清水区,村松原３丁目４番１４号,,22,103,4240934,,,,,,,2025-10-09,1,,,,,セイヨウカンキョウ,0
779,3080003003576,新規,0,2025-10-09,2025-10-09,合同会社ｎｕｒｉｄｇｅ,,合同会社,静岡県,静岡市清水区,興津中町１４４０番地,,22,103,4240204,,,,,,,2025-10-09,1,,,,,ナリッジ,0
780,3080005007732,新規,0,2025-10-09,2025-10-09,しずおか青年農業志協同組合,,その他の設立登記法人,静岡県,牧之原市,東萩間１１５番地,,22,226,4210501,,,,,,,2025-10-09,1,,,,,シズオカセイネンノウギョウシ,0
785,3080401028209,新規,0,2025-10-09,2025-10-09,株式会社Ｒｅｖｏｌｄｙ,,株式会社,静岡県,湖西市,白須賀３７８３番地の２,,22,221,4310451,,,,,,,2025-10-09,1,,,,,リボルディ,0
787,3100001039033,新規,0,2025-10-09,2025-10-09,株式会社ＡＲＴｎ,,株式会社,長野県,長野市,大字鶴賀権堂町２３１２－１Ｔｈｅｓａｕｒｕｓ,,20,201,3800833,,,,,,,2025-10-09,1,,,,,アートン,0
800,3120001280304,新規,0,2025-10-09,2025-10-09,一新株式会社,,株式会社,大阪府,大阪市東住吉区,中野４丁目１番１６号リベラルオリエンテ中野７０４Ｂ,,27,121,5460012,,,,,,,2025-10-09,1,,,,,イチシン,0
801,3120001280477,新規,0,2025-10-09,2025-10-09,株式会社きづき,,株式会社,大阪府,大阪市生野区,小路１丁目１番２８号,,27,116,5440002,,,,,,,2025-10-09,1,,,,,キヅキ,0
802,3120001280551,新規,0,2025-10-09,2025-10-09,品凡株式会社,,株式会社,大阪府,大阪市都島区,都島本通３丁目１８番４号２０８－１２号室,,27,102,5340021,,,,,,,2025-10-09,1,,,,,ヒンボン,0
803,3120001280650,新規,0,2025-10-09,2025-10-09,株式会社ＢＩＧ　ＢＡＢＹ,,株式会社,大阪府,大阪市城東区,関目１丁目１９番２８号,,27,118,5360008,,,,,,,2025-10-09,1,,,,,ビッグベイビー,0
804,3120001280675,新規,0,2025-10-09,2025-10-09,株式会社権藤基設,,株式会社,大阪府,大阪市住吉区,山之内２丁目１１番１２号,,27,120,5580023,,,,,,,2025-10-09,1,,,,,ゴンドウキセツ,0
805,3120001280989,新規,0,2025-10-09,2025-10-09,ＴＡＳ・ＯＮＥ株式会社,,株式会社,大阪府,大阪市中央区,瓦町３丁目６番５号,,27,128,5410048,,,,,,,2025-10-09,1,,,,,タスワン,0
813,3120005025192,新規,0,2025-10-09,2025-10-09,一般社団法人介護医療マネー協会,,その他の設立登記法人,大阪府,大阪市北区,梅田１丁目１－３大阪駅前第３ビル２３０７,,27,127,5300001,,,,,,,2025-10-09,1,,,,,カイゴイリョウマネーキョウカイ,0
815,3120101072551,新規,0,2025-10-09,2025-10-09,天成株式会社,,株式会社,大阪府,岸和田市,松風町２１番１９号,,27,202,5960021,,,,,,,2025-10-09,1,,,,,テンセイ,0
816,3120101072568,新規,0,2025-10-09,2025-10-09,株式会社旅客人,,株式会社,大阪府,河内長野市,緑ケ丘北町２０番１６号,,27,216,5860081,,,,,,,2025-10-09,1,,,,,リョカクジン,0
817,3120101072584,新規,0,2025-10-09,2025-10-09,株式会社エアラフ,,株式会社,大阪府,泉佐野市,羽倉崎３丁目９番１４号,,27,213,5980046,,,,,,,2025-10-09,1,,,,,エアラフ,0
818,3120101072626,新規,0,2025-10-09,2025-10-09,株式会社ルミナスサポート,,株式会社,大阪府,堺市堺区,霞ヶ丘町３丁２番２８号,,27,141,5900812,,,,,,,2025-10-09,1,,,,,ルミナスサポート,0
831,3140001140225,新規,0,2025-10-09,2025-10-09,株式会社とくはなサポート,,株式会社,兵庫県,加西市,鶉野町８３番地の４,,28,220,6752103,,,,,,,2025-10-09,1,,,,,トクハナサポート,0
832,3140001140233,新規,0,2025-10-09,2025-10-09,株式会社岩崎内装,00141025,株式会社,兵庫県,尼崎市,武庫町３丁目１８番１５－１号,,28,202,6610044,,,,,,,2025-10-09,1,,,,,イワサキナイソウ,0
839,3150001028469,新規,0,2025-10-09,2025-10-09,株式会社和結,,株式会社,奈良県,天理市,中之庄町４９３番地１,,29,204,6320001,,,,,,,2025-10-09,1,,,,,ワユウ,0
840,3160003003626,新規,0,2025-10-09,2025-10-09,アールビジネスサポート合同会社,,合同会社,滋賀県,長浜市,平方町１２５９番地,,25,203,5260033,,,,,,,2025-10-09,1,,,,,アールビジネスサポート,0
843,3170003002321,新規,0,2025-10-09,2025-10-09,合同会社陽の桜,,合同会社,和歌山県,和歌山市,桑山１２４－２３,,30,201,6400345,,,,,,,2025-10-09,1,,,,,ヒノサクラ,0
856,3180003029198,新規,0,2025-10-09,2025-10-09,合同会社ＣＭＩＴ,,合同会社,愛知県,名古屋市中村区,塩池町２丁目２－２５海老清荘１Ａ号,,23,105,4530032,,,,,,,2025-10-09,1,,,,,シーエムアイティ,0
859,3180303006756,新規,0,2025-10-09,2025-10-09,合同会社グッドオペレーション,,合同会社,愛知県,豊田市,栄町５丁目８番地２ヴィラ小林２０２号,,23,211,4710066,,,,,,,2025-10-09,1,,,,,グッドオペレーション,0
861,3190003005207,新規,0,2025-10-09,2025-10-09,合同会社ＳＥ‐Ｃｏｎｎｅｃｔ,,合同会社,三重県,津市,白山町南出６８９番地１７,,24,201,5152611,,,,,,,2025-10-09,1,,,,,エスイーコネクト,0
867,3200003007102,新規,0,2025-10-09,2025-10-09,合同会社クオリ,,合同会社,岐阜県,各務原市,東山１丁目４６番地,,21,213,5040861,,,,,,,2025-10-09,1,,,,,クオリ,0
868,3210003001962,新規,0,2025-10-09,2025-10-09,合同会社北陸特殊伐採,,合同会社,福井県,越前市,長谷町第２７号２７番地,,18,209,9150212,,,,,,,2025-10-09,1,,,,,ホクリクトクシュバッサイ,0
870,3220001026952,新規,0,2025-10-09,2025-10-09,株式会社Ｃｒａｆｔ　ｆａｃｔｏｒｙ,,株式会社,石川県,金沢市,畝田西１丁目５４番地,,17,201,9200342,,,,,,,2025-10-09,1,,,,,クラフトファクトリー,0
877,3230001021119,新規,0,2025-10-09,2025-10-09,株式会社Ｃｈｅｒ,,株式会社,富山県,小矢部市,西中１４３番地,,16,209,9320805,,,,,,,2025-10-09,1,,,,,シェアー,0
881,3260001040628,新規,0,2025-10-09,2025-10-09,株式会社おうち工房不動産,,株式会社,岡山県,倉敷市,玉島八島３２４番地６,,33,202,7138113,,,,,,,2025-10-09,1,,,,,オウチコウボウフドウサン,0
887,3290001111566,新規,0,2025-10-09,2025-10-09,株式会社Ｗｉｔｈ　Ｈｅａｒｔｓ,,株式会社,福岡県,福岡市中央区,赤坂１丁目６番２２号赤坂野田ビル４０５号,,40,133,8100042,,,,,,,2025-10-09,1,,,,,ウィズハーツ,0
888,3290001111608,新規,0,2025-10-09,2025-10-09,株式会社ミライリンクス,,株式会社,福岡県,福岡市博多区,半道橋１丁目６番２８－９０５号ＤＩＡＣＡＦＵＮＥ,,40,132,8120897,,,,,,,2025-10-09,1,,,,,ミライリンクス,0
889,3290001111616,新規,0,2025-10-09,2025-10-09,Ａ・Ｈ　ＭＯＴＯＲＳ株式会社,,株式会社,福岡県,古賀市,小竹８５５番地５７,,40,223,8113135,,,,,,,2025-10-09,1,,,,,エーエイチモータース,0
890,3290001111624,新規,0,2025-10-09,2025-10-09,株式会社福岡ユタカ,,株式会社,福岡県,古賀市,新久保１丁目１番３６号,,40,223,8113118,,,,,,,2025-10-09,1,,,,,フクオカユタカ,0
891,3290003017514,新規,0,2025-10-09,2025-10-09,建学合同会社,,合同会社,福岡県,福岡市博多区,吉塚１丁目４－２０ジャンティ１３０－２０５室,,40,132,8120041,,,,,,,2025-10-09,1,,,,,ケンガク,0
892,3290003017522,新規,0,2025-10-09,2025-10-09,合同会社堤運送,,合同会社,福岡県,久留米市,高良内町２６４１番地４,,40,203,8390852,,,,,,,2025-10-09,1,,,,,,0
894,3290801031922,新規,0,2025-10-09,2025-10-09,株式会社夢八百万,,株式会社,福岡県,北九州市小倉北区,鍛冶町１丁目４番２０号４Ｆ,,40,106,8020004,,,,,,,2025-10-09,1,,,,,ユメヤオヨロズ,0
895,3290801031930,新規,0,2025-10-09,2025-10-09,株式会社ＭＪＥＣ,,株式会社,福岡県,北九州市八幡西区,本城５丁目１番１４号,,40,109,8070801,,,,,,,2025-10-09,1,,,,,エムジーコ,0
897,3300001014387,新規,0,2025-10-09,2025-10-09,株式会社ホップ,,株式会社,佐賀県,神埼郡吉野ヶ里町,三津１４１８番地４,,41,327,8420104,,,,,,,2025-10-09,1,,,,,ホップ,0
898,3300003002357,新規,0,2025-10-09,2025-10-09,合同会社ＫＩＨＡＲＡ,,合同会社,佐賀県,佐賀市,鍋島町大字八戸溝１２７４番地１２,,41,201,8490932,,,,,,,2025-10-09,1,,,,,キハラ,0
899,3310003005103,新規,0,2025-10-09,2025-10-09,合同会社正誠企画,,合同会社,長崎県,佐世保市,春日町２９番１０号,,42,202,8570011,,,,,,,2025-10-09,1,,,,,セイシンキカク,0
906,3340001027716,新規,0,2025-10-09,2025-10-09,株式会社とよたベース,,株式会社,鹿児島県,鹿児島市,高麗町２７番１４号豊田ビル３０１,,46,201,8900051,,,,,,,2025-10-09,1,,,,,トヨタベース,0
916,3370003007325,新規,0,2025-10-09,2025-10-09,ヘイワトレーディング合同会社,,合同会社,宮城県,仙台市泉区,福岡字中菅２８番地２,,04,105,9813225,,,,,,,2025-10-09,1,,,,,ヘイワトレーディング,0
920,3380001035632,新規,0,2025-10-09,2025-10-09,グリーンエステート株式会社,,株式会社,福島県,福島市,八木田字神明１１１番地５,,07,201,9608164,,,,,,,2025-10-09,1,,,,,グリーンエステート,0
927,3410003004160,新規,0,2025-10-09,2025-10-09,Ｓｗｏｒｄｂａｙ合同会社,,合同会社,秋田県,秋田市,御所野元町７丁目１番４号,,05,201,0101414,,,,,,,2025-10-09,1,,,,,ソードベイ,0
933,3430003018225,新規,0,2025-10-09,2025-10-09,合同会社森谷写真事務所,,合同会社,北海道,札幌市東区,北二十一条東２２丁目２－８サンセール２１－１０５号,,01,103,0650021,,,,,,,2025-10-09,1,,,,,モリヤシャシンジムショ,0
940,3470003002992,新規,0,2025-10-09,2025-10-09,野良運送合同会社,,合同会社,香川県,高松市,香南町岡５７８－３,,37,201,7611401,,,,,,,2025-10-09,1,,,,,,0
946,3500003003608,新規,0,2025-10-09,2025-10-09,Ｓａｎあっぷ合同会社,,合同会社,愛媛県,西条市,上市甲１１５－１６,,38,206,7991336,,,,,,,2025-10-09,1,,,,,サンアップ,0
956,4010001259201,新規,0,2025-10-09,2025-10-09,トレイルヘッド株式会社,,株式会社,東京都,中央区,銀座６丁目３番１８号Ｌａ・Ｌａ・ＧｒａｎｄｅＧＩＮＺＡ１階,,13,102,1040061,,,,,,,2025-10-09,1,,,,,トレイルヘッド,0
957,4010001259226,新規,0,2025-10-09,2025-10-09,株式会社ＴｉｙｏＤｕｃｋ,,株式会社,東京都,千代田区,丸の内３丁目２番２号丸の内二重橋ビル２階,,13,101,1000005,,,,,,,2025-10-09,1,,,,,チヨダック,0
958,4010001259309,新規,0,2025-10-09,2025-10-09,株式会社ＫＢプロパティ,,株式会社,東京都,中央区,日本橋兜町２０番５号兜町八千代ビル４階,,13,102,1030026,,,,,,,2025-10-09,1,,,,,ケービープロパティ,0
959,4010001259325,新規,0,2025-10-09,2025-10-09,株式会社板心,,株式会社,東京都,千代田区,一番町１７番地２,,13,101,1020082,,,,,,,2025-10-09,1,,,,,イタゴコロ,0
961,4010003048949,新規,0,2025-10-09,2025-10-09,ビアフィー合同会社,,合同会社,東京都,中央区,銀座１丁目１２番４号ＮＥＢＬＤ６Ｆ,,13,102,1040061,,,,,,,2025-10-09,1,,,,,ビアフィー,0
969,4010401193512,新規,0,2025-10-09,2025-10-09,ＵＵＵＭマーケティング株式会社,,株式会社,東京都,港区,赤坂９丁目７番１号,,13,103,1070052,,,,,,,2025-10-09,1,,,,,ウームマーケティング,0
970,4010401193520,新規,0,2025-10-09,2025-10-09,有鹿株式会社,,株式会社,東京都,港区,東麻布２丁目２２番１０－２０１号,,13,103,1060044,,,,,,,2025-10-09,1,,,,,アルカ,0
972,4010403036207,新規,0,2025-10-09,2025-10-09,合同会社ＲｙＮ　Ａｓｓｅｔ,,合同会社,東京都,港区,北青山１丁目３番１号アールキューブ青山３階,,13,103,1070061,,,,,,,2025-10-09,1,,,,,アールワイエヌアセット,0
975,4010501054853,新規,0,2025-10-09,2025-10-09,四方通国際株式会社,,株式会社,東京都,台東区,柳橋１丁目２－１２－５Ｆ－ＡＢＳ－Ｂ－８号,,13,106,1110052,,,,,,,2025-10-09,1,,,,,シホウツウコクサイ,0
976,4010501054861,新規,0,2025-10-09,2025-10-09,株式会社今日ここから,,株式会社,東京都,台東区,寿３丁目９－６メゾンドムラタ９０１,,13,106,1110042,,,,,,,2025-10-09,1,,,,,キョウココカラ,0
989,4011001172666,新規,0,2025-10-09,2025-10-09,株式会社ｇｏｏｄｎｅｓｓ　ｄｅｓｉｇｎ,,株式会社,東京都,目黒区,中町２丁目５０番１３号,,13,110,1530065,,,,,,,2025-10-09,1,,,,,グッドネスデザイン,0
990,4011001172690,新規,0,2025-10-09,2025-10-09,株式会社ＶＡＮＣＯＲＴＬＡＮＤＴ,,株式会社,東京都,渋谷区,神宮前２丁目１９－１３Ｊ２ビル３階,,13,113,1500001,,,,,,,2025-10-09,1,,,,,ヴァンコートラント,0
991,4011001172724,新規,0,2025-10-09,2025-10-09,株式会社幸音魂,,株式会社,東京都,目黒区,中町２丁目４４番９号,,13,110,1530065,,,,,,,2025-10-09,1,,,,,サキノオトダマ,0
992,4011001172740,新規,0,2025-10-09,2025-10-09,株式会社シンプリシティ,,株式会社,東京都,渋谷区,本町２丁目３４番４号ハーモニーテラス本町１０２,,13,113,1510071,,,,,,,2025-10-09,1,,,,,シンプリシティ,0
993,4011001173053,新規,0,2025-10-09,2025-10-09,ｓｏｗ株式会社,,株式会社,東京都,渋谷区,円山町５番３号ＭＩＥＵＸ渋谷ビル８階,,13,113,1500044,,,,,,,2025-10-09,1,,,,,ソウ,0
999,4011101113470,新規,0,2025-10-09,2025-10-09,株式会社ノート,,株式会社,東京都,新宿区,原町３丁目３０番地３－５０３,,13,104,1620053,,,,,,,2025-10-09,1,,,,,ノート,0
1000,4011101113495,新規,0,2025-10-09,2025-10-09,星本商会株式会社,,株式会社,東京都,新宿区,西新宿８丁目８番１３号,,13,104,1600023,,,,,,,2025-10-09,1,,,,,ホシモトショウカイ,0
1001,4011101113594,新規,0,2025-10-09,2025-10-09,株式会社絶景,,株式会社,東京都,新宿区,西新宿３丁目３番１３号西新宿水間ビル２Ｆ,,13,104,1600023,,,,,,,2025-10-09,1,,,,,ゼッケイ,0
1007,4011501032667,新規,0,2025-10-09,2025-10-09,竹内珈琲株式会社,,株式会社,東京都,荒川区,南千住６丁目２４－１４,,13,118,1160003,,,,,,,2025-10-09,1,,,,,タケウチコーヒー,0
1008,4011503006727,新規,0,2025-10-09,2025-10-09,合同会社Ｓ＆Ｋ,,合同会社,東京都,荒川区,西尾久７丁目４５番６号アネシア東京尾久ＩＩ５０４号室,00141030,13,118,1160011,,,,,,,2025-10-09,1,,,,,エスアンドケイ,0
1009,4011601029076,新規,0,2025-10-09,2025-10-09,麻膳堂商事株式会社,,株式会社,東京都,練馬区,春日町６丁目１６番１１号,,13,120,1790074,,,,,,,2025-10-09,1,,,,,マゼンドウショウジ,0
1011,4011701028812,新規,0,2025-10-09,2025-10-09,株式会社ウィステリア,,株式会社,東京都,江戸川区,西篠崎２丁目２５番１号,,13,123,1330055,,,,,,,2025-10-09,1,,,,,ウィステリア,0
1013,4011801046904,新規,0,2025-10-09,2025-10-09,ホームリンク・エステート株式会社,,株式会社,東京都,葛飾区,青戸３丁目３２番２号２０２号室,,13,122,1250062,,,,,,,2025-10-09,1,,,,,ホームリンクエステート,0
1015,4012401043696,新規,0,2025-10-09,2025-10-09,株式会社シダクルー,,株式会社,東京都,調布市,菊野台２丁目３０番地２クラッソウ１Ｆ,,13,208,1820007,,,,,,,2025-10-09,1,,,,,シダクルー,0
1019,4012801024296,新規,0,2025-10-09,2025-10-09,株式会社Ｄ‐ＳＣＡＬＥ,,株式会社,東京都,国立市,富士見台２丁目２番地の１７、２Ｆ,,13,215,1860003,,,,,,,2025-10-09,1,,,,,ディースケール,0
1020,4012803003901,新規,0,2025-10-09,2025-10-09,合同会社Ａ　ｔｏｉ,,合同会社,東京都,日野市,多摩平１丁目２－１第一ビル３０８,,13,212,1910062,,,,,,,2025-10-09,1,,,,,アトワ,0
1030,4020001165068,新規,0,2025-10-09,2025-10-09,株式会社一志,,株式会社,神奈川県,横浜市中区,本牧元町７番７号３０２,,14,104,2310822,,,,,,,2025-10-09,1,,,,,イッシ,0
1031,4020001165167,新規,0,2025-10-09,2025-10-09,伊勢屋株式会社,,株式会社,神奈川県,横浜市鶴見区,江ケ崎町２２番６号,,14,101,2300002,,,,,,,2025-10-09,1,,,,,イセヤ,0
1032,4020001165183,新規,0,2025-10-09,2025-10-09,株式会社アヴニールＳ,,株式会社,神奈川県,横浜市青葉区,恩田町９７５番地,,14,117,2270065,,,,,,,2025-10-09,1,,,,,アヴニールエス,0
1033,4020001165258,新規,0,2025-10-09,2025-10-09,トップファード株式会社,,株式会社,神奈川県,横浜市港北区,新横浜２丁目６番地２３金子第２ビル６Ｆ,,14,109,2220033,,,,,,,2025-10-09,1,,,,,トップファード,0
1034,4020001165332,新規,0,2025-10-09,2025-10-09,株式会社ＮＡＳＴＹ　ＪＡＰＡＮ,,株式会社,神奈川県,横浜市神奈川区,鶴屋町２丁目１０番地１ＭＩＮＤＡＮＢＬＤＧ．４Ｆ,,14,102,2210835,,,,,,,2025-10-09,1,,,,,ナスティージャパン,0
1035,4020001165340,新規,0,2025-10-09,2025-10-09,株式会社ＳＩＨＭ,,株式会社,神奈川県,横浜市西区,北幸２丁目１０番４８号　むつみビル３階,,14,103,2200004,,,,,,,2025-10-09,1,,,,,シム,0
1038,4020003029535,新規,0,2025-10-09,2025-10-09,合同会社うな衛門山椒本舗,,合同会社,神奈川県,横浜市中区,花咲町２丁目６２－１８,,14,104,2310063,,,,,,,2025-10-09,1,,,,,ウナエモンサンショウホンポ,0
1039,4020003029601,新規,0,2025-10-09,2025-10-09,合同会社ｈｉｇｈｌｉｇｈｔ,,合同会社,神奈川県,横浜市青葉区,市ケ尾町５２８―１２,,14,117,2250024,,,,,,,2025-10-09,1,,,,,ハイライト,0
1041,4020005017001,新規,0,2025-10-09,2025-10-09,企業組合ワーカーズ・コレクティブ六角橋にんじん,,その他の設立登記法人,神奈川県,横浜市神奈川区,六角橋２丁目２番２０号六角橋佐藤ビル１階東,,14,102,2210802,,,,,,,2025-10-09,1,,,,,ワーカーズコレクティブロッカクバシニンジン,0
1049,4030001169068,新規,0,2025-10-09,2025-10-09,はやぶさホールディングス株式会社,,株式会社,埼玉県,川口市,芝樋ノ爪１丁目１番７号,,11,203,3330852,,,,,,,2025-10-09,1,,,,,ハヤブサホールディングス,0
1050,4030001169159,新規,0,2025-10-09,2025-10-09,株式会社Ｇｉｖｅ　Ｌｉｎｋｓ,,株式会社,埼玉県,戸田市,上戸田４丁目７－１７モナ・エスポワール２０５,,11,224,3350022,,,,,,,2025-10-09,1,,,,,ギブリンクス,0
1054,4030003027835,新規,0,2025-10-09,2025-10-09,和合商事合同会社,,合同会社,埼玉県,南埼玉郡宮代町,中央３丁目４－９－１０２号室,,11,442,3450821,,,,,,,2025-10-09,1,,,,,ワゴウショウジ,0
1059,4040001140878,新規,0,2025-10-09,2025-10-09,ＳＨＩＮＧＩＴＡＩ株式会社,,株式会社,千葉県,浦安市,高洲８丁目１番プラウド新浦安パームコート３０８,,12,227,2790023,,,,,,,2025-10-09,1,,,,,シンギタイ,0
1060,4040001140894,新規,0,2025-10-09,2025-10-09,株式会社ｃｌｅａｎｉｎｇ　ｃｈｅｆ,,株式会社,千葉県,鎌ケ谷市,粟野７３６番地１１５,,12,224,2730132,,,,,,,2025-10-09,1,,,,,,0
1061,4040001140993,新規,0,2025-10-09,2025-10-09,株式会社シンタク,,株式会社,千葉県,市川市,稲荷木３丁目８番１３号,,12,203,2720024,,,,,,,2025-10-09,1,,,,,シンタク,0
1063,4040003028428,新規,0,2025-10-09,2025-10-09,合同会社ｆｅｅｌ,,合同会社,千葉県,柏市,中央町６－２バイブスビル１階,,12,217,2770021,,,,,,,2025-10-09,1,,,,,フィール,0
1064,4040003028691,新規,0,2025-10-09,2025-10-09,合同会社シーシャープ,,合同会社,千葉県,船橋市,本町７丁目５番２号船栄ビル２Ｆ,,12,204,2730005,,,,,,,2025-10-09,1,,,,,シーシャープ,0
1065,4050001057444,新規,0,2025-10-09,2025-10-09,株式会社飛雷り,,株式会社,茨城県,水戸市,見川２丁目４４番地の３０,,08,201,3100912,,,,,,,2025-10-09,1,,,,,ヒラリ,0
1070,4060001038666,新規,0,2025-10-09,2025-10-09,株式会社ＹｕｍｍＹ　ＭＯＮＳＴＡＲ,,株式会社,栃木県,宇都宮市,江野町１０番２号２Ｆ,,09,201,3200802,,,,,,,2025-10-09,1,,,,,ヤミーモンスター,0
1074,4070001043392,新規,0,2025-10-09,2025-10-09,株式会社群馬ｐａｒｔｎｅｒｓ,,株式会社,群馬県,伊勢崎市,寿町１５３番地１寿ハイツ３０１,,10,204,3720052,,,,,,,2025-10-09,1,,,,,グンマパートナーズ,0
1085,4080405007769,新規,0,2025-10-09,2025-10-09,医療法人社団颯青会,,その他の設立登記法人,静岡県,浜松市中央区,和合町１７６番地の５８,,22,138,4338125,,,,,,,2025-10-09,1,,,,,ソウセイカイ,0
1088,4100001039024,新規,0,2025-10-09,2025-10-09,一心急送株式会社,,株式会社,長野県,東御市,県１５４番地１,,20,219,3890517,,,,,,,2025-10-09,1,,,,,イッシンキュウソウ,0
1098,4120001280526,新規,0,2025-10-09,2025-10-09,煕牛株式会社,,株式会社,大阪府,大阪市北区,黒崎町３－２６－１Ｂ,,27,127,5300023,,,,,,,2025-10-09,1,,,,,キギュウ,0
1099,4120001280591,新規,0,2025-10-09,2025-10-09,株式会社生都,,株式会社,大阪府,大阪市西区,江戸堀２丁目１番１９－６０１号,,27,106,5500002,,,,,,,2025-10-09,1,,,,,イト,0
1100,4120001280682,新規,0,2025-10-09,2025-10-09,まちのん株式会社,,株式会社,大阪府,大阪市城東区,天王田２番１１号,,27,118,5360012,,,,,,,2025-10-09,1,,,,,マチノン,0
1101,4120001280996,新規,0,2025-10-09,2025-10-09,ＬＯＣＡＯＮＥ株式会社,,株式会社,大阪府,大阪市北区,中之島６丁目１ー３８ザ・パークハウス中之島タワー２７１９号室,,27,127,5300005,,,,,,,2025-10-09,1,,,,,ロケワン,0
1105,4120003030879,新規,0,2025-10-09,2025-10-09,朝暉合同会社,,合同会社,大阪府,大阪市住吉区,東粉浜３丁目７番１１－１０５号,,27,120,5580051,,,,,,,2025-10-09,1,,,,,チョウキ,0
1106,4120005025200,新規,0,2025-10-09,2025-10-09,一般社団法人ＴＡＴＳＵＫＩ,,その他の設立登記法人,大阪府,大阪市平野区,加美南４丁目４番３４号,,27,126,5470003,,,,,,,2025-10-09,1,,,,,タツキ,0
1113,4120101072559,新規,0,2025-10-09,2025-10-09,株式会社山本工業,,株式会社,大阪府,堺市堺区,南旅篭町西１丁２番１８号,,27,141,5900968,,,,,,,2025-10-09,1,,,,,ヤマモトコウギョウ,0
1114,4120101072609,新規,0,2025-10-09,2025-10-09,株式会社堀竜,,株式会社,大阪府,堺市中区,深井北町１７２番地１－２０３号,,27,142,5998271,,,,,,,2025-10-09,1,,,,,ホリタツ,0
1115,4120101072625,新規,0,2025-10-09,2025-10-09,株式会社ＡＬ　Ｔｉｎｎｉｎ,,株式会社,大阪府,堺市東区,草尾３５３番地７５,,27,143,5998127,,,,,,,2025-10-09,1,,,,,アルティニン,0
1119,4122001039737,新規,0,2025-10-09,2025-10-09,株式会社メディフラワー,,株式会社,大阪府,八尾市,南木の本７丁目４９番地,,27,212,5810042,,,,,,,2025-10-09,1,,,,,メディフラワー,0
1122,4130001080751,新規,0,2025-10-09,2025-10-09,株式会社テンベース,,株式会社,京都府,京都市東山区,本町１丁目４１番地ルーシア清水五条７０１号,,26,105,6050981,,,,,,,2025-10-09,1,,,,,テンベース,0
1130,4140001140208,新規,0,2025-10-09,2025-10-09,株式会社モリモト,,株式会社,兵庫県,加西市,三口町７４４番地,,28,220,6752223,,,,,,,2025-10-09,1,,,,,モリモト,0
1131,4140001140273,新規,0,2025-10-09,2025-10-09,株式会社おひさま,,株式会社,兵庫県,三田市,酒井４０２番地２,,28,219,6691405,,,,,,,2025-10-09,1,,,,,オヒサマ,0
1140,4140003022684,新規,0,2025-10-09,2025-10-09,ＨＡＳＳＡＮ　ＪＩＤＯＵＳＨＡ合同会社,,合同会社,兵庫県,神戸市北区,有野町唐櫃４番地の１４,,28,109,6511331,,,,,,,2025-10-09,1,,,,,ハサンジドウシャ,0
1142,4160001027089,新規,0,2025-10-09,2025-10-09,株式会社クリエイト,,株式会社,滋賀県,犬上郡豊郷町,大字三ツ池１９－８,,25,441,5291177,,,,,,,2025-10-09,1,,,,,クリエイト,0
1143,4160001027106,新規,0,2025-10-09,2025-10-09,ヌノニシタイ株式会社,,株式会社,滋賀県,高島市,今津町名小路１丁目６番地５,,25,212,5201631,,,,,,,2025-10-09,1,,,,,ヌノニシタイ,0
1148,4180001168922,新規,0,2025-10-09,2025-10-09,株式会社ＫｅＦＬ,,株式会社,愛知県,東海市,大田町的場１２１０番地,,23,222,4770031,,,,,,,2025-10-09,1,,,,,キーフル,0
1153,4180003029164,新規,0,2025-10-09,2025-10-09,合同会社スレスタ・キッチン,,合同会社,愛知県,名古屋市中区,金山１丁目２番８号しののめ荘１０４号室,,23,106,4600022,,,,,,,2025-10-09,1,,,,,スレスタキッチン,0
1154,4180005021276,新規,0,2025-10-09,2025-10-09,学校法人海鵬学園,,その他の設立登記法人,愛知県,名古屋市中村区,則武１丁目３０番１７号,,23,105,4530014,,,,,,,2025-10-09,1,,,,,カイホウガクエン,0
1158,4180301040302,新規,0,2025-10-09,2025-10-09,ＡＫＳ株式会社,,株式会社,愛知県,西尾市,一色町赤羽浜田５９番地３,,23,213,4440427,,,,,,,2025-10-09,1,,,,,エイケイエス,0
1159,4180303006763,新規,0,2025-10-09,2025-10-09,合同会社ｂｌｕｅ　ｔｒｅｅ　ｆａｒｍ,,合同会社,愛知県,田原市,亀山町地ノ神２１番地,,23,231,4413625,,,,,,,2025-10-09,1,,,,,ブルーツリーファーム,0
1167,4200001044336,新規,0,2025-10-09,2025-10-09,株式会社ポラリス,,株式会社,岐阜県,各務原市,那加巾下町２７番地,,21,213,5040839,,,,,,,2025-10-09,1,,,,,ポラリス,0
1168,4210001020352,新規,0,2025-10-09,2025-10-09,株式会社Ｔ・Ｏサポート,,株式会社,福井県,鯖江市,東鯖江４丁目８－６,,18,207,9160041,,,,,,,2025-10-09,1,,,,,ティーオーサポート,0
1171,4230001021126,新規,0,2025-10-09,2025-10-09,ＳＵ　Ｔｒａｄｉｎｇ株式会社,,株式会社,富山県,射水市,海老江練合３００番地２,,16,211,9330235,,,,,,,2025-10-09,1,,,,,エスユートレーディング,0
1174,4240005015998,新規,0,2025-10-09,2025-10-09,ヒロマツホールディングス行政書士法人,,その他の設立登記法人,広島県,広島市中区,幟町１３番４号１２階,,34,101,7300016,,,,,,,2025-10-09,1,,,,,ヒロマツホールディングス,0
1175,4250001021388,新規,0,2025-10-09,2025-10-09,ｎｏｂｉｎｏｂｉ　ｄｅｓｉｇｎ株式会社,,株式会社,山口県,宇部市,西小串５丁目６番１４－５号ハイツ松永２０１号,,35,202,7550049,,,,,,,2025-10-09,1,,,,,ノビノビデザイン,0
1179,4270001009308,新規,0,2025-10-09,2025-10-09,株式会社琴線,,株式会社,鳥取県,鳥取市,湖山町南１丁目２３０番地,,31,201,6800945,,,,,,,2025-10-09,1,,,,,キンセン,0
1183,4290001111573,新規,0,2025-10-09,2025-10-09,オートギャラクシージャパン株式会社,,株式会社,福岡県,福岡市博多区,博多駅東１丁目１番３３号はかた近代ビル７Ｆｉｄｅａｌｏｆｆｉｃｅ２ＥＤ６,,40,132,8120013,,,,,,,2025-10-09,1,,,,,,0
1184,4290001111631,新規,0,2025-10-09,2025-10-09,株式会社オールサポートリンク,,株式会社,福岡県,福岡市早良区,野芥７丁目２７番１５号,,40,137,8140171,,,,,,,2025-10-09,1,,,,,オールサポートリンク,0
1185,4290001111904,新規,0,2025-10-09,2025-10-09,ラックバンク株式会社,,株式会社,福岡県,福岡市博多区,博多駅前１丁目２３番２号５Ｆ―Ｂ,,40,132,8120011,,,,,,,2025-10-09,1,,,,,ラックバンク,0
1187,4290003017505,新規,0,2025-10-09,2025-10-09,合同会社ＢＷＲ,,合同会社,福岡県,福岡市博多区,博多駅前１丁目２３番２号ＰａｒｋＦｒｏｎｔ博多駅前１丁目５Ｆ－Ｂ,,40,132,8120011,,,,,,,2025-10-09,1,,,,,ビーダブリューアール,0
1189,4290803005188,新規,0,2025-10-09,2025-10-09,合同会社ほばしら,,合同会社,福岡県,北九州市八幡東区,帆柱２丁目９番１２号,,40,108,8050056,,,,,,,2025-10-09,1,,,,,ホバシラ,0
1190,4300003002356,新規,0,2025-10-09,2025-10-09,ＡＨＭＡＤＹＡＲ　ＴＲＡＤＩＮＧ　ＣＯ合同会社,,合同会社,佐賀県,神埼郡吉野ヶ里町,三津１９２０番地,,41,327,8420104,,,,,,,2025-10-09,1,,,,,アハマドヤルトレデンゴカンパニー,0
1197,4340001027707,新規,0,2025-10-09,2025-10-09,株式会社ＲＩＸ,,株式会社,鹿児島県,鹿児島市,小松原１丁目２０番８号１Ｆ,,46,201,8910114,,,,,,,2025-10-09,1,,,,,リックス,0
1203,4360001035906,新規,0,2025-10-09,2025-10-09,Ｂａｕｎｄａ株式会社,,株式会社,沖縄県,沖縄市,知花３丁目２２－２８－３ＣＬＯＶＥＲ・ＴＯＷＮ・ＣＡＳＴＬＥ・ＡＮＮＥＸ・Ｃ,,47,211,9042143,,,,,,,2025-10-09,1,,,,,バウンダ,0
1212,4380001035623,新規,0,2025-10-09,2025-10-09,株式会社広栄技術,,株式会社,福島県,伊達郡川俣町,字小作７７番地１１,,07,308,9601434,,,,,,,2025-10-09,1,,,,,コウエイギジュツ,0
1216,4390003002455,新規,0,2025-10-09,2025-10-09,合同会社Ｐｉａｎｏ,,合同会社,山形県,酒田市,字肴町２４番地,,06,204,9996836,,,,,,,2025-10-09,1,,,,,ピアーノ,0
1219,4430001095439,新規,0,2025-10-09,2025-10-09,ライラックファーム株式会社,,株式会社,北海道,沙流郡平取町,字荷菜４番地７,,01,602,0550106,,,,,,,2025-10-09,1,,,,,ライラックファーム,0
1224,4450001014751,新規,0,2025-10-09,2025-10-09,株式会社あおぞら畜産,,株式会社,北海道,士別市,温根別町南十二線西４番地,,01,220,0950181,,,,,,,2025-10-09,1,,,,,アオゾラチクサン,0
1225,4450003002721,新規,0,2025-10-09,2025-10-09,合同会社皆遊,,合同会社,北海道,宗谷郡猿払村,浜鬼志別５６５番地,,01,511,0986222,,,,,,,2025-10-09,1,,,,,カイユウ,0
1229,4480001012975,新規,0,2025-10-09,2025-10-09,株式会社ＮＤＳ,,株式会社,徳島県,板野郡板野町,西中富字中須７７番地１９０,,36,404,7790119,,,,,,,2025-10-09,1,,,,,エヌディーエス,0
1230,4490001011183,新規,0,2025-10-09,2025-10-09,株式会社ＡＳ　Ｃａｐｉｔａｌ,,株式会社,高知県,高知市,永国寺町１番４３号ハイツ永国寺６０２,,39,201,7800844,,,,,,,2025-10-09,1,,,,,エーエスキャピタル,0
1249,5010001258838,新規,0,2025-10-09,2025-10-09,株式会社ＵＳＡＧＩ,,株式会社,東京都,文京区,小石川２丁目１番１３号１１０４,,13,105,1120002,,,,,,,2025-10-09,1,,,,,ウサギ,0
1250,5010001259225,新規,0,2025-10-09,2025-10-09,株式会社ＧＳ　Ｆｒｉｅｎｄ,,株式会社,東京都,千代田区,神田和泉町１番地６の１６ヤマトビル４０５,,13,101,1010024,,,,,,,2025-10-09,1,,,,,ジーエスフレンド,0
1264,5010401193346,新規,0,2025-10-09,2025-10-09,Ａｒｃｔｏｎａｕｔ株式会社,,株式会社,東京都,港区,浜松町２丁目２番１５号浜松町ダイヤビル２Ｆ,,13,103,1050013,,,,,,,2025-10-09,1,,,,,アクトノート,0
1265,5010401193511,新規,0,2025-10-09,2025-10-09,株式会社ＴＫ,,株式会社,東京都,港区,南麻布２丁目５－１４エスペランサ麻布２０２,,13,103,1060047,,,,,,,2025-10-09,1,,,,,ティーケー,0
1266,5010401193560,新規,0,2025-10-09,2025-10-09,株式会社くらしのケア２４,,株式会社,東京都,港区,芝５丁目２６番２４号,,13,103,1080014,,,,,,,2025-10-09,1,,,,,クラシノケアニジュウヨン,0
1267,5010401193619,新規,0,2025-10-09,2025-10-09,株式会社Ｐｏｌｙｚｍ,,株式会社,東京都,港区,南青山３丁目１番３６号青山丸竹ビル６Ｆ,,13,103,1070062,,,,,,,2025-10-09,1,,,,,ポリズム,0
1272,5010601068075,新規,0,2025-10-09,2025-10-09,株式会社飛馬日本,,株式会社,東京都,墨田区,両国３丁目１６番４号両国ＳＳビル１Ｆ,,13,107,1300026,,,,,,,2025-10-09,1,,,,,ヒュウマニホン,0
1274,5010801036674,新規,0,2025-10-09,2025-10-09,冠宇電池株式会社,,株式会社,東京都,大田区,矢口１丁目８番２５号ハイツベルグ武蔵２階２０８号室,,13,111,1460093,,,,,,,2025-10-09,1,,,,,カンウデン,0
1275,5010903010321,新規,0,2025-10-09,2025-10-09,合同会社Ｄｅｅｐ　ｓｎｏｗ　ｓｏｕｎｄ,,合同会社,東京都,世田谷区,北烏山５丁目２－２０,,13,112,1570061,,,,,,,2025-10-09,1,,,,,ディープスノーサウンド,0
1278,5011001172640,新規,0,2025-10-09,2025-10-09,株式会社Ｅｍｉｉ,,株式会社,東京都,渋谷区,松濤１丁目２９－２４シティーコート松濤６０２,,13,113,1500046,,,,,,,2025-10-09,1,,,,,エミー,0
1279,5011001172665,新規,0,2025-10-09,2025-10-09,最良好三昧株式会社,,株式会社,東京都,目黒区,中町２丁目５０番１３号,,13,110,1530065,,,,,,,2025-10-09,1,,,,,,0
1280,5011001172707,新規,0,2025-10-09,2025-10-09,株式会社Ｐｒａｅｄａ,,株式会社,東京都,渋谷区,道玄坂１丁目１０番８号渋谷道玄坂東急ビル２Ｆ－Ｃ,,13,113,1500043,,,,,,,2025-10-09,1,,,,,プラエダ,0
1281,5011001172715,新規,0,2025-10-09,2025-10-09,株式会社ＴＺｊａｐａｎ,,株式会社,東京都,目黒区,祐天寺２丁目２－７青埜ビル４Ｆ,,13,110,1530052,,,,,,,2025-10-09,1,,,,,ティーゼットジャパン,0
1282,5011001172723,新規,0,2025-10-09,2025-10-09,株式会社奇音魂,,株式会社,東京都,目黒区,中町２丁目４４番９号,,13,110,1530065,,,,,,,2025-10-09,1,,,,,クシノオトダマ,0
1285,5011005011175,新規,0,2025-10-09,2025-10-09,一般社団法人地域創生音楽ＦＵＲＵＳＡＴＯ,,その他の設立登記法人,東京都,渋谷区,本町４丁目９番１号１階,,13,113,1510071,,,,,,,2025-10-09,1,,,,,チイキソウセイオンガクフルサト,0
1296,5011503006726,新規,0,2025-10-09,2025-10-09,ＮＥＯＮ合同会社,,合同会社,東京都,荒川区,南千住７丁目１１番２－１３０１号,,13,118,1160003,,,,,,,2025-10-09,1,,,,,ネオン,0
1297,5011601029059,新規,0,2025-10-09,2025-10-09,株式会社ＳＭＲコンテック,,株式会社,東京都,練馬区,豊玉北２丁目１５番１１号,,13,120,1760012,,,,,,,2025-10-09,1,,,,,エスエムアールコンテック,0
1298,5011605002672,新規,0,2025-10-09,2025-10-09,一般社団法人つなぐ終活,,その他の設立登記法人,東京都,練馬区,桜台１丁目４４番１６号ウィンコーポ桜台２０２,,13,120,1760002,,,,,,,2025-10-09,1,,,,,ツナグシュウカツ,0
1302,5011803007127,新規,0,2025-10-09,2025-10-09,合同会社ＭＹＳＴ,,合同会社,東京都,足立区,小台２丁目２０番１３号,,13,121,1200046,,,,,,,2025-10-09,1,,,,,マイスト,0
1303,5011805003487,新規,0,2025-10-09,2025-10-09,一般社団法人日本人作品と音楽文化の会Ｖａｃａｎｃｅｓ　Ｍｕｓｉｃａｌｅｓ,,その他の設立登記法人,東京都,葛飾区,立石８丁目３４番１３号ガーデニアコーポ１０１,,13,122,1240012,,,,,,,2025-10-09,1,,,,,ニホンジンサクヒントオンガクブンカノカイバカンスミュジカル,0
1304,5012401043687,新規,0,2025-10-09,2025-10-09,株式会社Ｙ＆Ｋ,,株式会社,東京都,三鷹市,井の頭１丁目３番１４,,13,204,1810001,,,,,,,2025-10-09,1,,,,,ワイアンドケー,0
1306,5012403007368,新規,0,2025-10-09,2025-10-09,布袋屋ＳＥＶＥＮ合同会社,,合同会社,東京都,調布市,東つつじケ丘３丁目４０番地４,,13,208,1820005,,,,,,,2025-10-09,1,,,,,ホテイヤセブン,0
1307,5012403007384,新規,0,2025-10-09,2025-10-09,ｅｎｎｏ合同会社,,合同会社,東京都,調布市,深大寺東町２丁目１１番地６７,,13,208,1820012,,,,,,,2025-10-09,1,,,,,エンノ,0
1309,5012803003900,新規,0,2025-10-09,2025-10-09,合同会社Ｅｉｙａ,,合同会社,東京都,国分寺市,本町２丁目２３－１４,,13,214,1850012,,,,,,,2025-10-09,1,,,,,エイヤ,0
1314,5020001165050,新規,0,2025-10-09,2025-10-09,株式会社ＷＢ　Ｓｃｏｏｐ,,株式会社,神奈川県,川崎市幸区,中幸町４丁目２番地２エフグランツ２０３,,14,132,2120012,,,,,,,2025-10-09,1,,,,,ダブリュービースクープ,0
1315,5020001165232,新規,0,2025-10-09,2025-10-09,株式会社ＨＡＲＩＭＡ,,株式会社,神奈川県,横浜市戸塚区,深谷町１３０５番地２６,,14,110,2450067,,,,,,,2025-10-09,1,,,,,ハリマ,0
1316,5020001165257,新規,0,2025-10-09,2025-10-09,株式会社Ｖｅｒｅｉｎ,,株式会社,神奈川県,横浜市港北区,日吉２丁目１番５号,,14,109,2230061,,,,,,,2025-10-09,1,,,,,フェライン,0
1332,5030001168903,新規,0,2025-10-09,2025-10-09,株式会社ＥｖｅｒＳｎｏｗ,,株式会社,埼玉県,比企郡小川町,みどりが丘３丁目１１－１９,,11,343,3550315,,,,,,,2025-10-09,1,,,,,エバースノー,0
1333,5030001169133,新規,0,2025-10-09,2025-10-09,株式会社白風流,,株式会社,埼玉県,春日部市,備後東８丁目１３番１２号,,11,214,3440032,,,,,,,2025-10-09,1,,,,,シフル,0
1334,5030001169158,新規,0,2025-10-09,2025-10-09,昼間美建株式会社,,株式会社,埼玉県,八潮市,大字大曽根１０４番地,,11,234,3400834,,,,,,,2025-10-09,1,,,,,ヒルマビケン,0
1339,5030003027776,新規,0,2025-10-09,2025-10-09,ＫＦＧ合同会社,,合同会社,埼玉県,川口市,川口３丁目２２－２２パティオ西川口２０３号室,,11,203,3320015,,,,,,,2025-10-09,1,,,,,ケーエフジー,0
1340,5030003027818,新規,0,2025-10-09,2025-10-09,合同会社ミライエショウジ,,合同会社,埼玉県,さいたま市浦和区,針ヶ谷２丁目１５番７－３１０号,,11,107,3300075,,,,,,,2025-10-09,1,,,,,ミライエショウジ,0
1341,5030003027850,新規,0,2025-10-09,2025-10-09,合同会社ＫＵＩＮ,,合同会社,埼玉県,入間市,豊岡１丁目３番２５号半田ビル２階ＫＩＶオフィス入間Ｆ号室,,11,225,3580003,,,,,,,2025-10-09,1,,,,,クイン,0
1344,5040001140852,新規,0,2025-10-09,2025-10-09,株式会社Ｌｉｐ　Ｋｎｏｔｓ,,株式会社,千葉県,千葉市中央区,仁戸名町２０７番地３２,,12,101,2600801,,,,,,,2025-10-09,1,,,,,リップノッツ,0
1345,5040001140885,新規,0,2025-10-09,2025-10-09,株式会社カイチグループ,,株式会社,千葉県,船橋市,旭町１丁目１１番３１号,,12,204,2730041,,,,,,,2025-10-09,1,,,,,カイチグループ,0
1346,5040001140893,新規,0,2025-10-09,2025-10-09,ＡＬ　ＹＡＳＩＲ株式会社,,株式会社,千葉県,印旛郡酒々井町,上本佐倉１５１番地２,,12,322,2850925,,,,,,,2025-10-09,1,,,,,アルヤセル,0
1354,5060001038665,新規,0,2025-10-09,2025-10-09,株式会社ＺＯＵＳＡＮ,,株式会社,栃木県,宇都宮市,江曽島町１３２４番地１４,,09,201,3210102,,,,,,,2025-10-09,1,,,,,ゾウサン,0
1355,5060001038673,新規,0,2025-10-09,2025-10-09,株式会社鶴見電気工業,,株式会社,栃木県,小山市,犬塚８丁目１６番地１６クレメントＢ２０３,,09,208,3230811,,,,,,,2025-10-09,1,,,,,ツルミデンキコクギョウ,0
1357,5070003006149,新規,0,2025-10-09,2025-10-09,合同会社ハクタ,,合同会社,群馬県,邑楽郡大泉町,坂田５丁目１２番８号,,10,524,3700532,,,,,,,2025-10-09,1,,,,,ハクタ,0
1358,5080001027204,新規,0,2025-10-09,2025-10-09,株式会社松島空調,,株式会社,静岡県,藤枝市,小石川町４丁目２１番３２号Ｂ棟,,22,214,4260033,,,,,,,2025-10-09,1,,,,,マツシマクウチョウ,0
1363,5080405007768,新規,0,2025-10-09,2025-10-09,柑橘就農支援事業協同組合,,その他の設立登記法人,静岡県,浜松市浜名区,都田町７７８５番地の１８,,22,139,4312102,,,,,,,2025-10-09,1,,,,,カンキツシュウノウシエン,0
1365,5090001019555,新規,0,2025-10-09,2025-10-09,株式会社ＧＢＫ,,株式会社,山梨県,南アルプス市,寺部１８５５番地４,,19,208,4000337,,,,,,,2025-10-09,1,,,,,ジービーケー,0
1371,5100003008430,新規,0,2025-10-09,2025-10-09,合同会社ＴｒｅＴ＆Ｃｏ．,,合同会社,長野県,北安曇郡松川村,５６８２番地１４,,20,482,3998501,,,,,,,2025-10-09,1,,,,,トレッティアンドカンパニー,0
1384,5120001280525,新規,0,2025-10-09,2025-10-09,Ｄ．Ｓ．Ｔ．株式会社,,株式会社,大阪府,大阪市天王寺区,生玉前町５番３１号アンビション三和ＩＩ７０１号,00141038,27,109,5430072,,,,,,,2025-10-09,1,,,,,ディーエスティー,0
1385,5120001280582,新規,0,2025-10-09,2025-10-09,株式会社ｇｌｏｂａｌ,,株式会社,大阪府,大阪市東淀川区,豊新５丁目１２番２９号,,27,114,5330014,,,,,,,2025-10-09,1,,,,,グローバル,0
1386,5120001280640,新規,0,2025-10-09,2025-10-09,株式会社ＲＹＵＳＥＩ,,株式会社,大阪府,大阪市生野区,中川西１丁目１７番１２号,,27,116,5440032,,,,,,,2025-10-09,1,,,,,リュウセイ,0
1387,5120001280649,新規,0,2025-10-09,2025-10-09,株式会社ちゃらこや,,株式会社,大阪府,枚方市,招提大谷３丁目２２番７号,,27,210,5731153,,,,,,,2025-10-09,1,,,,,チャラコヤ,0
1388,5120001280657,新規,0,2025-10-09,2025-10-09,株式会社ＪＯＪＯ　ＪＡＰＡＮ,,株式会社,大阪府,大阪市福島区,福島４丁目６番３１号機動ビル４Ａ号,,27,103,5530003,,,,,,,2025-10-09,1,,,,,ジョジョジャパン,0
1389,5120001280681,新規,0,2025-10-09,2025-10-09,株式会社上石田工務店,,株式会社,大阪府,寝屋川市,新家１丁目２４番２６号,,27,215,5720812,,,,,,,2025-10-09,1,,,,,カミイシダコウムテン,0
1390,5120001280707,新規,0,2025-10-09,2025-10-09,株式会社ＮＫクリーンサービス,,株式会社,大阪府,大阪市阿倍野区,昭和町２丁目３番６号,,27,119,5450011,,,,,,,2025-10-09,1,,,,,エヌケークリーンサービス,0
1392,5120003030952,新規,0,2025-10-09,2025-10-09,合同会社芙蓉,,合同会社,大阪府,大阪市旭区,新森３丁目２‐１８,,27,117,5350022,,,,,,,2025-10-09,1,,,,,フヨー,0
1394,5120101072558,新規,0,2025-10-09,2025-10-09,株式会社Ｖｅｒｔｅｘ,,株式会社,大阪府,泉大津市,池浦町１丁目３番２０号ソニア池浦４０１,,27,206,5950024,,,,,,,2025-10-09,1,,,,,ヴァーテックス,0
1395,5120101072566,新規,0,2025-10-09,2025-10-09,株式会社Ｍ’ｓ　ｗｏｒｋ,,株式会社,大阪府,堺市中区,福田４５３番地,,27,142,5998241,,,,,,,2025-10-09,1,,,,,エムズワーク,0
1396,5120101072574,新規,0,2025-10-09,2025-10-09,株式会社ケムステア,,株式会社,大阪府,堺市北区,長曽根町１１７９番地１０（３１０号）,,27,146,5918025,,,,,,,2025-10-09,1,,,,,ケムステア,0
1404,5122001039711,新規,0,2025-10-09,2025-10-09,株式会社ＴＫ　ＳＯＡＲ,,株式会社,大阪府,東大阪市,若江南町１丁目９番３２－３０５号,,27,227,5780943,,,,,,,2025-10-09,1,,,,,ティーケーソア,0
1405,5122003003343,新規,0,2025-10-09,2025-10-09,ＮＴＰＡ合同会社,,合同会社,大阪府,東大阪市,水走１丁目３－４５－２０５室,,27,227,5780921,,,,,,,2025-10-09,1,,,,,エヌティーピーエイ,0
1411,5130001080775,新規,0,2025-10-09,2025-10-09,ＴＳＫ　Ｔ‐Ａ株式会社,,株式会社,京都府,京都市上京区,下立売通日暮西入中村町５２１－３,,26,102,6028175,,,,,,,2025-10-09,1,,,,,タスクティーエイ,0
1412,5130005017476,新規,0,2025-10-09,2025-10-09,一般社団法人京都ビジコン,,その他の設立登記法人,京都府,京都市下京区,新町通四条下る四条町３４７－１ＣＵＢＥ西烏丸３Ｆ,,26,106,6008441,,,,,,,2025-10-09,1,,,,,キョウトビジコン,0
1419,5140001140223,新規,0,2025-10-09,2025-10-09,岸本商事株式会社,,株式会社,兵庫県,姫路市,四郷町東阿保１３９４番地２,,28,201,6710247,,,,,,,2025-10-09,1,,,,,キシモトショウジ,0
1420,5140001140289,新規,0,2025-10-09,2025-10-09,株式会社ＳＨＥＮＺＨＥＮ　ＢＥＩＫＵＥＲ　Ｔｅｃｈ,,株式会社,兵庫県,神戸市中央区,磯辺通１丁目１番１８号カサベラ国際プラザビル７０７号室,,28,110,6510084,,,,,,,2025-10-09,1,,,,,シンセンベイクーラーテック,0
1421,5140001140405,新規,0,2025-10-09,2025-10-09,株式会社ＢＬＯＣＫ　ＯＦ　ＦＬＡＴＳ　ＣＯＮＳ．,,株式会社,兵庫県,神戸市中央区,北長狭通３丁目２－１０キダビル３階,,28,110,6500012,,,,,,,2025-10-09,1,,,,,ブロックオブフラッツコンサルティング,0
1429,5150001028467,新規,0,2025-10-09,2025-10-09,株式会社Ｙ‐ＳＰＯＴ,,株式会社,奈良県,北葛城郡王寺町,王寺２丁目４番５－２０１号,,29,425,6360002,,,,,,,2025-10-09,1,,,,,ワイスポット,0
1431,5160001027105,新規,0,2025-10-09,2025-10-09,Ｆｒｅｅ　ｍ株式会社,,株式会社,滋賀県,湖南市,菩提寺北５丁目２番６号,,25,211,5203246,,,,,,,2025-10-09,1,,,,,フリーエム,0
1439,5180001168962,新規,0,2025-10-09,2025-10-09,株式会社ｓｙｎ,,株式会社,愛知県,日進市,五色園２丁目１１１３番地,,23,230,4700105,,,,,,,2025-10-09,1,,,,,シン,0
1440,5180001168979,新規,0,2025-10-09,2025-10-09,株式会社アイショウワーク,,株式会社,愛知県,長久手市,久保山２０９番地,,23,238,4801151,,,,,,,2025-10-09,1,,,,,アイショウワーク,0
1441,5180001169003,新規,0,2025-10-09,2025-10-09,株式会社睦月,,株式会社,愛知県,知多郡武豊町,字池田２丁目１３７番地４,,23,447,4702329,,,,,,,2025-10-09,1,,,,,ムツキ,0
1447,5180005021267,新規,0,2025-10-09,2025-10-09,一般社団法人愛知シニアサポート協会,,その他の設立登記法人,愛知県,名古屋市天白区,元植田１丁目１０７番地,,23,116,4680009,,,,,,,2025-10-09,1,,,,,アイチシニアサポートキョウカイ,0
1448,5180301040301,新規,0,2025-10-09,2025-10-09,株式会社鈴木書店,,株式会社,愛知県,西尾市,一色町一色中屋敷３８番地７,,23,213,4440423,,,,,,,2025-10-09,1,,,,,スズキショテン,0
1451,5200001044327,新規,0,2025-10-09,2025-10-09,株式会社プラネット６ｔｈ,,株式会社,岐阜県,岐阜市,加納長刀堀１丁目２８番地,,21,201,5008487,,,,,,,2025-10-09,1,,,,,プラネットシックス,0
1456,5200003007067,新規,0,2025-10-09,2025-10-09,合同会社わら癒,,合同会社,岐阜県,中津川市,高山２１４５番地２９,,21,206,5080204,,,,,,,2025-10-09,1,,,,,ワラユ,0
1457,5210001020351,新規,0,2025-10-09,2025-10-09,株式会社上昇乃海,,株式会社,福井県,敦賀市,泉ケ丘町３番地の１,,18,202,9140021,,,,,,,2025-10-09,1,,,,,ジョウショウノウミ,0
1464,5240005015997,新規,0,2025-10-09,2025-10-09,ヒロマツホールディングス社会保険労務士法人,,その他の設立登記法人,広島県,広島市中区,幟町１３番４号１２階,,34,101,7300016,,,,,,,2025-10-09,1,,,,,ヒロマツホールディングス,0
1467,5270001009307,新規,0,2025-10-09,2025-10-09,株式会社クコ,,株式会社,鳥取県,鳥取市,西町３丁目１０１番地２岸根ビル,,31,201,6800022,,,,,,,2025-10-09,1,,,,,クコ,0
1470,5290001111630,新規,0,2025-10-09,2025-10-09,株式会社Ｏｒｂｉｔｈ,,株式会社,福岡県,福岡市中央区,天神２丁目２番１２号Ｔ＆Ｊビルディング７Ｆ,,40,133,8100001,,,,,,,2025-10-09,1,,,,,オルビス,0
1471,5290001111639,新規,0,2025-10-09,2025-10-09,株式会社モアプラスステイ,,株式会社,福岡県,宗像市,自由ヶ丘２丁目８８２番地１３,,40,220,8114163,,,,,,,2025-10-09,1,,,,,モアプラスステイ,0
1475,5290803005187,新規,0,2025-10-09,2025-10-09,合同会社７１８,,合同会社,福岡県,北九州市小倉南区,中貫２丁目６番５号,,40,107,8000237,,,,,,,2025-10-09,1,,,,,ナナイチハチ,0
1477,5310001019821,新規,0,2025-10-09,2025-10-09,株式会社たびのコンパス,,株式会社,長崎県,五島市,吉田町６４３番地１,,42,211,8530042,,,,,,,2025-10-09,1,,,,,タビノコンパス,0
1481,5320001021363,新規,0,2025-10-09,2025-10-09,株式会社一興業,,株式会社,大分県,中津市,大字上如水２４８番地１,,44,203,8710004,,,,,,,2025-10-09,1,,,,,イチコウギョウ,0
1482,5320001021388,新規,0,2025-10-09,2025-10-09,ＴＵＮＡＧＵ株式会社,,株式会社,大分県,大分市,ひばりケ丘２丁目１番８号,,44,201,8701115,,,,,,,2025-10-09,1,,,,,ツナグ,0
1487,5330001033655,新規,0,2025-10-09,2025-10-09,日誠不動産株式会社,,株式会社,熊本県,熊本市中央区,桜町２番３７号５階Ｂ号室,,43,101,8600805,,,,,,,2025-10-09,1,,,,,ニッセイフドウサン,0
1496,5360003015310,新規,0,2025-10-09,2025-10-09,合同会社ＷＩＮ　ＳＰＡＣＥ,,合同会社,沖縄県,那覇市,久米２丁目２１－９,,47,201,9000033,,,,,,,2025-10-09,1,,,,,ウィンスペース,0
1497,5360003015319,新規,0,2025-10-09,2025-10-09,ＡＵＴＯ　ＰＡＲＴＳ合同会社,,合同会社,沖縄県,島尻郡久米島町,字比嘉１２０番地の１サウスガーデン１０５,,47,361,9013108,,,,,,,2025-10-09,1,,,,,オートパーツ,0
1501,5370003007323,新規,0,2025-10-09,2025-10-09,スタジオトライパッチ合同会社,,合同会社,宮城県,栗原市,栗駒岩ケ崎六日町３４,,04,213,9895301,,,,,,,2025-10-09,1,,,,,スタジオトライパッチ,0
1503,5380001035622,新規,0,2025-10-09,2025-10-09,東北総建株式会社,,株式会社,福島県,いわき市,小名浜岡小名３丁目１番地の２０,,07,204,9718151,,,,,,,2025-10-09,1,,,,,トウホクソウケン,0
1506,5390001018130,新規,0,2025-10-09,2025-10-09,株式会社黒坂興業,,株式会社,山形県,新庄市,若葉町３番１４号,,06,205,9960025,,,,,,,2025-10-09,1,,,,,クロサカコウギョウ,0
1509,5400003003541,新規,0,2025-10-09,2025-10-09,合同会社テーエスユアーズ,,合同会社,岩手県,滝沢市,穴口１４８番地１２１,,03,216,0200633,,,,,,,2025-10-09,1,,,,,テーエスユアーズ,0
1510,5410001014291,新規,0,2025-10-09,2025-10-09,株式会社ＫＴインヘリット,,株式会社,秋田県,秋田市,広面字蓮沼３１番地２,00141026,05,201,0100041,,,,,,,2025-10-09,1,,,,,ケーティーインヘリット,0
1514,5430003018165,新規,0,2025-10-09,2025-10-09,ナゴミリズム合同会社,,合同会社,北海道,札幌市南区,藤野五条２丁目８番１０号,,01,106,0612285,,,,,,,2025-10-09,1,,,,,ナゴミリズム,0
1517,5470001020929,新規,0,2025-10-09,2025-10-09,ネクション株式会社,,株式会社,香川県,高松市,観光町６１５－１クラール観光町Ａ２０３,,37,201,7600076,,,,,,,2025-10-09,1,,,,,ネクション,0
1520,5480001012974,新規,0,2025-10-09,2025-10-09,Ｂｅｙｅｌｌｅ株式会社,,株式会社,徳島県,徳島市,南昭和町１丁目１８－１０－２Ｆ,,36,201,7700944,,,,,,,2025-10-09,1,,,,,ビエル,0
1524,5490001011174,新規,0,2025-10-09,2025-10-09,徳久海産株式会社,00141037,株式会社,高知県,南国市,稲生１３１８番地,,39,204,7830084,,,,,,,2025-10-09,1,,,,,トクヒサカイサン,0
1525,5500001026567,新規,0,2025-10-09,2025-10-09,株式会社Ｋ’ｓサポート,,株式会社,愛媛県,松山市,枝松１丁目５番２５号,,38,201,7900962,,,,,,,2025-10-09,1,,,,,ケーズサポート,0
1538,6010001259174,新規,0,2025-10-09,2025-10-09,ルアンティップ株式会社,,株式会社,東京都,中央区,銀座６丁目１３番７号新保ビル７階,,13,102,1040061,,,,,,,2025-10-09,1,,,,,ルアンティップ,0
1541,6010003048971,新規,0,2025-10-09,2025-10-09,軽米風力発電合同会社,,合同会社,東京都,千代田区,内神田１丁目３番７号４０１あすな会計事務所内,,13,101,1010047,,,,,,,2025-10-09,1,,,,,カルマイフウリョクハツデン,0
1543,6010005040761,新規,0,2025-10-09,2025-10-09,一般社団法人Ｃｒｅｓｔ１,,その他の設立登記法人,東京都,中央区,日本橋１丁目４番１号,,13,102,1030027,,,,,,,2025-10-09,1,,,,,クレストワン,0
1557,6010401193510,新規,0,2025-10-09,2025-10-09,ＡＺＡＢＵ　ＤｅａｌＷｏｒｋｓ株式会社,,株式会社,東京都,港区,南麻布５丁目１２番１４号テラス有栖川３０２,,13,103,1060047,,,,,,,2025-10-09,1,,,,,アザブディールワークス,0
1558,6010401193576,新規,0,2025-10-09,2025-10-09,松本ホールディングス株式会社,,株式会社,東京都,港区,芝１丁目１５番３号ニューガイアリルーム芝Ｎｏ．２８－８０１,,13,103,1050014,,,,,,,2025-10-09,1,,,,,マツモトホールディングス,0
1564,6010505003648,新規,0,2025-10-09,2025-10-09,一般社団法人日本低空経済振興会,,その他の設立登記法人,東京都,台東区,台東１丁目１０番３号第９５新井ビル１階１０１,,13,106,1100016,,,,,,,2025-10-09,1,,,,,ニホンテイクウケイザイシンコウカイ,0
1567,6010601068099,新規,0,2025-10-09,2025-10-09,株式会社てへんにーし,,株式会社,東京都,江東区,東陽１丁目３１番３－１０４号,,13,108,1350016,,,,,,,2025-10-09,1,,,,,テヘンニーシ,0
1573,6010701048397,新規,0,2025-10-09,2025-10-09,株式会社クリスクアジア,,株式会社,東京都,品川区,東五反田５丁目２２番３７号,,13,109,1410022,,,,,,,2025-10-09,1,,,,,クリスクアジア,0
1576,6010703007954,新規,0,2025-10-09,2025-10-09,シンハライト合同会社,,合同会社,東京都,品川区,南大井１丁目９番５号ファースト・ステージ１０１,,13,109,1400013,,,,,,,2025-10-09,1,,,,,シンハライト,0
1587,6011001172474,新規,0,2025-10-09,2025-10-09,ＲｅＬＩＦＥＪＡＰＡＮ株式会社,,株式会社,東京都,渋谷区,東１丁目２７番７号,,13,113,1500011,,,,,,,2025-10-09,1,,,,,リライフジャパン,0
1588,6011001172499,新規,0,2025-10-09,2025-10-09,株式会社凛導,,株式会社,東京都,渋谷区,渋谷２丁目１９番１９号ワコー宮益坂ビル５階,,13,113,1500002,,,,,,,2025-10-09,1,,,,,リンドウ,0
1589,6011001172540,新規,0,2025-10-09,2025-10-09,株式会社ＡＫＩＮＡＦ,,株式会社,東京都,渋谷区,渋谷３丁目２－４帝都青山ビル第２ビル４Ｆ,,13,113,1500002,,,,,,,2025-10-09,1,,,,,アキナフ,0
1590,6011001172549,新規,0,2025-10-09,2025-10-09,ＤＲ　ＣＬＥＡＲ株式会社,,株式会社,東京都,渋谷区,神宮前６丁目２３番４号桑野ビル２階,,13,113,1500001,,,,,,,2025-10-09,1,,,,,ドクタークリア,0
1591,6011001172706,新規,0,2025-10-09,2025-10-09,株式会社ＳＨＩＲＯＫＡＺＥ,,株式会社,東京都,目黒区,青葉台３丁目１５番１７号ＦＡＲＯ中目黒１階,,13,110,1530042,,,,,,,2025-10-09,1,,,,,シロカゼ,0
1592,6011001172722,新規,0,2025-10-09,2025-10-09,株式会社神宝,,株式会社,東京都,目黒区,中町２丁目４４番９号,,13,110,1530065,,,,,,,2025-10-09,1,,,,,カンダカラ,0
1593,6011001172739,新規,0,2025-10-09,2025-10-09,株式会社Ｓｙｍｏａ,,株式会社,東京都,渋谷区,道玄坂１丁目１０番８号渋谷道玄坂東急ビル２Ｆ－Ｃ,,13,113,1500043,,,,,,,2025-10-09,1,,,,,シモア,0
1594,6011005011224,新規,0,2025-10-09,2025-10-09,社会保険労務士法人Ｇ．Ｃ　ＦＡＣＴＯＲＹ,,その他の設立登記法人,東京都,渋谷区,渋谷２丁目１６番１号,,13,113,1500002,,,,,,,2025-10-09,1,,,,,ジーシーファクトリー,0
1599,6011103016513,新規,0,2025-10-09,2025-10-09,Ｆｅａｔｈｅｒｈｅａｒｔ　Ｂｏｏｋｓ合同会社,,合同会社,東京都,新宿区,西新宿３丁目３番１３号西新宿水間ビル６階,,13,104,1600023,,,,,,,2025-10-09,1,,,,,フェザーハートブックス,0
1600,6011205002709,新規,0,2025-10-09,2025-10-09,マークストーン弁理士法人,,その他の設立登記法人,東京都,中野区,本町３丁目２９番１０号ヴェルティ中野２０２,,13,114,1640012,,,,,,,2025-10-09,1,,,,,マークストーン,0
1602,6011501032673,新規,0,2025-10-09,2025-10-09,シーザー株式会社,,株式会社,東京都,北区,浮間１丁目１番１４－３０３号,,13,117,1150051,,,,,,,2025-10-09,1,,,,,シーザー,0
1604,6011503006733,新規,0,2025-10-09,2025-10-09,合同会社マルベリーハウス,,合同会社,東京都,北区,上十条２丁目３番９号,,13,117,1140034,,,,,,,2025-10-09,1,,,,,マルベリーハウス,0
1605,6011601029058,新規,0,2025-10-09,2025-10-09,Ｒｅｆｉａ株式会社,,株式会社,東京都,練馬区,豊玉北２丁目１６番１４号,,13,120,1760012,,,,,,,2025-10-09,1,,,,,レフィア,0
1606,6011601029082,新規,0,2025-10-09,2025-10-09,株式会社ナナメウエ,,株式会社,東京都,練馬区,練馬１丁目１９番８号神谷ビル２０３号室,,13,120,1760001,,,,,,,2025-10-09,1,,,,,ナナメウエ,0
1608,6011801046670,新規,0,2025-10-09,2025-10-09,アルカリアル株式会社,,株式会社,東京都,足立区,鹿浜７丁目２２番１６－２０３号,,13,121,1230864,,,,,,,2025-10-09,1,,,,,アルカリアル,0
1609,6011801046844,新規,0,2025-10-09,2025-10-09,アスディカー株式会社,,株式会社,東京都,葛飾区,お花茶屋２丁目２番２０－１０７号コーポお花茶屋,,13,122,1240003,,,,,,,2025-10-09,1,,,,,アスディカー,0
1610,6011801046877,新規,0,2025-10-09,2025-10-09,株式会社ｗｉｓｔａｒｉａ,,株式会社,東京都,葛飾区,柴又２丁目１５番１－３０２号,,13,122,1250052,,,,,,,2025-10-09,1,,,,,ウィスタリア,0
1611,6011801046902,新規,0,2025-10-09,2025-10-09,株式会社ＦＩＳＨ,,株式会社,東京都,葛飾区,東立石１丁目１２番１６－６０２号,,13,122,1240013,,,,,,,2025-10-09,1,,,,,フィッシュ,0
1613,6012301014556,新規,0,2025-10-09,2025-10-09,株式会社ＡＳＹＮＣＨ,,株式会社,東京都,町田市,森野５丁目２１番地１渋谷ツインビル３０１号室,,13,209,1940022,,,,,,,2025-10-09,1,,,,,アシンク,0
1618,6012401043694,新規,0,2025-10-09,2025-10-09,佐藤設備株式会社,,株式会社,東京都,稲城市,平尾２丁目１１番地の３１,,13,225,2060823,,,,,,,2025-10-09,1,,,,,サトウセツビ,0
1621,6012803003899,新規,0,2025-10-09,2025-10-09,合同会社アウル,,合同会社,東京都,日野市,多摩平２丁目３番地の１２中央日石ビル４Ｆ,,13,212,1910062,,,,,,,2025-10-09,1,,,,,アウル,0
1633,6020001164992,新規,0,2025-10-09,2025-10-09,ベータテック株式会社,,株式会社,神奈川県,横浜市西区,北幸２丁目１０番４８号むつみビル３階,,14,103,2200004,,,,,,,2025-10-09,1,,,,,ベータテック,0
1634,6020001165231,新規,0,2025-10-09,2025-10-09,株式会社ＰｉｇｇｙＢａｎｋ,,株式会社,神奈川県,横浜市鶴見区,駒岡４丁目６番２６号,,14,101,2300071,,,,,,,2025-10-09,1,,,,,ピギーバンク,0
1635,6020001165248,新規,0,2025-10-09,2025-10-09,株式会社ＲＥＡＬ　ＥＳＴＡＴＥ　Ｋ２,,株式会社,神奈川県,横浜市金沢区,富岡東５丁目２１番７号,,14,108,2360051,,,,,,,2025-10-09,1,,,,,リアルエステートケーツー,0
1636,6020001165272,新規,0,2025-10-09,2025-10-09,ＫＴ‐ＬＩＮＥ株式会社,,株式会社,神奈川県,川崎市川崎区,浅田２丁目１番８号,,14,131,2100847,,,,,,,2025-10-09,1,,,,,ケイティーライン,0
1639,6020003029483,新規,0,2025-10-09,2025-10-09,合同会社ＰｒｏＡｉｄ,,合同会社,神奈川県,川崎市川崎区,浅田３丁目１２番３号,,14,131,2100847,,,,,,,2025-10-09,1,,,,,プロエイド,0
1640,6020003029541,新規,0,2025-10-09,2025-10-09,美樹商事合同会社,,合同会社,神奈川県,横浜市青葉区,青葉台１丁目２５番地２０,,14,117,2270062,,,,,,,2025-10-09,1,,,,,ミキショウジ,0
1644,6021003016645,新規,0,2025-10-09,2025-10-09,合同会社オーガナイズ,,合同会社,神奈川県,厚木市,旭町２丁目７－１８－３０７,,14,212,2430014,,,,,,,2025-10-09,1,,,,,オーガナイズ,0
1645,6021003016678,新規,0,2025-10-09,2025-10-09,合同会社Ｄａｐｈｎｅ,,合同会社,神奈川県,藤沢市,辻堂新町１丁目１番２号クロスポイント湘南５Ｆ,,14,205,2510042,,,,,,,2025-10-09,1,,,,,ダフネ,0
1650,6030001168893,新規,0,2025-10-09,2025-10-09,株式会社光鯉,,株式会社,埼玉県,所沢市,星の宮２丁目１０番５号,,11,208,3591127,,,,,,,2025-10-09,1,,,,,コウリ,0
1651,6030001168919,新規,0,2025-10-09,2025-10-09,株式会社べごにあ,,株式会社,埼玉県,所沢市,大字上安松１０２４番地８０,,11,208,3590025,,,,,,,2025-10-09,1,,,,,ベゴニア,0
1652,6030001169140,新規,0,2025-10-09,2025-10-09,株式会社アクレディア,,株式会社,埼玉県,蕨市,中央７丁目２２番３号,,11,223,3350004,,,,,,,2025-10-09,1,,,,,アクレディア,0
1653,6030001169157,新規,0,2025-10-09,2025-10-09,株式会社ＤＩＲ　ＳＥＲＶＩＣＥＳ,,株式会社,埼玉県,羽生市,西５丁目２－６,,11,216,3480054,,,,,,,2025-10-09,1,,,,,ディルサービシーズ,0
1660,6040001140843,新規,0,2025-10-09,2025-10-09,株式会社佐倉学舎,,株式会社,千葉県,佐倉市,井野１６０８－５８,,12,212,2850855,,,,,,,2025-10-09,1,,,,,サクラガクシャ,0
1661,6040001140892,新規,0,2025-10-09,2025-10-09,米アライブ株式会社,,株式会社,千葉県,富津市,大堀１丁目１５番地６,,12,226,2930001,,,,,,,2025-10-09,1,,,,,,0
1665,6040003028665,新規,0,2025-10-09,2025-10-09,ＪＥＳＭＩ合同会社,,合同会社,千葉県,富里市,御料９８８番地１８葉山ハイツ第１－１０２号,,12,233,2860211,,,,,,,2025-10-09,1,,,,,ジェスミ,0
1666,6040003028715,新規,0,2025-10-09,2025-10-09,合同会社エムエトレダース,,合同会社,千葉県,市原市,西国吉１７１９－３,,12,219,2900231,,,,,,,2025-10-09,1,,,,,エムエトレダース,0
1672,6070001043432,新規,0,2025-10-09,2025-10-09,株式会社ｓｏｅｌ,,株式会社,群馬県,前橋市,西片貝町５丁目１９－６ＥＡＳＴＳＴＲＥＥＴ北棟Ｅ号,,10,201,3710013,,,,,,,2025-10-09,1,,,,,ソエル,0
1677,6080001027203,新規,0,2025-10-09,2025-10-09,ことのわオフィス株式会社,,株式会社,静岡県,藤枝市,岡部町村良３６１番地の２,,22,214,4211124,,,,,,,2025-10-09,1,,,,,コトノワオフィス,0
1688,6100001039022,新規,0,2025-10-09,2025-10-09,ＧＬＯＢＡＬ　ＭＯＴＯＲ株式会社,,株式会社,長野県,東御市,八重原２９３４番地４,,20,219,3890406,,,,,,,2025-10-09,1,,,,,グローバルモーター,0
1697,6110005017270,新規,0,2025-10-09,2025-10-09,ＮＰＯ法人塩の道資料館,,その他の設立登記法人,新潟県,糸魚川市,大字山口５５２番地,,15,216,9490554,,,,,,,2025-10-09,1,,,,,シオノミチシリョウカン,0
1710,6120001280490,新規,0,2025-10-09,2025-10-09,鼎豊株式会社,,株式会社,大阪府,大阪市生野区,新今里３丁目９番２２号,,27,116,5440001,,,,,,,2025-10-09,1,,,,,テイホウ,0
1711,6120001280524,新規,0,2025-10-09,2025-10-09,株式会社Ｓｔａｙ　Ｌｉｎｋ　Ｊａｐａｎ,,株式会社,大阪府,大阪市港区,市岡元町３丁目４－４エトワール弁天１Ｆ,,27,107,5520002,,,,,,,2025-10-09,1,,,,,ステイリンクジャパン,0
1712,6120001280615,新規,0,2025-10-09,2025-10-09,明亜株式会社,,株式会社,大阪府,大阪市東住吉区,中野４丁目１番１６号リベラルオリエンテ中野７１１Ｂ,,27,121,5460012,,,,,,,2025-10-09,1,,,,,メイア,0
1713,6120001280895,新規,0,2025-10-09,2025-10-09,株式会社ＣＥＬＬ,,株式会社,大阪府,大阪市中央区,南久宝寺町４丁目５－１５－２０１,,27,128,5410058,,,,,,,2025-10-09,1,,,,,セル,0
1714,6120003030877,新規,0,2025-10-09,2025-10-09,ＫＡＲＮＡＬＩ　ＧＲＯＵＰ合同会社,,合同会社,大阪府,大阪市城東区,鴫野西５丁目２１番１５号ツインウェーブ２Ｆ,,27,118,5360014,,,,,,,2025-10-09,1,,,,,カルナクリグループ,0
1715,6120003030951,新規,0,2025-10-09,2025-10-09,合同会社インフィニティファクトリー,,合同会社,大阪府,大阪市北区,豊崎３丁目１６番１６‐５０８号,,27,127,5310072,,,,,,,2025-10-09,1,,,,,インフィニティファクトリー,0
1716,6120101072565,新規,0,2025-10-09,2025-10-09,株式会社木下工務店,,株式会社,大阪府,高石市,千代田４丁目７－２７,,27,225,5920005,,,,,,,2025-10-09,1,,,,,キノシタコウムテン,0
1717,6120101072615,新規,0,2025-10-09,2025-10-09,株式会社Ｇｅｅｆａ,,株式会社,大阪府,羽曳野市,はびきの６丁目５－１５,,27,222,5830872,,,,,,,2025-10-09,1,,,,,ジーファ,0
1720,6120901051603,新規,0,2025-10-09,2025-10-09,株式会社ＧＲＩＮＤ,,株式会社,大阪府,高槻市,高槻町１１番７号阪口ビル２０２号,,27,207,5690803,,,,,,,2025-10-09,1,,,,,グラインド,0
1721,6120903005887,新規,0,2025-10-09,2025-10-09,合同会社ＬＩＮＯ　ＷＯＲＫＳ,,合同会社,大阪府,豊中市,桜の町６丁目１６番１８－２０１号,,27,203,5600054,,,,,,,2025-10-09,1,,,,,リノワークス,0
1722,6122001039702,新規,0,2025-10-09,2025-10-09,株式会社詩友,,株式会社,大阪府,東大阪市,岩田町６丁目６番３号プレジデント東大阪第３棟１０３号室,,27,227,5780941,,,,,,,2025-10-09,1,,,,,ウタトモ,0
1730,6130001080725,新規,0,2025-10-09,2025-10-09,七星商事株式会社,,株式会社,京都府,亀岡市,大井町並河３丁目３１１,,26,206,6210013,,,,,,,2025-10-09,1,,,,,ナナホシショウジ,0
1734,6130005017475,新規,0,2025-10-09,2025-10-09,医療法人幸結会,,その他の設立登記法人,京都府,長岡京市,神足３丁目４番８号,,26,209,6170833,,,,,,,2025-10-09,1,,,,,コウユウカイ,0
1737,6140001140206,新規,0,2025-10-09,2025-10-09,井上商店株式会社,,株式会社,兵庫県,姫路市,飾磨区山崎２７９番地,,28,201,6728097,,,,,,,2025-10-09,1,,,,,イノウエショウテン,0
1738,6140001140214,新規,0,2025-10-09,2025-10-09,株式会社ＴＯＫ,,株式会社,兵庫県,西宮市,一里山町７番３－２０６号,,28,204,6638002,,,,,,,2025-10-09,1,,,,,ティーオーケー,0
1743,6160003003623,新規,0,2025-10-09,2025-10-09,Ｓｉｎｃｅｒｅ　Ｄｅｓｉｇｎ合同会社,,合同会社,滋賀県,守山市,大林町３８２番地の８５,,25,207,5240054,,,,,,,2025-10-09,1,,,,,シンシアデザイン,0
1758,6180001168953,新規,0,2025-10-09,2025-10-09,株式会社ａ‐ｌｅａｐ,,株式会社,愛知県,名古屋市中区,丸の内３丁目２３番２３号リエトコート丸の内１００６,,23,106,4600002,,,,,,,2025-10-09,1,,,,,エーリープ,0
1759,6180001168994,新規,0,2025-10-09,2025-10-09,Ｎサービス株式会社,,株式会社,愛知県,日進市,岩崎町竹ノ山５７番地,,23,230,4700131,,,,,,,2025-10-09,1,,,,,エヌサービス,0
1760,6180003029154,新規,0,2025-10-09,2025-10-09,北辰星合同会社,,合同会社,愛知県,名古屋市昭和区,八事富士見１５１８番地３０２号,,23,107,4660812,,,,,,,2025-10-09,1,,,,,ホクシンセイ,0
1761,6180005021274,新規,0,2025-10-09,2025-10-09,特定非営利活動法人Ｔｈｒｉｖｅ　Ｌａｔｅｒ,,その他の設立登記法人,愛知県,一宮市,千秋町佐野字強戸３３番地３,,23,203,4910804,,,,,,,2025-10-09,1,,,,,スライブレイター,0
1765,6180301040267,新規,0,2025-10-09,2025-10-09,株式会社ＴＲＵＮＫ,,株式会社,愛知県,安城市,桜井町茶屋坊２番地３,,23,212,4441154,,,,,,,2025-10-09,1,,,,,トランク,0
1766,6180301040317,新規,0,2025-10-09,2025-10-09,株式会社Ｄ‐Ｌｉｎｅ,,株式会社,愛知県,高浜市,田戸町４丁目７番地２０,,23,227,4441323,,,,,,,2025-10-09,1,,,,,ディーライン,0
1767,6190003005204,新規,0,2025-10-09,2025-10-09,ｐｒｉｍｅ　ｔｒａｄｉｎｇ合同会社,,合同会社,三重県,桑名市,多度町御衣野字石原１６２,,24,205,5110118,,,,,,,2025-10-09,1,,,,,プライムトレーディング,0
1768,6200001044326,新規,0,2025-10-09,2025-10-09,株式会社ディオニュソス,,株式会社,岐阜県,高山市,江名子町３２２７番地４,,21,203,5060818,,,,,,,2025-10-09,1,,,,,ディオニュソス,0
1774,6230001021132,新規,0,2025-10-09,2025-10-09,株式会社東亜海商,,株式会社,富山県,高岡市,末広町１４番１０号,,16,202,9330023,,,,,,,2025-10-09,1,,,,,トウアカイショウ,0
1779,6240005015996,新規,0,2025-10-09,2025-10-09,一般社団法人山下ファミリートラスト,,その他の設立登記法人,広島県,広島市中区,白島九軒町１５番９号,,34,101,7300003,,,,,,,2025-10-09,1,,,,,ヤマシタファミリートラスト,0
1780,6250001021378,新規,0,2025-10-09,2025-10-09,株式会社Ｎｅｘｕｓ　Ｏｎｅ,,株式会社,山口県,下関市,豊浦町大字涌田後地７３１番地,,35,201,7596317,,,,,,,2025-10-09,1,,,,,ネクサスワン,0
1781,6250001021394,新規,0,2025-10-09,2025-10-09,株式会社上宇部内装,,株式会社,山口県,宇部市,中村２丁目９番１５号,,35,202,7550072,,,,,,,2025-10-09,1,,,,,カミウベナイソウ,0
1783,6260001040633,新規,0,2025-10-09,2025-10-09,Ｄｅｖ．株式会社,,株式会社,岡山県,井原市,井原町４３０番地８,,33,207,7150019,,,,,,,2025-10-09,1,,,,,ディブ,0
1790,6290001111605,新規,0,2025-10-09,2025-10-09,株式会社ｍｏｏｎｌｉｔ,,株式会社,福岡県,福岡市中央区,平尾１丁目１３番２５－２０７号,,40,133,8100014,,,,,,,2025-10-09,1,,,,,ムーンリット,0
1792,6300003002354,新規,0,2025-10-09,2025-10-09,膳夢ｐｒｏｊｅｃｔ合同会社,,合同会社,佐賀県,鳥栖市,萱方町１５１番地５,,41,203,8410081,,,,,,,2025-10-09,1,,,,,ゼムプロジェクト,0
1793,6310001019820,新規,0,2025-10-09,2025-10-09,ダンレイホールディング株式会社,,株式会社,長崎県,長崎市,本河内３丁目６番３７号,,42,201,8500012,,,,,,,2025-10-09,1,,,,,ダンレイホールディング,0
1794,6310003005109,新規,0,2025-10-09,2025-10-09,合同会社五島さざなみ農園,,合同会社,長崎県,五島市,堤町字高巣向２２５１番,,42,211,8530044,,,,,,,2025-10-09,1,,,,,ゴトウサザナミノウエン,0
1797,6320003004794,新規,0,2025-10-09,2025-10-09,合同会社ファースト,,合同会社,大分県,大分市,東津留１丁目３番５－５０２号フロイデつる,,44,201,8700934,,,,,,,2025-10-09,1,,,,,ファースト,0
1807,6370001053104,新規,0,2025-10-09,2025-10-09,株式会社ポストポン,,株式会社,宮城県,仙台市青葉区,中央２丁目１１番１９号仙南ビル４階－Ａ,,04,101,9800021,,,,,,,2025-10-09,1,,,,,ポストポン,0
1809,6370003007322,新規,0,2025-10-09,2025-10-09,合同会社サンケーワン,,合同会社,宮城県,大崎市,古川穂波１丁目９番８号,,04,215,9896136,,,,,,,2025-10-09,1,,,,,サンケーワン,0
1813,6380001035621,新規,0,2025-10-09,2025-10-09,株式会社Ｂ・Ｆ・Ｆ,,株式会社,福島県,双葉郡楢葉町,大字上小塙字懐内７番２,,07,542,9790515,,,,,,,2025-10-09,1,,,,,ビーエフエフ,0
1814,6400001017195,新規,0,2025-10-09,2025-10-09,アークモバイル株式会社,,株式会社,岩手県,盛岡市,中ノ橋通２丁目８番２号,,03,201,0200871,,,,,,,2025-10-09,1,,,,,アークモバイル,0
1821,6410001014290,新規,0,2025-10-09,2025-10-09,株式会社Ｈｉｒａホールディングス,,株式会社,秋田県,にかほ市,院内字上杉山４２番地１,,05,214,0180411,,,,,,,2025-10-09,1,,,,,ヒラホールディングス,0
1823,6420001019289,新規,0,2025-10-09,2025-10-09,株式会社盛和商事,,株式会社,青森県,青森市,大字野内字山王林２２番地１－１０２号室,,02,201,0393503,,,,,,,2025-10-09,1,,,,,セイワショウジ,0
1837,6480001012973,新規,0,2025-10-09,2025-10-09,樹株式会社,,株式会社,徳島県,板野郡松茂町,広島字東裏４８番地１,,36,401,7710220,,,,,,,2025-10-09,1,,,,,イツキ,0
1850,7010001259066,新規,0,2025-10-09,2025-10-09,株式会社わんコメ,,株式会社,東京都,中央区,銀座１丁目１２番４号Ｎ＆Ｅ・ＢＬＤ．６Ｆ,,13,102,1040061,,,,,,,2025-10-09,1,,,,,ワンコメ,0
1851,7010001259223,新規,0,2025-10-09,2025-10-09,株式会社ＴＳＵＮＡＧＵ　ＡＳＳＥＴ,,株式会社,東京都,千代田区,神田小川町１丁目８番地３,,13,101,1010052,,,,,,,2025-10-09,1,,,,,ツナグアセット,0
1852,7010001259248,新規,0,2025-10-09,2025-10-09,株式会社ＳＰＥＣＴＲＯＮ,,株式会社,東京都,中央区,八重洲２丁目２－１東京ミッドタウン八重洲,,13,102,1040028,,,,,,,2025-10-09,1,,,,,スペクトロン,0
1853,7010001259256,新規,0,2025-10-09,2025-10-09,株式会社関東建物リサーチ,,株式会社,東京都,千代田区,平河町１丁目８番８－６０５号,,13,101,1020093,,,,,,,2025-10-09,1,,,,,カントウタテモノリサーチ,0
1854,7010003048979,新規,0,2025-10-09,2025-10-09,合同会社オールイン,,合同会社,東京都,千代田区,神田須田町１丁目７番１号ウィン神田高橋ビル６階Ｂ,,13,101,1010041,,,,,,,2025-10-09,1,,,,,オールイン,0
1856,7010101016895,新規,0,2025-10-09,2025-10-09,株式会社Ｍｙハウスクリーニング,,株式会社,東京都,八王子市,下柚木３丁目７番地６－１０３,,13,201,1920372,,,,,,,2025-10-09,1,,,,,マイハウスクリーニング,0
1866,7010401193492,新規,0,2025-10-09,2025-10-09,株式会社ＢＲＡＶＥ,,株式会社,東京都,港区,麻布十番２丁目２０番１０－１００１号,,13,103,1060045,,,,,,,2025-10-09,1,,,,,ブレイブ,0
1869,7010403036261,新規,0,2025-10-09,2025-10-09,合同会社Ｔａｂｂｙ　Ｌｉｆｅ,,合同会社,東京都,港区,芝浦１丁目１０番１－１３０６号,,13,103,1050023,,,,,,,2025-10-09,1,,,,,タビーライフ,0
1878,7010501054801,新規,0,2025-10-09,2025-10-09,大金五九管理株式会社,,株式会社,東京都,台東区,小島２丁目２０－６ＦＡＢＲＩＣ新御徒町Ｒｅｓｉｄｅｎｃｅ３階,,13,106,1110056,,,,,,,2025-10-09,1,,,,,ダイキンゴキュウカンリ,0
1879,7010503008029,新規,0,2025-10-09,2025-10-09,ホリーグリーン合同会社,,合同会社,東京都,台東区,谷中３丁目６番１６－５０５号,,13,106,1100001,,,,,,,2025-10-09,1,,,,,ホリーグリーン,0
1881,7010601068032,新規,0,2025-10-09,2025-10-09,株式会社ＴｅｃｔｏｒＩ,,株式会社,東京都,墨田区,文花１丁目１８‐１３,,13,107,1310044,,,,,,,2025-10-09,1,,,,,テクトリ,0
1882,7010603011849,新規,0,2025-10-09,2025-10-09,ＥＢＩ合同会社,,合同会社,東京都,墨田区,菊川３丁目１４番６号－６０３,,13,107,1300024,,,,,,,2025-10-09,1,,,,,イービーアイ,0
1883,7010701048446,新規,0,2025-10-09,2025-10-09,株式会社Ｒ２エデュケーション,,株式会社,東京都,品川区,西中延１丁目９番２２号,,13,109,1420054,,,,,,,2025-10-09,1,,,,,アールツーエデュケーション,0
1897,7011001172473,新規,0,2025-10-09,2025-10-09,東塗株式会社,,株式会社,東京都,渋谷区,東１丁目２７番７号,,13,113,1500011,,,,,,,2025-10-09,1,,,,,トウト,0
1898,7011001172515,新規,0,2025-10-09,2025-10-09,株式会社ＫＴＳプランニング,,株式会社,東京都,渋谷区,恵比寿南３丁目１番２３－９０５号パークリュクス恵比寿,,13,113,1500022,,,,,,,2025-10-09,1,,,,,ケーティーエスプランニング,0
1899,7011001172548,新規,0,2025-10-09,2025-10-09,エンブリッジ株式会社,,株式会社,東京都,渋谷区,道玄坂１丁目１２番１号渋谷マークシティＷ２２階,,13,113,1500043,,,,,,,2025-10-09,1,,,,,エンブリッジ,0
1900,7011001172630,新規,0,2025-10-09,2025-10-09,ＡＬアセット株式会社,,株式会社,東京都,渋谷区,神南１丁目１１－４ＦＰＧリンクス神南５階,,13,113,1500041,,,,,,,2025-10-09,1,,,,,エーエルアセット,0
1901,7011001172671,新規,0,2025-10-09,2025-10-09,株式会社Ｙａｒｎ　Ｔｏｋｙｏ,,株式会社,東京都,渋谷区,渋谷１丁目８番６号宮益坂ＳＴビル６０４号室,,13,113,1500002,,,,,,,2025-10-09,1,,,,,ヤーントウキョウ,0
1902,7011001172705,新規,0,2025-10-09,2025-10-09,株式会社ジマーク,,株式会社,東京都,渋谷区,東１丁目２１－７,,13,113,1500011,,,,,,,2025-10-09,1,,,,,ジマーク,0
1903,7011001172746,新規,0,2025-10-09,2025-10-09,株式会社マイルストーン,,株式会社,東京都,渋谷区,道玄坂１丁目１０番８号,,13,113,1500043,,,,,,,2025-10-09,1,,,,,マイルストーン,0
1904,7011001173067,新規,0,2025-10-09,2025-10-09,株式会社ｒｏｃｋ,,株式会社,東京都,渋谷区,神宮前６丁目１８番１４号,,13,113,1500001,,,,,,,2025-10-09,1,,,,,ロック,0
1905,7011001173117,新規,0,2025-10-09,2025-10-09,株式会社ステリ・オラ,,株式会社,東京都,渋谷区,神泉町１０番１５号アネックス神泉３０１,,13,113,1500045,,,,,,,2025-10-09,1,,,,,ステリオラ,0
1908,7011003022610,新規,0,2025-10-09,2025-10-09,合同会社ステラ,,合同会社,東京都,目黒区,大橋２丁目８番１８号,,13,110,1530044,,,,,,,2025-10-09,1,,,,,ステラ,0
1909,7011003022742,新規,0,2025-10-09,2025-10-09,ＳｏｒａＲａｙ合同会社,,合同会社,東京都,目黒区,上目黒４丁目２番１－１０２号,,13,110,1530051,,,,,,,2025-10-09,1,,,,,ソラレイ,0
1915,7011101113484,新規,0,2025-10-09,2025-10-09,株式会社ミユキ,,株式会社,東京都,新宿区,歌舞伎町２丁目２番１１号ライオンズマンション歌舞伎町第３－１０２号室,,13,104,1600021,,,,,,,2025-10-09,1,,,,,ミユキ,0
1917,7011103016495,新規,0,2025-10-09,2025-10-09,ＬｙｆｅＬｉｎｋ合同会社,,合同会社,東京都,新宿区,大久保３丁目８番１－２０１４号,,13,104,1690072,,,,,,,2025-10-09,1,,,,,ライフリンク,0
1920,7011203004846,新規,0,2025-10-09,2025-10-09,粉骨砕身合同会社,,合同会社,東京都,中野区,大和町１丁目６１番５号,,13,114,1650034,,,,,,,2025-10-09,1,,,,,,0
1922,7011501032664,新規,0,2025-10-09,2025-10-09,株式会社アナテラス,,株式会社,東京都,荒川区,南千住１丁目１５番７－２０５号,,13,118,1160003,,,,,,,2025-10-09,1,,,,,アナテラス,0
1923,7011601029032,新規,0,2025-10-09,2025-10-09,株式会社ユミノール,,株式会社,東京都,練馬区,上石神井４丁目４番３号,,13,120,1770044,,,,,,,2025-10-09,1,,,,,ユミノール,0
1924,7011601029065,新規,0,2025-10-09,2025-10-09,株式会社スイートホーム,,株式会社,東京都,練馬区,春日町６丁目１６番１１号フォーチュン光が丘２９７号室,,13,120,1790074,,,,,,,2025-10-09,1,,,,,スイートホーム,0
1926,7011701028826,新規,0,2025-10-09,2025-10-09,印築国際株式会社,,株式会社,東京都,江戸川区,東小岩６丁目３３－１８ＺＫＹビル３０２号室,,13,123,1330052,,,,,,,2025-10-09,1,,,,,インチクコクサイ,0
1928,7011801046901,新規,0,2025-10-09,2025-10-09,株式会社彌榮,,株式会社,東京都,足立区,関原３丁目７番１１号,,13,121,1230852,,,,,,,2025-10-09,1,,,,,ヤサカ,0
1930,7012401043693,新規,0,2025-10-09,2025-10-09,株式会社ぴゅんカンパニー,,株式会社,東京都,武蔵野市,中町１丁目２１番１０号奥野ビル１Ｆ,,13,203,1800006,,,,,,,2025-10-09,1,,,,,ピュンカンパニー,0
1938,7020001165288,新規,0,2025-10-09,2025-10-09,フードバトンズ株式会社,,株式会社,神奈川県,横浜市港北区,日吉本町２丁目５番６号,,14,109,2230062,,,,,,,2025-10-09,1,,,,,フードバトンズ,0
1941,7020003029466,新規,0,2025-10-09,2025-10-09,港南コンサルティング合同会社,,合同会社,神奈川県,横浜市中区,住吉町３丁目２８番地新井ビル４１０,,14,104,2310013,,,,,,,2025-10-09,1,,,,,コウナンコンサルティング,0
1942,7020003029540,新規,0,2025-10-09,2025-10-09,合同会社キャリアエステート,,合同会社,神奈川県,横浜市鶴見区,鶴見中央４丁目２９番１７号第１０下川ビル８０２号室,,14,101,2300051,,,,,,,2025-10-09,1,,,,,キャリアエステート,0
1947,7021001086425,新規,0,2025-10-09,2025-10-09,株式会社ＫＦＣ,,株式会社,神奈川県,厚木市,まつかげ台４１番３号,,14,212,2430207,,,,,,,2025-10-09,1,,,,,ケイエフシー,0
1949,7021003016660,新規,0,2025-10-09,2025-10-09,合同会社わんごころ,,合同会社,神奈川県,大和市,西鶴間１丁目６番１２号ホーユウパレス南林間第２－４０１,,14,213,2420005,,,,,,,2025-10-09,1,,,,,ワンゴコロ,0
1957,7030001169131,新規,0,2025-10-09,2025-10-09,アイジスファミリーオフィス株式会社,,株式会社,埼玉県,さいたま市緑区,美園１丁目２９番地５,,11,109,3360967,,,,,,,2025-10-09,1,,,,,アイジスファミリーオフィス,0
1958,7030001169148,新規,0,2025-10-09,2025-10-09,株式会社Ｋａｓａｎａｌｉ,,株式会社,埼玉県,上尾市,向山３丁目５０番地２０,,11,219,3620045,,,,,,,2025-10-09,1,,,,,カサナリ,0
1962,7030003027766,新規,0,2025-10-09,2025-10-09,合同会社嘉宜企業,,合同会社,埼玉県,越谷市,東越谷１丁目１番１号共生第一ビル２０８,,11,222,3430023,,,,,,,2025-10-09,1,,,,,カヨキギョウ,0
1963,7030003027832,新規,0,2025-10-09,2025-10-09,合同会社インフィニティ,,合同会社,埼玉県,新座市,畑中１丁目１１－４７,,11,230,3520012,,,,,,,2025-10-09,1,,,,,インフィニティ,0
1966,7040001140603,新規,0,2025-10-09,2025-10-09,Ｊ．Ｇ．Ｓ　ＴＲＡＤＩＮＧ株式会社,,株式会社,千葉県,野田市,船形４７５２－１０,,12,208,2700233,,,,,,,2025-10-09,1,,,,,ジェージーエストレーディング,0
1967,7040001140891,新規,0,2025-10-09,2025-10-09,株式会社ＫＹＫ,,株式会社,千葉県,千葉市花見川区,検見川町３丁目３２１番地１５クロチェヴィーア１０３号,,12,102,2620023,,,,,,,2025-10-09,1,,,,,ケイワイケイ,0
1968,7040003028730,新規,0,2025-10-09,2025-10-09,ＭＩＳＥＫＵＲＵ工房合同会社,,合同会社,千葉県,山武市,蓮沼ハ５５６５番地４,,12,237,2891806,,,,,,,2025-10-09,1,,,,,ミセクルコウボウ,0
1969,7040003028788,新規,0,2025-10-09,2025-10-09,クリアボルト合同会社,,合同会社,千葉県,千葉市花見川区,千種町１０７番地２７,,12,102,2620012,,,,,,,2025-10-09,1,,,,,クリアボルト,0
1970,7050001057350,新規,0,2025-10-09,2025-10-09,株式会社ＷＩＴＬ,,株式会社,茨城県,東茨城郡大洗町,磯浜町２２６７番地の２７ＦＫＫ２０１,,08,309,3111301,,,,,,,2025-10-09,1,,,,,ダブリューアイティーエル,0
1973,7060001038663,新規,0,2025-10-09,2025-10-09,株式会社プラスエンゼルセンター,,株式会社,栃木県,栃木市,大平町下皆川２０１１番地３,,09,203,3294406,,,,,,,2025-10-09,1,,,,,プラスエンゼルセンター,0
1974,7060001038671,新規,0,2025-10-09,2025-10-09,東栄メタルワークス株式会社,,株式会社,栃木県,小山市,大字横倉７９１番地９,,09,208,3230813,,,,,,,2025-10-09,1,,,,,トウエイメタルワークス,0
1975,7060005010379,新規,0,2025-10-09,2025-10-09,一般社団法人つむぐ,,その他の設立登記法人,栃木県,真岡市,荒町５１３１番地,,09,209,3214305,,,,,,,2025-10-09,1,,,,,ツムグ,0
1992,7110001039607,新規,0,2025-10-09,2025-10-09,株式会社山賀美,,株式会社,新潟県,三条市,三柳３番１７号,,15,204,9550015,,,,,,,2025-10-09,1,,,,,ヤマガミ,0
1993,7110001039631,新規,0,2025-10-09,2025-10-09,小林鉄工株式会社,,株式会社,新潟県,長岡市,城岡３丁目３番１７号,,15,202,9400021,,,,,,,2025-10-09,1,,,,,コバヤシテッコウ,0
2003,7120001280515,新規,0,2025-10-09,2025-10-09,株式会社美和商店,,株式会社,大阪府,大阪市生野区,小路東１丁目６番２５号,,27,116,5440003,,,,,,,2025-10-09,1,,,,,ミファショウテン,0
2004,7120001280572,新規,0,2025-10-09,2025-10-09,ＰＦ物産株式会社,,株式会社,大阪府,大阪市生野区,新今里３丁目３番２１号,,27,116,5440001,,,,,,,2025-10-09,1,,,,,ピーエフブッサン,0
2005,7120001280639,新規,0,2025-10-09,2025-10-09,株式会社Ｏｔｔｏｏｏ,,株式会社,大阪府,大阪市中央区,難波千日前１４番２号,,27,128,5420075,,,,,,,2025-10-09,1,,,,,オットー,0
2006,7120001280663,新規,0,2025-10-09,2025-10-09,株式会社義,,株式会社,大阪府,大阪市東淀川区,東中島１丁目２１番３１－２０２号,,27,114,5330033,,,,,,,2025-10-09,1,,,,,ヨシ,0
2007,7120003030884,新規,0,2025-10-09,2025-10-09,合同会社白金水晶,,合同会社,大阪府,大阪市北区,本庄西１丁目３番２２号,,27,127,5310073,,,,,,,2025-10-09,1,,,,,シロカネスイショウ,0
2009,7120101072580,新規,0,2025-10-09,2025-10-09,株式会社ＲｅＰｉｃｋ,,株式会社,大阪府,堺市南区,槇塚台２丁１７番２８号,,27,145,5900114,,,,,,,2025-10-09,1,,,,,リピック,0
2010,7120101072597,新規,0,2025-10-09,2025-10-09,玄創株式会社,,株式会社,大阪府,堺市北区,南花田町４１７番３－２１４号,,27,146,5918011,,,,,,,2025-10-09,1,,,,,ゲンソウ,0
2017,7122001039726,新規,0,2025-10-09,2025-10-09,株式会社ＴＭビルド,,株式会社,大阪府,八尾市,竹渕３丁目１７１番地高田貸倉庫Ｎｏ．西４号,,27,212,5810052,,,,,,,2025-10-09,1,,,,,ティエムビルド,0
2018,7122003003341,新規,0,2025-10-09,2025-10-09,Ｐｌａｔｉｎｕｍ　Ａｕｔｏ合同会社,,合同会社,大阪府,東大阪市,荒川３丁目１５－２６センチュリーシティ荒川２０１,,27,227,5770843,,,,,,,2025-10-09,1,,,,,プラチナムオート,0
2024,7140001140213,新規,0,2025-10-09,2025-10-09,株式会社Ｋ　ｏｆｆｉｃｅ,,株式会社,兵庫県,西宮市,南甲子園１丁目９番３－７３３号,,28,204,6638153,,,,,,,2025-10-09,1,,,,,ケイオフィス,0
2030,7140003022657,新規,0,2025-10-09,2025-10-09,ＷＡＹＥＳカスタム家具合同会社,,合同会社,兵庫県,神戸市東灘区,甲南町４丁目１－３０ドムールコスモス甲南町１０５号室,,28,101,6580084,,,,,,,2025-10-09,1,,,,,ウェイズカスタムカグ,0
2034,7160001027103,新規,0,2025-10-09,2025-10-09,株式会社エムテック,,株式会社,滋賀県,東近江市,五個荘竜田町１４９番地３,,25,213,5291421,,,,,,,2025-10-09,1,,,,,エムテック,0
2039,7180001168977,新規,0,2025-10-09,2025-10-09,鉄絢屋株式会社,,株式会社,愛知県,大府市,北崎町井田１０６番地３,,23,223,4740001,,,,,,,2025-10-09,1,,,,,カネケンヤ,0
2040,7180001168985,新規,0,2025-10-09,2025-10-09,株式会社Ｍ’ｓＦａｃｉｌｉｔｙ,,株式会社,愛知県,名古屋市中川区,畑田町３丁目３６番地の２,,23,110,4540860,,,,,,,2025-10-09,1,,,,,エムズファシリティ,0
2054,7200001044325,新規,0,2025-10-09,2025-10-09,株式会社アキケン,,株式会社,岐阜県,可児市,桜ケ丘３丁目１３０番地,,21,214,5090235,,,,,,,2025-10-09,1,,,,,アキケン,0
2055,7200001044333,新規,0,2025-10-09,2025-10-09,株式会社Ｒｅｌａｔｉｏｎ,,株式会社,岐阜県,岐阜市,岩地２丁目２１番１６－１号,,21,201,5008225,,,,,,,2025-10-09,1,,,,,リレーション,0
2056,7230001021131,新規,0,2025-10-09,2025-10-09,株式会社邪美兎,,株式会社,富山県,富山市,西新庄９５番１号,,16,201,9300981,,,,,,,2025-10-09,1,,,,,ジャビット,0
2059,7250001021385,新規,0,2025-10-09,2025-10-09,株式会社おうぎ電機,,株式会社,山口県,下関市,豊浦町大字川棚６６８６番地７,,35,201,7596301,,,,,,,2025-10-09,1,,,,,オウギデンキ,0
2062,7270001009305,新規,0,2025-10-09,2025-10-09,株式会社みやもと電気設備,,株式会社,鳥取県,米子市,陰田町２２３番地１,,31,202,6830027,,,,,,,2025-10-09,1,,,,,ミヤモトデンキセツビ,0
2076,7290001111554,新規,0,2025-10-09,2025-10-09,株式会社ｍｏｒｉｍａｃｈｉ,,株式会社,福岡県,福岡市東区,筥松２丁目２８番３５－４０３号,,40,131,8120061,,,,,,,2025-10-09,1,,,,,モリマチ,0
2077,7290001111570,新規,0,2025-10-09,2025-10-09,株式会社結恵,,株式会社,福岡県,うきは市,吉井町鷹取４８番地５,,40,225,8391343,,,,,,,2025-10-09,1,,,,,ユエ,0
2078,7290001111579,新規,0,2025-10-09,2025-10-09,和光株式会社,,株式会社,福岡県,福岡市西区,小戸４丁目１９－８－６０８,,40,135,8190001,,,,,,,2025-10-09,1,,,,,ワコウ,0
2079,7290001111612,新規,0,2025-10-09,2025-10-09,株式会社Ｗ,,株式会社,福岡県,福岡市早良区,飯倉３丁目４５－１７ファミールハピネス原２０４号室,,40,137,8140161,,,,,,,2025-10-09,1,,,,,ダブル,0
2080,7290001111835,新規,0,2025-10-09,2025-10-09,光兼土地建物株式会社,,株式会社,福岡県,古賀市,青柳７６７番地,,40,223,8113134,,,,,,,2025-10-09,1,,,,,コウケントチタテモノ,0
2082,7290003017469,新規,0,2025-10-09,2025-10-09,Ｔｈｅ　Ｊｏｌｌｙ　Ｔｒａｖｅｌｌｅｒ合同会社,,合同会社,福岡県,久留米市,天神町一丁目１米城ビルディング９Ｆ,,40,203,8300033,,,,,,,2025-10-09,1,,,,,ザジョリートラベラー,0
2083,7290003017502,新規,0,2025-10-09,2025-10-09,合同会社学楽舎,,合同会社,福岡県,朝倉市,杷木志波４６２５番地４,,40,228,8381521,,,,,,,2025-10-09,1,,,,,ガクガクシャ,0
2086,7290801031935,新規,0,2025-10-09,2025-10-09,株式会社楓椛,,株式会社,福岡県,北九州市小倉北区,竪林町５番１０号,,40,106,8030855,,,,,,,2025-10-09,1,,,,,フウカ,0
2089,7310003005108,新規,0,2025-10-09,2025-10-09,合同会社ＮＡＫＡＮＯ,,合同会社,長崎県,西彼杵郡長与町,高田郷２２０８番地１２６,,42,307,8512127,,,,,,,2025-10-09,1,,,,,ナカノ,0
2092,7340001027712,新規,0,2025-10-09,2025-10-09,ｎａｎａＬＡ株式会社,,株式会社,鹿児島県,枕崎市,岩崎町４４７番地,,46,204,8980052,,,,,,,2025-10-09,1,,,,,ナナラ,0
2093,7350003005038,新規,0,2025-10-09,2025-10-09,合同会社萬天,,合同会社,宮崎県,東諸県郡綾町,大字南俣１３０番地１０,,45,383,8801303,,,,,,,2025-10-09,1,,,,,マンテン,0
2094,7360001035903,新規,0,2025-10-09,2025-10-09,株式会社大電,,株式会社,沖縄県,沖縄市,字松本１００８番地１,,47,211,9042151,,,,,,,2025-10-09,1,,,,,ダイデン,0
2097,7360003015317,新規,0,2025-10-09,2025-10-09,合同会社剛健,,合同会社,沖縄県,島尻郡南風原町,字兼城４３番地３,,47,350,9011111,,,,,,,2025-10-09,1,,,,,ゴウケン,0
2099,7370003007321,新規,0,2025-10-09,2025-10-09,合同会社スーパーブルー,,合同会社,宮城県,岩沼市,字西六角５８番地の１,,04,211,9892446,,,,,,,2025-10-09,1,,,,,スーパーブルー,0
2103,7380001035612,新規,0,2025-10-09,2025-10-09,株式会社ソア・スマイル,,株式会社,福島県,いわき市,平字作町一丁目１番地の１４,,07,204,9708026,,,,,,,2025-10-09,1,,,,,ソアスマイル,0
2104,7380001035620,新規,0,2025-10-09,2025-10-09,株式会社ＣＭＴ,,株式会社,福島県,福島市,曽根田町４番９号,,07,201,9608051,,,,,,,2025-10-09,1,,,,,シーエムティー,0
2111,7390001018129,新規,0,2025-10-09,2025-10-09,株式会社まちあかり,,株式会社,山形県,鶴岡市,神明町５番６８号,,06,203,9970811,,,,,,,2025-10-09,1,,,,,マチアカリ,0
2112,7400001017194,新規,0,2025-10-09,2025-10-09,アークゴルフ株式会社,,株式会社,岩手県,盛岡市,中ノ橋通２丁目８番２号,,03,201,0200871,,,,,,,2025-10-09,1,,,,,アークゴルフ,0
2116,7410003004165,新規,0,2025-10-09,2025-10-09,合同会社夢の彼方,,合同会社,秋田県,秋田市,新屋松美町４番１１号アートメゾン光１０１号室,,05,201,0101604,,,,,,,2025-10-09,1,,,,,ユメノカナタ,0
2122,7430001095378,新規,0,2025-10-09,2025-10-09,株式会社ＳＡＹＥＤ　ＴＲＡＤＩＮＧ,,株式会社,北海道,江別市,美原１１６４番地の２,,01,217,0670056,,,,,,,2025-10-09,1,,,,,サイエドトレイディング,0
2126,7470001020927,新規,0,2025-10-09,2025-10-09,株式会社ＥＭＡＴＡ,,株式会社,香川県,高松市,瓦町２丁目３番地６,,37,201,7600052,,,,,,,2025-10-09,1,,,,,エマタ,0
2127,7470005006658,新規,0,2025-10-09,2025-10-09,特定非営利活動法人さぬき歴史と街の会,,その他の設立登記法人,香川県,高松市,西宝町２丁目１１番１６－４０４号労住協第１４ビル,,37,201,7600004,,,,,,,2025-10-09,1,,,,,サヌキレキシトマチノカイ,0
2128,7480003002336,新規,0,2025-10-09,2025-10-09,幸投資合同会社,,合同会社,徳島県,阿南市,羽ノ浦町岩脇姥ケ原４２番地１,,36,204,7791106,,,,,,,2025-10-09,1,,,,,ユキトウシ,0
2130,7490001011172,新規,0,2025-10-09,2025-10-09,株式会社トサラボ,,株式会社,高知県,高知市,桜馬場８番１５号フレンズビル２Ｆ,,39,201,7800929,,,,,,,2025-10-09,1,,,,,トサラボ,0
2142,8010001259024,新規,0,2025-10-09,2025-10-09,株式会社ＥｔｅｒｎａＬｉｎｋｓ,,株式会社,東京都,中央区,晴海５丁目４番２－１００６号,,13,102,1040053,,,,,,,2025-10-09,1,,,,,エテルナリンクス,0
2143,8010001259271,新規,0,2025-10-09,2025-10-09,ノム・アセット株式会社,,株式会社,東京都,中央区,京橋２丁目５番２号Ａ・Ｍ京橋ビル８階,,13,102,1040031,,,,,,,2025-10-09,1,,,,,ノムアセット,0
2155,8010403036236,新規,0,2025-10-09,2025-10-09,合同会社ＣＡＴＨＡＲＳＩＳ,,合同会社,東京都,港区,西麻布４丁目１１－２９,,13,103,1060031,,,,,,,2025-10-09,1,,,,,カタルシス,0
2158,8010503008028,新規,0,2025-10-09,2025-10-09,ＮＯＶＡ合同会社,,合同会社,東京都,台東区,蔵前２丁目７－６ｌｉｖｅｃａｓａ蔵前１０１,,13,106,1110051,,,,,,,2025-10-09,1,,,,,ノヴァー,0
2159,8010601068097,新規,0,2025-10-09,2025-10-09,エム・ウェルスクリエーション株式会社,,株式会社,東京都,江東区,亀戸５丁目４番９号,,13,108,1360071,,,,,,,2025-10-09,1,,,,,エムウェルスクリエーション,0
2160,8010603011823,新規,0,2025-10-09,2025-10-09,合同会社ルミナス,,合同会社,東京都,江東区,北砂３丁目３１番１９,,13,108,1360073,,,,,,,2025-10-09,1,,,,,ルミナス,0
2161,8010603011856,新規,0,2025-10-09,2025-10-09,合同会社新誠パートナーズ,,合同会社,東京都,江東区,佐賀２丁目１０番１０－１０３号,,13,108,1350031,,,,,,,2025-10-09,1,,,,,シンセイパートナーズ,0
2163,8010703007952,新規,0,2025-10-09,2025-10-09,ＭＨＣＢ　Ａｓｓｅｔ合同会社,,合同会社,東京都,品川区,西五反田３丁目３番２号,,13,109,1410031,,,,,,,2025-10-09,1,,,,,エムエイチシービーアセット,0
2170,8010901058228,新規,0,2025-10-09,2025-10-09,パイナップルカンパニー株式会社,,株式会社,東京都,世田谷区,三宿２丁目１１番２７号４０５,,13,112,1540005,,,,,,,2025-10-09,1,,,,,パイナップルカンパニー,0
2176,8011001172539,新規,0,2025-10-09,2025-10-09,株式会社ＮｅｘｔＧａｉｎｓ,,株式会社,東京都,渋谷区,神南１丁目１１－４ＦＰＧリンクス神南５階,,13,113,1500041,,,,,,,2025-10-09,1,,,,,ネクストゲインズ,0
2177,8011001172662,新規,0,2025-10-09,2025-10-09,株式会社ｏｔｉｓ,,株式会社,東京都,渋谷区,広尾１丁目１０番５号,,13,113,1500012,,,,,,,2025-10-09,1,,,,,オーティス,0
2178,8011001172720,新規,0,2025-10-09,2025-10-09,株式会社ソルト,,株式会社,東京都,渋谷区,道玄坂１丁目１０番８号,,13,113,1500043,,,,,,,2025-10-09,1,,,,,ソルト,0
2179,8011001172927,新規,0,2025-10-09,2025-10-09,ＳＡＩＮＯＭＥ株式会社,,株式会社,東京都,渋谷区,千駄ヶ谷５丁目２７番１３号全農新宿ビル,,13,113,1510051,,,,,,,2025-10-09,1,,,,,サイノメ,0
2180,8011001173025,新規,0,2025-10-09,2025-10-09,株式会社マサムネ,,株式会社,東京都,渋谷区,南平台町１９番１５号,,13,113,1500036,,,,,,,2025-10-09,1,,,,,マサムネ,0
2188,8011003022675,新規,0,2025-10-09,2025-10-09,合同会社フューチャープロンプト,,合同会社,東京都,渋谷区,道玄坂１丁目１０番８号渋谷道玄坂東急ビル２Ｆ－Ｃ,,13,113,1500043,,,,,,,2025-10-09,1,,,,,フューチャープロンプト,0
2194,8011103016461,新規,0,2025-10-09,2025-10-09,ワラッテ合同会社,,合同会社,東京都,新宿区,西新宿６丁目５番１号新宿アイランドタワー２階,,13,104,1600023,,,,,,,2025-10-09,1,,,,,ワラッテ,0
2195,8011201026692,新規,0,2025-10-09,2025-10-09,株式会社ウォル,,株式会社,東京都,中野区,本町４丁目４５番１１号,,13,114,1640012,,,,,,,2025-10-09,1,,,,,ウォル,0
2196,8011201026718,新規,0,2025-10-09,2025-10-09,株式会社ＺＡＫＥＲＫ,,株式会社,東京都,中野区,東中野１丁目３２番２－４０２号,,13,114,1640003,,,,,,,2025-10-09,1,,,,,ゼイカーク,0
2198,8011501032663,新規,0,2025-10-09,2025-10-09,ＢＨＡＧＡＶＡＴＩ　ＣＯＲＰＯＲＡＴＩＯＮ株式会社,,株式会社,東京都,北区,赤羽西６丁目１４番２号南荘１０１室,,13,117,1150055,,,,,,,2025-10-09,1,,,,,バガバッティコーポレーション,0
2199,8011501032671,新規,0,2025-10-09,2025-10-09,美思創科株式会社,,株式会社,東京都,荒川区,南千住３丁目２７－２浅草ビル５０８,,13,118,1160003,,,,,,,2025-10-09,1,,,,,ビシソウカ,0
2201,8011503006723,新規,0,2025-10-09,2025-10-09,Ａｒｃｆｏｒｃｅ合同会社,,合同会社,東京都,荒川区,東尾久２丁目４４－１５マーシスマルル４０５,,13,118,1160012,,,,,,,2025-10-09,1,,,,,アークフォース,0
2207,8011801046850,新規,0,2025-10-09,2025-10-09,光通国際株式会社,,株式会社,東京都,足立区,大谷田３丁目１７番４号サンフラワー１号館Ｂ１－１０８,,13,121,1200001,,,,,,,2025-10-09,1,,,,,コウツウコクサイ,0
2208,8011801046900,新規,0,2025-10-09,2025-10-09,ＮＬＢ株式会社,,株式会社,東京都,葛飾区,奥戸４丁目１５番１８号,,13,122,1240022,,,,,,,2025-10-09,1,,,,,エヌエルビー,0
2213,8012301014554,新規,0,2025-10-09,2025-10-09,株式会社Ｈｅｒｓｈｅｙｓ,,株式会社,東京都,町田市,三輪緑山２丁目２８番地１３,,13,209,1950055,,,,,,,2025-10-09,1,,,,,ハーシーズ,0
2214,8012401043684,新規,0,2025-10-09,2025-10-09,株式会社Ｎｏ．１３,,株式会社,東京都,調布市,富士見町４丁目２９番地１７ワコーマンション調布第２－４０１,,13,208,1820033,,,,,,,2025-10-09,1,,,,,ナンバーサーティーン,0
2215,8012401043692,新規,0,2025-10-09,2025-10-09,株式会社スタールビー,,株式会社,東京都,武蔵野市,桜堤２丁目１１－７,,13,203,1800021,,,,,,,2025-10-09,1,,,,,スタールビー,0
2216,8012403007365,新規,0,2025-10-09,2025-10-09,合同会社グロム,,合同会社,東京都,稲城市,東長沼１７２４番地の４パストラルハイツ３０３,,13,225,2060802,,,,,,,2025-10-09,1,,,,,グロム,0
2217,8012801024301,新規,0,2025-10-09,2025-10-09,Ｇトランス株式会社,,株式会社,東京都,東大和市,奈良橋６丁目７６５番地エーデルハイム１－１０５,,13,220,2070031,,,,,,,2025-10-09,1,,,,,ジートランス,0
2224,8020001165270,新規,0,2025-10-09,2025-10-09,株式会社Ｆｕｕコンサルティング,,株式会社,神奈川県,横浜市旭区,南希望が丘１２７番地１８,,14,112,2410824,,,,,,,2025-10-09,1,,,,,フーコンサルティング,0
2229,8020003029465,新規,0,2025-10-09,2025-10-09,合同会社たいたん,,合同会社,神奈川県,横浜市青葉区,市ケ尾町４０１番地１ピーチハウス２０３,,14,117,2250024,,,,,,,2025-10-09,1,,,,,タイタン,0
2232,8021001086416,新規,0,2025-10-09,2025-10-09,株式会社ＡＭ＆Ｅ,,株式会社,神奈川県,小田原市,南鴨宮１丁目１５－２２,,14,206,2500875,,,,,,,2025-10-09,1,,,,,アメ,0
2239,8030001169080,新規,0,2025-10-09,2025-10-09,株式会社アクアグリーン,,株式会社,埼玉県,蕨市,中央２丁目８番１０号,,11,223,3350004,,,,,,,2025-10-09,1,,,,,アクアグリーン,0
2240,8030001169122,新規,0,2025-10-09,2025-10-09,Ｍ＆Ｎ　ＡＤＶＡＮＣＥ株式会社,,株式会社,埼玉県,日高市,大字高麗本郷７０１番地３,,11,242,3501251,,,,,,,2025-10-09,1,,,,,エムアンドエヌアドバンス,0
2241,8030001169139,新規,0,2025-10-09,2025-10-09,ハウスウェルホールディングス株式会社,,株式会社,埼玉県,さいたま市大宮区,大成町３丁目４１４,,11,103,3300852,,,,,,,2025-10-09,1,,,,,ハウスウェルホールディングス,0
2253,8040001140841,新規,0,2025-10-09,2025-10-09,株式会社千葉中央コーポレーション,,株式会社,千葉県,千葉市中央区,新宿１丁目８番１８号,,12,101,2600021,,,,,,,2025-10-09,1,,,,,チバチュウオウコーポレーション,0
2254,8040001140858,新規,0,2025-10-09,2025-10-09,株式会社たまご屋おしき,,株式会社,千葉県,船橋市,二和西５丁目８番５号,,12,204,2740806,,,,,,,2025-10-09,1,,,,,タマゴヤオシキ,0
2263,8050003009687,新規,0,2025-10-09,2025-10-09,イーストサービス合同会社,,合同会社,茨城県,つくば市,泉１２４０番３,,08,220,3004235,,,,,,,2025-10-09,1,,,,,イーストサービス,0
2264,8060001038662,新規,0,2025-10-09,2025-10-09,ハンディルミナ株式会社,,株式会社,栃木県,下野市,石橋字西浦５２０番地１,,09,216,3290511,,,,,,,2025-10-09,1,,,,,ハンディルミナ,0
2265,8060001038670,新規,0,2025-10-09,2025-10-09,スタジオラピス縁株式会社,,株式会社,栃木県,宇都宮市,野沢町４０番地１スーパーオータニ野沢店２階,,09,201,3200071,,,,,,,2025-10-09,1,,,,,スタジオラピスエニシ,0
2266,8060005010386,新規,0,2025-10-09,2025-10-09,医療法人医真会,,その他の設立登記法人,栃木県,足利市,朝倉町３丁目１５番地１９,,09,202,3260823,,,,,,,2025-10-09,1,,,,,イシンカイ,0
2267,8080001027201,新規,0,2025-10-09,2025-10-09,株式会社アール・エス,,株式会社,静岡県,静岡市葵区,新富町１丁目２２番地の８,,22,101,4200061,,,,,,,2025-10-09,1,,,,,アールエス,0
2270,8080005007728,新規,0,2025-10-09,2025-10-09,医療法人社団ＧｉＦＴ,,その他の設立登記法人,静岡県,焼津市,小川１０４５番１,,22,212,4250033,,,,,,,2025-10-09,1,,,,,ギフト,0
2275,8080105006539,新規,0,2025-10-09,2025-10-09,医療法人社団ＳＨＵＮ,,その他の設立登記法人,静岡県,田方郡函南町,仁田８７番地の８,,22,325,4190114,,,,,,,2025-10-09,1,,,,,シュン,0
2285,8090001019552,新規,0,2025-10-09,2025-10-09,株式会社小町,,株式会社,山梨県,北杜市,小淵沢町９４２番地１,,19,209,4080044,,,,,,,2025-10-09,1,,,,,コマチ,0
2288,8110001039606,新規,0,2025-10-09,2025-10-09,株式会社圧倒的多幸感,,株式会社,新潟県,新潟市東区,中野山４丁目８番２５号,,15,102,9500841,,,,,,,2025-10-09,1,,,,,アットウテキタコウカン,0
2289,8110005017277,新規,0,2025-10-09,2025-10-09,税理士法人サリエ,,その他の設立登記法人,新潟県,新潟市北区,松浜７丁目２２番地１７,,15,101,9503126,,,,,,,2025-10-09,1,,,,,サリエ,0
2300,8120001280480,新規,0,2025-10-09,2025-10-09,株式会社シンジ商事,,株式会社,大阪府,大阪市天王寺区,味原本町１３番１０－１００５号,,27,109,5430022,,,,,,,2025-10-09,1,,,,,シンジショウジ,0
2301,8120001280555,新規,0,2025-10-09,2025-10-09,陽竺株式会社,,株式会社,大阪府,大阪市東住吉区,中野４丁目１番１６号リベラルオリエンテ中野６０７Ａ,,27,121,5460012,,,,,,,2025-10-09,1,,,,,ヨウジク,0
2302,8120001280613,新規,0,2025-10-09,2025-10-09,Ｌｙｍａｎ株式会社,,株式会社,大阪府,大阪市東住吉区,中野４丁目１番１６号リベラルオリエンテ中野２０５Ｂ,,27,121,5460012,,,,,,,2025-10-09,1,,,,,リマン,0
2303,8120001280638,新規,0,2025-10-09,2025-10-09,株式会社ＴＦＳ＆ＡＡＯ人事パートナーズ,,株式会社,大阪府,大阪市中央区,道修町１丁目４番６号ミフネ道修町ビル,,27,128,5410045,,,,,,,2025-10-09,1,,,,,ティーエフエスアンドエーエーオージンジパートナーズ,0
2304,8120001280662,新規,0,2025-10-09,2025-10-09,株式会社堂山,,株式会社,大阪府,大阪市北区,堂山町７番１８号,,27,127,5300027,,,,,,,2025-10-09,1,,,,,ドウヤマ,0
2305,8120001280670,新規,0,2025-10-09,2025-10-09,株式会社サンエーコミュニティ,,株式会社,大阪府,門真市,速見町６番１３－７０１号,,27,223,5710039,,,,,,,2025-10-09,1,,,,,サンエーコミュニティ,0
2306,8120003030891,新規,0,2025-10-09,2025-10-09,ＨａｎｇＹｉＹａｎｇ合同会社,,合同会社,大阪府,大阪市西成区,萩之茶屋２丁目６番４号ニューかめや１１５号,,27,122,5570004,,,,,,,2025-10-09,1,,,,,ハンイヤン,0
2307,8120101072555,新規,0,2025-10-09,2025-10-09,垣内工藝株式会社,,株式会社,大阪府,羽曳野市,西浦５丁目４１４番地の１１,,27,222,5830861,,,,,,,2025-10-09,1,,,,,カキウチコウゲイ,0
2308,8120101072571,新規,0,2025-10-09,2025-10-09,株式会社ＶＥＲＴＥＸ,,株式会社,大阪府,富田林市,中野町東２丁目２番４７号,,27,214,5840022,,,,,,,2025-10-09,1,,,,,バーテックス,0
2314,8120901051618,新規,0,2025-10-09,2025-10-09,株式会社ＧＡＫＵＳＥＩ　ＲＵＮＷＡＹ,,株式会社,大阪府,吹田市,千里山西１丁目２６番１０号Ｙｕｋｉ千里山１０２号室,,27,205,5650851,,,,,,,2025-10-09,1,,,,,ガクセイランウェイ,0
2317,8120903005885,新規,0,2025-10-09,2025-10-09,合同会社Ｌｅ　Ｌｉｆｅ　Ｐｌａｎ,,合同会社,大阪府,豊中市,岡町南１丁目５番１０号,,27,203,5610883,,,,,,,2025-10-09,1,,,,,リライフプラン,0
2318,8120903005893,新規,0,2025-10-09,2025-10-09,合同会社リテラ,,合同会社,大阪府,豊中市,服部西町３丁目１４番２１号,,27,203,5610858,,,,,,,2025-10-09,1,,,,,リテラ,0
2322,8122003003340,新規,0,2025-10-09,2025-10-09,ＶＩＥＴＬＯＮＧ合同会社,,合同会社,大阪府,東大阪市,荒川３丁目１５－２６センチュリーシティ荒川２０７,,27,227,5770843,,,,,,,2025-10-09,1,,,,,ベトロン,0
2325,8130001080731,新規,0,2025-10-09,2025-10-09,株式会社伊家技建,,株式会社,京都府,城陽市,寺田北東西３９,,26,207,6100121,,,,,,,2025-10-09,1,,,,,イイエギケン,0
2330,8140001140212,新規,0,2025-10-09,2025-10-09,株式会社ＭＫマシナリー,,株式会社,兵庫県,たつの市,揖西町小犬丸２２２１－７２－４号棟,,28,229,6794021,,,,,,,2025-10-09,1,,,,,エムケーマシナリー,0
2331,8140001140229,新規,0,2025-10-09,2025-10-09,株式会社ＨＡＲＯＵ,,株式会社,兵庫県,宝塚市,三笠町６番２３号,,28,214,6650863,,,,,,,2025-10-09,1,,,,,,0
2332,8140001140278,新規,0,2025-10-09,2025-10-09,株式会社Ｈａｒｉｐｏｓｉ,,株式会社,兵庫県,芦屋市,精道町２番４号,,28,206,6590064,,,,,,,2025-10-09,1,,,,,ハリポジ,0
2333,8140001140286,新規,0,2025-10-09,2025-10-09,株式会社ＢｏｎｄＬａｂ,,株式会社,兵庫県,西宮市,一里山町６番３号,,28,204,6638002,,,,,,,2025-10-09,1,,,,,ボンドラボ,0
2334,8140001140402,新規,0,2025-10-09,2025-10-09,株式会社ｍａｏｎ,,株式会社,兵庫県,神戸市中央区,磯辺通１丁目１番１８号カサベラ国際プラザビル７０７,,28,110,6510084,,,,,,,2025-10-09,1,,,,,マオン,0
2338,8140003022689,新規,0,2025-10-09,2025-10-09,合同会社ひかり,,合同会社,兵庫県,西宮市,門戸岡田町９番２５号,,28,204,6620826,,,,,,,2025-10-09,1,,,,,ヒカリ,0
2339,8160001027102,新規,0,2025-10-09,2025-10-09,ながはま管財株式会社,,株式会社,滋賀県,長浜市,大戌亥町５４６番地,,25,203,5260043,,,,,,,2025-10-09,1,,,,,ナガハマカンザイ,0
2340,8160001027110,新規,0,2025-10-09,2025-10-09,株式会社ｓｈｉｎｙａ,,株式会社,滋賀県,大津市,萱野浦２４番１１号,,25,201,5202143,,,,,,,2025-10-09,1,,,,,シンヤ,0
2341,8160001027119,新規,0,2025-10-09,2025-10-09,株式会社持成,,株式会社,滋賀県,草津市,野路町４７０番地１０,,25,206,5250055,,,,,,,2025-10-09,1,,,,,ジナリ,0
2349,8180001168935,新規,0,2025-10-09,2025-10-09,株式会社ＥＩＧＨＴ,,株式会社,愛知県,春日井市,如意申町５丁目２番地５,,23,206,4860918,,,,,,,2025-10-09,1,,,,,エイト,0
2350,8180001169000,新規,0,2025-10-09,2025-10-09,株式会社ＩＧＮＩＳ,,株式会社,愛知県,名古屋市中区,大須４丁目３番４０号ＡＲＫＺＯＮＥ４Ａ,,23,106,4600011,,,,,,,2025-10-09,1,,,,,イグニス,0
2351,8180001169082,新規,0,2025-10-09,2025-10-09,ＭＡＴＳＵＯＫＡ株式会社,,株式会社,愛知県,愛知郡東郷町,三ツ池２丁目１２番地２６,,23,302,4700164,,,,,,,2025-10-09,1,,,,,マツオカ,0
2358,8180003029103,新規,0,2025-10-09,2025-10-09,＿成合同会社,00141024,合同会社,愛知県,名古屋市南区,西桜町１５番地の１－１０３号,,23,112,4570039,,,,,,,2025-10-09,1,,,,,コウセイ,0
2359,8180003029111,新規,0,2025-10-09,2025-10-09,Ｐ９７合同会社,,合同会社,愛知県,名古屋市西区,枇杷島３丁目２０番２６号Ｌｕｃｋ１０５号,,23,104,4510053,,,,,,,2025-10-09,1,,,,,ピーキューナナ,0
2360,8180005021264,新規,0,2025-10-09,2025-10-09,特定非営利活動法人ＴｏｒｉＣｏｔｅ,,その他の設立登記法人,愛知県,一宮市,昭和２丁目１２番６号,,23,203,4910917,,,,,,,2025-10-09,1,,,,,トリコテ,0
2361,8180005021272,新規,0,2025-10-09,2025-10-09,医療法人紫翠会,,その他の設立登記法人,愛知県,一宮市,木曽川町外割田字堀田１１６,,23,203,4930007,,,,,,,2025-10-09,1,,,,,シスイカイ,0
2363,8180301040323,新規,0,2025-10-09,2025-10-09,株式会社こもれびＮＥＸＴ,,株式会社,愛知県,知立市,西中町中長５０番地１,,23,225,4720016,,,,,,,2025-10-09,1,,,,,コモレビネクスト,0
2367,8190003005210,新規,0,2025-10-09,2025-10-09,シャンク合同会社,,合同会社,三重県,伊勢市,宮川１丁目７番２６号,,24,203,5160061,,,,,,,2025-10-09,1,,,,,シャンク,0
2368,8200001044324,新規,0,2025-10-09,2025-10-09,株式会社ｑｕｈｏｓ,,株式会社,岐阜県,下呂市,野尻２８３番地,,21,220,5092313,,,,,,,2025-10-09,1,,,,,クードス,0
2370,8200003007097,新規,0,2025-10-09,2025-10-09,合同会社ＡｏＫ,,合同会社,岐阜県,海津市,南濃町駒野３２７番地,,21,221,5030411,,,,,,,2025-10-09,1,,,,,エイオーケー,0
2371,8200005013804,新規,0,2025-10-09,2025-10-09,社会保険労務士法人ＦＵＫＵＲＯＵ,,その他の設立登記法人,岐阜県,多治見市,三笠町４丁目４１番地の２コ・ラボ多治見,,21,204,5070828,,,,,,,2025-10-09,1,,,,,フクロウ,0
2376,8230001021130,新規,0,2025-10-09,2025-10-09,株式会社アルカディア,,株式会社,富山県,魚津市,長引野５６８番地,,16,204,9370023,,,,,,,2025-10-09,1,,,,,アルカディア,0
2378,8240001065622,新規,0,2025-10-09,2025-10-09,株式会社３５８,,株式会社,広島県,福山市,大門町３丁目３５番５号,,34,207,7210926,,,,,,,2025-10-09,1,,,,,サンゴォハチ,0
2379,8240001065630,新規,0,2025-10-09,2025-10-09,株式会社フジサワ不動産,,株式会社,広島県,広島市西区,己斐本町２丁目１３番１５－５０１号,,34,104,7330812,,,,,,,2025-10-09,1,,,,,フジサワフドウサン,0
2389,8290001111578,新規,0,2025-10-09,2025-10-09,株式会社谷口,,株式会社,福岡県,飯塚市,伊岐須８８８番地１７,,40,205,8200053,,,,,,,2025-10-09,1,,,,,タニグチ,0
2390,8290001111628,新規,0,2025-10-09,2025-10-09,Ｋｏｍｏｒｅｂｉ株式会社,,株式会社,福岡県,福岡市早良区,昭代１丁目２番２５号２階,,40,137,8140012,,,,,,,2025-10-09,1,,,,,コモレビ,0
2398,8320001021377,新規,0,2025-10-09,2025-10-09,株式会社ＣＡＦＥＣインターナショナル,,株式会社,大分県,別府市,富士見町６番３０号,,44,202,8740921,,,,,,,2025-10-09,1,,,,,カフェックインターナショナル,0
2401,8340001027686,新規,0,2025-10-09,2025-10-09,株式会社ＴＭＳホールディングス,,株式会社,鹿児島県,鹿児島市,広木２丁目４０番３３号,,46,201,8900037,,,,,,,2025-10-09,1,,,,,ティーエムエスホールディングス,0
2402,8340001027703,新規,0,2025-10-09,2025-10-09,株式会社コウナン,,株式会社,鹿児島県,大島郡瀬戸内町,大字網野子２２４番地１,,46,525,8941513,,,,,,,2025-10-09,1,,,,,コウナン,0
2412,8360003015316,新規,0,2025-10-09,2025-10-09,合同会社雄心,,合同会社,沖縄県,島尻郡八重瀬町,字東風平６１０番地１ブルー・ポイント２－Ｈ号室,,47,362,9010401,,,,,,,2025-10-09,1,,,,,ユウシン,0
2417,8370001053127,新規,0,2025-10-09,2025-10-09,株式会社光明左官,,株式会社,宮城県,仙台市泉区,松陵１丁目２４番地の２,,04,105,9813108,,,,,,,2025-10-09,1,,,,,コウメイサカン,0
2422,8380001035603,新規,0,2025-10-09,2025-10-09,株式会社リンデン,,株式会社,福島県,二本松市,若宮２丁目１６２番地４西側２階Ａ,,07,210,9640906,,,,,,,2025-10-09,1,,,,,リンデン,0
2423,8380003006156,新規,0,2025-10-09,2025-10-09,ＦＳ　ＴＲＡＤＩＮＧ合同会社,,合同会社,福島県,伊達市,霊山町大石字桂堂３５番地１,,07,213,9600804,,,,,,,2025-10-09,1,,,,,エフエストレーディング,0
2426,8400001017193,新規,0,2025-10-09,2025-10-09,アークグループ株式会社,,株式会社,岩手県,盛岡市,中ノ橋通２丁目８番２号,,03,201,0200871,,,,,,,2025-10-09,1,,,,,アークグループ,0
2433,8430001095369,新規,0,2025-10-09,2025-10-09,株式会社リーガライトエステート,,株式会社,北海道,札幌市西区,琴似三条２丁目３番３号,,01,107,0630813,,,,,,,2025-10-09,1,,,,,リーガライトエステート,0
2434,8430001095377,新規,0,2025-10-09,2025-10-09,株式会社Ｓｅｍｉａ,,株式会社,北海道,札幌市北区,新琴似九条９丁目８番１２号,,01,102,0010909,,,,,,,2025-10-09,1,,,,,シミア,0
2435,8430001095385,新規,0,2025-10-09,2025-10-09,株式会社Ｐｅａｋｓ,,株式会社,北海道,札幌市豊平区,豊平五条３丁目２番２７号ＳＡＫＵＲＡ－ＧＡＫＵＥＮＭＡＥ,,01,105,0620905,,,,,,,2025-10-09,1,,,,,ピークス,0
2436,8430003018229,新規,0,2025-10-09,2025-10-09,Ｏｋａｍｉ　Ｇｒｏｕｐ合同会社,,合同会社,北海道,小樽市,天神２丁目１番３号,,01,203,0470011,,,,,,,2025-10-09,1,,,,,オオカミグループ,0
2437,8450001014748,新規,0,2025-10-09,2025-10-09,株式会社秋桜,,株式会社,北海道,宗谷郡猿払村,鬼志別北町１２５番地,,01,511,0986234,,,,,,,2025-10-09,1,,,,,コスモス,0
2446,8490001011171,新規,0,2025-10-09,2025-10-09,株式会社ＩＲＯＮ　ＤＩＮＩＮＧ,,株式会社,高知県,高知市,帯屋町１丁目８番６号ケント第３ビル２Ｆ,,39,201,7800841,,,,,,,2025-10-09,1,,,,,アイアンダイニング,0
2447,8500001026572,新規,0,2025-10-09,2025-10-09,株式会社いよ墓石店,,株式会社,愛媛県,伊予市,米湊１５３８番地７,,38,210,7993113,,,,,,,2025-10-09,1,,,,,イヨボセキ,0
2456,9010001259188,新規,0,2025-10-09,2025-10-09,京東株式会社,,株式会社,東京都,中央区,入船２丁目３－７アルファパーク５Ｉ号室,,13,102,1040042,,,,,,,2025-10-09,1,,,,,キョウトウ,0
2457,9010001259270,新規,0,2025-10-09,2025-10-09,月の旅株式会社,,株式会社,東京都,文京区,本郷５丁目９番５号、２１１,,13,105,1130033,,,,,,,2025-10-09,1,,,,,ツキノタビ,0
2458,9010001259287,新規,0,2025-10-09,2025-10-09,株式会社スターグリッド,,株式会社,東京都,文京区,本郷７丁目３番地１号,,13,105,1130033,,,,,,,2025-10-09,1,,,,,スターグリッド,0
2459,9010001259320,新規,0,2025-10-09,2025-10-09,ｍｏｍｅｌｕ株式会社,,株式会社,東京都,中央区,銀座１丁目２２番１１号銀座大竹ビジデンス２Ｆ,,13,102,1040061,,,,,,,2025-10-09,1,,,,,モーメル,0
2462,9010003048952,新規,0,2025-10-09,2025-10-09,ＭＪＩ合同会社,,合同会社,東京都,中央区,日本橋１丁目４番１号日本橋一丁目ビルディング,,13,102,1030027,,,,,,,2025-10-09,1,,,,,エムジェイアイ,0
2463,9010003048985,新規,0,2025-10-09,2025-10-09,西山企画合同会社,,合同会社,東京都,中央区,銀座７丁目３番１６号４階,,13,102,1040061,,,,,,,2025-10-09,1,,,,,ニシヤマキカク,0
2464,9010003049001,新規,0,2025-10-09,2025-10-09,Ｃｕｒｒｉｏｕｓ合同会社,,合同会社,東京都,千代田区,神田須田町１丁目７番８号ＶＯＲＴ秋葉原ＩＶ２Ｆ,00141029,13,101,1010041,,,,,,,2025-10-09,1,,,,,カリリアス,0
2468,9010005040767,新規,0,2025-10-09,2025-10-09,リョーマ一般社団法人,,その他の設立登記法人,東京都,千代田区,霞が関３丁目２番５号,,13,101,1000013,,,,,,,2025-10-09,1,,,,,リョーマ,0
2478,9010401193557,新規,0,2025-10-09,2025-10-09,Ｃａｓａ　ｄｅ　Ｏｒａｃｉｏｎ株式会社,,株式会社,東京都,港区,三田３丁目４－３ＲＩＰＬ９－４０２,,13,103,1080073,,,,,,,2025-10-09,1,,,,,カサデオラシオン,0
2479,9010401193788,新規,0,2025-10-09,2025-10-09,株式会社５．０Ｌａｂ,,株式会社,東京都,港区,南青山３丁目１番３６号青山丸竹ビル６Ｆ,,13,103,1070062,,,,,,,2025-10-09,1,,,,,ゴーテンゼロラボ,0
2481,9010403036169,新規,0,2025-10-09,2025-10-09,Ｃａｌｉｆｏｒｎｉａ　Ｔｗｉｓｔ　Ｃｌｕｂ合同会社,,合同会社,東京都,港区,南青山１丁目２０番２号,,13,103,1070062,,,,,,,2025-10-09,1,,,,,カリフォルニアツイストクラブ,0
2483,9010503008035,新規,0,2025-10-09,2025-10-09,合同会社ｓｐ‐ｒｉｎｇ,,合同会社,東京都,台東区,上野１丁目１７番６号広小路ビル８Ｆ－Ｂ,,13,106,1100005,,,,,,,2025-10-09,1,,,,,エスピーリング,0
2484,9010601068113,新規,0,2025-10-09,2025-10-09,智行株式会社,,株式会社,東京都,江東区,東砂６丁目１４番３－５０２号,,13,108,1360074,,,,,,,2025-10-09,1,,,,,トモイキ,0
2486,9010701048394,新規,0,2025-10-09,2025-10-09,株式会社リンケージ,,株式会社,東京都,品川区,北品川５丁目１番１８号,,13,109,1410001,,,,,,,2025-10-09,1,,,,,リンケージ,0
2493,9010901058227,新規,0,2025-10-09,2025-10-09,株式会社Ｇｏｔｏ＆Ｃｏｎｓｕｌｔｉｎｇ,,株式会社,東京都,世田谷区,上馬５丁目２４番２１号,,13,112,1540011,,,,,,,2025-10-09,1,,,,,ゴトウアンドコンサルティング,0
2498,9011001172554,新規,0,2025-10-09,2025-10-09,ＩＫＭ株式会社,,株式会社,東京都,目黒区,中根１丁目２番１０－９０４号ドレッセ都立大学,,13,110,1520031,,,,,,,2025-10-09,1,,,,,アイケーエム,0
2499,9011001172661,新規,0,2025-10-09,2025-10-09,ＨＡＲＭＯ株式会社,,株式会社,東京都,渋谷区,広尾１丁目２番地１号ヒカリビル４階,,13,113,1500012,,,,,,,2025-10-09,1,,,,,ハーモ,0
2500,9011001172736,新規,0,2025-10-09,2025-10-09,株式会社７Ｍａｒｋｅｔｉｎｇ,,株式会社,東京都,渋谷区,渋谷２丁目１９－１５宮益坂ビルディング６０９,,13,113,1500002,,,,,,,2025-10-09,1,,,,,セブンマーケティング,0
2501,9011001172744,新規,0,2025-10-09,2025-10-09,株式会社ＡＬＥＡ２,,株式会社,東京都,目黒区,三田１丁目４－３－１００３,,13,110,1530062,,,,,,,2025-10-09,1,,,,,アレアツー,0
2502,9011001172827,新規,0,2025-10-09,2025-10-09,株式会社ａｍｕＡＩ,,株式会社,東京都,渋谷区,恵比寿西２丁目４番８号,,13,113,1500021,,,,,,,2025-10-09,1,,,,,アムエーアイ,0
2504,9011003022501,新規,0,2025-10-09,2025-10-09,ＬＵＭＩＮＯＵＳ合同会社,,合同会社,東京都,渋谷区,恵比寿西２丁目８番４号ＥＸ恵比寿西ビル５階,,13,113,1500021,,,,,,,2025-10-09,1,,,,,ルミナス,0
2505,9011003022617,新規,0,2025-10-09,2025-10-09,合同会社ハヌル,,合同会社,東京都,渋谷区,広尾１丁目２番地１号ヒカリビル４階,,13,113,1500012,,,,,,,2025-10-09,1,,,,,,0
2506,9011003022724,新規,0,2025-10-09,2025-10-09,オモシェアイズム合同会社,,合同会社,東京都,渋谷区,広尾１丁目２番地１号ヒカリビル４階,,13,113,1500012,,,,,,,2025-10-09,1,,,,,オモシェアイズム,0
2508,9011101113425,新規,0,2025-10-09,2025-10-09,康正国際投資株式会社,,株式会社,東京都,新宿区,西早稲田２丁目４番６号,,13,104,1690051,,,,,,,2025-10-09,1,,,,,コウセイコクサイトウシ,0
2516,9011301030940,新規,0,2025-10-09,2025-10-09,株式会社Ｃ．Ｗ．Ｍ,,株式会社,東京都,杉並区,久我山３丁目８番７号,,13,115,1680082,,,,,,,2025-10-09,1,,,,,シーダブルエム,0
2517,9011501032662,新規,0,2025-10-09,2025-10-09,株式会社ジンカケステイ,,株式会社,東京都,荒川区,荒川５丁目３５番２号アヴァンセクール町屋４０１,,13,118,1160002,,,,,,,2025-10-09,1,,,,,ジンカケステイ,0
2518,9011701028799,新規,0,2025-10-09,2025-10-09,千尋花卉国際貿易株式会社,,株式会社,東京都,江戸川区,東小岩６丁目３３番１８号ＺＫＹビル４０５号室,,13,123,1330052,,,,,,,2025-10-09,1,,,,,チヒロカキコクサイボウエキ,0
2519,9011701028832,新規,0,2025-10-09,2025-10-09,株式会社ＳＨＭ,,株式会社,東京都,江戸川区,南篠崎町３丁目２４番１６－１０２号,,13,123,1330065,,,,,,,2025-10-09,1,,,,,エスエイチエム,0
2521,9011703004410,新規,0,2025-10-09,2025-10-09,合同会社Ｂｓｔｅｍ,,合同会社,東京都,江戸川区,上一色１丁目２番９号Ｇｒａｎ’Ｉｌｅ上一色１０１,00141027,13,123,1330041,,,,,,,2025-10-09,1,,,,,ビステム,0
2523,9011705001918,新規,0,2025-10-09,2025-10-09,医療法人社団宇宙歯科メディカル,,その他の設立登記法人,東京都,江戸川区,西葛西５丁目６番１２号Ｇｏｏｄ・Ｆｉｅｌｄ１階,,13,123,1340088,,,,,,,2025-10-09,1,,,,,ウチュウシカメディカル,0
2527,9012401043691,新規,0,2025-10-09,2025-10-09,株式会社エピジェン,,株式会社,東京都,府中市,清水が丘３丁目８番地の９７,,13,206,1830015,,,,,,,2025-10-09,1,,,,,エピジェン,0
2528,9012403007389,新規,0,2025-10-09,2025-10-09,合同会社Ｈｕｎｄｒｅｄ,,合同会社,東京都,武蔵野市,吉祥寺本町２丁目８－４ｉ－ｏｆｆｉｃｅ吉祥寺,,13,203,1800004,,,,,,,2025-10-09,1,,,,,ハンドレッド,0
2532,9013303007917,新規,0,2025-10-09,2025-10-09,日本クリエイターズラボ合同会社,,合同会社,東京都,豊島区,東池袋２丁目６２―８ビッグオフィスプラザ池袋１２０６,,13,116,1700013,,,,,,,2025-10-09,1,,,,,ニホンクリエイターズラボ,0
2537,9020001165105,新規,0,2025-10-09,2025-10-09,株式会社ＭＯＳ,,株式会社,神奈川県,川崎市中原区,井田３丁目１１番２７号サンファスト井田１０１,,14,133,2110035,,,,,,,2025-10-09,1,,,,,エムオエス,0
2538,9020001165154,新規,0,2025-10-09,2025-10-09,株式会社ＫＳＣ,,株式会社,神奈川県,横浜市南区,共進町１丁目８番地１エンゼルハイム蒔田第３－２０３号,,14,105,2320015,,,,,,,2025-10-09,1,,,,,ケイエスシー,0
2539,9020001165187,新規,0,2025-10-09,2025-10-09,ＰＯＮＤＥＮ財託株式会社,,株式会社,神奈川県,横浜市西区,北幸２丁目１０番４８号むつみビル３階,,14,103,2200004,,,,,,,2025-10-09,1,,,,,ポンデンザイタク,0
2540,9020001165286,新規,0,2025-10-09,2025-10-09,株式会社ｐｏｍｕａ,,株式会社,神奈川県,横浜市西区,浅間町１丁目４番３号ウィザードビル４０２,,14,103,2200072,,,,,,,2025-10-09,1,,,,,ポムア,0
2547,9020003029530,新規,0,2025-10-09,2025-10-09,合同会社最高にラブだね,,合同会社,神奈川県,横浜市南区,別所１丁目１０－１０－６０５,,14,105,2320064,,,,,,,2025-10-09,1,,,,,サイコウニラブダネ,0
2553,9021003016642,新規,0,2025-10-09,2025-10-09,合同会社ｅａｔｓ,,合同会社,神奈川県,高座郡寒川町,倉見５３６番地,,14,321,2530101,,,,,,,2025-10-09,1,,,,,イーツ,0
2563,9030001168932,新規,0,2025-10-09,2025-10-09,株式会社ビヨンドベース,,株式会社,埼玉県,和光市,白子３丁目１６番４１－６０４号,,11,229,3510101,,,,,,,2025-10-09,1,,,,,ビヨンドベース,0
2564,9030001169071,新規,0,2025-10-09,2025-10-09,株式会社ＫＡＭＩＡＲＩ,,株式会社,埼玉県,所沢市,寿町２５番７－Ｇ号セントラルギンザＳＴビル,,11,208,3591122,,,,,,,2025-10-09,1,,,,,カミアリ,0
2565,9030001169154,新規,0,2025-10-09,2025-10-09,株式会社アヴァンス,,株式会社,埼玉県,さいたま市見沼区,大字南中野６６２番地１,,11,104,3370042,,,,,,,2025-10-09,1,,,,,アヴァンス,0
2566,9030001169162,新規,0,2025-10-09,2025-10-09,株式会社Ｒｉｃｅｔｔｅ,,株式会社,埼玉県,さいたま市大宮区,桜木町２丁目３番地大宮マルイ７階,,11,103,3300854,,,,,,,2025-10-09,1,,,,,リチェッテ,0
2567,9030001169187,新規,0,2025-10-09,2025-10-09,Ｔｈｏｍａｓｓｏｎ株式会社,,株式会社,埼玉県,川越市,菅原町５番地７,,11,201,3500046,,,,,,,2025-10-09,1,,,,,トマソン,0
2575,9040001140667,新規,0,2025-10-09,2025-10-09,株式会社Ｇｒａｎｄ　Ｈｅａｒｔ,,株式会社,千葉県,松戸市,本町１７－１１芹澤ビル６Ｆ,,12,207,2710091,,,,,,,2025-10-09,1,,,,,グランドハート,0
2576,9040001140816,新規,0,2025-10-09,2025-10-09,ＵＭ　ＴＲＡＤＩＮＧ株式会社,,株式会社,千葉県,野田市,木間ケ瀬４９２番地３,,12,208,2700222,,,,,,,2025-10-09,1,,,,,ユーエムトレーディング,0
2577,9040001140857,新規,0,2025-10-09,2025-10-09,株式会社ＴＯＢＩＲＡＹＡ,,株式会社,千葉県,千葉市若葉区,東寺山町８番地８０,,12,104,2640035,,,,,,,2025-10-09,1,,,,,トビラヤ,0
2594,9060001038661,新規,0,2025-10-09,2025-10-09,株式会社ＡＮＤ　Ｋ,,株式会社,栃木県,鹿沼市,引田１８１５番地,,09,205,3220255,,,,,,,2025-10-09,1,,,,,アンドケイ,0
2595,9060001038678,新規,0,2025-10-09,2025-10-09,愛之華株式会社,,株式会社,栃木県,宇都宮市,簗瀬町１９７３番地６,,09,201,3210933,,,,,,,2025-10-09,1,,,,,アイノハナ,0
2596,9060005010385,新規,0,2025-10-09,2025-10-09,一般社団法人鹿沼スポーツ＆カルチャー,,その他の設立登記法人,栃木県,鹿沼市,貝島町６１５番地１,,09,205,3220027,,,,,,,2025-10-09,1,,,,,カヌマスポーツアンドカルチャー,0
2599,9080001027209,新規,0,2025-10-09,2025-10-09,株式会社鈴木Ｂ・Ａ・Ｓ・Ｅ,,株式会社,静岡県,藤枝市,前島１丁目８番３７号,,22,214,4260067,,,,,,,2025-10-09,1,,,,,スズキベース,0
2601,9080003003579,新規,0,2025-10-09,2025-10-09,合同会社あいおいパートナーズ,,合同会社,静岡県,静岡市葵区,相生町１４番８号,,22,101,4200838,,,,,,,2025-10-09,1,,,,,アイオイパートナーズ,0
2603,9080103003446,新規,0,2025-10-09,2025-10-09,合同会社花結,,合同会社,静岡県,御殿場市,保土沢１１５７番地の４４,,22,215,4120046,,,,,,,2025-10-09,1,,,,,ハナユイ,0
2617,9120001280273,新規,0,2025-10-09,2025-10-09,株式会社Ａｒｉｓ’ｓ,,株式会社,大阪府,交野市,星田北６丁目１３番８１１号,,27,230,5760017,,,,,,,2025-10-09,1,,,,,アリス,0
2618,9120001280645,新規,0,2025-10-09,2025-10-09,株式会社ＡＲＭ,,株式会社,大阪府,枚方市,御殿山町１２番２５－１号,,27,210,5731182,,,,,,,2025-10-09,1,,,,,アーム,0
2620,9120001280942,新規,0,2025-10-09,2025-10-09,鯤麟株式会社,,株式会社,大阪府,大阪市東住吉区,中野４丁目１番１６号リベラルオリエンテ中野４０２Ｂ,,27,121,5460012,,,,,,,2025-10-09,1,,,,,コンリン,0
2624,9120003030949,新規,0,2025-10-09,2025-10-09,江佑合同会社,,合同会社,大阪府,大阪市東住吉区,湯里６丁目１３－７イトーピア山本１０２号室,,27,121,5460013,,,,,,,2025-10-09,1,,,,,コウユウ,0
2626,9120101072455,新規,0,2025-10-09,2025-10-09,株式会社ＡＮＴＩＱＵＡ　ＡＩ,,株式会社,大阪府,和泉市,和気町１丁目６番１１号,,27,219,5940073,,,,,,,2025-10-09,1,,,,,アンティカエイアイ,0
2627,9120101072570,新規,0,2025-10-09,2025-10-09,株式会社横林,,株式会社,大阪府,泉南市,樽井２丁目１番４号,,27,228,5900521,,,,,,,2025-10-09,1,,,,,ヨコバヤシ,0
2632,9120903005884,新規,0,2025-10-09,2025-10-09,合同会社Ｓｏｏ,,合同会社,大阪府,吹田市,藤白台４丁目２番７号,,27,205,5650873,,,,,,,2025-10-09,1,,,,,ソー,0
2633,9120903005892,新規,0,2025-10-09,2025-10-09,合同会社ＲＯＴＡＲＹ,,合同会社,大阪府,豊中市,曽根東町６丁目５番５－１１０３号,,27,203,5610802,,,,,,,2025-10-09,1,,,,,ロータリー,0
2634,9120903005901,新規,0,2025-10-09,2025-10-09,合同会社ヨシユキ,,合同会社,大阪府,茨木市,郡山２丁目１３番１８号２０２号室,,27,211,5670071,,,,,,,2025-10-09,1,,,,,ヨシユキ,0
2641,9130001080524,新規,0,2025-10-09,2025-10-09,フリューゲルズ株式会社,,株式会社,京都府,京都市左京区,松ケ崎樋ノ上町１番地８,,26,103,6060942,,,,,,,2025-10-09,1,,,,,フリューゲルズ,0
2642,9130001080697,新規,0,2025-10-09,2025-10-09,ＬｅａｆＳｔｏｎｅ株式会社,,株式会社,京都府,京都市上京区,元誓願寺通智恵光院西入元中之町５００番地,,26,102,6028452,,,,,,,2025-10-09,1,,,,,リーフストーン,0
2643,9130001080747,新規,0,2025-10-09,2025-10-09,株式会社ＰＲＯＰＡＧＡＮＤＡ　ＧＡＲＭＥＮＴＳ,,株式会社,京都府,京都市下京区,新町通五条下る蛭子町１０７番地３ＧＯＪＯＰＬＡＣＥ６０２,,26,106,6008302,,,,,,,2025-10-09,1,,,,,プロパガンダガーメンツ,0
2653,9140001140203,新規,0,2025-10-09,2025-10-09,株式会社輝医療福祉サービス,,株式会社,兵庫県,神戸市灘区,弓木町５丁目３番１６号,,28,102,6570026,,,,,,,2025-10-09,1,,,,,カガヤキイリョウフクシサービス,0
2654,9140001140211,新規,0,2025-10-09,2025-10-09,株式会社ＩＴＯ,,株式会社,兵庫県,多可郡多可町,八千代区中野間１０２番地,,28,365,6770121,,,,,,,2025-10-09,1,,,,,アイティオー,0
2655,9140001140277,新規,0,2025-10-09,2025-10-09,株式会社Ｒａｒｅｌｉｔｈ,,株式会社,兵庫県,神戸市東灘区,住吉本町１丁目６番８号,,28,101,6580051,,,,,,,2025-10-09,1,,,,,レアリス,0
2664,9170001018826,新規,0,2025-10-09,2025-10-09,株式会社ＡＹＵＭＩ　ＳＭＩＬＥ,,株式会社,和歌山県,橋本市,高野口町伏原５３番地の７,,30,203,6497202,,,,,,,2025-10-09,1,,,,,アユミスマイル,0
2672,9180001168851,新規,0,2025-10-09,2025-10-09,ＨＹＡＰ　ＪＡＰＡＮ株式会社,,株式会社,愛知県,名古屋市中村区,名駅１丁目１番１号ＪＰタワー名古屋２１階,,23,105,4500002,,,,,,,2025-10-09,1,,,,,エイチワイエーピージャパン,0
2673,9180001168876,新規,0,2025-10-09,2025-10-09,株式会社守山社中,,株式会社,愛知県,名古屋市守山区,守山２丁目２番５号,,23,113,4630067,,,,,,,2025-10-09,1,,,,,モリヤマシャチュウ,0
2674,9180001168918,新規,0,2025-10-09,2025-10-09,くらしサポート株式会社,,株式会社,愛知県,名古屋市緑区,鳴海町字森下１４０番地,,23,114,4580801,,,,,,,2025-10-09,1,,,,,クラシサポート,0
2675,9180001168942,新規,0,2025-10-09,2025-10-09,株式会社コトライク,,株式会社,愛知県,大府市,明成町２丁目２５０番地,,23,223,4740056,,,,,,,2025-10-09,1,,,,,コトライク,0
2676,9180001168991,新規,0,2025-10-09,2025-10-09,株式会社和光エンタープライズ,,株式会社,愛知県,一宮市,三ツ井８丁目１番２２号,,23,203,4910827,,,,,,,2025-10-09,1,,,,,ワコウエンタープライズ,0
2679,9180003029184,新規,0,2025-10-09,2025-10-09,合資会社ＳｔａｙＣｌｏｓｅ,,合資会社,愛知県,名古屋市西区,八筋町５２番地アドニス八筋４０１号,,23,104,4520815,,,,,,,2025-10-09,1,,,,,ステイクローズ,0
2680,9180005021263,新規,0,2025-10-09,2025-10-09,特定非営利活動法人戌亥,,その他の設立登記法人,愛知県,犬山市,大字犬山字西古券１３３番６,,23,215,4840085,,,,,,,2025-10-09,1,,,,,イヌイ,0
2685,9200001044323,新規,0,2025-10-09,2025-10-09,株式会社山田建工,,株式会社,岐阜県,安八郡神戸町,大字川西１１－１,,21,381,5032311,,,,,,,2025-10-09,1,,,,,ヤマダケンコウ,0
2686,9200003007088,新規,0,2025-10-09,2025-10-09,サンリアル合同会社,,合同会社,岐阜県,多治見市,小泉町８丁目１０３,,21,204,5070073,,,,,,,2025-10-09,1,,,,,サンリアル,0
2687,9200003007096,新規,0,2025-10-09,2025-10-09,ＫＵＲ合同会社,,合同会社,岐阜県,瑞穂市,別府８０９番地,,21,216,5010222,,,,,,,2025-10-09,1,,,,,ケイユーアール,0
2691,9220005009007,新規,0,2025-10-09,2025-10-09,一般社団法人はぐみあとりえ,,その他の設立登記法人,石川県,加賀市,大聖寺南町ホ１番地９瀬戸ビル１階,,17,206,9220811,,,,,,,2025-10-09,1,,,,,ハグミアトリエ,0
2700,9250001021391,新規,0,2025-10-09,2025-10-09,株式会社ｔｓｕｎａｋａｎ,,株式会社,山口県,萩市,大字椿東３０４３番地,,35,204,7580011,,,,,,,2025-10-09,1,,,,,ツナカン,0
2704,9260001040622,新規,0,2025-10-09,2025-10-09,株式会社トキ,,株式会社,岡山県,高梁市,落合町阿部２５９２番地,,33,209,7160061,,,,,,,2025-10-09,1,,,,,トキ,0
2710,9290001111560,新規,0,2025-10-09,2025-10-09,福森国際株式会社,,株式会社,福岡県,福岡市博多区,東光２丁目１７番１７号６階,,40,132,8120008,,,,,,,2025-10-09,1,,,,,フクモリコクサイ,0
2711,9290001111569,新規,0,2025-10-09,2025-10-09,ＴＭ株式会社,,株式会社,福岡県,福岡市博多区,博多駅前１丁目２３番２号,,40,132,8120011,,,,,,,2025-10-09,1,,,,,ティーエム,0
2712,9290001111577,新規,0,2025-10-09,2025-10-09,川雅株式会社,,株式会社,福岡県,福岡市南区,塩原４丁目１８番１６号２階,,40,134,8150032,,,,,,,2025-10-09,1,,,,,カワマサ,0
2713,9290001111593,新規,0,2025-10-09,2025-10-09,イースター株式会社,,株式会社,福岡県,福岡市中央区,舞鶴３丁目２－５アイビル３０５,,40,133,8100073,,,,,,,2025-10-09,1,,,,,イースター,0
2714,9290001111610,新規,0,2025-10-09,2025-10-09,株式会社Ｓ＆Ｈファーマシー,,株式会社,福岡県,福岡市博多区,住吉１丁目１番９－１３０８号ＲＪＲプレシア博多,,40,132,8120018,,,,,,,2025-10-09,1,,,,,エスアンドエイチファーマシー,0
2715,9290001111668,新規,0,2025-10-09,2025-10-09,履和国際株式会社,,株式会社,福岡県,福岡市中央区,薬院２丁目１４番２１号フィット薬院３０３,,40,133,8100022,,,,,,,2025-10-09,1,,,,,リワコクサイ,0
2716,9290001111767,新規,0,2025-10-09,2025-10-09,ボックスフィールズ株式会社,,株式会社,福岡県,福岡市東区,青葉７丁目１３番３４号,,40,131,8130025,,,,,,,2025-10-09,1,,,,,ボックスフィールズ,0
2718,9290003017491,新規,0,2025-10-09,2025-10-09,合同会社ヒカリ,,合同会社,福岡県,福岡市中央区,天神２丁目２－１２,,40,133,8100001,,,,,,,2025-10-09,1,,,,,ヒカリ,0
2720,9290801031933,新規,0,2025-10-09,2025-10-09,株式会社ベネフィット,,株式会社,福岡県,豊前市,大字八屋１６７６番地３旭マンション７０１号,,40,214,8280021,,,,,,,2025-10-09,1,,,,,ベネフィット,0
2721,9290803005183,新規,0,2025-10-09,2025-10-09,合同会社ＣＬサービス,,合同会社,福岡県,北九州市門司区,大字猿喰３０７番地１,,40,101,8000102,,,,,,,2025-10-09,1,,,,,シーエルサービス,0
2722,9300001014381,新規,0,2025-10-09,2025-10-09,株式会社Ｃｏｒｕｓａｒｏ,,株式会社,佐賀県,佐賀市,長瀬町５－１２・２Ｆ,,41,201,8400853,,,,,,,2025-10-09,1,,,,,コルサロ,0
2726,9330001033643,新規,0,2025-10-09,2025-10-09,Ｔｓ株式会社,,株式会社,熊本県,熊本市北区,龍田弓削２丁目７番１４号,,43,105,8618007,,,,,,,2025-10-09,1,,,,,ティーズ,0
2737,9370001053134,新規,0,2025-10-09,2025-10-09,Ｔｏｎａｌｙｃａ株式会社,,株式会社,宮城県,仙台市青葉区,中央４丁目４番１９号,,04,101,9800021,,,,,,,2025-10-09,1,,,,,トナリカ,0
2745,9400001017192,新規,0,2025-10-09,2025-10-09,株式会社風月草,,株式会社,岩手県,花巻市,高松２０地割８５,,03,205,0250014,,,,,,,2025-10-09,1,,,,,フウゲツソウ,0
2753,9430001095351,新規,0,2025-10-09,2025-10-09,株式会社インビジブルサポート,,株式会社,北海道,札幌市中央区,北三条西２丁目８番さっけんビル４階北,,01,101,0600003,,,,,,,2025-10-09,1,,,,,インビジブルサポート,0
2758,9460101007765,新規,0,2025-10-09,2025-10-09,Ｎａｔｕｒａｌ　Ｈｏｒｓｅ　Ｐａｒｋｓ　ａｎｄ　Ｔｏｕｒｓ株式会社,,株式会社,北海道,河西郡芽室町,美生１線２２－７,,01,637,0820076,,,,,,,2025-10-09,1,,,,,ナチュラルホースパークスアンドツアーズ,0
2764,9490001011170,新規,0,2025-10-09,2025-10-09,株式会社カミノバエース,,株式会社,高知県,高知市,北本町１丁目１０番３１号高知八州ビル３Ｆ,,39,201,7800056,,,,,,,2025-10-09,1,,,,,カミノバエース,0
2765,9500001026571,新規,0,2025-10-09,2025-10-09,株式会社ココライト,,株式会社,愛媛県,松山市,清住１丁目６番９号,,38,201,7918055,,,,,,,2025-10-09,1,,,,,ココライト,0
2767,9500003003610,新規,0,2025-10-09,2025-10-09,合同会社Ｇｌｏｂａｌ　Ｂｒｉｄｇｅ　Ｊａｐａｎ,,合同会社,愛媛県,伊予郡松前町,大字浜４８２番地,,38,401,7913110,,,,,,,2025-10-09,1,,,,,,0
