sequenceNumber,corporateNumber,process,correct,updateDate,changeDate,name,nameImageId,kind,prefectureName,cityName,streetNumber,addressImageId,prefectureCode,cityCode,postCode,addressOutside,addressOutsideImageId,closeDate,closeCause,successorCorporateNumber,changeCause,assignmentDate,latest,enName,enPrefectureName,enCityName,enAddressOutside,furigana,hihyoji
11,1010003022519,登記記録の閉鎖等,0,2024-07-24,2024-07-04,京丹波ソーラー合同会社,,合同会社,東京都,港区,虎ノ門３丁目２２番１０－２０１号,,13,103,1050001,,,2024-07-04,清算の結了等,,,2015-10-21,1,,,,,キョウタンバソーラー,0
25,1010405008719,登記記録の閉鎖等,0,2024-07-24,2024-07-10,ガーデンハウス特定目的会社,,その他の設立登記法人,東京都,千代田区,丸の内３丁目１番１号東京共同会計事務所内,,13,101,1000005,,,2024-07-10,清算の結了等,,,2015-10-05,1,,,,,ガーデンハウス,0
26,1010501033273,登記記録の閉鎖等,0,2024-07-24,2024-07-11,株式会社エムケイカンパニー,,株式会社,東京都,台東区,台東４丁目６番１号,,13,106,1100016,,,2024-07-11,清算の結了等,,,2015-10-05,1,,,,,エムケイカンパニー,0
74,1012401033048,登記記録の閉鎖等,0,2024-07-24,2024-07-22,株式会社毅紳,,株式会社,埼玉県,さいたま市岩槻区,大字南下新井４０６番地８,,11,110,3390032,,,2024-07-22,清算の結了等,,,2017-08-04,1,,,,,キシン,0
76,1012702009993,登記記録の閉鎖等,0,2024-07-24,2024-07-17,有限会社エル・アンド・エス,,有限会社,東京都,小平市,花小金井４丁目１０番１,,13,211,1870002,,,2024-07-17,清算の結了等,,,2015-10-05,1,,,,,エルアンドエス,0
111,1050002039188,登記記録の閉鎖等,0,2024-07-24,2024-07-16,有限会社光輪,,有限会社,茨城県,つくばみらい市,小張４１３２番地の１８７,,08,235,3002353,,,2024-07-16,清算の結了等,,,2015-10-05,1,,,,,コウリン,0
113,1070001001725,登記記録の閉鎖等,0,2024-07-24,2024-07-19,ジー・ケースタッフサービス株式会社,,株式会社,群馬県,前橋市,新前橋町２３番地の１１,,10,201,3710843,,,2024-07-19,清算の結了等,,,2015-10-05,1,,,,,ジーケースタッフサービス,0
119,1080101002218,登記記録の閉鎖等,0,2024-07-24,2024-07-22,株式会社スソノ物流,,株式会社,静岡県,裾野市,今里４８８番地の１,,22,220,4101104,,,2024-07-22,清算の結了等,,,2015-10-05,1,,,,,スソノブツリュウ,0
160,1130005014188,登記記録の閉鎖等,0,2024-07-24,2024-07-23,特定非営利活動法人はぴねす,,その他の設立登記法人,京都府,亀岡市,河原町２２７番地,,26,206,6210803,,,2024-07-23,清算の結了等,,,2015-10-05,1,,,,,ハピネス,0
173,1180002063712,登記記録の閉鎖等,0,2024-07-24,2024-07-04,有限会社岡田設計,,有限会社,愛知県,長久手市,根の神１１０５番地藤和シティコープ長久手６０２号,,23,238,4801141,,,2024-07-04,清算の結了等,,,2015-10-05,1,,,,,オカダセッケイ,0
176,1180301016874,登記記録の閉鎖等,0,2024-07-24,2024-07-22,株式会社ＪＰテック,,株式会社,愛知県,刈谷市,築地町３丁目４番地１１,,23,210,4480011,,,2024-07-22,清算の結了等,,,2015-10-05,1,,,,,ジェーピーテック,0
178,1180302001256,登記記録の閉鎖等,0,2024-07-24,2024-07-12,有限会社小林化成,,有限会社,愛知県,岡崎市,在家町字上五反田８番地２,,23,202,4440245,,,2024-07-12,清算の結了等,,,2015-10-05,1,,,,,コバヤシカセイ,0
179,1180303005479,登記記録の閉鎖等,0,2024-07-24,2024-07-11,合同会社いずみ,,合同会社,愛知県,岡崎市,富永町字番丈目１３番地１－３０１,,23,202,4440946,,,2024-07-11,清算の結了等,,,2022-10-13,1,,,,,イズミ,0
182,1190003000820,登記記録の閉鎖等,0,2024-07-24,2024-07-22,合名会社山泰商店,,合名会社,三重県,伊勢市,宮後２丁目５番２８号,,24,203,5160072,,,2024-07-22,清算の結了等,,,2015-10-05,1,,,,,ヤマヤスショウテン,0
187,1220005007744,登記記録の閉鎖等,0,2024-07-24,2024-07-12,金澤ウェディング協同組合,,その他の設立登記法人,石川県,金沢市,田上さくら１丁目９１番地,,17,201,9201157,,,2024-07-12,清算の結了等,,,2015-10-05,1,,,,,カナザワウェディング,0
230,1430001042237,登記記録の閉鎖等,0,2024-07-24,2024-07-18,株式会社林商事,,株式会社,北海道,札幌市北区,北三十三条西１０丁目６番８－２０５号,,01,102,0010033,,,2024-07-18,清算の結了等,,,2015-10-05,1,,,,,ハヤシショウジ,0
231,1430001046881,登記記録の閉鎖等,0,2024-07-24,2024-07-22,北海道通宝海苔株式会社,,株式会社,北海道,美唄市,東七条北９丁目１番１号,,01,215,0720801,,,2024-07-22,清算の結了等,,,2015-10-05,1,,,,,,0
233,1430001082514,登記記録の閉鎖等,0,2024-07-24,2024-07-16,株式会社秀美ケア,,株式会社,北海道,岩見沢市,幌向南三条３丁目３０２番地１４,,01,210,0690373,,,2024-07-16,清算の結了等,,,2020-10-12,1,,,,,シュウビケア,0
240,1500002005094,登記記録の閉鎖等,0,2024-07-24,2024-07-12,西村建設有限会社,,有限会社,愛媛県,松山市,太山寺町２３１３番地３０,,38,201,7992662,,,2024-07-12,清算の結了等,,,2015-10-05,1,,,,,ニシムラケンセツ,0
278,2010503005633,登記記録の閉鎖等,0,2024-07-24,2024-07-10,アーサーホーム合同会社,,合同会社,東京都,台東区,谷中３丁目６番８号,,13,106,1100001,,,2024-07-10,清算の結了等,,,2019-06-27,1,,,,,アーサーホーム,0
321,2012401012546,登記記録の閉鎖等,0,2024-07-24,2024-07-19,株式会社綿半Ｊマート,,株式会社,東京都,新宿区,四谷１丁目４番地,,13,104,1600004,,,2024-07-19,合併による解散等,4100001003772,令和６年７月１日長野市南長池２０５番地株式会社綿半ホームエイド（4100001003772）に合併し解散,2015-10-05,1,,,,,ワタハンジェイマート,0
322,2012401017339,登記記録の閉鎖等,0,2024-07-24,2024-07-22,株式会社ＫＦメディカルサポート,,株式会社,東京都,調布市,深大寺南町４丁目３４番地１６,,13,208,1820013,,,2024-07-22,清算の結了等,,,2015-10-05,1,,,,,ケーエフメディカルサポート,0
328,2013101005757,登記記録の閉鎖等,0,2024-07-24,2024-07-16,株式会社計測サポート,,株式会社,東京都,福生市,大字福生２３０７番地９,,13,218,1970011,,,2024-07-16,清算の結了等,,,2015-10-05,1,,,,,,0
331,2013301049455,登記記録の閉鎖等,0,2024-07-24,2024-07-10,株式会社ＦｕｔｕｒｅＥＣＯ,,株式会社,東京都,豊島区,池袋３丁目２４－１５－３,,13,116,1710014,,,2024-07-10,清算の結了等,,,2022-08-05,1,,,,,フューチャーエコ,0
341,2020005011237,登記記録の閉鎖等,0,2024-07-24,2024-07-10,特定非営利活動法人セーフティーウォータープロジェクト,,その他の設立登記法人,東京都,中央区,銀座１丁目１５番７号マック銀座ビル２０４,,13,102,1040061,,,2024-07-10,清算の結了等,,,2015-10-05,1,,,,,セーフティーウォータープロジェクト,0
345,2021002035872,登記記録の閉鎖等,0,2024-07-24,2024-07-22,有限会社オーク・サービス,,有限会社,神奈川県,伊勢原市,下糟屋３０２６－１６ＭＫＨＯＵＳＥＩＩ１０１,00121417,14,214,2591143,,,2024-07-22,清算の結了等,,,2015-10-05,1,,,,,オークサービス,0
346,2021002050161,登記記録の閉鎖等,0,2024-07-24,2024-07-19,有限会社内藤建材興業,,有限会社,神奈川県,足柄下郡湯河原町,鍛冶屋６７２番地の１,,14,384,2590313,,,2024-07-19,清算の結了等,,,2015-10-05,1,,,,,,0
349,2030001033960,登記記録の閉鎖等,0,2024-07-24,2024-07-19,株式会社スリーアローズ,,株式会社,埼玉県,久喜市,菖蒲町菖蒲４５２番地１０,,11,232,3460106,,,2024-07-19,清算の結了等,,,2015-10-05,1,,,,,スリーアローズ,0
364,2070001026069,登記記録の閉鎖等,0,2024-07-24,2024-07-19,株式会社ムーブ,,株式会社,群馬県,太田市,東矢島町１１０１パナハイツ大谷Ｂ棟１０５号,,10,205,3730816,,,2024-07-19,清算の結了等,,,2015-10-05,1,,,,,ムーブ,0
367,2070002034161,登記記録の閉鎖等,0,2024-07-24,2024-07-22,有限会社川嶋,,有限会社,群馬県,館林市,本町４丁目１４番５号,,10,207,3740024,,,2024-07-22,清算の結了等,,,2015-10-05,1,,,,,カワシマ,0
372,2080402015322,登記記録の閉鎖等,0,2024-07-24,2024-07-16,有限会社中村塗装店,,有限会社,静岡県,磐田市,新開９１４番地,,22,211,4380113,,,2024-07-16,清算の結了等,,,2015-10-05,1,,,,,ナカムラトソウテン,0
394,2120002010529,登記記録の閉鎖等,0,2024-07-24,2024-07-22,有限会社浅田,,有限会社,大阪府,大阪市平野区,平野本町４丁目８番３号,,27,126,5470044,,,2024-07-22,清算の結了等,,,2015-10-05,1,,,,,アサダ,0
396,2120102024255,登記記録の閉鎖等,0,2024-07-24,2024-07-22,有限会社泉州通信システム,,有限会社,大阪府,泉南郡田尻町,吉見５８０番地２０,,27,362,5980092,,,2024-07-22,清算の結了等,,,2015-10-05,1,,,,,,0
401,2140001023538,登記記録の閉鎖等,0,2024-07-24,2024-07-22,アラムアーツ株式会社,,株式会社,兵庫県,神戸市西区,春日台８丁目８番地の９４,,28,111,6512276,,,2024-07-22,清算の結了等,,,2015-10-05,1,,,,,アラムアーツ,0
406,2140002009750,登記記録の閉鎖等,0,2024-07-24,2024-07-22,有限会社オーティエム,,有限会社,兵庫県,神戸市北区,星和台１丁目１２番地の５,,28,109,6511121,,,2024-07-22,清算の結了等,,,2015-10-05,1,,,,,オーティエム,0
416,2180002076886,登記記録の閉鎖等,0,2024-07-24,2024-07-08,有限会社ツイン・トップ,,有限会社,愛知県,一宮市,猿海道３丁目１２番３１号,,23,203,4910838,,,2024-07-08,清算の結了等,,,2015-10-05,1,,,,,ツイントップ,0
420,2180302018563,登記記録の閉鎖等,0,2024-07-24,2024-07-09,有限会社俵屋,,有限会社,愛知県,刈谷市,一色町２丁目１０番地１,,23,210,4480022,,,2024-07-09,清算の結了等,,,2015-10-05,1,,,,,タワラヤ,0
422,2190002002296,登記記録の閉鎖等,0,2024-07-24,2024-07-22,有限会社ナカトチ,,有限会社,三重県,津市,河芸町千里ヶ丘２７番地の５,,24,201,5100302,,,2024-07-22,清算の結了等,,,2015-10-05,1,,,,,ナカトチ,0
425,2210002014207,登記記録の閉鎖等,0,2024-07-24,2024-07-12,有限会社槇食堂,00077976,有限会社,福井県,大飯郡おおい町,大島第３３号９８番地,,18,483,9192101,,,2024-07-12,清算の結了等,,,2015-10-05,1,,,,,マキショクドウ,0
431,2230003001086,登記記録の閉鎖等,0,2024-07-24,2024-07-19,合同会社Ｃｏｍｉｎｇ　ＨＯＰＥ,,合同会社,富山県,富山市,婦中町夢ケ丘１７５番地,,16,201,9392709,,,2024-07-19,清算の結了等,,,2017-01-23,1,,,,,カミングホープ,0
445,2290005008165,登記記録の閉鎖等,0,2024-07-24,2024-06-14,慶尚院,,その他の設立登記法人,福岡県,飯塚市,椿５９８番地,,40,205,8200084,,,2024-06-14,清算の結了等,,,2015-10-05,1,,,,,ケイショウイン,0
460,2370802000027,登記記録の閉鎖等,0,2024-07-24,2024-07-05,有限会社相沢建設,,有限会社,宮城県,名取市,名取が丘１丁目２番２５号,,04,207,9811235,,,2024-07-05,清算の結了等,,,2015-10-05,1,,,,,アイザワケンセツ,0
471,2500002015943,登記記録の閉鎖等,0,2024-07-24,2024-07-12,有限会社飯尾鐵工,,有限会社,愛媛県,新居浜市,萩生１４３８番地,,38,205,7920050,,,2024-07-12,清算の結了等,,,2015-10-05,1,,,,,イイオテッコウ,0
473,3010001062779,登記記録の閉鎖等,0,2024-07-24,2024-07-18,株式会社アドミックス,,株式会社,東京都,杉並区,今川２丁目２１番１５号,,13,115,1670035,,,2024-07-18,清算の結了等,,,2015-10-05,1,,,,,アドミックス,0
483,3010003022351,登記記録の閉鎖等,0,2024-07-24,2024-07-08,合同会社みよし,,合同会社,東京都,千代田区,丸の内３丁目１番１号東京共同会計事務所内,,13,101,1000005,,,2024-07-08,清算の結了等,,,2015-10-05,1,,,,,ミヨシ,0
485,3010005031796,登記記録の閉鎖等,0,2024-07-24,2024-07-09,一般社団法人ＤＥｉＢＡキャリア,,その他の設立登記法人,東京都,千代田区,神田神保町３丁目６番能楽書林ビル４階,,13,101,1010051,,,2024-07-09,清算の結了等,,,2020-05-12,1,,,,,デアイバキャリア,0
498,3010601043625,登記記録の閉鎖等,0,2024-07-24,2024-07-19,株式会社ＥＤＧＥ　ＭＯＴＩＯＮ,,株式会社,東京都,江東区,新大橋２丁目６番８号レクセルステージ東京１０１号,,13,108,1350007,,,2024-07-19,清算の結了等,,,2015-10-05,1,,,,,エッジモーション,0
503,3010801009236,登記記録の閉鎖等,0,2024-07-24,2024-07-10,株式会社西村製作所,,株式会社,東京都,大田区,仲池上２丁目１５番５号,,13,111,1460081,,,2024-07-10,合併による解散等,6010802011031,令和６年７月１０日東京都大田区仲池上二丁目１５番５号株式会社西村恒産（6010802011031）に合併し解散,2015-10-05,1,,,,,ニシムラセイサクジョ,0
506,3011001023770,登記記録の閉鎖等,0,2024-07-24,2024-07-12,株式会社結城屋,,株式会社,東京都,渋谷区,本町２丁目３番１２号,,13,113,1510071,,,2024-07-12,清算の結了等,,,2015-10-05,1,,,,,ユウキヤ,0
507,3011001031088,登記記録の閉鎖等,0,2024-07-24,2024-07-22,株式会社フィフティーズ,,株式会社,東京都,渋谷区,広尾１丁目３番１８号,,13,113,1500012,,,2024-07-22,清算の結了等,,,2015-10-05,1,,,,,フィフティーズ,0
512,3011003004298,登記記録の閉鎖等,0,2024-07-24,2024-07-04,フェルサ合同会社,,合同会社,東京都,渋谷区,代官山町２０番９号,,13,113,1500034,,,2024-07-04,清算の結了等,,,2015-10-05,1,,,,,フェルサ,0
541,3013402006387,登記記録の閉鎖等,0,2024-07-24,2024-07-23,有限会社桜ヶ丘ペットクリニック,,有限会社,東京都,多摩市,東寺方１丁目８番地の２８,,13,224,2060003,,,2024-07-23,清算の結了等,,,2015-10-05,1,,,,,サクラガオカペットクリニック,0
546,3020003010454,登記記録の閉鎖等,0,2024-07-24,2024-07-03,株式会社響来,,株式会社,神奈川県,川崎市高津区,溝口３丁目１１番４７号,,14,134,2130001,,,2024-07-03,清算の結了等,,,2015-10-05,1,,,,,ヒビキ,0
553,3030001025263,登記記録の閉鎖等,0,2024-07-24,2024-07-17,株式会社ユニコム,,株式会社,埼玉県,所沢市,西所沢２丁目１１番６号,,11,208,3591144,,,2024-07-17,清算の結了等,,,2015-10-05,1,,,,,ユニコム,0
554,3030001044528,登記記録の閉鎖等,0,2024-07-24,2024-07-18,株式会社Ｔｒｕｓｔ　Ｌｅａｐ,,株式会社,埼玉県,さいたま市北区,本郷町１２９３番地１,,11,102,3310802,,,2024-07-18,清算の結了等,,,2015-10-05,1,,,,,トラストリープ,0
560,3030003006427,登記記録の閉鎖等,0,2024-07-24,2024-07-16,ウエルカムホーム合同会社,,合同会社,埼玉県,ふじみ野市,大井中央１丁目９番８号,,11,245,3560058,,,2024-07-16,清算の結了等,,,2015-10-05,1,,,,,ウエルカムホーム,0
581,3070001030383,登記記録の閉鎖等,0,2024-07-24,2024-07-18,株式会社Ｆ．ＴＨＲＩＶＥ,,株式会社,群馬県,桐生市,川内町１丁目３６番地の３,,10,203,3760041,,,2024-07-18,清算の結了等,,,2015-10-05,1,,,,,,0
583,3070002026562,登記記録の閉鎖等,0,2024-07-24,2024-07-19,有限会社つるや食堂,,有限会社,群馬県,渋川市,伊香保町伊香保５０番地の６,,10,208,3770102,,,2024-07-19,清算の結了等,,,2015-10-05,1,,,,,ツルヤショクドウ,0
594,3100002032945,登記記録の閉鎖等,0,2024-07-24,2024-07-12,有限会社千田商会,,有限会社,長野県,伊那市,小沢７７９３番地３,,20,209,3960032,,,2024-07-12,清算の結了等,,,2015-10-05,1,,,,,センダショウカイ,0
599,3120001007888,登記記録の閉鎖等,0,2024-07-24,2024-07-22,株式会社タイラ設備,,株式会社,大阪府,大阪市都島区,高倉町２丁目９番１６号,,27,102,5340011,,,2024-07-22,清算の結了等,,,2015-10-05,1,,,,,タイラセツビ,0
618,3120003021474,登記記録の閉鎖等,0,2024-07-24,2024-07-22,合同会社ｕｎｔｒａｃｅ,,合同会社,大阪府,大阪市西区,北堀江２丁目６番１６号ブラン北堀江８０４,,27,106,5500014,,,2024-07-22,清算の結了等,,,2022-04-21,1,,,,,アントレース,0
634,3140001066247,登記記録の閉鎖等,0,2024-07-24,2024-07-12,株式会社荒木設備,,株式会社,兵庫県,三田市,三輪２丁目１番１２号丹商ビル３０３号室,,28,219,6691513,,,2024-07-12,清算の結了等,,,2015-10-05,1,,,,,アラキセツビ,0
661,3190002013706,登記記録の閉鎖等,0,2024-07-24,2024-07-22,有限会社かめや,,有限会社,三重県,松阪市,京町５０８番地の４,,24,204,5150017,,,2024-07-22,清算の結了等,,,2015-10-05,1,,,,,,0
667,3240001050711,登記記録の閉鎖等,0,2024-07-24,2024-07-18,株式会社Ｂ＆Ｐパートナーズ,,株式会社,広島県,神石郡神石高原町,井関２７４２番地２５,,34,545,7201602,,,2024-07-18,清算の結了等,,,2017-03-07,1,,,,,ビーアンドピーパートナーズ,0
672,3240002029556,登記記録の閉鎖等,0,2024-07-24,2024-07-19,千代田温泉有限会社,,有限会社,広島県,山県郡北広島町,南方４７９６番地,,34,369,7311523,,,2024-07-19,清算の結了等,,,2015-10-05,1,,,,,チヨダオンセン,0
674,3240002052616,登記記録の閉鎖等,0,2024-07-24,2024-07-18,久保工業有限会社,,有限会社,広島県,世羅郡世羅町,大字本郷６８９番地,,34,462,7221112,,,2024-07-18,清算の結了等,,,2015-10-05,1,,,,,クボコウギョウ,0
705,3400001014179,登記記録の閉鎖等,0,2024-07-24,2024-07-08,株式会社イーブイ,,株式会社,岩手県,紫波郡紫波町,中島字前郷１０１番地１３,,03,321,0283301,,,2024-07-08,清算の結了等,,,2018-06-05,1,,,,,イーブイ,0
710,3430001075680,登記記録の閉鎖等,0,2024-07-24,2024-07-16,株式会社ジュンアオ,,株式会社,北海道,札幌市白石区,東札幌三条４丁目５番１１号,,01,104,0030003,,,2024-07-16,清算の結了等,,,2018-01-12,1,,,,,ジュンアオ,0
714,3450001001775,登記記録の閉鎖等,0,2024-07-24,2024-07-16,大成測量設計株式会社,,株式会社,北海道,旭川市,九条通１３丁目２４番地３８３,,01,204,0700039,,,2024-07-16,清算の結了等,,,2015-10-05,1,,,,,タイセイソクリョウセッケイ,0
725,4010001232471,登記記録の閉鎖等,0,2024-07-24,2024-07-08,ＢＯＴＴＯＯＯ株式会社,,株式会社,東京都,文京区,西片１丁目１５番１２－１１０３号,,13,105,1130024,,,2024-07-08,清算の結了等,,,2023-01-25,1,,,,,ボットー,0
770,4011602007337,登記記録の閉鎖等,0,2024-07-24,2024-07-09,有限会社トミー,,有限会社,東京都,文京区,千石４丁目１３番９号１Ｆ,,13,105,1120011,,,2024-07-09,清算の結了等,,,2015-10-05,1,,,,,トミー,0
779,4012705002266,登記記録の閉鎖等,0,2024-07-24,2024-07-18,一般社団法人西東京市伝統文化育成会,,その他の設立登記法人,東京都,西東京市,北原町２丁目５番９号,,13,229,1880003,,,2024-07-18,清算の結了等,,,2021-06-15,1,,,,,ニシトウキョウシデントウブンカイクセイカイ,0
795,4030001028851,登記記録の閉鎖等,0,2024-07-24,2024-07-17,アンサー株式会社,,株式会社,埼玉県,所沢市,大字山口１０２５番地の６,,11,208,3591145,,,2024-07-17,清算の結了等,,,2015-10-05,1,,,,,アンサー,0
797,4030001064351,登記記録の閉鎖等,0,2024-07-24,2024-07-16,株式会社大祐商会,,株式会社,埼玉県,越谷市,神明町２丁目１６８番地１,,11,222,3430805,,,2024-07-16,清算の結了等,,,2015-10-05,1,,,,,ダイユウショウカイ,0
798,4030001069219,登記記録の閉鎖等,0,2024-07-24,2024-07-18,株式会社わかつき,,株式会社,埼玉県,鶴ヶ島市,大字脚折８９番地３７,,11,241,3502213,,,2024-07-18,清算の結了等,,,2015-10-05,1,,,,,ワカツキ,0
806,4040001015659,登記記録の閉鎖等,0,2024-07-24,2024-07-08,株式会社タナックス,,株式会社,千葉県,千葉市稲毛区,小中台町４３５番地１稲毛スカイタウン７棟７０２号,,12,103,2630044,,,2024-07-08,清算の結了等,,,2015-10-05,1,,,,,タナックス,0
815,4070002033913,登記記録の閉鎖等,0,2024-07-24,2024-07-19,有限会社丸山研究所,,有限会社,群馬県,館林市,富士見町５番３３号,,10,207,3740027,,,2024-07-19,清算の結了等,,,2015-10-05,1,,,,,マルヤマケンキュウジョ,0
816,4080001010524,登記記録の閉鎖等,0,2024-07-24,2024-07-11,株式会社ＨＳワークス,,株式会社,静岡県,静岡市葵区,人宿町２丁目２番地の１５,,22,101,4200037,,,2024-07-11,清算の結了等,,,2015-10-05,1,,,,,エイチエスワークス,0
817,4080002015051,登記記録の閉鎖等,0,2024-07-24,2024-07-11,石神細巾有限会社,,有限会社,静岡県,牧之原市,細江１５３５番地の３,,22,226,4210421,,,2024-07-11,清算の結了等,,,2015-10-05,1,,,,,イシガミホソハバ,0
819,4080101007593,登記記録の閉鎖等,0,2024-07-24,2024-07-12,株式会社らいふわーく・はあと,,株式会社,香川県,高松市,高松町１８１４番地１,,37,201,7610104,,,2024-07-12,清算の結了等,,,2015-10-05,1,,,,,ライフワークハアト,0
838,4120001197621,登記記録の閉鎖等,0,2024-07-24,2024-07-18,株式会社センティリオン,,株式会社,大阪府,大阪市北区,梅田２丁目２番２号ヒルトンプラザウエストオフィスタワー１９Ｆ,,27,127,5300001,,,2024-07-18,清算の結了等,,,2016-04-19,1,,,,,センティリオン,0
876,4140001005393,登記記録の閉鎖等,0,2024-07-24,2024-07-22,港工業株式会社,,株式会社,兵庫県,神戸市垂水区,霞ケ丘７丁目６番４号,,28,108,6550039,,,2024-07-22,清算の結了等,,,2015-10-05,1,,,,,ミナトコウギョウ,0
877,4140001029500,登記記録の閉鎖等,0,2024-07-24,2024-07-22,株式会社直真建設,,株式会社,兵庫県,神戸市垂水区,小束山２丁目１７番地の８,,28,108,6550002,,,2024-07-22,清算の結了等,,,2015-10-05,1,,,,,チョクシンケンセツ,0
884,4140002024426,登記記録の閉鎖等,0,2024-07-24,2024-07-22,有限会社サーブ,,有限会社,兵庫県,神戸市中央区,花隈町６番１－１００２号,,28,110,6500013,,,2024-07-22,清算の結了等,,,2015-10-05,1,,,,,サーブ,0
887,4140005005357,登記記録の閉鎖等,0,2024-07-24,2024-07-17,一般社団法人グレイス,,その他の設立登記法人,兵庫県,神戸市西区,美賀多台１丁目９番地の１西神シティヒルズ３１１号,,28,111,6512277,,,2024-07-17,清算の結了等,,,2015-10-05,1,,,,,グレイス,0
894,4180003009372,登記記録の閉鎖等,0,2024-07-24,2024-07-05,サニー合資会社,,合資会社,愛知県,西春日井郡豊山町,大字豊場字沢口４０番地,,23,342,4800202,,,2024-07-05,合併による解散等,8180001068375,令和６年７月５日名古屋市北区丸新町３９０番地リンクスビルＢＪ　ＨＯＬＤＩＮＧＳ株式会社（8180001068375）に合併し解散,2015-10-05,1,,,,,サニー,0
905,4240001033178,登記記録の閉鎖等,0,2024-07-24,2024-07-19,株式会社大塚,,株式会社,広島県,福山市,津之郷町大字津之郷９９５番地２,,34,207,7200841,,,2024-07-19,清算の結了等,,,2015-10-05,1,,,,,オオツカ,0
909,4250002011157,登記記録の閉鎖等,0,2024-07-24,2024-07-17,有限会社ミユキ,,有限会社,山口県,下関市,大字福江畑代１３６番地,,35,201,7596601,,,2024-07-17,清算の結了等,,,2015-10-05,1,,,,,ミユキ,0
913,4280002000990,登記記録の閉鎖等,0,2024-07-24,2024-07-19,有限会社サンツール,,有限会社,島根県,松江市,西川津町３２８０番地２,,32,201,6900823,,,2024-07-19,清算の結了等,,,2015-10-05,1,,,,,サンツール,0
921,4310002008287,登記記録の閉鎖等,0,2024-07-24,2024-07-11,有限会社明興機電工業,,有限会社,長崎県,西彼杵郡長与町,北陽台２丁目７番地３,,42,307,8512131,,,2024-07-11,清算の結了等,,,2015-10-05,1,,,,,メイコウキデンコウギョウ,0
939,4370601002692,登記記録の閉鎖等,0,2024-07-24,2024-07-18,株式会社ラクーンセンター,,株式会社,宮城県,仙台市宮城野区,新田３丁目１７番３号,,04,102,9830038,,,2024-07-18,合併による解散等,9010403013886,令和６年７月１日東京都千代田区永田町二丁目１４番３号東急不動産赤坂ビル３Ｆ株式会社ラクーンセンター（9010403013886）に合併し解散,2015-10-05,1,,,,,ラクーンセンター,0
940,4370801001247,登記記録の閉鎖等,0,2024-07-24,2024-07-02,株式会社日の丸,,株式会社,宮城県,岩沼市,恵み野２丁目５番地の６,,04,211,9892429,,,2024-07-02,清算の結了等,,,2015-10-05,1,,,,,ヒノマル,0
943,4380002012159,登記記録の閉鎖等,0,2024-07-24,2024-07-12,有限会社星工業所,,有限会社,福島県,郡山市,池ノ台７番７号,,07,203,9638875,,,2024-07-12,清算の結了等,,,2015-10-05,1,,,,,ホシコウギョウショ,0
948,4420002001149,登記記録の閉鎖等,0,2024-07-24,2024-07-18,有限会社ゴクローサン,,有限会社,青森県,青森市,千刈１丁目１４番１５号,,02,201,0380015,,,2024-07-18,清算の結了等,,,2015-10-05,1,,,,,ゴクローサン,0
956,4430002051804,登記記録の閉鎖等,0,2024-07-24,2024-07-17,有限会社雨竜観光,,有限会社,北海道,雨竜郡雨竜町,字オシラリカ１番地１５０,,01,436,0782600,,,2024-07-17,清算の結了等,,,2015-10-05,1,,,,,ウリュウカンコウ,0
958,4430003009413,登記記録の閉鎖等,0,2024-07-24,2024-07-17,エウント合同会社,,合同会社,北海道,札幌市中央区,南一条西１丁目１５番地３,,01,101,0600061,,,2024-07-17,清算の結了等,,,2018-05-30,1,,,,,エウント,0
996,5010701025249,登記記録の閉鎖等,0,2024-07-24,2024-07-18,平石設計株式会社,,株式会社,埼玉県,春日部市,内牧５０６１－１,,11,214,3440051,,,2024-07-18,清算の結了等,,,2015-10-05,1,,,,,ヒライシセッケイ,0
1031,5012702006954,登記記録の閉鎖等,0,2024-07-24,2024-07-17,有限会社玉木工務店,,有限会社,東京都,東久留米市,金山町１丁目１１番６号,,13,222,2030003,,,2024-07-17,清算の結了等,,,2015-10-05,1,,,,,タマキコウムテン,0
1034,5013301035056,登記記録の閉鎖等,0,2024-07-24,2024-07-19,３Ｈ　ＣＴＳ株式会社,,株式会社,東京都,豊島区,南池袋１丁目１３番２３号,,13,116,1710022,,,2024-07-19,合併による解散等,2010001101802,令和６年６月１日東京都港区虎ノ門三丁目４番７号ノイエス株式会社（2010001101802）に合併し解散,2015-10-05,1,,,,,スリーエイチシーティーエス,0
1043,5021002003439,登記記録の閉鎖等,0,2024-07-24,2024-07-23,有限会社テクニコ,,有限会社,神奈川県,藤沢市,片瀬５丁目２番２４号,,14,205,2510032,,,2024-07-23,清算の結了等,,,2015-10-05,1,,,,,テクニコ,0
1067,5040002012357,登記記録の閉鎖等,0,2024-07-24,2024-07-08,有限会社与兵衛商亊,,有限会社,千葉県,千葉市花見川区,柏井町１７８番地,,12,102,2620041,,,2024-07-08,清算の結了等,,,2015-10-05,1,,,,,ヨヘイショウジ,0
1068,5040002012919,登記記録の閉鎖等,0,2024-07-24,2024-07-08,有限会社高山測量事務所,,有限会社,千葉県,千葉市中央区,松ケ丘町２４番地,,12,101,2600807,,,2024-07-08,清算の結了等,,,2015-10-05,1,,,,,タカヤマソクリョウジムショ,0
1077,5080001022741,登記記録の閉鎖等,0,2024-07-24,2024-07-10,株式会社エイチ・アイ,,株式会社,静岡県,静岡市清水区,石川本町１８番３号,,22,103,4240006,,,2024-07-10,清算の結了等,,,2019-03-15,1,,,,,エイチアイ,0
1078,5080102007699,登記記録の閉鎖等,0,2024-07-24,2024-07-19,有限会社カサハラ,,有限会社,静岡県,御殿場市,東田中１８３６番地の１７,,22,215,4120026,,,2024-07-19,清算の結了等,,,2015-10-05,1,,,,,,0
1081,5110001021632,登記記録の閉鎖等,0,2024-07-24,2024-07-12,株式会社高橋測量,,株式会社,新潟県,糸魚川市,大字大野１２０３番地２,,15,216,9410071,,,2024-07-12,清算の結了等,,,2015-10-05,1,,,,,タカハシソクリョウ,0
1086,5110002027703,登記記録の閉鎖等,0,2024-07-24,2024-07-11,有限会社サンキュー工業,,有限会社,新潟県,長岡市,巻島１丁目１５０番地,,15,202,9402005,,,2024-07-11,清算の結了等,,,2015-10-05,1,,,,,サンキューコウギョウ,0
1138,5170005002846,登記記録の閉鎖等,0,2024-07-24,2024-07-22,特定非営利活動法人グリーンスペース,,その他の設立登記法人,和歌山県,有田郡有田川町,大字徳田９５番地３,,30,366,6430801,,,2024-07-22,清算の結了等,,,2015-10-05,1,,,,,グリーンスペース,0
1150,5190002017663,登記記録の閉鎖等,0,2024-07-24,2024-07-22,有限会社アビト,,有限会社,三重県,員弁郡東員町,城山１丁目３７番の１６,,24,324,5110233,,,2024-07-22,清算の結了等,,,2015-10-05,1,,,,,アビト,0
1152,5210001003785,登記記録の閉鎖等,0,2024-07-24,2024-07-16,株式会社三井,,株式会社,福井県,福井市,和田中１丁目１３１５,,18,201,9188236,,,2024-07-16,清算の結了等,,,2015-10-05,1,,,,,ミツイ,0
1157,5240001036700,登記記録の閉鎖等,0,2024-07-24,2024-07-17,マツダモーターインターナショナル株式会社,,株式会社,広島県,安芸郡府中町,新地３番１号,,34,302,7350028,,,2024-07-17,清算の結了等,,,2015-10-05,1,,,,,マツダモーターインターナショナル,0
1159,5240002044702,登記記録の閉鎖等,0,2024-07-24,2024-07-22,有限会社乾,,有限会社,広島県,福山市,曙町４丁目１０番３３－１号グレース曙Ａ２０２,00133378,34,207,7210952,,,2024-07-22,清算の結了等,,,2015-10-05,1,,,,,イヌイ,0
1165,5260002024999,登記記録の閉鎖等,0,2024-07-24,2024-07-19,国際運輸有限会社,,有限会社,岡山県,笠岡市,用之江４８５番地１,,33,205,7140066,,,2024-07-19,清算の結了等,,,2015-10-05,1,,,,,コクサイウンユ,0
1167,5270002009669,登記記録の閉鎖等,0,2024-07-24,2024-07-22,有限会社ひまわり薬局,,有限会社,鳥取県,東伯郡北栄町,瀬戸６４番地８,,31,372,6892205,,,2024-07-22,清算の結了等,,,2015-10-05,1,,,,,ヒマワリヤッキョク,0
1184,5330002019199,登記記録の閉鎖等,0,2024-07-24,2024-07-10,有限会社塚本電設,,有限会社,熊本県,熊本市北区,植木町大和４番地１８,,43,105,8610143,,,2024-07-10,清算の結了等,,,2015-10-05,1,,,,,ツカモトデンセツ,0
1220,6010001060904,登記記録の閉鎖等,0,2024-07-24,2024-07-08,若野基礎工業株式会社,,株式会社,東京都,中央区,日本橋箱崎町４４番５号,,13,102,1030015,,,2024-07-08,清算の結了等,,,2015-10-05,1,,,,,ワカノキソコウギョウ,0
1236,6010101004059,登記記録の閉鎖等,0,2024-07-24,2024-07-22,株式会社ユニバーサルシステムズ,,株式会社,東京都,府中市,宮西町２丁目１０番地の２,,13,206,1830022,,,2024-07-22,合併による解散等,4010001075763,令和６年７月１日東京都渋谷区代々木三丁目２８番６号ハイテクインター株式会社（4010001075763）に合併し解散,2015-10-05,1,,,,,ユニバーサルシステムズ,0
1247,6010502022378,登記記録の閉鎖等,0,2024-07-24,2024-07-11,有限会社弐壱一,,有限会社,東京都,台東区,台東１丁目２７番２号,,13,106,1100016,,,2024-07-11,清算の結了等,,,2015-10-05,1,,,,,ニイチイチ,0
1271,6011201018279,登記記録の閉鎖等,0,2024-07-24,2024-07-10,株式会社ｙａｎｙａ＆ｙａｎｙａ,,株式会社,東京都,台東区,東上野１丁目２１番３号東貴ビル３階,,13,106,1100015,,,2024-07-10,清算の結了等,,,2015-10-05,1,,,,,ヤンヤヤンヤ,0
1287,6012405001260,登記記録の閉鎖等,0,2024-07-24,2024-07-19,特定非営利活動法人ポップシップ,,その他の設立登記法人,東京都,府中市,本町１丁目１５番地の５ジュエリーコート府中４０２,,13,206,1830027,,,2024-07-19,清算の結了等,,,2015-10-05,1,,,,,ポップシップ,0
1293,6013302003606,登記記録の閉鎖等,0,2024-07-24,2024-07-18,有限会社コマンド,,有限会社,東京都,豊島区,池袋本町２丁目１２番２号,,13,116,1700011,,,2024-07-18,清算の結了等,,,2015-10-05,1,,,,,,0
1294,6013302012648,登記記録の閉鎖等,0,2024-07-24,2024-07-18,有限会社野村商事,,有限会社,東京都,豊島区,上池袋１丁目２３番３号,,13,116,1700012,,,2024-07-18,清算の結了等,,,2015-10-05,1,,,,,,0
1295,6020001031152,登記記録の閉鎖等,0,2024-07-24,2024-07-02,株式会社日本ネットシェア,,株式会社,神奈川県,横浜市港北区,新横浜２丁目５番１９号,,14,109,2220033,,,2024-07-02,合併による解散等,8011001029796,令和６年７月１日神奈川県横浜市港北区篠原北二丁目４番１号株式会社クロステックソリューションズ（8011001029796）に合併し解散,2015-10-05,1,,,,,,0
1296,6020001093399,登記記録の閉鎖等,0,2024-07-24,2024-07-01,株式会社エアフォルク,,株式会社,神奈川県,横浜市青葉区,市ケ尾町５２３番地８－２０３号室,,14,117,2250024,,,2024-07-01,清算の結了等,,,2015-10-05,1,,,,,エアフォルク,0
1297,6020001123775,登記記録の閉鎖等,0,2024-07-24,2024-07-03,ジョイント株式会社,,株式会社,神奈川県,川崎市宮前区,野川本町２丁目２７番１９号,,14,136,2160041,,,2024-07-03,清算の結了等,,,2017-11-14,1,,,,,ジョイント,0
1315,6030002075858,登記記録の閉鎖等,0,2024-07-24,2024-07-18,有限会社岸澤製作所,,有限会社,埼玉県,ふじみ野市,川崎５３６番地の１,,11,245,3560001,,,2024-07-18,清算の結了等,,,2015-10-05,1,,,,,キシザワセイサクジョ,0
1317,6030002096573,登記記録の閉鎖等,0,2024-07-24,2024-07-18,有限会社サンケンサービス,,有限会社,埼玉県,比企郡吉見町,大字北吉見２７８１番地１,,11,347,3550155,,,2024-07-18,清算の結了等,,,2015-10-05,1,,,,,サンケンサービス,0
1318,6030002097828,登記記録の閉鎖等,0,2024-07-24,2024-07-18,有限会社嵐山大野工業,,有限会社,埼玉県,比企郡嵐山町,大字志賀８５１番地,,11,342,3550214,,,2024-07-18,清算の結了等,,,2015-10-05,1,,,,,ランザンオオノコウギョウ,0
1320,6040001093331,登記記録の閉鎖等,0,2024-07-24,2024-07-08,株式会社ヨシヒロ,,株式会社,千葉県,船橋市,本町２丁目２９番１１号,,12,204,2730005,,,2024-07-08,清算の結了等,,,2015-12-21,1,,,,,ヨシヒロ,0
1323,6040002020706,登記記録の閉鎖等,0,2024-07-24,2024-07-08,有限会社ウィン電子工業,,有限会社,千葉県,船橋市,大穴南４丁目９番３号,,12,204,2740067,,,2024-07-08,清算の結了等,,,2015-10-05,1,,,,,,0
1324,6040002100912,登記記録の閉鎖等,0,2024-07-24,2024-07-08,有限会社太治平商店,,有限会社,千葉県,鴨川市,貝渚２７００番地の１,,12,223,2960004,,,2024-07-08,清算の結了等,,,2015-10-05,1,,,,,タジベイショウテン,0
1326,6040003019697,登記記録の閉鎖等,0,2024-07-24,2024-07-08,合同会社バタフライライフウェルネス＆スポーツ,,合同会社,千葉県,習志野市,津田沼１丁目３番１号４Ｆ,,12,216,2750016,,,2024-07-08,清算の結了等,,,2022-03-23,1,,,,,バタフライライフウェルネスアンドスポーツ,0
1348,6110005007362,登記記録の閉鎖等,0,2024-07-24,2024-07-10,特定非営利活動法人柏刈助け合いちょこっと,,その他の設立登記法人,新潟県,柏崎市,宮場町１番２１号,,15,205,9450827,,,2024-07-10,清算の結了等,,,2015-10-05,1,,,,,カシカリタスケアイチョコット,0
1351,6120001130984,登記記録の閉鎖等,0,2024-07-24,2024-07-22,株式会社スター＆パートナーズ,,株式会社,大阪府,大阪市中央区,上町Ａ番１２号,,27,128,5400005,,,2024-07-22,清算の結了等,,,2015-10-05,1,,,,,スターアンドパートナーズ,0
1368,6120003024516,登記記録の閉鎖等,0,2024-07-24,2024-07-22,合同会社ウェブマネジメント,,合同会社,大阪府,大阪市福島区,福島７丁目２０－１８シティタワー西梅田２１０５,,27,103,5530003,,,2024-07-22,清算の結了等,,,2023-07-19,1,,,,,ウェブマネジメント,0
1375,6120901018593,登記記録の閉鎖等,0,2024-07-24,2024-07-17,インテグラルワン株式会社,,株式会社,大阪府,高槻市,西冠２丁目１２番１４号,,27,207,5690055,,,2024-07-17,清算の結了等,,,2015-10-05,1,,,,,インテグラルワン,0
1390,6150001001654,登記記録の閉鎖等,0,2024-07-24,2024-07-19,奈良空調メインテナンス株式会社,,株式会社,奈良県,奈良市,西大寺北町１丁目６番１０号,,29,201,6310817,,,2024-07-19,清算の結了等,,,2015-10-05,1,,,,,ナラクウチョウメインテナンス,0
1398,6180301036884,登記記録の閉鎖等,0,2024-07-24,2024-07-10,株式会社Ｆｕｒｙ,,株式会社,愛知県,豊橋市,西幸町字浜池３３３番地９豊橋サイエンスコア１０９,,23,201,4418113,,,2024-07-10,清算の結了等,,,2022-12-07,1,,,,,フューリー,0
1401,6180302006077,登記記録の閉鎖等,0,2024-07-24,2024-07-09,有限会社アイ・コム,,有限会社,愛知県,田原市,赤羽根町大ケ口２番地,,23,231,4413502,,,2024-07-09,清算の結了等,,,2015-10-05,1,,,,,アイコム,0
1411,6210005005158,登記記録の閉鎖等,0,2024-07-24,2024-07-16,特定非営利活動法人わいわいポケット,,その他の設立登記法人,福井県,福井市,福町第２８号４９番地,,18,201,9188027,,,2024-07-16,清算の結了等,,,2015-10-05,1,,,,,ワイワイポケット,0
1423,6240002036236,登記記録の閉鎖等,0,2024-07-24,2024-07-22,有限会社オフィスなかの,,有限会社,広島県,呉市,阿賀北５丁目１６番５号,,34,202,7370001,,,2024-07-22,清算の結了等,,,2015-10-05,1,,,,,オフィスナカノ,0
1425,6250001011230,登記記録の閉鎖等,0,2024-07-24,2024-07-22,株式会社タナカプラント,,株式会社,広島県,廿日市市,林が原１丁目８番１３－１２号,,34,213,7390444,,,2024-07-22,清算の結了等,,,2015-10-05,1,,,,,タナカプラント,0
1428,6290001007019,登記記録の閉鎖等,0,2024-07-24,2024-07-12,株式会社九州富士商会,,株式会社,福岡県,福岡市中央区,平和３丁目４番２５号,,40,133,8100016,,,2024-07-12,清算の結了等,,,2015-10-05,1,,,,,キュウシュウフジショウカイ,0
1441,6320001017294,登記記録の閉鎖等,0,2024-07-24,2024-07-05,株式会社ワイズコーポレーション,,株式会社,大分県,大分市,中津留２丁目３番２３号（田中ビル１０１号室）,,44,201,8700939,,,2024-07-05,清算の結了等,,,2019-09-24,1,,,,,ワイズコーポレーション,0
1442,6330001010991,登記記録の閉鎖等,0,2024-07-24,2024-07-19,株式会社井関熊本製造所,,株式会社,熊本県,上益城郡益城町,大字安永１４００番地,,43,443,8612231,,,2024-07-19,合併による解散等,7500001004562,令和６年７月１日愛媛県松山市馬木町７００番地株式会社ＩＳＥＫＩ　Ｍ＆Ｄ（7500001004562）に合併し解散,2015-10-05,1,,,,,イセキクマモトセイゾウショ,0
1446,6360001024007,登記記録の閉鎖等,0,2024-07-24,2024-07-12,株式会社ＭＥＩ,,株式会社,沖縄県,那覇市,久茂地１丁目４番１号くもいちビル１Ｆ,,47,201,9000015,,,2024-07-12,清算の結了等,,,2018-05-21,1,,,,,メイ,0
1458,6430001036738,登記記録の閉鎖等,0,2024-07-24,2024-07-16,株式会社エアテック,,株式会社,北海道,札幌市北区,篠路六条５丁目３番１３号,,01,102,0028026,,,2024-07-16,清算の結了等,,,2015-10-05,1,,,,,エアテック,0
1461,6430002056628,登記記録の閉鎖等,0,2024-07-24,2024-07-16,有限会社丸天佐藤,,有限会社,北海道,積丹郡積丹町,大字日司町３４番地,,01,405,0460326,,,2024-07-16,清算の結了等,,,2015-10-05,1,,,,,マルテンサトウ,0
1471,7010001225992,登記記録の閉鎖等,0,2024-07-24,2024-07-09,株式会社Ｂｉｏｃｏｒｐ,,株式会社,東京都,中央区,日本橋本町２丁目２番２号日本橋本町ＹＳビル２階在日フランス商工会議所,,13,102,1030023,,,2024-07-09,清算の結了等,,,2022-04-19,1,,,,,ビオコープ,0
1486,7010402028887,登記記録の閉鎖等,0,2024-07-24,2024-07-04,有限会社ラスール,,有限会社,東京都,港区,赤坂２丁目８番１９号,,13,103,1070052,,,2024-07-04,清算の結了等,,,2015-10-05,1,,,,,ラスール,0
1498,7010601018193,登記記録の閉鎖等,0,2024-07-24,2024-07-08,株式会社ＨＧ　Ｈｅａｌｔｈ　Ｃａｒｅ,,株式会社,千葉県,市原市,喜多９０６番３０３,,12,219,2900167,,,2024-07-08,清算の結了等,,,2015-10-05,1,,,,,エイチジーヘルスケア,0
1511,7011001020310,登記記録の閉鎖等,0,2024-07-24,2024-07-22,株式会社文華堂,,株式会社,東京都,渋谷区,千駄ヶ谷２丁目６番７号,,13,113,1510051,,,2024-07-22,清算の結了等,,,2015-10-05,1,,,,,ブンカドウ,0
1516,7011003004716,登記記録の閉鎖等,0,2024-07-24,2024-07-04,エスエスリーシング合同会社,,合同会社,東京都,渋谷区,代官山町２０番９号,,13,113,1500034,,,2024-07-04,清算の結了等,,,2015-10-05,1,,,,,エスエスリーシング,0
1517,7011003011992,登記記録の閉鎖等,0,2024-07-24,2024-07-17,合同会社Ｗ’ｌｅｓ,,合同会社,埼玉県,羽生市,南羽生１丁目６－１２,,11,216,3480071,,,2024-07-17,清算の結了等,,,2020-12-23,1,,,,,ダブルス,0
1521,7011101064059,登記記録の閉鎖等,0,2024-07-24,2024-07-08,ＴＭヘルスケア株式会社,,株式会社,東京都,千代田区,飯田橋３丁目８番５号住友不動産飯田橋駅前ビル８階,,13,101,1020072,,,2024-07-08,合併による解散等,9011101081283,令和６年７月１日東京都千代田区飯田橋三丁目８番５号住友不動産飯田橋駅前ビル８階ＴＭホールディングス株式会社（9011101081283）に合併し解散,2015-10-05,1,,,,,ティーエムヘルスケア,0
1537,7011802024071,登記記録の閉鎖等,0,2024-07-24,2024-07-22,有限会社内田工業,,有限会社,東京都,足立区,入谷１丁目４番１号,,13,121,1210836,,,2024-07-22,清算の結了等,,,2015-10-05,1,,,,,,0
1544,7013302000602,登記記録の閉鎖等,0,2024-07-24,2024-07-11,有限会社安伸建築設計事務所,,有限会社,東京都,豊島区,高松３丁目１０番３号,,13,116,1710042,,,2024-07-11,清算の結了等,,,2015-10-05,1,,,,,アンシンケンチクセッケイジムショ,0
1547,7020001104353,登記記録の閉鎖等,0,2024-07-24,2024-07-05,株式会社あんしん健康ライフ,,株式会社,神奈川県,横浜市栄区,本郷台５丁目１０番１０号,,14,115,2470008,,,2024-07-05,清算の結了等,,,2015-10-05,1,,,,,アンシンケンコウライフ,0
1549,7020002093232,登記記録の閉鎖等,0,2024-07-24,2024-07-01,有限会社藤野酒店,,有限会社,神奈川県,川崎市多摩区,西生田４丁目１番８号,,14,135,2140037,,,2024-07-01,清算の結了等,,,2015-10-05,1,,,,,,0
1550,7020002098644,登記記録の閉鎖等,0,2024-07-24,2024-07-03,有限会社畑中精機,,有限会社,神奈川県,川崎市川崎区,大師河原２丁目４番１３－９０１号,,14,131,2100811,,,2024-07-03,清算の結了等,,,2015-10-05,1,,,,,ハタナカセイキ,0
1559,7030001046792,登記記録の閉鎖等,0,2024-07-24,2024-07-18,株式会社富澤地所,,株式会社,埼玉県,和光市,白子２丁目１４番１９号,,11,229,3510101,,,2024-07-18,清算の結了等,,,2015-10-05,1,,,,,トミザワジショ,0
1562,7030002002084,登記記録の閉鎖等,0,2024-07-24,2024-07-19,有限会社榎本工業,,有限会社,埼玉県,さいたま市桜区,大字塚本８番地１,,11,106,3380816,,,2024-07-19,清算の結了等,,,2015-10-05,1,,,,,エノモトコウギョウ,0
1569,7040001023147,登記記録の閉鎖等,0,2024-07-24,2024-07-08,株式会社ディーエーエル,,株式会社,千葉県,船橋市,潮見町１１番地,,12,204,2730016,,,2024-07-08,清算の結了等,,,2015-10-05,1,,,,,ディーエーエル,0
1571,7040001059942,登記記録の閉鎖等,0,2024-07-24,2024-07-08,米倉建設株式会社,,株式会社,千葉県,長生郡長生村,一松８７４番地,,12,423,2994327,,,2024-07-08,清算の結了等,,,2015-10-05,1,,,,,ヨネクラケンセツ,0
1572,7040001090781,登記記録の閉鎖等,0,2024-07-24,2024-07-08,株式会社梨木設備工業,,株式会社,千葉県,野田市,目吹４２番地の４４,,12,208,2780001,,,2024-07-08,清算の結了等,,,2015-10-05,1,,,,,ナシキセツビコウギョウ,0
1580,7070005007754,登記記録の閉鎖等,0,2024-07-24,2024-07-19,八ツ場林業協同組合,,その他の設立登記法人,群馬県,吾妻郡長野原町,大字川原湯４５４番地の９７,,10,424,3771302,,,2024-07-19,清算の結了等,,,2015-10-05,1,,,,,ヤンバリンギョウ,0
1584,7080102004050,登記記録の閉鎖等,0,2024-07-24,2024-07-22,有限会社フジネオン電飾,,有限会社,静岡県,沼津市,足高２８２番地の２,,22,203,4100001,,,2024-07-22,清算の結了等,,,2015-10-05,1,,,,,フジネオンデンショク,0
1586,7080102011402,登記記録の閉鎖等,0,2024-07-24,2024-07-17,有限会社ワタナベ住設,,有限会社,静岡県,三島市,谷田７７０番地の２０,,22,206,4110801,,,2024-07-17,清算の結了等,,,2015-10-05,1,,,,,,0
1589,7100001020889,登記記録の閉鎖等,0,2024-07-24,2024-07-12,株式会社アートコート,,株式会社,長野県,伊那市,御園３９９番地１,,20,209,3960022,,,2024-07-12,清算の結了等,,,2015-10-05,1,,,,,アートコート,0
1590,7100002029896,登記記録の閉鎖等,0,2024-07-24,2024-07-09,有限会社くらふとはうす,,有限会社,長野県,茅野市,宮川４５４７番地,,20,214,3910013,,,2024-07-09,清算の結了等,,,2015-10-05,1,,,,,クラフトハウス,0
1594,7110005015991,登記記録の閉鎖等,0,2024-07-24,2024-07-11,特定非営利活動法人有芽創生機構,,その他の設立登記法人,新潟県,中魚沼郡津南町,大字秋成１２３００番地ニュー・グリーンピア津南,,15,482,9498313,,,2024-07-11,清算の結了等,,,2016-08-22,1,,,,,ユメソウセイキコウ,0
1617,7120902015977,登記記録の閉鎖等,0,2024-07-24,2024-07-18,株式会社ＯＦＦＩＣＥＫ,,株式会社,大阪府,大阪市平野区,平野西６丁目５番９－１４０１号,,27,126,5470033,,,2024-07-18,清算の結了等,,,2015-10-05,1,,,,,,0
1644,7150003002311,登記記録の閉鎖等,0,2024-07-24,2024-07-19,合同会社ウェル,,合同会社,奈良県,大和高田市,礒野町３番２５号,,29,202,6350093,,,2024-07-19,清算の結了等,,,2021-02-04,1,,,,,ウェル,0
1663,7180302009839,登記記録の閉鎖等,0,2024-07-24,2024-07-09,馬見塚電設有限会社,,有限会社,愛知県,豊橋市,馬見塚町１１４番地,,23,201,4418007,,,2024-07-09,清算の結了等,,,2015-10-05,1,,,,,マミヅカデンセツ,0
1670,7210001009772,登記記録の閉鎖等,0,2024-07-24,2024-07-18,共栄電機株式会社,,株式会社,福井県,大野市,明倫町５番１１号,,18,205,9120083,,,2024-07-18,清算の結了等,,,2015-10-05,1,,,,,キョウエイデンキ,0
1672,7250001014249,登記記録の閉鎖等,0,2024-07-24,2024-07-12,株式会社環境企画設計コンサルタント,,株式会社,山口県,下関市,川中豊町１丁目３番８号,,35,201,7510853,,,2024-07-12,合併による解散等,5250001005274,令和６年７月１１日山口県下関市川中豊町一丁目３番８号株式会社環境企画設計（5250001005274）に合併し解散,2015-10-05,1,,,,,カンキョウキカクセッケイコンサルタント,0
1685,7310002009200,登記記録の閉鎖等,0,2024-07-24,2024-07-10,有限会社井上斉爾建築設計事務所,,有限会社,長崎県,佐世保市,泉町７番４号,,42,202,8570057,,,2024-07-10,清算の結了等,,,2015-10-05,1,,,,,イノウエセイジケンチクセッケイジムショ,0
1686,7320001010265,登記記録の閉鎖等,0,2024-07-24,2024-07-16,株式会社大分ボール種苗センター,,株式会社,大分県,玖珠郡九重町,大字田野字鳴川１７２６番地,,44,461,8794911,,,2024-07-16,合併による解散等,7090001011262,令和６年７月１日山梨県北杜市小淵沢町上笹尾３１８１番地４株式会社エム・アンド・ビー・フローラ（7090001011262）に合併し解散,2015-10-05,1,,,,,オオイタボールシュビョウセンター,0
1692,7340001009297,登記記録の閉鎖等,0,2024-07-24,2024-07-23,かぎん代理店株式会社,,株式会社,鹿児島県,鹿児島市,泉町３番３号,,46,201,8920822,,,2024-07-23,清算の結了等,,,2015-10-05,1,,,,,カギンダイリテン,0
1693,7340005004699,登記記録の閉鎖等,0,2024-07-24,2024-07-17,医療法人大野耳鼻咽喉科,,その他の設立登記法人,鹿児島県,奄美市,名瀬久里町１６番３号,,46,222,8940022,,,2024-07-17,清算の結了等,,,2015-10-05,1,,,,,オオノジビインコウカ,0
1703,7380002000581,登記記録の閉鎖等,0,2024-07-24,2024-07-11,有限会社エフエフサービス,,有限会社,福島県,福島市,南向台３丁目１７番地の８,,07,201,9608143,,,2024-07-11,清算の結了等,,,2015-10-05,1,,,,,,0
1709,7400002003276,登記記録の閉鎖等,0,2024-07-24,2024-07-08,有限会社武藏畳店,,有限会社,岩手県,盛岡市,本町通３丁目１５番３２号,,03,201,0200015,,,2024-07-08,清算の結了等,,,2015-10-05,1,,,,,ムサシタタミテン,0
1713,7430001001872,登記記録の閉鎖等,0,2024-07-24,2024-07-16,上杉建装株式会社,,株式会社,北海道,札幌市西区,西野五条７丁目９番１号,,01,107,0630035,,,2024-07-16,清算の結了等,,,2015-10-05,1,,,,,ウエスギケンソウ,0
1743,8010401025463,登記記録の閉鎖等,0,2024-07-24,2024-07-04,ファーイースト興産株式会社,,株式会社,東京都,港区,虎ノ門４丁目３番１号,,13,103,1050001,,,2024-07-04,清算の結了等,,,2015-10-05,1,,,,,ファーイーストコウサン,0
1761,8010701004019,登記記録の閉鎖等,0,2024-07-24,2024-07-04,株式会社サンリオファーイースト,,株式会社,東京都,品川区,大崎１丁目６番１号,,13,109,1410032,,,2024-07-04,合併による解散等,5010701003956,令和６年７月１日東京都品川区大崎一丁目６番１号株式会社サンリオ（5010701003956）に合併し解散,2015-10-05,1,,,,,サンリオファーイースト,0
1766,8010802019320,登記記録の閉鎖等,0,2024-07-24,2024-07-12,インター商事有限会社,,有限会社,東京都,大田区,田園調布南８番１－４０２号,,13,111,1450076,,,2024-07-12,清算の結了等,,,2015-10-05,1,,,,,インターショウジ,0
1784,8011101095805,登記記録の閉鎖等,0,2024-07-24,2024-07-08,株式会社Ｇ－ｇｅｎ,,株式会社,東京都,新宿区,揚場町１番２１号,,13,104,1620824,,,2024-07-08,合併による解散等,9010001101432,令和６年７月１日東京都新宿区揚場町１番２１号株式会社Ｇ‐ｇｅｎ（9010001101432）に合併し解散,2021-07-27,1,,,,,ジージェン,0
1802,8011802002489,登記記録の閉鎖等,0,2024-07-24,2024-07-17,有限会社倉橋工業所,,有限会社,東京都,葛飾区,東立石１丁目１８番６号,,13,122,1240013,,,2024-07-17,清算の結了等,,,2015-10-05,1,,,,,,0
1805,8012401021797,登記記録の閉鎖等,0,2024-07-24,2024-07-22,株式会社ＡＭＯ,,株式会社,東京都,三鷹市,下連雀５丁目５番１－１２０号,,13,204,1810013,,,2024-07-22,清算の結了等,,,2015-10-05,1,,,,,エーエムオー,0
1819,8020001134283,登記記録の閉鎖等,0,2024-07-24,2024-07-03,株式会社Ｆｒｏｍアール,,株式会社,神奈川県,横浜市都筑区,茅ケ崎東５丁目１１－１２ハイツモルゲン３０６号室,,14,118,2240033,,,2024-07-03,清算の結了等,,,2020-01-06,1,,,,,フロムアール,0
1821,8021001069890,登記記録の閉鎖等,0,2024-07-24,2024-07-22,株式会社ＳＡＮ　ＣＵＢＥ,,株式会社,神奈川県,相模原市緑区,橋本２丁目３番２２号,,14,151,2520143,,,2024-07-22,清算の結了等,,,2020-05-15,1,,,,,サンキューブ,0
1827,8021002032377,登記記録の閉鎖等,0,2024-07-24,2024-07-19,有限会社高柳塗装店,,有限会社,神奈川県,厚木市,妻田北２丁目２４番８号,,14,212,2430812,,,2024-07-19,清算の結了等,,,2015-10-05,1,,,,,タカヤナギトソウテン,0
1830,8030001021150,登記記録の閉鎖等,0,2024-07-24,2024-07-18,日本システムサービス株式会社埼玉システムサービス,,株式会社,埼玉県,蕨市,中央４丁目７番６号,,11,223,3350004,,,2024-07-18,清算の結了等,,,2015-10-05,1,,,,,ニホンシステムサービスサイタマシステムサービス,0
1837,8040001106149,登記記録の閉鎖等,0,2024-07-24,2024-07-08,ＲＩＯ　ＦＯＯＤＳ株式会社,,株式会社,千葉県,八千代市,八千代台南１丁目１番１０号,,12,221,2760033,,,2024-07-08,清算の結了等,,,2018-09-21,1,,,,,リオフーズ,0
1859,8110001001391,登記記録の閉鎖等,0,2024-07-24,2024-07-11,株式会社ウィル・イノベーション・トレンド,,株式会社,新潟県,新潟市中央区,西堀前通５番町７４８番地,,15,103,9518062,,,2024-07-11,清算の結了等,,,2015-10-05,1,,,,,ウィルイノベーショントレンド,0
1864,8120001143670,登記記録の閉鎖等,0,2024-07-24,2024-07-22,株式会社クレド,,株式会社,大阪府,大阪市中央区,瓦町３丁目３番１６号,,27,128,5410048,,,2024-07-22,清算の結了等,,,2015-10-05,1,,,,,クレド,0
1881,8120101037715,登記記録の閉鎖等,0,2024-07-24,2024-07-17,株式会社森田電機,,株式会社,大阪府,岸和田市,箕土路町２丁目１０番５号,,27,202,5960801,,,2024-07-17,清算の結了等,,,2015-10-05,1,,,,,モリタデンキ,0
1883,8120101056186,登記記録の閉鎖等,0,2024-07-24,2024-07-19,オリジン株式会社,,株式会社,大阪府,富田林市,藤沢台６丁目１９番２１号,,27,214,5840071,,,2024-07-19,清算の結了等,,,2017-03-14,1,,,,,オリジン,0
1885,8120901009847,登記記録の閉鎖等,0,2024-07-24,2024-07-19,株式会社錦工務店,,株式会社,大阪府,摂津市,鳥飼上３丁目５番５号,,27,224,5660062,,,2024-07-19,清算の結了等,,,2015-10-05,1,,,,,ニシキコウムテン,0
1887,8122001025089,登記記録の閉鎖等,0,2024-07-24,2024-07-22,株式会社裕エステート,,株式会社,大阪府,大阪市浪速区,大国３丁目９－１６－２０１,,27,111,5560014,,,2024-07-22,清算の結了等,,,2015-10-05,1,,,,,ユタカエステート,0
1892,8130003000084,登記記録の閉鎖等,0,2024-07-24,2024-07-11,合名会社絵具司びゃくこ,,合名会社,京都府,京都市下京区,東洞院通高辻下る燈籠町５７９番地,00038030,26,106,6008401,,,2024-07-11,清算の結了等,,,2015-10-05,1,,,,,エノグツカサビャクコ,0
1906,8150001022797,登記記録の閉鎖等,0,2024-07-24,2024-07-19,株式会社ウエダ工業,,株式会社,奈良県,大和高田市,栄町１番５号ラベンダーハウス,,29,202,6350064,,,2024-07-19,清算の結了等,,,2019-01-28,1,,,,,ウエダコウギョウ,0
1932,8220002012872,登記記録の閉鎖等,0,2024-07-24,2024-07-11,有限会社マルツ食品,,有限会社,石川県,加賀市,片山津温泉井１９番地,,17,206,9220412,,,2024-07-11,清算の結了等,,,2015-10-05,1,,,,,,0
1935,8240001021006,登記記録の閉鎖等,0,2024-07-24,2024-07-22,株式会社みつば塗装,,株式会社,広島県,広島市安佐南区,上安２丁目４９番２号,,34,105,7310154,,,2024-07-22,清算の結了等,,,2015-10-05,1,,,,,ミツバトソウ,0
1939,8240005006894,登記記録の閉鎖等,0,2024-07-24,2024-07-18,一般財団法人もみのき森林公園協会,,その他の設立登記法人,広島県,廿日市市,吉和１５９３番地７５,,34,213,7380301,,,2024-07-18,清算の結了等,,,2015-10-05,1,,,,,モミノキシンリンコウエンキョウカイ,0
1956,8290802022230,登記記録の閉鎖等,0,2024-07-24,2024-07-09,有限会社桑野燃料,,有限会社,福岡県,行橋市,西宮市５丁目３０番１５号,,40,213,8240031,,,2024-07-09,清算の結了等,,,2015-10-05,1,,,,,クワノネンリョウ,0
1960,8320002016987,登記記録の閉鎖等,0,2024-07-24,2024-07-09,津田建設有限会社,,有限会社,大分県,佐伯市,蒲江大字蒲江浦２３７３番地,,44,205,8762401,,,2024-07-09,清算の結了等,,,2015-10-05,1,,,,,,0
1961,8340001014932,登記記録の閉鎖等,0,2024-07-24,2024-07-18,株式会社内山組,,株式会社,鹿児島県,志布志市,志布志町志布志２６３８番地,,46,221,8997103,,,2024-07-18,清算の結了等,,,2015-10-05,1,,,,,ウチヤマグミ,0
1962,8350002002935,登記記録の閉鎖等,0,2024-07-24,2024-07-11,有限会社田實工務店,,有限会社,宮崎県,宮崎市,北権現町２６３番地,,45,201,8800823,,,2024-07-11,清算の結了等,,,2015-10-05,1,,,,,タジツコウムテン,0
1963,8350005003732,登記記録の閉鎖等,0,2024-07-24,2024-07-17,医療法人社団正立会,,その他の設立登記法人,宮崎県,都城市,金田町２２６３番地,,45,202,8850001,,,2024-07-17,合併による解散等,4040005009946,令和６年７月１日千葉県東金市堀上字関之上７３番地１医療法人社団明生会（4040005009946）に合併し解散,2015-10-05,1,,,,,セイリュウカイ,0
1970,8400001015313,登記記録の閉鎖等,0,2024-07-24,2024-07-08,株式会社ＳＡＭＵＲＡＩ桃太郎,,株式会社,岩手県,奥州市,江刺岩谷堂字下苗代沢６４６番地１,,03,215,0231101,,,2024-07-08,清算の結了等,,,2021-02-09,1,,,,,サムライモモタロウ,0
1982,8430001042214,登記記録の閉鎖等,0,2024-07-24,2024-07-23,株式会社若宮商店,,株式会社,北海道,札幌市中央区,北十二条西２３丁目２番７号,,01,101,0600012,,,2024-07-23,清算の結了等,,,2015-10-05,1,,,,,ワカミヤショウテン,0
1988,8460001003205,登記記録の閉鎖等,0,2024-07-24,2024-07-22,太陽自動車工業株式会社,,株式会社,北海道,川上郡標茶町,麻生７丁目３５番地,,01,664,0882305,,,2024-07-22,清算の結了等,,,2015-10-05,1,,,,,タイヨウジドウシャコウギョウ,0
1992,8500002012258,登記記録の閉鎖等,0,2024-07-24,2024-07-12,有限会社井上組,,有限会社,愛媛県,西予市,宇和町岩木１５５０番地,,38,214,7970026,,,2024-07-12,清算の結了等,,,2015-10-05,1,,,,,イノウエグミ,0
1993,9010001019690,登記記録の閉鎖等,0,2024-07-24,2024-07-04,株式会社システム．ダイナミックス,,株式会社,東京都,千代田区,神田神保町３丁目６番地６,,13,101,1010051,,,2024-07-04,清算の結了等,,,2015-10-05,1,,,,,システムダイナミックス,0
1994,9010001084009,登記記録の閉鎖等,0,2024-07-24,2024-07-22,株式会社フリーランドアクセス,,株式会社,神奈川県,茅ヶ崎市,中海岸４丁目２番７５号,,14,207,2530055,,,2024-07-22,清算の結了等,,,2015-10-05,1,,,,,フリーランドアクセス,0
2028,9011001100589,登記記録の閉鎖等,0,2024-07-24,2024-07-19,ディープノット株式会社,,株式会社,東京都,渋谷区,神宮前６丁目２３番４号桑野ビル２階,,13,113,1500001,,,2024-07-19,清算の結了等,,,2015-10-05,1,,,,,ディープノット,0
2054,9011702015598,登記記録の閉鎖等,0,2024-07-24,2024-07-16,有限会社倉商店,,有限会社,東京都,江戸川区,江戸川１丁目６番６号,,13,123,1320013,,,2024-07-16,清算の結了等,,,2015-10-05,1,,,,,クラショウテン,0
2068,9012702001290,登記記録の閉鎖等,0,2024-07-24,2024-07-18,有限会社トゥルー,,有限会社,東京都,小平市,学園西町２丁目２０番１５号,,13,211,1870045,,,2024-07-18,清算の結了等,,,2015-10-05,1,,,,,トゥルー,0
2071,9013302000930,登記記録の閉鎖等,0,2024-07-24,2024-07-18,有限会社田舎家,,有限会社,東京都,豊島区,目白２丁目１６番１７－３０２号,,13,116,1710031,,,2024-07-18,清算の結了等,,,2015-10-05,1,,,,,,0
2074,9020002043631,登記記録の閉鎖等,0,2024-07-24,2024-07-02,有限会社タキザワ,,有限会社,神奈川県,横浜市中区,本牧町２丁目３２３－１ベルハウス本牧３０１号室,,14,104,2310806,,,2024-07-02,清算の結了等,,,2015-10-05,1,,,,,タキザワ,0
2079,9021001020365,登記記録の閉鎖等,0,2024-07-24,2024-07-18,株式会社原田不動産商事,,株式会社,神奈川県,厚木市,中依知４５２番地,,14,212,2430805,,,2024-07-18,合併による解散等,5021001021953,令和６年７月１８日神奈川県小田原市中村原２６７番地株式会社原田建物（5021001021953）に合併し解散,2015-10-05,1,,,,,ハラダフドウサンショウジ,0
2095,9040001044926,登記記録の閉鎖等,0,2024-07-24,2024-07-08,株式会社丸本興業,,株式会社,千葉県,成田市,所１０１９番地７,,12,211,2870211,,,2024-07-08,清算の結了等,,,2015-10-05,1,,,,,マルモトコウギョウ,0
2101,9040002084979,登記記録の閉鎖等,0,2024-07-24,2024-07-08,有限会社いしいミート,,有限会社,千葉県,旭市,鎌数５１４６番地４５,,12,215,2892505,,,2024-07-08,清算の結了等,,,2015-10-05,1,,,,,イシイミート,0
2106,9060001001165,登記記録の閉鎖等,0,2024-07-24,2024-07-19,株式会社関東メディカルシステムズ,,株式会社,東京都,足立区,江北７丁目１５番５号,,13,121,1230872,,,2024-07-19,清算の結了等,,,2015-10-05,1,,,,,カントウメディカルシステムズ,0
2123,9080005003841,登記記録の閉鎖等,0,2024-07-24,2024-07-10,特定非営利活動法人グループホームひなたぼっこ,,その他の設立登記法人,静岡県,静岡市清水区,草薙１３３０番１,,22,103,4240886,,,2024-07-10,清算の結了等,,,2015-10-05,1,,,,,グループホームヒナタボッコ,0
2124,9080102015384,登記記録の閉鎖等,0,2024-07-24,2024-07-19,有限会社ワイ企画,,有限会社,静岡県,富士市,浅間本町２番３８－１４号,,22,210,4170073,,,2024-07-19,清算の結了等,,,2015-10-05,1,,,,,ワイキカク,0
2135,9110002011711,登記記録の閉鎖等,0,2024-07-24,2024-07-12,有限会社鈴木組,,有限会社,新潟県,新潟市西蒲区,巻乙３１９番地,,15,108,9530044,,,2024-07-12,清算の結了等,,,2015-10-05,1,,,,,スズキグミ,0
2136,9110002025950,登記記録の閉鎖等,0,2024-07-24,2024-07-11,日本ペレテック株式会社,,株式会社,新潟県,十日町市,千代田町７６番地５,,15,210,9480078,,,2024-07-11,合併による解散等,3110001021238,令和６年７月１１日新潟県十日町市尾崎２２１番地２北越融雪株式会社（3110001021238）に合併し解散,2015-10-05,1,,,,,ニホンペレテック,0
2184,9160003002820,登記記録の閉鎖等,0,2024-07-24,2024-07-02,Ｖｐｒｅｑｕｅｓｔ合資会社,,合資会社,滋賀県,大津市,松原町１６９番,,25,201,5200831,,,2024-07-02,清算の結了等,,,2023-03-16,1,,,,,ヴイピーリクエスト,0
2189,9180001130646,登記記録の閉鎖等,0,2024-07-24,2024-07-05,株式会社キングオート,,株式会社,愛知県,名古屋市東区,白壁２丁目１１番１９号,,23,102,4610011,,,2024-07-05,清算の結了等,,,2018-01-09,1,,,,,キングオート,0
2196,9180002078158,登記記録の閉鎖等,0,2024-07-24,2024-07-05,有限会社ソフィア,,有限会社,愛知県,一宮市,せんい４丁目５番５号,,23,203,4910873,,,2024-07-05,清算の結了等,,,2015-10-05,1,,,,,ソフィア,0
2202,9190001028906,登記記録の閉鎖等,0,2024-07-24,2024-07-22,株式会社風工房,,株式会社,三重県,津市,安濃町田端上野９２０番地３４,,24,201,5142325,,,2024-07-22,清算の結了等,,,2021-12-06,1,,,,,カゼコウボウ,0
2203,9190005008565,登記記録の閉鎖等,0,2024-07-24,2024-07-22,特定非営利活動法人国際資源活用協会,,その他の設立登記法人,三重県,鈴鹿市,平田１丁目８番１３号,,24,207,5130844,,,2024-07-22,清算の結了等,,,2015-10-05,1,,,,,コクサイシゲンカツヨウキョウカイ,0
2211,9240001055738,登記記録の閉鎖等,0,2024-07-24,2024-07-22,株式会社ＴＲＹサポート,,株式会社,広島県,広島市中区,上八丁堀３番２８－７０５号,,34,101,7300012,,,2024-07-22,清算の結了等,,,2020-03-02,1,,,,,トライサポート,0
2227,9290002016206,登記記録の閉鎖等,0,2024-07-24,2024-06-25,有限会社田川興産,,有限会社,福岡県,福岡市博多区,住吉５丁目２６番１２号,,40,132,8120018,,,2024-06-25,清算の結了等,,,2015-10-05,1,,,,,タガワコウサン,0
2231,9290005007771,登記記録の閉鎖等,0,2024-07-24,2024-06-14,九州輸出縫製品工業協同組合,,その他の設立登記法人,福岡県,飯塚市,相田２４０番地の４５,,40,205,8200052,,,2024-06-14,清算の結了等,,,2015-10-05,1,,,,,キュウシュウユシュツホウセイヒンコウギョウ,0
2240,9330002030383,登記記録の閉鎖等,0,2024-07-24,2024-07-09,有限会社西日本不動産,,有限会社,熊本県,人吉市,中青井町３６９番地の１,,43,203,8680008,,,2024-07-09,清算の結了等,,,2015-10-05,1,,,,,ニシニホンフドウサン,0
2257,9380001018202,登記記録の閉鎖等,0,2024-07-24,2024-07-16,協和機設株式会社,,株式会社,福島県,会津若松市,花畑東６番３４号,,07,202,9650027,,,2024-07-16,清算の結了等,,,2015-10-05,1,,,,,,0
2265,9430001066261,登記記録の閉鎖等,0,2024-07-24,2024-07-22,株式会社ハニカム,,株式会社,北海道,札幌市東区,北九条東１２丁目１－１－１０,,01,103,0650009,,,2024-07-22,清算の結了等,,,2015-10-05,1,,,,,ハニカム,0
2278,9500002022165,登記記録の閉鎖等,0,2024-07-24,2024-07-11,有限会社愛媛新聞エリアサービス三島東,,有限会社,愛媛県,四国中央市,下柏町１００１番地１,,38,213,7990411,,,2024-07-11,清算の結了等,,,2015-10-05,1,,,,,エヒメシンブンエリアサービスミシマヒガシ,0
