sequenceNumber,corporateNumber,process,correct,updateDate,changeDate,name,nameImageId,kind,prefectureName,cityName,streetNumber,addressImageId,prefectureCode,cityCode,postCode,addressOutside,addressOutsideImageId,closeDate,closeCause,successorCorporateNumber,changeCause,assignmentDate,latest,enName,enPrefectureName,enCityName,enAddressOutside,furigana,hihyoji
17,1010401192723,新規,0,2025-08-28,2025-08-28,株式会社ＲＯＵＧＨ,,株式会社,東京都,港区,新橋２丁目１６番１号ニュー新橋ビル２４２,,13,103,1050004,,,,,,,2025-08-28,1,,,,,ラフ,0
22,1010601067865,新規,0,2025-08-28,2025-08-28,恒徳株式会社,,株式会社,東京都,江東区,青海２丁目７－４ｔｈｅＳＯＨＯ８０５,,13,108,1350064,,,,,,,2025-08-28,1,,,,,コウトク,0
23,1010601067873,新規,0,2025-08-28,2025-08-28,Ｃ＆Ｋ　Ｃｏｎｓｕｌｔｉｎｇ株式会社,,株式会社,東京都,墨田区,向島３丁目６番１０－１００３号ライオンズ墨田押上,,13,107,1310033,,,,,,,2025-08-28,1,,,,,シーアンドケーコンサルティング,0
41,1011001171563,新規,0,2025-08-28,2025-08-28,株式会社ＫＢＴＫ,,株式会社,東京都,目黒区,青葉台１丁目１４番４－３１９号コントラル中目黒,,13,110,1530042,,,,,,,2025-08-28,1,,,,,ケービーティーケー,0
42,1011001171662,新規,0,2025-08-28,2025-08-28,テンセン株式会社,,株式会社,東京都,渋谷区,渋谷３丁目１０番１５号川名ビル４Ｆ,,13,113,1500002,,,,,,,2025-08-28,1,,,,,テンセン,0
43,1011001171695,新規,0,2025-08-28,2025-08-28,株式会社ＥＮＯＣＡホールディングス,,株式会社,東京都,目黒区,八雲３丁目１７番２０号,,13,110,1520023,,,,,,,2025-08-28,1,,,,,エノカホールディングス,0
44,1011001172058,新規,0,2025-08-28,2025-08-28,株式会社エイチエル,,株式会社,東京都,渋谷区,道玄坂１丁目１０番８号渋谷道玄坂東急ビル２Ｆ－Ｃ,,13,113,1500043,,,,,,,2025-08-28,1,,,,,エイチエル,0
48,1011003022211,新規,0,2025-08-28,2025-08-28,合同会社トゥーリックス,,合同会社,東京都,渋谷区,恵比寿２丁目１－４－２０４,,13,113,1500013,,,,,,,2025-08-28,1,,,,,トゥーリックス,0
49,1011003022236,新規,0,2025-08-28,2025-08-28,合同会社国際航空医学研究所,,合同会社,東京都,渋谷区,広尾１丁目２番地１号４階,,13,113,1500012,,,,,,,2025-08-28,1,,,,,コクサイコウクウイガクケンキュウジョ,0
51,1011101000201,新規,0,2025-08-28,2025-08-28,株式会社アイ・ジー・エス,,株式会社,東京都,新宿区,矢来町１１４番地,,13,104,1620805,,,,,,,2025-08-28,1,,,,,アイジーエス,0
55,1011101112814,新規,0,2025-08-28,2025-08-28,株式会社Ｒ＆Ｒ,,株式会社,東京都,新宿区,西新宿７丁目１７番７号廣田ビル５０４号室,,13,104,1600023,,,,,,,2025-08-28,1,,,,,アールアンドアール,0
56,1011101112954,新規,0,2025-08-28,2025-08-28,株式会社Ｓａｍｂｒｏｔ,,株式会社,東京都,新宿区,新宿１丁目１４番５号新宿ＫＭビル５０２,,13,104,1600022,,,,,,,2025-08-28,1,,,,,サンブロート,0
59,1011103016237,新規,0,2025-08-28,2025-08-28,ＳＥＥＴＲＥＥ　ＪＡＰＡＮ合同会社,,合同会社,東京都,新宿区,新宿１丁目２９番５号,,13,104,1600022,,,,,,,2025-08-28,1,,,,,シーツリージャパン,0
63,1011201026591,新規,0,2025-08-28,2025-08-28,株式会社パンワイズ,,株式会社,東京都,中野区,新井４丁目１６番８号,,13,114,1650026,,,,,,,2025-08-28,1,,,,,パンワイズ,0
64,1011203004802,新規,0,2025-08-28,2025-08-28,東京スターズプランテクノロジー合同会社,,合同会社,東京都,中野区,沼袋１丁目２６番１４号,,13,114,1650025,,,,,,,2025-08-28,1,,,,,トウキョウスターズプランテクノロジー,0
75,1012401043526,新規,0,2025-08-28,2025-08-28,株式会社エスリアルティ,,株式会社,東京都,武蔵野市,吉祥寺本町１丁目３７番５号山蝶ビル,,13,203,1800004,,,,,,,2025-08-28,1,,,,,エスリアルティ,0
79,1012801024191,新規,0,2025-08-28,2025-08-28,エーアイテクノ株式会社,,株式会社,東京都,国分寺市,戸倉１丁目２３番地６６,,13,214,1850003,,,,,,,2025-08-28,1,,,,,エーアイテクノ,0
80,1013301054704,新規,0,2025-08-28,2025-08-28,韜洋株式会社,00140437,株式会社,東京都,豊島区,池袋２丁目３０－１６－１０４,,13,116,1710014,,,,,,,2025-08-28,1,,,,,トウヨ,0
81,1013301054836,新規,0,2025-08-28,2025-08-28,株式会社ＣＴＡ,,株式会社,東京都,豊島区,巣鴨３丁目１－１桜並木通りビル３０１,,13,116,1700002,,,,,,,2025-08-28,1,,,,,シーティーエー,0
83,1013303007841,新規,0,2025-08-28,2025-08-28,合同会社Ｐｏｌｙｔｏｎａ　Ｓｔｕｄｉｏ,,合同会社,東京都,豊島区,東池袋２丁目６２番８号ＢＩＧオフィスプラザ池袋１２０６,,13,116,1700013,,,,,,,2025-08-28,1,,,,,ポリトナスタジオ,0
87,1020001164576,新規,0,2025-08-28,2025-08-28,株式会社エステル,,株式会社,神奈川県,川崎市幸区,矢上１２番１４号サンスカイパレス３０３,,14,132,2120056,,,,,,,2025-08-28,1,,,,,エステル,0
90,1020003029166,新規,0,2025-08-28,2025-08-28,合同会社矢志工務店,,合同会社,神奈川県,川崎市川崎区,渡田２丁目１９－１３－３０４,,14,131,2100837,,,,,,,2025-08-28,1,,,,,ヤゴコロコウムテン,0
91,1020003029199,新規,0,2025-08-28,2025-08-28,ｅｖａｎｌｉｇｈｔ合同会社,,合同会社,神奈川県,横浜市西区,浅間町１丁目４番３号ウィザードビル４０２,,14,103,2200072,,,,,,,2025-08-28,1,,,,,エヴァンライト,0
92,1020003029208,新規,0,2025-08-28,2025-08-28,合同会社ｋｆｇｆｏｒｘ,,合同会社,神奈川県,横浜市西区,みなとみらい３丁目７番１号オーシャンゲートみなとみらい８Ｆ,,14,103,2200012,,,,,,,2025-08-28,1,,,,,ケーエフジーフォーエックス,0
93,1020003029216,新規,0,2025-08-28,2025-08-28,奏貴合同会社,,合同会社,神奈川県,横浜市神奈川区,金港町５－１４クアドリフォリオ８階,,14,102,2210056,,,,,,,2025-08-28,1,,,,,カナタ,0
95,1021001086133,新規,0,2025-08-28,2025-08-28,オフィスＫ株式会社,,株式会社,神奈川県,足柄上郡松田町,惣領３２１－１,,14,363,2580000,,,,,,,2025-08-28,1,,,,,オフィスケー,0
100,1021003016451,新規,0,2025-08-28,2025-08-28,ＡｄＳｙｎｃ合同会社,,合同会社,神奈川県,大和市,中央林間８丁目３番２－１０７号,,14,213,2420007,,,,,,,2025-08-28,1,,,,,アドシンク,0
101,1021003016468,新規,0,2025-08-28,2025-08-28,ＫＩＮＧ　ＬＩＮＥ　ＴＲＡＤＩＮＧ合同会社,,合同会社,神奈川県,平塚市,南金目３７５－１コーポＪＪ－１０２,,14,203,2591201,,,,,,,2025-08-28,1,,,,,キングライントレーディング,0
108,1030003027490,新規,0,2025-08-28,2025-08-28,ＭＺプロパティ合同会社,,合同会社,埼玉県,越谷市,越ヶ谷２丁目４番２号ローヤルシティ越谷３０５,,11,222,3430813,,,,,,,2025-08-28,1,,,,,エムゼットプロパティ,0
119,1050001057050,新規,0,2025-08-28,2025-08-28,株式会社アークス,,株式会社,茨城県,つくば市,谷田部３０４７番地８,,08,220,3050861,,,,,,,2025-08-28,1,,,,,アークス,0
123,1050005013685,新規,0,2025-08-28,2025-08-28,一般社団法人すなはま予想図Ｌａｂ．,,その他の設立登記法人,茨城県,つくば市,並木３丁目４番地８,,08,220,3050044,,,,,,,2025-08-28,1,,,,,スナハマヨソウズラボ,0
126,1060001038529,新規,0,2025-08-28,2025-08-28,株式会社淡島商店,,株式会社,栃木県,宇都宮市,兵庫塚１丁目１８番２１号グリーンハイツ１０１号室,,09,201,3210138,,,,,,,2025-08-28,1,,,,,アワシマショウテン,0
160,1120103006658,新規,0,2025-08-28,2025-08-28,ＯＨＡＮＡ合同会社,,合同会社,大阪府,松原市,東新町２丁目２番１号,,27,217,5800024,,,,,,,2025-08-28,1,,,,,オハナ,0
167,1120901051376,新規,0,2025-08-28,2025-08-28,ＥＧＧライフ株式会社,,株式会社,大阪府,吹田市,長野西１１－６－３０７,,27,205,5650817,,,,,,,2025-08-28,1,,,,,エッグライフ,0
168,1120901051384,新規,0,2025-08-28,2025-08-28,株式会社エラック,,株式会社,大阪府,豊中市,宮山町２丁目９番２１号,,27,203,5600056,,,,,,,2025-08-28,1,,,,,エラック,0
169,1120901051392,新規,0,2025-08-28,2025-08-28,ＲＥＳＴＡ株式会社,,株式会社,大阪府,豊中市,西泉丘２丁目２４３９番地の２３,,27,203,5610862,,,,,,,2025-08-28,1,,,,,レスタ,0
170,1120901051401,新規,0,2025-08-28,2025-08-28,株式会社クリプトーチ,,株式会社,大阪府,吹田市,広芝町８－１６ミラクルセブン江坂５０７,,27,205,5640052,,,,,,,2025-08-28,1,,,,,クリプトーチ,0
175,1120903005801,新規,0,2025-08-28,2025-08-28,合同会社Ｓｍｉｌｅ,,合同会社,大阪府,豊中市,新千里南町３丁目３番４－６０７号,,27,203,5600084,,,,,,,2025-08-28,1,,,,,スマイル,0
181,1122003003297,新規,0,2025-08-28,2025-08-28,九号合同会社,,合同会社,大阪府,八尾市,大竹７丁目１６９,,27,212,5810854,,,,,,,2025-08-28,1,,,,,キュウゴウ,0
188,1130005017439,新規,0,2025-08-28,2025-08-28,一般社団法人Ｋ‐ｓｔｙｌｅ,,その他の設立登記法人,京都府,京都市北区,等持院西町１６番地１５,,26,101,6038354,,,,,,,2025-08-28,1,,,,,ケイスタイル,0
189,1130005017447,新規,0,2025-08-28,2025-08-28,一般社団法人いのちのきずな,,その他の設立登記法人,京都府,京都市中京区,新京極通四条上る中之町５３８番地１３京国ビル３階,,26,104,6048042,,,,,,,2025-08-28,1,,,,,イノチノキズナ,0
192,1140001139797,新規,0,2025-08-28,2025-08-28,株式会社Ｎｅｏ　Ｌｉｎｋ,,株式会社,兵庫県,神戸市中央区,海岸通６番地建隆ビル６０６,,28,110,6500024,,,,,,,2025-08-28,1,,,,,ネオリンク,0
195,1140003022497,新規,0,2025-08-28,2025-08-28,ｔｒｅｅ合同会社,,合同会社,兵庫県,明石市,小久保１２０番地の５５Ｃ－３１０号,,28,203,6730005,,,,,,,2025-08-28,1,,,,,ツリー,0
196,1170003002281,新規,0,2025-08-28,2025-08-28,カーサマルイ合同会社,,合同会社,和歌山県,御坊市,湯川町小松原４０６番地２３,,30,205,6440012,,,,,,,2025-08-28,1,,,,,カーサマルイ,0
207,1180001168347,新規,0,2025-08-28,2025-08-28,トレンタセッテ株式会社,,株式会社,愛知県,名古屋市瑞穂区,姫宮町１丁目４１番地の１,,23,108,4670834,,,,,,,2025-08-28,1,,,,,トレンタセッテ,0
210,1180003028929,新規,0,2025-08-28,2025-08-28,合同会社Ｒ,,合同会社,愛知県,名古屋市中村区,名駅３丁目４－１０アルティメイト名駅１ｓｔ２階,,23,105,4500002,,,,,,,2025-08-28,1,,,,,アール,0
219,1220001026888,新規,0,2025-08-28,2025-08-28,株式会社ＡＩ‐Ｂｒａｉｎ,,株式会社,石川県,金沢市,新神田１丁目９－１８,,17,201,9218013,,,,,,,2025-08-28,1,,,,,エイアイブレイン,0
220,1230001021054,新規,0,2025-08-28,2025-08-28,株式会社ＲＩＯＮ１１１,,株式会社,富山県,富山市,黒瀬２１番地２,,16,201,9398213,,,,,,,2025-08-28,1,,,,,リオントリプルワン,0
222,1240001065422,新規,0,2025-08-28,2025-08-28,株式会社ｈｏｓｈｉｍｉ,,株式会社,広島県,広島市中区,宝町５番１１－１４０６号,,34,101,7300044,,,,,,,2025-08-28,1,,,,,ホシミ,0
241,1290003017301,新規,0,2025-08-28,2025-08-28,合同会社インテルリングア,,合同会社,福岡県,八女市,津江１０７１－１,,40,210,8340024,,,,,,,2025-08-28,1,,,,,インテルリングア,0
245,1350001019706,新規,0,2025-08-28,2025-08-28,正貴工業株式会社,,株式会社,宮崎県,宮崎市,田野町甲３８０４番地２,,45,201,8891701,,,,,,,2025-08-28,1,,,,,マサキコウギョウ,0
255,1370001052977,新規,0,2025-08-28,2025-08-28,株式会社ＴｓｕｒｕＥｓｔａｔｅ,,株式会社,宮城県,仙台市青葉区,中央２丁目２番１０号仙都会館ビル５階,,04,101,9800021,,,,,,,2025-08-28,1,,,,,ツルエステイト,0
258,1380001035535,新規,0,2025-08-28,2025-08-28,株式会社興和,,株式会社,福島県,いわき市,内郷高坂町１丁目２７番地の４,,07,204,9738408,,,,,,,2025-08-28,1,,,,,コウワ,0
264,1430001095111,新規,0,2025-08-28,2025-08-28,ＥＺＯＷＬ株式会社,,株式会社,北海道,札幌市中央区,宮の森一条１０丁目２番４１－４０１号,,01,101,0640951,,,,,,,2025-08-28,1,,,,,エゾール,0
266,1430005015288,新規,0,2025-08-28,2025-08-28,一般財団法人北海道未来藝術振興ＣｈｒｏｎｏＡｒｔｓ,,その他の設立登記法人,北海道,札幌市清田区,平岡公園東４丁目１３番１号,,01,110,0040882,,,,,,,2025-08-28,1,,,,,ホッカイドウミライゲイジュツシンコウクロノアーツ,0
267,1480001012929,新規,0,2025-08-28,2025-08-28,株式会社かわいエンタープライズ,,株式会社,徳島県,徳島市,川内町加賀須野４３６番地４,,36,201,7710130,,,,,,,2025-08-28,1,,,,,カワイエンタープライズ,0
270,1700150132001,新規,0,2025-08-28,2025-08-28,裕昌開發股斌有限公司,00140396,外国会社等,群馬県,館林市,緑町２丁目５番３１号アーバン緑町－２０１号室,,10,207,3740025,台湾高雄市苓雅区三多四路１１０号２２階－３,,,,,,2025-08-28,1,,,,,ユウシヨウカイハツコフンユウゲンコウシ,0
277,2010001257487,新規,0,2025-08-28,2025-08-28,ミュゼ・メディア・ＨＤ株式会社,,株式会社,東京都,千代田区,麹町５丁目３番地６第７秋山ビルディング４階,,13,101,1020083,,,,,,,2025-08-28,1,,,,,ミュゼメディアホールディングス,0
278,2010001258056,新規,0,2025-08-28,2025-08-28,Ｗａｎｄａ株式会社,,株式会社,東京都,千代田区,永田町２丁目１４番２号山王グランドビル３階スリーアイズキャピタル株式会社内,,13,101,1000014,,,,,,,2025-08-28,1,,,,,ヴァンダ,0
283,2010003048513,新規,0,2025-08-28,2025-08-28,合同会社黒潮,,合同会社,東京都,千代田区,霞が関３丁目２番５号,,13,101,1000013,,,,,,,2025-08-28,1,,,,,クロシオ,0
284,2010003048538,新規,0,2025-08-28,2025-08-28,合同会社ポルト・ボヌール,,合同会社,東京都,中央区,日本橋室町１丁目１１番１２号日本橋水野ビル７階,,13,102,1030022,,,,,,,2025-08-28,1,,,,,ポルトボヌール,0
285,2010003048546,新規,0,2025-08-28,2025-08-28,パレスコアアセット合同会社,,合同会社,東京都,文京区,千駄木５丁目１７番１７号,,13,105,1130022,,,,,,,2025-08-28,1,,,,,パレスコアアセット,0
296,2010401192565,新規,0,2025-08-28,2025-08-28,ＣＢセラティジットジャパン株式会社,,株式会社,東京都,港区,三田１丁目２番１８号ＴＴＤビル,,13,103,1080073,,,,,,,2025-08-28,1,,,,,シービーセラティジットジャパン,0
297,2010401192730,新規,0,2025-08-28,2025-08-28,株式会社西室,,株式会社,東京都,港区,芝浦３丁目４番２号２１０１,,13,103,1080023,,,,,,,2025-08-28,1,,,,,ニシムロ,0
311,2011001171513,新規,0,2025-08-28,2025-08-28,シープロ出版株式会社,,株式会社,東京都,渋谷区,道玄坂１丁目１０番８号渋谷道玄坂東急ビル２Ｆ－Ｃ,,13,113,1500043,,,,,,,2025-08-28,1,,,,,シープロシュッパン,0
312,2011001172065,新規,0,2025-08-28,2025-08-28,株式会社Ｃｈｅｅｒｓ　Ｌａｂ,,株式会社,東京都,渋谷区,道玄坂１丁目１６番地６号二葉ビル８ｂ,,13,113,1500043,,,,,,,2025-08-28,1,,,,,チアーズラボ,0
313,2011003022136,新規,0,2025-08-28,2025-08-28,合同会社エムシステム,,合同会社,東京都,渋谷区,道玄坂１丁目１０番８号　渋谷道玄坂東急ビル２Ｆ―Ｃ,,13,113,1500043,,,,,,,2025-08-28,1,,,,,エムシステム,0
314,2011003022202,新規,0,2025-08-28,2025-08-28,合同会社モコ・パートナーズ,,合同会社,東京都,渋谷区,道玄坂１丁目１０番８号渋谷道玄坂東急ビル２Ｆ－Ｃ,,13,113,1500043,,,,,,,2025-08-28,1,,,,,モコパートナーズ,0
315,2011003022235,新規,0,2025-08-28,2025-08-28,合同会社食と音,,合同会社,東京都,渋谷区,恵比寿西２丁目４－８ウィンド恵比寿ビル８Ｆ,,13,113,1500021,,,,,,,2025-08-28,1,,,,,ショクトオト,0
319,2011101112805,新規,0,2025-08-28,2025-08-28,株式会社ＥＭ,,株式会社,東京都,新宿区,西新宿５丁目９番８号ステイレジデンス西新宿１２０６,,13,104,1600023,,,,,,,2025-08-28,1,,,,,イーエム,0
320,2011105011549,新規,0,2025-08-28,2025-08-28,一般社団法人翔翔会,,その他の設立登記法人,東京都,新宿区,西新宿７丁目８番１１号三笠ビル４０２号室,,13,104,1600023,,,,,,,2025-08-28,1,,,,,ショウショウカイ,0
324,2011501032470,新規,0,2025-08-28,2025-08-28,星海株式会社,,株式会社,東京都,北区,赤羽２丁目３５番１１号,,13,117,1150045,,,,,,,2025-08-28,1,,,,,セイカイ,0
328,2011603004814,新規,0,2025-08-28,2025-08-28,合同会社メーヴェ,,合同会社,東京都,練馬区,谷原３丁目５番４号,,13,120,1770032,,,,,,,2025-08-28,1,,,,,メーヴェ,0
331,2011703004350,新規,0,2025-08-28,2025-08-28,ＡＲＩＥＳ合同会社,,合同会社,東京都,江戸川区,西葛西６丁目９番１０－６０１号,,13,123,1340088,,,,,,,2025-08-28,1,,,,,アリス,0
332,2012701019043,新規,0,2025-08-28,2025-08-28,株式会社ｓｉｎｃｅ１９１,,株式会社,東京都,東村山市,栄町３丁目３７番地４ルフォン久米川武蔵野けやきの杜４０４,,13,213,1890013,,,,,,,2025-08-28,1,,,,,シンスイチキュウイチ,0
335,2013301054810,新規,0,2025-08-28,2025-08-28,株式会社ｍｅｌｏｎ,,株式会社,東京都,豊島区,東池袋２丁目６２番８号ＢＩＧオフィスプラザ池袋１２０６,,13,116,1700013,,,,,,,2025-08-28,1,,,,,メロン,0
348,2020001164567,新規,0,2025-08-28,2025-08-28,株式会社ＡＺＡＲＩ,,株式会社,神奈川県,横浜市西区,北軽井沢８－２,,14,103,2200001,,,,,,,2025-08-28,1,,,,,アザリ,0
349,2020001164575,新規,0,2025-08-28,2025-08-28,株式会社カーネシアン,,株式会社,神奈川県,横浜市港北区,綱島西５丁目１１番２８－１号,,14,109,2230053,,,,,,,2025-08-28,1,,,,,カーネシアン,0
357,2020003029215,新規,0,2025-08-28,2025-08-28,合同会社田中企画,,合同会社,神奈川県,横浜市南区,井土ケ谷中町１番地１７セントラルコート横濱井土ケ谷１０２,,14,105,2320052,,,,,,,2025-08-28,1,,,,,,0
362,2021001086181,新規,0,2025-08-28,2025-08-28,株式会社警備ハナオカ,,株式会社,神奈川県,小田原市,小八幡４丁目１１番９号,,14,206,2560815,,,,,,,2025-08-28,1,,,,,ケイビハナオカ,0
366,2021003016483,新規,0,2025-08-28,2025-08-28,合同会社ハヤト,,合同会社,神奈川県,座間市,栗原中央５丁目１番３－１０２号ハイム座間中谷,,14,216,2520014,,,,,,,2025-08-28,1,,,,,ハヤト,0
381,2040001140194,新規,0,2025-08-28,2025-08-28,株式会社ＳＯＵ　ＣＲＥＡＴＥ,,株式会社,千葉県,習志野市,藤崎３丁目７番３号,,12,216,2750017,,,,,,,2025-08-28,1,,,,,ソウクリエイト,0
394,2070003006060,新規,0,2025-08-28,2025-08-28,合同会社ＳｔａｒＴ,,合同会社,群馬県,前橋市,石倉町３丁目１０番地１９,,10,201,3710841,,,,,,,2025-08-28,1,,,,,,0
400,2080401028135,新規,0,2025-08-28,2025-08-28,株式会社ジョワ,,株式会社,静岡県,浜松市浜名区,都田町７８４９番地の１７,,22,139,4312102,,,,,,,2025-08-28,1,,,,,ジョワ,0
410,2120001278885,新規,0,2025-08-28,2025-08-28,田中エステート株式会社,,株式会社,大阪府,大阪市西淀川区,野里２丁目１４番１３－１０１号,,27,113,5550024,,,,,,,2025-08-28,1,,,,,タナカエステート,0
411,2120001279124,新規,0,2025-08-28,2025-08-28,三石株式会社,,株式会社,大阪府,大阪市城東区,関目１丁目２３番１３号４０１室,,27,118,5360008,,,,,,,2025-08-28,1,,,,,ミツイシ,0
412,2120001279140,新規,0,2025-08-28,2025-08-28,多多株式会社,,株式会社,大阪府,大阪市阿倍野区,丸山通１丁目５番２号－５０５号,,27,119,5450042,,,,,,,2025-08-28,1,,,,,タタ,0
416,2120003030393,新規,0,2025-08-28,2025-08-28,合同会社ＶＡＭＯＳ,,合同会社,大阪府,大阪市中央区,淡路町２丁目２番６－９０３号,,27,128,5410047,,,,,,,2025-08-28,1,,,,,バモス,0
423,2120901051367,新規,0,2025-08-28,2025-08-28,株式会社フォースワン,,株式会社,大阪府,茨木市,沢良宜東町１４番３７号,,27,211,5670863,,,,,,,2025-08-28,1,,,,,フォースワン,0
424,2120901051375,新規,0,2025-08-28,2025-08-28,株式会社やまね事務所,,株式会社,大阪府,吹田市,千里山西５丁目２－５千里山Ｓ２ビル４Ｆ,,27,205,5650851,,,,,,,2025-08-28,1,,,,,ヤマネジムショ,0
425,2120901051400,新規,0,2025-08-28,2025-08-28,株式会社Ｗｅｌｌｄｅｎ,,株式会社,大阪府,吹田市,泉町５丁目２４－２９,,27,205,5640041,,,,,,,2025-08-28,1,,,,,ウェルデン,0
432,2120903005833,新規,0,2025-08-28,2025-08-28,ＷｉｓＬｉｎｋ合同会社,,合同会社,大阪府,茨木市,西田中町７番－１５号－ドゥエルやま２０５号室,,27,211,5670027,,,,,,,2025-08-28,1,,,,,ウィズリンク,0
440,2130001080209,新規,0,2025-08-28,2025-08-28,株式会社かなた,,株式会社,京都府,京都市左京区,岩倉三宅町２１安原ビル１－７,,26,103,6060022,,,,,,,2025-08-28,1,,,,,カナタ,0
441,2130001080381,新規,0,2025-08-28,2025-08-28,株式会社寺川大福園,,株式会社,京都府,宇治市,宇治壱番４０番地,,26,204,6110021,,,,,,,2025-08-28,1,,,,,テラカワダイフクエン,0
442,2140001139581,新規,0,2025-08-28,2025-08-28,株式会社ＰＲＯＵＤ,,株式会社,兵庫県,川西市,丸の内町２－１,,28,217,6660003,,,,,,,2025-08-28,1,,,,,プラウド,0
443,2140003022496,新規,0,2025-08-28,2025-08-28,合同会社ＭＩＲＡＪＡＷＡ,,合同会社,兵庫県,神戸市中央区,磯辺通１丁目１－１８カサベラ国際プラザビル７０７,,28,110,6510084,,,,,,,2025-08-28,1,,,,,ミラジャワ,0
449,2180001168346,新規,0,2025-08-28,2025-08-28,株式会社Ｅｎ,,株式会社,愛知県,名古屋市中区,錦２丁目１２番３２号さくらヒルズ錦プラチナムレジデンス３０７,,23,106,4600003,,,,,,,2025-08-28,1,,,,,エン,0
456,2180003028936,新規,0,2025-08-28,2025-08-28,合同会社パンクチュエーション,,合同会社,愛知県,名古屋市中村区,那古野１丁目４７番１号名古屋国際センタービル１８Ｆ,,23,105,4500001,,,,,,,2025-08-28,1,,,,,パンクチュエーション,0
457,2180003028944,新規,0,2025-08-28,2025-08-28,ＨＵＹＮＨ　ＴＨＵ　ＡＵＤＩＯ合同会社,,合同会社,愛知県,小牧市,間々本町２０サンライズ間々１０１,,23,219,4850048,,,,,,,2025-08-28,1,,,,,フイントゥーオーディオ,0
469,2200001044172,新規,0,2025-08-28,2025-08-28,株式会社リカバス,,株式会社,岐阜県,岐阜市,鷺山１５４３番地８６,,21,201,5020851,,,,,,,2025-08-28,1,,,,,リカバス,0
490,2290003017309,新規,0,2025-08-28,2025-08-28,楽千代合同会社,,合同会社,福岡県,福岡市博多区,東比惠二丁目１７番２３号ローズマンション第一博多１号館５１４号室,,40,132,8120000,,,,,,,2025-08-28,1,,,,,ガクチヨウ,0
494,2310001019766,新規,0,2025-08-28,2025-08-28,株式会社チェリッシュ,,株式会社,長崎県,西彼杵郡時津町,日並郷３４５０番地１５,,42,308,8512108,,,,,,,2025-08-28,1,,,,,チェリッシュ,0
505,2430003018028,新規,0,2025-08-28,2025-08-28,合同会社ＷＩＮＴＥＣＨ,,合同会社,北海道,江別市,見晴台６８番地の２２,,01,217,0670042,,,,,,,2025-08-28,1,,,,,ウィンテック,0
506,2430003018052,新規,0,2025-08-28,2025-08-28,合同会社ａｃｔ．３,,合同会社,北海道,札幌市東区,北二十七条東１０丁目１番４１号メゾンパブリック１０２号,,01,103,0650027,,,,,,,2025-08-28,1,,,,,アクトスリー,0
509,2470005006646,新規,0,2025-08-28,2025-08-28,高松コミュニティーチャーチ,,その他の設立登記法人,香川県,高松市,常磐町２丁目５番地１５,,37,201,7600054,,,,,,,2025-08-28,1,,,,,タカマツコミュニティーチャーチ,0
512,2480001012928,新規,0,2025-08-28,2025-08-28,株式会社小だま林業,,株式会社,徳島県,徳島市,津田本町４丁目１番４５号,,36,201,7708003,,,,,,,2025-08-28,1,,,,,コダマリンギョウ,0
519,2700150132009,新規,0,2025-08-28,2025-08-28,千歳烏山駅前広場南側地区市街地再開発準備組合,,その他,東京都,世田谷区,南烏山５丁目１１－６,,13,112,1570062,,,,,,,2025-08-28,1,,,,,チトセカラスヤマエキマエヒロバミナミガワチクシガイチサイカイハツジユンビクミアイ,0
526,3010001257998,新規,0,2025-08-28,2025-08-28,株式会社ジンクホワイト,,株式会社,東京都,中央区,銀座１丁目１２番４号Ｎ＆ＥＢＬＤ．６,,13,102,1040061,,,,,,,2025-08-28,1,,,,,ジンクホワイト,0
528,3010003048272,新規,0,2025-08-28,2025-08-28,合同会社ラフテル,,合同会社,東京都,文京区,湯島３丁目４４番７号ＣＯＣＯＳＰＡＣＥ上野公園,,13,105,1130034,,,,,,,2025-08-28,1,,,,,ラフテル,0
529,3010003048529,新規,0,2025-08-28,2025-08-28,カノープス合同会社,,合同会社,東京都,中央区,銀座２丁目１０番８号マニエラ銀座ビル４階,,13,102,1040061,,,,,,,2025-08-28,1,,,,,カノープス,0
536,3010401192713,新規,0,2025-08-28,2025-08-28,Ｈ４６株式会社,,株式会社,東京都,港区,高輪２丁目１番１３－３１１号,,13,103,1080074,,,,,,,2025-08-28,1,,,,,エイチヨンジュウロク,0
537,3010401192721,新規,0,2025-08-28,2025-08-28,株式会社イワセ,,株式会社,東京都,港区,北青山１丁目３番１号アールキューブ青山３階,,13,103,1070061,,,,,,,2025-08-28,1,,,,,イワセ,0
540,3010403035754,新規,0,2025-08-28,2025-08-28,ＫａｒａＴａｂａｓａ合同会社,,合同会社,東京都,港区,南麻布３丁目３番３２号,,13,103,1060047,,,,,,,2025-08-28,1,,,,,キャラタバサ,0
541,3010601067855,新規,0,2025-08-28,2025-08-28,株式会社ＤＰＩＣＪ１,,株式会社,東京都,江東区,東陽２丁目３番２号,,13,108,1350016,,,,,,,2025-08-28,1,,,,,ディーピーアイシージェイワン,0
545,3010901057985,新規,0,2025-08-28,2025-08-28,株式会社ＩＫＩＯＩ,,株式会社,東京都,世田谷区,松原２丁目３７番１８－２０８号,,13,112,1560043,,,,,,,2025-08-28,1,,,,,イキオイ,0
553,3011001171594,新規,0,2025-08-28,2025-08-28,株式会社ＦＬＥＸＩＯＮ,,株式会社,東京都,渋谷区,道玄坂１丁目１０番８号渋谷道玄坂東急ビル２Ｆ－Ｃ,,13,113,1500043,,,,,,,2025-08-28,1,,,,,フレクション,0
554,3011001171644,新規,0,2025-08-28,2025-08-28,駒沢リアルティマネジメント株式会社,,株式会社,東京都,渋谷区,神南１丁目１１－４ＦＰＧリンクス神南５階,,13,113,1500041,,,,,,,2025-08-28,1,,,,,コマザワリアルティマネジメント,0
555,3011001171982,新規,0,2025-08-28,2025-08-28,ＬＭ株式会社,,株式会社,東京都,渋谷区,渋谷２丁目１９番１９号,,13,113,1500002,,,,,,,2025-08-28,1,,,,,エルエム,0
557,3011003022226,新規,0,2025-08-28,2025-08-28,合同会社ｍａｎａｕ,,合同会社,東京都,渋谷区,恵比寿西２丁目８番４号ＥＸ恵比寿西ビル５階,,13,113,1500021,,,,,,,2025-08-28,1,,,,,マナウ,0
568,3011101112812,新規,0,2025-08-28,2025-08-28,株式会社クリーンライブ東京,,株式会社,東京都,新宿区,西新宿３丁目３番１３号西新宿水間ビル６階,,13,104,1600023,,,,,,,2025-08-28,1,,,,,クリーンライブトウキョウ,0
570,3011103016268,新規,0,2025-08-28,2025-08-28,金星合同会社,,合同会社,東京都,新宿区,榎町３４－３榎町ビル７階－１８室,,13,104,1620806,,,,,,,2025-08-28,1,,,,,キンセイ,0
576,3011501032486,新規,0,2025-08-28,2025-08-28,日本企業戦略研究所株式会社,,株式会社,東京都,北区,豊島５丁目５番８－９２５号,,13,117,1140003,,,,,,,2025-08-28,1,,,,,ニホンキギョウセンリャクケンキュウジョ,0
577,3011601028921,新規,0,2025-08-28,2025-08-28,Ｄｅｓｉｇｎ　Ｄｕｏ株式会社,,株式会社,東京都,練馬区,豊玉上１丁目１９番５号シティハイムサンハウス２０２号室,,13,120,1760011,,,,,,,2025-08-28,1,,,,,デザインデュオ,0
579,3011801046665,新規,0,2025-08-28,2025-08-28,日縁トラベル株式会社,,株式会社,東京都,足立区,古千谷本町２丁目７番４号,,13,121,1210832,,,,,,,2025-08-28,1,,,,,ニチエントラベル,0
581,3012701019042,新規,0,2025-08-28,2025-08-28,株式会社ピーエムシグ,,株式会社,東京都,西東京市,田無町５丁目７番３６号ハイラーク田無本町１０１号,,13,229,1880011,,,,,,,2025-08-28,1,,,,,ピーエムシグ,0
582,3012703003358,新規,0,2025-08-28,2025-08-28,日本ゼットパートナーズ合同会社,,合同会社,東京都,小平市,小川東町５丁目１１番２０号,,13,211,1870031,,,,,,,2025-08-28,1,,,,,ニホンゼットパートナーズ,0
585,3013301054826,新規,0,2025-08-28,2025-08-28,輝平貿易株式会社,,株式会社,東京都,豊島区,南長崎３丁目１７－１８フラッツ南長崎１０１,,13,116,1710052,,,,,,,2025-08-28,1,,,,,キヘイボウエキ,0
592,3020001164467,新規,0,2025-08-28,2025-08-28,宏力永盛株式会社,,株式会社,神奈川県,横浜市中区,不老町１丁目２－７シャトレーイン横浜５０３室,,14,104,2310032,,,,,,,2025-08-28,1,,,,,コウリョクエイセイ,0
594,3020003029239,新規,0,2025-08-28,2025-08-28,合同会社アサヒ通商,,合同会社,神奈川県,横浜市青葉区,大場町３８７番地８,,14,117,2250023,,,,,,,2025-08-28,1,,,,,アサヒツウショウ,0
598,3021001086172,新規,0,2025-08-28,2025-08-28,ＮＯＭＥＳＵ株式会社,,株式会社,神奈川県,平塚市,老松町２番１９号読売高野ビル７０１号室,,14,203,2540033,,,,,,,2025-08-28,1,,,,,ノメス,0
611,3040001140210,新規,0,2025-08-28,2025-08-28,株式会社スティープルワーカー,,株式会社,千葉県,八千代市,勝田台南３丁目２２番１３号,,12,221,2760025,,,,,,,2025-08-28,1,,,,,スティープルワーカー,0
621,3090001019482,新規,0,2025-08-28,2025-08-28,株式会社Ｋａｔ,,株式会社,山梨県,南アルプス市,鏡中條５３５,,19,208,4000332,,,,,,,2025-08-28,1,,,,,キャット,0
623,3100001038902,新規,0,2025-08-28,2025-08-28,株式会社センスフィア,,株式会社,長野県,北佐久郡軽井沢町,大字長倉２１４７番地１２６５,,20,321,3890111,,,,,,,2025-08-28,1,,,,,センスフィア,0
634,3120001279098,新規,0,2025-08-28,2025-08-28,株式会社Ｃｒｅｖｉａ,,株式会社,大阪府,大阪市福島区,福島７丁目１－１０Ｗｉｚｆｕｋｕｓｈｉｍａ２階（ＯＫ２番街２階）ＧＲＡＮＤＳＬＡＭ,,27,103,5530003,,,,,,,2025-08-28,1,,,,,クレヴィア,0
635,3120001279164,新規,0,2025-08-28,2025-08-28,株式会社ダイキ,,株式会社,大阪府,大阪市住之江区,新北島３丁目８番５２－１０７号,,27,125,5590024,,,,,,,2025-08-28,1,,,,,ダイキ,0
637,3120005025127,新規,0,2025-08-28,2025-08-28,特定非営利活動法人空き家の窓口,,その他の設立登記法人,大阪府,大阪市城東区,成育４丁目２６－２６－２０１,,27,118,5360007,,,,,,,2025-08-28,1,,,,,アキヤノマドグチ,0
640,3120101072337,新規,0,2025-08-28,2025-08-28,株式会社盤石,,株式会社,大阪府,堺市堺区,住吉橋町１丁１番１２号２０４－Ｄ,,27,141,5900973,,,,,,,2025-08-28,1,,,,,バンジャク,0
646,3120903005824,新規,0,2025-08-28,2025-08-28,合同会社綺清,,合同会社,大阪府,吹田市,山田東１丁目２６番２５－１０２号,,27,205,5650821,,,,,,,2025-08-28,1,,,,,キセイ,0
666,3180003028885,新規,0,2025-08-28,2025-08-28,ＧＰライフ・マネジメント合同会社,,合同会社,愛知県,名古屋市天白区,表台１８２番地の１ダイアパレス八事コテージ２０２,,23,116,4680068,,,,,,,2025-08-28,1,,,,,ジーピーライフマネジメント,0
667,3180005021203,新規,0,2025-08-28,2025-08-28,一般社団法人バースセンターあいのわ,,その他の設立登記法人,愛知県,春日井市,下条町７７５番地７号,,23,206,4860923,,,,,,,2025-08-28,1,,,,,バースセンターアイノワ,0
673,3200001044171,新規,0,2025-08-28,2025-08-28,キイヤ株式会社,,株式会社,岐阜県,岐阜市,菊地町２丁目４９番地,,21,201,5008345,,,,,,,2025-08-28,1,,,,,キイヤ,0
685,3240001065412,新規,0,2025-08-28,2025-08-28,株式会社Ｌｉｌ　Ｉｎｆｉｎｉｔｙ,,株式会社,広島県,福山市,三吉町３丁目１番２２―３０５号,,34,207,7200031,,,,,,,2025-08-28,1,,,,,リルインフィニティ,0
689,3280001009497,新規,0,2025-08-28,2025-08-28,株式会社トレカロジカル,,株式会社,島根県,出雲市,渡橋町９２８番地５,,32,203,6930004,,,,,,,2025-08-28,1,,,,,,0
701,3290001111161,新規,0,2025-08-28,2025-08-28,株式会社フロント・ケアピカ,,株式会社,福岡県,福岡市博多区,博多駅南６丁目１０－１７－７０５,,40,132,8120016,,,,,,,2025-08-28,1,,,,,フロントケアピカ,0
710,3360003015196,新規,0,2025-08-28,2025-08-28,合同会社マルホウ,,合同会社,沖縄県,宮古島市,平良字下里２番地,,47,214,9060013,,,,,,,2025-08-28,1,,,,,マルホウ,0
712,3380001035541,新規,0,2025-08-28,2025-08-28,株式会社Ｐｌｕｓ９,,株式会社,福島県,福島市,置賜町５－１０第２清水ビル５Ｆ,,07,201,9608034,,,,,,,2025-08-28,1,,,,,プラスナイン,0
718,3430001095084,新規,0,2025-08-28,2025-08-28,株式会社黒田農園,,株式会社,北海道,夕張郡長沼町,西３線北１３番地,,01,428,0691318,,,,,,,2025-08-28,1,,,,,クロダノウエン,0
747,4010401192737,新規,0,2025-08-28,2025-08-28,株式会社Ｐｈｙｌｌｏ,,株式会社,東京都,港区,六本木３丁目１６番１２号六本木ＫＳビル５Ｆ,,13,103,1060032,,,,,,,2025-08-28,1,,,,,フィロ,0
750,4010403035919,新規,0,2025-08-28,2025-08-28,合同会社ＶＥＲＩＴＡＳ,,合同会社,東京都,港区,三田１丁目４－５７Ｅ４０７,,13,103,1080073,,,,,,,2025-08-28,1,,,,,ヴェリタス,0
761,4010801036527,新規,0,2025-08-28,2025-08-28,株式会社ネオビタ,,株式会社,東京都,大田区,大森本町１丁目８―１０東京マスタープレイス１５１０号室,,13,111,1430011,,,,,,,2025-08-28,1,,,,,ネオビタ,0
762,4010803005513,新規,0,2025-08-28,2025-08-28,合同会社ファイバーリンク,,合同会社,東京都,大田区,大森北６丁目２番６－３０１号,,13,111,1430016,,,,,,,2025-08-28,1,,,,,ファイバーリンク,0
763,4010901057951,新規,0,2025-08-28,2025-08-28,株式会社ＳｃａｌｅＵｐ,,株式会社,東京都,世田谷区,北沢１丁目３７－３,,13,112,1550031,,,,,,,2025-08-28,1,,,,,スケールアップ,0
769,4011001171593,新規,0,2025-08-28,2025-08-28,西葉策株式会社,,株式会社,東京都,渋谷区,神南１丁目１１番４号ＦＰＧリンクス神南５階,,13,113,1500041,,,,,,,2025-08-28,1,,,,,サイヨウサク,0
770,4011001171668,新規,0,2025-08-28,2025-08-28,株式会社堀アセットマネジメント,,株式会社,東京都,渋谷区,宇田川町１－１２,,13,113,1500042,,,,,,,2025-08-28,1,,,,,ホリアセットマネジメント,0
774,4011003022159,新規,0,2025-08-28,2025-08-28,合同会社Ｅｄｇｅｓｔａ,,合同会社,東京都,渋谷区,渋谷２丁目５番７号第一本間ビル２０１号室,,13,113,1500002,,,,,,,2025-08-28,1,,,,,エッジスタ,0
775,4011003022299,新規,0,2025-08-28,2025-08-28,ＣＵＲＥＭＯＲＥ合同会社,,合同会社,東京都,渋谷区,神泉町１０番１５号アネックス神南３０１,,13,113,1500045,,,,,,,2025-08-28,1,,,,,キュアモア,0
776,4011003022357,新規,0,2025-08-28,2025-08-28,合同会社ＫＩＸ,,合同会社,東京都,渋谷区,神宮前１丁目５番８号,,13,113,1500001,,,,,,,2025-08-28,1,,,,,キックス,0
777,4011003022423,新規,0,2025-08-28,2025-08-28,３９・ＡＩ合同会社,,合同会社,東京都,渋谷区,東１丁目２９番３号渋谷ブリッジＢ－５,,13,113,1500011,,,,,,,2025-08-28,1,,,,,サンキューエーアイ,0
784,4011101112811,新規,0,2025-08-28,2025-08-28,株式会社Ｎａｔｕｒａｌｅａｖｅｓ,,株式会社,東京都,新宿区,白銀町５番１０－４０６号,,13,104,1620816,,,,,,,2025-08-28,1,,,,,ナチュラリーヴス,0
785,4011101112836,新規,0,2025-08-28,2025-08-28,株式会社旭,,株式会社,東京都,新宿区,百人町２丁目８番１５号ダヴィンチ北新宿７Ｆ,,13,104,1690073,,,,,,,2025-08-28,1,,,,,アサヒ,0
789,4011201026589,新規,0,2025-08-28,2025-08-28,株式会社ＭＡＲＩＫＯ,,株式会社,東京都,中野区,東中野４丁目４番５号東中野アパートメンツ５１４号,,13,114,1640003,,,,,,,2025-08-28,1,,,,,マリコ,0
792,4011401027354,新規,0,2025-08-28,2025-08-28,株式会社ＮＮＮ,,株式会社,東京都,板橋区,常盤台１丁目６３番７号,,13,119,1740071,,,,,,,2025-08-28,1,,,,,エヌエヌエヌ,0
794,4011503006660,新規,0,2025-08-28,2025-08-28,槿沢和風合同会社,,合同会社,東京都,荒川区,東日暮里２丁目１３－２サンライズ松原３０１号室,,13,118,1160014,,,,,,,2025-08-28,1,,,,,キンタクワフウ,0
799,4011803007045,新規,0,2025-08-28,2025-08-28,合同会社ジーン・ケア,,合同会社,東京都,足立区,入谷１丁目２７番１６号,,13,121,1210836,,,,,,,2025-08-28,1,,,,,ジーンケア,0
801,4012401043507,新規,0,2025-08-28,2025-08-28,株式会社ＡＹＮＺ,,株式会社,東京都,武蔵野市,吉祥寺南町１丁目２７番１号,,13,203,1800003,,,,,,,2025-08-28,1,,,,,アインズ,0
804,4012701019041,新規,0,2025-08-28,2025-08-28,株式会社カワトリ,,株式会社,東京都,西東京市,保谷町３丁目２番１１号,,13,229,2020015,,,,,,,2025-08-28,1,,,,,カワトリ,0
809,4020001164474,新規,0,2025-08-28,2025-08-28,ハマシップ株式会社,,株式会社,神奈川県,横浜市中区,常盤町１丁目２番１号,,14,104,2310014,,,,,,,2025-08-28,1,,,,,ハマシップ,0
810,4020001164549,新規,0,2025-08-28,2025-08-28,ＤＲＸ株式会社,,株式会社,神奈川県,川崎市高津区,千年７９２番地１アオキビル２Ｆ,,14,134,2130022,,,,,,,2025-08-28,1,,,,,ディーアールエックス,0
811,4020001164557,新規,0,2025-08-28,2025-08-28,株式会社ＢＲＡＩＺ,,株式会社,神奈川県,川崎市宮前区,野川本町３丁目９番１１号,,14,136,2160041,,,,,,,2025-08-28,1,,,,,ブレイズ,0
813,4020003029196,新規,0,2025-08-28,2025-08-28,合同会社あんぶれら,,合同会社,神奈川県,横浜市磯子区,中原２丁目３－２８セシリア新杉田１０１号室,,14,107,2350036,,,,,,,2025-08-28,1,,,,,アンブレラ,0
814,4020003029221,新規,0,2025-08-28,2025-08-28,合同会社華旋日本国際,,合同会社,神奈川県,横浜市中区,真砂町４丁目４３番地木下ビル３階,,14,104,2310016,,,,,,,2025-08-28,1,,,,,カセンニホンコクサイ,0
817,4021001086171,新規,0,2025-08-28,2025-08-28,株式会社縁絆,,株式会社,神奈川県,大和市,福田１６００番地２アビテボナール１０５,,14,213,2420024,,,,,,,2025-08-28,1,,,,,,0
832,4040001140309,新規,0,2025-08-28,2025-08-28,拓羽株式会社,,株式会社,千葉県,佐倉市,坪山新田２３番２号陽光台団地４６号,,12,212,2850056,,,,,,,2025-08-28,1,,,,,タクバ,0
841,4050005013682,新規,0,2025-08-28,2025-08-28,一般社団法人アスリートスプリント協会,,その他の設立登記法人,茨城県,牛久市,柏田町３２３１番地２６４,,08,219,3001211,,,,,,,2025-08-28,1,,,,,アスリートスプリントキョウカイ,0
844,4090003002881,新規,0,2025-08-28,2025-08-28,合同会社ＫＵＹＵＡＲＴＷＯＲＫＳ,,合同会社,山梨県,甲府市,青葉町１－７,,19,201,4000828,,,,,,,2025-08-28,1,,,,,クユアートワークス,0
850,4120001279130,新規,0,2025-08-28,2025-08-28,拙燕倉サプライチェーン株式会社,,株式会社,大阪府,大阪市北区,梅田１丁目１番３号大阪駅前第３ビル２３０７,,27,127,5300001,,,,,,,2025-08-28,1,,,,,セツエンソウサプライチェーン,0
851,4120001279139,新規,0,2025-08-28,2025-08-28,ＦＹ株式会社,,株式会社,大阪府,大阪市阿倍野区,丸山通１丁目５番２号－４０１号,,27,119,5450042,,,,,,,2025-08-28,1,,,,,エフワイ,0
853,4120101072328,新規,0,2025-08-28,2025-08-28,株式会社ＡｎｎｅＪｏｅ,,株式会社,大阪府,岸和田市,土生町４丁目６番２１号,,27,202,5960825,,,,,,,2025-08-28,1,,,,,アンジョー,0
854,4120101072344,新規,0,2025-08-28,2025-08-28,エヌケーコア株式会社,,株式会社,大阪府,松原市,北新町１丁目１１０番地の１２,,27,217,5800025,,,,,,,2025-08-28,1,,,,,エヌケーコア,0
855,4120103006639,新規,0,2025-08-28,2025-08-28,合同会社ＭＩＫＩＷＡ,,合同会社,大阪府,岸和田市,尾生町２丁目４番７号,,27,202,5960816,,,,,,,2025-08-28,1,,,,,ミキワ,0
856,4120103006663,新規,0,2025-08-28,2025-08-28,合同会社みのり,,合同会社,大阪府,富田林市,美山台７番４号,,27,214,5840039,,,,,,,2025-08-28,1,,,,,ミノリ,0
869,4120903005815,新規,0,2025-08-28,2025-08-28,合同会社ペイフォワード,,合同会社,大阪府,豊中市,桜の町１丁目３番２１号－２０５号室,,27,203,5600054,,,,,,,2025-08-28,1,,,,,ペイフォワード,0
870,4122001039588,新規,0,2025-08-28,2025-08-28,株式会社ＭＴＡ,,株式会社,大阪府,東大阪市,鳥居町５番６号,,27,227,5798035,,,,,,,2025-08-28,1,,,,,エムティーエー,0
872,4130001080347,新規,0,2025-08-28,2025-08-28,ポルクス株式会社,,株式会社,京都府,京都市西京区,御陵大枝山町６丁目６番地８,,26,111,6101102,,,,,,,2025-08-28,1,,,,,ポルクス,0
874,4130003010748,新規,0,2025-08-28,2025-08-28,合同会社ラセーラ,,合同会社,京都府,京田辺市,草内山科３９番地７,,26,211,6100311,,,,,,,2025-08-28,1,,,,,ラセーラ,0
898,4180303006706,新規,0,2025-08-28,2025-08-28,合同会社宝エステート,,合同会社,愛知県,安城市,末広町８番４号ＤＥＮＣＩＴＹＣＲＯＳＳＳＩＴＥ１２－Ａ,,23,212,4460038,,,,,,,2025-08-28,1,,,,,タカラエステート,0
899,4190001032482,新規,0,2025-08-28,2025-08-28,株式会社ＪＨＭＥ　Ｅｎｔｅｒｐｒｉｓｅ,,株式会社,三重県,鈴鹿市,東玉垣町５００番地の２０１,,24,207,5130814,,,,,,,2025-08-28,1,,,,,ジェイエイチエムイーエンタープライズ,0
901,4220001026893,新規,0,2025-08-28,2025-08-28,株式会社村上工務店,,株式会社,石川県,白山市,杉森町タ３２番地２,,17,210,9202364,,,,,,,2025-08-28,1,,,,,ムラカミコウムテン,0
917,4290003017307,新規,0,2025-08-28,2025-08-28,Ｐｒｉｍｅ　Ｉｎｄｕｓｔｒｉｅｓ合同会社,,合同会社,福岡県,福岡市中央区,清川２丁目６番４－２０２号,,40,133,8100005,,,,,,,2025-08-28,1,,,,,プライムインダストリーズ,0
931,4330001033474,新規,0,2025-08-28,2025-08-28,レンプラス株式会社,,株式会社,熊本県,熊本市中央区,水道町５番２０号Ｌ－ＢＯＸ２階３号室,,43,101,8600844,,,,,,,2025-08-28,1,,,,,レンプラス,0
932,4330001033524,新規,0,2025-08-28,2025-08-28,でんすけ農場株式会社,,株式会社,熊本県,菊池市,七城町甲佐町１２２番地,,43,210,8611353,,,,,,,2025-08-28,1,,,,,デンスケノウジョウ,0
933,4330001033532,新規,0,2025-08-28,2025-08-28,株式会社前田技建工業ＨＤ,,株式会社,熊本県,合志市,福原１０００番地１,,43,216,8611116,,,,,,,2025-08-28,1,,,,,マエダギケンコウギョウホールディングス,0
937,4380001035540,新規,0,2025-08-28,2025-08-28,株式会社ＧＡＲＤＥＮ,,株式会社,福島県,郡山市,長者１丁目７－１８サンデュエル長者１２０２,,07,203,9638017,,,,,,,2025-08-28,1,,,,,ガーデン,0
942,4420003003177,新規,0,2025-08-28,2025-08-28,合同会社共創,,合同会社,青森県,三戸郡五戸町,大字切谷内字菖蒲川下平２５番地の１,,02,442,0391502,,,,,,,2025-08-28,1,,,,,キョウソウ,0
949,4430003018026,新規,0,2025-08-28,2025-08-28,合同会社レンカ・メディカル・アシスト,,合同会社,北海道,札幌市厚別区,厚別東二条５丁目６番１７号,,01,108,0040002,,,,,,,2025-08-28,1,,,,,レンカメディカルアシスト,0
950,4430003018050,新規,0,2025-08-28,2025-08-28,合同会社フォーカス,,合同会社,北海道,札幌市中央区,南五条西８丁目３番地１ビックパレス南５条９０２号,,01,101,0640805,,,,,,,2025-08-28,1,,,,,フォーカス,0
951,4490001011150,新規,0,2025-08-28,2025-08-28,株式会社ファンフィッツ,,株式会社,高知県,香美市,土佐山田町秦山町２丁目１番１号,,39,212,7820038,,,,,,,2025-08-28,1,,,,,ファンフィッツ,0
955,4700150131982,新規,0,2025-08-28,2025-08-28,Ｊｉｎｃｈｅｎｇ　Ｑｉｎｇｎｉａｏ　Ｅ－Ｃｏｍｍｅｒｃｅ　Ｃｏ．，Ｌｔｄ．,,外国会社等,,,,,,,,Ｒｏｏｍ　５１５－４，５ｔｈ　Ｆｌｏｏｒ，Ｚｈｕｏｙｉ　Ｂｕｓｉｎｅｓｓ，Ｃｈａｎｇａｎ　Ｒｏａｄ，Ｂｅｉｓｈｉｄｉａｎ　Ｔｏｗｎ，Ｃｈｅｎｇ　Ｄｉｓｔｒｉｃｔ，Ｊｉｎｃｈｅｎｇ　Ｃｉｔｙ，Ｓｈａｎｘｉ　Ｐｒｏｖｉｎｃｅ,,,,,,2025-08-28,1,,,,,ジンチョンシーチンニャオディエンズーシャンウーヨウシエンゴンスー,0
975,5010601067878,新規,0,2025-08-28,2025-08-28,株式会社ＷｏｒｋＨａｃｋ,,株式会社,東京都,江東区,南砂２丁目５－１４,,13,108,1360076,,,,,,,2025-08-28,1,,,,,ワークハック,0
976,5010701048225,新規,0,2025-08-28,2025-08-28,株式会社東京メディカルネットワーク,,株式会社,東京都,品川区,西大井５丁目８番２号ＡＳビル３階,,13,109,1400015,,,,,,,2025-08-28,1,,,,,トウキョウメディカルネットワーク,0
984,5011001171543,新規,0,2025-08-28,2025-08-28,株式会社ブリリアント・パワー,,株式会社,東京都,目黒区,東山１丁目４－１３東山ビル１階スタジオＬＩＮＤＡ内,,13,110,1530043,,,,,,,2025-08-28,1,,,,,ブリリアントパワー,0
985,5011001171592,新規,0,2025-08-28,2025-08-28,株式会社ＭＡＴＳＵＳＡＭＡ,,株式会社,東京都,渋谷区,笹塚３丁目１９番１－２０４号,,13,113,1510073,,,,,,,2025-08-28,1,,,,,マツサマ,0
986,5011001171980,新規,0,2025-08-28,2025-08-28,ＶＬＤ株式会社,,株式会社,東京都,渋谷区,千駄ヶ谷５丁目１６番１１号,,13,113,1510051,,,,,,,2025-08-28,1,,,,,ブイエルディ,0
987,5011001172186,新規,0,2025-08-28,2025-08-28,株式会社ねこと水,,株式会社,東京都,渋谷区,恵比寿南３丁目１番１号,,13,113,1500022,,,,,,,2025-08-28,1,,,,,ネコトミズ,0
992,5011101112777,新規,0,2025-08-28,2025-08-28,株式会社アフターライト,,株式会社,東京都,新宿区,西新宿２丁目３番３号ＫＤＤＩアネックスビル１Ｆ,,13,104,1600023,,,,,,,2025-08-28,1,,,,,アフターライト,0
993,5011101112810,新規,0,2025-08-28,2025-08-28,東正株式会社,,株式会社,東京都,新宿区,南元町２０番地３,,13,104,1600012,,,,,,,2025-08-28,1,,,,,トウセイ,0
994,5011101112942,新規,0,2025-08-28,2025-08-28,株式会社Ｌｉｖｅ　Ｃｏｍｍｅｒｃｅ　Ｊａｐａｎ,,株式会社,東京都,新宿区,西新宿３丁目３番１３号西新宿水間ビル６階,,13,104,1600023,,,,,,,2025-08-28,1,,,,,ライブコマースジャパン,0
997,5011201026588,新規,0,2025-08-28,2025-08-28,タレタテ株式会社,,株式会社,東京都,中野区,大和町４丁目４２－６,,13,114,1650034,,,,,,,2025-08-28,1,,,,,タレタテ,0
998,5011405002402,新規,0,2025-08-28,2025-08-28,医療法人社団むすび,,その他の設立登記法人,東京都,板橋区,小茂根２丁目３１番１号コアセブン１０２,,13,119,1730037,,,,,,,2025-08-28,1,,,,,ムスビ,0
1003,5011701028662,新規,0,2025-08-28,2025-08-28,株式会社ｍｔ　ｓｐａｃｅ,,株式会社,東京都,江戸川区,西一之江２丁目２４番１２,,13,123,1320023,,,,,,,2025-08-28,1,,,,,エムティースペース,0
1006,5011803007044,新規,0,2025-08-28,2025-08-28,マイダススクール合同会社,,合同会社,東京都,葛飾区,金町６丁目４番４号クライスビル３階,,13,122,1250042,,,,,,,2025-08-28,1,,,,,マイダススクール,0
1007,5012701019040,新規,0,2025-08-28,2025-08-28,株式会社ＹＭハウス,,株式会社,東京都,西東京市,保谷町５丁目１５番４号,,13,229,2020015,,,,,,,2025-08-28,1,,,,,ワイエムハウス,0
1010,5013301054832,新規,0,2025-08-28,2025-08-28,ＴＯＭＯＲＲＯＷ　ＭＹＡＮＭＡＲ株式会社,,株式会社,東京都,豊島区,上池袋４丁目１－６アイル池袋Ｎｏｒｔｈ参番館１Ｆ,,13,116,1700012,,,,,,,2025-08-28,1,,,,,トゥモローミャンマー,0
1011,5013303007838,新規,0,2025-08-28,2025-08-28,合同会社ライフパートナー,,合同会社,東京都,豊島区,東池袋１丁目３１番１５－４０２号トーカン池袋第２キャステール,,13,116,1700013,,,,,,,2025-08-28,1,,,,,ライフパートナー,0
1014,5020001164481,新規,0,2025-08-28,2025-08-28,株式会社アビックストラスト,,株式会社,神奈川県,川崎市多摩区,生田２丁目１２番１１号,,14,135,2140038,,,,,,,2025-08-28,1,,,,,アビックストラスト,0
1015,5020001164523,新規,0,2025-08-28,2025-08-28,株式会社ネクサス,,株式会社,神奈川県,横浜市港南区,港南台７丁目１５番２７号レヂデンス港南台１０７,,14,111,2340054,,,,,,,2025-08-28,1,,,,,ネクサス,0
1020,5020003029204,新規,0,2025-08-28,2025-08-28,合同会社ＮＯＲ　Ｗｏｒｋｓ,,合同会社,神奈川県,横浜市西区,戸部本町３９番８号ストークビル高島４０５号室,,14,103,2200041,,,,,,,2025-08-28,1,,,,,エヌオーアールワークス,0
1021,5020003029220,新規,0,2025-08-28,2025-08-28,Ｓｐｏｒｔ　Ｄｒｉｖｉｎｇ　Ｊａｐａｎ合同会社,,合同会社,神奈川県,横浜市中区,山下町１番地シルクセンター９１８号,,14,104,2310023,,,,,,,2025-08-28,1,,,,,スポーツドライビングジャパン,0
1022,5020003029245,新規,0,2025-08-28,2025-08-28,サニー合同会社,,合同会社,神奈川県,横浜市南区,高根町１丁目４番４０号ＫＹＳオフィス２ＦＡ１０５,,14,105,2320022,,,,,,,2025-08-28,1,,,,,サニー,0
1029,5021003016464,新規,0,2025-08-28,2025-08-28,合同会社ノベントス,,合同会社,神奈川県,大和市,福田７丁目９－４５,,14,213,2420024,,,,,,,2025-08-28,1,,,,,ノベントス,0
1043,5040003028303,新規,0,2025-08-28,2025-08-28,合同会社リボーン,,合同会社,千葉県,印西市,小林２００４番地５,,12,231,2701318,,,,,,,2025-08-28,1,,,,,リボーン,0
1044,5040003028385,新規,0,2025-08-28,2025-08-28,合同会社太陽建築,,合同会社,千葉県,柏市,塚崎１０２１番地２５,,12,217,2770923,,,,,,,2025-08-28,1,,,,,タイヨウケンチク,0
1048,5060003005705,新規,0,2025-08-28,2025-08-28,合同会社彩衣,,合同会社,栃木県,佐野市,船越町４５番地９,,09,204,3270305,,,,,,,2025-08-28,1,,,,,サイイ,0
1065,5120001279121,新規,0,2025-08-28,2025-08-28,ＳＯＬＩＶＩＡＮ株式会社,,株式会社,大阪府,大阪市東住吉区,東田辺３丁目１－１－４Ｆ－Ｂ,,27,121,5460032,,,,,,,2025-08-28,1,,,,,ソリヴィアン,0
1066,5120001279138,新規,0,2025-08-28,2025-08-28,ＵＭ株式会社,,株式会社,大阪府,大阪市阿倍野区,丸山通１丁目５－２－２０５,,27,119,5450042,,,,,,,2025-08-28,1,,,,,ユーエム,0
1083,5120901051356,新規,0,2025-08-28,2025-08-28,株式会社金太郎,,株式会社,大阪府,高槻市,大冠町１丁目１６番９号の３,,27,207,5690031,,,,,,,2025-08-28,1,,,,,キンタロウ,0
1084,5120901051389,新規,0,2025-08-28,2025-08-28,株式会社Ｌａｕｇｈ　Ｓｕｎｎｙ,,株式会社,大阪府,吹田市,垂水町３丁目２６番８－１０１号,,27,205,5640062,,,,,,,2025-08-28,1,,,,,ラフサニー,0
1085,5120901051422,新規,0,2025-08-28,2025-08-28,株式会社ＯＳＮ,,株式会社,大阪府,箕面市,粟生新家１丁目１２番２号の１,,27,220,5620024,,,,,,,2025-08-28,1,,,,,オーエスエヌ,0
1088,5120903005814,新規,0,2025-08-28,2025-08-28,Ｓｍｉｌｅｙ合同会社,,合同会社,大阪府,豊中市,豊南町西４丁目９番７号,,27,203,5610816,,,,,,,2025-08-28,1,,,,,スマイリー,0
1096,5130001080370,新規,0,2025-08-28,2025-08-28,株式会社想伝,,株式会社,京都府,京都市下京区,仏光寺通大宮西入坊門町８２７番地３９,,26,106,6008388,,,,,,,2025-08-28,1,,,,,ソウデン,0
1097,5130001080445,新規,0,2025-08-28,2025-08-28,株式会社ＪＩＮＧＫＩＣＫＳ,,株式会社,京都府,京都市中京区,壬生馬場町１番地７,,26,104,6048805,,,,,,,2025-08-28,1,,,,,ジンキックス,0
1102,5140001139802,新規,0,2025-08-28,2025-08-28,株式会社農耕ビジョン,,株式会社,兵庫県,川辺郡猪名川町,荘苑７番地３,,28,301,6660200,,,,,,,2025-08-28,1,,,,,ノウコウビジョン,0
1133,5220001026892,新規,0,2025-08-28,2025-08-28,株式会社Ｋ‐ｔｅｃｈ,,株式会社,石川県,金沢市,塚崎町ハ１１１番地１,,17,201,9203113,,,,,,,2025-08-28,1,,,,,ケーテック,0
1140,5240003007377,新規,0,2025-08-28,2025-08-28,合同会社アシスト,,合同会社,広島県,広島市佐伯区,五日市中央１丁目３番２８－２０２号,,34,108,7315128,,,,,,,2025-08-28,1,,,,,アシスト,0
1146,5290001111201,新規,0,2025-08-28,2025-08-28,株式会社ＶｉＭ,,株式会社,福岡県,福岡市博多区,博多駅前１丁目２３番２号ＰａｒｋＦｒｏｎｔ博多駅前一丁目５Ｆ－Ｂ,,40,132,8120011,,,,,,,2025-08-28,1,,,,,ビム,0
1149,5290003017306,新規,0,2025-08-28,2025-08-28,上野中小企業診断士事務所合同会社,,合同会社,福岡県,糸島市,美咲が丘２丁目３番８号,,40,230,8191136,,,,,,,2025-08-28,1,,,,,ウエノチュウショウキギョウシンダンシジムショ,0
1152,5300001014328,新規,0,2025-08-28,2025-08-28,株式会社Ｎｓｅａｎ,,株式会社,佐賀県,佐賀市,新生町４番２６－４号,,41,201,8400856,,,,,,,2025-08-28,1,,,,,エヌシーン,0
1153,5300005007261,新規,0,2025-08-28,2025-08-28,特定非営利活動法人刑務所からカウンセリングと癒しへ,,その他の設立登記法人,佐賀県,佐賀市,白山２丁目１番１２号佐賀商工ビル７階佐賀市市民活動プラザ内レターケースＮｏ．１２,,41,201,8400826,,,,,,,2025-08-28,1,,,,,ケイムショカラカウンセリングトイヤシヘ,0
1156,5330003011188,新規,0,2025-08-28,2025-08-28,合同会社ＹＯＬＯ,,合同会社,熊本県,熊本市中央区,花畑町１番１４号Ａ＆Ｍ　ＨＡＮＡＢＡＴＡ３０１号,,43,101,8600806,,,,,,,2025-08-28,1,,,,,ヨーロー,0
1161,5360001035681,新規,0,2025-08-28,2025-08-28,株式会社Ｈ＆Ｒ,,株式会社,沖縄県,那覇市,久茂地２丁目６番２５号８階,,47,201,9000015,,,,,,,2025-08-28,1,,,,,エイチアンドアール,0
1162,5360001035707,新規,0,2025-08-28,2025-08-28,株式会社Ｍ．Ａ,,株式会社,沖縄県,那覇市,識名１丁目４番７－５０１号サントピア識名,,47,201,9020078,,,,,,,2025-08-28,1,,,,,エムエー,0
1163,5360003015194,新規,0,2025-08-28,2025-08-28,合同会社模合,,合同会社,沖縄県,宜野湾市,宜野湾２丁目２１－２,,47,205,9012211,,,,,,,2025-08-28,1,,,,,モアイ,0
1188,6010001258003,新規,0,2025-08-28,2025-08-28,株式会社ＳＪＮ,,株式会社,東京都,中央区,新川１丁目１１番１０号,,13,102,1040033,,,,,,,2025-08-28,1,,,,,エスジェイエヌ,0
1193,6010003048559,新規,0,2025-08-28,2025-08-28,合同会社ストレートサポート,,合同会社,東京都,中央区,日本橋２丁目１６番４号ｒｅｍｉｘ日本橋６階,,13,102,1030027,,,,,,,2025-08-28,1,,,,,ストレートサポート,0
1194,6010103002639,新規,0,2025-08-28,2025-08-28,合同会社ＴＡＢＬＥ,,合同会社,東京都,八王子市,椚田町５１２番地３レシェンテ２０４号,,13,201,1930942,,,,,,,2025-08-28,1,,,,,テーブル,0
1208,6010801036525,新規,0,2025-08-28,2025-08-28,株式会社ＹＳＥサポート,,株式会社,東京都,大田区,千鳥１丁目１５番１４号,,13,111,1460083,,,,,,,2025-08-28,1,,,,,ワイエスイーサポート,0
1214,6011001171468,新規,0,2025-08-28,2025-08-28,株式会社ＢＬＥＳＳ,,株式会社,東京都,渋谷区,初台１丁目４３番４号,,13,113,1510061,,,,,,,2025-08-28,1,,,,,,0
1215,6011001171542,新規,0,2025-08-28,2025-08-28,株式会社Ｃｅｒｅｐｏｒｔａｌ,,株式会社,東京都,渋谷区,道玄坂１丁目１０番８号渋谷道玄坂東急ビル２Ｆ－Ｃ,,13,113,1500043,,,,,,,2025-08-28,1,,,,,セレポータル,0
1216,6011001171591,新規,0,2025-08-28,2025-08-28,Ｙｕｄｅｎ　Ｓｔｕｄｉｏ株式会社,,株式会社,東京都,渋谷区,神宮前６丁目２３番４号桑野ビル２階,,13,113,1500001,,,,,,,2025-08-28,1,,,,,ユデンスタジオ,0
1217,6011001171641,新規,0,2025-08-28,2025-08-28,株式会社ｍｉｎｔ,,株式会社,東京都,渋谷区,渋谷３丁目７番６号,,13,113,1500002,,,,,,,2025-08-28,1,,,,,ミント,0
1218,6011001172185,新規,0,2025-08-28,2025-08-28,株式会社東京,,株式会社,東京都,渋谷区,恵比寿南３丁目１番１号,,13,113,1500022,,,,,,,2025-08-28,1,,,,,トウキョウ,0
1220,6011003022339,新規,0,2025-08-28,2025-08-28,合同会社ＭＯＫＵＳＯＮ,,合同会社,東京都,渋谷区,神南１丁目１１－４ＦＰＧリンクス神南５階,,13,113,1500041,,,,,,,2025-08-28,1,,,,,モクソン,0
1221,6011003022413,新規,0,2025-08-28,2025-08-28,合同会社ネクスト,,合同会社,東京都,渋谷区,幡ヶ谷１丁目７番７－９０１号ミュージシャンズヴィラ幡ヶ谷,,13,113,1510072,,,,,,,2025-08-28,1,,,,,ネクスト,0
1228,6011601028927,新規,0,2025-08-28,2025-08-28,Ｔｅｎｖｉｘ　Ｔｒａｄｅ株式会社,,株式会社,東京都,練馬区,春日町４丁目１９番８号,,13,120,1790074,,,,,,,2025-08-28,1,,,,,テンヴィックストレード,0
1229,6011603004760,新規,0,2025-08-28,2025-08-28,合同会社ＴＳＵＫＵＭＯ　Ｄｅｓｉｇｎ,,合同会社,東京都,練馬区,桜台１丁目４－１１ライオンズマンション桜台駅前２０８,,13,120,1760002,,,,,,,2025-08-28,1,,,,,ツクモデザイン,0
1239,6020001164530,新規,0,2025-08-28,2025-08-28,株式会社９２３,,株式会社,神奈川県,横浜市港北区,大倉山３丁目４９番９号,,14,109,2220037,,,,,,,2025-08-28,1,,,,,,0
1241,6020003029137,新規,0,2025-08-28,2025-08-28,合同会社ラセン,,合同会社,神奈川県,川崎市中原区,井田中ノ町４３－３サニーテラス井田３０１,,14,133,2110034,,,,,,,2025-08-28,1,,,,,ラセン,0
1242,6020003029244,新規,0,2025-08-28,2025-08-28,合同会社ＥＮＯＡ,,合同会社,神奈川県,横浜市保土ケ谷区,桜ケ丘２丁目４３番１－２２４号,,14,106,2400011,,,,,,,2025-08-28,1,,,,,エノア,0
1243,6020003029252,新規,0,2025-08-28,2025-08-28,心ヒューマンサポート合同会社,,合同会社,神奈川県,横浜市鶴見区,岸谷１丁目２４－５，２０２号,,14,101,2300078,,,,,,,2025-08-28,1,,,,,ココロヒューマンサポート,0
1244,6020003029269,新規,0,2025-08-28,2025-08-28,合同会社ａｔｅｌｉｅｒ　Ｎ,,合同会社,神奈川県,横浜市青葉区,あざみ野１丁目３‐１ドミールアザミノ４０１,,14,117,2250011,,,,,,,2025-08-28,1,,,,,アトリエエヌ,0
1257,6040003028376,新規,0,2025-08-28,2025-08-28,Ｄａｒｅ　Ｉｎｆｉｎｉｔｙ合同会社,,合同会社,千葉県,浦安市,東野３丁目３４―１６,,12,227,2790042,,,,,,,2025-08-28,1,,,,,デアインフィニティ,0
1259,6050001057178,新規,0,2025-08-28,2025-08-28,株式会社Ｃａｒ’ｚＭ,,株式会社,茨城県,水戸市,元石川町７４番地の１,,08,201,3100843,,,,,,,2025-08-28,1,,,,,カーズエム,0
1262,6060003005704,新規,0,2025-08-28,2025-08-28,ＬＵＣＡボーテ合同会社,,合同会社,栃木県,小山市,城東６丁目２番２号１Ｆ,,09,208,3230807,,,,,,,2025-08-28,1,,,,,ルカボーテ,0
1266,6080103003408,新規,0,2025-08-28,2025-08-28,コネクトフィールド合同会社,,合同会社,静岡県,富士市,青葉町６１３番地,,22,210,4160952,,,,,,,2025-08-28,1,,,,,コネクトフィールド,0
1267,6110001004842,新規,0,2025-08-28,2025-08-28,ファースト・クレジット株式会社,,株式会社,新潟県,新潟市中央区,東大通１丁目７番８号,,15,103,9500087,,,,,,,2025-08-28,1,,,,,ファーストクレジット,0
1279,6120001279079,新規,0,2025-08-28,2025-08-28,順和商事株式会社,,株式会社,大阪府,大阪市東住吉区,湯里５丁目１６番地５号３Ｆ－Ｃ,,27,121,5460013,,,,,,,2025-08-28,1,,,,,ジュンワショウジ,0
1280,6120001279112,新規,0,2025-08-28,2025-08-28,ＡＩＨＡＶＥ株式会社,,株式会社,大阪府,大阪市北区,大深町１番１号ヨドバシ梅田タワー８ＦＷｅＷｏｒｋ・ＬＩＮＫＳ・ＵＭＥＤＡ,,27,127,5300011,,,,,,,2025-08-28,1,,,,,アイハブ,0
1281,6120001279120,新規,0,2025-08-28,2025-08-28,匠吉株式会社,,株式会社,大阪府,大阪市阿倍野区,相生通１丁目６－２９－３Ｆ,,27,119,5450033,,,,,,,2025-08-28,1,,,,,ショウキチ,0
1282,6120001279145,新規,0,2025-08-28,2025-08-28,株式会社ケイエムティ,,株式会社,大阪府,大阪市淀川区,十三東３丁目１４番１７号,,27,123,5320023,,,,,,,2025-08-28,1,,,,,ケイエムティ,0
1298,6120901051396,新規,0,2025-08-28,2025-08-28,株式会社澪怜,,株式会社,大阪府,箕面市,桜井３丁目１番６号,,27,220,5620043,,,,,,,2025-08-28,1,,,,,レイキ,0
1299,6120901051405,新規,0,2025-08-28,2025-08-28,株式会社ＨＯＲＩＺＯＮ,,株式会社,大阪府,吹田市,寿町１丁目８番８号,,27,205,5640036,,,,,,,2025-08-28,1,,,,,ホライズン,0
1303,6120903005821,新規,0,2025-08-28,2025-08-28,合同会社クロスフィールド,,合同会社,大阪府,豊中市,浜１丁目１３－５,,27,203,5610817,,,,,,,2025-08-28,1,,,,,クロスフィールド,0
1308,6130001080378,新規,0,2025-08-28,2025-08-28,福新株式会社,,株式会社,京都府,宇治市,大久保町平盛５－１４,,26,204,6110033,,,,,,,2025-08-28,1,,,,,フクシン,0
1323,6180001168334,新規,0,2025-08-28,2025-08-28,株式会社Ｋ．ＨＤ,,株式会社,愛知県,名古屋市中区,丸の内１丁目８番１５号Ｌ．Ｂｉｚ丸の内１２階Ｂ,,23,106,4600002,,,,,,,2025-08-28,1,,,,,ケーホールディングス,0
1329,6180003028949,新規,0,2025-08-28,2025-08-28,オスカーグローバル合同会社,,合同会社,愛知県,一宮市,更屋敷字南出６３番地１,,23,203,4910134,,,,,,,2025-08-28,1,,,,,オスカーグローバル,0
1335,6220005008993,新規,0,2025-08-28,2025-08-28,一般社団法人町野復興プロジェクト実行委員会,,その他の設立登記法人,石川県,輪島市,町野町粟蔵ニ部８０の１０,,17,204,9280215,,,,,,,2025-08-28,1,,,,,マチノフッコウプロジェクトジッコウイインカイ,0
1340,6240001065418,新規,0,2025-08-28,2025-08-28,株式会社キーストーン,,株式会社,広島県,広島市中区,本川町２丁目１番２７－２０２号,,34,101,7300802,,,,,,,2025-08-28,1,,,,,キーストーン,0
1341,6240001065426,新規,0,2025-08-28,2025-08-28,株式会社ＭＡＥＤＡＶＩＮＣＩ,,株式会社,広島県,広島市西区,上天満町５番１４号,,34,104,7330021,,,,,,,2025-08-28,1,,,,,マエダビンチ,0
1350,6270005005656,新規,0,2025-08-28,2025-08-28,一般社団法人湿地管理組合,,その他の設立登記法人,鳥取県,八頭郡八頭町,大坪４１４番地１,,31,329,6800435,,,,,,,2025-08-28,1,,,,,シッチカンリクミアイ,0
1365,6290001111200,新規,0,2025-08-28,2025-08-28,エヴォン株式会社,,株式会社,福岡県,福岡市博多区,博多駅前２丁目５番８号９Ｆ,,40,132,8120011,,,,,,,2025-08-28,1,,,,,エヴォン,0
1371,6290003017263,新規,0,2025-08-28,2025-08-28,合同会社そはるでぃ,,合同会社,福岡県,福岡市城南区,別府２丁目１７－３ｖｅｇａｌｉｇｈｔ別府２０３,,40,136,8140104,,,,,,,2025-08-28,1,,,,,ソハルディ,0
1375,6300005007260,新規,0,2025-08-28,2025-08-28,Ｄ’グラフォート佐賀エクセレンテージ管理組合法人,,その他の設立登記法人,佐賀県,佐賀市,水ヶ江１丁目２番３６号,,41,201,8400054,,,,,,,2025-08-28,1,,,,,ディーグラフォートサガエクセレンテージ,0
1380,6330001033530,新規,0,2025-08-28,2025-08-28,株式会社イタリー亭熊本ビルディング,,株式会社,熊本県,山鹿市,大橋通２０２番地２,,43,208,8610517,,,,,,,2025-08-28,1,,,,,イタリーテイクマモトビルディング,0
1381,6330003011187,新規,0,2025-08-28,2025-08-28,合同会社根子岳,,合同会社,熊本県,熊本市東区,長嶺南４丁目９番５７号,,43,102,8618039,,,,,,,2025-08-28,1,,,,,ネコダケ,0
1392,6380001035539,新規,0,2025-08-28,2025-08-28,株式会社ｈｕｍｂｌｅ,,株式会社,福島県,東白川郡塙町,大字台宿字台宿１１９番地,,07,483,9635341,,,,,,,2025-08-28,1,,,,,ハンブル,0
1400,6500001026483,新規,0,2025-08-28,2025-08-28,株式会社Ｔｓｕ,,株式会社,愛媛県,松山市,志津川町４９１番地３,,38,201,7918003,,,,,,,2025-08-28,1,,,,,ティーエスユー,0
1404,6700150132005,新規,0,2025-08-28,2025-08-28,ＣＡＲ　ＡＳＩＡ,,外国会社等,神奈川県,厚木市,戸田２３２３番地１　サンビレッジセイタ１１２,,14,212,2430023,スリランカ民主社会主義共和国、カルムナイ、メインストリート、Ｎｏ．６０７,,,,,,2025-08-28,1,,,,,カーアジア,0
1411,7010001257516,新規,0,2025-08-28,2025-08-28,民泊運営清掃代行株式会社,,株式会社,東京都,千代田区,神田東松下町１１番地５,,13,101,1010042,,,,,,,2025-08-28,1,,,,,ミンパクウンエイセイソウダイコウ,0
1420,7010401192635,新規,0,2025-08-28,2025-08-28,株式会社ｂｏｏｏ,,株式会社,東京都,港区,港南４丁目６番８－３９０１号,,13,103,1080075,,,,,,,2025-08-28,1,,,,,ブー,0
1431,7010701048231,新規,0,2025-08-28,2025-08-28,株式会社えんのした,,株式会社,東京都,品川区,西大井１丁目１－２Ｊタワー西大井イーストタワー２階,,13,109,1400015,,,,,,,2025-08-28,1,,,,,エンノシタ,0
1442,7011001171649,新規,0,2025-08-28,2025-08-28,株式会社ライジングステージ,,株式会社,東京都,渋谷区,渋谷３丁目２５番６号,,13,113,1500002,,,,,,,2025-08-28,1,,,,,ライジングステージ,0
1443,7011001172069,新規,0,2025-08-28,2025-08-28,株式会社きなり,,株式会社,東京都,目黒区,目黒本町６丁目９番２０号メゾンイセモトＮｏ．２－３０２,,13,110,1520002,,,,,,,2025-08-28,1,,,,,キナリ,0
1446,7011003022255,新規,0,2025-08-28,2025-08-28,Ｋｉｌｌａ‐Ｋ合同会社,,合同会社,東京都,渋谷区,神宮前３丁目１７番１１－５０１号ザ・パークハウスアーバンス表参道,,13,113,1500001,,,,,,,2025-08-28,1,,,,,キラ,0
1450,7011101112800,新規,0,2025-08-28,2025-08-28,株式会社ビジネスサービス,,株式会社,東京都,新宿区,新宿５丁目１０番１５号ＴｈｅＣｏｒｎｅｒＳＨＩＮＪＵＫＵ７階,,13,104,1600022,,,,,,,2025-08-28,1,,,,,ビジネスサービス,0
1457,7011201026594,新規,0,2025-08-28,2025-08-28,株式会社ＵＳ,,株式会社,東京都,中野区,若宮３丁目４２番２－１０１号,,13,114,1650033,,,,,,,2025-08-28,1,,,,,ユーエス,0
1472,7011801046661,新規,0,2025-08-28,2025-08-28,株式会社ＫＳＡ　Ｎｅｘｕｓ,,株式会社,東京都,葛飾区,新宿１丁目１２番２８号,,13,122,1250051,,,,,,,2025-08-28,1,,,,,ケーエスエーネクサス,0
1481,7012401043520,新規,0,2025-08-28,2025-08-28,株式会社アイアールアイ,,株式会社,東京都,三鷹市,井の頭１丁目２６番地９,,13,204,1810001,,,,,,,2025-08-28,1,,,,,アイアールアイ,0
1491,7020001164562,新規,0,2025-08-28,2025-08-28,株式会社ゲブロ,,株式会社,神奈川県,横浜市旭区,上川井町１１３番地６,,14,112,2410802,,,,,,,2025-08-28,1,,,,,ゲブロ,0
1494,7020003029210,新規,0,2025-08-28,2025-08-28,合同会社Ａｂｅｌｉａ,,合同会社,神奈川県,横浜市西区,浅間町１丁目４番３号ウィザードビル４０２,,14,103,2200072,,,,,,,2025-08-28,1,,,,,アベリア,0
1495,7020003029227,新規,0,2025-08-28,2025-08-28,合同会社ＫＲＪカンパニー,,合同会社,神奈川県,横浜市神奈川区,片倉５丁目１７番１２号,,14,102,2210865,,,,,,,2025-08-28,1,,,,,ケーアールジェーカンパニー,0
1519,7040003028409,新規,0,2025-08-28,2025-08-28,合同会社Ｏｐｔｉｍａ,,合同会社,千葉県,柏市,大津ケ丘３丁目１番７棟５０５号,,12,217,2770921,,,,,,,2025-08-28,1,,,,,オプタイマ,0
1525,7050001057160,新規,0,2025-08-28,2025-08-28,ＥｎＮＥＣＴ株式会社,,株式会社,茨城県,つくば市,千現２丁目１番６,,08,220,3050047,,,,,,,2025-08-28,1,,,,,エンネクト,0
1528,7060003005703,新規,0,2025-08-28,2025-08-28,Ｃｏｄｅ　Ｂｌｏｏｍ合同会社,,合同会社,栃木県,鹿沼市,上石川１１４８番地３,,09,205,3220015,,,,,,,2025-08-28,1,,,,,コードブルーム,0
1529,7070001043290,新規,0,2025-08-28,2025-08-28,株式会社ｎａｒｓ,,株式会社,群馬県,高崎市,台新田町３２８番地２,,10,202,3701206,,,,,,,2025-08-28,1,,,,,ナーズ,0
1532,7080401028139,新規,0,2025-08-28,2025-08-28,ＡＴＳＵＭＩ株式会社,,株式会社,静岡県,浜松市中央区,天王町７２４番地の１,,22,138,4350052,,,,,,,2025-08-28,1,,,,,アツミ,0
1546,7120001279144,新規,0,2025-08-28,2025-08-28,金禾株式会社,,株式会社,大阪府,大阪市西成区,橘１丁目１１－２８オフィスポート橘４０１号室,,27,122,5570051,,,,,,,2025-08-28,1,,,,,キンカ,0
1547,7120001279160,新規,0,2025-08-28,2025-08-28,株式会社ＴＡＳＱ,,株式会社,大阪府,大阪市西成区,天下茶屋東２丁目３番２７号Ｇｕｔａｌｔ２０２,,27,122,5570011,,,,,,,2025-08-28,1,,,,,タスク,0
1561,7120901051370,新規,0,2025-08-28,2025-08-28,裕寿喜商事株式会社,,株式会社,大阪府,吹田市,豊津町１番２１号,,27,205,5640051,,,,,,,2025-08-28,1,,,,,ユズキショウジ,0
1562,7120901051379,新規,0,2025-08-28,2025-08-28,株式会社ａｍｉｇａ　ｃｉｅｌｏ,,株式会社,大阪府,茨木市,真砂１丁目５番１８－１０２号,,27,211,5670851,,,,,,,2025-08-28,1,,,,,アミガシエロ,0
1563,7120901051395,新規,0,2025-08-28,2025-08-28,株式会社八咫烏,,株式会社,大阪府,豊中市,中桜塚１丁目９番３号,,27,203,5610881,,,,,,,2025-08-28,1,,,,,ヤタガラス,0
1564,7120901051437,新規,0,2025-08-28,2025-08-28,Ｒファシリティ株式会社,,株式会社,大阪府,茨木市,竹橋町２－１三共ビル２階,,27,211,5670815,,,,,,,2025-08-28,1,,,,,アールファシリティ,0
1570,7130003010712,新規,0,2025-08-28,2025-08-28,合同会社Ｌａ　Ｒｏｓｅ　ｄｕ　Ｊａｐｏｎ,,合同会社,京都府,京都市右京区,西京極西川町２８番地３ハーニ１号室,,26,108,6150852,,,,,,,2025-08-28,1,,,,,ラローズドゥジャポン,0
1575,7140005027613,新規,0,2025-08-28,2025-08-28,ＮＰＯ法人エンジェルファーマーズ,,その他の設立登記法人,兵庫県,宍粟市,波賀町安賀５３４－１,,28,227,6714241,,,,,,,2025-08-28,1,,,,,エンジェルファーマーズ,0
1594,7180003028948,新規,0,2025-08-28,2025-08-28,合同会社ＭＬサービス,,合同会社,愛知県,名古屋市中川区,東起町５丁目３６番地メゾンリエール１０６号,,23,110,4540935,,,,,,,2025-08-28,1,,,,,エムエルサービス,0
1600,7180303006703,新規,0,2025-08-28,2025-08-28,合同会社ヤマナカコンサル,,合同会社,愛知県,豊橋市,牧野町３８番地の２５,,23,201,4418112,,,,,,,2025-08-28,1,,,,,ヤマナカコンサル,0
1602,7190003005153,新規,0,2025-08-28,2025-08-28,合同会社Ｒｏｎ,,合同会社,三重県,松阪市,松ヶ島町６２０番地２,,24,204,5152133,,,,,,,2025-08-28,1,,,,,ロン,0
1608,7220001026890,新規,0,2025-08-28,2025-08-28,株式会社エムエムエス,,株式会社,石川県,金沢市,新神田４丁目１４番１５号,,17,201,9218013,,,,,,,2025-08-28,1,,,,,,0
1609,7240001065417,新規,0,2025-08-28,2025-08-28,株式会社Ｈｅａｒｔ　Ｒｏｕｔｅ,,株式会社,広島県,広島市西区,古江東町１４－１０,,34,104,7330872,,,,,,,2025-08-28,1,,,,,ハートルート,0
1615,7280003001985,新規,0,2025-08-28,2025-08-28,盛源合同会社,,合同会社,島根県,松江市,宍道町東来待７６１番地２５,,32,201,6990404,,,,,,,2025-08-28,1,,,,,セイゲン,0
1621,7290003017304,新規,0,2025-08-28,2025-08-28,ＬＵＣＫＹ合同会社,,合同会社,福岡県,福岡市南区,井尻５丁目６番２４号ひとえハイツ２０６,,40,134,8111302,,,,,,,2025-08-28,1,,,,,ラッキー,0
1625,7320003004752,新規,0,2025-08-28,2025-08-28,合同会社Ｍ＆Ａ,,合同会社,大分県,大分市,ふじが丘南１丁目９番６号,,44,201,8701183,,,,,,,2025-08-28,1,,,,,エムアンドエー,0
1630,7350005006323,新規,0,2025-08-28,2025-08-28,弁護士法人ＡＸＩＳ法律事務所,,その他の設立登記法人,宮崎県,宮崎市,橘通西３丁目１０－３２宮崎ナナイロ東館８階ＡＴＯＭｉｃａ宮崎,,45,201,8800001,,,,,,,2025-08-28,1,,,,,アクシスホウリツジムショ,0
1631,7360003015201,新規,0,2025-08-28,2025-08-28,合同会社Ｇｏａｔ,,合同会社,沖縄県,浦添市,宮城４丁目１８番２３号,,47,208,9012126,,,,,,,2025-08-28,1,,,,,ゴート,0
1634,7380001035538,新規,0,2025-08-28,2025-08-28,草野工業株式会社,,株式会社,福島県,いわき市,小川町上小川字後原４番地の１,,07,204,9793124,,,,,,,2025-08-28,1,,,,,クサノコウギョウ,0
1642,7450001014716,新規,0,2025-08-28,2025-08-28,株式会社Ｂｅｔｔｙ,,株式会社,北海道,旭川市,神楽二条１０丁目１番２号エクセレント神楽２０１,,01,204,0708002,,,,,,,2025-08-28,1,,,,,ベティ,0
1653,7700150132004,新規,0,2025-08-28,2025-08-28,ＮＥＸＵＳ　ＴＲＡＤＩＮＧ　ＰＶＴ　ＬＴＤ,,外国会社等,千葉県,八街市,文違１３１－３１アカオジュウタク－１０Ａ,,12,230,2891104,スリランカ民主社会主義共和国、キャンディ、クルゴタ、アクラナ１６８／７Ａ番地,,,,,,2025-08-28,1,,,,,ネクサストレーデイングプライベートリミテツド,0
1661,8010001258001,新規,0,2025-08-28,2025-08-28,ラクカツ・マジックキューブ株式会社,,株式会社,東京都,文京区,千石４丁目１４番９号,,13,105,1120011,,,,,,,2025-08-28,1,,,,,ラクカツマジックキューブ,0
1662,8010003048532,新規,0,2025-08-28,2025-08-28,ティーシーエム・ジャパン合同会社,,合同会社,東京都,千代田区,有楽町１丁目５番２号東宝日比谷プロムナードビルディング１１階,,13,101,1000006,,,,,,,2025-08-28,1,,,,,ティーシーエムジャパン,0
1663,8010103002637,新規,0,2025-08-28,2025-08-28,合同会社Ｒｅｏｏｔ,,合同会社,東京都,八王子市,明神町２丁目１２番１８号,,13,201,1920046,,,,,,,2025-08-28,1,,,,,リュート,0
1668,8010401192709,新規,0,2025-08-28,2025-08-28,Ｆｏｓｕｎ　Ｈｅｎｌｉｕｓ　Ｐｈａｒｍａｃｅｕｔｉｃａｌ株式会社,,株式会社,東京都,港区,浜松町２丁目４番１号世界貿易センタービルディング南館１７階１１－１２,,13,103,1050013,,,,,,,2025-08-28,1,,,,,フォースンヘンリウスファーマシューティカル,0
1669,8010401192758,新規,0,2025-08-28,2025-08-28,株式会社ＷＩＮコーポレーション,,株式会社,東京都,港区,虎ノ門１丁目１番２１号,,13,103,1050001,,,,,,,2025-08-28,1,,,,,ウィンコーポレーション,0
1671,8010403035808,新規,0,2025-08-28,2025-08-28,合同会社ＳＴＵＤＩＯ　ＭｉＬＥ,,合同会社,東京都,港区,白金１丁目１７－１,,13,103,1080072,,,,,,,2025-08-28,1,,,,,スタジオマイル,0
1672,8010403035915,新規,0,2025-08-28,2025-08-28,仙丈ヶ岳合同会社,,合同会社,東京都,港区,六本木１丁目６番１号泉ガーデンタワーＫＰＭＧ税理士法人内,,13,103,1060032,,,,,,,2025-08-28,1,,,,,センジョウガタケ,0
1679,8010701048222,新規,0,2025-08-28,2025-08-28,ＬＨジャパンホールディングス株式会社,,株式会社,東京都,品川区,東五反田５丁目２２番３３号ＴＫ池田山ビル２階,,13,109,1410022,,,,,,,2025-08-28,1,,,,,エルエイチジャパンホールディングス,0
1680,8010703007886,新規,0,2025-08-28,2025-08-28,ＢＲＡＩＮＮ合同会社,,合同会社,東京都,品川区,小山台１丁目１１番５号,,13,109,1420061,,,,,,,2025-08-28,1,,,,,ブレイン,0
1689,8011001171524,新規,0,2025-08-28,2025-08-28,マテリアス株式会社,,株式会社,東京都,渋谷区,道玄坂１丁目１０番８号渋谷道玄坂東急ビル２Ｆ－Ｃ,,13,113,1500043,,,,,,,2025-08-28,1,,,,,マテリアス,0
1690,8011001171607,新規,0,2025-08-28,2025-08-28,株式会社一期リンク,,株式会社,東京都,目黒区,大岡山１丁目１２番７号あすかアパートメント大岡山２０１号室,,13,110,1520033,,,,,,,2025-08-28,1,,,,,イチゴリンク,0
1694,8011103016305,新規,0,2025-08-28,2025-08-28,ＵＫＲ合同会社,,合同会社,東京都,新宿区,中井２丁目１９番１号四の坂テラス１９号,,13,104,1610035,,,,,,,2025-08-28,1,,,,,ユーケーアール,0
1696,8011203004804,新規,0,2025-08-28,2025-08-28,令和バブル産業合同会社,,合同会社,東京都,中野区,弥生町１丁目３４－７ライフピアヴィーナス２０１,,13,114,1640013,,,,,,,2025-08-28,1,,,,,レイワバブルサンギョウ,0
1699,8011503006657,新規,0,2025-08-28,2025-08-28,合同会社ワイアイブルーム,,合同会社,東京都,北区,西が丘２丁目１番４号,,13,117,1150056,,,,,,,2025-08-28,1,,,,,ワイアイブルーム,0
1700,8011601028925,新規,0,2025-08-28,2025-08-28,株式会社Ｈｉｒａｃｔｏ,,株式会社,東京都,練馬区,高野台５丁目２９番３号ローレルコート石神井公園１０４,,13,120,1770033,,,,,,,2025-08-28,1,,,,,ヒラクト,0
1708,8012801024193,新規,0,2025-08-28,2025-08-28,株式会社リオ立川,,株式会社,東京都,立川市,柴崎町３丁目４番３号ＴＥ柴崎ビル３階,,13,202,1900023,,,,,,,2025-08-28,1,,,,,リオタチカワ,0
1710,8013301054813,新規,0,2025-08-28,2025-08-28,株式会社Ａｎｔｉｍｉｄ,,株式会社,東京都,豊島区,池袋３丁目９番１３－２０２号,,13,116,1710014,,,,,,,2025-08-28,1,,,,,アンチミッド,0
1711,8013301054838,新規,0,2025-08-28,2025-08-28,Ｎｅｘｏｒａ株式会社,,株式会社,東京都,豊島区,池袋２丁目１６番１１号小林ビル４階,,13,116,1710014,,,,,,,2025-08-28,1,,,,,ネクソラ,0
1718,8020001164487,新規,0,2025-08-28,2025-08-28,株式会社悠フォレスト,,株式会社,神奈川県,川崎市多摩区,栗谷１丁目８番２号トゥインクル２０４号室,,14,135,2140039,,,,,,,2025-08-28,1,,,,,ユウフォレスト,0
1719,8020001164578,新規,0,2025-08-28,2025-08-28,ＷＯＭ株式会社,,株式会社,神奈川県,横浜市鶴見区,東寺尾３丁目９番７号,,14,101,2300077,,,,,,,2025-08-28,1,,,,,ウォム,0
1721,8020003029218,新規,0,2025-08-28,2025-08-28,合同会社Ｒｏｏｍ１０２,,合同会社,神奈川県,横浜市南区,前里町１丁目４－３黄金町駅前ビル４Ｆ,,14,105,2320004,,,,,,,2025-08-28,1,,,,,ルームイチマルニ,0
1722,8020003029234,新規,0,2025-08-28,2025-08-28,ＳＵＳＨＩＬＡ　ＩＮＴＥＲＮＡＴＩＯＮＡＬ合同会社,,合同会社,神奈川県,川崎市中原区,上小田中６丁目３番６号ミアハイツ２０１,,14,133,2110053,,,,,,,2025-08-28,1,,,,,スシラインターナショナル,0
1723,8020003029242,新規,0,2025-08-28,2025-08-28,スギノエージェンシー合同会社,,合同会社,神奈川県,川崎市多摩区,東三田２丁目５番１４号石川ハウス１－２,,14,135,2140033,,,,,,,2025-08-28,1,,,,,スギノエージェンシー,0
1744,8050001057036,新規,0,2025-08-28,2025-08-28,株式会社スラッシュ,,株式会社,茨城県,ひたちなか市,春日町８番５,,08,221,3120048,,,,,,,2025-08-28,1,,,,,スラッシュ,0
1748,8060001038530,新規,0,2025-08-28,2025-08-28,株式会社ＨＷＴ,,株式会社,栃木県,小山市,大字中久喜１１６６番地１７,,09,208,3230806,,,,,,,2025-08-28,1,,,,,ホワタ,0
1761,8120001279119,新規,0,2025-08-28,2025-08-28,北島株式会社,,株式会社,大阪府,大阪市東住吉区,鷹合４丁目２１番１６号１Ｆ－Ｂ,,27,121,5460014,,,,,,,2025-08-28,1,,,,,キタジマ,0
1767,8120005025130,新規,0,2025-08-28,2025-08-28,一般社団法人ＲｏｏＴ,,その他の設立登記法人,大阪府,大阪市福島区,海老江３丁目２０番８号,,27,103,5530001,,,,,,,2025-08-28,1,,,,,ルート,0
1774,8120901051378,新規,0,2025-08-28,2025-08-28,株式会社山田翔点,,株式会社,大阪府,吹田市,春日４丁目１－８,,27,205,5650853,,,,,,,2025-08-28,1,,,,,ヤマダショウテン,0
1775,8120901051394,新規,0,2025-08-28,2025-08-28,株式会社ＧＲＡＣＥＬＩＮＥ,,株式会社,大阪府,吹田市,垂水町１丁目２４番１号,,27,205,5640062,,,,,,,2025-08-28,1,,,,,グレイスライン,0
1780,8122001039576,新規,0,2025-08-28,2025-08-28,株式会社ＴＴＡ,,株式会社,大阪府,東大阪市,鳥居町５番６号,,27,227,5798035,,,,,,,2025-08-28,1,,,,,ティーティーエー,0
1786,8130003010711,新規,0,2025-08-28,2025-08-28,合同会社ＹｕＨｏ,,合同会社,京都府,京田辺市,興戸御垣内９７番地,,26,211,6100332,,,,,,,2025-08-28,1,,,,,ユーホー,0
1787,8130005017440,新規,0,2025-08-28,2025-08-28,一般社団法人みんなの不動産売却安心ネットワーク,,その他の設立登記法人,京都府,京都市中京区,御池通東洞院東入笹屋町４３６番地永和御池ビル６０６号,,26,104,6048187,,,,,,,2025-08-28,1,,,,,ミンナノフドウサンバイキャクアンシンネットワーク,0
1797,8140003022466,新規,0,2025-08-28,2025-08-28,合同会社アグリエムエステック,,合同会社,兵庫県,神崎郡福崎町,南田原１４８４番地１,,28,443,6792203,,,,,,,2025-08-28,1,,,,,アグリエムエステック,0
1799,8150001028357,新規,0,2025-08-28,2025-08-28,楽源株式会社,,株式会社,奈良県,大和郡山市,横田町６８５番１－２Ｆ,,29,203,6391115,,,,,,,2025-08-28,1,,,,,ラクゲン,0
1815,8180001168308,新規,0,2025-08-28,2025-08-28,株式会社ＣＨＥＺ　ＮＯＵＳ,,株式会社,愛知県,名古屋市千種区,振甫町３丁目３７番地の６,,23,101,4640072,,,,,,,2025-08-28,1,,,,,シェーヌー,0
1816,8180001168349,新規,0,2025-08-28,2025-08-28,オーエーテック株式会社,,株式会社,愛知県,名古屋市中村区,松原町４丁目２２番地１,,23,105,4530021,,,,,,,2025-08-28,1,,,,,オーエーテック,0
1825,8180003028930,新規,0,2025-08-28,2025-08-28,ＨＯＡ　ＰＨＡＴ合同会社,,合同会社,愛知県,名古屋市千種区,千代田橋１丁目１番９－６０５号,,23,101,4640011,,,,,,,2025-08-28,1,,,,,ホアパット,0
1830,8180303006693,新規,0,2025-08-28,2025-08-28,８８９合同会社,,合同会社,愛知県,安城市,美園町１丁目７－１,,23,212,4460076,,,,,,,2025-08-28,1,,,,,ハチハチキュウ,0
1835,8200001044175,新規,0,2025-08-28,2025-08-28,株式会社ＡＲＴ＆ＤＲＥＡＭ,,株式会社,岐阜県,羽島市,竹鼻町丸の内４丁目６０番地１,,21,209,5016244,,,,,,,2025-08-28,1,,,,,アートアンドドリーム,0
1837,8200005013795,新規,0,2025-08-28,2025-08-28,特定非営利活動法人オートサポート恵那,,その他の設立登記法人,岐阜県,恵那市,長島町正家１０６７番地２６０,,21,210,5097203,,,,,,,2025-08-28,1,,,,,オートサポートエナ,0
1846,8240002054954,新規,0,2025-08-28,2025-08-28,有限会社森田商店,,有限会社,広島県,豊田郡大崎上島町,明石１９５６番地,,34,431,7250403,,,,,,,2025-08-28,1,,,,,,0
1851,8280003001984,新規,0,2025-08-28,2025-08-28,ＮｅｘｔＴｒｅｅ合同会社,,合同会社,島根県,出雲市,西谷町４４３,,32,203,6930102,,,,,,,2025-08-28,1,,,,,ネクストツリー,0
1866,8340001027612,新規,0,2025-08-28,2025-08-28,株式会社ＧＲＩＤ,,株式会社,鹿児島県,鹿児島市,中町２番２号,,46,201,8920827,,,,,,,2025-08-28,1,,,,,グリッド,0
1878,8420001019238,新規,0,2025-08-28,2025-08-28,ＴＯＨＯＫＵ　ＢＵＳＩＮＥＳＳ株式会社,,株式会社,青森県,つがる市,牛潟町潟上４８番地,,02,209,0383305,,,,,,,2025-08-28,1,,,,,トウホクビジネス,0
1886,8430001095154,新規,0,2025-08-28,2025-08-28,株式会社ＢＡＲＲＥＬ,,株式会社,北海道,札幌市白石区,東米里２５４６番地１０,,01,104,0030876,,,,,,,2025-08-28,1,,,,,バレル,0
1887,8480003002310,新規,0,2025-08-28,2025-08-28,Ｍｏｋｏｅｒｏ　Ｅｎａ　Ｇｒｏｕｐ　Ｊａｐａｎ合同会社,,合同会社,徳島県,名西郡神山町,上分字金泉９１７番地,,36,342,7713422,,,,,,,2025-08-28,1,,,,,モコエロエナグループジャパン,0
1889,8700150132003,新規,0,2025-08-28,2025-08-28,Ｌ．Ｎ．Ｍｏｔｏｒｓ,,外国会社等,三重県,津市,一志町大仰１０９２番地２Ｇ２－２,,24,201,5152524,スリランカ民主社会主義共和国、チロウ、ティンビラ、プッタラムロード、１４／Ａ,,,,,,2025-08-28,1,,,,,エルエヌモータース,0
1892,9010001257976,新規,0,2025-08-28,2025-08-28,株式会社Ｊ‐Ｔｈｉｒｄ,,株式会社,東京都,中央区,日本橋箱崎町２７番地９ヴェラハイツ日本橋箱崎１Ｆ,,13,102,1030015,,,,,,,2025-08-28,1,,,,,ジェイサード,0
1897,9010005040593,新規,0,2025-08-28,2025-08-28,ＲＥＧｓ銀座司法書士法人,,その他の設立登記法人,東京都,中央区,銀座８丁目８番１５号青柳ビル６階,,13,102,1040061,,,,,,,2025-08-28,1,,,,,レッグスギンザ,0
1905,9010401192641,新規,0,2025-08-28,2025-08-28,ａｑａｌｏｏｐ株式会社,,株式会社,東京都,港区,麻布十番２丁目２０番７号,,13,103,1060045,,,,,,,2025-08-28,1,,,,,アクアループ,0
1906,9010401192708,新規,0,2025-08-28,2025-08-28,株式会社真っ向勝負プロジェクト,,株式会社,東京都,港区,虎ノ門１丁目１０番５号ＫＤＸ虎ノ門一丁目ビル１１階,,13,103,1050001,,,,,,,2025-08-28,1,,,,,マッコウショウブプロジェクト,0
1909,9010405024642,新規,0,2025-08-28,2025-08-28,一般社団法人全国相談窓口協会,,その他の設立登記法人,東京都,港区,西麻布３丁目８番２４－１０１号,,13,103,1060031,,,,,,,2025-08-28,1,,,,,ゼンコクソウダンマドグチキョウカイ,0
1916,9011001172182,新規,0,2025-08-28,2025-08-28,株式会社天河,,株式会社,東京都,渋谷区,道玄坂１丁目１５番３号プリメーラ道玄坂６１４号室,,13,113,1500043,,,,,,,2025-08-28,1,,,,,テンカワ,0
1918,9011003022245,新規,0,2025-08-28,2025-08-28,合同会社Ｕ‐Ｓｐｅａｋ　Ｌａｂ,,合同会社,東京都,渋谷区,神南１丁目１１－４,,13,113,1500041,,,,,,,2025-08-28,1,,,,,ユースピークラボ,0
1919,9011003022253,新規,0,2025-08-28,2025-08-28,和波デザイン合同会社,,合同会社,東京都,渋谷区,恵比寿西２丁目８番４号ＥＸ恵比寿西ビル５Ｆ,,13,113,1500021,,,,,,,2025-08-28,1,,,,,ワナミデザイン,0
1928,9011203004803,新規,0,2025-08-28,2025-08-28,合同会社ＵＤＫ,,合同会社,東京都,中野区,若宮３丁目４２番２－１０１号,,13,114,1650033,,,,,,,2025-08-28,1,,,,,ユーディーケー,0
1929,9011303005684,新規,0,2025-08-28,2025-08-28,Ｒｏｙａｌ　Ｉｎｔｅｒｎａｔｉｏｎａｌ合同会社,,合同会社,東京都,杉並区,阿佐谷南１丁目６番３号山田ビル１Ｆ,,13,115,1660004,,,,,,,2025-08-28,1,,,,,ロイヤルインターナショナル,0
1930,9011601028916,新規,0,2025-08-28,2025-08-28,株式会社岡田博之事務所,,株式会社,東京都,練馬区,高松１丁目１１番１号ＶＩＬＬＥＴＴＡ高松１０７号室,,13,120,1790075,,,,,,,2025-08-28,1,,,,,オカダヒロユキジムショ,0
1931,9011701028667,新規,0,2025-08-28,2025-08-28,未來ワークス株式会社,,株式会社,東京都,江戸川区,東葛西９丁目３番１４－７３１号,,13,123,1340084,,,,,,,2025-08-28,1,,,,,ミライワークス,0
1935,9012401043527,新規,0,2025-08-28,2025-08-28,株式会社インモビリ,,株式会社,東京都,武蔵野市,吉祥寺本町１丁目３７番５号山蝶ビル,,13,203,1800004,,,,,,,2025-08-28,1,,,,,インモビリ,0
1939,9013303007842,新規,0,2025-08-28,2025-08-28,合同会社サニーボールド,,合同会社,東京都,豊島区,上池袋４丁目３１番２８－１０５号,,13,116,1700012,,,,,,,2025-08-28,1,,,,,サニーボールド,0
1943,9020001164461,新規,0,2025-08-28,2025-08-28,株式会社Ｌａｕｇｈｐｌｕｓ,,株式会社,神奈川県,横浜市西区,北幸１丁目１１番１号水信ビル７階,,14,103,2200004,,,,,,,2025-08-28,1,,,,,ラフプラス,0
1944,9020001164486,新規,0,2025-08-28,2025-08-28,ＲＥＺＯＮ株式会社,,株式会社,神奈川県,川崎市川崎区,駅前本町１１番地２川崎フロンティアビル４階,,14,131,2100007,,,,,,,2025-08-28,1,,,,,レゾン,0
1947,9020003029217,新規,0,2025-08-28,2025-08-28,合同会社マルコム,,合同会社,神奈川県,横浜市西区,浅間町１丁目４番３号ウィザードビル４０２,,14,103,2200072,,,,,,,2025-08-28,1,,,,,マルコム,0
1948,9020003029225,新規,0,2025-08-28,2025-08-28,合同会社ＴＭ,,合同会社,神奈川県,横浜市磯子区,上中里町８５４－１－３０２,,14,107,2350042,,,,,,,2025-08-28,1,,,,,ティーエム,0
1951,9021001086175,新規,0,2025-08-28,2025-08-28,株式会社Ｃｏｅｔｏｍｏ,,株式会社,神奈川県,藤沢市,南藤沢７－２沢滝ビル２Ｆ（ｔｈｅＫＡＩＤＡＮｆｕｊｉｓａｗａ内）,,14,205,2510055,,,,,,,2025-08-28,1,,,,,コエトモ,0
1984,9110001039522,新規,0,2025-08-28,2025-08-28,株式会社ＬＩＮＫＳ,,株式会社,新潟県,新潟市中央区,寄居町６９７番地１マンション北陸２０８号室,,15,103,9518113,,,,,,,2025-08-28,1,,,,,リンクス,0
1993,9120001278929,新規,0,2025-08-28,2025-08-28,カイラルオーブ株式会社,,株式会社,大阪府,大阪市西成区,潮路１丁目６番２７号グランドルチェ６０３号,,27,122,5570052,,,,,,,2025-08-28,1,,,,,カイラルオーブ,0
1994,9120001279043,新規,0,2025-08-28,2025-08-28,株式会社ＢＴＴ,,株式会社,大阪府,大阪市北区,梅田１丁目２－２梅田駅前第２ビル１２－１２,,27,127,5300001,,,,,,,2025-08-28,1,,,,,ビーティーティー,0
1995,9120001279142,新規,0,2025-08-28,2025-08-28,環亜株式会社,,株式会社,大阪府,大阪市阿倍野区,丸山通１丁目５番２号－５０３号,,27,119,5450042,,,,,,,2025-08-28,1,,,,,カンア,0
1996,9120001279150,新規,0,2025-08-28,2025-08-28,嵐風商事株式会社,,株式会社,大阪府,大阪市東住吉区,住道矢田５丁目２番２３号,,27,121,5460022,,,,,,,2025-08-28,1,,,,,ランフウショウジ,0
1997,9120001279159,新規,0,2025-08-28,2025-08-28,株式会社コウヨウ,,株式会社,大阪府,大阪市平野区,加美北６丁目７番３号１０５,,27,126,5470001,,,,,,,2025-08-28,1,,,,,コウヨウ,0
2001,9120103006659,新規,0,2025-08-28,2025-08-28,合同会社Ｓｏｕｒｉｒｅ,,合同会社,大阪府,羽曳野市,羽曳が丘９丁目２５番１１号,,27,222,5830864,,,,,,,2025-08-28,1,,,,,スリール,0
2005,9120901051360,新規,0,2025-08-28,2025-08-28,ＡＫホールディングス株式会社,,株式会社,大阪府,箕面市,船場東２丁目６番１号,,27,220,5620035,,,,,,,2025-08-28,1,,,,,エイケイホールディングス,0
2006,9120901051393,新規,0,2025-08-28,2025-08-28,株式会社Ｂｃｏｒｐｏｒａｔｉｏｎ,,株式会社,大阪府,吹田市,千里山高塚１番３０号,,27,205,5650848,,,,,,,2025-08-28,1,,,,,ビーコーポレーション,0
2017,9130001080359,新規,0,2025-08-28,2025-08-28,彩斗商事株式会社,,株式会社,京都府,木津川市,相楽川ノ尻１５番地３,,26,214,6190222,,,,,,,2025-08-28,1,,,,,アヤトショウジ,0
2018,9130003010685,新規,0,2025-08-28,2025-08-28,ＥＩＳＥＮＨＯＷＥＲ合同会社,,合同会社,京都府,京丹後市,丹後町平６７９番地,,26,212,6270233,,,,,,,2025-08-28,1,,,,,アイゼンハワー,0
2019,9130003010743,新規,0,2025-08-28,2025-08-28,合同会社Ｌｉｔｚ　Ｅｎｔｅｒｐｒｉｓｅ,,合同会社,京都府,京都市中京区,石屋町１１７番地木村ビル３Ｆ,,26,104,6048002,,,,,,,2025-08-28,1,,,,,リッツエンタープライズ,0
2023,9140003022424,新規,0,2025-08-28,2025-08-28,合同会社グラングラス,,合同会社,兵庫県,神戸市中央区,脇浜海岸通３丁目１番地２－１４０７号,,28,110,6510073,,,,,,,2025-08-28,1,,,,,グラングラス,0
2024,9150005009716,新規,0,2025-08-28,2025-08-28,一般社団法人みちをつくる,,その他の設立登記法人,奈良県,生駒市,壱分町７６３－３,,29,209,6300222,,,,,,,2025-08-28,1,,,,,ミチヲツクル,0
2033,9180001168208,新規,0,2025-08-28,2025-08-28,株式会社ヴェーミア,,株式会社,愛知県,名古屋市昭和区,川名山町６番地の６プラウド川名山ガーデン４１２号,,23,107,4660827,,,,,,,2025-08-28,1,,,,,ヴェーミア,0
2034,9180001168323,新規,0,2025-08-28,2025-08-28,株式会社ミュゲ,,株式会社,愛知県,大府市,大東町３丁目１３５番地,,23,223,4740023,,,,,,,2025-08-28,1,,,,,ミュゲ,0
2035,9180001168348,新規,0,2025-08-28,2025-08-28,株式会社３４Ｍｏｔｏｒｓ,,株式会社,愛知県,稲沢市,祖父江町四貫東堤外１１５８番地２,,23,220,4950033,,,,,,,2025-08-28,1,,,,,サンヨンモータース,0
2058,9200005013794,新規,0,2025-08-28,2025-08-28,一般社団法人縁がわ,,その他の設立登記法人,岐阜県,中津川市,駒場１５０６番地の２３６,,21,206,5080011,,,,,,,2025-08-28,1,,,,,エンガワ,0
2061,9240001065415,新規,0,2025-08-28,2025-08-28,株式会社Ｌａ　ｍｕｓｅ,,株式会社,広島県,広島市東区,二葉の里３丁目５－７ＧＲＡＮＯＤＥ広島３Ｆ,,34,102,7320057,,,,,,,2025-08-28,1,,,,,ラミューズ,0
2063,9240002054953,新規,0,2025-08-28,2025-08-28,石氷工業有限会社,,有限会社,広島県,福山市,明王台１丁目１２２番地,,34,207,7200834,,,,,,,2025-08-28,1,,,,,イシゴオリコウギョウ,0
2083,9370003007261,新規,0,2025-08-28,2025-08-28,アジア人材合同会社,,合同会社,宮城県,仙台市泉区,天神沢１丁目９－６０セントヒルズ仙台Ａ２０３,,04,105,9813105,,,,,,,2025-08-28,1,,,,,アジアジンザイ,0
2093,9430001095104,新規,0,2025-08-28,2025-08-28,株式会社Ｒ’ｓオペレーター,,株式会社,北海道,江別市,あさひが丘２０番地の５,,01,217,0690826,,,,,,,2025-08-28,1,,,,,アールズオペレーター,0
2098,9700150132002,新規,0,2025-08-28,2025-08-28,ＡＬＵＭＩＮＡＴＥ　ＰＶＴ　ＬＴＤ,,外国会社等,三重県,津市,一志町大仰１０９２番地２Ｇ２－１,,24,201,5152524,スリランカ民主社会主義共和国、コロンボ－１２、スリ、スマナティッサ、マワタＮｏ．３２／４０,00138823,,,,,2025-08-28,1,,,,,アルミネイトピーブイテイーエルテイーデイー,0
