sequenceNumber,corporateNumber,process,correct,updateDate,changeDate,name,nameImageId,kind,prefectureName,cityName,streetNumber,addressImageId,prefectureCode,cityCode,postCode,addressOutside,addressOutsideImageId,closeDate,closeCause,successorCorporateNumber,changeCause,assignmentDate,latest,enName,enPrefectureName,enCityName,enAddressOutside,furigana,hihyoji
2,1010001013115,登記記録の閉鎖等,0,2026-01-19,2025-12-22,音羽印刷株式会社,,株式会社,東京都,千代田区,内神田２丁目１４番１２号,,13,101,1010047,,,2025-12-22,清算の結了等,,,2015-10-05,1,,,,,,0
26,1010102000400,登記記録の閉鎖等,0,2026-01-19,2026-01-16,有限会社アネックス,,有限会社,東京都,八王子市,明神町４丁目７番２号内藤落合ビル地下１階,,13,201,1920046,,,2026-01-16,清算の結了等,,,2015-10-05,1,,,,,,0
37,1010403033479,登記記録の閉鎖等,0,2026-01-19,2025-12-22,ｔｅｎｓｉｏ合同会社,,合同会社,東京都,港区,西麻布４丁目１５番地２－１３０２,,13,103,1060031,,,2025-12-22,清算の結了等,,,2024-09-26,1,,,,,テンシオ,0
48,1010702014774,登記記録の閉鎖等,0,2026-01-19,2026-01-06,有限会社ロットコミュニケーション,,有限会社,東京都,大田区,久が原６丁目７番５号,,13,111,1460085,,,2026-01-06,清算の結了等,,,2015-10-05,1,,,,,ロットコミュニケーション,0
67,1011101104266,登記記録の閉鎖等,0,2026-01-19,2025-12-17,華通株式会社,,株式会社,東京都,新宿区,榎町３４－３榎町ビル７階－３２室,,13,104,1620806,,,2025-12-17,清算の結了等,,,2023-09-07,1,,,,,カツウ,0
68,1011102008326,登記記録の閉鎖等,0,2026-01-19,2026-01-05,有限会社塚本商店,,有限会社,埼玉県,川口市,青木１丁目８番３４号,,11,203,3320031,,,2026-01-05,合併による解散等,3030001077965,令和８年１月１日埼玉県川口市青木一丁目８番３４号株式会社東海精技（3030001077965）に合併し解散,2015-10-05,1,,,,,ツカモトショウテン,0
69,1011103006411,登記記録の閉鎖等,0,2026-01-19,2025-12-22,合同会社サーフライダー,,合同会社,東京都,中央区,晴海２丁目２番４２号,,13,102,1040053,,,2025-12-22,清算の結了等,,,2016-07-22,1,,,,,サーフライダー,0
77,1011503005104,登記記録の閉鎖等,0,2026-01-19,2026-01-16,合同会社ペタクリエイト,,合同会社,東京都,八王子市,西寺方町１０６０番地アネックスタウン２０３号室,,13,201,1920153,,,2026-01-16,清算の結了等,,,2022-03-11,1,,,,,ペタクリエイト,0
81,1011701012455,登記記録の閉鎖等,0,2026-01-19,2026-01-09,滔天工業株式会社,,株式会社,東京都,江戸川区,南葛西３丁目８番１８－１０２号,,13,123,1340085,,,2026-01-09,清算の結了等,,,2015-10-05,1,,,,,トウテンコウギョウ,0
83,1011702011274,登記記録の閉鎖等,0,2026-01-19,2026-01-09,有限会社美奈川不動産,,有限会社,東京都,江戸川区,南小岩８丁目１９番３号,,13,123,1330056,,,2026-01-09,清算の結了等,,,2015-10-05,1,,,,,,0
90,1012702014168,登記記録の閉鎖等,0,2026-01-19,2026-01-07,有限会社栄和空調設備,,有限会社,東京都,清瀬市,下清戸４丁目４１６番地１１,,13,221,2040011,,,2026-01-07,清算の結了等,,,2015-10-05,1,,,,,エイワクウチョウセツビ,0
92,1013301054233,登記記録の閉鎖等,0,2026-01-19,2026-01-07,ＡＳＭＡ　ＪＡＰＡＮ株式会社,,株式会社,東京都,豊島区,巣鴨１丁目９番１号グランド東邦ビル,,13,116,1700002,,,2026-01-07,清算の結了等,,,2025-05-13,1,,,,,アスマジャパン,0
102,1021001016354,登記記録の閉鎖等,0,2026-01-19,2025-12-19,ニッコー精機株式会社,,株式会社,神奈川県,相模原市緑区,根小屋１７４２番地１,,14,151,2520153,,,2025-12-19,清算の結了等,,,2015-10-05,1,,,,,ニッコーセイキ,0
105,1021002072231,登記記録の閉鎖等,0,2026-01-19,2025-12-17,有限会社品濃建設工業,,有限会社,神奈川県,横須賀市,小川町２５番地３,,14,201,2380004,,,2025-12-17,清算の結了等,,,2015-10-05,1,,,,,シナノケンセツコウギョウ,0
134,1070005005895,登記記録の閉鎖等,0,2026-01-19,2026-01-14,太田たばこ販売協同組合,,その他の設立登記法人,群馬県,太田市,小舞木町５４８番地,,10,205,3730818,,,2026-01-14,清算の結了等,,,2015-10-05,1,,,,,オオタタバコハンバイ,0
137,1080002013891,登記記録の閉鎖等,0,2026-01-19,2026-01-09,有限会社深井冷凍,,有限会社,静岡県,島田市,野田１０１番地,,22,209,4270007,,,2026-01-09,清算の結了等,,,2015-10-05,1,,,,,フカイレイトウ,0
138,1080002016804,登記記録の閉鎖等,0,2026-01-19,2026-01-09,有限会社増井製作所,,有限会社,静岡県,焼津市,田尻３３９番地,,22,212,4250052,,,2026-01-09,清算の結了等,,,2015-10-05,1,,,,,マスイセイサクショ,0
141,1090001001698,登記記録の閉鎖等,0,2026-01-19,2026-01-05,ネッツトヨタ山梨株式会社,,株式会社,山梨県,甲府市,国母５丁目６番１７号,,19,201,4000043,,,2026-01-05,合併による解散等,9090001002292,令和８年１月１日山梨県甲府市宝一丁目２１番２９号山梨トヨタ自動車株式会社（9090001002292）に合併し解散,2015-10-05,1,,,,,ネッツトヨタヤマナシ,0
154,1120001143017,登記記録の閉鎖等,0,2026-01-19,2026-01-09,株式会社大照,,株式会社,大阪府,大阪市阿倍野区,阪南町７丁目５番１６号,,27,119,5450021,,,2026-01-09,清算の結了等,,,2015-10-05,1,,,,,,0
156,1120001270513,登記記録の閉鎖等,0,2026-01-19,2026-01-09,天栄株式会社,,株式会社,大阪府,大阪市西成区,天神ノ森１丁目４番２－２０２号,,27,122,5570013,,,2026-01-09,清算の結了等,,,2024-11-28,1,,,,,テンエイ,0
180,1130002011659,登記記録の閉鎖等,0,2026-01-19,2026-01-14,有限会社優雅,,有限会社,京都府,京都市南区,吉祥院高畑町９７番地の１,,26,107,6018332,,,2026-01-14,清算の結了等,,,2015-10-05,1,,,,,ユウガ,0
187,1130005010641,登記記録の閉鎖等,0,2026-01-19,2026-01-07,金綾教会,,その他の設立登記法人,京都府,綾部市,井倉町舘１０番地,,26,203,6230054,,,2026-01-07,清算の結了等,,,2015-10-05,1,,,,,キンリョウキョウカイ,0
191,1140001018720,登記記録の閉鎖等,0,2026-01-19,2026-01-05,ハリマ建設株式会社,,株式会社,兵庫県,神戸市垂水区,五色山８丁目１番５５－１０１号,,28,108,6550035,,,2026-01-05,清算の結了等,,,2015-10-05,1,,,,,ハリマケンセツ,0
204,1140002036325,登記記録の閉鎖等,0,2026-01-19,2026-01-08,有限会社日本医学検査情報サービス,,有限会社,兵庫県,加古川市,加古川町溝之口９７番地の７,,28,210,6750064,,,2026-01-08,清算の結了等,,,2015-10-05,1,,,,,ニホンイガクケンサジョウホウサービス,0
221,1180003013658,登記記録の閉鎖等,0,2026-01-19,2026-01-14,合同会社桃太郎,,合同会社,愛知県,弥富市,鯏浦町東気開７番地の２,,23,235,4980021,,,2026-01-14,清算の結了等,,,2015-10-05,1,,,,,モモタロウ,0
231,1200001033837,登記記録の閉鎖等,0,2026-01-19,2026-01-13,ミヤビエンジニアリング株式会社,,株式会社,岐阜県,岐阜市,薮田中２丁目１１番８号,,21,201,5008387,,,2026-01-13,清算の結了等,,,2017-03-10,1,,,,,ミヤビエンジニアリング,0
233,1200001040404,登記記録の閉鎖等,0,2026-01-19,2026-01-08,株式会社Ｒｏｃｋ＆Ｒｉｖｅｒ’ｓ,,株式会社,岐阜県,羽島市,江吉良町江中５丁目３７番地,,21,209,5016238,,,2026-01-08,清算の結了等,,,2022-09-02,1,,,,,ロックアンドリバーズ,0
239,1230003002127,登記記録の閉鎖等,0,2026-01-19,2026-01-15,合同会社Ｇｒｅｎｚｅ,,合同会社,富山県,高岡市,羽広１３４番地８,,16,202,9330844,,,2026-01-15,清算の結了等,,,2024-01-09,1,,,,,グレンツェ,0
259,1290002039973,登記記録の閉鎖等,0,2026-01-19,2026-01-07,有限会社ビット,,有限会社,福岡県,大野城市,東大利３丁目１１番５号,,40,219,8160941,,,2026-01-07,清算の結了等,,,2015-10-05,1,,,,,ビット,0
267,1300005004601,登記記録の閉鎖等,0,2026-01-19,2026-01-14,壽延教会,,その他の設立登記法人,佐賀県,鳥栖市,大字牛原１０５５番地の８,,41,203,8410000,,,2026-01-14,清算の結了等,,,2015-10-05,1,,,,,ジュエンキョウカイ,0
273,1340002012033,登記記録の閉鎖等,0,2026-01-19,2026-01-09,有限会社夢創舎,,有限会社,鹿児島県,鹿児島市,和田３丁目２８番１号,,46,201,8910143,,,2026-01-09,清算の結了等,,,2015-10-05,1,,,,,,0
292,1420001006614,登記記録の閉鎖等,0,2026-01-19,2026-01-14,株式会社マルタケ物流,,株式会社,青森県,八戸市,豊洲３番２０,,02,203,0391162,,,2026-01-14,清算の結了等,,,2015-10-05,1,,,,,マルタケブツリュウ,0
293,1420002015085,登記記録の閉鎖等,0,2026-01-19,2026-01-06,有限会社ちゅう保険サービス,,有限会社,青森県,弘前市,大字黒滝字二ノ川瀬１番地１２,,02,202,0361502,,,2026-01-06,清算の結了等,,,2015-10-05,1,,,,,チュウホケンサービス,0
302,1470005004238,登記記録の閉鎖等,0,2026-01-19,2026-01-13,石槌教香川教会,00005742,その他の設立登記法人,香川県,三豊市,詫間町大浜甲１０５９番地,,37,208,7691104,,,2026-01-13,清算の結了等,,,2015-10-05,1,,,,,イシヅチキョウカガワキョウカイ,0
303,1480001000280,登記記録の閉鎖等,0,2026-01-19,2026-01-16,栄光建設株式会社,,株式会社,徳島県,徳島市,末広５丁目１番１１号,,36,201,7700866,,,2026-01-16,登記官による閉鎖,,,2015-10-05,1,,,,,,0
304,1480001000289,登記記録の閉鎖等,0,2026-01-19,2026-01-16,エイリン火工株式会社,,株式会社,徳島県,徳島市,富田橋１丁目８２番地,,36,201,7700937,,,2026-01-16,登記官による閉鎖,,,2015-10-05,1,,,,,,0
305,1480001000751,登記記録の閉鎖等,0,2026-01-19,2026-01-16,三紅エンジニアリング株式会社,,株式会社,徳島県,徳島市,津田海岸町８番２７号,,36,201,7708001,,,2026-01-16,登記官による閉鎖,,,2015-10-05,1,,,,,,0
306,1480001001106,登記記録の閉鎖等,0,2026-01-19,2026-01-16,株式会社ラスタ,,株式会社,徳島県,徳島市,元町１丁目１０番地,,36,201,7700834,,,2026-01-16,登記官による閉鎖,,,2015-10-05,1,,,,,,0
307,1480001001130,登記記録の閉鎖等,0,2026-01-19,2026-01-16,株式会社ジャストワン,,株式会社,徳島県,徳島市,津田海岸町６番１５号,,36,201,7708001,,,2026-01-16,登記官による閉鎖,,,2015-10-05,1,,,,,,0
308,1480001001171,登記記録の閉鎖等,0,2026-01-19,2026-01-16,株式会社ジャパン綜合建設,,株式会社,徳島県,徳島市,安宅３丁目５番２５号,,36,201,7700863,,,2026-01-16,登記官による閉鎖,,,2015-10-05,1,,,,,,0
309,1480001001262,登記記録の閉鎖等,0,2026-01-19,2026-01-16,セントー商事株式会社,,株式会社,徳島県,徳島市,佐古一番町５番１６号,,36,201,7700021,,,2026-01-16,登記官による閉鎖,,,2015-10-05,1,,,,,,0
310,1480001001584,登記記録の閉鎖等,0,2026-01-19,2026-01-16,株式会社中津酒店,,株式会社,徳島県,徳島市,新浜本町２丁目１番２９号,,36,201,7708007,,,2026-01-16,登記官による閉鎖,,,2015-10-05,1,,,,,,0
311,1480001001980,登記記録の閉鎖等,0,2026-01-19,2026-01-16,株式会社フアー・クチュールモリ,,株式会社,徳島県,徳島市,中通町３丁目１７番地,,36,201,7700844,,,2026-01-16,登記官による閉鎖,,,2015-10-05,1,,,,,,0
312,1480001002161,登記記録の閉鎖等,0,2026-01-19,2026-01-16,ランジェリーヨーコ株式会社,,株式会社,徳島県,徳島市,東新町２丁目２５番地の１,,36,201,7700912,,,2026-01-16,登記官による閉鎖,,,2015-10-05,1,,,,,,0
313,1480001002178,登記記録の閉鎖等,0,2026-01-19,2026-01-16,株式会社リノベ,,株式会社,徳島県,徳島市,南沖洲１丁目７番１９号,,36,201,7700874,,,2026-01-16,登記官による閉鎖,,,2015-10-05,1,,,,,,0
314,1480001002194,登記記録の閉鎖等,0,2026-01-19,2026-01-16,株式会社ルートシステムサービス四国,,株式会社,徳島県,徳島市,昭和町６丁目３５番地１,,36,201,7700942,,,2026-01-16,登記官による閉鎖,,,2015-10-05,1,,,,,,0
315,1480001002269,登記記録の閉鎖等,0,2026-01-19,2026-01-16,株式会社松田三郎商店,,株式会社,徳島県,徳島市,津田海岸町６番１５号,,36,201,7708001,,,2026-01-16,登記官による閉鎖,,,2015-10-05,1,,,,,,0
316,1480001002483,登記記録の閉鎖等,0,2026-01-19,2026-01-16,宮井建設株式会社,,株式会社,徳島県,徳島市,大谷町野見松２０番地２,,36,201,7708031,,,2026-01-16,登記官による閉鎖,,,2015-10-05,1,,,,,,0
317,1480001002624,登記記録の閉鎖等,0,2026-01-19,2026-01-16,高山建設株式会社,,株式会社,徳島県,名西郡神山町,神領字谷３６７番地,,36,342,7713311,,,2026-01-16,登記官による閉鎖,,,2015-10-05,1,,,,,,0
318,1480001003201,登記記録の閉鎖等,0,2026-01-19,2026-01-16,株式会社アザレ総合美粧研究所,,株式会社,徳島県,徳島市,名東町３丁目３番地４,,36,201,7700047,,,2026-01-16,登記官による閉鎖,,,2015-10-05,1,,,,,,0
319,1480001003382,登記記録の閉鎖等,0,2026-01-19,2026-01-16,勝那建設株式会社,,株式会社,徳島県,勝浦郡勝浦町,大字中角字つく田３９番地の４,,36,301,7714302,,,2026-01-16,登記官による閉鎖,,,2015-10-05,1,,,,,,0
320,1480001003498,登記記録の閉鎖等,0,2026-01-19,2026-01-16,株式会社ホクシン,,株式会社,徳島県,小松島市,立江町字小田ノ浦１５番地１,,36,203,7730017,,,2026-01-16,登記官による閉鎖,,,2015-10-05,1,,,,,,0
321,1480001004595,登記記録の閉鎖等,0,2026-01-19,2026-01-16,株式会社安原家具販売,,株式会社,徳島県,阿波市,吉野町柿原字シノ原７８番地,,36,206,7711401,,,2026-01-16,登記官による閉鎖,,,2015-10-05,1,,,,,,0
322,1480001005321,登記記録の閉鎖等,0,2026-01-19,2026-01-16,徳南急送株式会社,,株式会社,徳島県,板野郡北島町,江尻字妙蛇池４９番地の１０,,36,402,7710205,,,2026-01-16,登記官による閉鎖,,,2015-10-05,1,,,,,,0
323,1480001005619,登記記録の閉鎖等,0,2026-01-19,2026-01-16,株式会社アクア,,株式会社,徳島県,板野郡上板町,鍛冶屋原字北原４２番地の１７,,36,405,7711301,,,2026-01-16,登記官による閉鎖,,,2015-10-05,1,,,,,,0
324,1480001006336,登記記録の閉鎖等,0,2026-01-19,2026-01-16,なのはなサービス株式会社,,株式会社,徳島県,徳島市,応神町古川字高良１５５番地１２,,36,201,7711151,,,2026-01-16,登記官による閉鎖,,,2015-10-05,1,,,,,,0
325,1480001006575,登記記録の閉鎖等,0,2026-01-19,2026-01-16,阿波開発株式会社,,株式会社,徳島県,阿南市,福井町内歩１２０番地の１,,36,204,7791620,,,2026-01-16,登記官による閉鎖,,,2015-10-05,1,,,,,,0
326,1480001006708,登記記録の閉鎖等,0,2026-01-19,2026-01-16,四国石油輸送株式会社,,株式会社,徳島県,阿南市,那賀川町手島はり１１番地２,,36,204,7791123,,,2026-01-16,登記官による閉鎖,,,2015-10-05,1,,,,,,0
327,1480001006716,登記記録の閉鎖等,0,2026-01-19,2026-01-16,成都株式会社,,株式会社,徳島県,阿南市,内原町中分７４番地,,36,204,7791401,,,2026-01-16,登記官による閉鎖,,,2015-10-05,1,,,,,,0
328,1480001006732,登記記録の閉鎖等,0,2026-01-19,2026-01-16,武智海運株式会社,,株式会社,徳島県,阿南市,那賀川町中島１４６番地の１,,36,204,7791245,,,2026-01-16,登記官による閉鎖,,,2015-10-05,1,,,,,,0
329,1480001006939,登記記録の閉鎖等,0,2026-01-19,2026-01-16,株式会社海南マティック,,株式会社,徳島県,海部郡海陽町,四方原字町西１１４番地１,,36,388,7750202,,,2026-01-16,登記官による閉鎖,,,2015-10-05,1,,,,,,0
330,1480001007342,登記記録の閉鎖等,0,2026-01-19,2026-01-16,多田工業株式会社,,株式会社,徳島県,美馬市,美馬町字ナロヲ５番地１,,36,207,7712103,,,2026-01-16,登記官による閉鎖,,,2015-10-05,1,,,,,,0
331,1480001007383,登記記録の閉鎖等,0,2026-01-19,2026-01-16,株式会社深来組,,株式会社,徳島県,美馬市,美馬町字滝宮５５番地,,36,207,7793600,,,2026-01-16,登記官による閉鎖,,,2015-10-05,1,,,,,,0
332,1480001007409,登記記録の閉鎖等,0,2026-01-19,2026-01-16,メリモ・インターナショナル株式会社,,株式会社,徳島県,美馬市,脇町大字猪尻字西上野２４８番地,,36,207,7793603,,,2026-01-16,登記官による閉鎖,,,2015-10-05,1,,,,,,0
333,1480001007623,登記記録の閉鎖等,0,2026-01-19,2026-01-16,株式会社佐古,,株式会社,徳島県,三好市,池田町シンヤマ３８５８番地,,36,208,7780013,,,2026-01-16,登記官による閉鎖,,,2015-10-05,1,,,,,,0
334,1480001010271,登記記録の閉鎖等,0,2026-01-19,2026-01-16,中島木材工業株式会社,,株式会社,徳島県,徳島市,西新浜町１丁目１番１号,,36,201,7708008,,,2026-01-16,登記官による閉鎖,,,2018-03-27,1,,,,,,0
335,1480002002763,登記記録の閉鎖等,0,2026-01-19,2026-01-16,有限会社タケウチパール,,有限会社,徳島県,徳島市,東大工町２丁目６番地の２,,36,201,7700905,,,2026-01-16,登記官による閉鎖,,,2015-10-05,1,,,,,,0
336,1480002008802,登記記録の閉鎖等,0,2026-01-19,2026-01-16,有限会社ｄａｌｉ,,有限会社,徳島県,徳島市,大和町２丁目２番１２号,,36,201,7700864,,,2026-01-16,登記官による閉鎖,,,2015-10-05,1,,,,,,0
338,1480002014560,登記記録の閉鎖等,0,2026-01-19,2026-01-16,有限会社イシイ,,有限会社,徳島県,美馬市,美馬町字玉振前２３番地,,36,207,7712104,,,2026-01-16,登記官による閉鎖,,,2015-10-05,1,,,,,,0
341,1480005005879,登記記録の閉鎖等,0,2026-01-19,2026-01-16,とくしまバーガー協同組合,,その他の設立登記法人,徳島県,徳島市,東船場町１丁目６番地,,36,201,7700911,,,2026-01-16,登記官による閉鎖,,,2015-10-05,1,,,,,,0
343,1500001000220,登記記録の閉鎖等,0,2026-01-19,2026-01-16,愛果物産株式会社,,株式会社,愛媛県,松山市,古三津３丁目６番３０号,,38,201,7918067,,,2026-01-16,登記官による閉鎖,,,2015-10-05,1,,,,,,0
344,1500001000369,登記記録の閉鎖等,0,2026-01-19,2026-01-16,アシュアランスコーポレーション株式会社,,株式会社,愛媛県,松山市,祝谷東町乙８１２番地１１,,38,201,7900835,,,2026-01-16,登記官による閉鎖,,,2015-10-05,1,,,,,,0
345,1500001000542,登記記録の閉鎖等,0,2026-01-19,2026-01-16,株式会社いすず貿易,,株式会社,愛媛県,松山市,大街道１丁目４番地,,38,201,7900004,,,2026-01-16,登記官による閉鎖,,,2015-10-05,1,,,,,,0
346,1500001000583,登記記録の閉鎖等,0,2026-01-19,2026-01-16,出海実業株式会社,,株式会社,愛媛県,松山市,白水台３丁目７番地４,,38,201,7910113,,,2026-01-16,登記官による閉鎖,,,2015-10-05,1,,,,,,0
347,1500001000757,登記記録の閉鎖等,0,2026-01-19,2026-01-16,愛媛砂糖商事株式会社,00007271,株式会社,愛媛県,松山市,藤原１丁目４番３４号,,38,201,7900035,,,2026-01-16,登記官による閉鎖,,,2015-10-05,1,,,,,,0
348,1500001000889,登記記録の閉鎖等,0,2026-01-19,2026-01-16,株式会社エイコウ寝具,,株式会社,愛媛県,松山市,市坪北１丁目１２番２７号,,38,201,7900946,,,2026-01-16,登記官による閉鎖,,,2015-10-05,1,,,,,,0
349,1500001001391,登記記録の閉鎖等,0,2026-01-19,2026-01-16,株式会社協進開発,,株式会社,愛媛県,松山市,上野町甲３５２番地２,,38,201,7911136,,,2026-01-16,登記官による閉鎖,,,2015-10-05,1,,,,,,0
350,1500001001409,登記記録の閉鎖等,0,2026-01-19,2026-01-16,株式会社協和設計,,株式会社,愛媛県,松山市,畑寺１丁目１０番２４号,,38,201,7900913,,,2026-01-16,登記官による閉鎖,,,2015-10-05,1,,,,,,0
351,1500001001524,登記記録の閉鎖等,0,2026-01-19,2026-01-16,株式会社ケイズベアー,,株式会社,愛媛県,松山市,古川西３丁目１７番１６号,,38,201,7900944,,,2026-01-16,登記官による閉鎖,,,2015-10-05,1,,,,,,0
352,1500001001565,登記記録の閉鎖等,0,2026-01-19,2026-01-16,興国不動産株式会社,,株式会社,愛媛県,松山市,湊町４丁目３番地２５,,38,201,7900012,,,2026-01-16,登記官による閉鎖,,,2015-10-05,1,,,,,,0
353,1500001001870,登記記録の閉鎖等,0,2026-01-19,2026-01-16,三和電設株式会社,,株式会社,愛媛県,松山市,堀江町甲３９５番地８,,38,201,7992651,,,2026-01-16,登記官による閉鎖,,,2015-10-05,1,,,,,,0
354,1500001001920,登記記録の閉鎖等,0,2026-01-19,2026-01-16,株式会社四国製機工業,,株式会社,愛媛県,松山市,南吉田町２２７９番地１,,38,201,7918042,,,2026-01-16,登記官による閉鎖,,,2015-10-05,1,,,,,,0
355,1500001002340,登記記録の閉鎖等,0,2026-01-19,2026-01-16,成陵建設株式会社,,株式会社,愛媛県,松山市,古川北３丁目１８番１４号,,38,201,7900942,,,2026-01-16,登記官による閉鎖,,,2015-10-05,1,,,,,,0
356,1500001002349,登記記録の閉鎖等,0,2026-01-19,2026-01-16,セキヤ石油株式会社,,株式会社,愛媛県,松山市,南斎院町９４５番地,,38,201,7918032,,,2026-01-16,登記官による閉鎖,,,2015-10-05,1,,,,,,0
357,1500001002398,登記記録の閉鎖等,0,2026-01-19,2026-01-16,株式会社仙波ファミリー,,株式会社,愛媛県,松山市,小栗６丁目１番３１号,,38,201,7900036,,,2026-01-16,登記官による閉鎖,,,2015-10-05,1,,,,,,0
358,1500001002646,登記記録の閉鎖等,0,2026-01-19,2026-01-16,株式会社辰巳,,株式会社,愛媛県,松山市,本町３丁目２番地１１,,38,201,7900811,,,2026-01-16,登記官による閉鎖,,,2015-10-05,1,,,,,,0
359,1500001002828,登記記録の閉鎖等,0,2026-01-19,2026-01-16,統合不動産株式会社,,株式会社,愛媛県,松山市,勝山町１丁目７番地１３,,38,201,7900878,,,2026-01-16,登記官による閉鎖,,,2015-10-05,1,,,,,,0
360,1500001002927,登記記録の閉鎖等,0,2026-01-19,2026-01-16,株式会社トモ建興,,株式会社,愛媛県,松山市,久万ノ台１０１０番地,,38,201,7918016,,,2026-01-16,登記官による閉鎖,,,2015-10-05,1,,,,,,0
361,1500001003000,登記記録の閉鎖等,0,2026-01-19,2026-01-16,中城醸造株式会社,,株式会社,愛媛県,松山市,古川北４丁目９番２３号,,38,201,7900942,,,2026-01-16,登記官による閉鎖,,,2015-10-05,1,,,,,,0
362,1500001003017,登記記録の閉鎖等,0,2026-01-19,2026-01-16,株式会社中廣工務店,,株式会社,愛媛県,松山市,鷹子町６８９番地４,,38,201,7900925,,,2026-01-16,登記官による閉鎖,,,2015-10-05,1,,,,,,0
363,1500001003256,登記記録の閉鎖等,0,2026-01-19,2026-01-16,株式会社野口鉄工,,株式会社,愛媛県,松山市,浄瑠璃町１００２番地,,38,201,7911133,,,2026-01-16,登記官による閉鎖,,,2015-10-05,1,,,,,,0
364,1500001003280,登記記録の閉鎖等,0,2026-01-19,2026-01-16,株式会社ハウジング企画,,株式会社,愛媛県,松山市,御幸２丁目１番１３号,,38,201,7900824,,,2026-01-16,登記官による閉鎖,,,2015-10-05,1,,,,,,0
365,1500001003371,登記記録の閉鎖等,0,2026-01-19,2026-01-16,株式会社原田メデイカルサービス,,株式会社,愛媛県,松山市,土居町１１２５番地４,,38,201,7911115,,,2026-01-16,登記官による閉鎖,,,2015-10-05,1,,,,,,0
366,1500001003388,登記記録の閉鎖等,0,2026-01-19,2026-01-16,日浦産興株式会社,,株式会社,愛媛県,松山市,此花町７番１６号,,38,201,7900863,,,2026-01-16,登記官による閉鎖,,,2015-10-05,1,,,,,,0
367,1500001003413,登記記録の閉鎖等,0,2026-01-19,2026-01-16,株式会社ビッグサン,,株式会社,愛媛県,伊予市,下吾川１９８２番地の４,,38,210,7993111,,,2026-01-16,登記官による閉鎖,,,2015-10-05,1,,,,,,0
368,1500001003693,登記記録の閉鎖等,0,2026-01-19,2026-01-16,株式会社ポリシー,,株式会社,愛媛県,伊予郡松前町,大字恵久美７６２番地１,,38,401,7913141,,,2026-01-16,登記官による閉鎖,,,2015-10-05,1,,,,,,0
369,1500001003875,登記記録の閉鎖等,0,2026-01-19,2026-01-16,株式会社松下興産,,株式会社,愛媛県,松山市,南吉田町２４番地５,,38,201,7918042,,,2026-01-16,登記官による閉鎖,,,2015-10-05,1,,,,,,0
370,1500001004072,登記記録の閉鎖等,0,2026-01-19,2026-01-16,株式会社ミヨシプラザビル,,株式会社,愛媛県,松山市,枝松４丁目３番８号,,38,201,7900962,,,2026-01-16,登記官による閉鎖,,,2015-10-05,1,,,,,,0
371,1500001004114,登記記録の閉鎖等,0,2026-01-19,2026-01-16,株式会社メイプル,,株式会社,愛媛県,松山市,千舟町７丁目１２番地１１,,38,201,7900011,,,2026-01-16,登記官による閉鎖,,,2015-10-05,1,,,,,,0
372,1500001004329,登記記録の閉鎖等,0,2026-01-19,2026-01-16,株式会社米田製作所,,株式会社,愛媛県,松山市,空港通３丁目２番１５号,,38,201,7910054,,,2026-01-16,登記官による閉鎖,,,2015-10-05,1,,,,,,0
373,1500001004741,登記記録の閉鎖等,0,2026-01-19,2026-01-16,塩崎木材株式会社,,株式会社,愛媛県,伊予市,下吾川９８０番地,,38,210,7993111,,,2026-01-16,登記官による閉鎖,,,2015-10-05,1,,,,,,0
374,1500001004824,登記記録の閉鎖等,0,2026-01-19,2026-01-16,向井化学工業株式会社,,株式会社,愛媛県,伊予市,上吾川３６８番地１,,38,210,7993112,,,2026-01-16,登記官による閉鎖,,,2015-10-05,1,,,,,,0
375,1500001005079,登記記録の閉鎖等,0,2026-01-19,2026-01-16,勝山興産株式会社,,株式会社,愛媛県,松山市,大街道３丁目７番地２,,38,201,7900004,,,2026-01-16,登記官による閉鎖,,,2015-10-05,1,,,,,,0
376,1500001005145,登記記録の閉鎖等,0,2026-01-19,2026-01-16,株式会社フロムケイ,,株式会社,愛媛県,松山市,大街道３丁目２番地３４,,38,201,7900004,,,2026-01-16,登記官による閉鎖,,,2015-10-05,1,,,,,,0
377,1500001007091,登記記録の閉鎖等,0,2026-01-19,2026-01-16,株式会社サーモキング四国,,株式会社,愛媛県,東温市,南方１５７１番地１,,38,215,7910301,,,2026-01-16,登記官による閉鎖,,,2015-10-05,1,,,,,,0
378,1500001007158,登記記録の閉鎖等,0,2026-01-19,2026-01-16,株式会社野田精機,,株式会社,愛媛県,東温市,南野田２５８番地,,38,215,7910214,,,2026-01-16,登記官による閉鎖,,,2015-10-05,1,,,,,,0
379,1500001007422,登記記録の閉鎖等,0,2026-01-19,2026-01-16,愛石運輸株式会社,,株式会社,愛媛県,松山市,松前町５丁目２番地１２,,38,201,7900812,,,2026-01-16,登記官による閉鎖,,,2015-10-05,1,,,,,アイセキウンユ,0
380,1500001007975,登記記録の閉鎖等,0,2026-01-19,2026-01-16,株式会社金森土建,,株式会社,愛媛県,西予市,城川町川津南３８７８番地,,38,214,7971704,,,2026-01-16,登記官による閉鎖,,,2015-10-05,1,,,,,,0
381,1500001008890,登記記録の閉鎖等,0,2026-01-19,2026-01-16,株式会社井上ソーイング,,株式会社,愛媛県,西条市,大町８９８番地,,38,206,7930030,,,2026-01-16,登記官による閉鎖,,,2015-10-05,1,,,,,,0
382,1500001009030,登記記録の閉鎖等,0,2026-01-19,2026-01-16,大清建設株式会社,,株式会社,愛媛県,西条市,西泉乙３４８番地,,38,206,7930064,,,2026-01-16,登記官による閉鎖,,,2015-10-05,1,,,,,,0
383,1500001009088,登記記録の閉鎖等,0,2026-01-19,2026-01-16,バンザイ食品株式会社,,株式会社,愛媛県,西条市,下島山甲１４００番地の１,,38,206,7930006,,,2026-01-16,登記官による閉鎖,,,2015-10-05,1,,,,,,0
384,1500001009105,登記記録の閉鎖等,0,2026-01-19,2026-01-16,藤万株式会社,,株式会社,愛媛県,西条市,大町６８７番地,,38,206,7930030,,,2026-01-16,登記官による閉鎖,,,2015-10-05,1,,,,,フジマン,0
385,1500001009303,登記記録の閉鎖等,0,2026-01-19,2026-01-16,株式会社高辺商会,00007448,株式会社,愛媛県,西条市,周布７７０番地３,,38,206,7991371,,,2026-01-16,登記官による閉鎖,,,2015-10-05,1,,,,,,0
386,1500001009567,登記記録の閉鎖等,0,2026-01-19,2026-01-16,株式会社アポロ１３号果実,,株式会社,愛媛県,新居浜市,菊本町１丁目１番３２号,,38,205,7920801,,,2026-01-16,登記官による閉鎖,,,2015-10-05,1,,,,,,0
387,1500001009732,登記記録の閉鎖等,0,2026-01-19,2026-01-16,株式会社おたべ屋本舗,,株式会社,愛媛県,新居浜市,高津町９番１号,,38,205,7920867,,,2026-01-16,登記官による閉鎖,,,2015-10-05,1,,,,,,0
388,1500001009757,登記記録の閉鎖等,0,2026-01-19,2026-01-16,株式会社カメラの本庄,,株式会社,愛媛県,新居浜市,港町１番４号,,38,205,7920016,,,2026-01-16,登記官による閉鎖,,,2015-10-05,1,,,,,,0
389,1500001009807,登記記録の閉鎖等,0,2026-01-19,2026-01-16,株式会社共同空調,,株式会社,愛媛県,新居浜市,若水町２丁目３番７号,,38,205,7920017,,,2026-01-16,登記官による閉鎖,,,2015-10-05,1,,,,,,0
390,1500001009856,登記記録の閉鎖等,0,2026-01-19,2026-01-16,株式会社コスモツーリスト,,株式会社,愛媛県,新居浜市,徳常町２番１１２号,,38,205,7920022,,,2026-01-16,登記官による閉鎖,,,2015-10-05,1,,,,,,0
391,1500001009988,登記記録の閉鎖等,0,2026-01-19,2026-01-16,株式会社やすらぎ工房,,株式会社,愛媛県,新居浜市,若水町２丁目２番３５号,,38,205,7920017,,,2026-01-16,登記官による閉鎖,,,2015-10-05,1,,,,,,0
392,1500001010244,登記記録の閉鎖等,0,2026-01-19,2026-01-16,光興産株式会社,,株式会社,愛媛県,新居浜市,新田町３丁目３番２０号,,38,205,7920003,,,2026-01-16,登記官による閉鎖,,,2015-10-05,1,,,,,,0
393,1500001011250,登記記録の閉鎖等,0,2026-01-19,2026-01-16,株式会社エンギシッピング,,株式会社,愛媛県,今治市,波方町波方甲２３１４番地,,38,202,7992101,,,2026-01-16,登記官による閉鎖,,,2015-10-05,1,,,,,,0
394,1500001011507,登記記録の閉鎖等,0,2026-01-19,2026-01-16,株式会社グリル・タイガー,,株式会社,愛媛県,今治市,米屋町１丁目１番地の２６,,38,202,7940021,,,2026-01-16,登記官による閉鎖,,,2015-10-05,1,,,,,,0
395,1500001011655,登記記録の閉鎖等,0,2026-01-19,2026-01-16,四国製材株式会社,,株式会社,愛媛県,今治市,石井町１丁目９番２５号,,38,202,7940006,,,2026-01-16,登記官による閉鎖,,,2015-10-05,1,,,,,,0
396,1500001011671,登記記録の閉鎖等,0,2026-01-19,2026-01-16,四国パイル株式会社,,株式会社,愛媛県,今治市,山路８２６番地１,,38,202,7940072,,,2026-01-16,登記官による閉鎖,,,2015-10-05,1,,,,,,0
397,1500001011754,登記記録の閉鎖等,0,2026-01-19,2026-01-16,株式会社杉野工務店,,株式会社,愛媛県,今治市,通町１丁目６番地の２４,,38,202,7940036,,,2026-01-16,登記官による閉鎖,,,2015-10-05,1,,,,,,0
398,1500001012018,登記記録の閉鎖等,0,2026-01-19,2026-01-16,株式会社とくべゑ,,株式会社,愛媛県,今治市,東村３丁目９番６０号,,38,202,7991506,,,2026-01-16,登記官による閉鎖,,,2015-10-05,1,,,,,,0
399,1500001012075,登記記録の閉鎖等,0,2026-01-19,2026-01-16,波方興業株式会社,,株式会社,愛媛県,今治市,波方町樋口甲１６２２番地１,00007500,38,202,7992102,,,2026-01-16,登記官による閉鎖,,,2015-10-05,1,,,,,,0
400,1500001012232,登記記録の閉鎖等,0,2026-01-19,2026-01-16,福吉海運株式会社,,株式会社,愛媛県,今治市,波方町波方甲２０５１番地３,,38,202,7992101,,,2026-01-16,登記官による閉鎖,,,2015-10-05,1,,,,,,0
401,1500001012562,登記記録の閉鎖等,0,2026-01-19,2026-01-16,株式会社ワールド,,株式会社,愛媛県,今治市,北宝来町３丁目１番地１１,,38,202,7940028,,,2026-01-16,登記官による閉鎖,,,2015-10-05,1,,,,,,0
402,1500001012570,登記記録の閉鎖等,0,2026-01-19,2026-01-16,株式会社渡商,,株式会社,愛媛県,今治市,東村南１丁目２番３８号,,38,202,7991507,,,2026-01-16,登記官による閉鎖,,,2015-10-05,1,,,,,,0
403,1500001012934,登記記録の閉鎖等,0,2026-01-19,2026-01-16,株式会社石善,,株式会社,愛媛県,今治市,宮窪町余所国１３５９番地,,38,202,7942202,,,2026-01-16,登記官による閉鎖,,,2015-10-05,1,,,,,,0
404,1500001012950,登記記録の閉鎖等,0,2026-01-19,2026-01-16,有楽商事株式会社,,株式会社,愛媛県,今治市,宮窪町宮窪２８８８番地１,,38,202,7942203,,,2026-01-16,登記官による閉鎖,,,2015-10-05,1,,,,,,0
405,1500001013008,登記記録の閉鎖等,0,2026-01-19,2026-01-16,株式会社森下工務店,,株式会社,愛媛県,越智郡上島町,弓削下弓削１８７番地,,38,356,7942506,,,2026-01-16,登記官による閉鎖,,,2015-10-05,1,,,,,,0
406,1500001013255,登記記録の閉鎖等,0,2026-01-19,2026-01-16,株式会社唯翔テック,,株式会社,愛媛県,今治市,大西町新町甲９４５番地,,38,202,7992203,,,2026-01-16,登記官による閉鎖,,,2015-10-05,1,,,,,,0
407,1500001014419,登記記録の閉鎖等,0,2026-01-19,2026-01-16,日昇建設株式会社,,株式会社,愛媛県,四国中央市,寒川町３９４９番地,,38,213,7990431,,,2026-01-16,登記官による閉鎖,,,2015-10-05,1,,,,,,0
408,1500001015367,登記記録の閉鎖等,0,2026-01-19,2026-01-16,カネヒサ青果株式会社,,株式会社,愛媛県,宇和島市,寄松甲１２６３番地１,,38,203,7980084,,,2026-01-16,登記官による閉鎖,,,2015-10-05,1,,,,,,0
409,1500001015532,登記記録の閉鎖等,0,2026-01-19,2026-01-16,株式会社丸幸,,株式会社,愛媛県,宇和島市,坂下津甲４０７番地５９,,38,203,7980087,,,2026-01-16,登記官による閉鎖,,,2015-10-05,1,,,,,,0
410,1500001017090,登記記録の閉鎖等,0,2026-01-19,2026-01-16,株式会社トクナガ,,株式会社,愛媛県,松山市,宮西１丁目４番４３号大智ビル４Ｆ,,38,201,7900065,,,2026-01-16,登記官による閉鎖,,,2015-10-05,1,,,,,,0
411,1500002010813,登記記録の閉鎖等,0,2026-01-19,2026-01-16,有限会社四国シルク,,有限会社,愛媛県,伊予郡砥部町,拾町１７１番地４,,38,402,7912113,,,2026-01-16,登記官による閉鎖,,,2015-10-05,1,,,,,,0
412,1500002011605,登記記録の閉鎖等,0,2026-01-19,2026-01-16,有限会社大洲デンタルラボラトリー,,有限会社,愛媛県,大洲市,多田甲９２８番地,,38,207,7950031,,,2026-01-16,登記官による閉鎖,,,2015-10-05,1,,,,,,0
413,1500002020606,登記記録の閉鎖等,0,2026-01-19,2026-01-16,有限会社読売センター松山中央,,有限会社,愛媛県,今治市,郷本町１丁目４番２８号,,38,202,7940823,,,2026-01-16,登記官による閉鎖,,,2015-10-05,1,,,,,,0
414,1500002024103,登記記録の閉鎖等,0,2026-01-19,2026-01-16,有限会社中谷電業所,,有限会社,愛媛県,南宇和郡愛南町,増田２４００番地,,38,506,7984402,,,2026-01-16,登記官による閉鎖,,,2015-10-05,1,,,,,,0
416,1500005001009,登記記録の閉鎖等,0,2026-01-19,2026-01-16,愛媛石油販売協同組合,,その他の設立登記法人,愛媛県,松山市,中央１丁目１７番４５号,,38,201,7918015,,,2026-01-16,登記官による閉鎖,,,2015-10-05,1,,,,,,0
417,1500005005471,登記記録の閉鎖等,0,2026-01-19,2026-01-16,ひうちアパレル協同組合,,その他の設立登記法人,愛媛県,今治市,郷桜井３丁目６番１５号,,38,202,7991523,,,2026-01-16,登記官による閉鎖,,,2015-10-05,1,,,,,,0
418,1500005006098,登記記録の閉鎖等,0,2026-01-19,2026-01-16,農事組合法人共栄牧場,,その他の設立登記法人,愛媛県,宇和島市,祝森甲１９７３番地,,38,203,7980078,,,2026-01-16,登記官による閉鎖,,,2015-10-05,1,,,,,,0
419,1500005006800,登記記録の閉鎖等,0,2026-01-19,2026-01-16,企業組合あこやひめ,,その他の設立登記法人,愛媛県,宇和島市,津島町嵐字慶ヶ浦６７６番１,,38,203,7983344,,,2026-01-16,登記官による閉鎖,,,2015-10-05,1,,,,,,0
422,2010001141022,登記記録の閉鎖等,0,2026-01-19,2025-12-22,株式会社Ｕｎｉｔｅｄ,,株式会社,千葉県,市川市,関ケ島１４番１６号,,12,203,2720105,,,2025-12-22,清算の結了等,,,2015-10-05,1,,,,,ユナイテッド,0
425,2010001256506,登記記録の閉鎖等,0,2026-01-19,2026-01-05,株式会社ＤＩＫファーム,,株式会社,東京都,中央区,勝どき４丁目２－１３－６０１,,13,102,1040054,,,2026-01-05,清算の結了等,,,2025-07-08,1,,,,,ディーアイケーファーム,0
432,2010002000086,登記記録の閉鎖等,0,2026-01-19,2025-12-12,有限会社アイ・ディー・ジー,,有限会社,東京都,文京区,水道２丁目６番４号Ｓ－ＢＯＸ２０１,,13,105,1120005,,,2025-12-12,清算の結了等,,,2015-10-05,1,,,,,アイディージー,0
435,2010003000250,登記記録の閉鎖等,0,2026-01-19,2025-12-22,井上レール合名会社,,合名会社,東京都,千代田区,神田佐久間町２丁目３番地,,13,101,1010025,,,2025-12-22,清算の結了等,,,2015-10-05,1,,,,,イノウエレール,0
450,2010501054566,登記記録の閉鎖等,0,2026-01-19,2026-01-08,永誉株式会社,,株式会社,東京都,台東区,松が谷２丁目１５番８号浅草Ｋ２ビル３０４号室,,13,106,1110036,,,2026-01-08,清算の結了等,,,2025-08-19,1,,,,,エイヨ,0
457,2010705000390,登記記録の閉鎖等,0,2026-01-19,2026-01-07,医療法人社団東秀会,,その他の設立登記法人,東京都,品川区,豊町５丁目１１番３号,,13,109,1420042,,,2026-01-07,清算の結了等,,,2015-10-05,1,,,,,トウシュウカイ,0
460,2010803002702,登記記録の閉鎖等,0,2026-01-19,2026-01-06,合同会社丸八,,合同会社,東京都,大田区,西蒲田７丁目１番１１号第１０４東京ビル２階,,13,111,1440051,,,2026-01-06,清算の結了等,,,2018-05-31,1,,,,,マルハチ,0
474,2011201010660,登記記録の閉鎖等,0,2026-01-19,2026-01-05,エス・ビー・エス・アライアンス株式会社,,株式会社,東京都,中野区,中野３丁目３３番３号,,13,114,1640001,,,2026-01-05,合併による解散等,7011201000780,令和８年１月１日東京都中野区中野三丁目３３番３号エス・ビー・エス株式会社（7011201000780）に合併し解散,2015-10-05,1,,,,,エスビーエスアライアンス,0
485,2011601027866,登記記録の閉鎖等,0,2026-01-19,2026-01-13,ＯｃｅａｎＴｒｅｅ株式会社,,株式会社,東京都,練馬区,関町北５丁目１３－２５・Ｆ室,,13,120,1770051,,,2026-01-13,清算の結了等,,,2024-07-03,1,,,,,オーシャンツリー,0
507,2020001043597,登記記録の閉鎖等,0,2026-01-19,2026-01-07,東京不動産販売株式会社,,株式会社,神奈川県,横浜市金沢区,並木２丁目１３番２号,,14,108,2360005,,,2026-01-07,清算の結了等,,,2015-10-05,1,,,,,トウキョウフドウサンハンバイ,0
522,2021002037084,登記記録の閉鎖等,0,2026-01-19,2025-12-19,有限会社半原きのこ園,,有限会社,神奈川県,愛甲郡愛川町,半原６９５番地,,14,401,2430307,,,2025-12-19,清算の結了等,,,2015-10-05,1,,,,,ハンバラキノコエン,0
526,2021003002533,登記記録の閉鎖等,0,2026-01-19,2025-11-06,ＴｏｙＦｉｅｌｄ合同会社,,合同会社,神奈川県,藤沢市,本藤沢７丁目７番１５号,,14,205,2510875,,,2025-11-06,清算の結了等,,,2015-10-05,1,,,,,トイフィールド,0
528,2030001060591,登記記録の閉鎖等,0,2026-01-19,2026-01-05,オオクラ昆布株式会社,,株式会社,埼玉県,本庄市,児玉町吉田林１２５番地１,,11,211,3670211,,,2026-01-05,清算の結了等,,,2015-10-05,1,,,,,オオクラコンブ,0
538,2040002064822,登記記録の閉鎖等,0,2026-01-19,2025-12-22,有限会社Ｈ＆Ｍコーポレーション,,有限会社,千葉県,佐倉市,井野１４２９番地１７,,12,212,2850855,,,2025-12-22,清算の結了等,,,2015-10-05,1,,,,,,0
559,2080402002155,登記記録の閉鎖等,0,2026-01-19,2026-01-06,有限会社かねはる,,有限会社,静岡県,浜松市中央区,高丘北１丁目５９番１０号,,22,138,4338119,,,2026-01-06,清算の結了等,,,2015-10-05,1,,,,,カネハル,0
575,2120001231076,登記記録の閉鎖等,0,2026-01-19,2026-01-05,株式会社ＦＧＨ　ＨＩＲＡＫＵ,,株式会社,大阪府,大阪市浪速区,日本橋西２丁目１番１号,,27,111,5560004,,,2026-01-05,清算の結了等,,,2020-08-17,1,,,,,エフジーエイチヒラク,0
601,2130003007713,登記記録の閉鎖等,0,2026-01-19,2026-01-14,ワンリーガルヨシダ合同会社,,合同会社,京都府,京都市左京区,吉田二本松町８番地エルフィール１０２,,26,103,6068316,,,2026-01-14,清算の結了等,,,2022-01-25,1,,,,,ワンリーガルヨシダ,0
610,2160003002760,登記記録の閉鎖等,0,2026-01-19,2025-12-24,合同会社Ｅａｒｔｈ　Ｂａｃｋ　Ｒｉｄｉｎｇ,,合同会社,滋賀県,栗東市,上鈎１７番地４,,25,208,5203022,,,2025-12-24,清算の結了等,,,2022-12-21,1,,,,,アースバックライディング,0
617,2180001135791,登記記録の閉鎖等,0,2026-01-19,2026-01-13,ＳＯＧＯ株式会社,,株式会社,愛知県,名古屋市瑞穂区,彌富町字清水ケ岡５７番地の２０,,23,108,4670038,,,2026-01-13,清算の結了等,,,2019-03-15,1,,,,,ソーゴ,0
620,2180001167075,登記記録の閉鎖等,0,2026-01-19,2026-01-13,株式会社メリエム,,株式会社,愛知県,稲沢市,国府宮３丁目６番１２号,,23,220,4928137,,,2026-01-13,清算の結了等,,,2025-06-05,1,,,,,メリエム,0
624,2180002087396,登記記録の閉鎖等,0,2026-01-19,2026-01-06,有限会社ＨＩＰ,,有限会社,愛知県,知多郡東浦町,大字石浜字御保田７番地の１パレロワイヤル石浜Ｂ号,,23,442,4702103,,,2026-01-06,清算の結了等,,,2015-10-05,1,,,,,ヒップ,0
636,2200005013669,登記記録の閉鎖等,0,2026-01-19,2026-01-09,特定非営利活動法人Ｌｉｎｏ,,その他の設立登記法人,岐阜県,岐阜市,田神８番９号,,21,201,5008158,,,2026-01-09,清算の結了等,,,2024-09-24,1,,,,,リノ,0
639,2220002012614,登記記録の閉鎖等,0,2026-01-19,2026-01-07,有限会社テン・ツー・ワン,,有限会社,石川県,加賀市,大聖寺新屋敷町１４番地の１,,17,206,9220805,,,2026-01-07,清算の結了等,,,2015-10-05,1,,,,,テンツーワン,0
663,2290005004635,登記記録の閉鎖等,0,2026-01-19,2026-01-06,特定非営利活動法人アジアン・エイジング・ビジネスセンター,,その他の設立登記法人,福岡県,福岡市早良区,百道浜２丁目４番２７号ＡＩビル９階,,40,137,8140001,,,2026-01-06,清算の結了等,,,2015-10-05,1,,,,,アジアンエイジングビジネスセンター,0
666,2310002002779,登記記録の閉鎖等,0,2026-01-19,2026-01-13,有限会社総合保障センター,,有限会社,長崎県,長崎市,稲佐町３番１号,,42,201,8528011,,,2026-01-13,合併による解散等,2070001035004,令和８年１月１日群馬県前橋市表町二丁目１０番１９号グラン前橋６Ｆ保険クラスター株式会社（2070001035004）に合併し解散,2015-10-05,1,,,,,ソウゴウホショウセンター,0
674,2320005002651,登記記録の閉鎖等,0,2026-01-19,2026-01-09,医療法人児玉内科医院,,その他の設立登記法人,大分県,別府市,北浜３丁目３番１２号,,44,202,8740920,,,2026-01-09,清算の結了等,,,2015-10-05,1,,,,,コダマナイカイイン,0
683,2390001015832,登記記録の閉鎖等,0,2026-01-19,2026-01-14,丸福建設株式会社,,株式会社,山形県,西村山郡大江町,大字本郷丙６３３番地,,06,324,9901164,,,2026-01-14,清算の結了等,,,2019-10-08,1,,,,,マルフクケンセツ,0
684,2390002001179,登記記録の閉鎖等,0,2026-01-19,2026-01-07,有限会社サンケン,,有限会社,山形県,山形市,大字漆山１７３０番地２,,06,201,9902161,,,2026-01-07,清算の結了等,,,2015-10-05,1,,,,,サンケン,0
699,2480001000156,登記記録の閉鎖等,0,2026-01-19,2026-01-16,株式会社朝田,,株式会社,徳島県,徳島市,籠屋町２丁目２５番地,,36,201,7700914,,,2026-01-16,登記官による閉鎖,,,2015-10-05,1,,,,,,0
700,2480001000164,登記記録の閉鎖等,0,2026-01-19,2026-01-16,株式会社アワード,,株式会社,徳島県,徳島市,大道２丁目４２番地,,36,201,7700923,,,2026-01-16,登記官による閉鎖,,,2015-10-05,1,,,,,,0
701,2480001000288,登記記録の閉鎖等,0,2026-01-19,2026-01-16,エースシステム株式会社,,株式会社,徳島県,徳島市,南田宮２丁目１番２６号,,36,201,7700004,,,2026-01-16,登記官による閉鎖,,,2015-10-05,1,,,,,,0
702,2480001000404,登記記録の閉鎖等,0,2026-01-19,2026-01-16,株式会社越智掛軸堂,,株式会社,徳島県,徳島市,城南町２丁目７番３３号,,36,201,7708064,,,2026-01-16,登記官による閉鎖,,,2015-10-05,1,,,,,,0
703,2480001000420,登記記録の閉鎖等,0,2026-01-19,2026-01-16,鏡鉄工株式会社,,株式会社,徳島県,徳島市,津田浜之町１番５０号,,36,201,7708005,,,2026-01-16,登記官による閉鎖,,,2015-10-05,1,,,,,,0
704,2480001000569,登記記録の閉鎖等,0,2026-01-19,2026-01-16,グリーンヒルズ株式会社,,株式会社,徳島県,徳島市,沖浜東２丁目４０番地（ビザン薬品ビル３階）,,36,201,7708053,,,2026-01-16,登記官による閉鎖,,,2015-10-05,1,,,,,,0
705,2480001000577,登記記録の閉鎖等,0,2026-01-19,2026-01-16,株式会社グリーンキーパー,,株式会社,徳島県,徳島市,新浜本町２丁目２２１番１５号,,36,201,7708007,,,2026-01-16,登記官による閉鎖,,,2015-10-05,1,,,,,,0
706,2480001000602,登記記録の閉鎖等,0,2026-01-19,2026-01-16,株式会社ごうけん,,株式会社,徳島県,徳島市,東沖洲２丁目４３番地５,,36,201,7700873,,,2026-01-16,登記官による閉鎖,,,2015-10-05,1,,,,,,0
707,2480001001352,登記記録の閉鎖等,0,2026-01-19,2026-01-16,株式会社フラワーかごせ,,株式会社,徳島県,徳島市,蔵本町２丁目１６番地の２,,36,201,7700042,,,2026-01-16,登記官による閉鎖,,,2015-10-05,1,,,,,,0
708,2480001001690,登記記録の閉鎖等,0,2026-01-19,2026-01-16,日興繊維工業株式会社,,株式会社,徳島県,徳島市,名東町２丁目２３３番地,,36,201,7700047,,,2026-01-16,登記官による閉鎖,,,2015-10-05,1,,,,,,0
709,2480001001848,登記記録の閉鎖等,0,2026-01-19,2026-01-16,バイオネットワーク販売株式会社,,株式会社,徳島県,徳島市,南田宮２丁目７番２５号,,36,201,7700004,,,2026-01-16,登記官による閉鎖,,,2015-10-05,1,,,,,,0
710,2480001002160,登記記録の閉鎖等,0,2026-01-19,2026-01-16,株式会社ラクサ,,株式会社,徳島県,徳島市,応神町吉成字長田１１４番地,,36,201,7711153,,,2026-01-16,登記官による閉鎖,,,2015-10-05,1,,,,,,0
711,2480001002359,登記記録の閉鎖等,0,2026-01-19,2026-01-16,株式会社ヤスダケイト,,株式会社,徳島県,徳島市,東新町２丁目５番地の１,,36,201,7700912,,,2026-01-16,登記官による閉鎖,,,2015-10-05,1,,,,,,0
712,2480001002490,登記記録の閉鎖等,0,2026-01-19,2026-01-16,株式会社ミヤコ,,株式会社,徳島県,徳島市,出来島本町３丁目２８番地,,36,201,7700823,,,2026-01-16,登記官による閉鎖,,,2015-10-05,1,,,,,,0
713,2480001002532,登記記録の閉鎖等,0,2026-01-19,2026-01-16,阿波化工株式会社,,株式会社,徳島県,名西郡石井町,藍畑字西覚円９４４番地１,,36,341,7793211,,,2026-01-16,登記官による閉鎖,,,2015-10-05,1,,,,,,0
714,2480001003415,登記記録の閉鎖等,0,2026-01-19,2026-01-16,株式会社サワチカデンキ,,株式会社,徳島県,小松島市,中郷町字加藤１５２番地１,,36,203,7730016,,,2026-01-16,登記官による閉鎖,,,2015-10-05,1,,,,,,0
715,2480001004611,登記記録の閉鎖等,0,2026-01-19,2026-01-16,原田建設株式会社,,株式会社,徳島県,阿波市,土成町吉田字川久保１７５番地の１,,36,206,7711507,,,2026-01-16,登記官による閉鎖,,,2015-10-05,1,,,,,,0
716,2480001004982,登記記録の閉鎖等,0,2026-01-19,2026-01-16,株式会社ケイ・ワイ・エムバイオセラミック研究所,,株式会社,徳島県,鳴門市,撫養町立岩字六枚１８３番地,,36,202,7720017,,,2026-01-16,登記官による閉鎖,,,2015-10-05,1,,,,,,0
717,2480001005089,登記記録の閉鎖等,0,2026-01-19,2026-01-16,鳴門新栄水産株式会社,,株式会社,徳島県,鳴門市,里浦町粟津字西開３８番地の１,,36,202,7720022,,,2026-01-16,登記官による閉鎖,,,2015-10-05,1,,,,,,0
718,2480001005106,登記記録の閉鎖等,0,2026-01-19,2026-01-16,長浜木材株式会社,,株式会社,徳島県,鳴門市,大津町矢倉字六ノ越２５番地１,,36,202,7720035,,,2026-01-16,登記官による閉鎖,,,2015-10-05,1,,,,,,0
719,2480001005196,登記記録の閉鎖等,0,2026-01-19,2026-01-16,明盛海運株式会社,,株式会社,徳島県,鳴門市,撫養町大桑島字北之組８番地,,36,202,7720011,,,2026-01-16,登記官による閉鎖,,,2015-10-05,1,,,,,,0
720,2480001005304,登記記録の閉鎖等,0,2026-01-19,2026-01-16,株式会社大洋食品,,株式会社,徳島県,板野郡松茂町,中喜来字蔵野２３番地の８,,36,401,7710212,,,2026-01-16,登記官による閉鎖,,,2015-10-05,1,,,,,,0
721,2480001005576,登記記録の閉鎖等,0,2026-01-19,2026-01-16,株式会社ミキショク,,株式会社,徳島県,板野郡上板町,高磯３１１番地１,,36,405,7711346,,,2026-01-16,登記官による閉鎖,,,2015-10-05,1,,,,,,0
722,2480001006707,登記記録の閉鎖等,0,2026-01-19,2026-01-16,新港運輸株式会社,,株式会社,徳島県,阿南市,下大野町畑田１９０番地２,,36,204,7740047,,,2026-01-16,登記官による閉鎖,,,2015-10-05,1,,,,,,0
723,2480001007028,登記記録の閉鎖等,0,2026-01-19,2026-01-16,株式会社ハイストーン,,株式会社,徳島県,那賀郡那賀町,木頭北川字わだら１８番地,,36,368,7716512,,,2026-01-16,登記官による閉鎖,,,2015-10-05,1,,,,,,0
724,2480001007523,登記記録の閉鎖等,0,2026-01-19,2026-01-16,株式会社新芳社,,株式会社,徳島県,三好市,池田町州津藤ノ井４４２番地の１,,36,208,7780020,,,2026-01-16,登記官による閉鎖,,,2015-10-05,1,,,,,,0
725,2480001008208,登記記録の閉鎖等,0,2026-01-19,2026-01-16,株式会社テクニカルプロデュースＷＡＴＡＮＡＢＥ,,株式会社,徳島県,鳴門市,大津町大幸字大将軍の越２２番地２,,36,202,7720044,,,2026-01-16,登記官による閉鎖,,,2015-10-05,1,,,,,,0
726,2480002002473,登記記録の閉鎖等,0,2026-01-19,2026-01-16,有限会社セイコーリアルエステート,,有限会社,徳島県,徳島市,北矢三町３丁目１番７９号,,36,201,7700006,,,2026-01-16,登記官による閉鎖,,,2018-05-10,1,,,,,セイコーリアルエストート,0
727,2480002004387,登記記録の閉鎖等,0,2026-01-19,2026-01-16,有限会社美容室イッツ,,有限会社,徳島県,徳島市,佐古八番町６－２,,36,201,7700028,,,2026-01-16,登記官による閉鎖,,,2015-10-05,1,,,,,,0
728,2480002004676,登記記録の閉鎖等,0,2026-01-19,2026-01-16,有限会社丸三青果,,有限会社,徳島県,徳島市,上助任町大坪１７５番地の４,,36,201,7700801,,,2026-01-16,登記官による閉鎖,,,2015-10-05,1,,,,,,0
729,2480002004908,登記記録の閉鎖等,0,2026-01-19,2026-01-16,宮本自動車有限会社,,有限会社,徳島県,徳島市,国府町南岩延８９２番地５,,36,201,7793120,,,2026-01-16,登記官による閉鎖,,,2015-10-05,1,,,,,,0
730,2480002012745,登記記録の閉鎖等,0,2026-01-19,2026-01-16,蛭子建設有限会社,,有限会社,徳島県,阿南市,加茂町宿居谷６１番地,,36,204,7715173,,,2026-01-16,登記官による閉鎖,,,2015-10-05,1,,,,,,0
731,2480002013784,登記記録の閉鎖等,0,2026-01-19,2026-01-16,有限会社山崎商事,,有限会社,徳島県,阿南市,中林町東３０番地の１０,,36,204,7740016,,,2026-01-16,登記官による閉鎖,,,2015-10-05,1,,,,,,0
732,2480002016226,登記記録の閉鎖等,0,2026-01-19,2026-01-16,山本産業有限会社,,有限会社,徳島県,海部郡美波町,日和佐浦４３番地,,36,387,7792304,,,2026-01-16,登記官による閉鎖,,,2018-08-06,1,,,,,ヤマモトサンギョウ,0
733,2480005000862,登記記録の閉鎖等,0,2026-01-19,2026-01-16,四国ホロニック協同組合,,その他の設立登記法人,徳島県,徳島市,名東町３丁目５５７番地の６,,36,201,7700047,,,2026-01-16,登記官による閉鎖,,,2015-10-05,1,,,,,,0
734,2500001000145,登記記録の閉鎖等,0,2026-01-19,2026-01-16,北条タクシー株式会社,,株式会社,愛媛県,松山市,北条辻１４１０番地１９,00007230,38,201,7992430,,,2026-01-16,登記官による閉鎖,,,2015-10-05,1,,,,,,0
735,2500001000178,登記記録の閉鎖等,0,2026-01-19,2026-01-16,渡部企画株式会社,,株式会社,愛媛県,松山市,中西内４８２番地１,,38,201,7992426,,,2026-01-16,登記官による閉鎖,,,2015-10-05,1,,,,,,0
736,2500001000491,登記記録の閉鎖等,0,2026-01-19,2026-01-16,いよや食品工業株式会社,,株式会社,愛媛県,松山市,土居田町５９６番地１,,38,201,7900056,,,2026-01-16,登記官による閉鎖,,,2015-10-05,1,,,,,,0
737,2500001000500,登記記録の閉鎖等,0,2026-01-19,2026-01-16,株式会社イーケーアールビル,,株式会社,愛媛県,松山市,三番町６丁目８番地３,,38,201,7900003,,,2026-01-16,登記官による閉鎖,,,2015-10-05,1,,,,,,0
738,2500001000541,登記記録の閉鎖等,0,2026-01-19,2026-01-16,いすず商事株式会社,,株式会社,愛媛県,松山市,大街道１丁目４番地,,38,201,7900004,,,2026-01-16,登記官による閉鎖,,,2015-10-05,1,,,,,,0
739,2500001000599,登記記録の閉鎖等,0,2026-01-19,2026-01-16,イハラプラント株式会社,,株式会社,愛媛県,松山市,南久米４９９番地１３,,38,201,7910000,,,2026-01-16,登記官による閉鎖,,,2015-10-05,1,,,,,,0
740,2500001000608,登記記録の閉鎖等,0,2026-01-19,2026-01-16,株式会社岩井電子,,株式会社,愛媛県,松山市,東野４丁目１番６号,,38,201,7900903,,,2026-01-16,登記官による閉鎖,,,2015-10-05,1,,,,,,0
741,2500001001176,登記記録の閉鎖等,0,2026-01-19,2026-01-16,開成物流株式会社,,株式会社,愛媛県,松山市,南吉田町２０４６番地,,38,201,7918042,,,2026-01-16,登記官による閉鎖,,,2015-10-05,1,,,,,,0
742,2500001001192,登記記録の閉鎖等,0,2026-01-19,2026-01-16,株式会社科学模型教材社,,株式会社,愛媛県,松山市,一番町２丁目３番地６,,38,201,7900001,,,2026-01-16,登記官による閉鎖,,,2015-10-05,1,,,,,,0
743,2500001001515,登記記録の閉鎖等,0,2026-01-19,2026-01-16,株式会社ケーアール,,株式会社,愛媛県,松山市,三番町１丁目１３番地６,,38,201,7900003,,,2026-01-16,登記官による閉鎖,,,2015-10-05,1,,,,,,0
744,2500001001548,登記記録の閉鎖等,0,2026-01-19,2026-01-16,株式会社興栄,,株式会社,愛媛県,松山市,山越５丁目６番１号,,38,201,7918013,,,2026-01-16,登記官による閉鎖,,,2015-10-05,1,,,,,,0
745,2500001001564,登記記録の閉鎖等,0,2026-01-19,2026-01-16,株式会社コーキ,,株式会社,愛媛県,松山市,朝生田町７丁目１番３２号,,38,201,7900952,,,2026-01-16,登記官による閉鎖,,,2015-10-05,1,,,,,,0
746,2500001001589,登記記録の閉鎖等,0,2026-01-19,2026-01-16,河野建設株式会社,,株式会社,愛媛県,松山市,朝生田町１丁目１番１８号,,38,201,7900952,,,2026-01-16,登記官による閉鎖,,,2015-10-05,1,,,,,,0
747,2500001001812,登記記録の閉鎖等,0,2026-01-19,2026-01-16,株式会社サトミ産業,,株式会社,愛媛県,松山市,古三津１丁目２２番１１号,,38,201,7918067,,,2026-01-16,登記官による閉鎖,,,2015-10-05,1,,,,,,0
748,2500001001820,登記記録の閉鎖等,0,2026-01-19,2026-01-16,株式会社さの総合保険サービス,,株式会社,愛媛県,松山市,石手白石甲９１番地４,,38,201,7900902,,,2026-01-16,登記官による閉鎖,,,2015-10-05,1,,,,,,0
749,2500001002001,登記記録の閉鎖等,0,2026-01-19,2026-01-16,株式会社バイスニ十一,,株式会社,愛媛県,松山市,南江戸１丁目９番１８号,,38,201,7900062,,,2026-01-16,登記官による閉鎖,,,2015-10-05,1,,,,,,0
750,2500001002075,登記記録の閉鎖等,0,2026-01-19,2026-01-16,株式会社シスコ,,株式会社,愛媛県,松山市,生石町６４９番地１１,,38,201,7900051,,,2026-01-16,登記官による閉鎖,,,2015-10-05,1,,,,,,0
751,2500001002166,登記記録の閉鎖等,0,2026-01-19,2026-01-16,株式会社松徳産業,,株式会社,愛媛県,松山市,津吉町５０５番地１２,,38,201,7911122,,,2026-01-16,登記官による閉鎖,,,2015-10-05,1,,,,,,0
752,2500001002414,登記記録の閉鎖等,0,2026-01-19,2026-01-16,創新産業株式会社,,株式会社,愛媛県,松山市,西石井１丁目１番２５号,,38,201,7900931,,,2026-01-16,登記官による閉鎖,,,2015-10-05,1,,,,,,0
753,2500001002496,登記記録の閉鎖等,0,2026-01-19,2026-01-16,タイシン開発株式会社,,株式会社,愛媛県,松山市,中野町甲１７７番地,,38,201,7911121,,,2026-01-16,登記官による閉鎖,,,2015-10-05,1,,,,,,0
754,2500001002505,登記記録の閉鎖等,0,2026-01-19,2026-01-16,タイシン林業株式会社,,株式会社,愛媛県,松山市,中野町甲１４３番地３,,38,201,7911121,,,2026-01-16,登記官による閉鎖,,,2015-10-05,1,,,,,,0
755,2500001002703,登記記録の閉鎖等,0,2026-01-19,2026-01-16,株式会社中四国メディカル,,株式会社,愛媛県,松山市,土居田町８０番地の３,,38,201,7900056,,,2026-01-16,登記官による閉鎖,,,2015-10-05,1,,,,,,0
756,2500001003189,登記記録の閉鎖等,0,2026-01-19,2026-01-16,日研建設株式会社,,株式会社,愛媛県,松山市,天山１丁目１番３５号,,38,201,7900951,,,2026-01-16,登記官による閉鎖,,,2015-10-05,1,,,,,,0
757,2500001003288,登記記録の閉鎖等,0,2026-01-19,2026-01-16,株式会社ハートハウス渋井,,株式会社,愛媛県,松山市,石手５丁目１番９号,,38,201,7900852,,,2026-01-16,登記官による閉鎖,,,2015-10-05,1,,,,,,0
758,2500001003296,登記記録の閉鎖等,0,2026-01-19,2026-01-16,株式会社バンガード,,株式会社,愛媛県,松山市,天山１丁目５番１号,,38,201,7900951,,,2026-01-16,登記官による閉鎖,,,2015-10-05,1,,,,,バンガード,0
759,2500001003420,登記記録の閉鎖等,0,2026-01-19,2026-01-16,ヒノキ新薬西四国販売株式会社,,株式会社,愛媛県,松山市,萱町１丁目３番地６,,38,201,7900813,,,2026-01-16,登記官による閉鎖,,,2015-10-05,1,,,,,,0
760,2500001003577,登記記録の閉鎖等,0,2026-01-19,2026-01-16,ブレーン株式会社,,株式会社,愛媛県,松山市,二番町１丁目１１番地５,,38,201,7900002,,,2026-01-16,登記官による閉鎖,,,2015-10-05,1,,,,,,0
761,2500001003627,登記記録の閉鎖等,0,2026-01-19,2026-01-16,株式会社ぺんしる,,株式会社,愛媛県,松山市,南梅本町甲８７０番地２２,,38,201,7910245,,,2026-01-16,登記官による閉鎖,,,2015-10-05,1,,,,,,0
762,2500001003734,登記記録の閉鎖等,0,2026-01-19,2026-01-16,株式会社松山キャッシングサービス,,株式会社,愛媛県,松山市,二番町１丁目５番地１０,,38,201,7900002,,,2026-01-16,登記官による閉鎖,,,2015-10-05,1,,,,,,0
763,2500001003783,登記記録の閉鎖等,0,2026-01-19,2026-01-16,株式会社松山都市環境,,株式会社,愛媛県,松山市,勝岡町３０番地１,,38,201,7992661,,,2026-01-16,登記官による閉鎖,,,2015-10-05,1,,,,,,0
764,2500001003841,登記記録の閉鎖等,0,2026-01-19,2026-01-16,株式会社マイホームサービスセンター,,株式会社,愛媛県,松山市,平井町２２７０番地,,38,201,7910243,,,2026-01-16,登記官による閉鎖,,,2015-10-05,1,,,,,,0
765,2500001004055,登記記録の閉鎖等,0,2026-01-19,2026-01-16,ミヤウチ開発株式会社,,株式会社,愛媛県,松山市,中野町甲５０９番地６,,38,201,7911121,,,2026-01-16,登記官による閉鎖,,,2015-10-05,1,,,,,,0
766,2500001004195,登記記録の閉鎖等,0,2026-01-19,2026-01-16,山内産業株式会社,,株式会社,愛媛県,松山市,堀江町甲７６６番地１２,,38,201,7992651,,,2026-01-16,登記官による閉鎖,,,2015-10-05,1,,,,,,0
767,2500001004352,登記記録の閉鎖等,0,2026-01-19,2026-01-16,株式会社ワールド雄大,,株式会社,愛媛県,松山市,鷹子町２３２番地,,38,201,7900925,,,2026-01-16,登記官による閉鎖,,,2015-10-05,1,,,,,,0
768,2500001004402,登記記録の閉鎖等,0,2026-01-19,2026-01-16,リザーブファンドジャパン株式会社,,株式会社,愛媛県,松山市,味酒町２丁目４番地１,,38,201,7900814,,,2026-01-16,登記官による閉鎖,,,2015-10-05,1,,,,,,0
769,2500001004666,登記記録の閉鎖等,0,2026-01-19,2026-01-16,土居建設株式会社,,株式会社,愛媛県,伊予市,中村１０３番地の１,,38,210,7993123,,,2026-01-16,登記官による閉鎖,,,2015-10-05,1,,,,,,0
770,2500001004724,登記記録の閉鎖等,0,2026-01-19,2026-01-16,株式会社ギケン,,株式会社,愛媛県,伊予市,稲荷甲２２４番地１,,38,210,7993121,,,2026-01-16,登記官による閉鎖,,,2015-10-05,1,,,,,,0
771,2500001004848,登記記録の閉鎖等,0,2026-01-19,2026-01-16,愛媛環境リサイクル株式会社,,株式会社,愛媛県,伊予郡松前町,大字西古泉２８５番地１,,38,401,7913134,,,2026-01-16,登記官による閉鎖,,,2015-10-05,1,,,,,,0
772,2500001004897,登記記録の閉鎖等,0,2026-01-19,2026-01-16,株式会社田原材木店,,株式会社,愛媛県,伊予郡松前町,大字西古泉２８５番地１,,38,401,7913134,,,2026-01-16,登記官による閉鎖,,,2015-10-05,1,,,,,,0
773,2500001005243,登記記録の閉鎖等,0,2026-01-19,2026-01-16,株式会社アレスブレイン,,株式会社,愛媛県,松山市,南吉田町２８２１番４号,,38,201,7918042,,,2026-01-16,登記官による閉鎖,,,2015-10-05,1,,,,,,0
774,2500001007058,登記記録の閉鎖等,0,2026-01-19,2026-01-16,株式会社丸和石油,,株式会社,愛媛県,伊予郡砥部町,上原町２７１番地５,,38,402,7912117,,,2026-01-16,登記官による閉鎖,,,2015-10-05,1,,,,,,0
775,2500001007090,登記記録の閉鎖等,0,2026-01-19,2026-01-16,株式会社サンワ運輸,,株式会社,愛媛県,東温市,松瀬川甲１２６０番地,,38,215,7910314,,,2026-01-16,登記官による閉鎖,,,2015-10-05,1,,,,,,0
776,2500001007116,登記記録の閉鎖等,0,2026-01-19,2026-01-16,株式会社和田土木,,株式会社,愛媛県,東温市,南方２６００番地６,,38,215,7910301,,,2026-01-16,登記官による閉鎖,,,2015-10-05,1,,,,,,0
777,2500001007140,登記記録の閉鎖等,0,2026-01-19,2026-01-16,株式会社寿宅建,,株式会社,愛媛県,東温市,野田１丁目１８番地７,,38,215,7910216,,,2026-01-16,登記官による閉鎖,,,2015-10-05,1,,,,,,0
778,2500001007231,登記記録の閉鎖等,0,2026-01-19,2026-01-16,株式会社エンタープライズタケチ,,株式会社,愛媛県,東温市,牛渕１４８４番地,,38,215,7910213,,,2026-01-16,登記官による閉鎖,,,2015-10-05,1,,,,,,0
779,2500001007264,登記記録の閉鎖等,0,2026-01-19,2026-01-16,株式会社仙波機工,,株式会社,愛媛県,東温市,松瀬川４７３番地２,,38,215,7910314,,,2026-01-16,登記官による閉鎖,,,2015-10-05,1,,,,,,0
780,2500001007561,登記記録の閉鎖等,0,2026-01-19,2026-01-16,アイワ石油株式会社,,株式会社,愛媛県,松山市,桑原５丁目２番５号サンピア桑原３０２号,,38,201,7900911,,,2026-01-16,登記官による閉鎖,,,2015-10-05,1,,,,,アイワセキユ,0
781,2500001007859,登記記録の閉鎖等,0,2026-01-19,2026-01-16,中川汽船株式会社,,株式会社,愛媛県,大洲市,長浜町沖浦甲２２３番地の１,,38,207,7993404,,,2026-01-16,登記官による閉鎖,,,2015-10-05,1,,,,,,0
782,2500001008056,登記記録の閉鎖等,0,2026-01-19,2026-01-16,竜宮産業株式会社,,株式会社,愛媛県,西予市,三瓶町二及１番耕地３３５番地,,38,214,7960903,,,2026-01-16,登記官による閉鎖,,,2015-10-05,1,,,,,,0
783,2500001008097,登記記録の閉鎖等,0,2026-01-19,2026-01-16,株式会社上木建設,,株式会社,愛媛県,喜多郡内子町,立石９２７番地,,38,422,7913505,,,2026-01-16,登記官による閉鎖,,,2015-10-05,1,,,,,,0
784,2500001008618,登記記録の閉鎖等,0,2026-01-19,2026-01-16,株式会社あくる,,株式会社,愛媛県,松山市,竹原３丁目１８番１０号,,38,201,7900053,,,2026-01-16,登記官による閉鎖,,,2015-10-05,1,,,,,,0
785,2500001008989,登記記録の閉鎖等,0,2026-01-19,2026-01-16,株式会社サンデー,,株式会社,愛媛県,西条市,福武甲１４７１番地,,38,206,7930035,,,2026-01-16,登記官による閉鎖,,,2015-10-05,1,,,,,,0
786,2500001009161,登記記録の閉鎖等,0,2026-01-19,2026-01-16,株式会社夢工房,,株式会社,愛媛県,西条市,樋之口２３番地５,00007441,38,206,7930043,,,2026-01-16,登記官による閉鎖,,,2015-10-05,1,,,,,,0
787,2500001009228,登記記録の閉鎖等,0,2026-01-19,2026-01-16,石鎚山アオタキ砕石株式会社,00007445,株式会社,愛媛県,西条市,丹原町鞍瀬丁９４５番地１,,38,206,7910541,,,2026-01-16,登記官による閉鎖,,,2015-10-05,1,,,,,,0
788,2500001009302,登記記録の閉鎖等,0,2026-01-19,2026-01-16,株式会社大栄食品,,株式会社,愛媛県,西条市,周布２０４番地の１,,38,206,7991371,,,2026-01-16,登記官による閉鎖,,,2015-10-05,1,,,,,,0
789,2500001009335,登記記録の閉鎖等,0,2026-01-19,2026-01-16,東予通商株式会社,,株式会社,愛媛県,西条市,河原津甲３９２番地４,,38,206,7991303,,,2026-01-16,登記官による閉鎖,,,2015-10-05,1,,,,,,0
790,2500001009599,登記記録の閉鎖等,0,2026-01-19,2026-01-16,愛新建設株式会社,,株式会社,愛媛県,新居浜市,阿島乙１２６番地の１５,,38,205,7920897,,,2026-01-16,登記官による閉鎖,,,2015-10-05,1,,,,,,0
791,2500001009698,登記記録の閉鎖等,0,2026-01-19,2026-01-16,エス・ケー・バイオ株式会社,,株式会社,愛媛県,新居浜市,中村１丁目１番４７号,,38,205,7920044,,,2026-01-16,登記官による閉鎖,,,2015-10-05,1,,,,,,0
792,2500001009970,登記記録の閉鎖等,0,2026-01-19,2026-01-16,株式会社山中建設,,株式会社,愛媛県,新居浜市,沢津町１丁目４番１６号,,38,205,7920862,,,2026-01-16,登記官による閉鎖,,,2015-10-05,1,,,,,,0
793,2500001010111,登記記録の閉鎖等,0,2026-01-19,2026-01-16,株式会社テクノス,,株式会社,愛媛県,新居浜市,八幡１丁目１９番３１号,,38,205,7920871,,,2026-01-16,登記官による閉鎖,,,2015-10-05,1,,,,,,0
794,2500001010144,登記記録の閉鎖等,0,2026-01-19,2026-01-16,株式会社ときわ,,株式会社,愛媛県,新居浜市,新須賀町３丁目１番２２１号,,38,205,7920802,,,2026-01-16,登記官による閉鎖,,,2015-10-05,1,,,,,,0
795,2500001010243,登記記録の閉鎖等,0,2026-01-19,2026-01-16,株式会社燧土木,,株式会社,愛媛県,新居浜市,若水町１丁目４番１９号,,38,205,7920017,,,2026-01-16,登記官による閉鎖,,,2015-10-05,1,,,,,,0
796,2500001010391,登記記録の閉鎖等,0,2026-01-19,2026-01-16,株式会社ジェイク,,株式会社,愛媛県,新居浜市,大生院２１５１番地の１０,,38,205,7920060,,,2026-01-16,登記官による閉鎖,,,2015-10-05,1,,,,,,0
797,2500001011019,登記記録の閉鎖等,0,2026-01-19,2026-01-16,アオイ産業株式会社,,株式会社,愛媛県,今治市,末広町２丁目４番地２１,,38,202,7940038,,,2026-01-16,登記官による閉鎖,,,2015-10-05,1,,,,,,0
798,2500001011076,登記記録の閉鎖等,0,2026-01-19,2026-01-16,あさひ住宅株式会社,,株式会社,愛媛県,今治市,美須賀町３丁目２番地３,,38,202,7940034,,,2026-01-16,登記官による閉鎖,,,2015-10-05,1,,,,,,0
799,2500001011101,登記記録の閉鎖等,0,2026-01-19,2026-01-16,株式会社石川組,,株式会社,愛媛県,今治市,郷本町２丁目６番７号,,38,202,7940823,,,2026-01-16,登記官による閉鎖,,,2015-10-05,1,,,,,,0
800,2500001011175,登記記録の閉鎖等,0,2026-01-19,2026-01-16,株式会社今治共同食糧,,株式会社,愛媛県,今治市,中寺２５８番地４,,38,202,7940840,,,2026-01-16,登記官による閉鎖,,,2015-10-05,1,,,,,,0
801,2500001011274,登記記録の閉鎖等,0,2026-01-19,2026-01-16,愛媛自動車部品株式会社,,株式会社,愛媛県,今治市,延喜乙３６番地１,,38,202,7940084,,,2026-01-16,登記官による閉鎖,,,2015-10-05,1,,,,,,0
802,2500001011547,登記記録の閉鎖等,0,2026-01-19,2026-01-16,株式会社ゴールドアベニュー,,株式会社,愛媛県,今治市,大西町脇甲６３８番地３,,38,202,7992206,,,2026-01-16,登記官による閉鎖,,,2015-10-05,1,,,,,,0
803,2500001011605,登記記録の閉鎖等,0,2026-01-19,2026-01-16,三康タオル株式会社,,株式会社,愛媛県,今治市,新谷甲１３１９番地５,,38,202,7940850,,,2026-01-16,登記官による閉鎖,,,2015-10-05,1,,,,,,0
804,2500001011662,登記記録の閉鎖等,0,2026-01-19,2026-01-16,株式会社四国道路建設,,株式会社,愛媛県,今治市,東門町１丁目３番地２,,38,202,7940033,,,2026-01-16,登記官による閉鎖,,,2015-10-05,1,,,,,,0
805,2500001011836,登記記録の閉鎖等,0,2026-01-19,2026-01-16,大真開発株式会社,,株式会社,愛媛県,今治市,高橋乙１７１番地１,,38,202,7940066,,,2026-01-16,登記官による閉鎖,,,2015-10-05,1,,,,,,0
806,2500001012207,登記記録の閉鎖等,0,2026-01-19,2026-01-16,姫屋こどもデパート株式会社,,株式会社,愛媛県,今治市,枝堀町１丁目２番地２９,,38,202,7940035,,,2026-01-16,登記官による閉鎖,,,2015-10-05,1,,,,,,0
807,2500001012223,登記記録の閉鎖等,0,2026-01-19,2026-01-16,株式会社ヒロヤ館,,株式会社,愛媛県,今治市,常盤町３丁目４番地８,,38,202,7940015,,,2026-01-16,登記官による閉鎖,,,2015-10-05,1,,,,,,0
808,2500001014384,登記記録の閉鎖等,0,2026-01-19,2026-01-16,ダンオーサービス株式会社,,株式会社,愛媛県,四国中央市,村松町３７５番地,,38,213,7990401,,,2026-01-16,登記官による閉鎖,,,2015-10-05,1,,,,,,0
809,2500001014772,登記記録の閉鎖等,0,2026-01-19,2026-01-16,星半紙業株式会社,,株式会社,愛媛県,四国中央市,金生町下分７４４番地の３,,38,213,7990111,,,2026-01-16,登記官による閉鎖,,,2015-10-05,1,,,,,,0
810,2500001015028,登記記録の閉鎖等,0,2026-01-19,2026-01-16,株式会社スマイルライフ,,株式会社,愛媛県,四国中央市,下柏町６６１番地１,,38,213,7990411,,,2026-01-16,登記官による閉鎖,,,2015-10-05,1,,,,,,0
811,2500001015309,登記記録の閉鎖等,0,2026-01-19,2026-01-16,ウッドメーカー株式会社,,株式会社,愛媛県,宇和島市,伊吹町甲８番地４,,38,203,7980022,,,2026-01-16,登記官による閉鎖,,,2015-10-05,1,,,,,,0
812,2500001015366,登記記録の閉鎖等,0,2026-01-19,2026-01-16,カネマツ株式会社,,株式会社,愛媛県,宇和島市,住吉町３丁目１番７号,,38,203,7980003,,,2026-01-16,登記官による閉鎖,,,2015-10-05,1,,,,,,0
813,2500001015374,登記記録の閉鎖等,0,2026-01-19,2026-01-16,株式会社ソンプ,,株式会社,愛媛県,宇和島市,柿原８２６番地,,38,203,7980027,,,2026-01-16,登記官による閉鎖,,,2015-10-05,1,,,,,,0
814,2500001015597,登記記録の閉鎖等,0,2026-01-19,2026-01-16,株式会社吉田,,株式会社,愛媛県,宇和島市,吉田町奥浦甲２９２３番地,,38,203,7993772,,,2026-01-16,登記官による閉鎖,,,2015-10-05,1,,,,,,0
815,2500001015614,登記記録の閉鎖等,0,2026-01-19,2026-01-16,北灘眞珠株式会社,,株式会社,愛媛県,宇和島市,津島町北灘丁１２９３番地,00007562,38,203,7983364,,,2026-01-16,登記官による閉鎖,,,2015-10-05,1,,,,,,0
816,2500001015696,登記記録の閉鎖等,0,2026-01-19,2026-01-16,西日本エステイト株式会社,,株式会社,愛媛県,宇和島市,三間町波岡７０５番地,,38,203,7981132,,,2026-01-16,登記官による閉鎖,,,2015-10-05,1,,,,,,0
817,2500001015738,登記記録の閉鎖等,0,2026-01-19,2026-01-16,興陽開発株式会社,,株式会社,愛媛県,南宇和郡愛南町,御荘長洲１２８４番地,,38,506,7984103,,,2026-01-16,登記官による閉鎖,,,2015-10-05,1,,,,,,0
818,2500001015779,登記記録の閉鎖等,0,2026-01-19,2026-01-16,株式会社宮崎建設,,株式会社,愛媛県,南宇和郡愛南町,城辺甲３２９２番地,,38,506,7984131,,,2026-01-16,登記官による閉鎖,,,2015-10-05,1,,,,,,0
819,2500001016447,登記記録の閉鎖等,0,2026-01-19,2026-01-16,株式会社住宅設備販売,,株式会社,愛媛県,新居浜市,坂井町３丁目４番１５６号,,38,205,7920812,,,2026-01-16,登記官による閉鎖,,,2015-10-05,1,,,,,,0
820,2500001016793,登記記録の閉鎖等,0,2026-01-19,2026-01-16,近代産業株式会社,,株式会社,愛媛県,宇和島市,並松２丁目３番２号,,38,203,7980074,,,2026-01-16,登記官による閉鎖,,,2015-10-05,1,,,,,,0
821,2500001017412,登記記録の閉鎖等,0,2026-01-19,2026-01-16,株式会社クアトロ,,株式会社,愛媛県,松山市,湊町５丁目４番地２５,,38,201,7900012,,,2026-01-16,登記官による閉鎖,,,2015-10-05,1,,,,,,0
822,2500002000326,登記記録の閉鎖等,0,2026-01-19,2026-01-16,有限会社マザーグース,,有限会社,愛媛県,松山市,北条辻５６７番地１,00007680,38,201,7992430,,,2026-01-16,登記官による閉鎖,,,2015-10-05,1,,,,,,0
824,2500002001290,登記記録の閉鎖等,0,2026-01-19,2026-01-05,愛媛造林有限会社,,有限会社,愛媛県,松山市,築山町７番５号,,38,201,7900864,,,2026-01-05,合併による解散等,6500001003458,令和７年１２月３１日愛媛県松山市大街道二丁目４番地１４株式会社ファースト（6500001003458）に合併し解散,2015-10-05,1,,,,,エヒメゾウリン,0
825,2500002015522,登記記録の閉鎖等,0,2026-01-19,2026-01-16,有限会社オートガレージクールラン,,有限会社,愛媛県,西条市,福武甲９８６番地,,38,206,7930035,,,2026-01-16,登記官による閉鎖,,,2015-10-05,1,,,,,,0
826,2500002015877,登記記録の閉鎖等,0,2026-01-19,2026-01-16,有限会社池田食品工場,,有限会社,愛媛県,新居浜市,庄内町３丁目１１番２４号,,38,205,7920811,,,2026-01-16,清算の結了等,,,2015-10-05,1,,,,,イケダショクヒンコウジョウ,0
831,3010001193640,登記記録の閉鎖等,0,2026-01-19,2025-12-19,株式会社エンジョイワーキング,,株式会社,千葉県,浦安市,富士見４丁目１３番３８－５０４号,,12,227,2790043,,,2025-12-19,清算の結了等,,,2018-07-31,1,,,,,エンジョイワーキング,0
832,3010001196577,登記記録の閉鎖等,0,2026-01-19,2025-12-22,株式会社ヴィータ,,株式会社,東京都,港区,港南１丁目７番１８号,,13,103,1080075,,,2025-12-22,清算の結了等,,,2018-11-29,1,,,,,ヴィータ,0
836,3010001237281,登記記録の閉鎖等,0,2026-01-19,2025-12-19,株式会社グローバル・サーモスタット・ジャパンＰＢＣ,,株式会社,東京都,千代田区,丸の内２丁目１番１号,,13,101,1000005,,,2025-12-19,清算の結了等,,,2023-07-31,1,,,,,グローバルサーモスタットジャパンピービーシー,0
843,3010003019455,登記記録の閉鎖等,0,2026-01-19,2025-12-19,芝ウインドアベニュー合同会社,,合同会社,東京都,千代田区,丸の内１丁目４番１号東京共同会計事務所内,,13,101,1000005,,,2025-12-19,清算の結了等,,,2015-10-05,1,,,,,シバウインドアベニュー,0
848,3010005021327,登記記録の閉鎖等,0,2026-01-19,2026-01-14,特定非営利活動法人江戸・商店観光振興会,,その他の設立登記法人,東京都,中央区,築地４丁目７番３号,,13,102,1040045,,,2026-01-14,清算の結了等,,,2015-10-05,1,,,,,エドショウテンカンコウシンコウカイ,0
857,3010501049945,登記記録の閉鎖等,0,2026-01-19,2026-01-08,青川株式会社,,株式会社,東京都,台東区,北上野２丁目２５番９号－４０５号室,,13,106,1100014,,,2026-01-08,清算の結了等,,,2023-02-03,1,,,,,アオカワ,0
863,3010703003923,登記記録の閉鎖等,0,2026-01-19,2026-01-05,合同会社オフィスＴＫＫ,,合同会社,埼玉県,さいたま市浦和区,常盤１丁目１番１１－９０４号,,11,107,3300061,,,2026-01-05,清算の結了等,,,2017-11-08,1,,,,,オフィスティーケーケー,0
914,3013302019191,登記記録の閉鎖等,0,2026-01-19,2026-01-07,有限会社ドリームワン,,有限会社,東京都,豊島区,東池袋１丁目４０番１１号東池袋ＴＹビル２階,,13,116,1700013,,,2026-01-07,合併による解散等,2013301013915,令和８年１月７日東京都豊島区池袋二丁目４０番１３号株式会社テスコーポレーション（2013301013915）に合併し解散,2015-10-05,1,,,,,ドリームワン,0
917,3020001137984,登記記録の閉鎖等,0,2026-01-19,2026-01-08,株式会社ｍｉｒｏｃ,,株式会社,神奈川県,横浜市中区,元浜町３丁目２３番地,,14,104,2310004,,,2026-01-08,清算の結了等,,,2020-10-07,1,,,,,ミロク,0
922,3020002066902,登記記録の閉鎖等,0,2026-01-19,2026-01-07,有限会社横浜名刀会,,有限会社,神奈川県,横浜市磯子区,岡村４丁目３番４号Ａ棟,,14,107,2350021,,,2026-01-07,清算の結了等,,,2015-10-05,1,,,,,ヨコハマメイトウカイ,0
937,3030001105552,登記記録の閉鎖等,0,2026-01-19,2026-01-07,株式会社Ｈａｐｐｙ　Ｆａｃｅ,,株式会社,埼玉県,入間市,大字野田８８５番地,,11,225,3580054,,,2026-01-07,清算の結了等,,,2015-10-05,1,,,,,ハッピーフェイス,0
956,3040003009247,登記記録の閉鎖等,0,2026-01-19,2025-12-17,ＹＵＫＥ合同会社,,合同会社,千葉県,船橋市,芝山３丁目３０番１３号棟４０４,,12,204,2740816,,,2025-12-17,清算の結了等,,,2016-11-01,1,,,,,ユーケー,0
961,3050001040715,登記記録の閉鎖等,0,2026-01-19,2026-01-07,株式会社ミノアカ,,株式会社,茨城県,つくば市,小野川１５番地３２,,08,220,3050053,,,2026-01-07,清算の結了等,,,2016-03-31,1,,,,,ミノアカ,0
967,3070001024393,登記記録の閉鎖等,0,2026-01-19,2026-01-13,株式会社濱田総合企画,,株式会社,群馬県,前橋市,石倉町５丁目１２番６号,,10,201,3710841,,,2026-01-13,清算の結了等,,,2015-10-05,1,,,,,ハマダソウゴウキカク,0
972,3080001022751,登記記録の閉鎖等,0,2026-01-19,2026-01-09,株式会社川南ファーム牧之原,,株式会社,静岡県,牧之原市,勝俣１６５６番地２,,22,226,4210414,,,2026-01-09,清算の結了等,,,2019-03-26,1,,,,,カワナンファームマキノハラ,0
984,3100002002428,登記記録の閉鎖等,0,2026-01-19,2026-01-14,有限会社島屋魚店,,有限会社,長野県,長野市,若穂保科２６８８番地,,20,201,3810102,,,2026-01-14,清算の結了等,,,2015-10-05,1,,,,,シマヤウオテン,0
999,3120001256691,登記記録の閉鎖等,0,2026-01-19,2026-01-09,ＢＢ綜合管理株式会社,,株式会社,大阪府,大阪市浪速区,元町２丁目１２番５号,,27,111,5560016,,,2026-01-09,清算の結了等,,,2023-07-25,1,,,,,ビービーソウゴウカンリ,0
1043,3180001168147,登記記録の閉鎖等,0,2026-01-19,2026-01-06,株式会社ＲＯＯＶＥ,,株式会社,愛知県,名古屋市中川区,服部３丁目２０１番地シャンポールミユキ１０１,,23,110,4540976,,,2026-01-06,清算の結了等,,,2025-08-19,1,,,,,ルーヴ,0
1045,3180003017203,登記記録の閉鎖等,0,2026-01-19,2026-01-05,合同会社フレンドリー,,合同会社,愛知県,春日井市,熊野町字中間１３５０－３９番,,23,206,4860822,,,2026-01-05,清算の結了等,,,2016-07-01,1,,,,,フレンドリー,0
1046,3180003024967,登記記録の閉鎖等,0,2026-01-19,2026-01-14,合同会社パプリカ,,合同会社,愛知県,名古屋市名東区,引山３丁目２２３番地パールアベニュー２２３・１０１号,,23,115,4650002,,,2026-01-14,清算の結了等,,,2023-03-14,1,,,,,パプリカ,0
1050,3180302021590,登記記録の閉鎖等,0,2026-01-19,2026-01-09,有限会社エリーヌ,,有限会社,愛知県,豊田市,篠原町五反田２番地４,,23,211,4700352,,,2026-01-09,清算の結了等,,,2015-10-05,1,,,,,エリーヌ,0
1052,3190001004409,登記記録の閉鎖等,0,2026-01-19,2026-01-09,株式会社興紀管工,,株式会社,三重県,尾鷲市,矢浜岡崎町２５０番地の１,,24,209,5193672,,,2026-01-09,清算の結了等,,,2015-10-05,1,,,,,コウキカンコウ,0
1055,3190005006070,登記記録の閉鎖等,0,2026-01-19,2026-01-13,特定非営利活動法人ケアセンターなの花,,その他の設立登記法人,三重県,伊賀市,千戸１３９３番地,,24,216,5181401,,,2026-01-13,清算の結了等,,,2015-10-05,1,,,,,ケアセンターナノハナ,0
1061,3200002007565,登記記録の閉鎖等,0,2026-01-19,2026-01-14,有限会社吉田製作所,00076881,有限会社,岐阜県,各務原市,鵜沼朝日町１丁目１２８番地３,,21,213,5090145,,,2026-01-14,清算の結了等,,,2015-10-05,1,,,,,ヨシダセイサクショ,0
1066,3220001012300,登記記録の閉鎖等,0,2026-01-19,2026-01-15,ノース石油株式会社,,株式会社,石川県,小松市,城南町１６番地,,17,203,9230941,,,2026-01-15,清算の結了等,,,2015-10-05,1,,,,,,0
1067,3240001044408,登記記録の閉鎖等,0,2026-01-19,2026-01-13,株式会社ライズ鑑定,,株式会社,広島県,広島市安佐南区,西原１丁目２０番３３号,,34,105,7310113,,,2026-01-13,清算の結了等,,,2015-10-05,1,,,,,,0
1074,3260002024670,登記記録の閉鎖等,0,2026-01-19,2026-01-15,有限会社安信技研,,有限会社,岡山県,岡山市南区,大福６２６番地５,,33,104,7010204,,,2026-01-15,清算の結了等,,,2015-10-05,1,,,,,ヤスノブギケン,0
1091,3320001004948,登記記録の閉鎖等,0,2026-01-19,2026-01-05,北部江藤産業株式会社,,株式会社,大分県,大分市,乙津町１番１８号,,44,201,8700145,,,2026-01-05,合併による解散等,8320001000629,令和８年１月１日大分市乙津町１番１８号江藤産業株式会社（8320001000629）に合併し解散,2015-10-05,1,,,,,ホクブエトウサンギョウ,0
1104,3370405000506,登記記録の閉鎖等,0,2026-01-19,2026-01-05,迫たばこ販売協同組合,,その他の設立登記法人,宮城県,登米市,迫町佐沼字光ケ丘４番地,,04,212,9870511,,,2026-01-05,清算の結了等,,,2015-10-05,1,,,,,ハサマタバコハンバイ,0
1106,3390002007729,登記記録の閉鎖等,0,2026-01-19,2026-01-13,有限会社トミ銘木,,有限会社,山形県,酒田市,東町１丁目１９番地の１２,,06,204,9980875,,,2026-01-13,清算の結了等,,,2015-10-05,1,,,,,,0
1120,3470002000279,登記記録の閉鎖等,0,2026-01-19,2025-12-25,有限会社香川クリーンリース,,有限会社,香川県,高松市,牟礼町牟礼２５８８番地３８,,37,201,7610121,,,2025-12-25,清算の結了等,,,2015-10-05,1,,,,,,0
1121,3480001000023,登記記録の閉鎖等,0,2026-01-19,2026-01-16,旭建材機器株式会社,,株式会社,徳島県,徳島市,佐古六番町１０番１１号,,36,201,7700026,,,2026-01-16,登記官による閉鎖,,,2015-10-05,1,,,,,,0
1122,3480001000510,登記記録の閉鎖等,0,2026-01-19,2026-01-16,株式会社木内,,株式会社,徳島県,徳島市,飯谷町白金谷３０番地１,,36,201,7714265,,,2026-01-16,登記官による閉鎖,,,2015-10-05,1,,,,,,0
1123,3480001000527,登記記録の閉鎖等,0,2026-01-19,2026-01-16,株式会社トモユキオンデマンド,,株式会社,徳島県,徳島市,佐古一番町８番１６号,,36,201,7700021,,,2026-01-16,登記官による閉鎖,,,2015-10-05,1,,,,,,0
1124,3480001000915,登記記録の閉鎖等,0,2026-01-19,2026-01-16,第一物産株式会社,,株式会社,徳島県,徳島市,南沖洲３丁目１１番４０－６０４号,,36,201,7700874,,,2026-01-16,登記官による閉鎖,,,2015-10-05,1,,,,,,0
1125,3480001000931,登記記録の閉鎖等,0,2026-01-19,2026-01-16,株式会社太平洋貿易,,株式会社,徳島県,徳島市,庄町５丁目４０番地１,,36,201,7700044,,,2026-01-16,登記官による閉鎖,,,2015-10-05,1,,,,,,0
1126,3480001000989,登記記録の閉鎖等,0,2026-01-19,2026-01-16,株式会社たかはま,,株式会社,徳島県,徳島市,南新町２丁目２１番地,,36,201,7700913,,,2026-01-16,登記官による閉鎖,,,2015-10-05,1,,,,,,0
1127,3480001001104,登記記録の閉鎖等,0,2026-01-19,2026-01-16,津保商事株式会社,,株式会社,徳島県,徳島市,元町１丁目１０番地,,36,201,7700834,,,2026-01-16,登記官による閉鎖,,,2015-10-05,1,,,,,,0
1128,3480001001376,登記記録の閉鎖等,0,2026-01-19,2026-01-16,株式会社徳島観光センター金泉閣,,株式会社,徳島県,徳島市,眉山町大滝山１番地の２、３,,36,201,7700908,,,2026-01-16,登記官による閉鎖,,,2015-10-05,1,,,,,,0
1129,3480001001921,登記記録の閉鎖等,0,2026-01-19,2026-01-16,株式会社パワーステーション,,株式会社,徳島県,徳島市,川内町米津９４番５,,36,201,7710139,,,2026-01-16,登記官による閉鎖,,,2015-10-05,1,,,,,,0
1130,3480001001938,登記記録の閉鎖等,0,2026-01-19,2026-01-16,株式会社ヴィス,,株式会社,徳島県,徳島市,新町橋２丁目１５番地,,36,201,7700904,,,2026-01-16,登記官による閉鎖,,,2015-10-05,1,,,,,,0
1131,3480001002069,登記記録の閉鎖等,0,2026-01-19,2026-01-16,ベルル興産株式会社,,株式会社,徳島県,徳島市,東大工町１丁目１９番地,,36,201,7700905,,,2026-01-16,登記官による閉鎖,,,2015-10-05,1,,,,,,0
1132,3480001002192,登記記録の閉鎖等,0,2026-01-19,2026-01-16,株式会社りら,,株式会社,徳島県,徳島市,蔵本元町３丁目３９番地の５,,36,201,7700041,,,2026-01-16,登記官による閉鎖,,,2015-10-05,1,,,,,,0
1133,3480001002639,登記記録の閉鎖等,0,2026-01-19,2026-01-16,株式会社オリジナルウエディング,,株式会社,徳島県,徳島市,中央通４丁目８番地２,,36,201,7700936,,,2026-01-16,登記官による閉鎖,,,2015-10-05,1,,,,,,0
1134,3480001002696,登記記録の閉鎖等,0,2026-01-19,2026-01-16,株式会社アンビション,,株式会社,徳島県,徳島市,栄町１丁目１３番地アンビシャスビル２階,,36,201,7700921,,,2026-01-16,登記官による閉鎖,,,2015-10-05,1,,,,,,0
1135,3480001002721,登記記録の閉鎖等,0,2026-01-19,2026-01-16,株式会社鼎コーポレーション,,株式会社,徳島県,徳島市,大松町榎原外５番地１０,,36,201,7708022,,,2026-01-16,登記官による閉鎖,,,2015-10-05,1,,,,,,0
1136,3480001002820,登記記録の閉鎖等,0,2026-01-19,2026-01-16,日本環境システム株式会社,,株式会社,徳島県,徳島市,城東町２丁目１番５５号城東ハイツ１０３号,,36,201,7700862,,,2026-01-16,登記官による閉鎖,,,2015-10-05,1,,,,,,0
1137,3480001002853,登記記録の閉鎖等,0,2026-01-19,2026-01-16,インテリジェンスキャピタル株式会社,,株式会社,徳島県,徳島市,佐古一番町８番１６号,,36,201,7700021,,,2026-01-16,登記官による閉鎖,,,2015-10-05,1,,,,,,0
1138,3480001003232,登記記録の閉鎖等,0,2026-01-19,2026-01-16,株式会社イーナ企画,,株式会社,徳島県,徳島市,沖浜東１丁目９番地,,36,201,7708053,,,2026-01-16,登記官による閉鎖,,,2015-10-05,1,,,,,,0
1139,3480001003463,登記記録の閉鎖等,0,2026-01-19,2026-01-16,南海産業株式会社,,株式会社,徳島県,小松島市,小松島町字新港４１番地,,36,203,7730001,,,2026-01-16,登記官による閉鎖,,,2015-10-05,1,,,,,,0
1140,3480001004494,登記記録の閉鎖等,0,2026-01-19,2026-01-16,西部商事株式会社,,株式会社,徳島県,吉野川市,鴨島町鴨島字神島４８４番地１,,36,205,7760010,,,2026-01-16,登記官による閉鎖,,,2015-10-05,1,,,,,,0
1141,3480001004701,登記記録の閉鎖等,0,2026-01-19,2026-01-16,王国株式会社,,株式会社,徳島県,吉野川市,鴨島町上浦字国中６５５番地４９,,36,205,7760037,,,2026-01-16,登記官による閉鎖,,,2015-10-05,1,,,,,,0
1142,3480001004965,登記記録の閉鎖等,0,2026-01-19,2026-01-16,関西振興株式会社,,株式会社,徳島県,鳴門市,撫養町小桑島字前浜２７６番地,,36,202,7720012,,,2026-01-16,登記官による閉鎖,,,2015-10-05,1,,,,,,0
1143,3480001005229,登記記録の閉鎖等,0,2026-01-19,2026-01-16,株式会社アロンコート徳島,,株式会社,徳島県,板野郡北島町,中村字岸ノ上１番地１８８,,36,402,7710203,,,2026-01-16,登記官による閉鎖,,,2015-10-05,1,,,,,,0
1144,3480001006607,登記記録の閉鎖等,0,2026-01-19,2026-01-16,うきき商事株式会社,,株式会社,徳島県,阿南市,宝田町今市中新開２５番地の１,,36,204,7740045,,,2026-01-16,登記官による閉鎖,,,2015-10-05,1,,,,,,0
1145,3480001006615,登記記録の閉鎖等,0,2026-01-19,2026-01-16,株式会社岡部建築事務所,,株式会社,徳島県,阿南市,橘町大浦７番地３,,36,204,7740023,,,2026-01-16,登記官による閉鎖,,,2015-10-05,1,,,,,,0
1146,3480001006648,登記記録の閉鎖等,0,2026-01-19,2026-01-16,株式会社久保商店,,株式会社,徳島県,阿南市,富岡町西新町６２番地１,,36,204,7740030,,,2026-01-16,登記官による閉鎖,,,2015-10-05,1,,,,,,0
1147,3480001006805,登記記録の閉鎖等,0,2026-01-19,2026-01-16,株式会社日本エコ・アース,,株式会社,徳島県,阿南市,那賀川町今津浦宮面７２番地３,,36,204,7791114,,,2026-01-16,登記官による閉鎖,,,2015-10-05,1,,,,,,0
1148,3480001007266,登記記録の閉鎖等,0,2026-01-19,2026-01-16,株式会社井川レンズ製作所,,株式会社,徳島県,美馬市,美馬町字鍵掛４２番地,,36,207,7712105,,,2026-01-16,登記官による閉鎖,,,2015-10-05,1,,,,,,0
1149,3480001007373,登記記録の閉鎖等,0,2026-01-19,2026-01-16,美水工業株式会社,,株式会社,徳島県,美馬市,穴吹町穴吹字奈良坂２０２番地１,,36,207,7770005,,,2026-01-16,登記官による閉鎖,,,2015-10-05,1,,,,,,0
1150,3480001007381,登記記録の閉鎖等,0,2026-01-19,2026-01-16,古宮工業株式会社,,株式会社,徳島県,美馬市,穴吹町古宮字生子屋敷８０１番地４,,36,207,7770007,,,2026-01-16,登記官による閉鎖,,,2015-10-05,1,,,,,,0
1151,3480001007415,登記記録の閉鎖等,0,2026-01-19,2026-01-16,株式会社吉田商事,,株式会社,徳島県,美馬郡つるぎ町,半田字紙屋２０５番地,,36,468,7794406,,,2026-01-16,登記官による閉鎖,,,2015-10-05,1,,,,,,0
1152,3480001007547,登記記録の閉鎖等,0,2026-01-19,2026-01-16,株式会社高井興業,,株式会社,徳島県,三好郡東みよし町,加茂２１６８番地１,,36,489,7794701,,,2026-01-16,登記官による閉鎖,,,2015-10-05,1,,,,,,0
1153,3480002000633,登記記録の閉鎖等,0,2026-01-19,2026-01-16,有限会社エムエスウッド,,有限会社,徳島県,徳島市,住吉２丁目４番１８号,,36,201,7700861,,,2026-01-16,登記官による閉鎖,,,2015-10-05,1,,,,,,0
1154,3480002000823,登記記録の閉鎖等,0,2026-01-19,2026-01-16,有限会社大柿商会,,有限会社,徳島県,徳島市,南矢三町３丁目６番２号,,36,201,7700005,,,2026-01-16,登記官による閉鎖,,,2015-10-05,1,,,,,,0
1155,3480002002150,登記記録の閉鎖等,0,2026-01-19,2026-01-16,有限会社カナピホール末広殿,,有限会社,徳島県,徳島市,仲之町３丁目９番地,,36,201,7700932,,,2026-01-16,登記官による閉鎖,,,2015-10-05,1,,,,,,0
1156,3480002007158,登記記録の閉鎖等,0,2026-01-19,2026-01-16,渭東建設有限会社,,有限会社,徳島県,徳島市,南沖洲２丁目４番１２号,,36,201,7700874,,,2026-01-16,登記官による閉鎖,,,2020-08-06,1,,,,,イトウケンセツ,0
1157,3480002007901,登記記録の閉鎖等,0,2026-01-19,2026-01-16,有限会社高橋農園,,有限会社,徳島県,勝浦郡勝浦町,大字三渓字上小川３７番地,,36,301,7714300,,,2026-01-16,登記官による閉鎖,,,2015-10-05,1,,,,,,0
1158,3480005002750,登記記録の閉鎖等,0,2026-01-19,2026-01-16,特定非営利活動法人徳島県起業経営者協議会,,その他の設立登記法人,徳島県,名西郡石井町,高川原字南島３９６番地５,,36,341,7793221,,,2026-01-16,登記官による閉鎖,,,2015-10-05,1,,,,,,0
1159,3480005002965,登記記録の閉鎖等,0,2026-01-19,2026-01-16,医療法人島野外科内科,,その他の設立登記法人,徳島県,吉野川市,川島町川島５９５番地,,36,205,7793301,,,2026-01-16,登記官による閉鎖,,,2015-10-05,1,,,,,,0
1160,3480005005522,登記記録の閉鎖等,0,2026-01-19,2026-01-16,協同組合まるせんデパート,,その他の設立登記法人,徳島県,三好市,池田町マチ２１８３番地,,36,208,7780002,,,2026-01-16,登記官による閉鎖,,,2015-10-05,1,,,,,,0
1163,3500001000037,登記記録の閉鎖等,0,2026-01-19,2026-01-16,株式会社愛光物産,,株式会社,愛媛県,松山市,和田甲３２９番地,,38,201,7992465,,,2026-01-16,登記官による閉鎖,,,2015-10-05,1,,,,,,0
1164,3500001000136,登記記録の閉鎖等,0,2026-01-19,2026-01-16,朋和汽船株式会社,,株式会社,愛媛県,松山市,浅海原甲５６０番地第２,,38,201,7992401,,,2026-01-16,登記官による閉鎖,,,2015-10-05,1,,,,,,0
1165,3500001000276,登記記録の閉鎖等,0,2026-01-19,2026-01-16,愛菱石油株式会社,,株式会社,愛媛県,松山市,問屋町９番２０号,,38,201,7918018,,,2026-01-16,登記官による閉鎖,,,2015-10-05,1,,,,,,0
1166,3500001000607,登記記録の閉鎖等,0,2026-01-19,2026-01-16,イヨックス株式会社,,株式会社,愛媛県,松山市,道後一万３番１９号,,38,201,7900844,,,2026-01-16,登記官による閉鎖,,,2015-10-05,1,,,,,,0
1167,3500001000664,登記記録の閉鎖等,0,2026-01-19,2026-01-16,株式会社エヒメ,,株式会社,愛媛県,松山市,三津２丁目６番５号,,38,201,7918061,,,2026-01-16,登記官による閉鎖,,,2015-10-05,1,,,,,,0
1168,3500001001159,登記記録の閉鎖等,0,2026-01-19,2026-01-16,株式会社おれんじ,,株式会社,愛媛県,松山市,久万ノ台１７６番地３,,38,201,7918016,,,2026-01-16,登記官による閉鎖,,,2015-10-05,1,,,,,,0
1169,3500001001365,登記記録の閉鎖等,0,2026-01-19,2026-01-16,株式会社キタヨン,,株式会社,愛媛県,松山市,空港通５丁目１０番６号,,38,201,7910054,,,2026-01-16,登記官による閉鎖,,,2015-10-05,1,,,,,,0
1170,3500001001563,登記記録の閉鎖等,0,2026-01-19,2026-01-16,株式会社コイケ,,株式会社,愛媛県,松山市,新浜町１１３４番地４,,38,201,7918083,,,2026-01-16,登記官による閉鎖,,,2015-10-05,1,,,,,,0
1171,3500001001613,登記記録の閉鎖等,0,2026-01-19,2026-01-16,株式会社工和コンサルタント,,株式会社,愛媛県,松山市,中央１丁目８番地３,,38,201,7918015,,,2026-01-16,登記官による閉鎖,,,2015-10-05,1,,,,,,0
1172,3500001001720,登記記録の閉鎖等,0,2026-01-19,2026-01-16,株式会社サンキ,,株式会社,愛媛県,松山市,三番町６丁目８番地３,,38,201,7900003,,,2026-01-16,登記官による閉鎖,,,2015-10-05,1,,,,,,0
1173,3500001001844,登記記録の閉鎖等,0,2026-01-19,2026-01-16,三洋通商株式会社,,株式会社,愛媛県,松山市,歩行町１丁目４番地２,,38,201,7900801,,,2026-01-16,登記官による閉鎖,,,2015-10-05,1,,,,,,0
1174,3500001001885,登記記録の閉鎖等,0,2026-01-19,2026-01-16,株式会社四国広企,,株式会社,愛媛県,松山市,土居田町７９３番地,,38,201,7900056,,,2026-01-16,登記官による閉鎖,,,2015-10-05,1,,,,,,0
1175,3500001002132,登記記録の閉鎖等,0,2026-01-19,2026-01-16,株式会社正栄実業,,株式会社,愛媛県,松山市,余戸南５丁目５番１５号,,38,201,7900047,,,2026-01-16,登記官による閉鎖,,,2015-10-05,1,,,,,,0
1176,3500001002339,登記記録の閉鎖等,0,2026-01-19,2026-01-16,成和ハウス株式会社,,株式会社,愛媛県,松山市,天山町１９４番地２,,38,201,7900951,,,2026-01-16,登記官による閉鎖,,,2015-10-05,1,,,,,,0
1177,3500001002363,登記記録の閉鎖等,0,2026-01-19,2026-01-16,瀬戸内企工株式会社,,株式会社,愛媛県,松山市,西垣生町１７２２番地３０,,38,201,7918044,,,2026-01-16,登記官による閉鎖,,,2015-10-05,1,,,,,,0
1178,3500001002371,登記記録の閉鎖等,0,2026-01-19,2026-01-16,セトウチハイツ株式会社,,株式会社,愛媛県,松山市,高砂町１丁目１番１,,38,201,7900822,,,2026-01-16,登記官による閉鎖,,,2015-10-05,1,,,,,,0
1179,3500001002413,登記記録の閉鎖等,0,2026-01-19,2026-01-16,株式会社創鮮会,,株式会社,愛媛県,松山市,古川南２丁目１９番２５号,,38,201,7900943,,,2026-01-16,登記官による閉鎖,,,2015-10-05,1,,,,,,0
1180,3500001002776,登記記録の閉鎖等,0,2026-01-19,2026-01-16,株式会社テーラーファッション,,株式会社,愛媛県,松山市,山越１丁目１１番３号,,38,201,7918013,,,2026-01-16,登記官による閉鎖,,,2015-10-05,1,,,,,,0
1181,3500001002859,登記記録の閉鎖等,0,2026-01-19,2026-01-16,株式会社東邦プランニング,,株式会社,愛媛県,松山市,湊町４丁目１番地１２,,38,201,7900012,,,2026-01-16,登記官による閉鎖,,,2015-10-05,1,,,,,,0
1182,3500001003097,登記記録の閉鎖等,0,2026-01-19,2026-01-16,日本モーゲージ株式会社,,株式会社,愛媛県,松山市,一番町２丁目５番地３３,,38,201,7900001,,,2026-01-16,登記官による閉鎖,,,2015-10-05,1,,,,,,0
1183,3500001003403,登記記録の閉鎖等,0,2026-01-19,2026-01-16,株式会社ビジコン,,株式会社,愛媛県,松山市,中央１丁目２２番９号,,38,201,7918015,,,2026-01-16,登記官による閉鎖,,,2015-10-05,1,,,,,,0
1184,3500001003428,登記記録の閉鎖等,0,2026-01-19,2026-01-16,株式会社ひめや呉服店,,株式会社,愛媛県,松山市,小坂４丁目３番１９号,,38,201,7900963,,,2026-01-16,登記官による閉鎖,,,2015-10-05,1,,,,,,0
1185,3500001003477,登記記録の閉鎖等,0,2026-01-19,2026-01-16,フィデリオ電子株式会社,,株式会社,愛媛県,松山市,北久米町６６４番地１１,,38,201,7900923,,,2026-01-16,登記官による閉鎖,,,2015-10-05,1,,,,,,0
1186,3500001003626,登記記録の閉鎖等,0,2026-01-19,2026-01-16,株式会社ベスト自動車,,株式会社,愛媛県,松山市,東石井４丁目１１番１３号,,38,201,7900932,,,2026-01-16,登記官による閉鎖,,,2015-10-05,1,,,,,,0
1187,3500001003675,登記記録の閉鎖等,0,2026-01-19,2026-01-16,株式会社穂積,,株式会社,愛媛県,松山市,勝山町１丁目１５番地３,,38,201,7900878,,,2026-01-16,登記官による閉鎖,,,2015-10-05,1,,,,,,0
1188,3500001003907,登記記録の閉鎖等,0,2026-01-19,2026-01-16,松本紙工株式会社,,株式会社,愛媛県,松山市,久保田町２８５番地２,,38,201,7918035,,,2026-01-16,登記官による閉鎖,,,2015-10-05,1,,,,,,0
1189,3500001003989,登記記録の閉鎖等,0,2026-01-19,2026-01-16,株式会社ミクト,,株式会社,愛媛県,松山市,一番町１丁目１４番地１０,,38,201,7900001,,,2026-01-16,登記官による閉鎖,,,2015-10-05,1,,,,,,0
1190,3500001004062,登記記録の閉鎖等,0,2026-01-19,2026-01-16,京都信用株式会社,,株式会社,愛媛県,松山市,二番町１丁目１１番地５,,38,201,7900002,,,2026-01-16,登記官による閉鎖,,,2015-10-05,1,,,,,,0
1191,3500001004302,登記記録の閉鎖等,0,2026-01-19,2026-01-16,株式会社ヨシダ,,株式会社,愛媛県,松山市,和気町１丁目４４４番地１,,38,201,7992656,,,2026-01-16,登記官による閉鎖,,,2015-10-05,1,,,,,,0
1192,3500001004483,登記記録の閉鎖等,0,2026-01-19,2026-01-16,株式会社環境保全研究所,,株式会社,愛媛県,松山市,下難波甲３２番地５１,,38,201,7992407,,,2026-01-16,登記官による閉鎖,,,2015-10-05,1,,,,,,0
1193,3500001004509,登記記録の閉鎖等,0,2026-01-19,2026-01-16,株式会社アイティーエージェンシー,,株式会社,愛媛県,松山市,来住町１２７９番地１,,38,201,7911102,,,2026-01-16,登記官による閉鎖,,,2015-10-05,1,,,,,,0
1194,3500001004707,登記記録の閉鎖等,0,2026-01-19,2026-01-16,株式会社酔媛酒彦,,株式会社,愛媛県,伊予市,米湊２２０番地,,38,210,7993113,,,2026-01-16,登記官による閉鎖,,,2015-10-05,1,,,,,,0
1195,3500001004789,登記記録の閉鎖等,0,2026-01-19,2026-01-16,株式会社報徳土建,,株式会社,愛媛県,伊予市,三秋字離山丙６番地４１２,,38,210,7993124,,,2026-01-16,登記官による閉鎖,,,2015-10-05,1,,,,,,0
1196,3500001004954,登記記録の閉鎖等,0,2026-01-19,2026-01-16,株式会社山内プリンテク,,株式会社,愛媛県,松山市,森松町４９６番地５,,38,201,7911113,,,2026-01-16,登記官による閉鎖,,,2015-10-05,1,,,,,,0
1197,3500001005069,登記記録の閉鎖等,0,2026-01-19,2026-01-16,株式会社ケイ・ピー・ティー・シー,,株式会社,愛媛県,松山市,空港通１丁目８番１５号,,38,201,7900054,,,2026-01-16,登記官による閉鎖,,,2015-10-05,1,,,,,,0
1198,3500001007164,登記記録の閉鎖等,0,2026-01-19,2026-01-16,株式会社プロテック,,株式会社,愛媛県,東温市,田窪１７７８番地,,38,215,7910212,,,2026-01-16,登記官による閉鎖,,,2015-10-05,1,,,,,,0
1199,3500001007230,登記記録の閉鎖等,0,2026-01-19,2026-01-16,株式会社三食,,株式会社,愛媛県,東温市,南方２０６１番地２,,38,215,7910301,,,2026-01-16,登記官による閉鎖,,,2015-10-05,1,,,,,,0
1200,3500001007940,登記記録の閉鎖等,0,2026-01-19,2026-01-16,株式会社めん恋クラブ,,株式会社,愛媛県,西予市,宇和町下松葉４５７番地,,38,214,7970018,,,2026-01-16,登記官による閉鎖,,,2015-10-05,1,,,,,,0
1201,3500001008410,登記記録の閉鎖等,0,2026-01-19,2026-01-16,株式会社古田興業,,株式会社,愛媛県,八幡浜市,保内町宮内５番耕地２６５番地２,,38,204,7960202,,,2026-01-16,登記官による閉鎖,,,2015-10-05,1,,,,,,0
1202,3500001008451,登記記録の閉鎖等,0,2026-01-19,2026-01-16,株式会社ミツワ産業,,株式会社,愛媛県,八幡浜市,八代９２番地,,38,204,7968007,,,2026-01-16,登記官による閉鎖,,,2015-10-05,1,,,,,,0
1203,3500001008963,登記記録の閉鎖等,0,2026-01-19,2026-01-16,株式会社西條あみもの,,株式会社,愛媛県,西条市,朔日市字横黒２６番地３,,38,206,7930027,,,2026-01-16,登記官による閉鎖,,,2015-10-05,1,,,,,,0
1204,3500001009235,登記記録の閉鎖等,0,2026-01-19,2026-01-16,株式会社エステート愛媛,,株式会社,愛媛県,西条市,河原津甲１９４番地の１,,38,206,7991303,,,2026-01-16,登記官による閉鎖,,,2015-10-05,1,,,,,,0
1205,3500001009581,登記記録の閉鎖等,0,2026-01-19,2026-01-16,株式会社朝日電業社,,株式会社,愛媛県,新居浜市,若水町１丁目１番６号,,38,205,7920017,,,2026-01-16,登記官による閉鎖,,,2015-10-05,1,,,,,,0
1206,3500001009607,登記記録の閉鎖等,0,2026-01-19,2026-01-16,株式会社アジア環境科学技術研究所,,株式会社,愛媛県,新居浜市,黒島９３９番地９８,,38,205,7920892,,,2026-01-16,登記官による閉鎖,,,2015-10-05,1,,,,,,0
1207,3500001009648,登記記録の閉鎖等,0,2026-01-19,2026-01-16,株式会社ウイメンズクラブ風,,株式会社,愛媛県,新居浜市,横水町１４番１３号,,38,205,7920033,,,2026-01-16,登記官による閉鎖,,,2015-10-05,1,,,,,,0
1208,3500001009697,登記記録の閉鎖等,0,2026-01-19,2026-01-16,エコロジーアシストジャパン株式会社,,株式会社,愛媛県,新居浜市,北新町１番２０号,,38,205,7920004,,,2026-01-16,登記官による閉鎖,,,2015-10-05,1,,,,,,0
1209,3500001009722,登記記録の閉鎖等,0,2026-01-19,2026-01-16,株式会社凰容福祉研究所,,株式会社,愛媛県,新居浜市,光明寺２丁目甲８番地,,38,205,7920853,,,2026-01-16,登記官による閉鎖,,,2015-10-05,1,,,,,,0
1210,3500001009904,登記記録の閉鎖等,0,2026-01-19,2026-01-16,佐々木興産株式会社,,株式会社,愛媛県,新居浜市,八幡１丁目１５番５９号,,38,205,7920871,,,2026-01-16,登記官による閉鎖,,,2015-10-05,1,,,,,,0
1211,3500001010028,登記記録の閉鎖等,0,2026-01-19,2026-01-16,株式会社成備堂,,株式会社,愛媛県,新居浜市,東雲町１丁目１番５４号,,38,205,7920864,,,2026-01-16,登記官による閉鎖,,,2015-10-05,1,,,,,,0
1212,3500001010382,登記記録の閉鎖等,0,2026-01-19,2026-01-16,株式会社ジンノ,,株式会社,愛媛県,新居浜市,船木１９７７番地の１,,38,205,7920856,,,2026-01-16,登記官による閉鎖,,,2015-10-05,1,,,,,,0
1213,3500001010399,登記記録の閉鎖等,0,2026-01-19,2026-01-16,株式会社東予ハウジング,,株式会社,愛媛県,新居浜市,泉宮町５番８号,,38,205,7920021,,,2026-01-16,登記官による閉鎖,,,2015-10-05,1,,,,,,0
1214,3500001011100,登記記録の閉鎖等,0,2026-01-19,2026-01-16,株式会社池田組,,株式会社,愛媛県,今治市,波方町樋口甲２２２５番地５甲２２２６番地６,00007474,38,202,7992102,,,2026-01-16,登記官による閉鎖,,,2015-10-05,1,,,,,,0
1215,3500001011141,登記記録の閉鎖等,0,2026-01-19,2026-01-16,株式会社イマレイ,,株式会社,愛媛県,今治市,天保山町５丁目２番５号,,38,202,7940032,,,2026-01-16,登記官による閉鎖,,,2015-10-05,1,,,,,,0
1216,3500001011216,登記記録の閉鎖等,0,2026-01-19,2026-01-16,今治冷凍販賣株式会社,,株式会社,愛媛県,今治市,天保山町５丁目１８２７番地６５,,38,202,7940032,,,2026-01-16,登記官による閉鎖,,,2015-10-05,1,,,,,,0
1217,3500001011397,登記記録の閉鎖等,0,2026-01-19,2026-01-16,株式会社片山百貨,,株式会社,愛媛県,今治市,常盤町３丁目３番地３,,38,202,7940015,,,2026-01-16,登記官による閉鎖,,,2015-10-05,1,,,,,,0
1218,3500001011827,登記記録の閉鎖等,0,2026-01-19,2026-01-16,大協設備株式会社,,株式会社,愛媛県,今治市,延喜字畑井田甲２９８番地１,,38,202,7940084,,,2026-01-16,登記官による閉鎖,,,2015-10-05,1,,,,,,0
1219,3500001011926,登記記録の閉鎖等,0,2026-01-19,2026-01-16,株式会社谷口運動具店,,株式会社,愛媛県,今治市,共栄町２丁目２番地５３,,38,202,7940024,,,2026-01-16,登記官による閉鎖,,,2015-10-05,1,,,,,,0
1220,3500001012206,登記記録の閉鎖等,0,2026-01-19,2026-01-16,姫屋株式会社,,株式会社,愛媛県,今治市,南日吉町１丁目２番２０号,,38,202,7940056,,,2026-01-16,登記官による閉鎖,,,2015-10-05,1,,,,,,0
1221,3500001012387,登記記録の閉鎖等,0,2026-01-19,2026-01-16,南自動車工業株式会社,,株式会社,愛媛県,今治市,大西町脇甲１８２８番地１,,38,202,7992206,,,2026-01-16,登記官による閉鎖,,,2015-10-05,1,,,,,,0
1222,3500001012453,登記記録の閉鎖等,0,2026-01-19,2026-01-16,株式会社八木鉄工,,株式会社,愛媛県,今治市,波方町養老甲７３８番地１９,,38,202,7992109,,,2026-01-16,登記官による閉鎖,,,2015-10-05,1,,,,,,0
1223,3500001012627,登記記録の閉鎖等,0,2026-01-19,2026-01-16,南原クリーン工業株式会社,,株式会社,愛媛県,今治市,大新田町５丁目４番５４号,,38,202,7940005,,,2026-01-16,登記官による閉鎖,,,2015-10-05,1,,,,,,0
1224,3500001013146,登記記録の閉鎖等,0,2026-01-19,2026-01-16,株式会社スリーエスプロダクツ,,株式会社,愛媛県,今治市,中寺５９４番地４,,38,202,7940840,,,2026-01-16,登記官による閉鎖,,,2015-10-05,1,,,,,,0
1225,3500001014557,登記記録の閉鎖等,0,2026-01-19,2026-01-16,宇摩建設株式会社,,株式会社,愛媛県,四国中央市,金田町半田丁５３１番地,,38,213,7990122,,,2026-01-16,登記官による閉鎖,,,2015-10-05,1,,,,,,0
1226,3500001014722,登記記録の閉鎖等,0,2026-01-19,2026-01-16,土肥硝子工業株式会社,,株式会社,愛媛県,四国中央市,金生町下分８６３番地,,38,213,7990111,,,2026-01-16,登記官による閉鎖,,,2015-10-05,1,,,,,,0
1227,3500001014838,登記記録の閉鎖等,0,2026-01-19,2026-01-16,株式会社ヨシダフード,,株式会社,愛媛県,四国中央市,上分町５１３番地２,,38,213,7990121,,,2026-01-16,登記官による閉鎖,,,2015-10-05,1,,,,,,0
1228,3500001015365,登記記録の閉鎖等,0,2026-01-19,2026-01-16,カネマツ運輸株式会社,,株式会社,愛媛県,宇和島市,住吉町３丁目１番７号,,38,203,7980003,,,2026-01-16,登記官による閉鎖,,,2015-10-05,1,,,,,,0
1229,3500001015506,登記記録の閉鎖等,0,2026-01-19,2026-01-16,株式会社フイエスタオフイス,,株式会社,愛媛県,宇和島市,天神町９番２３号,,38,203,7980036,,,2026-01-16,登記官による閉鎖,,,2015-10-05,1,,,,,,0
1231,3500001017015,登記記録の閉鎖等,0,2026-01-19,2026-01-16,株式会社まるっころ,,株式会社,愛媛県,松山市,南吉田町２８２１番地４,,38,201,7918042,,,2026-01-16,登記官による閉鎖,,,2015-10-05,1,,,,,,0
1232,3500002007304,登記記録の閉鎖等,0,2026-01-19,2026-01-16,有限会社ワイ・エヌ・サンプロジェクト,,有限会社,愛媛県,松山市,余戸東３丁目３番２７号,,38,201,7900044,,,2026-01-16,登記官による閉鎖,,,2015-10-05,1,,,,,,0
1233,3500002018458,登記記録の閉鎖等,0,2026-01-19,2026-01-16,有限会社スーパーワールドクラブ,,有限会社,愛媛県,今治市,河南町２丁目４番１号,,38,202,7940822,,,2026-01-16,登記官による閉鎖,,,2015-10-05,1,,,,,,0
1234,3500002019167,登記記録の閉鎖等,0,2026-01-19,2026-01-16,有限会社マルホ商店,,有限会社,愛媛県,今治市,菊間町田之尻７４８番地,,38,202,7992312,,,2026-01-16,登記官による閉鎖,,,2015-10-05,1,,,,,マルホショウテン,0
1235,3500002021643,登記記録の閉鎖等,0,2026-01-19,2026-01-16,有限会社シゲモリ,,有限会社,愛媛県,四国中央市,妻鳥町２０１８番地５,,38,213,7990113,,,2026-01-16,登記官による閉鎖,,,2015-10-05,1,,,,,,0
1236,3500002022880,登記記録の閉鎖等,0,2026-01-19,2026-01-16,有限会社田中電気工事店,,有限会社,愛媛県,宇和島市,中央町２丁目２番２８号,,38,203,7980040,,,2026-01-16,登記官による閉鎖,,,2015-10-05,1,,,,,,0
1242,4010001036476,登記記録の閉鎖等,0,2026-01-19,2025-12-22,株式会社葵大槻,,株式会社,東京都,中央区,日本橋浜町２丁目１１番２－８０１号,,13,102,1030007,,,2025-12-22,清算の結了等,,,2015-10-05,1,,,,,,0
1247,4010001222753,登記記録の閉鎖等,0,2026-01-19,2025-12-19,Ｂｕｓｔｅｒ　ａｎｄ　Ｐｕｎｃｈ株式会社,,株式会社,東京都,中央区,日本橋室町４丁目３番９号,,13,102,1030022,,,2025-12-19,清算の結了等,,,2021-11-26,1,,,,,バスターアンドパンチ,0
1305,4011103013628,登記記録の閉鎖等,0,2026-01-19,2026-01-15,縁空合同会社,,合同会社,東京都,板橋区,赤塚２丁目１２番６号,,13,119,1750092,,,2026-01-15,清算の結了等,,,2023-10-19,1,,,,,エンク,0
1309,4011301020013,登記記録の閉鎖等,0,2026-01-19,2026-01-08,株式会社日本ＳＩＴ,,株式会社,東京都,杉並区,高円寺北２丁目２０番６号,,13,115,1660002,,,2026-01-08,清算の結了等,,,2015-10-05,1,,,,,ニホンエスアイティ,0
1335,4020002105510,登記記録の閉鎖等,0,2026-01-19,2025-12-19,株式会社リシャイン,,株式会社,神奈川県,藤沢市,辻堂５丁目３番４号,,14,205,2510047,,,2025-12-19,清算の結了等,,,2015-10-05,1,,,,,リシャイン,0
1346,4021002051934,登記記録の閉鎖等,0,2026-01-19,2025-12-19,有限会社サンライズ,,有限会社,神奈川県,小田原市,飯田岡２２３番地,,14,206,2500854,,,2025-12-19,清算の結了等,,,2015-10-05,1,,,,,サンライズ,0
1348,4021002062758,登記記録の閉鎖等,0,2026-01-19,2025-12-22,石渡運送有限会社,,有限会社,神奈川県,横須賀市,芦名２丁目２０番３０号,,14,201,2400104,,,2025-12-22,清算の結了等,,,2015-10-05,1,,,,,イシワタウンソウ,0
1349,4021003014337,登記記録の閉鎖等,0,2026-01-19,2025-12-19,合同会社未来商店,,合同会社,神奈川県,足柄下郡湯河原町,土肥２丁目２―２,,14,384,2590303,,,2025-12-19,清算の結了等,,,2024-04-02,1,,,,,ミライショウテン,0
1360,4030002096071,登記記録の閉鎖等,0,2026-01-19,2026-01-08,有限会社中央ハウス,,有限会社,埼玉県,東松山市,大字岩殿１９番地８,,11,212,3550065,,,2026-01-08,清算の結了等,,,2015-10-05,1,,,,,チュウオウハウス,0
1362,4030003026408,登記記録の閉鎖等,0,2026-01-19,2026-01-08,合同会社ＰＴ　ＳＨＯＰ,,合同会社,埼玉県,戸田市,美女木１丁目１７－１４ライオンズマンション武蔵浦和第５－１０３号１,,11,224,3350031,,,2026-01-08,清算の結了等,,,2025-03-28,1,,,,,ピーティーショップ,0
1367,4040001137866,登記記録の閉鎖等,0,2026-01-19,2025-12-18,株式会社ラブインブルーム,,株式会社,千葉県,野田市,山崎２０９７番地の４,,12,208,2780022,,,2025-12-18,清算の結了等,,,2025-03-17,1,,,,,ラブインブルーム,0
1368,4040002047362,登記記録の閉鎖等,0,2026-01-19,2025-12-19,有限会社同栄商事,,有限会社,千葉県,松戸市,栄町西３丁目１０４２番地,,12,207,2710061,,,2025-12-19,清算の結了等,,,2015-10-05,1,,,,,ドウエイショウジ,0
1377,4050002030474,登記記録の閉鎖等,0,2026-01-19,2025-12-25,有限会社倉持工業,,有限会社,茨城県,日立市,河原子町２丁目８番１１号,,08,202,3160005,,,2025-12-25,清算の結了等,,,2015-10-05,1,,,,,クラモチコウギョウ,0
1389,4080002015118,登記記録の閉鎖等,0,2026-01-19,2026-01-09,有限会社金剛パーカーライジング,,有限会社,静岡県,牧之原市,静波２４５０番地,,22,226,4210422,,,2026-01-09,清算の結了等,,,2015-10-05,1,,,,,コンゴウパーカーライジング,0
1401,4110002032910,登記記録の閉鎖等,0,2026-01-19,2026-01-09,有限会社サンフラワー,,有限会社,新潟県,南魚沼市,塩沢２１０番地,,15,226,9496408,,,2026-01-09,清算の結了等,,,2015-10-05,1,,,,,サンフラワー,0
1403,4120001065662,登記記録の閉鎖等,0,2026-01-19,2026-01-15,株式会社眞和,,株式会社,大阪府,大阪市北区,西天満２丁目９番２号,,27,127,5300047,,,2026-01-15,清算の結了等,,,2015-10-05,1,,,,,シンワ,0
1412,4120001275451,登記記録の閉鎖等,0,2026-01-19,2026-01-14,泰川株式会社,,株式会社,大阪府,大阪市都島区,都島中通２丁目１１番１０－１０１号,,27,102,5340022,,,2026-01-14,清算の結了等,,,2025-05-12,1,,,,,ヤスカワ,0
1425,4130001044723,登記記録の閉鎖等,0,2026-01-19,2026-01-14,株式会社フォレスト倶楽部マネージメント,,株式会社,京都府,京都市山科区,竹鼻竹ノ街道町５６番地,,26,110,6078080,,,2026-01-14,清算の結了等,,,2015-10-05,1,,,,,フォレストクラブマネージメント,0
1430,4130005007684,登記記録の閉鎖等,0,2026-01-19,2026-01-13,農事組合法人グリーン日吉,,その他の設立登記法人,京都府,南丹市,日吉町保野田島田２２番地１,,26,213,6290301,,,2026-01-13,清算の結了等,,,2015-10-05,1,,,,,,0
1452,4190001027672,登記記録の閉鎖等,0,2026-01-19,2026-01-09,株式会社ルースター,,株式会社,三重県,桑名市,大字安永９２６番地,,24,205,5110839,,,2026-01-09,清算の結了等,,,2020-09-24,1,,,,,ルースター,0
1457,4200001034709,登記記録の閉鎖等,0,2026-01-19,2026-01-13,株式会社ＴＨＡ,,株式会社,岐阜県,羽島郡岐南町,みやまち４丁目１０２番地の２,,21,302,5016019,,,2026-01-13,清算の結了等,,,2017-12-11,1,,,,,,0
1464,4210002013735,登記記録の閉鎖等,0,2026-01-19,2026-01-13,有限会社畿北ソイルテック,,有限会社,福井県,小浜市,生守１２号５１番５,,18,204,9170027,,,2026-01-13,清算の結了等,,,2015-10-05,1,,,,,キホクソイルテック,0
1470,4240002039711,登記記録の閉鎖等,0,2026-01-19,2026-01-13,有限会社エムツー設計,,有限会社,広島県,福山市,光南町１丁目８番２２－５０７号,,34,207,7200814,,,2026-01-13,清算の結了等,,,2015-10-05,1,,,,,エムツーセッケイ,0
1486,4290002026341,登記記録の閉鎖等,0,2026-01-19,2026-01-15,株式会社はなさくら,,株式会社,福岡県,福岡市中央区,春吉２丁目４番１１号,,40,133,8100003,,,2026-01-15,合併による解散等,5350001002187,令和８年１月１日宮崎市橘通東三丁目８番２１号株式会社レジャークリエイトホールディングス（5350001002187）に合併し解散,2015-10-05,1,,,,,ハナサクラ,0
1502,4330005004026,登記記録の閉鎖等,0,2026-01-19,2026-01-08,ＮＰＯ法人だれにも音楽祭,,その他の設立登記法人,熊本県,上益城郡益城町,大字福富８２２番地,,43,443,8612235,,,2026-01-08,清算の結了等,,,2015-10-05,1,,,,,ダレニモオンガクサイ,0
1513,4370002015154,登記記録の閉鎖等,0,2026-01-19,2026-01-14,有限会社ハーバーグループ,,有限会社,宮城県,仙台市若林区,六丁の目中町１６番４５号,,04,103,9840012,,,2026-01-14,清算の結了等,,,2015-10-05,1,,,,,ハーバーグループ,0
1522,4410002013277,登記記録の閉鎖等,0,2026-01-19,2026-01-15,有限会社吉岡一義商店,,有限会社,秋田県,横手市,大沢字山下１３４番地,,05,203,0130041,,,2026-01-15,清算の結了等,,,2015-10-05,1,,,,,ヨシオカカズヨシショウテン,0
1523,4420002019067,登記記録の閉鎖等,0,2026-01-19,2026-01-13,有限会社長畑保険事務所,,有限会社,青森県,十和田市,東十五番町５３番１８号,,02,206,0340034,,,2026-01-13,清算の結了等,,,2015-10-05,1,,,,,ナガハタホケンジムショ,0
1532,4480001000385,登記記録の閉鎖等,0,2026-01-19,2026-01-16,株式会社小川創研,,株式会社,徳島県,徳島市,安宅１丁目１１１番地,,36,201,7700863,,,2026-01-16,登記官による閉鎖,,,2015-10-05,1,,,,,,0
1533,4480001000914,登記記録の閉鎖等,0,2026-01-19,2026-01-16,大起建設株式会社,,株式会社,徳島県,徳島市,国府町府中字光善寺１８６番地３,,36,201,7793122,,,2026-01-16,登記官による閉鎖,,,2015-10-05,1,,,,,,0
1534,4480001001061,登記記録の閉鎖等,0,2026-01-19,2026-01-16,株式会社玉井経済研究所,,株式会社,徳島県,徳島市,上八万町西山１４７５番地,,36,201,7708041,,,2026-01-16,登記官による閉鎖,,,2015-10-05,1,,,,,,0
1535,4480001001326,登記記録の閉鎖等,0,2026-01-19,2026-01-16,株式会社テイ・ビイ・シー徳島ビジネスコンピュータ,,株式会社,徳島県,徳島市,川内町榎瀬４５５番地２,,36,201,7710144,,,2026-01-16,登記官による閉鎖,,,2015-10-05,1,,,,,,0
1536,4480001001805,登記記録の閉鎖等,0,2026-01-19,2026-01-16,株式会社東昭,,株式会社,徳島県,徳島市,南昭和町３丁目２５番地,,36,201,7700944,,,2026-01-16,登記官による閉鎖,,,2015-10-05,1,,,,,,0
1537,4480001002010,登記記録の閉鎖等,0,2026-01-19,2026-01-16,藤井醸造株式会社,,株式会社,徳島県,徳島市,佐古六番町６番２８号,,36,201,7700026,,,2026-01-16,登記官による閉鎖,,,2015-10-05,1,,,,,,0
1538,4480001002068,登記記録の閉鎖等,0,2026-01-19,2026-01-16,株式会社ベルル,,株式会社,徳島県,徳島市,東大工町１丁目１９番地,,36,201,7700905,,,2026-01-16,登記官による閉鎖,,,2015-10-05,1,,,,,,0
1539,4480001002167,登記記録の閉鎖等,0,2026-01-19,2026-01-16,株式会社リアルタ,,株式会社,徳島県,徳島市,沖浜東１丁目６４番地５,,36,201,7708053,,,2026-01-16,登記官による閉鎖,,,2015-10-05,1,,,,,,0
1540,4480001002225,登記記録の閉鎖等,0,2026-01-19,2026-01-16,株式会社ワールド・クラス,,株式会社,徳島県,徳島市,寺島本町西１丁目４２番地,,36,201,7700831,,,2026-01-16,登記官による閉鎖,,,2015-10-05,1,,,,,,0
1541,4480001002233,登記記録の閉鎖等,0,2026-01-19,2026-01-16,株式会社毎朝新聞社,,株式会社,徳島県,徳島市,三軒屋町外２４番地１,,36,201,7708025,,,2026-01-16,登記官による閉鎖,,,2015-10-05,1,,,,,,0
1542,4480001002506,登記記録の閉鎖等,0,2026-01-19,2026-01-16,株式会社輝洋開発,,株式会社,徳島県,徳島市,新浜町２丁目４番３８号,,36,201,7708006,,,2026-01-16,登記官による閉鎖,,,2015-10-05,1,,,,,,0
1543,4480001002687,登記記録の閉鎖等,0,2026-01-19,2026-01-16,株式会社ウインズ四国,,株式会社,徳島県,徳島市,問屋町４３番地,,36,201,7708056,,,2026-01-16,登記官による閉鎖,,,2015-10-05,1,,,,,,0
1544,4480001002704,登記記録の閉鎖等,0,2026-01-19,2026-01-16,株式会社濱福フーズ,,株式会社,徳島県,徳島市,助任橋３丁目２５番地１,,36,201,7700815,,,2026-01-16,登記官による閉鎖,,,2015-10-05,1,,,,,,0
1545,4480001002753,登記記録の閉鎖等,0,2026-01-19,2026-01-16,株式会社アペイロン,,株式会社,徳島県,徳島市,川内町平石住吉２０９番地５,,36,201,7710134,,,2026-01-16,登記官による閉鎖,,,2015-10-05,1,,,,,,0
1546,4480001004477,登記記録の閉鎖等,0,2026-01-19,2026-01-16,株式会社興和,,株式会社,徳島県,吉野川市,川島町桑村１９１９番地の１,00008950,36,205,7793303,,,2026-01-16,登記官による閉鎖,,,2015-10-05,1,,,,,,0
1547,4480001004535,登記記録の閉鎖等,0,2026-01-19,2026-01-16,株式会社布施組,,株式会社,徳島県,吉野川市,鴨島町西麻植字大東５１番地２,,36,205,7760020,,,2026-01-16,登記官による閉鎖,,,2015-10-05,1,,,,,,0
1548,4480001004948,登記記録の閉鎖等,0,2026-01-19,2026-01-16,株式会社オーパック,,株式会社,徳島県,鳴門市,撫養町斎田字西発８０番地１,,36,202,7720002,,,2026-01-16,登記官による閉鎖,,,2015-10-05,1,,,,,,0
1549,4480001004997,登記記録の閉鎖等,0,2026-01-19,2026-01-16,株式会社サンカラー,,株式会社,徳島県,鳴門市,撫養町立岩字六枚１７７番地,,36,202,7720017,,,2026-01-16,登記官による閉鎖,,,2015-10-05,1,,,,,,0
1550,4480001005120,登記記録の閉鎖等,0,2026-01-19,2026-01-16,株式会社中野建設,,株式会社,徳島県,鳴門市,大麻町川崎４３８番地,,36,202,7790223,,,2026-01-16,登記官による閉鎖,,,2015-10-05,1,,,,,,0
1551,4480001005368,登記記録の閉鎖等,0,2026-01-19,2026-01-16,株式会社三木組,,株式会社,徳島県,板野郡松茂町,笹木野字山東３０番地,,36,401,7710219,,,2026-01-16,登記官による閉鎖,,,2015-10-05,1,,,,,,0
1552,4480001005509,登記記録の閉鎖等,0,2026-01-19,2026-01-16,四国特販興業株式会社,,株式会社,徳島県,板野郡板野町,吹田字神ノ木２番地の３,,36,404,7790104,,,2026-01-16,登記官による閉鎖,,,2015-10-05,1,,,,,,0
1553,4480001006234,登記記録の閉鎖等,0,2026-01-19,2026-01-16,株式会社カツトラ,,株式会社,徳島県,勝浦郡勝浦町,大字坂本字栄田９４番地１,,36,301,7714308,,,2026-01-16,登記官による閉鎖,,,2015-10-05,1,,,,,,0
1554,4480001006894,登記記録の閉鎖等,0,2026-01-19,2026-01-16,阿波物流株式会社,,株式会社,徳島県,阿南市,福井町辺川３３０番地１,,36,204,7791620,,,2026-01-16,登記官による閉鎖,,,2015-10-05,1,,,,,,0
1555,4480001007570,登記記録の閉鎖等,0,2026-01-19,2026-01-16,株式会社久松,,株式会社,徳島県,三好郡東みよし町,加茂２９４６番地２,,36,489,7794701,,,2026-01-16,登記官による閉鎖,,,2015-10-05,1,,,,,,0
1556,4480001008750,登記記録の閉鎖等,0,2026-01-19,2026-01-16,株式会社ミーティーズ,,株式会社,徳島県,阿波市,土成町水田字金屋２８７番地,,36,206,7711502,,,2026-01-16,登記官による閉鎖,,,2015-10-05,1,,,,,,0
1557,4480001010244,登記記録の閉鎖等,0,2026-01-19,2026-01-16,和晃建設株式会社,,株式会社,徳島県,美馬郡つるぎ町,半田字中藪６６番地５,,36,468,7794401,,,2026-01-16,登記官による閉鎖,,,2018-02-01,1,,,,,,0
1558,4480002006299,登記記録の閉鎖等,0,2026-01-19,2026-01-16,有限会社阿波のり,,有限会社,徳島県,徳島市,北沖洲４丁目１番１２６号,,36,201,7700872,,,2026-01-16,登記官による閉鎖,,,2015-10-05,1,,,,,,0
1559,4480002010202,登記記録の閉鎖等,0,2026-01-19,2026-01-16,有限会社シーディーイー,,有限会社,徳島県,阿波市,市場町八幡字町屋敷１５番地,,36,206,7711625,,,2026-01-16,登記官による閉鎖,,,2015-10-05,1,,,,,シーディーイー,0
1560,4480002012306,登記記録の閉鎖等,0,2026-01-19,2026-01-16,有限会社愛鈴彩,,有限会社,徳島県,板野郡松茂町,笹木野字八北開拓２０７番地の２,,36,401,7710219,,,2026-01-16,登記官による閉鎖,,,2015-10-05,1,,,,,,0
1561,4480002012594,登記記録の閉鎖等,0,2026-01-19,2026-01-16,中央自動車販売有限会社,,有限会社,徳島県,阿南市,羽ノ浦町宮倉芝生２番地１,,36,204,7791102,,,2026-01-16,登記官による閉鎖,,,2018-06-07,1,,,,,,0
1562,4480002014681,登記記録の閉鎖等,0,2026-01-19,2026-01-16,共栄建設工業有限会社,,有限会社,徳島県,美馬市,脇町大字北庄１４６７番地４,,36,207,7793604,,,2026-01-16,登記官による閉鎖,,,2015-10-05,1,,,,,,0
1563,4480002015052,登記記録の閉鎖等,0,2026-01-19,2026-01-16,有限会社正木酒食品,,有限会社,徳島県,美馬市,脇町大字脇町１５３番地の２,,36,207,7793610,,,2026-01-16,登記官による閉鎖,,,2015-10-05,1,,,,,,0
1564,4480002015060,登記記録の閉鎖等,0,2026-01-19,2026-01-16,松浦第二縫製有限会社,,有限会社,徳島県,美馬市,脇町字曽江名１７番地１００,,36,207,7793741,,,2026-01-16,登記官による閉鎖,,,2015-10-05,1,,,,,,0
1565,4480002016232,登記記録の閉鎖等,0,2026-01-19,2026-01-16,有限会社西野フアツシヨン産業,,有限会社,徳島県,徳島市,新浜本町１丁目２番２８号,,36,201,7708007,,,2026-01-16,登記官による閉鎖,,,2019-05-14,1,,,,,ニシノフアツシヨンサンギョウ,0
1566,4480002016240,登記記録の閉鎖等,0,2026-01-19,2026-01-16,有限会社パピルス,,有限会社,徳島県,小松島市,松島町１番１７号,,36,203,7730003,,,2026-01-16,登記官による閉鎖,,,2020-12-09,1,,,,,パピルス,0
1569,4500001000218,登記記録の閉鎖等,0,2026-01-19,2026-01-16,株式会社アークビクトリー,,株式会社,愛媛県,松山市,南久米町１４５番地１,,38,201,7900924,,,2026-01-16,登記官による閉鎖,,,2015-10-05,1,,,,,,0
1570,4500001000358,登記記録の閉鎖等,0,2026-01-19,2026-01-16,朝日道後販売株式会社,,株式会社,愛媛県,松山市,紅葉町２番５号,,38,201,7900861,,,2026-01-16,登記官による閉鎖,,,2015-10-05,1,,,,,,0
1571,4500001000515,登記記録の閉鎖等,0,2026-01-19,2026-01-16,池田青果株式会社,,株式会社,愛媛県,松山市,高岡町８７番地１,,38,201,7918036,,,2026-01-16,登記官による閉鎖,,,2015-10-05,1,,,,,,0
1572,4500001000779,登記記録の閉鎖等,0,2026-01-19,2026-01-16,愛媛車輌株式会社,,株式会社,愛媛県,松山市,大手町１丁目１３番地４,,38,201,7900067,,,2026-01-16,登記官による閉鎖,,,2015-10-05,1,,,,,,0
1573,4500001000936,登記記録の閉鎖等,0,2026-01-19,2026-01-16,エコマリンインターナショナル株式会社,,株式会社,愛媛県,松山市,宮野１６３５番地,,38,201,7914504,,,2026-01-16,登記官による閉鎖,,,2015-10-05,1,,,,,,0
1574,4500001000960,登記記録の閉鎖等,0,2026-01-19,2026-01-16,株式会社エンタープライズまつやま,,株式会社,愛媛県,松山市,鷹子町３２４番地６,,38,201,7900925,,,2026-01-16,登記官による閉鎖,,,2015-10-05,1,,,,,,0
1575,4500001001042,登記記録の閉鎖等,0,2026-01-19,2026-01-16,株式会社オー・エス・エーシールド,,株式会社,愛媛県,松山市,南吉田町９７６番地１,,38,201,7918042,,,2026-01-16,登記官による閉鎖,,,2015-10-05,1,,,,,,0
1576,4500001001050,登記記録の閉鎖等,0,2026-01-19,2026-01-16,オーキッドサービス株式会社,,株式会社,愛媛県,松山市,三番町４丁目７番地１４,,38,201,7900003,,,2026-01-16,登記官による閉鎖,,,2015-10-05,1,,,,,,0
1577,4500001001232,登記記録の閉鎖等,0,2026-01-19,2026-01-16,株式会社片岡産業,,株式会社,愛媛県,松山市,小坂５丁目６番４号,,38,201,7900963,,,2026-01-16,登記官による閉鎖,,,2015-10-05,1,,,,,,0
1578,4500001001240,登記記録の閉鎖等,0,2026-01-19,2026-01-16,株式会社勝田コーポレーション,,株式会社,愛媛県,松山市,土居町６８６番地,,38,201,7911115,,,2026-01-16,登記官による閉鎖,,,2015-10-05,1,,,,,,0
1579,4500001001298,登記記録の閉鎖等,0,2026-01-19,2026-01-16,唐子ハイツ開発株式会社,,株式会社,愛媛県,松山市,森松町４９８番地１,,38,201,7911113,,,2026-01-16,登記官による閉鎖,,,2015-10-05,1,,,,,,0
1580,4500001001307,登記記録の閉鎖等,0,2026-01-19,2026-01-16,株式会社からし屋,,株式会社,愛媛県,松山市,吉藤２丁目２番３１号,,38,201,7918011,,,2026-01-16,登記官による閉鎖,,,2015-10-05,1,,,,,,0
1581,4500001001612,登記記録の閉鎖等,0,2026-01-19,2026-01-16,虹和建設株式会社,,株式会社,愛媛県,松山市,東野１丁目２番５０号,,38,201,7900903,,,2026-01-16,登記官による閉鎖,,,2015-10-05,1,,,,,,0
1582,4500001001629,登記記録の閉鎖等,0,2026-01-19,2026-01-16,株式会社国際文化社,,株式会社,愛媛県,松山市,木屋町２丁目３番地６,,38,201,7900821,,,2026-01-16,登記官による閉鎖,,,2015-10-05,1,,,,,,0
1583,4500001002024,登記記録の閉鎖等,0,2026-01-19,2026-01-16,株式会社ジェイビック,,株式会社,愛媛県,松山市,三番町５丁目１番１１,,38,201,7900003,,,2026-01-16,登記官による閉鎖,,,2015-10-05,1,,,,,,0
1584,4500001002164,登記記録の閉鎖等,0,2026-01-19,2026-01-16,株式会社住宅設計,,株式会社,愛媛県,松山市,御幸２丁目１番３３号,,38,201,7900824,,,2026-01-16,登記官による閉鎖,,,2015-10-05,1,,,,,,0
1585,4500001002288,登記記録の閉鎖等,0,2026-01-19,2026-01-16,株式会社エムエイチ,,株式会社,愛媛県,松山市,久万ノ台１番地３,,38,201,7918016,,,2026-01-16,登記官による閉鎖,,,2015-10-05,1,,,,,,0
1586,4500001002321,登記記録の閉鎖等,0,2026-01-19,2026-01-16,成豊建設株式会社,,株式会社,愛媛県,松山市,久万ノ台１４９０番地１,,38,201,7918016,,,2026-01-16,登記官による閉鎖,,,2015-10-05,1,,,,,,0
1587,4500001002379,登記記録の閉鎖等,0,2026-01-19,2026-01-16,株式会社瀬戸環境開発,,株式会社,愛媛県,松山市,和気町１丁目４２４番地１,,38,201,7992656,,,2026-01-16,登記官による閉鎖,,,2015-10-05,1,,,,,,0
1588,4500001002718,登記記録の閉鎖等,0,2026-01-19,2026-01-16,株式会社千代田,,株式会社,愛媛県,松山市,本町３丁目６番地１,,38,201,7900811,,,2026-01-16,登記官による閉鎖,,,2015-10-05,1,,,,,,0
1589,4500001002791,登記記録の閉鎖等,0,2026-01-19,2026-01-16,株式会社デジック,,株式会社,愛媛県,松山市,本町６丁目６番地７,,38,201,7900811,,,2026-01-16,登記官による閉鎖,,,2015-10-05,1,,,,,,0
1590,4500001003039,登記記録の閉鎖等,0,2026-01-19,2026-01-16,株式会社ナンバーワン,,株式会社,愛媛県,松山市,宮西２丁目９番３２号,,38,201,7900065,,,2026-01-16,登記官による閉鎖,,,2015-10-05,1,,,,,,0
1591,4500001003063,登記記録の閉鎖等,0,2026-01-19,2026-01-16,株式会社日本教育センター,,株式会社,愛媛県,松山市,柳井町３丁目６番地１４,,38,201,7900014,,,2026-01-16,登記官による閉鎖,,,2015-10-05,1,,,,,,0
1592,4500001003427,登記記録の閉鎖等,0,2026-01-19,2026-01-16,株式会社姫屋,,株式会社,愛媛県,松山市,東長戸４丁目７番３８号,,38,201,7918005,,,2026-01-16,登記官による閉鎖,,,2015-10-05,1,,,,,,0
1593,4500001003922,登記記録の閉鎖等,0,2026-01-19,2026-01-16,株式会社マルイ商事,,株式会社,愛媛県,松山市,下伊台町１１８４番地７,,38,201,7910112,,,2026-01-16,登記官による閉鎖,,,2015-10-05,1,,,,,,0
1594,4500001003930,登記記録の閉鎖等,0,2026-01-19,2026-01-16,株式会社マルキ,,株式会社,愛媛県,松山市,平和通６丁目８番地７,,38,201,7900807,,,2026-01-16,登記官による閉鎖,,,2015-10-05,1,,,,,,0
1595,4500001004012,登記記録の閉鎖等,0,2026-01-19,2026-01-16,みた不動産株式会社,,株式会社,愛媛県,松山市,天山町１７３番地６,,38,201,7900951,,,2026-01-16,登記官による閉鎖,,,2015-10-05,1,,,,,,0
1596,4500001004037,登記記録の閉鎖等,0,2026-01-19,2026-01-16,株式会社峰木材商店,,株式会社,愛媛県,松山市,西垣生町１８３９番地６,,38,201,7918044,,,2026-01-16,登記官による閉鎖,,,2015-10-05,1,,,,,,0
1597,4500001004334,登記記録の閉鎖等,0,2026-01-19,2026-01-16,株式会社ワイ・エス・アート,,株式会社,愛媛県,松山市,南江戸６丁目３番１号,,38,201,7900062,,,2026-01-16,登記官による閉鎖,,,2015-10-05,1,,,,,,0
1598,4500001004664,登記記録の閉鎖等,0,2026-01-19,2026-01-16,株式会社ティー・エイチ・シー産業,,株式会社,愛媛県,伊予郡松前町,大字昌農内２８６番地１,,38,401,7913133,,,2026-01-16,登記官による閉鎖,,,2015-10-05,1,,,,,,0
1599,4500001004689,登記記録の閉鎖等,0,2026-01-19,2026-01-16,株式会社伊予建創,,株式会社,愛媛県,伊予市,上吾川１３番地１,,38,210,7993112,,,2026-01-16,登記官による閉鎖,,,2015-10-05,1,,,,,,0
1600,4500001004904,登記記録の閉鎖等,0,2026-01-19,2026-01-16,田頭縫製株式会社,,株式会社,愛媛県,伊予郡松前町,大字南黒田４０７番地の２,,38,401,7913101,,,2026-01-16,登記官による閉鎖,,,2015-10-05,1,,,,,,0
1601,4500001004929,登記記録の閉鎖等,0,2026-01-19,2026-01-16,フジエース株式会社,,株式会社,愛媛県,伊予郡松前町,大字徳丸１３３８番地１,,38,401,7913163,,,2026-01-16,登記官による閉鎖,,,2015-10-05,1,,,,,,0
1602,4500001004994,登記記録の閉鎖等,0,2026-01-19,2026-01-16,株式会社グローバル・コーポレーション,,株式会社,愛媛県,松山市,紅葉町５番１２号,,38,201,7900861,,,2026-01-16,登記官による閉鎖,,,2015-10-05,1,,,,,,0
1603,4500001005159,登記記録の閉鎖等,0,2026-01-19,2026-01-16,株式会社ネオゲート,,株式会社,愛媛県,松山市,朝生田町４丁目８番２０号,,38,201,7900952,,,2026-01-16,登記官による閉鎖,,,2015-10-05,1,,,,,,0
1604,4500001005167,登記記録の閉鎖等,0,2026-01-19,2026-01-16,ジャムス株式会社,,株式会社,愛媛県,松山市,中野町甲１８１番地,,38,201,7911121,,,2026-01-16,登記官による閉鎖,,,2015-10-05,1,,,,,,0
1605,4500001007717,登記記録の閉鎖等,0,2026-01-19,2026-01-16,株式会社タムラギフト,,株式会社,愛媛県,大洲市,中村５６５番地,,38,207,7950054,,,2026-01-16,登記官による閉鎖,,,2015-10-05,1,,,,,,0
1606,4500001008104,登記記録の閉鎖等,0,2026-01-19,2026-01-16,株式会社清水建設,,株式会社,愛媛県,喜多郡内子町,寺村２５３番地第１,,38,422,7913502,,,2026-01-16,登記官による閉鎖,,,2015-10-05,1,,,,,,0
1607,4500001008319,登記記録の閉鎖等,0,2026-01-19,2026-01-16,四國滋源工業株式会社,,株式会社,愛媛県,西宇和郡伊方町,川永田甲１６１番地,,38,442,7960312,,,2026-01-16,登記官による閉鎖,,,2015-10-05,1,,,,,,0
1608,4500001008913,登記記録の閉鎖等,0,2026-01-19,2026-01-16,株式会社エブリ・メンテナンス・ジャパン,,株式会社,愛媛県,西条市,飯岡１９２８番地の４,,38,206,7930010,,,2026-01-16,登記官による閉鎖,,,2015-10-05,1,,,,,,0
1609,4500001009003,登記記録の閉鎖等,0,2026-01-19,2026-01-16,株式会社四国繊維,,株式会社,愛媛県,西条市,大町１０４１番地１,,38,206,7930030,,,2026-01-16,登記官による閉鎖,,,2015-10-05,1,,,,,,0
1610,4500001009093,登記記録の閉鎖等,0,2026-01-19,2026-01-16,ヒウチシャーリング株式会社,,株式会社,愛媛県,西条市,ひうち字東ひうち１８番地２,,38,206,7930003,,,2026-01-16,登記官による閉鎖,,,2015-10-05,1,,,,,,0
1611,4500001009408,登記記録の閉鎖等,0,2026-01-19,2026-01-16,ミヤビプロジェクト株式会社,,株式会社,愛媛県,西条市,三津屋東９番地６,,38,206,7991352,,,2026-01-16,登記官による閉鎖,,,2015-10-05,1,,,,,,0
1612,4500001009432,登記記録の閉鎖等,0,2026-01-19,2026-01-16,丸之内建設株式会社,,株式会社,愛媛県,西条市,神拝乙１１７番地の１,,38,206,7930021,,,2026-01-16,登記官による閉鎖,,,2015-10-05,1,,,,,,0
1613,4500001009556,登記記録の閉鎖等,0,2026-01-19,2026-01-16,朝日プラント工事株式会社,,株式会社,愛媛県,新居浜市,坂井町２丁目６番５０号,,38,205,7920812,,,2026-01-16,登記官による閉鎖,,,2015-10-05,1,,,,,,0
1614,4500001009597,登記記録の閉鎖等,0,2026-01-19,2026-01-16,株式会社アーク,,株式会社,愛媛県,新居浜市,高木町３２２番の１,,38,205,7920031,,,2026-01-16,登記官による閉鎖,,,2015-10-05,1,,,,,,0
1615,4500001009630,登記記録の閉鎖等,0,2026-01-19,2026-01-16,株式会社宇野組,,株式会社,愛媛県,新居浜市,沢津町３丁目６番１５号,,38,205,7920862,,,2026-01-16,登記官による閉鎖,,,2015-10-05,1,,,,,,0
1616,4500001009671,登記記録の閉鎖等,0,2026-01-19,2026-01-16,株式会社愛媛交通,,株式会社,愛媛県,新居浜市,新田町１丁目８番１３号,,38,205,7920003,,,2026-01-16,登記官による閉鎖,,,2015-10-05,1,,,,,,0
1617,4500001009688,登記記録の閉鎖等,0,2026-01-19,2026-01-16,株式会社エスケイピー,,株式会社,愛媛県,新居浜市,若水町２丁目１番１０号,,38,205,7920017,,,2026-01-16,登記官による閉鎖,,,2015-10-05,1,,,,,,0
1618,4500001009903,登記記録の閉鎖等,0,2026-01-19,2026-01-16,株式会社サンワ,,株式会社,愛媛県,新居浜市,船木甲４３４４番地の１,,38,205,7920856,,,2026-01-16,登記官による閉鎖,,,2015-10-05,1,,,,,,0
1619,4500001009960,登記記録の閉鎖等,0,2026-01-19,2026-01-16,塩出タンパク株式会社,,株式会社,愛媛県,新居浜市,港町３番３５号,,38,205,7920016,,,2026-01-16,登記官による閉鎖,,,2015-10-05,1,,,,,,0
1620,4500001010068,登記記録の閉鎖等,0,2026-01-19,2026-01-16,太陽産業株式会社,,株式会社,愛媛県,新居浜市,阿島甲１０１５番地２５５,,38,205,7920896,,,2026-01-16,登記官による閉鎖,,,2015-10-05,1,,,,,,0
1621,4500001010209,登記記録の閉鎖等,0,2026-01-19,2026-01-16,日月観光株式会社,,株式会社,愛媛県,新居浜市,菊本町２丁目１３番５２号,,38,205,7920801,,,2026-01-16,登記官による閉鎖,,,2015-10-05,1,,,,,,0
1622,4500001010233,登記記録の閉鎖等,0,2026-01-19,2026-01-16,マイテック株式会社,,株式会社,愛媛県,新居浜市,庄内町３丁目４番１４号,,38,205,7920811,,,2026-01-16,登記官による閉鎖,,,2015-10-05,1,,,,,,0
1623,4500001010373,登記記録の閉鎖等,0,2026-01-19,2026-01-16,四国ジェイク株式会社,,株式会社,愛媛県,新居浜市,大生院２１５１番地の１０,,38,205,7920060,,,2026-01-16,登記官による閉鎖,,,2015-10-05,1,,,,,,0
1624,4500001011108,登記記録の閉鎖等,0,2026-01-19,2026-01-16,泉川染工株式会社,,株式会社,愛媛県,今治市,南日吉町１丁目２番３５号,,38,202,7940056,,,2026-01-16,登記官による閉鎖,,,2015-10-05,1,,,,,,0
1625,4500001011363,登記記録の閉鎖等,0,2026-01-19,2026-01-16,株式会社カイアン,,株式会社,愛媛県,今治市,波方町波方甲２１１５番地,,38,202,7992101,,,2026-01-16,登記官による閉鎖,,,2015-10-05,1,,,,,,0
1626,4500001011594,登記記録の閉鎖等,0,2026-01-19,2026-01-16,在間染工株式会社,,株式会社,愛媛県,今治市,黄金町６丁目１番１８号,,38,202,7940037,,,2026-01-16,登記官による閉鎖,,,2015-10-05,1,,,,,,0
1627,4500001012114,登記記録の閉鎖等,0,2026-01-19,2026-01-16,日本商事株式会社,,株式会社,愛媛県,今治市,別名４７０番地,,38,202,7940065,,,2026-01-16,登記官による閉鎖,,,2015-10-05,1,,,,,,0
1628,4500001012171,登記記録の閉鎖等,0,2026-01-19,2026-01-16,燧灘建設工業株式会社,,株式会社,愛媛県,今治市,桜井甲１７５９番地１,,38,202,7991524,,,2026-01-16,登記官による閉鎖,,,2015-10-05,1,,,,,,0
1629,4500001012262,登記記録の閉鎖等,0,2026-01-19,2026-01-16,ブルーシッピング株式会社,,株式会社,愛媛県,今治市,地堀２丁目３番５号,,38,202,7992117,,,2026-01-16,登記官による閉鎖,,,2015-10-05,1,,,,,,0
1630,4500001012295,登記記録の閉鎖等,0,2026-01-19,2026-01-16,株式会社ホリノウチ,,株式会社,愛媛県,今治市,蔵敷町１丁目１１番地３,,38,202,7940044,,,2026-01-16,登記官による閉鎖,,,2015-10-05,1,,,,,,0
1631,4500001012411,登記記録の閉鎖等,0,2026-01-19,2026-01-16,村上建設工業株式会社,,株式会社,愛媛県,今治市,東村１丁目８番１２号,,38,202,7991506,,,2026-01-16,登記官による閉鎖,,,2015-10-05,1,,,,,,0
1632,4500001012782,登記記録の閉鎖等,0,2026-01-19,2026-01-16,共福汽船株式会社,,株式会社,愛媛県,今治市,伯方町有津甲７６１番地,,38,202,7942301,,,2026-01-16,登記官による閉鎖,,,2015-10-05,1,,,,,,0
1633,4500001012907,登記記録の閉鎖等,0,2026-01-19,2026-01-16,西岡商事株式会社,,株式会社,愛媛県,今治市,上浦町瀬戸２７８１番地,,38,202,7941404,,,2026-01-16,登記官による閉鎖,,,2015-10-05,1,,,,,,0
1634,4500001014465,登記記録の閉鎖等,0,2026-01-19,2026-01-16,前谷酒造株式会社,,株式会社,愛媛県,四国中央市,三島宮川１丁目１番４６号,,38,213,7990404,,,2026-01-16,登記官による閉鎖,,,2015-10-05,1,,,,,,0
1635,4500001014713,登記記録の閉鎖等,0,2026-01-19,2026-01-16,株式会社中央物産,,株式会社,愛媛県,四国中央市,川滝町下山２００９番地の１,,38,213,7990127,,,2026-01-16,登記官による閉鎖,,,2015-10-05,1,,,,,,0
1636,4500001014795,登記記録の閉鎖等,0,2026-01-19,2026-01-16,マルト食品株式会社,,株式会社,愛媛県,四国中央市,川之江町２５２９番地２０３,,38,213,7990101,,,2026-01-16,登記官による閉鎖,,,2015-10-05,1,,,,,マルトショクヒン,0
1637,4500001014861,登記記録の閉鎖等,0,2026-01-19,2026-01-16,北四国縫製株式会社,,株式会社,愛媛県,四国中央市,土居町畑野７１０番地,,38,213,7990714,,,2026-01-16,登記官による閉鎖,,,2015-10-05,1,,,,,,0
1638,4500001014903,登記記録の閉鎖等,0,2026-01-19,2026-01-16,トップデンタル株式会社,,株式会社,愛媛県,四国中央市,土居町津根８９３番地,,38,213,7990704,,,2026-01-16,登記官による閉鎖,,,2015-10-05,1,,,,,,0
1639,4500001015273,登記記録の閉鎖等,0,2026-01-19,2026-01-16,株式会社共立,,株式会社,愛媛県,宇和島市,保田甲１０１８番地,,38,203,7980077,,,2026-01-16,登記官による閉鎖,,,2015-10-05,1,,,,,,0
1640,4500001015380,登記記録の閉鎖等,0,2026-01-19,2026-01-16,神戸屋貿易株式会社,,株式会社,愛媛県,宇和島市,保田乙１８７番地４,,38,203,7980077,,,2026-01-16,登記官による閉鎖,,,2015-10-05,1,,,,,,0
1641,4500001015389,登記記録の閉鎖等,0,2026-01-19,2026-01-16,酒井農機株式会社,,株式会社,愛媛県,宇和島市,大浦甲１５７番地,,38,203,7980002,,,2026-01-16,登記官による閉鎖,,,2015-10-05,1,,,,,,0
1642,4500001015447,登記記録の閉鎖等,0,2026-01-19,2026-01-16,株式会社タカラ・コーポレーション,,株式会社,愛媛県,宇和島市,恵美須町１丁目５番２８号,,38,203,7980032,,,2026-01-16,登記官による閉鎖,,,2015-10-05,1,,,,,,0
1643,4500001015496,登記記録の閉鎖等,0,2026-01-19,2026-01-16,早川建設株式会社,,株式会社,愛媛県,宇和島市,下波２６４２番地,,38,203,7980104,,,2026-01-16,登記官による閉鎖,,,2015-10-05,1,,,,,,0
1644,4500001015513,登記記録の閉鎖等,0,2026-01-19,2026-01-16,株式会社松屋呉服店,,株式会社,愛媛県,宇和島市,中央町１丁目７番１６号,,38,203,7980040,,,2026-01-16,登記官による閉鎖,,,2015-10-05,1,,,,,,0
1645,4500001015785,登記記録の閉鎖等,0,2026-01-19,2026-01-16,細川水産株式会社,,株式会社,愛媛県,南宇和郡愛南町,小成川１番地４,,38,506,7984215,,,2026-01-16,登記官による閉鎖,,,2015-10-05,1,,,,,,0
1646,4500001018094,登記記録の閉鎖等,0,2026-01-19,2026-01-16,株式会社大和船装工業,,株式会社,愛媛県,今治市,別宮町７丁目３番２６号,,38,202,7940026,,,2026-01-16,登記官による閉鎖,,,2015-10-05,1,,,,,,0
1647,4500001018581,登記記録の閉鎖等,0,2026-01-19,2026-01-16,株式会社エムプランニング,,株式会社,愛媛県,松山市,南久米２３４番地サンディッシュ久米４０６号,,38,201,7910000,,,2026-01-16,登記官による閉鎖,,,2015-10-05,1,,,,,エムプランニング,0
1648,4500002019323,登記記録の閉鎖等,0,2026-01-19,2026-01-16,山国汽船有限会社,,有限会社,愛媛県,今治市,波方町波方甲２００２番地１,,38,202,7992101,,,2026-01-16,登記官による閉鎖,,,2015-10-05,1,,,,,,0
1649,4500002023936,登記記録の閉鎖等,0,2026-01-19,2026-01-16,有限会社ヨシキ,,有限会社,愛媛県,南宇和郡愛南町,御荘平城３７４４番地第１,,38,506,7984110,,,2026-01-16,登記官による閉鎖,,,2015-10-05,1,,,,,,0
1650,4500005001807,登記記録の閉鎖等,0,2026-01-19,2026-01-16,特定非営利活動法人アジア・フィルム・ネットワーク,,その他の設立登記法人,愛媛県,松山市,喜与町１丁目７番地８トオヤマビル２Ｆ,,38,201,7900802,,,2026-01-16,登記官による閉鎖,,,2015-10-05,1,,,,,,0
1651,4500005001988,登記記録の閉鎖等,0,2026-01-19,2026-01-16,財団法人愛媛県造林公社,,その他の設立登記法人,愛媛県,松山市,一番町４丁目４番２,,38,201,7900001,,,2026-01-16,登記官による閉鎖,,,2015-10-05,1,,,,,,0
1652,4500005006013,登記記録の閉鎖等,0,2026-01-19,2026-01-16,化学一般労働組合連合丸住製紙労働組合,,その他の設立登記法人,愛媛県,四国中央市,金生町４２９番地,,38,213,7990400,,,2026-01-16,登記官による閉鎖,,,2015-10-05,1,,,,,,0
1653,4500005006797,登記記録の閉鎖等,0,2026-01-19,2026-01-16,恵美企業組合,,その他の設立登記法人,愛媛県,宇和島市,恵美須町１丁目４番７号,,38,203,7980032,,,2026-01-16,登記官による閉鎖,,,2015-10-05,1,,,,,,0
1655,5010001046598,登記記録の閉鎖等,0,2026-01-19,2025-12-19,株式会社シー・エム・エヌ,,株式会社,東京都,中央区,湊１丁目６番１１号,,13,102,1040043,,,2025-12-19,清算の結了等,,,2015-10-05,1,,,,,シーエムエヌ,0
1661,5010001190000,登記記録の閉鎖等,0,2026-01-19,2025-12-22,株式会社Ｋ．Ｐ．Ｔｅｃ,,株式会社,東京都,千代田区,東神田３丁目３番１１号ＭＯＭＯ３浅草橋ビル４Ｆ,,13,101,1010031,,,2025-12-22,清算の結了等,,,2018-03-05,1,,,,,,0
1675,5010005040077,登記記録の閉鎖等,0,2026-01-19,2026-01-15,一般社団法人再生医療評価機構,,その他の設立登記法人,東京都,千代田区,外神田４丁目１４番１号ＵＤＸビル６階,,13,101,1010021,,,2026-01-15,清算の結了等,,,2025-05-28,1,,,,,サイセイイリョウヒョウカキコウ,0
1677,5010401063400,登記記録の閉鎖等,0,2026-01-19,2026-01-05,株式会社アブストラクトエンジン,,株式会社,東京都,渋谷区,東２丁目２７番７号,,13,113,1500011,,,2026-01-05,合併による解散等,7011001127948,令和８年１月１日東京都渋谷区東二丁目２７番７号株式会社アブストラクトエンジン（7011001127948）に合併し解散,2015-10-05,1,"Abstract Engine Co.,Ltd.",Tokyo,"2-27-7 Higashi, Shibuya-ku",,アブストラクトエンジン,0
1678,5010401096499,登記記録の閉鎖等,0,2026-01-19,2026-01-13,テムリック株式会社,,株式会社,東京都,新宿区,北新宿１丁目１２番１２号,,13,104,1690074,,,2026-01-13,合併による解散等,3180001095399,令和８年１月１日名古屋市中村区名駅南一丁目２１番１９号ラクオリア創薬株式会社（3180001095399）に合併し解散,2015-10-05,1,,,,,テムリック,0
1679,5010401097233,登記記録の閉鎖等,0,2026-01-19,2025-12-08,ホリプス株式会社,,株式会社,東京都,港区,赤坂８丁目１２－２８ライオンズマンション乃木坂１０６号,,13,103,1070052,,,2025-12-08,合併による解散等,2010401079408,令和７年１２月１日東京都港区芝５－２７－３－３Ｆ、ＭＢＣ、Ｂ－９７ウーマンサポートジャパン株式会社（2010401079408）に合併し解散,2015-10-05,1,,,,,ホリプス,0
1680,5010401123121,登記記録の閉鎖等,0,2026-01-19,2026-01-14,株式会社イシン・浅草・オペレーションズ,,株式会社,東京都,台東区,西浅草３丁目１６番１２号,,13,106,1110035,,,2026-01-14,合併による解散等,9140001139154,令和８年１月１日神戸市中央区下山手通二丁目１１番５号株式会社ＩＨＢ（9140001139154）に合併し解散,2016-02-15,1,,,,,イシンアサクサオペレーションズ,0
1702,5010701009747,登記記録の閉鎖等,0,2026-01-19,2026-01-08,盛技研株式会社,,株式会社,東京都,品川区,戸越２丁目１番２０号,,13,109,1420041,,,2026-01-08,清算の結了等,,,2015-10-05,1,,,,,モリギケン,0
1709,5011001169075,登記記録の閉鎖等,0,2026-01-19,2025-12-17,株式会社ウカマス,,株式会社,東京都,渋谷区,恵比寿西２丁目４番８号ウィンド恵比寿ビル８Ｆ,,13,113,1500021,,,2025-12-17,清算の結了等,,,2025-04-23,1,,,,,ウカマス,0
1720,5011101093258,登記記録の閉鎖等,0,2026-01-19,2025-12-17,ＳＴＡＲ　ＳＴＯＲＩＥＳ株式会社,,株式会社,東京都,新宿区,新宿３丁目１２番４号新宿Ｎプラザ３０９号,,13,104,1600022,,,2025-12-17,清算の結了等,,,2020-11-25,1,,,,,スターストーリーズ,0
1745,5020003013182,登記記録の閉鎖等,0,2026-01-19,2026-01-08,株式会社エンプライズ,,株式会社,神奈川県,横浜市都筑区,見花山３番１４号,,14,118,2240066,,,2026-01-08,清算の結了等,,,2017-08-23,1,,,,,エンプライズ,0
1771,5030002115326,登記記録の閉鎖等,0,2026-01-19,2026-01-07,有限会社荒木建設,,有限会社,埼玉県,深谷市,中瀬１２５８番地,,11,218,3660001,,,2026-01-07,清算の結了等,,,2015-10-05,1,,,,,アラキケンセツ,0
1775,5040002012381,登記記録の閉鎖等,0,2026-01-19,2025-12-22,有限会社ライトシステム,,有限会社,千葉県,千葉市中央区,中央４丁目１０番１６－５０５号,,12,101,2600013,,,2025-12-22,清算の結了等,,,2015-10-05,1,,,,,ライトシステム,0
1777,5040002078002,登記記録の閉鎖等,0,2026-01-19,2025-12-22,有限会社鈴木薬局,,有限会社,千葉県,山武郡九十九里町,片貝６９０３番地１,,12,403,2830104,,,2025-12-22,清算の結了等,,,2015-10-05,1,,,,,スズキヤッキョク,0
1783,5050001042478,登記記録の閉鎖等,0,2026-01-19,2026-01-07,株式会社Ｇｒａｔｉａ,,株式会社,茨城県,日立市,宮田町２丁目５番１２号日立ＭＫビルＡ棟,,08,202,3170055,,,2026-01-07,清算の結了等,,,2017-03-24,1,,,,,グラティア,0
1795,5080401018372,登記記録の閉鎖等,0,2026-01-19,2026-01-08,株式会社サワベ,,株式会社,静岡県,袋井市,湊５９９番地,,22,216,4371115,,,2026-01-08,清算の結了等,,,2015-10-05,1,,,,,サワベ,0
1799,5090002005414,登記記録の閉鎖等,0,2026-01-19,2026-01-08,有限会社覇権,,有限会社,山梨県,甲斐市,竜王新町１２８６番地３,,19,210,4000111,,,2026-01-08,清算の結了等,,,2015-10-05,1,,,,,ハケン,0
1831,5130001003587,登記記録の閉鎖等,0,2026-01-19,2026-01-05,野崎織物株式会社,,株式会社,京都府,京都市上京区,御前通今出川上る２丁目北町６２２番地,,26,102,6028392,,,2026-01-05,合併による解散等,2130001003986,令和７年１２月３１日京都市上京区中立売通千本東入加賀屋町４０２番地株式会社もりさん（2130001003986）に合併し解散,2015-10-05,1,,,,,ノザキオリモノ,0
1837,5140001091375,登記記録の閉鎖等,0,2026-01-19,2026-01-07,株式会社Ｊ＆Ｃテクノ,,株式会社,兵庫県,西宮市,桜町１番６０号,,28,204,6620071,,,2026-01-07,清算の結了等,,,2015-10-05,1,,,,,ジェーアンドシーテクノ,0
1851,5180301011228,登記記録の閉鎖等,0,2026-01-19,2026-01-13,中村・テクニカル株式会社,,株式会社,愛知県,蒲郡市,形原町南大明地１８番地,,23,214,4430104,,,2026-01-13,清算の結了等,,,2015-10-05,1,,,,,ナカムラテクニカル,0
1868,5250001007774,登記記録の閉鎖等,0,2026-01-19,2026-01-15,株式会社ヤマキ工業,,株式会社,山口県,下関市,新垢田南町１丁目１３－１９,,35,201,7510842,,,2026-01-15,清算の結了等,,,2015-10-05,1,,,,,,0
1876,5290001072658,登記記録の閉鎖等,0,2026-01-19,2026-01-15,株式会社リヴィエール,,株式会社,福岡県,福岡市中央区,春吉２丁目４番１１号,,40,133,8100003,,,2026-01-15,合併による解散等,5350001002187,令和８年１月１日宮崎市橘通東三丁目８番２１号株式会社レジャークリエイトホールディングス（5350001002187）に合併し解散,2016-01-25,1,,,,,リヴィエール,0
1888,5290801027092,登記記録の閉鎖等,0,2026-01-19,2026-01-07,ＴＨＥ　ＩＣＨＩ　ＧＯ　ＮＡＮＡ株式会社,,株式会社,福岡県,北九州市若松区,小敷ひびきの１丁目１６番１２－１０１号,,40,103,8080139,,,2026-01-07,合併による解散等,9290801019136,令和８年１月１日北九州市若松区塩屋三丁目２９番２０号株式会社ＴＮＫ（9290801019136）に合併し解散,2021-01-15,1,,,,,ザイチゴーナナ,0
1901,5340002011865,登記記録の閉鎖等,0,2026-01-19,2026-01-09,有限会社明和工芸店,,有限会社,鹿児島県,鹿児島市,田上台１丁目６番１号,,46,201,8900036,,,2026-01-09,清算の結了等,,,2015-10-05,1,,,,,メイワコウゲイテン,0
1910,5380001013363,登記記録の閉鎖等,0,2026-01-19,2026-01-13,鶴見鋼管株式会社,,株式会社,福島県,いわき市,南台３丁目１番地９,,07,204,9748242,,,2026-01-13,合併による解散等,8140001054619,令和８年１月１日兵庫県尼崎市扶桑町１番２１号日鉄ファインチューブ株式会社（8140001054619）に合併し解散,2015-10-05,1,,,,,ツルミコウカン,0
1913,5380002017702,登記記録の閉鎖等,0,2026-01-19,2026-01-13,有限会社黒潮,,有限会社,福島県,白河市,立石１２７番地１,,07,205,9610972,,,2026-01-13,清算の結了等,,,2015-10-05,1,,,,,クロシオ,0
1920,5390001013008,登記記録の閉鎖等,0,2026-01-19,2026-01-15,株式会社Ｓｕｍｉｋｏカンパニー,,株式会社,山形県,山形市,美畑町１番２９号,,06,201,9902493,,,2026-01-15,清算の結了等,,,2015-10-05,1,,,,,スミコカンパニー,0
1921,5390002013337,登記記録の閉鎖等,0,2026-01-19,2026-01-14,有限会社フェリス,,有限会社,山形県,米沢市,門東町２丁目３番３０号,,06,202,9920039,,,2026-01-14,清算の結了等,,,2015-10-05,1,,,,,フェリス,0
1929,5430001081090,登記記録の閉鎖等,0,2026-01-19,2026-01-07,物流ネットワークサービス株式会社,,株式会社,北海道,札幌市西区,平和二条７丁目１番１号,,01,107,0630022,,,2026-01-07,清算の結了等,,,2020-03-19,1,,,,,ブツリュウネットワークサービス,0
1934,5480001000054,登記記録の閉鎖等,0,2026-01-19,2026-01-16,朝日エンジニアリング株式会社,,株式会社,徳島県,徳島市,東沖洲２丁目２６番１３,,36,201,7700873,,,2026-01-16,登記官による閉鎖,,,2015-10-05,1,,,,,,0
1935,5480001000772,登記記録の閉鎖等,0,2026-01-19,2026-01-16,株式会社サン・ニュートリション,,株式会社,徳島県,徳島市,伊月町３丁目８番地,,36,201,7700935,,,2026-01-16,登記官による閉鎖,,,2015-10-05,1,,,,,,0
1936,5480001001135,登記記録の閉鎖等,0,2026-01-19,2026-01-16,株式会社ジャパンアイデアホーム,,株式会社,徳島県,徳島市,末広４丁目６番６号,,36,201,7700866,,,2026-01-16,登記官による閉鎖,,,2015-10-05,1,,,,,,0
1937,5480001001143,登記記録の閉鎖等,0,2026-01-19,2026-01-16,株式会社ジャンセン,,株式会社,徳島県,徳島市,山城西２丁目７１番地,,36,201,7708054,,,2026-01-16,登記官による閉鎖,,,2015-10-05,1,,,,,,0
1938,5480001001201,登記記録の閉鎖等,0,2026-01-19,2026-01-16,杉本木材株式会社,,株式会社,徳島県,徳島市,津田海岸町１１２５番地の５７,,36,201,7708001,,,2026-01-16,登記官による閉鎖,,,2015-10-05,1,,,,,,0
1939,5480001001242,登記記録の閉鎖等,0,2026-01-19,2026-01-16,誠信不動産株式会社,,株式会社,徳島県,徳島市,佐古六番町５番１－３０３号,,36,201,7700026,,,2026-01-16,登記官による閉鎖,,,2015-10-05,1,,,,,,0
1940,5480001001606,登記記録の閉鎖等,0,2026-01-19,2026-01-16,株式会社ナカタニプラント,,株式会社,徳島県,徳島市,伊月町１丁目４９番地,,36,201,7700935,,,2026-01-16,登記官による閉鎖,,,2015-10-05,1,,,,,,0
1941,5480001001696,登記記録の閉鎖等,0,2026-01-19,2026-01-16,日東基工株式会社,,株式会社,徳島県,徳島市,八万町法花１５２番地,,36,201,7708083,,,2026-01-16,登記官による閉鎖,,,2015-10-05,1,,,,,,0
1942,5480001001928,登記記録の閉鎖等,0,2026-01-19,2026-01-16,東四国観光サービス株式会社,,株式会社,徳島県,徳島市,佐古二番町８番８号,,36,201,7700022,,,2026-01-16,登記官による閉鎖,,,2015-10-05,1,,,,,,0
1943,5480001002166,登記記録の閉鎖等,0,2026-01-19,2026-01-16,リアル建設株式会社,,株式会社,徳島県,徳島市,住吉６丁目４番８号,,36,201,7700861,,,2026-01-16,登記官による閉鎖,,,2015-10-05,1,,,,,,0
1944,5480001002224,登記記録の閉鎖等,0,2026-01-19,2026-01-16,株式会社ワールド・テック・メディカル,,株式会社,徳島県,徳島市,沖浜東２丁目４０番地,,36,201,7708053,,,2026-01-16,登記官による閉鎖,,,2015-10-05,1,,,,,,0
1945,5480001002447,登記記録の閉鎖等,0,2026-01-19,2026-01-16,株式会社ミートピア,,株式会社,徳島県,徳島市,寺島本町西１丁目６１番地,,36,201,7700831,,,2026-01-16,登記官による閉鎖,,,2015-10-05,1,,,,,,0
1946,5480001002835,登記記録の閉鎖等,0,2026-01-19,2026-01-16,株式会社セイトー,,株式会社,徳島県,徳島市,新浜本町３丁目５番１０号,,36,201,7708007,,,2026-01-16,登記官による閉鎖,,,2015-10-05,1,,,,,,0
1947,5480001002843,登記記録の閉鎖等,0,2026-01-19,2026-01-16,株式会社ティエムシー,,株式会社,徳島県,徳島市,安宅２丁目２番５７号,,36,201,7700863,,,2026-01-16,登記官による閉鎖,,,2015-10-05,1,,,,,,0
1948,5480001003346,登記記録の閉鎖等,0,2026-01-19,2026-01-16,株式会社アルファ,,株式会社,徳島県,小松島市,南小松島町７番４７号,,36,203,7730005,,,2026-01-16,登記官による閉鎖,,,2015-10-05,1,,,,,,0
1949,5480001003354,登記記録の閉鎖等,0,2026-01-19,2026-01-16,株式会社いやしの郷,,株式会社,徳島県,小松島市,櫛渕町字関免１３番地の１,00005788,36,203,7730018,,,2026-01-16,登記官による閉鎖,,,2015-10-05,1,,,,,,0
1950,5480001004484,登記記録の閉鎖等,0,2026-01-19,2026-01-16,株式会社サンケイソイル,,株式会社,徳島県,吉野川市,鴨島町西麻植字江川１９９番地３,,36,205,7760020,,,2026-01-16,登記官による閉鎖,,,2015-10-05,1,,,,,,0
1951,5480001004559,登記記録の閉鎖等,0,2026-01-19,2026-01-16,株式会社森本工務店,,株式会社,徳島県,吉野川市,川島町桑村２４６３番地６,00008951,36,205,7793303,,,2026-01-16,登記官による閉鎖,,,2015-10-05,1,,,,,モリモトコウムテン,0
1952,5480001004682,登記記録の閉鎖等,0,2026-01-19,2026-01-16,株式会社吉田組,,株式会社,徳島県,阿波市,市場町尾開字八坂１７９番地,,36,206,7711621,,,2026-01-16,登記官による閉鎖,,,2015-10-05,1,,,,,,0
1953,5480001004922,登記記録の閉鎖等,0,2026-01-19,2026-01-16,うずしお商事株式会社,,株式会社,徳島県,鳴門市,撫養町大桑島字濘岩浜３０番地１,,36,202,7720011,,,2026-01-16,登記官による閉鎖,,,2015-10-05,1,,,,,,0
1954,5480001005169,登記記録の閉鎖等,0,2026-01-19,2026-01-16,堀江商事株式会社,,株式会社,徳島県,鳴門市,大麻町大谷字道の上２９番地,,36,202,7790302,,,2026-01-16,登記官による閉鎖,,,2015-10-05,1,,,,,,0
1955,5480001005284,登記記録の閉鎖等,0,2026-01-19,2026-01-16,新栄土建株式会社,,株式会社,徳島県,板野郡松茂町,住吉字住吉開拓４番地６,,36,401,7710218,,,2026-01-16,登記官による閉鎖,,,2015-10-05,1,,,,,,0
1956,5480001005524,登記記録の閉鎖等,0,2026-01-19,2026-01-16,株式会社マルサン繊維,,株式会社,徳島県,板野郡板野町,南川窪９番地の１,,36,404,7790100,,,2026-01-16,登記官による閉鎖,,,2015-10-05,1,,,,,,0
1957,5480001005607,登記記録の閉鎖等,0,2026-01-19,2026-01-16,グロウ産業株式会社,,株式会社,徳島県,鳴門市,大津町矢倉字西の越２番地５４,,36,202,7720035,,,2026-01-16,登記官による閉鎖,,,2015-10-05,1,,,,,,0
1958,5480001005937,登記記録の閉鎖等,0,2026-01-19,2026-01-16,共栄建設株式会社,,株式会社,徳島県,板野郡北島町,高房字東野神ノ本６番地,,36,402,7710206,,,2026-01-16,登記官による閉鎖,,,2015-10-05,1,,,,,キョウエイケンセツ,0
1959,5480001007264,登記記録の閉鎖等,0,2026-01-19,2026-01-16,アイティティ国際電電四国株式会社,,株式会社,徳島県,美馬市,脇町大字脇町１０３５番地,,36,207,7793610,,,2026-01-16,登記官による閉鎖,,,2015-10-05,1,,,,,,0
1960,5480001007306,登記記録の閉鎖等,0,2026-01-19,2026-01-16,株式会社笹田組,,株式会社,徳島県,美馬市,穴吹町口山字田方１９番地の４,,36,207,7770006,,,2026-01-16,登記官による閉鎖,,,2015-10-05,1,,,,,,0
1961,5480001007396,登記記録の閉鎖等,0,2026-01-19,2026-01-16,株式会社前田建設,,株式会社,徳島県,美馬市,穴吹町三島字舞中島１９２２番地２,,36,207,7770002,,,2026-01-16,登記官による閉鎖,,,2015-10-05,1,,,,,,0
1962,5480001007504,登記記録の閉鎖等,0,2026-01-19,2026-01-16,株式会社キソ,,株式会社,徳島県,三好郡東みよし町,昼間５２１番地,,36,489,7712501,,,2026-01-16,登記官による閉鎖,,,2015-10-05,1,,,,,,0
1963,5480001008832,登記記録の閉鎖等,0,2026-01-19,2026-01-16,株式会社誠和,,株式会社,徳島県,板野郡松茂町,笹木野字八下２３番地８,,36,401,7710219,,,2026-01-16,登記官による閉鎖,,,2015-10-05,1,,,,,,0
1964,5480002000160,登記記録の閉鎖等,0,2026-01-19,2026-01-16,有限会社阿波タクシー,,有限会社,徳島県,徳島市,南二軒屋町１丁目２番１６号,,36,201,7708063,,,2026-01-16,登記官による閉鎖,,,2015-10-05,1,,,,,,0
1965,5480002000284,登記記録の閉鎖等,0,2026-01-19,2026-01-16,有限会社阿洲クラフト,,有限会社,徳島県,徳島市,飯谷町大ノ上１３番地１,,36,201,7714265,,,2026-01-16,登記官による閉鎖,,,2015-10-05,1,,,,,,0
1966,5480002009160,登記記録の閉鎖等,0,2026-01-19,2026-01-16,四国システム有限会社,,有限会社,徳島県,吉野川市,川島町川島１２２番地,,36,205,7793301,,,2026-01-16,登記官による閉鎖,,,2015-10-05,1,,,,,,0
1967,5480002010580,登記記録の閉鎖等,0,2026-01-19,2026-01-16,有限会社多田鈑金,,有限会社,徳島県,鳴門市,撫養町黒崎字松島３１番地の１,,36,202,7720001,,,2026-01-16,登記官による閉鎖,,,2015-10-05,1,,,,,,0
1969,5500001000084,登記記録の閉鎖等,0,2026-01-19,2026-01-16,山水株式会社,,株式会社,愛媛県,松山市,才之原甲１８番地,,38,201,7992417,,,2026-01-16,登記官による閉鎖,,,2015-10-05,1,,,,,,0
1970,5500001000316,登記記録の閉鎖等,0,2026-01-19,2026-01-16,株式会社暁企画室,,株式会社,愛媛県,松山市,古川北１丁目１３番２０号メゾンドロード,,38,201,7900942,,,2026-01-16,登記官による閉鎖,,,2015-10-05,1,,,,,,0
1971,5500001000324,登記記録の閉鎖等,0,2026-01-19,2026-01-16,株式会社アグリエンタープライズ,,株式会社,愛媛県,松山市,和気町２丁目９４９番地,,38,201,7992656,,,2026-01-16,登記官による閉鎖,,,2015-10-05,1,,,,,,0
1972,5500001000349,登記記録の閉鎖等,0,2026-01-19,2026-01-16,株式会社旭建築設計事務所,,株式会社,愛媛県,松山市,保免西４丁目３番２２号,,38,201,7900043,,,2026-01-16,登記官による閉鎖,,,2015-10-05,1,,,,,,0
1973,5500001000398,登記記録の閉鎖等,0,2026-01-19,2026-01-16,株式会社アベ,,株式会社,愛媛県,松山市,清水町２丁目２０番地１７,,38,201,7900823,,,2026-01-16,登記官による閉鎖,,,2015-10-05,1,,,,,,0
1974,5500001000407,登記記録の閉鎖等,0,2026-01-19,2026-01-16,株式会社アムール,,株式会社,愛媛県,松山市,花園町６番地１,,38,201,7900005,,,2026-01-16,登記官による閉鎖,,,2015-10-05,1,,,,,,0
1975,5500001000555,登記記録の閉鎖等,0,2026-01-19,2026-01-16,井商株式会社,,株式会社,愛媛県,松山市,西垣生町１３６８番地１,,38,201,7918044,,,2026-01-16,登記官による閉鎖,,,2015-10-05,1,,,,,,0
1976,5500001000563,登記記録の閉鎖等,0,2026-01-19,2026-01-16,株式会社イトケン,,株式会社,愛媛県,松山市,鉄砲町７番地１３,,38,201,7900827,,,2026-01-16,登記官による閉鎖,,,2015-10-05,1,,,,,,0
1977,5500001000695,登記記録の閉鎖等,0,2026-01-19,2026-01-16,愛媛県交通株式会社,,株式会社,愛媛県,松山市,平田町３１１番地１,,38,201,7918001,,,2026-01-16,登記官による閉鎖,,,2015-10-05,1,,,,,,0
1978,5500001000885,登記記録の閉鎖等,0,2026-01-19,2026-01-16,株式会社栄光開発サービス,,株式会社,愛媛県,松山市,竹原４丁目１０番１５号,,38,201,7900053,,,2026-01-16,登記官による閉鎖,,,2015-10-05,1,,,,,,0
1979,5500001000919,登記記録の閉鎖等,0,2026-01-19,2026-01-16,株式会社エーボック,,株式会社,愛媛県,松山市,東長戸４丁目２番２８号,,38,201,7918005,,,2026-01-16,登記官による閉鎖,,,2015-10-05,1,,,,,,0
1980,5500001001256,登記記録の閉鎖等,0,2026-01-19,2026-01-16,株式会社　メイ・カナエ,,株式会社,愛媛県,松山市,味酒町２丁目５番地５,,38,201,7900814,,,2026-01-16,登記官による閉鎖,,,2015-10-05,1,,,,,,0
1981,5500001002485,登記記録の閉鎖等,0,2026-01-19,2026-01-16,株式会社タイセイアパレル,,株式会社,愛媛県,松山市,森松町１１６４番地３,,38,201,7911113,,,2026-01-16,登記官による閉鎖,,,2015-10-05,1,,,,,,0
1982,5500001002642,登記記録の閉鎖等,0,2026-01-19,2026-01-16,株式会社只信企工,,株式会社,愛媛県,松山市,姫原２丁目３番１１号,,38,201,7918012,,,2026-01-16,登記官による閉鎖,,,2015-10-05,1,,,,,,0
1983,5500001002782,登記記録の閉鎖等,0,2026-01-19,2026-01-16,株式会社電建塗装,,株式会社,愛媛県,松山市,平和通５丁目３番地１,,38,201,7900807,,,2026-01-16,登記官による閉鎖,,,2015-10-05,1,,,,,,0
1984,5500001003038,登記記録の閉鎖等,0,2026-01-19,2026-01-16,難波江装飾株式会社,,株式会社,愛媛県,松山市,一番町１丁目１１番地３,,38,201,7900001,,,2026-01-16,登記官による閉鎖,,,2015-10-05,1,,,,,,0
1985,5500001003104,登記記録の閉鎖等,0,2026-01-19,2026-01-16,日本流通システム株式会社,,株式会社,愛媛県,松山市,古川西３丁目７番１６号,,38,201,7900944,,,2026-01-16,登記官による閉鎖,,,2015-10-05,1,,,,,,0
1986,5500001003269,登記記録の閉鎖等,0,2026-01-19,2026-01-16,株式会社野本土木,,株式会社,愛媛県,松山市,土居田町８３２番地５,,38,201,7900056,,,2026-01-16,登記官による閉鎖,,,2015-10-05,1,,,,,,0
1987,5500001003277,登記記録の閉鎖等,0,2026-01-19,2026-01-16,バイオラ株式会社,,株式会社,愛媛県,松山市,久万ノ台９１９番地,,38,201,7918016,,,2026-01-16,登記官による閉鎖,,,2015-10-05,1,,,,,,0
1988,5500001003335,登記記録の閉鎖等,0,2026-01-19,2026-01-16,株式会社ハッピーフーズ,,株式会社,愛媛県,松山市,束本１丁目４番３７号,,38,201,7900916,,,2026-01-16,登記官による閉鎖,,,2015-10-05,1,,,,,,0
1989,5500001003384,登記記録の閉鎖等,0,2026-01-19,2026-01-16,ビオクラスタージャパン株式会社,,株式会社,愛媛県,松山市,大手町１丁目１０番８号,,38,201,7900067,,,2026-01-16,登記官による閉鎖,,,2015-10-05,1,,,,,,0
1990,5500001003401,登記記録の閉鎖等,0,2026-01-19,2026-01-16,株式会社光電業,,株式会社,愛媛県,松山市,本町３丁目２番地１７,,38,201,7900811,,,2026-01-16,登記官による閉鎖,,,2015-10-05,1,,,,,,0
1991,5500001003649,登記記録の閉鎖等,0,2026-01-19,2026-01-16,株式会社ホーム,,株式会社,愛媛県,松山市,三番町８丁目３５４番地４,,38,201,7900003,,,2026-01-16,登記官による閉鎖,,,2015-10-05,1,,,,,,0
1992,5500001003938,登記記録の閉鎖等,0,2026-01-19,2026-01-16,丸嘉産業株式会社,,株式会社,愛媛県,松山市,本町２丁目１番地１,,38,201,7900811,,,2026-01-16,登記官による閉鎖,,,2015-10-05,1,,,,,,0
1993,5500001004416,登記記録の閉鎖等,0,2026-01-19,2026-01-16,株式会社龍宝物産,,株式会社,愛媛県,松山市,竹原２丁目１番１２号,,38,201,7900053,,,2026-01-16,登記官による閉鎖,,,2015-10-05,1,,,,,,0
1994,5500001004705,登記記録の閉鎖等,0,2026-01-19,2026-01-16,愛媛ステンレス工業株式会社,,株式会社,愛媛県,伊予市,上野２１８９番地１,,38,210,7993103,,,2026-01-16,登記官による閉鎖,,,2015-10-05,1,,,,,,0
1995,5500001004837,登記記録の閉鎖等,0,2026-01-19,2026-01-16,株式会社イーアールシー,,株式会社,愛媛県,松山市,古川南２丁目６番７号,,38,201,7900943,,,2026-01-16,登記官による閉鎖,,,2015-10-05,1,,,,,,0
1996,5500001004903,登記記録の閉鎖等,0,2026-01-19,2026-01-16,大南水産株式会社,,株式会社,愛媛県,伊予郡松前町,大字西古泉２８５番地１,,38,401,7913134,,,2026-01-16,登記官による閉鎖,,,2015-10-05,1,,,,,,0
1997,5500001005067,登記記録の閉鎖等,0,2026-01-19,2026-01-16,株式会社くわた観光,,株式会社,愛媛県,松山市,太山寺町２３８２番地１,,38,201,7992662,,,2026-01-16,登記官による閉鎖,,,2015-10-05,1,,,,,,0
1998,5500001005182,登記記録の閉鎖等,0,2026-01-19,2026-01-16,株式会社エフシーケーコア,,株式会社,愛媛県,松山市,梅田町４番５９号,,38,201,7918051,,,2026-01-16,登記官による閉鎖,,,2015-10-05,1,,,,,,0
1999,5500001005216,登記記録の閉鎖等,0,2026-01-19,2026-01-16,株式会社　ぼく乃夢,,株式会社,愛媛県,松山市,南吉田町２８２１番地４,,38,201,7918042,,,2026-01-16,登記官による閉鎖,,,2015-10-05,1,,,,,ボクノユメ,0
2000,5500001005257,登記記録の閉鎖等,0,2026-01-19,2026-01-16,日本グリーンテック株式会社,,株式会社,愛媛県,松山市,一番町１丁目７番地６,,38,201,7900001,,,2026-01-16,登記官による閉鎖,,,2015-10-05,1,,,,,,0
2001,5500001007022,登記記録の閉鎖等,0,2026-01-19,2026-01-16,株式会社三企,,株式会社,愛媛県,伊予郡砥部町,北川毛２０８番地,,38,402,7912131,,,2026-01-16,登記官による閉鎖,,,2015-10-05,1,,,,,サンキ,0
2002,5500001007113,登記記録の閉鎖等,0,2026-01-19,2026-01-16,株式会社松山住セ生コン,,株式会社,愛媛県,東温市,則之内甲７１９番地１,,38,215,7910311,,,2026-01-16,登記官による閉鎖,,,2015-10-05,1,,,,,,0
2003,5500001007229,登記記録の閉鎖等,0,2026-01-19,2026-01-16,愛媛県環境リサイクル株式会社,,株式会社,愛媛県,伊予郡砥部町,八倉６４番地１,,38,402,7912111,,,2026-01-16,登記官による閉鎖,,,2015-10-05,1,,,,,,0
2004,5500001007831,登記記録の閉鎖等,0,2026-01-19,2026-01-16,西瀬戸産業株式会社,,株式会社,愛媛県,喜多郡内子町,五十崎甲１９７７番地１,,38,422,7950301,,,2026-01-16,登記官による閉鎖,,,2015-10-05,1,,,,,,0
2005,5500001007988,登記記録の閉鎖等,0,2026-01-19,2026-01-16,西日本開発株式会社,,株式会社,愛媛県,大洲市,菅田町菅田丙５７２番地３,,38,207,7950081,,,2026-01-16,登記官による閉鎖,,,2015-10-05,1,,,,,,0
2006,5500001008474,登記記録の閉鎖等,0,2026-01-19,2026-01-16,株式会社八幡浜測量事務所,,株式会社,愛媛県,八幡浜市,保内町宮内５番耕地８７番地９,,38,204,7960202,,,2026-01-16,登記官による閉鎖,,,2015-10-05,1,,,,,,0
2007,5500001008887,登記記録の閉鎖等,0,2026-01-19,2026-01-16,株式会社イナミトータル,,株式会社,愛媛県,西条市,ひうち６番地１２,,38,206,7930003,,,2026-01-16,登記官による閉鎖,,,2015-10-05,1,,,,,,0
2008,5500001009002,登記記録の閉鎖等,0,2026-01-19,2026-01-16,四国開発工業株式会社,,株式会社,愛媛県,西条市,中西３９５番地,,38,206,7930052,,,2026-01-16,登記官による閉鎖,,,2015-10-05,1,,,,,,0
2009,5500001009068,登記記録の閉鎖等,0,2026-01-19,2026-01-16,東亜実業株式会社,,株式会社,愛媛県,西条市,飯岡３８３６番地の３,,38,206,7930010,,,2026-01-16,登記官による閉鎖,,,2015-10-05,1,,,,,,0
2010,5500001009076,登記記録の閉鎖等,0,2026-01-19,2026-01-16,株式会社西原商会,,株式会社,愛媛県,西条市,大町７２６番地,,38,206,7930030,,,2026-01-16,登記官による閉鎖,,,2015-10-05,1,,,,,,0
2011,5500001009299,登記記録の閉鎖等,0,2026-01-19,2026-01-16,株式会社玉井呉服店,,株式会社,愛媛県,西条市,壬生川５２番地,,38,206,7991341,,,2026-01-16,登記官による閉鎖,,,2015-10-05,1,,,,,,0
2012,5500001009349,登記記録の閉鎖等,0,2026-01-19,2026-01-16,徳永縫製株式会社,,株式会社,愛媛県,西条市,丹原町田野上方２４６番地１,,38,206,7910522,,,2026-01-16,登記官による閉鎖,,,2015-10-05,1,,,,,,0
2013,5500001009423,登記記録の閉鎖等,0,2026-01-19,2026-01-16,吉岡被服株式会社,,株式会社,愛媛県,西条市,桑村２６６番地,,38,206,7991323,,,2026-01-16,登記官による閉鎖,,,2015-10-05,1,,,,,,0
2014,5500001009687,登記記録の閉鎖等,0,2026-01-19,2026-01-16,株式会社エステートホーム,,株式会社,愛媛県,新居浜市,田所町１番４０号,,38,205,7920804,,,2026-01-16,登記官による閉鎖,,,2015-10-05,1,,,,,,0
2015,5500001009893,登記記録の閉鎖等,0,2026-01-19,2026-01-16,四国道路工業株式会社,,株式会社,愛媛県,新居浜市,垣生３丁目乙３１０番地２,,38,205,7920872,,,2026-01-16,登記官による閉鎖,,,2015-10-05,1,,,,,,0
2016,5500001010034,登記記録の閉鎖等,0,2026-01-19,2026-01-16,株式会社成産,,株式会社,愛媛県,新居浜市,新田町１丁目６番６号,,38,205,7920003,,,2026-01-16,登記官による閉鎖,,,2015-10-05,1,,,,,,0
2017,5500001010389,登記記録の閉鎖等,0,2026-01-19,2026-01-16,株式会社ジェイ・ユー・エイッチ,,株式会社,愛媛県,新居浜市,八雲町９番１５１号,,38,205,7920805,,,2026-01-16,登記官による閉鎖,,,2015-10-05,1,,,,,,0
2018,5500001010406,登記記録の閉鎖等,0,2026-01-19,2026-01-16,株式会社明巧エンジニアリング,,株式会社,愛媛県,新居浜市,磯浦町１４番２０号,,38,205,7920002,,,2026-01-16,登記官による閉鎖,,,2015-10-05,1,,,,,,0
2019,5500001011445,登記記録の閉鎖等,0,2026-01-19,2026-01-16,北田石油株式会社,,株式会社,愛媛県,今治市,恵美須町２丁目３番地５,,38,202,7940031,,,2026-01-16,登記官による閉鎖,,,2015-10-05,1,,,,,,0
2020,5500001011593,登記記録の閉鎖等,0,2026-01-19,2026-01-16,在間興業株式会社,,株式会社,愛媛県,今治市,黄金町６丁目２番地２,,38,202,7940037,,,2026-01-16,登記官による閉鎖,,,2015-10-05,1,,,,,,0
2021,5500001011800,登記記録の閉鎖等,0,2026-01-19,2026-01-16,株式会社相互不動産,,株式会社,愛媛県,今治市,小泉４丁目２番１８号,,38,202,7940064,,,2026-01-16,登記官による閉鎖,,,2015-10-05,1,,,,,,0
2022,5500001011817,登記記録の閉鎖等,0,2026-01-19,2026-01-16,第一建設株式会社,,株式会社,愛媛県,今治市,石井町１丁目９番２５号,,38,202,7940006,,,2026-01-16,登記官による閉鎖,,,2015-10-05,1,,,,,,0
2023,5500001011833,登記記録の閉鎖等,0,2026-01-19,2026-01-16,大成住宅販売株式会社,,株式会社,愛媛県,今治市,南宝来町１丁目２番地１,,38,202,7940043,,,2026-01-16,登記官による閉鎖,,,2015-10-05,1,,,,,,0
2024,5500001012113,登記記録の閉鎖等,0,2026-01-19,2026-01-16,日本工業株式会社,,株式会社,愛媛県,今治市,別名４６９番地,,38,202,7940065,,,2026-01-16,登記官による閉鎖,,,2015-10-05,1,,,,,,0
2025,5500001012352,登記記録の閉鎖等,0,2026-01-19,2026-01-16,マルト瓦株式会社,,株式会社,愛媛県,今治市,菊間町浜２０８番地,,38,202,7992303,,,2026-01-16,登記官による閉鎖,,,2015-10-05,1,,,,,,0
2026,5500001012476,登記記録の閉鎖等,0,2026-01-19,2026-01-16,矢野久縫製株式会社,,株式会社,愛媛県,今治市,天保山町５丁目１番２９号,,38,202,7940032,,,2026-01-16,登記官による閉鎖,,,2015-10-05,1,,,,,,0
2027,5500001012773,登記記録の閉鎖等,0,2026-01-19,2026-01-16,株式会社沖浦水産,,株式会社,愛媛県,今治市,伯方町叶浦甲１６６６番地の３１,,38,202,7942302,,,2026-01-16,登記官による閉鎖,,,2015-10-05,1,,,,,,0
2028,5500001012914,登記記録の閉鎖等,0,2026-01-19,2026-01-16,株式会社関組,,株式会社,愛媛県,今治市,宮窪町宮窪４２０１番地の１,,38,202,7942203,,,2026-01-16,登記官による閉鎖,,,2015-10-05,1,,,,,,0
2029,5500001014200,登記記録の閉鎖等,0,2026-01-19,2026-01-16,株式会社井川酒類,,株式会社,愛媛県,四国中央市,三島宮川１丁目８番４２号,,38,213,7990404,,,2026-01-16,登記官による閉鎖,,,2015-10-05,1,,,,,,0
2030,5500001014316,登記記録の閉鎖等,0,2026-01-19,2026-01-16,四國パルプ工業株式会社,,株式会社,愛媛県,四国中央市,寒川町２５８２番地,,38,213,7990431,,,2026-01-16,登記官による閉鎖,,,2015-10-05,1,,,,,,0
2031,5500001014373,登記記録の閉鎖等,0,2026-01-19,2026-01-16,株式会社田井ツーリスト,,株式会社,愛媛県,四国中央市,寒川町６１４番地１,,38,213,7990431,,,2026-01-16,登記官による閉鎖,,,2015-10-05,1,,,,,,0
2032,5500001014737,登記記録の閉鎖等,0,2026-01-19,2026-01-16,株式会社東洋陸運,,株式会社,愛媛県,四国中央市,上分町樋谷８５９番地３,00007545,38,213,7990121,,,2026-01-16,登記官による閉鎖,,,2015-10-05,1,,,,,,0
2033,5500001014852,登記記録の閉鎖等,0,2026-01-19,2026-01-16,株式会社愛媛食品,00007548,株式会社,愛媛県,四国中央市,土居町土居字天神森１１０５番地,,38,213,7990711,,,2026-01-16,登記官による閉鎖,,,2015-10-05,1,,,,,,0
2034,5500001015355,登記記録の閉鎖等,0,2026-01-19,2026-01-16,株式会社大塚真珠,,株式会社,愛媛県,宇和島市,大浦甲１９８１番地６,,38,203,7980002,,,2026-01-16,登記官による閉鎖,,,2015-10-05,1,,,,,,0
2035,5500001015487,登記記録の閉鎖等,0,2026-01-19,2026-01-16,日拓建設株式会社,,株式会社,愛媛県,宇和島市,高串１番耕地２５９番地,,38,203,7980020,,,2026-01-16,登記官による閉鎖,,,2015-10-05,1,,,,,,0
2036,5500001015529,登記記録の閉鎖等,0,2026-01-19,2026-01-16,松下不動産管理株式会社,,株式会社,愛媛県,宇和島市,中央町１丁目７番１６号,,38,203,7980040,,,2026-01-16,登記官による閉鎖,,,2015-10-05,1,,,,,,0
2037,5500001015537,登記記録の閉鎖等,0,2026-01-19,2026-01-16,三島真珠株式会社,,株式会社,愛媛県,宇和島市,平浦１０５９番地２,,38,203,7980095,,,2026-01-16,登記官による閉鎖,,,2015-10-05,1,,,,,,0
2038,5500001015586,登記記録の閉鎖等,0,2026-01-19,2026-01-16,浜崎水産株式会社,,株式会社,愛媛県,宇和島市,吉田町南君１９３８番地,,38,203,7993771,,,2026-01-16,登記官による閉鎖,,,2015-10-05,1,,,,,,0
2039,5500001015677,登記記録の閉鎖等,0,2026-01-19,2026-01-16,大日工事株式会社,,株式会社,愛媛県,北宇和郡鬼北町,大字日向谷４５番地,,38,488,7981504,,,2026-01-16,登記官による閉鎖,,,2015-10-05,1,,,,,ダイニチコウジ,0
2040,5500001015776,登記記録の閉鎖等,0,2026-01-19,2026-01-16,宮下水産株式会社,,株式会社,愛媛県,南宇和郡愛南町,敦盛３０番地,,38,506,7984345,,,2026-01-16,登記官による閉鎖,,,2015-10-05,1,,,,,,0
2041,5500002003301,登記記録の閉鎖等,0,2026-01-19,2026-01-16,有限会社新光商会,,有限会社,愛媛県,松山市,錦町３番地２,,38,201,7900877,,,2026-01-16,登記官による閉鎖,,,2015-10-05,1,,,,,,0
2042,5500002011857,登記記録の閉鎖等,0,2026-01-19,2026-01-16,有限会社ブライト電子,,有限会社,愛媛県,大洲市,新谷甲１７２２番地８,,38,207,7950072,,,2026-01-16,登記官による閉鎖,,,2015-10-05,1,,,,,,0
2043,5500002021253,登記記録の閉鎖等,0,2026-01-19,2026-01-16,有限会社仁木商店,,有限会社,愛媛県,四国中央市,三島中央３丁目１４番２８号,,38,213,7990405,,,2026-01-16,登記官による閉鎖,,,2015-10-05,1,,,,,,0
2044,5500002022937,登記記録の閉鎖等,0,2026-01-19,2026-01-16,有限会社中田商店,,有限会社,愛媛県,宇和島市,丸之内５丁目８番３号,,38,203,7980060,,,2026-01-16,登記官による閉鎖,,,2015-10-05,1,,,,,,0
2045,5500003000025,登記記録の閉鎖等,0,2026-01-19,2026-01-16,合名会社白石精亮商会,,合名会社,愛媛県,松山市,新浜町１４番１４号,,38,201,7918083,,,2026-01-16,登記官による閉鎖,,,2015-10-05,1,,,,,シライシセイリョウショウカイ,0
2046,5500003000859,登記記録の閉鎖等,0,2026-01-19,2026-01-16,合同会社エム・エス・ジー,,合同会社,愛媛県,松山市,宮田町１８８番地８グランディア宮田３０４,,38,201,7900066,,,2026-01-16,登記官による閉鎖,,,2015-10-05,1,,,,,,0
2047,5500005001137,登記記録の閉鎖等,0,2026-01-19,2026-01-16,愛媛県豆腐油揚商工組合,,その他の設立登記法人,愛媛県,松山市,高岡町２８５番地１,,38,201,7918036,,,2026-01-16,登記官による閉鎖,,,2015-10-05,1,,,,,,0
2067,6010002000454,登記記録の閉鎖等,0,2026-01-19,2025-12-19,有限会社飯田工務店,,有限会社,東京都,文京区,千駄木５丁目１４番９号,,13,105,1130022,,,2025-12-19,清算の結了等,,,2015-10-05,1,,,,,イイダコウムテン,0
2089,6010405009217,登記記録の閉鎖等,0,2026-01-19,2025-12-19,一般社団法人日欧芸術文化振興会,,その他の設立登記法人,東京都,港区,高輪４丁目２４番４０号,,13,103,1080074,,,2025-12-19,清算の結了等,,,2015-10-05,1,,,,,ニチオウゲイジュツブンカシンコウカイ,0
2117,6011401018054,登記記録の閉鎖等,0,2026-01-19,2026-01-14,株式会社還元楽団,,株式会社,東京都,板橋区,大山町９番５号,,13,119,1730023,,,2026-01-14,清算の結了等,,,2015-10-05,1,,,,,カンゲンガクダン,0
2122,6011705001004,登記記録の閉鎖等,0,2026-01-19,2026-01-06,特定非営利活動法人日本間質性膀胱炎患者情報交換センター,,その他の設立登記法人,東京都,江戸川区,南葛西６丁目１５番１４－５０１号エスケービル,,13,123,1340085,,,2026-01-06,清算の結了等,,,2015-10-05,1,,,,,ニホンカンシツセイボウコウエンカンジャジョウホウコウカンセンター,0
2148,6021002018634,登記記録の閉鎖等,0,2026-01-19,2026-01-07,有限会社大川材木店,,有限会社,神奈川県,相模原市中央区,陽光台２丁目１３番６号,,14,152,2520226,,,2026-01-07,清算の結了等,,,2015-10-05,1,,,,,オオカワザイモクテン,0
2149,6021002039093,登記記録の閉鎖等,0,2026-01-19,2025-12-22,有限会社ヒートバランス,,有限会社,神奈川県,秦野市,羽根６０番地の７,,14,211,2591301,,,2025-12-22,清算の結了等,,,2015-10-05,1,,,,,ヒートバランス,0
2159,6030003021068,登記記録の閉鎖等,0,2026-01-19,2026-01-07,合同会社アッパープランニング,,合同会社,埼玉県,草加市,栄町２丁目２番１２－３０５号,,11,221,3400011,,,2026-01-07,清算の結了等,,,2023-01-30,1,,,,,アッパープランニング,0
2163,6040002016811,登記記録の閉鎖等,0,2026-01-19,2025-12-19,有限会社若葉美装,,有限会社,千葉県,千葉市若葉区,大草町５８６番地,,12,104,2640011,,,2025-12-19,清算の結了等,,,2015-10-05,1,,,,,ワカバビソウ,0
2169,6060001031306,登記記録の閉鎖等,0,2026-01-19,2026-01-15,株式会社クラフトボックス,,株式会社,栃木県,鹿沼市,東町３丁目１番８号,,09,205,3220022,,,2026-01-15,清算の結了等,,,2019-02-08,1,,,,,クラフトボックス,0
2172,6070002006603,登記記録の閉鎖等,0,2026-01-19,2026-01-14,株式会社明治デリカ群馬,,株式会社,群馬県,前橋市,西片貝町２丁目２９０番,,10,201,3710013,,,2026-01-14,清算の結了等,,,2015-10-05,1,,,,,メイジデリカグンマ,0
2187,6110003001672,登記記録の閉鎖等,0,2026-01-19,2026-01-13,合同会社いづみや,,合同会社,新潟県,糸魚川市,押上２丁目９番５９号,,15,216,9410051,,,2026-01-13,清算の結了等,,,2015-10-05,1,,,,,イヅミヤ,0
2205,6120902000773,登記記録の閉鎖等,0,2026-01-19,2026-01-13,有限会社産繊新聞社,,有限会社,大阪府,茨木市,稲葉町７番３４号,,27,211,5670827,,,2026-01-13,清算の結了等,,,2015-10-05,1,,,,,サンセンシンブンシャ,0
2216,6130005006701,登記記録の閉鎖等,0,2026-01-19,2026-01-09,特定非営利活動法人アジア太平洋心臓病学会,,その他の設立登記法人,京都府,京都市左京区,下鴨森本町１５番地財団法人生産開発科学研究所内,,26,103,6060805,,,2026-01-09,清算の結了等,,,2015-10-05,1,,,,,アジアタイヘイヨウシンゾウビョウガッカイ,0
2223,6140003005885,登記記録の閉鎖等,0,2026-01-19,2026-01-07,合同会社ＰＥＰ＆Ｃ,,合同会社,兵庫県,明石市,宮の上２番４５－１０９号,,28,203,6730031,,,2026-01-07,清算の結了等,,,2015-10-05,1,,,,,ピーイーピーアンドシー,0
2231,6180001059855,登記記録の閉鎖等,0,2026-01-19,2026-01-07,株式会社サクセススカイ,,株式会社,愛知県,名古屋市天白区,御前場町２５８番地,,23,116,4680023,,,2026-01-07,清算の結了等,,,2015-10-05,1,,,,,サクセススカイ,0
2232,6180001098267,登記記録の閉鎖等,0,2026-01-19,2026-01-13,株式会社後藤建設,,株式会社,愛知県,あま市,七宝町下之森屋敷５５７番地の１,,23,237,4970006,,,2026-01-13,清算の結了等,,,2015-10-05,1,,,,,ゴトウケンセツ,0
2246,6200001007167,登記記録の閉鎖等,0,2026-01-19,2026-01-14,株式会社清水乳業,,株式会社,岐阜県,各務原市,那加前野町３丁目１８４番地,,21,213,5040026,,,2026-01-14,清算の結了等,,,2015-10-05,1,,,,,シミズニュウギョウ,0
2275,6290002024327,登記記録の閉鎖等,0,2026-01-19,2026-01-15,株式会社わだち,,株式会社,福岡県,福岡市中央区,春吉２丁目４番１１号,,40,133,8100003,,,2026-01-15,合併による解散等,5350001002187,令和８年１月１日宮崎市橘通東三丁目８番２１号株式会社レジャークリエイトホールディングス（5350001002187）に合併し解散,2015-10-05,1,,,,,ワダチ,0
2306,6400001004152,登記記録の閉鎖等,0,2026-01-19,2026-01-08,松川温泉株式会社,,株式会社,岩手県,八幡平市,松尾寄木第１地割４１番地,,03,214,0287302,,,2026-01-08,清算の結了等,,,2015-10-05,1,,,,,マツカワオンセン,0
2307,6400001016874,登記記録の閉鎖等,0,2026-01-19,2026-01-07,株式会社Ｓライナー,,株式会社,岩手県,一関市,三関字仲田７８番地,,03,209,0210821,,,2026-01-07,清算の結了等,,,2024-12-06,1,,,,,エスライナー,0
2309,6430001054112,登記記録の閉鎖等,0,2026-01-19,2026-01-14,株式会社三栄物流,,株式会社,北海道,苫小牧市,字柏原６番地９１,,01,213,0591362,,,2026-01-14,合併による解散等,2450001001165,令和８年１月１日北海道旭川市永山北二条十一丁目３６番地の５三栄運輸株式会社（2450001001165）に合併し解散,2015-10-05,1,,,,,サンエイブツリュウ,0
2319,6480001000409,登記記録の閉鎖等,0,2026-01-19,2026-01-16,株式会社開洋,,株式会社,徳島県,徳島市,元町２丁目７番地１,,36,201,7700834,,,2026-01-16,登記官による閉鎖,,,2015-10-05,1,,,,,,0
2320,6480001000441,登記記録の閉鎖等,0,2026-01-19,2026-01-16,株式会社カネマン,,株式会社,徳島県,徳島市,佐古八番町２番４－７号,,36,201,7700028,,,2026-01-16,登記官による閉鎖,,,2015-10-05,1,,,,,,0
2321,6480001000631,登記記録の閉鎖等,0,2026-01-19,2026-01-16,株式会社紅稜,,株式会社,徳島県,徳島市,北山町神脇４４番地２,,36,201,7708032,,,2026-01-16,登記官による閉鎖,,,2015-10-05,1,,,,,,0
2322,6480001000648,登記記録の閉鎖等,0,2026-01-19,2026-01-16,国際物産株式会社,,株式会社,徳島県,徳島市,南前川町３丁目６番地,,36,201,7700808,,,2026-01-16,登記官による閉鎖,,,2015-10-05,1,,,,,,0
2323,6480001000697,登記記録の閉鎖等,0,2026-01-19,2026-01-16,株式会社サイハヒ,,株式会社,徳島県,徳島市,庄町１丁目２０番地の３,,36,201,7700044,,,2026-01-16,登記官による閉鎖,,,2015-10-05,1,,,,,,0
2324,6480001000730,登記記録の閉鎖等,0,2026-01-19,2026-01-16,佐古工業株式会社,,株式会社,徳島県,徳島市,佐古五番町１４番１号,,36,201,7700025,,,2026-01-16,登記官による閉鎖,,,2015-10-05,1,,,,,,0
2325,6480001000838,登記記録の閉鎖等,0,2026-01-19,2026-01-16,四国特品販売株式会社,,株式会社,徳島県,徳島市,不動西町４丁目１９９８番地４,,36,201,7700064,,,2026-01-16,登記官による閉鎖,,,2015-10-05,1,,,,,,0
2326,6480001000978,登記記録の閉鎖等,0,2026-01-19,2026-01-16,株式会社ターキー,,株式会社,徳島県,徳島市,新町橋２丁目２１番地,,36,201,7700904,,,2026-01-16,登記官による閉鎖,,,2015-10-05,1,,,,,,0
2327,6480001001002,登記記録の閉鎖等,0,2026-01-19,2026-01-16,高田興行株式会社,,株式会社,徳島県,徳島市,東新町２丁目２１番地,,36,201,7700912,,,2026-01-16,登記官による閉鎖,,,2015-10-05,1,,,,,,0
2328,6480001001076,登記記録の閉鎖等,0,2026-01-19,2026-01-16,中央食糧株式会社,,株式会社,徳島県,徳島市,新浜町１丁目１番１８号,,36,201,7708006,,,2026-01-16,登記官による閉鎖,,,2015-10-05,1,,,,,,0
2329,6480001001175,登記記録の閉鎖等,0,2026-01-19,2026-01-16,株式会社エス・ダブル,,株式会社,徳島県,徳島市,末広４丁目２番６号,,36,201,7700866,,,2026-01-16,登記官による閉鎖,,,2015-10-05,1,,,,,,0
2330,6480001001324,登記記録の閉鎖等,0,2026-01-19,2026-01-16,株式会社ティエイシィ,,株式会社,徳島県,徳島市,国府町池尻１番地,,36,201,7793116,,,2026-01-16,登記官による閉鎖,,,2015-10-05,1,,,,,,0
2331,6480001001563,登記記録の閉鎖等,0,2026-01-19,2026-01-16,株式会社豊田商店,,株式会社,徳島県,徳島市,幸町３丁目２４番地,,36,201,7700847,,,2026-01-16,登記官による閉鎖,,,2015-10-05,1,,,,,,0
2332,6480001001712,登記記録の閉鎖等,0,2026-01-19,2026-01-16,サンキャピタル株式会社,,株式会社,徳島県,徳島市,新町橋２丁目１４番地１号,,36,201,7700904,,,2026-01-16,登記官による閉鎖,,,2015-10-05,1,,,,,,0
2333,6480001001786,登記記録の閉鎖等,0,2026-01-19,2026-01-16,東亜建設株式会社,,株式会社,徳島県,徳島市,山城町東浜傍示５２番地１,,36,201,7708055,,,2026-01-16,登記官による閉鎖,,,2015-10-05,1,,,,,,0
2334,6480001001951,登記記録の閉鎖等,0,2026-01-19,2026-01-16,日の本商事株式会社,,株式会社,徳島県,徳島市,南昭和町１丁目２３番地三谷第一ビル,,36,201,7700944,,,2026-01-16,登記官による閉鎖,,,2015-10-05,1,,,,,,0
2335,6480001002140,登記記録の閉鎖等,0,2026-01-19,2026-01-16,株式会社吉田商店,,株式会社,徳島県,徳島市,蔵本元町２丁目４３番地２,,36,201,7700041,,,2026-01-16,登記官による閉鎖,,,2015-10-05,1,,,,,,0
2336,6480001003329,登記記録の閉鎖等,0,2026-01-19,2026-01-16,株式会社ニコニココーポレーション,,株式会社,徳島県,徳島市,国府町府中３８５番地の１,,36,201,7793122,,,2026-01-16,登記官による閉鎖,,,2015-10-05,1,,,,,,0
2337,6480001003469,登記記録の閉鎖等,0,2026-01-19,2026-01-16,株式会社ナンカイフーズ,,株式会社,徳島県,小松島市,小松島町字新港４８番地２,,36,203,7730001,,,2026-01-16,登記官による閉鎖,,,2015-10-05,1,,,,,,0
2338,6480001004946,登記記録の閉鎖等,0,2026-01-19,2026-01-16,株式会社オフィス・ケイ,,株式会社,徳島県,鳴門市,撫養町立岩字元地２９６番地,,36,202,7720017,,,2026-01-16,登記官による閉鎖,,,2015-10-05,1,,,,,,0
2339,6480001005052,登記記録の閉鎖等,0,2026-01-19,2026-01-16,株式会社ティ・エム・エス,,株式会社,徳島県,鳴門市,撫養町大桑島字北ノ浜７７番地５,,36,202,7720011,,,2026-01-16,登記官による閉鎖,,,2015-10-05,1,,,,,,0
2340,6480001005218,登記記録の閉鎖等,0,2026-01-19,2026-01-16,株式会社わかめ屋,,株式会社,徳島県,鳴門市,撫養町立岩字五枚２４５番地,,36,202,7720017,,,2026-01-16,登記官による閉鎖,,,2015-10-05,1,,,,,,0
2341,6480001005424,登記記録の閉鎖等,0,2026-01-19,2026-01-16,株式会社三喜,,株式会社,徳島県,板野郡藍住町,笠木字中野１８３番地の３,,36,403,7711262,,,2026-01-16,登記官による閉鎖,,,2015-10-05,1,,,,,,0
2342,6480001005597,登記記録の閉鎖等,0,2026-01-19,2026-01-16,共栄建設株式会社,,株式会社,徳島県,板野郡松茂町,豊久字豊久開拓５００番地の８,,36,401,7710213,,,2026-01-16,登記官による閉鎖,,,2015-10-05,1,,,,,,0
2343,6480001006629,登記記録の閉鎖等,0,2026-01-19,2026-01-16,株式会社カラオケ,,株式会社,徳島県,阿南市,内原町竹ノ内１１０番地１,,36,204,7791401,,,2026-01-16,登記官による閉鎖,,,2015-10-05,1,,,,,,0
2344,6480001006637,登記記録の閉鎖等,0,2026-01-19,2026-01-16,株式会社カネサワ,,株式会社,徳島県,阿南市,那賀川町江野島４３９番地１,,36,204,7791111,,,2026-01-16,登記官による閉鎖,,,2015-10-05,1,,,,,,0
2345,6480001007016,登記記録の閉鎖等,0,2026-01-19,2026-01-16,株式会社相生工務店,,株式会社,徳島県,那賀郡那賀町,延野字大原２４６番地の１,,36,368,7715406,,,2026-01-16,登記官による閉鎖,,,2015-10-05,1,,,,,,0
2346,6480001007305,登記記録の閉鎖等,0,2026-01-19,2026-01-16,幸友建設株式会社,,株式会社,徳島県,美馬市,美馬町字小原３３番地の１,,36,207,7712107,,,2026-01-16,登記官による閉鎖,,,2015-10-05,1,,,,,,0
2347,6480001007478,登記記録の閉鎖等,0,2026-01-19,2026-01-16,伊丹建設株式会社,,株式会社,徳島県,三好市,池田町州津藤ノ井５０６番地の１,,36,208,7780020,,,2026-01-16,登記官による閉鎖,,,2015-10-05,1,,,,,,0
2349,6480002009052,登記記録の閉鎖等,0,2026-01-19,2026-01-16,笠井道路有限会社,,有限会社,徳島県,吉野川市,鴨島町知恵島６４４番地の２,,36,205,7760014,,,2026-01-16,登記官による閉鎖,,,2015-10-05,1,,,,,カサイドウロ,0
2352,6500001000075,登記記録の閉鎖等,0,2026-01-19,2026-01-16,株式会社ケン・マツウラエンタープライズ,,株式会社,愛媛県,松山市,中西外１０３５番地１０,,38,201,7992425,,,2026-01-16,登記官による閉鎖,,,2015-10-05,1,,,,,,0
2353,6500001000133,登記記録の閉鎖等,0,2026-01-19,2026-01-16,ふじや産業株式会社,,株式会社,愛媛県,松山市,浅海原甲４０２番地１,,38,201,7992401,,,2026-01-16,登記官による閉鎖,,,2015-10-05,1,,,,,,0
2354,6500001000199,登記記録の閉鎖等,0,2026-01-19,2026-01-16,株式会社愛光通商,,株式会社,愛媛県,松山市,宮西１丁目９番２２号,,38,201,7900065,,,2026-01-16,登記官による閉鎖,,,2015-10-05,1,,,,,,0
2355,6500001000323,登記記録の閉鎖等,0,2026-01-19,2026-01-16,株式会社秋山,,株式会社,愛媛県,松山市,歩行町２丁目５番地４,,38,201,7900801,,,2026-01-16,登記官による閉鎖,,,2015-10-05,1,,,,,,0
2356,6500001000331,登記記録の閉鎖等,0,2026-01-19,2026-01-16,株式会社飛鳥愛媛,,株式会社,愛媛県,松山市,和泉北１丁目１番１４号,,38,201,7900038,,,2026-01-16,登記官による閉鎖,,,2015-10-05,1,,,,,,0
2357,6500001000414,登記記録の閉鎖等,0,2026-01-19,2026-01-16,荒井旭堂食品株式会社,,株式会社,愛媛県,松山市,河原町６番地３,,38,201,7900013,,,2026-01-16,登記官による閉鎖,,,2015-10-05,1,,,,,,0
2358,6500001000694,登記記録の閉鎖等,0,2026-01-19,2026-01-16,株式会社愛媛観光社,00007248,株式会社,愛媛県,松山市,大手町２丁目９番地２０,,38,201,7900067,,,2026-01-16,登記官による閉鎖,,,2015-10-05,1,,,,,,0
2359,6500001001940,登記記録の閉鎖等,0,2026-01-19,2026-01-16,株式会社四国伸和システム,,株式会社,愛媛県,松山市,畑寺４丁目１１番２４号,,38,201,7900913,,,2026-01-16,登記官による閉鎖,,,2015-10-05,1,,,,,,0
2360,6500001002294,登記記録の閉鎖等,0,2026-01-19,2026-01-16,スミテック株式会社,,株式会社,愛媛県,松山市,姫原３丁目２番２９号,,38,201,7918012,,,2026-01-16,登記官による閉鎖,,,2015-10-05,1,,,,,,0
2361,6500001002534,登記記録の閉鎖等,0,2026-01-19,2026-01-16,大平洋資材産業株式会社,,株式会社,愛媛県,松山市,和気町１丁目４２８番地４,,38,201,7992656,,,2026-01-16,登記官による閉鎖,,,2015-10-05,1,,,,,,0
2362,6500001002682,登記記録の閉鎖等,0,2026-01-19,2026-01-16,株式会社タラハラ,,株式会社,愛媛県,松山市,立花３丁目２番３３号,,38,201,7900966,,,2026-01-16,登記官による閉鎖,,,2015-10-05,1,,,,,,0
2363,6500001002749,登記記録の閉鎖等,0,2026-01-19,2026-01-16,ツルーファウンテン住宅信販株式会社,,株式会社,愛媛県,松山市,久万ノ台３００番地,,38,201,7918016,,,2026-01-16,登記官による閉鎖,,,2015-10-05,1,,,,,,0
2364,6500001002757,登記記録の閉鎖等,0,2026-01-19,2026-01-16,株式会社ティー・シィー・エー・ジャパン,,株式会社,愛媛県,松山市,湊町８丁目１０５番地１,,38,201,7900012,,,2026-01-16,登記官による閉鎖,,,2015-10-05,1,,,,,,0
2365,6500001002807,登記記録の閉鎖等,0,2026-01-19,2026-01-16,株式会社エヒメメディアサポート,,株式会社,愛媛県,松山市,生石町４７４番地１,,38,201,7900051,,,2026-01-16,登記官による閉鎖,,,2015-10-05,1,,,,,,0
2366,6500001002922,登記記録の閉鎖等,0,2026-01-19,2026-01-16,巴商事株式会社,,株式会社,愛媛県,松山市,竹原２丁目５番１４号,,38,201,7900053,,,2026-01-16,登記官による閉鎖,,,2015-10-05,1,,,,,,0
2367,6500001002996,登記記録の閉鎖等,0,2026-01-19,2026-01-16,株式会社中島時計店,,株式会社,愛媛県,松山市,湊町３丁目５番地１４,,38,201,7900012,,,2026-01-16,登記官による閉鎖,,,2015-10-05,1,,,,,,0
2368,6500001003160,登記記録の閉鎖等,0,2026-01-19,2026-01-16,リアスエナジー株式会社,,株式会社,愛媛県,松山市,朝生田町６丁目５番３６号,,38,201,7900952,,,2026-01-16,登記官による閉鎖,,,2015-10-05,1,,,,,,0
2369,6500001003243,登記記録の閉鎖等,0,2026-01-19,2026-01-16,株式会社二宮工務店,,株式会社,愛媛県,松山市,土居田町８８番地６,,38,201,7900056,,,2026-01-16,登記官による閉鎖,,,2015-10-05,1,,,,,,0
2370,6500001003268,登記記録の閉鎖等,0,2026-01-19,2026-01-16,株式会社野本電子会計センター,,株式会社,愛媛県,松山市,中央１丁目２２番９号,,38,201,7918015,,,2026-01-16,登記官による閉鎖,,,2015-10-05,1,,,,,,0
2371,6500001003301,登記記録の閉鎖等,0,2026-01-19,2026-01-16,株式会社汎建築研究所,,株式会社,愛媛県,松山市,溝辺町甲４９８番地１,,38,201,7910101,,,2026-01-16,登記官による閉鎖,,,2015-10-05,1,,,,,,0
2372,6500001003318,登記記録の閉鎖等,0,2026-01-19,2026-01-16,八紘開発株式会社,,株式会社,愛媛県,松山市,天山町２５５番地１,,38,201,7900951,,,2026-01-16,登記官による閉鎖,,,2015-10-05,1,,,,,,0
2373,6500001003417,登記記録の閉鎖等,0,2026-01-19,2026-01-16,七福建設工業株式会社,00007335,株式会社,愛媛県,松山市,枝松６丁目２番１３号,,38,201,7900962,,,2026-01-16,登記官による閉鎖,,,2015-10-05,1,,,,,,0
2374,6500001003549,登記記録の閉鎖等,0,2026-01-19,2026-01-16,株式会社藤原総合企画,,株式会社,愛媛県,松山市,森松町５２５番地３,,38,201,7911113,,,2026-01-16,登記官による閉鎖,,,2015-10-05,1,,,,,,0
2375,6500001003581,登記記録の閉鎖等,0,2026-01-19,2026-01-16,株式会社フライングスタッフ,,株式会社,愛媛県,松山市,湊町４丁目３番４号サンライズ豊坂２０３号,,38,201,7900012,,,2026-01-16,登記官による閉鎖,,,2015-10-05,1,,,,,,0
2376,6500001003631,登記記録の閉鎖等,0,2026-01-19,2026-01-16,株式会社ベンチャー石材,,株式会社,愛媛県,松山市,井門町１５４０番地,,38,201,7911114,,,2026-01-16,登記官による閉鎖,,,2015-10-05,1,,,,,,0
2377,6500001003672,登記記録の閉鎖等,0,2026-01-19,2026-01-16,株式会社程野庫蔵本店,,株式会社,愛媛県,松山市,勝岡町２６５番地,,38,201,7992661,,,2026-01-16,登記官による閉鎖,,,2015-10-05,1,,,,,,0
2378,6500001003739,登記記録の閉鎖等,0,2026-01-19,2026-01-16,株式会社松山ソーイング,,株式会社,愛媛県,松山市,保免上２丁目２番２３号,,38,201,7900041,,,2026-01-16,登記官による閉鎖,,,2015-10-05,1,,,,,,0
2379,6500001003953,登記記録の閉鎖等,0,2026-01-19,2026-01-16,丸高建設株式会社,,株式会社,愛媛県,松山市,余戸南３丁目１０番１９号,,38,201,7900047,,,2026-01-16,登記官による閉鎖,,,2015-10-05,1,,,,,,0
2380,6500001004373,登記記録の閉鎖等,0,2026-01-19,2026-01-16,株式会社ラックプロジェクト,,株式会社,愛媛県,松山市,山越３丁目１４番２１号,,38,201,7918013,,,2026-01-16,登記官による閉鎖,,,2015-10-05,1,,,,,,0
2381,6500001004506,登記記録の閉鎖等,0,2026-01-19,2026-01-16,四国都市開発株式会社,,株式会社,愛媛県,松山市,道後一万３番１９号郷田ビル６Ｆ,,38,201,7900844,,,2026-01-16,登記官による閉鎖,,,2015-10-05,1,,,,,,0
2382,6500001004670,登記記録の閉鎖等,0,2026-01-19,2026-01-16,日野石油株式会社,,株式会社,愛媛県,伊予市,下吾川１９８２番地の４,,38,210,7993111,,,2026-01-16,登記官による閉鎖,,,2015-10-05,1,,,,,,0
2383,6500001004745,登記記録の閉鎖等,0,2026-01-19,2026-01-16,株式会社センク,,株式会社,愛媛県,伊予市,宮下２４８番地,,38,210,7993102,,,2026-01-16,登記官による閉鎖,,,2015-10-05,1,,,,,,0
2384,6500001004828,登記記録の閉鎖等,0,2026-01-19,2026-01-16,伊豫住建株式会社,,株式会社,愛媛県,伊予郡松前町,大字西古泉２８５番地１,,38,401,7913134,,,2026-01-16,登記官による閉鎖,,,2015-10-05,1,,,,,,0
2385,6500001004943,登記記録の閉鎖等,0,2026-01-19,2026-01-16,株式会社松前メンテナンス,,株式会社,愛媛県,伊予郡松前町,大字大溝４５６番地１,,38,401,7913153,,,2026-01-16,登記官による閉鎖,,,2015-10-05,1,,,,,,0
2386,6500001004984,登記記録の閉鎖等,0,2026-01-19,2026-01-16,株式会社福岡建設,,株式会社,愛媛県,伊予市,中山町佐礼谷丙１０７０番地１１,,38,210,7913201,,,2026-01-16,登記官による閉鎖,,,2015-10-05,1,,,,,,0
2387,6500001007046,登記記録の閉鎖等,0,2026-01-19,2026-01-16,東洋住建株式会社,,株式会社,愛媛県,伊予郡砥部町,原町１００番地,,38,402,7912116,,,2026-01-16,登記官による閉鎖,,,2015-10-05,1,,,,,,0
2388,6500001007087,登記記録の閉鎖等,0,2026-01-19,2026-01-16,株式会社ジャルス,,株式会社,愛媛県,東温市,南方２４００番地,,38,215,7910301,,,2026-01-16,登記官による閉鎖,,,2015-10-05,1,,,,,,0
2389,6500001007260,登記記録の閉鎖等,0,2026-01-19,2026-01-16,株式会社ＣＭＫ,,株式会社,愛媛県,東温市,野田３丁目６番１０山根Ｍビル２０３号,,38,215,7910216,,,2026-01-16,登記官による閉鎖,,,2015-10-05,1,,,,,,0
2390,6500001008102,登記記録の閉鎖等,0,2026-01-19,2026-01-16,株式会社西興,,株式会社,愛媛県,喜多郡内子町,本川３９８５番地,,38,422,7913521,,,2026-01-16,登記官による閉鎖,,,2015-10-05,1,,,,,,0
2391,6500001008928,登記記録の閉鎖等,0,2026-01-19,2026-01-16,株式会社オートガレージ・アクティブ,,株式会社,愛媛県,西条市,飯岡１５４８番地の８,,38,206,7930010,,,2026-01-16,登記官による閉鎖,,,2015-10-05,1,,,,,,0
2392,6500001008977,登記記録の閉鎖等,0,2026-01-19,2026-01-16,株式会社西条不動産商会,,株式会社,愛媛県,西条市,神拝甲６１６番地１２,,38,206,7930041,,,2026-01-16,登記官による閉鎖,,,2015-10-05,1,,,,,,0
2393,6500001009091,登記記録の閉鎖等,0,2026-01-19,2026-01-16,株式会社ヒラヤマ,,株式会社,愛媛県,西条市,神拝甲５１１番地３１,,38,206,7930041,,,2026-01-16,登記官による閉鎖,,,2015-10-05,1,,,,,,0
2394,6500001009117,登記記録の閉鎖等,0,2026-01-19,2026-01-16,松本砕石株式会社,,株式会社,愛媛県,西条市,大町１１７６番地１サンシャイン西条１２２,,38,206,7930030,,,2026-01-16,登記官による閉鎖,,,2015-10-05,1,,,,,,0
2395,6500001009158,登記記録の閉鎖等,0,2026-01-19,2026-01-16,山庄興機株式会社,,株式会社,愛媛県,西条市,氷見丙４９９番地,,38,206,7930073,,,2026-01-16,登記官による閉鎖,,,2015-10-05,1,,,,,ヤマショウコウキ,0
2396,6500001009356,登記記録の閉鎖等,0,2026-01-19,2026-01-16,株式会社永井商店,,株式会社,愛媛県,西条市,丹原町久妙寺６３２番地４,,38,206,7910504,,,2026-01-16,登記官による閉鎖,,,2015-10-05,1,,,,,,0
2397,6500001009364,登記記録の閉鎖等,0,2026-01-19,2026-01-16,株式会社西山興業所,,株式会社,愛媛県,西条市,今在家１１３９番地,,38,206,7991362,,,2026-01-16,登記官による閉鎖,,,2015-10-05,1,,,,,,0
2398,6500001009760,登記記録の閉鎖等,0,2026-01-19,2026-01-16,株式会社桂設備,,株式会社,愛媛県,新居浜市,西町１番３０号,,38,205,7920014,,,2026-01-16,登記官による閉鎖,,,2015-10-05,1,,,,,,0
2399,6500001009819,登記記録の閉鎖等,0,2026-01-19,2026-01-16,株式会社ケイ・アイ・エス,,株式会社,愛媛県,新居浜市,南小松原町８番３７号,,38,205,7920863,,,2026-01-16,登記官による閉鎖,,,2015-10-05,1,,,,,,0
2400,6500001010207,登記記録の閉鎖等,0,2026-01-19,2026-01-16,日機産業株式会社,,株式会社,愛媛県,新居浜市,宮原町５番４１号,,38,205,7920833,,,2026-01-16,登記官による閉鎖,,,2015-10-05,1,,,,,,0
2401,6500001010215,登記記録の閉鎖等,0,2026-01-19,2026-01-16,ニッコウ機械株式会社,,株式会社,愛媛県,新居浜市,星越町１番１８号,,38,205,7920009,,,2026-01-16,登記官による閉鎖,,,2015-10-05,1,,,,,,0
2402,6500001010231,登記記録の閉鎖等,0,2026-01-19,2026-01-16,ハピネス産商株式会社,,株式会社,愛媛県,新居浜市,徳常町７番２０号,,38,205,7920022,,,2026-01-16,登記官による閉鎖,,,2015-10-05,1,,,,,,0
2403,6500001010306,登記記録の閉鎖等,0,2026-01-19,2026-01-16,株式会社丸多工務店,,株式会社,愛媛県,新居浜市,本郷２丁目５番５２号,,38,205,7920042,,,2026-01-16,登記官による閉鎖,,,2015-10-05,1,,,,,,0
2404,6500001010900,登記記録の閉鎖等,0,2026-01-19,2026-01-16,株式会社セーフティーサポート,,株式会社,愛媛県,八幡浜市,矢野町４３６番地８,,38,204,7960026,,,2026-01-16,登記官による閉鎖,,,2015-10-05,1,,,,,,0
2405,6500001011147,登記記録の閉鎖等,0,2026-01-19,2026-01-16,伊予製氷冷蔵株式会社,,株式会社,愛媛県,今治市,天保山町５丁目１８２７番地６５,,38,202,7940032,,,2026-01-16,登記官による閉鎖,,,2015-10-05,1,,,,,,0
2406,6500001011295,登記記録の閉鎖等,0,2026-01-19,2026-01-16,株式会社扇興産,,株式会社,愛媛県,今治市,大西町新町甲５２７番地１,,38,202,7992203,,,2026-01-16,登記官による閉鎖,,,2015-10-05,1,,,,,,0
2407,6500001011477,登記記録の閉鎖等,0,2026-01-19,2026-01-16,株式会社キャムフォー,,株式会社,愛媛県,今治市,常盤町７丁目４番４号,,38,202,7940015,,,2026-01-16,登記官による閉鎖,,,2015-10-05,1,,,,,,0
2408,6500001011659,登記記録の閉鎖等,0,2026-01-19,2026-01-16,株式会社四国信販トラベルサービス,,株式会社,愛媛県,今治市,共栄町２丁目１番地２１,,38,202,7940024,,,2026-01-16,登記官による閉鎖,,,2015-10-05,1,,,,,,0
2409,6500001011683,登記記録の閉鎖等,0,2026-01-19,2026-01-16,株式会社四国レジャーサービス,,株式会社,愛媛県,今治市,松本町２丁目１番地１３,,38,202,7940041,,,2026-01-16,登記官による閉鎖,,,2015-10-05,1,,,,,,0
2410,6500001011717,登記記録の閉鎖等,0,2026-01-19,2026-01-16,島田工務店株式会社,,株式会社,愛媛県,今治市,喜田村５丁目１６番２３号,,38,202,7991502,,,2026-01-16,登記官による閉鎖,,,2015-10-05,1,,,,,,0
2411,6500001011816,登記記録の閉鎖等,0,2026-01-19,2026-01-16,大一興業株式会社,,株式会社,愛媛県,今治市,長沢甲１１７６番地,,38,202,7991527,,,2026-01-16,登記官による閉鎖,,,2015-10-05,1,,,,,,0
2412,6500001011840,登記記録の閉鎖等,0,2026-01-19,2026-01-16,株式会社大伸創業,,株式会社,愛媛県,今治市,桜井団地３丁目２番地７,,38,202,7991534,,,2026-01-16,登記官による閉鎖,,,2015-10-05,1,,,,,,0
2413,6500001011857,登記記録の閉鎖等,0,2026-01-19,2026-01-16,大松産業株式会社,,株式会社,愛媛県,今治市,北日吉町３丁目３番３９号,,38,202,7940054,,,2026-01-16,登記官による閉鎖,,,2015-10-05,1,,,,,,0
2414,6500001012070,登記記録の閉鎖等,0,2026-01-19,2026-01-16,株式会社浪速企画,,株式会社,愛媛県,今治市,喜田村４丁目１３番５３号,,38,202,7991502,,,2026-01-16,登記官による閉鎖,,,2015-10-05,1,,,,,,0
2415,6500001012161,登記記録の閉鎖等,0,2026-01-19,2026-01-16,はと観光トラベル株式会社,,株式会社,愛媛県,今治市,南宝来町３丁目１番地１８,,38,202,7940043,,,2026-01-16,登記官による閉鎖,,,2015-10-05,1,,,,,,0
2416,6500001012541,登記記録の閉鎖等,0,2026-01-19,2026-01-16,吉友技建株式会社,,株式会社,愛媛県,今治市,菊間町浜３４３番地,,38,202,7992303,,,2026-01-16,登記官による閉鎖,,,2015-10-05,1,,,,,,0
2417,6500001012896,登記記録の閉鎖等,0,2026-01-19,2026-01-16,御島商事株式会社,,株式会社,愛媛県,今治市,大三島町口総４２３番地２,,38,202,7941307,,,2026-01-16,登記官による閉鎖,,,2015-10-05,1,,,,,,0
2418,6500001014546,登記記録の閉鎖等,0,2026-01-19,2026-01-16,株式会社石川製作所,,株式会社,愛媛県,四国中央市,金生町山田井２９０番地,,38,213,7990112,,,2026-01-16,登記官による閉鎖,,,2015-10-05,1,,,,,,0
2419,6500001014629,登記記録の閉鎖等,0,2026-01-19,2026-01-16,株式会社薦田工務店,,株式会社,愛媛県,四国中央市,金生町下分２０８２番地１,,38,213,7990111,,,2026-01-16,登記官による閉鎖,,,2015-10-05,1,,,,,,0
2420,6500001014942,登記記録の閉鎖等,0,2026-01-19,2026-01-16,東亜電研株式会社,,株式会社,愛媛県,四国中央市,土居町土居２７２番地５,,38,213,7990711,,,2026-01-16,登記官による閉鎖,,,2015-10-05,1,,,,,,0
2421,6500001014950,登記記録の閉鎖等,0,2026-01-19,2026-01-16,株式会社スカイウェブ,,株式会社,愛媛県,四国中央市,川之江町３２９７番地の７,,38,213,7990101,,,2026-01-16,登記官による閉鎖,,,2015-10-05,1,,,,,,0
2422,6500001014959,登記記録の閉鎖等,0,2026-01-19,2026-01-16,株式会社アシストジャパン,,株式会社,愛媛県,四国中央市,川之江町１５０６番地,,38,213,7990101,,,2026-01-16,登記官による閉鎖,,,2015-10-05,1,,,,,,0
2423,6500001014967,登記記録の閉鎖等,0,2026-01-19,2026-01-16,株式会社大西商店,,株式会社,愛媛県,四国中央市,上柏町５２番地の２,,38,213,7990412,,,2026-01-16,登記官による閉鎖,,,2015-10-05,1,,,,,オオニシショウテン,0
2424,6500001015346,登記記録の閉鎖等,0,2026-01-19,2026-01-16,愛媛福祉事業開発株式会社,,株式会社,愛媛県,宇和島市,丸穂町４丁目２番８号,,38,203,7980037,,,2026-01-16,登記官による閉鎖,,,2015-10-05,1,,,,,,0
2425,6500001015429,登記記録の閉鎖等,0,2026-01-19,2026-01-16,株式会社生長水産,,株式会社,愛媛県,宇和島市,住吉町３丁目１番７号,,38,203,7980003,,,2026-01-16,登記官による閉鎖,,,2015-10-05,1,,,,,,0
2426,6500001015593,登記記録の閉鎖等,0,2026-01-19,2026-01-16,エムシーイー株式会社,,株式会社,愛媛県,宇和島市,吉田町沖村甲６１２番地１,,38,203,7993751,,,2026-01-16,登記官による閉鎖,,,2015-10-05,1,,,,,,0
2427,6500002003151,登記記録の閉鎖等,0,2026-01-19,2026-01-15,有限会社四国コンタクトレンズセンター,,有限会社,愛媛県,松山市,一番町２丁目５番地２１,,38,201,7900001,,,2026-01-15,清算の結了等,,,2015-10-05,1,,,,,シコクコンタクトレンズセンター,0
2428,6500002009784,登記記録の閉鎖等,0,2026-01-19,2026-01-16,エフラインコンサルティング有限会社,,有限会社,愛媛県,松山市,鷹子町９４番地３,,38,201,7900925,,,2026-01-16,登記官による閉鎖,,,2015-10-05,1,,,,,,0
2429,6500002009850,登記記録の閉鎖等,0,2026-01-19,2026-01-16,有限会社ＬＵＭＩＮＯＳＯ,,有限会社,愛媛県,松山市,泉町１７番地５,,38,201,7900025,,,2026-01-16,登記官による閉鎖,,,2015-10-05,1,,,,,,0
2431,6500002015642,登記記録の閉鎖等,0,2026-01-19,2026-01-16,有限会社しまなみ物流,,有限会社,愛媛県,西条市,三芳１５３２番地,,38,206,7991301,,,2026-01-16,登記官による閉鎖,,,2015-10-05,1,,,,,,0
2432,6500002017845,登記記録の閉鎖等,0,2026-01-19,2026-01-16,有限会社エクイテイ,,有限会社,愛媛県,今治市,常盤町４丁目３番地１４,,38,202,7940015,,,2026-01-16,登記官による閉鎖,,,2015-10-05,1,,,,,,0
2433,6500002018851,登記記録の閉鎖等,0,2026-01-19,2026-01-16,有限会社新居田タオル,,有限会社,愛媛県,今治市,大西町紺原甲８７０番地１,,38,202,7992202,,,2026-01-16,登記官による閉鎖,,,2015-10-05,1,,,,,,0
2434,6500002021194,登記記録の閉鎖等,0,2026-01-19,2026-01-16,宝興運有限会社,,有限会社,愛媛県,四国中央市,三島金子３丁目２番５３号,,38,213,7990421,,,2026-01-16,登記官による閉鎖,,,2015-10-05,1,,,,,,0
2435,6500003001534,登記記録の閉鎖等,0,2026-01-19,2026-01-16,エス・ワイ・プランニング合同会社,,合同会社,愛媛県,松山市,道後湯之町９番１０号,,38,201,7900842,,,2026-01-16,登記官による閉鎖,,,2015-10-05,1,,,,,,0
2436,6500005003693,登記記録の閉鎖等,0,2026-01-19,2026-01-16,企業組合フェニックス,,その他の設立登記法人,愛媛県,八幡浜市,保内町川之石６番耕地１２８番地１,,38,204,7960201,,,2026-01-16,登記官による閉鎖,,,2015-10-05,1,,,,,,0
2442,7010001238094,登記記録の閉鎖等,0,2026-01-19,2025-12-19,株式会社ＩＣＭＧ　Ｉｍｐａｃｔ,,株式会社,東京都,千代田区,丸の内２丁目１番１号,,13,101,1000005,,,2025-12-19,清算の結了等,,,2023-08-31,1,,,,,アイシーエムジーインパクト,0
2464,7010602013565,登記記録の閉鎖等,0,2026-01-19,2026-01-05,有限会社鳥毛,,有限会社,東京都,墨田区,立川２丁目２番３号,,13,107,1300023,,,2026-01-05,清算の結了等,,,2015-10-05,1,,,,,トリゲ,0
2465,7010603008044,登記記録の閉鎖等,0,2026-01-19,2026-01-05,合同会社ＥＱＯ,,合同会社,東京都,江東区,佐賀１丁目７番４号グランイーグル門前仲町１００２,,13,108,1350031,,,2026-01-05,合併による解散等,1010001178172,令和７年１２月３１日東京都江東区佐賀一丁目７番４号株式会社Ｃａｓｔｉｆｙ（1010001178172）に合併し解散,2019-10-25,1,,,,,エコ,0
2486,7011003011423,登記記録の閉鎖等,0,2026-01-19,2026-01-07,ハピネット・ブレインエナジー合同会社,,合同会社,東京都,渋谷区,恵比寿４丁目２０番３号,,13,113,1500013,,,2026-01-07,清算の結了等,,,2020-07-20,1,,,,,ハピネットブレインエナジー,0
2500,7011601012558,登記記録の閉鎖等,0,2026-01-19,2026-01-14,株式会社須永製作所,,株式会社,東京都,練馬区,練馬１丁目３５番７号,,13,120,1760001,,,2026-01-14,清算の結了等,,,2015-10-05,1,,,,,スナガセイサクジョ,0
2506,7012303001337,登記記録の閉鎖等,0,2026-01-19,2026-01-14,ニューホライゾン投資合同会社,,合同会社,東京都,町田市,東玉川学園２丁目４番３６号,,13,209,1940042,,,2026-01-14,清算の結了等,,,2019-12-06,1,,,,,ニューホライゾントウシ,0
2507,7012702000922,登記記録の閉鎖等,0,2026-01-19,2026-01-07,有限会社新正堂塗装所,,有限会社,東京都,小平市,たかの台３７番６号,,13,211,1870024,,,2026-01-07,清算の結了等,,,2015-10-05,1,,,,,シンショウドウトソウショ,0
2509,7013202006179,登記記録の閉鎖等,0,2026-01-19,2025-12-18,有限会社ミチシタ,,有限会社,東京都,目黒区,鷹番２丁目５番２０号,,13,110,1520004,,,2025-12-18,清算の結了等,,,2015-10-05,1,,,,,ミチシタ,0
2521,7021002015894,登記記録の閉鎖等,0,2026-01-19,2025-12-19,有限会社吉田計算センター,,有限会社,神奈川県,鎌倉市,笛田５丁目４５番２２号,,14,204,2480027,,,2025-12-19,清算の結了等,,,2015-10-05,1,,,,,ヨシダケイサンセンター,0
2522,7021002028129,登記記録の閉鎖等,0,2026-01-19,2025-12-19,有限会社協伸モデル,,有限会社,神奈川県,相模原市緑区,西橋本３丁目５番６８号,,14,151,2520131,,,2025-12-19,清算の結了等,,,2015-10-05,1,,,,,キョウシンモデル,0
2534,7030002029219,登記記録の閉鎖等,0,2026-01-19,2026-01-07,有限会社コスモデンタル,,有限会社,埼玉県,所沢市,小手指南３丁目４０番地１,,11,208,3591146,,,2026-01-07,清算の結了等,,,2015-10-05,1,,,,,コスモデンタル,0
2553,7040002081920,登記記録の閉鎖等,0,2026-01-19,2025-12-22,有限会社グッドケア,,有限会社,千葉県,茂原市,高師６９番地,,12,210,2970029,,,2025-12-22,清算の結了等,,,2015-10-05,1,,,,,グッドケア,0
2577,7100005009152,登記記録の閉鎖等,0,2026-01-19,2026-01-08,医療法人康和会,,その他の設立登記法人,長野県,駒ヶ根市,東伊那９１０番地,,20,210,3994321,,,2026-01-08,清算の結了等,,,2015-10-05,1,,,,,コウワカイ,0
2591,7120002002059,登記記録の閉鎖等,0,2026-01-19,2026-01-14,有限会社スワロー,,有限会社,大阪府,大阪市阿倍野区,相生通２丁目２番２７号,,27,119,5450033,,,2026-01-14,清算の結了等,,,2015-10-05,1,,,,,スワロー,0
2605,7130001041057,登記記録の閉鎖等,0,2026-01-19,2026-01-13,株式会社サンイン,,株式会社,京都府,福知山市,字鍛冶４１番地の１,,26,201,6200034,,,2026-01-13,清算の結了等,,,2015-10-05,1,,,,,サンイン,0
2624,7180001081949,登記記録の閉鎖等,0,2026-01-19,2026-01-14,暁産業株式会社,,株式会社,愛知県,一宮市,三ツ井２丁目２８番１６号,,23,203,4910827,,,2026-01-14,清算の結了等,,,2015-10-05,1,,,,,アカツキサンギョウ,0
2633,7180302019961,登記記録の閉鎖等,0,2026-01-19,2026-01-13,有限会社衣浦食品,,有限会社,愛知県,碧南市,善明町２丁目１０５番地,,23,209,4470875,,,2026-01-13,清算の結了等,,,2015-10-05,1,,,,,キヌウラショクヒン,0
2635,7190001029179,登記記録の閉鎖等,0,2026-01-19,2026-01-13,株式会社オレンジスター,,株式会社,三重県,桑名市,多度町力尾２２４４番地,,24,205,5110125,,,2026-01-13,清算の結了等,,,2022-03-03,1,,,,,オレンジスター,0
2665,7290005019240,登記記録の閉鎖等,0,2026-01-19,2026-01-07,一般社団法人グリーンキャップ,,その他の設立登記法人,福岡県,福岡市西区,横浜２丁目８番１４号,,40,135,8190166,,,2026-01-07,清算の結了等,,,2023-12-27,1,,,,,グリーンキャップ,0
2674,7340002012928,登記記録の閉鎖等,0,2026-01-19,2026-01-13,有限会社イデア,,有限会社,鹿児島県,鹿児島市,下荒田３丁目４３番１０号山口ハイツ１０２号,,46,201,8900056,,,2026-01-13,清算の結了等,,,2015-10-05,1,,,,,イデア,0
2694,7480001000110,登記記録の閉鎖等,0,2026-01-19,2026-01-16,株式会社アイワ,,株式会社,徳島県,徳島市,安宅１丁目３番４号,,36,201,7700863,,,2026-01-16,登記官による閉鎖,,,2015-10-05,1,,,,,,0
2695,7480001000127,登記記録の閉鎖等,0,2026-01-19,2026-01-16,システム開発株式会社,,株式会社,徳島県,徳島市,大原町余慶３８番地２６,,36,201,7708012,,,2026-01-16,登記官による閉鎖,,,2015-10-05,1,,,,,,0
2696,7480001000894,登記記録の閉鎖等,0,2026-01-19,2026-01-16,株式会社シグマ,,株式会社,徳島県,徳島市,名東町１丁目１４９番地,,36,201,7700047,,,2026-01-16,登記官による閉鎖,,,2015-10-05,1,,,,,,0
2697,7480001000944,登記記録の閉鎖等,0,2026-01-19,2026-01-16,株式会社第一建物,,株式会社,徳島県,徳島市,山城西４丁目１３番地の１沖浜記念会館３階,,36,201,7708054,,,2026-01-16,登記官による閉鎖,,,2015-10-05,1,,,,,,0
2698,7480001001579,登記記録の閉鎖等,0,2026-01-19,2026-01-16,株式会社中井紙舗,,株式会社,徳島県,徳島市,籠屋町１丁目１１番地,,36,201,7700914,,,2026-01-16,登記官による閉鎖,,,2015-10-05,1,,,,,,0
2699,7480001001686,登記記録の閉鎖等,0,2026-01-19,2026-01-16,株式会社日興,,株式会社,徳島県,徳島市,寺島本町東２丁目１２番地,,36,201,7700832,,,2026-01-16,登記官による閉鎖,,,2015-10-05,1,,,,,ニッコウ,0
2700,7480001001827,登記記録の閉鎖等,0,2026-01-19,2026-01-16,株式会社ネクサスジャパン,,株式会社,徳島県,徳島市,南田宮１丁目５番６７号,,36,201,7700004,,,2026-01-16,登記官による閉鎖,,,2015-10-05,1,,,,,,0
2701,7480001001975,登記記録の閉鎖等,0,2026-01-19,2026-01-16,株式会社ファブリック,,株式会社,徳島県,徳島市,南新町１丁目８番地,,36,201,7700913,,,2026-01-16,登記官による閉鎖,,,2015-10-05,1,,,,,,0
2702,7480001002057,登記記録の閉鎖等,0,2026-01-19,2026-01-16,株式会社フルノ総研,,株式会社,徳島県,徳島市,東吉野町２丁目３７番地の１,,36,201,7700811,,,2026-01-16,登記官による閉鎖,,,2015-10-05,1,,,,,,0
2703,7480001002164,登記記録の閉鎖等,0,2026-01-19,2026-01-16,株式会社ラフィーナ,,株式会社,徳島県,徳島市,元町２丁目９番地,,36,201,7700834,,,2026-01-16,登記官による閉鎖,,,2015-10-05,1,,,,,,0
2704,7480001002338,登記記録の閉鎖等,0,2026-01-19,2026-01-16,株式会社守住官平商店,,株式会社,徳島県,徳島市,東新町１丁目５番地の３,,36,201,7700912,,,2026-01-16,登記官による閉鎖,,,2015-10-05,1,,,,,,0
2705,7480001004482,登記記録の閉鎖等,0,2026-01-19,2026-01-16,株式会社三和コーポレーション,,株式会社,徳島県,吉野川市,山川町湯立２番地の１,,36,205,7793404,,,2026-01-16,登記官による閉鎖,,,2015-10-05,1,,,,,,0
2706,7480001004929,登記記録の閉鎖等,0,2026-01-19,2026-01-16,栄和電子株式会社,,株式会社,徳島県,鳴門市,大津町長江字西大黒５２番地２,,36,202,7720033,,,2026-01-16,登記官による閉鎖,,,2015-10-05,1,,,,,,0
2707,7480001005051,登記記録の閉鎖等,0,2026-01-19,2026-01-16,テクノクリーン株式会社,,株式会社,徳島県,鳴門市,撫養町小桑島字前浜２７６番地,,36,202,7720012,,,2026-01-16,登記官による閉鎖,,,2015-10-05,1,,,,,,0
2708,7480001005068,登記記録の閉鎖等,0,2026-01-19,2026-01-16,徳石産業株式会社,,株式会社,徳島県,鳴門市,大津町吉永北ノ越１６１番地,,36,202,7720032,,,2026-01-16,登記官による閉鎖,,,2015-10-05,1,,,,,,0
2709,7480001005209,登記記録の閉鎖等,0,2026-01-19,2026-01-16,株式会社萬鉄工所,,株式会社,徳島県,鳴門市,撫養町南浜字浜田６６番地,,36,202,7720003,,,2026-01-16,登記官による閉鎖,,,2015-10-05,1,,,,,,0
2710,7480001005332,登記記録の閉鎖等,0,2026-01-19,2026-01-16,株式会社日新建工,,株式会社,徳島県,板野郡北島町,江尻字小分３０番地の３８,,36,402,7710205,,,2026-01-16,登記官による閉鎖,,,2015-10-05,1,,,,,,0
2711,7480001005456,登記記録の閉鎖等,0,2026-01-19,2026-01-16,株式会社ネクサス,,株式会社,徳島県,板野郡藍住町,東中富字龍池傍示２４番地の１１,,36,403,7711220,,,2026-01-16,登記官による閉鎖,,,2015-10-05,1,,,,,,0
2712,7480001005464,登記記録の閉鎖等,0,2026-01-19,2026-01-16,前野機械工業株式会社,,株式会社,徳島県,板野郡藍住町,富吉字中新田２３番地４,,36,403,7711230,,,2026-01-16,登記官による閉鎖,,,2015-10-05,1,,,,,,0
2713,7480001005547,登記記録の閉鎖等,0,2026-01-19,2026-01-16,梶田建設株式会社,,株式会社,徳島県,板野郡上板町,鍛冶屋原字西北原３３番地１,,36,405,7711301,,,2026-01-16,登記官による閉鎖,,,2015-10-05,1,,,,,,0
2714,7480001005596,登記記録の閉鎖等,0,2026-01-19,2026-01-16,株式会社ワン・ツーコーポレーション,,株式会社,徳島県,鳴門市,鳴門町土佐泊浦字黒山１１８番地の３５７,,36,202,7720053,,,2026-01-16,登記官による閉鎖,,,2015-10-05,1,,,,,,0
2715,7480001006652,登記記録の閉鎖等,0,2026-01-19,2026-01-16,株式会社ケイ・アイ・ティ,,株式会社,徳島県,阿南市,椿町幸野４番地３,,36,204,7791750,,,2026-01-16,登記官による閉鎖,,,2015-10-05,1,,,,,,0
2716,7480001006660,登記記録の閉鎖等,0,2026-01-19,2026-01-16,幸栄汽船株式会社,,株式会社,徳島県,阿南市,日開野町中居内３８０番地の１０,,36,204,7740013,,,2026-01-16,登記官による閉鎖,,,2015-10-05,1,,,,,,0
2717,7480001006669,登記記録の閉鎖等,0,2026-01-19,2026-01-16,コーワフーズ株式会社,,株式会社,徳島県,阿南市,富岡町トノ町４３番地の１,,36,204,7740030,,,2026-01-16,登記官による閉鎖,,,2015-10-05,1,,,,,,0
2718,7480001006900,登記記録の閉鎖等,0,2026-01-19,2026-01-16,三金食産株式会社,,株式会社,徳島県,那賀郡那賀町,大殿字西ゴヤシ１１番地１,,36,368,7716322,,,2026-01-16,登記官による閉鎖,,,2015-10-05,1,,,,,,0
2719,7480001006941,登記記録の閉鎖等,0,2026-01-19,2026-01-16,株式会社コーシン,,株式会社,徳島県,海部郡海陽町,浅川字川ヨリ東６１番地の７,,36,388,7750101,,,2026-01-16,登記官による閉鎖,,,2015-10-05,1,,,,,,0
2720,7480001010266,登記記録の閉鎖等,0,2026-01-19,2026-01-16,株式会社大和,,株式会社,徳島県,阿南市,那賀川町中島７１３番地,,36,204,7791245,,,2026-01-16,登記官による閉鎖,,,2018-03-27,1,,,,,,0
2721,7480001010506,登記記録の閉鎖等,0,2026-01-19,2026-01-16,株式会社大紋,,株式会社,徳島県,吉野川市,鴨島町知恵島９２７番地３,,36,205,7760014,,,2026-01-16,登記官による閉鎖,,,2018-10-12,1,,,,,ダイモン,0
2722,7480002009233,登記記録の閉鎖等,0,2026-01-19,2026-01-16,ダイワリース有限会社,,有限会社,徳島県,吉野川市,鴨島町麻植塚１５０番地８,,36,205,7760002,,,2026-01-16,登記官による閉鎖,,,2015-10-05,1,,,,,,0
2723,7480002010141,登記記録の閉鎖等,0,2026-01-19,2026-01-16,有限会社ファーム近藤,,有限会社,徳島県,阿波市,市場町興崎字北分１３５番地,,36,206,7711622,,,2026-01-16,登記官による閉鎖,,,2015-10-05,1,,,,,,0
2724,7480002010356,登記記録の閉鎖等,0,2026-01-19,2026-01-16,有限会社オクノ,,有限会社,徳島県,鳴門市,瀬戸町明神字二軒家３７番地,,36,202,7710360,,,2026-01-16,登記官による閉鎖,,,2015-10-05,1,,,,,,0
2725,7480002015116,登記記録の閉鎖等,0,2026-01-19,2026-01-16,有限会社森徳商店,,有限会社,徳島県,美馬郡つるぎ町,貞光字町３０番地の１,,36,468,7794101,,,2026-01-16,登記官による閉鎖,,,2015-10-05,1,,,,,,0
2727,7480005005337,登記記録の閉鎖等,0,2026-01-19,2026-01-16,医療法人斎木医院,,その他の設立登記法人,徳島県,美馬市,脇町字西赤谷２０９番地８,,36,207,7793742,,,2026-01-16,登記官による閉鎖,,,2015-10-05,1,,,,,,0
2728,7500001000157,登記記録の閉鎖等,0,2026-01-19,2026-01-16,宮野鬼瓦工業株式会社,,株式会社,愛媛県,松山市,土手内１８０番地２,,38,201,7992432,,,2026-01-16,登記官による閉鎖,,,2015-10-05,1,,,,,,0
2729,7500001000561,登記記録の閉鎖等,0,2026-01-19,2026-01-16,株式会社インターナショナルメディアミックス,,株式会社,愛媛県,松山市,束本１丁目７番５号,,38,201,7900916,,,2026-01-16,登記官による閉鎖,,,2015-10-05,1,,,,,,0
2730,7500001000900,登記記録の閉鎖等,0,2026-01-19,2026-01-16,栄星技研株式会社,,株式会社,愛媛県,松山市,小栗１丁目６番２６号,,38,201,7900036,,,2026-01-16,登記官による閉鎖,,,2015-10-05,1,,,,,,0
2731,7500001000917,登記記録の閉鎖等,0,2026-01-19,2026-01-16,株式会社エアポート,,株式会社,愛媛県,松山市,余戸中３丁目５番３８号,,38,201,7900045,,,2026-01-16,登記官による閉鎖,,,2015-10-05,1,,,,,,0
2732,7500001000966,登記記録の閉鎖等,0,2026-01-19,2026-01-16,株式会社エヌ・エー・シー四国,,株式会社,愛媛県,松山市,下伊台町１２３８番２,,38,201,7910112,,,2026-01-16,登記官による閉鎖,,,2015-10-05,1,,,,,,0
2733,7500001001007,登記記録の閉鎖等,0,2026-01-19,2026-01-16,株式会社スペース未来,,株式会社,愛媛県,松山市,久万ノ台１番地３,,38,201,7918016,,,2026-01-16,登記官による閉鎖,,,2015-10-05,1,,,,,,0
2734,7500001001411,登記記録の閉鎖等,0,2026-01-19,2026-01-16,株式会社協和堂,,株式会社,愛媛県,松山市,窪野町甲６８１番地,,38,201,7911131,,,2026-01-16,登記官による閉鎖,,,2015-10-05,1,,,,,,0
2735,7500001001527,登記記録の閉鎖等,0,2026-01-19,2026-01-16,株式会社スギコーポレーション,,株式会社,愛媛県,松山市,西石井６丁目１０番２１号,,38,201,7900931,,,2026-01-16,登記官による閉鎖,,,2015-10-05,1,,,,,,0
2736,7500001001849,登記記録の閉鎖等,0,2026-01-19,2026-01-16,三洋ビル株式会社,,株式会社,愛媛県,松山市,歩行町１丁目４番地２,,38,201,7900801,,,2026-01-16,登記官による閉鎖,,,2015-10-05,1,,,,,,0
2737,7500001002013,登記記録の閉鎖等,0,2026-01-19,2026-01-16,株式会社ジェイ・エム・ピー,,株式会社,愛媛県,松山市,余戸中４丁目５番１９号,,38,201,7900045,,,2026-01-16,登記官による閉鎖,,,2015-10-05,1,,,,,,0
2738,7500001002129,登記記録の閉鎖等,0,2026-01-19,2026-01-16,翔栄運輸株式会社,00007314,株式会社,愛媛県,松山市,南吉田町２３６７番地１,,38,201,7918042,,,2026-01-16,登記官による閉鎖,,,2015-10-05,1,,,,,,0
2739,7500001002211,登記記録の閉鎖等,0,2026-01-19,2026-01-16,ジャパン・インターネット・セール株式会社,,株式会社,愛媛県,松山市,小村町２５番地１,,38,201,7911125,,,2026-01-16,登記官による閉鎖,,,2015-10-05,1,,,,,,0
2740,7500001002376,登記記録の閉鎖等,0,2026-01-19,2026-01-16,株式会社センタービル開発,,株式会社,愛媛県,松山市,正円寺１丁目６番１４号,,38,201,7900904,,,2026-01-16,登記官による閉鎖,,,2015-10-05,1,,,,,,0
2741,7500001002483,登記記録の閉鎖等,0,2026-01-19,2026-01-16,株式会社ダイソウ,,株式会社,愛媛県,松山市,来住町６５３番地１,,38,201,7911102,,,2026-01-16,登記官による閉鎖,,,2015-10-05,1,,,,,,0
2742,7500001002574,登記記録の閉鎖等,0,2026-01-19,2026-01-16,大和リゾート株式会社,,株式会社,愛媛県,松山市,小野町乙１６番地１,,38,201,7910241,,,2026-01-16,登記官による閉鎖,,,2015-10-05,1,,,,,,0
2743,7500001002665,登記記録の閉鎖等,0,2026-01-19,2026-01-16,株式会社谷本外装,,株式会社,愛媛県,松山市,溝辺町甲８０６番地１,,38,201,7910101,,,2026-01-16,登記官による閉鎖,,,2015-10-05,1,,,,,,0
2744,7500001002756,登記記録の閉鎖等,0,2026-01-19,2026-01-16,ティー・エム・ワイテクノ株式会社,,株式会社,愛媛県,松山市,堀江町甲８６３番地８,,38,201,7992651,,,2026-01-16,登記官による閉鎖,,,2015-10-05,1,,,,,,0
2745,7500001002871,登記記録の閉鎖等,0,2026-01-19,2026-01-16,株式会社東洋企画,,株式会社,愛媛県,松山市,朝生田町２丁目３番１号,,38,201,7900952,,,2026-01-16,登記官による閉鎖,,,2015-10-05,1,,,,,,0
2746,7500001002888,登記記録の閉鎖等,0,2026-01-19,2026-01-16,株式会社トゥルース,,株式会社,愛媛県,松山市,束本１丁目４番３７号,,38,201,7900916,,,2026-01-16,登記官による閉鎖,,,2015-10-05,1,,,,,,0
2747,7500001002946,登記記録の閉鎖等,0,2026-01-19,2026-01-16,ドリーム観光株式会社,,株式会社,愛媛県,松山市,住吉２丁目６番１９号,,38,201,7918062,,,2026-01-16,登記官による閉鎖,,,2015-10-05,1,,,,,,0
2748,7500001003102,登記記録の閉鎖等,0,2026-01-19,2026-01-16,株式会社日本ロイアルハウス,,株式会社,愛媛県,松山市,味酒町１丁目１０番地１,,38,201,7900814,,,2026-01-16,登記官による閉鎖,,,2015-10-05,1,,,,,,0
2749,7500001003250,登記記録の閉鎖等,0,2026-01-19,2026-01-16,株式会社ネイチャーショップ,,株式会社,愛媛県,松山市,南町１丁目２番２８号,,38,201,7900856,,,2026-01-16,登記官による閉鎖,,,2015-10-05,1,,,,,,0
2750,7500001003325,登記記録の閉鎖等,0,2026-01-19,2026-01-16,株式会社八匠,,株式会社,愛媛県,松山市,南吉田町９９２番地６,,38,201,7918042,,,2026-01-16,登記官による閉鎖,,,2015-10-05,1,,,,,,0
2751,7500001003548,登記記録の閉鎖等,0,2026-01-19,2026-01-16,株式会社ふじわら,,株式会社,愛媛県,松山市,土居町８０２番地１,,38,201,7911115,,,2026-01-16,登記官による閉鎖,,,2015-10-05,1,,,,,,0
2752,7500001003580,登記記録の閉鎖等,0,2026-01-19,2026-01-16,株式会社プレイン開発,,株式会社,愛媛県,松山市,朝美２丁目１０番９号,,38,201,7918023,,,2026-01-16,登記官による閉鎖,,,2015-10-05,1,,,,,,0
2753,7500001003663,登記記録の閉鎖等,0,2026-01-19,2026-01-16,株式会社ボントン,,株式会社,愛媛県,松山市,千舟町８丁目７２番地１,,38,201,7900011,,,2026-01-16,登記官による閉鎖,,,2015-10-05,1,,,,,,0
2754,7500001004356,登記記録の閉鎖等,0,2026-01-19,2026-01-16,株式会社和幸建装,,株式会社,愛媛県,松山市,来住町１２６１番地,,38,201,7911102,,,2026-01-16,登記官による閉鎖,,,2015-10-05,1,,,,,,0
2755,7500001004521,登記記録の閉鎖等,0,2026-01-19,2026-01-16,株式会社ウエッジ四国,,株式会社,愛媛県,松山市,紅葉町６番１６号,,38,201,7900861,,,2026-01-16,登記官による閉鎖,,,2015-10-05,1,,,,,,0
2756,7500001004678,登記記録の閉鎖等,0,2026-01-19,2026-01-16,株式会社アートホーム,,株式会社,愛媛県,伊予市,上野６２５番地２,,38,210,7993103,,,2026-01-16,登記官による閉鎖,,,2015-10-05,1,,,,,,0
2757,7500001005081,登記記録の閉鎖等,0,2026-01-19,2026-01-16,株式会社モクレン,,株式会社,愛媛県,伊予市,下吾川２０４５番地１,,38,210,7993111,,,2026-01-16,登記官による閉鎖,,,2015-10-05,1,,,,,,0
2758,7500001005131,登記記録の閉鎖等,0,2026-01-19,2026-01-16,えひめナビ株式会社,,株式会社,愛媛県,松山市,空港通６丁目１１番４号,,38,201,7910054,,,2026-01-16,登記官による閉鎖,,,2015-10-05,1,,,,,,0
2759,7500001005197,登記記録の閉鎖等,0,2026-01-19,2026-01-16,株式会社プラン・ドゥー・シー,,株式会社,愛媛県,松山市,祝谷６丁目１１２２番地１２,,38,201,7900833,,,2026-01-16,登記官による閉鎖,,,2015-10-05,1,,,,,,0
2760,7500001007243,登記記録の閉鎖等,0,2026-01-19,2026-01-16,株式会社大一冷機,,株式会社,愛媛県,東温市,北方１８２６番地１,,38,215,7910303,,,2026-01-16,登記官による閉鎖,,,2015-10-05,1,,,,,,0
2761,7500001007672,登記記録の閉鎖等,0,2026-01-19,2026-01-16,神南酒造株式会社,,株式会社,愛媛県,大洲市,新谷町甲２４番地,,38,207,7950073,,,2026-01-16,登記官による閉鎖,,,2015-10-05,1,,,,,,0
2762,7500001007747,登記記録の閉鎖等,0,2026-01-19,2026-01-16,株式会社八多浪興産,,株式会社,愛媛県,大洲市,春賀甲１７１４番地１,,38,207,7950046,,,2026-01-16,登記官による閉鎖,,,2015-10-05,1,,,,,,0
2763,7500001007870,登記記録の閉鎖等,0,2026-01-19,2026-01-16,丸秀殖産株式会社,,株式会社,愛媛県,大洲市,長浜町櫛生甲１５１番地２,,38,207,7993452,,,2026-01-16,登記官による閉鎖,,,2015-10-05,1,,,,,,0
2764,7500001008803,登記記録の閉鎖等,0,2026-01-19,2026-01-16,株式会社シャイニィグループ,,株式会社,愛媛県,松山市,湊町７丁目２番地４,,38,201,7900012,,,2026-01-16,登記官による閉鎖,,,2015-10-05,1,,,,,,0
2765,7500001008902,登記記録の閉鎖等,0,2026-01-19,2026-01-16,今川建材株式会社,,株式会社,愛媛県,西条市,福武甲１１７８番地,,38,206,7930035,,,2026-01-16,登記官による閉鎖,,,2015-10-05,1,,,,,,0
2766,7500001009082,登記記録の閉鎖等,0,2026-01-19,2026-01-16,株式会社働く人の店,,株式会社,愛媛県,西条市,大町１５２４番地２,,38,206,7930030,,,2026-01-16,登記官による閉鎖,,,2015-10-05,1,,,,,,0
2767,7500001009347,登記記録の閉鎖等,0,2026-01-19,2026-01-16,道前砕石株式会社,,株式会社,愛媛県,西条市,丹原町臼坂丁９２２番地,,38,206,7910537,,,2026-01-16,登記官による閉鎖,,,2015-10-05,1,,,,,,0
2768,7500001009578,登記記録の閉鎖等,0,2026-01-19,2026-01-16,株式会社青野組,,株式会社,愛媛県,新居浜市,新須賀町４丁目２番２６号,,38,205,7920802,,,2026-01-16,登記官による閉鎖,,,2015-10-05,1,,,,,,0
2769,7500001009652,登記記録の閉鎖等,0,2026-01-19,2026-01-16,株式会社イー・イー・オー,,株式会社,愛媛県,新居浜市,星原町１２番５０号,,38,205,7920825,,,2026-01-16,登記官による閉鎖,,,2015-10-05,1,,,,,,0
2770,7500001010032,登記記録の閉鎖等,0,2026-01-19,2026-01-16,株式会社青雲産業社,,株式会社,愛媛県,新居浜市,観音原町甲２番地１,,38,205,7920851,,,2026-01-16,登記官による閉鎖,,,2015-10-05,1,,,,,,0
2771,7500001010288,登記記録の閉鎖等,0,2026-01-19,2026-01-16,豊洋食品株式会社,,株式会社,愛媛県,新居浜市,多喜浜字北浜７６番地２５,,38,205,7920893,,,2026-01-16,登記官による閉鎖,,,2015-10-05,1,,,,,,0
2772,7500001011146,登記記録の閉鎖等,0,2026-01-19,2026-01-16,伊豫繊維工業株式会社,,株式会社,愛媛県,今治市,宅間甲３５０番地の１,,38,202,7940083,,,2026-01-16,登記官による閉鎖,,,2015-10-05,1,,,,,,0
2773,7500001011212,登記記録の閉鎖等,0,2026-01-19,2026-01-16,今治マリンサービス株式会社,,株式会社,愛媛県,今治市,別宮町８丁目２番２５号,,38,202,7940026,,,2026-01-16,登記官による閉鎖,,,2015-10-05,1,,,,,,0
2774,7500001011278,登記記録の閉鎖等,0,2026-01-19,2026-01-16,愛媛砂利販売株式会社,,株式会社,愛媛県,今治市,東門町１丁目５番地１７,,38,202,7940033,,,2026-01-16,登記官による閉鎖,,,2015-10-05,1,,,,,,0
2775,7500001011360,登記記録の閉鎖等,0,2026-01-19,2026-01-16,オリエンタルシッピング株式会社,,株式会社,愛媛県,今治市,波方町波方甲２２６３番地５８,,38,202,7992101,,,2026-01-16,登記官による閉鎖,,,2015-10-05,1,,,,,,0
2776,7500001011369,登記記録の閉鎖等,0,2026-01-19,2026-01-16,菅建設株式会社,,株式会社,愛媛県,今治市,関前岡村甲４番地,,38,202,7941101,,,2026-01-16,登記官による閉鎖,,,2015-10-05,1,,,,,,0
2777,7500001011476,登記記録の閉鎖等,0,2026-01-19,2026-01-16,共立建設株式会社,,株式会社,愛媛県,今治市,恵美須町２丁目７番地２,,38,202,7940031,,,2026-01-16,登記官による閉鎖,,,2015-10-05,1,,,,,,0
2778,7500001011641,登記記録の閉鎖等,0,2026-01-19,2026-01-16,三和商事株式会社,,株式会社,愛媛県,今治市,拝志７番２０号,,38,202,7991504,,,2026-01-16,登記官による閉鎖,,,2015-10-05,1,,,,,,0
2779,7500001011939,登記記録の閉鎖等,0,2026-01-19,2026-01-16,株式会社近見設備,,株式会社,愛媛県,今治市,近見町４丁目５番５０号,,38,202,7940007,,,2026-01-16,登記官による閉鎖,,,2015-10-05,1,,,,,,0
2780,7500001011988,登記記録の閉鎖等,0,2026-01-19,2026-01-16,株式会社藤倉商店,,株式会社,愛媛県,今治市,常盤町４丁目９番地の１,,38,202,7940015,,,2026-01-16,登記官による閉鎖,,,2015-10-05,1,,,,,,0
2781,7500001012103,登記記録の閉鎖等,0,2026-01-19,2026-01-16,株式会社日教研,,株式会社,愛媛県,今治市,南高下町３丁目２番２０号,,38,202,7940811,,,2026-01-16,登記官による閉鎖,,,2015-10-05,1,,,,,,0
2782,7500001012185,登記記録の閉鎖等,0,2026-01-19,2026-01-16,株式会社檜垣,,株式会社,愛媛県,今治市,古国分２丁目９番１９号,,38,202,7991521,,,2026-01-16,登記官による閉鎖,,,2015-10-05,1,,,,,,0
2783,7500001012350,登記記録の閉鎖等,0,2026-01-19,2026-01-16,丸徳食品株式会社,,株式会社,愛媛県,今治市,南鳥生町３丁目２番２４号,,38,202,7940802,,,2026-01-16,登記官による閉鎖,,,2015-10-05,1,,,,,,0
2784,7500001012367,登記記録の閉鎖等,0,2026-01-19,2026-01-16,株式会社丸良,,株式会社,愛媛県,今治市,東村南１丁目１０番４３号,,38,202,7991507,,,2026-01-16,登記官による閉鎖,,,2015-10-05,1,,,,,,0
2785,7500001012565,登記記録の閉鎖等,0,2026-01-19,2026-01-16,ワールドライン株式会社,,株式会社,愛媛県,今治市,地堀５丁目１番９号,,38,202,7992117,,,2026-01-16,登記官による閉鎖,,,2015-10-05,1,,,,,,0
2786,7500001012581,登記記録の閉鎖等,0,2026-01-19,2026-01-16,渡辺木工株式会社,,株式会社,愛媛県,今治市,郷桜井２丁目８番２５号,,38,202,7991523,,,2026-01-16,登記官による閉鎖,,,2015-10-05,1,,,,,,0
2787,7500001012706,登記記録の閉鎖等,0,2026-01-19,2026-01-16,株式会社テイ・エフ服飾,,株式会社,愛媛県,今治市,蒼社町１丁目２番９号,,38,202,7940058,,,2026-01-16,登記官による閉鎖,,,2015-10-05,1,,,,,,0
2788,7500001012879,登記記録の閉鎖等,0,2026-01-19,2026-01-16,株式会社相互生コン,,株式会社,愛媛県,今治市,伯方町伊方乙２４６番地,,38,202,7942303,,,2026-01-16,登記官による閉鎖,,,2015-10-05,1,,,,,,0
2789,7500001013191,登記記録の閉鎖等,0,2026-01-19,2026-01-16,株式会社シルク,,株式会社,愛媛県,今治市,伯方町有津甲１２２番地１,,38,202,7942301,,,2026-01-16,登記官による閉鎖,,,2015-10-05,1,,,,,,0
2790,7500001013571,登記記録の閉鎖等,0,2026-01-19,2026-01-16,株式会社志将工業,,株式会社,愛媛県,新居浜市,山田町１３番１１号,,38,205,7920837,,,2026-01-16,登記官による閉鎖,,,2015-10-05,1,,,,,,0
2791,7500001014256,登記記録の閉鎖等,0,2026-01-19,2026-01-16,株式会社川之江鉄工所,,株式会社,愛媛県,四国中央市,中曽根町８８５番地１４,,38,213,7990413,,,2026-01-16,登記官による閉鎖,,,2015-10-05,1,,,,,,0
2792,7500001014388,登記記録の閉鎖等,0,2026-01-19,2026-01-16,ダンオーボックス株式会社,,株式会社,愛媛県,四国中央市,村松町３７５番地,,38,213,7990401,,,2026-01-16,登記官による閉鎖,,,2015-10-05,1,,,,,,0
2793,7500001014529,登記記録の閉鎖等,0,2026-01-19,2026-01-16,アトラス設計株式会社,,株式会社,愛媛県,四国中央市,金田町金川乙６００番地１,,38,213,7990123,,,2026-01-16,登記官による閉鎖,,,2015-10-05,1,,,,,,0
2794,7500001014537,登記記録の閉鎖等,0,2026-01-19,2026-01-16,株式会社石川食品,,株式会社,愛媛県,四国中央市,金生町山田井１０６８番地,,38,213,7990112,,,2026-01-16,登記官による閉鎖,,,2015-10-05,1,,,,,,0
2795,7500001014660,登記記録の閉鎖等,0,2026-01-19,2026-01-16,株式会社四国総合企画,,株式会社,愛媛県,四国中央市,金田町半田乙２５５番地の１,,38,213,7990122,,,2026-01-16,登記官による閉鎖,,,2015-10-05,1,,,,,,0
2796,7500001014842,登記記録の閉鎖等,0,2026-01-19,2026-01-16,株式会社ラピスラズリ,,株式会社,愛媛県,四国中央市,上分町５１２番地の２,,38,213,7990121,,,2026-01-16,登記官による閉鎖,,,2015-10-05,1,,,,,,0
2797,7500001014891,登記記録の閉鎖等,0,2026-01-19,2026-01-16,株式会社泰山,,株式会社,愛媛県,四国中央市,土居町上野甲９２９番地,,38,213,7990721,,,2026-01-16,登記官による閉鎖,,,2015-10-05,1,,,,,,0
2798,7500001014909,登記記録の閉鎖等,0,2026-01-19,2026-01-16,藤田建設株式会社,,株式会社,愛媛県,四国中央市,土居町蕪崎１１６０番地,,38,213,7990724,,,2026-01-16,登記官による閉鎖,,,2015-10-05,1,,,,,,0
2799,7500001015634,登記記録の閉鎖等,0,2026-01-19,2026-01-16,船田木材商事株式会社,,株式会社,愛媛県,宇和島市,津島町高田乙２４６番地,,38,203,7983302,,,2026-01-16,登記官による閉鎖,,,2015-10-05,1,,,,,,0
2800,7500001017358,登記記録の閉鎖等,0,2026-01-19,2026-01-16,株式会社スプレッド,,株式会社,愛媛県,今治市,桜井乙３２番地３３６,,38,202,7991524,,,2026-01-16,登記官による閉鎖,,,2015-10-05,1,,,,,,0
2802,7500002006418,登記記録の閉鎖等,0,2026-01-19,2026-01-16,有限会社万福,,有限会社,愛媛県,松山市,北斎院町９１７番地４,,38,201,7918031,,,2026-01-16,登記官による閉鎖,,,2015-10-05,1,,,,,,0
2803,7500002006938,登記記録の閉鎖等,0,2026-01-19,2026-01-16,有限会社八百金,,有限会社,愛媛県,松山市,中村４丁目７番１７号,,38,201,7900964,,,2026-01-16,登記官による閉鎖,,,2015-10-05,1,,,,,,0
2804,7500002007861,登記記録の閉鎖等,0,2026-01-19,2026-01-16,有限会社相撲料理翠風,,有限会社,愛媛県,松山市,三番町１丁目２番地５,,38,201,7900003,,,2026-01-16,登記官による閉鎖,,,2015-10-05,1,,,,,,0
2805,7500002009511,登記記録の閉鎖等,0,2026-01-19,2026-01-16,有限会社丸元,,有限会社,愛媛県,伊予郡松前町,大字筒井１２６０番地,,38,401,7913120,,,2026-01-16,登記官による閉鎖,,,2015-10-05,1,,,,,,0
2806,7500002010238,登記記録の閉鎖等,0,2026-01-19,2026-01-16,有限会社桜花,,有限会社,愛媛県,松山市,竹原３丁目１８番２４号,,38,201,7900053,,,2026-01-16,登記官による閉鎖,,,2015-10-05,1,,,,,,0
2807,7500002014107,登記記録の閉鎖等,0,2026-01-19,2026-01-16,有限会社工藤商事,,有限会社,愛媛県,西条市,大町字弁財天６９４番地７,,38,206,7930030,,,2026-01-16,登記官による閉鎖,,,2015-10-05,1,,,,,,0
2808,7500002016136,登記記録の閉鎖等,0,2026-01-19,2026-01-16,有限会社加藤鍛工所,,有限会社,愛媛県,新居浜市,菊本町２丁目１３番４３号,,38,205,7920801,,,2026-01-16,登記官による閉鎖,,,2015-10-05,1,,,,,,0
2809,7500002020105,登記記録の閉鎖等,0,2026-01-19,2026-01-16,有限会社中野産業,,有限会社,愛媛県,今治市,伯方町伊方甲１８１４番地の４,,38,202,7942303,,,2026-01-16,登記官による閉鎖,,,2015-10-05,1,,,,,,0
2810,7500002024502,登記記録の閉鎖等,0,2026-01-19,2026-01-16,赤峰農林有限会社,,有限会社,愛媛県,西宇和郡伊方町,川永田甲８５３番地,,38,442,7960312,,,2026-01-16,登記官による閉鎖,,,2024-12-06,1,,,,,アカミネノウリン,0
2811,7500003000898,登記記録の閉鎖等,0,2026-01-19,2026-01-16,合資会社古辰,,合資会社,愛媛県,四国中央市,上分町８３０番地の３,,38,213,7990121,,,2026-01-16,登記官による閉鎖,,,2015-10-05,1,,,,,,0
2812,7500005004451,登記記録の閉鎖等,0,2026-01-19,2026-01-16,全日本金属情報機器労働組合新居浜支部,,その他の設立登記法人,愛媛県,新居浜市,松木町２番７号新居浜民主センター内,,38,205,7920829,,,2026-01-16,登記官による閉鎖,,,2015-10-05,1,,,,,,0
2819,8010001096715,登記記録の閉鎖等,0,2026-01-19,2025-12-19,株式会社シー・エム・アルファ,,株式会社,東京都,中央区,湊１丁目６番１１号,,13,102,1040043,,,2025-12-19,清算の結了等,,,2015-10-05,1,,,,,シーエムエアルファ,0
2841,8010403015801,登記記録の閉鎖等,0,2026-01-19,2026-01-13,ＥＭＧルブリカンツ合同会社,,合同会社,神奈川県,横浜市鶴見区,安善町２丁目１番１号,,14,101,2300035,,,2026-01-13,合併による解散等,4010001133876,令和８年１月１日東京都千代田区大手町一丁目１番２号ＥＮＥＯＳ株式会社（4010001133876）に合併し解散,2016-12-16,1,,,,,イーエムジールブリカンツ,0
2842,8010403021345,登記記録の閉鎖等,0,2026-01-19,2025-12-08,アイアール・インターナショナル合同会社,,合同会社,東京都,港区,浜松町２丁目２番１５号浜松町ダイヤビル２Ｆ,,13,103,1050013,,,2025-12-08,合併による解散等,2010401079408,令和７年１２月１日東京都港区芝５－２７－３－３Ｆ、ＭＢＣ、Ｂ－９７ウーマンサポートジャパン株式会社（2010401079408）に合併し解散,2019-09-02,1,,,,,アイアールインターナショナル,0
2868,8011301006801,登記記録の閉鎖等,0,2026-01-19,2026-01-07,株式会社丸松,,株式会社,東京都,杉並区,久我山２丁目２３番３１号,,13,115,1680082,,,2026-01-07,清算の結了等,,,2015-10-05,1,,,,,マルマツ,0
2881,8012701017396,登記記録の閉鎖等,0,2026-01-19,2026-01-06,株式会社ＡＳＡホーム,,株式会社,東京都,東久留米市,柳窪４丁目７番３０号,,13,222,2030044,,,2026-01-06,清算の結了等,,,2022-12-15,1,,,,,アサホーム,0
2884,8012702010326,登記記録の閉鎖等,0,2026-01-19,2026-01-06,ＨＯＵＳＥ　ＤＥＳＩＧＮ有限会社,,有限会社,東京都,小平市,鈴木町１丁目３１６番地,,13,211,1870011,,,2026-01-06,清算の結了等,,,2015-10-05,1,,,,,ハウスデザイン,0
2894,8021001010094,登記記録の閉鎖等,0,2026-01-19,2025-12-22,株式会社ビーコン,,株式会社,神奈川県,鎌倉市,腰越１丁目５番１２号,,14,204,2480033,,,2025-12-22,清算の結了等,,,2015-10-05,1,,,,,ビーコン,0
2896,8021002026239,登記記録の閉鎖等,0,2026-01-19,2025-12-19,有限会社リトル,,有限会社,神奈川県,相模原市南区,上鶴間６丁目１９番２０号,,14,153,2520302,,,2025-12-19,清算の結了等,,,2015-10-05,1,,,,,リトル,0
2897,8021002059569,登記記録の閉鎖等,0,2026-01-19,2025-12-19,シークレットパトロール有限会社,,有限会社,神奈川県,平塚市,西真土１丁目１０番２５－４０４号フレアエクレール湘南,,14,203,2540019,,,2025-12-19,清算の結了等,,,2015-10-05,1,,,,,,0
2900,8030001054456,登記記録の閉鎖等,0,2026-01-19,2026-01-06,太田物産株式会社,,株式会社,埼玉県,川越市,宮元町１６番地２,,11,201,3500838,,,2026-01-06,清算の結了等,,,2015-10-05,1,,,,,オオタブッサン,0
2906,8030002029936,登記記録の閉鎖等,0,2026-01-19,2026-01-07,有限会社禅と念仏社,,有限会社,埼玉県,所沢市,こぶし町１９番２４号,,11,208,3590033,,,2026-01-07,清算の結了等,,,2015-10-05,1,,,,,ゼントネンブツシャ,0
2907,8030003027402,登記記録の閉鎖等,0,2026-01-19,2026-01-07,道正合同会社,,合同会社,埼玉県,川越市,大字的場５１０番地２８,,11,201,3501101,,,2026-01-07,清算の結了等,,,2025-08-14,1,,,,,ドウセイ,0
2913,8040002099706,登記記録の閉鎖等,0,2026-01-19,2025-12-22,有限会社浜すし,,有限会社,千葉県,館山市,館山１５６０番地の１７,,12,205,2940036,,,2025-12-22,清算の結了等,,,2015-10-05,1,,,,,,0
2929,8080401006300,登記記録の閉鎖等,0,2026-01-19,2026-01-06,株式会社舞阪鉄工所,,株式会社,静岡県,浜松市中央区,舞阪町舞阪２３９３番地,,22,138,4310211,,,2026-01-06,清算の結了等,,,2015-10-05,1,,,,,マイサカテッコウジョ,0
2930,8080402015449,登記記録の閉鎖等,0,2026-01-19,2026-01-06,浜北技研有限会社,,有限会社,静岡県,浜松市浜名区,上善地７７９番地,,22,139,4340028,,,2026-01-06,清算の結了等,,,2015-10-05,1,,,,,ハマキタギケン,0
2933,8090001007648,登記記録の閉鎖等,0,2026-01-19,2026-01-07,ＰＥＰＰＹＴＡＣ株式会社,,株式会社,山梨県,甲府市,高畑１丁目２０番３８号,,19,201,4000042,,,2026-01-07,清算の結了等,,,2015-10-05,1,,,,,ペッピータック,0
2962,8120905005165,登記記録の閉鎖等,0,2026-01-19,2026-01-09,一般社団法人国際・リンパディメール協会,,その他の設立登記法人,大阪府,豊中市,新千里北町２丁目２０－１３,,27,203,5600081,,,2026-01-09,清算の結了等,,,2015-10-05,1,,,,,コクサイリンパディメールキョウカイ,0
2970,8130002008475,登記記録の閉鎖等,0,2026-01-19,2026-01-13,有限会社エム・クリーン,,有限会社,京都府,京都市西京区,上桂前田町３９番地の５,,26,111,6158223,,,2026-01-13,清算の結了等,,,2015-10-05,1,,,,,エムクリーン,0
2980,8160001017929,登記記録の閉鎖等,0,2026-01-19,2026-01-16,株式会社Ｍ－Ｔｅｃｈ　Ｅｎｇｉｎｅｅｒｉｎｇ,,株式会社,滋賀県,犬上郡多賀町,大字富之尾１３４０番地,,25,443,5220337,,,2026-01-16,清算の結了等,,,2015-10-05,1,,,,,エムテックエンジニアリング,0
2995,8190001027842,登記記録の閉鎖等,0,2026-01-19,2026-01-09,株式会社柳,,株式会社,三重県,鈴鹿市,上田町３９７番地,,24,207,5130018,,,2026-01-09,清算の結了等,,,2020-11-30,1,,,,,ヤナギ,0
3001,8200001040356,登記記録の閉鎖等,0,2026-01-19,2026-01-14,株式会社ｇｒａｎｔ,,株式会社,岐阜県,羽島市,竹鼻町丸の内１０丁目１５番地,,21,209,5016244,,,2026-01-14,清算の結了等,,,2022-08-08,1,,,,,グラント,0
3013,8260001017605,登記記録の閉鎖等,0,2026-01-19,2026-01-05,株式会社リビング三和,,株式会社,岡山県,倉敷市,西富井１１４８番地１,,33,202,7100845,,,2026-01-05,合併による解散等,7260002018561,令和８年１月１日岡山県倉敷市西富井１１４８番地の１株式会社リビング三和設備（7260002018561）に合併し解散,2015-10-05,1,,,,,リビングサンワ,0
3058,8380002035164,登記記録の閉鎖等,0,2026-01-19,2026-01-13,有限会社やま企画,,有限会社,福島県,耶麻郡北塩原村,大字檜原字甚九郎沢山１０９７番地１０９,,07,402,9660400,,,2026-01-13,清算の結了等,,,2015-10-05,1,,,,,ヤマキカク,0
3077,8480001000935,登記記録の閉鎖等,0,2026-01-19,2026-01-16,株式会社タイトー,,株式会社,徳島県,徳島市,城東町２丁目４４番地,,36,201,7700862,,,2026-01-16,登記官による閉鎖,,,2015-10-05,1,,,,,,0
3078,8480001001082,登記記録の閉鎖等,0,2026-01-19,2026-01-16,株式会社中日住建産業,,株式会社,徳島県,徳島市,末広５丁目１番１１号,,36,201,7700866,,,2026-01-16,登記官による閉鎖,,,2015-10-05,1,,,,,,0
3079,8480001001124,登記記録の閉鎖等,0,2026-01-19,2026-01-16,清水建材株式会社,,株式会社,徳島県,徳島市,富田浜２丁目１３番地,,36,201,7700931,,,2026-01-16,登記官による閉鎖,,,2015-10-05,1,,,,,,0
3080,8480001001215,登記記録の閉鎖等,0,2026-01-19,2026-01-16,株式会社スズキグリーンキーパー,,株式会社,徳島県,徳島市,川内町大松４６８番地１,,36,201,7710131,,,2026-01-16,登記官による閉鎖,,,2015-10-05,1,,,,,,0
3082,8480001001339,登記記録の閉鎖等,0,2026-01-19,2026-01-16,株式会社デンタリンクジャパン,,株式会社,徳島県,徳島市,南昭和町７丁目８０番地の１０,,36,201,7700944,,,2026-01-16,登記官による閉鎖,,,2015-10-05,1,,,,,,0
3083,8480001001529,登記記録の閉鎖等,0,2026-01-19,2026-01-16,徳石建設工業株式会社,,株式会社,徳島県,徳島市,万代町４丁目２１番地３,,36,201,7700941,,,2026-01-16,登記官による閉鎖,,,2015-10-05,1,,,,,,0
3084,8480001001842,登記記録の閉鎖等,0,2026-01-19,2026-01-16,株式会社ハートツウハート徳島,,株式会社,徳島県,徳島市,徳島町３丁目３０番地１,,36,201,7700852,,,2026-01-16,登記官による閉鎖,,,2015-10-05,1,,,,,,0
3085,8480001002031,登記記録の閉鎖等,0,2026-01-19,2026-01-16,株式会社藤井商店,,株式会社,徳島県,徳島市,川内町平石流通団地５５番地,,36,201,7710138,,,2026-01-16,登記官による閉鎖,,,2015-10-05,1,,,,,,0
3086,8480001002089,登記記録の閉鎖等,0,2026-01-19,2026-01-16,北辰建設株式会社,,株式会社,徳島県,徳島市,徳島町３丁目３０番地１,,36,201,7700852,,,2026-01-16,登記官による閉鎖,,,2015-10-05,1,,,,,,0
3087,8480001002163,登記記録の閉鎖等,0,2026-01-19,2026-01-16,株式会社ラブオール,,株式会社,徳島県,徳島市,佐古二番町１８番１２号,,36,201,7700022,,,2026-01-16,登記官による閉鎖,,,2015-10-05,1,,,,,,0
3088,8480001002452,登記記録の閉鎖等,0,2026-01-19,2026-01-16,三井海洋株式会社,,株式会社,徳島県,徳島市,南沖洲３丁目９番３６号,,36,201,7700874,,,2026-01-16,登記官による閉鎖,,,2015-10-05,1,,,,,,0
3089,8480001002709,登記記録の閉鎖等,0,2026-01-19,2026-01-16,株式会社デイストリーム,,株式会社,徳島県,徳島市,中昭和町５丁目１２番地５,,36,201,7700943,,,2026-01-16,登記官による閉鎖,,,2015-10-05,1,,,,,,0
3090,8480001002790,登記記録の閉鎖等,0,2026-01-19,2026-01-16,日本新華ネット株式会社,,株式会社,徳島県,徳島市,南田宮４丁目６番９号,,36,201,7700004,,,2026-01-16,登記官による閉鎖,,,2015-10-05,1,,,,,,0
3091,8480001003302,登記記録の閉鎖等,0,2026-01-19,2026-01-16,益田製菓株式会社,,株式会社,徳島県,徳島市,大道１丁目４８番地,,36,201,7700923,,,2026-01-16,登記官による閉鎖,,,2018-02-28,1,,,,,,0
3092,8480001003319,登記記録の閉鎖等,0,2026-01-19,2026-01-16,株式会社イワムラ,,株式会社,徳島県,徳島市,津田本町５丁目２番７６号,,36,201,7708003,,,2026-01-16,登記官による閉鎖,,,2015-10-05,1,,,,,,0
3093,8480001003351,登記記録の閉鎖等,0,2026-01-19,2026-01-16,株式会社伊沢輪業商会,,株式会社,徳島県,小松島市,中郷町字桜馬場６５番地,,36,203,7730016,,,2026-01-16,登記官による閉鎖,,,2015-10-05,1,,,,,,0
3094,8480001004473,登記記録の閉鎖等,0,2026-01-19,2026-01-16,國見電機株式会社,,株式会社,徳島県,吉野川市,鴨島町西麻植字青柳１５番地１２,,36,205,7760020,,,2026-01-16,登記官による閉鎖,,,2015-10-05,1,,,,,,0
3095,8480001004515,登記記録の閉鎖等,0,2026-01-19,2026-01-16,トスカーナ株式会社,,株式会社,徳島県,吉野川市,鴨島町牛島７７８番地３,,36,205,7760001,,,2026-01-16,登記官による閉鎖,,,2015-10-05,1,,,,,,0
3096,8480001004597,登記記録の閉鎖等,0,2026-01-19,2026-01-16,株式会社アクシス,,株式会社,徳島県,阿波市,土成町吉田字岡の段の二３９番地６,,36,206,7711507,,,2026-01-16,登記官による閉鎖,,,2015-10-05,1,,,,,,0
3097,8480001004928,登記記録の閉鎖等,0,2026-01-19,2026-01-16,株式会社エバンテーユ,,株式会社,徳島県,鳴門市,撫養町立岩字六枚１７７番地,,36,202,7720017,,,2026-01-16,登記官による閉鎖,,,2015-10-05,1,,,,,,0
3098,8480001005026,登記記録の閉鎖等,0,2026-01-19,2026-01-16,大進建設株式会社,,株式会社,徳島県,鳴門市,大津町木津野字東辰己２５番地１１,,36,202,7720031,,,2026-01-16,登記官による閉鎖,,,2015-10-05,1,,,,,,0
3099,8480001005133,登記記録の閉鎖等,0,2026-01-19,2026-01-16,春本商事株式会社,,株式会社,徳島県,鳴門市,大麻町大谷字西台３８番地,,36,202,7790302,,,2026-01-16,登記官による閉鎖,,,2015-10-05,1,,,,,,0
3100,8480001005208,登記記録の閉鎖等,0,2026-01-19,2026-01-16,株式会社ユーエスエス,,株式会社,徳島県,鳴門市,里浦町里浦字恵美寿６７３番地,,36,202,7720021,,,2026-01-16,登記官による閉鎖,,,2015-10-05,1,,,,,,0
3101,8480001005265,登記記録の閉鎖等,0,2026-01-19,2026-01-16,株式会社北島工芸,,株式会社,徳島県,板野郡北島町,太郎八須字惣野１番地７,,36,402,7710202,,,2026-01-16,登記官による閉鎖,,,2015-10-05,1,,,,,,0
3102,8480001005307,登記記録の閉鎖等,0,2026-01-19,2026-01-16,株式会社タイロス・ジャパン,,株式会社,徳島県,板野郡北島町,中村字日開野１１番地の８,,36,402,7710203,,,2026-01-16,登記官による閉鎖,,,2015-10-05,1,,,,,,0
3103,8480001005595,登記記録の閉鎖等,0,2026-01-19,2026-01-16,株式会社グローバルデザイン,,株式会社,徳島県,板野郡北島町,新喜来字北古田１６番地の１,,36,402,7710207,,,2026-01-16,登記官による閉鎖,,,2015-10-05,1,,,,,,0
3104,8480001005645,登記記録の閉鎖等,0,2026-01-19,2026-01-16,ひかり貿易株式会社,,株式会社,徳島県,板野郡藍住町,徳命字前須西８７番地３,,36,403,7711212,,,2026-01-16,登記官による閉鎖,,,2015-10-05,1,,,,,,0
3105,8480001006684,登記記録の閉鎖等,0,2026-01-19,2026-01-16,株式会社三田興産,,株式会社,徳島県,阿南市,福村町南筋９７番地,,36,204,7740004,,,2026-01-16,登記官による閉鎖,,,2015-10-05,1,,,,,,0
3106,8480001007336,登記記録の閉鎖等,0,2026-01-19,2026-01-16,株式会社太一興業,,株式会社,徳島県,美馬市,脇町字曽江名３８１番地,,36,207,7793741,,,2026-01-16,登記官による閉鎖,,,2015-10-05,1,,,,,,0
3107,8480001007518,登記記録の閉鎖等,0,2026-01-19,2026-01-16,株式会社三興エンジニアリング,,株式会社,徳島県,三好郡東みよし町,加茂２４２０番地の１,,36,489,7794701,,,2026-01-16,登記官による閉鎖,,,2015-10-05,1,,,,,,0
3108,8480001007567,登記記録の閉鎖等,0,2026-01-19,2026-01-16,株式会社ハッコー,,株式会社,徳島県,三好郡東みよし町,加茂２９９６番地の１,,36,489,7794701,,,2026-01-16,登記官による閉鎖,,,2015-10-05,1,,,,,,0
3109,8480002008168,登記記録の閉鎖等,0,2026-01-19,2026-01-16,有限会社ミナミ出版,,有限会社,徳島県,小松島市,中郷町字前田４３番地の６,,36,203,7730016,,,2026-01-16,登記官による閉鎖,,,2015-10-05,1,,,,,,0
3110,8480002010495,登記記録の閉鎖等,0,2026-01-19,2026-01-16,有限会社沢建土木,,有限会社,徳島県,鳴門市,大津町木津野字堤の内８番地,,36,202,7720031,,,2026-01-16,登記官による閉鎖,,,2015-10-05,1,,,,,,0
3111,8480002012368,登記記録の閉鎖等,0,2026-01-19,2026-01-16,有限会社ＭＮＬ,,有限会社,徳島県,板野郡北島町,北村字壱町四反地１８番地２,,36,402,7710201,,,2026-01-16,登記官による閉鎖,,,2015-10-05,1,,,,,,0
3112,8480003000413,登記記録の閉鎖等,0,2026-01-19,2026-01-16,合同会社灯,,合同会社,徳島県,板野郡北島町,新喜来字砂原７６番地５,,36,402,7710207,,,2026-01-16,登記官による閉鎖,,,2015-10-05,1,,,,,,0
3115,8490002010164,登記記録の閉鎖等,0,2026-01-19,2026-01-14,西川建設有限会社,,有限会社,高知県,土佐市,塚地１４３番地１,,39,205,7811153,,,2026-01-14,清算の結了等,,,2015-10-05,1,,,,,ニシガワケンセツ,0
3116,8500001000065,登記記録の閉鎖等,0,2026-01-19,2026-01-16,金子海運株式会社,,株式会社,愛媛県,松山市,北条１１０３番地３,,38,201,7992431,,,2026-01-16,登記官による閉鎖,,,2015-10-05,1,,,,,,0
3117,8500001000098,登記記録の閉鎖等,0,2026-01-19,2026-01-16,株式会社セイフティ・モア,,株式会社,愛媛県,松山市,河野別府１０７５番地１,,38,201,7992436,,,2026-01-16,登記官による閉鎖,,,2015-10-05,1,,,,,,0
3118,8500001000172,登記記録の閉鎖等,0,2026-01-19,2026-01-16,株式会社ユニバーサルパール,,株式会社,愛媛県,松山市,夏目甲３４番地２７,,38,201,7992437,,,2026-01-16,登記官による閉鎖,,,2015-10-05,1,,,,,,0
3119,8500001000197,登記記録の閉鎖等,0,2026-01-19,2026-01-16,愛光建設株式会社,,株式会社,愛媛県,松山市,衣山２丁目２番１４号,,38,201,7918025,,,2026-01-16,登記官による閉鎖,,,2015-10-05,1,,,,,,0
3120,8500001000206,登記記録の閉鎖等,0,2026-01-19,2026-01-16,株式会社アイ企画,,株式会社,愛媛県,松山市,南梅本町甲９１０番地３,,38,201,7910245,,,2026-01-16,登記官による閉鎖,,,2015-10-05,1,,,,,,0
3121,8500001000271,登記記録の閉鎖等,0,2026-01-19,2026-01-16,株式会社アオノ,,株式会社,愛媛県,松山市,宮西３丁目４番１５号,,38,201,7900065,,,2026-01-16,登記官による閉鎖,,,2015-10-05,1,,,,,,0
3122,8500001000560,登記記録の閉鎖等,0,2026-01-19,2026-01-16,株式会社伊藤商事,,株式会社,愛媛県,松山市,千舟町４丁目２番地２,,38,201,7900011,,,2026-01-16,登記官による閉鎖,,,2015-10-05,1,,,,,,0
3123,8500001000833,登記記録の閉鎖等,0,2026-01-19,2026-01-16,株式会社愛媛パックス,,株式会社,愛媛県,松山市,上野町１３９８番地８,,38,201,7911136,,,2026-01-16,登記官による閉鎖,,,2015-10-05,1,,,,,,0
3124,8500001001022,登記記録の閉鎖等,0,2026-01-19,2026-01-16,株式会社エムズカンパニー,,株式会社,愛媛県,松山市,市坪北１丁目８番１９号,,38,201,7900946,,,2026-01-16,登記官による閉鎖,,,2015-10-05,1,,,,,,0
3125,8500001001096,登記記録の閉鎖等,0,2026-01-19,2026-01-16,株式会社オオモト,,株式会社,愛媛県,松山市,三番町７丁目２番地６,,38,201,7900003,,,2026-01-16,登記官による閉鎖,,,2015-10-05,1,,,,,,0
3126,8500001001154,登記記録の閉鎖等,0,2026-01-19,2026-01-16,株式会社オハラ,,株式会社,愛媛県,松山市,柳井町３丁目１番地４,,38,201,7900014,,,2026-01-16,登記官による閉鎖,,,2015-10-05,1,,,,,,0
3127,8500001001195,登記記録の閉鎖等,0,2026-01-19,2026-01-16,株式会社学習塾優,,株式会社,愛媛県,松山市,中央１丁目２２番９号,,38,201,7918015,,,2026-01-16,登記官による閉鎖,,,2015-10-05,1,,,,,,0
3128,8500001001237,登記記録の閉鎖等,0,2026-01-19,2026-01-16,株式会社勝インターナショナル,,株式会社,愛媛県,松山市,千舟町７丁目６番地４,,38,201,7900011,,,2026-01-16,登記官による閉鎖,,,2015-10-05,1,,,,,,0
3129,8500001001311,登記記録の閉鎖等,0,2026-01-19,2026-01-16,株式会社カルパ,,株式会社,愛媛県,松山市,勝岡町２７０番地１,,38,201,7992661,,,2026-01-16,登記官による閉鎖,,,2015-10-05,1,,,,,,0
3130,8500001001377,登記記録の閉鎖等,0,2026-01-19,2026-01-16,株式会社協栄金属,,株式会社,愛媛県,松山市,堀江町甲１２９２番地４,,38,201,7992651,,,2026-01-16,登記官による閉鎖,,,2015-10-05,1,,,,,,0
3131,8500001001732,登記記録の閉鎖等,0,2026-01-19,2026-01-16,株式会社栄車体,,株式会社,愛媛県,松山市,三番町８丁目３５４番地,,38,201,7900003,,,2026-01-16,登記官による閉鎖,,,2015-10-05,1,,,,,,0
3132,8500001001823,登記記録の閉鎖等,0,2026-01-19,2026-01-16,株式会社三宝クリエイト,,株式会社,愛媛県,松山市,中央１丁目２２番９号,,38,201,7918015,,,2026-01-16,登記官による閉鎖,,,2015-10-05,1,,,,,,0
3133,8500001002029,登記記録の閉鎖等,0,2026-01-19,2026-01-16,株式会社シーズコーポレーション,,株式会社,愛媛県,松山市,空港通２丁目１８番７号,,38,201,7900054,,,2026-01-16,登記官による閉鎖,,,2015-10-05,1,,,,,,0
3134,8500001002219,登記記録の閉鎖等,0,2026-01-19,2026-01-16,ジャパンプロジェクト株式会社,,株式会社,愛媛県,松山市,平和通５丁目１番地１７,,38,201,7900807,,,2026-01-16,登記官による閉鎖,,,2015-10-05,1,,,,,,0
3135,8500001002292,登記記録の閉鎖等,0,2026-01-19,2026-01-16,住金ステリ西日本株式会社,,株式会社,愛媛県,松山市,南吉田町２３５９番地１,,38,201,7918042,,,2026-01-16,登記官による閉鎖,,,2015-10-05,1,,,,,,0
3136,8500001002391,登記記録の閉鎖等,0,2026-01-19,2026-01-16,株式会社センバ,,株式会社,愛媛県,松山市,小栗６丁目１番３１号,,38,201,7900036,,,2026-01-16,登記官による閉鎖,,,2015-10-05,1,,,,,,0
3137,8500001002805,登記記録の閉鎖等,0,2026-01-19,2026-01-16,テレコム・ジャパン株式会社,,株式会社,愛媛県,松山市,衣山５丁目８１４番地,,38,201,7918025,,,2026-01-16,登記官による閉鎖,,,2015-10-05,1,,,,,,0
3138,8500001003019,登記記録の閉鎖等,0,2026-01-19,2026-01-16,株式会社ナカムラ,,株式会社,愛媛県,松山市,天山３丁目１４番１７号,,38,201,7900951,,,2026-01-16,登記官による閉鎖,,,2015-10-05,1,,,,,,0
3139,8500001003051,登記記録の閉鎖等,0,2026-01-19,2026-01-16,日本エコー株式会社,,株式会社,愛媛県,松山市,道後一万３番１９号,,38,201,7900844,,,2026-01-16,登記官による閉鎖,,,2015-10-05,1,,,,,,0
3140,8500001003118,登記記録の閉鎖等,0,2026-01-19,2026-01-16,西口産業株式会社,,株式会社,愛媛県,松山市,久万ノ台３３６番地,,38,201,7918016,,,2026-01-16,登記官による閉鎖,,,2015-10-05,1,,,,,,0
3141,8500001003134,登記記録の閉鎖等,0,2026-01-19,2026-01-16,株式会社西建工務店,,株式会社,愛媛県,松山市,西石井２丁目７番６号,,38,201,7900931,,,2026-01-16,登記官による閉鎖,,,2015-10-05,1,,,,,,0
3142,8500001003456,登記記録の閉鎖等,0,2026-01-19,2026-01-16,株式会社フォアサイト,,株式会社,愛媛県,松山市,日の出町７番８号,,38,201,7900961,,,2026-01-16,登記官による閉鎖,,,2015-10-05,1,,,,,,0
3143,8500001003737,登記記録の閉鎖等,0,2026-01-19,2026-01-16,松山グラウト工業株式会社,,株式会社,愛媛県,松山市,東石井５丁目１３番３５号,,38,201,7900932,,,2026-01-16,登記官による閉鎖,,,2015-10-05,1,,,,,,0
3144,8500001003786,登記記録の閉鎖等,0,2026-01-19,2026-01-16,株式会社松山トツプ,,株式会社,愛媛県,松山市,歩行町１丁目７番地５,,38,201,7900801,,,2026-01-16,登記官による閉鎖,,,2015-10-05,1,,,,,,0
3145,8500001003852,登記記録の閉鎖等,0,2026-01-19,2026-01-16,株式会社真佐土木工業,,株式会社,愛媛県,松山市,余戸東３丁目８番２４号,,38,201,7900044,,,2026-01-16,登記官による閉鎖,,,2015-10-05,1,,,,,,0
3146,8500001003869,登記記録の閉鎖等,0,2026-01-19,2026-01-16,株式会社マックスプランニング,,株式会社,愛媛県,松山市,花園町５番地５,,38,201,7900005,,,2026-01-16,登記官による閉鎖,,,2015-10-05,1,,,,,,0
3147,8500001004017,登記記録の閉鎖等,0,2026-01-19,2026-01-16,株式会社みどり,,株式会社,愛媛県,松山市,北吉田町１０６５番地１,,38,201,7918041,,,2026-01-16,登記官による閉鎖,,,2015-10-05,1,,,,,,0
3148,8500001004082,登記記録の閉鎖等,0,2026-01-19,2026-01-16,株式会社ムーブ,,株式会社,愛媛県,松山市,三津２丁目６番５号,,38,201,7918061,,,2026-01-16,登記官による閉鎖,,,2015-10-05,1,,,,,,0
3149,8500001004306,登記記録の閉鎖等,0,2026-01-19,2026-01-16,株式会社揚志野,,株式会社,愛媛県,松山市,和気町１丁目５３６番地,,38,201,7992656,,,2026-01-16,登記官による閉鎖,,,2015-10-05,1,,,,,,0
3150,8500001004388,登記記録の閉鎖等,0,2026-01-19,2026-01-16,渡辺陶販株式会社,,株式会社,愛媛県,松山市,二番町１丁目１１番地５,,38,201,7900002,,,2026-01-16,登記官による閉鎖,,,2015-10-05,1,,,,,,0
3151,8500001004545,登記記録の閉鎖等,0,2026-01-19,2026-01-16,株式会社アルファ－トニーワン,,株式会社,愛媛県,松山市,星岡町６７８番地２,,38,201,7900922,,,2026-01-16,登記官による閉鎖,,,2015-10-05,1,,,,,,0
3152,8500001004553,登記記録の閉鎖等,0,2026-01-19,2026-01-16,株式会社東海いづみ,,株式会社,愛媛県,松山市,山越６丁目７番５号,,38,201,7918013,,,2026-01-16,登記官による閉鎖,,,2015-10-05,1,,,,,,0
3153,8500001005238,登記記録の閉鎖等,0,2026-01-19,2026-01-16,株式会社ライブリニス,,株式会社,愛媛県,松山市,高岡町１２７番地７,,38,201,7918036,,,2026-01-16,登記官による閉鎖,,,2015-10-05,1,,,,,,0
3154,8500001007028,登記記録の閉鎖等,0,2026-01-19,2026-01-16,株式会社ジャム,,株式会社,愛媛県,伊予郡砥部町,拾町１０５番地１,,38,402,7912113,,,2026-01-16,登記官による閉鎖,,,2015-10-05,1,,,,,,0
3155,8500001007746,登記記録の閉鎖等,0,2026-01-19,2026-01-16,晴海興業株式会社,,株式会社,愛媛県,大洲市,八多喜町甲１４７番地１,,38,207,7950041,,,2026-01-16,登記官による閉鎖,,,2015-10-05,1,,,,,,0
3156,8500001008026,登記記録の閉鎖等,0,2026-01-19,2026-01-16,新洋海運株式会社,,株式会社,愛媛県,西予市,三瓶町二及１番耕地２６９番地,,38,214,7960903,,,2026-01-16,登記官による閉鎖,,,2015-10-05,1,,,,,,0
3157,8500001008050,登記記録の閉鎖等,0,2026-01-19,2026-01-16,稲田薬品株式会社,,株式会社,愛媛県,西予市,三瓶町朝立１番耕地５４５番地第４,,38,214,7960907,,,2026-01-16,登記官による閉鎖,,,2015-10-05,1,,,,,,0
3158,8500001008100,登記記録の閉鎖等,0,2026-01-19,2026-01-16,山洋建設株式会社,,株式会社,愛媛県,喜多郡内子町,本川２４２４番地第１,,38,422,7913521,,,2026-01-16,登記官による閉鎖,,,2015-10-05,1,,,,,,0
3159,8500001008926,登記記録の閉鎖等,0,2026-01-19,2026-01-16,尾野木材工業株式会社,,株式会社,愛媛県,西条市,ひうち字西ひうち８番地１２,,38,206,7930003,,,2026-01-16,登記官による閉鎖,,,2015-10-05,1,,,,,,0
3160,8500001009057,登記記録の閉鎖等,0,2026-01-19,2026-01-16,株式会社テクニカルデザインシステム,,株式会社,愛媛県,西条市,飯岡１２４１番地の７５,,38,206,7930010,,,2026-01-16,登記官による閉鎖,,,2015-10-05,1,,,,,,0
3161,8500001009065,登記記録の閉鎖等,0,2026-01-19,2026-01-16,株式会社トミサンプルハウス,,株式会社,愛媛県,西条市,大町８４５番地１８,,38,206,7930030,,,2026-01-16,登記官による閉鎖,,,2015-10-05,1,,,,,,0
3162,8500001009172,登記記録の閉鎖等,0,2026-01-19,2026-01-16,株式会社和鋼製作所,,株式会社,愛媛県,西条市,港４１９番地,,38,206,7930046,,,2026-01-16,登記官による閉鎖,,,2015-10-05,1,,,,,,0
3163,8500001009189,登記記録の閉鎖等,0,2026-01-19,2026-01-16,株式会社瀬戸プラント建設,,株式会社,愛媛県,西条市,小松町南川甲４０４番地７,,38,206,7991102,,,2026-01-16,登記官による閉鎖,,,2015-10-05,1,,,,,,0
3164,8500001009263,登記記録の閉鎖等,0,2026-01-19,2026-01-16,光和商事株式会社,,株式会社,愛媛県,西条市,新町２１４番地２,,38,206,7991331,,,2026-01-16,登記官による閉鎖,,,2015-10-05,1,,,,,,0
3165,8500001009932,登記記録の閉鎖等,0,2026-01-19,2026-01-16,四國伸鉄鋼業株式会社,,株式会社,愛媛県,新居浜市,観音原町甲９９６番地,,38,205,7920851,,,2026-01-16,登記官による閉鎖,,,2015-10-05,1,,,,,シコクシンテツコウギョウ,0
3166,8500001010188,登記記録の閉鎖等,0,2026-01-19,2026-01-16,新居浜ホンダ自動車株式会社,,株式会社,愛媛県,新居浜市,中村松木１丁目２番３２号,,38,205,7920041,,,2026-01-16,登記官による閉鎖,,,2015-10-05,1,,,,,,0
3167,8500001010205,登記記録の閉鎖等,0,2026-01-19,2026-01-16,日東精工株式会社,,株式会社,愛媛県,新居浜市,土橋１丁目２番１５号,,38,205,7920043,,,2026-01-16,登記官による閉鎖,,,2015-10-05,1,,,,,,0
3168,8500001010394,登記記録の閉鎖等,0,2026-01-19,2026-01-16,株式会社大成重機,,株式会社,愛媛県,新居浜市,多喜浜字北浜７６番地８２,,38,205,7920893,,,2026-01-16,登記官による閉鎖,,,2015-10-05,1,,,,,,0
3169,8500001010428,登記記録の閉鎖等,0,2026-01-19,2026-01-16,アート原色印刷株式会社,,株式会社,愛媛県,新居浜市,高木町１１番５６号,,38,205,7920031,,,2026-01-16,登記官による閉鎖,,,2015-10-05,1,,,,,,0
3170,8500001011079,登記記録の閉鎖等,0,2026-01-19,2026-01-16,東プリント株式会社,,株式会社,愛媛県,今治市,東村１丁目１２番２４号,,38,202,7991506,,,2026-01-16,登記官による閉鎖,,,2015-10-05,1,,,,,,0
3171,8500001011260,登記記録の閉鎖等,0,2026-01-19,2026-01-16,株式会社エム・アール・ティー,,株式会社,愛媛県,今治市,菊間町浜２０８番地,,38,202,7992303,,,2026-01-16,登記官による閉鎖,,,2015-10-05,1,,,,,,0
3172,8500001011483,登記記録の閉鎖等,0,2026-01-19,2026-01-16,株式会社久保商店,,株式会社,愛媛県,今治市,東門町１丁目７番地の３１,,38,202,7940033,,,2026-01-16,登記官による閉鎖,,,2015-10-05,1,,,,,クボショウテン,0
3173,8500001011797,登記記録の閉鎖等,0,2026-01-19,2026-01-16,株式会社千疋屋,,株式会社,愛媛県,今治市,常盤町２丁目５番地５,,38,202,7940015,,,2026-01-16,登記官による閉鎖,,,2015-10-05,1,,,,,,0
3174,8500001011946,登記記録の閉鎖等,0,2026-01-19,2026-01-16,中外企業株式会社,,株式会社,愛媛県,今治市,東村１丁目５番１号,,38,202,7991506,,,2026-01-16,登記官による閉鎖,,,2015-10-05,1,,,,,,0
3175,8500001012069,登記記録の閉鎖等,0,2026-01-19,2026-01-16,浪速営繕株式会社,,株式会社,愛媛県,今治市,喜田村４丁目１３番５３号,,38,202,7991502,,,2026-01-16,登記官による閉鎖,,,2015-10-05,1,,,,,,0
3176,8500001012523,登記記録の閉鎖等,0,2026-01-19,2026-01-16,優和海運株式会社,,株式会社,愛媛県,今治市,波方町波方甲２００２番地１,,38,202,7992101,,,2026-01-16,登記官による閉鎖,,,2015-10-05,1,,,,,,0
3177,8500001014214,登記記録の閉鎖等,0,2026-01-19,2026-01-16,株式会社伊藤工務店,,株式会社,愛媛県,四国中央市,下柏町４６８番地,,38,213,7990411,,,2026-01-16,登記官による閉鎖,,,2015-10-05,1,,,,,,0
3178,8500001014379,登記記録の閉鎖等,0,2026-01-19,2026-01-16,株式会社タニヤ金属,,株式会社,愛媛県,四国中央市,三島宮川４丁目６番４５号,,38,213,7990404,,,2026-01-16,登記官による閉鎖,,,2015-10-05,1,,,,,,0
3179,8500001014437,登記記録の閉鎖等,0,2026-01-19,2026-01-16,一筋株式会社,,株式会社,愛媛県,四国中央市,中之庄町６１８番地の９,,38,213,7990422,,,2026-01-16,登記官による閉鎖,,,2015-10-05,1,,,,,,0
3180,8500001014668,登記記録の閉鎖等,0,2026-01-19,2026-01-16,信藤建設株式会社,,株式会社,愛媛県,四国中央市,金田町金川９８４番地,,38,213,7990123,,,2026-01-16,登記官による閉鎖,,,2015-10-05,1,,,,,,0
3181,8500001014908,登記記録の閉鎖等,0,2026-01-19,2026-01-16,西日本物流株式会社,,株式会社,愛媛県,四国中央市,土居町津根３７５７番地２,,38,213,7990704,,,2026-01-16,登記官による閉鎖,,,2015-10-05,1,,,,,,0
3182,8500001015369,登記記録の閉鎖等,0,2026-01-19,2026-01-16,共同漁業株式会社,,株式会社,愛媛県,宇和島市,住吉町２丁目１番３３号,,38,203,7980003,,,2026-01-16,登記官による閉鎖,,,2015-10-05,1,,,,,,0
3183,8500001015625,登記記録の閉鎖等,0,2026-01-19,2026-01-16,東南建設株式会社,,株式会社,愛媛県,宇和島市,津島町北灘丁７４４番地１７,00007563,38,203,7983364,,,2026-01-16,登記官による閉鎖,,,2015-10-05,1,,,,,,0
3184,8500001015740,登記記録の閉鎖等,0,2026-01-19,2026-01-16,三和繊維株式会社,,株式会社,愛媛県,南宇和郡愛南町,中浦１３５９番地,,38,506,7984125,,,2026-01-16,登記官による閉鎖,,,2015-10-05,1,,,,,,0
3185,8500001015757,登記記録の閉鎖等,0,2026-01-19,2026-01-16,株式会社向田真珠,,株式会社,愛媛県,南宇和郡愛南町,御荘菊川２２９０番地,,38,506,7984101,,,2026-01-16,登記官による閉鎖,,,2015-10-05,1,,,,,,0
3186,8500001025814,登記記録の閉鎖等,0,2026-01-19,2026-01-16,さんけい商事株式会社,,株式会社,愛媛県,松山市,石手４丁目３番３２号,,38,201,7900852,,,2026-01-16,登記官による閉鎖,,,2024-09-02,1,,,,,サンケイショウジ,0
3188,8500002012547,登記記録の閉鎖等,0,2026-01-19,2026-01-16,有限会社渡邊書店,,有限会社,愛媛県,西予市,野村町野村１１号７６番地１,,38,214,7971212,,,2026-01-16,登記官による閉鎖,,,2015-10-05,1,,,,,,0
3189,8500002012729,登記記録の閉鎖等,0,2026-01-19,2026-01-16,有限会社井上組,,有限会社,愛媛県,西予市,三瓶町朝立１番耕地２２番地１,,38,214,7960907,,,2026-01-16,登記官による閉鎖,,,2015-10-05,1,,,,,,0
3196,8500002014980,登記記録の閉鎖等,0,2026-01-19,2026-01-16,有限会社新光電機,,有限会社,愛媛県,西条市,楠甲３１５番地の１,,38,206,7991302,,,2026-01-16,登記官による閉鎖,,,2015-10-05,1,,,,,,0
3197,8500002015995,登記記録の閉鎖等,0,2026-01-19,2026-01-16,有限会社エムデテック,,有限会社,愛媛県,新居浜市,阿島３丁目２番２２号,,38,205,7920896,,,2026-01-16,登記官による閉鎖,,,2015-10-05,1,,,,,,0
3198,8500002020145,登記記録の閉鎖等,0,2026-01-19,2026-01-16,有限会社山岡水産,,有限会社,愛媛県,今治市,伯方町木浦甲３３９６番地の４,,38,202,7942305,,,2026-01-16,登記官による閉鎖,,,2015-10-05,1,,,,,,0
3199,8500005000730,登記記録の閉鎖等,0,2026-01-19,2026-01-16,医療法人武市歯科医院,,その他の設立登記法人,愛媛県,松山市,余戸中１丁目７番８号,,38,201,7900045,,,2026-01-16,登記官による閉鎖,,,2015-10-05,1,,,,,,0
3200,8500005008732,登記記録の閉鎖等,0,2026-01-19,2026-01-16,内山食品企業組合,,その他の設立登記法人,愛媛県,喜多郡内子町,大字城廻甲５０１番地,,38,422,7913300,,,2026-01-16,登記官による閉鎖,,,2024-10-04,1,,,,,ウチヤマショクヒン,0
3203,9010001090741,登記記録の閉鎖等,0,2026-01-19,2026-01-16,株式会社アークエンジン,,株式会社,愛媛県,宇和島市,御幸町２丁目１番６号,,38,203,7980013,,,2026-01-16,登記官による閉鎖,,,2015-10-05,1,,,,,,0
3223,9010401165275,登記記録の閉鎖等,0,2026-01-19,2026-01-05,ＭＣＰ５株式会社,,株式会社,岐阜県,大垣市,郭町２丁目２５番地,,21,202,5030887,,,2026-01-05,合併による解散等,5200001043535,令和７年１２月３１日岐阜県大垣市郭町二丁目２５番地株式会社横井製作所（5200001043535）に合併し解散,2022-02-02,1,,,,,エムシーピーファイブ,0
3270,9020001003347,登記記録の閉鎖等,0,2026-01-19,2026-01-05,マルエイ建装株式会社,,株式会社,神奈川県,横浜市磯子区,丸山１丁目１１番１５号,,14,107,2350011,,,2026-01-05,清算の結了等,,,2015-10-05,1,,,,,,0
3279,9020002053275,登記記録の閉鎖等,0,2026-01-19,2026-01-08,有限会社旭興産,,有限会社,神奈川県,横浜市都筑区,川和町９９７番地,,14,118,2240057,,,2026-01-08,清算の結了等,,,2015-10-05,1,,,,,アサヒコウサン,0
3301,9050001019646,登記記録の閉鎖等,0,2026-01-19,2026-01-05,東成株式会社,,株式会社,茨城県,古河市,柳橋５７８番地１,,08,204,3060203,,,2026-01-05,合併による解散等,6050001038046,令和８年１月１日茨城県古河市柳橋５７８番地１株式会社華宇産業（6050001038046）に合併し解散,2015-10-05,1,,,,,トウセイ,0
3306,9050003003879,登記記録の閉鎖等,0,2026-01-19,2026-01-06,リトルファーム合同会社,,合同会社,茨城県,常陸大宮市,鷹巣６７９番地,,08,225,3192214,,,2026-01-06,清算の結了等,,,2017-08-23,1,,,,,リトルファーム,0
3310,9060002017086,登記記録の閉鎖等,0,2026-01-19,2026-01-15,有限会社岡部,,有限会社,栃木県,真岡市,荒町１１２７番地,,09,209,3214305,,,2026-01-15,清算の結了等,,,2015-10-05,1,,,,,オカベ,0
3323,9110002034027,登記記録の閉鎖等,0,2026-01-19,2026-01-09,有限会社山岸電機,,有限会社,新潟県,魚沼市,穴沢１３２番地,,15,225,9460304,,,2026-01-09,清算の結了等,,,2015-10-05,1,,,,,ヤマギシデンキ,0
3358,9140005007506,登記記録の閉鎖等,0,2026-01-19,2026-01-15,伸屋工業協同組合,,その他の設立登記法人,兵庫県,たつの市,揖保町門前３６９番地の１,,28,229,6794153,,,2026-01-15,清算の結了等,,,2023-02-01,1,,,,,シンヤコウギョウ,0
3381,9200001029134,登記記録の閉鎖等,0,2026-01-19,2026-01-13,セントパーツ株式会社,,株式会社,岐阜県,羽島市,舟橋町出須賀２丁目１番地,,21,209,5016304,,,2026-01-13,合併による解散等,4030001034494,令和８年１月１日滋賀県長浜市宮部町１０９８番地３プレミアオートパーツ株式会社（4030001034494）に合併し解散,2015-10-05,1,,,,,セントパーツ,0
3382,9200001035025,登記記録の閉鎖等,0,2026-01-19,2026-01-09,株式会社ＢＴＳ,,株式会社,岐阜県,岐阜市,茜部菱野３丁目１３６番地１,,21,201,5008268,,,2026-01-09,清算の結了等,,,2018-04-04,1,,,,,ビーティーエス,0
3391,9240001061918,登記記録の閉鎖等,0,2026-01-19,2026-01-09,Ｓｋｙ　Ｓｔｅｐ株式会社,,株式会社,広島県,府中市,目崎町４６５番地１,,34,208,7260033,,,2026-01-09,清算の結了等,,,2023-08-03,1,,,,,スカイステップ,0
3394,9240002024205,登記記録の閉鎖等,0,2026-01-19,2026-01-13,有限会社ロゼ,,有限会社,広島県,広島市中区,堀川町１－２８,,34,101,7300033,,,2026-01-13,清算の結了等,,,2015-10-05,1,,,,,ロゼ,0
3399,9260001024666,登記記録の閉鎖等,0,2026-01-19,2026-01-15,株式会社さくらヘルパーサービス,,株式会社,岡山県,岡山市南区,福富西１丁目１７番３２号,,33,104,7028031,,,2026-01-15,清算の結了等,,,2015-10-05,1,,,,,サクラヘルパーサービス,0
3400,9260002024104,登記記録の閉鎖等,0,2026-01-19,2026-01-15,有限会社吉田建設,,有限会社,岡山県,総社市,窪木９０２番地の３,,33,208,7191112,,,2026-01-15,清算の結了等,,,2015-10-05,1,,,,,,0
3425,9350002008709,登記記録の閉鎖等,0,2026-01-19,2026-01-07,有限会社アイリス,,有限会社,宮崎県,宮崎市,大字恒久５０２７番地,,45,201,8800916,,,2026-01-07,清算の結了等,,,2015-10-05,1,,,,,アイリス,0
3427,9350005005637,登記記録の閉鎖等,0,2026-01-19,2025-12-26,特定非営利活動法人ＮＩＳＨＩＭＯＲＯ　ＢＡＳＥ,,その他の設立登記法人,宮崎県,えびの市,大字栗下８４番地９,,45,209,8894221,,,2025-12-26,清算の結了等,,,2016-09-21,1,,,,,ニシモロベース,0
3435,9370001022411,登記記録の閉鎖等,0,2026-01-19,2026-01-15,株式会社エスナ,,株式会社,宮城県,仙台市青葉区,桜ケ丘５丁目２３番１６号,,04,101,9810961,,,2026-01-15,清算の結了等,,,2015-10-05,1,,,,,エスナ,0
3437,9370305000864,登記記録の閉鎖等,0,2026-01-19,2026-01-13,一般財団法人北日本海事国際交流基金,,その他の設立登記法人,宮城県,石巻市,開成１番地６５,,04,202,9860032,,,2026-01-13,清算の結了等,,,2015-10-05,1,,,,,キタニホンカイジコクサイコウリュウキキン,0
3439,9380001009837,登記記録の閉鎖等,0,2026-01-19,2026-01-05,柳沼プレス工業株式会社,,株式会社,福島県,二本松市,槻木２４１番地,,07,210,9640875,,,2026-01-05,合併による解散等,1380001009506,令和８年１月１日福島県二本松市岡ノ内２７４番地３柳沼精工株式会社（1380001009506）に合併し解散,2015-10-05,1,,,,,ヤギヌマプレスコウギョウ,0
3446,9390001011759,登記記録の閉鎖等,0,2026-01-19,2026-01-14,木村石油株式会社,,株式会社,山形県,寒河江市,大字白岩１９１番地,,06,206,9900505,,,2026-01-14,清算の結了等,,,2015-10-05,1,,,,,キムラセキユ,0
3448,9390002011725,登記記録の閉鎖等,0,2026-01-19,2026-01-14,有限会社松岡製作所,,有限会社,山形県,村山市,楯岡新町１丁目４番１５号,,06,208,9950033,,,2026-01-14,清算の結了等,,,2015-10-05,1,,,,,マツオカセイサクショ,0
3455,9420002005896,登記記録の閉鎖等,0,2026-01-19,2026-01-14,有限会社ヤジマ運輸,,有限会社,青森県,八戸市,大字新井田字西平１２番地２４,,02,203,0310813,,,2026-01-14,清算の結了等,,,2015-10-05,1,,,,,ヤジマウンユ,0
3462,9480001000050,登記記録の閉鎖等,0,2026-01-19,2026-01-16,アネット株式会社,,株式会社,徳島県,徳島市,中洲町３丁目４７番地２,,36,201,7700856,,,2026-01-16,登記官による閉鎖,,,2015-10-05,1,,,,,,0
3463,9480001000307,登記記録の閉鎖等,0,2026-01-19,2026-01-16,株式会社エンゼル,,株式会社,徳島県,徳島市,東新町２丁目２７番地,,36,201,7700912,,,2026-01-16,登記官による閉鎖,,,2015-10-05,1,,,,,,0
3464,9480001000372,登記記録の閉鎖等,0,2026-01-19,2026-01-16,大倉ランバー株式会社,,株式会社,徳島県,徳島市,住吉６丁目６番６０号,,36,201,7700861,,,2026-01-16,登記官による閉鎖,,,2015-10-05,1,,,,,,0
3465,9480001000835,登記記録の閉鎖等,0,2026-01-19,2026-01-16,四国電話建設株式会社,,株式会社,徳島県,徳島市,川内町富吉２３９番地,,36,201,7710112,,,2026-01-16,登記官による閉鎖,,,2015-10-05,1,,,,,,0
3466,9480001000967,登記記録の閉鎖等,0,2026-01-19,2026-01-16,株式会社ダイジュ,,株式会社,徳島県,徳島市,沖浜町西畑４１１番地の２,,36,201,7708051,,,2026-01-16,登記官による閉鎖,,,2015-10-05,1,,,,,,0
3467,9480001001346,登記記録の閉鎖等,0,2026-01-19,2026-01-16,株式会社テレマックス,,株式会社,徳島県,徳島市,城南町２丁目４番６号,,36,201,7708064,,,2026-01-16,登記官による閉鎖,,,2015-10-05,1,,,,,,0
3468,9480001001354,登記記録の閉鎖等,0,2026-01-19,2026-01-16,株式会社徳島アクティインベストメント,,株式会社,徳島県,徳島市,津田本町３丁目１番１６号,,36,201,7708003,,,2026-01-16,登記官による閉鎖,,,2015-10-05,1,,,,,,0
3469,9480001001552,登記記録の閉鎖等,0,2026-01-19,2026-01-16,富永染工株式会社,,株式会社,徳島県,徳島市,南矢三町１丁目１番７号,,36,201,7700005,,,2026-01-16,登記官による閉鎖,,,2015-10-05,1,,,,,,0
3470,9480001001899,登記記録の閉鎖等,0,2026-01-19,2026-01-16,濱田電機商工株式会社,,株式会社,徳島県,徳島市,南内町２丁目１８番地,,36,201,7700846,,,2026-01-16,登記官による閉鎖,,,2015-10-05,1,,,,,,0
3471,9480001001940,登記記録の閉鎖等,0,2026-01-19,2026-01-16,眉山工業株式会社,,株式会社,徳島県,徳島市,鷹匠町６丁目８番地１,,36,201,7700922,,,2026-01-16,登記官による閉鎖,,,2015-10-05,1,,,,,,0
3472,9480001001949,登記記録の閉鎖等,0,2026-01-19,2026-01-16,ビツグ・バーゲン企画開発センター株式会社,,株式会社,徳島県,徳島市,富田浜２丁目１６番地の１,,36,201,7700931,,,2026-01-16,登記官による閉鎖,,,2015-10-05,1,,,,,,0
3473,9480001002138,登記記録の閉鎖等,0,2026-01-19,2026-01-16,株式会社良安給食センター,,株式会社,徳島県,徳島市,北島田町１丁目１２８番地の１１,,36,201,7700051,,,2026-01-16,登記官による閉鎖,,,2015-10-05,1,,,,,,0
3474,9480001002303,登記記録の閉鎖等,0,2026-01-19,2026-01-16,株式会社丸新,,株式会社,徳島県,徳島市,東新町１丁目２９番地,,36,201,7700912,,,2026-01-16,登記官による閉鎖,,,2015-10-05,1,,,,,,0
3475,9480001002377,登記記録の閉鎖等,0,2026-01-19,2026-01-16,株式会社山久商事,,株式会社,徳島県,徳島市,山城西２丁目４６番地,,36,201,7708054,,,2026-01-16,登記官による閉鎖,,,2015-10-05,1,,,,,,0
3476,9480001002402,登記記録の閉鎖等,0,2026-01-19,2026-01-16,山川電機産業株式会社,,株式会社,徳島県,徳島市,南佐古八番町５番２１号,,36,201,7700038,,,2026-01-16,登記官による閉鎖,,,2015-10-05,1,,,,,,0
3477,9480001002732,登記記録の閉鎖等,0,2026-01-19,2026-01-16,共栄林業株式会社,,株式会社,徳島県,徳島市,佐古一番町１３番９号,,36,201,7700021,,,2026-01-16,登記官による閉鎖,,,2015-10-05,1,,,,,,0
3478,9480001002807,登記記録の閉鎖等,0,2026-01-19,2026-01-16,株式会社ジェイプラント,,株式会社,徳島県,徳島市,万代町４丁目３６番地１,,36,201,7700941,,,2026-01-16,登記官による閉鎖,,,2015-10-05,1,,,,,,0
3479,9480001003243,登記記録の閉鎖等,0,2026-01-19,2026-01-16,株式会社鳴南,,株式会社,徳島県,徳島市,末広１丁目２番６６号,,36,201,7700866,,,2026-01-16,登記官による閉鎖,,,2015-10-05,1,,,,,,0
3480,9480001003334,登記記録の閉鎖等,0,2026-01-19,2026-01-16,株式会社平尾工務店,,株式会社,徳島県,小松島市,小松島町字新港３１番地,,36,203,7730001,,,2026-01-16,登記官による閉鎖,,,2015-10-05,1,,,,,,0
3481,9480001003482,登記記録の閉鎖等,0,2026-01-19,2026-01-16,株式会社ハマ電子工業,,株式会社,徳島県,小松島市,江田町字腰前１８２番地１,,36,203,7730014,,,2026-01-16,登記官による閉鎖,,,2015-10-05,1,,,,,,0
3482,9480001005297,登記記録の閉鎖等,0,2026-01-19,2026-01-16,株式会社ゼライト,,株式会社,徳島県,板野郡松茂町,笹木野字八山開拓１７３番地１,,36,401,7710219,,,2026-01-16,登記官による閉鎖,,,2015-10-05,1,,,,,,0
3483,9480001005462,登記記録の閉鎖等,0,2026-01-19,2026-01-16,株式会社丸正,,株式会社,徳島県,板野郡藍住町,勝瑞字東勝地１７番地,,36,403,7711273,,,2026-01-16,登記官による閉鎖,,,2015-10-05,1,,,,,,0
3484,9480001006601,登記記録の閉鎖等,0,2026-01-19,2026-01-16,株式会社伊勢,,株式会社,徳島県,阿南市,那賀川町大京原３１４番地１,,36,204,7791233,,,2026-01-16,登記官による閉鎖,,,2015-10-05,1,,,,,,0
3485,9480001006659,登記記録の閉鎖等,0,2026-01-19,2026-01-16,株式会社是松組,,株式会社,徳島県,阿南市,福井町内歩１１番地７,,36,204,7791620,,,2026-01-16,登記官による閉鎖,,,2015-10-05,1,,,,,,0
3486,9480001006824,登記記録の閉鎖等,0,2026-01-19,2026-01-16,株式会社布川造船所,,株式会社,徳島県,阿南市,富岡町内町１６６番地,,36,204,7740030,,,2026-01-16,登記官による閉鎖,,,2015-10-05,1,,,,,,0
3487,9480001006931,登記記録の閉鎖等,0,2026-01-19,2026-01-16,ダイヤニツト株式会社,,株式会社,徳島県,海部郡海陽町,高園字小林６２番地の１,,36,388,7750303,,,2026-01-16,登記官による閉鎖,,,2015-10-05,1,,,,,,0
3488,9480001006980,登記記録の閉鎖等,0,2026-01-19,2026-01-16,協立海運株式会社,,株式会社,徳島県,海部郡美波町,奥河内字櫛ケ谷２３６番地４０,00005829,36,387,7792305,,,2026-01-16,登記官による閉鎖,,,2015-10-05,1,,,,,,0
3489,9480001007401,登記記録の閉鎖等,0,2026-01-19,2026-01-16,美馬土建株式会社,,株式会社,徳島県,美馬市,脇町木ノ内４００６番地,,36,207,7793620,,,2026-01-16,登記官による閉鎖,,,2015-10-05,1,,,,,,0
3490,9480001007434,登記記録の閉鎖等,0,2026-01-19,2026-01-16,日本水工株式会社,,株式会社,徳島県,美馬市,脇町字拝原１９４０番地の１,,36,207,7793601,,,2026-01-16,登記官による閉鎖,,,2015-10-05,1,,,,,,0
3491,9480001010306,登記記録の閉鎖等,0,2026-01-19,2026-01-16,豊穂産業株式会社,,株式会社,徳島県,板野郡松茂町,広島字東裏１番地,,36,401,7710220,,,2026-01-16,登記官による閉鎖,,,2018-03-23,1,,,,,トヨホサンギョウ,0
3492,9480002000784,登記記録の閉鎖等,0,2026-01-19,2026-01-16,有限会社大岡商店,,有限会社,徳島県,徳島市,幸町３丁目１０１番地,,36,201,7700847,,,2026-01-16,登記官による閉鎖,,,2015-10-05,1,,,,,,0
3493,9480002007284,登記記録の閉鎖等,0,2026-01-19,2026-01-16,有限会社カネサダ,,有限会社,徳島県,徳島市,福島１丁目３３６番３,,36,201,7700868,,,2026-01-16,登記官による閉鎖,,,2015-10-05,1,,,,,,0
3494,9480002007433,登記記録の閉鎖等,0,2026-01-19,2026-01-16,有限会社澁谷被服工業所,,有限会社,徳島県,徳島市,上助任町三本松３６４番地の５,,36,201,7700801,,,2026-01-16,登記官による閉鎖,,,2018-09-14,1,,,,,,0
3495,9480002007458,登記記録の閉鎖等,0,2026-01-19,2026-01-16,有限会社東條設備,,有限会社,徳島県,徳島市,北島田町１丁目７１番地７,,36,201,7700051,,,2026-01-16,登記官による閉鎖,,,2015-10-05,1,,,,,,0
3496,9480002008638,登記記録の閉鎖等,0,2026-01-19,2026-01-16,有限会社Ｉプロジェクト,,有限会社,徳島県,徳島市,富田橋４丁目１７番地の２,,36,201,7700937,,,2026-01-16,登記官による閉鎖,,,2015-10-05,1,,,,,,0
3497,9480002008803,登記記録の閉鎖等,0,2026-01-19,2026-01-16,有限会社Ｆｒｅｅ’ｓ,,有限会社,徳島県,徳島市,西須賀町下中須２９番地１,,36,201,7708024,,,2026-01-16,登記官による閉鎖,,,2015-10-05,1,,,,,,0
3498,9480002009371,登記記録の閉鎖等,0,2026-01-19,2026-01-16,有限会社堀工芸,,有限会社,徳島県,吉野川市,鴨島町中島７７番地の１,,36,205,7760004,,,2026-01-16,登記官による閉鎖,,,2015-10-05,1,,,,,,0
3499,9480002010148,登記記録の閉鎖等,0,2026-01-19,2026-01-16,有限会社剣住建,,有限会社,徳島県,吉野川市,鴨島町牛島２１１０番地５,,36,205,7760001,,,2026-01-16,登記官による閉鎖,,,2015-10-05,1,,,,,,0
3500,9480002011625,登記記録の閉鎖等,0,2026-01-19,2026-01-16,有限会社徳島新聞藍住北専売所,,有限会社,徳島県,板野郡藍住町,乙瀬字中田６４番地の１３,,36,403,7711240,,,2026-01-16,登記官による閉鎖,,,2015-10-05,1,,,,,,0
3501,9480002014603,登記記録の閉鎖等,0,2026-01-19,2026-01-16,有限会社鬼田時計店,,有限会社,徳島県,美馬市,脇町大字脇町１８１番地の２,,36,207,7793610,,,2026-01-16,登記官による閉鎖,,,2015-10-05,1,,,,,,0
3502,9480005002266,登記記録の閉鎖等,0,2026-01-19,2026-01-16,特定非営利活動法人ナレッジネットワーク,,その他の設立登記法人,徳島県,徳島市,新蔵町１丁目９５番地,,36,201,7700855,,,2026-01-16,登記官による閉鎖,,,2015-10-05,1,,,,,,0
3503,9480005004080,登記記録の閉鎖等,0,2026-01-19,2026-01-16,一般社団法人経世救民,,その他の設立登記法人,徳島県,鳴門市,大津町矢倉字中開４５番地の１,,36,202,7720035,,,2026-01-16,登記官による閉鎖,,,2015-10-05,1,,,,,,0
3504,9500001000089,登記記録の閉鎖等,0,2026-01-19,2026-01-16,株式会社ジョイ,,株式会社,愛媛県,松山市,和田甲３７９番地,,38,201,7992465,,,2026-01-16,登記官による閉鎖,,,2015-10-05,1,,,,,,0
3505,9500001000799,登記記録の閉鎖等,0,2026-01-19,2026-01-16,愛媛漬物食品株式会社,00007282,株式会社,愛媛県,松山市,藤原町６１９番地１,,38,201,7900034,,,2026-01-16,登記官による閉鎖,,,2015-10-05,1,,,,,,0
3506,9500001000873,登記記録の閉鎖等,0,2026-01-19,2026-01-16,株式会社愛媛料飲コンサルタンツ,,株式会社,愛媛県,松山市,二番町３丁目３番地７,,38,201,7900002,,,2026-01-16,登記官による閉鎖,,,2015-10-05,1,,,,,,0
3507,9500001000964,登記記録の閉鎖等,0,2026-01-19,2026-01-16,枝松建材株式会社,,株式会社,愛媛県,松山市,枝松町一丁目６番２０号,,38,201,7910000,,,2026-01-16,登記官による閉鎖,,,2015-10-05,1,,,,,,0
3508,9500001000972,登記記録の閉鎖等,0,2026-01-19,2026-01-16,株式会社エノキエンタープライズ,,株式会社,愛媛県,松山市,千舟町５丁目１番地６,,38,201,7900011,,,2026-01-16,登記官による閉鎖,,,2015-10-05,1,,,,,,0
3509,9500001001021,登記記録の閉鎖等,0,2026-01-19,2026-01-16,株式会社エム・ジー・シー,,株式会社,愛媛県,松山市,平田町３４５番地１,,38,201,7918001,,,2026-01-16,登記官による閉鎖,,,2015-10-05,1,,,,,,0
3510,9500001001095,登記記録の閉鎖等,0,2026-01-19,2026-01-16,株式会社オーマ,,株式会社,愛媛県,松山市,住吉１丁目５番３２号,,38,201,7918062,,,2026-01-16,登記官による閉鎖,,,2015-10-05,1,,,,,,0
3511,9500001001129,登記記録の閉鎖等,0,2026-01-19,2026-01-16,株式会社オグラサービスセンター,,株式会社,愛媛県,松山市,中村２丁目７番２３号,,38,201,7900964,,,2026-01-16,登記官による閉鎖,,,2015-10-05,1,,,,,,0
3512,9500001001335,登記記録の閉鎖等,0,2026-01-19,2026-01-16,株式会社アライブ,,株式会社,愛媛県,松山市,北斎院町７５番地１３,,38,201,7918031,,,2026-01-16,登記官による閉鎖,,,2015-10-05,1,,,,,,0
3513,9500001001509,登記記録の閉鎖等,0,2026-01-19,2026-01-16,株式会社クワトロプロジェクト,,株式会社,愛媛県,松山市,桑原７丁目５番５号,,38,201,7900911,,,2026-01-16,登記官による閉鎖,,,2015-10-05,1,,,,,,0
3514,9500001001533,登記記録の閉鎖等,0,2026-01-19,2026-01-16,株式会社ゲンキ,,株式会社,愛媛県,松山市,大街道２丁目１番地５,,38,201,7900004,,,2026-01-16,登記官による閉鎖,,,2015-10-05,1,,,,,,0
3515,9500001001715,登記記録の閉鎖等,0,2026-01-19,2026-01-16,株式会社サンエヒメ,,株式会社,愛媛県,松山市,束本１丁目４番３７号,,38,201,7900916,,,2026-01-16,登記官による閉鎖,,,2015-10-05,1,,,,,,0
3516,9500001001764,登記記録の閉鎖等,0,2026-01-19,2026-01-16,三共瓦工業株式会社,,株式会社,愛媛県,松山市,久保田町１２４番地８,,38,201,7918035,,,2026-01-16,登記官による閉鎖,,,2015-10-05,1,,,,,,0
3517,9500001001780,登記記録の閉鎖等,0,2026-01-19,2026-01-16,さくら物産株式会社,,株式会社,愛媛県,松山市,空港通２丁目１８番７号,,38,201,7900054,,,2026-01-16,登記官による閉鎖,,,2015-10-05,1,,,,,,0
3518,9500001001847,登記記録の閉鎖等,0,2026-01-19,2026-01-16,三陽フーズ株式会社,,株式会社,愛媛県,松山市,堀江町甲１９１番地の２,,38,201,7992651,,,2026-01-16,登記官による閉鎖,,,2015-10-05,1,,,,,,0
3519,9500001002102,登記記録の閉鎖等,0,2026-01-19,2026-01-16,篠原興業株式会社,,株式会社,愛媛県,松山市,住吉２丁目６番１４号,,38,201,7918062,,,2026-01-16,登記官による閉鎖,,,2015-10-05,1,,,,,,0
3520,9500001002218,登記記録の閉鎖等,0,2026-01-19,2026-01-16,株式会社ジャパックス,,株式会社,愛媛県,松山市,大手町１丁目１番２号内山ビル２０５,,38,201,7900067,,,2026-01-16,登記官による閉鎖,,,2015-10-05,1,,,,,,0
3521,9500001002498,登記記録の閉鎖等,0,2026-01-19,2026-01-16,耐震キングハウス工業株式会社,,株式会社,愛媛県,松山市,中野町甲１４３番地３,,38,201,7911121,,,2026-01-16,登記官による閉鎖,,,2015-10-05,1,,,,,,0
3522,9500001002548,登記記録の閉鎖等,0,2026-01-19,2026-01-16,大洋建設株式会社,,株式会社,愛媛県,松山市,市坪北２丁目１９番２４号,,38,201,7900946,,,2026-01-16,登記官による閉鎖,,,2015-10-05,1,,,,,,0
3523,9500001002564,登記記録の閉鎖等,0,2026-01-19,2026-01-16,大和建設株式会社,,株式会社,愛媛県,松山市,来住町１１７０番地１大和生コン株式会社内,,38,201,7911102,,,2026-01-16,登記官による閉鎖,,,2015-10-05,1,,,,,,0
3524,9500001002688,登記記録の閉鎖等,0,2026-01-19,2026-01-16,株式会社ちびっこ村,,株式会社,愛媛県,松山市,拓川町７番１７号,,38,201,7900967,,,2026-01-16,登記官による閉鎖,,,2015-10-05,1,,,,,,0
3525,9500001002804,登記記録の閉鎖等,0,2026-01-19,2026-01-16,株式会社寺岡商事,,株式会社,愛媛県,松山市,柳井町１丁目１１番地１８,,38,201,7900014,,,2026-01-16,登記官による閉鎖,,,2015-10-05,1,,,,,,0
3526,9500001003620,登記記録の閉鎖等,0,2026-01-19,2026-01-16,株式会社平和企画,,株式会社,愛媛県,松山市,歩行町２丁目３番２２号,,38,201,7900801,,,2026-01-16,登記官による閉鎖,,,2015-10-05,1,,,,,,0
3527,9500001003810,登記記録の閉鎖等,0,2026-01-19,2026-01-16,株式会社松山メインテナンス,,株式会社,愛媛県,松山市,室町２丁目５番６号,,38,201,7900026,,,2026-01-16,登記官による閉鎖,,,2015-10-05,1,,,,,,0
3528,9500001004123,登記記録の閉鎖等,0,2026-01-19,2026-01-16,株式会社メディアライフ,,株式会社,愛媛県,松山市,和泉北１丁目１番１７号,,38,201,7900038,,,2026-01-16,登記官による閉鎖,,,2015-10-05,1,,,,,,0
3529,9500001004172,登記記録の閉鎖等,0,2026-01-19,2026-01-16,株式会社安田興産,,株式会社,愛媛県,松山市,西石井２丁目６番１号,,38,201,7900931,,,2026-01-16,登記官による閉鎖,,,2015-10-05,1,,,,,,0
3530,9500001004197,登記記録の閉鎖等,0,2026-01-19,2026-01-16,山口株式会社,,株式会社,愛媛県,松山市,大街道１丁目４番地８,,38,201,7900004,,,2026-01-16,登記官による閉鎖,,,2015-10-05,1,,,,,,0
3531,9500001004263,登記記録の閉鎖等,0,2026-01-19,2026-01-16,湯築興産株式会社,,株式会社,愛媛県,松山市,道後喜多町８番３２号,,38,201,7900848,,,2026-01-16,登記官による閉鎖,,,2015-10-05,1,,,,,,0
3532,9500001004362,登記記録の閉鎖等,0,2026-01-19,2026-01-16,株式会社ワンカラー不動産,,株式会社,愛媛県,松山市,味酒町１丁目９番地５,,38,201,7900814,,,2026-01-16,登記官による閉鎖,,,2015-10-05,1,,,,,,0
3533,9500001004461,登記記録の閉鎖等,0,2026-01-19,2026-01-16,玄風食品株式会社,,株式会社,愛媛県,松山市,中野町５７５番地１,,38,201,7911121,,,2026-01-16,登記官による閉鎖,,,2015-10-05,1,,,,,,0
3534,9500001004602,登記記録の閉鎖等,0,2026-01-19,2026-01-16,株式会社オレンジネット,,株式会社,愛媛県,松山市,山西町５９３番地１６,,38,201,7918026,,,2026-01-16,登記官による閉鎖,,,2015-10-05,1,,,,,,0
3535,9500001005014,登記記録の閉鎖等,0,2026-01-19,2026-01-16,株式会社ビジョングループ,,株式会社,愛媛県,松山市,土居町８０２番地１,,38,201,7911115,,,2026-01-16,登記官による閉鎖,,,2015-10-05,1,,,,,,0
3536,9500001005039,登記記録の閉鎖等,0,2026-01-19,2026-01-16,日華実業株式会社,,株式会社,愛媛県,松山市,平井町甲１４４８番地１,,38,201,7910243,,,2026-01-16,登記官による閉鎖,,,2015-10-05,1,,,,,,0
3537,9500001005179,登記記録の閉鎖等,0,2026-01-19,2026-01-16,株式会社ベストウェイ,,株式会社,愛媛県,松山市,三番町３丁目５番地７,,38,201,7900003,,,2026-01-16,登記官による閉鎖,,,2015-10-05,1,,,,,,0
3538,9500001005245,登記記録の閉鎖等,0,2026-01-19,2026-01-16,株式会社ジェー・エム・エス,,株式会社,愛媛県,松山市,西一万町６番地２,,38,201,7900805,,,2026-01-16,登記官による閉鎖,,,2015-10-05,1,,,,,,0
3539,9500001006623,登記記録の閉鎖等,0,2026-01-19,2026-01-16,株式会社Ｉ．Ｂ．Ｓ,,株式会社,愛媛県,松山市,三番町１丁目１４番地５,,38,201,7900003,,,2026-01-16,登記官による閉鎖,,,2015-10-05,1,,,,,,0
3540,9500001007051,登記記録の閉鎖等,0,2026-01-19,2026-01-16,日本商品開発研究所愛媛ネクストジャパン株式会社,00007398,株式会社,愛媛県,伊予郡砥部町,八倉６４番地１,,38,402,7912111,,,2026-01-16,登記官による閉鎖,,,2015-10-05,1,,,,,,0
3541,9500001007191,登記記録の閉鎖等,0,2026-01-19,2026-01-16,株式会社久万オートランド,,株式会社,愛媛県,上浮穴郡久万高原町,東明神甲３２０４番地４,,38,386,7911204,,,2026-01-16,登記官による閉鎖,,,2015-10-05,1,,,,,,0
3542,9500001007613,登記記録の閉鎖等,0,2026-01-19,2026-01-16,株式会社ネクサスコーポレーション,,株式会社,愛媛県,松山市,祝谷４丁目７番１４号祝谷ビル１階,,38,201,7900833,,,2026-01-16,登記官による閉鎖,,,2015-10-05,1,,,,,,0
3543,9500001007869,登記記録の閉鎖等,0,2026-01-19,2026-01-16,株式会社フォトとくだ,,株式会社,愛媛県,大洲市,白滝甲２９１番地１,,38,207,7993431,,,2026-01-16,登記官による閉鎖,,,2015-10-05,1,,,,,,0
3544,9500001007927,登記記録の閉鎖等,0,2026-01-19,2026-01-16,株式会社萩森建築,,株式会社,愛媛県,西予市,宇和町皆田７８６番地,,38,214,7970012,,,2026-01-16,登記官による閉鎖,,,2015-10-05,1,,,,,,0
3545,9500001008000,登記記録の閉鎖等,0,2026-01-19,2026-01-16,株式会社愛西エンタープライズ,,株式会社,愛媛県,西予市,宇和町大江１８０番地,,38,214,7970043,,,2026-01-16,登記官による閉鎖,,,2015-10-05,1,,,,,,0
3546,9500001008074,登記記録の閉鎖等,0,2026-01-19,2026-01-16,三瓶タクシー株式会社,,株式会社,愛媛県,西予市,三瓶町安土５３１番地３,,38,214,7960909,,,2026-01-16,登記官による閉鎖,,,2015-10-05,1,,,,,,0
3547,9500001008108,登記記録の閉鎖等,0,2026-01-19,2026-01-16,株式会社小田陸運,,株式会社,愛媛県,喜多郡内子町,大平１２３４番地,,38,422,7913504,,,2026-01-16,登記官による閉鎖,,,2015-10-05,1,,,,,,0
3548,9500001008289,登記記録の閉鎖等,0,2026-01-19,2026-01-16,共栄水産株式会社,,株式会社,愛媛県,八幡浜市,向灘３０６７番地の２９,00007418,38,204,7960001,,,2026-01-16,登記官による閉鎖,,,2015-10-05,1,,,,,,0
3549,9500001009295,登記記録の閉鎖等,0,2026-01-19,2026-01-16,セリューズ株式会社,,株式会社,愛媛県,西条市,壬生川１０４番地の８,,38,206,7991341,,,2026-01-16,登記官による閉鎖,,,2015-10-05,1,,,,,,0
3550,9500001009568,登記記録の閉鎖等,0,2026-01-19,2026-01-16,赤穂砕石株式会社,,株式会社,愛媛県,新居浜市,新須賀町４丁目１５番７号,,38,205,7920802,,,2026-01-16,登記官による閉鎖,,,2015-10-05,1,,,,,,0
3551,9500001009576,登記記録の閉鎖等,0,2026-01-19,2026-01-16,アオノ建興株式会社,,株式会社,愛媛県,新居浜市,船木甲４２６０番地の６,,38,205,7920856,,,2026-01-16,登記官による閉鎖,,,2015-10-05,1,,,,,,0
3552,9500001009782,登記記録の閉鎖等,0,2026-01-19,2026-01-16,株式会社協和物産,,株式会社,愛媛県,新居浜市,西喜光地町２番５号,,38,205,7920827,,,2026-01-16,登記官による閉鎖,,,2015-10-05,1,,,,,,0
3553,9500001010286,登記記録の閉鎖等,0,2026-01-19,2026-01-16,星加建設工業株式会社,,株式会社,愛媛県,新居浜市,横水町１１番３３号,,38,205,7920033,,,2026-01-16,登記官による閉鎖,,,2015-10-05,1,,,,,,0
3554,9500001010352,登記記録の閉鎖等,0,2026-01-19,2026-01-16,森実印刷株式会社,,株式会社,愛媛県,新居浜市,若水町２丁目４番１８号,,38,205,7920017,,,2026-01-16,登記官による閉鎖,,,2015-10-05,1,,,,,,0
3555,9500001010419,登記記録の閉鎖等,0,2026-01-19,2026-01-16,檜垣窯業株式会社,00007459,株式会社,愛媛県,新居浜市,坂井町３丁目２番９号,,38,205,7920812,,,2026-01-16,登記官による閉鎖,,,2015-10-05,1,,,,,,0
3556,9500001011268,登記記録の閉鎖等,0,2026-01-19,2026-01-16,エヒメ建機販売株式会社,,株式会社,愛媛県,今治市,国分４丁目７番１０号,,38,202,7991533,,,2026-01-16,登記官による閉鎖,,,2015-10-05,1,,,,,,0
3557,9500001011359,登記記録の閉鎖等,0,2026-01-19,2026-01-16,伊予冷蔵株式会社,,株式会社,愛媛県,今治市,天保山町５丁目２番５号,,38,202,7940032,,,2026-01-16,登記官による閉鎖,,,2015-10-05,1,,,,,,0
3558,9500001011391,登記記録の閉鎖等,0,2026-01-19,2026-01-16,カドタソーイング株式会社,,株式会社,愛媛県,今治市,上徳乙１１８番地４,,38,202,7991511,,,2026-01-16,登記官による閉鎖,,,2015-10-05,1,,,,,,0
3559,9500001011400,登記記録の閉鎖等,0,2026-01-19,2026-01-16,かねか産業株式会社,,株式会社,愛媛県,今治市,石井町１丁目９番２５号,,38,202,7940006,,,2026-01-16,登記官による閉鎖,,,2015-10-05,1,,,,,カネカサンギョウ,0
3560,9500001011581,登記記録の閉鎖等,0,2026-01-19,2026-01-16,株式会社小松商店,,株式会社,愛媛県,今治市,立花町２丁目９番１２号,,38,202,7940821,,,2026-01-16,登記官による閉鎖,,,2015-10-05,1,,,,,,0
3561,9500001011805,登記記録の閉鎖等,0,2026-01-19,2026-01-16,曽我縫製株式会社,,株式会社,愛媛県,今治市,高部甲８２７番地２,,38,202,7992113,,,2026-01-16,登記官による閉鎖,,,2015-10-05,1,,,,,,0
3562,9500001011854,登記記録の閉鎖等,0,2026-01-19,2026-01-16,大宝商事株式会社,,株式会社,愛媛県,今治市,南大門町１丁目１番地１３,,38,202,7940027,,,2026-01-16,登記官による閉鎖,,,2015-10-05,1,,,,,,0
3563,9500001011912,登記記録の閉鎖等,0,2026-01-19,2026-01-16,株式会社ダックソフト,,株式会社,愛媛県,今治市,南宝来町２丁目８番地６,,38,202,7940043,,,2026-01-16,登記官による閉鎖,,,2015-10-05,1,,,,,,0
3564,9500001011937,登記記録の閉鎖等,0,2026-01-19,2026-01-16,株式会社たまや,,株式会社,愛媛県,今治市,別宮町１丁目２番地の１０,,38,202,7940026,,,2026-01-16,登記官による閉鎖,,,2015-10-05,1,,,,,,0
3565,9500001011961,登記記録の閉鎖等,0,2026-01-19,2026-01-16,天王海運株式会社,,株式会社,愛媛県,今治市,波方町波方甲２３１４番地,,38,202,7992101,,,2026-01-16,登記官による閉鎖,,,2015-10-05,1,,,,,,0
3566,9500001012027,登記記録の閉鎖等,0,2026-01-19,2026-01-16,巴産業株式会社,,株式会社,愛媛県,今治市,喜田村２丁目４番３８号,,38,202,7991502,,,2026-01-16,登記官による閉鎖,,,2015-10-05,1,,,,,,0
3567,9500001012299,登記記録の閉鎖等,0,2026-01-19,2026-01-16,マイトムオウル株式会社,,株式会社,愛媛県,今治市,波方町養老甲４６０番地１,,38,202,7992109,,,2026-01-16,登記官による閉鎖,,,2015-10-05,1,,,,,,0
3568,9500001012431,登記記録の閉鎖等,0,2026-01-19,2026-01-16,百栄海運株式会社,,株式会社,愛媛県,今治市,唐子台西３丁目１０番地１,,38,202,7991532,,,2026-01-16,登記官による閉鎖,,,2015-10-05,1,,,,,,0
3569,9500001012514,登記記録の閉鎖等,0,2026-01-19,2026-01-16,株式会社友愛物産,,株式会社,愛媛県,今治市,共栄町４丁目６番地７,,38,202,7940024,,,2026-01-16,登記官による閉鎖,,,2015-10-05,1,,,,,,0
3570,9500001012563,登記記録の閉鎖等,0,2026-01-19,2026-01-16,株式会社ワールド石材,,株式会社,愛媛県,今治市,波方町養老甲４８７番地１,,38,202,7992109,,,2026-01-16,登記官による閉鎖,,,2015-10-05,1,,,,,,0
3571,9500001012844,登記記録の閉鎖等,0,2026-01-19,2026-01-16,株式会社伯方水産加工センター,,株式会社,愛媛県,今治市,伯方町叶浦甲１６６６番地の３１,,38,202,7942302,,,2026-01-16,登記官による閉鎖,,,2015-10-05,1,,,,,,0
3572,9500001014493,登記記録の閉鎖等,0,2026-01-19,2026-01-16,三島市場株式会社,,株式会社,愛媛県,四国中央市,中之庄町１６６４番地,,38,213,7990422,,,2026-01-16,登記官による閉鎖,,,2015-10-05,1,,,,,,0
3573,9500001014543,登記記録の閉鎖等,0,2026-01-19,2026-01-16,石川工業株式会社,,株式会社,愛媛県,四国中央市,川之江町２６４６番地,,38,213,7990101,,,2026-01-16,登記官による閉鎖,,,2015-10-05,1,,,,,,0
3574,9500001014650,登記記録の閉鎖等,0,2026-01-19,2026-01-16,株式会社サンクリーン,,株式会社,愛媛県,四国中央市,金生町下分８６３番地,,38,213,7990111,,,2026-01-16,登記官による閉鎖,,,2015-10-05,1,,,,,,0
3575,9500001014790,登記記録の閉鎖等,0,2026-01-19,2026-01-16,松本株式会社,,株式会社,愛媛県,四国中央市,金生町下分８４７番地の１,,38,213,7990111,,,2026-01-16,登記官による閉鎖,,,2015-10-05,1,,,,,,0
3576,9500001014907,登記記録の閉鎖等,0,2026-01-19,2026-01-16,日本特殊工業株式会社,,株式会社,愛媛県,四国中央市,土居町蕪崎１５３６番地,,38,213,7990724,,,2026-01-16,登記官による閉鎖,,,2015-10-05,1,,,,,,0
3577,9500001015574,登記記録の閉鎖等,0,2026-01-19,2026-01-16,株式会社伊勢居電化センター,,株式会社,愛媛県,宇和島市,吉田町本町３４番地,,38,203,7993705,,,2026-01-16,登記官による閉鎖,,,2015-10-05,1,,,,,,0
3578,9500001015582,登記記録の閉鎖等,0,2026-01-19,2026-01-16,株式会社橘組,,株式会社,愛媛県,宇和島市,吉田町立間２番耕地２６４８番地１,,38,203,7993730,,,2026-01-16,登記官による閉鎖,,,2015-10-05,1,,,,,,0
3579,9500002001986,登記記録の閉鎖等,0,2026-01-19,2026-01-16,有限会社梶川鉄工所,,有限会社,愛媛県,松山市,南吉田町２７９８番地６２,,38,201,7918042,,,2026-01-16,登記官による閉鎖,,,2015-10-05,1,,,,,,0
3580,9500002002662,登記記録の閉鎖等,0,2026-01-19,2026-01-16,有限会社公寿し,,有限会社,愛媛県,松山市,空港通４丁目１番７号,,38,201,7910054,,,2026-01-16,登記官による閉鎖,,,2015-10-05,1,,,,,,0
3582,9500002006226,登記記録の閉鎖等,0,2026-01-19,2026-01-05,有限会社松山湊町アイススケート,,有限会社,愛媛県,松山市,築山町７番５号,,38,201,7900864,,,2026-01-05,合併による解散等,6500001003458,令和７年１２月３１日愛媛県松山市大街道二丁目４番地１４株式会社ファースト（6500001003458）に合併し解散,2015-10-05,1,,,,,マツヤマミナトマチアイススケート,0
3583,9500002019418,登記記録の閉鎖等,0,2026-01-19,2026-01-16,有限会社ワコー産業,,有限会社,愛媛県,今治市,松本町３丁目１番地１６,,38,202,7940041,,,2026-01-16,登記官による閉鎖,,,2015-10-05,1,,,,,,0
3584,9500002020284,登記記録の閉鎖等,0,2026-01-19,2026-01-16,有限会社シーライン,,有限会社,愛媛県,今治市,吉海町八幡２０番地,,38,202,7942110,,,2026-01-16,登記官による閉鎖,,,2015-10-05,1,,,,,,0
3585,9500002024087,登記記録の閉鎖等,0,2026-01-19,2026-01-16,有限会社和泉建設,,有限会社,愛媛県,南宇和郡愛南町,満倉２７２４番地,,38,506,7984405,,,2026-01-16,登記官による閉鎖,,,2015-10-05,1,,,,,,0
3586,9500002024186,登記記録の閉鎖等,0,2026-01-19,2026-01-16,有限会社えひめ渡船,,有限会社,愛媛県,南宇和郡愛南町,中泊７３８番地,,38,506,7984207,,,2026-01-16,登記官による閉鎖,,,2015-10-05,1,,,,,,0
3587,9500005003732,登記記録の閉鎖等,0,2026-01-19,2026-01-16,西条製材協同組合,,その他の設立登記法人,愛媛県,西条市,喜多川２０９番地１,,38,206,7930042,,,2026-01-16,登記官による閉鎖,,,2015-10-05,1,,,,,,0
3588,9500005004680,登記記録の閉鎖等,0,2026-01-19,2026-01-16,一般社団法人クリーンエナジー推進協議会,,その他の設立登記法人,愛媛県,伊予郡砥部町,高尾田６４７番地１,,38,402,7912101,,,2026-01-16,登記官による閉鎖,,,2015-10-05,1,,,,,,0
