sequenceNumber,corporateNumber,process,correct,updateDate,changeDate,name,nameImageId,kind,prefectureName,cityName,streetNumber,addressImageId,prefectureCode,cityCode,postCode,addressOutside,addressOutsideImageId,closeDate,closeCause,successorCorporateNumber,changeCause,assignmentDate,latest,enName,enPrefectureName,enCityName,enAddressOutside,furigana,hihyoji
7,1010001247233,新規,0,2024-08-09,2024-08-09,ＰＡＮ　ＣＯＮ　ＴＯＭＡＴＥ株式会社,,株式会社,東京都,中央区,新川２丁目２０番８－９０４号,,13,102,1040033,,,,,,,2024-08-09,1,,,,,パンコントマテ,0
8,1010001247299,新規,0,2024-08-09,2024-08-09,株式会社ＰａｔｈＴｅｃｈ,,株式会社,東京都,千代田区,一番町６番地６東硝ハイツ一番町６０２号,,13,101,1020082,,,,,,,2024-08-09,1,,,,,パステック,0
9,1010001247324,新規,0,2024-08-09,2024-08-09,ＺＥＮ株式会社,,株式会社,東京都,中央区,日本橋横山町３番４－９０５号,,13,102,1030003,,,,,,,2024-08-09,1,,,,,ゼン,0
10,1010001247332,新規,0,2024-08-09,2024-08-09,ＮＹＫ株式会社,,株式会社,東京都,千代田区,神田佐久間町２丁目１３番２７号,,13,101,1010025,,,,,,,2024-08-09,1,,,,,エヌワイケー,0
11,1010001247381,新規,0,2024-08-09,2024-08-09,株式会社ＴＮビルド,,株式会社,東京都,中央区,築地７丁目１８－１８－２２０,,13,102,1040045,,,,,,,2024-08-09,1,,,,,ティーエヌビルド,0
15,1010003044538,新規,0,2024-08-09,2024-08-09,森吉直剛アトリエ合同会社,,合同会社,東京都,中央区,銀座１丁目３番３号,,13,102,1040061,,,,,,,2024-08-09,1,,,,,モリヨシナオタケアトリエ,0
16,1010003044570,新規,0,2024-08-09,2024-08-09,合同会社酒ビジネスオフィス,,合同会社,東京都,千代田区,麹町３丁目４番地２５,,13,101,1020083,,,,,,,2024-08-09,1,,,,,サケビジネスオフィス,0
18,1010005038604,新規,0,2024-08-09,2024-08-09,一般社団法人日本オムテック協会,,その他の設立登記法人,東京都,中央区,銀座１丁目１２番４号Ｎ＆ＥＢＬＤ．６Ｆ,,13,102,1040061,,,,,,,2024-08-09,1,,,,,ニホンオムテックキョウカイ,0
19,1010005038612,新規,0,2024-08-09,2024-08-09,一般社団法人マーキュリー,,その他の設立登記法人,東京都,千代田区,二番町３番地麹町スクエア株式会社シリウス・アドバイザリー内,,13,101,1020084,,,,,,,2024-08-09,1,,,,,マーキュリー,0
20,1010005038620,新規,0,2024-08-09,2024-08-09,ＳｏＶａ行政書士法人,,その他の設立登記法人,東京都,中央区,日本橋本町３丁目９番７号ＡＲＣＣＵＢＥ日本橋本町３階,,13,102,1030023,,,,,,,2024-08-09,1,,,,,ソバ,0
22,1010105002286,新規,0,2024-08-09,2024-08-09,一般社団法人聞く力育成協会,,その他の設立登記法人,東京都,八王子市,七国５丁目３０番３号,,13,201,1920919,,,,,,,2024-08-09,1,,,,,,0
25,1010401184225,新規,0,2024-08-09,2024-08-09,株式会社Ｔｏｋｙｏ　Ｇｒｅｅｎ　Ｂｏｘ,,株式会社,東京都,港区,赤坂３丁目１７番８号第一都ビル６０１,,13,103,1070052,,,,,,,2024-08-09,1,,,,,トウキョウグリーンボックス,0
26,1010401184290,新規,0,2024-08-09,2024-08-09,Ｈａｎｄｙｍａｎ株式会社,,株式会社,東京都,港区,愛宕１丁目１－１－１３１３,,13,103,1050002,,,,,,,2024-08-09,1,,,,,ハンディマン,0
27,1010401184332,新規,0,2024-08-09,2024-08-09,スーパーユーデザイン株式会社,,株式会社,東京都,港区,南青山５丁目４番４１号グラッセリア青山,,13,103,1070062,,,,,,,2024-08-09,1,,,,,スーパーユーデザイン,0
28,1010403033181,新規,0,2024-08-09,2024-08-09,ジャパンライフサポート合同会社,,合同会社,東京都,港区,芝５丁目３６番４号札の辻スクエア９階,00135901,13,103,1080014,,,,,,,2024-08-09,1,,,,,ジャパンライフサポート,0
35,1010601065729,新規,0,2024-08-09,2024-08-09,株式会社ＣＲＯＳＳ　ＢＯＲＤＥＲＳ,,株式会社,東京都,江東区,北砂６丁目２０－３４,,13,108,1360073,,,,,,,2024-08-09,1,,,,,クロスボーダーズ,0
42,1010803005061,新規,0,2024-08-09,2024-08-09,合同会社Ｗａａｉ,,合同会社,東京都,大田区,西蒲田８丁目４－１４エスコートハイム１階,,13,111,1440051,,,,,,,2024-08-09,1,,,,,ワァイ,0
45,1010901055743,新規,0,2024-08-09,2024-08-09,株式会社ゴールライン,,株式会社,東京都,世田谷区,野沢３丁目３１番１１号,,13,112,1540003,,,,,,,2024-08-09,1,,,,,ゴールライン,0
51,1011001163767,新規,0,2024-08-09,2024-08-09,株式会社スプリングジャンプ,,株式会社,東京都,目黒区,三田２丁目３０－２０ピアレス２Ｆ,,13,110,1530062,,,,,,,2024-08-09,1,,,,,スプリングジャンプ,0
52,1011001163783,新規,0,2024-08-09,2024-08-09,株式会社１０Ｆａｄｅ,,株式会社,東京都,渋谷区,道玄坂１丁目１０番８号渋谷道玄坂東急ビル２Ｆ－Ｃ,,13,113,1500043,,,,,,,2024-08-09,1,,,,,テンフェード,0
53,1011001163809,新規,0,2024-08-09,2024-08-09,株式会社Ｓａｕｎａ　Ｔｒａｖｅｌ,,株式会社,東京都,渋谷区,道玄坂１丁目１０番８号渋谷道玄坂東急ビル２Ｆ－Ｃ,,13,113,1500043,,,,,,,2024-08-09,1,,,,,サウナトラベル,0
54,1011001163890,新規,0,2024-08-09,2024-08-09,株式会社デジタルコンシェルジュ,,株式会社,東京都,渋谷区,本町３丁目１４番３号松尾ビル５階,,13,113,1510071,,,,,,,2024-08-09,1,,,,,デジタルコンシェルジュ,0
55,1011001163899,新規,0,2024-08-09,2024-08-09,株式会社サクラ咲,,株式会社,東京都,目黒区,上目黒１丁目１８番１１－３１０号,,13,110,1530051,,,,,,,2024-08-09,1,,,,,サクラサク,0
56,1011001164014,新規,0,2024-08-09,2024-08-09,株式会社エントリーポイント,,株式会社,東京都,渋谷区,神泉町２０番２１号クロスシー渋谷神泉ビル,,13,113,1500045,,,,,,,2024-08-09,1,,,,,エントリーポイント,0
57,1011003019728,新規,0,2024-08-09,2024-08-09,合同会社ＴＦＲ,,合同会社,東京都,渋谷区,円山町２６－７ＴＫＦＬＡＴＳ渋谷８０５,,13,113,1500044,,,,,,,2024-08-09,1,,,,,ティーエフアール,0
58,1011003019752,新規,0,2024-08-09,2024-08-09,合同会社ＲＡＭＢＬＥ,,合同会社,東京都,目黒区,下目黒１丁目１番１４号コノトラビル７Ｆ,,13,110,1530064,,,,,,,2024-08-09,1,,,,,ランブル,0
63,1011101108317,新規,0,2024-08-09,2024-08-09,株式会社リメイクプラス,,株式会社,東京都,新宿区,市谷台町１０番８号,,13,104,1620066,,,,,,,2024-08-09,1,,,,,リメイクプラス,0
64,1011101108325,新規,0,2024-08-09,2024-08-09,株式会社ライズ,,株式会社,東京都,新宿区,四谷３丁目３番地エスパス・コンセールビル３０１,,13,104,1600004,,,,,,,2024-08-09,1,,,,,ライズ,0
65,1011101108341,新規,0,2024-08-09,2024-08-09,株式会社ＳＨＩＮＳＩＲ,,株式会社,東京都,新宿区,高田馬場１丁目２１－１３廣池ビルディング４０３,,13,104,1690075,,,,,,,2024-08-09,1,,,,,シンサー,0
66,1011103014620,新規,0,2024-08-09,2024-08-09,合同会社万事屋,,合同会社,東京都,新宿区,新宿１丁目３６番２号新宿第七葉山ビル３Ｆ,,13,104,1600022,,,,,,,2024-08-09,1,,,,,ヨロズヤ,0
67,1011103014777,新規,0,2024-08-09,2024-08-09,ｅｆＦｏｒｔ合同会社,,合同会社,東京都,新宿区,富久町１７番１－４２１号,,13,104,1620067,,,,,,,2024-08-09,1,,,,,フォート,0
68,1011201025718,新規,0,2024-08-09,2024-08-09,株式会社高島屋ユーライフコーポレーション,,株式会社,東京都,中野区,中野５丁目６０番８号フジヤビル３階,,13,114,1640001,,,,,,,2024-08-09,1,,,,,タカシマヤユーライフコーポレーション,0
74,1011601027966,新規,0,2024-08-09,2024-08-09,株式会社ダイバースクリエイト,,株式会社,東京都,練馬区,貫井４丁目３７番１４号,,13,120,1760021,,,,,,,2024-08-09,1,,,,,ダイバースクリエイト,0
79,1011803006388,新規,0,2024-08-09,2024-08-09,合同会社デミグラス,,合同会社,東京都,葛飾区,西亀有２丁目４１番１７号,,13,122,1240002,,,,,,,2024-08-09,1,,,,,デミグラス,0
84,1012403006704,新規,0,2024-08-09,2024-08-09,合同会社ＴｒａｖｅｌＥａｓｅｊａｐａｎＴｏｋｙｏ,,合同会社,東京都,調布市,深大寺北町６丁目１２番地１０コーポラス待夢里２０１,,13,208,1820011,,,,,,,2024-08-09,1,,,,,トラベリースジャパントウキョウ,0
85,1012801023391,新規,0,2024-08-09,2024-08-09,株式会社ＵＮＩＴＹ,,株式会社,東京都,立川市,曙町２丁目１１番７号立川リージェントビル５Ｆ,,13,202,1900012,,,,,,,2024-08-09,1,,,,,ユニティー,0
102,1021001082958,新規,0,2024-08-09,2024-08-09,株式会社竹和商事,,株式会社,神奈川県,綾瀬市,早川１８０２番地,,14,218,2521123,,,,,,,2024-08-09,1,,,,,タケワショウジ,0
106,1030001161894,新規,0,2024-08-09,2024-08-09,Ｂｅｔｔｅｒ　Ｔｏｍｏｒｒｏｗ株式会社,,株式会社,埼玉県,さいたま市見沼区,大和田町１丁目７７７番地１０,,11,104,3370053,,,,,,,2024-08-09,1,,,,,ベタートゥモロー,0
110,1030003024884,新規,0,2024-08-09,2024-08-09,ＰＡＮＩＬＯ合同会社,,合同会社,埼玉県,狭山市,大字上奥富２０５番地の１ワンリバーＣ,,11,215,3501333,,,,,,,2024-08-09,1,,,,,パニロ,0
121,1040003025584,新規,0,2024-08-09,2024-08-09,吉翔合同会社,,合同会社,千葉県,松戸市,松戸１２８６番地の５,,12,207,2710092,,,,,,,2024-08-09,1,,,,,キッショウ,0
122,1040003025592,新規,0,2024-08-09,2024-08-09,合同会社クラス,,合同会社,千葉県,千葉市中央区,本千葉町１番１１号千葉中央ビル４階Ｂ号室,,12,101,2600014,,,,,,,2024-08-09,1,,,,,クラス,0
124,1040005022464,新規,0,2024-08-09,2024-08-09,一般社団法人千葉県野球協会,,その他の設立登記法人,千葉県,四街道市,和良比２６９番地２９,,12,228,2840044,,,,,,,2024-08-09,1,,,,,チバケンヤキュウキョウカイ,0
127,1050001055194,新規,0,2024-08-09,2024-08-09,ＨＫＳホールディングス株式会社,,株式会社,茨城県,守谷市,緑２丁目３４番地１,,08,224,3020106,,,,,,,2024-08-09,1,,,,,エイチケイエスホールディングス,0
128,1050001055228,新規,0,2024-08-09,2024-08-09,株式会社茅松,,株式会社,茨城県,つくば市,吉瀬６４２番地１,,08,220,3050022,,,,,,,2024-08-09,1,,,,,カヤマツ,0
138,1060005010228,新規,0,2024-08-09,2024-08-09,農事組合法人ＡＩファーム,,その他の設立登記法人,栃木県,宇都宮市,御幸町３－４ラマシア御幸町３０２,,09,201,3210984,,,,,,,2024-08-09,1,,,,,エイアイファーム,0
139,1070001042067,新規,0,2024-08-09,2024-08-09,Ｕｎｉｔｅ株式会社,,株式会社,群馬県,高崎市,栄町３番地１１高崎バナーズビル３Ｆ,,10,202,3700841,,,,,,,2024-08-09,1,,,,,ユナイト,0
158,1120001267245,新規,0,2024-08-09,2024-08-09,株式会社峰マネージメント,,株式会社,大阪府,大阪市中央区,東高麗橋５番３号,,27,128,5400039,,,,,,,2024-08-09,1,,,,,ミネマネージメント,0
159,1120001267617,新規,0,2024-08-09,2024-08-09,ｍｅｎｉ株式会社,,株式会社,大阪府,大阪市東淀川区,下新庄５丁目１０番１７号７０１号室,,27,114,5330021,,,,,,,2024-08-09,1,,,,,ミーニー,0
160,1120001267625,新規,0,2024-08-09,2024-08-09,循環資源コンサルタント株式会社,,株式会社,大阪府,大阪市北区,梅田１丁目１１番４－９２３号,,27,127,5300001,,,,,,,2024-08-09,1,,,,,ジュンカンシゲンコンサルタント,0
161,1120001267641,新規,0,2024-08-09,2024-08-09,株式会社メリオール,,株式会社,大阪府,大阪市北区,豊崎１丁目５番２２号２０２号室,,27,127,5310072,,,,,,,2024-08-09,1,,,,,メリオール,0
164,1120003027234,新規,0,2024-08-09,2024-08-09,ＷｉｔｈＡ合同会社,,合同会社,大阪府,大阪市中央区,北久宝寺町２丁目１－３,,27,128,5410057,,,,,,,2024-08-09,1,,,,,ウィズエー,0
165,1120003027275,新規,0,2024-08-09,2024-08-09,福日合同会社,,合同会社,大阪府,大阪市平野区,長吉長原東３丁目７－２３,,27,126,5470013,,,,,,,2024-08-09,1,,,,,フクニチ,0
166,1120003027283,新規,0,2024-08-09,2024-08-09,合同会社Ｃｈａｍｅｌｅｏｎ,,合同会社,大阪府,守口市,河原町１―１京阪百貨店エル守口アネックス１Ｆ,,27,209,5700038,,,,,,,2024-08-09,1,,,,,カメレオン,0
169,1120901049577,新規,0,2024-08-09,2024-08-09,株式会社ＰＦＤ,,株式会社,大阪府,茨木市,宮元町６－１宮元七番館３０２,,27,211,5670810,,,,,,,2024-08-09,1,,,,,ピーエフディー,0
170,1122001038320,新規,0,2024-08-09,2024-08-09,株式会社花本塗装店,,株式会社,大阪府,八尾市,太子堂４丁目４番２１号,,27,212,5810063,,,,,,,2024-08-09,1,,,,,ハナモトトソウテン,0
174,1130001077635,新規,0,2024-08-09,2024-08-09,株式会社ＰＡＲＡＤＯＸＥＲ,,株式会社,京都府,京都市下京区,朱雀宝蔵町４４番地共栄ビル２階,,26,106,6008846,,,,,,,2024-08-09,1,,,,,パラドクサー,0
175,1130001077676,新規,0,2024-08-09,2024-08-09,イマイプロパティーズ株式会社,,株式会社,京都府,京都市右京区,嵯峨新宮町２９番地１０,,26,108,6168355,,,,,,,2024-08-09,1,,,,,イマイプロパティーズ,0
180,1140001135417,新規,0,2024-08-09,2024-08-09,株式会社リュクスリアルティ,,株式会社,兵庫県,芦屋市,宮塚町１５番４－１号２階,,28,206,6590062,,,,,,,2024-08-09,1,,,,,リュクスリアルティ,0
181,1140001135474,新規,0,2024-08-09,2024-08-09,株式会社ファーストトラスト,,株式会社,兵庫県,神戸市兵庫区,羽坂通２丁目１－１２－１０１,,28,105,6520805,,,,,,,2024-08-09,1,,,,,ファーストトラスト,0
183,1160001026110,新規,0,2024-08-09,2024-08-09,Ｎｉｕ・Ｒｉｃｈ・Ｌｉｆｅ株式会社,,株式会社,滋賀県,草津市,大路１丁目９番１－７０４号,,25,206,5250032,,,,,,,2024-08-09,1,,,,,ニュウリッチライフ,0
184,1160001026143,新規,0,2024-08-09,2024-08-09,大翔株式会社,,株式会社,滋賀県,守山市,播磨田町１９４４－４,,25,207,5240012,,,,,,,2024-08-09,1,,,,,,0
186,1180001162606,新規,0,2024-08-09,2024-08-09,ＧＭ株式会社,,株式会社,愛知県,名古屋市西区,名駅２丁目１４番１１号２０１号室,,23,104,4510045,,,,,,,2024-08-09,1,,,,,ジーエム,0
187,1180001162705,新規,0,2024-08-09,2024-08-09,ＧＩＫＥＮ‐ＮＥＸＴ　Ｃｏ．株式会社,,株式会社,愛知県,名古屋市港区,小碓２丁目２４５番地,,23,111,4550801,,,,,,,2024-08-09,1,,,,,ギケンネクストシーオー,0
188,1180001162713,新規,0,2024-08-09,2024-08-09,株式会社日本商業管理,,株式会社,愛知県,名古屋市瑞穂区,白羽根町１丁目２８番地,,23,108,4670014,,,,,,,2024-08-09,1,,,,,ニホンショウギョウカンリ,0
189,1180001162787,新規,0,2024-08-09,2024-08-09,株式会社Ｇｌｏｗ　Ｄａｉｙａ,,株式会社,愛知県,名古屋市熱田区,青池町３丁目６２番地,,23,109,4560075,,,,,,,2024-08-09,1,,,,,グローダイヤ,0
190,1180001162804,新規,0,2024-08-09,2024-08-09,株式会社ＩＺＡＮＡ,,株式会社,愛知県,名古屋市中村区,名駅３丁目４番１０号アルティメイト名駅１ｓｔ２階,,23,105,4500002,,,,,,,2024-08-09,1,,,,,イザナ,0
204,1200001042796,新規,0,2024-08-09,2024-08-09,株式会社Ｕ・ＴＯＰＩＡ　ＨＯＬＤＩＮＧＳ,,株式会社,岐阜県,岐阜市,古市場中原６７番地１,,21,201,5011124,,,,,,,2024-08-09,1,,,,,ユートピアホールディングス,0
205,1200001042805,新規,0,2024-08-09,2024-08-09,株式会社プロネス,,株式会社,岐阜県,岐阜市,天池１丁目１番３号スペランザ見晴３０５号室,,21,201,5008221,,,,,,,2024-08-09,1,,,,,プロネス,0
207,1200005013653,新規,0,2024-08-09,2024-08-09,医療法人燕桜会,,その他の設立登記法人,岐阜県,各務原市,那加住吉町１丁目４８番地１,,21,213,5040907,,,,,,,2024-08-09,1,,,,,エンオウカイ,0
208,1210001019876,新規,0,2024-08-09,2024-08-09,株式会社ｓｌｅｅｖｅ,,株式会社,福井県,坂井市,三国町錦２丁目３番２号,,18,210,9130043,,,,,,,2024-08-09,1,,,,,スリーブ,0
211,1220003003811,新規,0,2024-08-09,2024-08-09,合同会社ＳＴＲＥＡＭ,,合同会社,石川県,金沢市,泉が丘２丁目１２番１３号,,17,201,9218035,,,,,,,2024-08-09,1,,,,,ストリーム,0
213,1240001063707,新規,0,2024-08-09,2024-08-09,株式会社ＤｅｅｐＤｉｖｅ,,株式会社,広島県,広島市中区,東平塚町二丁目２３番ｄｒｏｐｔｉｐＢｌｄｇ．,,34,101,7300025,,,,,,,2024-08-09,1,,,,,ディープダイブ,0
218,1260003004847,新規,0,2024-08-09,2024-08-09,合同会社加藤商店,,合同会社,岡山県,倉敷市,玉島爪崎１４８番地７,,33,202,7100252,,,,,,,2024-08-09,1,,,,,,0
221,1290001106634,新規,0,2024-08-09,2024-08-09,ＡＱＵＡ　Ｒｅ株式会社,,株式会社,福岡県,福岡市博多区,美野島３丁目６番１７－１０２号,,40,132,8120017,,,,,,,2024-08-09,1,,,,,アクアリー,0
222,1290001106659,新規,0,2024-08-09,2024-08-09,ファンレジデンスサポート株式会社,,株式会社,福岡県,筑紫野市,岡田１丁目２６番地５,,40,217,8180013,,,,,,,2024-08-09,1,,,,,ファンレジデンスサポート,0
223,1290001106808,新規,0,2024-08-09,2024-08-09,株式会社Ｆ＆Ｓトレーディング,,株式会社,福岡県,福岡市東区,下原１丁目２４番６号,,40,131,8130002,,,,,,,2024-08-09,1,,,,,エフアンドエストレーディング,0
226,1290003015602,新規,0,2024-08-09,2024-08-09,合同会社ＫＨエージェント,,合同会社,福岡県,福岡市南区,柏原６丁目６２番１１－４０２号,,40,134,8111353,,,,,,,2024-08-09,1,,,,,ケーエイチエージェント,0
227,1290003015619,新規,0,2024-08-09,2024-08-09,合同会社ＳＩＥＳ,,合同会社,福岡県,大野城市,月の浦１丁目１９番７号,,40,219,8160983,,,,,,,2024-08-09,1,,,,,シーズ,0
229,1290803004812,新規,0,2024-08-09,2024-08-09,合同会社ＭＵＯＮ,,合同会社,福岡県,北九州市小倉北区,船場町３番６号３階,,40,106,8020007,,,,,,,2024-08-09,1,,,,,ムオン,0
231,1310001019172,新規,0,2024-08-09,2024-08-09,株式会社ＤＵＮＫ,,株式会社,長崎県,長崎市,館内町６－２４,,42,201,8500906,,,,,,,2024-08-09,1,,,,,ダンク,0
236,1330001032347,新規,0,2024-08-09,2024-08-09,Ｍｅｔａｌｗｏｒｋｓ株式会社,,株式会社,熊本県,山鹿市,鹿央町岩原５２５４番地２,,43,208,8610561,,,,,,,2024-08-09,1,,,,,メタルワークス,0
241,1330003010508,新規,0,2024-08-09,2024-08-09,合同会社Ａｍｏｔｉｅ,,合同会社,熊本県,熊本市中央区,花畑町１番１４号Ａ＆Ｍ　ＨＡＮＡＢＡＴＡ３０１号,,43,101,8600806,,,,,,,2024-08-09,1,,,,,アモティエ,0
245,1370003006717,新規,0,2024-08-09,2024-08-09,合同会社アイハル,,合同会社,宮城県,仙台市泉区,高森６丁目３９番地の８,,04,105,9813203,,,,,,,2024-08-09,1,,,,,アイハル,0
256,1430001092439,新規,0,2024-08-09,2024-08-09,株式会社Ｃｏｃｏｋａｒａ,,株式会社,北海道,札幌市中央区,南三条東２丁目１ベンチャースクエア３０５,,01,101,0600053,,,,,,,2024-08-09,1,,,,,ココカラ,0
258,1430003016602,新規,0,2024-08-09,2024-08-09,合同会社ＴＩＳＯＵ,,合同会社,北海道,札幌市北区,北三十二条西５丁目３－２８,,01,102,0010032,,,,,,,2024-08-09,1,,,,,チソウ,0
266,1700150126713,新規,0,2024-08-09,2024-08-09,ＮＡＡＨＩＬ　ＥＮＴＥＲＰＲＩＳＥＳ,,外国会社等,千葉県,東金市,二又３３６番地２オフィス１,,12,213,2830004,スリランカ民主社会主義共和国、アラワスゴダ、マワスプラ、Ｎｏ．２６／２,,,,,,2024-08-09,1,,,,,ナヒルエンタープライズ,0
276,2010005038603,新規,0,2024-08-09,2024-08-09,ＰＹＭ一般財団法人,,その他の設立登記法人,東京都,千代田区,永田町２丁目１１番１号山王パークタワーアネックス棟２Ｆ,,13,101,1000014,,,,,,,2024-08-09,1,,,,,ピーワイエム,0
277,2010101016272,新規,0,2024-08-09,2024-08-09,株式会社ＫＯＢＯＲＩ,,株式会社,東京都,八王子市,館町３４９－１,,13,201,1930944,,,,,,,2024-08-09,1,,,,,コボリ,0
284,2010401184281,新規,0,2024-08-09,2024-08-09,アスエネヴェリタス株式会社,,株式会社,東京都,港区,虎ノ門１－１０－５ＫＤＸ虎ノ門一丁目ビルＷｅＷｏｒｋ４階,,13,103,1050000,,,,,,,2024-08-09,1,,,,,アスエネヴェリタス,0
285,2010401184298,新規,0,2024-08-09,2024-08-09,株式会社ＳＯＵＬ　ＦＯＯＤ　ＭＡＲＫＥＴＳ,,株式会社,東京都,港区,南青山３丁目２番３号,,13,103,1070062,,,,,,,2024-08-09,1,,,,,,0
286,2010401184331,新規,0,2024-08-09,2024-08-09,ＭＥＬＯ株式会社,,株式会社,東京都,港区,六本木７丁目１８番７号,,13,103,1060032,,,,,,,2024-08-09,1,,,,,メロ,0
287,2010403033189,新規,0,2024-08-09,2024-08-09,合同会社桜道５４,,合同会社,東京都,港区,芝２丁目１２番１３号ＡＳＩＴＩＳ芝ビル２０１,,13,103,1050014,,,,,,,2024-08-09,1,,,,,サクラミチゴジュウヨン,0
288,2010403033197,新規,0,2024-08-09,2024-08-09,合同会社施設調剤薬局,,合同会社,東京都,港区,浜松町２丁目２番１５号浜松町ダイヤビル２Ｆ,,13,103,1050013,,,,,,,2024-08-09,1,,,,,シセツチョウザイヤッキョク,0
289,2010403033214,新規,0,2024-08-09,2024-08-09,合同会社ＨＯＰＥ,,合同会社,東京都,港区,北青山１丁目３番１号アールキューブ青山３階,,13,103,1070061,,,,,,,2024-08-09,1,,,,,ホープ,0
290,2010501052735,新規,0,2024-08-09,2024-08-09,株式会社快楽買谷,,株式会社,東京都,台東区,西浅草３丁目２０－６－１０２,,13,106,1110035,,,,,,,2024-08-09,1,,,,,カイラクガイタニ,0
292,2010601065703,新規,0,2024-08-09,2024-08-09,Ｌｏｃａｌ　Ｅａｒｔｈ株式会社,,株式会社,東京都,江東区,新大橋３丁目１１番１５－５０５号,,13,108,1350007,,,,,,,2024-08-09,1,,,,,ローカルアース,0
304,2011001163774,新規,0,2024-08-09,2024-08-09,株式会社Ｌａｌｉ,,株式会社,東京都,渋谷区,鶯谷町１４番５－２０５号,,13,113,1500032,,,,,,,2024-08-09,1,,,,,ラリィ,0
305,2011001163782,新規,0,2024-08-09,2024-08-09,１２１８株式会社,,株式会社,東京都,渋谷区,道玄坂１丁目１０番８号渋谷道玄坂東急ビル２Ｆ－Ｃ,,13,113,1500043,,,,,,,2024-08-09,1,,,,,イチニーイチハチ,0
306,2011001163873,新規,0,2024-08-09,2024-08-09,株式会社ＹＥＳ　Ｉｎｔｅｒｎａｔｉｏｎａｌ東京,,株式会社,東京都,渋谷区,東４丁目１１番８号,,13,113,1500011,,,,,,,2024-08-09,1,,,,,イエスインターナショナルトウキョウ,0
309,2011003019702,新規,0,2024-08-09,2024-08-09,合同会社空即是色,,合同会社,東京都,目黒区,南２丁目４番６号,,13,110,1520013,,,,,,,2024-08-09,1,,,,,クウソクゼシキ,0
310,2011003019727,新規,0,2024-08-09,2024-08-09,ＹＮＷＡ合同会社,,合同会社,東京都,渋谷区,道玄坂１丁目１０番８号渋谷道玄坂東急ビル２Ｆ－Ｃ,,13,113,1500043,,,,,,,2024-08-09,1,,,,,ワイエヌダブリュー,0
311,2011003019735,新規,0,2024-08-09,2024-08-09,合同会社オランミュール,,合同会社,東京都,渋谷区,道玄坂１丁目１０番８号渋谷道玄坂東急ビル２Ｆ－Ｃ,,13,113,1500043,,,,,,,2024-08-09,1,,,,,オランミュール,0
315,2011101108308,新規,0,2024-08-09,2024-08-09,株式会社ＭＩＲＡ　Ｅｎｔｅｒｔａｉｎｍｅｎｔ,,株式会社,東京都,新宿区,西新宿３丁目３番１３号西新宿水間ビル２Ｆ,,13,104,1600023,,,,,,,2024-08-09,1,,,,,ミラエンターテイメント,0
316,2011101108324,新規,0,2024-08-09,2024-08-09,株式会社イッシン,,株式会社,東京都,新宿区,四谷４丁目３３番地,,13,104,1600004,,,,,,,2024-08-09,1,,,,,イッシン,0
317,2011101108332,新規,0,2024-08-09,2024-08-09,ＧＴＳ株式会社,,株式会社,東京都,新宿区,高田馬場４丁目８－９,,13,104,1690075,,,,,,,2024-08-09,1,,,,,ジーティーエス,0
318,2011101108349,新規,0,2024-08-09,2024-08-09,株式会社ｂｏｂｏｌａｂｏ,,株式会社,東京都,新宿区,四谷坂町５番１３号四谷坂町コーポ４０１,,13,104,1600002,,,,,,,2024-08-09,1,,,,,ボボラボ,0
320,2011201025717,新規,0,2024-08-09,2024-08-09,鶴翔商事株式会社,,株式会社,東京都,中野区,中野１丁目５５番３号４階Ｂ室,,13,114,1640001,,,,,,,2024-08-09,1,,,,,カクショウショウジ,0
321,2011303005253,新規,0,2024-08-09,2024-08-09,ＲＢＣ　Ｒｅｆｉｎｅ合同会社,,合同会社,東京都,杉並区,和泉２丁目４－３,,13,115,1680063,,,,,,,2024-08-09,1,,,,,,0
324,2011603004418,新規,0,2024-08-09,2024-08-09,合同会社Ａｒｃｈ,,合同会社,東京都,練馬区,石神井台３丁目１３番６号,,13,120,1770045,,,,,,,2024-08-09,1,,,,,アーチ,0
327,2011701027519,新規,0,2024-08-09,2024-08-09,株式会社ＺＬ,,株式会社,東京都,江戸川区,西小岩１丁目２１番１１－１００５号,,13,123,1330057,,,,,,,2024-08-09,1,,,,,ゼットエル,0
328,2011703003939,新規,0,2024-08-09,2024-08-09,合同会社ワインドアップ,,合同会社,東京都,江戸川区,篠崎町７丁目２５番１０－６０１号,,13,123,1330061,,,,,,,2024-08-09,1,,,,,ワインドアップ,0
336,2012801023390,新規,0,2024-08-09,2024-08-09,株式会社ＡＩＬＬＩＯ,,株式会社,東京都,立川市,上砂町２丁目１０番地の６,,13,202,1900032,,,,,,,2024-08-09,1,,,,,エーリオ,0
337,2012803003481,新規,0,2024-08-09,2024-08-09,デジタルエアー合同会社,,合同会社,東京都,国分寺市,並木町１丁目１５番地５,,13,214,1850005,,,,,,,2024-08-09,1,,,,,デジタルエアー,0
349,2020001158577,新規,0,2024-08-09,2024-08-09,株式会社ｅｖｅｒｇｒｅｅｎ,,株式会社,神奈川県,横浜市西区,浅間町３丁目１７８―１１,,14,103,2200072,,,,,,,2024-08-09,1,,,,,エバーグリーン,0
354,2021001082981,新規,0,2024-08-09,2024-08-09,Ｂａｓｅ株式会社,,株式会社,神奈川県,茅ヶ崎市,赤松町１３番８８－３号,,14,207,2530013,,,,,,,2024-08-09,1,,,,,ベース,0
360,2030001161885,新規,0,2024-08-09,2024-08-09,株式会社大福猫,,株式会社,埼玉県,さいたま市南区,大字円正寺５１１－３０,,11,108,3360043,,,,,,,2024-08-09,1,,,,,ダイフクネコ,0
361,2030001161893,新規,0,2024-08-09,2024-08-09,株式会社ＫＡＭＯＮＥＹ,,株式会社,埼玉県,戸田市,本町２丁目２番９号,,11,224,3350023,,,,,,,2024-08-09,1,,,,,カモニー,0
365,2030005021805,新規,0,2024-08-09,2024-08-09,税理士法人神田会計,,その他の設立登記法人,埼玉県,川口市,戸塚２丁目１９番２１－２０５号,,11,203,3330811,,,,,,,2024-08-09,1,,,,,カンダカイケイ,0
373,2040001134691,新規,0,2024-08-09,2024-08-09,株式会社にこはきどん,,株式会社,千葉県,松戸市,新松戸北１丁目１４番６号,,12,207,2700032,,,,,,,2024-08-09,1,,,,,ニコハキドン,0
374,2040001134857,新規,0,2024-08-09,2024-08-09,山興業株式会社,,株式会社,千葉県,野田市,山崎１１９４番地の９,,12,208,2780022,,,,,,,2024-08-09,1,,,,,サンコウギョウ,0
375,2040001134898,新規,0,2024-08-09,2024-08-09,株式会社トータルズ,,株式会社,千葉県,柏市,柏３丁目７番１７号,,12,217,2770005,,,,,,,2024-08-09,1,,,,,トータルズ,0
379,2040003025567,新規,0,2024-08-09,2024-08-09,合同会社クロビー,,合同会社,千葉県,市川市,市川南２丁目６番３棟４０４号（ヴェルディール市川南）,,12,203,2720033,,,,,,,2024-08-09,1,,,,,クロビー,0
380,2040003025591,新規,0,2024-08-09,2024-08-09,ＭＫＳ　Ｉｎｓｐｅｃｔｉｏｎｓ合同会社,,合同会社,千葉県,船橋市,大穴南１丁目３１番７号,,12,204,2740067,,,,,,,2024-08-09,1,,,,,エムケイエスインスペクションズ,0
381,2040003025600,新規,0,2024-08-09,2024-08-09,合同会社春風,,合同会社,千葉県,山武郡九十九里町,片貝１１３３番地３,,12,403,2830104,,,,,,,2024-08-09,1,,,,,ハルカゼ,0
382,2040005022463,新規,0,2024-08-09,2024-08-09,特定非営利活動法人みらい,,その他の設立登記法人,千葉県,柏市,松葉町４丁目１番地３、７棟１１０７号,,12,217,2770827,,,,,,,2024-08-09,1,,,,,ミライ,0
383,2050001055268,新規,0,2024-08-09,2024-08-09,株式会社オクトミリア,,株式会社,茨城県,笠間市,笠間１６２０,,08,216,3091611,,,,,,,2024-08-09,1,,,,,オクトミリア,0
385,2060003005187,新規,0,2024-08-09,2024-08-09,合同会社オフタス,,合同会社,栃木県,芳賀郡市貝町,大字多田羅８８９－３Ｂ１０３,,09,344,3213425,,,,,,,2024-08-09,1,,,,,オフタス,0
390,2070001042082,新規,0,2024-08-09,2024-08-09,株式会社トラインテック,,株式会社,群馬県,高崎市,問屋町西１丁目１番３号,,10,202,3700007,,,,,,,2024-08-09,1,,,,,トラインテック,0
394,2080101024946,新規,0,2024-08-09,2024-08-09,株式会社ＡＴＡベース,,株式会社,静岡県,熱海市,上多賀１０６５番地の３８６,,22,205,4130101,,,,,,,2024-08-09,1,,,,,エーティーエーベース,0
397,2080403005082,新規,0,2024-08-09,2024-08-09,合同会社オープンあい,,合同会社,静岡県,浜松市中央区,萩丘３丁目１１－３６－１,,22,138,4338121,,,,,,,2024-08-09,1,,,,,オープンアイ,0
412,2120001267500,新規,0,2024-08-09,2024-08-09,株式会社ＢＭ．Ａｃｅ,,株式会社,大阪府,大阪市旭区,生江２丁目４番２５号,,27,117,5350004,,,,,,,2024-08-09,1,,,,,ビーエムエース,0
413,2120001267608,新規,0,2024-08-09,2024-08-09,ＪＬ株式会社,,株式会社,大阪府,大阪市港区,市岡２丁目２番４－１０５号,,27,107,5520012,,,,,,,2024-08-09,1,,,,,ジェイエル,0
414,2120001267616,新規,0,2024-08-09,2024-08-09,株式会社ＲＡＮＲＥＩ,,株式会社,大阪府,大阪市住吉区,遠里小野６丁目１番２８号,,27,120,5580032,,,,,,,2024-08-09,1,,,,,ランレイ,0
415,2120001267632,新規,0,2024-08-09,2024-08-09,株式会社Ｈｉｋａｒｉ,,株式会社,大阪府,大阪市淀川区,十三元今里２丁目１２番２５－１０３号,,27,123,5320028,,,,,,,2024-08-09,1,,,,,ヒカリ,0
417,2120003027274,新規,0,2024-08-09,2024-08-09,関西電力サイラスワンＯＳＫ２合同会社,,合同会社,大阪府,大阪市北区,中之島３丁目６番１６号,,27,127,5300005,,,,,,,2024-08-09,1,,,,,カンサイデンリョクサイラスワンオーエスケーツー,0
420,2120005024492,新規,0,2024-08-09,2024-08-09,一般社団法人Ｓａｇｅ‐Ｆｅｍｍｅ,,その他の設立登記法人,大阪府,大阪市福島区,野田３丁目１４番３号,,27,103,5530005,,,,,,,2024-08-09,1,,,,,サージファム,0
423,2120103005997,新規,0,2024-08-09,2024-08-09,合同会社久保製作所,,合同会社,大阪府,高石市,加茂１丁目１２番６号,,27,225,5920011,,,,,,,2024-08-09,1,,,,,クボセイサクショ,0
424,2120105009897,新規,0,2024-08-09,2024-08-09,一般社団法人大阪府宅地建物取引業協会泉州支部,,その他の設立登記法人,大阪府,岸和田市,上町９番４号,,27,202,5960077,,,,,,,2024-08-09,1,,,,,オオサカフタクチタテモノトリヒキギョウキョウカイセンシュウシブ,0
425,2120901049568,新規,0,2024-08-09,2024-08-09,Ｍａｒｉｎａ‐Ｂａｙ　Ｓｈｉｐｐｉｎｇ　Ｇｒｏｕｐ　Ｊａｐａｎ株式会社,,株式会社,大阪府,吹田市,竹見台２丁目１４番４号,,27,205,5650863,,,,,,,2024-08-09,1,,,,,マリーナベイシッピンググループジャパン,0
426,2120901049592,新規,0,2024-08-09,2024-08-09,コッポラート株式会社,,株式会社,大阪府,吹田市,山手町２丁目１６番３号,,27,205,5640073,,,,,,,2024-08-09,1,,,,,コッポラート,0
434,2130001077659,新規,0,2024-08-09,2024-08-09,株式会社ｍｏｒｅ,,株式会社,京都府,京都市山科区,西野大手先町６番地２４,,26,110,6078344,,,,,,,2024-08-09,1,,,,,モア,0
435,2130001077667,新規,0,2024-08-09,2024-08-09,株式会社プレザントホーム,,株式会社,京都府,京都市右京区,西院西寿町３２番地１－２階北号室,,26,108,6150034,,,,,,,2024-08-09,1,,,,,プレザントホーム,0
436,2130001077675,新規,0,2024-08-09,2024-08-09,株式会社Ａ‐ＴＯＮ,,株式会社,京都府,長岡京市,天神１丁目１番４３号,,26,209,6170824,,,,,,,2024-08-09,1,,,,,アートン,0
442,2140001135291,新規,0,2024-08-09,2024-08-09,株式会社ロイヤル,,株式会社,兵庫県,伊丹市,野間６丁目１０番１６号,,28,207,6640873,,,,,,,2024-08-09,1,,,,,ロイヤル,0
443,2140001135465,新規,0,2024-08-09,2024-08-09,株式会社創意社,,株式会社,兵庫県,川西市,鴬の森町６番１９号,,28,217,6660001,,,,,,,2024-08-09,1,,,,,ソウイシャ,0
446,2170001018262,新規,0,2024-08-09,2024-08-09,輝人興業株式会社,,株式会社,和歌山県,岩出市,水栖１００番地１,,30,209,6496214,,,,,,,2024-08-09,1,,,,,キトコウギョウ,0
447,2170001018270,新規,0,2024-08-09,2024-08-09,ＴＫＴマネジメント株式会社,,株式会社,和歌山県,有田郡有田川町,大字川口１４３番地２,,30,366,6430313,,,,,,,2024-08-09,1,,,,,ティーケイティーマネジメント,0
450,2180001162588,新規,0,2024-08-09,2024-08-09,株式会社ＴＳＵＫＡＳＡ　ＢＵＩＬＤＩＮＧＳ,,株式会社,愛知県,小牧市,小木東２丁目１５８番地,,23,219,4850059,,,,,,,2024-08-09,1,,,,,ツカサビルディングス,0
451,2180001162687,新規,0,2024-08-09,2024-08-09,株式会社スギコーポレーション,,株式会社,愛知県,名古屋市緑区,鳴海町字山腰２８番地レジデンス山腰１０６,,23,114,4580801,,,,,,,2024-08-09,1,,,,,スギコーポレーション,0
452,2180001162704,新規,0,2024-08-09,2024-08-09,株式会社ＢＲＩＤＧＥ,,株式会社,愛知県,名古屋市中区,大須２丁目２３番３４号大須ＧＡＴＥビル４Ｆ,,23,106,4600011,,,,,,,2024-08-09,1,,,,,ブリッジ,0
453,2180001162712,新規,0,2024-08-09,2024-08-09,株式会社ＭＩＲＡＩソリューション,,株式会社,愛知県,名古屋市東区,東桜２丁目３番７号東カン名古屋キャステール５２７号室,,23,102,4610005,,,,,,,2024-08-09,1,,,,,ミライソリューション,0
454,2180001162745,新規,0,2024-08-09,2024-08-09,株式会社うな辰,,株式会社,愛知県,名古屋市南区,大同町５丁目４１番地の１,,23,112,4570811,,,,,,,2024-08-09,1,,,,,ウナタツ,0
455,2180001162753,新規,0,2024-08-09,2024-08-09,株式会社プラスエス東海,,株式会社,愛知県,名古屋市中村区,岩塚町２番３号若曽根ビル３Ｆ,,23,105,4530862,,,,,,,2024-08-09,1,,,,,プラスエストウカイ,0
456,2180001162778,新規,0,2024-08-09,2024-08-09,ｓｋｙ株式会社,,株式会社,愛知県,名古屋市北区,若葉通１丁目１５番地の２,,23,103,4620854,,,,,,,2024-08-09,1,,,,,スカイ,0
460,2180003027186,新規,0,2024-08-09,2024-08-09,合同会社プログレ,,合同会社,愛知県,一宮市,浅野字八剱３１番地,,23,203,4910871,,,,,,,2024-08-09,1,,,,,プログレ,0
461,2180005020726,新規,0,2024-08-09,2024-08-09,一般社団法人ユイトータルライフサービス,,その他の設立登記法人,愛知県,名古屋市瑞穂区,松園町２丁目４０番地の１エスポア松園５０２号,,23,108,4670065,,,,,,,2024-08-09,1,,,,,ユイトータルライフサービス,0
466,2220003003810,新規,0,2024-08-09,2024-08-09,合同会社ＧＡＲＤＥＮ,,合同会社,石川県,金沢市,泉が丘２丁目１２番１３号,,17,201,9218035,,,,,,,2024-08-09,1,,,,,ガーデン,0
470,2240001063680,新規,0,2024-08-09,2024-08-09,株式会社ＴＡＣＨＩＢＡＮＡ,,株式会社,広島県,福山市,川口町２丁目２１番６－５号,,34,207,7200822,,,,,,,2024-08-09,1,,,,,タチバナ,0
471,2240003006803,新規,0,2024-08-09,2024-08-09,合同会社キプフェルビューティーサロン,,合同会社,広島県,広島市中区,国泰寺町１丁目１０番２０号下田ハイツ１Ｂ,,34,101,7300042,,,,,,,2024-08-09,1,,,,,キプフェルビューティーサロン,0
477,2290001106550,新規,0,2024-08-09,2024-08-09,株式会社まるいアグリ,,株式会社,福岡県,糟屋郡志免町,南里１丁目２番８号,,40,343,8112207,,,,,,,2024-08-09,1,,,,,マルイアグリ,0
478,2290001106567,新規,0,2024-08-09,2024-08-09,ＮＵＮＡＩ株式会社,,株式会社,福岡県,福岡市西区,今宿駅前１丁目１５番１８号マリブ今宿シーサイドテラス,,40,135,8190168,,,,,,,2024-08-09,1,,,,,ヌナイ,0
479,2290001106591,新規,0,2024-08-09,2024-08-09,リオト電工株式会社,,株式会社,福岡県,糟屋郡篠栗町,中央３丁目５番１７号,,40,342,8112417,,,,,,,2024-08-09,1,,,,,リオトデンコウ,0
480,2290001106641,新規,0,2024-08-09,2024-08-09,株式会社田中建設,,株式会社,福岡県,八女市,星野村６９８３番地１,,40,210,8340201,,,,,,,2024-08-09,1,,,,,タナカケンセツ,0
485,2290801030784,新規,0,2024-08-09,2024-08-09,株式会社ＳＥＫＩＤＥＮ,,株式会社,福岡県,北九州市八幡西区,町上津役東２丁目１９番１３号,,40,109,8070073,,,,,,,2024-08-09,1,,,,,セキデン,0
486,2290803004811,新規,0,2024-08-09,2024-08-09,合同会社ＡＳＴＲＡ,,合同会社,福岡県,北九州市小倉北区,赤坂２丁目１１番４１号パラシオ赤坂Ａ棟２０１,,40,106,8020032,,,,,,,2024-08-09,1,,,,,アストラ,0
492,2330005010819,新規,0,2024-08-09,2024-08-09,一般社団法人モリトミライオグニ,,その他の設立登記法人,熊本県,阿蘇郡小国町,大字宮原１６３５－５コーポグリーングラス２階Ｂ,,43,424,8692501,,,,,,,2024-08-09,1,,,,,モリトミライオグニ,0
493,2340001026727,新規,0,2024-08-09,2024-08-09,株式会社奄美マイカーセンター,,株式会社,鹿児島県,奄美市,名瀬大字浦上１２８８番地１３３,,46,222,8940008,,,,,,,2024-08-09,1,,,,,アマミマイカーセンター,0
496,2360001034059,新規,0,2024-08-09,2024-08-09,株式会社Ｈａｐｐｙ　Ｂｒｕｎｃｈ,,株式会社,沖縄県,那覇市,銘苅３丁目９－２２ＫＡキャンディービル２階,,47,201,9000004,,,,,,,2024-08-09,1,,,,,ハッピーブランチ,0
511,2430001092446,新規,0,2024-08-09,2024-08-09,ポットグリーン株式会社,,株式会社,北海道,札幌市清田区,平岡八条３丁目６番２０号,,01,110,0040878,,,,,,,2024-08-09,1,,,,,ポットグリーン,0
539,3010001247330,新規,0,2024-08-09,2024-08-09,株式会社リアモンステラ,,株式会社,東京都,中央区,銀座１丁目２２番１１号銀座大竹ビジデンス２階,,13,102,1040061,,,,,,,2024-08-09,1,,,,,リアモンステラ,0
542,3010003044528,新規,0,2024-08-09,2024-08-09,ＴＭＥｘ合同会社,,合同会社,東京都,中央区,銀座７丁目１３番６号サガミビル２階,,13,102,1040061,,,,,,,2024-08-09,1,,,,,ティーメックス,0
544,3010005038619,新規,0,2024-08-09,2024-08-09,一般社団法人Ｍ＆Ａ認定アドバイザー協会,,その他の設立登記法人,東京都,中央区,日本橋室町１丁目１１番１２号日本橋水野ビル７階,,13,102,1030022,,,,,,,2024-08-09,1,,,,,エムアンドエーニンテイアドバイザーキョウカイ,0
548,3010401184446,新規,0,2024-08-09,2024-08-09,株式会社ｈｏｏｔｆｏｌｉｏ,,株式会社,東京都,港区,芝５丁目３２番１２号シャーメゾンステージ田町,,13,103,1080014,,,,,,,2024-08-09,1,,,,,フートフォリオ,0
550,3010403033188,新規,0,2024-08-09,2024-08-09,合同会社桜道５３,,合同会社,東京都,港区,芝２丁目１２番１３号ＡＳＩＴＩＳ芝ビル２０１,,13,103,1050014,,,,,,,2024-08-09,1,,,,,サクラミチゴジュウサン,0
551,3010403033213,新規,0,2024-08-09,2024-08-09,人合同会社,,合同会社,東京都,港区,赤坂２丁目２３番１号アークヒルズ・フロントタワーＩｎＣｏｎｔｒｏｌ内,,13,103,1070052,,,,,,,2024-08-09,1,,,,,ヒト,0
559,3010601065685,新規,0,2024-08-09,2024-08-09,テイケー興産株式会社,,株式会社,東京都,江東区,南砂１丁目１９番１－１２０９号,,13,108,1360076,,,,,,,2024-08-09,1,,,,,テイケーコウサン,0
560,3010601065719,新規,0,2024-08-09,2024-08-09,株式会社フライウィング,,株式会社,東京都,江東区,北砂４丁目１９番３０号,,13,108,1360073,,,,,,,2024-08-09,1,,,,,フライウィング,0
563,3010701046379,新規,0,2024-08-09,2024-08-09,株式会社メディカルプロスタッフ,,株式会社,東京都,品川区,大崎２丁目９－２－３２０１,,13,109,1410032,,,,,,,2024-08-09,1,,,,,メディカルプロスタッフ,0
573,3010903009274,新規,0,2024-08-09,2024-08-09,合同会社ファシル,,合同会社,東京都,世田谷区,宇奈根１丁目４０―１６,,13,112,1570068,,,,,,,2024-08-09,1,,,,,ファシル,0
582,3011001163575,新規,0,2024-08-09,2024-08-09,株式会社ＶＰｒｏｆｉｌｅＡＲ,,株式会社,東京都,渋谷区,道玄坂１丁目１６－６二葉ビル８ｂ,,13,113,1500043,,,,,,,2024-08-09,1,,,,,ブイプロファイルエーアール,0
583,3011001163749,新規,0,2024-08-09,2024-08-09,株式会社ＳＩＣＩＮＶＥＳＴＭＥＮＴ,,株式会社,東京都,渋谷区,神宮前３丁目１番２４－３０６号,,13,113,1500001,,,,,,,2024-08-09,1,,,,,エスアイシーインベストメント,0
584,3011001163773,新規,0,2024-08-09,2024-08-09,株式会社ＤＡＩＸｓ,,株式会社,東京都,渋谷区,渋谷２丁目１９－１５宮益坂ビルディング６０９,,13,113,1500002,,,,,,,2024-08-09,1,,,,,ダイクス,0
585,3011001163807,新規,0,2024-08-09,2024-08-09,株式会社アプティグローバル,,株式会社,東京都,目黒区,東山１丁目５－４ＫＤＸ中目黒ビル２Ｆ,,13,110,1530043,,,,,,,2024-08-09,1,,,,,アプティグローバル,0
586,3011001163872,新規,0,2024-08-09,2024-08-09,ネクスト・ソサエティ株式会社,,株式会社,東京都,渋谷区,円山町５番５号Ｎａｖｉ渋谷Ｖ３階,,13,113,1500044,,,,,,,2024-08-09,1,,,,,ネクストソサエティ,0
587,3011001163889,新規,0,2024-08-09,2024-08-09,株式会社Ｘｐｒｏ,,株式会社,東京都,目黒区,青葉台３丁目１番１９号,,13,110,1530042,,,,,,,2024-08-09,1,,,,,エクスプロ,0
588,3011001164004,新規,0,2024-08-09,2024-08-09,ＭＦＤｒｉｖｅ株式会社,,株式会社,東京都,渋谷区,神宮前３丁目２７－１５ＦＬＡＧ２Ｇ,,13,113,1500001,,,,,,,2024-08-09,1,,,,,エムエフドライブ,0
590,3011003019684,新規,0,2024-08-09,2024-08-09,ＪＫ　ＧＬＯＢＡＬ合同会社,,合同会社,東京都,渋谷区,神南１丁目１２番１４号,,13,113,1500041,,,,,,,2024-08-09,1,,,,,ジェイケイグローバル,0
591,3011101108348,新規,0,2024-08-09,2024-08-09,株式会社ＦＦソリューションズ,,株式会社,東京都,新宿区,新宿１丁目３６番２号,,13,104,1600022,,,,,,,2024-08-09,1,,,,,エフエフソリューションズ,0
595,3011201025716,新規,0,2024-08-09,2024-08-09,株式会社退職金研究社,,株式会社,東京都,中野区,中野４丁目１０番２号中野セントラルパークサウス２階,,13,114,1640001,,,,,,,2024-08-09,1,,,,,タイショクキンケンキュウシャ,0
597,3011401026340,新規,0,2024-08-09,2024-08-09,エイワ防災設備株式会社,,株式会社,東京都,板橋区,西台４丁目５番８－３０３号サン・キャッスル西台,,13,119,1750045,,,,,,,2024-08-09,1,,,,,エイワボウサイセツビ,0
598,3011503006174,新規,0,2024-08-09,2024-08-09,合同会社ＹＫＴ,,合同会社,東京都,北区,赤羽２丁目９番５－５０３号ファミール赤羽シティアヴェニュー,,13,117,1150045,,,,,,,2024-08-09,1,,,,,ワイケイティ,0
601,3011601027964,新規,0,2024-08-09,2024-08-09,株式会社東埼,,株式会社,東京都,練馬区,中村南１丁目１２番５－３０７号,,13,120,1760025,,,,,,,2024-08-09,1,,,,,トウキ,0
605,3011703003938,新規,0,2024-08-09,2024-08-09,合同会社１ｓｔ．運送,,合同会社,東京都,江戸川区,東葛西５丁目１１番１３号サクマビル１３－５０１,,13,123,1340084,,,,,,,2024-08-09,1,,,,,ファーストウンソウ,0
610,3012401042179,新規,0,2024-08-09,2024-08-09,トリテック株式会社,,株式会社,東京都,調布市,柴崎１丁目１５－１０,,13,208,1820014,,,,,,,2024-08-09,1,,,,,トリテック,0
617,3020003026657,新規,0,2024-08-09,2024-08-09,合同会社アトラン,,合同会社,神奈川県,横浜市港南区,上大岡東１丁目１８番１－５０７号,,14,111,2330001,,,,,,,2024-08-09,1,,,,,アトラン,0
634,3030003024932,新規,0,2024-08-09,2024-08-09,ＫＧ合同会社,,合同会社,埼玉県,さいたま市北区,東大成町１丁目１番１号グランドール２０５,,11,102,3310814,,,,,,,2024-08-09,1,,,,,ケージー,0
644,3040001134889,新規,0,2024-08-09,2024-08-09,株式会社秋田建設,,株式会社,千葉県,八千代市,勝田１２７８番地４９,,12,221,2760024,,,,,,,2024-08-09,1,,,,,アキタケンセツ,0
645,3040001134906,新規,0,2024-08-09,2024-08-09,Ｇｌａｃｉｅｒ株式会社,,株式会社,千葉県,佐倉市,宮前３丁目２２番地４ＧＡＲＤＥＮＥＬＥＧＡＮＴ２２１号室,,12,212,2850005,,,,,,,2024-08-09,1,,,,,グレイシャー,0
647,3040003025590,新規,0,2024-08-09,2024-08-09,合同会社カスミ,,合同会社,千葉県,市川市,南大野１丁目９番５号,,12,203,2720804,,,,,,,2024-08-09,1,,,,,カスミ,0
651,3050001055226,新規,0,2024-08-09,2024-08-09,株式会社ココロミル,,株式会社,茨城県,笠間市,箱田１６１６番地２,,08,216,3091631,,,,,,,2024-08-09,1,,,,,ココロミル,0
658,3070003005540,新規,0,2024-08-09,2024-08-09,草津ユナイテッド合同会社,,合同会社,群馬県,吾妻郡草津町,大字前口７４番地の３,,10,426,3771712,,,,,,,2024-08-09,1,,,,,クサツユナイテッド,0
661,3080001026430,新規,0,2024-08-09,2024-08-09,ＴＥＫＫＥＮホールディングス株式会社,,株式会社,静岡県,静岡市清水区,迎山町１２番３号,,22,103,4240913,,,,,,,2024-08-09,1,,,,,テッケンホールディングス,0
662,3080001026439,新規,0,2024-08-09,2024-08-09,株式会社ｎａｉａｎ,,株式会社,静岡県,静岡市葵区,横内町７５番地の２・１Ｆ,,22,101,4200832,,,,,,,2024-08-09,1,,,,,ナイアン,0
673,3080403005081,新規,0,2024-08-09,2024-08-09,Ｏｌｉｖｅ合同会社,,合同会社,静岡県,袋井市,村松１２７９番地,,22,216,4370011,,,,,,,2024-08-09,1,,,,,オリーブ,0
682,3120001267409,新規,0,2024-08-09,2024-08-09,サイボーグシステム株式会社,,株式会社,大阪府,大阪市此花区,西九条３丁目５番１６－１４０４号,,27,104,5540012,,,,,,,2024-08-09,1,,,,,サイボーグシステム,0
683,3120001267631,新規,0,2024-08-09,2024-08-09,ＬＥＡＦ＆ＦＵＮ珈琲文化経貿株式会社,,株式会社,大阪府,大阪市大正区,千島１丁目１０－１０エスポワール４３－５０２号,,27,108,5510003,,,,,,,2024-08-09,1,,,,,リーフアンドファンコーヒーブンカケイボウ,0
690,3120003027083,新規,0,2024-08-09,2024-08-09,合同会社かんもぉーれ,,合同会社,大阪府,大阪市住之江区,粉浜３丁目４番２４－１０２号,,27,125,5590001,,,,,,,2024-08-09,1,,,,,カンモォーレ,0
691,3120003027249,新規,0,2024-08-09,2024-08-09,ｉｎｓｔ合同会社,,合同会社,大阪府,大阪市淀川区,西中島１丁目９‐１６新大阪ストロングビル２０５,,27,123,5320011,,,,,,,2024-08-09,1,,,,,インスト,0
693,3120005024483,新規,0,2024-08-09,2024-08-09,かしもと行政書士法人,,その他の設立登記法人,大阪府,大阪市中央区,本町橋２番２３号,,27,128,5400029,,,,,,,2024-08-09,1,,,,,カシモト,0
694,3120005024491,新規,0,2024-08-09,2024-08-09,えんむすび一般社団法人,,その他の設立登記法人,大阪府,枚方市,山之上北町６０番１－３１７号,,27,210,5730049,,,,,,,2024-08-09,1,,,,,エンムスビ,0
700,3120101070134,新規,0,2024-08-09,2024-08-09,株式会社Ｋ２デザイン,,株式会社,大阪府,堺市北区,金岡町３０４５－１－１０１０,,27,146,5918022,,,,,,,2024-08-09,1,,,,,ケーツーデザイン,0
702,3120901049534,新規,0,2024-08-09,2024-08-09,つみき株式会社,,株式会社,大阪府,茨木市,双葉町１０番１号茨木東阪急ビル４階,,27,211,5670829,,,,,,,2024-08-09,1,,,,,ツミキ,0
707,3130001077666,新規,0,2024-08-09,2024-08-09,ヴィレッジクラフトマンズ株式会社,,株式会社,京都府,京都市中京区,壬生森町４５番地,,26,104,6048862,,,,,,,2024-08-09,1,,,,,ヴィレッジクラフトマンズ,0
708,3130001077674,新規,0,2024-08-09,2024-08-09,株式会社Ｅｄｕｖｅｎｔｕｒｅ,,株式会社,京都府,亀岡市,追分町馬場通２０－７ＩＭビル３階,,26,206,6210804,,,,,,,2024-08-09,1,,,,,エデュベンチャー,0
725,3150003003338,新規,0,2024-08-09,2024-08-09,ＬａＬａ合同会社,,合同会社,奈良県,大和郡山市,北郡山町３１２番地８,,29,203,6391160,,,,,,,2024-08-09,1,,,,,ララ,0
730,3180001162694,新規,0,2024-08-09,2024-08-09,クレインジャパン株式会社,,株式会社,愛知県,名古屋市昭和区,八事富士見８０１番地,,23,107,4660812,,,,,,,2024-08-09,1,,,,,クレインジャパン,0
731,3180001162703,新規,0,2024-08-09,2024-08-09,株式会社林浅,,株式会社,愛知県,岩倉市,川井町井上１３２６番地,,23,228,4820015,,,,,,,2024-08-09,1,,,,,リンセン,0
732,3180001162736,新規,0,2024-08-09,2024-08-09,桑原電気株式会社,,株式会社,愛知県,春日井市,瑞穂通１丁目６番地１,,23,206,4860845,,,,,,,2024-08-09,1,,,,,クワハラデンキ,0
733,3180001162744,新規,0,2024-08-09,2024-08-09,株式会社紡ぎ,,株式会社,愛知県,名古屋市熱田区,四番１丁目１１番２０号コンフォート六番１階南,,23,109,4560051,,,,,,,2024-08-09,1,,,,,ツムギ,0
734,3180001162752,新規,0,2024-08-09,2024-08-09,株式会社ｃｒａ‐ｗｏｏｄ,,株式会社,愛知県,常滑市,山方町４丁目２３番地,,23,216,4790825,,,,,,,2024-08-09,1,,,,,クラウド,0
735,3180001162760,新規,0,2024-08-09,2024-08-09,中沢トレイド株式会社,,株式会社,愛知県,長久手市,卯塚１丁目６０５番地,,23,238,4801145,,,,,,,2024-08-09,1,,,,,ナカザワトレイド,0
736,3180001162769,新規,0,2024-08-09,2024-08-09,Ａ　Ｒ　ＴＲＡＤＩＮＧ株式会社,,株式会社,愛知県,岩倉市,中本町東葭原３２番地５,,23,228,4820042,,,,,,,2024-08-09,1,,,,,エーアールトレーディング,0
737,3180001162777,新規,0,2024-08-09,2024-08-09,株式会社ｃｈａｒｍｅ,,株式会社,愛知県,名古屋市千種区,富士見台１丁目２５番地,,23,101,4640015,,,,,,,2024-08-09,1,,,,,シャルム,0
738,3180001162802,新規,0,2024-08-09,2024-08-09,ＩＮＳＩＧＮ株式会社,,株式会社,愛知県,名古屋市中村区,名駅３丁目２８番１２号大名古屋ビルヂング１１階,,23,105,4500002,,,,,,,2024-08-09,1,,,,,インサイン,0
743,3180003027169,新規,0,2024-08-09,2024-08-09,合同会社リアン,,合同会社,愛知県,春日井市,坂下町１２１５番地５１４,,23,206,4860000,,,,,,,2024-08-09,1,,,,,リアン,0
744,3180005020733,新規,0,2024-08-09,2024-08-09,一般社団法人日本ハンディキャップ販売支援協会,,その他の設立登記法人,愛知県,稲沢市,西町３丁目７３番地２,,23,220,4928218,,,,,,,2024-08-09,1,,,,,ニホンハンディキャップハンバイシエンキョウカイ,0
764,3290001106657,新規,0,2024-08-09,2024-08-09,株式会社ブラッシー,,株式会社,福岡県,福岡市城南区,茶山６丁目１２－１７Ｃｈｉｌｅｌｅ００１号,,40,136,8140111,,,,,,,2024-08-09,1,,,,,ブラッシー,0
766,3290003015609,新規,0,2024-08-09,2024-08-09,合同会社Ｈｏｐｅ,,合同会社,福岡県,福岡市中央区,天神５丁目６番１４号４階,,40,133,8100001,,,,,,,2024-08-09,1,,,,,ホープ,0
767,3290003015625,新規,0,2024-08-09,2024-08-09,ＳＮＳ１１０番合同会社,,合同会社,福岡県,福岡市中央区,天神２丁目２番１２号Ｔ＆Ｊビルディング７Ｆ,,40,133,8100001,,,,,,,2024-08-09,1,,,,,エスエヌエスヒャクトウバン,0
769,3290801030783,新規,0,2024-08-09,2024-08-09,株式会社ＳＯＳＩＪＩ,,株式会社,福岡県,北九州市若松区,小敷ひびきの３丁目３番１２号,,40,103,8080139,,,,,,,2024-08-09,1,,,,,ソシジ,0
771,3310001019162,新規,0,2024-08-09,2024-08-09,株式会社ガレージ毎熊,,株式会社,長崎県,雲仙市,吾妻町古城名１１６番地４,,42,213,8591104,,,,,,,2024-08-09,1,,,,,ガレージマイグマ,0
772,3310001019170,新規,0,2024-08-09,2024-08-09,株式会社ＫＥＹ総設,,株式会社,長崎県,長崎市,城山町１６番８号,,42,201,8528021,,,,,,,2024-08-09,1,,,,,キーソウセツ,0
778,3330001032345,新規,0,2024-08-09,2024-08-09,株式会社Ｌｅｉ,,株式会社,熊本県,熊本市東区,桜木３丁目１２番１２号,,43,102,8612101,,,,,,,2024-08-09,1,,,,,レイ,0
780,3330003010514,新規,0,2024-08-09,2024-08-09,合同会社ニシムラ,,合同会社,熊本県,菊池郡大津町,大字引水５３番地３,,43,403,8691234,,,,,,,2024-08-09,1,,,,,ニシムラ,0
781,3330005010818,新規,0,2024-08-09,2024-08-09,一般社団法人ＣＨＡＲＭＡＮＴ,,その他の設立登記法人,熊本県,球磨郡水上村,大字岩野２５４４番地３,,43,507,8680701,,,,,,,2024-08-09,1,,,,,シャルマン,0
797,3430001092445,新規,0,2024-08-09,2024-08-09,わたる建匠株式会社,,株式会社,北海道,札幌市中央区,南二十一条西１４丁目３番３０号,,01,101,0640921,,,,,,,2024-08-09,1,,,,,ワタルケンショウ,0
798,3430001092453,新規,0,2024-08-09,2024-08-09,株式会社Ｃｒａｆｔ　Ｔｅｃ,,株式会社,北海道,札幌市清田区,北野五条２丁目２番５号,,01,110,0040865,,,,,,,2024-08-09,1,,,,,クラフトテック,0
801,3440001009480,新規,0,2024-08-09,2024-08-09,株式会社住まイルエステート,,株式会社,北海道,函館市,富岡町１丁目４７番１号,,01,202,0410811,,,,,,,2024-08-09,1,,,,,スマイルエステート,0
803,3460001005932,新規,0,2024-08-09,2024-08-09,株式会社Ｉｓｈｉｇａｍｉ　Ｆａｒｍ,,株式会社,北海道,釧路市,桜田十一線１０２番地,,01,206,0850251,,,,,,,2024-08-09,1,,,,,イシガミファーム,0
804,3460105002297,新規,0,2024-08-09,2024-08-09,農事組合法人松木ファーム,,その他の設立登記法人,北海道,広尾郡広尾町,字野塚４線４４番地１４,,01,642,0892561,,,,,,,2024-08-09,1,,,,,,0
819,4010001246868,新規,0,2024-08-09,2024-08-09,株式会社メルクリウス,,株式会社,東京都,千代田区,五番町４－５五番町コスモビル３階,,13,101,1020076,,,,,,,2024-08-09,1,,,,,メルクリウス,0
824,4010003044584,新規,0,2024-08-09,2024-08-09,メープルインフラファンド合同会社,,合同会社,東京都,千代田区,麹町２丁目８番地ＭＬＣ麹町ビル４階フィンポート税理士法人内,,13,101,1020083,,,,,,,2024-08-09,1,,,,,メープルインフラファンド,0
826,4010005038626,新規,0,2024-08-09,2024-08-09,一般社団法人ホワイトニンフェア,,その他の設立登記法人,東京都,中央区,日本橋１丁目４番１号,,13,102,1030027,,,,,,,2024-08-09,1,,,,,ホワイトニンフェア,0
827,4010401184338,新規,0,2024-08-09,2024-08-09,ＬＮＳホールディングス株式会社,,株式会社,東京都,港区,浜松町２丁目４番１号,,13,103,1050013,,,,,,,2024-08-09,1,,,,,エルエヌエスホールディングス,0
828,4010401184387,新規,0,2024-08-09,2024-08-09,台日通商株式会社,,株式会社,東京都,港区,浜松町２丁目７番１７号イーグル浜松町天翔オフィス浜松町大門１０階１０５１号室,,13,103,1050013,,,,,,,2024-08-09,1,,,,,タイニチツウショウ,0
832,4010403033187,新規,0,2024-08-09,2024-08-09,合同会社桜道５２,,合同会社,東京都,港区,芝２丁目１２番１３号ＡＳＩＴＩＳ芝ビル２０１,,13,103,1050014,,,,,,,2024-08-09,1,,,,,サクラミチゴジュウニ,0
833,4010403033212,新規,0,2024-08-09,2024-08-09,合同会社ＳＡＴＯＳＨＩ,,合同会社,東京都,港区,港南４丁目６－５－２５０７号,,13,103,1080075,,,,,,,2024-08-09,1,,,,,サトシ,0
834,4010403033220,新規,0,2024-08-09,2024-08-09,ＬＳ‐ＤＡＬ第１７号合同会社,,合同会社,東京都,港区,六本木１丁目６番１号,,13,103,1060032,,,,,,,2024-08-09,1,,,,,エルエスディーエーエルダイジュウナナゴウ,0
839,4010601065726,新規,0,2024-08-09,2024-08-09,株式会社園田製作所,,株式会社,東京都,江東区,扇橋２丁目１０番３－５１０号,,13,108,1350011,,,,,,,2024-08-09,1,,,,,ソノダセイサクショ,0
846,4010801035314,新規,0,2024-08-09,2024-08-09,株式会社サンライズ,,株式会社,東京都,大田区,大森本町１丁目８番１０－２２０４号,,13,111,1430011,,,,,,,2024-08-09,1,,,,,サンライズ,0
851,4011001163871,新規,0,2024-08-09,2024-08-09,Ｍ‐ｉｓｌａｎｄ株式会社,,株式会社,東京都,渋谷区,代々木４丁目６番５号Ｕ．Ｓ．ビル１Ｆ,,13,113,1510053,,,,,,,2024-08-09,1,,,,,エムアイランド,0
852,4011001163888,新規,0,2024-08-09,2024-08-09,株式会社ＴＡＲＳ,,株式会社,東京都,渋谷区,猿楽町１０番１号マンサード代官山１０４,,13,113,1500033,,,,,,,2024-08-09,1,,,,,ターズ,0
853,4011001163913,新規,0,2024-08-09,2024-08-09,株式会社Ｂｉｂａｌａｎｃｙ,,株式会社,東京都,渋谷区,円山町５番５号Ｎａｖｉ渋谷Ｖ３階,00135912,13,113,1500044,,,,,,,2024-08-09,1,,,,,バイバランシー,0
854,4011101108322,新規,0,2024-08-09,2024-08-09,株式会社ＨＡＩＫＥＩ,,株式会社,東京都,新宿区,新宿２丁目１２－１３新宿アントレサロンビル２階,,13,104,1600022,,,,,,,2024-08-09,1,,,,,ハイケイ,0
855,4011101108330,新規,0,2024-08-09,2024-08-09,株式会社ＡＵＲＵＭ　Ｔｅｃｈｎｏｌｏｇｉｅｓ,,株式会社,東京都,新宿区,新宿４丁目３番１５号レイフラット新宿２Ｆ,,13,104,1600022,,,,,,,2024-08-09,1,,,,,オーラムテクノロジーズ,0
856,4011101108339,新規,0,2024-08-09,2024-08-09,株式会社ｔａｎｂａｇｕｒｏ,,株式会社,東京都,新宿区,西新宿３丁目３番１３号,,13,104,1600023,,,,,,,2024-08-09,1,,,,,,0
857,4011101108355,新規,0,2024-08-09,2024-08-09,アジリティ・パートナーズ株式会社,,株式会社,東京都,新宿区,新宿１丁目２４番１１－４０７５号,,13,104,1600022,,,,,,,2024-08-09,1,,,,,アジリティパートナーズ,0
858,4011101108363,新規,0,2024-08-09,2024-08-09,株式会社ペルクス,,株式会社,東京都,新宿区,西新宿３丁目３番１３号西新宿水間ビル２Ｆ,,13,104,1600023,,,,,,,2024-08-09,1,,,,,ペルクス,0
860,4011103014725,新規,0,2024-08-09,2024-08-09,合同会社Ｍサポート,,合同会社,東京都,新宿区,百人町１丁目２３番２６号みなみビル２Ｆ－Ｂ号室,,13,104,1690073,,,,,,,2024-08-09,1,,,,,エムサポート,0
861,4011105011118,新規,0,2024-08-09,2024-08-09,一般社団法人ＡＩメンタルヘルスケア協会,,その他の設立登記法人,東京都,新宿区,西新宿１丁目２６番２号新宿野村ビル４８階,,13,104,1600023,,,,,,,2024-08-09,1,,,,,エーアイメンタルヘルスケアキョウカイ,0
863,4011201025715,新規,0,2024-08-09,2024-08-09,株式会社Ｏｎｅ　ａｎｄ　ｏｎｌｙ,,株式会社,東京都,中野区,中央１丁目２９番７号,,13,114,1640011,,,,,,,2024-08-09,1,,,,,ワンアンドオンリー,0
864,4011301029913,新規,0,2024-08-09,2024-08-09,株式会社ＮＥＷ　ＴＲＹＢＥ,,株式会社,東京都,杉並区,下高井戸５丁目５－２０,,13,115,1680073,,,,,,,2024-08-09,1,,,,,ニュートライブ,0
868,4011405002304,新規,0,2024-08-09,2024-08-09,一般社団法人雲動会,,その他の設立登記法人,東京都,板橋区,板橋２丁目６７番５号アクロスキューブ板橋２階,,13,119,1730004,,,,,,,2024-08-09,1,,,,,ウンドウカイ,0
869,4011603004416,新規,0,2024-08-09,2024-08-09,合同会社グラシアス,,合同会社,東京都,練馬区,桜台１丁目１１番２号コーポ若宮２０１,,13,120,1760002,,,,,,,2024-08-09,1,,,,,グラシアス,0
871,4011801044651,新規,0,2024-08-09,2024-08-09,株式会社夢を描けば,,株式会社,東京都,足立区,入谷１丁目９番１８号,,13,121,1210836,,,,,,,2024-08-09,1,,,,,ユメヲエガケバ,0
872,4011801044668,新規,0,2024-08-09,2024-08-09,株式会社ネクスト,,株式会社,東京都,葛飾区,奥戸４丁目２０番１０号,,13,122,1240022,,,,,,,2024-08-09,1,,,,,ネクスト,0
875,4012701018398,新規,0,2024-08-09,2024-08-09,株式会社共永,,株式会社,東京都,小平市,花小金井１丁目１－６Ｋ＆Ｋはなこビル２階,,13,211,1870002,,,,,,,2024-08-09,1,,,,,キョウエイ,0
877,4012703003068,新規,0,2024-08-09,2024-08-09,ＰａｌＰａｌｉ合同会社,,合同会社,東京都,東久留米市,大門町１丁目２番８号第２大橋マンション２０５号,,13,222,2030011,,,,,,,2024-08-09,1,,,,,パルパリ,0
880,4013101009491,新規,0,2024-08-09,2024-08-09,株式会社堀口電気,,株式会社,東京都,青梅市,今寺２丁目５７１番地の２０,,13,205,1980021,,,,,,,2024-08-09,1,,,,,ホリグチデンキ,0
882,4013301052960,新規,0,2024-08-09,2024-08-09,吉理株式会社,,株式会社,東京都,豊島区,東池袋１丁目４２番１４号２８山京ビル６０１,,13,116,1700013,,,,,,,2024-08-09,1,,,,,ヨシリ,0
886,4020001158393,新規,0,2024-08-09,2024-08-09,耀東商事株式会社,,株式会社,神奈川県,横浜市西区,楠町４－３藤和横浜西口ハイタウン７０８,,14,103,2200003,,,,,,,2024-08-09,1,,,,,ヨウトウショウジ,0
887,4020001158410,新規,0,2024-08-09,2024-08-09,株式会社おかべ,,株式会社,神奈川県,横浜市西区,浅間町３丁目２０３番地５,,14,103,2200072,,,,,,,2024-08-09,1,,,,,オカベ,0
888,4020001158435,新規,0,2024-08-09,2024-08-09,株式会社プルメゾン,,株式会社,神奈川県,川崎市高津区,末長２丁目７番１１号,,14,134,2130013,,,,,,,2024-08-09,1,,,,,プルメゾン,0
889,4020001158492,新規,0,2024-08-09,2024-08-09,株式会社ＮＪＳカンパニー,,株式会社,神奈川県,横浜市港南区,港南６丁目３７―６,,14,111,2330003,,,,,,,2024-08-09,1,,,,,エヌジェイエスカンパニー,0
890,4020001158518,新規,0,2024-08-09,2024-08-09,共贏国際株式会社,,株式会社,神奈川県,横浜市鶴見区,豊岡町二丁目３番ツルミフーガＩＩＩ３０３号,00135899,14,101,2300062,,,,,,,2024-08-09,1,,,,,キョウエイコクサイ,0
891,4020001158550,新規,0,2024-08-09,2024-08-09,株式会社コンフォート,,株式会社,神奈川県,横浜市青葉区,あざみ野南４丁目２３番地４７,,14,117,2250012,,,,,,,2024-08-09,1,,,,,コンフォート,0
892,4020001158617,新規,0,2024-08-09,2024-08-09,株式会社ビーライツ,,株式会社,神奈川県,横浜市港北区,新横浜３丁目８番１１号メットライフ新横浜ビル１０Ｆ,,14,109,2220033,,,,,,,2024-08-09,1,,,,,ビーライツ,0
893,4020001158699,新規,0,2024-08-09,2024-08-09,株式会社ジンズフィールド,,株式会社,神奈川県,横浜市保土ケ谷区,峰沢町６番地,,14,106,2400061,,,,,,,2024-08-09,1,,,,,ジンズフィールド,0
894,4020001158749,新規,0,2024-08-09,2024-08-09,株式会社Ｂｅｅ　Ｙ’ｓ,,株式会社,神奈川県,川崎市高津区,下作延１丁目１１番９号,,14,134,2130033,,,,,,,2024-08-09,1,,,,,ビーワイズ,0
898,4020003026607,新規,0,2024-08-09,2024-08-09,ししゃもにんじん合同会社,,合同会社,神奈川県,横浜市港北区,日吉本町２丁目４５‐８ハイセクタス４０１,,14,109,2230062,,,,,,,2024-08-09,1,,,,,シシャモニンジン,0
899,4020003026722,新規,0,2024-08-09,2024-08-09,ＤＲＥＡＭＳ　ＰＨＯＴＯ合同会社,,合同会社,神奈川県,横浜市磯子区,氷取沢町２０４番地７・３棟２０８号,,14,107,2350043,,,,,,,2024-08-09,1,,,,,ドリームスフォト,0
908,4021003014857,新規,0,2024-08-09,2024-08-09,合同会社菅原建装,,合同会社,神奈川県,藤沢市,湘南台４丁目３番地の２ギャラリー湘南台２０２,,14,205,2520804,,,,,,,2024-08-09,1,,,,,スガワラケンソウ,0
913,4030001161628,新規,0,2024-08-09,2024-08-09,常昇株式会社,,株式会社,埼玉県,北葛飾郡松伏町,田中３丁目３１番地５,,11,465,3430117,,,,,,,2024-08-09,1,,,,,ジョウショウ,0
914,4030001161859,新規,0,2024-08-09,2024-08-09,株式会社伊志井,,株式会社,埼玉県,入間郡三芳町,大字竹間沢３３２番地１サンクレイドルみずほ台９０４号,,11,324,3540043,,,,,,,2024-08-09,1,,,,,イシイ,0
923,4040001134863,新規,0,2024-08-09,2024-08-09,株式会社ＧＬＵＥ,,株式会社,千葉県,流山市,駒木７１４番地の５,,12,220,2700132,,,,,,,2024-08-09,1,,,,,グルー,0
924,4040001134871,新規,0,2024-08-09,2024-08-09,株式会社ルームプラス,,株式会社,千葉県,松戸市,本町１番地１１,,12,207,2710091,,,,,,,2024-08-09,1,,,,,ルームプラス,0
925,4040001134896,新規,0,2024-08-09,2024-08-09,株式会社ＦＡＩＴＨ　ＡＮＤ　ＣＯ　ＴＯＲＯＮＴＯ,,株式会社,千葉県,印西市,岩戸１８０８番地１,,12,231,2701616,,,,,,,2024-08-09,1,,,,,フェイスアンドシーオートロント,0
926,4040001134921,新規,0,2024-08-09,2024-08-09,株式会社エーピーアソシエ,,株式会社,千葉県,東金市,田間６１８番地２ダイヤパレス東金ＩＩ－１００７,00135891,12,213,2830005,,,,,,,2024-08-09,1,,,,,エーピーアソシエ,0
931,4050003008602,新規,0,2024-08-09,2024-08-09,合同会社スリーフルーツ,,合同会社,茨城県,古河市,中田２２３１番地１７,,08,204,3060053,,,,,,,2024-08-09,1,,,,,スリーフルーツ,0
941,4070001042072,新規,0,2024-08-09,2024-08-09,株式会社四万リゾートマネジメント,,株式会社,群馬県,吾妻郡中之条町,大字四万４１８０番地,,10,421,3770601,,,,,,,2024-08-09,1,,,,,シマリゾートマネジメント,0
942,4070001042089,新規,0,2024-08-09,2024-08-09,株式会社Ｅ＆Ｃ,,株式会社,群馬県,太田市,新井町１５７‐１,,10,205,3730852,,,,,,,2024-08-09,1,,,,,イーアンドシー,0
945,4080401027374,新規,0,2024-08-09,2024-08-09,株式会社ＫＭ元浜,,株式会社,静岡県,浜松市中央区,元浜町７６番地の５,,22,138,4300942,,,,,,,2024-08-09,1,,,,,ケイエムモトハマ,0
946,4080401027382,新規,0,2024-08-09,2024-08-09,株式会社ＣｒｅＶａｌ,,株式会社,静岡県,浜松市中央区,北寺島町２０１番地１,,22,138,4300923,,,,,,,2024-08-09,1,,,,,クレバル,0
947,4080403005080,新規,0,2024-08-09,2024-08-09,合同会社Ｆｕｎ　Ｌｉｎｋｓ,,合同会社,静岡県,周智郡森町,一宮１２６３番地の２,,22,461,4370226,,,,,,,2024-08-09,1,,,,,ファンリンクス,0
963,4120001267622,新規,0,2024-08-09,2024-08-09,株式会社ＰＨＯＥＮＩＸ,,株式会社,大阪府,大阪市天王寺区,玉造本町１番７－１００２号,,27,109,5430013,,,,,,,2024-08-09,1,,,,,フェニックス,0
964,4120001267630,新規,0,2024-08-09,2024-08-09,株式会社秋月堂,,株式会社,大阪府,大阪市生野区,鶴橋５丁目７番２３号,,27,116,5440031,,,,,,,2024-08-09,1,,,,,シュウゲツドウ,0
967,4120003027264,新規,0,2024-08-09,2024-08-09,ヒューズピザ合同会社,,合同会社,大阪府,大阪市北区,中崎西４丁目１番２０号,,27,127,5300015,,,,,,,2024-08-09,1,,,,,ヒューズピザ,0
968,4120003027289,新規,0,2024-08-09,2024-08-09,合同会社テンカオ,,合同会社,大阪府,枚方市,津田山手１丁目３９－３,,27,210,5730128,,,,,,,2024-08-09,1,,,,,テンカオ,0
969,4120101070109,新規,0,2024-08-09,2024-08-09,株式会社Ｋ‐ＴＥＣＨ,,株式会社,大阪府,松原市,高見の里１丁目２番３０－１００３号,,27,217,5800021,,,,,,,2024-08-09,1,,,,,ケーテック,0
970,4120101070141,新規,0,2024-08-09,2024-08-09,株式会社Ｎｅｗ,,株式会社,大阪府,高石市,加茂２丁目３２番１５号,,27,225,5920011,,,,,,,2024-08-09,1,,,,,ニュー,0
974,4120901049566,新規,0,2024-08-09,2024-08-09,株式会社ＴＡＫＥＲＵ,,株式会社,大阪府,吹田市,広芝町１１番８－１５０６号,,27,205,5640052,,,,,,,2024-08-09,1,,,,,タケル,0
975,4120901049574,新規,0,2024-08-09,2024-08-09,株式会社Ｅｔｅｒｎａｌｌｙ,,株式会社,大阪府,箕面市,船場東３丁目６番６５－７０２号,,27,220,5620035,,,,,,,2024-08-09,1,,,,,エターナリー,0
983,4122001038359,新規,0,2024-08-09,2024-08-09,株式会社キミトゲーム,,株式会社,大阪府,東大阪市,高井田本通２丁目４－１,,27,227,5770066,,,,,,,2024-08-09,1,,,,,キミトゲーム,0
997,4130001077632,新規,0,2024-08-09,2024-08-09,株式会社モリプラ,,株式会社,京都府,京都市山科区,四ノ宮小金塚１－１３４,00135902,26,110,6078022,,,,,,,2024-08-09,1,,,,,モリプラ,0
998,4130001077649,新規,0,2024-08-09,2024-08-09,株式会社上森,,株式会社,京都府,京都市東山区,祇園町南側５７０番地６,00135904,26,105,6050074,,,,,,,2024-08-09,1,,,,,ウエモリ,0
999,4130001077657,新規,0,2024-08-09,2024-08-09,株式会社北翔,,株式会社,京都府,京都市北区,西賀茂丸川町３９,,26,101,6038825,,,,,,,2024-08-09,1,,,,,ホクショウ,0
1000,4130001077673,新規,0,2024-08-09,2024-08-09,株式会社マツイトラスト,,株式会社,京都府,京都市左京区,松ケ崎六ノ坪町１番地５,,26,103,6060915,,,,,,,2024-08-09,1,,,,,マツイトラスト,0
1002,4130003009773,新規,0,2024-08-09,2024-08-09,ファイブテック合同会社,,合同会社,京都府,亀岡市,篠町浄法寺墓ノ谷１９番地２,,26,206,6210835,,,,,,,2024-08-09,1,,,,,ファイブテック,0
1005,4140003020928,新規,0,2024-08-09,2024-08-09,合同会社ｓｃｉｕｒｉ,,合同会社,兵庫県,明石市,大久保町西島６１０番地の９エクセランス大久保Ｉ番館８１２号,00135911,28,203,6740065,,,,,,,2024-08-09,1,,,,,シュリ,0
1007,4170005007094,新規,0,2024-08-09,2024-08-09,一般社団法人Ｋｉｉ‐Ｌａｂ,,その他の設立登記法人,和歌山県,日高郡美浜町,大字三尾４１９番地,,30,381,6440045,,,,,,,2024-08-09,1,,,,,キイラボ,0
1013,4180001162652,新規,0,2024-08-09,2024-08-09,株式会社桜縁の会,,株式会社,愛知県,一宮市,北方町北方字東泉屋郷９６番地,,23,203,4938001,,,,,,,2024-08-09,1,,,,,オウエンノカイ,0
1014,4180001162710,新規,0,2024-08-09,2024-08-09,株式会社希望,,株式会社,愛知県,小牧市,篠岡１丁目４５番地スカイステージ３３．２２０２号,,23,219,4850815,,,,,,,2024-08-09,1,,,,,キボウ,0
1015,4180001162743,新規,0,2024-08-09,2024-08-09,株式会社リーフネクスト,,株式会社,愛知県,名古屋市天白区,原１丁目１９０５番地星和原コーポラスＳ－２号,,23,116,4680015,,,,,,,2024-08-09,1,,,,,リーフネクスト,0
1020,4180003027176,新規,0,2024-08-09,2024-08-09,合同会社ａｍｕＳ,,合同会社,愛知県,名古屋市西区,名駅１丁目１番１７号名駅ダイヤメイテツビル１１階,,23,104,4510045,,,,,,,2024-08-09,1,,,,,エーエムユーエス,0
1021,4180005020724,新規,0,2024-08-09,2024-08-09,愛知水中ドローン事業協同組合,,その他の設立登記法人,愛知県,名古屋市天白区,平針１丁目１４１７番地,,23,116,4680011,,,,,,,2024-08-09,1,,,,,アイチスイチュウドローン,0
1022,4180005020732,新規,0,2024-08-09,2024-08-09,一般社団法人くらしと資産サポート協会,,その他の設立登記法人,愛知県,名古屋市中村区,名駅５丁目４－１４花車ビル北館１階,,23,105,4500002,,,,,,,2024-08-09,1,,,,,クラシトシサンサポートキョウカイ,0
1025,4180301038957,新規,0,2024-08-09,2024-08-09,株式会社ＯＮＥ　ＳＴＡＲ,,株式会社,愛知県,刈谷市,小垣江町泥障３６番地６,,23,210,4480813,,,,,,,2024-08-09,1,,,,,ワンスター,0
1029,4210001019873,新規,0,2024-08-09,2024-08-09,株式会社あみだそば,,株式会社,福井県,福井市,西開発１丁目２９０８番地７,,18,201,9100843,,,,,,,2024-08-09,1,,,,,アミダソバ,0
1034,4220003003809,新規,0,2024-08-09,2024-08-09,合同会社すずキッチン,,合同会社,石川県,珠洲市,野々江町シ部１５番地,,17,205,9271213,,,,,,,2024-08-09,1,,,,,スズキッチン,0
1042,4250005008935,新規,0,2024-08-09,2024-08-09,一般社団法人中小企業省力化投資補助金設備工業会,,その他の設立登記法人,山口県,山口市,白石１丁目１番２号,,35,203,7530070,,,,,,,2024-08-09,1,,,,,チュウショウキギョウショウリョクカトウシホジョキンセツビコウギョウカイ,0
1044,4260001039371,新規,0,2024-08-09,2024-08-09,株式会社ＹＯＰ,,株式会社,岡山県,総社市,中原６１２番地,,33,208,7191133,,,,,,,2024-08-09,1,,,,,ワイオーピー,0
1050,4290001106623,新規,0,2024-08-09,2024-08-09,カルチャースクールてんとう虫株式会社,,株式会社,福岡県,福岡市早良区,百道３丁目６番８号,,40,137,8140006,,,,,,,2024-08-09,1,,,,,カルチャースクールテントウムシ,0
1052,4290003015608,新規,0,2024-08-09,2024-08-09,合同会社Ｗｏｏｄ,,合同会社,福岡県,福岡市中央区,天神５丁目６番１４号１階,,40,133,8100001,,,,,,,2024-08-09,1,,,,,ウッド,0
1053,4290003015698,新規,0,2024-08-09,2024-08-09,ココス合同会社,,合同会社,福岡県,古賀市,中央２丁目８―３５―５０４,,40,223,8113103,,,,,,,2024-08-09,1,,,,,ココス,0
1060,4330003010496,新規,0,2024-08-09,2024-08-09,合同会社テノハルテ,,合同会社,熊本県,阿蘇郡高森町,大字高森１５８６－１１,,43,428,8691602,,,,,,,2024-08-09,1,,,,,テノハルテ,0
1061,4330003010505,新規,0,2024-08-09,2024-08-09,合同会社ＷＥＬＬＶＡ,,合同会社,熊本県,荒尾市,桜山町２丁目１８－１０６,,43,204,8640022,,,,,,,2024-08-09,1,,,,,ウェルバ,0
1065,4340005009767,新規,0,2024-08-09,2024-08-09,ユニオンコーポ下竜尾管理組合法人,,その他の設立登記法人,鹿児島県,鹿児島市,下竜尾町６番９,,46,201,8920852,,,,,,,2024-08-09,1,,,,,ユニオンコーポシモタツオ,0
1077,4380003005839,新規,0,2024-08-09,2024-08-09,合同会社ＴＡＫＡＤ,,合同会社,福島県,郡山市,安積町日出山字一本松９０番地,,07,203,9630101,,,,,,,2024-08-09,1,,,,,タカド,0
1080,4420001018813,新規,0,2024-08-09,2024-08-09,株式会社樹,,株式会社,青森県,弘前市,大字城東中央３丁目３番地８,,02,202,0368093,,,,,,,2024-08-09,1,,,,,イツキ,0
1087,4460105002296,新規,0,2024-08-09,2024-08-09,農事組合法人藤田ファーム,,その他の設立登記法人,北海道,広尾郡広尾町,東二条１２丁目１番地の２,,01,642,0892602,,,,,,,2024-08-09,1,,,,,,0
1102,5010003044534,新規,0,2024-08-09,2024-08-09,ＤＨＦ４合同会社,,合同会社,東京都,千代田区,丸の内１丁目４番１号東京共同会計事務所内,,13,101,1000005,,,,,,,2024-08-09,1,,,,,ディーエイチエフフォー,0
1103,5010003044609,新規,0,2024-08-09,2024-08-09,合同会社オールオーガニックトーキョー,,合同会社,東京都,中央区,日本橋兜町１７番２号兜町第６葉山ビル４Ｆ,,13,102,1030026,,,,,,,2024-08-09,1,,,,,オールオーガニックトーキョー,0
1105,5010005038617,新規,0,2024-08-09,2024-08-09,一般社団法人セカンドキャリア研究所,,その他の設立登記法人,東京都,中央区,日本橋室町１丁目１１番１２号日本橋水野ビル７階,,13,102,1030022,,,,,,,2024-08-09,1,,,,,セカンドキャリアケンキュウジョ,0
1110,5010401184345,新規,0,2024-08-09,2024-08-09,株式会社ＡＯＺＯＲＡ　Ｔｅｃｈ,,株式会社,東京都,港区,北青山１丁目３番１号アールキューブ青山３階,,13,103,1070061,,,,,,,2024-08-09,1,,,,,アオゾラテック,0
1111,5010401184386,新規,0,2024-08-09,2024-08-09,やまだ相続・財産コンサルティング株式会社,,株式会社,東京都,港区,三田５丁目２番２２－５０４号,,13,103,1080073,,,,,,,2024-08-09,1,,,,,ヤマダソウゾクザイサンコンサルティング,0
1112,5010403033186,新規,0,2024-08-09,2024-08-09,合同会社桜道５１,,合同会社,東京都,港区,芝２丁目１２番１３号ＡＳＩＴＩＳ芝ビル２０１,,13,103,1050014,,,,,,,2024-08-09,1,,,,,サクラミチゴジュウイチ,0
1113,5010403033203,新規,0,2024-08-09,2024-08-09,ＪＥＭ合同会社,,合同会社,東京都,港区,赤坂１丁目１２－２０－４０１号,,13,103,1070052,,,,,,,2024-08-09,1,,,,,ジェム,0
1114,5010403033211,新規,0,2024-08-09,2024-08-09,合同会社トロフェオ,,合同会社,東京都,港区,虎ノ門１丁目１６番６号虎ノ門ＲＡＰＯ－ＴＯビルＵＣＦ７階,,13,103,1050001,,,,,,,2024-08-09,1,,,,,トロフェオ,0
1116,5010405023425,新規,0,2024-08-09,2024-08-09,一般社団法人キーパーやろうぜ,,その他の設立登記法人,東京都,港区,三田２丁目４番９－４０４号,,13,103,1080073,,,,,,,2024-08-09,1,,,,,キーパーヤロウゼ,0
1119,5010601065733,新規,0,2024-08-09,2024-08-09,株式会社３ｂｅａｔ,,株式会社,東京都,墨田区,本所３丁目７番１６号,,13,107,1300004,,,,,,,2024-08-09,1,,,,,スリービート,0
1120,5010603011025,新規,0,2024-08-09,2024-08-09,合同会社アバンダンスエイト,,合同会社,東京都,墨田区,千歳３丁目１１番６－２０４号,,13,107,1300025,,,,,,,2024-08-09,1,,,,,アバンダンスエイト,0
1123,5010701046410,新規,0,2024-08-09,2024-08-09,株式会社ＮＩＷＡＴＯＲＩＮＮＥ,,株式会社,東京都,品川区,西五反田１丁目２６番２号五反田サンハイツビル,,13,109,1410031,,,,,,,2024-08-09,1,,,,,ニワトリンネ,0
1125,5010801035313,新規,0,2024-08-09,2024-08-09,東洋エネテック株式会社,,株式会社,東京都,大田区,池上３丁目３５番２４号ツインハイツ３０２,,13,111,1460082,,,,,,,2024-08-09,1,,,,,トウヨウエネテック,0
1135,5011001163920,新規,0,2024-08-09,2024-08-09,ＮＥＸＴＲＡＶＥＬＥＲ株式会社,,株式会社,東京都,渋谷区,神宮前２丁目１８番７号外苑ビル５階Ｂ号室,,13,113,1500001,,,,,,,2024-08-09,1,,,,,ネクストラベラー,0
1138,5011101108321,新規,0,2024-08-09,2024-08-09,株式会社ｌｕｓｈ,,株式会社,東京都,新宿区,大久保２丁目１８番１８号ＮＳハイムＢ－２９,,13,104,1690072,,,,,,,2024-08-09,1,,,,,ラッシュ,0
1139,5011101108338,新規,0,2024-08-09,2024-08-09,株式会社ｖｉｒａｌ,,株式会社,東京都,新宿区,新宿２丁目１３番１０号ハローオフィス新宿３９号室,,13,104,1600022,,,,,,,2024-08-09,1,,,,,ヴァイラル,0
1140,5011101108354,新規,0,2024-08-09,2024-08-09,ピクセルフリーク株式会社,,株式会社,東京都,新宿区,大京町２番地４ＴｈｅＲｏｏｍ四谷大京町２０１号室,,13,104,1600015,,,,,,,2024-08-09,1,,,,,ピクセルフリーク,0
1141,5011101108370,新規,0,2024-08-09,2024-08-09,株式会社ＵｎｉｑｕＥ,,株式会社,東京都,新宿区,西新宿３丁目３番１３号西新宿水間ビル２Ｆ,,13,104,1600023,,,,,,,2024-08-09,1,,,,,ユニーク,0
1142,5011103014732,新規,0,2024-08-09,2024-08-09,ゲッティングベター合同会社,,合同会社,東京都,新宿区,百人町３丁目１番４－３０３号,,13,104,1690073,,,,,,,2024-08-09,1,,,,,ゲッティングベター,0
1143,5011103014773,新規,0,2024-08-09,2024-08-09,画像処理技術支援合同会社,,合同会社,東京都,新宿区,西新宿６丁目５番１号新宿アイランドタワー２階,,13,104,1600023,,,,,,,2024-08-09,1,,,,,ガゾウショリギジュツシエン,0
1144,5011105011117,新規,0,2024-08-09,2024-08-09,一般社団法人中国における臓器移植を考える会,,その他の設立登記法人,東京都,新宿区,西新宿３丁目３番１３号西新宿水間ビル６階,,13,104,1600023,,,,,,,2024-08-09,1,,,,,チュウゴクニオケルゾウキイショクヲカンガエルカイ,0
1147,5011201025714,新規,0,2024-08-09,2024-08-09,株式会社ｔｅｃｈｆｏｒ,,株式会社,東京都,中野区,江古田３丁目９番２号,,13,114,1650022,,,,,,,2024-08-09,1,,,,,テックフォー,0
1148,5011201025722,新規,0,2024-08-09,2024-08-09,株式会社ＭＡＮＥＪＩＹＡ,,株式会社,東京都,中野区,本町６丁目１０－１５Ｄキャスル新中野１０１,,13,114,1640012,,,,,,,2024-08-09,1,,,,,マネジヤ,0
1150,5011301029912,新規,0,2024-08-09,2024-08-09,莱華株式会社,,株式会社,東京都,杉並区,西荻北４丁目１２番８号,,13,115,1670042,,,,,,,2024-08-09,1,,,,,ライカ,0
1153,5011601027962,新規,0,2024-08-09,2024-08-09,株式会社ゆず,,株式会社,東京都,練馬区,豊玉南２丁目７番１０号,,13,120,1760014,,,,,,,2024-08-09,1,,,,,ユズ,0
1155,5011701027516,新規,0,2024-08-09,2024-08-09,ＧＡＲＡＧＥ株式会社,,株式会社,東京都,江戸川区,船堀４丁目７－１４ＲＥＣＳ船堀４丁目１０１号,,13,123,1340091,,,,,,,2024-08-09,1,,,,,ガレージ,0
1161,5012401042160,新規,0,2024-08-09,2024-08-09,株式会社ルミナル,,株式会社,東京都,小金井市,梶野町４丁目２０番４号,,13,210,1840002,,,,,,,2024-08-09,1,,,,,ルミナル,0
1162,5012401042177,新規,0,2024-08-09,2024-08-09,株式会社涼創,,株式会社,東京都,調布市,深大寺東町７丁目２４番地１３,,13,208,1820012,,,,,,,2024-08-09,1,,,,,リョウソウ,0
1166,5012801023388,新規,0,2024-08-09,2024-08-09,株式会社ＢＥＣＫ,,株式会社,東京都,立川市,幸町１丁目１番地の８,,13,202,1900002,,,,,,,2024-08-09,1,,,,,ベック,0
1167,5012803003487,新規,0,2024-08-09,2024-08-09,フィールドヒルズ合同会社,,合同会社,東京都,国分寺市,泉町２丁目１３番１９－３３７号,,13,214,1850024,,,,,,,2024-08-09,1,,,,,フィールドヒルズ,0
1174,5020001158392,新規,0,2024-08-09,2024-08-09,株式会社エフティーソリューション,,株式会社,神奈川県,横浜市緑区,白山３丁目９番４１号,,14,113,2260006,,,,,,,2024-08-09,1,,,,,エフティーソリューション,0
1180,5020003026589,新規,0,2024-08-09,2024-08-09,合同会社ルブタン,,合同会社,神奈川県,川崎市麻生区,高石５丁目９－１４－２０６,,14,137,2150003,,,,,,,2024-08-09,1,,,,,ルブタン,0
1181,5020003026647,新規,0,2024-08-09,2024-08-09,ＴＳＣ合同会社,,合同会社,神奈川県,川崎市宮前区,宮崎３丁目５―９０,,14,136,2160033,,,,,,,2024-08-09,1,,,,,ティーエスシー,0
1182,5020003026721,新規,0,2024-08-09,2024-08-09,マルジネ合同会社,,合同会社,神奈川県,横浜市神奈川区,松見町２丁目５８８番地１５,,14,102,2210005,,,,,,,2024-08-09,1,,,,,マルジネ,0
1188,5021001082962,新規,0,2024-08-09,2024-08-09,株式会社直家,,株式会社,神奈川県,秦野市,落合５１番１号,,14,211,2570025,,,,,,,2024-08-09,1,,,,,ナオヤ,0
1196,5030001161882,新規,0,2024-08-09,2024-08-09,ＺＥＫ株式会社,,株式会社,埼玉県,さいたま市南区,辻３丁目１番２１－１０１５号,00135892,11,108,3360026,,,,,,,2024-08-09,1,,,,,ジーク,0
1198,5030003024897,新規,0,2024-08-09,2024-08-09,合同会社らいふリスタート,,合同会社,埼玉県,草加市,谷塚仲町１０６番地４,,11,221,3400025,,,,,,,2024-08-09,1,,,,,ライフリスタート,0
1199,5030003024906,新規,0,2024-08-09,2024-08-09,ツメルノ合同会社,,合同会社,埼玉県,川口市,飯塚３丁目６番２１号メゾンスズキ２０１号,,11,203,3320023,,,,,,,2024-08-09,1,,,,,ツメルノ,0
1204,5040001134895,新規,0,2024-08-09,2024-08-09,株式会社Ｈ２Ｏ,,株式会社,千葉県,印西市,岩戸１８０８番地１,,12,231,2701616,,,,,,,2024-08-09,1,,,,,エイチツーオー,0
1205,5040001134912,新規,0,2024-08-09,2024-08-09,株式会社ｈｏｐｅ,,株式会社,千葉県,市川市,鬼高４丁目２番２４－４０４号,,12,203,2720015,,,,,,,2024-08-09,1,,,,,ホープ,0
1206,5050001055232,新規,0,2024-08-09,2024-08-09,株式会社Ｊ‐ＲＥＮＴ,,株式会社,茨城県,守谷市,百合ケ丘２丁目４８００番地２,,08,224,3020110,,,,,,,2024-08-09,1,,,,,ジェイレント,0
1213,5060005010224,新規,0,2024-08-09,2024-08-09,農事組合法人正明牧場,,その他の設立登記法人,栃木県,宇都宮市,御幸町３－４ラマシア御幸町３０２,,09,201,3210984,,,,,,,2024-08-09,1,,,,,マサアキボクジョウ,0
1216,5070001042071,新規,0,2024-08-09,2024-08-09,株式会社ＳＳ‐ＪＡＰＡＮ,,株式会社,群馬県,伊勢崎市,田部井町１丁目１０７８番地１,,10,204,3792222,,,,,,,2024-08-09,1,,,,,エスエスジャパン,0
1217,5070001042088,新規,0,2024-08-09,2024-08-09,株式会社ストーリーズ,,株式会社,群馬県,沼田市,東原新町１４２６番地１１,,10,206,3780053,,,,,,,2024-08-09,1,,,,,ストーリーズ,0
1219,5070003005539,新規,0,2024-08-09,2024-08-09,アオエム合同会社,,合同会社,群馬県,伊勢崎市,太田町２８８番地７,,10,204,3720006,,,,,,,2024-08-09,1,,,,,アオエム,0
1221,5080003003269,新規,0,2024-08-09,2024-08-09,合同会社エムフォープランニング,,合同会社,静岡県,静岡市駿河区,大谷３７００番地の５,,22,102,4228017,,,,,,,2024-08-09,1,,,,,エムフォープランニング,0
1222,5080401027373,新規,0,2024-08-09,2024-08-09,天馬株式会社,,株式会社,静岡県,磐田市,宮本２４９番地３０,,22,211,4380207,,,,,,,2024-08-09,1,,,,,テンマ,0
1228,5100003007647,新規,0,2024-08-09,2024-08-09,合同会社さくにゃろ,,合同会社,長野県,松本市,大手４丁目９－３,,20,202,3900874,,,,,,,2024-08-09,1,,,,,サクニャロ,0
1237,5120001267555,新規,0,2024-08-09,2024-08-09,ハイセックジャパン株式会社,,株式会社,大阪府,守口市,南寺方北通２丁目１８－２,,27,209,5700046,,,,,,,2024-08-09,1,,,,,ハイセックジャパン,0
1238,5120001267613,新規,0,2024-08-09,2024-08-09,Ｒ＆Ｌ株式会社,,株式会社,大阪府,大阪市淀川区,塚本１丁目２－５ラ・パルフェ・ド・パラツィーナ２３０号,,27,123,5320026,,,,,,,2024-08-09,1,,,,,アールアンドエル,0
1239,5120001267679,新規,0,2024-08-09,2024-08-09,株式会社Ｋｉ‐ｕｔｉｌ,,株式会社,大阪府,大阪市中央区,安堂寺町２丁目６番１５号,,27,128,5420061,,,,,,,2024-08-09,1,,,,,キウチル,0
1244,5120003027214,新規,0,2024-08-09,2024-08-09,合同会社Ｓｔｒｏｌｌ,,合同会社,大阪府,大阪市東住吉区,田辺１丁目８番３１号オーベルジュ・ＤＥ・田辺１０１号,,27,121,5460031,,,,,,,2024-08-09,1,,,,,ストロール,0
1245,5120003027230,新規,0,2024-08-09,2024-08-09,ＢＵＢＵ合同会社,,合同会社,大阪府,大阪市生野区,新今里３丁目２－１９シャトー第３今里１０３号室,,27,116,5440001,,,,,,,2024-08-09,1,,,,,ブブ,0
1251,5130001077664,新規,0,2024-08-09,2024-08-09,株式会社マックＲ,,株式会社,京都府,京田辺市,宮津池ノ内３０－１,,26,211,6100314,,,,,,,2024-08-09,1,,,,,マックアール,0
1257,5130003009772,新規,0,2024-08-09,2024-08-09,ワイズテック合同会社,,合同会社,京都府,亀岡市,篠町浄法寺墓ノ谷１９番地１,,26,206,6210835,,,,,,,2024-08-09,1,,,,,ワイズテック,0
1263,5140001135462,新規,0,2024-08-09,2024-08-09,仁愛株式会社,,株式会社,兵庫県,尼崎市,上ノ島町１丁目１番１０号フラミンガム武庫之荘１０３号,,28,202,6610014,,,,,,,2024-08-09,1,,,,,ジンアイ,0
1271,5150001027493,新規,0,2024-08-09,2024-08-09,株式会社エミオリンク,,株式会社,奈良県,奈良市,大宮町１丁目４番２９号,,29,201,6308115,,,,,,,2024-08-09,1,,,,,エミオリンク,0
1275,5160001026148,新規,0,2024-08-09,2024-08-09,株式会社ｎｕｉ,,株式会社,滋賀県,草津市,南笠東３丁目１７番２４号,,25,206,5250071,,,,,,,2024-08-09,1,,,,,ニュイ,0
1277,5170001018268,新規,0,2024-08-09,2024-08-09,株式会社新谷組,,株式会社,和歌山県,海南市,下津町興１番地５,,30,202,6490153,,,,,,,2024-08-09,1,,,,,シンタニグミ,0
1278,5170005007102,新規,0,2024-08-09,2024-08-09,特定非営利活動法人ＣＯＭＦＯＲＴ,,その他の設立登記法人,和歌山県,和歌山市,船所４１番地９,,30,201,6408461,,,,,,,2024-08-09,1,,,,,コンフォート,0
1281,5180001162676,新規,0,2024-08-09,2024-08-09,株式会社グローバル,,株式会社,愛知県,名古屋市中村区,名駅４丁目２４番５号第２森ビル４０１,,23,105,4500002,,,,,,,2024-08-09,1,,,,,グローバル,0
1282,5180001162718,新規,0,2024-08-09,2024-08-09,株式会社ＪＧＧ．Ｍｅｎ,,株式会社,愛知県,愛西市,佐屋町宅地１７番地１５,,23,232,4960901,,,,,,,2024-08-09,1,,,,,ジェギングメン,0
1283,5180001162750,新規,0,2024-08-09,2024-08-09,株式会社ｍｅｌｌｌｏｖｅ,,株式会社,愛知県,名古屋市中区,千代田２丁目１９番２０号トーカンマンション鶴舞３０７,,23,106,4600012,,,,,,,2024-08-09,1,,,,,メロウブ,0
1284,5180001162759,新規,0,2024-08-09,2024-08-09,株式会社パプリコ,,株式会社,愛知県,名古屋市中村区,栄生町９番１３号,,23,105,4530033,,,,,,,2024-08-09,1,,,,,パプリコ,0
1285,5180001162767,新規,0,2024-08-09,2024-08-09,城見タイヤ工業所株式会社,,株式会社,愛知県,名古屋市北区,西志賀町３丁目１４番地,,23,103,4620058,,,,,,,2024-08-09,1,,,,,シロミタイヤコウギョウショ,0
1286,5180001162791,新規,0,2024-08-09,2024-08-09,株式会社ものすごい,,株式会社,愛知県,名古屋市中区,丸の内３丁目２１番２１号丸の内東桜ビル２０１号室,,23,106,4600002,,,,,,,2024-08-09,1,,,,,モノスゴイ,0
1287,5180001162890,新規,0,2024-08-09,2024-08-09,株式会社ＫｏｍｅＫｏｍｅ,,株式会社,愛知県,名古屋市千種区,徳川山町１丁目８番１４号,,23,101,4640031,,,,,,,2024-08-09,1,,,,,コメコメ,0
1291,5180003027175,新規,0,2024-08-09,2024-08-09,合同会社共生工業所,,合同会社,愛知県,名古屋市緑区,神沢２丁目８０２番地ラビデンス神沢８０１号,,23,114,4580014,,,,,,,2024-08-09,1,,,,,キョウセイコウギョウショ,0
1295,5200001042784,新規,0,2024-08-09,2024-08-09,株式会社総合管理匠,,株式会社,岐阜県,土岐市,肥田浅野梅ノ木町２丁目３９番地,,21,212,5095118,,,,,,,2024-08-09,1,,,,,ソウゴウカンリタクミ,0
1303,5250005008934,新規,0,2024-08-09,2024-08-09,一般社団法人ｓｏｃｉａｌ　Ｉ　ｔｈｒｅｅ協会,,その他の設立登記法人,山口県,山口市,大内千坊５丁目１番５号,,35,203,7530251,,,,,,,2024-08-09,1,,,,,ソーシャルアイスリーキョウカイ,0
1304,5260001039362,新規,0,2024-08-09,2024-08-09,株式会社ＬＫＮ,,株式会社,岡山県,岡山市中区,江並７２‐５,,33,102,7028004,,,,,,,2024-08-09,1,,,,,エルケイエヌ,0
1305,5260001039370,新規,0,2024-08-09,2024-08-09,株式会社キムラデザイン,,株式会社,岡山県,岡山市北区,野田４丁目１２番１１号,,33,101,7000971,,,,,,,2024-08-09,1,,,,,,0
1307,5270003001658,新規,0,2024-08-09,2024-08-09,リバイブレイト合同会社,,合同会社,鳥取県,東伯郡琴浦町,大字赤碕１３３６,,31,371,6892501,,,,,,,2024-08-09,1,,,,,リバイブレイト,0
1311,5290001106655,新規,0,2024-08-09,2024-08-09,株式会社ＰＲＯＭＯＪＡＰＡＮ,,株式会社,福岡県,福岡市中央区,天神２丁目１１－１福岡ＰＡＲＣＯ新館５Ｆ,,40,133,8100001,,,,,,,2024-08-09,1,,,,,プロモジャパン,0
1312,5290003015598,新規,0,2024-08-09,2024-08-09,合同会社ソノヤ,,合同会社,福岡県,福岡市早良区,田隈１丁目１０番３号,,40,137,8140174,,,,,,,2024-08-09,1,,,,,ソノヤ,0
1313,5290003015607,新規,0,2024-08-09,2024-08-09,合同会社Ｏｌｉｖｅ,,合同会社,福岡県,福岡市中央区,天神５丁目６番１４号２階,,40,133,8100001,,,,,,,2024-08-09,1,,,,,オリーブ,0
1315,5290803004817,新規,0,2024-08-09,2024-08-09,合同会社岩崎,,合同会社,福岡県,北九州市小倉北区,三萩野２丁目３番２３号,,40,106,8020065,,,,,,,2024-08-09,1,,,,,イワサキ,0
1317,5320001020662,新規,0,2024-08-09,2024-08-09,株式会社ナカガワ,,株式会社,大分県,大分市,高松東２丁目３番１５号,,44,201,8700916,,,,,,,2024-08-09,1,,,,,ナカガワ,0
1318,5320003004449,新規,0,2024-08-09,2024-08-09,合同会社ｔｏ‐Ｋ,,合同会社,大分県,大分市,新春日町１丁目５番２８号,,44,201,8700818,,,,,,,2024-08-09,1,,,,,トゥーケイ,0
1323,5330001032335,新規,0,2024-08-09,2024-08-09,株式会社岡村製作所,,株式会社,熊本県,熊本市南区,出仲間４丁目２２番６号コーポラスフラワー３０１,,43,104,8620963,,,,,,,2024-08-09,1,,,,,オカムラセイサクショ,0
1324,5330001032343,新規,0,2024-08-09,2024-08-09,株式会社ユーケン,,株式会社,熊本県,上益城郡嘉島町,大字大渕３７１番地Ｄｏ嘉島２０３,,43,442,8613100,,,,,,,2024-08-09,1,,,,,ユーケン,0
1326,5330003010504,新規,0,2024-08-09,2024-08-09,ＷＴＭ合同会社,,合同会社,熊本県,熊本市北区,梶尾町２９４番地,,43,105,8615512,,,,,,,2024-08-09,1,,,,,ダブリューティーエム,0
1327,5330005010816,新規,0,2024-08-09,2024-08-09,一般社団法人くまもとダウン症協会,,その他の設立登記法人,熊本県,熊本市東区,長嶺南１丁目２番１０１－１０２号Ａ,,43,102,8618039,,,,,,,2024-08-09,1,,,,,クマモトダウンショウキョウカイ,0
1329,5340001026699,新規,0,2024-08-09,2024-08-09,株式会社Ｏｎｓｅｎ　Ｗｏｒｋｓ,,株式会社,鹿児島県,霧島市,隼人町姫城１丁目１３１番地,,46,218,8995111,,,,,,,2024-08-09,1,,,,,オンセンワークス,0
1334,5360003014213,新規,0,2024-08-09,2024-08-09,合同会社パライソ,,合同会社,沖縄県,那覇市,牧志１丁目１番地３９号ＳＴＥＰビル２Ａ,,47,201,9000013,,,,,,,2024-08-09,1,,,,,,0
1335,5370001051604,新規,0,2024-08-09,2024-08-09,ＣＳプラン株式会社,,株式会社,宮城県,多賀城市,高橋３丁目１２番７号,,04,209,9850853,,,,,,,2024-08-09,1,,,,,シーエスプラン,0
1336,5370001051620,新規,0,2024-08-09,2024-08-09,株式会社ＮｓＧ　Ｂｅａｕｔｙ　ｓｏｌｕｔｉｏｎ,,株式会社,宮城県,仙台市青葉区,一番町１丁目１５番１４－２０２号,,04,101,9800811,,,,,,,2024-08-09,1,,,,,エヌエスジービューティーソリューション,0
1349,5400003003310,新規,0,2024-08-09,2024-08-09,合同会社ＴＨＲＥＥ　ＧＯＡＴＳ,,合同会社,岩手県,盛岡市,北天昌寺町１３－３６,,03,201,0200136,,,,,,,2024-08-09,1,,,,,スリーゴーツ,0
1351,5420001018820,新規,0,2024-08-09,2024-08-09,株式会社ウエスティン,,株式会社,青森県,五所川原市,金木町芦野３６５番地３８４,00135893,02,205,0370202,,,,,,,2024-08-09,1,,,,,ウエスティン,0
1358,5440001009479,新規,0,2024-08-09,2024-08-09,株式会社フォーラス,,株式会社,北海道,函館市,本通２丁目２９番１５号,,01,202,0410851,,,,,,,2024-08-09,1,,,,,フォーラス,0
1368,5700150052963,新規,0,2024-08-09,2015-10-09,山口県立周防大島高等学校ＰＴＡ,,その他,山口県,大島郡周防大島町,大字西安下庄４８９,,35,305,7422806,,,,,,,2015-10-09,1,,,,,ヤマグチケンリツスオウオオシマコウトウガツコウピーテイーエー,0
1369,5700150126569,新規,0,2024-08-09,2024-07-29,歴史オペラ制作委員会,,その他,東京都,国立市,中１丁目１３－３７,,13,215,1860004,,,,,,,2024-07-29,1,,,,,レキシオペラセイサクイインカイ,0
1378,6010003044533,新規,0,2024-08-09,2024-08-09,合同会社ＩＳＴレジデンス５,,合同会社,東京都,千代田区,丸の内１丁目４番１号東京共同会計事務所内,,13,101,1000005,,,,,,,2024-08-09,1,,,,,アイエスティレジデンスファイブ,0
1379,6010005038616,新規,0,2024-08-09,2024-08-09,一般社団法人ルナ,,その他の設立登記法人,東京都,千代田区,二番町３番地麹町スクエア株式会社シリウス・アドバイザリー内,,13,101,1020084,,,,,,,2024-08-09,1,,,,,ルナ,0
1381,6010401184303,新規,0,2024-08-09,2024-08-09,株式会社ＧＲＡＣＩＳ　ＰＡＲＴＮＥＲＳ,,株式会社,東京都,港区,南青山２丁目２－１５ウィン青山１０２０,,13,103,1070062,,,,,,,2024-08-09,1,,,,,グラシスパートナーズ,0
1382,6010401184336,新規,0,2024-08-09,2024-08-09,華昇株式会社,,株式会社,東京都,港区,白金台３丁目７－７－１０５,,13,103,1080071,,,,,,,2024-08-09,1,,,,,カショウ,0
1383,6010403033185,新規,0,2024-08-09,2024-08-09,合同会社桜道５０,,合同会社,東京都,港区,芝２丁目１２番１３号ＡＳＩＴＩＳ芝ビル２０１,,13,103,1050014,,,,,,,2024-08-09,1,,,,,サクラミチゴジュウ,0
1384,6010403033210,新規,0,2024-08-09,2024-08-09,Ｔｏｙｏｍｕｒａ合同会社,,合同会社,東京都,港区,赤坂２丁目１４番５号Ｄａｉｗａ赤坂ビル４階,,13,103,1070052,,,,,,,2024-08-09,1,,,,,トヨムラ,0
1388,6010601065732,新規,0,2024-08-09,2024-08-09,株式会社アイジョブ,,株式会社,東京都,江東区,有明１丁目４－１１－３０１１,,13,108,1350063,,,,,,,2024-08-09,1,,,,,アイジョブ,0
1389,6010701046384,新規,0,2024-08-09,2024-08-09,株式会社ＷＩＬＬＦＩＥＬＤ,,株式会社,東京都,品川区,西品川３丁目３番１号田嶋ビル１０３,,13,109,1410033,,,,,,,2024-08-09,1,,,,,ウィルフィールド,0
1391,6010803005057,新規,0,2024-08-09,2024-08-09,合同会社ＴＲＩＧＧＥＲ,,合同会社,東京都,大田区,本羽田１丁目３１番５号グローウィング城南７０８,,13,111,1440044,,,,,,,2024-08-09,1,,,,,トリガー,0
1393,6010901055771,新規,0,2024-08-09,2024-08-09,株式会社キギ,,株式会社,東京都,世田谷区,深沢２丁目１番７－５０４,,13,112,1580081,,,,,,,2024-08-09,1,,,,,キギ,0
1394,6010903009271,新規,0,2024-08-09,2024-08-09,合同会社エネルギー技術ビジネス研究所,,合同会社,東京都,世田谷区,岡本３丁目３４番２号,,13,112,1570076,,,,,,,2024-08-09,1,,,,,エネルギーギジュツビジネスケンキュウジョ,0
1397,6011001163787,新規,0,2024-08-09,2024-08-09,株式会社Ｄ‐ａｔｔｅｎｄ,,株式会社,東京都,目黒区,自由が丘２丁目１６番１２号ＲＪ３,,13,110,1520035,,,,,,,2024-08-09,1,,,,,ディーアテンド,0
1398,6011001163886,新規,0,2024-08-09,2024-08-09,リゴロ株式会社,,株式会社,東京都,目黒区,大岡山１丁目２３番１６号,,13,110,1520033,,,,,,,2024-08-09,1,,,,,リゴロ,0
1399,6011001163894,新規,0,2024-08-09,2024-08-09,株式会社ＡＭＢＩＥ,,株式会社,東京都,渋谷区,神宮前６丁目２３番４号桑野ビル２階,,13,113,1500001,,,,,,,2024-08-09,1,,,,,アンビー,0
1400,6011001163903,新規,0,2024-08-09,2024-08-09,株式会社ｓｌｅｅｐｉｎｇｃａｔ,,株式会社,東京都,渋谷区,道玄坂１丁目１０番８号渋谷道玄坂東急ビル２Ｆ－Ｃ,,13,113,1500043,,,,,,,2024-08-09,1,,,,,スリーピングキャット,0
1405,6011101108320,新規,0,2024-08-09,2024-08-09,株式会社ツーピース,,株式会社,東京都,新宿区,大久保２丁目１８番１８号ＮＳハイムＢ－２６,,13,104,1690072,,,,,,,2024-08-09,1,,,,,ツーピース,0
1406,6011101108329,新規,0,2024-08-09,2024-08-09,株式会社リ・クリエイター,,株式会社,東京都,新宿区,新宿２丁目１５－２４ヒカリビル３階,,13,104,1600022,,,,,,,2024-08-09,1,,,,,,0
1407,6011101108337,新規,0,2024-08-09,2024-08-09,めぶき投資顧問株式会社,,株式会社,東京都,新宿区,四谷２丁目９寿ビル５階,,13,104,1600004,,,,,,,2024-08-09,1,,,,,メブキトウシコモン,0
1409,6011103014764,新規,0,2024-08-09,2024-08-09,すずケアコ・プロダクション合同会社,,合同会社,東京都,新宿区,新宿３丁目１２番４号新宿Ｎタウンプラザ３０９号,,13,104,1600022,,,,,,,2024-08-09,1,,,,,スズケアコプロダクション,0
1410,6011103014772,新規,0,2024-08-09,2024-08-09,Ｂｒａｎｄｇｅｎｕｉｔｙ合同会社,,合同会社,東京都,新宿区,市谷加賀町２丁目３番５号ＥＬＣ．加賀３０２,,13,104,1620062,,,,,,,2024-08-09,1,,,,,ブランドジェニュイティ,0
1411,6011401026321,新規,0,2024-08-09,2024-08-09,株式会社Ｋｏｔｉ,,株式会社,東京都,板橋区,高島平９丁目２７－１４－２０１,,13,119,1750082,,,,,,,2024-08-09,1,,,,,コティ,0
1415,6011501031007,新規,0,2024-08-09,2024-08-09,ＫＹ株式会社,,株式会社,東京都,荒川区,東尾久２丁目２番９号三祥ビル２０７号室,,13,118,1160012,,,,,,,2024-08-09,1,,,,,ケーワイ,0
1418,6011801044674,新規,0,2024-08-09,2024-08-09,株式会社ＮＡＫＡＭＵＲＡ,,株式会社,東京都,足立区,栗原３丁目２５番１－６１５号,,13,121,1230842,,,,,,,2024-08-09,1,,,,,ナカムラ,0
1419,6011803006375,新規,0,2024-08-09,2024-08-09,合同会社ＧＥＮＩＥ　ＴＯＫＹＯ,,合同会社,東京都,葛飾区,立石６丁目１―６,,13,122,1240012,,,,,,,2024-08-09,1,,,,,ジーニートーキョー,0
1421,6012401042168,新規,0,2024-08-09,2024-08-09,株式会社リビオン,,株式会社,東京都,狛江市,東和泉３丁目１番９号,,13,219,2010014,,,,,,,2024-08-09,1,,,,,リビオン,0
1427,6013301052959,新規,0,2024-08-09,2024-08-09,株式会社プロダクション東京ドラマハウス,,株式会社,東京都,豊島区,高田３丁目１１番１４号,,13,116,1710033,,,,,,,2024-08-09,1,,,,,プロダクショントウキョウドラマハウス,0
1437,6020001158400,新規,0,2024-08-09,2024-08-09,株式会社唐澤ＪＡＰＡＮ,,株式会社,神奈川県,横浜市神奈川区,羽沢南２丁目４４番７－１１０４号,,14,102,2210866,,,,,,,2024-08-09,1,,,,,カラサワジャパン,0
1439,6020003026596,新規,0,2024-08-09,2024-08-09,Ｑｕａｎｔｕｍ　Ｌｅａｐ　Ａｓｓｅｔ　Ｐａｒｔｎｅｒｓ合同会社,,合同会社,神奈川県,横浜市鶴見区,駒丘四丁目３２番１号センターフォート１０８,,14,101,2300000,,,,,,,2024-08-09,1,,,,,クオンタムリープアセットパートナーズ,0
1450,6030001161865,新規,0,2024-08-09,2024-08-09,株式会社ＬＩＮＯＬＡ,,株式会社,埼玉県,川越市,月吉町２０番地１４,,11,201,3500825,,,,,,,2024-08-09,1,,,,,リノラ,0
1451,6030001161873,新規,0,2024-08-09,2024-08-09,株式会社ＭＫ,,株式会社,埼玉県,朝霞市,岡３丁目２４番３１－１号,,11,227,3510007,,,,,,,2024-08-09,1,,,,,エムケイ,0
1452,6030001161881,新規,0,2024-08-09,2024-08-09,国立下谷保尾張屋第二株式会社,,株式会社,埼玉県,川口市,元郷２丁目１５―１―５２０８,,11,203,3320011,,,,,,,2024-08-09,1,,,,,クニタチシモヤボオワリヤダイニ,0
1454,6030003024888,新規,0,2024-08-09,2024-08-09,デジタルハーモニー合同会社,,合同会社,埼玉県,所沢市,大字山口２２０番地の２３,,11,208,3591145,,,,,,,2024-08-09,1,,,,,デジタルハーモニー,0
1463,6040001134878,新規,0,2024-08-09,2024-08-09,商合盛株式会社,,株式会社,千葉県,柏市,大津ケ丘１丁目５６番５号暁第二ビル３階,,12,217,2770921,,,,,,,2024-08-09,1,,,,,ショウゴウシン,0
1464,6040001134886,新規,0,2024-08-09,2024-08-09,日本ユニハート株式会社,,株式会社,千葉県,千葉市中央区,祐光３丁目５－３,,12,101,2600007,,,,,,,2024-08-09,1,,,,,,0
1465,6040001134944,新規,0,2024-08-09,2024-08-09,株式会社Ａｉｒ　Ｐｒｏｄｕｃｔｉｏｎ,,株式会社,千葉県,柏市,西原３丁目２―４,,12,217,2770885,,,,,,,2024-08-09,1,,,,,エアープロダクション,0
1467,6040003025555,新規,0,2024-08-09,2024-08-09,ＥＦＩＣ　Ｖｉｓｉｏｎ合同会社,,合同会社,千葉県,船橋市,本中山３丁目５番２５－３０５号,,12,204,2730035,,,,,,,2024-08-09,1,,,,,エフィックヴィジョン,0
1469,6050001055215,新規,0,2024-08-09,2024-08-09,株式会社アルシャヒン,,株式会社,茨城県,筑西市,赤浜６６番地１,,08,227,3004523,,,,,,,2024-08-09,1,,,,,アルシャヒン,0
1470,6050003008600,新規,0,2024-08-09,2024-08-09,合同会社ＳＰＩＲＩＴＯＳＯ,,合同会社,茨城県,筑西市,幸町３丁目１２番４６－１号,,08,227,3080848,,,,,,,2024-08-09,1,,,,,スピリトーゾ,0
1476,6060005010223,新規,0,2024-08-09,2024-08-09,農事組合法人あいはらふぁーむ,,その他の設立登記法人,栃木県,宇都宮市,御幸町３－４ラマシア御幸町３０２,,09,201,3210984,,,,,,,2024-08-09,1,,,,,アイハラファーム,0
1478,6070001042079,新規,0,2024-08-09,2024-08-09,株式会社キャリーオン,,株式会社,群馬県,前橋市,昭和町３丁目２７番９号,,10,201,3710034,,,,,,,2024-08-09,1,,,,,キャリーオン,0
1483,6080401027372,新規,0,2024-08-09,2024-08-09,株式会社常盤木メソッド,,株式会社,静岡県,磐田市,富里８７番地,,22,211,4380807,,,,,,,2024-08-09,1,,,,,トキワギメソッド,0
1485,6090003002616,新規,0,2024-08-09,2024-08-09,合同会社スクエアボックス,,合同会社,山梨県,南都留郡忍野村,内野１６０６番地,,19,424,4010512,,,,,,,2024-08-09,1,,,,,スクエアボックス,0
1488,6100003007654,新規,0,2024-08-09,2024-08-09,合同会社ＳＡＬＡＳ,,合同会社,長野県,長野市,大字安茂里１８２２番地１シャルマン櫻街１０２号,,20,201,3800941,,,,,,,2024-08-09,1,,,,,サラス,0
1493,6110001038642,新規,0,2024-08-09,2024-08-09,株式会社ＭＳＧ,,株式会社,新潟県,新潟市中央区,天神１丁目１２番地７,,15,103,9500917,,,,,,,2024-08-09,1,,,,,エムエスジー,0
1502,6120001267612,新規,0,2024-08-09,2024-08-09,蔡氏資本株式会社,,株式会社,大阪府,大阪市西淀川区,柏里２丁目７番２６号ラピース塚本３０５号室,,27,113,5550022,,,,,,,2024-08-09,1,,,,,サイシシホン,0
1503,6120001267629,新規,0,2024-08-09,2024-08-09,宝盈株式会社,,株式会社,大阪府,大阪市平野区,平野本町４丁目５－３－４０２,,27,126,5470044,,,,,,,2024-08-09,1,,,,,ホウエイ,0
1506,6120003027155,新規,0,2024-08-09,2024-08-09,ＣＡＯ　ＴＨＡＮＨ　ＬＯＮＧ合同会社,,合同会社,大阪府,大阪市平野区,加美北１丁目２３番２７号４０１号室,,27,126,5470001,,,,,,,2024-08-09,1,,,,,カオタンロン,0
1507,6120003027213,新規,0,2024-08-09,2024-08-09,合同会社Ｒａｆｆｙ,,合同会社,大阪府,大阪市住之江区,東加賀屋１丁目７番２‐１００１号,,27,125,5590012,,,,,,,2024-08-09,1,,,,,ラフィ,0
1508,6120003027262,新規,0,2024-08-09,2024-08-09,アップタウン合同会社,,合同会社,大阪府,大阪市福島区,鷺洲５丁目１２番２－１３３１号,,27,103,5530002,,,,,,,2024-08-09,1,,,,,アップタウン,0
1510,6120005024480,新規,0,2024-08-09,2024-08-09,一般社団法人不動産取引の学校,,その他の設立登記法人,大阪府,大阪市都島区,東野田町１丁目３－１２,,27,102,5340024,,,,,,,2024-08-09,1,,,,,フドウサントリヒキノガッコウ,0
1511,6120005024497,新規,0,2024-08-09,2024-08-09,ＳｕｎＬｕｃｋ行政書士法人,,その他の設立登記法人,大阪府,大阪市北区,天神橋１丁目１９－８ＭＦ南森町３ビル９階,,27,127,5300041,,,,,,,2024-08-09,1,,,,,サンラック,0
1516,6120101070131,新規,0,2024-08-09,2024-08-09,ＴｗｏＢｌｕｅ株式会社,,株式会社,大阪府,岸和田市,下松町１丁目１０番１５号,,27,202,5960823,,,,,,,2024-08-09,1,,,,,トゥーブルー,0
1519,6120901049580,新規,0,2024-08-09,2024-08-09,株式会社オフィス我空,,株式会社,大阪府,茨木市,豊川１丁目１６番２号,,27,211,5670057,,,,,,,2024-08-09,1,,,,,オフィスガクウ,0
1525,6122001038357,新規,0,2024-08-09,2024-08-09,株式会社Ｊａｐａｎ‐Ｔｈａｉｌａｎｄ　Ｂｒｉｄｇｅ,,株式会社,大阪府,東大阪市,永和２丁目２番２号,,27,227,5770809,,,,,,,2024-08-09,1,,,,,ジャパンタイランドブリッジ,0
1529,6130001077606,新規,0,2024-08-09,2024-08-09,株式会社ネオプラセオ,,株式会社,京都府,宇治市,宇治蛇塚７７番地１３,00135903,26,204,6110021,,,,,,,2024-08-09,1,,,,,ネオプラセオ,0
1530,6130001077655,新規,0,2024-08-09,2024-08-09,ＢＲＡＮＣＨ　ＬＩＧＨＴＩＮＧ　ＤＥＳＩＧＮ株式会社,,株式会社,京都府,京都市下京区,七条御所ノ内中町４７番地,,26,106,6008862,,,,,,,2024-08-09,1,,,,,ブランチライティングデザイン,0
1531,6130001077663,新規,0,2024-08-09,2024-08-09,株式会社ＪＩＮ,,株式会社,京都府,京都市山科区,大宅御供田町１番地４Ｆ,,26,110,6078192,,,,,,,2024-08-09,1,,,,,ジン,0
1533,6130003009763,新規,0,2024-08-09,2024-08-09,合同会社Ｃａｓａ　Ｎａｋａｎｏ,,合同会社,京都府,京都市上京区,寺町通今出川上る三丁目十念寺前町４２－１,,26,102,6020000,,,,,,,2024-08-09,1,,,,,カーサナカノ,0
1534,6130003009771,新規,0,2024-08-09,2024-08-09,Ｋｙｏｂｏ合同会社,,合同会社,京都府,京都市左京区,浄土寺馬場町１６番地ＣＡＳＡＯＫＡＭＯＴＯ３０２,,26,103,6068412,,,,,,,2024-08-09,1,,,,,キョウボ,0
1535,6130005017153,新規,0,2024-08-09,2024-08-09,一般社団法人葵桜,,その他の設立登記法人,京都府,京都市左京区,下鴨宮崎町１１９番地１,,26,103,6060802,,,,,,,2024-08-09,1,,,,,アオイサクラ,0
1546,6170001018259,新規,0,2024-08-09,2024-08-09,株式会社海音,,株式会社,和歌山県,東牟婁郡太地町,大字太地１４２６番地,,30,422,6495171,,,,,,,2024-08-09,1,,,,,シオン,0
1547,6170001018267,新規,0,2024-08-09,2024-08-09,株式会社ＹＭＴｐｌａｎｎｉｎｇ,,株式会社,和歌山県,和歌山市,西小二里３丁目６番４６号ＡＹビル２０５号室,,30,201,6410031,,,,,,,2024-08-09,1,,,,,ワイエムティプランニング,0
1555,6180001162717,新規,0,2024-08-09,2024-08-09,Ｃ‐ＳＯＬ株式会社,,株式会社,愛知県,名古屋市中村区,名駅４丁目２４番５号,,23,105,4500002,,,,,,,2024-08-09,1,,,,,シーソル,0
1556,6180001162725,新規,0,2024-08-09,2024-08-09,株式会社ＡＳＰ,,株式会社,愛知県,あま市,上萱津大門７５番地３,,23,237,4901112,,,,,,,2024-08-09,1,,,,,エーエスピー,0
1557,6180001162733,新規,0,2024-08-09,2024-08-09,ＨＯＭ‐ＭＥ株式会社,,株式会社,愛知県,名古屋市中村区,名駅４丁目２４番５号第２森ビル４０１,,23,105,4500002,,,,,,,2024-08-09,1,,,,,ホンミー,0
1558,6180001162741,新規,0,2024-08-09,2024-08-09,株式会社アットライフ,,株式会社,愛知県,日進市,藤島町五反田２６８番地１,,23,230,4700102,,,,,,,2024-08-09,1,,,,,アットライフ,0
1559,6180001162766,新規,0,2024-08-09,2024-08-09,株式会社大志,,株式会社,愛知県,名古屋市北区,如意３丁目１９番地,,23,103,4620007,,,,,,,2024-08-09,1,,,,,タイシ,0
1560,6180001162774,新規,0,2024-08-09,2024-08-09,株式会社翔建,,株式会社,愛知県,名古屋市南区,天白町３丁目９番地の９４,,23,112,4570803,,,,,,,2024-08-09,1,,,,,ショウケン,0
1565,6180003027158,新規,0,2024-08-09,2024-08-09,合同会社ＳＭＩＬＥ‐酵房,,合同会社,愛知県,一宮市,新生１丁目１０番１５号ポレスター一宮ステーションレジデンス１２０６号,,23,203,4910912,,,,,,,2024-08-09,1,,,,,スマイルコウボウ,0
1566,6180003027208,新規,0,2024-08-09,2024-08-09,合同会社エムエートレーディング,,合同会社,愛知県,名古屋市港区,惟信町３丁目２５－１シャトーラメールＡ－３,,23,111,4550823,,,,,,,2024-08-09,1,,,,,エムエートレーディング,0
1568,6180005020730,新規,0,2024-08-09,2024-08-09,一般社団法人虹の光,,その他の設立登記法人,愛知県,名古屋市名東区,藤見が丘３６コーポ名東３０６号,,23,115,4650048,,,,,,,2024-08-09,1,,,,,ニジノヒカリ,0
1575,6200001042809,新規,0,2024-08-09,2024-08-09,株式会社ｅｒｇ,,株式会社,岐阜県,各務原市,鵜沼羽場町１丁目２０９番地１,,21,213,5090135,,,,,,,2024-08-09,1,,,,,エルグ,0
1579,6240001063669,新規,0,2024-08-09,2024-08-09,株式会社エヌケイ,,株式会社,広島県,福山市,神辺町川北１０７０番地６,,34,207,7210000,,,,,,,2024-08-09,1,,,,,エヌケイ,0
1580,6240001063677,新規,0,2024-08-09,2024-08-09,株式会社ジョブパーク,,株式会社,広島県,広島市西区,東観音町１８－１３,,34,104,7330032,,,,,,,2024-08-09,1,,,,,ジョブパーク,0
1595,6270003001657,新規,0,2024-08-09,2024-08-09,合同会社ＬＴＮＳ,,合同会社,鳥取県,東伯郡北栄町,米里５８３,,31,372,6892113,,,,,,,2024-08-09,1,,,,,エルティエヌエス,0
1598,6290001106605,新規,0,2024-08-09,2024-08-09,株式会社古賀フレア,,株式会社,福岡県,太宰府市,大佐野６丁目８番１４号,,40,221,8180134,,,,,,,2024-08-09,1,,,,,コガフレア,0
1599,6290001106621,新規,0,2024-08-09,2024-08-09,株式会社ＳＴＨ,,株式会社,福岡県,福岡市南区,柏原６丁目５７番１２号,,40,134,8111353,,,,,,,2024-08-09,1,,,,,エスティーエイチ,0
1600,6290001106670,新規,0,2024-08-09,2024-08-09,株式会社ＺＥＲＯ　ＰＬＵＳ　ＪＡＰＡＮ,,株式会社,福岡県,福岡市博多区,大博町９番６号,,40,132,8120033,,,,,,,2024-08-09,1,,,,,ゼロプラスジャパン,0
1601,6290001106968,新規,0,2024-08-09,2024-08-09,株式会社グリーンエナジーグループ,,株式会社,福岡県,福岡市西区,上山門１丁目１９－１－４０１,,40,135,8190054,,,,,,,2024-08-09,1,,,,,グリーンエナジーグループ,0
1602,6290003015589,新規,0,2024-08-09,2024-08-09,古平バイオマス発電所合同会社,,合同会社,福岡県,福岡市早良区,百道浜２丁目４番２７号ＡＩビル６Ｆ,,40,137,8140001,,,,,,,2024-08-09,1,,,,,フルビラバイオマスハツデンショ,0
1603,6290003015597,新規,0,2024-08-09,2024-08-09,Ｋｒｉｎｓ　Ｊａｐａｎ合同会社,,合同会社,福岡県,福岡市南区,若久６丁目６番１２号,,40,134,8150042,,,,,,,2024-08-09,1,,,,,クリンスジャパン,0
1604,6290003015614,新規,0,2024-08-09,2024-08-09,合同会社ＩＳＣＭＡＸ,,合同会社,福岡県,福岡市中央区,清川３丁目１４－７ファーストビル３０５,,40,133,8100005,,,,,,,2024-08-09,1,,,,,アイエスシーマックス,0
1606,6290801030715,新規,0,2024-08-09,2024-08-09,整体開業支援株式会社,,株式会社,福岡県,直方市,大字感田１２５５－１,,40,204,8220001,,,,,,,2024-08-09,1,,,,,セイタイカイギョウシエン,0
1609,6300003002164,新規,0,2024-08-09,2024-08-09,合同会社グローバルクローバー,,合同会社,佐賀県,佐賀市,大和町大字久池井１５２８番地３９,,41,201,8400202,,,,,,,2024-08-09,1,,,,,グローバルクローバー,0
1611,6320001020661,新規,0,2024-08-09,2024-08-09,株式会社横瀬電機,,株式会社,大分県,大分市,大字横瀬１０２番地,,44,201,8701173,,,,,,,2024-08-09,1,,,,,ヨコセデンキ,0
1612,6330001032334,新規,0,2024-08-09,2024-08-09,株式会社風雅ホールディングス,,株式会社,熊本県,熊本市東区,江津４丁目１番１号,,43,102,8620942,,,,,,,2024-08-09,1,,,,,フウガホールディングス,0
1614,6330003010486,新規,0,2024-08-09,2024-08-09,合同会社ｓｅａｒｃｈ,,合同会社,熊本県,菊池郡菊陽町,武蔵ヶ丘北１丁目３５番１号,,43,404,8691112,,,,,,,2024-08-09,1,,,,,サーチ,0
1620,6360001034063,新規,0,2024-08-09,2024-08-09,ＦＡＭＩＬＹ　ＧＩＦＴ株式会社,,株式会社,沖縄県,豊見城市,字豊見城１６０番地１１,,47,212,9010241,,,,,,,2024-08-09,1,,,,,ファミリーギフト,0
1624,6380001034722,新規,0,2024-08-09,2024-08-09,株式会社ＳＢＳ神野会計,,株式会社,福島県,福島市,丸子字富塚３４番地の６,,07,201,9600111,,,,,,,2024-08-09,1,,,,,エスビーエスカミノカイケイ,0
1635,6400005008430,新規,0,2024-08-09,2024-08-09,協同組合岩手専門職人育成会,,その他の設立登記法人,岩手県,北上市,有田町９番５０号,,03,206,0240081,,,,,,,2024-08-09,1,,,,,イワテセンモンショクニンイクセイカイ,0
1637,6420005007918,新規,0,2024-08-09,2024-08-09,岡井税理士法人,,その他の設立登記法人,青森県,弘前市,大字高田１丁目５番地５,,02,202,0368084,,,,,,,2024-08-09,1,,,,,オカイ,0
1642,6430001092442,新規,0,2024-08-09,2024-08-09,株式会社チラックス,,株式会社,北海道,札幌市中央区,北一条西７丁目１番１５号,,01,101,0600001,,,,,,,2024-08-09,1,,,,,チラックス,0
1644,6430003016671,新規,0,2024-08-09,2024-08-09,合同会社和陽堂,,合同会社,北海道,千歳市,富丘４丁目２６番１０号,,01,224,0660034,,,,,,,2024-08-09,1,,,,,ワオキドウ,0
1661,7010001246881,新規,0,2024-08-09,2024-08-09,ミライアミューズ株式会社,,株式会社,東京都,中央区,日本橋小伝馬町１４－５,,13,102,1030001,,,,,,,2024-08-09,1,,,,,ミライアミューズ,0
1662,7010001247260,新規,0,2024-08-09,2024-08-09,株式会社相談所ヒューマンセントリック,,株式会社,東京都,中央区,日本橋室町１丁目１１番１２号日本橋水野ビル７階,,13,102,1030022,,,,,,,2024-08-09,1,,,,,ソウダンショヒューマンセントリック,0
1664,7010003044532,新規,0,2024-08-09,2024-08-09,合同会社ＩＲＳ５,,合同会社,東京都,千代田区,丸の内１丁目４番１号東京共同会計事務所内,,13,101,1000005,,,,,,,2024-08-09,1,,,,,アイアールエスファイブ,0
1665,7010005038615,新規,0,2024-08-09,2024-08-09,一般社団法人プルート,,その他の設立登記法人,東京都,千代田区,二番町３番地麹町スクエア株式会社シリウス・アドバイザリー内,,13,101,1020084,,,,,,,2024-08-09,1,,,,,プルート,0
1666,7010101016276,新規,0,2024-08-09,2024-08-09,株式会社ＴＵＮＡＧＯ,,株式会社,東京都,八王子市,楢原町３１９番地１２,,13,201,1930803,,,,,,,2024-08-09,1,,,,,ツナゴ,0
1671,7010401184293,新規,0,2024-08-09,2024-08-09,株式会社Ｎ‐ＬＯＧＩパートナーズ,,株式会社,東京都,港区,東新橋１丁目９番１号,,13,103,1050021,,,,,,,2024-08-09,1,,,,,エヌロジパートナーズ,0
1672,7010401184343,新規,0,2024-08-09,2024-08-09,株式会社Ａｒｃｈｅ,,株式会社,東京都,港区,新橋６丁目４番３号ル・グランシエルＢＬＤＧ７．３０４,,13,103,1050004,,,,,,,2024-08-09,1,,,,,アルケ,0
1673,7010401184351,新規,0,2024-08-09,2024-08-09,株式会社味方,,株式会社,東京都,港区,新橋４丁目６－１０,,13,103,1050004,,,,,,,2024-08-09,1,,,,,ミカタ,0
1674,7010401184401,新規,0,2024-08-09,2024-08-09,Ｈ　ｉｎｔｅｒｎａｔｉｏｎａｌ株式会社,,株式会社,東京都,港区,新橋２丁目１６番１号６２８号室,,13,103,1050004,,,,,,,2024-08-09,1,,,,,エイチインターナショナル,0
1675,7010403033184,新規,0,2024-08-09,2024-08-09,合同会社千里,,合同会社,東京都,港区,白金１丁目２番１－Ｅ２４１０号,,13,103,1080072,,,,,,,2024-08-09,1,,,,,センリ,0
1676,7010403033192,新規,0,2024-08-09,2024-08-09,合同会社ＹＡＯＨＥＲＯ,,合同会社,東京都,港区,白金３丁目１番１３号日恵ビル２階,,13,103,1080072,,,,,,,2024-08-09,1,,,,,ヤオヒロ,0
1678,7010405023431,新規,0,2024-08-09,2024-08-09,一般社団法人慶東会,,その他の設立登記法人,東京都,港区,南青山３丁目１番３４号３ｒｄＭＩＮＡＭＩＡＯＹＡＭＡ７階,,13,103,1070062,,,,,,,2024-08-09,1,,,,,ケイトウカイ,0
1681,7010501052714,新規,0,2024-08-09,2024-08-09,ＰｒｉｎｔＦａｃｔｏｒｙ株式会社,,株式会社,東京都,台東区,三筋１丁目１４－６ＮＫＫ実業ビル２０１室,,13,106,1110055,,,,,,,2024-08-09,1,,,,,プリントファクトリー,0
1682,7010501052730,新規,0,2024-08-09,2024-08-09,株式会社ＣＯＮＶＩＮＣＩＮＧ,,株式会社,東京都,台東区,浅草６丁目１２－５－５０１,,13,106,1110032,,,,,,,2024-08-09,1,,,,,コンヴィンシング,0
1683,7010501052747,新規,0,2024-08-09,2024-08-09,七喜株式会社,,株式会社,東京都,台東区,浅草５丁目２０－２ジェント浅草１Ｆ,,13,106,1110032,,,,,,,2024-08-09,1,,,,,チヒロ,0
1685,7010601065723,新規,0,2024-08-09,2024-08-09,Ｌｉｎｋｏｏｚｅ株式会社,,株式会社,東京都,江東区,南砂２丁目４番２５－１０１１号,,13,108,1360076,,,,,,,2024-08-09,1,,,,,リンクーズ,0
1691,7010703007292,新規,0,2024-08-09,2024-08-09,ＢＯＮＨＥＵＲ合同会社,,合同会社,東京都,品川区,大崎１丁目２－３アートヴィレッジ大崎ビュータワー２２１０,,13,109,1410032,,,,,,,2024-08-09,1,,,,,,0
1705,7011001163794,新規,0,2024-08-09,2024-08-09,株式会社Ｓｐａｃｅ　Ｗｅａｔｈｅｒ　Ｃｏｍｐａｎｙ,,株式会社,東京都,渋谷区,渋谷３丁目６番２号エクラート渋谷２階,,13,113,1500002,,,,,,,2024-08-09,1,,,,,スペースウェザーカンパニー,0
1706,7011001163803,新規,0,2024-08-09,2024-08-09,株式会社ＩＵＳ,,株式会社,東京都,渋谷区,神宮前５丁目５１番６号テラアシオス青山９階,,13,113,1500001,,,,,,,2024-08-09,1,,,,,イウス,0
1707,7011001163869,新規,0,2024-08-09,2024-08-09,株式会社ベースマネジメント,,株式会社,東京都,渋谷区,恵比寿西１丁目３３番１５号,,13,113,1500021,,,,,,,2024-08-09,1,,,,,ベースマネジメント,0
1708,7011001163877,新規,0,2024-08-09,2024-08-09,株式会社ｃｈｏｐ　ｄｅｓｉｇｎ,,株式会社,東京都,渋谷区,千駄ヶ谷３丁目１３番２０号,,13,113,1510051,,,,,,,2024-08-09,1,,,,,チョップデザイン,0
1709,7011001164000,新規,0,2024-08-09,2024-08-09,株式会社ＮＡ‐ＯＮＥ,,株式会社,東京都,渋谷区,広尾５丁目４番１２号４階,,13,113,1500012,,,,,,,2024-08-09,1,,,,,ナーワン,0
1713,7011003019706,新規,0,2024-08-09,2024-08-09,合同会社ｒａｋｅｎｔａａ,,合同会社,東京都,渋谷区,恵比寿３丁目４０番１９－１０３号,,13,113,1500013,,,,,,,2024-08-09,1,,,,,ラケンタ,0
1714,7011003019730,新規,0,2024-08-09,2024-08-09,合同会社ヒトコムデザイン,,合同会社,東京都,渋谷区,恵比寿西２丁目８番４号ＥＸ恵比寿西ビル５階,,13,113,1500021,,,,,,,2024-08-09,1,,,,,ヒトコムデザイン,0
1715,7011003019755,新規,0,2024-08-09,2024-08-09,合同会社サザンカ,,合同会社,東京都,渋谷区,円山町２番１６号,,13,113,1500044,,,,,,,2024-08-09,1,,,,,サザンカ,0
1716,7011003019805,新規,0,2024-08-09,2024-08-09,Ａｃａｄｅｍｉｍｉｃ合同会社,,合同会社,東京都,渋谷区,渋谷３丁目２７－１、１００ＢＡＮＣＨ２Ｆ,,13,113,1500002,,,,,,,2024-08-09,1,,,,,アカデミミック,0
1717,7011101108328,新規,0,2024-08-09,2024-08-09,株式会社ライフアライアンス,,株式会社,東京都,新宿区,大久保３丁目１番３号ウエリス新宿早稲田の森７０５,,13,104,1690072,,,,,,,2024-08-09,1,,,,,ライフアライアンス,0
1718,7011101108336,新規,0,2024-08-09,2024-08-09,ＴＸＢＲＯＴＨＥＲＳ株式会社,,株式会社,東京都,新宿区,若松町１５－２０－４０２,,13,104,1620056,,,,,,,2024-08-09,1,,,,,ティーブラザーズ,0
1719,7011103014739,新規,0,2024-08-09,2024-08-09,合同会社ｔｉｙｕ,,合同会社,東京都,新宿区,高田馬場１丁目４－８,,13,104,1690075,,,,,,,2024-08-09,1,,,,,チユ,0
1727,7011503006170,新規,0,2024-08-09,2024-08-09,真野商事合同会社,,合同会社,東京都,荒川区,西日暮里５丁目３０番６号２０４号室,,13,118,1160013,,,,,,,2024-08-09,1,,,,,マノショウジ,0
1728,7011503006179,新規,0,2024-08-09,2024-08-09,フォーチュンは合同会社,,合同会社,東京都,北区,赤羽北３丁目１７番１３成田商店１０１号,,13,117,1150052,,,,,,,2024-08-09,1,,,,,フォーチュンハ,0
1730,7011601027960,新規,0,2024-08-09,2024-08-09,ＬＩＮＫ株式会社,,株式会社,東京都,練馬区,高松３丁目９番４－３０９号,,13,120,1790075,,,,,,,2024-08-09,1,,,,,リンク,0
1733,7011701027522,新規,0,2024-08-09,2024-08-09,株式会社サニエレクス,,株式会社,東京都,江戸川区,東小岩１丁目２８番１４号,,13,123,1330052,,,,,,,2024-08-09,1,,,,,サニエレクス,0
1740,7013301052958,新規,0,2024-08-09,2024-08-09,株式会社ＮＥＯ,,株式会社,東京都,豊島区,南池袋１丁目１６番２０号,,13,116,1710022,,,,,,,2024-08-09,1,,,,,ネオ,0
1745,7020001158399,新規,0,2024-08-09,2024-08-09,株式会社オーシャンテクニクス,,株式会社,神奈川県,横浜市戸塚区,東俣野町１０７５－１－２０４,,14,110,2450065,,,,,,,2024-08-09,1,,,,,オーシャンテクニクス,0
1748,7020003026612,新規,0,2024-08-09,2024-08-09,合同会社Ｆ＆Ｈ　ｃｏｎｓｔｒｕｃｔｉｏｎ,,合同会社,神奈川県,横浜市旭区,南本宿町４４番地２８,,14,112,2410833,,,,,,,2024-08-09,1,,,,,エフアンドエイチコンストラクション,0
1749,7020003026711,新規,0,2024-08-09,2024-08-09,Ｋｉｒａｖｉｕｓ合同会社,,合同会社,神奈川県,川崎市幸区,新小倉２番１号,,14,132,2120031,,,,,,,2024-08-09,1,,,,,キラヴィアス,0
1752,7021001082977,新規,0,2024-08-09,2024-08-09,株式会社建商,,株式会社,神奈川県,座間市,小松原２丁目２３番１７－８０１号,,14,216,2520002,,,,,,,2024-08-09,1,,,,,ケンショウ,0
1753,7021003014854,新規,0,2024-08-09,2024-08-09,合同会社総合リフォームセンター,,合同会社,神奈川県,伊勢原市,白根４５６番地１７,,14,214,2591147,,,,,,,2024-08-09,1,,,,,ソウゴウリフォームセンター,0
1754,7021003014879,新規,0,2024-08-09,2024-08-09,コマキインベストメント合同会社,,合同会社,神奈川県,横須賀市,米が浜通１丁目３番地,,14,201,2380011,,,,,,,2024-08-09,1,,,,,コマキインベストメント,0
1757,7030001161889,新規,0,2024-08-09,2024-08-09,ＨＥＭ株式会社,,株式会社,埼玉県,さいたま市大宮区,桜木町２丁目３大宮マルイ７階,,11,103,3300854,,,,,,,2024-08-09,1,,,,,ハム,0
1758,7030001161906,新規,0,2024-08-09,2024-08-09,ＴＯＷＡＲＤ株式会社,,株式会社,埼玉県,日高市,大字上鹿山３０１－１３リリーヴィレッジ１－４０２,,11,242,3501234,,,,,,,2024-08-09,1,,,,,トード,0
1760,7030003024895,新規,0,2024-08-09,2024-08-09,ももづオフィス合同会社,,合同会社,埼玉県,上尾市,緑丘２丁目１１番１４号プログレス緑丘壱番館１０２,,11,219,3620015,,,,,,,2024-08-09,1,,,,,モモヅオフィス,0
1766,7040001134877,新規,0,2024-08-09,2024-08-09,株式会社石匠,,株式会社,千葉県,流山市,宮園３丁目６番地の１５,,12,220,2700155,,,,,,,2024-08-09,1,,,,,セキショウ,0
1767,7040001134902,新規,0,2024-08-09,2024-08-09,豊株式会社,,株式会社,千葉県,船橋市,藤原６丁目４８－２３,,12,204,2730047,,,,,,,2024-08-09,1,,,,,ユタカ,0
1768,7040001134919,新規,0,2024-08-09,2024-08-09,Ｖａｒｉｏｕｓ　Ｒｏｂｏｔｉｃｓ株式会社,,株式会社,千葉県,浦安市,高洲６丁目２－２,,12,227,2790023,,,,,,,2024-08-09,1,,,,,ヴァリアスロボティクス,0
1771,7040003025570,新規,0,2024-08-09,2024-08-09,合同会社音色,,合同会社,千葉県,松戸市,二十世紀が丘梨元町３８番地の２,,12,207,2710083,,,,,,,2024-08-09,1,,,,,ネイロ,0
1774,7050001055206,新規,0,2024-08-09,2024-08-09,株式会社ティルタプリ,,株式会社,茨城県,つくばみらい市,鬼長１２２番地２,,08,235,3002432,,,,,,,2024-08-09,1,,,,,ティルタプリ,0
1779,7060005010230,新規,0,2024-08-09,2024-08-09,農事組合法人藍,,その他の設立登記法人,栃木県,宇都宮市,御幸町３－４ラマシア御幸町３０２,,09,201,3210984,,,,,,,2024-08-09,1,,,,,アイ,0
1781,7070003005520,新規,0,2024-08-09,2024-08-09,合同会社スリー,,合同会社,群馬県,高崎市,東貝沢町３丁目２４－９,,10,202,3700041,,,,,,,2024-08-09,1,,,,,,0
1788,7090001018852,新規,0,2024-08-09,2024-08-09,株式会社ＦＰＷ,,株式会社,山梨県,甲府市,大手１丁目２番２１号,,19,201,4000015,,,,,,,2024-08-09,1,,,,,エフピーダブリュー,0
1789,7090001018860,新規,0,2024-08-09,2024-08-09,ホワイトハグ株式会社,,株式会社,山梨県,甲斐市,西八幡３４３６番地６,,19,210,4000117,,,,,,,2024-08-09,1,,,,,ホワイトハグ,0
1795,7110001038641,新規,0,2024-08-09,2024-08-09,株式会社ＬＯＣＵＳ,,株式会社,新潟県,胎内市,表町１００番地２１,,15,227,9592631,,,,,,,2024-08-09,1,,,,,ローカス,0
1807,7120001267529,新規,0,2024-08-09,2024-08-09,株式会社クリーン不動産,,株式会社,大阪府,大阪市住之江区,安立１丁目２番２号クリーンアイランド住吉公園１階,,27,125,5590003,,,,,,,2024-08-09,1,,,,,クリーンフドウサン,0
1813,7120101070130,新規,0,2024-08-09,2024-08-09,株式会社ＲｅｄＯｎｅ,,株式会社,大阪府,岸和田市,葛城町８６７番３号,,27,202,5960824,,,,,,,2024-08-09,1,,,,,レッドワン,0
1814,7120101070147,新規,0,2024-08-09,2024-08-09,株式会社ＡＬＬ　ＥＦＦＥＣＴ,,株式会社,大阪府,泉佐野市,高松東１丁目１０番３７号泉佐野センタービル４０１・４０２号室,,27,213,5980012,,,,,,,2024-08-09,1,,,,,オールエフェクト,0
1815,7120103006000,新規,0,2024-08-09,2024-08-09,ＡＣＲＯＤＲＯＮＥ合同会社,,合同会社,大阪府,岸和田市,尾生町２７８２番地の５,,27,202,5960816,,,,,,,2024-08-09,1,,,,,アクロドローン,0
1818,7120901049571,新規,0,2024-08-09,2024-08-09,株式会社ＴＯＫＩＮＧＯ,,株式会社,大阪府,豊中市,上野西１丁目１番５号,,27,203,5600011,,,,,,,2024-08-09,1,,,,,トキンゴ,0
1824,7130001077654,新規,0,2024-08-09,2024-08-09,株式会社ユーテック,,株式会社,京都府,京都市伏見区,納所町５４５番地２,,26,109,6128275,,,,,,,2024-08-09,1,,,,,ユーテック,0
1825,7130001077662,新規,0,2024-08-09,2024-08-09,株式会社ユネクトリア,,株式会社,京都府,京都市山科区,西野左義長町１４番地１４,,26,110,6078347,,,,,,,2024-08-09,1,,,,,ユネクトリア,0
1831,7130003009762,新規,0,2024-08-09,2024-08-09,合同会社Ｔｅａｍ　Ｎ‐Ｋｉｄｓ,,合同会社,京都府,京田辺市,田辺中央３丁目３－９シークビル３階,,26,211,6100334,,,,,,,2024-08-09,1,,,,,チームエヌキッズ,0
1837,7140001135394,新規,0,2024-08-09,2024-08-09,株式会社ｔｏｉｖｏａ,,株式会社,兵庫県,西宮市,大屋町２５番１９号メゾン坂本１０１,,28,204,6638106,,,,,,,2024-08-09,1,,,,,トイボア,0
1838,7140001135452,新規,0,2024-08-09,2024-08-09,株式会社ＥＮＥＲＡＴＥ,,株式会社,兵庫県,明石市,樽屋町２２－８,,28,203,6730898,,,,,,,2024-08-09,1,,,,,エネレイト,0
1839,7140001135477,新規,0,2024-08-09,2024-08-09,株式会社リバーパディ,,株式会社,兵庫県,神戸市西区,岩岡町岩岡１４６２番地の１,,28,111,6512401,,,,,,,2024-08-09,1,,,,,リバーパディ,0
1845,7160003003259,新規,0,2024-08-09,2024-08-09,池田重機合同会社,,合同会社,滋賀県,蒲生郡日野町,大字小井口６４番地４３,,25,383,5291605,,,,,,,2024-08-09,1,,,,,イケダジュウキ,0
1852,7180001162690,新規,0,2024-08-09,2024-08-09,株式会社盛華,,株式会社,愛知県,名古屋市昭和区,阿由知通４丁目２３－１,,23,107,4660027,,,,,,,2024-08-09,1,,,,,セイカ,0
1853,7180001162708,新規,0,2024-08-09,2024-08-09,ネートルプロダクト株式会社,,株式会社,愛知県,名古屋市北区,楠味鋺１丁目８１１番地,,23,103,4620014,,,,,,,2024-08-09,1,,,,,ネートルプロダクト,0
1854,7180001162724,新規,0,2024-08-09,2024-08-09,株式会社メカテック,,株式会社,愛知県,小牧市,大字舟津１番地７スペクトル舟津弐番館４０４号,,23,219,4850073,,,,,,,2024-08-09,1,,,,,メカテック,0
1855,7180001162740,新規,0,2024-08-09,2024-08-09,株式会社スティルライフ,,株式会社,愛知県,北名古屋市,西春駅前１丁目３０番地ＴＷビル２Ｆ,,23,234,4810040,,,,,,,2024-08-09,1,,,,,スティルライフ,0
1856,7180001162749,新規,0,2024-08-09,2024-08-09,株式会社サカイ商会,,株式会社,愛知県,半田市,星崎町２丁目２０７番地の１０,,23,205,4750911,,,,,,,2024-08-09,1,,,,,サカイショウカイ,0
1857,7180001162757,新規,0,2024-08-09,2024-08-09,株式会社タカミチ,,株式会社,愛知県,名古屋市中村区,名駅５丁目４番１４号,,23,105,4500002,,,,,,,2024-08-09,1,,,,,タカミチ,0
1858,7180001162765,新規,0,2024-08-09,2024-08-09,株式会社Ｆｌａｇｓｈｉｐ　ａｓｓｅｔ　ｍａｎａｇｅｍｅｎｔ,,株式会社,愛知県,小牧市,大字二重堀３８番地,,23,219,4850021,,,,,,,2024-08-09,1,,,,,フラッグシップアセットマネジメント,0
1859,7180001162864,新規,0,2024-08-09,2024-08-09,テラフォース株式会社,,株式会社,愛知県,一宮市,音羽２丁目６番１０号,,23,203,4910045,,,,,,,2024-08-09,1,,,,,テラフォース,0
1864,7180003027173,新規,0,2024-08-09,2024-08-09,エムケートラスト合同会社,,合同会社,愛知県,名古屋市守山区,翠松園３丁目１６１０番地,,23,113,4630010,,,,,,,2024-08-09,1,,,,,エムケートラスト,0
1865,7180003027181,新規,0,2024-08-09,2024-08-09,合同会社ポートホール,,合同会社,愛知県,名古屋市瑞穂区,桃園町３番１１号,,23,108,4670855,,,,,,,2024-08-09,1,,,,,ポートホール,0
1866,7180003027215,新規,0,2024-08-09,2024-08-09,合同会社鈴木商会,,合同会社,愛知県,名古屋市中村区,名駅４丁目２４番５号第２森ビル４０１,,23,105,4500002,,,,,,,2024-08-09,1,,,,,スズキショウカイ,0
1869,7180301038954,新規,0,2024-08-09,2024-08-09,株式会社山久Ｇｒｏｕｐ,,株式会社,愛知県,豊田市,御幸町６丁目２０番地,,23,211,4710852,,,,,,,2024-08-09,1,,,,,ヤマヒサグループ,0
1886,7200001042790,新規,0,2024-08-09,2024-08-09,Ｌｉｎｋｓ株式会社,,株式会社,岐阜県,下呂市,小川４６９番地１７,,21,220,5092203,,,,,,,2024-08-09,1,,,,,リンクス,0
1889,7210001019879,新規,0,2024-08-09,2024-08-09,やまとまちと株式会社,,株式会社,福井県,坂井市,丸岡町山口５９号７番地１,,18,210,9100203,,,,,,,2024-08-09,1,,,,,ヤマトマチト,0
1892,7220003003814,新規,0,2024-08-09,2024-08-09,合同会社臨川書屋,,合同会社,石川県,金沢市,泉野町１丁目８番１７号,,17,201,9218034,,,,,,,2024-08-09,1,,,,,リンセンショオク,0
1893,7230001020488,新規,0,2024-08-09,2024-08-09,株式会社ＭＡＸＩＭＵＭ　ＴＨＥ　ＫＡＴＳＵＢＯＮ,,株式会社,富山県,富山市,婦中町笹倉２６６番地６３,,16,201,9392753,,,,,,,2024-08-09,1,,,,,マキシマムザカツボン,0
1899,7240001063676,新規,0,2024-08-09,2024-08-09,ＫＪＫニシカワ株式会社,,株式会社,広島県,世羅郡世羅町,大字本郷７２３番地５,,34,462,7221112,,,,,,,2024-08-09,1,,,,,ケイジェイケイニシカワ,0
1902,7250003003547,新規,0,2024-08-09,2024-08-09,合同会社ブラックカッターズ,,合同会社,山口県,宇部市,大字西万倉１３０１番地１,,35,202,7570214,,,,,,,2024-08-09,1,,,,,ブラックカッターズ,0
1906,7290001106604,新規,0,2024-08-09,2024-08-09,株式会社Ｗ．Ｎ,,株式会社,福岡県,福岡市南区,中尾２丁目２４番２号,,40,134,8111364,,,,,,,2024-08-09,1,,,,,ダブリューエヌ,0
1907,7290001106612,新規,0,2024-08-09,2024-08-09,株式会社ドライブクリニックａ,,株式会社,福岡県,福岡市中央区,天神４丁目６－２８天神ファーストビル７階,,40,133,8100001,,,,,,,2024-08-09,1,,,,,ドライブクリニックエイ,0
1908,7290003015596,新規,0,2024-08-09,2024-08-09,合同会社グッディージャパン,,合同会社,福岡県,福岡市西区,姪の浜４丁目１５－２０第１Ｋビル３Ｆ,,40,135,8190002,,,,,,,2024-08-09,1,,,,,グッディージャパン,0
1909,7290003015605,新規,0,2024-08-09,2024-08-09,ＳＯＺＯＢＯ合同会社,,合同会社,福岡県,宗像市,天平台６４１番地５プログレッソＩＩ１０３号,00135894,40,220,8113407,,,,,,,2024-08-09,1,,,,,ソゾボ,0
1915,7320001020660,新規,0,2024-08-09,2024-08-09,株式会社ＳＵＮ,,株式会社,大分県,大分市,大字森町４９３番地の１アベニュー花の木４０３,,44,201,8700127,,,,,,,2024-08-09,1,,,,,サン,0
1917,7330001032325,新規,0,2024-08-09,2024-08-09,株式会社アストラ機電工業,,株式会社,熊本県,玉名市,岱明町高道１７８１番地,,43,206,8690202,,,,,,,2024-08-09,1,,,,,アストラキデンコウギョウ,0
1918,7330003010510,新規,0,2024-08-09,2024-08-09,合同会社ヤマショウ,,合同会社,熊本県,葦北郡津奈木町,大字千代６５４番地１,,43,484,8695601,,,,,,,2024-08-09,1,,,,,ヤマショウ,0
1919,7330003010519,新規,0,2024-08-09,2024-08-09,合同会社ライフベクトル,,合同会社,熊本県,熊本市西区,城山下代１丁目３－７－１,,43,103,8600066,,,,,,,2024-08-09,1,,,,,ライフベクトル,0
1920,7350005006249,新規,0,2024-08-09,2024-08-09,一般社団法人清香会,,その他の設立登記法人,宮崎県,北諸県郡三股町,大字樺山３１１１番地１Ａ棟,,45,341,8891901,,,,,,,2024-08-09,1,,,,,セイコウカイ,0
1924,7370001051627,新規,0,2024-08-09,2024-08-09,株式会社京和,,株式会社,宮城県,多賀城市,八幡４丁目７番６６号,,04,209,9850874,,,,,,,2024-08-09,1,,,,,キョウワ,0
1928,7400003003309,新規,0,2024-08-09,2024-08-09,合同会社ゲン,,合同会社,岩手県,盛岡市,東緑が丘２５番２４号,,03,201,0200112,,,,,,,2024-08-09,1,,,,,ゲン,0
1931,7410003003968,新規,0,2024-08-09,2024-08-09,合同会社ＤＩＧＧＥＲ,,合同会社,秋田県,大仙市,長野字新山１９５番地１,,05,212,0140207,,,,,,,2024-08-09,1,,,,,,0
1939,7430003016670,新規,0,2024-08-09,2024-08-09,ＰＯＷＤＥＲ８合同会社,,合同会社,北海道,札幌市中央区,南五条西１５丁目２番３号リズム医大前５０３号室,,01,101,0640805,,,,,,,2024-08-09,1,,,,,パウダーエイト,0
1953,8010001247326,新規,0,2024-08-09,2024-08-09,株式会社Ｍ＆Ｆ,,株式会社,東京都,中央区,銀座１丁目１２－４Ｎ＆Ｅ、ＢＬＤ．７階,,13,102,1040061,,,,,,,2024-08-09,1,,,,,エムアンドエフ,0
1954,8010001247359,新規,0,2024-08-09,2024-08-09,ＡＲＫ　ＨＯＬＤＩＮＧＳ株式会社,,株式会社,東京都,千代田区,九段南１丁目６番５号九段会館テラス,,13,101,1020074,,,,,,,2024-08-09,1,,,,,アークホールディングス,0
1957,8010003044589,新規,0,2024-08-09,2024-08-09,合同会社ＫＵＲＥＮＡＩ,,合同会社,東京都,千代田区,丸の内１丁目４番１号東京共同会計事務所内,,13,101,1000005,,,,,,,2024-08-09,1,,,,,クレナイ,0
1960,8010005038614,新規,0,2024-08-09,2024-08-09,一般社団法人ジュピター,,その他の設立登記法人,東京都,千代田区,二番町３番地麹町スクエア株式会社シリウス・アドバイザリー内,,13,101,1020084,,,,,,,2024-08-09,1,,,,,ジュピター,0
1961,8010005038622,新規,0,2024-08-09,2024-08-09,一般社団法人ベンチャーサポート,,その他の設立登記法人,東京都,文京区,大塚５丁目１８－２３－３０６,,13,105,1120012,,,,,,,2024-08-09,1,,,,,ベンチャーサポート,0
1964,8010401184334,新規,0,2024-08-09,2024-08-09,株式会社ノーヴェ,,株式会社,東京都,港区,南青山３丁目１番３６号青山丸竹ビル６Ｆ,,13,103,1070062,,,,,,,2024-08-09,1,,,,,ノーヴェ,0
1965,8010401184367,新規,0,2024-08-09,2024-08-09,ＡＬＩＶＥ株式会社,,株式会社,東京都,港区,東麻布３－４－１９パークアビタシオン麻布十番２０３,,13,103,1050000,,,,,,,2024-08-09,1,,,,,アライブ,0
1966,8010405023430,新規,0,2024-08-09,2024-08-09,一般社団法人凰晴会,,その他の設立登記法人,東京都,港区,高輪３丁目１６番８－１０６号,,13,103,1080074,,,,,,,2024-08-09,1,,,,,コウセイカイ,0
1968,8010501052688,新規,0,2024-08-09,2024-08-09,ＭＡＳＡＨＩＲＯ株式会社,,株式会社,東京都,台東区,台東１丁目２９－３－３０９室,,13,106,1100016,,,,,,,2024-08-09,1,,,,,マサヒロ,0
1970,8010601065730,新規,0,2024-08-09,2024-08-09,株式会社Ｂ,,株式会社,東京都,江東区,青海２丁目７番４号,,13,108,1350064,,,,,,,2024-08-09,1,,,,,ビー,0
1973,8010701046382,新規,0,2024-08-09,2024-08-09,マーケティング・キャピタル株式会社,,株式会社,東京都,品川区,西五反田２丁目９番７号ドルミ五反田アンメゾン４０７,,13,109,1410031,,,,,,,2024-08-09,1,,,,,マーケティングキャピタル,0
1977,8010803005055,新規,0,2024-08-09,2024-08-09,合同会社ＭＷ,,合同会社,東京都,大田区,大森東４丁目３９番３号ベルエール伊東１０２,,13,111,1430012,,,,,,,2024-08-09,1,,,,,エムダブリュー,0
1985,8011001163785,新規,0,2024-08-09,2024-08-09,Ｏｎｚｅ株式会社,,株式会社,東京都,渋谷区,西原１丁目２４番９号,,13,113,1510066,,,,,,,2024-08-09,1,,,,,オーンズ,0
1986,8011001163851,新規,0,2024-08-09,2024-08-09,株式会社キングフォーラムリミテッド,,株式会社,東京都,渋谷区,代々木１丁目３０番１５号天翔代々木ビルＳ５１９号室,,13,113,1510053,,,,,,,2024-08-09,1,,,,,キングフォーラムリミテッド,0
1987,8011001163901,新規,0,2024-08-09,2024-08-09,株式会社ＨａＲｅエージェンシー,,株式会社,東京都,渋谷区,道玄坂１丁目１０番８号渋谷道玄坂東急ビル２Ｆ－Ｃ,,13,113,1500043,,,,,,,2024-08-09,1,,,,,ハレエージェンシー,0
1989,8011003019705,新規,0,2024-08-09,2024-08-09,合同会社ゆえん,,合同会社,東京都,目黒区,鷹番２丁目１９－２２ｇｆｉｅｓｔａ３Ｆ,,13,110,1520004,,,,,,,2024-08-09,1,,,,,ユエン,0
1990,8011005010637,新規,0,2024-08-09,2024-08-09,一般社団法人まちのコレクティブ,,その他の設立登記法人,東京都,渋谷区,桜丘町２３番１７号シティコート桜丘４０８,,13,113,1500031,,,,,,,2024-08-09,1,,,,,マチノコレクティブ,0
1992,8011101108310,新規,0,2024-08-09,2024-08-09,ＦＵＫＵＲＯＵ株式会社,,株式会社,東京都,新宿区,歌舞伎町２丁目４番１１号ノア新宿一号館２０７,,13,104,1600021,,,,,,,2024-08-09,1,,,,,フクロウ,0
1993,8011101108335,新規,0,2024-08-09,2024-08-09,株式会社ｋｕｋｕ,,株式会社,東京都,新宿区,中落合１丁目１７番３号ヤスダビル１Ｆ,,13,104,1610032,,,,,,,2024-08-09,1,,,,,クク,0
2000,8011601027951,新規,0,2024-08-09,2024-08-09,株式会社ＢＬＵＥ７‐Ｄｅｓｉｇｎｓ．,,株式会社,東京都,練馬区,大泉学園町８丁目２８番１－３０５号,,13,120,1780061,,,,,,,2024-08-09,1,,,,,ブルーセブンデザインズ,0
2001,8011601027968,新規,0,2024-08-09,2024-08-09,株式会社清水屋,,株式会社,東京都,練馬区,土支田１丁目１番３７号,,13,120,1790076,,,,,,,2024-08-09,1,,,,,シミズヤ,0
2003,8011701027513,新規,0,2024-08-09,2024-08-09,山令株式会社,,株式会社,東京都,江戸川区,江戸川６丁目４０番１４－１２２号,,13,123,1340013,,,,,,,2024-08-09,1,,,,,サンレイ,0
2004,8011703003941,新規,0,2024-08-09,2024-08-09,まいきゅうらく合同会社,,合同会社,東京都,江戸川区,南小岩５丁目１８番２３号,,13,123,1330056,,,,,,,2024-08-09,1,,,,,マイキュウラク,0
2005,8011801044631,新規,0,2024-08-09,2024-08-09,三福株式会社,,株式会社,東京都,足立区,千住大川町２１番７号,,13,121,1200031,,,,,,,2024-08-09,1,,,,,ミフク,0
2013,8012803003484,新規,0,2024-08-09,2024-08-09,合同会社ヤマト不動産鑑定,,合同会社,東京都,国分寺市,東元町２丁目１７番２５号,,13,214,1850022,,,,,,,2024-08-09,1,,,,,ヤマトフドウサンカンテイ,0
2014,8012805003284,新規,0,2024-08-09,2024-08-09,くじら土地家屋調査士法人,,その他の設立登記法人,東京都,昭島市,玉川町３丁目１６番１５号,,13,207,1960034,,,,,,,2024-08-09,1,,,,,クジラ,0
2017,8013303007249,新規,0,2024-08-09,2024-08-09,合同会社モダンラボ,,合同会社,東京都,豊島区,池袋２丁目５８番９号清水ビル４０１号,,13,116,1710014,,,,,,,2024-08-09,1,,,,,モダンラボ,0
2021,8020001158398,新規,0,2024-08-09,2024-08-09,株式会社ランクアップ,,株式会社,神奈川県,川崎市中原区,小杉町３丁目１５０１番地セントア武蔵小杉Ｂ棟７－３０１,,14,133,2110063,,,,,,,2024-08-09,1,,,,,ランクアップ,0
2022,8021001082943,新規,0,2024-08-09,2024-08-09,株式会社エイムワン,,株式会社,神奈川県,平塚市,南原３丁目６番２１号高明ビル２０２,,14,203,2540065,,,,,,,2024-08-09,1,,,,,エイムワン,0
2030,8030001161822,新規,0,2024-08-09,2024-08-09,巧国際株式会社,,株式会社,埼玉県,川口市,西川口１丁目１１番１仁志町ハイツ１階,,11,203,3320021,,,,,,,2024-08-09,1,,,,,タクミコクサイ,0
2031,8030001161830,新規,0,2024-08-09,2024-08-09,株式会社ＴＨＲＥＥ,,株式会社,埼玉県,春日部市,樋籠６３６番地１４,,11,214,3440002,,,,,,,2024-08-09,1,,,,,スリー,0
2032,8030001161871,新規,0,2024-08-09,2024-08-09,株式会社ＳＡＫＵＲＡ　ＩＮＤＵＳＴＲＹ,,株式会社,埼玉県,狭山市,大字北入曽１５０８番地４５,,11,215,3501315,,,,,,,2024-08-09,1,,,,,サクラインダストリー,0
2033,8030001161896,新規,0,2024-08-09,2024-08-09,三立株式会社,,株式会社,埼玉県,川口市,西川口１丁目３０番２０－２０３室,,11,203,3320021,,,,,,,2024-08-09,1,,,,,サンリツ,0
2041,8040001134868,新規,0,2024-08-09,2024-08-09,株式会社ＫＴｓｅｒｖｉｃｅ,,株式会社,千葉県,松戸市,三ケ月１２８７番地の１,,12,207,2700026,,,,,,,2024-08-09,1,,,,,ケーティーサービス,0
2052,8050003008598,新規,0,2024-08-09,2024-08-09,合同会社ＡＳカンパニー,,合同会社,茨城県,土浦市,桜町１丁目２０－１香寿美ビル１Ｆ,,08,203,3000037,,,,,,,2024-08-09,1,,,,,エーエスカンパニー,0
2059,8070001042085,新規,0,2024-08-09,2024-08-09,ＮＥＸＴ・ＢＬＵＥ株式会社,,株式会社,群馬県,伊勢崎市,東上之宮町２８６－１,,10,204,3720815,,,,,,,2024-08-09,1,,,,,ネクストブルー,0
2065,8080405007658,新規,0,2024-08-09,2024-08-09,社会保険労務士法人Ｍ＆パートナーズ,,その他の設立登記法人,静岡県,浜松市中央区,三方原町２４７番地の１,,22,138,4338105,,,,,,,2024-08-09,1,,,,,エムアンドパートナーズ,0
2068,8090001018851,新規,0,2024-08-09,2024-08-09,株式会社おつまみ,,株式会社,山梨県,笛吹市,石和町松本１８３番地１,,19,211,4060021,,,,,,,2024-08-09,1,,,,,オツマミ,0
2073,8110003005481,新規,0,2024-08-09,2024-08-09,合同会社新潟よろずコンサルティング,,合同会社,新潟県,新潟市中央区,西堀通４番町２５９番地４１,,15,103,9518061,,,,,,,2024-08-09,1,,,,,ニイガタヨロズコンサルティング,0
2092,8120001267478,新規,0,2024-08-09,2024-08-09,阪神建託株式会社,,株式会社,大阪府,大阪市中央区,高津１丁目１０－１８栄光ビル２０１,,27,128,5420072,,,,,,,2024-08-09,1,,,,,ハンシンケンタク,0
2093,8120001267619,新規,0,2024-08-09,2024-08-09,和宿株式会社,,株式会社,大阪府,大阪市中央区,島之内２丁目８番２９－５０５号,,27,128,5420082,,,,,,,2024-08-09,1,,,,,ワヤド,0
2094,8120001267627,新規,0,2024-08-09,2024-08-09,ランドスター株式会社,,株式会社,大阪府,大阪市浪速区,大国３丁目１１番２１池田マンション７０３号室,,27,111,5560014,,,,,,,2024-08-09,1,,,,,ランドスター,0
2095,8120001267643,新規,0,2024-08-09,2024-08-09,ＹＯＵＰＰＩＥ国際株式会社,,株式会社,大阪府,大阪市浪速区,恵美須東１丁目３番８号,,27,111,5560002,,,,,,,2024-08-09,1,,,,,ユッピーコクサイ,0
2105,8120901049562,新規,0,2024-08-09,2024-08-09,ＨＯＭＥ株式会社,,株式会社,大阪府,吹田市,古江台６丁目２番５８号,,27,205,5650874,,,,,,,2024-08-09,1,,,,,ホーム,0
2109,8120903005299,新規,0,2024-08-09,2024-08-09,合同会社リンクス,,合同会社,大阪府,高槻市,大塚町３丁目３３番１０号,,27,207,5690034,,,,,,,2024-08-09,1,,,,,リンクス,0
2115,8130001077661,新規,0,2024-08-09,2024-08-09,株式会社Ｉｍｐｒｏｖｅ,,株式会社,京都府,木津川市,山城町北河原古屋敷９６番地カームブリーズ木津川１０１,,26,214,6190206,,,,,,,2024-08-09,1,,,,,インプルーブ,0
2121,8140001135468,新規,0,2024-08-09,2024-08-09,Ｃａｒｅ不動産株式会社,,株式会社,兵庫県,神戸市垂水区,平磯４丁目３番２１号,,28,108,6550892,,,,,,,2024-08-09,1,,,,,ケアフドウサン,0
2122,8140001135476,新規,0,2024-08-09,2024-08-09,株式会社ＬＵＣＫ,,株式会社,兵庫県,神戸市北区,惣山町１丁目５－１２,,28,109,6511145,,,,,,,2024-08-09,1,,,,,ラック,0
2129,8160001026137,新規,0,2024-08-09,2024-08-09,株式会社エル商会,,株式会社,滋賀県,彦根市,日夏町３８８４番地,,25,202,5220047,,,,,,,2024-08-09,1,,,,,エルショウカイ,0
2136,8180001162707,新規,0,2024-08-09,2024-08-09,Ｍ‐ｐｌｕｓ株式会社,,株式会社,愛知県,名古屋市北区,大曽根３丁目１０番７号,,23,103,4620825,,,,,,,2024-08-09,1,,,,,エムプラス,0
2137,8180001162731,新規,0,2024-08-09,2024-08-09,ＢｕｌＲｉｃｈｍａｎ株式会社,,株式会社,愛知県,名古屋市中村区,上米野町１丁目３０番地の３,,23,105,4530809,,,,,,,2024-08-09,1,,,,,ブリッチマン,0
2138,8180001162756,新規,0,2024-08-09,2024-08-09,株式会社アーロ,,株式会社,愛知県,東海市,加木屋町社山３５６番地,,23,222,4770032,,,,,,,2024-08-09,1,,,,,アーロ,0
2139,8180001162772,新規,0,2024-08-09,2024-08-09,株式会社ＴＯＰ　ＴＥＡＭ,,株式会社,愛知県,名古屋市南区,元柴田西町１丁目１８番地の１,,23,112,4570817,,,,,,,2024-08-09,1,,,,,トップチーム,0
2144,8180003027164,新規,0,2024-08-09,2024-08-09,合同会社ニジイロランプ,,合同会社,愛知県,瀬戸市,掛下町２丁目５７番地の１,,23,204,4890966,,,,,,,2024-08-09,1,,,,,ニジイロランプ,0
2145,8180003027180,新規,0,2024-08-09,2024-08-09,ＦＰサポート合同会社,,合同会社,愛知県,名古屋市守山区,大字上志段味字東谷２０８６番地の７２,,23,113,4630001,,,,,,,2024-08-09,1,,,,,エフピーサポート,0
2146,8180005020729,新規,0,2024-08-09,2024-08-09,一般社団法人介護の現場からより良い社会を考える会,,その他の設立登記法人,愛知県,名古屋市熱田区,五番町９番Ａ－２０６号（五番町住宅）,,23,109,4560057,,,,,,,2024-08-09,1,,,,,カイゴノゲンバカラヨリヨイシャカイヲカンガエルカイ,0
2148,8180301038937,新規,0,2024-08-09,2024-08-09,桃基工業株式会社,,株式会社,愛知県,高浜市,向山町５丁目２番地２０,,23,227,4441313,,,,,,,2024-08-09,1,,,,,モモキコウギョウ,0
2155,8220003003813,新規,0,2024-08-09,2024-08-09,合同会社青木二階堂,,合同会社,石川県,金沢市,泉野町１丁目８番１７号,,17,201,9218034,,,,,,,2024-08-09,1,,,,,アオキニカイドウ,0
2157,8240001063683,新規,0,2024-08-09,2024-08-09,株式会社Ｌｉｎｋ,,株式会社,広島県,東広島市,西条町寺家５２１－５２,,34,212,7390041,,,,,,,2024-08-09,1,,,,,リンク,0
2158,8240001063709,新規,0,2024-08-09,2024-08-09,株式会社ＣＯＮＮＥＣＴ,,株式会社,広島県,広島市安佐南区,伴南４丁目５番１４号,,34,105,7313168,,,,,,,2024-08-09,1,,,,,コネクト,0
2162,8250001020766,新規,0,2024-08-09,2024-08-09,株式会社セイワ,,株式会社,山口県,下関市,綾羅木新町３丁目１２番２０号,,35,201,7510865,,,,,,,2024-08-09,1,,,,,セイワ,0
2165,8270001009031,新規,0,2024-08-09,2024-08-09,株式会社クラヴィスホールディングス,,株式会社,鳥取県,倉吉市,見日町３６４番地１,,31,203,6820803,,,,,,,2024-08-09,1,,,,,クラヴィスホールディングス,0
2167,8290001106652,新規,0,2024-08-09,2024-08-09,Ｈｕｂｉｔ　Ａｒｃｈｉｔｅｃｔｓ株式会社,,株式会社,福岡県,糸島市,神在東２丁目２２番１５号,,40,230,8191120,,,,,,,2024-08-09,1,,,,,ヒュービットアーキテクツ,0
2168,8290003015612,新規,0,2024-08-09,2024-08-09,合同会社ミネラルマコ,,合同会社,福岡県,福岡市中央区,黒門８番１６号セレソン大濠３０２号,,40,133,8100055,,,,,,,2024-08-09,1,,,,,ミネラルマコ,0
2169,8290801030779,新規,0,2024-08-09,2024-08-09,北九州プラント設計株式会社,,株式会社,福岡県,北九州市小倉北区,浅野３丁目８番１号ＡＩＭビル６階,,40,106,8020001,,,,,,,2024-08-09,1,,,,,キタキュウシュウプラントセッケイ,0
2170,8290801030795,新規,0,2024-08-09,2024-08-09,株式会社ＳＨＩＢＡＳＫＹ,,株式会社,福岡県,北九州市八幡西区,本城学研台１丁目６番１号,,40,109,8070807,,,,,,,2024-08-09,1,,,,,シバスキー,0
2172,8290803004806,新規,0,2024-08-09,2024-08-09,合同会社ギフテッドアップ,,合同会社,福岡県,北九州市八幡東区,中央２丁目１１番１３－１３０１号,,40,108,8050019,,,,,,,2024-08-09,1,,,,,ギフテッドアップ,0
2176,8310001019166,新規,0,2024-08-09,2024-08-09,株式会社ＫＩＮＤ,,株式会社,長崎県,諫早市,東本町８－４,,42,204,8540026,,,,,,,2024-08-09,1,,,,,カインド,0
2177,8310005008784,新規,0,2024-08-09,2024-08-09,一般社団法人ＡＬＬみらい長崎,,その他の設立登記法人,長崎県,西海市,西海町川内郷１１０６番地２８,,42,212,8513502,,,,,,,2024-08-09,1,,,,,オールミライナガサキ,0
2179,8330001032290,新規,0,2024-08-09,2024-08-09,株式会社Ｒｅ．ｉｎｃｒｍ,,株式会社,熊本県,熊本市東区,佐土原１丁目８－４５コアマンション健軍６０５,,43,102,8620916,,,,,,,2024-08-09,1,,,,,リンクローム,0
2180,8330001032349,新規,0,2024-08-09,2024-08-09,松永商店株式会社,,株式会社,熊本県,葦北郡芦北町,大字女島３８２－２,,43,482,8695564,,,,,,,2024-08-09,1,,,,,マツナガショウテン,0
2183,8360005007088,新規,0,2024-08-09,2024-08-09,社会福祉法人きづき福祉会,,その他の設立登記法人,沖縄県,沖縄市,泡瀬１丁目２１番１５号,,47,211,9042172,,,,,,,2024-08-09,1,,,,,キヅキフクシカイ,0
2186,8370001051626,新規,0,2024-08-09,2024-08-09,株式会社ＭＴＫＷｏｒｋｓ,,株式会社,宮城県,仙台市若林区,沖野６丁目７番２７号,,04,103,9840831,,,,,,,2024-08-09,1,,,,,エムティケーワークス,0
2201,8430001092440,新規,0,2024-08-09,2024-08-09,株式会社Ｐｌｕｓ　Ｏｎｅ,,株式会社,北海道,札幌市白石区,本通９丁目南７番２０号オリーブコート１０３号,,01,104,0030026,,,,,,,2024-08-09,1,,,,,プラスワン,0
2202,8430001092457,新規,0,2024-08-09,2024-08-09,株式会社ワンラック,,株式会社,北海道,札幌市豊平区,美園九条１丁目３番５号,,01,105,0620009,,,,,,,2024-08-09,1,,,,,ワンラック,0
2219,9010001247184,新規,0,2024-08-09,2024-08-09,Ｍ．Ｋ．Ｔラピッドアート株式会社,,株式会社,東京都,千代田区,神田和泉町１番地６－１６ヤマトビル４０５,,13,101,1010024,,,,,,,2024-08-09,1,,,,,エムケーティーラピッドアート,0
2220,9010001247250,新規,0,2024-08-09,2024-08-09,Ｒｏｏｔ　Ｂｏｎｅ　Ｓｔｕｄｉｏ株式会社,,株式会社,東京都,千代田区,岩本町１丁目１２－１１トーア岩本町マンション６０６,,13,101,1010032,,,,,,,2024-08-09,1,,,,,ルートボーンスタジオ,0
2221,9010001247300,新規,0,2024-08-09,2024-08-09,Ｈｕｂ　Ｇｒｏｕｐ株式会社,,株式会社,東京都,中央区,日本橋箱崎町１６番１号６Ｆ,,13,102,1030015,,,,,,,2024-08-09,1,,,,,ハブグループ,0
2222,9010001247309,新規,0,2024-08-09,2024-08-09,株式会社シティ・アンド・ビーチ,,株式会社,東京都,中央区,日本橋２丁目１番３号アーバンネット日本橋二丁目ビル１０階,,13,102,1030027,,,,,,,2024-08-09,1,,,,,シティアンドビーチ,0
2226,9010003044563,新規,0,2024-08-09,2024-08-09,合同会社リベロ,,合同会社,東京都,千代田区,東神田３丁目４－１２－５Ｆ,,13,101,1010031,,,,,,,2024-08-09,1,,,,,リベロ,0
2227,9010005038605,新規,0,2024-08-09,2024-08-09,一般社団法人国際ＳＴＥＡＭ教育推進機構,,その他の設立登記法人,東京都,中央区,新川１丁目２２番１２－６０２号,,13,102,1040033,,,,,,,2024-08-09,1,,,,,コクサイスティームキョウイクスイシンキコウ,0
2228,9010005038613,新規,0,2024-08-09,2024-08-09,一般社団法人マーズ,,その他の設立登記法人,東京都,千代田区,二番町３番地麹町スクエア株式会社シリウス・アドバイザリー内,,13,101,1020084,,,,,,,2024-08-09,1,,,,,マーズ,0
2229,9010005038621,新規,0,2024-08-09,2024-08-09,一般社団法人自給率促進機構,,その他の設立登記法人,東京都,千代田区,大手町２丁目１番１号,,13,101,1000004,,,,,,,2024-08-09,1,,,,,ジキュウリツソクシンキコウ,0
2230,9010103002405,新規,0,2024-08-09,2024-08-09,ＡＣＢ　ＪＡＰＡＮ合同会社,,合同会社,東京都,八王子市,小比企町５３０,,13,201,1930934,,,,,,,2024-08-09,1,,,,,エイシービージャパン,0
2237,9010401184341,新規,0,2024-08-09,2024-08-09,株式会社サンアローズ,,株式会社,東京都,港区,赤坂２丁目１４－１１天翔赤坂ビル６０２－Ｅ,,13,103,1070052,,,,,,,2024-08-09,1,,,,,サンアローズ,0
2238,9010401184358,新規,0,2024-08-09,2024-08-09,ミライワ株式会社,,株式会社,東京都,港区,六本木５丁目１８番２号大昌第二ビル６階,,13,103,1060032,,,,,,,2024-08-09,1,,,,,ミライワ,0
2252,9010803005054,新規,0,2024-08-09,2024-08-09,合同会社ＳＯＡＲＩＮ,,合同会社,東京都,大田区,南千束１丁目１１番６号,,13,111,1450063,,,,,,,2024-08-09,1,,,,,ソアリン,0
2256,9011001163784,新規,0,2024-08-09,2024-08-09,株式会社ビジョナス,,株式会社,東京都,渋谷区,道玄坂１丁目１８番３号,,13,113,1500043,,,,,,,2024-08-09,1,,,,,ビジョナス,0
2257,9011001163792,新規,0,2024-08-09,2024-08-09,株式会社医学根拠究明研究所,,株式会社,東京都,渋谷区,猿楽町６番１０号,,13,113,1500033,,,,,,,2024-08-09,1,,,,,イガクコンキョキュウメイケンキュウショ,0
2258,9011001163933,新規,0,2024-08-09,2024-08-09,株式会社Ｓｔａｒｌｉｇｈｔ　Ｃｈａｒｍ,,株式会社,東京都,渋谷区,恵比寿西２丁目８番４号ＥＸ恵比寿西ビル５階,,13,113,1500021,,,,,,,2024-08-09,1,,,,,スターライトチャーム,0
2259,9011003019720,新規,0,2024-08-09,2024-08-09,合同会社ＨＵＲＭ　ＴＥＣＨ,,合同会社,東京都,渋谷区,道玄坂１丁目１６番６号二葉ビル８Ｂ,,13,113,1500043,,,,,,,2024-08-09,1,,,,,ハームテック,0
2260,9011003019729,新規,0,2024-08-09,2024-08-09,ゆうわ合同会社,,合同会社,東京都,渋谷区,桜丘町２３番１７号シティコート桜丘４０８,,13,113,1500031,,,,,,,2024-08-09,1,,,,,ユウワ,0
2262,9011103014778,新規,0,2024-08-09,2024-08-09,合同会社ＩＮＡＮＮＡ,,合同会社,東京都,新宿区,西新宿３丁目３番１３号西新宿水間ビル２Ｆ,,13,104,1600023,,,,,,,2024-08-09,1,,,,,イナンナ,0
2265,9011201025719,新規,0,2024-08-09,2024-08-09,株式会社ＷＧ　Ｒ＆Ｄ,,株式会社,東京都,中野区,鷺宮３丁目４４番１０号グレースプラネット２０２,,13,114,1650032,,,,,,,2024-08-09,1,,,,,ダブリュジーアールアンドディ,0
2280,9012403006705,新規,0,2024-08-09,2024-08-09,合同会社ＳＡＫＫＡＳ,,合同会社,東京都,稲城市,東長沼２１０２番地の７パレステージ稲城１０６号室,,13,225,2060802,,,,,,,2024-08-09,1,,,,,サツカス,0
2285,9013301052956,新規,0,2024-08-09,2024-08-09,ＡＣＣＯＬＡＤＥ　ＣＯＮＳＵＬＴＩＮＧ株式会社,,株式会社,東京都,豊島区,東池袋１丁目３１番１３号４０３室,,13,116,1700013,,,,,,,2024-08-09,1,,,,,アコレードコンサルティング,0
2293,9020001158389,新規,0,2024-08-09,2024-08-09,株式会社シンプルグッドシングス,,株式会社,神奈川県,川崎市麻生区,王禅寺東４丁目３１番１８号,,14,137,2150018,,,,,,,2024-08-09,1,,,,,シンプルグッドシングス,0
2294,9020001158414,新規,0,2024-08-09,2024-08-09,株式会社ＤＸマーケティング,,株式会社,神奈川県,横浜市神奈川区,西寺尾２丁目２６,,14,102,2210001,,,,,,,2024-08-09,1,,,,,ディーエックスマーケティング,0
2295,9020001158439,新規,0,2024-08-09,2024-08-09,株式会社ＫＡＲ,,株式会社,神奈川県,横浜市中区,仲尾台７１番地２,,14,104,2310839,,,,,,,2024-08-09,1,,,,,ケーエーアール,0
2299,9020003026610,新規,0,2024-08-09,2024-08-09,合同会社ＬＯＵＤＲＯＩＤ,,合同会社,神奈川県,川崎市川崎区,日進町１３番地３グリーンハイツ井田１０３,,14,131,2100024,,,,,,,2024-08-09,1,,,,,ラウドロイド,0
2314,9021001082942,新規,0,2024-08-09,2024-08-09,株式会社松空,,株式会社,神奈川県,横須賀市,浦上台４丁目１番９号,,14,201,2390815,,,,,,,2024-08-09,1,,,,,マツクウ,0
2320,9030001161870,新規,0,2024-08-09,2024-08-09,株式会社レイカフェ,,株式会社,埼玉県,さいたま市北区,別所町１１２２番地３,,11,102,3310821,,,,,,,2024-08-09,1,,,,,レイカフェ,0
2321,9030001161895,新規,0,2024-08-09,2024-08-09,株式会社ウェイズ,,株式会社,埼玉県,本庄市,寿３丁目２－１,,11,211,3670023,,,,,,,2024-08-09,1,,,,,ウェイズ,0
2322,9030001161912,新規,0,2024-08-09,2024-08-09,株式会社マグネティックコンサルタントジャパン,,株式会社,埼玉県,熊谷市,村岡３９９番地５ダイアパレスリバーコート熊谷９０２号室,,11,202,3600162,,,,,,,2024-08-09,1,,,,,マグネティックコンサルタントジャパン,0
2325,9030003024902,新規,0,2024-08-09,2024-08-09,アルサーフィ合同会社,,合同会社,埼玉県,川口市,長蔵１丁目４番７号アメジスト東川口２０６号,,11,203,3330807,,,,,,,2024-08-09,1,,,,,アルサーフィ,0
2331,9040001134900,新規,0,2024-08-09,2024-08-09,株式会社Ｒｅａｆ,,株式会社,千葉県,習志野市,津田沼５丁目１２番１２－１０５号サンロード津田沼,,12,216,2750016,,,,,,,2024-08-09,1,,,,,リーフ,0
2332,9040001134909,新規,0,2024-08-09,2024-08-09,ＴＲＡＮＳ株式会社,,株式会社,千葉県,香取郡東庄町,新宿１１４２番地１,,12,349,2890611,,,,,,,2024-08-09,1,,,,,トランス,0
2334,9040003025560,新規,0,2024-08-09,2024-08-09,朝日総業合同会社,,合同会社,千葉県,印旛郡栄町,安食１００５番地,,12,329,2701516,,,,,,,2024-08-09,1,,,,,アサヒソウギョウ,0
2335,9040003025585,新規,0,2024-08-09,2024-08-09,合同会社アズールプロジェクト,,合同会社,千葉県,市川市,菅野４丁目１２番６号,,12,203,2720824,,,,,,,2024-08-09,1,,,,,アズールプロジェクト,0
2336,9040005022457,新規,0,2024-08-09,2024-08-09,特定非営利活動法人ＯＷＮＬＩＦＥ,,その他の設立登記法人,千葉県,船橋市,宮本８丁目６番１６号,,12,204,2730003,,,,,,,2024-08-09,1,,,,,,0
2337,9040005022465,新規,0,2024-08-09,2024-08-09,一般社団法人レジリエンスＬＡＢＯ,,その他の設立登記法人,千葉県,印西市,平賀学園台３丁目１６番８号,,12,231,2701606,,,,,,,2024-08-09,1,,,,,,0
2340,9050003008597,新規,0,2024-08-09,2024-08-09,春合同会社,,合同会社,茨城県,取手市,双葉２丁目５番２０号,,08,217,3001501,,,,,,,2024-08-09,1,,,,,ハル,0
2346,9060003005189,新規,0,2024-08-09,2024-08-09,ＳＥＦＹ合同会社,,合同会社,栃木県,下野市,緑２丁目１９番地７,,09,216,3290433,,,,,,,2024-08-09,1,,,,,エスイーエフワイ,0
2351,9070001042068,新規,0,2024-08-09,2024-08-09,株式会社ラダー・コネクト,,株式会社,群馬県,太田市,龍舞町４０２８番地２,,10,205,3730806,,,,,,,2024-08-09,1,,,,,ラダーコネクト,0
2352,9070001042076,新規,0,2024-08-09,2024-08-09,ナチュールプラネット株式会社,,株式会社,群馬県,高崎市,金古町８１３番地８,,10,202,3703511,,,,,,,2024-08-09,1,,,,,ナチュールプラネット,0
2353,9070001042084,新規,0,2024-08-09,2024-08-09,株式会社成田,,株式会社,群馬県,高崎市,江木町１３２４番地１,,10,202,3700046,,,,,,,2024-08-09,1,,,,,ナリタ,0
2354,9070001042092,新規,0,2024-08-09,2024-08-09,株式会社ｍｉｒａｅ,,株式会社,群馬県,高崎市,常盤町６３－１アベイユ常盤,,10,202,3700816,,,,,,,2024-08-09,1,,,,,ミレ,0
2364,9080401027361,新規,0,2024-08-09,2024-08-09,株式会社ＳｍｉｌｅＪａｐａｎ,,株式会社,静岡県,磐田市,見付３０２６番地,,22,211,4380086,,,,,,,2024-08-09,1,,,,,スマイルジャパン,0
2386,9120001267477,新規,0,2024-08-09,2024-08-09,株式会社ＨＩＬＬ　ＶＡＬＬＥＹ,,株式会社,大阪府,大阪市西区,北堀江２丁目２番１９号ラ・ジェラータ１Ｆ,,27,106,5500014,,,,,,,2024-08-09,1,,,,,ヒルバレー,0
2387,9120003027235,新規,0,2024-08-09,2024-08-09,ＡＣ不動産合同会社,,合同会社,大阪府,大阪市中央区,北久宝寺町２丁目１－３,,27,128,5410057,,,,,,,2024-08-09,1,,,,,エーシーフドウサン,0
2388,9120003027268,新規,0,2024-08-09,2024-08-09,恩鳴合同会社,,合同会社,大阪府,大阪市西成区,松１丁目１０番２９－２０２号,,27,122,5570034,,,,,,,2024-08-09,1,,,,,オンメイ,0
2389,9120003027276,新規,0,2024-08-09,2024-08-09,合同会社ＰＬＵＴＯ,,合同会社,大阪府,大阪市西区,京町堀２丁目１２番１９－５０２号,,27,106,5500003,,,,,,,2024-08-09,1,,,,,プルート,0
2390,9120005024494,新規,0,2024-08-09,2024-08-09,一般社団法人片岡経済研究所,,その他の設立登記法人,大阪府,大阪市福島区,海老江８丁目１２番３１号,,27,103,5530001,,,,,,,2024-08-09,1,,,,,カタオカケイザイケンキュウショ,0
2393,9120101070129,新規,0,2024-08-09,2024-08-09,盛和産業株式会社,,株式会社,大阪府,羽曳野市,西浦１２０６番地４,,27,222,5830861,,,,,,,2024-08-09,1,,,,,セイワサンギョウ,0
2394,9120101070145,新規,0,2024-08-09,2024-08-09,株式会社ホンキモード,,株式会社,大阪府,高石市,東羽衣６丁目２番５２号,,27,225,5920003,,,,,,,2024-08-09,1,,,,,ホンキモード,0
2399,9120903005298,新規,0,2024-08-09,2024-08-09,合同会社Ｈｕｍａｎ　Ｗｅａｌｔｈ,,合同会社,大阪府,茨木市,城の前町１番２０－１００３号,,27,211,5670014,,,,,,,2024-08-09,1,,,,,ヒューマンウェルス,0
2401,9122005003775,新規,0,2024-08-09,2024-08-09,一般社団法人Ｙ・Ｂｅａｒｓ,,その他の設立登記法人,大阪府,東大阪市,鴻池元町８番２１号,,27,227,5780974,,,,,,,2024-08-09,1,,,,,ワイベアーズ,0
2404,9130001077652,新規,0,2024-08-09,2024-08-09,株式会社ＳＭＡＲＴＷＯＲＫＳ,,株式会社,京都府,京都市下京区,水銀屋町６２０番地ＣＯＣＯＮ烏丸ビル４Ｆシティラボ内,,26,106,6008411,,,,,,,2024-08-09,1,,,,,スマートワークス,0
2405,9130001077677,新規,0,2024-08-09,2024-08-09,統一不動産株式会社,,株式会社,京都府,京都市右京区,山ノ内西裏町１５－８８マンハイム東雲３０５号室,,26,108,6150071,,,,,,,2024-08-09,1,,,,,トウイツフドウサン,0
2406,9130001077685,新規,0,2024-08-09,2024-08-09,株式会社花フジ,,株式会社,京都府,京都市上京区,今出川通寺町西入真如堂前町９８番地,,26,102,6020845,,,,,,,2024-08-09,1,,,,,ハナフジ,0
2407,9130003009777,新規,0,2024-08-09,2024-08-09,合同会社ＯＮプラン,,合同会社,京都府,長岡京市,天神３丁目２１０番地３６,,26,209,6170824,,,,,,,2024-08-09,1,,,,,オンプラン,0
2410,9130005017159,新規,0,2024-08-09,2024-08-09,一般社団法人烏丸ビューティーデンタルクリニック,,その他の設立登記法人,京都府,京都市中京区,鍵屋町４８１番４プチパレス烏丸御池１階,,26,104,6040801,,,,,,,2024-08-09,1,,,,,カラスマビューティーデンタルクリニック,0
2427,9180001162623,新規,0,2024-08-09,2024-08-09,株式会社Ｘ‐Ｃｕｌｔｕｒｅ,,株式会社,愛知県,津島市,蛭間町字逆川東８７７番地,,23,208,4960004,,,,,,,2024-08-09,1,,,,,クロスカルチャー,0
2428,9180001162672,新規,0,2024-08-09,2024-08-09,株式会社Ｔ２,,株式会社,愛知県,名古屋市中区,新栄２丁目４１番１１号ベストビル３階,,23,106,4600007,,,,,,,2024-08-09,1,,,,,ティーツー,0
2429,9180001162714,新規,0,2024-08-09,2024-08-09,株式会社アテナキューブ,,株式会社,愛知県,名古屋市緑区,大清水５丁目１７３７番地１,,23,114,4580805,,,,,,,2024-08-09,1,,,,,アテナキューブ,0
2430,9180001162730,新規,0,2024-08-09,2024-08-09,株式会社ＷＨＳ総合サポート,,株式会社,愛知県,名古屋市港区,十一屋２丁目２００番地,,23,111,4550831,,,,,,,2024-08-09,1,,,,,ダブリュエイチエスソウゴウサポート,0
2431,9180001162747,新規,0,2024-08-09,2024-08-09,株式会社聖和装業,,株式会社,愛知県,豊明市,間米町敷田１２７１番地４３,,23,229,4701132,,,,,,,2024-08-09,1,,,,,セイワソウギョウ,0
2432,9180001162755,新規,0,2024-08-09,2024-08-09,株式会社日翔産業,,株式会社,愛知県,名古屋市南区,元塩町１丁目７番地の１０,,23,112,4570823,,,,,,,2024-08-09,1,,,,,ニッショウサンギョウ,0
2433,9180001162788,新規,0,2024-08-09,2024-08-09,株式会社Ｐｏｎｏ,,株式会社,愛知県,東海市,荒尾町下平子１番地の７３,,23,222,4760003,,,,,,,2024-08-09,1,,,,,ポノ,0
2442,9180301038969,新規,0,2024-08-09,2024-08-09,株式会社ＭＩＫＯＴＯ,,株式会社,愛知県,蒲郡市,形原町北淀尻１９番地３４,,23,214,4430104,,,,,,,2024-08-09,1,,,,,ミコト,0
2443,9180303006222,新規,0,2024-08-09,2024-08-09,リユテク合同会社,,合同会社,愛知県,豊橋市,旭町字旭１８３番地１（２０１）,,23,201,4400057,,,,,,,2024-08-09,1,,,,,リユテク,0
2448,9200003006445,新規,0,2024-08-09,2024-08-09,合同会社テックバイ,,合同会社,岐阜県,各務原市,鵜沼朝日町２丁目５７番地３,,21,213,5090145,,,,,,,2024-08-09,1,,,,,テックバイ,0
2453,9220001026154,新規,0,2024-08-09,2024-08-09,愛の風カンパニー株式会社,,株式会社,石川県,金沢市,高畠１丁目３６８番地,,17,201,9218001,,,,,,,2024-08-09,1,,,,,アイノカゼカンパニー,0
2454,9220003003812,新規,0,2024-08-09,2024-08-09,合同会社ＨＯＮＪＩＮ,,合同会社,石川県,金沢市,泉が丘２丁目１２番１３号,,17,201,9218035,,,,,,,2024-08-09,1,,,,,ホンジン,0
2456,9230003002268,新規,0,2024-08-09,2024-08-09,合同会社ユーエイチオー,,合同会社,富山県,富山市,茶屋町６１１番地４,,16,201,9300115,,,,,,,2024-08-09,1,,,,,ユーエイチオー,0
2462,9240001063708,新規,0,2024-08-09,2024-08-09,株式会社Ｉｎｆｉｎｉ　Ｉｎｎｏｖａｔｉｏｎ,,株式会社,広島県,広島市南区,京橋町一丁目７番,,34,103,7320828,,,,,,,2024-08-09,1,,,,,アンフィニイノベーション,0
2463,9240003006805,新規,0,2024-08-09,2024-08-09,合同会社まつもと,,合同会社,広島県,広島市佐伯区,石内東２丁目６番１０号,,34,108,7315162,,,,,,,2024-08-09,1,,,,,マツモト,0
2477,9290001106602,新規,0,2024-08-09,2024-08-09,株式会社ネクストフィード,,株式会社,福岡県,福岡市中央区,天神２丁目２番１２号Ｔ＆Ｊビルディング７Ｆ,,40,133,8100001,,,,,,,2024-08-09,1,,,,,ネクストフィード,0
2478,9290001106619,新規,0,2024-08-09,2024-08-09,株式会社ｍｅｔｅｏｒＮ,,株式会社,福岡県,福岡市中央区,春吉３丁目３番２号春吉リバーサイドテラス２０１,,40,133,8100003,,,,,,,2024-08-09,1,,,,,メテオエヌ,0
2479,9290001106627,新規,0,2024-08-09,2024-08-09,株式会社ソレーユ,,株式会社,福岡県,福岡市中央区,清川２丁目１９番１２号,,40,133,8100005,,,,,,,2024-08-09,1,,,,,ソレーユ,0
2482,9290003015636,新規,0,2024-08-09,2024-08-09,合同会社山のぼせ,,合同会社,福岡県,朝倉郡東峰村,大字小石原８６８番地１,,40,448,8381601,,,,,,,2024-08-09,1,,,,,ヤマノボセ,0
2486,9290803004813,新規,0,2024-08-09,2024-08-09,合同会社虹の里,,合同会社,福岡県,北九州市門司区,吉志１丁目２６番６号,,40,101,8000114,,,,,,,2024-08-09,1,,,,,ニジノサト,0
2490,9310003004834,新規,0,2024-08-09,2024-08-09,合同会社マクロ,,合同会社,長崎県,東彼杵郡東彼杵町,彼杵宿郷６５９番地３,,42,321,8593807,,,,,,,2024-08-09,1,,,,,マクロ,0
2491,9320001020659,新規,0,2024-08-09,2024-08-09,株式会社池見林産工業,,株式会社,大分県,大分市,大字佐野７４４番地の１,,44,201,8700315,,,,,,,2024-08-09,1,,,,,イケミリンサンコウギョウ,0
2492,9330001032323,新規,0,2024-08-09,2024-08-09,株式会社モックム,,株式会社,熊本県,熊本市南区,十禅寺２丁目１４番８号,,43,104,8600824,,,,,,,2024-08-09,1,,,,,モックム,0
2493,9330003010509,新規,0,2024-08-09,2024-08-09,岩盛産業合同会社,,合同会社,熊本県,熊本市東区,長嶺東２丁目３９－３,,43,102,8618038,,,,,,,2024-08-09,1,,,,,イワモリサンギョウ,0
2495,9340001026712,新規,0,2024-08-09,2024-08-09,株式会社中川工業,,株式会社,鹿児島県,薩摩川内市,永利町４１３４番地８６,,46,215,8950005,,,,,,,2024-08-09,1,,,,,ナカガワコウギョウ,0
2503,9370001051625,新規,0,2024-08-09,2024-08-09,アツミ自動車販売株式会社,,株式会社,宮城県,仙台市宮城野区,中野字神明１３６番地の１,,04,102,9830013,,,,,,,2024-08-09,1,,,,,アツミジドウシャハンバイ,0
2504,9370001051633,新規,0,2024-08-09,2024-08-09,ネクサム東北株式会社,,株式会社,宮城県,仙台市青葉区,愛子中央１丁目７番６号ＨＩＲＯ２０６,,04,101,9893128,,,,,,,2024-08-09,1,,,,,ネクサムトウホク,0
2523,9500001025813,新規,0,2024-08-09,2024-08-09,株式会社メリーファ,,株式会社,愛媛県,西条市,北条１１８８番地９,,38,206,7991354,,,,,,,2024-08-09,1,,,,,メリーファ,0
2524,9500003003305,新規,0,2024-08-09,2024-08-09,合同会社ＵＫＩ　ＵＫＩ,,合同会社,愛媛県,大洲市,徳森２７２１番地４,,38,207,7950061,,,,,,,2024-08-09,1,,,,,ウキウキ,0
