sequenceNumber,corporateNumber,process,correct,updateDate,changeDate,name,nameImageId,kind,prefectureName,cityName,streetNumber,addressImageId,prefectureCode,cityCode,postCode,addressOutside,addressOutsideImageId,closeDate,closeCause,successorCorporateNumber,changeCause,assignmentDate,latest,enName,enPrefectureName,enCityName,enAddressOutside,furigana,hihyoji
16,1010005027961,登記記録の閉鎖等,0,2025-04-23,2025-04-15,一般社団法人クリスタ,,その他の設立登記法人,東京都,中央区,日本橋１丁目４番１号日本橋一丁目ビルディング,,13,102,1030027,,,2025-04-15,清算の結了等,,,2018-01-16,1,,,,,クリスタ,0
23,1010103001612,登記記録の閉鎖等,0,2025-04-23,2025-04-21,ロカダジャパン合同会社,,合同会社,東京都,八王子市,明神町３丁目２０番５号エイトビル３Ｆ,,13,201,1920046,,,2025-04-21,清算の結了等,,,2020-11-17,1,,,,,,0
29,1010401174886,登記記録の閉鎖等,0,2025-04-23,2025-04-21,ＭＩＺＵＨＩＫＩ　ＴＲＡＤＥ株式会社,,株式会社,東京都,港区,南青山２丁目２番１５号ＷｉｎＡｏｙａｍａビルＵＣＦ６３５,,13,103,1070062,,,2025-04-21,合併による解散等,2010001237035,令和７年４月１日東京都千代田区霞が関三丁目６－１５株式会社ＭＩＺＵＨＩＫＩ（2010001237035）に合併し解散,2023-06-12,1,,,,,ミズヒキトレード,0
42,1010601011419,登記記録の閉鎖等,0,2025-04-23,2025-04-10,杉山建設工業株式会社,,株式会社,東京都,墨田区,押上２丁目１９番２０号,,13,107,1310045,,,2025-04-10,清算の結了等,,,2015-10-05,1,,,,,スギヤマケンセツコウギョウショ,0
45,1010701017464,登記記録の閉鎖等,0,2025-04-23,2025-04-21,富士フイルムパシフィックビジネスコンサルティング株式会社,,株式会社,東京都,品川区,東品川２丁目２番４号,,13,109,1400002,,,2025-04-21,合併による解散等,6011101032933,令和７年４月１日東京都新宿区西新宿五丁目１番１号富士フイルムデジタルソリューションズ株式会社（6011101032933）に合併し解散,2015-10-05,1,,,,,フジフイルムパシフィックビジネスコンサルティング,0
55,1011001047813,登記記録の閉鎖等,0,2025-04-23,2025-04-21,株式会社代々木塾,,株式会社,東京都,北区,中十条２丁目１０－２,,13,117,1140032,,,2025-04-21,清算の結了等,,,2015-10-05,1,,,,,ヨヨギジュク,0
56,1011001105728,登記記録の閉鎖等,0,2025-04-23,2025-04-21,株式会社間を結ぶ,,株式会社,北海道,日高郡新ひだか町,静内古川町２丁目１番２０号,,01,610,0560014,,,2025-04-21,清算の結了等,,,2015-10-05,1,,,,,アイダヲムスブ,0
57,1011001116700,登記記録の閉鎖等,0,2025-04-23,2025-04-07,モーメント株式会社,,株式会社,東京都,渋谷区,猿楽町１８番８号,,13,113,1500033,,,2025-04-07,清算の結了等,,,2017-06-06,1,,,,,モーメント,0
86,1013102002424,登記記録の閉鎖等,0,2025-04-23,2025-04-21,有限会社秋川弁当,,有限会社,東京都,あきる野市,二宮１１２１番地４,,13,228,1970814,,,2025-04-21,清算の結了等,,,2015-10-05,1,,,,,アキガワベントウ,0
89,1013301029945,登記記録の閉鎖等,0,2025-04-23,2025-04-16,向日葵食品株式会社,,株式会社,東京都,北区,神谷３丁目１１番１－１０１５号,,13,117,1150043,,,2025-04-16,清算の結了等,,,2015-10-05,1,,,,,ヒマワリショクヒン,0
102,1021002047621,登記記録の閉鎖等,0,2025-04-23,2025-04-18,有限会社イーシティーコーポレーション,,有限会社,神奈川県,大和市,中央林間４丁目１０番１８号中林ハイム２０２号,,14,213,2420007,,,2025-04-18,清算の結了等,,,2015-10-05,1,,,,,イーシティーコーポレーション,0
117,1040002056894,登記記録の閉鎖等,0,2025-04-23,2025-04-07,有限会社アップルエンタープライズ,,有限会社,千葉県,白井市,冨士２９９番地の４,,12,232,2701432,,,2025-04-07,清算の結了等,,,2015-10-05,1,,,,,アップルエンタープライズ,0
127,1070002034022,登記記録の閉鎖等,0,2025-04-23,2025-04-10,有限会社谷脇商店,,有限会社,群馬県,館林市,本町１丁目４番３０号,,10,207,3740024,,,2025-04-10,清算の結了等,,,2023-10-27,1,,,,,タニワキショウテン,0
134,1090005007114,登記記録の閉鎖等,0,2025-04-23,2025-04-08,一般社団法人甲府まちづくりラボラトリー,,その他の設立登記法人,山梨県,甲府市,中央１丁目５番６号１階,,19,201,4000032,,,2025-04-08,清算の結了等,,,2017-09-07,1,,,,,コウフマチヅクリラボラトリー,0
169,1122001026408,登記記録の閉鎖等,0,2025-04-23,2025-04-21,株式会社コロロポップ,,株式会社,大阪府,大阪市西区,南堀江１丁目１６番９－４１５号,,27,106,5500015,,,2025-04-21,清算の結了等,,,2015-10-05,1,,,,,コロロポップ,0
173,1122002015302,登記記録の閉鎖等,0,2025-04-23,2025-04-08,有限会社河内レース,,有限会社,大阪府,柏原市,太平寺１丁目９番１８号,,27,221,5820017,,,2025-04-08,清算の結了等,,,2015-10-05,1,,,,,カワチレース,0
214,1210002010017,登記記録の閉鎖等,0,2025-04-23,2025-04-17,四ツ井化学有限会社,,有限会社,福井県,大野市,堂本第１２号５番地１,,18,205,9120013,,,2025-04-17,清算の結了等,,,2015-10-05,1,,,,,ヨツイカガク,0
226,1260001000765,登記記録の閉鎖等,0,2025-04-23,2025-04-03,株式会社ＺＥＲＯ’ｓコンストラクション,,株式会社,岡山県,岡山市中区,藤崎５６４番地の３,,33,102,7028006,,,2025-04-03,清算の結了等,,,2018-05-21,1,,,,,ゼロズコンストラクション,0
234,1290001092073,登記記録の閉鎖等,0,2025-04-23,2025-04-07,株式会社コメカラカンパニー,,株式会社,福岡県,久留米市,三潴町福光３５２番地,,40,203,8300114,,,2025-04-07,清算の結了等,,,2021-02-22,1,,,,,コメカラカンパニー,0
266,1370001047382,登記記録の閉鎖等,0,2025-04-23,2025-03-17,株式会社千台地所,,株式会社,宮城県,石巻市,渡波町１丁目２番２７号,,04,202,9862121,,,2025-03-17,合併による解散等,1110001031998,令和６年１２月１７日宮城県石巻市渡波町一丁目２番２７号株式会社千台ホールディングス（1110001031998）に合併し解散,2021-07-28,1,,,,,センダイジショ,0
273,1380002010173,登記記録の閉鎖等,0,2025-04-23,2025-04-10,有限会社鈴木左官工務店,,有限会社,福島県,郡山市,大町２丁目１２番１１号,,07,203,9638001,,,2025-04-10,清算の結了等,,,2015-10-05,1,,,,,スズキサカンコウムテン,0
284,1410002008981,登記記録の閉鎖等,0,2025-04-23,2025-04-10,有限会社川鐵工業,,有限会社,秋田県,大館市,比内町扇田字新大堤下１１１番地３,,05,204,0185701,,,2025-04-10,清算の結了等,,,2015-10-05,1,,,,,カワテツコウギョウ,0
290,1430001073059,登記記録の閉鎖等,0,2025-04-23,2025-04-21,株式会社ティーツーコロニー,,株式会社,北海道,札幌市白石区,南郷通７丁目北５番１号,,01,104,0030023,,,2025-04-21,清算の結了等,,,2017-01-10,1,,,,,ティーツーコロニー,0
296,1430002056302,登記記録の閉鎖等,0,2025-04-23,2025-04-21,有限会社佐々木商店,,有限会社,北海道,余市郡余市町,黒川町４丁目１１４番地,,01,408,0460003,,,2025-04-21,清算の結了等,,,2015-10-05,1,,,,,,0
349,2010605001704,登記記録の閉鎖等,0,2025-04-23,2025-04-07,特定非営利活動法人あゆみの会,,その他の設立登記法人,東京都,江東区,北砂５丁目１番１６号,,13,108,1360073,,,2025-04-07,清算の結了等,,,2015-10-05,1,,,,,アユミノカイ,0
358,2011001127093,登記記録の閉鎖等,0,2025-04-23,2025-04-14,Ｓｎｅａｋｅｒｓｎｓｔｕｆｆ　Ｊａｐａｎ株式会社,,株式会社,東京都,渋谷区,渋谷３丁目５番１６号,,13,113,1500002,,,2025-04-14,清算の結了等,,,2019-03-18,1,,,,,スニーカーズエンスタッフジャパン,0
377,2011602004963,登記記録の閉鎖等,0,2025-04-23,2025-04-07,有限会社山出組,,有限会社,東京都,渋谷区,笹塚２丁目３０番９号シャトレー笹塚３０４,,13,113,1510073,,,2025-04-07,清算の結了等,,,2015-10-05,1,,,,,,0
390,2012402003461,登記記録の閉鎖等,0,2025-04-23,2025-04-08,有限会社車屋,,有限会社,東京都,国分寺市,東恋ヶ窪４丁目２６番地１,,13,214,1850014,,,2025-04-08,清算の結了等,,,2015-10-05,1,,,,,クルマヤ,0
409,2021002047802,登記記録の閉鎖等,0,2025-04-23,2025-04-16,有限会社リバティ,,有限会社,神奈川県,座間市,南栗原６丁目２５番５－３号,,14,216,2520015,,,2025-04-16,清算の結了等,,,2015-10-05,1,,,,,リバティ,0
420,2030002070359,登記記録の閉鎖等,0,2025-04-23,2025-04-16,有限会社五光設備工業,,有限会社,埼玉県,久喜市,上川崎４９８番地,,11,232,3400204,,,2025-04-16,清算の結了等,,,2015-10-05,1,,,,,ゴコウセツビコウギョウ,0
425,2040001126235,登記記録の閉鎖等,0,2025-04-23,2025-04-07,株式会社ＰＦ・ＢｉｏＬｉｎｅ,,株式会社,千葉県,松戸市,上本郷８８番地,,12,207,2710064,,,2025-04-07,清算の結了等,,,2022-12-23,1,,,,,ピーエフバイオライン,0
426,2040002036210,登記記録の閉鎖等,0,2025-04-23,2025-04-07,有限会社ファド設計企画室,,有限会社,千葉県,市川市,南八幡４丁目７番６号本八幡ダイヤモンドマンション５０１,,12,203,2720023,,,2025-04-07,清算の結了等,,,2015-10-05,1,,,,,,0
432,2050002037042,登記記録の閉鎖等,0,2025-04-23,2025-04-14,有限会社泰明,,有限会社,茨城県,守谷市,薬師台３丁目３番地５,,08,224,3020105,,,2025-04-14,清算の結了等,,,2015-10-05,1,,,,,タイメイ,0
433,2050005005979,登記記録の閉鎖等,0,2025-04-23,2025-04-11,特定非営利活動法人チーム・ユーチャリス,,その他の設立登記法人,茨城県,古河市,小堤２１１４番地７,,08,204,3060231,,,2025-04-11,清算の結了等,,,2015-10-05,1,,,,,チームユーチャリス,0
435,2070001019816,登記記録の閉鎖等,0,2025-04-23,2025-04-16,藤和マテリアル株式会社,,株式会社,群馬県,太田市,飯田町８７４番地,,10,205,3730851,,,2025-04-16,清算の結了等,,,2015-10-05,1,,,,,トウワマテリアル,0
443,2090003001869,登記記録の閉鎖等,0,2025-04-23,2025-04-11,合同会社ＯＬＥ,,合同会社,山梨県,中巨摩郡昭和町,清水新居９７１番地１,,19,384,4093867,,,2025-04-11,清算の結了等,,,2021-05-17,1,,,,,オーエルイー,0
444,2100005003597,登記記録の閉鎖等,0,2025-04-23,2025-04-11,南牧村開拓農業協同組合,,その他の設立登記法人,長野県,南佐久郡南牧村,大字海ノ口２１７７番地１２,,20,305,3841302,,,2025-04-11,清算の結了等,,,2015-10-05,1,,,,,ミナミマキムラカイタク,0
473,2120902016831,登記記録の閉鎖等,0,2025-04-23,2025-04-10,有限会社一粒の麦,,有限会社,大阪府,豊能郡豊能町,光風台２丁目１９番地の３,,27,321,5630104,,,2025-04-10,清算の結了等,,,2015-10-05,1,,,,,,0
487,2150002000931,登記記録の閉鎖等,0,2025-04-23,2025-04-18,有限会社須貝あすか堂,,有限会社,奈良県,奈良市,南紀寺町２丁目２７１番地の１３,,29,201,6308303,,,2025-04-18,清算の結了等,,,2015-10-05,1,,,,,,0
507,2190001023624,登記記録の閉鎖等,0,2025-04-23,2025-04-11,まじめ不動産株式会社,,株式会社,三重県,四日市市,生桑町１０番地１,,24,202,5120911,,,2025-04-11,清算の結了等,,,2016-04-28,1,,,,,マジメフドウサン,0
517,2240001021548,登記記録の閉鎖等,0,2025-04-23,2025-04-18,株式会社ホワイト餃子広島店,,株式会社,広島県,広島市西区,三篠町２丁目１０番５号,,34,104,7330003,,,2025-04-18,清算の結了等,,,2015-10-05,1,,,,,ホワイトギョウザヒロシマテン,0
521,2240002029136,登記記録の閉鎖等,0,2025-04-23,2025-04-18,有限会社ＨアンドＫ,,有限会社,広島県,東広島市,西条町御薗宇４４０５番地,,34,212,7390024,,,2025-04-18,清算の結了等,,,2015-10-05,1,,,,,エイチアンドケイ,0
540,2310001004867,登記記録の閉鎖等,0,2025-04-23,2025-04-18,株式会社弘進丸水産,,株式会社,長崎県,長崎市,脇岬町３７３２番地,,42,201,8510506,,,2025-04-18,清算の結了等,,,2015-10-05,1,,,,,コウシンマルスイサン,0
546,2340001001465,登記記録の閉鎖等,0,2025-04-23,2025-04-14,株式会社Ｋカンパニー,,株式会社,東京都,渋谷区,道玄坂１丁目１６－６二葉ビル８ｂ,,13,113,1500043,,,2025-04-14,清算の結了等,,,2015-10-05,1,,,,,ケーカンパニー,0
548,2340002028318,登記記録の閉鎖等,0,2025-04-23,2025-04-10,有限会社増森測量設計,,有限会社,鹿児島県,曽於市,末吉町二之方６４３３番地１,,46,217,8998605,,,2025-04-10,清算の結了等,,,2015-10-05,1,,,,,マスモリソクリョウセッケイ,0
550,2350002015042,登記記録の閉鎖等,0,2025-04-23,2025-04-14,有限会社都城植木市場,,有限会社,宮崎県,都城市,大岩田町６９３６番地１,,45,202,8850062,,,2025-04-14,清算の結了等,,,2015-10-05,1,,,,,ミヤコノジョウウエキイチバ,0
551,2350002019051,登記記録の閉鎖等,0,2025-04-23,2025-04-16,有限会社八幡勇建築事務所,,有限会社,宮崎県,宮崎市,江平西２丁目２番３１号,,45,201,8800051,,,2025-04-16,清算の結了等,,,2025-03-31,1,,,,,ヤハタイサムケンチクジムショ,0
554,2380002007103,登記記録の閉鎖等,0,2025-04-23,2025-04-10,有限会社Ｇ・オプティカル,,有限会社,福島県,福島市,置賜町３８番地１,,07,201,9608034,,,2025-04-10,清算の結了等,,,2015-10-05,1,,,,,ジーオプティカル,0
556,2400001000196,登記記録の閉鎖等,0,2025-04-23,2025-04-02,岩手農業開発株式会社,,株式会社,岩手県,盛岡市,みたけ２丁目６番８号,,03,201,0200122,,,2025-04-02,清算の結了等,,,2015-10-05,1,,,,,イワテノウギョウカイハツ,0
565,2430001026247,登記記録の閉鎖等,0,2025-04-23,2025-04-15,キングラン北海道株式会社,,株式会社,北海道,札幌市手稲区,新発寒五条１丁目５番１号,,01,109,0060805,,,2025-04-15,合併による解散等,3010001014945,令和７年４月１日東京都千代田区神田須田町一丁目１０番地キングラン株式会社（3010001014945）に合併し解散,2015-10-05,1,,,,,キングランホッカイドウ,0
566,2430001042624,登記記録の閉鎖等,0,2025-04-23,2025-04-15,北海鋼機株式会社,,株式会社,北海道,江別市,上江別４４１番地,,01,217,0670064,,,2025-04-15,合併による解散等,3010001139107,令和７年４月１日東京都中央区日本橋本町二丁目２番５号日鉄鋼板株式会社（3010001139107）に合併し解散,2015-10-05,1,,,,,ホッカイコウキ,0
595,3010005038189,登記記録の閉鎖等,0,2025-04-23,2025-04-15,一般社団法人ジュガール,,その他の設立登記法人,東京都,文京区,本郷３丁目３０番１０号,,13,105,1130033,,,2025-04-15,清算の結了等,,,2024-04-17,1,,,,,ジュガール,0
602,3010401005296,登記記録の閉鎖等,0,2025-04-23,2025-04-03,エムエムインターナショナル株式会社,,株式会社,東京都,千代田区,神田佐久間町２丁目１８番地１秋葉原ＳＴＮフロント１０階,,13,101,1010025,,,2025-04-03,清算の結了等,,,2015-10-05,1,,,,,エムエムインターナショナル,0
629,3011001108332,登記記録の閉鎖等,0,2025-04-23,2025-04-07,エーエムディワオット株式会社,,株式会社,東京都,渋谷区,猿楽町１８番８号,,13,113,1500033,,,2025-04-07,清算の結了等,,,2015-11-25,1,,,,,エーエムディワオット,0
644,3011003014966,登記記録の閉鎖等,0,2025-04-23,2025-03-07,合同会社私のご褒美,,合同会社,東京都,渋谷区,東２丁目２０番２号三和ビル２０１,,13,113,1500011,,,2025-03-07,清算の結了等,,,2022-07-01,1,,,,,ワタシノゴホウビ,0
652,3011103012754,登記記録の閉鎖等,0,2025-04-23,2025-04-17,合同会社ＩＮ．Ｕ,,合同会社,東京都,新宿区,西新宿３丁目３番１３号西新宿水間ビル６階,,13,104,1600023,,,2025-04-17,合併による解散等,5011103013536,令和７年３月１０日東京都渋谷区渋谷二丁目２１番１号渋谷ヒカリエ３３階株式会社ＧＲＡＣＥ　Ｊａｐａｎ（5011103013536）に合併し解散,2023-03-06,1,,,,,インユー,0
656,3011301005576,登記記録の閉鎖等,0,2025-04-23,2025-04-04,八大起業株式会社,,株式会社,東京都,杉並区,西荻北３丁目１０番１１号,,13,115,1670042,,,2025-04-04,合併による解散等,5010001047662,令和７年４月１日東京都杉並区西荻北三丁目１０番１１号日米石油株式会社（5010001047662）に合併し解散,2015-10-05,1,,,,,ハチダイキギョウ,0
657,3011301020154,登記記録の閉鎖等,0,2025-04-23,2025-04-08,株式会社モクセイカ,,株式会社,東京都,練馬区,中村北３丁目２３番５号イマスＳｈｙｕＫａｗａｇｕｃｈｉビル７Ｆ－Ｂ,,13,120,1760023,,,2025-04-08,清算の結了等,,,2015-10-05,1,,,,,モクセイカ,0
681,3013303005678,登記記録の閉鎖等,0,2025-04-23,2025-04-04,合同会社ＡＭＧアセットコンサルティング,,合同会社,東京都,豊島区,南大塚３丁目１２－９喜多ビル４Ｆ,,13,116,1700005,,,2025-04-04,清算の結了等,,,2021-05-19,1,,,,,エーエムジーアセットコンサルティング,0
691,3021001051853,登記記録の閉鎖等,0,2025-04-23,2025-04-07,株式会社ディレクタースカンパニー,,株式会社,東京都,練馬区,旭丘１丁目６４番２－４０３号,,13,120,1760005,,,2025-04-07,清算の結了等,,,2015-10-05,1,,,,,ディレクタースカンパニー,0
692,3021001060813,登記記録の閉鎖等,0,2025-04-23,2025-04-18,長瀬外装株式会社,,株式会社,神奈川県,大和市,上草柳５丁目５番１３号エブリーヌＩＩ－１０２,00108591,14,213,2420029,,,2025-04-18,清算の結了等,,,2016-12-05,1,,,,,ナガセガイソウ,0
700,3030001126879,登記記録の閉鎖等,0,2025-04-23,2025-04-17,株式会社高倉興業,00114129,株式会社,埼玉県,川越市,的場２丁目２３番地６,,11,201,3501101,,,2025-04-17,清算の結了等,,,2018-08-03,1,,,,,タカクラコウギョウ,0
749,3122001017066,登記記録の閉鎖等,0,2025-04-23,2025-04-18,株式会社九鬼,,株式会社,大阪府,寝屋川市,河北西町５３番１号,,27,215,5720817,,,2025-04-18,清算の結了等,,,2015-10-05,1,,,,,クキ,0
752,3122001023312,登記記録の閉鎖等,0,2025-04-23,2025-04-17,株式会社ＰｉＰｉ,,株式会社,大阪府,八尾市,北木の本４丁目７２番地の１,,27,212,5810041,,,2025-04-17,清算の結了等,,,2015-10-05,1,,,,,,0
754,3122002003214,登記記録の閉鎖等,0,2025-04-23,2025-04-17,有限会社テクノマツモト,,有限会社,大阪府,東大阪市,中石切町５丁目１番８号,,27,227,5798014,,,2025-04-17,清算の結了等,,,2015-10-05,1,,,,,,0
756,3130002024477,登記記録の閉鎖等,0,2025-04-23,2025-04-16,有限会社アクト,,有限会社,京都府,京都市東山区,粟田口三条坊町２番地１０,,26,105,6050035,,,2025-04-16,清算の結了等,,,2015-10-05,1,,,,,アクト,0
759,3140001047148,登記記録の閉鎖等,0,2025-04-23,2025-04-03,株式会社Ｊ－ｎｅｅｄｚ,,株式会社,大阪府,大阪市西区,京町堀１丁目３番３号,,27,106,5500003,,,2025-04-03,清算の結了等,,,2015-10-05,1,,,,,ジェイニーズ,0
770,3140003007521,登記記録の閉鎖等,0,2025-04-23,2025-04-16,合同会社縁,,合同会社,兵庫県,神戸市西区,岩岡町岩岡９１０－２,,28,111,6512401,,,2025-04-16,清算の結了等,,,2015-10-05,1,,,,,エン,0
792,3180302027547,登記記録の閉鎖等,0,2025-04-23,2025-04-21,有限会社フジイ輸送,,有限会社,愛知県,西尾市,一色町生田西萱野７４番地３,,23,213,4440412,,,2025-04-21,清算の結了等,,,2015-10-05,1,,,,,フジイユソウ,0
793,3190001021296,登記記録の閉鎖等,0,2025-04-23,2025-04-11,株式会社北村工業,,株式会社,三重県,四日市市,新浜町７番８号,,24,202,5100024,,,2025-04-11,清算の結了等,,,2015-10-05,1,,,,,,0
839,3350002011255,登記記録の閉鎖等,0,2025-04-23,2025-04-15,有限会社山下水産,,有限会社,宮崎県,東臼杵郡門川町,宮ケ原３丁目８３番地,,45,421,8890623,,,2025-04-15,清算の結了等,,,2015-10-05,1,,,,,ヤマシタスイサン,0
847,3370102002367,登記記録の閉鎖等,0,2025-04-23,2025-04-09,有限会社サイカワ,,有限会社,宮城県,白石市,斎川字別当２６番地,,04,206,9890215,,,2025-04-09,清算の結了等,,,2015-10-05,1,,,,,サイカワ,0
853,3380005011638,登記記録の閉鎖等,0,2025-04-23,2025-04-14,一般社団法人伊達市観光物産交流協会,,その他の設立登記法人,福島県,伊達市,梁川町青葉町１番地,,07,213,9600756,,,2025-04-14,合併による解散等,6380005001982,令和７年４月１日福島県伊達市梁川町青葉町１番地一般社団法人伊達市振興公社（6380005001982）に合併し解散,2016-03-25,1,,,,,,0
855,3390002007282,登記記録の閉鎖等,0,2025-04-23,2025-04-10,有限会社コンテンツ,,有限会社,山形県,酒田市,東大町１丁目２番１５号,,06,204,9980851,,,2025-04-10,清算の結了等,,,2015-10-05,1,,,,,コンテンツ,0
861,3430002019281,登記記録の閉鎖等,0,2025-04-23,2025-04-11,有限会社水口建物,,有限会社,北海道,札幌市手稲区,新発寒五条６丁目１番５号,,01,109,0060805,,,2025-04-11,清算の結了等,,,2015-10-05,1,,,,,ミズグチタテモノ,0
863,3430002035048,登記記録の閉鎖等,0,2025-04-23,2025-04-17,有限会社アルファプラス,,有限会社,北海道,札幌市中央区,南十四条西１７丁目２番１号,,01,101,0640914,,,2025-04-17,合併による解散等,3180001066243,令和７年４月１日名古屋市中区栄一丁目２２番１６号ＣＫＣネットワーク株式会社（3180001066243）に合併し解散,2015-10-05,1,,,,,アルファプラス,0
865,3430002049502,登記記録の閉鎖等,0,2025-04-23,2025-04-11,有限会社鈴木歯研,,有限会社,北海道,岩見沢市,日の出北３丁目１番２１号,,01,210,0680824,,,2025-04-11,清算の結了等,,,2015-10-05,1,,,,,スズキシケン,0
873,3450001011023,登記記録の閉鎖等,0,2025-04-23,2025-04-16,株式会社亜細亜通商サービス,,株式会社,北海道,稚内市,はまなす１丁目１０番７号,,01,214,0970011,,,2025-04-16,清算の結了等,,,2015-10-05,1,,,,,アジアツウショウサービス,0
897,4010003030279,登記記録の閉鎖等,0,2025-04-23,2025-04-03,合同会社ＹＳ　ＪＡＰＡＮ,,合同会社,東京都,中央区,日本橋箱崎町２７－９ヴェラハイツ日本橋箱崎１Ｆ,,13,102,1030015,,,2025-04-03,清算の結了等,,,2019-07-24,1,,,,,ワイエスジャパン,0
914,4010501041884,登記記録の閉鎖等,0,2025-04-23,2025-04-01,ＡＩＣ株式会社,,株式会社,東京都,台東区,上野５丁目３番１号,,13,106,1100005,,,2025-04-01,合併による解散等,4010501008041,令和７年４月１日東京都台東区上野五丁目３番１号中央ビジコム株式会社（4010501008041）に合併し解散,2017-12-04,1,,,,,エイアイシイ,0
918,4010601031109,登記記録の閉鎖等,0,2025-04-23,2025-04-10,株式会社アセットアプレイズシステム,,株式会社,東京都,江東区,青海２丁目４５番,,13,108,1350064,,,2025-04-10,清算の結了等,,,2015-10-05,1,,,,,アセットアプレイズシステム,0
934,4011001033579,登記記録の閉鎖等,0,2025-04-23,2025-04-07,株式会社メンズ・ビギ,,株式会社,東京都,渋谷区,南平台町１７番１２号,,13,113,1500036,,,2025-04-07,合併による解散等,2010401024834,令和７年４月１日東京都目黒区青葉台二丁目１番４号株式会社ビギ（2010401024834）に合併し解散,2015-10-05,1,,,,,メンズビギ,0
942,4011005006135,登記記録の閉鎖等,0,2025-04-23,2025-04-11,一般社団法人医療人財開発機構,,その他の設立登記法人,福岡県,福岡市博多区,博多駅前２丁目５番８号,,40,132,8120011,,,2025-04-11,清算の結了等,,,2015-10-05,1,,,,,イリョウジンザイカイハツキコウ,0
952,4011201010345,登記記録の閉鎖等,0,2025-04-23,2025-04-01,株式会社菱塩,,株式会社,福岡県,福岡市博多区,下川端町３番１号,,40,132,8120027,,,2025-04-01,合併による解散等,5011201010344,令和７年４月１日福岡市博多区下川端町３番１号ダイヤソルト株式会社（5011201010344）に合併し解散,2015-10-05,1,,,,,リョウエン,0
954,4011401001838,登記記録の閉鎖等,0,2025-04-23,2025-04-21,クレスト電機株式会社,,株式会社,東京都,板橋区,大門９番６－５０４号,,13,119,1750085,,,2025-04-21,清算の結了等,,,2015-10-05,1,,,,,クレストデンキ,0
957,4011602004557,登記記録の閉鎖等,0,2025-04-23,2025-04-07,有限会社サンブリッジ,,有限会社,東京都,練馬区,中村南１丁目３１番１３号,,13,120,1760025,,,2025-04-07,清算の結了等,,,2015-10-05,1,,,,,サンブリッジ,0
967,4012402000382,登記記録の閉鎖等,0,2025-04-23,2025-04-10,有限会社臼井水道工業,,有限会社,東京都,府中市,本町１丁目２２番地の１,,13,206,1830027,,,2025-04-10,清算の結了等,,,2015-10-05,1,,,,,,0
978,4013401005562,登記記録の閉鎖等,0,2025-04-23,2025-04-09,株式会社アール,,株式会社,東京都,日野市,大字川辺堀之内５８１番地の７,,13,212,1910015,,,2025-04-09,清算の結了等,,,2015-10-05,1,,,,,アール,0
996,4030001063576,登記記録の閉鎖等,0,2025-04-23,2025-04-17,株式会社アルファー,,株式会社,埼玉県,越谷市,赤山町１丁目３７番地２,,11,222,3430807,,,2025-04-17,清算の結了等,,,2015-10-05,1,,,,,アルファー,0
1012,4030002059433,登記記録の閉鎖等,0,2025-04-23,2025-04-18,有限会社福寿,,有限会社,埼玉県,朝霞市,東弁財２丁目１２番１６号,,11,227,3510022,,,2025-04-18,清算の結了等,,,2015-10-05,1,,,,,フクジュ,0
1014,4030002073616,登記記録の閉鎖等,0,2025-04-23,2025-04-17,有限会社ジェニュイン,,有限会社,埼玉県,川越市,大字的場１２８０番地１,,11,201,3501101,,,2025-04-17,清算の結了等,,,2015-10-05,1,,,,,ジェニュイン,0
1019,4040001134293,登記記録の閉鎖等,0,2025-04-23,2025-04-07,株式会社ｋａｔｔａｉ,,株式会社,千葉県,茂原市,緑ケ丘４丁目１５―２,,12,210,2970065,,,2025-04-07,清算の結了等,,,2024-06-28,1,,,,,ガターイ,0
1041,4120002063244,登記記録の閉鎖等,0,2025-04-23,2025-04-18,有限会社タニノ・コーポレーション,,有限会社,大阪府,大阪市都島区,内代町３丁目９番８号,,27,102,5340013,,,2025-04-18,清算の結了等,,,2015-10-05,1,,,,,タニノコーポレーション,0
1074,4150001008560,登記記録の閉鎖等,0,2025-04-23,2025-04-18,株式会社Ｔｉｄｙ,,株式会社,奈良県,奈良市,千代ヶ丘２丁目６番地の３７,,29,201,6310045,,,2025-04-18,清算の結了等,,,2015-10-05,1,,,,,タイディ,0
1085,4180001091430,登記記録の閉鎖等,0,2025-04-23,2025-04-11,シンエンジニアリング株式会社,,株式会社,愛知県,名古屋市緑区,大高町字神戸１６番地,,23,114,4598001,,,2025-04-11,清算の結了等,,,2015-10-05,1,,,,,シンエンジニアリング,0
1093,4180005016706,登記記録の閉鎖等,0,2025-04-23,2025-04-16,一般社団法人日ロ友好愛知の会,,その他の設立登記法人,愛知県,名古屋市中村区,稲葉地町７丁目４８番地,,23,105,4530841,,,2025-04-16,清算の結了等,,,2016-04-05,1,,,,,ニチロユウコウアイチノカイ,0
1098,4180302009610,登記記録の閉鎖等,0,2025-04-23,2025-04-15,有限会社ベストワーク販売,,有限会社,愛知県,豊橋市,草間町字平南７２番地の４,,23,201,4418141,,,2025-04-15,清算の結了等,,,2015-10-05,1,,,,,ベストワークハンバイ,0
1102,4210002007407,登記記録の閉鎖等,0,2025-04-23,2025-04-21,有限会社ヤマサ運送,,有限会社,福井県,あわら市,青ノ木第３５号５番地１,,18,208,9190814,,,2025-04-21,清算の結了等,,,2015-10-05,1,,,,,ヤマサウンソウ,0
1107,4230002009665,登記記録の閉鎖等,0,2025-04-23,2025-04-21,有限会社中西時計店,,有限会社,富山県,南砺市,本町１丁目４７番地,,16,210,9320217,,,2025-04-21,清算の結了等,,,2015-10-05,1,,,,,ナカニシトケイテン,0
1109,4240002040917,登記記録の閉鎖等,0,2025-04-23,2025-04-17,三宏工芸有限会社,,有限会社,広島県,福山市,西町１丁目１４番１３号,,34,207,7200067,,,2025-04-17,清算の結了等,,,2015-10-05,1,,,,,サンコウコウゲイ,0
1138,4330001000895,登記記録の閉鎖等,0,2025-04-23,2025-04-15,キングラン九州株式会社,,株式会社,熊本県,熊本市東区,戸島町９２０番地８,,43,102,8618031,,,2025-04-15,合併による解散等,3010001014945,令和７年４月１日東京都千代田区神田須田町一丁目１０番地キングラン株式会社（3010001014945）に合併し解散,2015-10-05,1,,,,,キングランキュウシュウ,0
1140,4330001016099,登記記録の閉鎖等,0,2025-04-23,2025-04-11,株式会社ウエムラテック,,株式会社,熊本県,球磨郡あさぎり町,上南７７７番地,,43,514,8680423,,,2025-04-11,合併による解散等,2330001009393,令和７年４月１日熊本県合志市豊岡１２８０番地合志技研工業株式会社（2330001009393）に合併し解散,2015-10-05,1,,,,,ウエムラテック,0
1148,4350005004049,登記記録の閉鎖等,0,2025-04-23,2025-04-15,特定非営利活動法人オープンガーデンサンフラワー宮崎,,その他の設立登記法人,宮崎県,宮崎市,江平西１丁目５番１１号１０５,,45,201,8800051,,,2025-04-15,清算の結了等,,,2015-10-05,1,,,,,オープンガーデンサンフラワーミヤザキ,0
1165,4380005010457,登記記録の閉鎖等,0,2025-04-23,2025-04-14,一般社団法人伊達市農林業振興公社,,その他の設立登記法人,福島県,伊達市,梁川町青葉町１番地,,07,213,9600756,,,2025-04-14,合併による解散等,6380005001982,令和７年４月１日福島県伊達市梁川町青葉町１番地一般社団法人伊達市振興公社（6380005001982）に合併し解散,2015-10-05,1,,,,,ダテシノウリンギョウシンコウコウシャ,0
1178,4430001034388,登記記録の閉鎖等,0,2025-04-23,2025-04-21,田中建設株式会社,,株式会社,北海道,札幌市西区,八軒一条東１丁目３番１－３０５号,,01,107,0630861,,,2025-04-21,清算の結了等,,,2015-10-05,1,,,,,タナカケンセツ,0
1183,4440002007581,登記記録の閉鎖等,0,2025-04-23,2025-04-21,有限会社カーサービス丸崎,,有限会社,北海道,亀田郡七飯町,大川１丁目５番１２号,,01,337,0411122,,,2025-04-21,清算の結了等,,,2015-10-05,1,,,,,カーサービスマルサキ,0
1293,5050003007363,登記記録の閉鎖等,0,2025-04-23,2025-04-11,合同会社パーマネント,,合同会社,茨城県,つくば市,要８２番地２－２０６,,08,220,3002622,,,2025-04-11,清算の結了等,,,2023-03-30,1,,,,,パーマネント,0
1299,5080002005373,登記記録の閉鎖等,0,2025-04-23,2025-04-17,増井樹脂工業有限会社,,有限会社,静岡県,静岡市駿河区,鎌田５２８番地の２,,22,102,4210133,,,2025-04-17,清算の結了等,,,2015-10-05,1,,,,,マスイジュシコウギョウ,0
1340,5140001086409,登記記録の閉鎖等,0,2025-04-23,2025-04-15,株式会社四季の家,,株式会社,兵庫県,神戸市垂水区,南多聞台８丁目１８番１２号,,28,108,6550043,,,2025-04-15,清算の結了等,,,2015-10-05,1,,,,,シキノイエ,0
1348,5160001003023,登記記録の閉鎖等,0,2025-04-23,2025-04-17,株式会社エルフ,,株式会社,滋賀県,大津市,栄町４番３号昴ビル１階,,25,201,5200855,,,2025-04-17,合併による解散等,3180001066243,令和７年４月１日名古屋市中区栄一丁目２２番１６号ＣＫＣネットワーク株式会社（3180001066243）に合併し解散,2015-10-05,1,,,,,エルフ,0
1375,5260001031360,登記記録の閉鎖等,0,2025-04-23,2025-04-07,株式会社ＹｏＫｅＪＡＰＡＮ,,株式会社,岡山県,岡山市北区,西古松１丁目３６番１９号６０３,,33,101,7000927,,,2025-04-07,清算の結了等,,,2017-10-17,1,,,,,ヨークジャパン,0
1382,5290002001426,登記記録の閉鎖等,0,2025-04-23,2025-04-04,有限会社市村ビル,,有限会社,福岡県,福岡市南区,野間１丁目１１番３１－５０８号,,40,134,8150041,,,2025-04-04,清算の結了等,,,2015-10-05,1,,,,,イチムラビル,0
1396,5330003003895,登記記録の閉鎖等,0,2025-04-23,2025-04-11,合資会社桑原汽船,,合資会社,熊本県,上天草市,龍ヶ岳町樋島３５１４番地,,43,212,8660203,,,2025-04-11,清算の結了等,,,2015-10-05,1,,,,,クワハラキセン,0
1397,5340001011718,登記記録の閉鎖等,0,2025-04-23,2025-04-10,株式会社ＡＣＥ,,株式会社,鹿児島県,阿久根市,山下９４５番地,,46,206,8991604,,,2025-04-10,清算の結了等,,,2015-10-05,1,,,,,エース,0
1403,5370001047115,登記記録の閉鎖等,0,2025-04-23,2025-03-17,株式会社千台ファーム,,株式会社,宮城県,石巻市,渡波町１丁目２番２７号,,04,202,9862121,,,2025-03-17,合併による解散等,1110001031998,令和６年１２月１７日宮城県石巻市渡波町一丁目２番２７号株式会社千台ホールディングス（1110001031998）に合併し解散,2021-05-24,1,,,,,センダイファーム,0
1405,5380001020178,登記記録の閉鎖等,0,2025-04-23,2025-04-11,株式会社安中商会,,株式会社,福島県,郡山市,大槻町字原田５９番地の６,,07,203,9630201,,,2025-04-11,清算の結了等,,,2015-10-05,1,,,,,ヤスナカショウカイ,0
1419,5410005003638,登記記録の閉鎖等,0,2025-04-23,2025-04-04,特定非営利活動法人ＥＭおおだて,,その他の設立登記法人,秋田県,大館市,有浦４丁目５番３０号,,05,204,0170043,,,2025-04-04,清算の結了等,,,2015-10-05,1,,,,,,0
1436,5460305001782,登記記録の閉鎖等,0,2025-04-23,2025-04-21,特定非営利活動法人ミント・サン大和,,その他の設立登記法人,北海道,北見市,大和２３１番地１,,01,208,0900005,,,2025-04-21,清算の結了等,,,2015-10-05,1,,,,,ミントサンヤマト,0
1467,6010102000809,登記記録の閉鎖等,0,2025-04-23,2025-04-17,有限会社井上総業,,有限会社,東京都,八王子市,四谷町７４３番地,,13,201,1930813,,,2025-04-17,清算の結了等,,,2015-10-05,1,,,,,イノウエソウギョウ,0
1477,6010405021378,登記記録の閉鎖等,0,2025-04-23,2025-04-02,一般社団法人Ｃｏｒｒｉｄａ,,その他の設立登記法人,東京都,港区,六本木１丁目６番１号泉ガーデンタワーＫＰＭＧ税理士法人内,,13,103,1060032,,,2025-04-02,清算の結了等,,,2022-09-15,1,,,,,コリーダ,0
1509,6011302015373,登記記録の閉鎖等,0,2025-04-23,2025-04-09,有限会社寺山心一翁オフィス,,有限会社,東京都,杉並区,阿佐谷南３丁目３２番１７－９０２号寺山方,,13,115,1660004,,,2025-04-09,清算の結了等,,,2015-10-05,1,,,,,テラヤマシンイチオウオフィス,0
1518,6011705001350,登記記録の閉鎖等,0,2025-04-23,2025-04-16,一般社団法人小岩個人タクシー協会,,その他の設立登記法人,東京都,江戸川区,北小岩６丁目１５番１８号グリーンコーポ京成小岩１０３号,,13,123,1330051,,,2025-04-16,清算の結了等,,,2015-10-05,1,,,,,コイワコジンタクシーキョウカイ,0
1520,6011802012787,登記記録の閉鎖等,0,2025-04-23,2025-04-21,有限会社小松整骨院,,有限会社,東京都,足立区,入谷３丁目５番１０号,,13,121,1210836,,,2025-04-21,清算の結了等,,,2015-10-05,1,,,,,コマツセイコツイン,0
1555,6030002099816,登記記録の閉鎖等,0,2025-04-23,2025-04-17,有限会社あおば介護・家政婦紹介所,,有限会社,埼玉県,川口市,並木２丁目２３番１６－１００４号,,11,203,3320034,,,2025-04-17,清算の結了等,,,2015-10-05,1,,,,,アオバカイゴカセイフショウカイジョ,0
1559,6040001064943,登記記録の閉鎖等,0,2025-04-23,2025-04-07,もとはし株式会社,,株式会社,千葉県,千葉市中央区,宮崎１丁目９番２０号,,12,101,2600806,,,2025-04-07,清算の結了等,,,2015-10-05,1,,,,,モトハシ,0
1568,6060002034448,登記記録の閉鎖等,0,2025-04-23,2025-04-14,有限会社テーケー電子,,有限会社,栃木県,下都賀郡壬生町,大字安塚１１３４番地７,,09,361,3210201,,,2025-04-14,清算の結了等,,,2015-10-05,1,,,,,テーケーデンシ,0
1575,6100001000306,登記記録の閉鎖等,0,2025-04-23,2025-04-17,イワタニ長野株式会社,,株式会社,長野県,長野市,大字東和田７４９番地,,20,201,3810038,,,2025-04-17,合併による解散等,2020001075855,令和７年４月１日横浜市港北区新横浜三丁目９番地１８新横浜ＴＥＣＨビルＢ館２階イワタニ首都圏株式会社（2020001075855）に合併し解散,2015-10-05,1,,,,,イワタニナガノ,0
1611,6130003004483,登記記録の閉鎖等,0,2025-04-23,2025-04-18,合名会社もりまさ工務店,,合名会社,京都府,宇治市,羽拍子町４５番地の６,,26,204,6110027,,,2025-04-18,清算の結了等,,,2015-12-28,1,,,,,,0
1626,6180001145416,登記記録の閉鎖等,0,2025-04-23,2025-04-11,株式会社ＬＩＢＥＲＡＬ,,株式会社,愛知県,名古屋市中川区,富田町大字榎津字布部田４３６番地の１２,,23,110,4540953,,,2025-04-11,清算の結了等,,,2021-04-05,1,,,,,リベラル,0
1629,6180002074416,登記記録の閉鎖等,0,2025-04-23,2025-04-11,有限会社豊智精工,,有限会社,愛知県,犬山市,大字栗栖字瀬ノ上３４４番地の１,,23,215,4840002,,,2025-04-11,清算の結了等,,,2015-10-05,1,,,,,トヨトモセイコウ,0
1643,6210002004501,登記記録の閉鎖等,0,2025-04-23,2025-04-18,有限会社ベネフィット,,有限会社,福井県,福井市,中央３丁目８番１６号,,18,201,9100006,,,2025-04-18,清算の結了等,,,2015-10-05,1,,,,,ベネフィット,0
1648,6230002002395,登記記録の閉鎖等,0,2025-04-23,2025-04-18,有限会社トルネックス富山,,有限会社,富山県,富山市,西新庄１１番４６号,,16,201,9300981,,,2025-04-18,清算の結了等,,,2015-10-05,1,,,,,トルネックストヤマ,0
1650,6240001023565,商号の登記の抹消,0,2025-04-23,2025-04-10,ＧＯＯＤ　ＴＡＸｉ株式会社,,株式会社,広島県,東広島市,西条町郷曽２０８７番,,34,212,7390035,,,,,,,2015-10-05,1,,,,,グッドタクシー,0
1652,6240001028473,登記記録の閉鎖等,0,2025-04-23,2025-04-16,中国ハドソン株式会社,,株式会社,広島県,大竹市,西栄１丁目２番５号,,34,211,7390603,,,2025-04-16,清算の結了等,,,2015-10-05,1,,,,,チュウゴクハドソン,0
1657,6240003003739,登記記録の閉鎖等,0,2025-04-23,2025-04-21,エムズプランニング合同会社,,合同会社,広島県,広島市西区,天満町１６番９号,,34,104,7330022,,,2025-04-21,清算の結了等,,,2017-12-08,1,,,,,エムズプランニング,0
1667,6290001099320,登記記録の閉鎖等,0,2025-04-23,2025-04-07,株式会社クラウダー,,株式会社,福岡県,福岡市中央区,天神２丁目３番１０号天神パインクレスト７１９号,,40,133,8100001,,,2025-04-07,清算の結了等,,,2022-10-24,1,,,,,クラウダー,0
1671,6290002012728,登記記録の閉鎖等,0,2025-04-23,2025-04-07,福岡中央陸運有限会社,,有限会社,福岡県,福岡市中央区,大手門１丁目９番８号（吉住ビル）,,40,133,8100074,,,2025-04-07,清算の結了等,,,2015-10-05,1,,,,,フクオカチュウオウリクウン,0
1680,6330002004084,登記記録の閉鎖等,0,2025-04-23,2025-04-14,有限会社小西設備設計事務所,,有限会社,熊本県,熊本市西区,蓮台寺２丁目５番２１号,00097570,43,103,8600055,,,2025-04-14,清算の結了等,,,2015-10-05,1,,,,,コニシセツビセッケイジムショ,0
1681,6350003002036,登記記録の閉鎖等,0,2025-04-23,2025-04-15,合同会社ナカハラ,,合同会社,宮崎県,北諸県郡三股町,大字宮村２９０９番地７,,45,341,8891912,,,2025-04-15,清算の結了等,,,2015-10-05,1,,,,,ナカハラ,0
1689,6380001001284,登記記録の閉鎖等,0,2025-04-23,2025-04-10,株式会社キシデン,,株式会社,福島県,福島市,町庭坂字石田道１３番地の１,,07,201,9602261,,,2025-04-10,清算の結了等,,,2015-10-05,1,,,,,キシデン,0
1693,6380005010199,登記記録の閉鎖等,0,2025-04-23,2025-04-14,一般社団法人つきだて振興公社,,その他の設立登記法人,福島県,伊達市,月舘町下手渡字寺窪７番地,,07,213,9600903,,,2025-04-14,合併による解散等,6380005001982,令和７年４月１日福島県伊達市梁川町青葉町１番地一般社団法人伊達市振興公社（6380005001982）に合併し解散,2015-10-05,1,,,,,ツキダテシンコウコウシャ,0
1696,6400003000629,登記記録の閉鎖等,0,2025-04-23,2025-04-03,合資会社北上映画劇場,,合資会社,岩手県,北上市,青柳町２丁目５番２６号,,03,206,0240031,,,2025-04-03,清算の結了等,,,2015-10-05,1,,,,,キタカミエイガゲキジョウ,0
1701,6410005002531,登記記録の閉鎖等,0,2025-04-23,2025-04-01,羽後町酪農農業協同組合,,その他の設立登記法人,秋田県,雄勝郡羽後町,西馬音内字中野３７番地の５,,05,463,0121131,,,2025-04-01,合併による解散等,4410005002401,令和７年４月１日秋田県湯沢市前森三丁目４番１１号秋田県南部酪農業協同組合（4410005002401）に合併し解散,2015-10-05,1,,,,,ウゴマチラクノウ,0
1713,6450002012653,登記記録の閉鎖等,0,2025-04-23,2025-04-17,有限会社スズヤ,,有限会社,北海道,紋別市,幸町４丁目２番７号,,01,219,0940005,,,2025-04-17,清算の結了等,,,2015-10-05,1,,,,,スズヤ,0
1735,7010101010015,登記記録の閉鎖等,0,2025-04-23,2025-04-18,株式会社ＫＳＰ,,株式会社,東京都,八王子市,明神町２丁目６番２０－３０１号,,13,201,1920046,,,2025-04-18,清算の結了等,,,2015-10-05,1,,,,,ケイエスピー,0
1741,7010102004370,登記記録の閉鎖等,0,2025-04-23,2025-04-18,有限会社田中造園,,有限会社,東京都,八王子市,台町２丁目２０番１５号,,13,201,1930931,,,2025-04-18,清算の結了等,,,2015-10-05,1,,,,,タナカゾウエン,0
1742,7010401031693,登記記録の閉鎖等,0,2025-04-23,2025-04-18,株式会社Ｒ＆Ｃ,,株式会社,東京都,港区,新橋２丁目１６番１号,,13,103,1050004,,,2025-04-18,合併による解散等,1020001016380,令和７年４月１日横浜市神奈川区立町６番地１株式会社ワイ・ビー・シー（1020001016380）に合併し解散,2015-10-05,1,,,,,アールアンドシー,0
1777,7011001117767,登記記録の閉鎖等,0,2025-04-23,2025-04-07,株式会社ＨＥＲＢＡ　ＭＯＮＤＯ,,株式会社,東京都,渋谷区,恵比寿３丁目３０番１２号マーキュリー恵比寿２階,,13,113,1500013,,,2025-04-07,清算の結了等,,,2017-08-10,1,,,,,ヘルバモンド,0
1778,7011001120548,登記記録の閉鎖等,0,2025-04-23,2025-04-14,株式会社オープラン,,株式会社,東京都,渋谷区,道玄坂１丁目１２番１号渋谷マークシティＷ２２階,,13,113,1500043,,,2025-04-14,清算の結了等,,,2018-02-08,1,,,,,オープラン,0
1805,7012301002642,登記記録の閉鎖等,0,2025-04-23,2025-04-18,友和自動車株式会社,,株式会社,東京都,町田市,本町田３２７番地,,13,209,1940032,,,2025-04-18,清算の結了等,,,2015-10-05,1,,,,,ユウワジドウシャ,0
1817,7012801004460,登記記録の閉鎖等,0,2025-04-23,2025-04-02,昭和の森エリアサービス株式会社,,株式会社,東京都,昭島市,代官山３丁目１番１号,,13,207,1960005,,,2025-04-02,合併による解散等,8012801007000,令和７年４月１日東京都昭島市代官山三丁目１番１号昭和飛行機工業株式会社（8012801007000）に合併し解散,2015-10-05,1,,,,,ショウワノモリエリアサービス,0
1860,7030002073357,登記記録の閉鎖等,0,2025-04-23,2025-04-17,有限会社フェニックス,,有限会社,埼玉県,川越市,大字南大塚１３９５－１,,11,201,3501162,,,2025-04-17,清算の結了等,,,2015-10-05,1,,,,,フェニックス,0
1861,7030003011596,登記記録の閉鎖等,0,2025-04-23,2025-04-17,合同会社Ｋ－Ａｄｖａｎｃｅ,,合同会社,埼玉県,桶川市,大字上日出谷１１４番地の１１,,11,231,3630026,,,2025-04-17,清算の結了等,,,2018-03-16,1,,,,,ケーアドバンス,0
1886,7100002018750,登記記録の閉鎖等,0,2025-04-23,2025-04-18,有限会社山崎組,,有限会社,長野県,下高井郡山ノ内町,大字夜間瀬１１１８１番地,,20,561,3810405,,,2025-04-18,清算の結了等,,,2015-10-05,1,,,,,ヤマザキグミ,0
1898,7120001172076,登記記録の閉鎖等,0,2025-04-23,2025-04-02,株式会社Ｔ・Ｍエステート,,株式会社,大阪府,守口市,河原町１２番７号,,27,209,5700038,,,2025-04-02,清算の結了等,,,2015-10-05,1,,,,,ティーエムエステート,0
1905,7120101004922,登記記録の閉鎖等,0,2025-04-23,2025-04-18,高野ハウジング株式会社,,株式会社,大阪府,堺市北区,百舌鳥梅町３丁３番地９,,27,146,5918032,,,2025-04-18,清算の結了等,,,2015-10-05,1,,,,,タカノハウジング,0
1916,7130001007636,登記記録の閉鎖等,0,2025-04-23,2025-04-16,株式会社ロックス,,株式会社,京都府,京都市左京区,岩倉南河原町８６番地,,26,103,6060019,,,2025-04-16,清算の結了等,,,2015-10-05,1,,,,,,0
1921,7140001090193,登記記録の閉鎖等,0,2025-04-23,2025-04-15,株式会社サマンサ,,株式会社,兵庫県,神戸市灘区,深田町４丁目１番１－２４０３号,,28,102,6570038,,,2025-04-15,清算の結了等,,,2015-10-05,1,,,,,サマンサ,0
1927,7140002062398,登記記録の閉鎖等,0,2025-04-23,2025-04-15,有限会社高橋瓦商店,,有限会社,兵庫県,加西市,北条町西高室４１３番地,,28,220,6752322,,,2025-04-15,清算の結了等,,,2015-10-05,1,,,,,タカハシカワラショウテン,0
1941,7180301019979,登記記録の閉鎖等,0,2025-04-23,2025-04-17,稲武高分子株式会社,,株式会社,愛知県,豊田市,桑原町中山形２５番地,,23,211,4412521,,,2025-04-17,合併による解散等,4200001023942,令和７年４月１日岐阜県恵那市岩村町飯羽間１４０３番地の３１岩村三協株式会社（4200001023942）に合併し解散,2015-10-05,1,,,,,イナブコウブンシ,0
1945,7190003002992,登記記録の閉鎖等,0,2025-04-23,2025-04-11,合同会社ｓｔｉｌｌ,,合同会社,三重県,鈴鹿市,中江島町１７番１０号プラドール９２‐３‐Ｆ,,24,207,5100236,,,2025-04-11,清算の結了等,,,2018-10-09,1,,,,,スティル,0
1960,7280002005797,登記記録の閉鎖等,0,2025-04-23,2025-04-22,有限会社永瀬本店,,有限会社,島根県,出雲市,今市町１４０８番地,,32,203,6930001,,,2025-04-22,清算の結了等,,,2015-10-05,1,,,,,ナガセホンテン,0
1965,7290003014177,登記記録の閉鎖等,0,2025-04-23,2025-03-31,合同会社ラポール,,合同会社,福岡県,飯塚市,幸袋７８１番地２５８,,40,205,8200066,,,2025-03-31,清算の結了等,,,2023-08-04,1,,,,,ラポール,0
1968,7290005006726,登記記録の閉鎖等,0,2025-04-23,2025-04-14,医療法人やなぎだ耳鼻咽喉科医院,,その他の設立登記法人,福岡県,大野城市,錦町２丁目３番１２号,,40,219,8160935,,,2025-04-14,清算の結了等,,,2015-10-05,1,,,,,ヤナギタジビインコウカイイン,0
1970,7300002005365,登記記録の閉鎖等,0,2025-04-23,2025-04-21,有限会社カーコンサルティング・エスポワール,,有限会社,佐賀県,佐賀市,金立町大字金立１８２６番地１,,41,201,8490906,,,2025-04-21,清算の結了等,,,2015-10-05,1,,,,,カーコンサルティングエスポワール,0
1995,7380005011130,登記記録の閉鎖等,0,2025-04-23,2025-04-14,一般財団法人伊達市スポーツ振興公社,,その他の設立登記法人,福島県,伊達市,保原町大泉字宮脇２６５番地,,07,213,9600634,,,2025-04-14,合併による解散等,6380005001982,令和７年４月１日福島県伊達市梁川町青葉町１番地一般社団法人伊達市振興公社（6380005001982）に合併し解散,2015-10-05,1,,,,,ダテシスポーツシンコウコウシャ,0
2048,8010102003685,登記記録の閉鎖等,0,2025-04-23,2025-04-21,有限会社炭華,,有限会社,東京都,八王子市,山田町１６８９番地の２第２石井ビル,,13,201,1930933,,,2025-04-21,清算の結了等,,,2015-10-05,1,,,,,,0
2050,8010401085342,登記記録の閉鎖等,0,2025-04-23,2025-04-07,ＡＭＤ株式会社,,株式会社,東京都,渋谷区,猿楽町１８番８号,,13,113,1500033,,,2025-04-07,清算の結了等,,,2015-10-05,1,,,,,エーエムディ,0
2060,8010501009317,登記記録の閉鎖等,0,2025-04-23,2025-04-21,株式会社東京ステーション・サービス,,株式会社,東京都,台東区,東上野３丁目２１番９号,,13,106,1100015,,,2025-04-21,合併による解散等,3011101042662,令和７年４月１日東京都渋谷区千駄ヶ谷五丁目３３番８号株式会社ＪＲ東日本クロスステーション（3011101042662）に合併し解散,2015-10-05,1,,,,,トウキョウステーションサービス,0
2072,8011001039779,登記記録の閉鎖等,0,2025-04-23,2025-03-27,ケーケーディー株式会社,,株式会社,東京都,渋谷区,千駄ヶ谷４丁目２０番１号,,13,113,1510051,,,2025-03-27,清算の結了等,,,2015-10-05,1,,,,,ケーケーディー,0
2090,8011105003838,登記記録の閉鎖等,0,2025-04-23,2025-04-04,特定非営利活動法人ゴールドリボン・ネットワーク,,その他の設立登記法人,東京都,豊島区,西池袋２丁目２１番８号目白欅マンション２０４号室,,13,116,1710021,,,2025-04-04,清算の結了等,,,2015-10-05,1,,,,,ゴールドリボンネットワーク,0
2101,8011603000857,登記記録の閉鎖等,0,2025-04-23,2025-04-07,合同会社香林,,合同会社,東京都,練馬区,富士見台３丁目２２番７号,,13,120,1770034,,,2025-04-07,清算の結了等,,,2015-10-05,1,,,,,カリン,0
2102,8011701000932,登記記録の閉鎖等,0,2025-04-23,2025-04-16,株式会社亥来堂,,株式会社,東京都,江戸川区,南小岩７丁目２６番２１号,,13,123,1330056,,,2025-04-16,清算の結了等,,,2015-10-05,1,,,,,イライドウ,0
2122,8020001020129,登記記録の閉鎖等,0,2025-04-23,2025-04-04,株式会社コーエーテクモアド,,株式会社,神奈川県,横浜市港北区,箕輪町１丁目２３番３号,,14,109,2230051,,,2025-04-04,合併による解散等,1020001020127,令和７年３月３１日神奈川県横浜市西区みなとみらい四丁目３番６号株式会社コーエーテクモゲームス（1020001020127）に合併し解散,2015-10-05,1,,,,,,0
2130,8020002017909,登記記録の閉鎖等,0,2025-04-23,2025-04-14,有限会社相澤工務店,,有限会社,神奈川県,横浜市港南区,下永谷５丁目１１番２９号,,14,111,2330016,,,2025-04-14,清算の結了等,,,2015-10-05,1,,,,,アイザワコウムテン,0
2138,8030002000260,登記記録の閉鎖等,0,2025-04-23,2025-04-17,有限会社浅倉新聞店,,有限会社,埼玉県,さいたま市緑区,大字中尾８８４,,11,109,3360932,,,2025-04-17,清算の結了等,,,2015-10-05,1,,,,,アサクラシンブンテン,0
2139,8030002032510,登記記録の閉鎖等,0,2025-04-23,2025-04-17,有限会社若狭ソフト,,有限会社,埼玉県,所沢市,若狭１丁目２６１４番地の４３,,11,208,3591151,,,2025-04-17,清算の結了等,,,2015-10-05,1,,,,,ワカサソフト,0
2143,8040001118540,登記記録の閉鎖等,0,2025-04-23,2025-04-07,株式会社エリウェル,,株式会社,千葉県,浦安市,高洲７丁目１番１－４０７号,,12,227,2790023,,,2025-04-07,清算の結了等,,,2021-05-25,1,,,,,エリウェル,0
2149,8060002023630,登記記録の閉鎖等,0,2025-04-23,2025-04-11,有限会社伊藤穀屋商店,,有限会社,栃木県,那須塩原市,塩原６９６番地,,09,213,3292921,,,2025-04-11,清算の結了等,,,2015-10-05,1,,,,,イトウコクヤショウテン,0
2151,8080001023480,登記記録の閉鎖等,0,2025-04-23,2025-04-17,望月自動車販売株式会社,,株式会社,静岡県,静岡市清水区,清水町３番４号,,22,103,4240947,,,2025-04-17,清算の結了等,,,2020-04-06,1,,,,,モチヅキジドウシャハンバイ,0
2156,8100002037808,登記記録の閉鎖等,0,2025-04-23,2025-04-18,有限会社酒井,,有限会社,長野県,飯田市,松尾久井２３３７番地２,,20,205,3950816,,,2025-04-18,清算の結了等,,,2015-10-05,1,,,,,サカイ,0
2157,8110002009558,登記記録の閉鎖等,0,2025-04-23,2025-04-08,有限会社斎藤酒店,,有限会社,新潟県,新潟市秋葉区,新津本町２丁目６番２８号,,15,105,9560864,,,2025-04-08,清算の結了等,,,2015-10-05,1,,,,,サイトウサケテン,0
2176,8122002006955,登記記録の閉鎖等,0,2025-04-23,2025-04-08,有限会社ケィディエスサービス,,有限会社,大阪府,東大阪市,稲葉２丁目２番１４号,,27,227,5780925,,,2025-04-08,清算の結了等,,,2015-10-05,1,,,,,ケィディエスサービス,0
2193,8140002014836,登記記録の閉鎖等,0,2025-04-23,2025-04-17,有限会社たからや,,有限会社,兵庫県,神戸市中央区,相生町４丁目３番３号,,28,110,6500025,,,2025-04-17,清算の結了等,,,2015-10-05,1,,,,,タカラヤ,0
2244,8290805005174,登記記録の閉鎖等,0,2025-04-23,2025-04-18,上野海運船主協同組合,,その他の設立登記法人,福岡県,北九州市若松区,本町１丁目１０番１７号,,40,103,8080034,,,2025-04-18,清算の結了等,,,2015-10-05,1,,,,,ウエノカイウンセンシュ,0
2267,8360003010622,登記記録の閉鎖等,0,2025-04-23,2025-04-09,合同会社エウロペ,,合同会社,沖縄県,浦添市,安波茶１丁目９番１０号,,47,208,9012114,,,2025-04-09,清算の結了等,,,2020-10-14,1,,,,,,0
2272,8370602001649,登記記録の閉鎖等,0,2025-04-23,2025-04-09,有限会社星設備工業,,有限会社,宮城県,宮城郡七ヶ浜町,菖蒲田浜字向山６５番地の１,,04,404,9850811,,,2025-04-09,清算の結了等,,,2015-10-05,1,,,,,ホシセツビコウギョウ,0
2279,8400002007986,登記記録の閉鎖等,0,2025-04-23,2025-04-03,有限会社惠比寿,,有限会社,岩手県,花巻市,桜町１丁目４６８番地２,,03,205,0250084,,,2025-04-03,清算の結了等,,,2015-10-05,1,,,,,エビス,0
2286,8430001062988,登記記録の閉鎖等,0,2025-04-23,2025-04-21,株式会社山上長福水産,,株式会社,北海道,小樽市,高島３丁目１３番１号,,01,203,0470048,,,2025-04-21,清算の結了等,,,2015-10-05,1,,,,,,0
2289,8430003014293,登記記録の閉鎖等,0,2025-04-23,2025-04-14,合同会社ｋａｍｏ,,合同会社,北海道,札幌市中央区,南五条西４丁目一番地,,01,101,0640805,,,2025-04-14,清算の結了等,,,2022-09-14,1,,,,,カモ,0
2312,9010001206941,登記記録の閉鎖等,0,2025-04-23,2025-04-03,株式会社ＤＸコンサルティング,,株式会社,東京都,千代田区,五番町１２番地１,,13,101,1020076,,,2025-04-03,合併による解散等,3010001199720,令和７年４月１日東京都千代田区五番町１２番地１株式会社インフォメーション・ディベロプメント（3010001199720）に合併し解散,2020-01-23,1,,,,,ディーエックスコンサルティング,0
2316,9010001243662,登記記録の閉鎖等,0,2025-04-23,2025-04-03,株式会社ＩＤ　ＡＩ　Ｆａｃｔｏｒｙ,,株式会社,東京都,千代田区,五番町１２番地１,,13,101,1020076,,,2025-04-03,合併による解散等,3010001199720,令和７年４月１日東京都千代田区五番町１２番地１株式会社インフォメーション・ディベロプメント（3010001199720）に合併し解散,2024-04-08,1,,,,,アイディーエーアイファクトリー,0
2328,9010401112987,登記記録の閉鎖等,0,2025-04-23,2025-04-11,ＯＨＣ株式会社,,株式会社,北海道,小樽市,長橋５丁目３９番１号,,01,203,0470036,,,2025-04-11,清算の結了等,,,2015-10-05,1,,,,,オーエイチシー,0
2338,9010701001964,登記記録の閉鎖等,0,2025-04-23,2025-04-08,小倉印刷株式会社,,株式会社,神奈川県,横浜市港北区,高田西４丁目３１番７号,,14,109,2230066,,,2025-04-08,清算の結了等,,,2015-10-05,1,,,,,オグラインサツ,0
2339,9010701017960,登記記録の閉鎖等,0,2025-04-23,2025-04-02,株式会社章栄,,株式会社,東京都,品川区,戸越４丁目９番２０号,,13,109,1420041,,,2025-04-02,清算の結了等,,,2015-10-05,1,,,,,ショウエイ,0
2354,9011003009580,登記記録の閉鎖等,0,2025-04-23,2025-03-27,レオメディア合同会社,,合同会社,東京都,渋谷区,渋谷３丁目１番９号ＹＡＺＡＷＡビルＵＣＦ３階,,13,113,1500002,,,2025-03-27,清算の結了等,,,2019-01-18,1,,,,,レオメディア,0
2366,9011401025114,登記記録の閉鎖等,0,2025-04-23,2025-04-16,株式会社ＧｏｌｄＬｉｎｅ,,株式会社,東京都,板橋区,西台２丁目６－９,,13,119,1750045,,,2025-04-16,清算の結了等,,,2023-05-08,1,,,,,ゴールドライン,0
2375,9013301016960,登記記録の閉鎖等,0,2025-04-23,2025-04-03,株式会社ＩＤデータセンターマネジメント,,株式会社,東京都,千代田区,五番町１２番地１,,13,101,1020076,,,2025-04-03,合併による解散等,3010001199720,令和７年４月１日東京都千代田区五番町１２番地１株式会社インフォメーション・ディベロプメント（3010001199720）に合併し解散,2015-10-05,1,,,,,アイディーデータセンターマネジメント,0
2379,9020001051049,登記記録の閉鎖等,0,2025-04-23,2025-04-07,株式会社イデアブレイン,,株式会社,神奈川県,横浜市旭区,鶴ケ峰１丁目１４番地１,,14,112,2410022,,,2025-04-07,清算の結了等,,,2015-10-05,1,,,,,イデアブレイン,0
2392,9030002034480,登記記録の閉鎖等,0,2025-04-23,2025-04-17,有限会社みつわ商事,,有限会社,埼玉県,狭山市,大字南入曽５５０番地,,11,215,3501316,,,2025-04-17,清算の結了等,,,2015-10-05,1,,,,,ミツワショウジ,0
2393,9030002103616,登記記録の閉鎖等,0,2025-04-23,2025-04-17,有限会社しみず,,有限会社,埼玉県,川口市,戸塚１丁目１６番２７号,,11,203,3330811,,,2025-04-17,清算の結了等,,,2015-10-05,1,,,,,シミズ,0
2404,9060001030833,登記記録の閉鎖等,0,2025-04-23,2025-04-11,株式会社ストロイエ,,株式会社,栃木県,大田原市,美原１丁目６番１４号,,09,210,3240047,,,2025-04-11,清算の結了等,,,2018-08-29,1,,,,,ストロイエ,0
2408,9080401011150,登記記録の閉鎖等,0,2025-04-23,2025-04-08,株式会社グット・ファーマシー,,株式会社,静岡県,浜松市浜名区,貴布祢６００番地の５,,22,139,4340038,,,2025-04-08,合併による解散等,9080401005870,令和７年４月１日静岡県浜松市中央区根洗町５３５番地の２株式会社レーベンプラン（9080401005870）に合併し解散,2015-10-05,1,,,,,グットファーマシー,0
2416,9100002032411,登記記録の閉鎖等,0,2025-04-23,2025-04-17,有限会社網野鉄工,,有限会社,長野県,伊那市,平沢８４１２番地,,20,209,3960030,,,2025-04-17,清算の結了等,,,2015-10-05,1,,,,,アミノテッコウ,0
2455,9160001008555,登記記録の閉鎖等,0,2025-04-23,2025-04-17,株式会社ナイト,,株式会社,滋賀県,愛知郡愛荘町,沓掛８９番地の１,,25,425,5291315,,,2025-04-17,清算の結了等,,,2015-10-05,1,,,,,ナイト,0
2461,9180001063680,登記記録の閉鎖等,0,2025-04-23,2025-04-14,共生不動産株式会社,,株式会社,愛知県,名古屋市天白区,中坪町１１０番地,,23,116,4680048,,,2025-04-14,清算の結了等,,,2015-10-05,1,,,,,キヨウセイフドウサン,0
2468,9180302025289,登記記録の閉鎖等,0,2025-04-23,2025-04-15,有限会社夢木匠,,有限会社,愛知県,豊田市,藤岡飯野町釜下９８６番地１１,,23,211,4700451,,,2025-04-15,清算の結了等,,,2015-10-05,1,,,,,ユメキショウ,0
2469,9200002027715,登記記録の閉鎖等,0,2025-04-23,2025-04-09,有限会社猪俣酒店,,有限会社,岐阜県,郡上市,白鳥町中津屋９２７番地の１,,21,219,5015123,,,2025-04-09,清算の結了等,,,2015-10-05,1,,,,,イノマタサケテン,0
2477,9240002016474,登記記録の閉鎖等,0,2025-04-23,2025-04-17,有限会社未来社,,有限会社,広島県,広島市安佐南区,祇園７丁目２４番１０号,,34,105,7310138,,,2025-04-17,清算の結了等,,,2015-10-05,1,,,,,ミライシャ,0
2490,9280002009532,登記記録の閉鎖等,0,2025-04-23,2025-04-21,有限会社川高建設,,有限会社,島根県,邑智郡川本町,大字谷戸４３３番地１,,32,441,6960005,,,2025-04-21,清算の結了等,,,2015-10-05,1,,,,,カワタカケンセツ,0
2491,9280005003986,登記記録の閉鎖等,0,2025-04-23,2025-04-11,西日本たばこ耕作組合,,その他の設立登記法人,鳥取県,西伯郡南部町,東町６２番地１,,31,389,6830301,,,2025-04-11,合併による解散等,6470005006618,令和７年４月１日香川県高松市西内町７番２３号四国たばこ耕作組合（9500005003385）と合併して香川県高松市西内町７番２３号中四国たばこ耕作組合（6470005006618）を設立し解散,2015-10-05,1,,,,,ニシニホン,0
2492,9290001093675,登記記録の閉鎖等,0,2025-04-23,2025-04-04,株式会社ＨＵＢＯＸ,,株式会社,福岡県,柳川市,東蒲池１５７番地３０,,40,207,8320006,,,2025-04-04,清算の結了等,,,2021-06-28,1,,,,,ハブボックス,0
2510,9340001003612,登記記録の閉鎖等,0,2025-04-23,2025-04-17,日之出工産株式会社,,株式会社,鹿児島県,鹿児島市,日之出町２番２１号,,46,201,8900086,,,2025-04-17,清算の結了等,,,2015-10-05,1,,,,,ヒノデコウサン,0
2516,9340003003461,登記記録の閉鎖等,0,2025-04-23,2025-04-16,霞ヶ関アグリ合同会社,,合同会社,鹿児島県,曽於市,末吉町二之方３８３１番地２,,46,217,8998605,,,2025-04-16,清算の結了等,,,2021-06-11,1,,,,,カスミガセキアグリ,0
2547,9480002010197,登記記録の閉鎖等,0,2025-04-23,2025-04-21,有限会社岸田精工,,有限会社,徳島県,吉野川市,鴨島町喜来４４６番地,,36,205,7760005,,,2025-04-21,清算の結了等,,,2015-10-05,1,,,,,,0
2553,9500001002820,登記記録の閉鎖等,0,2025-04-23,2025-04-18,株式会社東広,,株式会社,愛媛県,松山市,南久米町７５６番地１７,,38,201,7900924,,,2025-04-18,清算の結了等,,,2015-10-05,1,,,,,トウコウ,0
