sequenceNumber,corporateNumber,process,correct,updateDate,changeDate,name,nameImageId,kind,prefectureName,cityName,streetNumber,addressImageId,prefectureCode,cityCode,postCode,addressOutside,addressOutsideImageId,closeDate,closeCause,successorCorporateNumber,changeCause,assignmentDate,latest,enName,enPrefectureName,enCityName,enAddressOutside,furigana,hihyoji
13,1010002025704,登記記録の閉鎖等,0,2022-08-29,2022-08-22,有限会社ムラヤマ,,有限会社,東京都,中央区,月島１丁目１３番６号,,13,102,1040052,,,2022-08-22,清算の結了等,,,2015-10-05,1,,,,,ムラヤマ,0
16,1010005031716,登記記録の閉鎖等,0,2022-08-29,2022-08-22,一般社団法人全国小規模事業者健康保険連合組合,,その他の設立登記法人,東京都,中央区,銀座１丁目２２－１１銀座大竹ビジデンス２Ｆ,,13,102,1040061,,,2022-08-22,清算の結了等,,,2020-04-16,1,,,,,ゼンコクショウキボジギョウシャケンコウホケンレンゴウクミアイ,0
20,1010402015899,登記記録の閉鎖等,0,2022-08-29,2022-08-22,エスエムエルシー・ピクター有限会社,,有限会社,東京都,千代田区,丸の内１丁目３番２号,,13,101,1000005,,,2022-08-22,清算の結了等,,,2015-10-05,1,,,,,エスエムエルシーピクター,0
31,1010901029094,登記記録の閉鎖等,0,2022-08-29,2022-08-09,株式会社美健,,株式会社,東京都,武蔵野市,吉祥寺本町１丁目２２番９号柏栄第一ビル３０３号室,,13,203,1800004,,,2022-08-09,清算の結了等,,,2015-10-05,1,,,,,ビケン,0
41,1011101040511,登記記録の閉鎖等,0,2022-08-29,2022-08-25,株式会社バイコム,,株式会社,東京都,豊島区,高田３丁目２３番２３号１階,,13,116,1710033,,,2022-08-25,清算の結了等,,,2015-10-05,1,,,,,バイコム,0
50,1011801034341,登記記録の閉鎖等,0,2022-08-29,2022-08-25,株式会社ｌｉｎｋ．ｆｏｏｄ,,株式会社,東京都,足立区,一ツ家２丁目１２番５号,,13,121,1210075,,,2022-08-25,合併による解散等,2040001095728,令和４年８月１７日千葉県柏市柏の葉五丁目１４番地１１株式会社ｌｉｎｋ（2040001095728）に合併し解散,2018-01-31,1,,,,,リンクフード,0
59,1020001112799,登記記録の閉鎖等,0,2022-08-29,2022-08-25,株式会社黒沢総合販売,,株式会社,神奈川県,横浜市泉区,下和泉１丁目７－２,,14,116,2450021,,,2022-08-25,清算の結了等,,,2015-10-05,1,,,,,クロサワソウゴウハンバイ,0
71,1021002046937,登記記録の閉鎖等,0,2022-08-29,2022-08-25,有限会社松尾興商,,有限会社,神奈川県,綾瀬市,寺尾台２丁目２番６号,,14,218,2521137,,,2022-08-25,清算の結了等,,,2015-10-05,1,,,,,マツオコウショウ,0
114,1080102017140,登記記録の閉鎖等,0,2022-08-29,2022-08-26,有限会社富士宮衣裳店,,有限会社,静岡県,富士宮市,中央町１番１５号,,22,207,4180065,,,2022-08-26,清算の結了等,,,2015-10-05,1,,,,,フジノミヤイショウテン,0
119,1100001028673,登記記録の閉鎖等,0,2022-08-29,2022-08-18,株式会社Ｅｔｅｒｎａｌ　Ｓｎｏｗ,,株式会社,長野県,長野市,北石堂町１３９８番地１,,20,201,3810000,,,2022-08-18,清算の結了等,,,2015-10-05,1,,,,,エターナルスノー,0
120,1100001029119,登記記録の閉鎖等,0,2022-08-29,2022-08-19,株式会社コンプレックスフィールド,,株式会社,長野県,諏訪市,赤羽根５番５号中村ビル１階,,20,206,3920011,,,2022-08-19,清算の結了等,,,2016-02-26,1,,,,,コンプレックスフィールド,0
151,1120102007095,登記記録の閉鎖等,0,2022-08-29,2022-08-25,有限会社角房,,有限会社,大阪府,堺市堺区,神南辺町２丁７６番地の１メゾンドール堺４３１号,,27,141,5900984,,,2022-08-25,清算の結了等,,,2015-10-05,1,,,,,カドフサ,0
164,1130001047233,登記記録の閉鎖等,0,2022-08-29,2022-08-23,アイコレクト株式会社,,株式会社,京都府,京都市左京区,田中南大久保町６９番地リバティ東大路１階,,26,103,6068214,,,2022-08-23,清算の結了等,,,2015-10-05,1,,,,,アイコレクト,0
173,1140002044039,登記記録の閉鎖等,0,2022-08-29,2022-08-25,有限会社不動建設,,有限会社,大阪府,大阪市淀川区,三国本町３丁目８番５号,,27,123,5320005,,,2022-08-25,清算の結了等,,,2015-10-05,1,,,,,フドウケンセツ,0
176,1150001019800,登記記録の閉鎖等,0,2022-08-29,2022-08-26,株式会社ＧＭＣ,,株式会社,奈良県,御所市,大字東松本１０８番地の３,,29,208,6392302,,,2022-08-26,清算の結了等,,,2015-10-05,1,,,,,,0
178,1170003000558,登記記録の閉鎖等,0,2022-08-29,2022-08-26,合資会社栗林鈑金工作所,,合資会社,和歌山県,新宮市,浮島５番１２号,,30,207,6470014,,,2022-08-26,清算の結了等,,,2015-10-05,1,,,,,クリバヤシバンキンコウサクショ,0
179,1180001088280,登記記録の閉鎖等,0,2022-08-29,2022-08-23,株式会社フォーテックアソシエイション,,株式会社,愛知県,岩倉市,北島町星川３９番地,,23,228,4820017,,,2022-08-23,清算の結了等,,,2015-10-05,1,,,,,フォーテックアソシエイション,0
188,1200001027285,登記記録の閉鎖等,0,2022-08-29,2022-08-26,飛騨製箸株式会社,00076763,株式会社,岐阜県,高山市,新宮町４３０５番地,,21,203,5060035,,,2022-08-26,清算の結了等,,,2015-10-05,1,,,,,,0
199,1240005015324,登記記録の閉鎖等,0,2022-08-29,2022-08-26,一般社団法人ひろしま未来プロジェクト,,その他の設立登記法人,広島県,廿日市市,津田１９９２番地,,34,213,7380222,,,2022-08-26,清算の結了等,,,2022-01-25,1,,,,,ヒロシマミライプロジェクト,0
226,1320002018305,登記記録の閉鎖等,0,2022-08-29,2022-08-24,有限会社さとう薬局,,有限会社,大分県,豊後大野市,犬飼町犬飼７４番地１,,44,212,8797301,,,2022-08-24,清算の結了等,,,2015-10-05,1,,,,,サトウヤッキョク,0
239,1390003000981,登記記録の閉鎖等,0,2022-08-29,2022-08-23,合同会社あすなろ,,合同会社,山形県,東村山郡中山町,大字長崎３０３０番地３１,,06,302,9900401,,,2022-08-23,清算の結了等,,,2015-10-05,1,,,,,アスナロ,0
241,1430001023237,登記記録の閉鎖等,0,2022-08-29,2022-08-10,株式会社丸貞千葉金属工業,,株式会社,北海道,札幌市白石区,栄通９丁目７番１８号,,01,104,0030021,,,2022-08-10,清算の結了等,,,2015-10-05,1,,,,,マルテイチバキンゾクコウギョウ,0
258,2010001108822,登記記録の閉鎖等,0,2022-08-29,2022-08-19,株式会社ウェブコンパス,,株式会社,東京都,中央区,日本橋馬喰町１丁目１４番４号,,13,102,1030002,,,2022-08-19,清算の結了等,,,2015-10-05,1,,,,,ウェブコンパス,0
265,2010002004129,登記記録の閉鎖等,0,2022-08-29,2022-08-19,有限会社東京プレス,,有限会社,東京都,文京区,白山２丁目２０番１０号,,13,105,1120001,,,2022-08-19,清算の結了等,,,2015-10-05,1,,,,,トウキョウプレス,0
266,2010002034035,登記記録の閉鎖等,0,2022-08-29,2022-08-22,キムリックコンテナサービス有限会社,,有限会社,東京都,千代田区,丸の内１丁目３番２号,,13,101,1000005,,,2022-08-22,清算の結了等,,,2015-10-05,1,,,,,キムリックコンテナサービス,0
272,2010401066439,登記記録の閉鎖等,0,2022-08-29,2022-08-22,エスエムエルシー・クレイタ株式会社,,株式会社,東京都,千代田区,丸の内１丁目３番２号,,13,101,1000005,,,2022-08-22,清算の結了等,,,2015-10-05,1,,,,,エスエムエルシークレイタ,0
273,2010401072536,登記記録の閉鎖等,0,2022-08-29,2022-08-22,エスエムエフエル・アルファルド株式会社,,株式会社,東京都,千代田区,丸の内１丁目３番２号,,13,101,1000005,,,2022-08-22,清算の結了等,,,2015-10-05,1,,,,,エスエムエフエルアルファルド,0
274,2010401122035,登記記録の閉鎖等,0,2022-08-29,2022-08-08,ＳＢＩボンド・インベストメント・マネジメント株式会社,,株式会社,東京都,港区,六本木１丁目６番１号,,13,103,1060032,,,2022-08-08,合併による解散等,2010401045054,令和４年８月１日東京都港区六本木一丁目６番１号ＳＢＩアセットマネジメント株式会社（2010401045054）に合併し解散,2015-12-10,1,,,,,エスビーアイボンドインベストメントマネジメント,0
275,2010401144649,登記記録の閉鎖等,0,2022-08-29,2022-08-08,ＳＢＩ　ＯｎｅＣｏｎｎｅｃｔ　Ｊａｐａｎ株式会社,,株式会社,東京都,港区,六本木１丁目６番１号,,13,103,1060032,,,2022-08-08,清算の結了等,,,2019-03-27,1,,,,,エスビーアイワンコネクトジャパン,0
278,2010402002194,登記記録の閉鎖等,0,2022-08-29,2022-08-22,エス・ビー・エル・サタン有限会社,,有限会社,東京都,千代田区,丸の内１丁目３番２号,,13,101,1000005,,,2022-08-22,清算の結了等,,,2015-10-05,1,,,,,エスビーエルサタン,0
282,2010405011408,登記記録の閉鎖等,0,2022-08-29,2022-08-01,アラベスク・エス一般社団法人,,その他の設立登記法人,東京都,港区,虎ノ門３丁目２２番１０－２０１号,,13,103,1050001,,,2022-08-01,清算の結了等,,,2015-10-05,1,,,,,アラベスクエス,0
290,2010801023386,登記記録の閉鎖等,0,2022-08-29,2022-08-23,株式会社富士電機工業所,,株式会社,東京都,大田区,山王４丁目１８番４号,,13,111,1430023,,,2022-08-23,清算の結了等,,,2015-10-05,1,,,,,フジデンキコウギョウショ,0
321,2020001121584,登記記録の閉鎖等,0,2022-08-29,2022-08-25,株式会社ゼクサー,,株式会社,神奈川県,横浜市港南区,日野中央２丁目１６番２０号,,14,111,2340053,,,2022-08-25,清算の結了等,,,2017-05-31,1,,,,,ゼクサー,0
325,2020002010514,登記記録の閉鎖等,0,2022-08-29,2022-08-25,有限会社秀美工芸,,有限会社,神奈川県,横浜市磯子区,岡村６丁目６番７号,,14,107,2350021,,,2022-08-25,清算の結了等,,,2015-10-05,1,,,,,シュウビコウゲイ,0
339,2030001105727,登記記録の閉鎖等,0,2022-08-29,2022-08-18,株式会社岩永,,株式会社,埼玉県,三郷市,早稲田６丁目３４番地４９,,11,237,3410018,,,2022-08-18,清算の結了等,,,2015-10-05,1,,,,,,0
349,2040001038942,登記記録の閉鎖等,0,2022-08-29,2022-08-19,株式会社スピード,,株式会社,千葉県,流山市,大字西平井１００７番地の１流山テクノセンター,,12,220,2700156,,,2022-08-19,清算の結了等,,,2015-10-05,1,,,,,スピード,0
351,2040001064047,登記記録の閉鎖等,0,2022-08-29,2022-08-19,株式会社岩立鉄工所,,株式会社,千葉県,香取市,竹之内５９６番地,,12,236,2890405,,,2022-08-19,清算の結了等,,,2015-10-05,1,,,,,イワタテテッコウジョ,0
365,2050001009901,登記記録の閉鎖等,0,2022-08-29,2022-08-24,株式会社阿見ビジネスセンター,,株式会社,茨城県,稲敷郡阿見町,大字廻戸８４番地１,,08,443,3000302,,,2022-08-24,清算の結了等,,,2015-10-05,1,,,,,アミビジネスセンター,0
413,2180001067878,登記記録の閉鎖等,0,2022-08-29,2022-08-24,シーケーホーム株式会社,,株式会社,愛知県,長久手市,五合池１１０５番地,,23,238,4801156,,,2022-08-24,清算の結了等,,,2015-10-05,1,,,,,シーケーホーム,0
428,2180305005071,登記記録の閉鎖等,0,2022-08-29,2022-08-24,刈谷御幸町商店街振興組合,,その他の設立登記法人,愛知県,刈谷市,御幸町４丁目１０５番地,,23,210,4480821,,,2022-08-24,清算の結了等,,,2015-10-05,1,,,,,カリヤミユキチョウ,0
433,2210001009653,登記記録の閉鎖等,0,2022-08-29,2022-08-26,ＢＨ株式会社,,株式会社,東京都,品川区,東五反田２丁目８番５号,,13,109,1410022,,,2022-08-26,清算の結了等,,,2015-10-05,1,,,,,ビーエイチ,0
453,2290802021411,登記記録の閉鎖等,0,2022-08-29,2022-08-26,菊耶物流有限会社,,有限会社,福岡県,鞍手郡小竹町,大宇勝野１７２８番地の３,,40,401,8201100,,,2022-08-26,清算の結了等,,,2015-10-05,1,,,,,キクヤブツリュウ,0
455,2330002023195,登記記録の閉鎖等,0,2022-08-29,2022-08-22,有限会社みなみあそ縫製工場,,有限会社,熊本県,阿蘇郡高森町,大字上色見２６７９番地,,43,428,8691601,,,2022-08-22,清算の結了等,,,2015-10-05,1,,,,,ミナミアソホウセイコウジョウ,0
463,2380002018959,登記記録の閉鎖等,0,2022-08-29,2022-08-23,有限会社市川,,有限会社,福島県,東白川郡棚倉町,大字棚倉字風呂ケ沢２２番地,,07,481,9636131,,,2022-08-23,清算の結了等,,,2015-10-05,1,,,,,イチカワ,0
464,2390003001236,登記記録の閉鎖等,0,2022-08-29,2022-08-23,合同会社内装吉田,00085090,合同会社,山形県,山形市,西田５丁目２５番３４号,,06,201,9900831,,,2022-08-23,清算の結了等,,,2015-10-05,1,,,,,ナイソウヨシダ,0
468,2430001054355,登記記録の閉鎖等,0,2022-08-29,2022-08-19,株式会社シティコーポレーション,,株式会社,北海道,苫小牧市,新開町１丁目１７番６号,,01,213,0530052,,,2022-08-19,清算の結了等,,,2015-10-05,1,,,,,シティコーポレーション,0
470,2430001079996,登記記録の閉鎖等,0,2022-08-29,2022-08-18,株式会社Ｎ・ＦＡＣＴＯＲＹ,,株式会社,北海道,札幌市白石区,北郷二条６丁目２番６－１４０２号,,01,104,0030832,,,2022-08-18,清算の結了等,,,2019-10-07,1,,,,,エヌファクトリー,0
494,3010002034034,登記記録の閉鎖等,0,2022-08-29,2022-08-22,シースワローナビゲーション有限会社,,有限会社,東京都,千代田区,丸の内１丁目３番２号,,13,101,1000005,,,2022-08-22,清算の結了等,,,2015-10-05,1,,,,,シースワローナビゲーション,0
495,3010002034050,登記記録の閉鎖等,0,2022-08-29,2022-08-22,シーホークナビゲーション有限会社,,有限会社,東京都,千代田区,丸の内１丁目３番２号,,13,101,1000005,,,2022-08-22,清算の結了等,,,2015-10-05,1,,,,,シーホークナビゲーション,0
496,3010003031947,登記記録の閉鎖等,0,2022-08-29,2022-08-23,エスティファンドワン合同会社,,合同会社,東京都,千代田区,丸の内３丁目１番１号東京共同会計事務所内,,13,101,1000005,,,2022-08-23,清算の結了等,,,2020-03-24,1,,,,,エスティファンドワン,0
506,3010401159984,登記記録の閉鎖等,0,2022-08-29,2022-08-09,Ｔｏａｔ株式会社,,株式会社,東京都,港区,港南２丁目１６番１号品川イーストワンタワー４Ｆリージャス品川イーストワンセンター,,13,103,1080075,,,2022-08-09,清算の結了等,,,2021-05-14,1,,,,,トゥーアット,0
527,3011003006781,登記記録の閉鎖等,0,2022-08-29,2022-08-10,合同会社ＲＭパートナーズ,,合同会社,東京都,渋谷区,恵比寿１丁目１５－９シルク恵比寿４０３,,13,113,1500013,,,2022-08-10,清算の結了等,,,2016-05-11,1,,,,,アールエムパートナーズ,0
533,3011203002804,登記記録の閉鎖等,0,2022-08-29,2022-08-23,アセットマネジメント合同会社,,合同会社,東京都,中野区,上高田１丁目１８番９号,,13,114,1640002,,,2022-08-23,清算の結了等,,,2018-06-18,1,,,,,アセットマネジメント,0
603,3080402015131,登記記録の閉鎖等,0,2022-08-29,2022-08-25,有限会社杉原建材,,有限会社,静岡県,浜松市天竜区,緑恵台５５６番地の４２,,22,137,4313424,,,2022-08-25,清算の結了等,,,2015-10-05,1,,,,,スギハラケンザイ,0
607,3090002008427,登記記録の閉鎖等,0,2022-08-29,2022-08-25,有限会社田中新聞店,,有限会社,山梨県,笛吹市,石和町市部１０１５番地,,19,211,4060031,,,2022-08-25,清算の結了等,,,2015-10-05,1,,,,,タナカシンブンテン,0
620,3120005009435,登記記録の閉鎖等,0,2022-08-29,2022-08-25,特定非営利活動法人のんきもの,,その他の設立登記法人,大阪府,大阪市城東区,東中浜３丁目５番１６号タイガーマンション１Ｆ,,27,118,5360023,,,2022-08-25,清算の結了等,,,2015-10-05,1,,,,,ノンキモノ,0
645,3150001019625,登記記録の閉鎖等,0,2022-08-29,2022-08-25,ヨシムラ株式会社,,株式会社,東京都,江東区,枝川２丁目７番２号,,13,108,1350051,,,2022-08-25,清算の結了等,,,2015-10-05,1,,,,,ヨシムラ,0
656,3180002062274,登記記録の閉鎖等,0,2022-08-29,2022-08-12,有限会社サン・アートエクステリア,,有限会社,愛知県,日進市,五色園１丁目１８０６番地,,23,230,4700105,,,2022-08-12,清算の結了等,,,2015-10-05,1,,,,,サンアートエクステリア,0
658,3180301023118,登記記録の閉鎖等,0,2022-08-29,2022-08-24,三洲海運株式会社,,株式会社,愛知県,西尾市,東幡豆町烏帽子ケ丘１番地,,23,213,4440701,,,2022-08-24,清算の結了等,,,2015-10-05,1,,,,,サンシュウカイウン,0
660,3190001017229,登記記録の閉鎖等,0,2022-08-29,2022-08-24,株式会社魚市蒲鉾店,,株式会社,三重県,四日市市,清水町４番４６号,,24,202,5100814,,,2022-08-24,清算の結了等,,,2022-07-21,1,,,,,ウオイチカマボコテン,0
663,3200002001188,登記記録の閉鎖等,0,2022-08-29,2022-08-26,有限会社岐阜教育研究所,,有限会社,岐阜県,岐阜市,若福町１７番１１号,,21,201,5020811,,,2022-08-26,清算の結了等,,,2015-10-05,1,,,,,ギフキョウイクケンキュウジョ,0
664,3220001004421,登記記録の閉鎖等,0,2022-08-29,2022-08-25,株式会社テクノス,,株式会社,石川県,金沢市,粟崎町４丁目７番地８,,17,201,9200226,,,2022-08-25,清算の結了等,,,2015-10-05,1,,,,,テクノス,0
686,3340001024507,登記記録の閉鎖等,0,2022-08-29,2022-08-25,株式会社たいよう,,株式会社,鹿児島県,指宿市,開聞十町２９２９番地１,,46,210,8910603,,,2022-08-25,清算の結了等,,,2022-02-28,1,,,,,タイヨウ,0
688,3360002011279,登記記録の閉鎖等,0,2022-08-29,2022-08-19,有限会社アートプロ沖縄,,有限会社,沖縄県,沖縄市,胡屋６丁目１１番１５号,,47,211,9040021,,,2022-08-19,清算の結了等,,,2015-10-05,1,,,,,,0
689,3400001006523,登記記録の閉鎖等,0,2022-08-29,2022-08-26,株式会社ニクス,,株式会社,岩手県,北上市,諏訪町２丁目４番５号,,03,206,0240034,,,2022-08-26,清算の結了等,,,2015-10-05,1,,,,,ニクス,0
691,3430001014003,登記記録の閉鎖等,0,2022-08-29,2022-08-18,日之出株式会社,,株式会社,北海道,札幌市中央区,宮の森三条７丁目１番１－６０７号,,01,101,0640953,,,2022-08-18,清算の結了等,,,2015-10-05,1,,,,,ヒノデ,0
701,3490001004477,登記記録の閉鎖等,0,2022-08-29,2022-08-23,コンバージサービス株式会社,,株式会社,高知県,高知市,仁井田４２３９番地,,39,201,7810112,,,2022-08-23,清算の結了等,,,2015-10-05,1,,,,,コンバージサービス,0
708,4010001187468,登記記録の閉鎖等,0,2022-08-29,2022-08-22,日本からだ開発株式会社,,株式会社,東京都,千代田区,丸の内１丁目５番１号,,13,101,1000005,,,2022-08-22,合併による解散等,8120001093305,令和４年８月１日大阪市北区小松原町２番４号大阪富国生命ビル日本駐車場開発株式会社（8120001093305）に合併し解散,2017-11-07,1,,,,,ニッポンカラダカイハツ,0
719,4010402018123,登記記録の閉鎖等,0,2022-08-29,2022-08-10,有限会社魚料理田はら,,有限会社,東京都,港区,西麻布３丁目５番４号,,13,103,1060031,,,2022-08-10,清算の結了等,,,2015-10-05,1,,,,,サカナリョウリタハラ,0
720,4010402023866,登記記録の閉鎖等,0,2022-08-29,2022-08-22,エスエムエフエル・フォーマルハウト有限会社,,有限会社,東京都,千代田区,丸の内１丁目３番２号,,13,101,1000005,,,2022-08-22,清算の結了等,,,2015-10-05,1,,,,,エスエムエフエルフォーマルハウト,0
752,4012701003615,登記記録の閉鎖等,0,2022-08-29,2022-08-23,東久留米共同開発株式会社,,株式会社,東京都,千代田区,飯田橋３丁目１３番１号,,13,101,1020072,,,2022-08-23,清算の結了等,,,2015-10-05,1,,,,,ヒガシクルメキョウドウカイハツ,0
764,4020002007392,登記記録の閉鎖等,0,2022-08-29,2022-08-23,有限会社青柳鉄工,,有限会社,神奈川県,横浜市金沢区,鳥浜町１２番１２,,14,108,2360002,,,2022-08-23,清算の結了等,,,2015-10-05,1,,,,,アオヤギテッコウ,0
770,4020005012084,登記記録の閉鎖等,0,2022-08-29,2022-08-24,一般社団法人いぶき宿,,その他の設立登記法人,神奈川県,横浜市戸塚区,柏尾町１２２５番地６,,14,110,2440812,,,2022-08-24,清算の結了等,,,2015-10-05,1,,,,,,0
778,4021002019007,登記記録の閉鎖等,0,2022-08-29,2022-08-25,有限会社カーボディー石川,,有限会社,神奈川県,相模原市中央区,横山台１丁目１３番１２号,,14,152,2520241,,,2022-08-25,清算の結了等,,,2015-10-05,1,,,,,カーボディーイシカワ,0
786,4030002039410,登記記録の閉鎖等,0,2022-08-29,2022-08-18,有限会社染谷商事,,有限会社,埼玉県,久喜市,栗橋中央１丁目１５番２５－８号,,11,232,3491102,,,2022-08-18,清算の結了等,,,2015-10-05,1,,,,,ソメヤショウジ,0
798,4050002028114,登記記録の閉鎖等,0,2022-08-29,2022-08-25,有限会社大黒屋造花店,,有限会社,茨城県,神栖市,波崎９２７４番地１,,08,232,3140408,,,2022-08-25,清算の結了等,,,2015-10-05,1,,,,,ダイコクヤゾウカテン,0
801,4060002000716,登記記録の閉鎖等,0,2022-08-29,2022-08-23,有限会社アコルト,,有限会社,栃木県,宇都宮市,西川田南１丁目４０番２５号,,09,201,3210155,,,2022-08-23,清算の結了等,,,2015-10-05,1,,,,,アコルト,0
806,4070001033641,登記記録の閉鎖等,0,2022-08-29,2022-08-16,株式会社ルココン,,株式会社,群馬県,高崎市,吉井町馬庭９４０番地１,,10,202,3702104,,,2022-08-16,清算の結了等,,,2017-06-14,1,,,,,ルココン,0
807,4080002018483,登記記録の閉鎖等,0,2022-08-29,2022-08-25,有限会社ハシモト水産,,有限会社,静岡県,静岡市葵区,新通２丁目２番９－１００１号,,22,101,4200065,,,2022-08-25,清算の結了等,,,2015-10-05,1,,,,,ハシモトスイサン,0
814,4110001021377,登記記録の閉鎖等,0,2022-08-29,2022-08-24,株式会社ドリームクリエーション,,株式会社,新潟県,十日町市,新座甲４０３番地２０,,15,210,9480000,,,2022-08-24,清算の結了等,,,2015-10-05,1,,,,,ドリームクリエーション,0
816,4110001027647,登記記録の閉鎖等,0,2022-08-29,2022-08-25,株式会社長沢製材所,,株式会社,新潟県,佐渡市,浜田２０３番地１,,15,224,9520007,,,2022-08-25,清算の結了等,,,2015-10-05,1,,,,,,0
853,4140002007232,登記記録の閉鎖等,0,2022-08-29,2022-08-25,有限会社コウベカーメイク,,有限会社,兵庫県,神戸市兵庫区,吉田町３丁目７番２５号,,28,105,6520872,,,2022-08-25,清算の結了等,,,2015-10-05,1,,,,,コウベカーメイク,0
868,4180005012515,登記記録の閉鎖等,0,2022-08-29,2022-08-25,特定非営利活動法人キャリアトレーニング,,その他の設立登記法人,東京都,豊島区,南大塚２丁目１１番１０号ミモザビル３Ｆ,,13,116,1700005,,,2022-08-25,清算の結了等,,,2015-10-05,1,,,,,キャリアトレーニング,0
874,4190002019891,登記記録の閉鎖等,0,2022-08-29,2022-08-24,有限会社北三重商事,,有限会社,三重県,四日市市,小古曽東１丁目２番２０号,,24,202,5100951,,,2022-08-24,清算の結了等,,,2015-10-05,1,,,,,キタミエショウジ,0
875,4200001011278,登記記録の閉鎖等,0,2022-08-29,2022-08-26,東陽化成品株式会社,,株式会社,岐阜県,羽島市,竹鼻町丸の内９丁目６５番地の１,,21,209,5016244,,,2022-08-26,清算の結了等,,,2015-10-05,1,,,,,トウヨウカセイヒン,0
878,4200003001145,登記記録の閉鎖等,0,2022-08-29,2022-08-26,合資会社松尾金物店,,合資会社,岐阜県,各務原市,那加本町３０番地,,21,213,5040966,,,2022-08-26,清算の結了等,,,2015-10-05,1,,,,,マツオカナモノテン,0
880,4220001023874,登記記録の閉鎖等,0,2022-08-29,2022-08-25,佐々木幕府株式会社,,株式会社,石川県,金沢市,福増町北１１０７番地ムーンハイツＢ号室,,17,201,9200376,,,2022-08-25,清算の結了等,,,2020-12-11,1,,,,,ササキバクフ,0
894,4290002050556,登記記録の閉鎖等,0,2022-08-29,2022-08-23,テクノ第一有限会社,,有限会社,福岡県,久留米市,藤光町２２２番地１,,40,203,8300054,,,2022-08-23,清算の結了等,,,2015-10-05,1,,,,,テクノダイイチ,0
915,4390001001013,登記記録の閉鎖等,0,2022-08-29,2022-08-23,株式会社清電装置,,株式会社,山形県,山形市,飯田５丁目１１番６号,,06,201,9902332,,,2022-08-23,清算の結了等,,,2015-10-05,1,,,,,セイデンソウチ,0
957,5010401072475,登記記録の閉鎖等,0,2022-08-29,2022-08-22,クラウンライオンリーシング株式会社,,株式会社,東京都,千代田区,丸の内１丁目３番２号,,13,101,1000005,,,2022-08-22,清算の結了等,,,2015-10-05,1,,,,,クラウンライオンリーシング,0
964,5010402002191,登記記録の閉鎖等,0,2022-08-29,2022-08-22,エスエムエルシー・カストル有限会社,,有限会社,東京都,千代田区,丸の内１丁目３番２号,,13,101,1000005,,,2022-08-22,清算の結了等,,,2015-10-05,1,,,,,エスエムエルシーカストル,0
973,5011001055705,登記記録の閉鎖等,0,2022-08-29,2022-08-10,株式会社友和イメージング,,株式会社,東京都,渋谷区,東３丁目１５番７号ヒューリック恵比寿ビル２階,,13,113,1500011,,,2022-08-10,清算の結了等,,,2015-10-05,1,,,,,ユウワイメージング,0
974,5011001071124,登記記録の閉鎖等,0,2022-08-29,2022-08-10,株式会社ピーアールシーディーエー,,株式会社,東京都,渋谷区,神宮前６丁目３５番３号,,13,113,1500001,,,2022-08-10,清算の結了等,,,2015-10-05,1,,,,,ピーアールシーディーエー,0
998,5013201017311,登記記録の閉鎖等,0,2022-08-29,2022-08-09,株式会社トップライン,,株式会社,東京都,目黒区,上目黒５丁目２６番２１号,,13,110,1530051,,,2022-08-09,清算の結了等,,,2015-10-05,1,,,,,トップライン,0
1005,5020001089464,登記記録の閉鎖等,0,2022-08-29,2022-08-25,株式会社リナプス,,株式会社,神奈川県,横浜市都筑区,茅ケ崎南４丁目１４番１－１４０４号,,14,118,2240037,,,2022-08-25,清算の結了等,,,2015-10-05,1,,,,,リナプス,0
1008,5021001069423,登記記録の閉鎖等,0,2022-08-29,2022-08-25,株式会社ＹＣ横須賀北部,,株式会社,神奈川県,横須賀市,長浦町３丁目１１番,,14,201,2370072,,,2022-08-25,清算の結了等,,,2020-03-03,1,,,,,ワイシーヨコスカホクブ,0
1009,5030001099603,登記記録の閉鎖等,0,2022-08-29,2022-08-08,アルファープラス株式会社,,株式会社,群馬県,高崎市,元島名町４７８番地３,,10,202,3700014,,,2022-08-08,清算の結了等,,,2015-10-05,1,,,,,アルファープラス,0
1013,5030002046406,登記記録の閉鎖等,0,2022-08-29,2022-08-10,有限会社旭建基,,有限会社,埼玉県,八潮市,大字浮塚１０９１番地６,,11,234,3400835,,,2022-08-10,清算の結了等,,,2015-10-05,1,,,,,アサヒケンキ,0
1019,5040001115474,登記記録の閉鎖等,0,2022-08-29,2022-08-22,株式会社千の風,,株式会社,千葉県,流山市,大字西深井２１７３番地１,,12,220,2700107,,,2022-08-22,清算の結了等,,,2020-10-14,1,,,,,センノカゼ,0
1028,5050002012331,登記記録の閉鎖等,0,2022-08-29,2022-08-24,有限会社ミントリース,,有限会社,茨城県,土浦市,文京町一丁目２番地,,08,203,3000045,,,2022-08-24,清算の結了等,,,2015-10-05,1,,,,,ミントリース,0
1029,5050002015771,登記記録の閉鎖等,0,2022-08-29,2022-08-24,有限会社灰吹屋山口薬局,,有限会社,茨城県,石岡市,府中２丁目１番２８号,,08,205,3150013,,,2022-08-24,清算の結了等,,,2015-10-05,1,,,,,ハイフキヤヤマグチヤッキョク,0
1036,5080102000737,登記記録の閉鎖等,0,2022-08-29,2022-08-26,有限会社大畑電気工業,,有限会社,静岡県,沼津市,庄栄町６番７号,,22,203,4100047,,,2022-08-26,清算の結了等,,,2015-10-05,1,,,,,オオハタデンキコウギョウ,0
1040,5100002028743,登記記録の閉鎖等,0,2022-08-29,2022-08-19,有限会社バック・アップ,,有限会社,長野県,諏訪市,南町３番地１１,,20,206,3920014,,,2022-08-19,清算の結了等,,,2015-10-05,1,,,,,バックアップ,0
1044,5120001031804,登記記録の閉鎖等,0,2022-08-29,2022-08-19,株式会社安川製作所,,株式会社,大阪府,大阪市住之江区,西加賀屋３丁目１０番１５号,,27,125,5590016,,,2022-08-19,清算の結了等,,,2015-10-05,1,,,,,ヤスカワセイサクショ,0
1053,5120001170263,登記記録の閉鎖等,0,2022-08-29,2022-08-26,株式会社リッチフィールド,,株式会社,兵庫県,西宮市,甲子園口３丁目２３番１６号,,28,204,6638113,,,2022-08-26,清算の結了等,,,2015-10-05,1,,,,,リッチフィールド,0
1082,5140003015068,登記記録の閉鎖等,0,2022-08-29,2022-08-25,合同会社カイラインベストメント,,合同会社,兵庫県,神戸市西区,神出町田井３３２番地の８,,28,111,6512313,,,2022-08-25,清算の結了等,,,2020-06-15,1,,,,,カイラインベストメント,0
1089,5160001006298,登記記録の閉鎖等,0,2022-08-29,2022-08-25,株式会社山下新聞,,株式会社,滋賀県,甲賀市,水口町本町３丁目１番４４号,,25,209,5280031,,,2022-08-25,清算の結了等,,,2015-10-05,1,,,,,ヤマシタシンブン,0
1091,5160002012634,登記記録の閉鎖等,0,2022-08-29,2022-08-25,有限会社京善,,有限会社,大阪府,大阪市西区,西本町１丁目８番２号,,27,106,5500005,,,2022-08-25,清算の結了等,,,2015-10-05,1,,,,,キョウゼン,0
1105,5220001012018,登記記録の閉鎖等,0,2022-08-29,2022-08-25,株式会社コマーク,,株式会社,石川県,小松市,月津町ラ３７番地１,,17,203,9230972,,,2022-08-25,清算の結了等,,,2015-10-05,1,,,,,コマーク,0
1116,5240002030438,登記記録の閉鎖等,0,2022-08-29,2022-08-09,有限会社村井工務店,,有限会社,広島県,三次市,下川立町７６０番地,,34,209,7296333,,,2022-08-09,清算の結了等,,,2015-10-05,1,,,,,ムライコウムテン,0
1127,5280002006896,登記記録の閉鎖等,0,2022-08-29,2022-08-25,有限会社福田青果,,有限会社,島根県,出雲市,中野町８５９番地２,,32,203,6930062,,,2022-08-25,清算の結了等,,,2015-10-05,1,,,,,フクダセイカ,0
1136,5330002007897,登記記録の閉鎖等,0,2022-08-29,2022-08-23,日建ホームズ有限会社,,有限会社,熊本県,熊本市東区,保田窪３丁目２３番１１２号,,43,102,8620926,,,2022-08-23,清算の結了等,,,2015-10-05,1,,,,,ニッケンホームズ,0
1152,5440002002086,登記記録の閉鎖等,0,2022-08-29,2022-08-23,有限会社シム,,有限会社,北海道,函館市,柏木町１６番４９号,,01,202,0420942,,,2022-08-23,清算の結了等,,,2015-10-05,1,,,,,シム,0
1165,6010002034056,登記記録の閉鎖等,0,2022-08-29,2022-08-22,おやしおコンテナサービス有限会社,,有限会社,東京都,千代田区,丸の内１丁目３番２号,,13,101,1000005,,,2022-08-22,清算の結了等,,,2015-10-05,1,,,,,オヤシオコンテナサービス,0
1171,6010005031851,登記記録の閉鎖等,0,2022-08-29,2022-08-23,一般社団法人淡路町ソーラーホールディングス,,その他の設立登記法人,東京都,千代田区,麹町２丁目８番地ＭＬＣ麹町ビル４階松本会計事務所内,,13,101,1020083,,,2022-08-23,清算の結了等,,,2020-05-22,1,,,,,アワジチョウソーラーホールディングス,0
1177,6010402023864,登記記録の閉鎖等,0,2022-08-29,2022-08-22,エスエムエルシー・メラク有限会社,,有限会社,東京都,千代田区,丸の内１丁目３番２号,,13,101,1000005,,,2022-08-22,清算の結了等,,,2015-10-05,1,,,,,エスエムエルシーメラク,0
1178,6010402023880,登記記録の閉鎖等,0,2022-08-29,2022-08-22,エスエムエルシー・コロンバ有限会社,,有限会社,東京都,千代田区,丸の内１丁目３番２号,,13,101,1000005,,,2022-08-22,清算の結了等,,,2015-10-05,1,,,,,エスエムエルシーコロンバ,0
1179,6010403013096,登記記録の閉鎖等,0,2022-08-29,2022-08-19,合同会社ＳＡｃｏｍｐａｎｙ,,合同会社,東京都,中央区,八重洲１丁目１番８号八重洲ＫＴビル５階,,13,102,1030028,,,2022-08-19,清算の結了等,,,2015-10-05,1,,,,,エスエーカンパニー,0
1220,6011301003981,登記記録の閉鎖等,0,2022-08-29,2022-08-23,泰誠化成株式会社,,株式会社,東京都,杉並区,桃井４丁目９番１０号,,13,115,1670034,,,2022-08-23,清算の結了等,,,2015-10-05,1,,,,,タイセイカセイ,0
1259,6040002071220,登記記録の閉鎖等,0,2022-08-29,2022-08-22,有限会社笹子工業,,有限会社,千葉県,富津市,大堀１丁目１５番地６,,12,226,2930001,,,2022-08-22,清算の結了等,,,2015-10-05,1,,,,,,0
1261,6050002012470,登記記録の閉鎖等,0,2022-08-29,2022-08-24,有限会社ローズメディカルサービス,,有限会社,茨城県,土浦市,文京町一丁目２番地,,08,203,3000045,,,2022-08-24,清算の結了等,,,2015-10-05,1,,,,,ローズメディカルサービス,0
1264,6060001034507,登記記録の閉鎖等,0,2022-08-29,2022-08-23,株式会社Ｂｅｙｏｎｄ　Ｒｅｌａｔｉｏｎ,,株式会社,栃木県,下都賀郡野木町,大字丸林３７５番地６,,09,364,3290111,,,2022-08-23,清算の結了等,,,2022-01-26,1,,,,,ビヨンドリレーション,0
1281,6120001170262,登記記録の閉鎖等,0,2022-08-29,2022-08-26,株式会社コーエィ,,株式会社,兵庫県,西宮市,甲子園口３丁目２３番１６号,,28,204,6638113,,,2022-08-26,清算の結了等,,,2015-10-05,1,,,,,コーエィ,0
1294,6122003002088,登記記録の閉鎖等,0,2022-08-29,2022-08-17,合同会社ＣＯＮＮＥＣＴ,,合同会社,大阪府,東大阪市,小阪本町１丁目１１番１－１００１号,,27,227,5770802,,,2022-08-17,合併による解散等,8122001036037,令和４年８月１７日大阪府東大阪市西堤本通東一丁目１番１号５階株式会社コネクト（8122001036037）に合併し解散,2021-05-12,1,,,,,コネクト,0
1335,6180002080892,登記記録の閉鎖等,0,2022-08-29,2022-08-22,有限会社高尾,,有限会社,愛知県,稲沢市,福島町中浦３５番地,,23,220,4928441,,,2022-08-22,清算の結了等,,,2015-10-05,1,,,,,タカオ,0
1346,6220002010580,登記記録の閉鎖等,0,2022-08-29,2022-08-25,有限会社小泉自動車,,有限会社,石川県,小松市,福乃宮町２丁目１０番地,,17,203,9230865,,,2022-08-25,清算の結了等,,,2015-10-05,1,,,,,コイズミジドウシャ,0
1359,6290001077516,登記記録の閉鎖等,0,2022-08-29,2022-08-19,株式会社スターエクスプレス・ジャパン,,株式会社,福岡県,福岡市博多区,御供所町１３－１２－２０２,,40,132,8120037,,,2022-08-19,清算の結了等,,,2017-04-21,1,,,,,スターエクスプレスジャパン,0
1371,6310003002915,登記記録の閉鎖等,0,2022-08-29,2022-08-26,合同会社長崎新聞時津販売センター,,合同会社,長崎県,西彼杵郡時津町,久留里郷１４３９番地５,,42,308,8512107,,,2022-08-26,清算の結了等,,,2015-10-05,1,,,,,ナガサキシンブントギツハンバイセンター,0
1373,6330001003376,登記記録の閉鎖等,0,2022-08-29,2022-08-23,株式会社南條商店,,株式会社,熊本県,熊本市中央区,本荘５丁目９番１０号,,43,101,8600811,,,2022-08-23,清算の結了等,,,2015-10-05,1,,,,,ナンジョウショウテン,0
1384,6380002008221,登記記録の閉鎖等,0,2022-08-29,2022-08-23,有限会社エヌ・ピー・アール,,有限会社,福島県,西白河郡矢吹町,八幡町８４６番地７,,07,466,9690222,,,2022-08-23,清算の結了等,,,2015-10-05,1,,,,,エヌピーアール,0
1405,7010001139490,登記記録の閉鎖等,0,2022-08-29,2022-08-23,山佐ＴＨＹ４リース株式会社,,株式会社,東京都,千代田区,丸の内３丁目１番１号東京共同会計事務所内,,13,101,1000005,,,2022-08-23,清算の結了等,,,2015-10-05,1,,,,,ヤマサティーエイチワイフォーリース,0
1411,7010002023322,登記記録の閉鎖等,0,2022-08-29,2022-08-19,有限会社中靜産業不動産部,,有限会社,東京都,中央区,日本橋人形町１丁目１７番２号,,13,102,1030013,,,2022-08-19,清算の結了等,,,2015-10-05,1,,,,,ナカシズサンギョウフドウサンブ,0
1416,7010402021099,登記記録の閉鎖等,0,2022-08-29,2022-08-22,エスエムエフエル・アテナ有限会社,,有限会社,東京都,千代田区,丸の内１丁目３番２号,,13,101,1000005,,,2022-08-22,清算の結了等,,,2015-10-05,1,,,,,エスエムエフエルアテナ,0
1421,7010501045800,登記記録の閉鎖等,0,2022-08-29,2022-08-26,倚天株式会社,,株式会社,東京都,台東区,上野３丁目１１番５号,,13,106,1100005,,,2022-08-26,清算の結了等,,,2020-06-03,1,,,,,キテン,0
1424,7010602026641,登記記録の閉鎖等,0,2022-08-29,2022-08-25,有限会社タルバーラレコーディングス,,有限会社,東京都,江東区,南砂１丁目５番３０－８２０号,,13,108,1360076,,,2022-08-25,清算の結了等,,,2015-10-05,1,,,,,,0
1443,7011001111480,登記記録の閉鎖等,0,2022-08-29,2022-08-09,株式会社ウィズボックス,,株式会社,東京都,渋谷区,千駄ヶ谷２丁目１０番６号,,13,113,1510051,,,2022-08-09,清算の結了等,,,2016-06-17,1,,,,,ウィズボックス,0
1447,7011101055149,登記記録の閉鎖等,0,2022-08-29,2022-08-18,株式会社一都,,株式会社,千葉県,千葉市美浜区,高浜４丁目５番１１棟３０１号,,12,106,2610003,,,2022-08-18,清算の結了等,,,2015-10-05,1,,,,,イット,0
1456,7011401022699,登記記録の閉鎖等,0,2022-08-29,2022-08-26,株式会社仙人掌,,株式会社,東京都,板橋区,宮本町１７番１３号廣瀬荘２０１号,,13,119,1740054,,,2022-08-26,清算の結了等,,,2020-07-27,1,,,,,,0
1470,7020001112678,登記記録の閉鎖等,0,2022-08-29,2022-08-25,江波商事株式会社,,株式会社,神奈川県,横浜市戸塚区,小雀町２２３４番地２,,14,110,2440004,,,2022-08-25,清算の結了等,,,2015-10-05,1,,,,,エナミショウジ,0
1510,7120901028328,登記記録の閉鎖等,0,2022-08-29,2022-08-25,株式会社楽,,株式会社,大阪府,豊中市,末広町１丁目２番１６号,,27,203,5600024,,,2022-08-25,清算の結了等,,,2015-10-05,1,,,,,ガク,0
1511,7120901044151,登記記録の閉鎖等,0,2022-08-29,2022-08-25,株式会社アクモル,,株式会社,大阪府,箕面市,船場東２丁目４番１号フレスデザイン５階Ｓ０６,,27,220,5620035,,,2022-08-25,清算の結了等,,,2021-04-08,1,,,,,アクモル,0
1533,7150002009472,登記記録の閉鎖等,0,2022-08-29,2022-08-26,有限会社友亜緑化,,有限会社,奈良県,大和高田市,礒野南町５番３３号,,29,202,6350062,,,2022-08-26,清算の結了等,,,2015-10-05,1,,,,,,0
1544,7180002082260,登記記録の閉鎖等,0,2022-08-29,2022-08-24,有限会社山本電気,,有限会社,愛知県,江南市,高屋町大門２６４番地の１,,23,217,4838035,,,2022-08-24,清算の結了等,,,2015-10-05,1,,,,,ヤマモトデンキ,0
1553,7240001019042,登記記録の閉鎖等,0,2022-08-29,2022-08-25,株式会社ＭＩＳＴＲＥＬＡ,,株式会社,広島県,広島市東区,中山東３丁目１番５７号,,34,102,7320023,,,2022-08-25,清算の結了等,,,2015-10-05,1,,,,,ミストレラ,0
1564,7290001008370,登記記録の閉鎖等,0,2022-08-29,2022-08-23,株式会社綜合広告社,,株式会社,福岡県,福岡市中央区,舞鶴１丁目５番６号,,40,133,8100073,,,2022-08-23,清算の結了等,,,2015-10-05,1,,,,,ソウゴウコウコクシャ,0
1574,7300002010324,登記記録の閉鎖等,0,2022-08-29,2022-08-25,有限会社小島製麺,,有限会社,佐賀県,唐津市,東唐津４丁目２番５号,,41,202,8470017,,,2022-08-25,清算の結了等,,,2015-10-05,1,,,,,,0
1576,7330003004818,登記記録の閉鎖等,0,2022-08-29,2022-08-23,合同会社堂上鉄工,,合同会社,熊本県,宇城市,松橋町浦川内１８６番地,,43,213,8690521,,,2022-08-23,清算の結了等,,,2015-10-05,1,,,,,ドウノウエテッコウ,0
1618,8010401161589,登記記録の閉鎖等,0,2022-08-29,2022-08-12,株式会社ａ－ｍｏｖｅ,,株式会社,東京都,港区,浜松町２丁目２－１５ダイヤビル２Ｆ,,13,103,1050013,,,2022-08-12,清算の結了等,,,2021-07-20,1,,,,,エームーブ,0
1619,8010402023879,登記記録の閉鎖等,0,2022-08-29,2022-08-22,ラグドールコンテナサービス有限会社,,有限会社,東京都,千代田区,丸の内１丁目３番２号,,13,101,1000005,,,2022-08-22,清算の結了等,,,2015-10-05,1,,,,,ラグドールコンテナサービス,0
1629,8011001003710,登記記録の閉鎖等,0,2022-08-29,2022-08-09,株式会社エス・ケイ・ケー,,株式会社,東京都,渋谷区,恵比寿西２丁目１３番１号,,13,113,1500021,,,2022-08-09,清算の結了等,,,2015-10-05,1,,,,,エスケイケー,0
1630,8011001033591,登記記録の閉鎖等,0,2022-08-29,2022-08-26,株式会社アークインターナショナル,,株式会社,東京都,豊島区,東池袋３丁目２０番３号,,13,116,1700013,,,2022-08-26,清算の結了等,,,2015-10-05,1,,,,,アークインターナショナル,0
1640,8011101070205,登記記録の閉鎖等,0,2022-08-29,2022-08-26,株式会社ゼロゾーン,,株式会社,東京都,新宿区,新宿５丁目１７番６号,,13,104,1600022,,,2022-08-26,清算の結了等,,,2015-10-05,1,,,,,,0
1649,8011201023500,登記記録の閉鎖等,0,2022-08-29,2022-08-22,株式会社グリーンカルテット拓,,株式会社,東京都,中野区,中央２丁目１番６号コーポ武蔵屋２０４,,13,114,1640011,,,2022-08-22,清算の結了等,,,2021-12-22,1,,,,,グリーンカルテットタク,0
1688,8030001006952,登記記録の閉鎖等,0,2022-08-29,2022-08-17,パレスセントラルスポーツ株式会社,,株式会社,埼玉県,さいたま市大宮区,桜木町１丁目７番地５,,11,103,3300854,,,2022-08-17,清算の結了等,,,2015-10-05,1,,,,,パレスセントラルスポーツ,0
1703,8040005001668,登記記録の閉鎖等,0,2022-08-29,2022-08-22,特定非営利活動法人緑区子どもサポートセンター,,その他の設立登記法人,千葉県,千葉市緑区,誉田町２丁目６番地５４モアクレストリバティヒルズ５０７号,,12,105,2660005,,,2022-08-22,清算の結了等,,,2015-10-05,1,,,,,ミドリクコドモサポートセンター,0
1704,8040005006171,登記記録の閉鎖等,0,2022-08-29,2022-08-22,医療法人社団成橘会,,その他の設立登記法人,千葉県,成田市,上町６６９番地,,12,211,2860032,,,2022-08-22,清算の結了等,,,2015-10-05,1,,,,,ナリキチカイ,0
1708,8050001050016,登記記録の閉鎖等,0,2022-08-29,2022-08-24,太陽建設株式会社,,株式会社,茨城県,猿島郡境町,大字長井戸１６８９番地の１,,08,546,3060404,,,2022-08-24,清算の結了等,,,2021-10-26,1,,,,,タイヨウケンセツ,0
1715,8060002009464,登記記録の閉鎖等,0,2022-08-29,2022-08-23,有限会社ヨシザワ,,有限会社,栃木県,宇都宮市,池上町４番２２号,,09,201,3200801,,,2022-08-23,清算の結了等,,,2015-10-05,1,,,,,ヨシザワ,0
1717,8080001005025,登記記録の閉鎖等,0,2022-08-29,2022-08-25,株式会社丸光総業,,株式会社,静岡県,静岡市葵区,川合１丁目１０番５２号,,22,101,4200923,,,2022-08-25,清算の結了等,,,2015-10-05,1,,,,,マルミツソウギョウ,0
1722,8080403000482,登記記録の閉鎖等,0,2022-08-29,2022-08-19,合資会社アーク,,合資会社,静岡県,湖西市,鷲津３４３４番地,,22,221,4310431,,,2022-08-19,清算の結了等,,,2015-10-05,1,,,,,アーク,0
1728,8120001014203,登記記録の閉鎖等,0,2022-08-29,2022-08-25,アイテック産業株式会社,,株式会社,大阪府,大阪市城東区,今福西４丁目４番２３号,,27,118,5360004,,,2022-08-25,清算の結了等,,,2015-10-05,1,,,,,アイテックサンギョウ,0
1732,8120001154230,登記記録の閉鎖等,0,2022-08-29,2022-08-25,株式会社薄勝英総合美容研究所,,株式会社,大阪府,寝屋川市,香里新町２１番７号,,27,215,5720085,,,2022-08-25,清算の結了等,,,2015-10-05,1,,,,,ウスキカツエイソウゴウビヨウケンキュウショ,0
1733,8120001167975,登記記録の閉鎖等,0,2022-08-29,2022-08-18,株式会社伊藤工務店,,株式会社,大阪府,吹田市,江坂町３丁目４５番１３号,,27,205,5640063,,,2022-08-18,清算の結了等,,,2015-10-05,1,,,,,イトウコウムテン,0
1784,8210002013756,登記記録の閉鎖等,0,2022-08-29,2022-08-25,佐藤商事有限会社,,有限会社,福井県,小浜市,水取１丁目５番２３号,,18,204,9170093,,,2022-08-25,清算の結了等,,,2015-10-05,1,,,,,サトウショウジ,0
1794,8260001011244,登記記録の閉鎖等,0,2022-08-29,2022-08-26,株式会社タマダ,,株式会社,岡山県,岡山市中区,浜３丁目１０番１－２０５号,,33,102,7038256,,,2022-08-26,清算の結了等,,,2015-10-05,1,,,,,タマダ,0
1807,8290003005497,登記記録の閉鎖等,0,2022-08-29,2022-08-17,合同会社フランキンセンス,,合同会社,福岡県,大野城市,乙金東１丁目１１番８号,,40,219,8160901,,,2022-08-17,清算の結了等,,,2015-10-05,1,,,,,フランキンセンス,0
1812,8340001023693,登記記録の閉鎖等,0,2022-08-29,2022-08-26,株式会社ＭＯＭＯ,,株式会社,鹿児島県,日置市,伊集院町徳重５９６番地９,,46,216,8992502,,,2022-08-26,清算の結了等,,,2021-04-14,1,,,,,モモ,0
1826,8400602000713,登記記録の閉鎖等,0,2022-08-29,2022-08-25,有限会社水沢メディカルサービス,,有限会社,岩手県,奥州市,水沢中町４２番地,,03,215,0230813,,,2022-08-25,清算の結了等,,,2015-10-05,1,,,,,ミズサワメディカルサービス,0
1827,8410005001317,登記記録の閉鎖等,0,2022-08-29,2022-08-24,特定非営利活動法人あい,,その他の設立登記法人,秋田県,秋田市,御所野下堤１丁目４番１０号,,05,201,0101412,,,2022-08-24,清算の結了等,,,2015-10-05,1,,,,,アイ,0
1841,9010001031316,登記記録の閉鎖等,0,2022-08-29,2022-08-23,有樂美宝堂株式会社,,株式会社,東京都,千代田区,有楽町１丁目３番７号,,13,101,1000006,,,2022-08-23,清算の結了等,,,2015-10-05,1,,,,,ユウラクビホウドウ,0
1845,9010001139489,登記記録の閉鎖等,0,2022-08-29,2022-08-23,山佐ＴＨＹ３リース株式会社,,株式会社,東京都,千代田区,丸の内３丁目１番１号東京共同会計事務所内,,13,101,1000005,,,2022-08-23,清算の結了等,,,2015-10-05,1,,,,,ヤマサティーエイチワイスリーリース,0
1864,9010401137051,登記記録の閉鎖等,0,2022-08-29,2022-08-08,ＳＢＩ地方創生アセットマネジメント株式会社,,株式会社,東京都,港区,六本木１丁目６番１号,,13,103,1060032,,,2022-08-08,合併による解散等,2010401045054,令和４年８月１日東京都港区六本木一丁目６番１号ＳＢＩアセットマネジメント株式会社（2010401045054）に合併し解散,2018-03-07,1,,,,,エスビーアイチホウソウセイアセットマネジメント,0
1871,9010402014803,登記記録の閉鎖等,0,2022-08-29,2022-08-09,有限会社トシケン,,有限会社,東京都,港区,六本木７丁目１５番１４号,,13,103,1060032,,,2022-08-09,清算の結了等,,,2015-10-05,1,,,,,トシケン,0
1872,9010402023861,登記記録の閉鎖等,0,2022-08-29,2022-08-22,エスエムエルシー・ポラリス有限会社,,有限会社,東京都,千代田区,丸の内１丁目３番２号,,13,101,1000005,,,2022-08-22,清算の結了等,,,2015-10-05,1,,,,,エスエムエルシーポラリス,0
1873,9010402023878,登記記録の閉鎖等,0,2022-08-29,2022-08-22,エスエムエフエル・アケルナル有限会社,,有限会社,東京都,千代田区,丸の内１丁目３番２号,,13,101,1000005,,,2022-08-22,清算の結了等,,,2015-10-05,1,,,,,エスエムエフエルアケルナル,0
1881,9010701038718,登記記録の閉鎖等,0,2022-08-29,2022-08-26,Ｏｎｅ　ｄａｙ株式会社,,株式会社,東京都,品川区,東大井１丁目１１番２５号,,13,109,1400011,,,2022-08-26,清算の結了等,,,2020-01-15,1,,,,,ワンデイ,0
1907,9011105002640,登記記録の閉鎖等,0,2022-08-29,2022-08-23,特定非営利活動法人女性の健康とメノポーズ協会,,その他の設立登記法人,東京都,新宿区,四谷三栄町４番１５号第一神田ビル１階,,13,104,1600008,,,2022-08-23,清算の結了等,,,2015-10-05,1,,,,,ジョセイノケンコウトメノポーズキョウカイ,0
1925,9013202013685,登記記録の閉鎖等,0,2022-08-29,2022-08-26,有限会社ボリズ,,有限会社,東京都,目黒区,碑文谷５丁目１５番６号ダイナシティ碑文谷７０８号室,,13,110,1520003,,,2022-08-26,清算の結了等,,,2015-10-05,1,,,,,ボリズ,0
1955,9040001031800,登記記録の閉鎖等,0,2022-08-29,2022-08-22,朱白株式会社,,株式会社,千葉県,浦安市,入船６丁目１番１４０８号,,12,227,2790012,,,2022-08-22,清算の結了等,,,2015-10-05,1,,,,,アカシロ,0
1980,9080002001220,登記記録の閉鎖等,0,2022-08-29,2022-08-24,有限会社岡田総合保険,,有限会社,静岡県,静岡市葵区,安東３丁目２番１４号,,22,101,4200882,,,2022-08-24,清算の結了等,,,2015-10-05,1,,,,,オカダソウゴウホケン,0
1984,9080102009840,登記記録の閉鎖等,0,2022-08-29,2022-08-26,有限会社オフリール,,有限会社,静岡県,田方郡函南町,肥田１９３番地の１１,,22,325,4190125,,,2022-08-26,清算の結了等,,,2015-10-05,1,,,,,オフリール,0
1989,9100001000526,登記記録の閉鎖等,0,2022-08-29,2022-08-18,株式会社大沼建設工業,,株式会社,長野県,長野市,早苗町７７番地４号,,20,201,3800812,,,2022-08-18,清算の結了等,,,2015-10-05,1,,,,,オオヌマケンセツコウギョウ,0
2027,9140001027400,登記記録の閉鎖等,0,2022-08-29,2022-08-26,ＡＺシステム株式会社,,株式会社,兵庫県,神戸市東灘区,田中町２丁目４番１６号,,28,101,6580081,,,2022-08-26,清算の結了等,,,2015-10-05,1,,,,,アーズシステム,0
2054,9290003011338,登記記録の閉鎖等,0,2022-08-29,2022-08-23,合同会社Ｍ．Ａｆｆｅｃｔｉｏｎ,,合同会社,福岡県,福岡市博多区,竹下２丁目１番２ＣＢ博多カルネＩ２０３号室,00123434,40,132,8120895,,,2022-08-23,清算の結了等,,,2021-06-23,1,,,,,エムアフェクション,0
2069,9330003007018,登記記録の閉鎖等,0,2022-08-29,2022-08-22,合同会社シモダホーム,,合同会社,熊本県,熊本市北区,龍田陳内４丁目１８番１４号,,43,105,8618005,,,2022-08-22,清算の結了等,,,2017-03-09,1,,,,,シモダホーム,0
2070,9340001007811,登記記録の閉鎖等,0,2022-08-29,2022-08-26,株式会社姶良中央青果,,株式会社,鹿児島県,姶良市,加治木町木田１１５９番地１,,46,225,8995241,,,2022-08-26,清算の結了等,,,2015-10-05,1,,,,,アイラチュウオウセイカ,0
2074,9360001024549,登記記録の閉鎖等,0,2022-08-29,2022-08-15,Ｊｏｙｃｅの株式会社,,株式会社,沖縄県,宜野湾市,真栄原１丁目７番１２号Ａ－５号室,,47,205,9012215,,,2022-08-15,清算の結了等,,,2018-09-05,1,,,,,ジョイスノ,0
2075,9360003007527,登記記録の閉鎖等,0,2022-08-29,2022-08-22,合同会社Ａｓｉａ　Ｔｉｍｅ,,合同会社,沖縄県,中頭郡北中城村,字安谷屋１９２番地,,47,327,9012316,,,2022-08-22,清算の結了等,,,2016-03-09,1,,,,,アジアタイム,0
