sequenceNumber,corporateNumber,process,correct,updateDate,changeDate,name,nameImageId,kind,prefectureName,cityName,streetNumber,addressImageId,prefectureCode,cityCode,postCode,addressOutside,addressOutsideImageId,closeDate,closeCause,successorCorporateNumber,changeCause,assignmentDate,latest,enName,enPrefectureName,enCityName,enAddressOutside,furigana,hihyoji
7,1010001221832,新規,0,2021-10-18,2021-10-18,株式会社ＲＳコンサルティング,,株式会社,東京都,中央区,勝どき５丁目３－１－３７２２,,13,102,1040054,,,,,,,2021-10-18,1,,,,,アールエスコンサルティング,0
8,1010001221898,新規,0,2021-10-18,2021-10-18,ロジフラッグ・デベロプメント株式会社,,株式会社,東京都,千代田区,霞が関３丁目２番１号,,13,101,1000013,,,,,,,2021-10-18,1,,,,,ロジフラッグデベロプメント,0
11,1010003036031,新規,0,2021-10-18,2021-10-18,東上インベストメントワン合同会社,,合同会社,東京都,千代田区,九段南３丁目７番７号成和綜合会計事務所内,,13,101,1020074,,,,,,,2021-10-18,1,,,,,トウジョウインベストメントワン,0
27,1010401163352,新規,0,2021-10-18,2021-10-18,株式会社ハカルカ,,株式会社,東京都,港区,浜松町２丁目２番１５号浜松町ダイヤビル２Ｆ,,13,103,1050013,,,,,,,2021-10-18,1,,,,,ハカルカ,0
32,1010403026326,新規,0,2021-10-18,2021-10-18,ＤＦＯ合同会社,,合同会社,東京都,港区,北青山２丁目７－２０猪瀬ビル２Ｆ,,13,103,1070061,,,,,,,2021-10-18,1,,,,,ディーフォ,0
33,1010403026334,新規,0,2021-10-18,2021-10-18,クリエイティブ・コンテンツ・プロモーション合同会社,,合同会社,東京都,港区,西麻布２丁目２５－１９バルビゾン２８－６Ｆ,,13,103,1060031,,,,,,,2021-10-18,1,,,,,クリエイティブコンテンツプロモーション,0
36,1010405020327,新規,0,2021-10-18,2021-10-18,一般社団法人ＢＯＬ１,,その他の設立登記法人,東京都,港区,虎ノ門５丁目３番２０号株式会社アカウンティング・マネジメント・サービス内,,13,103,1050001,,,,,,,2021-10-18,1,,,,,ビーオーエルワン,0
37,1010501047991,新規,0,2021-10-18,2021-10-18,株式会社ｃｏｌｏｒ,,株式会社,東京都,台東区,下谷３丁目１番２４号,,13,106,1100004,,,,,,,2021-10-18,1,,,,,カラー,0
40,1010601060093,新規,0,2021-10-18,2021-10-18,株式会社Ｒｏｙａｌ　Ｇｅｏｒｇｉａ,,株式会社,東京都,江東区,新大橋３丁目１番４号ミサワホームメゾネット３号館２０１,,13,108,1350007,,,,,,,2021-10-18,1,,,,,ロイヤルジョージア,0
41,1010601060102,新規,0,2021-10-18,2021-10-18,正信株式会社,,株式会社,東京都,墨田区,八広４丁目３８－７,,13,107,1310041,,,,,,,2021-10-18,1,,,,,マサノブ,0
44,1010705003279,新規,0,2021-10-18,2021-10-18,一般社団法人アイランドプロジェクト協会,,その他の設立登記法人,東京都,品川区,西大井１丁目１番１号Ｊタワー西大井２０３,,13,109,1400015,,,,,,,2021-10-18,1,,,,,アイランドプロジェクトキョウカイ,0
46,1010803003916,新規,0,2021-10-18,2021-10-18,合同会社バタフライエフェクト,,合同会社,東京都,大田区,萩中２丁目４番３－１００７号,,13,111,1440047,,,,,,,2021-10-18,1,,,,,バタフライエフェクト,0
50,1011001143447,新規,0,2021-10-18,2021-10-18,株式会社ｈｕｎｔｉｎｇ,,株式会社,東京都,渋谷区,神宮前５丁目５３番６７号コスモス青山コスモスサウス５階,,13,113,1500001,,,,,,,2021-10-18,1,,,,,ハンティング,0
51,1011001143471,新規,0,2021-10-18,2021-10-18,株式会社Ｄ＆Ｉインベストメント,,株式会社,東京都,渋谷区,千駄ヶ谷３丁目２０番６号北参道９６ビルＡＮＮＥＸ,,13,113,1510051,,,,,,,2021-10-18,1,,,,,ディーアンドアイインベストメント,0
52,1011003013573,新規,0,2021-10-18,2021-10-18,合同会社ウチノ,,合同会社,東京都,渋谷区,神宮前６丁目２３番４号桑野ビル２階,,13,113,1500001,,,,,,,2021-10-18,1,,,,,ウチノ,0
56,1011101096603,新規,0,2021-10-18,2021-10-18,株式会社ＨＫＲホールディングス,,株式会社,東京都,新宿区,新宿２丁目８番１－２０５号,,13,104,1600022,,,,,,,2021-10-18,1,,,,,エイチケイアールホールディングス,0
62,1011301027250,新規,0,2021-10-18,2021-10-18,株式会社ＦｉｎｇｅｒＶｉｓｉｏｎ,,株式会社,東京都,杉並区,上高井戸２丁目４－２９－３１２,,13,115,1680074,,,,,,,2021-10-18,1,,,,,フィンガービジョン,0
63,1011301027267,新規,0,2021-10-18,2021-10-18,株式会社ＭＲ＆Ｃｏｍｐａｎｙ,,株式会社,東京都,杉並区,高円寺南５丁目３９番１１号エルデンシア中野２０２,,13,115,1660003,,,,,,,2021-10-18,1,,,,,エムアールアンドカンパニー,0
64,1011303004198,新規,0,2021-10-18,2021-10-18,ＬＭＫトレーディング合同会社,,合同会社,東京都,杉並区,梅里２丁目９－９日比谷ビル５０２,,13,115,1660011,,,,,,,2021-10-18,1,,,,,エルエムケートレーディング,0
69,1011803004821,新規,0,2021-10-18,2021-10-18,合同会社地亜,,合同会社,東京都,葛飾区,奥戸６丁目８番６号,,13,122,1240022,,,,,,,2021-10-18,1,,,,,チア,0
72,1012401038419,新規,0,2021-10-18,2021-10-18,株式会社ワールドフォーチュン,,株式会社,東京都,府中市,西府町３丁目８－１４,,13,206,1830031,,,,,,,2021-10-18,1,,,,,ワールドフォーチュン,0
73,1012401038435,新規,0,2021-10-18,2021-10-18,株式会社ＥＸＩＳ,,株式会社,東京都,調布市,菊野台３丁目３９番地８,,13,208,1820007,,,,,,,2021-10-18,1,,,,,エクシス,0
83,1020001143357,新規,0,2021-10-18,2021-10-18,株式会社Ｄ－Ｎｅｅコスメティック,,株式会社,神奈川県,横浜市港北区,新横浜３丁目６番地１２,,14,109,2220033,,,,,,,2021-10-18,1,,,,,ディーニーコスメティック,0
86,1021001074237,新規,0,2021-10-18,2021-10-18,株式会社湘南エアソリューション,,株式会社,神奈川県,茅ヶ崎市,松林２丁目１－３,,14,207,2530017,,,,,,,2021-10-18,1,,,,,ショウナンエアソリューション,0
101,1030001144858,新規,0,2021-10-18,2021-10-18,株式会社パピーリボン,,株式会社,埼玉県,深谷市,人見１３９７番地１２,,11,218,3660811,,,,,,,2021-10-18,1,,,,,パピーリボン,0
102,1030001144866,新規,0,2021-10-18,2021-10-18,安藤株式会社,,株式会社,埼玉県,川口市,栄町１丁目１２番２１－９０７号,,11,203,3320017,,,,,,,2021-10-18,1,,,,,アンドウ,0
103,1030001144890,新規,0,2021-10-18,2021-10-18,デジマティクス株式会社,,株式会社,埼玉県,久喜市,南栗橋５丁目１９－１２,,11,232,3491117,,,,,,,2021-10-18,1,,,,,デジマティクス,0
114,1030003018143,新規,0,2021-10-18,2021-10-18,ディーアンドアクト合同会社,,合同会社,埼玉県,越谷市,蒲生寿町１７－７オーベル越谷蒲生壱番館９０１号,,11,222,3430836,,,,,,,2021-10-18,1,,,,,ディーアンドアクト,0
115,1030005020576,新規,0,2021-10-18,2021-10-18,一般社団法人埼玉県ｅスポーツ連合,,その他の設立登記法人,埼玉県,所沢市,東所沢和田３丁目３１番地３,,11,208,3590023,,,,,,,2021-10-18,1,,,,,サイタマケンイースポーツレンゴウ,0
116,1030005020601,新規,0,2021-10-18,2021-10-18,医療法人クミエパールデンタルクリニック,,その他の設立登記法人,埼玉県,日高市,大字鹿山３１５番地４、１階,,11,242,3501231,,,,,,,2021-10-18,1,,,,,クミエパールデンタルクリニック,0
119,1040001120651,新規,0,2021-10-18,2021-10-18,株式会社丸吉,,株式会社,千葉県,印旛郡酒々井町,伊篠８５６番地,,12,322,2850902,,,,,,,2021-10-18,1,,,,,マルヨシ,0
125,1050001049997,新規,0,2021-10-18,2021-10-18,株式会社淙愛,,株式会社,茨城県,那珂市,竹ノ内３丁目２番地２,,08,226,3110110,,,,,,,2021-10-18,1,,,,,ソウアイ,0
126,1050001050006,新規,0,2021-10-18,2021-10-18,株式会社アクト,,株式会社,茨城県,水戸市,米沢町１６６－２太陽館１階,,08,201,3100847,,,,,,,2021-10-18,1,,,,,アクト,0
127,1060001034214,新規,0,2021-10-18,2021-10-18,株式会社東栄,,株式会社,栃木県,河内郡上三川町,大字上三川４３１１番地１レオネクストフジヤマＡ１０８,,09,301,3290611,,,,,,,2021-10-18,1,,,,,トウエイ,0
137,1090001017249,新規,0,2021-10-18,2021-10-18,株式会社エリアビジョン,,株式会社,山梨県,甲府市,飯田２丁目６番６号,,19,201,4000035,,,,,,,2021-10-18,1,,,,,エリアビジョン,0
138,1100005012780,新規,0,2021-10-18,2021-10-18,医療法人ファミリー会,,その他の設立登記法人,長野県,安曇野市,穂高柏原１０６９番１,,20,220,3998304,,,,,,,2021-10-18,1,,,,,ファミリーカイ,0
153,1120001241233,新規,0,2021-10-18,2021-10-18,株式会社オーク電機,,株式会社,大阪府,守口市,西郷通４丁目１６番２号,,27,209,5700034,,,,,,,2021-10-18,1,,,,,オークデンキ,0
154,1120001241266,新規,0,2021-10-18,2021-10-18,日本ペイントコーポレートソリューションズ株式会社,,株式会社,大阪府,大阪市北区,大淀北２丁目１番２号,,27,127,5310077,,,,,,,2021-10-18,1,,,,,ニッポンペイントコーポレートソリューションズ,0
155,1120003020429,新規,0,2021-10-18,2021-10-18,合同会社ファブロ,,合同会社,大阪府,大阪市大正区,南恩加島４丁目５番２号,,27,108,5510021,,,,,,,2021-10-18,1,,,,,ファブロ,0
165,1120901045072,新規,0,2021-10-18,2021-10-18,株式会社ワークパル,,株式会社,大阪府,茨木市,南春日丘３丁目１番５１号,,27,211,5670046,,,,,,,2021-10-18,1,,,,,ワークパル,0
186,1140001123479,新規,0,2021-10-18,2021-10-18,北条ａｃｍｓ株式会社,,株式会社,兵庫県,加西市,北条町北条３６４番地の１,,28,220,6752312,,,,,,,2021-10-18,1,,,,,ホウジョウエーシーエムエス,0
187,1140001123529,新規,0,2021-10-18,2021-10-18,株式会社エフマシン,,株式会社,兵庫県,神戸市長田区,南駒栄町３番６号,,28,106,6530044,,,,,,,2021-10-18,1,,,,,エフマシン,0
190,1150001025030,新規,0,2021-10-18,2021-10-18,株式会社ウーム,,株式会社,奈良県,橿原市,新賀町１７７番地の１リバーポイント１Ｆ,,29,205,6340006,,,,,,,2021-10-18,1,,,,,ウーム,0
194,1160003002407,新規,0,2021-10-18,2021-10-18,合同会社土山鋼工,,合同会社,滋賀県,甲賀市,土山町市場２３３番地,,25,209,5280233,,,,,,,2021-10-18,1,,,,,ツチヤマコウコウ,0
195,1160005011001,新規,0,2021-10-18,2021-10-18,一般社団法人湖東まちづくり,,その他の設立登記法人,滋賀県,東近江市,池庄町４９５番地,,25,213,5270113,,,,,,,2021-10-18,1,,,,,コトウマチヅクリ,0
209,1180001148340,新規,0,2021-10-18,2021-10-18,株式会社ＹＴＥ,,株式会社,愛知県,名古屋市北区,上飯田南町１丁目３８番地アドマーニ７０２号,,23,103,4620804,,,,,,,2021-10-18,1,,,,,ワイティーイー,0
210,1180001148349,新規,0,2021-10-18,2021-10-18,興寿株式会社,,株式会社,愛知県,名古屋市中区,錦３丁目６番２９号,,23,106,4600003,,,,,,,2021-10-18,1,,,,,コウジュ,0
214,1180005019488,新規,0,2021-10-18,2021-10-18,一般社団法人吉田ホーム,,その他の設立登記法人,愛知県,名古屋市瑞穂区,宝田町３丁目２番地,,23,108,4670866,,,,,,,2021-10-18,1,,,,,ヨシダホーム,0
216,1200001039297,新規,0,2021-10-18,2021-10-18,株式会社Ｋ’ｓロジスティック,,株式会社,岐阜県,岐阜市,北鶉２丁目４８番地,,21,201,5008287,,,,,,,2021-10-18,1,,,,,ケーズロジスティック,0
217,1200001039306,新規,0,2021-10-18,2021-10-18,山西設備株式会社,,株式会社,岐阜県,岐阜市,一日市場４丁目６５番地,,21,201,5010103,,,,,,,2021-10-18,1,,,,,ヤマニシセツビ,0
221,1200005013265,新規,0,2021-10-18,2021-10-18,一般社団法人クリエイティブハウス今川,,その他の設立登記法人,岐阜県,大垣市,南頬町４丁目１１５番地,,21,202,5030864,,,,,,,2021-10-18,1,,,,,クリエイティブハウスイマガワ,0
223,1210001018655,新規,0,2021-10-18,2021-10-18,株式会社山岸建築,,株式会社,福井県,福井市,深谷町第３８号１３番地,,18,201,9100049,,,,,,,2021-10-18,1,,,,,ヤマギシケンチク,0
224,1220001024479,新規,0,2021-10-18,2021-10-18,株式会社トライフォース,,株式会社,石川県,金沢市,木越町ヨ１１７番地１,,17,201,9200203,,,,,,,2021-10-18,1,,,,,トライフォース,0
228,1240003005327,新規,0,2021-10-18,2021-10-18,合同会社ＮＣ,,合同会社,広島県,大竹市,元町３丁目１２番１１号,,34,211,7390615,,,,,,,2021-10-18,1,,,,,エヌシー,0
241,1290005018396,新規,0,2021-10-18,2021-10-18,一般社団法人チャイルドガーデン,,その他の設立登記法人,福岡県,筑紫野市,大字山家４２８８番地５,,40,217,8180003,,,,,,,2021-10-18,1,,,,,チャイルドガーデン,0
244,1310003004189,新規,0,2021-10-18,2021-10-18,合同会社さくら,,合同会社,長崎県,長崎市,目覚町１１番１１号,,42,201,8528105,,,,,,,2021-10-18,1,,,,,サクラ,0
249,1340001024178,新規,0,2021-10-18,2021-10-18,株式会社ロータスホーム,,株式会社,鹿児島県,霧島市,隼人町真孝２０２番地２－２０１号,,46,218,8995102,,,,,,,2021-10-18,1,,,,,ロータスホーム,0
252,1350003003947,新規,0,2021-10-18,2021-10-18,合同会社浜砂林業,,合同会社,宮崎県,児湯郡西米良村,大字村所７３番地３,,45,403,8811411,,,,,,,2021-10-18,1,,,,,ハマスナリンギョウ,0
259,1380001032276,新規,0,2021-10-18,2021-10-18,株式会社ｓｉｎｃａ,,株式会社,福島県,本宮市,本宮字栄田５８番地２ＭＡＲＵＣＯ万世Ｄｏｒｍｉ１Ｆ,,07,214,9691148,,,,,,,2021-10-18,1,,,,,シンカ,0
262,1380003005040,新規,0,2021-10-18,2021-10-18,トゥーホーム福島トランスポート合同会社,,合同会社,福島県,福島市,飯坂町平野字代７番地１６,,07,201,9600231,,,,,,,2021-10-18,1,,,,,トゥーホームフクシマトランスポート,0
269,1430001085178,新規,0,2021-10-18,2021-10-18,株式会社ＳＨＩＮＫＩ,,株式会社,北海道,札幌市中央区,南一条西７丁目１２－６パークアベニュービル３Ｆ１７３内,,01,101,0600061,,,,,,,2021-10-18,1,,,,,シンキ,0
270,1430001085194,新規,0,2021-10-18,2021-10-18,株式会社開地,,株式会社,北海道,札幌市西区,西野三条７丁目３番２３号,,01,107,0630033,,,,,,,2021-10-18,1,,,,,カイチ,0
271,1430001085203,新規,0,2021-10-18,2021-10-18,ケーデザイン株式会社,,株式会社,北海道,札幌市中央区,南八条西５丁目２８９番地７２,,01,101,0640808,,,,,,,2021-10-18,1,,,,,ケーデザイン,0
278,1700150105386,新規,0,2021-10-18,2021-10-18,伊保南部自治会,,その他,兵庫県,高砂市,伊保港町２丁目１５５５－１（南部自治会館内）,,28,216,6760072,,,,,,,2021-10-18,1,,,,,イホナンブジチカイ,0
286,2010001221872,新規,0,2021-10-18,2021-10-18,エクソム株式会社,,株式会社,東京都,中央区,銀座８丁目８番１号第７セントラルビル３階,,13,102,1040061,,,,,,,2021-10-18,1,,,,,エクソム,0
287,2010001221897,新規,0,2021-10-18,2021-10-18,株式会社Ｌｉｂｅｒａｌ　Ｍｉｎｄ,,株式会社,東京都,千代田区,丸の内１丁目８番地２号鉄鋼ビル４階,,13,101,1000005,,,,,,,2021-10-18,1,,,,,リベラルマインド,0
295,2010003036047,新規,0,2021-10-18,2021-10-18,小石川国際綜合会計合同会社,,合同会社,東京都,中央区,日本橋兜町１７番２号兜町第６葉山ビル４階,,13,102,1030026,,,,,,,2021-10-18,1,,,,,コイシカワコクサイソウゴウカイケイ,0
296,2010003036055,新規,0,2021-10-18,2021-10-18,徳坤アドバイザリー合同会社,00124602,合同会社,東京都,中央区,新富町１－９－９,,13,102,1030000,,,,,,,2021-10-18,1,,,,,トクコンアドバイザリー,0
311,2010405020301,新規,0,2021-10-18,2021-10-18,一般社団法人せいい,,その他の設立登記法人,東京都,港区,赤坂２丁目１１番１５号ＭＹ赤坂ビル３Ｆ,,13,103,1070052,,,,,,,2021-10-18,1,,,,,セイイ,0
314,2010501047982,新規,0,2021-10-18,2021-10-18,株式会社サンテック東京,,株式会社,東京都,台東区,上野７丁目３番９号アルベルゴ上野９２１,,13,106,1100005,,,,,,,2021-10-18,1,,,,,サンテックトウキョウ,0
315,2010505003271,新規,0,2021-10-18,2021-10-18,一般社団法人明賀会,,その他の設立登記法人,東京都,台東区,下谷３丁目１番２４号,,13,106,1100004,,,,,,,2021-10-18,1,,,,,ミョウガカイ,0
316,2010601060076,新規,0,2021-10-18,2021-10-18,株式会社ハロートーキョー,,株式会社,東京都,江東区,枝川２丁目１８番５号,,13,108,1350051,,,,,,,2021-10-18,1,,,,,ハロートーキョー,0
321,2010901049637,新規,0,2021-10-18,2021-10-18,てぃーだ株式会社,,株式会社,東京都,世田谷区,上馬２丁目１２番９号,,13,112,1540011,,,,,,,2021-10-18,1,,,,,ティーダ,0
324,2011001143479,新規,0,2021-10-18,2021-10-18,株式会社ＱＬＥＢＩＤ,,株式会社,東京都,渋谷区,渋谷２丁目１９番１５号宮益坂ビルディング６０９,,13,113,1500002,,,,,,,2021-10-18,1,,,,,クレイビッド,0
325,2011001143529,新規,0,2021-10-18,2021-10-18,株式会社鉄壁,,株式会社,東京都,渋谷区,代々木２丁目１番１号,,13,113,1510053,,,,,,,2021-10-18,1,,,,,テッペキ,0
326,2011003013580,新規,0,2021-10-18,2021-10-18,ニューエイジファクトリー合同会社,,合同会社,東京都,渋谷区,代々木１丁目６－１２ａｐａｒｔｍｅｎｔＫＵＲＯ代々木２０２,,13,113,1510053,,,,,,,2021-10-18,1,,,,,ニューエイジファクトリー,0
332,2011101096610,新規,0,2021-10-18,2021-10-18,株式会社ＨＡＮ－Ｋ,,株式会社,東京都,新宿区,大久保１丁目３番１４号ＷＢＣ新宿３０１,,13,104,1690072,,,,,,,2021-10-18,1,,,,,ハンケー,0
333,2011101096627,新規,0,2021-10-18,2021-10-18,株式会社プラス,,株式会社,東京都,新宿区,四谷三栄町１番２号Ｘｅビル２階,,13,104,1600008,,,,,,,2021-10-18,1,,,,,プラス,0
338,2011301027258,新規,0,2021-10-18,2021-10-18,株式会社エライ,,株式会社,東京都,杉並区,高円寺南３丁目４５番２号,,13,115,1660003,,,,,,,2021-10-18,1,,,,,エライ,0
339,2011501027388,新規,0,2021-10-18,2021-10-18,株式会社ミングミラーズ,,株式会社,東京都,北区,滝野川７丁目２７番６－４０２号,,13,117,1140023,,,,,,,2021-10-18,1,,,,,ミングミラーズ,0
342,2011801039835,新規,0,2021-10-18,2021-10-18,株式会社栄工業,,株式会社,東京都,足立区,六木４丁目４番７号,,13,121,1210052,,,,,,,2021-10-18,1,,,,,サカエコウギョウ,0
345,2012403005069,新規,0,2021-10-18,2021-10-18,アイス合同会社,,合同会社,東京都,三鷹市,上連雀５丁目２３番２号,,13,204,1810012,,,,,,,2021-10-18,1,,,,,アイス,0
356,2020001143513,新規,0,2021-10-18,2021-10-18,Ｎｅｋｏｔｒｏｎｉｃ株式会社,,株式会社,神奈川県,横浜市西区,北幸１丁目１１－５相鉄ＫＳビル９Ｆ,,14,103,2200004,,,,,,,2021-10-18,1,,,,,ネコトロニック,0
367,2021001074236,新規,0,2021-10-18,2021-10-18,株式会社ジモビー,,株式会社,神奈川県,鎌倉市,長谷２丁目１番７号サテライト由比ヶ浜,,14,204,2480016,,,,,,,2021-10-18,1,,,,,ジモビー,0
371,2021003010998,新規,0,2021-10-18,2021-10-18,合同会社ＲＩＳＥ,,合同会社,神奈川県,厚木市,中町３丁目４番１６号,,14,212,2430018,,,,,,,2021-10-18,1,,,,,ライズ,0
372,2021005012324,新規,0,2021-10-18,2021-10-18,特定非営利活動法人Ｗａｋｅ　Ｕｐ　Ｊａｐａｎ,,その他の設立登記法人,神奈川県,三浦郡葉山町,堀内３１８番地,,14,301,2400112,,,,,,,2021-10-18,1,,,,,ウェイクアップジャパン,0
388,2030001144873,新規,0,2021-10-18,2021-10-18,ＫＴＫ工業株式会社,,株式会社,埼玉県,戸田市,笹目南町３２番－２３メゾンミシマ弐番館１０１,,11,224,3350035,,,,,,,2021-10-18,1,,,,,ケーティーケーコウギョウ,0
389,2030001144881,新規,0,2021-10-18,2021-10-18,株式会社ジョイトークホールディングス,,株式会社,埼玉県,上尾市,本町３丁目３番２号ロイヤルビル上尾３階Ａ,,11,219,3620014,,,,,,,2021-10-18,1,,,,,ジョイトークホールディングス,0
397,2030003018118,新規,0,2021-10-18,2021-10-18,合同会社スタジオたけなみそ,,合同会社,埼玉県,川口市,北原台２丁目６番１２号,,11,203,3330815,,,,,,,2021-10-18,1,,,,,スタジオタケナミソ,0
398,2030003018142,新規,0,2021-10-18,2021-10-18,合同会社ａｐｐｒｏａｃｈ,,合同会社,埼玉県,川口市,青木２丁目１０番１０－４０４号,,11,203,3320031,,,,,,,2021-10-18,1,,,,,アプローチ,0
399,2030005020567,新規,0,2021-10-18,2021-10-18,医療法人晃惺会,,その他の設立登記法人,埼玉県,日高市,大字森戸新田９９番地１３,,11,242,3501211,,,,,,,2021-10-18,1,,,,,コウセイカイ,0
400,2030005020575,新規,0,2021-10-18,2021-10-18,医療法人山雄会,,その他の設立登記法人,埼玉県,加須市,根古屋６４２番地１０・１階,,11,210,3470104,,,,,,,2021-10-18,1,,,,,サンユウカイ,0
409,2040001120626,新規,0,2021-10-18,2021-10-18,株式会社長山設備,,株式会社,千葉県,市川市,北方町４丁目１９５９番地９,,12,203,2720811,,,,,,,2021-10-18,1,,,,,ナガヤマセツビ,0
410,2040001120667,新規,0,2021-10-18,2021-10-18,株式会社聴くと描く,,株式会社,千葉県,流山市,南流山３丁目６番地７号ＴｒｉｓｔＡｉｒｐｏｒｔ,,12,220,2700163,,,,,,,2021-10-18,1,,,,,キクトカク,0
415,2040005021382,新規,0,2021-10-18,2021-10-18,医療法人社団エメ・ヴィベール,,その他の設立登記法人,千葉県,市川市,市川２丁目１番４号ＷａｋｏｕｋａｉＢｌｄｇ．３階,,12,203,2720034,,,,,,,2021-10-18,1,,,,,エメヴィベール,0
422,2070001038551,新規,0,2021-10-18,2021-10-18,株式会社心陽福祉会,,株式会社,群馬県,高崎市,阿久津町１０５９番地５,,10,202,3701211,,,,,,,2021-10-18,1,,,,,シンヨウフクシカイ,0
424,2080103002438,新規,0,2021-10-18,2021-10-18,合同会社Ｇ’ｓマネジメント,,合同会社,静岡県,伊豆の国市,古奈３５６番地の１エムフォート１０１号,,22,225,4102201,,,,,,,2021-10-18,1,,,,,ジーズマネジメント,0
444,2120001241199,新規,0,2021-10-18,2021-10-18,株式会社Ａ＆Ｋ,,株式会社,大阪府,大阪市西区,北堀江１丁目２番２７号ＡＸＩＳＳＯＵＴＨ四ツ橋ビル８０２,,27,106,5500014,,,,,,,2021-10-18,1,,,,,エーアンドケー,0
445,2120001241265,新規,0,2021-10-18,2021-10-18,株式会社Ｓ．ｍａｘ,,株式会社,大阪府,大阪市東淀川区,東中島２丁目８番６号,,27,114,5330033,,,,,,,2021-10-18,1,,,,,エスマックス,0
447,2120003020436,新規,0,2021-10-18,2021-10-18,合同会社Ｒｏｕｎｄ　ｆｉｖｅ,,合同会社,大阪府,大阪市中央区,南本町２丁目１番１１号,,27,128,5410054,,,,,,,2021-10-18,1,,,,,ラウンドファイブ,0
467,2140001123494,新規,0,2021-10-18,2021-10-18,株式会社雅,,株式会社,兵庫県,神戸市長田区,片山町４丁目２番２６号,,28,106,6530805,,,,,,,2021-10-18,1,,,,,ミヤビ,0
468,2140001123511,新規,0,2021-10-18,2021-10-18,株式会社ｉｙｉスクール,,株式会社,兵庫県,神戸市垂水区,神陵台３丁目二番明舞北センタービル１－７０７,,28,108,6550041,,,,,,,2021-10-18,1,,,,,イイスクール,0
469,2140001123528,新規,0,2021-10-18,2021-10-18,株式会社アイエフ,,株式会社,兵庫県,高砂市,高砂町浜田町２丁目１５番２－３号,,28,216,6760022,,,,,,,2021-10-18,1,,,,,アイエフ,0
471,2140005025860,新規,0,2021-10-18,2021-10-18,一般社団法人リサーチＩＴＯＧＵＴＩ,,その他の設立登記法人,兵庫県,三田市,あかしあ台４丁目１０番地３,,28,219,6691323,,,,,,,2021-10-18,1,,,,,リサーチイトグチ,0
474,2160005011000,新規,0,2021-10-18,2021-10-18,医療法人社団ＨＵＮＤＲＥＤ,,その他の設立登記法人,滋賀県,草津市,南草津３丁目５番地４,,25,206,5250050,,,,,,,2021-10-18,1,,,,,ハンドレッド,0
476,2170001016828,新規,0,2021-10-18,2021-10-18,株式会社守安組,,株式会社,和歌山県,橋本市,高野口町竹尾１１９番地,,30,203,6497214,,,,,,,2021-10-18,1,,,,,モリヤスグミ,0
486,2180301035519,新規,0,2021-10-18,2021-10-18,株式会社クレビスサポート,,株式会社,愛知県,知立市,上重原町小針２７９番地,,23,225,4720026,,,,,,,2021-10-18,1,,,,,クレビスサポート,0
495,2190003003797,新規,0,2021-10-18,2021-10-18,合同会社クパージュ,,合同会社,三重県,四日市市,西坂部町４５８７番地１,,24,202,5120913,,,,,,,2021-10-18,1,,,,,クパージュ,0
510,2280003001544,新規,0,2021-10-18,2021-10-18,合同会社畑のＲｅｇａｌｏ,,合同会社,島根県,出雲市,大津町６６７番地３,,32,203,6930011,,,,,,,2021-10-18,1,,,,,ハタケノレガロ,0
525,2290801027913,新規,0,2021-10-18,2021-10-18,株式会社Ｌｉｅｎ,,株式会社,福岡県,北九州市門司区,大字猿喰５８３番地６,,40,101,8000102,,,,,,,2021-10-18,1,,,,,リアン,0
526,2290801027921,新規,0,2021-10-18,2021-10-18,株式会社ＹＡＭＡＴＯ,,株式会社,福岡県,中間市,中尾４丁目１番２－５０６号,,40,215,8090032,,,,,,,2021-10-18,1,,,,,ヤマト,0
529,2300001012672,新規,0,2021-10-18,2021-10-18,株式会社九州エアロサービス,,株式会社,佐賀県,小城市,三日月町金田７４６番地,,41,208,8450032,,,,,,,2021-10-18,1,,,,,キュウシュウエアロサービス,0
531,2310003004188,新規,0,2021-10-18,2021-10-18,ノリ合同会社,,合同会社,長崎県,長崎市,香焼町１２４７番地１,,42,201,8510310,,,,,,,2021-10-18,1,,,,,ノリ,0
532,2310005008559,新規,0,2021-10-18,2021-10-18,特定非営利活動法人なめしポテト,,その他の設立登記法人,長崎県,長崎市,北陽町３０番１９号,,42,201,8528064,,,,,,,2021-10-18,1,,,,,ナメシポテト,0
533,2320003003635,新規,0,2021-10-18,2021-10-18,ナナラー合同会社,,合同会社,大分県,大分市,大津町１丁目２３番９号ポラリス大津４０４,,44,201,8700907,,,,,,,2021-10-18,1,,,,,ナナラー,0
534,2340001024177,新規,0,2021-10-18,2021-10-18,株式会社フォールアスリープ,,株式会社,鹿児島県,鹿児島市,小山田町７２３５番地３,,46,201,8911231,,,,,,,2021-10-18,1,,,,,フォールアスリープ,0
535,2340005009356,新規,0,2021-10-18,2021-10-18,一般社団法人火の島,,その他の設立登記法人,鹿児島県,熊毛郡屋久島町,口永良部島１４７０番地２,,46,505,8914208,,,,,,,2021-10-18,1,,,,,ヒノシマ,0
537,2350003003946,新規,0,2021-10-18,2021-10-18,合同会社ラーズ,,合同会社,宮崎県,都城市,都北町５６９３番地３,,45,202,8850004,,,,,,,2021-10-18,1,,,,,ラーズ,0
544,2380001032267,新規,0,2021-10-18,2021-10-18,株式会社ＭＴサービス,,株式会社,福島県,いわき市,常磐藤原町源内４４番地の１１,,07,204,9728326,,,,,,,2021-10-18,1,,,,,エムティーサービス,0
552,2430001085177,新規,0,2021-10-18,2021-10-18,ワイズマネジメント株式会社,,株式会社,北海道,札幌市北区,拓北五条４丁目５番１２号,,01,102,0028065,,,,,,,2021-10-18,1,,,,,ワイズマネジメント,0
553,2430001085193,新規,0,2021-10-18,2021-10-18,株式会社Ｐｏｌａｒｉｓ．,,株式会社,北海道,札幌市北区,新琴似六条１丁目１番１６号,,01,102,0010906,,,,,,,2021-10-18,1,,,,,ポラリス,0
557,2470001018777,新規,0,2021-10-18,2021-10-18,株式会社みどりＪ．Ｆｏｒｃｅアウトソーシング,,株式会社,香川県,高松市,栗林町１丁目１８番３０号,,37,201,7600073,,,,,,,2021-10-18,1,,,,,ミドリジェイフォースアウトソーシング,0
563,3010001221161,新規,0,2021-10-18,2021-10-18,Ｃｏｎｎｅｃｔ　Ｌｉｆｅ株式会社,,株式会社,東京都,中央区,日本橋２丁目１５番８号,,13,102,1030027,,,,,,,2021-10-18,1,,,,,コネクトライフ,0
574,3010003036013,新規,0,2021-10-18,2021-10-18,Ｈ１　Ｌｉｆｅ　Ｓｃｉｅｎｃｅｓ合同会社,,合同会社,東京都,千代田区,丸の内１丁目５番１号,,13,101,1000005,,,,,,,2021-10-18,1,,,,,エイチワンライフサイエンシーズ,0
575,3010003036046,新規,0,2021-10-18,2021-10-18,ＡＳコンサルティング合同会社,,合同会社,東京都,文京区,千駄木５丁目２１番１４－２０４号,,13,105,1130022,,,,,,,2021-10-18,1,,,,,エーエスコンサルティング,0
579,3010101014911,新規,0,2021-10-18,2021-10-18,株式会社Ｍａｒｋ　Ｔｅｃｈ,,株式会社,東京都,八王子市,川口町１３９２番地８,,13,201,1930801,,,,,,,2021-10-18,1,,,,,マークテック,0
581,3010401163251,新規,0,2021-10-18,2021-10-18,株式会社キャリパ,,株式会社,東京都,港区,六本木７丁目６番１５－６０４号,,13,103,1060032,,,,,,,2021-10-18,1,,,,,キャリパ,0
582,3010403026332,新規,0,2021-10-18,2021-10-18,ＩＷＣジャパン合同会社,,合同会社,東京都,港区,南青山４丁目２番１２－２１５号,,13,103,1070062,,,,,,,2021-10-18,1,,,,,アイダブリューシージャパン,0
583,3010403026340,新規,0,2021-10-18,2021-10-18,合同会社ｅｎ－ｇａｗａ,,合同会社,東京都,港区,東麻布１丁目４－２ＴＨＥＷＯＲＫＥＲＳ＆ＣＯ８０５号室,,13,103,1060044,,,,,,,2021-10-18,1,,,,,エンガワ,0
589,3010601060091,新規,0,2021-10-18,2021-10-18,Ｂｒｏ株式会社,,株式会社,東京都,江東区,亀戸７丁目９番２－４０３号,,13,108,1360071,,,,,,,2021-10-18,1,,,,,ブロー,0
593,3010703005969,新規,0,2021-10-18,2021-10-18,ＰＨＩＬＯ　ＤＥＳＩＧＮ合同会社,,合同会社,東京都,品川区,南大井１丁目８番１１号,,13,109,1400013,,,,,,,2021-10-18,1,,,,,フィロデザイン,0
614,3011101096485,新規,0,2021-10-18,2021-10-18,ローカルフォース株式会社,,株式会社,東京都,新宿区,西新宿３丁目２０番２号,,13,104,1600023,,,,,,,2021-10-18,1,,,,,ローカルフォース,0
623,3011501027395,新規,0,2021-10-18,2021-10-18,株式会社Ｗｈｉｔｅ　Ｗｅｌｌ,,株式会社,東京都,北区,赤羽北１丁目７番１５－５０２号,,13,117,1150052,,,,,,,2021-10-18,1,,,,,ホワイトウェル,0
624,3011503004938,新規,0,2021-10-18,2021-10-18,日中天商事合同会社,,合同会社,東京都,北区,東十条５丁目３番４号,,13,117,1140001,,,,,,,2021-10-18,1,,,,,ニッチュウテンショウジ,0
625,3011601025472,新規,0,2021-10-18,2021-10-18,株式会社ＴＵＢＥ,,株式会社,東京都,練馬区,大泉町２丁目５３番１１号,,13,120,1780062,,,,,,,2021-10-18,1,,,,,チューブ,0
627,3011603003410,新規,0,2021-10-18,2021-10-18,合同会社ＴＳＫ,,合同会社,東京都,練馬区,富士見台３丁目１２番１６号,,13,120,1770034,,,,,,,2021-10-18,1,,,,,ティーエスケー,0
629,3011801039842,新規,0,2021-10-18,2021-10-18,株式会社レプトン,,株式会社,東京都,足立区,東和５丁目５番１１号,,13,121,1200003,,,,,,,2021-10-18,1,,,,,レプトン,0
632,3012401038425,新規,0,2021-10-18,2021-10-18,株式会社ＳＯＬ,,株式会社,東京都,狛江市,岩戸北３丁目２０番７－２０５号,,13,219,2010004,,,,,,,2021-10-18,1,,,,,,0
651,3020001143520,新規,0,2021-10-18,2021-10-18,株式会社スマイルライフ,,株式会社,神奈川県,横浜市神奈川区,浦島町３５８番地ユニーブル神奈川新町１１０１号,,14,102,2210042,,,,,,,2021-10-18,1,,,,,スマイルライフ,0
661,3021003011005,新規,0,2021-10-18,2021-10-18,太平クリエイティブ合同会社,,合同会社,神奈川県,横須賀市,岩戸１丁目７番１０－１３号,,14,201,2390844,,,,,,,2021-10-18,1,,,,,タイヘイクリエイティブ,0
680,3030001144848,新規,0,2021-10-18,2021-10-18,株式会社Ｔｒｕｓｔ　Ｔｉｅｓ,,株式会社,埼玉県,富士見市,水谷東１丁目２８番２５号,,11,235,3540013,,,,,,,2021-10-18,1,,,,,トラストタイズ,0
681,3030001144864,新規,0,2021-10-18,2021-10-18,株式会社ガーデンコア,,株式会社,埼玉県,上尾市,西宮下３丁目１７番地２,,11,219,3620043,,,,,,,2021-10-18,1,,,,,ガーデンコア,0
692,3050001050004,新規,0,2021-10-18,2021-10-18,株式会社Ａｍｅｎｏｕｚｕｍ,,株式会社,茨城県,ひたちなか市,大字市毛５３２番地の５,,08,221,3120033,,,,,,,2021-10-18,1,,,,,アメノーズム,0
694,3050003006144,新規,0,2021-10-18,2021-10-18,合同会社Ｏｎｅ　Ｐｌｕｓ,,合同会社,茨城県,古河市,関戸１２９１番地６,,08,204,3060205,,,,,,,2021-10-18,1,,,,,,0
707,3090001017247,新規,0,2021-10-18,2021-10-18,株式会社リコプリエ,,株式会社,山梨県,笛吹市,春日居町鎮目１５番地,,19,211,4060015,,,,,,,2021-10-18,1,,,,,リコプリエ,0
713,3110001036120,新規,0,2021-10-18,2021-10-18,株式会社ｔｏＭＩＮＤ,,株式会社,新潟県,新潟市東区,中野山５丁目１８－３０,,15,102,9500841,,,,,,,2021-10-18,1,,,,,トゥーマインド,0
727,3120001241223,新規,0,2021-10-18,2021-10-18,株式会社エーワンＳＴＹＬＥ,,株式会社,大阪府,大阪市大正区,平尾５丁目１２番１０号コーポエーワン１０６号,,27,108,5510012,,,,,,,2021-10-18,1,,,,,エーワンスタイル,0
728,3120001241248,新規,0,2021-10-18,2021-10-18,株式会社ノーザンニューエラ,,株式会社,大阪府,大阪市北区,曾根崎新地１丁目２番２０号リップルＪＩＮＴＡビル１Ｆ,,27,127,5300002,,,,,,,2021-10-18,1,,,,,ノーザンニューエラ,0
729,3120001241256,新規,0,2021-10-18,2021-10-18,株式会社グリッダム,,株式会社,大阪府,大阪市福島区,玉川４丁目４番５号,,27,103,5530004,,,,,,,2021-10-18,1,,,,,グリッダム,0
737,3120101064499,新規,0,2021-10-18,2021-10-18,株式会社ジゾワック,,株式会社,大阪府,羽曳野市,南恵我之荘３丁目６番１号,,27,222,5830885,,,,,,,2021-10-18,1,,,,,ジゾワック,0
740,3120103004404,新規,0,2021-10-18,2021-10-18,荻野ｅｎｅｒｇｙ合同会社,,合同会社,大阪府,堺市北区,長曽根町１１８０－２－１－６０２,,27,146,5918025,,,,,,,2021-10-18,1,,,,,オギノエナジー,0
744,3130001070340,新規,0,2021-10-18,2021-10-18,株式会社ソリューションプラスワン,,株式会社,京都府,亀岡市,東別院町鎌倉見立２５番地５０,,26,206,6210114,,,,,,,2021-10-18,1,,,,,ソリューションプラスワン,0
758,3140001123428,新規,0,2021-10-18,2021-10-18,株式会社Ｓｑｕａｒｅ　Ｍ,,株式会社,兵庫県,洲本市,本町４丁目５７４番３,,28,205,6560025,,,,,,,2021-10-18,1,,,,,スクエアーエム,0
759,3140001123510,新規,0,2021-10-18,2021-10-18,株式会社ジョイ８,,株式会社,兵庫県,西宮市,清水町４番５６号,,28,204,6620033,,,,,,,2021-10-18,1,,,,,ジョイエイト,0
760,3140001123527,新規,0,2021-10-18,2021-10-18,神戸プロダクテクノ株式会社,,株式会社,兵庫県,神戸市東灘区,渦森台４丁目２番２号,,28,101,6580066,,,,,,,2021-10-18,1,,,,,コウベプロダクテクノ,0
763,3140003016860,新規,0,2021-10-18,2021-10-18,ＴＭＮ合同会社,,合同会社,兵庫県,明石市,別所町９番１２号,,28,203,6730038,,,,,,,2021-10-18,1,,,,,ティーエムエヌ,0
764,3140003016869,新規,0,2021-10-18,2021-10-18,合同会社Ａｇｒｉ　Ａｇｅｎｔ,,合同会社,兵庫県,西宮市,池田町９番７－１７０７号,,28,204,6620911,,,,,,,2021-10-18,1,,,,,アグリエージェント,0
779,3180001148339,新規,0,2021-10-18,2021-10-18,株式会社椎茸,,株式会社,愛知県,名古屋市西区,上堀越町３丁目４９番地１,,23,104,4510084,,,,,,,2021-10-18,1,,,,,シイタケ,0
784,3180003023093,新規,0,2021-10-18,2021-10-18,合同会社なごみや,,合同会社,愛知県,江南市,飛高町泉２７８ピアシティ１０１,,23,217,4838333,,,,,,,2021-10-18,1,,,,,ナゴミヤ,0
785,3180003023102,新規,0,2021-10-18,2021-10-18,ＷｅＤｅｌｉｖｅｒ合同会社,,合同会社,愛知県,名古屋市中区,大須１丁目７番１４号パークＩＭビル２階,,23,106,4600011,,,,,,,2021-10-18,1,,,,,ウィーデリバー,0
787,3180301035501,新規,0,2021-10-18,2021-10-18,株式会社エスアイユー,,株式会社,愛知県,豊橋市,小松町字南郷３番地４０,,23,201,4418109,,,,,,,2021-10-18,1,,,,,エスアイユー,0
788,3180301035518,新規,0,2021-10-18,2021-10-18,株式会社ＴＥＮ,,株式会社,愛知県,みよし市,莇生町山田５４番地７,,23,236,4700206,,,,,,,2021-10-18,1,,,,,テン,0
791,3190003003796,新規,0,2021-10-18,2021-10-18,合同会社コトハル,,合同会社,三重県,四日市市,八王子町３０７番地６,,24,202,5100947,,,,,,,2021-10-18,1,,,,,コトハル,0
796,3200005013263,新規,0,2021-10-18,2021-10-18,岐阜事業支援協同組合,,その他の設立登記法人,岐阜県,岐阜市,東鶉７丁目２３番地,,21,201,5008281,,,,,,,2021-10-18,1,,,,,ギフジギョウシエン,0
797,3210001018653,新規,0,2021-10-18,2021-10-18,株式会社ＢＩＤＡＩ,,株式会社,福井県,坂井市,春江町高江第２号１番地６８,,18,210,9190479,,,,,,,2021-10-18,1,,,,,ビダイ,0
801,3220001024477,新規,0,2021-10-18,2021-10-18,ＴＯＹＯＳＹＯホールディングス株式会社,,株式会社,石川県,金沢市,泉野町３丁目５番３３号,,17,201,9218034,,,,,,,2021-10-18,1,,,,,トヨショウホールディングス,0
805,3240003005325,新規,0,2021-10-18,2021-10-18,合同会社音羽屋,,合同会社,広島県,広島市中区,舟入南３丁目１３番１号,,34,101,7300847,,,,,,,2021-10-18,1,,,,,オトワヤ,0
817,3290001094811,新規,0,2021-10-18,2021-10-18,株式会社Ｍ’ｓ,,株式会社,福岡県,飯塚市,幸袋１４１－９,,40,205,8200066,,,,,,,2021-10-18,1,,,,,エムズ,0
818,3290001095025,新規,0,2021-10-18,2021-10-18,株式会社ライフホーム,,株式会社,福岡県,飯塚市,綱分３１９番地５,,40,205,8200101,,,,,,,2021-10-18,1,,,,,ライフホーム,0
819,3290001095041,新規,0,2021-10-18,2021-10-18,株式会社ウィステリア,,株式会社,福岡県,糸島市,前原東１丁目２－２５－２０１,,40,230,8191119,,,,,,,2021-10-18,1,,,,,ウィステリア,0
820,3290001095058,新規,0,2021-10-18,2021-10-18,星辰国際株式会社,,株式会社,福岡県,糟屋郡篠栗町,大字乙犬７０４－１２,,40,342,8112412,,,,,,,2021-10-18,1,,,,,セイシンコクサイ,0
832,3310001017538,新規,0,2021-10-18,2021-10-18,株式会社森元,,株式会社,長崎県,西彼杵郡長与町,高田郷２０８５番地５,,42,307,8512127,,,,,,,2021-10-18,1,,,,,モリモト,0
833,3310003004187,新規,0,2021-10-18,2021-10-18,合同会社ツインズエム,,合同会社,長崎県,長崎市,上戸町２丁目５番６号,,42,201,8500953,,,,,,,2021-10-18,1,,,,,ツインズエム,0
843,3360001029504,新規,0,2021-10-18,2021-10-18,株式会社玉空調設備,,株式会社,沖縄県,糸満市,字与座４０３番地,,47,210,9010322,,,,,,,2021-10-18,1,,,,,タマクウチョウセツビ,0
851,3380003005039,新規,0,2021-10-18,2021-10-18,トゥーホーム福島ワークス合同会社,,合同会社,福島県,福島市,飯坂町平野字代７番地１６,,07,201,9600231,,,,,,,2021-10-18,1,,,,,トゥーホームフクシマワークス,0
860,3430001085184,新規,0,2021-10-18,2021-10-18,株式会社クリエイト２１,,株式会社,北海道,札幌市白石区,平和通１７丁目北１番６０号,,01,104,0030029,,,,,,,2021-10-18,1,,,,,クリエイトニジュウイチ,0
861,3430001085192,新規,0,2021-10-18,2021-10-18,株式会社羽馬ＲＥＬＩＦＥ,,株式会社,北海道,札幌市手稲区,前田九条１３丁目４－３０,,01,109,0060819,,,,,,,2021-10-18,1,,,,,ハバリライフ,0
862,3430001085201,新規,0,2021-10-18,2021-10-18,株式会社ＳＨＡＫＯＴＡＮ　ＧＯ,,株式会社,北海道,積丹郡積丹町,大字野塚町字ウエント２２９番地１,,01,405,0460325,,,,,,,2021-10-18,1,,,,,シャコタンゴー,0
865,3430003013250,新規,0,2021-10-18,2021-10-18,合同会社エムテックス,,合同会社,北海道,札幌市北区,屯田六条４丁目５番８号,,01,102,0020856,,,,,,,2021-10-18,1,,,,,エムテックス,0
866,3430003013259,新規,0,2021-10-18,2021-10-18,合同会社Ｒ．ＰＲＯＪＥＣＴ,,合同会社,北海道,千歳市,勇舞７丁目９番１２号,,01,224,0660078,,,,,,,2021-10-18,1,,,,,アールプロジェクト,0
867,3430005014313,新規,0,2021-10-18,2021-10-18,特定非営利活動法人Ｍａｉ　ＬＡＯＳ　Ｈｏｋｋａｉｄｏ,,その他の設立登記法人,北海道,札幌市中央区,南十一条西１丁目５－１６カサウィスタリア１０２８号,,01,101,0640811,,,,,,,2021-10-18,1,,,,,マイラオスホッカイドウ,0
869,3470001018776,新規,0,2021-10-18,2021-10-18,株式会社Ｒｏｏｔ工房,,株式会社,香川県,丸亀市,綾歌町岡田上２２７１番地,,37,202,7612401,,,,,,,2021-10-18,1,,,,,ルートコウボウ,0
875,3700150105351,新規,0,2021-10-18,2021-10-18,Ｃｉｅｌ　Ｔｅｃｈｎｏｌｏｇｉｅｓ　Ｉｎｃ．日本駐在員事務所,,外国会社等,東京都,港区,三田１丁目３－４０麻布十番　ＢＵＳＩＮＥＳＳ　ＣＵＢＥ－Ｓ　５階　５１０号室,,13,103,1080073,１２０９　Ｏｒａｎｇｅ　Ｓｔｒｅｅｔ，Ｗｉｌｍｉｎｇｔｏｎ，Ｄｅｌａｗａｒｅ，１９８０１　ＵＳＡ,,,,,,2021-10-18,1,,,,,シエルテクノロジーズインクニホンチユウザイインジムシヨ,0
883,4010001221838,新規,0,2021-10-18,2021-10-18,ＩＮＡ株式会社,,株式会社,東京都,中央区,銀座１丁目１２番４号Ｎ＆ＥＢＬＤ．７階,,13,102,1040061,,,,,,,2021-10-18,1,,,,,アイエヌエイ,0
884,4010001221846,新規,0,2021-10-18,2021-10-18,株式会社リサーチ,,株式会社,東京都,中央区,銀座１丁目２２番１１号銀座大竹ビジデンス２階,,13,102,1040061,,,,,,,2021-10-18,1,,,,,リサーチ,0
887,4010003036045,新規,0,2021-10-18,2021-10-18,ＲＯＣ－ＩＡ合同会社,,合同会社,東京都,中央区,銀座１丁目２２－１１,,13,102,1040061,,,,,,,2021-10-18,1,,,,,ロックアイエー,0
891,4010101014910,新規,0,2021-10-18,2021-10-18,羽川商事株式会社,,株式会社,東京都,八王子市,天神町二丁目１０－１０２号,,13,201,1920074,,,,,,,2021-10-18,1,,,,,ハガワショウジ,0
893,4010103001790,新規,0,2021-10-18,2021-10-18,ライブ・クロレ合同会社,,合同会社,東京都,八王子市,散田町５丁目２７－２２，セントラルコートめじろ台４０３,,13,201,1930832,,,,,,,2021-10-18,1,,,,,,0
906,4010403026331,新規,0,2021-10-18,2021-10-18,合同会社ｎｏ　ｆｉｌｔｅｒ,,合同会社,東京都,港区,六本木４丁目１０－１１八巻ビル４階,,13,103,1060032,,,,,,,2021-10-18,1,,,,,ノーフィルター,0
907,4010403026364,新規,0,2021-10-18,2021-10-18,合同会社福岡プロデュース,,合同会社,東京都,港区,西麻布２丁目１３番１５号,,13,103,1060031,,,,,,,2021-10-18,1,,,,,フクオカプロデュース,0
910,4010501047980,新規,0,2021-10-18,2021-10-18,Ｍｙ　ｏｎｅ　ａｎｄ　ｏｎｌｙ　ｌｉｆｅ株式会社,,株式会社,東京都,台東区,台東４丁目１７－１偕楽ビル３０１,,13,106,1100016,,,,,,,2021-10-18,1,,,,,マイワンアンドオンリーライフ,0
923,4011001143262,新規,0,2021-10-18,2021-10-18,株式会社ｗｅｌｌｂｅ,,株式会社,東京都,目黒区,目黒２丁目１１番１５号,,13,110,1530063,,,,,,,2021-10-18,1,,,,,ウェルビー,0
924,4011001143510,新規,0,2021-10-18,2021-10-18,株式会社清肌堂,,株式会社,東京都,渋谷区,恵比寿４丁目２０番３号恵比寿ガーデンプレイスタワー１８階,,13,113,1500013,,,,,,,2021-10-18,1,,,,,セイキドウ,0
926,4011003013554,新規,0,2021-10-18,2021-10-18,ＳＡＹＬ合同会社,,合同会社,東京都,目黒区,目黒本町５丁目１４番１０号カーサメグロ３０２号室,,13,110,1520002,,,,,,,2021-10-18,1,,,,,セイル,0
927,4011005009253,新規,0,2021-10-18,2021-10-18,一般社団法人日本キャリア支援機構,,その他の設立登記法人,東京都,渋谷区,鶯谷町１４番３－５０５号,,13,113,1500032,,,,,,,2021-10-18,1,,,,,ニホンキャリアシエンキコウ,0
930,4011203003669,新規,0,2021-10-18,2021-10-18,Ｓａｚｅｒａｃ　Ｊａｐａｎ合同会社,,合同会社,東京都,中野区,中野４丁目１番１号中野サンプラザ９階,,13,114,1640001,,,,,,,2021-10-18,1,,,,,サゼラックジャパン,0
933,4011301027264,新規,0,2021-10-18,2021-10-18,株式会社エクストリームクリエーティブ,,株式会社,東京都,杉並区,高円寺南３丁目３４番３号メゾン・ド・シェール１０１,,13,115,1660003,,,,,,,2021-10-18,1,,,,,エクストリームクリエーティブ,0
935,4011401023766,新規,0,2021-10-18,2021-10-18,株式会社ファクトリークラウド,,株式会社,東京都,板橋区,南常盤台１丁目１１－６レフア南常盤台１０１号室,,13,119,1740072,,,,,,,2021-10-18,1,,,,,ファクトリークラウド,0
937,4011503004929,新規,0,2021-10-18,2021-10-18,合同会社ｃｒｉｏ,,合同会社,東京都,北区,上十条２丁目５番１３号十条会館１０２号室－Ａ,,13,117,1140034,,,,,,,2021-10-18,1,,,,,クリオ,0
950,4012703002334,新規,0,2021-10-18,2021-10-18,合同会社ＦｌｌＯＹＤ　ｓｙｓｔｅｍｓ,,合同会社,東京都,清瀬市,元町１丁目１番１３号英進ビル２階,,13,221,2040021,,,,,,,2021-10-18,1,,,,,フロイドシステムズ,0
962,4020003020675,新規,0,2021-10-18,2021-10-18,ノイル合同会社,,合同会社,神奈川県,川崎市高津区,久地３丁目１６番６,,14,134,2130032,,,,,,,2021-10-18,1,,,,,ノイル,0
963,4021001074242,新規,0,2021-10-18,2021-10-18,株式会社Ｗａｔｃｈ　Ｏｖｅｒ,,株式会社,神奈川県,相模原市中央区,矢部２丁目１５番１０号２Ｆ,,14,152,2520232,,,,,,,2021-10-18,1,,,,,ウォッチオーバー,0
964,4021001074250,新規,0,2021-10-18,2021-10-18,株式会社ドメーヌナツメ,,株式会社,神奈川県,鎌倉市,津西１丁目２６－６,,14,204,2480034,,,,,,,2021-10-18,1,,,,,ドメーヌナツメ,0
965,4021003011004,新規,0,2021-10-18,2021-10-18,夕焼建設合同会社,,合同会社,神奈川県,藤沢市,湘南台５丁目１３番地の１４ヴィレッタ２０１,,14,205,2520804,,,,,,,2021-10-18,1,,,,,ユウヤケケンセツ,0
979,4030003018149,新規,0,2021-10-18,2021-10-18,合同会社アッピー,,合同会社,埼玉県,川口市,大字源左衛門新田７４－３１,,11,203,3330822,,,,,,,2021-10-18,1,,,,,アッピー,0
990,4050003006143,新規,0,2021-10-18,2021-10-18,合同会社Ｃｏｆｆｉｎ,,合同会社,茨城県,つくば市,館野４６６番５,,08,220,3050067,,,,,,,2021-10-18,1,,,,,コフィン,0
994,4060001034211,新規,0,2021-10-18,2021-10-18,株式会社Ｌｅｔ　ｉｔ,,株式会社,栃木県,小山市,大字土塔２４７番地３９,,09,208,3230812,,,,,,,2021-10-18,1,,,,,レットイット,0
1000,4070003004269,新規,0,2021-10-18,2021-10-18,Ｃｏｄｉｎｇ　ｋｉｗｉ合同会社,,合同会社,群馬県,桐生市,新宿３丁目５番１８号,,10,203,3760006,,,,,,,2021-10-18,1,,,,,コーディングキウイ,0
1008,4100001034719,新規,0,2021-10-18,2021-10-18,株式会社カクセン,,株式会社,長野県,岡谷市,本町３丁目１番５号,,20,204,3940028,,,,,,,2021-10-18,1,,,,,カクセン,0
1025,4120001241222,新規,0,2021-10-18,2021-10-18,株式会社カザマビル,,株式会社,大阪府,交野市,星田５丁目１７番８号カパオプラザ１０８号室,,27,230,5760016,,,,,,,2021-10-18,1,,,,,カザマビル,0
1026,4120001241255,新規,0,2021-10-18,2021-10-18,株式会社多美屋,,株式会社,大阪府,大阪市平野区,加美正覚寺３丁目２番２０－５１３号,,27,126,5470006,,,,,,,2021-10-18,1,,,,,タミヤ,0
1030,4120101064424,新規,0,2021-10-18,2021-10-18,株式会社Ｂａｓｅ　ｃｏｍｍｕｎｉｃａｔｉｏｎｓ,,株式会社,大阪府,堺市堺区,今池町５丁２番２８号,,27,141,5900018,,,,,,,2021-10-18,1,,,,,ベースコミュニケーションズ,0
1031,4120101064498,新規,0,2021-10-18,2021-10-18,株式会社Ｏｒｉｇａｍｉ,,株式会社,大阪府,堺市堺区,中瓦町１丁４－２２大阪信用金庫堺東ビル２Ｆ,,27,141,5900077,,,,,,,2021-10-18,1,,,,,オリガミ,0
1035,4122001035273,新規,0,2021-10-18,2021-10-18,テックタック株式会社,,株式会社,大阪府,東大阪市,森河内西２丁目２１番１９号,,27,227,5770061,,,,,,,2021-10-18,1,,,,,テックタック,0
1039,4130001070348,新規,0,2021-10-18,2021-10-18,株式会社ＬＡＳＥＮ,,株式会社,京都府,京都市下京区,御供石町３４１－３,,26,106,6008429,,,,,,,2021-10-18,1,,,,,ラセン,0
1049,4140003016868,新規,0,2021-10-18,2021-10-18,合同会社ｔｅａｍ．Ｆ,,合同会社,兵庫県,神戸市北区,松が枝町２丁目１番２４号,,28,109,6511232,,,,,,,2021-10-18,1,,,,,チームエフ,0
1050,4140005025859,新規,0,2021-10-18,2021-10-18,一般社団法人ｅｒａｖｕ,,その他の設立登記法人,兵庫県,西宮市,東山台３丁目３７番地７,,28,204,6691133,,,,,,,2021-10-18,1,,,,,エラブ,0
1060,4180001148346,新規,0,2021-10-18,2021-10-18,株式会社ファースト,,株式会社,愛知県,尾張旭市,狩宿町３丁目４７番地１レインボー尾張旭５０２号,,23,226,4880021,,,,,,,2021-10-18,1,,,,,ファースト,0
1067,4180301035525,新規,0,2021-10-18,2021-10-18,田辺真明建築設計事務所株式会社,,株式会社,愛知県,岡崎市,若松町字金仏２７番地６,,23,202,4440826,,,,,,,2021-10-18,1,,,,,タナベマサアキケンチクセッケイジムショ,0
1071,4190001028778,新規,0,2021-10-18,2021-10-18,株式会社小西板金,,株式会社,三重県,志摩市,阿児町甲賀１９０８番地,,24,215,5170505,,,,,,,2021-10-18,1,,,,,コニシバンキン,0
1077,4210001018652,新規,0,2021-10-18,2021-10-18,デゼロ株式会社,,株式会社,福井県,福井市,深谷町第３７号１４番地,,18,201,9100049,,,,,,,2021-10-18,1,,,,,デゼロ,0
1080,4220001024476,新規,0,2021-10-18,2021-10-18,ＴＯＹＯＫＵＲＡＨＤ株式会社,,株式会社,石川県,金沢市,緑が丘１７番１４－１号,,17,201,9218117,,,,,,,2021-10-18,1,,,,,トヨクラホールディング,0
1092,4250003002923,新規,0,2021-10-18,2021-10-18,山本文則事務所合同会社,,合同会社,山口県,萩市,大字椿東９４１,,35,204,7580011,,,,,,,2021-10-18,1,,,,,ヤマモトフミノリジムショ,0
1097,4270003001361,新規,0,2021-10-18,2021-10-18,合同会社ＳＴＡ,,合同会社,鳥取県,米子市,東福原５丁目６番３６‐５０７号,,31,202,6830802,,,,,,,2021-10-18,1,,,,,エスティーエイ,0
1108,4290001095024,新規,0,2021-10-18,2021-10-18,株式会社ｌ．ｅ．Ｄｅｓｉｇｎ,,株式会社,福岡県,福岡市早良区,高取２丁目５番１４―３０３号,,40,137,8140011,,,,,,,2021-10-18,1,,,,,エルイーデザイン,0
1109,4290001095040,新規,0,2021-10-18,2021-10-18,株式会社未来便,,株式会社,福岡県,福津市,西福間４丁目８番７号,,40,224,8113219,,,,,,,2021-10-18,1,,,,,ミライビン,0
1124,4330003009092,新規,0,2021-10-18,2021-10-18,ｇｏ－ｔｏ合同会社,,合同会社,熊本県,菊池郡菊陽町,光の森３丁目１１ー３,,43,404,8691108,,,,,,,2021-10-18,1,,,,,ゴートゥー,0
1125,4340001024175,新規,0,2021-10-18,2021-10-18,株式会社祐心,,株式会社,鹿児島県,大島郡瀬戸内町,大字古仁屋字宮前２７番地１,,46,525,8941502,,,,,,,2021-10-18,1,,,,,ユウシン,0
1128,4340005009354,新規,0,2021-10-18,2021-10-18,一般社団法人Ｙ．Ｏ．Ｌ．Ｏ,,その他の設立登記法人,鹿児島県,鹿児島市,和田１丁目３０番５号,,46,201,8910143,,,,,,,2021-10-18,1,,,,,ワイオーエルオー,0
1132,4350001017368,新規,0,2021-10-18,2021-10-18,株式会社小原総建,,株式会社,宮崎県,都城市,高城町穂満坊１５番地５,,45,202,8851202,,,,,,,2021-10-18,1,,,,,コハラソウケン,0
1143,4360003011500,新規,0,2021-10-18,2021-10-18,合同会社ねんりん企画,,合同会社,沖縄県,国頭郡金武町,字屋嘉２５６８番地１,,47,314,9041203,,,,,,,2021-10-18,1,,,,,ネンリンキカク,0
1146,4380003005038,新規,0,2021-10-18,2021-10-18,トゥーホーム福島物流合同会社,,合同会社,福島県,福島市,飯坂町平野字代７番地１６,,07,201,9600231,,,,,,,2021-10-18,1,,,,,トゥーホームフクシマブツリュウ,0
1151,4400001015639,新規,0,2021-10-18,2021-10-18,かとう創菓株式会社,,株式会社,岩手県,釜石市,野田町２丁目１番８号,,03,211,0260054,,,,,,,2021-10-18,1,,,,,カトウソウカ,0
1159,4430001085191,新規,0,2021-10-18,2021-10-18,株式会社ミヤビ工業,,株式会社,北海道,札幌市南区,澄川三条５丁目２番１号－３０５号,,01,106,0050003,,,,,,,2021-10-18,1,,,,,ミヤビコウギョウ,0
1160,4430001085200,新規,0,2021-10-18,2021-10-18,株式会社ＨＫ工業,,株式会社,北海道,札幌市北区,篠路一条７丁目１０番２２号,,01,102,0028021,,,,,,,2021-10-18,1,,,,,エイチケーコウギョウ,0
1163,4430003013258,新規,0,2021-10-18,2021-10-18,合同会社たかぴ,,合同会社,北海道,空知郡南幌町,南２０線西２１番地,,01,423,0690220,,,,,,,2021-10-18,1,,,,,タカピ,0
1168,4470001018775,新規,0,2021-10-18,2021-10-18,株式会社ホープ,,株式会社,香川県,高松市,観光町５２３番地１３セレクトテラスカーサ１０１号,,37,201,7600076,,,,,,,2021-10-18,1,,,,,ホープ,0
1181,5010001221861,新規,0,2021-10-18,2021-10-18,株式会社モデルプレスアドエージェンシー,,株式会社,東京都,中央区,八丁堀３丁目１８番１１号八丁堀サウスビル５階,,13,102,1040032,,,,,,,2021-10-18,1,,,,,モデルプレスアドエージェンシー,0
1182,5010001221894,新規,0,2021-10-18,2021-10-18,株式会社レアグルーヴ,,株式会社,東京都,中央区,晴海３丁目１３番１ＤＥＵＸＴＯＵＲＳＥ４７０４,,13,102,1040053,,,,,,,2021-10-18,1,,,,,,0
1183,5010001221911,新規,0,2021-10-18,2021-10-18,株式会社ＬＥＰＬＡＮ,,株式会社,東京都,千代田区,神田多町２丁目９番６号,,13,101,1010046,,,,,,,2021-10-18,1,,,,,レプラン,0
1184,5010001221944,新規,0,2021-10-18,2021-10-18,株式会社ＭＩＬＩＴＡＲＹＷＯＲＫＳ,,株式会社,東京都,中央区,銀座１丁目２２番１１号銀座大竹ビジデンス２階,,13,102,1040061,,,,,,,2021-10-18,1,,,,,ミリタリーワークス,0
1187,5010003036044,新規,0,2021-10-18,2021-10-18,合同会社Ｈｉｇｈ　Ｎ　Ｏｎ,,合同会社,東京都,中央区,勝どき６丁目３番１－１８０３号,,13,102,1040054,,,,,,,2021-10-18,1,,,,,ハイエンオン,0
1188,5010003036052,新規,0,2021-10-18,2021-10-18,合同会社ファクラボ,,合同会社,東京都,中央区,日本橋箱崎町２０番１５号箱崎ＫＹビル５階,,13,102,1030015,,,,,,,2021-10-18,1,,,,,ファクラボ,0
1195,5010401163308,新規,0,2021-10-18,2021-10-18,株式会社ミスト,,株式会社,東京都,港区,麻布十番３丁目２番１２－６０８号,,13,103,1060045,,,,,,,2021-10-18,1,,,,,ミスト,0
1196,5010403026322,新規,0,2021-10-18,2021-10-18,Ｆｅｒｅ＆Ｏ　Ｊａｐａｎ合同会社,,合同会社,東京都,港区,赤坂２丁目２３番１号アークヒルズ・フロントタワーＩｎＣｏｎｔｒｏｌ内,,13,103,1070052,,,,,,,2021-10-18,1,,,,,フェレアンドオージャパン,0
1197,5010403026347,新規,0,2021-10-18,2021-10-18,ディバイブ合同会社,,合同会社,東京都,港区,東麻布２丁目１８－５,,13,103,1060044,,,,,,,2021-10-18,1,,,,,ディバイブ,0
1200,5010601060098,新規,0,2021-10-18,2021-10-18,株式会社アナザ,,株式会社,東京都,江東区,佐賀１丁目８－４－１００４,,13,108,1350031,,,,,,,2021-10-18,1,,,,,アナザ,0
1204,5010803003920,新規,0,2021-10-18,2021-10-18,合同会社アイ・メディア,,合同会社,東京都,大田区,池上７丁目３０番４号,,13,111,1460082,,,,,,,2021-10-18,1,,,,,アイメディア,0
1206,5010903006872,新規,0,2021-10-18,2021-10-18,ウィークデイズ合同会社,,合同会社,東京都,世田谷区,弦巻２丁目１８番２０－１１１号,,13,112,1540016,,,,,,,2021-10-18,1,,,,,ウィークデイズ,0
1214,5011001143278,新規,0,2021-10-18,2021-10-18,株式会社ジョインハンズゲーミング,,株式会社,東京都,渋谷区,神宮前１丁目１番８号ケンハーバー４０１,,13,113,1500001,,,,,,,2021-10-18,1,,,,,ジョインハンズゲーミング,0
1215,5011001143484,新規,0,2021-10-18,2021-10-18,Ｍ’ｓリース株式会社,,株式会社,東京都,渋谷区,上原３丁目２７番１３号,,13,113,1510064,,,,,,,2021-10-18,1,,,,,エムズリース,0
1216,5011001143492,新規,0,2021-10-18,2021-10-18,株式会社サウナ禅,,株式会社,東京都,渋谷区,恵比寿西２丁目１９－９フランセスビル１Ｆ,,13,113,1500021,,,,,,,2021-10-18,1,,,,,サウナゼン,0
1219,5011003013512,新規,0,2021-10-18,2021-10-18,リテールアシストシステムズ合同会社,,合同会社,東京都,渋谷区,円山町５番５号Ｎａｖｉ渋谷Ｖ３階,,13,113,1500044,,,,,,,2021-10-18,1,,,,,リテールアシストシステムズ,0
1220,5011003013578,新規,0,2021-10-18,2021-10-18,ｍｅｕｔ合同会社,,合同会社,東京都,渋谷区,神山町３１－１４カーサ神山２０２,,13,113,1500047,,,,,,,2021-10-18,1,,,,,ミュート,0
1225,5011101096608,新規,0,2021-10-18,2021-10-18,株式会社ＰＭＧパートナーズ,,株式会社,東京都,新宿区,西新宿２丁目４番１号新宿ＮＳビル６Ｆ,,13,104,1600023,,,,,,,2021-10-18,1,,,,,ピーエムジーパートナーズ,0
1227,5011105010003,新規,0,2021-10-18,2021-10-18,一般社団法人日本音楽会場協会,,その他の設立登記法人,東京都,新宿区,大久保２丁目５－１９シティプラザ大久保Ｂ１,,13,104,1690072,,,,,,,2021-10-18,1,,,,,ニホンオンガクカイジョウキョウカイ,0
1229,5011401023765,新規,0,2021-10-18,2021-10-18,株式会社ネット・テクノ・ラボ,,株式会社,東京都,板橋区,熊野町３７番２－４０２号,,13,119,1730025,,,,,,,2021-10-18,1,,,,,ネットテクノラボ,0
1231,5011801039840,新規,0,2021-10-18,2021-10-18,株式会社アベリア,,株式会社,東京都,葛飾区,四つ木５丁目１２番１２号,,13,122,1240011,,,,,,,2021-10-18,1,,,,,アベリア,0
1245,5021001074092,新規,0,2021-10-18,2021-10-18,株式会社高校生,,株式会社,神奈川県,茅ヶ崎市,南湖２丁目３－６－８,,14,207,2530061,,,,,,,2021-10-18,1,,,,,コウコウセイ,0
1247,5021003010995,新規,0,2021-10-18,2021-10-18,合同会社小野企画,,合同会社,神奈川県,伊勢原市,下糟屋３０３２番地の１６,,14,214,2591143,,,,,,,2021-10-18,1,,,,,オノキカク,0
1248,5021003011003,新規,0,2021-10-18,2021-10-18,合同会社コモレビ,,合同会社,神奈川県,藤沢市,鵠沼石上１丁目７番８,00124595,14,205,2510025,,,,,,,2021-10-18,1,,,,,コモレビ,0
1261,5030001144870,新規,0,2021-10-18,2021-10-18,モリブロック工業株式会社,,株式会社,埼玉県,川口市,大字辻７９５番地の５,00124594,11,203,3340004,,,,,,,2021-10-18,1,,,,,モリブロックコウギョウ,0
1270,5030005020580,新規,0,2021-10-18,2021-10-18,一般社団法人未来学園ＨＯＰＥ,,その他の設立登記法人,埼玉県,さいたま市南区,別所３丁目１３番２２－２０７号,,11,108,3360021,,,,,,,2021-10-18,1,,,,,ミライガクエンホープ,0
1274,5040001120656,新規,0,2021-10-18,2021-10-18,ブルーノスタジオ株式会社,,株式会社,千葉県,八街市,ほ９４５番１１の１,,12,230,2891100,,,,,,,2021-10-18,1,,,,,ブルーノスタジオ,0
1288,5050003006142,新規,0,2021-10-18,2021-10-18,合同会社郷創社,,合同会社,茨城県,古河市,諸川１１１５番地４,,08,204,3060126,,,,,,,2021-10-18,1,,,,,キョウソウシャ,0
1296,5070001038549,新規,0,2021-10-18,2021-10-18,吉澤不動産鑑定士事務所株式会社,,株式会社,群馬県,伊勢崎市,昭和町３８０９番地,,10,204,3720014,,,,,,,2021-10-18,1,,,,,ヨシザワフドウサンカンテイシジムショ,0
1308,5090003001973,新規,0,2021-10-18,2021-10-18,合同会社ブルーセブン,,合同会社,山梨県,甲府市,山宮町１７８４番地５,,19,201,4000075,,,,,,,2021-10-18,1,,,,,ブルーセブン,0
1319,5120001241238,新規,0,2021-10-18,2021-10-18,株式会社うまみ大阪,,株式会社,大阪府,大阪市北区,天満橋１丁目４番１４号（天満橋ビル２０１）,,27,127,5300042,,,,,,,2021-10-18,1,,,,,ウマミオオサカ,0
1320,5120001241246,新規,0,2021-10-18,2021-10-18,株式会社オーエン,,株式会社,大阪府,大阪市西区,北堀江１丁目２１番１２号米澤ビル北堀江ＩＩ９０２号,00124596,27,106,5500014,,,,,,,2021-10-18,1,,,,,オーエン,0
1332,5130001070339,新規,0,2021-10-18,2021-10-18,株式会社ａｎｄ　ｓｔｕｄｙ,,株式会社,京都府,京都市左京区,田中下柳町３－１６,,26,103,6068204,,,,,,,2021-10-18,1,,,,,アンドスタディ,0
1333,5130001070347,新規,0,2021-10-18,2021-10-18,株式会社ＦＩＥＳＴＡ,,株式会社,京都府,京都市中京区,寺町通錦小路下る東大文字町３０６番地コアビル３Ｆ,,26,104,6048043,,,,,,,2021-10-18,1,,,,,フィエスタ,0
1340,5140001123483,新規,0,2021-10-18,2021-10-18,株式会社片山装工,,株式会社,兵庫県,神戸市西区,池上２丁目７番地の１５,,28,111,6512111,,,,,,,2021-10-18,1,,,,,カタヤマソウコウ,0
1341,5140001123509,新規,0,2021-10-18,2021-10-18,株式会社ＭＵＴＳＵＫＩ　ＷＯＲＫＳ,,株式会社,兵庫県,赤穂市,御崎１０７,,28,212,6780215,,,,,,,2021-10-18,1,,,,,ムツキワークス,0
1342,5140001123525,新規,0,2021-10-18,2021-10-18,株式会社ＴＲＵＮＫ,,株式会社,兵庫県,神戸市垂水区,つつじが丘１丁目１１９８番地の３８,,28,108,6550853,,,,,,,2021-10-18,1,,,,,トランク,0
1355,5140005025858,新規,0,2021-10-18,2021-10-18,秋元税理士法人,,その他の設立登記法人,兵庫県,神戸市中央区,海岸通６番地建隆ビル５０２号,,28,110,6500024,,,,,,,2021-10-18,1,,,,,アキモト,0
1359,5150001025027,新規,0,2021-10-18,2021-10-18,株式会社マルイコーポレーション,,株式会社,奈良県,奈良市,学園赤松町３６２８番地,,29,201,6310027,,,,,,,2021-10-18,1,,,,,マルイコーポレーション,0
1369,5180001148329,新規,0,2021-10-18,2021-10-18,株式会社ＨＴ,,株式会社,愛知県,一宮市,西五城字中川田４番地３,,23,203,4940005,,,,,,,2021-10-18,1,,,,,エイチティー,0
1370,5180001148353,新規,0,2021-10-18,2021-10-18,ＳＰ３６株式会社,,株式会社,愛知県,津島市,愛宕町８丁目４３番地４,,23,208,4960036,,,,,,,2021-10-18,1,,,,,エスピーサンジュウロク,0
1376,5200001039302,新規,0,2021-10-18,2021-10-18,株式会社３ＰＩＥＣＥ,,株式会社,岐阜県,瑞浪市,稲津町小里１００１番地の１４,,21,208,5096103,,,,,,,2021-10-18,1,,,,,スリーピース,0
1380,5210001018651,新規,0,2021-10-18,2021-10-18,株式会社Ｊ・ＢｒａｎＤ,,株式会社,福井県,福井市,問屋町１丁目２５０番地,,18,201,9188231,,,,,,,2021-10-18,1,,,,,ジェイブランド,0
1385,5240001058769,新規,0,2021-10-18,2021-10-18,株式会社Ｒ‐ＭＡＰ,,株式会社,広島県,広島市東区,戸坂大上４丁目２９番１３号４Ｆ,,34,102,7320014,,,,,,,2021-10-18,1,,,,,アールマップ,0
1389,5250001019200,新規,0,2021-10-18,2021-10-18,株式会社ＳＨＩＭＯＩ,,株式会社,山口県,山口市,葵２丁目７番１号１階Ｂ号,,35,203,7530821,,,,,,,2021-10-18,1,,,,,シモイ,0
1390,5250003002922,新規,0,2021-10-18,2021-10-18,合同会社ＡＲＲＡＮＧＥ,,合同会社,山口県,宇部市,大字東岐波５８５３－６,,35,202,7550241,,,,,,,2021-10-18,1,,,,,アレンジ,0
1399,5290001095023,新規,0,2021-10-18,2021-10-18,ＲｏＬａクリエイティブ・エージェンシー株式会社,,株式会社,福岡県,宗像市,広陵台１丁目７－２,,40,220,8114165,,,,,,,2021-10-18,1,,,,,ローラクリエイティブエージェンシー,0
1402,5290003011713,新規,0,2021-10-18,2021-10-18,ふらっと合同会社,,合同会社,福岡県,福岡市西区,野方２丁目３番４７号,,40,135,8190043,,,,,,,2021-10-18,1,,,,,フラット,0
1403,5290003011721,新規,0,2021-10-18,2021-10-18,サンキンホーム合同会社,,合同会社,福岡県,福岡市西区,生の松原３丁目１１番１６号,,40,135,8190055,,,,,,,2021-10-18,1,,,,,サンキンホーム,0
1406,5300005007039,新規,0,2021-10-18,2021-10-18,特定非営利活動法人山田の風,,その他の設立登記法人,佐賀県,三養基郡みやき町,大字簑原４７８３番地８３,,41,346,8490102,,,,,,,2021-10-18,1,,,,,ヤマダノカゼ,0
1407,5320001018681,新規,0,2021-10-18,2021-10-18,株式会社ＳＡ,,株式会社,大分県,大分市,向原西１丁目７番２５号２Ｆ,,44,201,8700905,,,,,,,2021-10-18,1,,,,,エスエー,0
1412,5330003009091,新規,0,2021-10-18,2021-10-18,合同会社ＫＩＮＤ　ＳＵＰＰＯＲＴ,,合同会社,熊本県,合志市,幾久富１９０９番地１５７５,,43,216,8611112,,,,,,,2021-10-18,1,,,,,カインドサポート,0
1414,5340005009353,新規,0,2021-10-18,2021-10-18,一般社団法人居場所づくり支援事業Ｕｍ,,その他の設立登記法人,鹿児島県,奄美市,名瀬佐大熊１４番６号稲井ビル１０１,,46,222,8940000,,,,,,,2021-10-18,1,,,,,イバショヅクリシエンジギョウウム,0
1424,5380003005037,新規,0,2021-10-18,2021-10-18,合同会社エスワン,,合同会社,福島県,福島市,町庭坂字遠原三７番地の１３,,07,201,9602261,,,,,,,2021-10-18,1,,,,,エスワン,0
1425,5390003001885,新規,0,2021-10-18,2021-10-18,合同会社ｏｆｆｉｃｅ　ＤＩＲ,,合同会社,山形県,天童市,大字乱川３３番地の２,,06,210,9940002,,,,,,,2021-10-18,1,,,,,オフィスディル,0
1432,5430003013257,新規,0,2021-10-18,2021-10-18,合同会社トレーディングエナジー,,合同会社,北海道,小樽市,花園５丁目６番１７号,,01,203,0470024,,,,,,,2021-10-18,1,,,,,トレーディングエナジー,0
1442,5700150105382,新規,0,2021-10-18,2021-10-18,ＰＡＮ　ＭＯＴＯＲＳ,,外国会社等,神奈川県,綾瀬市,大上６丁目７－１５ミオンさがみ野Ｂ棟２０３号室,,14,218,2521104,スリランカ民主社会主義共和国、ネゴンボ、チロウロード１４番,,,,,,2021-10-18,1,,,,,ペンモータース,0
1454,6010001221704,新規,0,2021-10-18,2021-10-18,株式会社ＴＬＰ,,株式会社,東京都,中央区,銀座１丁目２２番１１号銀座大竹ビジデンス２階,,13,102,1040061,,,,,,,2021-10-18,1,,,,,ティーエルピー,0
1455,6010001221860,新規,0,2021-10-18,2021-10-18,ＰＴＣＪ－２ホールディングス株式会社,,株式会社,東京都,千代田区,丸の内１丁目９番１号,,13,101,1000005,,,,,,,2021-10-18,1,,,,,ピーティーホールディングス,0
1456,6010001221877,新規,0,2021-10-18,2021-10-18,株式会社ＡＲＡＴＡ,,株式会社,東京都,中央区,日本橋人形町２丁目２９－９－４階,,13,102,1030013,,,,,,,2021-10-18,1,,,,,アラタ,0
1457,6010001221902,新規,0,2021-10-18,2021-10-18,株式会社千寿クリエイティブ,,株式会社,東京都,千代田区,内神田３丁目２４番７号,,13,101,1010047,,,,,,,2021-10-18,1,,,,,センジュクリエイティブ,0
1458,6010001221910,新規,0,2021-10-18,2021-10-18,株式会社ガチンコ,,株式会社,東京都,中央区,銀座６丁目１３－１６銀座ウォールビル５階,,13,102,1040061,,,,,,,2021-10-18,1,,,,,ガチンコ,0
1464,6010003036019,新規,0,2021-10-18,2021-10-18,合同会社モールプロパティー,,合同会社,東京都,千代田区,内神田２丁目２番６号５階あすな会計事務所内,,13,101,1010047,,,,,,,2021-10-18,1,,,,,モールプロパティー,0
1465,6010003036051,新規,0,2021-10-18,2021-10-18,合同会社パルティア,,合同会社,東京都,文京区,西片２丁目７－１５,,13,105,1130024,,,,,,,2021-10-18,1,,,,,パルティア,0
1475,6010401163265,新規,0,2021-10-18,2021-10-18,ｅｎｏｂｉ株式会社,,株式会社,東京都,港区,虎ノ門１丁目１７番１号,,13,103,1050001,,,,,,,2021-10-18,1,,,,,エノビ,0
1476,6010403026346,新規,0,2021-10-18,2021-10-18,ＳＳ光３４合同会社,,合同会社,東京都,港区,芝公園１丁目３番１号留園ビル６階,,13,103,1050011,,,,,,,2021-10-18,1,,,,,エスエスヒカリサーティフォー,0
1478,6010501047979,新規,0,2021-10-18,2021-10-18,株式会社ブリッジ,,株式会社,東京都,台東区,竜泉２丁目１２番１０－１１０１号日神パレステージ三ノ輪国際通り,,13,106,1100012,,,,,,,2021-10-18,1,,,,,ブリッジ,0
1482,6010705003282,新規,0,2021-10-18,2021-10-18,一般社団法人地域みらい創造センター,,その他の設立登記法人,東京都,品川区,西五反田７丁目２２番１７号,,13,109,1410031,,,,,,,2021-10-18,1,,,,,チイキミライソウゾウセンター,0
1483,6010801032417,新規,0,2021-10-18,2021-10-18,株式会社ユニークルート,,株式会社,東京都,大田区,山王３丁目３－１－１Ｆ,,13,111,1430023,,,,,,,2021-10-18,1,,,,,ユニークルート,0
1489,6011001143491,新規,0,2021-10-18,2021-10-18,株式会社将軍,,株式会社,東京都,目黒区,青葉台３丁目６番２８－２２０９号,,13,110,1530042,,,,,,,2021-10-18,1,,,,,ショウグン,0
1494,6011101096607,新規,0,2021-10-18,2021-10-18,株式会社雛菊,,株式会社,東京都,新宿区,矢来町４１－１－１２,,13,104,1620805,,,,,,,2021-10-18,1,,,,,ヒナギク,0
1499,6011201023320,新規,0,2021-10-18,2021-10-18,株式会社アメツチ,,株式会社,東京都,中野区,中野４丁目１番１号中野サンプラザ９階,,13,114,1640001,,,,,,,2021-10-18,1,,,,,アメツチ,0
1500,6011203003667,新規,0,2021-10-18,2021-10-18,Ｋ通信合同会社,,合同会社,東京都,中野区,鷺宮４丁目４４番４号,,13,114,1650032,,,,,,,2021-10-18,1,,,,,ケーツウシン,0
1513,6012403005073,新規,0,2021-10-18,2021-10-18,Ｓｔａｒｔ　ｉＴ合同会社,,合同会社,東京都,調布市,小島町３丁目３番地１７,,13,208,1820026,,,,,,,2021-10-18,1,,,,,スタートイット,0
1527,6020001143534,新規,0,2021-10-18,2021-10-18,株式会社ドラゴン,,株式会社,神奈川県,横浜市中区,相生町２丁目３１番地,,14,104,2310012,,,,,,,2021-10-18,1,,,,,ドラゴン,0
1532,6020003020649,新規,0,2021-10-18,2021-10-18,合同会社沖コーポレーション,,合同会社,神奈川県,川崎市川崎区,殿町２丁目３番１５号,,14,131,2100821,,,,,,,2021-10-18,1,,,,,オキコーポレーション,0
1533,6020003020673,新規,0,2021-10-18,2021-10-18,合同会社ＤＸＩＴ,,合同会社,神奈川県,川崎市麻生区,上麻生５丁目１１番７０－グランドメゾン上麻生２０６号室,,14,137,2150021,,,,,,,2021-10-18,1,,,,,ディーエックスイット,0
1541,6021001074224,新規,0,2021-10-18,2021-10-18,株式会社Ａｍｉｎｏ－ＹＡ,,株式会社,神奈川県,藤沢市,辻堂東海岸１丁目１４番１４号エスポワール湘南Ｂ,,14,205,2510045,,,,,,,2021-10-18,1,,,,,アミノヤ,0
1542,6021001074240,新規,0,2021-10-18,2021-10-18,株式会社ＧＥＮＰＡ,,株式会社,神奈川県,海老名市,東柏ケ谷５丁目１４番１１－８１１,,14,215,2430401,,,,,,,2021-10-18,1,,,,,ゲンパ,0
1543,6021001074249,新規,0,2021-10-18,2021-10-18,Ｅ－ＷＯＲＫＳ株式会社,,株式会社,神奈川県,綾瀬市,深谷中６丁目１９番１３号,,14,218,2521107,,,,,,,2021-10-18,1,,,,,イーワークス,0
1546,6021003011002,新規,0,2021-10-18,2021-10-18,合同会社Ｍ＆Ｔ　ＢＲＥＡＤ,,合同会社,神奈川県,藤沢市,亀井野８６２－２１,,14,205,2520813,,,,,,,2021-10-18,1,,,,,エムアンドティブレッド,0
1557,6030001144878,新規,0,2021-10-18,2021-10-18,エフエーライン株式会社,,株式会社,埼玉県,草加市,稲荷３丁目２７番１２号,,11,221,3400003,,,,,,,2021-10-18,1,,,,,エフエーライン,0
1558,6030001144886,新規,0,2021-10-18,2021-10-18,株式会社時音,,株式会社,埼玉県,さいたま市浦和区,高砂３丁目２番１２　号内山ビル２Ｆ,,11,107,3300063,,,,,,,2021-10-18,1,,,,,トキネ,0
1561,6030003018147,新規,0,2021-10-18,2021-10-18,合同会社ＲＳＪマネジメント,,合同会社,埼玉県,川越市,仙波町１丁目６番地２１,,11,201,3500034,,,,,,,2021-10-18,1,,,,,アールエスジェイマネジメント,0
1581,6070001038548,新規,0,2021-10-18,2021-10-18,株式会社北関東国際,,株式会社,群馬県,高崎市,飯塚町３６７番地１オリヴィエビル２０３号室,,10,202,3700069,,,,,,,2021-10-18,1,,,,,キタカントウコクサイ,0
1587,6080101022847,新規,0,2021-10-18,2021-10-18,株式会社生活の杜,,株式会社,静岡県,沼津市,岡宮１０１２番地の１,,22,203,4100011,,,,,,,2021-10-18,1,,,,,セイカツノモリ,0
1598,6110001036126,新規,0,2021-10-18,2021-10-18,株式会社ガゾウＡＸ,,株式会社,新潟県,新潟市中央区,網川原２丁目４４番１３号３階,,15,103,9500964,,,,,,,2021-10-18,1,,,,,ガゾウエーエックス,0
1608,6120001241229,新規,0,2021-10-18,2021-10-18,株式会社ｃｏｔｅｋｕｒｕ,,株式会社,大阪府,大阪市西区,新町１丁目１４番２１号,,27,106,5500013,,,,,,,2021-10-18,1,,,,,コテクル,0
1609,6120001241245,新規,0,2021-10-18,2021-10-18,インナービューティー株式会社,,株式会社,大阪府,大阪市城東区,中浜３丁目１６番１２号,,27,118,5360024,,,,,,,2021-10-18,1,,,,,インナービューティー,0
1615,6120103004401,新規,0,2021-10-18,2021-10-18,グランツ合同会社,,合同会社,大阪府,堺市堺区,大町東３丁１番１５号ジークレフ愛３０３,,27,141,5900954,,,,,,,2021-10-18,1,,,,,グランツ,0
1620,6130001070346,新規,0,2021-10-18,2021-10-18,株式会社ＤＩＭ,,株式会社,京都府,京都市中京区,聚楽廻松下町１２番地,,26,104,6048401,,,,,,,2021-10-18,1,,,,,ディーアイエム,0
1643,6150003002510,新規,0,2021-10-18,2021-10-18,ｃａｓｔｌｅ　ｈｉｇｈ合同会社,,合同会社,奈良県,桜井市,大字芝３８６番地の３,,29,206,6330074,,,,,,,2021-10-18,1,,,,,キャッスルハイ,0
1645,6160003002410,新規,0,2021-10-18,2021-10-18,合同会社ドコデモキカク,,合同会社,滋賀県,大津市,木の岡町３５番５号,,25,201,5200103,,,,,,,2021-10-18,1,,,,,ドコデモキカク,0
1657,6180001148336,新規,0,2021-10-18,2021-10-18,Ｇｐａｓｓｉｏｎｅｒｓ株式会社,,株式会社,愛知県,名古屋市守山区,大字上志段味字樹木１５８９番地・１５９０番地合併地,,23,113,4630001,,,,,,,2021-10-18,1,,,,,ジーパッショナーズ,0
1658,6180001148352,新規,0,2021-10-18,2021-10-18,株式会社Ｃ・Ｈクラフト,,株式会社,愛知県,名古屋市中川区,長須賀２丁目１７０５番地,,23,110,4540994,,,,,,,2021-10-18,1,,,,,シーエイチクラフト,0
1663,6180301035523,新規,0,2021-10-18,2021-10-18,株式会社Ｚ＆Ｃ,,株式会社,愛知県,安城市,住吉町３丁目１－１６・２０１号室,,23,212,4460072,,,,,,,2021-10-18,1,,,,,ゼットアンドシー,0
1666,6190001028776,新規,0,2021-10-18,2021-10-18,猿田彦ファーム株式会社,,株式会社,三重県,鈴鹿市,小岐須町９９０番地,,24,207,5190316,,,,,,,2021-10-18,1,,,,,サルタヒコファーム,0
1670,6200001039301,新規,0,2021-10-18,2021-10-18,株式会社賢’ｓ,,株式会社,岐阜県,可児市,大森１５０１番地６５０８,,21,214,5090238,,,,,,,2021-10-18,1,,,,,ケンズ,0
1672,6220003003138,新規,0,2021-10-18,2021-10-18,海源商事合同会社,,合同会社,石川県,金沢市,神田１丁目１０－２３,,17,201,9218027,,,,,,,2021-10-18,1,,,,,カイゲンショウジ,0
1677,6250001019199,新規,0,2021-10-18,2021-10-18,株式会社雄和,,株式会社,山口県,下関市,菊川町大字上田部６１７番地５,,35,201,7500314,,,,,,,2021-10-18,1,,,,,ユウワ,0
1678,6250003002921,新規,0,2021-10-18,2021-10-18,合同会社Ｈｏｕｓｅ　ｉｔ,,合同会社,山口県,美祢市,大嶺町東分３４２３番地,,35,213,7592212,,,,,,,2021-10-18,1,,,,,ハウスイット,0
1694,6290003011670,新規,0,2021-10-18,2021-10-18,合同会社毛利地所,,合同会社,福岡県,福岡市中央区,輝国２丁目１２７番１号,,40,133,8100032,,,,,,,2021-10-18,1,,,,,モウリジショ,0
1707,6330003009090,新規,0,2021-10-18,2021-10-18,照山会合同会社,,合同会社,熊本県,熊本市西区,二本木４丁目９番４４－５０３号,,43,103,8600051,,,,,,,2021-10-18,1,,,,,ショウザンカイ,0
1712,6340001024181,新規,0,2021-10-18,2021-10-18,株式会社薩摩建装,00124593,株式会社,鹿児島県,鹿児島市,下荒田３丁目７番８号１Ｆ,,46,201,8900056,,,,,,,2021-10-18,1,,,,,サツマケンソウ,0
1737,6430001085066,新規,0,2021-10-18,2021-10-18,株式会社プラウドリーム,,株式会社,北海道,札幌市中央区,南九条西１２丁目１番５２号ＯＭレジデンス１階,,01,101,0640809,,,,,,,2021-10-18,1,,,,,プラウドリーム,0
1738,6430001085198,新規,0,2021-10-18,2021-10-18,シオン電機株式会社,,株式会社,北海道,札幌市東区,北二十四条東４丁目１番６号,,01,103,0650024,,,,,,,2021-10-18,1,,,,,シオンデンキ,0
1744,6470001018773,新規,0,2021-10-18,2021-10-18,ＯＦＦＩＣＥ内田株式会社,,株式会社,香川県,善通寺市,善通寺町６丁目２番１３号,,37,204,7650003,,,,,,,2021-10-18,1,,,,,オフィスウチダ,0
1749,6470003002057,新規,0,2021-10-18,2021-10-18,合同会社訪問介護センター奏,,合同会社,香川県,高松市,木太町３２３４番地７,,37,201,7600080,,,,,,,2021-10-18,1,,,,,ホウモンカイゴセンターカナデ,0
1758,7010001221827,新規,0,2021-10-18,2021-10-18,株式会社ＩＮＮＯＯ,,株式会社,東京都,千代田区,有楽町１丁目６－３日比谷頴川ビル８０１,,13,101,1000006,,,,,,,2021-10-18,1,,,,,イノ,0
1759,7010001221868,新規,0,2021-10-18,2021-10-18,株式会社ＫＧＰ,,株式会社,東京都,千代田区,一番町４番地２２,,13,101,1020082,,,,,,,2021-10-18,1,,,,,ケージーピー,0
1760,7010001221892,新規,0,2021-10-18,2021-10-18,Ａｄｖａｎｃｅｄ　Ａｇｒｉｃｕｌｔｕｒｅ株式会社,,株式会社,東京都,文京区,目白台１丁目１５番１３号,,13,105,1120015,,,,,,,2021-10-18,1,,,,,アドバンスドアグリカルチャー,0
1764,7010003036018,新規,0,2021-10-18,2021-10-18,合同会社イーストタワーズ２,,合同会社,東京都,千代田区,内神田２丁目２番６号５階あすな会計事務所内,,13,101,1010047,,,,,,,2021-10-18,1,,,,,イーストタワーズツー,0
1765,7010003036042,新規,0,2021-10-18,2021-10-18,合同会社ＢＲＯ,,合同会社,東京都,中央区,勝どき１丁目１３番６－５０１号,,13,102,1040054,,,,,,,2021-10-18,1,,,,,ブロ,0
1776,7010403026329,新規,0,2021-10-18,2021-10-18,ＩＤＳ５号合同会社,,合同会社,東京都,港区,虎ノ門１丁目１番１２号１０Ｆ,,13,103,1050001,,,,,,,2021-10-18,1,,,,,アイディーエスゴゴウ,0
1777,7010403026345,新規,0,2021-10-18,2021-10-18,ＳＳ光３３合同会社,,合同会社,東京都,港区,芝公園１丁目３番１号留園ビル６階,,13,103,1050011,,,,,,,2021-10-18,1,,,,,エスエスヒカリサーティスリー,0
1779,7010501047986,新規,0,2021-10-18,2021-10-18,株式会社ヒラオカ,,株式会社,東京都,台東区,浅草橋５丁目１１番５－９０２号ディナ・スカ－ラ秋葉原,,13,106,1110053,,,,,,,2021-10-18,1,,,,,ヒラオカ,0
1781,7010601060096,新規,0,2021-10-18,2021-10-18,株式会社アイオーティー,,株式会社,東京都,墨田区,太平４丁目１番１－１４１７号,,13,107,1300012,,,,,,,2021-10-18,1,,,,,アイオーティー,0
1786,7010801032408,新規,0,2021-10-18,2021-10-18,インシュアランス・エージェント・ギルド株式会社,,株式会社,東京都,大田区,大森中２丁目１１－２,,13,111,1430014,,,,,,,2021-10-18,1,,,,,インシュアランスエージェントギルド,0
1790,7010901049632,新規,0,2021-10-18,2021-10-18,株式会社Ｌｉｆｅ　Ｚｏｎｅ,,株式会社,東京都,世田谷区,桜上水２丁目１５番２３号桜プレイスＩＩ１０３,00124589,13,112,1560045,,,,,,,2021-10-18,1,,,,,ライフゾーン,0
1802,7011001143409,新規,0,2021-10-18,2021-10-18,株式会社ＶＩＮＥＹＡＲＤ,,株式会社,東京都,渋谷区,宇田川町３６－２ノア渋谷１１階１１０３号,,13,113,1500042,,,,,,,2021-10-18,1,,,,,ヴィンヤード,0
1803,7011001143466,新規,0,2021-10-18,2021-10-18,株式会社ＢＯＳＦＩＬ,,株式会社,東京都,渋谷区,神宮前６丁目２３－４桑野ビル２階,,13,113,1500001,,,,,,,2021-10-18,1,,,,,ボスフィル,0
1807,7011003013444,新規,0,2021-10-18,2021-10-18,合同会社ｆａｍｆａｍ,,合同会社,東京都,渋谷区,千駄ヶ谷５丁目２６－５－４０１,,13,113,1510051,,,,,,,2021-10-18,1,,,,,ファムファム,0
1808,7011003013551,新規,0,2021-10-18,2021-10-18,トリトンジャパン合同会社,,合同会社,東京都,渋谷区,神宮前６丁目２３番４号桑野ビル２Ｆ,,13,113,1500001,,,,,,,2021-10-18,1,,,,,トリトンジャパン,0
1814,7011101096647,新規,0,2021-10-18,2021-10-18,株式会社ＨＴＣ,,株式会社,東京都,新宿区,新宿３丁目３５番５号,,13,104,1600022,,,,,,,2021-10-18,1,,,,,エイチティシー,0
1815,7011103011091,新規,0,2021-10-18,2021-10-18,ＭＩＤＯＲＩＳ合同会社,,合同会社,東京都,新宿区,新宿２丁目１番３号７０２,,13,104,1600022,,,,,,,2021-10-18,1,,,,,ミドリス,0
1823,7011401023739,新規,0,2021-10-18,2021-10-18,株式会社ＣＨＥＲＩＸＩＡ,,株式会社,東京都,板橋区,東新町１丁目１７番１３号ラヴィテックス上板橋２０１,,13,119,1740074,,,,,,,2021-10-18,1,,,,,チェリシア,0
1824,7011501027391,新規,0,2021-10-18,2021-10-18,Ｄ４ＩＮＴＥＲＮＡＴＩＯＮＡＬ株式会社,,株式会社,東京都,荒川区,東日暮里５丁目１番１号,,13,118,1160014,,,,,,,2021-10-18,1,,,,,ディーフォーインターナショナル,0
1826,7011601025469,新規,0,2021-10-18,2021-10-18,株式会社ＨＡＮＡＫＯ,,株式会社,東京都,練馬区,高野台３丁目２４番１１号,,13,120,1770033,,,,,,,2021-10-18,1,,,,,ハナコ,0
1830,7011801039839,新規,0,2021-10-18,2021-10-18,株式会社エーゼット,,株式会社,東京都,葛飾区,西亀有３丁目３１番１１号,,13,122,1250002,,,,,,,2021-10-18,1,,,,,エーゼット,0
1837,7012805003062,新規,0,2021-10-18,2021-10-18,税理士法人岩瀬税務会計事務所,,その他の設立登記法人,東京都,武蔵村山市,学園３丁目４３番地の１,,13,223,2080011,,,,,,,2021-10-18,1,,,,,イワセゼイムカイケイジムショ,0
1855,7020003020672,新規,0,2021-10-18,2021-10-18,合同会社ＡｏｆＬ,,合同会社,神奈川県,川崎市川崎区,京町２丁目９番２－７１０号コスモ川崎京町,,14,131,2100848,,,,,,,2021-10-18,1,,,,,エーオブエル,0
1856,7020005015241,新規,0,2021-10-18,2021-10-18,一般社団法人Ｍｅｄｉｃａｐｐ,,その他の設立登記法人,神奈川県,横浜市保土ケ谷区,上菅田町９１番地パストラル石崎１０１号,,14,106,2400051,,,,,,,2021-10-18,1,,,,,メディカップ,0
1860,7021001074248,新規,0,2021-10-18,2021-10-18,株式会社Ｆａｍｉｌｉａ,,株式会社,神奈川県,平塚市,紅谷町１２番２６号松ロイヤルビル２階,,14,203,2540043,,,,,,,2021-10-18,1,,,,,ファミリア,0
1861,7021003011001,新規,0,2021-10-18,2021-10-18,合同会社ウィルワン,,合同会社,神奈川県,逗子市,沼間３丁目５番１４号,,14,208,2490004,,,,,,,2021-10-18,1,,,,,ウィルワン,0
1878,7030001144869,新規,0,2021-10-18,2021-10-18,関東送変電建設工事株式会社,,株式会社,埼玉県,桶川市,坂田東３丁目５番地の７,,11,231,3630009,,,,,,,2021-10-18,1,,,,,カントウソウヘンデンケンセツコウジ,0
1887,7030005020579,新規,0,2021-10-18,2021-10-18,医療法人丈栄会,,その他の設立登記法人,埼玉県,朝霞市,朝志ケ丘４丁目１番１号メゾンソレイユ１階,,11,227,3510035,,,,,,,2021-10-18,1,,,,,ジョウエイカイ,0
1892,7040001120662,新規,0,2021-10-18,2021-10-18,株式会社Ｔｅａｍｉｅ,,株式会社,千葉県,船橋市,前原東３丁目８－２ラヴィサントゥール３０２,,12,204,2740824,,,,,,,2021-10-18,1,,,,,ティーミー,0
1893,7040001120670,新規,0,2021-10-18,2021-10-18,甲斐塗装ａｎｄｒｅｎｏｖａｔｉｏｎ株式会社,,株式会社,千葉県,富里市,十倉１２５番地８７,,12,233,2860212,,,,,,,2021-10-18,1,,,,,カイトソウアンドリノベーション,0
1902,7040005021386,新規,0,2021-10-18,2021-10-18,医療法人社団令明会,,その他の設立登記法人,千葉県,柏市,末広町４番１号神崎ビル５階,,12,217,2770842,,,,,,,2021-10-18,1,,,,,レイメイカイ,0
1913,7080003002665,新規,0,2021-10-18,2021-10-18,フクシホシザキ合同会社,,合同会社,静岡県,藤枝市,南清里５番地の１３,,22,214,4260224,,,,,,,2021-10-18,1,,,,,フクシホシザキ,0
1943,7120001241236,新規,0,2021-10-18,2021-10-18,株式会社ＲＩＯ　ＰＲＯＰＥＲＴＹ,,株式会社,大阪府,大阪市天王寺区,清水谷町４番６号,,27,109,5430011,,,,,,,2021-10-18,1,,,,,リオプロパティ,0
1944,7120001241252,新規,0,2021-10-18,2021-10-18,株式会社Ｓｅｒａｈ,,株式会社,大阪府,大阪市中央区,瓦屋町２丁目１２番３号,,27,128,5420066,,,,,,,2021-10-18,1,,,,,セラ,0
1945,7120001241269,新規,0,2021-10-18,2021-10-18,フラワーフェロー株式会社,,株式会社,大阪府,大阪市北区,本庄西１丁目２－１４－３０２,,27,127,5310073,,,,,,,2021-10-18,1,,,,,フラワーフェロー,0
1952,7120103004400,新規,0,2021-10-18,2021-10-18,合同会社Ｐｒｏトナ,,合同会社,大阪府,富田林市,楠風台１丁目４番１０号,,27,214,5840051,,,,,,,2021-10-18,1,,,,,プロトナ,0
1955,7122003002194,新規,0,2021-10-18,2021-10-18,合同会社睦會,,合同会社,大阪府,東大阪市,高井田元町２丁目２３番２６号,,27,227,5770054,,,,,,,2021-10-18,1,,,,,ムツミカイ,0
1957,7130001070345,新規,0,2021-10-18,2021-10-18,株式会社石吉,00124590,株式会社,京都府,京都市北区,紫野下築山町７１番地,,26,101,6038222,,,,,,,2021-10-18,1,,,,,イシヨシ,0
1978,7140003016881,新規,0,2021-10-18,2021-10-18,合同会社ＫＮＮＫ,,合同会社,兵庫県,明石市,東野町２０９８番地３０２号,,28,203,6730844,,,,,,,2021-10-18,1,,,,,ケーエヌエヌケー,0
1993,7180301035522,新規,0,2021-10-18,2021-10-18,株式会社ＳＨＯＺＡＮ,,株式会社,愛知県,豊川市,御油町青戸５番地の１４,,23,207,4410211,,,,,,,2021-10-18,1,,,,,ショウザン,0
1994,7190001028775,新規,0,2021-10-18,2021-10-18,株式会社Ｏａｓｉｓ,,株式会社,三重県,松阪市,美濃田町１０４７番地１,,24,204,5152344,,,,,,,2021-10-18,1,,,,,オアシス,0
1998,7200001039309,新規,0,2021-10-18,2021-10-18,インテリア翔伸株式会社,,株式会社,岐阜県,本巣市,上真桑１７３９番地３,,21,218,5010461,,,,,,,2021-10-18,1,,,,,インテリアショウシン,0
2011,7240001058767,新規,0,2021-10-18,2021-10-18,株式会社オートノマス,,株式会社,広島県,広島市中区,橋本町９番７号,,34,101,7300015,,,,,,,2021-10-18,1,,,,,オートノマス,0
2017,7260001036102,新規,0,2021-10-18,2021-10-18,日森商事株式会社,,株式会社,岡山県,岡山市南区,郡２９８２番地２,,33,104,7028011,,,,,,,2021-10-18,1,,,,,ヒモリショウジ,0
2024,7290001095054,新規,0,2021-10-18,2021-10-18,株式会社エイト,,株式会社,福岡県,福岡市城南区,樋井川６丁目１番３０号２階,,40,136,8140153,,,,,,,2021-10-18,1,,,,,エイト,0
2036,7340001024180,新規,0,2021-10-18,2021-10-18,株式会社Ｓ,,株式会社,鹿児島県,鹿児島市,大明丘２丁目２３番１７号,,46,201,8920872,,,,,,,2021-10-18,1,,,,,エス,0
2040,7350001017365,新規,0,2021-10-18,2021-10-18,株式会社ハブァナイスデイ,,株式会社,宮崎県,宮崎市,月見ケ丘１丁目２０－６,,45,201,8800926,,,,,,,2021-10-18,1,,,,,ハブァナイスデイ,0
2056,7380001032270,新規,0,2021-10-18,2021-10-18,日本バイソン車輌株式会社,,株式会社,福島県,喜多方市,豊川町高堂太字堂畑１３１９番地,,07,208,9660911,,,,,,,2021-10-18,1,,,,,ニホンバイソンシャリョウ,0
2066,7430001085189,新規,0,2021-10-18,2021-10-18,株式会社Ｍコンサル,,株式会社,北海道,札幌市中央区,北十四条西１５丁目７－２０,,01,101,0600014,,,,,,,2021-10-18,1,,,,,エムコンサル,0
2067,7430001085197,新規,0,2021-10-18,2021-10-18,株式会社ＧｎＳ,,株式会社,北海道,札幌市中央区,宮の森二条１７丁目１２番７号,,01,101,0640952,,,,,,,2021-10-18,1,,,,,ジーアンドエス,0
2073,7450001013511,新規,0,2021-10-18,2021-10-18,株式会社旭川不動産管理,,株式会社,北海道,旭川市,東光三条４丁目１番２号,,01,204,0788343,,,,,,,2021-10-18,1,,,,,アサヒカワフドウサンカンリ,0
2093,8010001221818,新規,0,2021-10-18,2021-10-18,株式会社ｒｔｃ,,株式会社,東京都,中央区,新川１丁目３番２１号,,13,102,1040033,,,,,,,2021-10-18,1,,,,,アールティーシー,0
2094,8010001221850,新規,0,2021-10-18,2021-10-18,Ａ．Ｗ株式会社,,株式会社,東京都,中央区,銀座４丁目１０番１４号ＡＣＮ銀座４ビルディング９階,,13,102,1040061,,,,,,,2021-10-18,1,,,,,エーダブリュー,0
2095,8010001221867,新規,0,2021-10-18,2021-10-18,新豊投信株式会社,,株式会社,東京都,千代田区,丸の内２丁目２番１号岸本ビルヂング６Ｆ,,13,101,1000005,,,,,,,2021-10-18,1,,,,,シントヨトウシン,0
2096,8010001221900,新規,0,2021-10-18,2021-10-18,シー・シックス・ワン・ホールディングス株式会社,,株式会社,東京都,千代田区,丸の内１丁目２番１号,,13,101,1000005,,,,,,,2021-10-18,1,,,,,シーシックスワンホールディングス,0
2100,8010005034092,新規,0,2021-10-18,2021-10-18,シーエムワン一般社団法人,,その他の設立登記法人,東京都,千代田区,神田神保町１丁目１１番地さくら綜合事務所内,,13,101,1010051,,,,,,,2021-10-18,1,,,,,シーエムワン,0
2101,8010101014907,新規,0,2021-10-18,2021-10-18,株式会社Ｍｅｎｔａｌｌｙ,,株式会社,東京都,八王子市,東中野１４５８番地３,,13,201,1920351,,,,,,,2021-10-18,1,,,,,メンタリー,0
2108,8010401163214,新規,0,2021-10-18,2021-10-18,株式会社他力本願寺,,株式会社,東京都,港区,赤坂２丁目１４番７号津やま内,,13,103,1070052,,,,,,,2021-10-18,1,,,,,タリキホンガンジ,0
2109,8010403026294,新規,0,2021-10-18,2021-10-18,合同会社ＴＥＮ,,合同会社,東京都,港区,高輪３丁目２３－１７品川センタービルディング３階,,13,103,1080074,,,,,,,2021-10-18,1,,,,,テン,0
2110,8010403026328,新規,0,2021-10-18,2021-10-18,ＩＤＳ４号合同会社,,合同会社,東京都,港区,虎ノ門１丁目１番１２号１０Ｆ,,13,103,1050001,,,,,,,2021-10-18,1,,,,,アイディーエスヨンゴウ,0
2111,8010403026344,新規,0,2021-10-18,2021-10-18,ＳＳ光３２合同会社,,合同会社,東京都,港区,芝公園１丁目３番１号留園ビル６階,,13,103,1050011,,,,,,,2021-10-18,1,,,,,エスエスヒカリサーティトゥ,0
2122,8010901049648,新規,0,2021-10-18,2021-10-18,株式会社モク・ホロ,,株式会社,東京都,世田谷区,北烏山３丁目１７番９号ソレアードまつば５０３,,13,112,1570061,,,,,,,2021-10-18,1,,,,,モクホロ,0
2128,8011001143481,新規,0,2021-10-18,2021-10-18,ＢＬＵＥ　ＢＡＴＯＮ株式会社,,株式会社,東京都,渋谷区,恵比寿１丁目２１番１８号,,13,113,1500013,,,,,,,2021-10-18,1,,,,,ブルーバトン,0
2129,8011001143498,新規,0,2021-10-18,2021-10-18,株式会社Ｇｕｎｏｓｙ　Ｃａｐｉｔａｌ,,株式会社,東京都,渋谷区,渋谷２丁目２４番１２号,,13,113,1500002,,,,,,,2021-10-18,1,,,,,グノシーキャピタル,0
2134,8011101096605,新規,0,2021-10-18,2021-10-18,株式会社ＤＥＯケア,,株式会社,東京都,新宿区,百人町１丁目１０番１２号,,13,104,1690073,,,,,,,2021-10-18,1,,,,,ディーイーオーケア,0
2138,8011201023335,新規,0,2021-10-18,2021-10-18,Ａｋｕｓｕ株式会社,,株式会社,東京都,中野区,丸山２丁目１９番２２号,,13,114,1650021,,,,,,,2021-10-18,1,,,,,アクス,0
2139,8011201023343,新規,0,2021-10-18,2021-10-18,株式会社トリクロ,,株式会社,東京都,中野区,弥生町２丁目２３番７号１０２,,13,114,1640013,,,,,,,2021-10-18,1,,,,,トリクロ,0
2140,8011203003665,新規,0,2021-10-18,2021-10-18,合同会社ＣＯＳＭＯＬＵＣＩＤＡ,,合同会社,東京都,中野区,東中野５丁目１番１－１７０６号,,13,114,1640003,,,,,,,2021-10-18,1,,,,,コスモルシダ,0
2142,8011301027252,新規,0,2021-10-18,2021-10-18,株式会社Ｆｅｌｉｃｅ,,株式会社,東京都,杉並区,和田１丁目３９番３－７０１号,,13,115,1660012,,,,,,,2021-10-18,1,,,,,フェリーチェ,0
2143,8011301027269,新規,0,2021-10-18,2021-10-18,株式会社ＦＡＲｅＴ,,株式会社,東京都,杉並区,高円寺南４丁目２２－５高円寺クアトロビル４Ｆ,,13,115,1660003,,,,,,,2021-10-18,1,,,,,ファレット,0
2145,8011601025468,新規,0,2021-10-18,2021-10-18,株式会社ＡＺＵＷＡＮ,,株式会社,東京都,練馬区,石神井町５丁目２０番２０号セイコービル２Ｆ,,13,120,1770041,,,,,,,2021-10-18,1,,,,,アズワン,0
2150,8011801039838,新規,0,2021-10-18,2021-10-18,株式会社ＶｉｉＸｉ,,株式会社,東京都,足立区,竹の塚６丁目２３番１１号,,13,121,1210813,,,,,,,2021-10-18,1,,,,,ヴィクシー,0
2154,8012401038420,新規,0,2021-10-18,2021-10-18,株式会社大翔園,,株式会社,東京都,府中市,若松町４丁目２番地の８サアラ府中４０３,,13,206,1830005,,,,,,,2021-10-18,1,,,,,ダイショウエン,0
2156,8012403005071,新規,0,2021-10-18,2021-10-18,合同会社エブリー,,合同会社,東京都,三鷹市,井口３丁目１１－１２,,13,204,1810011,,,,,,,2021-10-18,1,,,,,エブリー,0
2158,8012801021174,新規,0,2021-10-18,2021-10-18,クイックテック日本株式会社,,株式会社,東京都,立川市,柏町３丁目１８番地の５,,13,202,1900004,,,,,,,2021-10-18,1,,,,,クイックテックニホン,0
2174,8020003020671,新規,0,2021-10-18,2021-10-18,合同会社ラッキースター,,合同会社,神奈川県,横浜市青葉区,もえぎ野１８番地３６第２パールハイツ１０３,,14,117,2270044,,,,,,,2021-10-18,1,,,,,ラッキースター,0
2177,8021001074239,新規,0,2021-10-18,2021-10-18,株式会社ＮＵＩＴ　ＢＬＡＮＣＨＥ,,株式会社,神奈川県,三浦郡葉山町,一色７１番地の１９,,14,301,2400111,,,,,,,2021-10-18,1,,,,,ニュイブランシュ,0
2180,8021003010992,新規,0,2021-10-18,2021-10-18,合同会社ｆｏｒｇａ,,合同会社,神奈川県,小田原市,浜町２丁目１０番２０号,,14,206,2500004,,,,,,,2021-10-18,1,,,,,フォルガ,0
2193,8030001144868,新規,0,2021-10-18,2021-10-18,株式会社テル,,株式会社,埼玉県,和光市,下新倉５丁目１１番３７号,,11,229,3510111,,,,,,,2021-10-18,1,,,,,テル,0
2208,8030003018137,新規,0,2021-10-18,2021-10-18,Ｓｏｌ工房合同会社,,合同会社,埼玉県,川口市,川口６丁目４番２８号２０７号室,,11,203,3320015,,,,,,,2021-10-18,1,,,,,ソルコウボウ,0
2209,8030003018145,新規,0,2021-10-18,2021-10-18,もがりの森合同会社,,合同会社,埼玉県,幸手市,南３丁目１４番１４号,,11,240,3400156,,,,,,,2021-10-18,1,,,,,モガリノモリ,0
2210,8030005020553,新規,0,2021-10-18,2021-10-18,特定非営利活動法人フードバンクいるま,,その他の設立登記法人,埼玉県,入間市,狭山台４丁目２０番地１,,11,225,3580033,,,,,,,2021-10-18,1,,,,,フードバンクイルマ,0
2214,8040001120661,新規,0,2021-10-18,2021-10-18,トリイ室内工事株式会社,,株式会社,千葉県,千葉市緑区,おゆみ野中央４丁目１９番地１２,,12,105,2660032,,,,,,,2021-10-18,1,,,,,トリイシツナイコウジ,0
2219,8040003018730,新規,0,2021-10-18,2021-10-18,ＷＥ　ＨＯＭＥ合同会社,,合同会社,千葉県,市川市,鬼高２丁目１０－２,,12,203,2720015,,,,,,,2021-10-18,1,,,,,ウィーホーム,0
2220,8040003018771,新規,0,2021-10-18,2021-10-18,合同会社ＰＡＳＩＮＤＵ　ＩＮＴＥＲＮＡＴＩＯＮＡＬ,,合同会社,千葉県,山武市,大木７０３番地２,,12,237,2891211,,,,,,,2021-10-18,1,,,,,パシンドゥインターナショナル,0
2223,8050001049999,新規,0,2021-10-18,2021-10-18,株式会社ＲＥＶＩＶＡＬ,,株式会社,茨城県,つくば市,妻木６００番地６,,08,220,3050028,,,,,,,2021-10-18,1,,,,,リバイバル,0
2232,8070001038546,新規,0,2021-10-18,2021-10-18,関東投資株式会社,,株式会社,群馬県,邑楽郡大泉町,坂田５丁目３－５,,10,524,3700532,,,,,,,2021-10-18,1,,,,,カントウトウシ,0
2235,8080001024512,新規,0,2021-10-18,2021-10-18,もみかるライフツリー株式会社,,株式会社,静岡県,静岡市駿河区,西脇１１番地の１・２階,,22,102,4228044,,,,,,,2021-10-18,1,,,,,モミカルライフツリー,0
2236,8080005007406,新規,0,2021-10-18,2021-10-18,一般社団法人地域創造コンソーシアム,,その他の設立登記法人,静岡県,静岡市葵区,紺屋町１７番地１号葵タワー１階,,22,101,4200852,,,,,,,2021-10-18,1,,,,,チイキソウゾウコンソーシアム,0
2241,8080401025424,新規,0,2021-10-18,2021-10-18,株式会社ＣＡＮＡＥＬ,,株式会社,静岡県,浜松市浜北区,染地台６丁目１０番１２号,,22,136,4340046,,,,,,,2021-10-18,1,,,,,カナエル,0
2245,8110001036124,新規,0,2021-10-18,2021-10-18,株式会社ＧＳ改良,,株式会社,新潟県,新潟市秋葉区,矢代田１７２７番地１,,15,105,9560113,,,,,,,2021-10-18,1,,,,,ジーエスカイリョウ,0
2255,8120001241235,新規,0,2021-10-18,2021-10-18,株式会社ＲＥＩＡ　ＰＲＯＰＥＲＴＹ,,株式会社,大阪府,大阪市天王寺区,清水谷町４番６号,,27,109,5430011,,,,,,,2021-10-18,1,,,,,レイアプロパティ,0
2256,8120001241251,新規,0,2021-10-18,2021-10-18,大勝株式会社,,株式会社,大阪府,大阪市淀川区,木川西４丁目２－４１グランレムズ新大阪３０２室,,27,123,5320013,,,,,,,2021-10-18,1,,,,,ダイショウ,0
2264,8120103004399,新規,0,2021-10-18,2021-10-18,合同会社ＮＯＡ,,合同会社,大阪府,堺市西区,上野芝町１丁２４番３２号,,27,144,5938301,,,,,,,2021-10-18,1,,,,,ノア,0
2271,8122001035278,新規,0,2021-10-18,2021-10-18,株式会社緑園,,株式会社,大阪府,東大阪市,立花町６番１９号,,27,227,5798023,,,,,,,2021-10-18,1,,,,,リョクエン,0
2281,8130001070336,新規,0,2021-10-18,2021-10-18,株式会社シムラン,,株式会社,京都府,京都市伏見区,向島丸町４番地７向島市営住宅８－３棟７１２号,,26,109,6128131,,,,,,,2021-10-18,1,,,,,シムラン,0
2282,8130001070344,新規,0,2021-10-18,2021-10-18,株式会社ＣＬＯＶＥＲ　ＮＥＯ,,株式会社,京都府,京都市山科区,小山鎮守町２１ナカジマビル１Ｆ－６,,26,110,6078116,,,,,,,2021-10-18,1,,,,,クローバーネオ,0
2283,8130001070352,新規,0,2021-10-18,2021-10-18,株式会社ｏｔｃｈ,,株式会社,京都府,宇治市,伊勢田町南遊田６番地の２１,,26,204,6110043,,,,,,,2021-10-18,1,,,,,オッチ,0
2286,8130003007550,新規,0,2021-10-18,2021-10-18,雅合同会社,,合同会社,京都府,京都市伏見区,桃山町正宗２６番地の２８,,26,109,6120856,,,,,,,2021-10-18,1,,,,,ミヤビ,0
2293,8140001123456,新規,0,2021-10-18,2021-10-18,新開大建設株式会社,,株式会社,兵庫県,姫路市,大津区天満３９９番地１,,28,201,6711143,,,,,,,2021-10-18,1,,,,,シンカイダイケンセツ,0
2294,8140001123497,新規,0,2021-10-18,2021-10-18,エースター観光株式会社,,株式会社,兵庫県,美方郡香美町,村岡区入江１１５７番地１,,28,585,6671368,,,,,,,2021-10-18,1,,,,,エースターカンコウ,0
2297,8140003016864,新規,0,2021-10-18,2021-10-18,合同会社一順,,合同会社,兵庫県,神戸市東灘区,本庄町１丁目５－１７,,28,101,6580012,,,,,,,2021-10-18,1,,,,,イヨリ,0
2298,8140005025855,新規,0,2021-10-18,2021-10-18,一般財団法人心笑夢,,その他の設立登記法人,兵庫県,伊丹市,梅ノ木５丁目６番１号,,28,207,6640856,,,,,,,2021-10-18,1,,,,,ココロエム,0
2304,8150001025032,新規,0,2021-10-18,2021-10-18,株式会社ワンステージ,,株式会社,奈良県,橿原市,内膳町１丁目２番１４号八木ビル２Ｆ,,29,205,6340804,,,,,,,2021-10-18,1,,,,,ワンステージ,0
2312,8180001148318,新規,0,2021-10-18,2021-10-18,株式会社Ｂｒａｎｄｅａ,,株式会社,愛知県,春日井市,ことぶき町１７７番地,,23,206,4860831,,,,,,,2021-10-18,1,,,,,ブランディア,0
2313,8180001148359,新規,0,2021-10-18,2021-10-18,株式会社イオンスター,,株式会社,愛知県,名古屋市千種区,堀割町２丁目６番地,,23,101,4640065,,,,,,,2021-10-18,1,,,,,イオンスター,0
2315,8180003023097,新規,0,2021-10-18,2021-10-18,ヘリオス合同会社,,合同会社,愛知県,名古屋市西区,則武新町１丁目３－２５,,23,104,4510051,,,,,,,2021-10-18,1,,,,,ヘリオス,0
2322,8180301035521,新規,0,2021-10-18,2021-10-18,権田ファーム株式会社,,株式会社,愛知県,新城市,作手田原字井戸入２９番地１,,23,221,4411422,,,,,,,2021-10-18,1,,,,,ゴンダファーム,0
2325,8190001028782,新規,0,2021-10-18,2021-10-18,ｎｅｏ　ｂａｓｉｃ株式会社,,株式会社,三重県,鈴鹿市,住吉町７２６５番地１７,,24,207,5130825,,,,,,,2021-10-18,1,,,,,ネオベーシック,0
2336,8260001036101,新規,0,2021-10-18,2021-10-18,株式会社ニューフロンティア,,株式会社,岡山県,岡山市北区,清輝橋１丁目７－１０,,33,101,7000861,,,,,,,2021-10-18,1,,,,,ニューフロンティア,0
2347,8290001095053,新規,0,2021-10-18,2021-10-18,株式会社レア興産,,株式会社,福岡県,福岡市博多区,博多駅前４丁目１６番６号オフィスニューガイア博多駅前Ｎｏ．５０－４１０号室,,40,132,8120011,,,,,,,2021-10-18,1,,,,,レアコウサン,0
2348,8290001095061,新規,0,2021-10-18,2021-10-18,株式会社ａｌｐｈａ‐Ａｇｉｎｇ　Ｂｉｏ,,株式会社,福岡県,久留米市,百年公園１番１号,,40,203,8390864,,,,,,,2021-10-18,1,,,,,アルファエイジングバイオ,0
2350,8290003011702,新規,0,2021-10-18,2021-10-18,合同会社ハッピーライフケアサポート,,合同会社,福岡県,福岡市早良区,野芥３丁目１６－１８－２,,40,137,8140171,,,,,,,2021-10-18,1,,,,,ハッピーライフケアサポート,0
2355,8330001029072,新規,0,2021-10-18,2021-10-18,株式会社ＥＩＢＡＮ,,株式会社,熊本県,熊本市北区,麻生田５丁目２９番１３号,,43,105,8618081,,,,,,,2021-10-18,1,,,,,エイバン,0
2357,8330003009089,新規,0,2021-10-18,2021-10-18,合同会社ＣＳＳ　Ｃｒｅａｔｉｖｅ,,合同会社,熊本県,菊池郡菊陽町,杉並台２丁目６－１タウンフォートＩＩＧ棟１０３号,00124587,43,404,8691110,,,,,,,2021-10-18,1,,,,,シーエスエスクリエイティブ,0
2363,8350003003949,新規,0,2021-10-18,2021-10-18,合同会社オリーブ住宅,,合同会社,宮崎県,小林市,堤３０４０番地３,,45,205,8860003,,,,,,,2021-10-18,1,,,,,オリーブジュウタク,0
2367,8380001032278,新規,0,2021-10-18,2021-10-18,スズキ美創株式会社,,株式会社,福島県,会津若松市,門田町大字年貢町字大道東４０８番地の１３,,07,202,9650834,,,,,,,2021-10-18,1,,,,,スズキビソウ,0
2371,8390005008918,新規,0,2021-10-18,2021-10-18,光明院,,その他の設立登記法人,山形県,西村山郡大江町,大字左沢１５９番地,,06,324,9901101,,,,,,,2021-10-18,1,,,,,コウミョウイン,0
2377,8430001085196,新規,0,2021-10-18,2021-10-18,梁を上げよ株式会社,,株式会社,北海道,札幌市豊平区,豊平四条２丁目１番２０号,,01,105,0620904,,,,,,,2021-10-18,1,,,,,ハリヲアゲヨ,0
2380,8430003013246,新規,0,2021-10-18,2021-10-18,ＬｉｆｅＣｈａｎｇｅ合同会社,,合同会社,北海道,札幌市北区,屯田六条８丁目６番２９号,,01,102,0020856,,,,,,,2021-10-18,1,,,,,ライフチェンジ,0
2381,8430003013262,新規,0,2021-10-18,2021-10-18,合同会社福祉未来バンク,,合同会社,北海道,夕張郡栗山町,中央３丁目３７番地１,,01,429,0691511,,,,,,,2021-10-18,1,,,,,フクシミライバンク,0
2383,8430005014317,新規,0,2021-10-18,2021-10-18,一般社団法人みなぱ,,その他の設立登記法人,北海道,札幌市北区,北二十八条西５丁目１番２６号,,01,102,0010028,,,,,,,2021-10-18,1,,,,,ミナパ,0
2391,8500001023743,新規,0,2021-10-18,2021-10-18,株式会社団栗,,株式会社,愛媛県,松山市,北斎院町１０９０番地３,,38,201,7918031,,,,,,,2021-10-18,1,,,,,,0
2413,9010001221841,新規,0,2021-10-18,2021-10-18,株式会社Ｈａｒｎｏｗ,,株式会社,東京都,中央区,銀座８丁目１８番３号銀座加藤ビル２階,,13,102,1040061,,,,,,,2021-10-18,1,,,,,ハーナウ,0
2414,9010001221866,新規,0,2021-10-18,2021-10-18,株式会社ポスティングネット,,株式会社,東京都,中央区,日本橋馬喰町１丁目３番８号,,13,102,1030002,,,,,,,2021-10-18,1,,,,,ポスティングネット,0
2415,9010001221908,新規,0,2021-10-18,2021-10-18,株式会社Ｓｐｏｔｗｒｉｔｅ,,株式会社,東京都,中央区,晴海３丁目１３－１ＤＥＵＸ・ＴＯＵＲＳ・ＥＡＳＴ・ＴＯＷＥＲ４６２０,,13,102,1040053,,,,,,,2021-10-18,1,,,,,スポットライト,0
2422,9010003036040,新規,0,2021-10-18,2021-10-18,合同会社ＬＢＩファンド,,合同会社,東京都,千代田区,内幸町２丁目２番３号日比谷国際ビル７階,,13,101,1000011,,,,,,,2021-10-18,1,,,,,エルビーアイファンド,0
2424,9010005034100,新規,0,2021-10-18,2021-10-18,一般社団法人エステック戸畑,,その他の設立登記法人,東京都,中央区,八重洲２丁目４番６号,,13,102,1040028,,,,,,,2021-10-18,1,,,,,エステックトバタ,0
2434,9010403026343,新規,0,2021-10-18,2021-10-18,ＳＳ光３１合同会社,,合同会社,東京都,港区,芝公園１丁目３番１号留園ビル６階,,13,103,1050011,,,,,,,2021-10-18,1,,,,,エスエスヒカリサーティワン,0
2437,9010501047992,新規,0,2021-10-18,2021-10-18,Ｍｏｏｎ株式会社,,株式会社,東京都,台東区,東上野３丁目３６番１０号,,13,106,1100015,,,,,,,2021-10-18,1,,,,,ムーン,0
2440,9010601060103,新規,0,2021-10-18,2021-10-18,株式会社健装,,株式会社,東京都,墨田区,錦糸４丁目３番６号,,13,107,1300013,,,,,,,2021-10-18,1,,,,,ケンソウ,0
2450,9011001142879,新規,0,2021-10-18,2021-10-18,株式会社Ｚ世代,,株式会社,東京都,目黒区,目黒１丁目１０－８アージュドール目黒１０２,,13,110,1530063,,,,,,,2021-10-18,1,,,,,ゼットセダイ,0
2451,9011001143126,新規,0,2021-10-18,2021-10-18,株式会社Ｔ’ｓ　Ｗａｙ,,株式会社,東京都,渋谷区,千駄ヶ谷１丁目２０番３号,,13,113,1510051,,,,,,,2021-10-18,1,,,,,ティーズウェイ,0
2452,9011001143472,新規,0,2021-10-18,2021-10-18,カラフ株式会社,,株式会社,東京都,渋谷区,松濤１丁目２８－２,,13,113,1500046,,,,,,,2021-10-18,1,,,,,カラフ,0
2453,9011001143480,新規,0,2021-10-18,2021-10-18,株式会社サンロック,,株式会社,東京都,目黒区,上目黒４丁目１７番２７号,,13,110,1530051,,,,,,,2021-10-18,1,,,,,サンロック,0
2454,9011001143489,新規,0,2021-10-18,2021-10-18,株式会社ラトリエ・デ・ラ・ベルエポック,,株式会社,東京都,渋谷区,神宮前２丁目３１番１号クーラクー原宿２０３,,13,113,1500001,,,,,,,2021-10-18,1,,,,,ラトリエデラベルエポック,0
2455,9011001143555,新規,0,2021-10-18,2021-10-18,株式会社ＲＳＫ,,株式会社,東京都,渋谷区,松濤１丁目２５番６号,,13,113,1500046,,,,,,,2021-10-18,1,,,,,アールエスケー,0
2456,9011003013574,新規,0,2021-10-18,2021-10-18,合同会社ＢＥＮＤ　ＷＨＥＥＬ,,合同会社,東京都,渋谷区,代々木１丁目５８番２号,,13,113,1510053,,,,,,,2021-10-18,1,,,,,ベンドホイール,0
2463,9011203003664,新規,0,2021-10-18,2021-10-18,合同会社ｔｒｙ－Ａｃｅ,,合同会社,東京都,中野区,上高田３丁目４０－６もはんビル２階,,13,114,1640002,,,,,,,2021-10-18,1,,,,,トライエース,0
2468,9011301027268,新規,0,2021-10-18,2021-10-18,株式会社ＡＷＢ,,株式会社,東京都,杉並区,荻窪１丁目５７番１４号荒川方２Ｆ,,13,115,1670051,,,,,,,2021-10-18,1,,,,,オーブ,0
2489,9013301048161,新規,0,2021-10-18,2021-10-18,株式会社フォーチュン,,株式会社,東京都,豊島区,東池袋１丁目４７番２号６０２号,,13,116,1700013,,,,,,,2021-10-18,1,,,,,フォーチュン,0
2499,9021001074188,新規,0,2021-10-18,2021-10-18,Ｎｅｈａｎ株式会社,,株式会社,神奈川県,相模原市南区,南台１丁目１０番地６－３号,,14,153,2520314,,,,,,,2021-10-18,1,,,,,ネハン,0
2514,9030001144850,新規,0,2021-10-18,2021-10-18,株式会社ビッグボス,,株式会社,埼玉県,狭山市,大字堀兼７４５番地の６,,11,215,3501312,,,,,,,2021-10-18,1,,,,,ビッグボス,0
2515,9030001144867,新規,0,2021-10-18,2021-10-18,ライズ電設株式会社,,株式会社,埼玉県,志木市,上宗岡３丁目２１番１２号,,11,228,3530001,,,,,,,2021-10-18,1,,,,,ライズデンセツ,0
2516,9030001144883,新規,0,2021-10-18,2021-10-18,株式会社武州コーポレーション,,株式会社,埼玉県,深谷市,山河７６３番地１,,11,218,3690217,,,,,,,2021-10-18,1,,,,,ブシュウコーポレーション,0
2522,9030003018144,新規,0,2021-10-18,2021-10-18,辰興設備合同会社,,合同会社,埼玉県,川口市,西青木３丁目３－１３スカイコート西川口第２－１００５,,11,203,3320035,,,,,,,2021-10-18,1,,,,,シンコウセツビ,0
2524,9030005020560,新規,0,2021-10-18,2021-10-18,司法書士法人ＫＴＧ,,その他の設立登記法人,埼玉県,さいたま市浦和区,東仲町１１番１号ステラ浦和４階,,11,107,3300056,,,,,,,2021-10-18,1,,,,,ケイティージー,0
2525,9030005020577,新規,0,2021-10-18,2021-10-18,医療法人社団斗花会,,その他の設立登記法人,埼玉県,桶川市,大字下日出谷９５４番地５,,11,231,3630025,,,,,,,2021-10-18,1,,,,,トハナカイ,0
2529,9040001120652,新規,0,2021-10-18,2021-10-18,株式会社ＴＴ　Ｉｎｔｅｒｎａｔｉｏｎａｌ,,株式会社,千葉県,松戸市,殿平賀２１２番地の１トーカンマンション北小金１０７号,,12,207,2700004,,,,,,,2021-10-18,1,,,,,ティティインターナショナル,0
2530,9040001120660,新規,0,2021-10-18,2021-10-18,インタープレイ株式会社,,株式会社,千葉県,千葉市中央区,本町２丁目１－１６千葉本町第一生命ビル４ＦＣ,,12,101,2600012,,,,,,,2021-10-18,1,,,,,インタープレイ,0
2532,9040003018770,新規,0,2021-10-18,2021-10-18,合同会社ＣＬ－Ｓｔｙｌｅ,,合同会社,千葉県,市川市,柏井町４丁目５１３番地４０,,12,203,2720802,,,,,,,2021-10-18,1,,,,,シーエルスタイル,0
2533,9040005021384,新規,0,2021-10-18,2021-10-18,アイグリット税理士法人,,その他の設立登記法人,千葉県,柏市,柏５丁目１番１１号ゼネラルビル柏３Ｂ号室,,12,217,2770005,,,,,,,2021-10-18,1,,,,,アイグリット,0
2534,9050001049998,新規,0,2021-10-18,2021-10-18,株式会社ＷＡＨＡＢ　ＩＮＴＥＲＮＡＴＩＯＮＡＬ,,株式会社,茨城県,筑西市,黒子１５１番地２,,08,227,3080102,,,,,,,2021-10-18,1,,,,,ワハブインターナショナル,0
2541,9080101022852,新規,0,2021-10-18,2021-10-18,株式会社オールコネクト,,株式会社,静岡県,伊東市,大原１丁目１番２２号,,22,208,4140046,,,,,,,2021-10-18,1,,,,,オールコネクト,0
2548,9100005012781,新規,0,2021-10-18,2021-10-18,医療法人ｉＤＣ,,その他の設立登記法人,長野県,松本市,大字島内４１５５番地１,,20,202,3900851,,,,,,,2021-10-18,1,,,,,アイディーシー,0
2564,9120001241234,新規,0,2021-10-18,2021-10-18,株式会社ＲＥＭＩ　ＰＲＯＰＥＲＴＹ,,株式会社,大阪府,大阪市天王寺区,清水谷町４番６号,,27,109,5430011,,,,,,,2021-10-18,1,,,,,レミプロパティ,0
2565,9120001241267,新規,0,2021-10-18,2021-10-18,株式会社ＥＬＩＳＡ,,株式会社,大阪府,大阪市浪速区,日本橋５丁目１４番１４－５０５号,,27,111,5560005,,,,,,,2021-10-18,1,,,,,エリザ,0
2568,9120003020438,新規,0,2021-10-18,2021-10-18,合同会社幸綜合研究所,,合同会社,大阪府,門真市,御堂町１０番１２－３Ｄ号,,27,223,5710064,,,,,,,2021-10-18,1,,,,,コウソウゴウケンキュウジョ,0
2574,9130001070351,新規,0,2021-10-18,2021-10-18,株式会社Ｍｅｎｏｎ　Ｎｅｔｗｏｒｋ,,株式会社,京都府,京都市上京区,中立売通堀川東入東橋詰町６４番地キャピタルコータス堀川地下１階,,26,102,6028066,,,,,,,2021-10-18,1,,,,,メノンネットワーク,0
2576,9140001123471,新規,0,2021-10-18,2021-10-18,乾隆工業株式会社,,株式会社,兵庫県,姫路市,亀山２丁目８４番地,,28,201,6700973,,,,,,,2021-10-18,1,,,,,ケンリュウコウギョウ,0
2591,9180301035520,新規,0,2021-10-18,2021-10-18,中坪電気株式会社,,株式会社,愛知県,高浜市,屋敷町３丁目５番地１７,,23,227,4441331,,,,,,,2021-10-18,1,,,,,ナカツボデンキ,0
2603,9240001058765,新規,0,2021-10-18,2021-10-18,株式会社サクセス,,株式会社,広島県,福山市,神辺町字上御領４０２番地,,34,207,7202111,,,,,,,2021-10-18,1,,,,,サクセス,0
2607,9260001036100,新規,0,2021-10-18,2021-10-18,木村家株式会社,,株式会社,岡山県,倉敷市,真備町辻田１０６番地,00124588,33,202,7101312,,,,,,,2021-10-18,1,,,,,キムラヤ,0
2613,9290001095003,新規,0,2021-10-18,2021-10-18,株式会社Ｈｅａｒｔ　ｆｕｌｌ　Ｓｕｐｐｏｒｔ,,株式会社,福岡県,糟屋郡新宮町,夜臼５丁目１２番１－３０９号,,40,345,8110110,,,,,,,2021-10-18,1,,,,,ハートフルサポート,0
2614,9290001095052,新規,0,2021-10-18,2021-10-18,株式会社和会計,,株式会社,福岡県,福岡市中央区,桜坂３丁目５番５４－１７１７号,,40,133,8100024,,,,,,,2021-10-18,1,,,,,ナゴミカイケイ,0
2621,9300001012666,新規,0,2021-10-18,2021-10-18,株式会社Ｏｃｔｏ　Ｅｉｇｈｔ,,株式会社,佐賀県,西松浦郡有田町,本町丙１５３０番地５,,41,401,8440018,,,,,,,2021-10-18,1,,,,,オクトエイト,0
2623,9320001018678,新規,0,2021-10-18,2021-10-18,株式会社心結,,株式会社,大分県,大分市,大字種具７９番１,,44,201,8700274,,,,,,,2021-10-18,1,,,,,ミユ,0
2654,9430001085170,新規,0,2021-10-18,2021-10-18,株式会社アロー,,株式会社,北海道,札幌市白石区,北郷四条３丁目３番５－７０６号,,01,104,0030834,,,,,,,2021-10-18,1,,,,,アロー,0
2655,9430001085187,新規,0,2021-10-18,2021-10-18,株式会社アカンサス,,株式会社,北海道,札幌市西区,山の手五条４丁目２番３５号,,01,107,0630005,,,,,,,2021-10-18,1,,,,,アカンサス,0
2659,9430003013237,新規,0,2021-10-18,2021-10-18,合同会社ＬＬＣ,,合同会社,北海道,札幌市中央区,宮の森三条５丁目２番３０号光コーポ１０２,,01,101,0640953,,,,,,,2021-10-18,1,,,,,エルエルシー,0
2660,9430003013261,新規,0,2021-10-18,2021-10-18,合同会社奏栄,,合同会社,北海道,札幌市中央区,円山西町２丁目１１番１９号,,01,101,0640944,,,,,,,2021-10-18,1,,,,,ソウエイ,0
2668,9500001023742,新規,0,2021-10-18,2021-10-18,株式会社ゆりのき,,株式会社,愛媛県,東温市,横河原２９１番地３号,,38,215,7910203,,,,,,,2021-10-18,1,,,,,ユリノキ,0
