sequenceNumber,corporateNumber,process,correct,updateDate,changeDate,name,nameImageId,kind,prefectureName,cityName,streetNumber,addressImageId,prefectureCode,cityCode,postCode,addressOutside,addressOutsideImageId,closeDate,closeCause,successorCorporateNumber,changeCause,assignmentDate,latest,enName,enPrefectureName,enCityName,enAddressOutside,furigana,hihyoji
1,1010001079230,登記記録の閉鎖等,0,2023-12-12,2023-12-07,株式会社アイエスアイディ・フェアネス,,株式会社,東京都,中央区,京橋３丁目３番２号,,13,102,1040031,,,2023-12-07,合併による解散等,7010401053829,令和５年１２月１日東京都港区港南二丁目１７番１号株式会社電通国際情報サービス（7010401053829）に合併し解散,2015-10-05,1,,,,,,0
6,1010001219975,登記記録の閉鎖等,0,2023-12-12,2023-12-06,株式会社ＡＤＤＨ,,株式会社,東京都,台東区,松が谷１丁目１４番１０号Ｒｏｏｍ３２８－５０１号,,13,106,1110036,,,2023-12-06,清算の結了等,,,2021-07-29,1,,,,,エーディーディーエイチ,0
13,1010003027030,登記記録の閉鎖等,0,2023-12-12,2023-12-05,合同会社アルクトス・インベストメント,,合同会社,東京都,港区,虎ノ門３丁目８番２５号５階塚本拓也税理士事務所内,00121185,13,103,1050001,,,2023-12-05,清算の結了等,,,2018-02-26,1,,,,,アルクトスインベストメント,0
29,1010403026078,登記記録の閉鎖等,0,2023-12-12,2023-12-06,ＤＳ　Ｎｉｓｈｉｓｈｉｎｊｕｋｕ合同会社,,合同会社,東京都,港区,虎ノ門５丁目１番４号,,13,103,1050001,,,2023-12-06,清算の結了等,,,2021-09-08,1,,,,,ディーエスニシシンジュク,0
34,1010605001960,登記記録の閉鎖等,0,2023-12-12,2023-11-14,社会福祉法人寿山会,,その他の設立登記法人,東京都,墨田区,両国２丁目５番１３号,,13,107,1300026,,,2023-11-14,合併による解散等,9010905000820,令和５年１１月１日東京都世田谷区駒沢一丁目４番１５号真井ビル社会福祉法人奉優会（9010905000820）に合併し解散,2015-10-05,1,,,,,ジュサンカイ,0
38,1010901012389,登記記録の閉鎖等,0,2023-12-12,2023-12-04,株式会社ユークリッド,,株式会社,東京都,世田谷区,弦巻３丁目１７番２５号,,13,112,1540016,,,2023-12-04,清算の結了等,,,2015-10-05,1,,,,,ユークリッド,0
50,1011005008613,登記記録の閉鎖等,0,2023-12-12,2023-12-08,ＷＡＲＣ　ＬＩＧＨＴ税理士法人,,その他の設立登記法人,東京都,目黒区,目黒１丁目４番１６号目黒Ｇビル５階,,13,110,1530063,,,2023-12-08,清算の結了等,,,2020-06-09,1,,,,,ワークライト,0
69,1013301025969,登記記録の閉鎖等,0,2023-12-12,2023-12-06,株式会社ファーストテンズ,,株式会社,埼玉県,さいたま市見沼区,東大宮５丁目３０番地の１２ファーストビル３Ｆ,,11,104,3370051,,,2023-12-06,合併による解散等,6030001094173,令和５年１２月４日東京都港区赤坂四丁目１３番５号赤坂オフィスハイツ株式会社プロジェクト・ビズ（6030001094173）に合併し解散,2015-10-05,1,,,,,ファーストテンズ,0
76,1013401005466,登記記録の閉鎖等,0,2023-12-12,2023-12-04,株式会社ジーバー,,株式会社,東京都,日野市,三沢４丁目２番地の７高幡芙蓉ハイツ５－５０１,,13,212,1910032,,,2023-12-04,清算の結了等,,,2015-10-05,1,,,,,ジーバー,0
78,1020001077233,登記記録の閉鎖等,0,2023-12-12,2023-12-06,株式会社ビー・イー・シー・マネジメント,,株式会社,神奈川県,川崎市宮前区,神木本町２丁目１５番１５－２１４号コトー溝の口,,14,136,2160031,,,2023-12-06,清算の結了等,,,2015-10-05,1,,,,,ビーイーシーマネジメント,0
84,1021001049271,登記記録の閉鎖等,0,2023-12-12,2023-12-04,マホロー・フーヅ株式会社,,株式会社,神奈川県,三浦市,南下浦町上宮田３１９８番地６コーポハイブリッジ１０２,,14,210,2380101,,,2023-12-04,清算の結了等,,,2015-10-05,1,,,,,マホローフーヅ,0
88,1021002067652,登記記録の閉鎖等,0,2023-12-12,2023-12-06,横須賀メデイカル情報サービス有限会社,,有限会社,神奈川県,横須賀市,小川町２４番地,,14,201,2380004,,,2023-12-06,清算の結了等,,,2015-10-05,1,,,,,ヨコスカメディカルジョウホウサービス,0
94,1030001030190,登記記録の閉鎖等,0,2023-12-12,2023-12-05,Ａｒｔ　ｉｎ　Ｔｏｋｙｏ株式会社,,株式会社,埼玉県,所沢市,西住吉１０番１４号,,11,208,3591126,,,2023-12-05,清算の結了等,,,2015-10-05,1,,,,,アートイントウキョウ,0
101,1030002084756,登記記録の閉鎖等,0,2023-12-12,2023-12-04,有限会社アサコ工芸,,有限会社,埼玉県,越谷市,大字船渡１４３１番地３,,11,222,3430003,,,2023-12-04,清算の結了等,,,2015-10-05,1,,,,,アサココウゲイ,0
123,1060002018570,登記記録の閉鎖等,0,2023-12-12,2023-12-07,有限会社熊谷自動車,,有限会社,栃木県,芳賀郡芳賀町,大字与能１７１番地２,,09,345,3213316,,,2023-12-07,清算の結了等,,,2015-10-05,1,,,,,クマガイジドウシャ,0
127,1070002017893,登記記録の閉鎖等,0,2023-12-12,2023-12-05,有限会社吉田産業,,有限会社,群馬県,藤岡市,森新田２８９番地の５,,10,209,3750006,,,2023-12-05,清算の結了等,,,2015-10-05,1,,,,,ヨシダサンギョウ,0
131,1080002017397,登記記録の閉鎖等,0,2023-12-12,2023-12-05,小花車体工業有限会社,,有限会社,静岡県,藤枝市,志太５丁目３番３０号,,22,214,4260071,,,2023-12-05,清算の結了等,,,2015-10-05,1,,,,,オバナシャタイコウギョウ,0
136,1110005016814,登記記録の閉鎖等,0,2023-12-12,2023-12-07,一般社団法人Ｊａｐａｎ　Ｆｉｎａｎｃｉａｌ　Ｅｄｕｃａｔｉｏｎ　Ａｃａｄｅｍｙ,,その他の設立登記法人,新潟県,新潟市中央区,米山２丁目６番７号ＷｏｒｋＷｉｔｈ米山４－Ｃ,,15,103,9500916,,,2023-12-07,清算の結了等,,,2022-05-31,1,,,,,ジャパンファイナンシャルエデュケーションアカデミー,0
143,1120001160722,登記記録の閉鎖等,0,2023-12-12,2023-12-06,ライドエンジ株式会社,,株式会社,大阪府,大阪市北区,西天満１丁目１０番８号,,27,127,5300047,,,2023-12-06,清算の結了等,,,2015-10-05,1,,,,,ライドエンジ,0
147,1120001193160,登記記録の閉鎖等,0,2023-12-12,2023-12-11,フォーラリス株式会社,,株式会社,大阪府,大阪市中央区,内本町２丁目４番１２号,,27,128,5400026,,,2023-12-11,清算の結了等,,,2015-10-05,1,,,,,フォーラリス,0
160,1120101045039,商号の登記の抹消,0,2023-12-12,2023-11-28,株式会社あずき,,株式会社,大阪府,泉大津市,臨海町２丁目２番地,,27,206,5950075,,,,,,,2015-10-05,1,,,,,アズキ,0
167,1120902010645,登記記録の閉鎖等,0,2023-12-12,2023-12-08,有限会社太陽空圧,,有限会社,大阪府,高槻市,城南町１丁目１１番７号,,27,207,5690056,,,2023-12-08,清算の結了等,,,2015-10-05,1,,,,,タイヨウクウアツ,0
169,1130001004655,登記記録の閉鎖等,0,2023-12-12,2023-12-07,株式会社エー・フォー・シー,,株式会社,京都府,京都市左京区,岩倉木野町３３０番地,,26,103,6060016,,,2023-12-07,清算の結了等,,,2015-10-05,1,,,,,エーフォーシー,0
178,1140001025428,登記記録の閉鎖等,0,2023-12-12,2023-12-01,株式会社クリスタルマジックロイヤル,,株式会社,兵庫県,神戸市中央区,北長狭通２丁目１０番４号,,28,110,6500012,,,2023-12-01,清算の結了等,,,2015-10-05,1,,,,,クリスタルマジックロイヤル,0
180,1140001057495,登記記録の閉鎖等,0,2023-12-12,2023-12-05,青山実業株式会社,,株式会社,兵庫県,姫路市,夢前町護持２６９番地の１,,28,201,6712136,,,2023-12-05,清算の結了等,,,2015-10-05,1,,,,,アオヤマジツギョウ,0
197,1170002003504,登記記録の閉鎖等,0,2023-12-12,2023-12-08,有限会社マツダ自動車技術学校,,有限会社,和歌山県,和歌山市,西浜９２１番地,,30,201,6410036,,,2023-12-08,清算の結了等,,,2015-10-05,1,,,,,マツダジドウシャギジュツガッコウ,0
204,1180002088239,登記記録の閉鎖等,0,2023-12-12,2023-12-08,小西グループ有限会社,,有限会社,愛知県,知多市,にしの台４丁目１２番地１６,,23,224,4780055,,,2023-12-08,清算の結了等,,,2015-10-05,1,,,,,コニシグループ,0
208,1180301029785,登記記録の閉鎖等,0,2023-12-12,2023-12-11,株式会社ＰＯＷＥＲ　ＬＩＢＥＲＴＹ　ＥＸＰＥＲＴ,,株式会社,愛知県,豊田市,神池町２丁目１２３６番地７９,,23,211,4710804,,,2023-12-11,清算の結了等,,,2016-11-17,1,,,,,パワーリバティーエキスパート,0
210,1180302023003,登記記録の閉鎖等,0,2023-12-12,2023-12-06,有限会社ナパプランニング,,有限会社,愛知県,豊田市,元城町２丁目８番地,,23,211,4710024,,,2023-12-06,清算の結了等,,,2015-10-05,1,,,,,ナパプランニング,0
235,1240002031729,登記記録の閉鎖等,0,2023-12-12,2023-12-08,有限会社ナカデン,,有限会社,広島県,庄原市,東城町川東１４７８番地７,,34,210,7295121,,,2023-12-08,清算の結了等,,,2015-10-05,1,,,,,ナカデン,0
238,1250001008842,登記記録の閉鎖等,0,2023-12-12,2023-12-08,サンヨーメンテ株式会社,,株式会社,山口県,周南市,大字久米４１９６番地の１,,35,215,7450801,,,2023-12-08,清算の結了等,,,2015-10-05,1,,,,,サンヨーメンテ,0
260,1330001008636,登記記録の閉鎖等,0,2023-12-12,2023-12-04,株式会社セブン・ファーマシー,,株式会社,熊本県,熊本市東区,長嶺西３丁目２番１２０号,,43,102,8618037,,,2023-12-04,清算の結了等,,,2015-10-05,1,,,,,セブンファーマシー,0
262,1330002004114,登記記録の閉鎖等,0,2023-12-12,2023-12-05,有限会社コピント新星,,有限会社,熊本県,熊本市中央区,水前寺６丁目３７番２４号,,43,101,8620950,,,2023-12-05,清算の結了等,,,2015-10-05,1,,,,,コピントシンセイ,0
267,1360001006208,登記記録の閉鎖等,0,2023-12-12,2023-10-18,株式会社ＤＩＣ,,株式会社,沖縄県,那覇市,久茂地１丁目４番１号くもいちビル１Ｆ,,47,201,9000015,,,2023-10-18,合併による解散等,1360001001084,令和５年１０月１日沖縄県那覇市久茂地一丁目４番１号くもいちビル１Ｆ株式会社ジョイントハウス（1360001001084）に合併し解散,2015-10-05,1,,,,,ディーアイシー,0
268,1360001015852,登記記録の閉鎖等,0,2023-12-12,2023-12-06,株式会社沖縄サンユウ,,株式会社,沖縄県,那覇市,泉崎２丁目１０１番２２　６階,,47,201,9000021,,,2023-12-06,清算の結了等,,,2015-10-05,1,,,,,オキナワサンユウ,0
279,1400002013074,登記記録の閉鎖等,0,2023-12-12,2023-12-04,有限会社ゆう,,有限会社,岩手県,久慈市,長内町第３０地割７番地１,,03,207,0280041,,,2023-12-04,清算の結了等,,,2015-10-05,1,,,,,ユウ,0
315,2010003028457,登記記録の閉鎖等,0,2023-12-12,2023-12-05,プレ・ニュートリション合同会社,,合同会社,東京都,中央区,銀座７丁目１３番６号サガミビル２階,,13,102,1040061,,,2023-12-05,清算の結了等,,,2018-10-16,1,,,,,プレニュートリション,0
333,2010601045795,登記記録の閉鎖等,0,2023-12-12,2023-12-08,株式会社みやび,,株式会社,東京都,墨田区,東向島６丁目４２番１０－４０１号アーバンキャッスル東向島,,13,107,1310032,,,2023-12-08,清算の結了等,,,2015-10-05,1,,,,,ミヤビ,0
337,2010802018872,登記記録の閉鎖等,0,2023-12-12,2023-12-08,有限会社エステート・トラスト,,有限会社,広島県,広島市東区,牛田早稲田１丁目２０番１７号,,34,102,7320062,,,2023-12-08,清算の結了等,,,2015-10-05,1,,,,,エステートトラスト,0
338,2010901026272,登記記録の閉鎖等,0,2023-12-12,2023-12-07,プリマヴェーダ株式会社,,株式会社,東京都,世田谷区,上用賀５丁目２３番１８号,,13,112,1580098,,,2023-12-07,合併による解散等,6020001012185,令和５年１２月１日横浜市青葉区美しが丘四丁目５４番地６プリマヴェーダ株式会社（6020001012185）に合併し解散,2015-10-05,1,,,,,プリマヴェーダ,0
353,2011003013853,登記記録の閉鎖等,0,2023-12-12,2023-12-08,合同会社Ｔｏｐｒｉｄｅ,,合同会社,東京都,渋谷区,神宮前６丁目２３番４号桑野ビル２階,,13,113,1500001,,,2023-12-08,清算の結了等,,,2021-12-14,1,,,,,トップライド,0
362,2011102013663,登記記録の閉鎖等,0,2023-12-12,2023-12-07,有限会社四谷和暉企画,,有限会社,東京都,新宿区,四谷４丁目１３番地,,13,104,1600004,,,2023-12-07,清算の結了等,,,2015-10-05,1,,,,,ヨツヤカズキキカク,0
391,2020002046698,登記記録の閉鎖等,0,2023-12-12,2023-12-06,有限会社神奈川ハウスメンテ,,有限会社,神奈川県,横浜市青葉区,あざみ野４丁目３８番９号１０１号室,,14,117,2250011,,,2023-12-06,清算の結了等,,,2015-10-05,1,,,,,カナガワハウスメンテ,0
392,2020002062324,登記記録の閉鎖等,0,2023-12-12,2023-12-04,有限会社オノテック,,有限会社,神奈川県,横浜市緑区,中山１丁目２９番４－２０３号,,14,113,2260019,,,2023-12-04,清算の結了等,,,2015-10-05,1,,,,,オノテック,0
403,2021002069078,登記記録の閉鎖等,0,2023-12-12,2023-12-08,有限会社建匠工務店,,有限会社,神奈川県,横須賀市,汐見台１丁目９番地５５,,14,201,2380054,,,2023-12-08,清算の結了等,,,2015-10-05,1,,,,,ケンショウコウムテン,0
418,2030003015313,登記記録の閉鎖等,0,2023-12-12,2023-12-04,ハニーベルン合同会社,,合同会社,埼玉県,春日部市,西金野井１６９９番地５,,11,214,3440112,,,2023-12-04,清算の結了等,,,2020-05-26,1,,,,,ハニーベルン,0
427,2050001039436,登記記録の閉鎖等,0,2023-12-12,2023-12-06,株式会社ここみ,,株式会社,茨城県,守谷市,小山３３６番地の９,,08,224,3020122,,,2023-12-06,清算の結了等,,,2015-10-05,1,,,,,ココミ,0
437,2070002010443,登記記録の閉鎖等,0,2023-12-12,2023-12-06,有限会社白石建設,,有限会社,群馬県,高崎市,江木町２０７番地,,10,202,3700046,,,2023-12-06,清算の結了等,,,2015-10-05,1,,,,,シライシケンセツ,0
446,2080401015678,登記記録の閉鎖等,0,2023-12-12,2023-12-08,株式会社ピュア,,株式会社,静岡県,磐田市,今之浦１丁目７番６号,,22,211,4380071,,,2023-12-08,清算の結了等,,,2015-10-05,1,,,,,ピュア,0
457,2120001066398,登記記録の閉鎖等,0,2023-12-12,2023-11-30,ダイヤプラスチツクス株式会社,,株式会社,大阪府,大阪市北区,堂山町１７番５号,,27,127,5300027,,,2023-11-30,清算の結了等,,,2015-10-05,1,,,,,ダイヤプラスチツクス,0
459,2120001165456,登記記録の閉鎖等,0,2023-12-12,2023-12-06,カンサイセンター株式会社,,株式会社,大阪府,大阪市北区,南森町２丁目２番７－２０５号,,27,127,5300054,,,2023-12-06,清算の結了等,,,2015-10-05,1,,,,,カンサイセンター,0
474,2120105009393,登記記録の閉鎖等,0,2023-12-12,2023-12-08,建設イマージェンス協同組合,,その他の設立登記法人,大阪府,堺市北区,南花田町３６番地１,,27,146,5918011,,,2023-12-08,清算の結了等,,,2021-04-26,1,,,,,ケンセツイマージェンス,0
483,2122002013123,登記記録の閉鎖等,0,2023-12-12,2023-12-11,有限会社伊東エンジニアリング,,有限会社,大阪府,八尾市,山本町北６丁目７番３２号,,27,212,5810831,,,2023-12-11,清算の結了等,,,2015-10-05,1,,,,,イトウエンジニアリング,0
491,2130003003836,登記記録の閉鎖等,0,2023-12-12,2023-12-06,中山マネジメントサービス合同会社,,合同会社,京都府,宇治市,大久保町上ノ山１３番地の４,,26,204,6110033,,,2023-12-06,清算の結了等,,,2015-10-05,1,,,,,ナカヤママネジメントサービス,0
526,2190002005489,登記記録の閉鎖等,0,2023-12-12,2023-12-08,有限会社さない損保事務所,,有限会社,三重県,尾鷲市,中川２７番５号,,24,209,5193639,,,2023-12-08,清算の結了等,,,2015-10-05,1,,,,,サナイソンポジムショ,0
534,2200005011458,登記記録の閉鎖等,0,2023-12-12,2023-12-11,特定非営利活動法人里山を守る会武並,,その他の設立登記法人,岐阜県,恵那市,武並町竹折１６４８番地２８６,,21,210,5097122,,,2023-12-11,清算の結了等,,,2015-10-05,1,,,,,サトヤマヲマモルカイタケナミ,0
547,2240001000535,登記記録の閉鎖等,0,2023-12-12,2023-12-06,株式会社アトリエ・ユー・ディー,,株式会社,広島県,広島市中区,橋本町３番１５－８０１号,,34,101,7300015,,,2023-12-06,清算の結了等,,,2015-10-05,1,,,,,アトリエユーディー,0
548,2240001024724,登記記録の閉鎖等,0,2023-12-12,2023-12-07,株式会社池田商店,,株式会社,広島県,安芸高田市,八千代町下根１３８０番地の１,,34,214,7310304,,,2023-12-07,清算の結了等,,,2015-10-05,1,,,,,イケダショウテン,0
549,2240001037750,登記記録の閉鎖等,0,2023-12-12,2023-12-07,秋元建設株式会社,,株式会社,広島県,尾道市,美ノ郷町三成２７８４番地,,34,205,7220215,,,2023-12-07,清算の結了等,,,2015-10-05,1,,,,,アキモトケンセツ,0
555,2250002004658,登記記録の閉鎖等,0,2023-12-12,2023-12-07,有限会社啓友不動産,,有限会社,山口県,宇部市,琴芝町２丁目３番２４号,,35,202,7550033,,,2023-12-07,清算の結了等,,,2015-10-05,1,,,,,ケイユウフドウサン,0
561,2270001006959,登記記録の閉鎖等,0,2023-12-12,2023-12-08,株式会社浅井建材運輸,,株式会社,鳥取県,鳥取市,吉方温泉２丁目５２０番地,,31,201,6800841,,,2023-12-08,清算の結了等,,,2016-05-10,1,,,,,アサイケンザイウンユ,0
565,2290001025420,登記記録の閉鎖等,0,2023-12-12,2023-12-04,株式会社鈴し乃,,株式会社,福岡県,福岡市東区,蒲田２丁目１３番１５号,,40,131,8130023,,,2023-12-04,清算の結了等,,,2015-10-05,1,,,,,,0
597,2350001004913,登記記録の閉鎖等,0,2023-12-12,2023-12-05,株式会社長友縫製,,株式会社,宮崎県,東諸県郡国富町,大字木脇字早萩２７７番地１,,45,382,8801113,,,2023-12-05,清算の結了等,,,2015-10-05,1,,,,,ナガトモホウセイ,0
605,2390001012747,登記記録の閉鎖等,0,2023-12-12,2023-12-07,株式会社ＢＩＧＡＫＵ,,株式会社,山形県,天童市,芳賀タウン北５丁目１４番１１号,,06,210,9940082,,,2023-12-07,清算の結了等,,,2015-10-05,1,,,,,ビガク,0
614,2430001081473,登記記録の閉鎖等,0,2023-12-12,2023-12-06,株式会社ＲＥＶＩＶＥ　Ｓａｐｐｏｒｏ,,株式会社,北海道,札幌市中央区,南十三条西８丁目１番３５号セレナール南１３条２０５号,,01,101,0640913,,,2023-12-06,清算の結了等,,,2020-05-13,1,,,,,リバイブサッポロ,0
621,2460105000343,登記記録の閉鎖等,0,2023-12-12,2023-12-08,まくべつパークカード協同組合,,その他の設立登記法人,北海道,中川郡幕別町,錦町１４１番地の１９,,01,643,0890604,,,2023-12-08,清算の結了等,,,2015-10-05,1,,,,,マクベツパークカード,0
627,2500002013229,登記記録の閉鎖等,0,2023-12-12,2023-12-08,有限会社佐々木ミシン商会,,有限会社,愛媛県,八幡浜市,新町５丁目３１０番地２,,38,204,7960071,,,2023-12-08,清算の結了等,,,2015-10-05,1,,,,,ササキミシンショウカイ,0
644,3010401115855,登記記録の閉鎖等,0,2023-12-12,2023-12-04,株式会社ジャーニーアンドブルー,,株式会社,沖縄県,宜野湾市,宇地泊２丁目２５番２３号,,47,205,9012227,,,2023-12-04,合併による解散等,8010401111791,令和５年１１月３０日沖縄県宜野湾市宇地泊二丁目２５番２３号マリンビジョン株式会社（8010401111791）に合併し解散,2015-10-05,1,,,,,ジャーニーアンドブルー,0
711,3020001107070,登記記録の閉鎖等,0,2023-12-12,2023-12-06,株式会社ユニバーサルコレクション,,株式会社,神奈川県,横浜市西区,みなとみらい４丁目４－２横浜ブルーアベニュー１２階,,14,103,2200012,,,2023-12-06,清算の結了等,,,2015-10-05,1,,,,,ユニバーサルコレクション,0
727,3021002028917,登記記録の閉鎖等,0,2023-12-12,2023-12-08,有限会社クレア,,有限会社,神奈川県,相模原市緑区,中野２４０番地１５,,14,151,2520157,,,2023-12-08,清算の結了等,,,2015-10-05,1,,,,,クレア,0
728,3021002051737,登記記録の閉鎖等,0,2023-12-12,2023-12-07,有限会社こじま,,有限会社,神奈川県,小田原市,早川３丁目１８番地の１５,,14,206,2500021,,,2023-12-07,清算の結了等,,,2015-10-05,1,,,,,コジマ,0
729,3021002060408,登記記録の閉鎖等,0,2023-12-12,2023-12-08,有限会社元気家族,,有限会社,神奈川県,中郡大磯町,西小磯９８３番地の２,,14,341,2550005,,,2023-12-08,清算の結了等,,,2015-10-05,1,,,,,,0
767,3080002000756,登記記録の閉鎖等,0,2023-12-12,2023-12-07,有限会社内山精工,,有限会社,静岡県,静岡市駿河区,用宗１丁目３番２１号,,22,102,4210122,,,2023-12-07,清算の結了等,,,2015-10-05,1,,,,,,0
769,3080005004655,登記記録の閉鎖等,0,2023-12-12,2023-12-01,金谷第二茶農業協同組合,,その他の設立登記法人,静岡県,島田市,金谷富士見町３１６３番地の６,,22,209,4280034,,,2023-12-01,清算の結了等,,,2015-10-05,1,,,,,カナヤダイニチャ,0
783,3120001183894,登記記録の閉鎖等,0,2023-12-12,2023-12-07,海堀電設工業株式会社,,株式会社,大阪府,大阪市東住吉区,今林２丁目１１番１９号,,27,121,5460001,,,2023-12-07,清算の結了等,,,2015-10-05,1,,,,,カイホリデンセツコウギョウ,0
804,3130001027027,登記記録の閉鎖等,0,2023-12-12,2023-12-08,樹総研株式会社,,株式会社,京都府,京都市下京区,綾小路通烏丸東入竹屋之町２５７番地,,26,106,6008090,,,2023-12-08,清算の結了等,,,2015-10-05,1,,,,,イツキソウケン,0
806,3130001029907,登記記録の閉鎖等,0,2023-12-12,2023-12-06,株式会社栄光,,株式会社,京都府,長岡京市,神足北川原１３番地の７,,26,209,6170833,,,2023-12-06,清算の結了等,,,2015-10-05,1,,,,,エイコウ,0
818,3130005003552,登記記録の閉鎖等,0,2023-12-12,2023-12-04,京都保険歯科医協同組合,,その他の設立登記法人,京都府,京都市中京区,烏丸通二条上る蒔絵屋町２６３番地京榮烏丸ビル４０２,,26,104,6040857,,,2023-12-04,清算の結了等,,,2015-10-05,1,,,,,キョウトホケンシカイ,0
819,3140001069183,登記記録の閉鎖等,0,2023-12-12,2023-12-05,株式会社スタジオＤｏ,,株式会社,兵庫県,西宮市,六湛寺町９番３３号,,28,204,6620918,,,2023-12-05,清算の結了等,,,2015-10-05,1,,,,,スタジオドゥー,0
842,3180001051526,登記記録の閉鎖等,0,2023-12-12,2023-12-07,株式会社大翔,,株式会社,愛知県,名古屋市緑区,諸の木１丁目７２１番地,,23,114,4580817,,,2023-12-07,清算の結了等,,,2015-10-05,1,,,,,ダイショウ,0
843,3180001095226,登記記録の閉鎖等,0,2023-12-12,2023-12-07,株式会社西尾酒枝商店,,株式会社,愛知県,江南市,上奈良町郷２１０番地,,23,217,4838258,,,2023-12-07,清算の結了等,,,2015-10-05,1,,,,,ニシオサカエショウテン,0
850,3180002034240,登記記録の閉鎖等,0,2023-12-12,2023-12-06,有限会社アウェイク,,有限会社,愛知県,名古屋市瑞穂区,初日町１丁目３０番地の１９,,23,108,4670028,,,2023-12-06,清算の結了等,,,2015-10-05,1,,,,,アウェイク,0
852,3180002079748,登記記録の閉鎖等,0,2023-12-12,2023-12-05,有限会社佐藤健康科学研究所,,有限会社,愛知県,一宮市,平和３丁目１４番地の２,,23,203,4910905,,,2023-12-05,清算の結了等,,,2015-10-05,1,,,,,サトウケンコウカガクケンキュウショ,0
867,3200002024429,登記記録の閉鎖等,0,2023-12-12,2023-12-08,有限会社オカダヤ化粧品店,,有限会社,岐阜県,恵那市,明智町１８７５番地の１,,21,210,5097731,,,2023-12-08,清算の結了等,,,2015-10-05,1,,,,,オカダヤケショウヒンテン,0
876,3240002010391,登記記録の閉鎖等,0,2023-12-12,2023-12-05,中央情報システム有限会社,,有限会社,広島県,広島市安佐南区,緑井７丁目２番３２号,,34,105,7310103,,,2023-12-05,清算の結了等,,,2015-10-05,1,,,,,チュウオウジョウホウシステム,0
880,3240002053829,登記記録の閉鎖等,0,2023-12-12,2023-12-08,有限会社ヨシムラ,,有限会社,広島県,三原市,城町１丁目１０番３号,,34,204,7230014,,,2023-12-08,清算の結了等,,,2015-10-05,1,,,,,ヨシムラ,0
890,3270002001181,登記記録の閉鎖等,0,2023-12-12,2023-12-11,有限会社積産,,有限会社,鳥取県,鳥取市,国安２２４番地の１,,31,201,6801132,,,2023-12-11,清算の結了等,,,2015-10-05,1,,,,,セキサン,0
914,3380001003399,登記記録の閉鎖等,0,2023-12-12,2023-12-07,株式会社ＥＳＴ,,株式会社,福島県,福島市,蓬莱町１丁目８番１１号,00091528,07,201,9608157,,,2023-12-07,清算の結了等,,,2015-10-05,1,,,,,エスト,0
921,3430001050469,登記記録の閉鎖等,0,2023-12-12,2023-12-06,株式会社又二寺沢商店,,株式会社,北海道,小樽市,長橋３丁目８番３号,,01,203,0470036,,,2023-12-06,清算の結了等,,,2015-10-05,1,,,,,マタニテラサワチョウテン,0
930,3460101005031,登記記録の閉鎖等,0,2023-12-12,2023-12-04,株式会社ＫＭＭ,,株式会社,北海道,河東郡上士幌町,字居辺東７線２７７番地,,01,633,0801406,,,2023-12-04,清算の結了等,,,2015-10-05,1,,,,,ケーエムエム,0
942,3500002015752,登記記録の閉鎖等,0,2023-12-12,2023-12-08,有限会社明日香美装,,有限会社,愛媛県,新居浜市,中村４丁目１８番２７号,,38,205,7920044,,,2023-12-08,清算の結了等,,,2015-10-05,1,,,,,アスカビソウ,0
969,4010401166864,登記記録の閉鎖等,0,2023-12-12,2023-12-04,株式会社ライフ＆カンパニー,,株式会社,東京都,世田谷区,若林３丁目１５番４号,,13,112,1540023,,,2023-12-04,合併による解散等,4011001034569,令和５年１２月１日東京都世田谷区若林三丁目１５番４号株式会社バイク王＆カンパニー（4011001034569）に合併し解散,2022-04-28,1,,,,,ライフアンドカンパニー,0
979,4010601049076,登記記録の閉鎖等,0,2023-12-12,2023-12-06,株式会社アトリエ和維,,株式会社,東京都,江東区,亀戸５丁目２９番６号,,13,108,1360071,,,2023-12-06,清算の結了等,,,2016-01-21,1,,,,,アトリエワイ,0
1008,4011105005276,登記記録の閉鎖等,0,2023-12-12,2023-12-07,医療法人社団櫻海会,00054148,その他の設立登記法人,東京都,新宿区,西新宿１丁目４番１０号ＡＣＮ新宿ウエストビルディング４階,,13,104,1600023,,,2023-12-07,清算の結了等,,,2015-10-05,1,,,,,オウミカイ,0
1014,4011502003741,登記記録の閉鎖等,0,2023-12-12,2023-12-07,有限会社立花美容室,,有限会社,東京都,北区,豊島１丁目２１番３号,,13,117,1140003,,,2023-12-07,清算の結了等,,,2015-10-05,1,,,,,タチバナビヨウシツ,0
1028,4020001084838,登記記録の閉鎖等,0,2023-12-12,2023-12-06,ＥＭＢＲＡＳＳＥＣＯ．，ＬＴＤ．株式会社,,株式会社,神奈川県,茅ヶ崎市,茅ヶ崎１丁目２番４３－７０３号サーパス茅ヶ崎第２,,14,207,2530041,,,2023-12-06,清算の結了等,,,2015-10-05,1,,,,,アンブラッセカンパニーリミテッド,0
1038,4021001012152,登記記録の閉鎖等,0,2023-12-12,2023-12-07,株式会社相模工業,,株式会社,神奈川県,相模原市中央区,由野台１丁目３番１２号,,14,152,2520222,,,2023-12-07,清算の結了等,,,2015-10-05,1,,,,,サガミコウギョウ,0
1044,4021002061891,登記記録の閉鎖等,0,2023-12-12,2023-12-06,有限会社大平建築,,有限会社,神奈川県,中郡大磯町,西小磯３２９番地,,14,341,2550005,,,2023-12-06,清算の結了等,,,2015-10-05,1,,,,,オオダイラケンチク,0
1047,4030001080984,登記記録の閉鎖等,0,2023-12-12,2023-12-06,株式会社バンディ,,株式会社,埼玉県,川口市,並木１丁目６番３５－６１９号,,11,203,3320034,,,2023-12-06,清算の結了等,,,2015-10-05,1,,,,,バンディ,0
1050,4030002036366,登記記録の閉鎖等,0,2023-12-12,2023-12-06,有限会社ハシノテック,,有限会社,埼玉県,狭山市,大字上奥富１９１番地の１２,,11,215,3501333,,,2023-12-06,清算の結了等,,,2015-10-05,1,,,,,ハシノテック,0
1056,4040001035533,登記記録の閉鎖等,0,2023-12-12,2023-12-05,株式会社サンシン,,株式会社,千葉県,松戸市,上本郷３９７８番地１,,12,207,2710064,,,2023-12-05,清算の結了等,,,2015-10-05,1,,,,,サンシン,0
1073,4050003003347,登記記録の閉鎖等,0,2023-12-12,2023-12-07,株式会社ＲＩＭＯ,,株式会社,茨城県,つくば市,竹園１丁目１３番地２デュオヒルズつくばセンチュリー２１３号室,,08,220,3050032,,,2023-12-07,清算の結了等,,,2016-07-11,1,,,,,リモ,0
1087,4080005006700,登記記録の閉鎖等,0,2023-12-12,2023-12-06,一般社団法人静岡大学サッカー部後援会,,その他の設立登記法人,静岡県,静岡市駿河区,大谷８３６番地静岡大学内,,22,102,4228017,,,2023-12-06,清算の結了等,,,2015-10-05,1,,,,,シズオカダイガクサッカーブコウエンカイ,0
1088,4080101007197,登記記録の閉鎖等,0,2023-12-12,2023-12-11,株式会社みかどや,,株式会社,静岡県,三島市,文教町１丁目２番１４号,,22,206,4110033,,,2023-12-11,清算の結了等,,,2015-10-05,1,,,,,ミカドヤ,0
1099,4090002006735,登記記録の閉鎖等,0,2023-12-12,2023-12-11,有限会社大＿,00080268,有限会社,山梨県,甲斐市,竜地６６５７－３番地,,19,210,4000100,,,2023-12-11,清算の結了等,,,2015-10-05,1,,,,,タイセイ,0
1101,4100001022491,登記記録の閉鎖等,0,2023-12-12,2023-12-04,城南運送株式会社,,株式会社,長野県,飯田市,松尾上溝５９４９番地１,,20,205,3950811,,,2023-12-04,合併による解散等,8100001018536,令和５年１２月１日長野県松本市笹賀７６００番地７南信貨物自動車株式会社（8100001018536）に合併し解散,2015-10-05,1,,,,,ジョウナンウンソウ,0
1105,4110002029741,登記記録の閉鎖等,0,2023-12-12,2023-12-04,有限会社三誠ワークス,,有限会社,新潟県,長岡市,来迎寺４０８２番地,,15,202,9495411,,,2023-12-04,清算の結了等,,,2015-10-05,1,,,,,サンセイワークス,0
1121,4120005000145,登記記録の閉鎖等,0,2023-12-12,2023-11-10,天理教郷與分教会,,その他の設立登記法人,大阪府,大阪市東住吉区,針中野３丁目４番１６号,,27,121,5460011,,,2023-11-10,合併による解散等,4150005000472,令和５年１１月２日奈良市西大寺新池町４番１号天理教上之郷大教会（4150005000472）に合併し解散,2015-10-05,1,,,,,テンリキョウサトヨブンキョウカイ,0
1141,4130002027306,登記記録の閉鎖等,0,2023-12-12,2023-12-06,有限会社平成オート,,有限会社,京都府,久世郡久御山町,田井新荒見５９番地,,26,322,6130036,,,2023-12-06,清算の結了等,,,2015-10-05,1,,,,,ヘイセイオート,0
1143,4140001112685,登記記録の閉鎖等,0,2023-12-12,2023-11-30,タベモノガタリ株式会社,,株式会社,兵庫県,神戸市東灘区,岡本５丁目２番５号岡本コミンカ,,28,101,6580072,,,2023-11-30,清算の結了等,,,2019-02-06,1,,,,,タベモノガタリ,0
1156,4180001135121,登記記録の閉鎖等,0,2023-12-12,2023-12-07,株式会社旭昇技研,,株式会社,愛知県,名古屋市中川区,八田町２３０４番地,,23,110,4540877,,,2023-12-07,清算の結了等,,,2019-01-11,1,,,,,キョクショウギケン,0
1169,4180302013934,登記記録の閉鎖等,0,2023-12-12,2023-12-05,有限会社藤崎設計事務所,,有限会社,愛知県,豊川市,諏訪３丁目１７３番地,,23,207,4420068,,,2023-12-05,清算の結了等,,,2015-10-05,1,,,,,フジサキセッケイジムショ,0
1170,4180302025525,登記記録の閉鎖等,0,2023-12-12,2023-12-06,有限会社サンコー,,有限会社,愛知県,豊田市,神池町２丁目１２３６番地４３６,,23,211,4710804,,,2023-12-06,清算の結了等,,,2015-10-05,1,,,,,サンコー,0
1172,4190001000943,登記記録の閉鎖等,0,2023-12-12,2023-12-11,株式会社プリンテック,,株式会社,三重県,津市,納所町４３番地の３,,24,201,5140051,,,2023-12-11,清算の結了等,,,2015-10-05,1,,,,,プリンテック,0
1177,4190005007019,登記記録の閉鎖等,0,2023-12-12,2023-11-02,天理教豊地分教會,,その他の設立登記法人,三重県,松阪市,嬉野堀之内町１９２番地,,24,204,5152353,,,2023-11-02,合併による解散等,7190005000796,令和５年１１月２日三重県津市岩田２２番１８号天理教津大教会（7190005000796）に合併し解散,2015-10-05,1,,,,,,0
1184,4210002001640,登記記録の閉鎖等,0,2023-12-12,2023-12-06,有限会社下河工業,,有限会社,福井県,福井市,春日３丁目８０１番地,,18,201,9188108,,,2023-12-06,清算の結了等,,,2015-10-05,1,,,,,シモカワコウギョウ,0
1186,4220002013453,登記記録の閉鎖等,0,2023-12-12,2023-12-08,有限会社経営ポラリス,,有限会社,石川県,小松市,下粟津町ア３９番地,,17,203,9230304,,,2023-12-08,清算の結了等,,,2015-10-05,1,,,,,ケイエイポラリス,0
1218,4290003008751,登記記録の閉鎖等,0,2023-12-12,2023-12-04,合同会社村本コンサルティング,,合同会社,福岡県,古賀市,中央１丁目６番２９号,,40,223,8113103,,,2023-12-04,清算の結了等,,,2019-02-08,1,,,,,ムラモトコンサルティング,0
1226,4310001016332,登記記録の閉鎖等,0,2023-12-12,2023-12-08,株式会社輝,,株式会社,長崎県,西彼杵郡長与町,丸田郷１０７７番地１３,,42,307,8512124,,,2023-12-08,清算の結了等,,,2019-10-08,1,,,,,カガヤキ,0
1228,4310002007578,登記記録の閉鎖等,0,2023-12-12,2023-12-11,有限会社井上測地技術,,有限会社,長崎県,長崎市,福田本町４番地２,,42,201,8500068,,,2023-12-11,清算の結了等,,,2015-10-05,1,,,,,イノウエソクチギジュツ,0
1264,4480005003608,登記記録の閉鎖等,0,2023-12-12,2023-12-11,医療法人靖仁会,,その他の設立登記法人,徳島県,鳴門市,瀬戸町明神字鳴谷１２１番地,,36,202,7710360,,,2023-12-11,清算の結了等,,,2015-10-05,1,,,,,セイジンカイ,0
1265,4490001008980,登記記録の閉鎖等,0,2023-12-12,2023-11-14,株式会社クオリティー・オブ・ローカルライフ・土佐,,株式会社,高知県,土佐市,中島２１３番地１グリーンマンション４０５号,,39,205,7811151,,,2023-11-14,合併による解散等,3290001079754,令和５年１１月１日福岡市博多区祇園町８番１３号第一プリンスビル株式会社インテュイション（3290001079754）に合併し解散,2018-06-15,1,,,,,クオリティーオブローカルライフトサ,0
1284,5010005029285,登記記録の閉鎖等,0,2023-12-12,2023-12-08,一般社団法人エス・ホテルオペレーションズ,,その他の設立登記法人,東京都,千代田区,霞が関３丁目２番５号,,13,101,1000013,,,2023-12-08,清算の結了等,,,2018-10-30,1,,,,,エスホテルオペレーションズ,0
1293,5010401158976,登記記録の閉鎖等,0,2023-12-12,2023-12-01,株式会社シェアでんき２１,,株式会社,東京都,港区,新橋４丁目１１番１号,,13,103,1050004,,,2023-12-01,合併による解散等,5010701035215,令和５年１２月１日東京都港区新橋四丁目１１番１号株式会社シェアリングエネルギー（5010701035215）に合併し解散,2021-03-19,1,,,,,シェアデンキニジュウイチ,0
1300,5010403018138,登記記録の閉鎖等,0,2023-12-12,2023-12-07,ＳＫ企画合同会社,,合同会社,東京都,港区,浜松町２丁目２番１５号,,13,103,1050013,,,2023-12-07,合併による解散等,2010903002461,令和５年１１月３０日東京都中央区銀座一丁目２２番１１号ユーランドロード合同会社（2010903002461）に合併し解散,2018-02-27,1,,,,,,0
1303,5010501038483,登記記録の閉鎖等,0,2023-12-12,2023-12-05,株式会社ニックパル,,株式会社,東京都,台東区,元浅草２丁目１０番１２号ＴＫビルディング,,13,106,1110041,,,2023-12-05,清算の結了等,,,2015-10-05,1,,,,,ニックパル,0
1307,5010701038928,登記記録の閉鎖等,0,2023-12-12,2023-12-05,株式会社ＫＳコンサルティング,,株式会社,東京都,品川区,大崎５丁目９番９－１２１０号,,13,109,1410032,,,2023-12-05,清算の結了等,,,2020-03-31,1,,,,,ケイエスコンサルティング,0
1311,5010802017145,登記記録の閉鎖等,0,2023-12-12,2023-12-07,有限会社アイテクノ,,有限会社,東京都,大田区,田園調布南３０番１号サウスヴィラ田園調布４０２,,13,111,1450076,,,2023-12-07,清算の結了等,,,2015-10-05,1,,,,,アイテクノ,0
1312,5010901012476,登記記録の閉鎖等,0,2023-12-12,2023-12-05,株式会社ユニ設計開発,,株式会社,東京都,世田谷区,池尻３丁目２２番２号,,13,112,1540001,,,2023-12-05,清算の結了等,,,2015-10-05,1,,,,,ユニセッケイカイハツ,0
1316,5011001073483,登記記録の閉鎖等,0,2023-12-12,2023-12-06,株式会社クラスター,,株式会社,東京都,台東区,浅草３丁目４０番９号スバル・岐村ビル３０２,,13,106,1110032,,,2023-12-06,清算の結了等,,,2015-10-05,1,,,,,クラスター,0
1317,5011001110550,登記記録の閉鎖等,0,2023-12-12,2023-12-06,株式会社山椒,,株式会社,兵庫県,南あわじ市,八木養宜上１０１３番地６,,28,224,6560443,,,2023-12-06,清算の結了等,,,2016-04-20,1,,,,,サンショウ,0
1329,5011101088407,登記記録の閉鎖等,0,2023-12-12,2023-12-08,株式会社幸せの指揮者,,株式会社,神奈川県,鎌倉市,雪ノ下６３６－１０立花大倉ビル３階,,14,204,2480005,,,2023-12-08,清算の結了等,,,2019-07-26,1,,,,,シアワセノシキシャ,0
1353,5013102001348,登記記録の閉鎖等,0,2023-12-12,2023-12-08,有限会社トップシステム,,有限会社,東京都,羽村市,羽加美１丁目１８番地３,,13,227,2050016,,,2023-12-08,清算の結了等,,,2015-10-05,1,,,,,,0
1361,5020001120724,登記記録の閉鎖等,0,2023-12-12,2023-12-06,株式会社田中電装,,株式会社,神奈川県,横浜市港南区,上大岡東２丁目４３番２２号,,14,111,2330001,,,2023-12-06,清算の結了等,,,2017-04-14,1,,,,,,0
1369,5021002049465,登記記録の閉鎖等,0,2023-12-12,2023-12-08,ピーシーガレージ有限会社,,有限会社,神奈川県,大和市,下草柳８２５番地３ダイヤパレス大和第２・４０２号,,14,213,2420027,,,2023-12-08,清算の結了等,,,2015-10-05,1,,,,,ピーシーガレージ,0
1375,5030001079943,登記記録の閉鎖等,0,2023-12-12,2023-12-06,株式会社三晃堂,,株式会社,埼玉県,戸田市,喜沢１丁目３８番地の１２（タック・ワンジュモン２０２号室）,,11,224,3350013,,,2023-12-06,清算の結了等,,,2015-10-05,1,,,,,サンコウドウ,0
1383,5040001010972,登記記録の閉鎖等,0,2023-12-12,2023-12-01,コンフォートテック株式会社,,株式会社,埼玉県,さいたま市大宮区,大成町２丁目２７７番地１ＫＣビル,,11,103,3300852,,,2023-12-01,合併による解散等,8030001058127,令和５年１２月１日埼玉県さいたま市大宮区大成町二丁目２７７番地１ＫＣビル環境クリエイト株式会社（8030001058127）に合併し解散,2015-10-05,1,,,,,コンフォートテック,0
1386,5040001043361,登記記録の閉鎖等,0,2023-12-12,2023-12-05,三宏建設株式会社,,株式会社,千葉県,富里市,立沢新田６１番地の５０,,12,233,2860215,,,2023-12-05,清算の結了等,,,2015-10-05,1,,,,,サンコウケンセツ,0
1397,5070002021181,登記記録の閉鎖等,0,2023-12-12,2023-12-06,有限会社田村商店,,有限会社,群馬県,伊勢崎市,田部井町２丁目甲１２４８番地の１,,10,204,3792222,,,2023-12-06,清算の結了等,,,2015-10-05,1,,,,,タムラショウテン,0
1401,5080002009845,登記記録の閉鎖等,0,2023-12-12,2023-12-07,有限会社コーヨー技研,,有限会社,静岡県,静岡市清水区,北矢部町１丁目７番５号,,22,103,4240937,,,2023-12-07,清算の結了等,,,2015-10-05,1,,,,,コーヨーギケン,0
1416,5110002008604,登記記録の閉鎖等,0,2023-12-12,2023-12-07,有限会社インターシード,,有限会社,新潟県,新潟市西区,五十嵐東２丁目７番４号,,15,107,9502045,,,2023-12-07,清算の結了等,,,2015-10-05,1,,,,,インターシード,0
1431,5120005006950,登記記録の閉鎖等,0,2023-12-12,2023-11-30,近畿宝椅子販売協同組合,,その他の設立登記法人,大阪府,大阪市中央区,島之内２丁目１３番２７号,,27,128,5420082,,,2023-11-30,清算の結了等,,,2015-10-05,1,,,,,キンキタカライスハンバイ,0
1439,5120101000956,登記記録の閉鎖等,0,2023-12-12,2023-12-08,株式会社浦本サービス,,株式会社,大阪府,堺市堺区,南花田口町２丁４５番４号,,27,141,5900075,,,2023-12-08,清算の結了等,,,2015-10-05,1,,,,,ウラモトサービス,0
1444,5120901023537,登記記録の閉鎖等,0,2023-12-12,2023-12-07,空港運送株式会社,,株式会社,大阪府,豊中市,走井２丁目２番２３号,,27,203,5610891,,,2023-12-07,清算の結了等,,,2015-10-05,1,,,,,クウコウウンソウ,0
1455,5130002022826,登記記録の閉鎖等,0,2023-12-12,2023-12-08,有限会社フクシマ,,有限会社,京都府,京都市中京区,西ノ京銅駝町２０番地,,26,104,6048425,,,2023-12-08,清算の結了等,,,2015-10-05,1,,,,,フクシマ,0
1475,5180002043669,登記記録の閉鎖等,0,2023-12-12,2023-12-05,有限会社ワイズ設計,,有限会社,愛知県,名古屋市西区,城西２丁目１０番４号,,23,104,4510031,,,2023-12-05,清算の結了等,,,2015-10-05,1,,,,,ワイズセッケイ,0
1478,5180005007539,登記記録の閉鎖等,0,2023-12-12,2023-12-07,特定非営利活動法人としょかん再発見,,その他の設立登記法人,愛知県,名古屋市天白区,大根町１６８番地,,23,116,4680024,,,2023-12-07,清算の結了等,,,2015-10-05,1,,,,,トショカンサイハッケン,0
1494,5240001009499,登記記録の閉鎖等,0,2023-12-12,2023-12-01,広島トヨタエンタープライズ株式会社,,株式会社,広島県,広島市中区,広瀬北町２番２４号,,34,101,7300803,,,2023-12-01,合併による解散等,6240001061037,令和５年１２月１日広島市中区広瀬北町２番２４号広島トヨタホールディングス株式会社（6240001061037）に合併し解散,2015-10-05,1,,,,,ヒロシマトヨタエンタープライズ,0
1501,5240002018334,登記記録の閉鎖等,0,2023-12-12,2023-12-01,株式会社ＨＴモビリティ,,株式会社,広島県,広島市中区,広瀬北町２番２４号,,34,101,7300803,,,2023-12-01,合併による解散等,6240001061037,令和５年１２月１日広島市中区広瀬北町２番２４号広島トヨタホールディングス株式会社（6240001061037）に合併し解散,2015-10-05,1,,,,,エイチティーモビリティ,0
1504,5260001002535,登記記録の閉鎖等,0,2023-12-12,2023-12-08,小林工業株式会社,,株式会社,岡山県,岡山市南区,当新田４４５番地２８,,33,104,7000956,,,2023-12-08,清算の結了等,,,2015-10-05,1,,,,,コバヤシコウギョウ,0
1505,5260001022500,登記記録の閉鎖等,0,2023-12-12,2023-12-11,株式会社與田組,,株式会社,岡山県,玉野市,渋川２丁目１番７号,,33,204,7060028,,,2023-12-11,清算の結了等,,,2015-10-05,1,,,,,ヨダグミ,0
1513,5290001056215,登記記録の閉鎖等,0,2023-12-12,2023-12-06,株式会社ＭＹオフィス,,株式会社,東京都,港区,南麻布２丁目１２番３号,,13,103,1060047,,,2023-12-06,清算の結了等,,,2015-10-05,1,,,,,マイオフィス,0
1536,5410001006891,登記記録の閉鎖等,0,2023-12-12,2023-12-01,株式会社ニシキジャパン,,株式会社,秋田県,大館市,字谷地町９番地７,,05,204,0170827,,,2023-12-01,合併による解散等,1410002010046,令和５年１２月１日秋田県大館市字谷地町９番地７株式会社ニシキダイナー（1410002010046）に合併し解散,2015-10-05,1,,,,,ニシキジャパン,0
1544,5440002007465,登記記録の閉鎖等,0,2023-12-12,2023-12-07,有限会社ジョイント工業,,有限会社,北海道,函館市,本通２丁目４７番８号,,01,202,0410851,,,2023-12-07,清算の結了等,,,2015-10-05,1,,,,,ジョイントコウギョウ,0
1550,5490005006303,登記記録の閉鎖等,0,2023-12-12,2023-12-07,一般社団法人こうち健康・省エネ住宅推進協議会,,その他の設立登記法人,高知県,高知市,愛宕町２丁目４番９号,,39,201,7800051,,,2023-12-07,清算の結了等,,,2015-10-05,1,,,,,コウチケンコウショウエネジュウタクスイシンキョウギカイ,0
1552,5500002020387,登記記録の閉鎖等,0,2023-12-12,2023-12-08,有限会社コウソウ,,有限会社,愛媛県,今治市,石井町４丁目１番１３号,,38,202,7940006,,,2023-12-08,清算の結了等,,,2015-10-05,1,,,,,コウソウ,0
1553,5500005000378,登記記録の閉鎖等,0,2023-12-12,2023-11-17,天理教大峰台分教会,,その他の設立登記法人,愛媛県,松山市,衣山５丁目２３番地２,,38,201,7918025,,,2023-11-17,合併による解散等,9500005000382,令和５年１１月１７日愛媛県松山市由良町１２６２番地天理教興居島分教会（9500005000382）に合併し解散,2015-10-05,1,,,,,,0
1555,6010001001817,登記記録の閉鎖等,0,2023-12-12,2023-12-07,株式会社柏屋本店,,株式会社,東京都,港区,新橋５丁目１４番１０号,,13,103,1050004,,,2023-12-07,合併による解散等,6290001031951,令和５年１１月３０日福岡市中央区地行浜二丁目２番２号ＳＢギフト株式会社（6290001031951）に合併し解散,2015-10-05,1,,,,,カシワヤホンテン,0
1599,6010602020991,登記記録の閉鎖等,0,2023-12-12,2023-12-05,有限会社ケイワン・ライン,,有限会社,東京都,墨田区,墨田３丁目１１番６号,,13,107,1310031,,,2023-12-05,清算の結了等,,,2015-10-05,1,,,,,ケイワンライン,0
1602,6010701001967,登記記録の閉鎖等,0,2023-12-12,2023-12-07,音響設備工事株式会社,,株式会社,東京都,品川区,東大井１丁目４番２３号,,13,109,1400011,,,2023-12-07,清算の結了等,,,2015-10-05,1,,,,,オンキョウセツビコウジ,0
1632,6011301007099,登記記録の閉鎖等,0,2023-12-12,2023-12-04,株式会社茂木電機,,株式会社,東京都,杉並区,下高井戸３丁目３２番３３号,,13,115,1680073,,,2023-12-04,清算の結了等,,,2015-10-05,1,,,,,,0
1633,6011303001884,登記記録の閉鎖等,0,2023-12-12,2023-11-30,合同会社Ｃｙａｎ,,合同会社,東京都,杉並区,和泉３丁目６３番１１号,,13,115,1680063,,,2023-11-30,清算の結了等,,,2015-10-05,1,,,,,,0
1646,6013303002466,登記記録の閉鎖等,0,2023-12-12,2023-12-01,合同会社アンド・ユー,,合同会社,東京都,豊島区,高松１丁目１５番３号エクセル藍４Ｆ,,13,116,1710042,,,2023-12-01,清算の結了等,,,2015-10-05,1,,,,,,0
1648,6020001041011,登記記録の閉鎖等,0,2023-12-12,2023-12-06,大信貿易株式会社横浜,,株式会社,神奈川県,横浜市西区,平沼１丁目１９番１５号,,14,103,2200023,,,2023-12-06,清算の結了等,,,2015-10-05,1,,,,,ダイシンボウエキヨコハマ,0
1657,6020002028172,登記記録の閉鎖等,0,2023-12-12,2023-12-07,有限会社松浦材木店,,有限会社,神奈川県,横浜市神奈川区,菅田町７６８番地１,,14,102,2210864,,,2023-12-07,清算の結了等,,,2015-10-05,1,,,,,マツウラザイモクテン,0
1662,6020003023528,登記記録の閉鎖等,0,2023-12-12,2023-12-06,かわうそのいえ合同会社,,合同会社,神奈川県,川崎市宮前区,宮前平２丁目３－３ライオンズガーデン宮前平５０８,,14,136,2160006,,,2023-12-06,清算の結了等,,,2023-03-16,1,,,,,カワウソノイエ,0
1666,6021001052411,登記記録の閉鎖等,0,2023-12-12,2023-12-08,株式会社ＤＲＥＡＭＩＮ,,株式会社,神奈川県,横須賀市,秋谷１丁目５番２１号,,14,201,2400105,,,2023-12-08,清算の結了等,,,2015-10-05,1,,,,,ドリーミン,0
1680,6030002076492,登記記録の閉鎖等,0,2023-12-12,2023-12-05,有限会社小口組,,有限会社,埼玉県,ふじみ野市,西１丁目１４番２４号プリムローズ上福岡４０６号,,11,245,3560005,,,2023-12-05,清算の結了等,,,2015-10-05,1,,,,,コグチグミ,0
1681,6030002091327,登記記録の閉鎖等,0,2023-12-12,2023-12-06,有限会社ヤングリーフ,,有限会社,埼玉県,越谷市,大字袋山６８１番地２,,11,222,3430032,,,2023-12-06,清算の結了等,,,2015-10-05,1,,,,,ヤングリーフ,0
1683,6030003022504,登記記録の閉鎖等,0,2023-12-12,2023-12-06,アイ合同会社,,合同会社,埼玉県,和光市,白子３丁目３１番５－６１０号あかるハイム１７,,11,229,3510101,,,2023-12-06,清算の結了等,,,2023-09-14,1,,,,,アイ,0
1688,6040001000428,登記記録の閉鎖等,0,2023-12-12,2023-12-05,アライ建物株式会社,,株式会社,千葉県,千葉市緑区,おゆみ野南５丁目２３番地７,,12,105,2660033,,,2023-12-05,清算の結了等,,,2015-10-05,1,,,,,アライタテモノ,0
1728,6120001127345,登記記録の閉鎖等,0,2023-12-12,2023-11-30,株式会社きずな,,株式会社,大阪府,大阪市天王寺区,石ケ辻町１８番１５号,00029073,27,109,5430031,,,2023-11-30,清算の結了等,,,2015-10-05,1,,,,,キズナ,0
1761,6130002015515,登記記録の閉鎖等,0,2023-12-12,2023-12-08,有限会社アクセント,,有限会社,京都府,京都市中京区,東洞院通蛸薬師下る元竹田町６３３番地,00037440,26,104,6048145,,,2023-12-08,清算の結了等,,,2015-10-05,1,,,,,アクセント,0
1764,6140001036692,登記記録の閉鎖等,0,2023-12-12,2023-12-06,吉田機械工具株式会社,,株式会社,兵庫県,三木市,福井３丁目３番８号,,28,215,6730433,,,2023-12-06,清算の結了等,,,2015-10-05,1,,,,,ヨシダキカイコウグ,0
1769,6140002037021,登記記録の閉鎖等,0,2023-12-12,2023-12-05,有限会社産機設備,,有限会社,兵庫県,高砂市,北浜町牛谷３２６番地の２１,,28,216,6710121,,,2023-12-05,清算の結了等,,,2015-10-05,1,,,,,サンキセツビ,0
1785,6180002041267,登記記録の閉鎖等,0,2023-12-12,2023-12-05,有限会社晶栄設備住宅,,有限会社,愛知県,名古屋市北区,楠味鋺２丁目１０２２番地の１,,23,103,4620014,,,2023-12-05,清算の結了等,,,2015-10-05,1,,,,,ショウエイセツビジュウタク,0
1791,6180301016440,登記記録の閉鎖等,0,2023-12-12,2023-12-07,株式会社エコファミリー,,株式会社,愛知県,知立市,逢妻町八幡３番地１１,,23,225,4720021,,,2023-12-07,清算の結了等,,,2015-10-05,1,,,,,エコファミリー,0
1795,6180302009328,登記記録の閉鎖等,0,2023-12-12,2023-12-06,株式会社ＩＤ－ｃｒａｆｔ,,株式会社,愛知県,豊橋市,植田町字西ノ山４３番地,,23,201,4418134,,,2023-12-06,清算の結了等,,,2015-10-05,1,,,,,アイディークラフト,0
1801,6200001025656,登記記録の閉鎖等,0,2023-12-12,2023-12-08,株式会社光,,株式会社,岐阜県,高山市,山田町７７７番地２０,,21,203,5060058,,,2023-12-08,清算の結了等,,,2015-10-05,1,,,,,ヒカリ,0
1804,6200001034599,登記記録の閉鎖等,0,2023-12-12,2023-12-11,上石津工業株式会社,,株式会社,岐阜県,大垣市,上石津町前ケ瀬４４番地,,21,202,5031631,,,2023-12-11,清算の結了等,,,2017-11-08,1,,,,,カミイシヅコウギョウ,0
1809,6230002005357,登記記録の閉鎖等,0,2023-12-12,2023-12-11,有限会社マエヤマ自動車,,有限会社,富山県,富山市,田畠１６３番地３,,16,201,9301331,,,2023-12-11,清算の結了等,,,2015-10-05,1,,,,,マエヤマジドウシャ,0
1815,6240002035725,登記記録の閉鎖等,0,2023-12-12,2023-12-08,有限会社資誠堂,,有限会社,広島県,呉市,豊町大長４９７０番地,,34,202,7340301,,,2023-12-08,清算の結了等,,,2015-10-05,1,,,,,シセイドウ,0
1818,6260002033223,登記記録の閉鎖等,0,2023-12-12,2023-12-11,松岡織物有限会社,,有限会社,岡山県,玉野市,長尾８１８番地,,33,204,7060151,,,2023-12-11,清算の結了等,,,2015-10-05,1,,,,,マツオカオリモノ,0
1826,6290001045316,登記記録の閉鎖等,0,2023-12-12,2023-11-30,旭川産業株式会社,,株式会社,福岡県,飯塚市,鯰田１３４３番地の２,,40,205,8200001,,,2023-11-30,清算の結了等,,,2015-10-05,1,,,,,アサヒカワサンギョウ,0
1834,6290801007845,登記記録の閉鎖等,0,2023-12-12,2023-12-08,株式会社こはら,,株式会社,福岡県,北九州市小倉北区,篠崎２丁目４６番６－３０７号,,40,106,8030861,,,2023-12-08,清算の結了等,,,2015-10-05,1,,,,,コハラ,0
1862,6390001014896,登記記録の閉鎖等,0,2023-12-12,2023-12-05,株式会社ＡＢＳ,,株式会社,山形県,山形市,花楯２丁目１４番４５号,,06,201,9900067,,,2023-12-05,清算の結了等,,,2017-04-26,1,,,,,エービーエス,0
1865,6410001004812,登記記録の閉鎖等,0,2023-12-12,2023-11-30,株式会社堀内工務店,,株式会社,秋田県,由利本荘市,浜三川字狐森６２番地,,05,210,0150031,,,2023-11-30,清算の結了等,,,2015-10-05,1,,,,,ホリウチコウムテン,0
1867,6430001019866,登記記録の閉鎖等,0,2023-12-12,2023-12-05,札幌共同食糧株式会社,,株式会社,北海道,札幌市手稲区,手稲本町一条３丁目３番３号,,01,109,0060021,,,2023-12-05,清算の結了等,,,2015-10-05,1,,,,,サッポロキョウドウショクリョウ,0
1889,6700150085021,登記記録の閉鎖等,0,2023-12-12,2023-12-06,フジオフランチャイズ先持株会,,その他,大阪府,大阪市北区,菅原町２番１６号ＦＵＪＩＯ　ＢＬＤＧ．,,27,127,5300046,,,2023-12-06,その他の清算の結了等,,,2017-09-05,1,,,,,フジオフランチャイズサキモチカブカイ,0
1911,7010401097066,登記記録の閉鎖等,0,2023-12-12,2023-12-05,株式会社貴泉堂,,株式会社,東京都,港区,南青山５丁目４番３０号,,13,103,1070062,,,2023-12-05,清算の結了等,,,2015-10-05,1,,,,,キセンドウ,0
1927,7010501039884,登記記録の閉鎖等,0,2023-12-12,2023-12-08,Ｇ・ネットワークシステム株式会社,,株式会社,神奈川県,相模原市緑区,下九沢２０３２番地６１,,14,151,2520134,,,2023-12-08,清算の結了等,,,2016-08-03,1,,,,,ジーネットワークシステム,0
1930,7010602017319,登記記録の閉鎖等,0,2023-12-12,2023-12-04,有限会社斎藤商店,,有限会社,東京都,江東区,亀戸３丁目１番９号,,13,108,1360071,,,2023-12-04,清算の結了等,,,2015-10-05,1,,,,,サイトウショウテン,0
1932,7010701037226,登記記録の閉鎖等,0,2023-12-12,2023-12-07,株式会社ヴァン・トロア,,株式会社,東京都,品川区,旗の台２丁目１３番１１号,,13,109,1420064,,,2023-12-07,清算の結了等,,,2019-03-07,1,,,,,ヴァントロア,0
1933,7010701041888,登記記録の閉鎖等,0,2023-12-12,2023-12-05,株式会社こだわり塾,,株式会社,東京都,品川区,北品川５丁目５－１５大崎ブライトコア４階,,13,109,1410001,,,2023-12-05,清算の結了等,,,2021-12-07,1,,,,,コダワリジュク,0
1941,7011001009147,登記記録の閉鎖等,0,2023-12-12,2023-11-28,三仁商亊株式会社,,株式会社,東京都,渋谷区,東２丁目１７番９号,,13,113,1500011,,,2023-11-28,清算の結了等,,,2015-10-05,1,,,,,サンジンショウジ,0
1944,7011001138359,登記記録の閉鎖等,0,2023-12-12,2023-12-06,株式会社ｓｉｓｍｙ,,株式会社,東京都,目黒区,青葉台３丁目６番２８ラ・トゥール青葉台３１０２,,13,110,1530042,,,2023-12-06,清算の結了等,,,2021-02-10,1,,,,,シスミー,0
1964,7011301015043,登記記録の閉鎖等,0,2023-12-12,2023-12-05,株式会社アガール・アガール貿易,,株式会社,東京都,杉並区,西荻北２丁目２８－９,,13,115,1670042,,,2023-12-05,清算の結了等,,,2015-10-05,1,,,,,アガールアガールボウエキ,0
1972,7011801039533,登記記録の閉鎖等,0,2023-12-12,2023-12-06,株式会社ライフステップ,,株式会社,東京都,足立区,梅島３丁目６番１２号,,13,121,1210816,,,2023-12-06,清算の結了等,,,2021-08-04,1,,,,,ライフステップ,0
1983,7012703001564,登記記録の閉鎖等,0,2023-12-12,2023-12-04,合同会社エムズプランニング,,合同会社,東京都,小平市,上水南町１丁目３１番４６－９号,,13,211,1870021,,,2023-12-04,清算の結了等,,,2017-12-28,1,,,,,エムズプランニング,0
1987,7013101005843,登記記録の閉鎖等,0,2023-12-12,2023-12-08,株式会社華山,,株式会社,東京都,西多摩郡瑞穂町,箱根ケ崎東松原２１番地３,,13,303,1901222,,,2023-12-08,清算の結了等,,,2015-10-05,1,,,,,,0
1988,7013301016062,登記記録の閉鎖等,0,2023-12-12,2023-12-04,マスラー株式会社,,株式会社,東京都,豊島区,池袋２丁目２３番２３号,,13,116,1710014,,,2023-12-04,清算の結了等,,,2015-10-05,1,,,,,マスラー,0
1993,7013302008637,登記記録の閉鎖等,0,2023-12-12,2023-12-06,有限会社深田商店,,有限会社,東京都,豊島区,西池袋３丁目１２番７号,,13,116,1710021,,,2023-12-06,清算の結了等,,,2015-10-05,1,,,,,フカダショウテン,0
1994,7013302018074,登記記録の閉鎖等,0,2023-12-12,2023-12-07,有限会社大久保商事,,有限会社,東京都,豊島区,南大塚１丁目５２番４号,,13,116,1700005,,,2023-12-07,清算の結了等,,,2015-10-05,1,,,,,オオクボショウジ,0
2001,7021001051998,登記記録の閉鎖等,0,2023-12-12,2023-12-06,株式会社ＳＲＳ,,株式会社,神奈川県,相模原市中央区,東淵野辺３丁目７番１４－１１３号,,14,152,2520203,,,2023-12-06,清算の結了等,,,2015-10-05,1,,,,,エスアールエス,0
2003,7021002040059,登記記録の閉鎖等,0,2023-12-12,2023-12-07,有限会社インテリアヌマサキ,,有限会社,神奈川県,大和市,福田１８６７番地,,14,213,2420024,,,2023-12-07,清算の結了等,,,2015-10-05,1,,,,,インテリアヌマサキ,0
2049,7100002007877,登記記録の閉鎖等,0,2023-12-12,2023-12-05,有限会社拓人,,有限会社,長野県,長野市,松代町小島田３５５５番地２,,20,201,3811213,,,2023-12-05,清算の結了等,,,2015-10-05,1,,,,,タクト,0
2063,7120001020747,登記記録の閉鎖等,0,2023-12-12,2023-12-07,株式会社田中梱包工業所,,株式会社,大阪府,大阪市中央区,玉造２丁目１８番１７号,,27,128,5400004,,,2023-12-07,清算の結了等,,,2015-10-05,1,,,,,タナカコンポウコウギョウショ,0
2077,7120101004732,登記記録の閉鎖等,0,2023-12-12,2023-12-08,徳栄生コン株式会社,00032158,株式会社,大阪府,堺市堺区,霞ヶ丘町１丁２番６号,,27,141,5900812,,,2023-12-08,清算の結了等,,,2015-10-05,1,,,,,トクエイナマコン,0
2088,7122001018969,登記記録の閉鎖等,0,2023-12-12,2023-12-08,株式会社創造科学研究所,,株式会社,大阪府,八尾市,美園町４丁目７０番地の３,,27,212,5810818,,,2023-12-08,清算の結了等,,,2015-10-05,1,,,,,ソウゾウカガクケンキュウショ,0
2091,7130001012537,登記記録の閉鎖等,0,2023-12-12,2023-12-08,木戸自動車工業株式会社,,株式会社,京都府,京都市山科区,勧修寺西北出町２番地,,26,110,6078225,,,2023-12-08,清算の結了等,,,2015-10-05,1,,,,,キドジドウシャコウギョウ,0
2111,7160002008928,登記記録の閉鎖等,0,2023-12-12,2023-12-08,有限会社パートナーシップ,,有限会社,滋賀県,甲賀市,水口町名坂１１２９番地３,,25,209,5280035,,,2023-12-08,清算の結了等,,,2015-10-05,1,,,,,パートナーシップ,0
2121,7180002080140,登記記録の閉鎖等,0,2023-12-12,2023-12-08,有限会社ティー・ネット,,有限会社,愛知県,一宮市,末広２丁目２６番２１号モアグレース末広ＩＩ８０３号,00073471,23,203,4910918,,,2023-12-08,清算の結了等,,,2015-10-05,1,,,,,ティーネット,0
2123,7180301014204,登記記録の閉鎖等,0,2023-12-12,2023-12-08,株式会社大弘,,株式会社,愛知県,刈谷市,小垣江町須賀１４５番地,,23,210,4480813,,,2023-12-08,清算の結了等,,,2015-10-05,1,,,,,,0
2124,7180301035902,登記記録の閉鎖等,0,2023-12-12,2023-12-04,株式会社にゃーにゃー,,株式会社,愛知県,豊川市,御油町木ノ下１６番地,,23,207,4410211,,,2023-12-04,清算の結了等,,,2022-02-04,1,,,,,ニャーニャー,0
2136,7200002001845,登記記録の閉鎖等,0,2023-12-12,2023-12-08,有限会社三愛ランドリー,,有限会社,岐阜県,岐阜市,長良宮口町３丁目１７番地,,21,201,5020027,,,2023-12-08,清算の結了等,,,2015-10-05,1,,,,,サンアイランドリー,0
2142,7220001017337,登記記録の閉鎖等,0,2023-12-12,2023-12-11,青山繊維株式会社,,株式会社,石川県,かほく市,高松ツ７４番地,,17,209,9291215,,,2023-12-11,清算の結了等,,,2015-10-05,1,,,,,アオヤマセンイ,0
2149,7240002032837,登記記録の閉鎖等,0,2023-12-12,2023-12-08,有限会社広栄機工,,有限会社,広島県,呉市,広文化町２３番２３号,,34,202,7370114,,,2023-12-08,清算の結了等,,,2015-10-05,1,,,,,コウエイキコウ,0
2162,7290005010827,登記記録の閉鎖等,0,2023-12-12,2023-12-05,医療法人牛嶋産婦人科クリニック,,その他の設立登記法人,福岡県,小郡市,小板井４９４番地１,,40,216,8380143,,,2023-12-05,清算の結了等,,,2015-10-05,1,,,,,ウシジマサンフジンカクリニック,0
2167,7300001008518,登記記録の閉鎖等,0,2023-12-12,2023-12-08,株式会社ファイズ,,株式会社,佐賀県,佐賀市,神野西３丁目１２番１４号,,41,201,8400805,,,2023-12-08,清算の結了等,,,2015-10-05,1,,,,,ファイズ,0
2168,7300001010192,登記記録の閉鎖等,0,2023-12-12,2023-12-06,ＢＦ・ＴＥＣ株式会社,,株式会社,大阪府,大阪市中央区,北浜３丁目１番１８号,,27,128,5410041,,,2023-12-06,清算の結了等,,,2015-12-22,1,,,,,ビーエフテック,0
2173,7320001014828,登記記録の閉鎖等,0,2023-12-12,2023-12-11,松本農園株式会社,,株式会社,大分県,佐伯市,大字鶴望２８１１番地２,,44,205,8760012,,,2023-12-11,清算の結了等,,,2016-04-01,1,,,,,マツモトノウエン,0
2189,7400501000039,登記記録の閉鎖等,0,2023-12-12,2023-12-04,株式会社岩手コンピューターサービス,,株式会社,岩手県,一関市,新大町７７番地,,03,209,0210883,,,2023-12-04,清算の結了等,,,2015-10-05,1,,,,,イワテコンピューターサービス,0
2194,7430001012630,登記記録の閉鎖等,0,2023-12-12,2023-12-06,株式会社日建プラン,,株式会社,北海道,札幌市北区,北十五条西３丁目１番１８,,01,102,0010015,,,2023-12-06,清算の結了等,,,2015-10-05,1,,,,,ニッケンプラン,0
2204,7440002003710,登記記録の閉鎖等,0,2023-12-12,2023-12-07,有限会社日高商事,,有限会社,北海道,函館市,富岡町１丁目１３番４号,,01,202,0410811,,,2023-12-07,清算の結了等,,,2015-10-05,1,,,,,ヒダカショウジ,0
2215,7480001006438,登記記録の閉鎖等,0,2023-12-12,2023-12-11,ワイズ経営サポート株式会社,,株式会社,徳島県,鳴門市,撫養町木津４１２番地４,,36,202,7720004,,,2023-12-11,清算の結了等,,,2015-10-05,1,,,,,ワイズケイエイサポート,0
2216,7480001007857,登記記録の閉鎖等,0,2023-12-12,2023-12-08,ＪＡアグリみよし株式会社,,株式会社,徳島県,三好郡東みよし町,足代２７３５番地１,,36,489,7712502,,,2023-12-08,清算の結了等,,,2015-10-05,1,,,,,ジェイエイアグリミヨシ,0
2217,7480002002700,登記記録の閉鎖等,0,2023-12-12,2023-12-11,有限会社大豊建設,,有限会社,徳島県,徳島市,上八万町広田３２６番地８,,36,201,7708040,,,2023-12-11,清算の結了等,,,2015-10-05,1,,,,,オオトヨケンセツ,0
2243,8010401159815,登記記録の閉鎖等,0,2023-12-12,2023-12-04,株式会社バイク王ダイレクト,,株式会社,東京都,世田谷区,若林３丁目１５番４号,,13,112,1540023,,,2023-12-04,合併による解散等,4011001034569,令和５年１２月１日東京都世田谷区若林三丁目１５番４号株式会社バイク王＆カンパニー（4011001034569）に合併し解散,2021-04-28,1,,,,,バイクオウダイレクト,0
2244,8010401163379,登記記録の閉鎖等,0,2023-12-12,2023-12-05,株式会社Ｔｅｃｈ　Ｇｉｒａｆｆｅ,,株式会社,東京都,港区,赤坂８丁目４－１４青山タワープレイス８Ｆ,,13,103,1070052,,,2023-12-05,清算の結了等,,,2021-10-21,1,,,,,テックジラフ,0
2250,8010403025750,登記記録の閉鎖等,0,2023-12-12,2023-12-06,ソーラーパッション３合同会社,,合同会社,東京都,港区,虎ノ門３丁目２２番１０－２０１号,,13,103,1050001,,,2023-12-06,清算の結了等,,,2021-07-20,1,,,,,ソーラーパッションスリー,0
2268,8011001050298,登記記録の閉鎖等,0,2023-12-12,2023-12-08,株式会社コアアプリ,,株式会社,東京都,渋谷区,恵比寿西１丁目９番６号アストゥルビル４階,,13,113,1500021,,,2023-12-08,清算の結了等,,,2015-10-05,1,,,,,コアアプリ,0
2299,8011801027347,登記記録の閉鎖等,0,2023-12-12,2023-12-08,株式会社後藤製作所,,株式会社,東京都,足立区,鹿浜１丁目２０番６号,,13,121,1230864,,,2023-12-08,合併による解散等,4011501001102,令和５年１２月１日東京都北区上十条三丁目１９番２５号協和冷熱工業株式会社（4011501001102）に合併し解散,2015-10-05,1,,,,,ゴトウセイサクショ,0
2303,8012402011822,登記記録の閉鎖等,0,2023-12-12,2023-12-05,有限会社津乃国屋,,有限会社,東京都,調布市,下石原３丁目１９番地２,,13,208,1820034,,,2023-12-05,清算の結了等,,,2015-10-05,1,,,,,ツノクニヤ,0
2330,8020005015595,登記記録の閉鎖等,0,2023-12-12,2023-12-05,税理士法人アイ・ケイ会計,,その他の設立登記法人,神奈川県,横浜市神奈川区,三ツ沢中町６番６号,,14,102,2210851,,,2023-12-05,清算の結了等,,,2022-07-11,1,,,,,アイケイカイケイ,0
2334,8030001010839,登記記録の閉鎖等,0,2023-12-12,2023-11-27,江原商事株式会社,,株式会社,埼玉県,さいたま市浦和区,北浦和１丁目２４番２６号（６１６）,,11,107,3300074,,,2023-11-27,清算の結了等,,,2015-10-05,1,,,,,エハラショウジ,0
2339,8030001065131,登記記録の閉鎖等,0,2023-12-12,2023-12-06,フジビジョン株式会社,,株式会社,埼玉県,越谷市,花田３丁目３番地３０,,11,222,3430015,,,2023-12-06,清算の結了等,,,2015-10-05,1,,,,,フジビジョン,0
2340,8030001090360,登記記録の閉鎖等,0,2023-12-12,2023-12-04,株式会社寿電工,,株式会社,埼玉県,飯能市,大字岩沢７７０番地５,,11,209,3570023,,,2023-12-04,清算の結了等,,,2015-10-05,1,,,,,コトブキデンコウ,0
2363,8080102019312,登記記録の閉鎖等,0,2023-12-12,2023-12-11,有限会社イー・エス・シー,,有限会社,静岡県,伊東市,八幡野１２９１番地の６,,22,208,4130232,,,2023-12-11,清算の結了等,,,2015-10-05,1,,,,,イーエスシー,0
2370,8090002010527,登記記録の閉鎖等,0,2023-12-12,2023-12-11,有限会社向山建設,,有限会社,山梨県,都留市,田野倉５４１番地の１,,19,204,4020001,,,2023-12-11,清算の結了等,,,2015-10-05,1,,,,,ムコウヤマケンセツ,0
2380,8120001115892,登記記録の閉鎖等,0,2023-12-12,2023-12-08,株式会社ＦＢＡ,,株式会社,大阪府,堺市堺区,南庄町２丁２番２－１００１号,,27,141,5900008,,,2023-12-08,清算の結了等,,,2015-10-05,1,,,,,エフビーエー,0
2384,8120001217854,登記記録の閉鎖等,0,2023-12-12,2023-12-08,株式会社至玄,,株式会社,大阪府,大阪市北区,芝田１丁目４番１４号,,27,127,5300012,,,2023-12-08,清算の結了等,,,2018-12-18,1,,,,,シゲン,0
2390,8120002032583,登記記録の閉鎖等,0,2023-12-12,2023-12-11,有限会社文化屋,,有限会社,大阪府,大阪市北区,南扇町７番２号,,27,127,5300052,,,2023-12-11,清算の結了等,,,2015-10-05,1,,,,,ブンカヤ,0
2401,8122001003607,登記記録の閉鎖等,0,2023-12-12,2023-12-08,白銀土地建物株式会社,,株式会社,大阪府,東大阪市,金岡３丁目２５番２９号,,27,227,5770823,,,2023-12-08,清算の結了等,,,2015-10-05,1,,,,,シロガネトチタテモノ,0
2405,8130001003213,登記記録の閉鎖等,0,2023-12-12,2023-12-07,瀬川織物株式会社,,株式会社,京都府,京都市上京区,芦山寺通大宮西入東社町３１１番地,00035124,26,102,6028417,,,2023-12-07,清算の結了等,,,2015-10-05,1,,,,,セガワオリモノ,0
2407,8130001007701,登記記録の閉鎖等,0,2023-12-12,2023-12-06,株式会社京都御所日記本舗,,株式会社,京都府,京都市左京区,浄土寺石橋町３２番地の２,,26,103,6068406,,,2023-12-06,清算の結了等,,,2015-10-05,1,,,,,キョウトゴショニッキホンポ,0
2409,8130001022015,登記記録の閉鎖等,0,2023-12-12,2023-12-06,株式会社二條梅本治療所,,株式会社,京都府,京都市中京区,西ノ京職司町２６番地の７,,26,104,6048381,,,2023-12-06,清算の結了等,,,2015-10-05,1,,,,,ニジョウウメモトチリョウショ,0
2425,8140002012237,登記記録の閉鎖等,0,2023-12-12,2023-12-06,有限会社丸富寢裝店,,有限会社,兵庫県,神戸市兵庫区,荒田町２丁目１８番２０－１０９号,,28,105,6520032,,,2023-12-06,清算の結了等,,,2015-10-05,1,,,,,マルトミシンソウテン,0
2428,8150001022260,登記記録の閉鎖等,0,2023-12-12,2023-12-11,株式会社コスモスプランニング,,株式会社,奈良県,奈良市,中町２０８２番地,,29,201,6310052,,,2023-12-11,清算の結了等,,,2018-05-07,1,,,,,コスモスプランニング,0
2445,8180002025623,登記記録の閉鎖等,0,2023-12-12,2023-12-01,クロバー商事有限会社,,有限会社,愛知県,名古屋市東区,白壁４丁目７９番地の２グランドメゾン白壁櫻明荘３０２号,,23,102,4610011,,,2023-12-01,合併による解散等,2180001058340,令和５年１２月１日名古屋市東区白壁四丁目７９番地の２グランドメゾン白壁櫻明荘３０２号株式会社ナガラコーポレーション（2180001058340）に合併し解散,2015-10-05,1,,,,,クロバーショウジ,0
2458,8190005007808,登記記録の閉鎖等,0,2023-12-12,2023-12-07,長島町楠漁業協同組合,,その他の設立登記法人,三重県,桑名市,長島町新所３２９番地,,24,205,5111101,,,2023-12-07,清算の結了等,,,2015-10-05,1,,,,,ナガシマチョウクス,0
2464,8230001003178,登記記録の閉鎖等,0,2023-12-12,2023-12-08,株式会社宮内工務店,,株式会社,富山県,富山市,大町２７７番地の７,,16,201,9398073,,,2023-12-08,清算の結了等,,,2023-10-31,1,,,,,ミヤウチコウムテン,0
2466,8240001009819,登記記録の閉鎖等,0,2023-12-12,2023-12-07,ピジヨン株式会社,,株式会社,広島県,広島市中区,薬研堀７番７号,,34,101,7300027,,,2023-12-07,清算の結了等,,,2015-10-05,1,,,,,ピジヨン,0
2467,8240001019314,登記記録の閉鎖等,0,2023-12-12,2023-12-08,株式会社岡虎,,株式会社,広島県,広島市中区,袋町７番５号,,34,101,7300036,,,2023-12-08,清算の結了等,,,2015-10-05,1,,,,,,0
2469,8240002002681,登記記録の閉鎖等,0,2023-12-12,2023-12-07,有限会社エルベ,,有限会社,広島県,広島市中区,千田町２丁目１番２９－１０４号,,34,101,7300052,,,2023-12-07,清算の結了等,,,2015-10-05,1,,,,,エルベ,0
2470,8240002010593,登記記録の閉鎖等,0,2023-12-12,2023-12-08,有限会社ツチイ電気工業,,有限会社,広島県,広島市安佐北区,口田南９丁目３０番２号,,34,106,7391733,,,2023-12-08,清算の結了等,,,2015-10-05,1,,,,,ツチイデンキコウギョウ,0
2484,8260005004888,登記記録の閉鎖等,0,2023-12-12,2023-12-08,特定非営利活動法人かんなぎ,,その他の設立登記法人,岡山県,岡山市北区,田中１０６番地１０１,,33,101,7000951,,,2023-12-08,清算の結了等,,,2015-10-05,1,,,,,カンナギ,0
2496,8300001004409,登記記録の閉鎖等,0,2023-12-12,2023-12-08,ＤＳＫエナジー株式会社,,株式会社,佐賀県,武雄市,武雄町大字昭和２１番地１,,41,206,8430023,,,2023-12-08,清算の結了等,,,2015-10-05,1,,,,,ディーエスケーエナジー,0
2501,8340001009890,登記記録の閉鎖等,0,2023-12-12,2023-12-08,屋久島リサイクル株式会社,,株式会社,鹿児島県,熊毛郡屋久島町,志戸子１２７７番地５,,46,505,8914204,,,2023-12-08,清算の結了等,,,2015-10-05,1,,,,,ヤクシマリサイクル,0
2526,8420001015798,登記記録の閉鎖等,0,2023-12-12,2023-12-04,株式会社松山農園,,株式会社,青森県,北津軽郡鶴田町,大字中野字種元２番地２,,02,384,0383514,,,2023-12-04,清算の結了等,,,2017-06-30,1,,,,,マツヤマノウエン,0
2532,8430002062095,登記記録の閉鎖等,0,2023-12-12,2023-12-05,有限会社日信社,,有限会社,北海道,浦河郡浦河町,堺町東１丁目１３番９号,,01,607,0570033,,,2023-12-05,清算の結了等,,,2015-10-05,1,,,,,ニッシンシャ,0
2537,8470002000737,登記記録の閉鎖等,0,2023-12-12,2023-12-06,有限会社アトリヱ社,,有限会社,香川県,高松市,今新町８番地の１０,,37,201,7600043,,,2023-12-06,清算の結了等,,,2015-10-05,1,,,,,アトリエシャ,0
2611,9011101054875,登記記録の閉鎖等,0,2023-12-12,2023-12-07,株式会社ＶＩＤＡ,,株式会社,埼玉県,熊谷市,万平町１丁目３８番地,,11,202,3600034,,,2023-12-07,合併による解散等,5010001123463,令和５年１２月１日東京都中央区銀座二丁目８番１９号株式会社フライヤー（5010001123463）に合併し解散,2015-10-05,1,,,,,ヴィダ,0
2622,9011502004603,登記記録の閉鎖等,0,2023-12-12,2023-12-07,有限会社野倉商店,,有限会社,東京都,北区,滝野川７丁目３３番９号,,13,117,1140023,,,2023-12-07,清算の結了等,,,2015-10-05,1,,,,,ノクラショウテン,0
2625,9011702004337,登記記録の閉鎖等,0,2023-12-12,2023-12-08,有限会社児玉金型,,有限会社,東京都,江戸川区,松江７丁目２７番２１号,,13,123,1320025,,,2023-12-08,清算の結了等,,,2015-10-05,1,,,,,コダマカナガタ,0
2627,9011801017124,登記記録の閉鎖等,0,2023-12-12,2023-12-06,株式会社つくし,,株式会社,東京都,足立区,加賀１丁目１０番３号,,13,121,1230861,,,2023-12-06,清算の結了等,,,2015-10-05,1,,,,,ツクシ,0
2634,9012705001247,登記記録の閉鎖等,0,2023-12-12,2023-12-06,学校法人東京緑ヶ丘学園,,その他の設立登記法人,東京都,東久留米市,学園町１丁目９番２７号,,13,222,2030021,,,2023-12-06,清算の結了等,,,2015-10-05,1,,,,,トウキョウミドリガオカガクエン,0
2640,9020001095541,登記記録の閉鎖等,0,2023-12-12,2023-12-06,株式会社うぇるさぽーと,,株式会社,神奈川県,川崎市高津区,梶ケ谷３丁目１０番地１２,,14,134,2130015,,,2023-12-06,清算の結了等,,,2015-10-05,1,,,,,ウェルサポート,0
2654,9021001044678,登記記録の閉鎖等,0,2023-12-12,2023-12-06,株式会社光商事,,株式会社,神奈川県,横浜市磯子区,杉田１丁目２３番３－３０１号,,14,107,2350033,,,2023-12-06,清算の結了等,,,2015-10-05,1,,,,,,0
2657,9021002020034,登記記録の閉鎖等,0,2023-12-12,2023-12-04,有限会社小型圧送相模,,有限会社,神奈川県,相模原市中央区,東淵野辺４丁目２２番２１－２０９号,,14,152,2520203,,,2023-12-04,清算の結了等,,,2015-10-05,1,,,,,コガタアッソウサガミ,0
2661,9030001092125,登記記録の閉鎖等,0,2023-12-12,2023-12-06,株式会社舞薬局,,株式会社,埼玉県,入間郡三芳町,大字藤久保９６２番地１１,,11,324,3540041,,,2023-12-06,合併による解散等,8011401006008,令和５年１２月１日東京都豊島区東池袋四丁目２４番３号株式会社丸大（8011401006008）に合併し解散,2015-10-05,1,,,,,マイヤッキョク,0
2677,9040001018070,登記記録の閉鎖等,0,2023-12-12,2023-12-05,株式会社トップ,,株式会社,千葉県,市川市,菅野３丁目９番１２号,,12,203,2720824,,,2023-12-05,清算の結了等,,,2015-10-05,1,,,,,トップ,0
2678,9040001064585,登記記録の閉鎖等,0,2023-12-12,2023-12-01,株式会社電園,,株式会社,千葉県,白井市,折立１０６番地７,,12,232,2701404,,,2023-12-01,清算の結了等,,,2015-10-05,1,,,,,デンエン,0
2679,9040001084831,登記記録の閉鎖等,0,2023-12-12,2023-11-28,株式会社七福,,株式会社,千葉県,松戸市,上本郷８５７番地２,,12,207,2710064,,,2023-11-28,清算の結了等,,,2015-10-05,1,,,,,シチフク,0
2689,9050002001933,登記記録の閉鎖等,0,2023-12-12,2023-12-08,有限会社園部板金工業所,,有限会社,茨城県,水戸市,大塚町２５５５番地６,,08,201,3114143,,,2023-12-08,清算の結了等,,,2015-10-05,1,,,,,ソノベバンキンコウギョウジョ,0
2696,9080002015039,登記記録の閉鎖等,0,2023-12-12,2023-12-07,有限会社相友自動車販売,,有限会社,静岡県,牧之原市,勝俣１６２４番地の１,,22,226,4210414,,,2023-12-07,清算の結了等,,,2015-10-05,1,,,,,アイユージドウシャハンバイ,0
2700,9100002036313,登記記録の閉鎖等,0,2023-12-12,2023-12-05,有限会社コバヤシ設計,,有限会社,長野県,飯田市,江戸町１丁目１４番地,,20,205,3950015,,,2023-12-05,清算の結了等,,,2015-10-05,1,,,,,コバヤシセッケイ,0
2716,9120001193104,登記記録の閉鎖等,0,2023-12-12,2023-12-07,株式会社アメジスト,,株式会社,大阪府,大阪市福島区,福島８丁目１８番１６号不二ビル１階,,27,103,5530003,,,2023-12-07,合併による解散等,8130002022435,令和５年１１月１日京都市右京区嵯峨観空寺明水町４８番地１株式会社エバーフリー（8130002022435）に合併し解散,2015-10-05,1,,,,,,0
2739,9120102016972,登記記録の閉鎖等,0,2023-12-12,2023-12-07,中林製綿有限会社,,有限会社,大阪府,富田林市,富田林町７番２０号,,27,214,5840033,,,2023-12-07,清算の結了等,,,2015-10-05,1,,,,,ナカバヤシセイメン,0
2755,9140001044461,登記記録の閉鎖等,0,2023-12-12,2023-12-07,株式会社あだち,,株式会社,兵庫県,加古郡稲美町,六分一１１７９番地の８２,,28,381,6751112,,,2023-12-07,清算の結了等,,,2015-10-05,1,,,,,アダチ,0
2763,9180001152913,登記記録の閉鎖等,0,2023-12-12,2023-12-06,誠商事株式会社,,株式会社,愛知県,名古屋市港区,七反野２丁目１３０７番地の４,,23,111,4550884,,,2023-12-06,清算の結了等,,,2022-09-08,1,,,,,,0
2766,9180302010778,登記記録の閉鎖等,0,2023-12-12,2023-12-06,有限会社大装,,有限会社,愛知県,田原市,姫見台１２５番地,,23,231,4413405,,,2023-12-06,清算の結了等,,,2015-10-05,1,,,,,ダイソウ,0
2787,9240002016482,登記記録の閉鎖等,0,2023-12-12,2023-12-08,有限会社美和電設,,有限会社,広島県,広島市佐伯区,五日市町大字美鈴園３８番地１４,,34,108,7315121,,,2023-12-08,清算の結了等,,,2015-10-05,1,,,,,ミワデンセツ,0
2810,9310001008052,登記記録の閉鎖等,0,2023-12-12,2023-12-08,中央起業株式会社,,株式会社,長崎県,諫早市,金谷町１５番５号,,42,204,8540004,,,2023-12-08,清算の結了等,,,2015-10-05,1,,,,,,0
2816,9330001008637,登記記録の閉鎖等,0,2023-12-12,2023-12-04,株式会社ピア・ファーマシー,,株式会社,熊本県,熊本市中央区,保田窪１丁目２番１３４－４０７号,,43,101,8620926,,,2023-12-04,清算の結了等,,,2015-10-05,1,,,,,ピアファーマシー,0
2822,9340003001936,登記記録の閉鎖等,0,2023-12-12,2023-12-08,宮元プラニング開発合同会社,,合同会社,鹿児島県,鹿児島市,西伊敷４丁目６番５号,,46,201,8900002,,,2023-12-08,清算の結了等,,,2015-10-05,1,,,,,ミヤモトプラニングカイハツ,0
2834,9380002012121,登記記録の閉鎖等,0,2023-12-12,2023-12-06,有限会社ホープ福島,,有限会社,福島県,郡山市,静西２丁目５９番地,,07,203,9630232,,,2023-12-06,清算の結了等,,,2015-10-05,1,,,,,ホープフクシマ,0
2837,9410002001673,登記記録の閉鎖等,0,2023-12-12,2023-12-06,有限会社酒のおがわ,,有限会社,秋田県,秋田市,新藤田字大所４４番地５,,05,201,0100826,,,2023-12-06,清算の結了等,,,2015-10-05,1,,,,,,0
2846,9450001002116,登記記録の閉鎖等,0,2023-12-12,2023-12-11,株式会社東海フーズ,,株式会社,北海道,旭川市,六条通２２丁目右１号,,01,204,0788216,,,2023-12-11,清算の結了等,,,2015-10-05,1,,,,,トウカイフーズ,0
2848,9470005005773,登記記録の閉鎖等,0,2023-12-12,2023-12-08,特定非営利活動法人高松城の復元を進める市民の会,,その他の設立登記法人,香川県,高松市,丸亀町１３番地２（高松丸亀町商店街振興組合内）,,37,201,7600029,,,2023-12-08,清算の結了等,,,2015-10-05,1,,,,,タカマツジョウノフクゲンヲススメルシミンノカイ,0
