sequenceNumber,corporateNumber,process,correct,updateDate,changeDate,name,nameImageId,kind,prefectureName,cityName,streetNumber,addressImageId,prefectureCode,cityCode,postCode,addressOutside,addressOutsideImageId,closeDate,closeCause,successorCorporateNumber,changeCause,assignmentDate,latest,enName,enPrefectureName,enCityName,enAddressOutside,furigana,hihyoji
12,1010001251573,新規,0,2025-01-24,2025-01-24,Ｈｏｓｐｉｔａｌｉｔｙ　Ｐｈｏｔｏｇｒａｐｈｙ株式会社,,株式会社,東京都,中央区,銀座６丁目１３番１６号銀座ＷａｌｌビルＵＣＦ５０１,,13,102,1040061,,,,,,,2025-01-24,1,,,,,ホスピタリティフォトグラフィー,0
13,1010001251607,新規,0,2025-01-24,2025-01-24,株式会社スプラウトマネジメント,,株式会社,東京都,中央区,晴海２丁目３番３０－４７０３号,,13,102,1040053,,,,,,,2025-01-24,1,,,,,スプラウトマネジメント,0
14,1010001251615,新規,0,2025-01-24,2025-01-24,ＵｎｉＯｃｅａｎ株式会社,,株式会社,東京都,中央区,日本橋２丁目１０番地５号Ｇｒａｎｂｉｚ東京日本橋６Ｆ,,13,102,1030027,,,,,,,2025-01-24,1,,,,,ユニオーシャン,0
15,1010001251631,新規,0,2025-01-24,2025-01-24,株式会社五十六,,株式会社,東京都,千代田区,九段南４丁目６番１号,,13,101,1020074,,,,,,,2025-01-24,1,,,,,イソロク,0
16,1010001251680,新規,0,2025-01-24,2025-01-24,Ｓｕｐｅｒｉｏｒ　Ｐｒｏｆｅｓｓｉｏｎａｌｓ株式会社,,株式会社,東京都,中央区,銀座４丁目１３番８号岩藤ビル５階,,13,102,1040061,,,,,,,2025-01-24,1,,,,,スーペリアプロフェッショナルズ,0
17,1010003046195,新規,0,2025-01-24,2025-01-24,ラクーンドリー合同会社,,合同会社,東京都,文京区,弥生２丁目１５番１２－１０３号,,13,105,1130032,,,,,,,2025-01-24,1,,,,,ラクーンドリー,0
18,1010005039437,新規,0,2025-01-24,2025-01-24,一般社団法人ＳＤＯ,,その他の設立登記法人,東京都,文京区,本駒込１丁目２３番１０－１０４号,,13,105,1130021,,,,,,,2025-01-24,1,,,,,エスディーオー,0
33,1010401187558,新規,0,2025-01-24,2025-01-24,ライフケアセキュリティ株式会社,,株式会社,東京都,港区,虎ノ門３丁目５番１５号アルトヴィラ虎ノ門３０１号室,,13,103,1050001,,,,,,,2025-01-24,1,,,,,ライフケアセキュリティ,0
34,1010401187657,新規,0,2025-01-24,2025-01-24,株式会社クオンタムインテレクト,,株式会社,東京都,港区,南青山３丁目１番３６号青山丸竹ビル６Ｆ,,13,103,1070062,,,,,,,2025-01-24,1,,,,,クオンタムインテレクト,0
37,1010403034221,新規,0,2025-01-24,2025-01-24,合同会社ＲＡＹ,,合同会社,東京都,港区,南青山３丁目１番３６号青山丸竹ビル６Ｆ,,13,103,1070062,,,,,,,2025-01-24,1,,,,,レイ,0
38,1010403034246,新規,0,2025-01-24,2025-01-24,Ｓｅｒｉｎ１合同会社,,合同会社,東京都,港区,虎ノ門２丁目６番１号,,13,103,1050001,,,,,,,2025-01-24,1,,,,,セリンワン,0
39,1010405024014,新規,0,2025-01-24,2025-01-24,一般社団法人のぞみ赤栗ソーラー,,その他の設立登記法人,東京都,港区,芝５丁目２９番１９号ＰＭＯ田町ＩＶ８階,00137770,13,103,1080014,,,,,,,2025-01-24,1,,,,,ノゾミアカグリソーラー,0
41,1010601066652,新規,0,2025-01-24,2025-01-24,株式会社ＵＭＩＡＩＬＥ,,株式会社,東京都,墨田区,八広４丁目３６番２１号,,13,107,1310041,,,,,,,2025-01-24,1,,,,,ウミエル,0
42,1010601066660,新規,0,2025-01-24,2025-01-24,株式会社ＨａｎｄｓＯｎ　ＡＩ,,株式会社,東京都,江東区,東陽２丁目３－６－９１４,,13,108,1350016,,,,,,,2025-01-24,1,,,,,ハンズオンエーアイ,0
44,1010701047123,新規,0,2025-01-24,2025-01-24,松印ゴールド株式会社,,株式会社,東京都,品川区,西五反田８丁目１２番１０号,,13,109,1410031,,,,,,,2025-01-24,1,,,,,マツジルシゴールド,0
47,1010801035787,新規,0,2025-01-24,2025-01-24,Ｎｏｌｅｘ株式会社,,株式会社,東京都,大田区,大森西３丁目２８－５コスモリモード大森西２Ｆ－１６,,13,111,1430015,,,,,,,2025-01-24,1,,,,,ノレクス,0
55,1010901056709,新規,0,2025-01-24,2025-01-24,株式会社仮説デザイン,,株式会社,東京都,世田谷区,太子堂４丁目１８番１５号マガザン三軒茶屋２－３Ｆ－３,,13,112,1540004,,,,,,,2025-01-24,1,,,,,カセツデザイン,0
56,1010903009664,新規,0,2025-01-24,2025-01-24,合同会社ずかん,,合同会社,東京都,世田谷区,玉堤１丁目３番１３号,,13,112,1580087,,,,,,,2025-01-24,1,,,,,ズカン,0
85,1011205002671,新規,0,2025-01-24,2025-01-24,行政書士法人やすらぎの道,,その他の設立登記法人,東京都,中野区,丸山１丁目１０－１２,,13,114,1650021,,,,,,,2025-01-24,1,,,,,ヤスラギノミチ,0
91,1011401026763,新規,0,2025-01-24,2025-01-24,株式会社フードワン,,株式会社,東京都,板橋区,西台４丁目３番５－９０３号モアクレスト西台,,13,119,1750045,,,,,,,2025-01-24,1,,,,,フードワン,0
92,1011503006382,新規,0,2025-01-24,2025-01-24,納斯科国際合同会社,,合同会社,東京都,北区,浮間１丁目７－２３兆豊浮間ビル５０２号室,,13,117,1150051,,,,,,,2025-01-24,1,,,,,ノウシカコクサイ,0
93,1011601028386,新規,0,2025-01-24,2025-01-24,株式会社トコロ商事,,株式会社,東京都,練馬区,北町７丁目２０番２６号,,13,120,1790081,,,,,,,2025-01-24,1,,,,,トコロショウジ,0
130,1012401042701,新規,0,2025-01-24,2025-01-24,株式会社グリーンプラム,,株式会社,東京都,府中市,宮西町５丁目２番地１１マーベラス府中西宮町１階,,13,206,1830022,,,,,,,2025-01-24,1,,,,,グリーンプラム,0
148,1021001084285,新規,0,2025-01-24,2025-01-24,株式会社ＴＩＳ,,株式会社,神奈川県,厚木市,鳶尾１丁目１番１４号,,14,212,2430204,,,,,,,2025-01-24,1,,,,,ティーアイエス,0
151,1021003015503,新規,0,2025-01-24,2025-01-24,サクラ合同会社,,合同会社,神奈川県,高座郡寒川町,岡田６丁目７番２２号３階,,14,321,2530105,,,,,,,2025-01-24,1,,,,,サクラ,0
156,1030001164534,新規,0,2025-01-24,2025-01-24,株式会社ＦＡＩＴＨ,,株式会社,埼玉県,川口市,西川口６丁目１３番１２号,,11,203,3320021,,,,,,,2025-01-24,1,,,,,フェイス,0
157,1030001164567,新規,0,2025-01-24,2025-01-24,ＺＥＵＳ　ＡＩ株式会社,,株式会社,埼玉県,さいたま市南区,太田窪５丁目２１－１０－１０３号,,11,108,3360015,,,,,,,2025-01-24,1,,,,,ゼウスエーアイ,0
161,1030003025932,新規,0,2025-01-24,2025-01-24,しまなみ合同会社,,合同会社,埼玉県,戸田市,本町４丁目４－６ＴＢＣ（２２０）,,11,224,3350023,,,,,,,2025-01-24,1,,,,,シマナミ,0
162,1030003025940,新規,0,2025-01-24,2025-01-24,合同会社クリエイターズ・プレイス,,合同会社,埼玉県,狭山市,大字北入曽４３７番地の２８,,11,215,3501315,,,,,,,2025-01-24,1,,,,,クリエイターズプレイス,0
167,1040001137035,新規,0,2025-01-24,2025-01-24,株式会社ココノハ,,株式会社,千葉県,市川市,市川１丁目２６番９－６０１号,,12,203,2720034,,,,,,,2025-01-24,1,,,,,ココノハ,0
168,1040001137101,新規,0,2025-01-24,2025-01-24,株式会社プライムリンク,,株式会社,千葉県,松戸市,五香１丁目３３番地の２９,,12,207,2702213,,,,,,,2025-01-24,1,,,,,プライムリンク,0
339,1060003005394,新規,0,2025-01-24,2025-01-24,ＯＢＩ　ＹＯＧＯ合同会社,,合同会社,栃木県,鹿沼市,千渡字飯岡２２２１番９,,09,205,3220002,,,,,,,2025-01-24,1,,,,,オビヨーゴ,0
340,1060003005403,新規,0,2025-01-24,2025-01-24,キイスノウ合同会社,,合同会社,栃木県,宇都宮市,中岡本町２５７６－１５,,09,201,3291105,,,,,,,2025-01-24,1,,,,,キイスノウ,0
1065,1120001272245,新規,0,2025-01-24,2025-01-24,株式会社キャッチスター,,株式会社,大阪府,大阪市中央区,上町１丁目１６番２７－１９０３号,,27,128,5400005,,,,,,,2025-01-24,1,,,,,キャッチスター,0
1066,1120001272261,新規,0,2025-01-24,2025-01-24,株式会社ＮＥＢＥＬＭＥＥＲ,,株式会社,大阪府,大阪市東住吉区,矢田２丁目２１番１７号,,27,121,5460023,,,,,,,2025-01-24,1,,,,,ネベルミア,0
1082,1120003028455,新規,0,2025-01-24,2025-01-24,合同会社ＫＮＭ,,合同会社,大阪府,大阪市平野区,加美鞍作２丁目６－２,,27,126,5470004,,,,,,,2025-01-24,1,,,,,ケーエヌエム,0
1092,1120901050337,新規,0,2025-01-24,2025-01-24,Ｓｈｉｐｇｏ　Ｊａｐａｎ株式会社,,株式会社,大阪府,豊中市,豊南町西５丁目１番２１の２号,,27,203,5610816,,,,,,,2025-01-24,1,,,,,シップゴージャパン,0
1094,1122001038824,新規,0,2025-01-24,2025-01-24,株式会社ワイ・ツウ・ケイ商事,,株式会社,大阪府,東大阪市,四条町１１番３号,,27,227,5798053,,,,,,,2025-01-24,1,,,,,ワイツウケイショウジ,0
1095,1122001038840,新規,0,2025-01-24,2025-01-24,株式会社ＭＡ,,株式会社,大阪府,八尾市,山賀町５丁目５０－２,,27,212,5810812,,,,,,,2025-01-24,1,,,,,エムエー,0
1100,1130001078848,新規,0,2025-01-24,2025-01-24,株式会社新渡月,,株式会社,京都府,京都市右京区,嵯峨天龍寺造路町２０番地の４０,,26,108,6168384,,,,,,,2025-01-24,1,,,,,シントゲツ,0
1101,1130001078864,新規,0,2025-01-24,2025-01-24,株式会社ｗａｌｋ　ｏｎ,,株式会社,京都府,京都市山科区,大塚高岩１２番地１６６,,26,110,6078122,,,,,,,2025-01-24,1,,,,,ウォークオン,0
1161,1150001027836,新規,0,2025-01-24,2025-01-24,株式会社ＳｔｕｄｉｏＣｈｉ,,株式会社,奈良県,奈良市,学園中５丁目７０６番地の１１フローレスタ学園前３０１号,,29,201,6310035,,,,,,,2025-01-24,1,,,,,スタジオチー,0
1165,1170001018461,新規,0,2025-01-24,2025-01-24,株式会社暁,,株式会社,和歌山県,和歌山市,善明寺４０１番地５,,30,201,6408471,,,,,,,2025-01-24,1,,,,,アカツキ,0
1170,1180001165138,新規,0,2025-01-24,2025-01-24,株式会社だいきち商店,,株式会社,愛知県,名古屋市中区,栄５丁目４番１号,,23,106,4600008,,,,,,,2025-01-24,1,,,,,ダイキチショウテン,0
1183,1220003003935,新規,0,2025-01-24,2025-01-24,合同会社Ｄ．Ｇ．Ｍ．,,合同会社,石川県,白山市,安吉町８５５－３,,17,210,9240843,,,,,,,2025-01-24,1,,,,,ディージーエム,0
1187,1230003002366,新規,0,2025-01-24,2025-01-24,合同会社ぐろべい,,合同会社,富山県,富山市,針原中町４１４番地１,,16,201,9318431,,,,,,,2025-01-24,1,,,,,グロベイ,0
1192,1240001064440,新規,0,2025-01-24,2025-01-24,株式会社イデア,,株式会社,広島県,広島市佐伯区,五日市中央３丁目１番２９号,,34,108,7315128,,,,,,,2025-01-24,1,,,,,イデア,0
1193,1240001064449,新規,0,2025-01-24,2025-01-24,株式会社ＣＲＥＡ　ＷＯＲＫＳ＆ＣＯ．,,株式会社,広島県,広島市西区,井口台３丁目８番１号,,34,104,7330844,,,,,,,2025-01-24,1,,,,,クレアワークスアンドシーオー,0
1194,1240003007034,新規,0,2025-01-24,2025-01-24,ソーセージファミリー合同会社,,合同会社,広島県,広島市南区,西本浦町２番２－２０３号,,34,103,7340045,,,,,,,2025-01-24,1,,,,,ソーセージファミリー,0
1198,1290001108721,新規,0,2025-01-24,2025-01-24,株式会社たなか工務店,,株式会社,福岡県,糸島市,志摩稲葉２９１番地,,40,230,8191315,,,,,,,2025-01-24,1,,,,,タナカコウムテン,0
1202,1290801031222,新規,0,2025-01-24,2025-01-24,株式会社ｉメディックス,,株式会社,福岡県,北九州市若松区,青葉台南２丁目２０番３号,,40,103,8080142,,,,,,,2025-01-24,1,,,,,アイメディックス,0
1203,1290801031230,新規,0,2025-01-24,2025-01-24,エーケイアイ株式会社,,株式会社,福岡県,北九州市小倉南区,東貫３丁目２２番１８号,,40,107,8000224,,,,,,,2025-01-24,1,,,,,エーケイアイ,0
1217,1340001027081,新規,0,2025-01-24,2025-01-24,株式会社オフィスアバンシア,,株式会社,鹿児島県,霧島市,溝辺町麓２０９４－４,,46,218,8996404,,,,,,,2025-01-24,1,,,,,オフィスアバンシア,0
1259,1360003014621,新規,0,2025-01-24,2025-01-24,合同会社ＡＬＬ’Ｓ　ＷＥＬＬ,,合同会社,沖縄県,宜野湾市,我如古１丁目３４番１１号ＡＮＮＥＸ宮,,47,205,9012214,,,,,,,2025-01-24,1,,,,,オールイズウエル,0
1261,1370003006907,新規,0,2025-01-24,2025-01-24,合同会社仙台クラブ,,合同会社,宮城県,仙台市若林区,河原町１丁目３番２２号,,04,103,9840816,,,,,,,2025-01-24,1,,,,,センダイクラブ,0
1268,1380001035056,新規,0,2025-01-24,2025-01-24,株式会社ＡＳＰＩＲＥ,,株式会社,福島県,白河市,東大沼５９ピュアハウスＢ２０１,,07,205,9610813,,,,,,,2025-01-24,1,,,,,アスパイア,0
1323,1450001014507,新規,0,2025-01-24,2025-01-24,ＤＩＸ株式会社,,株式会社,北海道,宗谷郡猿払村,浜鬼志別４２１５番地１４,,01,511,0986222,,,,,,,2025-01-24,1,,,,,ディックス,0
1326,1470003002796,新規,0,2025-01-24,2025-01-24,合同会社Ｌｉｖｉｏ,,合同会社,香川県,高松市,十川西町６４６－６,,37,201,7610433,,,,,,,2025-01-24,1,,,,,,0
1328,1480001012722,新規,0,2025-01-24,2025-01-24,株式会社ストーンハート,,株式会社,徳島県,美馬市,脇町大字脇町６番地２,,36,207,7793610,,,,,,,2025-01-24,1,,,,,ストーンハート,0
1333,1700150023976,新規,0,2025-01-24,2015-10-09,天満交通安全協会,,その他,大阪府,大阪市北区,西天満４丁目７－１　北ビル１号館２０７号室,,27,127,5300047,,,,,,,2015-10-09,1,,,,,テンマコウツウアンゼンキヨウカイ,0
1334,1700150128354,新規,0,2025-01-24,2024-12-23,ガーデンキュレーター協会,,その他,神奈川県,横浜市磯子区,坂下町９－１０－３０２,,14,107,2350003,,,,,,,2024-12-23,1,,,,,ガーデンキユレーターキヨウカイ,0
1335,1700150128949,新規,0,2025-01-24,2025-01-24,ＭＯＴＯＲ　ＮＥＴ　ＥＮＴＥＲＰＲＩＳＥＳ,,外国会社等,千葉県,富里市,立沢新田６１番地３７オフィス５,,12,233,2860215,スリランカ民主社会主義共和国、バドゥッラ、プワクガダムッラ、マヒヤンガナロード、Ｎｏ．２３７／１,,,,,,2025-01-24,1,,,,,モーターネツトエンタープライズ,0
1342,2010001251647,新規,0,2025-01-24,2025-01-24,株式会社ぐんま山育ＤＡＯ,,株式会社,東京都,千代田区,平河町２丁目５番３号,,13,101,1020093,,,,,,,2025-01-24,1,,,,,グンマヤマイクダオ,0
1343,2010001251655,新規,0,2025-01-24,2025-01-24,株式会社ＢＣＪ‐９４,,株式会社,東京都,千代田区,丸の内１丁目１番１号パレスビル５階,,13,101,1000005,,,,,,,2025-01-24,1,,,,,ビーシージェイナインティーフォー,0
1344,2010001251696,新規,0,2025-01-24,2025-01-24,株式会社ＯＤＡＧＡＷＡ,,株式会社,東京都,千代田区,岩本町３丁目１番９号ＮｏｖｅｌＷｏｒｋＩｗａｍｏｔｏｃｈｏ３階,,13,101,1010032,,,,,,,2025-01-24,1,,,,,オダガワ,0
1347,2010003046145,新規,0,2025-01-24,2025-01-24,合同会社ひつ月,,合同会社,東京都,中央区,日本橋室町１丁目１１番１２号日本橋水野ビル７階,,13,102,1030022,,,,,,,2025-01-24,1,,,,,ヒツツキ,0
1348,2010005039436,新規,0,2025-01-24,2025-01-24,一般社団法人ＪＰＣｒｙｐｔｏ‐ＩＳＡＣ,,その他の設立登記法人,東京都,千代田区,内幸町２丁目２番１号日本プレスセンタービル４階,,13,101,1000011,,,,,,,2025-01-24,1,,,,,ジェイピークリプトアイザック,0
1354,2010401187672,新規,0,2025-01-24,2025-01-24,株式会社Ｐｕｎｔ,,株式会社,東京都,港区,南青山２丁目２番１５号ウィン青山９４２,,13,103,1070062,,,,,,,2025-01-24,1,,,,,プント,0
1355,2010401187680,新規,0,2025-01-24,2025-01-24,株式会社ＥＮＴＬＡ,,株式会社,東京都,港区,新橋４丁目１４番１,,13,103,1050004,,,,,,,2025-01-24,1,,,,,エントラ,0
1356,2010401187689,新規,0,2025-01-24,2025-01-24,インフォーカス株式会社,,株式会社,東京都,港区,六本木７丁目７番７号８階,,13,103,1060032,,,,,,,2025-01-24,1,,,,,インフォーカス,0
1357,2010401187714,新規,0,2025-01-24,2025-01-24,Ｅホールディングス株式会社,,株式会社,東京都,港区,六本木１丁目６番１号,,13,103,1060032,,,,,,,2025-01-24,1,,,,,イーホールディングス,0
1359,2010403034220,新規,0,2025-01-24,2025-01-24,Ｕｎｒａｖｅｌ　Ｃａｒｂｏｎ合同会社,,合同会社,東京都,港区,元麻布３丁目１番６号,,13,103,1060046,,,,,,,2025-01-24,1,,,,,アンラベルカーボン,0
1360,2010403034229,新規,0,2025-01-24,2025-01-24,合同会社ＨＩＫＩＤＡＳＨＩ,,合同会社,東京都,港区,港南４丁目２番７－７２０号,,13,103,1080075,,,,,,,2025-01-24,1,,,,,ヒキダシ,0
1361,2010405024005,新規,0,2025-01-24,2025-01-24,ジー・エイ・ワン・レジデンス・セブン特定目的会社,,その他の設立登記法人,東京都,港区,虎ノ門５丁目１番４号,,13,103,1050001,,,,,,,2025-01-24,1,,,,,ジーエイワンレジデンスセブン,0
1370,2010901056708,新規,0,2025-01-24,2025-01-24,株式会社Ｂｌｏｏｍｙ,,株式会社,東京都,世田谷区,太子堂４丁目１８番１５号マガザン三軒茶屋２、３Ｆ－３,,13,112,1540004,,,,,,,2025-01-24,1,,,,,ブルーミー,0
1371,2010903009663,新規,0,2025-01-24,2025-01-24,アトモルテック合同会社,,合同会社,東京都,世田谷区,宮坂１丁目４４－１２－２０２,,13,112,1560051,,,,,,,2025-01-24,1,,,,,アトモルテック,0
1374,2011001167189,新規,0,2025-01-24,2025-01-24,ヴァーブ株式会社,,株式会社,東京都,渋谷区,神南１丁目１１－４ＦＰＧリンクス神南５階,,13,113,1500041,,,,,,,2025-01-24,1,,,,,ヴァーブ,0
1376,2011005010832,新規,0,2025-01-24,2025-01-24,一般社団法人ＳＨＩＰひきこもりと共生社会を考えるネットワーク,,その他の設立登記法人,東京都,渋谷区,渋谷２丁目１９番１９号ワコー宮益坂ビル５階,,13,113,1500002,,,,,,,2025-01-24,1,,,,,シップヒキコモリトキョウセイシャカイヲカンガエルネットワーク,0
1390,2011101110379,新規,0,2025-01-24,2025-01-24,株式会社ＬＥＡＤ　ＢＲＩＤＧＥ,,株式会社,東京都,新宿区,西落合２丁目１０番１２号,,13,104,1610031,,,,,,,2025-01-24,1,,,,,リードブリッジ,0
1394,2011103015436,新規,0,2025-01-24,2025-01-24,合同会社スマイル,,合同会社,東京都,新宿区,百人町２丁目７番１６号,,13,104,1690073,,,,,,,2025-01-24,1,,,,,スマイル,0
1399,2011201026070,新規,0,2025-01-24,2025-01-24,株式会社Ｃｈａｒｉｓ　Ｔｈｒｉｖｅ,,株式会社,東京都,中野区,東中野１丁目１７番７－３０８号,,13,114,1640003,,,,,,,2025-01-24,1,,,,,カリススライブ,0
1404,2011703004094,新規,0,2025-01-24,2025-01-24,合同会社ＶＰＲＴ,,合同会社,東京都,江戸川区,平井３丁目２４－９平井マンション４０３号室,,13,123,1320035,,,,,,,2025-01-24,1,,,,,ヴィーピーアールティー,0
1406,2011801045486,新規,0,2025-01-24,2025-01-24,株式会社キュラスワン,,株式会社,東京都,足立区,綾瀬３丁目９番７号ベルシード綾瀬駅前５０１,,13,121,1200005,,,,,,,2025-01-24,1,,,,,キュラスワン,0
1436,2012703003185,新規,0,2025-01-24,2025-01-24,アルカディア合同会社,,合同会社,東京都,西東京市,北町５丁目１０番１９号,,13,229,2020003,,,,,,,2025-01-24,1,,,,,アルカディア,0
1452,2020003027524,新規,0,2025-01-24,2025-01-24,ＧＲＳ合同会社,,合同会社,神奈川県,横浜市港南区,最戸１丁目１３番２０－１１２号,,14,111,2330008,,,,,,,2025-01-24,1,,,,,ジーアールエス,0
1453,2020003027648,新規,0,2025-01-24,2025-01-24,ＤＢＳ合同会社,,合同会社,神奈川県,川崎市高津区,久本２丁目１１番１－２０６号,,14,134,2130011,,,,,,,2025-01-24,1,,,,,ディービーエス,0
1466,2030001164509,新規,0,2025-01-24,2025-01-24,株式会社Ｃ．Ｃ．Ｃ,,株式会社,埼玉県,所沢市,大字久米１３２０番地の２０,,11,208,3591131,,,,,,,2025-01-24,1,,,,,シーシーシー,0
1467,2030001164525,新規,0,2025-01-24,2025-01-24,株式会社Ｎｅｘｔ,,株式会社,埼玉県,さいたま市大宮区,桜木町２丁目３番地大宮マルイ７階,,11,103,3300854,,,,,,,2025-01-24,1,,,,,ネクスト,0
1468,2030001164533,新規,0,2025-01-24,2025-01-24,榮建設株式会社,,株式会社,埼玉県,八潮市,大字二丁目２３２番地２ガーデンカルム１０３,,11,234,3400811,,,,,,,2025-01-24,1,,,,,サカエケンセツ,0
1476,2040001137125,新規,0,2025-01-24,2025-01-24,株式会社未来リージョナル,,株式会社,千葉県,流山市,東初台３－１１１－１－Ｆ６０３,,12,220,2700100,,,,,,,2025-01-24,1,,,,,ミライリージョナル,0
1477,2040001137133,新規,0,2025-01-24,2025-01-24,遠山株式会社,,株式会社,千葉県,柏市,柏３５９番地２０,,12,217,2770005,,,,,,,2025-01-24,1,,,,,トオヤマ,0
1628,2050003008959,新規,0,2025-01-24,2025-01-24,合同会社カレラ,,合同会社,茨城県,つくば市,松野木９５番地５,,08,220,3050056,,,,,,,2025-01-24,1,,,,,カレラ,0
1635,2060003005402,新規,0,2025-01-24,2025-01-24,合同会社日光インターナショナル,,合同会社,栃木県,日光市,大室３６１番地１８,,09,206,3212332,,,,,,,2025-01-24,1,,,,,ニッコウインターナショナル,0
1636,2070003005764,新規,0,2025-01-24,2025-01-24,ステキ合同会社,,合同会社,群馬県,渋川市,石原１０２１－１重野ビル１Ｆ,,10,208,3770007,,,,,,,2025-01-24,1,,,,,,0
1640,2080105006486,新規,0,2025-01-24,2025-01-24,弁護士法人わかば総合法律事務所,,その他の設立登記法人,静岡県,沼津市,三枚橋町１１－１２アジュールビル２階,,22,203,4100037,,,,,,,2025-01-24,1,,,,,,0
1641,2080401027707,新規,0,2025-01-24,2025-01-24,株式会社酒井土建,,株式会社,静岡県,浜松市中央区,三方原町５０番地の３,,22,138,4338105,,,,,,,2025-01-24,1,,,,,サカイドケン,0
1664,2100003007963,新規,0,2025-01-24,2025-01-24,アルマクリエイション合同会社,,合同会社,長野県,松本市,大手２丁目２番１０―１００１号グランドメゾン松本六九,,20,202,3900874,,,,,,,2025-01-24,1,,,,,アルマクリエイション,0
2316,2120001272137,新規,0,2025-01-24,2025-01-24,ｗｉｌｌｆｕｌ株式会社,,株式会社,大阪府,大阪市中央区,糸屋町１丁目２番１１－２２０５号,,27,128,5400022,,,,,,,2025-01-24,1,,,,,ウィルフル,0
2317,2120001272211,新規,0,2025-01-24,2025-01-24,楽航株式会社,,株式会社,大阪府,大阪市生野区,生野東２丁目３番２４号,,27,116,5440025,,,,,,,2025-01-24,1,,,,,ラクコウ,0
2318,2120001272260,新規,0,2025-01-24,2025-01-24,清尓株式会社,,株式会社,大阪府,大阪市住吉区,清水丘３丁目３番３号,,27,120,5580033,,,,,,,2025-01-24,1,,,,,セイジ,0
2330,2120003028454,新規,0,2025-01-24,2025-01-24,合同会社ネクストクリエイト,,合同会社,大阪府,大阪市北区,梅田１丁目１－３大阪駅前第３ビル２９階１－１－１号室,,27,127,5300001,,,,,,,2025-01-24,1,,,,,ネクストクリエイト,0
2331,2120003028462,新規,0,2025-01-24,2025-01-24,合同会社アイル,,合同会社,大阪府,大阪市住之江区,浜口東３丁目１３番１６－１１０２号,,27,125,5590002,,,,,,,2025-01-24,1,,,,,アイル,0
2346,2120005024749,新規,0,2025-01-24,2025-01-24,一般社団法人見える未来プロジェクト,,その他の設立登記法人,大阪府,大阪市西区,江戸堀２丁目１番１号江戸堀センタービル９階,,27,106,5500002,,,,,,,2025-01-24,1,,,,,ミエルミライプロジェクト,0
2349,2120101070928,新規,0,2025-01-24,2025-01-24,クレット株式会社,,株式会社,大阪府,岸和田市,土生町５丁目３番４６－７０２号,,27,202,5960825,,,,,,,2025-01-24,1,,,,,クレット,0
2350,2120101070936,新規,0,2025-01-24,2025-01-24,Ｇ‐ＡＸＩＳ株式会社,,株式会社,大阪府,南河内郡河南町,大字中７７９番地の３,,27,382,5850031,,,,,,,2025-01-24,1,,,,,ジーアクシス,0
2358,2120901050328,新規,0,2025-01-24,2025-01-24,株式会社ソロル,,株式会社,大阪府,吹田市,五月が丘南３１番１０－１０５号,,27,205,5650832,,,,,,,2025-01-24,1,,,,,ソロル,0
2359,2120901050336,新規,0,2025-01-24,2025-01-24,株式会社Ｎｉｐｐｏｎ　Ｍｉｒａｉ,,株式会社,大阪府,吹田市,豊津町９番１５号日本興業ビル７０１,,27,205,5640051,,,,,,,2025-01-24,1,,,,,ニッポンミライ,0
2360,2122001038823,新規,0,2025-01-24,2025-01-24,株式会社Ｌｉｎｋｓ,,株式会社,大阪府,八尾市,教興寺５丁目１８５番地２１８号室,,27,212,5810874,,,,,,,2025-01-24,1,,,,,リンクス,0
2364,2130001078863,新規,0,2025-01-24,2025-01-24,株式会社福岡久園,,株式会社,京都府,相楽郡和束町,大字原山小字西ノ谷３７番地,,26,365,6191202,,,,,,,2025-01-24,1,,,,,フクオカキュウエン,0
2367,2130003010155,新規,0,2025-01-24,2025-01-24,ＹＫＡオペレーション合同会社,,合同会社,京都府,与謝郡与謝野町,字算所３８６番地５,,26,465,6292402,,,,,,,2025-01-24,1,,,,,ワイケイエーオペレーション,0
2378,2140003021564,新規,0,2025-01-24,2025-01-24,池田マネジメント合同会社,,合同会社,兵庫県,芦屋市,山芦屋町２２番７－１０３号,00137773,28,206,6590082,,,,,,,2025-01-24,1,,,,,イケダマネジメント,0
2433,2150001027835,新規,0,2025-01-24,2025-01-24,秋津ホールディングス株式会社,,株式会社,奈良県,大和郡山市,西町１２７番地の５,,29,203,6391038,,,,,,,2025-01-24,1,,,,,アキツホールディングス,0
2440,2160003003387,新規,0,2025-01-24,2025-01-24,ＬＡＲＩＣＡシー＆シーカンパニー合同会社,,合同会社,滋賀県,栗東市,手原１丁目５番７号,,25,208,5203047,,,,,,,2025-01-24,1,,,,,ラリカシーアンドシーカンパニー,0
2441,2160005011371,新規,0,2025-01-24,2025-01-24,一般社団法人湖国スポーツクラブ,,その他の設立登記法人,滋賀県,草津市,矢橋町２３番地,,25,206,5250066,,,,,,,2025-01-24,1,,,,,ココクスポーツクラブ,0
2449,2180001165095,新規,0,2025-01-24,2025-01-24,株式会社ＳＵＰＥＲ　ＮＯＶＡ,,株式会社,愛知県,名古屋市中川区,戸田ゆたか１丁目１３１７番地,,23,110,4540966,,,,,,,2025-01-24,1,,,,,スーパーノヴァ,0
2450,2180001165120,新規,0,2025-01-24,2025-01-24,株式会社Ｆａｍｉｌｙ　Ｃｒｅｗ,,株式会社,愛知県,名古屋市天白区,塩釜口１丁目６５７番地の２,,23,116,4680073,,,,,,,2025-01-24,1,,,,,ファミリークルー,0
2456,2180003027871,新規,0,2025-01-24,2025-01-24,合同会社ｙｕｋｉｉ,,合同会社,愛知県,名古屋市昭和区,広路町字石坂１６番地の３,,23,107,4660834,,,,,,,2025-01-24,1,,,,,ユキ,0
2457,2180005020924,新規,0,2025-01-24,2025-01-24,一般社団法人愛知あんしんサポート協会,,その他の設立登記法人,愛知県,名古屋市千種区,今池４丁目１６番２７号くどうビル２階,,23,101,4640850,,,,,,,2025-01-24,1,,,,,アイチアンシンサポートキョウカイ,0
2471,2230003002365,新規,0,2025-01-24,2025-01-24,ウェルフェアドリーム合同会社,,合同会社,富山県,富山市,南新町３番２号,,16,201,9300054,,,,,,,2025-01-24,1,,,,,ウェルフェアドリーム,0
2478,2290001108720,新規,0,2025-01-24,2025-01-24,株式会社竹次郎,,株式会社,福岡県,糸島市,本９１３番地,,40,230,8191151,,,,,,,2025-01-24,1,,,,,タケジロウ,0
2483,2340001027080,新規,0,2025-01-24,2025-01-24,株式会社ｍ‐ｐｏｓｔ,,株式会社,鹿児島県,鹿児島市,伊敷台３丁目１４番１７号,,46,201,8900007,,,,,,,2025-01-24,1,,,,,エムポスト,0
2536,2360001034694,新規,0,2025-01-24,2025-01-24,Ｗｅｌｌ‐Ｂｅｉｎｇ株式会社,,株式会社,沖縄県,那覇市,田原２丁目９番地２ヒルズ田原１０１号,,47,201,9010156,,,,,,,2025-01-24,1,,,,,ウェルビング,0
2541,2370001052167,新規,0,2025-01-24,2025-01-24,株式会社ｇｒｅｅｎ．ｔ,,株式会社,宮城県,仙台市宮城野区,中野１丁目４－９－１０８,,04,102,9830013,,,,,,,2025-01-24,1,,,,,グリーンティー,0
2543,2370003006906,新規,0,2025-01-24,2025-01-24,合同会社朗ら朗ら,,合同会社,宮城県,仙台市青葉区,子平町１０番１３－５号,,04,101,9810944,,,,,,,2025-01-24,1,,,,,ホガラホガラ,0
2544,2380001035055,新規,0,2025-01-24,2025-01-24,株式会社ＮＡＧＩ,,株式会社,福島県,福島市,鎌田字一里塚５番地の２２,,07,201,9600102,,,,,,,2025-01-24,1,,,,,ナギ,0
2547,2410003004038,新規,0,2025-01-24,2025-01-24,合同会社アブコレ,,合同会社,秋田県,秋田市,千秋城下町１番１３号,,05,201,0100873,,,,,,,2025-01-24,1,,,,,アブコレ,0
2596,2430001093519,新規,0,2025-01-24,2025-01-24,ＳＦＫＴ００３株式会社,,株式会社,北海道,幌泉郡えりも町,字大和５０１番地,,01,609,0580205,,,,,,,2025-01-24,1,,,,,エスエフケイティーゼロゼロサン,0
2597,2430001093535,新規,0,2025-01-24,2025-01-24,インフィニットビュー株式会社,,株式会社,北海道,札幌市中央区,南一条西６丁目２１番地１,,01,101,0600061,,,,,,,2025-01-24,1,,,,,インフィニットビュー,0
2598,2450001014506,新規,0,2025-01-24,2025-01-24,株式会社カント,,株式会社,北海道,旭川市,中常盤町１丁目２４３４番地の２,,01,204,0700042,,,,,,,2025-01-24,1,,,,,カント,0
2600,2470001020551,新規,0,2025-01-24,2025-01-24,株式会社ｓｏｅｒｕ,,株式会社,香川県,高松市,牟礼町牟礼３１０４番地１,,37,201,7610121,,,,,,,2025-01-24,1,,,,,ソエル,0
2605,2700150128948,新規,0,2025-01-24,2025-01-24,Ｓｈｅｎｚｈｅｎ　ｘｉａｏｈｕｉ　ｋｅｊｉ　ｙｏｕｘｉａｎ　ｇｏｎｇｓｉ,,外国会社等,,,,,,,,２０５，Ｈｕａｆｅｎｇ　Ｎｅｗ　Ｅｎｅｒｇｙ　Ｔｅｃｈｎｏｌｏｇｙ　Ｉｎｄｕｓｔｒｙ　Ｂｕｉｌｄｉｎｇ，Ｆｉｓｈｅｒｙ　Ｃｏｍｍｕｎｉｔｙ，Ｘｉｘｉａｎｇ　Ｓｔｒｅｅｔ，Ｂａｏ’ａｎ　Ｄｉｓｔｒｉｃｔ　Ｓｈｅｎｚｈｅｎ，Ｇｕａｎｇｄｏｎｇ　５１８１０１　ＣＮ,,,,,,2025-01-24,1,,,,,シェンジェンシシァオホイカージヨウシェンゴンスー,0
2609,3010001251654,新規,0,2025-01-24,2025-01-24,株式会社ＢＣＪ‐９３,,株式会社,東京都,千代田区,丸の内１丁目１番１号パレスビル５階,,13,101,1000005,,,,,,,2025-01-24,1,,,,,ビーシージェイナインティースリー,0
2612,3010003046136,新規,0,2025-01-24,2025-01-24,合同会社アワーズ,,合同会社,東京都,千代田区,神田和泉町１番地６－１６ヤマトビル４０５,,13,101,1010024,,,,,,,2025-01-24,1,,,,,アワーズ,0
2613,3010003046144,新規,0,2025-01-24,2025-01-24,合同会社いちなな,,合同会社,東京都,千代田区,神田須田町１丁目７番８号ＶＯＲＴ秋葉原ＩＶ２Ｆ,00137758,13,101,1010041,,,,,,,2025-01-24,1,,,,,イチナナ,0
2615,3010101016494,新規,0,2025-01-24,2025-01-24,株式会社ＳＫ設備工業,,株式会社,東京都,八王子市,下柚木１８０９番地５,,13,201,1920372,,,,,,,2025-01-24,1,,,,,エスケイセツビコウギョウ,0
2618,3010401187705,新規,0,2025-01-24,2025-01-24,株式会社ＩＧ４,,株式会社,東京都,港区,赤坂９丁目７番２号ミッドタウン・イースト４階,,13,103,1070052,,,,,,,2025-01-24,1,,,,,アイジーフォー,0
2619,3010401187762,新規,0,2025-01-24,2025-01-24,ＲＥＭＢＯＥＬＡＮ株式会社,,株式会社,東京都,港区,芝浦３丁目１５番５－３０１号,,13,103,1080023,,,,,,,2025-01-24,1,,,,,レンブラン,0
2622,3010403034228,新規,0,2025-01-24,2025-01-24,グローバルエアロリーシング合同会社,,合同会社,東京都,港区,麻布台２丁目１番２－１００１号,,13,103,1060041,,,,,,,2025-01-24,1,,,,,グローバルエアロリーシング,0
2635,3011001167246,新規,0,2025-01-24,2025-01-24,株式会社ＡＩＲ,,株式会社,東京都,渋谷区,道玄坂１丁目１０番８号渋谷道玄坂東急ビル２Ｆ－Ｃ,,13,113,1500043,,,,,,,2025-01-24,1,,,,,エアー,0
2636,3011001167254,新規,0,2025-01-24,2025-01-24,株式会社ミキ,,株式会社,東京都,渋谷区,恵比寿南１丁目１１－１０プラウド恵比寿南６０２,,13,113,1500022,,,,,,,2025-01-24,1,,,,,ミキ,0
2637,3011001167270,新規,0,2025-01-24,2025-01-24,株式会社ｓｉｏｒ,,株式会社,東京都,渋谷区,道玄坂１丁目１０番８号渋谷道玄坂東急ビル２Ｆ－Ｃ,,13,113,1500043,,,,,,,2025-01-24,1,,,,,シオール,0
2650,3011101110378,新規,0,2025-01-24,2025-01-24,株式会社Ｗｏｒｌｄ　Ｏｎｅ,,株式会社,東京都,新宿区,大久保２丁目１８番１８号,,13,104,1690072,,,,,,,2025-01-24,1,,,,,ワールドワン,0
2651,3011103015435,新規,0,2025-01-24,2025-01-24,ＳＡＦＥＳＴＡＹ合同会社,,合同会社,東京都,新宿区,西新宿３丁目３番１３号西新宿水間ビル６階,,13,104,1600023,,,,,,,2025-01-24,1,,,,,セーフステイ,0
2657,3011105011291,新規,0,2025-01-24,2025-01-24,一般社団法人Ｇｏｏｄ　Ｓｌｅｅｐ協会,,その他の設立登記法人,東京都,新宿区,新宿６丁目２８番７号新宿ＥＡＳＴＣＯＵＲＴ８階,,13,104,1600022,,,,,,,2025-01-24,1,,,,,グッドスリープキョウカイ,0
2658,3011105011317,新規,0,2025-01-24,2025-01-24,一般社団法人ジェイ・エイチ・ヴイ,,その他の設立登記法人,東京都,新宿区,下宮比町１番４号,,13,104,1620822,,,,,,,2025-01-24,1,,,,,ジェイエイチヴイ,0
2665,3011501031587,新規,0,2025-01-24,2025-01-24,雪の韵株式会社,,株式会社,東京都,荒川区,南千住３丁目２７－２浅草ビル５０８,,13,118,1160003,,,,,,,2025-01-24,1,,,,,ユキノイン,0
2668,3011601028384,新規,0,2025-01-24,2025-01-24,トキワコーポレーション株式会社,,株式会社,東京都,練馬区,南大泉６丁目２番６号,,13,120,1780064,,,,,,,2025-01-24,1,,,,,トキワコーポレーション,0
2669,3011603004573,新規,0,2025-01-24,2025-01-24,合同会社サポート７５６,,合同会社,東京都,練馬区,光が丘３丁目９番３－２４０９号,,13,120,1790072,,,,,,,2025-01-24,1,,,,,サポートナナゴロク,0
2670,3011703004093,新規,0,2025-01-24,2025-01-24,山河合同会社,,合同会社,東京都,江戸川区,南小岩２丁目２１－１３大和マンション２０３,,13,123,1330056,,,,,,,2025-01-24,1,,,,,サンガ,0
2672,3011801045485,新規,0,2025-01-24,2025-01-24,株式会社ＧＬＥＡＭ,,株式会社,東京都,葛飾区,堀切２丁目４４番１９号,,13,122,1240006,,,,,,,2025-01-24,1,,,,,グリーム,0
2673,3011801045510,新規,0,2025-01-24,2025-01-24,株式会社ぱるとねる,,株式会社,東京都,足立区,小台２丁目１９番１５号,,13,121,1200046,,,,,,,2025-01-24,1,,,,,パルトネル,0
2694,3012301014237,新規,0,2025-01-24,2025-01-24,ＭＩＲＡ株式会社,,株式会社,東京都,町田市,木曽西５丁目３８番２０号１,,13,209,1940037,,,,,,,2025-01-24,1,,,,,ミラ,0
2699,3012701018671,新規,0,2025-01-24,2025-01-24,株式会社Ａｓａｈｉｎａ　Ｉｓａｍｕ　Ｐｒｏｄｕｃｅ,,株式会社,東京都,東村山市,恩多町２丁目３９番地１９,,13,213,1890011,,,,,,,2025-01-24,1,,,,,アサヒナイサムプロデュース,0
2703,3012703003184,新規,0,2025-01-24,2025-01-24,Ｆ‐ｐｌａｎｎｉｎｇ合同会社,,合同会社,東京都,東村山市,諏訪町３丁目７番地９,,13,213,1890021,,,,,,,2025-01-24,1,,,,,エフプランニング,0
2714,3020001160945,新規,0,2025-01-24,2025-01-24,ＱｕｅｓｔＨＲ株式会社,,株式会社,神奈川県,横浜市神奈川区,金港町５－１４クアドリフォリオ８階,,14,102,2210056,,,,,,,2025-01-24,1,,,,,クエストエイチアール,0
2726,3021001084309,新規,0,2025-01-24,2025-01-24,株式会社幸栄住宅,,株式会社,神奈川県,鎌倉市,手広２丁目８番２６号,,14,204,2480036,,,,,,,2025-01-24,1,,,,,コウエイジュウタク,0
2736,3030003025922,新規,0,2025-01-24,2025-01-24,ＳＵＮ合同会社,,合同会社,埼玉県,富士見市,鶴瀬東２丁目２７番３１,,11,235,3540024,,,,,,,2025-01-24,1,,,,,サン,0
2742,3040001137124,新規,0,2025-01-24,2025-01-24,株式会社Ａチーム,,株式会社,千葉県,柏市,旭町１丁目３－３ＳＫヴィラ２、６０６号室,,12,217,2770852,,,,,,,2025-01-24,1,,,,,エイチーム,0
2743,3040001137132,新規,0,2025-01-24,2025-01-24,和心株式会社,,株式会社,千葉県,千葉市中央区,富士見２丁目４－３－５Ｆ,,12,101,2600015,,,,,,,2025-01-24,1,,,,,ワゴコロ,0
2748,3040003026663,新規,0,2025-01-24,2025-01-24,優星合同会社,,合同会社,千葉県,富里市,七栄１１１－２１８,,12,233,2860221,,,,,,,2025-01-24,1,,,,,ユウセイ,0
2878,3050001056050,新規,0,2025-01-24,2025-01-24,ＹＳ．カンパニー株式会社,,株式会社,茨城県,土浦市,大和町８番５号大内ビル２Ｆ,,08,203,3000036,,,,,,,2025-01-24,1,,,,,ワイエスカンパニー,0
2902,3070001042577,新規,0,2025-01-24,2025-01-24,株式会社フレックスホールディングス,,株式会社,群馬県,高崎市,島野町１１４０番地,,10,202,3700015,,,,,,,2025-01-24,1,,,,,フレックスホールディングス,0
2903,3070003005763,新規,0,2025-01-24,2025-01-24,第一自動車合同会社,,合同会社,群馬県,前橋市,柏倉町１８０９番地３,,10,201,3710246,,,,,,,2025-01-24,1,,,,,,0
2906,3080103003245,新規,0,2025-01-24,2025-01-24,合同会社ステラ不動産,,合同会社,静岡県,富士市,松岡１４９０番地の１２メルベイユ・ヴィルｍａｔｓｕｏｋａＡ号,,22,210,4160909,,,,,,,2025-01-24,1,,,,,,0
3614,3120001272185,新規,0,2025-01-24,2025-01-24,ｍｕｍ株式会社,,株式会社,大阪府,大阪市西区,立売堀４丁目５番２７号シティビル阿波座,,27,106,5500012,,,,,,,2025-01-24,1,,,,,マム,0
3615,3120001272210,新規,0,2025-01-24,2025-01-24,株式会社真誠,,株式会社,大阪府,大阪市西成区,鶴見橋１丁目１５番２７号,,27,122,5570031,,,,,,,2025-01-24,1,,,,,シンセイ,0
3616,3120001272243,新規,0,2025-01-24,2025-01-24,Ｉ　ＫＩＤＳ　ＫＯＲＥＡ株式会社,,株式会社,大阪府,大阪市東淀川区,下新庄４丁目１７番２４号ハイツアヤ３階,,27,114,5330021,,,,,,,2025-01-24,1,,,,,アイキッズコリア,0
3617,3120001272251,新規,0,2025-01-24,2025-01-24,株式会社ＳＭＰ,,株式会社,大阪府,大阪市西成区,千本南１丁目３番２２号,,27,122,5570055,,,,,,,2025-01-24,1,,,,,エスエムピー,0
3626,3120003028445,新規,0,2025-01-24,2025-01-24,合同会社六然,,合同会社,大阪府,大阪市北区,梅田１丁目１－３大阪駅前第３ビル２９階１－１－１号室,,27,127,5300001,,,,,,,2025-01-24,1,,,,,リクゼン,0
3627,3120003028461,新規,0,2025-01-24,2025-01-24,合同会社まじめなあそび,,合同会社,大阪府,大阪市中央区,東高麗橋２‐１２‐３０２,,27,128,5400039,,,,,,,2025-01-24,1,,,,,マジメナアソビ,0
3645,3120101070927,新規,0,2025-01-24,2025-01-24,峰琳軒株式会社,,株式会社,大阪府,堺市堺区,南瓦町１番２０－４０７号,,27,141,5900078,,,,,,,2025-01-24,1,,,,,ホウリンケン,0
3650,3120901050351,新規,0,2025-01-24,2025-01-24,株式会社えいすた,,株式会社,大阪府,池田市,新町２番１４号,,27,204,5630050,,,,,,,2025-01-24,1,,,,,エイスタ,0
3657,3130001078813,新規,0,2025-01-24,2025-01-24,株式会社オンテーブル,,株式会社,京都府,舞鶴市,字倉谷１０４８番地２,,26,202,6240906,,,,,,,2025-01-24,1,,,,,オンテーブル,0
3658,3130001078846,新規,0,2025-01-24,2025-01-24,瑞和株式会社,,株式会社,京都府,京都市上京区,上長者町通松屋町西入須浜東町４５０番地５グレース寿４０３号室,,26,102,6028263,,,,,,,2025-01-24,1,,,,,ズイワ,0
3659,3130001078870,新規,0,2025-01-24,2025-01-24,株式会社ジェイ・エイ・シー・コーポレーション,,株式会社,京都府,京都市中京区,西洞院通錦小路上る古西町４３６番地,,26,104,6048227,,,,,,,2025-01-24,1,,,,,ジェイエイシーコーポレーション,0
3660,3130003010162,新規,0,2025-01-24,2025-01-24,合同会社ＨＹＡＮＧ,,合同会社,京都府,京都市南区,東九条宇賀辺町４３－２,,26,107,6018021,,,,,,,2025-01-24,1,,,,,ヒャン,0
3662,3140003021571,新規,0,2025-01-24,2025-01-24,合同会社鈴倉,,合同会社,兵庫県,神戸市長田区,二葉町２丁目５－１０,,28,106,6530042,,,,,,,2025-01-24,1,,,,,スズクラ,0
3729,3150001027842,新規,0,2025-01-24,2025-01-24,株式会社ひとみる,,株式会社,奈良県,大和高田市,土庫３丁目３３２番地７,,29,202,6350002,,,,,,,2025-01-24,1,,,,,ヒトミル,0
3740,3180001165136,新規,0,2025-01-24,2025-01-24,株式会社Ｌｅｖａｎｔｅ,,株式会社,愛知県,名古屋市中区,橘１丁目１６番４５号,,23,106,4600016,,,,,,,2025-01-24,1,,,,,レバンテ,0
3745,3180003027870,新規,0,2025-01-24,2025-01-24,合同会社Ｑ．Ｅ．Ｄ．,,合同会社,愛知県,清須市,寺野元町２１１番地５,,23,233,4520908,,,,,,,2025-01-24,1,,,,,キューイーディー,0
3750,3180303006434,新規,0,2025-01-24,2025-01-24,合同会社井坂,,合同会社,愛知県,額田郡幸田町,大字深溝字緑台１０９番地,,23,501,4440124,,,,,,,2025-01-24,1,,,,,イサカ,0
3757,3200003006673,新規,0,2025-01-24,2025-01-24,日本トラスティー合同会社,,合同会社,岐阜県,各務原市,小佐野町７丁目１６０番地,,21,213,5040942,,,,,,,2025-01-24,1,,,,,ニホントラスティー,0
3761,3230005009432,新規,0,2025-01-24,2025-01-24,一般社団法人ベビーファースト協会,,その他の設立登記法人,富山県,高岡市,蓮花寺３２番地,,16,202,9330802,,,,,,,2025-01-24,1,,,,,ベビーファーストキョウカイ,0
3763,3240001064422,新規,0,2025-01-24,2025-01-24,株式会社流桜,,株式会社,広島県,広島市中区,新天地５－１２ピーターパンハウス３Ｆ,,34,101,7300034,,,,,,,2025-01-24,1,,,,,リュウオウ,0
3764,3240001064439,新規,0,2025-01-24,2025-01-24,株式会社ＥＢＩＳＵ,,株式会社,広島県,広島市中区,大手町１丁目１番２６号大手町一番ビル３０５,,34,101,7300051,,,,,,,2025-01-24,1,,,,,エビス,0
3765,3240001064447,新規,0,2025-01-24,2025-01-24,株式会社Ｆｌｏｕｒｉｓｈ,,株式会社,広島県,広島市安佐北区,落合南２丁目２３番１０号,,34,106,7391732,,,,,,,2025-01-24,1,,,,,フローリッシュ,0
3768,3260003005042,新規,0,2025-01-24,2025-01-24,合同会社ＳＴＭＳ,,合同会社,岡山県,岡山市北区,平野５４０番地２３,,33,101,7010151,,,,,,,2025-01-24,1,,,,,エスティエムエス,0
3769,3270001009135,新規,0,2025-01-24,2025-01-24,ＴＳＤ株式会社,,株式会社,鳥取県,鳥取市,福部町湯山２１６４番地４４９,,31,201,6890105,,,,,,,2025-01-24,1,,,,,ティーエスディ,0
3771,3280003001915,新規,0,2025-01-24,2025-01-24,合同会社しおん,,合同会社,島根県,浜田市,長沢町２７７番地,,32,202,6970023,,,,,,,2025-01-24,1,,,,,シオン,0
3784,3330001032832,新規,0,2025-01-24,2025-01-24,三匹の子豚株式会社,,株式会社,熊本県,熊本市中央区,南熊本１丁目５番９号,,43,101,8600812,,,,,,,2025-01-24,1,,,,,サンビキノコブタ,0
3828,3360001034669,新規,0,2025-01-24,2025-01-24,株式会社沖東交易,,株式会社,沖縄県,沖縄市,知花４丁目１３番３号山城ビル３Ｆ,,47,211,9042143,,,,,,,2025-01-24,1,,,,,オキトウコウエキ,0
3829,3360001034702,新規,0,2025-01-24,2025-01-24,株式会社Ｔ．Ｐｏｒｔ,,株式会社,沖縄県,中頭郡北谷町,字吉原９５８番地３,,47,326,9040105,,,,,,,2025-01-24,1,,,,,ティーポート,0
3837,3370001052174,新規,0,2025-01-24,2025-01-24,株式会社ＦＩＸ,,株式会社,宮城県,大崎市,鹿島台平渡字西銭神２１番地２,,04,215,9894103,,,,,,,2025-01-24,1,,,,,フィックス,0
3840,3380001035054,新規,0,2025-01-24,2025-01-24,株式会社ＲｅｇｉｏｎａｌＡｇｅｎｔ,,株式会社,福島県,田村市,船引町石森字舘１０８番地,,07,211,9634313,,,,,,,2025-01-24,1,,,,,リージョナルエージェント,0
3888,3480001012720,新規,0,2025-01-24,2025-01-24,株式会社ＳＴ企画,,株式会社,徳島県,徳島市,住吉５丁目２番３６－１号,,36,201,7700861,,,,,,,2025-01-24,1,,,,,エスティーキカク,0
3898,4010001251629,新規,0,2025-01-24,2025-01-24,ＩＳＥＮ株式会社,,株式会社,東京都,千代田区,麹町４丁目１－５麹町志村ビル,,13,101,1020083,,,,,,,2025-01-24,1,,,,,イセン,0
3905,4010401187828,新規,0,2025-01-24,2025-01-24,ラフレクト株式会社,,株式会社,東京都,港区,南青山３丁目１番３６号青山丸竹ビル６Ｆ,,13,103,1070062,,,,,,,2025-01-24,1,,,,,ラフレクト,0
3908,4010403034227,新規,0,2025-01-24,2025-01-24,ｍ８合同会社,,合同会社,東京都,港区,南青山２丁目２番１５号ウィン青山９４２,,13,103,1070062,,,,,,,2025-01-24,1,,,,,メイト,0
3909,4010403034235,新規,0,2025-01-24,2025-01-24,合同会社ＭＦＡ,,合同会社,東京都,港区,虎ノ門５丁目１２番１１号ＮＣＯメトロ神谷町,,13,103,1050001,,,,,,,2025-01-24,1,,,,,エムエフエー,0
3913,4010501053525,新規,0,2025-01-24,2025-01-24,ＩＤコーポレーション株式会社,,株式会社,東京都,台東区,台東１丁目９番４号松浦ビル５階,,13,106,1100016,,,,,,,2025-01-24,1,,,,,アイディコーポレーション,0
3914,4010601066658,新規,0,2025-01-24,2025-01-24,ビジョンパートナーズ株式会社,,株式会社,東京都,墨田区,京島２丁目８番１０号,,13,107,1310046,,,,,,,2025-01-24,1,,,,,ビジョンパートナーズ,0
3917,4010901056689,新規,0,2025-01-24,2025-01-24,株式会社ＹＵＲＰＴＩＯＮ,,株式会社,東京都,世田谷区,北沢２丁目９番１７号,,13,112,1550031,,,,,,,2025-01-24,1,,,,,ユアプション,0
3922,4011001166899,新規,0,2025-01-24,2025-01-24,株式会社ルーキーズ,,株式会社,東京都,渋谷区,恵比寿西２丁目２－９ＳＵＧＡＹＡビル７階,,13,113,1500021,,,,,,,2025-01-24,1,,,,,ルーキーズ,0
3923,4011001167105,新規,0,2025-01-24,2025-01-24,丸幸株式会社,,株式会社,東京都,渋谷区,富ヶ谷１丁目１４番１４号３Ｆ・４Ｆ,,13,113,1510063,,,,,,,2025-01-24,1,,,,,マルコウ,0
3924,4011001167261,新規,0,2025-01-24,2025-01-24,株式会社Ｑｗｏｎ’ｚ,,株式会社,東京都,渋谷区,東１丁目１番３８号,,13,113,1500011,,,,,,,2025-01-24,1,,,,,クォンツ,0
3925,4011001167352,新規,0,2025-01-24,2025-01-24,株式会社ｌｉｆｅ,,株式会社,東京都,渋谷区,桜丘町２３番１７号,,13,113,1500031,,,,,,,2025-01-24,1,,,,,ライフ,0
3926,4011001167377,新規,0,2025-01-24,2025-01-24,株式会社ダブリューディティティ,,株式会社,東京都,渋谷区,神宮前６丁目２３番４号桑野ビル２階,,13,113,1500001,,,,,,,2025-01-24,1,,,,,ダブリューディティティ,0
3928,4011003020848,新規,0,2025-01-24,2025-01-24,合同会社ゆめぴか,,合同会社,東京都,渋谷区,神南１丁目１１番４号ＦＰＧリンクス神南５階,,13,113,1500041,,,,,,,2025-01-24,1,,,,,ユメピカ,0
3938,4011101110352,新規,0,2025-01-24,2025-01-24,株式会社Ａｉｓ　Ｒｏｃｋｅｔ,,株式会社,東京都,新宿区,西落合４丁目２２番１号,,13,104,1610031,,,,,,,2025-01-24,1,,,,,アイスロケット,0
3939,4011101110360,新規,0,2025-01-24,2025-01-24,株式会社ＲＯＣＫ　ＴＯＷＥＲ,,株式会社,東京都,新宿区,新宿１丁目２４番７－４２２号,,13,104,1600022,,,,,,,2025-01-24,1,,,,,ロックタワー,0
3940,4011101110369,新規,0,2025-01-24,2025-01-24,Ｒｙｕｊｉｎ　Ｃｏｎｎｅｃｔ株式会社,,株式会社,東京都,新宿区,新宿１丁目３６番２号新宿第七葉山ビル３階,,13,104,1600022,,,,,,,2025-01-24,1,,,,,リュウジンコネクト,0
3948,4011103015442,新規,0,2025-01-24,2025-01-24,合同会社ネオラボ,,合同会社,東京都,新宿区,西新宿３丁目３番１３号西新宿水間ビル６階,,13,104,1600023,,,,,,,2025-01-24,1,,,,,ネオラボ,0
3953,4011201026077,新規,0,2025-01-24,2025-01-24,美優城ライフサポート株式会社,,株式会社,東京都,中野区,白鷺１丁目４番４－９０９号,,13,114,1650035,,,,,,,2025-01-24,1,,,,,ビユウジョウライフサポート,0
3954,4011501031586,新規,0,2025-01-24,2025-01-24,八達通株式会社,,株式会社,東京都,荒川区,南千住３丁目２７－２浅草ビル５０８,,13,118,1160003,,,,,,,2025-01-24,1,,,,,ハッタツツウ,0
3955,4011701028011,新規,0,2025-01-24,2025-01-24,株式会社ＤｅａｒＦｉｎａｌｌｙ,,株式会社,東京都,江戸川区,南葛西７丁目１番３号メゾンクレールＡ棟１０５,,13,123,1340085,,,,,,,2025-01-24,1,,,,,ディアーファイナリー,0
3956,4011703004101,新規,0,2025-01-24,2025-01-24,合同会社ブライトホーム,,合同会社,東京都,江戸川区,江戸川６丁目２５－１－３０５,,13,123,1340013,,,,,,,2025-01-24,1,,,,,ブライトホーム,0
3957,4011801045492,新規,0,2025-01-24,2025-01-24,ＡＫＩＮＡＳＨＩ株式会社,,株式会社,東京都,葛飾区,西亀有２丁目３９番１８号,,13,122,1240002,,,,,,,2025-01-24,1,,,,,アキナシ,0
3958,4011803006666,新規,0,2025-01-24,2025-01-24,合同会社未来計画,,合同会社,東京都,葛飾区,東四つ木２丁目２７―１―９０４,,13,122,1240014,,,,,,,2025-01-24,1,,,,,ミライケイカク,0
3988,4020001161050,新規,0,2025-01-24,2025-01-24,株式会社ティーチング企画,,株式会社,神奈川県,横浜市緑区,鴨居３丁目２９番３４号井上ハイツ２０３,,14,113,2260003,,,,,,,2025-01-24,1,,,,,ティーチングキカク,0
3994,4020005016688,新規,0,2025-01-24,2025-01-24,社会保険労務士法人ｏｆｆｉｃｅｋ４,,その他の設立登記法人,神奈川県,横浜市中区,山下町９１番地リシェ横浜山下公園７０７号,,14,104,2310023,,,,,,,2025-01-24,1,,,,,,0
4005,4030001164523,新規,0,2025-01-24,2025-01-24,株式会社ＡＲＴ　ＯＦ　ＬＩＦＥ,,株式会社,埼玉県,日高市,大字原宿４５６番地５,,11,242,3501205,,,,,,,2025-01-24,1,,,,,アートオブライフ,0
4006,4030001164531,新規,0,2025-01-24,2025-01-24,株式会社日進,,株式会社,埼玉県,新座市,北野３丁目１３番６号,,11,230,3520003,,,,,,,2025-01-24,1,,,,,ニッシン,0
4007,4030001164597,新規,0,2025-01-24,2025-01-24,株式会社ｐｌｕｓ‐ｋ,,株式会社,埼玉県,さいたま市見沼区,大字大谷１６７６番地２,,11,104,3370014,,,,,,,2025-01-24,1,,,,,プラスケイ,0
4179,4050001056025,新規,0,2025-01-24,2025-01-24,株式会社イコア,,株式会社,茨城県,日立市,鹿島町１丁目７番６号,,08,202,3170071,,,,,,,2025-01-24,1,,,,,イコア,0
4180,4050001056058,新規,0,2025-01-24,2025-01-24,歩株式会社,,株式会社,茨城県,古河市,駒羽根５９２番地１,,08,204,3060221,,,,,,,2025-01-24,1,,,,,アユミ,0
4190,4060001037866,新規,0,2025-01-24,2025-01-24,株式会社ＹＡＤＯ一級建築士事務所,,株式会社,栃木県,鹿沼市,西鹿沼町９８番地３,,09,205,3220073,,,,,,,2025-01-24,1,,,,,ヤドイッキュウケンチクシジムショ,0
4193,4070001042576,新規,0,2025-01-24,2025-01-24,株式会社ＬＡＣＩＱＵＥ,,株式会社,群馬県,伊勢崎市,下蓮町２３４番地７,,10,204,3720852,,,,,,,2025-01-24,1,,,,,ラシク,0
4194,4070005010348,新規,0,2025-01-24,2025-01-24,一般社団法人太陽の会,,その他の設立登記法人,群馬県,前橋市,千代田町２丁目１０番２号,,10,201,3710022,,,,,,,2025-01-24,1,,,,,タイヨウノカイ,0
4196,4080003003377,新規,0,2025-01-24,2025-01-24,合同会社Ｌｙｒｉｃ　Ｆｌｏｗ,,合同会社,静岡県,静岡市駿河区,国吉田６丁目２番１４－４号,,22,102,4228004,,,,,,,2025-01-24,1,,,,,リリックフロー,0
4197,4080005007665,新規,0,2025-01-24,2025-01-24,特定非営利活動法人ワンフォーワン,,その他の設立登記法人,静岡県,静岡市葵区,与左衛門新田１９－２０,,22,101,4212115,,,,,,,2025-01-24,1,,,,,ワンフォーワン,0
4907,4120001272234,新規,0,2025-01-24,2025-01-24,ＲＩＨＡＫＵ株式会社,,株式会社,大阪府,大阪市西成区,北津守２丁目２－１３－３階,,27,122,5570061,,,,,,,2025-01-24,1,,,,,リハク,0
4908,4120001272250,新規,0,2025-01-24,2025-01-24,株式会社Ｄ‐ＰＲＯＪＥＣＴ,,株式会社,大阪府,大阪市淀川区,三国本町１丁目１０番１３号,,27,123,5320005,,,,,,,2025-01-24,1,,,,,ディープロジェクト,0
4918,4120003028444,新規,0,2025-01-24,2025-01-24,合同会社Ｂｒａｖｅ,,合同会社,大阪府,大阪市住之江区,南港北１丁目２５番１０－１６１０号,,27,125,5590034,,,,,,,2025-01-24,1,,,,,ブレイブ,0
4919,4120003028469,新規,0,2025-01-24,2025-01-24,合同会社アルカディアプロダクツ,,合同会社,大阪府,大阪市北区,梅田１丁目２－２大阪駅前第２ビル１２－１２,,27,127,5300001,,,,,,,2025-01-24,1,,,,,アルカディアプロダクツ,0
4937,4120903005518,新規,0,2025-01-24,2025-01-24,合同会社メディカルプランニング,,合同会社,大阪府,吹田市,桃山台３丁目２番１１号,,27,205,5650854,,,,,,,2025-01-24,1,,,,,メディカルプランニング,0
4942,4130001078853,新規,0,2025-01-24,2025-01-24,株式会社Ｐｕｒｐｏｓｅ,,株式会社,京都府,京都市左京区,岩倉南河原町２０番地,,26,103,6060019,,,,,,,2025-01-24,1,,,,,パーパス,0
4945,4140001137179,新規,0,2025-01-24,2025-01-24,株式会社神戸ウィッグ,,株式会社,兵庫県,神戸市中央区,東町１２３番地１貿易ビル５Ｆ,,28,110,6500031,,,,,,,2025-01-24,1,,,,,コウベウィッグ,0
5023,4160001026504,新規,0,2025-01-24,2025-01-24,パートナーズ株式会社,,株式会社,滋賀県,大津市,茶が崎６番１－２０５号,,25,201,5200023,,,,,,,2025-01-24,1,,,,,パートナーズ,0
5036,4180005020922,新規,0,2025-01-24,2025-01-24,弁護士法人あゆの風法律事務所,,その他の設立登記法人,愛知県,名古屋市中区,丸の内３丁目７番１９号法研中部ビル２階,,23,106,4600002,,,,,,,2025-01-24,1,,,,,アユノカゼホウリツジムショ,0
5046,4190003004918,新規,0,2025-01-24,2025-01-24,地元ツーリズムｐｌａｔ．Ｄｅｓｉｇｎ合同会社,,合同会社,三重県,度会郡度会町,南中村３５１番地,,24,470,5161244,,,,,,,2025-01-24,1,,,,,ジモトツーリズムプラットデザイン,0
5048,4200001043370,新規,0,2025-01-24,2025-01-24,株式会社Ｇｒｏｏｖｙ,,株式会社,岐阜県,不破郡垂井町,平尾７２５番地,,21,361,5032111,,,,,,,2025-01-24,1,,,,,グルービー,0
5051,4220003003940,新規,0,2025-01-24,2025-01-24,合同会社Ｈ．Ａ．Ｋ．Ｕ,,合同会社,石川県,白山市,あさひ荘苑４丁目１６７,,17,210,9240019,,,,,,,2025-01-24,1,,,,,ハク,0
5052,4240001064438,新規,0,2025-01-24,2025-01-24,ＡＬＥＳＴ株式会社,,株式会社,広島県,広島市佐伯区,三宅４丁目２番１６‐１０７号,,34,108,7315143,,,,,,,2025-01-24,1,,,,,アレスト,0
5057,4260001039842,新規,0,2025-01-24,2025-01-24,エスティーホールディングス株式会社,,株式会社,岡山県,岡山市北区,平田１５７番地１２３,,33,101,7000952,,,,,,,2025-01-24,1,,,,,エスティーホールディングス,0
5062,4290003016325,新規,0,2025-01-24,2025-01-24,合同会社慶人,,合同会社,福岡県,福岡市博多区,板付４丁目４番６フラワーパーク板付２０２,,40,132,8120888,,,,,,,2025-01-24,1,,,,,ケイト,0
5071,4320001020903,新規,0,2025-01-24,2025-01-24,株式会社ゴタール,,株式会社,大分県,大分市,中央町１丁目４番２号ＴＩＣ大分ビル７Ｆ－Ａ,,44,201,8700035,,,,,,,2025-01-24,1,,,,,ゴタール,0
5075,4340001027079,新規,0,2025-01-24,2025-01-24,ミライノエネルギー九州株式会社,,株式会社,鹿児島県,鹿児島市,甲突町２３番１０号,,46,201,8920837,,,,,,,2025-01-24,1,,,,,ミライノエネルギーキュウシュウ,0
5111,4360001034701,新規,0,2025-01-24,2025-01-24,株式会社ａｌｍｓ,,株式会社,沖縄県,宮古島市,平良字久貝８３６－３－２０３,,47,214,9060015,,,,,,,2025-01-24,1,,,,,アルムス,0
5112,4360001034718,新規,0,2025-01-24,2025-01-24,株式会社ＴＲＯＰＩＫＡ,,株式会社,沖縄県,那覇市,牧志２丁目１７－２７－４０１,,47,201,9000013,,,,,,,2025-01-24,1,,,,,トロピカ,0
5113,4360003014627,新規,0,2025-01-24,2025-01-24,合同会社Ｗｉｎｘ３,,合同会社,沖縄県,豊見城市,字上田１番地９,,47,212,9010243,,,,,,,2025-01-24,1,,,,,ウィンクス,0
5117,4380001035061,新規,0,2025-01-24,2025-01-24,ＨＥＡＲＴ株式会社,,株式会社,福島県,いわき市,平字紅葉町４１番地の４,,07,204,9708026,,,,,,,2025-01-24,1,,,,,ハート,0
5121,4400001016918,新規,0,2025-01-24,2025-01-24,株式会社岩手未来総合研究所,,株式会社,岩手県,盛岡市,大通２丁目１番２３号,,03,201,0200022,,,,,,,2025-01-24,1,,,,,イワテミライソウゴウケンキュウショ,0
5174,4430001093517,新規,0,2025-01-24,2025-01-24,千歳観光アセット株式会社,,株式会社,北海道,千歳市,流通３丁目４番地の１,,01,224,0660019,,,,,,,2025-01-24,1,,,,,チトセカンコウアセット,0
5180,4430003017201,新規,0,2025-01-24,2025-01-24,合同会社Ｌｅ　ｌｉｅｎ,,合同会社,北海道,札幌市厚別区,厚別中央一条６丁目３ＢｉＶｉ新さっぽろ２Ｆ,,01,108,0040051,,,,,,,2025-01-24,1,,,,,ルリアン,0
5181,4450003002589,新規,0,2025-01-24,2025-01-24,ＨＲＫ合同会社,,合同会社,北海道,旭川市,豊岡六条８丁目９－１フォレストコーポ１０１,,01,204,0788236,,,,,,,2025-01-24,1,,,,,エイチアールケイ,0
5193,4700150128954,新規,0,2025-01-24,2025-01-24,Ｆｕｔｕｒｅ　Ｅｌｅｃｔｒｏｎｉｃｓ　Ｌｉｍｉｔｅｄ,,外国会社等,,,,,,,,Ｆｕｔｕｒｅ　Ｈｏｕｓｅ，Ｔｈｅ　Ｇｌａｎｔｙ，Ｅｇｈａｍ，Ｓｕｒｒｅｙ，ＴＷ２０　９ＡＨ,,,,,,2025-01-24,1,,,,,フユーチヤーエレクトロニクスリミテツド,0
5215,5010401187587,新規,0,2025-01-24,2025-01-24,株式会社Ｅｍｐｏｗｅｒ　Ｌｉｎｋ　Ｊａｐａｎ,,株式会社,東京都,港区,浜松町２丁目２番１５号浜松町ダイヤビル２Ｆ,,13,103,1050013,,,,,,,2025-01-24,1,,,,,エンパワーリンクジャパン,0
5216,5010401187728,新規,0,2025-01-24,2025-01-24,クロスオーバー・アセット・コンサルティング株式会社,,株式会社,東京都,港区,芝５丁目３６番４号札の辻スクエア９階,,13,103,1080014,,,,,,,2025-01-24,1,,,,,クロスオーバーアセットコンサルティング,0
5217,5010401187793,新規,0,2025-01-24,2025-01-24,株式会社ＩＤコンサルティング,,株式会社,東京都,港区,港南２丁目１５－１品川インターシティＡ棟２８階,,13,103,1080075,,,,,,,2025-01-24,1,,,,,アイディコンサルティング,0
5218,5010401187819,新規,0,2025-01-24,2025-01-24,トパーズリーシング３株式会社,,株式会社,東京都,港区,虎ノ門１丁目２番６号,,13,103,1050001,,,,,,,2025-01-24,1,,,,,トパーズリーシングスリー,0
5222,5010403034259,新規,0,2025-01-24,2025-01-24,合同会社恩田会計事務所,,合同会社,東京都,港区,北青山一丁３番１号アールキューブ青山３階,,13,103,1050000,,,,,,,2025-01-24,1,,,,,オンダカイケイジムショ,0
5223,5010405024010,新規,0,2025-01-24,2025-01-24,川西３・２一般社団法人,,その他の設立登記法人,東京都,港区,浜松町１丁目２０番１０号ライオネス浜松町５０６号室,,13,103,1050013,,,,,,,2025-01-24,1,,,,,カワニシサンニ,0
5229,5010601066649,新規,0,2025-01-24,2025-01-24,株式会社日進コア,,株式会社,東京都,墨田区,江東橋５丁目８番１２－６０４号,,13,107,1300022,,,,,,,2025-01-24,1,,,,,ニッシンコア,0
5230,5010601066657,新規,0,2025-01-24,2025-01-24,ＡＳＳＩＳＴＥＮＺＡ株式会社,,株式会社,東京都,墨田区,江東橋１丁目１６番１－４００号,,13,107,1300022,,,,,,,2025-01-24,1,,,,,アシステンツァ,0
5232,5010901056696,新規,0,2025-01-24,2025-01-24,ジャパンピープル商事株式会社,,株式会社,東京都,世田谷区,太子堂４丁目１８番１５号マガザン三軒茶屋２、３Ｆ－３,,13,112,1540004,,,,,,,2025-01-24,1,,,,,ジャパンピープルショウジ,0
5242,5011001167244,新規,0,2025-01-24,2025-01-24,株式会社ＬｉｎｋＬｅ,,株式会社,東京都,渋谷区,渋谷２丁目１９－１５宮益坂ビルディング６０９,,13,113,1500002,,,,,,,2025-01-24,1,,,,,リンクル,0
5261,5011103015458,新規,0,2025-01-24,2025-01-24,合同会社ジェイ・ジー・アイ,,合同会社,東京都,新宿区,下宮比町１番４号,,13,104,1620822,,,,,,,2025-01-24,1,,,,,ジェイジーアイ,0
5265,5011201026076,新規,0,2025-01-24,2025-01-24,株式会社リヒト,,株式会社,東京都,中野区,東中野４丁目９番２５号トーシンスペースビル４Ｆ,,13,114,1640003,,,,,,,2025-01-24,1,,,,,リヒト,0
5267,5011501031585,新規,0,2025-01-24,2025-01-24,井田株式会社,,株式会社,東京都,荒川区,南千住３丁目２７－２浅草ビル５０８,,13,118,1160003,,,,,,,2025-01-24,1,,,,,イタ,0
5271,5011601028382,新規,0,2025-01-24,2025-01-24,久懿株式会社,,株式会社,東京都,練馬区,西大泉３丁目１番９－１０３号,,13,120,1780065,,,,,,,2025-01-24,1,,,,,クイ,0
5272,5011701028010,新規,0,2025-01-24,2025-01-24,Ｔｈｅ　Ａｕｓｔｉｎ株式会社,,株式会社,東京都,江戸川区,西葛西５丁目７番６－４０７号,,13,123,1340088,,,,,,,2025-01-24,1,,,,,ザオースティン,0
5274,5011801045483,新規,0,2025-01-24,2025-01-24,九知株式会社,,株式会社,東京都,足立区,足立４丁目３３番１－３０４号,,13,121,1200015,,,,,,,2025-01-24,1,,,,,キュウチ,0
5295,5012401042689,新規,0,2025-01-24,2025-01-24,株式会社たける,,株式会社,東京都,武蔵野市,吉祥寺南町３丁目１３番１２号,,13,203,1800003,,,,,,,2025-01-24,1,,,,,タケル,0
5296,5012401042706,新規,0,2025-01-24,2025-01-24,美果Ｆｒｕｉｔｆｕｌ　Ｄｅｓｉｇｎ株式会社,,株式会社,東京都,武蔵野市,吉祥寺本町２丁目８－４ｉ－ｏｆｆｉｃｅ吉祥寺,,13,203,1800004,,,,,,,2025-01-24,1,,,,,ミカフルーティフルデザイン,0
5298,5012403006923,新規,0,2025-01-24,2025-01-24,ａｎｄＥＡＴＳ合同会社,,合同会社,東京都,府中市,矢崎町４丁目１番地大東京綜合卸売センター内１通路,,13,206,1830025,,,,,,,2025-01-24,1,,,,,アンドイーツ,0
5299,5012705002447,新規,0,2025-01-24,2025-01-24,弁護士法人東京けやき法律事務所,,その他の設立登記法人,東京都,清瀬市,松山１丁目４番２０号,,13,221,2040022,,,,,,,2025-01-24,1,,,,,トウキョウケヤキホウリツジムショ,0
5308,5021003015490,新規,0,2025-01-24,2025-01-24,合同会社アットラボ,,合同会社,神奈川県,三浦郡葉山町,長柄３０３－３,,14,301,2400113,,,,,,,2025-01-24,1,,,,,アットラボ,0
5319,5030001164464,新規,0,2025-01-24,2025-01-24,株式会社ＳＴＯＲＹ,,株式会社,埼玉県,久喜市,伊坂南３丁目２１番地１４,,11,232,3491128,,,,,,,2025-01-24,1,,,,,ストーリー,0
5320,5030001164522,新規,0,2025-01-24,2025-01-24,オラフコネクト株式会社,,株式会社,埼玉県,春日部市,豊野町１丁目２２－１８－１０１,,11,214,3440014,,,,,,,2025-01-24,1,,,,,オラフコネクト,0
5321,5030001164530,新規,0,2025-01-24,2025-01-24,株式会社＿迪買取,00137761,株式会社,埼玉県,富士見市,西みずほ台２丁目１－３,,11,235,3540018,,,,,,,2025-01-24,1,,,,,キンテキカイトリ,0
5322,5030001164539,新規,0,2025-01-24,2025-01-24,株式会社コンフィシングス,,株式会社,埼玉県,上尾市,大字地頭方４４３番地１０,,11,219,3620051,,,,,,,2025-01-24,1,,,,,コンフィシングス,0
5323,5030001164563,新規,0,2025-01-24,2025-01-24,株式会社三和,,株式会社,埼玉県,川口市,西川口６丁目４―６第二荻島ビル２階２１８,,11,203,3320021,,,,,,,2025-01-24,1,,,,,,0
5330,5030003025929,新規,0,2025-01-24,2025-01-24,合同会社Ｒ＆Ｂ,,合同会社,埼玉県,越谷市,大字恩間６４４番地３,,11,222,3430033,,,,,,,2025-01-24,1,,,,,アールアンドビー,0
5331,5030003025937,新規,0,2025-01-24,2025-01-24,ｓｕｐｅｒｗｏｒｌｄ合同会社,,合同会社,埼玉県,朝霞市,泉水３丁目３番５５号－３０９,,11,227,3510024,,,,,,,2025-01-24,1,,,,,スーパーワールド,0
5336,5040001137064,新規,0,2025-01-24,2025-01-24,株式会社ＴＪエンタープライズ,,株式会社,千葉県,船橋市,西船７丁目１－１３,,12,204,2730031,,,,,,,2025-01-24,1,,,,,ティージェイエンタープライズ,0
5338,5040003026686,新規,0,2025-01-24,2025-01-24,合同会社ヒノデ,,合同会社,千葉県,市川市,湊新田２丁目２１番２２号行徳マンション５０２０号室,,12,203,2720132,,,,,,,2025-01-24,1,,,,,ヒノデ,0
5339,5040003026694,新規,0,2025-01-24,2025-01-24,合同会社Ａｉｌｅ訪問看護ステーション,,合同会社,千葉県,千葉市美浜区,真砂４丁目１１－１,,12,106,2610011,,,,,,,2025-01-24,1,,,,,エールホウモンカンゴステーション,0
5506,5070001042575,新規,0,2025-01-24,2025-01-24,株式会社Ｋトライフ,,株式会社,群馬県,前橋市,樋越町３３２番地６,00137760,10,201,3710221,,,,,,,2025-01-24,1,,,,,ケイトライフ,0
5621,5110003005641,新規,0,2025-01-24,2025-01-24,合同会社ｓｏｂｉ　ｃｒｅａｔｉｖｅ　ｗｏｒｋｓ,,合同会社,新潟県,長岡市,乙吉町５３４‐１,,15,202,9400812,,,,,,,2025-01-24,1,,,,,ソウビクリエイティブワークス,0
6205,5120001272175,新規,0,2025-01-24,2025-01-24,雨田株式会社,,株式会社,大阪府,大阪市住之江区,御崎１丁目１１番１９－３０７号,,27,125,5590013,,,,,,,2025-01-24,1,,,,,アメダ,0
6206,5120001272183,新規,0,2025-01-24,2025-01-24,株式会社Ｍ＆Ｍ,,株式会社,大阪府,大阪市淀川区,西中島２丁目３番１５－９０７号,,27,123,5320011,,,,,,,2025-01-24,1,,,,,エムアンドエム,0
6207,5120001272225,新規,0,2025-01-24,2025-01-24,ＦＮＲＦ株式会社,,株式会社,大阪府,大阪市福島区,福島２丁目１０番１９－９０２号メガロコープ福島,,27,103,5530003,,,,,,,2025-01-24,1,,,,,エフエヌアールエフ,0
6208,5120001272233,新規,0,2025-01-24,2025-01-24,正好株式会社,,株式会社,大阪府,大阪市港区,市岡１丁目１２－１３－１０３号室,,27,107,5520012,,,,,,,2025-01-24,1,,,,,セイコウ,0
6209,5120001272266,新規,0,2025-01-24,2025-01-24,ＨＫ株式会社,,株式会社,大阪府,大阪市西成区,天下茶屋３丁目２５番１３－６０２号,,27,122,5570014,,,,,,,2025-01-24,1,,,,,エッチケイ,0
6227,5120003028451,新規,0,2025-01-24,2025-01-24,合同会社ｔｏＣ,,合同会社,大阪府,大阪市北区,豊崎３丁目１５番５号ＴＫビル４階Ｄ室,,27,127,5310072,,,,,,,2025-01-24,1,,,,,トゥーシー,0
6237,5120101070933,新規,0,2025-01-24,2025-01-24,株式会社サカグチ,,株式会社,大阪府,堺市美原区,菅生１０２７番地２,,27,147,5870041,,,,,,,2025-01-24,1,,,,,サカグチ,0
6239,5120103006241,新規,0,2025-01-24,2025-01-24,Ｈａｌｕｖｉａ合同会社,,合同会社,大阪府,堺市南区,宮山台３丁１番２２－５０８号,,27,145,5900101,,,,,,,2025-01-24,1,,,,,ハルビア,0
6244,5120901050333,新規,0,2025-01-24,2025-01-24,株式会社Ｓｅｅｄｓ,,株式会社,大阪府,豊中市,北条町１丁目２番４５－６１９号,,27,203,5610812,,,,,,,2025-01-24,1,,,,,シーズ,0
6245,5120903005517,新規,0,2025-01-24,2025-01-24,合同会社てらまえ,,合同会社,大阪府,高槻市,柱本６丁目１７番６号,,27,207,5690844,,,,,,,2025-01-24,1,,,,,テラマエ,0
6249,5130001078852,新規,0,2025-01-24,2025-01-24,株式会社アローズベース,,株式会社,京都府,京都市下京区,烏丸通六条東入る仏具屋町１７５番地２,,26,106,6000000,,,,,,,2025-01-24,1,,,,,アローズベース,0
6250,5130001078869,新規,0,2025-01-24,2025-01-24,株式会社ＮＡＯ’Ｓクリーン＆エステート,,株式会社,京都府,京都市上京区,主税町８２７－２主税ビル１Ｆ,,26,102,6028155,,,,,,,2025-01-24,1,,,,,ナオスクリーンアンドエステート,0
6252,5140001137186,新規,0,2025-01-24,2025-01-24,ＣＨＩＢＡ　ＭＡＲＩＮＥ　ＪＡＰＡＮ株式会社,,株式会社,兵庫県,尼崎市,三反田町２丁目１番１号メゾンエスポワール４０７号,,28,202,6610024,,,,,,,2025-01-24,1,,,,,チバマリーンジャパン,0
6255,5140005027359,新規,0,2025-01-24,2025-01-24,医療法人社団ヨルソラ歯科クリニック,,その他の設立登記法人,兵庫県,三田市,福島１丁目１９ＡｎＣｌａｉｒｅ１０２号,,28,219,6691313,,,,,,,2025-01-24,1,,,,,ヨルソラシカクリニック,0
6313,5170003002162,新規,0,2025-01-24,2025-01-24,合同会社Ｌｉｅｎ,,合同会社,和歌山県,東牟婁郡串本町,串本１４７２番地３,,30,428,6493503,,,,,,,2025-01-24,1,,,,,リアン,0
6318,5180001165118,新規,0,2025-01-24,2025-01-24,株式会社Ｌａ　Ｖａｌｉｓｅ,,株式会社,愛知県,名古屋市昭和区,広瀬町３丁目１エトワール阿由知１０３,,23,107,4660004,,,,,,,2025-01-24,1,,,,,ラヴァリーズ,0
6319,5180001165134,新規,0,2025-01-24,2025-01-24,株式会社ｍａｊｕｎ,,株式会社,愛知県,北名古屋市,鹿田丸藪１２番地西春オカマンション４０７号室,,23,234,4810004,,,,,,,2025-01-24,1,,,,,マジュン,0
6320,5180001165142,新規,0,2025-01-24,2025-01-24,株式会社エーステクノロジー,,株式会社,愛知県,名古屋市西区,長先町１４７番地,,23,104,4520838,,,,,,,2025-01-24,1,,,,,エーステクノロジー,0
6323,5180003027877,新規,0,2025-01-24,2025-01-24,合同会社エスケー,,合同会社,愛知県,知多郡阿久比町,大字植大字植向山１－５,,23,441,4702216,,,,,,,2025-01-24,1,,,,,エスケー,0
6328,5180303006432,新規,0,2025-01-24,2025-01-24,合同会社ＡＫＵＲＡ,,合同会社,愛知県,岡崎市,鴨田町字所屋敷６４番地,,23,202,4442121,,,,,,,2025-01-24,1,,,,,アクラ,0
6333,5200001043378,新規,0,2025-01-24,2025-01-24,株式会社ｌｉｎｋｐａｔｈ,,株式会社,岐阜県,本巣市,小柿１１３８－２店舗２Ｆ,,21,218,5010463,,,,,,,2025-01-24,1,,,,,リンクパス,0
6336,5220003003915,新規,0,2025-01-24,2025-01-24,ｎ回目の金沢合同会社,,合同会社,石川県,金沢市,暁町９－５酒井マンション２０２,,17,201,9200926,,,,,,,2025-01-24,1,,,,,エヌカイメイノカナザワ,0
6340,5240001064437,新規,0,2025-01-24,2025-01-24,リボーン株式会社,,株式会社,広島県,広島市安佐北区,落合南９丁目１１番２６－２３号,,34,106,7391732,,,,,,,2025-01-24,1,,,,,リボーン,0
6341,5240003007030,新規,0,2025-01-24,2025-01-24,ヴェールクレール合同会社,,合同会社,広島県,広島市中区,国泰寺町１丁目９番４‐１０１号,,34,101,7300042,,,,,,,2025-01-24,1,,,,,ヴェールクレール,0
6343,5260001039841,新規,0,2025-01-24,2025-01-24,株式会社ＷＷＨ　ＧＲＯＵＰ,,株式会社,岡山県,岡山市北区,駅前町２丁目６番２１号,,33,101,7000023,,,,,,,2025-01-24,1,,,,,ダブルダブルエイチグループ,0
6344,5260003005040,新規,0,2025-01-24,2025-01-24,合同会社Ｏｆｆｉｃｅ　Ｍｅｍｅ,,合同会社,岡山県,総社市,駅南２丁目８番地２０,,33,208,7191137,,,,,,,2025-01-24,1,,,,,オフィスミーム,0
6346,5270001009133,新規,0,2025-01-24,2025-01-24,ＧＬＯＢＡＬ　ＴＲＡＤＥ　ＭＮＧ‐Ｓ＆８株式会社,,株式会社,鳥取県,鳥取市,田島７９３番地８,,31,201,6800804,,,,,,,2025-01-24,1,,,,,グローバルトレードエムエヌジーエスアンドエイト,0
6350,5290001108692,新規,0,2025-01-24,2025-01-24,株式会社Ｇｌｏｗ,,株式会社,福岡県,筑紫野市,原田４丁目６番地１０－１０２号,,40,217,8180024,,,,,,,2025-01-24,1,,,,,グロー,0
6351,5290001108726,新規,0,2025-01-24,2025-01-24,株式会社ＭＩＳＥＬＵ,,株式会社,福岡県,福岡市東区,香椎駅前１丁目９番１５－１００２号,,40,131,8130013,,,,,,,2025-01-24,1,,,,,ミセル,0
6352,5290001108750,新規,0,2025-01-24,2025-01-24,株式会社ＡＷＡＫＥＮ,,株式会社,福岡県,福岡市中央区,天神２丁目２番１２号Ｔ＆Ｊビルディング７Ｆ,,40,133,8100001,,,,,,,2025-01-24,1,,,,,アウェイクン,0
6353,5290003016324,新規,0,2025-01-24,2025-01-24,合同会社ＨＡＮＡＴＳＵプロモーション,,合同会社,福岡県,福岡市南区,筑紫丘１丁目１２－１チサンマンション大橋３０７,,40,134,8150036,,,,,,,2025-01-24,1,,,,,ハナツプロモーション,0
6356,5290801031227,新規,0,2025-01-24,2025-01-24,株式会社Ｎ．Ｈ　ｐｌａｎｔｓ,,株式会社,福岡県,北九州市小倉南区,長尾４丁目１７番２８号,,40,107,8030274,,,,,,,2025-01-24,1,,,,,エヌドットエイチプランツ,0
6360,5310003004929,新規,0,2025-01-24,2025-01-24,伊藤アソシエイツ合同会社,,合同会社,長崎県,長崎市,西泊町３番１７号,,42,201,8500075,,,,,,,2025-01-24,1,,,,,イトウアソシエイツ,0
6363,5330001032830,新規,0,2025-01-24,2025-01-24,医療福祉創生株式会社,,株式会社,熊本県,熊本市東区,小峯３丁目１番１４号ボナールクレスト１０２号室,,43,102,8620933,,,,,,,2025-01-24,1,,,,,イリョウフクシソウセイ,0
6370,5340003004728,新規,0,2025-01-24,2025-01-24,合同会社福祉タクシーましろ,,合同会社,鹿児島県,鹿児島市,千年２丁目３５番１０号,,46,201,8900001,,,,,,,2025-01-24,1,,,,,フクシタクシーマシロ,0
6409,5360001034700,新規,0,2025-01-24,2025-01-24,沖縄鋼鉄株式会社,,株式会社,沖縄県,浦添市,宮城６丁目５番１２号津嘉山ハイツ４０１,,47,208,9012126,,,,,,,2025-01-24,1,,,,,オキナワコウテツ,0
6415,5370001052180,新規,0,2025-01-24,2025-01-24,株式会社レモンシナモン,,株式会社,宮城県,仙台市青葉区,錦ケ丘５丁目８６番地の６,,04,101,9893123,,,,,,,2025-01-24,1,,,,,レモンシナモン,0
6420,5370005010894,新規,0,2025-01-24,2025-01-24,弁護士法人法律事務所せんだい,,その他の設立登記法人,宮城県,仙台市宮城野区,榴岡１丁目６番８号タニタビル２階,,04,102,9830852,,,,,,,2025-01-24,1,,,,,ホウリツジムショセンダイ,0
6423,5380001035044,新規,0,2025-01-24,2025-01-24,株式会社リモデルワーカー,,株式会社,福島県,いわき市,泉町滝尻字前坪１４番地の１,,07,204,9718182,,,,,,,2025-01-24,1,,,,,リモデルワーカー,0
6424,5380001035052,新規,0,2025-01-24,2025-01-24,消防ＤＸ　ＪＡＰＡＮ株式会社,,株式会社,福島県,郡山市,駅前１丁目３－７エリート２８ビル１Ｆ／２Ｆ,,07,203,9638002,,,,,,,2025-01-24,1,,,,,ショウボウディーエックスジャパン,0
6461,5430001093532,新規,0,2025-01-24,2025-01-24,株式会社ＨＯＰＥ,,株式会社,北海道,札幌市白石区,本郷通１０丁目南２番１７－２０２号,,01,104,0030024,,,,,,,2025-01-24,1,,,,,ホープ,0
6464,5430003017200,新規,0,2025-01-24,2025-01-24,合同会社バックボーン,,合同会社,北海道,札幌市西区,西町北５丁目３番２０号,,01,107,0630061,,,,,,,2025-01-24,1,,,,,バックボーン,0
6466,5450001014503,新規,0,2025-01-24,2025-01-24,株式会社Ｂａａｌ,,株式会社,北海道,旭川市,八条西３丁目２‐１０ピアコートシャンテ１０３号室,,01,204,0700058,,,,,,,2025-01-24,1,,,,,バアル,0
6468,5460101007661,新規,0,2025-01-24,2025-01-24,株式会社ＡＸＩＡ,,株式会社,北海道,帯広市,西六条北２丁目８番地１,,01,207,0800036,,,,,,,2025-01-24,1,,,,,アクシア,0
6470,5480001012727,新規,0,2025-01-24,2025-01-24,株式会社ＳＭＳ,,株式会社,徳島県,徳島市,応神町東貞方字貞光１０番地,,36,201,7711154,,,,,,,2025-01-24,1,,,,,エスエムエス,0
6475,5700150128953,新規,0,2025-01-24,2025-01-24,青島勇氣鞋業　有限公司,,外国会社等,兵庫県,神戸市中央区,元町通５丁目２－３,,28,110,6500022,２６３　Ｈｅｎｎｅｓｓｙ　Ｒｏａｄ　Ｗａｎ　Ｃｈａｉ，Ｈｏｎｇ　Ｋｏｎｇ,,,,,,2025-01-24,1,,,,,チンダオヨンテイシエイエーヨウシエンゴンシー,0
6482,6010001251610,新規,0,2025-01-24,2025-01-24,株式会社ワイズ工務店,,株式会社,東京都,中央区,日本橋茅場町２丁目８番１号,,13,102,1030025,,,,,,,2025-01-24,1,,,,,ワイズコウムテン,0
6483,6010001251627,新規,0,2025-01-24,2025-01-24,株式会社ＢＮソリューションズ,,株式会社,東京都,千代田区,神田須田町１丁目７番８号ＶＯＲＴ秋葉原ＩＶ２Ｆ,00137759,13,101,1010041,,,,,,,2025-01-24,1,,,,,ビーエヌソリューションズ,0
6484,6010001251684,新規,0,2025-01-24,2025-01-24,千里朝碧海株式会社,,株式会社,東京都,千代田区,神田神保町１丁目５２番１０号レオマックビル２階,,13,101,1010051,,,,,,,2025-01-24,1,,,,,センリチョウヘキカイ,0
6485,6010003046141,新規,0,2025-01-24,2025-01-24,合同会社デジタルスクエア,,合同会社,東京都,中央区,銀座１丁目１２番４号Ｎ＆ＥＢＬＤ．６Ｆ,,13,102,1040061,,,,,,,2025-01-24,1,,,,,デジタルスクエア,0
6486,6010003046158,新規,0,2025-01-24,2025-01-24,ベストライト・インベストメントＪＰ合同会社,,合同会社,東京都,中央区,銀座４丁目９番８号,,13,102,1040061,,,,,,,2025-01-24,1,,,,,ベストライトインベストメントジェイピー,0
6487,6010003046166,新規,0,2025-01-24,2025-01-24,エイチ・ピージャパン合同会社,,合同会社,東京都,千代田区,丸の内２丁目１番１号,,13,101,1000005,,,,,,,2025-01-24,1,,,,,エイチピージャパン,0
6489,6010101016491,新規,0,2025-01-24,2025-01-24,株式会社ＨＡＫＵＳＵＩポリマー,,株式会社,東京都,八王子市,川口町９６１－６,,13,201,1930801,,,,,,,2025-01-24,1,,,,,ハクスイポリマー,0
6493,6010103002498,新規,0,2025-01-24,2025-01-24,彩空合同会社,,合同会社,東京都,八王子市,明神町２丁目２－８、八王子スカイマンション１０２、Ｗ１０号,,13,201,1920046,,,,,,,2025-01-24,1,,,,,,0
6499,6010401187660,新規,0,2025-01-24,2025-01-24,株式会社ちあぷす,,株式会社,東京都,港区,元麻布３丁目４番地４１号６０１号室,,13,103,1060046,,,,,,,2025-01-24,1,,,,,チアプス,0
6500,6010401187669,新規,0,2025-01-24,2025-01-24,株式会社ＯＶＣＨＩＮＩ,,株式会社,東京都,港区,赤坂２丁目５番８号ヒューリックＪＰ赤坂ビル３階,,13,103,1070052,,,,,,,2025-01-24,1,,,,,オフチニ,0
6501,6010401187710,新規,0,2025-01-24,2025-01-24,株式会社ｎｏ　ｔｉｔｌｅ,,株式会社,東京都,港区,赤坂６丁目７番１４号パークハウス赤坂氷川１０１号室,,13,103,1070052,,,,,,,2025-01-24,1,,,,,ノータイトル,0
6502,6010401187735,新規,0,2025-01-24,2025-01-24,アダム・リペス株式会社,,株式会社,東京都,港区,虎ノ門１丁目１０番５号ＫＤＸ虎ノ門一丁目ビル,,13,103,1050001,,,,,,,2025-01-24,1,,,,,アダムリペス,0
6503,6010401187768,新規,0,2025-01-24,2025-01-24,株式会社ＳＵＧＯＩ．ＨＱ,,株式会社,東京都,港区,南麻布４丁目１４番６号,,13,103,1060047,,,,,,,2025-01-24,1,,,,,スゴイエイチキュー,0
6504,6010401187818,新規,0,2025-01-24,2025-01-24,トパーズリーシング２株式会社,,株式会社,東京都,港区,虎ノ門１丁目２番６号,,13,103,1050001,,,,,,,2025-01-24,1,,,,,トパーズリーシングツー,0
6505,6010401187834,新規,0,2025-01-24,2025-01-24,株式会社ザイマックスウィコム,,株式会社,東京都,港区,赤坂１丁目１番１号,,13,103,1070052,,,,,,,2025-01-24,1,,,,,ザイマックスウィコム,0
6506,6010403034233,新規,0,2025-01-24,2025-01-24,ＫＢＩ　Ｂｉｏｐｈａｒｍａ　Ｊａｐａｎ合同会社,,合同会社,東京都,港区,芝大門２丁目１１番８号,,13,103,1050012,,,,,,,2025-01-24,1,,,,,ケービーアイバイオファーマジャパン,0
6519,6010901056712,新規,0,2025-01-24,2025-01-24,株式会社ＴＯＡＳＴ,,株式会社,東京都,世田谷区,野沢３丁目４番１８－８０８号,,13,112,1540003,,,,,,,2025-01-24,1,,,,,トースト,0
6525,6011001167210,新規,0,2025-01-24,2025-01-24,株式会社ＣＨＡＰＡＴＹ,,株式会社,東京都,渋谷区,道玄坂１丁目１０番８号渋谷道玄坂東急ビル２Ｆ－Ｃ,,13,113,1500043,,,,,,,2025-01-24,1,,,,,チャパティー,0
6538,6011101110359,新規,0,2025-01-24,2025-01-24,株式会社Ｏ２ジャパントラベル,,株式会社,東京都,新宿区,西新宿３丁目３番１３号西新宿水間ビル６階,,13,104,1600023,,,,,,,2025-01-24,1,,,,,オーツージャパントラベル,0
6539,6011101110391,新規,0,2025-01-24,2025-01-24,株式会社ＦＬＳ,,株式会社,東京都,新宿区,西新宿３丁目７番１号新宿パークタワーＮ棟３０階,,13,104,1600023,,,,,,,2025-01-24,1,,,,,エフエルエス,0
6544,6011103015440,新規,0,2025-01-24,2025-01-24,コノハナ・フュージョン合同会社,,合同会社,東京都,新宿区,新宿２丁目１２番１３号新宿アントレサロンビル２階,,13,104,1600022,,,,,,,2025-01-24,1,,,,,コノハナフュージョン,0
6550,6011401026767,新規,0,2025-01-24,2025-01-24,株式会社Ｋｕｆｕｒｕ,,株式会社,東京都,板橋区,南常盤台１丁目１１－６レフア南常盤台１０１号室,,13,119,1740072,,,,,,,2025-01-24,1,,,,,クフル,0
6554,6011503006386,新規,0,2025-01-24,2025-01-24,合名会社Ｒｉｓｉｎｇ　Ｓｕｎ・ＴＯＫＹＯ,,合名会社,東京都,荒川区,荒川２丁目１７番７号,,13,118,1160002,,,,,,,2025-01-24,1,,,,,ライジングサントウキョウ,0
6563,6011801045490,新規,0,2025-01-24,2025-01-24,株式会社ＢＡＳＥ　ＶＡＮＧＵＡＲＤ,,株式会社,東京都,葛飾区,青戸４丁目３番１号,,13,122,1250062,,,,,,,2025-01-24,1,,,,,ベースヴァンガード,0
6589,6012401042705,新規,0,2025-01-24,2025-01-24,株式会社吉祥寺人材サポートセンター,,株式会社,東京都,武蔵野市,吉祥寺本町１丁目３１－１１ＫＳビル７階,,13,203,1800004,,,,,,,2025-01-24,1,,,,,キチジョウジジンザイサポートセンター,0
6591,6013101009614,新規,0,2025-01-24,2025-01-24,株式会社リメイン,,株式会社,東京都,あきる野市,雨間１０９５番地１７,,13,228,1970825,,,,,,,2025-01-24,1,,,,,リメイン,0
6597,6013303007498,新規,0,2025-01-24,2025-01-24,ハンドインハンド合同会社,,合同会社,東京都,豊島区,長崎２丁目３０－１６,,13,116,1710051,,,,,,,2025-01-24,1,,,,,ハンドインハンド,0
6600,6020001161107,新規,0,2025-01-24,2025-01-24,株式会社経営リズム,,株式会社,神奈川県,横浜市西区,北幸１丁目１１番１号水信ビル７階,,14,103,2200004,,,,,,,2025-01-24,1,,,,,ケイエイリズム,0
6614,6030001164521,新規,0,2025-01-24,2025-01-24,Ｍａｈａｒ　Ｇｒｏｕｐｓ株式会社,,株式会社,埼玉県,三郷市,上口１丁目３２番地１キャッスルグレーＡ－１,,11,237,3410055,,,,,,,2025-01-24,1,,,,,マハールグループス,0
6615,6030001164562,新規,0,2025-01-24,2025-01-24,久福国際株式会社,,株式会社,埼玉県,戸田市,喜沢１丁目５０番地５３二階,,11,224,3350013,,,,,,,2025-01-24,1,,,,,キュウフクコクサイ,0
6616,6030005022015,新規,0,2025-01-24,2025-01-24,一般社団法人ＳＥＥＤＳ,,その他の設立登記法人,埼玉県,熊谷市,弥藤吾２３９７番地８,,11,202,3600203,,,,,,,2025-01-24,1,,,,,シーズ,0
6761,6070001042566,新規,0,2025-01-24,2025-01-24,株式会社四つ葉防犯システム,,株式会社,群馬県,佐波郡玉村町,大字上新田５９５番地２,,10,464,3701133,,,,,,,2025-01-24,1,,,,,ヨツバボウハンシステム,0
6767,6080401027694,新規,0,2025-01-24,2025-01-24,グリーンプロサービス株式会社,,株式会社,静岡県,浜松市中央区,有玉南町２０３４番地,,22,138,4313122,,,,,,,2025-01-24,1,,,,,グリーンプロサービス,0
6768,6080401027703,新規,0,2025-01-24,2025-01-24,株式会社Ａ　ＰＬＵＳ　ＷＯＲＫＳ,,株式会社,静岡県,浜松市中央区,河輪町６２番地の１,,22,138,4300823,,,,,,,2025-01-24,1,,,,,エープラスワークス,0
6769,6080403005186,新規,0,2025-01-24,2025-01-24,合同会社ａｏ　ａｋｕａ,,合同会社,静岡県,掛川市,北門２６４番地の１５,,22,213,4360064,,,,,,,2025-01-24,1,,,,,アオアクア,0
6782,6100003007951,新規,0,2025-01-24,2025-01-24,合同会社ネクストウェーブ,,合同会社,長野県,長野市,大字西長野往生地１２０８－２,,20,201,3800867,,,,,,,2025-01-24,1,,,,,ネクストウェーブ,0
7458,6120001272232,新規,0,2025-01-24,2025-01-24,呉越株式会社,,株式会社,大阪府,大阪市西成区,玉出東１丁目１１－２３－２０９室,,27,122,5570043,,,,,,,2025-01-24,1,,,,,ゴエツ,0
7459,6120001272249,新規,0,2025-01-24,2025-01-24,株式会社ｍｙｔｅａｍｓ,,株式会社,大阪府,大阪市北区,梅田１丁目１－３大阪駅前第３ビル２９階１－１－１号室,,27,127,5300001,,,,,,,2025-01-24,1,,,,,マイチームス,0
7460,6120001272257,新規,0,2025-01-24,2025-01-24,株式会社Ｂｏｔｔｏｍ　Ｄｅｓｉｇｎ　Ｗｏｒｋｓ,,株式会社,大阪府,枚方市,茄子作北町１２番８号,,27,210,5730083,,,,,,,2025-01-24,1,,,,,ボトムデザインワークス,0
7461,6120001272265,新規,0,2025-01-24,2025-01-24,メコン株式会社,,株式会社,大阪府,大阪市淀川区,西中島７丁目１番３－１１０８号,,27,123,5320011,,,,,,,2025-01-24,1,,,,,メコン,0
7462,6120001272273,新規,0,2025-01-24,2025-01-24,株式会社Ｌｕｍｉｅｒｅ,,株式会社,大阪府,大阪市北区,天満橋３丁目３番５号,,27,127,5300042,,,,,,,2025-01-24,1,,,,,ルミエール,0
7463,6120001272298,新規,0,2025-01-24,2025-01-24,株式会社ゆいまーる,,株式会社,大阪府,大阪市中央区,谷町１丁目１番３号,,27,128,5400012,,,,,,,2025-01-24,1,,,,,ユイマール,0
7472,6120003028426,新規,0,2025-01-24,2025-01-24,合同会社ウェルフェア,,合同会社,大阪府,交野市,私部７丁目５５－２４,,27,230,5760052,,,,,,,2025-01-24,1,,,,,ウェルフェア,0
7484,6120005024745,新規,0,2025-01-24,2025-01-24,医療法人恒惺会,,その他の設立登記法人,大阪府,大阪市淀川区,宮原５丁目９番３６号,,27,123,5320003,,,,,,,2025-01-24,1,,,,,コウセイカイ,0
7488,6120101070940,新規,0,2025-01-24,2025-01-24,平野産業株式会社,,株式会社,大阪府,松原市,北新町３丁目１４番２０号,,27,217,5800025,,,,,,,2025-01-24,1,,,,,ヒラノサンギョウ,0
7491,6120103006240,新規,0,2025-01-24,2025-01-24,合同会社ＮＡＲＵ,,合同会社,大阪府,松原市,天美東２丁目２１２番地１０１号,,27,217,5800032,,,,,,,2025-01-24,1,,,,,ナル,0
7503,6130003010168,新規,0,2025-01-24,2025-01-24,合同会社ＳＫ,,合同会社,京都府,京都市東山区,進之町５８４－５０２,,26,105,6050016,,,,,,,2025-01-24,1,,,,,エスケー,0
7505,6140001137144,新規,0,2025-01-24,2025-01-24,株式会社コトホ,,株式会社,兵庫県,尼崎市,久々知３丁目３番２７号,,28,202,6610977,,,,,,,2025-01-24,1,,,,,コトホ,0
7506,6140003021544,新規,0,2025-01-24,2025-01-24,合同会社ＴＥＲＵＹＡ,,合同会社,兵庫県,高砂市,阿弥陀町北山１８２番地の４,,28,216,6760826,,,,,,,2025-01-24,1,,,,,テルヤ,0
7575,6150003003483,新規,0,2025-01-24,2025-01-24,合同会社ＨＡＲＵ,,合同会社,奈良県,大和郡山市,九条町５７６番地８６,,29,203,6391001,,,,,,,2025-01-24,1,,,,,ハル,0
7588,6180001165117,新規,0,2025-01-24,2025-01-24,株式会社豊明スクールランチ,,株式会社,愛知県,豊明市,西川町笹原１５番地１,,23,229,4701123,,,,,,,2025-01-24,1,,,,,トヨアケスクールランチ,0
7589,6180001165133,新規,0,2025-01-24,2025-01-24,株式会社ｍｅｍｏｒｅｃ,,株式会社,愛知県,あま市,本郷郷前６５番地３,,23,237,4901116,,,,,,,2025-01-24,1,,,,,メモレック,0
7593,6180003027876,新規,0,2025-01-24,2025-01-24,合同会社Ｖｉｏｌａ,,合同会社,愛知県,名古屋市名東区,本郷２丁目２１２―１，７０５号,,23,115,4650024,,,,,,,2025-01-24,1,,,,,ヴィオラ,0
7608,6220001026454,新規,0,2025-01-24,2025-01-24,株式会社Ｓｗａｌｌｏｗ,,株式会社,石川県,金沢市,八日市５丁目３００番地２,,17,201,9218064,,,,,,,2025-01-24,1,,,,,スワロウ,0
7610,6240001064436,新規,0,2025-01-24,2025-01-24,株式会社イービレッジ,,株式会社,広島県,広島市安佐南区,西原２丁目２６番３９号,,34,105,7310113,,,,,,,2025-01-24,1,,,,,イービレッジ,0
7612,6260001039840,新規,0,2025-01-24,2025-01-24,信貿株式会社,,株式会社,岡山県,倉敷市,黒石字水谷１１２３番地１,,33,202,7100035,,,,,,,2025-01-24,1,,,,,シンボウ,0
7615,6290001108717,新規,0,2025-01-24,2025-01-24,株式会社博多といろ,,株式会社,福岡県,福岡市博多区,上川端町４番２２５号,,40,132,8120026,,,,,,,2025-01-24,1,,,,,ハカタトイロ,0
7618,6290003016323,新規,0,2025-01-24,2025-01-24,みーもっと合同会社,,合同会社,福岡県,筑後市,大字折地１９１番地１,,40,211,8330026,,,,,,,2025-01-24,1,,,,,ミーモット,0
7621,6320003004563,新規,0,2025-01-24,2025-01-24,合同会社ＯＬＣ,,合同会社,大分県,佐伯市,大字長良２４３８番地,,44,205,8761511,,,,,,,2025-01-24,1,,,,,オーエルシー,0
7625,6340001027069,新規,0,2025-01-24,2025-01-24,株式会社ＬａＢｒｉｌｌｅｒ,,株式会社,鹿児島県,鹿児島市,平之町７番３３－３０１号,,46,201,8920848,,,,,,,2025-01-24,1,,,,,ラブリエ,0
7661,6350003004833,新規,0,2025-01-24,2025-01-24,合同会社あきしの会計社,,合同会社,宮崎県,宮崎市,大塚町宮田２９１５番地９,,45,201,8800951,,,,,,,2025-01-24,1,,,,,アキシノカイケイシャ,0
7665,6360001034699,新規,0,2025-01-24,2025-01-24,株式会社知念土木,,株式会社,沖縄県,宮古郡多良間村,字塩川２２０番地,,47,375,9060601,,,,,,,2025-01-24,1,,,,,チネンドボク,0
7666,6360003014633,新規,0,2025-01-24,2025-01-24,合同会社Ｒ＆Ｃ,,合同会社,沖縄県,島尻郡与那原町,字与那原９６７番地の１グランドソレイユ４０５,,47,348,9011303,,,,,,,2025-01-24,1,,,,,アールアンドシー,0
7668,6370003006902,新規,0,2025-01-24,2025-01-24,鉱物資源開発合同会社,,合同会社,宮城県,亘理郡亘理町,吉田字流１３３番地４８,,04,361,9892331,,,,,,,2025-01-24,1,,,,,コウブツシゲンカイハツ,0
7670,6380001035043,新規,0,2025-01-24,2025-01-24,株式会社ファームサポート・イトウ,,株式会社,福島県,河沼郡柳津町,大字黒沢字五舛蒔４７１番地１,,07,423,9697322,,,,,,,2025-01-24,1,,,,,ファームサポートイトウ,0
7721,6420005007942,新規,0,2025-01-24,2025-01-24,医療法人はちのへ江陽クリニック,,その他の設立登記法人,青森県,八戸市,江陽２丁目１３番４５号,,02,203,0310801,,,,,,,2025-01-24,1,,,,,ハチノヘコウヨウクリニック,0
7726,6430001093531,新規,0,2025-01-24,2025-01-24,株式会社Ａｃｈｉｅｖｅ,,株式会社,北海道,苫小牧市,北光町２丁目１６番１号,,01,213,0530852,,,,,,,2025-01-24,1,,,,,アチーブ,0
7730,6450001014510,新規,0,2025-01-24,2025-01-24,株式会社３Ｍａｇｉｃ,,株式会社,北海道,士別市,温根別町南二線西一号,,01,220,0950181,,,,,,,2025-01-24,1,,,,,スリーマジック,0
7735,6480001012726,新規,0,2025-01-24,2025-01-24,株式会社ＭＩＭＡ　ＴＲＡＤＥ,,株式会社,徳島県,美馬市,脇町別所３４４５番地１,,36,207,7793620,,,,,,,2025-01-24,1,,,,,ミマトレード,0
7747,7010001251584,新規,0,2025-01-24,2025-01-24,株式会社ＡＮＮＥＸ,,株式会社,東京都,中央区,日本橋大伝馬町３－１０,,13,102,1030011,,,,,,,2025-01-24,1,,,,,アネックス,0
7756,7010103002497,新規,0,2025-01-24,2025-01-24,悠華合同会社,,合同会社,東京都,八王子市,明神町２丁目２－８、八王子スカイマンション１０２、Ｗ２５号,,13,201,1920046,,,,,,,2025-01-24,1,,,,,,0
7758,7010401187668,新規,0,2025-01-24,2025-01-24,株式会社エイト,,株式会社,東京都,港区,南青山２丁目２番１５号,,13,103,1070062,,,,,,,2025-01-24,1,,,,,エイト,0
7759,7010401187734,新規,0,2025-01-24,2025-01-24,Ｎａｎｏ　Ｒｅｊｕｖｅｎａｔｉｏｎ株式会社,,株式会社,東京都,港区,愛宕２丁目５番１号,,13,103,1050002,,,,,,,2025-01-24,1,,,,,ナノリジュビネーション,0
7760,7010401187817,新規,0,2025-01-24,2025-01-24,トパーズリーシング１株式会社,,株式会社,東京都,港区,虎ノ門１丁目２番６号,,13,103,1050001,,,,,,,2025-01-24,1,,,,,トパーズリーシングワン,0
7762,7010403034190,新規,0,2025-01-24,2025-01-24,合同会社Ｔｏｋｙｏ　Ｐｉａｎｏ　Ｓｃｈｏｏｌ,,合同会社,東京都,港区,六本木６丁目８番２９－３０１号,,13,103,1060032,,,,,,,2025-01-24,1,,,,,トウキョウピアノスクール,0
7763,7010403034208,新規,0,2025-01-24,2025-01-24,栄伝合同会社,,合同会社,東京都,港区,元赤坂１丁目２番７号赤坂Ｋタワー,,13,103,1070051,,,,,,,2025-01-24,1,,,,,エイデン,0
7764,7010403034240,新規,0,2025-01-24,2025-01-24,ＲＥＧ合同会社,,合同会社,東京都,港区,港南２丁目１５番３号,,13,103,1080075,,,,,,,2025-01-24,1,,,,,レグ,0
7769,7010601066639,新規,0,2025-01-24,2025-01-24,株式会社ウェア＆ウェイ,,株式会社,東京都,墨田区,菊川３丁目１５－２東海ビル１０１,,13,107,1300024,,,,,,,2025-01-24,1,,,,,ウェアアンドウェイ,0
7770,7010603011353,新規,0,2025-01-24,2025-01-24,レガルド合同会社,,合同会社,東京都,墨田区,江東橋２丁目１番４－２０２号,,13,107,1300022,,,,,,,2025-01-24,1,,,,,レガルド,0
7776,7010901056711,新規,0,2025-01-24,2025-01-24,株式会社Ｍｕｓｕｂｉｉｔｏ,,株式会社,東京都,世田谷区,下馬１丁目２９番４号シティーハイムモチダ１０４,,13,112,1540002,,,,,,,2025-01-24,1,,,,,ムスビイト,0
7784,7011003020812,新規,0,2025-01-24,2025-01-24,ＡＭＡＲＡ　ｉｎｔｅｒｉｏｒｓ合同会社,,合同会社,東京都,渋谷区,恵比寿南３丁目１番２４－６０１号,,13,113,1500022,,,,,,,2025-01-24,1,,,,,アマラインテリアス,0
7804,7011201026074,新規,0,2025-01-24,2025-01-24,株式会社燈堂,,株式会社,東京都,中野区,中野２丁目１９－２リードシー中野ビル３Ｆ,,13,114,1640001,,,,,,,2025-01-24,1,,,,,トモシビドウ,0
7811,7011703004098,新規,0,2025-01-24,2025-01-24,東特日本合同会社,,合同会社,東京都,江戸川区,下篠崎町４番７号１０２,,13,123,1330064,,,,,,,2025-01-24,1,,,,,トウトクニホン,0
7814,7011801045498,新規,0,2025-01-24,2025-01-24,カナタエンジ株式会社,,株式会社,東京都,足立区,伊興本町１丁目３番３－５０２号,,13,121,1210807,,,,,,,2025-01-24,1,,,,,カナタエンジ,0
7815,7011805003428,新規,0,2025-01-24,2025-01-24,一般社団法人ウルトゥール,,その他の設立登記法人,東京都,足立区,西伊興３丁目２番２３号,,13,121,1210824,,,,,,,2025-01-24,1,,,,,ウルトゥール,0
7847,7012705002445,新規,0,2025-01-24,2025-01-24,一般社団法人テルガルジャパン,,その他の設立登記法人,東京都,西東京市,富士町２丁目５番２１号,,13,229,2020014,,,,,,,2025-01-24,1,,,,,テルガルジャパン,0
7848,7013101009613,新規,0,2025-01-24,2025-01-24,奥江戸水産株式会社,,株式会社,東京都,西多摩郡奥多摩町,川野５２９番地,,13,308,1980225,,,,,,,2025-01-24,1,,,,,オクエドスイサン,0
7867,7030001164470,新規,0,2025-01-24,2025-01-24,株式会社樹設備,,株式会社,埼玉県,狭山市,大字青柳１２４番地の１４２,,11,215,3501301,,,,,,,2025-01-24,1,,,,,イツキセツビ,0
7871,7030003025943,新規,0,2025-01-24,2025-01-24,合同会社フォレスト,,合同会社,埼玉県,越谷市,東越谷７丁目１７番地２６,,11,222,3430023,,,,,,,2025-01-24,1,,,,,フォレスト,0
7878,7040001137137,新規,0,2025-01-24,2025-01-24,株式会社ジェイジェイ,,株式会社,千葉県,成田市,東町１２０番地３８,,12,211,2860025,,,,,,,2025-01-24,1,,,,,ジェイジェイ,0
8033,7050001056063,新規,0,2025-01-24,2025-01-24,株式会社ＴＲＵＳＴ,,株式会社,茨城県,常総市,中妻町７１４番地１,,08,211,3002505,,,,,,,2025-01-24,1,,,,,トラスト,0
8055,7080001026732,新規,0,2025-01-24,2025-01-24,エビスＨＤ株式会社,,株式会社,静岡県,静岡市清水区,鳥坂７２４番地の６,,22,103,4240067,,,,,,,2025-01-24,1,,,,,エビスエイチディー,0
8056,7080403005185,新規,0,2025-01-24,2025-01-24,合同会社ぷあ,,合同会社,静岡県,浜松市浜名区,新原１９５１－２,,22,139,4340003,,,,,,,2025-01-24,1,,,,,プア,0
8752,7120001272157,新規,0,2025-01-24,2025-01-24,株式会社ＥＸＣＩＴＥ,,株式会社,大阪府,大阪市西成区,潮路１丁目８番３４号－５０５号,,27,122,5570052,,,,,,,2025-01-24,1,,,,,エキサイト,0
8753,7120001272165,新規,0,2025-01-24,2025-01-24,株式会社ＡＹＡＮＮＡ,,株式会社,大阪府,大阪市中央区,瓦町２丁目１番１４瓦町ダイワビル６０１号,,27,128,5410048,,,,,,,2025-01-24,1,,,,,アヤンナ,0
8754,7120001272173,新規,0,2025-01-24,2025-01-24,小而美科技株式会社,,株式会社,大阪府,大阪市住之江区,御崎１丁目１１－１９－３０２,,27,125,5590013,,,,,,,2025-01-24,1,,,,,ショウジビカギ,0
8755,7120001272181,新規,0,2025-01-24,2025-01-24,ＣｈａｒｇｅＸＯ株式会社,,株式会社,大阪府,大阪市北区,中之島６丁目１番３８－２３０７号,,27,127,5300005,,,,,,,2025-01-24,1,,,,,チャージエックスオー,0
8756,7120001272215,新規,0,2025-01-24,2025-01-24,株式会社ＮＥＺＩ,,株式会社,大阪府,大阪市北区,中之島３丁目１－８リバーサイドビル２Ｆ,,27,127,5300005,,,,,,,2025-01-24,1,,,,,ネジ,0
8757,7120001272223,新規,0,2025-01-24,2025-01-24,もりな株式会社,,株式会社,大阪府,大阪市中央区,船場中央２丁目１番４号船場センタービル４号館地下一階Ｂ１０８ＲＯＹＡＬＯＦＦＩＣＥ内,,27,128,5410055,,,,,,,2025-01-24,1,,,,,モリナ,0
8767,7120003028466,新規,0,2025-01-24,2025-01-24,セールスキャリアマネジメント合同会社,,合同会社,大阪府,大阪市北区,西天満３丁目１４番６号センチュリー西天満ビル８Ｆ,,27,127,5300047,,,,,,,2025-01-24,1,,,,,セールスキャリアマネジメント,0
8779,7120005024752,新規,0,2025-01-24,2025-01-24,一般社団法人日本リラクゼーション技術向上協会,,その他の設立登記法人,大阪府,大阪市西区,江戸堀１丁目２３番１９号グラン・ビルド江戸堀７０４,,27,106,5500002,,,,,,,2025-01-24,1,,,,,ニホンリラクゼーションギジュツコウジョウキョウカイ,0
8787,7120903005515,新規,0,2025-01-24,2025-01-24,アウル合同会社,,合同会社,大阪府,高槻市,城東町２番２８号,,27,207,5690052,,,,,,,2025-01-24,1,,,,,アウル,0
8788,7120903005523,新規,0,2025-01-24,2025-01-24,合同会社農園のら,,合同会社,大阪府,豊能郡能勢町,垂水３８６番地,,27,322,5630366,,,,,,,2025-01-24,1,,,,,ノウエンノラ,0
8790,7130001078735,新規,0,2025-01-24,2025-01-24,株式会社イシイ工業,,株式会社,京都府,京都市伏見区,醍醐赤間南裏町２７番地３,,26,109,6011323,,,,,,,2025-01-24,1,,,,,イシイコウギョウ,0
8795,7130003010159,新規,0,2025-01-24,2025-01-24,合同会社ｎｏｋｔｏｎｅ,,合同会社,京都府,京都市下京区,朱雀宝蔵町４番地協栄ビル２階京都朱雀スタジオ,,26,106,6008846,,,,,,,2025-01-24,1,,,,,ノクトン,0
8803,7140001137151,新規,0,2025-01-24,2025-01-24,株式会社スリーアローズ,,株式会社,兵庫県,神戸市須磨区,行幸町１丁目１番１２－１１０５号,,28,107,6540052,,,,,,,2025-01-24,1,,,,,スリーアローズ,0
8877,7170001018464,新規,0,2025-01-24,2025-01-24,株式会社北端建材,,株式会社,和歌山県,和歌山市,布施屋４３番地２,,30,201,6496321,,,,,,,2025-01-24,1,,,,,キタバタケンザイ,0
8883,7180001165140,新規,0,2025-01-24,2025-01-24,株式会社いろどり,,株式会社,愛知県,名古屋市中村区,名駅４丁目２４番５号,,23,105,4500002,,,,,,,2025-01-24,1,,,,,イロドリ,0
8895,7190001031960,新規,0,2025-01-24,2025-01-24,株式会社Ｂｅｌｌ　Ｌｉｎｅ,,株式会社,三重県,鈴鹿市,南玉垣町６５１７番地の１２,,24,207,5130816,,,,,,,2025-01-24,1,,,,,ベルライン,0
8899,7220003003938,新規,0,2025-01-24,2025-01-24,合同会社Ｏｎ　Ｆｌｅｅｋ,,合同会社,石川県,かほく市,白尾ヌ６４－２マリン白尾１０２,,17,209,9291177,,,,,,,2025-01-24,1,,,,,オンフリーク,0
8903,7240001064410,新規,0,2025-01-24,2025-01-24,株式会社アークス,,株式会社,広島県,福山市,神辺町字平野４８番地６,,34,207,7202116,,,,,,,2025-01-24,1,,,,,アークス,0
8904,7240001064427,新規,0,2025-01-24,2025-01-24,天霖株式会社,,株式会社,広島県,広島市中区,十日市町２丁目１－３３－９０５号,,34,101,7300805,,,,,,,2025-01-24,1,,,,,テンリン,0
8905,7250001020981,新規,0,2025-01-24,2025-01-24,ヤマセツ株式会社,,株式会社,山口県,山口市,小郡明治１丁目７番８号レーベンハイム１０１号,,35,203,7540043,,,,,,,2025-01-24,1,,,,,ヤマセツ,0
8906,7260001039765,新規,0,2025-01-24,2025-01-24,株式会社ダックス,,株式会社,岡山県,久米郡美咲町,休石４８０番地６,,33,666,7081521,,,,,,,2025-01-24,1,,,,,ダックス,0
8910,7290001108724,新規,0,2025-01-24,2025-01-24,株式会社リアン,,株式会社,福岡県,朝倉市,美奈宜の杜１丁目４番１１号,,40,228,8380020,,,,,,,2025-01-24,1,,,,,リアン,0
8912,7290005019629,新規,0,2025-01-24,2025-01-24,医療法人ＫＳＣ,,その他の設立登記法人,福岡県,福岡市城南区,南片江１丁目２９番２５号,,40,136,8140143,,,,,,,2025-01-24,1,,,,,ケーエスシー,0
8913,7290801031225,新規,0,2025-01-24,2025-01-24,株式会社ＩＳＳＨＩＮ,,株式会社,福岡県,北九州市小倉北区,寿山町５番２７号（ウィンディアヒロ１０２）,,40,106,8020025,,,,,,,2025-01-24,1,,,,,イッシン,0
8915,7310001019423,新規,0,2025-01-24,2025-01-24,株式会社福寿,,株式会社,長崎県,雲仙市,小浜町南本町７番地２２,,42,213,8540513,,,,,,,2025-01-24,1,,,,,フクジュ,0
8919,7320003004562,新規,0,2025-01-24,2025-01-24,サンエナジー合同会社,,合同会社,大分県,杵築市,大字狩宿１８５０番地,,44,210,8730031,,,,,,,2025-01-24,1,,,,,サンエナジー,0
8920,7330001032829,新規,0,2025-01-24,2025-01-24,ルーツ株式会社,,株式会社,熊本県,熊本市東区,保田窪本町２番８号アクア久根山３０２,,43,102,8620925,,,,,,,2025-01-24,1,,,,,ルーツ,0
8922,7340003004726,新規,0,2025-01-24,2025-01-24,合同会社ウィステリア,,合同会社,鹿児島県,指宿市,湯の浜３丁目３番１３号,,46,210,8910406,,,,,,,2025-01-24,1,,,,,ウィステリア,0
8967,7350003004832,新規,0,2025-01-24,2025-01-24,福ｒｅエイト合同会社,,合同会社,宮崎県,延岡市,富美山町８３番地６３９,,45,203,8820051,,,,,,,2025-01-24,1,,,,,フクリエイト,0
8971,7360001034707,新規,0,2025-01-24,2025-01-24,株式会社仲村建装,,株式会社,沖縄県,中頭郡嘉手納町,字水釜４３９番地１,,47,325,9040204,,,,,,,2025-01-24,1,,,,,ナカムラケンソウ,0
8972,7360003014632,新規,0,2025-01-24,2025-01-24,合同会社ＥＷＡＬＵ,,合同会社,沖縄県,沖縄市,泡瀬６丁目３番２３号１Ｆ,,47,211,9042172,,,,,,,2025-01-24,1,,,,,エヴァル,0
8974,7370001052179,新規,0,2025-01-24,2025-01-24,株式会社Ｆａｓｔｅ,,株式会社,宮城県,気仙沼市,唐桑町宿浦２９番地３,,04,205,9880534,,,,,,,2025-01-24,1,,,,,ファステ,0
8979,7380001035042,新規,0,2025-01-24,2025-01-24,株式会社タカケン,,株式会社,福島県,いわき市,平字長橋町５２番地シャーメゾン長橋２０１号室,,07,204,9708026,,,,,,,2025-01-24,1,,,,,タカケン,0
8980,7380001035050,新規,0,2025-01-24,2025-01-24,株式会社共林,,株式会社,福島県,いわき市,小名浜下神白字薬師下１５９番地の２６,,07,204,9700316,,,,,,,2025-01-24,1,,,,,キョウリン,0
8985,7380005012913,新規,0,2025-01-24,2025-01-24,一般社団法人ピアサポふくしま,,その他の設立登記法人,福島県,郡山市,安積町荒井字柴宮山２７番１０３号,,07,203,9630111,,,,,,,2025-01-24,1,,,,,ピアサポフクシマ,0
8987,7410001014042,新規,0,2025-01-24,2025-01-24,株式会社ＴＭＪ松橋設備工業,,株式会社,秋田県,秋田市,将軍野東４丁目７番１７号,,05,201,0110931,,,,,,,2025-01-24,1,,,,,ティーエムジェイマツハシセツビコウギョウ,0
8988,7410005006622,新規,0,2025-01-24,2025-01-24,一般社団法人Ｂｕｉｌｄ　ｕｐ　ＡＫＩＴＡ,,その他の設立登記法人,秋田県,秋田市,大町５丁目４番２２号ＡＫＩＴＡ‐ＡＳビル３階,,05,201,0100921,,,,,,,2025-01-24,1,,,,,ビルドアップアキタ,0
9049,7480001012725,新規,0,2025-01-24,2025-01-24,株式会社ＹＯＳＨＩＭＯＴＯ,,株式会社,徳島県,徳島市,西新浜町１丁目２番８－３３号レーベンハイツ,,36,201,7708008,,,,,,,2025-01-24,1,,,,,ヨシモト,0
9050,7490001010950,新規,0,2025-01-24,2025-01-24,株式会社ミナミシップコンサルタント,,株式会社,高知県,高知市,中の島２番１０７号,,39,201,7810831,,,,,,,2025-01-24,1,,,,,ミナミシップコンサルタント,0
9056,7500003003422,新規,0,2025-01-24,2025-01-24,ＬＵＮＡＴＩＣ合同会社,,合同会社,愛媛県,松山市,石手白石１１９番地１ＡｍｂｉｔｉｏｎＫ２Ｓ１号室,,38,201,7900902,,,,,,,2025-01-24,1,,,,,ルナティック,0
9057,7700150128951,新規,0,2025-01-24,2025-01-24,Ｓ　Ｒ　Ｓ　ＬＡＮＫＡ　ＩＭＰＯＲＴＳ　ＰＲＩＶＡＴＥ　ＬＩＭＩＴＥＤ,,外国会社等,千葉県,八街市,文違３０１番地２２２９,,12,230,2891104,スリランカ民主社会主義共和国、南部州、マタラ地区、ディックウェラ、ヨナカプラ、マサラワラウワ、Ｎｏ．３８９,,,,,,2025-01-24,1,,,,,エスアールエスランカインポーツプライベートリミテツド,0
9067,8010001251633,新規,0,2025-01-24,2025-01-24,株式会社金星ウェルネス,,株式会社,東京都,千代田区,東神田３丁目２番３号,,13,101,1010031,,,,,,,2025-01-24,1,,,,,キンボシウェルネス,0
9068,8010001251641,新規,0,2025-01-24,2025-01-24,株式会社グランキャピタル,,株式会社,東京都,中央区,新川２丁目２２番６号,,13,102,1040033,,,,,,,2025-01-24,1,,,,,グランキャピタル,0
9070,8010003046164,新規,0,2025-01-24,2025-01-24,日爵合同会社,,合同会社,東京都,中央区,新富１丁目７番５－７０２,,13,102,1040041,,,,,,,2025-01-24,1,,,,,ニッシャク,0
9076,8010401187361,新規,0,2025-01-24,2025-01-24,株式会社ＬＯＯＰ,,株式会社,東京都,港区,北青山１丁目３番１号アールキューブ青山３階,,13,103,1070061,,,,,,,2025-01-24,1,,,,,ループ,0
9077,8010401187700,新規,0,2025-01-24,2025-01-24,株式会社ｈｉｇｈ　ｓｉｘ,,株式会社,東京都,港区,麻布十番１丁目９番４－８０１号,,13,103,1060045,,,,,,,2025-01-24,1,,,,,ハイシックス,0
9078,8010401187709,新規,0,2025-01-24,2025-01-24,ＳＨＥＮＧ　ＦＥＮＧ　ＪＡＰＡＮ株式会社,,株式会社,東京都,港区,赤坂９丁目７番１号,,13,103,1070052,,,,,,,2025-01-24,1,,,,,ションフォンジャパン,0
9079,8010401187717,新規,0,2025-01-24,2025-01-24,株式会社リーフレイン,,株式会社,東京都,港区,浜松町２丁目２－１５浜松町ダイヤビル２階,,13,103,1050013,,,,,,,2025-01-24,1,,,,,リーフレイン,0
9080,8010401187725,新規,0,2025-01-24,2025-01-24,ネクストステージコンサルティング株式会社,,株式会社,東京都,港区,芝浦２丁目１７－１３－２０５,,13,103,1080023,,,,,,,2025-01-24,1,,,,,ネクストステージコンサルティング,0
9081,8010401187832,新規,0,2025-01-24,2025-01-24,株式会社Ｂａｌｌｏｏｍ,,株式会社,東京都,港区,南青山３丁目１０番１１号Ｌｉｖｅｒａ表参道１０２,,13,103,1070062,,,,,,,2025-01-24,1,,,,,バルーム,0
9085,8010403034248,新規,0,2025-01-24,2025-01-24,合同会社ＴＡＫＵＭＩＮＡＳＵＮ,,合同会社,東京都,港区,虎ノ門３丁目１８番６号朝日虎ノ門マンション６１４号室,,13,103,1050001,,,,,,,2025-01-24,1,,,,,タクミナサン,0
9086,8010403034256,新規,0,2025-01-24,2025-01-24,Ａｅｑｕｉｓｙｓ合同会社,,合同会社,東京都,港区,北青山１丁目３番１号アールキューブ青山３階,,13,103,1070061,,,,,,,2025-01-24,1,,,,,エクイシス,0
9087,8010405023959,新規,0,2025-01-24,2025-01-24,一般社団法人全国金属プレス工業会,,その他の設立登記法人,東京都,港区,芝公園３丁目５番８号,,13,103,1050011,,,,,,,2025-01-24,1,,,,,ゼンコクキンゾクプレスコウギョウカイ,0
9088,8010405024032,新規,0,2025-01-24,2025-01-24,一般社団法人心香和会,,その他の設立登記法人,東京都,港区,六本木７丁目７番１３号,,13,103,1060032,,,,,,,2025-01-24,1,,,,,シンカワカイ,0
9089,8010501053505,新規,0,2025-01-24,2025-01-24,享澤株式会社,,株式会社,東京都,台東区,浅草橋１丁目２５－７,,13,106,1110053,,,,,,,2025-01-24,1,,,,,キョウザワ,0
9093,8010603011352,新規,0,2025-01-24,2025-01-24,合同会社Ｍ１,,合同会社,東京都,墨田区,江東橋２丁目６番９号４階,,13,107,1300022,,,,,,,2025-01-24,1,,,,,エムワン,0
9106,8011001167258,新規,0,2025-01-24,2025-01-24,株式会社Ｋ‐Ｎ,,株式会社,東京都,渋谷区,渋谷２丁目１９－１５宮益坂ビルディング６０９,,13,113,1500002,,,,,,,2025-01-24,1,,,,,ケイエヌ,0
9107,8011001167365,新規,0,2025-01-24,2025-01-24,株式会社ＦＯＵＮＤＲＹ　ＭＥＷＳ,,株式会社,東京都,渋谷区,神宮前６丁目２３―４桑野ビル２階,,13,113,1500001,,,,,,,2025-01-24,1,,,,,ファウンドリーミューズ,0
9125,8011101110365,新規,0,2025-01-24,2025-01-24,株式会社ＳＰＡＩＬ,,株式会社,東京都,新宿区,西新宿３丁目３番１３号西新宿水間ビル２Ｆ,,13,104,1600023,,,,,,,2025-01-24,1,,,,,スパイル,0
9128,8011103015463,新規,0,2025-01-24,2025-01-24,合同会社ファイブデイズプラスバル,,合同会社,東京都,新宿区,西新宿３丁目１８番７号,,13,104,1600023,,,,,,,2025-01-24,1,,,,,ファイブデイズプラスバル,0
9133,8011701028008,新規,0,2025-01-24,2025-01-24,Ａｄ　Ａｓｔｒａ　Ｓｔｕｄｉｏ株式会社,,株式会社,東京都,江戸川区,松江２丁目１番１３－３０８号室,,13,123,1320025,,,,,,,2025-01-24,1,,,,,アドアストラスタジオ,0
9135,8011801045415,新規,0,2025-01-24,2025-01-24,釧桀株式会社,,株式会社,東京都,足立区,新田１丁目８－２３－８１５号,,13,121,1230865,,,,,,,2025-01-24,1,,,,,センケツ,0
9136,8011801045489,新規,0,2025-01-24,2025-01-24,ティーキッツ株式会社,,株式会社,東京都,足立区,保塚町１３番１２号,,13,121,1210072,,,,,,,2025-01-24,1,,,,,ティーキッツ,0
9137,8011801045514,新規,0,2025-01-24,2025-01-24,Ｌｕｌｕ株式会社,,株式会社,東京都,足立区,保塚町１０番１８号,,13,121,1210072,,,,,,,2025-01-24,1,,,,,ルル,0
9173,8020001160940,新規,0,2025-01-24,2025-01-24,株式会社ｓｈｉｋｉ．,,株式会社,神奈川県,横浜市戸塚区,戸塚町１４１－１－２０１,,14,110,2440003,,,,,,,2025-01-24,1,,,,,シキ,0
9186,8030001164536,新規,0,2025-01-24,2025-01-24,株式会社わか電気工業,,株式会社,埼玉県,北本市,中丸７丁目２６０番地７,,11,233,3640013,,,,,,,2025-01-24,1,,,,,ワカデンキコウギョウ,0
9187,8030001164560,新規,0,2025-01-24,2025-01-24,株式会社ＳＡＧＧＩＯ,,株式会社,埼玉県,熊谷市,宮町２丁目１８１番地,,11,202,3600041,,,,,,,2025-01-24,1,,,,,サッジオ,0
9190,8030003025876,新規,0,2025-01-24,2025-01-24,ＡＫ・ｄｅｓｉｇｎ合同会社,,合同会社,埼玉県,熊谷市,末広３丁目１－５３,,11,202,3600031,,,,,,,2025-01-24,1,,,,,エーケーデザイン,0
9191,8030003025926,新規,0,2025-01-24,2025-01-24,合同会社藤森電気,,合同会社,埼玉県,三郷市,鷹野４丁目１８９番地,,11,237,3410035,,,,,,,2025-01-24,1,,,,,フジモリデンキ,0
9193,8030005022013,新規,0,2025-01-24,2025-01-24,一般社団法人埼玉県塗装職人協会,,その他の設立登記法人,埼玉県,さいたま市大宮区,仲町２丁目７１番地ソシオ大宮４Ｆ,,11,103,3300845,,,,,,,2025-01-24,1,,,,,サイタマケントソウショクニンキョウカイ,0
9199,8040001137128,新規,0,2025-01-24,2025-01-24,株式会社Ｌｕｎｅｏ　Ｅｎｅｒｇｙ,,株式会社,千葉県,松戸市,新松戸７丁目２５１番地の１ピノポルタ１０２号,,12,207,2700034,,,,,,,2025-01-24,1,,,,,ルネオエナジー,0
9200,8040001137144,新規,0,2025-01-24,2025-01-24,株式会社光国農園,,株式会社,千葉県,茂原市,六ツ野１９２０番地,,12,210,2970012,,,,,,,2025-01-24,1,,,,,ミツクニノウエン,0
9371,8050005013547,新規,0,2025-01-24,2025-01-24,一般社団法人ふくら,,その他の設立登記法人,茨城県,那珂市,中台７５０番地５,,08,226,3110113,,,,,,,2025-01-24,1,,,,,フクラ,0
9380,8100001038237,新規,0,2025-01-24,2025-01-24,株式会社ミヤザワアンドカンパニー,,株式会社,長野県,北佐久郡軽井沢町,大字追分１５００番地１８,,20,321,3890115,,,,,,,2025-01-24,1,,,,,ミヤザワアンドカンパニー,0
9390,8100005013285,新規,0,2025-01-24,2025-01-24,一般社団法人道の駅花の里いいじま,,その他の設立登記法人,長野県,上伊那郡飯島町,七久保２２５２番地,,20,384,3993705,,,,,,,2025-01-24,1,,,,,ミチノエキハナノサトイイジマ,0
9497,8110003005639,新規,0,2025-01-24,2025-01-24,合同会社リンクステーション,,合同会社,新潟県,新潟市北区,松浜７丁目６番地３号,,15,101,9503126,,,,,,,2025-01-24,1,,,,,リンクステーション,0
10078,8120001272214,新規,0,2025-01-24,2025-01-24,星株式会社,,株式会社,大阪府,大阪市福島区,野田３丁目１３番６号１０１,,27,103,5530005,,,,,,,2025-01-24,1,,,,,ホシ,0
10079,8120001272230,新規,0,2025-01-24,2025-01-24,日本常湘聚株式会社,,株式会社,大阪府,大阪市大正区,泉尾１丁目７番２号３０３,,27,108,5510031,,,,,,,2025-01-24,1,,,,,ニホンジョウショウシュウ,0
10080,8120001272263,新規,0,2025-01-24,2025-01-24,青木株式会社,,株式会社,大阪府,大阪市中央区,本町３丁目３－９－９Ｆ,,27,128,5410053,,,,,,,2025-01-24,1,,,,,アオキ,0
10092,8120003028449,新規,0,2025-01-24,2025-01-24,合同会社オルカリンク,,合同会社,大阪府,大阪市淀川区,塚本２丁目２８番１４－５１１号,,27,123,5320026,,,,,,,2025-01-24,1,,,,,オルカリンク,0
10093,8120003028457,新規,0,2025-01-24,2025-01-24,合同会社ｍｉｌａ,,合同会社,大阪府,大阪市北区,西天満５丁目６番１２号ＧＲＡＣＥ・Ｉ４０１号室,,27,127,5300047,,,,,,,2025-01-24,1,,,,,ミラ,0
10094,8120003028465,新規,0,2025-01-24,2025-01-24,合同会社火の国,,合同会社,大阪府,大阪市東淀川区,豊里５丁目１８－８フローライト豊里１－１１１,,27,114,5330013,,,,,,,2025-01-24,1,,,,,ヒノクニ,0
10104,8120101070922,新規,0,2025-01-24,2025-01-24,一木株式会社,,株式会社,大阪府,堺市堺区,中瓦町１丁２－９－５０１,,27,141,5900077,,,,,,,2025-01-24,1,,,,,イチボク,0
10105,8120101070930,新規,0,2025-01-24,2025-01-24,肖肖樂自動車貿易株式会社,,株式会社,大阪府,堺市北区,南花田町４１７番３－２１４号,,27,146,5918011,,,,,,,2025-01-24,1,,,,,ショウショウラクジドウシャボウエキ,0
10116,8130001078775,新規,0,2025-01-24,2025-01-24,株式会社ＣＡＭＢＡＮＡ,,株式会社,京都府,京都市山科区,竹鼻竹ノ街道町３５番地１４,,26,110,6078080,,,,,,,2025-01-24,1,,,,,カンバナ,0
10117,8130001078858,新規,0,2025-01-24,2025-01-24,林音不動産株式会社,,株式会社,京都府,京都市南区,東九条宇賀辺町７９番地３－１０１,,26,107,6018021,,,,,,,2025-01-24,1,,,,,リンネフドウサン,0
10120,8130003010166,新規,0,2025-01-24,2025-01-24,合同会社ハッピードリーム,,合同会社,京都府,舞鶴市,字引土１２４番地２,,26,202,6240841,,,,,,,2025-01-24,1,,,,,ハッピードリーム,0
10122,8140001137167,新規,0,2025-01-24,2025-01-24,湯浅不動産販売株式会社,,株式会社,兵庫県,丹波篠山市,網掛３９２番地２ラディアンス網掛２Ｆ,,28,221,6692205,,,,,,,2025-01-24,1,,,,,ユアサフドウサンハンバイ,0
10190,8180001165073,新規,0,2025-01-24,2025-01-24,株式会社はなぶさホールディングス,,株式会社,愛知県,名古屋市名東区,猪高台１丁目１３１６番地,,23,115,4650028,,,,,,,2025-01-24,1,,,,,ハナブサホールディングス,0
10198,8200001043367,新規,0,2025-01-24,2025-01-24,株式会社Ｌｅａｐ,,株式会社,岐阜県,岐阜市,高砂町５丁目１２番地２（サンクレイドル岐阜６０３号室）,,21,201,5008407,,,,,,,2025-01-24,1,,,,,リープ,0
10199,8200003006677,新規,0,2025-01-24,2025-01-24,ＷａｎＥｎｓ合同会社,,合同会社,岐阜県,岐阜市,太郎丸北郷２０２－１,,21,201,5012572,,,,,,,2025-01-24,1,,,,,ワンエンズ,0
10202,8220001026452,新規,0,2025-01-24,2025-01-24,株式会社ホンテツ,,株式会社,石川県,金沢市,福増町南１４番地,,17,201,9200376,,,,,,,2025-01-24,1,,,,,ホンテツ,0
10204,8220003003937,新規,0,2025-01-24,2025-01-24,合同会社松任駅南ビル２号,,合同会社,石川県,金沢市,新神田５丁目５番地,,17,201,9218013,,,,,,,2025-01-24,1,,,,,マットウエキミナミビルニゴウ,0
10205,8240001064426,新規,0,2025-01-24,2025-01-24,株式会社ＣＥＮＯＴＥ,,株式会社,広島県,広島市東区,牛田新町４丁目７番２１－１２０２号,,34,102,7320068,,,,,,,2025-01-24,1,,,,,セノーテ,0
10206,8240001064434,新規,0,2025-01-24,2025-01-24,株式会社Ｂ＆Ｃ,,株式会社,広島県,広島市南区,西霞町２番１２号,,34,103,7340044,,,,,,,2025-01-24,1,,,,,ビーアンドシー,0
10225,8290001108698,新規,0,2025-01-24,2025-01-24,株式会社雨の森,,株式会社,福岡県,宗像市,東郷５丁目１６番３２号,,40,220,8113436,,,,,,,2025-01-24,1,,,,,アメノモリ,0
10228,8290803004954,新規,0,2025-01-24,2025-01-24,合同会社Ｈ＆Ｏ,,合同会社,福岡県,北九州市八幡西区,萩原１丁目７番４－１号,,40,109,8060059,,,,,,,2025-01-24,1,,,,,エイチアンドオー,0
10230,8310001019422,新規,0,2025-01-24,2025-01-24,株式会社田中試錐工業,,株式会社,長崎県,佐世保市,世知原町長田代３９３番地,,42,202,8596411,,,,,,,2025-01-24,1,,,,,タナカシスイコウギョウ,0
10239,8330001032828,新規,0,2025-01-24,2025-01-24,株式会社Ｍａｉｓｏｎ　Ｐｌａｎ,,株式会社,熊本県,熊本市北区,楠８丁目６番１５－７号,,43,105,8618003,,,,,,,2025-01-24,1,,,,,メゾンプラン,0
10240,8340001027075,新規,0,2025-01-24,2025-01-24,株式会社ルミエール,,株式会社,鹿児島県,鹿児島市,武１丁目２１番３９号,,46,201,8900045,,,,,,,2025-01-24,1,,,,,ルミエール,0
10241,8340001027083,新規,0,2025-01-24,2025-01-24,株式会社エモダカフ,,株式会社,鹿児島県,姶良市,西餅田３０５８番地４８,,46,225,8995431,,,,,,,2025-01-24,1,,,,,エモダカフ,0
10289,8360003014623,新規,0,2025-01-24,2025-01-24,合同会社Ｌｅａｒｎ　ｔｏ　Ｌｅａｒｎ,,合同会社,沖縄県,那覇市,銘苅１丁目３－３６－６０１,,47,201,9000004,,,,,,,2025-01-24,1,,,,,ラーントゥラーン,0
10295,8370003006909,新規,0,2025-01-24,2025-01-24,合同会社にこん,,合同会社,宮城県,仙台市宮城野区,二十人町３０５番地の９,,04,102,9830862,,,,,,,2025-01-24,1,,,,,ニコン,0
10360,8440005002790,新規,0,2025-01-24,2025-01-24,一般社団法人函館観光プラットフォーム,,その他の設立登記法人,北海道,函館市,弥生町７番９号,,01,202,0400056,,,,,,,2025-01-24,1,,,,,ハコダテカンコウプラットフォーム,0
10362,8460003001033,新規,0,2025-01-24,2025-01-24,合同会社カルナ,,合同会社,北海道,釧路市,鳥取北３丁目９番１５号,,01,206,0840907,,,,,,,2025-01-24,1,,,,,カルナ,0
10369,8700150128950,新規,0,2025-01-24,2025-01-24,ＤＡＲ　ＡＵＴＯ　ＣＯＲＰＯＲＡＴＩＯＮ,,外国会社等,千葉県,富里市,立沢新田６１番地３７オフィス４,,12,233,2860215,スリランカ民主社会主義共和国、ガレウェラ、バンバラガスウェワ、コスガハヒンナ,,,,,,2025-01-24,1,,,,,ダルオートコーポレーシヨン,0
10381,9010003046048,新規,0,2025-01-24,2025-01-24,リエネ自然ファーム合同会社,,合同会社,東京都,中央区,京橋２丁目１２番６号ＡＯＪ税理士法人内,,13,102,1040031,,,,,,,2025-01-24,1,,,,,リエネシゼンファーム,0
10382,9010003046155,新規,0,2025-01-24,2025-01-24,ＳＩＲＩＵＳ合同会社,,合同会社,東京都,中央区,八丁堀２丁目３０番１６号,,13,102,1040032,,,,,,,2025-01-24,1,,,,,シリウス,0
10392,9010401187690,新規,0,2025-01-24,2025-01-24,株式会社ダイアマネジメント,,株式会社,東京都,港区,新橋２丁目４番５号,,13,103,1050004,,,,,,,2025-01-24,1,,,,,ダイアマネジメント,0
10393,9010401187716,新規,0,2025-01-24,2025-01-24,株式会社碧空,,株式会社,東京都,港区,赤坂６丁目５番２１－１０３号,,13,103,1070052,,,,,,,2025-01-24,1,,,,,アオゾラ,0
10395,9010403034230,新規,0,2025-01-24,2025-01-24,のぞみ美祢ソーラー合同会社,,合同会社,東京都,港区,芝５丁目２９番１９号ＰＭＯ田町ＩＶ８階,00137772,13,103,1080014,,,,,,,2025-01-24,1,,,,,ノゾミミネソーラー,0
10396,9010403034247,新規,0,2025-01-24,2025-01-24,Ｓｅｒｉｎ２合同会社,,合同会社,東京都,港区,虎ノ門２丁目６番１号,,13,103,1050001,,,,,,,2025-01-24,1,,,,,セリンツー,0
10397,9010405024015,新規,0,2025-01-24,2025-01-24,一般社団法人のぞみ於福ソーラー,,その他の設立登記法人,東京都,港区,芝５丁目２９番１９号ＰＭＯ田町ＩＶ８階,00137771,13,103,1080014,,,,,,,2025-01-24,1,,,,,ノゾミオフクソーラー,0
10398,9010405024023,新規,0,2025-01-24,2025-01-24,一般社団法人ＲＥＧ,,その他の設立登記法人,東京都,港区,六本木６丁目１０番１号六本木ヒルズ森タワー１５Ｆ,,13,103,1060032,,,,,,,2025-01-24,1,,,,,レグ,0
10400,9010501053504,新規,0,2025-01-24,2025-01-24,株式会社ＢＡＬＳ,,株式会社,東京都,台東区,上野２丁目１０番４号４階－Ａ,,13,106,1100005,,,,,,,2025-01-24,1,,,,,バルス,0
10402,9010503007714,新規,0,2025-01-24,2025-01-24,合同会社モスト,,合同会社,東京都,台東区,根岸１丁目１－２４－６０８,,13,106,1100003,,,,,,,2025-01-24,1,,,,,モスト,0
10404,9010603011351,新規,0,2025-01-24,2025-01-24,合同会社ＫＥＩ,,合同会社,東京都,江東区,佐賀１丁目７－１－５０３号室,,13,108,1350031,,,,,,,2025-01-24,1,,,,,ケイ,0
10408,9011001167249,新規,0,2025-01-24,2025-01-24,株式会社コードネスト,,株式会社,東京都,渋谷区,渋谷２丁目１９－１５宮益坂ビルディング６０９,,13,113,1500002,,,,,,,2025-01-24,1,,,,,コードネスト,0
10409,9011001167273,新規,0,2025-01-24,2025-01-24,株式会社ありてい,,株式会社,東京都,渋谷区,渋谷２丁目１９－１５宮益坂ビルディング６０９,,13,113,1500002,,,,,,,2025-01-24,1,,,,,アリテイ,0
10435,9011105011303,新規,0,2025-01-24,2025-01-24,一般社団法人新春会,,その他の設立登記法人,東京都,新宿区,新宿３丁目２７番１号新宿第一ビル４階,,13,104,1600022,,,,,,,2025-01-24,1,,,,,シンシュンカイ,0
10437,9011303005395,新規,0,2025-01-24,2025-01-24,合同会社ひなた,,合同会社,東京都,杉並区,今川４丁目１６－３,,13,115,1670035,,,,,,,2025-01-24,1,,,,,ヒナタ,0
10438,9011401026756,新規,0,2025-01-24,2025-01-24,和亨株式会社,,株式会社,東京都,板橋区,仲宿６３番７号ＯＥＯｆｆｉｃｅＢｌｄｇ．２１５号,,13,119,1730005,,,,,,,2025-01-24,1,,,,,ワキョウ,0
10440,9011601028387,新規,0,2025-01-24,2025-01-24,株式会社ＡＤＣホールディングス,,株式会社,東京都,練馬区,平和台１丁目４番２号,,13,120,1790083,,,,,,,2025-01-24,1,,,,,エーディーシーホールディングス,0
10444,9011701028007,新規,0,2025-01-24,2025-01-24,菅原建工株式会社,,株式会社,東京都,江戸川区,一之江１丁目９番２２号,,13,123,1320024,,,,,,,2025-01-24,1,,,,,スガワラケンコウ,0
10447,9011703004088,新規,0,2025-01-24,2025-01-24,合同会社Ｋ＆Ｋサービス,,合同会社,東京都,江戸川区,南小岩７丁目３７番地５号１０１号室,,13,123,1330056,,,,,,,2025-01-24,1,,,,,ケーアンドケーサービス,0
10488,9020001161137,新規,0,2025-01-24,2025-01-24,株式会社柊燈園,,株式会社,神奈川県,横浜市戸塚区,原宿３丁目１２番２３号,,14,110,2450063,,,,,,,2025-01-24,1,,,,,シュントウエン,0
10503,9030001164510,新規,0,2025-01-24,2025-01-24,易彦商社株式会社,,株式会社,埼玉県,さいたま市大宮区,三橋２丁目５３９番地３,,11,103,3300856,,,,,,,2025-01-24,1,,,,,ヤスヒコショウシャ,0
10504,9030001164543,新規,0,2025-01-24,2025-01-24,株式会社アニエイ,,株式会社,埼玉県,上尾市,小泉８丁目２８番地１３,,11,219,3620063,,,,,,,2025-01-24,1,,,,,アニエイ,0
10505,9030003025933,新規,0,2025-01-24,2025-01-24,ＮＥ４合同会社,,合同会社,埼玉県,越谷市,大字砂原９７６,,11,222,3430803,,,,,,,2025-01-24,1,,,,,エヌイーフォー,0
10506,9030003025941,新規,0,2025-01-24,2025-01-24,合同会社ＣＳＰ２,,合同会社,埼玉県,さいたま市浦和区,本太４丁目８番１１－５０５号,,11,107,3300052,,,,,,,2025-01-24,1,,,,,シーエスピーニ,0
10512,9040001137119,新規,0,2025-01-24,2025-01-24,株式会社ＥｘＴｅｒａ,,株式会社,千葉県,船橋市,湊町２丁目１２番２４号日本橋ビル６Ｆ,,12,204,2730011,,,,,,,2025-01-24,1,,,,,エクステラ,0
10516,9040002105396,新規,0,2025-01-24,2025-01-24,有限会社成和ハウジング,,有限会社,千葉県,佐倉市,南臼井台１８番１０号,,12,212,2850865,,,,,,,2025-01-24,1,,,,,セイワハウジング,0
10520,9040003026658,新規,0,2025-01-24,2025-01-24,合同会社ＬＩＦＥ＆ＥＤＵＣＡＴＩＯＮ,,合同会社,千葉県,千葉市稲毛区,柏台１番８棟,,12,103,2630053,,,,,,,2025-01-24,1,,,,,ライフアンドエデュケーション,0
10648,9050001056045,新規,0,2025-01-24,2025-01-24,内野建材店株式会社,,株式会社,茨城県,鹿嶋市,大字明石３２０番地１５,,08,222,3140002,,,,,,,2025-01-24,1,,,,,ウチノケンザイテン,0
10649,9050001056061,新規,0,2025-01-24,2025-01-24,ひかり不動産コンサルタント株式会社,,株式会社,茨城県,土浦市,東真鍋町１１番１４号東真鍋アイビーマンション１０３号室,,08,203,3000052,,,,,,,2025-01-24,1,,,,,ヒカリフドウサンコンサルタント,0
10667,9070005010351,新規,0,2025-01-24,2025-01-24,特定非営利活動法人新田フードサポート,,その他の設立登記法人,群馬県,太田市,本町３２番２５号ローズメゾンＶ１０５号,00137763,10,205,3730057,,,,,,,2025-01-24,1,,,,,,0
10671,9080401027700,新規,0,2025-01-24,2025-01-24,株式会社アークライフ,,株式会社,静岡県,袋井市,村松２１６７番地,,22,216,4370011,,,,,,,2025-01-24,1,,,,,アークライフ,0
11372,9120001272205,新規,0,2025-01-24,2025-01-24,株式会社Ｓｋｙ　Ｅｎｔｒａｎｃｅ,,株式会社,大阪府,大阪市東淀川区,東淡路４丁目１７－１５Ｒｅ：Ｚｏｎｅ淡路０１－２０６号,,27,114,5330023,,,,,,,2025-01-24,1,,,,,スカイエントランス,0
11373,9120001272221,新規,0,2025-01-24,2025-01-24,株式会社シエノス,,株式会社,大阪府,大阪市中央区,博労町４丁目４番１１号,,27,128,5410059,,,,,,,2025-01-24,1,,,,,シエノス,0
11374,9120001272246,新規,0,2025-01-24,2025-01-24,福旺株式会社,,株式会社,大阪府,大阪市城東区,野江３丁目２７－７野江１番館３０２号,,27,118,5360006,,,,,,,2025-01-24,1,,,,,フクオウ,0
11375,9120001272270,新規,0,2025-01-24,2025-01-24,ＤＤＳエステイト株式会社,,株式会社,大阪府,大阪市北区,豊崎３丁目１６番１６号,,27,127,5310072,,,,,,,2025-01-24,1,,,,,ディーディーエスエステイト,0
11386,9120003028448,新規,0,2025-01-24,2025-01-24,合同会社ＴＫＦ,,合同会社,大阪府,大阪市中央区,谷町７丁目１番３０－７０７号,,27,128,5420012,,,,,,,2025-01-24,1,,,,,ティーケーエフ,0
11396,9120005024759,新規,0,2025-01-24,2025-01-24,高徳税理士法人,,その他の設立登記法人,大阪府,大阪市北区,鶴野町４番コープ野村梅田Ａ棟２０８号,,27,127,5300014,,,,,,,2025-01-24,1,,,,,コウトク,0
11408,9130001078857,新規,0,2025-01-24,2025-01-24,株式会社エヌエスエーシー,,株式会社,京都府,京都市下京区,小稲荷町８５－２Ｇｒａｎｄ－Ｋ京都駅前ビル２０１,,26,106,6008208,,,,,,,2025-01-24,1,,,,,エヌエスエーシー,0
11409,9130001078865,新規,0,2025-01-24,2025-01-24,株式会社都,,株式会社,京都府,京都市右京区,西院西貝川町６５番地７,,26,108,6150056,,,,,,,2025-01-24,1,,,,,ミヤコ,0
11410,9130003010140,新規,0,2025-01-24,2025-01-24,ＺｅｎＳｉｎ合同会社,,合同会社,京都府,京都市伏見区,小栗栖森本町２０番地の７６,,26,109,6011462,,,,,,,2025-01-24,1,,,,,ゼンシン,0
11411,9130003010165,新規,0,2025-01-24,2025-01-24,菜根譚合同会社,,合同会社,京都府,京都市上京区,小川通元誓願寺下る靭屋町５０１番地１,,26,102,6020942,,,,,,,2025-01-24,1,,,,,サイコンタン,0
11474,9170001018462,新規,0,2025-01-24,2025-01-24,大一建設株式会社,,株式会社,和歌山県,和歌山市,園部１０１３番地５,,30,201,6408483,,,,,,,2025-01-24,1,,,,,ダイイチケンセツ,0
11475,9170003002159,新規,0,2025-01-24,2025-01-24,ＣＮ合同会社,,合同会社,和歌山県,和歌山市,匠町２５番地５０２号室,,30,201,6408028,,,,,,,2025-01-24,1,,,,,シーエヌ,0
11480,9180001165147,新規,0,2025-01-24,2025-01-24,株式会社サムシス,,株式会社,愛知県,名古屋市北区,上飯田東町２丁目６８番地の２,,23,103,4620803,,,,,,,2025-01-24,1,,,,,サムシス,0
11487,9180301039463,新規,0,2025-01-24,2025-01-24,Ｐｉａｃｅｖｏｌｅ株式会社,,株式会社,愛知県,豊橋市,旭町３１１番地３,,23,201,4400057,,,,,,,2025-01-24,1,,,,,ピアチェボーレ,0
11490,9210001020034,新規,0,2025-01-24,2025-01-24,株式会社ＨＣ,,株式会社,福井県,あわら市,温泉１丁目５０５番地,,18,208,9104104,,,,,,,2025-01-24,1,,,,,エイチシー,0
11497,9230001020718,新規,0,2025-01-24,2025-01-24,ＢＥＲＲＹＪＡＭ株式会社,,株式会社,富山県,高岡市,城光寺３４番地１０,,16,202,9330126,,,,,,,2025-01-24,1,,,,,ベリージャム,0
11498,9240001064425,新規,0,2025-01-24,2025-01-24,株式会社ケーズメンテ,,株式会社,広島県,安芸郡坂町,平成ヶ浜２丁目２番７２－９０６号,,34,309,7314312,,,,,,,2025-01-24,1,,,,,,0
11499,9240001064433,新規,0,2025-01-24,2025-01-24,株式会社ｏｆｆｉｃｅ三原色,,株式会社,広島県,広島市西区,古江西町１８番１４－１０２号,,34,104,7330874,,,,,,,2025-01-24,1,,,,,オフィスサンゲンショク,0
11501,9260001039838,新規,0,2025-01-24,2025-01-24,株式会社ＨＳコーポレーション,,株式会社,岡山県,岡山市北区,下石井２丁目１０番３０号５１６号室,,33,101,7000907,,,,,,,2025-01-24,1,,,,,エイチエスコーポレーション,0
11503,9260003005045,新規,0,2025-01-24,2025-01-24,ＧＬＡＭＥ’Ｓ合同会社,,合同会社,岡山県,倉敷市,三田９７番地４ソレイユＡ号室,,33,202,7100001,,,,,,,2025-01-24,1,,,,,グラムス,0
11505,9270001009138,新規,0,2025-01-24,2025-01-24,山旺建設株式会社,,株式会社,鳥取県,鳥取市,立川町５丁目１３７番地６,,31,201,6800061,,,,,,,2025-01-24,1,,,,,サンオウケンセツ,0
11547,9360001034705,新規,0,2025-01-24,2025-01-24,沖縄エステートメンテナンスサポート株式会社,,株式会社,沖縄県,那覇市,字宇栄原７２２番地３,,47,201,9010153,,,,,,,2025-01-24,1,,,,,オキナワエステートメンテナンスサポート,0
11548,9360001034713,新規,0,2025-01-24,2025-01-24,株式会社みなもと,,株式会社,沖縄県,宮古島市,平良字下里１４７６番地２,,47,214,9060013,,,,,,,2025-01-24,1,,,,,ミナモト,0
11549,9360003014622,新規,0,2025-01-24,2025-01-24,合同会社悠莉,,合同会社,沖縄県,豊見城市,字宜保１６５番地２１,,47,212,9010244,,,,,,,2025-01-24,1,,,,,ユウリ,0
11550,9360003014630,新規,0,2025-01-24,2025-01-24,合同会社Ｐｏｒｔ,,合同会社,沖縄県,那覇市,首里崎山町４丁目６７－５,,47,201,9030814,,,,,,,2025-01-24,1,,,,,ポート,0
11554,9370001052177,新規,0,2025-01-24,2025-01-24,株式会社エスエーメイク,,株式会社,宮城県,仙台市宮城野区,栄４丁目１４番１４号,,04,102,9830011,,,,,,,2025-01-24,1,,,,,エスエーメイク,0
11555,9370003006908,新規,0,2025-01-24,2025-01-24,合同会社鈴の八,,合同会社,宮城県,仙台市太白区,柳生４丁目３番地の１３ナイスアーバン南仙台ＩＩＩ３０１号室,00137764,04,104,9811106,,,,,,,2025-01-24,1,,,,,スズノヤ,0
11560,9380003005933,新規,0,2025-01-24,2025-01-24,合同会社さくら彩園,,合同会社,福島県,田村郡三春町,大字鷹巣字瀬山５３番地,,07,521,9637725,,,,,,,2025-01-24,1,,,,,サクラサイエン,0
11612,9430001093537,新規,0,2025-01-24,2025-01-24,株式会社Ｈｏｎｅｓｔ,,株式会社,北海道,恵庭市,黄金北３丁目１７番地１３,,01,231,0611407,,,,,,,2025-01-24,1,,,,,オネスト,0
