sequenceNumber,corporateNumber,process,correct,updateDate,changeDate,name,nameImageId,kind,prefectureName,cityName,streetNumber,addressImageId,prefectureCode,cityCode,postCode,addressOutside,addressOutsideImageId,closeDate,closeCause,successorCorporateNumber,changeCause,assignmentDate,latest,enName,enPrefectureName,enCityName,enAddressOutside,furigana,hihyoji
8,1010001236211,新規,0,2023-06-19,2023-06-19,株式会社倭塾,,株式会社,東京都,千代田区,内神田１丁目１８番１１号,,13,101,1010047,,,,,,,2023-06-19,1,,,,,ワジュク,0
9,1010001236260,新規,0,2023-06-19,2023-06-19,ネクストパティオ株式会社,,株式会社,東京都,文京区,音羽１丁目１２番８号,,13,105,1120013,,,,,,,2023-06-19,1,,,,,ネクストパティオ,0
12,1010003040875,新規,0,2023-06-19,2023-06-19,合同会社ＡＬＡ,,合同会社,東京都,中央区,銀座１丁目１２－４Ｎ＆ＥＢＬＤ．７階,,13,102,1040061,,,,,,,2023-06-19,1,,,,,エーエルエー,0
13,1010003040900,新規,0,2023-06-19,2023-06-19,合同会社ＫＥパワー２５,,合同会社,東京都,千代田区,霞が関３丁目２番１号霞が関コモンゲート西館２２階株式会社Ｋエナジー内,,13,101,1000013,,,,,,,2023-06-19,1,,,,,ケイイーパワーニジュウゴ,0
31,1010403030352,新規,0,2023-06-19,2023-06-19,合同会社ロクラ,,合同会社,東京都,港区,浜松町２丁目２番１５号浜松町ダイヤビル２Ｆ,,13,103,1050013,,,,,,,2023-06-19,1,,,,,ロクラ,0
33,1010501050608,新規,0,2023-06-19,2023-06-19,株式会社来芙,,株式会社,東京都,台東区,上野３丁目１６番２号,,13,106,1100005,,,,,,,2023-06-19,1,,,,,ライフ,0
34,1010601063286,新規,0,2023-06-19,2023-06-19,株式会社ｋｉｔ,,株式会社,東京都,墨田区,菊川３丁目２１番１５－５０４号,,13,107,1300024,,,,,,,2023-06-19,1,,,,,キット,0
35,1010603010195,新規,0,2023-06-19,2023-06-19,合同会社もく,,合同会社,東京都,江東区,豊洲６丁目２－２９－１４１７,,13,108,1350061,,,,,,,2023-06-19,1,,,,,モク,0
44,1010801034062,新規,0,2023-06-19,2023-06-19,新千歳空港サービス株式会社,,株式会社,東京都,大田区,平和島６丁目１番１号,,13,111,1430006,,,,,,,2023-06-19,1,,,,,シンチトセクウコウサービス,0
52,1011001155112,新規,0,2023-06-19,2023-06-19,株式会社Ｍ２　Ａｇｅｎｃｙ,,株式会社,東京都,目黒区,中目黒４丁目８番２５号,,13,110,1530061,,,,,,,2023-06-19,1,,,,,エムツーエージェンシー,0
53,1011001155153,新規,0,2023-06-19,2023-06-19,ＹＢＳＫ株式会社,,株式会社,東京都,渋谷区,道玄坂１丁目１０番８号渋谷道玄坂東急ビル２Ｆ－Ｃ,,13,113,1500043,,,,,,,2023-06-19,1,,,,,ワイビーエスケー,0
58,1011703003485,新規,0,2023-06-19,2023-06-19,Ｐ＆Ｏ合同会社,,合同会社,東京都,江戸川区,南葛西４丁目６‐３‐５０１,,13,123,1340085,,,,,,,2023-06-19,1,,,,,ピーアンドオー,0
62,1011803005695,新規,0,2023-06-19,2023-06-19,合同会社エール鍼灸訪問マッサージ,,合同会社,東京都,足立区,加平１丁目７－１２フィオーレ北綾瀬４０５,,13,121,1210055,,,,,,,2023-06-19,1,,,,,,0
75,1013301050926,新規,0,2023-06-19,2023-06-19,泓欣株式会社,,株式会社,東京都,豊島区,巣鴨１丁目１４－１２東洋巣鴨コーポ１０２号,,13,116,1700002,,,,,,,2023-06-19,1,,,,,オウゴン,0
78,1020001152110,新規,0,2023-06-19,2023-06-19,株式会社Ｔｒｕｍｐ,,株式会社,神奈川県,横浜市磯子区,森１丁目１３番３－１１０２号,,14,107,2350023,,,,,,,2023-06-19,1,,,,,トランプ,0
79,1020001152127,新規,0,2023-06-19,2023-06-19,株式会社オフィス・グリーン,,株式会社,神奈川県,横浜市港北区,高田東４丁目５番２号,,14,109,2230065,,,,,,,2023-06-19,1,,,,,オフィスグリーン,0
87,1021001079351,新規,0,2023-06-19,2023-06-19,アバンティ株式会社,,株式会社,神奈川県,相模原市南区,新磯野２丁目１番５号東成ビル４Ｆ,,14,153,2520325,,,,,,,2023-06-19,1,,,,,アバンティ,0
88,1021001079368,新規,0,2023-06-19,2023-06-19,Ｍ２ＳＯＬコンサルティング株式会社,,株式会社,神奈川県,鎌倉市,城廻１４５番地２０,,14,204,2470074,,,,,,,2023-06-19,1,,,,,エムツーソルコンサルティング,0
97,1030001154403,新規,0,2023-06-19,2023-06-19,アディス株式会社,,株式会社,埼玉県,草加市,八幡町７３９－１,,11,221,3400006,,,,,,,2023-06-19,1,,,,,アディス,0
98,1030001154436,新規,0,2023-06-19,2023-06-19,株式会社湫,,株式会社,埼玉県,川口市,青木１丁目２２－１７－２０５ライオンズマンション川口青木,,11,203,3320031,,,,,,,2023-06-19,1,,,,,シュウ,0
99,1030001154460,新規,0,2023-06-19,2023-06-19,株式会社天斗,,株式会社,埼玉県,三郷市,戸ケ崎１丁目４２５番地１,,11,237,3410044,,,,,,,2023-06-19,1,,,,,タカト,0
100,1030001154510,新規,0,2023-06-19,2023-06-19,株式会社ティーエー商会,,株式会社,埼玉県,桶川市,大字川田谷２２１番地８－２Ｆ,,11,231,3630027,,,,,,,2023-06-19,1,,,,,ティーエーショウカイ,0
101,1030001154519,新規,0,2023-06-19,2023-06-19,マークベース株式会社,,株式会社,埼玉県,川口市,本町４丁目７番２１号,,11,203,3320012,,,,,,,2023-06-19,1,,,,,マークベース,0
102,1030001154543,新規,0,2023-06-19,2023-06-19,株式会社ＳＵＮＢＯＫ,,株式会社,埼玉県,さいたま市岩槻区,仲町１丁目５番１５－２号,,11,110,3390054,,,,,,,2023-06-19,1,,,,,サンボク,0
103,1030001154551,新規,0,2023-06-19,2023-06-19,株式会社シーク,,株式会社,埼玉県,川口市,幸町２丁目１３番１７号,,11,203,3320016,,,,,,,2023-06-19,1,,,,,シーク,0
107,1030003021956,新規,0,2023-06-19,2023-06-19,合同会社ＮＫゆいまーる,,合同会社,埼玉県,さいたま市南区,白幡６丁目９番８号,,11,108,3360022,,,,,,,2023-06-19,1,,,,,エヌケーユイマール,0
108,1030003021964,新規,0,2023-06-19,2023-06-19,ＨＥＲＯ　ＥＮＴＥＲＰＲＩＳＥ合同会社,,合同会社,埼玉県,川口市,並木１丁目１８番２６号エクセレント並木１０１,,11,203,3320034,,,,,,,2023-06-19,1,,,,,ヒロエンタープライズ,0
117,1040001128892,新規,0,2023-06-19,2023-06-19,Ｓ＆Ｘ株式会社,,株式会社,千葉県,市川市,市川２丁目２２－６ＤＳビル,,12,203,2720034,,,,,,,2023-06-19,1,,,,,エスアンドエックス,0
142,1100001036528,新規,0,2023-06-19,2023-06-19,株式会社ＯＨＡＲＡ,,株式会社,長野県,松本市,大字蟻ケ崎１８７２番地４,,20,202,3900861,,,,,,,2023-06-19,1,,,,,オハラ,0
144,1100003007064,新規,0,2023-06-19,2023-06-19,ぱるがんぽっと合同会社,,合同会社,長野県,飯田市,中央通り２丁目２１番地５井上ビル,,20,205,3950041,,,,,,,2023-06-19,1,,,,,パルガンポット,0
148,1110003005091,新規,0,2023-06-19,2023-06-19,合同会社リップルマーク,,合同会社,新潟県,新潟市中央区,女池６丁目８番１２号サンライフＫａｎｚａｗａＡ棟１０１号,,15,103,9500941,,,,,,,2023-06-19,1,,,,,リップルマーク,0
159,1120001255786,新規,0,2023-06-19,2023-06-19,徳懿物藏株式会社,,株式会社,大阪府,大阪市中央区,船越町１丁目５－８－４０５号室,,27,128,5400036,,,,,,,2023-06-19,1,,,,,トクイブツゾウ,0
160,1120001255794,新規,0,2023-06-19,2023-06-19,とくとうグループ株式会社,,株式会社,大阪府,枚方市,春日北町１丁目４１番４号,,27,210,5730137,,,,,,,2023-06-19,1,,,,,トクトウグループ,0
161,1120001255844,新規,0,2023-06-19,2023-06-19,励耘株式会社,,株式会社,大阪府,大阪市東成区,神路４丁目３－１０スター・レジデンス新深江２０５号室,,27,115,5370003,,,,,,,2023-06-19,1,,,,,レイウン,0
163,1120003024330,新規,0,2023-06-19,2023-06-19,合同会社ＥＺキャリア,,合同会社,大阪府,大阪市西成区,中開３丁目４番１１号,,27,122,5570022,,,,,,,2023-06-19,1,,,,,イージーキャリア,0
188,1140001130558,新規,0,2023-06-19,2023-06-19,株式会社ＭＡＲＵＯ,,株式会社,兵庫県,姫路市,網干区浜田７４番地４,,28,201,6711242,,,,,,,2023-06-19,1,,,,,マルオ,0
189,1140001130566,新規,0,2023-06-19,2023-06-19,株式会社松本ＦＣ,,株式会社,兵庫県,神戸市東灘区,田中町３丁目１１番２０－６０３号,,28,101,6580081,,,,,,,2023-06-19,1,,,,,マツモトエフシー,0
190,1140001130574,新規,0,2023-06-19,2023-06-19,ひととひと不動産株式会社,,株式会社,兵庫県,神戸市東灘区,御影３丁目２番１１－１０７号,,28,101,6580047,,,,,,,2023-06-19,1,,,,,ヒトトヒトフドウサン,0
191,1140001130582,新規,0,2023-06-19,2023-06-19,株式会社リープ,,株式会社,兵庫県,豊岡市,日高町江原１０６番地１生田ビル１０３,,28,209,6695301,,,,,,,2023-06-19,1,,,,,リープ,0
193,1140003019213,新規,0,2023-06-19,2023-06-19,三泉合同会社,,合同会社,兵庫県,芦屋市,東山町１４番１９号,,28,206,6590091,,,,,,,2023-06-19,1,,,,,サンセン,0
194,1140005026661,新規,0,2023-06-19,2023-06-19,ＮＰＯ法人がんばろう猪名川,,その他の設立登記法人,兵庫県,川辺郡猪名川町,万善字北殿２番地,,28,301,6660224,,,,,,,2023-06-19,1,,,,,ガンバロウイナガワ,0
196,1150003002985,新規,0,2023-06-19,2023-06-19,合同会社いろは,,合同会社,奈良県,奈良市,学園大和町３丁目５番地,,29,201,6310041,,,,,,,2023-06-19,1,,,,,イロハ,0
213,1200001041410,新規,0,2023-06-19,2023-06-19,株式会社ＣＲＦ,,株式会社,岐阜県,不破郡垂井町,宮代２７４１番地の１０,,21,361,5032124,,,,,,,2023-06-19,1,,,,,シーアールエフ,0
219,1260003004335,新規,0,2023-06-19,2023-06-19,合同会社山陽商会,,合同会社,岡山県,赤磐市,神田６１７番地２,,33,213,7090801,,,,,,,2023-06-19,1,,,,,サンヨウショウカイ,0
222,1270001008799,新規,0,2023-06-19,2023-06-19,アグリジャパン株式会社,,株式会社,鳥取県,米子市,淀江町佐陀１７６３番地２,,31,202,6893425,,,,,,,2023-06-19,1,,,,,アグリジャパン,0
232,1290001101949,新規,0,2023-06-19,2023-06-19,株式会社Ｌｉｌ　Ｆｅｌｉｚ,,株式会社,福岡県,福岡市中央区,平尾２丁目８番３３号,,40,133,8100014,,,,,,,2023-06-19,1,,,,,リルフェリス,0
233,1290001101957,新規,0,2023-06-19,2023-06-19,株式会社リ・ファイン,,株式会社,福岡県,久留米市,宮ノ陣６丁目８番２８号,,40,203,8390801,,,,,,,2023-06-19,1,,,,,リファイン,0
237,1290805009660,新規,0,2023-06-19,2023-06-19,一般社団法人０村ＣＣ,,その他の設立登記法人,福岡県,北九州市小倉南区,湯川新町２丁目１０番２８号,,40,107,8000256,,,,,,,2023-06-19,1,,,,,ゼロムラシーシー,0
241,1330005010670,新規,0,2023-06-19,2023-06-19,労働者協同組合コトノワ,,その他の設立登記法人,熊本県,玉名市,上小田３７１番地,,43,206,8650011,,,,,,,2023-06-19,1,,,,,,0
242,1340001025655,新規,0,2023-06-19,2023-06-19,株式会社クローバー,,株式会社,鹿児島県,鹿児島市,山田町１５３３番地２,,46,201,8910104,,,,,,,2023-06-19,1,,,,,クローバー,0
248,1360001032170,新規,0,2023-06-19,2023-06-19,株式会社リトルユニバース,,株式会社,沖縄県,浦添市,安波茶２丁目１番２号,,47,208,9012114,,,,,,,2023-06-19,1,,,,,リトルユニバース,0
249,1360003013078,新規,0,2023-06-19,2023-06-19,合同会社伊佐設計工房,,合同会社,沖縄県,うるま市,字赤道１７３番地２丸博ビル２Ｆ,,47,213,9042245,,,,,,,2023-06-19,1,,,,,イサセッケイコウボウ,0
273,1420005007856,新規,0,2023-06-19,2023-06-19,青森県カーボン・オフセット促進事業協同組合,,その他の設立登記法人,青森県,三沢市,南町４丁目３１番地３４６９号,,02,207,0330036,,,,,,,2023-06-19,1,,,,,アオモリケンカーボンオフセットソクシン,0
278,1430001089294,新規,0,2023-06-19,2023-06-19,株式会社福井花園,,株式会社,北海道,空知郡南幌町,南１８線西１４番地,,01,423,0690218,,,,,,,2023-06-19,1,,,,,フクイカエン,0
279,1430001089344,新規,0,2023-06-19,2023-06-19,ＦＢライフ株式会社,,株式会社,北海道,札幌市豊平区,豊平一条２丁目１番１２号フェアフィールド菊水１号室,,01,105,0620901,,,,,,,2023-06-19,1,,,,,エフビーライフ,0
283,1460001005802,新規,0,2023-06-19,2023-06-19,株式会社じん,,株式会社,北海道,釧路市,弥生２丁目１０番６号,,01,206,0850834,,,,,,,2023-06-19,1,,,,,,0
298,2010001236136,新規,0,2023-06-19,2023-06-19,エクレバー・ジャパン株式会社,,株式会社,東京都,中央区,日本橋本町２丁目２番２号日本橋本町ＹＳビル２階在日フランス商工会議所内,,13,102,1030023,,,,,,,2023-06-19,1,,,,,,0
299,2010001236210,新規,0,2023-06-19,2023-06-19,株式会社ＬＭ,,株式会社,東京都,千代田区,九段南１丁目５番６号りそな九段ビル５Ｆ・ＫＳフロア,,13,101,1020074,,,,,,,2023-06-19,1,,,,,エルマ,0
300,2010001236268,新規,0,2023-06-19,2023-06-19,株式会社ジーユー,,株式会社,東京都,千代田区,神田錦町３丁目１８寿ビル７階,,13,101,1010054,,,,,,,2023-06-19,1,,,,,ジーユー,0
307,2010401175099,新規,0,2023-06-19,2023-06-19,Ｃｌａｗ　Ａｐｐ株式会社,,株式会社,東京都,港区,南青山２丁目４番１５号,,13,103,1070062,,,,,,,2023-06-19,1,,,,,クロウアップ,0
308,2010401175149,新規,0,2023-06-19,2023-06-19,株式会社カタロク,,株式会社,東京都,港区,西新橋２丁目２番７号ＭＡＲＹＳＯＬビル４階,,13,103,1050003,,,,,,,2023-06-19,1,,,,,カタロク,0
309,2010405022223,新規,0,2023-06-19,2023-06-19,一般社団法人近隣トラブル対策支援機構,,その他の設立登記法人,東京都,港区,西新橋１丁目１－１,,13,103,1050003,,,,,,,2023-06-19,1,,,,,キンリントラブルタイサクシエンキコウ,0
312,2010603010203,新規,0,2023-06-19,2023-06-19,合同会社天鶏,,合同会社,東京都,江東区,白河４丁目９番１５－１３０６号,,13,108,1350021,,,,,,,2023-06-19,1,,,,,テンチ,0
320,2010901053176,新規,0,2023-06-19,2023-06-19,株式会社エス・イー・プロパティ,,株式会社,東京都,世田谷区,太子堂２丁目７番６号,,13,112,1540004,,,,,,,2023-06-19,1,,,,,エスイープロパティ,0
324,2011001155144,新規,0,2023-06-19,2023-06-19,株式会社メイクプロ,,株式会社,東京都,渋谷区,渋谷３丁目１番１号,,13,113,1500002,,,,,,,2023-06-19,1,,,,,メイクプロ,0
327,2011003016963,新規,0,2023-06-19,2023-06-19,クラレザパートナーズ合同会社,,合同会社,東京都,渋谷区,神泉町１０番１５号,,13,113,1500045,,,,,,,2023-06-19,1,,,,,クラレザパートナーズ,0
328,2011003017029,新規,0,2023-06-19,2023-06-19,合同会社ＩＮＵ‐Ｈａｃｋｅｒ,,合同会社,東京都,渋谷区,道玄坂１丁目１０番８号渋谷道玄坂東急ビル２Ｆ－Ｃ,,13,113,1500043,,,,,,,2023-06-19,1,,,,,イヌハッカー,0
333,2011101103317,新規,0,2023-06-19,2023-06-19,Ｂｒｏａｄｅｒｓ株式会社,,株式会社,東京都,新宿区,西新宿３丁目７番１号新宿パークタワーＮ３０Ｆ,,13,104,1600023,,,,,,,2023-06-19,1,,,,,ブローダーズ,0
345,2011701026339,新規,0,2023-06-19,2023-06-19,株式会社エドホールディングス,,株式会社,東京都,江戸川区,南小岩５丁目４番１６号,,13,123,1330056,,,,,,,2023-06-19,1,,,,,エドホールディングス,0
352,2013101009196,新規,0,2023-06-19,2023-06-19,株式会社８７Ｆｒ,,株式会社,東京都,西多摩郡檜原村,小沢３９２６番地,,13,307,1900204,,,,,,,2023-06-19,1,,,,,ハチナナエフアール,0
355,2013301050925,新規,0,2023-06-19,2023-06-19,株式会社ＦＩＲＳＴ　ＰＡＧＥ,,株式会社,東京都,豊島区,東池袋４丁目３－６石田ビル２階,,13,116,1700013,,,,,,,2023-06-19,1,,,,,ファーストページ,0
356,2013301050941,新規,0,2023-06-19,2023-06-19,株式会社ハキュー．インク,,株式会社,東京都,豊島区,東池袋１丁目３４番５号,,13,116,1700013,,,,,,,2023-06-19,1,,,,,ハキューインク,0
369,2020001152134,新規,0,2023-06-19,2023-06-19,株式会社ＷＡＶＹ,,株式会社,神奈川県,川崎市川崎区,東田町三丁目２４番４階,,14,131,2100005,,,,,,,2023-06-19,1,,,,,ウエイビー,0
370,2020001152142,新規,0,2023-06-19,2023-06-19,纏工業株式会社,,株式会社,神奈川県,横浜市神奈川区,菅田町２９７８番地６宮向団地１街区１号棟２０２号室,,14,102,2210864,,,,,,,2023-06-19,1,,,,,マトイコウギョウ,0
380,2021001079326,新規,0,2023-06-19,2023-06-19,ＪＡＴＴ　ＩＮＴＥＲＮＡＴＩＯＮＡＬ株式会社,,株式会社,神奈川県,厚木市,下川入４９４番地１－２０２,,14,212,2430206,,,,,,,2023-06-19,1,,,,,ジャットインターナショナル,0
395,2030001154352,新規,0,2023-06-19,2023-06-19,株式会社とら吉,,株式会社,埼玉県,新座市,野寺５丁目１番２８号,,11,230,3520034,,,,,,,2023-06-19,1,,,,,トラキチ,0
396,2030001154419,新規,0,2023-06-19,2023-06-19,株式会社福猫,,株式会社,埼玉県,東松山市,美原町３丁目２番地１４,,11,212,3550010,,,,,,,2023-06-19,1,,,,,フクネコ,0
397,2030001154435,新規,0,2023-06-19,2023-06-19,株式会社デザインライフ,,株式会社,埼玉県,桶川市,坂田西２丁目４８－１０,,11,231,3630018,,,,,,,2023-06-19,1,,,,,デザインライフ,0
398,2030001154451,新規,0,2023-06-19,2023-06-19,株式会社ＬＩＡ,,株式会社,埼玉県,草加市,氷川町２１５２番地２クレドール草加１０６号,,11,221,3400034,,,,,,,2023-06-19,1,,,,,リア,0
399,2030001154501,新規,0,2023-06-19,2023-06-19,株式会社リペる,,株式会社,埼玉県,草加市,谷塚町５９５番地１５,,11,221,3400023,,,,,,,2023-06-19,1,,,,,リペル,0
400,2030001154518,新規,0,2023-06-19,2023-06-19,ＩＮＦＩＮＩＴＩ株式会社,,株式会社,埼玉県,和光市,白子１丁目１４番１号,,11,229,3510101,,,,,,,2023-06-19,1,,,,,インフィニティー,0
409,2030003021930,新規,0,2023-06-19,2023-06-19,合同会社あやめ,,合同会社,埼玉県,八潮市,大字鶴ケ曽根１４８４番地５,,11,234,3400802,,,,,,,2023-06-19,1,,,,,アヤメ,0
410,2030003021947,新規,0,2023-06-19,2023-06-19,ＳＥＡＣ合同会社,,合同会社,埼玉県,草加市,八幡町７３９番地１,,11,221,3400006,,,,,,,2023-06-19,1,,,,,シーク,0
411,2030003021955,新規,0,2023-06-19,2023-06-19,合同会社Ｃａｔｒｉｓｅ,,合同会社,埼玉県,坂戸市,浅羽野３丁目２番地７ＫＩＳ亜洲商会館坂戸Ｃ号室,,11,239,3500237,,,,,,,2023-06-19,1,,,,,キャットライズ,0
412,2030003021963,新規,0,2023-06-19,2023-06-19,合同会社紬,,合同会社,埼玉県,羽生市,南羽生２丁目１２番地６,,11,216,3480071,,,,,,,2023-06-19,1,,,,,ツムギ,0
413,2030005021292,新規,0,2023-06-19,2023-06-19,一般社団法人健康な食事・食環境コンソーシアム,,その他の設立登記法人,埼玉県,坂戸市,千代田３丁目９番２１号,,11,239,3500214,,,,,,,2023-06-19,1,,,,,ケンコウナショクジショクカンキョウコンソーシアム,0
418,2040001128867,新規,0,2023-06-19,2023-06-19,株式会社ｉｉｊｉｍａ,,株式会社,千葉県,茂原市,早野新田４８番地１０,,12,210,2970031,,,,,,,2023-06-19,1,,,,,イイジマ,0
419,2040001128875,新規,0,2023-06-19,2023-06-19,城藤興業株式会社,,株式会社,千葉県,柏市,南逆井１丁目１３番５３号フェアリー・ローズＩ－１０３号,00130904,12,217,2770043,,,,,,,2023-06-19,1,,,,,ジョウトウコウギョウ,0
420,2040001128883,新規,0,2023-06-19,2023-06-19,株式会社ＵＰ　ＦＯＲＷＡＲＤ,,株式会社,千葉県,成田市,台方２７２番地１,,12,211,2860003,,,,,,,2023-06-19,1,,,,,アップフォワード,0
421,2040001128891,新規,0,2023-06-19,2023-06-19,日錦貿易株式会社,,株式会社,千葉県,山武市,松尾町借毛本郷２３６４－１６ルーミー松尾階１０２号室,,12,237,2891537,,,,,,,2023-06-19,1,,,,,ニッキンボウエキ,0
422,2040001128909,新規,0,2023-06-19,2023-06-19,株式会社和久井内装,,株式会社,千葉県,松戸市,常盤平６丁目１６番地の７,,12,207,2702261,,,,,,,2023-06-19,1,,,,,ワクイナイソウ,0
434,2060003004610,新規,0,2023-06-19,2023-06-19,Ｈａｐｐｙ　Ｍ’ｓ合同会社,,合同会社,栃木県,小山市,大字千駄塚３２５番地１６,,09,208,3290202,,,,,,,2023-06-19,1,,,,,ハッピーエムズ,0
440,2080403004811,新規,0,2023-06-19,2023-06-19,合同会社エクセルバランス,,合同会社,静岡県,浜松市東区,笠井町３６番地１,,22,132,4313107,,,,,,,2023-06-19,1,,,,,エクセルバランス,0
443,2090001018171,新規,0,2023-06-19,2023-06-19,とも株式会社,,株式会社,山梨県,中央市,上三條２４３－１３,,19,214,4093823,,,,,,,2023-06-19,1,,,,,トモ,0
444,2090001018188,新規,0,2023-06-19,2023-06-19,株式会社グリーンベーダー,,株式会社,山梨県,甲府市,里吉１丁目８番１６号,,19,201,4000822,,,,,,,2023-06-19,1,,,,,グリーンベーダー,0
447,2100005013035,新規,0,2023-06-19,2023-06-19,一般社団法人ポジティヴヘルスジャパン,,その他の設立登記法人,長野県,北佐久郡軽井沢町,大字発地１２７４番地１１３,,20,321,3890113,,,,,,,2023-06-19,1,,,,,ポジティヴヘルスジャパン,0
449,2110001037615,新規,0,2023-06-19,2023-06-19,株式会社高坂ホールディングス,00130891,株式会社,新潟県,長岡市,大島本町１丁目８番地１１,,15,202,9402112,,,,,,,2023-06-19,1,,,,,タカサカホールディングス,0
450,2110001037623,新規,0,2023-06-19,2023-06-19,Ｅｉｇｈｔｓ株式会社,,株式会社,新潟県,新潟市東区,上木戸４丁目１５番１０号,,15,102,9500891,,,,,,,2023-06-19,1,,,,,エイツ,0
458,2120001255810,新規,0,2023-06-19,2023-06-19,株式会社ホエールミート,,株式会社,大阪府,大阪市福島区,野田４丁目５番１３号,,27,103,5530005,,,,,,,2023-06-19,1,,,,,ホエールミート,0
459,2120001255851,新規,0,2023-06-19,2023-06-19,株式会社ミセル,,株式会社,大阪府,大阪市北区,中之島３丁目１－８,,27,127,5300005,,,,,,,2023-06-19,1,,,,,ミセル,0
460,2120003024321,新規,0,2023-06-19,2023-06-19,リノネム合同会社,,合同会社,大阪府,大阪市住吉区,清水丘１丁目４－２４,,27,120,5580033,,,,,,,2023-06-19,1,,,,,リノネム,0
463,2120101067742,新規,0,2023-06-19,2023-06-19,株式会社かずもとや,,株式会社,大阪府,泉大津市,松之浜町２丁目１２番２７－５号,,27,206,5950072,,,,,,,2023-06-19,1,,,,,カズモトヤ,0
464,2120103005279,新規,0,2023-06-19,2023-06-19,合同会社Ｏ．ＥＬ　ＳＨＡＤＤＡＩ　ＧＬＯＢＡＬ　ＳＥＲＶＩＣＥＳ,,合同会社,大阪府,岸和田市,内畑町６２１番地,,27,202,5960105,,,,,,,2023-06-19,1,,,,,オーエルシャダイグローバルサービス,0
469,2122001037081,新規,0,2023-06-19,2023-06-19,株式会社竹商キャスター,,株式会社,大阪府,八尾市,松山町２丁目４番２４号,,27,212,5810088,,,,,,,2023-06-19,1,,,,,タケショウキャスター,0
478,2130001074557,新規,0,2023-06-19,2023-06-19,ＡＦマネジメントコンサルティング株式会社,,株式会社,京都府,宇治市,伊勢田町井尻３４番地３グラン・コート宇治西３０６,,26,204,6110043,,,,,,,2023-06-19,1,,,,,エーエフマネジメントコンサルティング,0
484,2140001130508,新規,0,2023-06-19,2023-06-19,株式会社勝心,,株式会社,兵庫県,神戸市中央区,栄町通１丁目１３番地,,28,110,6500023,,,,,,,2023-06-19,1,,,,,カツシン,0
485,2140001130549,新規,0,2023-06-19,2023-06-19,株式会社津田技建,,株式会社,兵庫県,高砂市,曽根町１２６３番地の１,,28,216,6760082,,,,,,,2023-06-19,1,,,,,ツダギケン,0
486,2140001130565,新規,0,2023-06-19,2023-06-19,株式会社ＹＭ　ＣＯＲＰ,,株式会社,兵庫県,明石市,太寺２丁目５番８号,,28,203,6730845,,,,,,,2023-06-19,1,,,,,ワイエムコーポレーション,0
487,2140001130573,新規,0,2023-06-19,2023-06-19,株式会社柴田電気設備管理事務所,,株式会社,兵庫県,三木市,吉川町みなぎ台２丁目６番地の３,,28,215,6731117,,,,,,,2023-06-19,1,,,,,シバタデンキセツビカンリジムショ,0
490,2140003019187,新規,0,2023-06-19,2023-06-19,ファイブシングス合同会社,,合同会社,兵庫県,明石市,藤江１０５６番地の１,,28,203,6730044,,,,,,,2023-06-19,1,,,,,ファイブシングス,0
491,2140005026660,新規,0,2023-06-19,2023-06-19,一般社団法人アシアトウアン協会,,その他の設立登記法人,兵庫県,神戸市東灘区,本山北町４丁目９番４１号,,28,101,6580003,,,,,,,2023-06-19,1,,,,,アシアトウアンキョウカイ,0
508,2180301037481,新規,0,2023-06-19,2023-06-19,ＴＮ協立株式会社,,株式会社,愛知県,豊橋市,神野西町１丁目２番地,,23,201,4418076,,,,,,,2023-06-19,1,,,,,ティーエヌキョウリツ,0
513,2190003004358,新規,0,2023-06-19,2023-06-19,合同会社康盛,,合同会社,三重県,多気郡多気町,朝柄２９６５番地１,,24,441,5192215,,,,,,,2023-06-19,1,,,,,コウセイ,0
526,2240003006183,新規,0,2023-06-19,2023-06-19,合同会社ＯＢテクノ,,合同会社,広島県,福山市,東村町字永松６８３番１号,,34,207,7290251,,,,,,,2023-06-19,1,,,,,オービーテクノ,0
527,2240003006191,新規,0,2023-06-19,2023-06-19,合同会社ａｔｍａｒｋ　ｓａｋｉ,,合同会社,広島県,福山市,川口町５丁目２０番１３号,,34,207,7200822,,,,,,,2023-06-19,1,,,,,アットマークサキ,0
533,2260001038045,新規,0,2023-06-19,2023-06-19,株式会社Ｂｅ　ＣＯＮＮＥＣＴ　Ｐｌｕｓ,,株式会社,岡山県,倉敷市,福島２００番地１２４,,33,202,7100048,,,,,,,2023-06-19,1,,,,,ビーコネクトプラス,0
534,2270001008798,新規,0,2023-06-19,2023-06-19,株式会社月乃家,,株式会社,鳥取県,境港市,渡町９４２番地,,31,204,6840072,,,,,,,2023-06-19,1,,,,,ツキノイエ,0
539,2290001101948,新規,0,2023-06-19,2023-06-19,株式会社ＬＩＢ,,株式会社,福岡県,福岡市南区,南大橋１丁目９番１１号,,40,134,8150034,,,,,,,2023-06-19,1,,,,,エルアイビー,0
540,2290001101980,新規,0,2023-06-19,2023-06-19,株式会社ふっか,,株式会社,福岡県,福岡市中央区,大名２丁目４番３８号,,40,133,8100041,,,,,,,2023-06-19,1,,,,,フッカ,0
554,2360001032161,新規,0,2023-06-19,2023-06-19,株式会社フリースーツ石垣,,株式会社,沖縄県,石垣市,字大川２７８番地ＴＡＭＡビルＩＩ２０１号,00130892,47,207,9070022,,,,,,,2023-06-19,1,,,,,フリースーツイシガキ,0
557,2360003013077,新規,0,2023-06-19,2023-06-19,合同会社オールメンテ,,合同会社,沖縄県,那覇市,宇栄原５丁目３０番－２号,,47,201,9010153,,,,,,,2023-06-19,1,,,,,オールメンテ,0
561,2370001050096,新規,0,2023-06-19,2023-06-19,株式会社ケアリー東北,,株式会社,宮城県,仙台市宮城野区,幸町２丁目２３番１号,,04,102,9830836,,,,,,,2023-06-19,1,,,,,ケアリートウホク,0
563,2380001033793,新規,0,2023-06-19,2023-06-19,株式会社木村工務店,,株式会社,福島県,いわき市,平中神谷字後原８番地の５,,07,204,9708021,,,,,,,2023-06-19,1,,,,,キムラコウムテン,0
567,2400003003098,新規,0,2023-06-19,2023-06-19,ＥＥＣ合同会社,,合同会社,岩手県,遠野市,宮守町下宮守１８地割２５番地１,,03,208,0280304,,,,,,,2023-06-19,1,,,,,イーイーシー,0
573,2430001089343,新規,0,2023-06-19,2023-06-19,株式会社ちさの,,株式会社,北海道,虻田郡ニセコ町,字本通１３７番地,,01,395,0481502,,,,,,,2023-06-19,1,,,,,チサノ,0
583,2700150057148,新規,0,2023-06-19,2015-10-09,愛媛県隣保館連絡協議会,,その他,愛媛県,松山市,山越６丁目６－２２,,38,201,7918013,,,,,,,2015-10-09,1,,,,,エヒメケンリンポカンレンラクキヨウギカイ,0
586,2700150117562,新規,0,2023-06-19,2023-06-19,永平發展有限公司,,外国会社等,東京都,渋谷区,神南１丁目８－１８クオリア神南フラッツ５０５号室　株式会社ファンバス内,,13,113,1500041,香港ハーコート通り１８番地アドミラルティセンタータワー１、１２階１,,,,,,2023-06-19,1,,,,,エバーパーフエクトデベロツプメントリミテツド,0
602,3010001236201,新規,0,2023-06-19,2023-06-19,ウォーターロックラボ株式会社,,株式会社,東京都,文京区,本郷３丁目２５番１３号,,13,105,1130033,,,,,,,2023-06-19,1,,,,,ウォーターロックラボ,0
603,3010001236234,新規,0,2023-06-19,2023-06-19,ナカヤマコーポレーション株式会社,,株式会社,東京都,千代田区,神田三崎町２丁目２０番１号石川ビル３０６,,13,101,1010061,,,,,,,2023-06-19,1,,,,,ナカヤマコーポレーション,0
604,3010001236250,新規,0,2023-06-19,2023-06-19,株式会社認知行動研究所,,株式会社,東京都,文京区,本郷３丁目４－３お茶の水ビル５Ｆ８４８お茶の水ビル,,13,105,1130033,,,,,,,2023-06-19,1,,,,,ニンチコウドウケンキュウジョ,0
609,3010003040898,新規,0,2023-06-19,2023-06-19,合同会社ｓｗｉｍｍｙ,,合同会社,東京都,中央区,銀座３丁目３番１４号,,13,102,1040061,,,,,,,2023-06-19,1,,,,,スイミー,0
611,3010005036820,新規,0,2023-06-19,2023-06-19,一般社団法人ＭＳＣエクソソーム療法研究会,,その他の設立登記法人,東京都,中央区,日本橋３丁目５番１２号ヒューリック八重洲通ビル３Ｆ,,13,102,1030027,,,,,,,2023-06-19,1,,,,,エムエスシーエクソソームリョウホウケンキュウカイ,0
620,3010403030235,新規,0,2023-06-19,2023-06-19,ＤＩＫＯ合同会社,,合同会社,東京都,港区,芝大門１丁目１－１３－３０７,,13,103,1050012,,,,,,,2023-06-19,1,,,,,ディコ,0
623,3010603010202,新規,0,2023-06-19,2023-06-19,ＭＳＴ合同会社,,合同会社,東京都,江東区,塩浜２丁目１４番１４号竹島ビル,,13,108,1350043,,,,,,,2023-06-19,1,,,,,エムスティ,0
627,3010903008227,新規,0,2023-06-19,2023-06-19,ｅｌ合同会社,,合同会社,東京都,世田谷区,上馬１丁目３２番１９号,,13,112,1540011,,,,,,,2023-06-19,1,,,,,エル,0
628,3010903008243,新規,0,2023-06-19,2023-06-19,合同会社Ｌｏｇｒａｍ　Ｂｒｅｗｉｎｇ,,合同会社,東京都,世田谷区,中町４丁目１８番５号,,13,112,1580091,,,,,,,2023-06-19,1,,,,,ログラムブリューイング,0
634,3011001155069,新規,0,2023-06-19,2023-06-19,ＫＣＣ株式会社,,株式会社,東京都,渋谷区,上原２丁目４７番１３号,,13,113,1510064,,,,,,,2023-06-19,1,,,,,ケーシーシー,0
635,3011001155110,新規,0,2023-06-19,2023-06-19,株式会社ＮＥＯ,,株式会社,東京都,渋谷区,道玄坂１丁目１０番８号渋谷道玄坂東急ビル２Ｆ－Ｃ,,13,113,1500043,,,,,,,2023-06-19,1,,,,,ネオ,0
637,3011003017011,新規,0,2023-06-19,2023-06-19,ＯＵＲ．ＤＡＴＡ合同会社,,合同会社,東京都,渋谷区,神宮前６丁目２３番４号桑野ビル２階,,13,113,1500001,,,,,,,2023-06-19,1,,,,,アワーデータ,0
638,3011003017028,新規,0,2023-06-19,2023-06-19,ｍｅｍｅ合同会社,,合同会社,東京都,目黒区,中央町１丁目１３番,,13,110,1520001,,,,,,,2023-06-19,1,,,,,ミーム,0
644,3011101103316,新規,0,2023-06-19,2023-06-19,株式会社明朗,,株式会社,東京都,新宿区,高田馬場３丁目２番１４‐５０９号天翔オフィス高田馬場,,13,104,1690075,,,,,,,2023-06-19,1,,,,,メイロウ,0
647,3011403004022,新規,0,2023-06-19,2023-06-19,イマチャン合同会社,,合同会社,東京都,板橋区,幸町２１番１０号レジデンシャル幸町３０３,,13,119,1730034,,,,,,,2023-06-19,1,,,,,,0
654,3011703003500,新規,0,2023-06-19,2023-06-19,ＡＩＫ合同会社,,合同会社,東京都,江戸川区,西篠崎２丁目２６番１２号,,13,123,1330055,,,,,,,2023-06-19,1,,,,,,0
659,3012703002731,新規,0,2023-06-19,2023-06-19,合同会社ｓａｏｒｓａ,,合同会社,東京都,小平市,上水本町４丁目２２－２－８０９,,13,211,1870022,,,,,,,2023-06-19,1,,,,,シェルーシャ,0
666,3020001152133,新規,0,2023-06-19,2023-06-19,森田リーシング株式会社,,株式会社,神奈川県,横浜市港北区,下田町５丁目１６番５号,,14,109,2230064,,,,,,,2023-06-19,1,,,,,モリタリーシング,0
670,3020003024074,新規,0,2023-06-19,2023-06-19,ＺＥＲＯＫＡＲＡ合同会社,,合同会社,神奈川県,横浜市都筑区,東山田３丁目２３番３－２０１,,14,118,2240023,,,,,,,2023-06-19,1,,,,,ゼロカラ,0
674,3021001079366,新規,0,2023-06-19,2023-06-19,株式会社ＬＩＮＫＳ,,株式会社,神奈川県,茅ヶ崎市,円蔵２３２２番地１－１０１号Ｔ．Ｔ湘南２０００,,14,207,2530084,,,,,,,2023-06-19,1,,,,,リンクス,0
676,3021003013232,新規,0,2023-06-19,2023-06-19,合同会社ＷｏｒｋｉｎｇＭａｎａｇｅｍｅｎｔ,,合同会社,神奈川県,藤沢市,高倉１１９６－１,,14,205,2520802,,,,,,,2023-06-19,1,,,,,ワーキングマネジメント,0
687,3030001154392,新規,0,2023-06-19,2023-06-19,株式会社東洋ナーチャー,,株式会社,埼玉県,入間郡三芳町,大字藤久保３７５－１１０,,11,324,3540041,,,,,,,2023-06-19,1,,,,,トウヨウナーチャー,0
688,3030001154418,新規,0,2023-06-19,2023-06-19,株式会社ハイローズ,,株式会社,埼玉県,さいたま市大宮区,東町２丁目１２２番地４,,11,103,3300841,,,,,,,2023-06-19,1,,,,,ハイローズ,0
689,3030001154442,新規,0,2023-06-19,2023-06-19,株式会社ナンバーセブン,,株式会社,埼玉県,草加市,手代３丁目５４番４１号,,11,221,3400021,,,,,,,2023-06-19,1,,,,,ナンバーセブン,0
690,3030001154450,新規,0,2023-06-19,2023-06-19,株式会社ＢＲＩＧＨＴＯＦ,,株式会社,埼玉県,熊谷市,宮町２丁目４９番地１０（２Ｆ）,,11,202,3600041,,,,,,,2023-06-19,1,,,,,ブライトオフ,0
691,3030001154459,新規,0,2023-06-19,2023-06-19,株式会社ＮＩＳＡＮ,,株式会社,埼玉県,川口市,芝西２丁目８番１２号,,11,203,3330855,,,,,,,2023-06-19,1,,,,,ニーサン,0
692,3030001154467,新規,0,2023-06-19,2023-06-19,株式会社須藤建装,,株式会社,埼玉県,川口市,弥平１丁目１５番４号,,11,203,3320002,,,,,,,2023-06-19,1,,,,,スドウケンソウ,0
693,3030001154491,新規,0,2023-06-19,2023-06-19,ＳＡＷＡＫ株式会社,,株式会社,埼玉県,さいたま市岩槻区,美園東１丁目７番地５－４１０,,11,110,3390028,,,,,,,2023-06-19,1,,,,,シャワック,0
694,3030001154509,新規,0,2023-06-19,2023-06-19,株式会社ＬＡＤＮＥＳＳ,,株式会社,埼玉県,川口市,南前川２丁目２３番１８号,,11,203,3330846,,,,,,,2023-06-19,1,,,,,ラッドネス,0
695,3030001154517,新規,0,2023-06-19,2023-06-19,株式会社ランドスケープ彩,,株式会社,埼玉県,蓮田市,藤ノ木１丁目１５９番地,,11,238,3490105,,,,,,,2023-06-19,1,,,,,ランドスケープイロドリ,0
703,3030003021962,新規,0,2023-06-19,2023-06-19,合同会社サジタリウス,,合同会社,埼玉県,北足立郡伊奈町,本町２丁目３１番地,,11,301,3620804,,,,,,,2023-06-19,1,,,,,サジタリウス,0
704,3030003021979,新規,0,2023-06-19,2023-06-19,合同会社Ｌｏｏｋ　ｕｐ,,合同会社,埼玉県,三郷市,早稲田５丁目５番地１ＬＭ三郷早稲田公園２０６号室,,11,237,3410018,,,,,,,2023-06-19,1,,,,,ルックアップ,0
705,3030003021987,新規,0,2023-06-19,2023-06-19,合同会社げんきの伝播,,合同会社,埼玉県,三郷市,谷口５２３番地４,,11,237,3410042,,,,,,,2023-06-19,1,,,,,ゲンキノデンパ,0
709,3040001128882,新規,0,2023-06-19,2023-06-19,ＫＮＫ株式会社,,株式会社,千葉県,旭市,イの１６８８番地１,,12,215,2892511,,,,,,,2023-06-19,1,,,,,ケーエヌケー,0
710,3040001128890,新規,0,2023-06-19,2023-06-19,Ａｉｒ株式会社,,株式会社,千葉県,鎌ケ谷市,東道野辺４丁目１１番１０号,,12,224,2730115,,,,,,,2023-06-19,1,,,,,エアー,0
711,3040001128899,新規,0,2023-06-19,2023-06-19,Ｂｉｒｄｉｅ　Ｒｕｓｈ株式会社,,株式会社,千葉県,市川市,稲越１丁目１９番６号ウッドサイド市川２０１号,,12,203,2720831,,,,,,,2023-06-19,1,,,,,バーディーラッシュ,0
719,3040003022811,新規,0,2023-06-19,2023-06-19,ｉｓｏ企画合同会社,,合同会社,千葉県,千葉市美浜区,高洲４丁目１１番３－５０４号,,12,106,2610004,,,,,,,2023-06-19,1,,,,,イソキカク,0
720,3040005022041,新規,0,2023-06-19,2023-06-19,農事組合法人建市会,,その他の設立登記法人,千葉県,市原市,武士１８４番地,,12,219,2900203,,,,,,,2023-06-19,1,,,,,,0
726,3060001036084,新規,0,2023-06-19,2023-06-19,ＫＵＬＤＥＥＰ　ＴＲＡＤＩＮＧ株式会社,,株式会社,栃木県,栃木市,岩舟町新里１３０４番地５２号室,,09,203,3294316,,,,,,,2023-06-19,1,,,,,クルディープトレーディング,0
740,3080401026550,新規,0,2023-06-19,2023-06-19,株式会社大城商会,,株式会社,静岡県,浜松市東区,植松町２６８番地の１ビレッタ第二浜松９０７,,22,132,4300803,,,,,,,2023-06-19,1,,,,,オオシロショウカイ,0
743,3110001037614,新規,0,2023-06-19,2023-06-19,株式会社エドモンド,,株式会社,新潟県,新潟市中央区,弁天橋通２丁目２０番２５号宮ノ下荘２０３号,,15,103,9500925,,,,,,,2023-06-19,1,,,,,エドモンド,0
749,3120001255768,新規,0,2023-06-19,2023-06-19,株式会社Ｗｏｒｋ１１,,株式会社,大阪府,大阪市中央区,上町１丁目２番２８－２６０５号,,27,128,5400005,,,,,,,2023-06-19,1,,,,,ワークイレブン,0
750,3120001255850,新規,0,2023-06-19,2023-06-19,株式会社ラヴィット,,株式会社,大阪府,大阪市浪速区,日本橋西１丁目２番２５号ＳＴ難波ビル４Ｆ,,27,111,5560004,,,,,,,2023-06-19,1,,,,,ラヴィット,0
764,3120101067659,新規,0,2023-06-19,2023-06-19,和光コーポレーション株式会社,,株式会社,大阪府,和泉市,鶴山台４丁目１０番６号,,27,219,5940013,,,,,,,2023-06-19,1,,,,,ワコウコーポレーション,0
776,3130005016785,新規,0,2023-06-19,2023-06-19,西浦住宅管理組合法人,,その他の設立登記法人,京都府,京都市伏見区,深草西浦町７丁目１９番地集会所,,26,109,6120029,,,,,,,2023-06-19,1,,,,,ニシウラジュウタク,0
788,3140001130580,新規,0,2023-06-19,2023-06-19,東海岸生コンクリート株式会社,,株式会社,兵庫県,尼崎市,東海岸町１番地１４,,28,202,6600843,,,,,,,2023-06-19,1,,,,,ヒガシカイガンナマコンクリート,0
791,3140003019211,新規,0,2023-06-19,2023-06-19,光那合同会社,,合同会社,兵庫県,神戸市垂水区,大町２丁目６番Ｃ－３０４号,,28,108,6550014,,,,,,,2023-06-19,1,,,,,コウナ,0
793,3150001026489,新規,0,2023-06-19,2023-06-19,株式会社和田建設技術研究所,,株式会社,奈良県,天理市,小路町５７番地６,,29,204,6320096,,,,,,,2023-06-19,1,,,,,ワダケンセツギジュツケンキュウショ,0
794,3160001025119,新規,0,2023-06-19,2023-06-19,株式会社テクノス,,株式会社,滋賀県,大津市,富士見台４９番１号,,25,201,5200846,,,,,,,2023-06-19,1,,,,,テクノス,0
795,3160003002900,新規,0,2023-06-19,2023-06-19,合同会社フリースタイル,,合同会社,滋賀県,高島市,新旭町旭８９３番地３,,25,212,5201501,,,,,,,2023-06-19,1,,,,,フリースタイル,0
798,3170005007021,新規,0,2023-06-19,2023-06-19,眞言命光秘流寶瀧山命光不動尊寳来寺,,その他の設立登記法人,和歌山県,橋本市,隅田町下兵庫１０５９番地の１０,,30,203,6480016,,,,,,,2023-06-19,1,,,,,マコトメイコウヒリュウホウリュウサンメイコウフドウソンホウライジ,0
806,3180001156779,新規,0,2023-06-19,2023-06-19,株式会社フュージョン,,株式会社,愛知県,名古屋市中川区,尾頭橋１丁目３番８号,,23,110,4540012,,,,,,,2023-06-19,1,,,,,フュージョン,0
807,3180001156787,新規,0,2023-06-19,2023-06-19,株式会社Ａｉｒ　Ｄ,,株式会社,愛知県,名古屋市天白区,一本松２丁目７０６番地,,23,116,4680008,,,,,,,2023-06-19,1,,,,,エアーディー,0
813,3180003025379,新規,0,2023-06-19,2023-06-19,合同会社Ｂｉｇ　Ｃａｓｔｌｅ,,合同会社,愛知県,名古屋市東区,東桜１丁目６番３号,,23,102,4610005,,,,,,,2023-06-19,1,,,,,ビッグキャッスル,0
814,3180005020254,新規,0,2023-06-19,2023-06-19,一般財団法人地域医療推進センター尾北,,その他の設立登記法人,愛知県,一宮市,緑５丁目２番１８号,,23,203,4910862,,,,,,,2023-06-19,1,,,,,チイキイリョウスイシンセンタービホク,0
816,3180301037489,新規,0,2023-06-19,2023-06-19,株式会社スマイル,,株式会社,愛知県,安城市,横山町赤子８２番地２,,23,212,4460045,,,,,,,2023-06-19,1,,,,,スマイル,0
823,3230001019889,新規,0,2023-06-19,2023-06-19,Ｆｉｖｅ　ＢＲＯ　Ｔｒａｄｉｎｇ株式会社,,株式会社,富山県,射水市,堀岡９８番地,,16,211,9330223,,,,,,,2023-06-19,1,,,,,ファイブブロートレーディング,0
830,3270001008797,新規,0,2023-06-19,2023-06-19,株式会社Ｌ’ｅｃｒｉｎ,,株式会社,鳥取県,西伯郡日吉津村,大字日吉津４６９番地３,,31,384,6893553,,,,,,,2023-06-19,1,,,,,レクラン,0
841,3290001101963,新規,0,2023-06-19,2023-06-19,株式会社ＮＢ８,,株式会社,福岡県,みやま市,瀬高町下庄１８２６番地２５号,,40,229,8350024,,,,,,,2023-06-19,1,,,,,エヌビエイト,0
850,3330001030968,新規,0,2023-06-19,2023-06-19,株式会社熊日熊本駅西販売センター,,株式会社,熊本県,熊本市西区,春日４丁目２０－１０,,43,103,8600047,,,,,,,2023-06-19,1,,,,,クマニチクマモトエキニシハンバイセンター,0
856,3360003013076,新規,0,2023-06-19,2023-06-19,オリビア合同会社,,合同会社,沖縄県,那覇市,泊３丁目４番１号Ｎａｋａ　ｇｒｏｕｐ　Ｂｌｄｇ．９、３０１号室,,47,201,9000012,,,,,,,2023-06-19,1,,,,,オリビア,0
860,3370001050087,新規,0,2023-06-19,2023-06-19,Ｐａｋ　Ｓｈｏｋａｉ株式会社,,株式会社,宮城県,仙台市青葉区,子平町３４番地１フルセビル４Ｃ,,04,101,9810944,,,,,,,2023-06-19,1,,,,,パックショウカイ,0
861,3370003006178,新規,0,2023-06-19,2023-06-19,合同会社Ｍｏｘｉｅ,,合同会社,宮城県,仙台市青葉区,春日町７番３１－３０２号,,04,101,9800821,,,,,,,2023-06-19,1,,,,,モクシー,0
870,3390001017290,新規,0,2023-06-19,2023-06-19,潤東株式会社,,株式会社,山形県,山形市,蔵王成沢字町浦７２２番地１,,06,201,9902334,,,,,,,2023-06-19,1,,,,,ジュントウ,0
881,3430001089318,新規,0,2023-06-19,2023-06-19,株式会社ファーストストーリー,,株式会社,北海道,千歳市,東雲町３丁目１番地１７,,01,224,0660042,,,,,,,2023-06-19,1,,,,,ファーストストーリー,0
882,3430001089326,新規,0,2023-06-19,2023-06-19,株式会社逢の来野郷,,株式会社,北海道,白老郡白老町,字北吉原１７４番地,,01,578,0590923,,,,,,,2023-06-19,1,,,,,アイノコノサト,0
883,3430001089350,新規,0,2023-06-19,2023-06-19,株式会社ベリーホットネットワーク,,株式会社,北海道,札幌市中央区,北五条東３丁目１－２０－１２０５,,01,101,0600035,,,,,,,2023-06-19,1,,,,,ベリーホットネットワーク,0
891,3700150117561,新規,0,2023-06-19,2023-06-19,Ｓｏｔａｉ　Ｅｎｅｒｇｙ　Ｓｏｌｕｔｉｏｎｓ　Ｐｔｅ．Ｌｔｄ．,,外国会社等,千葉県,千葉市中央区,本千葉町１３－１パークホームズ千葉１０１２,,12,101,2600014,６４　Ｆａｒｒｅｒ　Ｒｏａｄ　＃０２－０３　Ｓｐａｎｉｓｈ　Ｖｉｌｌａｇｅ　Ｓｉｎｇａｐｏｒｅ（２６８８４８）,,,,,,2023-06-19,1,,,,,ソタイエナジーソリユーシヨンズピーテイーイーエルテイーデイ,0
897,4010001236142,新規,0,2023-06-19,2023-06-19,ｉＳＴ株式会社,,株式会社,東京都,中央区,銀座１丁目１２番４号Ｎ＆ＥＢＬＤ．６Ｆ,,13,102,1040061,,,,,,,2023-06-19,1,,,,,アイエスティ,0
898,4010001236209,新規,0,2023-06-19,2023-06-19,株式会社Ｗｅｌｌａｐｓａｒａ,,株式会社,東京都,中央区,銀座１丁目６番８号,,13,102,1040061,,,,,,,2023-06-19,1,,,,,ウェルアプサラ,0
899,4010001236258,新規,0,2023-06-19,2023-06-19,ハケンＧＹＭ株式会社,,株式会社,東京都,中央区,日本橋室町１丁目１１番１２号日本橋水野ビル７階,,13,102,1030022,,,,,,,2023-06-19,1,,,,,ハケンジム,0
902,4010003040906,新規,0,2023-06-19,2023-06-19,合同会社アトラス,,合同会社,東京都,中央区,日本橋１丁目４番１号,,13,102,1030027,,,,,,,2023-06-19,1,,,,,アトラス,0
904,4010005036844,新規,0,2023-06-19,2023-06-19,一般社団法人ＩＴ文化推進機構,,その他の設立登記法人,東京都,中央区,銀座１丁目１２番４号Ｎ＆ＥＢＬＤ．６Ｆ,,13,102,1040061,,,,,,,2023-06-19,1,,,,,アイティーブンカスイシンキコウ,0
906,4010101015693,新規,0,2023-06-19,2023-06-19,株式会社勝春,,株式会社,東京都,八王子市,横山町８番１５号,,13,201,1920081,,,,,,,2023-06-19,1,,,,,カツハル,0
913,4010401175171,新規,0,2023-06-19,2023-06-19,株式会社ヴィノダ,,株式会社,東京都,港区,西麻布１丁目２番１４号,,13,103,1060031,,,,,,,2023-06-19,1,,,,,ヴィノダ,0
914,4010403030358,新規,0,2023-06-19,2023-06-19,合同会社月のひかり,,合同会社,東京都,港区,南青山２丁目２番１５号,,13,103,1070062,,,,,,,2023-06-19,1,,,,,ツキノヒカリ,0
919,4010601063283,新規,0,2023-06-19,2023-06-19,株式会社しも,,株式会社,東京都,墨田区,業平４丁目６番１３号,,13,107,1300002,,,,,,,2023-06-19,1,,,,,シモ,0
920,4010601063291,新規,0,2023-06-19,2023-06-19,株式会社ビーフィールド,,株式会社,東京都,墨田区,八広４丁目４０番１号,,13,107,1310041,,,,,,,2023-06-19,1,,,,,ビーフィールド,0
921,4010603010201,新規,0,2023-06-19,2023-06-19,合同会社リラクティブマインド,,合同会社,東京都,江東区,南砂２丁目４番２５－４１９号,,13,108,1360076,,,,,,,2023-06-19,1,,,,,リラクティブマインド,0
929,4010801034076,新規,0,2023-06-19,2023-06-19,海斗株式会社,,株式会社,東京都,大田区,蒲田１丁目２２番７号コルナス蒲田３０３,,13,111,1440052,,,,,,,2023-06-19,1,,,,,カイト,0
932,4011001154656,新規,0,2023-06-19,2023-06-19,暢移株式会社,,株式会社,東京都,目黒区,碑文谷５丁目２－５Ｔ＆Ａビル５Ｆ,,13,110,1520003,,,,,,,2023-06-19,1,,,,,チョウイ,0
933,4011001155035,新規,0,2023-06-19,2023-06-19,株式会社Ａｄｖａｎｃｅｍｅｎｔ,,株式会社,東京都,渋谷区,神宮前６丁目２３番４号,,13,113,1500001,,,,,,,2023-06-19,1,,,,,アドバンスメント,0
935,4011003016887,新規,0,2023-06-19,2023-06-19,合同会社Ｍｅｄｉａ　ｏｆ　Ｌａｎｇｕｅ,,合同会社,東京都,渋谷区,道玄坂１丁目１０番８号渋谷道玄坂東急ビル２Ｆ－Ｃ,,13,113,1500043,,,,,,,2023-06-19,1,,,,,メディアオブラング,0
936,4011003016986,新規,0,2023-06-19,2023-06-19,合同会社エボリューション,,合同会社,東京都,目黒区,中目黒４丁目８－２５－９１０,,13,110,1530061,,,,,,,2023-06-19,1,,,,,エボリューション,0
938,4011101103281,新規,0,2023-06-19,2023-06-19,ＧＯＫＯＨ株式会社,,株式会社,東京都,新宿区,市谷左内町２９－２パークアクシス市谷左内町１０６号室,,13,104,1620846,,,,,,,2023-06-19,1,,,,,ゴコウ,0
965,4020001152099,新規,0,2023-06-19,2023-06-19,株式会社ＵＮＩＴＩＳ,,株式会社,神奈川県,横浜市瀬谷区,三ツ境１５番４葵ビル４Ｆ,,14,114,2460022,,,,,,,2023-06-19,1,,,,,ユニティス,0
966,4020001152116,新規,0,2023-06-19,2023-06-19,株式会社東戸塚リフォーム,00130895,株式会社,神奈川県,横浜市戸塚区,平戸町５８２番地１２コスモ東戸塚グランパルクＡ－７１７号,00130896,14,110,2440803,,,,,,,2023-06-19,1,,,,,ヒガシトヅカリフォーム,0
970,4021001079357,新規,0,2023-06-19,2023-06-19,株式会社からだ柔健,,株式会社,神奈川県,足柄下郡湯河原町,土肥３丁目８番地の１７,,14,384,2590303,,,,,,,2023-06-19,1,,,,,カラダジュウケン,0
971,4021001079365,新規,0,2023-06-19,2023-06-19,株式会社ＧＡＴＨＥＲＩＮＧ,,株式会社,神奈川県,茅ヶ崎市,円蔵２３２２番地１－１０１号Ｔ．Ｔ湘南２０００,,14,207,2530084,,,,,,,2023-06-19,1,,,,,ギャザリング,0
974,4021005012842,新規,0,2023-06-19,2023-06-19,特定非営利活動法人ケアセンター足柄,,その他の設立登記法人,神奈川県,足柄上郡開成町,吉田島４２９０番地,,14,366,2580021,,,,,,,2023-06-19,1,,,,,ケアセンターアシガラ,0
985,4030001154433,新規,0,2023-06-19,2023-06-19,株式会社ａＬＡＢＯ,,株式会社,埼玉県,熊谷市,柿沼１００１番地３,,11,202,3600803,,,,,,,2023-06-19,1,,,,,エイラボ,0
986,4030001154441,新規,0,2023-06-19,2023-06-19,株式会社Ｔｅｒａｇａｋｉ,,株式会社,埼玉県,川越市,日東町９番地３,,11,201,3501160,,,,,,,2023-06-19,1,,,,,テラガキ,0
987,4030001154458,新規,0,2023-06-19,2023-06-19,株式会社アキレア,,株式会社,埼玉県,新座市,栄５丁目１０番８号,,11,230,3520014,,,,,,,2023-06-19,1,,,,,アキレア,0
988,4030001154466,新規,0,2023-06-19,2023-06-19,徳友株式会社,,株式会社,埼玉県,熊谷市,河原町１丁目２６番地プラスコート熊谷５０５,,11,202,3600035,,,,,,,2023-06-19,1,,,,,トクトモ,0
989,4030001154474,新規,0,2023-06-19,2023-06-19,不動産管理アライ株式会社,,株式会社,埼玉県,新座市,野火止２丁目２番１８号,,11,230,3520011,,,,,,,2023-06-19,1,,,,,フドウサンカンリアライ,0
990,4030001154508,新規,0,2023-06-19,2023-06-19,ユアサ運送株式会社,,株式会社,埼玉県,さいたま市緑区,松木２丁目２６番地１８,,11,109,3360918,,,,,,,2023-06-19,1,,,,,ユアサウンソウ,0
991,4030001154532,新規,0,2023-06-19,2023-06-19,株式会社ホーネスト,,株式会社,埼玉県,和光市,白子３丁目２０番１１－５１３号,,11,229,3510101,,,,,,,2023-06-19,1,,,,,ホーネスト,0
992,4030001154549,新規,0,2023-06-19,2023-06-19,はなぶさ株式会社,,株式会社,埼玉県,川口市,大字西新井宿１０４３番２号,,11,203,3330833,,,,,,,2023-06-19,1,,,,,ハナブサ,0
995,4030003021929,新規,0,2023-06-19,2023-06-19,合同会社ＨＡＩ　ＤＡＮＧ　ＧＲＯＵＰ,,合同会社,埼玉県,熊谷市,桜木町１丁目４８コーエービル１Ｆ,,11,202,3600036,,,,,,,2023-06-19,1,,,,,ハイダングループ,0
996,4030003021937,新規,0,2023-06-19,2023-06-19,合同会社ＬＩＢＥＲＴＡ,,合同会社,埼玉県,さいたま市大宮区,桜木町２丁目３番地大宮マルイ７階,,11,103,3300854,,,,,,,2023-06-19,1,,,,,リベルタ,0
997,4030003021953,新規,0,2023-06-19,2023-06-19,合同会社康輝,,合同会社,埼玉県,坂戸市,伊豆の山町２１番地３９ＫＩＶオフィス伊豆の山２号棟Ｂ号室,,11,239,3500275,,,,,,,2023-06-19,1,,,,,コウキ,0
998,4030003021961,新規,0,2023-06-19,2023-06-19,合同会社ＢＥＲＥＩＴ,,合同会社,埼玉県,さいたま市大宮区,北袋町１丁目２５０番地の６,,11,103,3300835,,,,,,,2023-06-19,1,,,,,ベライト,0
999,4030003021986,新規,0,2023-06-19,2023-06-19,ＴＭＴユニバーサル合同会社,,合同会社,埼玉県,行田市,富士見町２丁目２７番地１９,,11,206,3610021,,,,,,,2023-06-19,1,,,,,ティーエムティーユニバーサル,0
1009,4040001128832,新規,0,2023-06-19,2023-06-19,株式会社ウェルコピ,,株式会社,千葉県,千葉市中央区,仁戸名町３番地７,,12,101,2600801,,,,,,,2023-06-19,1,,,,,ウェルコピ,0
1010,4040001128873,新規,0,2023-06-19,2023-06-19,株式会社ＳＡＩＫＥＩ,,株式会社,千葉県,千葉市中央区,富士見２丁目７番９号富士見ビル６０９号,,12,101,2600015,,,,,,,2023-06-19,1,,,,,サイケイ,0
1011,4040001128881,新規,0,2023-06-19,2023-06-19,株式会社ＡＰＲＩＤＥ　ＩＮ　ＴＨＥ　ＮＩＧＨＴＳ,,株式会社,千葉県,千葉市稲毛区,作草部１丁目１６番４号,,12,103,2630015,,,,,,,2023-06-19,1,,,,,アプライドインザナイツ,0
1012,4040001128907,新規,0,2023-06-19,2023-06-19,株式会社雪月花,,株式会社,千葉県,浦安市,高洲７丁目１番１－２１７号,,12,227,2790023,,,,,,,2023-06-19,1,,,,,セツゲッカ,0
1013,4040001128915,新規,0,2023-06-19,2023-06-19,株式会社モイスティーヌＫｏａ,,株式会社,千葉県,千葉市稲毛区,稲毛町５丁目６０番地８稲毛台サンハイツＡ棟４０５号,,12,103,2630035,,,,,,,2023-06-19,1,,,,,モイスティーヌコア,0
1031,4090001018186,新規,0,2023-06-19,2023-06-19,株式会社ＳＫＢ,,株式会社,山梨県,甲州市,塩山熊野４４０番地１,,19,213,4040036,,,,,,,2023-06-19,1,,,,,エスケイビー,0
1042,4120001255726,新規,0,2023-06-19,2023-06-19,株式会社ｓａｍｕｒａｉ　ｄａｙｓ,,株式会社,大阪府,大阪市北区,中津１丁目８番１４号メゾン富士５０２号室,,27,127,5310071,,,,,,,2023-06-19,1,,,,,サムライデイズ,0
1043,4120001255759,新規,0,2023-06-19,2023-06-19,株式会社アンリトゥン,,株式会社,大阪府,大阪市西区,京町堀１丁目１４－２４タツト靭公園ビル４０２,,27,106,5500003,,,,,,,2023-06-19,1,,,,,アンリトゥン,0
1044,4120001255825,新規,0,2023-06-19,2023-06-19,株式会社Ｌｅａｄｉｎｇ　Ｌｉｖｅｓ,,株式会社,大阪府,大阪市生野区,田島５丁目１９番６号,,27,116,5440011,,,,,,,2023-06-19,1,,,,,リーディングライヴズ,0
1045,4120001255874,新規,0,2023-06-19,2023-06-19,株式会社セカンド,,株式会社,大阪府,大阪市中央区,南本町１丁目５隅谷ビル４階,,27,128,5410054,,,,,,,2023-06-19,1,,,,,セカンド,0
1046,4120003024237,新規,0,2023-06-19,2023-06-19,合同会社サットワン,,合同会社,大阪府,大阪市住之江区,南港北２丁目１番１０号ＡＴＣビルＩＴＭ棟３階Ｄ－１,,27,125,5590034,,,,,,,2023-06-19,1,,,,,サットワン,0
1050,4120101067740,新規,0,2023-06-19,2023-06-19,益群株式会社,,株式会社,大阪府,堺市堺区,三条通６－１７－２０２,,27,141,5900046,,,,,,,2023-06-19,1,,,,,マスグン,0
1051,4120903004701,新規,0,2023-06-19,2023-06-19,ボーデンネット・ジャパン合同会社,,合同会社,大阪府,池田市,満寿美町１０番５号,,27,204,5630041,,,,,,,2023-06-19,1,,,,,ボーデンネットジャパン,0
1058,4130001074571,新規,0,2023-06-19,2023-06-19,株式会社レースホース,,株式会社,京都府,木津川市,州見台６丁目２番地１１７,,26,214,6190216,,,,,,,2023-06-19,1,,,,,レースホース,0
1071,4150003002982,新規,0,2023-06-19,2023-06-19,合同会社大洋,,合同会社,奈良県,奈良市,三条添川町１番５号,,29,201,6308127,,,,,,,2023-06-19,1,,,,,タイヨウ,0
1076,4170001017650,新規,0,2023-06-19,2023-06-19,大永メンテナンス株式会社,,株式会社,和歌山県,西牟婁郡白浜町,保呂３２２番地の３,,30,401,6492321,,,,,,,2023-06-19,1,,,,,ダイエイメンテナンス,0
1081,4180001156778,新規,0,2023-06-19,2023-06-19,株式会社彰帝,,株式会社,愛知県,大府市,江端町６丁目５６番地,,23,223,4740035,,,,,,,2023-06-19,1,,,,,ショウテイ,0
1086,4180003025378,新規,0,2023-06-19,2023-06-19,ビンテック合同会社,,合同会社,愛知県,小牧市,小牧４丁目１４６番地デュオヒルズ小牧７０１号,,23,219,4850041,,,,,,,2023-06-19,1,,,,,ビンテック,0
1087,4180301037488,新規,0,2023-06-19,2023-06-19,Ｋ．ＫＯＵＢＯＵホールディングス株式会社,,株式会社,愛知県,豊田市,百々町６丁目７番地２,,23,211,4710008,,,,,,,2023-06-19,1,,,,,ケイコウボウホールディングス,0
1102,4260001038035,新規,0,2023-06-19,2023-06-19,下園電設株式会社,,株式会社,岡山県,岡山市南区,築港新町２丁目７番２号,,33,104,7028056,,,,,,,2023-06-19,1,,,,,シモゾノデンセツ,0
1104,4270003001535,新規,0,2023-06-19,2023-06-19,合同会社Ｂｒｅｅｚｉｅ,,合同会社,鳥取県,鳥取市,湯所町１丁目４０７番地２,,31,201,6800007,,,,,,,2023-06-19,1,,,,,ブリージー,0
1111,4290001101962,新規,0,2023-06-19,2023-06-19,よしお株式会社,,株式会社,福岡県,福岡市中央区,春吉２丁目１５番３号,,40,133,8100003,,,,,,,2023-06-19,1,,,,,ヨシオ,0
1116,4290801029619,新規,0,2023-06-19,2023-06-19,株式会社中西建設,,株式会社,福岡県,遠賀郡遠賀町,大字今古賀５８８番地３,,40,384,8114303,,,,,,,2023-06-19,1,,,,,ナカニシケンセツ,0
1117,4290801029627,新規,0,2023-06-19,2023-06-19,株式会社ＳＵＮ,,株式会社,福岡県,北九州市小倉南区,大字新道寺１２０２－２,,40,107,8030186,,,,,,,2023-06-19,1,,,,,サン,0
1118,4300001013347,新規,0,2023-06-19,2023-06-19,株式会社爽風,,株式会社,佐賀県,佐賀市,大和町大字尼寺３４２４番地１,,41,201,8400201,,,,,,,2023-06-19,1,,,,,ソウフウ,0
1125,4330001030975,新規,0,2023-06-19,2023-06-19,株式会社はなみずき,,株式会社,熊本県,熊本市東区,上南部１丁目１６番７２号,,43,102,8618010,,,,,,,2023-06-19,1,,,,,ハナミズキ,0
1127,4340001025652,新規,0,2023-06-19,2023-06-19,英建株式会社,,株式会社,鹿児島県,出水市,平和町５番地,,46,208,8990217,,,,,,,2023-06-19,1,,,,,エイケン,0
1128,4360001032176,新規,0,2023-06-19,2023-06-19,株式会社シマソル,,株式会社,沖縄県,那覇市,古波蔵３丁目１番１－４０５号,,47,201,9000024,,,,,,,2023-06-19,1,,,,,シマソル,0
1129,4360001032184,新規,0,2023-06-19,2023-06-19,ＵＺＡＳＴＹＬＥプランニング株式会社,,株式会社,沖縄県,中頭郡読谷村,字宇座２４１番地スミワハウス２４１,,47,324,9040328,,,,,,,2023-06-19,1,,,,,ウザスタイルプランニング,0
1130,4360001032192,新規,0,2023-06-19,2023-06-19,株式会社農業生産法人嘉数ファーム,,株式会社,沖縄県,糸満市,字伊敷２４３番地,,47,210,9010363,,,,,,,2023-06-19,1,,,,,ノウギョウセイサンホウジンカカズファーム,0
1133,4370005010648,新規,0,2023-06-19,2023-06-19,医療法人清睦会,,その他の設立登記法人,宮城県,名取市,増田３丁目８番６７号,,04,207,9811224,,,,,,,2023-06-19,1,,,,,シンボクカイ,0
1148,4430001089325,新規,0,2023-06-19,2023-06-19,株式会社売苫七,,株式会社,北海道,苫小牧市,泉町２丁目４番５号,,01,213,0530047,,,,,,,2023-06-19,1,,,,,ウルトマセブン,0
1149,4430001089333,新規,0,2023-06-19,2023-06-19,株式会社ＳＵＲＵＧＡホールディングス,,株式会社,北海道,千歳市,千代田町６丁目７番地,,01,224,0660062,,,,,,,2023-06-19,1,,,,,スルガホールディングス,0
1150,4430001089341,新規,0,2023-06-19,2023-06-19,株式会社アップロード,,株式会社,北海道,札幌市豊平区,月寒東三条１６丁目２番１２号,,01,105,0620053,,,,,,,2023-06-19,1,,,,,アップロード,0
1151,4430001089366,新規,0,2023-06-19,2023-06-19,株式会社Ｒｅｐｉａ,,株式会社,北海道,札幌市中央区,南六条東２丁目４－１ＰＬＩＥ南６条４階,,01,101,0600056,,,,,,,2023-06-19,1,,,,,リピア,0
1154,4430003015147,新規,0,2023-06-19,2023-06-19,合同会社ＳＨＫ,,合同会社,北海道,札幌市中央区,北五条西２８丁目３番１－８０１号,,01,101,0640825,,,,,,,2023-06-19,1,,,,,エスエイチケー,0
1162,4700150103131,新規,0,2023-06-19,2021-05-10,集落活動センターあわ,,その他,高知県,須崎市,安和２４８－３,,39,206,7850024,,,,,,,2021-05-10,1,,,,,シユウラクカツドウセンターアワ,0
1163,4700150116554,新規,0,2023-06-19,2023-05-29,弥栄のみらい創造会議,,その他,島根県,浜田市,弥栄町長安本郷５４４－１,,32,202,6971211,,,,,,,2023-05-29,1,,,,,ヤサカノミライソウゾウカイギ,0
1168,5010001236141,新規,0,2023-06-19,2023-06-19,株式会社Ｓ＆ＬＩＦＥ　Ｃｏｍｐａｎｙ,,株式会社,東京都,中央区,晴海１丁目８番８号晴海トリトンスクエアオフィスタワーＷ棟１８階,,13,102,1040053,,,,,,,2023-06-19,1,,,,,エスアンドライフカンパニー,0
1169,5010001236208,新規,0,2023-06-19,2023-06-19,Ｇ．インターステラージャパン株式会社,,株式会社,東京都,中央区,銀座６丁目１３番１６号銀座ＷａｌｌビルＵＣＦ５階,,13,102,1040061,,,,,,,2023-06-19,1,,,,,ジーインターステラージャパン,0
1170,5010001236216,新規,0,2023-06-19,2023-06-19,株式会社オートミ,,株式会社,東京都,文京区,大塚３丁目１番１１号,,13,105,1120012,,,,,,,2023-06-19,1,,,,,オートミ,0
1171,5010001236232,新規,0,2023-06-19,2023-06-19,ブルージー・テクノロジー株式会社,,株式会社,東京都,千代田区,神田佐久間町３丁目２８星野ビル５０３号,,13,101,1010025,,,,,,,2023-06-19,1,,,,,ブルージーテクノロジー,0
1174,5010003040913,新規,0,2023-06-19,2023-06-19,ウルシ・シップ・ホールディング合同会社,,合同会社,東京都,中央区,京橋２丁目２番１号,,13,102,1040031,,,,,,,2023-06-19,1,,,,,ウルシシップホールディング,0
1189,5010401175138,新規,0,2023-06-19,2023-06-19,株式会社ｋ‐ｃｏｎｎｅｃｔ,,株式会社,東京都,港区,東新橋１丁目１番２１号,,13,103,1050021,,,,,,,2023-06-19,1,,,,,ケーコネクト,0
1192,5010403030349,新規,0,2023-06-19,2023-06-19,合同会社Ｎ＆Ａｓｓｏｃｉａｔｅｓ,,合同会社,東京都,港区,虎ノ門１丁目１番地２１号新虎ノ門実業会館５階,,13,103,1050001,,,,,,,2023-06-19,1,,,,,エヌアンドアソシエイツ,0
1193,5010403030365,新規,0,2023-06-19,2023-06-19,合同会社ｉｅＣＯＮＮＥＣＴソリューションズ,,合同会社,東京都,港区,麻布十番１丁目３－７－６０２,,13,103,1060045,,,,,,,2023-06-19,1,,,,,アイイーコネクトソリューションズ,0
1198,5010601063258,新規,0,2023-06-19,2023-06-19,株式会社Ｒａｆｆｉａ,,株式会社,東京都,江東区,亀戸５丁目４番６－１０４号,,13,108,1360071,,,,,,,2023-06-19,1,,,,,ラフィア,0
1199,5010601063290,新規,0,2023-06-19,2023-06-19,株式会社Ｉｎ‐ｃｌｏｖｅｒ,,株式会社,東京都,墨田区,石原２丁目３０番４－１０１号,,13,107,1300011,,,,,,,2023-06-19,1,,,,,インクローバー,0
1201,5010701044422,新規,0,2023-06-19,2023-06-19,株式会社ＯｒｔｈｏＣｏｎｓｕｌｔｉｎｇ,,株式会社,東京都,品川区,東品川４丁目１１番３６号プライムパークス品川シーサイドザ・タワー,,13,109,1400002,,,,,,,2023-06-19,1,,,,,オルソコンサルティング,0
1204,5010801034067,新規,0,2023-06-19,2023-06-19,株式会社ファーストエス,,株式会社,東京都,大田区,久が原６丁目１２番１４号,,13,111,1460085,,,,,,,2023-06-19,1,,,,,ファーストエス,0
1207,5011001155059,新規,0,2023-06-19,2023-06-19,株式会社ＴｏＤｏ,,株式会社,東京都,渋谷区,神宮前６丁目２３番４号桑野ビル２Ｆ,,13,113,1500001,,,,,,,2023-06-19,1,,,,,トゥドゥ,0
1208,5011001155075,新規,0,2023-06-19,2023-06-19,株式会社電脳ワークス,,株式会社,東京都,渋谷区,恵比寿１丁目７－４,,13,113,1500013,,,,,,,2023-06-19,1,,,,,デンノウワークス,0
1212,5011101103280,新規,0,2023-06-19,2023-06-19,株式会社ＲＯＯＫＩＥ,,株式会社,東京都,新宿区,西新宿３丁目３番１３号西新宿水間ビル６階,,13,104,1600023,,,,,,,2023-06-19,1,,,,,ルーキー,0
1213,5011101103330,新規,0,2023-06-19,2023-06-19,株式会社ＬＣ,,株式会社,東京都,新宿区,西新宿３丁目３番１３号西新宿水間ビル２Ｆ,,13,104,1600023,,,,,,,2023-06-19,1,,,,,,0
1217,5011403004029,新規,0,2023-06-19,2023-06-19,合同会社ことり社,,合同会社,東京都,板橋区,徳丸４丁目２５番２０‐２０５号,,13,119,1750083,,,,,,,2023-06-19,1,,,,,コトリシャ,0
1222,5011601026907,新規,0,2023-06-19,2023-06-19,天行株式会社,,株式会社,東京都,練馬区,錦２丁目１０－１６－１０３号,,13,120,1790082,,,,,,,2023-06-19,1,,,,,テンコウ,0
1225,5012403006031,新規,0,2023-06-19,2023-06-19,クロス・ギルド合同会社,,合同会社,東京都,府中市,小柳町４丁目３番地の２,,13,206,1830013,,,,,,,2023-06-19,1,,,,,クロスギルド,0
1228,5012701017705,新規,0,2023-06-19,2023-06-19,株式会社Ｌ・Ｒ・Ｓ,,株式会社,東京都,西東京市,芝久保町２丁目１８番２６号,,13,229,1880014,,,,,,,2023-06-19,1,,,,,エルアールエス,0
1239,5020001152115,新規,0,2023-06-19,2023-06-19,いづみエンジニアリング株式会社,,株式会社,神奈川県,川崎市宮前区,菅生６丁目３番１０号,,14,136,2160015,,,,,,,2023-06-19,1,,,,,イヅミエンジニアリング,0
1245,5020003024072,新規,0,2023-06-19,2023-06-19,合同会社ＨＫＴ開発,,合同会社,神奈川県,川崎市幸区,塚越４丁目３４５番１－１０２６号,,14,132,2120024,,,,,,,2023-06-19,1,,,,,エイチケーティーカイハツ,0
1250,5021001079348,新規,0,2023-06-19,2023-06-19,株式会社美彩,,株式会社,神奈川県,高座郡寒川町,宮山１２３２番地６,,14,321,2530106,,,,,,,2023-06-19,1,,,,,ビサイ,0
1251,5021001079356,新規,0,2023-06-19,2023-06-19,株式会社ライタス,,株式会社,神奈川県,藤沢市,湘南台４丁目７－８－３０６,,14,205,2520804,,,,,,,2023-06-19,1,,,,,ライタス,0
1255,5021003013230,新規,0,2023-06-19,2023-06-19,合同会社エメラギア,,合同会社,神奈川県,相模原市南区,相模大野４丁目５―９―９０１,,14,153,2520303,,,,,,,2023-06-19,1,,,,,エメラギア,0
1261,5030001154424,新規,0,2023-06-19,2023-06-19,株式会社ＪＵＮＫＯ．ＢＳＴＹＬＥ,,株式会社,埼玉県,春日部市,中央１丁目４４番７号,,11,214,3440067,,,,,,,2023-06-19,1,,,,,ジュンコビースタイル,0
1262,5030001154432,新規,0,2023-06-19,2023-06-19,マルシェ株式会社,,株式会社,埼玉県,川口市,芝中田２丁目８番１０号,,11,203,3330847,,,,,,,2023-06-19,1,,,,,マルシェ,0
1263,5030001154440,新規,0,2023-06-19,2023-06-19,丸羽興業株式会社,,株式会社,埼玉県,北葛飾郡松伏町,田中１丁目１６番地３２,,11,465,3430117,,,,,,,2023-06-19,1,,,,,マルバコウギョウ,0
1264,5030001154481,新規,0,2023-06-19,2023-06-19,株式会社カザン建設,,株式会社,埼玉県,川越市,大字下広谷５２５番地１１,,11,201,3500804,,,,,,,2023-06-19,1,,,,,カザンケンセツ,0
1265,5030001154531,新規,0,2023-06-19,2023-06-19,株式会社ｎｅｗｅｍｂａｎｋｍｅｎｔ,,株式会社,埼玉県,さいたま市見沼区,大字新堤７番地２２荒川ビル２ＦＢ,,11,104,3370013,,,,,,,2023-06-19,1,,,,,ニューエンバンクメント,0
1271,5030003021936,新規,0,2023-06-19,2023-06-19,合同会社彩喜,,合同会社,埼玉県,越谷市,大字弥十郎５００番地１０,,11,222,3430047,,,,,,,2023-06-19,1,,,,,サイキ,0
1272,5030003021952,新規,0,2023-06-19,2023-06-19,易通合同会社,,合同会社,埼玉県,戸田市,喜沢２丁目８番地の５５,,11,224,3350013,,,,,,,2023-06-19,1,,,,,イツウ,0
1273,5030003021960,新規,0,2023-06-19,2023-06-19,合同会社スタジオ１０１,,合同会社,埼玉県,さいたま市見沼区,東大宮４丁目５８番地８ジョイナス東大宮１０１,,11,104,3370051,,,,,,,2023-06-19,1,,,,,スタジオイチマルイチ,0
1274,5030003021969,新規,0,2023-06-19,2023-06-19,合同会社マルブリッジ,,合同会社,埼玉県,川口市,西川口１丁目２４番５号レガーロ西川口駅前５０１,,11,203,3320021,,,,,,,2023-06-19,1,,,,,マルブリッジ,0
1275,5030003021977,新規,0,2023-06-19,2023-06-19,合同会社Ｕｎｉｔ,,合同会社,埼玉県,さいたま市大宮区,桜木町２丁目３番地大宮マルイ７階,,11,103,3300854,,,,,,,2023-06-19,1,,,,,ユニット,0
1276,5030003021985,新規,0,2023-06-19,2023-06-19,聖美投資コンサルティング合同会社,,合同会社,埼玉県,川口市,元郷２丁目１５番１－３８０５号エルザタワー５５,,11,203,3320011,,,,,,,2023-06-19,1,,,,,セイビトウシコンサルティング,0
1279,5040001128880,新規,0,2023-06-19,2023-06-19,株式会社エコグランド,,株式会社,千葉県,船橋市,西習志野３丁目２０番１２号,,12,204,2740815,,,,,,,2023-06-19,1,,,,,エコグランド,0
1280,5040001128889,新規,0,2023-06-19,2023-06-19,株式会社ジョイエイト,,株式会社,千葉県,千葉市美浜区,稲毛海岸５丁目２番２号２１２,,12,106,2610005,,,,,,,2023-06-19,1,,,,,ジョイエイト,0
1281,5040001128897,新規,0,2023-06-19,2023-06-19,開星トランスポート株式会社,,株式会社,千葉県,市川市,原木３丁目１６番１９号,,12,203,2720004,,,,,,,2023-06-19,1,,,,,カイセイトランスポート,0
1282,5040001128914,新規,0,2023-06-19,2023-06-19,ＳＧパートナーズ株式会社,,株式会社,千葉県,松戸市,松戸新田４１０番地の４３,,12,207,2702241,,,,,,,2023-06-19,1,,,,,エスジーパートナーズ,0
1295,5060003004608,新規,0,2023-06-19,2023-06-19,合同会社ＹＡＭＡＭＯＲＩ,,合同会社,栃木県,鹿沼市,下久我７１２番地,,09,205,3220253,,,,,,,2023-06-19,1,,,,,ヤマモリ,0
1297,5060005010109,新規,0,2023-06-19,2023-06-19,一般社団法人ジーエフ・ワークス,,その他の設立登記法人,栃木県,足利市,中川町５番地１,,09,202,3260825,,,,,,,2023-06-19,1,,,,,ジーエフワークス,0
1307,5080403004809,新規,0,2023-06-19,2023-06-19,安心水草合同会社,,合同会社,静岡県,掛川市,吉岡４８番３,,22,213,4360115,,,,,,,2023-06-19,1,,,,,アンシンミズクサ,0
1312,5090001018177,新規,0,2023-06-19,2023-06-19,株式会社宮下商店,,株式会社,山梨県,都留市,田野倉８３８番地,,19,204,4020001,,,,,,,2023-06-19,1,,,,,ミヤシタショウテン,0
1313,5090001018185,新規,0,2023-06-19,2023-06-19,株式会社Ｕｃｈｅｅｎｏ,,株式会社,山梨県,北杜市,明野町上手７５５７番地２,,19,209,4080204,,,,,,,2023-06-19,1,,,,,ウチーノ,0
1325,5110001037620,新規,0,2023-06-19,2023-06-19,株式会社ｍ’ｄ　Ｐｈｏｔｏ＆Ｃｒａｆｔ,,株式会社,新潟県,新潟市江南区,天野３丁目３番１８号,,15,104,9501134,,,,,,,2023-06-19,1,,,,,エムズフォトアンドクラフト,0
1329,5120001255808,新規,0,2023-06-19,2023-06-19,株式会社Ｓｕｎｓｈｉｎｅ,,株式会社,大阪府,大阪市阿倍野区,天王寺町南３丁目５番１４－１２０５号,,27,119,5450002,,,,,,,2023-06-19,1,,,,,サンシャイン,0
1330,5120001255816,新規,0,2023-06-19,2023-06-19,株式会社柴田産商,,株式会社,大阪府,大阪市生野区,林寺２丁目２７番９号,,27,116,5440023,,,,,,,2023-06-19,1,,,,,シバタサンショウ,0
1331,5120001255824,新規,0,2023-06-19,2023-06-19,株式会社ＴＮＢ,,株式会社,大阪府,大阪市天王寺区,小橋町３番６号幸伸ビル３階（３１）,,27,109,5430028,,,,,,,2023-06-19,1,,,,,ティエヌビー,0
1332,5120001255840,新規,0,2023-06-19,2023-06-19,株式会社Ｎ‐ｓｔｙｌｅ,,株式会社,大阪府,守口市,南寺方東通５丁目１０番７号,,27,209,5700043,,,,,,,2023-06-19,1,,,,,エヌスタイル,0
1334,5120003024319,新規,0,2023-06-19,2023-06-19,合同会社我逢人,,合同会社,大阪府,大阪市浪速区,日本橋５丁目４－２０エスタビル５－Ｂ,,27,111,5560005,,,,,,,2023-06-19,1,,,,,ガホウジン,0
1340,5120101067764,新規,0,2023-06-19,2023-06-19,株式会社Ｇｏｏｄ　Ｒｅｃｏｖｅｒｙ,,株式会社,大阪府,堺市西区,浜寺石津町中１丁７－３８コスモ浜寺石津町１２０４号室,,27,144,5928334,,,,,,,2023-06-19,1,,,,,グッドリカバリー,0
1346,5120901047676,新規,0,2023-06-19,2023-06-19,株式会社ユカリス,,株式会社,大阪府,高槻市,淀の原町１０番２号,,27,207,5690001,,,,,,,2023-06-19,1,,,,,ユカリス,0
1347,5120903004700,新規,0,2023-06-19,2023-06-19,ジー・エイチ・ジー・ジャパン合同会社,,合同会社,大阪府,池田市,満寿美町１０番５号,,27,204,5630041,,,,,,,2023-06-19,1,,,,,ジーエイチジージャパン,0
1350,5130001074562,新規,0,2023-06-19,2023-06-19,株式会社ハッピーヘルパー,,株式会社,京都府,京都市西京区,大枝沓掛町２番１２,,26,111,6101106,,,,,,,2023-06-19,1,,,,,ハッピーヘルパー,0
1351,5130005016800,新規,0,2023-06-19,2023-06-19,一般社団法人泌尿器科学術研究会,,その他の設立登記法人,京都府,京都市左京区,聖護院川原町５４京都大学医学部附属病院泌尿器科,,26,103,6068397,,,,,,,2023-06-19,1,,,,,ヒニョウキカガクジュツケンキュウカイ,0
1360,5140001130562,新規,0,2023-06-19,2023-06-19,株式会社彩月,,株式会社,兵庫県,豊岡市,城崎町湯島１０８番地,,28,209,6696101,,,,,,,2023-06-19,1,,,,,サイゲツ,0
1366,5160001025117,新規,0,2023-06-19,2023-06-19,株式会社アールレーシング,,株式会社,滋賀県,草津市,南草津２丁目４－１ジオ南草津フロントステージ９０３,,25,206,5250050,,,,,,,2023-06-19,1,,,,,アールレーシング,0
1376,5180001156785,新規,0,2023-06-19,2023-06-19,株式会社ＬＣＳＶ,,株式会社,愛知県,瀬戸市,幡山町７番地,,23,204,4890948,,,,,,,2023-06-19,1,,,,,エルシーエスブイ,0
1382,5200001041407,新規,0,2023-06-19,2023-06-19,株式会社Ｒｅｆｏｌｄｉｎｇ,,株式会社,岐阜県,海津市,海津町平原６９１番地,,21,221,5030651,,,,,,,2023-06-19,1,,,,,リフォールディング,0
1383,5200001041415,新規,0,2023-06-19,2023-06-19,新成工業株式会社,,株式会社,岐阜県,揖斐郡揖斐川町,和田字井戸尻３２２番地５,,21,401,5010623,,,,,,,2023-06-19,1,,,,,シンセイコウギョウ,0
1384,5200003005995,新規,0,2023-06-19,2023-06-19,合同会社アクトライズ,,合同会社,岐阜県,岐阜市,琴塚４丁目３番３３号,00130894,21,201,5008222,,,,,,,2023-06-19,1,,,,,アクトライズ,0
1389,5230001019887,新規,0,2023-06-19,2023-06-19,株式会社ロスネット,,株式会社,富山県,高岡市,戸出栄町１１番地,,16,202,9391118,,,,,,,2023-06-19,1,,,,,ロスネット,0
1397,5260001038034,新規,0,2023-06-19,2023-06-19,株式会社ＴｓｕｄｏｉＢａ,,株式会社,岡山県,岡山市南区,福浜町１５番１０号,,33,104,7028035,,,,,,,2023-06-19,1,,,,,ツドイバ,0
1398,5260001038042,新規,0,2023-06-19,2023-06-19,株式会社ＮＯ　ＨＡＩＲ,,株式会社,岡山県,美作市,長谷内２３５番地,,33,215,7070121,,,,,,,2023-06-19,1,,,,,ノンヘアー,0
1409,5290001102002,新規,0,2023-06-19,2023-06-19,Ｄｃｃｅｌｌ株式会社,,株式会社,福岡県,糸島市,篠原西２丁目５番５号,,40,230,8191129,,,,,,,2023-06-19,1,,,,,ディクセル,0
1411,5290005019069,新規,0,2023-06-19,2023-06-19,一般社団法人バスケットスクールＨＩＧＨ　ＲＡＩＳＥ,,その他の設立登記法人,福岡県,福岡市博多区,住吉２丁目４－７レジデンス博多１１０５,,40,132,8120018,,,,,,,2023-06-19,1,,,,,バスケットスクールハイレイズ,0
1418,5360001032167,新規,0,2023-06-19,2023-06-19,株式会社叶建設,,株式会社,沖縄県,宮古島市,平良字下里１０９０番地１奥原マンションＡ－３０１,,47,214,9060013,,,,,,,2023-06-19,1,,,,,カノウケンセツ,0
1419,5360001032183,新規,0,2023-06-19,2023-06-19,株式会社マカチョーケ,,株式会社,沖縄県,石垣市,字川平内原４９３番１,,47,207,9070453,,,,,,,2023-06-19,1,,,,,マカチョーケ,0
1420,5360003013074,新規,0,2023-06-19,2023-06-19,ニューステップ合同会社,,合同会社,沖縄県,豊見城市,宜保４丁目２番地４,,47,212,9010244,,,,,,,2023-06-19,1,,,,,ニューステップ,0
1421,5360005006869,新規,0,2023-06-19,2023-06-19,一般社団法人谷原門中,,その他の設立登記法人,沖縄県,那覇市,字小禄３５６番地,,47,201,9010152,,,,,,,2023-06-19,1,,,,,タンパラムンチュウ,0
1430,5380001033790,新規,0,2023-06-19,2023-06-19,株式会社ムツミコーポレーション,,株式会社,福島県,郡山市,逢瀬町多田野字上山田原９５番地,,07,203,9630213,,,,,,,2023-06-19,1,,,,,ムツミコーポレーション,0
1431,5380001033799,新規,0,2023-06-19,2023-06-19,株式会社フィールド,,株式会社,福島県,郡山市,希望ヶ丘１１－２さくらビル１０２,,07,203,9638035,,,,,,,2023-06-19,1,,,,,フィールド,0
1437,5390001017289,新規,0,2023-06-19,2023-06-19,株式会社ドレスサロンジューン,,株式会社,山形県,酒田市,ゆたか１丁目１５番１８,,06,204,9980006,,,,,,,2023-06-19,1,,,,,,0
1439,5430001089332,新規,0,2023-06-19,2023-06-19,株式会社トムアンドジェリー,,株式会社,北海道,苫小牧市,新明町５丁目２番２号,,01,213,0530055,,,,,,,2023-06-19,1,,,,,トムアンドジェリー,0
1440,5430001089340,新規,0,2023-06-19,2023-06-19,アクリルグッズジャパン株式会社,,株式会社,北海道,札幌市中央区,南三条西６丁目８番地フロントムカイデビル３階,,01,101,0600063,,,,,,,2023-06-19,1,,,,,アクリルグッズジャパン,0
1441,5430001089357,新規,0,2023-06-19,2023-06-19,ファーストエイト株式会社,,株式会社,北海道,札幌市豊平区,福住一条９丁目２番１０号,,01,105,0620041,,,,,,,2023-06-19,1,,,,,ファーストエイト,0
1446,5460101007397,新規,0,2023-06-19,2023-06-19,株式会社Ｋ　ｓｋｏｇ,,株式会社,北海道,中川郡幕別町,字千住３９７番地１１,,01,643,0890563,,,,,,,2023-06-19,1,,,,,ケイスコーグ,0
1465,6010001235951,新規,0,2023-06-19,2023-06-19,株式会社ベイスラボ,,株式会社,東京都,千代田区,神田小川町３丁目７番３号,,13,101,1010052,,,,,,,2023-06-19,1,,,,,ベイスラボ,0
1466,6010001236231,新規,0,2023-06-19,2023-06-19,株式会社ＮＯＩＡ,,株式会社,東京都,千代田区,外神田６丁目１４番３号,,13,101,1010021,,,,,,,2023-06-19,1,,,,,ノイア,0
1467,6010001236256,新規,0,2023-06-19,2023-06-19,住友生命２０２３基金流動化株式会社,,株式会社,東京都,千代田区,丸の内３丁目１番１号東京共同会計事務所内,,13,101,1000005,,,,,,,2023-06-19,1,,,,,スミトモセイメイニセンニジュウサンキキンリュウドウカ,0
1474,6010003040854,新規,0,2023-06-19,2023-06-19,合同会社Ｃｒｅｓｃｅｎｔｅ,,合同会社,東京都,中央区,晴海２丁目３番３０－１１１３号,,13,102,1040053,,,,,,,2023-06-19,1,,,,,クレセント,0
1475,6010005036834,新規,0,2023-06-19,2023-06-19,一般社団法人日本投資協会,,その他の設立登記法人,東京都,中央区,日本橋兜町７番１号ＫＡＢＵＴＯＯＮＥ９Ｆ,,13,102,1030026,,,,,,,2023-06-19,1,,,,,ニホントウシキョウカイ,0
1483,6010401175062,新規,0,2023-06-19,2023-06-19,株式会社光画室,,株式会社,東京都,港区,西麻布４丁目１１－７－１０４,,13,103,1060031,,,,,,,2023-06-19,1,,,,,コウガシツ,0
1484,6010401175112,新規,0,2023-06-19,2023-06-19,青南プランニング株式会社,,株式会社,東京都,港区,南青山４丁目２３番６号,,13,103,1070062,,,,,,,2023-06-19,1,,,,,セイナンプランニング,0
1490,6010601063281,新規,0,2023-06-19,2023-06-19,株式会社ジェサップ・ジャパン,,株式会社,東京都,墨田区,両国４丁目７番１１ー５０１号かがみキャッスル,,13,107,1300026,,,,,,,2023-06-19,1,,,,,ジェサップジャパン,0
1493,6010701044421,新規,0,2023-06-19,2023-06-19,株式会社ＭＳマネジメント,,株式会社,東京都,品川区,東五反田２丁目１６番１－２６０２号,,13,109,1410022,,,,,,,2023-06-19,1,,,,,エムエスマネジメント,0
1496,6010901053263,新規,0,2023-06-19,2023-06-19,株式会社２ＢＬＡＣＫ,,株式会社,東京都,世田谷区,池尻４丁目３８番１１号中川ビル２０１,,13,112,1540001,,,,,,,2023-06-19,1,,,,,ツーブラック,0
1497,6010903008249,新規,0,2023-06-19,2023-06-19,Ｃｉｅｌｏｍａｒｅ合同会社,,合同会社,東京都,世田谷区,桜１丁目５７－１２チューダービレッジ桜３号棟,,13,112,1560053,,,,,,,2023-06-19,1,,,,,チエロマレ,0
1500,6011001154134,新規,0,2023-06-19,2023-06-19,株式会社ロケットリンクテクノロジー,,株式会社,東京都,目黒区,緑が丘１丁目１４－１１,,13,110,1520034,,,,,,,2023-06-19,1,,,,,ロケットリンクテクノロジー,0
1501,6011001155099,新規,0,2023-06-19,2023-06-19,株式会社ＵＴＡＲＩＴＯ,,株式会社,東京都,渋谷区,桜丘町１２番８号渋谷コーポラス２０５,,13,113,1500031,,,,,,,2023-06-19,1,,,,,ユタリト,0
1502,6011001155124,新規,0,2023-06-19,2023-06-19,株式会社電撃,,株式会社,東京都,渋谷区,西原１丁目１２－１２,,13,113,1510066,,,,,,,2023-06-19,1,,,,,デンゲキ,0
1504,6011003016927,新規,0,2023-06-19,2023-06-19,合同会社ＴＳＵＮＡＧＡＲＩ,,合同会社,東京都,渋谷区,渋谷２丁目１９番１５号宮益坂ビルディング６０９,,13,113,1500002,,,,,,,2023-06-19,1,,,,,ツナガリ,0
1505,6011003017000,新規,0,2023-06-19,2023-06-19,合同会社ＣＩＲＣＬＥ　ＰＯＲＴ,,合同会社,東京都,渋谷区,神泉町１０番１５号,,13,113,1500045,,,,,,,2023-06-19,1,,,,,サークルポート,0
1507,6011101103305,新規,0,2023-06-19,2023-06-19,株式会社ダイナモ,,株式会社,東京都,新宿区,百人町２丁目２４番１号羽黒ビル３階Ｂ室,,13,104,1690073,,,,,,,2023-06-19,1,,,,,ダイナモ,0
1510,6011105010695,新規,0,2023-06-19,2023-06-19,一般社団法人リジェーネ,,その他の設立登記法人,東京都,新宿区,若葉１丁目１４番地,,13,104,1600011,,,,,,,2023-06-19,1,,,,,リジェーネ,0
1512,6011203004112,新規,0,2023-06-19,2023-06-19,合同会社ＡＩＣｏｎｎｅｃｔ,,合同会社,東京都,中野区,中野２丁目１４－２６千光荘２０３,,13,114,1640001,,,,,,,2023-06-19,1,,,,,エーアイコネクト,0
1517,6011601026906,新規,0,2023-06-19,2023-06-19,株式会社ＯＬＤ　ＳＰＯＲＴ,,株式会社,東京都,練馬区,石神井町５丁目３番１５－３０３号,,13,120,1770041,,,,,,,2023-06-19,1,,,,,オールドスポート,0
1519,6011801042570,新規,0,2023-06-19,2023-06-19,ＫＴ株式会社,,株式会社,東京都,足立区,皿沼１丁目５番６号タカハシビル２０２,,13,121,1230862,,,,,,,2023-06-19,1,,,,,ケーティー,0
1520,6011801042587,新規,0,2023-06-19,2023-06-19,ピアレスグディス株式会社,,株式会社,東京都,足立区,千住緑町１丁目２１－１０ジャパンステイ千住１１５号室,,13,121,1200044,,,,,,,2023-06-19,1,,,,,ピアレスグディス,0
1523,6011803005674,新規,0,2023-06-19,2023-06-19,合同会社ＴＡＩＨＯ,,合同会社,東京都,葛飾区,四つ木１丁目２０番２号エムエス四ツ木ビル３０１,,13,122,1240011,,,,,,,2023-06-19,1,,,,,タイホウ,0
1528,6012803003107,新規,0,2023-06-19,2023-06-19,合同会社Ｍｅｄｉｃａｌ　Ｒｉｖｅｒ　Ｊａｐａｎ,,合同会社,東京都,立川市,富士見町１丁目３５－１３－８１２,,13,202,1900013,,,,,,,2023-06-19,1,,,,,メディカルリバージャパン,0
1532,6013301050938,新規,0,2023-06-19,2023-06-19,株式会社営業窓口,,株式会社,東京都,豊島区,南池袋２丁目２５番５号,,13,116,1710022,,,,,,,2023-06-19,1,,,,,エイギョウマドグチ,0
1537,6020001152114,新規,0,2023-06-19,2023-06-19,株式会社ホームテック,,株式会社,神奈川県,横浜市港北区,新横浜２丁目１４番８号オフィス新横浜２１０号室,,14,109,2220033,,,,,,,2023-06-19,1,,,,,ホームテック,0
1540,6021001079339,新規,0,2023-06-19,2023-06-19,株式会社阿部建設,,株式会社,神奈川県,厚木市,中町３丁目１番２４号吉村ビル３Ｆ,,14,212,2430018,,,,,,,2023-06-19,1,,,,,アベケンセツ,0
1541,6021001079347,新規,0,2023-06-19,2023-06-19,株式会社みなみ,,株式会社,神奈川県,相模原市中央区,東淵野辺２丁目７番８－１号,,14,152,2520203,,,,,,,2023-06-19,1,,,,,ミナミ,0
1542,6021001079363,新規,0,2023-06-19,2023-06-19,株式会社桜インターナショナル,,株式会社,神奈川県,相模原市南区,双葉２丁目１番２４号,,14,153,2520316,,,,,,,2023-06-19,1,,,,,サクラインターナショナル,0
1557,6030001154423,新規,0,2023-06-19,2023-06-19,株式会社ＡＴＡＲＵ,,株式会社,埼玉県,八潮市,大瀬４丁目１２番地５エスカーザＩＩ２０３,00130903,11,234,3400822,,,,,,,2023-06-19,1,,,,,アタル,0
1558,6030001154464,新規,0,2023-06-19,2023-06-19,株式会社レイズ,,株式会社,埼玉県,春日部市,増戸４５４番地４,,11,214,3440042,,,,,,,2023-06-19,1,,,,,レイズ,0
1559,6030001154472,新規,0,2023-06-19,2023-06-19,株式会社トリプラス,,株式会社,埼玉県,北本市,本町６丁目１６３番地,,11,233,3640033,,,,,,,2023-06-19,1,,,,,トリプラス,0
1560,6030001154480,新規,0,2023-06-19,2023-06-19,ｅｃｏｔｅｃ株式会社,,株式会社,埼玉県,川口市,桜町３丁目２番１６号,,11,203,3340001,,,,,,,2023-06-19,1,,,,,エコテック,0
1561,6030001154506,新規,0,2023-06-19,2023-06-19,株式会社ラブラ,,株式会社,埼玉県,さいたま市浦和区,神明１丁目７番１５号,,11,107,3300065,,,,,,,2023-06-19,1,,,,,ラブラ,0
1565,6030003021951,新規,0,2023-06-19,2023-06-19,栄合同会社,,合同会社,埼玉県,草加市,新里町８９５番地サングランデ１－１０１号,,11,221,3400031,,,,,,,2023-06-19,1,,,,,サカエ,0
1566,6030003021976,新規,0,2023-06-19,2023-06-19,合同会社ＡＫＩＲＡ２３,,合同会社,埼玉県,越谷市,レイクタウン１丁目２１番地１,,11,222,3430828,,,,,,,2023-06-19,1,,,,,アキラツースリー,0
1567,6030003021984,新規,0,2023-06-19,2023-06-19,合同会社トムズ,,合同会社,埼玉県,児玉郡上里町,大字神保原町５７５－２,,11,385,3690305,,,,,,,2023-06-19,1,,,,,トムズ,0
1573,6040001128871,新規,0,2023-06-19,2023-06-19,株式会社Ｌ＆Ａ　ＣＨＩＢＡ,,株式会社,千葉県,君津市,中野４丁目６番２８号,,12,225,2991151,,,,,,,2023-06-19,1,,,,,エルアンドエーチバ,0
1574,6040001128888,新規,0,2023-06-19,2023-06-19,株式会社にしき家,,株式会社,千葉県,市原市,西五所８番地１０,,12,219,2900065,,,,,,,2023-06-19,1,,,,,ニシキヤ,0
1575,6040001128896,新規,0,2023-06-19,2023-06-19,株式会社アルマ設計建築企画,,株式会社,千葉県,千葉市美浜区,中瀬１丁目３番地幕張テクノガーデンＣＢ棟３階ＭＢＰ,,12,106,2610023,,,,,,,2023-06-19,1,,,,,アルマセッケイケンチクキカク,0
1578,6040003022809,新規,0,2023-06-19,2023-06-19,合同会社ｏｎｏｎｏ,,合同会社,千葉県,流山市,野々下３丁目９４８番地の８,,12,220,2700135,,,,,,,2023-06-19,1,,,,,オノノ,0
1579,6040003022817,新規,0,2023-06-19,2023-06-19,合同会社三珠,,合同会社,千葉県,船橋市,宮本３丁目８番２８号昭和コーポ１０７号,,12,204,2730003,,,,,,,2023-06-19,1,,,,,サンジュ,0
1580,6050001052939,新規,0,2023-06-19,2023-06-19,株式会社みらい保温,,株式会社,茨城県,つくばみらい市,伊丹２８３１番地,,08,235,3002323,,,,,,,2023-06-19,1,,,,,ミライホオン,0
1584,6060001036098,新規,0,2023-06-19,2023-06-19,心愛運送株式会社,,株式会社,栃木県,宇都宮市,御幸ケ原町１１７番地８テツカハイツ５－１０１号室,,09,201,3210982,,,,,,,2023-06-19,1,,,,,コアウンソウ,0
1587,6060003004607,新規,0,2023-06-19,2023-06-19,合同会社ＨＭ　ＴＲＡＤＥＲＳ,,合同会社,栃木県,足利市,小俣町２４０番地１,,09,202,3260141,,,,,,,2023-06-19,1,,,,,エイチエムトレダース,0
1588,6060005010108,新規,0,2023-06-19,2023-06-19,一般社団法人福祉葬送,,その他の設立登記法人,栃木県,那須塩原市,上厚崎４５７番地９,,09,213,3250026,,,,,,,2023-06-19,1,,,,,フクシソウソウ,0
1592,6080103002830,新規,0,2023-06-19,2023-06-19,ＭＯＭＩＪＩ合同会社,,合同会社,静岡県,富士市,松岡１０００番地の２２,,22,210,4160909,,,,,,,2023-06-19,1,,,,,モミジ,0
1597,6080405007552,新規,0,2023-06-19,2023-06-19,浜松市天竜川しらす鰻漁業生産組合,,その他の設立登記法人,静岡県,浜松市南区,西島町１０９３番地の１,,22,134,4300837,,,,,,,2023-06-19,1,,,,,ハママツシテンリュウガワシラスウナギ,0
1598,6090001018184,新規,0,2023-06-19,2023-06-19,株式会社ニッキグラフィカ,,株式会社,山梨県,甲府市,里吉４丁目１番１号,,19,201,4000822,,,,,,,2023-06-19,1,,,,,ニッキグラフィカ,0
1608,6120001255410,新規,0,2023-06-19,2023-06-19,０１トレカ株式会社,,株式会社,大阪府,大阪市北区,大淀南２丁目２－９新梅田タワー４１Ｆ,,27,127,5310075,,,,,,,2023-06-19,1,,,,,ゼロワントレカ,0
1609,6120001255690,新規,0,2023-06-19,2023-06-19,株式会社関西未来,,株式会社,大阪府,大阪市西成区,松３丁目１２番２号、１０３号室,,27,122,5570034,,,,,,,2023-06-19,1,,,,,カンサイミライ,0
1610,6120001255807,新規,0,2023-06-19,2023-06-19,Ａｑｕａ　Ｂｅａｒ株式会社,,株式会社,大阪府,寝屋川市,石津南町３番１１号,,27,215,5720024,,,,,,,2023-06-19,1,,,,,アクアベア,0
1611,6120001255823,新規,0,2023-06-19,2023-06-19,株式会社Ｔｈｅ　Ｏｖｅｒ,,株式会社,大阪府,大阪市生野区,勝山南１丁目１７番４号,,27,116,5440021,,,,,,,2023-06-19,1,,,,,ザオーバー,0
1612,6120001255831,新規,0,2023-06-19,2023-06-19,ＦＯＤホールディング株式会社,,株式会社,大阪府,大阪市中央区,博労町２丁目４番１１号中博ビル,,27,128,5410059,,,,,,,2023-06-19,1,,,,,エフオーディーホールディング,0
1613,6120001255848,新規,0,2023-06-19,2023-06-19,株式会社ＳｏＲｏＮｏ,,株式会社,大阪府,大阪市北区,芝田２丁目８番１１号共栄ビル３階,,27,127,5300012,,,,,,,2023-06-19,1,,,,,ソロノ,0
1614,6120003024318,新規,0,2023-06-19,2023-06-19,ファルコンテック合同会社,,合同会社,大阪府,大阪市淀川区,加島４丁目１０番１６号,,27,123,5320031,,,,,,,2023-06-19,1,,,,,ファルコンテック,0
1622,6130001074561,新規,0,2023-06-19,2023-06-19,株式会社パトリシア,,株式会社,京都府,京都市右京区,西京極徳大寺団子田町６２番地１３,,26,108,6150846,,,,,,,2023-06-19,1,,,,,パトリシア,0
1634,6140001130561,新規,0,2023-06-19,2023-06-19,Ｒ株式会社,,株式会社,兵庫県,明石市,魚住町清水１６１８番地１,,28,203,6740074,,,,,,,2023-06-19,1,,,,,アール,0
1635,6140001130578,新規,0,2023-06-19,2023-06-19,株式会社末広,,株式会社,兵庫県,加古川市,野口町坂元北２丁目７６番地,,28,210,6750010,,,,,,,2023-06-19,1,,,,,スエヒロ,0
1643,6140003019217,新規,0,2023-06-19,2023-06-19,合同会社ａｃｒｏｗｏｒｋ,,合同会社,兵庫県,神戸市中央区,宮本通７丁目２番２２号ファーストフィオーレ三宮イーストＩＩ１０１,00130902,28,110,6510063,,,,,,,2023-06-19,1,,,,,アクロワーク,0
1645,6150001026486,新規,0,2023-06-19,2023-06-19,大川工業株式会社,,株式会社,奈良県,奈良市,西登美ヶ丘６丁目１２番１号,,29,201,6310006,,,,,,,2023-06-19,1,,,,,オオカワコウギョウ,0
1646,6160001025116,新規,0,2023-06-19,2023-06-19,株式会社ケントマネージＨＤ,,株式会社,滋賀県,野洲市,三上８３０番地,,25,210,5202323,,,,,,,2023-06-19,1,,,,,ケントマネージエイチディー,0
1648,6170001017649,新規,0,2023-06-19,2023-06-19,紀南Ｖｅｔｓ株式会社,,株式会社,和歌山県,西牟婁郡上富田町,朝来１４３番地の７,,30,404,6492105,,,,,,,2023-06-19,1,,,,,キナンベッツ,0
1650,6170005007019,新規,0,2023-06-19,2023-06-19,農事組合法人全国アンジェリカ栽培組合,,その他の設立登記法人,和歌山県,和歌山市,坂田４６２番地,,30,201,6410003,,,,,,,2023-06-19,1,,,,,ゼンコクアンジェリカサイバイクミアイ,0
1664,6180301037486,新規,0,2023-06-19,2023-06-19,株式会社聖子不動産,,株式会社,愛知県,岡崎市,法性寺町字上屋敷３番地,,23,202,4440206,,,,,,,2023-06-19,1,,,,,セイコフドウサン,0
1668,6200001041406,新規,0,2023-06-19,2023-06-19,株式会社アクアテック,,株式会社,岐阜県,岐阜市,西川手１丁目６９番地,,21,201,5008258,,,,,,,2023-06-19,1,,,,,アクアテック,0
1690,6260005011242,新規,0,2023-06-19,2023-06-19,一般社団法人日本骨格ケア推進センター,,その他の設立登記法人,岡山県,真庭市,三崎４７番地１０,,33,214,7193226,,,,,,,2023-06-19,1,,,,,ニホンコッカクケアスイシンセンター,0
1698,6290001101952,新規,0,2023-06-19,2023-06-19,うめとさくらカンパニー株式会社,,株式会社,福岡県,小郡市,井上１０５４番地５,,40,216,8380114,,,,,,,2023-06-19,1,,,,,ウメトサクラカンパニー,0
1699,6290001101960,新規,0,2023-06-19,2023-06-19,株式会社池田板金工業所,,株式会社,福岡県,三潴郡大木町,大字三八松１１４番地２,,40,522,8300424,,,,,,,2023-06-19,1,,,,,イケダバンキンコウギョウショ,0
1703,6290801029625,新規,0,2023-06-19,2023-06-19,株式会社スマート,,株式会社,福岡県,北九州市小倉北区,片野２丁目９番１８号,,40,106,8020064,,,,,,,2023-06-19,1,,,,,スマート,0
1705,6320001019844,新規,0,2023-06-19,2023-06-19,ＲＹＯアーキテクト株式会社,,株式会社,大分県,大分市,勢家町１丁目１番１２号,,44,201,8700031,,,,,,,2023-06-19,1,,,,,,0
1708,6330001030973,新規,0,2023-06-19,2023-06-19,株式会社アールステージ,,株式会社,熊本県,熊本市中央区,萩原町９番９１－８０２号,,43,101,8600832,,,,,,,2023-06-19,1,,,,,アールステージ,0
1710,6340001025659,新規,0,2023-06-19,2023-06-19,株式会社ものづくり住宅,,株式会社,鹿児島県,薩摩郡さつま町,轟町２４番地４,,46,392,8951813,,,,,,,2023-06-19,1,,,,,モノヅクリジュウタク,0
1713,6360001032182,新規,0,2023-06-19,2023-06-19,株式会社サングリーン沖縄,,株式会社,沖縄県,糸満市,字喜屋武１８１７番地の１,,47,210,9010354,,,,,,,2023-06-19,1,,,,,サングリーンオキナワ,0
1715,6360003013073,新規,0,2023-06-19,2023-06-19,みーなみ合同会社,,合同会社,沖縄県,中頭郡中城村,字南上原１３９番地６街区２－３画地,,47,328,9012424,,,,,,,2023-06-19,1,,,,,ミーナミ,0
1723,6410005006524,新規,0,2023-06-19,2023-06-19,医療法人夢花会,,その他の設立登記法人,秋田県,秋田市,大町１丁目２番７号サンパティオ大町Ａ棟２階Ａ号室,,05,201,0100921,,,,,,,2023-06-19,1,,,,,ユメハナカイ,0
1724,6420001018308,新規,0,2023-06-19,2023-06-19,株式会社誠ステップ,,株式会社,青森県,十和田市,大字深持字下中平１８番地２,,02,206,0340106,,,,,,,2023-06-19,1,,,,,セイステップ,0
1726,6430003015178,新規,0,2023-06-19,2023-06-19,合同会社ノルデスタアセット,,合同会社,北海道,札幌市豊平区,月寒西四条５丁目２－１０,,01,105,0620024,,,,,,,2023-06-19,1,,,,,ノルデスタアセット,0
1728,6460101007396,新規,0,2023-06-19,2023-06-19,大樹熟成チーズ株式会社,,株式会社,北海道,広尾郡大樹町,西本通１２番地,,01,641,0892152,,,,,,,2023-06-19,1,,,,,タイキジュクセイチーズ,0
1734,6700150117567,新規,0,2023-06-19,2023-06-19,ＲｅａｌＮｅｔｗｏｒｋｓ　ＬＬＣ．,,外国会社等,,,,,,,,１５０１　１ｓｔ　Ａｖｅｎｕｅ　Ｓ．Ｓｕｉｔｅ６００　Ｓｅａｔｔｌｅ，ＷＡ　９８１３４　Ｕ．Ｓ．Ａ,,,,,,2023-06-19,1,,,,,リアルネツトワークスエルエルシー,0
1741,7010001236271,新規,0,2023-06-19,2023-06-19,株式会社メディアタイムズ,,株式会社,東京都,中央区,京橋３丁目１番１号,,13,102,1040031,,,,,,,2023-06-19,1,,,,,メディアタイムズ,0
1744,7010003040903,新規,0,2023-06-19,2023-06-19,合同会社ＫＥパワー２８,,合同会社,東京都,千代田区,霞が関３丁目２番１号霞が関コモンゲート西館２２階株式会社Ｋエナジー内,,13,101,1000013,,,,,,,2023-06-19,1,,,,,ケイイーパワーニジュウハチ,0
1745,7010003040911,新規,0,2023-06-19,2023-06-19,ｙｓｉ合同会社,,合同会社,東京都,千代田区,神田錦町２丁目１番地５,,13,101,1010054,,,,,,,2023-06-19,1,,,,,ワイエスアイ,0
1757,7010401175103,新規,0,2023-06-19,2023-06-19,株式会社Ｓ　ｍｅｄｉｃａｌ,,株式会社,東京都,港区,南青山３丁目１０番４１号ジュエル青山ビル２０２号,,13,103,1070062,,,,,,,2023-06-19,1,,,,,エスメディカル,0
1758,7010401175111,新規,0,2023-06-19,2023-06-19,株式会社ＦＲＥＥ,,株式会社,東京都,港区,六本木３丁目１０－１１青木ビル２Ｆ－Ａ,,13,103,1060032,,,,,,,2023-06-19,1,,,,,フリー,0
1759,7010401175136,新規,0,2023-06-19,2023-06-19,株式会社ｈａｕｔｅｃｏｕｔｕｒｅ　ｍｕｓｉｃ,,株式会社,東京都,港区,港南４丁目１－１０リバージュ品川８０４,,13,103,1080075,,,,,,,2023-06-19,1,,,,,オートクチュールミュージック,0
1764,7010403030347,新規,0,2023-06-19,2023-06-19,合同会社ＲＦ,,合同会社,東京都,港区,海岸１丁目１番１－４２０８号,,13,103,1050022,,,,,,,2023-06-19,1,,,,,アールエフ,0
1766,7010405022219,新規,0,2023-06-19,2023-06-19,一般社団法人日本看護メディカル美容研究所,,その他の設立登記法人,東京都,港区,南青山３丁目１番３６号青山丸竹ビル６Ｆ,,13,103,1070062,,,,,,,2023-06-19,1,,,,,ニホンカンゴメディカルビヨウケンキュウジョ,0
1775,7010601063280,新規,0,2023-06-19,2023-06-19,Ｍａｉａ　Ｉｎｔｅｒｎａｔｉｏｎａｌ株式会社,,株式会社,東京都,墨田区,東駒形２丁目２番１３東駒形二丁目ビル３０３号室,,13,107,1300005,,,,,,,2023-06-19,1,,,,,マイアインターナショナル,0
1776,7010601063289,新規,0,2023-06-19,2023-06-19,日本Ｍｅｔａｌｉｅｎ株式会社,,株式会社,東京都,墨田区,立川３丁目６番１２－５０４号,,13,107,1300023,,,,,,,2023-06-19,1,,,,,ニホンメターリアン,0
1778,7010801034065,新規,0,2023-06-19,2023-06-19,ＺＥＲＯ　ＧＲＡＶＩＴＹ株式会社,,株式会社,東京都,大田区,田園調布１丁目４３－２,,13,111,1450071,,,,,,,2023-06-19,1,,,,,ゼログラビティ,0
1779,7010805003033,新規,0,2023-06-19,2023-06-19,一般社団法人大田臨海部まちづくり推進法人,,その他の設立登記法人,東京都,大田区,東海２丁目２番１号株式会社大田花き内,,13,111,1430001,,,,,,,2023-06-19,1,,,,,,0
1786,7011001155081,新規,0,2023-06-19,2023-06-19,株式会社ＰＯＮＺＵ,,株式会社,東京都,渋谷区,神宮前６丁目２３番４号,,13,113,1500001,,,,,,,2023-06-19,1,,,,,,0
1787,7011001155098,新規,0,2023-06-19,2023-06-19,株式会社ｔｓｕｄｏｗ,,株式会社,東京都,目黒区,中目黒１丁目７番１１－３０３号,,13,110,1530061,,,,,,,2023-06-19,1,,,,,ツドウ,0
1788,7011001155115,新規,0,2023-06-19,2023-06-19,ＴＥＮＥＺ　ＭＡＮＡＧＥＭＥＮＴ株式会社,,株式会社,東京都,目黒区,東山３丁目６－９－４０３,,13,110,1530043,,,,,,,2023-06-19,1,,,,,テネスマネージメント,0
1789,7011001155123,新規,0,2023-06-19,2023-06-19,株式会社ワイエスホーム代官山,,株式会社,東京都,渋谷区,代官山町１２番４号,,13,113,1500034,,,,,,,2023-06-19,1,,,,,ワイエスホームダイカンヤマ,0
1793,7011101103320,新規,0,2023-06-19,2023-06-19,ザイコアインターナショナル株式会社,,株式会社,東京都,新宿区,新宿６丁目７番２２号,,13,104,1600022,,,,,,,2023-06-19,1,,,,,ザイコアインターナショナル,0
1798,7011501029438,新規,0,2023-06-19,2023-06-19,新興和製薬株式会社,,株式会社,東京都,荒川区,南千住３丁目２７－２浅草ビル５０８,,13,118,1160003,,,,,,,2023-06-19,1,,,,,シンキョウワセイヤク,0
1803,7012701017703,新規,0,2023-06-19,2023-06-19,ＢＥＢＡＳＩＳＭ株式会社,,株式会社,東京都,東久留米市,滝山６丁目２番２号,,13,222,2030033,,,,,,,2023-06-19,1,,,,,ベバシズム,0
1809,7013305003486,新規,0,2023-06-19,2023-06-19,アスク税理士法人,,その他の設立登記法人,東京都,豊島区,池袋２丁目６２番３号明輝ビル８階,,13,116,1710014,,,,,,,2023-06-19,1,,,,,アスク,0
1816,7020001151882,新規,0,2023-06-19,2023-06-19,ＦＯＦＯ　ＢＦＪＰ株式会社,,株式会社,神奈川県,川崎市川崎区,四谷上町１０番２－２０４クオス川崎エスタル,,14,131,2100828,,,,,,,2023-06-19,1,,,,,フォフォビーエフジェーピー,0
1817,7020001152138,新規,0,2023-06-19,2023-06-19,株式会社ホクダイプラス,,株式会社,神奈川県,横浜市青葉区,青葉台２丁目１０番地３,,14,117,2270062,,,,,,,2023-06-19,1,,,,,ホクダイプラス,0
1818,7020001152154,新規,0,2023-06-19,2023-06-19,ダブルアールビー株式会社,,株式会社,神奈川県,川崎市多摩区,菅野戸呂１６番４号,,14,135,2140002,,,,,,,2023-06-19,1,,,,,ダブルアールビー,0
1821,7020003024062,新規,0,2023-06-19,2023-06-19,合同会社ＺＥＮＢＩＯ,,合同会社,神奈川県,横浜市青葉区,さつきが丘１１番地３２,,14,117,2270053,,,,,,,2023-06-19,1,,,,,ゼンバイオ,0
1829,7021001079346,新規,0,2023-06-19,2023-06-19,株式会社Ｔ’ｓ　Ｈａｙａｍａ,,株式会社,神奈川県,三浦郡葉山町,一色２０１２番地,,14,301,2400111,,,,,,,2023-06-19,1,,,,,ティーズハヤマ,0
1830,7021001079354,新規,0,2023-06-19,2023-06-19,株式会社まなべ療育センター,,株式会社,神奈川県,海老名市,東柏ケ谷５丁目１番１５号スターライトビル２０１,,14,215,2430401,,,,,,,2023-06-19,1,,,,,マナベリョウイクセンター,0
1831,7021001079362,新規,0,2023-06-19,2023-06-19,クラバース株式会社,,株式会社,神奈川県,相模原市南区,西大沼３丁目１番２３号,,14,153,2520332,,,,,,,2023-06-19,1,,,,,クラバース,0
1841,7030001154439,新規,0,2023-06-19,2023-06-19,株式会社矢部総業,,株式会社,埼玉県,八潮市,大字南後谷７６０番地２０１号,,11,234,3400831,,,,,,,2023-06-19,1,,,,,ヤベソウギョウ,0
1842,7030001154447,新規,0,2023-06-19,2023-06-19,株式会社Ｓｅｕｌ,,株式会社,埼玉県,草加市,旭町６丁目２番１７号,,11,221,3400053,,,,,,,2023-06-19,1,,,,,ソエル,0
1843,7030001154488,新規,0,2023-06-19,2023-06-19,株式会社Ｍｅｄｉｚａｉｎｅ,,株式会社,埼玉県,上尾市,本町６丁目１番３３号リビングゲートシティＶＩＩ１０２,00130900,11,219,3620014,,,,,,,2023-06-19,1,,,,,メディザイン,0
1844,7030001154546,新規,0,2023-06-19,2023-06-19,信長株式会社,,株式会社,埼玉県,川口市,並木３丁目２３番２５－９０３号,,11,203,3320034,,,,,,,2023-06-19,1,,,,,シンチョウ,0
1849,7030003021950,新規,0,2023-06-19,2023-06-19,合同会社ボックス・ワン,,合同会社,埼玉県,草加市,神明１丁目１番地３号ネバーランド草加４０５,,11,221,3400012,,,,,,,2023-06-19,1,,,,,ボックスワン,0
1850,7030003021967,新規,0,2023-06-19,2023-06-19,合同会社雄喜,,合同会社,埼玉県,朝霞市,溝沼７丁目４番２５号,,11,227,3510023,,,,,,,2023-06-19,1,,,,,ユウキ,0
1851,7030003021975,新規,0,2023-06-19,2023-06-19,合同会社ＭＣＣ,,合同会社,埼玉県,さいたま市大宮区,大門町２丁目２５番地１１ＴＭＯ南棟１０２,,11,103,3300846,,,,,,,2023-06-19,1,,,,,エムシーシー,0
1855,7040001128879,新規,0,2023-06-19,2023-06-19,株式会社結,,株式会社,千葉県,船橋市,習志野５丁目６番３８－２０１号,,12,204,2740071,,,,,,,2023-06-19,1,,,,,ユイ,0
1856,7040001128887,新規,0,2023-06-19,2023-06-19,株式会社ＴＭフロンテ,,株式会社,千葉県,柏市,小青田５丁目７番地４０１号,,12,217,2770803,,,,,,,2023-06-19,1,,,,,ティーエムフロンテ,0
1857,7040001128895,新規,0,2023-06-19,2023-06-19,ＰＬＵＳ　ＯＮＥ株式会社,,株式会社,千葉県,千葉市美浜区,稲毛海岸４丁目１３－１－６０３,,12,106,2610005,,,,,,,2023-06-19,1,,,,,プラスワン,0
1858,7040001128904,新規,0,2023-06-19,2023-06-19,株式会社Ｇｉｒａｆｆｅ構造設計,,株式会社,千葉県,松戸市,東松戸１丁目８番地の７レジーナレジデンス５０１号,,12,207,2702225,,,,,,,2023-06-19,1,,,,,ジラフコウゾウセッケイ,0
1863,7040003022808,新規,0,2023-06-19,2023-06-19,アサカ住設合同会社,,合同会社,千葉県,船橋市,三山２丁目１３番１号,,12,204,2740072,,,,,,,2023-06-19,1,,,,,アサカジュウセツ,0
1864,7040003022816,新規,0,2023-06-19,2023-06-19,合同会社クローバー,,合同会社,千葉県,大網白里市,みやこ野１丁目３－１５,,12,239,2993236,,,,,,,2023-06-19,1,,,,,クローバー,0
1870,7050005013283,新規,0,2023-06-19,2023-06-19,一般社団法人ギター文化推進協議会,,その他の設立登記法人,茨城県,石岡市,柴間４３１番地３５,,08,205,3150124,,,,,,,2023-06-19,1,,,,,ギターブンカスイシンキョウギカイ,0
1882,7080405007551,新規,0,2023-06-19,2023-06-19,一般社団法人虹の会いちかわさんち,,その他の設立登記法人,静岡県,湖西市,南台３丁目６番１８号,,22,221,4310429,,,,,,,2023-06-19,1,,,,,ニジノカイイチカワサンチ,0
1892,7120001255764,新規,0,2023-06-19,2023-06-19,株式会社スマートグランツ,,株式会社,大阪府,大阪市北区,中津５丁目１２－２デンクマール６５－３０１,,27,127,5310071,,,,,,,2023-06-19,1,,,,,スマートグランツ,0
1893,7120001255797,新規,0,2023-06-19,2023-06-19,株式会社トリケラトプス,,株式会社,大阪府,大阪市中央区,日本橋１丁目４番１２号,,27,128,5420073,,,,,,,2023-06-19,1,,,,,トリケラトプス,0
1894,7120001255806,新規,0,2023-06-19,2023-06-19,お掃除．ｃｏｍ株式会社,,株式会社,大阪府,大阪市北区,国分寺２丁目１番１４－１０階Ｂ,,27,127,5310064,,,,,,,2023-06-19,1,,,,,オソウジドットコム,0
1895,7120001255814,新規,0,2023-06-19,2023-06-19,株式会社マスターズリンク,,株式会社,大阪府,大阪市中央区,淡路町２丁目１－１堺筋千島ビル６階,,27,128,5410047,,,,,,,2023-06-19,1,,,,,マスターズリンク,0
1896,7120001255822,新規,0,2023-06-19,2023-06-19,株式会社ＭＯＵＲＡ,,株式会社,大阪府,大阪市西成区,梅南２丁目４－２７,,27,122,5570033,,,,,,,2023-06-19,1,,,,,モウラ,0
1897,7120001255830,新規,0,2023-06-19,2023-06-19,株式会社ＳＤＭＭ,,株式会社,大阪府,大阪市中央区,船場中央１丁目３－２－１０１船場センタービル２号館１階,,27,128,5410055,,,,,,,2023-06-19,1,,,,,エスディーエムエム,0
1898,7120001255839,新規,0,2023-06-19,2023-06-19,株式会社志学門,,株式会社,大阪府,大阪市天王寺区,烏ケ辻１丁目３番２５号久保田興産桃谷駅前ビル４Ｆ,,27,109,5430042,,,,,,,2023-06-19,1,,,,,シガクモン,0
1899,7120003024309,新規,0,2023-06-19,2023-06-19,レイズ合同会社,,合同会社,大阪府,門真市,舟田町４番１９号,,27,223,5710021,,,,,,,2023-06-19,1,,,,,レイズ,0
1900,7120003024317,新規,0,2023-06-19,2023-06-19,ＦＰステーション合同会社,,合同会社,大阪府,大阪市北区,梅田１丁目２番２号大阪駅前第２ビル１２－１２,,27,127,5300001,,,,,,,2023-06-19,1,,,,,エフピーステーション,0
1915,7130001074569,新規,0,2023-06-19,2023-06-19,４ＥＳＴ　ＪＡＰＡＮ株式会社,,株式会社,京都府,京都市左京区,岡崎徳成町２４番地６,,26,103,6068351,,,,,,,2023-06-19,1,,,,,フォーレストジャパン,0
1922,7140001130511,新規,0,2023-06-19,2023-06-19,株式会社丸正,,株式会社,兵庫県,神戸市灘区,城内通１丁目８番１号,,28,102,6570836,,,,,,,2023-06-19,1,,,,,マルショウ,0
1923,7140001130560,新規,0,2023-06-19,2023-06-19,西神戸金属株式会社,,株式会社,兵庫県,明石市,二見町福里５２１番地の１１,,28,203,6740091,,,,,,,2023-06-19,1,,,,,ニシコウベキンゾク,0
1924,7140001130569,新規,0,2023-06-19,2023-06-19,株式会社モアベル,,株式会社,兵庫県,尼崎市,尾浜町３丁目２９番１７号１Ｆ,,28,202,6610022,,,,,,,2023-06-19,1,,,,,モアベル,0
1929,7140003019190,新規,0,2023-06-19,2023-06-19,ＳＵＮＣＵ合同会社,,合同会社,兵庫県,神戸市中央区,北長狭通６丁目２－１３，３０２号,,28,110,6500012,,,,,,,2023-06-19,1,,,,,サンシャインカルチャー,0
1930,7140003019216,新規,0,2023-06-19,2023-06-19,合同会社Ｎｅｗ　Ａｇｅ,,合同会社,兵庫県,尼崎市,常吉２丁目１５番５－２０１号,,28,202,6610042,,,,,,,2023-06-19,1,,,,,ニューエイジ,0
1931,7150003002988,新規,0,2023-06-19,2023-06-19,トレフル合同会社,,合同会社,奈良県,桜井市,大字粟殿９９－１,,29,206,6330062,,,,,,,2023-06-19,1,,,,,トレフル,0
1933,7160001025115,新規,0,2023-06-19,2023-06-19,株式会社スタイルラボホームズ,,株式会社,滋賀県,近江八幡市,金剛寺町３０３番地２,,25,204,5230001,,,,,,,2023-06-19,1,,,,,スタイルラボホームズ,0
1945,7180301037485,新規,0,2023-06-19,2023-06-19,株式会社ＴＲＥＮＲＩＣＨ,,株式会社,愛知県,豊橋市,横須賀町重森３０番地プラシード・カーサ２０１,,23,201,4400093,,,,,,,2023-06-19,1,,,,,トレンリッチ,0
1952,7200005013499,新規,0,2023-06-19,2023-06-19,一般社団法人たぬき,,その他の設立登記法人,岐阜県,郡上市,和良町宮代１０３８番地２,,21,219,5014502,,,,,,,2023-06-19,1,,,,,タヌキ,0
1958,7240001061696,新規,0,2023-06-19,2023-06-19,株式会社ＭｉＣａｒ,,株式会社,広島県,広島市安佐南区,伴中央４丁目３４３１－１,,34,105,7313165,,,,,,,2023-06-19,1,,,,,ミッカー,0
1961,7250001020148,新規,0,2023-06-19,2023-06-19,株式会社ｉ‐ｒｉｎｋ,,株式会社,山口県,岩国市,麻里布町３丁目４－６見室不動産ビル４０２号室,,35,208,7400018,,,,,,,2023-06-19,1,,,,,アイリンク,0
1963,7260003004338,新規,0,2023-06-19,2023-06-19,合同会社はるいろ,,合同会社,岡山県,倉敷市,老松町３丁目１４番３３号,,33,202,7100826,,,,,,,2023-06-19,1,,,,,ハルイロ,0
1966,7280003001738,新規,0,2023-06-19,2023-06-19,合同会社ごえん,,合同会社,島根県,出雲市,武志町６４５番地２,,32,203,6930014,,,,,,,2023-06-19,1,,,,,ゴエン,0
1971,7290001101968,新規,0,2023-06-19,2023-06-19,Ｇｌｏｂａｌ　Ｎｅｃｓ株式会社,,株式会社,福岡県,福岡市南区,大橋３丁目２５－１２－１５号,,40,134,8150033,,,,,,,2023-06-19,1,,,,,グローバルネックス,0
1983,7360001032173,新規,0,2023-06-19,2023-06-19,拓親株式会社,,株式会社,沖縄県,浦添市,安波茶１丁目３９番７号,,47,208,9012114,,,,,,,2023-06-19,1,,,,,タクシン,0
1984,7360001032181,新規,0,2023-06-19,2023-06-19,Ｙ＆Ｃ株式会社,,株式会社,沖縄県,那覇市,西２丁目２１番１－４０１号ル・サンク那覇西街,,47,201,9000036,,,,,,,2023-06-19,1,,,,,ワイアンドシー,0
2000,7430001089322,新規,0,2023-06-19,2023-06-19,メトリックホールディングス株式会社,,株式会社,北海道,札幌市中央区,南一条西６丁目１１番地札幌北辰ビル,,01,101,0600061,,,,,,,2023-06-19,1,,,,,メトリックホールディングス,0
2001,7430001089330,新規,0,2023-06-19,2023-06-19,株式会社シンプル不動産,,株式会社,北海道,札幌市白石区,北郷二条３丁目１番１７号,,01,104,0030832,,,,,,,2023-06-19,1,,,,,シンプルフドウサン,0
2002,7430001089339,新規,0,2023-06-19,2023-06-19,株式会社ティガー,,株式会社,北海道,千歳市,高台２丁目８番１０号,,01,224,0660035,,,,,,,2023-06-19,1,,,,,ティガー,0
2003,7430001089347,新規,0,2023-06-19,2023-06-19,株式会社天道,,株式会社,北海道,札幌市白石区,北郷三条７丁目１－２１,,01,104,0030833,,,,,,,2023-06-19,1,,,,,テンドウ,0
2004,7430001089388,新規,0,2023-06-19,2023-06-19,株式会社ＫＳリムジン,,株式会社,北海道,札幌市中央区,北五条西８丁目１番１号,,01,101,0600005,,,,,,,2023-06-19,1,,,,,ケーエスリムジン,0
2008,7480001012130,新規,0,2023-06-19,2023-06-19,株式会社Ｅ‐Ｖｅｒｔｅｘ,,株式会社,徳島県,徳島市,上助任町三本松３７１番地の１,,36,201,7700801,,,,,,,2023-06-19,1,,,,,イーバーテックス,0
2009,7490001010513,新規,0,2023-06-19,2023-06-19,株式会社七彩,,株式会社,高知県,高知市,介良乙９９３番地１４,,39,201,7815106,,,,,,,2023-06-19,1,,,,,シチサイ,0
2018,8010001236205,新規,0,2023-06-19,2023-06-19,株式会社はちゃめちゃ,,株式会社,東京都,千代田区,神田佐久間町３丁目１６番地２００７,,13,101,1010025,,,,,,,2023-06-19,1,,,,,ハチャメチャ,0
2019,8010001236238,新規,0,2023-06-19,2023-06-19,株式会社ティークリエイティブ,,株式会社,東京都,中央区,日本橋浜町３丁目２３番１１号プライム浜町ビル３階,,13,102,1030007,,,,,,,2023-06-19,1,,,,,ティークリエイティブ,0
2020,8010001236270,新規,0,2023-06-19,2023-06-19,株式会社ファーストタイムリレーション,,株式会社,東京都,中央区,日本橋２丁目１－１７,,13,102,1030027,,,,,,,2023-06-19,1,,,,,ファーストタイムリレーション,0
2023,8010003040902,新規,0,2023-06-19,2023-06-19,合同会社ＫＥパワー２７,,合同会社,東京都,千代田区,霞が関３丁目２番１号霞が関コモンゲート西館２２階株式会社Ｋエナジー内,,13,101,1000013,,,,,,,2023-06-19,1,,,,,ケイイーパワーニジュウナナ,0
2024,8010003040910,新規,0,2023-06-19,2023-06-19,御徳蓄電所合同会社,,合同会社,東京都,千代田区,丸の内３丁目１番１号東京共同会計事務所内,,13,101,1000005,,,,,,,2023-06-19,1,,,,,ゴトクチクデンショ,0
2031,8010401175127,新規,0,2023-06-19,2023-06-19,株式会社ＬｉｎｋＴａｎｋ,,株式会社,東京都,港区,芝５丁目３６番４号札の辻スクエア９Ｆ,,13,103,1080014,,,,,,,2023-06-19,1,,,,,リンクタンク,0
2050,8011001155106,新規,0,2023-06-19,2023-06-19,株式会社ＧＴＪ,,株式会社,東京都,渋谷区,神宮前６丁目２３番４号桑野ビル２階,,13,113,1500001,,,,,,,2023-06-19,1,,,,,ジイティジェイ,0
2051,8011001155114,新規,0,2023-06-19,2023-06-19,株式会社ＵＫＥＴＵＧＩ,,株式会社,東京都,渋谷区,恵比寿４丁目２０番３号恵比寿ガーデンプレイスタワー２７Ｆ,,13,113,1500013,,,,,,,2023-06-19,1,,,,,ウケツギ,0
2052,8011001155139,新規,0,2023-06-19,2023-06-19,株式会社Ａｉｒｓａｌｅｓ,,株式会社,東京都,渋谷区,円山町５番５号Ｎａｖｉ渋谷Ｖ３階,,13,113,1500044,,,,,,,2023-06-19,1,,,,,エアーセールス,0
2055,8011003017015,新規,0,2023-06-19,2023-06-19,合同会社ＦＥＷＳＭ,,合同会社,東京都,渋谷区,本町６丁目３０－１３本町グリーンハイツ１０１,,13,113,1510071,,,,,,,2023-06-19,1,,,,,フューズム,0
2056,8011003017023,新規,0,2023-06-19,2023-06-19,合同会社ＳＭＢ,,合同会社,東京都,目黒区,三田１丁目４番４－２０１２号恵比寿ビュータワー,,13,110,1530062,,,,,,,2023-06-19,1,,,,,エスエムビー,0
2058,8011101103154,新規,0,2023-06-19,2023-06-19,ＡＩＤＥＳＩＧＮ株式会社,,株式会社,東京都,新宿区,西早稲田２丁目５番１６号７Ｆ,,13,104,1690051,,,,,,,2023-06-19,1,,,,,エーアイデザイン,0
2059,8011101103311,新規,0,2023-06-19,2023-06-19,株式会社佐藤組,,株式会社,東京都,新宿区,北新宿１丁目１６番２５号,,13,104,1690074,,,,,,,2023-06-19,1,,,,,サトウグミ,0
2064,8011501029437,新規,0,2023-06-19,2023-06-19,阿部製薬日本株式会社,,株式会社,東京都,荒川区,南千住３丁目２７－２浅草ビル５０８,,13,118,1160003,,,,,,,2023-06-19,1,,,,,アベセイヤク,0
2074,8012801022445,新規,0,2023-06-19,2023-06-19,ロータス株式会社,,株式会社,東京都,立川市,曙町３丁目２０番６号レオパレスゴールデンベセル２０４号,,13,202,1900012,,,,,,,2023-06-19,1,,,,,ロータス,0
2094,8020001152129,新規,0,2023-06-19,2023-06-19,菊羽建設株式会社,,株式会社,神奈川県,横浜市港北区,菊名４丁目１０番２８号,,14,109,2220011,,,,,,,2023-06-19,1,,,,,キクハケンセツ,0
2095,8020001152137,新規,0,2023-06-19,2023-06-19,オプトリビング株式会社,,株式会社,神奈川県,横浜市都筑区,佐江戸町１７０７番地１,,14,118,2240054,,,,,,,2023-06-19,1,,,,,オプトリビング,0
2096,8020001152153,新規,0,2023-06-19,2023-06-19,ゼット・エフ・パッシブ・セーフティ・システムズ・ジャパン株式会社,,株式会社,神奈川県,横浜市中区,山下町２０９番地,,14,104,2310023,,,,,,,2023-06-19,1,,,,,ゼットエフパッシブセーフティシステムズジャパン,0
2099,8020005016040,新規,0,2023-06-19,2023-06-19,行政書士法人ｔｏｍｏｎｉ,,その他の設立登記法人,神奈川県,川崎市高津区,諏訪１丁目７番２号,,14,134,2130004,,,,,,,2023-06-19,1,,,,,,0
2124,8030001154388,新規,0,2023-06-19,2023-06-19,株式会社Ｒｅ・ＦＩＲＳＴ,,株式会社,埼玉県,本庄市,緑２丁目２－４,,11,211,3670043,,,,,,,2023-06-19,1,,,,,リファースト,0
2125,8030001154405,新規,0,2023-06-19,2023-06-19,株式会社ドット,,株式会社,埼玉県,戸田市,本町４丁目４－６ＴＢＣ,,11,224,3350023,,,,,,,2023-06-19,1,,,,,ドット,0
2126,8030001154446,新規,0,2023-06-19,2023-06-19,株式会社ＷＡＫＡＢＡ,,株式会社,埼玉県,さいたま市大宮区,桜木町２丁目３番地大宮マルイ７階,,11,103,3300854,,,,,,,2023-06-19,1,,,,,ワカバ,0
2127,8030001154454,新規,0,2023-06-19,2023-06-19,ｓａｋａｉｏｆｆｉｃｅ株式会社,,株式会社,埼玉県,和光市,下新倉２丁目７番５号,,11,229,3510111,,,,,,,2023-06-19,1,,,,,サカイオフィス,0
2128,8030001154470,新規,0,2023-06-19,2023-06-19,株式会社須賀水道,,株式会社,埼玉県,川口市,大字赤山２６番地の１３,,11,203,3330825,,,,,,,2023-06-19,1,,,,,スガスイドウ,0
2129,8030001154479,新規,0,2023-06-19,2023-06-19,株式会社ｒｉ・ＢａｓｉＬ,,株式会社,埼玉県,吉川市,大字吉川１６０５番地２吉川店舗５号,,11,243,3420055,,,,,,,2023-06-19,1,,,,,リバジル,0
2130,8030001154487,新規,0,2023-06-19,2023-06-19,株式会社３３３Ｄｏｇ‐Ｃａｒｅ,,株式会社,埼玉県,坂戸市,西坂戸３丁目１２番８号,,11,239,3500247,,,,,,,2023-06-19,1,,,,,サンサンサンドッグケア,0
2131,8030001154504,新規,0,2023-06-19,2023-06-19,株式会社ラフター,,株式会社,埼玉県,新座市,栄２丁目２番１４号,,11,230,3520014,,,,,,,2023-06-19,1,,,,,ラフター,0
2132,8030001154545,新規,0,2023-06-19,2023-06-19,株式会社光琉,,株式会社,埼玉県,新座市,栄５丁目７番２４号,,11,230,3520014,,,,,,,2023-06-19,1,,,,,ヒカル,0
2136,8030003021966,新規,0,2023-06-19,2023-06-19,インディヴィジョン合同会社,,合同会社,埼玉県,熊谷市,沼黒７０９番地２,,11,202,3600135,,,,,,,2023-06-19,1,,,,,インディヴィジョン,0
2137,8030003021974,新規,0,2023-06-19,2023-06-19,合同会社ＩＮ,,合同会社,埼玉県,ふじみ野市,上福岡１丁目２番１７号上福岡第二ビル３Ｆ,,11,245,3560004,,,,,,,2023-06-19,1,,,,,アイエヌ,0
2138,8030003021982,新規,0,2023-06-19,2023-06-19,合同会社会縁,,合同会社,埼玉県,さいたま市南区,神明１丁目１０番７号,,11,108,3360023,,,,,,,2023-06-19,1,,,,,エエン,0
2144,8040001128878,新規,0,2023-06-19,2023-06-19,グッドワン株式会社,,株式会社,千葉県,四街道市,大日５４３番地１２５,,12,228,2840001,,,,,,,2023-06-19,1,,,,,グッドワン,0
2148,8040003022807,新規,0,2023-06-19,2023-06-19,合同会社Ｋ４クリエイト,,合同会社,千葉県,市川市,行徳駅前１丁目１６番３号花房ビル２階,,12,203,2720133,,,,,,,2023-06-19,1,,,,,ケーフォークリエイト,0
2149,8040003022815,新規,0,2023-06-19,2023-06-19,ＫＹＯＴＯ　ＬＡＮＫＡ　ＴＲＡＤＩＮＧ合同会社,,合同会社,千葉県,東金市,上布田４１番地３,,12,213,2830834,,,,,,,2023-06-19,1,,,,,キョウトランカトレーディング,0
2150,8040005022045,新規,0,2023-06-19,2023-06-19,医療法人社団鈴蘭会,,その他の設立登記法人,千葉県,千葉市稲毛区,小仲台２丁目５番３号稲栄ビル１階・５階・６階・７階,,12,103,2630043,,,,,,,2023-06-19,1,,,,,スズランカイ,0
2155,8060001036096,新規,0,2023-06-19,2023-06-19,株式会社あいシステムデザイン,,株式会社,栃木県,宇都宮市,簗瀬町１７８５番地３９,,09,201,3210933,,,,,,,2023-06-19,1,,,,,アイシステムデザイン,0
2167,8090001018174,新規,0,2023-06-19,2023-06-19,株式会社ＵＮＩＴＹ,,株式会社,山梨県,都留市,つる３丁目９番１４号,,19,204,4020056,,,,,,,2023-06-19,1,,,,,ユニティ,0
2168,8090001018182,新規,0,2023-06-19,2023-06-19,ピエモヴェリータ株式会社,,株式会社,山梨県,南アルプス市,加賀美３２４１番地,,19,208,4000335,,,,,,,2023-06-19,1,,,,,ピエモヴェリータ,0
2169,8090003002333,新規,0,2023-06-19,2023-06-19,合同会社アナリブ,,合同会社,山梨県,韮崎市,富士見３丁目９番１４号,,19,207,4070014,,,,,,,2023-06-19,1,,,,,アナリブ,0
2173,8110005016956,新規,0,2023-06-19,2023-06-19,一般社団法人聖籠町発酵食品を楽しむ会,,その他の設立登記法人,新潟県,新潟市東区,紫竹５丁目５番６号,,15,102,9500864,,,,,,,2023-06-19,1,,,,,セイロウマチハッコウショクヒンヲタノシムカイ,0
2180,8120001255788,新規,0,2023-06-19,2023-06-19,友聯株式会社,,株式会社,大阪府,大阪市中央区,船越町１丁目５番８－４０６号,,27,128,5400036,,,,,,,2023-06-19,1,,,,,ユウレン,0
2181,8120001255796,新規,0,2023-06-19,2023-06-19,株式会社ＴＲＥＥ　ＳＴＡＲ,,株式会社,大阪府,大阪市中央区,日本橋１丁目４番１２号,,27,128,5420073,,,,,,,2023-06-19,1,,,,,ツリースター,0
2182,8120001255805,新規,0,2023-06-19,2023-06-19,エススリー株式会社,,株式会社,大阪府,大阪市此花区,酉島１丁目３番１－１２１４号,,27,104,5540051,,,,,,,2023-06-19,1,,,,,エススリー,0
2183,8120001255813,新規,0,2023-06-19,2023-06-19,順和インフォメーション株式会社,,株式会社,大阪府,大阪市港区,磯路２丁目１２番１－６０１号,,27,107,5520003,,,,,,,2023-06-19,1,,,,,ジュンワインフォメーション,0
2184,8120001255821,新規,0,2023-06-19,2023-06-19,株式会社ＡＳＡコンサルティング,,株式会社,大阪府,大阪市西区,京町堀１丁目４番４－７０１号,,27,106,5500003,,,,,,,2023-06-19,1,,,,,アサコンサルティング,0
2188,8120005023687,新規,0,2023-06-19,2023-06-19,一般社団法人日本文章表現協会,,その他の設立登記法人,大阪府,大阪市北区,梅田１丁目２番２号大阪駅前第２ビル１２－１２,,27,127,5300001,,,,,,,2023-06-19,1,,,,,ニホンブンショウヒョウゲンキョウカイ,0
2191,8120101067761,新規,0,2023-06-19,2023-06-19,株式会社仕合,,株式会社,大阪府,和泉市,室堂町８４１番地の９,,27,219,5941101,,,,,,,2023-06-19,1,,,,,シアイ,0
2194,8120103005281,新規,0,2023-06-19,2023-06-19,合同会社仕合,,合同会社,大阪府,和泉市,室堂町８４１番地の９,,27,219,5941101,,,,,,,2023-06-19,1,,,,,シアイ,0
2201,8130001074551,新規,0,2023-06-19,2023-06-19,株式会社ＴＹｃｏｍｐａｎｙ,,株式会社,京都府,京都市山科区,小山小川町５８番地,,26,110,6078107,,,,,,,2023-06-19,1,,,,,ティーワイカンパニー,0
2209,8140001130568,新規,0,2023-06-19,2023-06-19,株式会社ラフトホールディングス,,株式会社,兵庫県,神戸市須磨区,古川町１丁目３番１６号,,28,107,6540041,,,,,,,2023-06-19,1,,,,,ラフトホールディングス,0
2210,8140001130576,新規,0,2023-06-19,2023-06-19,株式会社ＣＬＥＡＮ　ａｎｄ　ＣＨＥＥＲ,,株式会社,兵庫県,尼崎市,塚口本町２丁目３１番１０号,,28,202,6610001,,,,,,,2023-06-19,1,,,,,クリーンアンドチア,0
2228,8180003025374,新規,0,2023-06-19,2023-06-19,合同会社ＭＳＫ,,合同会社,愛知県,名古屋市緑区,森の里１丁目９６番地の４,,23,114,4598002,,,,,,,2023-06-19,1,,,,,エムエスケイ,0
2244,8280001008965,新規,0,2023-06-19,2023-06-19,とねり不動産株式会社,,株式会社,島根県,松江市,黒田町６３－２４,,32,201,6900876,,,,,,,2023-06-19,1,,,,,,0
2251,8290001101991,新規,0,2023-06-19,2023-06-19,株式会社ゴールデンカムラック,,株式会社,福岡県,福岡市博多区,吉塚７丁目２－２３ロジテックスａ棟ａ５,,40,132,8120041,,,,,,,2023-06-19,1,,,,,,0
2256,8320001019842,新規,0,2023-06-19,2023-06-19,株式会社聖家真心建匠,,株式会社,大分県,別府市,大字鶴見１６８４番地の５,,44,202,8740840,,,,,,,2023-06-19,1,,,,,セイケマゴコロケンショウ,0
2259,8330001030971,新規,0,2023-06-19,2023-06-19,優輝建設株式会社,,株式会社,熊本県,熊本市東区,戸島５丁目１２番６号,,43,102,8618041,,,,,,,2023-06-19,1,,,,,ユウキケンセツ,0
2261,8340001025657,新規,0,2023-06-19,2023-06-19,株式会社エヌワンポテト,,株式会社,鹿児島県,大島郡伊仙町,大字検福１１８番地,,46,532,8918116,,,,,,,2023-06-19,1,,,,,エヌワンポテト,0
2266,8380001033796,新規,0,2023-06-19,2023-06-19,株式会社まる吉,,株式会社,福島県,福島市,御山字中屋敷１１５番地の１,,07,201,9608252,,,,,,,2023-06-19,1,,,,,マルキチ,0
2274,8410001013522,新規,0,2023-06-19,2023-06-19,株式会社あかねいろ,,株式会社,秋田県,横手市,朝日が丘１丁目２番２号,,05,203,0130055,,,,,,,2023-06-19,1,,,,,,0
2281,8430001089321,新規,0,2023-06-19,2023-06-19,歳時記株式会社,,株式会社,北海道,札幌市中央区,大通西１８丁目２番地８ファミール大通７１３号,,01,101,0600042,,,,,,,2023-06-19,1,,,,,サイジキ,0
2282,8430001089338,新規,0,2023-06-19,2023-06-19,株式会社山本,,株式会社,北海道,千歳市,千代田町３丁目２番地山本ビル２Ｆ,,01,224,0660062,,,,,,,2023-06-19,1,,,,,ヤマモト,0
2283,8430001089354,新規,0,2023-06-19,2023-06-19,知止株式会社,,株式会社,北海道,札幌市豊平区,中の島一条９丁目４番１４－１０５号,,01,105,0620921,,,,,,,2023-06-19,1,,,,,チシ,0
2284,8430001089362,新規,0,2023-06-19,2023-06-19,株式会社エムワイティ,,株式会社,北海道,札幌市西区,発寒八条１４丁目５１４番地４８,,01,107,0630828,,,,,,,2023-06-19,1,,,,,エムワイティ,0
2290,8500001025013,新規,0,2023-06-19,2023-06-19,株式会社ＥＤＥＮ,,株式会社,愛媛県,松山市,一番町２丁目１番地３,,38,201,7900001,,,,,,,2023-06-19,1,,,,,,0
2305,9010001236212,新規,0,2023-06-19,2023-06-19,クスナ株式会社,,株式会社,東京都,中央区,日本橋室町１丁目１１番１２号,,13,102,1030022,,,,,,,2023-06-19,1,,,,,クスナ,0
2306,9010001236245,新規,0,2023-06-19,2023-06-19,ＷｈｉｔｅＬａｂ株式会社,,株式会社,東京都,中央区,日本橋室町１丁目１１番１２号日本橋水野ビル７階,,13,102,1030022,,,,,,,2023-06-19,1,,,,,ホワイトラボ,0
2308,9010003040901,新規,0,2023-06-19,2023-06-19,合同会社ＫＥパワー２６,,合同会社,東京都,千代田区,霞が関３丁目２番１号霞が関コモンゲート西館２２階株式会社Ｋエナジー内,,13,101,1000013,,,,,,,2023-06-19,1,,,,,ケイイーパワーニジュウロク,0
2321,9010401175126,新規,0,2023-06-19,2023-06-19,株式会社アルゴインサイト,,株式会社,東京都,港区,三田２丁目８番１２－６０３号,,13,103,1080073,,,,,,,2023-06-19,1,,,,,アルゴインサイト,0
2326,9010703006739,新規,0,2023-06-19,2023-06-19,合同会社未来会計プロジェクト,,合同会社,東京都,品川区,西五反田２丁目２４番４号,,13,109,1410031,,,,,,,2023-06-19,1,,,,,ミライカイケイプロジェクト,0
2330,9010801034063,新規,0,2023-06-19,2023-06-19,株式会社日本果実,,株式会社,東京都,大田区,大森東５丁目２８番１０号,,13,111,1430012,,,,,,,2023-06-19,1,,,,,ニッポンカジツ,0
2332,9010901053104,新規,0,2023-06-19,2023-06-19,株式会社花芽,,株式会社,東京都,世田谷区,北沢２丁目２６－１９号ヒルズＩＩ４０１,00130890,13,112,1550031,,,,,,,2023-06-19,1,,,,,カガ,0
2335,9011001155113,新規,0,2023-06-19,2023-06-19,株式会社ＳａＮａ,,株式会社,東京都,渋谷区,神泉町１０番１５号,,13,113,1500045,,,,,,,2023-06-19,1,,,,,サナ,0
2339,9011201024720,新規,0,2023-06-19,2023-06-19,株式会社彦十,,株式会社,東京都,中野区,鷺宮１丁目１６番９号鈴木ビル２０１,,13,114,1650032,,,,,,,2023-06-19,1,,,,,ヒコジュウ,0
2354,9011801042592,新規,0,2023-06-19,2023-06-19,株式会社ＭＳ建設,,株式会社,東京都,足立区,花畑６丁目３７番７号,,13,121,1210061,,,,,,,2023-06-19,1,,,,,エムエスケンセツ,0
2360,9012803003104,新規,0,2023-06-19,2023-06-19,合同会社Ｐｒｏｄｅｐｃｏ,,合同会社,東京都,国立市,西２丁目２３番地の６２,,13,215,1860005,,,,,,,2023-06-19,1,,,,,プロデプコ,0
2376,9021001079360,新規,0,2023-06-19,2023-06-19,株式会社スノーブル,,株式会社,神奈川県,綾瀬市,寺尾釜田２丁目１番５号,,14,218,2521135,,,,,,,2023-06-19,1,,,,,スノーブル,0
2386,9030001154404,新規,0,2023-06-19,2023-06-19,鮑氏株式会社,,株式会社,埼玉県,さいたま市南区,大字太田窪２３４８－２３,,11,108,3360015,,,,,,,2023-06-19,1,,,,,ホウシ,0
2387,9030001154412,新規,0,2023-06-19,2023-06-19,株式会社ＯＮ・ＡＬＬ,,株式会社,埼玉県,さいたま市西区,大字土屋４０８番地９,,11,101,3310062,,,,,,,2023-06-19,1,,,,,オンオール,0
2388,9030001154420,新規,0,2023-06-19,2023-06-19,株式会社飛行船,,株式会社,埼玉県,狭山市,大字水野２３６番地の１８,,11,215,3501317,,,,,,,2023-06-19,1,,,,,ヒコウセン,0
2389,9030001154437,新規,0,2023-06-19,2023-06-19,株式会社Ｙ・Ａ・Ｔ,,株式会社,埼玉県,越谷市,越ヶ谷２丁目６番２号,,11,222,3430813,,,,,,,2023-06-19,1,,,,,ワイエーティー,0
2390,9030001154445,新規,0,2023-06-19,2023-06-19,ＣＳＱ株式会社,,株式会社,埼玉県,蕨市,南町２丁目２８番３号,,11,223,3350003,,,,,,,2023-06-19,1,,,,,シーエスキュー,0
2391,9030001154478,新規,0,2023-06-19,2023-06-19,株式会社Ｃ＆Ｓ,,株式会社,埼玉県,さいたま市緑区,馬場１丁目１９番地２セジュールネオサイトＩ―１０２,00130901,11,109,3360912,,,,,,,2023-06-19,1,,,,,シーアンドエス,0
2392,9030001154503,新規,0,2023-06-19,2023-06-19,株式会社ディーライン,,株式会社,埼玉県,川越市,仙波町１丁目４番１２号,,11,201,3500034,,,,,,,2023-06-19,1,,,,,ディーライン,0
2393,9030001154544,新規,0,2023-06-19,2023-06-19,ＪＪ株式会社,,株式会社,埼玉県,さいたま市緑区,山崎１丁目１２番６号,,11,109,3360903,,,,,,,2023-06-19,1,,,,,ジェイジェイ,0
2394,9030001154560,新規,0,2023-06-19,2023-06-19,株式会社シートテックホームズ,,株式会社,埼玉県,鶴ヶ島市,大字三ツ木１８番地１６,,11,241,3502217,,,,,,,2023-06-19,1,,,,,シートテックホームズ,0
2396,9030003021949,新規,0,2023-06-19,2023-06-19,ヨスガコンサルティング合同会社,,合同会社,埼玉県,狭山市,祇園２１番６号,,11,215,3501307,,,,,,,2023-06-19,1,,,,,ヨスガコンサルティング,0
2397,9030003021957,新規,0,2023-06-19,2023-06-19,合同会社ＰＳＬｉｆｅ,,合同会社,埼玉県,鴻巣市,原馬室２０５－７,,11,217,3650043,,,,,,,2023-06-19,1,,,,,ピーエスライフ,0
2399,9030005021294,新規,0,2023-06-19,2023-06-19,一般社団法人美しい日本を作る会,,その他の設立登記法人,埼玉県,さいたま市岩槻区,大字掛５５５番地１０,,11,110,3390078,,,,,,,2023-06-19,1,,,,,,0
2400,9030005021303,新規,0,2023-06-19,2023-06-19,西武狭山グリーンヒル団地管理組合法人,,その他の設立登記法人,埼玉県,入間市,大字上藤沢４０６番地３２,,11,225,3580013,,,,,,,2023-06-19,1,,,,,セイブサヤマグリーンヒル,0
2402,9040001128877,新規,0,2023-06-19,2023-06-19,株式会社リアングリー,,株式会社,千葉県,鎌ケ谷市,東初富２丁目６番６－２０号,,12,224,2730122,,,,,,,2023-06-19,1,,,,,リアングリー,0
2403,9040001128910,新規,0,2023-06-19,2023-06-19,株式会社ＬＩＮＫ,,株式会社,千葉県,船橋市,二和西５丁目５番７号,,12,204,2740806,,,,,,,2023-06-19,1,,,,,リンク,0
2406,9040003022814,新規,0,2023-06-19,2023-06-19,合同会社ＡＤＯ,,合同会社,千葉県,千葉市中央区,富士見１丁目６－２冨士見第二ビル４階,,12,101,2600015,,,,,,,2023-06-19,1,,,,,アド,0
2413,9060001036095,新規,0,2023-06-19,2023-06-19,ＨＦＦ株式会社,,株式会社,栃木県,宇都宮市,簗瀬３丁目２９番１７号,,09,201,3210934,,,,,,,2023-06-19,1,,,,,エイチエフエフ,0
2419,9070001040550,新規,0,2023-06-19,2023-06-19,株式会社バヤシ,,株式会社,群馬県,沼田市,白沢町上古語父１３３７番地１,,10,206,3780126,,,,,,,2023-06-19,1,,,,,バヤシ,0
2424,9080401026537,新規,0,2023-06-19,2023-06-19,株式会社ＳＥＹ,,株式会社,静岡県,浜松市中区,山手町３８番２８号,,22,131,4328022,,,,,,,2023-06-19,1,,,,,エスイーワイ,0
2426,9090001018181,新規,0,2023-06-19,2023-06-19,タキグチ測量企画株式会社,,株式会社,山梨県,富士吉田市,上暮地４丁目２番３号,,19,202,4030001,,,,,,,2023-06-19,1,,,,,タキグチソクリョウキカク,0
2440,9120001255787,新規,0,2023-06-19,2023-06-19,森果情報技術株式会社,,株式会社,大阪府,大阪市中央区,西心斎橋２丁目１２－２２－４０７号室,,27,128,5420086,,,,,,,2023-06-19,1,,,,,モリカジョウホウギジュツ,0
2441,9120001255804,新規,0,2023-06-19,2023-06-19,株式会社ＣＴＦ,,株式会社,大阪府,枚方市,都丘町２番１０号（２階）,,27,210,5731165,,,,,,,2023-06-19,1,,,,,シーティーエフ,0
2442,9120001255829,新規,0,2023-06-19,2023-06-19,ＴＫコーポレーション株式会社,,株式会社,大阪府,大阪市北区,梅田３丁目２番４号,,27,127,5300001,,,,,,,2023-06-19,1,,,,,ティーケーコーポレーション,0
2443,9120001255845,新規,0,2023-06-19,2023-06-19,朗詩株式会社,,株式会社,大阪府,大阪市中央区,高津３丁目８－１９スター・レジデンス黒門９０５号室,,27,128,5420072,,,,,,,2023-06-19,1,,,,,ロウシ,0
2444,9120001255853,新規,0,2023-06-19,2023-06-19,大阪湾ＬＮＧシッピング株式会社,,株式会社,大阪府,大阪市中央区,平野町４丁目１番２号,,27,128,5410046,,,,,,,2023-06-19,1,,,,,オオサカワンエルエヌジーシッピング,0
2453,9120103005280,新規,0,2023-06-19,2023-06-19,モリモト石材合同会社,,合同会社,大阪府,和泉市,春木町３－１,,27,219,5941141,,,,,,,2023-06-19,1,,,,,モリモトセキザイ,0
2457,9120903004696,新規,0,2023-06-19,2023-06-19,合同会社ＴＯＮＩＴＯＹ,,合同会社,大阪府,池田市,緑丘１丁目４番１８－４０２号プロシード池田・緑丘,,27,204,5630026,,,,,,,2023-06-19,1,,,,,トニトイ,0
2464,9130001074559,新規,0,2023-06-19,2023-06-19,株式会社ＡＯＩ,,株式会社,京都府,京都市伏見区,京町３丁目１８２番１・２Ｆ,,26,109,6128083,,,,,,,2023-06-19,1,,,,,アオイ,0
2474,9140001130559,新規,0,2023-06-19,2023-06-19,株式会社Ｔ‐ＬＩＦＥ,,株式会社,兵庫県,姫路市,北平野２丁目９番１７号,,28,201,6700893,,,,,,,2023-06-19,1,,,,,ティーライフ,0
2478,9160003002903,新規,0,2023-06-19,2023-06-19,合同会社ＫＨＹシステム,,合同会社,滋賀県,野洲市,野田１８４２番地１,,25,210,5202421,,,,,,,2023-06-19,1,,,,,ケーエッチワイシステム,0
2485,9180001156781,新規,0,2023-06-19,2023-06-19,株式会社久野オートプラザ,,株式会社,愛知県,東海市,加木屋町山之脇３３番地５,,23,222,4770032,,,,,,,2023-06-19,1,,,,,クノオートプラザ,0
2493,9180301037434,新規,0,2023-06-19,2023-06-19,株式会社ガレージ・スズキ,,株式会社,愛知県,安城市,新田町郷東３９番地４,,23,212,4460061,,,,,,,2023-06-19,1,,,,,ガレージスズキ,0
2494,9180301037491,新規,0,2023-06-19,2023-06-19,株式会社あったまりん,,株式会社,愛知県,豊川市,小田渕町３丁目７１番地の２,,23,207,4420844,,,,,,,2023-06-19,1,,,,,アッタマリン,0
2495,9200001041411,新規,0,2023-06-19,2023-06-19,株式会社ブライトライト,,株式会社,岐阜県,岐阜市,達目洞２４番地３４,,21,201,5000000,,,,,,,2023-06-19,1,,,,,ブライトライト,0
2508,9240001061694,新規,0,2023-06-19,2023-06-19,株式会社Ｓｄｅｃｏ,,株式会社,広島県,広島市中区,三川町４番１７号サンコウビル３０３,,34,101,7300029,,,,,,,2023-06-19,1,,,,,エスデコ,0
2513,9250005008831,新規,0,2023-06-19,2023-06-19,一般社団法人あぶナビ,,その他の設立登記法人,山口県,阿武郡阿武町,大字奈古２２４８番地１,,35,502,7593622,,,,,,,2023-06-19,1,,,,,アブナビ,0
2522,9290001101958,新規,0,2023-06-19,2023-06-19,株式会社龍美Ｐｌｕｓ,,株式会社,福岡県,福岡市東区,美和台７丁目２番１１－１０３号,,40,131,8110212,,,,,,,2023-06-19,1,,,,,リュウビプラス,0
2526,9290801029614,新規,0,2023-06-19,2023-06-19,株式会社Ｃｈａｌｅｕｒふくふく,,株式会社,福岡県,北九州市八幡東区,川淵町８番１１号,,40,108,8050012,,,,,,,2023-06-19,1,,,,,シャルールフクフク,0
2527,9310003004586,新規,0,2023-06-19,2023-06-19,合同会社ナチュール,,合同会社,長崎県,五島市,籠淵町２４５０番地１,,42,211,8530041,,,,,,,2023-06-19,1,,,,,ナチュール,0
2528,9320001019841,新規,0,2023-06-19,2023-06-19,株式会社ｕＬｕ,,株式会社,大分県,日田市,大字日高１０９５番地３,,44,204,8770000,,,,,,,2023-06-19,1,,,,,ウル,0
2533,9360001032171,新規,0,2023-06-19,2023-06-19,株式会社お肉のがなは,,株式会社,沖縄県,国頭郡本部町,字谷茶２８番地７,,47,308,9050213,,,,,,,2023-06-19,1,,,,,オニクノガナハ,0
2541,9380001033795,新規,0,2023-06-19,2023-06-19,株式会社ＫＨＩ,,株式会社,福島県,福島市,堀河町６番１１号,,07,201,9608137,,,,,,,2023-06-19,1,,,,,ケイエイチアイ,0
2543,9420005007857,新規,0,2023-06-19,2023-06-19,一般社団法人アートフェスティバル,,その他の設立登記法人,青森県,弘前市,大字駒越字村元１７番地４,,02,202,0361322,,,,,,,2023-06-19,1,,,,,アートフェスティバル,0
2551,9430001089304,新規,0,2023-06-19,2023-06-19,株式会社オリネット,,株式会社,北海道,登別市,カルルス町１６番地,,01,230,0590553,,,,,,,2023-06-19,1,,,,,オリネット,0
2552,9430001089361,新規,0,2023-06-19,2023-06-19,藤山青果株式会社,,株式会社,北海道,余市郡余市町,黒川町８丁目３９番地,,01,408,0460003,,,,,,,2023-06-19,1,,,,,フジヤマセイカ,0
