sequenceNumber,corporateNumber,process,correct,updateDate,changeDate,name,nameImageId,kind,prefectureName,cityName,streetNumber,addressImageId,prefectureCode,cityCode,postCode,addressOutside,addressOutsideImageId,closeDate,closeCause,successorCorporateNumber,changeCause,assignmentDate,latest,enName,enPrefectureName,enCityName,enAddressOutside,furigana,hihyoji
5,1010001252654,登記記録の閉鎖等,0,2025-07-23,2025-07-18,ＡＣＡケミスト株式会社,,株式会社,東京都,千代田区,平河町２丁目１６番９号永田町グラスゲート６階ＡＣＡ株式会社内,,13,101,1020093,,,2025-07-18,合併による解散等,5190001005165,令和７年７月１日三重県鈴鹿市南江島町１４番１号株式会社ダイワコーポレーション（5190001005165）に合併し解散,2025-03-04,1,,,,,エーシーエーケミスト,0
78,1013305003285,登記記録の閉鎖等,0,2025-07-23,2025-06-25,一般社団法人ファストステップ,,その他の設立登記法人,東京都,豊島区,池袋３丁目３０番２１号,,13,116,1710014,,,2025-06-25,清算の結了等,,,2021-12-06,1,,,,,ファストステップ,0
96,1021002044362,登記記録の閉鎖等,0,2025-07-23,2025-07-15,有限会社山崎商会,,有限会社,神奈川県,海老名市,東柏ケ谷１丁目１７番１２,,14,215,2430401,,,2025-07-15,清算の結了等,,,2015-10-05,1,,,,,ヤマザキショウカイ,0
109,1030002003781,登記記録の閉鎖等,0,2025-07-23,2025-07-14,有限会社川崎屋,,有限会社,埼玉県,さいたま市大宮区,高鼻町２丁目１６２番地,,11,103,3300803,,,2025-07-14,清算の結了等,,,2015-10-05,1,,,,,カワサキヤ,0
110,1030002039504,登記記録の閉鎖等,0,2025-07-23,2025-07-14,有限会社渡企画,,有限会社,埼玉県,久喜市,栗橋東６丁目２０番３号,,11,232,3491103,,,2025-07-14,清算の結了等,,,2015-10-05,1,,,,,ワタリキカク,0
121,1040002008722,登記記録の閉鎖等,0,2025-07-23,2025-07-02,有限会社中村建具店,,有限会社,千葉県,千葉市稲毛区,園生町９５８番地,,12,103,2630051,,,2025-07-02,清算の結了等,,,2015-10-05,1,,,,,ナカムラタテグテン,0
138,1080001026184,登記記録の閉鎖等,0,2025-07-23,2025-07-08,株式会社ＲＳＴ,,株式会社,静岡県,静岡市駿河区,大谷３８００番地の４１０,,22,102,4228017,,,2025-07-08,清算の結了等,,,2024-03-19,1,,,,,アールエステイ,0
142,1080102002893,登記記録の閉鎖等,0,2025-07-23,2025-07-11,有限会社橋本電機,,有限会社,静岡県,沼津市,下香貫宮脇３２４番地の１９,,22,203,4100822,,,2025-07-11,清算の結了等,,,2015-10-05,1,,,,,ハシモトデンキ,0
151,1110001026057,登記記録の閉鎖等,0,2025-07-23,2025-07-01,株式会社ＣＲＥＶＩＡ,,株式会社,新潟県,長岡市,城内町３丁目５番地１－８０１,,15,202,9400061,,,2025-07-01,清算の結了等,,,2015-10-05,1,,,,,クレヴィア,0
156,1120001060815,登記記録の閉鎖等,0,2025-07-23,2025-07-18,株式会社イマージュコーポレーション,,株式会社,奈良県,奈良市,中山町西２丁目１０４８－１３,,29,201,6310013,,,2025-07-18,清算の結了等,,,2015-10-05,1,,,,,イマージュコーポレーション,0
164,1120001245309,登記記録の閉鎖等,0,2025-07-23,2025-07-04,株式会社オーク,,株式会社,大阪府,大阪市東淀川区,東中島１丁目１７番１５号ステュディオ新大阪９４３号,,27,114,5330033,,,2025-07-04,清算の結了等,,,2022-04-18,1,,,,,オーク,0
179,1130001019224,登記記録の閉鎖等,0,2025-07-23,2025-07-07,吉川商事株式会社,,株式会社,京都府,京都市下京区,綾小路通油小路西入西綾小路東半町９５番地,,26,106,6008479,,,2025-07-07,清算の結了等,,,2015-10-05,1,,,,,ヨシカワショウジ,0
190,1140001130392,登記記録の閉鎖等,0,2025-07-23,2025-07-18,株式会社ＬＩＡＩＳＯＮ,,株式会社,兵庫県,小野市,天神町９４６番地の２,,28,218,6751316,,,2025-07-18,合併による解散等,7140001095102,令和７年７月１日大阪市中央区南久宝寺町四丁目４番７号３階株式会社ソレイユ（7140001095102）に合併し解散,2023-06-13,1,,,,,リエゾン,0
209,1180001104475,登記記録の閉鎖等,0,2025-07-23,2025-07-02,株式会社ゆうライフサービス,,株式会社,愛知県,名古屋市西区,中小田井５丁目３７４番地１０２号,,23,104,4520822,,,2025-07-02,清算の結了等,,,2015-10-05,1,,,,,ユウライフサービス,0
225,1240001063913,登記記録の閉鎖等,0,2025-07-23,2025-06-30,株式会社Ｔコーポレーション,,株式会社,広島県,広島市安佐北区,可部１丁目２１番２３号,,34,106,7310221,,,2025-06-30,合併による解散等,9240001005817,令和７年６月３０日広島市安佐北区可部一丁目２１番２３号大和重工株式会社（9240001005817）に合併し解散,2024-10-04,1,,,,,ティコーポレーション,0
244,1370001047531,登記記録の閉鎖等,0,2025-07-23,2025-07-03,株式会社大樹,,株式会社,宮城県,仙台市宮城野区,岩切字昭和西１６５番地の１,,04,102,9830821,,,2025-07-03,清算の結了等,,,2021-08-31,1,,,,,タイキ,0
260,1440002008517,登記記録の閉鎖等,0,2025-07-23,2025-07-17,有限会社ことぶき電器,,有限会社,北海道,二海郡八雲町,東雲町６番地の３１,,01,346,0493105,,,2025-07-17,清算の結了等,,,2015-10-05,1,,,,,コトブキデンキ,0
269,2010001175169,登記記録の閉鎖等,0,2025-07-23,2025-06-18,株式会社Ｂｒｉｚｅｓ,,株式会社,東京都,千代田区,二番町９番３号,,13,101,1020084,,,2025-06-18,清算の結了等,,,2016-04-19,1,,,,,ブライズ,0
335,2011001158634,登記記録の閉鎖等,0,2025-07-23,2025-06-24,Ｄｅｅｐ４ｑｕｓ株式会社,,株式会社,東京都,渋谷区,円山町５番５号Ｎａｖｉ渋谷Ｖ３階,,13,113,1500044,,,2025-06-24,清算の結了等,,,2023-12-06,1,Deep4qus Inc.,Tokyo,"Navi Shibuya V 3F, 5-5 Maruyama-cho, Shibuya-ku",,ディープフォーカス,0
342,2011101100966,登記記録の閉鎖等,0,2025-07-23,2025-07-18,株式会社Ｓ・Ｌａｂｏｒａｔｏｒｙ,,株式会社,東京都,新宿区,新宿５丁目２－７,,13,104,1600022,,,2025-07-18,合併による解散等,3100001018557,令和７年７月１日長野県諏訪市大字中洲４７５０番地日本商事株式会社（3100001018557）に合併し解散,2022-11-29,1,,,,,エスラボラトリー,0
353,2011701005284,登記記録の閉鎖等,0,2025-07-23,2025-07-09,株式会社東京アート,,株式会社,東京都,江戸川区,西葛西６丁目１３番１４号丸清ビル１階,,13,123,1340088,,,2025-07-09,清算の結了等,,,2015-10-05,1,,,,,トウキョウアート,0
365,2021002033224,登記記録の閉鎖等,0,2025-07-23,2025-07-14,有限会社ヒグチ・メンテックス,,有限会社,神奈川県,厚木市,戸室４丁目６番１６号,,14,212,2430031,,,2025-07-14,清算の結了等,,,2015-10-05,1,,,,,ヒグチメンテックス,0
372,2030001091091,登記記録の閉鎖等,0,2025-07-23,2025-07-15,秩父精工株式会社,,株式会社,埼玉県,秩父郡長瀞町,大字長瀞８５１番地,,11,363,3691305,,,2025-07-15,清算の結了等,,,2015-10-05,1,,,,,チチブセイコウ,0
391,2040001077412,登記記録の閉鎖等,0,2025-07-23,2025-07-02,株式会社プラセス,,株式会社,千葉県,船橋市,二和西６丁目３番３号,,12,204,2740806,,,2025-07-02,清算の結了等,,,2015-10-05,1,,,,,プラセス,0
421,2100001014094,登記記録の閉鎖等,0,2025-07-23,2025-07-16,松本大一青果株式会社,,株式会社,長野県,松本市,大字笹賀７６００番地４１,,20,202,3990033,,,2025-07-16,清算の結了等,,,2015-10-05,1,,,,,マツモトダイイチセイカ,0
475,2170001015078,登記記録の閉鎖等,0,2025-07-23,2025-07-14,株式会社こころりんく,,株式会社,埼玉県,三郷市,彦成１丁目１７５番地２,,11,237,3410003,,,2025-07-14,清算の結了等,,,2018-02-21,1,,,,,ココロリンク,0
480,2170002011803,登記記録の閉鎖等,0,2025-07-23,2025-07-16,宮本倉庫有限会社,,有限会社,和歌山県,東牟婁郡串本町,西向３２５番地の２,,30,428,6494122,,,2025-07-16,清算の結了等,,,2015-10-05,1,,,,,ミヤモトソウコ,0
494,2180302020536,登記記録の閉鎖等,0,2025-07-23,2025-07-08,有限会社竹善,,有限会社,愛知県,高浜市,青木町４丁目３番地２５,,23,227,4441325,,,2025-07-08,清算の結了等,,,2015-10-05,1,,,,,タケゼン,0
495,2200002003623,登記記録の閉鎖等,0,2025-07-23,2025-07-10,有限会社パークタウン・エム,,有限会社,岐阜県,岐阜市,吹上町１丁目１５番地の１,,21,201,5008326,,,2025-07-10,清算の結了等,,,2015-10-05,1,,,,,パークタウンエム,0
504,2240002002720,登記記録の閉鎖等,0,2025-07-23,2025-07-11,有限会社大内工務店,,有限会社,広島県,広島市佐伯区,五日市町大字石内６４５５番地の１,,34,108,7315102,,,2025-07-11,清算の結了等,,,2015-10-05,1,,,,,オオウチコウムテン,0
535,2430001001927,登記記録の閉鎖等,0,2025-07-23,2025-07-03,上西商事株式会社,,株式会社,北海道,札幌市清田区,北野六条４丁目１５番１５号,,01,110,0040866,,,2025-07-03,清算の結了等,,,2015-10-05,1,,,,,ウエニシショウジ,0
552,2480001000882,登記記録の閉鎖等,0,2025-07-23,2025-07-15,ジェイエイ徳島燃料サービス株式会社,,株式会社,徳島県,阿波市,土成町土成字殿開６５番地１,,36,206,7711506,,,2025-07-15,合併による解散等,7250001017219,令和７年７月１日山口県山口市佐山字産業団地南１２００番地１全農西日本エネルギー株式会社（7250001017219）に合併し解散,2015-10-05,1,,,,,ジェイエイトクシマネンリョウサービス,0
561,2500002000499,登記記録の閉鎖等,0,2025-07-23,2025-07-10,有限会社アートサイン,,有限会社,愛媛県,松山市,立花５丁目２番１３号,,38,201,7900966,,,2025-07-10,清算の結了等,,,2015-10-05,1,,,,,アートサイン,0
584,3010401094083,登記記録の閉鎖等,0,2025-07-23,2025-06-30,株式会社ＤＧ,,株式会社,東京都,港区,西麻布１丁目４番３６号ロジマン西麻布５１１号室,,13,103,1060031,,,2025-06-30,清算の結了等,,,2015-10-05,1,,,,,ディージー,0
585,3010401109469,登記記録の閉鎖等,0,2025-07-23,2025-06-26,Ａｉｍｉａ　Ｊａｐａｎ株式会社,,株式会社,東京都,中央区,日本橋３丁目９番１号日本橋三丁目スクエア１１階,,13,102,1030027,,,2025-06-26,清算の結了等,,,2015-10-05,1,,,,,エイミアジャパン,0
620,3011001093616,登記記録の閉鎖等,0,2025-07-23,2025-06-18,株式会社ＮＯＷ　ＩＮＣ．,,株式会社,東京都,目黒区,目黒本町２丁目１７番１７－２０１号,,13,110,1520002,,,2025-06-18,清算の結了等,,,2015-10-05,1,,,,,ナウインク,0
651,3012701004993,登記記録の閉鎖等,0,2025-07-23,2025-07-04,株式会社ＤＭＳ,,株式会社,東京都,東久留米市,東本町１４番２５号カムレイド２０５号室,,13,222,2030014,,,2025-07-04,清算の結了等,,,2015-10-05,1,,,,,,0
661,3020002080374,登記記録の閉鎖等,0,2025-07-23,2025-07-16,有限会社栄光進学院,,有限会社,神奈川県,川崎市幸区,南加瀬３丁目２１番４号,,14,132,2120055,,,2025-07-16,清算の結了等,,,2015-10-05,1,,,,,エイコウシンガクイン,0
671,3030001032615,登記記録の閉鎖等,0,2025-07-23,2025-07-14,株式会社トラベル大和観光,,株式会社,埼玉県,加須市,久下４丁目２１番地の６,,11,210,3470063,,,2025-07-14,清算の結了等,,,2015-10-05,1,,,,,トラベルダイワカンコウ,0
678,3030002014645,登記記録の閉鎖等,0,2025-07-23,2025-07-16,有限会社渡辺産業,,有限会社,埼玉県,さいたま市南区,辻４丁目９番２０号,00016211,11,108,3360026,,,2025-07-16,清算の結了等,,,2015-10-05,1,,,,,ワタナベサンギョウ,0
680,3030002044709,登記記録の閉鎖等,0,2025-07-23,2025-07-14,有限会社ソフトウェアネット,,有限会社,埼玉県,草加市,手代３丁目９番１－５０１号,,11,221,3400021,,,2025-07-14,清算の結了等,,,2015-10-05,1,,,,,ソフトウェアネット,0
689,3040002088589,登記記録の閉鎖等,0,2025-07-23,2025-07-02,有限会社アートビルサービス,,有限会社,千葉県,柏市,豊四季１１２番地６３フラワーヒル豊四季３０３号室,,12,217,2770863,,,2025-07-02,清算の結了等,,,2015-10-05,1,,,,,アートビルサービス,0
700,3060001024337,登記記録の閉鎖等,0,2025-07-23,2025-07-08,マイスター商事株式会社,,株式会社,栃木県,宇都宮市,瑞穂３丁目４番地２１,,09,201,3210921,,,2025-07-08,清算の結了等,,,2015-10-05,1,,,,,マイスターショウジ,0
702,3060002037172,登記記録の閉鎖等,0,2025-07-23,2025-07-08,フォトエース有限会社,,有限会社,栃木県,足利市,通７丁目３１０５番地４,,09,202,3260814,,,2025-07-08,清算の結了等,,,2015-10-05,1,,,,,フォトエース,0
707,3080102014391,登記記録の閉鎖等,0,2025-07-23,2025-07-14,有限会社竹田商事,,有限会社,静岡県,富士市,永田町１丁目５番地,,22,210,4170055,,,2025-07-14,清算の結了等,,,2015-10-05,1,,,,,タケダショウジ,0
710,3080402001453,登記記録の閉鎖等,0,2025-07-23,2025-07-14,有限会社エム・エル・シー,,有限会社,静岡県,浜松市中央区,半田山５丁目２８番２５号,,22,138,4313125,,,2025-07-14,清算の結了等,,,2015-10-05,1,,,,,エムエルシー,0
711,3080402008077,登記記録の閉鎖等,0,2025-07-23,2025-07-10,有限会社宮木土木,,有限会社,静岡県,浜松市中央区,呉松町２７５８番地,,22,138,4311202,,,2025-07-10,清算の結了等,,,2021-05-24,1,,,,,ミヤキドボク,0
712,3080402019883,登記記録の閉鎖等,0,2025-07-23,2025-07-11,有限会社富士建工,,有限会社,静岡県,磐田市,見付２８４番地の１,,22,211,4380086,,,2025-07-11,清算の結了等,,,2015-10-05,1,,,,,フジケンコウ,0
728,3120002003820,登記記録の閉鎖等,0,2025-07-23,2025-07-08,有限会社大和屋,,有限会社,大阪府,大阪市阿倍野区,文の里４丁目１番４号,,27,119,5450004,,,2025-07-08,清算の結了等,,,2015-10-05,1,,,,,ヤマトヤ,0
729,3120002042538,登記記録の閉鎖等,0,2025-07-23,2025-07-04,有限会社保田リスクマネジメント,,有限会社,大阪府,大阪市都島区,友渕町１丁目３番１０５－５０２号,,27,102,5340016,,,2025-07-04,清算の結了等,,,2015-10-05,1,,,,,,0
755,3180001108747,登記記録の閉鎖等,0,2025-07-23,2025-07-01,株式会社ＳＫ,,株式会社,愛知県,名古屋市天白区,音聞山１０３１番地,,23,116,4680063,,,2025-07-01,合併による解散等,6180001064830,令和７年７月１日名古屋市天白区音聞山１０３１番地株式会社悠海（6180001064830）に合併し解散,2015-10-05,1,,,,,エスケー,0
759,3180302022861,登記記録の閉鎖等,0,2025-07-23,2025-07-03,有限会社東海工販,,有限会社,愛知県,豊田市,深田町１丁目８８番地１,,23,211,4710841,,,2025-07-03,清算の結了等,,,2015-10-05,1,,,,,トウカイコウハン,0
762,3200002013670,登記記録の閉鎖等,0,2025-07-23,2025-07-10,有限会社エヴァフォートレイディング,,有限会社,岐阜県,不破郡垂井町,１５９９番地の２８,,21,361,5032121,,,2025-07-10,清算の結了等,,,2015-10-05,1,,,,,エヴァフォートレイディング,0
771,3240001055256,登記記録の閉鎖等,0,2025-07-23,2025-07-11,ウーバーコアエンジニアリング株式会社,,株式会社,広島県,広島市安佐南区,大町東１丁目９番４－５－２号,,34,105,7310124,,,2025-07-11,清算の結了等,,,2019-11-14,1,,,,,ウーバーコアエンジニアリング,0
779,3260001033697,登記記録の閉鎖等,0,2025-07-23,2025-06-24,株式会社画像処理技研,,株式会社,岡山県,備前市,新庄６３９番地,,33,211,7050014,,,2025-06-24,清算の結了等,,,2019-11-08,1,,,,,ガゾウショリギケン,0
784,3290001028141,登記記録の閉鎖等,0,2025-07-23,2025-07-17,富士通Ｊａｐａｎソリューションズ九州株式会社,,株式会社,福岡県,福岡市博多区,東比恵１丁目５番１３号,,40,132,8120007,,,2025-07-17,合併による解散等,5010001006767,令和７年７月１日神奈川県川崎市幸区大宮町１番地５富士通Ｊａｐａｎ株式会社（5010001006767）に合併し解散,2015-10-05,1,,,,,フジツウジャパンソリューションズキュウシュウ,0
802,3360001027846,登記記録の閉鎖等,0,2025-07-23,2025-07-03,株式会社沖縄広貫堂,,株式会社,沖縄県,浦添市,伊祖１丁目２４番１号,,47,208,9012132,,,2025-07-03,清算の結了等,,,2020-10-27,1,,,,,オキナワコウカンドウ,0
812,3430002054262,登記記録の閉鎖等,0,2025-07-23,2025-07-02,有限会社クシダ薬局,,有限会社,北海道,小樽市,稲穂２丁目６番６号,,01,203,0470032,,,2025-07-02,清算の結了等,,,2015-10-05,1,,,,,クシダヤッキョク,0
813,3430003001981,登記記録の閉鎖等,0,2025-07-23,2025-07-02,合同会社オフィス道央,,合同会社,北海道,札幌市豊平区,平岸六条９丁目２番２５－１０４号,,01,105,0620936,,,2025-07-02,清算の結了等,,,2015-10-05,1,,,,,オフィスドウオウ,0
817,3460102006714,登記記録の閉鎖等,0,2025-07-23,2025-07-17,有限会社間組,,有限会社,北海道,広尾郡大樹町,三条通１８番地の２４,,01,641,0892143,,,2025-07-17,清算の結了等,,,2015-10-05,1,,,,,,0
819,3490001007496,登記記録の閉鎖等,0,2025-07-23,2025-07-22,株式会社八潮運輸,,株式会社,高知県,高知市,九反田５番８号,,39,201,7810832,,,2025-07-22,合併による解散等,7490001003351,令和７年６月１日高知市仁井田４７０６番地５高知トレーラサービス株式会社（7490001003351）に合併し解散,2015-10-05,1,,,,,ヤシオウンユ,0
823,3500003000596,登記記録の閉鎖等,0,2025-07-23,2025-07-11,合同会社大石企画,,合同会社,愛媛県,西予市,野村町富野川５１５番地,,38,214,7971214,,,2025-07-11,清算の結了等,,,2015-10-05,1,,,,,オオイシキカク,0
829,4010001065491,登記記録の閉鎖等,0,2025-07-23,2025-07-14,株式会社マネジメントサポート,,株式会社,埼玉県,三郷市,さつき平２丁目５番２－９０２号,,11,237,3410021,,,2025-07-14,清算の結了等,,,2015-10-05,1,,,,,マネジメントサポート,0
852,4010401129771,登記記録の閉鎖等,0,2025-07-23,2025-06-23,アクセルグロー株式会社,,株式会社,東京都,渋谷区,渋谷１丁目７番５号,,13,113,1500002,,,2025-06-23,清算の結了等,,,2017-02-20,1,,,,,アクセルグロー,0
876,4010501039929,登記記録の閉鎖等,0,2025-07-23,2025-07-07,株式会社ＨＵＫＵ　ＥＸＰＲＥＳＳ,,株式会社,東京都,台東区,小島１丁目８番１号,,13,106,1110056,,,2025-07-07,清算の結了等,,,2016-08-16,1,,,,,,0
898,4011001139244,登記記録の閉鎖等,0,2025-07-23,2025-06-23,株式会社６人,,株式会社,東京都,渋谷区,恵比寿３丁目４３番３－６０６号シティハウス恵比寿伊達坂,,13,113,1500013,,,2025-06-23,清算の結了等,,,2021-03-22,1,,,,,ロクニン,0
906,4011003019056,登記記録の閉鎖等,0,2025-07-23,2025-06-20,ＬｅｏＴｏｋｙｏ合同会社,,合同会社,東京都,渋谷区,恵比寿西２丁目８番４号５階,,13,113,1500021,,,2025-06-20,清算の結了等,,,2024-05-02,1,,,,,レオトウキョウ,0
940,4020001134989,登記記録の閉鎖等,0,2025-07-23,2025-07-07,株式会社メイクイット,,株式会社,神奈川県,川崎市高津区,末長４丁目２６番２０号シティライフ第７天神前３－Ｂ,,14,134,2130013,,,2025-07-07,清算の結了等,,,2020-02-18,1,,,,,メイクイット,0
953,4021001007953,登記記録の閉鎖等,0,2025-07-23,2025-07-03,タイゴールド株式会社,,株式会社,神奈川県,茅ヶ崎市,萩園２５００番地,,14,207,2530071,,,2025-07-03,合併による解散等,5021001006558,令和７年７月１日神奈川県茅ヶ崎市萩園２６０９番地５アルバックテクノ株式会社（5021001006558）に合併し解散,2015-10-05,1,,,,,タイゴールド,0
963,4030001058915,登記記録の閉鎖等,0,2025-07-23,2025-07-14,株式会社オートヤマダ,,株式会社,埼玉県,川越市,大字今福４３１番地,,11,201,3501151,,,2025-07-14,清算の結了等,,,2015-10-05,1,,,,,オートヤマダ,0
976,4040001116820,登記記録の閉鎖等,0,2025-07-23,2025-07-01,株式会社セカンドカンパニー,,株式会社,千葉県,市川市,新井２丁目１５番２１号,,12,203,2720144,,,2025-07-01,合併による解散等,2040001079656,令和７年７月１日千葉県市川市新井二丁目１５番２１号株式会社スライヴカンパニー（2040001079656）に合併し解散,2021-01-21,1,,,,,セカンドカンパニー,0
983,4060001033378,登記記録の閉鎖等,0,2025-07-23,2025-07-08,株式会社ＯＹＡＭＡ２０２１,,株式会社,栃木県,小山市,東城南４丁目１９番地１６,,09,208,3230829,,,2025-07-08,清算の結了等,,,2021-02-03,1,,,,,オヤマニーゼロニーイチ,0
985,4060002022314,登記記録の閉鎖等,0,2025-07-23,2025-07-08,有限会社末広左官工業,,有限会社,栃木県,那須塩原市,埼玉６番地４１,,09,213,3250033,,,2025-07-08,清算の結了等,,,2015-10-05,1,,,,,スエヒロサカンコウギョウ,0
988,4070002018897,登記記録の閉鎖等,0,2025-07-23,2025-07-09,有限会社コーシン,,有限会社,群馬県,伊勢崎市,八坂町５１６番地２,,10,204,3720044,,,2025-07-09,清算の結了等,,,2021-08-30,1,,,,,,0
991,4080102002461,登記記録の閉鎖等,0,2025-07-23,2025-07-15,有限会社東晃電装,,有限会社,静岡県,沼津市,岡宮１２６８番地の４,,22,203,4100011,,,2025-07-15,清算の結了等,,,2015-10-05,1,,,,,トウコウデンソウ,0
999,4100003006773,登記記録の閉鎖等,0,2025-07-23,2025-07-16,合同会社ジェイズコーポレーション,,合同会社,長野県,上田市,菅平高原１２６５番地４,,20,203,3862204,,,2025-07-16,清算の結了等,,,2022-11-11,1,,,,,ジェイズコーポレーション,0
1023,4130001013471,登記記録の閉鎖等,0,2025-07-23,2025-07-07,山科自動車工業株式会社,,株式会社,京都府,京都市山科区,東野八反畑町２１番地の６,,26,110,6078145,,,2025-07-07,清算の結了等,,,2015-10-05,1,,,,,ヤマシナジドウシャコウギョウ,0
1024,4130001014668,登記記録の閉鎖等,0,2025-07-23,2025-07-04,ジャパンフーズ株式会社,,株式会社,京都府,京都市伏見区,桃山町島津４７－３２,,26,109,6120854,,,2025-07-04,清算の結了等,,,2015-10-05,1,,,,,ジャパンフーズ,0
1035,4140005018994,登記記録の閉鎖等,0,2025-07-23,2025-07-09,特定非営利活動法人ぴあの,,その他の設立登記法人,兵庫県,川西市,緑台２丁目２番地の７０,,28,217,6660129,,,2025-07-09,清算の結了等,,,2015-10-05,1,,,,,ピアノ,0
1039,4160002000210,登記記録の閉鎖等,0,2025-07-23,2025-07-09,有限会社井ノ口住設,,有限会社,滋賀県,大津市,一里山５丁目２３番１６号,,25,201,5202153,,,2025-07-09,清算の結了等,,,2015-10-05,1,,,,,イノグチジュウセツ,0
1043,4180001006314,登記記録の閉鎖等,0,2025-07-23,2025-07-02,共進工業株式会社,,株式会社,愛知県,名古屋市港区,春田野３丁目４１２番地,,23,111,4550873,,,2025-07-02,清算の結了等,,,2015-10-05,1,,,,,キョウシンコウギョウ,0
1046,4180001162925,登記記録の閉鎖等,0,2025-07-23,2025-07-02,株式会社ＡＩＥＮ建設,,株式会社,愛知県,名古屋市中村区,藤江町３丁目１７４－３,,23,105,4530045,,,2025-07-02,清算の結了等,,,2024-08-22,1,,,,,アイエンケンセツ,0
1058,4190001015520,登記記録の閉鎖等,0,2025-07-23,2025-07-07,株式会社中部電池サービス,,株式会社,三重県,四日市市,小生町６４２番地,,24,202,5120932,,,2025-07-07,清算の結了等,,,2015-10-05,1,,,,,チュウブデンチサービス,0
1062,4200001012292,登記記録の閉鎖等,0,2025-07-23,2025-07-03,株式会社アクシア,,株式会社,愛知県,一宮市,木曽川町外割田字東郷中５１番地２,,23,203,4930007,,,2025-07-03,清算の結了等,,,2015-10-05,1,,,,,アクシア,0
1086,4290001010247,登記記録の閉鎖等,0,2025-07-23,2025-07-03,株式会社ブレーントラスト社,,株式会社,福岡県,福岡市中央区,舞鶴１丁目４番１号,,40,133,8100073,,,2025-07-03,清算の結了等,,,2015-10-05,1,,,,,,0
1088,4290801012558,登記記録の閉鎖等,0,2025-07-23,2025-07-17,株式会社ＵＮＯ建設,,株式会社,福岡県,北九州市若松区,高須東４丁目２番８号,,40,103,8080144,,,2025-07-17,合併による解散等,6290001010617,令和７年７月１日福岡市中央区赤坂一丁目９番２０号溝江建設株式会社（6290001010617）に合併し解散,2015-10-05,1,,,,,ウノケンセツ,0
1108,4410002000201,登記記録の閉鎖等,0,2025-07-23,2025-07-17,有限会社アドバンス,,有限会社,秋田県,秋田市,山王５丁目１４番２６号,,05,201,0100951,,,2025-07-17,清算の結了等,,,2015-10-05,1,,,,,アドバンス,0
1111,4410002009746,登記記録の閉鎖等,0,2025-07-23,2025-07-15,有限会社佐幸商事,,有限会社,秋田県,鹿角市,花輪字高井田４４番地の２７,,05,209,0185201,,,2025-07-15,清算の結了等,,,2015-10-05,1,,,,,サコウショウジ,0
1146,5010401014535,登記記録の閉鎖等,0,2025-07-23,2025-07-01,ＲＳエナジー株式会社,,株式会社,東京都,千代田区,大手町１丁目２番１号,,13,101,1000004,,,2025-07-01,合併による解散等,9010001011318,令和７年７月１日東京都千代田区大手町一丁目２番１号出光興産株式会社（9010001011318）に合併し解散,2015-10-05,1,,,,,アールエスエナジー,0
1166,5010405018540,登記記録の閉鎖等,0,2025-07-23,2025-06-30,ＭＦＪＰＮ一般社団法人,,その他の設立登記法人,東京都,港区,虎ノ門３丁目２２番１０－２０１号,,13,103,1050001,,,2025-06-30,清算の結了等,,,2020-02-20,1,,,,,エムエフジェイピーエヌ,0
1188,5011101049879,登記記録の閉鎖等,0,2025-07-23,2025-06-23,株式会社ＣＡＮＶＡＳ　ＡＮＤ　ＣＯＭＰＡＮＹ,,株式会社,東京都,渋谷区,神宮前６丁目２５番２－２０４号,,13,113,1500001,,,2025-06-23,清算の結了等,,,2015-10-05,1,,,,,キャンバスアンドカンパニー,0
1208,5013301025981,登記記録の閉鎖等,0,2025-07-23,2025-06-30,西東京流通株式会社,,株式会社,東京都,新宿区,西新宿６丁目５番２号アイランドレジデンス８０３,,13,104,1600023,,,2025-06-30,合併による解散等,3013301020844,令和７年６月３０日東京都新宿区西新宿六丁目５番２号アイランドレジデンス８０３株式会社西東京通商（3013301020844）に合併し解散,2015-10-05,1,,,,,ニシトウキョウリュウツウ,0
1216,5020005014914,登記記録の閉鎖等,0,2025-07-23,2025-06-25,特定非営利活動法人ソレーション,,その他の設立登記法人,神奈川県,横浜市神奈川区,神大寺１丁目３５番地２４号,,14,102,2210801,,,2025-06-25,清算の結了等,,,2021-02-18,1,,,,,ソレーション,0
1230,5030001133469,登記記録の閉鎖等,0,2025-07-23,2025-07-14,株式会社Ｃｕｒａｔｉｏ,,株式会社,埼玉県,坂戸市,千代田３丁目２２番１８号１Ｆ,,11,239,3500214,,,2025-07-14,清算の結了等,,,2019-10-28,1,,,,,キュラティオ,0
1243,5050001013958,登記記録の閉鎖等,0,2025-07-23,2025-07-09,株式会社東研,,株式会社,茨城県,猿島郡境町,１４３７番地の７,,08,546,3060433,,,2025-07-09,清算の結了等,,,2015-10-05,1,,,,,トウケン,0
1244,5050001028790,登記記録の閉鎖等,0,2025-07-23,2025-07-07,アイル交易株式会社,,株式会社,茨城県,取手市,新取手２丁目２４番３号,,08,217,3020031,,,2025-07-07,清算の結了等,,,2015-10-05,1,,,,,アイルコウエキ,0
1261,5100001029692,登記記録の閉鎖等,0,2025-07-23,2025-07-17,株式会社日商荻井,,株式会社,長野県,長野市,大字長野往生地１３４０番地１メゾンヴェールながの３０１,,20,201,3800867,,,2025-07-17,清算の結了等,,,2016-10-11,1,,,,,ニッショウオギイ,0
1263,5100002000702,登記記録の閉鎖等,0,2025-07-23,2025-07-16,有限会社栄峰,,有限会社,長野県,長野市,大字高田３９７番地丸泉ビル,,20,201,3810034,,,2025-07-16,清算の結了等,,,2015-10-05,1,,,,,エイホウ,0
1272,5120001267794,登記記録の閉鎖等,0,2025-07-23,2025-07-03,新潮勢株式会社,,株式会社,大阪府,大阪市中央区,瓦屋町２丁目１０－１４第３天偉ビル３Ｅ室,,27,128,5420066,,,2025-07-03,清算の結了等,,,2024-08-15,1,,,,,シンチョウセイ,0
1279,5120005023780,登記記録の閉鎖等,0,2025-07-23,2025-07-10,一般社団法人エトワール,,その他の設立登記法人,大阪府,大阪市生野区,巽中３丁目１０番３５号,,27,116,5440013,,,2025-07-10,清算の結了等,,,2023-07-25,1,,,,,エトワール,0
1291,5130001068119,登記記録の閉鎖等,0,2025-07-23,2025-07-07,株式会社ＣＦＭ,,株式会社,京都府,京都市山科区,大塚森町１２番地１９,,26,110,6078132,,,2025-07-07,清算の結了等,,,2020-12-01,1,,,,,シーエフエム,0
1301,5140001124102,登記記録の閉鎖等,0,2025-07-23,2025-07-18,株式会社ＬＩＮＫ,,株式会社,兵庫県,小野市,天神町９４６番地の２,,28,218,6751316,,,2025-07-18,合併による解散等,7140001095102,令和７年７月１日大阪市中央区南久宝寺町四丁目４番７号３階株式会社ソレイユ（7140001095102）に合併し解散,2021-12-07,1,,,,,リンク,0
1305,5140002036437,登記記録の閉鎖等,0,2025-07-23,2025-07-11,長谷川左官工芸有限会社,,有限会社,兵庫県,加古川市,東神吉町升田１０３３番地の７,,28,210,6750051,,,2025-07-11,清算の結了等,,,2015-10-05,1,,,,,ハセガワサカンコウゲイ,0
1306,5150002009986,登記記録の閉鎖等,0,2025-07-23,2025-07-22,有限会社秋光商会,,有限会社,奈良県,北葛城郡王寺町,久度１丁目１４番１３－７０１号,,29,425,6360003,,,2025-07-22,清算の結了等,,,2015-10-05,1,,,,,アキミツショウカイ,0
1321,5180001161380,登記記録の閉鎖等,0,2025-07-23,2025-07-03,株式会社柴田工業,,株式会社,愛知県,名古屋市中区,栄１丁目２０番１０号グラン・アベニュー栄２１８,,23,106,4600008,,,2025-07-03,清算の結了等,,,2024-05-13,1,,,,,シバタコウギョウ,0
1324,5180002003986,登記記録の閉鎖等,0,2025-07-23,2025-07-02,有限会社ギヤラリーアサダ,,有限会社,愛知県,長久手市,長配２丁目５０５番地,,23,238,4801114,,,2025-07-02,清算の結了等,,,2015-10-05,1,,,,,ギャラリーアサダ,0
1326,5180003023249,登記記録の閉鎖等,0,2025-07-23,2025-07-02,合同会社ワイズワン新潟長岡,,合同会社,愛知県,名古屋市中区,栄２丁目３番１号名古屋広小路ビルヂング１７階,,23,106,4600008,,,2025-07-02,清算の結了等,,,2021-12-01,1,,,,,ワイズワンニイガタナガオカ,0
1328,5180301029055,登記記録の閉鎖等,0,2025-07-23,2025-07-10,株式会社大一,,株式会社,愛知県,西尾市,米津町蓮台２番地１９,,23,213,4450802,,,2025-07-10,清算の結了等,,,2016-04-11,1,,,,,ダイイチ,0
1333,5200002009691,登記記録の閉鎖等,0,2025-07-23,2025-07-09,有限会社協和機械設計,,有限会社,岐阜県,瑞穂市,別府１１０２番地の４,,21,216,5010222,,,2025-07-09,清算の結了等,,,2015-10-05,1,,,,,キョウワキカイセッケイ,0
1335,5220005003005,登記記録の閉鎖等,0,2025-07-23,2025-07-08,特定非営利活動法人石川こども環境教育学習基金,,その他の設立登記法人,石川県,金沢市,泉野町４丁目９番５号,,17,201,9218034,,,2025-07-08,清算の結了等,,,2015-10-05,1,,,,,イシカワコドモカンキョウキョウイクガクシュウキキン,0
1346,5260003003671,登記記録の閉鎖等,0,2025-07-23,2025-06-30,合同会社ｔｏｏｏｌｅアグリソーラー,,合同会社,岡山県,英田郡西粟倉村,大字坂根６１番地１,,33,643,7070502,,,2025-06-30,清算の結了等,,,2021-09-07,1,,,,,トゥーレアグリソーラー,0
1359,5310001000145,登記記録の閉鎖等,0,2025-07-23,2025-07-14,株式会社イトウ,,株式会社,長崎県,長崎市,万才町２番７号,,42,201,8500033,,,2025-07-14,清算の結了等,,,2015-10-05,1,,,,,イトウ,0
1361,5310003004821,登記記録の閉鎖等,0,2025-07-23,2025-07-11,合同会社長崎リテールサービス,,合同会社,長崎県,長崎市,出島町２番１３号,,42,201,8500862,,,2025-07-11,清算の結了等,,,2024-07-30,1,,,,,,0
1368,5350002005643,登記記録の閉鎖等,0,2025-07-23,2025-07-07,有限会社フォアロック,,有限会社,宮崎県,宮崎市,江南１丁目３０番６号,,45,201,8800944,,,2025-07-07,清算の結了等,,,2015-10-05,1,,,,,フォアロック,0
1380,5430001084515,登記記録の閉鎖等,0,2025-07-23,2025-07-14,株式会社Ｇｅｎａｕ,,株式会社,北海道,札幌市東区,東雁来六条２丁目１番２５号,,01,103,0070826,,,2025-07-14,合併による解散等,9080101011426,令和７年７月１日静岡県富士宮市山宮３５０７番地の１９株式会社エコネコル（9080101011426）に合併し解散,2021-07-14,1,,,,,ゲナウ,0
1384,5440001002293,登記記録の閉鎖等,0,2025-07-23,2025-07-17,マルト板金工業株式会社,,株式会社,北海道,函館市,亀田本町５６番５号,,01,202,0410813,,,2025-07-17,清算の結了等,,,2015-10-05,1,,,,,マルトバンキンコウギョウ,0
1388,5470005002642,登記記録の閉鎖等,0,2025-07-23,2025-07-14,聖福院,,その他の設立登記法人,香川県,丸亀市,中府町４丁目１３番３号,,37,202,7630033,,,2025-07-14,清算の結了等,,,2015-10-05,1,,,,,セイフクイン,0
1392,5490001010589,登記記録の閉鎖等,0,2025-07-23,2025-07-04,株式会社つながりデザイン・ラボ,,株式会社,高知県,香美市,土佐山田町楠目９７２番地１,,39,212,7820051,,,2025-07-04,清算の結了等,,,2023-09-12,1,,,,,ツナガリデザインラボ,0
1395,5500001000679,登記記録の閉鎖等,0,2025-07-23,2025-07-10,株式会社エヒメ経営センター,,株式会社,愛媛県,松山市,千舟町７丁目１１番地１２,,38,201,7900011,,,2025-07-10,清算の結了等,,,2015-10-05,1,,,,,エヒメケイエイセンター,0
1429,6010501046849,登記記録の閉鎖等,0,2025-07-23,2025-07-07,株式会社新食代グループ,,株式会社,東京都,台東区,東上野１丁目７番７号小林第１ビル,,13,106,1100015,,,2025-07-07,清算の結了等,,,2021-01-28,1,,,,,シンショクダイグループ,0
1430,6010501051171,登記記録の閉鎖等,0,2025-07-23,2025-07-03,星縁株式会社,,株式会社,東京都,台東区,東上野６丁目２５番８号,,13,106,1100015,,,2025-07-03,清算の結了等,,,2023-10-11,1,,,,,セイエン,0
1433,6010703007574,登記記録の閉鎖等,0,2025-07-23,2025-07-10,合同会社おいなり,,合同会社,東京都,品川区,西五反田２丁目２４番７－４０２号,,13,109,1410031,,,2025-07-10,清算の結了等,,,2025-02-18,1,,,,,オイナリ,0
1445,6010902007466,登記記録の閉鎖等,0,2025-07-23,2025-07-18,有限会社渋谷セフテイ,,有限会社,東京都,世田谷区,上馬５丁目２２番５号,,13,112,1540011,,,2025-07-18,清算の結了等,,,2015-10-05,1,,,,,シブヤセフテイ,0
1465,6011101036554,登記記録の閉鎖等,0,2025-07-23,2025-06-24,株式会社ソシアリンク,,株式会社,東京都,新宿区,富久町１３番１９号,,13,104,1620067,,,2025-06-24,清算の結了等,,,2015-10-05,1,,,,,ソシアリンク,0
1470,6011401006975,登記記録の閉鎖等,0,2025-07-23,2025-07-18,連枝機工株式会社,,株式会社,東京都,板橋区,板橋１丁目１０番１２号,,13,119,1730004,,,2025-07-18,清算の結了等,,,2015-10-05,1,,,,,レンシキコウ,0
1479,6013303003860,登記記録の閉鎖等,0,2025-07-23,2025-07-17,合同会社ちゃまる,,合同会社,東京都,板橋区,西台３丁目２３－１０,,13,119,1750045,,,2025-07-17,合併による解散等,8020003014533,令和７年７月１日横浜市西区平沼一丁目９番１７－８０１号合同会社ＭＥＧＵＭＩ（8020003014533）に合併し解散,2017-09-19,1,,,,,チャマル,0
1495,6021002064793,登記記録の閉鎖等,0,2025-07-23,2025-07-01,有限会社島屋商会,,有限会社,神奈川県,横須賀市,湘南鷹取４丁目３番１１号,,14,201,2370066,,,2025-07-01,清算の結了等,,,2015-10-05,1,,,,,シマヤショウカイ,0
1497,6021002071749,登記記録の閉鎖等,0,2025-07-23,2025-07-01,プロミネンス有限会社,,有限会社,神奈川県,三浦市,南下浦町上宮田３４２１番地,,14,210,2380101,,,2025-07-01,清算の結了等,,,2015-10-05,1,,,,,プロミネンス,0
1505,6030002042271,登記記録の閉鎖等,0,2025-07-23,2025-07-11,有限会社エネテックカワシマ,,有限会社,埼玉県,加須市,旗井２０５番地の１,,11,210,3491132,,,2025-07-11,清算の結了等,,,2015-10-05,1,,,,,エネテックカワシマ,0
1510,6030005012924,登記記録の閉鎖等,0,2025-07-23,2025-07-14,特定非営利活動法人スマイル,,その他の設立登記法人,埼玉県,さいたま市中央区,新中里１丁目８番４１－２１０号,,11,105,3380011,,,2025-07-14,清算の結了等,,,2015-10-05,1,,,,,スマイル,0
1513,6040001097290,登記記録の閉鎖等,0,2025-07-23,2025-07-02,株式会社ケイアイクラフト,,株式会社,千葉県,茂原市,本小轡５１２番地,,12,210,2970005,,,2025-07-02,清算の結了等,,,2016-10-12,1,,,,,ケイアイクラフト,0
1520,6050002022478,登記記録の閉鎖等,0,2025-07-23,2025-07-08,有限会社ファルマビジョン,,有限会社,茨城県,つくば市,下広岡字清水久保７４６番地９,,08,220,3050042,,,2025-07-08,清算の結了等,,,2015-10-05,1,,,,,ファルマビジョン,0
1525,6070002016817,登記記録の閉鎖等,0,2025-07-23,2025-07-07,有限会社サトー,,有限会社,群馬県,甘楽郡下仁田町,大字下仁田５５０番地の２,,10,382,3702601,,,2025-07-07,清算の結了等,,,2015-10-05,1,,,,,サトー,0
1529,6080002018630,登記記録の閉鎖等,0,2025-07-23,2025-07-10,有限会社榎本電工,,有限会社,静岡県,焼津市,小土５０３番地の１,,22,212,4250086,,,2025-07-10,清算の結了等,,,2015-10-05,1,,,,,エノモトデンコウ,0
1531,6080402009312,登記記録の閉鎖等,0,2025-07-23,2025-07-22,有限会社正起通商,,有限会社,愛知県,豊橋市,西幸町字幸１３３番地１７,,23,201,4418113,,,2025-07-22,清算の結了等,,,2015-10-05,1,,,,,,0
1536,6110002020203,登記記録の閉鎖等,0,2025-07-23,2025-07-01,有限会社アオイ管理,,有限会社,新潟県,柏崎市,新赤坂３丁目３番１０号,,15,205,9450845,,,2025-07-01,清算の結了等,,,2015-10-05,1,,,,,,0
1550,6120002014716,登記記録の閉鎖等,0,2025-07-23,2025-07-02,有限会社三光湯,,有限会社,大阪府,大阪市大正区,三軒家東１丁目１６番９号,,27,108,5510002,,,2025-07-02,清算の結了等,,,2015-10-05,1,,,,,サンコウユ,0
1561,6130001066609,登記記録の閉鎖等,0,2025-07-23,2025-07-07,株式会社スマイルリアルエステート,,株式会社,京都府,京都市山科区,竹鼻竹ノ街道町１０番地５粟津ビル１Ｆ,,26,110,6078080,,,2025-07-07,清算の結了等,,,2020-03-30,1,,,,,スマイルリアルエステート,0
1569,6140002001745,登記記録の閉鎖等,0,2025-07-23,2025-07-10,有限会社伸林産業,,有限会社,兵庫県,神戸市東灘区,本山北町３丁目４番２４号,,28,101,6580003,,,2025-07-10,清算の結了等,,,2015-10-05,1,,,,,シンリンサンギョウ,0
1577,6160005000387,登記記録の閉鎖等,0,2025-07-23,2025-07-15,学校法人中埜学園,,その他の設立登記法人,滋賀県,大津市,花園町１３番３６号,,25,201,5200222,,,2025-07-15,清算の結了等,,,2015-10-05,1,,,,,ナカノガクエン,0
1588,6180002090470,登記記録の閉鎖等,0,2025-07-23,2025-07-02,ホープソブエ有限会社,,有限会社,愛知県,愛西市,渕高町五ノ割１３番地の２,,23,232,4968018,,,2025-07-02,清算の結了等,,,2015-10-05,1,,,,,ホープソブエ,0
1593,6200001017125,登記記録の閉鎖等,0,2025-07-23,2025-07-11,株式会社源氏,,株式会社,岐阜県,美濃加茂市,加茂野町市橋７７８番地,,21,211,5050056,,,2025-07-11,清算の結了等,,,2015-10-05,1,,,,,ゲンジ,0
1596,6200002009138,登記記録の閉鎖等,0,2025-07-23,2025-07-10,有限会社和組,,有限会社,岐阜県,岐阜市,柳津町本郷４丁目５６番地１,,21,201,5016104,,,2025-07-10,清算の結了等,,,2015-10-05,1,,,,,カズグミ,0
1602,6230001007825,登記記録の閉鎖等,0,2025-07-23,2025-07-17,高橋工業株式会社,00078871,株式会社,富山県,滑川市,小林１１２番地,,16,206,9360854,,,2025-07-17,清算の結了等,,,2015-10-05,1,,,,,タカハシコウギョウ,0
1612,6240002039750,登記記録の閉鎖等,0,2025-07-23,2025-07-11,有限会社大友産業,,有限会社,広島県,広島市西区,中広町２丁目６番２０号,,34,104,7330012,,,2025-07-11,清算の結了等,,,2015-10-05,1,,,,,オオトモサンギョウ,0
1614,6250003001634,登記記録の閉鎖等,0,2025-07-23,2025-07-11,美祢太陽光発電合同会社,,合同会社,山口県,美祢市,大嶺町奥分３１１番５,,35,213,7592214,,,2025-07-11,清算の結了等,,,2015-10-05,1,,,,,ミネタイヨウコウハツデン,0
1656,6430001071000,登記記録の閉鎖等,0,2025-07-23,2025-07-14,株式会社シンク,,株式会社,北海道,札幌市北区,太平七条４丁目４番２０号,,01,102,0028007,,,2025-07-14,清算の結了等,,,2016-03-03,1,,,,,シンク,0
1658,6430002036464,登記記録の閉鎖等,0,2025-07-23,2025-07-14,有限会社ベッチ,,有限会社,北海道,札幌市南区,澄川三条１丁目９－５３Ｊマック２０５号,,01,106,0050003,,,2025-07-14,清算の結了等,,,2015-10-05,1,,,,,ベッチ,0
1659,6430002046232,登記記録の閉鎖等,0,2025-07-23,2025-07-17,有限会社やかた,,有限会社,北海道,江別市,高砂町１４番地の８,,01,217,0670074,,,2025-07-17,清算の結了等,,,2015-10-05,1,,,,,ヤカタ,0
1665,6480001011570,登記記録の閉鎖等,0,2025-07-23,2025-07-14,株式会社セイシン食品,,株式会社,徳島県,徳島市,北沖洲４丁目１３－９,,36,201,7700872,,,2025-07-14,清算の結了等,,,2021-12-03,1,,,,,セイシンショクヒン,0
1670,6500002012210,登記記録の閉鎖等,0,2025-07-23,2025-07-10,三原汽船有限会社,,有限会社,愛媛県,大洲市,長浜甲５０１番地２,,38,207,7993401,,,2025-07-10,清算の結了等,,,2015-10-05,1,,,,,ミハラキセン,0
1679,7010001169694,登記記録の閉鎖等,0,2025-07-23,2025-06-23,株式会社ＫＯ,,株式会社,東京都,中央区,日本橋小伝馬町６番１１号,,13,102,1030001,,,2025-06-23,清算の結了等,,,2015-10-05,1,,,,,ケイオウ,0
1692,7010401004195,登記記録の閉鎖等,0,2025-07-23,2025-06-30,株式会社エーピー,,株式会社,東京都,港区,六本木６丁目１２番２号,,13,103,1060032,,,2025-06-30,清算の結了等,,,2015-10-05,1,,,,,エーピー,0
1709,7010403018383,登記記録の閉鎖等,0,2025-07-23,2025-07-15,合同会社関西企画,,合同会社,東京都,港区,六本木４丁目３番１１号,,13,103,1060032,,,2025-07-15,合併による解散等,1011003008689,令和７年６月１日東京都渋谷区恵比寿一丁目１５番９号合同会社駿河企画（1011003008689）に合併し解散,2018-04-02,1,,,,,,0
1728,7010601055947,登記記録の閉鎖等,0,2025-07-23,2025-07-16,株式会社ＡＩｏＴクラウド,,株式会社,東京都,江東区,豊洲５丁目６番１５号ＮＢＦ豊洲ガーデンフロント,,13,108,1350061,,,2025-07-16,合併による解散等,6120001005484,令和７年７月１日大阪府堺市堺区匠町１番地シャープ株式会社（6120001005484）に合併し解散,2019-08-22,1,,,,,エーアイオーティークラウド,0
1731,7010602012848,登記記録の閉鎖等,0,2025-07-23,2025-07-08,有限会社田村薬品,,有限会社,東京都,墨田区,押上１丁目４２番６号,,13,107,1310045,,,2025-07-08,清算の結了等,,,2015-10-05,1,,,,,,0
1759,7011301024275,登記記録の閉鎖等,0,2025-07-23,2025-07-09,株式会社初太惠不動産,,株式会社,東京都,杉並区,高円寺南２丁目２０番１５号,,13,115,1660003,,,2025-07-09,清算の結了等,,,2018-07-04,1,,,,,ハツタエフドウサン,0
1769,7011802014601,登記記録の閉鎖等,0,2025-07-23,2025-07-17,有限会社精研クローム工業所,,有限会社,東京都,足立区,舎人３丁目５番２７号,,13,121,1210831,,,2025-07-17,清算の結了等,,,2015-10-05,1,,,,,セイケンクロームコウギョウショ,0
1770,7012303000628,登記記録の閉鎖等,0,2025-07-23,2025-07-17,ＣＭＡＣＨ　Ｉｎｔｅｒｎａｔｉｏｎａｌ合同会社,,合同会社,東京都,福生市,大字福生８７４－２－１２０１,,13,218,1970011,,,2025-07-17,清算の結了等,,,2015-10-05,1,,,,,シーマックインターナショナル,0
1787,7021001027949,登記記録の閉鎖等,0,2025-07-23,2025-07-11,コバチュウ商事株式会社,,株式会社,神奈川県,座間市,さがみ野１丁目３番３６号ホワイトハウス１０１号,,14,216,2520005,,,2025-07-11,清算の結了等,,,2015-10-05,1,,,,,コバチュウショウジ,0
1788,7021001029846,登記記録の閉鎖等,0,2025-07-23,2025-05-13,株式会社フルミント,,株式会社,神奈川県,海老名市,国分北２丁目１９番２３号,,14,215,2430406,,,2025-05-13,清算の結了等,,,2015-10-05,1,,,,,フルミント,0
1813,7050001047062,登記記録の閉鎖等,0,2025-07-23,2025-07-08,ＲＳ　Ｆｌｅｘ　ｔｅｃｈｎｏｌｏｇｉｅｓ株式会社,,株式会社,茨城県,那珂市,戸６７０７番地１,,08,226,3110122,,,2025-07-08,清算の結了等,,,2020-01-22,1,,,,,アールエスフレックステクノロジーズ,0
1814,7050002030843,登記記録の閉鎖等,0,2025-07-23,2025-07-09,有限会社高橋鉄工所,,有限会社,茨城県,日立市,神峰町２丁目１４番３号,,08,202,3170064,,,2025-07-09,清算の結了等,,,2015-10-05,1,,,,,タカハシテッコウショ,0
1829,7110005002676,登記記録の閉鎖等,0,2025-07-23,2025-07-01,医療法人社団仁明会,,その他の設立登記法人,新潟県,新潟市中央区,笹口２丁目１番地１２,,15,103,9500911,,,2025-07-01,合併による解散等,2110005005411,令和７年７月１日新潟県新発田市舟入町一丁目２番３６号医療法人信眼会（2110005005411）に合併し解散,2015-10-05,1,,,,,ジンメイカイ,0
1830,7120001031827,登記記録の閉鎖等,0,2025-07-23,2025-07-16,山内興業株式会社,,株式会社,大阪府,大阪市住之江区,粉浜３丁目６番１０号,,27,125,5590001,,,2025-07-16,清算の結了等,,,2015-10-05,1,,,,,ヤマウチコウギョウ,0
1831,7120001055719,登記記録の閉鎖等,0,2025-07-23,2025-07-04,株式会社シゲゾー興産,,株式会社,大阪府,大阪市淀川区,木川西４丁目１番２７号,,27,123,5320013,,,2025-07-04,清算の結了等,,,2015-10-05,1,,,,,シゲゾーコウサン,0
1840,7120003015860,登記記録の閉鎖等,0,2025-07-23,2025-07-04,合同会社ＳＵＷＯ,,合同会社,大阪府,大阪市東住吉区,今川５丁目１番３５号フィロソフィア１Ｆ,,27,121,5460003,,,2025-07-04,清算の結了等,,,2019-06-18,1,,,,,スーオ,0
1847,7130001064215,登記記録の閉鎖等,0,2025-07-23,2025-07-04,株式会社ハッピー警備保障,,株式会社,京都府,福知山市,和久市町１３５番地,,26,201,6200062,,,2025-07-04,清算の結了等,,,2019-04-05,1,,,,,ハッピーケイビホショウ,0
1856,7140001100423,登記記録の閉鎖等,0,2025-07-23,2025-07-10,株式会社ＴＯＭＴＯＭ倶楽部,,株式会社,兵庫県,明石市,藤が丘２丁目９番１２号,,28,203,6730046,,,2025-07-10,清算の結了等,,,2015-12-22,1,,,,,トムトムクラブ,0
1861,7140001135816,登記記録の閉鎖等,0,2025-07-23,2025-06-25,株式会社コールエーアイ,,株式会社,兵庫県,西宮市,鳴尾町２丁目５－８－１０３,,28,204,6638184,,,2025-06-25,清算の結了等,,,2024-09-18,1,,,,,コールエーアイ,0
1876,7180001140077,登記記録の閉鎖等,0,2025-07-23,2025-07-02,株式会社ファンライド,,株式会社,愛知県,小牧市,大字久保一色１７４９番地,,23,219,4850003,,,2025-07-02,清算の結了等,,,2020-02-14,1,,,,,ファンライド,0
1877,7180001142049,登記記録の閉鎖等,0,2025-07-23,2025-07-02,上東バイオテクノロジー株式会社,,株式会社,愛知県,名古屋市中区,錦２丁目１９－１名古屋鴻池ビル１１０４,,23,106,4600003,,,2025-07-02,清算の結了等,,,2020-07-17,1,,,,,ジョウトウバイオテクノロジー,0
1885,7180003000238,登記記録の閉鎖等,0,2025-07-23,2025-07-02,合資会社岡戸建材店,,合資会社,愛知県,名古屋市千種区,今池１丁目１９番２８号,,23,101,4640850,,,2025-07-02,清算の結了等,,,2015-10-05,1,,,,,オカドケンザイテン,0
1890,7180302022222,登記記録の閉鎖等,0,2025-07-23,2025-07-09,有限会社サランバン,,有限会社,愛知県,豊田市,浄水町伊保原４７３番地,,23,211,4700343,,,2025-07-09,清算の結了等,,,2015-10-05,1,,,,,サランバン,0
1916,7320001008945,登記記録の閉鎖等,0,2025-07-23,2025-07-03,株式会社佐伯メンテナンス,,株式会社,大分県,佐伯市,向島１丁目２番４号,,44,205,8760844,,,2025-07-03,清算の結了等,,,2015-10-05,1,,,,,サイキメンテナンス,0
1932,7390002007320,登記記録の閉鎖等,0,2025-07-23,2025-07-08,有限会社サカエ制御,,有限会社,山形県,酒田市,日の出町２丁目３９番地の４,,06,204,9980863,,,2025-07-08,清算の結了等,,,2015-10-05,1,,,,,サカエセイギョ,0
1954,7470001009276,登記記録の閉鎖等,0,2025-07-23,2025-07-14,株式会社秋山建設工業,,株式会社,香川県,坂出市,林田町４２８５番地２６０,,37,203,7620012,,,2025-07-14,清算の結了等,,,2015-10-05,1,,,,,アキヤマケンセツコウギョウ,0
1958,8010001018215,登記記録の閉鎖等,0,2025-07-23,2025-07-16,昭南商事株式会社,,株式会社,東京都,板橋区,上板橋１丁目１９番１６号,,13,119,1740076,,,2025-07-16,清算の結了等,,,2015-10-05,1,,,,,ショウナンショウジ,0
1959,8010001139424,登記記録の閉鎖等,0,2025-07-23,2025-07-14,株式会社トリア,,株式会社,埼玉県,さいたま市南区,南浦和２丁目３０番３号,,11,108,3360017,,,2025-07-14,清算の結了等,,,2015-10-05,1,,,,,トリア,0
1978,8010401081507,登記記録の閉鎖等,0,2025-07-23,2025-06-27,株式会社ＥＮ　Ｇｌｏｂｅ,,株式会社,東京都,千代田区,麹町３丁目５番地４麹町インテリジェントビルＢ－１,,13,101,1020083,,,2025-06-27,清算の結了等,,,2015-10-05,1,,,,,エングローブ,0
1998,8010501000011,登記記録の閉鎖等,0,2025-07-23,2025-07-04,東クロス株式会社,,株式会社,東京都,台東区,東上野６丁目２７番６号,,13,106,1100015,,,2025-07-04,清算の結了等,,,2015-10-05,1,,,,,アズマクロス,0
2006,8010603004190,登記記録の閉鎖等,0,2025-07-23,2025-07-08,ビジネスサポート合資会社,,合資会社,東京都,江東区,亀戸２丁目３６番１２号松本ビル４０２,,13,108,1360071,,,2025-07-08,清算の結了等,,,2015-10-05,1,,,,,,0
2041,8011802019112,登記記録の閉鎖等,0,2025-07-23,2025-07-15,有限会社みずほ工芸,,有限会社,東京都,足立区,鹿浜７丁目６番２１号,,13,121,1230864,,,2025-07-15,清算の結了等,,,2015-10-05,1,,,,,ミズホコウゲイ,0
2049,8020001077714,登記記録の閉鎖等,0,2025-07-23,2025-07-07,株式会社サインワークス,,株式会社,神奈川県,川崎市高津区,末長４丁目４番３４号,,14,134,2130013,,,2025-07-07,清算の結了等,,,2015-10-05,1,,,,,サインワークス,0
2073,8030002006530,登記記録の閉鎖等,0,2025-07-23,2025-07-15,有限会社清水電機工業所,,有限会社,埼玉県,さいたま市南区,鹿手袋２丁目４番１３号,,11,108,3360031,,,2025-07-15,清算の結了等,,,2015-10-05,1,,,,,シミズデンキコウギョウショ,0
2091,8080401003685,登記記録の閉鎖等,0,2025-07-23,2025-07-22,株式会社永井紙器製作所,,株式会社,静岡県,浜松市中央区,北田町１３０番地の１６,,22,138,4300943,,,2025-07-22,清算の結了等,,,2015-10-05,1,,,,,ナガイシキセイサクジョ,0
2093,8080402001119,登記記録の閉鎖等,0,2025-07-23,2025-07-11,有限会社宇津山住設,,有限会社,静岡県,浜松市中央区,和地町１６５３番地,,22,138,4311115,,,2025-07-11,清算の結了等,,,2015-10-05,1,,,,,ウヅヤマジュウセツ,0
2094,8080402006662,登記記録の閉鎖等,0,2025-07-23,2025-07-14,有限会社ひぐち商会,,有限会社,静岡県,浜松市中央区,寺島町３０番地,,22,138,4300925,,,2025-07-14,清算の結了等,,,2015-10-05,1,,,,,ヒグチショウカイ,0
2095,8080402010169,登記記録の閉鎖等,0,2025-07-23,2025-07-14,有限会社エース,,有限会社,静岡県,浜松市中央区,高丘北３丁目４番６号,,22,138,4338119,,,2025-07-14,清算の結了等,,,2015-10-05,1,,,,,エース,0
2105,8120001199366,登記記録の閉鎖等,0,2025-07-23,2025-07-09,株式会社岡田商店,,株式会社,大阪府,大阪市西成区,天下茶屋東２丁目９番４号,,27,122,5570011,,,2025-07-09,清算の結了等,,,2016-07-08,1,,,,,オカダショウテン,0
2106,8120001206667,登記記録の閉鎖等,0,2025-07-23,2025-07-07,株式会社鷹江実業,,株式会社,兵庫県,伊丹市,稲野町６丁目３０番地,,28,207,6640861,,,2025-07-07,清算の結了等,,,2017-07-04,1,,,,,タカエジツギョウ,0
2130,8130001059024,登記記録の閉鎖等,0,2025-07-23,2025-07-03,株式会社ＴＩＭ,,株式会社,京都府,綾部市,西町２丁目６５番地２,,26,203,6230016,,,2025-07-03,清算の結了等,,,2017-01-17,1,,,,,ティアイエム,0
2134,8130002017344,登記記録の閉鎖等,0,2025-07-23,2025-07-04,有限会社京都和彩工房,,有限会社,京都府,京都市伏見区,羽束師菱川町６０番地,,26,109,6128487,,,2025-07-04,清算の結了等,,,2015-10-05,1,,,,,,0
2135,8130002019588,登記記録の閉鎖等,0,2025-07-23,2025-07-01,有限会社オカデン,,有限会社,京都府,京都市西京区,上桂東ノ口町１９９,,26,111,6158221,,,2025-07-01,合併による解散等,2130001007995,令和７年７月１日京都市西京区上桂東ノ口町１９９アダマックウエスト株式会社（2130001007995）に合併し解散,2015-10-05,1,,,,,オカデン,0
2136,8130002033234,登記記録の閉鎖等,0,2025-07-23,2025-07-07,有限会社綾部研掃,,有限会社,京都府,綾部市,物部町折目１７番地,,26,203,6230362,,,2025-07-07,清算の結了等,,,2015-10-05,1,,,,,アヤベケンソウ,0
2141,8140002062711,登記記録の閉鎖等,0,2025-07-23,2025-07-10,有限会社岡田刃物製作所,,有限会社,兵庫県,小野市,本町４６番地の３,,28,218,6751372,,,2025-07-10,清算の結了等,,,2015-10-05,1,,,,,オカダハモノセイサクショ,0
2153,8180302009342,登記記録の閉鎖等,0,2025-07-23,2025-07-08,有限会社ビックハンズ,,有限会社,愛知県,豊橋市,西岩田６丁目１番地の１,,23,201,4400831,,,2025-07-08,清算の結了等,,,2015-10-05,1,,,,,ビックハンズ,0
2154,8180302027204,登記記録の閉鎖等,0,2025-07-23,2025-07-22,有限会社三宝工業,,有限会社,愛知県,西尾市,西幡豆町柿田２８番地１,,23,213,4440703,,,2025-07-22,清算の結了等,,,2015-10-05,1,,,,,サンポウコウギョウ,0
2167,8230001009051,登記記録の閉鎖等,0,2025-07-23,2025-07-11,株式会社トピオテクノロジー,,株式会社,富山県,小矢部市,二ノ滝１２３番地,,16,209,9320004,,,2025-07-11,清算の結了等,,,2015-10-05,1,,,,,トピオテクノロジー,0
2172,8240001029032,登記記録の閉鎖等,0,2025-07-23,2025-07-11,株式会社イチゴホーム,,株式会社,広島県,廿日市市,宮園上１丁目５番地の６,,34,213,7380037,,,2025-07-11,清算の結了等,,,2015-10-05,1,,,,,イチゴホーム,0
2184,8280001003173,登記記録の閉鎖等,0,2025-07-23,2025-07-22,山陰商工スタデイ株式会社,,株式会社,島根県,出雲市,高松町１３４０番地１,,32,203,6930053,,,2025-07-22,清算の結了等,,,2015-10-05,1,,,,,サンインショウコウスタデイ,0
2194,8290802020060,登記記録の閉鎖等,0,2025-07-23,2025-07-18,有限会社ファッションステージフクナガ,,有限会社,福岡県,鞍手郡小竹町,大字勝野３７６８番地,,40,401,8201103,,,2025-07-18,清算の結了等,,,2015-10-05,1,,,,,ファッションステージフクナガ,0
2208,8370402001444,登記記録の閉鎖等,0,2025-07-23,2025-07-01,有限会社アシストビジネス,,有限会社,宮城県,登米市,南方町長根１番地,,04,212,9870443,,,2025-07-01,清算の結了等,,,2015-10-05,1,,,,,アシストビジネス,0
2214,8420001012176,登記記録の閉鎖等,0,2025-07-23,2025-07-04,十和田商運株式会社,,株式会社,青森県,十和田市,東二十四番町１０番２８号,,02,206,0340022,,,2025-07-04,清算の結了等,,,2015-10-05,1,,,,,トワダショウウン,0
2217,8430005005159,登記記録の閉鎖等,0,2025-07-23,2025-07-17,特定非営利活動法人平岸りんごの家,,その他の設立登記法人,北海道,札幌市中央区,南十五条西８丁目１－４１,,01,101,0640915,,,2025-07-17,清算の結了等,,,2015-10-05,1,,,,,,0
2222,8480002009901,登記記録の閉鎖等,0,2025-07-23,2025-07-14,有限会社北岡,,有限会社,徳島県,阿波市,市場町市場字上野段１３５番地,,36,206,7711602,,,2025-07-14,清算の結了等,,,2015-10-05,1,,,,,キタオカ,0
2226,9010001178677,登記記録の閉鎖等,0,2025-07-23,2025-06-30,株式会社Ａ．Ｌ．Ｉ．Ｔｅｃｈｎｏｌｏｇｉｅｓ,,株式会社,東京都,港区,芝公園３丁目１番８号,,13,103,1050011,,,2025-06-30,清算の結了等,,,2016-10-03,1,,,,,エーエルアイテクノロジーズ,0
2228,9010001244306,登記記録の閉鎖等,0,2025-07-23,2025-06-27,株式会社Ｍｅｌｓｔｏｋｙｏ,,株式会社,東京都,中央区,日本橋茅場町２丁目８―１,,13,102,1030025,,,2025-06-27,清算の結了等,,,2024-04-22,1,,,,,メルズトウキョウ,0
2240,9010401099399,登記記録の閉鎖等,0,2025-07-23,2025-06-23,株式会社アンフラマンス,,株式会社,東京都,渋谷区,円山町２６番７－１０１,,13,113,1500044,,,2025-06-23,清算の結了等,,,2015-10-05,1,,,,,アンフラマンス,0
2247,9010401181462,登記記録の閉鎖等,0,2025-07-23,2025-06-30,阿蘇ホテルマネジメント株式会社,,株式会社,東京都,港区,西新橋１丁目１番１号ＥＰコンサルティングサービス内,,13,103,1050003,,,2025-06-30,清算の結了等,,,2024-03-29,1,,,,,アソホテルマネジメント,0
2257,9010801020261,登記記録の閉鎖等,0,2025-07-23,2025-07-11,東商産業株式会社,,株式会社,東京都,大田区,東蒲田１丁目２１番１６号,,13,111,1440031,,,2025-07-11,清算の結了等,,,2015-10-05,1,,,,,トウショウサンギョウ,0
2264,9011001124761,登記記録の閉鎖等,0,2025-07-23,2025-07-15,株式会社ミライエアドバンス,,株式会社,埼玉県,南埼玉郡宮代町,大字和戸８９７番地,,11,442,3450836,,,2025-07-15,清算の結了等,,,2018-10-17,1,,,,,ミライエアドバンス,0
2266,9011003012700,登記記録の閉鎖等,0,2025-07-23,2025-07-14,合同会社北村,,合同会社,東京都,渋谷区,神宮前２丁目２番３９号,,13,113,1500001,,,2025-07-14,清算の結了等,,,2021-05-11,1,,,,,キタムラ,0
2271,9011103012996,登記記録の閉鎖等,0,2025-07-23,2025-06-26,表参道ブリッジ合同会社,,合同会社,東京都,新宿区,四谷２丁目９番地１５東京ユナイテッド綜合事務所内,,13,104,1600004,,,2025-06-26,清算の結了等,,,2023-04-28,1,,,,,オモテサンドウブリッジ,0
2291,9020001137789,登記記録の閉鎖等,0,2025-07-23,2025-07-03,株式会社フルフェイスＴ,,株式会社,神奈川県,横浜市鶴見区,下末吉２丁目２４番３１－２０２号,,14,101,2300012,,,2025-07-03,清算の結了等,,,2020-09-23,1,,,,,フルフェイスティー,0
2295,9021001056450,登記記録の閉鎖等,0,2025-07-23,2025-07-15,株式会社オアシスコーポレーション,,株式会社,神奈川県,足柄下郡箱根町,仙石原８１７番地の２０５－６０７,,14,382,2500631,,,2025-07-15,清算の結了等,,,2015-10-05,1,,,,,オアシスコーポレーション,0
2303,9030001035488,登記記録の閉鎖等,0,2025-07-23,2025-07-14,日田産業株式会社,,株式会社,埼玉県,草加市,旭町５丁目３番１１号,,11,221,3400053,,,2025-07-14,清算の結了等,,,2015-10-05,1,,,,,ヒダサンギョウ,0
2336,9070002017969,登記記録の閉鎖等,0,2025-07-23,2025-07-09,有限会社ノースリバー,,有限会社,群馬県,藤岡市,鬼石２８８番地,,10,209,3701401,,,2025-07-09,清算の結了等,,,2015-10-05,1,,,,,ノースリバー,0
2337,9070002021079,登記記録の閉鎖等,0,2025-07-23,2025-07-08,有限会社川村実業,,有限会社,群馬県,伊勢崎市,国定町１丁目１１２７番地,,10,204,3792221,,,2025-07-08,清算の結了等,,,2015-10-05,1,,,,,カワムラジツギョウ,0
2340,9080101018041,登記記録の閉鎖等,0,2025-07-23,2025-07-18,株式会社アルファー静清,,株式会社,静岡県,富士宮市,山宮３５０７番地の３６,,22,207,4180111,,,2025-07-18,合併による解散等,2030001074939,令和７年７月１日埼玉県川口市江戸三丁目２２番１１号埼玉プレス鍛造株式会社（2030001074939）に合併し解散,2015-10-05,1,,,,,アルファーセイセイ,0
2346,9100002004113,登記記録の閉鎖等,0,2025-07-23,2025-07-15,有限会社花村暖冷房サービス,,有限会社,長野県,長野市,合戦場３丁目１５番地,,20,201,3888008,,,2025-07-15,清算の結了等,,,2015-10-05,1,,,,,ハナムラダンレイボウサービス,0
2351,9120001040644,登記記録の閉鎖等,0,2025-07-23,2025-07-04,日本総合貿易株式会社,,株式会社,大阪府,大阪市中央区,南船場１丁目１０番２号,,27,128,5420081,,,2025-07-04,清算の結了等,,,2015-10-05,1,,,,,ニホンソウゴウボウエキ,0
2353,9120001120594,登記記録の閉鎖等,0,2025-07-23,2025-07-04,株式会社マスターズ,,株式会社,大阪府,大阪市淀川区,西中島２丁目１０番２０号岡村マンション１０１号,,27,123,5320011,,,2025-07-04,清算の結了等,,,2015-10-05,1,,,,,マスターズ,0
2386,9140003012788,登記記録の閉鎖等,0,2025-07-23,2025-07-10,職場活性化研究所合同会社,,合同会社,兵庫県,西宮市,北六甲台３丁目９番７号,,28,204,6511413,,,2025-07-10,清算の結了等,,,2018-02-13,1,,,,,ショクバカッセイカケンキュウショ,0
2393,9160002012746,登記記録の閉鎖等,0,2025-07-23,2025-07-08,有限会社竹中燃料店,,有限会社,滋賀県,栗東市,綣９丁目７番３１号,,25,208,5203031,,,2025-07-08,清算の結了等,,,2015-10-05,1,,,,,タケナカネンリョウテン,0
2394,9160002013505,登記記録の閉鎖等,0,2025-07-23,2025-07-08,有限会社和幸,,有限会社,滋賀県,栗東市,綣８丁目１７番５７号,,25,208,5203031,,,2025-07-08,清算の結了等,,,2015-10-05,1,,,,,ワコウ,0
2402,9180002046610,登記記録の閉鎖等,0,2025-07-23,2025-07-02,有限会社ケイティジャパン,,有限会社,愛知県,名古屋市南区,菊住２丁目５番３６号,,23,112,4570012,,,2025-07-02,清算の結了等,,,2015-10-05,1,,,,,ケイティジャパン,0
2403,9180003001300,登記記録の閉鎖等,0,2025-07-23,2025-07-03,合資会社伊勢屋商店,,合資会社,愛知県,名古屋市北区,上飯田西町１丁目１０番地,,23,103,4620809,,,2025-07-03,清算の結了等,,,2015-10-05,1,,,,,イセヤショウテン,0
2421,9260002019203,登記記録の閉鎖等,0,2025-07-23,2025-07-01,有限会社創湧舎,,有限会社,岡山県,倉敷市,西坂１３４２番地の１０１,,33,202,7100004,,,2025-07-01,清算の結了等,,,2015-10-05,1,,,,,ソウユウシャ,0
2423,9260002034128,登記記録の閉鎖等,0,2025-07-23,2025-07-01,有限会社福井経営労務コンサルタント,,有限会社,岡山県,真庭市,久世２９１５番３地,,33,214,7193201,,,2025-07-01,清算の結了等,,,2015-10-05,1,,,,,フクイケイエイロウムコンサルタント,0
2434,9300002001800,登記記録の閉鎖等,0,2025-07-23,2025-07-18,有限会社大坪舗道,,有限会社,佐賀県,佐賀市,川副町大字鹿江４６４番地,,41,201,8402213,,,2025-07-18,清算の結了等,,,2015-10-05,1,,,,,オオツボホドウ,0
2437,9310002015329,登記記録の閉鎖等,0,2025-07-23,2025-07-11,有限会社地建,,有限会社,長崎県,諫早市,立石町１０１３番地３,,42,204,8540043,,,2025-07-11,清算の結了等,,,2015-10-05,1,,,,,,0
2443,9380001022567,登記記録の閉鎖等,0,2025-07-23,2025-07-01,株式会社こさえる福島,,株式会社,福島県,郡山市,緑町９番１２号,,07,203,9638023,,,2025-07-01,清算の結了等,,,2015-10-05,1,,,,,コサエルフクシマ,0
2445,9410001010915,登記記録の閉鎖等,0,2025-07-23,2025-07-15,株式会社ＭＤＦＣ,,株式会社,秋田県,秋田市,広面字小沼古川端４１７番地,,05,201,0100041,,,2025-07-15,清算の結了等,,,2015-10-05,1,,,,,エムディーエフシー,0
2449,9420002011242,登記記録の閉鎖等,0,2025-07-23,2025-07-07,有限会社津軽工業,,有限会社,青森県,五所川原市,大字神山字山越２０番地２,,02,205,0370611,,,2025-07-07,清算の結了等,,,2015-10-05,1,,,,,ツガルコウギョウ,0
2452,9430001056700,登記記録の閉鎖等,0,2025-07-23,2025-07-02,小林架設工業株式会社,,株式会社,北海道,室蘭市,東町１丁目１７番１９号,,01,205,0500083,,,2025-07-02,清算の結了等,,,2015-10-05,1,,,,,コバヤシカセツコウギョウ,0
2467,9470002011510,登記記録の閉鎖等,0,2025-07-23,2025-07-14,有限会社加藤解体,,有限会社,香川県,仲多度郡多度津町,西港町２５番地２,,37,404,7640017,,,2025-07-14,清算の結了等,,,2015-10-05,1,,,,,カトウカイタイ,0
