sequenceNumber,corporateNumber,process,correct,updateDate,changeDate,name,nameImageId,kind,prefectureName,cityName,streetNumber,addressImageId,prefectureCode,cityCode,postCode,addressOutside,addressOutsideImageId,closeDate,closeCause,successorCorporateNumber,changeCause,assignmentDate,latest,enName,enPrefectureName,enCityName,enAddressOutside,furigana,hihyoji
8,1010001245352,新規,0,2024-06-04,2024-06-04,株式会社Ｒａｐｏｐ,,株式会社,東京都,中央区,日本橋室町１丁目１１番１２号日本橋水野ビル７階,,13,102,1030022,,,,,,,2024-06-04,1,,,,,ラポップ,0
10,1010005038364,新規,0,2024-06-04,2024-06-04,ソーラーデルレイホールディングス一般社団法人,,その他の設立登記法人,東京都,中央区,京橋２丁目１２番６号ＡＯＪ税理士法人内,,13,102,1040031,,,,,,,2024-06-04,1,,,,,ソーラーデルレイホールディングス,0
14,1010401182864,新規,0,2024-06-04,2024-06-04,ＷｉＴｒｉｃｉｔｙ　Ｊａｐａｎ株式会社,,株式会社,東京都,港区,海岸１丁目４番２２号ＳＮビル,,13,103,1050022,,,,,,,2024-06-04,1,,,,,ワイトリシティジャパン,0
17,1010403032745,新規,0,2024-06-04,2024-06-04,合同会社ＤＢ,,合同会社,東京都,港区,芝浦４丁目２１番１－４００２号,,13,103,1080023,,,,,,,2024-06-04,1,,,,,ディービー,0
21,1010405023271,新規,0,2024-06-04,2024-06-04,九条ホールディング１一般社団法人,,その他の設立登記法人,東京都,港区,虎ノ門３丁目２２番１０－２０１号,,13,103,1050001,,,,,,,2024-06-04,1,,,,,クジョウホールディングワン,0
22,1010405023296,新規,0,2024-06-04,2024-06-04,一般社団法人Ｍｉｎｄｆｕｌ,,その他の設立登記法人,東京都,港区,赤坂９丁目６番３５号,,13,103,1070052,,,,,,,2024-06-04,1,,,,,マインドフル,0
25,1010601065118,新規,0,2024-06-04,2024-06-04,玲洋リソースマネジメント株式会社,,株式会社,東京都,江東区,古石場３丁目１３番９号リバーサイド木場５０１,,13,108,1350045,,,,,,,2024-06-04,1,,,,,レイワリソースマネジメント,0
26,1010601065316,新規,0,2024-06-04,2024-06-04,株式会社ＮＥＵＲＯＮ,,株式会社,東京都,墨田区,八広１丁目１番４－３０５号,,13,107,1310041,,,,,,,2024-06-04,1,,,,,ニューロン,0
27,1010703007208,新規,0,2024-06-04,2024-06-04,合同会社ＴＡＳＳ企画,,合同会社,東京都,品川区,西五反田２丁目１５－１０グリンデル五反田６０１,,13,109,1410031,,,,,,,2024-06-04,1,,,,,タスキカク,0
32,1010901055396,新規,0,2024-06-04,2024-06-04,株式会社ＲＡＭＯ,,株式会社,東京都,世田谷区,等々力５丁目２８番９号,,13,112,1580082,,,,,,,2024-06-04,1,,,,,ラモ,0
33,1010903009111,新規,0,2024-06-04,2024-06-04,喫茶喫飯合同会社,,合同会社,東京都,世田谷区,若林５丁目３２－７－３１１,,13,112,1540023,,,,,,,2024-06-04,1,,,,,キッサキッパン,0
38,1011001162372,新規,0,2024-06-04,2024-06-04,株式会社ＬｉｆｅＡｒｋ,,株式会社,東京都,渋谷区,渋谷２丁目１９－１５宮益坂ビルディング６０９,,13,113,1500002,,,,,,,2024-06-04,1,,,,,ライフアーク,0
39,1011001162380,新規,0,2024-06-04,2024-06-04,株式会社ｓｅｉｕｎ,,株式会社,東京都,渋谷区,道玄坂２丁目１９－６スクエア渋谷１１０１,,13,113,1500043,,,,,,,2024-06-04,1,,,,,セイウン,0
40,1011001162389,新規,0,2024-06-04,2024-06-04,株式会社スパイラル・リズム,,株式会社,東京都,渋谷区,神宮前１丁目１９－４原宿玉川ビルＢ１Ｆ,,13,113,1500001,,,,,,,2024-06-04,1,,,,,スパイラルリズム,0
41,1011001162430,新規,0,2024-06-04,2024-06-04,ＭＩＷＡ株式会社,,株式会社,東京都,渋谷区,渋谷２丁目１９番１５号宮益坂ビルディング６０９,,13,113,1500002,,,,,,,2024-06-04,1,,,,,ミワ,0
42,1011003019042,新規,0,2024-06-04,2024-06-04,合同会社ＫＩＰ,,合同会社,東京都,渋谷区,円山町２２－６パラッツォガレリア４０１号,,13,113,1500044,,,,,,,2024-06-04,1,,,,,ケーアイピー,0
43,1011003019298,新規,0,2024-06-04,2024-06-04,Ｓａｋｕｒａ　Ｓｉｌｋ合同会社,,合同会社,東京都,目黒区,青葉台２丁目２０番２－７０３,,13,110,1530042,,,,,,,2024-06-04,1,,,,,サクラシルク,0
46,1011101107566,新規,0,2024-06-04,2024-06-04,Ｊａｐａｎ　Ｗｉｓｄｏｍ株式会社,,株式会社,東京都,新宿区,新宿１丁目３２番１２号,,13,104,1600022,,,,,,,2024-06-04,1,,,,,ジャパンウィズダム,0
48,1011301029718,新規,0,2024-06-04,2024-06-04,株式会社輝縁,,株式会社,東京都,杉並区,和田３丁目１９番２号ボヌール１０７,,13,115,1660012,,,,,,,2024-06-04,1,,,,,キエン,0
49,1011301029726,新規,0,2024-06-04,2024-06-04,株式会社ＡＯ,,株式会社,東京都,杉並区,松庵１丁目２３番２４号ＣａｓａｄｅｌＰｉｎｏ１０４,,13,115,1670054,,,,,,,2024-06-04,1,,,,,アオ,0
56,1011703003857,新規,0,2024-06-04,2024-06-04,合同会社Ｈａｎｚｏ,,合同会社,東京都,江戸川区,上篠崎３丁目２番地２１－１０３,,13,123,1330054,,,,,,,2024-06-04,1,,,,,ハンゾー,0
69,1020001157514,新規,0,2024-06-04,2024-06-04,株式会社Ｆｏｕｒ　Ｃａｐｉｔａｌ,,株式会社,神奈川県,横浜市青葉区,あざみ野２丁目２９番地１ブランズシティあざみ野３０２,,14,117,2250011,,,,,,,2024-06-04,1,,,,,フォーキャピタル,0
70,1020001157539,新規,0,2024-06-04,2024-06-04,株式会社Ｋｉｎｏｋｏｎａ,,株式会社,神奈川県,横浜市青葉区,青葉台２丁目１０番地１０・２Ｆ,,14,117,2270062,,,,,,,2024-06-04,1,,,,,キノコナ,0
71,1020001157547,新規,0,2024-06-04,2024-06-04,株式会社Ｈｉｇｈ　Ｂｒｉｄｇｅ,,株式会社,神奈川県,川崎市多摩区,宿河原３丁目１１番８号,,14,135,2140021,,,,,,,2024-06-04,1,,,,,ハイブリッジ,0
72,1020001157596,新規,0,2024-06-04,2024-06-04,株式会社ＱｕｉｚＭａｒｋｅｔ,,株式会社,神奈川県,川崎市川崎区,駅前本町１８番１号メルスサイトー７０２,,14,131,2100007,,,,,,,2024-06-04,1,,,,,クイズマーケット,0
79,1021003014595,新規,0,2024-06-04,2024-06-04,こんにゃく合同会社,,合同会社,神奈川県,足柄上郡松田町,松田惣領３２１番地１,,14,363,2580003,,,,,,,2024-06-04,1,,,,,コンニャク,0
80,1030001160649,新規,0,2024-06-04,2024-06-04,宝通商事株式会社,,株式会社,埼玉県,さいたま市南区,辻８丁目２２番１２－１－１階,00135002,11,108,3360026,,,,,,,2024-06-04,1,,,,,ホウツウショウジ,0
84,1040001133810,新規,0,2024-06-04,2024-06-04,株式会社アイエン建築設計,,株式会社,千葉県,松戸市,小根本１２番１－１１０２号,,12,207,2710073,,,,,,,2024-06-04,1,,,,,アイエンケンチクセッケイ,0
85,1040001133868,新規,0,2024-06-04,2024-06-04,株式会社良秀,,株式会社,千葉県,市川市,市川南１丁目１番８－１０２号,,12,203,2720033,,,,,,,2024-06-04,1,,,,,リョウシュウ,0
87,1040003025106,新規,0,2024-06-04,2024-06-04,合同会社ＴＯＰＬＩＮＥ,,合同会社,千葉県,市川市,田尻５丁目１１番１０号,,12,203,2720014,,,,,,,2024-06-04,1,,,,,トップライン,0
89,1060001037159,新規,0,2024-06-04,2024-06-04,ごきげんスタンド株式会社,,株式会社,栃木県,那須塩原市,西岩崎２３２番地４５７,,09,213,3250101,,,,,,,2024-06-04,1,,,,,ゴキゲンスタンド,0
92,1070001041812,新規,0,2024-06-04,2024-06-04,株式会社吉井電気,,株式会社,群馬県,藤岡市,中大塚６８０番地１,,10,209,3750053,,,,,,,2024-06-04,1,,,,,ヨシイデンキ,0
94,1070003005443,新規,0,2024-06-04,2024-06-04,合同会社福媛,,合同会社,群馬県,伊勢崎市,境下武士３３９番地１,,10,204,3700126,,,,,,,2024-06-04,1,,,,,フクエン,0
98,1080101024781,新規,0,2024-06-04,2024-06-04,株式会社ＡＮ’Ｓベテリナリークリニック,,株式会社,静岡県,三島市,加茂６９番地の２０,,22,206,4110023,,,,,,,2024-06-04,1,,,,,アンズベテリナリークリニック,0
99,1080401027220,新規,0,2024-06-04,2024-06-04,株式会社興和産業,,株式会社,静岡県,掛川市,大渕５４２４番地の１,,22,213,4371302,,,,,,,2024-06-04,1,,,,,コウワサンギョウ,0
100,1080403005026,新規,0,2024-06-04,2024-06-04,合同会社ｈｏｋｕｅｎ,,合同会社,静岡県,浜松市天竜区,二俣町二俣１２０１番地の１,,22,140,4313314,,,,,,,2024-06-04,1,,,,,ホクエン,0
103,1100001037518,新規,0,2024-06-04,2024-06-04,里山教育機構株式会社,,株式会社,長野県,上田市,別所温泉１０８９番地,,20,203,3861431,,,,,,,2024-06-04,1,,,,,サトヤマキョウイクキコウ,0
115,1120001265447,新規,0,2024-06-04,2024-06-04,雲曜株式会社,,株式会社,大阪府,大阪市阿倍野区,天王寺南二丁目２２番３号ＮＡＧＡＩメゾン４０２,,27,119,5450000,,,,,,,2024-06-04,1,,,,,ウンヨウ,0
116,1120001265538,新規,0,2024-06-04,2024-06-04,株式会社Ｚ・Ｆあさひ,,株式会社,大阪府,大阪市都島区,大東町２丁目１３番２７号,,27,102,5340002,,,,,,,2024-06-04,1,,,,,ゼットエフアサヒ,0
117,1120001265546,新規,0,2024-06-04,2024-06-04,株式会社ＣＲＥＵＳＥＴ,,株式会社,大阪府,大阪市西区,阿波座２丁目２－２１ダイドーメゾン本町１１０４,,27,106,5500011,,,,,,,2024-06-04,1,,,,,クルーゼ,0
122,1120101069698,新規,0,2024-06-04,2024-06-04,株式会社南部土地,,株式会社,大阪府,藤井寺市,藤ケ丘３丁目２番６号,,27,226,5830017,,,,,,,2024-06-04,1,,,,,ナンブトチ,0
127,1122003002902,新規,0,2024-06-04,2024-06-04,ＮＲＬカンパニー合同会社,,合同会社,大阪府,東大阪市,岩田町６丁目４－４９,,27,227,5780941,,,,,,,2024-06-04,1,,,,,エヌアールエルカンパニー,0
131,1130001077172,新規,0,2024-06-04,2024-06-04,株式会社Ｏｆｆｉｃｅ　Ｍｅｌｌｏｗ,,株式会社,京都府,京都市下京区,新町通高辻下る御影町４５５番地ルーシア四条烏丸４０５号,00135008,26,106,6008447,,,,,,,2024-06-04,1,,,,,オフィスメロー,0
132,1130001077197,新規,0,2024-06-04,2024-06-04,株式会社アメ玉商店,,株式会社,京都府,京都市左京区,岩倉村松町６０番地ファミーユ２０２号室,,26,103,6060034,,,,,,,2024-06-04,1,,,,,アメダマショウテン,0
134,1130003009421,新規,0,2024-06-04,2024-06-04,ｏｎｅ‐ｋｍ合同会社,,合同会社,京都府,京都市伏見区,羽束師鴨川町３４９番地９,,26,109,6128484,,,,,,,2024-06-04,1,,,,,ワンクン,0
135,1130003009611,新規,0,2024-06-04,2024-06-04,合同会社狩野清文堂,,合同会社,京都府,京都市南区,東九条南河辺町２９番地１８,,26,107,6018034,,,,,,,2024-06-04,1,,,,,カノセイブンドウ,0
140,1140001134617,新規,0,2024-06-04,2024-06-04,株式会社オオニシ,,株式会社,兵庫県,伊丹市,春日丘６丁目４１番地,,28,207,6640893,,,,,,,2024-06-04,1,,,,,オオニシ,0
141,1140001134625,新規,0,2024-06-04,2024-06-04,大管テクノ株式会社,,株式会社,兵庫県,神戸市西区,持子２丁目２６,,28,111,6512131,,,,,,,2024-06-04,1,,,,,ダイカンテクノ,0
142,1140001134641,新規,0,2024-06-04,2024-06-04,株式会社Ｍａｙ　Ｂｌｅａｔ,,株式会社,兵庫県,神戸市兵庫区,下沢通８丁目４番４－８０７号,,28,105,6520047,,,,,,,2024-06-04,1,,,,,メイブリート,0
143,1140001134658,新規,0,2024-06-04,2024-06-04,株式会社ＳｋｉｌｌＬｉｎｋ,,株式会社,兵庫県,神戸市中央区,磯辺通１丁目１番１８号カサベラ国際プラザビル７０７号室,,28,110,6510084,,,,,,,2024-06-04,1,,,,,スキルリンク,0
144,1140001134674,新規,0,2024-06-04,2024-06-04,株式会社いい蔵,,株式会社,兵庫県,神戸市灘区,深田町４丁目１番１号ウェルブ六甲道２番街１階１１１号,,28,102,6570038,,,,,,,2024-06-04,1,,,,,イイゾウ,0
149,1150003003273,新規,0,2024-06-04,2024-06-04,合同会社Ｒｅｌａ．ｂｅａｕｔｙ,,合同会社,奈良県,奈良市,西大寺栄町３番５８－８０７号,,29,201,6310822,,,,,,,2024-06-04,1,,,,,レラビューティー,0
155,1180001161789,新規,0,2024-06-04,2024-06-04,株式会社Ｕｎｉｔｅｄ　Ｆｌａｇ,,株式会社,愛知県,名古屋市中区,東桜２丁目２３番２２号ホテルマイステイズ名古屋栄Ｂ１,,23,106,4600005,,,,,,,2024-06-04,1,,,,,ユナイテッドフラッグ,0
156,1180001161797,新規,0,2024-06-04,2024-06-04,Ｉ‐ＬＯＵＮＧＥ株式会社,,株式会社,愛知県,名古屋市中区,丸の内３丁目１９番１号ライオンビル４Ｆ,,23,106,4600002,,,,,,,2024-06-04,1,,,,,アイラウンジ,0
157,1180001161806,新規,0,2024-06-04,2024-06-04,株式会社碧,,株式会社,愛知県,名古屋市中区,栄１丁目２３番２９号サンハイツ伏見２Ｆ,,23,106,4600008,,,,,,,2024-06-04,1,,,,,アオ,0
162,1180005020652,新規,0,2024-06-04,2024-06-04,一般社団法人小規模事業者活性化ｎｅｔ．,,その他の設立登記法人,愛知県,名古屋市中村区,名駅３丁目４番１０号アルティメイト名駅１ｓｔ２階,,23,105,4500002,,,,,,,2024-06-04,1,,,,,ショウキボジギョウシャカッセイカネットドット,0
165,1180303006139,新規,0,2024-06-04,2024-06-04,合同会社Ｌｏｓ　Ａｎｇｅｌｅｓ　Ｂｌｖｄ,,合同会社,愛知県,西尾市,鶴ケ崎町４０番地,,23,213,4450837,,,,,,,2024-06-04,1,,,,,ロサンゼルスブルバード,0
167,1190003004697,新規,0,2024-06-04,2024-06-04,ヴィンセント合同会社,,合同会社,三重県,四日市市,西新地７番３号プラトンホテル２階,,24,202,5100087,,,,,,,2024-06-04,1,,,,,ヴィンセント,0
169,1200001042549,新規,0,2024-06-04,2024-06-04,多治見金属株式会社,,株式会社,岐阜県,多治見市,光ケ丘４丁目２番,,21,204,5070052,,,,,,,2024-06-04,1,,,,,タジミキンゾク,0
174,1220001026038,新規,0,2024-06-04,2024-06-04,株式会社ＥＩＮＡ,,株式会社,石川県,金沢市,泉が丘１丁目２番５４号,,17,201,9218035,,,,,,,2024-06-04,1,,,,,エイナ,0
178,1240001063319,新規,0,2024-06-04,2024-06-04,株式会社ｕｌｕ,,株式会社,広島県,広島市中区,八丁堀８番１０号２Ｆ,,34,101,7300013,,,,,,,2024-06-04,1,,,,,ウル,0
181,1250001020673,新規,0,2024-06-04,2024-06-04,株式会社雄覇,,株式会社,山口県,宇部市,大字東岐波１９７６番地１０,,35,202,7550241,,,,,,,2024-06-04,1,,,,,ユウハ,0
185,1260003004780,新規,0,2024-06-04,2024-06-04,合同会社Ｃｏｍｒａｄｅ,,合同会社,岡山県,赤磐市,沼田８５８番地１,,33,213,7090812,,,,,,,2024-06-04,1,,,,,カムレッド,0
186,1280003001850,新規,0,2024-06-04,2024-06-04,合同会社遠足計画,,合同会社,島根県,雲南市,木次町木次２９三日市ラボ,,32,209,6991332,,,,,,,2024-06-04,1,,,,,エンソクケイカク,0
192,1290803004738,新規,0,2024-06-04,2024-06-04,合同会社千尋福,,合同会社,福岡県,田川市,大字夏吉１６３１番地９,,40,206,8250004,,,,,,,2024-06-04,1,,,,,チヒロ,0
193,1300003002128,新規,0,2024-06-04,2024-06-04,合同会社福祉屋,,合同会社,佐賀県,唐津市,佐志浜町４０６６番地１,,41,202,8470115,,,,,,,2024-06-04,1,,,,,フクシヤ,0
194,1310001019040,新規,0,2024-06-04,2024-06-04,株式会社山下魚類,,株式会社,長崎県,長崎市,さくらの里２丁目３番３３号,,42,201,8512207,,,,,,,2024-06-04,1,,,,,ヤマシタギョルイ,0
209,1380001034578,新規,0,2024-06-04,2024-06-04,株式会社ＡＲＩＯＳ,,株式会社,福島県,石川郡浅川町,大字山白石字破石下１９７－１,,07,504,9636203,,,,,,,2024-06-04,1,,,,,アリオス,0
222,1430003016412,新規,0,2024-06-04,2024-06-04,合同会社ＯＭＧ,,合同会社,北海道,札幌市中央区,南六条西３丁目６番地２４第二桂和ビル３階,,01,101,0640806,,,,,,,2024-06-04,1,,,,,オーエムジー,0
224,1450001014333,新規,0,2024-06-04,2024-06-04,株式会社ファザルインターナショナル,,株式会社,北海道,旭川市,台場四条１丁目７番３号,,01,204,0708074,,,,,,,2024-06-04,1,,,,,ファザルインターナショナル,0
228,1470001020239,新規,0,2024-06-04,2024-06-04,株式会社ＯＮＸＹ,,株式会社,香川県,高松市,松福町１丁目６番３－８０７号ダイアパレスポートアベニュー高松,,37,201,7600067,,,,,,,2024-06-04,1,,,,,オニキス,0
230,1700150073922,新規,0,2024-06-04,2016-06-10,大町市浄化槽管理組合,,その他,長野県,大町市,大町３８８７,,20,212,3980002,,,,,,,2016-06-10,1,,,,,オオマチシジヨウカソウカンリクミアイ,0
231,1700150103753,新規,0,2024-06-04,2021-06-17,上牛隈共有林組合,,その他,福岡県,嘉麻市,牛隈３０９,,40,227,8200301,,,,,,,2021-06-17,1,,,,,カミウシクマキヨウユウリンクミアイ,0
232,1700150125335,新規,0,2024-06-04,2024-05-14,隅田川マルシェ実行委員会,,その他,東京都,江東区,常盤２丁目８－２,,13,108,1350006,,,,,,,2024-05-14,1,,,,,スミダガワマルシエジツコウイインカイ,0
240,2010001245392,新規,0,2024-06-04,2024-06-04,株式会社Ｔａｎｇｅｎｔｓ,,株式会社,東京都,中央区,銀座７丁目１３番２１号銀座ｓｉｎｒｏｋｕｓｙｕビル２階,,13,102,1040061,,,,,,,2024-06-04,1,,,,,タンジェンツ,0
241,2010001245434,新規,0,2024-06-04,2024-06-04,株式会社ＭＩＳＴ,,株式会社,東京都,中央区,銀座１丁目１２番４号Ｎ＆ＥＢＬＤ．７Ｆ,,13,102,1040061,,,,,,,2024-06-04,1,,,,,ミスト,0
248,2010005038363,新規,0,2024-06-04,2024-06-04,ソーラーデメルホールディングス一般社団法人,,その他の設立登記法人,東京都,中央区,京橋２丁目１２番６号ＡＯＪ税理士法人内,,13,102,1040031,,,,,,,2024-06-04,1,,,,,ソーラーデメルホールディングス,0
258,2010601065307,新規,0,2024-06-04,2024-06-04,株式会社早稲典雅,,株式会社,東京都,江東区,佐賀１丁目１６番３号林ビル２０１－Ｃ号室,,13,108,1350031,,,,,,,2024-06-04,1,,,,,ワセテンガ,0
259,2010601065315,新規,0,2024-06-04,2024-06-04,株式会社花,,株式会社,東京都,墨田区,太平１丁目１５－１３－５０１,,13,107,1300012,,,,,,,2024-06-04,1,,,,,ハナ,0
260,2010703007198,新規,0,2024-06-04,2024-06-04,Ｌｉｎｋ　Ｄｉｇｉｔａｌ合同会社,,合同会社,東京都,品川区,西中延３丁目５番１８－１０８号,,13,109,1420054,,,,,,,2024-06-04,1,,,,,リンクデジタル,0
261,2010703007207,新規,0,2024-06-04,2024-06-04,Ｐｒｏｆｅｃｓｃｅｎｔ合同会社,,合同会社,東京都,品川区,東大井５丁目２５番９－３０２号,,13,109,1400011,,,,,,,2024-06-04,1,,,,,プロフェクセント,0
264,2010903009110,新規,0,2024-06-04,2024-06-04,Ｍａｕｌｏａ合同会社,,合同会社,東京都,世田谷区,太子堂３丁目３１番６号,,13,112,1540004,,,,,,,2024-06-04,1,,,,,マウロア,0
269,2011001162248,新規,0,2024-06-04,2024-06-04,株式会社Ａ３Ｘ,,株式会社,東京都,渋谷区,神宮前３丁目３５番２号,,13,113,1500001,,,,,,,2024-06-04,1,,,,,エイスリーエックス,0
270,2011001162339,新規,0,2024-06-04,2024-06-04,株式会社榮福,,株式会社,東京都,渋谷区,恵比寿西２丁目７番９号,,13,113,1500021,,,,,,,2024-06-04,1,,,,,エイフク,0
271,2011001162371,新規,0,2024-06-04,2024-06-04,レバレジーズスタッフィング株式会社,,株式会社,東京都,渋谷区,渋谷２丁目２４番１２号,,13,113,1500002,,,,,,,2024-06-04,1,,,,,レバレジーズスタッフィング,0
272,2011003019339,新規,0,2024-06-04,2024-06-04,合同会社Ｄａｎｔｅ,,合同会社,東京都,渋谷区,道玄坂１丁目６番２号渋谷ファイブビル地下１階,,13,113,1500043,,,,,,,2024-06-04,1,,,,,ダンテ,0
282,2011101107508,新規,0,2024-06-04,2024-06-04,株式会社Ｇｒａｐｈｉｔｅ,,株式会社,東京都,新宿区,西新宿３丁目３番１３号西新宿水間ビル２Ｆ,,13,104,1600023,,,,,,,2024-06-04,1,,,,,グラファイト,0
285,2011201025527,新規,0,2024-06-04,2024-06-04,無象株式会社,,株式会社,東京都,中野区,江古田４丁目３０番１９－１０５号,,13,114,1650022,,,,,,,2024-06-04,1,,,,,ムゾウ,0
290,2011501030747,新規,0,2024-06-04,2024-06-04,株式会社ＦＩＲＳＴ　ＢＡＳＥ,,株式会社,東京都,北区,滝野川３丁目７７番３－６２０号,,13,117,1140023,,,,,,,2024-06-04,1,,,,,ファーストベース,0
292,2011503006084,新規,0,2024-06-04,2024-06-04,合同会社Ｌｕｍｏｓ,,合同会社,東京都,荒川区,東日暮里６丁目１７－６ふらっとにっぽり５Ｆ,,13,118,1160014,,,,,,,2024-06-04,1,,,,,ルーモス,0
293,2011503006092,新規,0,2024-06-04,2024-06-04,いずみ会合同会社,,合同会社,東京都,北区,中里２丁目４－７銀座コーポ６０３号,,13,117,1140015,,,,,,,2024-06-04,1,,,,,イズミカイ,0
299,2011801044331,新規,0,2024-06-04,2024-06-04,株式会社翰華,,株式会社,東京都,足立区,中央本町３丁目１７－１２－１０１８,,13,121,1210011,,,,,,,2024-06-04,1,,,,,カンカ,0
302,2012403006595,新規,0,2024-06-04,2024-06-04,合同会社ハレノヒ,,合同会社,東京都,三鷹市,大沢１丁目３－１９,,13,204,1810015,,,,,,,2024-06-04,1,,,,,ハレノヒ,0
303,2012701018284,新規,0,2024-06-04,2024-06-04,株式会社こみち,,株式会社,東京都,小平市,花小金井２丁目２４－２－１６,,13,211,1870002,,,,,,,2024-06-04,1,,,,,コミチ,0
304,2013301052599,新規,0,2024-06-04,2024-06-04,吉祥物業管理株式会社,,株式会社,東京都,豊島区,巣鴨１丁目１７－３子野ビル６０１号室,,13,116,1700002,,,,,,,2024-06-04,1,,,,,キチジョウブツギョウカンリ,0
317,2020001157546,新規,0,2024-06-04,2024-06-04,株式会社〇彦,,株式会社,神奈川県,横浜市青葉区,あざみ野２丁目２９番地１ブランズシティあざみ野４２６,,14,117,2250011,,,,,,,2024-06-04,1,,,,,マルヒコ,0
318,2020001157554,新規,0,2024-06-04,2024-06-04,株式会社Ｌｉｎｋｓ,,株式会社,神奈川県,横浜市鶴見区,江ケ崎町１番１９号,,14,101,2300002,,,,,,,2024-06-04,1,,,,,,0
321,2020003026278,新規,0,2024-06-04,2024-06-04,合同会社エイチ,,合同会社,神奈川県,横浜市青葉区,梅が丘３５番地１９,,14,117,2270052,,,,,,,2024-06-04,1,,,,,エイチ,0
323,2020005016442,新規,0,2024-06-04,2024-06-04,一般社団法人ＨＳＰ研究所,,その他の設立登記法人,神奈川県,横浜市中区,山下町１１７番地１グランド・ガーラ横濱元町７０３号室,,14,104,2310023,,,,,,,2024-06-04,1,,,,,エイチエスピーケンキュウジョ,0
325,2021001082370,新規,0,2024-06-04,2024-06-04,株式会社ジオ・ガストロノミー,,株式会社,神奈川県,鎌倉市,二階堂８４２番地,,14,204,2480002,,,,,,,2024-06-04,1,,,,,ジオガストロノミー,0
326,2021001082404,新規,0,2024-06-04,2024-06-04,株式会社ＫＡＭＯＢＵＳ,,株式会社,神奈川県,茅ヶ崎市,鶴が台９番１１－１号,,14,207,2530003,,,,,,,2024-06-04,1,,,,,カモバス,0
332,2030001160672,新規,0,2024-06-04,2024-06-04,株式会社のぶ企画,,株式会社,埼玉県,北葛飾郡杉戸町,高野台西３丁目２６番地１,,11,464,3450045,,,,,,,2024-06-04,1,,,,,ノブキカク,0
340,2040001133859,新規,0,2024-06-04,2024-06-04,Ｍ＆Ｈ株式会社,,株式会社,千葉県,船橋市,三山５丁目２番５－２号,,12,204,2740072,,,,,,,2024-06-04,1,,,,,エムアンドエイチ,0
341,2040001133867,新規,0,2024-06-04,2024-06-04,株式会社グレイズ,,株式会社,千葉県,佐倉市,大崎台１丁目３番地４第一岩井ビル３０５,,12,212,2850817,,,,,,,2024-06-04,1,,,,,グレイズ,0
342,2040001133875,新規,0,2024-06-04,2024-06-04,株式会社ＣＯＮＳＰＯ,,株式会社,千葉県,千葉市花見川区,幕張町５丁目２１８番地５サンメゾン幕張フレシアコート３０６号,,12,102,2620032,,,,,,,2024-06-04,1,,,,,コンスポ,0
344,2040003025096,新規,0,2024-06-04,2024-06-04,Ｄａｖ　Ａｕｔｏ　Ｔｒａｄｉｎｇ合同会社,,合同会社,千葉県,野田市,木間ケ瀬７３８－６,,12,208,2700222,,,,,,,2024-06-04,1,,,,,ダブオートトレーディング,0
346,2060003005105,新規,0,2024-06-04,2024-06-04,テラカプセル合同会社,,合同会社,栃木県,足利市,大前町９１７,,09,202,3260845,,,,,,,2024-06-04,1,,,,,テラカプセル,0
350,2070001041811,新規,0,2024-06-04,2024-06-04,株式会社マスダ,,株式会社,群馬県,前橋市,粕川町女渕５８５番地４８,,10,201,3710214,,,,,,,2024-06-04,1,,,,,マスダ,0
357,2080401027211,新規,0,2024-06-04,2024-06-04,株式会社ＲｏＣｒａｖｅ,,株式会社,静岡県,浜松市中央区,中島３丁目７番５号,,22,138,4300856,,,,,,,2024-06-04,1,,,,,ロックレイブ,0
358,2080401027228,新規,0,2024-06-04,2024-06-04,株式会社Ｔｈｒｅｅ　Ｍｉｎｄ,,株式会社,静岡県,浜松市中央区,曳馬６丁目１４番２７－２０５号アーバンライフ曳馬２,,22,138,4300901,,,,,,,2024-06-04,1,,,,,スリーマインド,0
359,2080403005025,新規,0,2024-06-04,2024-06-04,合同会社いヰもん家,,合同会社,静岡県,磐田市,大久保５５３番地の１,,22,211,4380002,,,,,,,2024-06-04,1,,,,,イイモンヤ,0
370,2120001265512,新規,0,2024-06-04,2024-06-04,株式会社フェリス,,株式会社,大阪府,大阪市東成区,深江北１丁目９番４０号,,27,115,5370001,,,,,,,2024-06-04,1,,,,,フェリス,0
371,2120001265529,新規,0,2024-06-04,2024-06-04,株式会社ヘヴンズゲート,,株式会社,大阪府,大阪市生野区,舎利寺３丁目１３番１４号,,27,116,5440022,,,,,,,2024-06-04,1,,,,,ヘヴンズゲート,0
372,2120001265537,新規,0,2024-06-04,2024-06-04,ＡＩ株式会社,,株式会社,大阪府,大阪市西成区,松１丁目１０－２９－２０１,,27,122,5570034,,,,,,,2024-06-04,1,,,,,エーアイ,0
381,2120105009864,新規,0,2024-06-04,2024-06-04,一般社団法人Ｗ‐ＫＩＮＤ,,その他の設立登記法人,大阪府,貝塚市,澤１１１２番地３,,27,208,5970062,,,,,,,2024-06-04,1,,,,,ダブルカインド,0
386,2130001019826,新規,0,2024-06-04,2024-06-04,株式会社錦永産業,,株式会社,京都府,京都市東山区,宮川筋３丁目２９１番地６,,26,105,6050801,,,,,,,2024-06-04,1,,,,,キンエイサンギョウ,0
389,2130001077188,新規,0,2024-06-04,2024-06-04,株式会社Ｒｅｂｏｒｎ,,株式会社,京都府,京都市南区,吉祥院西ノ庄西中町４６番地,,26,107,6018303,,,,,,,2024-06-04,1,,,,,リボーン,0
390,2130001077196,新規,0,2024-06-04,2024-06-04,株式会社マツオカ,,株式会社,京都府,京都市下京区,東塩小路向畑町２０番地１３プレサンス京都駅前２０１号,,26,106,6008213,,,,,,,2024-06-04,1,,,,,マツオカ,0
393,2130005017108,新規,0,2024-06-04,2024-06-04,一般財団法人ＳＯＵＮＤ　ＯＦ　ＭＩＮＥ,,その他の設立登記法人,京都府,京都市上京区,俵屋町４６３－５－４Ｆ,,26,102,6020871,,,,,,,2024-06-04,1,,,,,サウンドオブマイン,0
398,2140001134616,新規,0,2024-06-04,2024-06-04,株式会社ＨＡＬＥ,,株式会社,兵庫県,神戸市東灘区,向洋町中５丁目１番地ＲＩＣウエストコート４番街５２３号棟１１２号室,,28,101,6580032,,,,,,,2024-06-04,1,,,,,ハレ,0
399,2140001134640,新規,0,2024-06-04,2024-06-04,株式会社ＫＯＫＵＲＵ,,株式会社,兵庫県,伊丹市,堀池５丁目１番７号,,28,207,6640871,,,,,,,2024-06-04,1,,,,,コークル,0
400,2140001134681,新規,0,2024-06-04,2024-06-04,株式会社ＴＳＧ,,株式会社,兵庫県,神戸市北区,八多町附物８６９番地３５,,28,109,6511343,,,,,,,2024-06-04,1,,,,,ティーエスジー,0
406,2140003020665,新規,0,2024-06-04,2024-06-04,合同会社春の日会,,合同会社,兵庫県,川辺郡猪名川町,若葉２丁目３０番地３,,28,301,6660251,,,,,,,2024-06-04,1,,,,,ハルノヒカイ,0
409,2160001025953,新規,0,2024-06-04,2024-06-04,株式会社Ｎｉｎｊａｃｋ,,株式会社,滋賀県,甲賀市,甲南町杉谷６１,,25,209,5203314,,,,,,,2024-06-04,1,,,,,ニンジャック,0
428,2220001026037,新規,0,2024-06-04,2024-06-04,株式会社Ｆｏｒｃｅ　Ｇｒｏｕｐ,,株式会社,石川県,河北郡内灘町,字向粟崎５丁目３２番地,,17,365,9200274,,,,,,,2024-06-04,1,,,,,フォースグループ,0
429,2220003003760,新規,0,2024-06-04,2024-06-04,合同会社ふたば,,合同会社,石川県,金沢市,長田２丁目６番２１号,,17,201,9200043,,,,,,,2024-06-04,1,,,,,フタバ,0
432,2240001063301,新規,0,2024-06-04,2024-06-04,株式会社ミライズフーズ,,株式会社,広島県,世羅郡世羅町,大字宇津戸１０１６番地,,34,462,7220411,,,,,,,2024-06-04,1,,,,,ミライズフーズ,0
433,2240001063318,新規,0,2024-06-04,2024-06-04,ＬＵＫＥ株式会社,,株式会社,広島県,広島市南区,段原４丁目１番１５号１Ｆ,,34,103,7320811,,,,,,,2024-06-04,1,,,,,ルーク,0
441,2260001039134,新規,0,2024-06-04,2024-06-04,株式会社日々乃,,株式会社,岡山県,岡山市東区,金岡西町６３９番地２１,,33,103,7048193,,,,,,,2024-06-04,1,,,,,ヒビノ,0
442,2260001039142,新規,0,2024-06-04,2024-06-04,株式会社レンタル倉庫,,株式会社,岡山県,倉敷市,宮前４１８－３,,33,202,7100065,,,,,,,2024-06-04,1,,,,,レンタルソウコ,0
443,2270001008988,新規,0,2024-06-04,2024-06-04,株式会社リージョンビジネス・ソリューション,,株式会社,鳥取県,米子市,安倍２００番地１,,31,202,6830846,,,,,,,2024-06-04,1,,,,,リージョンビジネスソリューション,0
444,2270005005593,新規,0,2024-06-04,2024-06-04,一般社団法人クロノナウト,,その他の設立登記法人,鳥取県,米子市,岡成１８６番地,,31,202,6893513,,,,,,,2024-06-04,1,,,,,クロノナウト,0
450,2290001106014,新規,0,2024-06-04,2024-06-04,株式会社ＭＳホールディングス,,株式会社,福岡県,福岡市中央区,梅光園２丁目１４番３号,,40,133,8100035,,,,,,,2024-06-04,1,,,,,エムエスホールディングス,0
454,2290005019419,新規,0,2024-06-04,2024-06-04,クライムアップ協同組合,,その他の設立登記法人,福岡県,福岡市東区,松島４丁目４番３７号,,40,131,8130062,,,,,,,2024-06-04,1,,,,,クライムアップ,0
455,2290801030611,新規,0,2024-06-04,2024-06-04,株式会社プロアシスト,,株式会社,福岡県,遠賀郡岡垣町,海老津２丁目１４番５号,,40,383,8114231,,,,,,,2024-06-04,1,,,,,プロアシスト,0
460,2330001032131,新規,0,2024-06-04,2024-06-04,株式会社ナッツカンパニー,,株式会社,熊本県,熊本市中央区,出水１丁目６番４２号１Ｆ,,43,101,8620941,,,,,,,2024-06-04,1,,,,,ナッツカンパニー,0
461,2330003010399,新規,0,2024-06-04,2024-06-04,合同会社Ｂｌｕｅ　Ｓｕｎ,,合同会社,熊本県,上益城郡嘉島町,大字上仲間８０９番地１－３－２階,,43,442,8613107,,,,,,,2024-06-04,1,,,,,ブルーサン,0
462,2330003010408,新規,0,2024-06-04,2024-06-04,日新管財合同会社,,合同会社,熊本県,熊本市中央区,上水前寺１丁目９番１５号,,43,101,8620951,,,,,,,2024-06-04,1,,,,,ニッシンカンザイ,0
465,2360001033754,新規,0,2024-06-04,2024-06-04,株式会社ジェイソリューションズ,,株式会社,沖縄県,那覇市,久茂地２丁目２番２号,,47,201,9000015,,,,,,,2024-06-04,1,,,,,ジェイソリューションズ,0
466,2360001033762,新規,0,2024-06-04,2024-06-04,株式会社アドレス,,株式会社,沖縄県,豊見城市,字豊見城１００番地,,47,212,9010241,,,,,,,2024-06-04,1,,,,,アドレス,0
467,2360003014034,新規,0,2024-06-04,2024-06-04,合同会社ｋｏ‐ｓｈｉｎ,,合同会社,沖縄県,国頭郡伊江村,字川平６３５－１０,,47,315,9050503,,,,,,,2024-06-04,1,,,,,コーシン,0
478,2430001091919,新規,0,2024-06-04,2024-06-04,株式会社フレックスブルー,,株式会社,北海道,札幌市東区,東雁来十一条２丁目１０番１９号,,01,103,0070031,,,,,,,2024-06-04,1,,,,,フレックスブルー,0
479,2430001091927,新規,0,2024-06-04,2024-06-04,株式会社Ｔ＆Ｙエンターテイメント,,株式会社,北海道,札幌市南区,澄川二条２丁目４番１４－１０３号,,01,106,0050002,,,,,,,2024-06-04,1,,,,,ティーアンドワイエンターテイメント,0
480,2430001091943,新規,0,2024-06-04,2024-06-04,株式会社１７ｓｔｙｌｅ,,株式会社,北海道,札幌市南区,南沢１８２２番地１,,01,106,0050827,,,,,,,2024-06-04,1,,,,,イチナナスタイル,0
483,2430003016403,新規,0,2024-06-04,2024-06-04,合同会社ＮＩＮＥ,,合同会社,北海道,札幌市中央区,南五条西１５丁目２－３リズム医大前５０３,,01,101,0640805,,,,,,,2024-06-04,1,,,,,ナイン,0
485,2450001014332,新規,0,2024-06-04,2024-06-04,株式会社まむふぁむ,,株式会社,北海道,増毛郡増毛町,暑寒町５丁目１７３番地,,01,481,0770215,,,,,,,2024-06-04,1,,,,,マムファム,0
486,2460001005909,新規,0,2024-06-04,2024-06-04,ＦＫホーム株式会社,,株式会社,北海道,釧路市,貝塚２丁目７番２９号,,01,206,0850816,,,,,,,2024-06-04,1,,,,,エフケイホーム,0
488,2470001020238,新規,0,2024-06-04,2024-06-04,現代プロ株式会社,,株式会社,香川県,高松市,東山崎町５７７番地５,,37,201,7610312,,,,,,,2024-06-04,1,,,,,ゲンダイプロ,0
503,3010001245359,新規,0,2024-06-04,2024-06-04,ＷＹＳＳ　ＪＡＰＡＮ株式会社,,株式会社,東京都,千代田区,九段南３－５－２九段南３丁目ビル５階,,13,101,1000000,,,,,,,2024-06-04,1,,,,,ワイスジャパン,0
504,3010001245391,新規,0,2024-06-04,2024-06-04,株式会社ＣｏｃｏＰａｌｅｔｔｅ,,株式会社,東京都,中央区,銀座７丁目１３番６号サガミビル２階,,13,102,1040061,,,,,,,2024-06-04,1,,,,,ココパレット,0
505,3010001245417,新規,0,2024-06-04,2024-06-04,株式会社ビルポエージェンシー,,株式会社,東京都,中央区,湊１丁目６－１八丁堀ＡＦビル３Ｆ,,13,102,1040043,,,,,,,2024-06-04,1,,,,,ビルポエージェンシー,0
506,3010001245433,新規,0,2024-06-04,2024-06-04,グルメコレック株式会社,,株式会社,東京都,文京区,湯島３丁目２４番１１号湯島北東ビル８階Ａ室,,13,105,1130034,,,,,,,2024-06-04,1,,,,,グルメコレック,0
508,3010003043901,新規,0,2024-06-04,2024-06-04,エメラルドワン合同会社,,合同会社,東京都,中央区,日本橋１丁目４番１号日本橋一丁目ビルディング,,13,102,1030027,,,,,,,2024-06-04,1,,,,,エメラルドワン,0
510,3010005038362,新規,0,2024-06-04,2024-06-04,ソーラーガレーホールディングス一般社団法人,,その他の設立登記法人,東京都,中央区,京橋２丁目１２番６号ＡＯＪ税理士法人内,,13,102,1040031,,,,,,,2024-06-04,1,,,,,ソーラーガレーホールディングス,0
511,3010005038370,新規,0,2024-06-04,2024-06-04,一般社団法人再生医療研究所,,その他の設立登記法人,東京都,中央区,銀座６丁目２番７号３階,,13,102,1040061,,,,,,,2024-06-04,1,,,,,サイセイイリョウケンキュウジョ,0
512,3010103002369,新規,0,2024-06-04,2024-06-04,合同会社イグニッション,,合同会社,東京都,八王子市,東中野１９６番地６グリーンコートＩＩＩ１０５号,00135010,13,201,1920351,,,,,,,2024-06-04,1,,,,,イグニッション,0
513,3010401182887,新規,0,2024-06-04,2024-06-04,株式会社クローバーハート,,株式会社,東京都,港区,南青山３丁目１番３６号青山丸竹ビル６Ｆ,,13,103,1070062,,,,,,,2024-06-04,1,,,,,クローバーハート,0
516,3010501052395,新規,0,2024-06-04,2024-06-04,株式会社ＨＡＲＩＨＩＲＯ,,株式会社,東京都,台東区,浅草７丁目６番３号－４０４,,13,106,1110032,,,,,,,2024-06-04,1,,,,,ハリヒロ,0
517,3010701046081,新規,0,2024-06-04,2024-06-04,ＡＨカンパニー株式会社,,株式会社,東京都,品川区,西中延３丁目８番１８号エンジェルス守屋１０８,,13,109,1420054,,,,,,,2024-06-04,1,,,,,エーエイチカンパニー,0
518,3010801035117,新規,0,2024-06-04,2024-06-04,株式会社Ｂｅｔｔｅｒ　Ｆｏｒｔｕｎｅ,,株式会社,東京都,大田区,久が原６丁目７番５号,,13,111,1460085,,,,,,,2024-06-04,1,,,,,ベターフォーチュン,0
525,3011001162313,新規,0,2024-06-04,2024-06-04,環海資産株式会社,,株式会社,東京都,渋谷区,円山町５番５号Ｎａｖｉ渋谷Ｖ３階,,13,113,1500044,,,,,,,2024-06-04,1,,,,,カンカイシサン,0
526,3011001162379,新規,0,2024-06-04,2024-06-04,株式会社８５ｍｍ,,株式会社,東京都,渋谷区,代々木２丁目２６番２号第２桑野ビル５Ａ,,13,113,1510053,,,,,,,2024-06-04,1,,,,,ハチジュウゴミリ,0
527,3011001162395,新規,0,2024-06-04,2024-06-04,株式会社ＧＯＥＳ,,株式会社,東京都,渋谷区,神宮前３丁目１３番１２号Ｂ１,,13,113,1500001,,,,,,,2024-06-04,1,,,,,ゴーズ,0
528,3011001162404,新規,0,2024-06-04,2024-06-04,テレポ株式会社,,株式会社,東京都,渋谷区,道玄坂１丁目１０番８号渋谷道玄坂東急ビル２Ｆ－Ｃ,,13,113,1500043,,,,,,,2024-06-04,1,,,,,テレポ,0
533,3011101107556,新規,0,2024-06-04,2024-06-04,Ｐ＆Ａ株式会社,,株式会社,東京都,新宿区,西新宿３丁目３番１３号西新宿水間ビル６階,,13,104,1600023,,,,,,,2024-06-04,1,,,,,ピーアンドエー,0
534,3011303005178,新規,0,2024-06-04,2024-06-04,合同会社ＥＬＦ,,合同会社,東京都,杉並区,上荻２丁目３６－２,,13,115,1670043,,,,,,,2024-06-04,1,,,,,,0
535,3011501030738,新規,0,2024-06-04,2024-06-04,ＣＧ　ＪＡＰＡＮ株式会社,,株式会社,東京都,荒川区,東尾久１丁目３０番１２－４０８号ダイアパレス田端,,13,118,1160012,,,,,,,2024-06-04,1,,,,,シージージャパン,0
539,3011803006270,新規,0,2024-06-04,2024-06-04,合同会社すたーと９２,,合同会社,東京都,足立区,六町１丁目１０番１８号,,13,121,1210073,,,,,,,2024-06-04,1,,,,,スタートキュウジュウニ,0
541,3012303002000,新規,0,2024-06-04,2024-06-04,クロスロード合同会社,,合同会社,東京都,町田市,小野路町４４０５番地５,,13,209,1950064,,,,,,,2024-06-04,1,,,,,クロスロード,0
549,3013301052598,新規,0,2024-06-04,2024-06-04,吉祥投資株式会社,,株式会社,東京都,豊島区,巣鴨１丁目１７－３子野ビル６０１号室,,13,116,1700002,,,,,,,2024-06-04,1,,,,,キチジョウトウシ,0
556,3020001157545,新規,0,2024-06-04,2024-06-04,伊藤防災株式会社,,株式会社,神奈川県,横浜市鶴見区,尻手１丁目１番１５‐３３１号,,14,101,2300003,,,,,,,2024-06-04,1,,,,,イトウボウサイ,0
557,3020001157561,新規,0,2024-06-04,2024-06-04,ネイティブクラウドテック株式会社,,株式会社,神奈川県,横浜市西区,北幸２丁目１０番４８号むつみビル３階,,14,103,2200004,,,,,,,2024-06-04,1,,,,,ネイティブクラウドテック,0
564,3021001082394,新規,0,2024-06-04,2024-06-04,株式会社コネクトテラス,,株式会社,神奈川県,藤沢市,長後６４４番地の９,,14,205,2520801,,,,,,,2024-06-04,1,,,,,ネクトテラス,0
573,3040001133866,新規,0,2024-06-04,2024-06-04,株式会社ＲＭＴＤ,,株式会社,千葉県,船橋市,本町５丁目１６番１６号,,12,204,2730005,,,,,,,2024-06-04,1,,,,,アールエムティーディー,0
584,3060001037165,新規,0,2024-06-04,2024-06-04,株式会社精英,,株式会社,栃木県,宇都宮市,東宿郷３丁目２番５号コーポルベーレＩ８０８,00135013,09,201,3210953,,,,,,,2024-06-04,1,,,,,セイエイ,0
586,3070001041810,新規,0,2024-06-04,2024-06-04,株式会社ＺＥＲＯ,,株式会社,群馬県,館林市,加法師町１０番１２号,,10,207,3740022,,,,,,,2024-06-04,1,,,,,ゼロ,0
587,3080001026331,新規,0,2024-06-04,2024-06-04,関東石材株式会社,,株式会社,静岡県,静岡市駿河区,池田２８１番地の２Ｈ３オフィスビル２階２０２号室,,22,102,4228005,,,,,,,2024-06-04,1,,,,,カントウセキザイ,0
589,3080101024788,新規,0,2024-06-04,2024-06-04,株式会社ＳＥＫＩ,,株式会社,静岡県,沼津市,柳町３番４５号,,22,203,4100043,,,,,,,2024-06-04,1,,,,,セキ,0
591,3080403005024,新規,0,2024-06-04,2024-06-04,合同会社蓮,,合同会社,静岡県,磐田市,海老塚８７４番地５,,22,211,4380812,,,,,,,2024-06-04,1,,,,,ハス,0
593,3090003002577,新規,0,2024-06-04,2024-06-04,合同会社ＳＴＡＭＰ,,合同会社,山梨県,甲府市,宮前町３番８号,,19,201,4000021,,,,,,,2024-06-04,1,,,,,スタンプ,0
604,3120001265494,新規,0,2024-06-04,2024-06-04,ＴＢＲ　ＧＲＯＵＰ株式会社,,株式会社,大阪府,大阪市中央区,島町２丁目２番１０－５０２号,,27,128,5400034,,,,,,,2024-06-04,1,,,,,ティービーアールグループ,0
605,3120001265511,新規,0,2024-06-04,2024-06-04,匯霆株式会社,,株式会社,大阪府,大阪市西成区,花園北２丁目１番６号まどか荘１階１０１号室,,27,122,5570016,,,,,,,2024-06-04,1,,,,,カイテイ,0
606,3120001265577,新規,0,2024-06-04,2024-06-04,株式会社ＣＲＯＷＳ,,株式会社,大阪府,大阪市淀川区,西宮原３丁目３番１－１００７号,,27,123,5320004,,,,,,,2024-06-04,1,,,,,クロース,0
607,3120001265593,新規,0,2024-06-04,2024-06-04,株式会社自由研,,株式会社,大阪府,大阪市中央区,谷町４丁目３番７号,,27,128,5400012,,,,,,,2024-06-04,1,,,,,ジユウケン,0
619,3120901049245,新規,0,2024-06-04,2024-06-04,世紀嘉行株式会社,,株式会社,大阪府,箕面市,桜ケ丘１丁目１０番２５号,,27,220,5620046,,,,,,,2024-06-04,1,,,,,セイキキコウ,0
620,3120903005188,新規,0,2024-06-04,2024-06-04,合同会社７Ａ‐ＳＡＹ,,合同会社,大阪府,高槻市,芝谷町２０番２０号,,27,207,5691025,,,,,,,2024-06-04,1,,,,,セブンエースセイ,0
625,3130001077187,新規,0,2024-06-04,2024-06-04,株式会社ＳＯＯＵ,,株式会社,京都府,京都市下京区,七条通油小路東入大黒町２２７番地第２キョートビル４０２,,26,106,6008223,,,,,,,2024-06-04,1,,,,,ソウ,0
626,3130001077204,新規,0,2024-06-04,2024-06-04,株式会社ＳＫフードサービス,,株式会社,京都府,京都市中京区,裏寺町６０７－３,,26,104,6048041,,,,,,,2024-06-04,1,,,,,エスケーフードサービス,0
640,3150001027322,新規,0,2024-06-04,2024-06-04,株式会社秀詠,,株式会社,奈良県,奈良市,恋の窪３丁目８番１－２号,,29,201,6308136,,,,,,,2024-06-04,1,,,,,シュウエイ,0
658,3180001161622,新規,0,2024-06-04,2024-06-04,宏＿株式会社,00135006,株式会社,愛知県,名古屋市中区,錦２丁目１６－４,,23,106,4600003,,,,,,,2024-06-04,1,,,,,コウキン,0
659,3180001161779,新規,0,2024-06-04,2024-06-04,株式会社ＢＡＡＭ,,株式会社,愛知県,名古屋市中区,栄３丁目２番３号名古屋日興證券ビル４階,,23,106,4600008,,,,,,,2024-06-04,1,,,,,バーム,0
660,3180001161795,新規,0,2024-06-04,2024-06-04,株式会社愛知空調,,株式会社,愛知県,尾張旭市,東大久手町１丁目１６番地１３,,23,226,4880003,,,,,,,2024-06-04,1,,,,,アイチクウチョウ,0
664,3180003026872,新規,0,2024-06-04,2024-06-04,ペンガー合同会社,,合同会社,愛知県,名古屋市緑区,大高町字寅新田７７番地２,,23,114,4598001,,,,,,,2024-06-04,1,,,,,ペンガー,0
666,3180301038693,新規,0,2024-06-04,2024-06-04,株式会社Ｔｏｉ,,株式会社,愛知県,刈谷市,丸田町１丁目１６番地１エルグランデ刈谷丸田町１３０１号,,23,210,4480033,,,,,,,2024-06-04,1,,,,,ティーオーアイ,0
669,3180303006137,新規,0,2024-06-04,2024-06-04,合同会社ＨａｒｍｏｎｙＬＩＦＥ,,合同会社,愛知県,豊橋市,中橋良町２７番地１ナカスギマンション２０１号室,,23,201,4418037,,,,,,,2024-06-04,1,,,,,ハーモニーライフ,0
673,3200001042555,新規,0,2024-06-04,2024-06-04,水月館株式会社,,株式会社,岐阜県,瑞浪市,松ヶ瀬町１丁目１３番地,,21,208,5096134,,,,,,,2024-06-04,1,,,,,スイゲツカン,0
677,3240001063300,新規,0,2024-06-04,2024-06-04,株式会社新晃マリン,,株式会社,広島県,呉市,中央５丁目１２番２８－２０３号,,34,202,7370051,,,,,,,2024-06-04,1,,,,,シンコウマリン,0
678,3240001063309,新規,0,2024-06-04,2024-06-04,株式会社弥栄プラス,,株式会社,広島県,江田島市,能美町中町５００３番地１８,,34,215,7372301,,,,,,,2024-06-04,1,,,,,イヤサカプラス,0
687,3290001105873,新規,0,2024-06-04,2024-06-04,株式会社ｌｕｍｉｑｕ　Ｂｅａｕｔｅ,,株式会社,福岡県,福岡市中央区,地行浜２丁目２号４番,,40,133,8100065,,,,,,,2024-06-04,1,,,,,ルミクボーテ,0
688,3290001105997,新規,0,2024-06-04,2024-06-04,株式会社泰造,,株式会社,福岡県,大野城市,東大利３丁目３番１号,,40,219,8160941,,,,,,,2024-06-04,1,,,,,タイゾウ,0
689,3290001106021,新規,0,2024-06-04,2024-06-04,株式会社アルファ,,株式会社,福岡県,福岡市中央区,天神４丁目６－２８天神ファーストビル７階,,40,133,8100001,,,,,,,2024-06-04,1,,,,,アルファ,0
694,3290003015352,新規,0,2024-06-04,2024-06-04,Ｋ．Ｕ合同会社,,合同会社,福岡県,古賀市,日吉３丁目２４番１４号ウインズ日吉１０２号,,40,223,8113106,,,,,,,2024-06-04,1,,,,,ケーユー,0
697,3290801030619,新規,0,2024-06-04,2024-06-04,株式会社木原工作所,,株式会社,福岡県,鞍手郡小竹町,大字新山崎４２２,,40,401,8201105,,,,,,,2024-06-04,1,,,,,キハラコウサクショ,0
698,3290803004744,新規,0,2024-06-04,2024-06-04,合同会社ＲＹＵＴＥＣ,,合同会社,福岡県,行橋市,大字草野４２８番地１４,,40,213,8240061,,,,,,,2024-06-04,1,,,,,リューテック,0
701,3310001019039,新規,0,2024-06-04,2024-06-04,株式会社川口住建,,株式会社,長崎県,南松浦郡新上五島町,有川郷１１７番地４,,42,411,8574211,,,,,,,2024-06-04,1,,,,,カワグチジュウケン,0
702,3310001019047,新規,0,2024-06-04,2024-06-04,株式会社デジマテラスダイニングス,,株式会社,長崎県,長崎市,稲佐町２番２号,,42,201,8528011,,,,,,,2024-06-04,1,,,,,デジマテラスダイニングス,0
707,3330003010407,新規,0,2024-06-04,2024-06-04,合同会社ウエダ,,合同会社,熊本県,合志市,須屋２９７番地８１,,43,216,8611102,,,,,,,2024-06-04,1,,,,,ウエダ,0
708,3340001026544,新規,0,2024-06-04,2024-06-04,株式会社Ａｌｕｈｉ,,株式会社,鹿児島県,鹿児島市,宮之浦町３５０４番地４,,46,201,8911305,,,,,,,2024-06-04,1,,,,,アルヒ,0
712,3370005010797,新規,0,2024-06-04,2024-06-04,一般社団法人おぼろ,,その他の設立登記法人,宮城県,多賀城市,八幡２丁目１７番２５号三塚ビル３階,,04,209,9850874,,,,,,,2024-06-04,1,,,,,オボロ,0
714,3380001034576,新規,0,2024-06-04,2024-06-04,株式会社横山電気工事店,,株式会社,福島県,南会津郡只見町,大字楢戸字上ノ原４５６番地,,07,367,9680431,,,,,,,2024-06-04,1,,,,,ヨコヤマデンキコウジテン,0
728,3430001091918,新規,0,2024-06-04,2024-06-04,株式会社Ｙ’ｓメンテナンス,,株式会社,北海道,札幌市西区,西野八条４丁目６番２０－１号,,01,107,0630038,,,,,,,2024-06-04,1,,,,,ワイズメンテナンス,0
729,3430001091926,新規,0,2024-06-04,2024-06-04,株式会社Ｒｅｌａｔｉｏｎｓ,,株式会社,北海道,札幌市北区,北十七条西５丁目２番１号,,01,102,0010017,,,,,,,2024-06-04,1,,,,,リレイション,0
730,3430001091942,新規,0,2024-06-04,2024-06-04,株式会社ネクストフィールド環境技研,,株式会社,北海道,札幌市豊平区,美園三条８丁目４番１号,,01,105,0620003,,,,,,,2024-06-04,1,,,,,ネクストフィールドカンキョウギケン,0
754,4010001245275,新規,0,2024-06-04,2024-06-04,株式会社ヴィクトリーチ,,株式会社,東京都,中央区,日本橋兜町１７－２兜町第６葉山ビル４Ｆ,,13,102,1030026,,,,,,,2024-06-04,1,,,,,ヴィクトリーチ,0
755,4010001245399,新規,0,2024-06-04,2024-06-04,Ｆｕｔｕｒｅ　Ｓｈｉｆｔ　Ｐａｒｔｎｅｒｓ株式会社,,株式会社,東京都,中央区,入船１丁目８番５号ＫＤＸレジデンス八丁堀２０１号室,,13,102,1040042,,,,,,,2024-06-04,1,,,,,フューチャーシフトパートナーズ,0
756,4010001245440,新規,0,2024-06-04,2024-06-04,株式会社夢乃茶,,株式会社,東京都,文京区,小石川５丁目２０番９号飯田ビル１階,,13,105,1120002,,,,,,,2024-06-04,1,,,,,ユメノチャ,0
758,4010003043891,新規,0,2024-06-04,2024-06-04,合同会社ＪＲＷＤファンド第９号,,合同会社,東京都,中央区,日本橋１丁目４番１号日本橋一丁目ビルディング,,13,102,1030027,,,,,,,2024-06-04,1,,,,,ジェイアールダブリューディーファンドダイキュウゴウ,0
770,4010401182853,新規,0,2024-06-04,2024-06-04,株式会社ＣＬＡＮ,,株式会社,東京都,港区,北青山１丁目３番１号アールキューブ青山３階,,13,103,1070061,,,,,,,2024-06-04,1,,,,,クラン,0
771,4010401182861,新規,0,2024-06-04,2024-06-04,杉本創薬研究所株式会社,,株式会社,東京都,港区,芝３丁目３番１４号３階,,13,103,1050014,,,,,,,2024-06-04,1,,,,,スギモトソウヤクケンキュウジョ,0
772,4010401182878,新規,0,2024-06-04,2024-06-04,株式会社ａｎｔｈｅｍ,,株式会社,東京都,港区,白金１丁目２番１－Ｅ５３０号,,13,103,1080072,,,,,,,2024-06-04,1,,,,,アンセム,0
773,4010401182886,新規,0,2024-06-04,2024-06-04,株式会社グッドピープル,,株式会社,東京都,港区,南青山６丁目１２番３－４０４号,,13,103,1070062,,,,,,,2024-06-04,1,,,,,グッドピープル,0
774,4010401182894,新規,0,2024-06-04,2024-06-04,ＥＦ　Ｅｃｏ　Ｓｏｌｕｔｉｏｎｓ株式会社,,株式会社,東京都,港区,西新橋３丁目２４番９号飯田ビル９階,,13,103,1050003,,,,,,,2024-06-04,1,,,,,イーエフエコソリューションズ,0
778,4010501052386,新規,0,2024-06-04,2024-06-04,株式会社ＵｎｉＥｖｏ,,株式会社,東京都,台東区,浅草橋５丁目８番１１号大富ビル２階,,13,106,1110053,,,,,,,2024-06-04,1,,,,,ユニエボ,0
783,4010903009109,新規,0,2024-06-04,2024-06-04,合同会社ｓｔａｎｃｅ．,,合同会社,東京都,世田谷区,中町３丁目２８番６号カティコ上野毛１０１,,13,112,1580091,,,,,,,2024-06-04,1,,,,,スタンス,0
788,4011001162386,新規,0,2024-06-04,2024-06-04,株式会社Ｌｕｃｅ,,株式会社,東京都,目黒区,原町１丁目１６番３号,,13,110,1520011,,,,,,,2024-06-04,1,,,,,ルーチェ,0
789,4011001162403,新規,0,2024-06-04,2024-06-04,株式会社アサヒ,,株式会社,東京都,渋谷区,道玄坂１丁目１２番１号渋谷マークシティウエスト２２階,,13,113,1500043,,,,,,,2024-06-04,1,,,,,アサヒ,0
790,4011003019304,新規,0,2024-06-04,2024-06-04,グッドマンジャパン成田多古町合同会社,,合同会社,東京都,渋谷区,恵比寿１丁目２０番２号７０４号室嶋本公認会計士事務所気付,,13,113,1500013,,,,,,,2024-06-04,1,,,,,グッドマンジャパンナリタタコマチ,0
794,4011103014460,新規,0,2024-06-04,2024-06-04,合同会社ＰＬＡＮＥＴ,,合同会社,東京都,新宿区,西新宿３丁目３番１３号西新宿水間ビル２Ｆ,,13,104,1600023,,,,,,,2024-06-04,1,,,,,プラネット,0
801,4011503006090,新規,0,2024-06-04,2024-06-04,合同会社桃色ノ水ヨウ,,合同会社,東京都,北区,赤羽１丁目７－９赤羽第一葉山ビル４Ｆ,,13,117,1150045,,,,,,,2024-06-04,1,,,,,モモイロノスイヨウ,0
806,4013301052597,新規,0,2024-06-04,2024-06-04,吉祥商貿株式会社,,株式会社,東京都,豊島区,巣鴨１丁目１７－３子野ビル６０１号室,,13,116,1700002,,,,,,,2024-06-04,1,,,,,キチジョウショウボウ,0
807,4013301052614,新規,0,2024-06-04,2024-06-04,玩宝集株式会社,,株式会社,東京都,豊島区,上池袋１丁目９－５光建ハイムブリリアンス上池袋４０３,,13,116,1700012,,,,,,,2024-06-04,1,,,,,ガンホウシュウ,0
811,4020001157552,新規,0,2024-06-04,2024-06-04,土屋総合設備株式会社,,株式会社,神奈川県,横浜市保土ケ谷区,坂本町２８４番地１７,,14,106,2400043,,,,,,,2024-06-04,1,,,,,ツチヤソウゴウセツビ,0
813,4020003026276,新規,0,2024-06-04,2024-06-04,合同会社ＺＡＮ,,合同会社,神奈川県,横浜市金沢区,堀口９番５号,,14,108,2360054,,,,,,,2024-06-04,1,,,,,ゼン,0
819,4021001082402,新規,0,2024-06-04,2024-06-04,株式会社日本冒険者ギルド,,株式会社,神奈川県,小田原市,酒匂４丁目１３番１１号,,14,206,2560816,,,,,,,2024-06-04,1,,,,,ニホンボウケンシャギルド,0
829,4030001160687,新規,0,2024-06-04,2024-06-04,日東ひまわり関東株式会社,,株式会社,埼玉県,深谷市,幡羅町１丁目８番５号,,11,218,3660032,,,,,,,2024-06-04,1,,,,,ニットウヒマワリカントウ,0
830,4030001160704,新規,0,2024-06-04,2024-06-04,ＤＯ株式会社,,株式会社,埼玉県,川口市,川口４丁目３番４３号,,11,203,3320015,,,,,,,2024-06-04,1,,,,,ディーオー,0
833,4030003024411,新規,0,2024-06-04,2024-06-04,合同会社アーデント,,合同会社,埼玉県,戸田市,喜沢１丁目１５番地の４（明日葉ハイツ２０３号室）,,11,224,3350013,,,,,,,2024-06-04,1,,,,,アーデント,0
836,4040001133857,新規,0,2024-06-04,2024-06-04,株式会社幸包,,株式会社,千葉県,柏市,花野井２４１番地１,,12,217,2770812,,,,,,,2024-06-04,1,,,,,シアワセヅツミ,0
837,4040001133915,新規,0,2024-06-04,2024-06-04,ソフトエージェント株式会社,,株式会社,千葉県,市川市,南八幡４丁目２－５,,12,203,2720023,,,,,,,2024-06-04,1,,,,,ソフトエージェント,0
852,4080101024787,新規,0,2024-06-04,2024-06-04,株式会社山総,,株式会社,静岡県,御殿場市,杉名沢３８３番地の２,,22,215,4120044,,,,,,,2024-06-04,1,,,,,,0
869,4120001265568,新規,0,2024-06-04,2024-06-04,株式会社ａｒａｔａ,,株式会社,大阪府,大阪市西区,新町１丁目４番２４号大阪四ツ橋新町ビル７階,,27,106,5500013,,,,,,,2024-06-04,1,,,,,アラタ,0
872,4120003026687,新規,0,2024-06-04,2024-06-04,合同会社Ｊａｐｏｎ　Ｐｒｉｖｅ,,合同会社,大阪府,大阪市北区,天満橋２丁目２番８－４０１,,27,127,5300042,,,,,,,2024-06-04,1,,,,,ジャポンプリヴェ,0
873,4120003026745,新規,0,2024-06-04,2024-06-04,合同会社あすなろ,,合同会社,大阪府,大阪市東淀川区,瑞光３丁目１０番３２－２０６号,,27,114,5330005,,,,,,,2024-06-04,1,,,,,アスナロ,0
881,4120901049269,新規,0,2024-06-04,2024-06-04,ＴＨＥ　ＦＵＮ株式会社,,株式会社,大阪府,吹田市,広芝町１０―８董友ビル４１６号,,27,205,5640052,,,,,,,2024-06-04,1,,,,,ザファン,0
889,4130001077062,新規,0,2024-06-04,2024-06-04,ＫＳＴ　Ｇｒｏｕｐ株式会社,,株式会社,京都府,宇治市,木幡熊小路３８－９ユニ宇治川マンション５－３０８,,26,204,6110002,,,,,,,2024-06-04,1,,,,,ケーエスティーグループ,0
890,4130001077153,新規,0,2024-06-04,2024-06-04,ｓｉｎｎ　ｂｒａｎｄｉｎｇ株式会社,,株式会社,京都府,京都市中京区,西ノ京南両町１１６番地,,26,104,6048493,,,,,,,2024-06-04,1,,,,,シンブランディング,0
891,4130001077186,新規,0,2024-06-04,2024-06-04,株式会社Ｕ‐ｃｏｎｎｅｃｔ,,株式会社,京都府,長岡京市,天神２丁目１番１２号,,26,209,6170824,,,,,,,2024-06-04,1,,,,,ユーコネクト,0
892,4130001077194,新規,0,2024-06-04,2024-06-04,株式会社アニビアワークス,,株式会社,京都府,京都市中京区,御池通東洞院東入笹屋町４３６,,26,104,6048187,,,,,,,2024-06-04,1,,,,,アニビアワークス,0
894,4130003009609,新規,0,2024-06-04,2024-06-04,合同会社室町ブレース,,合同会社,京都府,京都市中京区,蛸薬師通猪熊西入畳屋町４１９番地１,,26,104,6048351,,,,,,,2024-06-04,1,,,,,ムロマチブレース,0
898,4140001134614,新規,0,2024-06-04,2024-06-04,株式会社ミーツ,,株式会社,兵庫県,川西市,出在家町２３番１号,,28,217,6660011,,,,,,,2024-06-04,1,,,,,ミーツ,0
899,4140001134630,新規,0,2024-06-04,2024-06-04,株式会社ヒロマシナリー,,株式会社,兵庫県,川辺郡猪名川町,つつじが丘１丁目１１番地１４,,28,301,6660245,,,,,,,2024-06-04,1,,,,,ヒロマシナリー,0
900,4140001134647,新規,0,2024-06-04,2024-06-04,株式会社いろどり,,株式会社,兵庫県,西宮市,堀切町８番３０－４０９号,,28,204,6620953,,,,,,,2024-06-04,1,,,,,イロドリ,0
902,4140003020663,新規,0,2024-06-04,2024-06-04,合同会社縁仁,,合同会社,兵庫県,神戸市北区,惣山町４丁目１番地の２１,,28,109,6511145,,,,,,,2024-06-04,1,,,,,エンジン,0
904,4150005009596,新規,0,2024-06-04,2024-06-04,一般社団法人山足烏,,その他の設立登記法人,奈良県,吉野郡吉野町,大字樫尾５１－１,,29,441,6393436,,,,,,,2024-06-04,1,,,,,サンソクウ,0
905,4160001025968,新規,0,2024-06-04,2024-06-04,ＳｅａｍＬｅｓｓ株式会社,,株式会社,滋賀県,長浜市,石田町７６２番地２１,,25,203,5260814,,,,,,,2024-06-04,1,,,,,シームレス,0
911,4180001161786,新規,0,2024-06-04,2024-06-04,株式会社エレガントエンタープライズ,,株式会社,愛知県,海部郡大治町,大字長牧字浦畑４１番地の２,,23,424,4901131,,,,,,,2024-06-04,1,,,,,エレガントエンタープライズ,0
915,4180303006136,新規,0,2024-06-04,2024-06-04,合同会社幸え,,合同会社,愛知県,豊橋市,森岡町６番地の４,,23,201,4411114,,,,,,,2024-06-04,1,,,,,サチワエ,0
917,4180305009574,新規,0,2024-06-04,2024-06-04,税理士法人奥谷会計事務所,,その他の設立登記法人,愛知県,碧南市,山神町７丁目４番地,,23,209,4470869,,,,,,,2024-06-04,1,,,,,オクヤカイケイジムショ,0
918,4190001031377,新規,0,2024-06-04,2024-06-04,株式会社Ｂｉｔｓｌｉｎｅ,,株式会社,三重県,桑名市,多度町古野１０８９番地２,,24,205,5110122,,,,,,,2024-06-04,1,,,,,ビッツライン,0
919,4190001031385,新規,0,2024-06-04,2024-06-04,株式会社塩澤ホールディングス,,株式会社,三重県,桑名市,大字小貝須１２０１番地,,24,205,5110841,,,,,,,2024-06-04,1,,,,,シオザワホールディングス,0
920,4190003004694,新規,0,2024-06-04,2024-06-04,合同会社ＬＩＮＫ,,合同会社,三重県,桑名市,大字島田９２２番地３０,,24,205,5110936,,,,,,,2024-06-04,1,,,,,リンク,0
921,4200001042554,新規,0,2024-06-04,2024-06-04,株式会社１６８,,株式会社,岐阜県,岐阜市,北一色２丁目４番２３号,,21,201,5008227,,,,,,,2024-06-04,1,,,,,イロハ,0
923,4210001019774,新規,0,2024-06-04,2024-06-04,株式会社ＣＨＡＲＬＩＥ,,株式会社,福井県,鯖江市,日の出町２－１鯖江駅前ビル１０９－２Ｆ,,18,207,9160053,,,,,,,2024-06-04,1,,,,,チャーリー,0
930,4240001063324,新規,0,2024-06-04,2024-06-04,株式会社テレマックス,,株式会社,広島県,呉市,阿賀北５丁目５番１３号,,34,202,7370001,,,,,,,2024-06-04,1,,,,,テレマックス,0
931,4240001063332,新規,0,2024-06-04,2024-06-04,株式会社なか,,株式会社,広島県,安芸郡府中町,八幡２丁目１３番３５－７号,,34,302,7350012,,,,,,,2024-06-04,1,,,,,ナカ,0
934,4240003006702,新規,0,2024-06-04,2024-06-04,Ｓｅｑｕｅｎｃｅ　Ｓｔｕｄｉｏ合同会社,,合同会社,広島県,広島市東区,牛田新町３丁目５５番２号,,34,102,7320068,,,,,,,2024-06-04,1,,,,,シークエンススタジオ,0
935,4260001039132,新規,0,2024-06-04,2024-06-04,株式会社ＳＡＫＡＩ,,株式会社,岡山県,岡山市北区,久米２６１番地２,,33,101,7010144,,,,,,,2024-06-04,1,,,,,サカイ,0
948,4290805009749,新規,0,2024-06-04,2024-06-04,一般社団法人日本カード占い協会,,その他の設立登記法人,福岡県,北九州市門司区,原町別院５番２６号１０３号室,,40,101,8000037,,,,,,,2024-06-04,1,,,,,ニホンカードウラナイキョウカイ,0
958,4350003004661,新規,0,2024-06-04,2024-06-04,合同会社ヨネクラ,,合同会社,宮崎県,延岡市,鶴ケ丘２丁目２０４８－７,,45,203,8820865,,,,,,,2024-06-04,1,,,,,ヨネクラ,0
959,4360003014040,新規,0,2024-06-04,2024-06-04,合同会社五十一鈴,,合同会社,沖縄県,宮古島市,平良字下里１５４８番地２１・３０１,,47,214,9060013,,,,,,,2024-06-04,1,,,,,ゴジュウイチリン,0
960,4360005007050,新規,0,2024-06-04,2024-06-04,一般社団法人未来のもり,,その他の設立登記法人,沖縄県,那覇市,牧志２丁目１７番２７－４０１号,,47,201,9000013,,,,,,,2024-06-04,1,,,,,ミライノモリ,0
961,4370001051357,新規,0,2024-06-04,2024-06-04,株式会社キフテラス,,株式会社,宮城県,仙台市泉区,八乙女中央２丁目５番７号,,04,105,9813135,,,,,,,2024-06-04,1,,,,,キフテラス,0
963,4380001034583,新規,0,2024-06-04,2024-06-04,株式会社Ｆａｎ　Ｄｉｉ　Ｎａ,,株式会社,福島県,福島市,宮町６番１５号,,07,201,9608106,,,,,,,2024-06-04,1,,,,,ファンディーナ,0
970,4400005008424,新規,0,2024-06-04,2024-06-04,一般社団法人安心生活,,その他の設立登記法人,岩手県,盛岡市,青山３丁目３６番１－２０３号,,03,201,0200133,,,,,,,2024-06-04,1,,,,,アンシンセイカツ,0
977,4420003002930,新規,0,2024-06-04,2024-06-04,合同会社Ｎｉｃｏ,,合同会社,青森県,十和田市,東十三番町３３番１８－１０号向井宅２Ｆ,,02,206,0340023,,,,,,,2024-06-04,1,,,,,ニコ,0
991,4700150092085,新規,0,2024-06-04,2018-12-20,神崎郡青少年補導センター,,その他,兵庫県,神崎郡市川町,西川辺１７７,,28,442,6792315,,,,,,,2018-12-20,1,,,,,カンザキグンセイシヨウネンホドウセンター,0
993,4700150125506,新規,0,2024-06-04,2024-05-23,ザ・グランクーブス管理組合,,その他,群馬県,高崎市,宮元町２９２,,10,202,3700828,,,,,,,2024-05-23,1,,,,,ザグランクーブスカンリクミアイ,0
1002,5010001245398,新規,0,2024-06-04,2024-06-04,株式会社ジョイニング,,株式会社,東京都,中央区,銀座７丁目６番６号,,13,102,1040061,,,,,,,2024-06-04,1,,,,,ジョイニング,0
1003,5010001245423,新規,0,2024-06-04,2024-06-04,Ｆｏｒｔｉｓ　Ｍａｎａｇｅｍｅｎｔ株式会社,,株式会社,東京都,中央区,銀座１丁目１２番４号Ｎ＆ＥＢＬＤ．６Ｆ,,13,102,1040061,,,,,,,2024-06-04,1,,,,,フォーティスマネジメント,0
1006,5010005038369,新規,0,2024-06-04,2024-06-04,一般社団法人Ｄａｎｃｅ　Ａｒｔｓ　ｆｏｒ　Ｊａｐａｎ,,その他の設立登記法人,東京都,千代田区,五番町５番地１８Ｂ１ＫＭＤａｎｃｅＡｒｔｓ内,,13,101,1020076,,,,,,,2024-06-04,1,,,,,ダンスアーツフォージャパン,0
1018,5010401182919,新規,0,2024-06-04,2024-06-04,Ｇｒｏｗｔｈ　Ｈｕｂ株式会社,,株式会社,東京都,港区,浜松町２丁目２番１５号浜松町ダイヤビル２Ｆ,,13,103,1050013,,,,,,,2024-06-04,1,,,,,,0
1029,5010703007204,新規,0,2024-06-04,2024-06-04,合同会社フリーフリーダム,,合同会社,東京都,品川区,荏原１丁目８番４号,,13,109,1420063,,,,,,,2024-06-04,1,,,,,フリーフリーダム,0
1031,5010901055392,新規,0,2024-06-04,2024-06-04,株式会社秦ライフサポート,,株式会社,東京都,世田谷区,代田６丁目１５番１７号,,13,112,1550033,,,,,,,2024-06-04,1,,,,,ハタライフサポート,0
1032,5010901055401,新規,0,2024-06-04,2024-06-04,株式会社ゆくる,,株式会社,東京都,世田谷区,若林２丁目３７番地９号秀和若林レジデンス１０６,,13,112,1540023,,,,,,,2024-06-04,1,,,,,ユクル,0
1033,5010903009108,新規,0,2024-06-04,2024-06-04,合同会社Ｍｅｌａｃａｖｏ,,合同会社,東京都,世田谷区,豪徳寺２丁目１５番２３号,,13,112,1540021,,,,,,,2024-06-04,1,,,,,メラカーヴォ,0
1038,5011001162476,新規,0,2024-06-04,2024-06-04,株式会社フルッテ,,株式会社,東京都,渋谷区,恵比寿西２丁目８番４号ＥＸ恵比寿西ビル５階,,13,113,1500021,,,,,,,2024-06-04,1,,,,,フルッテ,0
1040,5011003019294,新規,0,2024-06-04,2024-06-04,Ｃｈｌｏｅ　Ａｒｔ　Ｏｆｆｉｃｅ合同会社,,合同会社,東京都,渋谷区,神宮前１丁目１番５号,,13,113,1500001,,,,,,,2024-06-04,1,,,,,クロエアートオフィス,0
1041,5011003019303,新規,0,2024-06-04,2024-06-04,合同会社Ｌｕｚｖｅｎｔ,,合同会社,東京都,渋谷区,恵比寿西２丁目８番４号ＥＸ恵比寿西ビル５階,,13,113,1500021,,,,,,,2024-06-04,1,,,,,ラズヴェント,0
1045,5011301029722,新規,0,2024-06-04,2024-06-04,株式会社ガトツ,,株式会社,東京都,杉並区,高円寺北１丁目２０番１６号－２０２,,13,115,1660002,,,,,,,2024-06-04,1,,,,,ガトツ,0
1052,5011501030752,新規,0,2024-06-04,2024-06-04,延旭株式会社,,株式会社,東京都,荒川区,東尾久４丁目２５－２スカイコート田端第２・４０２室,,13,118,1160012,,,,,,,2024-06-04,1,,,,,エンキョク,0
1054,5011701027342,新規,0,2024-06-04,2024-06-04,普発特精密機械株式会社,,株式会社,東京都,江戸川区,南小岩７丁目２８番１１－５０３号ファーストセントラルビル,,13,123,1330056,,,,,,,2024-06-04,1,,,,,パーファトルセイミツキカイ,0
1059,5011803006269,新規,0,2024-06-04,2024-06-04,合同会社Ｍｏｏｎｄｕｓｔ,,合同会社,東京都,葛飾区,鎌倉３丁目１１番７号,,13,122,1250053,,,,,,,2024-06-04,1,,,,,ムーンダスト,0
1065,5013303007160,新規,0,2024-06-04,2024-06-04,マゼンタ合同会社,,合同会社,東京都,豊島区,南大塚２丁目１６－４－ＢＦ１,,13,116,1700005,,,,,,,2024-06-04,1,,,,,マゼンタ,0
1071,5020001157551,新規,0,2024-06-04,2024-06-04,朝日株式会社,,株式会社,神奈川県,横浜市旭区,中沢１丁目８番５号,,14,112,2410814,,,,,,,2024-06-04,1,,,,,アサヒ,0
1074,5020003026283,新規,0,2024-06-04,2024-06-04,ミャオ合同会社,,合同会社,神奈川県,川崎市麻生区,栗平２丁目１番１５－６０１号,,14,137,2150031,,,,,,,2024-06-04,1,,,,,ミャオ,0
1080,5021003014583,新規,0,2024-06-04,2024-06-04,合同会社さらしな,,合同会社,神奈川県,横須賀市,佐原４丁目２‐１１,,14,201,2390835,,,,,,,2024-06-04,1,,,,,サラシナ,0
1083,5030001160686,新規,0,2024-06-04,2024-06-04,株式会社リアライズ,,株式会社,埼玉県,さいたま市大宮区,吉敷町２丁目８５番地３アクシーズタワー新都心３０３,,11,103,3300843,,,,,,,2024-06-04,1,,,,,リアライズ,0
1084,5030001160703,新規,0,2024-06-04,2024-06-04,オールパッケージ株式会社,,株式会社,埼玉県,さいたま市岩槻区,加倉４丁目２２番３９号,,11,110,3390056,,,,,,,2024-06-04,1,,,,,オールパッケージ,0
1091,5040001133856,新規,0,2024-06-04,2024-06-04,株式会社ＷＥＬＴ,,株式会社,千葉県,千葉市花見川区,幕張本郷５丁目５番３７号グラツィオ幕張本郷１０１号,,12,102,2620033,,,,,,,2024-06-04,1,,,,,ヴェルト,0
1092,5040003025093,新規,0,2024-06-04,2024-06-04,合同会社Ｒｅｓｔａｒｄ,,合同会社,千葉県,千葉市若葉区,桜木２丁目２５番３号,,12,104,2640028,,,,,,,2024-06-04,1,,,,,リスタード,0
1093,5040003025102,新規,0,2024-06-04,2024-06-04,合同会社神田ＢＡＮＫ,,合同会社,千葉県,我孫子市,本町１丁目３番１３－１３０２号Ｆ・ＴＯＵＲ,,12,222,2701151,,,,,,,2024-06-04,1,,,,,カンダバンク,0
1103,5080401027225,新規,0,2024-06-04,2024-06-04,ＡＢＪ株式会社,,株式会社,静岡県,浜松市中央区,入野町６２３４番地ロイヤルシングル４０,,22,138,4328061,,,,,,,2024-06-04,1,,,,,エービージェー,0
1105,5100001037522,新規,0,2024-06-04,2024-06-04,株式会社山楽,,株式会社,長野県,上水内郡飯綱町,大字川上２７５５番地２３４７,,20,590,3891226,,,,,,,2024-06-04,1,,,,,サンラク,0
1106,5100005013180,新規,0,2024-06-04,2024-06-04,一般社団法人人付き合いと金融知力向上育成協会,,その他の設立登記法人,長野県,長野市,若穂綿内６３６３番地１８,,20,201,3810101,,,,,,,2024-06-04,1,,,,,ヒトヅキアイトキンユウチリョクコウジョウイクセイキョウカイ,0
1107,5110001038453,新規,0,2024-06-04,2024-06-04,株式会社アクシアヒーバック,,株式会社,新潟県,新潟市西区,青山新町２８番地３,,15,107,9502006,,,,,,,2024-06-04,1,,,,,アクシアヒーバック,0
1113,5120001265187,新規,0,2024-06-04,2024-06-04,株式会社ＬＥＤ関西,,株式会社,大阪府,大阪市中央区,南船場３丁目８－５南船場ビル３０１,,27,128,5420081,,,,,,,2024-06-04,1,,,,,エルイーディーカンサイ,0
1114,5120001265360,新規,0,2024-06-04,2024-06-04,株式会社テトリスソリューション,,株式会社,大阪府,大阪市北区,梅田１丁目１番３号大阪駅前第３ビル２９階１－１－１号室,,27,127,5300001,,,,,,,2024-06-04,1,,,,,テトリスソリューション,0
1115,5120001265501,新規,0,2024-06-04,2024-06-04,株式会社ＣＡＩＭ,,株式会社,大阪府,大阪市中央区,北新町４番５号グランドシーズ大手前４０１,,27,128,5400023,,,,,,,2024-06-04,1,,,,,カイム,0
1116,5120001265534,新規,0,2024-06-04,2024-06-04,ＲＥＤ　ＳＴＯＮＥ株式会社,,株式会社,大阪府,大阪市東淀川区,下新庄２丁目８番１６号２０２号室,,27,114,5330021,,,,,,,2024-06-04,1,,,,,レッドストーン,0
1121,5120903005203,新規,0,2024-06-04,2024-06-04,さんふるとり合同会社,,合同会社,大阪府,豊中市,少路１丁目１４番９－９０２号,,27,203,5600004,,,,,,,2024-06-04,1,,,,,サンフルトリ,0
1128,5130001077177,新規,0,2024-06-04,2024-06-04,株式会社ＣＬＯ,,株式会社,京都府,京都市山科区,小野御所ノ内町１番地２８６,,26,110,6078255,,,,,,,2024-06-04,1,,,,,シーエルオー,0
1129,5130001077193,新規,0,2024-06-04,2024-06-04,株式会社植野工務店,,株式会社,京都府,京都市伏見区,桃山町山ノ下６６番地２６,,26,109,6128002,,,,,,,2024-06-04,1,,,,,ウエノコウムテン,0
1136,5140001134621,新規,0,2024-06-04,2024-06-04,株式会社ゼスティア,,株式会社,兵庫県,芦屋市,浜町１３番２９－２１１号,,28,206,6590025,,,,,,,2024-06-04,1,,,,,ゼスティア,0
1137,5140001134679,新規,0,2024-06-04,2024-06-04,太田建設株式会社,,株式会社,兵庫県,伊丹市,北本町１丁目１３７番地,,28,207,6640836,,,,,,,2024-06-04,1,,,,,オオタケンセツ,0
1142,5140003020638,新規,0,2024-06-04,2024-06-04,合同会社セーフネット,,合同会社,兵庫県,神戸市中央区,磯上通４丁目１番３２－４０７号,,28,110,6510086,,,,,,,2024-06-04,1,,,,,セーフネット,0
1143,5140003020662,新規,0,2024-06-04,2024-06-04,合同会社Ｍ．Ｔ．Ｌ,,合同会社,兵庫県,姫路市,城北新町１丁目１１－１５,,28,201,6700883,,,,,,,2024-06-04,1,,,,,エムティーエル,0
1148,5150001027320,新規,0,2024-06-04,2024-06-04,株式会社ＪＸ,,株式会社,奈良県,生駒市,桜ケ丘３－５６,,29,209,6300211,,,,,,,2024-06-04,1,,,,,ジェイエックス,0
1150,5160001025975,新規,0,2024-06-04,2024-06-04,株式会社レックスエイド,,株式会社,滋賀県,守山市,水保町１２９５番地６,,25,207,5240102,,,,,,,2024-06-04,1,,,,,レックスエイド,0
1163,5180001161785,新規,0,2024-06-04,2024-06-04,カーサアクシア株式会社,,株式会社,愛知県,北名古屋市,高田寺北の川４６番地,,23,234,4810011,,,,,,,2024-06-04,1,,,,,カーサアクシア,0
1170,5180003026879,新規,0,2024-06-04,2024-06-04,合同会社雨水埜,,合同会社,愛知県,常滑市,字高坂３９番地の５,,23,216,4790016,,,,,,,2024-06-04,1,,,,,アマミヤ,0
1173,5180301038691,新規,0,2024-06-04,2024-06-04,株式会社Ｉ’ｍ　Ｔｈｅ　Ｕｎｉｖｅｒｓｅ,,株式会社,愛知県,刈谷市,今川町田地池４４番地７,,23,210,4480005,,,,,,,2024-06-04,1,,,,,アイムザユニバース,0
1177,5200001042553,新規,0,2024-06-04,2024-06-04,株式会社Ｈ,,株式会社,岐阜県,岐阜市,上土居４丁目１番６号,,21,201,5020803,,,,,,,2024-06-04,1,,,,,エイチ,0
1192,5240001063315,新規,0,2024-06-04,2024-06-04,中健株式会社,,株式会社,広島県,広島市安佐南区,緑井４丁目１２番１号,,34,105,7310103,,,,,,,2024-06-04,1,,,,,ナカケン,0
1193,5240001063323,新規,0,2024-06-04,2024-06-04,株式会社元永会計,,株式会社,広島県,広島市南区,段原２丁目１４番１１号２Ｆ,,34,103,7320811,,,,,,,2024-06-04,1,,,,,モトナガカイケイ,0
1208,5290001105970,新規,0,2024-06-04,2024-06-04,株式会社ＭＥＤＬＡＣ,,株式会社,福岡県,福岡市東区,香椎駅東４丁目４５番２５号,,40,131,8130012,,,,,,,2024-06-04,1,,,,,メドラック,0
1213,5300001013759,新規,0,2024-06-04,2024-06-04,株式会社九州社寺建築,,株式会社,佐賀県,唐津市,鎮西町赤木３０８７番地,,41,202,8470312,,,,,,,2024-06-04,1,,,,,キュウシュウシャジケンチク,0
1214,5310001019037,新規,0,2024-06-04,2024-06-04,株式会社握りのはやし,,株式会社,長崎県,長崎市,葉山２丁目３番１４号,,42,201,8528053,,,,,,,2024-06-04,1,,,,,ニギリノハヤシ,0
1215,5310001019053,新規,0,2024-06-04,2024-06-04,株式会社まど屋,,株式会社,長崎県,諫早市,川床町２０４番地,,42,204,8540052,,,,,,,2024-06-04,1,,,,,マドヤ,0
1220,5330001032129,新規,0,2024-06-04,2024-06-04,株式会社青天,,株式会社,熊本県,八代市,上片町１３５１番地１,,43,202,8660813,,,,,,,2024-06-04,1,,,,,セイテン,0
1221,5330003010405,新規,0,2024-06-04,2024-06-04,合同会社ＹＭＤ,,合同会社,熊本県,熊本市中央区,草葉町２番３２号２Ａ,,43,101,8600843,,,,,,,2024-06-04,1,,,,,ワイエムディー,0
1222,5330005010799,新規,0,2024-06-04,2024-06-04,税理士法人さくらぎ会計,,その他の設立登記法人,熊本県,熊本市東区,花立５丁目１２番１２号,,43,102,8620918,,,,,,,2024-06-04,1,,,,,サクラギカイケイ,0
1227,5360001033743,新規,0,2024-06-04,2024-06-04,株式会社ｏｐｔｉｍｕｍ,,株式会社,沖縄県,宮古島市,平良字下里１０７７番地１,,47,214,9060013,,,,,,,2024-06-04,1,,,,,オプティマム,0
1228,5360001033751,新規,0,2024-06-04,2024-06-04,株式会社佐藤林業,,株式会社,沖縄県,石垣市,字石垣４２番地守下ビル４Ｆ南,,47,207,9070023,,,,,,,2024-06-04,1,,,,,サトウリンギョウ,0
1238,5380001034574,新規,0,2024-06-04,2024-06-04,渡建設株式会社,,株式会社,福島県,西白河郡西郷村,大字米字間ノ原４１番地８,,07,461,9618031,,,,,,,2024-06-04,1,,,,,ワタリケンセツ,0
1248,5430003016391,新規,0,2024-06-04,2024-06-04,合同会社Ｊ．Ｓ．Ｋ．ＯＶＥＲＳＥＡＳ　ＰＬＡＣＥＭＥＮＴ．,,合同会社,北海道,日高郡新ひだか町,静内田原４６２番地の５,,01,610,0560144,,,,,,,2024-06-04,1,,,,,ジェイエスケイオーバーシーズプレイスメント,0
1251,5460301005226,新規,0,2024-06-04,2024-06-04,ＭＳＴ株式会社,,株式会社,北海道,北見市,東相内町７２番地１９,,01,208,0990878,,,,,,,2024-06-04,1,,,,,エムエスティ,0
1257,5500001025668,新規,0,2024-06-04,2024-06-04,株式会社ＷＩＤＥＣＯＮＮＥＣＴＩＯＮ,,株式会社,愛媛県,松山市,井門町２５９番地１,,38,201,7911114,,,,,,,2024-06-04,1,,,,,ワイドコネクション,0
1269,6010001245397,新規,0,2024-06-04,2024-06-04,株式会社Ｐｒｅｍｉｕｍ　Ｄｅｓｋ,,株式会社,東京都,千代田区,丸の内１丁目８－３丸の内トラストタワー本館２０階,,13,101,1000005,,,,,,,2024-06-04,1,,,,,プレミアムデスク,0
1270,6010001245439,新規,0,2024-06-04,2024-06-04,Ｍｉｘａｍ　Ｊａｐａｎ株式会社,,株式会社,東京都,千代田区,霞が関３丁目２番６号東京倶楽部ビルディング１１階,,13,101,1000013,,,,,,,2024-06-04,1,,,,,ミクサムジャパン,0
1271,6010003043915,新規,0,2024-06-04,2024-06-04,合同会社トバリソフト,,合同会社,東京都,千代田区,神田和泉町１番地６－１６ヤマトビル４０５,,13,101,1010024,,,,,,,2024-06-04,1,,,,,トバリソフト,0
1272,6010003043923,新規,0,2024-06-04,2024-06-04,札幌南６西７ホテルマネジメント合同会社,,合同会社,東京都,千代田区,霞が関３丁目２番１号,,13,101,1000013,,,,,,,2024-06-04,1,,,,,サッポロミナミロクニシナナホテルマネジメント,0
1273,6010005038368,新規,0,2024-06-04,2024-06-04,一般社団法人ＫＥＩＯ　ＬＡＣＲＯＳＳＥ　ＢＡＳＥ,,その他の設立登記法人,東京都,中央区,銀座１丁目２２番１１号銀座大竹ビジデンス２Ｆ,,13,102,1040061,,,,,,,2024-06-04,1,,,,,ケイオウラクロスベース,0
1281,6010401182769,新規,0,2024-06-04,2024-06-04,Ｘ‐ＡＩ．Ｌａｂｏ株式会社,,株式会社,東京都,港区,南青山３丁目１番３４号３ｒｄＭＩＮＡＭＩＡＯＹＡＭＡ１１階,,13,103,1070062,,,,,,,2024-06-04,1,,,,,クロスエーアイラボ,0
1282,6010401182876,新規,0,2024-06-04,2024-06-04,ダイレクトゴルフ株式会社,,株式会社,東京都,港区,西麻布１丁目１４番１６号ベルジュール麻布５０１,,13,103,1060031,,,,,,,2024-06-04,1,,,,,ダイレクトゴルフ,0
1283,6010401182884,新規,0,2024-06-04,2024-06-04,株式会社ＷＡＩ‐ＴＡＶ　Ａｉｒｐｏｒｔ　Ｓｅｒｖｉｃｅ,,株式会社,東京都,港区,赤坂２丁目１１番４号,,13,103,1070052,,,,,,,2024-06-04,1,,,,,ダブルエーアイティーエーヴイエアポートサービス,0
1285,6010403032757,新規,0,2024-06-04,2024-06-04,合同会社Ｒｅｓｉｄｅｎｃｅ　Ｌａｂ,,合同会社,東京都,港区,南青山２丁目２番１５号,,13,103,1070062,,,,,,,2024-06-04,1,,,,,レジデンスラボ,0
1286,6010405023267,新規,0,2024-06-04,2024-06-04,一般社団法人高齢社会ビジョン研究会,,その他の設立登記法人,東京都,港区,芝５丁目３１番１５号センチュリー三田ビル７階,,13,103,1080014,,,,,,,2024-06-04,1,,,,,コウレイシャカイビジョンケンキュウカイ,0
1289,6010601065311,新規,0,2024-06-04,2024-06-04,株式会社かしの木,,株式会社,東京都,江東区,常盤１丁目６番５号,,13,108,1350006,,,,,,,2024-06-04,1,,,,,カシノキ,0
1294,6010701046079,新規,0,2024-06-04,2024-06-04,株式会社Ｍ　Ｈａｐｐｙ,,株式会社,東京都,品川区,北品川１丁目８番１１号,,13,109,1400001,,,,,,,2024-06-04,1,,,,,エムハッピィ,0
1299,6010903009107,新規,0,2024-06-04,2024-06-04,合同会社ミッドタウン,,合同会社,東京都,世田谷区,成城２丁目３４番３号,,13,112,1570066,,,,,,,2024-06-04,1,,,,,ミッドタウン,0
1302,6011001162475,新規,0,2024-06-04,2024-06-04,株式会社きがるな,,株式会社,東京都,渋谷区,道玄坂１丁目１０番８号渋谷道玄坂東急ビル２Ｆ‐Ｃ,,13,113,1500043,,,,,,,2024-06-04,1,,,,,キガルナ,0
1305,6011003019302,新規,0,2024-06-04,2024-06-04,合同会社Ｈｅｍｓｓ,,合同会社,東京都,渋谷区,広尾４丁目１－３０－９０１,,13,113,1500012,,,,,,,2024-06-04,1,,,,,ヘムス,0
1316,6011301029721,新規,0,2024-06-04,2024-06-04,株式会社Ｂｒｏｏｍ　Ｐｏｗｅｒｓ,,株式会社,東京都,杉並区,高円寺南２丁目２４番２３号,,13,115,1660003,,,,,,,2024-06-04,1,,,,,ブルームパワース,0
1319,6011701027341,新規,0,2024-06-04,2024-06-04,ビッカ投資コンサルティング株式会社,,株式会社,東京都,江戸川区,中葛西５丁目４１番１０号ＢＰＲプレイス葛西７Ｆ－１１,,13,123,1340083,,,,,,,2024-06-04,1,,,,,ビッカトウシコンサルティング,0
1320,6011801044328,新規,0,2024-06-04,2024-06-04,株式会社戸田建装,,株式会社,東京都,足立区,中央本町４丁目４番１２号,,13,121,1210011,,,,,,,2024-06-04,1,,,,,トダケンソウ,0
1321,6012303001998,新規,0,2024-06-04,2024-06-04,合同会社ＴＡＪＳＭ,,合同会社,東京都,町田市,原町田４丁目１０番１９号ソフィア町田１１１０,,13,209,1940013,,,,,,,2024-06-04,1,,,,,タズム,0
1328,6013303007110,新規,0,2024-06-04,2024-06-04,合同会社語音,,合同会社,東京都,豊島区,上池袋４丁目１０番８号ソネット上池袋７０９号,,13,116,1700012,,,,,,,2024-06-04,1,,,,,ゴオン,0
1333,6020001157402,新規,0,2024-06-04,2024-06-04,株式会社Ｓ．Ｔ,,株式会社,神奈川県,横浜市港北区,小机町１３６５番地１グレイスパーク小机３０６,,14,109,2220036,,,,,,,2024-06-04,1,,,,,エスティー,0
1334,6020003026274,新規,0,2024-06-04,2024-06-04,ＪＡＰＡＮ　ＣＯＭＩＣ　ＡＲＴ　ＥＸＰＯ合同会社,,合同会社,神奈川県,川崎市川崎区,伊勢町３番１６号Ｇｒａｃｅ－Ｉ１０２,00135012,14,131,2100805,,,,,,,2024-06-04,1,,,,,ジャパンコミックアートエキスポ,0
1344,6030001160685,新規,0,2024-06-04,2024-06-04,Ｗｅｌｌ　Ｄｒａｇｏｎ株式会社,,株式会社,埼玉県,春日部市,大場９９１番地１武蔵ビル７階,,11,214,3440021,,,,,,,2024-06-04,1,,,,,ウェルドラゴン,0
1345,6030001160702,新規,0,2024-06-04,2024-06-04,鈴木商事株式会社,,株式会社,埼玉県,三郷市,彦野１丁目１１０番地３,,11,237,3410052,,,,,,,2024-06-04,1,,,,,スズキショウジ,0
1347,6030005021719,新規,0,2024-06-04,2024-06-04,特定非営利活動法人ねこネットワーク,,その他の設立登記法人,埼玉県,蕨市,中央３丁目１６番９号,,11,223,3350004,,,,,,,2024-06-04,1,,,,,ネコネットワーク,0
1351,6040001133806,新規,0,2024-06-04,2024-06-04,株式会社Ｂ‐ＳＫＩＬＬＳ,,株式会社,千葉県,千葉市花見川区,さつきが丘１丁目２６番地１７,,12,102,2620014,,,,,,,2024-06-04,1,,,,,ビースキルズ,0
1352,6040001133863,新規,0,2024-06-04,2024-06-04,壱生商事株式会社,,株式会社,千葉県,袖ケ浦市,大曽根１１２９番地３,,12,229,2990253,,,,,,,2024-06-04,1,,,,,イッセイショウジ,0
1353,6040001133871,新規,0,2024-06-04,2024-06-04,ＴＨＩＬＩＵＭ　ＪＡＰＡＮ株式会社,,株式会社,千葉県,佐倉市,王子台２丁目２６番地１２東丘ビル４０２,,12,212,2850837,,,,,,,2024-06-04,1,,,,,チリウムジャパン,0
1355,6040003025101,新規,0,2024-06-04,2024-06-04,合同会社Ｔ＆Ａ,,合同会社,千葉県,木更津市,長須賀２４３４番地,,12,206,2920054,,,,,,,2024-06-04,1,,,,,ティーアンドエイ,0
1358,6060001037170,新規,0,2024-06-04,2024-06-04,株式会社ｎｅｓｔ　ｍａｔｅ,,株式会社,栃木県,宇都宮市,駒生町１０８２番地１７,,09,201,3200065,,,,,,,2024-06-04,1,,,,,ネストメイト,0
1364,6080401027224,新規,0,2024-06-04,2024-06-04,大城土木株式会社,,株式会社,静岡県,浜松市浜名区,豊保１９９番地の２,,22,139,4340017,,,,,,,2024-06-04,1,,,,,オオシロドボク,0
1367,6090001018746,新規,0,2024-06-04,2024-06-04,株式会社富士山フューチャーセンター,,株式会社,山梨県,富士吉田市,新屋５丁目１番１号,,19,202,4030006,,,,,,,2024-06-04,1,,,,,フジサンフューチャーセンター,0
1372,6110001038452,新規,0,2024-06-04,2024-06-04,北成企業株式会社,,株式会社,新潟県,新潟市北区,下大谷内４００番地１、２階,,15,101,9503308,,,,,,,2024-06-04,1,,,,,ホクセイキギョウ,0
1389,6120001265533,新規,0,2024-06-04,2024-06-04,景能株式会社,,株式会社,大阪府,大阪市住之江区,南加賀屋２丁目１４－１８－２Ｆ,,27,125,5590015,,,,,,,2024-06-04,1,,,,,ケイノウ,0
1390,6120001265541,新規,0,2024-06-04,2024-06-04,万福商事株式会社,,株式会社,大阪府,枚方市,香里園町５番２号,,27,210,5730086,,,,,,,2024-06-04,1,,,,,マンプクショウジ,0
1394,6120003026751,新規,0,2024-06-04,2024-06-04,ＲＵＭＯＵＲ合同会社,,合同会社,大阪府,大阪市北区,扇町２丁目６－１７パークタワー梅田１６０２,,27,127,5300025,,,,,,,2024-06-04,1,,,,,ルーモア,0
1405,6130001077184,新規,0,2024-06-04,2024-06-04,ダンツァ株式会社,,株式会社,京都府,宇治市,広野町寺山５８番地の８６,,26,204,6110031,,,,,,,2024-06-04,1,,,,,ダンツァ,0
1406,6130001077192,新規,0,2024-06-04,2024-06-04,木下工業株式会社,,株式会社,京都府,京都市山科区,東野門口町４６－６,,26,110,6078154,,,,,,,2024-06-04,1,,,,,キノシタコウギョウ,0
1414,6140001134629,新規,0,2024-06-04,2024-06-04,株式会社ルビコン,,株式会社,兵庫県,姫路市,西八代町５－２０,,28,201,6700876,,,,,,,2024-06-04,1,,,,,ルビコン,0
1415,6140001134637,新規,0,2024-06-04,2024-06-04,株式会社ＪＰｓｔａｎｃｅ,,株式会社,兵庫県,宝塚市,野上４丁目８－５,,28,214,6650022,,,,,,,2024-06-04,1,,,,,ジェイピースタンス,0
1419,6140005027102,新規,0,2024-06-04,2024-06-04,大庭社会保険労務士法人,,その他の設立登記法人,兵庫県,神戸市中央区,栄町通１丁目１－２４アクサス神戸ライフパートナーズ栄町ビル６０３,,28,110,6500023,,,,,,,2024-06-04,1,,,,,,0
1439,6180301038690,新規,0,2024-06-04,2024-06-04,株式会社Ｒｅｌａｔｉｏｎ,,株式会社,愛知県,岡崎市,大門５丁目１９番地４,,23,202,4442135,,,,,,,2024-06-04,1,,,,,リレイション,0
1441,6200001042552,新規,0,2024-06-04,2024-06-04,株式会社伊藤商店,,株式会社,岐阜県,多治見市,星ケ台２丁目５番地の２,,21,204,5070811,,,,,,,2024-06-04,1,,,,,イトウショウテン,0
1444,6240001063322,新規,0,2024-06-04,2024-06-04,株式会社リットル,,株式会社,広島県,広島市西区,己斐中３丁目２９番３号,,34,104,7330813,,,,,,,2024-06-04,1,,,,,リットル,0
1459,6290005019423,新規,0,2024-06-04,2024-06-04,サンハイツ大楠住宅管理組合法人,,その他の設立登記法人,福岡県,福岡市南区,大楠１丁目６番,,40,134,8150082,,,,,,,2024-06-04,1,,,,,サンハイツオオグスジュウタク,0
1460,6290803004741,新規,0,2024-06-04,2024-06-04,結．合同会社,,合同会社,福岡県,行橋市,大字下検地１０６３番地１０,,40,213,8240051,,,,,,,2024-06-04,1,,,,,ムスビ,0
1465,6310001019036,新規,0,2024-06-04,2024-06-04,株式会社カズプランニング,,株式会社,長崎県,長崎市,豊洋台１丁目３０番１８号,,42,201,8512216,,,,,,,2024-06-04,1,,,,,カズプランニング,0
1466,6310001019052,新規,0,2024-06-04,2024-06-04,株式会社富士レントゲン,,株式会社,長崎県,佐世保市,西大久保町５番２号,,42,202,8570048,,,,,,,2024-06-04,1,,,,,フジレントゲン,0
1470,6330001032128,新規,0,2024-06-04,2024-06-04,三嘉地産株式会社,,株式会社,熊本県,熊本市南区,近見３丁目１番３０号,,43,104,8614101,,,,,,,2024-06-04,1,,,,,サンカチサン,0
1477,6360001033742,新規,0,2024-06-04,2024-06-04,株式会社アピスインターナショナル,,株式会社,沖縄県,宜野湾市,大山１丁目１４番２９号,,47,205,9012223,,,,,,,2024-06-04,1,,,,,,0
1478,6360001033750,新規,0,2024-06-04,2024-06-04,株式会社嘉盛トラスト,,株式会社,沖縄県,那覇市,西１丁目１５番地６ＷＥＳＴ１１５６ＢＬＤ３Ｆ－２,,47,201,9000036,,,,,,,2024-06-04,1,,,,,カセイトラスト,0
1479,6360003014039,新規,0,2024-06-04,2024-06-04,合同会社五十鈴,,合同会社,沖縄県,宮古島市,平良字下里１５４８番地２１・３０１,,47,214,9060013,,,,,,,2024-06-04,1,,,,,ゴジュウリン,0
1495,6430001091915,新規,0,2024-06-04,2024-06-04,ノーステック・サヴィ株式会社,,株式会社,北海道,札幌市北区,新琴似二条１０丁目２番２２号,,01,102,0010902,,,,,,,2024-06-04,1,,,,,ノーステックサヴィ,0
1496,6430001091923,新規,0,2024-06-04,2024-06-04,株式会社Ｒｏｓｅ　Ｉｓｌａｎｄ,,株式会社,北海道,滝川市,西町７丁目１番３３号,,01,225,0730044,,,,,,,2024-06-04,1,,,,,ローズアイランド,0
1498,6430003016399,新規,0,2024-06-04,2024-06-04,Ｘ２Ｊａｐａｎ　Ｈｏｌｄｉｎｇｓ合同会社,,合同会社,北海道,虻田郡ニセコ町,字曽我５３２番地１,,01,395,0481522,,,,,,,2024-06-04,1,,,,,エックスツージャパンホールディングス,0
1499,6460301005225,新規,0,2024-06-04,2024-06-04,株式会社北道建設,,株式会社,北海道,北見市,美芳町９丁目８番７号,,01,208,0900064,,,,,,,2024-06-04,1,,,,,ホクドウケンセツ,0
1500,6470001020192,新規,0,2024-06-04,2024-06-04,株式会社孝栄,,株式会社,香川県,丸亀市,垂水町３３５７番地,,37,202,7630095,,,,,,,2024-06-04,1,,,,,コウエイ,0
1501,6480001012494,新規,0,2024-06-04,2024-06-04,株式会社杉本農園,,株式会社,徳島県,徳島市,国府町花園３２２番地,,36,201,7793106,,,,,,,2024-06-04,1,,,,,スギモトノオエン,0
1509,6500003003258,新規,0,2024-06-04,2024-06-04,合同会社ＦＵＪＩ　ＣＲＯＫ,,合同会社,愛媛県,松山市,一番町１丁目３番地６－１４３３ビル,,38,201,7900001,,,,,,,2024-06-04,1,,,,,フジクロック,0
1512,6700150067481,新規,0,2024-06-04,2015-11-25,ロボット革命・産業ＩｏＴイニシアティブ協議会,,その他,東京都,港区,芝公園３丁目５番８号機械振興会館５０７号室　日本機械工業連合会内,,13,103,1050011,,,,,,,2015-11-25,1,,,,,ロボツトカクメイサンギヨウアイオーテイーイニシアテイブキヨウギカイ,0
1518,7010001245388,新規,0,2024-06-04,2024-06-04,株式会社Ｏｒｃａ,,株式会社,東京都,中央区,銀座１丁目１２番４号Ｎ＆Ｅビル６Ｆ,,13,102,1040061,,,,,,,2024-06-04,1,,,,,オルカ,0
1519,7010001245413,新規,0,2024-06-04,2024-06-04,株式会社ＳＫＩ,,株式会社,東京都,文京区,小日向４丁目２番８号,,13,105,1120006,,,,,,,2024-06-04,1,,,,,,0
1522,7010003043906,新規,0,2024-06-04,2024-06-04,ＨＬＢ１９号合同会社,,合同会社,東京都,千代田区,霞が関３丁目２番５号,,13,101,1000013,,,,,,,2024-06-04,1,,,,,エイチエルビージュウキュウゴウ,0
1523,7010003043914,新規,0,2024-06-04,2024-06-04,合同会社ＴＩＡＲＡ,,合同会社,東京都,千代田区,内神田２丁目５番９号佐一ビル３０２号室,,13,101,1010047,,,,,,,2024-06-04,1,,,,,ティアラ,0
1524,7010003043922,新規,0,2024-06-04,2024-06-04,サンライズライフ合同会社,,合同会社,東京都,中央区,東日本橋２丁目２８番４号日本橋ＣＥＴビル２階,,13,102,1030004,,,,,,,2024-06-04,1,,,,,サンライズライフ,0
1528,7010101016177,新規,0,2024-06-04,2024-06-04,株式会社ｗｉｎｗｉｎ　ｅｓｔａｔｅ,,株式会社,東京都,八王子市,元本郷町１丁目２２番６号メゾン・ド・セリゼ１－Ａ,,13,201,1920051,,,,,,,2024-06-04,1,,,,,ウィンウィンエステート,0
1535,7010401182883,新規,0,2024-06-04,2024-06-04,株式会社ＦＲＯＭＩＡ,,株式会社,東京都,港区,赤坂３丁目７番１７号ＵＦビル２地下１階ＢＬＯＷ赤坂内,,13,103,1070052,,,,,,,2024-06-04,1,,,,,フロミア,0
1539,7010403032558,新規,0,2024-06-04,2024-06-04,ＩＫＨ合同会社,,合同会社,東京都,港区,浜松町２丁目２番１５号浜松町ダイヤビル２Ｆ,,13,103,1050013,,,,,,,2024-06-04,1,,,,,アイケーエイチー,0
1540,7010403032748,新規,0,2024-06-04,2024-06-04,ラグジュアリーライフ合同会社,,合同会社,東京都,港区,南青山３丁目１番３６号青山丸竹ビル６Ｆ,,13,103,1070062,,,,,,,2024-06-04,1,,,,,ラグジュアリーライフ,0
1547,7010601065310,新規,0,2024-06-04,2024-06-04,株式会社ニュースペース,,株式会社,東京都,江東区,亀戸９丁目３５番１３号,,13,108,1360071,,,,,,,2024-06-04,1,,,,,ニュースペース,0
1548,7010603010875,新規,0,2024-06-04,2024-06-04,Ｙエステート合同会社,,合同会社,東京都,江東区,南砂７丁目５番１５号ウエストヒルズ３０１,,13,108,1360076,,,,,,,2024-06-04,1,,,,,ワイエステート,0
1554,7010903009089,新規,0,2024-06-04,2024-06-04,乾＿合同会社,00135011,合同会社,東京都,世田谷区,砧５丁目２３番１３号,,13,112,1570073,,,,,,,2024-06-04,1,,,,,カンゲン,0
1555,7010903009114,新規,0,2024-06-04,2024-06-04,合同会社Ｋｏｂ,,合同会社,東京都,世田谷区,成城１丁目６番１９号,,13,112,1570066,,,,,,,2024-06-04,1,,,,,コブ,0
1559,7011001162318,新規,0,2024-06-04,2024-06-04,株式会社シンガリ,,株式会社,東京都,渋谷区,渋谷２丁目１９－１５宮益坂ビルディング６０９,,13,113,1500002,,,,,,,2024-06-04,1,,,,,シンガリ,0
1560,7011001162383,新規,0,2024-06-04,2024-06-04,ＨＩＲＯ株式会社,,株式会社,東京都,渋谷区,広尾２丁目１５番１２号,,13,113,1500012,,,,,,,2024-06-04,1,,,,,ヒロ,0
1561,7011001162391,新規,0,2024-06-04,2024-06-04,Ｓｔｅｌｌａｒｓｐｈｅｒｅ株式会社,,株式会社,東京都,渋谷区,渋谷３丁目２７－１５,,13,113,1500002,,,,,,,2024-06-04,1,,,,,ステラスフィア,0
1562,7011001162466,新規,0,2024-06-04,2024-06-04,株式会社ＮＳＲ,,株式会社,東京都,渋谷区,神南１丁目２３番１４号リージャス渋谷公園通りビル１Ｆ－８Ｆ,,13,113,1500041,,,,,,,2024-06-04,1,,,,,エヌエスアール,0
1564,7011003019292,新規,0,2024-06-04,2024-06-04,合同会社ｓｅｅｄ,,合同会社,東京都,渋谷区,桜丘町２２番１４号ヒルメゾン・シブヤ４０１,,13,113,1500031,,,,,,,2024-06-04,1,,,,,シード,0
1565,7011101107511,新規,0,2024-06-04,2024-06-04,Ｍｉｄｄｌｅ　Ｅａｓｔ　Ａｎｉｍｅ　Ｐｒｏｄｕｃｔｉｏｎ　Ｉｎｖｅｓｔｍｅｎｔ　Ｆｕｎｄ株式会社,,株式会社,東京都,新宿区,市谷左内町５番地Ｌｏｗｐビル,,13,104,1620846,,,,,,,2024-06-04,1,,,,,ミドルイーストアニメプロダクションインベストメントファンド,0
1566,7011105011016,新規,0,2024-06-04,2024-06-04,一般社団法人エイジングケア,,その他の設立登記法人,東京都,新宿区,新宿３丁目２８－２ルナージュビルＢ１階,,13,104,1600022,,,,,,,2024-06-04,1,,,,,エイジングケア,0
1569,7011301029720,新規,0,2024-06-04,2024-06-04,株式会社田村彫刻,,株式会社,東京都,杉並区,阿佐谷南３丁目２６番２０号,,13,115,1660004,,,,,,,2024-06-04,1,,,,,,0
1576,7011701027340,新規,0,2024-06-04,2024-06-04,華連株式会社,,株式会社,東京都,江戸川区,南小岩２丁目１５番２８号１Ｆ,,13,123,1330056,,,,,,,2024-06-04,1,,,,,カレン,0
1580,7012301013937,新規,0,2024-06-04,2024-06-04,株式会社ＵＮＩＣＯＲＮＳ,,株式会社,東京都,町田市,金井ヶ丘４丁目２９番２１号,,13,209,1950076,,,,,,,2024-06-04,1,,,,,ユニコーンズ,0
1582,7012401041937,新規,0,2024-06-04,2024-06-04,株式会社Ｈｕｅ,,株式会社,東京都,狛江市,中和泉３丁目２５番６号,,13,219,2010012,,,,,,,2024-06-04,1,,,,,ヒュー,0
1590,7020001157541,新規,0,2024-06-04,2024-06-04,株式会社宮電工,,株式会社,神奈川県,横浜市鶴見区,潮田町３丁目１３３番地１グランアジール鶴見潮田公園４０２,,14,101,2300041,,,,,,,2024-06-04,1,,,,,ミヤデンコウ,0
1591,7020001157558,新規,0,2024-06-04,2024-06-04,株式会社すまいるーと,,株式会社,神奈川県,横浜市西区,平沼１丁目４０番１号嶋森ビル８階,,14,103,2200023,,,,,,,2024-06-04,1,,,,,スマイルート,0
1607,7030001160676,新規,0,2024-06-04,2024-06-04,株式会社ＲＥ．ＡＩＬ,,株式会社,埼玉県,さいたま市浦和区,高砂２丁目１番１７号ＭＡＳＵＹＡビル１Ｆ,,11,107,3300063,,,,,,,2024-06-04,1,,,,,レイル,0
1609,7030003024400,新規,0,2024-06-04,2024-06-04,合同会社スカイフィールド,,合同会社,埼玉県,川口市,大字安行吉蔵３１７－８,,11,203,3340053,,,,,,,2024-06-04,1,,,,,スカイフィールド,0
1610,7030003024417,新規,0,2024-06-04,2024-06-04,合同会社ニュー・ブリッジ・オフィス,,合同会社,埼玉県,さいたま市南区,沼影１丁目１１番２号Ｂ－１４０３,,11,108,3360027,,,,,,,2024-06-04,1,,,,,ニューブリッジオフィス,0
1612,7040001133879,新規,0,2024-06-04,2024-06-04,いぶき株式会社,,株式会社,千葉県,野田市,岩名１丁目２５番地の８エメラルドグリーンハイツＤ１０１,,12,208,2780055,,,,,,,2024-06-04,1,,,,,イブキ,0
1621,7050003008434,新規,0,2024-06-04,2024-06-04,くるま屋東京ＪＡＰＡＮ合同会社,,合同会社,茨城県,古河市,東牛谷１９５番地５,,08,204,3060232,,,,,,,2024-06-04,1,,,,,クルマヤトウキョウジャパン,0
1632,7110003005409,新規,0,2024-06-04,2024-06-04,合同会社ゴート,,合同会社,新潟県,新潟市中央区,川岸町１丁目３８－１ダイアパレス白山駅前８０２号,,15,103,9518133,,,,,,,2024-06-04,1,,,,,ゴート,0
1643,7120001265516,新規,0,2024-06-04,2024-06-04,ＡＣＡ株式会社,,株式会社,大阪府,大阪市北区,大淀北１丁目６番２１－１９１２号,,27,127,5310077,,,,,,,2024-06-04,1,,,,,エーシーエー,0
1644,7120001265524,新規,0,2024-06-04,2024-06-04,ＫＡＣＯラボ株式会社,,株式会社,大阪府,大阪市北区,梅田１丁目１番３号大阪駅前第３ビル２９階１－１－１号室,,27,127,5300001,,,,,,,2024-06-04,1,,,,,カコラボ,0
1645,7120001265573,新規,0,2024-06-04,2024-06-04,株式会社エイイチチャンネル,,株式会社,大阪府,大阪市北区,中津１丁目１８番１８号若杉ビル８０１,,27,127,5310071,,,,,,,2024-06-04,1,,,,,エイイチチャンネル,0
1649,7120003026742,新規,0,2024-06-04,2024-06-04,合同会社ルバートレフルス,,合同会社,大阪府,大阪市港区,市岡元町２丁目１番５号,,27,107,5520002,,,,,,,2024-06-04,1,,,,,ルバートレフルス,0
1650,7120003026750,新規,0,2024-06-04,2024-06-04,合同会社ネクストライフ,,合同会社,大阪府,大阪市北区,梅田１丁目１－３大阪駅前第３ビル２９階１－１－１号室,,27,127,5300001,,,,,,,2024-06-04,1,,,,,ネクストライフ,0
1660,7130001077159,新規,0,2024-06-04,2024-06-04,株式会社歳月,,株式会社,京都府,京都市下京区,七条通油小路東入大黒町２２７番地第２キョートビル４０２,,26,106,6008223,,,,,,,2024-06-04,1,,,,,サイゲツ,0
1661,7130001077167,新規,0,2024-06-04,2024-06-04,株式会社ｕｌＡｏ,,株式会社,京都府,亀岡市,篠町篠中北裏７１番地,,26,206,6210826,,,,,,,2024-06-04,1,,,,,ウラオ,0
1667,7140001134611,新規,0,2024-06-04,2024-06-04,株式会社Ｋａｗａｓａｋｉ　Ｅｌｅｃｔｒｉｃ,,株式会社,兵庫県,尼崎市,武庫町１丁目３３－２４,,28,202,6610044,,,,,,,2024-06-04,1,,,,,カワサキエレクトリック,0
1668,7140001134628,新規,0,2024-06-04,2024-06-04,株式会社園建設,,株式会社,兵庫県,加古郡稲美町,加古３７４１－１４,,28,381,6751105,,,,,,,2024-06-04,1,,,,,エンケンセツ,0
1669,7140001134652,新規,0,2024-06-04,2024-06-04,Ｄｉｔｔｏ株式会社,,株式会社,兵庫県,神戸市東灘区,御影山手３丁目１７－２５,,28,101,6580065,,,,,,,2024-06-04,1,,,,,ディト,0
1670,7140001134677,新規,0,2024-06-04,2024-06-04,株式会社ＴＡＫＥＲＯＯＴ,,株式会社,兵庫県,川西市,清和台西３丁目２番地の６,,28,217,6660143,,,,,,,2024-06-04,1,,,,,テイクルート,0
1672,7140003020636,新規,0,2024-06-04,2024-06-04,合同会社アイ・ドゥー・ミー・エフ,,合同会社,兵庫県,尼崎市,武庫町２丁目２番１７号,,28,202,6610044,,,,,,,2024-06-04,1,,,,,アイドゥーミーエフ,0
1673,7140003020660,新規,0,2024-06-04,2024-06-04,ＡｓｔｒｕｓｔｅＸ合同会社,,合同会社,兵庫県,神戸市中央区,磯辺通１丁目１番１８号カサベラ国際プラザビル７０７号室,,28,110,6510084,,,,,,,2024-06-04,1,,,,,アストラステックス,0
1676,7140005027101,新規,0,2024-06-04,2024-06-04,一般社団法人ｃｏｎｔｅｘｔ,,その他の設立登記法人,兵庫県,加西市,北条町北条１４２番地の９、４Ｆ,,28,220,6752312,,,,,,,2024-06-04,1,,,,,コンテクスト,0
1683,7180001161726,新規,0,2024-06-04,2024-06-04,株式会社ＩＲラボ,,株式会社,愛知県,名古屋市中区,栄１丁目１８番１３号（エスリード栄クロスシティ８０７号）,,23,106,4600008,,,,,,,2024-06-04,1,,,,,アイアールラボ,0
1687,7180003026869,新規,0,2024-06-04,2024-06-04,合同会社暁工業,,合同会社,愛知県,名古屋市千種区,千種２丁目２３番６号ロイヤルパークス千種１０９号,,23,101,4640858,,,,,,,2024-06-04,1,,,,,アカツキコウギョウ,0
1694,7240001063313,新規,0,2024-06-04,2024-06-04,株式会社Ｔａｕｚ,,株式会社,広島県,広島市中区,富士見町６番５号１Ｆ,,34,101,7300043,,,,,,,2024-06-04,1,,,,,トゥズ,0
1695,7240001063321,新規,0,2024-06-04,2024-06-04,株式会社ＡＯＴＯｔｅｃｈ,,株式会社,広島県,安芸郡府中町,浜田２丁目５番３０－４０２号,,34,302,7350013,,,,,,,2024-06-04,1,,,,,アオトテック,0
1703,7260001039138,新規,0,2024-06-04,2024-06-04,株式会社エムズテクニカ,,株式会社,岡山県,倉敷市,連島町鶴新田８１３番地１,,33,202,7128006,,,,,,,2024-06-04,1,,,,,エムズテクニカ,0
1710,7290001105993,新規,0,2024-06-04,2024-06-04,株式会社藤瀬商事不動産,,株式会社,福岡県,福岡市早良区,次郎丸１丁目９番５０号,,40,137,8140165,,,,,,,2024-06-04,1,,,,,フジセショウジフドウサン,0
1711,7290001106034,新規,0,2024-06-04,2024-06-04,株式会社ＣｏＬａｂｏ,,株式会社,福岡県,久留米市,宮ノ陣１丁目８番１５号,,40,203,8390801,,,,,,,2024-06-04,1,,,,,コラボ,0
1714,7290803004740,新規,0,2024-06-04,2024-06-04,合同会社ＨＡＫＵ,,合同会社,福岡県,北九州市小倉北区,小文字１丁目１３番１９号,,40,106,8020037,,,,,,,2024-06-04,1,,,,,ハク,0
1716,7300003002130,新規,0,2024-06-04,2024-06-04,合同会社ｅｌｅｗｏｒｋ,,合同会社,佐賀県,武雄市,朝日町大字中野６４４７番地１,,41,206,8430002,,,,,,,2024-06-04,1,,,,,エレワーク,0
1726,7360003014038,新規,0,2024-06-04,2024-06-04,合同会社四十九鈴,,合同会社,沖縄県,宮古島市,平良字下里１５４８番地２１・３０１,,47,214,9060013,,,,,,,2024-06-04,1,,,,,ヨンジュウキュウリン,0
1751,7450003002495,新規,0,2024-06-04,2024-06-04,合同会社ＫＦトランスポート,,合同会社,北海道,旭川市,東旭川北一条７丁目６番１号,,01,204,0788251,,,,,,,2024-06-04,1,,,,,,0
1752,7460003001001,新規,0,2024-06-04,2024-06-04,合同会社ＭＥＧＵＭＩ,,合同会社,北海道,釧路市,末広町５丁目１３番地オリエンタルプラザ５Ｆ,,01,206,0850014,,,,,,,2024-06-04,1,,,,,メグミ,0
1756,7500005008709,新規,0,2024-06-04,2024-06-04,一般社団法人ＩＮＣＲコンサルタント協会,,その他の設立登記法人,愛媛県,松山市,湊町４丁目２番地１新玉産業ビル４Ｆ,,38,201,7900012,,,,,,,2024-06-04,1,,,,,アイエヌシーアールコンサルタントキョウカイ,0
1757,7700150048522,新規,0,2024-06-04,2015-10-09,岐阜県　博物館友の会,,その他,岐阜県,関市,小屋名１９８９,,21,205,5013941,,,,,,,2015-10-09,1,,,,,ギフケンハクブツカントモノカイ,0
1758,7700150076738,新規,0,2024-06-04,2016-11-01,栄村秋山郷観光協会,,その他,長野県,下水内郡栄村,大字北信３５８６－４,,20,602,3892702,,,,,,,2016-11-01,1,,,,,サカエムラアキヤマゴウカンコウキヨウカイ,0
1764,8010001245370,新規,0,2024-06-04,2024-06-04,ＷＩＭＢＬＥＤＯＮ　ＢＥＶＥＲＡＧＥ株式会社,,株式会社,東京都,千代田区,神田佐久間町４丁目１４番地,,13,101,1010025,,,,,,,2024-06-04,1,,,,,ウィンブルドンビバレッジ,0
1765,8010001245404,新規,0,2024-06-04,2024-06-04,Ｇｌｏｂａｌ　Ｓｐｅｃｉａｌｔｙ　Ｓｏｌｕｔｉｏｎｓ　Ｊａｐａｎ株式会社,,株式会社,東京都,千代田区,大手町１丁目１番１号,,13,101,1000004,,,,,,,2024-06-04,1,,,,,グローバルスペシャルティソリューションズジャパン,0
1766,8010001245453,新規,0,2024-06-04,2024-06-04,株式会社ａｚ,,株式会社,東京都,中央区,築地４丁目３－８登喜和ビル５Ｆ,,13,102,1040045,,,,,,,2024-06-04,1,,,,,アズ,0
1768,8010003043921,新規,0,2024-06-04,2024-06-04,合同会社ＹＵＩ,,合同会社,東京都,中央区,銀座１丁目２２番１１号銀座大竹ビジデンス２Ｆ,,13,102,1040061,,,,,,,2024-06-04,1,,,,,ユイ,0
1769,8010003043946,新規,0,2024-06-04,2024-06-04,シグナム・トープ合同会社,,合同会社,東京都,千代田区,丸の内３丁目１番１号東京共同会計事務所内,,13,101,1000005,,,,,,,2024-06-04,1,,,,,シグナムトープ,0
1781,8010401182684,新規,0,2024-06-04,2024-06-04,ごしきぐも株式会社,,株式会社,東京都,港区,芝浦１丁目９番７号おもだかビル４階,,13,103,1050023,,,,,,,2024-06-04,1,,,,,ゴシキグモ,0
1782,8010401182899,新規,0,2024-06-04,2024-06-04,友合株式会社,,株式会社,東京都,港区,新橋３丁目２１番４号新橋第２ペリカンビル３階,,13,103,1050004,,,,,,,2024-06-04,1,,,,,ユウゴウ,0
1785,8010603010874,新規,0,2024-06-04,2024-06-04,合同会社ａｅｒｕ　ｌａｂｏ,,合同会社,東京都,江東区,豊洲５丁目６―４５―１４０９,,13,108,1350061,,,,,,,2024-06-04,1,,,,,アエルラボ,0
1790,8011001162382,新規,0,2024-06-04,2024-06-04,株式会社新領域安全保障研究所,,株式会社,東京都,渋谷区,宇田川町３番７号ヒューリック渋谷公園通りビル５Ｆ－９５,,13,113,1500042,,,,,,,2024-06-04,1,,,,,シンリョウイキアンゼンホショウケンキュウジョ,0
1791,8011001162390,新規,0,2024-06-04,2024-06-04,株式会社シンボディム,,株式会社,東京都,渋谷区,神宮前６丁目２３番４号桑野ビル２階,,13,113,1500001,,,,,,,2024-06-04,1,,,,,シンボディム,0
1794,8011101107527,新規,0,2024-06-04,2024-06-04,ＡＭＩ　Ｊ株式会社,,株式会社,東京都,新宿区,四谷３丁目１番９号四谷須賀ビル,,13,104,1600004,,,,,,,2024-06-04,1,,,,,アミジェイ,0
1795,8011401026154,新規,0,2024-06-04,2024-06-04,ＪＭＩソリューション株式会社,,株式会社,東京都,板橋区,徳丸１丁目１７番２－３１１号室,,13,119,1750083,,,,,,,2024-06-04,1,,,,,,0
1800,8011601027811,新規,0,2024-06-04,2024-06-04,株式会社オクジム,,株式会社,東京都,練馬区,貫井１丁目１３番２２－２１７号,,13,120,1760021,,,,,,,2024-06-04,1,,,,,オクジム,0
1806,8012401041936,新規,0,2024-06-04,2024-06-04,株式会社高守電設,,株式会社,東京都,調布市,下石原３丁目２５番地１クリオ調布壱番館２０４,,13,208,1820034,,,,,,,2024-06-04,1,,,,,タカモリデンセツ,0
1810,8013101009430,新規,0,2024-06-04,2024-06-04,ＴＣバイテク株式会社,,株式会社,東京都,青梅市,新町９丁目２２２１番地の１,,13,205,1980024,,,,,,,2024-06-04,1,,,,,,0
1818,8020001157549,新規,0,2024-06-04,2024-06-04,株式会社Ｒｅｉｓｅ,,株式会社,神奈川県,横浜市金沢区,六浦東２丁目１１番２号,,14,108,2360037,,,,,,,2024-06-04,1,,,,,ライゼ,0
1827,8021003014572,新規,0,2024-06-04,2024-06-04,合同会社ライズ,,合同会社,神奈川県,藤沢市,下土棚２３３－４,,14,205,2520807,,,,,,,2024-06-04,1,,,,,ライズ,0
1833,8030001160667,新規,0,2024-06-04,2024-06-04,Ｊ＆Ｐ　ＣＡＲＳ＆ＣＯ株式会社,,株式会社,埼玉県,久喜市,菖蒲町三箇１０１０－１サンライフ菖蒲Ａ棟１０５号室,,11,232,3460104,,,,,,,2024-06-04,1,,,,,ジェイアンドピーカーズアンドコー,0
1834,8030001160691,新規,0,2024-06-04,2024-06-04,山室商事株式会社,,株式会社,埼玉県,児玉郡神川町,大字渡瀬４３４番地１２,,11,383,3670301,,,,,,,2024-06-04,1,,,,,ヤマムロショウジ,0
1835,8030001160741,新規,0,2024-06-04,2024-06-04,株式会社アンビシャス,,株式会社,埼玉県,所沢市,大字荒幡８６４番地の１６,,11,208,3591133,,,,,,,2024-06-04,1,,,,,アンビシャス,0
1849,8060001037169,新規,0,2024-06-04,2024-06-04,株式会社ティーケー防水,,株式会社,栃木県,宇都宮市,下田原町２７９５番地３,,09,201,3291115,,,,,,,2024-06-04,1,,,,,ティーケーボウスイ,0
1851,8070001041806,新規,0,2024-06-04,2024-06-04,株式会社Ｔｒｉｌｌｉｏｎ,,株式会社,群馬県,邑楽郡明和町,大佐貫１７３番地３,,10,522,3700715,,,,,,,2024-06-04,1,,,,,トリリオン,0
1852,8070001041814,新規,0,2024-06-04,2024-06-04,株式会社メトロノーム,,株式会社,群馬県,前橋市,大利根町２丁目１４－１４,,10,201,3710825,,,,,,,2024-06-04,1,,,,,メトロノーム,0
1859,8080403005028,新規,0,2024-06-04,2024-06-04,合同会社ＫＹＣ,,合同会社,静岡県,浜松市中央区,恩地町２０５番地の２,,22,138,4300814,,,,,,,2024-06-04,1,,,,,ケーワイシー,0
1873,8120001265449,新規,0,2024-06-04,2024-06-04,同＿株式会社,00135003,株式会社,大阪府,大阪市西成区,玉出東１丁目１１番２３－２０１号,,27,122,5570043,,,,,,,2024-06-04,1,,,,,トンシン,0
1874,8120001265481,新規,0,2024-06-04,2024-06-04,バニッシュ株式会社,,株式会社,大阪府,大阪市淀川区,西中島３丁目１２番１５－３０４号,,27,123,5320011,,,,,,,2024-06-04,1,,,,,バニッシュ,0
1876,8120901049265,新規,0,2024-06-04,2024-06-04,株式会社永山電気設備,,株式会社,大阪府,摂津市,新在家１丁目２１番７号,,27,224,5660055,,,,,,,2024-06-04,1,,,,,ナガヤマデンキセツビ,0
1880,8122001038149,新規,0,2024-06-04,2024-06-04,株式会社ネジッとファクトリー,,株式会社,大阪府,東大阪市,本庄西１丁目９－１３,,27,227,5780965,,,,,,,2024-06-04,1,,,,,ネジットファクトリー,0
1883,8130003009613,新規,0,2024-06-04,2024-06-04,合同会社Ｌｉｔ,,合同会社,京都府,京都市伏見区,羽束師志水町１３７番地８,,26,109,6128485,,,,,,,2024-06-04,1,,,,,リット,0
1890,8140001134619,新規,0,2024-06-04,2024-06-04,株式会社Ｂｉｒｎｅ．Ｋ運送,,株式会社,兵庫県,伊丹市,東野４丁目１５番地１、１０７号,,28,207,6640004,,,,,,,2024-06-04,1,,,,,ビルネドットケーウンソウ,0
1891,8140001134627,新規,0,2024-06-04,2024-06-04,株式会社プラグレス,,株式会社,兵庫県,三木市,別所町下石野１４３５番地３,,28,215,6730453,,,,,,,2024-06-04,1,,,,,プラグレス,0
1892,8140001134651,新規,0,2024-06-04,2024-06-04,株式会社メトラクション,,株式会社,兵庫県,姫路市,南町６３ミツワビル１－４階,,28,201,6700912,,,,,,,2024-06-04,1,,,,,メトラクション,0
1893,8140001134676,新規,0,2024-06-04,2024-06-04,株式会社かすみこ,,株式会社,兵庫県,宍粟市,山崎町加生２２５番地５号,,28,227,6712570,,,,,,,2024-06-04,1,,,,,カスミコ,0
1899,8140003020635,新規,0,2024-06-04,2024-06-04,合同会社一華,,合同会社,兵庫県,神戸市兵庫区,荒田町２丁目１１－４クレアーレ２０１,,28,105,6520032,,,,,,,2024-06-04,1,,,,,イチカ,0
1901,8140005027100,新規,0,2024-06-04,2024-06-04,労働者協同組合みんなの家セラビィ,,その他の設立登記法人,兵庫県,神戸市垂水区,平磯３丁目３－４,,28,108,6550892,,,,,,,2024-06-04,1,,,,,ミンナノイエセラビィ,0
1902,8150001027318,新規,0,2024-06-04,2024-06-04,株式会社ＬＧＯ,,株式会社,奈良県,生駒市,辻町２３５―１―１０２,00135007,29,209,6300212,,,,,,,2024-06-04,1,,,,,エルジーオー,0
1903,8150003003275,新規,0,2024-06-04,2024-06-04,合同会社ルリアン,,合同会社,奈良県,天理市,田町１２７番地５,,29,204,6320073,,,,,,,2024-06-04,1,,,,,ルリアン,0
1904,8160001025972,新規,0,2024-06-04,2024-06-04,株式会社ＮＴ販売,,株式会社,滋賀県,彦根市,三津町４５０番地４,,25,202,5211122,,,,,,,2024-06-04,1,,,,,エヌティハンバイ,0
1913,8180001161741,新規,0,2024-06-04,2024-06-04,株式会社ＳＴＥＰ　ＯＮＥ,,株式会社,愛知県,名古屋市港区,小碓２丁目５番地,,23,111,4550801,,,,,,,2024-06-04,1,,,,,ステップワン,0
1914,8180001161790,新規,0,2024-06-04,2024-06-04,株式会社イナケン,,株式会社,愛知県,稲沢市,大塚北３丁目５５番地,,23,220,4928215,,,,,,,2024-06-04,1,,,,,イナケン,0
1915,8180003026884,新規,0,2024-06-04,2024-06-04,合同会社六一六,,合同会社,愛知県,北名古屋市,鹿田坂巻５３番地,,23,234,4810004,,,,,,,2024-06-04,1,,,,,ロクイチロク,0
1936,8230001020371,新規,0,2024-06-04,2024-06-04,株式会社ＡＸＥ,,株式会社,富山県,富山市,堀５４番地１,,16,201,9398057,,,,,,,2024-06-04,1,,,,,アクス,0
1939,8240001063312,新規,0,2024-06-04,2024-06-04,かめやホールディングス株式会社,,株式会社,広島県,広島市西区,商工センター１丁目１番１５号,,34,104,7330833,,,,,,,2024-06-04,1,,,,,カメヤホールディングス,0
1946,8260001039137,新規,0,2024-06-04,2024-06-04,吉原産業株式会社,,株式会社,岡山県,岡山市北区,楢津６６６番地２０－２階,,33,101,7011202,,,,,,,2024-06-04,1,,,,,ヨシハラサンギョウ,0
1949,8270003001630,新規,0,2024-06-04,2024-06-04,合同会社ファイス工業,,合同会社,鳥取県,米子市,福万８７０－１,,31,202,6893523,,,,,,,2024-06-04,1,,,,,,0
1965,8320003004388,新規,0,2024-06-04,2024-06-04,合同会社ビッグサン,,合同会社,大分県,大分市,大字里２３４１番地の３,,44,201,8700303,,,,,,,2024-06-04,1,,,,,ビッグサン,0
1967,8340001026556,新規,0,2024-06-04,2024-06-04,テックフルエンス株式会社,,株式会社,鹿児島県,鹿児島市,東千石町１６番１４号フローレンス絵菜４０２号,,46,201,8920842,,,,,,,2024-06-04,1,,,,,テックフルエンス,0
1971,8360001033749,新規,0,2024-06-04,2024-06-04,中村宝飾株式会社,,株式会社,沖縄県,宜野湾市,字我如古４１９番地１,,47,205,9012214,,,,,,,2024-06-04,1,,,,,ナカムラホウショク,0
1972,8360003014037,新規,0,2024-06-04,2024-06-04,合同会社四十八鈴,,合同会社,沖縄県,宮古島市,平良字下里１５４８番地２１・３０１,,47,214,9060013,,,,,,,2024-06-04,1,,,,,ヨンジュウハチリン,0
1975,8370001051353,新規,0,2024-06-04,2024-06-04,株式会社キシナミ,,株式会社,宮城県,仙台市宮城野区,新田３丁目２３番４６号,,04,102,9830038,,,,,,,2024-06-04,1,,,,,キシナミ,0
1978,8390001017625,新規,0,2024-06-04,2024-06-04,株式会社ＭＡＲＲＹＧＯＬＤ,,株式会社,山形県,天童市,鎌田１丁目８番２４号,,06,210,9940024,,,,,,,2024-06-04,1,,,,,マリーゴールド,0
1987,8430003016406,新規,0,2024-06-04,2024-06-04,ＡＪＴ合同会社,,合同会社,北海道,虻田郡倶知安町,南六条東１丁目２番８,,01,400,0440016,,,,,,,2024-06-04,1,,,,,エージェーティー,0
1989,8450003002494,新規,0,2024-06-04,2024-06-04,合同会社ファーム絆,,合同会社,北海道,旭川市,江丹別町嵐山２７番地,,01,204,0708051,,,,,,,2024-06-04,1,,,,,ファームキズナ,0
1991,8480001012492,新規,0,2024-06-04,2024-06-04,株式会社ＭＣコンサルタント,,株式会社,徳島県,徳島市,金沢２丁目１－１７ココタウン金沢１０９,,36,201,7700871,,,,,,,2024-06-04,1,,,,,エムシーコンサルタント,0
1994,8480005007027,新規,0,2024-06-04,2024-06-04,一般社団法人マホロバ,,その他の設立登記法人,徳島県,徳島市,仲之町２丁目１４番地,,36,201,7700932,,,,,,,2024-06-04,1,,,,,マホロボ,0
2002,8700150125304,新規,0,2024-06-04,2024-05-14,ダンスカンパニー遊らん船,,その他,東京都,世田谷区,池尻３丁目１９番７号メゾンアルプス２０１,,13,112,1540001,,,,,,,2024-05-14,1,,,,,ダンスカンパニーユウランセン,0
2013,9010001245378,新規,0,2024-06-04,2024-06-04,株式会社ＯＮＥ’Ｓ,,株式会社,東京都,文京区,湯島３丁目６番１号全国家電会館３Ｆ全油連内,,13,105,1130034,,,,,,,2024-06-04,1,,,,,ワンズ,0
2014,9010001245386,新規,0,2024-06-04,2024-06-04,株式会社ＩＡＡトラベル,,株式会社,東京都,千代田区,飯田橋２丁目１６番９号トーアビル２階２０４号室,,13,101,1020072,,,,,,,2024-06-04,1,,,,,アイエーエートラベル,0
2015,9010001245394,新規,0,2024-06-04,2024-06-04,株式会社エムメディカルソリューションズ,,株式会社,東京都,中央区,銀座１丁目１２番４号Ｎ＆ＥＢＬＤ．７階,,13,102,1040061,,,,,,,2024-06-04,1,,,,,エムメディカルソリューションズ,0
2016,9010003043904,新規,0,2024-06-04,2024-06-04,合同会社月の音,,合同会社,東京都,千代田区,東神田１丁目７番１０号ｕｎｉｔｏ・ＣＨＩＹＯＤＡ,,13,101,1010031,,,,,,,2024-06-04,1,,,,,ツキノオト,0
2017,9010003043937,新規,0,2024-06-04,2024-06-04,合同会社ニュートン,,合同会社,東京都,中央区,勝どき２丁目５－８－７０６,,13,102,1040054,,,,,,,2024-06-04,1,,,,,ニュートン,0
2018,9010005038365,新規,0,2024-06-04,2024-06-04,ソーラーロイズホールディングス一般社団法人,,その他の設立登記法人,東京都,中央区,京橋２丁目１２番６号ＡＯＪ税理士法人内,,13,102,1040031,,,,,,,2024-06-04,1,,,,,ソーラーロイズホールディングス,0
2027,9010401182915,新規,0,2024-06-04,2024-06-04,インタベスト株式会社,,株式会社,東京都,港区,港南２丁目１５－１品川インターシティＡ棟２８階,,13,103,1080075,,,,,,,2024-06-04,1,,,,,インタベスト,0
2035,9010405023272,新規,0,2024-06-04,2024-06-04,九条ホールディング２一般社団法人,,その他の設立登記法人,東京都,港区,虎ノ門３丁目２２番１０－２０１号,,13,103,1050001,,,,,,,2024-06-04,1,,,,,クジョウホールディングツー,0
2040,9010601065291,新規,0,2024-06-04,2024-06-04,株式会社クリーンジョブ,,株式会社,東京都,墨田区,東向島３丁目４番１１号,,13,107,1310032,,,,,,,2024-06-04,1,,,,,クリーンジョブ,0
2045,9010703007200,新規,0,2024-06-04,2024-06-04,合同会社ロック,,合同会社,東京都,品川区,東品川３丁目８番８－１６０８号,,13,109,1400002,,,,,,,2024-06-04,1,,,,,ロック,0
2048,9010901055389,新規,0,2024-06-04,2024-06-04,株式会社ｍｅｄｉａ　ｎａｒａｎｊａ,,株式会社,東京都,世田谷区,砧８丁目１５番５号フロレスタ１０１,,13,112,1570073,,,,,,,2024-06-04,1,,,,,メディアナランハ,0
2050,9011001162373,新規,0,2024-06-04,2024-06-04,株式会社ＡＵＲＡ,,株式会社,東京都,渋谷区,渋谷２丁目２４番１２号,,13,113,1500002,,,,,,,2024-06-04,1,,,,,アウラ,0
2051,9011001162407,新規,0,2024-06-04,2024-06-04,株式会社Ａｎｙ,,株式会社,東京都,渋谷区,渋谷２丁目１９－１５宮益坂ビルディング６０９,,13,113,1500002,,,,,,,2024-06-04,1,,,,,エニー,0
2053,9011003019299,新規,0,2024-06-04,2024-06-04,ＦＯＣジャパン合同会社,,合同会社,東京都,渋谷区,代々木１丁目５８番７号,,13,113,1510053,,,,,,,2024-06-04,1,,,,,エフオーシージャパン,0
2054,9011003019324,新規,0,2024-06-04,2024-06-04,合同会社Ｓｅｃｔｉｏｎ３１,,合同会社,東京都,渋谷区,神泉町１０番１５号アネックス神泉３０１,,13,113,1500045,,,,,,,2024-06-04,1,,,,,セクションサーティーワン,0
2057,9011101107559,新規,0,2024-06-04,2024-06-04,株式会社Ｓａｓｓａ,,株式会社,東京都,新宿区,西新宿３丁目３番１３号西新宿水間ビル２Ｆ,,13,104,1600023,,,,,,,2024-06-04,1,,,,,サッサ,0
2061,9011201025520,新規,0,2024-06-04,2024-06-04,株式会社経営企画部,,株式会社,東京都,中野区,中野５丁目２９‐８Ｍコート中野２０１,,13,114,1640001,,,,,,,2024-06-04,1,,,,,ケイエイキカクブ,0
2062,9011203004381,新規,0,2024-06-04,2024-06-04,合同会社ＳＡＶＥ,,合同会社,東京都,中野区,本町１丁目１１番４号ラウレア１０１,,13,114,1640012,,,,,,,2024-06-04,1,,,,,セイブ,0
2068,9011503006086,新規,0,2024-06-04,2024-06-04,Ａｍｉｎｕｒ　ｔｅｃｈ　ｈｏｕｓｅ合同会社,,合同会社,東京都,北区,上十条３丁目１８番４－２０２号ハイム栗山,,13,117,1140034,,,,,,,2024-06-04,1,,,,,アミヌルテックハウス,0
2075,9013301052618,新規,0,2024-06-04,2024-06-04,株式会社Ｒパートナーズ,,株式会社,東京都,豊島区,巣鴨１丁目２番１４号,,13,116,1700002,,,,,,,2024-06-04,1,,,,,アールパートナーズ,0
2087,9020001157531,新規,0,2024-06-04,2024-06-04,阿里山集団株式会社,,株式会社,神奈川県,横浜市青葉区,つつじが丘３番地３－２１２号,,14,117,2270055,,,,,,,2024-06-04,1,,,,,アリサンシュウダン,0
2088,9020001157548,新規,0,2024-06-04,2024-06-04,株式会社ラ・リベルテ,,株式会社,神奈川県,川崎市中原区,上丸子八幡町５９５番地１ＴｈｅＨｏｕｓｅＴ．Ｙ．Ｍ５０３,,14,133,2110001,,,,,,,2024-06-04,1,,,,,ラリベルテ,0
2089,9020001157564,新規,0,2024-06-04,2024-06-04,株式会社Ｐａｒｔｙ　Ｐｅｏｐｌｅ,,株式会社,神奈川県,横浜市西区,北幸２丁目１０番４８号むつみビル３階,,14,103,2200004,,,,,,,2024-06-04,1,,,,,パーティピープル,0
2090,9020005016444,新規,0,2024-06-04,2024-06-04,一般社団法人オークビレッジ,,その他の設立登記法人,神奈川県,横浜市港南区,港南台４丁目７番２９号Ａ－２０２,,14,111,2340054,,,,,,,2024-06-04,1,,,,,オークビレッジ,0
2093,9021001082380,新規,0,2024-06-04,2024-06-04,株式会社久保川総業,,株式会社,神奈川県,小田原市,小船１０８６番地,,14,206,2560806,,,,,,,2024-06-04,1,,,,,クボカワソウギョウ,0
2096,9021003014596,新規,0,2024-06-04,2024-06-04,合同会社ＭＦテクノエンタープライズ,,合同会社,神奈川県,座間市,ひばりが丘３丁目５０番１７号,,14,216,2520003,,,,,,,2024-06-04,1,,,,,エムエフテクノエンタープライズ,0
2111,9040001133860,新規,0,2024-06-04,2024-06-04,株式会社ＳｌｅｅｋＣｏｄｅ,,株式会社,千葉県,千葉市中央区,生実町９４４番地１ＩＴＯビル１０５,,12,101,2600813,,,,,,,2024-06-04,1,,,,,スリークコード,0
2112,9040001133869,新規,0,2024-06-04,2024-06-04,まる林ファーム株式会社,,株式会社,千葉県,香取郡多古町,十余三３８４番地５５,,12,347,2892306,,,,,,,2024-06-04,1,,,,,マルハヤシファーム,0
2115,9040003025040,新規,0,2024-06-04,2024-06-04,合同会社オールフリー,,合同会社,千葉県,流山市,おおたかの森南３丁目３―１６,,12,220,2700139,,,,,,,2024-06-04,1,,,,,オールフリー,0
2116,9040003025081,新規,0,2024-06-04,2024-06-04,藤宇合同会社,,合同会社,千葉県,千葉市稲毛区,小深町１０８－１,,12,103,2630003,,,,,,,2024-06-04,1,,,,,トウウ,0
2120,9050001054858,新規,0,2024-06-04,2024-06-04,東ノ蔵株式会社,,株式会社,茨城県,つくば市,吾妻１丁目１４番地１－１５１８,,08,220,3050031,,,,,,,2024-06-04,1,,,,,ハルノクラ,0
2126,9070001041813,新規,0,2024-06-04,2024-06-04,株式会社ＡＺＡＡＫＡ　ＪＡＰＡＮ,,株式会社,群馬県,桐生市,境野町７丁目２３６－１,,10,203,3760002,,,,,,,2024-06-04,1,,,,,アザーカジャパン,0
2129,9080101024782,新規,0,2024-06-04,2024-06-04,ＧＥＤＦ株式会社,,株式会社,静岡県,沼津市,大岡２４５０番地の４エストメール大岡駅前町１０２,,22,203,4100022,,,,,,,2024-06-04,1,,,,,ジーイーディーエフ,0
2130,9080101024790,新規,0,2024-06-04,2024-06-04,株式会社Ｃｏｌｏｒｆｕｌ　Ｆｏｒｅｓｔ,,株式会社,静岡県,御殿場市,東田中１０６２番地の２,,22,215,4120026,,,,,,,2024-06-04,1,,,,,カラフルフォレスト,0
2133,9080403005027,新規,0,2024-06-04,2024-06-04,ＫＨ合同会社,,合同会社,静岡県,浜松市中央区,村櫛町３４１７番１号,,22,138,4311207,,,,,,,2024-06-04,1,,,,,ケイエイチ,0
2138,9100001037519,新規,0,2024-06-04,2024-06-04,株式会社ＫＡＴＥＫＹＯ須坂,,株式会社,長野県,須坂市,大字須坂１２９５番地１シルキービル２Ｆ,,20,207,3820000,,,,,,,2024-06-04,1,,,,,カテキョースザカ,0
2157,9120001265316,新規,0,2024-06-04,2024-06-04,源エステート株式会社,,株式会社,大阪府,大阪市福島区,野田６丁目５番４１号リバーガーデン福島Ｓ４１１,,27,103,5530005,,,,,,,2024-06-04,1,,,,,ミナモトエステート,0
2158,9120001265489,新規,0,2024-06-04,2024-06-04,ＰＨＵＯＣＴＡＭ株式会社,,株式会社,大阪府,大阪市浪速区,大国３丁目１１－２３,,27,111,5560014,,,,,,,2024-06-04,1,,,,,フォックタム,0
2159,9120001265506,新規,0,2024-06-04,2024-06-04,株式会社功也,,株式会社,大阪府,大阪市鶴見区,安田３丁目１６番１８号,,27,124,5380032,,,,,,,2024-06-04,1,,,,,カツヤ,0
2160,9120001265555,新規,0,2024-06-04,2024-06-04,龍文傳譯株式会社,,株式会社,大阪府,大阪市中央区,本町３丁目３－９－９Ｆ,,27,128,5410053,,,,,,,2024-06-04,1,,,,,リュウブンデンヤク,0
2162,9120003026740,新規,0,2024-06-04,2024-06-04,正合合同会社,,合同会社,大阪府,大阪市西成区,玉出東１丁目７－２３－１０２室,,27,122,5570043,,,,,,,2024-06-04,1,,,,,ショウゴウ,0
2163,9120003026765,新規,0,2024-06-04,2024-06-04,合同会社よしのすけ,,合同会社,大阪府,大阪市東成区,東中本３丁目２１番１３号,,27,115,5370021,,,,,,,2024-06-04,1,,,,,ヨシノスケ,0
2168,9120005024354,新規,0,2024-06-04,2024-06-04,一般社団法人ＲＫＹ,,その他の設立登記法人,大阪府,大阪市中央区,東心斎橋２丁目２番１３号２Ｆ,,27,128,5420083,,,,,,,2024-06-04,1,,,,,アールケーワイ,0
2172,9122001038148,新規,0,2024-06-04,2024-06-04,Ｎ＆Ｙ株式会社,,株式会社,大阪府,四條畷市,大字清滝８７８番地の３,,27,229,5750000,,,,,,,2024-06-04,1,,,,,エヌアンドワイ,0
2173,9122003002903,新規,0,2024-06-04,2024-06-04,合同会社夕凪,,合同会社,大阪府,柏原市,国分本町５丁目４番２４号,,27,221,5820021,,,,,,,2024-06-04,1,,,,,ユウナギ,0
2176,9130001077198,新規,0,2024-06-04,2024-06-04,株式会社京屋,,株式会社,京都府,京都市山科区,椥辻中在家町２８番地の６６,00135009,26,110,6078161,,,,,,,2024-06-04,1,,,,,キョウヤ,0
2177,9130001077207,新規,0,2024-06-04,2024-06-04,株式会社ＫＡＪＩＵＲＡＫＯＧＹＯ,,株式会社,京都府,八幡市,八幡馬場９９番地,,26,210,6148085,,,,,,,2024-06-04,1,,,,,カジウラコウギョウ,0
2179,9130003009612,新規,0,2024-06-04,2024-06-04,合同会社Ｍ２Ｈ,,合同会社,京都府,京都市伏見区,羽束師鴨川町３４９番地９,,26,109,6128484,,,,,,,2024-06-04,1,,,,,エムツーエイチ,0
2186,9140001134618,新規,0,2024-06-04,2024-06-04,ＫＹＵＢＯ株式会社,,株式会社,兵庫県,尼崎市,南武庫之荘１２丁目７－１１,,28,202,6610033,,,,,,,2024-06-04,1,,,,,キュウボ,0
2187,9140001134626,新規,0,2024-06-04,2024-06-04,株式会社ひかりがほしい,,株式会社,兵庫県,姫路市,阿保甲８５１番地３,,28,201,6700944,,,,,,,2024-06-04,1,,,,,ヒカリガホシイ,0
2188,9140001134650,新規,0,2024-06-04,2024-06-04,株式会社野村組,,株式会社,兵庫県,明石市,大久保町谷八木１２４－１キーロックハウス３０６,,28,203,6740062,,,,,,,2024-06-04,1,,,,,ノムラグミ,0
2194,9140005027099,新規,0,2024-06-04,2024-06-04,一般社団法人関西ムスリム協会,,その他の設立登記法人,兵庫県,神戸市北区,有野町唐櫃３３１７－１１,,28,109,6511331,,,,,,,2024-06-04,1,,,,,カンサイムスリムキョウカイ,0
2196,9150001027309,新規,0,2024-06-04,2024-06-04,株式会社プラステート,,株式会社,奈良県,桜井市,大字脇本４２９番地の５,,29,206,6330018,,,,,,,2024-06-04,1,,,,,プラステート,0
2205,9180001161765,新規,0,2024-06-04,2024-06-04,株式会社Ａｎｎｉｅ,,株式会社,愛知県,東海市,大田町蟹田１００７番地こんぱるビル２階,,23,222,4770031,,,,,,,2024-06-04,1,,,,,アニー,0
2206,9180001161798,新規,0,2024-06-04,2024-06-04,株式会社ロテレ,,株式会社,愛知県,名古屋市西区,中小田井１丁目３８６番地,,23,104,4520822,,,,,,,2024-06-04,1,,,,,ロテレ,0
2211,9180301038696,新規,0,2024-06-04,2024-06-04,ペコラ株式会社,,株式会社,愛知県,岡崎市,緑丘２丁目１番地８,,23,202,4440806,,,,,,,2024-06-04,1,,,,,ペコラ,0
2215,9220001026039,新規,0,2024-06-04,2024-06-04,石川線建株式会社,,株式会社,石川県,金沢市,松村３丁目３６７番地,,17,201,9200348,,,,,,,2024-06-04,1,,,,,イシカワセンケン,0
2216,9230001020379,新規,0,2024-06-04,2024-06-04,ロイナー株式会社,,株式会社,富山県,滑川市,上小泉２３４番地２,,16,206,9360053,,,,,,,2024-06-04,1,,,,,ロイナー,0
2218,9240001063328,新規,0,2024-06-04,2024-06-04,株式会社ＮＳＹ,,株式会社,広島県,福山市,沼隈町大字草深３５番地３,,34,207,7200311,,,,,,,2024-06-04,1,,,,,エヌエスワイ,0
2225,9260001039128,新規,0,2024-06-04,2024-06-04,株式会社邦美丸,,株式会社,岡山県,玉野市,八浜町波知２１６０番地９７,,33,204,7060223,,,,,,,2024-06-04,1,,,,,クニミマル,0
2235,9290001105991,新規,0,2024-06-04,2024-06-04,株式会社臼杵商店,,株式会社,福岡県,福岡市西区,北原２丁目１２番８号,,40,135,8190379,,,,,,,2024-06-04,1,,,,,ウスキショウテン,0
2240,9290003015396,新規,0,2024-06-04,2024-06-04,合同会社アールコンパス,,合同会社,福岡県,福岡市中央区,天神２丁目２番１２号Ｔ＆Ｊビルディング７Ｆ,,40,133,8100001,,,,,,,2024-06-04,1,,,,,アールコンパス,0
2242,9290005019420,新規,0,2024-06-04,2024-06-04,一般財団法人グローバルファミリーｅスポーツ財団,,その他の設立登記法人,福岡県,那珂川市,松木３丁目１５,,40,231,8111251,,,,,,,2024-06-04,1,,,,,グローバルファミリーイースポーツザイダン,0
2243,9290801030613,新規,0,2024-06-04,2024-06-04,株式会社ＬｅＶ　ＬａＢ,,株式会社,福岡県,北九州市八幡西区,千代ケ崎１丁目３番５号,,40,109,8070803,,,,,,,2024-06-04,1,,,,,レブラボ,0
2245,9300001013763,新規,0,2024-06-04,2024-06-04,株式会社ＴＳＵＮＡＧＵ,,株式会社,佐賀県,鳥栖市,京町７２６番地,,41,203,8410034,,,,,,,2024-06-04,1,,,,,ツナグ,0
2250,9330001032117,新規,0,2024-06-04,2024-06-04,株式会社ＭＥＴＡＣＳ,,株式会社,熊本県,宇城市,松橋町南豊崎８６０番地２,,43,213,8690543,,,,,,,2024-06-04,1,,,,,メタックス,0
2252,9340003004492,新規,0,2024-06-04,2024-06-04,２４３Ｄｉｍｅｎｓｉｏｎｓ合同会社,,合同会社,鹿児島県,鹿児島市,郡元１丁目１３番３号エムディア附属中前３０３号,,46,201,8900065,,,,,,,2024-06-04,1,,,,,ニイヨンサンディメンションズ,0
2254,9360001033748,新規,0,2024-06-04,2024-06-04,北斗電設株式会社,,株式会社,沖縄県,中頭郡中城村,字津覇５０３番地,,47,328,9012413,,,,,,,2024-06-04,1,,,,,ホクトデンセツ,0
2255,9360001033764,新規,0,2024-06-04,2024-06-04,アンデン株式会社,,株式会社,沖縄県,中頭郡北中城村,字島袋１４２９－１ＣＨ－１,,47,327,9012301,,,,,,,2024-06-04,1,,,,,アンデン,0
2256,9360003014036,新規,0,2024-06-04,2024-06-04,合同会社四十七鈴,,合同会社,沖縄県,宮古島市,平良字下里１５４８番地２１・３０１,,47,214,9060013,,,,,,,2024-06-04,1,,,,,ヨンジュウナナリン,0
2257,9360003014044,新規,0,2024-06-04,2024-06-04,合同会社Ｋｅｅｐ　Ｈｏｐｅ,,合同会社,沖縄県,中頭郡西原町,字内間１０３番地の１１,,47,329,9030121,,,,,,,2024-06-04,1,,,,,キープホープ,0
2258,9370001051352,新規,0,2024-06-04,2024-06-04,ＭＹ　ＷＡＹ　ＳＴＹＬＥ株式会社,,株式会社,宮城県,大崎市,三本木字しらとり１１番地４,,04,215,9896321,,,,,,,2024-06-04,1,,,,,マイウェイスタイル,0
2259,9370001051360,新規,0,2024-06-04,2024-06-04,株式会社Ｓｏｇｎｏ　Ｓ　Ｃａｓａ,,株式会社,宮城県,仙台市宮城野区,福室５丁目１２番４８号,,04,102,9830005,,,,,,,2024-06-04,1,,,,,ソーニョエスカーサ,0
2262,9380001034579,新規,0,2024-06-04,2024-06-04,株式会社ま組,,株式会社,福島県,郡山市,片平町字谷地１番地１,,07,203,9630211,,,,,,,2024-06-04,1,,,,,マグミ,0
2264,9390005009072,新規,0,2024-06-04,2024-06-04,一般社団法人日本地域創生連携協会,,その他の設立登記法人,山形県,米沢市,東３丁目１番１号,,06,202,9920026,,,,,,,2024-06-04,1,,,,,ニホンチイキソウセイレンケイキョウカイ,0
2278,9450001014334,新規,0,2024-06-04,2024-06-04,株式会社大栄興業,,株式会社,北海道,旭川市,西神楽一線六号７６番地の１５,,01,204,0788381,,,,,,,2024-06-04,1,,,,,ダイエイコウギョウ,0
2286,9700150125402,新規,0,2024-06-04,2024-05-15,産学協力研究コンソーシアムインターネット技術研究会,,その他,兵庫県,三田市,学園上ケ原１番,,28,219,6691330,,,,,,,2024-05-15,1,,,,,サンガクキヨウリヨクケンキユウコンソーシアムインターネツトギジユツケンキユウカイ,0
2287,9700150125757,新規,0,2024-06-04,2024-06-04,寧波超元金属貿易有限公司,,外国会社等,千葉県,市川市,塩焼２丁目２番７５号サイドパークＳ２０１,,12,203,2720114,中華人民共和国浙江省寧波市鎮海区招宝山街道平海路１１８８号６号楼,,,,,,2024-06-04,1,,,,,ニンポチヨウゲンキンゾクボウエキユウゲンコウシ,0
