sequenceNumber,corporateNumber,process,correct,updateDate,changeDate,name,nameImageId,kind,prefectureName,cityName,streetNumber,addressImageId,prefectureCode,cityCode,postCode,addressOutside,addressOutsideImageId,closeDate,closeCause,successorCorporateNumber,changeCause,assignmentDate,latest,enName,enPrefectureName,enCityName,enAddressOutside,furigana,hihyoji
6,1010001139967,登記記録の閉鎖等,0,2021-09-30,2021-09-27,西田電器株式会社,,株式会社,東京都,千代田区,丸の内２丁目５番２号,,13,101,1000005,,,2021-09-27,清算の結了等,,,2015-10-05,1,,,,,ニシダデンキ,0
12,1010001179889,登記記録の閉鎖等,0,2021-09-30,2021-09-27,ミトヨ商事株式会社,,株式会社,東京都,中央区,新川１丁目１６番１０号,,13,102,1040033,,,2021-09-27,清算の結了等,,,2016-11-30,1,,,,,ミトヨショウジ,0
16,1010005026732,登記記録の閉鎖等,0,2021-09-30,2021-09-24,一般社団法人日本賃貸仲介協会,,その他の設立登記法人,東京都,千代田区,麹町１丁目４番４号,00109943,13,101,1020083,,,2021-09-24,清算の結了等,,,2017-04-18,1,,,,,ニホンチンタイチュウカイキョウカイ,0
25,1010402024330,登記記録の閉鎖等,0,2021-09-30,2021-09-15,有限会社ケーエムジャパン,,有限会社,東京都,港区,芝浦４丁目５番１１号,,13,103,1080023,,,2021-09-15,清算の結了等,,,2015-10-05,1,,,,,,0
27,1010405016564,登記記録の閉鎖等,0,2021-09-30,2021-09-16,一般社団法人ケイツー・ヘルスケア,,その他の設立登記法人,東京都,港区,西新橋１丁目２番９号ＥＰコンサルティングサービス内,,13,103,1050003,,,2021-09-16,清算の結了等,,,2018-03-15,1,,,,,ケイツーヘルスケア,0
53,1011101061185,登記記録の閉鎖等,0,2021-09-30,2021-09-21,株式会社エスペラント,,株式会社,東京都,新宿区,新宿１丁目２３番５号サンサーラ御苑２０１号,,13,104,1600022,,,2021-09-21,清算の結了等,,,2015-10-05,1,,,,,エスペラント,0
59,1011501000726,登記記録の閉鎖等,0,2021-09-30,2021-09-24,株式会社エルグレイス,,株式会社,東京都,北区,田端１丁目１４番１１号,,13,117,1140014,,,2021-09-24,清算の結了等,,,2015-10-05,1,,,,,エルグレイス,0
61,1011501017687,登記記録の閉鎖等,0,2021-09-30,2021-09-27,東京ポリマー株式会社,,株式会社,東京都,荒川区,荒川５丁目４番２号新日本東京ビル３階,,13,118,1160002,,,2021-09-27,清算の結了等,,,2015-10-05,1,,,,,トウキョウポリマー,0
74,1020001103831,登記記録の閉鎖等,0,2021-09-30,2021-09-27,株式会社ビーズブルー,,株式会社,神奈川県,横浜市南区,大岡５丁目１１番地の２の１０１号室,,14,105,2320061,,,2021-09-27,清算の結了等,,,2015-10-05,1,,,,,ビーズブルー,0
117,1080001011327,登記記録の閉鎖等,0,2021-09-30,2021-09-27,株式会社ティースリー,,株式会社,静岡県,静岡市駿河区,下川原２丁目７番２８号,,22,102,4210113,,,2021-09-27,清算の結了等,,,2015-10-05,1,,,,,ティースリー,0
121,1100001006621,登記記録の閉鎖等,0,2021-09-30,2021-09-27,株式会社ＭＹネット,,株式会社,長野県,長野市,中御所５丁目３番３号,,20,201,3800935,,,2021-09-27,清算の結了等,,,2015-10-05,1,,,,,エムワイネット,0
127,1120001054131,登記記録の閉鎖等,0,2021-09-30,2021-09-24,株式会社エステテックサロンフジタ,,株式会社,大阪府,大阪市淀川区,西中島４丁目３番４号,,27,123,5320011,,,2021-09-24,清算の結了等,,,2015-10-05,1,,,,,エステテックサロンフジタ,0
128,1120001086918,登記記録の閉鎖等,0,2021-09-30,2021-09-24,株式会社根来,,株式会社,大阪府,大阪市中央区,北久宝寺町２丁目１番３号,,27,128,5410057,,,2021-09-24,清算の結了等,,,2015-10-05,1,,,,,,0
157,1130001059162,登記記録の閉鎖等,0,2021-09-30,2021-09-27,株式会社Ｌｉｋｅ,,株式会社,大阪府,大阪市淀川区,木川西１丁目４番１７号Ｔ＆Ｍビル,,27,123,5320013,,,2021-09-27,清算の結了等,,,2017-02-08,1,,,,,ライク,0
211,1240002028782,登記記録の閉鎖等,0,2021-09-30,2021-09-29,有限会社アシストコム,,有限会社,広島県,廿日市市,津田１８１４番地２,,34,213,7380222,,,2021-09-29,清算の結了等,,,2015-10-05,1,,,,,アシストコム,0
214,1260001020805,登記記録の閉鎖等,0,2021-09-30,2021-09-28,株式会社タナカ,,株式会社,岡山県,美作市,林野３６８番地,,33,215,7070041,,,2021-09-28,清算の結了等,,,2015-10-05,1,,,,,タナカ,0
221,1290001001414,登記記録の閉鎖等,0,2021-09-30,2021-09-10,新日本物産株式会社,,株式会社,福岡県,福岡市南区,長住５丁目４番１号,,40,134,8111362,,,2021-09-10,清算の結了等,,,2015-10-05,1,,,,,シンニホンブッサン,0
230,1310002002672,登記記録の閉鎖等,0,2021-09-30,2021-09-29,製菓堂有限会社,,有限会社,長崎県,長崎市,上戸町４丁目６番２６号,,42,201,8500953,,,2021-09-29,清算の結了等,,,2015-10-05,1,,,,,セイカドウ,0
235,1340001022438,登記記録の閉鎖等,0,2021-09-30,2021-09-24,九州テクノリサーチ株式会社,,株式会社,鹿児島県,鹿児島市,鴨池新町６番５号,,46,201,8900064,,,2021-09-24,清算の結了等,,,2019-11-22,1,,,,,キュウシュウテクノリサーチ,0
266,1470005005954,登記記録の閉鎖等,0,2021-09-30,2021-09-22,特定非営利活動法人フードバンク高松,,その他の設立登記法人,香川県,さぬき市,鴨部６１１０番地５,,37,206,7692104,,,2021-09-22,清算の結了等,,,2016-10-06,1,,,,,フードバンクタカマツ,0
272,2010001115380,登記記録の閉鎖等,0,2021-09-30,2021-09-24,株式会社ザウス,,株式会社,東京都,千代田区,神田松永町１７番地３号秋葉原妙見屋ビル８階,,13,101,1010023,,,2021-09-24,清算の結了等,,,2015-10-05,1,,,,,,0
277,2010003030132,登記記録の閉鎖等,0,2021-09-30,2021-09-28,合同会社インディペンデント,,合同会社,東京都,千代田区,岩本町２丁目１７番４号泰合ビルⅡ１階,00117014,13,101,1010032,,,2021-09-28,清算の結了等,,,2019-07-02,1,,,,,インディペンデント,0
294,2010503004387,登記記録の閉鎖等,0,2021-09-30,2021-09-22,合同会社ＪＣＣ,,合同会社,東京都,台東区,入谷１丁目２２番９号,,13,106,1100013,,,2021-09-22,清算の結了等,,,2015-10-05,1,,,,,ジェイシーシー,0
302,2010703003321,登記記録の閉鎖等,0,2021-09-30,2021-09-29,合同会社サクラエイ,,合同会社,東京都,品川区,二葉３丁目１－１４モウリハイツ２０５,,13,109,1420043,,,2021-09-29,清算の結了等,,,2016-11-02,1,,,,,サクラエイ,0
324,2011003007921,登記記録の閉鎖等,0,2021-09-30,2021-09-29,合同会社ＩＶＱＬＯ,,合同会社,東京都,渋谷区,渋谷３丁目１５番６号並木橋ビル１Ｆ,,13,113,1500002,,,2021-09-29,清算の結了等,,,2017-08-09,1,,,,,,0
348,2012702003252,登記記録の閉鎖等,0,2021-09-30,2021-09-29,有限会社中村建築設計事務所,,有限会社,東京都,東村山市,青葉町３丁目１４番地６７,,13,213,1890002,,,2021-09-29,清算の結了等,,,2015-10-05,1,,,,,ナカムラケンチクセッケイジムショ,0
351,2013301039084,登記記録の閉鎖等,0,2021-09-30,2021-09-21,株式会社メディカルトライ,,株式会社,東京都,大田区,南馬込５丁目４０番１号西馬込メディカルビレッジ１階,,13,111,1430025,,,2021-09-21,清算の結了等,,,2016-07-06,1,,,,,メディカルトライ,0
360,2020003000308,登記記録の閉鎖等,0,2021-09-30,2021-09-27,合名会社中馬工房,,合名会社,神奈川県,横浜市泉区,下飯田町８９２番地２９,,14,116,2450017,,,2021-09-27,清算の結了等,,,2015-10-05,1,,,,,チュウマコウボウ,0
373,2030002059146,登記記録の閉鎖等,0,2021-09-30,2021-09-15,有限会社中村薬局,,有限会社,埼玉県,朝霞市,宮戸３丁目３番５３号,,11,227,3510031,,,2021-09-15,清算の結了等,,,2015-10-05,1,,,,,ナカムラヤッキョク,0
382,2040002087889,登記記録の閉鎖等,0,2021-09-30,2021-09-21,石毛電設有限会社,,有限会社,千葉県,香取郡東庄町,笹川い４７１４番地,,12,349,2890601,,,2021-09-21,清算の結了等,,,2015-10-05,1,,,,,イシゲデンセツ,0
386,2040005010740,登記記録の閉鎖等,0,2021-09-30,2021-08-05,熊野神社,,その他の設立登記法人,千葉県,長生郡白子町,福島１０２５番地,,12,424,2994204,,,2021-08-05,合併による解散等,7040005010752,令和３年７月２９日千葉県長生郡白子町福島２１１７番地２日月神社（7040005010752）に合併し解散,2015-10-05,1,,,,,クマノジンジャ,0
388,2050002043602,登記記録の閉鎖等,0,2021-09-30,2021-09-22,有限会社広瀬自動車整備工場,,有限会社,茨城県,筑西市,海老ヶ島８８４番地の２,,08,227,3004517,,,2021-09-22,清算の結了等,,,2015-10-05,1,,,,,ヒロセジドウシャセイビコウジョウ,0
394,2080002006523,登記記録の閉鎖等,0,2021-09-30,2021-09-22,有限会社ロードサイン,,有限会社,静岡県,静岡市駿河区,小鹿８８４番地の４１,,22,102,4228021,,,2021-09-22,清算の結了等,,,2015-10-05,1,,,,,ロードサイン,0
444,2140001070299,登記記録の閉鎖等,0,2021-09-30,2021-09-21,株式会社ホーク,,株式会社,兵庫県,西宮市,小松北町２丁目７番５号,,28,204,6638126,,,2021-09-21,清算の結了等,,,2015-10-05,1,,,,,ホーク,0
445,2140002002342,登記記録の閉鎖等,0,2021-09-30,2021-09-24,有限会社増田,,有限会社,兵庫県,神戸市東灘区,岡本８丁目１０番１７号,,28,101,6580072,,,2021-09-24,清算の結了等,,,2015-10-05,1,,,,,マスダ,0
458,2180302009645,登記記録の閉鎖等,0,2021-09-30,2021-09-28,有限会社豊美,,有限会社,愛知県,豊橋市,飯村南２丁目４番地の２５,,23,201,4400835,,,2021-09-28,清算の結了等,,,2015-10-05,1,,,,,ホウビ,0
474,2250002001837,登記記録の閉鎖等,0,2021-09-30,2021-09-28,有限会社わいぴー,,有限会社,山口県,山口市,小郡新町５丁目１０番２４号,,35,203,7540031,,,2021-09-28,清算の結了等,,,2015-10-05,1,,,,,ワイピー,0
500,2320205000538,登記記録の閉鎖等,0,2021-09-30,2021-09-27,医療法人樹会,,その他の設立登記法人,大分県,臼杵市,大字江無田１１５４番地１,,44,206,8750023,,,2021-09-27,清算の結了等,,,2015-10-05,1,,,,,イツキカイ,0
513,2400002007744,登記記録の閉鎖等,0,2021-09-30,2021-09-28,有限会社東桜観光,,有限会社,岩手県,八幡平市,平笠第２５地割２５番地,,03,214,0287113,,,2021-09-28,清算の結了等,,,2015-10-05,1,,,,,トウオウカンコウ,0
516,2430001063018,登記記録の閉鎖等,0,2021-09-30,2021-09-22,株式会社澄川フォトセンター,,株式会社,北海道,札幌市北区,新琴似十一条９丁目５番１号,,01,102,0010911,,,2021-09-22,清算の結了等,,,2015-10-05,1,,,,,スミカワフォトセンター,0
522,2460102001204,登記記録の閉鎖等,0,2021-09-30,2021-09-27,有限会社小杉山自動車板金塗装,,有限会社,北海道,帯広市,西十九条南５丁目３５番１１号,,01,207,0802469,,,2021-09-27,清算の結了等,,,2015-10-05,1,,,,,コスギヤマジドウシャバンキントソウ,0
534,2500002013765,登記記録の閉鎖等,0,2021-09-30,2021-09-27,有限会社八正工業,,有限会社,愛媛県,八幡浜市,向灘１７２番地９,00008003,38,204,7960001,,,2021-09-27,清算の結了等,,,2015-10-05,1,,,,,ハッショウコウギョウ,0
561,3010502010393,登記記録の閉鎖等,0,2021-09-30,2021-09-27,有限会社丸廣尾谷商店,,有限会社,東京都,台東区,今戸２丁目２２番１０号,,13,106,1110024,,,2021-09-27,清算の結了等,,,2015-10-05,1,,,,,マルヒロオタニショウテン,0
574,3010903005042,登記記録の閉鎖等,0,2021-09-30,2021-09-27,Ｔ＆Ｏ　Ｐａｒｔｎｅｒｓ合同会社,,合同会社,東京都,世田谷区,太子堂２丁目２８番７号,,13,112,1540004,,,2021-09-27,清算の結了等,,,2019-06-26,1,,,,,ティーアンドオーパートナーズ,0
591,3011401002928,登記記録の閉鎖等,0,2021-09-30,2021-09-27,株式会社信成,,株式会社,東京都,板橋区,徳丸８丁目１９番１５号,,13,119,1750083,,,2021-09-27,清算の結了等,,,2015-10-05,1,,,,,,0
596,3011501022982,登記記録の閉鎖等,0,2021-09-30,2021-09-22,株式会社四季彩,,株式会社,東京都,台東区,下谷１丁目１番７－１２０３Ｇｒａｃｅ　Ｃｏｕｒｔ　Ｕｅｎｏ,,13,106,1100004,,,2021-09-22,清算の結了等,,,2017-09-07,1,,,,,シキサイ,0
608,3012702005495,登記記録の閉鎖等,0,2021-09-30,2021-09-29,有限会社三又酒店,,有限会社,東京都,西東京市,谷戸町２丁目１０番５号,,13,229,1880001,,,2021-09-29,清算の結了等,,,2015-10-05,1,,,,,サンマタサケテン,0
627,3030001051078,登記記録の閉鎖等,0,2021-09-30,2021-09-01,株式会社茶夢,,株式会社,埼玉県,春日部市,中央２丁目１７番地３,,11,214,3440067,,,2021-09-01,合併による解散等,9030002068025,令和３年９月１日埼玉県春日部市粕壁二丁目１番１号株式会社おづつみ園（9030002068025）に合併し解散,2015-10-05,1,,,,,サム,0
628,3030001086140,登記記録の閉鎖等,0,2021-09-30,2021-09-10,株式会社新井,,株式会社,埼玉県,深谷市,沼尻６５５番地,,11,218,3660017,,,2021-09-10,清算の結了等,,,2015-10-05,1,,,,,アライ,0
632,3030002106979,登記記録の閉鎖等,0,2021-09-30,2021-09-16,有限会社前川自動車工業,,有限会社,埼玉県,川口市,前川２丁目３７番１号,,11,203,3330842,,,2021-09-16,清算の結了等,,,2015-10-05,1,,,,,マエカワジドウシャコウギョウ,0
639,3060002006210,登記記録の閉鎖等,0,2021-09-30,2021-09-22,有限会社手塚建築構造設計事務所,,有限会社,栃木県,宇都宮市,一番町１－１７,,09,201,3200812,,,2021-09-22,清算の結了等,,,2015-10-05,1,,,,,テヅカケンチクコウゾウセッケイジムショ,0
696,3140001092557,登記記録の閉鎖等,0,2021-09-30,2021-09-24,ウエル株式会社,,株式会社,兵庫県,川辺郡猪名川町,伏見台２丁目１－９,,28,301,6660262,,,2021-09-24,清算の結了等,,,2015-10-05,1,,,,,ウエル,0
705,3180001035586,登記記録の閉鎖等,0,2021-09-30,2021-09-22,株式会社クラウンデザインセンター,,株式会社,愛知県,名古屋市中区,正木１丁目１３番１４号,,23,106,4600024,,,2021-09-22,清算の結了等,,,2015-10-05,1,,,,,クラウンデザインセンター,0
719,3180302007383,登記記録の閉鎖等,0,2021-09-30,2021-09-28,有限会社コクピット豊橋,,有限会社,愛知県,豊橋市,神野新田町字ロノ割３５番地の３,,23,201,4418077,,,2021-09-28,清算の結了等,,,2015-10-05,1,,,,,コクピットトヨハシ,0
729,3200001032242,登記記録の閉鎖等,0,2021-09-30,2021-09-27,まち勉プライベートスクール株式会社,,株式会社,岐阜県,大垣市,歩行町２丁目５７番地１カーニープレイス大垣ビル６階,,21,202,5030898,,,2021-09-27,清算の結了等,,,2015-11-05,1,,,,,マチベンプライベートスクール,0
739,3240002011588,登記記録の閉鎖等,0,2021-09-30,2021-09-29,有限会社中岡工務店,,有限会社,広島県,広島市西区,大宮３丁目７番１４号,,34,104,7330007,,,2021-09-29,清算の結了等,,,2015-10-05,1,,,,,ナカオカコウムテン,0
744,3240005003558,登記記録の閉鎖等,0,2021-09-30,2021-09-29,医療法人社団春秋会,,その他の設立登記法人,広島県,東広島市,豊栄町清武１０番地,,34,212,7392313,,,2021-09-29,清算の結了等,,,2015-10-05,1,,,,,シュンジュウカイ,0
750,3260001027872,登記記録の閉鎖等,0,2021-09-30,2021-09-29,株式会社国際先進医療センター,,株式会社,岡山県,岡山市南区,東畦１１０番地７,,33,104,7010211,,,2021-09-29,清算の結了等,,,2015-10-05,1,,,,,コクサイセンシンイリョウセンター,0
761,3290801016980,登記記録の閉鎖等,0,2021-09-30,2021-09-16,山﨑金属株式会社,00094258,株式会社,福岡県,田川郡赤村,大字赤７８３６番地２,,40,609,8240431,,,2021-09-16,清算の結了等,,,2015-10-05,1,,,,,ヤマサキキンゾク,0
779,3380001006410,登記記録の閉鎖等,0,2021-09-30,2021-09-24,株式会社フロイデ,,株式会社,福島県,郡山市,久留米２丁目１３５番３号,,07,203,9638846,,,2021-09-24,清算の結了等,,,2015-10-05,1,,,,,フロイデ,0
780,3380001016467,登記記録の閉鎖等,0,2021-09-30,2021-09-24,株式会社音吉ホンダ販売,,株式会社,福島県,双葉郡富岡町,中央２丁目５９番地,,07,543,9791112,,,2021-09-24,清算の結了等,,,2015-10-05,1,,,,,オトキチホンダハンバイ,0
786,3420001013583,登記記録の閉鎖等,0,2021-09-30,2021-09-21,株式会社ＲＥＮＯＶＥ,,株式会社,青森県,青森市,中央１丁目２６番１１号,,02,201,0300822,,,2021-09-21,清算の結了等,,,2015-10-05,1,,,,,リノベ,0
787,3420002008657,登記記録の閉鎖等,0,2021-09-30,2021-09-24,プロパティ安田有限会社,,有限会社,青森県,八戸市,石堂４丁目４番２６号,,02,203,0391165,,,2021-09-24,清算の結了等,,,2015-10-05,1,,,,,プロパティヤスダ,0
846,4011002011006,登記記録の閉鎖等,0,2021-09-30,2021-09-09,有限会社広尾,,有限会社,東京都,渋谷区,広尾２丁目６番１１号,,13,113,1500012,,,2021-09-09,清算の結了等,,,2015-10-05,1,,,,,ヒロオ,0
872,4012403001025,登記記録の閉鎖等,0,2021-09-30,2021-09-17,セイワ企画合同会社,,合同会社,東京都,府中市,日新町２丁目１２番地２４,,13,206,1830036,,,2021-09-17,清算の結了等,,,2015-10-05,1,,,,,セイワキカク,0
883,4013202008376,登記記録の閉鎖等,0,2021-09-30,2021-09-10,有限会社アイアイジェー通訳翻訳センター,,有限会社,東京都,目黒区,下目黒２丁目８－２－１０９,,13,110,1530064,,,2021-09-10,清算の結了等,,,2015-10-05,1,,,,,アイアイジェーツウヤクホンヤクセンター,0
889,4020001110882,登記記録の閉鎖等,0,2021-09-30,2021-09-27,株式会社ＭＡＴＳＵテック,,株式会社,神奈川県,川崎市幸区,南加瀬２丁目１６番３１号,,14,132,2120055,,,2021-09-27,清算の結了等,,,2015-10-05,1,,,,,,0
891,4020002021922,登記記録の閉鎖等,0,2021-09-30,2021-09-24,有限会社テクノホーン,,有限会社,神奈川県,横浜市旭区,市沢町８４４番地の３,,14,112,2410014,,,2021-09-24,清算の結了等,,,2015-10-05,1,,,,,テクノホーン,0
905,4030001096881,登記記録の閉鎖等,0,2021-09-30,2021-09-16,株式会社横川,,株式会社,埼玉県,行田市,行田１１番３３号,,11,206,3610073,,,2021-09-16,清算の結了等,,,2015-10-05,1,,,,,ヨコカワ,0
919,4050001020311,登記記録の閉鎖等,0,2021-09-30,2021-09-27,図南建設株式会社,,株式会社,茨城県,鹿嶋市,宮中１丁目８番６号,,08,222,3140031,,,2021-09-27,清算の結了等,,,2015-10-05,1,,,,,トナミケンセツ,0
937,4120001037934,登記記録の閉鎖等,0,2021-09-30,2021-09-22,株式会社協和インテリア,,株式会社,大阪府,大阪市浪速区,桜川３丁目１番２８号,,27,111,5560022,,,2021-09-22,清算の結了等,,,2015-10-05,1,,,,,キョウワインテリア,0
942,4120001160769,登記記録の閉鎖等,0,2021-09-30,2021-09-24,株式会社Ｓ＆Ｓ,,株式会社,大阪府,大阪市中央区,天満橋京町２番６号天満橋八千代ビル別館,,27,128,5400032,,,2021-09-24,清算の結了等,,,2015-10-05,1,,,,,エスアンドエス,0
955,4120101042636,登記記録の閉鎖等,0,2021-09-30,2021-09-29,藤原産業株式会社,,株式会社,大阪府,泉大津市,板原町３丁目２４番３４号,,27,206,5950033,,,2021-09-29,清算の結了等,,,2015-10-05,1,,,,,,0
971,4140001084314,登記記録の閉鎖等,0,2021-09-30,2021-09-24,株式会社プロト,,株式会社,兵庫県,川西市,清和台西５丁目４－３９,,28,217,6660143,,,2021-09-24,清算の結了等,,,2015-10-05,1,,,,,プロト,0
979,4170002000036,登記記録の閉鎖等,0,2021-09-30,2021-09-30,有限会社セイワファーマシー,,有限会社,和歌山県,和歌山市,西小二里１丁目２番３１号,,30,201,6410031,,,2021-09-30,清算の結了等,,,2015-10-05,1,,,,,セイワファーマシー,0
981,4180001030198,登記記録の閉鎖等,0,2021-09-30,2021-09-22,株式会社コーポ山田,,株式会社,愛知県,名古屋市中村区,中村町３丁目３０番地,,23,105,4530053,,,2021-09-22,清算の結了等,,,2015-10-05,1,,,,,コーポヤマダ,0
1004,4220002000385,登記記録の閉鎖等,0,2021-09-30,2021-09-22,有限会社グランドコーポレーション,,有限会社,石川県,野々市市,堀内５丁目２４８番地,,17,212,9218844,,,2021-09-22,清算の結了等,,,2015-10-05,1,,,,,グランドコーポレーション,0
1014,4260001005365,登記記録の閉鎖等,0,2021-09-30,2021-09-29,株式会社はせ川,,株式会社,岡山県,岡山市中区,新京橋３丁目４番１３号,,33,102,7038294,,,2021-09-29,清算の結了等,,,2015-10-05,1,,,,,ハセガワ,0
1048,4430001020652,登記記録の閉鎖等,0,2021-09-30,2021-09-22,株式会社東洋工業所,,株式会社,北海道,札幌市西区,発寒十二条１１丁目６番１号,,01,107,0630832,,,2021-09-22,清算の結了等,,,2015-10-05,1,,,,,トウヨウコウギョウショ,0
1057,4430005013181,登記記録の閉鎖等,0,2021-09-30,2021-09-21,特定非営利活動法人民団福祉会,,その他の設立登記法人,北海道,札幌市中央区,南九条西４丁目１－７韓国文化会館４階,,01,101,0640809,,,2021-09-21,清算の結了等,,,2017-07-20,1,,,,,ミンダンフクシカイ,0
1060,4480002014285,登記記録の閉鎖等,0,2021-09-30,2021-09-22,柿本画軸有限会社,,有限会社,徳島県,海部郡美波町,木岐６８７番地,,36,387,7792108,,,2021-09-22,清算の結了等,,,2015-10-05,1,,,,,カキモトガジク,0
1064,5010001085621,登記記録の閉鎖等,0,2021-09-30,2021-09-27,株式会社メタル・ストック,,株式会社,東京都,千代田区,丸の内１丁目９番１号,,13,101,1000005,,,2021-09-27,清算の結了等,,,2015-10-05,1,,,,,メタルストック,0
1071,5010401012299,登記記録の閉鎖等,0,2021-09-30,2021-09-16,ジェイ・エム・エス・インターナショナル株式会社,,株式会社,東京都,港区,南青山２丁目７番５南青山コンド２０１,,13,103,1070062,,,2021-09-16,清算の結了等,,,2015-10-05,1,,,,,ジェイエムエスインターナショナル,0
1074,5010401105680,登記記録の閉鎖等,0,2021-09-30,2021-09-28,フィンテックグローバルトレーディング株式会社,,株式会社,東京都,品川区,上大崎３丁目１番１号目黒セントラルスクエア１５階,,13,109,1410021,,,2021-09-28,清算の結了等,,,2015-10-05,1,,,,,フィンテックグローバルトレーディング,0
1082,5010501042361,登記記録の閉鎖等,0,2021-09-30,2021-09-24,株式会社一陽,,株式会社,東京都,台東区,台東１丁目２９番３－３０５号,,13,106,1100016,,,2021-09-24,清算の結了等,,,2018-03-28,1,,,,,イチヨウ,0
1083,5010601006191,登記記録の閉鎖等,0,2021-09-30,2021-09-15,丸八金属工業株式会社,,株式会社,東京都,江東区,新大橋３丁目１７番７号,,13,108,1350007,,,2021-09-15,清算の結了等,,,2015-10-05,1,,,,,マルハチキンゾクコウギョウ,0
1109,5011701003442,登記記録の閉鎖等,0,2021-09-30,2021-09-22,株式会社佐藤機械製作所,,株式会社,東京都,江戸川区,西一之江１丁目４番３号,,13,123,1320023,,,2021-09-22,清算の結了等,,,2015-10-05,1,,,,,サトウキカイセイサクショ,0
1112,5011801015742,登記記録の閉鎖等,0,2021-09-30,2021-09-29,株式会社グリーンホーム,,株式会社,東京都,足立区,綾瀬１丁目３２番５号,,13,121,1200005,,,2021-09-29,清算の結了等,,,2015-10-05,1,,,,,グリーンホーム,0
1119,5012801018322,登記記録の閉鎖等,0,2021-09-30,2021-09-14,株式会社ステラ,,株式会社,東京都,立川市,栄町２丁目２７番地の２パストラルエーネ１０３,,13,202,1900003,,,2021-09-14,清算の結了等,,,2017-10-19,1,,,,,,0
1123,5013303005172,登記記録の閉鎖等,0,2021-09-30,2021-09-24,合同会社アールズ,,合同会社,東京都,豊島区,池袋２丁目１２番１４号,,13,116,1710014,,,2021-09-24,清算の結了等,,,2020-06-12,1,,,,,アールズ,0
1128,5020001008894,登記記録の閉鎖等,0,2021-09-30,2021-09-27,株式会社ダイトーテックス,,株式会社,神奈川県,横浜市都筑区,大熊町７２番地,,14,118,2240042,,,2021-09-27,清算の結了等,,,2015-10-05,1,,,,,ダイトーテックス,0
1157,5040001107595,登記記録の閉鎖等,0,2021-09-30,2021-09-21,株式会社三友フューチャー,,株式会社,千葉県,千葉市美浜区,磯辺５丁目１番２号ザ・レジデンス検見川浜ガーデンズ５４１号,,12,106,2610012,,,2021-09-21,清算の結了等,,,2019-01-18,1,,,,,ミトモフューチャー,0
1158,5040001109229,登記記録の閉鎖等,0,2021-09-30,2021-09-16,株式会社匯豊,,株式会社,千葉県,船橋市,神保町２４番地３,,12,204,2740056,,,2021-09-16,清算の結了等,,,2019-05-24,1,,,,,カイホウ,0
1163,5040005010770,登記記録の閉鎖等,0,2021-09-30,2021-08-05,八坂神社,,その他の設立登記法人,千葉県,長生郡白子町,福島１２６番地,,12,424,2994204,,,2021-08-05,合併による解散等,7040005010752,令和３年７月２９日千葉県長生郡白子町福島２１１７番地２日月神社（7040005010752）に合併し解散,2015-10-05,1,,,,,ヤサカジンジャ,0
1167,5070001011118,登記記録の閉鎖等,0,2021-09-30,2021-09-15,株式会社後藤不動産鑑定事務所,,株式会社,群馬県,高崎市,下和田町２丁目１番２号,,10,202,3700846,,,2021-09-15,清算の結了等,,,2015-10-05,1,,,,,ゴトウフドウサンカンテイジムショ,0
1175,5090001004697,登記記録の閉鎖等,0,2021-09-30,2021-09-17,株式会社スクエア,,株式会社,山梨県,甲府市,富士見２丁目５番４７号,,19,201,4000027,,,2021-09-17,清算の結了等,,,2015-10-05,1,,,,,スクエア,0
1178,5110005004609,登記記録の閉鎖等,0,2021-09-30,2021-09-24,月岡商店会協同組合,,その他の設立登記法人,新潟県,新発田市,月岡温泉２４０番地６,,15,206,9592338,,,2021-09-24,清算の結了等,,,2015-10-05,1,,,,,ツキオカショウテンカイ,0
1179,5120001065488,登記記録の閉鎖等,0,2021-09-30,2021-09-22,株式会社スタジオ刀根,,株式会社,大阪府,大阪市北区,天満２丁目６番３－２１０号,,27,127,5300043,,,2021-09-22,清算の結了等,,,2015-10-05,1,,,,,スタジオトネ,0
1193,5120005014004,登記記録の閉鎖等,0,2021-09-30,2021-09-27,医療法人秋山医院,,その他の設立登記法人,大阪府,門真市,上島町１７番１９号,,27,223,5710071,,,2021-09-27,清算の結了等,,,2015-10-05,1,,,,,アキヤマイイン,0
1221,5160002010068,登記記録の閉鎖等,0,2021-09-30,2021-09-29,有限会社オーナメントサービス,,有限会社,滋賀県,東近江市,青葉町１番２６号,,25,213,5270039,,,2021-09-29,清算の結了等,,,2015-10-05,1,,,,,オーナメントサービス,0
1238,5200001013067,登記記録の閉鎖等,0,2021-09-30,2021-09-28,株式会社サントス,,株式会社,岐阜県,岐阜市,加納黒木町１丁目５１番地,,21,201,5008461,,,2021-09-28,清算の結了等,,,2015-10-05,1,,,,,サントス,0
1249,5240001015299,登記記録の閉鎖等,0,2021-09-30,2021-09-29,株式会社中国トーヨー,,株式会社,広島県,広島市西区,草津港２丁目６番６０号,,34,104,7330832,,,2021-09-29,清算の結了等,,,2015-10-05,1,,,,,チュウゴクトーヨー,0
1263,5250001019126,登記記録の閉鎖等,0,2021-09-30,2021-09-27,豊北産業株式会社,,株式会社,山口県,下関市,豊北町大字田耕４３２２番地,,35,201,7595512,,,2021-09-27,清算の結了等,,,2021-09-15,1,,,,,ホウホクサンギョウ,0
1284,5320002006743,登記記録の閉鎖等,0,2021-09-30,2021-09-28,みやび住建有限会社,,有限会社,大分県,由布市,挾間町鬼崎３７２番地,,44,213,8795501,,,2021-09-28,清算の結了等,,,2015-10-05,1,,,,,ミヤビジュウケン,0
1289,5340002011312,登記記録の閉鎖等,0,2021-09-30,2021-09-27,有限会社坂元工務店,,有限会社,鹿児島県,鹿児島市,中山２丁目４６番３号,,46,201,8910108,,,2021-09-27,清算の結了等,,,2015-10-05,1,,,,,サカモトコウムテン,0
1328,5700150085220,登記記録の閉鎖等,0,2021-09-30,2020-05-01,ＳＡＫＵＲＡ　ＩＦＢ,,外国会社等,,,,,,,,４６　Ｋｉｍ　Ｙａｍ　Ｒｏａｄ，＃０５－０２Ａ　Ｔｈｅ　Ｈｅｒｅｎｃｉａ，Ｓｉｎｇａｐｏｒｅ　２３９３５１,,2020-05-01,その他の清算の結了等,,,2017-09-15,1,,,,,サクラアイエフビー,0
1331,6010001044989,登記記録の閉鎖等,0,2021-09-30,2021-09-28,株式会社サミットインターナショナル,,株式会社,東京都,中央区,八丁堀３丁目２１番３号,,13,102,1040032,,,2021-09-28,清算の結了等,,,2015-10-05,1,,,,,サミットインターナショナル,0
1335,6010001175140,登記記録の閉鎖等,0,2021-09-30,2021-09-22,Ｓｅｎｄｏ　Ｓｃｉｅｎｃｅ　Ｊａｐａｎ株式会社,,株式会社,東京都,中央区,銀座８丁目１８番４号,,13,102,1040061,,,2021-09-22,清算の結了等,,,2016-04-25,1,,,,,センドサイエンスジャパン,0
1365,6010901022029,登記記録の閉鎖等,0,2021-09-30,2021-09-24,マイルストーン株式会社,,株式会社,東京都,世田谷区,松原３丁目５番１２号,,13,112,1560043,,,2021-09-24,清算の結了等,,,2015-10-05,1,,,,,マイルストーン,0
1393,6012701003670,登記記録の閉鎖等,0,2021-09-30,2021-09-27,株式会社司エンジニァリング,,株式会社,東京都,東久留米市,野火止２丁目２３番４号,,13,222,2030041,,,2021-09-27,清算の結了等,,,2015-10-05,1,,,,,ツカサエンジニァリング,0
1412,6021001031365,登記記録の閉鎖等,0,2021-09-30,2021-09-28,株式会社アトム,,株式会社,神奈川県,座間市,広野台１丁目３８番５７号,,14,216,2520012,,,2021-09-28,清算の結了等,,,2015-10-05,1,,,,,アトム,0
1417,6030001014503,登記記録の閉鎖等,0,2021-09-30,2021-09-15,株式会社アッシュエス,,株式会社,東京都,墨田区,菊川３丁目１５番２号東海ビル３０２,,13,107,1300024,,,2021-09-15,清算の結了等,,,2015-10-05,1,,,,,アッシュエス,0
1421,6030001090635,登記記録の閉鎖等,0,2021-09-30,2021-09-16,株式会社熊倉製作所,,株式会社,埼玉県,飯能市,大字上畑２８６番地,,11,209,3570053,,,2021-09-16,清算の結了等,,,2015-10-05,1,,,,,クマクラセイサクショ,0
1430,6040001065652,登記記録の閉鎖等,0,2021-09-30,2021-09-21,サンシステム株式会社,,株式会社,千葉県,柏市,十余二３１３番地の４８０,,12,217,2770872,,,2021-09-21,清算の結了等,,,2015-10-05,1,,,,,サンシステム,0
1434,6040002086160,登記記録の閉鎖等,0,2021-09-30,2021-09-16,有限会社丸孝,,有限会社,千葉県,銚子市,大橋町３番地の３,,12,202,2880046,,,2021-09-16,清算の結了等,,,2015-10-05,1,,,,,マルコウ,0
1438,6060001013832,登記記録の閉鎖等,0,2021-09-30,2021-09-22,株式会社東新建設,,株式会社,栃木県,宇都宮市,上小倉町１４１０番地３,,09,201,3210401,,,2021-09-22,清算の結了等,,,2015-10-05,1,,,,,,0
1440,6060002027451,登記記録の閉鎖等,0,2021-09-30,2021-09-22,有限会社猪瀬プロパン店,,有限会社,栃木県,大田原市,住吉町１丁目９番３４号,,09,210,3240057,,,2021-09-22,清算の結了等,,,2015-10-05,1,,,,,イノセプロパンテン,0
1447,6080002000704,登記記録の閉鎖等,0,2021-09-30,2021-09-28,有限会社上杉俊男商店,,有限会社,静岡県,静岡市葵区,本通６丁目４番地の３,,22,101,4200064,,,2021-09-28,清算の結了等,,,2015-10-05,1,,,,,ウエスギトシオショウテン,0
1448,6090001011172,登記記録の閉鎖等,0,2021-09-30,2021-09-17,株式会社花井,,株式会社,山梨県,韮崎市,藤井町南下條４２９番地の３,,19,207,4070004,,,2021-09-17,清算の結了等,,,2015-10-05,1,,,,,,0
1465,6120001185590,登記記録の閉鎖等,0,2021-09-30,2021-09-22,株式会社ＳＴＡＲＳＨＩＰ,,株式会社,大阪府,大阪市西区,南堀江１丁目１１番２１号,,27,106,5500015,,,2021-09-22,合併による解散等,2120001119684,令和３年９月２２日大阪市西区南堀江一丁目１１番２１号株式会社コスモランド（2120001119684）に合併し解散,2015-10-05,1,,,,,スターシップ,0
1475,6120002075502,登記記録の閉鎖等,0,2021-09-30,2021-09-21,有限会社未来ハウス,,有限会社,大阪府,枚方市,宮之阪２丁目１４番２１号,,27,210,5730022,,,2021-09-21,清算の結了等,,,2015-10-05,1,,,,,ミライハウス,0
1518,6160001004466,登記記録の閉鎖等,0,2021-09-30,2021-09-29,株式会社ＫＩＢＯＵ,,株式会社,奈良県,葛城市,大畑２９６番地２,,29,211,6392152,,,2021-09-29,清算の結了等,,,2015-10-05,1,,,,,キボウ,0
1528,6180301000808,登記記録の閉鎖等,0,2021-09-30,2021-09-29,株式会社サンガーデン,,株式会社,愛知県,岡崎市,渡町字大榎５３番地１,,23,202,4440933,,,2021-09-29,清算の結了等,,,2015-10-05,1,,,,,サンガーデン,0
1529,6180302007067,登記記録の閉鎖等,0,2021-09-30,2021-09-28,有限会社河合鉄工所,,有限会社,愛知県,豊橋市,牟呂町字一本木１６番地,,23,201,4418087,,,2021-09-28,清算の結了等,,,2015-10-05,1,,,,,カワイテッコウショ,0
1533,6190003000626,登記記録の閉鎖等,0,2021-09-30,2021-09-22,大新石油合資会社,,合資会社,三重県,南牟婁郡紀宝町,鵜殿７３０番地１,,24,562,5195701,,,2021-09-22,清算の結了等,,,2015-10-05,1,,,,,ダイシンセキユ,0
1540,6200005011719,登記記録の閉鎖等,0,2021-09-30,2021-09-28,特定非営利活動法人まち創りやまがた,,その他の設立登記法人,岐阜県,山県市,西深瀬１６３３番地１,,21,215,5012112,,,2021-09-28,清算の結了等,,,2015-10-05,1,,,,,マチヅクリヤマガタ,0
1547,6240002011742,登記記録の閉鎖等,0,2021-09-30,2021-09-28,有限会社中田電工,,有限会社,広島県,広島市安佐北区,口田４丁目７番２９号,,34,106,7391734,,,2021-09-28,清算の結了等,,,2015-10-05,1,,,,,ナカタデンコウ,0
1582,6380001003157,登記記録の閉鎖等,0,2021-09-30,2021-09-24,株式会社エフアイティフロンティア,,株式会社,福島県,伊達市,保原町字東野崎１３５番地,,07,213,9600671,,,2021-09-24,清算の結了等,,,2015-10-05,1,,,,,エフアイティフロンティア,0
1588,6390002012981,登記記録の閉鎖等,0,2021-09-30,2021-09-27,有限会社重建機工,,有限会社,山形県,米沢市,下花沢２丁目４番２３号,,06,202,9920023,,,2021-09-27,清算の結了等,,,2015-10-05,1,,,,,ジュウケンキコウ,0
1640,7010502006355,登記記録の閉鎖等,0,2021-09-30,2021-09-27,有限会社田中精機製作所,,有限会社,東京都,台東区,谷中５丁目１１番１７号,,13,106,1100001,,,2021-09-27,清算の結了等,,,2015-10-05,1,,,,,タナカセイキセイサクジョ,0
1646,7010802005833,登記記録の閉鎖等,0,2021-09-30,2021-09-21,有限会社三研,,有限会社,東京都,大田区,萩中３丁目２７番１７号,,13,111,1440047,,,2021-09-21,清算の結了等,,,2015-10-05,1,,,,,ミツケン,0
1647,7010802014710,登記記録の閉鎖等,0,2021-09-30,2021-09-22,有限会社八百新,,有限会社,東京都,大田区,東矢口１丁目１８番２号,,13,111,1460094,,,2021-09-22,清算の結了等,,,2015-10-05,1,,,,,ヤオシン,0
1665,7011302005448,登記記録の閉鎖等,0,2021-09-30,2021-09-21,有限会社泰工房,,有限会社,東京都,杉並区,松ノ木２丁目２６番４号,,13,115,1660014,,,2021-09-21,清算の結了等,,,2015-10-05,1,,,,,タイコウボウ,0
1667,7011401013822,登記記録の閉鎖等,0,2021-09-30,2021-09-28,コラボソフト株式会社,,株式会社,東京都,板橋区,大谷口２丁目５９番５号,,13,119,1730035,,,2021-09-28,清算の結了等,,,2015-10-05,1,,,,,コラボソフト,0
1676,7013201013829,登記記録の閉鎖等,0,2021-09-30,2021-09-29,株式会社日本メモリアルサービス,,株式会社,東京都,目黒区,八雲１丁目３番１号,,13,110,1520023,,,2021-09-29,清算の結了等,,,2015-10-05,1,,,,,,0
1681,7013303002993,登記記録の閉鎖等,0,2021-09-30,2021-09-22,合同会社フェリーチェ,,合同会社,東京都,豊島区,北大塚２丁目３番１１号パークアクシス大塚１３０３号,,13,116,1700004,,,2021-09-22,清算の結了等,,,2015-10-05,1,,,,,フェリーチェ,0
1684,7020001069150,登記記録の閉鎖等,0,2021-09-30,2021-09-27,株式会社蛍光,,株式会社,神奈川県,川崎市高津区,溝口２丁目１６番３２号,,14,134,2130001,,,2021-09-27,清算の結了等,,,2015-10-05,1,,,,,ケイコウ,0
1691,7020002075577,登記記録の閉鎖等,0,2021-09-30,2021-09-24,有限会社ケイメイト,,有限会社,神奈川県,横浜市旭区,柏町１４番地１４,,14,112,2410835,,,2021-09-24,清算の結了等,,,2015-10-05,1,,,,,ケイメイト,0
1708,7040003006901,登記記録の閉鎖等,0,2021-09-30,2021-09-21,合同会社ＳＰヤマタ,,合同会社,千葉県,南房総市,合戸６６４番地,,12,234,2992221,,,2021-09-21,清算の結了等,,,2015-10-05,1,,,,,エスピーヤマタ,0
1764,7140001085615,登記記録の閉鎖等,0,2021-09-30,2021-09-22,株式会社塩田鉄工所,,株式会社,兵庫県,南あわじ市,松帆櫟田２０番地の９,,28,224,6560307,,,2021-09-22,清算の結了等,,,2015-10-05,1,,,,,シオタテッコウショ,0
1769,7180002082467,登記記録の閉鎖等,0,2021-09-30,2021-09-22,有限会社タカトップ,,有限会社,愛知県,岩倉市,川井町浮田３番地,,23,228,4820015,,,2021-09-22,清算の結了等,,,2015-10-05,1,,,,,タカトップ,0
1772,7180301034342,登記記録の閉鎖等,0,2021-09-30,2021-09-28,株式会社ＹＯＳＨＩ‐ＹＯＳＨＩ,,株式会社,愛知県,豊橋市,三本木町字元三本木８７番地の１,,23,201,4418152,,,2021-09-28,清算の結了等,,,2020-11-27,1,,,,,ヨシヨシ,0
1779,7200005009365,登記記録の閉鎖等,0,2021-09-30,2021-09-28,農事組合法人山家村農産加工組合,,その他の設立登記法人,岐阜県,恵那市,山岡町上手向２５９６番地,,21,210,5097603,,,2021-09-28,清算の結了等,,,2015-10-05,1,,,,,ヤマガムラノウサンカコウクミアイ,0
1793,7260001030625,登記記録の閉鎖等,0,2021-09-30,2021-09-28,岡京資産管理株式会社,,株式会社,岡山県,岡山市北区,栢谷１２９番地１,,33,101,7011144,,,2021-09-28,清算の結了等,,,2017-03-22,1,,,,,オカキョウシサンカンリ,0
1799,7260002028370,登記記録の閉鎖等,0,2021-09-30,2021-09-28,有限会社澤依迦,00003812,有限会社,岡山県,津山市,吹屋町２番地の３,,33,203,7080035,,,2021-09-28,清算の結了等,,,2015-10-05,1,,,,,サイカ,0
1802,7280002010715,登記記録の閉鎖等,0,2021-09-30,2021-09-28,石西読売総合販売有限会社,,有限会社,島根県,益田市,下本郷町５７番地６,,32,204,6980002,,,2021-09-28,清算の結了等,,,2015-10-05,1,,,,,セキセイヨミウリソウゴウハンバイ,0
1824,7350005000697,登記記録の閉鎖等,0,2021-09-30,2021-09-24,東大島町畜産農業協同組合,,その他の設立登記法人,宮崎県,宮崎市,波島１丁目１８番３号,,45,201,8800826,,,2021-09-24,清算の結了等,,,2015-10-05,1,,,,,ヒガシオオシマチョウチクサン,0
1838,7390002011181,登記記録の閉鎖等,0,2021-09-30,2021-09-27,真柄工務店有限会社,,有限会社,山形県,最上郡戸沢村,大字古囗２０３３番地,,06,367,9996400,,,2021-09-27,清算の結了等,,,2015-10-05,1,,,,,マガラコウムテン,0
1862,8010001142997,登記記録の閉鎖等,0,2021-09-30,2021-09-24,株式会社ユース,,株式会社,東京都,千代田区,神田松永町１７番地３号秋葉原妙見屋ビル８階,,13,101,1010023,,,2021-09-24,清算の結了等,,,2015-10-05,1,,,,,ユース,0
1864,8010001193058,登記記録の閉鎖等,0,2021-09-30,2021-09-15,ジーリード株式会社,,株式会社,東京都,港区,北青山２丁目７番１３号プラセオ青山ビル３階,,13,103,1070061,,,2021-09-15,清算の結了等,,,2018-07-10,1,,,,,ジーリード,0
1892,8010801017589,登記記録の閉鎖等,0,2021-09-30,2021-09-22,株式会社フーズ・ワイ,,株式会社,東京都,大田区,大森西５丁目２９番１０号,,13,111,1430015,,,2021-09-22,清算の結了等,,,2015-10-05,1,,,,,フーズワイ,0
1908,8011001119102,登記記録の閉鎖等,0,2021-09-30,2021-08-19,ｆｒａｎｋｙ株式会社,,株式会社,東京都,港区,白金台５丁目４番７－２０２号,,13,103,1080071,,,2021-08-19,合併による解散等,5011001124055,令和３年７月２１日東京都目黒区大橋一丁目６番４－１０１号株式会社エリオット（5011001124055）に合併し解散,2017-11-08,1,,,,,フランキー,0
1947,8021001053003,登記記録の閉鎖等,0,2021-09-30,2021-09-24,株式会社ネクシス,,株式会社,神奈川県,藤沢市,遠藤４６２９番地の７,,14,205,2520816,,,2021-09-24,清算の結了等,,,2015-10-05,1,,,,,ネクシス,0
1953,8030001000204,登記記録の閉鎖等,0,2021-09-30,2021-09-16,株式会社あのびる,,株式会社,埼玉県,さいたま市南区,曲本２丁目３番２２号,,11,108,3360033,,,2021-09-16,清算の結了等,,,2015-10-05,1,,,,,,0
1958,8030002026248,登記記録の閉鎖等,0,2021-09-30,2021-09-15,有限会社ひかり薬局,,有限会社,埼玉県,蕨市,塚越１丁目５番７号,,11,223,3350002,,,2021-09-15,清算の結了等,,,2015-10-05,1,,,,,ヒカリヤッキョク,0
1974,8060001009226,登記記録の閉鎖等,0,2021-09-30,2021-09-22,株式会社光邦電設,,株式会社,栃木県,宇都宮市,宝木町２丁目１１０１番地８,,09,201,3200061,,,2021-09-22,清算の結了等,,,2015-10-05,1,,,,,,0
1976,8060001025875,登記記録の閉鎖等,0,2021-09-30,2021-09-22,株式会社サカノ,,株式会社,栃木県,那須塩原市,宮町１番１号,,09,213,3250055,,,2021-09-22,清算の結了等,,,2015-10-05,1,,,,,サカノ,0
1986,8100002002927,登記記録の閉鎖等,0,2021-09-30,2021-09-27,有限会社高田屋食品,,有限会社,長野県,長野市,大字稲葉字中千田２１８１番地,,20,201,3800911,,,2021-09-27,清算の結了等,,,2015-10-05,1,,,,,タカダヤショクヒン,0
2008,8120101044257,登記記録の閉鎖等,0,2021-09-30,2021-09-29,株式会社大泉,,株式会社,大阪府,泉南市,幡代２丁目５番１２号,,27,228,5900524,,,2021-09-29,清算の結了等,,,2015-10-05,1,,,,,ダイセン,0
2011,8120901009467,登記記録の閉鎖等,0,2021-09-30,2021-09-24,株式会社ジスコー,,株式会社,大阪府,摂津市,東別府１丁目２番４１号,,27,224,5660042,,,2021-09-24,清算の結了等,,,2015-10-05,1,,,,,ジスコー,0
2013,8120901038524,登記記録の閉鎖等,0,2021-09-30,2021-09-29,株式会社オフィストライユ,,株式会社,大阪府,茨木市,白川３丁目１番９－５０１号,,27,211,5670832,,,2021-09-29,清算の結了等,,,2017-05-31,1,,,,,オフィストライユ,0
2020,8130001028458,登記記録の閉鎖等,0,2021-09-30,2021-09-28,株式会社シュート,,株式会社,京都府,京都市東山区,松原通大和大路西入ル弓矢町２４番地,,26,105,6050000,,,2021-09-28,清算の結了等,,,2015-10-05,1,,,,,シュート,0
2067,8240001025056,登記記録の閉鎖等,0,2021-09-30,2021-09-29,株式会社佐藤工務店,,株式会社,広島県,庄原市,東城町戸宇５９６番地,,34,210,7295123,,,2021-09-29,清算の結了等,,,2015-10-05,1,,,,,,0
2068,8240001025122,登記記録の閉鎖等,0,2021-09-30,2021-09-29,株式会社比婆の森,,株式会社,広島県,庄原市,西城町油木１５６番地の１４,,34,210,7295602,,,2021-09-29,清算の結了等,,,2015-10-05,1,,,,,ヒバノモリ,0
2086,8290001001424,登記記録の閉鎖等,0,2021-09-30,2021-09-10,清水観光開発株式会社,,株式会社,福岡県,福岡市南区,長住５丁目４番１号,,40,134,8111362,,,2021-09-10,清算の結了等,,,2015-10-05,1,,,,,シミズカンコウカイハツ,0
2110,8380002034190,登記記録の閉鎖等,0,2021-09-30,2021-09-27,有限会社半間板金工業所,,有限会社,福島県,河沼郡会津坂下町,字上四十石甲２８６５番地１５,,07,421,9696541,,,2021-09-27,清算の結了等,,,2015-10-05,1,,,,,ハンマバンキンコウギョウショ,0
2114,8390002012682,登記記録の閉鎖等,0,2021-09-30,2021-09-27,大坂電気部材有限会社,,有限会社,山形県,米沢市,万世町堂森２７８番地の１９,,06,202,9921126,,,2021-09-27,清算の結了等,,,2015-10-05,1,,,,,オオサカデンキブザイ,0
2120,8430003011010,登記記録の閉鎖等,0,2021-09-30,2021-09-21,合同会社アクアセキュリティ,,合同会社,北海道,札幌市中央区,南十二条西９丁目３番５－８０６号,,01,101,0640912,,,2021-09-21,清算の結了等,,,2019-11-26,1,,,,,アクアセキュリティ,0
2143,9010001179345,登記記録の閉鎖等,0,2021-09-30,2021-09-22,株式会社アライアンステクノロジー,,株式会社,東京都,千代田区,大手町２丁目６番１号,,13,101,1000004,,,2021-09-22,合併による解散等,2010001182652,令和３年７月１日東京都千代田区大手町二丁目６番１号ＳＳ　Ｔｅｃｈｎｏｌｏｇｉｅｓ株式会社（2010001182652）に合併し解散,2016-11-01,1,,,,,アライアンステクノロジー,0
2150,9010003033905,登記記録の閉鎖等,0,2021-09-30,2021-09-27,ホワイトスネイク合同会社,,合同会社,東京都,中央区,日本橋３丁目２番１４号,,13,102,1030027,,,2021-09-27,清算の結了等,,,2021-01-08,1,,,,,ホワイトスネイク,0
2158,9010401132911,登記記録の閉鎖等,0,2021-09-30,2021-09-16,株式会社Ｈｏｌｄ　Ｕｐ,,株式会社,東京都,港区,北青山３丁目６番７号青山パラシオタワー１１階,,13,103,1070061,,,2021-09-16,清算の結了等,,,2017-08-02,1,,,,,ホールドアップ,0
2160,9010402007690,登記記録の閉鎖等,0,2021-09-30,2021-09-16,有限会社大黒食品,,有限会社,東京都,港区,六本木３丁目９番３号,,13,103,1060032,,,2021-09-16,清算の結了等,,,2015-10-05,1,,,,,ダイコクショクヒン,0
2166,9010502017078,登記記録の閉鎖等,0,2021-09-30,2021-09-24,有限会社ダブルウィング,,有限会社,東京都,台東区,入谷１丁目１番１０－５０３号,,13,106,1100013,,,2021-09-24,清算の結了等,,,2015-10-05,1,,,,,,0
2169,9010901000634,登記記録の閉鎖等,0,2021-09-30,2021-09-22,株式会社アップストリーム,,株式会社,東京都,大田区,田園調布２丁目６１番１－９０３号,,13,111,1450071,,,2021-09-22,清算の結了等,,,2015-10-05,1,,,,,アップストリーム,0
2187,9011203002096,登記記録の閉鎖等,0,2021-09-30,2021-09-21,ワイルドハニーエンタテインメント合同会社,,合同会社,東京都,杉並区,高円寺南３丁目７番１号並木ビル１０２号,,13,115,1660003,,,2021-09-21,清算の結了等,,,2015-10-05,1,,,,,ワイルドハニーエンタテインメント,0
2196,9013202013891,登記記録の閉鎖等,0,2021-09-30,2021-09-09,クレディア・ラーニングス有限会社,,有限会社,東京都,目黒区,鷹番３丁目２３番１０－４０６号,,13,110,1520004,,,2021-09-09,清算の結了等,,,2015-10-05,1,,,,,クレディアラーニングス,0
2200,9020001096523,登記記録の閉鎖等,0,2021-09-30,2021-09-28,Ａ　ＣＵＢＥＤ株式会社,,株式会社,東京都,町田市,野津田町２６８７番地,,13,209,1950063,,,2021-09-28,清算の結了等,,,2015-10-05,1,,,,,エーキューブド,0
2206,9021002048744,登記記録の閉鎖等,0,2021-09-30,2021-09-27,有限会社プラスボックス,,有限会社,神奈川県,座間市,ひばりが丘１丁目４４番３９号,,14,216,2520003,,,2021-09-27,清算の結了等,,,2015-10-05,1,,,,,プラスボックス,0
2222,9040002000770,登記記録の閉鎖等,0,2021-09-30,2021-09-16,有限会社イー・エイチ・システム,,有限会社,千葉県,千葉市緑区,あすみが丘５丁目２５番地３,,12,105,2670066,,,2021-09-16,清算の結了等,,,2015-10-05,1,,,,,イーエイチシステム,0
2246,9120001010837,登記記録の閉鎖等,0,2021-09-30,2021-09-24,株式会社ヒロプランニング,,株式会社,大阪府,大阪市中央区,心斎橋筋１丁目６番１０号,,27,128,5420085,,,2021-09-24,清算の結了等,,,2015-10-05,1,,,,,ヒロプランニング,0
2250,9120001095936,登記記録の閉鎖等,0,2021-09-30,2021-09-22,株式会社ジェネシス,,株式会社,大阪府,大阪市中央区,西心斎橋１丁目５番１２号,,27,128,5420086,,,2021-09-22,清算の結了等,,,2015-10-05,1,,,,,ジェネシス,0
2290,9160002005485,登記記録の閉鎖等,0,2021-09-30,2021-09-28,有限会社なんでも屋,,有限会社,滋賀県,甲賀市,土山町市場３８５番地の１,,25,209,5280233,,,2021-09-28,清算の結了等,,,2015-10-05,1,,,,,ナンデモヤ,0
2320,9270002010391,登記記録の閉鎖等,0,2021-09-30,2021-09-27,有限会社ダーマ,,有限会社,鳥取県,倉吉市,大原１０００番地,,31,203,6820034,,,2021-09-27,清算の結了等,,,2015-10-05,1,,,,,ダーマ,0
2324,9290001074816,登記記録の閉鎖等,0,2021-09-30,2021-09-10,株式会社ＴＨＥ　ＭＯＲＥ,,株式会社,福岡県,福岡市博多区,奈良屋町８番１０号,,40,132,8120023,,,2021-09-10,清算の結了等,,,2016-08-08,1,,,,,ザモア,0
2327,9290002015950,登記記録の閉鎖等,0,2021-09-30,2021-09-10,千＿有限会社,00093095,有限会社,福岡県,福岡市博多区,博多駅東２丁目５番２８号,,40,132,8120013,,,2021-09-10,清算の結了等,,,2015-10-05,1,,,,,センコウ,0
2332,9290801021604,登記記録の閉鎖等,0,2021-09-30,2021-09-17,株式会社Ｙ・Ｄ,,株式会社,福岡県,北九州市小倉北区,木町３丁目３番１７号,,40,106,8030851,,,2021-09-17,清算の結了等,,,2015-10-05,1,,,,,ワイディー,0
2341,9360001016447,登記記録の閉鎖等,0,2021-09-30,2021-09-22,株式会社沖縄ＡＶセンター,,株式会社,沖縄県,沖縄市,山内２丁目５番４４号,,47,211,9040034,,,2021-09-22,清算の結了等,,,2015-10-05,1,,,,,オキナワエイブイセンター,0
2350,9400002004644,登記記録の閉鎖等,0,2021-09-30,2021-09-27,有限会社李陽,,有限会社,岩手県,滝沢市,巣子８５２番地１９,,03,216,0200611,,,2021-09-27,清算の結了等,,,2015-10-05,1,,,,,リヨウ,0
2362,9450002003757,登記記録の閉鎖等,0,2021-09-30,2021-09-29,東信化学有限会社,,有限会社,北海道,旭川市,東光一条６丁目１番８号,,01,204,0788341,,,2021-09-29,清算の結了等,,,2015-10-05,1,,,,,トウシンカガク,0
2366,9460102003508,登記記録の閉鎖等,0,2021-09-30,2021-09-28,有限会社明電工,,有限会社,北海道,帯広市,西二十三条南４丁目１９番地１７,,01,207,0802473,,,2021-09-28,清算の結了等,,,2015-10-05,1,,,,,メイデンコウ,0
2368,9480002009958,登記記録の閉鎖等,0,2021-09-30,2021-09-22,有限会社丸美屋化粧品店,,有限会社,徳島県,阿波市,市場町市場字町筋３２４番地の６,,36,206,7711604,,,2021-09-22,清算の結了等,,,2015-10-05,1,,,,,マルミヤケショウヒンテン,0
