sequenceNumber,corporateNumber,process,correct,updateDate,changeDate,name,nameImageId,kind,prefectureName,cityName,streetNumber,addressImageId,prefectureCode,cityCode,postCode,addressOutside,addressOutsideImageId,closeDate,closeCause,successorCorporateNumber,changeCause,assignmentDate,latest,enName,enPrefectureName,enCityName,enAddressOutside,furigana,hihyoji
5,1010001230429,新規,0,2022-11-02,2022-11-02,株式会社おうかん,,株式会社,東京都,文京区,本郷３丁目２番７号,,13,105,1130033,,,,,,,2022-11-02,1,,,,,オウカン,0
6,1010001230478,新規,0,2022-11-02,2022-11-02,株式会社スマリテ,,株式会社,東京都,中央区,日本橋馬喰町１丁目１３番１２号ＦＭビル３Ｆ,,13,102,1030002,,,,,,,2022-11-02,1,,,,,スマリテ,0
7,1010001230511,新規,0,2022-11-02,2022-11-02,株式会社能井,,株式会社,東京都,中央区,銀座１丁目１２番４号Ｎ＆ＥＢＬＤ．６Ｆ,,13,102,1040061,,,,,,,2022-11-02,1,,,,,ノイ,0
8,1010001230528,新規,0,2022-11-02,2022-11-02,エヌビービーベルファストリース株式会社,,株式会社,東京都,中央区,日本橋浜町３丁目３番２号,,13,102,1030007,,,,,,,2022-11-02,1,,,,,エヌビービーベルファストリース,0
9,1010001230544,新規,0,2022-11-02,2022-11-02,株式会社インサイドセールスプラス,,株式会社,東京都,中央区,銀座１丁目１２－４Ｎ＆ＥＢＬＤ．７階,,13,102,1040061,,,,,,,2022-11-02,1,,,,,インサイドセールスプラス,0
16,1010005035741,新規,0,2022-11-02,2022-11-02,ＲＢソーラーレイテホールディングス一般社団法人,,その他の設立登記法人,東京都,千代田区,麹町２丁目８番地ＭＬＣ麹町ビル４階フィンポート税理士法人内,,13,101,1020083,,,,,,,2022-11-02,1,,,,,アールビーソーラーレイテホールディングス,0
18,1010101015382,新規,0,2022-11-02,2022-11-02,久和投資株式会社,,株式会社,東京都,八王子市,本町３３－９八王子センチュリーコート４０３号室,,13,201,1920066,,,,,,,2022-11-02,1,,,,,キュウワトウシ,0
38,1010901051899,新規,0,2022-11-02,2022-11-02,株式会社ｍａｉコーポレーション,,株式会社,東京都,世田谷区,粕谷１丁目１６番１－７０７号,,13,112,1570063,,,,,,,2022-11-02,1,,,,,マイコーポレーション,0
46,1011001150658,新規,0,2022-11-02,2022-11-02,ＴＡＫＵＹＡ　ＳＵＧＩＹＡＭＡ．株式会社,,株式会社,東京都,渋谷区,神宮前３丁目１１番１３－１０２号,,13,113,1500001,,,,,,,2022-11-02,1,,,,,タクヤスギヤマ,0
51,1011005009784,新規,0,2022-11-02,2022-11-02,一般社団法人ＣＩＪ,,その他の設立登記法人,東京都,渋谷区,代々木１丁目４７番９号,,13,113,1510053,,,,,,,2022-11-02,1,,,,,シーアイジェイ,0
57,1011103012335,新規,0,2022-11-02,2022-11-02,合同会社ＱＵＥＳＴ,,合同会社,東京都,新宿区,西新宿３丁目３番１３号西新宿水間ビル２Ｆ,,13,104,1600023,,,,,,,2022-11-02,1,,,,,クエスト,0
61,1011501028585,新規,0,2022-11-02,2022-11-02,新嘉亜州株式会社,,株式会社,東京都,荒川区,荒川２丁目１８番１号,,13,118,1160002,,,,,,,2022-11-02,1,,,,,シンカアシュウ,0
63,1011701025746,新規,0,2022-11-02,2022-11-02,綺麗美享株式会社,,株式会社,東京都,江戸川区,中央４丁目１１番５－２０１,,13,123,1320021,,,,,,,2022-11-02,1,,,,,,0
69,1012701017337,新規,0,2022-11-02,2022-11-02,株式会社クレアリホーム,,株式会社,東京都,西東京市,西原町５丁目３番１３号,,13,229,1880004,,,,,,,2022-11-02,1,,,,,クレアリホーム,0
105,1021003012319,新規,0,2022-11-02,2022-11-02,合同会社Ｈｏｕｓｅ　ＴＮＴ,,合同会社,神奈川県,相模原市中央区,富士見５丁目１５－５－２０２,,14,152,2520236,,,,,,,2022-11-02,1,,,,,ハウスティーエヌティー,0
110,1030001150815,新規,0,2022-11-02,2022-11-02,菖蒲株式会社,,株式会社,埼玉県,春日部市,上蛭田５８１番地３１,,11,214,3440046,,,,,,,2022-11-02,1,,,,,ショウブ,0
111,1030001150823,新規,0,2022-11-02,2022-11-02,株式会社ＨＲＤｆａｍｉｌｉａｒ,,株式会社,埼玉県,さいたま市南区,南浦和２丁目２８番１３号,,11,108,3360017,,,,,,,2022-11-02,1,,,,,エイチアールディーファミリア,0
115,1030003020495,新規,0,2022-11-02,2022-11-02,鹿沼粟野太陽光合同会社,,合同会社,埼玉県,蕨市,中央２丁目１３番３２号プラウド蕨１０１,,11,223,3350004,,,,,,,2022-11-02,1,,,,,カヌマアワノタイヨウコウ,0
121,1040001125650,新規,0,2022-11-02,2022-11-02,株式会社エムテック,,株式会社,千葉県,千葉市花見川区,幕張本郷４丁目７番８号リヴェールシェソワ２０３号,,12,102,2620033,,,,,,,2022-11-02,1,,,,,エムテック,0
122,1040003021154,新規,0,2022-11-02,2022-11-02,合同会社ＭＩ,,合同会社,千葉県,茂原市,鷲巣７１５番地２（メゾンクレールＢ１０３号）,,12,210,2970051,,,,,,,2022-11-02,1,,,,,エムアイ,0
124,1050001051879,新規,0,2022-11-02,2022-11-02,株式会社ジーエヌジェイ,,株式会社,茨城県,神栖市,田畑４３８番地５０,,08,232,3140126,,,,,,,2022-11-02,1,,,,,ジーエヌジェイ,0
125,1050001051887,新規,0,2022-11-02,2022-11-02,株式会社ディライテック,,株式会社,茨城県,鹿嶋市,大字長栖３７９番地,,08,222,3140022,,,,,,,2022-11-02,1,,,,,ディライテック,0
126,1050003006955,新規,0,2022-11-02,2022-11-02,合同会社さかより,,合同会社,茨城県,筑西市,稲野辺３０６番地２メルハウスＡ－２,,08,227,3080805,,,,,,,2022-11-02,1,,,,,サカヨリ,0
127,1050003006971,新規,0,2022-11-02,2022-11-02,合同会社Ｓ‐ＰＬＵＳ,,合同会社,茨城県,結城市,大字結城１０２３番地２４,,08,207,3070001,,,,,,,2022-11-02,1,,,,,エスプラス,0
133,1070001039773,新規,0,2022-11-02,2022-11-02,株式会社ＳＨＡＰＬＡ,,株式会社,群馬県,太田市,藤久良町６４番地３,,10,205,3730035,,,,,,,2022-11-02,1,,,,,シャプラ,0
134,1070001039781,新規,0,2022-11-02,2022-11-02,株式会社ＳＧＢ,,株式会社,群馬県,みどり市,笠懸町久宮６６１－６,,10,212,3792312,,,,,,,2022-11-02,1,,,,,エスジービー,0
141,1080001025269,新規,0,2022-11-02,2022-11-02,株式会社ＳＰＲＩＮＧ,,株式会社,静岡県,藤枝市,青木１丁目２番２４号,,22,214,4260037,,,,,,,2022-11-02,1,,,,,スプリング,0
142,1080001025277,新規,0,2022-11-02,2022-11-02,株式会社ＬＥＭ,,株式会社,静岡県,藤枝市,高岡２丁目４番５号,,22,214,4260062,,,,,,,2022-11-02,1,,,,,レム,0
148,1090003002190,新規,0,2022-11-02,2022-11-02,ｐａｒａｂｏｌａ合同会社,,合同会社,山梨県,中巨摩郡昭和町,河西６２９番地１６,,19,384,4093851,,,,,,,2022-11-02,1,,,,,パラボラ,0
151,1100001035827,新規,0,2022-11-02,2022-11-02,株式会社冥狗,,株式会社,長野県,飯田市,松尾明７４８８番地１２,,20,205,3950823,,,,,,,2022-11-02,1,,,,,メイゴウ,0
154,1100003006743,新規,0,2022-11-02,2022-11-02,合同会社ゆーはーと,,合同会社,長野県,茅野市,北山８２９０番地,,20,214,3910301,,,,,,,2022-11-02,1,,,,,ユーハート,0
158,1110001037070,新規,0,2022-11-02,2022-11-02,ＧＳシステム株式会社,,株式会社,新潟県,新潟市中央区,神道寺２丁目２番１０号,,15,103,9500983,,,,,,,2022-11-02,1,,,,,ジーエスシステム,0
159,1110001037079,新規,0,2022-11-02,2022-11-02,株式会社吉澤製菓,,株式会社,新潟県,新潟市秋葉区,柄目木１０１番地,,15,105,9560852,,,,,,,2022-11-02,1,,,,,ヨシザワセイカ,0
167,1120001249961,新規,0,2022-11-02,2022-11-02,株式会社スエザイム,,株式会社,大阪府,大阪市浪速区,敷津東２丁目１番２４－１１０８号,,27,111,5560012,,,,,,,2022-11-02,1,,,,,スエザイム,0
168,1120001249978,新規,0,2022-11-02,2022-11-02,まこと工務店株式会社,,株式会社,大阪府,寝屋川市,黒原新町１１番１９号,,27,215,5720059,,,,,,,2022-11-02,1,,,,,マコトコウムテン,0
169,1120001250003,新規,0,2022-11-02,2022-11-02,株式会社せいゆう,,株式会社,大阪府,大阪市中央区,高津１丁目７番１号,,27,128,5420072,,,,,,,2022-11-02,1,,,,,セイユウ,0
171,1120005023272,新規,0,2022-11-02,2022-11-02,弁理士法人イノベンティア,,その他の設立登記法人,大阪府,大阪市北区,梅田２丁目４番９号,,27,127,5300001,,,,,,,2022-11-02,1,,,,,イノベンティア,0
173,1120101066472,新規,0,2022-11-02,2022-11-02,株式会社Ｔケータリング,,株式会社,大阪府,堺市西区,浜寺石津町西２丁７番１０号,,27,144,5928333,,,,,,,2022-11-02,1,,,,,ティーケータリング,0
174,1120101066480,新規,0,2022-11-02,2022-11-02,株式会社ＧＥＮＲＯＫＵ,,株式会社,大阪府,岸和田市,藤井町２丁目６番１５号,,27,202,5960046,,,,,,,2022-11-02,1,,,,,ゲンロク,0
199,1140001127892,新規,0,2022-11-02,2022-11-02,株式会社ｃｏｄｏｎａ,,株式会社,兵庫県,西宮市,菊谷町１０－２５,,28,204,6620078,,,,,,,2022-11-02,1,,,,,コドナ,0
200,1140001127901,新規,0,2022-11-02,2022-11-02,山神プロテクノ株式会社,,株式会社,兵庫県,神戸市長田区,名倉町３丁目１番１０号,,28,106,6530883,,,,,,,2022-11-02,1,,,,,ヤマシンプロテクノ,0
216,1180003024416,新規,0,2022-11-02,2022-11-02,ＫＩＧＥＮ合同会社,,合同会社,愛知県,名古屋市昭和区,山手通５丁目２７番地の３ＳＴプラザ八事２Ｆ,,23,107,4660815,,,,,,,2022-11-02,1,,,,,キゲン,0
224,1190001029886,新規,0,2022-11-02,2022-11-02,株式会社ＯＮＥａｎｄＯＮＬＹ,,株式会社,三重県,名張市,富貴ケ丘６番町８１番地,,24,208,5180419,,,,,,,2022-11-02,1,,,,,ワンエンドオンリー,0
228,1200001040619,新規,0,2022-11-02,2022-11-02,恵那峡リンクス株式会社,,株式会社,岐阜県,恵那市,大井町１２０２番地４,,21,210,5097201,,,,,,,2022-11-02,1,,,,,エナキョウリンク,0
229,1200001040643,新規,0,2022-11-02,2022-11-02,株式会社Ｓｐａｃｅｗａｓｐ,,株式会社,岐阜県,岐阜市,長良１丁目１番地,,21,201,5020081,,,,,,,2022-11-02,1,,,,,スペースワスプ,0
230,1210001019141,新規,0,2022-11-02,2022-11-02,橋本電機株式会社,,株式会社,福井県,あわら市,指中第３６号４番地,,18,208,9190807,,,,,,,2022-11-02,1,,,,,ハシモトデンキ,0
233,1230001019577,新規,0,2022-11-02,2022-11-02,株式会社アスベストサービス,,株式会社,富山県,射水市,青井谷５９番地１,,16,211,9390321,,,,,,,2022-11-02,1,,,,,アスベストサービス,0
242,1240001060539,新規,0,2022-11-02,2022-11-02,株式会社ｆ‐浜松,,株式会社,広島県,広島市東区,光町１丁目４番１３－５０５号,,34,102,7320052,,,,,,,2022-11-02,1,,,,,エフハママツ,0
243,1240001060588,新規,0,2022-11-02,2022-11-02,アールイー・コンサル株式会社,,株式会社,広島県,広島市西区,古江東町２５番１９号,,34,104,7330872,,,,,,,2022-11-02,1,,,,,アールイーコンサル,0
264,1290003013127,新規,0,2022-11-02,2022-11-02,ｓｏｅｉ．合同会社,,合同会社,福岡県,八女市,忠見７９８－３,,40,210,8340014,,,,,,,2022-11-02,1,,,,,ソウエイ,0
269,1290801029002,新規,0,2022-11-02,2022-11-02,株式会社松永商会,,株式会社,福岡県,北九州市八幡西区,光明２丁目９番２６号,,40,109,8070824,,,,,,,2022-11-02,1,,,,,マツナガショウカイ,0
270,1290801029010,新規,0,2022-11-02,2022-11-02,株式会社バルゴ,,株式会社,福岡県,北九州市八幡西区,本城４丁目２番１号,,40,109,8070801,,,,,,,2022-11-02,1,,,,,バルゴ,0
272,1290803004242,新規,0,2022-11-02,2022-11-02,合同会社さわやか,,合同会社,福岡県,北九州市八幡東区,中央２丁目１５番７号,,40,108,8050019,,,,,,,2022-11-02,1,,,,,サワヤカ,0
274,1310001018109,新規,0,2022-11-02,2022-11-02,株式会社ＦＵＬＬ　ＨＯＵＳＥ,,株式会社,長崎県,長崎市,花丘町１４番１１号橋口ビル２Ｆ,,42,201,8528153,,,,,,,2022-11-02,1,,,,,フルハウス,0
276,1320001019411,新規,0,2022-11-02,2022-11-02,株式会社ケイ・シー・エヌ,,株式会社,大分県,大分市,大字下郡１７４５番地１４,,44,201,8700951,,,,,,,2022-11-02,1,,,,,ケイシーエヌ,0
278,1330001030235,新規,0,2022-11-02,2022-11-02,ＴＳＴ株式会社,,株式会社,熊本県,菊池郡菊陽町,大字津久礼３０８８番地１,,43,404,8691101,,,,,,,2022-11-02,1,,,,,ティーエスティー,0
279,1330001030268,新規,0,2022-11-02,2022-11-02,株式会社御船タイヤサービス,,株式会社,熊本県,上益城郡御船町,大字辺田見１６７２番地５,,43,441,8613206,,,,,,,2022-11-02,1,,,,,ミフネタイヤサービス,0
281,1340001025135,新規,0,2022-11-02,2022-11-02,株式会社黒木建匠,,株式会社,鹿児島県,鹿児島市,城南町２番１８－２－６０３号,,46,201,8920835,,,,,,,2022-11-02,1,,,,,クロキケンショウ,0
285,1360001031123,新規,0,2022-11-02,2022-11-02,株式会社石垣らぼ,,株式会社,沖縄県,石垣市,字真栄里３８７番地３石垣島フードベース,,47,207,9070002,,,,,,,2022-11-02,1,,,,,イシガキラボ,0
286,1360001031131,新規,0,2022-11-02,2022-11-02,Ｃｏｒａｌ　Ｒｅｓｏｒｔ　Ｍａｎａｇｅｍｅｎｔ株式会社,,株式会社,沖縄県,国頭郡本部町,字健堅１３０コーポ丸徳１階,,47,308,9050226,,,,,,,2022-11-02,1,,,,,コーラルリゾートマネジメント,0
287,1360003012410,新規,0,2022-11-02,2022-11-02,合同会社紬生,,合同会社,沖縄県,那覇市,小禄４丁目２０番地１,,47,201,9010152,,,,,,,2022-11-02,1,,,,,ツムギ,0
288,1360003012419,新規,0,2022-11-02,2022-11-02,合同会社東緑,,合同会社,沖縄県,うるま市,石川東山本町２丁目８番３０号山田荘２０１号,,47,213,9041101,,,,,,,2022-11-02,1,,,,,トウエン,0
306,1450005004355,新規,0,2022-11-02,2022-11-02,一般社団法人だいだいの丘,,その他の設立登記法人,北海道,上川郡東神楽町,ひじり野南二条４丁目３番７号ルピナス２０３号室,,01,453,0711524,,,,,,,2022-11-02,1,,,,,ダイダイノオカ,0
316,1500001024574,新規,0,2022-11-02,2022-11-02,株式会社Ａｉｒ　Ｒｅｘ,,株式会社,愛媛県,松山市,高砂町３丁目１４５番地１高砂ハイツ２階,,38,201,7900822,,,,,,,2022-11-02,1,,,,,エアーレックス,0
318,1500003002917,新規,0,2022-11-02,2022-11-02,合同会社Ｒｅスタート,,合同会社,愛媛県,松山市,和泉北１丁目２番２３号,,38,201,7900038,,,,,,,2022-11-02,1,,,,,リスタート,0
329,2010001230502,新規,0,2022-11-02,2022-11-02,株式会社Ｍｉｓｓｉｏｎ　Ｔｉｍｅ,,株式会社,東京都,千代田区,神田須田町２丁目２３番地１天翔オフィスビル秋葉原５０１,,13,101,1010041,,,,,,,2022-11-02,1,,,,,ミッションタイム,0
330,2010001230527,新規,0,2022-11-02,2022-11-02,エヌビービートーントンリース株式会社,,株式会社,東京都,中央区,日本橋浜町３丁目３番２号,,13,102,1030007,,,,,,,2022-11-02,1,,,,,エヌビービートーントンリース,0
331,2010001230543,新規,0,2022-11-02,2022-11-02,株式会社唯美堂,,株式会社,東京都,中央区,銀座１丁目１２番４号Ｎ＆Ｅ．ＢＬＤ．６Ｆ,,13,102,1040061,,,,,,,2022-11-02,1,,,,,ユイビドウ,0
334,2010005035740,新規,0,2022-11-02,2022-11-02,ＲＢソーラーハバナホールディングス一般社団法人,,その他の設立登記法人,東京都,千代田区,麹町２丁目８番地ＭＬＣ麹町ビル４階フィンポート税理士法人内,,13,101,1020083,,,,,,,2022-11-02,1,,,,,アールビーソーラーハバナホールディングス,0
345,2010405021506,新規,0,2022-11-02,2022-11-02,昭島１ロジスティック特定目的会社,,その他の設立登記法人,東京都,港区,東新橋１丁目５番２号汐留シティセンター,,13,103,1050021,,,,,,,2022-11-02,1,,,,,アキシマワンロジスティック,0
352,2010705003443,新規,0,2022-11-02,2022-11-02,一般社団法人憧輝堂,,その他の設立登記法人,東京都,品川区,西品川３丁目１６番８号,,13,109,1410033,,,,,,,2022-11-02,1,,,,,ショウキドウ,0
354,2010803004335,新規,0,2022-11-02,2022-11-02,バーン合同会社,,合同会社,東京都,大田区,北糀谷２丁目１５－６,,13,111,1440032,,,,,,,2022-11-02,1,,,,,バーン,0
363,2011001150541,新規,0,2022-11-02,2022-11-02,株式会社星野ビーイング,,株式会社,東京都,目黒区,祐天寺２丁目８－７,,13,110,1530052,,,,,,,2022-11-02,1,,,,,ホシノビーイング,0
364,2011001150574,新規,0,2022-11-02,2022-11-02,ＳＵＰＥＲ　ＳＡＰＩＥＮＳＳ株式会社,,株式会社,東京都,渋谷区,神泉町５番２号塩入小路２ビル４階,,13,113,1500045,,,,,,,2022-11-02,1,,,,,スーパーサピエンス,0
365,2011001150657,新規,0,2022-11-02,2022-11-02,Ｂｅｓｔ　Ｃａｐｉｔａｌ株式会社,,株式会社,東京都,目黒区,青葉台３丁目６－２８,,13,110,1530042,,,,,,,2022-11-02,1,,,,,ベストキャピタル,0
366,2011003015610,新規,0,2022-11-02,2022-11-02,合同会社ＨＲＭＴ,,合同会社,東京都,目黒区,碑文谷５丁目１１番４号パークガーデン碑文谷１階,,13,110,1520003,,,,,,,2022-11-02,1,,,,,エイチアールエムティー,0
367,2011003015627,新規,0,2022-11-02,2022-11-02,合同会社東大井リハビリ教室,,合同会社,東京都,渋谷区,円山町２６－７,,13,113,1500044,,,,,,,2022-11-02,1,,,,,ヒガシオオイリハビリキョウシツ,0
368,2011003015635,新規,0,2022-11-02,2022-11-02,合同会社ＳＢＣ,,合同会社,東京都,渋谷区,道玄坂１丁目１０番８号渋谷道玄坂東急ビル２Ｆ－Ｃ,,13,113,1500043,,,,,,,2022-11-02,1,,,,,エスビーシー,0
376,2011103012342,新規,0,2022-11-02,2022-11-02,合同会社ＣＥＬ,,合同会社,東京都,新宿区,西新宿７丁目５番５号Ｐｌａｚａ西新宿ＵＣＦ４階,,13,104,1600023,,,,,,,2022-11-02,1,,,,,シーイーエル,0
380,2011401024650,新規,0,2022-11-02,2022-11-02,株式会社ＢＳＫ,,株式会社,東京都,板橋区,小茂根１丁目２６番９号,,13,119,1730037,,,,,,,2022-11-02,1,,,,,ビーエスケー,0
430,2030001150814,新規,0,2022-11-02,2022-11-02,彩通株式会社,,株式会社,埼玉県,鶴ヶ島市,富士見１丁目２０番３０－３０３号リディアメゾン若葉,,11,241,3502201,,,,,,,2022-11-02,1,,,,,サイツウ,0
438,2040001125641,新規,0,2022-11-02,2022-11-02,メディカルベアーズ株式会社,,株式会社,千葉県,船橋市,芝山１丁目４１番１号フェリシアパレス１０３,,12,204,2740816,,,,,,,2022-11-02,1,,,,,メディカルベアーズ,0
444,2040003021186,新規,0,2022-11-02,2022-11-02,合同会社Ｄ．Ｉ．Ｍ,,合同会社,千葉県,白井市,十余一１４番地１－２,,12,232,2701411,,,,,,,2022-11-02,1,,,,,ディーアイエム,0
445,2040003021203,新規,0,2022-11-02,2022-11-02,ぐりーんふぁーむ渋谷合同会社,,合同会社,千葉県,茂原市,渋谷４０４番地,,12,210,2970008,,,,,,,2022-11-02,1,,,,,グリーンファームシブヤ,0
446,2050001051878,新規,0,2022-11-02,2022-11-02,相楽株式会社,,株式会社,茨城県,常陸太田市,内堀町３２６６番地の１,,08,212,3130063,,,,,,,2022-11-02,1,,,,,アイラク,0
447,2050001051886,新規,0,2022-11-02,2022-11-02,株式会社大翔総業,,株式会社,茨城県,古河市,尾崎２６３２番地２１,,08,204,3060101,,,,,,,2022-11-02,1,,,,,ダイショウソウギョウ,0
452,2060001035401,新規,0,2022-11-02,2022-11-02,株式会社アルファベット,,株式会社,栃木県,宇都宮市,叶谷町２１６番地１,,09,201,3291117,,,,,,,2022-11-02,1,,,,,アルファベット,0
455,2070001039772,新規,0,2022-11-02,2022-11-02,ＦＡＩＺＯＮ株式会社,,株式会社,群馬県,太田市,安養寺町１８番地７,,10,205,3700422,,,,,,,2022-11-02,1,,,,,ファイゾン,0
461,2080001025268,新規,0,2022-11-02,2022-11-02,Ｎ．Ｙ不動産株式会社,,株式会社,静岡県,静岡市葵区,安東３丁目１７番３１号,,22,101,4200882,,,,,,,2022-11-02,1,,,,,エヌワイフドウサン,0
462,2080001025276,新規,0,2022-11-02,2022-11-02,株式会社アートプラン．エスト,,株式会社,静岡県,静岡市葵区,平和１丁目６番３号Ｍｊ平和ＩＩ１０１号室,00128326,22,101,4200876,,,,,,,2022-11-02,1,,,,,アートプランエスト,0
469,2080401026139,新規,0,2022-11-02,2022-11-02,浜松ミクスト株式会社,,株式会社,静岡県,浜松市西区,舞阪町浜田７８０番地,,22,133,4310213,,,,,,,2022-11-02,1,,,,,ハママツミクスト,0
471,2090001017826,新規,0,2022-11-02,2022-11-02,株式会社ライフクリエート,,株式会社,山梨県,中巨摩郡昭和町,上河東１３０２番地１０,,19,384,4093862,,,,,,,2022-11-02,1,,,,,ライフクリエート,0
472,2100005012937,新規,0,2022-11-02,2022-11-02,協同組合グローバルワークス長野,,その他の設立登記法人,長野県,長野市,上松２丁目４番４６号,,20,201,3800802,,,,,,,2022-11-02,1,,,,,グローバルワークスナガノ,0
473,2110003004902,新規,0,2022-11-02,2022-11-02,合同会社Ｆｅｌｉｃｅ,,合同会社,新潟県,新潟市西区,青山３丁目４番５号５,,15,107,9502002,,,,,,,2022-11-02,1,,,,,フェリーチェ,0
493,2120001249787,新規,0,2022-11-02,2022-11-02,嵐＿株式会社,00128335,株式会社,大阪府,大阪市中央区,松屋町９番２０号ローレルステート松屋町１２０１Ａ,,27,128,5420067,,,,,,,2022-11-02,1,,,,,ランシン,0
494,2120001249795,新規,0,2022-11-02,2022-11-02,プリトーレ都市開発株式会社,,株式会社,大阪府,大阪市東淀川区,上新庄３丁目１９番５７－５０６号,,27,114,5330006,,,,,,,2022-11-02,1,,,,,プリトーレトシカイハツ,0
495,2120001249936,新規,0,2022-11-02,2022-11-02,株式会社ＣＡＫＥ,,株式会社,大阪府,大阪市福島区,鷺洲３丁目１番１７－６０８号,,27,103,5530002,,,,,,,2022-11-02,1,,,,,ケイキ,0
496,2120001250002,新規,0,2022-11-02,2022-11-02,株式会社縁ビルド,,株式会社,大阪府,枚方市,茄子作３丁目３２番５号,,27,210,5730071,,,,,,,2022-11-02,1,,,,,エニシビルド,0
500,2120003022770,新規,0,2022-11-02,2022-11-02,Ｌｅａｐ７合同会社,,合同会社,大阪府,大阪市住之江区,浜口西１丁目１３番７号日比ビル１階,,27,125,5590006,,,,,,,2022-11-02,1,,,,,リープセブン,0
501,2120003022779,新規,0,2022-11-02,2022-11-02,合同会社Ｖｅｅｒａ,,合同会社,大阪府,寝屋川市,池田新町１１番４号,,27,215,5720038,,,,,,,2022-11-02,1,,,,,ヴィーラ,0
502,2120101066455,新規,0,2022-11-02,2022-11-02,株式会社小崎構造設計事務所,00128329,株式会社,大阪府,泉佐野市,湊１丁目２番５０号,,27,213,5980063,,,,,,,2022-11-02,1,,,,,コザキコウゾウセッケイジムショ,0
503,2120101066463,新規,0,2022-11-02,2022-11-02,株式会社松川商事,,株式会社,大阪府,堺市中区,陶器北４４６番地５,,27,142,5998242,,,,,,,2022-11-02,1,,,,,マツカワショウジ,0
504,2120103004909,新規,0,2022-11-02,2022-11-02,合同会社にじふぁーむ,,合同会社,大阪府,松原市,上田５丁目１５番１１号,,27,217,5800016,,,,,,,2022-11-02,1,,,,,ニジファーム,0
517,2130003008273,新規,0,2022-11-02,2022-11-02,合同会社ＶＩＬＬＡ　ＴＥＲＲＡＣＥ,,合同会社,京都府,京都市下京区,善長寺町１４３番地マスギビル４０４号,,26,106,6008431,,,,,,,2022-11-02,1,,,,,ヴィラテラス,0
518,2130005016621,新規,0,2022-11-02,2022-11-02,一般社団法人コラボ・サポート京田辺,,その他の設立登記法人,京都府,京田辺市,三山木北垣内２２番地の３,,26,211,6100313,,,,,,,2022-11-02,1,,,,,コラボサポートキョウタナベ,0
524,2140001127909,新規,0,2022-11-02,2022-11-02,Ｂｅｔａ株式会社,,株式会社,兵庫県,神戸市中央区,神戸空港１番,,28,110,6500048,,,,,,,2022-11-02,1,,,,,ベータ,0
525,2140001127917,新規,0,2022-11-02,2022-11-02,株式会社コパカバーナ,,株式会社,兵庫県,神戸市中央区,葺合町字蝉山１番地の７熊内台セントポリア８０８号,00128336,28,110,6510058,,,,,,,2022-11-02,1,,,,,コパカバーナ,0
526,2140001127941,新規,0,2022-11-02,2022-11-02,株式会社トーレル,,株式会社,兵庫県,神戸市東灘区,御影山手４丁目２３番２８号,,28,101,6580065,,,,,,,2022-11-02,1,,,,,トーレル,0
532,2170001017355,新規,0,2022-11-02,2022-11-02,株式会社小山商店,,株式会社,和歌山県,有田市,糸我町中番２４０番地１メゾンドリーム２０１号,,30,204,6490421,,,,,,,2022-11-02,1,,,,,コヤマショウテン,0
533,2170003001786,新規,0,2022-11-02,2022-11-02,セキュアプロテクト合同会社,,合同会社,和歌山県,田辺市,新庄町３７４１－６５,,30,206,6460011,,,,,,,2022-11-02,1,,,,,セキュアプロテクト,0
544,2180003024407,新規,0,2022-11-02,2022-11-02,合同会社ＯＲＳ,,合同会社,愛知県,名古屋市北区,御成通４丁目３０番地の１,,23,103,4620807,,,,,,,2022-11-02,1,,,,,オーアールエス,0
549,2180301036764,新規,0,2022-11-02,2022-11-02,株式会社ＳＯＫＫＹＯ,,株式会社,愛知県,豊田市,小川町２丁目６９番地１,,23,211,4710857,,,,,,,2022-11-02,1,,,,,ソッキョウ,0
552,2180303005494,新規,0,2022-11-02,2022-11-02,ＡＳ．ＮＵＲＳＥ合同会社,,合同会社,愛知県,刈谷市,高須町坤４９－３３,,23,210,4480812,,,,,,,2022-11-02,1,,,,,アズナース,0
553,2190001029885,新規,0,2022-11-02,2022-11-02,フクオカホールディングス株式会社,,株式会社,三重県,津市,庄田町１４００番地オフィスビル３Ｆ,,24,201,5141255,,,,,,,2022-11-02,1,,,,,フクオカホールディングス,0
554,2190003004127,新規,0,2022-11-02,2022-11-02,合同会社おもしろい学校,,合同会社,三重県,松阪市,曽原町１８６,,24,204,5152112,,,,,,,2022-11-02,1,,,,,オモシロイガッコウ,0
557,2200001040618,新規,0,2022-11-02,2022-11-02,シバタセレクト株式会社,,株式会社,岐阜県,各務原市,鵜沼東町４丁目２２２番地,,21,213,5090126,,,,,,,2022-11-02,1,,,,,シバタセレクト,0
558,2200001040634,新規,0,2022-11-02,2022-11-02,株式会社ビンテージワークス,,株式会社,岐阜県,山県市,高富１１６番地１,,21,215,5012105,,,,,,,2022-11-02,1,,,,,ビンテージワークス,0
559,2200001040642,新規,0,2022-11-02,2022-11-02,株式会社Ｓｕｎｐｏ,,株式会社,岐阜県,加茂郡白川町,黒川２４１２,,21,506,5091431,,,,,,,2022-11-02,1,,,,,サンポ,0
561,2200003005726,新規,0,2022-11-02,2022-11-02,合同会社ＧＩＦＵＴＯ,,合同会社,岐阜県,山県市,伊佐美１２３５番地２,,21,215,5012102,,,,,,,2022-11-02,1,,,,,ギフト,0
562,2210003001575,新規,0,2022-11-02,2022-11-02,合同会社上村新聞店,,合同会社,福井県,大野市,美川町６番１９号,,18,205,9120036,,,,,,,2022-11-02,1,,,,,ウエムラシンブンテン,0
566,2220003003389,新規,0,2022-11-02,2022-11-02,ＶＪＤ合同会社,,合同会社,石川県,小松市,南陽町１番地６２,,17,203,9230328,,,,,,,2022-11-02,1,,,,,ブイジェイディ,0
574,2240001060595,新規,0,2022-11-02,2022-11-02,株式会社ＮＹテクノ,,株式会社,広島県,広島市南区,宇品御幸２丁目４番２０号,,34,103,7340015,,,,,,,2022-11-02,1,,,,,エヌワイテクノ,0
584,2260003004094,新規,0,2022-11-02,2022-11-02,合同会社ビンゴかさおか,,合同会社,岡山県,笠岡市,二番町６番地１７－２０２,,33,205,7140083,,,,,,,2022-11-02,1,,,,,ビンゴカサオカ,0
596,2290003013126,新規,0,2022-11-02,2022-11-02,ＬＴＣ合同会社,,合同会社,福岡県,福岡市早良区,飯倉３丁目４５番１７号ファミールハピネス原１０２号室,,40,137,8140161,,,,,,,2022-11-02,1,,,,,エルティーシー,0
600,2290803004241,新規,0,2022-11-02,2022-11-02,合同会社ＰＡＲＵＫＵ,,合同会社,福岡県,北九州市小倉北区,赤坂４丁目５番６号,,40,106,8020032,,,,,,,2022-11-02,1,,,,,パルク,0
603,2300003001896,新規,0,2022-11-02,2022-11-02,合同会社唐城,,合同会社,佐賀県,小城市,小城町畑田４６７番地９,,41,208,8450002,,,,,,,2022-11-02,1,,,,,トウギ,0
605,2310001018108,新規,0,2022-11-02,2022-11-02,株式会社しまづ釣具店,,株式会社,長崎県,西海市,大島町１８７６番地６２,,42,212,8572427,,,,,,,2022-11-02,1,,,,,シマヅツリグテン,0
607,2310003004477,新規,0,2022-11-02,2022-11-02,グリテック合同会社,,合同会社,長崎県,大村市,溝陸町１０２９番地１８４,,42,205,8560844,,,,,,,2022-11-02,1,,,,,グリテック,0
608,2320001019402,新規,0,2022-11-02,2022-11-02,株式会社ｍｅｒｉ‐ｃｒｅａｔｅ,,株式会社,大分県,別府市,大字亀川２３４３番地の６,,44,202,8740000,,,,,,,2022-11-02,1,,,,,メリクリエイト,0
610,2330001030234,新規,0,2022-11-02,2022-11-02,株式会社池田,,株式会社,熊本県,人吉市,瓦屋町１１７１番地７,,43,203,8680025,,,,,,,2022-11-02,1,,,,,イケダ,0
611,2330003009573,新規,0,2022-11-02,2022-11-02,まるみ合同会社,,合同会社,熊本県,熊本市北区,鶴羽田３丁目７－６５,,43,105,8615517,,,,,,,2022-11-02,1,,,,,マルミ,0
613,2340003003955,新規,0,2022-11-02,2022-11-02,合同会社壱之,,合同会社,鹿児島県,鹿児島市,田上２丁目６番２０号,,46,201,8900034,,,,,,,2022-11-02,1,,,,,イチノ,0
614,2340005009521,新規,0,2022-11-02,2022-11-02,一般社団法人海と日本ＰＲＯＪＥＣＴ　ｉｎ鹿児島,,その他の設立登記法人,鹿児島県,鹿児島市,高麗町５番２５号,,46,201,8900051,,,,,,,2022-11-02,1,,,,,ウミトニッポンプロジェクトインカゴシマ,0
615,2350001018021,新規,0,2022-11-02,2022-11-02,株式会社海航,,株式会社,宮崎県,宮崎市,田代町２４７番地３,,45,201,8800855,,,,,,,2022-11-02,1,,,,,カイコウ,0
620,2360003012426,新規,0,2022-11-02,2022-11-02,合同会社Ｋｉｖｉ　ｄｅｓｉｇｎｆａｒｍ,,合同会社,沖縄県,宜野湾市,大山３丁目３０番１０－６０５号ＧＲＡＮＷＥＳＴ,,47,205,9012223,,,,,,,2022-11-02,1,,,,,キビデザインファーム,0
622,2360005006731,新規,0,2022-11-02,2022-11-02,一般社団法人アジア沖縄・ウクライナ医療支援協会,,その他の設立登記法人,沖縄県,那覇市,首里当蔵町２丁目６８番地２,,47,201,9030812,,,,,,,2022-11-02,1,,,,,アジアオキナワウクライナイリョウシエンキョウカイ,0
628,2380001033216,新規,0,2022-11-02,2022-11-02,株式会社吉田工業,,株式会社,福島県,石川郡古殿町,大字松川字三株４２６番地６,,07,505,9638304,,,,,,,2022-11-02,1,,,,,ヨシダコウギョウ,0
633,2390003002011,新規,0,2022-11-02,2022-11-02,合同会社ひろまるデザイン,,合同会社,山形県,酒田市,山居町２丁目１―３９,,06,204,9980838,,,,,,,2022-11-02,1,,,,,ヒロマルデザイン,0
639,2430001087768,新規,0,2022-11-02,2022-11-02,ディーオー株式会社,,株式会社,北海道,札幌市中央区,南九条西３丁目２－１マジソンハイツ１００１,,01,101,0640809,,,,,,,2022-11-02,1,,,,,ディーオー,0
641,2430003014423,新規,0,2022-11-02,2022-11-02,合同会社Ｕ‐ｒｏａｄ,,合同会社,北海道,札幌市豊平区,月寒東一条４丁目３番２２号,,01,105,0620051,,,,,,,2022-11-02,1,,,,,ユーロード,0
645,2470001019313,新規,0,2022-11-02,2022-11-02,株式会社ＭＩＴＳＵＲＩ,,株式会社,香川県,高松市,木太町２４５３番地１フィネス唯２０３,,37,201,7600080,,,,,,,2022-11-02,1,,,,,ミツリ,0
646,2480001011905,新規,0,2022-11-02,2022-11-02,株式会社ＵＺＵＳＨＯＵ,,株式会社,徳島県,鳴門市,撫養町小桑島字前組１４３番地マリビル２０１,,36,202,7720012,,,,,,,2022-11-02,1,,,,,ウズショウ,0
648,2500001024573,新規,0,2022-11-02,2022-11-02,アオイ企画株式会社,,株式会社,愛媛県,西条市,周布１５６１番地,,38,206,7991371,,,,,,,2022-11-02,1,,,,,アオイキカク,0
649,2500005008531,新規,0,2022-11-02,2022-11-02,税理士法人クエスト,,その他の設立登記法人,愛媛県,松山市,姫原３丁目１番８号,,38,201,7918012,,,,,,,2022-11-02,1,,,,,クエスト,0
651,2700150112522,新規,0,2022-11-02,2022-11-02,Ｆ．Ｉ．Ｎ．ＮＩＰＰＯＮ　ＰＲＩＶＡＴＥ　ＬＩＭＩＴＥＤ,,外国会社等,神奈川県,厚木市,下川入６４５宮田ハイツ２－１０５,,14,212,2430206,スリランカ民主社会主義共和国、キャンディ、アクラナ、テルンブガハワッテ、６８／１番,,,,,,2022-11-02,1,,,,,エフアイエヌプライベートリミテツド,0
662,3010001230526,新規,0,2022-11-02,2022-11-02,エヌビービーバーンズリーリース株式会社,,株式会社,東京都,中央区,日本橋浜町３丁目３番２号,,13,102,1030007,,,,,,,2022-11-02,1,,,,,エヌビービーバーンズリーリース,0
663,3010001230542,新規,0,2022-11-02,2022-11-02,ＢＵＳＩＮＥＳＳ　ＯＮＥ株式会社,,株式会社,東京都,中央区,勝どき１丁目１３番６号プラザタワー勝どき４２０３号,,13,102,1040054,,,,,,,2022-11-02,1,,,,,ビジネスワン,0
666,3010003038959,新規,0,2022-11-02,2022-11-02,ｃｏｎｎｅｃｔ合同会社,,合同会社,東京都,中央区,銀座１丁目１２番４号Ｎ＆ＥＢＬＤ．６Ｆ,,13,102,1040061,,,,,,,2022-11-02,1,,,,,コネクト,0
669,3010005035731,新規,0,2022-11-02,2022-11-02,ブルームワン一般社団法人,,その他の設立登記法人,東京都,千代田区,丸の内３丁目１番１号東京共同会計事務所内,,13,101,1000005,,,,,,,2022-11-02,1,,,,,ブルームワン,0
676,3010401170578,新規,0,2022-11-02,2022-11-02,株式会社ＡＰ７５,,株式会社,東京都,港区,虎ノ門４丁目１番２８号虎ノ門タワーズオフィス１７階,,13,103,1050001,,,,,,,2022-11-02,1,,,,,エーピーナナジュウゴ,0
682,3010501049581,新規,0,2022-11-02,2022-11-02,酉酒酉文化株式会社,,株式会社,東京都,台東区,上野３丁目４番８号,,13,106,1100005,,,,,,,2022-11-02,1,,,,,ユウシュユウブンカ,0
691,3010901051872,新規,0,2022-11-02,2022-11-02,Ｔｏｋｙｏ　ＩＭＳ株式会社,,株式会社,東京都,世田谷区,用賀４丁目９番３－１０１号,,13,112,1580097,,,,,,,2022-11-02,1,,,,,トウキョウアイエムエス,0
692,3010901051897,新規,0,2022-11-02,2022-11-02,ａｎｙｂｏｄｙ株式会社,,株式会社,東京都,世田谷区,三軒茶屋１丁目３５番３号,,13,112,1540024,,,,,,,2022-11-02,1,,,,,エニバディ,0
699,3011001150623,新規,0,2022-11-02,2022-11-02,株式会社Ｖｉｔｏｌａｂｏ,,株式会社,東京都,渋谷区,恵比寿３丁目２８番１２号,,13,113,1500013,,,,,,,2022-11-02,1,,,,,ヴィトラボ,0
700,3011001150648,新規,0,2022-11-02,2022-11-02,株式会社ラジカル＆ヒート,,株式会社,東京都,渋谷区,道玄坂１丁目１０番８号渋谷道玄坂東急ビル２Ｆ－Ｃ,,13,113,1500043,,,,,,,2022-11-02,1,,,,,,0
701,3011001150739,新規,0,2022-11-02,2022-11-02,ＶＩＴＡ　ＬＵＤＥＮＳ株式会社,,株式会社,東京都,渋谷区,恵比寿西１丁目１番２号２階,,13,113,1500021,,,,,,,2022-11-02,1,,,,,,0
702,3011003015626,新規,0,2022-11-02,2022-11-02,ＬＵＦＴＹ合同会社,,合同会社,東京都,目黒区,目黒３丁目１番７号,,13,110,1530063,,,,,,,2022-11-02,1,,,,,ルフティ,0
705,3011103012333,新規,0,2022-11-02,2022-11-02,合同会社ＣＥＲＮ,,合同会社,東京都,新宿区,西新宿６丁目７番８号アイアイビル５階,,13,104,1600023,,,,,,,2022-11-02,1,,,,,セルン,0
706,3011103012341,新規,0,2022-11-02,2022-11-02,ＳＨＯＯＴＩＮＧ１合同会社,,合同会社,東京都,新宿区,大京町５番地１－２０３,,13,104,1600015,,,,,,,2022-11-02,1,,,,,シューティングワン,0
709,3011203003942,新規,0,2022-11-02,2022-11-02,合同会社ＲＯＮＤ‐ＰＯＩＮＴ,,合同会社,東京都,中野区,中央２丁目４７番２号コート・フェニックス１０１,,13,114,1640011,,,,,,,2022-11-02,1,,,,,ロンポワン,0
717,3011501028625,新規,0,2022-11-02,2022-11-02,日本武野製薬株式会社,,株式会社,東京都,荒川区,南千住３丁目２７－２浅草ビル５０８号室,,13,118,1160003,,,,,,,2022-11-02,1,,,,,ニホンムノセイヤク,0
722,3012801021930,新規,0,2022-11-02,2022-11-02,株式会社Ｍｅｒｒｙ,,株式会社,東京都,立川市,曙町２丁目１８番５号フォーチュンスクエアモリタビル１階,,13,202,1900012,,,,,,,2022-11-02,1,,,,,メリー,0
723,3013101009047,新規,0,2022-11-02,2022-11-02,アークス技研株式会社,,株式会社,東京都,青梅市,駒木町３丁目４６５－４,,13,205,1980053,,,,,,,2022-11-02,1,,,,,アークスギケン,0
735,3020001148767,新規,0,2022-11-02,2022-11-02,株式会社ＦＵＪＩＤＡＮＡ　ＣＯＲＰＯＲＡＴＩＯＮ,,株式会社,神奈川県,川崎市中原区,木月２丁目１１番１号,,14,133,2110025,,,,,,,2022-11-02,1,,,,,フジダナコーポレーション,0
747,3021001077312,新規,0,2022-11-02,2022-11-02,株式会社レイ・ワークス,,株式会社,神奈川県,相模原市中央区,相模原３丁目１０番２６－１００４号,,14,152,2520231,,,,,,,2022-11-02,1,,,,,レイワークス,0
755,3040001125657,新規,0,2022-11-02,2022-11-02,株式会社金豊商事,,株式会社,千葉県,千葉市若葉区,貝塚１丁目２５番３号,,12,104,2640020,,,,,,,2022-11-02,1,,,,,キンホウショウジ,0
759,3040003021177,新規,0,2022-11-02,2022-11-02,合同会社グランドライフクリエイト,,合同会社,千葉県,松戸市,日暮１丁目２－６勝どきビル６０２号,,12,207,2702253,,,,,,,2022-11-02,1,,,,,グランドライフクリエイト,0
760,3040003021185,新規,0,2022-11-02,2022-11-02,合同会社ＣＨＩＢＡ　ＥＸＰＯＲＴ,,合同会社,千葉県,白井市,十余一５８番地１１,,12,232,2701411,,,,,,,2022-11-02,1,,,,,チバエクスポート,0
761,3040003021202,新規,0,2022-11-02,2022-11-02,合同会社ケアプランたなか,,合同会社,千葉県,四街道市,大日２３５番地,,12,228,2840001,,,,,,,2022-11-02,1,,,,,ケアプランタナカ,0
762,3050001051902,新規,0,2022-11-02,2022-11-02,株式会社ソラノビ,,株式会社,茨城県,那珂郡東海村,舟石川駅東３丁目１番１号－２階,,08,341,3191118,,,,,,,2022-11-02,1,,,,,ソラノビ,0
765,3060003004287,新規,0,2022-11-02,2022-11-02,ＡＹＡＳＯ商会合同会社,,合同会社,栃木県,足利市,大前町９３０番地コミュニティーハイツ三伸２Ｆ,,09,202,3260845,,,,,,,2022-11-02,1,,,,,アヤソショウカイ,0
775,3080403004645,新規,0,2022-11-02,2022-11-02,ＮＧ．ｓｙｓ合同会社,,合同会社,静岡県,浜松市南区,新橋町６０番地の３,,22,134,4328058,,,,,,,2022-11-02,1,,,,,エヌジーシス,0
776,3090001017833,新規,0,2022-11-02,2022-11-02,高橋建設株式会社,00128327,株式会社,山梨県,甲府市,中村町６番１８号,,19,201,4000069,,,,,,,2022-11-02,1,,,,,タカハシケンセツ,0
782,3110001037085,新規,0,2022-11-02,2022-11-02,株式会社エクスファーム新潟,,株式会社,新潟県,新潟市西区,五十嵐中島１丁目２０番１９号,,15,107,9502162,,,,,,,2022-11-02,1,,,,,エクスファームニイガタ,0
798,3120001249968,新規,0,2022-11-02,2022-11-02,株式会社Ｂｉｌｌ’ｓ　Ｈｏｕｓｅ,,株式会社,大阪府,大阪市浪速区,幸町１丁目３－１３進和難波ハイライフ４０１号,,27,111,5560021,,,,,,,2022-11-02,1,,,,,ビルズハウス,0
799,3120001250001,新規,0,2022-11-02,2022-11-02,株式会社ＭＩＫＯＴＯ,,株式会社,大阪府,大阪市北区,豊崎３丁目１６番１６－２８０５号,,27,127,5310072,,,,,,,2022-11-02,1,,,,,ミコト,0
800,3120001250042,新規,0,2022-11-02,2022-11-02,Ａｘｉｏｍ株式会社,,株式会社,大阪府,大阪市住之江区,南港北２丁目１番１０号,,27,125,5590034,,,,,,,2022-11-02,1,,,,,アクシアム,0
801,3120001250091,新規,0,2022-11-02,2022-11-02,株式会社アドバンスフーズサービス,,株式会社,大阪府,大阪市中央区,南船場１丁目７番８号,,27,128,5420081,,,,,,,2022-11-02,1,,,,,アドバンスフーズサービス,0
806,3120003022778,新規,0,2022-11-02,2022-11-02,ウーマンズケア合同会社,,合同会社,大阪府,大阪市東住吉区,西今川２丁目７番９号,,27,121,5460042,,,,,,,2022-11-02,1,,,,,ウーマンズケア,0
808,3120101066454,新規,0,2022-11-02,2022-11-02,ガイア株式会社,,株式会社,大阪府,貝塚市,澤９１７番地１リーベラ二色の浜２０５号,,27,208,5970062,,,,,,,2022-11-02,1,,,,,ガイア,0
809,3120101066470,新規,0,2022-11-02,2022-11-02,株式会社ＫＯｈＨＡＫＵ,,株式会社,大阪府,藤井寺市,藤井寺２丁目４番４４号,,27,226,5830024,,,,,,,2022-11-02,1,,,,,コウハク,0
812,3120103004908,新規,0,2022-11-02,2022-11-02,合同会社Ｂｏｒｎ　ｔｏ　Ｓｈｉｎｅ,,合同会社,大阪府,貝塚市,鳥羽３０番地１２,,27,208,5970084,,,,,,,2022-11-02,1,,,,,ボーントゥシャイン,0
813,3120901046671,新規,0,2022-11-02,2022-11-02,株式会社ＨＩＴＯＲＩＳ,,株式会社,大阪府,豊中市,刀根山４丁目３番２５号,,27,203,5600045,,,,,,,2022-11-02,1,,,,,ヒトリス,0
822,3130001072964,新規,0,2022-11-02,2022-11-02,株式会社アスベニ,,株式会社,京都府,京都市左京区,岩倉長谷町６２２番地の１０２,,26,103,6060026,,,,,,,2022-11-02,1,,,,,アスベニ,0
825,3130003008272,新規,0,2022-11-02,2022-11-02,合同会社ＣＡＦＥ　ＬＡ　ＴＥＲＲＡＣＥ,,合同会社,京都府,京都市下京区,善長寺町１４３番地マスギビル４０４号,,26,106,6008431,,,,,,,2022-11-02,1,,,,,カフェラテラス,0
826,3130003008280,新規,0,2022-11-02,2022-11-02,ＤＡＩＺＥＮ合同会社,,合同会社,京都府,京都市下京区,夷馬場町２番地,,26,106,6008837,,,,,,,2022-11-02,1,,,,,ダイゼン,0
832,3140001127874,新規,0,2022-11-02,2022-11-02,株式会社ＧＭＧ,,株式会社,兵庫県,伊丹市,西台１丁目２番３号山本不動産ビル３０５,,28,207,6640858,,,,,,,2022-11-02,1,,,,,ジーエムジー,0
833,3140001127932,新規,0,2022-11-02,2022-11-02,株式会社浜工,,株式会社,兵庫県,尼崎市,三反田町２丁目７番４３号,,28,202,6610024,,,,,,,2022-11-02,1,,,,,ハマコウ,0
834,3140001127940,新規,0,2022-11-02,2022-11-02,株式会社ＰＬＵＳ　ＡＬＰＨＡ,,株式会社,兵庫県,高砂市,松陽１丁目２番１－５号,,28,216,6760077,,,,,,,2022-11-02,1,,,,,プラスアルファ,0
835,3140001127949,新規,0,2022-11-02,2022-11-02,株式会社リノヴェートサービス,,株式会社,兵庫県,神戸市西区,伊川谷町別府９２－１－５０２,,28,111,6512115,,,,,,,2022-11-02,1,,,,,リノヴェートサービス,0
838,3140005026362,新規,0,2022-11-02,2022-11-02,セルプはりま労働者協同組合,,その他の設立登記法人,兵庫県,姫路市,野里上野町１丁目１番６号,,28,201,6700814,,,,,,,2022-11-02,1,,,,,セルプハリマ,0
840,3150005009432,新規,0,2022-11-02,2022-11-02,住宅基礎工事協同組合,,その他の設立登記法人,奈良県,北葛城郡広陵町,大字笠１８番地１,,29,426,6350821,,,,,,,2022-11-02,1,,,,,ジュウタクキソコウジ,0
846,3180001153586,新規,0,2022-11-02,2022-11-02,株式会社７２３ＬＡＢＯ,,株式会社,愛知県,名古屋市東区,泉２丁目１－４スプリングビル４階,,23,102,4610001,,,,,,,2022-11-02,1,,,,,ナツミラボ,0
847,3180001153603,新規,0,2022-11-02,2022-11-02,株式会社恒文社Ｌａｂ,,株式会社,愛知県,愛知郡東郷町,大字春木字白土１番地５０２,,23,302,4700162,,,,,,,2022-11-02,1,,,,,コウブンシャラボ,0
852,3180303005493,新規,0,2022-11-02,2022-11-02,合同会社Ｔｈｉｒｄ　Ｊａｐａｎ,,合同会社,愛知県,豊田市,花園町五反田９‐３,,23,211,4730924,,,,,,,2022-11-02,1,,,,,サードジャパン,0
857,3200001040609,新規,0,2022-11-02,2022-11-02,株式会社ＮＥＸＴ　ＬＩＮＫ,,株式会社,岐阜県,岐阜市,本荘中ノ町１丁目１番地,,21,201,5008364,,,,,,,2022-11-02,1,,,,,ネクストリンク,0
862,3220001025112,新規,0,2022-11-02,2022-11-02,ＭＡＭミュージック株式会社,,株式会社,石川県,金沢市,笠舞３丁目２番２９号,,17,201,9200965,,,,,,,2022-11-02,1,,,,,マムミュージック,0
865,3230001019567,新規,0,2022-11-02,2022-11-02,株式会社金井建設,,株式会社,富山県,射水市,南太閤山９丁目２６番地,,16,211,9390364,,,,,,,2022-11-02,1,,,,,カナイケンセツ,0
871,3240001060586,新規,0,2022-11-02,2022-11-02,株式会社スフィアインテグラル,,株式会社,広島県,広島市中区,平野町８番１６－１１０４号,,34,101,7300047,,,,,,,2022-11-02,1,,,,,スフィアインテグラル,0
872,3240001060594,新規,0,2022-11-02,2022-11-02,株式会社リフェスタ,,株式会社,広島県,東広島市,高屋町杵原１３１１番地２,,34,212,7392102,,,,,,,2022-11-02,1,,,,,リフェスタ,0
873,3240001060603,新規,0,2022-11-02,2022-11-02,株式会社Ｅｘｃｅｌｓｉｏｒ,,株式会社,広島県,広島市東区,牛田本町４丁目６番１４号,,34,102,7320066,,,,,,,2022-11-02,1,,,,,エクセルシア,0
880,3260003004085,新規,0,2022-11-02,2022-11-02,アミット合同会社,,合同会社,岡山県,岡山市東区,瀬戸町下３７０番地１４,,33,103,7090856,,,,,,,2022-11-02,1,,,,,アミット,0
889,3290001099397,新規,0,2022-11-02,2022-11-02,株式会社マニッシュ,,株式会社,福岡県,福岡市東区,香椎駅東３丁目２４番１９号Ｂ－１０１,,40,131,8130012,,,,,,,2022-11-02,1,,,,,マニッシュ,0
892,3290003013125,新規,0,2022-11-02,2022-11-02,Ｇ＆Ｚ商事合同会社,,合同会社,福岡県,嘉麻市,上山田１６１０番地１,,40,227,8210012,,,,,,,2022-11-02,1,,,,,ジーアンドゼーショウジ,0
896,3290801029017,新規,0,2022-11-02,2022-11-02,株式会社ＫＳＡ,,株式会社,福岡県,北九州市小倉北区,浅野３丁目８番１号ＡＩＭビル６階,,40,106,8020001,,,,,,,2022-11-02,1,,,,,ケーエスエー,0
898,3300003001895,新規,0,2022-11-02,2022-11-02,合同会社輝きの森,,合同会社,佐賀県,伊万里市,新天町２９６番地１,,41,205,8480041,,,,,,,2022-11-02,1,,,,,カガヤキノモリ,0
899,3310001018098,新規,0,2022-11-02,2022-11-02,サン・レバレッジ株式会社,,株式会社,長崎県,諫早市,東小路町９－１２,,42,204,8540014,,,,,,,2022-11-02,1,,,,,サンレバレッジ,0
900,3330001030241,新規,0,2022-11-02,2022-11-02,株式会社ＡＭＯＲＥ,,株式会社,熊本県,熊本市中央区,新市街２番６号サンタカラヤビル６Ｆ,,43,101,8600803,,,,,,,2022-11-02,1,,,,,アモーレ,0
903,3340001025125,新規,0,2022-11-02,2022-11-02,株式会社丸信建機サービス,,株式会社,鹿児島県,鹿児島市,山田町２１４０番地１,,46,201,8910104,,,,,,,2022-11-02,1,,,,,マルシンケンキサービス,0
906,3360003012409,新規,0,2022-11-02,2022-11-02,琉球コンパス合同会社,,合同会社,沖縄県,那覇市,前島３丁目２５番２号泊ポートビル１Ｆ,,47,201,9000016,,,,,,,2022-11-02,1,,,,,リュウキュウコンパス,0
907,3360003012433,新規,0,2022-11-02,2022-11-02,合同会社Ｇｙｕｔｔｏ,,合同会社,沖縄県,中頭郡西原町,字棚原１０５番地,,47,329,9030126,,,,,,,2022-11-02,1,,,,,ギュット,0
912,3370001049204,新規,0,2022-11-02,2022-11-02,株式会社Ｌｉｔｔｌｅ　Ｏｎｅ,,株式会社,宮城県,仙台市青葉区,通町１丁目８－７－３０１,,04,101,9810915,,,,,,,2022-11-02,1,,,,,リトルワン,0
913,3370001049212,新規,0,2022-11-02,2022-11-02,株式会社ＴＳＳ,,株式会社,宮城県,仙台市青葉区,国分町２丁目２番７号新東ビル４階,,04,101,9800803,,,,,,,2022-11-02,1,,,,,ティーエスエス,0
930,3430001087759,新規,0,2022-11-02,2022-11-02,株式会社ＣＲＥＤＯ　ＶＩＬＬＡ,,株式会社,北海道,札幌市中央区,南一条東７丁目１番地４,,01,101,0600051,,,,,,,2022-11-02,1,,,,,クレドヴィラ,0
942,3470001019312,新規,0,2022-11-02,2022-11-02,株式会社パインフィルードホールディングス,,株式会社,香川県,高松市,多肥下町１５６２番地１５,,37,201,7618075,,,,,,,2022-11-02,1,,,,,パインフィールドホールディングス,0
946,3480001011904,新規,0,2022-11-02,2022-11-02,株式会社ｉｎｆｉｎｉｔｙ,,株式会社,徳島県,徳島市,南二軒屋町新開１１８０－１ゆとりあ参番館一階店舗,,36,201,7708063,,,,,,,2022-11-02,1,,,,,インフィニティ,0
948,3490003001712,新規,0,2022-11-02,2022-11-02,宮崎クリーン合同会社,00128337,合同会社,高知県,宿毛市,中角１３４８番地１,,39,208,7880039,,,,,,,2022-11-02,1,,,,,ミヤザキクリーン,0
951,3500001024572,新規,0,2022-11-02,2022-11-02,株式会社ＨＡＭ,,株式会社,愛媛県,松山市,北久米町２１７番地の３,,38,201,7900923,,,,,,,2022-11-02,1,,,,,ハム,0
955,3700150112546,新規,0,2022-11-02,2022-11-02,Ｓｈｅｎｚｈｅｎ　Ｃｈｕａｎｇｙｏｕ　Ｉｎｔｅｒｎａｔｉｏｎａｌ　Ｔｒａｄｉｎｇ　Ｌｉｍｉｔｅｄ,,外国会社等,,,,,,,,Ｒｏｏｍ　１１２０，Ｃｈｕａｎｇｘｉｎｇｓｈｉｄａｉ　Ｂｕｉｌｄｉｎｇ　Ｎｏ．３　Ｌｉｐｕ　Ｒｏａｄ　Ｂａｎｔｉａｎ　ｓｔｒｅｅｔ，Ｌｏｎｇｇａｎｇ　ｄｉｓｔｒｉｃｔ　Ｓｈｅｎｚｈｅｎ　Ｇｕａｎｇｄｏｎｇ　５１８１１６　ＣＮ,,,,,,2022-11-02,1,,,,,シエンジエンチユアンヨウインターナシヨナルトレーデイングリミテツド,0
966,4010001230384,新規,0,2022-11-02,2022-11-02,株式会社佐竹製作所ＭＩ,,株式会社,東京都,千代田区,神田須田町１丁目２４番地３,,13,101,1010041,,,,,,,2022-11-02,1,,,,,サタケセイサクジョエムアイ,0
967,4010001230525,新規,0,2022-11-02,2022-11-02,エヌビービーブラッドフォードリース株式会社,,株式会社,東京都,中央区,日本橋浜町３丁目３番２号,,13,102,1030007,,,,,,,2022-11-02,1,,,,,エヌビービーブラッドフォードリース,0
969,4010003038883,新規,0,2022-11-02,2022-11-02,合同会社ＸＦＦＳＦ１号,,合同会社,東京都,千代田区,二番町３番１１ＶＯＲＴ二番町５階,,13,101,1020084,,,,,,,2022-11-02,1,,,,,エックスエフエフエスエフイチゴウ,0
974,4010005035730,新規,0,2022-11-02,2022-11-02,コラボレーション一般社団法人,,その他の設立登記法人,東京都,千代田区,丸の内３丁目１番１号東京共同会計事務所内,,13,101,1000005,,,,,,,2022-11-02,1,,,,,コラボレーション,0
982,4010401170577,新規,0,2022-11-02,2022-11-02,ＤＥＬＴＡ　ＧＬＯＢＡＬ株式会社,,株式会社,東京都,港区,港南２丁目１５番１号品川インターシティＡ棟２８階,,13,103,1080075,,,,,,,2022-11-02,1,,,,,デルタグローバル,0
985,4010405021504,新規,0,2022-11-02,2022-11-02,一般社団法人アジア国際経済協力機構,,その他の設立登記法人,東京都,港区,新橋１丁目１６番９号,,13,103,1050004,,,,,,,2022-11-02,1,,,,,アジアコクサイケイザイキョウリョクキコウ,0
998,4010801033400,新規,0,2022-11-02,2022-11-02,株式会社ＹＡＢＵＫＩ　ＥＳＴＡＴＥ,,株式会社,東京都,大田区,田園調布３丁目３３番６号,,13,111,1450071,,,,,,,2022-11-02,1,,,,,ヤブキエステート,0
999,4010901051896,新規,0,2022-11-02,2022-11-02,株式会社ＳＯＧＯＵ,,株式会社,東京都,世田谷区,豪徳寺１丁目１番９号,,13,112,1540021,,,,,,,2022-11-02,1,,,,,ソゴウ,0
1006,4011001150606,新規,0,2022-11-02,2022-11-02,株式会社ＰｉｅｃｅＣｒｅＦｕｔｅ,,株式会社,東京都,目黒区,中目黒３丁目６－２,,13,110,1530061,,,,,,,2022-11-02,1,,,,,ピースクリフト,0
1007,4011001150614,新規,0,2022-11-02,2022-11-02,株式会社パズル,,株式会社,東京都,渋谷区,代々木１丁目４２番２号,,13,113,1510053,,,,,,,2022-11-02,1,,,,,パズル,0
1008,4011001150622,新規,0,2022-11-02,2022-11-02,Ｂｅｌｌ’Ｉｔａｌｉａ株式会社,,株式会社,東京都,渋谷区,恵比寿西１丁目３０番１３号グリーンヒル代官山,,13,113,1500021,,,,,,,2022-11-02,1,,,,,ベリタリア,0
1009,4011001150647,新規,0,2022-11-02,2022-11-02,株式会社ｔａｎｏｃｅｅ,,株式会社,東京都,渋谷区,道玄坂１丁目１０番８号渋谷道玄坂東急ビル２Ｆ－Ｃ,,13,113,1500043,,,,,,,2022-11-02,1,,,,,タノシー,0
1010,4011001150655,新規,0,2022-11-02,2022-11-02,株式会社プラタナス,,株式会社,東京都,渋谷区,恵比寿南１丁目２０番６号４階,,13,113,1500022,,,,,,,2022-11-02,1,,,,,プラタナス,0
1012,4011003015600,新規,0,2022-11-02,2022-11-02,合同会社ｓｕｂホールディングス,,合同会社,東京都,渋谷区,神宮前２丁目１８番１９号ｔｈｅＦｏｌｋｓＢＹＩＯＱ３Ｆ,,13,113,1500001,,,,,,,2022-11-02,1,,,,,サブホールディングス,0
1014,4011101100709,新規,0,2022-11-02,2022-11-02,株式会社ＰＯＱＡ,,株式会社,東京都,新宿区,西新宿１丁目２６－２新宿野村ビル３２階,,13,104,1600023,,,,,,,2022-11-02,1,,,,,ポカ,0
1015,4011101100725,新規,0,2022-11-02,2022-11-02,四季利屋株式会社,,株式会社,東京都,新宿区,新宿１丁目２４番７号ルネ御苑プラザ４２２号室,,13,104,1600022,,,,,,,2022-11-02,1,,,,,シキリヤ,0
1019,4011203003941,新規,0,2022-11-02,2022-11-02,ＳＨＥＥＰ合同会社,,合同会社,東京都,中野区,中央３丁目１０番３号,,13,114,1640011,,,,,,,2022-11-02,1,,,,,シープ,0
1022,4011301028213,新規,0,2022-11-02,2022-11-02,ＭＡＨＡＤＥＶ　ＣＯＲＰＯＲＡＴＩＯＮ株式会社,,株式会社,東京都,杉並区,阿佐谷北２丁目６番１４号バルビ阿佐谷２０２,,13,115,1660001,,,,,,,2022-11-02,1,,,,,マハデフコーポレーシュン,0
1023,4011301028221,新規,0,2022-11-02,2022-11-02,株式会社ＳＬＪ,,株式会社,東京都,杉並区,堀ノ内１丁目１９番２０号,,13,115,1660013,,,,,,,2022-11-02,1,,,,,エスエルジェイ,0
1026,4011503005332,新規,0,2022-11-02,2022-11-02,合同会社チーム・Ｓｕｎ,,合同会社,東京都,北区,豊島８丁目２７番１－４１１号,,13,117,1140003,,,,,,,2022-11-02,1,,,,,チームサン,0
1027,4011701025735,新規,0,2022-11-02,2022-11-02,ＳＦＭＣ株式会社,,株式会社,東京都,江戸川区,松江２丁目１－１３－３０２号室,,13,123,1320025,,,,,,,2022-11-02,1,,,,,エスエフエムシー,0
1039,4012401039793,新規,0,2022-11-02,2022-11-02,株式会社ＳｍａｒｔＲｉｃｈ,,株式会社,東京都,稲城市,東長沼２５７３番地南山５２街区５号,,13,225,2060802,,,,,,,2022-11-02,1,,,,,スマートリッチ,0
1055,4020001148774,新規,0,2022-11-02,2022-11-02,株式会社ＶＰＳ,,株式会社,神奈川県,横浜市中区,本牧和田２１番１号,,14,104,2310827,,,,,,,2022-11-02,1,,,,,ヴィーピーエス,0
1058,4021003012308,新規,0,2022-11-02,2022-11-02,Ｔｅｒｒａｃｅ　Ｇｒｏｕｐ　ＨＤ合同会社,,合同会社,神奈川県,足柄下郡真鶴町,真鶴８９１番地,,14,383,2590201,,,,,,,2022-11-02,1,,,,,テラスグループホールディングス,0
1059,4021005012652,新規,0,2022-11-02,2022-11-02,一般社団法人日本フェムケア協会,,その他の設立登記法人,神奈川県,相模原市中央区,横山台２丁目１５番３－２号,,14,152,2520241,,,,,,,2022-11-02,1,,,,,ニッポンフェムケアキョウカイ,0
1068,4030001150804,新規,0,2022-11-02,2022-11-02,三協エンジニアリング株式会社,,株式会社,埼玉県,草加市,栄町２丁目１１番３－４０４号,,11,221,3400011,,,,,,,2022-11-02,1,,,,,サンキョーエンジニアリング,0
1069,4030001150820,新規,0,2022-11-02,2022-11-02,株式会社ステラ,,株式会社,埼玉県,北本市,深井１丁目７６番地３,,11,233,3640001,,,,,,,2022-11-02,1,,,,,ステラ,0
1076,4030003020484,新規,0,2022-11-02,2022-11-02,合同会社ＭＦＢ,,合同会社,埼玉県,狭山市,大字上奥富４３番地２号ドミーネ新狭山２０２,,11,215,3501333,,,,,,,2022-11-02,1,,,,,エムエフビー,0
1077,4030003020492,新規,0,2022-11-02,2022-11-02,ＪＡＣ大正日中産業商事合同会社,,合同会社,埼玉県,川口市,並木３丁目６ー１９並木クイーンコーポ３０４,,11,203,3320034,,,,,,,2022-11-02,1,,,,,ジェーエーシータイショウニッチュウサンギョウ,0
1082,4040003021143,新規,0,2022-11-02,2022-11-02,ＳＡＭＩＹＡ　ＥＮＴＥＲＰＲＩＳＥＳ合同会社,,合同会社,千葉県,白井市,中２１６番地,,12,232,2701406,,,,,,,2022-11-02,1,,,,,サミヤエンタープライズ,0
1083,4040003021168,新規,0,2022-11-02,2022-11-02,合同会社Ｅｎｊｏｙ,,合同会社,千葉県,木更津市,請西南４丁目６番地１４,,12,206,2920807,,,,,,,2022-11-02,1,,,,,エンジョイ,0
1089,4060001035399,新規,0,2022-11-02,2022-11-02,株式会社ＧＣ　ＰＬＡＮＴ,,株式会社,栃木県,那須塩原市,下厚崎３７４番地１２,,09,213,3250025,,,,,,,2022-11-02,1,,,,,ジーシープラント,0
1090,4060003004286,新規,0,2022-11-02,2022-11-02,合同会社安生建工,,合同会社,栃木県,栃木市,都賀町大柿４１番地３,,09,203,3280101,,,,,,,2022-11-02,1,,,,,アンジョウケンコウ,0
1093,4070001039770,新規,0,2022-11-02,2022-11-02,株式会社大利建築,,株式会社,群馬県,伊勢崎市,韮塚町１１９６番地９,,10,204,3720813,,,,,,,2022-11-02,1,,,,,ダイトシケンチク,0
1096,4080401026137,新規,0,2022-11-02,2022-11-02,ＳＥＡＷＥＥＤ岡田株式会社,,株式会社,静岡県,浜松市西区,舞阪町舞阪１７４６番地,,22,133,4310211,,,,,,,2022-11-02,1,,,,,シーウィードオカダ,0
1108,4110001037084,新規,0,2022-11-02,2022-11-02,株式会社アデュース,,株式会社,新潟県,三条市,井栗１丁目４２番２３号,,15,204,9550013,,,,,,,2022-11-02,1,,,,,アデュース,0
1109,4110001037092,新規,0,2022-11-02,2022-11-02,株式会社ＫＳＣ,,株式会社,新潟県,長岡市,蔵王１丁目２番１号,,15,202,9400028,,,,,,,2022-11-02,1,,,,,ケイエスシイ,0
1122,4120001249959,新規,0,2022-11-02,2022-11-02,株式会社ＦＡ　ｆｉｒｍ,,株式会社,大阪府,大阪市中央区,平野町１丁目６－８,,27,128,5410046,,,,,,,2022-11-02,1,,,,,エフエーファーム,0
1123,4120001250074,新規,0,2022-11-02,2022-11-02,株式会社ＯＫ’ｓコーポレーション,,株式会社,大阪府,大阪市浪速区,大国３丁目９番１６号,,27,111,5560014,,,,,,,2022-11-02,1,,,,,オーケーズコーポレーション,0
1128,4120101066445,新規,0,2022-11-02,2022-11-02,株式会社ＴＡＫ,,株式会社,大阪府,和泉市,室堂町１２０８番地３光明池西ビル１Ｆ５号,,27,219,5941101,,,,,,,2022-11-02,1,,,,,ティーエーケー,0
1129,4120101066461,新規,0,2022-11-02,2022-11-02,株式会社ケーテクノ,,株式会社,大阪府,堺市西区,浜寺船尾町東３丁４４５番地,,27,144,5928341,,,,,,,2022-11-02,1,,,,,ケーテクノ,0
1131,4120103004907,新規,0,2022-11-02,2022-11-02,合同会社Ｊｕｎｅ,,合同会社,大阪府,堺市北区,百舌鳥本町２丁４５３番地コーポみやび１０５,,27,146,5918036,,,,,,,2022-11-02,1,,,,,ジュン,0
1133,4120901046679,新規,0,2022-11-02,2022-11-02,株式会社シリコン水素研究所,,株式会社,大阪府,豊中市,庄内宝町３丁目８番１６号,,27,203,5610836,,,,,,,2022-11-02,1,,,,,シリコンスイソケンキュウショ,0
1134,4120901046687,新規,0,2022-11-02,2022-11-02,株式会社ｂｅｌｌａ　ｓｕｕ,,株式会社,大阪府,豊中市,南桜塚２丁目９－７ブランズ豊中南桜塚２０３,,27,203,5610882,,,,,,,2022-11-02,1,,,,,ベッラスー,0
1137,4122001036354,新規,0,2022-11-02,2022-11-02,ＴＫＹ商事株式会社,,株式会社,大阪府,八尾市,田井中４丁目８番地,,27,212,5810095,,,,,,,2022-11-02,1,,,,,ティーケーワイショウジ,0
1139,4130001072947,新規,0,2022-11-02,2022-11-02,ＳＯＬＶＥ株式会社,,株式会社,京都府,京都市下京区,綾小路通室町西入善長寺町１３１番地西澤ビル２０１,,26,106,6008431,,,,,,,2022-11-02,1,,,,,ソルブ,0
1140,4130001072996,新規,0,2022-11-02,2022-11-02,株式会社ＦＧ　Ｃｏｎｎｅｃｔ,,株式会社,京都府,京都市東山区,祇園町南側５７０－７１和晃ビル３Ｆ－１,,26,105,6050074,,,,,,,2022-11-02,1,,,,,エフジーコネクト,0
1151,4140001127873,新規,0,2022-11-02,2022-11-02,生命樹株式会社,,株式会社,兵庫県,神戸市長田区,五位ノ池町３丁目６番８号,,28,106,6530851,,,,,,,2022-11-02,1,,,,,セイメイジュ,0
1152,4140001127881,新規,0,2022-11-02,2022-11-02,株式会社ｃｒａｆｔｒｉａｌ　ｌａｓｅｒ,,株式会社,兵庫県,三木市,別所町西這田１丁目４９７－３,,28,215,6730445,,,,,,,2022-11-02,1,,,,,クラフトリアルレーザー,0
1153,4140001127907,新規,0,2022-11-02,2022-11-02,ＦＬＯＷ．ｉｎｃ．株式会社,,株式会社,兵庫県,尼崎市,西昆陽３丁目４番２８号,,28,202,6610047,,,,,,,2022-11-02,1,,,,,フローインク,0
1154,4140001127931,新規,0,2022-11-02,2022-11-02,ＩＣＯＩコーポレーション株式会社,,株式会社,兵庫県,神戸市北区,桂木３丁目３２番地の２－１０１号,,28,109,6511223,,,,,,,2022-11-02,1,,,,,イコイコーポレーション,0
1155,4140003018286,新規,0,2022-11-02,2022-11-02,合同会社ＨＡＭＳ,,合同会社,兵庫県,三田市,上井沢５８３番地２,,28,219,6691316,,,,,,,2022-11-02,1,,,,,ハムス,0
1157,4150003002801,新規,0,2022-11-02,2022-11-02,Ｍ．Ｋスマイル合同会社,,合同会社,奈良県,大和郡山市,下三橋町９７６番地,,29,203,6391101,,,,,,,2022-11-02,1,,,,,エムケースマイル,0
1158,4150005009431,新規,0,2022-11-02,2022-11-02,一般社団法人フードバンクエンジェル,,その他の設立登記法人,奈良県,橿原市,曲川町５丁目８番５－３号,,29,205,6340837,,,,,,,2022-11-02,1,,,,,フードバンクエンジェル,0
1166,4170001017361,新規,0,2022-11-02,2022-11-02,株式会社ｈａｎｄｙｓｏｆｔ,,株式会社,和歌山県,田辺市,新庄町３３５３番９号,,30,206,6460011,,,,,,,2022-11-02,1,,,,,ハンディーソフト,0
1180,4180001153577,新規,0,2022-11-02,2022-11-02,株式会社ナンバーツー,,株式会社,愛知県,名古屋市守山区,瀬古１丁目７０１番地の１（ラドーニ守山風の館５０４号）,,23,113,4630068,,,,,,,2022-11-02,1,,,,,ナンバーツー,0
1181,4180001153585,新規,0,2022-11-02,2022-11-02,株式会社トータルリペアＫＡＺＵ,,株式会社,愛知県,長久手市,岩作欠花９９番地,,23,238,4801103,,,,,,,2022-11-02,1,,,,,トータルリペアカズ,0
1182,4180001153610,新規,0,2022-11-02,2022-11-02,株式会社ＳＡＮＡＧＩ,,株式会社,愛知県,名古屋市中区,錦２丁目１２－３２さくらＨｉｌｌｓＮＩＳＨＩＫＩＰｌａｔｉｎｕｍＲｅｓｉｄｅｎｃｅ３０７,,23,106,4600003,,,,,,,2022-11-02,1,,,,,サナギ,0
1188,4190001029875,新規,0,2022-11-02,2022-11-02,ＤＲＳ株式会社,,株式会社,三重県,鈴鹿市,長澤町１１６０番地,,24,207,5190314,,,,,,,2022-11-02,1,,,,,ディアールエス,0
1189,4190001029891,新規,0,2022-11-02,2022-11-02,株式会社令和建材,,株式会社,三重県,四日市市,大字松本１０８８－１,,24,202,5100836,,,,,,,2022-11-02,1,,,,,レイワケンザイ,0
1190,4190001029900,新規,0,2022-11-02,2022-11-02,株式会社チンタイ管理,,株式会社,三重県,桑名市,大字桑名６２５番５１,,24,205,5110009,,,,,,,2022-11-02,1,,,,,チンタイカンリ,0
1192,4200001040608,新規,0,2022-11-02,2022-11-02,株式会社ＮＧＵ,,株式会社,岐阜県,本巣郡北方町,高屋分木１丁目３０番地,,21,421,5010453,,,,,,,2022-11-02,1,,,,,エヌジーユー,0
1193,4200001040616,新規,0,2022-11-02,2022-11-02,東海ビジネスサポート株式会社,,株式会社,岐阜県,関市,迫間台２丁目１１番１２号,,21,205,5013925,,,,,,,2022-11-02,1,,,,,トウカイビジネスサポート,0
1195,4200003005724,新規,0,2022-11-02,2022-11-02,後藤溶接工業合同会社,,合同会社,岐阜県,関市,小瀬南１丁目５番２号,,21,205,5013266,,,,,,,2022-11-02,1,,,,,ゴトウヨウセツコウギョウ,0
1200,4230001019566,新規,0,2022-11-02,2022-11-02,株式会社横田通信工業,,株式会社,富山県,富山市,下飯野４番地１,,16,201,9318443,,,,,,,2022-11-02,1,,,,,ヨコタツウシンコウギョウ,0
1204,4240001060585,新規,0,2022-11-02,2022-11-02,株式会社キンヨー,,株式会社,広島県,東広島市,西条町寺家５４６６番地９,,34,212,7390041,,,,,,,2022-11-02,1,,,,,キンヨー,0
1205,4240001060593,新規,0,2022-11-02,2022-11-02,株式会社サコダ．ＷＯＲＫＳ,,株式会社,広島県,広島市佐伯区,利松２丁目５番４３‐１１号,,34,108,7315106,,,,,,,2022-11-02,1,,,,,サコダワークス,0
1209,4240003005877,新規,0,2022-11-02,2022-11-02,合同会社サッティ,,合同会社,広島県,廿日市市,深江３丁目４番２０号,,34,213,7390421,,,,,,,2022-11-02,1,,,,,サッティ,0
1216,4260001037367,新規,0,2022-11-02,2022-11-02,株式会社真備竹林麦酒,,株式会社,岡山県,倉敷市,真備町下二万１５３７番地２,,33,202,7101314,,,,,,,2022-11-02,1,,,,,マビチクリンバクシュ,0
1217,4260003004092,新規,0,2022-11-02,2022-11-02,笑和ホームパートナーズ合同会社,,合同会社,岡山県,岡山市南区,福成３丁目６番３０号３０６号,,33,104,7028022,,,,,,,2022-11-02,1,,,,,ショウワホームパートナーズ,0
1218,4270003001460,新規,0,2022-11-02,2022-11-02,産前産後ケアハウスはぐはぐ合同会社,,合同会社,鳥取県,米子市,上福原２丁目９－１８,,31,202,6830004,,,,,,,2022-11-02,1,,,,,サンゼンサンゴケアハウスハグハグ,0
1224,4290001099339,新規,0,2022-11-02,2022-11-02,株式会社日越ビジネスエコシステム,,株式会社,福岡県,福岡市博多区,中洲５丁目３番８号アクア博多５階,,40,132,8100801,,,,,,,2022-11-02,1,,,,,ニチエツビジネスエコシステム,0
1225,4290001099405,新規,0,2022-11-02,2022-11-02,株式会社ぐりこ,,株式会社,福岡県,福岡市中央区,薬院３丁目１２番１５号,,40,133,8100022,,,,,,,2022-11-02,1,,,,,グリコ,0
1226,4290001099413,新規,0,2022-11-02,2022-11-02,株式会社ジョックス,,株式会社,福岡県,福岡市中央区,渡辺通５丁目２３番２－３１１号,,40,133,8100004,,,,,,,2022-11-02,1,,,,,ジョックス,0
1230,4290003013124,新規,0,2022-11-02,2022-11-02,新井システム合同会社,,合同会社,福岡県,福岡市東区,香椎浜４丁目７番ネクサス香椎２‐１０１号,,40,131,8130016,,,,,,,2022-11-02,1,,,,,アライシステム,0
1233,4290801028991,新規,0,2022-11-02,2022-11-02,ディエラホールディングス株式会社,,株式会社,福岡県,北九州市八幡西区,黒崎城石３番５号,,40,109,8060004,,,,,,,2022-11-02,1,,,,,ディエラホールディングス,0
1234,4290801029008,新規,0,2022-11-02,2022-11-02,株式会社Ｙｕｓｈｉｎ,,株式会社,福岡県,中間市,土手ノ内２丁目１８番２７号,,40,215,8090033,,,,,,,2022-11-02,1,,,,,ユーシン,0
1235,4290801029024,新規,0,2022-11-02,2022-11-02,株式会社勝洋電機,,株式会社,福岡県,北九州市戸畑区,牧山新町６番８号,,40,105,8040054,,,,,,,2022-11-02,1,,,,,ショウヨウデンキ,0
1239,4310001018106,新規,0,2022-11-02,2022-11-02,株式会社長崎福祉介護人材センター,,株式会社,長崎県,長崎市,住吉町１番１８－２０１号,,42,201,8528154,,,,,,,2022-11-02,1,,,,,ナガサキフクシカイゴジンザイセンター,0
1240,4320001019400,新規,0,2022-11-02,2022-11-02,株式会社清流コンサル・ファーム,,株式会社,大分県,大分市,長浜町２丁目１４番２８－３０５号,,44,201,8700023,,,,,,,2022-11-02,1,,,,,セイリュウコンサルファーム,0
1241,4320001019409,新規,0,2022-11-02,2022-11-02,株式会社月の船,,株式会社,大分県,別府市,石垣東６丁目８番２６号シティ吉弘１階,,44,202,8740919,,,,,,,2022-11-02,1,,,,,ツキノフネ,0
1244,4330003009563,新規,0,2022-11-02,2022-11-02,合同会社太陽園,,合同会社,熊本県,人吉市,上漆田町３４４０番地,,43,203,8680821,,,,,,,2022-11-02,1,,,,,タイヨウエン,0
1245,4330003009571,新規,0,2022-11-02,2022-11-02,Ｅｎ’ｓＬａｂ合同会社,,合同会社,熊本県,熊本市西区,島崎２丁目１番３０－１００４号,,43,103,8600073,,,,,,,2022-11-02,1,,,,,エンズラボ,0
1246,4340001025132,新規,0,2022-11-02,2022-11-02,株式会社Ｐａｓｔｅｌ　Ｊｏｉｎ,,株式会社,鹿児島県,鹿児島市,中山町５１２７番地４モントーレ真方１０４号,,46,201,8910105,,,,,,,2022-11-02,1,,,,,パステルジョイン,0
1251,4350005006111,新規,0,2022-11-02,2022-11-02,一般社団法人ハートスペースみやざき,,その他の設立登記法人,宮崎県,宮崎市,橘通西１丁目１番２号市民プラザ３階宮崎市民活動センターＢ‐１０８,,45,201,8800001,,,,,,,2022-11-02,1,,,,,ハートスペースミヤザキ,0
1256,4360003012424,新規,0,2022-11-02,2022-11-02,合同会社グリシーヌ,,合同会社,沖縄県,那覇市,久米２丁目３番１５号,,47,201,9000033,,,,,,,2022-11-02,1,,,,,グリシーヌ,0
1259,4370001049186,新規,0,2022-11-02,2022-11-02,株式会社ＢＳＳ宮城野,,株式会社,宮城県,宮城郡利府町,神谷沢字館ノ内１４番地３０１,,04,406,9810121,,,,,,,2022-11-02,1,,,,,ビーエスエスミヤギノ,0
1260,4370001049211,新規,0,2022-11-02,2022-11-02,株式会社泉インシュアランスオフィス,,株式会社,宮城県,仙台市泉区,紫山２丁目１２番地６,,04,105,9813205,,,,,,,2022-11-02,1,,,,,イズミインシュアランスオフィス,0
1265,4380001033214,新規,0,2022-11-02,2022-11-02,株式会社ＲＥＳＴＲＩＣＴ,,株式会社,福島県,郡山市,小原田３丁目８番１３号ハピネスホーム１０１号,,07,203,9638835,,,,,,,2022-11-02,1,,,,,リストリクト,0
1276,4430001087774,新規,0,2022-11-02,2022-11-02,株式会社光陽商社,,株式会社,北海道,札幌市厚別区,厚別中央一条２丁目５－１４,,01,108,0040051,,,,,,,2022-11-02,1,,,,,コウヨウショウシャ,0
1280,4460303000779,新規,0,2022-11-02,2022-11-02,合同会社Ｒｅｌａ,,合同会社,北海道,網走郡大空町,東藻琴１６０番地の４４,,01,564,0993244,,,,,,,2022-11-02,1,,,,,レラ,0
1284,4700150011862,新規,0,2022-11-02,2015-10-09,東京都町村議会議長会,,その他,東京都,府中市,新町２丁目７７―１東京自治会館内,,13,206,1830052,,,,,,,2015-10-09,1,,,,,トウキヨウトチヨウソンギカイギチヨウカイ,0
1285,4700150112529,新規,0,2022-11-02,2022-11-02,ＦＵＭＡＸ　ＭＡＲＫＥＴＩＮＧ　ＰＲＩＶＡＴＥ　ＬＩＭＴＥＤ,,外国会社等,千葉県,山武市,埴谷１５０８番地７１,,12,237,2891223,スリランカ民主社会主義共和国、マワネッラ、キリンガデニヤ、８８,,,,,,2022-11-02,1,,,,,フマツクスマーケテイングプライベートリミテツド,0
1286,4700150112553,新規,0,2022-11-02,2022-11-02,谷平野区,,その他,千葉県,山武郡芝山町,岩山１１４４,,12,409,2891608,,,,,,,2022-11-02,1,,,,,サクヒラノク,0
1292,5010001230383,新規,0,2022-11-02,2022-11-02,株式会社佐竹製作所ＣＭＷ,,株式会社,東京都,千代田区,神田須田町１丁目２４番地３,,13,101,1010041,,,,,,,2022-11-02,1,,,,,サタケセイサクジョシーエムダブリュー,0
1296,5010101015395,新規,0,2022-11-02,2022-11-02,ＭＳＴプロジェクト株式会社,,株式会社,東京都,八王子市,滝山町２丁目７３番地１グランドール橋本２０１,,13,201,1920011,,,,,,,2022-11-02,1,,,,,エムエスティープロジェクト,0
1301,5010403028814,新規,0,2022-11-02,2022-11-02,ＰＳシステム合同会社,,合同会社,東京都,港区,浜松町２丁目２番１５号浜松町ダイヤビル２Ｆ,,13,103,1050013,,,,,,,2022-11-02,1,,,,,ピーエスシステム,0
1303,5010503006777,新規,0,2022-11-02,2022-11-02,合同会社ＭＥＤＣＯＭ,,合同会社,東京都,台東区,西浅草３丁目２２番３－３２０号浅草タワー,,13,106,1110035,,,,,,,2022-11-02,1,,,,,メディコム,0
1306,5010801033399,新規,0,2022-11-02,2022-11-02,エム．エヌ．エス株式会社,,株式会社,東京都,大田区,東雪谷１丁目２番３－１０２号,,13,111,1450065,,,,,,,2022-11-02,1,,,,,エムエヌエス,0
1310,5010901051904,新規,0,2022-11-02,2022-11-02,株式会社ｉｘｉ,,株式会社,東京都,世田谷区,上野毛４丁目１１番２号,,13,112,1580093,,,,,,,2022-11-02,1,,,,,アイエックスアイ,0
1317,5011001150084,新規,0,2022-11-02,2022-11-02,ＣａｓｔＳｐａｃｅ株式会社,,株式会社,東京都,渋谷区,渋谷２丁目１９－１５宮益坂ビルディング６０９,,13,113,1500002,,,,,,,2022-11-02,1,,,,,キャストスペース,0
1318,5011001150596,新規,0,2022-11-02,2022-11-02,Ｋ．Ｓ．Ｎ　ＪＡＰＡＮ株式会社,,株式会社,東京都,渋谷区,千駄ヶ谷３丁目３番３２号,,13,113,1510051,,,,,,,2022-11-02,1,,,,,ケイエスエヌジャパン,0
1319,5011001150638,新規,0,2022-11-02,2022-11-02,株式会社Ｉｒｉｓｉｎｇ,,株式会社,東京都,渋谷区,道玄坂１丁目１０番８号渋谷道玄坂東急ビル２Ｆ－Ｃ,,13,113,1500043,,,,,,,2022-11-02,1,,,,,アイリシング,0
1321,5011003015624,新規,0,2022-11-02,2022-11-02,合同会社ｎａｐ,,合同会社,東京都,渋谷区,渋谷２丁目１９番１５－６０９号宮益坂ビルディング,,13,113,1500002,,,,,,,2022-11-02,1,,,,,ナップ,0
1324,5011201024212,新規,0,2022-11-02,2022-11-02,株式会社ａｔｅｍ,,株式会社,東京都,中野区,弥生町４丁目２４番１－２０３号,,13,114,1640013,,,,,,,2022-11-02,1,,,,,アーテム,0
1332,5011701025750,新規,0,2022-11-02,2022-11-02,申合株式会社,,株式会社,東京都,江戸川区,松江２丁目１－１３－３０３号室,,13,123,1320025,,,,,,,2022-11-02,1,,,,,シンゴウ,0
1335,5012701017325,新規,0,2022-11-02,2022-11-02,株式会社ＳＥＶＥＮ’Ｓ　ＦＩＥＬＤ,,株式会社,東京都,西東京市,ひばりが丘３丁目２－５３プレミストひばりヶ丘５１２,,13,229,2020001,,,,,,,2022-11-02,1,,,,,セブンズフィールド,0
1344,5020001148749,新規,0,2022-11-02,2022-11-02,株式会社エノスイ,,株式会社,神奈川県,横浜市神奈川区,羽沢町１０７５番地８,,14,102,2210863,,,,,,,2022-11-02,1,,,,,エノスイ,0
1345,5020001148757,新規,0,2022-11-02,2022-11-02,株式会社ＡＩＤＥＡ,,株式会社,神奈川県,横浜市緑区,中山４丁目３０番２１－２０２号,,14,113,2260019,,,,,,,2022-11-02,1,,,,,アイデア,0
1346,5020001148765,新規,0,2022-11-02,2022-11-02,株式会社ＦＵＪＩＤＡＮＡ　ＩＮＴＥＲＮＡＴＩＯＮＡＬ,,株式会社,神奈川県,川崎市中原区,木月２丁目１１番１号,,14,133,2110025,,,,,,,2022-11-02,1,,,,,フジダナインターナショナル,0
1375,5040003021027,新規,0,2022-11-02,2022-11-02,ＭＲＭ　ＡＵＴＯ合同会社,,合同会社,千葉県,市川市,南行徳２丁目４番６ソシア南行徳２０６号,,12,203,2720138,,,,,,,2022-11-02,1,,,,,エムアールエムオート,0
1376,5040003021175,新規,0,2022-11-02,2022-11-02,ＥＶＲ　ＴＲＡＤＩＮＧ合同会社,,合同会社,千葉県,山武市,大木６８９番地８６ハッピーハイツＤ,,12,237,2891211,,,,,,,2022-11-02,1,,,,,イーブイアールトレーディング,0
1377,5040003021200,新規,0,2022-11-02,2022-11-02,イージーユナイテッド合同会社,,合同会社,千葉県,船橋市,藤原７丁目３５番１２号,,12,204,2730047,,,,,,,2022-11-02,1,,,,,イージーユナイテッド,0
1379,5050003006968,新規,0,2022-11-02,2022-11-02,ソレイユヴェール合同会社,,合同会社,茨城県,龍ケ崎市,若柴町２２４０番地の７,,08,208,3010041,,,,,,,2022-11-02,1,,,,,ソレイユヴェール,0
1380,5050003006984,新規,0,2022-11-02,2022-11-02,ひたち財務コンサル合同会社,,合同会社,茨城県,ひたちなか市,大字稲田３５９番地４,,08,221,3120061,,,,,,,2022-11-02,1,,,,,ヒタチザイムコンサル,0
1381,5060001035398,新規,0,2022-11-02,2022-11-02,永康株式会社,,株式会社,栃木県,小山市,駅東通り３丁目３８番地１９－２Ｆ,,09,208,3230022,,,,,,,2022-11-02,1,,,,,エイコウ,0
1382,5060003004260,新規,0,2022-11-02,2022-11-02,合同会社ロマンス,,合同会社,栃木県,宇都宮市,ゆいの杜２丁目７－２０メゾンドゥチエ２０３,,09,201,3213226,,,,,,,2022-11-02,1,,,,,ロマンス,0
1384,5070001039778,新規,0,2022-11-02,2022-11-02,ＴＨＥ　ＢＯＵＴＩＱＵＥ　ＪＡＰＡＮ株式会社,,株式会社,群馬県,高崎市,吉井町吉井３１５番地,,10,202,3702132,,,,,,,2022-11-02,1,,,,,ザブティックジャパン,0
1389,5080001025273,新規,0,2022-11-02,2022-11-02,株式会社銀座商店,,株式会社,静岡県,牧之原市,新庄３６６番地１,,22,226,4210533,,,,,,,2022-11-02,1,,,,,ギンザショウテン,0
1390,5080101023615,新規,0,2022-11-02,2022-11-02,ことほぎ株式会社,,株式会社,静岡県,富士市,柚木３６４番地の１０,,22,210,4160908,,,,,,,2022-11-02,1,,,,,コトホギ,0
1396,5080401026136,新規,0,2022-11-02,2022-11-02,株式会社ＧＡＲＡＧＥ６６,,株式会社,静岡県,浜松市南区,石原町６９７番地,,22,134,4350033,,,,,,,2022-11-02,1,,,,,ガレージロクジュウロク,0
1398,5090001017831,新規,0,2022-11-02,2022-11-02,株式会社ボンボアネ,,株式会社,山梨県,中巨摩郡昭和町,押越１０７５番地３,,19,384,4093864,,,,,,,2022-11-02,1,,,,,ボンボアネ,0
1401,5110001037083,新規,0,2022-11-02,2022-11-02,株式会社ＳＫＳ,,株式会社,新潟県,新潟市東区,牡丹山６丁目８番３０号エクアトール牡丹山１０１,,15,102,9500872,,,,,,,2022-11-02,1,,,,,エスケーエス,0
1416,5120001249909,新規,0,2022-11-02,2022-11-02,株式会社ＭＵＳＥ,,株式会社,大阪府,大阪市中央区,本町４丁目４番１７－３１０号,,27,128,5410053,,,,,,,2022-11-02,1,,,,,ミューズ,0
1417,5120001249999,新規,0,2022-11-02,2022-11-02,株式会社Ｅｗａｌｕ,,株式会社,大阪府,大阪市阿倍野区,西田辺町２丁目２番２１号クレスト西田辺２階,,27,119,5450014,,,,,,,2022-11-02,1,,,,,エヴァル,0
1418,5120001250008,新規,0,2022-11-02,2022-11-02,株式会社森昇,,株式会社,大阪府,大阪市生野区,新今里３丁目１５番８号１階,,27,116,5440001,,,,,,,2022-11-02,1,,,,,モリショウ,0
1422,5120003022751,新規,0,2022-11-02,2022-11-02,瑜明合同会社,,合同会社,大阪府,大阪市中央区,北久宝寺町１丁目５－６堺筋本町アーバンライフ３０４,,27,128,5410057,,,,,,,2022-11-02,1,,,,,ユメイ,0
1423,5120003022768,新規,0,2022-11-02,2022-11-02,合同会社ヒューリッジ,,合同会社,大阪府,守口市,寺方錦通３丁目１番１２号メリッサ錦２０１,,27,209,5700042,,,,,,,2022-11-02,1,,,,,ヒューリッジ,0
1424,5120005023269,新規,0,2022-11-02,2022-11-02,一般社団法人Ｊｅｂ,,その他の設立登記法人,大阪府,大阪市西区,靱本町１丁目１２番４号,,27,106,5500004,,,,,,,2022-11-02,1,,,,,ジェブ,0
1425,5120101066469,新規,0,2022-11-02,2022-11-02,株式会社ホワイトキューブ・パートナーズ,,株式会社,大阪府,高石市,綾園１丁目１３番１‐２０１号,,27,225,5920014,,,,,,,2022-11-02,1,,,,,ホワイトキューブパートナーズ,0
1427,5120901046686,新規,0,2022-11-02,2022-11-02,株式会社ＹＲＡ,,株式会社,大阪府,吹田市,長野東３番４－２号,,27,205,5650816,,,,,,,2022-11-02,1,,,,,ワイアールエー,0
1438,5130001072938,新規,0,2022-11-02,2022-11-02,株式会社ＬＩＢ,,株式会社,京都府,京都市西京区,大枝東長町１番３０６,,26,111,6101111,,,,,,,2022-11-02,1,,,,,リブ,0
1449,5140001127930,新規,0,2022-11-02,2022-11-02,株式会社ＦＤ‐Ｃｒａｆｔ,,株式会社,兵庫県,神戸市東灘区,御影塚町２丁目２７番１２号１階,,28,101,6580044,,,,,,,2022-11-02,1,,,,,エフディクラフト,0
1450,5140003018327,新規,0,2022-11-02,2022-11-02,正陽合同会社,,合同会社,兵庫県,神戸市長田区,御屋敷通２丁目３番１０－１号,,28,106,6530843,,,,,,,2022-11-02,1,,,,,マサハル,0
1458,5170001017360,新規,0,2022-11-02,2022-11-02,株式会社吉宗,,株式会社,和歌山県,和歌山市,吉田９６－１０サンライズマンション和歌山１－１１０２号,,30,201,6408343,,,,,,,2022-11-02,1,,,,,ヨシムネ,0
1465,5180001153601,新規,0,2022-11-02,2022-11-02,株式会社ｍ５,,株式会社,愛知県,名古屋市守山区,森孝東２丁目８１４番地森高西住宅３０２号,,23,113,4630033,,,,,,,2022-11-02,1,,,,,エムゴ,0
1475,5180003024412,新規,0,2022-11-02,2022-11-02,合同会社フレアクション・ワークス,,合同会社,愛知県,春日井市,鳥居松町１丁目２６２番地,,23,206,4860844,,,,,,,2022-11-02,1,,,,,フレアクションワークス,0
1483,5190001029866,新規,0,2022-11-02,2022-11-02,ＲＳ急配株式会社,,株式会社,三重県,松阪市,久保町２４９番地１０,,24,204,5150044,,,,,,,2022-11-02,1,,,,,アールエスキュウハイ,0
1484,5190001029874,新規,0,2022-11-02,2022-11-02,株式会社マルカツ,,株式会社,三重県,四日市市,楠町小倉１６０９番地１パルティール２０１,,24,202,5100101,,,,,,,2022-11-02,1,,,,,マルカツ,0
1487,5200001040607,新規,0,2022-11-02,2022-11-02,株式会社ＬＯＮＧＯＯＤ,,株式会社,岐阜県,岐阜市,長良２４３５番地１９３,,21,201,5020071,,,,,,,2022-11-02,1,,,,,ロングッド,0
1488,5200001040631,新規,0,2022-11-02,2022-11-02,株式会社藤吉テクノ,,株式会社,岐阜県,瑞穂市,本田６８４番地２,,21,216,5010236,,,,,,,2022-11-02,1,,,,,フジヨシテクノ,0
1489,5200003005723,新規,0,2022-11-02,2022-11-02,合同会社ＫＨＮ,,合同会社,岐阜県,岐阜市,薮田南４丁目２番７号,,21,201,5008384,,,,,,,2022-11-02,1,,,,,ケーエイチエヌ,0
1491,5230001019573,新規,0,2022-11-02,2022-11-02,株式会社アグリアップ,,株式会社,富山県,射水市,上条６６番地１５,,16,211,9390255,,,,,,,2022-11-02,1,,,,,アグリアップ,0
1494,5240001060584,新規,0,2022-11-02,2022-11-02,株式会社ＷＡＶＹ,,株式会社,広島県,福山市,手城町２丁目１５番２５号,,34,207,7210966,,,,,,,2022-11-02,1,,,,,ウェイビイ,0
1505,5260001037358,新規,0,2022-11-02,2022-11-02,ＰＭ企画株式会社,,株式会社,岡山県,岡山市東区,瀬戸町万富９０５番地１,,33,103,7090841,,,,,,,2022-11-02,1,,,,,ピーエムキカク,0
1508,5280001008811,新規,0,2022-11-02,2022-11-02,株式会社ユタカ塗装,,株式会社,島根県,出雲市,西新町３丁目３番地１２,,32,203,6930037,,,,,,,2022-11-02,1,,,,,ユタカトソウ,0
1516,5290001099404,新規,0,2022-11-02,2022-11-02,株式会社ＮＥＸＴ,,株式会社,福岡県,福岡市西区,下山門１丁目２７番１８－１０２号,,40,135,8190052,,,,,,,2022-11-02,1,,,,,ネクスト,0
1517,5290001099412,新規,0,2022-11-02,2022-11-02,株式会社康,,株式会社,福岡県,糟屋郡粕屋町,長者原西４丁目１番６号,,40,349,8112316,,,,,,,2022-11-02,1,,,,,ヤス,0
1519,5290801028999,新規,0,2022-11-02,2022-11-02,株式会社ＴＯＮＡ,,株式会社,福岡県,行橋市,大橋２丁目５番３号２０６号室,,40,213,8240003,,,,,,,2022-11-02,1,,,,,トナ,0
1520,5290801029007,新規,0,2022-11-02,2022-11-02,株式会社ＮＩＣＯＴＯＲＥ,,株式会社,福岡県,北九州市小倉北区,浅野３丁目１番５－１２０６号,,40,106,8020001,,,,,,,2022-11-02,1,,,,,ニコトレ,0
1523,5320001019399,新規,0,2022-11-02,2022-11-02,株式会社グランワークス,,株式会社,大分県,大分市,田中町１丁目１－６０,,44,201,8700852,,,,,,,2022-11-02,1,,,,,グランワークス,0
1524,5320001019408,新規,0,2022-11-02,2022-11-02,株式会社アンド・ゴー,,株式会社,大分県,大分市,下郡北２丁目１０番３３号,,44,201,8700952,,,,,,,2022-11-02,1,,,,,アンドゴー,0
1525,5330001030231,新規,0,2022-11-02,2022-11-02,株式会社増田,,株式会社,熊本県,熊本市西区,池田２丁目２２番２１号,,43,103,8600082,,,,,,,2022-11-02,1,,,,,マスダ,0
1526,5330003009570,新規,0,2022-11-02,2022-11-02,合同会社ａｄｖａｎｃｅ,,合同会社,熊本県,熊本市中央区,国府３丁目１１－１２・２Ｆ,,43,101,8620949,,,,,,,2022-11-02,1,,,,,アドバンス,0
1527,5340001025131,新規,0,2022-11-02,2022-11-02,株式会社ツクルワ,,株式会社,鹿児島県,日置市,伊集院町郡１丁目８８番地,,46,216,8992504,,,,,,,2022-11-02,1,,,,,ツクルワ,0
1532,5360003012431,新規,0,2022-11-02,2022-11-02,ＡＬＰＨＡ　ＰＬＵＳ合同会社,,合同会社,沖縄県,中頭郡北谷町,桑江１丁目１２番１号Ｋ－ｓｔａｔｉｏｎ桑江４０１,,47,326,9040103,,,,,,,2022-11-02,1,,,,,アルファプラス,0
1533,5360005006737,新規,0,2022-11-02,2022-11-02,一般社団法人海と日本ＰＲＯＪＥＣＴ　ｉｎ沖縄県,,その他の設立登記法人,沖縄県,那覇市,久茂地２丁目３番１号,,47,201,9000015,,,,,,,2022-11-02,1,,,,,ウミトニッポンプロジェクトインオキナワケン,0
1535,5370001049202,新規,0,2022-11-02,2022-11-02,株式会社ＺＥＲＯＮＥＸＴ,,株式会社,宮城県,仙台市青葉区,国分町３丁目１番４号ムサシヤビル１Ｆ,,04,101,9800803,,,,,,,2022-11-02,1,,,,,ゼロネクスト,0
1541,5420001018052,新規,0,2022-11-02,2022-11-02,株式会社ＭＩＡ,,株式会社,青森県,弘前市,大字代官町３番地１弘学館ビル一階,,02,202,0368001,,,,,,,2022-11-02,1,,,,,ミーア,0
1543,5430001087773,新規,0,2022-11-02,2022-11-02,株式会社唐津ウインドパワー,,株式会社,北海道,札幌市中央区,北五条西２丁目５番地ＪＲタワーオフィスプラザさっぽろ２０階,,01,101,0600005,,,,,,,2022-11-02,1,,,,,カラツウインドパワー,0
1552,5460401001249,新規,0,2022-11-02,2022-11-02,株式会社ノースアイル,,株式会社,北海道,根室市,花園町７丁目１７番地２,,01,223,0870045,,,,,,,2022-11-02,1,,,,,ノースアイル,0
1563,5500001024570,新規,0,2022-11-02,2022-11-02,株式会社えひめ住宅ローン,,株式会社,愛媛県,今治市,四村３５１番地２５,,38,202,7940862,,,,,,,2022-11-02,1,,,,,エヒメジュウタクローン,0
1566,5700150011861,新規,0,2022-11-02,2015-10-09,東京都町村会,,その他,東京都,府中市,新町２丁目７７―１東京自治会館内,,13,206,1830052,,,,,,,2015-10-09,1,,,,,トウキヨウトチヨウソンカイ,0
1567,5700150112528,新規,0,2022-11-02,2022-11-02,ＥＬＥＣＴＲＯ　ＢＵＳＩＮＥＳＳ,,外国会社等,埼玉県,鴻巣市,大間２丁目２－１Ａ－７　２号室,,11,217,3650054,Ｍ－４ビル２／Ｃ通り－２，カヤバン、エ、セヘルコマーシャルＤＨＡフェーズ７、カラチ、パキスタン・イスラム共和国,,,,,,2022-11-02,1,,,,,エレクトロビジネス,0
1568,5700150112552,新規,0,2022-11-02,2022-11-02,ファミリーマートショッピングコンプレックスプライベートリミテッド,,外国会社等,群馬県,前橋市,川原町２丁目１６－１０,,10,201,3710046,ネパール連邦民主共和国ジャパ行政部ビルタモード－４、ムクティチョック,,,,,,2022-11-02,1,,,,,フアミリーマートシヨツピングコンプレツクスプライベートリミテツド,0
1572,6010001230382,新規,0,2022-11-02,2022-11-02,株式会社佐竹製作所ＦＡ,,株式会社,東京都,千代田区,神田須田町１丁目２４番地３,,13,101,1010041,,,,,,,2022-11-02,1,,,,,サタケセイサクジョエフエー,0
1573,6010001230465,新規,0,2022-11-02,2022-11-02,株式会社ｓｗｅｅｄ,,株式会社,東京都,中央区,湊２丁目１１番１－７０７号,,13,102,1040043,,,,,,,2022-11-02,1,,,,,スウェード,0
1575,6010003038972,新規,0,2022-11-02,2022-11-02,合同会社ＦＬＡＳＨＬＩＧＨＴ,,合同会社,東京都,千代田区,神田佐久間町４丁目１４番地,,13,101,1010025,,,,,,,2022-11-02,1,,,,,フラッシュライト,0
1576,6010005035729,新規,0,2022-11-02,2022-11-02,一般社団法人Ｖ紀尾井町ホールディング,,その他の設立登記法人,東京都,千代田区,丸の内３丁目１番１号東京共同会計事務所内,,13,101,1000005,,,,,,,2022-11-02,1,,,,,ブイキオイチョウホールディング,0
1593,6010603009811,新規,0,2022-11-02,2022-11-02,合同会社スリーシー,,合同会社,東京都,墨田区,東向島５丁目１５番７号,,13,107,1310032,,,,,,,2022-11-02,1,,,,,スリーシー,0
1596,6010803004331,新規,0,2022-11-02,2022-11-02,泉之眼合同会社,,合同会社,東京都,大田区,大森北３丁目１３－５第１下川ビルディング５１３号室,,13,111,1430016,,,,,,,2022-11-02,1,,,,,イズミノメ,0
1597,6010901051903,新規,0,2022-11-02,2022-11-02,株式会社セールスリクエスト,,株式会社,東京都,世田谷区,駒沢公園１－１Ｔｏｔｅ駒沢公園３０７,,13,112,1540013,,,,,,,2022-11-02,1,,,,,セールスリクエスト,0
1599,6010903007754,新規,0,2022-11-02,2022-11-02,ＫＥＳＡ合同会社,,合同会社,東京都,世田谷区,中町２丁目６－６,,13,112,1580091,,,,,,,2022-11-02,1,,,,,ケサ,0
1603,6011001150579,新規,0,2022-11-02,2022-11-02,株式会社ｍａｎａ　ｈｏｕｓｅ,,株式会社,東京都,目黒区,五本木１丁目１４番３号,,13,110,1530053,,,,,,,2022-11-02,1,,,,,マナハウス,0
1604,6011001150653,新規,0,2022-11-02,2022-11-02,カソーク株式会社,,株式会社,東京都,渋谷区,渋谷１丁目２番５号,,13,113,1500002,,,,,,,2022-11-02,1,,,,,カソーク,0
1615,6011803005344,新規,0,2022-11-02,2022-11-02,ｃｒｅａｒｅ合同会社,,合同会社,東京都,葛飾区,亀有４丁目２５－６臼井マンション３０２,,13,122,1250061,,,,,,,2022-11-02,1,,,,,クレアーレ,0
1620,6012701017324,新規,0,2022-11-02,2022-11-02,株式会社ウチダ,,株式会社,東京都,東村山市,野口町４丁目４４番地２,,13,213,1890022,,,,,,,2022-11-02,1,,,,,ウチダ,0
1621,6012801021944,新規,0,2022-11-02,2022-11-02,株式会社スリーシアーズ,,株式会社,東京都,国分寺市,新町２丁目１２番地５１,,13,214,1850004,,,,,,,2022-11-02,1,,,,,スリーシアーズ,0
1622,6013103001180,新規,0,2022-11-02,2022-11-02,合同会社白夜ワークス,,合同会社,東京都,青梅市,新町９丁目２０５２番地の２０,,13,205,1980024,,,,,,,2022-11-02,1,,,,,ビャクヤワークス,0
1633,6020001148756,新規,0,2022-11-02,2022-11-02,ＩＭＰＲＥＳＳ株式会社,,株式会社,神奈川県,川崎市幸区,柳町１－５メゾンホウコ１階,,14,132,2120015,,,,,,,2022-11-02,1,,,,,インプレス,0
1636,6020003022645,新規,0,2022-11-02,2022-11-02,ＭＴＭ合同会社,,合同会社,神奈川県,川崎市高津区,末長４丁目８番２５－６０２号,,14,134,2130013,,,,,,,2022-11-02,1,,,,,エムティーエム,0
1641,6021001077326,新規,0,2022-11-02,2022-11-02,ＮＫｒａｉｓｉｎｇ株式会社,,株式会社,神奈川県,大和市,中央林間３丁目５番１１号,,14,213,2420007,,,,,,,2022-11-02,1,,,,,エヌケイレジング,0
1659,6030003020490,新規,0,2022-11-02,2022-11-02,合同会社Ｍｉｒａｃｌｅ,,合同会社,埼玉県,川越市,豊田町２丁目１７番１１号,,11,201,3501110,,,,,,,2022-11-02,1,,,,,ミラクル,0
1665,6040001125646,新規,0,2022-11-02,2022-11-02,株式会社東方商事,,株式会社,千葉県,千葉市花見川区,花園町２４４３番地３,,12,102,2620021,,,,,,,2022-11-02,1,,,,,トウホウショウジ,0
1666,6040001125704,新規,0,2022-11-02,2022-11-02,株式会社ホームサービス,,株式会社,千葉県,千葉市若葉区,坂月町３０７番地９,,12,104,2640012,,,,,,,2022-11-02,1,,,,,ホームサービス,0
1669,6040003021190,新規,0,2022-11-02,2022-11-02,合同会社ラウズジャパン,,合同会社,千葉県,松戸市,東松戸３丁目７番地の８,,12,207,2702225,,,,,,,2022-11-02,1,,,,,ラウズジャパン,0
1674,6070003004671,新規,0,2022-11-02,2022-11-02,Ｑ＆Ｔ　ＳＨＯＰ合同会社,,合同会社,群馬県,前橋市,上長磯町２４７番地４,,10,201,3792165,,,,,,,2022-11-02,1,,,,,キューアンドティーショップ,0
1675,6080001025280,新規,0,2022-11-02,2022-11-02,株式会社Ｌａ　Ｂａｓｅ　Ｓｅｃｒｅｔｅ,,株式会社,静岡県,静岡市葵区,七間町１０－１０光ビル３Ｆ,,22,101,4200035,,,,,,,2022-11-02,1,,,,,ラバーズスクレート,0
1679,6080101023614,新規,0,2022-11-02,2022-11-02,株式会社ｈａｈａｃｏｃｏ,,株式会社,静岡県,三島市,幸原町２丁目１０番２１号,,22,206,4110031,,,,,,,2022-11-02,1,,,,,ハハココ,0
1683,6100001035822,新規,0,2022-11-02,2022-11-02,株式会社ＴＲ２,,株式会社,長野県,東御市,田中１７８－２,,20,219,3890516,,,,,,,2022-11-02,1,,,,,ティーアールツー,0
1710,6120001249973,新規,0,2022-11-02,2022-11-02,株式会社ＰＬＵＳ,,株式会社,大阪府,大阪市中央区,船越町１丁目５－８－３０２,,27,128,5400036,,,,,,,2022-11-02,1,,,,,プラス,0
1711,6120001250048,新規,0,2022-11-02,2022-11-02,株式会社ＨｉｇｈＬｉｇｈｔ,,株式会社,大阪府,大阪市北区,梅田１丁目２番２号大阪駅前第２ビル１２－１２,,27,127,5300001,,,,,,,2022-11-02,1,,,,,ハイライト,0
1712,6120001250072,新規,0,2022-11-02,2022-11-02,Ｌｉｌｙ　ｈｅａｖｅｎ株式会社,,株式会社,大阪府,大阪市北区,堂山町１－５三共梅田ビルＢ１,,27,127,5300027,,,,,,,2022-11-02,1,,,,,リリーヘブン,0
1714,6120005023276,新規,0,2022-11-02,2022-11-02,一般社団法人新日本人材サポート,,その他の設立登記法人,大阪府,大阪市中央区,道修町２丁目４番３号３階,,27,128,5410045,,,,,,,2022-11-02,1,,,,,シンニホンジンザイサポート,0
1721,6122001036385,新規,0,2022-11-02,2022-11-02,株式会社Ｒｉｖｉｎｅ,,株式会社,大阪府,東大阪市,長堂１丁目２番１６号東大阪新光ビル３０６,,27,227,5770056,,,,,,,2022-11-02,1,,,,,リヴァイン,0
1728,6130001072920,新規,0,2022-11-02,2022-11-02,株式会社Ｉｃｈｉｇｏ　Ｉｃｈｉｅ,,株式会社,京都府,京都市下京区,黒門通四条下る下り松町１５２番地ユニハイム四条大宮駅前４０２号室,,26,106,6008381,,,,,,,2022-11-02,1,,,,,イチゴイチエ,0
1729,6130001072929,新規,0,2022-11-02,2022-11-02,株式会社ＫＥＩＲ,,株式会社,京都府,京都市上京区,相国寺門前町６４３－６風良都館３Ｆ,,26,102,6020898,,,,,,,2022-11-02,1,,,,,,0
1730,6130001073010,新規,0,2022-11-02,2022-11-02,株式会社Ｋ．ＨＯＭＥ,,株式会社,京都府,宇治市,小倉町寺内１７番地,,26,204,6110042,,,,,,,2022-11-02,1,,,,,ケイホーム,0
1732,6130003008286,新規,0,2022-11-02,2022-11-02,Ｖｅｒｓｅ合同会社,,合同会社,京都府,宇治市,広野町東裏１１７番地,,26,204,6110031,,,,,,,2022-11-02,1,,,,,ヴァース,0
1738,6140001127938,新規,0,2022-11-02,2022-11-02,株式会社アリー,,株式会社,兵庫県,神戸市北区,谷上東町３番１１－７０１号,,28,109,6511245,,,,,,,2022-11-02,1,,,,,アリー,0
1740,6140003018326,新規,0,2022-11-02,2022-11-02,合同会社三田陶磁社,,合同会社,兵庫県,西宮市,北六甲台５丁目６番７号,,28,204,6511413,,,,,,,2022-11-02,1,,,,,サンダトウジシャ,0
1743,6160001024621,新規,0,2022-11-02,2022-11-02,株式会社悠道工業,,株式会社,滋賀県,草津市,新浜町９９２番地２１,,25,206,5250067,,,,,,,2022-11-02,1,,,,,ユウドウコウギョウ,0
1749,6170001017351,新規,0,2022-11-02,2022-11-02,株式会社ＵＰＳＴＡＲ,,株式会社,和歌山県,和歌山市,木ノ本５１５番地１０,,30,201,6408453,,,,,,,2022-11-02,1,,,,,アップスター,0
1757,6180001153559,新規,0,2022-11-02,2022-11-02,ＳＴＥＰ　ＯＮＥ株式会社,,株式会社,愛知県,尾張旭市,南新町中畑２２９番地,,23,226,4880041,,,,,,,2022-11-02,1,,,,,ステップワン,0
1760,6180003024411,新規,0,2022-11-02,2022-11-02,合同会社ＣｏｍＳＨ,,合同会社,愛知県,名古屋市北区,楠３丁目４１５番地の６,,23,103,4620012,,,,,,,2022-11-02,1,,,,,コミッシュ,0
1761,6180003024428,新規,0,2022-11-02,2022-11-02,合同会社ＴＭ電設,,合同会社,愛知県,名古屋市東区,葵３丁目１１番２０号（葵２１ビル２０３号）,,23,102,4610004,,,,,,,2022-11-02,1,,,,,ティーエムデンセツ,0
1770,6200001040622,新規,0,2022-11-02,2022-11-02,株式会社川内電設,,株式会社,岐阜県,岐阜市,祈年町６丁目２７番地８,,21,201,5008156,,,,,,,2022-11-02,1,,,,,カワウチデンセツ,0
1771,6210001019145,新規,0,2022-11-02,2022-11-02,株式会社ＳＡＳＡ・グリーン,,株式会社,福井県,福井市,笹谷町第１６号２５番地,,18,201,9103645,,,,,,,2022-11-02,1,,,,,ササグリーン,0
1775,6230001019564,新規,0,2022-11-02,2022-11-02,株式会社リッチェル物流,,株式会社,富山県,富山市,水橋桜木１３６番地,,16,201,9390546,,,,,,,2022-11-02,1,,,,,リッチェルブツリュウ,0
1776,6230001019572,新規,0,2022-11-02,2022-11-02,株式会社ＢＯＲＤＯ,,株式会社,富山県,富山市,中島３丁目６番４２号,,16,201,9300801,,,,,,,2022-11-02,1,,,,,ボルドー,0
1779,6230003001925,新規,0,2022-11-02,2022-11-02,塩原瓦工事店合同会社,,合同会社,富山県,富山市,水橋小出９２４番地１,,16,201,9390553,,,,,,,2022-11-02,1,,,,,シオハラカワラコウジテン,0
1785,6240001060575,新規,0,2022-11-02,2022-11-02,株式会社ＧＹ,,株式会社,広島県,東広島市,西条町寺家６６１番地Ｃ１０６号,,34,212,7390041,,,,,,,2022-11-02,1,,,,,ジーワイ,0
1786,6240001060583,新規,0,2022-11-02,2022-11-02,株式会社リプラス,,株式会社,広島県,広島市中区,南竹屋町４番５号,,34,101,7300049,,,,,,,2022-11-02,1,,,,,リプラス,0
1789,6240003005875,新規,0,2022-11-02,2022-11-02,Ｊｏｙ　Ｍｙａｎｍａｒ合同会社,,合同会社,広島県,呉市,平原町８番２１号,,34,202,7370078,,,,,,,2022-11-02,1,,,,,ジョイミャンマー,0
1790,6240003005883,新規,0,2022-11-02,2022-11-02,ＫＩＣ合同会社,,合同会社,広島県,広島市西区,三篠町３丁目２４－１９－１リバティ三篠３０３,,34,104,7330003,,,,,,,2022-11-02,1,,,,,ケーアイーシー,0
1791,6260001037365,新規,0,2022-11-02,2022-11-02,株式会社ハートフルコンサル,,株式会社,岡山県,倉敷市,水島東栄町１０番２７号,,33,202,7128033,,,,,,,2022-11-02,1,,,,,ハートフルコンサル,0
1792,6260003004090,新規,0,2022-11-02,2022-11-02,グローアップ合同会社,,合同会社,岡山県,岡山市中区,原尾島３丁目１５番１２号,,33,102,7038235,,,,,,,2022-11-02,1,,,,,グローアップ,0
1793,6270003001459,新規,0,2022-11-02,2022-11-02,Ａｙｕｉｓｍコンサルティング合同会社,,合同会社,鳥取県,鳥取市,滝山７３３番地１,,31,201,6800072,,,,,,,2022-11-02,1,,,,,アユイズムコンサルティング,0
1794,6280001008810,新規,0,2022-11-02,2022-11-02,朝日マネジメント株式会社,,株式会社,島根県,松江市,東津田町１９０５番地３,,32,201,6900011,,,,,,,2022-11-02,1,,,,,アサヒマネジメント,0
1799,6290003013122,新規,0,2022-11-02,2022-11-02,Ｖ合同会社,,合同会社,福岡県,福岡市博多区,博多駅前３丁目１０番３０号河野ビル５Ｆ,,40,132,8120011,,,,,,,2022-11-02,1,,,,,ブイ,0
1801,6290801029006,新規,0,2022-11-02,2022-11-02,株式会社ｌｅａ‐ｃａｒｅ,,株式会社,福岡県,北九州市小倉南区,葛原３丁目１７番２２号,,40,107,8000251,,,,,,,2022-11-02,1,,,,,レアケア,0
1806,6310001018095,新規,0,2022-11-02,2022-11-02,株式会社健商,,株式会社,長崎県,佐世保市,山県町６番２号,,42,202,8570878,,,,,,,2022-11-02,1,,,,,,0
1807,6310001018104,新規,0,2022-11-02,2022-11-02,サントモ株式会社,,株式会社,長崎県,長崎市,ダイヤランド１丁目４７番１５号,,42,201,8500963,,,,,,,2022-11-02,1,,,,,サントモ,0
1815,6320001019398,新規,0,2022-11-02,2022-11-02,株式会社タルガサービシーズ,,株式会社,大分県,大分市,上野丘１丁目９番４５号,,44,201,8700835,,,,,,,2022-11-02,1,,,,,タルガサービシーズ,0
1821,6330001030247,新規,0,2022-11-02,2022-11-02,株式会社冨野電設,,株式会社,熊本県,合志市,豊岡２５２７－２８０,,43,216,8611115,,,,,,,2022-11-02,1,,,,,トミノデンセツ,0
1824,6340001025147,新規,0,2022-11-02,2022-11-02,株式会社ＡＫＳグループ,,株式会社,鹿児島県,姶良市,宮島町２０番地７,,46,225,8995432,,,,,,,2022-11-02,1,,,,,エーケーエスグループ,0
1830,6360001031127,新規,0,2022-11-02,2022-11-02,株式会社大内工務店,,株式会社,沖縄県,浦添市,宮城４丁目２０番１５－４０２号コンフォート,,47,208,9012126,,,,,,,2022-11-02,1,,,,,オオウチコウムテン,0
1840,6380005012641,新規,0,2022-11-02,2022-11-02,医療法人あさひデンタルクリニック,,その他の設立登記法人,福島県,本宮市,荒井字東学壇２８番地１,,07,214,9691104,,,,,,,2022-11-02,1,,,,,アサヒデンタルクリニック,0
1843,6400001016049,新規,0,2022-11-02,2022-11-02,株式会社ジスト,,株式会社,岩手県,岩手郡雫石町,繋第５地割１９２番地７,,03,301,0200571,,,,,,,2022-11-02,1,,,,,ジスト,0
1851,6430003014428,新規,0,2022-11-02,2022-11-02,豊合同会社,,合同会社,北海道,札幌市豊平区,平岸二条１丁目７番３６号２０６号室,,01,105,0620932,,,,,,,2022-11-02,1,,,,,トヨ,0
1870,6700150053770,新規,0,2022-11-02,2015-10-09,ベネッセグループ共済会,,その他,岡山県,岡山市北区,駅前町２丁目５－２４ＪＲ岡山駅第２ＮＫビル１０Ｆ,,33,101,7000023,,,,,,,2015-10-09,1,,,,,ベネツセグループキヨウサイカイ,0
1871,6700150111941,新規,0,2022-11-02,2022-09-29,シシドフィス,,その他,福島県,南相馬市,原町区桜井町２丁目１２０番地の３１,,07,212,9750032,,,,,,,2022-09-29,1,,,,,シシドフイス,0
1872,6700150112519,新規,0,2022-11-02,2022-11-02,ＳＭＳエンタープライズプライベートリミテッド,,外国会社等,神奈川県,厚木市,妻田東２丁目１６－１２本厚木第７－１０２号,,14,212,2430813,スリランカ民主社会主義共和国、アクラナ市、７マイルポスト、デルガステナロードＮｏ．３６０,,,,,,2022-11-02,1,,,,,エスエムエスエンタープライズプライベートリミテツド,0
1873,6700150112527,新規,0,2022-11-02,2022-11-02,ＩＲＢ　ＭＯＴＯＲＳ,,外国会社等,千葉県,山武市,埴谷１５００番地２７,,12,237,2891223,スリランカ民主社会主義共和国、東州、アンパラ地区、サマントゥライ、ポリスロード、４９－Ｄ７,,,,,,2022-11-02,1,,,,,アイアールビーモータース,0
1875,7010001230464,新規,0,2022-11-02,2022-11-02,ｉｓｓｅｉ株式会社,,株式会社,東京都,文京区,本郷５丁目１番１１号ＫＩＩＨＯＵＳＥ２０２,,13,105,1130033,,,,,,,2022-11-02,1,,,,,イッセイ,0
1880,7010101015393,新規,0,2022-11-02,2022-11-02,株式会社ＴｒｕｓｔＹｏｕｒｓｅｌｆ,,株式会社,東京都,八王子市,別所１丁目４８－１別所第２団地３－７０７,,13,201,1920363,,,,,,,2022-11-02,1,,,,,トラストユアセルフ,0
1885,7010403028779,新規,0,2022-11-02,2022-11-02,合同会社ＳｏｄｏｓＤｅｓｉｇｎ,,合同会社,東京都,港区,浜松町２丁目２番１５号浜松町ダイヤビル２Ｆ,,13,103,1050013,,,,,,,2022-11-02,1,,,,,ソドスデザイン,0
1886,7010405021476,新規,0,2022-11-02,2022-11-02,一般社団法人ペアチル,,その他の設立登記法人,東京都,港区,南青山２丁目２番１５号,,13,103,1070062,,,,,,,2022-11-02,1,,,,,ペアチル,0
1893,7010901051885,新規,0,2022-11-02,2022-11-02,株式会社Ｆ．Ｌ．Ｙ,,株式会社,東京都,世田谷区,太子堂５丁目４番８号リブリ三軒茶屋１０２,,13,112,1540004,,,,,,,2022-11-02,1,,,,,フライ,0
1894,7010901051902,新規,0,2022-11-02,2022-11-02,株式会社山田事務所,,株式会社,東京都,世田谷区,駒沢５丁目１－８ルネ駒沢公園５０２,,13,112,1540012,,,,,,,2022-11-02,1,,,,,ヤマダジムショ,0
1900,7011001150636,新規,0,2022-11-02,2022-11-02,ＡＬＴＡＭＥ株式会社,,株式会社,東京都,渋谷区,神南１丁目１４番７号ワイズ神南ビル２Ｆ,,13,113,1500041,,,,,,,2022-11-02,1,,,,,アルタメ,0
1901,7011001150644,新規,0,2022-11-02,2022-11-02,オートクチュールカフェ株式会社,,株式会社,東京都,目黒区,青葉台１丁目１６番９号ＳａｋｕｒａＧａｒｄｅｎイースト２階,,13,110,1530042,,,,,,,2022-11-02,1,,,,,オートクチュールカフェ,0
1909,7011003015622,新規,0,2022-11-02,2022-11-02,Ｐａｕｌｉｓｔａ　Ｒｅａｌ　Ｅｓｔａｔｅ合同会社,,合同会社,東京都,渋谷区,恵比寿１丁目３２番６－５０４号,,13,113,1500013,,,,,,,2022-11-02,1,,,,,ポウリスタリアルエステート,0
1918,7011401024646,新規,0,2022-11-02,2022-11-02,株式会社ＴＯＹＯＳＵ,,株式会社,東京都,板橋区,板橋１丁目４５番１号落合ビル３Ｆ,,13,119,1730004,,,,,,,2022-11-02,1,,,,,トヨス,0
1920,7011501028621,新規,0,2022-11-02,2022-11-02,株式会社ＲＩＣＨＥＲ,,株式会社,東京都,北区,赤羽１丁目５２番１０号,,13,117,1150045,,,,,,,2022-11-02,1,,,,,リッチャー,0
1930,7011803005343,新規,0,2022-11-02,2022-11-02,Ｓｅａｓｉｄｅ　Ａｓｓｅｔ合同会社,,合同会社,東京都,葛飾区,新小岩１丁目４９番７－１２０３号,,13,122,1240024,,,,,,,2022-11-02,1,,,,,シーサイドアセット,0
1934,7012701017323,新規,0,2022-11-02,2022-11-02,株式会社ＮＥＸＵＳ,,株式会社,東京都,東村山市,久米川町１丁目３９番地２８シャルマン・リバー２０２,,13,213,1890003,,,,,,,2022-11-02,1,,,,,ネクサス,0
1945,7020001148755,新規,0,2022-11-02,2022-11-02,Ｊ．Ｂ株式会社,,株式会社,神奈川県,川崎市川崎区,貝塚１丁目１１－２ハイツ山口３０３号,,14,131,2100014,,,,,,,2022-11-02,1,,,,,ジェービー,0
1957,7021003012313,新規,0,2022-11-02,2022-11-02,合同会社クール,,合同会社,神奈川県,藤沢市,藤沢５丁目４番２４－４号,,14,205,2510052,,,,,,,2022-11-02,1,,,,,クール,0
1958,7021003012321,新規,0,2022-11-02,2022-11-02,太陽堂合同会社,,合同会社,神奈川県,藤沢市,善行２丁目２６－１８クエスタデルラモス２二階事務所,,14,205,2510871,,,,,,,2022-11-02,1,,,,,タイヨウドウ,0
1965,7030001150826,新規,0,2022-11-02,2022-11-02,株式会社Ｔ＆Ｌ,,株式会社,埼玉県,さいたま市中央区,上落合９丁目８番１２号エクセレント与野３０１号室,,11,105,3380001,,,,,,,2022-11-02,1,,,,,ティーアンドエル,0
1975,7040003021181,新規,0,2022-11-02,2022-11-02,ＣｏｒｅＦｕｌｌ合同会社,,合同会社,千葉県,松戸市,和名ケ谷５－２－１０３,,12,207,2702232,,,,,,,2022-11-02,1,,,,,コアフル,0
1976,7040003021198,新規,0,2022-11-02,2022-11-02,ラ・グリシーヌ合同会社,,合同会社,千葉県,佐倉市,西志津４丁目３０番４１号,,12,212,2850845,,,,,,,2022-11-02,1,,,,,ラグリシーヌ,0
1977,7050001051881,新規,0,2022-11-02,2022-11-02,株式会社ＧＬＯＢＡＬ　ＡＤＶＩＣＥ,,株式会社,茨城県,古河市,桜町１８番４号,,08,204,3060036,,,,,,,2022-11-02,1,,,,,グローバルアドバイス,0
1983,7070001039776,新規,0,2022-11-02,2022-11-02,株式会社ファミリア,,株式会社,群馬県,桐生市,境野町７丁目４９番地５,,10,203,3760002,,,,,,,2022-11-02,1,,,,,ファミリア,0
1988,7080003002896,新規,0,2022-11-02,2022-11-02,マナカマナ合同会社,,合同会社,静岡県,静岡市清水区,蒲原３丁目１４番２号,,22,103,4213203,,,,,,,2022-11-02,1,,,,,マナカマナ,0
1992,7080401026134,新規,0,2022-11-02,2022-11-02,Ｉ’ｓ株式会社,,株式会社,静岡県,湖西市,古見９０１番地の７,,22,221,4310442,,,,,,,2022-11-02,1,,,,,アイズ,0
2011,7120001249956,新規,0,2022-11-02,2022-11-02,株式会社スカッツ,,株式会社,大阪府,守口市,春日町１０番１６号,,27,209,5700055,,,,,,,2022-11-02,1,,,,,スカッツ,0
2012,7120001249964,新規,0,2022-11-02,2022-11-02,株式会社ＳＨＩＮＥ,,株式会社,大阪府,大阪市北区,鶴野町４－Ａコープ野村９３０,,27,127,5300014,,,,,,,2022-11-02,1,,,,,シャイン,0
2013,7120001249989,新規,0,2022-11-02,2022-11-02,アモス株式会社,,株式会社,大阪府,大阪市天王寺区,上本町６丁目９番１４号,,27,109,5430001,,,,,,,2022-11-02,1,,,,,アモス,0
2019,7120003022758,新規,0,2022-11-02,2022-11-02,合同会社Ｉｐｗｅｌ,,合同会社,大阪府,寝屋川市,香里北之町２―６―１０２,,27,215,5720080,,,,,,,2022-11-02,1,,,,,イプエル,0
2020,7120003022774,新規,0,2022-11-02,2022-11-02,合同会社ＫＩＬＡＲＩ,,合同会社,大阪府,大阪市淀川区,十三東３丁目７番２６号,,27,123,5320023,,,,,,,2022-11-02,1,,,,,キラリ,0
2022,7120005023267,新規,0,2022-11-02,2022-11-02,特定非営利活動法人ＪＷ‐ＵＰ,,その他の設立登記法人,大阪府,大阪市中央区,瓦町１丁目６番１号－１６０５,,27,128,5410048,,,,,,,2022-11-02,1,,,,,ジョイワウアップ,0
2025,7120101066459,新規,0,2022-11-02,2022-11-02,株式会社ＡＲＩＳＴＯ,,株式会社,大阪府,堺市堺区,南瓦町１番２０号３０４号室,,27,141,5900078,,,,,,,2022-11-02,1,,,,,アリスト,0
2026,7120101066467,新規,0,2022-11-02,2022-11-02,ウェブライス株式会社,,株式会社,大阪府,河内長野市,木戸東町５番３０－１０５号,,27,216,5860008,,,,,,,2022-11-02,1,,,,,ウェブライス,0
2027,7120901046692,新規,0,2022-11-02,2022-11-02,Ｒｅｃｏ株式会社,,株式会社,大阪府,箕面市,如意谷４丁目６番１６－７０３号,,27,220,5620011,,,,,,,2022-11-02,1,,,,,リコ,0
2038,7130001072952,新規,0,2022-11-02,2022-11-02,サポート・ドアーズ株式会社,,株式会社,京都府,京都市南区,東九条下殿田町４３番地,,26,107,6018047,,,,,,,2022-11-02,1,,,,,サポートドアーズ,0
2039,7130001073001,新規,0,2022-11-02,2022-11-02,八角建設工業株式会社,,株式会社,京都府,京都市右京区,京北下町上ケ市８番地８,,26,108,6010324,,,,,,,2022-11-02,1,,,,,ハッカクケンセツコウギョウ,0
2045,7140001127912,新規,0,2022-11-02,2022-11-02,株式会社ＳＫ工業,,株式会社,兵庫県,尼崎市,西長洲町２丁目３３番７０－５０２号,,28,202,6600805,,,,,,,2022-11-02,1,,,,,エスケイコウギョウ,0
2046,7140001127929,新規,0,2022-11-02,2022-11-02,ｊｉｚａｉ株式会社,,株式会社,兵庫県,加古川市,東神吉町天下原５３番地の１,,28,210,6750058,,,,,,,2022-11-02,1,,,,,ジザイ,0
2047,7140001127945,新規,0,2022-11-02,2022-11-02,株式会社ＹＡＲＵＤＡ,,株式会社,兵庫県,神戸市灘区,友田町３丁目４番２２号,,28,102,6570035,,,,,,,2022-11-02,1,,,,,ヤルダ,0
2051,7140005026367,新規,0,2022-11-02,2022-11-02,一般社団法人全国在宅医療マネジメント協会,,その他の設立登記法人,兵庫県,神戸市北区,桂木３丁目３２番地の２－１０１号,,28,109,6511223,,,,,,,2022-11-02,1,,,,,ゼンコクザイタクイリョウマネジメント,0
2054,7150003002807,新規,0,2022-11-02,2022-11-02,Ｋｗｅｂ．Ｃ合同会社,,合同会社,奈良県,宇陀市,榛原ひのき坂１丁目３－１０,,29,212,6330251,,,,,,,2022-11-02,1,,,,,ケーウェブシー,0
2056,7170001017359,新規,0,2022-11-02,2022-11-02,株式会社アグリフォーリオ,,株式会社,和歌山県,和歌山市,中５９１－４５,,30,201,6408451,,,,,,,2022-11-02,1,,,,,アグリフォーリオ,0
2060,7180001153599,新規,0,2022-11-02,2022-11-02,シエロ株式会社,,株式会社,愛知県,名古屋市守山区,大森４丁目１６１５番地アベニュー大森２０１,,23,113,4630021,,,,,,,2022-11-02,1,,,,,シエロ,0
2067,7180003024402,新規,0,2022-11-02,2022-11-02,合同会社ＡＧ．Ｆｉｖｅ,,合同会社,愛知県,あま市,二ツ寺鬼田４３番地２４,,23,237,4901207,,,,,,,2022-11-02,1,,,,,エージーファイブ,0
2075,7190001029897,新規,0,2022-11-02,2022-11-02,Ｓ　ＡＵＴＯ株式会社,,株式会社,三重県,伊賀市,千歳字野添９２２番地の１,,24,216,5180002,,,,,,,2022-11-02,1,,,,,エスオート,0
2079,7200001040621,新規,0,2022-11-02,2022-11-02,三晶株式会社,,株式会社,岐阜県,瑞穂市,牛牧９８５番地７,,21,216,5010234,,,,,,,2022-11-02,1,,,,,サンショウ,0
2080,7200001040638,新規,0,2022-11-02,2022-11-02,株式会社ＬｉｎｋＬａｂｏ,,株式会社,岐阜県,恵那市,長島町久須見１３５,,21,210,5097206,,,,,,,2022-11-02,1,,,,,リンクラボ,0
2081,7200005013409,新規,0,2022-11-02,2022-11-02,特定非営利活動法人ＹＯＲＯＺＵＡＮ,,その他の設立登記法人,岐阜県,岐阜市,大菅南１３番１６号,,21,201,5010119,,,,,,,2022-11-02,1,,,,,ヨロズアン,0
2085,7220001025117,新規,0,2022-11-02,2022-11-02,株式会社Ｔｉｔｏ,,株式会社,石川県,金沢市,西泉６丁目２１０番地１,,17,201,9218043,,,,,,,2022-11-02,1,,,,,ティート,0
2087,7230001019571,新規,0,2022-11-02,2022-11-02,Ｓコーポレーション株式会社,,株式会社,富山県,中新川郡上市町,竹鼻１６１番地,,16,322,9300301,,,,,,,2022-11-02,1,,,,,エスコーポレーション,0
2097,7240001060582,新規,0,2022-11-02,2022-11-02,株式会社ＳＥＮＳＥ,,株式会社,広島県,広島市中区,土橋町２番３４－３０２号,,34,101,7300854,,,,,,,2022-11-02,1,,,,,センス,0
2098,7240001060599,新規,0,2022-11-02,2022-11-02,株式会社オネスト,,株式会社,広島県,広島市安佐南区,山本新町４丁目８番２３号,,34,105,7310139,,,,,,,2022-11-02,1,,,,,オネスト,0
2102,7240003005882,新規,0,2022-11-02,2022-11-02,合同会社輝生,,合同会社,広島県,広島市南区,松原町３番２－３８０９号,,34,103,7320822,,,,,,,2022-11-02,1,,,,,キショウ,0
2105,7260001037364,新規,0,2022-11-02,2022-11-02,株式会社アシスト不動産プラス,,株式会社,岡山県,総社市,中央５丁目５番地１１１エルディムハリッズ１０５号室,,33,208,7191131,,,,,,,2022-11-02,1,,,,,アシストフドウサンプラス,0
2106,7260001037380,新規,0,2022-11-02,2022-11-02,株式会社スマイル,,株式会社,岡山県,岡山市南区,浦安本町６５番地１４,,33,104,7028026,,,,,,,2022-11-02,1,,,,,スマイル,0
2113,7290001099385,新規,0,2022-11-02,2022-11-02,株式会社Ｍ’ｓ　Ｇｒｏｕｐ,,株式会社,福岡県,大牟田市,新栄町３番地７千成屋ビル４Ｆ,,40,202,8360041,,,,,,,2022-11-02,1,,,,,エムズグループ,0
2114,7290001099410,新規,0,2022-11-02,2022-11-02,１株式会社,,株式会社,福岡県,福岡市中央区,天神１丁目１２番１４号紙与渡辺ビル８階,,40,133,8100001,,,,,,,2022-11-02,1,,,,,ファースト,0
2117,7290801029013,新規,0,2022-11-02,2022-11-02,株式会社アロマティーチ,,株式会社,福岡県,北九州市八幡西区,大畑町１６番１９号,,40,109,8060053,,,,,,,2022-11-02,1,,,,,アロマティーチ,0
2118,7290801029021,新規,0,2022-11-02,2022-11-02,株式会社政友工業,,株式会社,福岡県,田川市,大字伊田７９番地１,,40,206,8250002,,,,,,,2022-11-02,1,,,,,セイユウコウギョウ,0
2119,7300001013121,新規,0,2022-11-02,2022-11-02,株式会社ナカノ不動産,,株式会社,佐賀県,佐賀市,卸本町８番２９号,,41,201,8490933,,,,,,,2022-11-02,1,,,,,ナカノフドウサン,0
2126,7330001030246,新規,0,2022-11-02,2022-11-02,ＳＡＶＯ　ＧＲＯＵＰ株式会社,,株式会社,熊本県,八代市,奈良木町２０６７番地１,,43,202,8660064,,,,,,,2022-11-02,1,,,,,サボグループ,0
2129,7330003009577,新規,0,2022-11-02,2022-11-02,合同会社月夜,,合同会社,熊本県,熊本市北区,山室２丁目５番１０号,,43,105,8600084,,,,,,,2022-11-02,1,,,,,ツキヨ,0
2130,7340001025121,新規,0,2022-11-02,2022-11-02,株式会社中野建設,,株式会社,鹿児島県,曽於市,大隅町中之内６３３０番地,,46,217,8998103,,,,,,,2022-11-02,1,,,,,ナカノケンセツ,0
2131,7340001025138,新規,0,2022-11-02,2022-11-02,株式会社アールティー,,株式会社,鹿児島県,鹿児島市,荒田１丁目４０番１４号,,46,201,8900054,,,,,,,2022-11-02,1,,,,,アールティー,0
2134,7350003004213,新規,0,2022-11-02,2022-11-02,合同会社船ケ山工業,,合同会社,宮崎県,宮崎市,大字赤江１１０９番地６,,45,201,8800912,,,,,,,2022-11-02,1,,,,,フナガヤマコウギョウ,0
2135,7350005006109,新規,0,2022-11-02,2022-11-02,一般社団法人海と日本プロジェクトｉｎみやざき,,その他の設立登記法人,宮崎県,宮崎市,橘通西４丁目６番７号,,45,201,8800001,,,,,,,2022-11-02,1,,,,,ウミトニッポンプロジェクトインミヤザキ,0
2138,7370001049209,新規,0,2022-11-02,2022-11-02,株式会社仙台企業会計,,株式会社,宮城県,仙台市若林区,三百人町１２３番地,,04,103,9840057,,,,,,,2022-11-02,1,,,,,センダイキギョウカイケイ,0
2143,7390001017064,新規,0,2022-11-02,2022-11-02,株式会社ＴＲ　Ｇａｒａｇｅ　Ｃｏｍｐａｎｙ,,株式会社,山形県,天童市,泉町１丁目４番１５号,,06,210,9940015,,,,,,,2022-11-02,1,,,,,ティーアールガレージカンパニー,0
2144,7400001016048,新規,0,2022-11-02,2022-11-02,総合設備サービス株式会社,,株式会社,岩手県,盛岡市,桜台１丁目３２番１７号,,03,201,0200002,,,,,,,2022-11-02,1,,,,,ソウゴウセツビサービス,0
2155,7460001005739,新規,0,2022-11-02,2022-11-02,株式会社ミライＴＥＣＨ,,株式会社,北海道,釧路市,武佐１丁目５１番９号,,01,206,0850806,,,,,,,2022-11-02,1,,,,,ミライテック,0
2158,7480001011909,新規,0,2022-11-02,2022-11-02,株式会社リプール,,株式会社,徳島県,板野郡北島町,北村字水神原５７番地１,,36,402,7710201,,,,,,,2022-11-02,1,,,,,リプール,0
2165,7700150107658,新規,0,2022-11-02,2022-04-04,フェイトピクス制作委員会,,その他,滋賀県,大津市,北大路２丁目１９－８初田マンション１１号,,25,201,5200843,,,,,,,2022-04-04,1,,,,,フエイトピクスセイサクイインカイ,0
2166,7700150112542,新規,0,2022-11-02,2022-11-02,ＧＵＬＡＩＶＡＲ　ＴＲＡＤＥＲＳ,,外国会社等,神奈川県,厚木市,上依知４０番４シャルムＫフレール１０２／Ｂ,,14,212,2430801,スリランカ民主社会主義共和国、キャンディ、アクラナ、ドゥヌウィラロード、Ｎｏ．７／１,,,,,,2022-11-02,1,,,,,グレイバートレーダース,0
2167,7700150112550,新規,0,2022-11-02,2022-11-02,株式会社ネイチャースペース,,外国会社等,神奈川県,横浜市金沢区,富岡西７丁目１２番１９号グレース富岡２０２,,14,108,2360052,大韓民国京畿道高陽市一山東区湖路６４６－２４、７０１－０４号（＿項洞、ウィナス２１－２）,00127554,,,,,2022-11-02,1,,,,,カブシキガイシヤネイチヤースペース,0
2173,8010001230488,新規,0,2022-11-02,2022-11-02,株式会社Ｊａｐａｎ　Ｃｅｌｌ　Ｔｅｃｈｎｏｌｏｇｙ,,株式会社,東京都,千代田区,神田須田町２丁目２番７号トーハン須田町ビル７階,,13,101,1010041,,,,,,,2022-11-02,1,,,,,ジャパンセルテクノロジー,0
2174,8010001230546,新規,0,2022-11-02,2022-11-02,株式会社Ｒｏｗｉｎｇ　Ｂｏａｔ,,株式会社,東京都,中央区,日本橋本石町２丁目１番１号先アスパ日本橋オフィス,,13,102,1030021,,,,,,,2022-11-02,1,,,,,ローイングボート,0
2176,8010005035735,新規,0,2022-11-02,2022-11-02,Ｉｆｕｕ税理士法人,,その他の設立登記法人,東京都,中央区,銀座１丁目２０番１１号,,13,102,1040061,,,,,,,2022-11-02,1,,,,,イフウ,0
2177,8010005035743,新規,0,2022-11-02,2022-11-02,ＲＢソーラーセラムホールディングス一般社団法人,,その他の設立登記法人,東京都,千代田区,麹町２丁目８番地ＭＬＣ麹町ビル４階フィンポート税理士法人内,,13,101,1020083,,,,,,,2022-11-02,1,,,,,アールビーソーラーセラムホールディングス,0
2181,8010401170581,新規,0,2022-11-02,2022-11-02,株式会社誉,,株式会社,東京都,港区,南青山２丁目２番１５号,,13,103,1070062,,,,,,,2022-11-02,1,,,,,ホマレ,0
2183,8010403028803,新規,0,2022-11-02,2022-11-02,オリオンエナジー合同会社,,合同会社,東京都,港区,西新橋２丁目２０番１号４階,,13,103,1050003,,,,,,,2022-11-02,1,,,,,オリオンエナジー,0
2193,8010703006434,新規,0,2022-11-02,2022-11-02,合同会社ＲＹＵ,,合同会社,東京都,品川区,上大崎３丁目１番２号,,13,109,1410021,,,,,,,2022-11-02,1,,,,,リュウ,0
2202,8011003015613,新規,0,2022-11-02,2022-11-02,合同会社ＢＯＮＤ,,合同会社,東京都,渋谷区,道玄坂１丁目１０番８号渋谷道玄坂東急ビル２Ｆ－Ｃ,,13,113,1500043,,,,,,,2022-11-02,1,,,,,ボンド,0
2204,8011101100671,新規,0,2022-11-02,2022-11-02,株式会社Ｔ．Ｍ．Ｒ,,株式会社,東京都,新宿区,西新宿７丁目５番８号,,13,104,1600023,,,,,,,2022-11-02,1,,,,,ティーエムアール,0
2205,8011101100713,新規,0,2022-11-02,2022-11-02,株式会社ＩＦＲＥＡ　ＤＩＮＮＩＮＧ,,株式会社,東京都,新宿区,西新宿７丁目２２番３３号,,13,104,1600023,,,,,,,2022-11-02,1,,,,,イフリアダイニング,0
2211,8011403003812,新規,0,2022-11-02,2022-11-02,合同会社フォロースルー,,合同会社,東京都,板橋区,高島平５丁目２８番７号,,13,119,1750082,,,,,,,2022-11-02,1,,,,,フォロースルー,0
2213,8011501028620,新規,0,2022-11-02,2022-11-02,株式会社ＴＹＣＯＯＮ,,株式会社,東京都,北区,赤羽１丁目５２番１０号,,13,117,1150045,,,,,,,2022-11-02,1,,,,,タイクーン,0
2218,8011803005342,新規,0,2022-11-02,2022-11-02,合同会社ＢＣＴ,,合同会社,東京都,足立区,西新井本町２丁目２６番１３号,,13,121,1230845,,,,,,,2022-11-02,1,,,,,ビーシーティー,0
2222,8012401039815,新規,0,2022-11-02,2022-11-02,Ｇｅｒｂｅｒａ　Ｃｏｎｓｕｌｔｉｎｇ株式会社,,株式会社,東京都,調布市,布田３丁目３０番地２２,,13,208,1820024,,,,,,,2022-11-02,1,,,,,ガーベラコンサルティング,0
2223,8012403005658,新規,0,2022-11-02,2022-11-02,ディオテクノ合同会社,,合同会社,東京都,多摩市,落合１丁目４６番地１ココリア多摩センター７Ｆ,,13,224,2060033,,,,,,,2022-11-02,1,,,,,ディオテクノ,0
2227,8012801021926,新規,0,2022-11-02,2022-11-02,株式会社ワンズハウス,,株式会社,東京都,国立市,中３丁目１１番地の４７,,13,215,1860004,,,,,,,2022-11-02,1,,,,,ワンズハウス,0
2228,8012803002916,新規,0,2022-11-02,2022-11-02,合同会社小嶋配管工業,,合同会社,東京都,立川市,富士見町７丁目８番１号第３－３－２０１号,,13,202,1900013,,,,,,,2022-11-02,1,,,,,,0
2229,8013101009050,新規,0,2022-11-02,2022-11-02,株式会社フィールドアップ,,株式会社,東京都,羽村市,緑ヶ丘１丁目８番地３８,,13,227,2050003,,,,,,,2022-11-02,1,,,,,フィールドアップ,0
2242,8020001148770,新規,0,2022-11-02,2022-11-02,和泉電子株式会社,,株式会社,神奈川県,横浜市泉区,中田東１丁目３８番２号,,14,116,2450013,,,,,,,2022-11-02,1,,,,,イズミデンシ,0
2276,8040003021156,新規,0,2022-11-02,2022-11-02,合同会社ＭＩＭ,,合同会社,千葉県,柏市,緑台９番地４ストークマンションＩＩ－３０５号,00128328,12,217,2770903,,,,,,,2022-11-02,1,,,,,エムアイエム,0
2277,8040003021180,新規,0,2022-11-02,2022-11-02,合同会社Ａｉｒｌｉｇｈｔ,,合同会社,千葉県,印西市,原４丁目４番アバンドーネ原四番街２号棟３０４号室,,12,231,2701335,,,,,,,2022-11-02,1,,,,,エアーライト,0
2278,8050001051880,新規,0,2022-11-02,2022-11-02,株式会社ミグラテール,,株式会社,茨城県,つくば市,みどりの１丁目３２番地３,,08,220,3050881,,,,,,,2022-11-02,1,,,,,ミグラテール,0
2284,8070001039775,新規,0,2022-11-02,2022-11-02,株式会社アイ・アーキテクト,,株式会社,群馬県,伊勢崎市,山王町５８１番地１,,10,204,3720831,,,,,,,2022-11-02,1,,,,,アイアーキテクト,0
2286,8080003002895,新規,0,2022-11-02,2022-11-02,合同会社エーゴー,,合同会社,静岡県,静岡市葵区,緑町１０番２８－７０２号,,22,101,4200844,,,,,,,2022-11-02,1,,,,,エーゴー,0
2288,8080401026133,新規,0,2022-11-02,2022-11-02,ＧＡＬＬＯＰ　ＡＨＥＡＤ株式会社,,株式会社,静岡県,浜松市北区,三方原町２０４９番地の２７,,22,135,4338105,,,,,,,2022-11-02,1,,,,,ギャロップアヘッド,0
2313,8120001249823,新規,0,2022-11-02,2022-11-02,東越貿易株式会社,,株式会社,大阪府,大阪市都島区,東野田町４丁目５－４４翠連マンション２２４号室,,27,102,5340024,,,,,,,2022-11-02,1,,,,,トウエツボウエキ,0
2314,8120001249930,新規,0,2022-11-02,2022-11-02,株式会社Ａ＆Ｌ　ＤＥＮＴＡＬ,,株式会社,大阪府,大阪市東淀川区,菅原２丁目９番３３号,,27,114,5330022,,,,,,,2022-11-02,1,,,,,エーアンドエルデンタル,0
2315,8120001249963,新規,0,2022-11-02,2022-11-02,株式会社Ｍ’ｓ　ＬＩＮＥ,,株式会社,大阪府,大阪市東淀川区,西淡路１丁目１４番１号プリエール新大阪イースト９０１,,27,114,5330031,,,,,,,2022-11-02,1,,,,,エムズライン,0
2316,8120001250070,新規,0,2022-11-02,2022-11-02,トータル株式会社,,株式会社,大阪府,大阪市西区,立売堀２丁目４番５号,,27,106,5500012,,,,,,,2022-11-02,1,,,,,トータル,0
2322,8120003022757,新規,0,2022-11-02,2022-11-02,エスエスアール合同会社,,合同会社,大阪府,大阪市淀川区,田川１丁目５番１９号,,27,123,5320027,,,,,,,2022-11-02,1,,,,,エスエスアール,0
2323,8120003022765,新規,0,2022-11-02,2022-11-02,合同会社ｔｉｍｉｔｕ,,合同会社,大阪府,枚方市,香里ケ丘２丁目４番地の１（７－６０４）,,27,210,5730084,,,,,,,2022-11-02,1,,,,,チミツ,0
2326,8120101066474,新規,0,2022-11-02,2022-11-02,ハヤマ技研株式会社,,株式会社,大阪府,羽曳野市,野々上５丁目４０２番地の１７,,27,222,5830871,,,,,,,2022-11-02,1,,,,,ハヤマギケン,0
2327,8120901046675,新規,0,2022-11-02,2022-11-02,メゾンクラウド株式会社,,株式会社,大阪府,高槻市,川西町１丁目７番５号,,27,207,5691133,,,,,,,2022-11-02,1,,,,,メゾンクラウド,0
2329,8122001036350,新規,0,2022-11-02,2022-11-02,株式会社坂本フロンティア,,株式会社,大阪府,東大阪市,宝町３番１９号,,27,227,5798025,,,,,,,2022-11-02,1,,,,,サカモトフロンティア,0
2337,8130001072951,新規,0,2022-11-02,2022-11-02,株式会社繁栄,,株式会社,京都府,京都市上京区,笹屋町通千本西入ル笹屋四丁目３０５－２,,26,102,6020000,,,,,,,2022-11-02,1,,,,,ハンエイ,0
2338,8130003008276,新規,0,2022-11-02,2022-11-02,合同会社Ｍ＆Ｙ,,合同会社,京都府,宇治市,木幡平尾４番地の１２８,,26,204,6110002,,,,,,,2022-11-02,1,,,,,エムアンドワイ,0
2341,8140001127878,新規,0,2022-11-02,2022-11-02,株式会社山元興業,,株式会社,兵庫県,尼崎市,戸ノ内町３丁目３３番１６号,,28,202,6610961,,,,,,,2022-11-02,1,,,,,ヤマモトコウギョウ,0
2342,8140001127911,新規,0,2022-11-02,2022-11-02,株式会社ＴＥＡＭ　ＯＮＥノコノコ運送,,株式会社,兵庫県,神戸市中央区,港島６丁目２番地の１,,28,110,6500045,,,,,,,2022-11-02,1,,,,,チームワンノコノコウンソウ,0
2345,8140003018316,新規,0,2022-11-02,2022-11-02,合同会社慈,,合同会社,兵庫県,宝塚市,玉瀬字大岩谷１番１２１,,28,214,6691231,,,,,,,2022-11-02,1,,,,,メグミ,0
2346,8140005026366,新規,0,2022-11-02,2022-11-02,行政書士法人柳川事務所,,その他の設立登記法人,兵庫県,明石市,本町１丁目８番９号,,28,203,6730892,,,,,,,2022-11-02,1,,,,,ヤナガワジムショ,0
2360,8180301036767,新規,0,2022-11-02,2022-11-02,株式会社Ｓｍｉｌｅａｌｏｔ,,株式会社,愛知県,岡崎市,鴨田町字南魂場７２番地１,,23,202,4442121,,,,,,,2022-11-02,1,,,,,スマイルアロット,0
2361,8180301036783,新規,0,2022-11-02,2022-11-02,Ｔａｋｅ　Ｔｒａｄｅ株式会社,,株式会社,愛知県,岡崎市,若宮町１丁目４番地,,23,202,4440014,,,,,,,2022-11-02,1,,,,,タケトレード,0
2363,8200001040620,新規,0,2022-11-02,2022-11-02,株式会社とんかつや,,株式会社,岐阜県,本巣郡北方町,高屋白木１丁目５１番地タウンハウス１Ｆ,,21,421,5010454,,,,,,,2022-11-02,1,,,,,トンカツヤ,0
2364,8200001040629,新規,0,2022-11-02,2022-11-02,株式会社うなぎの与助,,株式会社,岐阜県,多治見市,金岡町２丁目８５番地３,,21,204,5070016,,,,,,,2022-11-02,1,,,,,ウナギノヨスケ,0
2367,8220001025116,新規,0,2022-11-02,2022-11-02,株式会社石川チャイルド社,,株式会社,石川県,金沢市,薬師堂町イ４５番地３,,17,201,9200052,,,,,,,2022-11-02,1,,,,,イシカワチャイルドシャ,0
2368,8230001019579,新規,0,2022-11-02,2022-11-02,株式会社ナイスリフォーム,,株式会社,富山県,魚津市,観音堂１６４８番地１,,16,204,9370831,,,,,,,2022-11-02,1,,,,,ナイスリフォーム,0
2372,8240001060581,新規,0,2022-11-02,2022-11-02,株式会社ケヤキクリエーションズ,,株式会社,広島県,広島市南区,青崎１丁目１４番２０号,,34,103,7340053,,,,,,,2022-11-02,1,,,,,ケヤキクリエーションズ,0
2375,8240003005881,新規,0,2022-11-02,2022-11-02,合同会社ＰＲＯ‐ＴＥＡＭ,,合同会社,広島県,広島市南区,京橋町１‐７アスティ広島京橋ビルディング,,34,103,7320828,,,,,,,2022-11-02,1,,,,,プロチーム,0
2379,8260001037355,新規,0,2022-11-02,2022-11-02,株式会社Ｔ,,株式会社,岡山県,倉敷市,松島９７１番地１,,33,202,7010114,,,,,,,2022-11-02,1,,,,,ティー,0
2380,8260001037363,新規,0,2022-11-02,2022-11-02,株式会社常浦工業,,株式会社,岡山県,倉敷市,真備町川辺２０２番地１,,33,202,7101313,,,,,,,2022-11-02,1,,,,,ツネウラコウギョウ,0
2381,8260001037371,新規,0,2022-11-02,2022-11-02,株式会社ラビスタグループ,,株式会社,岡山県,岡山市北区,西崎１丁目１０番２７号,,33,101,7000055,,,,,,,2022-11-02,1,,,,,ラビスタグループ,0
2383,8280001008809,新規,0,2022-11-02,2022-11-02,株式会社ＦＩＶＥ　ＵＰ,,株式会社,島根県,松江市,上乃木６丁目１７番４８号,,32,201,6900015,,,,,,,2022-11-02,1,,,,,ファイブアップ,0
2389,8290001099392,新規,0,2022-11-02,2022-11-02,株式会社ＯｌｄＷｉｓｅ,,株式会社,福岡県,福岡市博多区,諸岡５丁目１４－１５－１０３,,40,132,8120894,,,,,,,2022-11-02,1,,,,,オールドワイズ,0
2390,8290003013129,新規,0,2022-11-02,2022-11-02,ＴＬ合同会社,,合同会社,福岡県,福岡市南区,那の川２丁目４番１１－１０１号,,40,134,8150081,,,,,,,2022-11-02,1,,,,,ティーエル,0
2392,8290801029004,新規,0,2022-11-02,2022-11-02,株式会社オフィス園村,,株式会社,福岡県,北九州市八幡西区,貴船台１５番１５－２０３号,,40,109,8070814,,,,,,,2022-11-02,1,,,,,オフィスソノムラ,0
2393,8290801029012,新規,0,2022-11-02,2022-11-02,株式会社ＮＣ,,株式会社,福岡県,北九州市小倉南区,東貫１丁目１２番２５号サンライフ小倉東５０５号,,40,107,8000224,,,,,,,2022-11-02,1,,,,,エヌシー,0
2395,8290803004244,新規,0,2022-11-02,2022-11-02,合同会社ｐｈｉｌｌｉａ,,合同会社,福岡県,北九州市小倉北区,山門町４番３－３０３号,,40,106,8020024,,,,,,,2022-11-02,1,,,,,フィリア,0
2396,8310001018102,新規,0,2022-11-02,2022-11-02,株式会社ＮＳ,,株式会社,長崎県,佐世保市,大塔町１９６６番地２７,,42,202,8571161,,,,,,,2022-11-02,1,,,,,,0
2402,8320001019396,新規,0,2022-11-02,2022-11-02,株式会社ぶんごデリカ,,株式会社,大分県,大分市,都町２丁目１番２９号第１多田ガラスビル１Ｆ,,44,201,8700034,,,,,,,2022-11-02,1,,,,,ブンゴデリカ,0
2405,8330001030237,新規,0,2022-11-02,2022-11-02,株式会社ロックオン,,株式会社,熊本県,熊本市東区,戸島１丁目１番２３－３号,,43,102,8618041,,,,,,,2022-11-02,1,,,,,ロックオン,0
2407,8340001025129,新規,0,2022-11-02,2022-11-02,株式会社三,,株式会社,鹿児島県,鹿屋市,上祓川町８７２６番地２,,46,203,8930027,,,,,,,2022-11-02,1,,,,,サン,0
2408,8340001025137,新規,0,2022-11-02,2022-11-02,株式会社オーシャンズ,,株式会社,鹿児島県,奄美市,笠利町平１２９５－４,,46,222,8940000,,,,,,,2022-11-02,1,,,,,オーシャンズ,0
2411,8360003012429,新規,0,2022-11-02,2022-11-02,合同会社友日,,合同会社,沖縄県,中頭郡北中城村,字屋宜原５９４番地１,,47,327,9012304,,,,,,,2022-11-02,1,,,,,ユウヒ,0
2416,8370001049182,新規,0,2022-11-02,2022-11-02,株式会社ワイツー,,株式会社,宮城県,仙台市青葉区,柏木２丁目６番２３号,,04,101,9810933,,,,,,,2022-11-02,1,,,,,ワイツー,0
2422,8390001017063,新規,0,2022-11-02,2022-11-02,株式会社ＬＵＸＨＯＰＥ,,株式会社,山形県,山形市,清住町１丁目２番２５号,,06,201,9900834,,,,,,,2022-11-02,1,,,,,ラグホープ,0
2434,8420003002596,新規,0,2022-11-02,2022-11-02,合同会社ＧＲＡＣＥ,,合同会社,青森県,八戸市,大字中居林字蓋名池５番地,,02,203,0310002,,,,,,,2022-11-02,1,,,,,グレース,0
2439,8430003014426,新規,0,2022-11-02,2022-11-02,合同会社ＫＹ・Ｇｒｏｕｐ,,合同会社,北海道,札幌市中央区,南三条西３丁目１５アルファ南３条ビル４Ｆ,,01,101,0600063,,,,,,,2022-11-02,1,,,,,ケイワイテングループ,0
2444,8450003002263,新規,0,2022-11-02,2022-11-02,アクアシステム合同会社,,合同会社,北海道,深川市,稲穂町２丁目３番４号,,01,228,0740021,,,,,,,2022-11-02,1,,,,,,0
2448,8470005006475,新規,0,2022-11-02,2022-11-02,一般社団法人ピークパフォーマンスアソシエイツ,,その他の設立登記法人,香川県,三豊市,山本町辻４６２４番地２,00128324,37,208,7680101,,,,,,,2022-11-02,1,,,,,ピークパフォーマンスアソシエイツ,0
2449,8480001011908,新規,0,2022-11-02,2022-11-02,株式会社夏輝工業,,株式会社,徳島県,徳島市,方上町桜谷３７番地の３,,36,201,7708033,,,,,,,2022-11-02,1,,,,,ナツキコウギョウ,0
2451,8490001010314,新規,0,2022-11-02,2022-11-02,ＫｏｃｈｉＡｍｉｇｏ株式会社,,株式会社,高知県,高知市,本町２丁目１番３号アケボノビル３階,,39,201,7800870,,,,,,,2022-11-02,1,,,,,,0
2452,8500003002919,新規,0,2022-11-02,2022-11-02,合同会社ＦＢコンサルタント,,合同会社,愛媛県,松山市,北斎院町３７５番地１グランドマンション茶うす２０３号,,38,201,7918031,,,,,,,2022-11-02,1,,,,,エフビーコンサルタント,0
2455,8700150112533,新規,0,2022-11-02,2022-11-02,ＲＩＺＡＮ　ＥＮＴＥＲＰＲＩＳＥＳ,,外国会社等,千葉県,山武市,埴谷２６４３番地Ｃ,,12,237,2891223,スリランカ民主社会主義共和国、キャンディ、アンバテンナ、カハワッタ、２９－Ｂ,,,,,,2022-11-02,1,,,,,リザンエンタープライズ,0
2462,9010003039002,新規,0,2022-11-02,2022-11-02,合同会社ヘルスウェイト,,合同会社,東京都,中央区,銀座１丁目２２番１１号銀座大竹ビジデンス２階,,13,102,1040061,,,,,,,2022-11-02,1,,,,,ヘルスウェイト,0
2465,9010005035734,新規,0,2022-11-02,2022-11-02,ゼロイチ税理士法人,,その他の設立登記法人,東京都,千代田区,麹町５丁目３番２３号,,13,101,1020083,,,,,,,2022-11-02,1,,,,,ゼロイチ,0
2466,9010005035742,新規,0,2022-11-02,2022-11-02,ＲＢソーラールソンホールディングス一般社団法人,,その他の設立登記法人,東京都,千代田区,麹町２丁目８番地ＭＬＣ麹町ビル４階フィンポート税理士法人内,,13,101,1020083,,,,,,,2022-11-02,1,,,,,アールビーソーラールソンホールディングス,0
2467,9010101015391,新規,0,2022-11-02,2022-11-02,ネクストステージ株式会社,,株式会社,東京都,八王子市,長沼町８６４コーポ田中１階,,13,201,1920907,,,,,,,2022-11-02,1,,,,,ネクストステージ,0
2474,9010401170671,新規,0,2022-11-02,2022-11-02,株式会社セレニティ,,株式会社,東京都,港区,北青山１丁目２番３号,,13,103,1070061,,,,,,,2022-11-02,1,,,,,セレニティ,0
2477,9010403028595,新規,0,2022-11-02,2022-11-02,合同会社Ｎａｔｕｒａｌ　Ｍａｃｈｉｎｅｓ　Ｊａｐａｎ,,合同会社,東京都,港区,赤坂６丁目４番１１－３０２,,13,103,1070052,,,,,,,2022-11-02,1,,,,,ナチュラルマシーンズジャパン,0
2478,9010403028802,新規,0,2022-11-02,2022-11-02,プライム電力合同会社,,合同会社,東京都,港区,西新橋２丁目２０番１号４階,,13,103,1050003,,,,,,,2022-11-02,1,,,,,プライムデンリョク,0
2479,9010405021508,新規,0,2022-11-02,2022-11-02,一般社団法人わんにゃんサポート,,その他の設立登記法人,東京都,港区,南青山２丁目２番１５号ウィン青山３１４号,,13,103,1070062,,,,,,,2022-11-02,1,,,,,ワンニャンサポート,0
2495,9011001150626,新規,0,2022-11-02,2022-11-02,株式会社エラルジール,,株式会社,東京都,目黒区,青葉台１丁目２９番６号,,13,110,1530042,,,,,,,2022-11-02,1,,,,,エラルジール,0
2496,9011001150642,新規,0,2022-11-02,2022-11-02,株式会社ＡＣＴＦＬＥＸ,,株式会社,東京都,渋谷区,道玄坂１丁目１０番８号渋谷道玄坂東急ビル２Ｆ－Ｃ,,13,113,1500043,,,,,,,2022-11-02,1,,,,,アクトフレックス,0
2498,9011003015595,新規,0,2022-11-02,2022-11-02,合同会社駒沢通りメディカル,,合同会社,東京都,目黒区,上目黒２丁目２８番７－４０４号中目黒パークハウス,,13,110,1530051,,,,,,,2022-11-02,1,,,,,コマザワドオリメディカル,0
2499,9011003015620,新規,0,2022-11-02,2022-11-02,合同会社Ｃａｄｄｙ,,合同会社,東京都,渋谷区,代々木３丁目３２番３－３０３号,,13,113,1510053,,,,,,,2022-11-02,1,,,,,キャディー,0
2500,9011003015637,新規,0,2022-11-02,2022-11-02,合同会社ファハラサ,,合同会社,東京都,渋谷区,神宮前２丁目３２番１０号,,13,113,1500001,,,,,,,2022-11-02,1,,,,,ファハラサ,0
2503,9011101100712,新規,0,2022-11-02,2022-11-02,株式会社ＩＦＲＥＡ,,株式会社,東京都,新宿区,西新宿７丁目２２番３３号,,13,104,1600023,,,,,,,2022-11-02,1,,,,,イフリア,0
2506,9011103012336,新規,0,2022-11-02,2022-11-02,合同会社ジェイ・エス・アイ,,合同会社,東京都,新宿区,下宮比町１番４号,,13,104,1620822,,,,,,,2022-11-02,1,,,,,ジェイエスアイ,0
2509,9011201024209,新規,0,2022-11-02,2022-11-02,株式会社キューブ,,株式会社,東京都,中野区,中野５丁目６６番４号井口ビル４階,,13,114,1640001,,,,,,,2022-11-02,1,,,,,キューブ,0
2513,9011401024652,新規,0,2022-11-02,2022-11-02,株式会社ユイメディカルサービス,,株式会社,東京都,板橋区,板橋２丁目６１番１０号,,13,119,1730004,,,,,,,2022-11-02,1,,,,,ユイメディカルサービス,0
2520,9012401039822,新規,0,2022-11-02,2022-11-02,株式会社ジュニア,,株式会社,東京都,小金井市,梶野町４丁目１１番６号,,13,210,1840002,,,,,,,2022-11-02,1,,,,,ジュニア,0
2525,9012801021941,新規,0,2022-11-02,2022-11-02,株式会社ＣＨＡＲＭＥ,,株式会社,東京都,立川市,錦町２丁目５番１号,,13,202,1900022,,,,,,,2022-11-02,1,,,,,シャルム,0
2526,9013103001178,新規,0,2022-11-02,2022-11-02,合同会社ジーザスハウス,,合同会社,東京都,青梅市,千ヶ瀬町３丁目４７３番地の１６,,13,205,1980043,,,,,,,2022-11-02,1,,,,,ジーザスハウス,0
2530,9013303006357,新規,0,2022-11-02,2022-11-02,Ａ＆Ｚ合同会社,,合同会社,東京都,豊島区,南池袋２丁目９番１６－３０４号,,13,116,1710022,,,,,,,2022-11-02,1,,,,,エーアンドゼット,0
2541,9020001148737,新規,0,2022-11-02,2022-11-02,つなぐ．ＨＤ株式会社,,株式会社,神奈川県,横浜市中区,曙町１丁目３番地藤和伊勢佐木町ハイタウン７２６号,,14,104,2310057,,,,,,,2022-11-02,1,,,,,ツナグドットホールディングス,0
2542,9020001148761,新規,0,2022-11-02,2022-11-02,株式会社ＧＴエンタープライズ,,株式会社,神奈川県,川崎市多摩区,西生田５丁目１１番１１－６号,,14,135,2140037,,,,,,,2022-11-02,1,,,,,ジーティーエンタープライズ,0
2547,9020003022642,新規,0,2022-11-02,2022-11-02,合同会社アナロジック,,合同会社,神奈川県,横浜市金沢区,六浦１丁目９番３３号,,14,108,2360031,,,,,,,2022-11-02,1,,,,,アナロジック,0
2548,9020003022650,新規,0,2022-11-02,2022-11-02,スマイルエックス合同会社,,合同会社,神奈川県,川崎市中原区,下小田中１丁目２４－１－３０４,,14,133,2110041,,,,,,,2022-11-02,1,,,,,スマイルエックス,0
2559,9030001150824,新規,0,2022-11-02,2022-11-02,株式会社人,,株式会社,埼玉県,志木市,中宗岡２丁目１９－３５－２０２,,11,228,3530002,,,,,,,2022-11-02,1,,,,,ジン,0
2572,9040003021188,新規,0,2022-11-02,2022-11-02,ＨＫＳ　ＥＮＴＥＲＰＲＩＳＥＳ合同会社,,合同会社,千葉県,八街市,八街い１３９番地２９,,12,230,2891143,,,,,,,2022-11-02,1,,,,,エイチケーエスエンタープライズ,0
2573,9050001051871,新規,0,2022-11-02,2022-11-02,株式会社ＷＡＪＩＮＴＲＡＤＩＮＧ,,株式会社,茨城県,神栖市,砂山１０１４番地４４３,,08,232,3140255,,,,,,,2022-11-02,1,,,,,ワジントレーディング,0
2576,9050003006964,新規,0,2022-11-02,2022-11-02,マーリン就労支援サービス合同会社,,合同会社,茨城県,東茨城郡大洗町,大貫町２５６番地の４５２,,08,309,3111311,,,,,,,2022-11-02,1,,,,,マーリンシュウロウシエンサービス,0
2577,9050003006972,新規,0,2022-11-02,2022-11-02,ＡＵ　ＩＮＴＥＲＮＡＴＩＯＮＡＬ合同会社,,合同会社,茨城県,古河市,高野５６２番地１,,08,204,3060214,,,,,,,2022-11-02,1,,,,,エーユーインターナショナル,0
2581,9070001039766,新規,0,2022-11-02,2022-11-02,モアハウス株式会社,,株式会社,群馬県,太田市,小舞木町１４番地５,,10,205,3730818,,,,,,,2022-11-02,1,,,,,モアハウス,0
2582,9070001039774,新規,0,2022-11-02,2022-11-02,ＡＹＥＳＨＡ株式会社,,株式会社,群馬県,太田市,尾島町３番地１,,10,205,3700401,,,,,,,2022-11-02,1,,,,,アイシャ,0
2585,9080003002894,新規,0,2022-11-02,2022-11-02,感合同会社,,合同会社,静岡県,静岡市葵区,与一５丁目２１番２８－３号,,22,101,4200949,,,,,,,2022-11-02,1,,,,,カン,0
2592,9080401026132,新規,0,2022-11-02,2022-11-02,ＴＨＥ　ＳＩＭＰＬＥ株式会社,,株式会社,静岡県,浜松市中区,上島２丁目２７番５号,,22,131,4338122,,,,,,,2022-11-02,1,,,,,ザシンプル,0
2593,9080401026140,新規,0,2022-11-02,2022-11-02,株式会社ウチゲンホールディングス,,株式会社,静岡県,浜松市中区,幸４丁目４番３号,,22,131,4338123,,,,,,,2022-11-02,1,,,,,ウチゲンホールディングス,0
2603,9110001037071,新規,0,2022-11-02,2022-11-02,株式会社Ｎ’ｉｓｍ,,株式会社,新潟県,新潟市江南区,元町１丁目４番３号,,15,104,9500143,,,,,,,2022-11-02,1,,,,,エヌイズム,0
2604,9110001037096,新規,0,2022-11-02,2022-11-02,株式会社フルール,,株式会社,新潟県,加茂市,千刈２丁目６－２７,,15,209,9591327,,,,,,,2022-11-02,1,,,,,フルール,0
2614,9120001249979,新規,0,2022-11-02,2022-11-02,＿＿株式会社,00128325,株式会社,大阪府,大阪市北区,天満１丁目１９－１５ハイラーク天満橋４０３号,,27,127,5300043,,,,,,,2022-11-02,1,,,,,ショウショウ,0
2615,9120001250012,新規,0,2022-11-02,2022-11-02,株式会社プライムケアマネジメント,,株式会社,大阪府,大阪市旭区,清水４丁目１０番２４号１階,,27,117,5350021,,,,,,,2022-11-02,1,,,,,プライムケアマネジメント,0
2616,9120001250020,新規,0,2022-11-02,2022-11-02,株式会社Ｗｉｌｄ　ｓｐｅｅｄ,,株式会社,大阪府,大阪市浪速区,日本橋５丁目１３－９三越ビル３０５号,,27,111,5560005,,,,,,,2022-11-02,1,,,,,ワイルドスピード,0
2617,9120001250029,新規,0,2022-11-02,2022-11-02,虹色プロモーション株式会社,,株式会社,大阪府,大阪市阿倍野区,松虫通２丁目３番１２号,,27,119,5450043,,,,,,,2022-11-02,1,,,,,ニジイロプロモーション,0
2618,9120001250053,新規,0,2022-11-02,2022-11-02,株式会社こどもごころ,,株式会社,大阪府,大阪市北区,長柄西１丁目３番２２－３１０号,,27,127,5310061,,,,,,,2022-11-02,1,,,,,コドモゴコロ,0
2619,9120001250061,新規,0,2022-11-02,2022-11-02,株式会社ミヤコ建設,,株式会社,大阪府,大阪市平野区,長吉出戸３丁目１番５１号７０３,,27,126,5470011,,,,,,,2022-11-02,1,,,,,ミヤコケンセツ,0
2620,9120003022756,新規,0,2022-11-02,2022-11-02,ＡＢＥＬ合同会社,,合同会社,大阪府,大阪市東住吉区,照ケ丘矢田２丁目２１－５グレースハイツ城南１０４,,27,121,5460021,,,,,,,2022-11-02,1,,,,,アベル,0
2621,9120003022772,新規,0,2022-11-02,2022-11-02,合同会社フローラルパターン,,合同会社,大阪府,門真市,下島町１８番１８号,,27,223,5710075,,,,,,,2022-11-02,1,,,,,フローラルパターン,0
2627,9120101066457,新規,0,2022-11-02,2022-11-02,株式会社Ｄ‐ＧＬＯＢＡＬ,,株式会社,大阪府,堺市西区,太平寺１６３番地,,27,144,5938314,,,,,,,2022-11-02,1,,,,,ディーグローバル,0
2628,9120101066473,新規,0,2022-11-02,2022-11-02,株式会社ぴゅあはーと,,株式会社,大阪府,泉南市,信達市場１５８９番地の６,,27,228,5900504,,,,,,,2022-11-02,1,,,,,ピュアハート,0
2629,9120101066481,新規,0,2022-11-02,2022-11-02,株式会社ＥＰＳ,,株式会社,大阪府,堺市南区,三木閉１２７番地１１,,27,145,5900154,,,,,,,2022-11-02,1,,,,,イーピーエス,0
2630,9120103004910,新規,0,2022-11-02,2022-11-02,合同会社ｍａｒｅ,,合同会社,大阪府,高石市,綾園７丁目８番４３号,,27,225,5920014,,,,,,,2022-11-02,1,,,,,マレ,0
2635,9122003002449,新規,0,2022-11-02,2022-11-02,合同会社劇団タルオルム,,合同会社,大阪府,東大阪市,御厨南３丁目１番８号,,27,227,5770034,,,,,,,2022-11-02,1,,,,,ゲキダンタルオルム,0
2641,9130001072950,新規,0,2022-11-02,2022-11-02,ナオハルコーポレーション株式会社,,株式会社,京都府,八幡市,八幡山田８番地２１,,26,210,6148051,,,,,,,2022-11-02,1,,,,,ナオハルコーポレーション,0
2643,9130003008259,新規,0,2022-11-02,2022-11-02,合同会社兵庫グリーンバイオマスファーム,,合同会社,京都府,京都市下京区,東塩小路町６１４番地新京都センタービル５階,,26,106,6000000,,,,,,,2022-11-02,1,,,,,ヒョウゴグリーンバイオマスファーム,0
2648,9140003018307,新規,0,2022-11-02,2022-11-02,合同会社はあとイノベーション,,合同会社,兵庫県,神戸市東灘区,岡本１丁目１０－１６－２－Ａ,,28,101,6580072,,,,,,,2022-11-02,1,,,,,ハアトイノベーション,0
2658,9180001153556,新規,0,2022-11-02,2022-11-02,ＨＯＡＮＧ　ＬＯＮＧ株式会社,,株式会社,愛知県,名古屋市千種区,今池５丁目２番４号,,23,101,4640850,,,,,,,2022-11-02,1,,,,,ホンロン,0
2659,9180001153606,新規,0,2022-11-02,2022-11-02,株式会社ファイルメーター,,株式会社,愛知県,名古屋市東区,徳川２丁目１０番２２号,,23,102,4610025,,,,,,,2022-11-02,1,,,,,ファイルメーター,0
2664,9180003024417,新規,0,2022-11-02,2022-11-02,合同会社ｅｌｆ,,合同会社,愛知県,北名古屋市,六ツ師道毛１６５番地,,23,234,4810001,,,,,,,2022-11-02,1,,,,,エルフ,0
2665,9180003024425,新規,0,2022-11-02,2022-11-02,合同会社アルゴダックス,,合同会社,愛知県,名古屋市瑞穂区,中山町１丁目９番地１アーバンライフ桜山１階,,23,108,4670803,,,,,,,2022-11-02,1,,,,,アルゴダックス,0
2669,9180301036766,新規,0,2022-11-02,2022-11-02,株式会社ＩＭＵ,,株式会社,愛知県,岡崎市,鴨田南町２番地４,,23,202,4442123,,,,,,,2022-11-02,1,,,,,アイエムユー,0
2675,9200001040603,新規,0,2022-11-02,2022-11-02,東海総合商事株式会社,,株式会社,岐阜県,岐阜市,敷島町８丁目１０５番地,,21,201,5008369,,,,,,,2022-11-02,1,,,,,トウカイソウゴウショウジ,0
2677,9200003005728,新規,0,2022-11-02,2022-11-02,家電エンジニアハラ合同会社,,合同会社,岐阜県,中津川市,駒場１５５６番地の８８,,21,206,5080011,,,,,,,2022-11-02,1,,,,,カデンエンジニアハラ,0
2678,9200005013407,新規,0,2022-11-02,2022-11-02,一般社団法人未来タウン構想研究会,,その他の設立登記法人,岐阜県,岐阜市,宇佐３丁目１６番８号,,21,201,5008368,,,,,,,2022-11-02,1,,,,,ミライタウンコウソウケンキュウカイ,0
2679,9210001019142,新規,0,2022-11-02,2022-11-02,株式会社丸信商店,,株式会社,福井県,福井市,中央１丁目１２番１６号,,18,201,9100006,,,,,,,2022-11-02,1,,,,,マルシンショウテン,0
2682,9220003003390,新規,0,2022-11-02,2022-11-02,合同会社ひこ星,,合同会社,石川県,加賀市,小菅波町ヌ７１番地,,17,206,9220424,,,,,,,2022-11-02,1,,,,,ヒコボシ,0
2684,9240001060580,新規,0,2022-11-02,2022-11-02,株式会社ＱＡＭＡＲ,,株式会社,広島県,呉市,清水１丁目８番６号,,34,202,7370022,,,,,,,2022-11-02,1,,,,,カマル,0
2685,9240001060597,新規,0,2022-11-02,2022-11-02,株式会社ＣＡＬＭＡ　ＨＡＩＲ,,株式会社,広島県,東広島市,西条栄町２番３号,,34,212,7390015,,,,,,,2022-11-02,1,,,,,カルマヘア,0
2686,9240001060614,新規,0,2022-11-02,2022-11-02,ＭＳタイセイ株式会社,,株式会社,広島県,広島市中区,銀山町６番１５号,,34,101,7300022,,,,,,,2022-11-02,1,,,,,エムエスタイセイ,0
2691,9240003005872,新規,0,2022-11-02,2022-11-02,ＣＵＥ合同会社,,合同会社,広島県,広島市中区,上八丁堀５番１号,,34,101,7300012,,,,,,,2022-11-02,1,,,,,キュー,0
2692,9240003005880,新規,0,2022-11-02,2022-11-02,ＴＫＢマネジメント合同会社,,合同会社,広島県,広島市西区,古江東町１９番１９－１０５号,,34,104,7330872,,,,,,,2022-11-02,1,,,,,ティーケービーマネジメント,0
2707,9290001099409,新規,0,2022-11-02,2022-11-02,株式会社リアライズ・グローバル,,株式会社,福岡県,糟屋郡志免町,志免東２丁目９番３号,,40,343,8112243,,,,,,,2022-11-02,1,,,,,リアライズグローバル,0
2711,9290801029003,新規,0,2022-11-02,2022-11-02,株式会社美光,,株式会社,福岡県,北九州市門司区,大里桃山町５番４１号,,40,101,8000033,,,,,,,2022-11-02,1,,,,,ビコウ,0
2712,9290801029011,新規,0,2022-11-02,2022-11-02,株式会社酵素技研,,株式会社,福岡県,北九州市小倉北区,霧ケ丘３丁目１８‐１２‐１０２,,40,106,8020052,,,,,,,2022-11-02,1,,,,,コウソギケン,0
2717,9310005008643,新規,0,2022-11-02,2022-11-02,ＮＰＯ法人ｔｒｉａｎｇｌｅ,,その他の設立登記法人,長崎県,諫早市,中尾町３番地２７,,42,204,8540073,,,,,,,2022-11-02,1,,,,,,0
2718,9320001019404,新規,0,2022-11-02,2022-11-02,株式会社ｃ．ｈ．ｍ　Ｂｒｏｓ．,,株式会社,大分県,大分市,大字田尻７５０番地の２５,,44,201,8701143,,,,,,,2022-11-02,1,,,,,シーエイチエムブラザーズ,0
2719,9320003003942,新規,0,2022-11-02,2022-11-02,合同会社ポルテ,,合同会社,大分県,大分市,荏隈町２丁目１５－１,,44,201,8700891,,,,,,,2022-11-02,1,,,,,ポルテ,0
2721,9330001030228,新規,0,2022-11-02,2022-11-02,株式会社ＳＬｅｙ,,株式会社,熊本県,荒尾市,宮内５４４番地１４,,43,204,8640004,,,,,,,2022-11-02,1,,,,,エスリー,0
2722,9330001030236,新規,0,2022-11-02,2022-11-02,株式会社ＴＥＲＵ,,株式会社,熊本県,熊本市北区,弓削５丁目３番６６号,,43,105,8618002,,,,,,,2022-11-02,1,,,,,テル,0
2723,9330001030244,新規,0,2022-11-02,2022-11-02,株式会社Ａｎｄｒｅ,,株式会社,熊本県,熊本市中央区,大江５丁目１５番７号八木ビル１－Ａ,,43,101,8620971,,,,,,,2022-11-02,1,,,,,アンドレ,0
2728,9330003009575,新規,0,2022-11-02,2022-11-02,合同会社ＲＥＶ企画,,合同会社,熊本県,菊池市,泗水町永３１８１番地１,,43,210,8611204,,,,,,,2022-11-02,1,,,,,レブキカク,0
2730,9340001025136,新規,0,2022-11-02,2022-11-02,プラットプラス株式会社,,株式会社,鹿児島県,鹿児島市,上福元町６２７５番地２,,46,201,8910116,,,,,,,2022-11-02,1,,,,,プラットプラス,0
2731,9340001025144,新規,0,2022-11-02,2022-11-02,株式会社ＡＲＭ,,株式会社,鹿児島県,鹿児島市,西陵７丁目１９番９号,,46,201,8900032,,,,,,,2022-11-02,1,,,,,アーム,0
2734,9340003003957,新規,0,2022-11-02,2022-11-02,合同会社ワダシュウ,,合同会社,鹿児島県,鹿児島市,鷹師１丁目６番地７－１１０２号,,46,201,8900043,,,,,,,2022-11-02,1,,,,,ワダシュウ,0
2737,9350001018015,新規,0,2022-11-02,2022-11-02,株式会社Ａｍａｇａｍｉ,,株式会社,宮崎県,宮崎市,中津瀬町３６番地９トピカ中津瀬１０２号,,45,201,8800025,,,,,,,2022-11-02,1,,,,,アマガミ,0
2740,9360003012411,新規,0,2022-11-02,2022-11-02,合同会社ＴＡＯｅｋｕｂｏ,,合同会社,沖縄県,うるま市,字川崎３７番地１ヴィラア・ラ・モード川崎２０８,,47,213,9042203,,,,,,,2022-11-02,1,,,,,タオエクボ,0
2743,9370001049207,新規,0,2022-11-02,2022-11-02,株式会社ａｈｃｏ,,株式会社,宮城県,仙台市泉区,高玉町１１番地の１パークシティ泉中央セントラルコート１０１１,,04,105,9813116,,,,,,,2022-11-02,1,,,,,アコ,0
2744,9370001049223,新規,0,2022-11-02,2022-11-02,菊地林業株式会社,,株式会社,宮城県,伊具郡丸森町,字石渕３０番地５,,04,341,9812112,,,,,,,2022-11-02,1,,,,,キクチリンギョウ,0
2749,9390001017062,新規,0,2022-11-02,2022-11-02,株式会社蔵王温泉ガス,,株式会社,山形県,山形市,蔵王温泉６８１番地１,,06,201,9902301,,,,,,,2022-11-02,1,,,,,ザオウオンセンガス,0
2752,9400001016046,新規,0,2022-11-02,2022-11-02,カードック保険株式会社,,株式会社,岩手県,遠野市,宮守町下宮守２６地割１１４番地２０,,03,208,0280304,,,,,,,2022-11-02,1,,,,,カードックホケン,0
2756,9430003014441,新規,0,2022-11-02,2022-11-02,合同会社ＦＩＳ,,合同会社,北海道,札幌市中央区,南六条西１丁目４－１,,01,101,0640806,,,,,,,2022-11-02,1,,,,,エフアイエス,0
2763,9460103001493,新規,0,2022-11-02,2022-11-02,ケセラセラ合同会社,,合同会社,北海道,帯広市,西二十五条南３丁目４６番地６,,01,207,0802475,,,,,,,2022-11-02,1,,,,,ケセラセラ,0
2768,9480001011907,新規,0,2022-11-02,2022-11-02,株式会社さくら工業,,株式会社,徳島県,鳴門市,撫養町小桑島字前組１４３番地,,36,202,7720012,,,,,,,2022-11-02,1,,,,,サクラコウギョウ,0
2771,9500001024567,新規,0,2022-11-02,2022-11-02,株式会社ＡＬＰＨＡ　ＤＥＳＩＧＮ,,株式会社,愛媛県,松山市,古川北１丁目１２番１４号,,38,201,7900942,,,,,,,2022-11-02,1,,,,,アルファデザイン,0
2774,9700150104901,新規,0,2022-11-02,2021-09-27,Ｓｈｉｎａｇａｗａ　Ｐｈｉｌｈａｒｍｏｎｉｃ・Ｅｎｓｅｍｂｌｅ,,その他,東京都,品川区,中延５丁目１３－８,,13,109,1420053,,,,,,,2021-09-27,1,,,,,シナガワフイルハーモニーアンサンブル,0
2775,9700150111939,新規,0,2022-11-02,2022-09-29,御月民－Ｏｔｓｕｋｉｍｉ－,,その他,埼玉県,さいたま市桜区,桜田２丁目２８－２１,,11,106,3380833,,,,,,,2022-09-29,1,,,,,オツキミオツキミ,0
2776,9700150112540,新規,0,2022-11-02,2022-11-02,ＳＨＥＮＺＨＥＮＳＨＩＭＩＮＧＣＥＫＥＪＩＹＯＵＸＩＡＮＧＯＮＧＳＩ,,外国会社等,,,,,,,,ＳＨＥＮＺＨＥＮＳＨＩＢＡＮＴＩＡＮＪＩＥＤＡＯＹＡＯＢＡＯＬＵＹＩＨＡＯＸＩＮＧＨＥＷＯＲＬＤ　Ｅ　ＤＯＮＧ　１２０２,,,,,,2022-11-02,1,,,,,シンセンシミンツークーチーヨウシエンゴンス,0
