sequenceNumber,corporateNumber,process,correct,updateDate,changeDate,name,nameImageId,kind,prefectureName,cityName,streetNumber,addressImageId,prefectureCode,cityCode,postCode,addressOutside,addressOutsideImageId,closeDate,closeCause,successorCorporateNumber,changeCause,assignmentDate,latest,enName,enPrefectureName,enCityName,enAddressOutside,furigana,hihyoji
3,1010001250303,新規,0,2024-12-19,2024-12-19,株式会社サードステージ,,株式会社,東京都,千代田区,神田小川町３丁目２番６６－９０９号,,13,101,1010052,,,,,,,2024-12-19,1,,,,,サードステージ,0
4,1010001250807,新規,0,2024-12-19,2024-12-19,Ｍｕｔｏ　Ｃｏｒｐｏｒａｔｉｏｎ株式会社,,株式会社,東京都,中央区,日本橋人形町３丁目１番２号スタジオスクエア人形町７０３号室,,13,102,1030013,,,,,,,2024-12-19,1,,,,,ムトウコーポレーション,0
5,1010001250815,新規,0,2024-12-19,2024-12-19,株式会社共和,,株式会社,東京都,中央区,月島４丁目１２番１２号,,13,102,1040052,,,,,,,2024-12-19,1,,,,,キョウワ,0
9,1010005039288,新規,0,2024-12-19,2024-12-19,一般社団法人Ｔｈｅ　Ｐｅａｋ　Ｓｅｒｉｅｓ　ＩＸ,,その他の設立登記法人,東京都,千代田区,四番町４番地９新東京国際リーガル内,,13,101,1020081,,,,,,,2024-12-19,1,,,,,ザピークシリーズナイン,0
10,1010005039305,新規,0,2024-12-19,2024-12-19,一般社団法人Ｉｎｃｅｐｔｉｏｎ　Ｓｔｕｄｉｏ　Ｊａｐａｎ,,その他の設立登記法人,東京都,文京区,後楽２丁目３番２１号ＧＲＯＷＴＨ文京飯田橋,,13,105,1120004,,,,,,,2024-12-19,1,,,,,インセプションスタジオジャパン,0
15,1010401187087,新規,0,2024-12-19,2024-12-19,株式会社ＡＲＥマンション一括受電３５５,,株式会社,東京都,港区,芝浦３丁目４番１号,,13,103,1080023,,,,,,,2024-12-19,1,,,,,エーアールイーマンションイッカツジュデンサンゴーゴー,0
16,1010401187137,新規,0,2024-12-19,2024-12-19,株式会社Ｈ‐ＣＡＳ,,株式会社,東京都,港区,芝５丁目３６番４号札の辻スクエア９階,,13,103,1080014,,,,,,,2024-12-19,1,,,,,,0
25,1010403033925,新規,0,2024-12-19,2024-12-19,合同会社ベーリング,,合同会社,東京都,港区,芝大門１丁目１１番８－１４０１号,,13,103,1050012,,,,,,,2024-12-19,1,,,,,ベーリング,0
26,1010403034048,新規,0,2024-12-19,2024-12-19,Ｄｅｌｉｇｈｔｆｕｌ　Ｏｓａｋａ　Ｉｎｖｅｓｔｍｅｎｔ　Ｌｅｇｅｎｄ　Ｊａｐａｎ合同会社,,合同会社,東京都,港区,元赤坂１丁目１番７－８０７号,,13,103,1070051,,,,,,,2024-12-19,1,,,,,デライトフルオオサカインベストメントレジェンドジャパン,0
33,1010603011276,新規,0,2024-12-19,2024-12-19,合同会社両国カフェ,,合同会社,東京都,墨田区,両国３丁目２４番５号,,13,107,1300026,,,,,,,2024-12-19,1,,,,,リョウゴクカフェ,0
40,1010901056502,新規,0,2024-12-19,2024-12-19,株式会社カラログ,,株式会社,東京都,世田谷区,桜新町１丁目３２番１０号,,13,112,1540015,,,,,,,2024-12-19,1,,,,,カラログ,0
41,1010901056510,新規,0,2024-12-19,2024-12-19,株式会社フューチャーフォレスト,,株式会社,東京都,世田谷区,弦巻１丁目３１番１６号,,13,112,1540016,,,,,,,2024-12-19,1,,,,,フューチャーフォレスト,0
44,1010903009581,新規,0,2024-12-19,2024-12-19,合同会社ＳＱＣ,,合同会社,東京都,世田谷区,用賀４丁目９－１２Ａｓｔａｇｅ用賀Ｂ１,,13,112,1580097,,,,,,,2024-12-19,1,,,,,エスキューシー,0
49,1011001166357,新規,0,2024-12-19,2024-12-19,株式会社ＥＶＡ,,株式会社,東京都,渋谷区,神宮前６丁目１５番１７号２Ｆ,,13,113,1500001,,,,,,,2024-12-19,1,,,,,エバ,0
50,1011001166365,新規,0,2024-12-19,2024-12-19,株式会社けんろ,,株式会社,東京都,渋谷区,道玄坂１丁目１０番８号渋谷道玄坂東急ビル２Ｆ－Ｃ,,13,113,1500043,,,,,,,2024-12-19,1,,,,,ケンロ,0
51,1011001166373,新規,0,2024-12-19,2024-12-19,Ｙ４キャピタル株式会社,,株式会社,東京都,目黒区,八雲４丁目２番２１号,,13,110,1520023,,,,,,,2024-12-19,1,,,,,ワイフォーキャピタル,0
52,1011001166464,新規,0,2024-12-19,2024-12-19,株式会社ＯＧＲ,,株式会社,東京都,渋谷区,恵比寿４丁目３番１号,,13,113,1500013,,,,,,,2024-12-19,1,,,,,オージーアール,0
53,1011001166687,新規,0,2024-12-19,2024-12-19,株式会社ｏｆｆ　ｔｏｎｅ,,株式会社,東京都,渋谷区,神宮前６丁目２９―４原宿ｋｏｍｉｙａビル６階,,13,113,1500001,,,,,,,2024-12-19,1,,,,,オフトーン,0
56,1011003020561,新規,0,2024-12-19,2024-12-19,合同会社セルファイン,,合同会社,東京都,渋谷区,広尾５丁目１６－４ロイヤルパレス広尾７０７,,13,113,1500012,,,,,,,2024-12-19,1,,,,,セルファイン,0
59,1011103015296,新規,0,2024-12-19,2024-12-19,合同会社ＲＥＮＹＡ,,合同会社,東京都,新宿区,西新宿３丁目３番１３号西新宿水間ビル２Ｆ,,13,104,1600023,,,,,,,2024-12-19,1,,,,,レンヤ,0
60,1011103015313,新規,0,2024-12-19,2024-12-19,合同会社Ｃｏｒｎａｄｅ,,合同会社,東京都,新宿区,戸山１丁目１５番２０－５０４号,,13,104,1620052,,,,,,,2024-12-19,1,,,,,コルネード,0
62,1011501031507,新規,0,2024-12-19,2024-12-19,ＵＤＬ　Ｔｏｋｙｏ株式会社,,株式会社,東京都,荒川区,町屋３丁目１－１３－４０８,,13,118,1160001,,,,,,,2024-12-19,1,,,,,ユーディーエルトウキョウ,0
65,1011601028295,新規,0,2024-12-19,2024-12-19,株式会社ベネフューチャー,,株式会社,東京都,練馬区,南大泉５丁目２番１０号大泉クラフトハウスＡ,,13,120,1780064,,,,,,,2024-12-19,1,,,,,ベネフューチャー,0
72,1012405005068,新規,0,2024-12-19,2024-12-19,一般社団法人ＥＭＣ　ＧＬＯＢＡＬ,,その他の設立登記法人,東京都,三鷹市,上連雀１丁目１２番１７号三鷹ビジネスパークＢ１Ｆ,,13,204,1810012,,,,,,,2024-12-19,1,,,,,イーエムシーグローバル,0
83,1020001160591,新規,0,2024-12-19,2024-12-19,クリエイティブエッジ株式会社,,株式会社,神奈川県,横浜市神奈川区,片倉５丁目２９番３１号,,14,102,2210865,,,,,,,2024-12-19,1,,,,,クリエイティブエッジ,0
84,1020001160625,新規,0,2024-12-19,2024-12-19,株式会社Ｆｒａｃｔａｌ　Ｚｅｒｏ,,株式会社,神奈川県,川崎市多摩区,西生田３丁目２５－２５－３,,14,135,2140037,,,,,,,2024-12-19,1,,,,,フラクタルゼロ,0
87,1020003027426,新規,0,2024-12-19,2024-12-19,合同会社ラッキーＳＩＸ,,合同会社,神奈川県,横浜市中区,弥生町３丁目２９番地５リビオメゾン横濱大通り公園８０１,,14,104,2310058,,,,,,,2024-12-19,1,,,,,,0
88,1020003027459,新規,0,2024-12-19,2024-12-19,合同会社ツートップ,,合同会社,神奈川県,横浜市神奈川区,金港町５－１４クアドリフォリオ８階,,14,102,2210056,,,,,,,2024-12-19,1,,,,,ツートップ,0
92,1021001084038,新規,0,2024-12-19,2024-12-19,Ｂｅｒｇｂｏｒｄ株式会社,,株式会社,神奈川県,座間市,ひばりが丘５丁目５０番地２４号,,14,216,2520003,,,,,,,2024-12-19,1,,,,,バーグボード,0
98,1040001136631,新規,0,2024-12-19,2024-12-19,株式会社ＢＦＣ,,株式会社,千葉県,成田市,飯田町１７４番地５１,,12,211,2860041,,,,,,,2024-12-19,1,,,,,ビーエフシー,0
103,1050001055896,新規,0,2024-12-19,2024-12-19,株式会社建信,,株式会社,茨城県,筑西市,布川１１１番地１２,,08,227,3080846,,,,,,,2024-12-19,1,,,,,ケンシン,0
106,1070001042463,新規,0,2024-12-19,2024-12-19,株式会社ポートオブアジア,,株式会社,群馬県,高崎市,本町１０番地１イチカワビル２階,,10,202,3700813,,,,,,,2024-12-19,1,,,,,ポートオブアジア,0
110,1080001026671,新規,0,2024-12-19,2024-12-19,株式会社イエセーブ,,株式会社,静岡県,静岡市駿河区,南町１０番６号村上駅南ビル４０２号室,,22,102,4228067,,,,,,,2024-12-19,1,,,,,イエセーブ,0
112,1080405007697,新規,0,2024-12-19,2024-12-19,一般社団法人日本健康ツール開発機構,,その他の設立登記法人,静岡県,袋井市,豊沢１６０７番地の４６,,22,216,4370032,,,,,,,2024-12-19,1,,,,,ニホンケンコウツールカイハツキコウ,0
119,1110003005612,新規,0,2024-12-19,2024-12-19,合同会社黒滝沢小水力発電所,,合同会社,新潟県,新潟市中央区,東中通２番町２８８番地２マンション司１０１,,15,103,9518116,,,,,,,2024-12-19,1,,,,,クロタキサワショウスイリョクハツデンショ,0
127,1120001271189,新規,0,2024-12-19,2024-12-19,ＢＥＴＴＥＲ　ＢＬＵＥ株式会社,,株式会社,大阪府,大阪市西成区,萩之茶屋１丁目１２番７号、万葉ビル８５号室,,27,122,5570004,,,,,,,2024-12-19,1,,,,,ベターブルー,0
128,1120001271206,新規,0,2024-12-19,2024-12-19,株式会社ユアンド,,株式会社,大阪府,大阪市天王寺区,上汐４丁目５番３号,,27,109,5430002,,,,,,,2024-12-19,1,,,,,ユアンド,0
130,1120003028190,新規,0,2024-12-19,2024-12-19,合同会社ＪＫＭＹ,,合同会社,大阪府,大阪市生野区,生野西１丁目６－１２,,27,116,5440024,,,,,,,2024-12-19,1,,,,,ジェイケイエムワイ,0
131,1120003028216,新規,0,2024-12-19,2024-12-19,合同会社みらい経営サポート,,合同会社,大阪府,大阪市此花区,春日出北２丁目１４‐２２いろは２０１,,27,104,5540021,,,,,,,2024-12-19,1,,,,,ミライケイエイサポート,0
146,1140001136761,新規,0,2024-12-19,2024-12-19,株式会社河井電気工業,,株式会社,兵庫県,神戸市東灘区,御影本町６丁目４－６ＥＩＳＨＯＬＩＦＥ１０４,,28,101,6580046,,,,,,,2024-12-19,1,,,,,カワイデンキコウギョウ,0
147,1140001136778,新規,0,2024-12-19,2024-12-19,株式会社Ｇｒｏｗ　Ｕｐ　Ｆｕｔｕｒｅ,,株式会社,兵庫県,神戸市灘区,鶴甲３丁目１２番４０－６２３号,,28,102,6570011,,,,,,,2024-12-19,1,,,,,グロウアップフューチャー,0
154,1180001164593,新規,0,2024-12-19,2024-12-19,株式会社ＡＺ　ＣＡＲＥ　ＬＩＦＥ,,株式会社,愛知県,名古屋市中区,錦２丁目１０番２２号シティハウス伏見駅前８０２号,,23,106,4600003,,,,,,,2024-12-19,1,,,,,エーゼットケアライフ,0
155,1180001164627,新規,0,2024-12-19,2024-12-19,株式会社プライムクリエイト,,株式会社,愛知県,名古屋市中区,栄１丁目１２番１０５号ＳＦＰビル４Ｆ,,23,106,4600008,,,,,,,2024-12-19,1,,,,,プライムクリエイト,0
156,1180001164643,新規,0,2024-12-19,2024-12-19,株式会社ＹｏｕＭｏｒｅＳｙｓｔｅｍ,,株式会社,愛知県,瀬戸市,東茨町３５番地,,23,204,4890897,,,,,,,2024-12-19,1,,,,,ユーモアーシステム,0
168,1200001043241,新規,0,2024-12-19,2024-12-19,株式会社ＬｉｆｅＴｅｃｈホールディングス,,株式会社,岐阜県,美濃加茂市,加茂野町今泉１１３５番地,,21,211,5050052,,,,,,,2024-12-19,1,,,,,ライフテックホールディングス,0
169,1200003006626,新規,0,2024-12-19,2024-12-19,ムサトレーディング合同会社,,合同会社,岐阜県,岐阜市,今川７５－１岐北ビル２０６,,21,201,5011114,,,,,,,2024-12-19,1,,,,,ムサトレーディング,0
173,1220001026384,新規,0,2024-12-19,2024-12-19,株式会社イノベーションクルー,,株式会社,石川県,金沢市,みどり２丁目６６番地,,17,201,9200373,,,,,,,2024-12-19,1,,,,,イノベーションクルー,0
176,1240001064275,新規,0,2024-12-19,2024-12-19,株式会社ＲＡＩＫＯＵ,,株式会社,広島県,広島市安佐北区,深川１丁目３６番１８号,,34,106,7391751,,,,,,,2024-12-19,1,,,,,ライコウ,0
177,1240003006985,新規,0,2024-12-19,2024-12-19,合同会社Ｂトレーディング,,合同会社,広島県,福山市,沼隈町大字常石１０番地,,34,207,7200313,,,,,,,2024-12-19,1,,,,,ビートレーディング,0
188,1290001108300,新規,0,2024-12-19,2024-12-19,阿爾泰家居株式会社,,株式会社,福岡県,福岡市東区,香椎２丁目２番６号エスポワールマンション香椎３０５号室,,40,131,8130011,,,,,,,2024-12-19,1,,,,,アニタイカキョ,0
191,1290801031123,新規,0,2024-12-19,2024-12-19,株式会社Ｈａｒｖｅｓｔ,,株式会社,福岡県,北九州市戸畑区,中本町６番３－４５号,,40,105,8040061,,,,,,,2024-12-19,1,,,,,ハーベスト,0
217,1390003002326,新規,0,2024-12-19,2024-12-19,合同会社Ｎａｎａｌａ,,合同会社,山形県,山形市,瀬波３丁目５番１７号,,06,201,9900881,,,,,,,2024-12-19,1,,,,,ナナラ,0
222,1430002024003,新規,0,2024-12-19,2024-12-19,有限会社フジケン,,有限会社,北海道,札幌市厚別区,厚別中央五条６丁目６番５－５０１号,,01,108,0040055,,,,,,,2024-12-19,1,,,,,フジケン,0
224,1450001014473,新規,0,2024-12-19,2024-12-19,株式会社Ｂｉｅｉ＆Ｃｏｍｐａｎｙ,,株式会社,北海道,上川郡美瑛町,本町２丁目１番２２号,,01,459,0710208,,,,,,,2024-12-19,1,,,,,ビエイアンドカンパニー,0
227,1490003001961,新規,0,2024-12-19,2024-12-19,合同会社イケダ,,合同会社,高知県,土佐市,高岡町乙２４４８番地の２,,39,205,7811102,,,,,,,2024-12-19,1,,,,,,0
230,1500003003386,新規,0,2024-12-19,2024-12-19,合同会社惟央,,合同会社,愛媛県,八幡浜市,矢野町１５６番地、１５７番地２,,38,204,7960026,,,,,,,2024-12-19,1,,,,,イオ,0
241,2010001250806,新規,0,2024-12-19,2024-12-19,ＧＰ株式会社,,株式会社,東京都,千代田区,神田須田町２丁目８番２０号パレドール神田５０６号室,,13,101,1010041,,,,,,,2024-12-19,1,,,,,ジーピー,0
242,2010001250839,新規,0,2024-12-19,2024-12-19,株式会社Ｃｉａｌｅｗ,,株式会社,東京都,中央区,日本橋堀留町１丁目１０番１号カクタビル２Ｆ,,13,102,1030012,,,,,,,2024-12-19,1,,,,,シアルー,0
244,2010005039287,新規,0,2024-12-19,2024-12-19,一般社団法人Ｔｈｅ　Ｐｅａｋ　Ｓｅｒｉｅｓ　ＶＩＩＩ,,その他の設立登記法人,東京都,千代田区,四番町４番地９新東京国際リーガル内,,13,101,1020081,,,,,,,2024-12-19,1,,,,,ザピークシリーズエイト,0
256,2010403034030,新規,0,2024-12-19,2024-12-19,トラノモンＲＥ４ＧＰ合同会社,,合同会社,東京都,港区,虎ノ門３丁目２２番１０－２０１号,,13,103,1050001,,,,,,,2024-12-19,1,,,,,トラノモンアールイーフォージーピー,0
257,2010403034047,新規,0,2024-12-19,2024-12-19,Ｄｅｌｉｇｈｔｆｕｌ　Ｏｓａｋａ　Ｉｎｖｅｓｔｍｅｎｔｓ　Ｊａｐａｎ合同会社,,合同会社,東京都,港区,元赤坂１丁目１番７－８０７号,,13,103,1070051,,,,,,,2024-12-19,1,,,,,デライトフルオオサカインベストメンツジャパン,0
258,2010405023923,新規,0,2024-12-19,2024-12-19,Ｄｅｌｉｇｈｔｆｕｌ　Ｌｅｇｅｎｄ　Ｏｓａｋａ一般社団法人,,その他の設立登記法人,東京都,港区,元赤坂１丁目１番７－８０７号,,13,103,1070051,,,,,,,2024-12-19,1,,,,,デライトフルレジェンドオオサカ,0
261,2010501053337,新規,0,2024-12-19,2024-12-19,株式会社ＥＲＩＮＤＯ,,株式会社,東京都,台東区,根岸４丁目１４番１７号,,13,106,1100003,,,,,,,2024-12-19,1,,,,,エリンド,0
262,2010503007670,新規,0,2024-12-19,2024-12-19,合同会社オアシス事務所,,合同会社,東京都,台東区,小島２丁目１８―１３小島町永谷マンション２０３,,13,106,1110056,,,,,,,2024-12-19,1,,,,,オアシスジムショ,0
266,2010901056518,新規,0,2024-12-19,2024-12-19,株式会社ＲＥＶＩＶＡＬ,,株式会社,東京都,世田谷区,大蔵５丁目１９番１６号グランドヒルズオークラ１０５,,13,112,1570074,,,,,,,2024-12-19,1,,,,,リバイバル,0
267,2010901056526,新規,0,2024-12-19,2024-12-19,株式会社サンガ,,株式会社,東京都,世田谷区,桜丘４丁目２４番１８－７０３号,,13,112,1560054,,,,,,,2024-12-19,1,,,,,サンガ,0
271,2011001166389,新規,0,2024-12-19,2024-12-19,ストーンアーチ株式会社,,株式会社,東京都,渋谷区,恵比寿西２丁目４番８号ウィンド恵比寿ビル８Ｆ,,13,113,1500021,,,,,,,2024-12-19,1,,,,,ストーンアーチ,0
272,2011003020585,新規,0,2024-12-19,2024-12-19,京王鉄鋼ホールディングス合同会社,,合同会社,東京都,渋谷区,渋谷２丁目１９－１５宮益坂ビルディング６０９,,13,113,1500002,,,,,,,2024-12-19,1,,,,,ケイオウテッコウホールディングス,0
278,2011101109941,新規,0,2024-12-19,2024-12-19,株式会社北澤空調設備,,株式会社,東京都,新宿区,大久保２丁目１３番５－１０２号,,13,104,1690072,,,,,,,2024-12-19,1,,,,,キタザワクウチョウセツビ,0
279,2011101109974,新規,0,2024-12-19,2024-12-19,株式会社アルウィン,,株式会社,東京都,新宿区,新宿２丁目１番１５号ザ・パークハウス新宿御苑６０２,,13,104,1600022,,,,,,,2024-12-19,1,,,,,アルウィン,0
281,2011103015304,新規,0,2024-12-19,2024-12-19,暁合同会社,,合同会社,東京都,新宿区,高田馬場４丁目９番１１号藤和高田馬場コープＩＩ４０７,00137389,13,104,1690075,,,,,,,2024-12-19,1,,,,,アカツキ,0
282,2011103015312,新規,0,2024-12-19,2024-12-19,アライン合同会社,,合同会社,東京都,新宿区,西新宿７丁目５番９－１２０８号,,13,104,1600023,,,,,,,2024-12-19,1,,,,,アライン,0
285,2011501031489,新規,0,2024-12-19,2024-12-19,株式会社ユナイトコア,,株式会社,東京都,北区,栄町１０番３号,,13,117,1140005,,,,,,,2024-12-19,1,,,,,ユナイトコア,0
288,2011601028294,新規,0,2024-12-19,2024-12-19,株式会社すいとうアセットマネジメント,,株式会社,東京都,練馬区,石神井台７丁目２２番３７号,,13,120,1770045,,,,,,,2024-12-19,1,,,,,スイトウアセットマネジメント,0
292,2011701027915,新規,0,2024-12-19,2024-12-19,Ｊａｐａｎ紫龍匯株式会社,00137388,株式会社,東京都,江戸川区,江戸川６丁目４０番１４－２１１号,,13,123,1340013,,,,,,,2024-12-19,1,,,,,ジャパンシリュウケイ,0
293,2011803006593,新規,0,2024-12-19,2024-12-19,合同会社ハピネス,,合同会社,東京都,足立区,千住桜木２丁目５番５－７０８号,,13,121,1200045,,,,,,,2024-12-19,1,,,,,ハピネス,0
294,2012301014196,新規,0,2024-12-19,2024-12-19,株式会社エスケーラボ,,株式会社,東京都,町田市,森野１丁目３２番１４－１４０９号,,13,209,1940022,,,,,,,2024-12-19,1,,,,,エスケーラボ,0
301,2012703003152,新規,0,2024-12-19,2024-12-19,合同会社ベルバン,,合同会社,東京都,清瀬市,松山１丁目１５番８号,,13,221,2040022,,,,,,,2024-12-19,1,,,,,ベルバン,0
304,2012803003572,新規,0,2024-12-19,2024-12-19,ＴＷＴ合同会社,,合同会社,東京都,日野市,日野本町３丁目１４－１８谷井ビル４階４１０,,13,212,1910011,,,,,,,2024-12-19,1,,,,,ティーダブリューティー,0
311,2020001160599,新規,0,2024-12-19,2024-12-19,明澤株式会社,,株式会社,神奈川県,横浜市青葉区,しらとり台５６－７アップルハウス青葉台１０３,,14,117,2270054,,,,,,,2024-12-19,1,,,,,アキザワ,0
312,2020001160632,新規,0,2024-12-19,2024-12-19,株式会社エムテック,,株式会社,神奈川県,横浜市南区,永田東２丁目３０番２９号,,14,105,2320072,,,,,,,2024-12-19,1,,,,,エムテック,0
313,2020001160640,新規,0,2024-12-19,2024-12-19,株式会社レイショウ,,株式会社,神奈川県,横浜市西区,北幸２丁目１１番４７－４０７号,,14,103,2200004,,,,,,,2024-12-19,1,,,,,レイショウ,0
314,2020001160649,新規,0,2024-12-19,2024-12-19,Ｔｏｐ　Ｎｏｔｅ株式会社,,株式会社,神奈川県,横浜市西区,岡野１丁目６番４８－２１１号,,14,103,2200073,,,,,,,2024-12-19,1,,,,,トップノート,0
315,2020001160665,新規,0,2024-12-19,2024-12-19,エフィラスタイル株式会社,,株式会社,神奈川県,横浜市港北区,新横浜２丁目６番地１３新横浜ステーションビル７階,,14,109,2220033,,,,,,,2024-12-19,1,,,,,エフィラスタイル,0
317,2020003027466,新規,0,2024-12-19,2024-12-19,アジアフーズ合同会社,,合同会社,神奈川県,横浜市保土ケ谷区,宮田町１丁目７－１長谷川店舗１Ｆ,,14,106,2400002,,,,,,,2024-12-19,1,,,,,アジアフーズ,0
318,2020003027490,新規,0,2024-12-19,2024-12-19,Ｍ‐ｔｅｃ合同会社,,合同会社,神奈川県,横浜市神奈川区,神大寺３丁目２４―２６メゾンフローレス２０２,,14,102,2210801,,,,,,,2024-12-19,1,,,,,ミーテック,0
334,2040001136639,新規,0,2024-12-19,2024-12-19,株式会社竜範組,,株式会社,千葉県,木更津市,真舟４丁目１７番４号,,12,206,2920802,,,,,,,2024-12-19,1,,,,,タツノリグミ,0
339,2040003026417,新規,0,2024-12-19,2024-12-19,Ｂ‐ｌｉｅｂｅ合同会社,,合同会社,千葉県,千葉市花見川区,幕張本郷１丁目１１－２４フォルテビル４Ｄ,,12,102,2620033,,,,,,,2024-12-19,1,,,,,ビリーブ,0
340,2040005022604,新規,0,2024-12-19,2024-12-19,特定非営利活動法人ピースプレッド南房総,,その他の設立登記法人,千葉県,南房総市,宮谷２０番地１,,12,234,2992222,,,,,,,2024-12-19,1,,,,,ピースブレッドミナミボウソウ,0
341,2050001055895,新規,0,2024-12-19,2024-12-19,株式会社Ｌｉｎｋ　Ｆａｒｍ,,株式会社,茨城県,鉾田市,上太田７９４番地１,,08,234,3111405,,,,,,,2024-12-19,1,,,,,リンクファーム,0
344,2070001042462,新規,0,2024-12-19,2024-12-19,リベルタ株式会社,,株式会社,群馬県,前橋市,朝日町４丁目２５番１号,,10,201,3710014,,,,,,,2024-12-19,1,,,,,リベルタ,0
349,2080003003354,新規,0,2024-12-19,2024-12-19,ＨＭＬ合同会社,,合同会社,静岡県,静岡市清水区,巴町９番地８,,22,103,4240829,,,,,,,2024-12-19,1,,,,,エイチエムエル,0
354,2100001038135,新規,0,2024-12-19,2024-12-19,メクトロン株式会社,,株式会社,長野県,上田市,下武石１２４０番地,,20,203,3860503,,,,,,,2024-12-19,1,,,,,メクトロン,0
361,2110001038935,新規,0,2024-12-19,2024-12-19,株式会社Ｋ＆Ｉ,,株式会社,新潟県,糸魚川市,新鉄１丁目３番９号,,15,216,9410065,,,,,,,2024-12-19,1,,,,,ケーアンドアイ,0
362,2110003005611,新規,0,2024-12-19,2024-12-19,合同会社Ｒｏｎｄｅ,,合同会社,新潟県,新潟市中央区,沼垂東３丁目１番１８号,,15,103,9500075,,,,,,,2024-12-19,1,,,,,ロンド,0
370,2120001271188,新規,0,2024-12-19,2024-12-19,株式会社サクセン,,株式会社,大阪府,大阪市北区,梅田１丁目１－３大阪駅前第３ビル２９階１－１－１号室,,27,127,5300001,,,,,,,2024-12-19,1,,,,,サクセン,0
371,2120001271238,新規,0,2024-12-19,2024-12-19,福寅株式会社,,株式会社,大阪府,大阪市城東区,鴫野西１丁目１６番１８号,,27,118,5360014,,,,,,,2024-12-19,1,,,,,フクトラ,0
372,2120001271262,新規,0,2024-12-19,2024-12-19,マスター警備保障株式会社,,株式会社,大阪府,大阪市中央区,平野町１丁目５番９号２Ｆ,,27,128,5410046,,,,,,,2024-12-19,1,,,,,マスターケイビホショウ,0
376,2120103006203,新規,0,2024-12-19,2024-12-19,合同会社アクアグレイス,,合同会社,大阪府,堺市西区,草部３１１番地９,,27,144,5938312,,,,,,,2024-12-19,1,,,,,アクアグレイス,0
378,2120905006664,新規,0,2024-12-19,2024-12-19,一般社団法人新聞教育士協会,,その他の設立登記法人,大阪府,茨木市,下穂積３丁目１３番１８号,,27,211,5670041,,,,,,,2024-12-19,1,,,,,シンブンキョウイクシキョウカイ,0
380,2122003003073,新規,0,2024-12-19,2024-12-19,合同会社ＢＢＣ,,合同会社,大阪府,大東市,北条７丁目１１－６グリーンマンション１０５号,,27,218,5740011,,,,,,,2024-12-19,1,,,,,ビービーシー,0
389,2140001136760,新規,0,2024-12-19,2024-12-19,Ｓ‐ＧＲＯＷ株式会社,,株式会社,兵庫県,神戸市中央区,下山手通３丁目１２番１号トア山手フラッツ棟２０２,,28,110,6500011,,,,,,,2024-12-19,1,,,,,エスグロウ,0
390,2140001136769,新規,0,2024-12-19,2024-12-19,中株式会社,,株式会社,兵庫県,姫路市,東延末１丁目８４番地姫路マンション５０３号,,28,201,6700965,,,,,,,2024-12-19,1,,,,,ナカ,0
391,2140001136793,新規,0,2024-12-19,2024-12-19,株式会社エスフェクト,,株式会社,兵庫県,神戸市中央区,磯辺通１丁目１番１８号カサベラ国際プラザビル７０７号室,,28,110,6510084,,,,,,,2024-12-19,1,,,,,エスフェクト,0
395,2160003003362,新規,0,2024-12-19,2024-12-19,合同会社ＹＡＴＥＭＩ,,合同会社,滋賀県,草津市,野村８丁目１０番３０号Ｕ－ＰａｒｃＣ号室,,25,206,5250027,,,,,,,2024-12-19,1,,,,,ヤテミ,0
400,2180001164626,新規,0,2024-12-19,2024-12-19,株式会社ｕｌｕｌｕ,,株式会社,愛知県,名古屋市千種区,今池３丁目３５番１号,,23,101,4640850,,,,,,,2024-12-19,1,,,,,ウルル,0
402,2180005020866,新規,0,2024-12-19,2024-12-19,一般社団法人Ｕｎｄｅｒ　Ｍａｎａｇｅｍｅｎｔ,,その他の設立登記法人,愛知県,東海市,横須賀町四ノ割１０１番地サンマンション（３０２号）,,23,222,4770036,,,,,,,2024-12-19,1,,,,,アンダーマネジメント,0
414,2210001019999,新規,0,2024-12-19,2024-12-19,リンゴインターナショナル株式会社,,株式会社,福井県,福井市,町屋１丁目２番１５号,,18,201,9100002,,,,,,,2024-12-19,1,,,,,リンゴインターナショナル,0
424,2230003002349,新規,0,2024-12-19,2024-12-19,合同会社ＭｅｔａＰｌａｙ,,合同会社,富山県,富山市,五艘１４１２番地３,,16,201,9300882,,,,,,,2024-12-19,1,,,,,メタプレイ,0
429,2260001039720,新規,0,2024-12-19,2024-12-19,株式会社華,,株式会社,岡山県,真庭市,上中津井２１３１番地,,33,214,7161422,,,,,,,2024-12-19,1,,,,,ハナ,0
430,2260003005010,新規,0,2024-12-19,2024-12-19,合同会社ジョイフル恵美須,,合同会社,岡山県,岡山市北区,谷万成２丁目１０１－１,,33,101,7000071,,,,,,,2024-12-19,1,,,,,ジョイフルエミス,0
435,2290001108332,新規,0,2024-12-19,2024-12-19,株式会社プランニング,,株式会社,福岡県,福岡市博多区,店屋町３番３２号中村ビル３Ｆ,,40,132,8120025,,,,,,,2024-12-19,1,,,,,プランニング,0
436,2290001108340,新規,0,2024-12-19,2024-12-19,株式会社ウイウェルネス,,株式会社,福岡県,福岡市中央区,桜坂１丁目１５番８－８０３号ブランシエラ赤坂はなみずき通り,,40,133,8100024,,,,,,,2024-12-19,1,,,,,ウイウェルネス,0
437,2290001108349,新規,0,2024-12-19,2024-12-19,株式会社フロンティアジャパン,,株式会社,福岡県,糸島市,二丈深江２０６７番地１,,40,230,8191601,,,,,,,2024-12-19,1,,,,,フロンティアジャパン,0
438,2290001108357,新規,0,2024-12-19,2024-12-19,株式会社秋栄商事,,株式会社,福岡県,福岡市中央区,天神３丁目１０番３０号,,40,133,8100001,,,,,,,2024-12-19,1,,,,,アキエショウジ,0
449,2340003004697,新規,0,2024-12-19,2024-12-19,ナイス合同会社,,合同会社,鹿児島県,鹿児島市,永吉２丁目２２番５号ソレイユ永吉１０１,,46,201,8900023,,,,,,,2024-12-19,1,,,,,ナイス,0
459,2390001017829,新規,0,2024-12-19,2024-12-19,株式会社Ｖｉｒｔｕｓ　Ｃｉｒｃｕｓ,,株式会社,山形県,鶴岡市,大西町２３番２９号,,06,203,9970831,,,,,,,2024-12-19,1,,,,,ヴィルトゥスサーカス,0
461,2390003002325,新規,0,2024-12-19,2024-12-19,合同会社はじめようここから,,合同会社,山形県,山形市,江俣３丁目２番７号コンフォーレ１０４号,,06,201,9900861,,,,,,,2024-12-19,1,,,,,ハジメヨウココカラ,0
462,2400003003362,新規,0,2024-12-19,2024-12-19,合同会社ウィング,,合同会社,岩手県,奥州市,水沢字北丑沢９７番地２４,,03,215,0230031,,,,,,,2024-12-19,1,,,,,ウィング,0
463,2400005008459,新規,0,2024-12-19,2024-12-19,一般社団法人洋野町観光協会,,その他の設立登記法人,岩手県,九戸郡洋野町,種市第２３地割２７番地,,03,507,0287914,,,,,,,2024-12-19,1,,,,,ヒロノチョウカンコウキョウカイ,0
471,2430001093304,新規,0,2024-12-19,2024-12-19,ドジャーズ株式会社,,株式会社,北海道,札幌市中央区,大通西１３丁目４番地１０２,,01,101,0600042,,,,,,,2024-12-19,1,,,,,ドジャーズ,0
474,2450001014472,新規,0,2024-12-19,2024-12-19,株式会社セフィロト,,株式会社,北海道,旭川市,大町二条３丁目２１－３８４,,01,204,0700842,,,,,,,2024-12-19,1,,,,,セフィロト,0
479,2500001026041,新規,0,2024-12-19,2024-12-19,クレーンジャパン株式会社,,株式会社,愛媛県,今治市,馬越町１丁目５番２号,,38,202,7940062,,,,,,,2024-12-19,1,,,,,クレーンジャパン,0
493,3010001250788,新規,0,2024-12-19,2024-12-19,セブンシーズトラベラーズ株式会社,,株式会社,東京都,中央区,日本橋２丁目１番１７号,,13,102,1030027,,,,,,,2024-12-19,1,,,,,セブンシーズトラベラーズ,0
494,3010001250813,新規,0,2024-12-19,2024-12-19,株式会社Ｃａｐｔｉｖａｎｔｅ,,株式会社,東京都,千代田区,神田佐久間町１丁目１４番地,,13,101,1010025,,,,,,,2024-12-19,1,,,,,キャプティボン,0
504,3010401187093,新規,0,2024-12-19,2024-12-19,株式会社リトラボ,,株式会社,東京都,港区,浜松町２丁目５番５号ＰＭＯ浜松町４階,,13,103,1050013,,,,,,,2024-12-19,1,,,,,リトラボ,0
506,3010501053377,新規,0,2024-12-19,2024-12-19,株式会社エーケーエスファクトリー,,株式会社,東京都,台東区,東上野３丁目３番１３号,,13,106,1100015,,,,,,,2024-12-19,1,,,,,エーケーエスファクトリー,0
514,3011001166371,新規,0,2024-12-19,2024-12-19,株式会社スタジオブルポ,,株式会社,東京都,渋谷区,道玄坂１丁目１０番８号渋谷道玄坂東急ビル２Ｆ－Ｃ,,13,113,1500043,,,,,,,2024-12-19,1,,,,,スタジオブルポ,0
515,3011003020568,新規,0,2024-12-19,2024-12-19,エムズホールディングス合同会社,,合同会社,東京都,渋谷区,代々木１丁目５３番１号ＭＹ・ＴＯＷＥＲ・ＲＥＳＩＤＥＮＣＥ１９０２,,13,113,1510053,,,,,,,2024-12-19,1,,,,,エムズホールディングス,0
516,3011003020576,新規,0,2024-12-19,2024-12-19,Ｎｉｄｏ合同会社,,合同会社,東京都,目黒区,上目黒５丁目１３番８号,,13,110,1530051,,,,,,,2024-12-19,1,,,,,ニド,0
518,3011101109924,新規,0,2024-12-19,2024-12-19,株式会社Ｂａｉｙｏｋｅ　Ｒｉｃｈ　Ｎｉｐｐｏｎ,,株式会社,東京都,新宿区,下落合４丁目１２番２４号目白御留山シティハウス１１０,,13,104,1610033,,,,,,,2024-12-19,1,,,,,バイヨークリッチニッポン,0
519,3011101109949,新規,0,2024-12-19,2024-12-19,株式会社トリプルエム,,株式会社,東京都,新宿区,若葉１丁目２０番羽田ハイツ３０１,,13,104,1600011,,,,,,,2024-12-19,1,,,,,トリプルエム,0
521,3011203001434,新規,0,2024-12-19,2024-12-19,島崎合資会社,,合資会社,東京都,中野区,上高田１丁目３７番７号,,13,114,1640002,,,,,,,2024-12-19,1,,,,,,0
533,3011801045329,新規,0,2024-12-19,2024-12-19,株式会社Ｓｕｎｎｙ,,株式会社,東京都,足立区,足立３丁目２２番１０号,,13,121,1200015,,,,,,,2024-12-19,1,,,,,サニー,0
547,3020001160598,新規,0,2024-12-19,2024-12-19,株式会社Ａｄｖａｎｃｅ,,株式会社,神奈川県,横浜市中区,花咲町２丁目８１番地２・３０１,,14,104,2310063,,,,,,,2024-12-19,1,,,,,アドバンス,0
548,3020001160607,新規,0,2024-12-19,2024-12-19,ＲｉＧＮＡＳ株式会社,,株式会社,神奈川県,川崎市川崎区,駅前本町１１番地２川崎フロンティアビル４階,,14,131,2100007,,,,,,,2024-12-19,1,,,,,リグナス,0
549,3020001160615,新規,0,2024-12-19,2024-12-19,Ｓｔｉｃｋｓｔａｃｋ　Ｐｒｏｄｕｃｔｉｏｎｓ株式会社,,株式会社,神奈川県,川崎市高津区,久本２丁目１２番３２号,,14,134,2130011,,,,,,,2024-12-19,1,,,,,スティックスタックプロダクションズ,0
550,3020001160631,新規,0,2024-12-19,2024-12-19,株式会社ＺＥＲＯ,,株式会社,神奈川県,横浜市戸塚区,原宿４丁目２７番Ｂ－７－２０４号,,14,110,2450063,,,,,,,2024-12-19,1,,,,,ゼロ,0
551,3020001160664,新規,0,2024-12-19,2024-12-19,株式会社そらのおとしご,,株式会社,神奈川県,横浜市港北区,新横浜３丁目２３番地８クリオ新横浜マスタープレイス１１０４,,14,109,2220033,,,,,,,2024-12-19,1,,,,,ソラノオトシゴ,0
559,3020003027457,新規,0,2024-12-19,2024-12-19,Ｍ＆Ｙ合同会社,,合同会社,神奈川県,横浜市鶴見区,本町通１丁目２番地９本町ロータリーマンション２０１号室,,14,101,2300048,,,,,,,2024-12-19,1,,,,,エムアンドワイ,0
560,3020003027473,新規,0,2024-12-19,2024-12-19,ＫＹＭ合同会社,,合同会社,神奈川県,横浜市港北区,箕輪町２丁目７番６０－１６１４号,,14,109,2230051,,,,,,,2024-12-19,1,,,,,ケーワイエム,0
562,3021001084036,新規,0,2024-12-19,2024-12-19,翼住設株式会社,,株式会社,神奈川県,平塚市,豊原町２５番６号,,14,203,2540051,,,,,,,2024-12-19,1,,,,,ツバサジュウセツ,0
578,3040001136539,新規,0,2024-12-19,2024-12-19,株式会社天下泰平,,株式会社,千葉県,船橋市,本町４丁目３４番１３号,,12,204,2730005,,,,,,,2024-12-19,1,,,,,テンカタイヘイ,0
580,3040003026416,新規,0,2024-12-19,2024-12-19,合同会社かさぎ社会福祉士事務所,,合同会社,千葉県,松戸市,三矢小台３丁目９番地の１５,,12,207,2710087,,,,,,,2024-12-19,1,,,,,カサギシャカイフクシシジムショ,0
584,3050001055894,新規,0,2024-12-19,2024-12-19,Ｔ．Ａ．Ｍ株式会社,,株式会社,茨城県,龍ケ崎市,佐貫町６４９番地８,,08,208,3010033,,,,,,,2024-12-19,1,,,,,テイアム,0
589,3050003008875,新規,0,2024-12-19,2024-12-19,世誉合同会社,,合同会社,茨城県,古河市,水海２５８０番地１,,08,204,3060215,,,,,,,2024-12-19,1,,,,,セイヨ,0
591,3060001037751,新規,0,2024-12-19,2024-12-19,株式会社ＲＡモーター,,株式会社,栃木県,大田原市,寒井２６７番地２,,09,210,3240246,,,,,,,2024-12-19,1,,,,,アールエーモーター,0
599,3080403005164,新規,0,2024-12-19,2024-12-19,Ｏｎｅ　Ｋｉｓｓ　Ｍｕｓｉｃ合同会社,,合同会社,静岡県,浜松市中央区,田町３２７番地２７大蔵ビル１Ｆ,,22,138,4300944,,,,,,,2024-12-19,1,,,,,ワンキスミュージック,0
607,3110001038926,新規,0,2024-12-19,2024-12-19,エムワークス株式会社,,株式会社,新潟県,新潟市南区,大通南１丁目１８７番地１,,15,106,9501202,,,,,,,2024-12-19,1,,,,,エムワークス,0
613,3120001271204,新規,0,2024-12-19,2024-12-19,株式会社ＭＵＳＯホールディングス,,株式会社,大阪府,大阪市中央区,南新町１丁目３番８号,,27,128,5400024,,,,,,,2024-12-19,1,,,,,ムソーホールディングス,0
614,3120001271220,新規,0,2024-12-19,2024-12-19,三不動株式会社,,株式会社,大阪府,大阪市浪速区,敷津西２丁目１３番２号,,27,111,5560015,,,,,,,2024-12-19,1,,,,,サンフドウ,0
615,3120001271237,新規,0,2024-12-19,2024-12-19,辰熙株式会社,,株式会社,大阪府,大阪市大正区,三軒家西３丁目４番１６号中山ビル１０３６,,27,108,5510001,,,,,,,2024-12-19,1,,,,,シンキ,0
616,3120001271261,新規,0,2024-12-19,2024-12-19,株式会社ｍｏｇｕｒａ,,株式会社,大阪府,寝屋川市,平池町１９番１０号,,27,215,5720839,,,,,,,2024-12-19,1,,,,,モグラ,0
625,3122005003797,新規,0,2024-12-19,2024-12-19,税理士法人石津税務会計事務所,,その他の設立登記法人,大阪府,東大阪市,西堤本通東３丁目５番１２号,,27,227,5770045,,,,,,,2024-12-19,1,,,,,イシズゼイムカイケイジムショ,0
628,3130001078615,新規,0,2024-12-19,2024-12-19,西川株式会社,,株式会社,京都府,京都市右京区,花園中御門町１番地６,,26,108,6168054,,,,,,,2024-12-19,1,,,,,ニシカワ,0
630,3130005017255,新規,0,2024-12-19,2024-12-19,特定非営利活動法人Ｕ１８選挙,,その他の設立登記法人,京都府,京都市中京区,黒門通蛸薬師上る上黒門町３８３番地５,,26,104,6048343,,,,,,,2024-12-19,1,,,,,ユージュウハチセンキョ,0
637,3140001136768,新規,0,2024-12-19,2024-12-19,株式会社渡邊,,株式会社,兵庫県,尼崎市,東桜木町３８番地１０３号,,28,202,6600864,,,,,,,2024-12-19,1,,,,,ワタナベ,0
638,3140001136792,新規,0,2024-12-19,2024-12-19,株式会社エスポライト,,株式会社,兵庫県,明石市,大久保町大窪９５８番地の２－Ｇ,,28,203,6740051,,,,,,,2024-12-19,1,,,,,エスポライト,0
641,3160001026422,新規,0,2024-12-19,2024-12-19,株式会社和水,,株式会社,滋賀県,湖南市,岩根中央２丁目１４番地エクセルコート岩根Ｃ号,,25,211,5203254,,,,,,,2024-12-19,1,,,,,ナゴミ,0
648,3180001164641,新規,0,2024-12-19,2024-12-19,株式会社ｃａｌｍｅ,,株式会社,愛知県,名古屋市昭和区,滝川町１７番地の１０,,23,107,4660826,,,,,,,2024-12-19,1,,,,,カルム,0
650,3180005020865,新規,0,2024-12-19,2024-12-19,一般社団法人薫る心,,その他の設立登記法人,愛知県,名古屋市名東区,香南２丁目１１１２番地,,23,115,4650004,,,,,,,2024-12-19,1,,,,,カオルココロ,0
660,3200005013701,新規,0,2024-12-19,2024-12-19,医療法人ｍｏｃｏ,,その他の設立登記法人,岐阜県,美濃加茂市,西町５丁目２３０番,,21,211,5050046,,,,,,,2024-12-19,1,,,,,モコ,0
668,3240001064249,新規,0,2024-12-19,2024-12-19,新星株式会社,,株式会社,広島県,福山市,南町３－１７,,34,207,7200806,,,,,,,2024-12-19,1,,,,,シンセイ,0
683,3290001108298,新規,0,2024-12-19,2024-12-19,ＱＵＥＥＮ　ＡＬＩＣＥ株式会社,,株式会社,福岡県,福岡市中央区,笹丘１丁目１０－２５笹丘石田住宅２Ｆ,,40,133,8100034,,,,,,,2024-12-19,1,,,,,クイーンアリス,0
684,3290001108356,新規,0,2024-12-19,2024-12-19,株式会社Ｓ．Ｍ．Ｃ,,株式会社,福岡県,久留米市,国分町９９９番地２,,40,203,8390863,,,,,,,2024-12-19,1,,,,,エスエムシー,0
690,3310001019369,新規,0,2024-12-19,2024-12-19,泰洋商事株式会社,,株式会社,長崎県,長崎市,磯道町５４４番地５,,42,201,8500971,,,,,,,2024-12-19,1,,,,,タイヨウショウジ,0
693,3340002028705,新規,0,2024-12-19,2024-12-19,有限会社茂工務店,,有限会社,鹿児島県,指宿市,湯の浜４丁目８番３号,,46,210,8910406,,,,,,,2024-12-19,1,,,,,シゲルコウムテン,0
694,3350001019324,新規,0,2024-12-19,2024-12-19,浜フーズ株式会社,,株式会社,宮崎県,宮崎市,江平東２丁目４番５９号,,45,201,8800816,,,,,,,2024-12-19,1,,,,,ハマフーズ,0
708,3430001093294,新規,0,2024-12-19,2024-12-19,星之世株式会社,,株式会社,北海道,小樽市,色内１丁目６番１４号クレアーレＩＩ地下１階,00137386,01,203,0470031,,,,,,,2024-12-19,1,,,,,ホシノヨ,0
712,3430003017086,新規,0,2024-12-19,2024-12-19,白黒総業合同会社,,合同会社,北海道,札幌市中央区,南五条西１５丁目２－３リズム医大前５０３号室,,01,101,0640805,,,,,,,2024-12-19,1,,,,,シロクロソウギョウ,0
725,4010001250812,新規,0,2024-12-19,2024-12-19,株式会社ＫＵＫＵＮＡコンサルティング,,株式会社,東京都,中央区,銀座１丁目１２番４号Ｎ＆ＥＢＬＤ．６Ｆ,,13,102,1040061,,,,,,,2024-12-19,1,,,,,ククナコンサルティング,0
726,4010003045756,新規,0,2024-12-19,2024-12-19,文海教育センター合同会社,,合同会社,東京都,千代田区,神田佐久間町３丁目２８番地星野ビル４階１８号室,,13,101,1010025,,,,,,,2024-12-19,1,,,,,ブンカイキョウイクセンター,0
727,4010003045822,新規,0,2024-12-19,2024-12-19,銀の星セラピータイム合同会社,,合同会社,東京都,中央区,日本橋室町１丁目１１番１２号日本橋水野ビル７階,,13,102,1030022,,,,,,,2024-12-19,1,,,,,ギンノホシセラピータイム,0
728,4010003045839,新規,0,2024-12-19,2024-12-19,ＧＣＰ４合同会社,,合同会社,東京都,千代田区,丸の内１丁目１１番１号,,13,101,1000005,,,,,,,2024-12-19,1,,,,,ジーシーピーフォー,0
729,4010003045847,新規,0,2024-12-19,2024-12-19,Ｇｒａｎｄ　Ｅａｓｔ合同会社,,合同会社,東京都,千代田区,霞が関３丁目２番５号,,13,101,1000013,,,,,,,2024-12-19,1,,,,,グランドイースト,0
730,4010005039293,新規,0,2024-12-19,2024-12-19,一般社団法人Ｔｈｅ　Ｐｅａｋ　Ｓｅｒｉｅｓ　ＸＩＶ,,その他の設立登記法人,東京都,千代田区,四番町４番地９新東京国際リーガル内,,13,101,1020081,,,,,,,2024-12-19,1,,,,,ザピークシリーズフォーティーン,0
733,4010401187092,新規,0,2024-12-19,2024-12-19,ｓｗｉｆｔｉｅｓ株式会社,,株式会社,東京都,港区,新橋６丁目１７番２１号,,13,103,1050004,,,,,,,2024-12-19,1,,,,,スウィフティーズ,0
734,4010401187126,新規,0,2024-12-19,2024-12-19,ＮＥＸＴ　ＩＮＮＯＶＡＴＩＯＮ株式会社,,株式会社,東京都,港区,六本木７丁目１２番２号Ｒ７ビルディング,,13,103,1060032,,,,,,,2024-12-19,1,,,,,ネクストイノベーション,0
742,4010801035685,新規,0,2024-12-19,2024-12-19,株式会社アリエス,,株式会社,東京都,大田区,南千束２丁目７番７号,,13,111,1450063,,,,,,,2024-12-19,1,,,,,アリエス,0
755,4011001166395,新規,0,2024-12-19,2024-12-19,株式会社Ｂ．Ｌ．Ｔ．,,株式会社,東京都,目黒区,五本木１丁目３１番１号,,13,110,1530053,,,,,,,2024-12-19,1,,,,,ビーエルティー,0
758,4011003020055,新規,0,2024-12-19,2024-12-19,合同会社ＫＨ,,合同会社,東京都,目黒区,三田２丁目１５－１２－２０８,,13,110,1530062,,,,,,,2024-12-19,1,,,,,ケーエイチ,0
760,4011101109948,新規,0,2024-12-19,2024-12-19,株式会社もしもし,,株式会社,東京都,新宿区,西新宿７丁目１８番５号西新宿ライズオフィスＤＵＥ,,13,104,1600023,,,,,,,2024-12-19,1,,,,,モシモシ,0
761,4011101109956,新規,0,2024-12-19,2024-12-19,Ｉｎｆｉｎｉｔｕｄｅ　Ｈｏｓｐｉｔａｌｉｔｙ　Ｊａｐａｎ株式会社,,株式会社,東京都,新宿区,住吉町５番４号６０３,,13,104,1620065,,,,,,,2024-12-19,1,,,,,インフィニチュードホスピタリティジャパン,0
762,4011103015310,新規,0,2024-12-19,2024-12-19,合同会社Ｐｌａｔｏｎ,,合同会社,東京都,新宿区,西新宿８丁目５番１号,,13,104,1600023,,,,,,,2024-12-19,1,,,,,プラトン,0
763,4011103015319,新規,0,2024-12-19,2024-12-19,三方旅行プランナー合同会社,,合同会社,東京都,新宿区,西新宿３丁目３番１３号西新宿水間ビル６階,,13,104,1600023,,,,,,,2024-12-19,1,,,,,サンポウリョコウプランナー,0
770,4011401026678,新規,0,2024-12-19,2024-12-19,株式会社ユニカ,,株式会社,東京都,板橋区,中板橋２番１１号,,13,119,1730016,,,,,,,2024-12-19,1,,,,,ユニカ,0
772,4011503006347,新規,0,2024-12-19,2024-12-19,Ｊｂ合同会社,,合同会社,東京都,北区,十条仲原１丁目２８番２７号アーバンハイツ２０１号,,13,117,1140031,,,,,,,2024-12-19,1,,,,,ジェイビー,0
775,4011601028292,新規,0,2024-12-19,2024-12-19,ＷｉｎＡＩ　Ｔｅｃｈ株式会社,,株式会社,東京都,練馬区,旭丘１丁目１１番３旭丘光ハイム４０１Ｇ号,,13,120,1760005,,,,,,,2024-12-19,1,,,,,ウィンエイアイテック,0
776,4011601028301,新規,0,2024-12-19,2024-12-19,林沐株式会社,,株式会社,東京都,練馬区,練馬４丁目１８番１９号５階,,13,120,1760001,,,,,,,2024-12-19,1,,,,,リンム,0
778,4011603004548,新規,0,2024-12-19,2024-12-19,ＷａｖｅＨｉｌｌ合同会社,,合同会社,東京都,練馬区,関町北５丁目６番７号関町マンション３０２Ｃ,,13,120,1770051,,,,,,,2024-12-19,1,,,,,ウェイブヒル,0
781,4011701027913,新規,0,2024-12-19,2024-12-19,株式会社コネワジャパン,,株式会社,東京都,江戸川区,西葛西８丁目９番３号,,13,123,1340088,,,,,,,2024-12-19,1,,,,,コネワジャパン,0
782,4011705001864,新規,0,2024-12-19,2024-12-19,一般社団法人ＭＴＴ研究所,,その他の設立登記法人,東京都,江戸川区,南篠崎町１丁目２４番７号,,13,123,1330065,,,,,,,2024-12-19,1,,,,,エムティーティーケンキュウジョ,0
791,4012801023645,新規,0,2024-12-19,2024-12-19,株式会社ＭＹ　ＲＯＡＤ,,株式会社,東京都,立川市,柴崎町３丁目４番４号すいれんビル１Ｆ,,13,202,1900023,,,,,,,2024-12-19,1,,,,,マイロード,0
792,4012801023653,新規,0,2024-12-19,2024-12-19,株式会社ＵＭオフィス,,株式会社,東京都,国立市,東３丁目２１番地の２６,,13,215,1860002,,,,,,,2024-12-19,1,,,,,ユウエムオフィス,0
793,4012803003554,新規,0,2024-12-19,2024-12-19,合同会社知財,,合同会社,東京都,日野市,三沢１７番地１２号３０１号室,,13,212,1910032,,,,,,,2024-12-19,1,,,,,チザイ,0
801,4020001160606,新規,0,2024-12-19,2024-12-19,モクト株式会社,,株式会社,神奈川県,横浜市西区,北幸１丁目１１番１号水信ビル７階,,14,103,2200004,,,,,,,2024-12-19,1,,,,,モクト,0
802,4020001160639,新規,0,2024-12-19,2024-12-19,フワナテック株式会社,,株式会社,神奈川県,横浜市旭区,上白根１丁目２番１号－４０３号室,,14,112,2410002,,,,,,,2024-12-19,1,,,,,フワナテック,0
803,4020001160647,新規,0,2024-12-19,2024-12-19,株式会社ＯＷＬ,,株式会社,神奈川県,川崎市麻生区,百合丘１丁目１６番３２号,,14,137,2150011,,,,,,,2024-12-19,1,,,,,オウル,0
806,4020003027431,新規,0,2024-12-19,2024-12-19,合同会社むらかみ商店,,合同会社,神奈川県,横浜市西区,平沼２丁目１４番１３号ライオンズマンション平沼第三５０１,,14,103,2200023,,,,,,,2024-12-19,1,,,,,ムラカミショウテン,0
809,4021001084019,新規,0,2024-12-19,2024-12-19,株式会社ＰＯＲＴＡＲＳ　ＪＡＰＡＮ,,株式会社,神奈川県,平塚市,西真土３丁目２０番３６号,,14,203,2540019,,,,,,,2024-12-19,1,,,,,ポーターズジャパン,0
823,4040001136595,新規,0,2024-12-19,2024-12-19,株式会社ランコント,,株式会社,千葉県,千葉市稲毛区,小仲台２丁目６番１０号木下ビル２階,,12,103,2630043,,,,,,,2024-12-19,1,,,,,ランコント,0
824,4040001136637,新規,0,2024-12-19,2024-12-19,株式会社ＡＭＭＳ,,株式会社,千葉県,佐倉市,下根３６番地６,,12,212,2850006,,,,,,,2024-12-19,1,,,,,エーエムエムエス,0
827,4040003026415,新規,0,2024-12-19,2024-12-19,合同会社ＫＡＫＥＲＵ＆Ｃｏ．,,合同会社,千葉県,木更津市,請西東７丁目１－６７,,12,206,2920806,,,,,,,2024-12-19,1,,,,,カケルアンドカンパニー,0
829,4050001055902,新規,0,2024-12-19,2024-12-19,株式会社ブルーム,,株式会社,茨城県,古河市,錦町１番５４号,,08,204,3060037,,,,,,,2024-12-19,1,,,,,ブルーム,0
830,4050005013534,新規,0,2024-12-19,2024-12-19,一般社団法人茨城県南職人協会,,その他の設立登記法人,茨城県,つくば市,梅園２丁目１番地１５スプリングテックつくばビル４０１,,08,220,3050045,,,,,,,2024-12-19,1,,,,,イバラキケンナンショクニンキョウカイ,0
831,4060001037750,新規,0,2024-12-19,2024-12-19,株式会社ＨＲ　ＥＮＴＥＲＰＲＩＳＥＳ,,株式会社,栃木県,真岡市,寺内１５９２番地１,,09,209,3214345,,,,,,,2024-12-19,1,,,,,エイチアールエンタープライゼス,0
836,4080003003352,新規,0,2024-12-19,2024-12-19,グッド・ガバナンス・ジャパン合同会社,,合同会社,静岡県,静岡市駿河区,谷田３９番３３―４０２号,,22,102,4228002,,,,,,,2024-12-19,1,,,,,グッドガバナンスジャパン,0
842,4090003002700,新規,0,2024-12-19,2024-12-19,合同会社Ｔ・Ｍ建築設備設計研究所,,合同会社,山梨県,甲斐市,志田１９３番地３,,19,210,4000107,,,,,,,2024-12-19,1,,,,,ティエムケンチクセツビセッケイケンキュウジョ,0
845,4100001038133,新規,0,2024-12-19,2024-12-19,株式会社恵誠仮設,,株式会社,長野県,佐久市,三河田５６４番地３,,20,217,3850014,,,,,,,2024-12-19,1,,,,,ケイセイカセツ,0
858,4120001271178,新規,0,2024-12-19,2024-12-19,株式会社ジェイアソシエイツクリエイション,,株式会社,大阪府,大阪市北区,梅田３丁目２番１２３号イノゲート大阪,,27,127,5300001,,,,,,,2024-12-19,1,,,,,ジェイアソシエイツクリエイション,0
859,4120001271236,新規,0,2024-12-19,2024-12-19,海松株式会社,,株式会社,大阪府,大阪市城東区,関目５丁目１９番９号関目花博公館２０５Ｂ,,27,118,5360008,,,,,,,2024-12-19,1,,,,,カイショウ,0
860,4120003028196,新規,0,2024-12-19,2024-12-19,信立合同会社,,合同会社,大阪府,大阪市東成区,東中本３丁目２０番２２号関西マンション２０３号室,,27,115,5370021,,,,,,,2024-12-19,1,,,,,シンリツ,0
862,4120103006201,新規,0,2024-12-19,2024-12-19,合同会社Ｎｅａｔｌｙ‐Ｌｉｎｅｄ,,合同会社,大阪府,和泉市,室堂町１１０３番地の８８,,27,219,5941101,,,,,,,2024-12-19,1,,,,,ニートリーラインド,0
873,4140001136767,新規,0,2024-12-19,2024-12-19,賛帝商事株式会社,,株式会社,兵庫県,神戸市中央区,南本町通２丁目２番４号,,28,110,6510074,,,,,,,2024-12-19,1,,,,,サンテイショウジ,0
874,4140003021422,新規,0,2024-12-19,2024-12-19,合同会社Ｍａｎｍａｋａ　Ｒｅｓｏｒｔ,,合同会社,兵庫県,伊丹市,車塚２丁目１０４番地２,,28,207,6640872,,,,,,,2024-12-19,1,,,,,マンマカリゾート,0
875,4140003021430,新規,0,2024-12-19,2024-12-19,合同会社Ｓｍｉｌｅ　Ｆｌｏｗｅｒｓ．空,,合同会社,兵庫県,明石市,大久保町大窪９７５番地の２,,28,203,6740051,,,,,,,2024-12-19,1,,,,,スマイルフラワーズドットソラ,0
878,4160001026421,新規,0,2024-12-19,2024-12-19,株式会社ＹＡＮＡＧＩ,,株式会社,滋賀県,大津市,滋賀里３丁目３番３号,,25,201,5200006,,,,,,,2024-12-19,1,,,,,ヤナギ,0
883,4180001164624,新規,0,2024-12-19,2024-12-19,株式会社住全,,株式会社,愛知県,名古屋市西区,上名古屋１丁目７番１２号,,23,104,4510025,,,,,,,2024-12-19,1,,,,,ジュウゼン,0
885,4180003027754,新規,0,2024-12-19,2024-12-19,ＧＳ合同会社,,合同会社,愛知県,愛西市,町方町案山子８番地３,,23,232,4968014,,,,,,,2024-12-19,1,,,,,ジーエス,0
887,4200001043247,新規,0,2024-12-19,2024-12-19,株式会社ロータスランド,,株式会社,岐阜県,高山市,大新町２丁目８１番地,,21,203,5060851,,,,,,,2024-12-19,1,,,,,ロータスランド,0
921,4360003014536,新規,0,2024-12-19,2024-12-19,合同会社Ｎ＆Ｉ,,合同会社,沖縄県,中頭郡読谷村,字楚辺２０８９番地１,,47,324,9040304,,,,,,,2024-12-19,1,,,,,エヌアンドアイ,0
941,4700150128293,新規,0,2024-12-19,2024-12-19,Ｃｈａｎｇｓｈａ　Ｙｉｔｏｎｇ　Ｅｌｅｃｔｒｏｎｉｃ　Ｃｏｍｍｅｒｃｅ　Ｃｏｍｐａｎｙ　Ｌｉｍｉｔｅｄ,,外国会社等,,,,,,,,ｈｕｎａｎｓｈｅｎｇ　ｃｈａｎｇｓｈａｓｈｉ　ｋａｉｆｕｑｕ　ｘｉｕｆｅｎｇｊｉｅｄａｏ　ｃｈｕｊｉａｈｕｌｕ＃８３　ｓａｉｌａｎｙａｙｕａｎ＃３　ＮＯ．１３０９,,,,,,2024-12-19,1,,,,,ジャンシャーイートンディエンズーシャンウーヨウシエンゴンスー,0
947,5010001250836,新規,0,2024-12-19,2024-12-19,株式会社ＫＪホールディングス,,株式会社,東京都,千代田区,有楽町１丁目１３番２号第一生命日比谷ファースト１８階,,13,101,1000006,,,,,,,2024-12-19,1,,,,,ケージェイホールディングス,0
950,5010003045854,新規,0,2024-12-19,2024-12-19,Ｆｕｔｅｎｅ　Ｗｅｂ　Ｄｅｓｉｇｎ合同会社,,合同会社,東京都,文京区,白山１丁目２７－７アービス白山３１０,,13,105,1130001,,,,,,,2024-12-19,1,,,,,フテネウェブデザイン,0
955,5010005039292,新規,0,2024-12-19,2024-12-19,一般社団法人Ｔｈｅ　Ｐｅａｋ　Ｓｅｒｉｅｓ　ＸＩＩＩ,,その他の設立登記法人,東京都,千代田区,四番町４番地９新東京国際リーガル内,,13,101,1020081,,,,,,,2024-12-19,1,,,,,ザピークシリーズサーティーン,0
968,5010401187083,新規,0,2024-12-19,2024-12-19,ドーシンロジスティクス株式会社,,株式会社,東京都,港区,芝３丁目２５番２号,,13,103,1050014,,,,,,,2024-12-19,1,,,,,ドーシンロジスティクス,0
970,5010405023920,新規,0,2024-12-19,2024-12-19,ジー・エイ・ワン・レジデンス・エイト一般社団法人,,その他の設立登記法人,東京都,港区,虎ノ門５丁目１番４号,,13,103,1050001,,,,,,,2024-12-19,1,,,,,ジーエイワンレジデンスエイト,0
982,5011001166394,新規,0,2024-12-19,2024-12-19,見山株式会社,,株式会社,東京都,目黒区,大橋１丁目７－１２ソシアルセイワ目黒大橋６０１号室,,13,110,1530044,,,,,,,2024-12-19,1,,,,,ミヤマ,0
983,5011001166659,新規,0,2024-12-19,2024-12-19,株式会社ＣｉｄｒｅＬａｂ,,株式会社,東京都,渋谷区,広尾１丁目１５―７Ｓｔｙｌｅ＆Ｄｅｃｏビル７０３,,13,113,1500012,,,,,,,2024-12-19,1,,,,,シードルラボ,0
984,5011001166700,新規,0,2024-12-19,2024-12-19,株式会社テックワールド,,株式会社,東京都,渋谷区,渋谷２丁目１９―１５宮益坂ビルディング６０９,,13,113,1500002,,,,,,,2024-12-19,1,,,,,テックワールド,0
987,5011003020558,新規,0,2024-12-19,2024-12-19,マキタアセットマネジメント合同会社,,合同会社,東京都,渋谷区,桜丘町２９番２１号カスタリア渋谷櫻丘２０２,,13,113,1500031,,,,,,,2024-12-19,1,,,,,マキタアセットマネジメント,0
990,5011101109939,新規,0,2024-12-19,2024-12-19,川美商事株式会社,,株式会社,東京都,新宿区,西新宿７丁目８番地１１号,,13,104,1600023,,,,,,,2024-12-19,1,,,,,センビショウジ,0
991,5011101109988,新規,0,2024-12-19,2024-12-19,株式会社サーマル・プロップサーチ,,株式会社,東京都,新宿区,西新宿３丁目９番２号,,13,104,1600023,,,,,,,2024-12-19,1,,,,,サーマルプロップサーチ,0
994,5011201025994,新規,0,2024-12-19,2024-12-19,ＡＬＯＨＡ　ＳＥＡＳＯＮ株式会社,,株式会社,東京都,中野区,上鷺宮１丁目１０－９－２０５号室,,13,114,1650031,,,,,,,2024-12-19,1,,,,,アロハシーズン,0
999,5011401026644,新規,0,2024-12-19,2024-12-19,株式会社Ｔｅｃｈ‐Ｐａｒｔｎｅｒｓ,,株式会社,東京都,板橋区,仲宿３番６号,,13,119,1730005,,,,,,,2024-12-19,1,,,,,テックパートナーズ,0
1000,5011401026669,新規,0,2024-12-19,2024-12-19,株式会社ＬｉｎｋＦｏｒｃｅ,,株式会社,東京都,板橋区,南常盤台１丁目１０番７号フロンティアコンフォート板橋常盤台２０１,,13,119,1740072,,,,,,,2024-12-19,1,,,,,リンクフォース,0
1002,5011501031511,新規,0,2024-12-19,2024-12-19,ＭＵＭＵ株式会社,,株式会社,東京都,北区,田端３丁目１１－２ティジュビロ１Ｆ,,13,117,1140014,,,,,,,2024-12-19,1,,,,,ムム,0
1003,5011503006346,新規,0,2024-12-19,2024-12-19,合同会社Ｓ　ａｎｄ　Ｍ　ｃｏｍｐａｎｙ,,合同会社,東京都,北区,上中里２丁目２２番７号コスモ・エステイツ１０３号,,13,117,1140016,,,,,,,2024-12-19,1,,,,,エスアンドエムカンパニー,0
1008,5011701027912,新規,0,2024-12-19,2024-12-19,株式会社ＳＴＡ,,株式会社,東京都,江戸川区,上篠崎２丁目１５番１７号,,13,123,1330054,,,,,,,2024-12-19,1,,,,,エスティーエー,0
1026,5020001160638,新規,0,2024-12-19,2024-12-19,株式会社ＡｙＰ,,株式会社,神奈川県,横浜市中区,山下町７３番地３ＶＡＬＳ山下町ビル１０１,,14,104,2310023,,,,,,,2024-12-19,1,,,,,エーワイピー,0
1027,5020001160646,新規,0,2024-12-19,2024-12-19,株式会社ＺＥＢＲＡ,,株式会社,神奈川県,川崎市中原区,田尻町６６番地２ピース平間４０３,,14,133,2110014,,,,,,,2024-12-19,1,,,,,ゼブラ,0
1028,5020001160662,新規,0,2024-12-19,2024-12-19,株式会社ｎＪＯＹ,,株式会社,神奈川県,川崎市中原区,上小田中３丁目１３番１３－２号,,14,133,2110053,,,,,,,2024-12-19,1,,,,,エヌジョイ,0
1032,5020003027455,新規,0,2024-12-19,2024-12-19,合同会社ひろせ,,合同会社,神奈川県,横浜市戸塚区,戸塚町１８６２－４４－１０５,,14,110,2440003,,,,,,,2024-12-19,1,,,,,ヒロセ,0
1033,5020003027463,新規,0,2024-12-19,2024-12-19,ＲＨコンサルティング合同会社,,合同会社,神奈川県,横浜市緑区,鴨居１丁目１５－２－２０１,,14,113,2260003,,,,,,,2024-12-19,1,,,,,アールエイチコンサルティング,0
1040,5021003015367,新規,0,2024-12-19,2024-12-19,Ｅｎ　ＭＡＲＫＥＴＩＮＧ合同会社,,合同会社,神奈川県,藤沢市,鵠沼橘２丁目９番１７号,,14,205,2510024,,,,,,,2024-12-19,1,,,,,エンマーケティング,0
1052,5040001136628,新規,0,2024-12-19,2024-12-19,株式会社久留里の森,,株式会社,千葉県,君津市,久留里市場９０８番７,,12,225,2920421,,,,,,,2024-12-19,1,,,,,クルリノモリ,0
1053,5040001136644,新規,0,2024-12-19,2024-12-19,株式会社ＶＩＶＩＤ九十九里,,株式会社,千葉県,千葉市緑区,あすみが丘東２丁目１０－７,,12,105,2670067,,,,,,,2024-12-19,1,,,,,ヴィヴィッドクジュウクリ,0
1056,5040003026414,新規,0,2024-12-19,2024-12-19,合同会社アシスト,,合同会社,千葉県,柏市,千代田１丁目１番１３－２０２号,,12,217,2770025,,,,,,,2024-12-19,1,,,,,アシスト,0
1061,5050001055901,新規,0,2024-12-19,2024-12-19,西町デンタルラボ株式会社,,株式会社,茨城県,下妻市,下妻乙１２３番地１,,08,210,3040067,,,,,,,2024-12-19,1,,,,,ニシマチデンタルラボ,0
1065,5070001042468,新規,0,2024-12-19,2024-12-19,株式会社土地管理,,株式会社,群馬県,安中市,鷺宮２２０－２,,10,211,3790124,,,,,,,2024-12-19,1,,,,,トチカンリ,0
1067,5070003005704,新規,0,2024-12-19,2024-12-19,合同会社ＲＥＮＯ,,合同会社,群馬県,太田市,龍舞町１７２２番地１,,10,205,3730806,,,,,,,2024-12-19,1,,,,,リノ,0
1069,5080001026668,新規,0,2024-12-19,2024-12-19,株式会社レンタクル,,株式会社,静岡県,静岡市駿河区,南町４番４１号,,22,102,4228067,,,,,,,2024-12-19,1,,,,,レンタクル,0
1077,5120001271219,新規,0,2024-12-19,2024-12-19,株式会社ＬＩＮ,,株式会社,大阪府,大阪市中央区,大手通１丁目３番７号ベルヴォア大手通２０２号室,,27,128,5400021,,,,,,,2024-12-19,1,,,,,リン,0
1080,5120003028195,新規,0,2024-12-19,2024-12-19,合同会社ＫＪ,,合同会社,大阪府,大阪市東淀川区,西淡路１丁目４番２１－５１１号,,27,114,5330031,,,,,,,2024-12-19,1,,,,,ケイジェイ,0
1082,5120103006200,新規,0,2024-12-19,2024-12-19,合同会社大登,,合同会社,大阪府,岸和田市,藤井町２丁目４番１９号,,27,202,5960046,,,,,,,2024-12-19,1,,,,,ダイト,0
1085,5120903005475,新規,0,2024-12-19,2024-12-19,合同会社ホリ,,合同会社,大阪府,吹田市,長野東２６番２－５０６号,,27,205,5650816,,,,,,,2024-12-19,1,,,,,ホリ,0
1092,5140001136766,新規,0,2024-12-19,2024-12-19,カーサエレーデ株式会社,,株式会社,兵庫県,丹波篠山市,野中１３５番地３,,28,221,6692452,,,,,,,2024-12-19,1,,,,,カーサエレーデ,0
1094,5140003021405,新規,0,2024-12-19,2024-12-19,ＴＨ合同会社,,合同会社,兵庫県,神戸市兵庫区,羽坂通４丁目２－２８,,28,105,6520805,,,,,,,2024-12-19,1,,,,,ティエッチ,0
1106,5180001164557,新規,0,2024-12-19,2024-12-19,株式会社颯瑛アセット,,株式会社,愛知県,春日井市,鳥居松町１丁目１８７番地,,23,206,4860844,,,,,,,2024-12-19,1,,,,,ソウエイアセット,0
1107,5180001164623,新規,0,2024-12-19,2024-12-19,ＵＮＩＳＯ株式会社,,株式会社,愛知県,名古屋市瑞穂区,松月町２丁目２７番地の４,,23,108,4670004,,,,,,,2024-12-19,1,,,,,ユニソ,0
1110,5200001043246,新規,0,2024-12-19,2024-12-19,株式会社Ｃｏｎｔｉｎｕａｔｉｏｎ　Ｓｕｐｐｏｒｔ　Ｈｏｌｄｉｎｇｓ,,株式会社,岐阜県,揖斐郡揖斐川町,房島１８２２番地３,,21,401,5010606,,,,,,,2024-12-19,1,,,,,コンティニュエイションサポートホールディングス,0
1126,5290001108338,新規,0,2024-12-19,2024-12-19,株式会社Ｌｉｖｅｌｙ,,株式会社,福岡県,福岡市東区,香椎照葉２丁目１－２－４０４,,40,131,8130017,,,,,,,2024-12-19,1,,,,,ライブリー,0
1127,5290001108354,新規,0,2024-12-19,2024-12-19,大有株式会社,,株式会社,福岡県,福岡市中央区,大手門３丁目７－９－１Ｗｅ大濠公園６０１号室,,40,133,8100074,,,,,,,2024-12-19,1,,,,,オオアリ,0
1128,5290001108362,新規,0,2024-12-19,2024-12-19,株式会社ソトバコ,,株式会社,福岡県,福岡市中央区,渡辺通５丁目２３番８号,,40,133,8100004,,,,,,,2024-12-19,1,,,,,ソトバコ,0
1133,5290003016183,新規,0,2024-12-19,2024-12-19,合同会社益田,,合同会社,福岡県,糸島市,美咲が丘１丁目２番８号,,40,230,8191136,,,,,,,2024-12-19,1,,,,,マスダ,0
1134,5290801031128,新規,0,2024-12-19,2024-12-19,ダイワホールディングス株式会社,,株式会社,福岡県,京都郡苅田町,鳥越町１番７７,,40,621,8000304,,,,,,,2024-12-19,1,,,,,ダイワホールディングス,0
1148,5390001017826,新規,0,2024-12-19,2024-12-19,株式会社ＦｉｒｓｔＦＬＡＳＨ,,株式会社,山形県,米沢市,春日４丁目２番７５号,,06,202,9920044,,,,,,,2024-12-19,1,,,,,ファーストフラッシュ,0
1156,5430003017092,新規,0,2024-12-19,2024-12-19,合同会社ＹＵ,,合同会社,北海道,虻田郡ニセコ町,字ニセコ３１５番１１０,,01,395,0481511,,,,,,,2024-12-19,1,,,,,ユウ,0
1157,5450005004434,新規,0,2024-12-19,2024-12-19,一般社団法人ルピナス,,その他の設立登記法人,北海道,旭川市,末広東一条１３丁目２番３４号,,01,204,0718121,,,,,,,2024-12-19,1,,,,,ルピナス,0
1163,5700150128292,新規,0,2024-12-19,2024-12-19,ｔａｎｇｐａｉｙｉｌｉａｏｙｏｕｘｉａｎｇｏｎｇｓｉ,,外国会社等,,,,,,,,Ｓｈａｎｄｏｎｇ　Ｐｒｏｖｉｎｃｅ，Ｄｅｚｈｏｕ　Ｃｉｔｙ，Ｑｉｈｅ　Ｃｏｕｎｔｙ，Ｑｉｌｕ　Ｈｉｇｈ　ｔｅｃｈ　Ｄｅｖｅｌｏｐｍｅｎｔ　Ｚｏｎｅ，Ｂｕｉｌｄｉｎｇ　１　ｏｆ　Ｓｕｑｉ，Ｔａｎｇｐａｉ　Ｂｕｉｌｄｉｎｇ　２０１,,,,,,2024-12-19,1,,,,,タンパイイーリャオヨウシエンゴンスー,0
1167,6010001250827,新規,0,2024-12-19,2024-12-19,美行科技株式会社,,株式会社,東京都,中央区,八重洲２丁目１番１号ＹＡＮＭＡＲＴＯＫＹＯ１２階,,13,102,1040028,,,,,,,2024-12-19,1,,,,,ビコウカギ,0
1169,6010005039267,新規,0,2024-12-19,2024-12-19,税理士法人ＴＲＩＣＯＬＯＲＥ,,その他の設立登記法人,東京都,千代田区,神田錦町３丁目１２番地２ＫＴ第２ビル２Ｆ,,13,101,1010054,,,,,,,2024-12-19,1,,,,,トリコロール,0
1170,6010005039291,新規,0,2024-12-19,2024-12-19,一般社団法人Ｔｈｅ　Ｐｅａｋ　Ｓｅｒｉｅｓ　ＸＩＩ,,その他の設立登記法人,東京都,千代田区,四番町４番地９新東京国際リーガル内,,13,101,1020081,,,,,,,2024-12-19,1,,,,,ザピークシリーズトゥエルブ,0
1173,6010401187009,新規,0,2024-12-19,2024-12-19,株式会社デジタルフロンティア,,株式会社,東京都,港区,芝浦３丁目１７番１１号天翔田町ビル９０８,,13,103,1080023,,,,,,,2024-12-19,1,,,,,デジタルフロンティア,0
1174,6010401187066,新規,0,2024-12-19,2024-12-19,株式会社ウェルビーイングローバル,,株式会社,東京都,港区,南青山２丁目２番１５号ウィン青山９４２,,13,103,1070062,,,,,,,2024-12-19,1,,,,,ウェルビーイングローバル,0
1175,6010401187082,新規,0,2024-12-19,2024-12-19,株式会社Ｌｕｎｅｒｅ,,株式会社,東京都,港区,赤坂６丁目１５番１号３Ｆ赤坂ミツワビル別館,,13,103,1070052,,,,,,,2024-12-19,1,,,,,リュネール,0
1176,6010401187090,新規,0,2024-12-19,2024-12-19,山梨エステート株式会社,,株式会社,東京都,港区,虎ノ門２丁目６番１号,,13,103,1050001,,,,,,,2024-12-19,1,,,,,ヤマナシエステート,0
1177,6010401187099,新規,0,2024-12-19,2024-12-19,株式会社きたはま,,株式会社,東京都,港区,東麻布２丁目３番１１号Ｂ１階,,13,103,1060044,,,,,,,2024-12-19,1,,,,,キタハマ,0
1178,6010401187108,新規,0,2024-12-19,2024-12-19,マナバイズ株式会社,,株式会社,東京都,港区,芝浦４丁目１９番１号,,13,103,1080023,,,,,,,2024-12-19,1,,,,,マナバイズ,0
1179,6010401187116,新規,0,2024-12-19,2024-12-19,株式会社Ｎｅｏ　Ｓｐｏｒｔｓ　Ｉｎｓｉｇｈｔ,,株式会社,東京都,港区,東麻布１丁目２６番２号,,13,103,1060044,,,,,,,2024-12-19,1,,,,,ネオスポーツインサイト,0
1181,6010403034019,新規,0,2024-12-19,2024-12-19,合同会社ＩＧＵＮＡＬ,,合同会社,東京都,港区,三田１丁目２－２４パークウェル麻布十番弐番館９０４,,13,103,1080073,,,,,,,2024-12-19,1,,,,,イグナル,0
1182,6010403034043,新規,0,2024-12-19,2024-12-19,ＴＸ１０号合同会社,,合同会社,東京都,港区,浜松町２丁目２番１５号浜松町ダイヤビル２Ｆ,,13,103,1050013,,,,,,,2024-12-19,1,,,,,ティーエックスジュウゴウ,0
1183,6010405023911,新規,0,2024-12-19,2024-12-19,一般社団法人トラノモンＲＥ４ＧＰ,,その他の設立登記法人,東京都,港区,虎ノ門３丁目２２番１０－２０１号,,13,103,1050001,,,,,,,2024-12-19,1,,,,,トラノモンアールイーフォージーピー,0
1184,6010501053374,新規,0,2024-12-19,2024-12-19,株式会社ａｗｅｓｏｍｅ,,株式会社,東京都,台東区,上野２丁目１０番４号池之端会館ビルディング５階,,13,106,1100005,,,,,,,2024-12-19,1,,,,,オーサム,0
1198,6010901056522,新規,0,2024-12-19,2024-12-19,ハウスフル株式会社,,株式会社,東京都,世田谷区,池尻２丁目３７番１２－８０１,,13,112,1540001,,,,,,,2024-12-19,1,,,,,ハウスフル,0
1199,6010901056530,新規,0,2024-12-19,2024-12-19,株式会社ザルツホーム,,株式会社,東京都,世田谷区,太子堂５丁目２９番１８－６０３号,,13,112,1540004,,,,,,,2024-12-19,1,,,,,ザルツホーム,0
1200,6010903009585,新規,0,2024-12-19,2024-12-19,Ａｂｅｓｔ合同会社,,合同会社,東京都,世田谷区,北烏山１丁目５３番２号,,13,112,1570061,,,,,,,2024-12-19,1,,,,,エーベスト,0
1206,6011001166360,新規,0,2024-12-19,2024-12-19,株式会社達川,,株式会社,東京都,渋谷区,渋谷２丁目１９番１９号ワコー宮益坂ビル５階,,13,113,1500002,,,,,,,2024-12-19,1,,,,,タツカワ,0
1207,6011001166369,新規,0,2024-12-19,2024-12-19,クオンタムファブリック株式会社,,株式会社,東京都,渋谷区,渋谷２丁目２４－１２－３９Ｆ・ｂｌｕｅｑａｔ内,,13,113,1500002,,,,,,,2024-12-19,1,,,,,クオンタムファブリック,0
1208,6011001166377,新規,0,2024-12-19,2024-12-19,株式会社ｙｏｕｒＶｉｎｔａｇｅ,,株式会社,東京都,渋谷区,恵比寿４丁目１８－１－４１３号,,13,113,1500013,,,,,,,2024-12-19,1,,,,,ユーアーヴィンテージ,0
1209,6011001166385,新規,0,2024-12-19,2024-12-19,株式会社ｔｒｉａ,,株式会社,東京都,渋谷区,代々木２丁目６番８号中島第一ビル７Ｆ,,13,113,1510053,,,,,,,2024-12-19,1,,,,,トリア,0
1210,6011001166402,新規,0,2024-12-19,2024-12-19,株式会社インキュバリュー・リアルエステート,,株式会社,東京都,目黒区,東が丘１丁目６番１５号サンセリテ東が丘壱番館１０１,,13,110,1520021,,,,,,,2024-12-19,1,,,,,インキュバリューリアルエステート,0
1213,6011101109946,新規,0,2024-12-19,2024-12-19,株式会社ＡＲＢＲＥ,,株式会社,東京都,新宿区,西新宿６丁目１５番１－３８１５号,,13,104,1600023,,,,,,,2024-12-19,1,,,,,アーブル,0
1214,6011101109979,新規,0,2024-12-19,2024-12-19,株式会社ＡＣＴＡＳＩＡ,,株式会社,東京都,新宿区,北新宿２丁目６番２９－４２５号,,13,104,1690074,,,,,,,2024-12-19,1,,,,,アクタージア,0
1219,6011401026643,新規,0,2024-12-19,2024-12-19,金海航株式会社,,株式会社,東京都,板橋区,南常盤台１丁目１６－１５嶋崎第二ビル４０１号,,13,119,1740072,,,,,,,2024-12-19,1,,,,,キンカイコウ,0
1220,6011401026668,新規,0,2024-12-19,2024-12-19,株式会社ＫｏｕＲｙｕ,,株式会社,東京都,板橋区,蓮根２丁目１２番１２号,,13,119,1740046,,,,,,,2024-12-19,1,,,,,コウリュウ,0
1221,6011401026676,新規,0,2024-12-19,2024-12-19,株式会社ＨＳアカデメイア,,株式会社,東京都,板橋区,西台４丁目３番５－１０６号,,13,119,1750045,,,,,,,2024-12-19,1,,,,,エイチエスアカデメイア,0
1233,6013305003677,新規,0,2024-12-19,2024-12-19,プログレス監査法人,,その他の設立登記法人,東京都,豊島区,西池袋１丁目９－１１カーサ池袋２０９号,,13,116,1710021,,,,,,,2024-12-19,1,,,,,プログレス,0
1240,6020001160604,新規,0,2024-12-19,2024-12-19,株式会社ｆａｍｉｌｙ　ｂａｓｅ,,株式会社,神奈川県,川崎市川崎区,駅前本町１８番地１メルスサイト－７０２,,14,131,2100007,,,,,,,2024-12-19,1,,,,,ファミリーベース,0
1241,6020001160645,新規,0,2024-12-19,2024-12-19,株式会社サンクチュアリＥＸ,,株式会社,神奈川県,横浜市中区,福富町東通３８番地３,,14,104,2310044,,,,,,,2024-12-19,1,,,,,サンクチュアリイーエックス,0
1242,6020001160661,新規,0,2024-12-19,2024-12-19,株式会社ｔｏｐｅ,,株式会社,神奈川県,川崎市中原区,下小田中１丁目２５番１４号,,14,133,2110041,,,,,,,2024-12-19,1,,,,,トープ,0
1247,6020003027446,新規,0,2024-12-19,2024-12-19,合同会社クラリス,,合同会社,神奈川県,横浜市瀬谷区,阿久和西１丁目１－２ナイスアーバンステイツ三ツ境１０１,,14,114,2460025,,,,,,,2024-12-19,1,,,,,クラリス,0
1248,6020003027470,新規,0,2024-12-19,2024-12-19,合同会社バンブーウィン,,合同会社,神奈川県,横浜市戸塚区,矢部町１６６６番地４５,,14,110,2440002,,,,,,,2024-12-19,1,,,,,バンブーウィン,0
1249,6020003027487,新規,0,2024-12-19,2024-12-19,合同会社ＨＡＲＥ,,合同会社,神奈川県,川崎市麻生区,万福寺５丁目１７番１号,,14,137,2150004,,,,,,,2024-12-19,1,,,,,ハレ,0
1250,6020005016653,新規,0,2024-12-19,2024-12-19,医療法人こかげ,,その他の設立登記法人,神奈川県,横浜市神奈川区,台町１４番地１５栄ビル４階,,14,102,2210834,,,,,,,2024-12-19,1,,,,,コカゲ,0
1256,6021003015366,新規,0,2024-12-19,2024-12-19,合同会社ＭＡＸＸ　ＡＵＴＯ,,合同会社,神奈川県,藤沢市,葛原１４０番地の１,,14,205,2520822,,,,,,,2024-12-19,1,,,,,マックスオート,0
1258,6030002125563,新規,0,2024-12-19,2024-12-19,有限会社セキグチ測量,,有限会社,埼玉県,熊谷市,宮町１丁目６７番地,,11,202,3600041,,,,,,,2024-12-19,1,,,,,,0
1263,6040001136619,新規,0,2024-12-19,2024-12-19,株式会社Ｇｌｏｉｒｅ,,株式会社,千葉県,市川市,本行徳１１－６カーサＮラランジャ１０１,,12,203,2720103,,,,,,,2024-12-19,1,,,,,グロワール,0
1275,6070001042467,新規,0,2024-12-19,2024-12-19,株式会社ＹＯＵ‐ＴＯＮＥ,,株式会社,群馬県,前橋市,上小出町３丁目５９番地２０,,10,201,3710037,,,,,,,2024-12-19,1,,,,,ユートーン,0
1290,6100003007919,新規,0,2024-12-19,2024-12-19,合同会社上町屋,,合同会社,長野県,松本市,浅間温泉２丁目８番１０－２号,,20,202,3900303,,,,,,,2024-12-19,1,,,,,アゲマチヤ,0
1306,6120001271234,新規,0,2024-12-19,2024-12-19,ＷＵＲＱ株式会社,,株式会社,大阪府,大阪市大正区,三軒家西３丁目４番１６号中山ビル１０１９,,27,108,5510001,,,,,,,2024-12-19,1,,,,,ワーキュウー,0
1307,6120001271242,新規,0,2024-12-19,2024-12-19,株式会社アイビス設備,,株式会社,大阪府,大阪市此花区,高見１丁目７番１５－３００２号,,27,104,5540001,,,,,,,2024-12-19,1,,,,,アイビスセツビ,0
1308,6120001271259,新規,0,2024-12-19,2024-12-19,株式会社浦瑞夫,,株式会社,大阪府,大阪市住吉区,遠里小野６丁目１７番１８号３０２号室,,27,120,5580032,,,,,,,2024-12-19,1,,,,,プライフ,0
1310,6120003028186,新規,0,2024-12-19,2024-12-19,合同会社ＪＳＴ,,合同会社,大阪府,大阪市中央区,南船場２丁目２番４号８Ｆ,,27,128,5420081,,,,,,,2024-12-19,1,,,,,ジェイエスティー,0
1311,6120101070767,新規,0,2024-12-19,2024-12-19,浄心社株式会社,,株式会社,大阪府,岸和田市,阿間河滝町２０９２番地,,27,202,5960845,,,,,,,2024-12-19,1,,,,,ジョウシンシャ,0
1312,6120101070783,新規,0,2024-12-19,2024-12-19,株式会社ＴＫ　ｅｓｔａｔｅ,,株式会社,大阪府,堺市中区,平井８５３番地１１,,27,142,5998251,,,,,,,2024-12-19,1,,,,,ティーケーエステイト,0
1320,6130001078562,新規,0,2024-12-19,2024-12-19,株式会社プラムワン,,株式会社,京都府,京都市伏見区,醍醐御園尾町１番地の６６,,26,109,6011353,,,,,,,2024-12-19,1,,,,,プラムワン,0
1327,6140001136749,新規,0,2024-12-19,2024-12-19,株式会社Ａｏｉ,,株式会社,兵庫県,姫路市,書写台３丁目５７番地,,28,201,6712203,,,,,,,2024-12-19,1,,,,,アオイ,0
1328,6140001136765,新規,0,2024-12-19,2024-12-19,株式会社Ｕ‐ＬＩＭ,,株式会社,兵庫県,西宮市,今津出在家町９番２０号,,28,204,6638227,,,,,,,2024-12-19,1,,,,,ユーリム,0
1329,6140001136773,新規,0,2024-12-19,2024-12-19,株式会社川口興業,,株式会社,兵庫県,姫路市,余部区上余部２１８番地５,,28,201,6711262,,,,,,,2024-12-19,1,,,,,カワグチコウギョウ,0
1330,6140001136781,新規,0,2024-12-19,2024-12-19,株式会社西田商店,,株式会社,兵庫県,西宮市,中浜町１番２４号,,28,204,6620952,,,,,,,2024-12-19,1,,,,,ニシダショウテン,0
1331,6140003021420,新規,0,2024-12-19,2024-12-19,合同会社ＬｉｎｋＮＳＳ,,合同会社,兵庫県,伊丹市,鈴原町４丁目３５番地ジオ伊丹鈴原１１２号室,,28,207,6640882,,,,,,,2024-12-19,1,,,,,リンクエヌエスエス,0
1332,6140003021429,新規,0,2024-12-19,2024-12-19,美鍼堂合同会社,,合同会社,兵庫県,神戸市中央区,元町通１丁目１３－１１－６Ｆ－Ｂ,,28,110,6500022,,,,,,,2024-12-19,1,,,,,ビシンドウ,0
1340,6180001164597,新規,0,2024-12-19,2024-12-19,株式会社Ｒ１ＫａＫＹＯ,,株式会社,愛知県,名古屋市守山区,高島町１７番地,,23,113,4630095,,,,,,,2024-12-19,1,,,,,リカキョ,0
1341,6180001164622,新規,0,2024-12-19,2024-12-19,ＬＡＮＸＩＮ　ＲＯＢＯＴＩＣＳ　ＪＡＰＡＮ株式会社,,株式会社,愛知県,名古屋市港区,泰明町１丁目５,,23,111,4550069,,,,,,,2024-12-19,1,,,,,ランシンロボティクスジャパン,0
1342,6180001164630,新規,0,2024-12-19,2024-12-19,株式会社スターコロン,,株式会社,愛知県,稲沢市,稲島町洲原２７７０番地１アトレ国府宮グレイシア５０４,,23,220,4928207,,,,,,,2024-12-19,1,,,,,スターコロン,0
1349,6180301039350,新規,0,2024-12-19,2024-12-19,株式会社岡崎訪問看護ステーション,,株式会社,愛知県,岡崎市,岩津町字檀ノ上１４２番地１２,,23,202,4442144,,,,,,,2024-12-19,1,,,,,オカザキホウモンカンゴステーション,0
1374,6290001108329,新規,0,2024-12-19,2024-12-19,株式会社ＵＮＤ,,株式会社,福岡県,福岡市博多区,須崎町５番１７号ＬＡＭＰ須崎１階Ｂ号室,,40,132,8120028,,,,,,,2024-12-19,1,,,,,ユーエヌディー,0
1375,6290001108361,新規,0,2024-12-19,2024-12-19,株式会社エン・コネクト,,株式会社,福岡県,福岡市東区,みどりが丘２丁目１３番５号,,40,131,8130021,,,,,,,2024-12-19,1,,,,,エンコネクト,0
1382,6290003016182,新規,0,2024-12-19,2024-12-19,金順合同会社,,合同会社,福岡県,福岡市東区,香住ヶ丘２丁目８－１２ドムール香住ヶ丘３０２号室,,40,131,8130003,,,,,,,2024-12-19,1,,,,,キンジュン,0
1389,6330005010856,新規,0,2024-12-19,2024-12-19,医療法人岩本整形外科,,その他の設立登記法人,熊本県,合志市,豊岡２０００番地２４７４,,43,216,8611115,,,,,,,2024-12-19,1,,,,,イワモトセイケイゲカ,0
1408,6430001093283,新規,0,2024-12-19,2024-12-19,株式会社ＡｎｄＬｅｇａｌ　Ｒａｃｉｎｇ,,株式会社,北海道,苫小牧市,日の出町２丁目１４番１８号,,01,213,0530043,,,,,,,2024-12-19,1,,,,,アンドリーガルレーシング,0
1409,6430001093300,新規,0,2024-12-19,2024-12-19,株式会社清平産業,,株式会社,北海道,札幌市豊平区,福住三条１０丁目８番１０号,,01,105,0620043,,,,,,,2024-12-19,1,,,,,キヨヒラサンギョウ,0
1418,6700150128291,新規,0,2024-12-19,2024-12-19,Ｓｕｎｗｅｌｌ　ｓｃｉｅｎｃｅ　＆　Ｔｅｃｈｎｏｌｏｇｙ　Ｃｏ．，Ｌｔｄ,,外国会社等,,,,,,,,ＦＬＡＴ／ＲＭ　１２０１，１２／Ｆ，ＴＡＩ　ＳＡＮＧ　ＢＡＮＫ　ＢＵＩＬＤＩＮＧ，１３０－１３２　ＤＥＳ　ＶＯＥＵＸ　ＲＯＡＤ　ＣＥＮＴＲＡＬ，ＨＫ,,,,,,2024-12-19,1,,,,,サンウェルサイエンスアンドテクノロジーカンパニーリミテッド,0
1424,7010001250826,新規,0,2024-12-19,2024-12-19,株式会社ＥＶＯＬＶＥ,,株式会社,東京都,中央区,銀座１丁目２２番１１号銀座大竹ビジデンス２Ｆ,,13,102,1040061,,,,,,,2024-12-19,1,,,,,エヴォルブ,0
1426,7010003045852,新規,0,2024-12-19,2024-12-19,二条城前ホテル合同会社,,合同会社,東京都,千代田区,平河町１丁目６番１５号シルスフィア会計事務所内,,13,101,1020093,,,,,,,2024-12-19,1,,,,,ニジョウジョウマエホテル,0
1431,7010005039290,新規,0,2024-12-19,2024-12-19,一般社団法人Ｔｈｅ　Ｐｅａｋ　Ｓｅｒｉｅｓ　ＸＩ,,その他の設立登記法人,東京都,千代田区,四番町４番地９新東京国際リーガル内,,13,101,1020081,,,,,,,2024-12-19,1,,,,,ザピークシリーズイレブン,0
1437,7010401187057,新規,0,2024-12-19,2024-12-19,株式会社Ｂｌａｚｅ,,株式会社,東京都,港区,芝２丁目２９番７－２０６号,,13,103,1050014,,,,,,,2024-12-19,1,,,,,ブレイズ,0
1438,7010401187098,新規,0,2024-12-19,2024-12-19,ＧＩＶＥ＆ＴＡＫＥ株式会社,,株式会社,東京都,港区,赤坂４丁目８番１９号赤坂フロントタウン３階,,13,103,1070052,,,,,,,2024-12-19,1,,,,,ギブアンドテイク,0
1439,7010401187123,新規,0,2024-12-19,2024-12-19,川森株式会社,,株式会社,東京都,港区,赤坂２丁目２１－４－５０６－Ｃ天翔オフィス赤坂ＡＮＮＥＸ,,13,103,1070052,,,,,,,2024-12-19,1,,,,,カワモリ,0
1440,7010403034042,新規,0,2024-12-19,2024-12-19,ＴＸ９号合同会社,,合同会社,東京都,港区,浜松町２丁目２番１５号浜松町ダイヤビル２Ｆ,,13,103,1050013,,,,,,,2024-12-19,1,,,,,ティーエックスキュウゴウ,0
1441,7010501053373,新規,0,2024-12-19,2024-12-19,株式会社会,,株式会社,東京都,台東区,浅草７丁目３番１号,,13,106,1110032,,,,,,,2024-12-19,1,,,,,アウ,0
1442,7010503007674,新規,0,2024-12-19,2024-12-19,合同会社ＹＮサービス,,合同会社,東京都,台東区,浅草６丁目２２番１６－３０１,,13,106,1110032,,,,,,,2024-12-19,1,,,,,ワイエヌサービス,0
1444,7010601066473,新規,0,2024-12-19,2024-12-19,楽川株式会社,,株式会社,東京都,墨田区,両国２丁目１番５号第二鈴木ビル２階,,13,107,1300026,,,,,,,2024-12-19,1,,,,,ラクガワ,0
1452,7010901056513,新規,0,2024-12-19,2024-12-19,アイムサービス株式会社,,株式会社,東京都,世田谷区,三宿２丁目７番９号１階,,13,112,1540005,,,,,,,2024-12-19,1,,,,,アイムサービス,0
1459,7011001166401,新規,0,2024-12-19,2024-12-19,株式会社サニーゲート,,株式会社,東京都,渋谷区,恵比寿西２丁目４番８号ウィンド恵比寿ビル８Ｆ,,13,113,1500021,,,,,,,2024-12-19,1,,,,,サニーゲート,0
1460,7011001166434,新規,0,2024-12-19,2024-12-19,株式会社Ｒｅｃｋ,,株式会社,東京都,渋谷区,円山町２８番４号大場ビルＡ館６Ｆ－６ｂ,,13,113,1500044,,,,,,,2024-12-19,1,,,,,レック,0
1461,7011001166632,新規,0,2024-12-19,2024-12-19,株式会社Ｌｉｇｈｔｈｏｕｓｅ３,,株式会社,東京都,渋谷区,渋谷２丁目１９番１５－６０９号宮益坂ビルディング,,13,113,1500002,,,,,,,2024-12-19,1,,,,,ライトハウスリー,0
1462,7011003020564,新規,0,2024-12-19,2024-12-19,Ｑｏｒｎ合同会社,,合同会社,東京都,渋谷区,神南１丁目１１番４号ＦＰＧリンクス神南５階,,13,113,1500041,,,,,,,2024-12-19,1,,,,,コーン,0
1465,7011101109945,新規,0,2024-12-19,2024-12-19,ドラマップ株式会社,,株式会社,東京都,新宿区,西新宿３丁目３番１３号西新宿水間ビル２Ｆ,,13,104,1600023,,,,,,,2024-12-19,1,,,,,ドラマップ,0
1466,7011101109953,新規,0,2024-12-19,2024-12-19,大宗物産株式会社,,株式会社,東京都,新宿区,西新宿５丁目５番１－５６１０号ザ・パークハウス西新宿タワー６０,,13,104,1600023,,,,,,,2024-12-19,1,,,,,タイソウブッサン,0
1467,7011103015316,新規,0,2024-12-19,2024-12-19,合同会社ＴＥＰＰＥＫＩ,,合同会社,東京都,新宿区,新宿１丁目３６番２号第七葉山ビル４Ｆ,,13,104,1600022,,,,,,,2024-12-19,1,,,,,テッペキ,0
1470,7011401026659,新規,0,2024-12-19,2024-12-19,株式会社Ｔａｋｕ,,株式会社,東京都,板橋区,舟渡３丁目２３番５号ＡＺＥＳＴ－ＲＥＮＴ浮間舟渡Ｉ２０２,00137379,13,119,1740041,,,,,,,2024-12-19,1,,,,,タク,0
1471,7011401026675,新規,0,2024-12-19,2024-12-19,株式会社サンショー,,株式会社,東京都,板橋区,栄町２２番２号メゾンブランシュ３０２,,13,119,1730015,,,,,,,2024-12-19,1,,,,,サンショー,0
1480,7011701027910,新規,0,2024-12-19,2024-12-19,雲外株式会社,,株式会社,東京都,江戸川区,江戸川６丁目４０番１４－２１８号,,13,123,1340013,,,,,,,2024-12-19,1,,,,,ユンガイ,0
1482,7011801045325,新規,0,2024-12-19,2024-12-19,株式会社ＧＯＫＯＨの仲介,,株式会社,東京都,足立区,関原３丁目２９番１－３０１号,,13,121,1230852,,,,,,,2024-12-19,1,,,,,ゴコウノチュウカイ,0
1484,7012401042588,新規,0,2024-12-19,2024-12-19,アナリシア株式会社,,株式会社,東京都,調布市,布田４丁目１８番１号,,13,208,1820024,,,,,,,2024-12-19,1,,,,,アナリシア,0
1491,7013305003676,新規,0,2024-12-19,2024-12-19,税理士法人マネジメント・サポート,,その他の設立登記法人,東京都,豊島区,西池袋５丁目４番７号池袋トーセイビル８階,,13,116,1710021,,,,,,,2024-12-19,1,,,,,マネジメントサポート,0
1497,7020001160644,新規,0,2024-12-19,2024-12-19,株式会社ＧＩＰＳＹ　ＳＬＯＷ,,株式会社,神奈川県,横浜市中区,宮川町３丁目８５番地１１ロイヤルフラット野毛山弐番館３０５,,14,104,2310065,,,,,,,2024-12-19,1,,,,,ジプシースロー,0
1500,7020003027437,新規,0,2024-12-19,2024-12-19,合同会社ＳＰＴ,,合同会社,神奈川県,横浜市中区,吉田町６４－３ＬＡＺ桜木町ビルディング５０１,,14,104,2310041,,,,,,,2024-12-19,1,,,,,エスピーティー,0
1501,7020003027461,新規,0,2024-12-19,2024-12-19,Ａ‐ｊｉｔ合同会社,,合同会社,神奈川県,川崎市宮前区,宮崎１丁目９番地４４宮崎台フェニックス２０３,,14,136,2160033,,,,,,,2024-12-19,1,,,,,エージット,0
1504,7021003015365,新規,0,2024-12-19,2024-12-19,ＷＥ　ＴＥＡＭ合同会社,,合同会社,神奈川県,横須賀市,日の出町１丁目７－１４大房ビル２階,,14,201,2380006,,,,,,,2024-12-19,1,,,,,ウィーチーム,0
1505,7021005013243,新規,0,2024-12-19,2024-12-19,一般社団法人平英,,その他の設立登記法人,神奈川県,平塚市,西八幡３丁目４番４４号,,14,203,2540073,,,,,,,2024-12-19,1,,,,,ヒラエイ,0
1517,7040001136634,新規,0,2024-12-19,2024-12-19,株式会社小さな暮らし研究所,,株式会社,千葉県,船橋市,二宮１丁目２５番２号,,12,204,2740823,,,,,,,2024-12-19,1,,,,,チイサナクラシケンキュウジョ,0
1518,7040001136642,新規,0,2024-12-19,2024-12-19,株式会社方敬,,株式会社,千葉県,浦安市,猫実４丁目１８番２１－２０３号博栄ビル,,12,227,2790004,,,,,,,2024-12-19,1,,,,,マサキョウ,0
1523,7040003026429,新規,0,2024-12-19,2024-12-19,合同会社ＣＯＨＡＲＵＫＡ,,合同会社,千葉県,君津市,小山野６２４－１,,12,225,2991126,,,,,,,2024-12-19,1,,,,,コハルカ,0
1532,7080001026666,新規,0,2024-12-19,2024-12-19,株式会社アイオネット,,株式会社,静岡県,静岡市駿河区,池田８６９番地ＩＲＩＳ池田ビル３Ｆ（Ｃ号室）,,22,102,4228005,,,,,,,2024-12-19,1,,,,,アイオネット,0
1539,7080403005169,新規,0,2024-12-19,2024-12-19,合同会社上野,,合同会社,静岡県,浜松市浜名区,新都田２丁目２１番１号,,22,139,4312103,,,,,,,2024-12-19,1,,,,,ウエノ,0
1540,7090001019058,新規,0,2024-12-19,2024-12-19,株式会社エスリンク,,株式会社,山梨県,中巨摩郡昭和町,飯喰１３６６番地１,,19,384,4093852,,,,,,,2024-12-19,1,,,,,エスリンク,0
1550,7120001271084,新規,0,2024-12-19,2024-12-19,ＷＩＢ株式会社,,株式会社,大阪府,大阪市西区,土佐堀３丁目３番２－１３０１号,,27,106,5500001,,,,,,,2024-12-19,1,,,,,ダブリューアイビー,0
1551,7120001271217,新規,0,2024-12-19,2024-12-19,株式会社ストーンズ,,株式会社,大阪府,大阪市北区,曾根崎新地１丁目１番２８号７Ｆ,,27,127,5300002,,,,,,,2024-12-19,1,,,,,ストーンズ,0
1552,7120001271233,新規,0,2024-12-19,2024-12-19,幸萱天地株式会社,,株式会社,大阪府,大阪市大正区,三軒家西３丁目４番１６号中山ビル１０１６,,27,108,5510001,,,,,,,2024-12-19,1,,,,,コウケンテンチ,0
1553,7120001271241,新規,0,2024-12-19,2024-12-19,一博国際教育株式会社,,株式会社,大阪府,大阪市生野区,巽北２丁目１０番１７号,,27,116,5440004,,,,,,,2024-12-19,1,,,,,カズヒロコクサイキョウイク,0
1554,7120001271274,新規,0,2024-12-19,2024-12-19,順易利株式会社,,株式会社,大阪府,大阪市中央区,平野町１丁目８番１３号平野町八千代ビル３階,,27,128,5410046,,,,,,,2024-12-19,1,,,,,ジュンイリ,0
1562,7120101070782,新規,0,2024-12-19,2024-12-19,ハブウェイエアポートサービスジャパン株式会社,,株式会社,大阪府,泉佐野市,高松東１丁目１０番３７号泉佐野センタービル４１２号,,27,213,5980012,,,,,,,2024-12-19,1,,,,,ハブウェイエアポートサービスジャパン,0
1565,7122001038744,新規,0,2024-12-19,2024-12-19,株式会社ティー・エム・エス,,株式会社,大阪府,大東市,諸福５丁目１番２７号,,27,218,5740044,,,,,,,2024-12-19,1,,,,,ティーエムエス,0
1573,7140001136764,新規,0,2024-12-19,2024-12-19,株式会社Ｍｙ　Ｐｌｅａｓｕｒｅ,,株式会社,兵庫県,加古川市,加古川町粟津４０８番地の１,,28,210,6750039,,,,,,,2024-12-19,1,,,,,マイプレジャー,0
1574,7140001136772,新規,0,2024-12-19,2024-12-19,株式会社Ｄ‐ＳＴＡＣＫ,,株式会社,兵庫県,伊丹市,中央１丁目５番５号ボントンビル４階,,28,207,6640851,,,,,,,2024-12-19,1,,,,,ディースタック,0
1575,7140001136780,新規,0,2024-12-19,2024-12-19,株式会社Ｍ＆Ｙ,,株式会社,兵庫県,神戸市西区,平野町堅田３３８番地,,28,111,6512261,,,,,,,2024-12-19,1,,,,,エムアンドワイ,0
1586,7190001031878,新規,0,2024-12-19,2024-12-19,株式会社ｃ．ｂ．,,株式会社,三重県,四日市市,新正３丁目１９番１０号,,24,202,5100064,,,,,,,2024-12-19,1,,,,,コルバッソ,0
1588,7190003004873,新規,0,2024-12-19,2024-12-19,合同会社ＳＮ,,合同会社,三重県,四日市市,西新地９番８号,,24,202,5100087,,,,,,,2024-12-19,1,,,,,エスエヌ,0
1589,7190003004881,新規,0,2024-12-19,2024-12-19,ＳＨＩＮＥ．ＡＵＴＯ．ＰＡＲＴＳ合同会社,,合同会社,三重県,三重郡菰野町,大字榊９３８番地９４‐３号室,,24,341,5101325,,,,,,,2024-12-19,1,,,,,シャインオートパーツ,0
1591,7200001043244,新規,0,2024-12-19,2024-12-19,株式会社マハロ,,株式会社,岐阜県,本巣市,文殊５７番地１１,,21,218,5011203,,,,,,,2024-12-19,1,,,,,マハロ,0
1593,7200003006629,新規,0,2024-12-19,2024-12-19,朝日興産合同会社,,合同会社,岐阜県,岐阜市,福光西３丁目１３番１５号,,21,201,5020814,,,,,,,2024-12-19,1,,,,,アサヒコウサン,0
1603,7250003003605,新規,0,2024-12-19,2024-12-19,よろず屋ＫＡＮ合同会社,,合同会社,山口県,岩国市,中津町１丁目２１－１９,,35,208,7400027,,,,,,,2024-12-19,1,,,,,ヨロズヤカン,0
1623,7330001032738,新規,0,2024-12-19,2024-12-19,株式会社平原商事,,株式会社,熊本県,宇城市,三角町戸馳３１８０番地,,43,213,8693203,,,,,,,2024-12-19,1,,,,,ヒラバルショウジ,0
1627,7360003014525,新規,0,2024-12-19,2024-12-19,合同会社Ｋｏｔｉ,,合同会社,沖縄県,那覇市,三原２丁目３３番１４号,,47,201,9020063,,,,,,,2024-12-19,1,,,,,コチ,0
1634,7430001093299,新規,0,2024-12-19,2024-12-19,株式会社ＲｏｕｎｄＥｙｅｓ,,株式会社,北海道,札幌市中央区,南五条西１５丁目２－３リズム医大前５０３号室,,01,101,0640805,,,,,,,2024-12-19,1,,,,,ラウンドアイズ,0
1638,7430003017082,新規,0,2024-12-19,2024-12-19,合同会社ＴＲクオリア,,合同会社,北海道,札幌市中央区,南七条西９丁目１０２４－８－４０７,,01,101,0640807,,,,,,,2024-12-19,1,,,,,ティーアールクオリア,0
1641,7700150128290,新規,0,2024-12-19,2024-12-19,ｓｈｅｎｚｈｅｎｊｉｎｙｕｅｋｅｊｉｙｏｕｘｉａｎｇｏｎｇｓｉ,,外国会社等,,,,,,,,ｌｏｎｇｃｈｅｎｇｊｉｅｄａｏａｉｌｉａｎｓｈｅｑｕ　ａｉｌｉａｎｌｕ５４ｈａｏ２０２　Ｓｈｅｎｚｈｅｎ　Ｃｉｔｙ　Ｌｏｎｇｇａｎｇ　Ｄｉｓｔｒｉｃｔ　Ｇｕａｎｇｄｏｎｇ,,,,,,2024-12-19,1,,,,,シェンジェンジンユエコーァジーヨウシエンゴーンスー,0
1648,8010001250734,新規,0,2024-12-19,2024-12-19,ｃｅｌｌｓ　ｌａｂｏ株式会社,,株式会社,東京都,中央区,銀座１丁目２２番１１号銀座大竹ビジデンス２Ｆ,,13,102,1040061,,,,,,,2024-12-19,1,,,,,セルスラボ,0
1649,8010001250817,新規,0,2024-12-19,2024-12-19,株式会社Ｒｅｄｃａｔ,,株式会社,東京都,千代田区,神田須田町１丁目７番８号ＶＯＲＴ秋葉原ＩＶ２Ｆ,00137380,13,101,1010041,,,,,,,2024-12-19,1,,,,,レッドキャット,0
1651,8010003045827,新規,0,2024-12-19,2024-12-19,合同会社久富,,合同会社,東京都,千代田区,鍛冶町２丁目９番１７号柴崎ビル３階,,13,101,1010044,,,,,,,2024-12-19,1,,,,,ヒサトミ,0
1659,8010401187089,新規,0,2024-12-19,2024-12-19,Ｇ３Ｊａｐａｎ株式会社,,株式会社,東京都,港区,白金１丁目２番１号白金ザ・スカイ東棟８０４号,,13,103,1080072,,,,,,,2024-12-19,1,,,,,ジースリージャパン,0
1660,8010401187114,新規,0,2024-12-19,2024-12-19,株式会社ＢａｓｅＨｕｂ,,株式会社,東京都,港区,南青山７丁目８番４号高樹ハイツ９０１,,13,103,1070062,,,,,,,2024-12-19,1,,,,,ベースハブ,0
1665,8010403034025,新規,0,2024-12-19,2024-12-19,合同会社ファイブバック,,合同会社,東京都,港区,麻布台１丁目３番１号麻布台ヒルズ森ＪＰタワー１７階,,13,103,1060041,,,,,,,2024-12-19,1,,,,,ファイブバック,0
1666,8010403034033,新規,0,2024-12-19,2024-12-19,イーグルエナジー合同会社,,合同会社,東京都,港区,西新橋２丁目２０番１号４階,,13,103,1050003,,,,,,,2024-12-19,1,,,,,イーグルエナジー,0
1667,8010403034041,新規,0,2024-12-19,2024-12-19,ジー・エイ・ワン・レジデンス・エイト合同会社,,合同会社,東京都,港区,虎ノ門５丁目１番４号,,13,103,1050001,,,,,,,2024-12-19,1,,,,,ジーエイワンレジデンスエイト,0
1670,8010503007673,新規,0,2024-12-19,2024-12-19,Ｄｒｅａｍ　Ｃｈａｎｎｅｌ合同会社,,合同会社,東京都,台東区,台東１丁目１２番２号モンシャトー秋葉原２０４号室,,13,106,1100016,,,,,,,2024-12-19,1,,,,,ドリームチャンネル,0
1675,8010603011261,新規,0,2024-12-19,2024-12-19,合同会社ＭＪＬコンサルティング,,合同会社,東京都,江東区,豊洲５丁目６―２９―１２２３,,13,108,1350061,,,,,,,2024-12-19,1,,,,,エムジェーエルコンサルティング,0
1678,8010803005204,新規,0,2024-12-19,2024-12-19,Ｄ＆ＶＷ合同会社,,合同会社,東京都,大田区,矢口１丁目４番４号,,13,111,1460093,,,,,,,2024-12-19,1,,,,,ディーアンドブイダブリュー,0
1680,8010901056512,新規,0,2024-12-19,2024-12-19,株式会社ＹＯＳＨＩＮＯ,,株式会社,東京都,世田谷区,下馬２丁目９番９号,,13,112,1540002,,,,,,,2024-12-19,1,,,,,ヨシノ,0
1685,8011001166359,新規,0,2024-12-19,2024-12-19,株式会社Ｋ‐ｋａｌｅｉｄｏ,,株式会社,東京都,渋谷区,道玄坂１丁目１０番８号渋谷道玄坂東急ビル２Ｆ－Ｃ,,13,113,1500043,,,,,,,2024-12-19,1,,,,,ケイカレイド,0
1686,8011001166375,新規,0,2024-12-19,2024-12-19,株式会社Ｓｉｇ　ｄｅｓｉｇｎ,,株式会社,東京都,渋谷区,神宮前４丁目１７－９,,13,113,1500001,,,,,,,2024-12-19,1,,,,,シグデザイン,0
1687,8011001166400,新規,0,2024-12-19,2024-12-19,パブリファイ株式会社,,株式会社,東京都,渋谷区,道玄坂１丁目１０番８号渋谷道玄坂東急ビル２Ｆ－Ｃ,,13,113,1500043,,,,,,,2024-12-19,1,,,,,パブリファイ,0
1688,8011003020563,新規,0,2024-12-19,2024-12-19,合同会社クロフネロデオ,,合同会社,東京都,渋谷区,神南１丁目１１－４ＦＰＧリンクス神南５階,,13,113,1500041,,,,,,,2024-12-19,1,,,,,クロフネロデオ,0
1689,8011003020646,新規,0,2024-12-19,2024-12-19,合同会社ＬＦＷｏｒｋｓ,,合同会社,東京都,渋谷区,道玄坂１丁目１０番８号渋谷道玄坂東急ビル２Ｆ―Ｃ,,13,113,1500043,,,,,,,2024-12-19,1,,,,,エルエフワークス,0
1692,8011101109969,新規,0,2024-12-19,2024-12-19,株式会社ＳＫＡＬＥ,,株式会社,東京都,新宿区,西新宿３丁目２番９号新宿ワシントンビル本館２Ｆ,,13,104,1600023,,,,,,,2024-12-19,1,,,,,スケール,0
1693,8011101109977,新規,0,2024-12-19,2024-12-19,株式会社アクアライフ,,株式会社,東京都,新宿区,西五軒町８番１６号オノラインビル１０２,,13,104,1620812,,,,,,,2024-12-19,1,,,,,アクアライフ,0
1694,8011103015307,新規,0,2024-12-19,2024-12-19,Ｖｓｈｏｗ合同会社,,合同会社,東京都,新宿区,新宿６丁目２７－２９－８０８,,13,104,1600022,,,,,,,2024-12-19,1,,,,,ヴイショウ,0
1695,8011103015315,新規,0,2024-12-19,2024-12-19,合同会社サファイア,,合同会社,東京都,新宿区,市谷砂土原町２丁目７番地１４アピス市ヶ谷７０４,,13,104,1620842,,,,,,,2024-12-19,1,,,,,サファイア,0
1699,8011501031509,新規,0,2024-12-19,2024-12-19,ハウスヒロ株式会社,,株式会社,東京都,荒川区,東日暮里３丁目２０－１０,,13,118,1160014,,,,,,,2024-12-19,1,,,,,ハウスヒロ,0
1700,8011601028297,新規,0,2024-12-19,2024-12-19,株式会社百百喜,00137378,株式会社,東京都,練馬区,関町東１丁目２４番４号,,13,120,1770052,,,,,,,2024-12-19,1,,,,,モモキ,0
1702,8011603004552,新規,0,2024-12-19,2024-12-19,合同会社ＢｒａｉｎＨａｃｋ,,合同会社,東京都,練馬区,春日町１丁目２７－３１,,13,120,1790074,,,,,,,2024-12-19,1,,,,,ブレインハック,0
1708,8012801023641,新規,0,2024-12-19,2024-12-19,シエルブルーインダストリー株式会社,,株式会社,東京都,日野市,西平山５丁目３番地の１０,,13,212,1910055,,,,,,,2024-12-19,1,,,,,シエルブルーインダストリー,0
1714,8020001160635,新規,0,2024-12-19,2024-12-19,株式会社ａｕｒａ,,株式会社,神奈川県,横浜市都筑区,勝田南１丁目１番４０号,,14,118,2240036,,,,,,,2024-12-19,1,,,,,アウラ,0
1715,8020001160643,新規,0,2024-12-19,2024-12-19,株式会社ＭＴＳ,,株式会社,神奈川県,横浜市緑区,中山１丁目２２番２２－５０３号,,14,113,2260019,,,,,,,2024-12-19,1,,,,,エムティーエス,0
1718,8020003027460,新規,0,2024-12-19,2024-12-19,ＡＴＹファミーユ合同会社,,合同会社,神奈川県,横浜市神奈川区,白楽１００番地の９１,,14,102,2210065,,,,,,,2024-12-19,1,,,,,エイティファミーユ,0
1719,8020003027477,新規,0,2024-12-19,2024-12-19,Ｓ＆Ｍ合同会社,,合同会社,神奈川県,川崎市多摩区,長尾１丁目５番５号コーポ田園１０２,,14,135,2140023,,,,,,,2024-12-19,1,,,,,エスアンドエム,0
1724,8021001084031,新規,0,2024-12-19,2024-12-19,株式会社小倉エステート,,株式会社,神奈川県,藤沢市,藤が岡３丁目１０番８号アジュール湘南１階,,14,205,2510004,,,,,,,2024-12-19,1,,,,,オグラエステート,0
1739,8040001136600,新規,0,2024-12-19,2024-12-19,智領未来株式会社,,株式会社,千葉県,松戸市,根本１２２番２朝日松戸プラザ３０２,,12,207,2710077,,,,,,,2024-12-19,1,,,,,チリョウミライ,0
1747,8080403005168,新規,0,2024-12-19,2024-12-19,ＮＫＰｌａｎｎｉｎｇ合同会社,,合同会社,静岡県,菊川市,牧之原２６７５番地の６,,22,224,4390015,,,,,,,2024-12-19,1,,,,,エヌケイプランニング,0
1761,8120001271199,新規,0,2024-12-19,2024-12-19,株式会社ｔａｎｎｅｎｂａｕｍ,,株式会社,大阪府,大阪市中央区,内本町２丁目２番２－２４０６号,,27,128,5400026,,,,,,,2024-12-19,1,,,,,タンネンバウム,0
1762,8120001271224,新規,0,2024-12-19,2024-12-19,株式会社１１,,株式会社,大阪府,大阪市西区,南堀江３丁目１２番１９号フォレストスクエア西長堀１階,,27,106,5500015,,,,,,,2024-12-19,1,,,,,イレブン,0
1763,8120001271240,新規,0,2024-12-19,2024-12-19,株式会社Ｍ‐Ｍａｋｅｔｈ,,株式会社,大阪府,大阪市港区,港晴４丁目９番７号,,27,107,5520023,,,,,,,2024-12-19,1,,,,,エムメイクス,0
1764,8120001271265,新規,0,2024-12-19,2024-12-19,株式会社Ｒｅ　Ｌｉｆｅ,,株式会社,大阪府,大阪市都島区,中野町１丁目６番１９号,,27,102,5340027,,,,,,,2024-12-19,1,,,,,リライフ,0
1765,8120001271315,新規,0,2024-12-19,2024-12-19,株式会社Ｋ２　ＧＲＯＵＰ,,株式会社,大阪府,大阪市西成区,千本北１丁目９番９号,,27,122,5570053,,,,,,,2024-12-19,1,,,,,ケーツーグループ,0
1773,8122003003076,新規,0,2024-12-19,2024-12-19,合同会社ＩＴＡＭ,,合同会社,大阪府,東大阪市,柏田本町５番２６号,,27,227,5770834,,,,,,,2024-12-19,1,,,,,アイティーエーエム,0
1774,8130003010083,新規,0,2024-12-19,2024-12-19,ＨｉｄｅＡｗａｙ合同会社,,合同会社,京都府,京都市下京区,仏光寺通烏丸東入上柳町３３１番地タカノハスクエア,,26,106,6008099,,,,,,,2024-12-19,1,,,,,ハイダウエイ,0
1781,8140001136771,新規,0,2024-12-19,2024-12-19,株式会社Ｍｉｃｈａｅｌ＆Ｓｏｎｓ,,株式会社,兵庫県,神戸市灘区,岸地通２丁目３番７号,,28,102,6570832,,,,,,,2024-12-19,1,,,,,マイケルアンドサンズ,0
1782,8140001136788,新規,0,2024-12-19,2024-12-19,株式会社ハーモニー,,株式会社,兵庫県,神戸市兵庫区,楠谷町１８番３号,,28,105,6520004,,,,,,,2024-12-19,1,,,,,ハーモニー,0
1783,8140003021419,新規,0,2024-12-19,2024-12-19,ＭｉｒａｉＭｅａｌｓ合同会社,,合同会社,兵庫県,西宮市,老松町１２番１１号,,28,204,6620085,,,,,,,2024-12-19,1,,,,,ミライミールズ,0
1784,8140003021435,新規,0,2024-12-19,2024-12-19,合同会社アツマレ,,合同会社,兵庫県,神戸市灘区,新在家南町３丁目２番５６号ＤＫハウス神戸３１４号,,28,102,6570864,,,,,,,2024-12-19,1,,,,,アツマレ,0
1795,8180003027775,新規,0,2024-12-19,2024-12-19,合同会社Ｃｌｕｂ　ＲＥＧＯＬＩＴＨ,,合同会社,愛知県,名古屋市中区,錦３丁目３番２４号錦フラッシュビル３ＦＢ,,23,106,4600003,,,,,,,2024-12-19,1,,,,,クラブレゴリス,0
1798,8190001031877,新規,0,2024-12-19,2024-12-19,株式会社ＯＨＭＯＲＩ,,株式会社,三重県,津市,上浜町６丁目１６番地１弐番館７０２号,,24,201,5140008,,,,,,,2024-12-19,1,,,,,オオモリ,0
1803,8200001043243,新規,0,2024-12-19,2024-12-19,株式会社デジタホールディングス,,株式会社,岐阜県,恵那市,大井町２６９５番地１１１,,21,210,5097201,,,,,,,2024-12-19,1,,,,,デジタホールディングス,0
1805,8200003006628,新規,0,2024-12-19,2024-12-19,合同会社関システム部,,合同会社,岐阜県,関市,宮地町１番５号,,21,205,5013827,,,,,,,2024-12-19,1,,,,,セキシステムブ,0
1812,8240001064277,新規,0,2024-12-19,2024-12-19,株式会社米澤電工,,株式会社,広島県,広島市東区,中山新町３丁目２０番３０号,,34,102,7320021,,,,,,,2024-12-19,1,,,,,ヨネザワデンコウ,0
1816,8250003003612,新規,0,2024-12-19,2024-12-19,合同会社食の提案ＣＲＵ,,合同会社,山口県,周南市,大神１丁目１２番１０号,,35,215,7460018,,,,,,,2024-12-19,1,,,,,ショクノテイアンクリュ,0
1824,8290001108335,新規,0,2024-12-19,2024-12-19,株式会社シモレイプラス,,株式会社,福岡県,福岡市南区,屋形原２丁目２０番１８号,,40,134,8111351,,,,,,,2024-12-19,1,,,,,シモレイプラス,0
1828,8290803004921,新規,0,2024-12-19,2024-12-19,合同会社Ｆｉｎｅ,,合同会社,福岡県,北九州市八幡西区,陣山２丁目１－１１,,40,109,8060012,,,,,,,2024-12-19,1,,,,,ファイン,0
1835,8330002031639,新規,0,2024-12-19,2024-12-19,有限会社山本薬店,,有限会社,熊本県,宇土市,一里木町１２番地,,43,211,8690435,,,,,,,2024-12-19,1,,,,,ヤマモトヤクテン,0
1836,8330005010854,新規,0,2024-12-19,2024-12-19,一般社団法人熊本整形外科医療推進機構,,その他の設立登記法人,熊本県,熊本市中央区,本荘１丁目１番１号熊本大学大学院生命科学研究部整形外科学内一般社団法人熊本整形外科医療推進機構企画室,,43,101,8600811,,,,,,,2024-12-19,1,,,,,クマモトセイケイゲカイリョウスイシンキコウ,0
1843,8360003014532,新規,0,2024-12-19,2024-12-19,合同会社吉舎,,合同会社,沖縄県,那覇市,首里大名町２丁目１番地,,47,201,9030802,,,,,,,2024-12-19,1,,,,,ヨッシャ,0
1850,8400003003365,新規,0,2024-12-19,2024-12-19,合同会社新栄丸,,合同会社,岩手県,九戸郡洋野町,種市第２地割７１番地１５,,03,507,0287903,,,,,,,2024-12-19,1,,,,,シンエイマル,0
1855,8430001093298,新規,0,2024-12-19,2024-12-19,株式会社タキケン,,株式会社,北海道,登別市,栄町４丁目３番地３,,01,230,0590033,,,,,,,2024-12-19,1,,,,,タキケン,0
1861,8500003003388,新規,0,2024-12-19,2024-12-19,合同会社ＭＩＮＩＭ,,合同会社,愛媛県,松山市,三番町２丁目１０番地１１ＰＡＬＭＩＮＡＢＬＤＧ１Ｆ,,38,201,7900003,,,,,,,2024-12-19,1,,,,,ミニム,0
1873,9010005039289,新規,0,2024-12-19,2024-12-19,一般社団法人Ｔｈｅ　Ｐｅａｋ　Ｓｅｒｉｅｓ　Ｘ,,その他の設立登記法人,東京都,千代田区,四番町４番地９新東京国際リーガル内,,13,101,1020081,,,,,,,2024-12-19,1,,,,,ザピークシリーズテン,0
1883,9010401187113,新規,0,2024-12-19,2024-12-19,株式会社スーパーベンチャー,,株式会社,東京都,港区,赤坂８丁目５番４０号ＰＥＧＡＳＵＳＡＯＹＡＭＡ３２０,,13,103,1070052,,,,,,,2024-12-19,1,,,,,スーパーベンチャー,0
1885,9010403034040,新規,0,2024-12-19,2024-12-19,ジー・エイ・ワン・レジデンス・セブン合同会社,,合同会社,東京都,港区,虎ノ門５丁目１番４号,,13,103,1050001,,,,,,,2024-12-19,1,,,,,ジーエイワンレジデンスセブン,0
1898,9010901056511,新規,0,2024-12-19,2024-12-19,株式会社Ｒｏｏｔｓ,,株式会社,東京都,世田谷区,弦巻５丁目７番３０－４０６号,,13,112,1540016,,,,,,,2024-12-19,1,,,,,ルーツ,0
1900,9010903009582,新規,0,2024-12-19,2024-12-19,合同会社ｌｕｍｏｌａ,,合同会社,東京都,世田谷区,三軒茶屋１丁目７番７ー４０６号,,13,112,1540024,,,,,,,2024-12-19,1,,,,,ルモラ,0
1904,9011001166358,新規,0,2024-12-19,2024-12-19,株式会社Ｅｎｔｅｒｇｒｏｕｎｄ,,株式会社,東京都,目黒区,碑文谷５丁目２番５号Ｔ＆Ａビル５Ｆ,,13,110,1520003,,,,,,,2024-12-19,1,,,,,エンターグラウンド,0
1905,9011001166366,新規,0,2024-12-19,2024-12-19,株式会社Ｅｌｅｍｅｎｔ　Ｆｕｓｉｏｎ,,株式会社,東京都,目黒区,碑文谷１丁目１９番４号,,13,110,1520003,,,,,,,2024-12-19,1,,,,,エレメントフュージョン,0
1906,9011001166374,新規,0,2024-12-19,2024-12-19,株式会社ピースパートナーズ,,株式会社,東京都,渋谷区,渋谷３丁目１番９号ＹＡＺＡＷＡビル３階,,13,113,1500002,,,,,,,2024-12-19,1,,,,,ピースパートナーズ,0
1907,9011001166663,新規,0,2024-12-19,2024-12-19,株式会社Ｓｋｉｎ　Ｏｆｆｉｃｅ,,株式会社,東京都,渋谷区,渋谷２丁目１９―１５―６０９,,13,113,1500002,,,,,,,2024-12-19,1,,,,,スキンオフィス,0
1908,9011003020562,新規,0,2024-12-19,2024-12-19,合同会社エデュケーティング,,合同会社,東京都,渋谷区,渋谷２丁目１９－１５宮益坂ビルディング６０９,,13,113,1500002,,,,,,,2024-12-19,1,,,,,エデュケーティング,0
1913,9011401026673,新規,0,2024-12-19,2024-12-19,株式会社ＭＳＣリミテッド,,株式会社,東京都,板橋区,前野町５丁目３５番５号ＧＲＡＮＤＣＲＥＳＴ１０３,,13,119,1740063,,,,,,,2024-12-19,1,,,,,エムエスシーリミテッド,0
1917,9011501031508,新規,0,2024-12-19,2024-12-19,縁結び株式会社,,株式会社,東京都,北区,浮間１丁目３－１－４０４,,13,117,1150051,,,,,,,2024-12-19,1,,,,,エンムスビ,0
1919,9011603004543,新規,0,2024-12-19,2024-12-19,合同会社ＣＥＤＡＲ,,合同会社,東京都,練馬区,関町北１丁目１５番７号２Ｆ,,13,120,1770051,,,,,,,2024-12-19,1,,,,,シーダー,0
1921,9011701027909,新規,0,2024-12-19,2024-12-19,ＮＥＷ　ＴＹＰＥ株式会社,,株式会社,東京都,江戸川区,江戸川６丁目４０番１４－１２６号,,13,123,1340013,,,,,,,2024-12-19,1,,,,,ニュータイプ,0
1924,9011801045315,新規,0,2024-12-19,2024-12-19,ＰＡＩ株式会社,,株式会社,東京都,葛飾区,東四つ木４丁目４２番１２号,,13,122,1240014,,,,,,,2024-12-19,1,,,,,ピーエーアイ,0
1927,9012301014198,新規,0,2024-12-19,2024-12-19,株式会社フラムグラス,,株式会社,東京都,町田市,森野３丁目１番１８号グレースニッサン１階,,13,209,1940022,,,,,,,2024-12-19,1,,,,,フラムグラス,0
1929,9012803003574,新規,0,2024-12-19,2024-12-19,合同会社ジェイド・ポート,,合同会社,東京都,国分寺市,南町１丁目１１番２４号,,13,214,1850021,,,,,,,2024-12-19,1,,,,,ジェイドポート,0
1939,9020001160642,新規,0,2024-12-19,2024-12-19,株式会社Ｓｔｉｒ,,株式会社,神奈川県,横浜市磯子区,洋光台３丁目１３番５－６０２号,,14,107,2350045,,,,,,,2024-12-19,1,,,,,ステア,0
1940,9020001160659,新規,0,2024-12-19,2024-12-19,株式会社ｗａｒａｈａｎｄ,,株式会社,神奈川県,川崎市高津区,宇奈根７４４番地１１,,14,134,2130031,,,,,,,2024-12-19,1,,,,,ワラハンド,0
1941,9020001160675,新規,0,2024-12-19,2024-12-19,株式会社ＫＭＬ,,株式会社,神奈川県,横浜市保土ケ谷区,宮田町３丁目３０６番地２,,14,106,2400002,,,,,,,2024-12-19,1,,,,,ケイエムエル,0
1942,9020001160691,新規,0,2024-12-19,2024-12-19,ＷＥＡＬＳ株式会社,,株式会社,神奈川県,横浜市西区,西平沼町１番２２－１００５号,,14,103,2200024,,,,,,,2024-12-19,1,,,,,ウェルス,0
1945,9020003027476,新規,0,2024-12-19,2024-12-19,合同会社Ｂｌａｓｔ,,合同会社,神奈川県,横浜市都筑区,大丸１７－３,,14,118,2240061,,,,,,,2024-12-19,1,,,,,ブラスト,0
1946,9020003027484,新規,0,2024-12-19,2024-12-19,ヴァン・サンク合同会社,,合同会社,神奈川県,横浜市青葉区,美しが丘２丁目４８番地１７,,14,117,2250002,,,,,,,2024-12-19,1,,,,,ヴァンサンク,0
1947,9020005016642,新規,0,2024-12-19,2024-12-19,医療法人社団明与会,,その他の設立登記法人,神奈川県,横浜市青葉区,元石川町４０９４番地４,,14,117,2250004,,,,,,,2024-12-19,1,,,,,メイヨカイ,0
1949,9021001084030,新規,0,2024-12-19,2024-12-19,株式会社湯乃市ウェルネス,,株式会社,神奈川県,藤沢市,藤が岡３丁目１０番８号アジュール湘南１階,,14,205,2510004,,,,,,,2024-12-19,1,,,,,ユノイチウェルネス,0
1950,9021001084039,新規,0,2024-12-19,2024-12-19,株式会社匠社寺板金,,株式会社,神奈川県,厚木市,下川入８３６番地２の２,,14,212,2430206,,,,,,,2024-12-19,1,,,,,タクミシャジバンキン,0
1951,9021001084047,新規,0,2024-12-19,2024-12-19,株式会社ＡＪトータルサポート,,株式会社,神奈川県,逗子市,桜山４丁目２番６号,,14,208,2490005,,,,,,,2024-12-19,1,,,,,エイジェイトータルサポート,0
1961,9040001136632,新規,0,2024-12-19,2024-12-19,茗景商事株式会社,,株式会社,千葉県,柏市,豊四季３４３－３５,,12,217,2770863,,,,,,,2024-12-19,1,,,,,メイケイショウジ,0
1973,9050001055906,新規,0,2024-12-19,2024-12-19,株式会社麹ラボ,,株式会社,茨城県,つくば市,吾妻２丁目５番地１,,08,220,3050031,,,,,,,2024-12-19,1,,,,,コウジラボ,0
1978,9060001037746,新規,0,2024-12-19,2024-12-19,株式会社ＴＨ＆ＹＳ,,株式会社,栃木県,宇都宮市,松が峰１丁目３番１６号グラン宇都宮５０３,,09,201,3200807,,,,,,,2024-12-19,1,,,,,ティーエイチアンドワイエス,0
1989,9100001038129,新規,0,2024-12-19,2024-12-19,株式会社ジャパンカントリーライフ,,株式会社,長野県,飯山市,大字飯山２３１番地１、２階,,20,213,3892253,,,,,,,2024-12-19,1,,,,,ジャパンカントリーライフ,0
1990,9100001038137,新規,0,2024-12-19,2024-12-19,サステナリージョン株式会社,,株式会社,長野県,北佐久郡軽井沢町,大字長倉１２７９番地１１,,20,321,3890111,,,,,,,2024-12-19,1,,,,,サステナリージョン,0
2002,9120001271207,新規,0,2024-12-19,2024-12-19,株式会社ＣＤ,,株式会社,大阪府,大阪市中央区,南久宝寺町４丁目５番１５号ニューライフ御堂筋本町８０４,,27,128,5410058,,,,,,,2024-12-19,1,,,,,シーディー,0
2003,9120001271223,新規,0,2024-12-19,2024-12-19,Ｄエンタープライズ株式会社,,株式会社,大阪府,大阪市東淀川区,豊新３丁目１０番３－３０３号,,27,114,5330014,,,,,,,2024-12-19,1,,,,,ディーエンタープライズ,0
2007,9120003028191,新規,0,2024-12-19,2024-12-19,合同会社Ｄｉｒａｓ,,合同会社,大阪府,大阪市北区,梅田１丁目１番３号大阪駅前第３ビル２９階１－１－１号室,,27,127,5300001,,,,,,,2024-12-19,1,,,,,ディラス,0
2008,9120101070772,新規,0,2024-12-19,2024-12-19,ＹＵＴＯＲＩ株式会社,,株式会社,大阪府,泉佐野市,笠松２丁目８番５９－１号,,27,213,5980044,,,,,,,2024-12-19,1,,,,,ユトリ,0
2012,9122003003075,新規,0,2024-12-19,2024-12-19,合同会社ＳＯＥＮ,,合同会社,大阪府,東大阪市,新家西町９番７号,,27,227,5770028,,,,,,,2024-12-19,1,,,,,ソウエン,0
2015,9130003010082,新規,0,2024-12-19,2024-12-19,合同会社ウイプラン,,合同会社,京都府,京都市中京区,西ノ京南円町１９番地１,,26,104,6048464,,,,,,,2024-12-19,1,,,,,ウイプラン,0
2018,9140001136762,新規,0,2024-12-19,2024-12-19,株式会社昇和興業,,株式会社,兵庫県,丹波市,春日町多利１０３０番地,,28,223,6694123,,,,,,,2024-12-19,1,,,,,ショウワコウギョウ,0
2030,9180001164611,新規,0,2024-12-19,2024-12-19,株式会社ｅ．ｓｏｌａ,,株式会社,愛知県,名古屋市中村区,太閤通３丁目２５番地の１（アロームドゥジョア７０３号）,,23,105,4530811,,,,,,,2024-12-19,1,,,,,エソラ,0
2031,9180001164636,新規,0,2024-12-19,2024-12-19,ＳＲ企画株式会社,,株式会社,愛知県,豊明市,新栄町１丁目３１番地,,23,229,4701154,,,,,,,2024-12-19,1,,,,,エスアールキカク,0
2035,9180003027766,新規,0,2024-12-19,2024-12-19,合同会社大丸食堂,,合同会社,愛知県,春日井市,東山町５丁目１３番１１号,,23,206,4860811,,,,,,,2024-12-19,1,,,,,ダイマルショクドウ,0
2036,9180003027774,新規,0,2024-12-19,2024-12-19,合同会社ＫａｎｄＫ,,合同会社,愛知県,名古屋市北区,大曽根４丁目１０番２６号,,23,103,4620825,,,,,,,2024-12-19,1,,,,,ケーアンドケー,0
2051,9210003001866,新規,0,2024-12-19,2024-12-19,ａｎｄ．ａｓｏｂｉ合同会社,,合同会社,福井県,大野市,新庄２５－１８－１,,18,205,9120085,,,,,,,2024-12-19,1,,,,,アンドアソビ,0
2058,9240003006986,新規,0,2024-12-19,2024-12-19,合同会社ＯＫＡＤＡ,,合同会社,広島県,福山市,川口町２丁目１８番２３号,,34,207,7200822,,,,,,,2024-12-19,1,,,,,オカダ,0
2060,9260003005012,新規,0,2024-12-19,2024-12-19,合同会社６３４,,合同会社,岡山県,岡山市北区,久米１０５－７,,33,101,7010144,,,,,,,2024-12-19,1,,,,,ムサシ,0
2064,9290001108301,新規,0,2024-12-19,2024-12-19,株式会社Ｂｅｔｔｅｒｉｓ,,株式会社,福岡県,福岡市東区,香椎照葉６丁目２番５１号アイランドシティオーシャン＆フォレストタワーレジデンスＥＡＳＴ棟,,40,131,8130017,,,,,,,2024-12-19,1,,,,,ベタリス,0
2065,9290001108318,新規,0,2024-12-19,2024-12-19,株式会社Ｅｎｂｕｃｋｓ,,株式会社,福岡県,福岡市中央区,天神２丁目２－１２Ｔ＆Ｊビルディング７Ｆ,,40,133,8100001,,,,,,,2024-12-19,1,,,,,,0
2066,9290001108342,新規,0,2024-12-19,2024-12-19,株式会社ジーネット,,株式会社,福岡県,古賀市,新原８５６番,,40,223,8113127,,,,,,,2024-12-19,1,,,,,ジーネット,0
2070,9290005019585,新規,0,2024-12-19,2024-12-19,一般社団法人望暖会,,その他の設立登記法人,福岡県,福岡市中央区,大名１丁目１番７号ジェスト２２ビル２Ｆ,,40,133,8100041,,,,,,,2024-12-19,1,,,,,ミハルカイ,0
2072,9290803004904,新規,0,2024-12-19,2024-12-19,誠和合同会社,,合同会社,福岡県,中間市,蓮花寺３丁目１９－２６,,40,215,8090014,,,,,,,2024-12-19,1,,,,,セイワ,0
2079,9330005010853,新規,0,2024-12-19,2024-12-19,一般社団法人熊本山鹿都市開発公社,,その他の設立登記法人,熊本県,山鹿市,方保田３４８９番地１,,43,208,8610382,,,,,,,2024-12-19,1,,,,,クマモトヤマガトシカイハツコウシャ,0
2085,9360005007145,新規,0,2024-12-19,2024-12-19,一般社団法人沖縄在来研究所,,その他の設立登記法人,沖縄県,島尻郡南風原町,字新川１９３番地１－２階,,47,350,9011105,,,,,,,2024-12-19,1,,,,,オキナワアリキタリケンキュウジョ,0
2096,9390001017822,新規,0,2024-12-19,2024-12-19,エクサジュールテクノロジーズ株式会社,,株式会社,山形県,飽海郡遊佐町,遊佐字京田１３番地,,06,461,9998301,,,,,,,2024-12-19,1,,,,,エクサジュールテクノロジーズ,0
2100,9420001018957,新規,0,2024-12-19,2024-12-19,株式会社ｅｄｕｌａｔｉｏｎ,,株式会社,青森県,青森市,本町２丁目１番１８号アシストプリンス青森６０５号室,,02,201,0300802,,,,,,,2024-12-19,1,,,,,エデュレーション,0
2104,9430001093297,新規,0,2024-12-19,2024-12-19,株式会社大黒信,,株式会社,北海道,札幌市東区,東苗穂七条１丁目１番３２号,,01,103,0070807,,,,,,,2024-12-19,1,,,,,ダイコクシン,0
2107,9430003017089,新規,0,2024-12-19,2024-12-19,合同会社優月,,合同会社,北海道,札幌市東区,北十二条東１３丁目２番１５号,,01,103,0650012,,,,,,,2024-12-19,1,,,,,ユヅキ,0
2113,9490003001962,新規,0,2024-12-19,2024-12-19,合同会社ヨシオ,,合同会社,高知県,高知市,三園町２０７番地３,,39,201,7800034,,,,,,,2024-12-19,1,,,,,ヨシオ,0
2114,9500003003387,新規,0,2024-12-19,2024-12-19,合同会社アトツキ,,合同会社,愛媛県,西条市,北条１４９１番地５,,38,206,7991354,,,,,,,2024-12-19,1,,,,,アトツキ,0
2115,9700150128289,新規,0,2024-12-19,2024-12-19,ｎａｎｎｉｎｇｚｈｏｎｇｃｈｕｉｋｅｊｉｙｏｕｘｉａｎｇｏｎｇｓｉ,,外国会社等,,,,,,,,Ｒｏｏｍ　３２４，３ｒｄ　Ｆｌｏｏｒ，Ｔｅｃｈｎｏｌｏｇｙ　Ｒｅｓｅａｒｃｈ　ａｎｄ　Ｉｎｃｕｂａｔｉｏｎ　Ｃｅｎｔｅｒ，Ｔｕｓ－ＡＳＥＡＮ　Ｓｃｉｅｎｃｅ　ａｎｄ　Ｔｅｃｈｎｏｌｏｇｙ　Ｃｉｔｙ，Ｎａｎｎｉｎｇ，Ｎｏ．３３，Ｙｏｎｇｆｕ　Ｒｏａｄ，Ｙｏｎｇｎｉｎｇ　Ｄｉｓｔｒｉｃｔ，Ｎａｎｎｉｎｇ,,,,,,2024-12-19,1,,,,,ナンニンゾンツイカギユウゲンコウシ,0
