sequenceNumber,corporateNumber,process,correct,updateDate,changeDate,name,nameImageId,kind,prefectureName,cityName,streetNumber,addressImageId,prefectureCode,cityCode,postCode,addressOutside,addressOutsideImageId,closeDate,closeCause,successorCorporateNumber,changeCause,assignmentDate,latest,enName,enPrefectureName,enCityName,enAddressOutside,furigana,hihyoji
6,1010001237671,新規,0,2023-08-15,2023-08-15,オールアウト株式会社,,株式会社,東京都,中央区,築地３丁目７番１０号,,13,102,1040045,,,,,,,2023-08-15,1,,,,,オールアウト,0
7,1010001237721,新規,0,2023-08-15,2023-08-15,株式会社ＴＭＳ,,株式会社,東京都,中央区,銀座１丁目１２－４Ｎ＆Ｅ・ＢＬＤ．７階,,13,102,1040061,,,,,,,2023-08-15,1,,,,,テムズ,0
13,1010005037093,新規,0,2023-08-15,2023-08-15,一般財団法人アジア健康共同体,,その他の設立登記法人,東京都,千代田区,有楽町１丁目９番１号日比谷サンケイビル１０階,,13,101,1000006,,,,,,,2023-08-15,1,,,,,アジアケンコウキョウドウタイ,0
14,1010005037102,新規,0,2023-08-15,2023-08-15,一般社団法人ＫＳＦＲ９,,その他の設立登記法人,東京都,千代田区,内幸町２丁目１番６号,,13,101,1000011,,,,,,,2023-08-15,1,,,,,ケイエスエフアールナイン,0
22,1010403030682,新規,0,2023-08-15,2023-08-15,ＳＡＫＵＲＡプロジェクト合同会社,,合同会社,東京都,港区,港南４丁目６番８号１１０８号室,,13,103,1080075,,,,,,,2023-08-15,1,,,,,サクラプロジェクト,0
25,1010405022414,新規,0,2023-08-15,2023-08-15,Ｄａｓｈ　Ｌｉｖｉｎｇ　Ｐｒｏｐｅｒｔｙ一般社団法人,,その他の設立登記法人,東京都,港区,白金台３丁目１０番１０号,,13,103,1080071,,,,,,,2023-08-15,1,,,,,ダッシュリビングプロパティ,0
27,1010603010303,新規,0,2023-08-15,2023-08-15,Ｓｅｃｒｅｔｌａｂ　Ｊａｐａｎ合同会社,,合同会社,東京都,江東区,有明３丁目７番２６号有明フロンティアビルＢ９階,,13,108,1350063,,,,,,,2023-08-15,1,,,,,シークレットラボジャパン,0
33,1011001156069,新規,0,2023-08-15,2023-08-15,株式会社Ｒｏｕｔｅ,,株式会社,東京都,目黒区,中町２丁目１４番７号前田マンション２０４,,13,110,1530065,,,,,,,2023-08-15,1,,,,,ルート,0
34,1011001156267,新規,0,2023-08-15,2023-08-15,株式会社Ｗａｐｓ,,株式会社,東京都,渋谷区,渋谷１丁目１番３号アミーホール３Ｆ,,13,113,1500002,,,,,,,2023-08-15,1,,,,,ワップス,0
35,1011001156291,新規,0,2023-08-15,2023-08-15,えびすどっと株式会社,,株式会社,東京都,渋谷区,恵比寿南１丁目８番１０号アンシュティーク恵比寿２階,,13,113,1500022,,,,,,,2023-08-15,1,,,,,エビスドット,0
36,1011001156341,新規,0,2023-08-15,2023-08-15,株式会社Ｍｏｍｅｎｔ,,株式会社,東京都,渋谷区,円山町５番４号フィールＡ渋谷５０４,,13,113,1500044,,,,,,,2023-08-15,1,,,,,モーメント,0
39,1011003017368,新規,0,2023-08-15,2023-08-15,合同会社ｗｅｂ‐ｃｌｏｕｄ,,合同会社,東京都,渋谷区,神泉町１０番１５号アネックス神泉３０１,,13,113,1500045,,,,,,,2023-08-15,1,,,,,ウェブクラウド,0
45,1011101103945,新規,0,2023-08-15,2023-08-15,株式会社Ｅｎｔｒｕｓｔ,,株式会社,東京都,新宿区,西新宿６丁目１０番１号日土地西新宿ビル８階,,13,104,1600023,,,,,,,2023-08-15,1,,,,,エントラスト,0
46,1011101104010,新規,0,2023-08-15,2023-08-15,株式会社ＴＤＴ　ＪＡＰＡＮ,,株式会社,東京都,新宿区,西新宿３丁目３番１３号西新宿水間ビル６階,,13,104,1600023,,,,,,,2023-08-15,1,,,,,ティーディーティージャパン,0
48,1011103013374,新規,0,2023-08-15,2023-08-15,合同会社和継,,合同会社,東京都,新宿区,西五軒町１２番１－２１０１号,,13,104,1620812,,,,,,,2023-08-15,1,,,,,ワツグ,0
49,1011201024851,新規,0,2023-08-15,2023-08-15,株式会社Ｊａｚ．ｉｎ,,株式会社,東京都,中野区,白鷺１丁目１８番１５号,,13,114,1650035,,,,,,,2023-08-15,1,,,,,,0
51,1011303004859,新規,0,2023-08-15,2023-08-15,合同会社ＰＩＭコンサルティング,,合同会社,東京都,杉並区,高井戸東１丁目３１番３－３０８号パークシティ浜田山Ｂ棟,,13,115,1680072,,,,,,,2023-08-15,1,,,,,ピーアイエムコンサルティング,0
53,1011503005715,新規,0,2023-08-15,2023-08-15,おはな合同会社,,合同会社,東京都,北区,滝野川７丁目３０番４号おはなビル１０１,,13,117,1140023,,,,,,,2023-08-15,1,,,,,オハナ,0
59,1012401040861,新規,0,2023-08-15,2023-08-15,株式会社オトマネージ,,株式会社,東京都,調布市,深大寺東町５丁目２１番地６,,13,208,1820012,,,,,,,2023-08-15,1,,,,,オトマネージ,0
61,1012701017799,新規,0,2023-08-15,2023-08-15,バイタルコネクションズ株式会社,,株式会社,東京都,小平市,花小金井南町２丁目１１番１６号,,13,211,1870003,,,,,,,2023-08-15,1,,,,,バイタルコネクションズ,0
62,1012801022567,新規,0,2023-08-15,2023-08-15,株式会社Ｒｏｃｋ＆Ｒｅｅ,,株式会社,東京都,国立市,中１丁目１４番地の４コンフォートいづみ２０３,,13,215,1860004,,,,,,,2023-08-15,1,,,,,ロックアンドリー,0
64,1013103001251,新規,0,2023-08-15,2023-08-15,合同会社そもそも,,合同会社,東京都,あきる野市,引田３７２－２,,13,228,1970834,,,,,,,2023-08-15,1,,,,,ソモソモ,0
75,1020001152911,新規,0,2023-08-15,2023-08-15,株式会社ＹＯＭＹ,,株式会社,神奈川県,横浜市西区,北幸１丁目１１番１号水信ビル７階,,14,103,2200004,,,,,,,2023-08-15,1,,,,,ヨミー,0
76,1020001152952,新規,0,2023-08-15,2023-08-15,株式会社えにし技研,,株式会社,神奈川県,川崎市麻生区,片平３丁目１０番７号,,14,137,2150023,,,,,,,2023-08-15,1,,,,,エニシギケン,0
77,1020001152977,新規,0,2023-08-15,2023-08-15,ブルーホエールマーケティング株式会社,,株式会社,神奈川県,横浜市中区,尾上町５丁目８０番地,,14,104,2310015,,,,,,,2023-08-15,1,,,,,ブルーホエールマーケティング,0
79,1020003024357,新規,0,2023-08-15,2023-08-15,Ｎｅｘｔａｇｅ合同会社,,合同会社,神奈川県,横浜市西区,北幸２丁目１０番地２８むつみビル３Ｆ,,14,103,2200004,,,,,,,2023-08-15,1,,,,,ネクステージ,0
80,1020003024381,新規,0,2023-08-15,2023-08-15,合同会社エース,,合同会社,神奈川県,横浜市青葉区,市ケ尾町４９７番地１５,,14,117,2250024,,,,,,,2023-08-15,1,,,,,エース,0
85,1021001079863,新規,0,2023-08-15,2023-08-15,株式会社創心,,株式会社,神奈川県,小田原市,飯田岡７３番地の４９パークレジデンス蛍水Ｂ１０２,,14,206,2500854,,,,,,,2023-08-15,1,,,,,ソウシン,0
86,1021001079871,新規,0,2023-08-15,2023-08-15,株式会社ＹＡＭＡＴＯ　ＣＡＤ,,株式会社,神奈川県,大和市,大和東２丁目２番３号６０１号,,14,213,2420017,,,,,,,2023-08-15,1,,,,,ヤマトキャド,0
95,1040001129651,新規,0,2023-08-15,2023-08-15,関東ドローン協会株式会社,,株式会社,千葉県,柏市,東上町１番１－７０１号,,12,217,2770011,,,,,,,2023-08-15,1,,,,,カントウドローンキョウカイ,0
96,1040001129676,新規,0,2023-08-15,2023-08-15,株式会社ドルチェ・ヴィータ,,株式会社,千葉県,我孫子市,つくし野３丁目１９番２０５号,,12,222,2701164,,,,,,,2023-08-15,1,,,,,ドルチェヴィータ,0
97,1040001129692,新規,0,2023-08-15,2023-08-15,株式会社グロリア,,株式会社,千葉県,八街市,四木１１２６番１,,12,230,2891122,,,,,,,2023-08-15,1,,,,,グロリア,0
99,1040003023126,新規,0,2023-08-15,2023-08-15,合同会社オークコンサル,,合同会社,千葉県,柏市,名戸ケ谷１丁目２番６号,,12,217,2770032,,,,,,,2023-08-15,1,,,,,オークコンサル,0
101,1040005022092,新規,0,2023-08-15,2023-08-15,一般社団法人富里馬事協会,,その他の設立登記法人,千葉県,富里市,中沢１１５５番地,,12,233,2860222,,,,,,,2023-08-15,1,,,,,トミサトバジキョウカイ,0
104,1060003004669,新規,0,2023-08-15,2023-08-15,合同会社アスサンド,,合同会社,栃木県,宇都宮市,上大曽町３０８ヴァンデュール上大曽１０３,,09,201,3200013,,,,,,,2023-08-15,1,,,,,アスサンド,0
108,1080001025806,新規,0,2023-08-15,2023-08-15,株式会社ＹＵエステート,,株式会社,静岡県,静岡市葵区,音羽町２６番１６号パティオ音羽１０２,,22,101,4200834,,,,,,,2023-08-15,1,,,,,ユーエステート,0
109,1080003003033,新規,0,2023-08-15,2023-08-15,合同会社神谷設計,,合同会社,静岡県,島田市,中央町２４番３１号,,22,209,4270042,,,,,,,2023-08-15,1,,,,,カミヤセッケイ,0
118,1100003007147,新規,0,2023-08-15,2023-08-15,合同会社シャイン,,合同会社,長野県,安曇野市,三郷小倉６２５１番地２,,20,220,3998103,,,,,,,2023-08-15,1,,,,,シャイン,0
123,1120001257106,新規,0,2023-08-15,2023-08-15,株式会社ランパート,,株式会社,大阪府,枚方市,片鉾東町４番７－１１号,,27,210,5731156,,,,,,,2023-08-15,1,,,,,ランパート,0
124,1120001257295,新規,0,2023-08-15,2023-08-15,株式会社２９ｅｒｓ,,株式会社,大阪府,大阪市鶴見区,今津北２丁目９番５号,,27,124,5380041,,,,,,,2023-08-15,1,,,,,トゥエンティーナイナーズ,0
126,1120901047944,新規,0,2023-08-15,2023-08-15,株式会社嶋田酒店,,株式会社,大阪府,豊能郡能勢町,地黄９０５番地,,27,322,5630121,,,,,,,2023-08-15,1,,,,,シマダサケテン,0
127,1120901047952,新規,0,2023-08-15,2023-08-15,株式会社ＪｏｈｎｙＷｏｒｋｓ,,株式会社,大阪府,吹田市,岸部中４丁目８－３２－３０６,,27,205,5640002,,,,,,,2023-08-15,1,,,,,ジョニーワークス,0
130,1120903004786,新規,0,2023-08-15,2023-08-15,Ａ＆Ｊ　ＰＡＴＨＩＢＨＡＲＡ合同会社,,合同会社,大阪府,豊中市,庄内西町１丁目３番７号,,27,203,5610832,,,,,,,2023-08-15,1,,,,,エーアンドジェイパティバラ,0
133,1130001074938,新規,0,2023-08-15,2023-08-15,株式会社トライ・アイランド,,株式会社,京都府,京都市中京区,壬生辻町１８番地,,26,104,6048822,,,,,,,2023-08-15,1,,,,,トライアイランド,0
134,1130001074954,新規,0,2023-08-15,2023-08-15,株式会社ｔｉｌｌ,,株式会社,京都府,京都市中京区,福屋町７２５－１ｐｉｎｅ２Ｆ,,26,104,6040882,,,,,,,2023-08-15,1,,,,,ティル,0
135,1130001074962,新規,0,2023-08-15,2023-08-15,株式会社たまごトラベル,,株式会社,京都府,相楽郡南山城村,大字田山福傳１０,00131521,26,367,6191421,,,,,,,2023-08-15,1,,,,,タマゴトラベル,0
136,1130001074970,新規,0,2023-08-15,2023-08-15,レーザークック株式会社,,株式会社,京都府,京都市下京区,中堂寺粟田町９３京都リサーチパークスタジオ棟Ｂ１０１号,,26,106,6008815,,,,,,,2023-08-15,1,,,,,レーザークック,0
143,1160001025269,新規,0,2023-08-15,2023-08-15,ＵＤＬＡＢＯ株式会社,,株式会社,滋賀県,湖南市,平松５５５番地１３,,25,211,5203232,,,,,,,2023-08-15,1,,,,,ユーディラボ,0
148,1170005007031,新規,0,2023-08-15,2023-08-15,医療法人愛元会,,その他の設立登記法人,和歌山県,和歌山市,新在家１６３－９,,30,201,6408345,,,,,,,2023-08-15,1,,,,,アイゲンカイ,0
152,1180001157655,新規,0,2023-08-15,2023-08-15,株式会社Ｂｕｒｆｏｒｄ,,株式会社,愛知県,名古屋市千種区,猫洞通１丁目８番地の１,,23,101,4640032,,,,,,,2023-08-15,1,,,,,バーフォード,0
153,1180003025629,新規,0,2023-08-15,2023-08-15,合同会社ＦＡＲＳＩ　ＳＴＲＡＤＡ,,合同会社,愛知県,清須市,鍋片３丁目９６番地,,23,233,4520907,,,,,,,2023-08-15,1,,,,,ファルシストラーダ,0
156,1180301037706,新規,0,2023-08-15,2023-08-15,株式会社塗送ＷｏｒＫｅｒ,,株式会社,愛知県,知立市,鳥居２丁目１５番地５,,23,225,4720055,,,,,,,2023-08-15,1,,,,,トソウワーカー,0
159,1190001030662,新規,0,2023-08-15,2023-08-15,株式会社ＰＬＵＳ　ＯＲＤＥＲ,,株式会社,三重県,四日市市,天カ須賀５丁目２番１８－３号,,24,202,5108001,,,,,,,2023-08-15,1,,,,,プラスオーダー,0
161,1200001041617,新規,0,2023-08-15,2023-08-15,株式会社マルカメ,,株式会社,岐阜県,岐阜市,北一色５丁目３番６号,,21,201,5008227,,,,,,,2023-08-15,1,,,,,マルカメ,0
164,1210005010105,新規,0,2023-08-15,2023-08-15,一般社団法人秀道館空手道振興会,,その他の設立登記法人,福井県,福井市,若杉３丁目１２０２番地１,,18,201,9188055,,,,,,,2023-08-15,1,,,,,シュウドウカンカラテドウシンコウカイ,0
169,1240001061917,新規,0,2023-08-15,2023-08-15,株式会社Ｌｉｓｂｏａ．,,株式会社,広島県,福山市,神辺町字下御領１０番地６,,34,207,7202117,,,,,,,2023-08-15,1,,,,,,0
170,1240001061999,新規,0,2023-08-15,2023-08-15,株式会社Ｎｏｂｌｅ,,株式会社,広島県,福山市,神辺町大字新徳田３３番地,,34,207,7202125,,,,,,,2023-08-15,1,,,,,ノーブル,0
171,1240001062007,新規,0,2023-08-15,2023-08-15,株式会社Ｗｏｏｄ．Ｆａｍｉｌｙ,,株式会社,広島県,東広島市,八本松町米満関前７３５番地,,34,212,7390133,,,,,,,2023-08-15,1,,,,,ウッドファミリー,0
178,1260001038236,新規,0,2023-08-15,2023-08-15,株式会社Ｐｕｒｅ,,株式会社,岡山県,岡山市南区,妹尾２５９番地６,,33,104,7010205,,,,,,,2023-08-15,1,,,,,ピュア,0
183,1270003001554,新規,0,2023-08-15,2023-08-15,合同会社Ｔｅｃｈｎｏｓ,,合同会社,鳥取県,倉吉市,国府４１９番地,,31,203,6820942,,,,,,,2023-08-15,1,,,,,テクノス,0
188,1290001102690,新規,0,2023-08-15,2023-08-15,株式会社伍代産業エクステリア,,株式会社,福岡県,筑紫野市,大字永岡９２０番地１,,40,217,8180066,,,,,,,2023-08-15,1,,,,,ゴダイサンギョウエクステリア,0
190,1290003014232,新規,0,2023-08-15,2023-08-15,合同会社青鹿,,合同会社,福岡県,福岡市城南区,別府１丁目１０番３４号,,40,136,8140104,,,,,,,2023-08-15,1,,,,,アオシカ,0
191,1300001013432,新規,0,2023-08-15,2023-08-15,株式会社美Ｐｒｏ,,株式会社,佐賀県,佐賀市,久保田町大字新田３２５５番地４,,41,201,8490203,,,,,,,2023-08-15,1,,,,,ビプロ,0
195,1340001025820,新規,0,2023-08-15,2023-08-15,株式会社まるいち工務店,,株式会社,鹿児島県,鹿児島市,東郡元町１２番３８号,,46,201,8900068,,,,,,,2023-08-15,1,,,,,マルイチコウムテン,0
200,1360001032377,新規,0,2023-08-15,2023-08-15,株式会社Ｏｆｆｉｃｅ　ＩＪＵ,,株式会社,沖縄県,那覇市,東町１１番３号,,47,201,9000034,,,,,,,2023-08-15,1,,,,,オフィスイジュー,0
207,1370001050304,新規,0,2023-08-15,2023-08-15,株式会社ビチョウジュ,,株式会社,宮城県,仙台市太白区,西多賀３丁目６番４５号サトウビル２０２号,,04,104,9820034,,,,,,,2023-08-15,1,,,,,ビチョウジュ,0
209,1370003006246,新規,0,2023-08-15,2023-08-15,合同会社スマートマーケティング,,合同会社,宮城県,仙台市若林区,荒井６丁目６－８,,04,103,9840032,,,,,,,2023-08-15,1,,,,,スマートマーケティング,0
214,1430001089674,新規,0,2023-08-15,2023-08-15,櫻庭建設工業株式会社,,株式会社,北海道,苫小牧市,明野新町３丁目２０番１５号大建ビル２階５号室,,01,213,0530054,,,,,,,2023-08-15,1,,,,,サクラバケンセツコウギョウ,0
215,1430001089708,新規,0,2023-08-15,2023-08-15,株式会社無限,,株式会社,北海道,札幌市中央区,北一条西７丁目３番２号北一条大和田ビル２Ｆ,,01,101,0600001,,,,,,,2023-08-15,1,,,,,ムゲン,0
218,1450003002369,新規,0,2023-08-15,2023-08-15,合同会社アローズ,,合同会社,北海道,旭川市,一条通３丁目２０番地クレストパレス一条通２０３,,01,204,0700031,,,,,,,2023-08-15,1,,,,,アローズ,0
219,1450003002377,新規,0,2023-08-15,2023-08-15,合同会社福,,合同会社,北海道,紋別市,落石町３丁目１６番１８号,,01,219,0940007,,,,,,,2023-08-15,1,,,,,フク,0
220,1460105002266,新規,0,2023-08-15,2023-08-15,行政書士法人とかちパートナーズ,,その他の設立登記法人,北海道,帯広市,東一条南６丁目１２番地３,,01,207,0800801,,,,,,,2023-08-15,1,,,,,トカチパートナーズ,0
222,1470001019768,新規,0,2023-08-15,2023-08-15,株式会社ＧＲＵＥ,,株式会社,香川県,観音寺市,柞田町字八丁丙６２８番地５,,37,205,7680040,,,,,,,2023-08-15,1,,,,,グルー,0
227,1500001025143,新規,0,2023-08-15,2023-08-15,株式会社ジモトプラス,,株式会社,愛媛県,松山市,和泉北１丁目１４番１１号,,38,201,7900038,,,,,,,2023-08-15,1,,,,,ジモトプラス,0
228,1700150114503,新規,0,2023-08-15,2023-08-15,Ｆｕｚｈｏｕ　ｍａｓｕｏｍａｏｙｉ　ｙｏｕｘｉａｎｇｏｎｇｓｉ,,外国会社等,,,,,,,,Ｃａｎｇｓｈａｎｑｕｇｏｎｇｎｏｎｇｊｉｅ２５ｈａｏ　Ｅｒｌｏｕ３２６ｓｈｉ　Ｆｕｚｈｏｕ　Ｆｕｊｉａｎ　３５００００ＣＮ,,,,,,2023-08-15,1,,,,,フーヂョウマースォマオイーヨウシィェンゴンスー,0
229,1700150118999,新規,0,2023-08-15,2023-08-15,ＧＵＡＮＧＺＨＯＵＳＨＩ　ＡＮＳＨＥＮＧＤＩＡＮＺＩＳＨＡＮＧＷＵ　ＹＯＵＸＩＡＮＧＯＮＧＳＩ,,外国会社等,,,,,,,,ＢＡＩ　ＹＵＮ　ＱＵ，ＳＨＩ　ＪＩＮＧ　ＪＵ　ＹＵＡＮ　ＪＩＥ　５０　ＨＡＯ，４＃　３Ａ　ＣＥＮＧ，３Ａ０６，ＺＩ　ＢＩＡＮ　Ｚ１０１０　ＧＵＡＮＧ　ＺＨＯＵ　ＳＨＩ　ＧＵＡＮＧ　ＤＯＮＧ　ＳＨＥＮＧ　ＣＮ,,,,,,2023-08-15,1,,,,,グゥアンゾォウシアンセンデンシシャンウユウゲンコウシ,0
230,1700150119007,新規,0,2023-08-15,2023-08-15,ｓｈｅｎｚｈｅｎｓｈｉ　ａｌａｉｔｅｓｉｋｅｊｉ　ｙｏｕｘｉａｎｇｏｎｇｓｉ,,外国会社等,,,,,,,,ｘｉｘｉａｎｇｊｉｅｄａｏｌａｏｄｏｎｇｓｈｅｑｕｘｉｘｉａｎｇｄａｄａｏ３００ｈａｏｈｕａｆｅｎｇｊｉｎｙｕａｎｓｈａｎｇｗｕｄａｓｈａＡｚｕｏ２２０　Ｓｈｅｎｚｈｅｎｂａｏａｎｑｕ　Ｇｕａｎｇｄｏｎｇ,,,,,,2023-08-15,1,,,,,シンセンシアライテスケジユウゲンコウシ,0
231,1700150119015,新規,0,2023-08-15,2023-08-15,ｈａｎｇｚｈｏｕ　ｘｕｎｇｏｕｄｉａｎｚｉｓｈａｎｇｗｕ　ｙｏｕｘｉａｎｇｏｎｇｓｉ,,外国会社等,,,,,,,,ｙｕｈａｎｇｑｕｃａｎｇｑｉａｎｊｉｅｄａｏ　ｔｉａｏｘｉｃｕｎｘｉｕｃａｉｑｉａｏ１－１ｈａｏ２ｚｈｕａｎｇ２ｌｏｕ２０１　ｈａｎｇｚｈｏｕ　ｚｈｅｊｉａｎｇ,,,,,,2023-08-15,1,,,,,ハンゾォウシュンゴウデンシシャンウユウゲンコウシ,0
232,1700150119023,新規,0,2023-08-15,2023-08-15,ＳｈｅｎＺｈｅｎＳｈｉ　ＳｕＲｅｎＫｕａＪｉｎｇＤｉａｎＳｈａｎｇ　ＹｏｕＸｉａｎＧｏｎｇＳｉ,,外国会社等,,,,,,,,Ｓｈｅｎ　Ｚｈｅｎ　Ｇｕａｎｇ　Ｄｏｎｇ　ｌｏｎｇｇａｎｇｑｕ　ｂａｎｔｉａｎｊｉｅｄａｏ　ｄａｆａｐｕｓｈｅｑｕ　ｄａｆａｌｕ　２７ｈａｏ　ｌｏｎｇｂｉｇｏｎｇｙｅｑｕ　１４ｄｏｎｇ３０２,,,,,,2023-08-15,1,,,,,シンセンシスレンコゥアジンデンシャンユウゲンコウシ,0
248,2010001237687,新規,0,2023-08-15,2023-08-15,株式会社ツカモトホールディングス,,株式会社,東京都,中央区,銀座４丁目２番１５号,,13,102,1040061,,,,,,,2023-08-15,1,,,,,ツカモトホールディングス,0
249,2010001237695,新規,0,2023-08-15,2023-08-15,株式会社ウナガス,,株式会社,東京都,千代田区,外神田６丁目１番８号思い出ビル５階,,13,101,1010021,,,,,,,2023-08-15,1,,,,,ウナガス,0
250,2010001237704,新規,0,2023-08-15,2023-08-15,株式会社新都市賃貸,,株式会社,東京都,中央区,日本橋本石町２丁目１番１号,,13,102,1030021,,,,,,,2023-08-15,1,,,,,シントシチンタイ,0
253,2010003041385,新規,0,2023-08-15,2023-08-15,合同会社コスモユニティ,,合同会社,東京都,中央区,日本橋茅場町２丁目７番１０号,,13,102,1030025,,,,,,,2023-08-15,1,,,,,コスモユニティ,0
254,2010005037118,新規,0,2023-08-15,2023-08-15,一般社団法人フィウメ,,その他の設立登記法人,東京都,千代田区,丸の内３丁目１番１号東京共同会計事務所内,,13,101,1000005,,,,,,,2023-08-15,1,,,,,フィウメ,0
257,2010401176320,新規,0,2023-08-15,2023-08-15,株式会社ａｎ,,株式会社,東京都,港区,浜松町２丁目６番４－３０５号,,13,103,1050013,,,,,,,2023-08-15,1,,,,,アン,0
263,2010601063616,新規,0,2023-08-15,2023-08-15,アドバンス株式会社,,株式会社,東京都,江東区,東砂２丁目１４番８号,,13,108,1360074,,,,,,,2023-08-15,1,,,,,アドバンス,0
267,2010701044714,新規,0,2023-08-15,2023-08-15,株式会社クレールボンド,,株式会社,東京都,品川区,東大井３丁目１４番７号,,13,109,1400011,,,,,,,2023-08-15,1,,,,,クレールボンド,0
276,2011001156159,新規,0,2023-08-15,2023-08-15,ウェルスサロン株式会社,,株式会社,東京都,渋谷区,渋谷１丁目１９番１８－２７０２号,,13,113,1500002,,,,,,,2023-08-15,1,,,,,ウェルスサロン,0
277,2011001156209,新規,0,2023-08-15,2023-08-15,株式会社ＶＯＧＵＥ　ＣＬＡＳＳＩＣ，ＩＮＣ．,,株式会社,東京都,渋谷区,神宮前５丁目９－２３小河アボード１８号,,13,113,1500001,,,,,,,2023-08-15,1,,,,,ボーグクラシック,0
278,2011001156258,新規,0,2023-08-15,2023-08-15,Ｖｉｒｔｕａｌ　Ｐｒｏｄｕｃｔｉｏｎ　Ｌａｂ株式会社,,株式会社,東京都,渋谷区,千駄ヶ谷３丁目３８番１４号,,13,113,1510051,,,,,,,2023-08-15,1,,,,,バーチャルプロダクションラボ,0
279,2011001156299,新規,0,2023-08-15,2023-08-15,新フォレスト株式会社,,株式会社,東京都,目黒区,青葉台１丁目７番１４－４０１号,,13,110,1530042,,,,,,,2023-08-15,1,,,,,シンフォレスト,0
280,2011001156316,新規,0,2023-08-15,2023-08-15,株式会社ＪｅｎＴ　Ｃａｐｉｔａｌ,,株式会社,東京都,渋谷区,神南１丁目１１番３号Ｐｏｒｔａｌ・Ｐｏｉｎｔ・Ｓｈｉｂｕｙａ,,13,113,1500041,,,,,,,2023-08-15,1,,,,,ジェントキャピタル,0
281,2011001156373,新規,0,2023-08-15,2023-08-15,日本美盛株式会社,,株式会社,東京都,渋谷区,神宮前１丁目２３番２８号,,13,113,1500001,,,,,,,2023-08-15,1,,,,,ニホンビモリ,0
283,2011003017334,新規,0,2023-08-15,2023-08-15,ＲＯＣＡ合同会社,,合同会社,東京都,渋谷区,渋谷２丁目１９番１５号宮益坂ビルディング６０９,,13,113,1500002,,,,,,,2023-08-15,1,,,,,ロカ,0
287,2011101103969,新規,0,2023-08-15,2023-08-15,融誠株式会社,,株式会社,東京都,新宿区,榎町３４－３榎町ビル７階－３１室,,13,104,1620806,,,,,,,2023-08-15,1,,,,,ユウセイ,0
288,2011101103977,新規,0,2023-08-15,2023-08-15,アクチュアル総研株式会社,,株式会社,東京都,新宿区,西新宿３丁目９番７号３１６号室,,13,104,1600023,,,,,,,2023-08-15,1,,,,,アクチュアルソウケン,0
294,2011403004080,新規,0,2023-08-15,2023-08-15,ＡＮＮＡＴＨＵＯＮＧ合同会社,,合同会社,東京都,板橋区,中台１丁目３７番２号みどり荘２０５,,13,119,1740064,,,,,,,2023-08-15,1,,,,,アンナトウオン,0
295,2011501029649,新規,0,2023-08-15,2023-08-15,株式会社Ｆｉｅｌｄ　Ｖａｌｌｅｙ,,株式会社,東京都,荒川区,町屋３丁目１４番１号,,13,118,1160001,,,,,,,2023-08-15,1,,,,,フィールドヴァレイ,0
297,2011801042888,新規,0,2023-08-15,2023-08-15,だるま不動産株式会社,,株式会社,東京都,葛飾区,亀有３丁目１８番１号サンライズ亀有４０１号室,,13,122,1250061,,,,,,,2023-08-15,1,,,,,ダルマフドウサン,0
299,2012401040852,新規,0,2023-08-15,2023-08-15,株式会社ヴィレプロダクション,,株式会社,東京都,三鷹市,下連雀７丁目８番６号,,13,204,1810013,,,,,,,2023-08-15,1,,,,,ヴィレプロダクション,0
300,2012401040860,新規,0,2023-08-15,2023-08-15,株式会社医療統計情報通信研究所,,株式会社,東京都,小金井市,緑町３丁目１２番３３号,,13,210,1840003,,,,,,,2023-08-15,1,,,,,イリョウトウケイジョウホウツウシンケンキュウジョ,0
301,2012701017798,新規,0,2023-08-15,2023-08-15,株式会社ＴＨＥ　ＯＮＥ,,株式会社,東京都,東久留米市,下里６丁目１番３４号,,13,222,2030043,,,,,,,2023-08-15,1,,,,,ザワン,0
304,2012801022574,新規,0,2023-08-15,2023-08-15,株式会社フラム,,株式会社,東京都,国分寺市,本多２丁目３番１号メゾンパークレーン２０３,,13,214,1850011,,,,,,,2023-08-15,1,,,,,フラム,0
323,2020001152828,新規,0,2023-08-15,2023-08-15,株式会社椛,,株式会社,神奈川県,横浜市港北区,大倉山１丁目１６番１３－４０９号,,14,109,2220037,,,,,,,2023-08-15,1,,,,,モミジ,0
324,2020001152935,新規,0,2023-08-15,2023-08-15,株式会社ＨＩＤＡＮＥ,,株式会社,神奈川県,横浜市中区,桜木町１丁目１０１番地１クロスゲート７階,,14,104,2310062,,,,,,,2023-08-15,1,,,,,ヒダネ,0
327,2020003024364,新規,0,2023-08-15,2023-08-15,合同会社Ｊｏｅｓ　Ｃｏｒｐｏｒａｔｉｏｎ,,合同会社,神奈川県,横浜市西区,浅間町１丁目４－３ウィザードビル４０２,,14,103,2200072,,,,,,,2023-08-15,1,,,,,ジョーズコーポレーション,0
328,2020003024414,新規,0,2023-08-15,2023-08-15,合同会社横浜ゴースト,,合同会社,神奈川県,横浜市鶴見区,東寺尾２丁目２１―３０グローバルハイツ３０８号室,,14,101,2300077,,,,,,,2023-08-15,1,,,,,ヨコハマゴースト,0
337,2030001155268,新規,0,2023-08-15,2023-08-15,株式会社カジノ農機,,株式会社,埼玉県,深谷市,今泉７４１番地１,,11,218,3690215,,,,,,,2023-08-15,1,,,,,カジノノウキ,0
338,2030001155276,新規,0,2023-08-15,2023-08-15,株式会社サゲド,,株式会社,埼玉県,川口市,戸塚３丁目１４番１１号,,11,203,3330811,,,,,,,2023-08-15,1,,,,,サゲド,0
339,2030001155284,新規,0,2023-08-15,2023-08-15,株式会社ｖｅｒｔｉｃｅ,,株式会社,埼玉県,上尾市,大字平方７５７番地２,,11,219,3620059,,,,,,,2023-08-15,1,,,,,ヴェルティス,0
343,2030003022251,新規,0,2023-08-15,2023-08-15,合同会社三十九,,合同会社,埼玉県,八潮市,八潮６丁目１６番地４セレクト２１八潮南４号室,,11,234,3400815,,,,,,,2023-08-15,1,,,,,サンジュウキュウ,0
348,2040001129626,新規,0,2023-08-15,2023-08-15,株式会社Ｌｉｆｅ　Ｇｒａｆｆｉｔｉ,,株式会社,千葉県,館山市,高井２２４番地の２７,,12,205,2940041,,,,,,,2023-08-15,1,,,,,ライフグラフィティー,0
350,2050001053288,新規,0,2023-08-15,2023-08-15,株式会社ＲＴ,,株式会社,茨城県,土浦市,西根南２丁目１番２０号,,08,203,3000842,,,,,,,2023-08-15,1,,,,,アールティー,0
354,2070001040763,新規,0,2023-08-15,2023-08-15,株式会社メヴィアス,,株式会社,群馬県,高崎市,正観寺町１０６３番地２清水マンション２０１号,,10,202,3700008,,,,,,,2023-08-15,1,,,,,,0
357,2080001025805,新規,0,2023-08-15,2023-08-15,株式会社ＯＨ．ｉｎｃ,,株式会社,静岡県,静岡市清水区,下清水町１０番１号,,22,103,4240939,,,,,,,2023-08-15,1,,,,,オードットインク,0
362,2080401026667,新規,0,2023-08-15,2023-08-15,殿村エクスプレス株式会社,,株式会社,静岡県,磐田市,向笠新屋７４９番地４,,22,211,4380012,,,,,,,2023-08-15,1,,,,,トノムラエクスプレス,0
364,2090001018246,新規,0,2023-08-15,2023-08-15,株式会社ベル甲府,,株式会社,山梨県,甲府市,南口町１－４,,19,201,4000863,,,,,,,2023-08-15,1,,,,,,0
370,2110001037771,新規,0,2023-08-15,2023-08-15,株式会社ドリームアシスト新潟,,株式会社,新潟県,新潟市西区,坂井東４丁目３４番８号,,15,107,9502041,,,,,,,2023-08-15,1,,,,,ドリームアシストニイガタ,0
379,2120001257138,新規,0,2023-08-15,2023-08-15,株式会社ＡＧＴ　ＧＲＯＵＰ,,株式会社,大阪府,大阪市北区,豊崎３丁目１６番１６号ブランズタワー梅田Ｎｏｒｔｈ,,27,127,5310072,,,,,,,2023-08-15,1,,,,,エージーティーグループ,0
380,2120001257162,新規,0,2023-08-15,2023-08-15,ワイジーアンドエム株式会社,,株式会社,大阪府,大阪市生野区,桃谷３丁目１２番１７号,,27,116,5440034,,,,,,,2023-08-15,1,,,,,ワイジーアンドエム,0
384,2120003024668,新規,0,2023-08-15,2023-08-15,合同会社ＪＩＭＭＹ　ＦＡＣＴＯＲＹ,,合同会社,大阪府,大阪市北区,兎我野町３番１９号水野ビル２Ｆ,,27,127,5300056,,,,,,,2023-08-15,1,,,,,ジミーファクトリー,0
385,2120003024692,新規,0,2023-08-15,2023-08-15,新爵盟日本エネルギー開発合同会社,,合同会社,大阪府,大阪市浪速区,湊町２丁目５番地２なんばセントラルプラザリバーガーデン３１６,,27,111,5560017,,,,,,,2023-08-15,1,,,,,,0
389,2120101068071,新規,0,2023-08-15,2023-08-15,健栄株式会社,,株式会社,大阪府,堺市中区,平井６９９番地２３,,27,142,5998251,,,,,,,2023-08-15,1,,,,,ケンエイ,0
390,2120103005361,新規,0,2023-08-15,2023-08-15,ＳＡＨＡ合同会社,,合同会社,大阪府,堺市堺区,新在家町東３丁１番２７－２０１号,,27,141,5900964,,,,,,,2023-08-15,1,,,,,サハ,0
392,2120901047943,新規,0,2023-08-15,2023-08-15,株式会社ＦｉｒｓｔＧｅａｒ,,株式会社,大阪府,豊中市,利倉２丁目１８番２４号,,27,203,5610845,,,,,,,2023-08-15,1,,,,,ファーストギア,0
393,2120901047951,新規,0,2023-08-15,2023-08-15,株式会社ＴＳホールディングス,,株式会社,大阪府,吹田市,川岸町５番３０号,,27,205,5640037,,,,,,,2023-08-15,1,,,,,ティーエスホールディングス,0
397,2130001074961,新規,0,2023-08-15,2023-08-15,株式会社ＤＫＥＮＳ,,株式会社,京都府,京都市左京区,八瀬近衛町４２４番地５,,26,103,6011253,,,,,,,2023-08-15,1,,,,,ディケンズ,0
398,2130005016852,新規,0,2023-08-15,2023-08-15,特定非営利活動法人ドレミ子ども食堂２３,,その他の設立登記法人,京都府,京都市西京区,大枝北沓掛町１丁目５番地２－４０６,,26,111,6101101,,,,,,,2023-08-15,1,,,,,ドレミコドモショクドウニジュウサン,0
402,2140001131274,新規,0,2023-08-15,2023-08-15,株式会社ファンデ,,株式会社,兵庫県,明石市,二見町西二見駅前３丁目１２５番地の９,,28,203,6740095,,,,,,,2023-08-15,1,,,,,ファンデ,0
403,2140003019451,新規,0,2023-08-15,2023-08-15,合同会社リサアセットマネジメント,,合同会社,兵庫県,神戸市中央区,下山手通４丁目５－１－８０４,,28,110,6500011,,,,,,,2023-08-15,1,,,,,リサアセットマネジメント,0
407,2160003002959,新規,0,2023-08-15,2023-08-15,合同会社ｈｉｍａｗａｒｉ,,合同会社,滋賀県,草津市,西渋川１丁目１－２６－６０６,,25,206,5250025,,,,,,,2023-08-15,1,,,,,ヒマワリ,0
421,2180001157613,新規,0,2023-08-15,2023-08-15,株式会社マイタウン,,株式会社,愛知県,名古屋市東区,相生町８０番地,,23,102,4610012,,,,,,,2023-08-15,1,,,,,マイタウン,0
422,2180001157621,新規,0,2023-08-15,2023-08-15,株式会社健橋,,株式会社,愛知県,名古屋市守山区,脇田町１４０１番地,,23,113,4630024,,,,,,,2023-08-15,1,,,,,ケンバシ,0
428,2180003025537,新規,0,2023-08-15,2023-08-15,エスエスグループ合同会社,,合同会社,愛知県,名古屋市千種区,東山通５丁目２０番１号２Ｃ,,23,101,4640807,,,,,,,2023-08-15,1,,,,,エスエスグループ,0
429,2180003025603,新規,0,2023-08-15,2023-08-15,ＪｏｙＳｔａｔｉｏｎ合同会社,,合同会社,愛知県,名古屋市中村区,名駅４丁目２４番５号第２森ビル４０１号,,23,105,4500002,,,,,,,2023-08-15,1,,,,,ジョイステーション,0
438,2210003001682,新規,0,2023-08-15,2023-08-15,合同会社ｍｏｃｏ,,合同会社,福井県,福井市,上北野１丁目１０番２号,,18,201,9188203,,,,,,,2023-08-15,1,,,,,モコ,0
440,2220001025550,新規,0,2023-08-15,2023-08-15,アトランティカ株式会社,,株式会社,石川県,金沢市,八日市１丁目３０７番地５,,17,201,9218064,,,,,,,2023-08-15,1,,,,,アトランティカ,0
441,2220003003570,新規,0,2023-08-15,2023-08-15,合同会社ｏｍｏｉｔｅ,,合同会社,石川県,金沢市,此花町５‐６,,17,201,9200852,,,,,,,2023-08-15,1,,,,,オモイテ,0
447,2240001061998,新規,0,2023-08-15,2023-08-15,株式会社ファームはりまや,,株式会社,広島県,神石郡神石高原町,有木２４１４番地,,34,545,7201701,,,,,,,2023-08-15,1,,,,,ファームハリマヤ,0
448,2240001062006,新規,0,2023-08-15,2023-08-15,株式会社Ｐｕｒｅ　Ｌｅｔｔｅｒｓ,,株式会社,広島県,広島市佐伯区,五日市中央５丁目１１番２１－１０１号,,34,108,7315128,,,,,,,2023-08-15,1,,,,,ピュアレターズ,0
453,2290001102574,新規,0,2023-08-15,2023-08-15,株式会社ＧｌｏｒｙＢ,,株式会社,福岡県,福岡市博多区,博多駅東２丁目１８番２８号ジェントリー博多７０７,,40,132,8120013,,,,,,,2023-08-15,1,,,,,グローリービー,0
454,2290001102582,新規,0,2023-08-15,2023-08-15,株式会社ＮＡＫＡＧＡＷＡ,,株式会社,福岡県,福岡市西区,拾六町４丁目５４番８－２号,,40,135,8190041,,,,,,,2023-08-15,1,,,,,ナカガワ,0
455,2290001102616,新規,0,2023-08-15,2023-08-15,株式会社ＭＩＣＨＩＫＯ　ＪＡＰＡＮ,,株式会社,福岡県,福岡市博多区,比恵町１９番２号,,40,132,8120014,,,,,,,2023-08-15,1,,,,,ミチコジャパン,0
456,2290001102665,新規,0,2023-08-15,2023-08-15,株式会社Ｆｉｒｓｔ　ｏｎｅ．デザイン,,株式会社,福岡県,福岡市南区,野多目４丁目１８番４１号,,40,134,8111347,,,,,,,2023-08-15,1,,,,,ファーストワンデザイン,0
457,2290005019105,新規,0,2023-08-15,2023-08-15,一般財団法人津屋崎豊村喜三郎記念財団,,その他の設立登記法人,福岡県,福津市,津屋崎４丁目１４番１８号,,40,224,8113304,,,,,,,2023-08-15,1,,,,,ツヤザキトヨムラキサブロウキネンザイダン,0
460,2320003004146,新規,0,2023-08-15,2023-08-15,アドバンス・サポート合同会社,,合同会社,大分県,日田市,大字十二町４５５番地１,,44,204,8770000,,,,,,,2023-08-15,1,,,,,アドバンスサポート,0
461,2330001031174,新規,0,2023-08-15,2023-08-15,株式会社ＳＨＩＭＡコンサルティング,,株式会社,熊本県,熊本市中央区,平成３丁目１６番１９号,,43,101,8600833,,,,,,,2023-08-15,1,,,,,シマコンサルティング,0
467,2340001025803,新規,0,2023-08-15,2023-08-15,株式会社水乃浦,,株式会社,鹿児島県,大島郡龍郷町,大勝１２７５番地１,,46,527,8940105,,,,,,,2023-08-15,1,,,,,ミズノウラ,0
468,2340001025828,新規,0,2023-08-15,2023-08-15,株式会社ｔｏ,,株式会社,鹿児島県,奄美市,名瀬永田町５番１５号,,46,222,8940023,,,,,,,2023-08-15,1,,,,,トゥ,0
479,2370001050286,新規,0,2023-08-15,2023-08-15,株式会社ＳＫエアテック,,株式会社,宮城県,仙台市泉区,高森３丁目４番地の１１８,,04,105,9813203,,,,,,,2023-08-15,1,,,,,エスケーエアテック,0
486,2410003003832,新規,0,2023-08-15,2023-08-15,ＰＡＲＯＶＥＬ　ＪＡＰＡＮ合同会社,,合同会社,秋田県,秋田市,雄和戸賀沢字御江田６番地,,05,201,0101232,,,,,,,2023-08-15,1,,,,,パロヴェルジャパン,0
487,2420001018369,新規,0,2023-08-15,2023-08-15,株式会社Ｂｏｄｙ　Ｆｉｒｓｔ,,株式会社,青森県,青森市,橋本１丁目６番３号ＡＰ．４０１ＢＬＤ４Ｆ,,02,201,0300823,,,,,,,2023-08-15,1,,,,,,0
488,2430001089673,新規,0,2023-08-15,2023-08-15,株式会社ジェントリー,,株式会社,北海道,千歳市,みどり台北１丁目３番７号,,01,224,0660083,,,,,,,2023-08-15,1,,,,,ジェントリー,0
489,2430001089731,新規,0,2023-08-15,2023-08-15,株式会社ＳＫＦグループ,,株式会社,北海道,美唄市,東四条南６丁目１１番５１号,,01,215,0720015,,,,,,,2023-08-15,1,,,,,エスケーエフグループ,0
491,2470001019767,新規,0,2023-08-15,2023-08-15,株式会社ＷＩＬＬＹ,,株式会社,香川県,高松市,松縄町３５番地１１,,37,201,7600079,,,,,,,2023-08-15,1,,,,,ウィリー,0
496,2500001025142,新規,0,2023-08-15,2023-08-15,株式会社ＡＴＲＹＺ,,株式会社,愛媛県,松山市,泉町１０５番地２,,38,201,7900025,,,,,,,2023-08-15,1,,,,,アトライズ,0
497,2700150114502,新規,0,2023-08-15,2023-08-15,Ｓｈｅｎｚｈｅｎ　ＳｈｉＤｕｉ　Ｔｅｃｈｎｏｌｏｇｙ　Ｃｏ．，Ｌｔｄ．,,外国会社等,,,,,,,,２０７，Ｍｉｎｇｚｈｕ　Ｂｌｄｇ．，Ｘｉｎｗｅｉｚａｉ，Ｌｏｎｇｇａｎｇ　Ｄｉｓｔ．Ｓｈｅｎｚｈｅｎ　５１８１２９ＣＮ,,,,,,2023-08-15,1,,,,,シェンヂェンシーシードゥイクァアジーヨウシィェンゴンスー,0
498,2700150118998,新規,0,2023-08-15,2023-08-15,Ｄｏｎｇｇｕａｎｓｈｉ　ｓｈｅｎｈａｎｃａｉｓｈａｎｇｍａｏ　ｙｏｕｘｉａｎｇｏｎｇｓｉ,,外国会社等,,,,,,,,Ｒｏｏｍ　２０５，Ｎｏ．４６　Ｌｏｎｇｙａｎ　Ｎｉｎｅ　Ｒｏａｄ　Ｄｏｎｇｇｕａｎ　ｃｉｔｙ　Ｈｕｍｅｎ　Ｔｏｗｎ　Ｇｕａｎｇｄｏｎｇ　Ｐｒｏｖｉｎｃｅ　ＣＮ,,,,,,2023-08-15,1,,,,,ドングゥアンシセンハンチャイシャンマオユウゲンコウシ,0
499,2700150119006,新規,0,2023-08-15,2023-08-15,Ｓｈｅｎ　Ｚｈｅｎ　Ｓｈｉ　Ａｎ　Ｌｉｎ　Ｓｕｏ　Ｋｅ　Ｊｉ　Ｙｏｕ　Ｘｉａｎ　Ｇｏｎｇ　Ｓｉ,,外国会社等,,,,,,,,Ｓｈｅｎ　Ｚｈｅｎ　Ｓｈｉ　Ｂａｏ　Ａｎ　Ｑｕ　Ｘｉ　Ｘｉａｎｇ　Ｊｉｅ　Ｄａｏ　Ｇｕ　Ｓｈｕ　Ｓｈｅ　Ｑｕ　Ｓｈｉ　Ｊｉｅ　Ｇｕ　Ｆｅｎ　Ｇｏｎｇ　Ｓｉ　Ｂａ　Ｃｈａｎｇ　Ｂ　Ｄｏｎｇ　Ｈｕｉ　Ｃｈｕａｎｇ　Ｇｏｎｇ　Ｆａｎｇ　２１５,,,,,,2023-08-15,1,,,,,シンセンシアンリンソディケジユウゲンコウシ,0
500,2700150119014,新規,0,2023-08-15,2023-08-15,ＧＵＡＮＧ　ＺＨＯＵ　ＳＨＩ　ＡＮ　ＧＥ　ＫＥ　Ｊｌ　ＹＯＵ　ＸＩＡＮ　ＧＯＮＧ　ＳＩ,,外国会社等,,,,,,,,ＺＩ　ＢＩＡＮ　Ｂ００２，ＤＡ　ＧＡＮＧ　ＳＨＡＮＧ　ＳＨＩ　ＧＯＮＧ　ＹＥ　ＱＵ，ＢＡＩ　ＹＵＮ　ＨＵ　ＪＩＥ，ＢＡＩ　ＹＵＮ　ＱＵ　ＧＵＡＮＧ　ＺＨＯＵ　ＳＨＩ　ＧＵＡＮＧ　ＤＯＮＧ　ＳＨＥＮＧ　ＣＮ,,,,,,2023-08-15,1,,,,,グゥアンゾォウシアンゲケジユウゲンコウシ,0
501,2700150119022,新規,0,2023-08-15,2023-08-15,Ｈｕｉｚｈｏｕ　ｃｈａｏ　ｓｈｅｎｇ　ｗａｎｇ　ｌｕｏ　ｋｅ　ｊｉ　ｙｏｕ　ｘｉａｎ　ｇｏｎｇ　ｓｉ,,外国会社等,,,,,,,,Ｈｕｉｃｈｅｎｇ　ｑｕ　ｙａｎ　ｄａ　ｄａ　ｄａｏ　２　ｈａｏ　ｈａｉ　ｘｉｎ　ｊｉｎ　ｒｏｎｇ　ｇｕａｎｇ　ｃｈａｎｇ　１２ｃｅｎｇ　１８ｈａｏ　Ｈｕｉｚｈｏｕ　Ｇｕａｎｇｄｏｎｇ　ＣＮ,,,,,,2023-08-15,1,,,,,ケイシュウチャオシェンワンルオカギユウゲンコウシ,0
508,3010001237703,新規,0,2023-08-15,2023-08-15,株式会社新都市スタイル,,株式会社,東京都,千代田区,麹町２丁目１０番３号,,13,101,1020083,,,,,,,2023-08-15,1,,,,,シントシスタイル,0
510,3010005037083,新規,0,2023-08-15,2023-08-15,弁護士法人ＯＭＭ法律事務所,,その他の設立登記法人,東京都,千代田区,平河町２丁目２番１号,,13,101,1020093,,,,,,,2023-08-15,1,,,,,オーエムエムホウリツジムショ,0
511,3010005037100,新規,0,2023-08-15,2023-08-15,一般社団法人神宮外苑みどりプロジェクト,,その他の設立登記法人,東京都,中央区,日本橋室町３丁目２番１号,,13,102,1030022,,,,,,,2023-08-15,1,,,,,ジングウガイエンミドリプロジェクト,0
512,3010005037117,新規,0,2023-08-15,2023-08-15,一般社団法人ウィメンズ歯科協会,,その他の設立登記法人,東京都,文京区,千駄木３丁目２８番１号,,13,105,1130022,,,,,,,2023-08-15,1,,,,,ウィメンズシカキョウカイ,0
521,3010401176328,新規,0,2023-08-15,2023-08-15,株式会社ＮＥＸＴ　ＲＥＡＤ,,株式会社,東京都,港区,白金１丁目１０番８号３０２,,13,103,1080072,,,,,,,2023-08-15,1,,,,,ネクストリード,0
524,3010501050903,新規,0,2023-08-15,2023-08-15,株式会社渋谷Ａｓｓｅｔ　Ｍａｎａｇｅｍｅｎｔ,,株式会社,東京都,台東区,池之端１丁目５番１－３０８号ベラカーサ池之端,,13,106,1100008,,,,,,,2023-08-15,1,,,,,シブヤアセットマネジメント,0
526,3010601063607,新規,0,2023-08-15,2023-08-15,株式会社九星堂,,株式会社,東京都,墨田区,東駒形１丁目１６－２東駒形ハイデンス８０４,,13,107,1300005,,,,,,,2023-08-15,1,,,,,キュウセイドウ,0
528,3010603010292,新規,0,2023-08-15,2023-08-15,合同会社ふかんデータラボ,,合同会社,東京都,墨田区,緑１丁目４番７－３０６号米山ビル,,13,107,1300021,,,,,,,2023-08-15,1,,,,,フカンデータラボ,0
533,3010701044721,新規,0,2023-08-15,2023-08-15,永江ソリューション株式会社,,株式会社,東京都,品川区,南大井６丁目１８－１－４０６号,,13,109,1400013,,,,,,,2023-08-15,1,,,,,ナガエソリューション,0
534,3010703006819,新規,0,2023-08-15,2023-08-15,合同会社レトロ,,合同会社,東京都,品川区,東大井４丁目１５番７号,,13,109,1400011,,,,,,,2023-08-15,1,,,,,レトロ,0
536,3010803004631,新規,0,2023-08-15,2023-08-15,ジャパンホルティカンパニー合同会社,,合同会社,東京都,大田区,田園調布南２２番１１号,,13,111,1450076,,,,,,,2023-08-15,1,,,,,ジャパンホルティカンパニー,0
542,3011001156208,新規,0,2023-08-15,2023-08-15,株式会社Ｗ‐ＢＡＳＥ,,株式会社,東京都,渋谷区,神宮前６丁目２３番４号桑野ビル２階,,13,113,1500001,,,,,,,2023-08-15,1,,,,,ダブリュベース,0
543,3011001156257,新規,0,2023-08-15,2023-08-15,株式会社プロリノ,,株式会社,東京都,渋谷区,円山町５番５号Ｎａｖｉ渋谷Ｖ３階,,13,113,1500044,,,,,,,2023-08-15,1,,,,,プロリノ,0
544,3011001156323,新規,0,2023-08-15,2023-08-15,ドーチェ・ピスカーリ株式会社,,株式会社,東京都,渋谷区,道玄坂１丁目１２番１号渋谷マークシティＷ２２階,,13,113,1500043,,,,,,,2023-08-15,1,,,,,ドーチェピスカーリ,0
545,3011001156356,新規,0,2023-08-15,2023-08-15,Ｄｅｖｏｎｓｈｉｒｅ　Ｉｎｖｅｓｔｍｅｎｔ株式会社,,株式会社,東京都,目黒区,駒場４丁目３番２８号,,13,110,1530041,,,,,,,2023-08-15,1,,,,,デボンシャーインベストメント,0
546,3011003017366,新規,0,2023-08-15,2023-08-15,ＭＣＲＮ合同会社,,合同会社,東京都,渋谷区,渋谷３丁目５番１６号渋谷三丁目スクエアビル２階,,13,113,1500002,,,,,,,2023-08-15,1,,,,,エムシーアールエヌ,0
547,3011003017374,新規,0,2023-08-15,2023-08-15,ＳＫＡＭ合同会社,,合同会社,東京都,渋谷区,道玄坂１丁目１６番６号二葉ビル８Ｂ,,13,113,1500043,,,,,,,2023-08-15,1,,,,,スキャム,0
550,3011005010179,新規,0,2023-08-15,2023-08-15,一般社団法人Ｎａｔｕｒｅ‐ｂａｓｅｄ　Ｓｏｌｕｔｉｏｎｓ,,その他の設立登記法人,東京都,渋谷区,東３丁目２０番２号,,13,113,1500011,,,,,,,2023-08-15,1,,,,,ネイチャーベースドソリューションズ,0
552,3011101103992,新規,0,2023-08-15,2023-08-15,霊嘉株式会社,00131535,株式会社,東京都,新宿区,西新宿４丁目１６番－３－２０５Ｇ,,13,104,1600023,,,,,,,2023-08-15,1,,,,,レイカ,0
557,3011103013364,新規,0,2023-08-15,2023-08-15,合同会社エイショウドー,,合同会社,東京都,新宿区,新宿２丁目１２番１３号新宿アントレサロンビル２階,,13,104,1600022,,,,,,,2023-08-15,1,,,,,エイショウドー,0
558,3011301028932,新規,0,2023-08-15,2023-08-15,ＲＥＳＵＳ株式会社,,株式会社,東京都,杉並区,本天沼３丁目３７番１８号本天沼家族寮Ａ棟２０１,,13,115,1670031,,,,,,,2023-08-15,1,,,,,リーサス,0
559,3011305002925,新規,0,2023-08-15,2023-08-15,一般社団法人アジア・インスティチュート,,その他の設立登記法人,東京都,杉並区,阿佐谷南１丁目３４－６新東京会館５Ｆ,,13,115,1660004,,,,,,,2023-08-15,1,,,,,アジアインスティチュート,0
560,3011503005721,新規,0,2023-08-15,2023-08-15,合同会社レガーレ,,合同会社,東京都,北区,滝野川１丁目２６番１１号,,13,117,1140023,,,,,,,2023-08-15,1,,,,,レガーレ,0
566,3011801042879,新規,0,2023-08-15,2023-08-15,株式会社Ｄｒｅａｃｏｎ,,株式会社,東京都,葛飾区,新小岩１丁目１８番６号３０２号室,,13,122,1240024,,,,,,,2023-08-15,1,,,,,ドリーコン,0
567,3012401040876,新規,0,2023-08-15,2023-08-15,株式会社音楽で君を守る,,株式会社,東京都,府中市,宮西町５丁目６番２号アローランドマンション２０３,,13,206,1830022,,,,,,,2023-08-15,1,,,,,オンガクデキミヲマモル,0
570,3012403006108,新規,0,2023-08-15,2023-08-15,合同会社ハイロード,,合同会社,東京都,府中市,押立町５丁目５－３６,,13,206,1830012,,,,,,,2023-08-15,1,,,,,ハイロード,0
572,3012701017797,新規,0,2023-08-15,2023-08-15,株式会社土井産業医事務所,,株式会社,東京都,西東京市,田無町１丁目４番１号,,13,229,1880011,,,,,,,2023-08-15,1,,,,,ドイサンギョウイジムショ,0
574,3012801022573,新規,0,2023-08-15,2023-08-15,株式会社大経,,株式会社,東京都,東大和市,向原４丁目４番地の１５,,13,220,2070013,,,,,,,2023-08-15,1,,,,,ダイケイ,0
575,3012803003159,新規,0,2023-08-15,2023-08-15,ＡＳＳＩＳＴ建築合同会社,,合同会社,東京都,立川市,一番町１丁目３４番８－２０３号,,13,202,1900033,,,,,,,2023-08-15,1,,,,,アシストケンチク,0
583,3020001152942,新規,0,2023-08-15,2023-08-15,株式会社タカオスペース,,株式会社,神奈川県,横浜市西区,浅間町１丁目４番３号ウィザードビル４０２,,14,103,2200072,,,,,,,2023-08-15,1,,,,,タカオスペース,0
584,3020001152950,新規,0,2023-08-15,2023-08-15,株式会社プレヴァナンス,,株式会社,神奈川県,川崎市宮前区,小台２丁目９番地６ザ・パークハウス宮前平２１７,,14,136,2160007,,,,,,,2023-08-15,1,,,,,プレヴァナンス,0
590,3020003024355,新規,0,2023-08-15,2023-08-15,合同会社ＧＯＴＯ　ＪＡＰＡＮ,,合同会社,神奈川県,川崎市中原区,中丸子７９８番１号グランシーナ多摩川７１４号室,,14,133,2110012,,,,,,,2023-08-15,1,,,,,ゴトージャパン,0
601,3030001155291,新規,0,2023-08-15,2023-08-15,株式会社黒鉄技建,,株式会社,埼玉県,東松山市,新宿町２４番地２３,,11,212,3550032,,,,,,,2023-08-15,1,,,,,クロガネギケン,0
602,3030001155317,新規,0,2023-08-15,2023-08-15,株式会社尾崎興業,00131526,株式会社,埼玉県,ふじみ野市,中福岡１８８番地８,,11,245,3560013,,,,,,,2023-08-15,1,,,,,オザキコウギョウ,0
603,3030001155408,新規,0,2023-08-15,2023-08-15,株式会社ＪＰＬ,,株式会社,埼玉県,所沢市,大字久米３４８番地の１,,11,208,3591131,,,,,,,2023-08-15,1,,,,,ジェイピーエル,0
607,3030003022250,新規,0,2023-08-15,2023-08-15,鈴木カンパニー合同会社,,合同会社,埼玉県,北足立郡伊奈町,西小針５丁目２８番地５,,11,301,3620811,,,,,,,2023-08-15,1,,,,,スズキカンパニー,0
608,3030003022309,新規,0,2023-08-15,2023-08-15,合同会社ｐｒｅｌｅ,,合同会社,埼玉県,草加市,谷塚１丁目２２番３８号,,11,221,3400028,,,,,,,2023-08-15,1,,,,,プレール,0
615,3040001129674,新規,0,2023-08-15,2023-08-15,株式会社車再技美創,,株式会社,千葉県,八街市,文違３０１番地３２５７,,12,230,2891104,,,,,,,2023-08-15,1,,,,,シャサイギビソウ,0
616,3040001129682,新規,0,2023-08-15,2023-08-15,株式会社大縁総業,,株式会社,千葉県,君津市,中野５丁目６－２１,,12,225,2991151,,,,,,,2023-08-15,1,,,,,ダイエンソウギョウ,0
617,3040001129699,新規,0,2023-08-15,2023-08-15,株式会社座間電気,,株式会社,千葉県,柏市,塚崎１０７０番地２,,12,217,2770923,,,,,,,2023-08-15,1,,,,,ザマデンキ,0
618,3040005022090,新規,0,2023-08-15,2023-08-15,一般社団法人みらいエコシステム,,その他の設立登記法人,千葉県,市原市,千種７丁目１７番地１４,,12,219,2990109,,,,,,,2023-08-15,1,,,,,ミライエコシステム,0
619,3050003007729,新規,0,2023-08-15,2023-08-15,二幸合同会社,,合同会社,茨城県,常総市,十花町４０８番地１,,08,211,3030018,,,,,,,2023-08-15,1,,,,,ニサチ,0
626,3070001040746,新規,0,2023-08-15,2023-08-15,株式会社ナカジマアソシエイツ,,株式会社,群馬県,前橋市,南町３丁目３３番地２,,10,201,3710805,,,,,,,2023-08-15,1,,,,,ナカジマアソシエイツ,0
627,3070001040754,新規,0,2023-08-15,2023-08-15,ＡＲＴ‐ＨＩＫＡＲＩエンジニアリング株式会社,,株式会社,群馬県,館林市,近藤町２６２番地,,10,207,3740042,,,,,,,2023-08-15,1,,,,,アートヒカリエンジニアリング,0
628,3070001040762,新規,0,2023-08-15,2023-08-15,株式会社スペース,,株式会社,群馬県,高崎市,上並榎町１７１番地,,10,202,3700801,,,,,,,2023-08-15,1,,,,,スペース,0
636,3100003007145,新規,0,2023-08-15,2023-08-15,合同会社ヤツキャリア,,合同会社,長野県,諏訪郡富士見町,富士見３７８５－３,,20,362,3990211,,,,,,,2023-08-15,1,,,,,ヤツキャリア,0
637,3110001037770,新規,0,2023-08-15,2023-08-15,株式会社ＣＳ・ＷＯＲＫＳ,,株式会社,新潟県,新潟市南区,味方３３７番地,,15,106,9501261,,,,,,,2023-08-15,1,,,,,シーエスワークス,0
646,3120001257095,新規,0,2023-08-15,2023-08-15,株式会社Ｃａｐｉｔａｎ,,株式会社,大阪府,大阪市北区,梅田１丁目２番２号大阪駅前第２ビル１２－１２,,27,127,5300001,,,,,,,2023-08-15,1,,,,,キャピタン,0
647,3120001257137,新規,0,2023-08-15,2023-08-15,株式会社ＨＯＭＥＢＡＣＫＳ,,株式会社,大阪府,大阪市旭区,森小路１丁目１４番２９－３０１,,27,117,5350013,,,,,,,2023-08-15,1,,,,,ホームバックス,0
648,3120001257260,新規,0,2023-08-15,2023-08-15,サンミレイズ株式会社,,株式会社,大阪府,大阪市淀川区,新高６丁目１４番１３号エレガンテ７－１ビル２１０号室,,27,123,5320033,,,,,,,2023-08-15,1,,,,,サンミレイズ,0
649,3120001257285,新規,0,2023-08-15,2023-08-15,大陽株式会社,,株式会社,大阪府,大阪市西成区,山王３丁目１６番２５号エスポワール山王４０１号室,,27,122,5570001,,,,,,,2023-08-15,1,,,,,タイヨウ,0
651,3120003024667,新規,0,2023-08-15,2023-08-15,合同会社ａｌｂａ　ｃａｓａ,,合同会社,大阪府,大阪市生野区,巽中３丁目４番１３号,00131533,27,116,5440013,,,,,,,2023-08-15,1,,,,,アルバカーサ,0
652,3120003024709,新規,0,2023-08-15,2023-08-15,合同会社てっちゃん,,合同会社,大阪府,大阪市西区,本田１丁目６－１８－３１０,,27,106,5500022,,,,,,,2023-08-15,1,,,,,,0
653,3120005023816,新規,0,2023-08-15,2023-08-15,一般社団法人生活行為支援協会,,その他の設立登記法人,大阪府,大阪市北区,梅田１丁目２番２号大阪駅前第２ビル１２－１２,,27,127,5300001,,,,,,,2023-08-15,1,,,,,セイカツコウイシエンキョウカイ,0
655,3120101068062,新規,0,2023-08-15,2023-08-15,株式会社脇阪商会,,株式会社,大阪府,藤井寺市,林２丁目５番１０－３０３号,,27,226,5830007,,,,,,,2023-08-15,1,,,,,ワキサカショウカイ,0
657,3120901047950,新規,0,2023-08-15,2023-08-15,株式会社グローバル・ソリューションズ・ジャパン,,株式会社,大阪府,茨木市,玉瀬町１６番３号,,27,211,5670893,,,,,,,2023-08-15,1,,,,,グローバルソリューションズジャパン,0
658,3120903004784,新規,0,2023-08-15,2023-08-15,合同会社ｅｓｐｏｉｒ,,合同会社,大阪府,箕面市,箕面６丁目９番７号,,27,220,5620001,,,,,,,2023-08-15,1,,,,,エスポワール,0
661,3130001074952,新規,0,2023-08-15,2023-08-15,株式会社龍雅ワークス,,株式会社,京都府,綴喜郡井手町,大字井手小字梅ノ木原１１番地の１,,26,343,6100302,,,,,,,2023-08-15,1,,,,,リュウガワークス,0
662,3130001074960,新規,0,2023-08-15,2023-08-15,株式会社アルテミス,,株式会社,京都府,京都市下京区,大政所町６８０－１第８長谷ビル２Ｆ,,26,106,6008413,,,,,,,2023-08-15,1,,,,,アルテミス,0
675,3180001157562,新規,0,2023-08-15,2023-08-15,中日ホールディングス株式会社,,株式会社,愛知県,名古屋市中村区,豊国通２丁目３番地,,23,105,4530834,,,,,,,2023-08-15,1,,,,,チュウニチホールディングス,0
676,3180001157620,新規,0,2023-08-15,2023-08-15,株式会社ＡＤ　ＥＣＯリサイクルセンター,,株式会社,愛知県,一宮市,起字東茜屋５１番地１５,,23,203,4940006,,,,,,,2023-08-15,1,,,,,アダチエコリサイクルセンター,0
677,3180001157645,新規,0,2023-08-15,2023-08-15,株式会社クローバー,,株式会社,愛知県,豊明市,新栄町３丁目２１９番地２メゾンド・ベル１０１号,,23,229,4701154,,,,,,,2023-08-15,1,,,,,クローバー,0
683,3180003025619,新規,0,2023-08-15,2023-08-15,合同会社アルファ,,合同会社,愛知県,名古屋市中村区,名駅南１丁目１４番５号プラウドタワー名駅南,,23,105,4500003,,,,,,,2023-08-15,1,,,,,アルファ,0
684,3180003025627,新規,0,2023-08-15,2023-08-15,合同会社結の羽,,合同会社,愛知県,愛西市,大野山町元余代４４番地,,23,232,4968017,,,,,,,2023-08-15,1,,,,,ユイノハ,0
688,3200001041615,新規,0,2023-08-15,2023-08-15,株式会社グラテス,,株式会社,岐阜県,大垣市,外花３丁目２８番地２,,21,202,5030954,,,,,,,2023-08-15,1,,,,,グラテス,0
691,3220001025558,新規,0,2023-08-15,2023-08-15,株式会社ゲイルロズスタジオ,,株式会社,石川県,金沢市,新保本４丁目６５番地１６,,17,201,9218062,,,,,,,2023-08-15,1,,,,,ゲイルロズスタジオ,0
706,3260001038234,新規,0,2023-08-15,2023-08-15,株式会社Ｂｉｚｒａｉｌ,,株式会社,岡山県,岡山市南区,曽根４８１番地１,,33,104,7010214,,,,,,,2023-08-15,1,,,,,ビズレール,0
714,3290001102664,新規,0,2023-08-15,2023-08-15,株式会社Ｍ．ＰＬＵＳ,,株式会社,福岡県,糟屋郡須惠町,大字上須恵６６６番地５１,,40,344,8112100,,,,,,,2023-08-15,1,,,,,エムプラス,0
716,3290003014230,新規,0,2023-08-15,2023-08-15,合同会社ははまる,,合同会社,福岡県,宗像市,栄町２番地１赤間駅第二自転車駐車場２階,,40,220,8114173,,,,,,,2023-08-15,1,,,,,ハハマル,0
717,3290003014247,新規,0,2023-08-15,2023-08-15,富士管理合同会社,,合同会社,福岡県,福岡市中央区,大濠２丁目１２番２２－８０２号,,40,133,8100052,,,,,,,2023-08-15,1,,,,,フジカンリ,0
723,3330003009928,新規,0,2023-08-15,2023-08-15,Ｊ．Ｋ総合プランニング合同会社,,合同会社,熊本県,熊本市中央区,国府本町１番１９号,,43,101,8620948,,,,,,,2023-08-15,1,,,,,ジェイケイソウゴウプランニング,0
724,3330003009936,新規,0,2023-08-15,2023-08-15,合同会社クマソラ,,合同会社,熊本県,上益城郡益城町,大字広崎１０８２番地１,,43,443,8612236,,,,,,,2023-08-15,1,,,,,クマソラ,0
725,3340001025819,新規,0,2023-08-15,2023-08-15,株式会社ＭＩＲＡＩ,,株式会社,鹿児島県,鹿屋市,輝北町上百引４０３５番地３,,46,203,8930201,,,,,,,2023-08-15,1,,,,,ミライ,0
728,3370003006244,新規,0,2023-08-15,2023-08-15,合同会社刀,,合同会社,宮城県,大崎市,古川北町５丁目６番３５－５号ラ・ペアシティ２０１号,,04,215,9896171,,,,,,,2023-08-15,1,,,,,カタナ,0
731,3380003005542,新規,0,2023-08-15,2023-08-15,合同会社ｓｏｗｃｕｅ,,合同会社,福島県,福島市,須川町四丁目３９番地,,07,201,9608067,,,,,,,2023-08-15,1,,,,,ソーク,0
732,3420003002774,新規,0,2023-08-15,2023-08-15,合同会社ＭａＨａＬ,,合同会社,青森県,三沢市,岡三沢８丁目１２０番地１１Ｒ５３６ｉ,,02,207,0330021,,,,,,,2023-08-15,1,,,,,マハル,0
733,3430001089706,新規,0,2023-08-15,2023-08-15,株式会社ホシ治療院,,株式会社,北海道,札幌市白石区,東札幌三条２丁目１番５７号,,01,104,0030003,,,,,,,2023-08-15,1,,,,,ホシチリョウイン,0
734,3430001089714,新規,0,2023-08-15,2023-08-15,株式会社イーシーツー,,株式会社,北海道,札幌市北区,太平十一条２丁目３番３号,,01,102,0028011,,,,,,,2023-08-15,1,,,,,イーシーツー,0
735,3430001089722,新規,0,2023-08-15,2023-08-15,アツモリ株式会社,,株式会社,北海道,札幌市豊平区,平岸六条１２丁目３番４号,,01,105,0620936,,,,,,,2023-08-15,1,,,,,アツモリ,0
736,3430001089730,新規,0,2023-08-15,2023-08-15,株式会社Ｓ．Ｃｏｎｎｅｃｔ　Ｈｏｍｅ,,株式会社,北海道,札幌市中央区,北五条西１１丁目１５番４号ＢＹＹＡＲＤ６０７号室,,01,101,0600005,,,,,,,2023-08-15,1,,,,,エスコネクトホーム,0
737,3430001089763,新規,0,2023-08-15,2023-08-15,株式会社ケーエスパートナーズ,,株式会社,北海道,札幌市北区,北三十八条西３丁目１番１３号２０５号室,,01,102,0010038,,,,,,,2023-08-15,1,,,,,ケーエスパートナーズ,0
739,3430003015346,新規,0,2023-08-15,2023-08-15,いちごＬａｂｏｒａｔｏｒｙ合同会社,,合同会社,北海道,札幌市白石区,菊水上町四条３丁目９４番地３２,,01,104,0030814,,,,,,,2023-08-15,1,,,,,イチゴラボラトリー,0
742,3460001005817,新規,0,2023-08-15,2023-08-15,株式会社タケミツ物産,,株式会社,北海道,釧路市,桜ケ岡４丁目５番１６号,,01,206,0850805,,,,,,,2023-08-15,1,,,,,タケミツブッサン,0
744,3460103001549,新規,0,2023-08-15,2023-08-15,かふぇ坩堝合同会社,,合同会社,北海道,帯広市,西十六条南３６丁目１番地２０,,01,207,0800026,,,,,,,2023-08-15,1,,,,,カフェルツボ,0
747,3470001019766,新規,0,2023-08-15,2023-08-15,Ｕ・Ｓ・Ｋ株式会社,,株式会社,香川県,坂出市,川津町３３４８番地,,37,203,7620025,,,,,,,2023-08-15,1,,,,,ユウエスケー,0
750,3500001025133,新規,0,2023-08-15,2023-08-15,株式会社ＵＦＭ,,株式会社,愛媛県,今治市,中寺２４５番地２,,38,202,7940840,,,,,,,2023-08-15,1,,,,,ユーエフエム,0
751,3500001025141,新規,0,2023-08-15,2023-08-15,株式会社ＫＴ外装,,株式会社,愛媛県,松山市,井門町３２１番地７,,38,201,7911114,,,,,,,2023-08-15,1,,,,,ケーティーガイソウ,0
752,3700150118997,新規,0,2023-08-15,2023-08-15,Ｗｕｘｉ　Ｂａｊｉｅｊｉａ　Ｔｒａｄｉｎｇ　Ｃｏｍｐａｎｙ,,外国会社等,,,,,,,,Ｗｕｘｉ　Ｊｉｎｇｊｉｋａｉｆａｑｕ　Ｇａｏｙｕｎｌｕ　１０９　ｈａｏ,,,,,,2023-08-15,1,,,,,ムシャクバジエジアトゥレイディングカンパニー,0
753,3700150119005,新規,0,2023-08-15,2023-08-15,Ｙｉｗｕ　Ｓｕｙａ　Ｔｒａｄｉｎｇ　Ｃｏ．，Ｌｔｄ,,外国会社等,,,,,,,,Ｚｈｅ　ｊｉａｎｇ　ｓｈｅｎｇ　ｙｉ　ｗｕ　ｓｈｉ　Ｊｉａｎｇ　Ｄｏｎｇ　ｊｉｅ　ｄａｏ　ｗｕ　ａｉ　ｘｉｎ　ｃｕｎ　２６ｚｈｕａｎｇ　１ｄａｎ　ｙｕａｎ　４０１,,,,,,2023-08-15,1,,,,,イウスヤトレーディングカンパニーリミテッド,0
754,3700150119013,新規,0,2023-08-15,2023-08-15,ｘｉａ　ｍｅｎ　ｘｉ　ｄｕｏ　ｌｉ　ｓｈａｎｇ　ｍａｏ　ｙｏｕ　ｘｉａｎ　ｇｏｎｇ　ｓｉ,,外国会社等,,,,,,,,Ｊｉｍｅｉ　Ｑｕ　Ｘｉｎｇｌｉｎｗａｎ　Ｌｕ　５２６　ｈａｏ　２　ｈａｏ　ｌｏｕ　４１２　ｄａｎｙｕａｎ　Ｘｉａｍｅｎ　Ｓｈｉ　ｆｕｊｉａｎ,,,,,,2023-08-15,1,,,,,シャメンシドォウリシャンマオユウゲンコウシ,0
755,3700150119021,新規,0,2023-08-15,2023-08-15,ｙｉｎｇｃｈｅｎｇｓｈｉ　ｍｉｎｇｚｈｉｒｕｉｄｉａｎｚｉｋｅｊｉ　ｙｏｕｘｉａｎｇｏｎｇｓｉ,,外国会社等,,,,,,,,ｔｉｙｕｃｈａｎｇｂｅｉｌｕ１１ｈａｏ　ｃｈａｎｇｄａｃｈｅｎｇｓｈｉｈｕａｙｕａｎ２ｚｈｕａｎｇ１ｄａｎｙｕａｎ２０３ｈａｏｆａｎｇ　ｙｉｎｇｃｈｅｎｇｓｈｉ　ｘｉａｏｇａｎｓｈｉ　ｈｕｂｅｉｓｈｅｎｇ,,,,,,2023-08-15,1,,,,,インチェンシミンジルイデンシカギユウゲンコウシ,0
765,4010001237710,新規,0,2023-08-15,2023-08-15,ｃｏｔｏｒｉｔｏ株式会社,,株式会社,東京都,千代田区,麹町２丁目１０番地３,,13,101,1020083,,,,,,,2023-08-15,1,,,,,コトリト,0
766,4010001237727,新規,0,2023-08-15,2023-08-15,ＭＩＮＯＲ　ＳＷＩＮＧ株式会社,,株式会社,東京都,中央区,日本橋浜町３丁目１９番４号,,13,102,1030007,,,,,,,2023-08-15,1,,,,,マイナースイング,0
767,4010001237743,新規,0,2023-08-15,2023-08-15,株式会社ティーズコンサルティング,,株式会社,東京都,千代田区,永田町２丁目９番８－７０１号,,13,101,1000014,,,,,,,2023-08-15,1,,,,,ティーズコンサルティング,0
768,4010003041391,新規,0,2023-08-15,2023-08-15,はちす合同会社,,合同会社,東京都,御蔵島村,,,13,382,1001301,,,,,,,2023-08-15,1,,,,,ハチス,0
772,4010005037099,新規,0,2023-08-15,2023-08-15,一般社団法人日中企業家聯合会,,その他の設立登記法人,東京都,中央区,銀座１丁目２２番１１号銀座大竹ビジデンス２階,,13,102,1040061,,,,,,,2023-08-15,1,,,,,ニッチュウキギョウカレンゴウカイ,0
773,4010005037116,新規,0,2023-08-15,2023-08-15,一般社団法人百年創造,,その他の設立登記法人,東京都,中央区,銀座２丁目３番１８号銀座高孝ビル５階,,13,102,1040061,,,,,,,2023-08-15,1,,,,,ヒャクネンソウゾウ,0
776,4010401176376,新規,0,2023-08-15,2023-08-15,株式会社サンテルシー,,株式会社,東京都,港区,南青山３丁目１番３６号,,13,103,1070062,,,,,,,2023-08-15,1,,,,,サンテルシー,0
780,4010505003435,新規,0,2023-08-15,2023-08-15,一般社団法人サイクル＆スポーツ・ライフ協会,,その他の設立登記法人,東京都,台東区,台東４丁目３０番６－１００７号アイリブフォレスト,,13,106,1100016,,,,,,,2023-08-15,1,,,,,サイクルアンドスポーツライフキョウカイ,0
783,4010601063606,新規,0,2023-08-15,2023-08-15,ｓｉｄｅ　ｈｕｓｔｌｅ株式会社,,株式会社,東京都,墨田区,押上１丁目１６番１１号,,13,107,1310045,,,,,,,2023-08-15,1,,,,,サイドハッスル,0
784,4010601063614,新規,0,2023-08-15,2023-08-15,株式会社東京かがやき,,株式会社,東京都,江東区,亀戸６丁目２４番１－５０３号,,13,108,1360071,,,,,,,2023-08-15,1,,,,,トウキョウカガヤキ,0
792,4011001156173,新規,0,2023-08-15,2023-08-15,株式会社ＵＫＩＷＡ,,株式会社,東京都,渋谷区,道玄坂１丁目１０番８号渋谷道玄坂東急ビル２Ｆ－Ｃ,,13,113,1500043,,,,,,,2023-08-15,1,,,,,ウキワ,0
793,4011001156339,新規,0,2023-08-15,2023-08-15,株式会社ネイバーズワン,,株式会社,東京都,渋谷区,富ヶ谷１丁目３５番１２－２０１号グランレ・ジェイド渋谷富ヶ谷,,13,113,1510063,,,,,,,2023-08-15,1,,,,,ネイバーズワン,0
794,4011001156355,新規,0,2023-08-15,2023-08-15,ＴＴ　Ｂｏｙｓ株式会社,,株式会社,東京都,目黒区,駒場４丁目３番２８号,,13,110,1530041,,,,,,,2023-08-15,1,,,,,ティーティーボーイズ,0
796,4011003017332,新規,0,2023-08-15,2023-08-15,合同会社一粟,,合同会社,東京都,渋谷区,渋谷２丁目３番１７シグマＡＧビル２階,,13,113,1500002,,,,,,,2023-08-15,1,,,,,イチゾク,0
797,4011005010095,新規,0,2023-08-15,2023-08-15,ＩＳＫ行政書士法人,,その他の設立登記法人,東京都,目黒区,平町１丁目２６番２０号,,13,110,1520032,,,,,,,2023-08-15,1,,,,,アイエスケー,0
798,4011005010178,新規,0,2023-08-15,2023-08-15,一般社団法人Ｅｎｓｅｍｂｌｅ　Ａｍｏｉｂｅ,,その他の設立登記法人,東京都,渋谷区,渋谷２丁目１９番１５号宮益坂ビルディング６０９,,13,113,1500002,,,,,,,2023-08-15,1,,,,,アンサンブルアモイベ,0
807,4011103013371,新規,0,2023-08-15,2023-08-15,合同会社日本農水,,合同会社,東京都,新宿区,西新宿３丁目３番１３号西新宿水間ビル２Ｆ,,13,104,1600023,,,,,,,2023-08-15,1,,,,,ニホンノウスイ,0
811,4011303004880,新規,0,2023-08-15,2023-08-15,リーンホルス合同会社,,合同会社,東京都,杉並区,南荻窪４丁目１１番２―２０５号エルデンシア荻窪,,13,115,1670052,,,,,,,2023-08-15,1,,,,,リーンホルス,0
813,4011305002924,新規,0,2023-08-15,2023-08-15,一般社団法人グループハッピースマイル,,その他の設立登記法人,東京都,杉並区,天沼１丁目４番１号,,13,115,1670032,,,,,,,2023-08-15,1,,,,,グループハッピースマイル,0
816,4011401025366,新規,0,2023-08-15,2023-08-15,株式会社Ａｃｅ,,株式会社,東京都,板橋区,舟渡１丁目１５番１５号クレエ浮間舟渡３０７号室,,13,119,1740041,,,,,,,2023-08-15,1,,,,,エース,0
819,4011503005720,新規,0,2023-08-15,2023-08-15,ＨＱアカウンティング合同会社,,合同会社,東京都,荒川区,西尾久１丁目１１番８号,,13,118,1160011,,,,,,,2023-08-15,1,,,,,エイチキューアカウンティング,0
822,4011801042886,新規,0,2023-08-15,2023-08-15,株式会社オイトマーレス,,株式会社,東京都,足立区,加平１丁目２１番１８－８０５号,,13,121,1210055,,,,,,,2023-08-15,1,,,,,オイトマーレス,0
824,4012403006098,新規,0,2023-08-15,2023-08-15,イデア合同会社,,合同会社,東京都,武蔵野市,吉祥寺本町１丁目５－１吉祥寺ＰＡＲＣＯ８ＦＳｋｉｉｍａ内,,13,203,1800004,,,,,,,2023-08-15,1,,,,,イデア,0
832,4020001152925,新規,0,2023-08-15,2023-08-15,株式会社Ｋｏｋｏ　Ｍａｌｉｅ,,株式会社,神奈川県,川崎市幸区,鹿島田２丁目１４－３７,,14,132,2120058,,,,,,,2023-08-15,1,,,,,ココマリエ,0
837,4020003024370,新規,0,2023-08-15,2023-08-15,合同会社ｈａｕｓｋａ　ｋｉｉｔｏｓ,,合同会社,神奈川県,横浜市神奈川区,白幡東町１４番１５号,,14,102,2210072,,,,,,,2023-08-15,1,,,,,ハウスカキートス,0
838,4020003024387,新規,0,2023-08-15,2023-08-15,合同会社優エデュケーションシステム,,合同会社,神奈川県,横浜市西区,北幸２丁目１０番地２８むつみビル３Ｆ,,14,103,2200004,,,,,,,2023-08-15,1,,,,,ユウエデュケーションシステム,0
839,4020005016093,新規,0,2023-08-15,2023-08-15,社会保険労務士法人志パートナーズ,,その他の設立登記法人,神奈川県,横浜市中区,羽衣町３丁目６０番地羽衣町京浜ビル８階,,14,104,2310047,,,,,,,2023-08-15,1,,,,,ココロザシパートナーズ,0
846,4030001155233,新規,0,2023-08-15,2023-08-15,株式会社ＫＯＹＯ,,株式会社,埼玉県,八潮市,緑町４丁目２１番地２１,,11,234,3400808,,,,,,,2023-08-15,1,,,,,コーヨー,0
847,4030001155266,新規,0,2023-08-15,2023-08-15,株式会社ウェストエンジニアリング,,株式会社,埼玉県,上尾市,愛宕１丁目８番３３号,,11,219,3620034,,,,,,,2023-08-15,1,,,,,ウェストエンジニアリング,0
848,4030001155290,新規,0,2023-08-15,2023-08-15,株式会社ＲＩＧ,,株式会社,埼玉県,八潮市,大字伊勢野１４９番地３,,11,234,3400821,,,,,,,2023-08-15,1,,,,,リグ,0
854,4040001129649,新規,0,2023-08-15,2023-08-15,株式会社皇匠,,株式会社,千葉県,柏市,柏１２４９番地３,,12,217,2770005,,,,,,,2023-08-15,1,,,,,オウショウ,0
858,4050001053294,新規,0,2023-08-15,2023-08-15,サンライズリンク株式会社,,株式会社,茨城県,土浦市,大町１４番１６号桜川ハイツ８０１号,,08,203,3000038,,,,,,,2023-08-15,1,,,,,サンライズリンク,0
862,4070001040761,新規,0,2023-08-15,2023-08-15,株式会社イーネクスト,,株式会社,群馬県,伊勢崎市,西久保町３丁目９２９番地５,,10,204,3792204,,,,,,,2023-08-15,1,,,,,,0
869,4080403004850,新規,0,2023-08-15,2023-08-15,合同会社音虹,,合同会社,静岡県,浜松市東区,有玉南町１８６７－１,,22,132,4313122,,,,,,,2023-08-15,1,,,,,ネネ,0
871,4110003005139,新規,0,2023-08-15,2023-08-15,石川合同会社,,合同会社,新潟県,五泉市,村松甲６４１３番地５,,15,218,9591704,,,,,,,2023-08-15,1,,,,,イシカワ,0
876,4120001257284,新規,0,2023-08-15,2023-08-15,株式会社ワイズストーン,,株式会社,大阪府,大阪市中央区,南船場２丁目１１番２６号８０２号室,,27,128,5420081,,,,,,,2023-08-15,1,,,,,ワイズストーン,0
878,4120003024674,新規,0,2023-08-15,2023-08-15,合同会社ＩＺＡＮＡＩ,,合同会社,大阪府,大阪市都島区,都島北通２丁目３番２１－５０３号,,27,102,5340014,,,,,,,2023-08-15,1,,,,,イザナイ,0
879,4120003024690,新規,0,2023-08-15,2023-08-15,ｆｒｅｅｄ　ｍａｒｋｅｔｉｎｇ合同会社,,合同会社,大阪府,大阪市西区,阿波座１丁目１４－６－１３０５,,27,106,5500011,,,,,,,2023-08-15,1,,,,,フリードマーケティング,0
880,4120103005384,新規,0,2023-08-15,2023-08-15,合同会社スターライズ,,合同会社,大阪府,堺市西区,鶴田町１６番３号,,27,144,5938323,,,,,,,2023-08-15,1,,,,,スターライズ,0
882,4120901047941,新規,0,2023-08-15,2023-08-15,有田株式会社,,株式会社,大阪府,吹田市,広芝町４番３４号江坂第一ビル６Ｆ－２２号室,,27,205,5640052,,,,,,,2023-08-15,1,,,,,アリタ,0
889,4130001074919,新規,0,2023-08-15,2023-08-15,エイト電気株式会社,,株式会社,京都府,八幡市,八幡御幸谷７番地の８,,26,210,6148044,,,,,,,2023-08-15,1,,,,,エイトデンキ,0
891,4140003019433,新規,0,2023-08-15,2023-08-15,合同会社山富,,合同会社,兵庫県,神戸市北区,小倉台７丁目８番地の８,,28,109,6511211,,,,,,,2023-08-15,1,,,,,ヤマトミ,0
895,4160001025266,新規,0,2023-08-15,2023-08-15,株式会社Ｆｏｒｗａｒｄ,,株式会社,滋賀県,米原市,高溝１９９番地２,,25,214,5210074,,,,,,,2023-08-15,1,,,,,フォワード,0
906,4180001157479,新規,0,2023-08-15,2023-08-15,株式会社こいろ,,株式会社,愛知県,名古屋市守山区,菱池町１３番５２号,,23,113,4630045,,,,,,,2023-08-15,1,,,,,コイロ,0
907,4180001157628,新規,0,2023-08-15,2023-08-15,ＢＲＡＮＤ８２８株式会社,,株式会社,愛知県,名古屋市中川区,東起町４丁目６６番地の２,,23,110,4540935,,,,,,,2023-08-15,1,,,,,ブランドハチニーハチ,0
908,4180001157660,新規,0,2023-08-15,2023-08-15,株式会社ＯＩ,,株式会社,愛知県,名古屋市中村区,名駅４丁目２４番５号第２森ビル４０１,,23,105,4500002,,,,,,,2023-08-15,1,,,,,オーアイ,0
909,4180001157677,新規,0,2023-08-15,2023-08-15,株式会社オールズ,,株式会社,愛知県,名古屋市天白区,中平４丁目１７２４番地,,23,116,4680014,,,,,,,2023-08-15,1,,,,,オールズ,0
912,4210001019428,新規,0,2023-08-15,2023-08-15,ときめきハウジング福井株式会社,,株式会社,福井県,福井市,二の宮２丁目２７番３１号,,18,201,9100015,,,,,,,2023-08-15,1,,,,,トキメキハウジングフクイ,0
920,4260001038233,新規,0,2023-08-15,2023-08-15,株式会社アイゼン,,株式会社,岡山県,倉敷市,有城５２０番地１,,33,202,7100031,,,,,,,2023-08-15,1,,,,,アイゼン,0
922,4270003001551,新規,0,2023-08-15,2023-08-15,Ｓｏｐｈｉａ合同会社,,合同会社,鳥取県,米子市,和田町６３８－６,,31,202,6830102,,,,,,,2023-08-15,1,,,,,ソフィア,0
923,4280001009018,新規,0,2023-08-15,2023-08-15,ユースセキュリティ株式会社,,株式会社,島根県,松江市,菅田町２０番地２メゾン光輝１Ｆ,,32,201,6900824,,,,,,,2023-08-15,1,,,,,ユースセキュリティ,0
945,4360001032424,新規,0,2023-08-15,2023-08-15,株式会社てぃーだハート,,株式会社,沖縄県,沖縄市,胡屋６丁目１６番１６号,,47,211,9040021,,,,,,,2023-08-15,1,,,,,ティーダハート,0
946,4370001050284,新規,0,2023-08-15,2023-08-15,株式会社Ｂ．Ｇａｌａｘｙ,,株式会社,宮城県,名取市,増田字北谷１１番地,,04,207,9811224,,,,,,,2023-08-15,1,,,,,ビーギャラクシー,0
947,4370001050292,新規,0,2023-08-15,2023-08-15,株式会社ＫＡＩＳＨＩＮ,,株式会社,宮城県,多賀城市,八幡２丁目１６番６号,,04,209,9850874,,,,,,,2023-08-15,1,,,,,カイシン,0
950,4370003006243,新規,0,2023-08-15,2023-08-15,ＣＡＬＬＩＮＧ合同会社,,合同会社,宮城県,仙台市青葉区,木町通１丁目２－２８ウェルステージ木町通１階,,04,101,9800801,,,,,,,2023-08-15,1,,,,,コーリング,0
954,4380001033916,新規,0,2023-08-15,2023-08-15,株式会社グレイス,,株式会社,福島県,郡山市,町東２丁目１６９番地,,07,203,9638046,,,,,,,2023-08-15,1,,,,,グレイス,0
959,4410001013575,新規,0,2023-08-15,2023-08-15,株式会社ギルズ,,株式会社,秋田県,大館市,白沢字寺ノ沢３４４番地,,05,204,0170002,,,,,,,2023-08-15,1,,,,,ギルズ,0
963,4420003002773,新規,0,2023-08-15,2023-08-15,合同会社カドヤ,,合同会社,青森県,三沢市,美野原２丁目１１番地３号,,02,207,0330033,,,,,,,2023-08-15,1,,,,,カドヤ,0
965,4430001089746,新規,0,2023-08-15,2023-08-15,株式会社ディライト,,株式会社,北海道,札幌市白石区,北郷八条８丁目６番２０号,,01,104,0030838,,,,,,,2023-08-15,1,,,,,ディライト,0
969,4430003015320,新規,0,2023-08-15,2023-08-15,合同会社クリート,,合同会社,北海道,札幌市北区,新川三条１４丁目１２‐４３,,01,102,0010923,,,,,,,2023-08-15,1,,,,,クリート,0
974,4480001012182,新規,0,2023-08-15,2023-08-15,株式会社藤建,,株式会社,徳島県,美馬市,脇町字拝原１３５０番地２,,36,207,7793601,,,,,,,2023-08-15,1,,,,,フジケン,0
979,4700150119004,新規,0,2023-08-15,2023-08-15,Ｙｉｗｕ　Ｂｅｉｄｉｎｇ　ｔｒａｄｅ　ｃｏ．，ＬＴＤ,,外国会社等,,,,,,,,ＢＥＩＹＵＡＮ　ＪＩＥＤＡＯ　ＣＨＵＮＨＵＡ　ＲＯＡＤ　Ｎ０．５５８　Ａ１　２０９　ＲＯＯＭ　（Ｔｕｏｇｕａｎ　６８６）　ＹＩＷＵ　ＺＨＥＪＩＡＮＧ　ＣＮ,,,,,,2023-08-15,1,,,,,イウベイディントレードカンパニーリミテッド,0
980,4700150119012,新規,0,2023-08-15,2023-08-15,ｊｉａｘｉｎｇ　ｙｉｋｅｄａｃｏｎｇｍａｏｙｉ　ｙｏｕｘｉａｎｇｏｎｇｓｉ,,外国会社等,,,,,,,,ｚｈｅｊｉａｎｇｓｈｅｎｇｊｉａｘｉｎｇｓｈｉｊｉｎｇｊｉｊｉｓｈｕｋａｉｆａｑｕｗａｎｊｉａｈｕｉｓｈａｎｇｙｅ　ｇｕａｎｇｃｈａｎｇ１ｚｈｕａｎｇ３１４７ｓｈｉ,,,,,,2023-08-15,1,,,,,ジャシンイケダツンマオイユウゲンコウシ,0
981,4700150119020,新規,0,2023-08-15,2023-08-15,ＫＬＴ　ＩＮＴＥＲＮＡＴＩＯＮＡＬ　ＣＯ．，ＬＩＭＩＴＥＤ,,外国会社等,,,,,,,,ＦＬＡＴ／ＲＭ　Ａ　１２／Ｆ　ＫＩＵ　ＦＵ　ＣＯＭＭＥＲＣＩＡＬ　ＢＬＤＧ　３００　ＬＯＣＫＨＡＲＴ　ＲＯＡＤ　ＷＡＮＣＨＡＩ　ＨＫ,,,,,,2023-08-15,1,,,,,ケーエルティーインターナショナルカンパニーリミテッド,0
986,5010001237718,新規,0,2023-08-15,2023-08-15,株式会社ＧＫ　Ｍａｒｋｅｔｉｎｇ,,株式会社,東京都,千代田区,麹町２丁目４番地,,13,101,1020083,,,,,,,2023-08-15,1,,,,,ジーケーマーケティング,0
987,5010001237759,新規,0,2023-08-15,2023-08-15,株式会社ストレッチｐｌｕｓ,,株式会社,東京都,千代田区,岩本町２丁目７番１２号ビルックス３、２Ｆ,,13,101,1010032,,,,,,,2023-08-15,1,,,,,ストレッチプラス,0
989,5010003041317,新規,0,2023-08-15,2023-08-15,合同会社斉＿,00131522,合同会社,東京都,千代田区,九段南１丁目５番６号りそな九段ビル５階ＫＳフロア３２２７,,13,101,1020074,,,,,,,2023-08-15,1,,,,,セイシン,0
990,5010003041390,新規,0,2023-08-15,2023-08-15,ＭｏｎｏＳｔｒｕｃｔ合同会社,,合同会社,東京都,中央区,日本橋室町１丁目１１番１２号日本橋水野ビル７階,,13,102,1030022,,,,,,,2023-08-15,1,,,,,モノストラクト,0
991,5010003041399,新規,0,2023-08-15,2023-08-15,かまもく合同会社,,合同会社,東京都,千代田区,大手町１丁目５番１号大手町ファーストスクエアイーストタワー４階,,13,101,1000004,,,,,,,2023-08-15,1,,,,,カマモク,0
993,5010005037098,新規,0,2023-08-15,2023-08-15,一般社団法人みのり東京,,その他の設立登記法人,東京都,千代田区,神田多町２丁目８－２０ＴＯＫＹＯマークス５階,,13,101,1010046,,,,,,,2023-08-15,1,,,,,ミノリトウキョウ,0
994,5010005037107,新規,0,2023-08-15,2023-08-15,一般社団法人スプリングＲ１,,その他の設立登記法人,東京都,千代田区,丸の内３丁目１番１号東京共同会計事務所内,,13,101,1000005,,,,,,,2023-08-15,1,,,,,スプリングアールワン,0
1006,5010401176193,新規,0,2023-08-15,2023-08-15,株式会社アルテスペース,,株式会社,東京都,港区,芝浦１丁目１３番１０号,,13,103,1050023,,,,,,,2023-08-15,1,,,,,アルテスペース,0
1007,5010401176433,新規,0,2023-08-15,2023-08-15,ＮＥＣ金融サービス企画株式会社,,株式会社,東京都,港区,芝５丁目７番１号,,13,103,1080014,,,,,,,2023-08-15,1,,,,,エヌイーシーキンユウサービスキカク,0
1009,5010403030737,新規,0,2023-08-15,2023-08-15,Ｄａｓｈ　Ｌｉｖｉｎｇ　Ｐｒｏｐｅｒｔｙ合同会社,,合同会社,東京都,港区,白金台３丁目１０番１０号,,13,103,1080071,,,,,,,2023-08-15,1,,,,,ダッシュリビングプロパティ,0
1014,5010501050901,新規,0,2023-08-15,2023-08-15,大田株式会社,,株式会社,東京都,台東区,台東２丁目１７番５－８０１号,,13,106,1100016,,,,,,,2023-08-15,1,,,,,オオタ,0
1017,5010601063605,新規,0,2023-08-15,2023-08-15,株式会社ＮＯＥＤ,,株式会社,東京都,江東区,辰巳２丁目１番５６－１１１０号,,13,108,1350053,,,,,,,2023-08-15,1,,,,,ノード,0
1018,5010601063613,新規,0,2023-08-15,2023-08-15,辰玉グループ株式会社,,株式会社,東京都,江東区,亀戸６丁目２４－８－７０３,,13,108,1360071,,,,,,,2023-08-15,1,,,,,タツギョク,0
1022,5010701044711,新規,0,2023-08-15,2023-08-15,株式会社エリテック,,株式会社,東京都,品川区,東品川３丁目８番８－１５１３号,,13,109,1400002,,,,,,,2023-08-15,1,,,,,エリテック,0
1029,5011001156049,新規,0,2023-08-15,2023-08-15,山根木材株式会社,,株式会社,東京都,目黒区,中目黒４丁目１１番２１－１０５号,,13,110,1530061,,,,,,,2023-08-15,1,,,,,ヤマネモクザイ,0
1030,5011001156206,新規,0,2023-08-15,2023-08-15,株式会社システムインフィニティ,,株式会社,東京都,渋谷区,代々木３丁目４５番３号ベルデュール代々木１０２号,,13,113,1510053,,,,,,,2023-08-15,1,,,,,システムインフィニティ,0
1031,5011001156321,新規,0,2023-08-15,2023-08-15,Ａ‐ＳＷＩＴＣＨ株式会社,,株式会社,東京都,目黒区,緑が丘２丁目６番１５号繁榮ビル４０１,,13,110,1520034,,,,,,,2023-08-15,1,,,,,エースイッチ,0
1032,5011001156354,新規,0,2023-08-15,2023-08-15,株式会社ＹＡＳＵＲＡ,,株式会社,東京都,目黒区,駒場４丁目３番２８号,,13,110,1530041,,,,,,,2023-08-15,1,,,,,ヤスラ,0
1033,5011001156362,新規,0,2023-08-15,2023-08-15,株式会社Ｍｅｄｕｒａｎｃｅ,,株式会社,東京都,渋谷区,富ヶ谷２丁目２０番８号プラウドフラット５１０,,13,113,1510063,,,,,,,2023-08-15,1,,,,,メデュランス,0
1034,5011005010169,新規,0,2023-08-15,2023-08-15,弁護士法人サンクス,,その他の設立登記法人,東京都,渋谷区,広尾５丁目４番１６号ＥＡＴＰＬＡＹＷＯＫＲＳ３Ｆ,,13,113,1500012,,,,,,,2023-08-15,1,,,,,サンクス,0
1040,5011101104015,新規,0,2023-08-15,2023-08-15,株式会社ノーブルマーケティング,,株式会社,東京都,新宿区,西新宿３丁目３番１３号西新宿水間ビル２Ｆ,,13,104,1600023,,,,,,,2023-08-15,1,,,,,ノーブルマーケティング,0
1050,5011601027054,新規,0,2023-08-15,2023-08-15,株式会社Ｍ＆Ｉ,,株式会社,東京都,練馬区,富士見台２丁目２７番６号,,13,120,1770034,,,,,,,2023-08-15,1,,,,,エムアンドアイ,0
1051,5011603004019,新規,0,2023-08-15,2023-08-15,ＧＢ合同会社,,合同会社,東京都,練馬区,豊玉北４丁目６－１５,,13,120,1760012,,,,,,,2023-08-15,1,,,,,ジービー,0
1052,5011701026526,新規,0,2023-08-15,2023-08-15,株式会社ＡＭＡＲ,,株式会社,東京都,江戸川区,上一色３丁目８番５号レンタルオフィス百合２０１号室,,13,123,1330041,,,,,,,2023-08-15,1,,,,,アマル,0
1056,5012801022571,新規,0,2023-08-15,2023-08-15,株式会社ウェークアップ,,株式会社,東京都,国分寺市,本町２丁目１４番３号,,13,214,1850012,,,,,,,2023-08-15,1,,,,,ウェークアップ,0
1057,5013301051202,新規,0,2023-08-15,2023-08-15,ジオテックホールディングス株式会社,,株式会社,東京都,豊島区,東池袋３丁目２０番２１号広宣ビル３Ｆ,,13,116,1700013,,,,,,,2023-08-15,1,,,,,ジオテックホールディングス,0
1065,5020001152940,新規,0,2023-08-15,2023-08-15,ＧＰホールディングス・ジャパン株式会社,,株式会社,神奈川県,横浜市鶴見区,梶山２丁目５番１２号,,14,101,2300072,,,,,,,2023-08-15,1,,,,,ジーピーホールディングスジャパン,0
1066,5020001152957,新規,0,2023-08-15,2023-08-15,株式会社Ａｒｃａｍ,,株式会社,神奈川県,川崎市中原区,下小田中４丁目８－４ラズベリー３０６,,14,133,2110041,,,,,,,2023-08-15,1,,,,,アーカム,0
1073,5020003024320,新規,0,2023-08-15,2023-08-15,エピカワークス合同会社,,合同会社,神奈川県,川崎市宮前区,野川本町１丁目５番地３３号中里ビル２０５,,14,136,2160041,,,,,,,2023-08-15,1,,,,,エピカワークス,0
1074,5020003024353,新規,0,2023-08-15,2023-08-15,ｇｒｏｗ５４合同会社,,合同会社,神奈川県,横浜市旭区,左近山１１８６番地１１左近山団地６街区７棟３０２号,,14,112,2410831,,,,,,,2023-08-15,1,,,,,グロウゴウヨン,0
1075,5020003024361,新規,0,2023-08-15,2023-08-15,ＤＲ　ｌｉｑｕｏｒ　Ｊａｐａｎ合同会社,,合同会社,神奈川県,川崎市宮前区,初山２丁目２４番地３５号,,14,136,2160026,,,,,,,2023-08-15,1,,,,,ディーアールリカージャパン,0
1080,5021001079934,新規,0,2023-08-15,2023-08-15,株式会社いきもり,,株式会社,神奈川県,横須賀市,浦賀３丁目１０番６号,,14,201,2390822,,,,,,,2023-08-15,1,,,,,イキモリ,0
1081,5021003013412,新規,0,2023-08-15,2023-08-15,合同会社ＮｏＰｅｌｌ,,合同会社,神奈川県,厚木市,上古沢１１９０番地２,,14,212,2430215,,,,,,,2023-08-15,1,,,,,ノペル,0
1082,5021003013453,新規,0,2023-08-15,2023-08-15,青洋商事合同会社,,合同会社,神奈川県,座間市,緑ケ丘３丁目４１番１１号コーワ緑ヶ丘１０２号室,,14,216,2520021,,,,,,,2023-08-15,1,,,,,セイヨウショウジ,0
1086,5030001155281,新規,0,2023-08-15,2023-08-15,株式会社ＢＳＣ,,株式会社,埼玉県,白岡市,千駄野９２４番地３,,11,246,3490215,,,,,,,2023-08-15,1,,,,,ビーエスシー,0
1087,5030001155298,新規,0,2023-08-15,2023-08-15,株式会社オーダーメイドリハビリＭａｎｏ,,株式会社,埼玉県,ふじみ野市,大井１丁目４番２９号,,11,245,3560053,,,,,,,2023-08-15,1,,,,,オーダーメイドリハビリマーノ,0
1093,5030003022273,新規,0,2023-08-15,2023-08-15,みらいへ合同会社,,合同会社,埼玉県,さいたま市見沼区,大和田町１丁目６４７－２,,11,104,3370053,,,,,,,2023-08-15,1,,,,,ミライヘ,0
1094,5030003022298,新規,0,2023-08-15,2023-08-15,合同会社ａ　ｐｈｏ,,合同会社,埼玉県,川口市,西川口１丁目２０番２０号,,11,203,3320021,,,,,,,2023-08-15,1,,,,,アフォー,0
1099,5040001129648,新規,0,2023-08-15,2023-08-15,株式会社ＦＪ,,株式会社,千葉県,八千代市,八千代台西４丁目１６番地１５,,12,221,2760034,,,,,,,2023-08-15,1,,,,,エフジェイ,0
1100,5040001129656,新規,0,2023-08-15,2023-08-15,株式会社ハッカク,,株式会社,千葉県,市川市,菅野２丁目９番９号,,12,203,2720824,,,,,,,2023-08-15,1,,,,,ハッカク,0
1101,5040001129697,新規,0,2023-08-15,2023-08-15,株式会社Ｎｉｍｂｕｓ,,株式会社,千葉県,船橋市,藤原６丁目２３番１－４０５号,,12,204,2730047,,,,,,,2023-08-15,1,,,,,ニンバス,0
1106,5040003023114,新規,0,2023-08-15,2023-08-15,ｈｕｓｔｌｅ＆ｂｕｓｔｌｅ合同会社,,合同会社,千葉県,松戸市,五香４丁目１５番地の５イル・フルーレ五香Ｆ棟１６２号,,12,207,2702213,,,,,,,2023-08-15,1,,,,,ハッスルアンドバッスル,0
1111,5060001036264,新規,0,2023-08-15,2023-08-15,株式会社佐取農磁,,株式会社,栃木県,佐野市,高橋町２１０９番地１,,09,204,3270045,,,,,,,2023-08-15,1,,,,,サトリノウジ,0
1115,5070001040752,新規,0,2023-08-15,2023-08-15,株式会社ＤＫＴグループ,,株式会社,群馬県,伊勢崎市,山王町２５３番地５,,10,204,3720831,,,,,,,2023-08-15,1,,,,,ディーケーティーグループ,0
1116,5070001040760,新規,0,2023-08-15,2023-08-15,株式会社まえばし料亭文化を守る会,,株式会社,群馬県,前橋市,千代田町３丁目９番１０号,,10,201,3710022,,,,,,,2023-08-15,1,,,,,マエバシリョウテイブンカヲマモルカイ,0
1118,5080001025810,新規,0,2023-08-15,2023-08-15,株式会社ＴＡＳＨＩＲＯ,,株式会社,静岡県,静岡市清水区,船越２丁目９番１２号,,22,103,4240866,,,,,,,2023-08-15,1,,,,,タシロ,0
1124,5100001036672,新規,0,2023-08-15,2023-08-15,ユニバーサル株式会社,,株式会社,長野県,松本市,大字里山辺３２４０－１ビラ紫苑,,20,202,3900221,,,,,,,2023-08-15,1,,,,,ユニバーサル,0
1128,5120001257135,新規,0,2023-08-15,2023-08-15,株式会社ブルーム環境,,株式会社,大阪府,大阪市城東区,関目６丁目６番３１号,,27,118,5360008,,,,,,,2023-08-15,1,,,,,ブルームカンキョウ,0
1129,5120001257325,新規,0,2023-08-15,2023-08-15,株式会社Ｐｅｒｉｃａ,,株式会社,大阪府,大阪市生野区,中川２丁目１１番１０号,,27,116,5440005,,,,,,,2023-08-15,1,,,,,ペリカ,0
1131,5120003024707,新規,0,2023-08-15,2023-08-15,合同会社ストーンフィールド,,合同会社,大阪府,大阪市東淀川区,西淡路１丁目１１－２６土井マンションＡ－３０６,,27,114,5330031,,,,,,,2023-08-15,1,,,,,ストーンフィールド,0
1133,5120101068060,新規,0,2023-08-15,2023-08-15,株式会社ヒコウセン,,株式会社,大阪府,和泉市,池田下町１１８番地の１,,27,219,5940032,,,,,,,2023-08-15,1,,,,,ヒコウセン,0
1136,5120901047957,新規,0,2023-08-15,2023-08-15,株式会社島田不動産開発,,株式会社,大阪府,吹田市,豊津町１２番２４号中村ビル２０５,,27,205,5640051,,,,,,,2023-08-15,1,,,,,シマダフドウサンカイハツ,0
1138,5120905006513,新規,0,2023-08-15,2023-08-15,特定非営利活動法人トータルスポーツ,,その他の設立登記法人,大阪府,茨木市,白川３丁目２番７－１０１号,,27,211,5670832,,,,,,,2023-08-15,1,,,,,トータルスポーツ,0
1139,5122001037269,新規,0,2023-08-15,2023-08-15,株式会社Ｔ’ｓプロパティー,,株式会社,大阪府,東大阪市,山手町７番６号,,27,227,5798022,,,,,,,2023-08-15,1,,,,,ティーズプロパティー,0
1140,5130001074918,新規,0,2023-08-15,2023-08-15,株式会社Ｂｌｉｓｓｈｏｍｅ,,株式会社,京都府,八幡市,橋本塩釜１番地７,,26,210,6148346,,,,,,,2023-08-15,1,,,,,ブリスホーム,0
1141,5130001074942,新規,0,2023-08-15,2023-08-15,ポリズム京都株式会社,,株式会社,京都府,京都市右京区,京北比賀江町亀ノ甲２１番地,,26,108,6010316,,,,,,,2023-08-15,1,,,,,ポリズムキョウト,0
1145,5140001131065,新規,0,2023-08-15,2023-08-15,佰富山ペットフード株式会社,,株式会社,兵庫県,神戸市中央区,磯上通７丁目１－５,,28,110,6510086,,,,,,,2023-08-15,1,,,,,ヒャッフサンペットフード,0
1147,5140005026708,新規,0,2023-08-15,2023-08-15,神戸フルゴスペルチャーチ,,その他の設立登記法人,兵庫県,神戸市兵庫区,北逆瀬川町１番６号,,28,105,6520837,,,,,,,2023-08-15,1,,,,,コウベフルゴスペルチャーチ,0
1149,5160003002956,新規,0,2023-08-15,2023-08-15,合同会社まるくす,,合同会社,滋賀県,東近江市,小池町５２２番地１５,,25,213,5270121,,,,,,,2023-08-15,1,,,,,,0
1155,5180001157560,新規,0,2023-08-15,2023-08-15,株式会社ＯＳＵＧＩ,,株式会社,愛知県,長久手市,宮脇５０４番地アンソレイユＮＹ・Ｃ棟,,23,238,4801172,,,,,,,2023-08-15,1,,,,,オスギ,0
1156,5180001157676,新規,0,2023-08-15,2023-08-15,株式会社アンドウ,,株式会社,愛知県,名古屋市熱田区,四番１丁目１６番４８号ラミニエラドーロ１０１号,,23,109,4560051,,,,,,,2023-08-15,1,,,,,アンドウ,0
1164,5210001019427,新規,0,2023-08-15,2023-08-15,ｌｅｄｇｅ株式会社,,株式会社,福井県,越前市,余田町第１号２番地の２２,,18,209,9150891,,,,,,,2023-08-15,1,,,,,レッジ,0
1167,5240001061995,新規,0,2023-08-15,2023-08-15,株式会社大昇コーポレーション,,株式会社,広島県,広島市東区,戸坂山根２丁目４番１４号,,34,102,7320002,,,,,,,2023-08-15,1,,,,,ダイショウコーポレーション,0
1168,5240001062003,新規,0,2023-08-15,2023-08-15,株式会社伸幸,,株式会社,広島県,広島市中区,江波南２丁目２３番３－１００３号,,34,101,7300835,,,,,,,2023-08-15,1,,,,,シンコウ,0
1174,5260001038240,新規,0,2023-08-15,2023-08-15,ＨＫＫ株式会社,,株式会社,岡山県,岡山市中区,関３５８番地５,,33,102,7038232,,,,,,,2023-08-15,1,,,,,エイチケイケイ,0
1177,5260003004397,新規,0,2023-08-15,2023-08-15,合同会社ｔｅｃｏ,,合同会社,岡山県,岡山市南区,築港緑町１丁目１８番１２号,,33,104,7028055,,,,,,,2023-08-15,1,,,,,テコ,0
1181,5290001102555,新規,0,2023-08-15,2023-08-15,株式会社海クレスト,,株式会社,福岡県,柳川市,大和町中島１４６５番地７,,40,207,8390254,,,,,,,2023-08-15,1,,,,,カイクレスト,0
1182,5290001102588,新規,0,2023-08-15,2023-08-15,株式会社ＧＲＡＣＥ,,株式会社,福岡県,福岡市中央区,渡辺通５丁目１４－１２南天神ビル３階,,40,133,8100004,,,,,,,2023-08-15,1,,,,,グレース,0
1183,5290001102662,新規,0,2023-08-15,2023-08-15,株式会社Ｆ．Ｐ,,株式会社,福岡県,糸島市,浦志２丁目４番３３号小島タウン７号,,40,230,8191112,,,,,,,2023-08-15,1,,,,,エフピー,0
1184,5290001102695,新規,0,2023-08-15,2023-08-15,ＮＢ　ＪＡＰＡＮ株式会社,,株式会社,福岡県,福岡市南区,野多目２丁目１９番３０号,,40,134,8111347,,,,,,,2023-08-15,1,,,,,エヌビージャパン,0
1187,5310001018567,新規,0,2023-08-15,2023-08-15,株式会社堀内エンターテイメント,,株式会社,長崎県,佐世保市,宇久町平２５５８番地１,,42,202,8574901,,,,,,,2023-08-15,1,,,,,ホリウチエンターテイメント,0
1188,5310003004623,新規,0,2023-08-15,2023-08-15,合同会社ふくしのいろは,,合同会社,長崎県,長崎市,四杖町９３３,,42,201,8511123,,,,,,,2023-08-15,1,,,,,フクシノイロハ,0
1190,5340001025817,新規,0,2023-08-15,2023-08-15,株式会社オズクレーン,,株式会社,鹿児島県,鹿児島市,中山町１５９０番地１,,46,201,8910105,,,,,,,2023-08-15,1,,,,,オズクレーン,0
1191,5340001025825,新規,0,2023-08-15,2023-08-15,株式会社美隆創造建築,,株式会社,鹿児島県,鹿児島市,中山町１８８７番地５,,46,201,8910105,,,,,,,2023-08-15,1,,,,,ヨシタカソウゾウケンチク,0
1192,5340003004208,新規,0,2023-08-15,2023-08-15,オクトパスメンテナンス合同会社,,合同会社,鹿児島県,大島郡伊仙町,大字木之香７３６番地２,,46,532,8918323,,,,,,,2023-08-15,1,,,,,オクトパスメンテナンス,0
1206,5420003002772,新規,0,2023-08-15,2023-08-15,合同会社サトウ農場,,合同会社,青森県,三戸郡新郷村,大字西越字堂ケ前２番地,,02,450,0391802,,,,,,,2023-08-15,1,,,,,サトウノウジョウ,0
1208,5430001089704,新規,0,2023-08-15,2023-08-15,株式会社ＫＢＨ,,株式会社,北海道,札幌市南区,南三十五条西１０丁目４番１２号,,01,106,0050035,,,,,,,2023-08-15,1,,,,,ケイビーエイチ,0
1209,5430001089729,新規,0,2023-08-15,2023-08-15,アイビックフーズ株式会社,,株式会社,北海道,札幌市東区,苗穂町１３丁目１番１５号,,01,103,0650043,,,,,,,2023-08-15,1,,,,,アイビックフーズ,0
1210,5430001089745,新規,0,2023-08-15,2023-08-15,株式会社大聖,,株式会社,北海道,札幌市白石区,菊水元町三条２丁目１番６－１０２号,,01,104,0030823,,,,,,,2023-08-15,1,,,,,タイセイ,0
1219,5700150119003,新規,0,2023-08-15,2023-08-15,ｓｈｅｎｚｈｅｎｓｈｉ　ｆｕｔｕｏｈａｉｋｅｊｉ　ｙｏｕｘｉａｎｇｏｎｇｓｉ,,外国会社等,,,,,,,,ｓｈｅｎｚｈｅｎｓｈｉｎａｎｓｈａｎｑｕｔａｏｙｕａｎｊｉｅｄａｏｐｉｎｇｓｈａｎｓｈｅｑｕｌｉｕｘｉａｎｄａｄａｏ４０９３ｈａｏｎａｎｓｈａｎｙｕｎｇｕｃｈｕａｎｇｘｉｎｃｈａｎｙｅｙｕａｎｌａｎｇｓｈａｎｇｅ６０５,,,,,,2023-08-15,1,,,,,シンセンシフトオハイケジユウゲンコウシ,0
1220,5700150119011,新規,0,2023-08-15,2023-08-15,ＬＩＮＡＮ　ＭＥＩＴＩＡＮ　ＲＩＹＯＮＧＰＩＮ　ＹＯＵＸＩＡＮ　ＧＯＮＧＳＩ,,外国会社等,,,,,,,,Ｎｏ．４５４　Ｂａｏｊｉｎ　Ｒｏａｄ，Ｘｉｓｈｕ　Ｖｉｌｌａｇｅ，Ｊｉｎｂｅｉ　Ｓｔｒｅｅｔ，Ｌｉｎ’ａｎ　Ｃｉｔｙ，Ｈａｎｇｚｈｏｕ　Ｃｉｔｙ，Ｚｈｅｊｉａｎｇ　Ｐｒｏｖｉｎｃｅ,,,,,,2023-08-15,1,,,,,リンアンメイテンルチャンピンユウゲンコウシ,0
1228,6010001237691,新規,0,2023-08-15,2023-08-15,株式会社リカラー,,株式会社,東京都,千代田区,神田錦町２丁目２－１，１１Ｆ，ＷｅＷｏｒｋ，ＫＡＮＤＡ，ＳＱＵＡＲＥ，１１－１０１,,13,101,1010054,,,,,,,2023-08-15,1,,,,,リカラー,0
1237,6010401176259,新規,0,2023-08-15,2023-08-15,株式会社Ｐｅｎｃａｋｅｓ,,株式会社,東京都,港区,南青山２丁目２－１５ｗｉｎ青山ビルＵＣＦ９階,,13,103,1070062,,,,,,,2023-08-15,1,,,,,ペンケイクス,0
1238,6010401176374,新規,0,2023-08-15,2023-08-15,Ｚａｃｏｏ株式会社,,株式会社,東京都,港区,三丁目１番３６号青山丸竹ビル６Ｆ,,13,103,1050000,,,,,,,2023-08-15,1,,,,,ザクー,0
1242,6010501050900,新規,0,2023-08-15,2023-08-15,株式会社ソリトンフーズ,,株式会社,東京都,台東区,東上野１丁目１３番３号梶田ビル２階,,13,106,1100015,,,,,,,2023-08-15,1,,,,,ソリトンフーズ,0
1245,6010601063604,新規,0,2023-08-15,2023-08-15,華億科技株式会社,,株式会社,東京都,墨田区,東駒形４丁目１番７－１０２室,,13,107,1300005,,,,,,,2023-08-15,1,,,,,カオクカギ,0
1246,6010603010307,新規,0,2023-08-15,2023-08-15,合同会社ＮＡＮＡＫＯＲＯＢＩＹＡＯＫＩ,,合同会社,東京都,墨田区,江東橋３丁目５番６号２階,,13,107,1300022,,,,,,,2023-08-15,1,,,,,ナナコロビヤオキ,0
1247,6010701044719,新規,0,2023-08-15,2023-08-15,ＫＢアセット株式会社,,株式会社,東京都,品川区,東五反田５丁目２８番１号,,13,109,1410022,,,,,,,2023-08-15,1,,,,,ケービーアセット,0
1249,6011001156188,新規,0,2023-08-15,2023-08-15,株式会社ＰｒａｎｋＨｅａｒｔ,,株式会社,東京都,渋谷区,桜丘町４－１４ＶＯＲＴ渋谷桜丘ビル５Ｆ,,13,113,1500031,,,,,,,2023-08-15,1,,,,,プランクハート,0
1250,6011001156254,新規,0,2023-08-15,2023-08-15,株式会社イルダケ,,株式会社,東京都,渋谷区,道玄坂１丁目１０番８号渋谷道玄坂東急ビル２Ｆ－Ｃ,,13,113,1500043,,,,,,,2023-08-15,1,,,,,イルダケ,0
1251,6011001156320,新規,0,2023-08-15,2023-08-15,株式会社ＰＲＩＳＭＡＴＩＣ,,株式会社,東京都,渋谷区,恵比寿１丁目１５番９号日宝恵比寿ビル４０３,,13,113,1500013,,,,,,,2023-08-15,1,,,,,プリズマティック,0
1252,6011001156337,新規,0,2023-08-15,2023-08-15,株式会社ＲＩＮ,,株式会社,東京都,目黒区,目黒１丁目３番２５－５０７号,,13,110,1530063,,,,,,,2023-08-15,1,,,,,リン,0
1253,6011003017339,新規,0,2023-08-15,2023-08-15,合同会社ＡＣＴ,,合同会社,東京都,渋谷区,神宮前５丁目４１－２青神道ビル１Ｆ,,13,113,1500001,,,,,,,2023-08-15,1,,,,,アクト,0
1254,6011003017355,新規,0,2023-08-15,2023-08-15,合同会社奥村不動産再生研究所,,合同会社,東京都,渋谷区,神宮前６丁目２３番４号桑野ビル２階,,13,113,1500001,,,,,,,2023-08-15,1,,,,,オクムラフドウサンサイセイケンキュウジョ,0
1255,6011101104006,新規,0,2023-08-15,2023-08-15,株式会社ＮＤＹ,,株式会社,東京都,新宿区,西新宿５丁目１番１－３５０３号,,13,104,1600023,,,,,,,2023-08-15,1,,,,,エヌディワイ,0
1257,6011301028921,新規,0,2023-08-15,2023-08-15,株式会社Ｓｈｉｒｅｒｕ,,株式会社,東京都,杉並区,荻窪５丁目３０－１２グローリア荻窪７１３,,13,115,1670051,,,,,,,2023-08-15,1,,,,,シレル,0
1259,6011303004870,新規,0,2023-08-15,2023-08-15,合同会社ドライブ,,合同会社,東京都,杉並区,善福寺１丁目３１番１０号,,13,115,1670041,,,,,,,2023-08-15,1,,,,,ドライブ,0
1268,6012801022570,新規,0,2023-08-15,2023-08-15,永澤総業株式会社,,株式会社,東京都,立川市,栄町４丁目４０番地１６Ｂ２ｎｄ－１０１,,13,202,1900003,,,,,,,2023-08-15,1,,,,,ナガサワソウギョウ,0
1284,6020001152931,新規,0,2023-08-15,2023-08-15,株式会社エヌケン,,株式会社,神奈川県,横浜市戸塚区,舞岡町３３５番地１,,14,110,2440813,,,,,,,2023-08-15,1,,,,,エヌケン,0
1285,6020001152956,新規,0,2023-08-15,2023-08-15,Ｙｏｋｏｈａｍａ　Ｇｒｏｕｎｄ　Ｓｕｐｐｏｒｔ　ＨＤ株式会社,,株式会社,神奈川県,横浜市西区,高島１丁目２番５号横濱ゲートタワー３階,,14,103,2200011,,,,,,,2023-08-15,1,,,,,ヨコハマグラウンドサポートエイチディー,0
1286,6020001153005,新規,0,2023-08-15,2023-08-15,株式会社ｌｕｎｏ,,株式会社,神奈川県,川崎市中原区,市ノ坪３５９番地４クレストフォルム武蔵小杉サウスステージ５０６,,14,133,2110016,,,,,,,2023-08-15,1,,,,,ルーノ,0
1296,6020003024369,新規,0,2023-08-15,2023-08-15,合同会社スタジオロックアップ,,合同会社,神奈川県,横浜市西区,浅間町１丁目４番地３ウィザードビル４０２,,14,103,2200072,,,,,,,2023-08-15,1,,,,,スタジオロックアップ,0
1297,6020003024377,新規,0,2023-08-15,2023-08-15,和っふる茶屋合同会社,,合同会社,神奈川県,横浜市神奈川区,沢渡４３番地１ハイツ４３１－１０２号,,14,102,2210844,,,,,,,2023-08-15,1,,,,,ワッフルチャヤ,0
1298,6020003024402,新規,0,2023-08-15,2023-08-15,合同会社ｓｏｔｏ,,合同会社,神奈川県,川崎市多摩区,登戸２３８４番地１０,,14,135,2140014,,,,,,,2023-08-15,1,,,,,ソト,0
1309,6030001155116,新規,0,2023-08-15,2023-08-15,株式会社Ｉ．Ｍ．Ｐ,,株式会社,埼玉県,熊谷市,樋春２０７４番地７９,00131527,11,202,3600112,,,,,,,2023-08-15,1,,,,,アイエムピー,0
1310,6030001155181,新規,0,2023-08-15,2023-08-15,陳記飲食株式会社,,株式会社,埼玉県,川口市,宮町１番８号,,11,203,3320028,,,,,,,2023-08-15,1,,,,,チンキインショク,0
1311,6030001155264,新規,0,2023-08-15,2023-08-15,株式会社サンライン,,株式会社,埼玉県,入間郡三芳町,大字北永井８４２番地５７,,11,324,3540044,,,,,,,2023-08-15,1,,,,,サンライン,0
1312,6030001155289,新規,0,2023-08-15,2023-08-15,株式会社ＭＩＹＡＪＩＲＯＵ,,株式会社,埼玉県,深谷市,東方町１丁目１９番地２,,11,218,3660042,,,,,,,2023-08-15,1,,,,,ミヤジロウ,0
1313,6030001155297,新規,0,2023-08-15,2023-08-15,リアルック株式会社,,株式会社,埼玉県,川口市,南鳩ヶ谷５丁目２９番２－４号,,11,203,3340013,,,,,,,2023-08-15,1,,,,,リアルック,0
1317,6030003022289,新規,0,2023-08-15,2023-08-15,合同会社青空建装,,合同会社,埼玉県,さいたま市岩槻区,加倉１丁目２番１１号アヴェニール岩槻１０７,,11,110,3390056,,,,,,,2023-08-15,1,,,,,アオゾラケンソウ,0
1318,6030003022297,新規,0,2023-08-15,2023-08-15,合同会社アクアライフ,,合同会社,埼玉県,秩父市,大野原２３３６番地４,,11,207,3680005,,,,,,,2023-08-15,1,,,,,アクアライフ,0
1321,6040001129655,新規,0,2023-08-15,2023-08-15,ＡＳＡＨｉＮＡ　Ｃｏｎｓｕｌｔｉｎｇ　Ｆｉｒｍ株式会社,,株式会社,千葉県,八千代市,村上１１１３番地１、２街区１０棟２０１号,,12,221,2760028,,,,,,,2023-08-15,1,,,,,アサヒナコンサルティングファーム,0
1322,6040001129688,新規,0,2023-08-15,2023-08-15,一ノ宮テラスキャンプ場株式会社,,株式会社,千葉県,長生郡一宮町,東浪見３４７,,12,421,2994303,,,,,,,2023-08-15,1,,,,,イチノミヤテラスキャンプジョウ,0
1326,6060001036255,新規,0,2023-08-15,2023-08-15,株式会社ＳＫＲアドバイザー,,株式会社,栃木県,塩谷郡高根沢町,大字石末１７８９番地５,,09,386,3291225,,,,,,,2023-08-15,1,,,,,エスケーアールアドバイザー,0
1327,6070001040768,新規,0,2023-08-15,2023-08-15,中村工業株式会社,,株式会社,群馬県,高崎市,石原町３１９３番地２,,10,202,3700864,,,,,,,2023-08-15,1,,,,,ナカムラコウギョウ,0
1329,6080005007556,新規,0,2023-08-15,2023-08-15,一般社団法人大井川種苗採捕,,その他の設立登記法人,静岡県,焼津市,高新田２２１９番地の６,,22,212,4210204,,,,,,,2023-08-15,1,,,,,オオイガワシュビョウサイホ,0
1334,6100001036688,新規,0,2023-08-15,2023-08-15,エヌホールディングス株式会社,,株式会社,長野県,千曲市,大字桜堂４８３番地１,,20,218,3870012,,,,,,,2023-08-15,1,,,,,エヌホールディングス,0
1339,6110003005137,新規,0,2023-08-15,2023-08-15,合同会社Ｃｈｉｍａ,,合同会社,新潟県,燕市,中諏訪７番５６号,,15,213,9590182,,,,,,,2023-08-15,1,,,,,チマ,0
1344,6120001257134,新規,0,2023-08-15,2023-08-15,株式会社Ｒｏｏｍ　Ｈｅａｒｔｓ,,株式会社,大阪府,大阪市北区,梅田１丁目２番２－２００号,,27,127,5300001,,,,,,,2023-08-15,1,,,,,ルームハーツ,0
1345,6120001257233,新規,0,2023-08-15,2023-08-15,株式会社河内冷熱,,株式会社,大阪府,枚方市,長尾元町７丁目５８番５号,,27,210,5730163,,,,,,,2023-08-15,1,,,,,カワチレイネツ,0
1346,6120003024697,新規,0,2023-08-15,2023-08-15,ケーワイコーポレーション合同会社,,合同会社,大阪府,枚方市,南船橋２丁目７番１０号,,27,210,5731123,,,,,,,2023-08-15,1,,,,,ケーワイコーポレーション,0
1347,6120003024706,新規,0,2023-08-15,2023-08-15,総合企画ＫＧＣ合同会社,,合同会社,大阪府,大阪市東淀川区,東中島２丁目５－１４松村マンション１０１号室,,27,114,5330033,,,,,,,2023-08-15,1,,,,,ソウゴウキカクケージーシー,0
1354,6120905006512,新規,0,2023-08-15,2023-08-15,一般社団法人ＢＬＵＥ　ＯＣＥＡＮ,,その他の設立登記法人,大阪府,豊能郡豊能町,光風台１丁目９番８号,,27,321,5630104,,,,,,,2023-08-15,1,,,,,ブルーオーシャン,0
1361,6130001074925,新規,0,2023-08-15,2023-08-15,株式会社ｃｏｎｐａｔｈ．,,株式会社,京都府,綾部市,青野町高田７３番地の３,,26,203,6230011,,,,,,,2023-08-15,1,,,,,コンパス,0
1362,6130001075007,新規,0,2023-08-15,2023-08-15,株式会社ＭｅｄＲｅｖｏｌｕｔｉｏｎ,,株式会社,京都府,宇治市,宇治半白１２番地３,,26,204,6110021,,,,,,,2023-08-15,1,,,,,メッドレボリューション,0
1363,6130001075031,新規,0,2023-08-15,2023-08-15,株式会社山本道路,,株式会社,京都府,京都市伏見区,桃山町伊庭２１番地５,,26,109,6128011,,,,,,,2023-08-15,1,,,,,ヤマモトドウロ,0
1373,6180001157618,新規,0,2023-08-15,2023-08-15,株式会社ＭＳカンパニー,,株式会社,愛知県,名古屋市瑞穂区,密柑山町１丁目１８番地の１密柑山セピアコート３０３号,,23,108,4670041,,,,,,,2023-08-15,1,,,,,エムエスカンパニー,0
1374,6180001157650,新規,0,2023-08-15,2023-08-15,株式会社ＮＫＣ,,株式会社,愛知県,東海市,名和町一番割上９０番地の５レミール（２０３号）,,23,222,4760002,,,,,,,2023-08-15,1,,,,,エヌケーシー,0
1375,6180001157659,新規,0,2023-08-15,2023-08-15,株式会社ＪＹ　ＣＵＳＴＯＭ　ＪＡＰＡＮ,,株式会社,愛知県,日進市,栄３丁目２２１０番地,,23,230,4700113,,,,,,,2023-08-15,1,,,,,ジェイワイカスタムジャパン,0
1376,6180003025608,新規,0,2023-08-15,2023-08-15,合同会社ＩＮＧ,,合同会社,愛知県,名古屋市中川区,蔦元町２丁目２８パントグラフＢ棟１０３号,,23,110,4540824,,,,,,,2023-08-15,1,,,,,アイエンジー,0
1377,6180003025616,新規,0,2023-08-15,2023-08-15,ブルックステクノロジーソリューションズ合同会社,,合同会社,愛知県,江南市,小折本町白山１４６番地２０,,23,217,4838124,,,,,,,2023-08-15,1,,,,,ブルックステクノロジーソリューションズ,0
1378,6180003025632,新規,0,2023-08-15,2023-08-15,ＡＢＩＯ＆Ｅａｒｔｈ合同会社,,合同会社,愛知県,名古屋市昭和区,駒方町２丁目４７番地,,23,107,4660832,,,,,,,2023-08-15,1,,,,,アビオアンドアース,0
1379,6180005020326,新規,0,2023-08-15,2023-08-15,一般社団法人Ｗｉｎｄ,,その他の設立登記法人,愛知県,名古屋市緑区,定納山１丁目２１０６番地マタンブリエＩＩ１０２号,00131524,23,114,4598011,,,,,,,2023-08-15,1,,,,,ウインド,0
1384,6200001041612,新規,0,2023-08-15,2023-08-15,株式会社ビーエーワイ,,株式会社,岐阜県,羽島市,福寿町平方１０丁目１番地,,21,209,5016257,,,,,,,2023-08-15,1,,,,,ビーエーワイ,0
1389,6210003001687,新規,0,2023-08-15,2023-08-15,合同会社たいせい,,合同会社,福井県,大飯郡おおい町,尾内第２５号５番地１０アベニール１０２,,18,483,9192103,,,,,,,2023-08-15,1,,,,,タイセイ,0
1390,6220001025555,新規,0,2023-08-15,2023-08-15,株式会社Ｎｏｒｔｈ　Ｖｉｌｌａｇｅ,,株式会社,石川県,金沢市,花里町１３番１３号,,17,201,9200951,,,,,,,2023-08-15,1,,,,,ノースヴィレッジ,0
1391,6220001025563,新規,0,2023-08-15,2023-08-15,株式会社スポーツまちづくりラボ,,株式会社,石川県,かほく市,指江ソ２４番地１１,,17,209,9291113,,,,,,,2023-08-15,1,,,,,スポーツマチヅクリラボ,0
1392,6220003003567,新規,0,2023-08-15,2023-08-15,合同会社Ａｕｔｕｍｎ　Ｌｅａｆ,,合同会社,石川県,白山市,白山町タ９０番地,,17,210,9202115,,,,,,,2023-08-15,1,,,,,オータムリーフ,0
1395,6230001019969,新規,0,2023-08-15,2023-08-15,株式会社ＣｏｄｅＣａｓｔ,,株式会社,富山県,高岡市,中川栄町１１番２５－２０５号セジュール栄,,16,202,9330042,,,,,,,2023-08-15,1,,,,,コードキャスト,0
1398,6240001062002,新規,0,2023-08-15,2023-08-15,株式会社ＭＫＨ,,株式会社,広島県,広島市中区,薬研堀１番１６号,,34,101,7300027,,,,,,,2023-08-15,1,,,,,エムケーエイチ,0
1407,6260001038231,新規,0,2023-08-15,2023-08-15,株式会社大鳳,,株式会社,岡山県,倉敷市,連島町鶴新田１６３６番地５,,33,202,7128006,,,,,,,2023-08-15,1,,,,,タオ,0
1409,6260003004396,新規,0,2023-08-15,2023-08-15,合同会社ＳＰＲＯＵＴ,,合同会社,岡山県,倉敷市,鳥羽１１８６番地７,,33,202,7100012,,,,,,,2023-08-15,1,,,,,スプラウト,0
1418,6290001102587,新規,0,2023-08-15,2023-08-15,株式会社ａｒｒｏｗ,,株式会社,福岡県,福岡市中央区,平尾５丁目１９番８－８０１号,,40,133,8100014,,,,,,,2023-08-15,1,,,,,アロー,0
1419,6290001102604,新規,0,2023-08-15,2023-08-15,株式会社Ｌｉｎｋ　Ｓｏｌａｒ,,株式会社,福岡県,福岡市中央区,赤坂１丁目１４番２２号センチュリー赤坂門ビル９Ｆ‐Ｄ,,40,133,8100042,,,,,,,2023-08-15,1,,,,,リンクソラ,0
1420,6290001102645,新規,0,2023-08-15,2023-08-15,株式会社Ｂｉｉｉｉｉ,,株式会社,福岡県,福岡市中央区,舞鶴１丁目４番２９号,,40,133,8100073,,,,,,,2023-08-15,1,,,,,ビー,0
1421,6290001102661,新規,0,2023-08-15,2023-08-15,株式会社ＲＥＶＥＬ,,株式会社,福岡県,福岡市早良区,南庄４丁目１０番３０号,,40,137,8140031,,,,,,,2023-08-15,1,,,,,リベル,0
1427,6290803004485,新規,0,2023-08-15,2023-08-15,Ｄ＆Ａ合同会社,,合同会社,福岡県,京都郡苅田町,磯浜町２丁目１０番地１２メゾン苅田２０６号,,40,621,8000313,,,,,,,2023-08-15,1,,,,,ディーアンドエー,0
1428,6310003004622,新規,0,2023-08-15,2023-08-15,合同会社Ｙ．Ｎ．ＤＥＳＩＧＮ,,合同会社,長崎県,佐世保市,黒髪町７０４番地４,,42,202,8571152,,,,,,,2023-08-15,1,,,,,ワイエヌデザイン,0
1431,6330001031170,新規,0,2023-08-15,2023-08-15,株式会社だいほ果実,,株式会社,熊本県,玉名市,天水町小天６７１７番地,,43,206,8615401,,,,,,,2023-08-15,1,,,,,ダイホカジツ,0
1439,6360001032414,新規,0,2023-08-15,2023-08-15,株式会社グットネイバーズ,,株式会社,沖縄県,名護市,字真喜屋１７２番地２,,47,209,9051143,,,,,,,2023-08-15,1,,,,,グットネイバーズ,0
1440,6360001032422,新規,0,2023-08-15,2023-08-15,ＧａＴ株式会社,,株式会社,沖縄県,那覇市,字国場１１６７番地１０,,47,201,9020075,,,,,,,2023-08-15,1,,,,,ガット,0
1445,6410001013573,新規,0,2023-08-15,2023-08-15,株式会社ユーエスコーポレーション,,株式会社,秋田県,秋田市,山王７丁目５番１０号,,05,201,0100951,,,,,,,2023-08-15,1,,,,,ユーエスコーポレーション,0
1447,6420001018365,新規,0,2023-08-15,2023-08-15,佑貫堂コンサルティング株式会社,,株式会社,青森県,八戸市,大字十三日町１番地ヴィアノヴァビル３Ｆ,,02,203,0310042,,,,,,,2023-08-15,1,,,,,ユウカンドウコンサルティング,0
1449,6430001089728,新規,0,2023-08-15,2023-08-15,Ｓｅｍａｎｔｉｘ．ｍｅｄｉａ株式会社,,株式会社,北海道,札幌市中央区,大通西１５丁目３番地５－７０２,,01,101,0600042,,,,,,,2023-08-15,1,,,,,セマンティックスメディア,0
1450,6430001089736,新規,0,2023-08-15,2023-08-15,ｇｒａｃｉａ株式会社,,株式会社,北海道,室蘭市,知利別町３丁目９番１８号,,01,205,0500076,,,,,,,2023-08-15,1,,,,,グラシア,0
1452,6440001009305,新規,0,2023-08-15,2023-08-15,株式会社ときめきラボ,,株式会社,北海道,北斗市,当別４０６番地７５,,01,236,0490282,,,,,,,2023-08-15,1,,,,,トキメキラボ,0
1453,6460101007421,新規,0,2023-08-15,2023-08-15,株式会社ランド,,株式会社,北海道,帯広市,西十四条北６丁目１番地１５,,01,207,0800044,,,,,,,2023-08-15,1,,,,,ランド,0
1454,6460103001546,新規,0,2023-08-15,2023-08-15,合同会社ＪＴ,,合同会社,北海道,帯広市,自由が丘１丁目１２番地４,,01,207,0800848,,,,,,,2023-08-15,1,,,,,ジェイティー,0
1455,6470001019763,新規,0,2023-08-15,2023-08-15,株式会社ａｏｉ,,株式会社,香川県,坂出市,加茂町１０６９番地１,,37,203,7620023,,,,,,,2023-08-15,1,,,,,アオイ,0
1458,6700150066013,新規,0,2023-08-15,2015-10-09,読売巨人軍那覇協力会,,その他,沖縄県,那覇市,泉崎１丁目１番１号６Ｆ,,47,201,9000021,,,,,,,2015-10-09,1,,,,,ヨミウリキヨジングンナハキヨウリヨクカイ,0
1459,6700150114424,新規,0,2023-08-15,2023-08-15,Ｓｕｚｈｏｕ　Ｋｅｄｉ　Ｔｒａｄｉｎｇ　Ｃｏ．，Ｌｔｄ．,,外国会社等,,,,,,,,Ｘｉａｎｇｃｈｅｎｇｑｕｈｕａｎｇｄａｉｚｈｅｎ　ｐａｎｙａｎｇｇｏｎｇｙｅｙｕａｎ　ｋａｎｇｙａｎｇｌｕ　８８ｈａｏ　１３ｈａｏｌｏｕ３ｃｅｎｇ　Ｓｕｚｈｏｕ　Ｊｉａｎｇｓｕ　２１５１４３ＣＮ,,,,,,2023-08-15,1,,,,,スーヂョウクァアデェマオイーヨウシィェンゴンスー,0
1460,6700150119002,新規,0,2023-08-15,2023-08-15,ｃｈｅｎｇｄｕ　ｚｈｉｙａｚｈｉｍａｏｄｉａｎｚｉｓｈａｎｇｗｕ　ｙｏｕｘｉａｎｇｏｎｇｓｉ,,外国会社等,,,,,,,,ｓｉｃｈｕａｎｓｈｅｎｇｃｈｅｎｇｄｕｓｈｉｗｕｈｏｕｑｕｃｕｑｉａｏｓｈａｎｇｊｉｅ５７ｈａｏ,,,,,,2023-08-15,1,,,,,チェンドウジヤジマオデンシシャンウユウゲンコウシ,0
1461,6700150119010,新規,0,2023-08-15,2023-08-15,ｓｈａｎｘｉ　ｓｈａｎｇｘｕｎｗａｎｇｌｕｏｋｅｊｉ　ｙｏｕｘｉａｎｏｎｇｓｉ,,外国会社等,,,,,,,,ｙｕ　ｃｉ　ｑｕ　ｄｏｎｇ　ｓｈｕｎ　ｃｈｅｎｇ　ｊｉｅ　ｊｕｎ　ｈａｏ　ｇｕｏ　ｊｉ　Ｂ　ｚｕｏ　２２　ｃｅｎｇ　２２０４　ｓｈｉ　ｊｉｎ　ｚｈｏｎｇ　ｓｈｉ　ｓｈａｎ　ｘｉ　ｓｈｅｎｇ　ＣＮ,,,,,,2023-08-15,1,,,,,サンシシャンスンワンロケジユウゲンコウシ,0
1462,6700150119019,新規,0,2023-08-15,2023-08-15,ＳＨＥＮ　ＺＨＥＮ　ＳＨＩ　ＤＥ　ＸＩＡＮＧ　ＫＥ　Ｊｌ　ＹＯＵ　ＸＩＡＮ　ＧＯＮＧ　ＳＩ,,外国会社等,,,,,,,,ＧＵＡＮＧＭＩＮＧＱＵ　ＭＡＴＩＡＮＪＩＥＤＡＯ　ＳＨＩＪＩＡＳＨＥＱＵ　ＮＡＮＨＵＡＮＬＵ　９　ＨＡＯ，ＦＥＮＧＨＵＩＨＵＡＹＵＡＮ　１　ＤＯＮＧ　Ｂ６０２，ＳＨＥＮＺＨＥＮ，ＧＵＡＮＧＤＯＮＧ，ＣＮ,,,,,,2023-08-15,1,,,,,シンセンシディシャンカギユウゲンコウシ,0
1466,7010001237476,新規,0,2023-08-15,2023-08-15,ＳＨＯＷ株式会社,,株式会社,東京都,文京区,本郷１丁目３３番１３号春日町ビル,,13,105,1130033,,,,,,,2023-08-15,1,,,,,ショウ,0
1468,7010005037096,新規,0,2023-08-15,2023-08-15,一般社団法人美文研究協会,,その他の設立登記法人,東京都,中央区,築地１丁目１３番１０号サクセス銀座東９階,,13,102,1040045,,,,,,,2023-08-15,1,,,,,ビブンケンキュウキョウカイ,0
1469,7010005037105,新規,0,2023-08-15,2023-08-15,一般社団法人ＬＥＶＥＣＨＹ８号,,その他の設立登記法人,東京都,千代田区,紀尾井町３－８第２紀尾井町ビル９０１アクシス綜合会計事務所内,,13,101,1020094,,,,,,,2023-08-15,1,,,,,レベチーハチゴウ,0
1470,7010005037113,新規,0,2023-08-15,2023-08-15,一般社団法人シャイニーサン,,その他の設立登記法人,東京都,千代田区,平河町１丁目３番１３号平河町フロントビル７階株式会社シリウス・アドバイザリー内,,13,101,1020093,,,,,,,2023-08-15,1,,,,,シャイニーサン,0
1471,7010101015773,新規,0,2023-08-15,2023-08-15,株式会社Ｍ＆Ｈ,,株式会社,東京都,八王子市,八日町１番１１号,,13,201,1920071,,,,,,,2023-08-15,1,,,,,エムアンドエイチ,0
1477,7010401176340,新規,0,2023-08-15,2023-08-15,株式会社ＩＧＡｓ,,株式会社,東京都,港区,浜松町２丁目２番１５号浜松町ダイヤビル２Ｆ,,13,103,1050013,,,,,,,2023-08-15,1,,,,,イガス,0
1480,7010501050890,新規,0,2023-08-15,2023-08-15,リーマイ株式会社,,株式会社,東京都,台東区,上野３丁目１６番２号天翔上野末広町ビル２階２１０号室,,13,106,1100005,,,,,,,2023-08-15,1,,,,,リーマイ,0
1481,7010501050899,新規,0,2023-08-15,2023-08-15,株式会社榮千,,株式会社,東京都,台東区,上野５丁目１５番１７号１Ｆ,,13,106,1100005,,,,,,,2023-08-15,1,,,,,エイセン,0
1483,7010601063578,新規,0,2023-08-15,2023-08-15,株式会社Ｑｕｉｃｋｎｉｎｅ,,株式会社,東京都,江東区,海辺１０番１４号,,13,108,1350012,,,,,,,2023-08-15,1,,,,,クイックナイン,0
1484,7010601063603,新規,0,2023-08-15,2023-08-15,ビングテック株式会社,,株式会社,東京都,江東区,亀戸７丁目６３番３－９０４号,,13,108,1360071,,,,,,,2023-08-15,1,,,,,ビングテック,0
1485,7010601063611,新規,0,2023-08-15,2023-08-15,株式会社ＲＥＳＥＴインターナショナル,,株式会社,東京都,江東区,東雲２丁目２番１４－３１０７号,,13,108,1350062,,,,,,,2023-08-15,1,,,,,リセットインターナショナル,0
1487,7010701044718,新規,0,2023-08-15,2023-08-15,株式会社ＢＡＲＯＮ,,株式会社,東京都,品川区,東五反田１丁目１６番９号フェニックスビル１Ｆ,,13,109,1410022,,,,,,,2023-08-15,1,,,,,バロン,0
1491,7010803004644,新規,0,2023-08-15,2023-08-15,合同会社ＭＫＡ,,合同会社,東京都,大田区,南千束１丁目１８番１号,,13,111,1450063,,,,,,,2023-08-15,1,,,,,エムケーエー,0
1496,7011001156195,新規,0,2023-08-15,2023-08-15,株式会社ブラッシュアップ,,株式会社,東京都,渋谷区,広尾１丁目７番２０号,,13,113,1500012,,,,,,,2023-08-15,1,,,,,ブラッシュアップ,0
1497,7011001156237,新規,0,2023-08-15,2023-08-15,株式会社ラブクローバー,,株式会社,東京都,目黒区,目黒１丁目４番１６号目黒Ｇビル７Ｆ,,13,110,1530063,,,,,,,2023-08-15,1,,,,,ラブクローバー,0
1498,7011001156253,新規,0,2023-08-15,2023-08-15,株式会社ｒｉｍｅｒｉ,,株式会社,東京都,渋谷区,道玄坂１丁目１０番８号渋谷道玄坂東急ビル２Ｆ－Ｃ,,13,113,1500043,,,,,,,2023-08-15,1,,,,,リメリ,0
1499,7011001156344,新規,0,2023-08-15,2023-08-15,ユニオンファーマテック株式会社,,株式会社,東京都,渋谷区,恵比寿南１丁目１番１号ＨｕｍａｘＥｂｉｓｕ６．７．８Ｆ,,13,113,1500022,,,,,,,2023-08-15,1,,,,,ユニオンファーマテック,0
1501,7011101103997,新規,0,2023-08-15,2023-08-15,トヨミ株式会社,,株式会社,東京都,新宿区,弁天町２番地１２,,13,104,1620851,,,,,,,2023-08-15,1,,,,,トヨミ,0
1505,7011301028912,新規,0,2023-08-15,2023-08-15,リゾルトメディア株式会社,,株式会社,東京都,杉並区,天沼３丁目３番２－７０２号,,13,115,1670032,,,,,,,2023-08-15,1,,,,,リゾルトメディア,0
1506,7011301028920,新規,0,2023-08-15,2023-08-15,株式会社コウノ,,株式会社,東京都,杉並区,永福４丁目７番１４号,,13,115,1680064,,,,,,,2023-08-15,1,,,,,コウノ,0
1508,7011303004861,新規,0,2023-08-15,2023-08-15,合同会社ルポン,,合同会社,東京都,杉並区,荻窪３丁目３５番２７号,,13,115,1670051,,,,,,,2023-08-15,1,,,,,ルポン,0
1511,7011501029644,新規,0,2023-08-15,2023-08-15,信和エステート株式会社,,株式会社,東京都,荒川区,東日暮里５丁目５１番１０－８０１号堀口ビル,,13,118,1160014,,,,,,,2023-08-15,1,,,,,シンワエステート,0
1512,7011501029652,新規,0,2023-08-15,2023-08-15,株式会社ＷＡＶＥ,,株式会社,東京都,北区,豊島５丁目５番７－１００６号,,13,117,1140003,,,,,,,2023-08-15,1,,,,,ウェーブ,0
1513,7011503005718,新規,0,2023-08-15,2023-08-15,合同会社パンパ,,合同会社,東京都,北区,上十条２丁目１１－１２榎本ビル１階,,13,117,1140034,,,,,,,2023-08-15,1,,,,,パンパ,0
1516,7011603004017,新規,0,2023-08-15,2023-08-15,ＹＵＭＡ合同会社,,合同会社,東京都,練馬区,石神井台４丁目１０番２０－２３５号,,13,120,1770045,,,,,,,2023-08-15,1,,,,,ユマ,0
1531,7020001152807,新規,0,2023-08-15,2023-08-15,株式会社内田商店,,株式会社,神奈川県,横浜市西区,北幸１丁目１－８－５０３,,14,103,2200004,,,,,,,2023-08-15,1,,,,,ウチダショウテン,0
1532,7020001152922,新規,0,2023-08-15,2023-08-15,Ｐｒｅｃｉｏｕｓ　Ｍｉｎｄ株式会社,,株式会社,神奈川県,横浜市中区,桜木町１丁目１０１番地１クロスゲート７階,,14,104,2310062,,,,,,,2023-08-15,1,,,,,プレシャスマインド,0
1533,7020001152955,新規,0,2023-08-15,2023-08-15,株式会社ＳＶＧ,,株式会社,神奈川県,横浜市西区,境之谷３番地１日神パレステージ横濱７１６号,,14,103,2200054,,,,,,,2023-08-15,1,,,,,エスヴイジー,0
1534,7020001153004,新規,0,2023-08-15,2023-08-15,株式会社ＧＪ,,株式会社,神奈川県,横浜市南区,中里３丁目３２番１３号,,14,105,2320063,,,,,,,2023-08-15,1,,,,,ジージェー,0
1540,7021001079908,新規,0,2023-08-15,2023-08-15,株式会社ラシェットブランシュ湘南,,株式会社,神奈川県,藤沢市,長後７５２番地８,,14,205,2520801,,,,,,,2023-08-15,1,,,,,ラシェットブランシュショウナン,0
1541,7021001079932,新規,0,2023-08-15,2023-08-15,株式会社Ｒｅｓｕｒｒｅｃｔｉｏｎ,,株式会社,神奈川県,相模原市南区,新戸５１６７番地１６,,14,153,2520326,,,,,,,2023-08-15,1,,,,,リザレクション,0
1544,7030001155172,新規,0,2023-08-15,2023-08-15,株式会社太陽興業,,株式会社,埼玉県,熊谷市,弥藤吾１０５３番地１８,,11,202,3600203,,,,,,,2023-08-15,1,,,,,タイヨウコウギョウ,0
1557,7040001129646,新規,0,2023-08-15,2023-08-15,Ｔｉｔａｎ株式会社,,株式会社,千葉県,市川市,塩焼４丁目１４番２７－１０２号,,12,203,2720114,,,,,,,2023-08-15,1,,,,,タイタン,0
1558,7040001129654,新規,0,2023-08-15,2023-08-15,株式会社Ｒｅｐａｒｏ,,株式会社,千葉県,千葉市若葉区,貝塚２丁目２番８号エアリーＩＶ１０３号室,00131525,12,104,2640020,,,,,,,2023-08-15,1,,,,,レパーロ,0
1559,7040001129687,新規,0,2023-08-15,2023-08-15,株式会社向後建設,,株式会社,千葉県,旭市,三川６８０９番地４,,12,215,2892714,,,,,,,2023-08-15,1,,,,,コウゴケンセツ,0
1560,7040003023129,新規,0,2023-08-15,2023-08-15,合同会社リルピィズ,,合同会社,千葉県,松戸市,本町１７ー１１芹澤ビル６Ｆ,,12,207,2710091,,,,,,,2023-08-15,1,,,,,リルピィズ,0
1565,7050001053291,新規,0,2023-08-15,2023-08-15,株式会社ＲＥ・ＷＡＶＥ,,株式会社,茨城県,稲敷市,幸田１０２２番地,,08,229,3000605,,,,,,,2023-08-15,1,,,,,リウエイブ,0
1566,7050001053309,新規,0,2023-08-15,2023-08-15,株式会社丸二,,株式会社,茨城県,古河市,大山１６６６番地１,,08,204,3060052,,,,,,,2023-08-15,1,,,,,マルニ,0
1568,7050005013309,新規,0,2023-08-15,2023-08-15,ＡＬＬ　ＷＩＮ協同組合,,その他の設立登記法人,茨城県,水戸市,酒門町４２４２番地,,08,201,3100841,,,,,,,2023-08-15,1,,,,,オールウィン,0
1572,7070001040750,新規,0,2023-08-15,2023-08-15,株式会社ＳａｎｗａＮＢ,,株式会社,群馬県,太田市,飯田町５７８番地１,,10,205,3730851,,,,,,,2023-08-15,1,,,,,サンワエヌビー,0
1573,7070001040759,新規,0,2023-08-15,2023-08-15,株式会社ファーレ,,株式会社,群馬県,沼田市,薄根町３３５３番地５,,10,206,3780031,,,,,,,2023-08-15,1,,,,,ファーレ,0
1574,7080001025809,新規,0,2023-08-15,2023-08-15,株式会社レユシット,,株式会社,静岡県,藤枝市,水守１丁目４番地の３,,22,214,4260005,,,,,,,2023-08-15,1,,,,,レユシット,0
1575,7080003003036,新規,0,2023-08-15,2023-08-15,合同会社ｃａｌｍ１ｓｔ,,合同会社,静岡県,静岡市葵区,古庄３丁目１９番１７号,,22,101,4200812,,,,,,,2023-08-15,1,,,,,カームファースト,0
1581,7100001036662,新規,0,2023-08-15,2023-08-15,赤堀設備工業株式会社,,株式会社,長野県,松本市,波田５７１２番地２３０,,20,202,3901401,,,,,,,2023-08-15,1,,,,,アカホリセツビコウギョウ,0
1582,7100001036687,新規,0,2023-08-15,2023-08-15,株式会社ＲＵＢＢＥＲ　ＳＯＵＬ,,株式会社,長野県,長野市,大字東和田３３７番地１,,20,201,3810038,,,,,,,2023-08-15,1,,,,,ルーバーソウル,0
1588,7100005013055,新規,0,2023-08-15,2023-08-15,特定非営利活動法人しあわせホーム,,その他の設立登記法人,長野県,長野市,箱清水２丁目１７番７号,,20,201,3800801,,,,,,,2023-08-15,1,,,,,シアワセホーム,0
1594,7120001257117,新規,0,2023-08-15,2023-08-15,株式会社ＥＸＺＥ,,株式会社,大阪府,大阪市浪速区,難波中２丁目１０番７０号パークスタワー１９階,,27,111,5560011,,,,,,,2023-08-15,1,,,,,エグゼ,0
1595,7120001257133,新規,0,2023-08-15,2023-08-15,株式会社ＰｒｏｇｒｅＸ,,株式会社,大阪府,大阪市中央区,難波４丁目１番１５号近鉄難波ビル１Ｆ,,27,128,5420076,,,,,,,2023-08-15,1,,,,,プログレックス,0
1598,7120003024688,新規,0,2023-08-15,2023-08-15,コムリド合同会社,,合同会社,大阪府,大阪市住之江区,新北島６丁目１番５－１２０５号,,27,125,5590024,,,,,,,2023-08-15,1,,,,,コムリド,0
1600,7120005023812,新規,0,2023-08-15,2023-08-15,税理士法人天の川パートナーズ,,その他の設立登記法人,大阪府,枚方市,朝日丘町４番１８号,,27,210,5730026,,,,,,,2023-08-15,1,,,,,アマノガワパートナーズ,0
1602,7120101068059,新規,0,2023-08-15,2023-08-15,株式会社ＩＩＭＡＡ,,株式会社,大阪府,和泉市,いぶき野２丁目９－５,,27,219,5940041,,,,,,,2023-08-15,1,,,,,アイマ,0
1606,7120903004780,新規,0,2023-08-15,2023-08-15,合同会社しばのくるる,,合同会社,大阪府,高槻市,津之江町１丁目７０番１号,,27,207,5690822,,,,,,,2023-08-15,1,,,,,シバノクルル,0
1620,7180001157591,新規,0,2023-08-15,2023-08-15,株式会社鈴,,株式会社,愛知県,名古屋市中区,栄３丁目２７番５号栄セントビル,,23,106,4600008,,,,,,,2023-08-15,1,,,,,リン,0
1621,7180001157633,新規,0,2023-08-15,2023-08-15,株式会社フジ,,株式会社,愛知県,名古屋市西区,那古野２丁目１２番２１号－１,,23,104,4510042,,,,,,,2023-08-15,1,,,,,フジ,0
1622,7180001157658,新規,0,2023-08-15,2023-08-15,株式会社アスト,,株式会社,愛知県,名古屋市名東区,亀の井１丁目２２番地,,23,115,4650094,,,,,,,2023-08-15,1,,,,,アスト,0
1623,7180001157666,新規,0,2023-08-15,2023-08-15,株式会社ＫＪ,,株式会社,愛知県,名古屋市港区,南十一番町１丁目１番地の５３,,23,111,4550006,,,,,,,2023-08-15,1,,,,,ケージェー,0
1624,7180001157674,新規,0,2023-08-15,2023-08-15,株式会社ＴＭＧ,,株式会社,愛知県,名古屋市中川区,柳堀町１３番１６号－１,,23,110,4540006,,,,,,,2023-08-15,1,,,,,ティーエムジー,0
1627,7180003025623,新規,0,2023-08-15,2023-08-15,エイスラボ合同会社,,合同会社,愛知県,春日井市,中新町１丁目１番地１０,,23,206,4860956,,,,,,,2023-08-15,1,,,,,エイスラボ,0
1628,7180005020325,新規,0,2023-08-15,2023-08-15,一般社団法人ソダテル・メソッド,,その他の設立登記法人,愛知県,名古屋市名東区,貴船３丁目８１１番地,,23,115,4650058,,,,,,,2023-08-15,1,,,,,ソダテルメソッド,0
1637,7200001041611,新規,0,2023-08-15,2023-08-15,株式会社たからや,,株式会社,岐阜県,飛騨市,神岡町船津２０５３番地１,,21,217,5061161,,,,,,,2023-08-15,1,,,,,タカラヤ,0
1642,7210001019425,新規,0,2023-08-15,2023-08-15,株式会社エステサロンＳＩＲＥＮＡ,,株式会社,福井県,坂井市,春江町西太郎丸第３号３３番地５,,18,210,9190474,,,,,,,2023-08-15,1,,,,,エステサロンシレーナ,0
1644,7220001025562,新規,0,2023-08-15,2023-08-15,株式会社北市測量,,株式会社,石川県,小松市,打越町１丁目４４番地,,17,203,9230831,,,,,,,2023-08-15,1,,,,,キタイチソクリョウ,0
1650,7240005015632,新規,0,2023-08-15,2023-08-15,一般社団法人マスタードシードクリスチャン教会‐広島,,その他の設立登記法人,広島県,広島市中区,中町１０番１４号ＩＢＵＩＬＤ中町３階,,34,101,7300037,,,,,,,2023-08-15,1,,,,,マスタードシードクリスチャンキョウカイーヒロシマ,0
1651,7250001020222,新規,0,2023-08-15,2023-08-15,Ｄｉｇｉｔ　Ｌａｂ株式会社,,株式会社,山口県,山口市,徳地船路９３９,,35,203,7470342,,,,,,,2023-08-15,1,,,,,デジットラボ,0
1652,7260001038230,新規,0,2023-08-15,2023-08-15,株式会社晴れの国ホールディングス,,株式会社,岡山県,岡山市北区,今３丁目２０番２６号,,33,101,7000975,,,,,,,2023-08-15,1,,,,,ハレノクニホールディングス,0
1653,7260001038239,新規,0,2023-08-15,2023-08-15,株式会社平野屋,,株式会社,岡山県,倉敷市,酒津２４２９番地,,33,202,7100801,,,,,,,2023-08-15,1,,,,,ヒラノヤ,0
1655,7260003004395,新規,0,2023-08-15,2023-08-15,合同会社ＳＨＩＮＩＮＧ,,合同会社,岡山県,総社市,井手１１６３番地１０,,33,208,7191125,,,,,,,2023-08-15,1,,,,,シャイニング,0
1657,7280001009015,新規,0,2023-08-15,2023-08-15,ＢＥＴＴＥＲ　ＬＩＦＥ　ＳＴＲＡＴＥＧＹ株式会社,,株式会社,島根県,出雲市,大社町杵築南１３８３－５イデアビル２Ｆ,,32,203,6990711,,,,,,,2023-08-15,1,,,,,,0
1659,7290001102594,新規,0,2023-08-15,2023-08-15,ランドマーク株式会社,,株式会社,福岡県,小郡市,上岩田１３１６番地６,,40,216,8380121,,,,,,,2023-08-15,1,,,,,ランドマーク,0
1660,7290001102611,新規,0,2023-08-15,2023-08-15,株式会社雪の華,,株式会社,福岡県,久留米市,諏訪野町１７５６－６,,40,203,8300037,,,,,,,2023-08-15,1,,,,,ユキノハナ,0
1666,7310001018565,新規,0,2023-08-15,2023-08-15,株式会社まるたろう工務店,,株式会社,長崎県,長崎市,千歳町２１番１号たちばな信金ビル２０１号,,42,201,8528135,,,,,,,2023-08-15,1,,,,,マルタロウコウムテン,0
1668,7330001031153,新規,0,2023-08-15,2023-08-15,株式会社佐藤金属,,株式会社,熊本県,熊本市東区,下南部２丁目１６番２９号,,43,102,8618019,,,,,,,2023-08-15,1,,,,,サトウキンゾク,0
1669,7340001025823,新規,0,2023-08-15,2023-08-15,株式会社自遊設計,,株式会社,鹿児島県,鹿児島市,桜ヶ丘５丁目１番地１７,,46,201,8910175,,,,,,,2023-08-15,1,,,,,ジユウセッケイ,0
1675,7370001050307,新規,0,2023-08-15,2023-08-15,株式会社三栄,,株式会社,宮城県,仙台市青葉区,折立２丁目８番１６－２０２号,,04,101,9820261,,,,,,,2023-08-15,1,,,,,サンエイ,0
1684,7420003002770,新規,0,2023-08-15,2023-08-15,合同会社トータルデザインｚｅｎｉｙａ,,合同会社,青森県,青森市,問屋町１丁目１５番６号,,02,201,0300131,,,,,,,2023-08-15,1,,,,,トータルデザインゼニヤ,0
1685,7430001089693,新規,0,2023-08-15,2023-08-15,ＤＡＮ株式会社,,株式会社,北海道,札幌市北区,新琴似八条１６丁目７番１３号,,01,102,0010908,,,,,,,2023-08-15,1,,,,,ダン,0
1686,7430001089719,新規,0,2023-08-15,2023-08-15,株式会社ボランチ,,株式会社,北海道,札幌市白石区,栄通１丁目１４番２７号,,01,104,0030021,,,,,,,2023-08-15,1,,,,,ボランチ,0
1687,7430001089727,新規,0,2023-08-15,2023-08-15,寺建興業株式会社,,株式会社,北海道,札幌市東区,北十九条東８丁目４番１２－２０３号,,01,103,0650019,,,,,,,2023-08-15,1,,,,,テラケンコウギョウ,0
1688,7430001089743,新規,0,2023-08-15,2023-08-15,株式会社訪問理美容ＬＩＮＫ,,株式会社,北海道,札幌市豊平区,西岡一条１０丁目４番１３号,,01,105,0620031,,,,,,,2023-08-15,1,,,,,ホウモンリビヨウリンク,0
1689,7430003015350,新規,0,2023-08-15,2023-08-15,合同会社住Ｌａｂｏ,,合同会社,北海道,千歳市,新富２丁目１番５－２１２号セントラル新富,,01,224,0660037,,,,,,,2023-08-15,1,,,,,スミラボ,0
1695,7500001025138,新規,0,2023-08-15,2023-08-15,株式会社新興ホールディングス,,株式会社,愛媛県,四国中央市,三島中央１丁目１番８５号,,38,213,7990405,,,,,,,2023-08-15,1,,,,,シンコウホールディングス,0
1697,7700150114423,新規,0,2023-08-15,2023-08-15,Ｓｈｅｎｚｈｅｎ　Ｊｉｎｄａｗｅｉ　Ｓｃｉｅｎｃｅ　ａｎｄ　Ｔｅｃｈｎｏｌｏｇｙ　Ｌｔｄ．,,外国会社等,,,,,,,,Ｇｕａｎｌｏｎｇｃｕｎｄｏｎｇ　Ｎｏ．１８－５０６　Ｘｉｎｗｅｉ　Ｃｏｍｍｕｎｉｔｙ　Ｘｉｌｉ　Ｓｔｒｅｅｔ，Ｎａｎｓｈａｎ　Ｄｉｓｔｒｉｃｔ　Ｓｈｅｎｚｈｅｎ　Ｃｉｔｙ　Ｇｕａｎｇｄｏｎｇ　Ｐｒｏｖｉｎｃｅ　５１８０５５ＣＮ,,,,,,2023-08-15,1,,,,,シェンヂェンジンダーウェイクァアジーヨウシィェンゴンスー,0
1698,7700150119001,新規,0,2023-08-15,2023-08-15,ｎａｎｃｈａｎｇｓｈｉ　ｐａｎｊｕｎｄｉａｎｚｉｓｈａｎｇｗｕ　ｙｏｕｘｉａｎｇｏｎｇｓｉ,,外国会社等,,,,,,,,Ｄｉｎｇｓｈａｎｇ　Ｄｕｈｕｉ　Ｃｏｍｍｕｎｉｔｙ　Ｂｕｉｌｄｉｎｇ　１３　Ｕｎｉｔ１　１２０２　Ｎａｎｃｈａｎｇ　Ｎａｎｃｈａｎｇ　Ｃｏｕｎｔｙ　Ｊｉａｎｇｘｉ　Ｐｒｏｖｉｎｃｅ　ＣＮ,,,,,,2023-08-15,1,,,,,ナンチャンシパンジュンデンシシャンウユウゲンコウシ,0
1699,7700150119018,新規,0,2023-08-15,2023-08-15,ｓｈｅｎｚｈｅｎｓｈｉ　ｑｉｓｈｅｎｇｋｅｊｉ　ｙｏｕｘｉａｎｇｏｎｇｓｉ,,外国会社等,,,,,,,,１０Ａ－Ｂ５７，Ｓｈｅｎｍａｏ　Ｃｏｍｍｅｒｃｉａｌ　Ｃｅｎｔｅｒ，Ｎｏ．５９　Ｎｅｗｓ　Ｒｏａｄ，Ｍｅｉｌｉｎｇ　Ｃｏｍｍｕｎｉｔｙ，Ｌｉａｎｈｕａ　Ｓｔｒｅｅｔ，Ｆｕｔｉａｎ　Ｄｉｓｔｒｉｃｔ，Ｓｈｅｎｚｈｅｎ,,,,,,2023-08-15,1,,,,,シンセンシチシェンカギユウゲンコウシ,0
1702,8010001237475,新規,0,2023-08-15,2023-08-15,株式会社ＯＭＯＴ,,株式会社,東京都,文京区,本郷１丁目３３番１３号春日町ビル,,13,105,1130033,,,,,,,2023-08-15,1,,,,,オモット,0
1703,8010001237715,新規,0,2023-08-15,2023-08-15,Ｈｏｒｕｓ株式会社,,株式会社,東京都,千代田区,大手町１丁目６番１号,,13,101,1000004,,,,,,,2023-08-15,1,,,,,ホルス,0
1704,8010001237723,新規,0,2023-08-15,2023-08-15,株式会社ジャパンステーション,,株式会社,東京都,千代田区,内神田３丁目４番６号,,13,101,1010047,,,,,,,2023-08-15,1,,,,,ジャパンステーション,0
1705,8010001237748,新規,0,2023-08-15,2023-08-15,御株式会社,,株式会社,東京都,千代田区,神田三崎町２丁目１０番１１号Ｐｅｇビル３Ａ－７,,13,101,1010061,,,,,,,2023-08-15,1,,,,,オン,0
1706,8010005037070,新規,0,2023-08-15,2023-08-15,行政書士法人ＷＡＮＤＡ,,その他の設立登記法人,東京都,文京区,本郷４丁目１６番６号天翔オフィス後楽園３階,,13,105,1130033,,,,,,,2023-08-15,1,,,,,ワンダ,0
1707,8010005037095,新規,0,2023-08-15,2023-08-15,一般社団法人テレノーカー協会,,その他の設立登記法人,東京都,中央区,銀座１丁目２２番１１号銀座大竹ビジデンス２Ｆ,,13,102,1040061,,,,,,,2023-08-15,1,,,,,テレノーカーキョウカイ,0
1708,8010005037104,新規,0,2023-08-15,2023-08-15,一般社団法人ＬＥＶＥＣＨＹ７号,,その他の設立登記法人,東京都,千代田区,紀尾井町３－８第２紀尾井町ビル９０１アクシス綜合会計事務所内,,13,101,1020094,,,,,,,2023-08-15,1,,,,,レベチーナナゴウ,0
1714,8010401176372,新規,0,2023-08-15,2023-08-15,株式会社ＹＲＹ,,株式会社,東京都,港区,虎ノ門１丁目２３番２－３８１０号,,13,103,1050001,,,,,,,2023-08-15,1,,,,,ユーリー,0
1717,8010405022341,新規,0,2023-08-15,2023-08-15,一般社団法人ワールドカウンシルフォーヘルスジャパン,,その他の設立登記法人,東京都,港区,高輪１丁目４番３３号,,13,103,1080074,,,,,,,2023-08-15,1,,,,,ワールドカウンシルフォーヘルスジャパン,0
1723,8010501050907,新規,0,2023-08-15,2023-08-15,株式会社ＳＯＪＯ,,株式会社,東京都,台東区,東上野４丁目２７－９ハーモニーレジデンス上野の杜４Ｆ０２室,,13,106,1100015,,,,,,,2023-08-15,1,,,,,ソウジョウ,0
1724,8010601063593,新規,0,2023-08-15,2023-08-15,株式会社喜來一,,株式会社,東京都,江東区,新大橋３丁目１８番８号浅見ビル１階,,13,108,1350007,,,,,,,2023-08-15,1,,,,,キクイチ,0
1726,8010701044709,新規,0,2023-08-15,2023-08-15,株式会社ＳＵＮ３,,株式会社,東京都,品川区,北品川３丁目７番５０号,,13,109,1400001,,,,,,,2023-08-15,1,,,,,サンサン,0
1727,8010701044717,新規,0,2023-08-15,2023-08-15,株式会社ＦＡＳＴ,,株式会社,東京都,品川区,東五反田１丁目１６番９号フェニックスビル２Ｆ,,13,109,1410022,,,,,,,2023-08-15,1,,,,,ファスト,0
1735,8011001156252,新規,0,2023-08-15,2023-08-15,株式会社キャントウェイト,,株式会社,東京都,渋谷区,道玄坂１丁目１０番８号渋谷道玄坂東急ビル２Ｆ－Ｃ,,13,113,1500043,,,,,,,2023-08-15,1,,,,,キャントウェイト,0
1736,8011001156327,新規,0,2023-08-15,2023-08-15,株式会社Ｂｉｊｏ‐Ｌａｂｏ,,株式会社,東京都,渋谷区,神宮前５丁目２１番２号,,13,113,1500001,,,,,,,2023-08-15,1,,,,,ビジョラボ,0
1737,8011003017345,新規,0,2023-08-15,2023-08-15,合同会社サンオープランニング,,合同会社,東京都,渋谷区,道玄坂１丁目１０－８渋谷道玄坂東急ビル２Ｆ－Ｃ,,13,113,1500043,,,,,,,2023-08-15,1,,,,,サンオープランニング,0
1738,8011003017361,新規,0,2023-08-15,2023-08-15,合同会社Ａｓ,,合同会社,東京都,渋谷区,神宮前６丁目２３番４号桑野ビル２階,,13,113,1500001,,,,,,,2023-08-15,1,,,,,エーエス,0
1742,8011101103996,新規,0,2023-08-15,2023-08-15,株式会社Ｍ２,,株式会社,東京都,新宿区,百人町２丁目１５番６号,,13,104,1690073,,,,,,,2023-08-15,1,,,,,エムツー,0
1743,8011101104012,新規,0,2023-08-15,2023-08-15,Ｅｔｅｒｎａｕｔａ株式会社,,株式会社,東京都,新宿区,西新宿３丁目３番１３号西新宿水間ビル２Ｆ,,13,104,1600023,,,,,,,2023-08-15,1,,,,,エテルナウタ,0
1751,8011601027051,新規,0,2023-08-15,2023-08-15,森拓株式会社,,株式会社,東京都,練馬区,高松４丁目５番４号,,13,120,1790075,,,,,,,2023-08-15,1,,,,,モリタク,0
1752,8011701026523,新規,0,2023-08-15,2023-08-15,株式会社Ｃｏｍａｎｃｈｅ　ｓｋｙ,,株式会社,東京都,江戸川区,平井１丁目２番１５号,,13,123,1320035,,,,,,,2023-08-15,1,,,,,コマンチェスカイ,0
1757,8012703002776,新規,0,2023-08-15,2023-08-15,ＴＭステージ合同会社,,合同会社,東京都,東久留米市,本町３丁目９番１号日神パレステージ東久留米２０６,,13,222,2030053,,,,,,,2023-08-15,1,,,,,ティーエムステージ,0
1766,8020001152938,新規,0,2023-08-15,2023-08-15,株式会社アシストビルメンテナンス,,株式会社,神奈川県,横浜市中区,翁町１丁目３番地１５,,14,104,2310028,,,,,,,2023-08-15,1,,,,,アシストビルメンテナンス,0
1767,8020001152970,新規,0,2023-08-15,2023-08-15,株式会社ａｄｄ　ｏｎｅ,,株式会社,神奈川県,横浜市神奈川区,神奈川２丁目４番地１プラウド東神奈川６０３号,,14,102,2210045,,,,,,,2023-08-15,1,,,,,アッドワン,0
1768,8020001152987,新規,0,2023-08-15,2023-08-15,イマジン・ワーク株式会社,,株式会社,神奈川県,横浜市西区,北幸１丁目１１番１号水信ビル７Ｆ,,14,103,2200004,,,,,,,2023-08-15,1,,,,,イマジンワーク,0
1775,8020003024301,新規,0,2023-08-15,2023-08-15,合同会社ＳＥＡ＆ＳＨＥＬＬ,,合同会社,神奈川県,川崎市幸区,南幸町３丁目１０６番地メゾン桜６０１,,14,132,2120016,,,,,,,2023-08-15,1,,,,,シーアンドシェル,0
1776,8020003024367,新規,0,2023-08-15,2023-08-15,西平沼第二踏切陸橋対策睦会合同会社,,合同会社,神奈川県,横浜市西区,中央１丁目４１番４号,,14,103,2200051,,,,,,,2023-08-15,1,,,,,ニシヒラヌマダイニフミキリリッキョウタイサクムツミカイ,0
1784,8030001155171,新規,0,2023-08-15,2023-08-15,株式会社香工房,,株式会社,埼玉県,草加市,長栄３丁目２０番地４,,11,221,3400051,,,,,,,2023-08-15,1,,,,,カオルコウボウ,0
1785,8030001155262,新規,0,2023-08-15,2023-08-15,株式会社木口農園,,株式会社,埼玉県,深谷市,内ケ島６９７番地,,11,218,3660831,,,,,,,2023-08-15,1,,,,,キグチノウエン,0
1786,8030001155287,新規,0,2023-08-15,2023-08-15,マツモト建設株式会社,,株式会社,埼玉県,大里郡寄居町,大字末野８２６番地１,,11,408,3691205,,,,,,,2023-08-15,1,,,,,マツモトケンセツ,0
1787,8030003022295,新規,0,2023-08-15,2023-08-15,合同会社ＡＳＫ,,合同会社,埼玉県,朝霞市,膝折町２丁目１７番４１号永広第２マンション２０１,,11,227,3510014,,,,,,,2023-08-15,1,,,,,エーエスケー,0
1791,8040001129686,新規,0,2023-08-15,2023-08-15,株式会社ティーレックス,,株式会社,千葉県,八千代市,八千代台西１丁目１番３２号,,12,221,2760034,,,,,,,2023-08-15,1,,,,,ティーレックス,0
1792,8040001129703,新規,0,2023-08-15,2023-08-15,株式会社ＰＩＴ,,株式会社,千葉県,印西市,牧の原５丁目３０３－２７,,12,231,2701331,,,,,,,2023-08-15,1,,,,,ピーアイティー,0
1794,8040003023103,新規,0,2023-08-15,2023-08-15,とびのすけ合同会社,,合同会社,千葉県,船橋市,咲が丘４丁目２４番３号,,12,204,2740807,,,,,,,2023-08-15,1,,,,,トビノスケ,0
1798,8050001053274,新規,0,2023-08-15,2023-08-15,エモリアル株式会社,,株式会社,茨城県,つくば市,吾妻２丁目５番地１,,08,220,3050031,,,,,,,2023-08-15,1,,,,,エモリアル,0
1800,8070003005065,新規,0,2023-08-15,2023-08-15,合同会社中島建板,,合同会社,群馬県,前橋市,六供町４７５番地３,,10,201,3710804,,,,,,,2023-08-15,1,,,,,ナカジマケンバン,0
1801,8080001025808,新規,0,2023-08-15,2023-08-15,株式会社タナカ電気工業,,株式会社,静岡県,静岡市駿河区,下島６１５番地の２１１,,22,102,4228037,,,,,,,2023-08-15,1,,,,,タナカデンキコウギョウ,0
1802,8080405007567,新規,0,2023-08-15,2023-08-15,遠州技術研修協同組合,,その他の設立登記法人,静岡県,浜松市中区,佐藤２丁目７番２２号,,22,131,4300807,,,,,,,2023-08-15,1,,,,,エンシュウギジュツケンシュウ,0
1804,8100001036686,新規,0,2023-08-15,2023-08-15,株式会社エムユークリエイト,,株式会社,長野県,佐久市,岩村田１２１２番地１,,20,217,3850022,,,,,,,2023-08-15,1,,,,,エムユークリエイト,0
1808,8110001037774,新規,0,2023-08-15,2023-08-15,株式会社９６７,,株式会社,新潟県,糸魚川市,大町１丁目４番２３号,,15,216,9410061,,,,,,,2023-08-15,1,,,,,クロナナ,0
1814,8120001257157,新規,0,2023-08-15,2023-08-15,株式会社かも,,株式会社,大阪府,大阪市西区,立売堀６丁目７番５０－１５０３号,,27,106,5500012,,,,,,,2023-08-15,1,,,,,カモ,0
1815,8120001257165,新規,0,2023-08-15,2023-08-15,株式会社宝栄商運,,株式会社,大阪府,大阪市淀川区,十三元今里１丁目１０番１１号,,27,123,5320028,,,,,,,2023-08-15,1,,,,,ホウエイショウウン,0
1816,8120001257198,新規,0,2023-08-15,2023-08-15,株式会社橋本組重量,,株式会社,大阪府,枚方市,出口２丁目１７番３－２号,,27,210,5730065,,,,,,,2023-08-15,1,,,,,ハシモトグミジュウリョウ,0
1817,8120001257388,新規,0,2023-08-15,2023-08-15,株式会社Ｈｕｇｉｎｎ　Ｍｕｎｉｎｎ,,株式会社,大阪府,大阪市西区,南堀江３丁目１－２１リンクハウス南堀江１Ｆ,,27,106,5500015,,,,,,,2023-08-15,1,,,,,フギンムニン,0
1818,8120005023828,新規,0,2023-08-15,2023-08-15,弁護士法人大阪本町法律事務所,,その他の設立登記法人,大阪府,大阪市中央区,本町３丁目５番７号御堂筋本町ビル２階,,27,128,5410053,,,,,,,2023-08-15,1,,,,,オオサカホンマチホウリツジムショ,0
1819,8120105009751,新規,0,2023-08-15,2023-08-15,一般社団法人友仁会,,その他の設立登記法人,大阪府,堺市堺区,中瓦町１丁３番６号アンプルールフェール堺東１Ａ,,27,141,5900077,,,,,,,2023-08-15,1,,,,,ユウジンカイ,0
1825,8120901047913,新規,0,2023-08-15,2023-08-15,株式会社１７ｇｒａｍ,,株式会社,大阪府,茨木市,並木町１９番３４号,,27,211,5670892,,,,,,,2023-08-15,1,,,,,ジュウナナグラム,0
1828,8130001074915,新規,0,2023-08-15,2023-08-15,株式会社さくら,,株式会社,京都府,京都市北区,紫竹下緑町１番地,,26,101,6038425,,,,,,,2023-08-15,1,,,,,サクラ,0
1837,8160003002945,新規,0,2023-08-15,2023-08-15,合同会社Ｗｅｌｌ‐ｂｅｉｎｇ　ｂａｓｅ,,合同会社,滋賀県,大津市,一里山２丁目７番３号,,25,201,5202153,,,,,,,2023-08-15,1,,,,,ウェルビーイングベース,0
1838,8160003002961,新規,0,2023-08-15,2023-08-15,合同会社アット・リテ,,合同会社,滋賀県,長浜市,十里町８０番地３,,25,203,5260016,,,,,,,2023-08-15,1,,,,,アットリテ,0
1840,8160005011218,新規,0,2023-08-15,2023-08-15,一般社団法人おおつヴィクトリーズ,,その他の設立登記法人,滋賀県,大津市,逢坂１丁目２２番６号,00131523,25,201,5200054,,,,,,,2023-08-15,1,,,,,オオツヴィクトリーズ,0
1844,8180001157608,新規,0,2023-08-15,2023-08-15,株式会社ポケトク,,株式会社,愛知県,名古屋市東区,黒門町９番地,,23,102,4610035,,,,,,,2023-08-15,1,,,,,ポケトク,0
1848,8180003025614,新規,0,2023-08-15,2023-08-15,合同会社ＳＨＷＣ,,合同会社,愛知県,名古屋市中区,錦２丁目５－５八木兵伝馬町ビル　３Ｆ　３１４,,23,106,4600003,,,,,,,2023-08-15,1,,,,,エスエイチダブリューシー,0
1849,8180005020324,新規,0,2023-08-15,2023-08-15,特定非営利活動法人ひまわりＮｅｔＷｏｒｋ,,その他の設立登記法人,愛知県,名古屋市港区,港陽１丁目１番６５号港陽荘４０８号,,23,111,4550013,,,,,,,2023-08-15,1,,,,,ヒマワリネットワーク,0
1853,8190003004393,新規,0,2023-08-15,2023-08-15,合同会社トータルヘルスプロモーション,,合同会社,三重県,津市,藤方６６,,24,201,5140815,,,,,,,2023-08-15,1,,,,,トータルヘルスプロモーション,0
1854,8200001041610,新規,0,2023-08-15,2023-08-15,株式会社サニーモータース,,株式会社,岐阜県,岐阜市,本郷町４丁目１６番地３,,21,201,5008302,,,,,,,2023-08-15,1,,,,,サニーモータース,0
1857,8220001025553,新規,0,2023-08-15,2023-08-15,株式会社ＡＢＰ．ＣＯＭ,,株式会社,石川県,河北郡内灘町,字千鳥台２丁目３１番地２,,17,365,9200277,,,,,,,2023-08-15,1,,,,,エービーピードットコム,0
1867,8240003006260,新規,0,2023-08-15,2023-08-15,合同会社Ｅ‐Ｌｉｆｅ,,合同会社,広島県,広島市西区,田方３丁目９０９番地１　１３１４,,34,104,7330851,,,,,,,2023-08-15,1,,,,,イーライフ,0
1875,8280001009014,新規,0,2023-08-15,2023-08-15,株式会社ＩＩＮＡ,,株式会社,島根県,浜田市,国分町６００番地,,32,202,6970003,,,,,,,2023-08-15,1,,,,,イイナ,0
1876,8280003001761,新規,0,2023-08-15,2023-08-15,合同会社愛珠,,合同会社,島根県,松江市,玉湯町湯町３００番地,,32,201,6990202,,,,,,,2023-08-15,1,,,,,アイジュ,0
1877,8290001102544,新規,0,2023-08-15,2023-08-15,株式会社メイト,,株式会社,福岡県,筑紫野市,紫１丁目２１番１０号,,40,217,8180061,,,,,,,2023-08-15,1,,,,,メイト,0
1878,8290001102577,新規,0,2023-08-15,2023-08-15,株式会社ＭＹＲ　Ｌａｂ,,株式会社,福岡県,福岡市博多区,比恵町１番１８号トーカン福岡第二キャステール９０６号,,40,132,8120014,,,,,,,2023-08-15,1,,,,,マイアールラボ,0
1879,8290001102585,新規,0,2023-08-15,2023-08-15,株式会社Ｓｅｉｋｏ　Ｊａｐａｎ,,株式会社,福岡県,福岡市博多区,中洲３丁目３番３号,,40,132,8100801,,,,,,,2023-08-15,1,,,,,セイコージャパン,0
1880,8290001102676,新規,0,2023-08-15,2023-08-15,株式会社ＱＵＡＮＧ　ＡＮＨ,,株式会社,福岡県,春日市,須玖南３丁目１６５番地セフィラ須玖Ａ－２０３号,,40,218,8160863,,,,,,,2023-08-15,1,,,,,クアンアン,0
1885,8290801029796,新規,0,2023-08-15,2023-08-15,株式会社４ｒｃｈ,,株式会社,福岡県,北九州市八幡西区,上の原２丁目６番７号,,40,109,8070071,,,,,,,2023-08-15,1,,,,,アーチ,0
1889,8330001031136,新規,0,2023-08-15,2023-08-15,株式会社Ａ＆Ｍ,,株式会社,熊本県,阿蘇郡西原村,大字小森６１８番地８,,43,432,8612402,,,,,,,2023-08-15,1,,,,,,0
1890,8330001031160,新規,0,2023-08-15,2023-08-15,株式会社潤輝,,株式会社,熊本県,熊本市西区,沖新町８３９番地１,,43,103,8615273,,,,,,,2023-08-15,1,,,,,ジュンキ,0
1894,8340003004188,新規,0,2023-08-15,2023-08-15,合同会社海鮮丼屋,,合同会社,鹿児島県,熊毛郡屋久島町,中間８７番地,,46,505,8914408,,,,,,,2023-08-15,1,,,,,,0
1895,8340003004213,新規,0,2023-08-15,2023-08-15,合同会社なるるーと,,合同会社,鹿児島県,鹿児島市,犬迫町５８４１－７,,46,201,8911205,,,,,,,2023-08-15,1,,,,,ナナルート,0
1904,8370001050280,新規,0,2023-08-15,2023-08-15,株式会社Ｓｃｈｗｅｌｌ,,株式会社,宮城県,仙台市泉区,高森７丁目２４番地の２,,04,105,9813203,,,,,,,2023-08-15,1,,,,,シューウエル,0
1905,8370001050306,新規,0,2023-08-15,2023-08-15,株式会社ＭＡＫＥＲ’Ｓ　ＴＲＡＣＫ,,株式会社,宮城県,仙台市若林区,日辺字宅地６６番地の２,,04,103,9840837,,,,,,,2023-08-15,1,,,,,メイカーズトラック,0
1906,8370005010669,新規,0,2023-08-15,2023-08-15,一般社団法人日本耐熱材料協会,,その他の設立登記法人,宮城県,仙台市青葉区,荒巻字青葉６番地の６,,04,101,9800845,,,,,,,2023-08-15,1,,,,,ニホンタイネツザイリョウキョウカイ,0
1914,8380001033904,新規,0,2023-08-15,2023-08-15,株式会社碧蓮運送,,株式会社,福島県,いわき市,勿来町窪田道作５番地の１,,07,204,9790141,,,,,,,2023-08-15,1,,,,,アレンウンソウ,0
1930,8430001089701,新規,0,2023-08-15,2023-08-15,Ｄ．Ｈ．ｓ．株式会社,,株式会社,北海道,札幌市中央区,伏見３丁目１６番２８号,,01,101,0640942,,,,,,,2023-08-15,1,,,,,ディーエイチエス,0
1931,8430001089734,新規,0,2023-08-15,2023-08-15,ホウランド株式会社,,株式会社,北海道,札幌市白石区,北郷八条３丁目６番３２－７０２号,,01,104,0030838,,,,,,,2023-08-15,1,,,,,ホウランド,0
1932,8430001089742,新規,0,2023-08-15,2023-08-15,株式会社虎永屋,,株式会社,北海道,札幌市中央区,南一条西９丁目１番１５号,,01,101,0600061,,,,,,,2023-08-15,1,,,,,トラナガヤ,0
1936,8440001009303,新規,0,2023-08-15,2023-08-15,株式会社八宝,,株式会社,北海道,二海郡八雲町,末広町８９番地,,01,346,0493112,,,,,,,2023-08-15,1,,,,,ハッポウ,0
1942,8500005008633,新規,0,2023-08-15,2023-08-15,特定非営利活動法人うみ,,その他の設立登記法人,愛媛県,越智郡上島町,岩城４６６７番地,,38,356,7942410,,,,,,,2023-08-15,1,,,,,ウミ,0
1943,8700150114422,新規,0,2023-08-15,2023-08-15,ＧｕｉＬｉｎ　ＤａｏＢａｎｇ　Ｔｒａｄｉｎｇ　Ｃｏ．，Ｌｔｄ．,,外国会社等,,,,,,,,ｘｉｎｘｉｃｈａｎｙｅｙｕａｎＤ－１２ｈａｏ　Ｂｕｉｌｄｉｎｇ　８　ｒｏｏｍ，２０７　Ｇｕｉｌｉｎｓｈｉ　Ｑｉｘｉｎｇｑｕ　Ｇｕａｎｇｘｉ　５４１１００ＣＮ,,,,,,2023-08-15,1,,,,,グゥイリンダオバンマオイーヨウシィェンゴンスー,0
1944,8700150118992,新規,0,2023-08-15,2023-08-15,Ｓｈｅｎｚｈｅｎ　Ｈｕｉｃｈｅｎｇ　Ｇｕａｎｇｄｉａｎ　Ｔｅｃｈｎｏｌｏｇｙ　Ｃｏ．，ＬＴＤ,,外国会社等,,,,,,,,中国深セン市光明新区公明事務所十三区Ａ棟６０２,,,,,,2023-08-15,1,,,,,シンセンケイセイコウデンテクユウゲンコウシ,0
1945,8700150119000,新規,0,2023-08-15,2023-08-15,ＣＲＥＡＬＩＴＹ　３Ｄ（ＨＫ）ＴＥＣＨＮＯＬＯＧＹ　ＬＩＭＩＴＥＤ,,外国会社等,,,,,,,,ＵＮＩＴ　１３０７　ＢＥＶＥＲＬＥＹ　ＣＯＭＭ　ＣＴＲ　８７－１０５　ＣＨＡＴＨＡＭ　ＲＤ　ＳＯＵＴＨ　ＴＳＴ　ＫＬ,,,,,,2023-08-15,1,,,,,クリアリティースリーディーホンコンテクノロジーリミテッド,0
1946,8700150119009,新規,0,2023-08-15,2023-08-15,ＳＨＥＮ　ＺＨＥＮ　ＳＨＩ　ＫＥ　ＬＵ　ＴＯＮＧ　ＤＡ　ＳＨＩ　ＹＥ　ＹＯＵ　ＸＩＡＮ　ＧＯＮＧＳＩ,,外国会社等,,,,,,,,ＸＩＮ　ＬＩＡＮ　ＳＨＥ　ＱＵ，ＸＩＮＴＵＮ　ＮＡＮ　ＬＵ，４４－４６　ＨＡＯ，２１７ＬＯＮＧ　ＧＡＮＧ　ＱＵ，ＬＯＮＧ　ＣＨＥＮＧ　ＪＩＥ　ＤＡＯ，ＧＵＡＮＧ　ＤＯＮＧ　ＳＨＥＮ，ＳＨＥＮ　ＺＨＥＮ　ＳＨＩ，ＣＮ,,,,,,2023-08-15,1,,,,,シンセンシケルトンダシイェユウゲンコウシ,0
1947,8700150119017,新規,0,2023-08-15,2023-08-15,Ｓｈｅｎｚｈｅｎｓｈｉ　Ｌａｎｇｙｕ　Ｔｅｃｈｎｏｌｏｇｙ　Ｃｏ．，Ｌｔｄ,,外国会社等,,,,,,,,ｂａｏａｎｑｕ　ｘｉｎｑｉａｏｊｉｅｄａｏ　ｘｉｎｅｒｓｈｅｑｕ　ｘｉｎｅｒｚｈｕａｎｇｃｕｎｌｕ　１４９ｈａｏ　ｃｈａｎｇｆａｎｇｙｉ２０２　ｓｈｅｎｚｈｅｎｓｈｉ　ｇｕａｎｇｄｏｎｇｓｈｅｎｇ　ＣＮ,,,,,,2023-08-15,1,,,,,シンセンシランユテクノロジーカンパニーリミテッド,0
1957,9010001237714,新規,0,2023-08-15,2023-08-15,Ｈｏｒｕｓ　ＨＤ株式会社,,株式会社,東京都,千代田区,大手町１丁目６番１号,,13,101,1000004,,,,,,,2023-08-15,1,,,,,ホルスホールディングス,0
1958,9010001237722,新規,0,2023-08-15,2023-08-15,三生株式会社,,株式会社,東京都,中央区,日本橋蛎殻町１丁目１９番１号,,13,102,1030014,,,,,,,2023-08-15,1,,,,,サンセイ,0
1961,9010003041395,新規,0,2023-08-15,2023-08-15,Ｎｏｗ　Ｉｎｃ合同会社,,合同会社,東京都,中央区,日本橋室町４丁目３番９号,,13,102,1030022,,,,,,,2023-08-15,1,,,,,ナウインク,0
1962,9010005037094,新規,0,2023-08-15,2023-08-15,一般社団法人ｇｉｇｉ,,その他の設立登記法人,東京都,千代田区,外神田３丁目３番３号秋葉原槇町ビル５階,,13,101,1010021,,,,,,,2023-08-15,1,,,,,ジジ,0
1963,9010005037103,新規,0,2023-08-15,2023-08-15,一般社団法人ＬＥＶＥＣＨＹ６号,,その他の設立登記法人,東京都,千代田区,紀尾井町３－８第２紀尾井町ビル９０１アクシス綜合会計事務所内,,13,101,1020094,,,,,,,2023-08-15,1,,,,,レベチーロクゴウ,0
1968,9010401176330,新規,0,2023-08-15,2023-08-15,Ｍｅｇｕｒｏ　Ａｃｃｏｕｎｔｉｎｇ＆Ｃｏｎｓｕｌｔｉｎｇ株式会社,,株式会社,東京都,港区,南青山３丁目８番７号３０２号,,13,103,1070062,,,,,,,2023-08-15,1,,,,,メグロアカウンティングアンドコンサルティング,0
1969,9010401176339,新規,0,2023-08-15,2023-08-15,株式会社ｃｏｚａｋａｎａ,,株式会社,東京都,港区,六本木３丁目６－９,,13,103,1060032,,,,,,,2023-08-15,1,,,,,コザカナ,0
1975,9010701044716,新規,0,2023-08-15,2023-08-15,Ｋ＆Ｉ株式会社,,株式会社,東京都,品川区,小山台１丁目８－２,,13,109,1420061,,,,,,,2023-08-15,1,,,,,ケーアンドアイ,0
1986,9011001156268,新規,0,2023-08-15,2023-08-15,株式会社ショウガールズ,,株式会社,東京都,渋谷区,道玄坂１丁目１０番８号渋谷道玄坂東急ビル２Ｆ－Ｃ,,13,113,1500043,,,,,,,2023-08-15,1,,,,,ショウガールズ,0
1987,9011001156284,新規,0,2023-08-15,2023-08-15,株式会社ＮＥＸＦｉ,,株式会社,東京都,目黒区,下目黒２丁目１６番２０号ＡＳＴＩＬＥ目黒１０３,,13,110,1530064,,,,,,,2023-08-15,1,,,,,ネクスファイ,0
1988,9011001156301,新規,0,2023-08-15,2023-08-15,株式会社ＫＯＷＬＭ,,株式会社,東京都,目黒区,大橋２丁目１６番２３号,,13,110,1530044,,,,,,,2023-08-15,1,,,,,クロム,0
1989,9011001156326,新規,0,2023-08-15,2023-08-15,Ｌａ　ｍａｖｉｅ株式会社,,株式会社,東京都,渋谷区,宇田川町１２番３－３０４号,,13,113,1500042,,,,,,,2023-08-15,1,,,,,ラマヴィ,0
1990,9011003017377,新規,0,2023-08-15,2023-08-15,合同会社クリアスプランニング,,合同会社,東京都,渋谷区,上原３丁目３２番９－２１８号リーフィアレジデンス上原,,13,113,1510064,,,,,,,2023-08-15,1,,,,,クリアスプランニング,0
1995,9011101103970,新規,0,2023-08-15,2023-08-15,融升株式会社,,株式会社,東京都,新宿区,榎町３４－３榎町ビル７階－２７室,,13,104,1620806,,,,,,,2023-08-15,1,,,,,ユウベン,0
1996,9011101104003,新規,0,2023-08-15,2023-08-15,晋陽株式会社,,株式会社,東京都,新宿区,西新宿７丁目１８－１６,,13,104,1600023,,,,,,,2023-08-15,1,,,,,シンヨウ,0
1999,9011103013350,新規,0,2023-08-15,2023-08-15,合同会社イシス,,合同会社,東京都,新宿区,四谷三栄町１５番４号,,13,104,1600008,,,,,,,2023-08-15,1,,,,,イシス,0
2000,9011103013375,新規,0,2023-08-15,2023-08-15,合同会社ハグミー,,合同会社,東京都,新宿区,市谷本村町３番２３－５０２号,,13,104,1620845,,,,,,,2023-08-15,1,,,,,ハグミー,0
2009,9011601027050,新規,0,2023-08-15,2023-08-15,株式会社ＧＡＢＩＮ　ＰＡＮＰＡＮ,,株式会社,東京都,練馬区,練馬４丁目３２番１２,,13,120,1760001,,,,,,,2023-08-15,1,,,,,ガビンパンパン,0
2012,9011701026497,新規,0,2023-08-15,2023-08-15,株式会社樋口ホールディングス,00131534,株式会社,東京都,江戸川区,上篠崎２丁目６番１８号,,13,123,1330054,,,,,,,2023-08-15,1,,,,,ヒグチホールディングス,0
2013,9012401040879,新規,0,2023-08-15,2023-08-15,株式会社スリーコンサンドイッチ,,株式会社,東京都,調布市,西つつじケ丘３丁目３０－１６,,13,208,1820006,,,,,,,2023-08-15,1,,,,,スリーコンサンドイッチ,0
2015,9013103001252,新規,0,2023-08-15,2023-08-15,合同会社Ｉｒｏｄｏｒｉ,,合同会社,東京都,羽村市,五ノ神２丁目５番地２９,,13,227,2050011,,,,,,,2023-08-15,1,,,,,イロドリ,0
2027,9020001152937,新規,0,2023-08-15,2023-08-15,株式会社総合プロデュース,,株式会社,神奈川県,横浜市戸塚区,戸塚町２８３３番地,,14,110,2440003,,,,,,,2023-08-15,1,,,,,ソウゴウプロデュース,0
2031,9020003024374,新規,0,2023-08-15,2023-08-15,合同会社Ｂｉｔｔｅｒ　ｅｎｄ,,合同会社,神奈川県,横浜市中区,若葉町２丁目２０番地１デュオステージ８０３,,14,104,2310056,,,,,,,2023-08-15,1,,,,,ビターエンド,0
2032,9020003024390,新規,0,2023-08-15,2023-08-15,ＭＥＲＵＮＯ合同会社,,合同会社,神奈川県,横浜市南区,中里４丁目３８番２号,,14,105,2320063,,,,,,,2023-08-15,1,,,,,メルノ,0
2049,9030001155237,新規,0,2023-08-15,2023-08-15,株式会社若林材木店,,株式会社,埼玉県,秩父市,上宮地町１番２０号,,11,207,3680024,,,,,,,2023-08-15,1,,,,,ワカバヤシザイモクテン,0
2050,9030001155591,新規,0,2023-08-15,2023-08-15,株式会社すてっちーず,,株式会社,埼玉県,川越市,新富町１丁目１２番１２号,,11,201,3500043,,,,,,,2023-08-15,1,,,,,ステッチーズ,0
2053,9030003022377,新規,0,2023-08-15,2023-08-15,合同会社音や彩,,合同会社,埼玉県,川口市,西川口１丁目２３番５号,,11,203,3320021,,,,,,,2023-08-15,1,,,,,オトヤサイ,0
2059,9040001129652,新規,0,2023-08-15,2023-08-15,株式会社リタビレッジ,,株式会社,千葉県,習志野市,大久保２丁目５番３号,,12,216,2750011,,,,,,,2023-08-15,1,,,,,リタビレッジ,0
2060,9040001129669,新規,0,2023-08-15,2023-08-15,近藤商事株式会社,,株式会社,千葉県,柏市,手賀６３９番地３,,12,217,2701465,,,,,,,2023-08-15,1,,,,,コンドウショウジ,0
2061,9040001129677,新規,0,2023-08-15,2023-08-15,株式会社クレア,,株式会社,千葉県,千葉市花見川区,犢橋町１５７２－１,,12,102,2620013,,,,,,,2023-08-15,1,,,,,クレア,0
2074,9070003005056,新規,0,2023-08-15,2023-08-15,ＲＳ　ＮＩＨＯＮＧ　ＴＲＡＤＩＮＧ合同会社,,合同会社,群馬県,太田市,東新町６１２－３イーストニュータウン１０５号室,,10,205,3730015,,,,,,,2023-08-15,1,,,,,,0
2075,9070003005064,新規,0,2023-08-15,2023-08-15,プレニーテ合同会社,,合同会社,群馬県,前橋市,北代田町９番地３３,,10,201,3710055,,,,,,,2023-08-15,1,,,,,,0
2076,9070005010161,新規,0,2023-08-15,2023-08-15,一般社団法人グリーンウイングスＧＵＮＭＡ,,その他の設立登記法人,群馬県,前橋市,元総社町１９４番地,,10,201,3710846,,,,,,,2023-08-15,1,,,,,グリーンウイングスグンマ,0
2077,9080001025807,新規,0,2023-08-15,2023-08-15,株式会社Ｌｅａｐ,,株式会社,静岡県,静岡市葵区,松富２丁目５番１７号パルブニールＡ２０１,,22,101,4200941,,,,,,,2023-08-15,1,,,,,リープ,0
2078,9080003003034,新規,0,2023-08-15,2023-08-15,合同会社ＡＣＴプロパティ,,合同会社,静岡県,静岡市葵区,上足洗２丁目４番４５－７号,,22,101,4200841,,,,,,,2023-08-15,1,,,,,アクトプロパティ,0
2084,9100001036685,新規,0,2023-08-15,2023-08-15,株式会社ｂｏｔ,,株式会社,長野県,松本市,大字寿豊丘２４０,,20,202,3990021,,,,,,,2023-08-15,1,,,,,ボット,0
2085,9100003007131,新規,0,2023-08-15,2023-08-15,初雪合同会社,,合同会社,長野県,大町市,平２１１２－２９７,,20,212,3980001,,,,,,,2023-08-15,1,,,,,,0
2087,9100005013053,新規,0,2023-08-15,2023-08-15,一般社団法人あいえん,,その他の設立登記法人,長野県,上伊那郡箕輪町,大字中箕輪８４３９番地２,,20,383,3994601,,,,,,,2023-08-15,1,,,,,アイエン,0
2090,9120001257255,新規,0,2023-08-15,2023-08-15,株式会社ぱんだＨＯＭＥ,,株式会社,大阪府,大阪市浪速区,元町２丁目１１番１４号ＭＡビル４階,,27,111,5560016,,,,,,,2023-08-15,1,,,,,パンダホーム,0
2091,9120001257263,新規,0,2023-08-15,2023-08-15,株式会社ＣＡＳＡ２２１,,株式会社,大阪府,大阪市天王寺区,四天王寺２丁目１番４４－８０１号,,27,109,5430051,,,,,,,2023-08-15,1,,,,,カーサニーニーイチ,0
2092,9120001257305,新規,0,2023-08-15,2023-08-15,３Ｅ株式会社,,株式会社,大阪府,大阪市中央区,南船場４丁目１０番２９号さつきビル８階,,27,128,5420081,,,,,,,2023-08-15,1,,,,,スリーイー,0
2093,9120001257321,新規,0,2023-08-15,2023-08-15,栞八堂株式会社,,株式会社,大阪府,大阪市中央区,玉造２丁目１９番１４号,,27,128,5400004,,,,,,,2023-08-15,1,,,,,カンパチドウ,0
2099,9120901047945,新規,0,2023-08-15,2023-08-15,Ｇｐｉｃｋ株式会社,,株式会社,大阪府,豊中市,北緑丘２丁目１番２２－２１１号,,27,203,5600001,,,,,,,2023-08-15,1,,,,,グピック,0
2100,9122001037273,新規,0,2023-08-15,2023-08-15,株式会社イーアイプロダクト,,株式会社,大阪府,東大阪市,西岩田４丁目６番３号,,27,227,5780947,,,,,,,2023-08-15,1,,,,,イーアイプロダクト,0
2102,9130003008903,新規,0,2023-08-15,2023-08-15,合同会社シーマ,,合同会社,京都府,宇治市,槇島町十八５２番地４,,26,204,6110041,,,,,,,2023-08-15,1,,,,,シーマ,0
2106,9140001131268,新規,0,2023-08-15,2023-08-15,Ｌｅａｐｓ株式会社,,株式会社,兵庫県,淡路市,志筑２８４０番地２５光清ファーストビル２Ａ,,28,226,6562131,,,,,,,2023-08-15,1,,,,,リープス,0
2112,9160003002960,新規,0,2023-08-15,2023-08-15,合同会社幸瑛,,合同会社,滋賀県,近江八幡市,鷹飼町１６３４番地１１,,25,204,5230891,,,,,,,2023-08-15,1,,,,,コウエイ,0
2118,9180001157656,新規,0,2023-08-15,2023-08-15,株式会社プランタン,,株式会社,愛知県,津島市,下新田町４丁目７２番地,,23,208,4960875,,,,,,,2023-08-15,1,,,,,プランタン,0
2123,9180301037698,新規,0,2023-08-15,2023-08-15,株式会社ＧＥＸＰ,,株式会社,愛知県,安城市,花ノ木町６番１３号,,23,212,4460039,,,,,,,2023-08-15,1,,,,,ジーイーエックスピー,0
2127,9200001041601,新規,0,2023-08-15,2023-08-15,株式会社広金,,株式会社,岐阜県,関市,西本郷通７丁目１０番８号,,21,205,5013803,,,,,,,2023-08-15,1,,,,,ヒロキン,0
2129,9200003006049,新規,0,2023-08-15,2023-08-15,合同会社ＷＥＢＲＩＧＨＴ,,合同会社,岐阜県,海津市,海津町秋江２３１６番地,,21,221,5030611,,,,,,,2023-08-15,1,,,,,ウェブライト,0
2131,9220001025560,新規,0,2023-08-15,2023-08-15,株式会社クレバースタイル,,株式会社,石川県,加賀市,山代温泉北部１丁目１３８,,17,206,9220243,,,,,,,2023-08-15,1,,,,,クレバースタイル,0
2141,9240001061983,新規,0,2023-08-15,2023-08-15,株式会社ＨａｎｄＬｅｅ,,株式会社,広島県,広島市安佐南区,長束３丁目１８番７－１３０１号,,34,105,7310135,,,,,,,2023-08-15,1,,,,,ハンドリー,0
2142,9240001062008,新規,0,2023-08-15,2023-08-15,ソフトレイク株式会社,,株式会社,広島県,広島市中区,大手町１丁目１番２６号大手町一番ビル３０５,,34,101,7300051,,,,,,,2023-08-15,1,,,,,ソフトレイク,0
2147,9260001038237,新規,0,2023-08-15,2023-08-15,株式会社眞創,,株式会社,岡山県,津山市,総社１３６３番地５,,33,203,7080007,,,,,,,2023-08-15,1,,,,,シンソウ,0
2152,9290001102592,新規,0,2023-08-15,2023-08-15,株式会社Ｎａｇａｒａｋｕ,,株式会社,福岡県,福岡市中央区,大名１丁目８番２５号１Ｆ,,40,133,8100041,,,,,,,2023-08-15,1,,,,,ナガラク,0
2153,9290003014233,新規,0,2023-08-15,2023-08-15,アドホック合同会社,,合同会社,福岡県,宗像市,和歌美台１６番４号,,40,220,8113438,,,,,,,2023-08-15,1,,,,,アドホック,0
2154,9290003014241,新規,0,2023-08-15,2023-08-15,合同会社とどけシステム,,合同会社,福岡県,飯塚市,川島８２９番地２,,40,205,8200002,,,,,,,2023-08-15,1,,,,,トドケシステム,0
2155,9310001018555,新規,0,2023-08-15,2023-08-15,株式会社リタ,,株式会社,長崎県,大村市,水主町１丁目７４７番地３４,,42,205,8560827,,,,,,,2023-08-15,1,,,,,リタ,0
2156,9320003004148,新規,0,2023-08-15,2023-08-15,合同会社ボンズクリーニング,,合同会社,大分県,別府市,石垣西１０丁目８番１０号,,44,202,8740910,,,,,,,2023-08-15,1,,,,,ボンズクリーニング,0
2157,9330001031143,新規,0,2023-08-15,2023-08-15,株式会社一心,,株式会社,熊本県,人吉市,下田代町１１０９番地,,43,203,8680802,,,,,,,2023-08-15,1,,,,,イッシン,0
2163,9340001025813,新規,0,2023-08-15,2023-08-15,株式会社ｃｒｏｗ,,株式会社,鹿児島県,鹿児島市,春山町１７２３番地２９,,46,201,8992704,,,,,,,2023-08-15,1,,,,,クロウ,0
2166,9340005009639,新規,0,2023-08-15,2023-08-15,一般社団法人時間旅行社ネットワーク,,その他の設立登記法人,鹿児島県,鹿児島市,東谷山１丁目２２番１４号サンビーム将５０１号室,,46,201,8910113,,,,,,,2023-08-15,1,,,,,ジカンリョコウシャネットワーク,0
2168,9360001032428,新規,0,2023-08-15,2023-08-15,株式会社グリーンリーフ,,株式会社,沖縄県,浦添市,前田１丁目３番１７号,,47,208,9012102,,,,,,,2023-08-15,1,,,,,グリーンリーフ,0
2181,9430001089683,新規,0,2023-08-15,2023-08-15,ＨＷホールディングス株式会社,,株式会社,北海道,札幌市北区,北十五条西４丁目１番１６号,,01,102,0010015,,,,,,,2023-08-15,1,,,,,エイチダブルホールディングス,0
2182,9430001089709,新規,0,2023-08-15,2023-08-15,株式会社伸将,,株式会社,北海道,苫小牧市,美原町２丁目２２番１７号,,01,213,0591262,,,,,,,2023-08-15,1,,,,,シンショウ,0
2183,9430001089790,新規,0,2023-08-15,2023-08-15,株式会社コープメディア,,株式会社,北海道,札幌市西区,発寒十一条５丁目１０番１号,,01,107,0630831,,,,,,,2023-08-15,1,,,,,コープメディア,0
2184,9430003015349,新規,0,2023-08-15,2023-08-15,ＭＴＫ企画合同会社,,合同会社,北海道,札幌市白石区,東札幌二条３丁目８番４３号,,01,104,0030002,,,,,,,2023-08-15,1,,,,,エムティーケーキカク,0
2187,9470001019769,新規,0,2023-08-15,2023-08-15,株式会社アースレンタカー,,株式会社,香川県,木田郡三木町,大字井戸２７３４番地１,,37,341,7610823,,,,,,,2023-08-15,1,,,,,アースレンタカー,0
2189,9470003002475,新規,0,2023-08-15,2023-08-15,合同会社ＭＣＬ．ｃｏｍ,,合同会社,香川県,観音寺市,観音寺町甲３２５５番地３,,37,205,7680060,,,,,,,2023-08-15,1,,,,,エムシーエルドットコム,0
2192,9490003001806,新規,0,2023-08-15,2023-08-15,合同会社ＤＯＬＣ,,合同会社,高知県,高知市,朝倉本町１丁目５番１６号,,39,201,7808073,,,,,,,2023-08-15,1,,,,,ドルク,0
2195,9500001025136,新規,0,2023-08-15,2023-08-15,株式会社ライビット,,株式会社,愛媛県,伊予郡松前町,大字出作２１９番地,,38,401,7913162,,,,,,,2023-08-15,1,,,,,ライビット,0
2196,9700150114504,新規,0,2023-08-15,2023-08-15,Ｎｉｎｇｂｏ　Ｈａｎｙａｎｇ　Ｚｈａｏｍｉｎｇ　Ｋｅｊｉ　Ｙｏｕｘｉａｎｇｏｎｇｓｉ,,外国会社等,,,,,,,,１１５９，Ｒｏｏｍ　１１２，Ｂｕｉｌｄｉｎｇ　１０，Ｎｏ．２１，Ｌａｎｅ　６８９，Ｃｈａｎｇｘｉｎｇ　Ｒｏａｄ，Ｊｉａｎｇｂｅｉ　Ｄｉｓｔｒｉｃｔ　Ｎｉｎｇｂｏ　Ｚｈｅｊｉａｎｇ　３１５０３３　ＣＮ,,,,,,2023-08-15,1,,,,,ニンブォハンヤンヂャオミングェァジーヨウシィェンゴンスー,0
2197,9700150118991,新規,0,2023-08-15,2023-08-15,川崎市立有馬中学校ＰＴＡ,,その他,神奈川県,川崎市宮前区,有馬７丁目７－１,,14,136,2160003,,,,,,,2023-08-15,1,,,,,カワサキシリツアリマチュウガッコウピーティーエー,0
2198,9700150119008,新規,0,2023-08-15,2023-08-15,Ｓｈｅｎ　Ｚｈｅｎ　Ｓｈｉ　Ｘｉ　Ｈｏｎｇ　Ｓｈｉ　Ｋｅ　Ｊｉ　Ｙｏｕ　Ｘｉａｎ　Ｇｏｎｇ　Ｓｉ,,外国会社等,,,,,,,,Ｓｈｅｎｚｈｅｎ　Ｓｈｉ　Ｂａｏ　Ａｎ　Ｑｕ　Ｘｉ　Ｘｉａｎｇ　Ｊｉｅ　Ｄａｏ　Ｇｕ　Ｓｈｕ　Ｓｈｅ　Ｑｕ　Ｘｉ　Ｊｉｎｇ　Ｌｕ　２８　Ｈａｏ　Ｈｕｉ　Ｃｈｕａｎｇ　Ｋｏｎｇ　Ｊｉａｎ　１０２,,,,,,2023-08-15,1,,,,,シンセンシシホンシケジユウゲンコウシ,0
2199,9700150119016,新規,0,2023-08-15,2023-08-15,ｆｕｚｈｏｕｒｏｎｇｗｅｉｄａｋｅｊｉ　ｙｏｕｘｉａｎｇｏｎｇｓｉ,,外国会社等,,,,,,,,ｇｕｌｏｕｑｕｇｕｄｏｎｇｊｉｅｄａｏｗｕｓｉｌｕ８２ｈａｏ　ｒｏｎｇｄｏｕｇｕｏｊｉｄａｓｈａ（ｚｈｏｎｇｓｈｅｎｇｄａｓｈａ）２０ｃｅｎｇ０１ｓｈｉ０３ｄａ　ｎｙｕａｎ　ｆｕｚｈｏｕｓｈｉ　ｆｕｊｉａｎｓｈｅｎｇ　ＣＮ,,,,,,2023-08-15,1,,,,,フゾォウヨンウェイダケジユウゲンコウシ,0
2200,9700150119024,新規,0,2023-08-15,2023-08-15,ｓｈｅｎｚｈｅｎｓｈｉ　ｚｈｏｎｇｊｉｎｙｕａｎｗａｉｍａｏ　ｙｏｕｘｉａｎｇｏｎｇｓｉ,,外国会社等,,,,,,,,ｆｕｔｉａｎｑｕｓｈａｔｏｕｊｉｅｄａｏｔｉａｎａｎｓｈｅｑｕｔａｉｒａｎｌｉｕｌｕｔａｉｒａｎｃａｎｇｓｏｎ　ｇｄａｓｈａｓｈｉｓｉｃｅｎｇ１３Ａ０１Ｄ－４　ｓｈｅｎｚｈｅｎｓｈｉ　ｇｕａｎｇｄｏｎｇｓｈｅｎｇ,,,,,,2023-08-15,1,,,,,シンセンシゾンジンユェンワイマオユウゲンコウシ,0
