sequenceNumber,corporateNumber,process,correct,updateDate,changeDate,name,nameImageId,kind,prefectureName,cityName,streetNumber,addressImageId,prefectureCode,cityCode,postCode,addressOutside,addressOutsideImageId,closeDate,closeCause,successorCorporateNumber,changeCause,assignmentDate,latest,enName,enPrefectureName,enCityName,enAddressOutside,furigana,hihyoji
27,1010502022003,登記記録の閉鎖等,0,2023-09-06,2023-09-04,有限会社エヌケーシー,,有限会社,東京都,台東区,雷門１丁目１３番９－３０５号,,13,106,1110034,,,2023-09-04,清算の結了等,,,2015-10-05,1,,,,,,0
31,1010602014429,登記記録の閉鎖等,0,2023-09-06,2023-09-01,有限会社五月歯車製作所,,有限会社,東京都,墨田区,立花６丁目２１番７号,,13,107,1310043,,,2023-09-01,清算の結了等,,,2015-10-05,1,,,,,サツキハグルマセイサクショ,0
41,1010901031018,登記記録の閉鎖等,0,2023-09-06,2023-09-01,株式会社ＣＵＢＥ　ｉｎｃ,,株式会社,東京都,世田谷区,用賀３丁目２４番３－４０３号,,13,112,1580097,,,2023-09-01,清算の結了等,,,2015-10-05,1,,,,,キューブインク,0
48,1011001115677,登記記録の閉鎖等,0,2023-09-06,2023-09-01,株式会社幻冬舎ウェブマ,,株式会社,東京都,渋谷区,千駄ヶ谷４丁目９番７号,,13,113,1510051,,,2023-09-01,合併による解散等,3011001073155,令和５年９月１日東京都渋谷区千駄ヶ谷四丁目９番７号株式会社幻冬舎総合財産コンサルティング（3011001073155）に合併し解散,2017-04-11,1,,,,,ゲントウシャウェブマ,0
49,1011001116502,登記記録の閉鎖等,0,2023-09-06,2023-08-31,株式会社スマートヘルス,,株式会社,東京都,渋谷区,渋谷２丁目２４番１２号渋谷スクランブルスクエア,,13,113,1500002,,,2023-08-31,清算の結了等,,,2017-05-25,1,,,,,スマートヘルス,0
80,1011601015038,登記記録の閉鎖等,0,2023-09-06,2023-08-31,パレットリフォーム工房株式会社,,株式会社,東京都,練馬区,栄町３７番５号,,13,120,1760006,,,2023-08-31,清算の結了等,,,2015-10-05,1,,,,,パレットリフォームコウボウ,0
87,1011705001314,登記記録の閉鎖等,0,2023-09-06,2023-09-05,一般社団法人療法士リハビリテーションデイサービス協会,,その他の設立登記法人,東京都,江戸川区,鹿骨２丁目３７番８号ニットーハイツ,,13,123,1330073,,,2023-09-05,清算の結了等,,,2015-10-05,1,,,,,リョウホウシリハビリテーションデイサービスキョウカイ,0
122,1021002071885,登記記録の閉鎖等,0,2023-09-06,2023-08-31,有限会社山森工業,,有限会社,神奈川県,三浦市,向ケ崎町２番２９号,,14,210,2380233,,,2023-08-31,清算の結了等,,,2015-10-05,1,,,,,ヤマモリコウギョウ,0
129,1030001088320,登記記録の閉鎖等,0,2023-09-06,2023-08-08,株式会社エブクロ,,株式会社,埼玉県,行田市,大字馬見塚７９８番地１,,11,206,3610082,,,2023-08-08,清算の結了等,,,2015-10-05,1,,,,,エブクロ,0
161,1040005016490,登記記録の閉鎖等,0,2023-09-06,2023-08-24,天理教大晃道分教会,,その他の設立登記法人,千葉県,夷隅郡大多喜町,横山１０９４番地,,12,441,2980206,,,2023-08-24,合併による解散等,8050005010404,令和５年８月２１日茨城県結城市大字東茂呂２５５番地の１天理教江川分教会（8050005010404）に合併し解散,2015-10-05,1,,,,,,0
170,1060002038998,登記記録の閉鎖等,0,2023-09-06,2023-08-28,有限会社サンコードライ,,有限会社,栃木県,佐野市,赤坂町９５９番地３,,09,204,3270004,,,2023-08-28,清算の結了等,,,2015-10-05,1,,,,,サンコードライ,0
177,1080401003064,登記記録の閉鎖等,0,2023-09-06,2023-09-01,滝本株式会社,,株式会社,静岡県,浜松市中区,佐鳴台６丁目１番２５号,,22,131,4328021,,,2023-09-01,清算の結了等,,,2015-10-05,1,,,,,タキモト,0
199,1120002081752,登記記録の閉鎖等,0,2023-09-06,2023-09-01,有限会社リバティ内代,,有限会社,大阪府,門真市,柳町１６番６号,,27,223,5710041,,,2023-09-01,合併による解散等,1120001157280,令和５年９月１日大阪府門真市柳町１６番６号株式会社リバティ（1120001157280）に合併し解散,2015-10-05,1,,,,,リバティウチンダイ,0
213,1120902020677,登記記録の閉鎖等,0,2023-09-06,2023-09-04,有限会社ミヤタ測図,,有限会社,大阪府,箕面市,小野原東６丁目２８番１－３０４号,,27,220,5620031,,,2023-09-04,清算の結了等,,,2015-10-05,1,,,,,ミヤタソクズ,0
230,1150001009487,登記記録の閉鎖等,0,2023-09-06,2023-09-04,株式会社萩原ふとん店,,株式会社,奈良県,桜井市,大字桜井８７０番地,,29,206,6330091,,,2023-09-04,清算の結了等,,,2015-10-05,1,,,,,ハギワラフトンテン,0
233,1170002000914,登記記録の閉鎖等,0,2023-09-06,2023-09-05,有限会社カプロ,,有限会社,和歌山県,和歌山市,松江東２丁目２番５号カーササンライズ１０１号室,,30,201,6408422,,,2023-09-05,清算の結了等,,,2015-10-05,1,,,,,カプロ,0
238,1180001102900,登記記録の閉鎖等,0,2023-09-06,2023-09-04,ＳＥＥＤＳ　ＷＯＲＫＩＮＧ株式会社,,株式会社,愛知県,名古屋市港区,本宮新町６８番地,,23,111,4550065,,,2023-09-04,清算の結了等,,,2015-10-05,1,,,,,シーズワーキング,0
241,1180001113195,登記記録の閉鎖等,0,2023-09-06,2023-08-31,株式会社ドッペルパック,,株式会社,愛知県,名古屋市中区,栄３丁目３４－３０マルエイ南ビル４Ｆ,,23,106,4600008,,,2023-08-31,清算の結了等,,,2015-10-05,1,,,,,ドッペルパック,0
255,1220001002055,登記記録の閉鎖等,0,2023-09-06,2023-09-01,株式会社金沢建築とまちづくり研究所,,株式会社,石川県,金沢市,小立野３丁目２１番３２号,,17,201,9200942,,,2023-09-01,清算の結了等,,,2015-10-05,1,,,,,カナザワケンチクトマチヅクリケンキュウショ,0
260,1240001027488,登記記録の閉鎖等,0,2023-09-06,2023-09-01,美和建装株式会社,,株式会社,広島県,呉市,焼山本庄３丁目４番１３号,,34,202,7370912,,,2023-09-01,清算の結了等,,,2015-10-05,1,,,,,ミワケンソウ,0
265,1240003005079,登記記録の閉鎖等,0,2023-09-06,2023-09-01,合同会社ＩＭＲＡＭＡ,,合同会社,広島県,広島市中区,中町１０番１－６０１号,,34,101,7300037,,,2023-09-01,清算の結了等,,,2021-04-28,1,,,,,イムラマ,0
266,1240005000433,登記記録の閉鎖等,0,2023-09-06,2023-08-21,天理教広牛分教会,00001786,その他の設立登記法人,広島県,広島市西区,己斐上１丁目５番１０号,,34,104,7330815,,,2023-08-21,合併による解散等,6170005004734,令和５年８月２１日和歌山県橋本市古佐田四丁目７番３号天理教橋本分教会（6170005004734）に合併し解散,2015-10-05,1,,,,,,0
272,1290001096272,登記記録の閉鎖等,0,2023-09-06,2023-08-24,ＡＤジャパン株式会社,,株式会社,福岡県,福岡市東区,多の津１丁目１６番４号,,40,131,8130034,,,2023-08-24,清算の結了等,,,2022-02-01,1,,,,,エーディージャパン,0
289,1320003003990,登記記録の閉鎖等,0,2023-09-06,2023-09-04,合同会社ＧＬＯＷＲＡＹＺ,,合同会社,大分県,竹田市,大字倉木９３４番地,,44,208,8780576,,,2023-09-04,清算の結了等,,,2023-01-13,1,,,,,グローレイズ,0
307,1380001008053,登記記録の閉鎖等,0,2023-09-06,2023-09-01,株式会社まちづくりふねひき,,株式会社,福島県,田村市,船引町船引字上中田１７番地の１,,07,211,9634312,,,2023-09-01,清算の結了等,,,2015-10-05,1,,,,,マチヅクリフネヒキ,0
353,2000030270065,登記記録の閉鎖等,0,2023-09-06,2021-03-31,大阪市乾町財産区,,地方公共団体,大阪府,大阪市平野区,背戸口３丁目８番１９号,,27,126,5470034,,,2021-03-31,その他の清算の結了等,,,2015-10-05,1,Osaka shi Inui cho Zaisanku,Osaka,"3-8-19,Setoguchi,Hiranoku, Osaka shi",,オオサカシイヌイチョウザイサンク,0
359,2010001199779,登記記録の閉鎖等,0,2023-09-06,2023-08-31,Ｇｌｏｂａｌ　Ｏｐｅｎ　Ｎｅｔｗｏｒｋ　Ｊａｐａｎ株式会社,,株式会社,東京都,千代田区,丸の内２丁目７番１号,,13,101,1000005,,,2023-08-31,清算の結了等,,,2019-04-08,1,,,,,グローバルオープンネットワークジャパン,0
371,2010101006587,登記記録の閉鎖等,0,2023-09-06,2023-08-31,株式会社ノーステック,,株式会社,東京都,八王子市,久保山町１丁目２９番地の２,,13,201,1920023,,,2023-08-31,清算の結了等,,,2015-10-05,1,,,,,ノーステック,0
395,2010803000978,登記記録の閉鎖等,0,2023-09-06,2023-09-01,合同会社南稜研究所,,合同会社,東京都,大田区,北千束１丁目２３番４号,,13,111,1450062,,,2023-09-01,清算の結了等,,,2015-10-05,1,,,,,ナンリョウケンキュウショ,0
415,2011101075977,登記記録の閉鎖等,0,2023-09-06,2023-09-01,アイタイワークス株式会社,,株式会社,東京都,新宿区,西新宿７丁目１７番１４号,,13,104,1600023,,,2023-09-01,清算の結了等,,,2016-02-15,1,,,,,アイタイワークス,0
425,2011601020318,登記記録の閉鎖等,0,2023-09-06,2023-09-01,株式会社マジックムーヴメント,,株式会社,東京都,練馬区,中村北１丁目１３番１３号,,13,120,1760023,,,2023-09-01,清算の結了等,,,2015-10-05,1,,,,,,0
441,2013302018608,登記記録の閉鎖等,0,2023-09-06,2023-08-31,株式会社エンターテイメントカンパニー,,株式会社,東京都,中央区,勝どき４丁目８番１１号,,13,102,1040054,,,2023-08-31,合併による解散等,6010001151050,令和５年８月３１日東京都中央区月島一丁目２０番５号株式会社ＥＴＣ・ＫＩＴＣＨＥＮ（6010001151050）に合併し解散,2015-10-05,1,,,,,エンターテイメントカンパニー,0
451,2020002012428,登記記録の閉鎖等,0,2023-09-06,2023-09-01,有限会社中田庭園,,有限会社,神奈川県,横浜市戸塚区,矢部町８１１番地,,14,110,2440002,,,2023-09-01,合併による解散等,7020002012547,令和５年９月１日横浜市戸塚区矢部町８１１番地株式会社バード企画（7020002012547）に合併し解散,2015-10-05,1,,,,,ナカダテイエン,0
453,2020005012838,登記記録の閉鎖等,0,2023-09-06,2023-08-29,特定非営利活動法人美容トータルファッション協会,,その他の設立登記法人,神奈川県,横浜市金沢区,谷津町３８４番地,,14,108,2360016,,,2023-08-29,清算の結了等,,,2016-11-28,1,,,,,ビヨウトータルファッションキョウカイ,0
455,2021001025321,登記記録の閉鎖等,0,2023-09-06,2023-09-01,株式会社シンクウェア,,株式会社,神奈川県,大和市,深見台４丁目８番１号,,14,213,2420013,,,2023-09-01,清算の結了等,,,2015-10-05,1,,,,,シンクウェア,0
458,2021002066018,登記記録の閉鎖等,0,2023-09-06,2023-08-31,有限会社新倉丈八商店,,有限会社,神奈川県,横須賀市,秋谷５３０３番地,,14,201,2400105,,,2023-08-31,清算の結了等,,,2015-10-05,1,,,,,ニイクラジョウハチショウテン,0
459,2021005009262,登記記録の閉鎖等,0,2023-09-06,2023-08-30,特定非営利活動法人フェアネット,,その他の設立登記法人,神奈川県,大和市,南林間８丁目１７番２９号,,14,213,2420006,,,2023-08-30,清算の結了等,,,2015-10-05,1,,,,,フェアネット,0
462,2030001043919,登記記録の閉鎖等,0,2023-09-06,2023-09-01,株式会社サイクルライン,,株式会社,新潟県,新潟市東区,船江町２丁目７番２１号,,15,102,9500031,,,2023-09-01,清算の結了等,,,2015-10-05,1,,,,,サイクルライン,0
470,2030002118348,登記記録の閉鎖等,0,2023-09-06,2023-08-08,有限会社江袋内装,,有限会社,埼玉県,行田市,大字馬見塚７９８番地１,,11,206,3610082,,,2023-08-08,清算の結了等,,,2015-10-05,1,,,,,エブクロナイソウ,0
476,2040001040106,登記記録の閉鎖等,0,2023-09-06,2023-08-21,株式会社エイジー・ジャパン,,株式会社,千葉県,松戸市,秋山８８番地１,,12,207,2702223,,,2023-08-21,清算の結了等,,,2015-10-05,1,,,,,エイジージャパン,0
477,2040001046251,登記記録の閉鎖等,0,2023-09-06,2023-08-21,株式会社ジャッキーホーム,,株式会社,千葉県,印旛郡栄町,竜角寺台４丁目４０番６号,,12,329,2701505,,,2023-08-21,清算の結了等,,,2015-10-05,1,,,,,ジャッキーホーム,0
481,2040001070409,登記記録の閉鎖等,0,2023-09-06,2023-08-21,株式会社カントーコーポレーション,,株式会社,千葉県,柏市,中央町５番１９号ニホンメガネビル２Ｆ２０２号室,,12,217,2770021,,,2023-08-21,清算の結了等,,,2015-10-05,1,,,,,カントーコーポレーション,0
484,2040001096610,登記記録の閉鎖等,0,2023-09-06,2023-08-21,株式会社いこし,,株式会社,千葉県,大網白里市,大網６９６番地,,12,239,2993251,,,2023-08-21,清算の結了等,,,2016-08-22,1,,,,,イコシ,0
490,2040003013885,登記記録の閉鎖等,0,2023-09-06,2023-08-17,Ｏａｓｉｓ　ｄｕ　Ｓａｈａｒａ合同会社,,合同会社,千葉県,船橋市,習志野台２丁目４５－３１,,12,204,2740063,,,2023-08-17,清算の結了等,,,2019-08-15,1,,,,,オアシスデュサハラ,0
496,2060003003133,登記記録の閉鎖等,0,2023-09-06,2023-08-28,合同会社ハレノヒ,,合同会社,栃木県,宇都宮市,御幸ケ原町５７番地８,,09,201,3210982,,,2023-08-28,清算の結了等,,,2019-06-11,1,,,,,ハレノヒ,0
498,2070001037248,登記記録の閉鎖等,0,2023-09-06,2023-09-01,株式会社太田駅南口第三地区再開発,,株式会社,群馬県,太田市,飯田町１４０４番地２,,10,205,3730851,,,2023-09-01,清算の結了等,,,2020-10-01,1,,,,,オオタエキミナミグチダイサンチクサイカイハツ,0
507,2100002004326,登記記録の閉鎖等,0,2023-09-06,2023-08-31,有限会社藤村堂工芸社,,有限会社,長野県,長野市,大字南長野南県町１１０２番地,,20,201,3800836,,,2023-08-31,清算の結了等,,,2015-10-05,1,,,,,トウソンドウコウゲイシャ,0
520,2120002028397,登記記録の閉鎖等,0,2023-09-06,2023-09-01,マエケン通商有限会社,,有限会社,大阪府,大阪市住吉区,庭井２丁目１６番７号,,27,120,5580012,,,2023-09-01,清算の結了等,,,2015-10-05,1,,,,,マエケンツウショウ,0
525,2120002081751,登記記録の閉鎖等,0,2023-09-06,2023-09-01,有限会社リバティ京橋,,有限会社,大阪府,門真市,柳町１６番６号,,27,223,5710041,,,2023-09-01,合併による解散等,1120001157280,令和５年９月１日大阪府門真市柳町１６番６号株式会社リバティ（1120001157280）に合併し解散,2015-10-05,1,,,,,リバティキョウバシ,0
528,2120101001916,登記記録の閉鎖等,0,2023-09-06,2023-09-04,共栄電設株式会社,,株式会社,大阪府,堺市中区,陶器北４１６番地３,,27,142,5998242,,,2023-09-04,清算の結了等,,,2015-10-05,1,,,,,キョウエイデンセツ,0
547,2130001042803,登記記録の閉鎖等,0,2023-09-06,2023-08-22,株式会社ミック,,株式会社,京都府,京丹後市,大宮町周枳１９７５番地,,26,212,6292503,,,2023-08-22,清算の結了等,,,2015-10-05,1,,,,,ミック,0
580,2200001028002,登記記録の閉鎖等,0,2023-09-06,2023-09-04,株式会社Ｂ　Ｄｅｅｐ,,株式会社,東京都,渋谷区,恵比寿南２丁目６番１号,,13,113,1500022,,,2023-09-04,合併による解散等,1010901024896,令和５年８月２８日東京都世田谷区玉川四丁目１２番１６号４０３株式会社ジェメッリアンドカンパニー（1010901024896）に合併し解散,2015-10-05,1,,,,,ビーディープ,0
584,2210001011527,登記記録の閉鎖等,0,2023-09-06,2023-09-04,株式会社小川,,株式会社,福井県,越前市,小野谷町第１４号１番地の５,,18,209,9150054,,,2023-09-04,清算の結了等,,,2015-10-05,1,,,,,オガワ,0
609,2290802013284,登記記録の閉鎖等,0,2023-09-06,2023-09-05,有限会社安藤工業,,有限会社,福岡県,北九州市八幡西区,鷹見台３丁目１０番１３号,,40,109,8070853,,,2023-09-05,清算の結了等,,,2015-10-05,1,,,,,アンドウコウギョウ,0
610,2290802020875,登記記録の閉鎖等,0,2023-09-06,2023-09-05,岡村建設有限会社,,有限会社,福岡県,鞍手郡小竹町,大字新多１６９番地の１,,40,401,8201104,,,2023-09-05,清算の結了等,,,2015-10-05,1,,,,,オカムラケンセツ,0
624,2340001017156,登記記録の閉鎖等,0,2023-09-06,2023-09-04,株式会社エンジェルカンパニー,,株式会社,鹿児島県,薩摩郡さつま町,宮之城屋地１５９６番地１３,,46,392,8951803,,,2023-09-04,清算の結了等,,,2015-10-05,1,,,,,,0
627,2340002005309,登記記録の閉鎖等,0,2023-09-06,2023-09-01,セイシンシステム有限会社,,有限会社,鹿児島県,鹿児島市,田上５丁目４０番２２号,,46,201,8900034,,,2023-09-01,清算の結了等,,,2023-08-09,1,,,,,セイシンシステム,0
629,2340002017064,登記記録の閉鎖等,0,2023-09-06,2023-09-01,有限会社北薩ギフト,00099465,有限会社,鹿児島県,薩摩川内市,御陵下町１４番８号,,46,215,8950061,,,2023-09-01,清算の結了等,,,2015-10-05,1,,,,,ホクサツギフト,0
630,2340003001884,登記記録の閉鎖等,0,2023-09-06,2023-09-04,合同会社ＴＩＮＫＥＲ,,合同会社,鹿児島県,阿久根市,脇本７９７９番地,,46,206,8991131,,,2023-09-04,清算の結了等,,,2015-10-05,1,,,,,,0
645,2390001007441,登記記録の閉鎖等,0,2023-09-06,2023-09-01,株式会社安在工務店,,株式会社,山形県,鶴岡市,みどり町３２番４５号,,06,203,9970046,,,2023-09-01,清算の結了等,,,2015-10-05,1,,,,,アンザイコウムテン,0
700,3010701039093,登記記録の閉鎖等,0,2023-09-06,2023-08-04,株式会社ＤＸ　Ｃａｔａｌｙｓｔ,,株式会社,東京都,港区,芝浦３丁目４番１号,,13,103,1080023,,,2023-08-04,清算の結了等,,,2020-04-09,1,,,,,ディーエックスカタリスト,0
707,3010901038440,登記記録の閉鎖等,0,2023-09-06,2023-08-15,株式会社Ｒｅ－ＣＨ,,株式会社,東京都,港区,新橋５丁目１２番－１１号,,13,103,1050004,,,2023-08-15,清算の結了等,,,2016-07-11,1,,,,,リーチ,0
731,3011601001762,登記記録の閉鎖等,0,2023-09-06,2023-09-01,株式会社木元商店,,株式会社,東京都,千代田区,岩本町２丁目１５番１４－１５０１,,13,101,1010032,,,2023-09-01,清算の結了等,,,2015-10-05,1,,,,,キモトショウテン,0
735,3011701005127,登記記録の閉鎖等,0,2023-09-06,2023-09-01,株式会社珍来,,株式会社,東京都,江戸川区,平井２丁目２１番９号,,13,123,1320035,,,2023-09-01,清算の結了等,,,2015-10-05,1,,,,,チンライ,0
765,3021001072882,登記記録の閉鎖等,0,2023-09-06,2023-08-29,クラバース株式会社,,株式会社,神奈川県,横浜市中区,太田町５丁目６１番地１号,,14,104,2310011,,,2023-08-29,清算の結了等,,,2021-05-13,1,,,,,クラバース,0
770,3030001152990,登記記録の閉鎖等,0,2023-09-06,2023-08-09,リサードキャピタル株式会社,,株式会社,埼玉県,飯能市,柳町３－１３，６０１号室,,11,209,3570035,,,2023-08-09,清算の結了等,,,2023-03-28,1,,,,,リサードキャピタル,0
776,3030002091346,登記記録の閉鎖等,0,2023-09-06,2023-08-09,共立工業有限会社,,有限会社,埼玉県,越谷市,大字南荻島１４８７番地,,11,222,3430804,,,2023-08-09,清算の結了等,,,2015-10-05,1,,,,,キョウリツコウギョウ,0
788,3040002041440,登記記録の閉鎖等,0,2023-09-06,2023-08-21,有限会社花園工務店,,有限会社,千葉県,浦安市,富士見１丁目２番２９号,,12,227,2790043,,,2023-08-21,清算の結了等,,,2015-10-05,1,,,,,ハナゾノコウムテン,0
790,3040002077930,登記記録の閉鎖等,0,2023-09-06,2023-08-21,有限会社木原工務店,,有限会社,千葉県,山武郡九十九里町,真亀４０００番地,,12,403,2830114,,,2023-08-21,清算の結了等,,,2015-10-05,1,,,,,キハラコウムテン,0
791,3040002105055,登記記録の閉鎖等,0,2023-09-06,2023-08-22,有限会社出水薬局,,有限会社,千葉県,習志野市,本大久保３丁目２番１９号,,12,216,2750012,,,2023-08-22,清算の結了等,,,2022-09-05,1,,,,,デミズヤッキョク,0
797,3050001040260,登記記録の閉鎖等,0,2023-09-06,2023-08-31,大川商事株式会社,,株式会社,茨城県,神栖市,土合東２丁目７番３０号,,08,232,3140344,,,2023-08-31,清算の結了等,,,2015-12-21,1,,,,,オオカワショウジ,0
809,3070002021489,登記記録の閉鎖等,0,2023-09-06,2023-08-31,有限会社マーティンプレイス,,有限会社,群馬県,伊勢崎市,田中島町７４９番地１,,10,204,3720802,,,2023-08-31,清算の結了等,,,2015-10-05,1,,,,,マーティンプレイス,0
810,3080002011340,登記記録の閉鎖等,0,2023-09-06,2023-09-01,有限会社水野新聞店,,有限会社,静岡県,静岡市清水区,草薙杉道３丁目１番２１号,,22,103,4240885,,,2023-09-01,清算の結了等,,,2015-10-05,1,,,,,ミズノシンブンテン,0
814,3100001012394,登記記録の閉鎖等,0,2023-09-06,2023-08-31,株式会社信州サラダガーデン,,株式会社,長野県,中野市,大字新保６１８番地,,20,211,3830036,,,2023-08-31,清算の結了等,,,2015-10-05,1,,,,,シンシュウサラダガーデン,0
815,3100001030891,登記記録の閉鎖等,0,2023-09-06,2023-08-31,株式会社オフザウォール,,株式会社,長野県,松本市,波田１８７０番地２,,20,202,3901401,,,2023-08-31,清算の結了等,,,2018-01-15,1,,,,,オフザウォール,0
858,3140005009029,登記記録の閉鎖等,0,2023-09-06,2023-09-01,特定非営利活動法人城南ライフサポート,,その他の設立登記法人,兵庫県,丹波篠山市,小枕１３０番地,,28,221,6692461,,,2023-09-01,清算の結了等,,,2015-10-05,1,,,,,ジョウナンライフサポート,0
860,3150001004354,登記記録の閉鎖等,0,2023-09-06,2023-09-04,サニー・エンタプライズ株式会社,,株式会社,奈良県,奈良市,中山町１２３４番地の９,,29,201,6310012,,,2023-09-04,清算の結了等,,,2015-10-05,1,,,,,サニーエンタプライズ,0
865,3180001047623,登記記録の閉鎖等,0,2023-09-06,2023-09-04,株式会社トータルシステムサービス,,株式会社,愛知県,名古屋市東区,東桜２丁目２２番３５号,,23,102,4610005,,,2023-09-04,清算の結了等,,,2015-10-05,1,,,,,トータルシステムサービス,0
866,3180001129339,登記記録の閉鎖等,0,2023-09-06,2023-08-31,三企工株式会社,,株式会社,愛知県,名古屋市天白区,平針３丁目１９０３番地,,23,116,4680011,,,2023-08-31,清算の結了等,,,2017-09-07,1,,,,,サンキコウ,0
877,3180002088666,登記記録の閉鎖等,0,2023-09-06,2023-08-31,有限会社マルヒデサービス,,有限会社,愛知県,東海市,荒尾町上ノ山５番地の１,,23,222,4760003,,,2023-08-31,清算の結了等,,,2015-10-05,1,,,,,マルヒデサービス,0
884,3200001032151,登記記録の閉鎖等,0,2023-09-06,2023-09-04,株式会社エクセル,,株式会社,岐阜県,岐阜市,宇佐南３丁目８番１号,,21,201,5008367,,,2023-09-04,清算の結了等,,,2015-10-05,1,,,,,エクセル,0
929,3350005004693,登記記録の閉鎖等,0,2023-09-06,2023-08-30,宮崎県公衆浴場業生活衛生同業組合,,その他の設立登記法人,宮崎県,宮崎市,大橋１丁目６４番地１,,45,201,8800022,,,2023-08-30,清算の結了等,,,2015-10-05,1,,,,,ミヤザキケンコウシュウヨクジョウギョウ,0
932,3360005002531,登記記録の閉鎖等,0,2023-09-06,2023-08-31,医療法人みらい,,その他の設立登記法人,沖縄県,中頭郡中城村,字久場４番地の３０,,47,328,9012401,,,2023-08-31,清算の結了等,,,2015-10-05,1,,,,,ミライ,0
957,3430002061853,登記記録の閉鎖等,0,2023-09-06,2023-08-29,有限会社松野損害保険事務所,,有限会社,北海道,日高郡新ひだか町,静内本町２丁目２番３０号,,01,610,0560016,,,2023-08-29,清算の結了等,,,2015-10-05,1,,,,,マツノソンガイホケンジムショ,0
986,4010001185281,登記記録の閉鎖等,0,2023-09-06,2023-09-01,Ｓｅａｖｉｅｗ株式会社,,株式会社,東京都,千代田区,神田神保町１丁目１１番地さくら綜合事務所内,,13,101,1010051,,,2023-09-01,清算の結了等,,,2017-08-01,1,,,,,シービュー,0
987,4010001197203,登記記録の閉鎖等,0,2023-09-06,2023-08-31,Ｇｌｏｂａｌ　Ｏｐｅｎ　Ｎｅｔｗｏｒｋ株式会社,,株式会社,東京都,千代田区,丸の内２丁目７番１号,,13,101,1000005,,,2023-08-31,清算の結了等,,,2018-12-18,1,,,,,グローバルオープンネットワーク,0
1005,4010401153565,登記記録の閉鎖等,0,2023-09-06,2023-08-31,株式会社Ｈａｉｒｌｉｅ,,株式会社,東京都,渋谷区,神宮前６丁目３３番７－２０２号,,13,113,1500001,,,2023-08-31,清算の結了等,,,2020-06-25,1,,,,,ヘアリー,0
1015,4010403016522,登記記録の閉鎖等,0,2023-09-06,2023-08-31,ＭＭＧ合同会社,,合同会社,東京都,渋谷区,幡ヶ谷３丁目５４番２号,,13,113,1510072,,,2023-08-31,清算の結了等,,,2017-05-10,1,,,,,エムエムジー,0
1021,4010802004540,登記記録の閉鎖等,0,2023-09-06,2023-09-04,有限会社クリエイティブストーン,,有限会社,東京都,大田区,久が原５丁目１４番７号,,13,111,1460085,,,2023-09-04,清算の結了等,,,2015-10-05,1,,,,,クリエイティブストーン,0
1022,4010803002709,登記記録の閉鎖等,0,2023-09-06,2023-09-05,合同会社ビジョン,,合同会社,東京都,大田区,東雪谷５丁目５番４号,,13,111,1450065,,,2023-09-05,清算の結了等,,,2018-06-11,1,,,,,ビジョン,0
1074,4020003015213,登記記録の閉鎖等,0,2023-09-06,2023-09-04,株式会社２ｉｎ１,,株式会社,東京都,大田区,本羽田１丁目２８番９号,,13,111,1440044,,,2023-09-04,合併による解散等,9060001030180,令和５年８月１日茨城県笠間市泉字中村１０９８番地４株式会社剛電（9060001030180）に合併し解散,2018-11-19,1,,,,,ツーインワン,0
1113,4050002025391,登記記録の閉鎖等,0,2023-09-06,2023-08-30,有限会社わくわく,,有限会社,茨城県,古河市,東山田４８４１番地４,,08,204,3060112,,,2023-08-30,清算の結了等,,,2015-10-05,1,,,,,ワクワク,0
1118,4070002007256,登記記録の閉鎖等,0,2023-09-06,2023-09-01,株式会社プログレス,,株式会社,群馬県,前橋市,天川大島町１３９２番地,,10,201,3792154,,,2023-09-01,清算の結了等,,,2015-10-05,1,,,,,プログレス,0
1120,4070002020192,登記記録の閉鎖等,0,2023-09-06,2023-09-01,有限会社滝原ピツグ,,有限会社,群馬県,伊勢崎市,西野町７２番地１,,10,204,3792216,,,2023-09-01,清算の結了等,,,2015-10-05,1,,,,,タキハラピツグ,0
1121,4070002030852,登記記録の閉鎖等,0,2023-09-06,2023-09-01,有限会社フラワーコスモ,,有限会社,群馬県,太田市,大島町４２７番地の１,,10,205,3730055,,,2023-09-01,清算の結了等,,,2015-10-05,1,,,,,フラワーコスモ,0
1122,4080001021026,登記記録の閉鎖等,0,2023-09-06,2023-09-04,インタープロダクト株式会社,,株式会社,静岡県,静岡市葵区,城北２丁目１０番３１号,,22,101,4200805,,,2023-09-04,清算の結了等,,,2016-07-06,1,,,,,インタープロダクト,0
1131,4110002029709,登記記録の閉鎖等,0,2023-09-06,2023-09-01,有限会社内山事務所,,有限会社,新潟県,長岡市,西谷３７１番地,,15,202,9495121,,,2023-09-01,清算の結了等,,,2015-10-05,1,,,,,ウチヤマジムショ,0
1159,4140001072252,登記記録の閉鎖等,0,2023-09-06,2023-09-01,ショーワ産業株式会社,,株式会社,兵庫県,西宮市,山口町下山口２丁目６番１号,,28,204,6511412,,,2023-09-01,合併による解散等,5140001072251,令和５年９月１日兵庫県西宮市山口町下山口二丁目６番１号株式会社ツーエイト（5140001072251）に合併し解散,2015-10-05,1,,,,,ショーワサンギョウ,0
1161,4140001100616,登記記録の閉鎖等,0,2023-09-06,2023-08-30,株式会社インソバル,,株式会社,兵庫県,神戸市東灘区,御影３丁目２番１１－４０７号,,28,101,6580047,,,2023-08-30,清算の結了等,,,2016-01-08,1,,,,,インソバル,0
1171,4180001028473,登記記録の閉鎖等,0,2023-09-06,2023-09-01,株式会社中部パイプライニング,,株式会社,愛知県,名古屋市緑区,太子１丁目３６３番地,,23,114,4580823,,,2023-09-01,清算の結了等,,,2015-10-05,1,,,,,チュウブパイプライニング,0
1173,4180001097519,登記記録の閉鎖等,0,2023-09-06,2023-09-01,協和陸運株式会社,,株式会社,愛知県,海部郡飛島村,木場１丁目１２番地,,23,427,4901444,,,2023-09-01,合併による解散等,5180001006916,令和５年９月１日名古屋市港区入船一丁目１番２０号東海協和株式会社（5180001006916）に合併し解散,2015-10-05,1,,,,,キョウワリクウン,0
1176,4180001149550,登記記録の閉鎖等,0,2023-09-06,2023-08-31,イチテルホールディングス株式会社,,株式会社,愛知県,瀬戸市,高根町１丁目２１５番地,,23,204,4890931,,,2023-08-31,清算の結了等,,,2022-01-18,1,,,,,イチテルホールディングス,0
1187,4180002078352,登記記録の閉鎖等,0,2023-09-06,2023-09-01,有限会社藤吉,00073436,有限会社,愛知県,一宮市,三条字郷東藤３７番地の１,,23,203,4940003,,,2023-09-01,清算の結了等,,,2015-10-05,1,,,,,フジヨシ,0
1202,4200002000924,登記記録の閉鎖等,0,2023-09-06,2023-09-04,有限会社外苑,,有限会社,岐阜県,岐阜市,岩地１丁目２番１２号,,21,201,5008225,,,2023-09-04,清算の結了等,,,2015-10-05,1,,,,,ガイエン,0
1204,4210002007258,登記記録の閉鎖等,0,2023-09-06,2023-09-05,有限会社ウチダ,,有限会社,福井県,あわら市,春宮１丁目９番５１号,,18,208,9190632,,,2023-09-05,清算の結了等,,,2015-10-05,1,,,,,ウチダ,0
1206,4220001023882,登記記録の閉鎖等,0,2023-09-06,2023-08-31,Ｔａｌｌｅｙｒａｎｄ　ｃｏｎｓｕｌｔｉｎｇ株式会社,,株式会社,石川県,金沢市,森山１丁目２番１号２０７,,17,201,9200843,,,2023-08-31,合併による解散等,7460101006835,令和５年８月２８日東京都千代田区神田錦町二丁目２番地１株式会社こむぎの（7460101006835）に合併し解散,2020-12-15,1,,,,,タレイランコンサルティング,0
1209,4230002006761,登記記録の閉鎖等,0,2023-09-06,2023-08-29,有限会社南部工務店,,有限会社,富山県,富山市,八尾町寺家３２番地,,16,201,9392301,,,2023-08-29,清算の結了等,,,2015-10-05,1,,,,,ナンブコウムテン,0
1216,4260002027359,登記記録の閉鎖等,0,2023-09-06,2023-09-01,有限会社宮地重機,,有限会社,岡山県,新見市,新見２１７１番地の５,,33,210,7180011,,,2023-09-01,清算の結了等,,,2015-10-05,1,,,,,ミヤジジュウキ,0
1222,4290003009857,登記記録の閉鎖等,0,2023-09-06,2023-08-23,合同会社英和,,合同会社,福岡県,福岡市東区,箱崎４丁目３０番１１号,,40,131,8120053,,,2023-08-23,清算の結了等,,,2020-03-18,1,,,,,エイワ,0
1229,4310001008924,登記記録の閉鎖等,0,2023-09-06,2023-09-01,株式会社ミヤタ,,株式会社,長崎県,大村市,富の原２丁目３８３番地１,,42,205,8560806,,,2023-09-01,合併による解散等,5310001001011,令和５年９月１日長崎市鍛冶屋町６番５０号株式会社リンガーハット（5310001001011）に合併し解散,2015-10-05,1,,,,,ミヤタ,0
1236,4340001005761,登記記録の閉鎖等,0,2023-09-06,2023-09-04,平野設備工業株式会社,,株式会社,鹿児島県,鹿児島市,吉野町４８７２番地８,,46,201,8920871,,,2023-09-04,清算の結了等,,,2015-10-05,1,,,,,ヒラノセツビコウギョウ,0
1257,4390001013248,登記記録の閉鎖等,0,2023-09-06,2023-09-04,株式会社テイクシステムズ,,株式会社,山形県,山形市,和合町１丁目６番地５９号,,06,201,9900064,,,2023-09-04,清算の結了等,,,2015-10-05,1,,,,,テイクシステムズ,0
1264,4420002001495,登記記録の閉鎖等,0,2023-09-06,2023-08-31,有限会社島工務店,,有限会社,青森県,青森市,西滝３丁目２５番１２号,,02,201,0380014,,,2023-08-31,清算の結了等,,,2015-10-05,1,,,,,シマコウムテン,0
1278,4470002007595,登記記録の閉鎖等,0,2023-09-06,2023-08-31,有限会社脇建工,,有限会社,香川県,高松市,多肥上町１９４２番地７,,37,201,7618076,,,2023-08-31,清算の結了等,,,2015-10-05,1,,,,,ワキケンコウ,0
1303,5000030270021,登記記録の閉鎖等,0,2023-09-06,2021-03-18,大阪市飛鳥町財産区,,地方公共団体,大阪府,大阪市東淀川区,豊新２丁目１番４号,,27,114,5330014,,,2021-03-18,その他の清算の結了等,,,2015-10-05,1,Osaka shi Asuka cho Zaisanku,Osaka,"2-1-4,Hoshin,Higashiyodogawa ku, Osaka shi",,オオサカシアスカチョウザイサンク,0
1307,5010001169093,登記記録の閉鎖等,0,2023-09-06,2023-08-28,さくら不動産投資顧問株式会社,,株式会社,東京都,港区,六本木３丁目１６番３５号,,13,103,1060032,,,2023-08-28,清算の結了等,,,2015-10-05,1,,,,,サクラフドウサントウシコモン,0
1322,5010401127808,登記記録の閉鎖等,0,2023-09-06,2023-09-01,株式会社ＢＡＲＴＨ,,株式会社,東京都,渋谷区,広尾１丁目１３番７号恵比寿イーストビル６階,,13,113,1500012,,,2023-09-01,合併による解散等,2010401122308,令和５年９月１日東京都渋谷区広尾一丁目１３番７号恵比寿イーストビル６階株式会社ＴＷＯ（2010401122308）に合併し解散,2016-10-27,1,,,,,バース,0
1333,5010405013970,登記記録の閉鎖等,0,2023-09-06,2023-08-14,一般社団法人エコプローブ協会,,その他の設立登記法人,東京都,港区,六本木７丁目３番７号,,13,103,1060032,,,2023-08-14,清算の結了等,,,2015-10-05,1,,,,,エコプローブキョウカイ,0
1358,5011101006558,登記記録の閉鎖等,0,2023-09-06,2023-09-01,株式会社公住工務店,,株式会社,東京都,新宿区,大久保１丁目４番１３号,,13,104,1690072,,,2023-09-01,清算の結了等,,,2015-10-05,1,,,,,コウジュウコウムテン,0
1365,5011202003371,登記記録の閉鎖等,0,2023-09-06,2023-09-05,有限会社瀬在建設,,有限会社,東京都,中野区,松が丘２丁目３５番５号,,13,114,1650024,,,2023-09-05,清算の結了等,,,2015-10-05,1,,,,,セザイケンセツ,0
1372,5011702002170,登記記録の閉鎖等,0,2023-09-06,2023-09-01,有限会社大内防水,,有限会社,東京都,江戸川区,江戸川１丁目２９番３３号,,13,123,1320013,,,2023-09-01,清算の結了等,,,2015-10-05,1,,,,,オオウチボウスイ,0
1398,5020001064590,登記記録の閉鎖等,0,2023-09-06,2023-08-29,登戸光学株式会社,,株式会社,神奈川県,川崎市多摩区,登戸１５６８番地,,14,135,2140014,,,2023-08-29,清算の結了等,,,2015-10-05,1,,,,,ノボリトコウガク,0
1409,5020002080397,登記記録の閉鎖等,0,2023-09-06,2023-08-31,有限会社小澤ベンディング,,有限会社,神奈川県,川崎市幸区,南加瀬５丁目３５番３１－２０２号,,14,132,2120055,,,2023-08-31,清算の結了等,,,2015-10-05,1,,,,,オザワベンディング,0
1411,5020005009757,登記記録の閉鎖等,0,2023-09-06,2023-08-31,司法書士法人小六事務所,,その他の設立登記法人,神奈川県,横浜市西区,楠町５番地１６,,14,103,2200003,,,2023-08-31,清算の結了等,,,2015-10-05,1,,,,,コロクジムショ,0
1417,5021002053871,登記記録の閉鎖等,0,2023-09-06,2023-08-31,有限会社竹内建設工業,,有限会社,神奈川県,秦野市,羽根２８５番地の６,,14,211,2591301,,,2023-08-31,清算の結了等,,,2015-10-05,1,,,,,タケウチケンセツコウギョウ,0
1433,5040001020113,登記記録の閉鎖等,0,2023-09-06,2023-08-22,株式会社ｅ・サポート,,株式会社,千葉県,浦安市,明海６丁目１番１１－１３０９号,,12,227,2790014,,,2023-08-22,清算の結了等,,,2015-10-05,1,,,,,イーサポート,0
1460,5070001015597,登記記録の閉鎖等,0,2023-09-06,2023-09-01,いずはら株式会社,,株式会社,群馬県,桐生市,宮本町２丁目３番１号,,10,203,3760056,,,2023-09-01,清算の結了等,,,2015-10-05,1,,,,,イズハラ,0
1465,5080001022270,登記記録の閉鎖等,0,2023-09-06,2023-09-04,Ａｉ工機株式会社,,株式会社,静岡県,静岡市清水区,港南町８番１８号,,22,103,4240914,,,2023-09-04,清算の結了等,,,2018-06-06,1,,,,,エーアイコウキ,0
1470,5110002002334,登記記録の閉鎖等,0,2023-09-06,2023-09-01,有限会社コーポ新大,,有限会社,新潟県,新潟市西区,内野町５３番８,,15,107,9502112,,,2023-09-01,清算の結了等,,,2015-10-05,1,,,,,コーポシンダイ,0
1505,5160001009607,登記記録の閉鎖等,0,2023-09-06,2023-09-01,スポットホース株式会社,,株式会社,滋賀県,長浜市,新庄寺町９７‐１８,,25,203,5260013,,,2023-09-01,合併による解散等,4160001009582,令和５年９月１日滋賀県彦根市大堀町９６５－１１ハウジング光正株式会社（4160001009582）に合併し解散,2015-10-05,1,,,,,スポットホース,0
1510,5180001079177,登記記録の閉鎖等,0,2023-09-06,2023-08-31,尾州硅砂工業株式会社,,株式会社,愛知県,瀬戸市,小坂町１７０番地,,23,204,4890978,,,2023-08-31,清算の結了等,,,2015-10-05,1,,,,,ビシュウケイシャコウギョウ,0
1512,5180001113729,登記記録の閉鎖等,0,2023-09-06,2023-08-31,株式会社ＮＥＯＰＬＵＳ,,株式会社,東京都,新宿区,歌舞伎町２丁目３６番５号清建ビル２階,,13,104,1600021,,,2023-08-31,清算の結了等,,,2015-10-05,1,,,,,ネオプラス,0
1530,5190003001344,登記記録の閉鎖等,0,2023-09-06,2023-08-31,合資会社歌行燈しまや,00076189,合資会社,三重県,桑名市,江戸町１０番地,,24,205,5110022,,,2023-08-31,清算の結了等,,,2015-10-05,1,,,,,ウタアンドンシマヤ,0
1544,5230001008972,登記記録の閉鎖等,0,2023-09-06,2023-09-04,子撫木材株式会社,,株式会社,富山県,小矢部市,野端１５５番地,,16,209,9320832,,,2023-09-04,清算の結了等,,,2015-10-05,1,,,,,コナデモクザイ,0
1553,5260002033934,登記記録の閉鎖等,0,2023-09-06,2023-09-01,植田建設有限会社,,有限会社,岡山県,真庭市,藤森７８９番地,,33,214,7170422,,,2023-09-01,清算の結了等,,,2015-10-05,1,,,,,ウエダケンセツ,0
1574,5340001001198,登記記録の閉鎖等,0,2023-09-06,2023-09-01,株式会社上久保組,,株式会社,鹿児島県,鹿児島市,下福元町６５４７番地７,,46,201,8910144,,,2023-09-01,清算の結了等,,,2015-10-05,1,,,,,カミクボグミ,0
1575,5340001012823,登記記録の閉鎖等,0,2023-09-06,2023-08-31,株式会社枦建設,00098806,株式会社,鹿児島県,南九州市,川辺町野崎２１７５番地１,,46,223,8970203,,,2023-08-31,清算の結了等,,,2015-10-05,1,,,,,ハシケンセツ,0
1582,5360003007456,登記記録の閉鎖等,0,2023-09-06,2023-08-31,合同会社あさひ,,合同会社,沖縄県,宮古島市,伊良部字池間添６番地８,,47,214,9060502,,,2023-08-31,清算の結了等,,,2016-02-05,1,,,,,アサヒ,0
1592,5370302002025,登記記録の閉鎖等,0,2023-09-06,2023-09-01,株式会社藤勝産業,,株式会社,宮城県,東松島市,赤井字本谷３８番地２,,04,214,9810501,,,2023-09-01,清算の結了等,,,2015-10-05,1,,,,,フジカツサンギョウ,0
1600,5400002012510,登記記録の閉鎖等,0,2023-09-06,2023-08-31,有限会社モードやまぐち,,有限会社,岩手県,二戸市,福岡字上町１２番地,,03,213,0286101,,,2023-08-31,清算の結了等,,,2015-10-05,1,,,,,モードヤマグチ,0
1611,5460301004178,登記記録の閉鎖等,0,2023-09-06,2023-09-04,株式会社石神工業,,株式会社,北海道,斜里郡小清水町,字美和４８１番地の３,,01,547,0993614,,,2023-09-04,清算の結了等,,,2015-10-05,1,,,,,イシガミコウギョウ,0
1673,6011001021276,登記記録の閉鎖等,0,2023-09-06,2023-09-01,株式会社ぷろだくしょん森,,株式会社,東京都,渋谷区,渋谷１丁目１７番４号,,13,113,1500002,,,2023-09-01,清算の結了等,,,2022-10-21,1,,,,,,0
1700,6013301001296,登記記録の閉鎖等,0,2023-09-06,2023-09-05,株式会社ウェルモア,,株式会社,東京都,豊島区,南大塚３丁目４７番５号,,13,116,1700005,,,2023-09-05,清算の結了等,,,2015-10-05,1,,,,,ウェルモア,0
1731,6030002067574,登記記録の閉鎖等,0,2023-09-06,2023-08-09,有限会社上原ハウスサービス,,有限会社,埼玉県,和光市,白子２丁目１７番３５－２０６号ライオンズマンション和光第２,,11,229,3510101,,,2023-08-09,清算の結了等,,,2015-10-05,1,,,,,ウエハラハウスサービス,0
1737,6040001118261,登記記録の閉鎖等,0,2023-09-06,2023-08-21,株式会社ピースオブケイク,,株式会社,千葉県,浦安市,北栄４丁目１８－３－４０７,,12,227,2790002,,,2023-08-21,清算の結了等,,,2021-04-28,1,,,,,ピースオブケイク,0
1745,6050001010054,登記記録の閉鎖等,0,2023-09-06,2023-09-01,岩浪運送株式会社,,株式会社,茨城県,土浦市,藤沢３４８９番地,,08,203,3004115,,,2023-09-01,清算の結了等,,,2015-10-05,1,,,,,イワナミウンソウ,0
1748,6050002008394,登記記録の閉鎖等,0,2023-09-06,2023-09-01,有限会社コスモフーズ,,有限会社,東京都,練馬区,小竹町１丁目１１番２号,,13,120,1760004,,,2023-09-01,清算の結了等,,,2015-10-05,1,,,,,コスモフーズ,0
1758,6080002013086,登記記録の閉鎖等,0,2023-09-06,2023-09-04,有限会社オフィスニワ,,有限会社,静岡県,静岡市清水区,蒲原新栄１４４番地の４,,22,103,4213202,,,2023-09-04,清算の結了等,,,2015-10-05,1,,,,,オフィスニワ,0
1786,6120101039507,登記記録の閉鎖等,0,2023-09-06,2023-09-04,奥特殊紡績株式会社,,株式会社,大阪府,泉佐野市,日根野２７５３番地,,27,213,5980021,,,2023-09-04,清算の結了等,,,2015-10-05,1,,,,,オクトクシュボウセキ,0
1799,6130001073233,登記記録の閉鎖等,0,2023-09-06,2023-08-16,Ｎｅｗ　Ｅｎｅｒｇｙ　Ｓｅｌｅｃｔｅｄ株式会社,,株式会社,京都府,京都市中京区,夷川通堺町東入ル亀屋町１６３番地２Ｍｅ１ｓｔｂｌｄｇ１Ｆ,,26,104,6040000,,,2023-08-16,清算の結了等,,,2022-12-06,1,,,,,ニューエナジーセレクト,0
1802,6130002017379,登記記録の閉鎖等,0,2023-09-06,2023-08-23,有限会社マーケティング・サイエンス,,有限会社,京都府,京都市中京区,蛸薬師通油小路東入元本能寺南町３６１番地１,,26,104,6048231,,,2023-08-23,清算の結了等,,,2015-10-05,1,,,,,マーケティングサイエンス,0
1817,6180001071760,登記記録の閉鎖等,0,2023-09-06,2023-08-31,株式会社プラスエステート,,株式会社,愛知県,名古屋市名東区,上社４丁目８９番地,,23,115,4650025,,,2023-08-31,清算の結了等,,,2015-10-05,1,,,,,プラスエステート,0
1830,6180002070349,登記記録の閉鎖等,0,2023-09-06,2023-08-31,有限会社アンジェロ,,有限会社,愛知県,春日井市,杁ケ島町３番地の４,,23,206,4860921,,,2023-08-31,清算の結了等,,,2015-10-05,1,,,,,アンジェロ,0
1832,6180002091642,登記記録の閉鎖等,0,2023-09-06,2023-08-31,有限会社Ｋ＆Ｋコンサルティング,,有限会社,愛知県,弥富市,佐古木５丁目４５７番地の３,,23,235,4980006,,,2023-08-31,清算の結了等,,,2015-10-05,1,,,,,ケイアンドケイコンサルティング,0
1833,6180003002342,登記記録の閉鎖等,0,2023-09-06,2023-08-31,合資会社永田機械製作所,,合資会社,愛知県,名古屋市東区,筒井３丁目２８番３１号,,23,102,4610003,,,2023-08-31,清算の結了等,,,2015-10-05,1,,,,,ナガタキカイセイサクショ,0
1870,6280002006581,登記記録の閉鎖等,0,2023-09-06,2023-09-01,有限会社大社自動車整備工場,,有限会社,島根県,出雲市,大社町杵築南１２２１番地,,32,203,6990711,,,2023-09-01,合併による解散等,8280001008924,令和５年９月１日島根県出雲市大社町杵築南１２２１番地１ＨＡＭＡＹＡ株式会社（8280001008924）に合併し解散,2015-10-05,1,,,,,タイシャジドウシャセイビコウジョウ,0
1902,6370002005590,登記記録の閉鎖等,0,2023-09-06,2023-09-01,有限会社テイエスインテリア,,有限会社,宮城県,仙台市若林区,大和町４丁目２２番１５号名城タウンハウスＡ－５,,04,103,9840042,,,2023-09-01,清算の結了等,,,2015-10-05,1,,,,,テイエスインテリア,0
1906,6370202000029,登記記録の閉鎖等,0,2023-09-06,2023-08-31,有限会社アイ動物クリニック,,有限会社,宮城県,大崎市,古川北稲葉２丁目１２番１６号,,04,215,9896145,,,2023-08-31,清算の結了等,,,2015-10-05,1,,,,,アイドウブツクリニック,0
1914,6390003001711,登記記録の閉鎖等,0,2023-09-06,2023-09-04,岳顕合同会社,,合同会社,山形県,寒河江市,緑町２５－１７,,06,206,9910062,,,2023-09-04,清算の結了等,,,2020-05-11,1,,,,,ガッケン,0
1918,6400602001341,登記記録の閉鎖等,0,2023-09-06,2023-08-31,有限会社暁自動車,,有限会社,岩手県,奥州市,前沢字沖田９３番地１,,03,215,0294205,,,2023-08-31,清算の結了等,,,2015-10-05,1,,,,,アカツキジドウシャ,0
1927,6470002011356,登記記録の閉鎖等,0,2023-09-06,2023-08-31,有限会社井澤組,,有限会社,香川県,丸亀市,郡家町２７８７番地５,,37,202,7630093,,,2023-08-31,清算の結了等,,,2015-10-05,1,,,,,イザワグミ,0
1945,7010001002780,登記記録の閉鎖等,0,2023-09-06,2023-09-01,株式会社後藤製作所,,株式会社,東京都,豊島区,駒込１丁目１０番１５号駒込パークハウス８０５号,,13,116,1700003,,,2023-09-01,清算の結了等,,,2015-10-05,1,,,,,ゴトウセイサクショ,0
1978,7010405021204,登記記録の閉鎖等,0,2023-09-06,2023-08-14,一般社団法人Ｓｗｉｔｃｈ　Ｍｅｍｂｅｒ　Ｓｔｏｃｋｓ,,その他の設立登記法人,東京都,港区,芝５丁目２６番２４号,,13,103,1080014,,,2023-08-14,清算の結了等,,,2022-07-26,1,,,,,スイッチメンバーストックス,0
2013,7011202003799,登記記録の閉鎖等,0,2023-09-06,2023-09-04,有限会社田中ベニヤ板商会,,有限会社,東京都,中野区,本町２丁目３７番４号,,13,114,1640012,,,2023-09-04,清算の結了等,,,2015-10-05,1,,,,,タナカベニヤイタショウカイ,0
2032,7012705001570,登記記録の閉鎖等,0,2023-09-06,2023-08-31,一般社団法人清瀬文化スポーツ事業団,,その他の設立登記法人,東京都,清瀬市,上清戸２丁目５番１号,,13,221,2040013,,,2023-08-31,清算の結了等,,,2015-10-05,1,,,,,キヨセブンカスポーツジギョウダン,0
2035,7013301028974,登記記録の閉鎖等,0,2023-09-06,2023-08-31,株式会社こあっぷ,,株式会社,東京都,中央区,銀座１丁目２２番１１号,,13,102,1040061,,,2023-08-31,合併による解散等,4010001178104,令和５年８月１５日東京都千代田区神田佐久間町二丁目１３番３６号株式会社Ｎｔａｉｌ（4010001178104）に合併し解散,2015-10-05,1,,,,,コアップ,0
2040,7020001004958,登記記録の閉鎖等,0,2023-09-06,2023-09-01,株式会社京和精機,,株式会社,神奈川県,横浜市旭区,鶴ケ峰本町１丁目３０番１９号,,14,112,2410021,,,2023-09-01,合併による解散等,9020001004956,令和５年９月１日横浜市旭区鶴ヶ峰本町一丁目３０番１９号株式会社京和鉄工所（9020001004956）に合併し解散,2015-10-05,1,,,,,キョウワセイキ,0
2052,7021001005748,登記記録の閉鎖等,0,2023-09-06,2023-08-31,マルカツ飲料株式会社,,株式会社,神奈川県,藤沢市,鵠沼橘１丁目１７番４号,,14,205,2510024,,,2023-08-31,清算の結了等,,,2015-10-05,1,,,,,,0
2056,7021002052392,登記記録の閉鎖等,0,2023-09-06,2023-08-31,有限会社たかはし,,有限会社,神奈川県,小田原市,堀之内２４４番地,,14,206,2500853,,,2023-08-31,清算の結了等,,,2015-10-05,1,,,,,タカハシ,0
2057,7021002065626,登記記録の閉鎖等,0,2023-09-06,2023-08-31,有限会社司機工,,有限会社,神奈川県,横須賀市,田浦町５丁目３５番地,,14,201,2370075,,,2023-08-31,清算の結了等,,,2015-10-05,1,,,,,,0
2071,7030005004227,登記記録の閉鎖等,0,2023-09-06,2023-08-10,特定非営利活動法人所沢市いきいきクラブ,,その他の設立登記法人,埼玉県,所沢市,緑町１丁目６番１７－５０２号,,11,208,3591111,,,2023-08-10,清算の結了等,,,2015-10-05,1,,,,,トコロザワシイキイキクラブ,0
2072,7040001007777,登記記録の閉鎖等,0,2023-09-06,2023-08-22,ユニクローバー株式会社,,株式会社,千葉県,千葉市花見川区,朝日ケ丘３丁目１３番１３号,,12,102,2620019,,,2023-08-22,清算の結了等,,,2015-10-05,1,,,,,ユニクローバー,0
2081,7040002047038,登記記録の閉鎖等,0,2023-09-06,2023-08-21,高橋造園土木有限会社,,有限会社,千葉県,松戸市,河原塚２６９番地１,,12,207,2702254,,,2023-08-21,清算の結了等,,,2015-10-05,1,,,,,タカハシゾウエンドボク,0
2088,7060001031791,登記記録の閉鎖等,0,2023-09-06,2023-08-29,パーソナリティ株式会社,,株式会社,栃木県,足利市,永楽町８番地２,,09,202,3260055,,,2023-08-29,清算の結了等,,,2019-07-31,1,,,,,パーソナリティ,0
2105,7110002028914,登記記録の閉鎖等,0,2023-09-06,2023-09-01,有限会社平沢牛乳店,,有限会社,新潟県,長岡市,長町１丁目１６６６番地２,,15,202,9400053,,,2023-09-01,清算の結了等,,,2015-10-05,1,,,,,ヒラサワギュウニュウテン,0
2125,7120101047343,登記記録の閉鎖等,0,2023-09-06,2023-09-04,山浩建設株式会社,,株式会社,大阪府,泉大津市,助松団地３番８号,,27,206,5950007,,,2023-09-04,清算の結了等,,,2015-10-05,1,,,,,,0
2128,7122001013838,登記記録の閉鎖等,0,2023-09-06,2023-08-31,株式会社Ｂ・Ｆ軽貨物,,株式会社,大阪府,大阪市中央区,瓦町２丁目１番１２号,,27,128,5410048,,,2023-08-31,清算の結了等,,,2015-10-05,1,,,,,ビーエフケイカモツ,0
2142,7140001094921,登記記録の閉鎖等,0,2023-09-06,2023-09-01,株式会社サザンクロス,,株式会社,大阪府,和泉市,太町９４０番地の１３,,27,219,5940003,,,2023-09-01,合併による解散等,2120101041895,令和５年９月１日大阪府和泉市尾井町一丁目９番１号株式会社北信（2120101041895）に合併し解散,2015-10-05,1,,,,,サザンクロス,0
2149,7170001001321,登記記録の閉鎖等,0,2023-09-06,2023-09-05,株式会社サタケ,,株式会社,和歌山県,和歌山市,新中通３丁目１５番地,,30,201,6408376,,,2023-09-05,清算の結了等,,,2015-10-05,1,,,,,,0
2150,7170001007979,登記記録の閉鎖等,0,2023-09-06,2023-09-05,サンキョーコムテック株式会社,,株式会社,和歌山県,岩出市,川尻４２番地の１０,,30,209,6496231,,,2023-09-05,清算の結了等,,,2015-10-05,1,,,,,サンキョーコムテック,0
2151,7180001019536,登記記録の閉鎖等,0,2023-09-06,2023-09-01,佐藤興業株式会社,,株式会社,愛知県,名古屋市中川区,松重町４番２２号,,23,110,4540003,,,2023-09-01,清算の結了等,,,2015-10-05,1,,,,,サトウコウギョウ,0
2153,7180001053007,登記記録の閉鎖等,0,2023-09-06,2023-09-01,ツーハンズ株式会社,,株式会社,愛知県,名古屋市南区,砂口町１１９番地,,23,112,4570054,,,2023-09-01,清算の結了等,,,2015-10-05,1,,,,,ツーハンズ,0
2158,7180001137494,登記記録の閉鎖等,0,2023-09-06,2023-08-31,株式会社ｌｉｖｅｌｉｓｓ,,株式会社,愛知県,名古屋市昭和区,萩原町５丁目２０番地,,23,107,4660852,,,2023-08-31,清算の結了等,,,2019-07-25,1,,,,,リブリス,0
2175,7200002002884,登記記録の閉鎖等,0,2023-09-06,2023-09-04,有限会社立川被服,,有限会社,岐阜県,岐阜市,長森本町１丁目１９番１５号,,21,201,5008228,,,2023-09-04,清算の結了等,,,2015-10-05,1,,,,,タチカワヒフク,0
2193,7260002028239,登記記録の閉鎖等,0,2023-09-06,2023-09-01,有限会社ケア・サービス津山,,有限会社,岡山県,津山市,河原町２８番地の１,,33,203,7080033,,,2023-09-01,清算の結了等,,,2015-10-05,1,,,,,ケアサービスツヤマ,0
2201,7290002007883,登記記録の閉鎖等,0,2023-09-06,2023-09-01,有限会社川野ビル,,有限会社,福岡県,福岡市早良区,西新２丁目６番１１号,,40,137,8140002,,,2023-09-01,合併による解散等,9290001006422,令和５年９月１日福岡市中央区今泉一丁目１１番１２号英進館ホールディングス株式会社（9290001006422）に合併し解散,2015-10-05,1,,,,,カワノビル,0
2205,7290801021861,登記記録の閉鎖等,0,2023-09-06,2023-09-04,株式会社グロースリング,,株式会社,福岡県,北九州市若松区,青葉台南３丁目１番６号,,40,103,8080142,,,2023-09-04,清算の結了等,,,2015-10-05,1,,,,,グロースリング,0
2229,7370001038888,登記記録の閉鎖等,0,2023-09-06,2023-08-31,タカヒロテン株式会社,,株式会社,宮城県,多賀城市,桜木１丁目１番１６号ホーユウコンフォルト多賀城３１１号,,04,209,9850842,,,2023-08-31,清算の結了等,,,2015-12-07,1,,,,,タカヒロテン,0
2231,7370202003674,登記記録の閉鎖等,0,2023-09-06,2023-08-31,有限会社加美建硝店,,有限会社,宮城県,加美郡加美町,字矢越３１６番地,,04,445,9814265,,,2023-08-31,清算の結了等,,,2015-10-05,1,,,,,カミケンショウテン,0
2232,7370802000740,登記記録の閉鎖等,0,2023-09-06,2023-08-31,有限会社阿部電子,,有限会社,宮城県,岩沼市,桜３丁目１３番７号,,04,211,9892433,,,2023-08-31,清算の結了等,,,2015-10-05,1,,,,,アベデンシ,0
2234,7390001010738,登記記録の閉鎖等,0,2023-09-06,2023-09-04,株式会社米澤新聞社,,株式会社,山形県,米沢市,門東町３丁目３番７号,,06,202,9920039,,,2023-09-04,清算の結了等,,,2015-10-05,1,,,,,ヨネザワシンブンシャ,0
2238,7410002011344,登記記録の閉鎖等,0,2023-09-06,2023-08-25,有限会社角間川ショッピング,,有限会社,秋田県,大仙市,角間川町字中町頭１１８番地１,,05,212,0141413,,,2023-08-25,清算の結了等,,,2023-07-05,1,,,,,,0
2255,7500002015435,登記記録の閉鎖等,0,2023-09-06,2023-09-01,有限会社ケイツーオート,,有限会社,愛媛県,新居浜市,萩生２４８番地の２,,38,205,7920050,,,2023-09-01,清算の結了等,,,2015-10-05,1,,,,,ケイツーオート,0
2268,8010001086179,登記記録の閉鎖等,0,2023-09-06,2023-08-25,株式会社ハイドアウト,,株式会社,東京都,中央区,日本橋浜町２丁目５６番２号,,13,102,1030007,,,2023-08-25,清算の結了等,,,2015-10-05,1,,,,,ハイドアウト,0
2284,8010401023079,登記記録の閉鎖等,0,2023-09-06,2023-08-31,株式会社川島事務所,,株式会社,東京都,杉並区,永福４丁目６番１９号,,13,115,1680064,,,2023-08-31,清算の結了等,,,2015-10-05,1,,,,,,0
2301,8010701005149,登記記録の閉鎖等,0,2023-09-06,2023-09-01,株式会社セキグチ,,株式会社,東京都,品川区,北品川３丁目７番３３号,,13,109,1400001,,,2023-09-01,合併による解散等,8010701000331,令和５年９月１日東京都品川区北品川三丁目７番３３号株式会社アイベック（8010701000331）に合併し解散,2015-10-05,1,,,,,セキグチ,0
2305,8010702001667,登記記録の閉鎖等,0,2023-09-06,2023-08-31,有限会社旺富社,,有限会社,東京都,品川区,旗の台２丁目９番３４－４０２号,,13,109,1420064,,,2023-08-31,清算の結了等,,,2015-10-05,1,,,,,オウトミシャ,0
2308,8010802014890,登記記録の閉鎖等,0,2023-09-06,2023-08-25,山秀電気工亊有限会社,,有限会社,東京都,大田区,千鳥１丁目１０番２１号,,13,111,1460083,,,2023-08-25,清算の結了等,,,2015-10-05,1,,,,,ヤマヒデデンキコウジ,0
2309,8010901050705,登記記録の閉鎖等,0,2023-09-06,2023-08-31,来住コンサルティング株式会社,,株式会社,東京都,世田谷区,若林５丁目４１番９号,,13,112,1540023,,,2023-08-31,清算の結了等,,,2022-04-15,1,,,,,ライジュウコンサルティング,0
2311,8010903004031,登記記録の閉鎖等,0,2023-09-06,2023-08-31,合同会社ＩＰＭ,,合同会社,東京都,世田谷区,南烏山５丁目３－１１ＡＮＳ・Ｉ－３０１号室,,13,112,1570062,,,2023-08-31,清算の結了等,,,2018-01-05,1,,,,,アイピイエム,0
2315,8011001070569,登記記録の閉鎖等,0,2023-09-06,2023-09-01,株式会社ビルガード,,株式会社,東京都,渋谷区,笹塚１丁目４番４号,,13,113,1510073,,,2023-09-01,清算の結了等,,,2015-10-05,1,,,,,ビルガード,0
2339,8011601000925,登記記録の閉鎖等,0,2023-09-06,2023-09-01,株式会社英林堂,,株式会社,東京都,練馬区,東大泉６丁目３４番４１号,,13,120,1780063,,,2023-09-01,清算の結了等,,,2015-10-05,1,,,,,エイリンドウ,0
2347,8012402016375,登記記録の閉鎖等,0,2023-09-06,2023-09-01,有限会社エムワイクルーズ,,有限会社,東京都,武蔵野市,吉祥寺本町２丁目７番３号,,13,203,1800004,,,2023-09-01,清算の結了等,,,2015-10-05,1,,,,,エムワイクルーズ,0
2356,8013302003950,登記記録の閉鎖等,0,2023-09-06,2023-09-01,有限会社三洋印刷工芸,,有限会社,東京都,豊島区,西池袋４丁目２８番１号,,13,116,1710021,,,2023-09-01,清算の結了等,,,2015-10-05,1,,,,,サンヨウインサツコウゲイ,0
2358,8020001014650,登記記録の閉鎖等,0,2023-09-06,2023-09-01,株式会社京和機械製作所,,株式会社,神奈川県,横浜市旭区,鶴ケ峰本町１丁目３０番１９号,,14,112,2410021,,,2023-09-01,合併による解散等,9020001004956,令和５年９月１日横浜市旭区鶴ヶ峰本町一丁目３０番１９号株式会社京和鉄工所（9020001004956）に合併し解散,2015-10-05,1,,,,,キョウワキカイセイサクジョ,0
2373,8021001057020,登記記録の閉鎖等,0,2023-09-06,2023-09-01,関野商事株式会社,,株式会社,神奈川県,横浜市西区,北幸２丁目７番１０号高見澤ビルディング５階－Ｂ,,14,103,2200004,,,2023-09-01,合併による解散等,7020001083770,令和５年９月１日横浜市西区北幸二丁目７番１０号高見澤ビルディング５階－Ｂ株式会社ティーアールコーポレーション（7020001083770）に合併し解散,2015-10-05,1,,,,,セキノショウジ,0
2375,8021001067408,登記記録の閉鎖等,0,2023-09-06,2023-08-29,海老名商店株式会社,,株式会社,神奈川県,海老名市,国分南１丁目２番１７号第２三幸ビル３０１,,14,215,2430405,,,2023-08-29,清算の結了等,,,2019-06-03,1,,,,,エビナショウテン,0
2412,8060001018284,登記記録の閉鎖等,0,2023-09-06,2023-08-28,家富電設株式会社,,株式会社,栃木県,足利市,弥生町５９番地８,,09,202,3260036,,,2023-08-28,清算の結了等,,,2015-10-05,1,,,,,イエトミデンセツ,0
2414,8060002029248,登記記録の閉鎖等,0,2023-09-06,2023-08-28,有限会社福田建築,,有限会社,栃木県,小山市,大字千駄塚１５３番地１,,09,208,3290202,,,2023-08-28,清算の結了等,,,2015-10-05,1,,,,,フクダケンチク,0
2417,8070001004671,登記記録の閉鎖等,0,2023-09-06,2023-09-01,株式会社人財プログレスネットワーク,,株式会社,群馬県,前橋市,天川大島町１３９２番地,,10,201,3792154,,,2023-09-01,清算の結了等,,,2015-10-05,1,,,,,ジンザイプログレスネットワーク,0
2421,8080002005692,登記記録の閉鎖等,0,2023-09-06,2023-09-01,有限会社水野新聞店,,有限会社,静岡県,静岡市駿河区,八幡１丁目３番１２号,,22,102,4228076,,,2023-09-01,清算の結了等,,,2015-10-05,1,,,,,ミズノシンブンテン,0
2429,8080402020432,登記記録の閉鎖等,0,2023-09-06,2023-09-04,有限会社冨田織物,,有限会社,静岡県,磐田市,福田５１６番地の２,,22,211,4371203,,,2023-09-04,清算の結了等,,,2015-10-05,1,,,,,トミタオリモノ,0
2433,8100005011875,登記記録の閉鎖等,0,2023-09-06,2023-08-31,一般社団法人アンテナさくほ,,その他の設立登記法人,長野県,南佐久郡佐久穂町,大字海瀬３２３番地４,,20,309,3840503,,,2023-08-31,清算の結了等,,,2016-06-10,1,,,,,アンテナサクホ,0
2447,8120005001494,登記記録の閉鎖等,0,2023-09-06,2023-08-21,東成寺,,その他の設立登記法人,大阪府,大阪市東成区,深江北２丁目１３番２０号,,27,115,5370001,,,2023-08-21,合併による解散等,9120005000875,令和５年８月２１日大阪市天王寺区餌差町２番１７号興徳寺（9120005000875）に合併し解散,2015-10-05,1,,,,,トウジョウジ,0
2450,8120101043795,登記記録の閉鎖等,0,2023-09-06,2023-09-04,株式会社一冨士,,株式会社,大阪府,和泉市,池田下町２０６０番地の１,,27,219,5940032,,,2023-09-04,清算の結了等,,,2015-10-05,1,,,,,,0
2466,8130001010028,登記記録の閉鎖等,0,2023-09-06,2023-08-23,株式会社岩井工務店,,株式会社,京都府,京都市南区,上鳥羽岩ノ本町１番地,,26,107,6018136,,,2023-08-23,清算の結了等,,,2015-10-05,1,,,,,イワイコウムテン,0
2494,8180003021274,登記記録の閉鎖等,0,2023-09-06,2023-08-29,ＣｏｓｍｉｃＬａｔｔｅ合同会社,,合同会社,愛知県,名古屋市東区,矢田４丁目８番４１号,,23,102,4610040,,,2023-08-29,清算の結了等,,,2020-06-09,1,,,,,コズミックラテ,0
2503,8200001003643,登記記録の閉鎖等,0,2023-09-06,2023-09-05,株式会社東伸,,株式会社,岐阜県,岐阜市,日ノ本町１丁目９番地,,21,201,5008852,,,2023-09-05,清算の結了等,,,2015-10-05,1,,,,,トウシン,0
2506,8210001014805,登記記録の閉鎖等,0,2023-09-06,2023-08-31,オオツカ通商株式会社,,株式会社,福井県,越前市,平林町第１２号４番地,,18,209,9150044,,,2023-08-31,清算の結了等,,,2015-10-05,1,,,,,オオツカツウショウ,0
2509,8220002016469,登記記録の閉鎖等,0,2023-09-06,2023-09-04,有限会社ナーシングアート,,有限会社,石川県,河北郡内灘町,字向粟崎３丁目３１番地,,17,365,9200274,,,2023-09-04,清算の結了等,,,2015-10-05,1,,,,,ナーシングアート,0
2513,8230002000496,登記記録の閉鎖等,0,2023-09-06,2023-09-01,有限会社エス・ケー・エス興業,,有限会社,富山県,富山市,犬島新町１丁目３番１５号,,16,201,9318328,,,2023-09-01,清算の結了等,,,2015-10-05,1,,,,,エスケーエスコウギョウ,0
2519,8260005009920,登記記録の閉鎖等,0,2023-09-06,2023-09-04,一般社団法人池田動物園をおうえんする会,,その他の設立登記法人,岡山県,岡山市南区,福成３丁目１０－４３－１,,33,104,7028022,,,2023-09-04,清算の結了等,,,2015-10-05,1,,,,,イケダドウブツエンヲオウエンスルカイ,0
2528,8290001097900,登記記録の閉鎖等,0,2023-09-06,2023-08-24,株式会社三陽通商九州,,株式会社,福岡県,古賀市,花見南２丁目３番１号,,40,223,8113111,,,2023-08-24,清算の結了等,,,2022-06-16,1,,,,,サンヨウツウショウキュウシュウ,0
2543,8340001008637,登記記録の閉鎖等,0,2023-09-06,2023-09-01,ニチエイ企画株式会社,,株式会社,鹿児島県,薩摩川内市,国分寺町３２０５番地１６,,46,215,8950073,,,2023-09-01,清算の結了等,,,2015-10-05,1,,,,,ニチエイキカク,0
2550,8350002011291,登記記録の閉鎖等,0,2023-09-06,2023-08-31,有限会社矢野工業,,有限会社,宮崎県,日向市,東郷町坪谷２４０２番地,,45,206,8830211,,,2023-08-31,清算の結了等,,,2015-10-05,1,,,,,ヤノコウギョウ,0
2566,8400002008217,登記記録の閉鎖等,0,2023-09-06,2023-09-01,有限会社瀬川石材工業,,有限会社,岩手県,花巻市,西宮野目第５地割５０３番地,,03,205,0250002,,,2023-09-01,合併による解散等,8400001005215,令和５年９月１日岩手県花巻市西宮野目第５地割５０３番地株式会社石のセガワ（8400001005215）に合併し解散,2015-10-05,1,,,,,セガワセキザイコウギョウ,0
2587,8470002015280,登記記録の閉鎖等,0,2023-09-06,2023-08-31,有限会社ビューティサロンさかきはら,,有限会社,香川県,坂出市,京町２丁目５番１８号,,37,203,7620001,,,2023-08-31,清算の結了等,,,2015-10-05,1,,,,,ビューティサロンサカキハラ,0
2590,8490003001708,登記記録の閉鎖等,0,2023-09-06,2023-09-01,合同会社畠山果樹園,,合同会社,高知県,香美市,土佐山田町岩積１９９番地,,39,212,7820017,,,2023-09-01,清算の結了等,,,2022-10-17,1,,,,,ハタケヤマカジュエン,0
2593,8500003000732,登記記録の閉鎖等,0,2023-09-06,2023-09-01,合同会社安用,,合同会社,愛媛県,西条市,石延１０８番地１,,38,206,7991335,,,2023-09-01,清算の結了等,,,2015-10-05,1,,,,,ヤスモチ,0
2608,9010001235585,登記記録の閉鎖等,0,2023-09-06,2023-08-24,北秀商事株式会社,,株式会社,東京都,中央区,日本橋浜町２丁目３４番１号,,13,102,1030007,,,2023-08-24,清算の結了等,,,2023-05-30,1,,,,,キタヒデショウジ,0
2620,9010003029465,登記記録の閉鎖等,0,2023-09-06,2023-09-01,合同会社鍛冶町一丁目計画,,合同会社,東京都,千代田区,霞が関３丁目２番５号合同会社ストック・ファイブ気付,,13,101,1000013,,,2023-09-01,清算の結了等,,,2019-03-12,1,,,,,カジマチイッチョウメケイカク,0
2659,9011002026585,登記記録の閉鎖等,0,2023-09-06,2023-09-01,有限会社ワダ管理,,有限会社,東京都,渋谷区,神南１丁目２０番１５号,,13,113,1500041,,,2023-09-01,清算の結了等,,,2015-10-05,1,,,,,ワダカンリ,0
2660,9011003002635,登記記録の閉鎖等,0,2023-09-06,2023-09-01,株式会社フィヨルド,,株式会社,東京都,渋谷区,桜丘町１５番１４号フジビル４０・７階,,13,113,1500031,,,2023-09-01,合併による解散等,8011001142079,令和５年９月１日東京都渋谷区神南一丁目１２番１４号渋谷宮田ビル７１０号室株式会社ロッカ（8011001142079）に合併し解散,2015-10-05,1,,,,,フィヨルド,0
2676,9011702001210,登記記録の閉鎖等,0,2023-09-06,2023-09-01,有限会社インテリア町田,,有限会社,東京都,江戸川区,平井４丁目１４番８号,,13,123,1320035,,,2023-09-01,清算の結了等,,,2015-10-05,1,,,,,インテリアマチダ,0
2709,9021001055790,登記記録の閉鎖等,0,2023-09-06,2023-08-31,株式会社クレアールコレレ,,株式会社,神奈川県,藤沢市,辻堂元町３丁目２番１４号Ｇ２Ｆ,,14,205,2510043,,,2023-08-31,清算の結了等,,,2015-10-05,1,,,,,クレアールコレレ,0
2724,9040001028573,登記記録の閉鎖等,0,2023-09-06,2023-08-21,株式会社信篤,,株式会社,千葉県,市川市,原木２丁目３番２０号,,12,203,2720004,,,2023-08-21,清算の結了等,,,2015-10-05,1,,,,,シントク,0
2733,9040002082652,登記記録の閉鎖等,0,2023-09-06,2023-08-22,有限会社睦観光自動車,,有限会社,千葉県,長生郡睦沢町,岩井７６２番地の１,,12,422,2994412,,,2023-08-22,清算の結了等,,,2015-10-05,1,,,,,,0
2738,9060001010604,登記記録の閉鎖等,0,2023-09-06,2023-08-28,ファースト・コーポレーション株式会社,,株式会社,栃木県,鹿沼市,玉田町３３８番地,,09,205,3220072,,,2023-08-28,清算の結了等,,,2015-10-05,1,,,,,ファーストコーポレーション,0
2750,9080103002794,登記記録の閉鎖等,0,2023-09-06,2023-09-01,ワイケイ工業合同会社,,合同会社,静岡県,富士市,比奈７６０番地の１,,22,210,4170847,,,2023-09-01,合併による解散等,1080101009923,令和５年９月１日静岡県富士市伝法１３２０番地の２２勇和産業株式会社（1080101009923）に合併し解散,2023-05-02,1,,,,,ワイケイコウギョウ,0
2768,9120101022204,登記記録の閉鎖等,0,2023-09-06,2023-09-01,株式会社エリアサポートジャパン大阪,,株式会社,大阪府,堺市西区,上野芝町１丁１９番１１号,,27,144,5938301,,,2023-09-01,清算の結了等,,,2015-10-05,1,,,,,エリアサポートジャパンオオサカ,0
2781,9130001009333,登記記録の閉鎖等,0,2023-09-06,2023-08-24,七七開発株式会社,,株式会社,京都府,京都市東山区,古門前通大和大路東入元町３６８番地,,26,105,6050089,,,2023-08-24,清算の結了等,,,2015-10-05,1,,,,,ナナナナカイハツ,0
2809,9180001125233,登記記録の閉鎖等,0,2023-09-06,2023-08-31,株式会社太陽光発電相談センター,,株式会社,愛知県,名古屋市千種区,末盛通３丁目１５番地の１,,23,101,4640821,,,2023-08-31,清算の結了等,,,2016-10-25,1,,,,,タイヨウコウハツデンソウダンセンター,0
2811,9180001146758,登記記録の閉鎖等,0,2023-09-06,2023-08-31,株式会社ナレッジジュエリーストア,,株式会社,愛知県,一宮市,木曽川町里小牧字武蔵野２１６番地,,23,203,4930005,,,2023-08-31,清算の結了等,,,2021-06-30,1,,,,,ナレッジジュエリーストア,0
2867,9290801021686,登記記録の閉鎖等,0,2023-09-06,2023-09-04,株式会社Ｏｎｅ’ｓＬＩＦＥ,,株式会社,福岡県,北九州市若松区,ひびきの北３－８－１０１,,40,103,8080138,,,2023-09-04,清算の結了等,,,2015-10-05,1,,,,,ワンズライフ,0
2889,9370001046360,登記記録の閉鎖等,0,2023-09-06,2023-09-01,ヤマシュン石田工業株式会社,,株式会社,宮城県,石巻市,新成３丁目７番地１６,,04,202,9862105,,,2023-09-01,清算の結了等,,,2020-11-12,1,,,,,ヤマシュンイシダコウギョウ,0
2903,9390002000595,登記記録の閉鎖等,0,2023-09-06,2023-09-01,有限会社小川ダクト,,有限会社,山形県,山形市,山家町１丁目３番４７号,,06,201,9900063,,,2023-09-01,清算の結了等,,,2015-10-05,1,,,,,オガワダクト,0
2916,9430005010686,登記記録の閉鎖等,0,2023-09-06,2023-08-29,医療法人社団小野瀬整形外科,,その他の設立登記法人,北海道,室蘭市,知利別町２丁目２６番７号,,01,205,0500076,,,2023-08-29,清算の結了等,,,2015-10-05,1,,,,,オノセセイケイゲカ,0
