sequenceNumber,corporateNumber,process,correct,updateDate,changeDate,name,nameImageId,kind,prefectureName,cityName,streetNumber,addressImageId,prefectureCode,cityCode,postCode,addressOutside,addressOutsideImageId,closeDate,closeCause,successorCorporateNumber,changeCause,assignmentDate,latest,enName,enPrefectureName,enCityName,enAddressOutside,furigana,hihyoji
17,1010401147768,登記記録の閉鎖等,0,2025-04-28,2025-04-03,ＳＴＥＬＬＡＲ　ＩＮＤＵＳＴＲＩＥＳ株式会社,,株式会社,東京都,港区,元麻布２丁目１１番１７－２０８号,,13,103,1060046,,,2025-04-03,清算の結了等,,,2019-09-02,1,,,,,ステラーインダストリーズ,0
30,1010405014997,登記記録の閉鎖等,0,2025-04-28,2025-04-04,一般社団法人Ｉｉｋｕｒａ,,その他の設立登記法人,東京都,港区,元赤坂１丁目１番７号,,13,103,1070051,,,2025-04-04,清算の結了等,,,2016-08-02,1,,,,,イイクラ,0
69,1011302011261,登記記録の閉鎖等,0,2025-04-28,2025-04-14,有限会社ふくや,,有限会社,東京都,杉並区,荻窪５丁目１１番５号,,13,115,1670051,,,2025-04-14,清算の結了等,,,2015-10-05,1,,,,,,0
74,1011402019254,登記記録の閉鎖等,0,2025-04-28,2025-04-24,有限会社リミックス,,有限会社,東京都,板橋区,大谷口１丁目３６番１０号,,13,119,1730035,,,2025-04-24,清算の結了等,,,2015-10-05,1,,,,,,0
76,1011501003885,登記記録の閉鎖等,0,2025-04-28,2025-04-22,株式会社ビエント,,株式会社,東京都,北区,赤羽西６丁目３２番１６号,,13,117,1150055,,,2025-04-22,清算の結了等,,,2015-10-05,1,,,,,ビエント,0
77,1011501014338,登記記録の閉鎖等,0,2025-04-28,2025-04-23,株式会社ビーケイシー,,株式会社,東京都,荒川区,東日暮里６丁目３２番１７号,,13,118,1160014,,,2025-04-23,清算の結了等,,,2015-10-05,1,,,,,ビーケイシー,0
78,1011602005806,登記記録の閉鎖等,0,2025-04-28,2025-04-14,有限会社造園情報システム,,有限会社,東京都,練馬区,富士見台１丁目１２番１６号,,13,120,1770034,,,2025-04-14,清算の結了等,,,2015-10-05,1,,,,,ゾウエンジョウホウシステム,0
101,1021001023268,登記記録の閉鎖等,0,2025-04-28,2025-04-25,株式会社ワタナベ,,株式会社,神奈川県,厚木市,森の里２丁目２番１－１０６号,,14,212,2430122,,,2025-04-25,清算の結了等,,,2015-10-05,1,,,,,ワタナベ,0
102,1021001032839,登記記録の閉鎖等,0,2025-04-28,2025-04-14,大営不動産株式会社,,株式会社,神奈川県,小田原市,栄町１丁目１１番１４号,,14,206,2500011,,,2025-04-14,清算の結了等,,,2015-10-05,1,,,,,ダイエイフドウサン,0
104,1021001067455,登記記録の閉鎖等,0,2025-04-28,2025-04-21,株式会社Ｋ－ＧＲＡＣＥ,,株式会社,神奈川県,小田原市,中曽根５２－１,,14,206,2500866,,,2025-04-21,清算の結了等,,,2019-06-07,1,,,,,ケイグレイス,0
108,1021002071860,登記記録の閉鎖等,0,2025-04-28,2025-04-18,有限会社三戸浜荘,,有限会社,神奈川県,三浦市,初声町三戸２４５２番地,,14,210,2380112,,,2025-04-18,清算の結了等,,,2015-10-05,1,,,,,ミトハマソウ,0
140,1050002038231,登記記録の閉鎖等,0,2025-04-28,2025-04-15,有限会社渡辺工業,,有限会社,茨城県,つくばみらい市,下島７５番地,,08,235,3002324,,,2025-04-15,清算の結了等,,,2015-10-05,1,,,,,ワタナベコウギョウ,0
146,1070002002524,登記記録の閉鎖等,0,2025-04-28,2025-04-21,有限会社シンコーケース,,有限会社,群馬県,前橋市,茂木町１３５１番地１,,10,201,3710232,,,2025-04-21,清算の結了等,,,2015-10-05,1,,,,,シンコーケース,0
147,1080002013495,登記記録の閉鎖等,0,2025-04-28,2025-04-23,有限会社大石板金工業所,,有限会社,静岡県,島田市,御仮屋町８８８４番地の１,,22,209,4270053,,,2025-04-23,清算の結了等,,,2015-10-05,1,,,,,オオイシバンキンコウギョウショ,0
150,1080102019764,登記記録の閉鎖等,0,2025-04-28,2025-04-17,有限会社建築工房タケウチ,,有限会社,静岡県,伊東市,八幡野１３０５番地の７,,22,208,4130232,,,2025-04-17,清算の結了等,,,2015-10-05,1,,,,,ケンチクコウボウタケウチ,0
186,1140001118446,登記記録の閉鎖等,0,2025-04-28,2025-04-22,株式会社ＢｙＡｙ,,株式会社,兵庫県,姫路市,西今宿２丁目５番１７号,,28,201,6700061,,,2025-04-22,清算の結了等,,,2020-08-21,1,,,,,ビーアイ,0
205,1180301015513,登記記録の閉鎖等,0,2025-04-28,2025-04-25,株式会社ホンダ,,株式会社,愛知県,碧南市,須磨町５番地１６,,23,209,4470854,,,2025-04-25,清算の結了等,,,2015-10-05,1,,,,,ホンダ,0
208,1190001011992,登記記録の閉鎖等,0,2025-04-28,2025-04-16,株式会社赤塚興産,,株式会社,三重県,桑名市,吉之丸８番地,,24,205,5110032,,,2025-04-16,清算の結了等,,,2015-10-05,1,,,,,アカツカコウサン,0
219,1210003000462,登記記録の閉鎖等,0,2025-04-28,2025-04-21,合同会社カンパニュラコンサルタンツ,,合同会社,福井県,福井市,大手２丁目３番１号シンフォニアガーデン福井１２０５号室,,18,201,9100005,,,2025-04-21,清算の結了等,,,2015-10-05,1,,,,,カンパニュラコンサルタンツ,0
226,1260001011556,登記記録の閉鎖等,0,2025-04-28,2025-04-23,株式会社ＫＡＷＡＧＵＣＨＩ,,株式会社,岡山県,岡山市中区,高屋７２番地１旭川ハイツＡ－２０２,,33,102,7038233,,,2025-04-23,清算の結了等,,,2015-10-05,1,,,,,カワグチ,0
227,1260001021225,登記記録の閉鎖等,0,2025-04-28,2025-04-24,株式会社経新開発,,株式会社,岡山県,津山市,林田１９１３番地１８,,33,203,7080822,,,2025-04-24,清算の結了等,,,2015-10-05,1,,,,,ケイシンカイハツ,0
229,1260002026124,登記記録の閉鎖等,0,2025-04-28,2025-04-16,有限会社マリコ,,有限会社,岡山県,井原市,東江原町９７２番地の１,,33,207,7150003,,,2025-04-16,清算の結了等,,,2015-10-05,1,,,,,,0
230,1260005002634,登記記録の閉鎖等,0,2025-04-28,2025-04-14,医療法人賀陽クリニック,,その他の設立登記法人,岡山県,加賀郡吉備中央町,湯山１００３番地１,,33,681,7161112,,,2025-04-14,清算の結了等,,,2015-10-05,1,,,,,カヨウクリニック,0
240,1290002054774,登記記録の閉鎖等,0,2025-04-28,2025-04-10,タカタフーヅ有限会社,,有限会社,福岡県,みやま市,高田町田尻１４２５番地,,40,229,8390224,,,2025-04-10,清算の結了等,,,2015-10-05,1,,,,,,0
245,1290005006707,登記記録の閉鎖等,0,2025-04-28,2025-04-16,医療法人社団悠雅,,その他の設立登記法人,福岡県,太宰府市,五条２丁目１１番３号,,40,221,8180125,,,2025-04-16,清算の結了等,,,2015-10-05,1,,,,,ユウガ,0
250,1310001014479,登記記録の閉鎖等,0,2025-04-28,2025-04-25,爽和建装株式会社,,株式会社,長崎県,長崎市,三原２丁目１２番８号,,42,201,8528123,,,2025-04-25,清算の結了等,,,2016-10-06,1,,,,,ソウワケンソウ,0
258,1350002013848,登記記録の閉鎖等,0,2025-04-28,2025-04-23,有限会社エフビー宮崎,,有限会社,宮崎県,都城市,神之山町２４０８番地１,,45,202,8850005,,,2025-04-23,合併による解散等,7010701025908,令和７年４月１日東京都品川区上大崎四丁目５番３７号古河電池販売株式会社（7010701025908）に合併し解散,2015-10-05,1,,,,,エフビーミヤザキ,0
274,1400002001681,登記記録の閉鎖等,0,2025-04-28,2025-04-10,有限会社杉田商会,,有限会社,岩手県,盛岡市,大館町１６番７号,,03,201,0200147,,,2025-04-10,清算の結了等,,,2015-10-05,1,,,,,スギタショウカイ,0
278,1420002005334,登記記録の閉鎖等,0,2025-04-28,2025-04-17,有限会社スターザ,,有限会社,青森県,青森市,浜館４丁目８番地８,,02,201,0300947,,,2025-04-17,清算の結了等,,,2015-10-05,1,,,,,,0
279,1430001021463,登記記録の閉鎖等,0,2025-04-28,2025-04-24,北海健商株式会社,,株式会社,北海道,札幌市豊平区,平岸五条１０丁目７番１号,,01,105,0620935,,,2025-04-24,清算の結了等,,,2015-10-05,1,,,,,ホッカイケンショウ,0
282,1430001090392,登記記録の閉鎖等,0,2025-04-28,2025-04-21,株式会社ツインワークス,,株式会社,北海道,札幌市東区,北二十六条東１８丁目２番１５号クルーズハウス元町１０２号,,01,103,0650026,,,2025-04-21,清算の結了等,,,2023-11-09,1,,,,,ツインワークス,0
290,1500002006068,登記記録の閉鎖等,0,2025-04-28,2025-04-23,有限会社本田靖建築設計事務所,,有限会社,愛媛県,松山市,居相３丁目１５番１１号,,38,201,7900934,,,2025-04-23,清算の結了等,,,2015-10-05,1,,,,,ホンダヤスシケンチクセッケイジムショ,0
324,2010403025491,登記記録の閉鎖等,0,2025-04-28,2025-04-09,合同会社Ｒｉｏ　ａｓｓｅｔ　ｍａｎａｇｅｍｅｎｔ,,合同会社,東京都,中央区,銀座１丁目１２－４Ｎ＆Ｅ．ＢＬＤ．７階,,13,102,1040061,,,2025-04-09,清算の結了等,,,2021-06-11,1,,,,,リオアセットマネジメント,0
330,2010601039715,登記記録の閉鎖等,0,2025-04-28,2025-04-07,ロジスティードコラボネクスト株式会社,,株式会社,東京都,台東区,上野１丁目１９番１０号,,13,106,1100005,,,2025-04-07,合併による解散等,7050001023567,令和７年４月１日東京都台東区上野一丁目１９番１０号ロジスティード東日本株式会社（7050001023567）に合併し解散,2015-10-05,1,,,,,ロジスティードコラボネクスト,0
331,2010605002339,登記記録の閉鎖等,0,2025-04-28,2025-04-08,医療法人社団公龍会,,その他の設立登記法人,東京都,墨田区,両国４丁目３７番地６号スゴーアネックスビル４階,,13,107,1300026,,,2025-04-08,清算の結了等,,,2015-10-05,1,,,,,コウリュウカイ,0
336,2010905003598,登記記録の閉鎖等,0,2025-04-28,2025-04-16,一般社団法人キャリア教育せんせいアワードプロジェクト,,その他の設立登記法人,東京都,世田谷区,北沢３丁目２７番４号立木ビル２階,,13,112,1550031,,,2025-04-16,清算の結了等,,,2018-05-29,1,,,,,キャリアキョウイクセンセイアワードプロジェクト,0
357,2011602004559,登記記録の閉鎖等,0,2025-04-28,2025-04-17,有限会社サンフレッシュ,,有限会社,東京都,練馬区,田柄４丁目２０番３０号,,13,120,1790073,,,2025-04-17,清算の結了等,,,2015-10-05,1,,,,,サンフレッシュ,0
360,2011701002645,登記記録の閉鎖等,0,2025-04-28,2025-04-21,京葉アドバンス物流株式会社,,株式会社,東京都,江戸川区,松江２丁目２１番１４号Ｃ,,13,123,1320025,,,2025-04-21,清算の結了等,,,2015-10-05,1,,,,,ケイヨウアドバンスブツリュウ,0
361,2011702017064,登記記録の閉鎖等,0,2025-04-28,2025-04-16,有限会社コーイン,,有限会社,東京都,江戸川区,春江町３丁目２５番２３号,,13,123,1320003,,,2025-04-16,清算の結了等,,,2015-10-05,1,,,,,コーイン,0
362,2011801017023,登記記録の閉鎖等,0,2025-04-28,2025-04-24,Ｓ＆Ｓ株式会社,,株式会社,東京都,足立区,大谷田２丁目１７番７号,,13,121,1200001,,,2025-04-24,清算の結了等,,,2015-10-05,1,,,,,エスアンドエス,0
367,2012403003221,登記記録の閉鎖等,0,2025-04-28,2025-04-16,合同会社もっこり,,合同会社,東京都,府中市,四谷３丁目６９番地の２,,13,206,1830035,,,2025-04-16,清算の結了等,,,2017-10-11,1,,,,,モッコリ,0
369,2012801006627,登記記録の閉鎖等,0,2025-04-28,2025-04-07,株式会社アースタック,,株式会社,東京都,立川市,曙町２丁目８番２９号村野ビル６階,,13,202,1900012,,,2025-04-07,合併による解散等,2012801006767,令和７年４月１日東京都立川市曙町二丁目８番２９号村野ビル６階株式会社鑑定ジャパン（2012801006767）に合併し解散,2015-10-05,1,,,,,アースタック,0
377,2020001059726,登記記録の閉鎖等,0,2025-04-28,2025-04-09,株式会社睦総業,,株式会社,神奈川県,横浜市鶴見区,鶴見中央４丁目１７－１萬屋第２ビル２０１,,14,101,2300051,,,2025-04-09,清算の結了等,,,2015-10-05,1,,,,,,0
381,2021002014001,登記記録の閉鎖等,0,2025-04-28,2025-04-23,有限会社市川技研,,有限会社,神奈川県,鎌倉市,山ノ内１３３６番地,,14,204,2470062,,,2025-04-23,清算の結了等,,,2015-10-05,1,,,,,イチカワギケン,0
386,2030001084599,登記記録の閉鎖等,0,2025-04-28,2025-04-23,日本板硝子関東販売株式会社,,株式会社,埼玉県,熊谷市,石原１１９８番地,,11,202,3600816,,,2025-04-23,合併による解散等,3010501030079,令和７年４月１日東京都台東区北上野二丁目２３番５号日本板硝子Ｓ＆Ｓ株式会社（3010501030079）に合併し解散,2015-10-05,1,,,,,ニホンイタガラスカントウハンバイ,0
394,2030002053594,登記記録の閉鎖等,0,2025-04-28,2025-04-24,キヨシ電機工事有限会社,,有限会社,埼玉県,上尾市,今泉１丁目３番地１１,,11,219,3620047,,,2025-04-24,清算の結了等,,,2015-10-05,1,,,,,キヨシデンキコウジ,0
452,2122002010905,登記記録の閉鎖等,0,2025-04-28,2025-04-25,有限会社ライフクリエイト,,有限会社,大阪府,東大阪市,長田東２丁目１番３１－２０１号,,27,227,5770012,,,2025-04-25,清算の結了等,,,2015-10-05,1,,,,,,0
463,2140001128980,登記記録の閉鎖等,0,2025-04-28,2025-04-23,株式会社ＨＯＦＦ神戸,,株式会社,兵庫県,神戸市中央区,中山手通１丁目９番２号ＭＯＺＡＮビル２０３号,,28,110,6500004,,,2025-04-23,清算の結了等,,,2023-02-03,1,,,,,ホフコウベ,0
464,2140002045416,登記記録の閉鎖等,0,2025-04-28,2025-04-23,有限会社テクニカ,,有限会社,兵庫県,尼崎市,額田町４番２０号,,28,202,6610962,,,2025-04-23,清算の結了等,,,2015-10-05,1,,,,,テクニカ,0
481,2180003022121,登記記録の閉鎖等,0,2025-04-28,2025-04-15,ｂｅｒｉｃｈ合同会社,,合同会社,愛知県,名古屋市西区,稲生町字杁先２２００番地１０キャパシティ３２４,,23,104,4510012,,,2025-04-15,清算の結了等,,,2021-02-12,1,,,,,ベリッチ,0
493,2200001010785,登記記録の閉鎖等,0,2025-04-28,2025-04-10,株式会社エスライングループ本社,,株式会社,岐阜県,羽島郡岐南町,平成４丁目６８番地,,21,302,5016013,,,2025-04-10,合併による解散等,3200001042489,令和７年４月１日岐阜県羽島郡岐南町平成四丁目６８番地株式会社エスライングループ本社（3200001042489）に合併し解散,2015-10-05,1,,,,,エスライングループホンシャ,0
494,2200001024827,登記記録の閉鎖等,0,2025-04-28,2025-04-14,株式会社小瀬徳酒店,,株式会社,岐阜県,高山市,朝日町９番地,,21,203,5060017,,,2025-04-14,清算の結了等,,,2015-10-05,1,,,,,コセトクサケテン,0
502,2210001012450,登記記録の閉鎖等,0,2025-04-28,2025-04-22,リトルビッグ株式会社,,株式会社,福井県,越前市,小野谷町１４号１番地の２,,18,209,9150054,,,2025-04-22,清算の結了等,,,2015-10-05,1,,,,,リトルビッグ,0
503,2210002003498,登記記録の閉鎖等,0,2025-04-28,2025-04-23,有限会社マックスシステム,,有限会社,福井県,福井市,花堂中２丁目２５番４号,,18,201,9188014,,,2025-04-23,清算の結了等,,,2015-10-05,1,,,,,マックスシステム,0
519,2260005004778,登記記録の閉鎖等,0,2025-04-28,2025-04-15,特定非営利活動法人いっすんほうし,,その他の設立登記法人,岡山県,倉敷市,寿町７番６号,,33,202,7100813,,,2025-04-15,清算の結了等,,,2015-10-05,1,,,,,イッスンホウシ,0
547,2430001040958,登記記録の閉鎖等,0,2025-04-28,2025-04-23,株式会社メディカルジョブセンター,,株式会社,東京都,新宿区,西新宿６丁目５番１号新宿アイランドタワー６階,,13,104,1600023,,,2025-04-23,合併による解散等,9010401148239,令和７年４月１日東京都港区新橋五丁目２３番１０号片山ビル６階ＬＤＴ株式会社（9010401148239）に合併し解散,2015-10-05,1,,,,,メディカルジョブセンター,0
549,2430001088452,登記記録の閉鎖等,0,2025-04-28,2025-04-18,株式会社ステラ企画,,株式会社,北海道,札幌市中央区,南五条東３丁目１１番地１Ｂ－ＳＱＵＡＲＥ３０３Ｂ,,01,101,0600055,,,2025-04-18,清算の結了等,,,2023-02-16,1,,,,,ステラキカク,0
614,3010901054413,登記記録の閉鎖等,0,2025-04-28,2025-04-24,株式会社セカンド,,株式会社,東京都,世田谷区,新町２丁目２７番１号,,13,112,1540014,,,2025-04-24,清算の結了等,,,2023-12-25,1,,,,,セカンド,0
620,3011001144897,登記記録の閉鎖等,0,2025-04-28,2025-04-01,Ｄｉｇｉｔａｒ株式会社,,株式会社,東京都,渋谷区,東２丁目２２番１０号メディアパーク八島ビル４階,,13,113,1500011,,,2025-04-01,合併による解散等,8010401098864,令和７年４月１日東京都渋谷区東三丁目１６番３号ＳＴＯＲＥＳ株式会社（8010401098864）に合併し解散,2022-01-06,1,,,,,デジター,0
623,3011101018943,登記記録の閉鎖等,0,2025-04-28,2025-04-07,株式会社プラテツク,,株式会社,東京都,新宿区,西五軒町９番７号,,13,104,1620812,,,2025-04-07,清算の結了等,,,2015-10-05,1,,,,,プラテック,0
625,3011101060846,登記記録の閉鎖等,0,2025-04-28,2025-04-21,東芝ＩＴコントロールシステム株式会社,,株式会社,東京都,新宿区,西新宿６丁目２４番１号,,13,104,1600023,,,2025-04-21,合併による解散等,9013101003878,令和７年４月１日神奈川県川崎市幸区堀川町７２番地３４東芝ユニファイドテクノロジーズ株式会社（9013101003878）に合併し解散,2015-10-05,1,,,,,トウシバアイティーコントロールシステム,0
643,3011701002231,登記記録の閉鎖等,0,2025-04-28,2025-04-24,鴨山産業株式会社,,株式会社,神奈川県,茅ヶ崎市,十間坂１丁目５番４９号,,14,207,2530045,,,2025-04-24,清算の結了等,,,2015-10-05,1,,,,,カモヤマサンギョウ,0
668,3021003011203,登記記録の閉鎖等,0,2025-04-28,2025-04-17,合同会社ＶＥＮＣＥＲ,,合同会社,神奈川県,厚木市,中町４丁目２番８号ハイストーンビル３Ｆ,,14,212,2430018,,,2025-04-17,清算の結了等,,,2021-12-20,1,,,,,ヴェンサー,0
672,3030001122309,登記記録の閉鎖等,0,2025-04-28,2025-04-22,株式会社ＫＡＴＥＫＹＯ関東,,株式会社,埼玉県,さいたま市大宮区,宮町２丁目７７番地１マル星第一ビル３階,,11,103,3300802,,,2025-04-22,合併による解散等,4100001000778,令和７年４月１６日長野市南千歳二丁目８番地６株式会社ＫＡＴＥＫＹＯグループ（4100001000778）に合併し解散,2017-09-28,1,,,,,カテキョーカントウ,0
687,3040001100965,登記記録の閉鎖等,0,2025-04-28,2025-04-10,Ｍ＆Ｍ　ＴＲＡＶＥＬ株式会社,,株式会社,千葉県,浦安市,海楽２丁目８番５号,,12,227,2790003,,,2025-04-10,清算の結了等,,,2017-07-19,1,,,,,エムアンドエムトラベル,0
694,3040002007920,登記記録の閉鎖等,0,2025-04-28,2025-04-11,有限会社テクト技研,,有限会社,千葉県,千葉市若葉区,貝塚町４８６番地,,12,104,2640023,,,2025-04-11,清算の結了等,,,2015-10-05,1,,,,,,0
705,3070001010468,登記記録の閉鎖等,0,2025-04-28,2025-04-17,株式会社トウシン,,株式会社,群馬県,高崎市,大橋町４８番地１２,,10,202,3700803,,,2025-04-17,合併による解散等,3180001066243,令和７年４月１日名古屋市中区栄一丁目２２番１６号ＣＫＣネットワーク株式会社（3180001066243）に合併し解散,2015-10-05,1,,,,,トウシン,0
706,3070001018767,登記記録の閉鎖等,0,2025-04-28,2025-04-17,株式会社英進,,株式会社,群馬県,太田市,石原町４２７番地の２,,10,205,3730808,,,2025-04-17,合併による解散等,3180001066243,令和７年４月１日名古屋市中区栄一丁目２２番１６号ＣＫＣネットワーク株式会社（3180001066243）に合併し解散,2015-10-05,1,,,,,エイシン,0
709,3080002014509,登記記録の閉鎖等,0,2025-04-28,2025-04-23,有限会社アパネスホーム,,有限会社,静岡県,榛原郡吉田町,住吉７１０番地,,22,424,4210301,,,2025-04-23,清算の結了等,,,2015-10-05,1,,,,,アパネスホーム,0
716,3100002034801,登記記録の閉鎖等,0,2025-04-28,2025-04-16,有限会社サワダ,,有限会社,長野県,上伊那郡箕輪町,大字中箕輪１０７９０番地４,,20,383,3994601,,,2025-04-16,清算の結了等,,,2015-10-05,1,,,,,サワダ,0
731,3120001244952,登記記録の閉鎖等,0,2025-04-28,2025-04-24,株式会社クワトロマーモット,,株式会社,大阪府,大阪市城東区,中央２丁目１０番１９号７０４,,27,118,5360005,,,2025-04-24,清算の結了等,,,2022-04-06,1,,,,,クワトロマーモット,0
753,3130001049228,登記記録の閉鎖等,0,2025-04-28,2025-04-21,株式会社田中コーポレーション,,株式会社,京都府,舞鶴市,字福来７４６番地,,26,202,6240905,,,2025-04-21,清算の結了等,,,2015-10-05,1,,,,,タナカコーポレーション,0
776,3180001134660,登記記録の閉鎖等,0,2025-04-28,2025-04-14,株式会社Ｓｔｅｐ　Ｔｏｄａｙ,,株式会社,愛知県,名古屋市守山区,永森町１３４ストーク横地４０３,,23,113,4630086,,,2025-04-14,清算の結了等,,,2018-12-06,1,,,,,ステップトゥデイ,0
788,3180003026955,登記記録の閉鎖等,0,2025-04-28,2025-04-16,合同会社Ｃｒａｄｌｅ,,合同会社,愛知県,海部郡大治町,大字西條字北屋敷１５７番地,,23,424,4901144,,,2025-04-16,清算の結了等,,,2024-06-21,1,,,,,クレイドル,0
789,3180005020155,登記記録の閉鎖等,0,2025-04-28,2025-04-24,一般財団法人地域医療推進センター尾張,,その他の設立登記法人,愛知県,一宮市,奥町字蘇東５５番地,,23,203,4910201,,,2025-04-24,清算の結了等,,,2023-04-04,1,,,,,チイキイリョウスイシンセンターオワリ,0
792,3190002006180,登記記録の閉鎖等,0,2025-04-28,2025-04-15,有限会社華山,,有限会社,三重県,鈴鹿市,算所町１２３９番地の１,,24,207,5130805,,,2025-04-15,清算の結了等,,,2015-10-05,1,,,,,カザン,0
827,3260001033978,登記記録の閉鎖等,0,2025-04-28,2025-04-14,株式会社ウォーム,,株式会社,岡山県,岡山市北区,西古松２４９番地１０７,,33,101,7000927,,,2025-04-14,清算の結了等,,,2020-01-29,1,,,,,ウォーム,0
834,3290001018539,登記記録の閉鎖等,0,2025-04-28,2025-04-23,郵船ロジスティクス九州株式会社,,株式会社,福岡県,福岡市博多区,榎田２丁目２番３４号,,40,132,8120004,,,2025-04-23,合併による解散等,4010401090222,令和７年４月１日東京都品川区東品川四丁目１２番４号郵船ロジスティクス株式会社（4010401090222）に合併し解散,2015-10-05,1,,,,,ユウセンロジスティクスキュウシュウ,0
836,3290001025568,登記記録の閉鎖等,0,2025-04-28,2025-04-14,株式会社トータルマネジメント,,株式会社,福岡県,福岡市博多区,博多駅東２丁目１７番５号,,40,132,8120013,,,2025-04-14,清算の結了等,,,2015-10-05,1,,,,,トータルマネジメント,0
838,3290001098408,登記記録の閉鎖等,0,2025-04-28,2025-04-16,株式会社ディーフォーム,,株式会社,福岡県,福岡市中央区,天神４丁目６番２８号天神ファーストビル７階,,40,133,8100001,,,2025-04-16,清算の結了等,,,2022-07-29,1,,,,,ディーフォーム,0
870,3400002004121,登記記録の閉鎖等,0,2025-04-28,2025-04-10,有限会社フジクラ,,有限会社,岩手県,滝沢市,大釜大畑８０番地３,,03,216,0200763,,,2025-04-10,清算の結了等,,,2015-10-05,1,,,,,フジクラ,0
872,3400602000973,登記記録の閉鎖等,0,2025-04-28,2025-04-08,有限会社三協架設,,有限会社,岩手県,奥州市,江刺藤里字竹洞９８番地２,,03,215,0231762,,,2025-04-08,清算の結了等,,,2015-10-05,1,,,,,サンキョウカセツ,0
874,3430002056548,登記記録の閉鎖等,0,2025-04-28,2025-04-18,有限会社双葉技興,,有限会社,北海道,余市郡余市町,大川町１８丁目１番地,,01,408,0460004,,,2025-04-18,清算の結了等,,,2015-10-05,1,,,,,フタバギコウ,0
905,4010102000579,登記記録の閉鎖等,0,2025-04-28,2025-04-24,有限会社池田電気,,有限会社,東京都,八王子市,大谷町４００番地,,13,201,1920034,,,2025-04-24,清算の結了等,,,2015-10-05,1,,,,,イケダデンキ,0
909,4010401152096,登記記録の閉鎖等,0,2025-04-28,2025-04-08,株式会社マネーコミュニケーションズ,,株式会社,東京都,港区,南青山２丁目４番１５号,,13,103,1070062,,,2025-04-08,合併による解散等,6010401114920,令和７年４月１日東京都港区北青山二丁目５番１号株式会社ＰＣＨ（6010401114920）に合併し解散,2020-04-15,1,,,,,マネーコミュニケーションズ,0
915,4010405022758,登記記録の閉鎖等,0,2025-04-28,2025-04-03,一般社団法人防衛装備移転推進機構,,その他の設立登記法人,東京都,港区,白金台５丁目２２番１２号前田道路白金ビル４Ｆ,,13,103,1080071,,,2025-04-03,清算の結了等,,,2023-12-05,1,,,,,ボウエイソウビイテンスイシンキコウ,0
916,4010501029368,登記記録の閉鎖等,0,2025-04-28,2025-04-03,株式会社菱和ライテック,,株式会社,東京都,台東区,東上野５丁目２４番８号,,13,106,1100015,,,2025-04-03,合併による解散等,6010501016562,令和７年４月１日東京都台東区北上野二丁目８番７号三菱電機住環境システムズ株式会社（6010501016562）に合併し解散,2015-10-05,1,,,,,リョウワライテック,0
929,4010705000430,登記記録の閉鎖等,0,2025-04-28,2025-04-23,社会福祉法人大宝会,,その他の設立登記法人,東京都,品川区,西五反田４丁目１１番１８号,,13,109,1410031,,,2025-04-23,合併による解散等,3020005004215,令和７年４月１日横浜市都筑区東山田町３４９番２社会福祉法人ぷらいむキッズ（3020005004215）に合併し解散,2015-10-05,1,,,,,タイホウカイ,0
932,4010801021322,登記記録の閉鎖等,0,2025-04-28,2025-04-02,株式会社タレントワン,,株式会社,東京都,港区,西新橋１丁目２１番８号,,13,103,1050003,,,2025-04-02,合併による解散等,7010401089162,令和７年４月１日東京都港区虎ノ門一丁目１３番４号ダイヤモンドシステム株式会社（7010401089162）に合併し解散,2015-10-05,1,,,,,タレントワン,0
934,4010901019431,登記記録の閉鎖等,0,2025-04-28,2025-04-04,株式会社スヴェンソンホールディングス,,株式会社,東京都,港区,赤坂１丁目１２番３２号,,13,103,1070052,,,2025-04-04,合併による解散等,6010401014716,令和７年４月１日東京都港区赤坂一丁目１２番３２号株式会社スヴェンソン（6010401014716）に合併し解散,2015-10-05,1,,,,,スヴェンソンホールディングス,0
952,4011303004311,登記記録の閉鎖等,0,2025-04-28,2025-04-16,合同会社はじまりの和泉,,合同会社,東京都,杉並区,和泉１丁目１－７リーゼ代田橋２０１,,13,115,1680063,,,2025-04-16,清算の結了等,,,2022-02-17,1,,,,,ハジマリノイズミ,0
956,4011505002369,登記記録の閉鎖等,0,2025-04-28,2025-04-15,一般社団法人アートだいじょうぶ,,その他の設立登記法人,東京都,荒川区,西日暮里６丁目３０番３号コーポアオヤギ１０１号室,,13,118,1160013,,,2025-04-15,清算の結了等,,,2020-11-06,1,,,,,アートダイジョウブ,0
965,4012401005093,登記記録の閉鎖等,0,2025-04-28,2025-04-23,株式会社オーハシロジスティクス,,株式会社,東京都,国立市,谷保６丁目７番地の９,,13,215,1860011,,,2025-04-23,合併による解散等,1010401088566,令和７年４月１日東京都港区虎ノ門四丁目３番１３号株式会社オーハシテクニカ（1010401088566）に合併し解散,2015-10-05,1,,,,,オーハシロジスティクス,0
967,4012701016229,登記記録の閉鎖等,0,2025-04-28,2025-04-22,株式会社ベルビー,,株式会社,東京都,東村山市,秋津町３丁目２－２７,,13,213,1890001,,,2025-04-22,清算の結了等,,,2020-12-22,1,,,,,ベルビー,0
993,4030002051051,登記記録の閉鎖等,0,2025-04-28,2025-04-22,有限会社黒石,,有限会社,埼玉県,八潮市,大字鶴ケ曽根２５３番地１,,11,234,3400802,,,2025-04-22,清算の結了等,,,2015-10-05,1,,,,,クロイシ,0
994,4030002058047,登記記録の閉鎖等,0,2025-04-28,2025-04-22,有限会社朝霞薬局,,有限会社,埼玉県,朝霞市,本町１丁目８番７号,,11,227,3510011,,,2025-04-22,合併による解散等,8011101085574,令和７年４月１日東京都新宿区市谷本村町３番１８号株式会社ことぶきメディカル（8011101085574）に合併し解散,2015-10-05,1,,,,,アサカヤッキョク,0
1005,4040002065463,登記記録の閉鎖等,0,2025-04-28,2025-04-10,有限会社エイチジイケイ,,有限会社,千葉県,四街道市,和良比２５２番地,,12,228,2840044,,,2025-04-10,清算の結了等,,,2015-10-05,1,,,,,エイチジイケイ,0
1019,4100002032746,登記記録の閉鎖等,0,2025-04-28,2025-04-23,有限会社クリア・ライフ,,有限会社,長野県,伊那市,富県１６２番地,,20,209,3960621,,,2025-04-23,清算の結了等,,,2015-10-05,1,,,,,クリアライフ,0
1036,4120101021499,登記記録の閉鎖等,0,2025-04-28,2025-04-22,近藤鉄工株式会社,,株式会社,大阪府,堺市美原区,木材通１丁目６番４５号,,27,147,5870042,,,2025-04-22,清算の結了等,,,2015-10-05,1,,,,,コンドウテッコウ,0
1046,4140001077854,登記記録の閉鎖等,0,2025-04-28,2025-04-23,株式会社ヒューマン・ライフ,,株式会社,兵庫県,姫路市,山野井町１２８番地,,28,201,6700021,,,2025-04-23,清算の結了等,,,2015-10-05,1,,,,,ヒューマンライフ,0
1056,4180001124990,登記記録の閉鎖等,0,2025-04-28,2025-04-16,Ｃｕｏｒｅ株式会社,,株式会社,愛知県,小牧市,小木２丁目２４７番地２,,23,219,4850058,,,2025-04-16,清算の結了等,,,2016-10-03,1,,,,,クオーレ,0
1061,4180002070656,登記記録の閉鎖等,0,2025-04-28,2025-04-18,有限会社オーエス設計,,有限会社,愛知県,小牧市,小牧４丁目７１５番地ネオハイツ小牧Ｎ棟５０１号,,23,219,4850041,,,2025-04-18,清算の結了等,,,2015-10-05,1,,,,,オーエスセッケイ,0
1062,4180002075093,登記記録の閉鎖等,0,2025-04-28,2025-04-16,有限会社アニタプランニング,,有限会社,愛知県,名古屋市中区,大須３丁目５番４９号,,23,106,4600011,,,2025-04-16,清算の結了等,,,2015-10-05,1,,,,,アニタプランニング,0
1064,4180002081240,登記記録の閉鎖等,0,2025-04-28,2025-04-16,有限会社ベルズワールド,,有限会社,愛知県,稲沢市,大塚町松葉添１２８４番地の３９,,23,220,4928216,,,2025-04-16,清算の結了等,,,2015-10-05,1,,,,,ベルズワールド,0
1068,4180301034790,登記記録の閉鎖等,0,2025-04-28,2025-04-16,株式会社アマテラス,,株式会社,愛知県,あま市,木田南一丁目２番地４,,23,237,4901222,,,2025-04-16,清算の結了等,,,2021-04-06,1,,,,,アマテラス,0
1077,4200002023223,登記記録の閉鎖等,0,2025-04-28,2025-04-14,有限会社大山商店,,有限会社,岐阜県,中津川市,中津川２３６４番地の１９７４,,21,206,5080001,,,2025-04-14,清算の結了等,,,2015-10-05,1,,,,,,0
1085,4230001002976,登記記録の閉鎖等,0,2025-04-28,2025-04-22,北陸制御機器株式会社,,株式会社,富山県,富山市,白銀町１番１号,,16,201,9300048,,,2025-04-22,合併による解散等,4230001003009,令和７年４月２１日富山市白銀町１番１号株式会社北陸電機商会（4230001003009）に合併し解散,2015-10-05,1,,,,,,0
1088,4230001014410,登記記録の閉鎖等,0,2025-04-28,2025-04-18,株式会社ＣＵＢＥ,,株式会社,富山県,高岡市,駅南３丁目３－５,,16,202,9330871,,,2025-04-18,合併による解散等,5230001006191,令和７年４月１日富山市黒瀬北町二丁目１３番地１イムズビル４Ｆ株式会社Ｇ＆Ｇ（5230001006191）に合併し解散,2015-10-05,1,,,,,キューブ,0
1107,4290002010469,登記記録の閉鎖等,0,2025-04-28,2025-04-09,有限会社ギャラリー赤坂,,有限会社,福岡県,福岡市中央区,赤坂２丁目４番５号,,40,133,8100042,,,2025-04-09,清算の結了等,,,2015-10-05,1,,,,,ギャラリーアカサカ,0
1111,4290002049037,登記記録の閉鎖等,0,2025-04-28,2025-04-09,サカイ経理有限会社,,有限会社,福岡県,久留米市,大石町１５３番地の２,,40,203,8300049,,,2025-04-09,清算の結了等,,,2015-10-05,1,,,,,サカイケイリ,0
1126,4370101001204,登記記録の閉鎖等,0,2025-04-28,2025-04-23,株式会社ミヤギタノイ,,株式会社,宮城県,刈田郡七ヶ宿町,字萩崎１５番の１号,,04,302,9890537,,,2025-04-23,合併による解散等,3010701005913,令和７年４月１日東京都品川区大井五丁目２１番１８号株式会社田野井製作所（3010701005913）に合併し解散,2015-10-05,1,,,,,ミヤギタノイ,0
1136,4430002008325,登記記録の閉鎖等,0,2025-04-28,2025-04-21,有限会社佐建工務店,,有限会社,北海道,札幌市東区,丘珠町８７０番地２０,,01,103,0070880,,,2025-04-21,清算の結了等,,,2015-10-05,1,,,,,サケンコウムテン,0
1143,4480001002571,登記記録の閉鎖等,0,2025-04-28,2025-04-22,ダイヒョウ株式会社,,株式会社,徳島県,名西郡石井町,高原字中島４５２番地,,36,341,7793208,,,2025-04-22,清算の結了等,,,2015-10-05,1,,,,,ダイヒョウ,0
1154,5010001214361,登記記録の閉鎖等,0,2025-04-28,2025-04-01,株式会社ＬＣＡＤ,,株式会社,東京都,中央区,日本橋蛎殻町１丁目５番６号,,13,102,1030014,,,2025-04-01,合併による解散等,4010401070356,令和７年４月１日東京都中央区日本橋蛎殻町一丁目５番６号株式会社アスラポート（4010401070356）に合併し解散,2020-12-17,1,,,,,エルシーエイディー,0
1173,5010405002957,登記記録の閉鎖等,0,2025-04-28,2025-04-23,特定非営利活動法人新現役ネット,,その他の設立登記法人,東京都,千代田区,神田美倉町１０番地,,13,101,1010038,,,2025-04-23,清算の結了等,,,2015-10-05,1,,,,,シンゲンエキネット,0
1174,5010501036082,登記記録の閉鎖等,0,2025-04-28,2025-04-10,株式会社コクリーボ,,株式会社,東京都,台東区,東上野２丁目２２番１０号,,13,106,1100015,,,2025-04-10,清算の結了等,,,2015-10-05,1,,,,,コクリーボ,0
1186,5010901034677,登記記録の閉鎖等,0,2025-04-28,2025-04-24,株式会社雨宮,,株式会社,東京都,世田谷区,上祖師谷４丁目３番１９号,,13,112,1570065,,,2025-04-24,清算の結了等,,,2015-10-05,1,,,,,アメミヤ,0
1200,5011601004474,登記記録の閉鎖等,0,2025-04-28,2025-04-16,株式会社東京空調,,株式会社,東京都,練馬区,中村２丁目１０番２号,,13,120,1760024,,,2025-04-16,清算の結了等,,,2015-10-05,1,,,,,トウキョウクウチョウ,0
1201,5011602005819,登記記録の閉鎖等,0,2025-04-28,2025-04-18,有限会社綜合食品かやま,,有限会社,東京都,練馬区,石神井町３丁目１８番９,,13,120,1770041,,,2025-04-18,清算の結了等,,,2015-10-05,1,,,,,ソウゴウショクヒンカヤマ,0
1204,5011802013852,登記記録の閉鎖等,0,2025-04-28,2025-04-21,有限会社信濃ゴム工業,,有限会社,東京都,足立区,北加平町１２番９号,,13,121,1210056,,,2025-04-21,清算の結了等,,,2015-10-05,1,,,,,シナノゴムコウギョウ,0
1221,5021001012606,登記記録の閉鎖等,0,2025-04-28,2025-04-17,湘南デザイン株式会社,,株式会社,神奈川県,相模原市緑区,橋本台３丁目１１番１０号,,14,151,2520132,,,2025-04-17,清算の結了等,,,2015-10-05,1,,,,,ショウナンデザイン,0
1223,5021001044302,登記記録の閉鎖等,0,2025-04-28,2025-04-16,株式会社チャイルド社,,株式会社,神奈川県,横須賀市,衣笠栄町３丁目６２番地,,14,201,2380031,,,2025-04-16,清算の結了等,,,2015-10-05,1,,,,,チャイルドシャ,0
1225,5021003002927,登記記録の閉鎖等,0,2025-04-28,2025-04-23,福商事合資会社,,合資会社,神奈川県,横須賀市,根岸町５丁目２７番２１号,,14,201,2390807,,,2025-04-23,清算の結了等,,,2015-10-05,1,,,,,フクショウジ,0
1226,5021003015326,登記記録の閉鎖等,0,2025-04-28,2025-04-16,マイケルス合同会社,,合同会社,神奈川県,横須賀市,馬堀町３丁目４番１０号,,14,201,2390802,,,2025-04-16,清算の結了等,,,2024-12-10,1,,,,,マイケルス,0
1238,5030002052437,登記記録の閉鎖等,0,2025-04-28,2025-04-22,大拓国際有限会社,,有限会社,埼玉県,八潮市,大字大瀬４１６番地７,,11,234,3400822,,,2025-04-22,清算の結了等,,,2015-10-05,1,,,,,ダイタクコクサイ,0
1243,5040001050985,登記記録の閉鎖等,0,2025-04-28,2025-04-10,山利産業株式会社,,株式会社,千葉県,木更津市,木更津２丁目１番１３号,,12,206,2920056,,,2025-04-10,清算の結了等,,,2015-10-05,1,,,,,ヤマリサンギョウ,0
1257,5070002010580,登記記録の閉鎖等,0,2025-04-28,2025-04-21,有限会社成和興産,,有限会社,群馬県,高崎市,問屋町２丁目４番地３,,10,202,3700006,,,2025-04-21,合併による解散等,7070001007361,令和７年４月２１日群馬県高崎市問屋町二丁目４番地の３株式会社成電社（7070001007361）に合併し解散,2015-10-05,1,,,,,セイワコウサン,0
1261,5080102001446,登記記録の閉鎖等,0,2025-04-28,2025-04-17,有限会社三心,,有限会社,静岡県,沼津市,大諏訪３２４番地の２,,22,203,4100873,,,2025-04-17,清算の結了等,,,2015-10-05,1,,,,,サンシン,0
1299,5140001035530,登記記録の閉鎖等,0,2025-04-28,2025-04-22,株式会社水田鉄工所,,株式会社,兵庫県,明石市,大久保町大窪４７２番地の１,,28,203,6740051,,,2025-04-22,清算の結了等,,,2015-10-05,1,,,,,ミズタテッコウショ,0
1316,5180002012054,登記記録の閉鎖等,0,2025-04-28,2025-04-17,有限会社トイヤマ紙器工業所,,有限会社,愛知県,名古屋市北区,長喜町４丁目１５番地,,23,103,4620036,,,2025-04-17,清算の結了等,,,2015-10-05,1,,,,,トイヤマシキコウギョウショ,0
1317,5180002019702,登記記録の閉鎖等,0,2025-04-28,2025-04-17,有限会社山崎薬品,,有限会社,愛知県,名古屋市中川区,法華西町４丁目１２番地の２,,23,110,4540937,,,2025-04-17,清算の結了等,,,2015-10-05,1,,,,,ヤマザキヤクヒン,0
1318,5180002021195,登記記録の閉鎖等,0,2025-04-28,2025-04-17,有限会社エフ・ティ・ビー,,有限会社,愛知県,名古屋市名東区,文教台１丁目８０８番地,,23,115,4650012,,,2025-04-17,清算の結了等,,,2015-10-05,1,,,,,エフティビー,0
1321,5180003018562,登記記録の閉鎖等,0,2025-04-28,2025-04-17,ミウラハイツ合同会社,,合同会社,愛知県,岩倉市,本町中新溝廻間３番地１メーティスワン１０７号,,23,228,4820043,,,2025-04-17,清算の結了等,,,2017-12-26,1,,,,,ミウラハイツ,0
1324,5180301030921,登記記録の閉鎖等,0,2025-04-28,2025-04-18,株式会社青苑,,株式会社,愛知県,豊橋市,向山町字七面８０番地４０,,23,201,4400864,,,2025-04-18,清算の結了等,,,2017-11-07,1,,,,,アオエン,0
1327,5190001015494,登記記録の閉鎖等,0,2025-04-28,2025-04-16,株式会社たもり,,株式会社,三重県,四日市市,富州原町１番１０号,,24,202,5108016,,,2025-04-16,清算の結了等,,,2015-10-05,1,,,,,タモリ,0
1346,5240002032673,登記記録の閉鎖等,0,2025-04-28,2025-04-24,有限会社呉風呂センター,,有限会社,広島県,呉市,長ノ木町１番３１号,,34,202,7370053,,,2025-04-24,清算の結了等,,,2015-10-05,1,,,,,クレフロセンター,0
1347,5240002042805,登記記録の閉鎖等,0,2025-04-28,2025-04-16,有限会社フジケイ,,有限会社,岡山県,倉敷市,新倉敷駅前３丁目１９７番地１,,33,202,7100253,,,2025-04-16,清算の結了等,,,2015-10-05,1,,,,,,0
1350,5240002050997,登記記録の閉鎖等,0,2025-04-28,2025-04-24,有限会社中国新聞尾道北販売所,,有限会社,広島県,尾道市,栗原町９４４７番地の７,,34,205,7220022,,,2025-04-24,清算の結了等,,,2015-10-05,1,,,,,チュウゴクシンブンオノミチキタハンバイショ,0
1396,5500001016948,登記記録の閉鎖等,0,2025-04-28,2025-04-18,株式会社アドバンスドエナジー,,株式会社,愛媛県,西条市,港２９３番地の１,,38,206,7930046,,,2025-04-18,合併による解散等,2120101024636,令和７年４月１日大阪府堺市西区鳳北町十丁１番ＨＵＧエナジー株式会社（2120101024636）に合併し解散,2015-10-05,1,,,,,,0
1402,6010001126878,登記記録の閉鎖等,0,2025-04-28,2025-03-26,あすかコーポレイトパートナーズ株式会社,,株式会社,東京都,目黒区,中目黒３丁目３番２号,,13,110,1530061,,,2025-03-26,清算の結了等,,,2015-10-05,1,,,,,アスカコーポレイトパートナーズ,0
1423,6010401032437,登記記録の閉鎖等,0,2025-04-28,2025-04-01,株式会社ブルーポイント,,株式会社,東京都,港区,白金台４丁目１９番１９号,,13,103,1080071,,,2025-04-01,合併による解散等,7010401024581,令和７年４月１日東京都港区南青山五丁目４番２７号株式会社バルビゾン（7010401024581）に合併し解散,2015-10-05,1,,,,,ブルーポイント,0
1454,6011005005060,登記記録の閉鎖等,0,2025-04-28,2025-03-31,一般財団法人岡内育英基金,,その他の設立登記法人,東京都,目黒区,中目黒３丁目５番地７号１１０２室,,13,110,1530061,,,2025-03-31,清算の結了等,,,2015-10-05,1,,,,,オカウチイクエイキキン,0
1455,6011101017918,登記記録の閉鎖等,0,2025-04-28,2025-04-23,株式会社ＪＲ東日本ライフサービス,,株式会社,東京都,新宿区,西新宿１丁目２０番３号,,13,104,1600023,,,2025-04-23,合併による解散等,6011001009718,令和７年４月１日東京都渋谷区代々木二丁目２番２号株式会社ＪＲ東日本商事（6011001009718）に合併し解散,2015-10-05,1,,,,,ジェイアールヒガシニホンライフサービス,0
1468,6011701001263,登記記録の閉鎖等,0,2025-04-28,2025-04-21,株式会社江上,,株式会社,東京都,江戸川区,北小岩３丁目２１番１６号,,13,123,1330051,,,2025-04-21,清算の結了等,,,2015-10-05,1,,,,,エガミ,0
1477,6013301013572,登記記録の閉鎖等,0,2025-04-28,2025-04-08,株式会社チェック,,株式会社,東京都,豊島区,西池袋１丁目３７番１２号,,13,116,1710021,,,2025-04-08,清算の結了等,,,2015-10-05,1,,,,,チェック,0
1484,6013301043520,登記記録の閉鎖等,0,2025-04-28,2025-04-10,ここじゃぱんＨｕｍａｎ株式会社,,株式会社,千葉県,佐倉市,井野１３７５番地１０志津グリーンヒルＢ棟４０１,,12,212,2850855,,,2025-04-10,清算の結了等,,,2019-02-27,1,,,,,ココジャパンヒューマン,0
1494,6021001022554,登記記録の閉鎖等,0,2025-04-28,2025-04-23,湘南自動車株式会社,,株式会社,神奈川県,秦野市,末広町１番３号,,14,211,2570037,,,2025-04-23,清算の結了等,,,2015-10-05,1,,,,,ショウナンジドウシャ,0
1495,6021002015061,登記記録の閉鎖等,0,2025-04-28,2025-04-21,有限会社竹村造園,,有限会社,神奈川県,鎌倉市,常盤１００９番地,,14,204,2480022,,,2025-04-21,清算の結了等,,,2015-10-05,1,,,,,タケムラゾウエン,0
1496,6021002038401,登記記録の閉鎖等,0,2025-04-28,2025-04-24,有限会社タイム設備企画,,有限会社,神奈川県,秦野市,桜町２丁目２番３５号,,14,211,2570045,,,2025-04-24,清算の結了等,,,2015-10-05,1,,,,,タイムセツビキカク,0
1527,6060002038093,登記記録の閉鎖等,0,2025-04-28,2025-04-16,有限会社福島製作所,,有限会社,栃木県,足利市,梁田町５７６番地２,,09,202,3260321,,,2025-04-16,清算の結了等,,,2015-10-05,1,,,,,フクシマセイサクジョ,0
1539,6100002031969,登記記録の閉鎖等,0,2025-04-28,2025-04-23,有限会社山岡工機,,有限会社,長野県,岡谷市,東銀座１丁目１０番３３号,,20,204,3940023,,,2025-04-23,清算の結了等,,,2015-10-05,1,,,,,ヤマオカコウキ,0
1586,6180001087146,登記記録の閉鎖等,0,2025-04-28,2025-04-16,株式会社ファンゴ,,株式会社,愛知県,一宮市,千秋町佐野４８５番地１７,,23,203,4910804,,,2025-04-16,清算の結了等,,,2015-10-05,1,,,,,ファンゴ,0
1593,6180002039575,登記記録の閉鎖等,0,2025-04-28,2025-04-16,有限会社渡辺土建,,有限会社,愛知県,名古屋市緑区,清水山２丁目１８１９番地,,23,114,4598009,,,2025-04-16,清算の結了等,,,2015-10-05,1,,,,,ワタナベドケン,0
1601,6180301027215,登記記録の閉鎖等,0,2025-04-28,2025-04-25,株式会社みらいビジネスサポート,,株式会社,愛知県,豊田市,陣中町１丁目１５番地１３,,23,211,4710079,,,2025-04-25,清算の結了等,,,2015-10-05,1,,,,,ミライビジネスサポート,0
1604,6180303004889,登記記録の閉鎖等,0,2025-04-28,2025-04-14,合同会社ＲＯＮＧｅ,,合同会社,愛知県,豊橋市,東幸町字東明１１番地１,,23,201,4400843,,,2025-04-14,清算の結了等,,,2021-02-04,1,,,,,ロンゲ,0
1607,6200001008974,登記記録の閉鎖等,0,2025-04-28,2025-04-18,株式会社イーアニマル,,株式会社,岐阜県,山県市,藤倉５２７番地,,21,215,5012122,,,2025-04-18,清算の結了等,,,2015-10-05,1,,,,,イーアニマル,0
1629,6250001005653,登記記録の閉鎖等,0,2025-04-28,2025-04-23,株式会社下関機械鋸加工所,,株式会社,山口県,下関市,一の宮住吉２丁目８番２３号,,35,201,7510805,,,2025-04-23,清算の結了等,,,2015-10-05,1,,,,,,0
1630,6260001024834,登記記録の閉鎖等,0,2025-04-28,2025-04-14,株式会社五次元,,株式会社,岡山県,岡山市北区,野殿東町１２番７号,,33,101,7000065,,,2025-04-14,清算の結了等,,,2015-10-05,1,,,,,ゴジゲン,0
1631,6280002009056,登記記録の閉鎖等,0,2025-04-28,2025-04-24,有限会社有福木材店,,有限会社,島根県,江津市,有福温泉町５０６番地３,,32,207,6950156,,,2025-04-24,清算の結了等,,,2015-10-05,1,,,,,アリフクモクザイテン,0
1638,6290001071931,登記記録の閉鎖等,0,2025-04-28,2025-04-14,株式会社Ｏｎｅｓｅｎｓｅ,,株式会社,福岡県,朝倉郡筑前町,下高場１９８４番地１－４０５,,40,447,8380211,,,2025-04-14,清算の結了等,,,2015-11-11,1,,,,,ワンセンス,0
1669,6390001011200,登記記録の閉鎖等,0,2025-04-28,2025-04-22,山形精密鋳造株式会社,,株式会社,山形県,長井市,成田八幡下壱７６８番地２,,06,209,9930075,,,2025-04-22,合併による解散等,7050001031438,令和７年４月１日茨城県筑西市市野辺２１６番地の２ヒノデキャスティング＆メタルワークス株式会社（7050001031438）に合併し解散,2015-10-05,1,,,,,ヤマガタセイミツイゾウ,0
1679,6430002013653,登記記録の閉鎖等,0,2025-04-28,2025-04-17,有限会社道島自動車整備工場,,有限会社,北海道,札幌市東区,本町二条１１丁目１番４３号,,01,103,0650042,,,2025-04-17,清算の結了等,,,2015-10-05,1,,,,,ミチシマジドウシャセイビコウジョウ,0
1721,7010405013580,登記記録の閉鎖等,0,2025-04-28,2025-04-03,一般社団法人Ｅａｓｔ　Ｇｉｎｚａ　Ｉｎｖｅｓｔｍｅｎｔ,,その他の設立登記法人,東京都,港区,元赤坂１丁目１番７号,,13,103,1070051,,,2025-04-03,清算の結了等,,,2015-10-05,1,,,,,イーストギンザインベストメント,0
1754,7012402008522,登記記録の閉鎖等,0,2025-04-28,2025-04-14,有限会社ラフィーネ,,有限会社,東京都,府中市,東芝町２番地の１１,,13,206,1830043,,,2025-04-14,清算の結了等,,,2015-10-05,1,,,,,ラフィーネ,0
1763,7013402000469,登記記録の閉鎖等,0,2025-04-28,2025-04-14,有限会社キャナル,,有限会社,東京都,日野市,落川１０９４番地の４,,13,212,1910034,,,2025-04-14,清算の結了等,,,2015-10-05,1,,,,,キャナル,0
1764,7020001064119,登記記録の閉鎖等,0,2025-04-28,2025-04-11,株式会社サンフラワー,,株式会社,神奈川県,川崎市多摩区,登戸２２２３番地２,,14,135,2140014,,,2025-04-11,清算の結了等,,,2015-10-05,1,,,,,サンフラワー,0
1772,7021003007552,登記記録の閉鎖等,0,2025-04-28,2025-04-25,合同会社プラスモア,,合同会社,神奈川県,平塚市,夕陽ケ丘６３－１２－１４１９,,14,203,2540806,,,2025-04-25,清算の結了等,,,2018-06-06,1,,,,,,0
1797,7050001016208,登記記録の閉鎖等,0,2025-04-28,2025-04-23,郵船ロジスティクスつくば株式会社,,株式会社,茨城県,つくば市,谷田部３７３５番地の１,,08,220,3050861,,,2025-04-23,合併による解散等,4010401090222,令和７年４月１日東京都品川区東品川四丁目１２番４号郵船ロジスティクス株式会社（4010401090222）に合併し解散,2015-10-05,1,,,,,ユウセンロジスティクスツクバ,0
1805,7070001032946,登記記録の閉鎖等,0,2025-04-28,2025-04-22,株式会社ＣＥＦＩＳ,,株式会社,群馬県,太田市,飯田町１０２０番地,,10,205,3730851,,,2025-04-22,清算の結了等,,,2016-12-15,1,,,,,セフィス,0
1812,7080101013399,登記記録の閉鎖等,0,2025-04-28,2025-04-17,株式会社エーアンドアソシエイツ,,株式会社,静岡県,伊東市,八幡野１０３９番地５,,22,208,4130232,,,2025-04-17,清算の結了等,,,2015-10-05,1,,,,,エーアンドアソシエイツ,0
1813,7080102003267,登記記録の閉鎖等,0,2025-04-28,2025-04-18,有限会社マエダ,,有限会社,静岡県,沼津市,大岡１９７３番地の３０,,22,203,4100022,,,2025-04-18,清算の結了等,,,2015-10-05,1,,,,,マエダ,0
1814,7080103002929,登記記録の閉鎖等,0,2025-04-28,2025-04-17,合同会社ワンズカルチャースクール,,合同会社,静岡県,田方郡函南町,丹那１３１２番地の２１８,,22,325,4190105,,,2025-04-17,清算の結了等,,,2023-11-27,1,,,,,ワンズカルチャースクール,0
1820,7110001026712,登記記録の閉鎖等,0,2025-04-28,2025-04-01,グリーン運輸株式会社,,株式会社,新潟県,魚沼市,青島１１８０番地,,15,225,9460043,,,2025-04-01,合併による解散等,8110003002297,令和７年４月１日新潟県魚沼市青島１１８０番地岡部組合資会社（8110003002297）に合併し解散,2015-10-05,1,,,,,グリーンウンユ,0
1860,7170002008407,登記記録の閉鎖等,0,2025-04-28,2025-04-25,有限会社優俊ゼミ,,有限会社,和歌山県,岩出市,根来８２６番地１,,30,209,6496202,,,2025-04-25,清算の結了等,,,2015-10-05,1,,,,,,0
1873,7180002010766,登記記録の閉鎖等,0,2025-04-28,2025-04-18,有限会社岩倉屋本店,,有限会社,愛知県,名古屋市北区,大曽根１丁目２７番３９号,,23,103,4620825,,,2025-04-18,清算の結了等,,,2015-10-05,1,,,,,,0
1874,7180002050556,登記記録の閉鎖等,0,2025-04-28,2025-04-16,有限会社ＭＩＫＩ,,有限会社,愛知県,名古屋市中村区,横井１丁目１６２番地５二村マンション１０６号,,23,105,4530866,,,2025-04-16,清算の結了等,,,2015-10-05,1,,,,,ミキ,0
1875,7180002051488,登記記録の閉鎖等,0,2025-04-28,2025-04-16,有限会社アトラクティブコーポレーション,,有限会社,愛知県,名古屋市北区,若葉通１丁目２４番５号,,23,103,4620854,,,2025-04-16,清算の結了等,,,2015-10-05,1,,,,,アトラクティブコーポレーション,0
1880,7190002021291,登記記録の閉鎖等,0,2025-04-28,2025-04-14,有限会社鳥初,,有限会社,三重県,四日市市,川原町３０番２号,,24,202,5100033,,,2025-04-14,清算の結了等,,,2015-10-05,1,,,,,トリハツ,0
1882,7200001024780,登記記録の閉鎖等,0,2025-04-28,2025-04-16,株式会社ミヤタ,,株式会社,岐阜県,飛騨市,古川町向町２丁目６番２号,,21,217,5094241,,,2025-04-16,清算の結了等,,,2015-10-05,1,,,,,ミヤタ,0
1884,7200001032503,登記記録の閉鎖等,0,2025-04-28,2025-04-15,株式会社森商事,,株式会社,岐阜県,揖斐郡池田町,藤代８５２番地の２,,21,404,5032429,,,2025-04-15,清算の結了等,,,2016-01-25,1,,,,,モリショウジ,0
1886,7200001036388,登記記録の閉鎖等,0,2025-04-28,2025-04-14,株式会社光陽,,株式会社,岐阜県,各務原市,各務おがせ町８丁目１２４番地１,,21,213,5090104,,,2025-04-14,清算の結了等,,,2019-06-28,1,,,,,コウヨウ,0
1890,7200002012693,登記記録の閉鎖等,0,2025-04-28,2025-04-15,有限会社清水自動車商会,,有限会社,岐阜県,大垣市,昼飯町１９４番地１０,,21,202,5032216,,,2025-04-15,清算の結了等,,,2015-10-05,1,,,,,シミズジドウシャショウカイ,0
1892,7200002026041,登記記録の閉鎖等,0,2025-04-28,2025-04-16,有限会社メゾン,,有限会社,岐阜県,高山市,下切町１３８８番地,,21,203,5060041,,,2025-04-16,清算の結了等,,,2015-10-05,1,,,,,メゾン,0
1894,7210001004708,登記記録の閉鎖等,0,2025-04-28,2025-04-22,アズワンコンサルティング株式会社,,株式会社,福井県,福井市,二の宮４丁目１番１０号,,18,201,9100015,,,2025-04-22,清算の結了等,,,2015-10-05,1,,,,,アズワンコンサルティング,0
1897,7220001025604,登記記録の閉鎖等,0,2025-04-28,2025-04-23,株式会社ジャマナイ,,株式会社,石川県,金沢市,間明町２丁目１１１番地,,17,201,9218005,,,2025-04-23,清算の結了等,,,2023-09-19,1,,,,,ジャマナイ,0
1900,7230001016354,登記記録の閉鎖等,0,2025-04-28,2025-04-22,株式会社アークウェル,,株式会社,富山県,富山市,永楽町２２番９号,,16,201,9300853,,,2025-04-22,清算の結了等,,,2016-03-14,1,,,,,アークウェル,0
1903,7230002014233,登記記録の閉鎖等,0,2025-04-28,2025-04-24,有限会社渡辺食品,,有限会社,富山県,射水市,西高木１１８５番地の１０,,16,211,9390303,,,2025-04-24,清算の結了等,,,2015-10-05,1,,,,,ワタナベショクヒン,0
1904,7240001047919,登記記録の閉鎖等,0,2025-04-28,2025-04-24,株式会社ＬＡＢ,,株式会社,広島県,福山市,奈良津町１丁目４－３０－５０２,,34,207,7200022,,,2025-04-24,合併による解散等,2120002057842,令和７年４月１日大阪市中央区北浜一丁目１番２１号第２中井ビル４階アルファサード株式会社（2120002057842）に合併し解散,2015-10-05,1,,,,,ラボ,0
1906,7240002015346,登記記録の閉鎖等,0,2025-04-28,2025-04-23,有限会社マイ・プランニング,,有限会社,広島県,広島市中区,宝町８番２６号,,34,101,7300044,,,2025-04-23,清算の結了等,,,2015-10-05,1,,,,,マイプランニング,0
1940,7310002005372,登記記録の閉鎖等,0,2025-04-28,2025-04-28,有限会社丸富組,,有限会社,長崎県,長崎市,元船町１１番２２号,,42,201,8500035,,,2025-04-28,清算の結了等,,,2015-10-05,1,,,,,マルトミグミ,0
1950,7340003004107,登記記録の閉鎖等,0,2025-04-28,2025-04-23,合同会社ラフテルエンタープライズ,,合同会社,鹿児島県,大島郡宇検村,大字須古１番地１美長良住宅２号棟１０２号,,46,524,8943304,,,2025-04-23,清算の結了等,,,2023-04-19,1,,,,,ラフテルエンタープライズ,0
1956,7360002003322,登記記録の閉鎖等,0,2025-04-28,2025-04-14,有限会社南部開発工業,,有限会社,沖縄県,那覇市,字真地４７番地１,,47,201,9020072,,,2025-04-14,清算の結了等,,,2015-10-05,1,,,,,ナンブカイハツコウギョウ,0
1974,7500002021598,登記記録の閉鎖等,0,2025-04-28,2025-04-18,有限会社篠原清商店,,有限会社,愛媛県,四国中央市,金田町半田乙２５５番地１,,38,213,7990122,,,2025-04-18,清算の結了等,,,2015-10-05,1,,,,,シノハラキヨシショウテン,0
1979,8010001098950,登記記録の閉鎖等,0,2025-04-28,2025-04-24,エス・マックス株式会社,,株式会社,東京都,豊島区,北大塚２丁目１７番１０号豊島ビル８階,,13,116,1700004,,,2025-04-24,合併による解散等,3010001224973,令和７年４月１日東京都千代田区岩本町三丁目１１番６号ＰＭＯ秋葉原２階株式会社コラボスクエア（3010001224973）に合併し解散,2015-10-05,1,,,,,エスマックス,0
2069,8011501007723,登記記録の閉鎖等,0,2025-04-28,2025-04-23,東京ダイポリ株式会社,,株式会社,東京都,荒川区,西尾久６丁目１０番９号,,13,118,1160011,,,2025-04-23,清算の結了等,,,2015-10-05,1,,,,,トウキョウダイポリ,0
2087,8020001106209,登記記録の閉鎖等,0,2025-04-28,2025-04-14,株式会社ＫＩＣＨＩ,,株式会社,神奈川県,川崎市中原区,下小田中２丁目３３番１２号,,14,133,2110041,,,2025-04-14,清算の結了等,,,2015-10-05,1,,,,,キチ,0
2095,8021001071764,登記記録の閉鎖等,0,2025-04-28,2025-04-17,サンライズ・フーズ株式会社,,株式会社,神奈川県,相模原市緑区,久保沢３丁目９番１８号,,14,151,2520105,,,2025-04-17,清算の結了等,,,2021-01-07,1,,,,,サンライズフーズ,0
2104,8030001122155,登記記録の閉鎖等,0,2025-04-28,2025-04-04,株式会社イー・スタッフ保険サービス,,株式会社,東京都,新宿区,西落合１丁目３１番４号,,13,104,1610031,,,2025-04-04,合併による解散等,5011101024196,令和７年４月１日東京都新宿区西落合一丁目３１番４号株式会社イー・スタッフ（5011101024196）に合併し解散,2017-09-11,1,,,,,イースタッフホケンサービス,0
2111,8030002046931,登記記録の閉鎖等,0,2025-04-28,2025-04-21,有限会社小島板金工業,,有限会社,埼玉県,八潮市,大字大瀬１７０５番地,,11,234,3400822,,,2025-04-21,清算の結了等,,,2015-10-05,1,,,,,コジマバンキンコウギョウ,0
2125,8050001017056,登記記録の閉鎖等,0,2025-04-28,2025-04-18,株式会社テクニカルスルー,,株式会社,茨城県,つくば市,市之台１５５番地６７,,08,220,3050073,,,2025-04-18,清算の結了等,,,2015-10-05,1,,,,,テクニカルスルー,0
2133,8070001038174,登記記録の閉鎖等,0,2025-04-28,2025-04-09,株式会社ＧＭ,,株式会社,群馬県,前橋市,南町３丁目５０番地２プラザアン２階Ｄ－４５,,10,201,3710805,,,2025-04-09,清算の結了等,,,2021-06-21,1,,,,,ジーエム,0
2148,8120001222672,登記記録の閉鎖等,0,2025-04-28,2025-04-21,株式会社足立組合,,株式会社,大阪府,大阪市中央区,内平野町３丁目２番１０号,,27,128,5400037,,,2025-04-21,合併による解散等,8120001073678,令和７年４月１９日大阪市中央区内平野町三丁目２番１０号株式会社アダチ（8120001073678）に合併し解散,2019-07-25,1,,,,,アダチクミアイ,0
2151,8120001258790,登記記録の閉鎖等,0,2025-04-28,2025-04-24,Ｐｒｏｊｅｃｔ株式会社,,株式会社,大阪府,大阪市北区,天満２丁目１－１２天満橋ＳＥビル４階,,27,127,5300043,,,2025-04-24,清算の結了等,,,2023-10-19,1,,,,,プロジェクト,0
2158,8120002053992,登記記録の閉鎖等,0,2025-04-28,2025-04-24,アクティブ・ネットワーク有限会社,,有限会社,大阪府,大阪市住之江区,南港中３丁目８番２４－８１０号,,27,125,5590033,,,2025-04-24,清算の結了等,,,2015-10-05,1,,,,,アクティブネットワーク,0
2160,8120005008523,登記記録の閉鎖等,0,2025-04-28,2025-04-24,特定非営利活動法人日本環境・福祉協議会,,その他の設立登記法人,大阪府,大阪市東住吉区,湯里４丁目２番３号,,27,121,5460013,,,2025-04-24,清算の結了等,,,2015-10-05,1,,,,,ニホンカンキョウフクシキョウギカイ,0
2173,8130005005676,登記記録の閉鎖等,0,2025-04-28,2025-04-22,特定非営利活動法人日本伝統衣裳保存研究所,,その他の設立登記法人,京都府,京都市北区,鷹峯土天井町１番地７,,26,101,6038465,,,2025-04-22,清算の結了等,,,2015-10-05,1,,,,,ニホンデントウイショウホゾンケンキュウショ,0
2186,8180001041753,登記記録の閉鎖等,0,2025-04-28,2025-04-16,東海マネジメントコンサルタンツ株式会社,,株式会社,愛知県,名古屋市千種区,内山３丁目１０番１７号,,23,101,4640075,,,2025-04-16,清算の結了等,,,2015-10-05,1,,,,,トウカイマネジメントコンサルタンツ,0
2188,8180001141850,登記記録の閉鎖等,0,2025-04-28,2025-04-16,株式会社真鈴,,株式会社,愛知県,名古屋市名東区,猪子石２丁目１６１０番地,,23,115,4650021,,,2025-04-16,清算の結了等,,,2020-07-09,1,,,,,マリン,0
2202,8180302002124,登記記録の閉鎖等,0,2025-04-28,2025-04-14,有限会社ワタミ,,有限会社,愛知県,岡崎市,羽根町字長田８番地５,,23,202,4440813,,,2025-04-14,清算の結了等,,,2015-10-05,1,,,,,ワタミ,0
2203,8180302009747,登記記録の閉鎖等,0,2025-04-28,2025-04-16,有限会社牧野サナダ,,有限会社,愛知県,豊橋市,花田一番町９番地,,23,201,4418013,,,2025-04-16,清算の結了等,,,2015-10-05,1,,,,,マキノサナダ,0
2217,8210005000446,登記記録の閉鎖等,0,2025-04-28,2025-04-18,医療法人梅田整形外科医院,,その他の設立登記法人,福井県,福井市,若杉４丁目８０１番地,,18,201,9188055,,,2025-04-18,清算の結了等,,,2015-10-05,1,,,,,ウメダセイケイゲカイイン,0
2232,8260002011516,登記記録の閉鎖等,0,2025-04-28,2025-04-17,有限会社ゼルプラネット,,有限会社,岡山県,岡山市中区,原尾島１丁目２０番３８号,,33,102,7038235,,,2025-04-17,清算の結了等,,,2015-10-05,1,,,,,,0
2233,8260002026951,登記記録の閉鎖等,0,2025-04-28,2025-04-15,有限会社川上鈑金工業所,,有限会社,岡山県,高梁市,成羽町下原８０８番地,,33,209,7160111,,,2025-04-15,清算の結了等,,,2015-10-05,1,,,,,カワカミバンキンコウギョウショ,0
2234,8270001004478,登記記録の閉鎖等,0,2025-04-28,2025-04-22,株式会社Ｒ・Ａ・ｃｏ,,株式会社,鳥取県,米子市,西福原９丁目１１番１８号,,31,202,6830805,,,2025-04-22,清算の結了等,,,2015-10-05,1,,,,,アールエーコーポレーション,0
2242,8290002029976,登記記録の閉鎖等,0,2025-04-28,2025-04-10,日本未来システム有限会社,,有限会社,福岡県,福岡市城南区,荒江１丁目４番４２号,,40,136,8140101,,,2025-04-10,清算の結了等,,,2015-10-05,1,,,,,ニッポンミライシステム,0
2264,8370201000127,登記記録の閉鎖等,0,2025-04-28,2025-04-10,株式会社クスリのヨシノ,,株式会社,宮城県,大崎市,古川大幡字谷地田８９番２,,04,215,9896114,,,2025-04-10,清算の結了等,,,2015-10-05,1,,,,,クスリノヨシノ,0
2273,8420005004203,登記記録の閉鎖等,0,2025-04-28,2025-04-18,津軽ペレット協同組合,,その他の設立登記法人,青森県,五所川原市,大字神山字殊ノ峰９５番地９,,02,205,0370611,,,2025-04-18,清算の結了等,,,2015-10-05,1,,,,,ツガルペレット,0
2279,8430002029103,登記記録の閉鎖等,0,2025-04-28,2025-04-17,有限会社ファーマーズフードシステム,,有限会社,北海道,札幌市中央区,南四条西１３丁目１３０４番地,,01,101,0640804,,,2025-04-17,清算の結了等,,,2015-10-05,1,,,,,ファーマーズフードシステム,0
2319,9010401061945,登記記録の閉鎖等,0,2025-04-28,2025-03-03,株式会社ソロインナーリサーチ,,株式会社,東京都,港区,北青山３丁目５番１７号,,13,103,1070061,,,2025-03-03,合併による解散等,7010401054851,令和７年１月１日東京都港区北青山三丁目５番１７号株式会社レイズコーポレート（7010401054851）に合併し解散,2015-10-05,1,,,,,ソロインナーリサーチ,0
2323,9010401147769,登記記録の閉鎖等,0,2025-04-28,2025-04-03,ＳＴＥＬＬＡＲ　ＡＳＣＬＥＰＩＵＳ株式会社,,株式会社,東京都,港区,元麻布２丁目１１番１７－２０８号,,13,103,1060046,,,2025-04-03,清算の結了等,,,2019-09-02,1,,,,,ステラーアスクレピオス,0
2344,9010901024880,登記記録の閉鎖等,0,2025-04-28,2025-04-24,株式会社リエゾン,,株式会社,東京都,世田谷区,桜新町１丁目３０番９号,,13,112,1540015,,,2025-04-24,清算の結了等,,,2015-10-05,1,,,,,リエゾン,0
2357,9011103014489,登記記録の閉鎖等,0,2025-04-28,2025-04-07,合同会社学ぼう言語,,合同会社,東京都,新宿区,新宿１丁目２４番７号ルネ御苑プラザ１１２２号,,13,104,1600022,,,2025-04-07,清算の結了等,,,2024-05-31,1,,,,,マナボウゲンゴ,0
2362,9011601001996,登記記録の閉鎖等,0,2025-04-28,2025-04-14,株式会社ケー・エス・ケー,,株式会社,東京都,練馬区,光が丘７丁目７番２－１００５号,,13,120,1790072,,,2025-04-14,清算の結了等,,,2015-10-05,1,,,,,ケーエスケー,0
2364,9011601020724,登記記録の閉鎖等,0,2025-04-28,2025-04-16,株式会社グラフィティコンサルティング,,株式会社,東京都,練馬区,関町南４丁目６番１９－８０３号,,13,120,1770053,,,2025-04-16,清算の結了等,,,2016-03-07,1,,,,,グラフィティコンサルティング,0
2375,9013301010055,登記記録の閉鎖等,0,2025-04-28,2025-04-08,株式会社博栄,,株式会社,東京都,豊島区,池袋４丁目６番１２号,,13,116,1710014,,,2025-04-08,清算の結了等,,,2015-10-05,1,,,,,ハクエイ,0
2387,9021002018689,登記記録の閉鎖等,0,2025-04-28,2025-04-17,有限会社太田設備工業,,有限会社,愛知県,半田市,幸町２丁目４６番地の４,,23,205,4750814,,,2025-04-17,清算の結了等,,,2015-10-05,1,,,,,オオタセツビコウギョウ,0
2424,9080002017935,登記記録の閉鎖等,0,2025-04-28,2025-04-23,有限会社富士工業,,有限会社,静岡県,藤枝市,藤岡４丁目４８８番地の６４,,22,214,4260006,,,2025-04-23,清算の結了等,,,2015-10-05,1,,,,,フジコウギョウ,0
2430,9100001019814,登記記録の閉鎖等,0,2025-04-28,2025-04-23,郵船ロジスティクス信州株式会社,,株式会社,長野県,岡谷市,郷田１丁目３番１号,,20,204,3940021,,,2025-04-23,合併による解散等,4010401090222,令和７年４月１日東京都品川区東品川四丁目１２番４号郵船ロジスティクス株式会社（4010401090222）に合併し解散,2015-10-05,1,,,,,ユウセンロジスティクスシンシュウ,0
2434,9120001032055,登記記録の閉鎖等,0,2025-04-28,2025-04-22,アステック株式会社,,株式会社,大阪府,大阪市阿倍野区,西田辺町２丁目８番７－６０１号,,27,119,5450014,,,2025-04-22,清算の結了等,,,2015-10-05,1,,,,,アステック,0
2472,9150002007870,登記記録の閉鎖等,0,2025-04-28,2025-04-23,有限会社植村歯研,,有限会社,奈良県,磯城郡田原本町,大字三笠２４１番地の１０,,29,363,6360342,,,2025-04-23,清算の結了等,,,2015-10-05,1,,,,,ウエムラシケン,0
2481,9180002085988,登記記録の閉鎖等,0,2025-04-28,2025-04-16,有限会社エビナ興業,,有限会社,愛知県,常滑市,多屋町１丁目４５番地の２,,23,216,4790839,,,2025-04-16,清算の結了等,,,2015-10-05,1,,,,,エビナコウギョウ,0
2506,9230002001196,登記記録の閉鎖等,0,2025-04-28,2025-04-21,有限会社北日本歯科技工研究所,,有限会社,富山県,富山市,蓮町２丁目１番１２号,00079002,16,201,9318333,,,2025-04-21,清算の結了等,,,2015-10-05,1,,,,,,0
2507,9240001003894,登記記録の閉鎖等,0,2025-04-28,2025-04-24,株式会社斉藤電気商会,,株式会社,広島県,広島市安佐南区,八木５丁目３番５号,,34,105,7310101,,,2025-04-24,清算の結了等,,,2015-10-05,1,,,,,,0
2508,9240001021599,登記記録の閉鎖等,0,2025-04-28,2025-04-25,株式会社ミツヤ・コーポレート,,株式会社,広島県,広島市西区,竜王町１２番１－１１０８号,,34,104,7330803,,,2025-04-25,清算の結了等,,,2015-10-05,1,,,,,ミツヤコーポレート,0
2515,9260001020871,登記記録の閉鎖等,0,2025-04-28,2025-04-24,株式会社湯郷ヘルスセンター,,株式会社,岡山県,美作市,湯郷３１２番地,,33,215,7070062,,,2025-04-24,清算の結了等,,,2015-10-05,1,,,,,,0
2537,9310002000842,登記記録の閉鎖等,0,2025-04-28,2025-04-25,有限会社エム・アンド・ケイ企画,,有限会社,長崎県,長崎市,幸町４番５－１２０４号,,42,201,8500046,,,2025-04-25,清算の結了等,,,2015-10-05,1,,,,,エムアンドケイキカク,0
2540,9320003002507,登記記録の閉鎖等,0,2025-04-28,2025-04-18,グランドスター合同会社,,合同会社,大分県,豊後大野市,三重町秋葉８２番地,,44,212,8797141,,,2025-04-18,清算の結了等,,,2016-11-09,1,,,,,グランドスター,0
2549,9340002012331,登記記録の閉鎖等,0,2025-04-28,2025-04-24,有限会社マイロード,,有限会社,鹿児島県,鹿児島市,高麗町１０番１９－４０４号,,46,201,8900051,,,2025-04-24,清算の結了等,,,2015-10-05,1,,,,,マイロード,0
2562,9400003000056,登記記録の閉鎖等,0,2025-04-28,2025-04-10,神明不動産合資会社,,合資会社,岩手県,盛岡市,南仙北１丁目１７番１１号,,03,201,0200863,,,2025-04-10,清算の結了等,,,2015-10-05,1,,,,,シンメイフドウサン,0
2566,9430002024664,登記記録の閉鎖等,0,2025-04-28,2025-04-18,有限会社丸営工務店,,有限会社,北海道,札幌市白石区,東米里２１６０番地４,,01,104,0030876,,,2025-04-18,清算の結了等,,,2015-10-05,1,,,,,マルエイコウムテン,0
