sequenceNumber,corporateNumber,process,correct,updateDate,changeDate,name,nameImageId,kind,prefectureName,cityName,streetNumber,addressImageId,prefectureCode,cityCode,postCode,addressOutside,addressOutsideImageId,closeDate,closeCause,successorCorporateNumber,changeCause,assignmentDate,latest,enName,enPrefectureName,enCityName,enAddressOutside,furigana,hihyoji
4,1010001250162,新規,0,2024-11-27,2024-11-27,株式会社ＳＴＯＣＫ１７６,,株式会社,東京都,千代田区,永田町２丁目１２番４号,,13,101,1000014,,,,,,,2024-11-27,1,,,,,ストックヒャクナナジュウロク,0
5,1010001250170,新規,0,2024-11-27,2024-11-27,株式会社ＳＴＯＣＫ１８４,,株式会社,東京都,千代田区,永田町２丁目１２番４号,,13,101,1000014,,,,,,,2024-11-27,1,,,,,ストックヒャクハチジュウヨン,0
6,1010001250294,新規,0,2024-11-27,2024-11-27,株式会社ムーネクスト,,株式会社,東京都,千代田区,神田須田町１丁目７番８号ＶＯＲＴ秋葉原ＩＶ２Ｆ,00137154,13,101,1010041,,,,,,,2024-11-27,1,,,,,ムーネクスト,0
8,1010003045610,新規,0,2024-11-27,2024-11-27,ペップリンクジャパン合同会社,,合同会社,東京都,千代田区,丸の内１丁目１１番１号パシフィックセンチュリープレイス丸の内１３階,,13,101,1000005,,,,,,,2024-11-27,1,,,,,ペップリンクジャパン,0
9,1010005039197,新規,0,2024-11-27,2024-11-27,ミルトンキーンズ一般社団法人,,その他の設立登記法人,東京都,中央区,日本橋１丁目４番１号,,13,102,1030027,,,,,,,2024-11-27,1,,,,,ミルトンキーンズ,0
22,1010705003709,新規,0,2024-11-27,2024-11-27,一般社団法人神宮前,,その他の設立登記法人,東京都,品川区,上大崎３丁目１番１号目黒セントラルスクエア１５階,,13,109,1410021,,,,,,,2024-11-27,1,,,,,ジングウマエ,0
25,1010801035606,新規,0,2024-11-27,2024-11-27,株式会社ｒｉｎｄｏ,,株式会社,東京都,大田区,田園調布２丁目１１番６号,,13,111,1450071,,,,,,,2024-11-27,1,,,,,リンドウ,0
33,1011001165920,新規,0,2024-11-27,2024-11-27,株式会社番頭,,株式会社,東京都,渋谷区,桜丘町１３‐４‐２０２,,13,113,1500031,,,,,,,2024-11-27,1,,,,,バントウ,0
34,1011001166068,新規,0,2024-11-27,2024-11-27,株式会社Ｎｏｅｌ,,株式会社,東京都,渋谷区,渋谷２丁目１９－１５宮益坂ビルディング６０９,,13,113,1500002,,,,,,,2024-11-27,1,,,,,ノエル,0
35,1011001166092,新規,0,2024-11-27,2024-11-27,株式会社Ｈ２２ホールディングス,,株式会社,東京都,渋谷区,本町２丁目３３番２号,,13,113,1510071,,,,,,,2024-11-27,1,,,,,エイチツーツーホールディングス,0
36,1011103015230,新規,0,2024-11-27,2024-11-27,合同会社えらべる,,合同会社,東京都,新宿区,新宿１丁目３６－２新宿第七葉山ビル３Ｆ,,13,104,1600022,,,,,,,2024-11-27,1,,,,,エラベル,0
38,1011301030188,新規,0,2024-11-27,2024-11-27,ＭＩＲＡＩ株式会社,,株式会社,東京都,杉並区,下高井戸２丁目１７番１６号,,13,115,1680073,,,,,,,2024-11-27,1,,,,,ミライ,0
70,1020005016617,新規,0,2024-11-27,2024-11-27,一般社団法人土佐商会,,その他の設立登記法人,神奈川県,横浜市中区,山手町２７番地５ベイステージ元町５１２,,14,104,2310862,,,,,,,2024-11-27,1,,,,,トサショウカイ,0
73,1021001083865,新規,0,2024-11-27,2024-11-27,株式会社ｍｏｖｅ　ｏｎ,,株式会社,神奈川県,藤沢市,遠藤３８３番地の１０,,14,205,2520816,,,,,,,2024-11-27,1,,,,,ムーブオン,0
75,1021003015263,新規,0,2024-11-27,2024-11-27,兎牛社中合同会社,,合同会社,神奈川県,横須賀市,林４丁目４４１番地,,14,201,2380315,,,,,,,2024-11-27,1,,,,,トゴシャチュウ,0
77,1021005013224,新規,0,2024-11-27,2024-11-27,一般財団法人日本著作権育英財団,,その他の設立登記法人,神奈川県,鎌倉市,笛田５丁目１９番９号,,14,204,2480027,,,,,,,2024-11-27,1,,,,,ニホンチョサクケンイクエイザイダン,0
86,1040001136318,新規,0,2024-11-27,2024-11-27,株式会社彩膳ゆめかざり,,株式会社,千葉県,浦安市,日の出３丁目３番Ｃ－４０９号シーガーデン新浦安,,12,227,2790013,,,,,,,2024-11-27,1,,,,,サイゼンユメカザリ,0
87,1040001136326,新規,0,2024-11-27,2024-11-27,株式会社ＮｅｏＳｉｌｉｃｏｎＣｏｎｓｕｌｔｉｎｇ,,株式会社,千葉県,勝浦市,鵜原２２０３－６,,12,218,2995243,,,,,,,2024-11-27,1,,,,,ネオシリコンコンサルティング,0
91,1040003026269,新規,0,2024-11-27,2024-11-27,合同会社Ｂｅ　Ｓｍｉｌｅ,,合同会社,千葉県,松戸市,上本郷３１９６番地パインツリーコート１０１号,,12,207,2710064,,,,,,,2024-11-27,1,,,,,ビースマイル,0
95,1050001055772,新規,0,2024-11-27,2024-11-27,コ・クリエーション株式会社,,株式会社,茨城県,結城郡八千代町,大字若１７８９番地,,08,521,3003544,,,,,,,2024-11-27,1,,,,,コクリエーション,0
99,1060003005345,新規,0,2024-11-27,2024-11-27,Ｔｉｏｋｙ合同会社,,合同会社,栃木県,足利市,多田木町６２２番地１,,09,202,3294214,,,,,,,2024-11-27,1,,,,,ティオキィ,0
118,1120001270604,新規,0,2024-11-27,2024-11-27,株式会社エール不動産,,株式会社,大阪府,大阪市中央区,内平野町１丁目２番７－６０３号,,27,128,5400037,,,,,,,2024-11-27,1,,,,,エールフドウサン,0
119,1120003028042,新規,0,2024-11-27,2024-11-27,合同会社アイミナリエ,,合同会社,大阪府,大阪市西区,南堀江４丁目４番２０－１１０８号,,27,106,5500015,,,,,,,2024-11-27,1,,,,,アイミナリエ,0
120,1120003028050,新規,0,2024-11-27,2024-11-27,合同会社ｎｏａ,,合同会社,大阪府,大阪市中央区,瓦町４丁目４－８おおきにＫＯＫＯＤＥＳＵ瓦町四丁目ビル,,27,128,5410048,,,,,,,2024-11-27,1,,,,,ノア,0
122,1120101070656,新規,0,2024-11-27,2024-11-27,株式会社Ｋ‐ＩＮＮＯＶＡＴＩＯＮ,,株式会社,大阪府,貝塚市,海塚２丁目２１番１３号,,27,208,5970083,,,,,,,2024-11-27,1,,,,,ケイイノベーション,0
123,1120101070664,新規,0,2024-11-27,2024-11-27,株式会社アドベンチャーリンク,,株式会社,大阪府,堺市中区,平井１０５５番地１,,27,142,5998251,,,,,,,2024-11-27,1,,,,,アドベンチャーリンク,0
124,1120101070672,新規,0,2024-11-27,2024-11-27,マルニ株式会社,,株式会社,大阪府,高石市,東羽衣２丁目９－９,,27,225,5920003,,,,,,,2024-11-27,1,,,,,マルニ,0
125,1120103006162,新規,0,2024-11-27,2024-11-27,合同会社福祉の未来,,合同会社,大阪府,和泉市,繁和町７番２１号春美荘６号室,,27,219,5940075,,,,,,,2024-11-27,1,,,,,フクシノミライ,0
132,1122001038650,新規,0,2024-11-27,2024-11-27,株式会社セーフティライフ,,株式会社,大阪府,東大阪市,吉田１丁目１番２７－３０１号,,27,227,5780924,,,,,,,2024-11-27,1,,,,,セーフティライフ,0
136,1130001078385,新規,0,2024-11-27,2024-11-27,シラトス株式会社,,株式会社,京都府,京都市南区,吉祥院西ノ庄東屋敷町４２番地１シャーメゾン京都雅１０５号室,,26,107,6018311,,,,,,,2024-11-27,1,,,,,シラトス,0
151,1140001136456,新規,0,2024-11-27,2024-11-27,詮金トレーディング株式会社,,株式会社,兵庫県,神戸市垂水区,舞子坂１丁目１５番９号１０１Ｂ,,28,108,6550044,,,,,,,2024-11-27,1,,,,,センキントレーディング,0
152,1140003021359,新規,0,2024-11-27,2024-11-27,合同会社ＷＯＸＩ,,合同会社,兵庫県,神戸市中央区,磯辺通１丁目１番１８号カサベラ国際プラザビル７０７号室,,28,110,6510084,,,,,,,2024-11-27,1,,,,,ウォクシー,0
158,1160001026374,新規,0,2024-11-27,2024-11-27,株式会社ＭＮ土地開発,,株式会社,滋賀県,高島市,新旭町熊野本３８８番地２,,25,212,5201532,,,,,,,2024-11-27,1,,,,,エムエヌトチカイハツ,0
164,1180001164164,新規,0,2024-11-27,2024-11-27,株式会社ＥＪＣ,,株式会社,愛知県,長久手市,長配１丁目３１１番地ラポール川本３０５,,23,238,4801114,,,,,,,2024-11-27,1,,,,,イージェーシー,0
165,1180001164255,新規,0,2024-11-27,2024-11-27,正通株式会社,,株式会社,愛知県,名古屋市港区,港北町４丁目３９番地の１１,,23,111,4550067,,,,,,,2024-11-27,1,,,,,ショウツウ,0
166,1180001164321,新規,0,2024-11-27,2024-11-27,建築板金エーテル株式会社,,株式会社,愛知県,北名古屋市,高田寺起返１９番地,,23,234,4810011,,,,,,,2024-11-27,1,,,,,ケンチクバンキンエーテル,0
171,1180301039264,新規,0,2024-11-27,2024-11-27,本多ホールディングス株式会社,,株式会社,愛知県,豊橋市,大岩町字小山塚２０番地,,23,201,4413131,,,,,,,2024-11-27,1,,,,,ホンダホールディスングス,0
177,1190003004862,新規,0,2024-11-27,2024-11-27,合同会社龍＿,00137155,合同会社,三重県,津市,栄町２丁目４０６番地アーバンＫＥＮビル１階,,24,201,5140004,,,,,,,2024-11-27,1,,,,,リュウヨウ,0
180,1200001043175,新規,0,2024-11-27,2024-11-27,株式会社ワイズ,,株式会社,岐阜県,岐阜市,琴塚３丁目７番４号,,21,201,5008222,,,,,,,2024-11-27,1,,,,,ワイズ,0
185,1230001020634,新規,0,2024-11-27,2024-11-27,株式会社水理機工,,株式会社,富山県,射水市,中野６２０番地１,,16,211,9390273,,,,,,,2024-11-27,1,,,,,スイリキコウ,0
189,1240001064168,新規,0,2024-11-27,2024-11-27,ＡＫＳ　Ｃｏｎｎｅｃｔ株式会社,,株式会社,広島県,安芸郡海田町,南幸町１０番６号,,34,304,7360032,,,,,,,2024-11-27,1,,,,,エーケーエスコネクト,0
202,1290001108060,新規,0,2024-11-27,2024-11-27,株式会社ＴＥＩ,,株式会社,福岡県,飯塚市,伊岐須４７１番地２８,,40,205,8200053,,,,,,,2024-11-27,1,,,,,テイ,0
203,1290001108135,新規,0,2024-11-27,2024-11-27,三国株式会社,,株式会社,福岡県,福岡市博多区,吉塚４丁目５番１９－２号,,40,132,8120041,,,,,,,2024-11-27,1,,,,,サンコク,0
204,1290001108143,新規,0,2024-11-27,2024-11-27,株式会社Ｙ＆Ｃｏ,,株式会社,福岡県,久留米市,西町２１９番地９,,40,203,8300038,,,,,,,2024-11-27,1,,,,,ワイアンドコー,0
205,1290003016121,新規,0,2024-11-27,2024-11-27,合同会社ＫＡＲＡＴ,,合同会社,福岡県,福岡市西区,拾六町２丁目１２番２８号,,40,135,8190041,,,,,,,2024-11-27,1,,,,,カラット,0
206,1310001019338,新規,0,2024-11-27,2024-11-27,株式会社Ａｄｄｉｔｉｏｎ,,株式会社,長崎県,長崎市,西海町１７６５－１２０,,42,201,8513101,,,,,,,2024-11-27,1,,,,,アディション,0
207,1310005008816,新規,0,2024-11-27,2024-11-27,特定非営利活動法人富津の明日を創る会,,その他の設立登記法人,長崎県,雲仙市,小浜町富津３２２１番地,,42,213,8540516,,,,,,,2024-11-27,1,,,,,トミツノアシタヲツクルカイ,0
210,1330001032677,新規,0,2024-11-27,2024-11-27,株式会社Ｔｏ　Ｙｏｕ　Ｐｌａｎｎｉｎｇ,,株式会社,熊本県,熊本市中央区,南熊本１丁目１０－２１マーベラス南熊本４０５,,43,101,8600812,,,,,,,2024-11-27,1,,,,,トゥーユープランニング,0
213,1340003004673,新規,0,2024-11-27,2024-11-27,合同会社ｔｈａｎｋｓ,,合同会社,鹿児島県,鹿屋市,白水町６５６番地２,,46,203,8912311,,,,,,,2024-11-27,1,,,,,サンクス,0
215,1350001019301,新規,0,2024-11-27,2024-11-27,株式会社チーグッド・デザイン,,株式会社,宮崎県,宮崎市,佐土原町下田島１０５４３番地３,,45,201,8800211,,,,,,,2024-11-27,1,,,,,チーグッドデザイン,0
216,1370001051970,新規,0,2024-11-27,2024-11-27,株式会社ラストラン,,株式会社,宮城県,仙台市青葉区,愛子東５丁目２５番８号,,04,101,9893127,,,,,,,2024-11-27,1,,,,,ラストラン,0
217,1370001051979,新規,0,2024-11-27,2024-11-27,株式会社ＳＫＫ,,株式会社,宮城県,仙台市青葉区,立町２５番５－５０７号,,04,101,9800822,,,,,,,2024-11-27,1,,,,,エスケーケー,0
218,1370003006840,新規,0,2024-11-27,2024-11-27,ユニオン教育合同会社,,合同会社,宮城県,仙台市青葉区,木町通１丁目４番１‐２０１号,,04,101,9800801,,,,,,,2024-11-27,1,,,,,ユニオンキョウイク,0
225,1430001093148,新規,0,2024-11-27,2024-11-27,ＰＨＴ株式会社,,株式会社,北海道,虻田郡倶知安町,字岩尾別３２８番地４７,,01,400,0440082,,,,,,,2024-11-27,1,,,,,ピーエイチティー,0
232,1700150127678,新規,0,2024-11-27,2024-11-01,大崎上島町シルバー人材センタ－,,その他,広島県,豊田郡大崎上島町,東野２４２６－１,,34,431,7250231,,,,,,,2024-11-01,1,,,,,オオサキカミジマチヨウシルバージンザイセンター,0
241,2010001250161,新規,0,2024-11-27,2024-11-27,株式会社ＳＴＯＣＫ１７５,,株式会社,東京都,千代田区,永田町２丁目１２番４号,,13,101,1000014,,,,,,,2024-11-27,1,,,,,ストックヒャクナナジュウゴ,0
242,2010001250236,新規,0,2024-11-27,2024-11-27,株式会社オフィス北川,,株式会社,東京都,千代田区,大手町１丁目７番２号東京サンケイビル２７階,,13,101,1000004,,,,,,,2024-11-27,1,,,,,オフィスキタガワ,0
243,2010001250244,新規,0,2024-11-27,2024-11-27,Ｍｏｃａ　Ｎｅｔｗｏｒｋ株式会社,,株式会社,東京都,文京区,千石４丁目１４番９号,,13,105,1120011,,,,,,,2024-11-27,1,,,,,モカネットワーク,0
244,2010001250343,新規,0,2024-11-27,2024-11-27,株式会社のぞみＡＩ,,株式会社,東京都,文京区,本郷６丁目２５番１４号,,13,105,1130033,,,,,,,2024-11-27,1,,,,,ノゾミエーアイ,0
253,2010005039188,新規,0,2024-11-27,2024-11-27,一般社団法人ＴＨＩＲＤ　ＣＬＩＮＩＣ,,その他の設立登記法人,東京都,中央区,銀座２丁目４番１８号アルボーレ銀座４階,,13,102,1040061,,,,,,,2024-11-27,1,,,,,サードクリニック,0
254,2010005039196,新規,0,2024-11-27,2024-11-27,Ｍ‐ＳＭＹ３ホールディングス一般社団法人,,その他の設立登記法人,東京都,中央区,日本橋１丁目４番１号,,13,102,1030027,,,,,,,2024-11-27,1,,,,,エムエスエムワイスリーホールディングス,0
263,2010401186658,新規,0,2024-11-27,2024-11-27,ＬＳ‐Ａｖｉａｔｉｏｎ第７３号株式会社,,株式会社,東京都,港区,六本木１丁目６番１号,,13,103,1060032,,,,,,,2024-11-27,1,,,,,エルエスアビエーションダイナナジュウサンゴウ,0
264,2010401186699,新規,0,2024-11-27,2024-11-27,株式会社サクセト,,株式会社,東京都,港区,南青山５丁目１７番２号,,13,103,1070062,,,,,,,2024-11-27,1,,,,,サクセト,0
268,2010601066346,新規,0,2024-11-27,2024-11-27,錦泰株式会社,,株式会社,東京都,墨田区,両国２丁目１７－１７両国ダイヤハイツ２０２－Ｍ,,13,107,1300026,,,,,,,2024-11-27,1,,,,,キンタイ,0
270,2010703007470,新規,0,2024-11-27,2024-11-27,合同会社ひびき,,合同会社,東京都,品川区,西五反田８丁目４番１３号五反田ＪＰビルディング６階,,13,109,1410031,,,,,,,2024-11-27,1,,,,,ヒビキ,0
276,2011001166075,新規,0,2024-11-27,2024-11-27,株式会社デポルト,,株式会社,東京都,目黒区,自由が丘２丁目１８番１３号パークハウス自由が丘２０２号,,13,110,1520035,,,,,,,2024-11-27,1,,,,,デポルト,0
282,2011101109644,新規,0,2024-11-27,2024-11-27,株式会社ＣＮ,,株式会社,東京都,新宿区,早稲田鶴巻町５１８番地３階,,13,104,1620041,,,,,,,2024-11-27,1,,,,,シーエヌ,0
283,2011101109719,新規,0,2024-11-27,2024-11-27,株式会社緊急センター,,株式会社,東京都,新宿区,西新宿７丁目７番２５号,,13,104,1600023,,,,,,,2024-11-27,1,,,,,キンキュウセンター,0
284,2011105011243,新規,0,2024-11-27,2024-11-27,一般社団法人ＣＴＣ,,その他の設立登記法人,東京都,新宿区,西新宿５丁目２番１号シティタワー新宿アネックス２０１－１,,13,104,1600023,,,,,,,2024-11-27,1,,,,,シーティーシー,0
286,2011205002646,新規,0,2024-11-27,2024-11-27,特定非営利活動法人文楽舎みんなのよりば,,その他の設立登記法人,東京都,中野区,若宮２丁目２１番５号,,13,114,1650033,,,,,,,2024-11-27,1,,,,,ブンガクシャミンナノヨリバ,0
289,2011501031407,新規,0,2024-11-27,2024-11-27,株式会社八千代ガーデン,,株式会社,東京都,荒川区,町屋２丁目１６番８号,,13,118,1160001,,,,,,,2024-11-27,1,,,,,ヤチヨガーデン,0
293,2011701027857,新規,0,2024-11-27,2024-11-27,株式会社藤村建設,,株式会社,東京都,江戸川区,西小松川町２０番１３－４０９号,,13,123,1320032,,,,,,,2024-11-27,1,,,,,フジムラケンセツ,0
297,2011703004045,新規,0,2024-11-27,2024-11-27,合同会社ＡＮＧＥＬＩＡ,,合同会社,東京都,江戸川区,西一之江３丁目１７番５号,,13,123,1320023,,,,,,,2024-11-27,1,,,,,エンジェリア,0
301,2011803006569,新規,0,2024-11-27,2024-11-27,合同会社Ｋ．ｆｅｓｔａ,,合同会社,東京都,足立区,青井４丁目３５番１５号,,13,121,1210012,,,,,,,2024-11-27,1,,,,,ケーフェスタ,0
303,2012303002075,新規,0,2024-11-27,2024-11-27,合同会社コッカテイル,,合同会社,東京都,町田市,相原町７９６番地４１,,13,209,1940211,,,,,,,2024-11-27,1,,,,,コッカテイル,0
305,2012401042510,新規,0,2024-11-27,2024-11-27,株式会社しいなの森,,株式会社,東京都,小金井市,貫井北町５丁目３０番４０号,,13,210,1840015,,,,,,,2024-11-27,1,,,,,シイナノモリ,0
309,2013101009568,新規,0,2024-11-27,2024-11-27,株式会社Ｅｃｏ　ｇｌｏｂｅ,,株式会社,東京都,青梅市,長淵３丁目２０８番地の３,,13,205,1980052,,,,,,,2024-11-27,1,,,,,エコグローブ,0
322,2030001163634,新規,0,2024-11-27,2024-11-27,Ｄｍａｎ株式会社,,株式会社,埼玉県,吉川市,大字平沼２７０番地１,,11,243,3420056,,,,,,,2024-11-27,1,,,,,ディーマン,0
329,2030005021953,新規,0,2024-11-27,2024-11-27,土地家屋調査士法人森事務所北,,その他の設立登記法人,埼玉県,和光市,本町２－６－３０８,,11,229,3510114,,,,,,,2024-11-27,1,,,,,モリジムショキタ,0
332,2040001136309,新規,0,2024-11-27,2024-11-27,株式会社ＭＨサポート,,株式会社,千葉県,八千代市,大和田新田１６１番地４,,12,221,2760046,,,,,,,2024-11-27,1,,,,,エムエイチサポート,0
345,2080401027590,新規,0,2024-11-27,2024-11-27,ＹＭＯ　ＧＬＯＢＡＬ株式会社,,株式会社,静岡県,浜松市中央区,中央３丁目１５番３１－６０３号,,22,138,4300929,,,,,,,2024-11-27,1,,,,,ワイエムオーグローバル,0
355,2100001038060,新規,0,2024-11-27,2024-11-27,Ｂｒｉｇｈｔｅｒｓ株式会社,,株式会社,長野県,千曲市,大字粟佐１２４５番地１,,20,218,3870006,,,,,,,2024-11-27,1,,,,,ブライターズ,0
370,2120001270578,新規,0,2024-11-27,2024-11-27,邦品実業株式会社,,株式会社,大阪府,大阪市中央区,本町橋２番２２号,,27,128,5400029,,,,,,,2024-11-27,1,,,,,ホウヒンジツギョウ,0
371,2120001270611,新規,0,2024-11-27,2024-11-27,株式会社ドローイン,,株式会社,大阪府,大阪市北区,万歳町５番１２－９０７号,,27,127,5300028,,,,,,,2024-11-27,1,,,,,ドローイン,0
376,2120003028041,新規,0,2024-11-27,2024-11-27,合同会社東東,,合同会社,大阪府,大阪市中央区,南船場３丁目６番２１号,,27,128,5420081,,,,,,,2024-11-27,1,,,,,トントン,0
377,2120101070639,新規,0,2024-11-27,2024-11-27,ＡＴ‐ｃｌｅａｎ株式会社,,株式会社,大阪府,泉佐野市,栄町２番１２号,,27,213,5980054,,,,,,,2024-11-27,1,,,,,エーティークリーン,0
378,2120101070671,新規,0,2024-11-27,2024-11-27,株式会社セレスティーク,,株式会社,大阪府,堺市西区,上野芝町１丁１３番１８－１０５号,,27,144,5938301,,,,,,,2024-11-27,1,,,,,セレスティーク,0
382,2122001038682,新規,0,2024-11-27,2024-11-27,株式会社リバイブ,,株式会社,大阪府,四條畷市,中野本町２番８号,,27,229,5750051,,,,,,,2024-11-27,1,,,,,リバイブ,0
395,2140001136538,新規,0,2024-11-27,2024-11-27,株式会社Ｍ＆Ｍ,,株式会社,兵庫県,伊丹市,昆陽３丁目１３４番地１レジデンス昆陽,,28,207,6640881,,,,,,,2024-11-27,1,,,,,エムアンドエム,0
396,2140001136554,新規,0,2024-11-27,2024-11-27,株式会社ケーパス,,株式会社,兵庫県,伊丹市,南鈴原３丁目２１１番地１０１,,28,207,6640883,,,,,,,2024-11-27,1,,,,,ケーパス,0
397,2140005027287,新規,0,2024-11-27,2024-11-27,一般財団法人山王母子支援事業団,,その他の設立登記法人,兵庫県,神戸市中央区,元町通６丁目２番１４号,,28,110,6500022,,,,,,,2024-11-27,1,,,,,サンノウボシシエンジギョウダン,0
404,2180001164312,新規,0,2024-11-27,2024-11-27,靖坤株式会社,,株式会社,愛知県,名古屋市中区,三の丸１丁目１４番７号本丸ビル３０６号室,,23,106,4600001,,,,,,,2024-11-27,1,,,,,セイコン,0
405,2180001164329,新規,0,2024-11-27,2024-11-27,株式会社リオス,,株式会社,愛知県,名古屋市千種区,今池２丁目１４番１９号アーバンポイント千種２－Ｆ,,23,101,4640850,,,,,,,2024-11-27,1,,,,,リオス,0
408,2180003027673,新規,0,2024-11-27,2024-11-27,合同会社トップアイ,,合同会社,愛知県,名古屋市西区,菊井２丁目７番８号,,23,104,4510044,,,,,,,2024-11-27,1,,,,,トップアイ,0
413,2190003004861,新規,0,2024-11-27,2024-11-27,ＮＡＳＡ　ＴＲＡＤＩＮＧ合同会社,,合同会社,三重県,桑名郡木曽岬町,大字源緑輪中１１８５番地１,,24,303,4980816,,,,,,,2024-11-27,1,,,,,ナサトレーディング,0
421,2250003003601,新規,0,2024-11-27,2024-11-27,合同会社レイオブライト,,合同会社,山口県,宇部市,山の手町１２８番地９,,35,202,7590201,,,,,,,2024-11-27,1,,,,,レイオブライト,0
424,2270001009094,新規,0,2024-11-27,2024-11-27,株式会社ＩＫコーポレーション,,株式会社,鳥取県,鳥取市,千代水１丁目１４９番地,,31,201,6800911,,,,,,,2024-11-27,1,,,,,アイケイコーポレーション,0
430,2290001108051,新規,0,2024-11-27,2024-11-27,株式会社ＮＯＩＲ,,株式会社,福岡県,福岡市中央区,平尾４丁目６番９－１００２号藤和平尾山荘ホームズ,,40,133,8100014,,,,,,,2024-11-27,1,,,,,ノアール,0
431,2290001108068,新規,0,2024-11-27,2024-11-27,株式会社シンフォニアパートナーズ,,株式会社,福岡県,福岡市中央区,天神２丁目２番１２号Ｔ＆Ｊビルディング７Ｆ,,40,133,8100001,,,,,,,2024-11-27,1,,,,,シンフォニアパートナーズ,0
434,2290803004902,新規,0,2024-11-27,2024-11-27,合同会社キャニオン,,合同会社,福岡県,京都郡苅田町,大字新津３２９番地１７,,40,621,8000344,,,,,,,2024-11-27,1,,,,,キャニオン,0
438,2310001019337,新規,0,2024-11-27,2024-11-27,株式会社ＨＧコンサルティング,,株式会社,長崎県,大村市,武部町４６０番地４,,42,205,8560035,,,,,,,2024-11-27,1,,,,,エイチジーコンサルティング,0
440,2330001032676,新規,0,2024-11-27,2024-11-27,多辺株式会社,,株式会社,熊本県,熊本市北区,龍田陳内２丁目２８番１８号,,43,105,8618005,,,,,,,2024-11-27,1,,,,,タベ,0
442,2340001026958,新規,0,2024-11-27,2024-11-27,株式会社松風,,株式会社,鹿児島県,南さつま市,坊津町久志２１４６番地１,,46,220,8980211,,,,,,,2024-11-27,1,,,,,マツカゼ,0
445,2370001051978,新規,0,2024-11-27,2024-11-27,株式会社ステップアップ,,株式会社,宮城県,仙台市宮城野区,福室２丁目８番１７号福室マンション３１４号,,04,102,9830005,,,,,,,2024-11-27,1,,,,,ステップアップ,0
451,2400003003354,新規,0,2024-11-27,2024-11-27,合同会社令勝,,合同会社,岩手県,紫波郡紫波町,北田字桜田６４番地,,03,321,0283536,,,,,,,2024-11-27,1,,,,,レイショウ,0
457,2450003002558,新規,0,2024-11-27,2024-11-27,合同会社ＤＵＴＹ＆ＤＲＩＶＥ,,合同会社,北海道,旭川市,六条西７丁目１番２２号,,01,204,0700056,,,,,,,2024-11-27,1,,,,,デューティーアンドドライブ,0
458,2460101007631,新規,0,2024-11-27,2024-11-27,株式会社とかち屋,,株式会社,北海道,帯広市,西五条南１７丁目１番地,,01,207,0800015,,,,,,,2024-11-27,1,,,,,,0
469,3010001250160,新規,0,2024-11-27,2024-11-27,株式会社ＳＴＯＣＫ１７４,,株式会社,東京都,千代田区,永田町２丁目１２番４号,,13,101,1000014,,,,,,,2024-11-27,1,,,,,ストックヒャクナナジュウヨン,0
470,3010001250169,新規,0,2024-11-27,2024-11-27,株式会社ＳＴＯＣＫ１８３,,株式会社,東京都,千代田区,永田町２丁目１２番４号,,13,101,1000014,,,,,,,2024-11-27,1,,,,,ストックヒャクハチジュウサン,0
471,3010001250251,新規,0,2024-11-27,2024-11-27,株式会社ブルーラクール,,株式会社,東京都,千代田区,九段北３丁目２番２号Ｂ．ＲロジェＮ－４号,,13,101,1020073,,,,,,,2024-11-27,1,,,,,ブルーラクール,0
476,3010003045542,新規,0,2024-11-27,2024-11-27,合同会社エマープ,,合同会社,東京都,千代田区,丸の内１丁目４番１号東京共同会計事務所内,,13,101,1000005,,,,,,,2024-11-27,1,,,,,エマープ,0
478,3010005039179,新規,0,2024-11-27,2024-11-27,マロニエ税理士法人,,その他の設立登記法人,東京都,中央区,銀座２丁目１０番８号マニエラ銀座ビル４階,,13,102,1040061,,,,,,,2024-11-27,1,,,,,マロニエ,0
488,3010401186624,新規,0,2024-11-27,2024-11-27,ＧＯＲＩＬ株式会社,,株式会社,東京都,港区,北青山３丁目１０番５号ＳｐｒｉｎｇＴｅｒｒａｃｅＯｍｏｔｅｓａｎｄｏ２Ｆ,,13,103,1070061,,,,,,,2024-11-27,1,,,,,ゴリル,0
489,3010401186657,新規,0,2024-11-27,2024-11-27,ＬＳ‐Ａｖｉａｔｉｏｎ第７２号株式会社,,株式会社,東京都,港区,六本木１丁目６番１号,,13,103,1060032,,,,,,,2024-11-27,1,,,,,エルエスアビエーションダイナナジュウニゴウ,0
492,3010403033881,新規,0,2024-11-27,2024-11-27,Ｌｉｎｏ合同会社,,合同会社,東京都,港区,南青山３丁目１番３６号青山丸竹ビル６Ｆ,,13,103,1070062,,,,,,,2024-11-27,1,,,,,リノ,0
493,3010405023781,新規,0,2024-11-27,2024-11-27,一般社団法人日本動物福祉認証機構,,その他の設立登記法人,東京都,港区,南青山５丁目６番９号サウス青山マンション５０４号,,13,103,1070062,,,,,,,2024-11-27,1,,,,,ニホンドウブツフクシニンショウキコウ,0
495,3010501053245,新規,0,2024-11-27,2024-11-27,浅草投資株式会社,,株式会社,東京都,台東区,西浅草３丁目２６番３４号浮東小築ビル１０１号室,,13,106,1110035,,,,,,,2024-11-27,1,,,,,アサクサトウシ,0
497,3010601066345,新規,0,2024-11-27,2024-11-27,君成創新株式会社,,株式会社,東京都,墨田区,両国２丁目１７－１７両国ダイヤハイツ２０２－１３号室,,13,107,1300026,,,,,,,2024-11-27,1,,,,,クンセイソウシン,0
505,3010903009522,新規,0,2024-11-27,2024-11-27,合同会社ＲＯＳＩＥＲ,,合同会社,東京都,世田谷区,粕谷２丁目１９番５－１３０３号,,13,112,1570063,,,,,,,2024-11-27,1,,,,,ロージア,0
514,3011001166041,新規,0,2024-11-27,2024-11-27,タイピングベアーズ株式会社,,株式会社,東京都,渋谷区,道玄坂１丁目１０番８号渋谷道玄坂東急ビル２Ｆ－Ｃ,,13,113,1500043,,,,,,,2024-11-27,1,,,,,タイピングベアーズ,0
515,3011001166090,新規,0,2024-11-27,2024-11-27,ＭＡＮＡ株式会社,,株式会社,東京都,渋谷区,恵比寿西２丁目４番８号ウィンド恵比寿ビル８Ｆ,,13,113,1500021,,,,,,,2024-11-27,1,,,,,マナ,0
522,3011103015229,新規,0,2024-11-27,2024-11-27,マヴォ出版合同会社,,合同会社,東京都,新宿区,西新宿３丁目３番１３号西新宿水間ビル２Ｆ,,13,104,1600023,,,,,,,2024-11-27,1,,,,,マヴォシュッパン,0
527,3011401026588,新規,0,2024-11-27,2024-11-27,株式会社Ｌｏｇｉｃｏｎｎｅ,,株式会社,東京都,板橋区,板橋２丁目６５番８号ＭＳビル５階,,13,119,1730004,,,,,,,2024-11-27,1,,,,,ロジコネ,0
530,3011601028236,新規,0,2024-11-27,2024-11-27,ＣＬ　ＬＩＦＥ株式会社,,株式会社,東京都,練馬区,豊玉上２丁目２７番１６号第２新建ビル２０３号室,,13,120,1760011,,,,,,,2024-11-27,1,,,,,シーエルライフ,0
531,3011701027864,新規,0,2024-11-27,2024-11-27,瑞乃書房株式会社,,株式会社,東京都,江戸川区,南篠崎町３丁目４番２号,,13,123,1330065,,,,,,,2024-11-27,1,,,,,ミズノショボウ,0
532,3011703004044,新規,0,2024-11-27,2024-11-27,太極国際貿易合同会社,,合同会社,東京都,江戸川区,南小岩３丁目１－１４プランドールＭ１１７室,,13,123,1330056,,,,,,,2024-11-27,1,,,,,タイキョクコクサイボウエキ,0
538,3011803006568,新規,0,2024-11-27,2024-11-27,合同会社エムレック,,合同会社,東京都,足立区,西新井４丁目２番１８－５０４号,,13,121,1230841,,,,,,,2024-11-27,1,,,,,エムレック,0
564,3030005021952,新規,0,2024-11-27,2024-11-27,一般社団法人しんゆう会,,その他の設立登記法人,埼玉県,さいたま市大宮区,三橋２丁目７９２番地８,,11,103,3300856,,,,,,,2024-11-27,1,,,,,シンユウカイ,0
570,3040001136258,新規,0,2024-11-27,2024-11-27,株式会社コーワケアサービス,,株式会社,千葉県,松戸市,南花島３丁目４６番地２,,12,207,2710065,,,,,,,2024-11-27,1,,,,,コーワケアサービス,0
571,3040001136266,新規,0,2024-11-27,2024-11-27,株式会社Ｂ．Ｂ　ＧＡＲＡＧＥ,,株式会社,千葉県,鎌ケ谷市,東道野辺３丁目８番２７号,,12,224,2730115,,,,,,,2024-11-27,1,,,,,ビービーガレージ,0
572,3040001136308,新規,0,2024-11-27,2024-11-27,株式会社グローススポーツエンターテイメント,,株式会社,千葉県,松戸市,五香４丁目４３番地の９ブレーンハイツ五香１０３号,,12,207,2702213,,,,,,,2024-11-27,1,,,,,グローススポーツエンターテイメント,0
573,3040001136324,新規,0,2024-11-27,2024-11-27,株式会社ＫＡＮＹＵ,,株式会社,千葉県,流山市,南流山４丁目２－２３クレストフォート１０５,,12,220,2700163,,,,,,,2024-11-27,1,,,,,カンユー,0
574,3040001136332,新規,0,2024-11-27,2024-11-27,株式会社Ｋｕｒａｎａ,,株式会社,千葉県,松戸市,小金原９丁目５番地の１３,,12,207,2700021,,,,,,,2024-11-27,1,,,,,クラナ,0
575,3040003026234,新規,0,2024-11-27,2024-11-27,ＭＩＲＩ合同会社,,合同会社,千葉県,我孫子市,台田３丁目２１番１０号（１０７号）レオパレスあらた,,12,222,2701167,,,,,,,2024-11-27,1,,,,,ミリ,0
576,3070003005680,新規,0,2024-11-27,2024-11-27,合同会社邁進,,合同会社,群馬県,高崎市,金古町１５７１番地９,,10,202,3703511,,,,,,,2024-11-27,1,,,,,マイシン,0
580,3100003007888,新規,0,2024-11-27,2024-11-27,合同会社そえる手,,合同会社,長野県,長野市,三輪４丁目２－１３ＣＡＭＰｉＴ本郷団地Ｂ２０３,,20,201,3800803,,,,,,,2024-11-27,1,,,,,ソエルテ,0
592,3120001270610,新規,0,2024-11-27,2024-11-27,和泉国際株式会社,,株式会社,大阪府,大阪市生野区,新今里７丁目２番３号２０５室,,27,116,5440001,,,,,,,2024-11-27,1,,,,,イズミコクサイ,0
593,3120001270619,新規,0,2024-11-27,2024-11-27,株式会社ＨＡＳＨＩ２ｎｄ,,株式会社,大阪府,大阪市東淀川区,瑞光３丁目６番１１号,,27,114,5330005,,,,,,,2024-11-27,1,,,,,ハシセカンド,0
596,3120003028049,新規,0,2024-11-27,2024-11-27,合同会社れお,,合同会社,大阪府,大阪市福島区,鷺洲２丁目５番１２－１０２号,,27,103,5530002,,,,,,,2024-11-27,1,,,,,レオ,0
597,3120003028057,新規,0,2024-11-27,2024-11-27,ＫＹＯＳＨＩＮ　ＧＵＩＬＤ合同会社,,合同会社,大阪府,大阪市西成区,玉出西１丁目１９番１８号,,27,122,5570045,,,,,,,2024-11-27,1,,,,,キョウシンギルド,0
604,3122001038673,新規,0,2024-11-27,2024-11-27,株式会社Ｒ‐Ｎｅｘｔ,,株式会社,大阪府,八尾市,山城町２丁目１番２８号,,27,212,5810801,,,,,,,2024-11-27,1,,,,,アールネクスト,0
611,3140001136553,新規,0,2024-11-27,2024-11-27,株式会社山秀,,株式会社,兵庫県,尼崎市,三反田町２丁目１９番１２号,,28,202,6610024,,,,,,,2024-11-27,1,,,,,ヤマヒデ,0
615,3150001027710,新規,0,2024-11-27,2024-11-27,株式会社ｉｌｉｍａ,,株式会社,奈良県,奈良市,三条本町１番９３－６０９号,,29,201,6308122,,,,,,,2024-11-27,1,,,,,イリマ,0
616,3160001026372,新規,0,2024-11-27,2024-11-27,株式会社Ｋｙｏｇｏｋｕ,,株式会社,滋賀県,甲賀市,水口町三本柳２９０番地,,25,209,5280040,,,,,,,2024-11-27,1,,,,,キョウゴク,0
623,3180001164286,新規,0,2024-11-27,2024-11-27,株式会社３Ｇアセットマネジメント,,株式会社,愛知県,名古屋市中村区,名駅４丁目１１番４号,,23,105,4500002,,,,,,,2024-11-27,1,,,,,スリージーアセットマネジメント,0
624,3180001164328,新規,0,2024-11-27,2024-11-27,株式会社ＫＳ　ＪＡＰＡＮ,,株式会社,愛知県,尾張旭市,渋川町１丁目６番地１１,,23,226,4880839,,,,,,,2024-11-27,1,,,,,ケーエスジャパン,0
627,3180003027672,新規,0,2024-11-27,2024-11-27,合同会社ビリーブ建設,,合同会社,愛知県,一宮市,大和町馬引字乾出５番地イトーコーポ２０８号,,23,203,4910931,,,,,,,2024-11-27,1,,,,,ビリーブケンセツ,0
630,3200001043181,新規,0,2024-11-27,2024-11-27,株式会社ａｔｅｌｉｅｒ　ｔｏｊｉ,,株式会社,岐阜県,多治見市,滝呂町４丁目８７番地,,21,204,5070813,,,,,,,2024-11-27,1,,,,,アトリエトウジ,0
633,3200003006599,新規,0,2024-11-27,2024-11-27,合同会社カレイドスコープ,,合同会社,岐阜県,岐阜市,尼ケ崎町１丁目９番地２パビリオン梅林苑Ａ棟２０７号室,,21,201,5008132,,,,,,,2024-11-27,1,,,,,カレイドスコープ,0
643,3270001009093,新規,0,2024-11-27,2024-11-27,株式会社湯村不動産,,株式会社,鳥取県,東伯郡湯梨浜町,大字上浅津９７番地６,,31,370,6820712,,,,,,,2024-11-27,1,,,,,ユムラフドウサン,0
649,3290001108059,新規,0,2024-11-27,2024-11-27,株式会社レイズイン,,株式会社,福岡県,福岡市博多区,中呉服町２番２３号,,40,132,8120035,,,,,,,2024-11-27,1,,,,,レイズイン,0
653,3290003016111,新規,0,2024-11-27,2024-11-27,合同会社瞬間,,合同会社,福岡県,宗像市,江口１２５０番地１０－１０２号,,40,220,8113502,,,,,,,2024-11-27,1,,,,,シュンカン,0
659,3330003010662,新規,0,2024-11-27,2024-11-27,合同会社ｌｏｌｏ,,合同会社,熊本県,熊本市北区,楠８丁目９番１０号重岡ビル２Ｆ,,43,105,8618003,,,,,,,2024-11-27,1,,,,,ローロー,0
660,3340001026957,新規,0,2024-11-27,2024-11-27,３ｒｄＬｏｖｅｉｎｇＦａｃｔｏｒｙ株式会社,,株式会社,鹿児島県,鹿児島市,西千石町６番２１号オプションビル１Ｆ,,46,201,8920847,,,,,,,2024-11-27,1,,,,,サードラブイングファクトリー,0
666,3370001051960,新規,0,2024-11-27,2024-11-27,鴻海開発株式会社,,株式会社,宮城県,刈田郡蔵王町,大字小村崎字山崎１４番地１,,04,301,9890841,,,,,,,2024-11-27,1,,,,,ホンハイカイハツ,0
667,3370001051977,新規,0,2024-11-27,2024-11-27,ｙｕｒｉａｇｅ‐ＢＡＳＥ株式会社,,株式会社,宮城県,名取市,閖上中央２丁目１７番地の７,,04,207,9811203,,,,,,,2024-11-27,1,,,,,ユリアゲベース,0
669,3370005010863,新規,0,2024-11-27,2024-11-27,一般社団法人障がい者地域支援協議会,,その他の設立登記法人,宮城県,仙台市太白区,西の平１丁目２０番２８号,,04,104,9820825,,,,,,,2024-11-27,1,,,,,ショウガイシャチイキシエンキョウギカイ,0
674,3380001034948,新規,0,2024-11-27,2024-11-27,エスマネージ株式会社,,株式会社,福島県,須賀川市,一里坦１番地,,07,207,9620034,,,,,,,2024-11-27,1,,,,,エスマネージ,0
677,3400003003353,新規,0,2024-11-27,2024-11-27,アシスト合同会社,,合同会社,岩手県,大船渡市,三陸町吉浜字千歳２２４番地,,03,203,0220102,,,,,,,2024-11-27,1,,,,,アシスト,0
684,3430001093154,新規,0,2024-11-27,2024-11-27,株式会社ＲＡＳＩＫ,,株式会社,北海道,千歳市,北斗３丁目１番１６,,01,224,0660073,,,,,,,2024-11-27,1,,,,,ラシク,0
686,3450003002557,新規,0,2024-11-27,2024-11-27,合同会社墨,,合同会社,北海道,名寄市,西四条南５丁目２５番地,,01,221,0960014,,,,,,,2024-11-27,1,,,,,ボク,0
689,3470001020476,新規,0,2024-11-27,2024-11-27,株式会社ＡｔｓｕＫｉｎｇｄｏｍ,,株式会社,香川県,高松市,中間町６５４番地８,,37,201,7618043,,,,,,,2024-11-27,1,,,,,,0
693,3700150127981,新規,0,2024-11-27,2024-11-27,Ｄｉｓｐｌａｙ　Ｔｏｋｙｏ　Ｃｏ．，Ｌｔｄ．,,外国会社等,,,,,,,,Ｖｉｓｔｒａ　Ｃｏｒｐｏｒａｔｅ　Ｓｅｒｖｉｃｅｓ　Ｃｅｎｔｒｅ，Ｇｒｏｕｎｄ　Ｆｌｏｏｒ　ＮＰＦ　Ｂｕｉｌｄｉｎｇ，Ｂｅａｃｈ　Ｒｏａｄ，Ａｐｉａ，Ｓａｍｏａ,,,,,,2024-11-27,1,,,,,デイスプレイトウキヨウコーポレートリミテツド,0
704,4010001250168,新規,0,2024-11-27,2024-11-27,株式会社ＳＴＯＣＫ１８２,,株式会社,東京都,千代田区,永田町２丁目１２番４号,,13,101,1000014,,,,,,,2024-11-27,1,,,,,ストックヒャクハチジュウニ,0
705,4010001250291,新規,0,2024-11-27,2024-11-27,フィナップ株式会社,,株式会社,東京都,千代田区,丸の内１丁目１１番１号,,13,101,1000005,,,,,,,2024-11-27,1,,,,,フィナップ,0
708,4010003045541,新規,0,2024-11-27,2024-11-27,ｒｅｎｇａプロ第４号合同会社,,合同会社,東京都,千代田区,丸の内１丁目４番１号東京共同会計事務所内,,13,101,1000005,,,,,,,2024-11-27,1,,,,,レンガプロダイヨンゴウ,0
709,4010005039186,新規,0,2024-11-27,2024-11-27,一般社団法人あめとつち,,その他の設立登記法人,東京都,中央区,銀座７丁目１１番３号矢島ビル４階,,13,102,1040061,,,,,,,2024-11-27,1,,,,,アメトツチ,0
715,4010401186656,新規,0,2024-11-27,2024-11-27,ＬＳ‐Ａｖｉａｔｉｏｎ第７１号株式会社,,株式会社,東京都,港区,六本木１丁目６番１号,,13,103,1060032,,,,,,,2024-11-27,1,,,,,エルエスアビエーションダイナナジュウイチゴウ,0
718,4010403033897,新規,0,2024-11-27,2024-11-27,野田ロジスティクス合同会社,,合同会社,東京都,港区,六本木１丁目６番１号泉ガーデンタワー,,13,103,1060032,,,,,,,2024-11-27,1,,,,,ノダロジスティクス,0
725,4010405023756,新規,0,2024-11-27,2024-11-27,一般社団法人サステナブル奨学金基金,,その他の設立登記法人,東京都,港区,西新橋１丁目１番１号１０Ｆ、ＷｅＷｏｒｋ日比谷ＦＯＲＴＴＯＷＥＲ,,13,103,1050003,,,,,,,2024-11-27,1,,,,,サステナブルショウガクキンキキン,0
726,4010405023830,新規,0,2024-11-27,2024-11-27,一般社団法人Ｐｊ　ＳＮＯＷ,,その他の設立登記法人,東京都,港区,西新橋１丁目２番９号メンターキャピタル税理士法人内,,13,103,1050003,,,,,,,2024-11-27,1,,,,,ピージェイスノー,0
731,4010601066344,新規,0,2024-11-27,2024-11-27,無量株式会社,,株式会社,東京都,墨田区,両国２丁目１７－１７両国ダイヤハイツ２０２－１４号室,,13,107,1300026,,,,,,,2024-11-27,1,,,,,ムリョウ,0
733,4010705003706,新規,0,2024-11-27,2024-11-27,一般社団法人ＤＸＡＩ協会,,その他の設立登記法人,東京都,品川区,南大井３丁目２０番５号,,13,109,1400013,,,,,,,2024-11-27,1,,,,,ディーエクスエイアイキョウカイ,0
739,4010801035611,新規,0,2024-11-27,2024-11-27,株式会社まねき猫,,株式会社,東京都,大田区,池上５丁目１９番１１号,,13,111,1460082,,,,,,,2024-11-27,1,,,,,マネキネコ,0
740,4010803005158,新規,0,2024-11-27,2024-11-27,ａｎｖｏｔｅ１２１合同会社,,合同会社,東京都,大田区,多摩川１丁目２１番６号ハイライズ新倉２０１,,13,111,1460095,,,,,,,2024-11-27,1,,,,,アンボーテイチニイチ,0
747,4011001165793,新規,0,2024-11-27,2024-11-27,株式会社ＪＭｗｏｒｋｓ,,株式会社,東京都,渋谷区,恵比寿西２丁目４－８ウィンド恵比寿ビル８Ｆ,,13,113,1500021,,,,,,,2024-11-27,1,,,,,ジェーエムワークス,0
748,4011001166057,新規,0,2024-11-27,2024-11-27,Ｐｕｆｆ　Ａｎｄ株式会社,,株式会社,東京都,渋谷区,渋谷２丁目１９－１５宮益坂ビルディング６０９,,13,113,1500002,,,,,,,2024-11-27,1,,,,,パフアンド,0
755,4011101109626,新規,0,2024-11-27,2024-11-27,株式会社Ｂｒｉｇｈｔ　Ｂｕｓｉｎｅｓｓ　Ｐａｒｔｎｅｒｓ,,株式会社,東京都,新宿区,西新宿３丁目９－７フロンティア新宿タワー４０２,,13,104,1600023,,,,,,,2024-11-27,1,,,,,ブライトビジネスパートナーズ,0
756,4011101109683,新規,0,2024-11-27,2024-11-27,株式会社Ｐｒｅｓｅｎｃｅ　Ａｃｃｏｕｎｔａｎｃｙ,,株式会社,東京都,新宿区,大久保１丁目２番１号天翔東新宿ビル２１２号室,,13,104,1690072,,,,,,,2024-11-27,1,,,,,プレゼンスアカウンタンシー,0
760,4011401026612,新規,0,2024-11-27,2024-11-27,株式会社マサゴ,,株式会社,東京都,板橋区,板橋２丁目３５番４号,,13,119,1730004,,,,,,,2024-11-27,1,,,,,マサゴ,0
762,4011601028235,新規,0,2024-11-27,2024-11-27,株式会社禹川,,株式会社,東京都,練馬区,練馬４丁目２１番３－１０１号,,13,120,1760001,,,,,,,2024-11-27,1,,,,,ウガワ,0
763,4011703004043,新規,0,2024-11-27,2024-11-27,合同会社ＪＭ　Ｃｏｒｐｏｒａｔｉｏｎ,,合同会社,東京都,江戸川区,東葛西１丁目１－１４,,13,123,1340084,,,,,,,2024-11-27,1,,,,,ジェイエムコーポレーション,0
773,4020001160333,新規,0,2024-11-27,2024-11-27,株式会社実りケア,,株式会社,神奈川県,横浜市緑区,長津田４丁目８番３号,,14,113,2260027,,,,,,,2024-11-27,1,,,,,ミノリケア,0
779,4020005016606,新規,0,2024-11-27,2024-11-27,特定非営利活動法人清宮会,,その他の設立登記法人,神奈川県,川崎市宮前区,南野川３丁目３４番４５号,,14,136,2160042,,,,,,,2024-11-27,1,,,,,セイグウカイ,0
796,4040001136307,新規,0,2024-11-27,2024-11-27,株式会社サニーサイドライフアメニティ,,株式会社,千葉県,千葉市中央区,都町３丁目２１番７号１Ｆ,,12,101,2600001,,,,,,,2024-11-27,1,,,,,サニーサイドライフアメニティ,0
797,4040001136331,新規,0,2024-11-27,2024-11-27,桜漫物語株式会社,,株式会社,千葉県,船橋市,印内２丁目３番１５号ＴＯＰ西船橋第一１０２,,12,204,2730039,,,,,,,2024-11-27,1,,,,,オウマンモノガタリ,0
799,4040003026258,新規,0,2024-11-27,2024-11-27,合同会社コンパス・アニマルホスピタル,,合同会社,千葉県,大網白里市,経田１２０番地５,,12,239,2993231,,,,,,,2024-11-27,1,,,,,コンパスアニマルホスピタル,0
801,4060003005342,新規,0,2024-11-27,2024-11-27,合同会社ＣＴＴＭ,,合同会社,栃木県,芳賀郡益子町,大字小宅１３７１番地４,,09,342,3214101,,,,,,,2024-11-27,1,,,,,シィティティエム,0
806,4070001042403,新規,0,2024-11-27,2024-11-27,Ａｐｅｘ　Ｊａｐａｎ株式会社,,株式会社,群馬県,前橋市,石倉町２丁目１４番地１スカイマンション１０２号,,10,201,3710841,,,,,,,2024-11-27,1,,,,,アペックスジャパン,0
815,4100001038059,新規,0,2024-11-27,2024-11-27,Ａｓｔｅｒｉｘ株式会社,,株式会社,長野県,飯山市,大字飯山１１４９２番地３３１,,20,213,3892253,,,,,,,2024-11-27,1,,,,,アステリックス,0
819,4110001038875,新規,0,2024-11-27,2024-11-27,株式会社イルズ,,株式会社,新潟県,北蒲原郡聖籠町,大字次第浜１８１２番地３５,,15,307,9570105,,,,,,,2024-11-27,1,,,,,イルズ,0
825,4120001270584,新規,0,2024-11-27,2024-11-27,新生エステート株式会社,,株式会社,大阪府,大阪市中央区,北久宝寺町２丁目２番１３号マエダビル６Ｆ,,27,128,5410057,,,,,,,2024-11-27,1,,,,,シンセイエステート,0
826,4120003028048,新規,0,2024-11-27,2024-11-27,マイシステム合同会社,,合同会社,大阪府,大阪市福島区,鷺洲２丁目５番１２号ツインクレスト１０２号,,27,103,5530002,,,,,,,2024-11-27,1,,,,,マイシステム,0
827,4120003028056,新規,0,2024-11-27,2024-11-27,合同会社ｓｔｕｎｎｉｎｇ,,合同会社,大阪府,大阪市西区,南堀江４丁目１８の３,,27,106,5500015,,,,,,,2024-11-27,1,,,,,スタニング,0
842,4140003021356,新規,0,2024-11-27,2024-11-27,中須グループ合同会社,,合同会社,兵庫県,明石市,明南町２丁目１番３０－７０３号,,28,203,6730001,,,,,,,2024-11-27,1,,,,,ナカスグループ,0
845,4160001026371,新規,0,2024-11-27,2024-11-27,未来商事株式会社,,株式会社,滋賀県,長浜市,勝町１１５番地,,25,203,5260042,,,,,,,2024-11-27,1,,,,,ミライショウジ,0
854,4180001164277,新規,0,2024-11-27,2024-11-27,株式会社壮コーポレーション,,株式会社,愛知県,名古屋市瑞穂区,東栄町７丁目６番地,,23,108,4670017,,,,,,,2024-11-27,1,,,,,ソウコーポレーション,0
855,4180001164319,新規,0,2024-11-27,2024-11-27,株式会社あおぞら不動産,,株式会社,愛知県,半田市,更生町１丁目１２２番地の５,,23,205,4750856,,,,,,,2024-11-27,1,,,,,アオゾラフドウサン,0
856,4180001164335,新規,0,2024-11-27,2024-11-27,株式会社ＡＮＳ,,株式会社,愛知県,名古屋市中区,丸の内３丁目２３番１１号,,23,106,4600002,,,,,,,2024-11-27,1,,,,,エーエヌエス,0
862,4190005012002,新規,0,2024-11-27,2024-11-27,一般社団法人ＮＩＮＥＳＴＹＬＥ,,その他の設立登記法人,三重県,伊勢市,小俣町明野２８５番地５,,24,203,5190501,,,,,,,2024-11-27,1,,,,,ナインスタイル,0
866,4200001043180,新規,0,2024-11-27,2024-11-27,中濃トラック販売株式会社,,株式会社,岐阜県,可児市,土田川脇８番地７,,21,214,5090206,,,,,,,2024-11-27,1,,,,,チュウノウトラックハンバイ,0
868,4200003006598,新規,0,2024-11-27,2024-11-27,合同会社アステート,,合同会社,岐阜県,土岐市,泉町久尻１６番地の４,,21,212,5095142,,,,,,,2024-11-27,1,,,,,アステート,0
883,4290001108058,新規,0,2024-11-27,2024-11-27,株式会社ＷＨＫ,,株式会社,福岡県,福岡市城南区,別府団地１２番９０４号,,40,136,8140106,,,,,,,2024-11-27,1,,,,,ダブルエイチケー,0
884,4290001108074,新規,0,2024-11-27,2024-11-27,株式会社ＮＯＭ,,株式会社,福岡県,福岡市博多区,住吉２丁目１５－１０－５０５,,40,132,8120018,,,,,,,2024-11-27,1,,,,,ノム,0
885,4290001108108,新規,0,2024-11-27,2024-11-27,株式会社ユウキ,,株式会社,福岡県,福岡市中央区,渡辺通５丁目２０番７号,,40,133,8100004,,,,,,,2024-11-27,1,,,,,ユウキ,0
886,4290001108116,新規,0,2024-11-27,2024-11-27,株式会社覇王樹,,株式会社,福岡県,福岡市中央区,天神２丁目２番１２号Ｔ＆Ｊビルディング７Ｆ,,40,133,8100001,,,,,,,2024-11-27,1,,,,,サボテン,0
887,4290001108132,新規,0,2024-11-27,2024-11-27,株式会社ＦＳＧ,,株式会社,福岡県,飯塚市,立岩１１７３番地の３,,40,205,8200003,,,,,,,2024-11-27,1,,,,,エフエスジー,0
889,4290003016119,新規,0,2024-11-27,2024-11-27,合同会社岡野,,合同会社,福岡県,糟屋郡久山町,大字久原２７２９番地１２,,40,348,8112501,,,,,,,2024-11-27,1,,,,,オカノ,0
892,4290801031070,新規,0,2024-11-27,2024-11-27,株式会社アスマテラ,,株式会社,福岡県,京都郡苅田町,大字新津５５４番地２,,40,621,8000344,,,,,,,2024-11-27,1,,,,,アスマテラ,0
895,4320001020829,新規,0,2024-11-27,2024-11-27,株式会社信和クリエイトＨＤ,,株式会社,大分県,大分市,久原南１丁目４番１０号,,44,201,8700326,,,,,,,2024-11-27,1,,,,,シンワクリエイトホールディングス,0
907,4370005010862,新規,0,2024-11-27,2024-11-27,一般社団法人ＶａｌｕｅＣｒｅａｔｉｏｎ,,その他の設立登記法人,宮城県,宮城郡七ヶ浜町,遠山１丁目８番３４号,,04,404,9850823,,,,,,,2024-11-27,1,,,,,バリュークリエーション,0
910,4390003002315,新規,0,2024-11-27,2024-11-27,ＲＩＺＭ合同会社,,合同会社,山形県,最上郡最上町,大字向町１０６－１３,,06,362,9996101,,,,,,,2024-11-27,1,,,,,リズム,0
913,4400003003352,新規,0,2024-11-27,2024-11-27,合同会社ｉｎｏｒｉ,,合同会社,岩手県,盛岡市,長橋町３７番３号,,03,201,0200146,,,,,,,2024-11-27,1,,,,,イノリ,0
921,4430003017028,新規,0,2024-11-27,2024-11-27,Ｅフロンピア合同会社,,合同会社,北海道,札幌市北区,北七条西４丁目１番地１トーカン札幌第一キャステール６０７,,01,102,0600807,,,,,,,2024-11-27,1,,,,,イーフロンピア,0
924,4470003002760,新規,0,2024-11-27,2024-11-27,三つ葉農園合同会社,,合同会社,香川県,観音寺市,南町１丁目２番１１,,37,205,7680070,,,,,,,2024-11-27,1,,,,,,0
926,4480003002207,新規,0,2024-11-27,2024-11-27,合同会社阿波有機ファーム,,合同会社,徳島県,吉野川市,川島町学字吉本１６８番地,,36,205,7793306,,,,,,,2024-11-27,1,,,,,アワユウキファーム,0
927,4490001010912,新規,0,2024-11-27,2024-11-27,株式会社環工業,,株式会社,高知県,高知市,与力町１２番１０号,,39,201,7800863,,,,,,,2024-11-27,1,,,,,タマキコウギョウ,0
932,4700150092416,新規,0,2024-11-27,2019-01-17,日本漢字学会,,その他,京都府,京都市東山区,祇園町南側５５１番地,,26,105,6050074,,,,,,,2019-01-17,1,,,,,ニホンカンジガツカイ,0
944,5010001250159,新規,0,2024-11-27,2024-11-27,株式会社ＳＴＯＣＫ１７３,,株式会社,東京都,千代田区,永田町２丁目１２番４号,,13,101,1000014,,,,,,,2024-11-27,1,,,,,ストックヒャクナナジュウサン,0
945,5010001250167,新規,0,2024-11-27,2024-11-27,株式会社ＳＴＯＣＫ１８１,,株式会社,東京都,千代田区,永田町２丁目１２番４号,,13,101,1000014,,,,,,,2024-11-27,1,,,,,ストックヒャクハチジュウイチ,0
946,5010001250175,新規,0,2024-11-27,2024-11-27,株式会社プレリュード,,株式会社,東京都,中央区,湊３丁目８番１－１８０７号,,13,102,1040043,,,,,,,2024-11-27,1,,,,,プレリュード,0
947,5010001250217,新規,0,2024-11-27,2024-11-27,ヒューチャーフォース株式会社,,株式会社,東京都,千代田区,神田紺屋町１１番地岩田ビル９階,,13,101,1010035,,,,,,,2024-11-27,1,,,,,ヒューチャーフォース,0
948,5010001250266,新規,0,2024-11-27,2024-11-27,株式会社Ｔｒａｓｐｅｃｔ,,株式会社,東京都,中央区,築地７丁目１４－１４－８０３,,13,102,1040045,,,,,,,2024-11-27,1,,,,,トラスペクト,0
950,5010003045573,新規,0,2024-11-27,2024-11-27,合同会社ＷＳ２,,合同会社,東京都,千代田区,永田町２丁目１７番５号,,13,101,1000014,,,,,,,2024-11-27,1,,,,,ダブリュエスツー,0
951,5010003045631,新規,0,2024-11-27,2024-11-27,ＳｔａｒＲｉｓｅ　ｐａｒｔｎｅｒｓ合同会社,,合同会社,東京都,中央区,日本橋横山町７－１０,,13,102,1030003,,,,,,,2024-11-27,1,,,,,スターライズパートナーズ,0
958,5010401186655,新規,0,2024-11-27,2024-11-27,ＬＳ‐Ａｖｉａｔｉｏｎ第７０号株式会社,,株式会社,東京都,港区,六本木１丁目６番１号,,13,103,1060032,,,,,,,2024-11-27,1,,,,,エルエスアビエーションダイナナジュウゴウ,0
962,5010503007651,新規,0,2024-11-27,2024-11-27,合同会社Ｒａｂｂｉｔ　Ｓｏｌｕｔｉｏｎｓ,,合同会社,東京都,台東区,蔵前４丁目１番５号２０１,,13,106,1110051,,,,,,,2024-11-27,1,,,,,ラビットソリューションズ,0
963,5010703007476,新規,0,2024-11-27,2024-11-27,合同会社Ａｓｕｋａ　Ｃｏｎｓｕｌｔｉｎｇ,,合同会社,東京都,品川区,南大井６丁目１６番５－１２０１号,,13,109,1400013,,,,,,,2024-11-27,1,,,,,アスカコンサルティング,0
969,5010901056399,新規,0,2024-11-27,2024-11-27,株式会社ＲＹＳＥ,,株式会社,東京都,世田谷区,深沢２丁目５番１５号,,13,112,1580081,,,,,,,2024-11-27,1,,,,,ライズ,0
975,5011001166080,新規,0,2024-11-27,2024-11-27,Ｈａｒｉｓ株式会社,,株式会社,東京都,渋谷区,円山町５番５号Ｎａｖｉ渋谷Ｖ３階,,13,113,1500044,,,,,,,2024-11-27,1,,,,,ハリス,0
976,5011003020467,新規,0,2024-11-27,2024-11-27,アセンドウッド合同会社,,合同会社,東京都,目黒区,上目黒１丁目２６番１－１９０９号中目黒アトラスタワー,,13,110,1530051,,,,,,,2024-11-27,1,,,,,アセンドウッド,0
980,5011101109658,新規,0,2024-11-27,2024-11-27,株式会社マルチノイズ,,株式会社,東京都,新宿区,歌舞伎町２丁目３２番１２号秋山ビル２階,,13,104,1600021,,,,,,,2024-11-27,1,,,,,マルチノイズ,0
981,5011101109724,新規,0,2024-11-27,2024-11-27,株式会社ＴｒｕｅＥｍｏｔｉｏｎ,,株式会社,東京都,新宿区,西新宿３丁目３－１３西新宿水間ビル６階,,13,104,1600023,,,,,,,2024-11-27,1,,,,,トゥルーエモーション,0
983,5011103015227,新規,0,2024-11-27,2024-11-27,合同会社ＳＨＩＲＯＧＡＮＥ,,合同会社,東京都,新宿区,西新宿３丁目３番１３号西新宿水間ビル６階,,13,104,1600023,,,,,,,2024-11-27,1,,,,,シロガネ,0
985,5011501031362,新規,0,2024-11-27,2024-11-27,ＧＵＩＧＵ株式会社,,株式会社,東京都,北区,岩淵町３９－１８カルム赤羽１００３号室,,13,117,1150041,,,,,,,2024-11-27,1,,,,,グィーグ,0
989,5011701027862,新規,0,2024-11-27,2024-11-27,株式会社真越興業,,株式会社,東京都,江戸川区,平井６丁目２４番３号エポーレ平井５０１,,13,123,1320035,,,,,,,2024-11-27,1,,,,,シンエツコウギョウ,0
990,5011703004042,新規,0,2024-11-27,2024-11-27,セイゴ合同会社,,合同会社,東京都,江戸川区,南小岩２丁目９番１０号,,13,123,1330056,,,,,,,2024-11-27,1,,,,,セイゴ,0
996,5012401042516,新規,0,2024-11-27,2024-11-27,株式会社ＳＨＡＲＥ　ＮＥＳＴ,,株式会社,東京都,狛江市,岩戸南４丁目２９番３号,,13,219,2010005,,,,,,,2024-11-27,1,,,,,シェアネスト,0
997,5012403006857,新規,0,2024-11-27,2024-11-27,合同会社ｈｏｒｕｓ,,合同会社,東京都,府中市,清水が丘１丁目１－１４ＫＡＳＵＹＡＢＬＤＧ４０１,,13,206,1830015,,,,,,,2024-11-27,1,,,,,ホルス,0
1003,5020001160349,新規,0,2024-11-27,2024-11-27,株式会社掛算,,株式会社,神奈川県,横浜市西区,北幸２丁目１０－４８むつみビル３階,,14,103,2200004,,,,,,,2024-11-27,1,,,,,カケザン,0
1007,5021001083853,新規,0,2024-11-27,2024-11-27,株式会社ＮＡＮＫＡＩ,,株式会社,神奈川県,相模原市中央区,田名３１４８番地５,,14,152,2520244,,,,,,,2024-11-27,1,,,,,ナンカイ,0
1008,5021001083861,新規,0,2024-11-27,2024-11-27,株式会社Ｆｉｖｅ　Ａｉｒ,,株式会社,神奈川県,綾瀬市,早川２１６１番地８,,14,218,2521123,,,,,,,2024-11-27,1,,,,,ファイブエアー,0
1013,5021005013229,新規,0,2024-11-27,2024-11-27,特定非営利活動法人Ｐｅａｃｅ,,その他の設立登記法人,神奈川県,海老名市,国分北２丁目１５番５号,,14,215,2430406,,,,,,,2024-11-27,1,,,,,ピース,0
1031,5040001136280,新規,0,2024-11-27,2024-11-27,株式会社ＣＬＥＡＮＴＩＶＥ,,株式会社,千葉県,千葉市中央区,神明町２１１番地５ツインコートタムラ１０１０号,,12,101,2600022,,,,,,,2024-11-27,1,,,,,クリーンティブ,0
1032,5040001136297,新規,0,2024-11-27,2024-11-27,株式会社ひふみエンターテインメント,,株式会社,千葉県,柏市,旭町６丁目４番１１－１９号,,12,217,2770852,,,,,,,2024-11-27,1,,,,,ヒフミエンターテインメント,0
1033,5040001136306,新規,0,2024-11-27,2024-11-27,ＭｉａＣｏｓｍｅ株式会社,,株式会社,千葉県,流山市,南流山９丁目２番地の９,,12,220,2700163,,,,,,,2024-11-27,1,,,,,ミアコスメ,0
1034,5040001136322,新規,0,2024-11-27,2024-11-27,株式会社ＤＩＳＣＯ　ＣＯＭＰＡＮＹ,,株式会社,千葉県,松戸市,中根１０番地の１ハイホーム松戸馬橋５０７号,,12,207,2710053,,,,,,,2024-11-27,1,,,,,ディスコカンパニー,0
1035,5040001136330,新規,0,2024-11-27,2024-11-27,株式会社じらふ,,株式会社,千葉県,船橋市,中野木１丁目２１番１号セイワハイツ１０１,,12,204,2740826,,,,,,,2024-11-27,1,,,,,ジラフ,0
1039,5040003026257,新規,0,2024-11-27,2024-11-27,合同会社世一,,合同会社,千葉県,四街道市,千代田５丁目５６番地２２号,,12,228,2840015,,,,,,,2024-11-27,1,,,,,ヨイチ,0
1040,5040003026265,新規,0,2024-11-27,2024-11-27,合同会社ＵＮＩＴＥ,,合同会社,千葉県,旭市,ロの２７８番地,,12,215,2892516,,,,,,,2024-11-27,1,,,,,ユナイト,0
1046,5050005013525,新規,0,2024-11-27,2024-11-27,一般社団法人インマヌエル,,その他の設立登記法人,茨城県,水戸市,河和田１丁目１６４５番地の３,,08,201,3114152,,,,,,,2024-11-27,1,,,,,インマヌエル,0
1047,5060001037675,新規,0,2024-11-27,2024-11-27,恒勃株式会社,,株式会社,栃木県,芳賀郡茂木町,大字山内１７６番地,,09,343,3213701,,,,,,,2024-11-27,1,,,,,コウボツ,0
1048,5060003005341,新規,0,2024-11-27,2024-11-27,合同会社ｂａｃｋｙａｒｄ,,合同会社,栃木県,さくら市,鷲宿６番地,,09,214,3291411,,,,,,,2024-11-27,1,,,,,バックヤード,0
1049,5070001042402,新規,0,2024-11-27,2024-11-27,株式会社高橋新聞舗,,株式会社,群馬県,高崎市,倉賀野町１１５５番地４,,10,202,3701201,,,,,,,2024-11-27,1,,,,,タカハシシンブンホ,0
1057,5100003007886,新規,0,2024-11-27,2024-11-27,Ｈａｋｕｂａ　Ｐｅａｋ合同会社,,合同会社,長野県,北安曇郡白馬村,大字北城６８１１番地１,,20,485,3999301,,,,,,,2024-11-27,1,,,,,ハクバピーク,0
1064,5120001270492,新規,0,2024-11-27,2024-11-27,なな商事株式会社,,株式会社,大阪府,大阪市浪速区,大国２丁目１８番１３号サンシャイン大国１Ｆ,,27,111,5560014,,,,,,,2024-11-27,1,,,,,ナナショウジ,0
1065,5120001270526,新規,0,2024-11-27,2024-11-27,株式会社ｃｉｒｃｕｌａｒ,,株式会社,大阪府,大阪市中央区,本町２丁目６番１０号,,27,128,5410053,,,,,,,2024-11-27,1,,,,,サーキュラー,0
1066,5120001270583,新規,0,2024-11-27,2024-11-27,株式会社ＯＮＥ　ＢＲＯＴＨＥＲ’ｓ,,株式会社,大阪府,大阪市北区,本庄東２丁目１番２３号スペチアーレ９０１,,27,127,5310074,,,,,,,2024-11-27,1,,,,,ワンブラザーズ,0
1067,5120001270641,新規,0,2024-11-27,2024-11-27,鼎和居株式会社,,株式会社,大阪府,大阪市生野区,新今里７丁目５番１８－３０５号,,27,116,5440001,,,,,,,2024-11-27,1,,,,,テイワキョ,0
1074,5120101070669,新規,0,2024-11-27,2024-11-27,株式会社聖進,,株式会社,大阪府,富田林市,若松町西１丁目１８３４番地１,,27,214,5840025,,,,,,,2024-11-27,1,,,,,セイシン,0
1081,5122003003038,新規,0,2024-11-27,2024-11-27,ＨＴＰ合同会社,,合同会社,大阪府,東大阪市,水走１丁目３－４５、２０２室,,27,227,5780921,,,,,,,2024-11-27,1,,,,,エイチティーピー,0
1086,5130001078448,新規,0,2024-11-27,2024-11-27,株式会社ＳｔｕｄｙＴａｇ,,株式会社,京都府,京都市下京区,小稲荷町８５－２Ｇｒａｎｄ－Ｋ京都駅前ビル２０１,,26,106,6008208,,,,,,,2024-11-27,1,,,,,スタディータッグ,0
1094,5140001136493,新規,0,2024-11-27,2024-11-27,株式会社キュリー,,株式会社,兵庫県,神崎郡福崎町,西治１３０１番地７,,28,443,6792215,,,,,,,2024-11-27,1,,,,,キュリー,0
1095,5140001136535,新規,0,2024-11-27,2024-11-27,テック下枝株式会社,,株式会社,兵庫県,神戸市灘区,六甲町４丁目１番１５号２階,,28,102,6570053,,,,,,,2024-11-27,1,,,,,テックシモエダ,0
1108,5180001164318,新規,0,2024-11-27,2024-11-27,株式会社クラウド２,,株式会社,愛知県,江南市,上奈良町緑１３番地,,23,217,4838259,,,,,,,2024-11-27,1,,,,,クラウドツー,0
1109,5180001164326,新規,0,2024-11-27,2024-11-27,株式会社揮雲堂,,株式会社,愛知県,名古屋市中区,丸の内２丁目１３番１２号,,23,106,4600002,,,,,,,2024-11-27,1,,,,,キウンドウ,0
1124,5190001031839,新規,0,2024-11-27,2024-11-27,阿部商会株式会社,,株式会社,三重県,津市,一志町虹が丘４３番地１１,,24,201,5152513,,,,,,,2024-11-27,1,,,,,アベショウカイ,0
1126,5190005012001,新規,0,2024-11-27,2024-11-27,医療法人夏静会,,その他の設立登記法人,三重県,四日市市,曽井町字東門田７８番地,,24,202,5120922,,,,,,,2024-11-27,1,,,,,カセイカイ,0
1134,5230003002338,新規,0,2024-11-27,2024-11-27,合同会社ＤＥＥＰ,,合同会社,富山県,富山市,水橋町４７３番地２,,16,201,9390509,,,,,,,2024-11-27,1,,,,,ディープ,0
1141,5240001064164,新規,0,2024-11-27,2024-11-27,株式会社クレアモイ,,株式会社,広島県,広島市中区,国泰寺町２丁目３番３１－１４０２号,,34,101,7300042,,,,,,,2024-11-27,1,,,,,クレアモイ,0
1152,5290803004899,新規,0,2024-11-27,2024-11-27,合同会社ＶＡＮ　ＶＯＹＡＧＥ,,合同会社,福岡県,北九州市小倉北区,浅野３丁目８番１号ＡＩＭビル６階,,40,106,8020001,,,,,,,2024-11-27,1,,,,,バンボヤージュ,0
1156,5340001026955,新規,0,2024-11-27,2024-11-27,トラストレジデンシャルサービス株式会社,,株式会社,鹿児島県,鹿児島市,中央町１９番地４０,,46,201,8900053,,,,,,,2024-11-27,1,,,,,トラストレジデンシャルサービス,0
1171,5400003003351,新規,0,2024-11-27,2024-11-27,ねこのひげ合同会社,,合同会社,岩手県,紫波郡紫波町,北日詰字大日堂８番地１８グッドデイ日詰６号,,03,321,0283309,,,,,,,2024-11-27,1,,,,,ネコノヒゲ,0
1174,5430001093144,新規,0,2024-11-27,2024-11-27,株式会社ファームルーツ,,株式会社,北海道,札幌市西区,山の手二条１２丁目２番１５号,,01,107,0630002,,,,,,,2024-11-27,1,,,,,ファームルーツ,0
1178,5480005007046,新規,0,2024-11-27,2024-11-27,一般社団法人三好市国際交流協会,,その他の設立登記法人,徳島県,三好市,池田町マチ２２１０番地,,36,208,7780002,,,,,,,2024-11-27,1,,,,,ミヨシシコクサイコウリュウキョウカイ,0
1182,5700150074363,新規,0,2024-11-27,2016-07-01,チサンマンション大分駅南管理組合,,その他,大分県,大分市,大道町５丁目４－６０,,44,201,8700822,,,,,,,2016-07-01,1,,,,,チサンマンシヨンオオイタエキミナミカンリクミアイ,0
1186,6010001250117,新規,0,2024-11-27,2024-11-27,株式会社ヴァーヴパートナーズ,,株式会社,東京都,中央区,日本橋茅場町２丁目１２番１０号,,13,102,1030025,,,,,,,2024-11-27,1,,,,,ヴァーヴパートナーズ,0
1187,6010001250158,新規,0,2024-11-27,2024-11-27,株式会社ＳＴＯＣＫ１７２,,株式会社,東京都,千代田区,永田町２丁目１２番４号,,13,101,1000014,,,,,,,2024-11-27,1,,,,,ストックヒャクナナジュウニ,0
1188,6010001250166,新規,0,2024-11-27,2024-11-27,株式会社ＳＴＯＣＫ１８０,,株式会社,東京都,千代田区,永田町２丁目１２番４号,,13,101,1000014,,,,,,,2024-11-27,1,,,,,ストックヒャクハチジュウ,0
1194,6010003045564,新規,0,2024-11-27,2024-11-27,芦屋バッテリーパワー合同会社,,合同会社,東京都,中央区,京橋２丁目２番１号京橋エドグラン,,13,102,1040031,,,,,,,2024-11-27,1,,,,,アシヤバッテリーパワー,0
1195,6010003045580,新規,0,2024-11-27,2024-11-27,ＵＩＶマネジメント２合同会社,,合同会社,東京都,千代田区,丸の内２丁目１番１号,,13,101,1000005,,,,,,,2024-11-27,1,,,,,ユーアイヴィマネジメントツー,0
1198,6010005039127,新規,0,2024-11-27,2024-11-27,一般社団法人デジタル経営推進協議会,,その他の設立登記法人,東京都,千代田区,神保町１－２９市瀬ビル新館５階,,13,101,1000000,,,,,,,2024-11-27,1,,,,,,0
1204,6010401186613,新規,0,2024-11-27,2024-11-27,洪福株式会社,,株式会社,東京都,港区,芝浦２丁目１４番７号６０９号室,,13,103,1080023,,,,,,,2024-11-27,1,,,,,コウフク,0
1205,6010401186654,新規,0,2024-11-27,2024-11-27,ＬＳ‐Ａｖｉａｔｉｏｎ第６９号株式会社,,株式会社,東京都,港区,六本木１丁目６番１号,,13,103,1060032,,,,,,,2024-11-27,1,,,,,エルエスアビエーションダイロクジュウキュウゴウ,0
1206,6010403033870,新規,0,2024-11-27,2024-11-27,フィリピン人材支援機構合同会社,,合同会社,東京都,港区,芝４丁目７番６号芝ビルディング７０４,,13,103,1080014,,,,,,,2024-11-27,1,,,,,フィリピンジンザイシエンキコウ,0
1213,6010701046896,新規,0,2024-11-27,2024-11-27,株式会社Ｈａｐｐｙ　Ｍｉｎｏ,,株式会社,東京都,品川区,北品川２丁目１５番１０号ＴＫビル５０１,,13,109,1400001,,,,,,,2024-11-27,1,,,,,ハッピーミノ,0
1222,6010901056398,新規,0,2024-11-27,2024-11-27,株式会社アマノ,,株式会社,東京都,世田谷区,太子堂４丁目１８番１５号マガザン三軒茶屋２－３Ｆ－３,,13,112,1540004,,,,,,,2024-11-27,1,,,,,アマノ,0
1226,6011001166047,新規,0,2024-11-27,2024-11-27,株式会社ＫＩＮＯＦＡＣＴＩＯＮ,,株式会社,東京都,渋谷区,本町３丁目５２番６クリスタルコーポ京西４０４号室,,13,113,1510071,,,,,,,2024-11-27,1,,,,,キノファクション,0
1231,6011101109723,新規,0,2024-11-27,2024-11-27,株式会社Ｇｒｏｕｎｄｙ,,株式会社,東京都,新宿区,西新宿３丁目３番１３号西新宿水間ビル２Ｆ,,13,104,1600023,,,,,,,2024-11-27,1,,,,,グランディ,0
1236,6011303005349,新規,0,2024-11-27,2024-11-27,合同会社ＡＳＧ,,合同会社,東京都,杉並区,久我山４丁目３６番１８号,,13,115,1680082,,,,,,,2024-11-27,1,,,,,エイエスジー,0
1238,6011501031411,新規,0,2024-11-27,2024-11-27,領路人株式会社,,株式会社,東京都,荒川区,荒川５丁目３０番６号１０３号室,,13,118,1160002,,,,,,,2024-11-27,1,,,,,リョウロジン,0
1243,6012403006856,新規,0,2024-11-27,2024-11-27,合同会社Ｂｌａｓｔ　Ｅｎｔｅｒｔａｉｎｍｅｎｔ,,合同会社,東京都,小金井市,前原町４丁目２０番３７号,,13,210,1840013,,,,,,,2024-11-27,1,,,,,ブラストエンタテインメント,0
1255,6020003027322,新規,0,2024-11-27,2024-11-27,合同会社Ｗｉｓｔｅｒｉａ　ｆｉｅｌｄ,,合同会社,神奈川県,川崎市麻生区,栗木台３丁目２番４号,,14,137,2150032,,,,,,,2024-11-27,1,,,,,ウィステリアフィールド,0
1261,6021001083852,新規,0,2024-11-27,2024-11-27,株式会社Ｂａｂｕ　Ｆｕｎｄ,,株式会社,神奈川県,茅ヶ崎市,甘沼２８９番地１,,14,207,2530004,,,,,,,2024-11-27,1,,,,,バブファンド,0
1265,6021003015283,新規,0,2024-11-27,2024-11-27,プリンスオート合同会社,,合同会社,神奈川県,平塚市,真田４丁目３４番１８号ローズハイツ２０１,,14,203,2591206,,,,,,,2024-11-27,1,,,,,プリンスオート,0
1276,6030003025465,新規,0,2024-11-27,2024-11-27,ＳＴＥＡＤＹ合同会社,,合同会社,埼玉県,さいたま市浦和区,常盤１０丁目１１番－１７－３０３号室,,11,107,3300061,,,,,,,2024-11-27,1,,,,,ステディー,0
1281,6040001136313,新規,0,2024-11-27,2024-11-27,福徳貿易株式会社,,株式会社,千葉県,匝瑳市,高野９０９番地,,12,235,2892135,,,,,,,2024-11-27,1,,,,,フクトクボウエキ,0
1282,6040001136338,新規,0,2024-11-27,2024-11-27,株式会社雅城,,株式会社,千葉県,香取市,佐原イ３３４０番地３,,12,236,2870003,,,,,,,2024-11-27,1,,,,,マシロ,0
1287,6040003026264,新規,0,2024-11-27,2024-11-27,合同会社Ｒ６,,合同会社,千葉県,旭市,ロの６３７番地福柳ビル,,12,215,2892516,,,,,,,2024-11-27,1,,,,,アールロク,0
1290,6050005013524,新規,0,2024-11-27,2024-11-27,一般社団法人デンタルインプラントサポート,,その他の設立登記法人,茨城県,守谷市,中央４丁目１２番８,,08,224,3020115,,,,,,,2024-11-27,1,,,,,デンタルインプラントサポート,0
1296,6070003005678,新規,0,2024-11-27,2024-11-27,日進ジョブ合同会社,,合同会社,群馬県,佐波郡玉村町,大字樋越５９０番地１,,10,464,3701103,,,,,,,2024-11-27,1,,,,,ニッシンジョブ,0
1297,6080001026626,新規,0,2024-11-27,2024-11-27,ＭＫ・Ｈｅａｒｔ株式会社,,株式会社,静岡県,静岡市清水区,草薙１丁目１７－１９エルカーメラ２０７号,,22,103,4240886,,,,,,,2024-11-27,1,,,,,エムケーハート,0
1298,6080003003334,新規,0,2024-11-27,2024-11-27,デトックスボディ合同会社,,合同会社,静岡県,静岡市駿河区,馬渕２丁目１－１０－３０２,,22,102,4228063,,,,,,,2024-11-27,1,,,,,デトックスボディ,0
1302,6080401027595,新規,0,2024-11-27,2024-11-27,株式会社オーエヌテクノラボ,,株式会社,静岡県,浜松市中央区,千歳町９１番地の１,,22,138,4300934,,,,,,,2024-11-27,1,,,,,オーエヌテクノラボ,0
1304,6100001038065,新規,0,2024-11-27,2024-11-27,株式会社奈川未来づくり,,株式会社,長野県,松本市,奈川２４９０番地,,20,202,3901611,,,,,,,2024-11-27,1,,,,,ナガワミライヅクリ,0
1305,6100003007877,新規,0,2024-11-27,2024-11-27,ゼロ合同会社,,合同会社,長野県,諏訪郡原村,１７２１７番地３６９９,,20,363,3910100,,,,,,,2024-11-27,1,,,,,ゼロ,0
1306,6100003007885,新規,0,2024-11-27,2024-11-27,合同会社丸和,,合同会社,長野県,上田市,鹿教湯温泉１３８７番地２,,20,203,3860323,,,,,,,2024-11-27,1,,,,,マルワ,0
1308,6110001038873,新規,0,2024-11-27,2024-11-27,株式会社ルドルフ,,株式会社,新潟県,妙高市,大字樽本丙１１０１番地１５２,00137150,15,217,9492223,,,,,,,2024-11-27,1,,,,,ルドルフ,0
1327,6120001270608,新規,0,2024-11-27,2024-11-27,株式会社ＦＲＯＮＴＬＩＮＥ,,株式会社,大阪府,大阪市北区,梅田１丁目１－３大阪駅前第３ビル２９階１－１－１号室,,27,127,5300001,,,,,,,2024-11-27,1,,,,,フロントライン,0
1328,6120001270616,新規,0,2024-11-27,2024-11-27,株式会社ＡＬＩＶＥ,,株式会社,大阪府,大阪市中央区,南本町２丁目６－５ファースト船場２０８,,27,128,5410054,,,,,,,2024-11-27,1,,,,,アライブ,0
1332,6120003028054,新規,0,2024-11-27,2024-11-27,アクア合同会社,,合同会社,大阪府,大阪市城東区,今福南２丁目１－１１,,27,118,5360003,,,,,,,2024-11-27,1,,,,,アクア,0
1333,6120003028062,新規,0,2024-11-27,2024-11-27,合同会社ＡＲＢＯＳ,,合同会社,大阪府,大阪市中央区,東平１丁目２番１７号,,27,128,5420063,,,,,,,2024-11-27,1,,,,,アルボス,0
1335,6120101070668,新規,0,2024-11-27,2024-11-27,株式会社ＤＯＵ,,株式会社,大阪府,堺市北区,中百舌鳥町６丁１０４０番地６４ＩＢＣ白鷺２０６号,,27,146,5918023,,,,,,,2024-11-27,1,,,,,ドウ,0
1341,6122005003794,新規,0,2024-11-27,2024-11-27,一般社団法人ひと‐ｈｉｔｏ‐人,,その他の設立登記法人,大阪府,大東市,川中新町７番２０４号,,27,218,5740031,,,,,,,2024-11-27,1,,,,,ヒトヒトヒト,0
1345,6130001078430,新規,0,2024-11-27,2024-11-27,株式会社ＨＡＲＡホールディングス,,株式会社,京都府,京都市東山区,祇園町北側２６７番地,,26,105,6050073,,,,,,,2024-11-27,1,,,,,ハラホールディングス,0
1353,6140001136534,新規,0,2024-11-27,2024-11-27,横山エンジニア株式会社,,株式会社,兵庫県,神戸市灘区,六甲町４丁目１番１５号３階,,28,102,6570053,,,,,,,2024-11-27,1,,,,,ヨコヤマエンジニア,0
1354,6140003021370,新規,0,2024-11-27,2024-11-27,Ｓｕｎｎｙ　Ｓｉｄｅ合同会社,,合同会社,兵庫県,神戸市長田区,久保町５丁目１番１号アスタ３番館１００１号,,28,106,6530041,,,,,,,2024-11-27,1,,,,,サニーサイド,0
1355,6140005027283,新規,0,2024-11-27,2024-11-27,農事組合法人加納営農,,その他の設立登記法人,兵庫県,神崎郡神河町,加納２３２番地,,28,446,6792421,,,,,,,2024-11-27,1,,,,,カノウエイノウ,0
1365,6180001164291,新規,0,2024-11-27,2024-11-27,ＡｕｔｏＣｏｖｅｒ株式会社,,株式会社,愛知県,名古屋市昭和区,折戸町３丁目３２番地の３,,23,107,4660858,,,,,,,2024-11-27,1,,,,,オートカバー,0
1366,6180001164300,新規,0,2024-11-27,2024-11-27,株式会社メディアコインツ,,株式会社,愛知県,名古屋市西区,新道２丁目１３番３２号ファステート名古屋駅前ドリーム１３０５,,23,104,4510043,,,,,,,2024-11-27,1,,,,,メディアコインツ,0
1367,6180001164333,新規,0,2024-11-27,2024-11-27,豊臣テクノロジー株式会社,,株式会社,愛知県,名古屋市中村区,藤江町３丁目７番地の２,,23,105,4530045,,,,,,,2024-11-27,1,,,,,トヨトミテクノロジー,0
1376,6190005012000,新規,0,2024-11-27,2024-11-27,一般社団法人動物保護団体わんらぶ,,その他の設立登記法人,三重県,伊賀市,服部町３丁目１４番地の６,,24,216,5180007,,,,,,,2024-11-27,1,,,,,ドウブツホゴダンタイワンラブ,0
1377,6200001043170,新規,0,2024-11-27,2024-11-27,株式会社ゴールドワークス,,株式会社,岐阜県,美濃加茂市,川合町４丁目７番４３号,,21,211,5050022,,,,,,,2024-11-27,1,,,,,ゴールドワークス,0
1380,6200003006596,新規,0,2024-11-27,2024-11-27,野麦峠小水力発電合同会社,,合同会社,岐阜県,高山市,江名子町２７１５番地１１,,21,203,5060818,,,,,,,2024-11-27,1,,,,,ノムギトウゲショウスイリョクハツデン,0
1385,6220003003897,新規,0,2024-11-27,2024-11-27,合同会社ＳＯＴＡ,,合同会社,石川県,金沢市,新神田１丁目２－２６,,17,201,9218013,,,,,,,2024-11-27,1,,,,,ソタ,0
1403,6290001108072,新規,0,2024-11-27,2024-11-27,株式会社Ｙｇ　Ｒ＆Ｄ,,株式会社,福岡県,福岡市西区,姪の浜５丁目７－１１－３０１,,40,135,8190002,,,,,,,2024-11-27,1,,,,,ワイジーリサーチアンドデベロプメント,0
1404,6290001108089,新規,0,2024-11-27,2024-11-27,株式会社虜,,株式会社,福岡県,福岡市東区,和白東２丁目７－２６,,40,131,8110214,,,,,,,2024-11-27,1,,,,,トリコ,0
1405,6290001108114,新規,0,2024-11-27,2024-11-27,株式会社ユーカリエステート,,株式会社,福岡県,福岡市南区,屋形原１丁目１９番２４号,,40,134,8111351,,,,,,,2024-11-27,1,,,,,ユーカリエステート,0
1406,6290001108155,新規,0,2024-11-27,2024-11-27,株式会社ゲンテイ,,株式会社,福岡県,福岡市中央区,渡辺通５丁目１４－１２南天神ビル３Ｆ,,40,133,8100004,,,,,,,2024-11-27,1,,,,,ゲンテイ,0
1414,6290801031069,新規,0,2024-11-27,2024-11-27,株式会社ＯＫＵＳＨＯ,,株式会社,福岡県,直方市,大字植木５８１番地５,,40,204,8220031,,,,,,,2024-11-27,1,,,,,オクショウ,0
1418,6310001019333,新規,0,2024-11-27,2024-11-27,株式会社ＴＭＲホールディングス,,株式会社,長崎県,長崎市,桜町７番６－１０２号,,42,201,8500031,,,,,,,2024-11-27,1,,,,,ティエムアールホールディングス,0
1426,6340001026962,新規,0,2024-11-27,2024-11-27,株式会社ＦｕｓｉｏｎＮｅｓｔ,,株式会社,鹿児島県,肝属郡南大隅町,根占辺田１７２９番地１,,46,491,8932505,,,,,,,2024-11-27,1,,,,,フュージョンネスト,0
1427,6340003004677,新規,0,2024-11-27,2024-11-27,合同会社８,,合同会社,鹿児島県,鹿児島市,山之口町９番６号南州ＤＡＤＡビル地下１階,,46,201,8920844,,,,,,,2024-11-27,1,,,,,エイト,0
1429,6350003004791,新規,0,2024-11-27,2024-11-27,合同会社訪問看護ステーションａｉｎｅ,,合同会社,宮崎県,宮崎市,田野町甲２７０１番地４,,45,201,8891701,,,,,,,2024-11-27,1,,,,,,0
1431,6360001034484,新規,0,2024-11-27,2024-11-27,株式会社エムプランニング,,株式会社,沖縄県,名護市,東江４丁目７番５号２Ｆ,,47,209,9050021,,,,,,,2024-11-27,1,,,,,エムプランニング,0
1437,6400001016866,新規,0,2024-11-27,2024-11-27,株式会社ＰｈｉＳｐａｒｋ,,株式会社,岩手県,盛岡市,松園３丁目１８－４１、２Ｆ１号室,,03,201,0200107,,,,,,,2024-11-27,1,,,,,ファイスパーク,0
1446,6420001018935,新規,0,2024-11-27,2024-11-27,株式会社つばさ社福総研,,株式会社,青森県,八戸市,根城４丁目１６番８号,,02,203,0391166,,,,,,,2024-11-27,1,,,,,ツバサシャフクソウケン,0
1462,7010001250157,新規,0,2024-11-27,2024-11-27,株式会社ＳＴＯＣＫ１７１,,株式会社,東京都,千代田区,永田町２丁目１２番４号,,13,101,1000014,,,,,,,2024-11-27,1,,,,,ストックヒャクナナジュウイチ,0
1463,7010001250165,新規,0,2024-11-27,2024-11-27,株式会社ＳＴＯＣＫ１７９,,株式会社,東京都,千代田区,永田町２丁目１２番４号,,13,101,1000014,,,,,,,2024-11-27,1,,,,,ストックヒャクナナジュウキュウ,0
1464,7010001250264,新規,0,2024-11-27,2024-11-27,株式会社オフィスドラゴン,,株式会社,東京都,文京区,白山１丁目８番５号,,13,105,1130001,,,,,,,2024-11-27,1,,,,,オフィスドラゴン,0
1469,7010003045621,新規,0,2024-11-27,2024-11-27,エコカリ１号合同会社,,合同会社,東京都,千代田区,内神田３丁目２０番３号小鍛冶ビル７階,,13,101,1010047,,,,,,,2024-11-27,1,,,,,エコカリイチゴウ,0
1476,7010403033903,新規,0,2024-11-27,2024-11-27,合同会社東京みなとコンサルティング,,合同会社,東京都,港区,芝浦１丁目６番４１－１６０１号,,13,103,1050023,,,,,,,2024-11-27,1,,,,,トウキョウミナトコンサルティング,0
1482,7010601066358,新規,0,2024-11-27,2024-11-27,Ｆｕ　Ｄｏ　Ｄｏ株式会社,,株式会社,東京都,墨田区,両国４丁目３１－１４アジアビル９０１,,13,107,1300026,,,,,,,2024-11-27,1,,,,,フドド,0
1487,7010701046904,新規,0,2024-11-27,2024-11-27,株式会社ＳＬＯＷ,,株式会社,東京都,品川区,東大井６丁目２－３東幸ハイツ１０１,,13,109,1400011,,,,,,,2024-11-27,1,,,,,,0
1489,7010703007474,新規,0,2024-11-27,2024-11-27,神宮前合同会社,,合同会社,東京都,品川区,上大崎３丁目１番１号目黒セントラルスクエア１５階,,13,109,1410021,,,,,,,2024-11-27,1,,,,,ジングウマエ,0
1503,7011001166046,新規,0,2024-11-27,2024-11-27,株式会社Ｒｅｍｉｇｏ,,株式会社,東京都,渋谷区,道玄坂１丁目１６番６号二葉ビル８Ｂ,,13,113,1500043,,,,,,,2024-11-27,1,,,,,レミゴ,0
1504,7011001166203,新規,0,2024-11-27,2024-11-27,株式会社Ａｇｅｎｃｉａ,,株式会社,東京都,目黒区,五本木２丁目１８‐１８,,13,110,1530053,,,,,,,2024-11-27,1,,,,,アジェンシア,0
1505,7011003020465,新規,0,2024-11-27,2024-11-27,Ｎａｔｉｖｅ　Ｔｅａｍｓ　Ｊａｐａｎ合同会社,,合同会社,東京都,渋谷区,桜丘町１５－１４フジビル４０・７Ｆ,,13,113,1500031,,,,,,,2024-11-27,1,,,,,ネイティブチームスジャパン,0
1508,7011101109689,新規,0,2024-11-27,2024-11-27,株式会社ＴＡＸ,,株式会社,東京都,新宿区,新宿６丁目２７番４５号６階,,13,104,1600022,,,,,,,2024-11-27,1,,,,,タックス,0
1515,7011501031393,新規,0,2024-11-27,2024-11-27,伊藤工事株式会社,,株式会社,東京都,荒川区,西日暮里５丁目１３番１１号第３イトービル５Ｆ,,13,118,1160013,,,,,,,2024-11-27,1,,,,,イトウコウジ,0
1516,7011501031410,新規,0,2024-11-27,2024-11-27,株式会社ＳＨＩＲＯ,,株式会社,東京都,北区,豊島４丁目１番１３号,,13,117,1140003,,,,,,,2024-11-27,1,,,,,シロ,0
1518,7011701027844,新規,0,2024-11-27,2024-11-27,株式会社ＫＯＡ,,株式会社,東京都,江戸川区,西葛西６丁目９番１０号ビッグウエスト西葛西ビル６０１,,13,123,1340088,,,,,,,2024-11-27,1,,,,,コア,0
1520,7011801045226,新規,0,2024-11-27,2024-11-27,Ｂｅｙｏｎｄ　Ｒｅａｌｔｙ株式会社,,株式会社,東京都,足立区,千住曙町１１－３,,13,121,1200023,,,,,,,2024-11-27,1,,,,,ビヨンドリアルティ,0
1521,7012301014175,新規,0,2024-11-27,2024-11-27,福莱株式会社,,株式会社,東京都,町田市,原町田４丁目７－１２－７０２,,13,209,1940013,,,,,,,2024-11-27,1,,,,,,0
1524,7012801023592,新規,0,2024-11-27,2024-11-27,富士株式会社,,株式会社,東京都,日野市,日野本町３丁目１４番１８号谷井ビル４階４０３号,,13,212,1910011,,,,,,,2024-11-27,1,,,,,フジ,0
1547,7040001136312,新規,0,2024-11-27,2024-11-27,安和商事株式会社,,株式会社,千葉県,流山市,おおたかの森東４丁目３２番地の７,,12,220,2700138,,,,,,,2024-11-27,1,,,,,アンワショウジ,0
1548,7040001136320,新規,0,2024-11-27,2024-11-27,株式会社日天,,株式会社,千葉県,野田市,山崎１６４７番地の１２,,12,208,2780022,,,,,,,2024-11-27,1,,,,,ニチテン,0
1549,7040001136345,新規,0,2024-11-27,2024-11-27,株式会社グロウホールディングス,,株式会社,千葉県,千葉市若葉区,加曽利町１６０３番地５３サンハイツ加曽利１０２号室,,12,104,2640017,,,,,,,2024-11-27,1,,,,,グロウホールディングス,0
1553,7040003026049,新規,0,2024-11-27,2024-11-27,合同会社ねこのてワークス,,合同会社,千葉県,市川市,南大野１丁目３２ー８,,12,203,2720804,,,,,,,2024-11-27,1,,,,,ネコノテワークス,0
1554,7040003026263,新規,0,2024-11-27,2024-11-27,ＲＡＳ合同会社,,合同会社,千葉県,習志野市,谷津１丁目２２番５３号,,12,216,2750026,,,,,,,2024-11-27,1,,,,,アールエイエス,0
1557,7060001037681,新規,0,2024-11-27,2024-11-27,株式会社クアトロポケット,,株式会社,栃木県,さくら市,フィオーレ喜連川１丁目４番７号,,09,214,3291417,,,,,,,2024-11-27,1,,,,,クアトロポケット,0
1566,7080405007691,新規,0,2024-11-27,2024-11-27,一般社団法人浜松アカデミック・メディカル・アライアンス,,その他の設立登記法人,静岡県,浜松市中央区,半田山１丁目２０番１号,,22,138,4313125,,,,,,,2024-11-27,1,,,,,ハママツアカデミックメディカルアライアンス,0
1568,7090005007661,新規,0,2024-11-27,2024-11-27,一般社団法人富士吉田総合研究所,,その他の設立登記法人,山梨県,富士吉田市,松山１丁目２番２１号,,19,202,4030016,,,,,,,2024-11-27,1,,,,,フジヨシダソウゴウケンキュウジョ,0
1572,7100001038064,新規,0,2024-11-27,2024-11-27,株式会社ＳＷＡＭＰ,,株式会社,長野県,長野市,大字栗田６５３－４５,,20,201,3800921,,,,,,,2024-11-27,1,,,,,スワンプ,0
1573,7100003007884,新規,0,2024-11-27,2024-11-27,合同会社丸美,,合同会社,長野県,上田市,鹿教湯温泉１３８７番地２,,20,203,3860323,,,,,,,2024-11-27,1,,,,,マルミ,0
1576,7110001038872,新規,0,2024-11-27,2024-11-27,株式会社Ｊ‐ＯＮＫＹＯ　Ｉｎｃ．,,株式会社,新潟県,新潟市江南区,江口３２５７番地１,,15,104,9500101,,,,,,,2024-11-27,1,,,,,ジェイオンキョウインコーポレイテッド,0
1580,7120001270607,新規,0,2024-11-27,2024-11-27,株式会社ＮＵＴＳ,,株式会社,大阪府,大阪市中央区,島之内２丁目２－２０白扇ビル２０９,,27,128,5420082,,,,,,,2024-11-27,1,,,,,ナッツ,0
1581,7120001270631,新規,0,2024-11-27,2024-11-27,株式会社ｂａｚｂａｚ,,株式会社,大阪府,大阪市東住吉区,西今川３丁目１９番６号シティコーポ西今川３０３号,,27,121,5460042,,,,,,,2024-11-27,1,,,,,バズバズ,0
1586,7120003028053,新規,0,2024-11-27,2024-11-27,ＳＡＫＵＲＡ合同会社,,合同会社,大阪府,大阪市住之江区,粉浜２丁目１０番４号,,27,125,5590001,,,,,,,2024-11-27,1,,,,,サクラ,0
1587,7120003028061,新規,0,2024-11-27,2024-11-27,合同会社Ｎｅｘｔ　Ｔｅｃｈｎｏｌｏｇｙ,,合同会社,大阪府,大阪市天王寺区,生玉町１１番２４号ＢＬＤＫＴＨＥＡＴＥＲ９０１号,,27,109,5430071,,,,,,,2024-11-27,1,,,,,ネクストテクノロジー,0
1588,7120101070659,新規,0,2024-11-27,2024-11-27,株式会社日商クリエイト,,株式会社,大阪府,羽曳野市,古市４丁目１１番３号,,27,222,5830852,,,,,,,2024-11-27,1,,,,,ニッショウクリエイト,0
1593,7120901050059,新規,0,2024-11-27,2024-11-27,株式会社白兎,,株式会社,大阪府,摂津市,東別府４丁目５番５号,,27,224,5660042,,,,,,,2024-11-27,1,,,,,ハクト,0
1594,7120901050083,新規,0,2024-11-27,2024-11-27,株式会社Ｏ．Ｓ．Ｔ,,株式会社,大阪府,箕面市,桜ケ丘３丁目１３番２６号,,27,220,5620046,,,,,,,2024-11-27,1,,,,,オーエスティー,0
1607,7140001136574,新規,0,2024-11-27,2024-11-27,株式会社アルトラマリン,,株式会社,兵庫県,西宮市,西宮浜４丁目１４－２,,28,204,6620934,,,,,,,2024-11-27,1,,,,,アルトラマリン,0
1616,7170005007117,新規,0,2024-11-27,2024-11-27,一般社団法人明恵ふるさと館,,その他の設立登記法人,和歌山県,有田郡有田川町,大字金屋３２２番地１,,30,366,6430152,,,,,,,2024-11-27,1,,,,,ミョウエフルサトカン,0
1622,7180001164316,新規,0,2024-11-27,2024-11-27,株式会社ｅｓｔａｔｅ　ｐｌｕｓ,,株式会社,愛知県,名古屋市中村区,名駅４丁目２４番５号第２森ビル４０１,,23,105,4500002,,,,,,,2024-11-27,1,,,,,エステートプラス,0
1626,7180301039267,新規,0,2024-11-27,2024-11-27,株式会社Ａｖａｌｏｎ,,株式会社,愛知県,豊川市,南大通５丁目５２番地,,23,207,4420889,,,,,,,2024-11-27,1,,,,,アバロン,0
1630,7190001031829,新規,0,2024-11-27,2024-11-27,株式会社Ｎｏｖａ　Ｖｉｓｉｏｎ,,株式会社,三重県,四日市市,大字東阿倉川２７３番地１,,24,202,5100805,,,,,,,2024-11-27,1,,,,,ノヴァビジョン,0
1632,7200001043161,新規,0,2024-11-27,2024-11-27,株式会社ＫＦトレード,,株式会社,岐阜県,多治見市,平和町５丁目５２番地の１フリーデンハイム平和３１０,,21,204,5070827,,,,,,,2024-11-27,1,,,,,ケーエフトレード,0
1633,7200001043178,新規,0,2024-11-27,2024-11-27,株式会社安志商事,,株式会社,岐阜県,各務原市,川島松原町３４６番地８,,21,213,5016026,,,,,,,2024-11-27,1,,,,,アンジショウジ,0
1636,7220003003896,新規,0,2024-11-27,2024-11-27,合同会社Ｌｕｍｂａ・Ｌｕｍｂａ,,合同会社,石川県,白山市,安田町５０番地１,,17,210,9240862,,,,,,,2024-11-27,1,,,,,ルンバルンバ,0
1640,7240003006955,新規,0,2024-11-27,2024-11-27,合同会社Ｗａｖｅ,,合同会社,広島県,広島市中区,銀山町２番６－１１０３号,,34,101,7300022,,,,,,,2024-11-27,1,,,,,ウェーブ,0
1643,7260001039674,新規,0,2024-11-27,2024-11-27,株式会社青木商店,,株式会社,岡山県,備前市,野谷４３１番地３,,33,211,7050131,,,,,,,2024-11-27,1,,,,,アオキショウテン,0
1645,7260003004981,新規,0,2024-11-27,2024-11-27,合同会社マイリンク,,合同会社,岡山県,岡山市南区,西市６９３―１１,,33,104,7000953,,,,,,,2024-11-27,1,,,,,マイリンク,0
1650,7290001108121,新規,0,2024-11-27,2024-11-27,株式会社グリーン・スマイル,,株式会社,福岡県,柳川市,大和町鷹ノ尾１２６１番地２,,40,207,8390253,,,,,,,2024-11-27,1,,,,,グリーンスマイル,0
1651,7290001108138,新規,0,2024-11-27,2024-11-27,株式会社トラウテック,,株式会社,福岡県,糸島市,曽根７４５,,40,230,8191561,,,,,,,2024-11-27,1,,,,,トラウテック,0
1653,7290003016108,新規,0,2024-11-27,2024-11-27,合同会社ＡＢＢＡ,,合同会社,福岡県,福岡市西区,石丸３丁目３９－３６番地,,40,135,8190025,,,,,,,2024-11-27,1,,,,,アバ,0
1654,7320001020834,新規,0,2024-11-27,2024-11-27,株式会社東京インターナショナル,,株式会社,大分県,大分市,生石４丁目３番８号ＫＣビル４０１,,44,201,8700003,,,,,,,2024-11-27,1,,,,,トウキョウインターナショナル,0
1655,7340003004676,新規,0,2024-11-27,2024-11-27,合同会社さつま富士犬舎,,合同会社,鹿児島県,鹿児島市,本城町１９２５番地１,,46,201,8911303,,,,,,,2024-11-27,1,,,,,サツマフジケンシャ,0
1656,7350003004790,新規,0,2024-11-27,2024-11-27,Ｌｉｖｉｎｇｓｔｏｎｅ　Ａｕｔｏｍｏｂｉｌｅ合同会社,,合同会社,宮崎県,宮崎市,大字赤江９７４番地１グリーンコート東館Ｃ棟２０３号,,45,201,8800912,,,,,,,2024-11-27,1,,,,,リビングストーンオートモービル,0
1659,7360001034483,新規,0,2024-11-27,2024-11-27,株式会社Ｔｉｄａ　Ｓｏｌｕｔｉｏｎｓ,,株式会社,沖縄県,沖縄市,中央１丁目７番８号２階,,47,211,9040004,,,,,,,2024-11-27,1,,,,,ティーダソリューションズ,0
1666,7380005012896,新規,0,2024-11-27,2024-11-27,特定非営利活動法人はなのころ,,その他の設立登記法人,福島県,いわき市,好間町下好間字鬼越１５番地の４,,07,204,9701151,,,,,,,2024-11-27,1,,,,,ハナノコロ,0
1667,7400001016865,新規,0,2024-11-27,2024-11-27,株式会社Ｃ‐ｓｔｙｌｅ,,株式会社,岩手県,北上市,本通り３丁目１－１７,,03,206,0240094,,,,,,,2024-11-27,1,,,,,シースタイル,0
1671,7420003003026,新規,0,2024-11-27,2024-11-27,合同会社ＪＡＰＡＮ　ＨＡＭ　ＦＡＣＴＯＲＹ,,合同会社,青森県,弘前市,大字俵元１丁目１２番地２,,02,202,0368041,,,,,,,2024-11-27,1,,,,,ジャパンハムファクトリー,0
1682,8010001250164,新規,0,2024-11-27,2024-11-27,株式会社ＳＴＯＣＫ１７８,,株式会社,東京都,千代田区,永田町２丁目１２番４号,,13,101,1000014,,,,,,,2024-11-27,1,,,,,ストックヒャクナナジュウハチ,0
1683,8010001250172,新規,0,2024-11-27,2024-11-27,浜田山鉱業株式会社,,株式会社,東京都,千代田区,丸の内３丁目２番２号丸の内二重橋ビル２階,,13,101,1000005,,,,,,,2024-11-27,1,,,,,ハマダヤマコウギョウ,0
1684,8010001250321,新規,0,2024-11-27,2024-11-27,匠雕風情株式会社,,株式会社,東京都,中央区,銀座５丁目４番１５号,,13,102,1040061,,,,,,,2024-11-27,1,,,,,ショウチョウフゼイ,0
1688,8010003045579,新規,0,2024-11-27,2024-11-27,ＡＡＪ　Ｈ合同会社,,合同会社,東京都,千代田区,霞が関３丁目２番５号,,13,101,1000013,,,,,,,2024-11-27,1,,,,,エーエージェーエイチ,0
1689,8010003045629,新規,0,2024-11-27,2024-11-27,合同会社Ｈｏｎｍａｃｈｉ,,合同会社,東京都,中央区,日本橋１丁目４番１号,,13,102,1030027,,,,,,,2024-11-27,1,,,,,ホンマチ,0
1690,8010005039182,新規,0,2024-11-27,2024-11-27,トーキョー・ネスト特定目的会社,,その他の設立登記法人,東京都,千代田区,丸の内１丁目４番１号東京共同会計事務所内,,13,101,1000005,,,,,,,2024-11-27,1,,,,,トーキョーネスト,0
1691,8010005039199,新規,0,2024-11-27,2024-11-27,フェアフィールド一般社団法人,,その他の設立登記法人,東京都,中央区,日本橋１丁目４番１号,,13,102,1030027,,,,,,,2024-11-27,1,,,,,フェアフィールド,0
1695,8010401186545,新規,0,2024-11-27,2024-11-27,Ｌｉｕｓｋｉ　Ｊａｐａｎ株式会社,,株式会社,東京都,港区,青山南三丁目５番２号南青山第一韮澤ビル３１６,,13,103,1050000,,,,,,,2024-11-27,1,,,,,リュースキジャパン,0
1696,8010401186561,新規,0,2024-11-27,2024-11-27,株式会社ＭＣＳコーポレーション,,株式会社,東京都,港区,西麻布２丁目２０番３号,,13,103,1060031,,,,,,,2024-11-27,1,,,,,エムシーエスコーポレーション,0
1697,8010401186693,新規,0,2024-11-27,2024-11-27,株式会社ＣＨＥＦＳ,,株式会社,東京都,港区,元麻布１丁目３番１－２００２号,,13,103,1060046,,,,,,,2024-11-27,1,,,,,シェフス,0
1699,8010403033885,新規,0,2024-11-27,2024-11-27,合同会社Ｐｊ　ＳＮＯＷ,,合同会社,東京都,港区,西新橋１丁目２番９号メンターキャピタル税理士法人内,,13,103,1050003,,,,,,,2024-11-27,1,,,,,ピージェイスノー,0
1700,8010403033893,新規,0,2024-11-27,2024-11-27,Ｃｏｍｍｕ合同会社,,合同会社,東京都,港区,南青山２丁目２番１５号,,13,103,1070062,,,,,,,2024-11-27,1,,,,,コミュ,0
1701,8010403033910,新規,0,2024-11-27,2024-11-27,合同会社ばんぐみ,,合同会社,東京都,港区,新橋４丁目１４番１新橋ＡＵＮＢＬＤＧ４階,,13,103,1050004,,,,,,,2024-11-27,1,,,,,バングミ,0
1714,8010701046903,新規,0,2024-11-27,2024-11-27,日本亜太投資株式会社,,株式会社,東京都,品川区,東五反田５丁目２２番３７号,,13,109,1410022,,,,,,,2024-11-27,1,,,,,ニホンアタトウシ,0
1715,8010705003710,新規,0,2024-11-27,2024-11-27,一般社団法人ウィロー,,その他の設立登記法人,東京都,品川区,上大崎３丁目１番１号目黒セントラルスクエア１５階,,13,109,1410021,,,,,,,2024-11-27,1,,,,,ウィロー,0
1720,8010903009526,新規,0,2024-11-27,2024-11-27,ダイナソーワークス合同会社,,合同会社,東京都,世田谷区,経堂５丁目４番３号,,13,112,1560052,,,,,,,2024-11-27,1,,,,,ダイナソーワークス,0
1726,8011001166037,新規,0,2024-11-27,2024-11-27,株式会社Ｍｅ‐Ｔｒｅｅ,,株式会社,東京都,渋谷区,本町１丁目１２番４－１５０３号,,13,113,1510071,,,,,,,2024-11-27,1,,,,,ミーツリー,0
1727,8011001166094,新規,0,2024-11-27,2024-11-27,株式会社Ｄｒｅｙｋ,,株式会社,東京都,渋谷区,道玄坂１丁目１０番８号渋谷道玄坂東急ビル２Ｆ－Ｃ,,13,113,1500043,,,,,,,2024-11-27,1,,,,,ドレイク,0
1735,8011103015232,新規,0,2024-11-27,2024-11-27,Ｐａｍｉｓａｃｔｉｏｎ合同会社,,合同会社,東京都,新宿区,中落合３丁目４番１４号ライオンズ新宿中落合９０２号室,,13,104,1610032,,,,,,,2024-11-27,1,,,,,パミサクション,0
1744,8011801045225,新規,0,2024-11-27,2024-11-27,株式会社ＦＫＹ,,株式会社,東京都,足立区,伊興本町２丁目１２番３１号,,13,121,1210807,,,,,,,2024-11-27,1,,,,,エフケーワイ,0
1746,8012301014174,新規,0,2024-11-27,2024-11-27,Ｊ８株式会社,,株式会社,東京都,町田市,中町１丁目４番２号,,13,209,1940021,,,,,,,2024-11-27,1,,,,,ジェイエイト,0
1753,8012801023591,新規,0,2024-11-27,2024-11-27,株式会社じょっぱりフードサービス,,株式会社,東京都,日野市,南平３丁目６番地の２０,,13,212,1910041,,,,,,,2024-11-27,1,,,,,ジョッパリフードサービス,0
1763,8020001160305,新規,0,2024-11-27,2024-11-27,株式会社Ｘ７２,,株式会社,神奈川県,横浜市鶴見区,駒岡３丁目２６番４－１号,,14,101,2300071,,,,,,,2024-11-27,1,,,,,エックスナナニー,0
1769,8021001083859,新規,0,2024-11-27,2024-11-27,ＰＥＡＫＳ株式会社,,株式会社,神奈川県,横須賀市,若松町２丁目７番地明石屋ビル２Ｆ,,14,201,2380007,,,,,,,2024-11-27,1,,,,,ピークス,0
1770,8021001083867,新規,0,2024-11-27,2024-11-27,株式会社英一番館,,株式会社,神奈川県,秦野市,渋沢２丁目２０番１３号,,14,211,2591322,,,,,,,2024-11-27,1,,,,,エイイチバンカン,0
1777,8030005021956,新規,0,2024-11-27,2024-11-27,一般社団法人栗原巳根夫会,,その他の設立登記法人,埼玉県,熊谷市,原島１１２３番地１,,11,202,3600811,,,,,,,2024-11-27,1,,,,,クリハラミネオカイ,0
1779,8040001136311,新規,0,2024-11-27,2024-11-27,快適コーポレーション株式会社,,株式会社,千葉県,成田市,田町７５番地,,12,211,2860024,,,,,,,2024-11-27,1,,,,,カイテキコーポレーション,0
1781,8040003026262,新規,0,2024-11-27,2024-11-27,千葉押出解析合同会社,,合同会社,千葉県,船橋市,前原東６丁目６番２０号,,12,204,2740824,,,,,,,2024-11-27,1,,,,,チバオシダシカイセキ,0
1787,8060001037664,新規,0,2024-11-27,2024-11-27,嬉嬉龍株式会社,,株式会社,栃木県,那須塩原市,太夫塚４丁目２０９番地１４,,09,213,3292735,,,,,,,2024-11-27,1,,,,,キキリュウ,0
1788,8060001037680,新規,0,2024-11-27,2024-11-27,株式会社パウンディング・ザ・ロック,,株式会社,栃木県,小山市,大字島田７３５番地１,,09,208,3230004,,,,,,,2024-11-27,1,,,,,パウンディングザロック,0
1790,8060003005339,新規,0,2024-11-27,2024-11-27,ＭＩＮＡ合同会社,,合同会社,栃木県,鹿沼市,富岡９０－１６－Ｒｏｏｍ２,,09,205,3220006,,,,,,,2024-11-27,1,,,,,ミナ,0
1791,8060003005347,新規,0,2024-11-27,2024-11-27,合同会社一,,合同会社,栃木県,宇都宮市,宿郷１丁目１３番１０号ＳＴビル９３イリュージョン４階,,09,201,3210945,,,,,,,2024-11-27,1,,,,,ハジメ,0
1799,8100003007867,新規,0,2024-11-27,2024-11-27,ｋｕｕ‐ｌ合同会社,,合同会社,長野県,長野市,大字三輪１２９０－２３,,20,201,3800803,,,,,,,2024-11-27,1,,,,,クール,0
1800,8110001038871,新規,0,2024-11-27,2024-11-27,株式会社ＳＴＥＬＬＡＲ,,株式会社,新潟県,新潟市北区,高森新田２１４番地１,,15,101,9503362,,,,,,,2024-11-27,1,,,,,ステラ,0
1801,8110003005589,新規,0,2024-11-27,2024-11-27,合同会社紺屋,,合同会社,新潟県,新潟市中央区,弁天３丁目２番３０号まるよし第２ビル２階,,15,103,9500901,,,,,,,2024-11-27,1,,,,,コンヤ,0
1813,8120001270606,新規,0,2024-11-27,2024-11-27,株式会社ツインズ,,株式会社,大阪府,大阪市北区,梅田１丁目１番３大阪駅前第３ビル２９階１－１－１号室,,27,127,5300001,,,,,,,2024-11-27,1,,,,,ツインズ,0
1816,8120101070666,新規,0,2024-11-27,2024-11-27,株式会社Ｒｏｏｔｅｄ,,株式会社,大阪府,堺市中区,深井東町３１４０番地,,27,142,5998235,,,,,,,2024-11-27,1,,,,,ルーテッド,0
1820,8120905006659,新規,0,2024-11-27,2024-11-27,一般社団法人大阪府ｅスポーツ連合,,その他の設立登記法人,大阪府,池田市,豊島南１丁目１５番１７号,,27,204,5630035,,,,,,,2024-11-27,1,,,,,オオサカフイースポーツレンゴウ,0
1822,8130001078445,新規,0,2024-11-27,2024-11-27,オーラライフジャパン株式会社,,株式会社,京都府,京都市東山区,新宮川町通柿町下る山田町５０１番地レックス清水五条７０１,,26,105,6050837,,,,,,,2024-11-27,1,,,,,オーラライフジャパン,0
1829,8140003021360,新規,0,2024-11-27,2024-11-27,合同会社インプルーブ,,合同会社,兵庫県,西宮市,中前田町一丁目２１番,,28,204,6620857,,,,,,,2024-11-27,1,,,,,インプルーブ,0
1833,8170001018397,新規,0,2024-11-27,2024-11-27,ＮＡＧＯＭＩ株式会社,,株式会社,和歌山県,和歌山市,本脇６３８番地２０,,30,201,6400113,,,,,,,2024-11-27,1,,,,,ナゴミ,0
1843,8180301039266,新規,0,2024-11-27,2024-11-27,株式会社らいむぎ,,株式会社,愛知県,豊田市,和会町山根４９番地,,23,211,4701216,,,,,,,2024-11-27,1,,,,,ライムギ,0
1845,8200001043177,新規,0,2024-11-27,2024-11-27,株式会社Ｏ’ｚ,,株式会社,岐阜県,養老郡養老町,高田３６３番地１５,,21,341,5031314,,,,,,,2024-11-27,1,,,,,オズ,0
1846,8200005013688,新規,0,2024-11-27,2024-11-27,一般社団法人ひだマネジメントアカデミア,,その他の設立登記法人,岐阜県,高山市,岡本町２丁目９６番地４田中ビル３階,,21,203,5060054,,,,,,,2024-11-27,1,,,,,ヒダマネジメントアカデミア,0
1848,8240003006954,新規,0,2024-11-27,2024-11-27,合同会社ほこり,,合同会社,広島県,広島市中区,東千田町１丁目１－５５－１２０６,,34,101,7300053,,,,,,,2024-11-27,1,,,,,ホコリ,0
1849,8250003003595,新規,0,2024-11-27,2024-11-27,合同会社ピュア・ラヴィアン,,合同会社,山口県,柳井市,中央３丁目２番１６号,,35,212,7420035,,,,,,,2024-11-27,1,,,,,ピュアラヴィアン,0
1852,8270003001688,新規,0,2024-11-27,2024-11-27,合同会社結,,合同会社,鳥取県,岩美郡岩美町,大字宇治７０５番地,,31,302,6810025,,,,,,,2024-11-27,1,,,,,ムスビ,0
1856,8290001108104,新規,0,2024-11-27,2024-11-27,Ｂ．ＳＴＯＮＥＳ株式会社,,株式会社,福岡県,大川市,大字道海島８１９番地１,,40,212,8310007,,,,,,,2024-11-27,1,,,,,ビーストーンズ,0
1857,8290001108112,新規,0,2024-11-27,2024-11-27,株式会社選品舎,,株式会社,福岡県,福岡市中央区,赤坂２丁目６番２３－１００１号グリーンハイツ赤坂,,40,133,8100042,,,,,,,2024-11-27,1,,,,,センピンシャ,0
1858,8290001108120,新規,0,2024-11-27,2024-11-27,ＭＭＭ株式会社,,株式会社,福岡県,福岡市中央区,天神２丁目２－１２Ｔ＆Ｊビルディング７Ｆ,,40,133,8100001,,,,,,,2024-11-27,1,,,,,エムエムエム,0
1861,8290003016098,新規,0,2024-11-27,2024-11-27,合同会社ＰＡＺ　ＶＥＲＤＥ,,合同会社,福岡県,福岡市中央区,清川２丁目６番４号,,40,133,8100005,,,,,,,2024-11-27,1,,,,,パズヴェルデ,0
1862,8290801031067,新規,0,2024-11-27,2024-11-27,株式会社Ｖ‐ＴＥＣＨ,,株式会社,福岡県,直方市,大字下境３８１９番地,,40,204,8220007,,,,,,,2024-11-27,1,,,,,ブイテック,0
1874,8340001026952,新規,0,2024-11-27,2024-11-27,株式会社ＩＣＨＩＤＡ・ＨＯＬＤＩＮＧＳ,,株式会社,鹿児島県,姶良市,平松４０６９番地１,,46,225,8995652,,,,,,,2024-11-27,1,,,,,イチダホールディングス,0
1875,8340001026960,新規,0,2024-11-27,2024-11-27,亀川株式会社,,株式会社,鹿児島県,曽於市,財部町下財部２３７７－４,,46,217,8994103,,,,,,,2024-11-27,1,,,,,カメカワ,0
1877,8340003004675,新規,0,2024-11-27,2024-11-27,合同会社ぱれっと,,合同会社,鹿児島県,鹿児島市,清水町２９番２５号パークハイツ多賀山１０９号,,46,201,8920802,,,,,,,2024-11-27,1,,,,,パレット,0
1880,8360001034466,新規,0,2024-11-27,2024-11-27,ＤＲＤ．スマート株式会社,,株式会社,沖縄県,那覇市,曙２丁目９番６号曙ビル３０１,,47,201,9000002,,,,,,,2024-11-27,1,,,,,ディーアールディースマート,0
1883,8370001051956,新規,0,2024-11-27,2024-11-27,ａｌｃａ株式会社,,株式会社,宮城県,仙台市若林区,新寺３丁目１３番３０号ピースフル新寺１号室,,04,103,9840051,,,,,,,2024-11-27,1,,,,,アルカ,0
1884,8370001051980,新規,0,2024-11-27,2024-11-27,株式会社ｂｉｔＮａｔｕｒｅ,,株式会社,宮城県,仙台市宮城野区,鉄砲町西２－１１ＨｉｌｌＳｉｄｅＶｉｌｌａｇｅ２０６,,04,102,9830869,,,,,,,2024-11-27,1,,,,,ビットネイチャー,0
1896,8440003001646,新規,0,2024-11-27,2024-11-27,合同会社デイライト,,合同会社,北海道,函館市,鍛治１丁目１０番３号,,01,202,0410852,,,,,,,2024-11-27,1,,,,,デイライト,0
1897,8450003002560,新規,0,2024-11-27,2024-11-27,合同会社和らぎルームＳＡＣＨＩ,,合同会社,北海道,紋別郡興部町,字興部２０６番地の１,,01,561,0981600,,,,,,,2024-11-27,1,,,,,ヤワラギルームサチ,0
1906,9010001250163,新規,0,2024-11-27,2024-11-27,株式会社ＳＴＯＣＫ１７７,,株式会社,東京都,千代田区,永田町２丁目１２番４号,,13,101,1000014,,,,,,,2024-11-27,1,,,,,ストックヒャクナナジュウナナ,0
1907,9010001250171,新規,0,2024-11-27,2024-11-27,株式会社ＳＴＯＣＫ１８５,,株式会社,東京都,千代田区,永田町２丁目１２番４号,,13,101,1000014,,,,,,,2024-11-27,1,,,,,ストックヒャクハチジュウゴ,0
1908,9010001250221,新規,0,2024-11-27,2024-11-27,Ｅｖｅｒｙ　ａｒｔ株式会社,,株式会社,東京都,千代田区,外神田３丁目１６番１３号,,13,101,1010021,,,,,,,2024-11-27,1,,,,,エブリアート,0
1913,9010003045578,新規,0,2024-11-27,2024-11-27,合同会社茶屋町ホテルインベストメント,,合同会社,東京都,千代田区,霞が関３丁目２番５号,,13,101,1000013,,,,,,,2024-11-27,1,,,,,チャヤマチホテルインベストメント,0
1914,9010005039198,新規,0,2024-11-27,2024-11-27,オーガスタ一般社団法人,,その他の設立登記法人,東京都,中央区,日本橋１丁目４番１号,,13,102,1030027,,,,,,,2024-11-27,1,,,,,オーガスタ,0
1916,9010401186651,新規,0,2024-11-27,2024-11-27,株式会社池田山リアルエステート,,株式会社,東京都,港区,高輪３丁目１０番２号,,13,103,1080074,,,,,,,2024-11-27,1,,,,,イケダヤマリアルエステート,0
1920,9010403033901,新規,0,2024-11-27,2024-11-27,合同会社カレントクロス,,合同会社,東京都,港区,南青山３丁目１番３６号青山丸竹ビル６Ｆ,,13,103,1070062,,,,,,,2024-11-27,1,,,,,カレントクロス,0
1922,9010405023834,新規,0,2024-11-27,2024-11-27,野田ロジスティクス一般社団法人,,その他の設立登記法人,東京都,港区,六本木１丁目６番１号泉ガーデンタワー,,13,103,1060032,,,,,,,2024-11-27,1,,,,,ノダロジスティクス,0
1924,9010501053231,新規,0,2024-11-27,2024-11-27,翔けるコンサルティング株式会社,,株式会社,東京都,台東区,東浅草２丁目２番１２号,,13,106,1110025,,,,,,,2024-11-27,1,,,,,カケルコンサルティング,0
1925,9010501053264,新規,0,2024-11-27,2024-11-27,株式会社ヒロセガラス,,株式会社,東京都,台東区,竜泉２丁目１２番１０－４０２号日神パレステージ三ノ輪国際通り,,13,106,1100012,,,,,,,2024-11-27,1,,,,,ヒロセガラス,0
1931,9010603011211,新規,0,2024-11-27,2024-11-27,合同会社川野運送,,合同会社,東京都,墨田区,緑２丁目７番１３ー２０３号ルーブル両国弐番館,,13,107,1300021,,,,,,,2024-11-27,1,,,,,カワノウンソウ,0
1932,9010703007472,新規,0,2024-11-27,2024-11-27,合同会社さつき,,合同会社,東京都,品川区,東五反田１丁目２０－１麗佳ビル３階Ｂ号室,,13,109,1410022,,,,,,,2024-11-27,1,,,,,サツキ,0
1938,9010801035615,新規,0,2024-11-27,2024-11-27,株式会社蓮,,株式会社,東京都,大田区,東蒲田１丁目２２番１０号,,13,111,1440031,,,,,,,2024-11-27,1,,,,,レン,0
1939,9010803005178,新規,0,2024-11-27,2024-11-27,合同会社アイラボ,,合同会社,東京都,大田区,北千束１丁目２番１４号メルシー洗足ＷＥＳＴ３０２,,13,111,1450062,,,,,,,2024-11-27,1,,,,,アイラボ,0
1942,9010901056395,新規,0,2024-11-27,2024-11-27,ビジュアルクエスト株式会社,,株式会社,東京都,世田谷区,代田６丁目２６番５号,,13,112,1550033,,,,,,,2024-11-27,1,,,,,ビジュアルクエスト,0
1943,9010903009517,新規,0,2024-11-27,2024-11-27,合同会社上北不動産,,合同会社,東京都,世田谷区,上北沢３丁目３０－１９上北沢住宅１号棟１２６号室,,13,112,1560057,,,,,,,2024-11-27,1,,,,,カミキタフドウサン,0
1948,9011001166028,新規,0,2024-11-27,2024-11-27,グラティア株式会社,,株式会社,東京都,渋谷区,神宮前６丁目２３番４号桑野ビル２階,,13,113,1500001,,,,,,,2024-11-27,1,,,,,グラティア,0
1949,9011001166093,新規,0,2024-11-27,2024-11-27,株式会社Ｍｅｄｉｃａｌ　Ｖａｎｔａｇｅ,,株式会社,東京都,渋谷区,道玄坂１丁目１０番８号渋谷道玄坂東急ビル２Ｆ－Ｃ,,13,113,1500043,,,,,,,2024-11-27,1,,,,,メディカルヴァンテージ,0
1954,9011101109613,新規,0,2024-11-27,2024-11-27,ＲＥＮＫＥＩ株式会社,,株式会社,東京都,新宿区,西新宿３丁目３番１３号西新宿水間ビル６階,,13,104,1600023,,,,,,,2024-11-27,1,,,,,レンケイ,0
1955,9011101109720,新規,0,2024-11-27,2024-11-27,インサイトビジョン株式会社,,株式会社,東京都,新宿区,新宿５丁目１４番１２号天翔オフィス新宿三丁目６０８号室,,13,104,1600022,,,,,,,2024-11-27,1,,,,,インサイトビジョン,0
1959,9011203004539,新規,0,2024-11-27,2024-11-27,合同会社ｌｅｍｏｎ,,合同会社,東京都,中野区,沼袋１丁目３６－５,,13,114,1650025,,,,,,,2024-11-27,1,,,,,レモン,0
1964,9011401026608,新規,0,2024-11-27,2024-11-27,ファーストエアー株式会社,,株式会社,東京都,板橋区,相生町１７番４号,,13,119,1740044,,,,,,,2024-11-27,1,,,,,ファーストエアー,0
1967,9011501031391,新規,0,2024-11-27,2024-11-27,和錦順株式会社,,株式会社,東京都,北区,浮間１丁目７－２３兆豊浮間ビル２０４号室,,13,117,1150051,,,,,,,2024-11-27,1,,,,,ワキンジュン,0
1968,9011501031409,新規,0,2024-11-27,2024-11-27,Ｓｔｏｒｋ　Ｊａｐａｎ株式会社,,株式会社,東京都,北区,浮間１丁目７－２３兆豊浮間ビル５０２号室,,13,117,1150051,,,,,,,2024-11-27,1,,,,,ストークジャパン,0
1974,9011801045224,新規,0,2024-11-27,2024-11-27,株式会社ＡＢＣモーターズ,,株式会社,東京都,葛飾区,亀有１丁目２６番２０号,,13,122,1250061,,,,,,,2024-11-27,1,,,,,エービーシーモーターズ,0
1976,9011803006570,新規,0,2024-11-27,2024-11-27,合同会社スペラ,,合同会社,東京都,足立区,千住龍田町２５番３号メゾンＫ３０１,,13,121,1200042,,,,,,,2024-11-27,1,,,,,スペラ,0
1983,9012801023590,新規,0,2024-11-27,2024-11-27,Ｅｘｔｅｒｉｏｒ寿株式会社,,株式会社,東京都,武蔵村山市,榎３丁目５０番地１,,13,223,2080022,,,,,,,2024-11-27,1,,,,,エクステリアコトブキ,0
1984,9012803003558,新規,0,2024-11-27,2024-11-27,ＮＩＣＨＥ吉祥寺合同会社,,合同会社,東京都,国分寺市,東恋ヶ窪５丁目３番地１,,13,214,1850014,,,,,,,2024-11-27,1,,,,,ニッシュキチジョウジ,0
1985,9013105001861,新規,0,2024-11-27,2024-11-27,一般社団法人Ｌ‐ｍｏｏｎ,,その他の設立登記法人,東京都,青梅市,新町３丁目１０番地６エトワール３０７号室,,13,205,1980024,,,,,,,2024-11-27,1,,,,,エルムーン,0
2016,9040001136302,新規,0,2024-11-27,2024-11-27,雅歌建設美業株式会社,,株式会社,千葉県,我孫子市,柴崎台４丁目５番１５－４０２号,,12,222,2701176,,,,,,,2024-11-27,1,,,,,ガカケンセツビギョウ,0
2017,9040001136327,新規,0,2024-11-27,2024-11-27,株式会社栄将,,株式会社,千葉県,館山市,上真倉１７４７番地の９,,12,205,2940038,,,,,,,2024-11-27,1,,,,,エイショウ,0
2018,9040003026261,新規,0,2024-11-27,2024-11-27,合同会社心華,,合同会社,千葉県,市川市,大和田２丁目１４番８号,,12,203,2720025,,,,,,,2024-11-27,1,,,,,シンカ,0
2023,9060001037671,新規,0,2024-11-27,2024-11-27,株式会社和不動産,,株式会社,栃木県,下野市,上古山２１０８番地１,,09,216,3290501,,,,,,,2024-11-27,1,,,,,ナゴミフドウサン,0
2025,9080401027592,新規,0,2024-11-27,2024-11-27,株式会社Ｓｅｒｅｎｅ　Ｇｌｏｗ,,株式会社,静岡県,浜松市中央区,広沢２丁目２０番６号,,22,138,4328013,,,,,,,2024-11-27,1,,,,,セリーングロー,0
2026,9080403005150,新規,0,2024-11-27,2024-11-27,ｅＭＯ　ＳＴＡＮＤＡＲＤ合同会社,,合同会社,静岡県,浜松市中央区,佐鳴台４丁目１１番４５号グレース名倉１０６号,,22,138,4328021,,,,,,,2024-11-27,1,,,,,エモスタンダード,0
2039,9120001270621,新規,0,2024-11-27,2024-11-27,株式会社シード,,株式会社,大阪府,大阪市都島区,東野田町５丁目２番１８－４１０号,,27,102,5340024,,,,,,,2024-11-27,1,,,,,シード,0
2040,9120001270646,新規,0,2024-11-27,2024-11-27,株式会社ＭＡＳＴＥＲ,,株式会社,大阪府,大阪市西成区,天下茶屋東１丁目１２番７－２０２号,,27,122,5570011,,,,,,,2024-11-27,1,,,,,マスター,0
2044,9120005024635,新規,0,2024-11-27,2024-11-27,一般社団法人全国身元サポート協会,,その他の設立登記法人,大阪府,大阪市中央区,徳井町１丁目４番３号リッツ第四ビル５階,,27,128,5400025,,,,,,,2024-11-27,1,,,,,ゼンコクミモトサポートキョウカイ,0
2046,9120103006163,新規,0,2024-11-27,2024-11-27,合同会社ｔＥｒａ,,合同会社,大阪府,堺市中区,大野芝町４５番地４,,27,142,5998233,,,,,,,2024-11-27,1,,,,,テラ,0
2050,9120901050081,新規,0,2024-11-27,2024-11-27,株式会社Ｂｅ　Ｆｒｅｅ,,株式会社,大阪府,吹田市,岸部南１丁目２５番１８号,,27,205,5640011,,,,,,,2024-11-27,1,,,,,ビーフリー,0
2053,9122003003050,新規,0,2024-11-27,2024-11-27,合同会社ＬＩＧＡＲＥ　ＴＲＡＮＳＰＯＲＴ,,合同会社,大阪府,東大阪市,下六万寺町１丁目７番７号,,27,227,5798066,,,,,,,2024-11-27,1,,,,,リガーレトランスポート,0
2055,9130001078428,新規,0,2024-11-27,2024-11-27,株式会社ＫＨＳｃｏｒｐｏｒａｔｉｏｎ,,株式会社,京都府,京都市山科区,小山姫子町９－３,,26,110,6078114,,,,,,,2024-11-27,1,,,,,ケイエイチエスコーポレーション,0
2062,9140001136556,新規,0,2024-11-27,2024-11-27,株式会社リーフアップ,,株式会社,兵庫県,姫路市,朝日町９番地ビーフォレスト姫路ＥＡＳＴ１階,,28,201,6700934,,,,,,,2024-11-27,1,,,,,リーフアップ,0
2063,9140001136564,新規,0,2024-11-27,2024-11-27,株式会社ＢＡＵＣ,,株式会社,兵庫県,神戸市長田区,神楽町２丁目３番２５号,,28,106,6530836,,,,,,,2024-11-27,1,,,,,ビオーク,0
2067,9150001027713,新規,0,2024-11-27,2024-11-27,株式会社奈良アーク,,株式会社,奈良県,大和郡山市,天井町９３－１,,29,203,6391135,,,,,,,2024-11-27,1,,,,,ナラアーク,0
2069,9150003003431,新規,0,2024-11-27,2024-11-27,合同会社ｗｅｅｅｋ,,合同会社,奈良県,奈良市,佐保台西町９５番地グランスイート平城山３０１号,,29,201,6308106,,,,,,,2024-11-27,1,,,,,ウィーク,0
2081,9200001043176,新規,0,2024-11-27,2024-11-27,株式会社ＬｙＳ,,株式会社,岐阜県,岐阜市,鹿島町７丁目１５番地,,21,201,5008323,,,,,,,2024-11-27,1,,,,,リズ,0
2084,9220005008909,新規,0,2024-11-27,2024-11-27,一般社団法人ブルーム石川,,その他の設立登記法人,石川県,金沢市,横山町２５番１１号,,17,201,9200922,,,,,,,2024-11-27,1,,,,,ブルームイシカワ,0
2087,9230001020635,新規,0,2024-11-27,2024-11-27,株式会社アズサ,,株式会社,富山県,下新川郡朝日町,境７３３番地１,,16,343,9390704,,,,,,,2024-11-27,1,,,,,アズサ,0
2089,9240001064169,新規,0,2024-11-27,2024-11-27,株式会社あひるコネクト,,株式会社,広島県,広島市西区,大芝３丁目１９番１号,,34,104,7330001,,,,,,,2024-11-27,1,,,,,アヒルコネクト,0
2099,9290001108086,新規,0,2024-11-27,2024-11-27,ＮＯＳＵＴＡ株式会社,,株式会社,福岡県,福岡市中央区,天神４丁目３番８号ミーナ天神８Ｆ,,40,133,8100001,,,,,,,2024-11-27,1,,,,,ノスタ,0
2100,9290001108128,新規,0,2024-11-27,2024-11-27,株式会社浜友コンサルティング,,株式会社,福岡県,久留米市,東櫛原町１３３１番地２ガーデンヒルズ櫛原３０８号,,40,203,8300003,,,,,,,2024-11-27,1,,,,,ハマユウコンサルティング,0
2111,9330001032678,新規,0,2024-11-27,2024-11-27,株式会社ＣＯＣＯＮＡ　ＳＰＯＯＮ,,株式会社,熊本県,宇城市,松橋町久具１２９番地,,43,213,8690532,,,,,,,2024-11-27,1,,,,,ココナスプーン,0
2114,9350001019302,新規,0,2024-11-27,2024-11-27,株式会社Ｍｙａｋ,,株式会社,宮崎県,宮崎市,清武町池田台２９番地２８１,,45,201,8891606,,,,,,,2024-11-27,1,,,,,ミャク,0
2116,9360001034457,新規,0,2024-11-27,2024-11-27,達＆達株式会社,,株式会社,沖縄県,那覇市,松川３丁目１８番３５－４０２室,,47,201,9020062,,,,,,,2024-11-27,1,,,,,タツアンドタツ,0
2117,9370001051971,新規,0,2024-11-27,2024-11-27,クレアホールディング株式会社,,株式会社,宮城県,仙台市若林区,かすみ町２４番１５号,,04,103,9840822,,,,,,,2024-11-27,1,,,,,クレアホールディング,0
2121,9370003006841,新規,0,2024-11-27,2024-11-27,合同会社ライフヘルスプランニング,,合同会社,宮城県,仙台市若林区,五橋３丁目１番３－２９０８号,,04,103,9840022,,,,,,,2024-11-27,1,,,,,ライフヘルスプランニング,0
2122,9370005010858,新規,0,2024-11-27,2024-11-27,一般社団法人からだ大学,,その他の設立登記法人,宮城県,富谷市,鷹乃杜４丁目５－１２,,04,216,9813351,,,,,,,2024-11-27,1,,,,,カラダダイガク,0
2123,9370005010866,新規,0,2024-11-27,2024-11-27,一般社団法人ＥＯ　Ｂｅｙｏｎｄ　Ｊａｐａｎ,,その他の設立登記法人,宮城県,仙台市青葉区,国分町１丁目４番９号,,04,101,9800803,,,,,,,2024-11-27,1,,,,,イーオービヨンドジャパン,0
