sequenceNumber,corporateNumber,process,correct,updateDate,changeDate,name,nameImageId,kind,prefectureName,cityName,streetNumber,addressImageId,prefectureCode,cityCode,postCode,addressOutside,addressOutsideImageId,closeDate,closeCause,successorCorporateNumber,changeCause,assignmentDate,latest,enName,enPrefectureName,enCityName,enAddressOutside,furigana,hihyoji
13,1010001241582,新規,0,2024-01-23,2024-01-23,ＡＵＲＡ地方創生株式会社,,株式会社,東京都,中央区,銀座１丁目２２番１１号銀座大竹ビジデンス２Ｆ,,13,102,1040061,,,,,,,2024-01-23,1,,,,,オーラチホウソウセイ,0
14,1010003042665,新規,0,2024-01-23,2024-01-23,Ｂｅａｕｔｙ　Ｍｏｎｓｔｅｒ合同会社,,合同会社,東京都,中央区,銀座１丁目２０番１１号ＢＯＲＵＧ１ビル３階,,13,102,1040061,,,,,,,2024-01-23,1,,,,,ビューティーモンスター,0
22,1010401179811,新規,0,2024-01-23,2024-01-23,株式会社Ｂｅｅ,,株式会社,東京都,港区,浜松町２丁目２番１５号浜松町ダイヤビル２Ｆ,,13,103,1050013,,,,,,,2024-01-23,1,,,,,ビー,0
23,1010401179869,新規,0,2024-01-23,2024-01-23,株式会社ＥＦｂａｎｋ,,株式会社,東京都,港区,芝２丁目２番１６号ライオンズフォーシア芝公園７０２号室,,13,103,1050014,,,,,,,2024-01-23,1,,,,,イーエフバンク,0
24,1010401179893,新規,0,2024-01-23,2024-01-23,日の出１１号株式会社,,株式会社,東京都,港区,海岸１丁目７番１号,,13,103,1050022,,,,,,,2024-01-23,1,,,,,ヒノデジュウイチゴウ,0
28,1010501051572,新規,0,2024-01-23,2024-01-23,株式会社ラピス,,株式会社,東京都,台東区,谷中２丁目５番１１号,,13,106,1100001,,,,,,,2024-01-23,1,,,,,ラピス,0
30,1010601064508,新規,0,2024-01-23,2024-01-23,新東力株式会社,,株式会社,東京都,墨田区,業平２丁目１２番３号プティアムススカイツリー前３０２室,,13,107,1300002,,,,,,,2024-01-23,1,,,,,シントウリキ,0
33,1010901054571,新規,0,2024-01-23,2024-01-23,ａｎ’ｓ　ｅｓｔａｔｅ株式会社,,株式会社,東京都,世田谷区,用賀３丁目１６番１４号,,13,112,1580097,,,,,,,2024-01-23,1,,,,,アンズエステート,0
36,1011001159410,新規,0,2024-01-23,2024-01-23,株式会社Ｍ１３,,株式会社,東京都,渋谷区,道玄坂１丁目１０番８号,,13,113,1500043,,,,,,,2024-01-23,1,,,,,エムジュウサン,0
37,1011001159534,新規,0,2024-01-23,2024-01-23,株式会社ＴｅｃｈＶｉｌｌａｇｅ,,株式会社,東京都,渋谷区,道玄坂１丁目１０番８号渋谷道玄坂東急ビル２Ｆ－Ｃ,,13,113,1500043,,,,,,,2024-01-23,1,,,,,テックビレッジ,0
44,1011403004230,新規,0,2024-01-23,2024-01-23,リード合同会社,,合同会社,東京都,板橋区,志村３丁目７番４号メゾンベール城山３０５,,13,119,1740056,,,,,,,2024-01-23,1,,,,,リード,0
45,1011701026950,新規,0,2024-01-23,2024-01-23,株式会社ＤＯ　ＰＬＵＳ,,株式会社,東京都,江戸川区,中央２丁目１９番２３号,,13,123,1320021,,,,,,,2024-01-23,1,,,,,ドゥプラス,0
59,1020001155385,新規,0,2024-01-23,2024-01-23,株式会社ｆｕｍｕ,,株式会社,神奈川県,横浜市港北区,日吉本町１丁目２４番４号・４Ｆ,,14,109,2230062,,,,,,,2024-01-23,1,,,,,フム,0
60,1020001155419,新規,0,2024-01-23,2024-01-23,ＨＭインベストメント・マネジメント株式会社,,株式会社,神奈川県,横浜市中区,尾上町４丁目５７番地横浜尾上町ビルディング８Ｆ,,14,104,2310015,,,,,,,2024-01-23,1,,,,,エイチエムインベストメントマネジメント,0
61,1020001155443,新規,0,2024-01-23,2024-01-23,Ｙ．Ｓ　ＬＡＢＯ株式会社,,株式会社,神奈川県,横浜市中区,常盤町１丁目２番地１関内電子ビル９階,,14,104,2310014,,,,,,,2024-01-23,1,,,,,ワイエスラボ,0
62,1020003025405,新規,0,2024-01-23,2024-01-23,合同会社ｈｏｃｃａ,,合同会社,神奈川県,横浜市戸塚区,戸塚町４２４７－２－８１３,,14,110,2440003,,,,,,,2024-01-23,1,,,,,ホッカ,0
70,1030001158180,新規,0,2024-01-23,2024-01-23,株式会社イエレクス,,株式会社,埼玉県,蕨市,中央２丁目１９番１３号,,11,223,3350004,,,,,,,2024-01-23,1,,,,,イエレクス,0
72,1030003023473,新規,0,2024-01-23,2024-01-23,正宇トレード合同会社,,合同会社,埼玉県,本庄市,朝日町３丁目８番３号,,11,211,3670026,,,,,,,2024-01-23,1,,,,,マサタカトレード,0
86,1070003005245,新規,0,2024-01-23,2024-01-23,合同会社高橋技研,00133442,合同会社,群馬県,太田市,岩瀬川町２７６番地２,,10,205,3730841,,,,,,,2024-01-23,1,,,,,タカハシギケン,0
87,1080001026093,新規,0,2024-01-23,2024-01-23,株式会社ロエリマ,,株式会社,静岡県,静岡市清水区,相生町６番１７号７１３号室,,22,103,4240821,,,,,,,2024-01-23,1,,,,,ロエリマ,0
97,1090001018511,新規,0,2024-01-23,2024-01-23,株式会社オーブ,,株式会社,山梨県,甲府市,里吉４丁目１２番１８号,,19,201,4000822,,,,,,,2024-01-23,1,,,,,オーブ,0
105,1100003007353,新規,0,2024-01-23,2024-01-23,合同会社ＫＡＮＡ,,合同会社,長野県,飯田市,鼎切石５１２１番地１３６,,20,205,3950807,,,,,,,2024-01-23,1,,,,,カナ,0
117,1120001261454,新規,0,2024-01-23,2024-01-23,ＪＲＤ株式会社,,株式会社,大阪府,大阪市北区,天満２丁目１－１２天満橋ＳＥビル４階,,27,127,5300043,,,,,,,2024-01-23,1,,,,,ジェイアールディー,0
118,1120001261578,新規,0,2024-01-23,2024-01-23,株式会社Ａｃｅ　Ｓｙｎｅｒｇｙ,,株式会社,大阪府,大阪市北区,中崎２丁目１番１号小川ビル２０１,,27,127,5300016,,,,,,,2024-01-23,1,,,,,エースシナジー,0
119,1120001261603,新規,0,2024-01-23,2024-01-23,株式会社ＹＵＡＮ,,株式会社,大阪府,大阪市福島区,福島７丁目７番９号福島ＹＵＡＮ６０１号,,27,103,5530003,,,,,,,2024-01-23,1,,,,,エン,0
123,1120003025709,新規,0,2024-01-23,2024-01-23,巨能合同会社,,合同会社,大阪府,大阪市東淀川区,相川３丁目３番９号２階２Ｂ号室,,27,114,5330007,,,,,,,2024-01-23,1,,,,,キョノウ,0
124,1120005024097,新規,0,2024-01-23,2024-01-23,一般社団法人日本寺子屋協会,,その他の設立登記法人,大阪府,大阪市北区,梅田１丁目２番２号大阪駅前第２ビル１２－１２,,27,127,5300001,,,,,,,2024-01-23,1,,,,,ニホンテラコヤキョウカイ,0
125,1120005024122,新規,0,2024-01-23,2024-01-23,医療法人つじファミリー歯科,,その他の設立登記法人,大阪府,大阪市鶴見区,今津南１丁目５番４３号鶴見グリーンレジデンス１階,,27,124,5380043,,,,,,,2024-01-23,1,,,,,ツジファミリーシカ,0
126,1120101068948,新規,0,2024-01-23,2024-01-23,株式会社ゼクスライン,,株式会社,大阪府,堺市堺区,綾之町西１丁１番２号,,27,141,5900926,,,,,,,2024-01-23,1,,,,,ゼクスライン,0
129,1120103005643,新規,0,2024-01-23,2024-01-23,合同会社河内恋バナナ,,合同会社,大阪府,富田林市,山手町１３番１６号,,27,214,5840047,,,,,,,2024-01-23,1,,,,,カワチコイバナナ,0
131,1120901048678,新規,0,2024-01-23,2024-01-23,株式会社いち,,株式会社,大阪府,高槻市,氷室町４丁目１２番３９号,,27,207,5691141,,,,,,,2024-01-23,1,,,,,イチ,0
137,1122003002778,新規,0,2024-01-23,2024-01-23,合同会社ＭＡＪＥＳＴＩＣ　ＡＵＴＯ,,合同会社,大阪府,大東市,御領４丁目３番３７号,,27,218,5740064,,,,,,,2024-01-23,1,,,,,マジェスティックオート,0
139,1130003009248,新規,0,2024-01-23,2024-01-23,合同会社わろうて,,合同会社,京都府,京都市右京区,西院六反田町１３番地４ベネート京都洛西２０８号,,26,108,6150047,,,,,,,2024-01-23,1,,,,,ワロウテ,0
145,1140003020071,新規,0,2024-01-23,2024-01-23,合同会社ＫＨＦＴ,,合同会社,兵庫県,高砂市,荒井町紙町３番１号,,28,216,6760015,,,,,,,2024-01-23,1,,,,,ケーエイチエフティー,0
152,1160003003099,新規,0,2024-01-23,2024-01-23,合同会社トータル人材サービス,,合同会社,滋賀県,彦根市,戸賀町１００番地１０,,25,202,5220042,,,,,,,2024-01-23,1,,,,,トータルジンザイサービス,0
170,1190001031041,新規,0,2024-01-23,2024-01-23,株式会社エストワン,,株式会社,三重県,名張市,富貴ケ丘２番町３０９番地,,24,208,5180415,,,,,,,2024-01-23,1,,,,,エストワン,0
175,1200001042103,新規,0,2024-01-23,2024-01-23,かしわぎ株式会社,,株式会社,岐阜県,岐阜市,北山３丁目９番１１号,,21,201,5013113,,,,,,,2024-01-23,1,,,,,カシワギ,0
177,1210001019612,新規,0,2024-01-23,2024-01-23,株式会社Ｈｅｌｌｏ,,株式会社,福井県,福井市,大願寺１丁目８番２３号２,,18,201,9100001,,,,,,,2024-01-23,1,,,,,ハロー,0
178,1240001062683,新規,0,2024-01-23,2024-01-23,株式会社巧真工業,,株式会社,広島県,福山市,加茂町字粟根１０２８番地１,,34,207,7202416,,,,,,,2024-01-23,1,,,,,タクシンコウギョウ,0
182,1250001020483,新規,0,2024-01-23,2024-01-23,株式会社睦,,株式会社,山口県,岩国市,三笠町３丁目８番４号,,35,208,7400016,,,,,,,2024-01-23,1,,,,,ムツキ,0
191,1290001104464,新規,0,2024-01-23,2024-01-23,株式会社第三商会,,株式会社,福岡県,福岡市中央区,天神４丁目６－２８天神ファーストビル７階,,40,133,8100001,,,,,,,2024-01-23,1,,,,,ダイサンショウカイ,0
201,1320001020245,新規,0,2024-01-23,2024-01-23,城崎プランニング株式会社,,株式会社,大分県,大分市,城崎町１丁目１番５号城崎コスギビル１０２,,44,201,8700045,,,,,,,2024-01-23,1,,,,,シロサキプランニング,0
202,1320003004279,新規,0,2024-01-23,2024-01-23,合同会社Ｂｒｏａｄｅｎ,,合同会社,大分県,大分市,上野丘１丁目８番５号,,44,201,8700835,,,,,,,2024-01-23,1,,,,,,0
204,1330001031687,新規,0,2024-01-23,2024-01-23,株式会社Ｎ’ｓ　ｂｌｏｗ,,株式会社,熊本県,熊本市西区,池田２丁目１７番１９号,,43,103,8600082,,,,,,,2024-01-23,1,,,,,エヌズブロウ,0
208,1350001018757,新規,0,2024-01-23,2024-01-23,株式会社飛成工業,,株式会社,宮崎県,宮崎市,大島町野田２０７９番地４,,45,201,8800824,,,,,,,2024-01-23,1,,,,,ヒセイコウギョウ,0
210,1350003004549,新規,0,2024-01-23,2024-01-23,合同会社ＤＯ＆Ｃｏ．,,合同会社,宮崎県,宮崎市,神宮西１丁目１７３沖縄キッチンＤｏｕｃｈｉ２Ｆ,,45,201,8800033,,,,,,,2024-01-23,1,,,,,,0
230,1390001017490,新規,0,2024-01-23,2024-01-23,株式会社パティーナ,,株式会社,山形県,山形市,あこや町１丁目７番１号,,06,201,9900025,,,,,,,2024-01-23,1,,,,,パティーナ,0
235,1410005006561,新規,0,2024-01-23,2024-01-23,農事組合法人上野ファーム,,その他の設立登記法人,秋田県,秋田市,四ツ小屋字道前１３８番地２,,05,201,0101417,,,,,,,2024-01-23,1,,,,,ウワノファーム,0
236,1430001090905,新規,0,2024-01-23,2024-01-23,株式会社ＳＴＡＮＣＥ,,株式会社,北海道,札幌市中央区,南八条西３丁目１０番地１０,,01,101,0640808,,,,,,,2024-01-23,1,,,,,スタンス,0
237,1430003015876,新規,0,2024-01-23,2024-01-23,合同会社弦樹,,合同会社,北海道,白老郡白老町,緑丘３丁目５番２８号,,01,578,0590908,,,,,,,2024-01-23,1,,,,,ゲンジュ,0
242,1500001025432,新規,0,2024-01-23,2024-01-23,明浜水産株式会社,,株式会社,愛媛県,西予市,明浜町高山甲２８８６番地１,,38,214,7970201,,,,,,,2024-01-23,1,,,,,,0
243,1700150123512,新規,0,2024-01-23,2024-01-23,三郷駅前地区市街地再開発組合,,その他,愛知県,尾張旭市,三郷町栄３７番１,,23,226,4880015,,,,,,,2024-01-23,1,,,,,サンゴウエキマエチクシガイチサイカイハツクミアイ,0
244,1700150123520,新規,0,2024-01-23,2024-01-23,桜丘アーバンライフマンション建替組合,,その他,東京都,港区,六本木７丁目３番１２号株式会社アークブレイン内,,13,103,1060032,,,,,,,2024-01-23,1,,,,,サクラガオカアーバンライフマンシヨンタテカエクミアイ,0
252,2010001241680,新規,0,2024-01-23,2024-01-23,株式会社ｓａｍｂｏ,,株式会社,東京都,文京区,千駄木３丁目４１番２－１０２号ノエル千駄木,,13,105,1130022,,,,,,,2024-01-23,1,,,,,サンボウ,0
258,2010005037761,新規,0,2024-01-23,2024-01-23,弁理士法人片山特許事務所,,その他の設立登記法人,東京都,中央区,京橋１丁目６番１号三井住友海上テプコビル,,13,102,1040031,,,,,,,2024-01-23,1,,,,,カタヤマトッキョジムショ,0
264,2010401179819,新規,0,2024-01-23,2024-01-23,株式会社Ｊｏｙｎ,,株式会社,東京都,港区,芝浦３丁目６－７板硝子会館６階,,13,103,1080023,,,,,,,2024-01-23,1,,,,,ジョイン,0
265,2010401179835,新規,0,2024-01-23,2024-01-23,株式会社テイラードジャパン,,株式会社,東京都,港区,芝４丁目１６番１－１３０６号,,13,103,1080014,,,,,,,2024-01-23,1,,,,,テイラードジャパン,0
268,2010503007316,新規,0,2024-01-23,2024-01-23,カイスビ合同会社,,合同会社,東京都,台東区,浅草１丁目１３－５浅草一丁目ビル,,13,106,1110032,,,,,,,2024-01-23,1,,,,,カイスビ,0
274,2010901054579,新規,0,2024-01-23,2024-01-23,株式会社Ｗｉｓｔｅｒｉａ,,株式会社,東京都,世田谷区,上馬２丁目２６番６号チサンマンション三軒茶屋第２・６０４,,13,112,1540011,,,,,,,2024-01-23,1,,,,,ウィステリア,0
280,2010903008698,新規,0,2024-01-23,2024-01-23,Ｂｒｏｄｉ　Ｃｏｒｐｏｒａｔｉｏｎ合同会社,,合同会社,東京都,世田谷区,宇奈根３丁目１３番６号ガーデンパレスＢ－２,,13,112,1570068,,,,,,,2024-01-23,1,,,,,ブロディコーポレーション,0
281,2010903008756,新規,0,2024-01-23,2024-01-23,合同会社ステージスタッフサルベージ,,合同会社,東京都,世田谷区,太子堂４丁目２０番３号ハイツ伊波１０１,,13,112,1540004,,,,,,,2024-01-23,1,,,,,ステージスタッフサルベージ,0
286,2011001159392,新規,0,2024-01-23,2024-01-23,株式会社シンクスバリュー,,株式会社,東京都,目黒区,中目黒５丁目２７番１８－６１１号,,13,110,1530061,,,,,,,2024-01-23,1,,,,,シンクスバリュー,0
287,2011001159525,新規,0,2024-01-23,2024-01-23,株式会社Ｎｅｗ　Ａｇｅ　Ｆｉｌｍｓ,,株式会社,東京都,渋谷区,千駄ヶ谷５丁目１６番１６号千駄ヶ谷フラワーマンション３０１号室,,13,113,1510051,,,,,,,2024-01-23,1,,,,,ニューエイジフィルムズ,0
288,2011003018299,新規,0,2024-01-23,2024-01-23,ソレイユ合同会社,,合同会社,東京都,目黒区,下目黒２丁目２１番１９－９０５号目黒グリーンコープ,,13,110,1530064,,,,,,,2024-01-23,1,,,,,ソレイユ,0
289,2011003018332,新規,0,2024-01-23,2024-01-23,合同会社ザガン,,合同会社,東京都,渋谷区,恵比寿西２丁目８－４ＥＸ恵比寿西ビル５階,,13,113,1500021,,,,,,,2024-01-23,1,,,,,ザガン,0
291,2011101105908,新規,0,2024-01-23,2024-01-23,株式会社アセンド,,株式会社,東京都,新宿区,西新宿３丁目３番１３号,,13,104,1600023,,,,,,,2024-01-23,1,,,,,アセンド,0
292,2011201025196,新規,0,2024-01-23,2024-01-23,株式会社ＤＵＡＬ　Ｋ,,株式会社,東京都,中野区,野方５丁目２３番７－３０３号,,13,114,1650027,,,,,,,2024-01-23,1,,,,,デュアルケー,0
293,2011301029345,新規,0,2024-01-23,2024-01-23,株式会社濱田山吉祥,,株式会社,東京都,杉並区,浜田山４丁目３２番１２号,,13,115,1680065,,,,,,,2024-01-23,1,,,,,ハマダヤマキッショウ,0
295,2011401025797,新規,0,2024-01-23,2024-01-23,ＰＯＷＥＲ　ＳＴＯＮＥ　ＪＡＰＡＮ株式会社,,株式会社,東京都,板橋区,大山金井町２９－８,,13,119,1730024,,,,,,,2024-01-23,1,,,,,パワーストーンジャパン,0
297,2011501030227,新規,0,2024-01-23,2024-01-23,株式会社Ａ．Ｃ．Ｅ．Ｐｒｏ,,株式会社,東京都,北区,滝野川７丁目４０番７号コンフォートレジデンス１階,,13,117,1140023,,,,,,,2024-01-23,1,,,,,エーシーイープロ,0
300,2011701026941,新規,0,2024-01-23,2024-01-23,株式会社コーデュロイ＆カンパニー,,株式会社,東京都,江戸川区,南篠崎町２丁目３番４号,,13,123,1330065,,,,,,,2024-01-23,1,,,,,コーデュロイアンドカンパニー,0
302,2011703003716,新規,0,2024-01-23,2024-01-23,合同会社エアリー,,合同会社,東京都,江戸川区,下篠崎町９番１３号３０３,,13,123,1330064,,,,,,,2024-01-23,1,,,,,エアリー,0
308,2012403006372,新規,0,2024-01-23,2024-01-23,Ｈ＆Ｎキャピタル合同会社,,合同会社,東京都,三鷹市,上連雀４丁目１７番１３号,,13,204,1810012,,,,,,,2024-01-23,1,,,,,エイチアンドエヌキャピタル,0
310,2012801022921,新規,0,2024-01-23,2024-01-23,宝瓶株式会社,,株式会社,東京都,国分寺市,南町３丁目７－９パークアベニュー国分寺１０７号,,13,214,1850021,,,,,,,2024-01-23,1,,,,,ホウビン,0
318,2020001155392,新規,0,2024-01-23,2024-01-23,株式会社ＴＫＫ,,株式会社,神奈川県,横浜市中区,伊勢佐木町５丁目１３０番地２伊勢佐木町セントラルヒルズ４０３号室,,14,104,2310045,,,,,,,2024-01-23,1,,,,,ティーケーケー,0
319,2020001155442,新規,0,2024-01-23,2024-01-23,株式会社ゼスト・ワン,,株式会社,神奈川県,川崎市川崎区,中島２丁目２番９号,,14,131,2100806,,,,,,,2024-01-23,1,,,,,ゼストワン,0
320,2020001155450,新規,0,2024-01-23,2024-01-23,株式会社ＴＫＹ工業,,株式会社,神奈川県,横浜市磯子区,森５丁目２３番２２号,,14,107,2350023,,,,,,,2024-01-23,1,,,,,ティーケーワイコウギョウ,0
325,2020003025395,新規,0,2024-01-23,2024-01-23,合同会社ｍ２,,合同会社,神奈川県,横浜市青葉区,市ケ尾町１１７４番地１１,,14,117,2250024,,,,,,,2024-01-23,1,,,,,エムツー,0
329,2021003014058,新規,0,2024-01-23,2024-01-23,合同会社ｓａｚａｎａｍｉ,,合同会社,神奈川県,藤沢市,辻堂元町３丁目９－２９,,14,205,2510043,,,,,,,2024-01-23,1,,,,,サザナミ,0
333,2030001158205,新規,0,2024-01-23,2024-01-23,株式会社祥平,,株式会社,埼玉県,越谷市,七左町６丁目６－２ＳＫハイツ２０２号,,11,222,3430851,,,,,,,2024-01-23,1,,,,,ショウヘイ,0
334,2030001158304,新規,0,2024-01-23,2024-01-23,緑華包装サービス株式会社,,株式会社,埼玉県,坂戸市,仲町２０番地２０坂戸ダイカンプラザシティＩ－４０５号室,00133455,11,239,3500227,,,,,,,2024-01-23,1,,,,,リョクカホウソウサービス,0
340,2030003023472,新規,0,2024-01-23,2024-01-23,ケセラセラ合同会社,,合同会社,埼玉県,南埼玉郡宮代町,宮代台３丁目２番１６号,,11,442,3450835,,,,,,,2024-01-23,1,,,,,ケセラセラ,0
342,2030005021524,新規,0,2024-01-23,2024-01-23,一般社団法人ソブリン・ムーブメント,,その他の設立登記法人,埼玉県,越谷市,大字下間久里４７７番地１２,,11,222,3430045,,,,,,,2024-01-23,1,,,,,ソブリンムーブメント,0
350,2040003024164,新規,0,2024-01-23,2024-01-23,ＡＨＭＥＤ　ＭＯＴＯＲ合同会社,,合同会社,千葉県,野田市,木間ケ瀬１２２番地８,,12,208,2700222,,,,,,,2024-01-23,1,,,,,アハメドモーター,0
354,2050005013379,新規,0,2024-01-23,2024-01-23,一般社団法人Ｒａ‐ｉＬ,,その他の設立登記法人,茨城県,龍ケ崎市,出し山町６３番地,,08,208,3010839,,,,,,,2024-01-23,1,,,,,レイル,0
388,2120001261395,新規,0,2024-01-23,2024-01-23,ＢＴ商事株式会社,,株式会社,大阪府,大阪市中央区,高津２丁目３－１６ローズシャトー高津１Ａ,,27,128,5420072,,,,,,,2024-01-23,1,,,,,ビーティーショウジ,0
389,2120001261577,新規,0,2024-01-23,2024-01-23,山嵐株式会社,,株式会社,大阪府,大阪市都島区,都島北通１丁目２２番３号３０１号,,27,102,5340014,,,,,,,2024-01-23,1,,,,,ヤマアラシ,0
397,2120103005642,新規,0,2024-01-23,2024-01-23,ＡＲＫｓ合同会社,,合同会社,大阪府,堺市中区,深阪５丁２番４１号,,27,142,5998253,,,,,,,2024-01-23,1,,,,,アークス,0
399,2122001037759,新規,0,2024-01-23,2024-01-23,株式会社ＳＰＲＩＮＧ　ＣＨＩＬＤ,,株式会社,大阪府,東大阪市,花園東町２丁目９－４１Ｔ’Ｓヴィラ１０４,,27,227,5780931,,,,,,,2024-01-23,1,,,,,スプリングチャイルド,0
406,2130001076181,新規,0,2024-01-23,2024-01-23,株式会社Ｎｅｘｔ　ＳＴＡＲ,,株式会社,京都府,京都市山科区,竹鼻堂ノ前町２８番地１０ヴィオス京都山科マナーズ１０１,,26,110,6078085,,,,,,,2024-01-23,1,,,,,ネクストスター,0
411,2140001133048,新規,0,2024-01-23,2024-01-23,株式会社Ｂｅｅテック,,株式会社,兵庫県,伊丹市,南野４丁目４番１７－１０３号,,28,207,6640865,,,,,,,2024-01-23,1,,,,,ビーテック,0
412,2140001133064,新規,0,2024-01-23,2024-01-23,ＮＹＫ株式会社,,株式会社,兵庫県,芦屋市,西芦屋町４番１０号,00133454,28,206,6590085,,,,,,,2024-01-23,1,,,,,エヌワイケー,0
413,2140001133072,新規,0,2024-01-23,2024-01-23,株式会社インダスト,,株式会社,兵庫県,伊丹市,昆陽南４丁目６番１０－７号,,28,207,6640888,,,,,,,2024-01-23,1,,,,,インダスト,0
414,2140001133080,新規,0,2024-01-23,2024-01-23,日本寝具通信販売株式会社,,株式会社,兵庫県,神戸市中央区,東町１２６番地神戸シルクセンタービル,,28,110,6500031,,,,,,,2024-01-23,1,,,,,ニホンシングツウシンハンバイ,0
417,2140003020070,新規,0,2024-01-23,2024-01-23,エムタック合同会社,,合同会社,兵庫県,神戸市北区,藤原台北町１丁目１４番１５号,,28,109,6511301,,,,,,,2024-01-23,1,,,,,エムタック,0
420,2160003003098,新規,0,2024-01-23,2024-01-23,合同会社ファストプランニング,,合同会社,滋賀県,湖南市,近江台１丁目２番１７号,,25,211,5203245,,,,,,,2024-01-23,1,,,,,ファストプランニング,0
432,2180001159907,新規,0,2024-01-23,2024-01-23,Ｖｏｙａｇｅｒ３Ｐｒｏｊｅｃｔ株式会社,,株式会社,愛知県,名古屋市北区,杉栄町５丁目１１９番地の２,,23,103,4620829,,,,,,,2024-01-23,1,,,,,ヴォイジャースリープロジェクト,0
437,2180003026238,新規,0,2024-01-23,2024-01-23,合同会社ＫＢＥＸ,,合同会社,愛知県,名古屋市東区,東桜１丁目４番２７号クレール高岳６０２号,,23,102,4610005,,,,,,,2024-01-23,1,,,,,ケービーエックス,0
477,2270003001594,新規,0,2024-01-23,2024-01-23,合同会社Ｎｅｘｔ,,合同会社,鳥取県,米子市,福万８４６－８,,31,202,6893523,,,,,,,2024-01-23,1,,,,,ネクスト,0
486,2290001104463,新規,0,2024-01-23,2024-01-23,株式会社セカンドベース,,株式会社,福岡県,福岡市中央区,警固１丁目８番５号,,40,133,8100023,,,,,,,2024-01-23,1,,,,,セカンドベース,0
496,2310001018818,新規,0,2024-01-23,2024-01-23,株式会社菫咲く,,株式会社,長崎県,松浦市,志佐町高野免６３１番地４,,42,208,8594503,,,,,,,2024-01-23,1,,,,,スミレサク,0
504,2350001018756,新規,0,2024-01-23,2024-01-23,検匠株式会社,,株式会社,宮崎県,延岡市,浜砂２丁目１番３３－５号,,45,203,8820851,,,,,,,2024-01-23,1,,,,,ケンショウ,0
507,2360001033093,新規,0,2024-01-23,2024-01-23,株式会社光栄,,株式会社,沖縄県,島尻郡南風原町,字与那覇４０５番地１,,47,350,9011103,,,,,,,2024-01-23,1,,,,,コウエイ,0
516,2370001050856,新規,0,2024-01-23,2024-01-23,株式会社ブライト,,株式会社,宮城県,仙台市宮城野区,新田３丁目２６番３１号カーサＳ２０２,,04,102,9830038,,,,,,,2024-01-23,1,,,,,ブライト,0
533,2420001018559,新規,0,2024-01-23,2024-01-23,株式会社ご縁のことり,,株式会社,青森県,弘前市,大字城東中央５丁目４番地１,,02,202,0368093,,,,,,,2024-01-23,1,,,,,ゴエンノコトリ,0
534,2420003002866,新規,0,2024-01-23,2024-01-23,合同会社ｕｎｉｄａｙ,,合同会社,青森県,十和田市,東三番町３４番１２ー７号,,02,206,0340031,,,,,,,2024-01-23,1,,,,,ユニデイ,0
536,2430001090912,新規,0,2024-01-23,2024-01-23,Ｘｅｎｅｗ株式会社,,株式会社,北海道,札幌市中央区,南九条西１２丁目２番２６－１３０３号,,01,101,0640809,,,,,,,2024-01-23,1,,,,,ゼニュー,0
540,2460001005859,新規,0,2024-01-23,2024-01-23,株式会社Ｋ＆Ｋ　ＧＡＲＡＧＥ,,株式会社,北海道,釧路市,鶴野東４丁目１番２号,,01,206,0840923,,,,,,,2024-01-23,1,,,,,ケーアンドケーガレージ,0
545,2500001025431,新規,0,2024-01-23,2024-01-23,株式会社トラストコーポレーション,,株式会社,愛媛県,松山市,勝山町２丁目４番地７,,38,201,7900878,,,,,,,2024-01-23,1,,,,,トラストコーポレーション,0
562,3010001241655,新規,0,2024-01-23,2024-01-23,株式会社ビボス,,株式会社,東京都,文京区,本郷２丁目２６番１２－Ａ１１０２号,,13,105,1130033,,,,,,,2024-01-23,1,,,,,ビボス,0
563,3010001241688,新規,0,2024-01-23,2024-01-23,藍海株式会社,,株式会社,東京都,千代田区,丸の内３丁目４番１号新国際ビル８階,,13,101,1000005,,,,,,,2024-01-23,1,,,,,ランカイ,0
567,3010003042738,新規,0,2024-01-23,2024-01-23,シグナム・タン合同会社,,合同会社,東京都,千代田区,丸の内３丁目１番１号東京共同会計事務所内,,13,101,1000005,,,,,,,2024-01-23,1,,,,,シグナムタン,0
575,3010401179751,新規,0,2024-01-23,2024-01-23,株式会社ヒミツのエンピツ,,株式会社,東京都,港区,愛宕１丁目３番４号,,13,103,1050002,,,,,,,2024-01-23,1,,,,,ヒミツノエンピツ,0
576,3010401179834,新規,0,2024-01-23,2024-01-23,株式会社ＥｖｏｌｖｅＵ,,株式会社,東京都,港区,南青山３丁目８－４０青山センタービル２Ｆ,,13,103,1070062,,,,,,,2024-01-23,1,,,,,エボルブユー,0
580,3010405022882,新規,0,2024-01-23,2024-01-23,一般社団法人ベトナムオフショア開発協会,,その他の設立登記法人,東京都,港区,芝２丁目３番１８号ＹＭ芝公園ビル５階,,13,103,1050014,,,,,,,2024-01-23,1,,,,,ベトナムオフショアカイハツキョウカイ,0
582,3010501051653,新規,0,2024-01-23,2024-01-23,ＫＪ　Ｋａｉｚｅｎ株式会社,,株式会社,東京都,台東区,上野３丁目１６番２号天翔オフィス上野末広町７０４－Ｅ号室,,13,106,1100005,,,,,,,2024-01-23,1,,,,,ケイジェイカイゼン,0
586,3010701045414,新規,0,2024-01-23,2024-01-23,富士之家株式会社,,株式会社,東京都,品川区,荏原２丁目１７番１４号,,13,109,1420063,,,,,,,2024-01-23,1,,,,,フジノヤ,0
587,3010701045439,新規,0,2024-01-23,2024-01-23,株式会社ＴＲＩＰ７　ＮＡＧＡＮＯ,,株式会社,東京都,品川区,南大井３丁目２０番５号,,13,109,1400013,,,,,,,2024-01-23,1,,,,,トリップセブンナガノ,0
588,3010903008755,新規,0,2024-01-23,2024-01-23,合同会社Ｔ８Ｒテクノロジーズ,,合同会社,東京都,世田谷区,上馬４丁目１４番１７号,,13,112,1540011,,,,,,,2024-01-23,1,,,,,ティーハチアールテクノロジーズ,0
592,3011001159433,新規,0,2024-01-23,2024-01-23,株式会社ＲｅＰｌａｙｃｅ,,株式会社,東京都,渋谷区,道玄坂１丁目１０番８号渋谷道玄坂東急ビル２Ｆ－Ｃ,,13,113,1500043,,,,,,,2024-01-23,1,,,,,リプレイス,0
595,3011403004229,新規,0,2024-01-23,2024-01-23,ウイング合同会社,,合同会社,東京都,板橋区,志村３丁目７番４号メゾンベール城山３０５,,13,119,1740056,,,,,,,2024-01-23,1,,,,,ウイング,0
596,3011501030218,新規,0,2024-01-23,2024-01-23,Ａ＆Ｐｈｏｅｎｉｘ株式会社,,株式会社,東京都,荒川区,町屋３丁目１４番１８号,,13,118,1160001,,,,,,,2024-01-23,1,,,,,エアンドフェニックス,0
597,3011501030234,新規,0,2024-01-23,2024-01-23,杜和株式会社,,株式会社,東京都,北区,赤羽北２丁目１５第１棟９１７,,13,117,1150052,,,,,,,2024-01-23,1,,,,,トウ,0
600,3011701026949,新規,0,2024-01-23,2024-01-23,株式会社タカノ商店,,株式会社,東京都,江戸川区,北篠崎２丁目１番２１号ノース．ヴィレッジ３０１,,13,123,1330053,,,,,,,2024-01-23,1,,,,,タカノショウテン,0
602,3011703003715,新規,0,2024-01-23,2024-01-23,ＴＣＳ合同会社,,合同会社,東京都,江戸川区,中央２丁目３０番１６号,,13,123,1320021,,,,,,,2024-01-23,1,,,,,ティーシーエス,0
605,3012303001927,新規,0,2024-01-23,2024-01-23,合同会社つながるＬｉｎｋｓ,,合同会社,東京都,町田市,野津田町３７０６番地２号,,13,209,1950063,,,,,,,2024-01-23,1,,,,,ツナガルリンクス,0
609,3013301051947,新規,0,2024-01-23,2024-01-23,株式会社Ｓ＆Ｌ,,株式会社,東京都,豊島区,南池袋２丁目１８番９号マ・シャンブル南池袋５０４号,,13,116,1710022,,,,,,,2024-01-23,1,,,,,エスアンドエル,0
610,3013303006965,新規,0,2024-01-23,2024-01-23,ＴＨＡＮＨ　ＣＯＮＧ合同会社,,合同会社,東京都,豊島区,南大塚３丁目６番９号シャガール２０２号,,13,116,1700005,,,,,,,2024-01-23,1,,,,,タンコン,0
617,3020001155383,新規,0,2024-01-23,2024-01-23,株式会社Ｂａｍｓ,,株式会社,神奈川県,横浜市旭区,上白根２丁目２２番２号,,14,112,2410002,,,,,,,2024-01-23,1,,,,,バムズ,0
618,3020001155409,新規,0,2024-01-23,2024-01-23,ｉ‐Ｓｏｌｕｔｉｏｎｓ株式会社,,株式会社,神奈川県,横浜市西区,北幸１丁目１１番１号水信ビル７Ｆ,,14,103,2200004,,,,,,,2024-01-23,1,,,,,アイソリューションズ,0
619,3020001155441,新規,0,2024-01-23,2024-01-23,株式会社シールメット,,株式会社,神奈川県,横浜市青葉区,美しが丘５丁目２９番地５美しが丘アーバン１１３号,,14,117,2250002,,,,,,,2024-01-23,1,,,,,シールメット,0
622,3020003025411,新規,0,2024-01-23,2024-01-23,合同会社セイフティインテリジェンス,,合同会社,神奈川県,横浜市保土ケ谷区,常盤台７９―５,,14,106,2400067,,,,,,,2024-01-23,1,,,,,セイフティインテリジェンス,0
632,3030001158179,新規,0,2024-01-23,2024-01-23,株式会社イナンナプロ,,株式会社,埼玉県,坂戸市,千代田１丁目２１番４号,,11,239,3500214,,,,,,,2024-01-23,1,,,,,イナンナプロ,0
633,3030001158261,新規,0,2024-01-23,2024-01-23,株式会社オールスタイル,,株式会社,埼玉県,比企郡鳩山町,大字石坂８７５番地４,,11,348,3500311,,,,,,,2024-01-23,1,,,,,オールスタイル,0
637,3030003023364,新規,0,2024-01-23,2024-01-23,合同会社ＫＯＴＡ,,合同会社,埼玉県,川口市,大字里３６７番地の５,,11,203,3340005,,,,,,,2024-01-23,1,,,,,コタ,0
638,3030003023471,新規,0,2024-01-23,2024-01-23,合同会社ハルカゼストア,,合同会社,埼玉県,新座市,石神１丁目９番６号,,11,230,3520033,,,,,,,2024-01-23,1,,,,,ハルカゼストア,0
644,3040001131440,新規,0,2024-01-23,2024-01-23,株式会社ＮＯＢＩ,,株式会社,千葉県,柏市,高田１００１番地２１,,12,217,2770861,,,,,,,2024-01-23,1,,,,,ノビ,0
645,3040001131837,新規,0,2024-01-23,2024-01-23,Ｓ＆Ｄコンサルティング株式会社,,株式会社,千葉県,船橋市,習志野台５丁目４６番４号,,12,204,2740063,,,,,,,2024-01-23,1,,,,,エスアンドディーコンサルティング,0
646,3040001131886,新規,0,2024-01-23,2024-01-23,株式会社ＬＥＧＯＮ,,株式会社,千葉県,八千代市,勝田台２丁目２番地１８,,12,221,2760023,,,,,,,2024-01-23,1,,,,,レゴン,0
652,3060001036761,新規,0,2024-01-23,2024-01-23,株式会社吉田不動産,,株式会社,栃木県,宇都宮市,戸祭２丁目８番１２号,,09,201,3200056,,,,,,,2024-01-23,1,,,,,ヨシダフドウサン,0
653,3060003004881,新規,0,2024-01-23,2024-01-23,Ａｈｍａｄ　Ｔｒａｄｉｎｇ合同会社,,合同会社,栃木県,佐野市,並木町５３６番地,,09,204,3270002,,,,,,,2024-01-23,1,,,,,アフマドトレーディング,0
657,3080003003122,新規,0,2024-01-23,2024-01-23,合同会社ｉｎｊｏｙ,,合同会社,静岡県,静岡市葵区,沓谷４丁目１６番１７号,,22,101,4200816,,,,,,,2024-01-23,1,,,,,インジョイ,0
658,3080101024490,新規,0,2024-01-23,2024-01-23,株式会社ｖｉｓｉｏｎ,,株式会社,静岡県,富士市,長通９番地の１,,22,210,4160902,,,,,,,2024-01-23,1,,,,,ビジョン,0
663,3090003000044,新規,0,2024-01-23,2024-01-23,合同会社共栄商會,,合同会社,山梨県,甲府市,愛宕町８５番地,,19,201,4000023,,,,,,,2024-01-23,1,,,,,キョウエイショウカイ,0
665,3110003005271,新規,0,2024-01-23,2024-01-23,合同会社ＴＫ　Ａｓｓｅｔ,,合同会社,新潟県,新潟市南区,犬帰新田７０７番地３,,15,106,9501403,,,,,,,2024-01-23,1,,,,,ティーケーアセット,0
678,3120001261576,新規,0,2024-01-23,2024-01-23,梓強株式会社,,株式会社,大阪府,大阪市生野区,生野東１丁目６番９号,,27,116,5440025,,,,,,,2024-01-23,1,,,,,シキョウ,0
679,3120001261584,新規,0,2024-01-23,2024-01-23,株式会社Ｗｏｍａｎ　Ｒｅｖｅ　Ｊａｐａｎ,,株式会社,大阪府,大阪市淀川区,西中島４丁目３番２１号,,27,123,5320011,,,,,,,2024-01-23,1,,,,,ウーマンレーヴジャパン,0
680,3120001261642,新規,0,2024-01-23,2024-01-23,わんにゃんジャパン株式会社,,株式会社,大阪府,大阪市東淀川区,菅原４丁目４番２８号ハウスアイ菅原２０３号室,,27,114,5330022,,,,,,,2024-01-23,1,,,,,ワンニャンジャパン,0
683,3120005024120,新規,0,2024-01-23,2024-01-23,医療法人Ｐｕａ　ｍｅｌｉａ,,その他の設立登記法人,大阪府,大阪市西淀川区,柏里２丁目４番３３号中島ビル２階,,27,113,5550022,,,,,,,2024-01-23,1,,,,,プアメリア,0
684,3120101068946,新規,0,2024-01-23,2024-01-23,秀義環境株式会社,,株式会社,大阪府,和泉市,王子町１１１５番地の１１,,27,219,5940004,,,,,,,2024-01-23,1,,,,,ヒデヨシカンキョウ,0
688,3130001076189,新規,0,2024-01-23,2024-01-23,株式会社ＫＩＣＫｓ,,株式会社,京都府,京都市下京区,大黒町２２７番地第２キョートビル４０２,,26,106,6008043,,,,,,,2024-01-23,1,,,,,キックス,0
689,3130001076197,新規,0,2024-01-23,2024-01-23,株式会社ＥＣＯＤＥＳＩＧＮ　ＬＡＢＯ,,株式会社,京都府,京都市上京区,上長者町通新町西入土御門町３１８番地ロイヤル土御門３０２,,26,102,6028077,,,,,,,2024-01-23,1,,,,,エコデザインラボ,0
690,3130001076206,新規,0,2024-01-23,2024-01-23,株式会社Ｅｃｃｉｔａｔｏ,,株式会社,京都府,京都市中京区,河原町通二条下る二丁目一之舟入町５３７番地２０,,26,104,6040000,,,,,,,2024-01-23,1,,,,,エチタート,0
693,3140001133047,新規,0,2024-01-23,2024-01-23,美肌専門研究所株式会社,,株式会社,兵庫県,加古川市,加古川町本町６００,,28,210,6750037,,,,,,,2024-01-23,1,,,,,ビハダセンモンケンキュウショ,0
694,3140001133063,新規,0,2024-01-23,2024-01-23,干支株式会社,,株式会社,兵庫県,姫路市,継６０番地８,,28,201,6728004,,,,,,,2024-01-23,1,,,,,エト,0
698,3150001027017,新規,0,2024-01-23,2024-01-23,株式会社とど安Ｗ,,株式会社,奈良県,奈良市,杉ヶ町１４番地の１,,29,201,6308357,,,,,,,2024-01-23,1,,,,,トドヤスダブリュー,0
699,3150001027025,新規,0,2024-01-23,2024-01-23,株式会社カシバ消防設備,,株式会社,奈良県,香芝市,磯壁５丁目１２番３３号,,29,210,6390236,,,,,,,2024-01-23,1,,,,,カシバショウボウセツビ,0
702,3160001025647,新規,0,2024-01-23,2024-01-23,株式会社ライフデザイン,,株式会社,滋賀県,近江八幡市,北之庄町１００９番地２,,25,204,5230806,,,,,,,2024-01-23,1,,,,,ライフデザイン,0
703,3160001025655,新規,0,2024-01-23,2024-01-23,株式会社ＰＲＵＮＥ,,株式会社,滋賀県,草津市,北山田町８４３－４,,25,206,5250061,,,,,,,2024-01-23,1,,,,,プリュネ,0
711,3180001159897,新規,0,2024-01-23,2024-01-23,株式会社リバレイン,,株式会社,愛知県,名古屋市千種区,春岡１丁目７－５プロビデンス池下１０１,,23,101,4640848,,,,,,,2024-01-23,1,,,,,リバレイン,0
715,3180003026253,新規,0,2024-01-23,2024-01-23,ＴＭコネクト合同会社,,合同会社,愛知県,名古屋市中川区,供米田２丁目４０８番地プレアール名古屋供米田４０１号,,23,110,4540984,,,,,,,2024-01-23,1,,,,,ティーエムコネクト,0
718,3180301038248,新規,0,2024-01-23,2024-01-23,Ｆｏｒ　ｔｓｋ．株式会社,,株式会社,愛知県,刈谷市,相生町２丁目３０番地２ＴＲＵＮＫ刈谷５Ｆ,,23,210,4480027,,,,,,,2024-01-23,1,,,,,フォータスク,0
728,3190001031048,新規,0,2024-01-23,2024-01-23,株式会社ｔｏｒｉｈａｎｅ,,株式会社,三重県,鳥羽市,鳥羽４丁目１５番２０号,,24,211,5170011,,,,,,,2024-01-23,1,,,,,トリハネ,0
738,3240001062698,新規,0,2024-01-23,2024-01-23,株式会社カザック,,株式会社,広島県,廿日市市,下平良１丁目３番２１号,,34,213,7380023,,,,,,,2024-01-23,1,,,,,カザック,0
752,3290001104339,新規,0,2024-01-23,2024-01-23,株式会社三上,,株式会社,福岡県,福岡市西区,横浜２丁目７－３エメラルド４０４室,,40,135,8190166,,,,,,,2024-01-23,1,,,,,ミカミ,0
753,3290001104371,新規,0,2024-01-23,2024-01-23,株式会社東陽商事,,株式会社,福岡県,那珂川市,大字西畑１９０番５,,40,231,8111246,,,,,,,2024-01-23,1,,,,,トウヨウショウジ,0
754,3290001104462,新規,0,2024-01-23,2024-01-23,株式会社ＧＬＯＢＡＬ,,株式会社,福岡県,福岡市博多区,比恵町２番３２号１階,,40,132,8120014,,,,,,,2024-01-23,1,,,,,グローバール,0
756,3290003014882,新規,0,2024-01-23,2024-01-23,合同会社ａｉｕｅｏ,,合同会社,福岡県,福岡市東区,香椎照葉６丁目４－２－１１０５,,40,131,8130017,,,,,,,2024-01-23,1,,,,,アイウエオ,0
757,3290003014890,新規,0,2024-01-23,2024-01-23,Ａｍｉｃａ合同会社,,合同会社,福岡県,糟屋郡志免町,片峰中央３丁目１６番２８号,,40,343,8112246,,,,,,,2024-01-23,1,,,,,アミカ,0
759,3290801030247,新規,0,2024-01-23,2024-01-23,株式会社ＢＥＬＬＥ　ＺＥＬＬ,,株式会社,福岡県,北九州市八幡西区,岸の浦２丁目４番２３－１０５号,,40,109,8060034,,,,,,,2024-01-23,1,,,,,ベルゼル,0
760,3300003002068,新規,0,2024-01-23,2024-01-23,ａｍｐｅｒｓａｎｄ合同会社,,合同会社,佐賀県,武雄市,朝日町大字中野４７４３番地１,,41,206,8430002,,,,,,,2024-01-23,1,,,,,アンパサンド,0
764,3330001031693,新規,0,2024-01-23,2024-01-23,株式会社ＹＳＫ,,株式会社,熊本県,熊本市西区,島崎２丁目１１番１０－３０１号,,43,103,8600073,,,,,,,2024-01-23,1,,,,,ワイエスケー,0
769,3330003010183,新規,0,2024-01-23,2024-01-23,合同会社スマイル友,,合同会社,熊本県,熊本市北区,武蔵ケ丘６丁目７番１０号,,43,105,8618001,,,,,,,2024-01-23,1,,,,,スマイルユウ,0
776,3360003013638,新規,0,2024-01-23,2024-01-23,Ｇｒｅｅｎ　Ｐａｒｋ合同会社,,合同会社,沖縄県,名護市,字宮里１００４,,47,209,9050011,,,,,,,2024-01-23,1,,,,,グリーンパーク,0
785,3380001034238,新規,0,2024-01-23,2024-01-23,株式会社すみれ,,株式会社,福島県,大沼郡会津美里町,字高田前川原３４３５－１２,,07,447,9696203,,,,,,,2024-01-23,1,,,,,スミレ,0
787,3380003005666,新規,0,2024-01-23,2024-01-23,合同会社ふなつきば,,合同会社,福島県,河沼郡柳津町,大字柳津字下大平甲６１０番地７,,07,423,9697201,,,,,,,2024-01-23,1,,,,,フナツキバ,0
794,3400005008383,新規,0,2024-01-23,2024-01-23,一般社団法人ノウフクファーム,,その他の設立登記法人,岩手県,西磐井郡平泉町,長島字前林１８番地,,03,402,0294101,,,,,,,2024-01-23,1,,,,,ノウフクファーム,0
796,3410001013709,新規,0,2024-01-23,2024-01-23,Ａｐｐｌｅ　Ｌｉｎｅ株式会社,,株式会社,秋田県,横手市,増田町増田字伊勢堂１８－２,,05,203,0190701,,,,,,,2024-01-23,1,,,,,アップルライン,0
798,3420001018566,新規,0,2024-01-23,2024-01-23,株式会社角住宅サービス,00133441,株式会社,青森県,三沢市,大字三沢字大津５８番地６１号,,02,207,0330022,,,,,,,2024-01-23,1,,,,,スミジュウタクサービス,0
799,3430003015866,新規,0,2024-01-23,2024-01-23,合同会社コインネスト,,合同会社,北海道,札幌市東区,北五条東９丁目１番３１－４０４号,,01,103,0650005,,,,,,,2024-01-23,1,,,,,コインネスト,0
804,3700150123535,新規,0,2024-01-23,2024-01-23,ＨＯＮＧ　ＫＯＮＧ　ＢＩＹＡＮＧ　ＴＥＣＨＮＯＬＯＧＹ　ＴＲＡＤＩＮＧ　ＣＯＭＰＡＮＹ　ＬＩＭＩＴＥＤ,,外国会社等,,,,,,,,ＯＦＦＩＣＥ　５，８／Ｆ，ＭＥＧＡ　ＣＵＢＥ，８　ＷＡＮＧ　ＫＷＯＮＧ　ＲＯＡＤ，ＫＯＷＬＯＯＮ　ＢＡＹ，ＫＯＷＬＯＯＮ　ＨＯＮＧ　ＫＯＮＧ　Ｃｈｉｎａ　９９９０７７,,,,,,2024-01-23,1,,,,,シァンガンビーヤンシャンマオヨウシェンゴンスー,0
813,4010001241555,新規,0,2024-01-23,2024-01-23,株式会社ナナニン,,株式会社,東京都,千代田区,九段南１丁目５番６号りそな九段ビル５階ＫＳフロア,,13,101,1020074,,,,,,,2024-01-23,1,,,,,ナナニン,0
814,4010001241605,新規,0,2024-01-23,2024-01-23,Ｋｙｏｍｅｉ株式会社,,株式会社,東京都,千代田区,紀尾井町４番１号ニューオータニガーデンコート９Ｆ,,13,101,1020094,,,,,,,2024-01-23,1,,,,,キョウメイ,0
820,4010003042596,新規,0,2024-01-23,2024-01-23,Ｄｉｓｈ合同会社,,合同会社,東京都,千代田区,内神田１丁目３番７号４０１,,13,101,1010047,,,,,,,2024-01-23,1,,,,,ディッシュ,0
821,4010003042712,新規,0,2024-01-23,2024-01-23,ＭＯ合同会社,,合同会社,東京都,千代田区,岩本町２丁目１番１６号,,13,101,1010032,,,,,,,2024-01-23,1,,,,,エムオー,0
822,4010003042729,新規,0,2024-01-23,2024-01-23,合同会社ＭＰＨＧＢ,,合同会社,東京都,千代田区,内神田１丁目３番７号４０１あすな会計事務所内,,13,101,1010047,,,,,,,2024-01-23,1,,,,,エムピーエイチジービー,0
823,4010005037776,新規,0,2024-01-23,2024-01-23,一般社団法人ＡＦ１９,,その他の設立登記法人,東京都,中央区,日本橋１丁目４番１号,,13,102,1030027,,,,,,,2024-01-23,1,,,,,エーエフナインティーン,0
830,4010401179809,新規,0,2024-01-23,2024-01-23,ＯＮＥ　ＷＯＲＬＤ株式会社,,株式会社,東京都,港区,六本木４丁目８番７号,,13,103,1060032,,,,,,,2024-01-23,1,,,,,ワンワールド,0
831,4010401179899,新規,0,2024-01-23,2024-01-23,日の出１７号株式会社,,株式会社,東京都,港区,海岸１丁目７番１号,,13,103,1050022,,,,,,,2024-01-23,1,,,,,ヒノデジュウナナゴウ,0
841,4010903008738,新規,0,2024-01-23,2024-01-23,合同会社金木犀,,合同会社,東京都,世田谷区,東玉川１丁目３６番１２号２０１号室,,13,112,1580084,,,,,,,2024-01-23,1,,,,,キンモクセイ,0
847,4011001159523,新規,0,2024-01-23,2024-01-23,株式会社グランドエンタテインメント,,株式会社,東京都,渋谷区,神宮前２丁目１４番１９号神宮前２１４ビル３０１,,13,113,1500001,,,,,,,2024-01-23,1,,,,,グランドエンタテインメント,0
848,4011001159531,新規,0,2024-01-23,2024-01-23,株式会社セレラ,,株式会社,東京都,渋谷区,神宮前６丁目２３番４号桑野ビル２階,,13,113,1500001,,,,,,,2024-01-23,1,,,,,セレラ,0
849,4011001159597,新規,0,2024-01-23,2024-01-23,ドラゴンリクルートメントジャパン株式会社,,株式会社,東京都,渋谷区,代々木１丁目５４番８号アビエス代々木３Ｆ,,13,113,1510053,,,,,,,2024-01-23,1,,,,,ドラゴンリクルートメントジャパン,0
850,4011003018347,新規,0,2024-01-23,2024-01-23,ＰＦコンサルティング合同会社,,合同会社,東京都,渋谷区,道玄坂１丁目１０番８号渋谷道玄坂東急ビル２Ｆ－Ｃ,,13,113,1500043,,,,,,,2024-01-23,1,,,,,ピーエフコンサルティング,0
855,4011203004287,新規,0,2024-01-23,2024-01-23,合同会社笹華,,合同会社,東京都,中野区,南台３丁目４２番１号,,13,114,1640014,,,,,,,2024-01-23,1,,,,,ササハナ,0
857,4011303005037,新規,0,2024-01-23,2024-01-23,合同会社デルタ,,合同会社,東京都,杉並区,阿佐谷南１丁目１番３号ＳＷＩＴＣＨ新高円寺１０,,13,115,1660004,,,,,,,2024-01-23,1,,,,,デルタ,0
860,4011401025762,新規,0,2024-01-23,2024-01-23,株式会社ｎｏｖｏ．,,株式会社,東京都,板橋区,栄町１８番１０－１０５号,,13,119,1730015,,,,,,,2024-01-23,1,,,,,ノヴォ,0
861,4011401025787,新規,0,2024-01-23,2024-01-23,ＬＩＢＥＲＡＬ株式会社,,株式会社,東京都,板橋区,赤塚２丁目３５－１４,,13,119,1750092,,,,,,,2024-01-23,1,,,,,リベラル,0
862,4011401025795,新規,0,2024-01-23,2024-01-23,株式会社ＧＧ　Ｄｅｓｉｇｎ,,株式会社,東京都,板橋区,本町３６番７－７０８号,,13,119,1730001,,,,,,,2024-01-23,1,,,,,ジージーデザイン,0
863,4011403004228,新規,0,2024-01-23,2024-01-23,合同会社ウェーブ,,合同会社,東京都,板橋区,志村３丁目７番４号メゾンベール城山３０５号室,,13,119,1740056,,,,,,,2024-01-23,1,,,,,ウェーブ,0
864,4011403004236,新規,0,2024-01-23,2024-01-23,合同会社エール,,合同会社,東京都,板橋区,志村３丁目７番４号メゾンベール城山３０５号室,,13,119,1740056,,,,,,,2024-01-23,1,,,,,エール,0
874,4011701026948,新規,0,2024-01-23,2024-01-23,株式会社岩木興業,,株式会社,東京都,江戸川区,春江町５丁目９番地１－４１５号,,13,123,1340003,,,,,,,2024-01-23,1,,,,,イワキコウギョウ,0
893,4013301051822,新規,0,2024-01-23,2024-01-23,株式会社Ｐ＆Ｃ　Ｓｅｃｕｒｉｔｙ,,株式会社,東京都,豊島区,南池袋１丁目１６番２０号ぬかりやビル６Ｆ,,13,116,1710022,,,,,,,2024-01-23,1,,,,,ピーケーセキュリティ,0
894,4013301051954,新規,0,2024-01-23,2024-01-23,株式会社リスパイア,,株式会社,東京都,豊島区,池袋２丁目３０－１８ウエストコーポ４０５,,13,116,1710014,,,,,,,2024-01-23,1,,,,,リスパイア,0
904,4020001155317,新規,0,2024-01-23,2024-01-23,株式会社ＤＡＨＯＮ商事,,株式会社,神奈川県,横浜市南区,井土ケ谷中町６０－９,,14,105,2320052,,,,,,,2024-01-23,1,,,,,ショウジ,0
905,4020001155382,新規,0,2024-01-23,2024-01-23,株式会社ＳＥＣＯＮＤ,,株式会社,神奈川県,川崎市川崎区,旭町１丁目１０番５号,,14,131,2100808,,,,,,,2024-01-23,1,,,,,セカンド,0
906,4020001155408,新規,0,2024-01-23,2024-01-23,株式会社ＨａＲｕＫｏ,,株式会社,神奈川県,川崎市麻生区,黒川６５７セントラルハイツ２０６,,14,137,2150035,,,,,,,2024-01-23,1,,,,,ハルコ,0
907,4020001155424,新規,0,2024-01-23,2024-01-23,株式会社Ｇ＆Ｂカンパニー,,株式会社,神奈川県,横浜市保土ケ谷区,岩間町２丁目１００番地５エクセルイワマ３０５号,,14,106,2400004,,,,,,,2024-01-23,1,,,,,ジーアンドビーカンパニー,0
915,4020003025369,新規,0,2024-01-23,2024-01-23,合同会社Ｄｅｒａｉｉ,,合同会社,神奈川県,横浜市西区,北幸２丁目１０番４８号むつみビル３階,,14,103,2200004,,,,,,,2024-01-23,1,,,,,デライイ,0
916,4020003025393,新規,0,2024-01-23,2024-01-23,合同会社スキャンサービス,,合同会社,神奈川県,横浜市神奈川区,金港町５－１４クアドリフォリオ８階,,14,102,2210056,,,,,,,2024-01-23,1,,,,,スキャンサービス,0
922,4021003014056,新規,0,2024-01-23,2024-01-23,合同会社ＣＥＤＡＲ　ＬＯＤＧＥ,,合同会社,神奈川県,茅ヶ崎市,美住町６－２８－１,,14,207,2530023,,,,,,,2024-01-23,1,,,,,シダーロッジ,0
928,4030003023462,新規,0,2024-01-23,2024-01-23,合同会社Ｃｈａｒｍ,,合同会社,埼玉県,さいたま市中央区,上峰３丁目６－１０,,11,105,3380014,,,,,,,2024-01-23,1,,,,,チャーム,0
934,4040001131877,新規,0,2024-01-23,2024-01-23,株式会社ＳＡＫＡＫＥＮＳＯＵ,,株式会社,千葉県,柏市,南増尾１丁目１５番１３号,,12,217,2770054,,,,,,,2024-01-23,1,,,,,サカケンソウ,0
943,4060001036760,新規,0,2024-01-23,2024-01-23,株式会社シャナック,,株式会社,栃木県,小山市,駅東通り１丁目２６－１６ＳＫビル４ＦＧ号,,09,208,3230022,,,,,,,2024-01-23,1,,,,,シャナック,0
944,4060003004880,新規,0,2024-01-23,2024-01-23,合同会社カルガモ,,合同会社,栃木県,宇都宮市,若草３丁目１９番１６号,,09,201,3200072,,,,,,,2024-01-23,1,,,,,カルガモ,0
947,4070001041306,新規,0,2024-01-23,2024-01-23,ハチ株式会社,,株式会社,群馬県,伊勢崎市,北千木町１２４５番地,,10,204,3720032,,,,,,,2024-01-23,1,,,,,ハチ,0
956,4080403004941,新規,0,2024-01-23,2024-01-23,積成開発合同会社,,合同会社,静岡県,浜松市中央区,広沢１丁目３番３号,,22,138,4328013,,,,,,,2024-01-23,1,,,,,セキセイカイハツ,0
957,4090003002477,新規,0,2024-01-23,2024-01-23,Ｔｅｃｈ　Ｐａｒｔｎｅｒｓ合同会社,,合同会社,山梨県,甲府市,砂田町１２番１９号ラ・メールＢ１０１,,19,201,4000821,,,,,,,2024-01-23,1,,,,,テックパートナーズ,0
966,4110001038124,新規,0,2024-01-23,2024-01-23,株式会社ＺＥＮ,,株式会社,新潟県,新潟市西蒲区,馬堀５９６６番地１,,15,108,9530061,,,,,,,2024-01-23,1,,,,,ゼン,0
977,4120001261591,新規,0,2024-01-23,2024-01-23,カインドマーケティングアンドセールス株式会社,,株式会社,大阪府,大阪市港区,市岡元町３丁目１３番５号ウエストエリアビル４１２,,27,107,5520002,,,,,,,2024-01-23,1,,,,,カインドマーケティングアンドセールス,0
983,4120901048667,新規,0,2024-01-23,2024-01-23,株式会社Ｋ＆Ｃ,,株式会社,大阪府,箕面市,船場東３丁目１１番１３－５０１号,,27,220,5620035,,,,,,,2024-01-23,1,,,,,ケーアンドシー,0
986,4120903005014,新規,0,2024-01-23,2024-01-23,合同会社ＮＡＰＯＬＩ,,合同会社,大阪府,豊能郡能勢町,宿野１３８番地９０,,27,322,5630341,,,,,,,2024-01-23,1,,,,,ナポリ,0
987,4122001037749,新規,0,2024-01-23,2024-01-23,三竹株式会社,,株式会社,大阪府,八尾市,大竹７丁目１６９番地１０７号室,,27,212,5810854,,,,,,,2024-01-23,1,,,,,サンタケ,0
991,4130003009237,新規,0,2024-01-23,2024-01-23,合同会社古,,合同会社,京都府,京都市北区,紫野南船岡町３８－１５,,26,101,6030000,,,,,,,2024-01-23,1,,,,,イニシヘ,0
992,4130003009253,新規,0,2024-01-23,2024-01-23,合同会社ちゅちゅポりん,,合同会社,京都府,城陽市,枇杷庄鹿背田２７番地の１８,,26,207,6100117,,,,,,,2024-01-23,1,,,,,チュチュポリン,0
995,4140001133062,新規,0,2024-01-23,2024-01-23,恒泰商事株式会社,,株式会社,兵庫県,神戸市中央区,元町通２丁目９番１号元町プラザビル,,28,110,6500022,,,,,,,2024-01-23,1,,,,,コウタイショウジ,0
996,4140001133079,新規,0,2024-01-23,2024-01-23,日本ウィング株式会社,,株式会社,兵庫県,伊丹市,東有岡５丁目４７番地,,28,207,6640845,,,,,,,2024-01-23,1,,,,,ニホンウィング,0
1001,4140003020077,新規,0,2024-01-23,2024-01-23,ＰＯＩ合同会社,,合同会社,兵庫県,川辺郡猪名川町,猪渕字前田３２－３,,28,301,6660255,,,,,,,2024-01-23,1,,,,,ポイ,0
1002,4150001027032,新規,0,2024-01-23,2024-01-23,株式会社ラポール・コーポレーション,,株式会社,奈良県,天理市,川原城町６８０番地天理ビル５１１号,,29,204,6320016,,,,,,,2024-01-23,1,,,,,ラポールコーポレーション,0
1003,4150003003171,新規,0,2024-01-23,2024-01-23,合同会社すずらん,,合同会社,奈良県,奈良市,南京終町４丁目３３７番地１,,29,201,6308141,,,,,,,2024-01-23,1,,,,,スズラン,0
1004,4160003003096,新規,0,2024-01-23,2024-01-23,Ｅ．ｖｅｒ合同会社,,合同会社,滋賀県,草津市,平井４丁目５－２５,,25,206,5250023,,,,,,,2024-01-23,1,,,,,イーバー,0
1009,4180001159888,新規,0,2024-01-23,2024-01-23,株式会社可能性アカデミー愛知,,株式会社,愛知県,名古屋市中村区,名駅４丁目２４番５号第２森ビル４０１,,23,105,4500002,,,,,,,2024-01-23,1,,,,,カノウセイアカデミーアイチ,0
1016,4180003026260,新規,0,2024-01-23,2024-01-23,いちのせ貿易合同会社,,合同会社,愛知県,名古屋市昭和区,北山町３丁目１１番地の４,,23,107,4660006,,,,,,,2024-01-23,1,,,,,イチノセボウエキ,0
1026,4190003004562,新規,0,2024-01-23,2024-01-23,合同会社無限ｃｒｅａｔｅ,,合同会社,三重県,四日市市,万古町８番２０号ラウムズ阿倉川２０３,,24,202,5100804,,,,,,,2024-01-23,1,,,,,ムゲンクリエイト,0
1030,4200001042083,新規,0,2024-01-23,2024-01-23,株式会社Ｎｅｘｔ　Ａｓｓｉｓｔ,,株式会社,岐阜県,岐阜市,萱場北町３丁目２２番地,,21,201,5020938,,,,,,,2024-01-23,1,,,,,ネクストアシスト,0
1044,4240001062689,新規,0,2024-01-23,2024-01-23,Ｔｒｕｓｔ　ｌａｎｄ株式会社,,株式会社,広島県,福山市,新市町常１８１９番地３,,34,207,7210000,,,,,,,2024-01-23,1,,,,,トラストランド,0
1056,4280005007587,新規,0,2024-01-23,2024-01-23,社会福祉法人石見銀山つむぐひび,,その他の設立登記法人,島根県,大田市,大森町ニ４番地４,,32,205,6940305,,,,,,,2024-01-23,1,,,,,イワミギンザンツムグヒビ,0
1062,4290801030246,新規,0,2024-01-23,2024-01-23,株式会社大崎商店,00133460,株式会社,福岡県,北九州市八幡西区,熊手１丁目１番３７号,,40,109,8060028,,,,,,,2024-01-23,1,,,,,オオサキショウテン,0
1067,4340001026238,新規,0,2024-01-23,2024-01-23,株式会社ＮａｎＳａｔｓｕ,,株式会社,鹿児島県,南さつま市,加世田川畑３３２９番地３,,46,220,8970003,,,,,,,2024-01-23,1,,,,,ナンサツ,0
1086,4400005008382,新規,0,2024-01-23,2024-01-23,特定非営利活動法人ＲＩＮＤＯ　Ｂｌｕｅ　Ｊａｐａｎ,,その他の設立登記法人,岩手県,盛岡市,津志田町３丁目５－１５,,03,201,0200837,,,,,,,2024-01-23,1,,,,,リンドウブルージャパン,0
1087,4420001018557,新規,0,2024-01-23,2024-01-23,ボクステ株式会社,,株式会社,青森県,東津軽郡外ヶ浜町,字三厩東町１００－１,00133444,02,307,0301737,,,,,,,2024-01-23,1,,,,,ボクステ,0
1088,4420001018565,新規,0,2024-01-23,2024-01-23,株式会社神成農業,,株式会社,青森県,北津軽郡鶴田町,大字大性字一本柳４番地１,,02,384,0383525,,,,,,,2024-01-23,1,,,,,カンナリノウギョウ,0
1091,4430001090893,新規,0,2024-01-23,2024-01-23,株式会社グランデュールグループ,,株式会社,北海道,札幌市中央区,北十条西２４丁目３番１号,,01,101,0600010,,,,,,,2024-01-23,1,,,,,グランデュールグループ,0
1095,4450001014207,新規,0,2024-01-23,2024-01-23,株式会社上野工建,,株式会社,北海道,上川郡東川町,キトウシ西１丁目３番９号,,01,458,0711419,,,,,,,2024-01-23,1,,,,,ウエノコウケン,0
1099,4490001010680,新規,0,2024-01-23,2024-01-23,株式会社ｅｘｉｔ‐ｎｅｏ,,株式会社,高知県,高知市,鷹匠町１丁目３番２２号,,39,201,7800862,,,,,,,2024-01-23,1,,,,,イグジットネオ,0
1103,4700150123534,新規,0,2024-01-23,2024-01-23,ｐｕｊｉａｎｇｘｉａｎｋｕｉｓａｎｇｔｅｍａｏｙｉｙｏｕｘｉａｎｇｏｎｇｓｉ,,外国会社等,,,,,,,,ｐｕｎａｎｊｉｅｄａｏｗｅｎｘｉｗｕｑｕ１３ｄｏｎｇ１００２　ｐｕｊｉａｎｇｘｉａｎ　ｊｉｎｈｕａｓｈｉ　ｚｈｅｊｉａｎｇｓｈｅｎｇ　３２２２００　ＣＮ,,,,,,2024-01-23,1,,,,,プージャンシェンクイサントァマオイーヨウシェンゴンスー,0
1108,5010001241587,新規,0,2024-01-23,2024-01-23,株式会社コスモラボ,,株式会社,東京都,千代田区,一番町３番３号,,13,101,1020082,,,,,,,2024-01-23,1,,,,,コスモラボ,0
1109,5010001241637,新規,0,2024-01-23,2024-01-23,サノ運機株式会社,,株式会社,東京都,千代田区,内神田３丁目８番１号,,13,101,1010047,,,,,,,2024-01-23,1,,,,,サノウンキ,0
1111,5010003042736,新規,0,2024-01-23,2024-01-23,ＫＲ　Ｉｎｖｅｓｔｍｅｎｔ２合同会社,,合同会社,東京都,千代田区,丸の内３丁目１番１号東京共同会計事務所内,,13,101,1000005,,,,,,,2024-01-23,1,,,,,ケーアールインベストメントツー,0
1113,5010005037767,新規,0,2024-01-23,2024-01-23,特定非営利活動法人おすしでえがお,,その他の設立登記法人,東京都,中央区,銀座７丁目２番８号東建ビル地下１階,,13,102,1040061,,,,,,,2024-01-23,1,,,,,オスシデエガオ,0
1118,5010401179824,新規,0,2024-01-23,2024-01-23,ＡｎｃｈｏｒＵｐ株式会社,,株式会社,東京都,港区,南青山３丁目１番３６号青山丸竹ビル６Ｆ,,13,103,1070062,,,,,,,2024-01-23,1,,,,,アンカーアップ,0
1119,5010401179832,新規,0,2024-01-23,2024-01-23,株式会社福井ホールディングス,,株式会社,東京都,港区,麻布台３丁目１番５号麻布台日ノ樹ビル８０１,,13,103,1060041,,,,,,,2024-01-23,1,,,,,フクイホールディングス,0
1120,5010401179849,新規,0,2024-01-23,2024-01-23,株式会社ＦＩＮ　ＣＯＲＰＯＲＡＴＩＯＮ,,株式会社,東京都,港区,北青山１丁目３番１号アールキューブ青山３階,,13,103,1070061,,,,,,,2024-01-23,1,,,,,フィンコーポレーション,0
1121,5010401179873,新規,0,2024-01-23,2024-01-23,株式会社Ｎプロ,,株式会社,東京都,港区,芝大門１丁目３番１０号コスモタワービル２Ｆ,,13,103,1050012,,,,,,,2024-01-23,1,,,,,,0
1122,5010401179898,新規,0,2024-01-23,2024-01-23,日の出１６号株式会社,,株式会社,東京都,港区,海岸１丁目７番１号,,13,103,1050022,,,,,,,2024-01-23,1,,,,,ヒノデジュウロクゴウ,0
1123,5010403031776,新規,0,2024-01-23,2024-01-23,合同会社ＷＴＦＢ,,合同会社,東京都,港区,虎ノ門５丁目１３番１号虎ノ門４０ＭＴビル７階７７５号,,13,103,1050001,,,,,,,2024-01-23,1,,,,,ダブリューティーエフビー,0
1124,5010405022864,新規,0,2024-01-23,2024-01-23,一般社団法人フェミケアジャパン協会,,その他の設立登記法人,東京都,港区,虎ノ門１丁目２３番２号,,13,103,1050001,,,,,,,2024-01-23,1,,,,,フェミケアジャパンキョウカイ,0
1128,5010701045420,新規,0,2024-01-23,2024-01-23,ＥＶＮ株式会社,,株式会社,東京都,品川区,東品川２丁目２番４号天王洲ファーストタワー５階,,13,109,1400002,,,,,,,2024-01-23,1,,,,,イーブイエヌ,0
1129,5010701045437,新規,0,2024-01-23,2024-01-23,株式会社Ｋ,,株式会社,東京都,品川区,西大井１丁目８番１５号,,13,109,1400015,,,,,,,2024-01-23,1,,,,,ケー,0
1130,5010703007030,新規,0,2024-01-23,2024-01-23,合同会社ウィスダム,,合同会社,東京都,品川区,北品川５丁目７番９号ディアハイム北品川６０８,,13,109,1410001,,,,,,,2024-01-23,1,,,,,ウィスダム,0
1131,5010901054576,新規,0,2024-01-23,2024-01-23,ＡＧＩＴＯ株式会社,,株式会社,東京都,世田谷区,中町４丁目２６番１１号,,13,112,1580091,,,,,,,2024-01-23,1,,,,,アギト,0
1132,5010903008745,新規,0,2024-01-23,2024-01-23,ポエティーク合同会社,,合同会社,東京都,世田谷区,鎌田２丁目２０－７,,13,112,1570077,,,,,,,2024-01-23,1,,,,,ポエティーク,0
1134,5011001159530,新規,0,2024-01-23,2024-01-23,株式会社ＨＭＳ　Ｐｒｏｐｅｒｔｙ　Ｃｏ．,,株式会社,東京都,渋谷区,本町２丁目４番４号,,13,113,1510071,,,,,,,2024-01-23,1,,,,,エイチエムエスプロパティシーオー,0
1135,5011001159539,新規,0,2024-01-23,2024-01-23,株式会社ＬＡＮＤ,,株式会社,東京都,渋谷区,神宮前１丁目１６番１１号五三九ビル２階３階,,13,113,1500001,,,,,,,2024-01-23,1,,,,,ランド,0
1137,5011101105913,新規,0,2024-01-23,2024-01-23,株式会社Ｙグループ,,株式会社,東京都,新宿区,新宿７丁目９番２９号,,13,104,1600022,,,,,,,2024-01-23,1,,,,,ワイグループ,0
1141,5011103013965,新規,0,2024-01-23,2024-01-23,シェアハウス合同会社,,合同会社,東京都,新宿区,北新宿３丁目７－２,,13,104,1690074,,,,,,,2024-01-23,1,,,,,シェアハウス,0
1142,5011103013998,新規,0,2024-01-23,2024-01-23,合同会社ｆｉｎｅｓ,,合同会社,東京都,新宿区,西新宿８丁目１４番１－８０４号,,13,104,1600023,,,,,,,2024-01-23,1,,,,,フィーネス,0
1143,5011403004227,新規,0,2024-01-23,2024-01-23,合同会社ステップ,,合同会社,東京都,板橋区,志村３丁目７番４号メゾンベール城山３０５,,13,119,1740056,,,,,,,2024-01-23,1,,,,,ステップ,0
1144,5011403004235,新規,0,2024-01-23,2024-01-23,合同会社クラップ,,合同会社,東京都,板橋区,志村３丁目７番４号メゾンベール城山３０５号室,,13,119,1740056,,,,,,,2024-01-23,1,,,,,クラップ,0
1146,5011601027467,新規,0,2024-01-23,2024-01-23,株式会社Ａ‐ＬＩＮＥ,,株式会社,東京都,練馬区,大泉町２丁目２２番１４号,,13,120,1780062,,,,,,,2024-01-23,1,,,,,エーライン,0
1147,5011601027475,新規,0,2024-01-23,2024-01-23,株式会社Ｔｈｒｉｖｅ　ｏｎ,,株式会社,東京都,練馬区,谷原５丁目２９番７号,,13,120,1770032,,,,,,,2024-01-23,1,,,,,スライブオン,0
1148,5011601027483,新規,0,2024-01-23,2024-01-23,株式会社ＦＦＥ,,株式会社,東京都,練馬区,谷原４丁目１０－５Ｋ．レジデンスＹＡＨＡＲＡ３０７,,13,120,1770032,,,,,,,2024-01-23,1,,,,,エフエフイー,0
1149,5011701026939,新規,0,2024-01-23,2024-01-23,マナオラナエンタープライズ株式会社,,株式会社,東京都,江戸川区,松本１丁目３３番１８号,,13,123,1330043,,,,,,,2024-01-23,1,,,,,マナオラナエンタープライズ,0
1150,5011701026947,新規,0,2024-01-23,2024-01-23,ＭＩＮＡＴＯ電設株式会社,,株式会社,東京都,江戸川区,北小岩４丁目３０番６号,,13,123,1330051,,,,,,,2024-01-23,1,,,,,ミナトデンセツ,0
1181,5020001155423,新規,0,2024-01-23,2024-01-23,ユニークソフトジャパン株式会社,,株式会社,神奈川県,横浜市港北区,新横浜３丁目７番地１８－５２９号室,,14,109,2220033,,,,,,,2024-01-23,1,,,,,ユニークソフトジャパン,0
1182,5020001155448,新規,0,2024-01-23,2024-01-23,株式会社さくらコンサル,,株式会社,神奈川県,横浜市戸塚区,戸塚町１８０番地２ザ・戸塚マークレジデンス５１０号,,14,110,2440003,,,,,,,2024-01-23,1,,,,,サクラコンサル,0
1202,5040001131802,新規,0,2024-01-23,2024-01-23,株式会社誠,,株式会社,千葉県,千葉市若葉区,旦谷町３３６番地３,,12,104,2650071,,,,,,,2024-01-23,1,,,,,,0
1203,5040001131835,新規,0,2024-01-23,2024-01-23,株式会社クラフトサポート,,株式会社,千葉県,船橋市,夏見６丁目２番１５号,,12,204,2730865,,,,,,,2024-01-23,1,,,,,クラフトサポート,0
1204,5040001131868,新規,0,2024-01-23,2024-01-23,株式会社ＥＮＧＥ,,株式会社,千葉県,市川市,須和田２丁目１８番３号,,12,203,2720825,,,,,,,2024-01-23,1,,,,,エンゲ,0
1206,5040003024129,新規,0,2024-01-23,2024-01-23,Ｈａｋｕｎａ　Ｍａｔａｔａ合同会社,,合同会社,千葉県,千葉市緑区,おゆみ野１丁目２９－３,,12,105,2660031,,,,,,,2024-01-23,1,,,,,ハクナマタタ,0
1209,5050001054135,新規,0,2024-01-23,2024-01-23,株式会社江沼設備,,株式会社,茨城県,鉾田市,上冨田６９３番地１８,,08,234,3111532,,,,,,,2024-01-23,1,,,,,エヌマセツビ,0
1210,5050003008080,新規,0,2024-01-23,2024-01-23,マンチェスターユナイテッドＦＢ合同会社,,合同会社,茨城県,水戸市,大工町２丁目２－１１,,08,201,3100031,,,,,,,2024-01-23,1,,,,,マンチェスターユナイテッドフードアンドビバレッジ,0
1220,5080001026098,新規,0,2024-01-23,2024-01-23,株式会社増山達也,,株式会社,静岡県,静岡市葵区,音羽町２２番９号,,22,101,4200834,,,,,,,2024-01-23,1,,,,,マスヤマタツヤ,0
1224,5090003002476,新規,0,2024-01-23,2024-01-23,合同会社バディー,,合同会社,山梨県,甲府市,大里町２３３１番地３大里貸店舗ＩＩＩＡ号,00133456,19,201,4000053,,,,,,,2024-01-23,1,,,,,バディー,0
1242,5120001261500,新規,0,2024-01-23,2024-01-23,輝煌株式会社,,株式会社,大阪府,大阪市東住吉区,鷹合４丁目２１番１６号３Ｆ－Ｃ,,27,121,5460014,,,,,,,2024-01-23,1,,,,,キコウ,0
1243,5120001261558,新規,0,2024-01-23,2024-01-23,日中建株式会社,,株式会社,大阪府,大阪市浪速区,塩草３丁目１１番１２号４０２室,,27,111,5560024,,,,,,,2024-01-23,1,,,,,ニッチュウケン,0
1244,5120001261574,新規,0,2024-01-23,2024-01-23,株式会社ロンロゼ,,株式会社,大阪府,大阪市生野区,田島４丁目９番２２号,,27,116,5440011,,,,,,,2024-01-23,1,,,,,ロンロゼ,0
1245,5120001261590,新規,0,2024-01-23,2024-01-23,熊島株式会社,,株式会社,大阪府,大阪市淀川区,十三元今里２丁目１２番２５号１０２室,,27,123,5320028,,,,,,,2024-01-23,1,,,,,クマシマ,0
1246,5120001261608,新規,0,2024-01-23,2024-01-23,株式会社ますもと設計,,株式会社,大阪府,大阪市阿倍野区,桃ケ池町２丁目６番５号,,27,119,5450012,,,,,,,2024-01-23,1,,,,,マスモトセッケイ,0
1252,5120003025770,新規,0,2024-01-23,2024-01-23,合同会社オフィスハヤシ,,合同会社,大阪府,大阪市北区,梅田１丁目２番２号大阪駅前第２ビル１２‐１２,,27,127,5300001,,,,,,,2024-01-23,1,,,,,オフィスハヤシ,0
1256,5120905006554,新規,0,2024-01-23,2024-01-23,医療法人みそら,,その他の設立登記法人,大阪府,豊中市,西緑丘１丁目５番１２号隆豊ハイツ１０６,,27,203,5600005,,,,,,,2024-01-23,1,,,,,ミソラ,0
1259,5130001076170,新規,0,2024-01-23,2024-01-23,株式会社ＯＧＡ,,株式会社,京都府,京都市東山区,妙法院前側町４３１番地シックスセンシズ京都Ｂ２,,26,105,6050932,,,,,,,2024-01-23,1,,,,,オージーエイ,0
1260,5130001076195,新規,0,2024-01-23,2024-01-23,ウエカ株式会社,,株式会社,京都府,京都市南区,西九条川原城町２４番地,,26,107,6018424,,,,,,,2024-01-23,1,,,,,ウエカ,0
1271,5140001133061,新規,0,2024-01-23,2024-01-23,グランフロント株式会社,,株式会社,兵庫県,姫路市,西庄甲１６７番地１,,28,201,6700981,,,,,,,2024-01-23,1,,,,,グランフロント,0
1272,5140001133078,新規,0,2024-01-23,2024-01-23,Ｓｔａｒｔｉｎｇ　ｐｏｉｎｔ株式会社,,株式会社,兵庫県,尼崎市,下坂部３丁目１１番１－５０３号,,28,202,6610975,,,,,,,2024-01-23,1,,,,,スターティングポイント,0
1280,5160001025653,新規,0,2024-01-23,2024-01-23,株式会社トーヨー,,株式会社,滋賀県,大津市,馬場３丁目１番２０号,,25,201,5200802,,,,,,,2024-01-23,1,,,,,トーヨー,0
1292,5180303005962,新規,0,2024-01-23,2024-01-23,合同会社ＶｉｔｒｅａＡｒｔ,,合同会社,愛知県,西尾市,家武町上入水１１０番地１,,23,213,4450031,,,,,,,2024-01-23,1,,,,,ヴィトレアート,0
1302,5200001042108,新規,0,2024-01-23,2024-01-23,株式会社ＧＲＡＣＩＯＵＳ,,株式会社,岐阜県,岐阜市,西川手９丁目１８０番地,,21,201,5008258,,,,,,,2024-01-23,1,,,,,グレイシャス,0
1324,5290001104452,新規,0,2024-01-23,2024-01-23,株式会社Ｐｕｔｈ,,株式会社,福岡県,久留米市,諏訪野町２５４４番地１,,40,203,8300037,,,,,,,2024-01-23,1,,,,,プース,0
1325,5290001104460,新規,0,2024-01-23,2024-01-23,株式会社プランサービス,,株式会社,福岡県,春日市,春日原北町３丁目５８番地１春日原テルミナ４１０号,,40,218,8160802,,,,,,,2024-01-23,1,,,,,プランサービス,0
1327,5290003014880,新規,0,2024-01-23,2024-01-23,合同会社フィールドビレッジ,,合同会社,福岡県,大野城市,川久保１丁目１９－３１,,40,219,8160905,,,,,,,2024-01-23,1,,,,,フィールドビレッジ,0
1332,5320001020241,新規,0,2024-01-23,2024-01-23,ＳＤ株式会社,,株式会社,大分県,豊後高田市,呉崎字宝山３１５８番地７,,44,209,8790608,,,,,,,2024-01-23,1,,,,,,0
1334,5340001026237,新規,0,2024-01-23,2024-01-23,株式会社ＡＫＩＲＯ,,株式会社,鹿児島県,鹿児島市,上福元町７１２２番地３４,,46,201,8910116,,,,,,,2024-01-23,1,,,,,アキロ,0
1336,5350001018753,新規,0,2024-01-23,2024-01-23,株式会社Ｋ＆Ｋホールディングス,,株式会社,宮崎県,延岡市,長浜町１丁目１７９６番地,,45,203,8820854,,,,,,,2024-01-23,1,,,,,ケイアンドケイホールディングス,0
1341,5360003013636,新規,0,2024-01-23,2024-01-23,合同会社Ｌｉｆｅ　ｔｉｍｅ,,合同会社,沖縄県,宜野湾市,我如古４丁目６―１６,,47,205,9012214,,,,,,,2024-01-23,1,,,,,ライフタイム,0
1363,5430001090851,新規,0,2024-01-23,2024-01-23,株式会社クリエイトトランス,,株式会社,北海道,苫小牧市,美原町１丁目１５番１８号,,01,213,0591262,,,,,,,2024-01-23,1,,,,,クリエイトトランス,0
1371,5700150123533,新規,0,2024-01-23,2024-01-23,ｇｕａｎｇｚｈｏｕｓｈｉｑｕａｎｙａｎｍａｏｙｉｙｏｕｘｉａｎｇｏｎｇｓｉ,,外国会社等,,,,,,,,ｎａｎｃｕｎｚｈｅｎ　ｎａｎｙａｎｇｌｕ　２９ｈａｏ　２２５　ｐａｎｙｕｑｕ　ｇｕａｎｇｚｈｏｕｓｈｉ　５１１４００　ＣＮ,,,,,,2024-01-23,1,,,,,グァンジョウシチュェンイェンマオイーヨウシェンゴンスー,0
1379,6010001241611,新規,0,2024-01-23,2024-01-23,株式会社ＮＹ４,,株式会社,東京都,中央区,銀座１丁目１５番４号銀座１丁目ビル７階,,13,102,1040061,,,,,,,2024-01-23,1,,,,,エヌワイフォー,0
1380,6010001241719,新規,0,2024-01-23,2024-01-23,株式会社Ｙｕｒａｇｉ,,株式会社,東京都,中央区,銀座１丁目１２－４Ｎ＆ＥＢＬＤ．７階,,13,102,1040061,,,,,,,2024-01-23,1,,,,,ユラギ,0
1381,6010003042685,新規,0,2024-01-23,2024-01-23,Ｅａｓｔ　Ｒｉｓｉｎｇ　Ｉｎｖｅｓｔｍｅｎｔ　Ｍａｎａｇｅｍｅｎｔ合同会社,,合同会社,東京都,千代田区,飯田橋２丁目１６－４九段下コート２Ｆ－２１０号室,,13,101,1020072,,,,,,,2024-01-23,1,,,,,イーストライジングインベストメントマネジメント,0
1382,6010003042727,新規,0,2024-01-23,2024-01-23,サステナブルローンファンド２２号合同会社,,合同会社,東京都,中央区,八丁堀４丁目２番１０号ＡＯＪ税理士法人内,,13,102,1040032,,,,,,,2024-01-23,1,,,,,サステナブルローンファンドニジュウニゴウ,0
1383,6010003042735,新規,0,2024-01-23,2024-01-23,合同会社船橋大神宮下駅前開発プロジェクト,,合同会社,東京都,千代田区,平河町１丁目６番１５号シルスフィア会計事務所内,,13,101,1020093,,,,,,,2024-01-23,1,,,,,フナバシダイジングウシタエキマエカイハツプロジェクト,0
1384,6010005037782,新規,0,2024-01-23,2024-01-23,Ｔａｉｌｏｒ特定目的会社,,その他の設立登記法人,東京都,千代田区,丸の内３丁目１番１号東京共同会計事務所内,,13,101,1000005,,,,,,,2024-01-23,1,,,,,テイラー,0
1385,6010101015972,新規,0,2024-01-23,2024-01-23,株式会社ミネルス,,株式会社,東京都,八王子市,狭間町１７８２番地１シャルムベルシー３１５号,,13,201,1930941,,,,,,,2024-01-23,1,,,,,ミネルス,0
1394,6010401179823,新規,0,2024-01-23,2024-01-23,スペースシードホールディングス株式会社,,株式会社,東京都,港区,浜松町２丁目２番１５号浜松町ダイヤビル２Ｆ,,13,103,1050013,,,,,,,2024-01-23,1,,,,,スペースシードホールディングス,0
1395,6010401179880,新規,0,2024-01-23,2024-01-23,ＡＸＬ株式会社,,株式会社,東京都,港区,南青山３丁目３番３号ＷＯＲＫＩＮＧＰＡＲＫＥＮ,,13,103,1070062,,,,,,,2024-01-23,1,,,,,アクセル,0
1396,6010401179897,新規,0,2024-01-23,2024-01-23,日の出１５号株式会社,,株式会社,東京都,港区,海岸１丁目７番１号,,13,103,1050022,,,,,,,2024-01-23,1,,,,,ヒノデジュウゴゴウ,0
1409,6010601064511,新規,0,2024-01-23,2024-01-23,ＫａｌＶｉｓｔａ　Ｐｈａｒｍａｃｅｕｔｉｃａｌｓ　Ｊａｐａｎ株式会社,,株式会社,東京都,江東区,豊洲６丁目２番３１－１９１７号,,13,108,1350061,,,,,,,2024-01-23,1,,,,,カルビスタファーマシューティカルズジャパン,0
1410,6010605004281,新規,0,2024-01-23,2024-01-23,一般社団法人悠和会,,その他の設立登記法人,東京都,墨田区,八広６丁目２９番１４号,,13,107,1310041,,,,,,,2024-01-23,1,,,,,ユウワカイ,0
1413,6010801034719,新規,0,2024-01-23,2024-01-23,株式会社ＭＡＳＡ,,株式会社,東京都,大田区,田園調布３丁目１番１０号,,13,111,1450071,,,,,,,2024-01-23,1,,,,,マサ,0
1418,6010901054559,新規,0,2024-01-23,2024-01-23,たゆあけ株式会社,,株式会社,東京都,世田谷区,等々力５丁目４番２号等々力ホームズ７０２,,13,112,1580082,,,,,,,2024-01-23,1,,,,,タユアケ,0
1419,6010901054567,新規,0,2024-01-23,2024-01-23,２３１１Ｃｒｅａｔｉｖｅ　Ｆｉｒｍ株式会社,,株式会社,東京都,世田谷区,用賀２丁目２１番１－３１２号,,13,112,1580097,,,,,,,2024-01-23,1,,,,,ニーサンイチイチクリエイティブファーム,0
1421,6010903008752,新規,0,2024-01-23,2024-01-23,合同会社ｐｅｒｉｏｄ．,,合同会社,東京都,世田谷区,代田５丁目１０番６号イーストコート代田１階,,13,112,1550033,,,,,,,2024-01-23,1,,,,,ピリオド,0
1427,6011001159422,新規,0,2024-01-23,2024-01-23,株式会社ＳＡｉＬＥＳ,,株式会社,東京都,渋谷区,神宮前６丁目２３番４号,,13,113,1500001,,,,,,,2024-01-23,1,,,,,セイルズ,0
1433,6011103013997,新規,0,2024-01-23,2024-01-23,合同会社ＳＯＰＣ,,合同会社,東京都,新宿区,新宿７丁目２６－１１,,13,104,1600022,,,,,,,2024-01-23,1,,,,,エスオーピーシー,0
1434,6011303005035,新規,0,2024-01-23,2024-01-23,合同会社ＨＡＴ,,合同会社,東京都,杉並区,永福３丁目１１番８号,,13,115,1680064,,,,,,,2024-01-23,1,,,,,ハット,0
1437,6011403004234,新規,0,2024-01-23,2024-01-23,クオーレ合同会社,,合同会社,東京都,板橋区,志村３丁目７番４号メゾンベール城山３０５,,13,119,1740056,,,,,,,2024-01-23,1,,,,,クオーレ,0
1438,6011501030181,新規,0,2024-01-23,2024-01-23,卓京株式会社,,株式会社,東京都,北区,豊島２７－１常葉ビル３０４号室,,13,117,1140000,,,,,,,2024-01-23,1,,,,,タクキョウ,0
1439,6011601027482,新規,0,2024-01-23,2024-01-23,ん株式会社,,株式会社,東京都,練馬区,上石神井２丁目２３番１７号,,13,120,1770044,,,,,,,2024-01-23,1,,,,,ン,0
1448,6012303001932,新規,0,2024-01-23,2024-01-23,傑ラボラトリ合同会社,,合同会社,東京都,町田市,原町田６丁目９番８号ＡＥＴＡ町田４階,,13,209,1940013,,,,,,,2024-01-23,1,,,,,スグルラボラトリ,0
1449,6012403006377,新規,0,2024-01-23,2024-01-23,合同会社クーネル,,合同会社,東京都,狛江市,中和泉２丁目１２番１１号,,13,219,2010012,,,,,,,2024-01-23,1,,,,,クーネル,0
1450,6012701018041,新規,0,2024-01-23,2024-01-23,良い韻株式会社,,株式会社,東京都,東久留米市,浅間町３丁目２番９号パレスひばりヶ丘２０１,,13,222,2030012,,,,,,,2024-01-23,1,,,,,ヨイイン,0
1451,6012803003288,新規,0,2024-01-23,2024-01-23,合同会社ＦＵＫＵ‐ＤＡＩ,,合同会社,東京都,東大和市,中央１丁目５５２番地の１０カインドネス東大和１０１号,,13,220,2070015,,,,,,,2024-01-23,1,,,,,フクダイ,0
1452,6013103001296,新規,0,2024-01-23,2024-01-23,ＳＴＲＥＡＭ合同会社,,合同会社,東京都,青梅市,河辺町８丁目１８－２０２号室,,13,205,1980036,,,,,,,2024-01-23,1,,,,,,0
1454,6013303006970,新規,0,2024-01-23,2024-01-23,合同会社ファンタジー・ドリーム,,合同会社,東京都,豊島区,東池袋１丁目１７番１１号パークハイツ池袋１１０５,,13,116,1700013,,,,,,,2024-01-23,1,,,,,ファンタジードリーム,0
1458,6020001155380,新規,0,2024-01-23,2024-01-23,株式会社ｂｉｒｄｉｅ,,株式会社,神奈川県,横浜市西区,高島２丁目７番２－２３０５号,,14,103,2200011,,,,,,,2024-01-23,1,,,,,バーディー,0
1459,6020001155422,新規,0,2024-01-23,2024-01-23,株式会社ｓｋ．ｊａｐａｎ,,株式会社,神奈川県,横浜市青葉区,美しが丘１丁目１３番地１０吉村ビル１０７号室,,14,117,2250002,,,,,,,2024-01-23,1,,,,,エスケージャパン,0
1460,6020001155439,新規,0,2024-01-23,2024-01-23,常武相株式会社,,株式会社,神奈川県,横浜市港北区,篠原台町２番２４号,,14,109,2220024,,,,,,,2024-01-23,1,,,,,ジョウブソウ,0
1461,6020001155463,新規,0,2024-01-23,2024-01-23,トナリゾート株式会社,,株式会社,神奈川県,川崎市川崎区,東田町１－２いちご川崎ビル２階,,14,131,2100005,,,,,,,2024-01-23,1,,,,,トナリゾート,0
1469,6020003025391,新規,0,2024-01-23,2024-01-23,合同会社Ｎａｏ,,合同会社,神奈川県,川崎市幸区,柳町２４―１ファインズクロス川崎５０２号室,,14,132,2120015,,,,,,,2024-01-23,1,,,,,ナオ,0
1470,6020003025409,新規,0,2024-01-23,2024-01-23,合同会社ＫＯＤＯ,,合同会社,神奈川県,横浜市金沢区,富岡東４丁目８番４３－４号,,14,108,2360051,,,,,,,2024-01-23,1,,,,,コードー,0
1471,6020003025433,新規,0,2024-01-23,2024-01-23,合同会社ヘキサゴンブリッジ,,合同会社,神奈川県,横浜市神奈川区,六角橋１丁目２５番１０号,,14,102,2210802,,,,,,,2024-01-23,1,,,,,ヘキサゴンブリッジ,0
1475,6021003014046,新規,0,2024-01-23,2024-01-23,ＡＲＭＷｏｒｋｓ合同会社,,合同会社,神奈川県,三浦郡葉山町,堀内３００番地の２,,14,301,2400112,,,,,,,2024-01-23,1,,,,,アームワークス,0
1482,6030001158184,新規,0,2024-01-23,2024-01-23,ｔｏｍｅｉ株式会社,,株式会社,埼玉県,越谷市,大字船渡６２７番地５,,11,222,3430003,,,,,,,2024-01-23,1,,,,,トーメイ,0
1483,6030001158234,新規,0,2024-01-23,2024-01-23,株式会社ＴＫプランニング,,株式会社,埼玉県,日高市,大字下大谷沢４１４番地２３,,11,242,3501221,,,,,,,2024-01-23,1,,,,,ティーケープランニング,0
1484,6030001158300,新規,0,2024-01-23,2024-01-23,株式会社ココロエンタープライズ,,株式会社,埼玉県,川越市,脇田本町１４番地３６もりくまビル４階,,11,201,3501123,,,,,,,2024-01-23,1,,,,,ココロエンタープライズ,0
1485,6030001158309,新規,0,2024-01-23,2024-01-23,株式会社下村工務店,,株式会社,埼玉県,川口市,朝日１丁目６番６号４０３号,,11,203,3320001,,,,,,,2024-01-23,1,,,,,シモムラコウムテン,0
1491,6030003023469,新規,0,2024-01-23,2024-01-23,ａｎｄ‐ｓｅｒｅｎｏ合同会社,,合同会社,埼玉県,さいたま市北区,奈良町４０－２３ｌｉｌｉｅｏｈｍｉｙａ２０１,,11,102,3310822,,,,,,,2024-01-23,1,,,,,アンドセレーノ,0
1494,6040001131875,新規,0,2024-01-23,2024-01-23,コムハウス株式会社,,株式会社,千葉県,鎌ケ谷市,初富８０１番地１２３－１Ｆ,,12,224,2730121,,,,,,,2024-01-23,1,,,,,コムハウス,0
1498,6040005022253,新規,0,2024-01-23,2024-01-23,医療法人社団同怡会,,その他の設立登記法人,千葉県,船橋市,西船４丁目２２番１号西船ＨＡＬビル４階４０１号室・５階５０１号室,,12,204,2730031,,,,,,,2024-01-23,1,,,,,ドウイカイ,0
1501,6060001036759,新規,0,2024-01-23,2024-01-23,株式会社ＴＳＵＮＡＧＵ,,株式会社,栃木県,宇都宮市,今宮３丁目１５番１１号,,09,201,3210166,,,,,,,2024-01-23,1,,,,,ツナグ,0
1506,6080401026969,新規,0,2024-01-23,2024-01-23,いなさトレンド株式会社,,株式会社,静岡県,浜松市浜名区,引佐町伊平４１８番地の１,,22,139,4312205,,,,,,,2024-01-23,1,,,,,イナサトレンド,0
1509,6090003002475,新規,0,2024-01-23,2024-01-23,合同会社ヒノデデリバリーサービス,,合同会社,山梨県,甲府市,国母６丁目５番１号,,19,201,4000043,,,,,,,2024-01-23,1,,,,,,0
1519,6120001261697,新規,0,2024-01-23,2024-01-23,株式会社ｆａｎｆａｒｅ,,株式会社,大阪府,大阪市福島区,福島７丁目１－１０,,27,103,5530003,,,,,,,2024-01-23,1,,,,,ファンファーレ,0
1522,6120005024101,新規,0,2024-01-23,2024-01-23,医療法人大和達磨会,,その他の設立登記法人,大阪府,大阪市平野区,背戸口３丁目９番６号フェリーチェヴィータ１Ｆ,,27,126,5470034,,,,,,,2024-01-23,1,,,,,ヤマトダルマカイ,0
1528,6122003002781,新規,0,2024-01-23,2024-01-23,合同会社グレイス,,合同会社,大阪府,八尾市,南本町１丁目２番１５号,,27,212,5810081,,,,,,,2024-01-23,1,,,,,グレイス,0
1543,6150001027030,新規,0,2024-01-23,2024-01-23,株式会社山喜,,株式会社,奈良県,生駒郡三郷町,立野南２丁目２４番１８号,,29,343,6360822,,,,,,,2024-01-23,1,,,,,ヤマキ,0
1545,6170003001972,新規,0,2024-01-23,2024-01-23,Ｄｏｌｐｈｉｎ　Ｐａｐａ合同会社,,合同会社,和歌山県,和歌山市,西浜１０３６番地１,,30,201,6410036,,,,,,,2024-01-23,1,,,,,ドルフィンパパ,0
1553,6180001159837,新規,0,2024-01-23,2024-01-23,東名技研ホールディングス株式会社,,株式会社,愛知県,小牧市,大字上末字神田１０６０番地２,,23,219,4850822,,,,,,,2024-01-23,1,,,,,トウメイギケンホールディングス,0
1555,6180003026259,新規,0,2024-01-23,2024-01-23,合同会社ＷｅｂＰｒｏ,,合同会社,愛知県,名古屋市西区,城西１丁目１０番１８号,,23,104,4510031,,,,,,,2024-01-23,1,,,,,ウェブプロ,0
1565,6200001042107,新規,0,2024-01-23,2024-01-23,樹伐採株式会社,,株式会社,岐阜県,関市,四季ノ台４番１号,,21,205,5013935,,,,,,,2024-01-23,1,,,,,イツキバッサイ,0
1583,6260001038685,新規,0,2024-01-23,2024-01-23,井笠コネクト株式会社,,株式会社,岡山県,笠岡市,城見台２４番地１,,33,205,7140065,,,,,,,2024-01-23,1,,,,,イカサコネクト,0
1590,6290005019266,新規,0,2024-01-23,2024-01-23,ジェイプラス協同組合,,その他の設立登記法人,福岡県,小郡市,松崎１９３番地,,40,216,8380122,,,,,,,2024-01-23,1,,,,,ジェイプラス,0
1591,6290005019274,新規,0,2024-01-23,2024-01-23,医療法人牛島医院,,その他の設立登記法人,福岡県,筑後市,大字一条１２４２番地,,40,211,8330001,,,,,,,2024-01-23,1,,,,,ウシジマイイン,0
1595,6290803004601,新規,0,2024-01-23,2024-01-23,ＩＰ　Ｔｒａｎｚｅｃ合同会社,,合同会社,福岡県,中間市,扇ヶ浦３丁目２０番２８号,,40,215,8090023,,,,,,,2024-01-23,1,,,,,アイピートランゼック,0
1596,6300005007178,新規,0,2024-01-23,2024-01-23,一般社団法人ＩｎｎｏＤｒｏｐｓ,,その他の設立登記法人,佐賀県,唐津市,京町１７８３ＫＡＲＡＥ２Ｆ,,41,202,8470045,,,,,,,2024-01-23,1,,,,,イノドロップス,0
1603,6340001026236,新規,0,2024-01-23,2024-01-23,株式会社坂口商店,,株式会社,鹿児島県,鹿児島市,和田３丁目３１番２８号,,46,201,8910143,,,,,,,2024-01-23,1,,,,,サカグチショウテン,0
1607,6360001033107,新規,0,2024-01-23,2024-01-23,株式会社イエリテ,,株式会社,沖縄県,南城市,玉城字船越１３２７番地６,,47,215,9010618,,,,,,,2024-01-23,1,,,,,イエリテ,0
1608,6360003013635,新規,0,2024-01-23,2024-01-23,合同会社海斗,,合同会社,沖縄県,浦添市,宮城１丁目１９番１号ライオンズマンションみやぎ,,47,208,9012126,,,,,,,2024-01-23,1,,,,,カイト,0
1611,6370001050860,新規,0,2024-01-23,2024-01-23,株式会社鈴商,,株式会社,宮城県,仙台市青葉区,北山２丁目５番５－１号,,04,101,9810931,,,,,,,2024-01-23,1,,,,,スズショウ,0
1634,6430001090900,新規,0,2024-01-23,2024-01-23,株式会社伊藤農園,,株式会社,北海道,美唄市,字美唄３３７８番地,,01,215,0720000,,,,,,,2024-01-23,1,,,,,イトウノウエン,0
1638,6430003015871,新規,0,2024-01-23,2024-01-23,合同会社Ｇｏｏｄ　Ｍｅｔｈｏｄ,,合同会社,北海道,札幌市中央区,南十七条西１０丁目１２２９番地２９,,01,101,0640917,,,,,,,2024-01-23,1,,,,,グッドメソッド,0
1640,6490003001858,新規,0,2024-01-23,2024-01-23,合同会社ヤマヤ,,合同会社,高知県,高知市,瀬戸西町３丁目７９番地,,39,201,7810251,,,,,,,2024-01-23,1,,,,,ヤマヤ,0
1642,6700150123532,新規,0,2024-01-23,2024-01-23,Ｓｈｅｎ　Ｚｈｅｎ　Ｓｈｉ　Ｆａｎｇ　Ｔａｎ　Ｍａｏ　Ｙｉ　Ｙｏｕ　Ｘｉａｎ　Ｇｏｎｇ　Ｓｉ,,外国会社等,,,,,,,,Ｒｏｏｍ　１３１３，３ｒｄ　ｆｌｏｏｒ，ｂｕｉｌｄｉｎｇ　１，Ｄｏｎｇｆａｎｇｘｉｎｇ　ｂｕｉｌｄｉｎｇ，Ｎｏ．１２３　Ｍｅｉｈｕａ　ｒｏａｄ，Ｍｅｉｌｉｎ，Ｆｕｔｉａｎ　ｄｉｓｔｒｉｃｔ　Ｓｈｅｎｚｈｅｎ　Ｇｕａｎｇｄｏｎｇ　５１８０４９　ＣＮ,,,,,,2024-01-23,1,,,,,シェンジェンシファンタンマオイーヨウシェンゴンスー,0
1647,7010001241643,新規,0,2024-01-23,2024-01-23,株式会社アクトブレイク,,株式会社,東京都,中央区,京橋３丁目９番１０－１３０１号,,13,102,1040031,,,,,,,2024-01-23,1,,,,,アクトブレイク,0
1654,7010003042701,新規,0,2024-01-23,2024-01-23,合同会社是永,,合同会社,東京都,千代田区,六番町１０番地１,,13,101,1020085,,,,,,,2024-01-23,1,,,,,コレナガ,0
1655,7010003042726,新規,0,2024-01-23,2024-01-23,サステナブルローンファンド２１号合同会社,,合同会社,東京都,中央区,八丁堀４丁目２番１０号ＡＯＪ税理士法人内,,13,102,1040032,,,,,,,2024-01-23,1,,,,,サステナブルローンファンドニジュウイチゴウ,0
1656,7010005037781,新規,0,2024-01-23,2024-01-23,Ｔａｉｌｏｒ１一般社団法人,,その他の設立登記法人,東京都,千代田区,丸の内３丁目１番１号東京共同会計事務所内,,13,101,1000005,,,,,,,2024-01-23,1,,,,,テイラーワン,0
1662,7010401179871,新規,0,2024-01-23,2024-01-23,株式会社慶和商事,,株式会社,東京都,港区,南麻布５丁目４番１号,,13,103,1060047,,,,,,,2024-01-23,1,,,,,ケイワショウジ,0
1663,7010401179896,新規,0,2024-01-23,2024-01-23,日の出１４号株式会社,,株式会社,東京都,港区,海岸１丁目７番１号,,13,103,1050022,,,,,,,2024-01-23,1,,,,,ヒノデジュウヨンゴウ,0
1664,7010403031766,新規,0,2024-01-23,2024-01-23,ＰｏｌｙＣｈａｒｇｅ　Ａｓｉａ合同会社,,合同会社,東京都,港区,虎ノ門１丁目１７番１号,,13,103,1050001,,,,,,,2024-01-23,1,,,,,ポリチャージアジア,0
1665,7010403031799,新規,0,2024-01-23,2024-01-23,合同会社ＱｕｏｎＣａｒｇｏ,,合同会社,東京都,港区,南青山３丁目１番３６号青山丸竹ビル６Ｆ,,13,103,1070062,,,,,,,2024-01-23,1,,,,,クオンカーゴ,0
1666,7010405022895,新規,0,2024-01-23,2024-01-23,一般社団法人クリーンエナジー,,その他の設立登記法人,東京都,港区,元赤坂１丁目１番８号株式会社赤坂国際会計内,,13,103,1070051,,,,,,,2024-01-23,1,,,,,クリーンエナジー,0
1670,7010501051674,新規,0,2024-01-23,2024-01-23,株式会社ファーストラビット,,株式会社,東京都,台東区,三ノ輪２丁目２番１号,,13,106,1100011,,,,,,,2024-01-23,1,,,,,ファーストラビット,0
1672,7010601064510,新規,0,2024-01-23,2024-01-23,株式会社ＳＩＧ　Ｅｎｔｅｒｔａｉｎｍｅｎｔ,,株式会社,東京都,江東区,有明１丁目３番１４－１６０７号,,13,108,1350063,,,,,,,2024-01-23,1,,,,,エスアイジーエンタテインメント,0
1673,7010601064527,新規,0,2024-01-23,2024-01-23,株式会社ＫＵプランニング,,株式会社,東京都,江東区,亀戸２丁目１－２１－６１５,,13,108,1360071,,,,,,,2024-01-23,1,,,,,ケーユープランニング,0
1675,7010603010603,新規,0,2024-01-23,2024-01-23,Ｋ＆Ｇ合同会社,,合同会社,東京都,墨田区,両国２丁目２０‐１２ライオンズステーションプラザ両国９０５,,13,107,1300026,,,,,,,2024-01-23,1,,,,,ケーアンドジー,0
1676,7010701045427,新規,0,2024-01-23,2024-01-23,株式会社東駿プランニング,,株式会社,東京都,品川区,大崎３丁目１７－１６ハイライフ大崎４０６室,,13,109,1410032,,,,,,,2024-01-23,1,,,,,トウシュンプランニング,0
1677,7010701045443,新規,0,2024-01-23,2024-01-23,株式会社ＲＯＳＳＯ,,株式会社,東京都,品川区,西中延２丁目４番８号アンソレイユ千代美台１０１,,13,109,1420054,,,,,,,2024-01-23,1,,,,,ロッソ,0
1684,7011001159553,新規,0,2024-01-23,2024-01-23,株式会社Ｎｅｎｕｒｉ,,株式会社,東京都,渋谷区,渋谷２丁目１９番１５号宮益坂ビルディング６０９,,13,113,1500002,,,,,,,2024-01-23,1,,,,,ネヌリ,0
1685,7011001159561,新規,0,2024-01-23,2024-01-23,株式会社ａｆｏｒｔｅ,,株式会社,東京都,目黒区,中目黒１丁目４番１７－８０１号,,13,110,1530061,,,,,,,2024-01-23,1,,,,,アフォルテ,0
1695,7011201025200,新規,0,2024-01-23,2024-01-23,株式会社わいわい本舗,,株式会社,東京都,中野区,中野４丁目３－１－１９０３,,13,114,1640001,,,,,,,2024-01-23,1,,,,,ワイワイホンポ,0
1699,7011401025784,新規,0,2024-01-23,2024-01-23,株式会社スリーピングナイト,,株式会社,東京都,板橋区,清水町４３番１１号ヴィラ清水町１０１,,13,119,1740053,,,,,,,2024-01-23,1,,,,,スリーピングナイト,0
1700,7011403004233,新規,0,2024-01-23,2024-01-23,合同会社ファニー,,合同会社,東京都,板橋区,志村３丁目７番４号メゾンベール城山３０５号室,,13,119,1740056,,,,,,,2024-01-23,1,,,,,ファニー,0
1701,7011501030214,新規,0,2024-01-23,2024-01-23,株式会社Ｓ・Ｋ,,株式会社,東京都,北区,東十条１丁目２１番５号,,13,117,1140001,,,,,,,2024-01-23,1,,,,,エスケー,0
1705,7011603004215,新規,0,2024-01-23,2024-01-23,合同会社Ｍ．Ｎ,,合同会社,東京都,練馬区,栄町３番８号新日本パレス江古田３階,,13,120,1760006,,,,,,,2024-01-23,1,,,,,エムエヌ,0
1713,7012303001931,新規,0,2024-01-23,2024-01-23,合同会社ＬＩＦＩＸ,,合同会社,東京都,町田市,金森２丁目１７－２４ロイヤルヒルズ町田２０３号室,,13,209,1940012,,,,,,,2024-01-23,1,,,,,リフィックス,0
1726,7020001155396,新規,0,2024-01-23,2024-01-23,株式会社Ｔ．Ｓ,,株式会社,神奈川県,横浜市磯子区,杉田５丁目２番６４号,,14,107,2350033,,,,,,,2024-01-23,1,,,,,ティーエス,0
1727,7020001155421,新規,0,2024-01-23,2024-01-23,ＧＥＮＺＥＲＳ　ＬＩＦＥ株式会社,,株式会社,神奈川県,川崎市川崎区,小田３丁目１６番１２－１号,,14,131,2100846,,,,,,,2024-01-23,1,,,,,ジェンザーズライフ,0
1728,7020001155438,新規,0,2024-01-23,2024-01-23,Ｏｖｅｒｓｅａｓ　Ｌｉｎｋｓ株式会社,,株式会社,神奈川県,横浜市西区,中央２丁目３６番１２－２０２号,,14,103,2200051,,,,,,,2024-01-23,1,,,,,オーバーシーズリンクス,0
1729,7020003025399,新規,0,2024-01-23,2024-01-23,合同会社刷新カナト,,合同会社,神奈川県,横浜市保土ケ谷区,新井町４６６－１７,,14,106,2400053,,,,,,,2024-01-23,1,,,,,サッシンカナト,0
1730,7020003025408,新規,0,2024-01-23,2024-01-23,合同会社ちゃれんじキッズ,,合同会社,神奈川県,川崎市麻生区,下麻生１丁目７番２７－５０３号,,14,137,2150022,,,,,,,2024-01-23,1,,,,,チャレンジキッズ,0
1731,7020003025424,新規,0,2024-01-23,2024-01-23,合同会社デコイ,,合同会社,神奈川県,川崎市麻生区,東百合丘１丁目４―３６,,14,137,2150012,,,,,,,2024-01-23,1,,,,,デコイ,0
1735,7021005013004,新規,0,2024-01-23,2024-01-23,ＮＰＯ法人ゆがわらへそ天猫倶楽部,,その他の設立登記法人,神奈川県,足柄下郡湯河原町,中央１丁目１６１７番地２２湯河原シーサイドマンション１０６,,14,384,2590301,,,,,,,2024-01-23,1,,,,,ユガワラヘソテンネコクラブ,0
1741,7030003023468,新規,0,2024-01-23,2024-01-23,合同会社レプレア,,合同会社,埼玉県,さいたま市緑区,美園３丁目１０－２９,,11,109,3360967,,,,,,,2024-01-23,1,,,,,レプレア,0
1742,7030003023501,新規,0,2024-01-23,2024-01-23,合同会社モリタ事務所,,合同会社,埼玉県,上尾市,大字今泉５８４番地２,,11,219,3620047,,,,,,,2024-01-23,1,,,,,モリタジムショ,0
1749,7040001131800,新規,0,2024-01-23,2024-01-23,株式会社永澤アグリ,,株式会社,千葉県,君津市,大井戸１３３５,,12,225,2921146,,,,,,,2024-01-23,1,,,,,エイザワアグリ,0
1750,7040001131858,新規,0,2024-01-23,2024-01-23,株式会社Ｋｉｙｏｔａ　Ｃｏｒｐｏｒａｔｉｏｎ,,株式会社,千葉県,市川市,鬼越２丁目３番３号,,12,203,2720022,,,,,,,2024-01-23,1,,,,,キヨタコーポレーション,0
1755,7040003024119,新規,0,2024-01-23,2024-01-23,合同会社Ｔ＆Ｄ　Ｐｌｕｓ,,合同会社,千葉県,千葉市美浜区,高洲３丁目５番１棟１３０３号,,12,106,2610004,,,,,,,2024-01-23,1,,,,,ティアンドディプラス,0
1756,7040003024135,新規,0,2024-01-23,2024-01-23,合同会社イーサビジョン,,合同会社,千葉県,市川市,菅野４丁目１２番１１号,,12,203,2720824,,,,,,,2024-01-23,1,,,,,イーサビジョン,0
1757,7040003024143,新規,0,2024-01-23,2024-01-23,合同会社ＡＭＯＲＥ,,合同会社,千葉県,千葉市稲毛区,稲毛東３丁目１７番５－３０６号,,12,103,2630031,,,,,,,2024-01-23,1,,,,,アモーレ,0
1768,7070005010221,新規,0,2024-01-23,2024-01-23,一般社団法人インフィニティー,,その他の設立登記法人,群馬県,利根郡みなかみ町,月夜野３２６５番地５インペリアル月夜野２０３,,10,449,3791313,,,,,,,2024-01-23,1,,,,,インフィニティー,0
1772,7080401026968,新規,0,2024-01-23,2024-01-23,株式会社すがり,,株式会社,静岡県,浜松市天竜区,横川３２４２番地の１,,22,140,4313301,,,,,,,2024-01-23,1,,,,,スガリ,0
1775,7100001037149,新規,0,2024-01-23,2024-01-23,Ｂｌｕｅ　Ｆｏｘ株式会社,,株式会社,長野県,北佐久郡軽井沢町,大字長倉３７９７番地,,20,321,3890111,,,,,,,2024-01-23,1,,,,,ブルーフォックス,0
1791,7120001261465,新規,0,2024-01-23,2024-01-23,株式会社ＢＩＧＤＯＯＲ,,株式会社,大阪府,大阪市住之江区,北加賀屋２丁目１０番２１号,,27,125,5590011,,,,,,,2024-01-23,1,,,,,ビッグドア,0
1792,7120001261548,新規,0,2024-01-23,2024-01-23,株式会社Ｏｎｅ　ａｒｒｏｗ,,株式会社,大阪府,大阪市阿倍野区,西田辺町２丁目１０番２１号,,27,119,5450014,,,,,,,2024-01-23,1,,,,,ワンアロー,0
1793,7120003025653,新規,0,2024-01-23,2024-01-23,花果山合同会社,,合同会社,大阪府,大阪市西成区,玉出東１丁目７－２３－１０３室,,27,122,5570043,,,,,,,2024-01-23,1,,,,,ハナカヤマ,0
1797,7120101068942,新規,0,2024-01-23,2024-01-23,株式会社アールワイエム,,株式会社,大阪府,堺市西区,鳳南町５丁４８６番地１８,,27,144,5938325,,,,,,,2024-01-23,1,,,,,アールワイエム,0
1801,7120903005003,新規,0,2024-01-23,2024-01-23,合同会社Ａ＆Ｓ　ＣＯＭＰＡＮＹ,,合同会社,大阪府,吹田市,江坂町３丁目１１番４２－９号,,27,205,5640063,,,,,,,2024-01-23,1,,,,,エーアンドエスカンパニー,0
1802,7122001037754,新規,0,2024-01-23,2024-01-23,株式会社サフラン,,株式会社,大阪府,東大阪市,昭和町１番３号,,27,227,5798046,,,,,,,2024-01-23,1,,,,,サフラン,0
1808,7140001133068,新規,0,2024-01-23,2024-01-23,株式会社関西マシンサービス,,株式会社,兵庫県,豊岡市,日高町国分寺１０９番地の１,,28,209,6695341,,,,,,,2024-01-23,1,,,,,カンサイマシンサービス,0
1809,7140001133092,新規,0,2024-01-23,2024-01-23,シェアリターン株式会社,,株式会社,兵庫県,洲本市,安乎町平安浦９１番地４,,28,205,6562121,,,,,,,2024-01-23,1,,,,,シェアリターン,0
1811,7140005026920,新規,0,2024-01-23,2024-01-23,一般社団法人ヤマウミマチ,,その他の設立登記法人,兵庫県,神戸市灘区,水道筋６丁目１番３号,,28,102,6570831,,,,,,,2024-01-23,1,,,,,ヤマウミマチ,0
1820,7180001159869,新規,0,2024-01-23,2024-01-23,株式会社住まいるママ,,株式会社,愛知県,名古屋市緑区,黒沢台２丁目１７１６番地の１,,23,114,4580003,,,,,,,2024-01-23,1,,,,,スマイルママ,0
1834,7190001031052,新規,0,2024-01-23,2024-01-23,株式会社ＡＫＩＲＡ工業,,株式会社,三重県,多気郡多気町,荒蒔２０７番地１,,24,441,5192158,,,,,,,2024-01-23,1,,,,,アキラコウギョウ,0
1842,7230001020190,新規,0,2024-01-23,2024-01-23,株式会社ＮＫ商事,,株式会社,富山県,富山市,総曲輪１丁目４番１８号,,16,201,9300083,,,,,,,2024-01-23,1,,,,,エヌケイショウジ,0
1857,7290001104450,新規,0,2024-01-23,2024-01-23,株式会社ロクピース,,株式会社,福岡県,飯塚市,花瀬３０番地１６,,40,205,8200045,,,,,,,2024-01-23,1,,,,,ロクピース,0
1867,7340001026235,新規,0,2024-01-23,2024-01-23,米山畜産株式会社,,株式会社,鹿児島県,鹿児島市,石谷町８２番地１,,46,201,8992701,,,,,,,2024-01-23,1,,,,,ヨネヤマチクサン,0
1868,7340003004354,新規,0,2024-01-23,2024-01-23,合同会社Ｈａｍａｓｈｉｎ,,合同会社,鹿児島県,曽於市,末吉町二之方２１２２番地,,46,217,8998605,,,,,,,2024-01-23,1,,,,,ハマシン,0
1872,7360003013634,新規,0,2024-01-23,2024-01-23,大工沖縄工房舎合同会社,,合同会社,沖縄県,名護市,城１丁目１２番１６号山里貸事務所１階,,47,209,9050013,,,,,,,2024-01-23,1,,,,,ダイクオキナワコウボウシャ,0
1888,7400001016519,新規,0,2024-01-23,2024-01-23,株式会社ＡＮＳ,,株式会社,岩手県,北上市,若宮町２丁目１０番１８号エスポワール５０１,,03,206,0240064,,,,,,,2024-01-23,1,,,,,エーエヌエス,0
1895,7430001090899,新規,0,2024-01-23,2024-01-23,株式会社エンデバー,,株式会社,北海道,札幌市中央区,南十四条西６丁目５番１６号行啓グランドハイツ２階,,01,101,0640914,,,,,,,2024-01-23,1,,,,,エンデバー,0
1896,7430001090908,新規,0,2024-01-23,2024-01-23,株式会社Ｔｅｒｒｏｉｒ,,株式会社,北海道,札幌市中央区,南十三条西１３丁目２番１４号,,01,101,0640913,,,,,,,2024-01-23,1,,,,,テロワール,0
1898,7430003015862,新規,0,2024-01-23,2024-01-23,合同会社ホッチキスエステート,,合同会社,北海道,札幌市中央区,宮ケ丘２丁目１－３０－２０１,,01,101,0640959,,,,,,,2024-01-23,1,,,,,ホッチキスエステート,0
1899,7460101007486,新規,0,2024-01-23,2024-01-23,株式会社とかちサンシャイン農園,,株式会社,北海道,中川郡幕別町,本町８９番地,,01,643,0890603,,,,,,,2024-01-23,1,,,,,トカチサンシャインノウエン,0
1901,7470001019993,新規,0,2024-01-23,2024-01-23,株式会社評価審査廠,,株式会社,香川県,高松市,サンポート２番１号,,37,201,7600019,,,,,,,2024-01-23,1,,,,,ヒョウカシンサショウ,0
1904,7480001012361,新規,0,2024-01-23,2024-01-23,株式会社ラッキーパートナー,,株式会社,徳島県,徳島市,秋田町２丁目３５番地の２イーストビル３０１号室,,36,201,7700934,,,,,,,2024-01-23,1,,,,,ラッキーパートナー,0
1907,7490001010678,新規,0,2024-01-23,2024-01-23,株式会社コンフィ,,株式会社,高知県,南国市,明見５４４番地４,,39,204,7830007,,,,,,,2024-01-23,1,,,,,コンフィ,0
1908,7490003001857,新規,0,2024-01-23,2024-01-23,合同会社音芹商店,,合同会社,高知県,長岡郡本山町,本山１０７５番地銀杏ノ木団地９－１号,,39,341,7813601,,,,,,,2024-01-23,1,,,,,オトセリショウテン,0
1924,8010001240999,新規,0,2024-01-23,2024-01-23,ＳＥＫＡＩＥ株式会社,,株式会社,東京都,中央区,八丁堀２丁目１０番７号日本瓦斯八丁堀ビル,,13,102,1040032,,,,,,,2024-01-23,1,,,,,セカイエ,0
1925,8010001241717,新規,0,2024-01-23,2024-01-23,データホスピタル株式会社,,株式会社,東京都,中央区,日本橋小舟町８－６,,13,102,1030024,,,,,,,2024-01-23,1,,,,,データホスピタル,0
1926,8010001241741,新規,0,2024-01-23,2024-01-23,株式会社ＫＨ,,株式会社,東京都,中央区,勝どき６丁目３番２－１２２７号,,13,102,1040054,,,,,,,2024-01-23,1,,,,,ケーエイチ,0
1928,8010003042717,新規,0,2024-01-23,2024-01-23,ＳｔａｒＦｏｒｇｅ　Ｇａｍｅ合同会社,,合同会社,東京都,千代田区,神田佐久間町１丁目１６大橋ビル５０３,,13,101,1010025,,,,,,,2024-01-23,1,,,,,スターフォージゲーム,0
1936,8010401179895,新規,0,2024-01-23,2024-01-23,日の出１３号株式会社,,株式会社,東京都,港区,海岸１丁目７番１号,,13,103,1050022,,,,,,,2024-01-23,1,,,,,ヒノデジュウサンゴウ,0
1938,8010501051665,新規,0,2024-01-23,2024-01-23,株式会社ＴＳ,,株式会社,東京都,台東区,日本堤２丁目３番２－１２０４号ジェノヴィア三ノ輪ＩＩスカイガーデン,00133443,13,106,1110021,,,,,,,2024-01-23,1,,,,,ティーズ,0
1939,8010501051673,新規,0,2024-01-23,2024-01-23,＿成株式会社,00133457,株式会社,東京都,台東区,下谷２丁目３－１６－１０３,,13,106,1100004,,,,,,,2024-01-23,1,,,,,イクセイ,0
1941,8010503007319,新規,0,2024-01-23,2024-01-23,ＭＲ　Ｅｓｔａｔｅ合同会社,,合同会社,東京都,台東区,根岸２丁目２－８Ｕｅｎｏ正和ビル１００号室,,13,106,1100003,,,,,,,2024-01-23,1,,,,,エムアールエステート,0
1944,8010601064518,新規,0,2024-01-23,2024-01-23,株式会社ＳＯＵＱ,,株式会社,東京都,江東区,富岡２丁目１１番１８号リードシー門前仲町４Ｆ－７,,13,108,1350047,,,,,,,2024-01-23,1,,,,,スーク,0
1946,8010703007028,新規,0,2024-01-23,2024-01-23,合同会社Ｋデンタルコンサルティング,,合同会社,東京都,品川区,西品川２丁目１４番６号ＳＯＲＡＢＬＤＧ６０２,,13,109,1410033,,,,,,,2024-01-23,1,,,,,ケイデンタルコンサルティング,0
1947,8010801034717,新規,0,2024-01-23,2024-01-23,阿久津工業株式会社,,株式会社,東京都,大田区,南馬込４丁目１８番９号,,13,111,1430025,,,,,,,2024-01-23,1,,,,,アクツコウギョウ,0
1960,8011001159552,新規,0,2024-01-23,2024-01-23,株式会社Ｓｈｅｌｔｅｒ,,株式会社,東京都,目黒区,駒場３丁目１番７号昴ＩＩ－２０５,00133448,13,110,1530041,,,,,,,2024-01-23,1,,,,,シェルター,0
1962,8011003018310,新規,0,2024-01-23,2024-01-23,ユニバーサル・パーク合同会社,,合同会社,東京都,渋谷区,神宮前６丁目２３番４号桑野ビル２階,,13,113,1500001,,,,,,,2024-01-23,1,,,,,ユニバーサルパーク,0
1964,8011101105919,新規,0,2024-01-23,2024-01-23,Ｒ．Ｃ．Ｉｍａｇｉｎａｂｌｅｓ株式会社,,株式会社,東京都,新宿区,西新宿７丁目７－２６ワコーレ新宿第一ビル２Ｆ,,13,104,1600023,,,,,,,2024-01-23,1,,,,,アールシーイマジナブルズ,0
1965,8011103013995,新規,0,2024-01-23,2024-01-23,合同会社ｐｕｒｉｍａｒｏ,,合同会社,東京都,新宿区,新宿４丁目３番１５号,,13,104,1600022,,,,,,,2024-01-23,1,,,,,プリマロ,0
1969,8011401025767,新規,0,2024-01-23,2024-01-23,大興商事株式会社,,株式会社,東京都,板橋区,大山金井町４８番６号,,13,119,1730024,,,,,,,2024-01-23,1,,,,,,0
1970,8011401025800,新規,0,2024-01-23,2024-01-23,株式会社ペリパトス,,株式会社,東京都,板橋区,志村１丁目１８番１２号,,13,119,1740056,,,,,,,2024-01-23,1,,,,,,0
1971,8011403004232,新規,0,2024-01-23,2024-01-23,アローラ合同会社,,合同会社,東京都,板橋区,志村３丁目７番４号メゾンベール城山３０５号室,,13,119,1740056,,,,,,,2024-01-23,1,,,,,アローラ,0
1975,8011701026944,新規,0,2024-01-23,2024-01-23,銀河自動車株式会社,,株式会社,東京都,江戸川区,北小岩６丁目１７番６号,,13,123,1330051,,,,,,,2024-01-23,1,,,,,ギンガジドウシャ,0
1998,8020001155387,新規,0,2024-01-23,2024-01-23,株式会社ＶＥＲＴＩＣＡ,,株式会社,神奈川県,川崎市多摩区,生田８丁目６番７号,,14,135,2140038,,,,,,,2024-01-23,1,,,,,ヴァーティカ,0
1999,8020001155404,新規,0,2024-01-23,2024-01-23,株式会社ＫＩＢＡＲＩの家,,株式会社,神奈川県,横浜市青葉区,美しが丘１丁目１２番地３第７松美ビル,,14,117,2250002,,,,,,,2024-01-23,1,,,,,キバリノイエ,0
2000,8020001155429,新規,0,2024-01-23,2024-01-23,株式会社ＧＲＯＷＩＮＧ　ＳＴＡＲ,,株式会社,神奈川県,川崎市宮前区,神木本町２丁目７番８号,,14,136,2160031,,,,,,,2024-01-23,1,,,,,グローイングスター,0
2001,8020001155437,新規,0,2024-01-23,2024-01-23,株式会社ＫＢ’Ｓ,,株式会社,神奈川県,横浜市瀬谷区,三ツ境二丁目２４番,,14,114,2460022,,,,,,,2024-01-23,1,,,,,ケービーエス,0
2002,8020001155453,新規,0,2024-01-23,2024-01-23,株式会社清天興業,,株式会社,神奈川県,横浜市港北区,高田西５丁目２番２３号,,14,109,2230066,,,,,,,2024-01-23,1,,,,,,0
2004,8020003025381,新規,0,2024-01-23,2024-01-23,ネント合同会社,,合同会社,神奈川県,横浜市旭区,南本宿町１７番地５,,14,112,2410833,,,,,,,2024-01-23,1,,,,,ネント,0
2005,8020003025407,新規,0,2024-01-23,2024-01-23,合同会社３２２,,合同会社,神奈川県,川崎市多摩区,長尾５丁目１７番１９－２０１号,,14,135,2140023,,,,,,,2024-01-23,1,,,,,サンニーニ,0
2006,8020003025423,新規,0,2024-01-23,2024-01-23,合同会社ＢＩＧ　ＥＹＥ,,合同会社,神奈川県,横浜市旭区,金が谷２丁目３２番２４号,,14,112,2410812,,,,,,,2024-01-23,1,,,,,ビッグアイ,0
2007,8020005016263,新規,0,2024-01-23,2024-01-23,弁護士法人川崎あすか法律事務所,,その他の設立登記法人,神奈川県,川崎市川崎区,駅前本町１５番地５十五番館１０階,,14,131,2100007,,,,,,,2024-01-23,1,,,,,カワサキアスカホウリツジムショ,0
2021,8030001158265,新規,0,2024-01-23,2024-01-23,株式会社フロンティア・アーツ,,株式会社,埼玉県,志木市,本町２丁目１６番５－２号,,11,228,3530004,,,,,,,2024-01-23,1,,,,,フロンティアアーツ,0
2022,8030001158298,新規,0,2024-01-23,2024-01-23,株式会社フレアズ,,株式会社,埼玉県,久喜市,鷲宮中央１丁目２２番６号,,11,232,3400216,,,,,,,2024-01-23,1,,,,,フレアズ,0
2023,8030001158307,新規,0,2024-01-23,2024-01-23,株式会社オンリーワン,,株式会社,埼玉県,久喜市,久喜東３丁目３２番２７号,,11,232,3460016,,,,,,,2024-01-23,1,,,,,オンリーワン,0
2031,8040001131832,新規,0,2024-01-23,2024-01-23,株式会社万楽,,株式会社,千葉県,松戸市,高塚新田１６０番地の１９０,00133440,12,207,2702222,,,,,,,2024-01-23,1,,,,,ワンロク,0
2032,8040001131865,新規,0,2024-01-23,2024-01-23,株式会社ＦＵＫＡＮＯ建装,,株式会社,千葉県,印旛郡酒々井町,飯積８０４番地（エクセルみらいＡ－２０２）,,12,322,2850912,,,,,,,2024-01-23,1,,,,,フカノケンソウ,0
2036,8050001054124,新規,0,2024-01-23,2024-01-23,ワイズ人事・人材育成コンサルティング株式会社,,株式会社,茨城県,守谷市,中央２丁目５３番ブランチ守谷Ａ０１０,,08,224,3020115,,,,,,,2024-01-23,1,,,,,,0
2040,8060003004869,新規,0,2024-01-23,2024-01-23,合同会社えん,,合同会社,栃木県,小山市,駅東通り３丁目２１番地７,,09,208,3230022,,,,,,,2024-01-23,1,,,,,エン,0
2044,8080401026967,新規,0,2024-01-23,2024-01-23,株式会社Ｈａｒｍｏｎｙ　Ｂｏｄｙ,,株式会社,静岡県,浜松市中央区,楊子町５０８番地,,22,138,4300855,,,,,,,2024-01-23,1,,,,,ハーモニーボディー,0
2046,8090005007603,新規,0,2024-01-23,2024-01-23,一般社団法人山梨イベント活性部会,,その他の設立登記法人,山梨県,甲府市,伊勢１丁目１１番１号,,19,201,4000856,,,,,,,2024-01-23,1,,,,,ヤマナシイベントカッセイブカイ,0
2053,8100005013112,新規,0,2024-01-23,2024-01-23,一般社団法人三笠温泉,,その他の設立登記法人,長野県,北佐久郡軽井沢町,大字長倉３３４８番地,,20,321,3890111,,,,,,,2024-01-23,1,,,,,ミカサオンセン,0
2061,8120001261357,新規,0,2024-01-23,2024-01-23,リーチアンダン株式会社,,株式会社,大阪府,大阪市生野区,中川３丁目４－１７,,27,116,5440005,,,,,,,2024-01-23,1,,,,,リーチアンダン,0
2062,8120001261522,新規,0,2024-01-23,2024-01-23,Ｋ‐ＳＴＹＬＥ株式会社,,株式会社,大阪府,大阪市北区,天神橋２丁目北１－１４－３０２号,,27,127,5300041,,,,,,,2024-01-23,1,,,,,ケースタイル,0
2063,8120001261547,新規,0,2024-01-23,2024-01-23,株式会社Ａｓｃｅｎｔ　Ｊａｐａｎ　Ｒｅａｌ　Ｅｓｔａｔｅ,,株式会社,大阪府,大阪市中央区,本町橋５番１４号オージービル本町橋１００２号室,,27,128,5400029,,,,,,,2024-01-23,1,,,,,アセントジャパンリアルエステート,0
2064,8120001261571,新規,0,2024-01-23,2024-01-23,株式会社ｕｎｖｅｉｌ,,株式会社,大阪府,大阪市北区,浪花町４番２６号,,27,127,5300022,,,,,,,2024-01-23,1,,,,,アンヴェイル,0
2065,8120001261613,新規,0,2024-01-23,2024-01-23,株式会社ＮＯＮＳＴＹＬＥ,,株式会社,大阪府,大阪市平野区,長吉出戸６丁目１２番２７号,,27,126,5470011,,,,,,,2024-01-23,1,,,,,ノンスタイル,0
2072,8120101068933,新規,0,2024-01-23,2024-01-23,株式会社宇都製作所,,株式会社,大阪府,松原市,小川４丁目５番７号,,27,217,5800002,,,,,,,2024-01-23,1,,,,,ウツセイサクショ,0
2073,8120101068941,新規,0,2024-01-23,2024-01-23,いろは株式会社,,株式会社,大阪府,堺市西区,上２番地１７,,27,144,5938311,,,,,,,2024-01-23,1,,,,,イロハ,0
2082,8130001076184,新規,0,2024-01-23,2024-01-23,株式会社ソシエムＴ．Ｍ．,,株式会社,京都府,京都市左京区,松ケ崎堀町２６番地,,26,103,6060945,,,,,,,2024-01-23,1,,,,,ソシエムティーエム,0
2085,8140001133034,新規,0,2024-01-23,2024-01-23,株式会社空撮,,株式会社,兵庫県,丹波市,市島町南５９１,,28,223,6694314,,,,,,,2024-01-23,1,,,,,クウサツ,0
2086,8140001133050,新規,0,2024-01-23,2024-01-23,株式会社ロールリバーサル,,株式会社,兵庫県,伊丹市,桜ケ丘１丁目４番９号,,28,207,6640897,,,,,,,2024-01-23,1,,,,,ロールリバーサル,0
2087,8140001133083,新規,0,2024-01-23,2024-01-23,株式会社Ｉ’ｂｉｓ,,株式会社,兵庫県,神戸市中央区,二宮町１丁目４番１０－８０２号,,28,110,6510093,,,,,,,2024-01-23,1,,,,,アイビス,0
2100,8160001025650,新規,0,2024-01-23,2024-01-23,株式会社Ｆｕｌｌｅｒ,,株式会社,滋賀県,栗東市,御園１０２８番地東１－１０６,,25,208,5203005,,,,,,,2024-01-23,1,,,,,フューラー,0
2101,8170001017977,新規,0,2024-01-23,2024-01-23,ＣＬＥＡＲＨＯＵＳＥ株式会社,,株式会社,和歌山県,和歌山市,新中島１１８番地新中島エクセランス２１３号室,,30,201,6410002,,,,,,,2024-01-23,1,,,,,クリアハウス,0
2125,8210005010131,新規,0,2024-01-23,2024-01-23,一般社団法人鯖江体操スクール,,その他の設立登記法人,福井県,鯖江市,杉本町５１３鯖江市立立待体育館,,18,207,9160005,,,,,,,2024-01-23,1,,,,,サバエタイソウスクール,0
2128,8240001062685,新規,0,2024-01-23,2024-01-23,株式会社村上金属,,株式会社,広島県,尾道市,因島重井町５４３５番地１,,34,205,7222102,,,,,,,2024-01-23,1,,,,,ムラカミキンゾク,0
2140,8250003003422,新規,0,2024-01-23,2024-01-23,合同会社支援,,合同会社,山口県,防府市,八王子１丁目２２番７号,,35,206,7470037,,,,,,,2024-01-23,1,,,,,シエン,0
2148,8270001008909,新規,0,2024-01-23,2024-01-23,株式会社結善,,株式会社,鳥取県,東伯郡北栄町,大谷３２２４番地,,31,372,6892223,,,,,,,2024-01-23,1,,,,,ユイゼン,0
2153,8290001104458,新規,0,2024-01-23,2024-01-23,株式会社綾野工業,,株式会社,福岡県,那珂川市,片縄北４丁目１１番３１号,,40,231,8111203,,,,,,,2024-01-23,1,,,,,アヤノコウギョウ,0
2154,8290001104466,新規,0,2024-01-23,2024-01-23,金彩株式会社,,株式会社,福岡県,福岡市東区,松島２丁目４－７サンフラワー松島ＩＩ２０２号室,00133459,40,131,8120062,,,,,,,2024-01-23,1,,,,,キンサイ,0
2157,8290003014878,新規,0,2024-01-23,2024-01-23,合同会社ＶＳ　Ｇｌｏｂａｌ,,合同会社,福岡県,福岡市中央区,天神３丁目３番５号天神大産ビル３階３号室,,40,133,8100001,,,,,,,2024-01-23,1,,,,,ブイエスグローバル,0
2161,8330001031689,新規,0,2024-01-23,2024-01-23,７８６Ｔｒａｄｉｎｇ株式会社,,株式会社,熊本県,熊本市中央区,黒髪６丁目１３－２３－２３銀星荘１０５号,,43,101,8600862,,,,,,,2024-01-23,1,,,,,ナナハチロクトレーディング,0
2162,8330005010747,新規,0,2024-01-23,2024-01-23,一般社団法人岡本家ファミリートラスト,,その他の設立登記法人,熊本県,菊池郡大津町,大字森２６５,,43,403,8691217,,,,,,,2024-01-23,1,,,,,オカモトケファミリートラスト,0
2165,8360001033105,新規,0,2024-01-23,2024-01-23,ｃｒｅａｔｅｓ　ｃｈａｍｐｓ株式会社,,株式会社,沖縄県,島尻郡八重瀬町,字上田原１１番地１ＮＫ５貸店舗１階Ａ号室,,47,362,9010412,,,,,,,2024-01-23,1,,,,,クリエイツチャンプス,0
2198,8410001013712,新規,0,2024-01-23,2024-01-23,株式会社東北健電,,株式会社,秋田県,秋田市,仁井田本町１丁目８番１８号,,05,201,0101421,,,,,,,2024-01-23,1,,,,,トウホクケンデン,0
2201,8420001018561,新規,0,2024-01-23,2024-01-23,株式会社さわやか,,株式会社,青森県,弘前市,大字境関１丁目２番地９,,02,202,0368076,,,,,,,2024-01-23,1,,,,,サワヤカ,0
2203,8430001090907,新規,0,2024-01-23,2024-01-23,株式会社ｉｎ　Ｆｏｃｕｓ,,株式会社,北海道,札幌市東区,北十九条東５丁目２番１０号,,01,103,0650019,,,,,,,2024-01-23,1,,,,,インフォーカス,0
2204,8430001090915,新規,0,2024-01-23,2024-01-23,株式会社ＨＭクリエイト,,株式会社,北海道,石狩市,樽川九条２丁目９番地,,01,235,0613259,,,,,,,2024-01-23,1,,,,,エイチエムクリエイト,0
2207,8470003002567,新規,0,2024-01-23,2024-01-23,合同会社ＦＩＲＥＥ,,合同会社,香川県,高松市,多肥下町１５７２番地４－８０３,,37,201,7618075,,,,,,,2024-01-23,1,,,,,ファイヤー,0
2208,8480001012369,新規,0,2024-01-23,2024-01-23,メビウスフィットネス株式会社,,株式会社,徳島県,徳島市,東大工町３丁目８番地,,36,201,7700905,,,,,,,2024-01-23,1,,,,,メビウスフィットネス,0
2209,8490003001856,新規,0,2024-01-23,2024-01-23,合同会社デジポップ,,合同会社,高知県,香美市,土佐山田町西本町１丁目５番２６号,,39,212,7820032,,,,,,,2024-01-23,1,,,,,デジポップ,0
2218,9010001241625,新規,0,2024-01-23,2024-01-23,株式会社ＢＬＩＳＳ　ＨＯＬＤＩＮＧＳ,,株式会社,東京都,中央区,銀座１丁目１２－４Ｎ＆ＥＢＬＤ．７階,,13,102,1040061,,,,,,,2024-01-23,1,,,,,ブリスホールデングス,0
2219,9010001241716,新規,0,2024-01-23,2024-01-23,株式会社ヴェリアス,,株式会社,東京都,千代田区,三番町７番地１０ＮＫ麹町コータース８０３号,,13,101,1020075,,,,,,,2024-01-23,1,,,,,ヴェリアス,0
2225,9010003042559,新規,0,2024-01-23,2024-01-23,バイオマス投資ファンド合同会社,,合同会社,東京都,千代田区,麹町１丁目７番地相互半蔵門ビルディング３階ＧＩキャピタル・マネジメント株式会社内,,13,101,1020083,,,,,,,2024-01-23,1,,,,,バイオマストウシファンド,0
2226,9010101015978,新規,0,2024-01-23,2024-01-23,株式会社ｓｈｉｎｋｅｎ,,株式会社,東京都,八王子市,小宮町１１６５番地２東亜建設第３ビル５０２号,,13,201,1920031,,,,,,,2024-01-23,1,,,,,シンケン,0
2236,9010401179829,新規,0,2024-01-23,2024-01-23,株式会社ＪＩＴＨ　ＪＡＰＡＮ,,株式会社,東京都,港区,虎ノ門１丁目１６番６号虎ノ門ＲＡＰＯ－ＴＯビルＵＣＦ７階,,13,103,1050001,,,,,,,2024-01-23,1,,,,,ジスジャパン,0
2237,9010401179837,新規,0,2024-01-23,2024-01-23,株式会社ＢｅＢｒｉｇｈｔ,,株式会社,東京都,港区,六本木７丁目１２－２Ｒ７Ｂｕｉｌｄｉｎｇ,,13,103,1060032,,,,,,,2024-01-23,1,,,,,ビーブライト,0
2238,9010401179894,新規,0,2024-01-23,2024-01-23,日の出１２号株式会社,,株式会社,東京都,港区,海岸１丁目７番１号,,13,103,1050022,,,,,,,2024-01-23,1,,,,,ヒノデジュウニゴウ,0
2239,9010401179903,新規,0,2024-01-23,2024-01-23,株式会社東洋ＦＤ,,株式会社,東京都,港区,東麻布２丁目３２番１０－４０１号,,13,103,1060044,,,,,,,2024-01-23,1,,,,,トウヨウエフディ,0
2241,9010403031756,新規,0,2024-01-23,2024-01-23,合同会社ブイクラス,,合同会社,東京都,港区,東新橋２丁目１０－７中銀第二新橋マンション６０４,,13,103,1050021,,,,,,,2024-01-23,1,,,,,ブイクラス,0
2251,9010901054564,新規,0,2024-01-23,2024-01-23,株式会社Ｌｅｏｇａｔｅ,,株式会社,東京都,世田谷区,用賀１丁目１５番１２号,,13,112,1580097,,,,,,,2024-01-23,1,,,,,レオゲート,0
2252,9010901054572,新規,0,2024-01-23,2024-01-23,Ｓ．Ｔ．ＪＪＡＰＡＮ株式会社,,株式会社,東京都,世田谷区,上馬５丁目３５番７号,,13,112,1540011,,,,,,,2024-01-23,1,,,,,エスティジェイジャパン,0
2260,9011001159469,新規,0,2024-01-23,2024-01-23,株式会社ＮＫ’ｓ,,株式会社,東京都,渋谷区,渋谷２丁目１９－１５宮益坂ビルディング６０９,,13,113,1500002,,,,,,,2024-01-23,1,,,,,エヌケーズ,0
2261,9011001159527,新規,0,2024-01-23,2024-01-23,株式会社ＲＯＵＮ,,株式会社,東京都,渋谷区,恵比寿西２丁目８番４号ＥＸ恵比寿西ビル５階,,13,113,1500021,,,,,,,2024-01-23,1,,,,,ラウン,0
2264,9011003018334,新規,0,2024-01-23,2024-01-23,合同会社ｓｅｎｓｅ　ｉｎｃ．,,合同会社,東京都,渋谷区,渋谷２丁目１９番１５号宮益坂ビルディング６０９,,13,113,1500002,,,,,,,2024-01-23,1,,,,,センスインク,0
2272,9011103013945,新規,0,2024-01-23,2024-01-23,合同会社ｕｐｄａｔｅ,,合同会社,東京都,新宿区,歌舞伎町１丁目２番３号レオ新宿５０７,,13,104,1600021,,,,,,,2024-01-23,1,,,,,アップデート,0
2274,9011201025198,新規,0,2024-01-23,2024-01-23,株式会社ＳＯＵＨＬ,,株式会社,東京都,中野区,中央４丁目４４－８バークレイコート０３０２,,13,114,1640011,,,,,,,2024-01-23,1,,,,,ソウル,0
2275,9011401025799,新規,0,2024-01-23,2024-01-23,株式会社Ｌｉｎｋ,,株式会社,東京都,板橋区,双葉町８番１４号,,13,119,1730011,,,,,,,2024-01-23,1,,,,,リンク,0
2277,9011403004231,新規,0,2024-01-23,2024-01-23,フェイス合同会社,,合同会社,東京都,板橋区,志村３丁目７番４号メゾンベール城山３０５,,13,119,1740056,,,,,,,2024-01-23,1,,,,,フェイス,0
2278,9011405002274,新規,0,2024-01-23,2024-01-23,特定非営利活動法人ジャパニーズドリーム,,その他の設立登記法人,東京都,板橋区,向原２丁目３０番１０号,,13,119,1730036,,,,,,,2024-01-23,1,,,,,ジャパニーズドリーム,0
2285,9011603004213,新規,0,2024-01-23,2024-01-23,合同会社ＢＲＥＡＤ＆ＢＵＴＴＥＲ,,合同会社,東京都,練馬区,中村１丁目１番３号,,13,120,1760024,,,,,,,2024-01-23,1,,,,,ブレッドアンドバター,0
2286,9011701026943,新規,0,2024-01-23,2024-01-23,株式会社カート,,株式会社,東京都,江戸川区,南篠崎町４丁目３番９号,,13,123,1330065,,,,,,,2024-01-23,1,,,,,カート,0
2287,9011701026951,新規,0,2024-01-23,2024-01-23,ニシノ設備株式会社,,株式会社,東京都,江戸川区,北小岩６丁目３９番３号,,13,123,1330051,,,,,,,2024-01-23,1,,,,,ニシノセツビ,0
2289,9011801043649,新規,0,2024-01-23,2024-01-23,株式会社ＰＯＮＴＥ,,株式会社,東京都,足立区,千住東１丁目１６－７,,13,121,1200025,,,,,,,2024-01-23,1,,,,,ポンテ,0
2293,9013101009330,新規,0,2024-01-23,2024-01-23,株式会社Ｐｒｏｊｅｃｔ　ＢＵＺＺ,,株式会社,東京都,西多摩郡瑞穂町,大字駒形富士山１０１番地２,,13,303,1901202,,,,,,,2024-01-23,1,,,,,,0
2305,9020001155444,新規,0,2024-01-23,2024-01-23,株式会社みなさまのおかげ,,株式会社,神奈川県,横浜市泉区,岡津町２０８－５ビューヒルズ岡津Ａ１０１,,14,116,2450003,,,,,,,2024-01-23,1,,,,,ミナサマノオカゲ,0
2306,9020001155452,新規,0,2024-01-23,2024-01-23,株式会社Ｂｒｕｓｈ　ｕｐ,,株式会社,神奈川県,横浜市港北区,新吉田町５２２２番地,,14,109,2230056,,,,,,,2024-01-23,1,,,,,ブラッシュアップ,0
2318,9030003023400,新規,0,2024-01-23,2024-01-23,ＲＶＲ　Ｊａｐａｎ合同会社,,合同会社,埼玉県,熊谷市,善ヶ島１３４－１０,,11,202,3600211,,,,,,,2024-01-23,1,,,,,アールブイアールジャパン,0
2319,9030003023474,新規,0,2024-01-23,2024-01-23,合同会社ｅｃｌａｔ,,合同会社,埼玉県,八潮市,緑町１丁目１４番地２１マンションキャロット１０１,,11,234,3400808,,,,,,,2024-01-23,1,,,,,エクラ,0
2321,9030005021534,新規,0,2024-01-23,2024-01-23,一般社団法人金色の麦畑,,その他の設立登記法人,埼玉県,深谷市,瀬山６９０番地,,11,218,3691102,,,,,,,2024-01-23,1,,,,,キンイロノムギバタケ,0
2326,9040001131872,新規,0,2024-01-23,2024-01-23,マツウラ・スチールテック株式会社,,株式会社,千葉県,八千代市,大和田新田４７７番地１４６アルファグランデ八千代中央弐番街１０７,,12,221,2760046,,,,,,,2024-01-23,1,,,,,マツウラスチールテック,0
2327,9040001131897,新規,0,2024-01-23,2024-01-23,関東メタル株式会社,,株式会社,千葉県,野田市,関宿台町２８８３番地１,,12,208,2700202,,,,,,,2024-01-23,1,,,,,カントウメタル,0
2329,9040003024133,新規,0,2024-01-23,2024-01-23,合同会社介護タクシーノアーズアーク,,合同会社,千葉県,野田市,尾崎１２０３番地１,,12,208,2700235,,,,,,,2024-01-23,1,,,,,カイゴタクシーノアーズアーク,0
2330,9040003024141,新規,0,2024-01-23,2024-01-23,合同会社ａｌａ,,合同会社,千葉県,市川市,南行徳１丁目１１番２２－２０３号（矢島ビル）,,12,203,2720138,,,,,,,2024-01-23,1,,,,,アーラ,0
2331,9040003024166,新規,0,2024-01-23,2024-01-23,合同会社ワイズクリエイティブ,,合同会社,千葉県,千葉市花見川区,幕張町２丁目２７５６番地５４,,12,102,2620032,,,,,,,2024-01-23,1,,,,,ワイズクリエイティブ,0
2351,9090001018512,新規,0,2024-01-23,2024-01-23,株式会社ＰＡＫＩＲＡ,,株式会社,山梨県,笛吹市,石和町井戸４０３番地８,,19,211,4060045,,,,,,,2024-01-23,1,,,,,パキラ,0
2356,9100003007362,新規,0,2024-01-23,2024-01-23,合同会社三井,,合同会社,長野県,安曇野市,穂高柏原２８２８番地８０,,20,220,3998304,,,,,,,2024-01-23,1,,,,,ミツイ,0
2376,9120001261414,新規,0,2024-01-23,2024-01-23,株式会社ＦＬＯＲＩＯ,,株式会社,大阪府,大阪市東住吉区,湯里５丁目１２番２５号,,27,121,5460013,,,,,,,2024-01-23,1,,,,,フローリオ,0
2378,9120003025767,新規,0,2024-01-23,2024-01-23,合同会社のこのこ,,合同会社,大阪府,大阪市此花区,春日出南２丁目１０‐４０,,27,104,5540023,,,,,,,2024-01-23,1,,,,,ノコノコ,0
2381,9120101068924,新規,0,2024-01-23,2024-01-23,株式会社仲谷建設,,株式会社,大阪府,堺市南区,深阪南２１７番地１－１０４,,27,145,5900103,,,,,,,2024-01-23,1,,,,,ナカタニケンセツ,0
2384,9120903005001,新規,0,2024-01-23,2024-01-23,ＴＲＩＮＨ　ＢＡＮＨ　ＴＲＡＮＧ合同会社,,合同会社,大阪府,箕面市,粟生間谷東５丁目３２番２８号梶マンション１０３号室,,27,220,5620022,,,,,,,2024-01-23,1,,,,,チンバンチャン,0
2396,9140003020064,新規,0,2024-01-23,2024-01-23,Ｏｆｆｉｃｅゆり合同会社,,合同会社,兵庫県,三田市,あかしあ台５丁目２２－７,,28,219,6691323,,,,,,,2024-01-23,1,,,,,オフィスユリ,0
2397,9150001027028,新規,0,2024-01-23,2024-01-23,株式会社Ｂｅ　Ｆｏｒｃｅ,,株式会社,奈良県,橿原市,中曽司町１０７番地の６９,,29,205,6340845,,,,,,,2024-01-23,1,,,,,ビフォース,0
2419,9200001042104,新規,0,2024-01-23,2024-01-23,株式会社林総庭,,株式会社,岐阜県,関市,稲口６３８番地７,,21,205,5013932,,,,,,,2024-01-23,1,,,,,ハヤシソウテイ,0
2435,9250003003421,新規,0,2024-01-23,2024-01-23,合同会社ランドカーズ,,合同会社,山口県,光市,虹ケ丘７丁目２２番２号,,35,210,7430031,,,,,,,2024-01-23,1,,,,,ランドカーズ,0
2439,9260001038682,新規,0,2024-01-23,2024-01-23,ＯＮＥ　ＲＥＬＡＴＩＯＮ株式会社,,株式会社,岡山県,瀬戸内市,邑久町尾張１００５番地３,,33,212,7014221,,,,,,,2024-01-23,1,,,,,ワンリレーション,0
2451,9290803004598,新規,0,2024-01-23,2024-01-23,合同会社ＰＡＴＴＡＹＡ,,合同会社,福岡県,北九州市八幡西区,上香月１丁目１５番１５号,,40,109,8071101,,,,,,,2024-01-23,1,,,,,パタヤ,0
2456,9320001020246,新規,0,2024-01-23,2024-01-23,株式会社リイドドットライン,,株式会社,大分県,豊後高田市,中真玉１６５８番地,,44,209,8721101,,,,,,,2024-01-23,1,,,,,リイドドットライン,0
2460,9340001026233,新規,0,2024-01-23,2024-01-23,春成農園株式会社,,株式会社,鹿児島県,日置市,吹上町湯之浦１５９７番地１,,46,216,8993303,,,,,,,2024-01-23,1,,,,,ハルナリノウエン,0
2476,9390001017491,新規,0,2024-01-23,2024-01-23,イカラシ電機株式会社,,株式会社,山形県,南陽市,高梨１０４０番地２,,06,213,9992251,,,,,,,2024-01-23,1,,,,,,0
2483,9400005008386,新規,0,2024-01-23,2024-01-23,一般社団法人つなぐ・いわてまち,,その他の設立登記法人,岩手県,岩手郡岩手町,大字沼宮内第７地割１４番地１,,03,303,0284301,,,,,,,2024-01-23,1,,,,,ツナグイワテマチ,0
2484,9420001018569,新規,0,2024-01-23,2024-01-23,株式会社ＷＡＤＯＮＡ,,株式会社,青森県,南津軽郡大鰐町,大字早瀬字小金沢２０４番地１,,02,362,0380200,,,,,,,2024-01-23,1,,,,,ワドナ,0
2490,9430003015877,新規,0,2024-01-23,2024-01-23,オカサポ合同会社,,合同会社,北海道,石狩市,花川南四条２丁目２７２番地８ピュア・メゾンＩＩ２０２号,00133458,01,235,0613204,,,,,,,2024-01-23,1,,,,,オカサポ,0
2498,9500001025433,新規,0,2024-01-23,2024-01-23,株式会社ＳＡＮＰＯ,,株式会社,愛媛県,松山市,北土居４丁目２５番１６－１号,,38,201,7911104,,,,,,,2024-01-23,1,,,,,サンポ,0
2501,9700150123538,新規,0,2024-01-23,2024-01-23,青島深度包装有限公司,,外国会社等,大阪府,大阪市住吉区,山之内３丁目１６番２０号,,27,120,5580023,中華人民共和国山東省青島即墨市省級高新技術産業開発区王新路６１号,,,,,,2024-01-23,1,,,,,チンタアウシンドホウソウユウゲンコンス,0
