sequenceNumber,corporateNumber,process,correct,updateDate,changeDate,name,nameImageId,kind,prefectureName,cityName,streetNumber,addressImageId,prefectureCode,cityCode,postCode,addressOutside,addressOutsideImageId,closeDate,closeCause,successorCorporateNumber,changeCause,assignmentDate,latest,enName,enPrefectureName,enCityName,enAddressOutside,furigana,hihyoji
14,1010005041112,新規,0,2025-12-23,2025-12-23,Ｓｐｒｉｎｔ　Ａｓｓｅｔ２一般社団法人４,,その他の設立登記法人,東京都,千代田区,霞が関３丁目２番５号,,13,101,1000013,,,,,,,2025-12-23,1,,,,,スプリントアセットツーフォー,0
18,1010401195296,新規,0,2025-12-23,2025-12-23,株式会社オルディナパートナーズ,,株式会社,東京都,港区,北青山１丁目３番１号アールキューブ青山３階,,13,103,1070061,,,,,,,2025-12-23,1,,,,,オルディナパートナーズ,0
19,1010401195404,新規,0,2025-12-23,2025-12-23,ジャック・モートン・ジャパン株式会社,,株式会社,東京都,港区,南青山１丁目１番１号新青山ビル東館,,13,103,1070062,,,,,,,2025-12-23,1,,,,,ジャックモートンジャパン,0
21,1010403036845,新規,0,2025-12-23,2025-12-23,熊もつれ合同会社,,合同会社,東京都,港区,南青山３丁目１番３６号青山丸竹ビル６Ｆ,,13,103,1070062,,,,,,,2025-12-23,1,,,,,クマモツレ,0
22,1010403036853,新規,0,2025-12-23,2025-12-23,合同会社アンチロジック,,合同会社,東京都,港区,北青山１丁目３番１号アールキューブ青山３階,,13,103,1070061,,,,,,,2025-12-23,1,,,,,アンチロジック,0
35,1010601068475,新規,0,2025-12-23,2025-12-23,株式会社Ｖｉｎ　Ｃｏｎｃｉｅｒｇｅ,,株式会社,東京都,江東区,豊洲３丁目６番５号４０１５,,13,108,1350061,,,,,,,2025-12-23,1,,,,,ヴァンコンシェルジュ,0
44,1011001174517,新規,0,2025-12-23,2025-12-23,こどぷら株式会社,,株式会社,東京都,渋谷区,恵比寿４丁目２０番３号恵比寿ガーデンプレイスタワー２７階ＣＯＥＢＩ内,,13,113,1500013,,,,,,,2025-12-23,1,,,,,コドプラ,0
45,1011003023110,新規,0,2025-12-23,2025-12-23,合同会社Ｒｅｍｅｔ,,合同会社,東京都,目黒区,上目黒１丁目６番７号ＩＦＩＳ中目黒ビル３０３,,13,110,1530051,,,,,,,2025-12-23,1,,,,,レメット,0
51,1011103016798,新規,0,2025-12-23,2025-12-23,合同会社Ｎｅｘｕｓ,,合同会社,東京都,新宿区,西新宿３丁目３番１３号西新宿水間ビル６階,,13,104,1600023,,,,,,,2025-12-23,1,,,,,ネクサス,0
55,1011303005808,新規,0,2025-12-23,2025-12-23,インサイトパートナーズ合同会社,,合同会社,東京都,杉並区,今川１丁目１６番２６号,,13,115,1670035,,,,,,,2025-12-23,1,,,,,インサイトパートナーズ,0
56,1011501032950,新規,0,2025-12-23,2025-12-23,バランス株式会社,,株式会社,東京都,荒川区,東日暮里４丁目３５番７号シャンテ・グランデ日暮里Ｉ１０１号室,00141983,13,118,1160014,,,,,,,2025-12-23,1,,,,,バランス,0
59,1012401043947,新規,0,2025-12-23,2025-12-23,株式会社レフト,,株式会社,東京都,稲城市,平尾１丁目１６番地の１２サンパーク平尾１５－１０１,,13,225,2060823,,,,,,,2025-12-23,1,,,,,レフト,0
61,1012803003953,新規,0,2025-12-23,2025-12-23,合同会社ＧＯＣＨＯ,,合同会社,東京都,立川市,柴崎町６丁目１１番３号,,13,202,1900023,,,,,,,2025-12-23,1,,,,,ゴチョウ,0
86,1021003016930,新規,0,2025-12-23,2025-12-23,合同会社さくらサポート,,合同会社,神奈川県,藤沢市,川名１丁目７番２４号ショップハウス２０２,,14,205,2510015,,,,,,,2025-12-23,1,,,,,サクラサポート,0
100,1040001141821,新規,0,2025-12-23,2025-12-23,株式会社Ｐｒｉｍｅコネクト,,株式会社,千葉県,成田市,玉造７丁目７番地５,,12,211,2860011,,,,,,,2025-12-23,1,,,,,プライムコネクト,0
101,1040001141895,新規,0,2025-12-23,2025-12-23,株式会社Ｈｅａｒｔｈ,,株式会社,千葉県,習志野市,本大久保３丁目１１番１１号,,12,216,2750012,,,,,,,2025-12-23,1,,,,,ハース,0
110,1060005010401,新規,0,2025-12-23,2025-12-23,特定非営利活動法人Ｎｉｓｈｉｍｏｋａ　Ｄｒｅａｍ,,その他の設立登記法人,栃木県,真岡市,高勢町３丁目２０３番地１,,09,209,3214341,,,,,,,2025-12-23,1,,,,,ニシモオカドリーム,0
134,1120001282590,新規,0,2025-12-23,2025-12-23,ＭｅｔａＷａｖｅ　Ｊａｐａｎ株式会社,,株式会社,大阪府,大阪市中央区,内淡路町２丁目３－１ＥＨＨ大手前５０１号,,27,128,5400038,,,,,,,2025-12-23,1,,,,,メタウェーブジャパン,0
135,1120001282946,新規,0,2025-12-23,2025-12-23,株式会社久一建設,,株式会社,大阪府,枚方市,春日西町４丁目１６番９号,,27,210,5730136,,,,,,,2025-12-23,1,,,,,ヒサイチケンセツ,0
136,1120001282979,新規,0,2025-12-23,2025-12-23,アトレイル不動産管理株式会社,,株式会社,大阪府,大阪市淀川区,西中島６丁目２番３－１２１２号,,27,123,5320011,,,,,,,2025-12-23,1,,,,,アトレイルフドウサンカンリ,0
137,1120001283003,新規,0,2025-12-23,2025-12-23,株式会社Ｙｏｕ’ｓ　Ｐｌａｎｎｉｎｇ　Ｓｕｐｐｏｒｔ,,株式会社,大阪府,大阪市大正区,南恩加島３丁目１０－２２,,27,108,5510021,,,,,,,2025-12-23,1,,,,,ユーズプランニングサポート,0
139,1120003031401,新規,0,2025-12-23,2025-12-23,合同会社ソレイユ,,合同会社,大阪府,交野市,郡津２丁目２１番１９号,,27,230,5760053,,,,,,,2025-12-23,1,,,,,ソレイユ,0
140,1120003031525,新規,0,2025-12-23,2025-12-23,ＴＰＳ合同会社,,合同会社,大阪府,大阪市北区,梅田１丁目１番３号大阪駅前第３ビル２９階１－１－１号室,,27,127,5300001,,,,,,,2025-12-23,1,,,,,ティーピーエス,0
141,1120003031533,新規,0,2025-12-23,2025-12-23,ｓｏｌｅ合同会社,,合同会社,大阪府,大阪市北区,国分寺２丁目２－２０－１００３,,27,127,5310064,,,,,,,2025-12-23,1,,,,,ソーレ,0
151,1120901052003,新規,0,2025-12-23,2025-12-23,株式会社ＺＥＡＬＩＳＭ,,株式会社,大阪府,池田市,空港１丁目３番１０号,,27,204,5630034,,,,,,,2025-12-23,1,,,,,ジールイズム,0
152,1120903005999,新規,0,2025-12-23,2025-12-23,合同会社ヒラノインベストメンツ,,合同会社,大阪府,箕面市,粟生新家１丁目４番１２号,,27,220,5620024,,,,,,,2025-12-23,1,,,,,ヒラノインベストメンツ,0
163,1130003011022,新規,0,2025-12-23,2025-12-23,合同会社ＤｅｃＬｕｔｔ,,合同会社,京都府,京都市右京区,梅津フケノ川町６番地３５,,26,108,6150921,,,,,,,2025-12-23,1,,,,,デックラット,0
165,1140001141068,新規,0,2025-12-23,2025-12-23,株式会社斉輝創建,,株式会社,兵庫県,小野市,育ケ丘町１４７５番地の５６５,,28,218,6751324,,,,,,,2025-12-23,1,,,,,サイキソウケン,0
166,1140001141183,新規,0,2025-12-23,2025-12-23,株式会社ＯＬＧＡＴＩＯ,,株式会社,兵庫県,尼崎市,口田中１丁目５番３号,,28,202,6610983,,,,,,,2025-12-23,1,,,,,オルガティオ,0
167,1140003022927,新規,0,2025-12-23,2025-12-23,合同会社よし,,合同会社,兵庫県,宝塚市,湯本町１０番４５－５０１号,,28,214,6650003,,,,,,,2025-12-23,1,,,,,ヨシ,0
190,1180301040528,新規,0,2025-12-23,2025-12-23,株式会社龍泉,,株式会社,愛知県,岡崎市,板屋町６番地,,23,202,4440053,,,,,,,2025-12-23,1,,,,,リュウセン,0
191,1180302012732,新規,0,2025-12-23,2025-12-23,有限会社イシイ,,有限会社,愛知県,豊川市,末広通３丁目４３番地の１,,23,207,4420029,,,,,,,2025-12-23,1,,,,,イシイ,0
197,1190001032774,新規,0,2025-12-23,2025-12-23,株式会社みやのや,,株式会社,三重県,松阪市,中央町３８番地２０ラフィネーズ・マ・メゾン１０２号,,24,204,5150019,,,,,,,2025-12-23,1,,,,,ミヤノヤ,0
198,1190003005308,新規,0,2025-12-23,2025-12-23,合同会社泰光,,合同会社,三重県,津市,垂水２９８番地１,,24,201,5140821,,,,,,,2025-12-23,1,,,,,タイコウ,0
199,1190005012104,新規,0,2025-12-23,2025-12-23,一般社団法人つぐみ子どもの食堂,,その他の設立登記法人,三重県,三重郡川越町,大字高松４６８番地２,,24,344,5108121,,,,,,,2025-12-23,1,,,,,ツグミコドモノショクドウ,0
202,1200001044553,新規,0,2025-12-23,2025-12-23,株式会社ファースト,,株式会社,岐阜県,岐阜市,萱場東町２丁目２７番地３,,21,201,5020935,,,,,,,2025-12-23,1,,,,,ファースト,0
212,1260003005457,新規,0,2025-12-23,2025-12-23,合同会社Ｌｕｍｏ　Ｌｉｂｒｏ,,合同会社,岡山県,岡山市北区,船頭町７６番地２,,33,101,7000842,,,,,,,2025-12-23,1,,,,,ルモリブロ,0
213,1270003001827,新規,0,2025-12-23,2025-12-23,合同会社ＢＬＵＭＩＬ,,合同会社,鳥取県,米子市,河崎３４７９番地４,,31,202,6830852,,,,,,,2025-12-23,1,,,,,,0
221,1290001112608,新規,0,2025-12-23,2025-12-23,株式会社ラガーズホーム,,株式会社,福岡県,宗像市,赤間駅前１丁目３番７－１０２号,,40,220,8114185,,,,,,,2025-12-23,1,,,,,ラガーズホーム,0
234,1340003005052,新規,0,2025-12-23,2025-12-23,Ａｕｒｕｍ　ＩＰ合同会社,,合同会社,鹿児島県,鹿児島市,名山町９－１５ｍａｒｋＭＥＩＺＡＮ２０３号,,46,201,8920821,,,,,,,2025-12-23,1,,,,,オーラムアイピー,0
245,1450003002757,新規,0,2025-12-23,2025-12-23,合同会社Ｍｏｎｉｋａ,,合同会社,北海道,旭川市,新富一条２丁目１番２１号,,01,204,0700001,,,,,,,2025-12-23,1,,,,,モニカ,0
249,1700150133718,新規,0,2025-12-23,2025-12-23,エンシュウ健康保険組合,,その他,静岡県,浜松市中央区,高塚町４８８８番地,,22,138,4328065,,,,,,,2025-12-23,1,,,,,エンシュウケンコウホケンクミアイ,0
250,1700150133726,新規,0,2025-12-23,2025-12-23,沖電気工業健康保険組合,,その他,東京都,港区,芝浦４丁目１０番１６号,,13,103,1080023,,,,,,,2025-12-23,1,,,,,オキデンキコウギョウケンコウホケンクミアイ,0
258,2010001261423,新規,0,2025-12-23,2025-12-23,友勝国際株式会社,,株式会社,東京都,中央区,銀座１丁目２２番１１号銀座大竹ビジデンス２Ｆ,,13,102,1040061,,,,,,,2025-12-23,1,,,,,ユウショウコクサイ,0
259,2010003049767,新規,0,2025-12-23,2025-12-23,合同会社Ｓｐｏｔ,,合同会社,東京都,千代田区,神田和泉町１－６－１６ヤマトビル４０５,,13,101,1010024,,,,,,,2025-12-23,1,,,,,,0
260,2010003049775,新規,0,2025-12-23,2025-12-23,クローバー１６合同会社,,合同会社,東京都,中央区,日本橋１丁目４番１号日本橋一丁目ビルディング,,13,102,1030027,,,,,,,2025-12-23,1,,,,,クローバーシックスティーン,0
266,2010005041111,新規,0,2025-12-23,2025-12-23,一般社団法人Ａｘｅｌ　Ｃｏｒｐｏｒａｔｉｏｎ,,その他の設立登記法人,東京都,千代田区,平河町１丁目５番６号４階,,13,101,1020093,,,,,,,2025-12-23,1,,,,,アクセルコーポレーション,0
272,2010401195361,新規,0,2025-12-23,2025-12-23,草間写真技研株式会社,,株式会社,東京都,港区,北青山１丁目３番１号アールキューブ青山３階,,13,103,1070061,,,,,,,2025-12-23,1,,,,,クサマシャシンギケン,0
275,2010403036828,新規,0,2025-12-23,2025-12-23,アークストリーム合同会社,,合同会社,東京都,港区,北青山１丁目３－３三橋ビル３階,,13,103,1070061,,,,,,,2025-12-23,1,,,,,アークストリーム,0
281,2010603011985,新規,0,2025-12-23,2025-12-23,合同会社ロンハーモニープロパティ,,合同会社,東京都,江東区,門前仲町１丁目２番８号,,13,108,1350048,,,,,,,2025-12-23,1,,,,,ロンハーモニープロパティ,0
282,2010605004533,新規,0,2025-12-23,2025-12-23,プカリ司法書士法人,,その他の設立登記法人,東京都,墨田区,千歳１丁目６番１号田中ビル１階,,13,107,1300025,,,,,,,2025-12-23,1,,,,,プカリ,0
285,2010801036867,新規,0,2025-12-23,2025-12-23,株式会社ＣＯＭＥＴ,,株式会社,東京都,大田区,東雪谷４丁目２２－１８、２号棟,,13,111,1450065,,,,,,,2025-12-23,1,,,,,コメット,0
286,2010803005655,新規,0,2025-12-23,2025-12-23,合同会社ＫＯＳＭＯＳ,,合同会社,東京都,大田区,上池台４丁目４４番７号,,13,111,1450064,,,,,,,2025-12-23,1,,,,,コスモス,0
292,2011001174136,新規,0,2025-12-23,2025-12-23,株式会社平八郎,,株式会社,東京都,渋谷区,幡ヶ谷３丁目３７―１１,,13,113,1510072,,,,,,,2025-12-23,1,,,,,ヘイハチロウ,0
293,2011001174524,新規,0,2025-12-23,2025-12-23,株式会社ＬｔＯＶＥＳ,,株式会社,東京都,渋谷区,円山町７番４号レガリアヒルズ渋谷道玄坂４０１,,13,113,1500044,,,,,,,2025-12-23,1,,,,,エルトヴェス,0
294,2011005011302,新規,0,2025-12-23,2025-12-23,一般社団法人光福会,,その他の設立登記法人,東京都,目黒区,自由が丘２丁目１１番２１号ＮＥＷＮＯ自由が丘４階,,13,110,1520035,,,,,,,2025-12-23,1,,,,,コウフクカイ,0
320,2020001166167,新規,0,2025-12-23,2025-12-23,株式会社機匠,,株式会社,神奈川県,横浜市南区,井土ケ谷上町３５番５号,,14,105,2320051,,,,,,,2025-12-23,1,,,,,キショウ,0
321,2020001166415,新規,0,2025-12-23,2025-12-23,株式会社ＭａｄＳｐａｃｅイノベーション,,株式会社,神奈川県,川崎市宮前区,鷺沼４丁目１３－５６ー６１１,,14,136,2160004,,,,,,,2025-12-23,1,,,,,マッドスペース,0
327,2021001087048,新規,0,2025-12-23,2025-12-23,ＴＲＡＮＳＩＲＥ株式会社,,株式会社,神奈川県,小田原市,小八幡１丁目１１番１１号,,14,206,2560815,,,,,,,2025-12-23,1,,,,,トランシーレ,0
334,2030001170275,新規,0,2025-12-23,2025-12-23,株式会社天翔建設,,株式会社,埼玉県,入間市,大字新光３００番地１３２,,11,225,3580055,,,,,,,2025-12-23,1,,,,,テンショウケンセツ,0
335,2030001170291,新規,0,2025-12-23,2025-12-23,株式会社Ｌｕｃｕ,,株式会社,埼玉県,川口市,南鳩ヶ谷２丁目１１－２０,,11,203,3340013,,,,,,,2025-12-23,1,,,,,ルチュ,0
338,2030003028298,新規,0,2025-12-23,2025-12-23,合同会社とくわ,,合同会社,埼玉県,草加市,氷川町２１４７番地１０,,11,221,3400034,,,,,,,2025-12-23,1,,,,,トクワ,0
342,2040001141886,新規,0,2025-12-23,2025-12-23,ＴＡＳＨＡ　ＩＮＴＥＲＮＡＴＩＯＮＡＬ株式会社,,株式会社,千葉県,木更津市,畔戸１４１９－３,,12,206,2920005,,,,,,,2025-12-23,1,,,,,,0
350,2050003009825,新規,0,2025-12-23,2025-12-23,合同会社Ｓ＆Ｆ,,合同会社,茨城県,牛久市,小坂町１９１０番地８,,08,219,3001286,,,,,,,2025-12-23,1,,,,,エスアンドエフ,0
352,2070001043659,新規,0,2025-12-23,2025-12-23,株式会社ＩＴＯ　Ａｓｓｅｔ　Ｄｅｓｉｇｎ,,株式会社,群馬県,高崎市,下室田町１６０７,,10,202,3703342,,,,,,,2025-12-23,1,,,,,イトウアセットデザイン,0
353,2070001043675,新規,0,2025-12-23,2025-12-23,株式会社指月社,,株式会社,群馬県,前橋市,五代町４４９番地１,,10,201,3710132,,,,,,,2025-12-23,1,,,,,シゲツシャ,0
359,2100003008532,新規,0,2025-12-23,2025-12-23,合同会社Ｃａｌｍ,,合同会社,長野県,安曇野市,豊科５１８７番地３２,,20,220,3998205,,,,,,,2025-12-23,1,,,,,カーム,0
370,2120001282887,新規,0,2025-12-23,2025-12-23,株式会社ＡＩｖｉｃｅ,,株式会社,大阪府,大阪市浪速区,難波中２丁目８番６５号新光ビル,,27,111,5560011,,,,,,,2025-12-23,1,,,,,アイヴィス,0
371,2120001282895,新規,0,2025-12-23,2025-12-23,株式会社ｉｔｏｍｏ,,株式会社,大阪府,大阪市中央区,南船場３丁目２番２２号おおきに南船場ビル２０５,,27,128,5420081,,,,,,,2025-12-23,1,,,,,イトモ,0
375,2120003031516,新規,0,2025-12-23,2025-12-23,アトム合同会社,,合同会社,大阪府,大阪市北区,梅田１丁目２番２号大阪駅前第２ビル１２－１２,,27,127,5300001,,,,,,,2025-12-23,1,,,,,アトム,0
376,2120003031549,新規,0,2025-12-23,2025-12-23,ＹＳロータスパートナーズ合同会社,,合同会社,大阪府,大阪市北区,梅田１丁目２番２号大阪駅前第２ビル１２－１２,,27,127,5300001,,,,,,,2025-12-23,1,,,,,ワイエスロータスパートナーズ,0
377,2120005025318,新規,0,2025-12-23,2025-12-23,一般社団法人寿の会,,その他の設立登記法人,大阪府,大阪市北区,堂島浜２丁目１番４０号,,27,127,5300004,,,,,,,2025-12-23,1,,,,,コトブキノカイ,0
384,2130001081256,新規,0,2025-12-23,2025-12-23,株式会社Ｔｈｅ　Ｌａｂ,,株式会社,京都府,相楽郡精華町,大字山田小字下條８６番地１,,26,366,6190231,,,,,,,2025-12-23,1,,,,,ザラボ,0
385,2130001081280,新規,0,2025-12-23,2025-12-23,株式会社さきらバイオファーマ,,株式会社,京都府,京都市下京区,中堂寺粟田町９３番地ＫＲＰ４号館,,26,106,6008815,,,,,,,2025-12-23,1,,,,,サキラバイオファーマ,0
403,2180001169393,新規,0,2025-12-23,2025-12-23,株式会社バーディ,,株式会社,愛知県,名古屋市熱田区,一番１丁目２０番２３号Ｓ－ＲＥＳＩＤＥＮＣＥ熱田一番１５０４号,,23,109,4560053,,,,,,,2025-12-23,1,,,,,バーディ,0
404,2180001169963,新規,0,2025-12-23,2025-12-23,株式会社海門,,株式会社,愛知県,名古屋市緑区,大高町字西森前４６番地の１,,23,114,4598001,,,,,,,2025-12-23,1,,,,,カイモン,0
405,2180001169996,新規,0,2025-12-23,2025-12-23,株式会社Ｍｉｚｕｍｉｘ,,株式会社,愛知県,一宮市,丹陽町五日市場字屋敷１１３番地１,,23,203,4910823,,,,,,,2025-12-23,1,,,,,ミズミックス,0
410,2180301040535,新規,0,2025-12-23,2025-12-23,それから株式会社,,株式会社,愛知県,碧南市,塩浜町７丁目９３番地,,23,209,4470841,,,,,,,2025-12-23,1,,,,,ソレカラ,0
418,2190003005307,新規,0,2025-12-23,2025-12-23,合同会社むすび,,合同会社,三重県,伊賀市,桐ケ丘５丁目２９番地,,24,216,5180225,,,,,,,2025-12-23,1,,,,,ムスビ,0
434,2270003001826,新規,0,2025-12-23,2025-12-23,合同会社ちから,,合同会社,鳥取県,米子市,米原２丁目３番２２号,,31,202,6830804,,,,,,,2025-12-23,1,,,,,チカラ,0
446,2330001033848,新規,0,2025-12-23,2025-12-23,株式会社ＫＲＥＤＩＡ,,株式会社,熊本県,熊本市東区,尾ノ上２丁目５番６号,,43,102,8620913,,,,,,,2025-12-23,1,,,,,クレディア,0
447,2330001033856,新規,0,2025-12-23,2025-12-23,株式会社Ｓ‐ＦＡＲＭ,,株式会社,熊本県,上益城郡益城町,大字小谷１５９３番地６,,43,443,8612204,,,,,,,2025-12-23,1,,,,,エスファーム,0
449,2340001027857,新規,0,2025-12-23,2025-12-23,株式会社エフクレスト,,株式会社,鹿児島県,鹿屋市,王子町３９５９番地２,,46,203,8930012,,,,,,,2025-12-23,1,,,,,エフクレスト,0
452,2350001019861,新規,0,2025-12-23,2025-12-23,株式会社Ｎ‐ｒｅｈａ,,株式会社,宮崎県,都城市,南横市町１９５９番地５,,45,202,8850092,,,,,,,2025-12-23,1,,,,,エヌリハ,0
458,2430003018358,新規,0,2025-12-23,2025-12-23,波瑠莉合同会社,,合同会社,北海道,札幌市東区,北二十一条東２３丁目１‐１２太洋マンション２　２０２号,,01,103,0650021,,,,,,,2025-12-23,1,,,,,ハルリ,0
464,2700150133717,新規,0,2025-12-23,2025-12-23,シバタ工業健康保険組合,,その他,兵庫県,明石市,魚住町中尾１０５８番地,,28,203,6740082,,,,,,,2025-12-23,1,,,,,シバタコウギョウケンコウホケンクミアイ,0
465,2700150133725,新規,0,2025-12-23,2025-12-23,三龍社健康保険組合,,その他,愛知県,岡崎市,上六名町字宮前１番地,,23,202,4440859,,,,,,,2025-12-23,1,,,,,サンリュウシャケンコウホケンクミアイ,0
469,3010001261281,新規,0,2025-12-23,2025-12-23,株式会社阪井屋,,株式会社,東京都,中央区,日本橋茅場町３丁目６番１号阪井屋ビル,,13,102,1030025,,,,,,,2025-12-23,1,,,,,サカイヤ,0
470,3010001261380,新規,0,2025-12-23,2025-12-23,株式会社コーエーアセット,,株式会社,東京都,中央区,築地３丁目３番８－１０１号,,13,102,1040045,,,,,,,2025-12-23,1,,,,,コーエーアセット,0
472,3010005041093,新規,0,2025-12-23,2025-12-23,一般社団法人ＡＩ教材活用研究会,,その他の設立登記法人,東京都,中央区,日本橋兜町１７－２兜町第６葉山ビル４Ｆ,,13,102,1030026,,,,,,,2025-12-23,1,,,,,エーアイキョウザイカツヨウケンキュウカイ,0
473,3010101017022,新規,0,2025-12-23,2025-12-23,株式会社ＹＪ　Ｃｏｎｎｅｃｔ,,株式会社,東京都,八王子市,八日町９番２－７１１号,,13,201,1920071,,,,,,,2025-12-23,1,,,,,ワイジェイコネクト,0
477,3010401195261,新規,0,2025-12-23,2025-12-23,Ｐａｒｋｓｉｄｅ株式会社,,株式会社,東京都,港区,南麻布３丁目５番４１－１０１号,,13,103,1060047,,,,,,,2025-12-23,1,,,,,パークサイド,0
478,3010401195360,新規,0,2025-12-23,2025-12-23,株式会社サンフレンド,,株式会社,東京都,港区,浜松町１丁目１８番１１号イマスオフィス浜松町３Ｆスぺラボ浜松町１１号室,,13,103,1050013,,,,,,,2025-12-23,1,,,,,サンフレンド,0
481,3010501055200,新規,0,2025-12-23,2025-12-23,ＬＳメディカル株式会社,,株式会社,東京都,台東区,根岸４丁目６番２－７０２号ザ・パークハウス根岸,,13,106,1100003,,,,,,,2025-12-23,1,,,,,エルエスメディカル,0
482,3010503008123,新規,0,2025-12-23,2025-12-23,エデオム合同会社,,合同会社,東京都,台東区,上野６丁目１番６号御徒町グリーンハイツ１００５号,,13,106,1100005,,,,,,,2025-12-23,1,,,,,エデオム,0
491,3010901058678,新規,0,2025-12-23,2025-12-23,株式会社継律,,株式会社,東京都,世田谷区,梅丘２丁目２３番３２号,,13,112,1540022,,,,,,,2025-12-23,1,,,,,ケイリツ,0
500,3011001174597,新規,0,2025-12-23,2025-12-23,９１８株式会社,,株式会社,東京都,目黒区,祐天寺１丁目９番１８号,,13,110,1530052,,,,,,,2025-12-23,1,,,,,キュウイチハチ,0
501,3011005011301,新規,0,2025-12-23,2025-12-23,一般社団法人灯こころの学び舎,,その他の設立登記法人,東京都,渋谷区,神宮前６丁目２３番４号桑野ビル２階,,13,113,1500001,,,,,,,2025-12-23,1,,,,,アカリココロノマナビヤ,0
503,3011101114230,新規,0,2025-12-23,2025-12-23,株式会社Ｒｅｐｓｙ,,株式会社,東京都,新宿区,大京町１２番地８７ベルク四谷大京町２０２,,13,104,1600015,,,,,,,2025-12-23,1,,,,,レプシー,0
504,3011101114263,新規,0,2025-12-23,2025-12-23,ヒキダシ株式会社,,株式会社,東京都,新宿区,西新宿３丁目３番１３号西新宿水間ビル２Ｆ,,13,104,1600023,,,,,,,2025-12-23,1,,,,,ヒキダシ,0
506,3011203004916,新規,0,2025-12-23,2025-12-23,ＩＮＦＩＥＬＤ合同会社,,合同会社,東京都,中野区,本町３丁目２６－４２,,13,114,1640012,,,,,,,2025-12-23,1,,,,,インフィールド,0
512,3011505002717,新規,0,2025-12-23,2025-12-23,一般社団法人学際情報学環振興会,,その他の設立登記法人,東京都,荒川区,西尾久４丁目１１番３－６１５号ニュー田端スカイハイツ,,13,118,1160011,,,,,,,2025-12-23,1,,,,,ガクサイジョウホウガッカンシンコウカイ,0
518,3011801047218,新規,0,2025-12-23,2025-12-23,株式会社ファンハウス,,株式会社,東京都,足立区,綾瀬６丁目７番３５号,,13,121,1200005,,,,,,,2025-12-23,1,,,,,ファンハウス,0
529,3020001166232,新規,0,2025-12-23,2025-12-23,株式会社ｉＰＳ　Ｂｉｏ　Ｊａｐａｎ,,株式会社,神奈川県,横浜市中区,山下町２番地産業貿易センタービル２階,,14,104,2310023,,,,,,,2025-12-23,1,,,,,アイピーエスバイオジャパン,0
530,3020001166397,新規,0,2025-12-23,2025-12-23,株式会社Ａ　Ｔｅｍｐｏ　Ｋａｎａｇａｗａ,,株式会社,神奈川県,川崎市高津区,向ケ丘５１番１号,,14,134,2130035,,,,,,,2025-12-23,1,,,,,アテンポカナガワ,0
531,3020001166430,新規,0,2025-12-23,2025-12-23,オカピＡＩエージェント株式会社,,株式会社,神奈川県,横浜市保土ケ谷区,常盤台１８番１－４２２号,,14,106,2400067,,,,,,,2025-12-23,1,,,,,オカピエーアイエージェント,0
537,3020003029998,新規,0,2025-12-23,2025-12-23,合同会社匠利,,合同会社,神奈川県,横浜市南区,六ツ川２丁目４４番５４号,,14,105,2320066,,,,,,,2025-12-23,1,,,,,ショウリ,0
538,3020005017101,新規,0,2025-12-23,2025-12-23,ＮＰＯ法人ＨＡＲＵ,,その他の設立登記法人,神奈川県,川崎市川崎区,池田２丁目６番１４号,,14,131,2100022,,,,,,,2025-12-23,1,,,,,ハル,0
539,3021001087014,新規,0,2025-12-23,2025-12-23,大河原未来株式会社,,株式会社,神奈川県,厚木市,下川入１０２番地,,14,212,2430206,,,,,,,2025-12-23,1,,,,,オオカワラミライ,0
540,3021001087096,新規,0,2025-12-23,2025-12-23,株式会社美工,,株式会社,神奈川県,厚木市,下川入１３６２番地３,,14,212,2430206,,,,,,,2025-12-23,1,,,,,ビコウ,0
541,3021001087105,新規,0,2025-12-23,2025-12-23,ベルプラン株式会社,,株式会社,神奈川県,鎌倉市,笛田３丁目３７番５１号,,14,204,2480027,,,,,,,2025-12-23,1,,,,,ベルプラン,0
543,3021003016870,新規,0,2025-12-23,2025-12-23,合同会社サンライズ,,合同会社,神奈川県,足柄下郡湯河原町,中央５丁目１１番１８,,14,384,2590301,,,,,,,2025-12-23,1,,,,,,0
544,3021003016929,新規,0,2025-12-23,2025-12-23,合同会社ハカル,,合同会社,神奈川県,海老名市,国分寺台５丁目１４番２７号,,14,215,2430413,,,,,,,2025-12-23,1,,,,,ハカル,0
553,3030001170266,新規,0,2025-12-23,2025-12-23,株式会社重力発電工業,,株式会社,埼玉県,鶴ヶ島市,大字上広谷２３８番地１６,,11,241,3502203,,,,,,,2025-12-23,1,,,,,ジュウリョクハツデンコウギョウ,0
554,3030001170282,新規,0,2025-12-23,2025-12-23,株式会社３３３Ｌｉｆｅ‐Ｃａｒｅ,,株式会社,埼玉県,坂戸市,西坂戸３丁目２番１２号,,11,239,3500247,,,,,,,2025-12-23,1,,,,,サンサンサンライフケア,0
555,3030001170290,新規,0,2025-12-23,2025-12-23,株式会社Ｎｅｕ,,株式会社,埼玉県,川口市,幸町２丁目７－２６シミズビル,,11,203,3320016,,,,,,,2025-12-23,1,,,,,ノイ,0
560,3040001141844,新規,0,2025-12-23,2025-12-23,株式会社Ｒｕｎ　Ｃａｒｅ,,株式会社,千葉県,柏市,西原６丁目７番３２ビーハイブ２０１号室,,12,217,2770885,,,,,,,2025-12-23,1,,,,,ランケア,0
561,3040001141869,新規,0,2025-12-23,2025-12-23,株式会社バイクセンター,,株式会社,千葉県,佐倉市,井野１４５９番地１,,12,212,2850855,,,,,,,2025-12-23,1,,,,,バイクセンター,0
562,3040001141893,新規,0,2025-12-23,2025-12-23,株式会社ＲＡＰ,,株式会社,千葉県,船橋市,金杉４丁目１７番５１号,,12,204,2730853,,,,,,,2025-12-23,1,,,,,ラップ,0
565,3040003029195,新規,0,2025-12-23,2025-12-23,合同会社ＨＩＫＡＲＩ,,合同会社,千葉県,鎌ケ谷市,東道野辺６丁目８番２９号ローズハイツ船橋馬込沢４０８号,,12,224,2730115,,,,,,,2025-12-23,1,,,,,ヒカリ,0
567,3040005022982,新規,0,2025-12-23,2025-12-23,一般社団法人日新国際人材育成協会,,その他の設立登記法人,千葉県,八千代市,八千代台南１丁目６－３,,12,221,2760033,,,,,,,2025-12-23,1,,,,,ニッシンコクサイジンザイイクセイキョウカイ,0
568,3050001057750,新規,0,2025-12-23,2025-12-23,株式会社ダヤール,,株式会社,茨城県,石岡市,小屋３４４,,08,205,3150164,,,,,,,2025-12-23,1,,,,,ダヤール,0
572,3070001043674,新規,0,2025-12-23,2025-12-23,ＫＡＮＮＡ　Ｗｏｒｋｓ株式会社,,株式会社,群馬県,利根郡みなかみ町,藤原５３１９番地１４６,,10,449,3791721,,,,,,,2025-12-23,1,,,,,カンナワークス,0
577,3080103003492,新規,0,2025-12-23,2025-12-23,合同会社伊豆移住,,合同会社,静岡県,賀茂郡河津町,梨本７２０番地,,22,302,4130501,,,,,,,2025-12-23,1,,,,,イズイジュウ,0
589,3120001282944,新規,0,2025-12-23,2025-12-23,桜語堂株式会社,,株式会社,大阪府,大阪市北区,豊崎３丁目１６番１６号ブランズタワー梅田Ｎｏｒｔｈ４６０７室,,27,127,5310072,,,,,,,2025-12-23,1,,,,,サクラゴドウ,0
590,3120001283001,新規,0,2025-12-23,2025-12-23,青山不動産株式会社,,株式会社,大阪府,大阪市北区,豊崎２丁目１１番３号,,27,127,5310072,,,,,,,2025-12-23,1,,,,,アオヤマフドウサン,0
591,3120003031523,新規,0,2025-12-23,2025-12-23,合同会社福実,,合同会社,大阪府,大阪市生野区,巽西４丁目８番１０－１０３号,00141977,27,116,5440012,,,,,,,2025-12-23,1,,,,,フクミ,0
598,3130001081247,新規,0,2025-12-23,2025-12-23,株式会社ＰＬＡＮ　Ｍ,,株式会社,京都府,京都市伏見区,向島庚申町６１番地２,,26,109,6128122,,,,,,,2025-12-23,1,,,,,プランエム,0
607,3140003022974,新規,0,2025-12-23,2025-12-23,合同会社ｍｙＰａｌＥｔｅｒｎａｌ,,合同会社,兵庫県,神戸市中央区,北長狭通１丁目２番１３号シマダビル２階,,28,110,6500012,,,,,,,2025-12-23,1,,,,,マイパルエターナル,0
612,3160003003691,新規,0,2025-12-23,2025-12-23,精工合同会社,,合同会社,滋賀県,草津市,東草津２丁目６番１－７号,,25,206,5250033,,,,,,,2025-12-23,1,,,,,セイコウ,0
613,3170005007178,新規,0,2025-12-23,2025-12-23,特定非営利活動法人ヤマックル・アグロフォレストリー,,その他の設立登記法人,和歌山県,海草郡紀美野町,福井１１１１－２４,,30,304,6401111,,,,,,,2025-12-23,1,,,,,ヤマックルアグロフォレストリー,0
622,3180001169987,新規,0,2025-12-23,2025-12-23,株式会社ＬＩＮＶＥＳＴＡ,,株式会社,愛知県,名古屋市瑞穂区,瑞穂通５丁目６番地第二宏和ハイツ１Ｆ,,23,108,4670806,,,,,,,2025-12-23,1,,,,,リンベスタ,0
625,3180301040526,新規,0,2025-12-23,2025-12-23,株式会社ＨＹＨ,,株式会社,愛知県,豊川市,市田町下新屋２０番地の１,,23,207,4420862,,,,,,,2025-12-23,1,,,,,エイチワイエイチ,0
636,3240001065957,新規,0,2025-12-23,2025-12-23,ロジアルファ株式会社,,株式会社,広島県,府中市,高木町７０番地,,34,208,7260013,,,,,,,2025-12-23,1,,,,,ロジアルファ,0
643,3290001112481,新規,0,2025-12-23,2025-12-23,株式会社エンプラス,,株式会社,福岡県,久留米市,天神町１－１米城ビルディング９階,,40,203,8300033,,,,,,,2025-12-23,1,,,,,エンプラス,0
644,3290001112614,新規,0,2025-12-23,2025-12-23,株式会社ＪＮＫ,,株式会社,福岡県,福岡市中央区,渡辺通３丁目９番５号,,40,133,8100004,,,,,,,2025-12-23,1,,,,,ジェイエヌケイ,0
673,3430001095910,新規,0,2025-12-23,2025-12-23,ＺｅｉＬｉｎｋコンサルティング株式会社,,株式会社,北海道,札幌市中央区,南二条東２丁目１６番地堀尾ビル２階,,01,101,0600052,,,,,,,2025-12-23,1,,,,,ゼイリンクコンサルティング,0
678,3470001021029,新規,0,2025-12-23,2025-12-23,株式会社アラン,,株式会社,香川県,高松市,多肥下町１５５８番地１０,,37,201,7618075,,,,,,,2025-12-23,1,,,,,アラン,0
682,3700150133716,新規,0,2025-12-23,2025-12-23,三菱製紙健康保険組合,,その他,東京都,墨田区,両国２丁目１０番１４号,,13,107,1300026,,,,,,,2025-12-23,1,,,,,ミツビシセイシケンコウホケンクミアイ,0
683,3700150133724,新規,0,2025-12-23,2025-12-23,神栄健康保険組合,,その他,兵庫県,神戸市中央区,京町７７番地の１,,28,110,6500034,,,,,,,2025-12-23,1,,,,,シンエイケンコウホケンクミアイ,0
687,4010001261322,新規,0,2025-12-23,2025-12-23,ＨＩＴＳＥＲＩＥＳ　ＣＡＰＩＴＡＬ株式会社,,株式会社,東京都,千代田区,丸の内２丁目４番１号,,13,101,1000005,,,,,,,2025-12-23,1,,,,,ヒットシリーズキャピタル,0
689,4010003049815,新規,0,2025-12-23,2025-12-23,Ｊａｐａｎ　Ｄｅｖｅｌｏｐｍｅｎｔ５ＹＹ合同会社,,合同会社,東京都,中央区,八重洲２丁目２番１号,,13,102,1040028,,,,,,,2025-12-23,1,,,,,ジャパンデベロップメントファイブワイワイ,0
696,4010403036859,新規,0,2025-12-23,2025-12-23,合同会社ＡＲＴ,,合同会社,東京都,港区,六本木７丁目１４番１６号ＦＳビルＢ１階,,13,103,1060032,,,,,,,2025-12-23,1,,,,,エーアールティー,0
697,4010403036875,新規,0,2025-12-23,2025-12-23,合同会社レオ,,合同会社,東京都,港区,南青山４丁目１番１５号ベルテ南青山１００１,,13,103,1070062,,,,,,,2025-12-23,1,,,,,レオ,0
700,4010601068464,新規,0,2025-12-23,2025-12-23,株式会社リライト,,株式会社,東京都,江東区,青海２丁目７番４号８０４号室,,13,108,1350064,,,,,,,2025-12-23,1,,,,,リライト,0
702,4010801036898,新規,0,2025-12-23,2025-12-23,中悦全球株式会社,,株式会社,東京都,大田区,西蒲田７丁目６番８号,,13,111,1440051,,,,,,,2025-12-23,1,,,,,チュウエツゼンキュウ,0
715,4011001174373,新規,0,2025-12-23,2025-12-23,株式会社Ｄ‐ＳＹＮＣ,,株式会社,東京都,渋谷区,道玄坂１丁目１０番８号渋谷道玄坂東急ビル２Ｆ－Ｃ,,13,113,1500043,,,,,,,2025-12-23,1,,,,,ディシンク,0
721,4011103016829,新規,0,2025-12-23,2025-12-23,合同会社ＥＴＡＴ,,合同会社,東京都,新宿区,西落合３丁目２６－７,,13,104,1610031,,,,,,,2025-12-23,1,,,,,エタ,0
729,4011401027684,新規,0,2025-12-23,2025-12-23,株式会社デプロ,,株式会社,東京都,板橋区,中板橋２０番８－４０２号須藤ビル,,13,119,1730016,,,,,,,2025-12-23,1,,,,,デプロ,0
730,4011403004979,新規,0,2025-12-23,2025-12-23,合同会社ＭＯＣＡ,,合同会社,東京都,板橋区,小茂根２丁目２４番１８－５０３,,13,119,1730037,,,,,,,2025-12-23,1,,,,,モカ,0
739,4011801047217,新規,0,2025-12-23,2025-12-23,一申和株式会社,,株式会社,東京都,足立区,大谷田３丁目１７番４号サンフラワー１号館Ｂ１－１１０,,13,121,1200001,,,,,,,2025-12-23,1,,,,,イッシンワ,0
741,4012403007526,新規,0,2025-12-23,2025-12-23,合同会社マイクロテスト・ジャパン,,合同会社,東京都,狛江市,岩戸北３丁目１８番８－１０５号,,13,219,2010004,,,,,,,2025-12-23,1,,,,,マイクロテストジャパン,0
742,4012803003950,新規,0,2025-12-23,2025-12-23,合同会社ＯｕｔＳｍａｒｔ,,合同会社,東京都,日野市,日野台１丁目２番地の５２,,13,212,1910003,,,,,,,2025-12-23,1,,,,,アウトスマート,0
745,4020001166339,新規,0,2025-12-23,2025-12-23,日夏キャピタル株式会社,,株式会社,神奈川県,川崎市中原区,新丸子東３丁目１１００番地１２Ｍ４５０５,,14,133,2110004,,,,,,,2025-12-23,1,,,,,ヒナツキャピタル,0
746,4020001166396,新規,0,2025-12-23,2025-12-23,株式会社ＨｙｐｅｒＬｉｎｋｓ,,株式会社,神奈川県,横浜市神奈川区,金港町５－１４クアドリフォリオ８階,,14,102,2210056,,,,,,,2025-12-23,1,,,,,ハイパーリンクス,0
753,4020005017100,新規,0,2025-12-23,2025-12-23,一般社団法人国際芸術教育協会,,その他の設立登記法人,神奈川県,川崎市中原区,下沼部１９５９－１ザ・ライオンズ武蔵小杉５０５号室,,14,133,2110011,,,,,,,2025-12-23,1,,,,,コクサイゲイジュツキョウイクキョウカイ,0
755,4021001087104,新規,0,2025-12-23,2025-12-23,株式会社翔伸コンサルティング,,株式会社,神奈川県,横須賀市,追浜南町２丁目２９番地,,14,201,2370065,,,,,,,2025-12-23,1,,,,,ショウシンコンサルティング,0
756,4021001087120,新規,0,2025-12-23,2025-12-23,株式会社Ｃｅｎｔｒｅ,,株式会社,神奈川県,鎌倉市,梶原３丁目４番１号,,14,204,2470063,,,,,,,2025-12-23,1,,,,,センター,0
779,4060005010398,新規,0,2025-12-23,2025-12-23,特定非営利活動法人ＳＫＹＬＬＥＤ,,その他の設立登記法人,栃木県,鹿沼市,西沢町１４１７－２,,09,205,3220344,,,,,,,2025-12-23,1,,,,,スキルド,0
786,4080101025967,新規,0,2025-12-23,2025-12-23,おふろ株式会社,,株式会社,静岡県,裾野市,須山２２５５番地の３６４４,,22,220,4101231,,,,,,,2025-12-23,1,,,,,オフロ,0
787,4080101025975,新規,0,2025-12-23,2025-12-23,株式会社ＹＡＭＡＭＯＴＯ,,株式会社,静岡県,富士市,中里１６７番地の２,,22,210,4170826,,,,,,,2025-12-23,1,,,,,ヤマモト,0
793,4110001039799,新規,0,2025-12-23,2025-12-23,株式会社ＭＯＮＡＲＣＨ,,株式会社,新潟県,新潟市中央区,上大川前通４番町４０番地１ＢＵＥＮＡ上大川前通４、３０３号,,15,103,9518068,,,,,,,2025-12-23,1,,,,,モナーク,0
794,4110003006005,新規,0,2025-12-23,2025-12-23,合同会社オーマストア,,合同会社,新潟県,糸魚川市,寺町２丁目１－１９,,15,216,9410058,,,,,,,2025-12-23,1,,,,,オーマストア,0
811,4120001283000,新規,0,2025-12-23,2025-12-23,株式会社ヴェリス,,株式会社,大阪府,大阪市淀川区,宮原４丁目４‐６３新大阪千代田ビル別館３階Ｊ号室,,27,123,5320003,,,,,,,2025-12-23,1,,,,,ヴェリス,0
813,4120003031423,新規,0,2025-12-23,2025-12-23,合同会社フローライズ,,合同会社,大阪府,大阪市北区,野崎町７－８梅田パークビル３０５,,27,127,5300055,,,,,,,2025-12-23,1,,,,,フローライズ,0
814,4120005025316,新規,0,2025-12-23,2025-12-23,一般社団法人大阪市北部東部メディケアネット,,その他の設立登記法人,大阪府,大阪市旭区,清水２丁目１１番１４号,,27,117,5350021,,,,,,,2025-12-23,1,,,,,オオサカシホクブトウブメディケアネット,0
845,4180001169937,新規,0,2025-12-23,2025-12-23,オペラ株式会社,,株式会社,愛知県,一宮市,浅井町大日比野２２３５番地,,23,203,4910105,,,,,,,2025-12-23,1,,,,,オペラ,0
846,4180001169945,新規,0,2025-12-23,2025-12-23,株式会社セーフライズ,,株式会社,愛知県,名古屋市中区,金山２丁目１４番９号,,23,106,4600022,,,,,,,2025-12-23,1,,,,,セーフライズ,0
847,4180001169986,新規,0,2025-12-23,2025-12-23,株式会社ユース名古屋,,株式会社,愛知県,名古屋市中区,栄４丁目２０番１０号第３オーシャンビル５Ｆ,,23,106,4600008,,,,,,,2025-12-23,1,,,,,ユースナゴヤ,0
848,4180001170011,新規,0,2025-12-23,2025-12-23,スリーピース株式会社,,株式会社,愛知県,日進市,赤池４丁目１１１２リバーサイドミキムラ２１０号,,23,230,4700125,,,,,,,2025-12-23,1,,,,,スリーピース,0
851,4180003029536,新規,0,2025-12-23,2025-12-23,合同会社Ｏｎｅ　Ｇｏｏｄ,,合同会社,愛知県,名古屋市瑞穂区,薩摩町２丁目７シャローム瑞穂２０１,,23,108,4670812,,,,,,,2025-12-23,1,,,,,ワングッド,0
852,4180003029544,新規,0,2025-12-23,2025-12-23,合同会社感海,,合同会社,愛知県,江南市,野白町葭場４７番地２,,23,217,4838201,,,,,,,2025-12-23,1,,,,,カンカイ,0
859,4200001044550,新規,0,2025-12-23,2025-12-23,株式会社エーワンパッケージホールディングス,,株式会社,岐阜県,可児市,広見１３０２番地１７,,21,214,5090214,,,,,,,2025-12-23,1,,,,,エーワンパッケージホールディングス,0
870,4230001021217,新規,0,2025-12-23,2025-12-23,株式会社キャンディドロップ,,株式会社,富山県,富山市,北代４１４３番地５,,16,201,9300103,,,,,,,2025-12-23,1,,,,,キャンディドロップ,0
884,4290001112613,新規,0,2025-12-23,2025-12-23,株式会社ジャンティハウス,,株式会社,福岡県,福岡市中央区,渡辺通２丁目９番２０－１１０６号,,40,133,8100004,,,,,,,2025-12-23,1,,,,,ジャンティハウス,0
908,4360003015501,新規,0,2025-12-23,2025-12-23,サンバックビーツプロダクション合同会社,,合同会社,沖縄県,那覇市,久茂地３丁目２６－３２ＹＳＣビル２０２,,47,201,9000015,,,,,,,2025-12-23,1,,,,,サンバックビーツプロダクション,0
910,4370001053337,新規,0,2025-12-23,2025-12-23,株式会社太田とうふ店,,株式会社,宮城県,仙台市太白区,秋保町長袋字向宿２５番地の１,,04,104,9820243,,,,,,,2025-12-23,1,,,,,オオタトウフテン,0
919,4410003004184,新規,0,2025-12-23,2025-12-23,合同会社沢村林業土木,,合同会社,秋田県,仙北郡美郷町,六郷字本道町１２３番地,,05,434,0191404,,,,,,,2025-12-23,1,,,,,サワムラリンギョウドボク,0
932,4470003003040,新規,0,2025-12-23,2025-12-23,ａｎｅｗ合同会社,,合同会社,香川県,高松市,天神前１０番５号高松セントラルスカイビルディング３Ｆｓｏｕｔｈ,,37,201,7600018,,,,,,,2025-12-23,1,,,,,アニュー,0
933,4480003002363,新規,0,2025-12-23,2025-12-23,合同会社Ｈｏｒｉｚｏｎ　Ｗｏｒｋｓ,,合同会社,徳島県,徳島市,国府町府中８６番地１,,36,201,7793122,,,,,,,2025-12-23,1,,,,,ホライゾンワークス,0
935,4700150133715,新規,0,2025-12-23,2025-12-23,ニッセイ・ウェルス生命健康保険組合,,その他,東京都,品川区,大崎２丁目１番１号,,13,109,1410032,,,,,,,2025-12-23,1,,,,,ニッセイウェルスセイメイケンコウホケンクミアイ,0
936,4700150133723,新規,0,2025-12-23,2025-12-23,キオクシア健康保険組合,,その他,東京都,渋谷区,千駄ヶ谷５丁目２３－５　代々木イースト８Ｆ,,13,113,1510051,,,,,,,2025-12-23,1,,,,,キオクシアケンコウホケンクミアイ,0
941,5010003049814,新規,0,2025-12-23,2025-12-23,Ｊａｐａｎ　Ｄｅｖｅｌｏｐｍｅｎｔ５ＮＹ合同会社,,合同会社,東京都,中央区,八重洲２丁目２番１号,,13,102,1040028,,,,,,,2025-12-23,1,,,,,ジャパンデベロップメントファイブエヌワイ,0
943,5010005041117,新規,0,2025-12-23,2025-12-23,一般社団法人上福岡駅前ファンド,,その他の設立登記法人,東京都,中央区,日本橋１丁目４番１号日本橋一丁目ビルディング,,13,102,1030027,,,,,,,2025-12-23,1,,,,,カミフクオカエキマエファンド,0
955,5010401194963,新規,0,2025-12-23,2025-12-23,フランチャイズビジネスアドバイザリー株式会社,,株式会社,東京都,港区,芝浦３丁目１４番１８号キャナルスクエア芝浦３階,,13,103,1080023,,,,,,,2025-12-23,1,,,,,フランチャイズビジネスアドバイザリー,0
956,5010401195284,新規,0,2025-12-23,2025-12-23,ＲＩＤＥ＆ＬＩＮＫ株式会社,,株式会社,東京都,港区,六本木１丁目４番５号,,13,103,1060032,,,,,,,2025-12-23,1,,,,,ライドアンドリンク,0
958,5010403036858,新規,0,2025-12-23,2025-12-23,合同会社ＴａＭａＲｉＢＡＲ,,合同会社,東京都,港区,浜松町２丁目６番４号－１３０４,,13,103,1050013,,,,,,,2025-12-23,1,,,,,タマリバー,0
959,5010405025165,新規,0,2025-12-23,2025-12-23,一般社団法人東京銀座,,その他の設立登記法人,東京都,港区,西新橋１丁目２番９号メンターキャピタル税理士法人内,,13,103,1050003,,,,,,,2025-12-23,1,,,,,トウキョウギンザ,0
961,5010501055198,新規,0,2025-12-23,2025-12-23,株式会社そら,,株式会社,東京都,台東区,東上野１丁目１２番７号鈴木ビル３階,,13,106,1100015,,,,,,,2025-12-23,1,,,,,ソラ,0
969,5010703008037,新規,0,2025-12-23,2025-12-23,合同会社ウェルリンク,,合同会社,東京都,品川区,二葉１丁目１１番１７号,,13,109,1420043,,,,,,,2025-12-23,1,,,,,ウェルリンク,0
970,5010705003837,新規,0,2025-12-23,2025-12-23,一般社団法人日本スーパーエイジャー協会,,その他の設立登記法人,東京都,品川区,東五反田２丁目３‐５五反田中央ビル７階,,13,109,1410022,,,,,,,2025-12-23,1,,,,,ニホンスーパーエイジャーキョウカイ,0
980,5011001174372,新規,0,2025-12-23,2025-12-23,株式会社みん箱,,株式会社,東京都,渋谷区,恵比寿南１丁目４－２紀伊國屋ビル４階恵比寿アントレサロン,,13,113,1500022,,,,,,,2025-12-23,1,,,,,ミンハコ,0
987,5011201026860,新規,0,2025-12-23,2025-12-23,株式会社ＴＡＳクリエート,,株式会社,東京都,中野区,中野５丁目６７番７－８０１号,,13,114,1640001,,,,,,,2025-12-23,1,,,,,ティエーエスクリエート,0
990,5011301031141,新規,0,2025-12-23,2025-12-23,ＳＮマネジメント株式会社,,株式会社,東京都,杉並区,高井戸東１丁目１番４６号,,13,115,1680072,,,,,,,2025-12-23,1,,,,,エスエヌマネジメント,0
991,5011501032947,新規,0,2025-12-23,2025-12-23,ＩＭＵ株式会社,,株式会社,東京都,北区,中里３丁目１４番２０号,,13,117,1140015,,,,,,,2025-12-23,1,,,,,アイエムユー,0
992,5011601029265,新規,0,2025-12-23,2025-12-23,株式会社ファイン,,株式会社,東京都,練馬区,桜台２丁目８番４号ＭＫヒルズ３０１,,13,120,1760002,,,,,,,2025-12-23,1,,,,,ファイン,0
1006,5021001086963,新規,0,2025-12-23,2025-12-23,ＶＩＡ　ＭＡＲＩＮＡ株式会社,,株式会社,神奈川県,足柄上郡大井町,金子７７５番地,,14,362,2580019,,,,,,,2025-12-23,1,,,,,ヴィアマリーナ,0
1011,5030001170280,新規,0,2025-12-23,2025-12-23,株式会社プレイス,,株式会社,埼玉県,所沢市,東住吉８番７－２０２号,,11,208,3591124,,,,,,,2025-12-23,1,,,,,プレイス,0
1019,5040003029193,新規,0,2025-12-23,2025-12-23,合同会社ひざまる,,合同会社,千葉県,千葉市美浜区,幸町２丁目１４番１１棟,,12,106,2610001,,,,,,,2025-12-23,1,,,,,ヒザマル,0
1024,5050001057781,新規,0,2025-12-23,2025-12-23,株式会社ＥＡＴＩＮＧ,,株式会社,茨城県,水戸市,笠原町１１８９－２グリーンヒル西野ビル２階,,08,201,3100852,,,,,,,2025-12-23,1,,,,,イーティング,0
1029,5070001043672,新規,0,2025-12-23,2025-12-23,ＴＰＳ株式会社,,株式会社,群馬県,安中市,安中３７８４番地１,,10,211,3790116,,,,,,,2025-12-23,1,,,,,ティーピーエス,0
1030,5070005010454,新規,0,2025-12-23,2025-12-23,行政書士法人久保田事務所,,その他の設立登記法人,群馬県,前橋市,上泉町２０４番地,,10,201,3710007,,,,,,,2025-12-23,1,,,,,クボタジムショ,0
1037,5100001039205,新規,0,2025-12-23,2025-12-23,株式会社Ｕｌｕ,,株式会社,長野県,諏訪郡下諏訪町,４６４１番地１,,20,361,3930000,,,,,,,2025-12-23,1,,,,,ウル,0
1039,5110001039798,新規,0,2025-12-23,2025-12-23,株式会社Ｅｖｏｌｖｅｒ　Ｃｏ‐Ｃｒｅａｔｉｏｎ,,株式会社,新潟県,新潟市中央区,万代１丁目２－２１ロンドベル万代６０１,,15,103,9500088,,,,,,,2025-12-23,1,,,,,エヴォルバーコクリエーション,0
1049,5120001282975,新規,0,2025-12-23,2025-12-23,株式会社ａｒｃ,,株式会社,大阪府,大阪市北区,東天満１丁目１１番７号,,27,127,5300044,,,,,,,2025-12-23,1,,,,,アルク,0
1055,5120901052016,新規,0,2025-12-23,2025-12-23,株式会社ＹＢＲ工房,,株式会社,大阪府,池田市,ダイハツ町２－２３,,27,204,5630044,,,,,,,2025-12-23,1,,,,,ワイビーアールコウボウ,0
1056,5120903005987,新規,0,2025-12-23,2025-12-23,合同会社Ｐｒｅｍａ,,合同会社,大阪府,吹田市,岸部中４丁目９番１１号,,27,205,5640002,,,,,,,2025-12-23,1,,,,,プレマ,0
1057,5120903006003,新規,0,2025-12-23,2025-12-23,Ｏｆｆｉｃｅ　Ｍｙｅｒｓ合同会社,,合同会社,大阪府,箕面市,小野原東５丁目１５番１４号,,27,220,5620031,,,,,,,2025-12-23,1,,,,,オフィスマイヤーズ,0
1060,5140001141188,新規,0,2025-12-23,2025-12-23,株式会社ＡＭＥＩＮ　ＣＯＲＥ,,株式会社,兵庫県,芦屋市,岩園町１４番１３号,,28,206,6590013,,,,,,,2025-12-23,1,,,,,アメインコア,0
1062,5140005027739,新規,0,2025-12-23,2025-12-23,一般社団法人ブラインド・アクション,,その他の設立登記法人,兵庫県,宝塚市,小林４丁目６番１９号,,28,214,6650034,,,,,,,2025-12-23,1,,,,,ブラインドアクション,0
1063,5150003003781,新規,0,2025-12-23,2025-12-23,合同会社エテルネル・Ｇ,,合同会社,奈良県,葛城市,大屋１８番地２８,,29,211,6392145,,,,,,,2025-12-23,1,,,,,エテルネルグロース,0
1071,5180001169985,新規,0,2025-12-23,2025-12-23,株式会社プラチナム,,株式会社,愛知県,名古屋市中区,栄４丁目１０番２号第６オーシャンビル１Ｆ,,23,106,4600008,,,,,,,2025-12-23,1,,,,,プラチナム,0
1072,5180001170027,新規,0,2025-12-23,2025-12-23,さくら興業株式会社,,株式会社,愛知県,春日井市,高森台４丁目８番地２２,,23,206,4870032,,,,,,,2025-12-23,1,,,,,サクラコウギョウ,0
1075,5180003029436,新規,0,2025-12-23,2025-12-23,ＡＳＡＤ　ＭＯＴＯＲＳ合同会社,,合同会社,愛知県,岩倉市,石仏町たり２３,,23,228,4820034,,,,,,,2025-12-23,1,,,,,アサドモーター,0
1076,5180003029543,新規,0,2025-12-23,2025-12-23,輝来合同会社,,合同会社,愛知県,江南市,赤童子町白山３６番地８,,23,217,4838224,,,,,,,2025-12-23,1,,,,,コウライ,0
1080,5180301040532,新規,0,2025-12-23,2025-12-23,株式会社山本商店,,株式会社,愛知県,西尾市,一色町佐久島半内２８番地,,23,213,4440416,,,,,,,2025-12-23,1,,,,,ヤマモトショウテン,0
1086,5200003007182,新規,0,2025-12-23,2025-12-23,合同会社サンデリアーナ,,合同会社,岐阜県,岐阜市,須賀１丁目６番１６‐１号,,21,201,5008289,,,,,,,2025-12-23,1,,,,,サンデリアーナ,0
1091,5240001065955,新規,0,2025-12-23,2025-12-23,株式会社ＴＳＵＭＵＧＩ,,株式会社,広島県,廿日市市,平良２丁目８番１３－１号,,34,213,7380025,,,,,,,2025-12-23,1,,,,,ツムギ,0
1103,5290001112587,新規,0,2025-12-23,2025-12-23,株式会社勢龍,,株式会社,福岡県,糸島市,志摩小富士９６１番地６,,40,230,8191321,,,,,,,2025-12-23,1,,,,,セイリュウ,0
1104,5290005019928,新規,0,2025-12-23,2025-12-23,一般社団法人地域交流協会,,その他の設立登記法人,福岡県,大牟田市,新栄町１７番地５８昭和ビル２Ｆ号室,,40,202,8360041,,,,,,,2025-12-23,1,,,,,チイキコウリュウキョウカイ,0
1119,5350001019850,新規,0,2025-12-23,2025-12-23,株式会社有縁千里,,株式会社,宮崎県,都城市,高城町桜木１４２６番地４,,45,202,8851204,,,,,,,2025-12-23,1,,,,,ユウエンセンリ,0
1122,5360001036151,新規,0,2025-12-23,2025-12-23,株式会社燈,,株式会社,沖縄県,中頭郡読谷村,字波平２１４０番地３－１０２号,,47,324,9040322,,,,,,,2025-12-23,1,,,,,アカリ,0
1123,5360001036168,新規,0,2025-12-23,2025-12-23,東亜住宅株式会社,,株式会社,沖縄県,中頭郡北中城村,字島袋２７１－９沖島ビル２０１号,,47,327,9012301,,,,,,,2025-12-23,1,,,,,トウアジュウタク,0
1126,5360003015491,新規,0,2025-12-23,2025-12-23,合同会社キョウ,,合同会社,沖縄県,中頭郡北谷町,字吉原７３１番地２,,47,326,9040105,,,,,,,2025-12-23,1,,,,,キョウ,0
1127,5360003015500,新規,0,2025-12-23,2025-12-23,梛合同会社,,合同会社,沖縄県,那覇市,長田２丁目２２番１５号コーポ下田２０２,,47,201,9020077,,,,,,,2025-12-23,1,,,,,ナギ,0
1132,5370003007414,新規,0,2025-12-23,2025-12-23,合同会社日和企画,,合同会社,宮城県,黒川郡大和町,吉岡字館下１１７,,04,421,9813621,,,,,,,2025-12-23,1,,,,,ヒヨリキカク,0
1139,5390003002479,新規,0,2025-12-23,2025-12-23,合同会社月山エナジー,,合同会社,山形県,鶴岡市,下山添字茶屋川原６８番地１,,06,203,9970341,,,,,,,2025-12-23,1,,,,,ガッサンエナジー,0
1144,5430001095875,新規,0,2025-12-23,2025-12-23,株式会社ＬｕｍｉＬｉｎｋ,,株式会社,北海道,札幌市中央区,北三条東１０丁目１２１,,01,101,0600033,,,,,,,2025-12-23,1,,,,,ルミリンク,0
1145,5430001095917,新規,0,2025-12-23,2025-12-23,株式会社ＭＩＫＡＫＵ,,株式会社,北海道,札幌市中央区,南十条西２０丁目２番３号,,01,101,0640810,,,,,,,2025-12-23,1,,,,,ミカク,0
1149,5450001014809,新規,0,2025-12-23,2025-12-23,株式会社有倫,,株式会社,北海道,旭川市,川端町一条６丁目１番１３号,,01,204,0700811,,,,,,,2025-12-23,1,,,,,ユウリン,0
1155,5470005006668,新規,0,2025-12-23,2025-12-23,非営利型一般社団法人ガンネンナーズ,,その他の設立登記法人,香川県,綾歌郡綾川町,陶５７７３番地２,,37,387,7612103,,,,,,,2025-12-23,1,,,,,ヒエイリガタガンネンナーズ,0
1158,5500005008842,新規,0,2025-12-23,2025-12-23,ＡＨＲ協同組合,,その他の設立登記法人,愛媛県,松山市,大可賀２丁目８－４３,,38,201,7918057,,,,,,,2025-12-23,1,,,,,エーエイチアール,0
1159,5700150133722,新規,0,2025-12-23,2025-12-23,豊島健康保険組合,,その他,愛知県,名古屋市中区,錦２丁目１５番１５号,,23,106,4600003,,,,,,,2025-12-23,1,,,,,トヨシマケンコウホケンクミアイ,0
1170,6010003049813,新規,0,2025-12-23,2025-12-23,Ｊａｐａｎ　Ｄｅｖｅｌｏｐｍｅｎｔ５ＹＮ合同会社,,合同会社,東京都,中央区,八重洲２丁目２番１号,,13,102,1040028,,,,,,,2025-12-23,1,,,,,ジャパンデベロップメントファイブワイエヌ,0
1171,6010005041116,新規,0,2025-12-23,2025-12-23,一般社団法人グリーンコリドー,,その他の設立登記法人,東京都,千代田区,平河町２丁目５番３ＮａｇａｔａｃｈｏＧＲＩＤ５Ｆ,,13,101,1020093,,,,,,,2025-12-23,1,,,,,グリーンコリドー,0
1177,6010401195069,新規,0,2025-12-23,2025-12-23,株式会社ＭＡＲＩＳＡ,,株式会社,東京都,港区,南青山３丁目１３番４号,,13,103,1070062,,,,,,,2025-12-23,1,,,,,マリサ,0
1179,6010403036741,新規,0,2025-12-23,2025-12-23,合同会社マリンスカイエステート,,合同会社,東京都,港区,台場２丁目２－２,,13,103,1350091,,,,,,,2025-12-23,1,,,,,マリンスカイエステート,0
1180,6010403036873,新規,0,2025-12-23,2025-12-23,ＮＳＳＫ‐ＧＡＭＭＡ１合同会社,,合同会社,東京都,港区,愛宕２丁目５番１号愛宕グリーンヒルズＭＯＲＩタワー,,13,103,1050002,,,,,,,2025-12-23,1,,,,,エヌエスエスケーガンマワン,0
1181,6010403036881,新規,0,2025-12-23,2025-12-23,合同会社Ｔｈｉｒｄ　Ｐａｒｔｙ,,合同会社,東京都,港区,浜松町２丁目２－１５浜松町ダイヤビル２Ｆ,,13,103,1050013,,,,,,,2025-12-23,1,,,,,サードパーティ,0
1182,6010501055206,新規,0,2025-12-23,2025-12-23,株式会社龍游グローバル,,株式会社,東京都,台東区,台東４丁目７番６号新星ビル５階,,13,106,1100016,,,,,,,2025-12-23,1,,,,,タツユウグローバル,0
1186,6010601068470,新規,0,2025-12-23,2025-12-23,株式会社ＬＯＯＯＭ,,株式会社,東京都,江東区,常盤１丁目３番７号,,13,108,1350006,,,,,,,2025-12-23,1,,,,,ルーム,0
1196,6010903010502,新規,0,2025-12-23,2025-12-23,合同会社アッシュワークス,,合同会社,東京都,世田谷区,粕谷２丁目２４番１―５１０号,,13,112,1570063,,,,,,,2025-12-23,1,,,,,アッシュワークス,0
1197,6010903010519,新規,0,2025-12-23,2025-12-23,合同会社ネクレクス,,合同会社,東京都,世田谷区,若林５丁目３－７－１Ｆ,,13,112,1540023,,,,,,,2025-12-23,1,,,,,ネクレクス,0
1200,6011001174553,新規,0,2025-12-23,2025-12-23,株式会社Ｎｅａ,,株式会社,東京都,渋谷区,神南１丁目１７番８号ひきだしのような家に６Ｆ,,13,113,1500041,,,,,,,2025-12-23,1,,,,,ネア,0
1207,6011301031140,新規,0,2025-12-23,2025-12-23,株式会社Ｇｒｏｏｖａ,,株式会社,東京都,杉並区,和田１丁目３９番３号中野フラワーマンション３０６,,13,115,1660012,,,,,,,2025-12-23,1,,,,,グルーヴァ,0
1210,6011501032921,新規,0,2025-12-23,2025-12-23,アイドス株式会社,,株式会社,東京都,荒川区,東日暮里４丁目３５番１３号,,13,118,1160014,,,,,,,2025-12-23,1,,,,,アイドス,0
1211,6011501032938,新規,0,2025-12-23,2025-12-23,エージーアイボット株式会社,,株式会社,東京都,荒川区,東日暮里５丁目５０－５アートホテル日暮里ラングウッド３Ｆ－Ｃ３８,,13,118,1160014,,,,,,,2025-12-23,1,,,,,エージーアイボット,0
1224,6020005017098,新規,0,2025-12-23,2025-12-23,医療法人誠桜会,,その他の設立登記法人,神奈川県,川崎市宮前区,鷺沼３丁目５番地１７,,14,136,2160004,,,,,,,2025-12-23,1,,,,,セイオウカイ,0
1226,6021001087102,新規,0,2025-12-23,2025-12-23,株式会社Ｐ‐ＮＵＴＳ,,株式会社,神奈川県,茅ヶ崎市,東海岸南２丁目１０－２６,,14,207,2530054,,,,,,,2025-12-23,1,,,,,ピーナッツ,0
1228,6021003016934,新規,0,2025-12-23,2025-12-23,合同会社イロドリＡｓｓｅｔ　Ｐａｒｔｎｅｒｓ,,合同会社,神奈川県,藤沢市,川名１丁目１１－４２ＫＩＫＩＢＡＳＥＦＵＪＩＳＡＷＡ２Ｆ,,14,205,2510015,,,,,,,2025-12-23,1,,,,,イロドリアセットパートナーズ,0
1242,6040001141899,新規,0,2025-12-23,2025-12-23,株式会社ＪＯＡＴ．,,株式会社,千葉県,柏市,光ケ丘２丁目１７番１４号,,12,217,2770065,,,,,,,2025-12-23,1,,,,,ジェイオーエーティドット,0
1246,6040003029201,新規,0,2025-12-23,2025-12-23,Ｔ＆Ｄ合同会社,,合同会社,千葉県,柏市,旭町７丁目１番８号クレアホームズ柏３０９号,,12,217,2770852,,,,,,,2025-12-23,1,,,,,ティーアンドディー,0
1252,6060001038879,新規,0,2025-12-23,2025-12-23,株式会社マムリアメディカルサービス,,株式会社,栃木県,那須塩原市,方京２丁目２番地１ＫＰＥＣビル１Ｆ－Ｃ,,09,213,3293156,,,,,,,2025-12-23,1,,,,,マムリアメディカルサービス,0
1255,6070003006230,新規,0,2025-12-23,2025-12-23,合同会社Ｈｏｍａｒｅ,,合同会社,群馬県,渋川市,金井６６８－２フェルモ１０５,,10,208,3770027,,,,,,,2025-12-23,1,,,,,,0
1259,6100003008529,新規,0,2025-12-23,2025-12-23,長野アセットマネジメント合同会社,,合同会社,長野県,長野市,金井田１０３番地２Ａ－２０１,,20,201,3812222,,,,,,,2025-12-23,1,,,,,ナガノアセットマネジメント,0
1271,6120001282727,新規,0,2025-12-23,2025-12-23,株式会社ＤＵＨＡ　Ｐｒｏ,,株式会社,大阪府,大阪市阿倍野区,松崎町２丁目４－２１－２０３,,27,119,5450053,,,,,,,2025-12-23,1,,,,,ドゥーハプロ,0
1272,6120001282958,新規,0,2025-12-23,2025-12-23,株式会社Ｒｅｍｏｖａ,,株式会社,大阪府,大阪市福島区,鷺洲３丁目６番１０号,,27,103,5530002,,,,,,,2025-12-23,1,,,,,リモバ,0
1278,6120003031512,新規,0,2025-12-23,2025-12-23,合同会社Ｓａｂｉａ,,合同会社,大阪府,交野市,天野が原町２丁目３７番９号,,27,230,5760034,,,,,,,2025-12-23,1,,,,,サビア,0
1279,6120003031545,新規,0,2025-12-23,2025-12-23,合同会社大成,,合同会社,大阪府,大阪市中央区,宗右衛門町４番９号キャナルプラザ２Ｆ,,27,128,5420084,,,,,,,2025-12-23,1,,,,,タイセイ,0
1280,6120003031553,新規,0,2025-12-23,2025-12-23,合同会社ルチカグラフ,,合同会社,大阪府,大阪市中央区,瓦屋町２丁目２－９明伸ビル２階,,27,128,5420066,,,,,,,2025-12-23,1,,,,,ルチカグラフ,0
1284,6120901051966,新規,0,2025-12-23,2025-12-23,株式会社エコ富,,株式会社,大阪府,摂津市,鳥飼野々３丁目７番１９号,,27,224,5660053,,,,,,,2025-12-23,1,,,,,エコフジ,0
1285,6120901052007,新規,0,2025-12-23,2025-12-23,株式会社リボックス,,株式会社,大阪府,摂津市,鳥飼下２丁目７番地１１号Ｅ号,,27,224,5660071,,,,,,,2025-12-23,1,,,,,リボックス,0
1290,6130003011034,新規,0,2025-12-23,2025-12-23,Ｄｅｕｘ　Ｃｉｎｑ合同会社,,合同会社,京都府,京都市西京区,樫原平田町１－５８,,26,111,6158141,,,,,,,2025-12-23,1,,,,,デューサンク,0
1298,6140001141138,新規,0,2025-12-23,2025-12-23,川西空調株式会社,,株式会社,兵庫県,南あわじ市,山添８３６番地１,,28,224,6560121,,,,,,,2025-12-23,1,,,,,カワニシクウチョウ,0
1299,6140001141187,新規,0,2025-12-23,2025-12-23,株式会社Ｂｌｏｏｍ,,株式会社,兵庫県,神戸市中央区,中町通３丁目１－１６－５０２,,28,110,6500027,,,,,,,2025-12-23,1,,,,,ブルーム,0
1305,6160003003664,新規,0,2025-12-23,2025-12-23,合同会社ほそぼそ会,,合同会社,滋賀県,草津市,駒井沢町２３９番地６,,25,206,5250014,,,,,,,2025-12-23,1,,,,,ホソボソカイ,0
1315,6180001169984,新規,0,2025-12-23,2025-12-23,株式会社ユースエイト,,株式会社,愛知県,名古屋市中区,栄４丁目８番２２号第１２オーシャンビル３Ｆ,,23,106,4600008,,,,,,,2025-12-23,1,,,,,ユースエイト,0
1318,6180003029518,新規,0,2025-12-23,2025-12-23,合同会社Ｋ．Ｔグループ,,合同会社,愛知県,半田市,前田町１３２番地,,23,205,4750082,,,,,,,2025-12-23,1,,,,,ケイティーグループ,0
1319,6180003029534,新規,0,2025-12-23,2025-12-23,ＨＫＫ　Ｃａｐｉｔａｌ　Ｐａｒｔｎｅｒｓ合同会社,,合同会社,愛知県,名古屋市緑区,鳴海町字中汐田７８番地,,23,114,4580801,,,,,,,2025-12-23,1,,,,,エイチケーケーキャピタルパートナーズ,0
1324,6180301040523,新規,0,2025-12-23,2025-12-23,株式会社タノシク,,株式会社,愛知県,安城市,三河安城南町２丁目１２番地３,,23,212,4460058,,,,,,,2025-12-23,1,,,,,タノシク,0
1325,6180301040531,新規,0,2025-12-23,2025-12-23,株式会社レリアン,,株式会社,愛知県,岡崎市,薮田２丁目８番地１,,23,202,4442137,,,,,,,2025-12-23,1,,,,,レリアン,0
1326,6180303006852,新規,0,2025-12-23,2025-12-23,合同会社ねこいろ,,合同会社,愛知県,豊川市,足山田町上平２０番地１,,23,207,4411203,,,,,,,2025-12-23,1,,,,,ネコイロ,0
1335,6240001065954,新規,0,2025-12-23,2025-12-23,株式会社ＳＰＡＣＥ．９,,株式会社,広島県,広島市西区,観音町５番３１号ＭＫビル２階,,34,104,7330031,,,,,,,2025-12-23,1,,,,,スペースナイン,0
1338,6260001040831,新規,0,2025-12-23,2025-12-23,株式会社ペイントアリス,,株式会社,岡山県,総社市,中原７０１－８,,33,208,7191133,,,,,,,2025-12-23,1,,,,,ペイントアリス,0
1344,6290001112405,新規,0,2025-12-23,2025-12-23,株式会社ミックスフレーム,,株式会社,福岡県,福岡市中央区,谷１丁目９番１３号,,40,133,8100031,,,,,,,2025-12-23,1,,,,,ミックスフレーム,0
1348,6290005019919,新規,0,2025-12-23,2025-12-23,一般社団法人ＦＵＫＵＯＫＡ有明ヘルスケアネット,,その他の設立登記法人,福岡県,みやま市,高田町濃施４８０番地２,,40,229,8390215,,,,,,,2025-12-23,1,,,,,フクオカアリアケヘルスケアネット,0
1351,6300001014450,新規,0,2025-12-23,2025-12-23,Ａｕｒｅｌｉａ株式会社,,株式会社,佐賀県,佐賀市,天神１丁目２番５５号ＩＫ天神ビル２階西北号室,,41,201,8400815,,,,,,,2025-12-23,1,,,,,アウレリア,0
1372,6390001018195,新規,0,2025-12-23,2025-12-23,株式会社ＣＩＥＬＡＢＬＥ,,株式会社,山形県,酒田市,南新町１丁目４－１６,,06,204,9980063,,,,,,,2025-12-23,1,,,,,シエラブル,0
1380,6470003003039,新規,0,2025-12-23,2025-12-23,ＡｆｔＦ合同会社,,合同会社,香川県,高松市,花園町１丁目３番２２号,,37,201,7600072,,,,,,,2025-12-23,1,,,,,,0
1381,6700150133713,新規,0,2025-12-23,2025-12-23,ＺｈｅｎｇＺｈｏｕ　ＢｕＬａｉＺｅ　ＷａｎｇＬｕｏ　ＫｅＪｉ　ＹｏｕＸｉａｎＧｏｎｇＳｉ,,外国会社等,,,,,,,,Ｎｏ．３１，４ｔｈ　Ｆｌｏｏｒ，Ｕｎｉｔ　３，Ｂｕｉｌｄｉｎｇ　１８，Ｎｏ．１３３，Ｘｕｓｈｕｉｈｅ　Ｅａｓｔ　Ｒｏａｄ　Ｇａｏ　Ｘｉｎ　Ｔｅｃｈｎｏｌｏｇｙ　Ｉｎｄｕｓｔｒｉａｌ　Ｄｅｖｅｌｏｐｍｅｔ　Ｚｏｎｅ　Ｚｈｅｎｇｚｈｏｕ　Ｈｅ’ｎａｎ,,,,,,2025-12-23,1,,,,,ジョンジョウブライゼワンロウカギユウゲンコウシ,0
1382,6700150133721,新規,0,2025-12-23,2025-12-23,サイバーエージェント健康保険組合,,その他,東京都,渋谷区,千駄ヶ谷５丁目２３番５号,,13,113,1510051,,,,,,,2025-12-23,1,,,,,サイバーエージェントケンコウホケンクミアイ,0
1386,7010003049812,新規,0,2025-12-23,2025-12-23,Ｊａｐａｎ　Ｄｅｖｅｌｏｐｍｅｎｔ５ＮＮ合同会社,,合同会社,東京都,中央区,八重洲２丁目２番１号,,13,102,1040028,,,,,,,2025-12-23,1,,,,,ジャパンデベロップメントファイブエヌエヌ,0
1387,7010003049829,新規,0,2025-12-23,2025-12-23,合同会社佃島,,合同会社,東京都,中央区,佃３丁目１１－１６,,13,102,1040051,,,,,,,2025-12-23,1,,,,,ツクダジマ,0
1399,7010403036765,新規,0,2025-12-23,2025-12-23,Ｏｎｅ‐Ｏｆｆ　Ｊａｐａｎ合同会社,,合同会社,東京都,港区,北青山１丁目３番１号アールキューブ青山３階,,13,103,1070061,,,,,,,2025-12-23,1,,,,,ワンオフジャパン,0
1400,7010403036823,新規,0,2025-12-23,2025-12-23,合同会社ＹＰ,,合同会社,東京都,港区,北青山１丁目３－３三橋ビル３階,,13,103,1070061,,,,,,,2025-12-23,1,,,,,ワイピー,0
1401,7010403036831,新規,0,2025-12-23,2025-12-23,ムサ・アンド・カンパニー合同会社,,合同会社,東京都,港区,虎ノ門３丁目１８番６号,,13,103,1050001,,,,,,,2025-12-23,1,,,,,ムサアンドカンパニー,0
1402,7010403036848,新規,0,2025-12-23,2025-12-23,れなＬＡＢｏ合同会社,,合同会社,東京都,港区,麻布十番２丁目５－１１麻布メゾン６０１,,13,103,1060045,,,,,,,2025-12-23,1,,,,,レナラボ,0
1403,7010403036856,新規,0,2025-12-23,2025-12-23,合同会社ＳＧ　Ｃｏｎｓｕｌｔｉｎｇ,,合同会社,東京都,港区,南青山７丁目５－２－３０１,,13,103,1070062,,,,,,,2025-12-23,1,,,,,エスジーコンサルティング,0
1407,7010601068461,新規,0,2025-12-23,2025-12-23,株式会社アメスコテス,,株式会社,東京都,江東区,森下２丁目１９－８谷ビル３０１号,,13,108,1350004,,,,,,,2025-12-23,1,,,,,アメスコテス,0
1408,7010603011980,新規,0,2025-12-23,2025-12-23,大願成就合同会社,,合同会社,東京都,江東区,猿江２丁目３番２０－１３０１号,,13,108,1350003,,,,,,,2025-12-23,1,,,,,タイガンジョウジュ,0
1410,7010701048818,新規,0,2025-12-23,2025-12-23,株式会社ネクストＡ,,株式会社,東京都,品川区,東五反田１丁目１０番７号アイオス五反田８０８号室,,13,109,1410022,,,,,,,2025-12-23,1,,,,,ネクストエー,0
1424,7011203004912,新規,0,2025-12-23,2025-12-23,ハンズリレー合同会社,,合同会社,東京都,中野区,弥生町２丁目２３番２号ＹＭハウス２０１,,13,114,1640013,,,,,,,2025-12-23,1,,,,,ハンズリレー,0
1433,7011801047214,新規,0,2025-12-23,2025-12-23,株式会社山田組,,株式会社,東京都,足立区,千住大川町３７番７号,,13,121,1200031,,,,,,,2025-12-23,1,,,,,ヤマダグミ,0
1434,7011801047222,新規,0,2025-12-23,2025-12-23,株式会社マスコーポレーション,,株式会社,東京都,葛飾区,青戸５丁目２９番１２号,,13,122,1250062,,,,,,,2025-12-23,1,,,,,マスコーポレーション,0
1435,7012301014654,新規,0,2025-12-23,2025-12-23,株式会社ＲｏＷｚ,,株式会社,東京都,町田市,能ヶ谷５丁目２７番３号,,13,209,1950053,,,,,,,2025-12-23,1,,,,,ロウズ,0
1449,7020003030011,新規,0,2025-12-23,2025-12-23,ＳＡＲＡ合同会社,,合同会社,神奈川県,川崎市川崎区,本町２丁目９－１－５０５,,14,131,2100001,,,,,,,2025-12-23,1,,,,,サラ,0
1450,7020003030036,新規,0,2025-12-23,2025-12-23,ＷＥ合同会社,,合同会社,神奈川県,横浜市中区,桜木町１丁目１０１番地１クロスゲート７階,,14,104,2310062,,,,,,,2025-12-23,1,,,,,ウィー,0
1454,7021001087101,新規,0,2025-12-23,2025-12-23,株式会社ｚｏｋｕ,,株式会社,神奈川県,藤沢市,辻堂２丁目５番１号トレンディー辻堂３０８,,14,205,2510047,,,,,,,2025-12-23,1,,,,,ゾク,0
1457,7021003016933,新規,0,2025-12-23,2025-12-23,アライクリエーション合同会社,,合同会社,神奈川県,大和市,中央林間３丁目８番３号,,14,213,2420007,,,,,,,2025-12-23,1,,,,,アライクリエーション,0
1458,7021003016966,新規,0,2025-12-23,2025-12-23,光ワークス合同会社,,合同会社,神奈川県,大和市,福田４丁目１１－２パークヒル弐番館４０５,,14,213,2420024,,,,,,,2025-12-23,1,,,,,ヒカリワークス,0
1464,7030003028327,新規,0,2025-12-23,2025-12-23,合同会社ハレルヤ,,合同会社,埼玉県,北本市,下石戸６丁目１９番地,,11,233,3640028,,,,,,,2025-12-23,1,,,,,ハレルヤ,0
1468,7040001141840,新規,0,2025-12-23,2025-12-23,株式会社ＳＥＣＯＮＤ,,株式会社,千葉県,船橋市,前貝塚町１００５番地１ポモドーロｙ－２０８号,,12,204,2730042,,,,,,,2025-12-23,1,,,,,セカンド,0
1469,7040001141873,新規,0,2025-12-23,2025-12-23,株式会社Ｙ＆Ｍリアルエステートマネージメント,,株式会社,千葉県,八千代市,上高野１５６２番地８３,,12,221,2760022,,,,,,,2025-12-23,1,,,,,ワイアンドエムリアルエステートマネージメント,0
1474,7040003029217,新規,0,2025-12-23,2025-12-23,フジトレ・ウィステリア合同会社,,合同会社,千葉県,松戸市,常盤平柳町２６番地の１５,,12,207,2702263,,,,,,,2025-12-23,1,,,,,フジトレウィステリア,0
1475,7040005022987,新規,0,2025-12-23,2025-12-23,特定非営利活動法人いかろす,,その他の設立登記法人,千葉県,柏市,南増尾５丁目２３番３９号,,12,217,2770054,,,,,,,2025-12-23,1,,,,,イカロス,0
1477,7050001057788,新規,0,2025-12-23,2025-12-23,リトル株式会社,,株式会社,茨城県,筑西市,中舘２３５３番地,,08,227,3080005,,,,,,,2025-12-23,1,,,,,リトル,0
1497,7120001282899,新規,0,2025-12-23,2025-12-23,創株式会社,,株式会社,大阪府,大阪市都島区,内代町１丁目４番１７－２０６号,,27,102,5340013,,,,,,,2025-12-23,1,,,,,ソウ,0
1498,7120001282924,新規,0,2025-12-23,2025-12-23,ＶＡＮＴＡＧＥ　ＬＡＮＤ株式会社,,株式会社,大阪府,大阪市淀川区,西中島６丁目５－３サムティフェイム新大阪Ｉ号館５０８,00141982,27,123,5320011,,,,,,,2025-12-23,1,,,,,ヴァンテージランド,0
1499,7120001282940,新規,0,2025-12-23,2025-12-23,株式会社ＨＡＹＯＹＡＲＵ,,株式会社,大阪府,交野市,星田北７丁目１７番１０号,,27,230,5760017,,,,,,,2025-12-23,1,,,,,ハヨヤル,0
1500,7120001282949,新規,0,2025-12-23,2025-12-23,リタ・ユナイテッド株式会社,,株式会社,大阪府,大阪市福島区,鷺洲１丁目７番２５－１００２号,,27,103,5530002,,,,,,,2025-12-23,1,,,,,リタユナイテッド,0
1501,7120001282973,新規,0,2025-12-23,2025-12-23,株式会社いつもんとこ,,株式会社,大阪府,大阪市淀川区,西中島６丁目６番６号ＮＬＣ新大阪１１号館５Ｆ,,27,123,5320011,,,,,,,2025-12-23,1,,,,,イツモントコ,0
1502,7120001282981,新規,0,2025-12-23,2025-12-23,株式会社Ｃｏ６,,株式会社,大阪府,大阪市生野区,中川６丁目８番１３号,,27,116,5440005,,,,,,,2025-12-23,1,,,,,シーオーロク,0
1504,7120003031536,新規,0,2025-12-23,2025-12-23,合同会社オーブハウス,,合同会社,大阪府,大阪市北区,梅田１丁目２番２号大阪駅前第２ビル１２－１２,,27,127,5300001,,,,,,,2025-12-23,1,,,,,オーブハウス,0
1505,7120003031544,新規,0,2025-12-23,2025-12-23,合同会社Ｆｏｒｗａｒｄ　Ｗｏｒｋｓ,,合同会社,大阪府,大阪市城東区,古市３丁目２４番９号,,27,118,5360001,,,,,,,2025-12-23,1,,,,,フォワードワークス,0
1506,7120003031552,新規,0,2025-12-23,2025-12-23,ＥＡＲＮ合同会社,,合同会社,大阪府,大阪市淀川区,西中島２丁目１２番８－７０６号,,27,123,5320011,,,,,,,2025-12-23,1,,,,,アーン,0
1511,7120105010082,新規,0,2025-12-23,2025-12-23,一般社団法人至誠男塾,,その他の設立登記法人,大阪府,堺市南区,野々井１７６番地１,,27,145,5900155,,,,,,,2025-12-23,1,,,,,シセイオトコジュク,0
1520,7130001081251,新規,0,2025-12-23,2025-12-23,Ｐ＆Ｆ　ＢＵＩＬＤＥＲ株式会社,,株式会社,京都府,京都市伏見区,醍醐内ケ井戸１８－１音羽の杜倉庫２Ｆ－１,,26,109,6011302,,,,,,,2025-12-23,1,,,,,ピーアンドエフビルダー,0
1521,7130001081276,新規,0,2025-12-23,2025-12-23,おがわ工建株式会社,,株式会社,京都府,京都市西京区,川島東代町４８番地４２,,26,111,6158101,,,,,,,2025-12-23,1,,,,,オガワコウケン,0
1522,7130003011025,新規,0,2025-12-23,2025-12-23,合同会社Ｋｏｍａｎｏ　Ｐｒｉｍｏ,,合同会社,京都府,木津川市,木津宮ノ裏２００番地７,,26,214,6190214,,,,,,,2025-12-23,1,,,,,コマノプリモ,0
1528,7160003003688,新規,0,2025-12-23,2025-12-23,合同会社ＰＬＵＳＦ,,合同会社,滋賀県,野洲市,三上１９２４－６,,25,210,5202323,,,,,,,2025-12-23,1,,,,,プラスエフ,0
1532,7180001169983,新規,0,2025-12-23,2025-12-23,株式会社ユースＨＤ,,株式会社,愛知県,名古屋市中区,栄５丁目５番３５号プレサンスロジェ栄パークサウス１３０１号,,23,106,4600008,,,,,,,2025-12-23,1,,,,,ユースエイチディー,0
1533,7180001170033,新規,0,2025-12-23,2025-12-23,株式会社ＭＯＬ,,株式会社,愛知県,尾張旭市,三郷町栄５０－２グリーンピア三郷１Ｂ,,23,226,4880015,,,,,,,2025-12-23,1,,,,,エムオーエル,0
1539,7180003029533,新規,0,2025-12-23,2025-12-23,モンエトワール合同会社,,合同会社,愛知県,名古屋市中区,丸の内２丁目１５番１１号,,23,106,4600002,,,,,,,2025-12-23,1,,,,,モンエトワール,0
1557,7240001065862,新規,0,2025-12-23,2025-12-23,株式会社アットポプラ,,株式会社,広島県,廿日市市,串戸４丁目２番１６号,,34,213,7380033,,,,,,,2025-12-23,1,,,,,アットポプラ,0
1558,7240001065961,新規,0,2025-12-23,2025-12-23,株式会社Ｐａｔｈｗｉｌｌ,,株式会社,広島県,広島市中区,大手町１丁目１番２０号相生橋ビル７階Ａ号室,,34,101,7300051,,,,,,,2025-12-23,1,,,,,パスウィル,0
1563,7250001021476,新規,0,2025-12-23,2025-12-23,株式会社晴れ屋,,株式会社,山口県,山口市,小郡新町１丁目１７番１２号,,35,203,7540031,,,,,,,2025-12-23,1,,,,,ハレヤ,0
1570,7290001112627,新規,0,2025-12-23,2025-12-23,株式会社ルナ,,株式会社,福岡県,福岡市中央区,長浜２丁目２番８－３０８号,,40,133,8100072,,,,,,,2025-12-23,1,,,,,ルナ,0
1573,7290003017865,新規,0,2025-12-23,2025-12-23,合同会社ユナイト,,合同会社,福岡県,福岡市博多区,博多駅南５丁目１０－１８,,40,132,8120016,,,,,,,2025-12-23,1,,,,,ユナイト,0
1574,7290003017873,新規,0,2025-12-23,2025-12-23,合同会社シーアンドピーワークス,,合同会社,福岡県,福岡市早良区,西新５丁目６番５号楢木荘２Ｆ６号室,,40,137,8140002,,,,,,,2025-12-23,1,,,,,シーアンドピーワークス,0
1575,7290003017881,新規,0,2025-12-23,2025-12-23,合同会社Ｍ３Ｋ管理事務所,,合同会社,福岡県,福岡市早良区,飯倉３丁目３番８－３０１号Ｄ－ＲＯＯＭ飯倉３丁目,,40,137,8140161,,,,,,,2025-12-23,1,,,,,エムスリーケーカンリジムショ,0
1578,7290805009886,新規,0,2025-12-23,2025-12-23,一般社団法人栄養科学研究所,,その他の設立登記法人,福岡県,北九州市小倉北区,宇佐町２丁目６番１８－１０２号,,40,106,8020016,,,,,,,2025-12-23,1,,,,,エイヨウカガクケンキュウジョ,0
1608,7430001095849,新規,0,2025-12-23,2025-12-23,環メタル株式会社,,株式会社,北海道,空知郡南幌町,字夕張太７７８番地１,,01,423,0690200,,,,,,,2025-12-23,1,,,,,カンメタル,0
1623,7700150133720,新規,0,2025-12-23,2025-12-23,ＴＤＫ健康保険組合,,その他,東京都,中央区,日本橋２丁目５番１号,,13,102,1030027,,,,,,,2025-12-23,1,,,,,ティーディーケイケンコウホケンクミアイ,0
1629,8010001261038,新規,0,2025-12-23,2025-12-23,株式会社カナエルワークス,,株式会社,東京都,中央区,銀座１丁目１２番４号Ｎ＆ＥＢＬＤ．６Ｆ,,13,102,1040061,,,,,,,2025-12-23,1,,,,,カナエルワークス,0
1630,8010001261401,新規,0,2025-12-23,2025-12-23,株式会社採用パートナーズ,,株式会社,東京都,文京区,本郷２丁目２５番１５号,,13,105,1130033,,,,,,,2025-12-23,1,,,,,サイヨウパートナーズ,0
1631,8010001261467,新規,0,2025-12-23,2025-12-23,株式会社データレッジ,,株式会社,東京都,千代田区,神田須田町１丁目７番８号ＶＯＲＴ秋葉原ＩＶ２Ｆ,,13,101,1010041,,,,,,,2025-12-23,1,,,,,データレッジ,0
1634,8010401195208,新規,0,2025-12-23,2025-12-23,株式会社Ｓｏｌｕｔｅｎａ,,株式会社,東京都,港区,赤坂２丁目５－８ヒューリックＪＰ赤坂ビル３Ｆ,,13,103,1070052,,,,,,,2025-12-23,1,,,,,,0
1635,8010401195372,新規,0,2025-12-23,2025-12-23,ブッチ・ジャパン株式会社,,株式会社,東京都,港区,芝大門１丁目２番１４号Ｈ１Ｏ浜松町８０５号室,,13,103,1050012,,,,,,,2025-12-23,1,,,,,ブッチジャパン,0
1636,8010401195380,新規,0,2025-12-23,2025-12-23,株式会社ＧＴＧＰ３,,株式会社,東京都,港区,南青山４丁目２２番１号王子ホームズ青山２０７,,13,103,1070062,,,,,,,2025-12-23,1,,,,,ジーティージーピースリー,0
1639,8010403036896,新規,0,2025-12-23,2025-12-23,合同会社ＴＧ　ＣＡＰＩＴＡＬ,,合同会社,東京都,港区,南麻布２丁目２番４－４０２号,,13,103,1060047,,,,,,,2025-12-23,1,,,,,ティージーキャピタル,0
1645,8010701048791,新規,0,2025-12-23,2025-12-23,株式会社ＮＵＬＬ．ＴＥＣＨＮＯＬＯＧＹ,,株式会社,東京都,品川区,東五反田１丁目１４番１号ミノシンビル３階,,13,109,1410022,,,,,,,2025-12-23,1,,,,,ナルテクノロジー,0
1646,8010701048817,新規,0,2025-12-23,2025-12-23,株式会社ＴＡＣＳ,,株式会社,東京都,品川区,東五反田２丁目３番５号五反田中央ビル７階,,13,109,1410022,,,,,,,2025-12-23,1,,,,,タックス,0
1647,8010703008050,新規,0,2025-12-23,2025-12-23,合同会社翁,,合同会社,東京都,品川区,西五反田１丁目２６番２号五反田サンハイツ９１１,,13,109,1410031,,,,,,,2025-12-23,1,,,,,オキナ,0
1650,8010901058698,新規,0,2025-12-23,2025-12-23,株式会社ヴィニート,,株式会社,東京都,世田谷区,太子堂５丁目３１番６号,,13,112,1540004,,,,,,,2025-12-23,1,,,,,ヴィニート,0
1652,8011001174493,新規,0,2025-12-23,2025-12-23,株式会社ＣＯＬＯＲ　ＣＯＲＥ,,株式会社,東京都,渋谷区,東３丁目２５番３号,,13,113,1500011,,,,,,,2025-12-23,1,,,,,,0
1653,8011001174519,新規,0,2025-12-23,2025-12-23,株式会社アートの星,,株式会社,東京都,渋谷区,恵比寿４丁目２０番３号恵比寿ガーデンプレイスタワー２７階ＣＯＥＢＩ内,,13,113,1500013,,,,,,,2025-12-23,1,,,,,アートノホシ,0
1654,8011003023153,新規,0,2025-12-23,2025-12-23,Ｏｘｃｒｅｓｔ合同会社,,合同会社,東京都,渋谷区,恵比寿西１丁目１４番地４号シティーホームズ恵比寿３０５,,13,113,1500021,,,,,,,2025-12-23,1,,,,,オックスクレスト,0
1665,8011701029047,新規,0,2025-12-23,2025-12-23,Ｒ・Ｆ株式会社,,株式会社,東京都,江戸川区,北小岩２丁目５番１２号,,13,123,1330051,,,,,,,2025-12-23,1,,,,,アールエフ,0
1683,8020003030019,新規,0,2025-12-23,2025-12-23,合同会社レインパレス,,合同会社,神奈川県,川崎市高津区,二子３丁目３３番８号,,14,134,2130002,,,,,,,2025-12-23,1,,,,,レインパレス,0
1684,8020003030027,新規,0,2025-12-23,2025-12-23,消防メンテ合同会社,,合同会社,神奈川県,横浜市旭区,西川島町９６番地３４,,14,112,2410012,,,,,,,2025-12-23,1,,,,,ショウボウメンテ,0
1688,8021003016932,新規,0,2025-12-23,2025-12-23,ＷＨＩＴＥ　ＷＡＮＤＥＲ合同会社,,合同会社,神奈川県,鎌倉市,七里ガ浜１丁目４－１１トライアングル七里ヶ浜Ｂ１Ｆ,,14,204,2480026,,,,,,,2025-12-23,1,,,,,ホワイトワンダー,0
1693,8030001170278,新規,0,2025-12-23,2025-12-23,株式会社Ａ＆Ｓ,,株式会社,埼玉県,三郷市,鷹野３丁目１１８番地２,,11,237,3410035,,,,,,,2025-12-23,1,,,,,エーアンドエス,0
1702,8040001141889,新規,0,2025-12-23,2025-12-23,株式会社Ｌｏｖｉｎ　Ｅｄｕｃａｔｉｏｎａｌ　Ｊａｐａｎ,,株式会社,千葉県,市原市,海保４８５番地７,,12,219,2900266,,,,,,,2025-12-23,1,,,,,ラビンエデュケーショナルジャパン,0
1711,8050001057779,新規,0,2025-12-23,2025-12-23,株式会社ハピネスサポート,,株式会社,茨城県,牛久市,牛久町３０２０番地の２３,,08,219,3001221,,,,,,,2025-12-23,1,,,,,ハピネスサポート,0
1712,8050001057787,新規,0,2025-12-23,2025-12-23,株式会社ユニバーサル,,株式会社,茨城県,牛久市,ひたち野東３丁目２８番地２０,,08,219,3001207,,,,,,,2025-12-23,1,,,,,ユニバーサル,0
1721,8080101025971,新規,0,2025-12-23,2025-12-23,ＣＵＢＥ株式会社,,株式会社,静岡県,富士市,伝法１８７８番地,,22,210,4170061,,,,,,,2025-12-23,1,,,,,キューブ,0
1734,8110003006001,新規,0,2025-12-23,2025-12-23,合同会社ＳｍｉｌｅＦｏｏｄｓ,,合同会社,新潟県,新潟市西蒲区,巻乙３３３－２ハイツ朱の鷺Ｉ１０５号,00141978,15,108,9530044,,,,,,,2025-12-23,1,,,,,スマイルフーズ,0
1746,8120001282898,新規,0,2025-12-23,2025-12-23,株式会社Ｓキーパーズ関西,,株式会社,大阪府,大阪市北区,東天満１丁目１１番１５号若杉グランドビル別館８０１号室,,27,127,5300044,,,,,,,2025-12-23,1,,,,,エスキーパーズカンサイ,0
1747,8120001282948,新規,0,2025-12-23,2025-12-23,株式会社ひひーんファーム,,株式会社,大阪府,大阪市天王寺区,東高津町１２番７－７０１号,,27,109,5430021,,,,,,,2025-12-23,1,,,,,ヒヒーンファーム,0
1755,8120901052005,新規,0,2025-12-23,2025-12-23,ＯＮＥ　ＦＲＡＣＴＩＯＮ株式会社,,株式会社,大阪府,豊中市,浜１丁目１番２８号,,27,203,5610817,,,,,,,2025-12-23,1,,,,,ワンフラクション,0
1762,8130001081226,新規,0,2025-12-23,2025-12-23,れあ株式会社,,株式会社,京都府,京都市下京区,高倉通松原上る葛籠屋町５１３番地べラジオみやび１０３,,26,106,6008085,,,,,,,2025-12-23,1,,,,,レア,0
1767,8140001141185,新規,0,2025-12-23,2025-12-23,株式会社Ｊｉｌｌ．ｎｅｔ,,株式会社,兵庫県,尼崎市,西難波町４丁目５番２０－７０３号,,28,202,6600893,,,,,,,2025-12-23,1,,,,,ジルネット,0
1768,8140001141193,新規,0,2025-12-23,2025-12-23,株式会社Ｒｏｃａｌａｃｔ,,株式会社,兵庫県,神戸市灘区,高羽町５丁目４番１０－１０５号,,28,102,6570023,,,,,,,2025-12-23,1,,,,,ロカラクト,0
1770,8150003003787,新規,0,2025-12-23,2025-12-23,エムテラス合同会社,,合同会社,奈良県,北葛城郡河合町,大字大輪田１９０４番地２,,29,427,6360093,,,,,,,2025-12-23,1,,,,,エムテラス,0
1782,8180001170016,新規,0,2025-12-23,2025-12-23,株式会社オフィスＭＯＴＥＫＩ,,株式会社,愛知県,名古屋市昭和区,阿由知通２丁目１４番地の２,,23,107,4660027,,,,,,,2025-12-23,1,,,,,オフィスモテキ,0
1785,8180003029524,新規,0,2025-12-23,2025-12-23,合同会社安藤志塾,,合同会社,愛知県,名古屋市東区,矢田３丁目１１‐８,,23,102,4610040,,,,,,,2025-12-23,1,,,,,アンドウシジュク,0
1789,8180305009752,新規,0,2025-12-23,2025-12-23,農事組合法人西金野生産組合,,その他の設立登記法人,愛知県,豊川市,御津町金野中畑２６番地１,,23,207,4410323,,,,,,,2025-12-23,1,,,,,ニシカネノセイサンクミアイ,0
1795,8200001044555,新規,0,2025-12-23,2025-12-23,株式会社ウルル,,株式会社,岐阜県,下呂市,小川１０６４－２,,21,220,5092203,,,,,,,2025-12-23,1,,,,,ウルル,0
1803,8230003002558,新規,0,2025-12-23,2025-12-23,合同会社ベリー,,合同会社,富山県,高岡市,中曽根５２７番地１,,16,202,9340092,,,,,,,2025-12-23,1,,,,,ベリー,0
1818,8290001112634,新規,0,2025-12-23,2025-12-23,株式会社ＡｉＳｏａｒ,,株式会社,福岡県,福岡市西区,西都２丁目９番１３号,,40,135,8190367,,,,,,,2025-12-23,1,,,,,アイソア,0
1820,8290005019925,新規,0,2025-12-23,2025-12-23,医療法人まめはな会,,その他の設立登記法人,福岡県,福岡市南区,若久１丁目１番５号,,40,134,8150042,,,,,,,2025-12-23,1,,,,,マメハナカイ,0
1831,8360003015497,新規,0,2025-12-23,2025-12-23,合同会社ベストコンサル,,合同会社,沖縄県,那覇市,前島３丁目１２番１号石敢當,,47,201,9000016,,,,,,,2025-12-23,1,,,,,ベストコンサル,0
1834,8390001018193,新規,0,2025-12-23,2025-12-23,株式会社Ｂ．Ａ．Ａ．ＯＦＦＩＣＥ,,株式会社,山形県,山形市,城西町２丁目３番１５号,,06,201,9900832,,,,,,,2025-12-23,1,,,,,ビーエーエーオフィス,0
1837,8430001095914,新規,0,2025-12-23,2025-12-23,株式会社魚司,,株式会社,北海道,小樽市,幸３丁目２番６号,,01,203,0470037,,,,,,,2025-12-23,1,,,,,ウオツカ,0
1849,9010005041105,新規,0,2025-12-23,2025-12-23,一般社団法人かぜとしずく,,その他の設立登記法人,東京都,中央区,八丁堀２丁目１３番２－２０２号,,13,102,1040032,,,,,,,2025-12-23,1,,,,,カゼトシズク,0
1855,9010401195108,新規,0,2025-12-23,2025-12-23,Ｆｉｒｓｔｂａｓｅ　Ｊａｐａｎ株式会社,,株式会社,東京都,港区,赤坂２丁目２３番１号アークヒルズ・フロントタワーＩｎＣｏｎｔｒｏｌ内,,13,103,1070052,,,,,,,2025-12-23,1,,,,,ファーストベースジャパン,0
1856,9010401195264,新規,0,2025-12-23,2025-12-23,株式会社Ｌｅｏｎｄ,,株式会社,東京都,港区,北青山１丁目３番１号アールキューブ青山３階,,13,103,1070061,,,,,,,2025-12-23,1,,,,,レオンド,0
1857,9010401195272,新規,0,2025-12-23,2025-12-23,株式会社ＣａｎｖａｓＯＮＥ,,株式会社,東京都,港区,北青山１丁目３－３三橋ビル３階,,13,103,1070061,,,,,,,2025-12-23,1,,,,,キャンバスワン,0
1858,9010403036838,新規,0,2025-12-23,2025-12-23,合同会社Ｒｙｏｕ,,合同会社,東京都,港区,浜松町２丁目２番１５号浜松町ダイヤビル２Ｆ,,13,103,1050013,,,,,,,2025-12-23,1,,,,,リョウ,0
1859,9010403036846,新規,0,2025-12-23,2025-12-23,合同会社ブロカント,,合同会社,東京都,港区,赤坂３丁目１２番１０号赤坂サンビル新館５階Ｂ室,,13,103,1070052,,,,,,,2025-12-23,1,,,,,ブロカント,0
1860,9010403036854,新規,0,2025-12-23,2025-12-23,合同会社阪川企画,,合同会社,東京都,港区,南青山２丁目２２番４－８０４号,,13,103,1070062,,,,,,,2025-12-23,1,,,,,サカガワキカク,0
1863,9010603011979,新規,0,2025-12-23,2025-12-23,合同会社キッチンハーモニー,,合同会社,東京都,墨田区,業平４丁目４番４－３０２号久保ビル,,13,107,1300002,,,,,,,2025-12-23,1,,,,,キッチンハーモニー,0
1864,9010603011987,新規,0,2025-12-23,2025-12-23,合同会社マッコウ社,,合同会社,東京都,江東区,塩浜１丁目４番３３‐８４８号,,13,108,1350043,,,,,,,2025-12-23,1,,,,,マッコウシャ,0
1866,9010801036910,新規,0,2025-12-23,2025-12-23,株式会社テンオーバーナイン,,株式会社,東京都,大田区,南馬込５丁目１５番８－４０３号,,13,111,1430025,,,,,,,2025-12-23,1,,,,,テンオーバーナイン,0
1875,9011001174518,新規,0,2025-12-23,2025-12-23,株式会社Ｐｌａｙｆｕｌ　Ｐｅａｒｌｓ,,株式会社,東京都,渋谷区,恵比寿４丁目２０番３号恵比寿ガーデンプレイスタワー２７階ＣＯＥＢＩ内,,13,113,1500013,,,,,,,2025-12-23,1,,,,,プレイフルパールズ,0
1876,9011003023235,新規,0,2025-12-23,2025-12-23,ＫＯＨＡＬ合同会社,,合同会社,東京都,渋谷区,円山町５番３号ＭＩＥＵＸ渋谷ビル８階,,13,113,1500044,,,,,,,2025-12-23,1,,,,,コハル,0
1883,9011801047220,新規,0,2025-12-23,2025-12-23,株式会社Ｎａｎｏ　ｌｉｆｅ,,株式会社,東京都,足立区,扇１丁目１５－７ルフォン扇大橋９０７号室,,13,121,1230873,,,,,,,2025-12-23,1,,,,,ナノライフ,0
1884,9012301014652,新規,0,2025-12-23,2025-12-23,株式会社ＳＡＧＭＩＴ,,株式会社,東京都,町田市,原町田１丁目４番１０－７０２号,,13,209,1940013,,,,,,,2025-12-23,1,,,,,サグミット,0
1886,9012803003954,新規,0,2025-12-23,2025-12-23,合同会社ラーク,,合同会社,東京都,日野市,石田２丁目７番地の９,,13,212,1910021,,,,,,,2025-12-23,1,,,,,ラーク,0
1893,9020001166383,新規,0,2025-12-23,2025-12-23,株式会社アバウトユアシティ,,株式会社,神奈川県,横浜市中区,日本大通３３神奈川県住宅供給公社ビル１Ｆ＃３１４,,14,104,2310021,,,,,,,2025-12-23,1,,,,,アバウトユアシティ,0
1894,9020001166417,新規,0,2025-12-23,2025-12-23,株式会社ＴＯＩ・ＳＴＯＲＹ,,株式会社,神奈川県,横浜市中区,宮川町２丁目３０番地７‐１Ｆ,,14,104,2310065,,,,,,,2025-12-23,1,,,,,トイストーリー,0
1895,9020003029984,新規,0,2025-12-23,2025-12-23,合同会社古澤流舞道,,合同会社,神奈川県,横浜市中区,山下町８６－１－２０８,,14,104,2310023,,,,,,,2025-12-23,1,,,,,フルサワリュウマイノミチ,0
1896,9020003030034,新規,0,2025-12-23,2025-12-23,旭ドルフィンズ合同会社,,合同会社,神奈川県,横浜市港北区,高田東１丁目１０－３－３,,14,109,2230065,,,,,,,2025-12-23,1,,,,,アサヒドルフィンズ,0
1898,9021001087108,新規,0,2025-12-23,2025-12-23,オモムキ株式会社,,株式会社,神奈川県,茅ヶ崎市,萩園１４４５番地３,,14,207,2530071,,,,,,,2025-12-23,1,,,,,オモムキ,0
1899,9021003016898,新規,0,2025-12-23,2025-12-23,合同会社サードリテイリング,,合同会社,神奈川県,藤沢市,高倉１２３３－５,,14,205,2520802,,,,,,,2025-12-23,1,,,,,サードリテイリング,0
1900,9021005013497,新規,0,2025-12-23,2025-12-23,一般社団法人林信明財託,,その他の設立登記法人,神奈川県,鎌倉市,岡本１丁目９番３２号,,14,204,2470072,,,,,,,2025-12-23,1,,,,,ハヤシノブアキザイタク,0
1907,9040001061269,新規,0,2025-12-23,2025-12-23,入半建設株式会社,,株式会社,千葉県,匝瑳郡野栄町,野手１６８６－１番,,12,382,2893100,,,,,,,2025-12-23,1,,,,,イリナカケンセツ,0
1912,9040001141946,新規,0,2025-12-23,2025-12-23,株式会社ｗｉｌｌ,,株式会社,千葉県,市原市,有秋台東３丁目５番地１６,,12,219,2990124,,,,,,,2025-12-23,1,,,,,ウィル,0
1916,9050001057745,新規,0,2025-12-23,2025-12-23,株式会社善建築,,株式会社,茨城県,古河市,本町４丁目２番２７号５Ｆ梅,,08,204,3060023,,,,,,,2025-12-23,1,,,,,ゼンケンチク,0
1923,9070001043669,新規,0,2025-12-23,2025-12-23,株式会社レグルス,,株式会社,群馬県,高崎市,並榎町４３８番地７,,10,202,3700802,,,,,,,2025-12-23,1,,,,,レグルス,0
1924,9070001043677,新規,0,2025-12-23,2025-12-23,株式会社楽,,株式会社,群馬県,前橋市,関根町２丁目３７番地１０,,10,201,3710047,,,,,,,2025-12-23,1,,,,,ガク,0
1949,9120001282947,新規,0,2025-12-23,2025-12-23,株式会社Ｔｓｕｍｕ,,株式会社,大阪府,大阪市浪速区,湊町２丁目２番５－８２１号,,27,111,5560017,,,,,,,2025-12-23,1,,,,,ツム,0
1950,9120001282955,新規,0,2025-12-23,2025-12-23,株式会社ＧｒｉｔＷｏｒｋｓ,,株式会社,大阪府,大阪市北区,梅田１丁目２番２号大阪駅前第２ビル１２－１２,,27,127,5300001,,,,,,,2025-12-23,1,,,,,グリットワークス,0
1951,9120003031468,新規,0,2025-12-23,2025-12-23,合同会社友,,合同会社,大阪府,大阪市淀川区,加島２丁目２－４０,,27,123,5320031,,,,,,,2025-12-23,1,,,,,トモ,0
1952,9120003031534,新規,0,2025-12-23,2025-12-23,合同会社ＣＴ,,合同会社,大阪府,大阪市北区,天満２丁目７番２１号マジェスティ天満橋４０３号室,,27,127,5300043,,,,,,,2025-12-23,1,,,,,シーティー,0
1953,9120003031542,新規,0,2025-12-23,2025-12-23,合同会社イワタ,,合同会社,大阪府,大阪市浪速区,浪速東１丁目２番２４－１５０１号,,27,111,5560025,,,,,,,2025-12-23,1,,,,,イワタ,0
1960,9120901051996,新規,0,2025-12-23,2025-12-23,株式会社フエル,,株式会社,大阪府,吹田市,円山町５２番４７号,,27,205,5640061,,,,,,,2025-12-23,1,,,,,フエル,0
1961,9120901052004,新規,0,2025-12-23,2025-12-23,株式会社ａｒｉａｌｉｖｅ,,株式会社,大阪府,吹田市,山手町１丁目１９－１５,,27,205,5640073,,,,,,,2025-12-23,1,,,,,アリアライブ,0
1988,9180001169981,新規,0,2025-12-23,2025-12-23,金誠ライフ株式会社,,株式会社,愛知県,名古屋市中区,新栄２丁目２４番４号利信ビル３０６号室,,23,106,4600007,,,,,,,2025-12-23,1,,,,,キンセイライフ,0
1989,9180001170007,新規,0,2025-12-23,2025-12-23,株式会社ＮＲ,,株式会社,愛知県,名古屋市中川区,東中島町６丁目３２番地,,23,110,4540866,,,,,,,2025-12-23,1,,,,,エヌアール,0
1990,9180001170031,新規,0,2025-12-23,2025-12-23,ＫＮＴソリューション株式会社,,株式会社,愛知県,西春日井郡豊山町,大字豊場字若宮６０番地,,23,342,4800202,,,,,,,2025-12-23,1,,,,,ケーエヌティーソリューション,0
1993,9180003029515,新規,0,2025-12-23,2025-12-23,合同会社ＦＵＷＡＧＯ,,合同会社,愛知県,一宮市,千秋町佐野字郷前２８番地千秋マンション２０２号,,23,203,4910804,,,,,,,2025-12-23,1,,,,,フワゴ,0
2002,9190005012105,新規,0,2025-12-23,2025-12-23,ＮＰＯ法人さむらい,,その他の設立登記法人,三重県,桑名市,伝馬町４９番地,,24,205,5110045,,,,,,,2025-12-23,1,,,,,サムライ,0
2005,9200003007179,新規,0,2025-12-23,2025-12-23,合同会社Ｆｉｒｓｔ　Ｌｉｎｋ,,合同会社,岐阜県,岐阜市,徹明通４丁目６－１０エムズビル４Ａ号室,,21,201,5008879,,,,,,,2025-12-23,1,,,,,ファーストリンク,0
2015,9240003007530,新規,0,2025-12-23,2025-12-23,合同会社３６９ＡＭＡＨＩＲＯ,,合同会社,広島県,三次市,廻神町１９３９番地１,,34,209,7296213,,,,,,,2025-12-23,1,,,,,ミロクアマヒロ,0
2018,9260001040837,新規,0,2025-12-23,2025-12-23,ストロウブ株式会社,,株式会社,岡山県,高梁市,本町２２番地,,33,209,7160011,,,,,,,2025-12-23,1,,,,,ストロウブ,0
2022,9260003005458,新規,0,2025-12-23,2025-12-23,合同会社ＮＡＧＯＭＩＹＡ,,合同会社,岡山県,岡山市北区,津島南１丁目７番４５－７号,,33,101,7000085,,,,,,,2025-12-23,1,,,,,ナゴミヤ,0
2031,9290001112600,新規,0,2025-12-23,2025-12-23,株式会社Ｄｕｋｅ,,株式会社,福岡県,福岡市博多区,中洲２丁目５番１３号第２ラインビル６階１号室,,40,132,8100801,,,,,,,2025-12-23,1,,,,,デューク,0
2032,9290001112617,新規,0,2025-12-23,2025-12-23,Ａ．アセット株式会社,,株式会社,福岡県,福岡市博多区,吉塚４丁目１１番３４号,,40,132,8120041,,,,,,,2025-12-23,1,,,,,エーアセット,0
2034,9290005019916,新規,0,2025-12-23,2025-12-23,医療法人Ｂａｌａｎｃｅｄ,,その他の設立登記法人,福岡県,古賀市,天神４丁目１３番１号,,40,223,8113101,,,,,,,2025-12-23,1,,,,,バランスド,0
2037,9300003002392,新規,0,2025-12-23,2025-12-23,合同会社海紹陽,,合同会社,佐賀県,佐賀市,伊勢町８番１２号,,41,201,8400844,,,,,,,2025-12-23,1,,,,,カイショウヨウ,0
2043,9330003011366,新規,0,2025-12-23,2025-12-23,合同会社ゲンデル,,合同会社,熊本県,玉名郡長洲町,大字清源寺２８９３番地１,,43,368,8690105,,,,,,,2025-12-23,1,,,,,ゲンデル,0
2048,9370001053340,新規,0,2025-12-23,2025-12-23,株式会社花の和,,株式会社,宮城県,仙台市泉区,南中山１丁目２７番地の２９５,,04,105,9813213,,,,,,,2025-12-23,1,,,,,ハナノワ,0
2057,9430001095905,新規,0,2025-12-23,2025-12-23,株式会社ピクシス・リハビリテーションデザイン,,株式会社,北海道,札幌市中央区,南五条西１５丁目２番３－５０３号,,01,101,0640805,,,,,,,2025-12-23,1,,,,,ピクシスリハビリテーションデザイン,0
2058,9430001095913,新規,0,2025-12-23,2025-12-23,株式会社ラウシップ,,株式会社,北海道,札幌市中央区,宮の森四条６丁目２番２０号,,01,101,0640954,,,,,,,2025-12-23,1,,,,,ラウシップ,0
2064,9470003003028,新規,0,2025-12-23,2025-12-23,Ｒｅｒｉｘ合同会社,,合同会社,香川県,高松市,郷東町４６６番地１アイランドコート６０４,,37,201,7618031,,,,,,,2025-12-23,1,,,,,レリクス,0
2067,9700150133719,新規,0,2025-12-23,2025-12-23,田辺ファーマ健康保険組合,,その他,大阪府,大阪市中央区,道修町３丁目２番１０号,,27,128,5410045,,,,,,,2025-12-23,1,,,,,タナベファーマケンコウホケンクミアイ,0
