sequenceNumber,corporateNumber,process,correct,updateDate,changeDate,name,nameImageId,kind,prefectureName,cityName,streetNumber,addressImageId,prefectureCode,cityCode,postCode,addressOutside,addressOutsideImageId,closeDate,closeCause,successorCorporateNumber,changeCause,assignmentDate,latest,enName,enPrefectureName,enCityName,enAddressOutside,furigana,hihyoji
29,1010601040806,登記記録の閉鎖等,0,2024-01-23,2024-01-19,株式会社クロスロード,,株式会社,東京都,江東区,亀戸７丁目４９番８号,,13,108,1360071,,,2024-01-19,清算の結了等,,,2015-10-05,1,,,,,クロスロード,0
47,1011802023070,登記記録の閉鎖等,0,2024-01-23,2024-01-18,有限会社ナックル,,有限会社,東京都,足立区,竹の塚７丁目７番１６号,,13,121,1210813,,,2024-01-18,清算の結了等,,,2015-10-05,1,,,,,ナックル,0
48,1012301001229,登記記録の閉鎖等,0,2024-01-23,2024-01-23,柴田産業株式会社,,株式会社,東京都,町田市,金森３丁目１９番２３号,,13,209,1940012,,,2024-01-23,登記官による閉鎖,,,2015-10-05,1,,,,,,0
49,1012301007176,登記記録の閉鎖等,0,2024-01-23,2024-01-23,株式会社ラショナーレ,,株式会社,東京都,町田市,南成瀬５丁目２９番地３,,13,209,1940045,,,2024-01-23,登記官による閉鎖,,,2015-10-05,1,,,,,,0
55,1020001095524,登記記録の閉鎖等,0,2024-01-23,2024-01-17,株式会社イヴォーク,,株式会社,神奈川県,横浜市西区,西戸部町２丁目２１３番地１,,14,103,2200046,,,2024-01-17,清算の結了等,,,2015-10-05,1,,,,,イヴォーク,0
65,1021002067330,登記記録の閉鎖等,0,2024-01-23,2024-01-18,森下商事不動産有限会社,,有限会社,神奈川県,横須賀市,佐野町５丁目１５番地,,14,201,2380052,,,2024-01-18,清算の結了等,,,2015-10-05,1,,,,,モリシタショウジフドウサン,0
73,1040001016288,登記記録の閉鎖等,0,2024-01-23,2024-01-09,株式会社サンシャイン東京,,株式会社,千葉県,千葉市花見川区,犢橋町５４５番地,,12,102,2620013,,,2024-01-09,清算の結了等,,,2015-10-05,1,,,,,サンシャイントウキョウ,0
75,1040001106477,登記記録の閉鎖等,0,2024-01-23,2024-01-15,Ｔｈｕｍｂｓ　ｕｐ　ｆｏｏｄ株式会社,,株式会社,東京都,千代田区,神田神保町１丁目１０－１ＡＬビル１Ｆ,,13,101,1010051,,,2024-01-15,清算の結了等,,,2018-10-12,1,,,,,サムズアップフード,0
84,1050001048090,登記記録の閉鎖等,0,2024-01-23,2024-01-19,株式会社ＦＬＯＷＭＥＲ,,株式会社,茨城県,坂東市,弓田２６０５番地１,,08,228,3060607,,,2024-01-19,清算の結了等,,,2020-09-24,1,,,,,フローマー,0
89,1080002011482,登記記録の閉鎖等,0,2024-01-23,2024-01-19,有限会社山口石油,,有限会社,静岡県,静岡市清水区,土２２７番地の１,,22,103,4240414,,,2024-01-19,清算の結了等,,,2015-10-05,1,,,,,ヤマグチセキユ,0
92,1080402004904,登記記録の閉鎖等,0,2024-01-23,2024-01-04,有限会社田中技研,,有限会社,静岡県,浜松市中区,和合北２丁目１番３４号,,22,131,4338127,,,2024-01-04,清算の結了等,,,2015-10-05,1,,,,,タナカギケン,0
100,1100002001431,登記記録の閉鎖等,0,2024-01-23,2024-01-15,有限会社クマイ自動車工業,,有限会社,長野県,長野市,大字安茂里２００５番地５、石坂アパートＢ,,20,201,3800941,,,2024-01-15,清算の結了等,,,2015-10-05,1,,,,,クマイジドウシャコウギョウ,0
104,1100003005225,登記記録の閉鎖等,0,2024-01-23,2024-01-17,合同会社アンジュ,,合同会社,長野県,長野市,大字鶴賀４４７番地,,20,201,3800907,,,2024-01-17,清算の結了等,,,2019-02-01,1,,,,,アンジュ,0
114,1120001254697,登記記録の閉鎖等,0,2024-01-23,2024-01-19,山水家株式会社,,株式会社,大阪府,大阪市西淀川区,柏里２丁目７－２６ラ・ピース塚本３０３号室,,27,113,5550022,,,2024-01-19,清算の結了等,,,2023-05-16,1,,,,,サンスイカ,0
120,1120002003814,登記記録の閉鎖等,0,2024-01-23,2024-01-19,有限会社森上工務店,,有限会社,大阪府,大阪市住吉区,帝塚山東４丁目９番１７号,00046104,27,120,5580054,,,2024-01-19,清算の結了等,,,2015-10-05,1,,,,,モリガミコウムテン,0
130,1120901017807,登記記録の閉鎖等,0,2024-01-23,2024-01-16,株式会社シミズ,,株式会社,大阪府,吹田市,古江台２丁目６番８号,,27,205,5650874,,,2024-01-16,清算の結了等,,,2015-10-05,1,,,,,シミズ,0
138,1130001043694,登記記録の閉鎖等,0,2024-01-23,2024-01-09,舞鶴観光株式会社,,株式会社,京都府,舞鶴市,字下安久１００７番地１,,26,202,6240914,,,2024-01-09,合併による解散等,7130001043664,令和６年１月１日京都府舞鶴市字上安小字風ノ木１２３８番地舞鶴生コン株式会社（7130001043664）に合併し解散,2015-10-05,1,,,,,マイヅルカンコウ,0
140,1140001088978,登記記録の閉鎖等,0,2024-01-23,2024-01-17,株式会社ノベル,,株式会社,兵庫県,姫路市,継５３２番地１,,28,201,6728004,,,2024-01-17,清算の結了等,,,2015-10-05,1,,,,,ノベル,0
143,1140002059409,登記記録の閉鎖等,0,2024-01-23,2024-01-16,有限会社カーニュース兵庫,,有限会社,兵庫県,西宮市,小松東町２丁目１５番１９号,,28,204,6638123,,,2024-01-16,清算の結了等,,,2015-10-05,1,,,,,カーニュースヒョウゴ,0
149,1150002004157,登記記録の閉鎖等,0,2024-01-23,2024-01-22,株式会社メタルバンガードコーポレーション,,株式会社,奈良県,生駒市,北田原町２４４３番地の６,,29,209,6300142,,,2024-01-22,清算の結了等,,,2015-10-05,1,,,,,メタルバンガードコーポレーション,0
160,1180001146781,登記記録の閉鎖等,0,2024-01-23,2024-01-18,ＨＯＭＥ　ＰＡＧＥ　ＳＨＯＰ０１株式会社,,株式会社,愛知県,名古屋市中川区,運河町３番１７号,,23,110,4540001,,,2024-01-18,清算の結了等,,,2021-07-07,1,,,,,ホームページショップゼロワン,0
161,1180002049587,登記記録の閉鎖等,0,2024-01-23,2024-01-18,有限会社エス・アイ・エス,,有限会社,愛知県,名古屋市守山区,守牧町２番地,,23,113,4630073,,,2024-01-18,清算の結了等,,,2015-10-05,1,,,,,エスアイエス,0
166,1190001006019,登記記録の閉鎖等,0,2024-01-23,2024-01-22,株式会社ＳｔｏｎｅＴｅｃｈｎｏｌｏｇｙ,,株式会社,三重県,鈴鹿市,安塚町１３５０番地の３２,,24,207,5130818,,,2024-01-22,登記官による閉鎖,,,2015-10-05,1,,,,,,0
167,1190001008535,登記記録の閉鎖等,0,2024-01-23,2024-01-22,大成ボーリング工業株式会社,,株式会社,三重県,伊賀市,緑ケ丘南町４０２６番地,,24,216,5180835,,,2024-01-22,登記官による閉鎖,,,2015-10-05,1,,,,,,0
168,1190001009822,登記記録の閉鎖等,0,2024-01-23,2024-01-22,株式会社東急産業,,株式会社,三重県,名張市,すずらん台西４番町１４３番地,,24,208,5180409,,,2024-01-22,登記官による閉鎖,,,2015-10-05,1,,,,,,0
169,1190001019243,登記記録の閉鎖等,0,2024-01-23,2024-01-22,株式会社ナコシン,,株式会社,三重県,松阪市,殿村町８２７番地１,,24,204,5150843,,,2024-01-22,登記官による閉鎖,,,2015-10-05,1,,,,,,0
171,1190002020910,登記記録の閉鎖等,0,2024-01-23,2024-01-22,有限会社竹野石油,,有限会社,三重県,四日市市,楠町南五味塚１２４２番地,,24,202,5100104,,,2024-01-22,登記官による閉鎖,,,2015-10-05,1,,,,,,0
172,1190005005363,登記記録の閉鎖等,0,2024-01-23,2024-01-22,特定非営利活動法人ケアらいふ,,その他の設立登記法人,三重県,伊勢市,岩渕２丁目１番１３号,,24,203,5160037,,,2024-01-22,登記官による閉鎖,,,2015-10-05,1,,,,,,0
173,1190005007558,登記記録の閉鎖等,0,2024-01-23,2024-01-22,特定非営利活動法人飲酒運転防止対策振興会,,その他の設立登記法人,三重県,松阪市,飯南町向粥見１６６番地１,,24,204,5151412,,,2024-01-22,登記官による閉鎖,,,2015-10-05,1,,,,,,0
174,1190005009678,登記記録の閉鎖等,0,2024-01-23,2024-01-22,特定非営利活動法人ほっこり元気村,,その他の設立登記法人,三重県,四日市市,西浦２丁目４番５号,,24,202,5100071,,,2024-01-22,登記官による閉鎖,,,2015-10-05,1,,,,,,0
179,1250001002060,登記記録の閉鎖等,0,2024-01-23,2024-01-16,竹田木材株式会社,,株式会社,山口県,防府市,大字浜方２７２番地３２,,35,206,7470833,,,2024-01-16,登記官による閉鎖,,,2018-06-05,1,,,,,,0
183,1250002001796,登記記録の閉鎖等,0,2024-01-23,2024-01-16,有限会社リバストンフーズ,,有限会社,山口県,山口市,小郡上郷３４１５番地４,,35,203,7540001,,,2024-01-16,登記官による閉鎖,,,2015-10-05,1,,,,,,0
184,1250002020441,登記記録の閉鎖等,0,2024-01-23,2024-01-16,有限会社ユウケン設計,,有限会社,山口県,柳井市,伊陸１０６１番地,,35,212,7420201,,,2024-01-16,登記官による閉鎖,,,2015-10-05,1,,,,,,0
185,1250005006339,登記記録の閉鎖等,0,2024-01-23,2024-01-16,社団法人玖西青年会議所,,その他の設立登記法人,山口県,岩国市,周東町西長野２３９６番地６,,35,208,7420425,,,2024-01-16,登記官による閉鎖,,,2015-10-05,1,,,,,,0
197,1310002015014,登記記録の閉鎖等,0,2024-01-23,2024-01-18,有限会社緒方損保リサーチ,,有限会社,長崎県,諫早市,久山町２４７８番地２,,42,204,8540066,,,2024-01-18,清算の結了等,,,2015-10-05,1,,,,,オガタソンポリサーチ,0
209,1350002001662,登記記録の閉鎖等,0,2024-01-23,2024-01-17,有限会社光沢,,有限会社,宮崎県,宮崎市,江南３丁目４番１４号,,45,201,8800944,,,2024-01-17,清算の結了等,,,2015-10-05,1,,,,,コウタク,0
213,1370001006355,登記記録の閉鎖等,0,2024-01-23,2024-01-22,株式会社ローマン・フーズ,,株式会社,宮城県,仙台市若林区,新寺５丁目９番２２号,,04,103,9840051,,,2024-01-22,登記官による閉鎖,,,2015-10-05,1,,,,,,0
214,1370001013772,登記記録の閉鎖等,0,2024-01-23,2024-01-22,株式会社創和興業,,株式会社,宮城県,仙台市太白区,袋原３丁目２番７１号,,04,104,9811102,,,2024-01-22,登記官による閉鎖,,,2015-10-05,1,,,,,,0
215,1370001015315,登記記録の閉鎖等,0,2024-01-23,2024-01-22,株式会社コーシン,,株式会社,宮城県,仙台市泉区,市名坂字鳥井原６２番地ラルシュ市名坂５０５,,04,105,9813117,,,2024-01-22,登記官による閉鎖,,,2015-10-05,1,,,,,,0
216,1370001015892,登記記録の閉鎖等,0,2024-01-23,2024-01-22,株式会社マイナス水素イオンテクノロジー,,株式会社,宮城県,仙台市宮城野区,蒲生字屋敷３３番地の２,,04,102,9830002,,,2024-01-22,登記官による閉鎖,,,2015-10-05,1,,,,,,0
218,1370001019051,登記記録の閉鎖等,0,2024-01-23,2024-01-22,株式会社翠園,,株式会社,宮城県,仙台市泉区,松森字明神４２番地の４,,04,105,9813111,,,2024-01-22,登記官による閉鎖,,,2015-10-05,1,,,,,,0
219,1370002007617,登記記録の閉鎖等,0,2024-01-23,2024-01-22,有限会社ジェイブロス商会,,有限会社,宮城県,仙台市若林区,南小泉２丁目１２番１号,,04,103,9840827,,,2024-01-22,登記官による閉鎖,,,2015-10-05,1,,,,,,0
220,1370002015644,登記記録の閉鎖等,0,2024-01-23,2024-01-22,松建工業有限会社,,有限会社,宮城県,仙台市青葉区,栗生５丁目１０番地の１４佐藤コーポ１０１,,04,101,9893122,,,2024-01-22,登記官による閉鎖,,,2015-10-05,1,,,,,,0
221,1370002018746,登記記録の閉鎖等,0,2024-01-23,2024-01-22,ＭｙＮｅｔｗｏｒｋｓ有限会社,,有限会社,宮城県,仙台市若林区,遠見塚３丁目６番９号,,04,103,9840823,,,2024-01-22,登記官による閉鎖,,,2015-10-05,1,,,,,,0
222,1370002019884,登記記録の閉鎖等,0,2024-01-23,2024-01-22,有限会社石川相互工業,,有限会社,宮城県,黒川郡大郷町,中村字山崎２８番地７,,04,422,9813521,,,2024-01-22,登記官による閉鎖,,,2015-10-05,1,,,,,,0
223,1370003001379,登記記録の閉鎖等,0,2024-01-23,2024-01-22,合同会社ケイ,,合同会社,宮城県,仙台市青葉区,国分町２丁目１４番１号,,04,101,9800803,,,2024-01-22,登記官による閉鎖,,,2015-10-05,1,,,,,,0
224,1370005000107,登記記録の閉鎖等,0,2024-01-23,2024-01-22,社団法人宮城県都市開発協会,,その他の設立登記法人,宮城県,仙台市青葉区,一番町２丁目８番２１号,,04,101,9800811,,,2024-01-22,登記官による閉鎖,,,2015-10-05,1,,,,,,0
225,1370301001378,登記記録の閉鎖等,0,2024-01-23,2024-01-22,株式会社やもとにっしんフーズ,,株式会社,宮城県,東松島市,大曲字下台１２８番地２５,,04,214,9810502,,,2024-01-22,登記官による閉鎖,,,2015-10-05,1,,,,,,0
226,1370302001170,登記記録の閉鎖等,0,2024-01-23,2024-01-22,有限会社三條土木,,有限会社,宮城県,石巻市,長面字江畑１１５番地,,04,202,9860112,,,2024-01-22,登記官による閉鎖,,,2015-10-05,1,,,,,,0
227,1370802001018,登記記録の閉鎖等,0,2024-01-23,2024-01-22,有限会社トップハウジング,,有限会社,宮城県,岩沼市,阿武隈１丁目８番１５号,,04,211,9892435,,,2024-01-22,登記官による閉鎖,,,2015-10-05,1,,,,,,0
231,1390002010049,登記記録の閉鎖等,0,2024-01-23,2024-01-22,有限会社本間建機サービス,,有限会社,山形県,鶴岡市,山五十川字山ノ下９３番地,,06,203,9997201,,,2024-01-22,登記官による閉鎖,,,2015-10-05,1,,,,,,0
232,1390002011170,登記記録の閉鎖等,0,2024-01-23,2024-01-22,有限会社出羽製作所,,有限会社,山形県,最上郡戸沢村,大字松坂７５６番地の２,,06,367,9996314,,,2024-01-22,登記官による閉鎖,,,2015-10-05,1,,,,,,0
233,1390002014900,登記記録の閉鎖等,0,2024-01-23,2024-01-22,有限会社三伸工業,,有限会社,山形県,長井市,寺泉５５２４番の１,,06,209,9930061,,,2024-01-22,登記官による閉鎖,,,2015-10-05,1,,,,,,0
241,1500001017470,登記記録の閉鎖等,0,2024-01-23,2024-01-22,株式会社ライフ・クリエイトオフィス,,株式会社,愛媛県,松山市,北土居１丁目４番３６号,,38,201,7911104,,,2024-01-22,清算の結了等,,,2015-10-05,1,,,,,ライフクリエイトオフィス,0
248,2010001148728,登記記録の閉鎖等,0,2024-01-23,2024-01-16,株式会社ルーラルデザイン,,株式会社,東京都,中央区,日本橋茅場町３丁目７番２号,,13,102,1030025,,,2024-01-16,清算の結了等,,,2015-10-05,1,,,,,ルーラルデザイン,0
253,2010002037871,登記記録の閉鎖等,0,2024-01-23,2024-01-18,有限会社ナスカブレインズ,,有限会社,東京都,千代田区,平河町１丁目９番５号,,13,101,1020093,,,2024-01-18,清算の結了等,,,2015-10-05,1,,,,,ナスカブレインズ,0
254,2010002049355,登記記録の閉鎖等,0,2024-01-23,2024-01-16,有限会社ユリウス,,有限会社,東京都,千代田区,九段北４丁目１番３号,,13,101,1020073,,,2024-01-16,清算の結了等,,,2015-10-05,1,,,,,ユリウス,0
259,2010101011199,登記記録の閉鎖等,0,2024-01-23,2024-01-19,株式会社Ｓ－ｍａｋｅ　ｃｏｍｐａｎｙ,,株式会社,東京都,青梅市,長淵７丁目３７０番地の４,,13,205,1980052,,,2024-01-19,清算の結了等,,,2015-10-05,1,,,,,,0
271,2010702013610,登記記録の閉鎖等,0,2024-01-23,2024-01-17,有限会社岬屋,,有限会社,東京都,品川区,中延２丁目９番１９号,,13,109,1420053,,,2024-01-17,清算の結了等,,,2015-10-05,1,,,,,,0
296,2011405001621,登記記録の閉鎖等,0,2024-01-23,2024-01-16,特定非営利活動法人ふくしま支援・人と文化ネットワーク,,その他の設立登記法人,神奈川県,横浜市泉区,中田東３丁目１６番４号,,14,116,2450013,,,2024-01-16,清算の結了等,,,2015-10-05,1,,,,,フクシマシエンヒトトブンカネットワーク,0
305,2012305000416,登記記録の閉鎖等,0,2024-01-23,2024-01-23,社団法人日本トランポリン協会,,その他の設立登記法人,東京都,町田市,本町田１１５８番地１,,13,209,1940032,,,2024-01-23,登記官による閉鎖,,,2015-10-05,1,,,,,,0
306,2012305001281,登記記録の閉鎖等,0,2024-01-23,2024-01-23,特定非営利活動法人オメガ教育科学研究所東京,,その他の設立登記法人,東京都,町田市,玉川学園８丁目５番６号,,13,209,1940041,,,2024-01-23,登記官による閉鎖,,,2015-10-05,1,,,,,,0
307,2012403004013,登記記録の閉鎖等,0,2024-01-23,2024-01-16,合同会社ＫＳコーポレーション,,合同会社,東京都,府中市,住吉町２丁目３０番地の７３ヴェルドミール多摩川４０９,,13,206,1830034,,,2024-01-16,清算の結了等,,,2019-09-06,1,,,,,ケイエスコーポレーション,0
316,2020001044760,登記記録の閉鎖等,0,2024-01-23,2024-01-16,株式会社アローズ・クルー,,株式会社,神奈川県,横浜市西区,みなとみらい２丁目３番１号,,14,103,2200012,,,2024-01-16,合併による解散等,5020001040360,令和５年１２月３１日横浜市西区みなとみらい二丁目３番１号株式会社アローズ・システムズ（5020001040360）に合併し解散,2015-10-05,1,,,,,アローズクルー,0
324,2020003010265,登記記録の閉鎖等,0,2024-01-23,2024-01-18,合同会社バルクレンタカー,,合同会社,神奈川県,横浜市戸塚区,影取町１６２番地１,,14,110,2450064,,,2024-01-18,清算の結了等,,,2015-10-05,1,,,,,バルクレンタカー,0
337,2030002067636,登記記録の閉鎖等,0,2024-01-23,2024-01-16,有限会社タクト,,有限会社,埼玉県,新座市,野火止５丁目２３番２１号,,11,230,3520011,,,2024-01-16,清算の結了等,,,2015-10-05,1,,,,,タクト,0
341,2030005005163,登記記録の閉鎖等,0,2024-01-23,2024-01-15,八坂神社,,その他の設立登記法人,埼玉県,加須市,大越１９９１番地,,11,210,3470001,,,2024-01-15,清算の結了等,,,2015-10-05,1,,,,,ヤサカジンジャ,0
355,2060001010156,登記記録の閉鎖等,0,2024-01-23,2024-01-19,関東総合保険株式会社,,株式会社,栃木県,芳賀郡芳賀町,大字東水沼２０７６番地,,09,345,3213322,,,2024-01-19,清算の結了等,,,2015-10-05,1,,,,,カントウソウゴウホケン,0
360,2070001005485,登記記録の閉鎖等,0,2024-01-23,2024-01-18,株式会社綜合プランニング,,株式会社,群馬県,前橋市,表町２丁目１０番１９号綜合センタービル８階,,10,201,3710024,,,2024-01-18,清算の結了等,,,2015-10-05,1,,,,,,0
372,2100002036542,登記記録の閉鎖等,0,2024-01-23,2024-01-16,有限会社信和コンサル,,有限会社,長野県,飯田市,鼎名古熊１４８７番地,,20,205,3950804,,,2024-01-16,清算の結了等,,,2015-10-05,1,,,,,シンワコンサル,0
376,2110002000092,登記記録の閉鎖等,0,2024-01-23,2024-01-18,有限会社三恊家具,,有限会社,新潟県,新潟市西区,善久７２８番地４,,15,107,9501102,,,2024-01-18,清算の結了等,,,2015-10-05,1,,,,,サンキョウカグ,0
418,2140005025051,登記記録の閉鎖等,0,2024-01-23,2024-01-11,特定非営利活動法人西宮とんぼ塾,,その他の設立登記法人,兵庫県,西宮市,津門大箇町６番３８号,,28,204,6638243,,,2024-01-11,清算の結了等,,,2020-03-19,1,,,,,ニシノミヤトンボジュク,0
425,2180001075534,登記記録の閉鎖等,0,2024-01-23,2024-01-18,株式会社愛知キュービック,,株式会社,愛知県,小牧市,大字三ツ渕原新田字雉子野４２３番地の１,,23,219,4850076,,,2024-01-18,清算の結了等,,,2015-10-05,1,,,,,アイチキュービック,0
440,2180301033175,登記記録の閉鎖等,0,2024-01-23,2024-01-12,株式会社コアボディ,,株式会社,愛知県,刈谷市,東刈谷町１丁目９－６,,23,210,4480807,,,2024-01-12,清算の結了等,,,2019-11-26,1,,,,,コアボディ,0
442,2180302000158,登記記録の閉鎖等,0,2024-01-23,2024-01-12,有限会社安藤工業製作所,,有限会社,愛知県,岡崎市,上三ツ木町字清口５６番地,,23,202,4440246,,,2024-01-12,清算の結了等,,,2015-10-05,1,,,,,アンドウコウギョウセイサクショ,0
448,2190001000516,登記記録の閉鎖等,0,2024-01-23,2024-01-22,スリーエス開発株式会社,,株式会社,三重県,津市,西丸之内２番３号,,24,201,5140035,,,2024-01-22,登記官による閉鎖,,,2015-10-05,1,,,,,,0
449,2190001006959,登記記録の閉鎖等,0,2024-01-23,2024-01-22,株式会社藤村コーポレーション,,株式会社,三重県,伊勢市,御薗町長屋２１７７番地１,,24,203,5160804,,,2024-01-22,登記官による閉鎖,,,2015-10-05,1,,,,,,0
450,2190001007049,登記記録の閉鎖等,0,2024-01-23,2024-01-22,ミヤビル株式会社,,株式会社,三重県,度会郡玉城町,蚊野２２１６番地９２,,24,461,5190431,,,2024-01-22,登記官による閉鎖,,,2015-10-05,1,,,,,,0
451,2190002006925,登記記録の閉鎖等,0,2024-01-23,2024-01-22,有限会社林重機土木,,有限会社,三重県,鈴鹿市,高岡町５３８番地,,24,207,5130014,,,2024-01-22,登記官による閉鎖,,,2015-10-05,1,,,,,,0
453,2190002009234,登記記録の閉鎖等,0,2024-01-23,2024-01-18,有限会社豊田本店,,有限会社,三重県,伊勢市,宮町１丁目２番６号,,24,203,5160077,,,2024-01-18,清算の結了等,,,2015-10-05,1,,,,,トヨダホンテン,0
454,2190002014713,登記記録の閉鎖等,0,2024-01-23,2024-01-22,有限会社大宗組,,有限会社,三重県,松阪市,嬉野宮野町４３番地,,24,204,5152408,,,2024-01-22,登記官による閉鎖,,,2018-04-17,1,,,,,ダイソウグミ,0
455,2190002022113,登記記録の閉鎖等,0,2024-01-23,2024-01-22,有限会社マルトモ産業,,有限会社,三重県,四日市市,安島２丁目３番３号,,24,202,5100075,,,2024-01-22,登記官による閉鎖,,,2015-10-05,1,,,,,,0
462,2210001016146,登記記録の閉鎖等,0,2024-01-23,2024-01-19,タソーアーク株式会社,,株式会社,福井県,大野市,今井第１０号１１番地,,18,205,9120424,,,2024-01-19,清算の結了等,,,2015-11-17,1,,,,,タソーアーク,0
468,2250001010120,登記記録の閉鎖等,0,2024-01-23,2024-01-16,株式会社山利,,株式会社,山口県,周南市,大字富田２６３１番地の４,,35,215,7460034,,,2024-01-16,登記官による閉鎖,,,2016-11-22,1,,,,,,0
470,2250002012586,登記記録の閉鎖等,0,2024-01-23,2024-01-16,有限会社平和工業,,有限会社,山口県,下関市,上田中町２丁目２３番１９号,,35,201,7500009,,,2024-01-16,登記官による閉鎖,,,2015-10-05,1,,,,,,0
471,2250005003120,登記記録の閉鎖等,0,2024-01-23,2024-01-16,社団法人太陽光発電普及推進協会,,その他の設立登記法人,山口県,下関市,椋野町２丁目２番３９号,,35,201,7510816,,,2024-01-16,登記官による閉鎖,,,2015-10-05,1,,,,,,0
472,2250005005728,登記記録の閉鎖等,0,2024-01-23,2024-01-16,企業組合大和ユニオン,,その他の設立登記法人,山口県,光市,大字岩田第１５７番地の１,,35,210,7430103,,,2024-01-16,登記官による閉鎖,,,2015-10-05,1,,,,,,0
473,2250005006354,登記記録の閉鎖等,0,2024-01-23,2024-01-16,桜協同組合,,その他の設立登記法人,山口県,岩国市,周東町下久原１８６３番地６,,35,208,7420417,,,2024-01-16,登記官による閉鎖,,,2015-10-05,1,,,,,,0
478,2290001008986,登記記録の閉鎖等,0,2024-01-23,2023-12-26,株式会社シー・アイ・イー,,株式会社,福岡県,福岡市中央区,薬院４丁目１８番３３号,,40,133,8100022,,,2023-12-26,清算の結了等,,,2015-10-05,1,,,,,シーアイイー,0
491,2290801029406,登記記録の閉鎖等,0,2024-01-23,2024-01-22,株式会社サスケファーム,,株式会社,福岡県,北九州市小倉北区,浅野３丁目８番１号ＡＩＭビル６階,,40,106,8020001,,,2024-01-22,清算の結了等,,,2023-03-30,1,,,,,サスケファーム,0
493,2310001002086,登記記録の閉鎖等,0,2024-01-23,2024-01-22,株式会社まるなか本舗,,株式会社,長崎県,長崎市,岩川町１番４号,,42,201,8528106,,,2024-01-22,清算の結了等,,,2015-10-05,1,,,,,マルナカホンポ,0
511,2370001007781,登記記録の閉鎖等,0,2024-01-23,2024-01-22,株式会社ギャラリー大富,,株式会社,宮城県,仙台市青葉区,二日町１０番１５号,,04,101,9800802,,,2024-01-22,登記官による閉鎖,,,2015-10-05,1,,,,,,0
513,2370001021675,登記記録の閉鎖等,0,2024-01-23,2024-01-22,遠藤商店株式会社,,株式会社,宮城県,仙台市泉区,鶴が丘１丁目５番地の１１,,04,105,9813109,,,2024-01-22,登記官による閉鎖,,,2015-10-05,1,,,,,,0
514,2370001021865,登記記録の閉鎖等,0,2024-01-23,2024-01-22,株式会社アイ・エス・エス,,株式会社,宮城県,仙台市青葉区,国分町２丁目９番１０－４１４号,,04,101,9800803,,,2024-01-22,登記官による閉鎖,,,2015-10-05,1,,,,,,0
517,2370002000835,登記記録の閉鎖等,0,2024-01-23,2024-01-22,有限会社サニーデンタルサプライ,,有限会社,宮城県,仙台市泉区,七北田字町２０番地の１,,04,105,9813131,,,2024-01-22,登記官による閉鎖,,,2015-10-05,1,,,,,,0
518,2370002005990,登記記録の閉鎖等,0,2024-01-23,2024-01-22,有限会社北斗物産,,有限会社,宮城県,仙台市若林区,六丁の目南町１０番１号,,04,103,9840013,,,2024-01-22,登記官による閉鎖,,,2015-10-05,1,,,,,,0
519,2370002011782,登記記録の閉鎖等,0,2024-01-23,2024-01-22,有限会社スリーエス,,有限会社,宮城県,仙台市青葉区,菊田町６番２３号,,04,101,9810941,,,2024-01-22,登記官による閉鎖,,,2015-10-05,1,,,,,,0
520,2370002013275,登記記録の閉鎖等,0,2024-01-23,2024-01-22,有限会社フラット,,有限会社,宮城県,仙台市青葉区,子平町１９番５号,,04,101,9810944,,,2024-01-22,登記官による閉鎖,,,2015-10-05,1,,,,,,0
521,2370002016195,登記記録の閉鎖等,0,2024-01-23,2024-01-22,有限会社ピカイチ,,有限会社,宮城県,仙台市青葉区,みやぎ台４丁目１６番１８号,,04,101,9893214,,,2024-01-22,登記官による閉鎖,,,2015-10-05,1,,,,,,0
522,2370601002892,登記記録の閉鎖等,0,2024-01-23,2024-01-22,株式会社ティ・アイ・エス,,株式会社,宮城県,多賀城市,高崎３丁目３６番６－５０２号,,04,209,9850862,,,2024-01-22,登記官による閉鎖,,,2015-10-05,1,,,,,,0
523,2370602000904,登記記録の閉鎖等,0,2024-01-23,2024-01-22,有限会社昭栄産業サービス,,有限会社,宮城県,多賀城市,高崎２丁目１７番１５号,,04,209,9850862,,,2024-01-22,登記官による閉鎖,,,2015-10-05,1,,,,,,0
524,2370801001430,登記記録の閉鎖等,0,2024-01-23,2024-01-22,株式会社鈴勝建設,,株式会社,宮城県,名取市,植松２丁目３番１４号,,04,207,9811226,,,2024-01-22,登記官による閉鎖,,,2015-10-05,1,,,,,,0
526,2390002001393,登記記録の閉鎖等,0,2024-01-23,2024-01-22,有限会社真和,,有限会社,山形県,山形市,流通センター２丁目１０番６号,,06,201,9900071,,,2024-01-22,登記官による閉鎖,,,2015-10-05,1,,,,,,0
527,2390002008488,登記記録の閉鎖等,0,2024-01-23,2024-01-22,有限会社ささや,,有限会社,山形県,東田川郡庄内町,余目字大塚１１０番地,,06,428,9997781,,,2024-01-22,登記官による閉鎖,,,2015-10-05,1,,,,,,0
528,2390005000070,登記記録の閉鎖等,0,2024-01-23,2024-01-22,社団法人橋田学園,,その他の設立登記法人,山形県,山形市,印役町５丁目６番５号,,06,201,9900066,,,2024-01-22,登記官による閉鎖,,,2015-10-05,1,,,,,,0
529,2390005002843,登記記録の閉鎖等,0,2024-01-23,2024-01-22,酒田市教育会,,その他の設立登記法人,山形県,酒田市,本町３丁目４番・４番ノ１・４番ノ２・５番・６番,,06,204,9980043,,,2024-01-22,登記官による閉鎖,,,2015-10-05,1,,,,,,0
530,2390005006919,登記記録の閉鎖等,0,2024-01-23,2024-01-22,中津川報徳社,,その他の設立登記法人,山形県,西置賜郡飯豊町,大字白川５番地,,06,403,9990432,,,2024-01-22,登記官による閉鎖,,,2015-10-05,1,,,,,,0
531,2390005007628,登記記録の閉鎖等,0,2024-01-23,2024-01-22,医療法人国井医院,,その他の設立登記法人,山形県,寒河江市,中央１丁目５番２７号,,06,206,9910021,,,2024-01-22,清算の結了等,,,2015-10-05,1,,,,,クニイイイン,0
532,2410003003007,登記記録の閉鎖等,0,2024-01-23,2024-01-18,合同会社ｓａｙｏカンパニー,,合同会社,宮城県,仙台市若林区,木ノ下４丁目５番８号ライオンズマンション薬師堂３０２,,04,103,9840047,,,2024-01-18,清算の結了等,,,2016-06-08,1,,,,,サヨーカンパニー,0
553,3010001048150,登記記録の閉鎖等,0,2024-01-23,2024-01-15,株式会社千雅,,株式会社,東京都,中央区,銀座５丁目１４番１号,,13,102,1040061,,,2024-01-15,清算の結了等,,,2015-10-05,1,,,,,センガ,0
555,3010001077447,登記記録の閉鎖等,0,2024-01-23,2024-01-17,アッシュフォードキャピタル株式会社,,株式会社,東京都,千代田区,西神田２丁目５番８号,,13,101,1010065,,,2024-01-17,清算の結了等,,,2015-10-05,1,,,,,アッシュフォードキャピタル,0
557,3010001134925,登記記録の閉鎖等,0,2024-01-23,2024-01-15,株式会社ＲＩＳＥ,,株式会社,東京都,中央区,銀座１丁目１５番７号,,13,102,1040061,,,2024-01-15,清算の結了等,,,2015-10-05,1,,,,,ライズ,0
569,3010401106128,登記記録の閉鎖等,0,2024-01-23,2024-01-17,株式会社エムクロッシング,,株式会社,東京都,港区,六本木５丁目１７番１号ＡＸＩＳビル,,13,103,1060032,,,2024-01-17,合併による解散等,9130001023441,令和６年１月１日京都市中京区壬生花井町３番地ＮＩＳＳＨＡ株式会社（9130001023441）に合併し解散,2015-10-05,1,,,,,エムクロッシング,0
601,3011702001918,登記記録の閉鎖等,0,2024-01-23,2024-01-18,有限会社エッチアールケイ総合設備,,有限会社,東京都,江戸川区,宇喜田町１２６８－６,,13,123,1340082,,,2024-01-18,清算の結了等,,,2015-10-05,1,,,,,エッチアールケイソウゴウケイビ,0
603,3011802016816,登記記録の閉鎖等,0,2024-01-23,2024-01-19,有限会社那須建具店,,有限会社,東京都,足立区,島根４丁目２４番１１号,,13,121,1210815,,,2024-01-19,清算の結了等,,,2015-10-05,1,,,,,ナスタテグテン,0
604,3012301007199,登記記録の閉鎖等,0,2024-01-23,2024-01-23,株式会社アイトラストジャパン,,株式会社,東京都,町田市,成瀬が丘２丁目１番地１,,13,209,1940011,,,2024-01-23,登記官による閉鎖,,,2015-10-05,1,,,,,,0
615,3020001103383,登記記録の閉鎖等,0,2024-01-23,2024-01-16,株式会社ＬＳＥＡ,,株式会社,神奈川県,川崎市川崎区,宮前町１２番地１４,,14,131,2100012,,,2024-01-16,清算の結了等,,,2015-10-05,1,,,,,エルエスイーエイ,0
621,3020002087948,登記記録の閉鎖等,0,2024-01-23,2024-01-18,有限会社一伸堂印刷所,,有限会社,神奈川県,川崎市高津区,千年９４６番地,,14,134,2130022,,,2024-01-18,清算の結了等,,,2015-10-05,1,,,,,イッシンドウインサツジョ,0
634,3030002003152,登記記録の閉鎖等,0,2024-01-23,2024-01-16,有限会社岡田金物店,,有限会社,埼玉県,さいたま市大宮区,桜木町２丁目３番地,,11,103,3300854,,,2024-01-16,清算の結了等,,,2015-10-05,1,,,,,オカダカナモノテン,0
636,3030003015403,登記記録の閉鎖等,0,2024-01-23,2024-01-16,ＴＴＬプラス合同会社,,合同会社,埼玉県,越谷市,蒲生寿町１８番４３号朝日プラザ越谷第２すえひろ店舗２０５号室,,11,222,3430836,,,2024-01-16,清算の結了等,,,2020-06-16,1,,,,,ティティエルプラス,0
647,3040002005627,登記記録の閉鎖等,0,2024-01-23,2024-01-12,有限会社十一屋,,有限会社,千葉県,千葉市花見川区,検見川町２丁目４５５番地,,12,102,2620023,,,2024-01-12,清算の結了等,,,2015-10-05,1,,,,,ジュウイチヤ,0
654,3070002017256,登記記録の閉鎖等,0,2024-01-23,2024-01-15,有限会社エムアイシー,,有限会社,群馬県,藤岡市,藤岡８４３番地,,10,209,3750024,,,2024-01-15,清算の結了等,,,2015-10-05,1,,,,,,0
655,3070002023493,登記記録の閉鎖等,0,2024-01-23,2024-01-18,有限会社サウンド,,有限会社,群馬県,桐生市,広沢町４丁目１９７０番地の５５,,10,203,3760013,,,2024-01-18,清算の結了等,,,2015-10-05,1,,,,,サウンド,0
666,3120001026104,登記記録の閉鎖等,0,2024-01-23,2024-01-22,株式会社ＦＯＲＴグラウト,,株式会社,大阪府,堺市中区,毛穴町２９７番地１,,27,142,5998266,,,2024-01-22,清算の結了等,,,2015-10-05,1,,,,,フォートグラウト,0
667,3120001044849,登記記録の閉鎖等,0,2024-01-23,2024-01-22,大互運輸株式会社,,株式会社,大阪府,大阪市西区,境川２丁目３番１４号,,27,106,5500024,,,2024-01-22,清算の結了等,,,2015-10-05,1,,,,,ダイゴウンユ,0
697,3150001022661,登記記録の閉鎖等,0,2024-01-23,2024-01-18,株式会社ＩＮＯ　ｇａｍｅｓ,,株式会社,奈良県,香芝市,今泉６４６番地３,,29,210,6390264,,,2024-01-18,清算の結了等,,,2018-12-03,1,,,,,イノゲームス,0
713,3180002027467,登記記録の閉鎖等,0,2024-01-23,2024-01-19,有限会社木村設備,,有限会社,愛知県,名古屋市熱田区,沢上１丁目６番２８号,,23,109,4560012,,,2024-01-19,清算の結了等,,,2015-10-05,1,,,,,キムラセツビ,0
716,3180005020023,登記記録の閉鎖等,0,2024-01-23,2024-01-19,一般社団法人ひだまり,,その他の設立登記法人,愛知県,春日井市,如意申町６丁目３番地１３,,23,206,4860918,,,2024-01-19,清算の結了等,,,2022-12-14,1,,,,,ヒダマリ,0
720,3190001000300,登記記録の閉鎖等,0,2024-01-23,2024-01-22,株式会社ケアーズ,,株式会社,三重県,津市,観音寺町７６０番地の２６,,24,201,5140062,,,2024-01-22,登記官による閉鎖,,,2015-10-05,1,,,,,,0
721,3190001003311,登記記録の閉鎖等,0,2024-01-23,2024-01-22,株式会社Ａｎａｃｋ,,株式会社,三重県,津市,雲出伊倉津町５２４番地,,24,201,5140302,,,2024-01-22,登記官による閉鎖,,,2015-10-05,1,,,,,,0
724,3190001004978,登記記録の閉鎖等,0,2024-01-23,2024-01-22,株式会社コンビニエンス佐藤酒店,,株式会社,三重県,鈴鹿市,神戸２丁目２番３２号,,24,207,5130801,,,2024-01-22,登記官による閉鎖,,,2015-10-05,1,,,,,,0
725,3190001010150,登記記録の閉鎖等,0,2024-01-23,2024-01-22,株式会社小津コーポレーション,,株式会社,三重県,松阪市,本町２２０３番地,,24,204,5150081,,,2024-01-22,登記官による閉鎖,,,2015-10-05,1,,,,,,0
726,3190001011867,登記記録の閉鎖等,0,2024-01-23,2024-01-22,株式会社ナコックス,,株式会社,三重県,松阪市,伊勢寺町８４７番地２１,,24,204,5150845,,,2024-01-22,登記官による閉鎖,,,2015-10-05,1,,,,,,0
727,3190001018540,登記記録の閉鎖等,0,2024-01-23,2024-01-22,株式会社テラ・ジャパン,,株式会社,三重県,三重郡川越町,大字豊田一色４１３番地１,,24,344,5108123,,,2024-01-22,登記官による閉鎖,,,2015-10-05,1,,,,,,0
729,3190002008160,登記記録の閉鎖等,0,2024-01-23,2024-01-22,有限会社アクテイ,,有限会社,三重県,度会郡度会町,下久具３７１番地の１,,24,470,5162111,,,2024-01-22,登記官による閉鎖,,,2015-10-05,1,,,,,,0
730,3190002009885,登記記録の閉鎖等,0,2024-01-23,2024-01-19,有限会社もめんや藍,,有限会社,三重県,伊勢市,宇治中之切町７７番地,,24,203,5160025,,,2024-01-19,合併による解散等,2190002008319,令和５年１２月１日三重県伊勢市宇治中之切町５２番地株式会社伊勢福（2190002008319）に合併し解散,2015-10-05,1,,,,,モメンヤアイ,0
739,3250001000772,登記記録の閉鎖等,0,2024-01-23,2024-01-16,村重石油株式会社,,株式会社,山口県,山口市,中央５丁目１番３９号,,35,203,7530074,,,2024-01-16,登記官による閉鎖,,,2015-10-05,1,,,,,,0
740,3250001010103,登記記録の閉鎖等,0,2024-01-23,2024-01-19,株式会社丸田衣料百貨店,,株式会社,山口県,周南市,富田新町１丁目１番１５号,,35,215,7460039,,,2024-01-19,清算の結了等,,,2015-10-05,1,,,,,マルタイリョウヒャッカテン,0
741,3250001010953,登記記録の閉鎖等,0,2024-01-23,2024-01-16,明和商券株式会社,,株式会社,山口県,周南市,糀町２丁目４４番地の１,,35,215,7450027,,,2024-01-16,登記官による閉鎖,,,2015-10-05,1,,,,,,0
742,3250001014178,登記記録の閉鎖等,0,2024-01-23,2024-01-16,株式会社ビジネスソリューション,,株式会社,山口県,下関市,武久町１丁目３８番１３号,,35,201,7510833,,,2024-01-16,登記官による閉鎖,,,2015-10-05,1,,,,,,0
743,3250002000227,登記記録の閉鎖等,0,2024-01-23,2024-01-16,有限会社エクステリア山口,,有限会社,山口県,山口市,吉敷字木崎４３９０番地,,35,203,7530811,,,2024-01-16,登記官による閉鎖,,,2015-10-05,1,,,,,,0
744,3250003001265,登記記録の閉鎖等,0,2024-01-23,2024-01-16,合同会社太陽,,合同会社,山口県,下関市,清末中町１丁目７番２８号,,35,201,7501155,,,2024-01-16,登記官による閉鎖,,,2015-10-05,1,,,,,,0
745,3250005000018,登記記録の閉鎖等,0,2024-01-23,2024-01-16,社団法人地域発展計画研究者機構,,その他の設立登記法人,山口県,山口市,宮島町５番１３号,,35,203,7530043,,,2024-01-16,登記官による閉鎖,,,2015-10-05,1,,,,,,0
746,3250005002170,登記記録の閉鎖等,0,2024-01-23,2024-01-16,社団法人山口県建築工事業協会,,その他の設立登記法人,山口県,宇部市,常藤町５番２５号,,35,202,7550021,,,2024-01-16,登記官による閉鎖,,,2015-10-05,1,,,,,,0
747,3250005004803,登記記録の閉鎖等,0,2024-01-23,2024-01-16,財団法人石井茶碗美術館,,その他の設立登記法人,山口県,萩市,大字南古萩町３３番地の３,,35,204,7580077,,,2024-01-16,登記官による閉鎖,,,2015-10-05,1,,,,,,0
748,3250005005124,登記記録の閉鎖等,0,2024-01-23,2024-01-16,財団法人宝城佛教福祉会,,その他の設立登記法人,山口県,下松市,大字河内２７３３番地,,35,207,7440061,,,2024-01-16,登記官による閉鎖,,,2015-10-05,1,,,,,,0
774,3350005005824,登記記録の閉鎖等,0,2024-01-23,2024-01-16,特定非営利活動法人高千穂あまのいわと活性化研究所,,その他の設立登記法人,宮崎県,西臼杵郡高千穂町,大字岩戸２５７５番地,,45,441,8821621,,,2024-01-16,清算の結了等,,,2019-02-22,1,,,,,タカチホアマノイワトカッセイカケンキュウショ,0
777,3370001017136,登記記録の閉鎖等,0,2024-01-23,2024-01-22,株式会社ネットステージ,,株式会社,宮城県,仙台市太白区,鈎取４丁目１０番３－２０２号,,04,104,9820804,,,2024-01-22,登記官による閉鎖,,,2015-10-05,1,,,,,,0
778,3370001019925,登記記録の閉鎖等,0,2024-01-23,2024-01-22,株式会社アンパサンド,,株式会社,宮城県,仙台市青葉区,錦町１丁目４番５－４１２号,,04,101,9800012,,,2024-01-22,登記官による閉鎖,,,2015-10-05,1,,,,,,0
779,3370001020420,登記記録の閉鎖等,0,2024-01-23,2024-01-22,株式会社レストレーション,,株式会社,宮城県,仙台市青葉区,宮町５丁目２番２－２０９号,,04,101,9800004,,,2024-01-22,登記官による閉鎖,,,2015-10-05,1,,,,,,0
780,3370002004182,登記記録の閉鎖等,0,2024-01-23,2024-01-22,有限会社理楽社,,有限会社,宮城県,仙台市太白区,緑ケ丘２丁目１９番２６号,,04,104,9820021,,,2024-01-22,登記官による閉鎖,,,2015-10-05,1,,,,,,0
781,3370002019065,登記記録の閉鎖等,0,2024-01-23,2024-01-22,有限会社はなまる工房,,有限会社,宮城県,仙台市青葉区,上杉１丁目１５番８号アーバンハイツ１０１号,,04,101,9800011,,,2024-01-22,登記官による閉鎖,,,2015-10-05,1,,,,,,0
782,3370202000592,登記記録の閉鎖等,0,2024-01-23,2024-01-22,有限会社末広商事,,有限会社,宮城県,大崎市,古川中里３丁目１１番１５号,,04,215,9896143,,,2024-01-22,登記官による閉鎖,,,2015-10-05,1,,,,,,0
783,3370303000236,登記記録の閉鎖等,0,2024-01-23,2024-01-22,合同会社総合企画サービス,,合同会社,宮城県,東松島市,矢本字鹿石前１６２番地１,,04,214,9810503,,,2024-01-22,登記官による閉鎖,,,2015-10-05,1,,,,,,0
784,3370802001718,登記記録の閉鎖等,0,2024-01-23,2024-01-22,有限会社今野解体,,有限会社,宮城県,名取市,手倉田字諏訪６３５番地の１,,04,207,9811231,,,2024-01-22,登記官による閉鎖,,,2015-10-05,1,,,,,,0
786,3380002021912,登記記録の閉鎖等,0,2024-01-23,2024-01-19,有限会社あいもと,,有限会社,福島県,いわき市,常磐上湯長谷町梅ケ平７９番地,,07,204,9728322,,,2024-01-19,清算の結了等,,,2015-10-05,1,,,,,アイモト,0
788,3390001016838,登記記録の閉鎖等,0,2024-01-23,2024-01-22,株式会社ｂｅｆｒｉｅｎｄ,,株式会社,山形県,東根市,羽入東３番２０号,,06,211,9993779,,,2024-01-22,清算の結了等,,,2022-03-30,1,,,,,ビーフレンド,0
789,3390002002960,登記記録の閉鎖等,0,2024-01-23,2024-01-22,有限会社山川畳店,,有限会社,山形県,山形市,十日町３丁目１番２５号,,06,201,9900031,,,2024-01-22,登記官による閉鎖,,,2015-10-05,1,,,,,,0
790,3390002008371,登記記録の閉鎖等,0,2024-01-23,2024-01-22,有限会社田沢製材所,,有限会社,山形県,酒田市,田沢字長根下６の１,,06,204,9996731,,,2024-01-22,登記官による閉鎖,,,2015-10-05,1,,,,,,0
791,3390005002173,登記記録の閉鎖等,0,2024-01-23,2024-01-22,財団法人若松会館,,その他の設立登記法人,山形県,天童市,大字山元２２０５番地の１,,06,210,9940021,,,2024-01-22,登記官による閉鎖,,,2015-10-05,1,,,,,,0
792,3390005002834,登記記録の閉鎖等,0,2024-01-23,2024-01-22,社団法人庄内社会教育研究会,,その他の設立登記法人,山形県,酒田市,南千日町４番５０号,,06,204,9980025,,,2024-01-22,登記官による閉鎖,,,2015-10-05,1,,,,,,0
793,3390005006587,登記記録の閉鎖等,0,2024-01-23,2024-01-22,財団法人窪田村奬學育英會,,その他の設立登記法人,山形県,米沢市,大字窪田５２８番地,,06,202,9920000,,,2024-01-22,登記官による閉鎖,,,2015-10-05,1,,,,,,0
797,3420001006406,登記記録の閉鎖等,0,2024-01-23,2024-01-17,八戸工機株式会社,,株式会社,青森県,八戸市,新湊１丁目１１番１５号,,02,203,0310811,,,2024-01-17,清算の結了等,,,2015-10-05,1,,,,,ハチノヘコウキ,0
801,3500002021750,登記記録の閉鎖等,0,2024-01-23,2024-01-22,有限会社武村石油店,,有限会社,愛媛県,四国中央市,川之江町４０６１番地,,38,213,7990101,,,2024-01-22,清算の結了等,,,2015-10-05,1,,,,,タケムラセキユテン,0
832,4010403030077,登記記録の閉鎖等,0,2024-01-23,2024-01-09,合同会社ＦｒｙＨｅｉｔ,,合同会社,東京都,港区,南青山３丁目１番３６号青山丸竹ビル６Ｆ,,13,103,1070062,,,2024-01-09,清算の結了等,,,2023-05-12,1,,,,,フライハイト,0
834,4010601014930,登記記録の閉鎖等,0,2024-01-23,2024-01-15,中根保株式会社,,株式会社,東京都,中央区,東日本橋２丁目２番１０号３階,,13,102,1030004,,,2024-01-15,清算の結了等,,,2015-10-05,1,,,,,ナカネヤス,0
843,4011001065787,登記記録の閉鎖等,0,2024-01-23,2024-01-17,株式会社ランティエ,,株式会社,東京都,中央区,新川１丁目６番１２号ＡＩビル茅場町５階,,13,102,1040033,,,2024-01-17,清算の結了等,,,2015-10-05,1,,,,,ランティエ,0
870,4011602002932,登記記録の閉鎖等,0,2024-01-23,2024-01-19,有限会社菊浪基礎工業,,有限会社,東京都,練馬区,大泉学園町１丁目２８番１０－４０３号,,13,120,1780061,,,2024-01-19,清算の結了等,,,2015-10-05,1,,,,,キクナミキソコウギョウ,0
880,4012301002307,登記記録の閉鎖等,0,2024-01-23,2024-01-23,株式会社ホシノ,,株式会社,東京都,町田市,山崎町１０８９番地１１,,13,209,1950074,,,2024-01-23,登記官による閉鎖,,,2015-10-05,1,,,,,,0
881,4012301002653,登記記録の閉鎖等,0,2024-01-23,2024-01-23,ヨシトモ商事株式会社,,株式会社,東京都,町田市,原町田４丁目１７番１０号,,13,209,1940013,,,2024-01-23,登記官による閉鎖,,,2015-10-05,1,,,,,,0
882,4012301006778,登記記録の閉鎖等,0,2024-01-23,2024-01-17,株式会社筑波,,株式会社,東京都,町田市,南成瀬３丁目１７番地１,,13,209,1940045,,,2024-01-17,清算の結了等,,,2015-10-05,1,,,,,ツクバ,0
883,4012301007702,登記記録の閉鎖等,0,2024-01-23,2024-01-23,株式会社伊藤工務店,,株式会社,東京都,町田市,南成瀬２丁目２１番地７－１０５,,13,209,1940045,,,2024-01-23,登記官による閉鎖,,,2015-10-05,1,,,,,,0
884,4012301011514,登記記録の閉鎖等,0,2024-01-23,2024-01-23,都南建鉄工業株式会社,,株式会社,東京都,町田市,野津田町字関の上２８３番の１,,13,209,1950063,,,2024-01-23,登記官による閉鎖,,,2018-10-03,1,,,,,トナンケンテツコウギョウ,0
885,4012302003015,登記記録の閉鎖等,0,2024-01-23,2024-01-23,有限会社竹商事,,有限会社,東京都,町田市,原町田４丁目２５番２０号,,13,209,1940013,,,2024-01-23,登記官による閉鎖,,,2015-10-05,1,,,,,,0
889,4012802004628,登記記録の閉鎖等,0,2024-01-23,2024-01-15,有限会社多摩日装,,有限会社,東京都,武蔵村山市,伊奈平１丁目６３番地の１,,13,223,2080023,,,2024-01-15,清算の結了等,,,2015-10-05,1,,,,,タマニッソウ,0
898,4020001094374,登記記録の閉鎖等,0,2024-01-23,2024-01-18,ユープラスバルク株式会社,,株式会社,神奈川県,横浜市戸塚区,影取町１６２番地１,,14,110,2450064,,,2024-01-18,清算の結了等,,,2015-10-05,1,,,,,ユープラスバルク,0
910,4020002040773,登記記録の閉鎖等,0,2024-01-23,2024-01-17,横浜図芸有限会社,,有限会社,神奈川県,横浜市鶴見区,北寺尾３丁目６番２号,,14,101,2300074,,,2024-01-17,清算の結了等,,,2015-10-05,1,,,,,ヨコハマズゲイ,0
911,4020002061555,登記記録の閉鎖等,0,2024-01-23,2024-01-18,有限会社ビーエスプロジェクト,,有限会社,神奈川県,横浜市保土ケ谷区,天王町２丁目４２番地１５光洋天王町ビル５０３号,,14,106,2400003,,,2024-01-18,清算の結了等,,,2015-10-05,1,,,,,ビーエスプロジェクト,0
912,4020003011328,登記記録の閉鎖等,0,2024-01-23,2024-01-16,ムーンライズ・プロパティ合同会社,,合同会社,神奈川県,横浜市中区,元町４丁目１６１番地１７,,14,104,2310861,,,2024-01-16,清算の結了等,,,2016-05-17,1,,,,,ムーンライズプロパティ,0
913,4020003018637,登記記録の閉鎖等,0,2024-01-23,2024-01-10,合同会社ＲＴＳＰ,,合同会社,神奈川県,横浜市磯子区,磯子２丁目２７－２５,,14,107,2350016,,,2024-01-10,清算の結了等,,,2020-10-13,1,,,,,アールティーエスピー,0
917,4021001002302,登記記録の閉鎖等,0,2024-01-23,2024-01-19,株式会社ヤマト機工,,株式会社,神奈川県,藤沢市,藤が岡１丁目８番１１号,,14,205,2510004,,,2024-01-19,清算の結了等,,,2015-10-05,1,,,,,ヤマトキコウ,0
920,4021002017563,登記記録の閉鎖等,0,2024-01-23,2024-01-19,有限会社麻溝増田屋,,有限会社,神奈川県,相模原市南区,当麻８８３番地の３,,14,153,2520336,,,2024-01-19,清算の結了等,,,2015-10-05,1,,,,,,0
926,4030002089703,登記記録の閉鎖等,0,2024-01-23,2024-01-15,有限会社古谷木材店,,有限会社,埼玉県,北葛飾郡松伏町,大字松伏３５５番地１,,11,465,3430111,,,2024-01-15,清算の結了等,,,2015-10-05,1,,,,,フルヤモクザイテン,0
930,4040001062916,登記記録の閉鎖等,0,2024-01-23,2024-01-09,株式会社宇野澤測量コンサルタント,,株式会社,千葉県,銚子市,柴崎町１丁目３７０番地の２,,12,202,2880842,,,2024-01-09,清算の結了等,,,2015-10-05,1,,,,,ウノザワソクリョウコンサルタント,0
931,4040001113891,登記記録の閉鎖等,0,2024-01-23,2024-01-12,株式会社ネクスト・ワーク,,株式会社,千葉県,千葉市中央区,都町２丁目５番１４号エクセル・コート２０２,,12,101,2600001,,,2024-01-12,清算の結了等,,,2020-06-08,1,,,,,ネクストワーク,0
941,4050002024121,登記記録の閉鎖等,0,2024-01-23,2024-01-19,有限会社ティオ,,有限会社,茨城県,古河市,東本町１丁目２２番２６－９０７号,,08,204,3060013,,,2024-01-19,清算の結了等,,,2015-10-05,1,,,,,ティオ,0
954,4080102008987,登記記録の閉鎖等,0,2024-01-23,2024-01-22,有限会社石橋修建築設計室,,有限会社,静岡県,伊豆の国市,南條１３９１番地の８,,22,225,4102114,,,2024-01-22,清算の結了等,,,2015-10-05,1,,,,,イシバシオサムケンチクセッケイシツ,0
965,4110001016658,登記記録の閉鎖等,0,2024-01-23,2024-01-18,株式会社巴工務店,,株式会社,新潟県,三条市,三貫地新田９６０番地３,,15,204,9550001,,,2024-01-18,清算の結了等,,,2015-10-05,1,,,,,トモエコウムテン,0
971,4120001087987,登記記録の閉鎖等,0,2024-01-23,2024-01-17,ヒラックス株式会社,,株式会社,兵庫県,三田市,ゆりのき台１丁目３４番地の２,,28,219,6691324,,,2024-01-17,清算の結了等,,,2015-10-05,1,,,,,ヒラックス,0
975,4120001218492,登記記録の閉鎖等,0,2024-01-23,2024-01-18,株式会社ＳＫＧ,,株式会社,大阪府,大阪市北区,万歳町１番６号ＳＴＡＲＳビル１０３,,27,127,5300028,,,2024-01-18,清算の結了等,,,2019-01-22,1,,,,,エスケージー,0
979,4120003021192,登記記録の閉鎖等,0,2024-01-23,2024-01-22,コイロン合同会社,,合同会社,大阪府,大阪市北区,梅田１丁目１番地３号大阪駅前第３ビル２９階１－１－１号室,,27,127,5300001,,,2024-01-22,清算の結了等,,,2022-03-01,1,,,,,コイロン,0
1006,4180001121542,登記記録の閉鎖等,0,2024-01-23,2024-01-15,株式会社エムイー,,株式会社,愛知県,一宮市,今伊勢町宮後字壱丁野３７番地８,,23,203,4910057,,,2024-01-15,清算の結了等,,,2015-12-28,1,,,,,エムイー,0
1010,4180002040254,登記記録の閉鎖等,0,2024-01-23,2024-01-17,有限会社ミタカ電設,,有限会社,愛知県,清須市,春日上中割７７番地の３,,23,233,4520961,,,2024-01-17,清算の結了等,,,2015-10-05,1,,,,,ミタカデンセツ,0
1019,4190001001207,登記記録の閉鎖等,0,2024-01-23,2024-01-22,株式会社ユーナイト,,株式会社,三重県,津市,白塚町４３２４番地,,24,201,5140101,,,2024-01-22,登記官による閉鎖,,,2015-10-05,1,,,,,,0
1021,4190001011866,登記記録の閉鎖等,0,2024-01-23,2024-01-22,株式会社逸品,,株式会社,三重県,松阪市,小津町３０４番地４,,24,204,5152114,,,2024-01-22,登記官による閉鎖,,,2015-10-05,1,,,,,,0
1022,4190002001593,登記記録の閉鎖等,0,2024-01-23,2024-01-22,有限会社村田印刷,,有限会社,三重県,津市,八町２丁目８番３１号,,24,201,5140041,,,2024-01-22,登記官による閉鎖,,,2015-10-05,1,,,,,,0
1023,4190002007327,登記記録の閉鎖等,0,2024-01-23,2024-01-22,有限会社レヴレーシングガレージ,,有限会社,三重県,鈴鹿市,道伯町２１５０番地の１４,,24,207,5130824,,,2024-01-22,登記官による閉鎖,,,2015-10-05,1,,,,,,0
1024,4190002015313,登記記録の閉鎖等,0,2024-01-23,2024-01-22,有限会社小濱組,00076033,有限会社,三重県,松阪市,嬉野川北町１３５７番地,,24,204,5152316,,,2024-01-22,登記官による閉鎖,,,2015-10-05,1,,,,,,0
1025,4190002020800,登記記録の閉鎖等,0,2024-01-23,2024-01-22,大甚有限会社,,有限会社,三重県,四日市市,生桑町１９２３番地の１,,24,202,5120911,,,2024-01-22,登記官による閉鎖,,,2015-10-05,1,,,,,,0
1027,4190005005666,登記記録の閉鎖等,0,2024-01-23,2024-01-22,伊和酪農農業協同組合,,その他の設立登記法人,三重県,伊賀市,上野鍛冶町２８００番地,,24,216,5180864,,,2024-01-22,登記官による閉鎖,,,2015-10-05,1,,,,,,0
1028,4190005006565,登記記録の閉鎖等,0,2024-01-23,2024-01-22,財団法人戊申相互会,,その他の設立登記法人,三重県,松阪市,駅部田町１４２７番地,,24,204,5150045,,,2024-01-22,登記官による閉鎖,,,2015-10-05,1,,,,,,0
1038,4220002006325,登記記録の閉鎖等,0,2024-01-23,2024-01-18,有限会社リバーパイン,,有限会社,石川県,金沢市,諸江町下丁３０６番地,,17,201,9200017,,,2024-01-18,清算の結了等,,,2015-10-05,1,,,,,リバーパイン,0
1043,4240001052418,登記記録の閉鎖等,0,2024-01-23,2024-01-19,ジャパン・ハイブリットサービス株式会社,,株式会社,東京都,新宿区,西新宿３丁目３番１３号,,13,104,1600023,,,2024-01-19,清算の結了等,,,2018-02-23,1,,,,,ジャパンハイブリットサービス,0
1047,4250001005127,登記記録の閉鎖等,0,2024-01-23,2024-01-16,植田木材株式会社,,株式会社,山口県,下関市,彦島本村町６丁目１６番２４号,,35,201,7500074,,,2024-01-16,登記官による閉鎖,,,2015-10-05,1,,,,,,0
1048,4250001016512,登記記録の閉鎖等,0,2024-01-23,2024-01-16,光土地産業株式会社,,株式会社,山口県,光市,大字光井１６９６番地ノ１,,35,210,7430011,,,2024-01-16,登記官による閉鎖,,,2017-04-05,1,,,,,,0
1050,4250002010638,登記記録の閉鎖等,0,2024-01-23,2024-01-16,兵庫物流有限会社,,有限会社,山口県,下関市,川中豊町３丁目７番３５号,,35,201,7510853,,,2024-01-16,登記官による閉鎖,,,2015-10-05,1,,,,,,0
1051,4250002018391,登記記録の閉鎖等,0,2024-01-23,2024-01-16,有限会社ニューヒカリ,,有限会社,山口県,岩国市,装束町１丁目４番６号,,35,208,7400001,,,2024-01-16,登記官による閉鎖,,,2015-10-05,1,,,,,,0
1052,4250005000157,登記記録の閉鎖等,0,2024-01-23,2024-01-16,財団法人山口県肢体不自由児協会,,その他の設立登記法人,山口県,山口市,上宇野令第１８１２番地の１,,35,203,7530091,,,2024-01-16,登記官による閉鎖,,,2015-10-05,1,,,,,,0
1068,4340002000142,登記記録の閉鎖等,0,2024-01-23,2024-01-22,有限会社富士食品,,有限会社,鹿児島県,鹿児島市,西佐多町１８４番地２,,46,201,8911301,,,2024-01-22,清算の結了等,,,2015-10-05,1,,,,,フジショクヒン,0
1072,4370001014487,登記記録の閉鎖等,0,2024-01-23,2024-01-22,株式会社エクスレイ,,株式会社,宮城県,仙台市青葉区,米ケ袋１丁目２番６号,,04,101,9800813,,,2024-01-22,登記官による閉鎖,,,2015-10-05,1,,,,,,0
1073,4370005000351,登記記録の閉鎖等,0,2024-01-23,2024-01-22,財団法人宮城県老人福祉会,,その他の設立登記法人,宮城県,仙台市青葉区,二日町１３番２２号,,04,101,9800802,,,2024-01-22,登記官による閉鎖,,,2015-10-05,1,,,,,,0
1074,4370005001341,登記記録の閉鎖等,0,2024-01-23,2024-01-22,医療法人美瑛,,その他の設立登記法人,宮城県,仙台市太白区,富沢１丁目１２番２６号,,04,104,9820032,,,2024-01-22,登記官による閉鎖,,,2015-10-05,1,,,,,,0
1075,4370005003321,登記記録の閉鎖等,0,2024-01-23,2024-01-22,一般社団法人ワンステップ東北,,その他の設立登記法人,宮城県,仙台市青葉区,本町２丁目１０－２３,,04,101,9800014,,,2024-01-22,登記官による閉鎖,,,2015-10-05,1,,,,,,0
1076,4370102000709,登記記録の閉鎖等,0,2024-01-23,2024-01-22,有限会社ヨシムラ,,有限会社,宮城県,柴田郡川崎町,大字前川字中町３９番地,,04,324,9891501,,,2024-01-22,登記官による閉鎖,,,2015-10-05,1,,,,,,0
1077,4370302002257,登記記録の閉鎖等,0,2024-01-23,2024-01-22,有限会社桜,,有限会社,宮城県,石巻市,広渕字窪田３８６番地１,,04,202,9871222,,,2024-01-22,登記官による閉鎖,,,2015-10-05,1,,,,,,0
1078,4370802001824,登記記録の閉鎖等,0,2024-01-23,2024-01-22,有限会社コスモ農研,,有限会社,宮城県,岩沼市,寺島字蒲崎５０３番の１,,04,211,9892425,,,2024-01-22,登記官による閉鎖,,,2015-10-05,1,,,,,,0
1080,4390002012232,登記記録の閉鎖等,0,2024-01-23,2024-01-22,有限会社神建工房,,有限会社,山形県,東根市,大字若木６１００番地の７６,,06,211,9993737,,,2024-01-22,登記官による閉鎖,,,2015-10-05,1,,,,,,0
1081,4390002013544,登記記録の閉鎖等,0,2024-01-23,2024-01-22,有限会社ライフパートナーすずき,,有限会社,山形県,米沢市,大町４丁目４番１４号,,06,202,9920031,,,2024-01-22,登記官による閉鎖,,,2015-10-05,1,,,,,,0
1082,4390005002461,登記記録の閉鎖等,0,2024-01-23,2024-01-22,財団法人美術館子好洞,,その他の設立登記法人,山形県,上山市,石曽根５５番地,,06,207,9993244,,,2024-01-22,登記官による閉鎖,,,2015-10-05,1,,,,,,0
1083,4390005006470,登記記録の閉鎖等,0,2024-01-23,2024-01-22,財団法人東北山村文化協会,,その他の設立登記法人,山形県,東置賜郡高畠町,大字二井宿２０２７番地,,06,381,9920301,,,2024-01-22,登記官による閉鎖,,,2015-10-05,1,,,,,,0
1092,4430002027358,登記記録の閉鎖等,0,2024-01-23,2024-01-15,有限会社写友商事,,有限会社,北海道,札幌市豊平区,平岸二条３丁目６番２０号,,01,105,0620932,,,2024-01-15,清算の結了等,,,2015-10-05,1,,,,,シャユウショウジ,0
1094,4430002065060,登記記録の閉鎖等,0,2024-01-23,2024-01-16,有限会社山下組,,有限会社,北海道,室蘭市,白鳥台４丁目８番２１号,,01,205,0500054,,,2024-01-16,清算の結了等,,,2015-10-05,1,,,,,ヤマシタグミ,0
1101,4500001000110,登記記録の閉鎖等,0,2024-01-23,2024-01-22,高松建設株式会社,,株式会社,愛媛県,松山市,北条辻１１３６番地１３,00007227,38,201,7992430,,,2024-01-22,清算の結了等,,,2015-10-05,1,,,,,,0
1106,5010001167667,登記記録の閉鎖等,0,2024-01-23,2024-01-15,カスケードアセット株式会社,,株式会社,東京都,中央区,銀座６丁目１３－１６銀座ウォールビルＵＣＦ５０１,,13,102,1040061,,,2024-01-15,清算の結了等,,,2015-10-05,1,,,,,カスケードアセット,0
1154,5012301007841,登記記録の閉鎖等,0,2024-01-23,2024-01-23,株式会社瀬谷設備工業,,株式会社,東京都,町田市,三輪町３２０番地,,13,209,1950054,,,2024-01-23,登記官による閉鎖,,,2015-10-05,1,,,,,,0
1155,5012301008377,登記記録の閉鎖等,0,2024-01-23,2024-01-23,株式会社中央ホーム,,株式会社,東京都,町田市,玉川学園１丁目２２番１０号,,13,209,1940041,,,2024-01-23,登記官による閉鎖,,,2015-10-05,1,,,,,,0
1156,5012302007502,登記記録の閉鎖等,0,2024-01-23,2024-01-23,有限会社エクシード,,有限会社,東京都,町田市,南つくし野２丁目３１番地１５グリーンビューすずかけ１０５,,13,209,1940002,,,2024-01-23,登記官による閉鎖,,,2015-10-05,1,,,,,,0
1176,5020001004092,登記記録の閉鎖等,0,2024-01-23,2024-01-17,株式会社大日製作所,,株式会社,神奈川県,横浜市戸塚区,東俣野町１６００番地,,14,110,2450065,,,2024-01-17,清算の結了等,,,2015-10-05,1,,,,,,0
1183,5020002020576,登記記録の閉鎖等,0,2024-01-23,2024-01-17,有限会社石井材木店,,有限会社,神奈川県,横浜市旭区,川井宿町１２９番地,,14,112,2410804,,,2024-01-17,清算の結了等,,,2015-10-05,1,,,,,,0
1191,5021001056603,登記記録の閉鎖等,0,2024-01-23,2024-01-19,株式会社ピースクラフト,,株式会社,神奈川県,平塚市,東八幡１丁目８番２号,,14,203,2540016,,,2024-01-19,清算の結了等,,,2015-10-05,1,,,,,,0
1197,5030002001534,登記記録の閉鎖等,0,2024-01-23,2024-01-17,有限会社猪俣パンチングセンター,,有限会社,埼玉県,さいたま市北区,本郷町１３０６番地,,11,102,3310802,,,2024-01-17,清算の結了等,,,2015-10-05,1,,,,,イノマタパンチングセンター,0
1199,5030002120210,登記記録の閉鎖等,0,2024-01-23,2024-01-16,有限会社サポート,,有限会社,埼玉県,日高市,高萩東３丁目４番１１号,,11,242,3501215,,,2024-01-16,清算の結了等,,,2015-10-05,1,,,,,サポート,0
1200,5040001103470,登記記録の閉鎖等,0,2024-01-23,2024-01-12,株式会社桜香建設,,株式会社,千葉県,松戸市,五香１丁目１９番地の１,,12,207,2702213,,,2024-01-12,清算の結了等,,,2018-02-14,1,,,,,オウカケンセツ,0
1215,5070002004624,登記記録の閉鎖等,0,2024-01-23,2024-01-16,有限会社富士見レンタカー,,有限会社,群馬県,前橋市,滝窪町５７５番地３,,10,201,3710235,,,2024-01-16,清算の結了等,,,2015-10-05,1,,,,,フジミレンタカー,0
1216,5070002026998,登記記録の閉鎖等,0,2024-01-23,2024-01-17,有限会社豊商会,,有限会社,群馬県,渋川市,金井１２６４番地５,,10,208,3770027,,,2024-01-17,清算の結了等,,,2015-10-05,1,,,,,,0
1217,5070002030447,登記記録の閉鎖等,0,2024-01-23,2024-01-16,有限会社根岸商店,,有限会社,群馬県,邑楽郡邑楽町,大字秋妻４７番地,,10,525,3700606,,,2024-01-16,清算の結了等,,,2015-10-05,1,,,,,ネギシショウテン,0
1221,5080102000786,登記記録の閉鎖等,0,2024-01-23,2024-01-22,有限会社オッズオン,,有限会社,静岡県,沼津市,東椎路１０２９番地の４,,22,203,4100302,,,2024-01-22,清算の結了等,,,2015-10-05,1,,,,,オッズオン,0
1222,5080102006429,登記記録の閉鎖等,0,2024-01-23,2024-01-22,有限会社楽土,,有限会社,静岡県,沼津市,新宿町１１番９号野中ビル１階１－Ａ号室,,22,203,4100048,,,2024-01-22,清算の結了等,,,2015-10-05,1,,,,,ラクト,0
1226,5110002000437,登記記録の閉鎖等,0,2024-01-23,2024-01-22,有限会社曙建販,00070602,有限会社,新潟県,新潟市北区,松浜１丁目２４番地８,,15,101,9503126,,,2024-01-22,清算の結了等,,,2015-10-05,1,,,,,アケボノケンパン,0
1235,5120001151098,登記記録の閉鎖等,0,2024-01-23,2024-01-22,株式会社セノヲ,,株式会社,大阪府,枚方市,東香里３丁目２３番２０号,,27,210,5730075,,,2024-01-22,清算の結了等,,,2015-10-05,1,,,,,セノヲ,0
1253,5120005020530,登記記録の閉鎖等,0,2024-01-23,2024-01-22,ＮＰＯ法人微笑み塾,,その他の設立登記法人,大阪府,大阪市大正区,千島２丁目４番４－６２３号,,27,108,5510003,,,2024-01-22,清算の結了等,,,2018-11-14,1,,,,,ホホエミジュク,0
1266,5140001084395,登記記録の閉鎖等,0,2024-01-23,2024-01-11,株式会社ＧＹシステムズ,,株式会社,兵庫県,川西市,小花２丁目１０番６号,,28,217,6660015,,,2024-01-11,清算の結了等,,,2015-10-05,1,,,,,ジーワイシステムズ,0
1269,5140001103733,登記記録の閉鎖等,0,2024-01-23,2024-01-19,佐々木工業株式会社,,株式会社,兵庫県,神戸市西区,玉津町高津橋７０９番地の１,,28,111,6512122,,,2024-01-19,清算の結了等,,,2016-10-18,1,,,,,ササキコウギョウ,0
1274,5140003014020,登記記録の閉鎖等,0,2024-01-23,2024-01-17,株式会社令和,,株式会社,兵庫県,姫路市,北条宮の町２５８番地,,28,201,6700948,,,2024-01-17,清算の結了等,,,2019-06-12,1,,,,,レイワ,0
1284,5180001061052,登記記録の閉鎖等,0,2024-01-23,2024-01-16,アイ・シー・エス株式会社,,株式会社,愛知県,名古屋市天白区,中坪町１０６番地,,23,116,4680048,,,2024-01-16,清算の結了等,,,2015-10-05,1,,,,,アイシーエス,0
1286,5180001086990,登記記録の閉鎖等,0,2024-01-23,2024-01-17,グレインマシナリー中日本株式会社,,株式会社,愛知県,一宮市,赤見３丁目１０番６号,,23,203,4910023,,,2024-01-17,合併による解散等,2400001009196,令和６年１月１日岩手県北上市川岸一丁目１６番１号サタケグレインマシナリー株式会社（2400001009196）に合併し解散,2015-10-05,1,,,,,グレインマシナリーナカニホン,0
1289,5180001131912,登記記録の閉鎖等,0,2024-01-23,2024-01-18,株式会社友喜,,株式会社,愛知県,名古屋市瑞穂区,宝田町１丁目６番地,,23,108,4670866,,,2024-01-18,清算の結了等,,,2018-04-13,1,,,,,ユウキ,0
1293,5190001003986,登記記録の閉鎖等,0,2024-01-23,2024-01-22,みやび株式会社,,株式会社,三重県,津市,芸濃町椋本２８４０番地,,24,201,5142211,,,2024-01-22,登記官による閉鎖,,,2015-10-05,1,,,,,,0
1294,5190001006171,登記記録の閉鎖等,0,2024-01-23,2024-01-22,株式会社サム・ホールディングス,,株式会社,三重県,鈴鹿市,住吉３丁目３２番１号,,24,207,5130826,,,2024-01-22,登記官による閉鎖,,,2015-10-05,1,,,,,,0
1295,5190002001337,登記記録の閉鎖等,0,2024-01-23,2024-01-22,有限会社藤枝荘,,有限会社,三重県,津市,一身田上津部田８７３番地,,24,201,5140061,,,2024-01-22,登記官による閉鎖,,,2015-10-05,1,,,,,,0
1296,5190002005684,登記記録の閉鎖等,0,2024-01-23,2024-01-22,有限会社浜千鳥,,有限会社,三重県,北牟婁郡紀北町,東長島２７１０番地の１,,24,543,5193204,,,2024-01-22,登記官による閉鎖,,,2015-10-05,1,,,,,,0
1297,5190002007202,登記記録の閉鎖等,0,2024-01-23,2024-01-22,有限会社ムッシュドゥーセ,,有限会社,三重県,鈴鹿市,南江島町１７番３０号,,24,207,5100235,,,2024-01-22,登記官による閉鎖,,,2015-10-05,1,,,,,,0
1298,5190002015857,登記記録の閉鎖等,0,2024-01-23,2024-01-22,有限会社丸徳水産,,有限会社,三重県,度会郡大紀町,錦６４３番地,,24,471,5192911,,,2024-01-22,登記官による閉鎖,,,2015-10-05,1,,,,,,0
1311,5250001010704,登記記録の閉鎖等,0,2024-01-23,2024-01-16,株式会社わかば,,株式会社,山口県,周南市,糀町１丁目１番地の１フロム０８３４，９０５号,,35,215,7450027,,,2024-01-16,登記官による閉鎖,,,2015-10-05,1,,,,,,0
1312,5250001013021,登記記録の閉鎖等,0,2024-01-23,2024-01-16,株式会社松風会,,株式会社,山口県,大島郡周防大島町,大字土居１４２６番地１,,35,305,7422803,,,2024-01-16,登記官による閉鎖,,,2015-10-05,1,,,,,,0
1313,5250001014036,登記記録の閉鎖等,0,2024-01-23,2024-01-16,株式会社コウケンパートナーズ２,,株式会社,山口県,光市,島田１丁目１４番２１号,,35,210,7430063,,,2024-01-16,登記官による閉鎖,,,2015-10-05,1,,,,,,0
1314,5250001014259,登記記録の閉鎖等,0,2024-01-23,2024-01-16,株式会社デイサービス琴,,株式会社,山口県,下関市,一の宮住吉２丁目１１番１２号ベルトピア下関Ｉ１０３号,00002509,35,201,7510805,,,2024-01-16,登記官による閉鎖,,,2015-10-05,1,,,,,,0
1315,5250002016898,登記記録の閉鎖等,0,2024-01-23,2024-01-16,有限会社エー・エル・シー玉木,,有限会社,山口県,光市,和田町２４番１９号,,35,210,7430044,,,2024-01-16,登記官による閉鎖,,,2015-10-05,1,,,,,,0
1316,5250002019315,登記記録の閉鎖等,0,2024-01-23,2024-01-16,有限会社佐古商店,,有限会社,山口県,岩国市,錦見４丁目８番３４号,,35,208,7410061,,,2024-01-16,登記官による閉鎖,,,2015-10-05,1,,,,,,0
1317,5250005001823,登記記録の閉鎖等,0,2024-01-23,2024-01-16,社団法人山口県新聞経営者協会,,その他の設立登記法人,山口県,防府市,本橋町７番２６号,,35,206,7470041,,,2024-01-16,登記官による閉鎖,,,2015-10-05,1,,,,,,0
1344,5370001014734,登記記録の閉鎖等,0,2024-01-23,2024-01-22,株式会社プラウダス,,株式会社,宮城県,仙台市青葉区,上杉２丁目４番２１号,,04,101,9800011,,,2024-01-22,登記官による閉鎖,,,2015-10-05,1,,,,,,0
1345,5370001021490,登記記録の閉鎖等,0,2024-01-23,2024-01-22,株式会社ジェイエムディアイ,,株式会社,宮城県,仙台市青葉区,落合２丁目１１番２,,04,101,9893126,,,2024-01-22,登記官による閉鎖,,,2015-10-05,1,,,,,,0
1346,5370002003208,登記記録の閉鎖等,0,2024-01-23,2024-01-22,有限会社スクラップ舎,,有限会社,宮城県,仙台市太白区,八木山松波町２番１３号,,04,104,9820836,,,2024-01-22,登記官による閉鎖,,,2015-10-05,1,,,,,,0
1347,5370002007407,登記記録の閉鎖等,0,2024-01-23,2024-01-22,有限会社斎英不動産,,有限会社,宮城県,仙台市宮城野区,小田原１丁目９番８－２号,,04,102,9830803,,,2024-01-22,登記官による閉鎖,,,2015-10-05,1,,,,,,0
1348,5370005000243,登記記録の閉鎖等,0,2024-01-23,2024-01-22,財団法人角川学園,,その他の設立登記法人,宮城県,仙台市青葉区,中央２丁目７番３０号,,04,101,9800021,,,2024-01-22,登記官による閉鎖,,,2015-10-05,1,,,,,,0
1349,5370202004625,登記記録の閉鎖等,0,2024-01-23,2024-01-22,有限会社千葉新商店,,有限会社,宮城県,栗原市,若柳字川北新町４５番地,,04,213,9895501,,,2024-01-22,登記官による閉鎖,,,2015-10-05,1,,,,,,0
1350,5370205000159,登記記録の閉鎖等,0,2024-01-23,2024-01-22,農事組合法人古川市宮沢たばこ生産共業組合,,その他の設立登記法人,宮城県,大崎市,古川宮沢字裏馬田町１５番地,,04,215,9896235,,,2024-01-22,登記官による閉鎖,,,2015-10-05,1,,,,,,0
1351,5370301001283,登記記録の閉鎖等,0,2024-01-23,2024-01-22,みなとタクシー株式会社,,株式会社,宮城県,石巻市,湊町１丁目４番１号,,04,202,9860025,,,2024-01-22,登記官による閉鎖,,,2015-10-05,1,,,,,,0
1352,5370601001066,登記記録の閉鎖等,0,2024-01-23,2024-01-22,キャピタルヒルズ株式会社,,株式会社,宮城県,多賀城市,中央２丁目１１番２０号,,04,209,9850873,,,2024-01-22,登記官による閉鎖,,,2015-10-05,1,,,,,,0
1354,5390001005269,登記記録の閉鎖等,0,2024-01-23,2024-01-22,株式会社ＴＫＫコーポレーション,,株式会社,山形県,山形市,若葉町１番１－１０３号エクセルハイツとらや,,06,201,9902495,,,2024-01-22,登記官による閉鎖,,,2015-10-05,1,,,,,,0
1355,5390001005525,登記記録の閉鎖等,0,2024-01-23,2024-01-22,株式会社メディア２１,,株式会社,山形県,山形市,大字成安５６７番地２,,06,201,9900891,,,2024-01-22,登記官による閉鎖,,,2015-10-05,1,,,,,,0
1356,5390001015251,登記記録の閉鎖等,0,2024-01-23,2024-01-22,三條食品株式会社,,株式会社,山形県,山形市,東原町２丁目１１番３６号,,06,201,9900034,,,2024-01-22,登記官による閉鎖,,,2018-04-04,1,,,,,サンジョウショクヒン,0
1357,5390002013428,登記記録の閉鎖等,0,2024-01-23,2024-01-22,有限会社松田建材,,有限会社,山形県,米沢市,太田町５丁目５５９番地の４,,06,202,9920035,,,2024-01-22,登記官による閉鎖,,,2015-10-05,1,,,,,,0
1358,5390005006230,登記記録の閉鎖等,0,2024-01-23,2024-01-22,財団法人万世教育振興会,,その他の設立登記法人,山形県,米沢市,八幡原５丁目４１４９番地の９万世コミニテイセンター内,,06,202,9921128,,,2024-01-22,登記官による閉鎖,,,2015-10-05,1,,,,,,0
1360,5420002010264,登記記録の閉鎖等,0,2024-01-23,2024-01-17,有限会社舘松調剤,,有限会社,青森県,八戸市,吹上３丁目５番２号,,02,203,0310003,,,2024-01-17,清算の結了等,,,2015-10-05,1,,,,,タテマツチョウザイ,0
1373,6010001116986,登記記録の閉鎖等,0,2024-01-23,2024-01-15,株式会社フードバンク横浜,,株式会社,東京都,中央区,銀座８丁目１０番６号,,13,102,1040061,,,2024-01-15,清算の結了等,,,2015-10-05,1,,,,,フードバンクヨコハマ,0
1386,6010401091433,登記記録の閉鎖等,0,2024-01-23,2024-01-17,青空メディカル株式会社,,株式会社,神奈川県,横浜市西区,みなとみらい４丁目４番２号横浜ブルーアベニュー１２階,,14,103,2200012,,,2024-01-17,清算の結了等,,,2015-10-05,1,,,,,アオゾラメディカル,0
1408,6010601025496,登記記録の閉鎖等,0,2024-01-23,2024-01-18,株式会社友和企画,,株式会社,東京都,墨田区,菊川２丁目１８番７号,,13,107,1300024,,,2024-01-18,清算の結了等,,,2015-10-05,1,,,,,ユウワキカク,0
1416,6010901008523,登記記録の閉鎖等,0,2024-01-23,2024-01-15,株式会社トップレディープロジェクト,,株式会社,東京都,世田谷区,太子堂１丁目１３番１１－６０８号,,13,112,1540004,,,2024-01-15,清算の結了等,,,2015-10-05,1,,,,,トップレディープロジェクト,0
1417,6010901036417,登記記録の閉鎖等,0,2024-01-23,2024-01-15,フォースフィールド株式会社,,株式会社,東京都,世田谷区,太子堂１丁目１２－２７コンフォートテラス１００５号,,13,112,1540004,,,2024-01-15,清算の結了等,,,2015-10-05,1,,,,,フォースフィールド,0
1441,6011702006410,登記記録の閉鎖等,0,2024-01-23,2024-01-17,有限会社誠友建築積算事務所,,有限会社,東京都,江戸川区,臨海町２丁目２番８－７０４号,,13,123,1340086,,,2024-01-17,清算の結了等,,,2015-10-05,1,,,,,セイユウケンチクセキサンジムショ,0
1443,6012301000911,登記記録の閉鎖等,0,2024-01-23,2024-01-23,株式会社サポートイン,,株式会社,東京都,町田市,原町田１丁目１９番４号,,13,209,1940013,,,2024-01-23,登記官による閉鎖,,,2015-10-05,1,,,,,,0
1444,6012301003096,登記記録の閉鎖等,0,2024-01-23,2024-01-23,株式会社エー・エス・ユーハウジング,,株式会社,東京都,町田市,木曽東３丁目１６番２６－３０１号,,13,209,1940036,,,2024-01-23,登記官による閉鎖,,,2015-10-05,1,,,,,,0
1445,6012302001834,登記記録の閉鎖等,0,2024-01-23,2024-01-23,有限会社小峰テニスクラブ,,有限会社,東京都,町田市,小山町３７０番地,,13,209,1940212,,,2024-01-23,登記官による閉鎖,,,2015-10-05,1,,,,,,0
1446,6012302002213,登記記録の閉鎖等,0,2024-01-23,2024-01-23,有限会社システム・アキラ,,有限会社,東京都,町田市,金井町２３０９番地４０,,13,209,1950071,,,2024-01-23,登記官による閉鎖,,,2015-10-05,1,,,,,,0
1447,6012302005026,登記記録の閉鎖等,0,2024-01-23,2024-01-23,ユニオン電設有限会社,,有限会社,東京都,町田市,鶴川４丁目１１番地１２,,13,209,1950061,,,2024-01-23,登記官による閉鎖,,,2015-10-05,1,,,,,,0
1453,6013301005818,登記記録の閉鎖等,0,2024-01-23,2024-01-16,杉山電気株式会社,,株式会社,東京都,豊島区,東池袋２丁目１７番１号,,13,116,1700013,,,2024-01-16,清算の結了等,,,2015-10-05,1,,,,,スギヤマデンキ,0
1462,6020002047866,登記記録の閉鎖等,0,2024-01-23,2024-01-18,有限会社ＬＩＮＡＳ　ＴＲＡＮＳＰＯＲＴ,,有限会社,神奈川県,相模原市中央区,千代田２丁目１０番２３－４０３号,,14,152,2520237,,,2024-01-18,清算の結了等,,,2015-10-05,1,,,,,ライナストランスポート,0
1463,6020002078969,登記記録の閉鎖等,0,2024-01-23,2024-01-18,有限会社フォーライフ市川,,有限会社,神奈川県,愛甲郡愛川町,中津２９８番地３エステートビル２０２号,,14,401,2430303,,,2024-01-18,清算の結了等,,,2015-10-05,1,,,,,,0
1464,6020003007811,登記記録の閉鎖等,0,2024-01-23,2024-01-17,合同会社カイリックス,,合同会社,神奈川県,横浜市神奈川区,金港町１－１１－９１１,,14,102,2210056,,,2024-01-17,清算の結了等,,,2015-10-05,1,,,,,カイリックス,0
1473,6021002005913,登記記録の閉鎖等,0,2024-01-23,2024-01-19,有限会社エムアイイー,,有限会社,神奈川県,藤沢市,善行２丁目２４番４９号,,14,205,2510871,,,2024-01-19,清算の結了等,,,2015-10-05,1,,,,,エムアイイー,0
1477,6030001019056,登記記録の閉鎖等,0,2024-01-23,2024-01-16,株式会社鳶昌,,株式会社,埼玉県,さいたま市岩槻区,太田１丁目７番２号,,11,110,3390052,,,2024-01-16,清算の結了等,,,2015-10-05,1,,,,,トビショウ,0
1478,6030001032703,登記記録の閉鎖等,0,2024-01-23,2024-01-15,石合不動産株式会社,,株式会社,埼玉県,羽生市,大字弥勒２２５６番地,,11,216,3480004,,,2024-01-15,清算の結了等,,,2015-10-05,1,,,,,イシアイフドウサン,0
1488,6030002100509,登記記録の閉鎖等,0,2024-01-23,2024-01-12,有限会社インテリア・グレース,,有限会社,埼玉県,川口市,芝富士１丁目９番２９号,,11,203,3330854,,,2024-01-12,清算の結了等,,,2015-10-05,1,,,,,インテリアグレース,0
1508,6090002004415,登記記録の閉鎖等,0,2024-01-23,2024-01-18,有限会社マイランチ,,有限会社,山梨県,中央市,中楯１２３４番地の１,,19,214,4093801,,,2024-01-18,清算の結了等,,,2015-10-05,1,,,,,,0
1511,6100001028974,登記記録の閉鎖等,0,2024-01-23,2024-01-10,株式会社ジェネレックジャパン,,株式会社,東京都,港区,赤坂２丁目２２番２１号,,13,103,1070052,,,2024-01-10,合併による解散等,1010401052992,令和５年１２月２７日東京都港区赤坂二丁目２２番２１号株式会社ジェネレックジャパン（1010401052992）に合併し解散,2016-01-12,1,,,,,ジェネレックジャパン,0
1512,6100002033445,登記記録の閉鎖等,0,2024-01-23,2024-01-15,有限会社山高産業,,有限会社,長野県,伊那市,高遠町藤沢１５１番地,,20,209,3960000,,,2024-01-15,清算の結了等,,,2015-10-05,1,,,,,ヤマタカサンギョウ,0
1516,6120001224274,登記記録の閉鎖等,0,2024-01-23,2024-01-11,楚漢株式会社,,株式会社,大阪府,大阪市中央区,瓦屋町２丁目１２－１５－５１３号,,27,128,5420066,,,2024-01-11,清算の結了等,,,2019-10-04,1,,,,,ソカン,0
1518,6120001249032,登記記録の閉鎖等,0,2024-01-23,2024-01-19,株式会社ユマトレーディング,,株式会社,大阪府,枚方市,宮之阪３丁目４番９号,,27,210,5730022,,,2024-01-19,清算の結了等,,,2022-09-27,1,,,,,ユマトレーディング,0
1539,6140001070147,登記記録の閉鎖等,0,2024-01-23,2024-01-17,株式会社ファーマシー甲子園,,株式会社,兵庫県,西宮市,甲子園八番町６番１５号,,28,204,6638178,,,2024-01-17,清算の結了等,,,2015-10-05,1,,,,,,0
1544,6170001015875,登記記録の閉鎖等,0,2024-01-23,2024-01-22,市谷運輸株式会社,,株式会社,和歌山県,橋本市,北馬場７番地の５,,30,203,6480061,,,2024-01-22,清算の結了等,,,2019-12-26,1,,,,,イチタニウンユ,0
1558,6190002005007,登記記録の閉鎖等,0,2024-01-23,2024-01-22,有限会社カネキタ水産,,有限会社,三重県,津市,久居新町７５６番地１３,,24,201,5141118,,,2024-01-22,登記官による閉鎖,,,2015-10-05,1,,,,,,0
1559,6190002005626,登記記録の閉鎖等,0,2024-01-23,2024-01-22,有限会社ヤマサン,,有限会社,三重県,北牟婁郡紀北町,相賀１９３７番地の４,,24,543,5193406,,,2024-01-22,登記官による閉鎖,,,2015-10-05,1,,,,,,0
1560,6190002011673,登記記録の閉鎖等,0,2024-01-23,2024-01-22,有限会社丸一商店,,有限会社,三重県,志摩市,大王町波切２３３番地,,24,215,5170603,,,2024-01-22,登記官による閉鎖,,,2015-10-05,1,,,,,,0
1562,6190002015856,登記記録の閉鎖等,0,2024-01-23,2024-01-22,有限会社丸沖建設,,有限会社,三重県,度会郡大紀町,錦２４８番地,,24,471,5192911,,,2024-01-22,登記官による閉鎖,,,2015-10-05,1,,,,,,0
1563,6190005004542,登記記録の閉鎖等,0,2024-01-23,2024-01-22,特定非営利活動法人スズカボクシングジム,,その他の設立登記法人,三重県,鈴鹿市,神戸８丁目６番９号,,24,207,5130801,,,2024-01-22,登記官による閉鎖,,,2015-10-05,1,,,,,,0
1564,6190005007611,登記記録の閉鎖等,0,2024-01-23,2024-01-22,特定非営利活動法人がんばれ．大台,,その他の設立登記法人,三重県,松阪市,田村町４９１番地１,,24,204,5150055,,,2024-01-22,登記官による閉鎖,,,2015-10-05,1,,,,,,0
1574,6230002009028,登記記録の閉鎖等,0,2024-01-23,2024-01-18,有限会社平松建設,,有限会社,富山県,滑川市,菰原６５番地１,,16,206,9360066,,,2024-01-18,清算の結了等,,,2015-10-05,1,,,,,ヒラマツケンセツ,0
1575,6240001012964,登記記録の閉鎖等,0,2024-01-23,2024-01-17,株式会社中国ＶＭＮ,,株式会社,広島県,広島市西区,横川町１丁目６番１７号,,34,104,7330011,,,2024-01-17,清算の結了等,,,2015-10-05,1,,,,,チュウゴクブイエムエヌ,0
1577,6250002002253,登記記録の閉鎖等,0,2024-01-23,2024-01-16,有限会社アーク商亊,,有限会社,山口県,山口市,鋳銭司５８５８番地,,35,203,7471221,,,2024-01-16,登記官による閉鎖,,,2015-10-05,1,,,,,,0
1578,6250002005776,登記記録の閉鎖等,0,2024-01-23,2024-01-16,有限会社水野商店,,有限会社,山口県,宇部市,琴芝町１丁目５番１５号,,35,202,7550033,,,2024-01-16,登記官による閉鎖,,,2015-10-05,1,,,,,,0
1579,6250002006650,登記記録の閉鎖等,0,2024-01-23,2024-01-16,有限会社浜機工,,有限会社,山口県,山陽小野田市,中川１丁目４－１５,,35,216,7560806,,,2024-01-16,登記官による閉鎖,,,2015-10-05,1,,,,,,0
1580,6250002007822,登記記録の閉鎖等,0,2024-01-23,2024-01-16,有限会社リガヤ,,有限会社,山口県,宇部市,神原町２丁目６番６９号,,35,202,7550022,,,2024-01-16,登記官による閉鎖,,,2015-10-05,1,,,,,,0
1582,6250005006929,登記記録の閉鎖等,0,2024-01-23,2024-01-16,社団法人熊毛郡歯科医師会,,その他の設立登記法人,山口県,熊毛郡田布施町,大字波野３８９番地の２,,35,343,7421502,,,2024-01-16,登記官による閉鎖,,,2015-10-05,1,,,,,,0
1587,6290002008115,登記記録の閉鎖等,0,2024-01-23,2024-01-22,有限会社サンスイ,,有限会社,福岡県,福岡市中央区,舞鶴３丁目２番３３号,,40,133,8100073,,,2024-01-22,清算の結了等,,,2015-10-05,1,,,,,サンスイ,0
1598,6310001001415,登記記録の閉鎖等,0,2024-01-23,2024-01-22,長崎月星株式会社,,株式会社,長崎県,長崎市,田中町５８５番地３,,42,201,8510134,,,2024-01-22,清算の結了等,,,2015-10-05,1,,,,,ナガサキツキボシ,0
1609,6370001005113,登記記録の閉鎖等,0,2024-01-23,2024-01-22,株式会社佐行木工所,,株式会社,宮城県,仙台市宮城野区,福室１丁目７番４８号,,04,102,9830005,,,2024-01-22,登記官による閉鎖,,,2015-10-05,1,,,,,,0
1612,6370002000682,登記記録の閉鎖等,0,2024-01-23,2024-01-22,有限会社グレイズ,,有限会社,宮城県,仙台市泉区,福岡字平場９番地の１１,,04,105,9813225,,,2024-01-22,登記官による閉鎖,,,2015-10-05,1,,,,,,0
1613,6370002003009,登記記録の閉鎖等,0,2024-01-23,2024-01-22,有限会社サン・フレンド,,有限会社,宮城県,仙台市太白区,西中田３丁目２３番５号,,04,104,9811105,,,2024-01-22,登記官による閉鎖,,,2015-10-05,1,,,,,,0
1614,6370002007620,登記記録の閉鎖等,0,2024-01-23,2024-01-22,有限会社ジーエムティー,,有限会社,宮城県,仙台市若林区,新寺３丁目２番３２号,,04,103,9840051,,,2024-01-22,登記官による閉鎖,,,2015-10-05,1,,,,,,0
1615,6370002019608,登記記録の閉鎖等,0,2024-01-23,2024-01-22,有限会社Ｋ’ｓ企画,,有限会社,宮城県,仙台市宮城野区,小鶴１丁目１３番１号,,04,102,9830031,,,2024-01-22,登記官による閉鎖,,,2015-10-05,1,,,,,,0
1616,6370101001656,登記記録の閉鎖等,0,2024-01-23,2024-01-22,ＫＳＰサービス株式会社,,株式会社,宮城県,柴田郡川崎町,大字川内字七曲山２１６番地６,,04,324,9891503,,,2024-01-22,登記官による閉鎖,,,2015-10-05,1,,,,,,0
1617,6370101001945,登記記録の閉鎖等,0,2024-01-23,2024-01-22,株式会社カワサキ,,株式会社,宮城県,柴田郡川崎町,大字前川字槻木５６番地１,,04,324,9891501,,,2024-01-22,登記官による閉鎖,,,2015-10-05,1,,,,,,0
1618,6370201002059,登記記録の閉鎖等,0,2024-01-23,2024-01-22,株式会社ロイヤルショップ鳴洗,,株式会社,宮城県,大崎市,鳴子温泉字末沢西４６番地の３,,04,215,9896802,,,2024-01-22,登記官による閉鎖,,,2015-10-05,1,,,,,,0
1619,6370302001447,登記記録の閉鎖等,0,2024-01-23,2024-01-22,有限会社大伸,,有限会社,宮城県,石巻市,清水町１丁目１２番３号,,04,202,9860871,,,2024-01-22,登記官による閉鎖,,,2015-10-05,1,,,,,,0
1620,6370601002360,登記記録の閉鎖等,0,2024-01-23,2024-01-22,株式会社創価,,株式会社,宮城県,多賀城市,高橋４丁目２３番２４号,,04,209,9850853,,,2024-01-22,登記官による閉鎖,,,2015-10-05,1,,,,,,0
1621,6370802000725,登記記録の閉鎖等,0,2024-01-23,2024-01-22,有限会社渡辺バラ園,,有限会社,宮城県,名取市,下余田字中荷４９０番地の１,,04,207,9811223,,,2024-01-22,登記官による閉鎖,,,2015-10-05,1,,,,,,0
1622,6370802001236,登記記録の閉鎖等,0,2024-01-23,2024-01-22,有限会社木村塗装店,,有限会社,宮城県,亘理郡亘理町,荒浜字篠子橋６５番地の１,,04,361,9892311,,,2024-01-22,登記官による閉鎖,,,2015-10-05,1,,,,,,0
1623,6390002003543,登記記録の閉鎖等,0,2024-01-23,2024-01-22,有限会社ほるぷ新社,,有限会社,山形県,山形市,薬師町２丁目２番２８号,,06,201,9900053,,,2024-01-22,登記官による閉鎖,,,2015-10-05,1,,,,,,0
1624,6390002007131,登記記録の閉鎖等,0,2024-01-23,2024-01-22,大瀧鉄筋有限会社,,有限会社,山形県,酒田市,丸沼字二枚田６９番地,,06,204,9997777,,,2024-01-22,登記官による閉鎖,,,2015-10-05,1,,,,,,0
1625,6390002013815,登記記録の閉鎖等,0,2024-01-23,2024-01-19,有限会社ＹＥＬＬ,,有限会社,山形県,東置賜郡高畠町,大字亀岡２７８１の１番地,,06,381,9920321,,,2024-01-19,清算の結了等,,,2015-10-05,1,,,,,エール,0
1626,6390005002740,登記記録の閉鎖等,0,2024-01-23,2024-01-22,特定非営利活動法人動物愛護団体ＬＩＶＥ,,その他の設立登記法人,山形県,山形市,薬師町２丁目６－１５,,06,201,9900053,,,2024-01-22,登記官による閉鎖,,,2015-10-05,1,,,,,,0
1628,6390005004984,登記記録の閉鎖等,0,2024-01-23,2024-01-22,社団法人下小中報徳社,,その他の設立登記法人,山形県,鶴岡市,下小中い１８３番地,,06,203,9971134,,,2024-01-22,登記官による閉鎖,,,2015-10-05,1,,,,,,0
1629,6390005006907,登記記録の閉鎖等,0,2024-01-23,2024-01-22,財団法人春日墓地公園,,その他の設立登記法人,山形県,西置賜郡白鷹町,大字荒砥乙７００番地１,,06,402,9920832,,,2024-01-22,登記官による閉鎖,,,2015-10-05,1,,,,,,0
1641,6500005006060,登記記録の閉鎖等,0,2024-01-23,2024-01-22,宇和島青果食品商業協同組合,,その他の設立登記法人,愛媛県,宇和島市,伊吹町８９５番地,,38,203,7980022,,,2024-01-22,清算の結了等,,,2015-10-05,1,,,,,ウワジマセイカショクヒンショウギョウ,0
1644,7010001159191,登記記録の閉鎖等,0,2024-01-23,2024-01-17,株式会社Ｓｐｒｉｎｔ　Ｔｅｃｈｎｏｌｏｇｉｅｓ,,株式会社,東京都,千代田区,一番町２０番地５－１００３号,,13,101,1020082,,,2024-01-17,清算の結了等,,,2015-10-05,1,,,,,スプリントテクノロジーズ,0
1645,7010001162930,登記記録の閉鎖等,0,2024-01-23,2024-01-17,ＪＯＰＤ株式会社,,株式会社,東京都,中央区,日本橋人形町３丁目３番９号,,13,102,1030013,,,2024-01-17,清算の結了等,,,2015-10-05,1,,,,,ジェイオーピーディー,0
1652,7010003036091,登記記録の閉鎖等,0,2024-01-23,2024-01-17,麹町ソーラー合同会社,,合同会社,東京都,千代田区,麹町２丁目８番地ＭＬＣ麹町ビル４階フィンポート税理士法人内,,13,101,1020083,,,2024-01-17,清算の結了等,,,2021-10-22,1,,,,,コウジマチソーラー,0
1680,7010901022606,登記記録の閉鎖等,0,2024-01-23,2024-01-15,株式会社タマデンエンジニアリング,,株式会社,東京都,世田谷区,玉堤１丁目１２番２０ー４０６号,,13,112,1580087,,,2024-01-15,清算の結了等,,,2015-10-05,1,,,,,タマデンエンジニアリング,0
1694,7011201015837,登記記録の閉鎖等,0,2024-01-23,2024-01-17,グレインマシナリー関東株式会社,,株式会社,千葉県,柏市,大室１１５３番地,,12,217,2770813,,,2024-01-17,合併による解散等,2400001009196,令和６年１月１日岩手県北上市川岸一丁目１６番１号サタケグレインマシナリー株式会社（2400001009196）に合併し解散,2015-10-05,1,,,,,グレインマシナリーカントウ,0
1702,7011502012954,登記記録の閉鎖等,0,2024-01-23,2024-01-11,有限会社銀座東進ビル,,有限会社,東京都,荒川区,南千住６丁目３７番１０号,,13,118,1160003,,,2024-01-11,清算の結了等,,,2015-10-05,1,,,,,ギンザトウシンビル,0
1704,7011601000579,登記記録の閉鎖等,0,2024-01-23,2024-01-19,株式会社五十鈴建設,,株式会社,東京都,練馬区,西大泉４丁目３番３２号,,13,120,1780065,,,2024-01-19,清算の結了等,,,2015-10-05,1,,,,,イスズケンセツ,0
1709,7012301000209,登記記録の閉鎖等,0,2024-01-23,2024-01-23,株式会社イクシーラボ,,株式会社,東京都,町田市,金井町２０５６番地２６,,13,209,1950071,,,2024-01-23,登記官による閉鎖,,,2015-10-05,1,,,,,,0
1710,7012301000976,登記記録の閉鎖等,0,2024-01-23,2024-01-23,株式会社三和設計,,株式会社,東京都,町田市,図師町１６１９番地６,,13,209,1940203,,,2024-01-23,登記官による閉鎖,,,2015-10-05,1,,,,,,0
1711,7012301002527,登記記録の閉鎖等,0,2024-01-23,2024-01-23,株式会社南東京ホーム,,株式会社,東京都,町田市,金森２丁目３７番１６号リヴェール町田ＩＩＩ２０２,00057724,13,209,1940012,,,2024-01-23,登記官による閉鎖,,,2015-10-05,1,,,,,,0
1712,7012301003070,登記記録の閉鎖等,0,2024-01-23,2024-01-23,株式会社ビー・エル・ティー,,株式会社,東京都,町田市,小野路町４３７７番地,,13,209,1950064,,,2024-01-23,登記官による閉鎖,,,2015-10-05,1,,,,,,0
1732,7021001036009,登記記録の閉鎖等,0,2024-01-23,2024-01-17,株式会社スギデザインオフィス,,株式会社,神奈川県,大和市,中央林間西５丁目２０番２０号,,14,213,2420008,,,2024-01-17,清算の結了等,,,2015-10-05,1,,,,,スギデザインオフィス,0
1734,7021003009409,登記記録の閉鎖等,0,2024-01-23,2024-01-19,合同会社Ｊｕｉｃｅ,,合同会社,神奈川県,茅ヶ崎市,浜須賀１５番２１号,,14,207,2530035,,,2024-01-19,清算の結了等,,,2020-06-05,1,,,,,,0
1754,7040003012932,登記記録の閉鎖等,0,2024-01-23,2024-01-09,合同会社グリードコンサルティング,,合同会社,千葉県,船橋市,前原西６丁目１番６３号パークハウス木々津田沼前原６０１号室,,12,204,2740825,,,2024-01-09,清算の結了等,,,2019-02-20,1,,,,,グリードコンサルティング,0
1758,7050001005268,登記記録の閉鎖等,0,2024-01-23,2024-01-18,株式会社エイダイハウジング,,株式会社,茨城県,水戸市,元吉田町３３６番地３,,08,201,3100836,,,2024-01-18,清算の結了等,,,2015-10-05,1,,,,,エイダイハウジング,0
1759,7050001006002,登記記録の閉鎖等,0,2024-01-23,2024-01-18,株式会社ＳＵＭＡＩＮＮＯ,,株式会社,茨城県,水戸市,元吉田町３３６番地３,,08,201,3100836,,,2024-01-18,清算の結了等,,,2015-10-05,1,,,,,スマイノ,0
1760,7050001046980,登記記録の閉鎖等,0,2024-01-23,2024-01-18,株式会社読売センター土浦北部,,株式会社,茨城県,土浦市,真鍋６丁目１０番３号,,08,203,3000051,,,2024-01-18,清算の結了等,,,2020-01-08,1,,,,,ヨミウリセンターツチウラホクブ,0
1764,7050002007486,登記記録の閉鎖等,0,2024-01-23,2024-01-19,有限会社メディカル・セラピー,,有限会社,茨城県,水戸市,千波町２８４０番地２７,,08,201,3100851,,,2024-01-19,清算の結了等,,,2015-10-05,1,,,,,メディカルセラピー,0
1765,7050002027435,登記記録の閉鎖等,0,2024-01-23,2024-01-16,有限会社福水電気工業,,有限会社,茨城県,神栖市,木崎２４０６番地５６７,,08,232,3140127,,,2024-01-16,清算の結了等,,,2015-10-05,1,,,,,フクミズデンキコウギョウ,0
1767,7070002018985,登記記録の閉鎖等,0,2024-01-23,2024-01-15,有限会社サカクラ,,有限会社,群馬県,伊勢崎市,波志江町１８７５番地２,,10,204,3720001,,,2024-01-15,清算の結了等,,,2015-10-05,1,,,,,サカクラ,0
1785,7120001208565,登記記録の閉鎖等,0,2024-01-23,2023-12-27,株式会社ライフスイッチ,,株式会社,大阪府,大阪市淀川区,西中島１丁目１３番６号新大阪オーパスビル８Ｆ,,27,123,5320011,,,2023-12-27,清算の結了等,,,2017-10-06,1,,,,,ライフスイッチ,0
1810,7140002035726,登記記録の閉鎖等,0,2024-01-23,2024-01-17,有限会社ケートップ,,有限会社,兵庫県,加古川市,上荘町国包９０３番地,,28,210,6751213,,,2024-01-17,清算の結了等,,,2015-10-05,1,,,,,ケートップ,0
1827,7190001003448,登記記録の閉鎖等,0,2024-01-23,2024-01-22,株式会社辻出板金工業,00075588,株式会社,三重県,亀山市,野村４丁目３番４０号,,24,210,5190165,,,2024-01-22,登記官による閉鎖,,,2015-10-05,1,,,,,,0
1828,7190001006384,登記記録の閉鎖等,0,2024-01-23,2024-01-19,朝日重機工業株式会社,,株式会社,三重県,伊勢市,二見町西１０９５番地７７,,24,203,5190607,,,2024-01-19,清算の結了等,,,2015-10-05,1,,,,,アサヒジュウキコウギョウ,0
1829,7190001007052,登記記録の閉鎖等,0,2024-01-23,2024-01-22,ミエ・リアルエステート株式会社,,株式会社,三重県,伊勢市,中島２丁目１番２４号,,24,203,5160067,,,2024-01-22,登記官による閉鎖,,,2015-10-05,1,,,,,,0
1830,7190001010790,登記記録の閉鎖等,0,2024-01-23,2024-01-22,株式会社日装,,株式会社,三重県,松阪市,小野江町５６９番地の２,,24,204,5152109,,,2024-01-22,登記官による閉鎖,,,2015-10-05,1,,,,,,0
1831,7190001011582,登記記録の閉鎖等,0,2024-01-23,2024-01-22,株式会社のどか,,株式会社,三重県,松阪市,大黒田町字畔田７２１番地２,,24,204,5150063,,,2024-01-22,登記官による閉鎖,,,2015-10-05,1,,,,,,0
1835,7190002006854,登記記録の閉鎖等,0,2024-01-23,2024-01-22,有限会社ニツコー商会,,有限会社,三重県,鈴鹿市,若松東３丁目３番１０号,,24,207,5100225,,,2024-01-22,登記官による閉鎖,,,2015-10-05,1,,,,,,0
1836,7190002007555,登記記録の閉鎖等,0,2024-01-23,2024-01-22,有限会社サツキ,,有限会社,三重県,鈴鹿市,長太栄町３丁目１０番２９号,,24,207,5130043,,,2024-01-22,登記官による閉鎖,,,2015-10-05,1,,,,,,0
1837,7190002024625,登記記録の閉鎖等,0,2024-01-23,2024-01-22,有限会社東栄産業,,有限会社,三重県,四日市市,安島２丁目３番３号交邦ビル３階,,24,202,5100075,,,2024-01-22,登記官による閉鎖,,,2018-11-26,1,,,,,トウエイサンギョウ,0
1840,7220001010283,登記記録の閉鎖等,0,2024-01-23,2024-01-15,株式会社フーズ・フォーラス,,株式会社,東京都,千代田区,神田小川町１丁目８番８号神田小川町東誠ビル５Ｆ,,13,101,1010052,,,2024-01-15,清算の結了等,,,2015-10-05,1,,,,,フーズフォーラス,0
1845,7250001009406,登記記録の閉鎖等,0,2024-01-23,2024-01-16,株式会社石井建設,,株式会社,山口県,下松市,大字西豊井１３７５番地の１５,,35,207,7440011,,,2024-01-16,登記官による閉鎖,,,2015-10-05,1,,,,,,0
1846,7250002009842,登記記録の閉鎖等,0,2024-01-23,2024-01-16,有限会社田上工業所,,有限会社,山口県,下関市,大字綾羅木３７０番地,,35,201,7510866,,,2024-01-16,登記官による閉鎖,,,2015-10-05,1,,,,,,0
1847,7250002011294,登記記録の閉鎖等,0,2024-01-23,2024-01-16,有限会社ヤオノ商店,,有限会社,山口県,下関市,竹崎町４丁目４番８号,,35,201,7500025,,,2024-01-16,登記官による閉鎖,,,2015-10-05,1,,,,,,0
1848,7250002016814,登記記録の閉鎖等,0,2024-01-23,2024-01-16,松田建材有限会社,,有限会社,山口県,周南市,鶴見台１丁目５番１号,,35,215,7450632,,,2024-01-16,登記官による閉鎖,,,2015-10-05,1,,,,,,0
1849,7250002020386,登記記録の閉鎖等,0,2024-01-23,2024-01-16,有限会社池田建設,,有限会社,山口県,大島郡周防大島町,大字油宇５７５番地,,35,305,7422602,,,2024-01-16,登記官による閉鎖,,,2015-10-05,1,,,,,,0
1850,7250005006341,登記記録の閉鎖等,0,2024-01-23,2024-01-16,財団法人川越村有隣会,,その他の設立登記法人,山口県,岩国市,周東町獺越２１６７番地,00002994,35,208,7420422,,,2024-01-16,登記官による閉鎖,,,2015-10-05,1,,,,,,0
1851,7250005008379,登記記録の閉鎖等,0,2024-01-23,2024-01-16,新庄村大祖農事實行組合,,その他の設立登記法人,山口県,柳井市,新庄字大祖,,35,212,7420033,,,2024-01-16,登記官による閉鎖,,,2018-01-23,1,,,,,,0
1852,7250005008387,登記記録の閉鎖等,0,2024-01-23,2024-01-16,吉見塩業組合,,その他の設立登記法人,山口県,下関市,大字永田郷２０１５番地の２,,35,201,7596534,,,2024-01-16,登記官による閉鎖,,,2018-02-20,1,,,,,,0
1877,7370001019673,登記記録の閉鎖等,0,2024-01-23,2024-01-22,株式会社日和仙台,,株式会社,宮城県,仙台市宮城野区,鶴巻１丁目２２番６１号,,04,102,9830024,,,2024-01-22,登記官による閉鎖,,,2015-10-05,1,,,,,,0
1878,7370002006282,登記記録の閉鎖等,0,2024-01-23,2024-01-22,有限会社リアクト,,有限会社,宮城県,仙台市若林区,上飯田４丁目７番１号,,04,103,9840838,,,2024-01-22,登記官による閉鎖,,,2015-10-05,1,,,,,,0
1879,7370002010417,登記記録の閉鎖等,0,2024-01-23,2024-01-22,有限会社加藤勇製作所,,有限会社,宮城県,仙台市青葉区,小松島４丁目２５番１５号,,04,101,9810905,,,2024-01-22,登記官による閉鎖,,,2015-10-05,1,,,,,,0
1880,7370002019573,登記記録の閉鎖等,0,2024-01-23,2024-01-22,天天商事有限会社,,有限会社,宮城県,仙台市青葉区,中央３丁目８番５号,,04,101,9800021,,,2024-01-22,登記官による閉鎖,,,2015-10-05,1,,,,,,0
1881,7370101000319,登記記録の閉鎖等,0,2024-01-23,2024-01-22,株式会社空海,,株式会社,宮城県,角田市,君萱字菖蒲沢１３５番地,,04,208,9811525,,,2024-01-22,登記官による閉鎖,,,2015-10-05,1,,,,,,0
1882,7370202004037,登記記録の閉鎖等,0,2024-01-23,2024-01-22,有限会社ビー・エージェンシー,,有限会社,宮城県,遠田郡美里町,北浦字二又８番地の３０,,04,505,9870005,,,2024-01-22,登記官による閉鎖,,,2015-10-05,1,,,,,,0
1883,7370602000957,登記記録の閉鎖等,0,2024-01-23,2024-01-22,有限会社塩釜カネタ,,有限会社,宮城県,塩竈市,牛生町４番２９号,,04,203,9850013,,,2024-01-22,登記官による閉鎖,,,2015-10-05,1,,,,,,0
1884,7370802002225,登記記録の閉鎖等,0,2024-01-23,2024-01-22,有限会社オープレイス,,有限会社,宮城県,名取市,相互台２丁目４番地の６,,04,207,9811246,,,2024-01-22,登記官による閉鎖,,,2015-10-05,1,,,,,,0
1886,7390005003911,登記記録の閉鎖等,0,2024-01-23,2024-01-22,財団法人斎藤奨善会,,その他の設立登記法人,山形県,鶴岡市,播磨丁１２５番地,,06,203,9970002,,,2024-01-22,登記官による閉鎖,,,2015-10-05,1,,,,,,0
1887,7390005004983,登記記録の閉鎖等,0,2024-01-23,2024-01-22,財団法人洪愛協会,,その他の設立登記法人,山形県,鶴岡市,十日町乙２１番地,,06,203,9970000,,,2024-01-22,登記官による閉鎖,,,2015-10-05,1,,,,,,1
1891,7420001001543,登記記録の閉鎖等,0,2024-01-23,2024-01-18,株式会社東京室内,,株式会社,青森県,青森市,けやき１丁目９番１２号,,02,201,0300918,,,2024-01-18,清算の結了等,,,2015-10-05,1,,,,,,0
1892,7420003002721,登記記録の閉鎖等,0,2024-01-23,2024-01-18,合同会社戸舘建設工業,,合同会社,青森県,上北郡野辺地町,字寺ノ沢９３番地６０,,02,401,0393118,,,2024-01-18,清算の結了等,,,2023-05-17,1,,,,,トダテケンセツコウギョウ,0
1911,8010001101284,登記記録の閉鎖等,0,2024-01-23,2024-01-16,株式会社明治プラスチック,,株式会社,東京都,中央区,日本橋兜町１７番１号日本橋ロイヤルプラザ７０６,,13,102,1030026,,,2024-01-16,清算の結了等,,,2015-10-05,1,,,,,メイジプラスチック,0
1930,8010005035792,登記記録の閉鎖等,0,2024-01-23,2024-01-22,一般社団法人エステック瀬底島,,その他の設立登記法人,東京都,中央区,京橋２丁目７番１９号,,13,102,1040031,,,2024-01-22,清算の結了等,,,2022-11-15,1,,,,,エステックセソコジマ,0
1931,8010401095168,登記記録の閉鎖等,0,2024-01-23,2024-01-16,株式会社オピニオン,,株式会社,東京都,中央区,新富１丁目１番７号,,13,102,1040041,,,2024-01-16,清算の結了等,,,2015-10-05,1,,,,,オピニオン,0
1933,8010401133753,登記記録の閉鎖等,0,2024-01-23,2024-01-11,株式会社オーシャン,,株式会社,東京都,港区,芝３丁目５番５号,,13,103,1050014,,,2024-01-11,合併による解散等,5010401018998,令和６年１月１日東京都港区芝三丁目５番５号株式会社東栄リーファーライン（5010401018998）に合併し解散,2017-09-12,1,,,,,オーシャン,0
1937,8010501002800,登記記録の閉鎖等,0,2024-01-23,2024-01-17,株式会社ガラクタ貿易,,株式会社,東京都,台東区,上野６丁目９番２１号,,13,106,1100005,,,2024-01-17,合併による解散等,6010501022313,令和６年１月１６日東京都台東区上野六丁目９番２１号株式会社ギャトラック（6010501022313）に合併し解散,2015-10-05,1,,,,,ガラクタボウエキ,0
1942,8010601005447,登記記録の閉鎖等,0,2024-01-23,2024-01-18,仲町興業株式会社,,株式会社,東京都,江東区,富岡１丁目５番１０号,,13,108,1350047,,,2024-01-18,清算の結了等,,,2015-10-05,1,,,,,ナカチョウコウギョウ,0
1945,8010602013787,登記記録の閉鎖等,0,2024-01-23,2024-01-09,有限会社野村電友社,,有限会社,東京都,墨田区,東向島３丁目１４番１１号,,13,107,1310032,,,2024-01-09,清算の結了等,,,2015-10-05,1,,,,,ノムラデンユウシャ,0
1948,8010901025772,登記記録の閉鎖等,0,2024-01-23,2024-01-15,株式会社エヌワイアドバンス,,株式会社,東京都,世田谷区,等々力２丁目３９番２１－１０２号,,13,112,1580082,,,2024-01-15,清算の結了等,,,2015-10-05,1,,,,,エヌワイアドバンス,0
1953,8010903006234,登記記録の閉鎖等,0,2024-01-23,2024-01-11,楽天ＤＸソリューション合同会社,,合同会社,東京都,世田谷区,玉川１丁目１４番１号,,13,112,1580094,,,2024-01-11,合併による解散等,9010701020592,令和６年１月１日東京都世田谷区玉川一丁目１４番１号楽天グループ株式会社（9010701020592）に合併し解散,2021-02-08,1,,,,,ラクテンディーエックスソリューション,0
1976,8011801005410,登記記録の閉鎖等,0,2024-01-23,2024-01-18,足立コンピュータサービス株式会社,,株式会社,東京都,足立区,栗原１丁目２０番１１－４０５号,,13,121,1230842,,,2024-01-18,清算の結了等,,,2015-10-05,1,,,,,アダチコンピューターサービス,0
1977,8011802001334,登記記録の閉鎖等,0,2024-01-23,2024-01-18,有限会社大木金版彫刻,,有限会社,東京都,葛飾区,立石８丁目４７番３号,,13,122,1240012,,,2024-01-18,清算の結了等,,,2015-10-05,1,,,,,オオキキンバンチョウコク,0
1979,8012301001866,登記記録の閉鎖等,0,2024-01-23,2024-01-23,株式会社長尾自動車,,株式会社,東京都,町田市,木曽東３丁目２０番３８号,,13,209,1940036,,,2024-01-23,登記官による閉鎖,,,2015-10-05,1,,,,,,0
1980,8012302003119,登記記録の閉鎖等,0,2024-01-23,2024-01-23,有限会社つる川園芸,,有限会社,東京都,町田市,広袴４丁目２番地２,,13,209,1950056,,,2024-01-23,登記官による閉鎖,,,2015-10-05,1,,,,,,0
1984,8013301046348,登記記録の閉鎖等,0,2024-01-23,2024-01-19,株式会社微分,,株式会社,東京都,新宿区,新宿４丁目１－６ＪＲ新宿ミライナタワー１８Ｆ,,13,104,1600022,,,2024-01-19,清算の結了等,,,2020-10-09,1,,,,,ビブン,0
1987,8013303006135,登記記録の閉鎖等,0,2024-01-23,2024-01-16,合同会社１,,合同会社,東京都,豊島区,東池袋１丁目３４番５号いちご東池袋ビル６階,,13,116,1700013,,,2024-01-16,清算の結了等,,,2022-04-27,1,,,,,イチ,0
2011,8021001080237,登記記録の閉鎖等,0,2024-01-23,2024-01-19,株式会社ジョルジュ,,株式会社,神奈川県,鎌倉市,長谷２丁目８番５号鎌倉コートハウス１１２,,14,204,2480016,,,2024-01-19,清算の結了等,,,2023-09-20,1,,,,,,0
2033,8040002011315,登記記録の閉鎖等,0,2024-01-23,2024-01-12,有限会社緑台建設工業,,有限会社,千葉県,千葉市稲毛区,黒砂１丁目１６番５号,,12,103,2630042,,,2024-01-12,清算の結了等,,,2015-10-05,1,,,,,ミドリダイケンセツコウギョウ,0
2054,8110005016626,登記記録の閉鎖等,0,2024-01-23,2024-01-19,一般社団法人和,,その他の設立登記法人,新潟県,五泉市,中川新５６１９番地４,,15,218,9591632,,,2024-01-19,清算の結了等,,,2021-02-15,1,,,,,ナゴミ,0
2056,8120001151954,登記記録の閉鎖等,0,2024-01-23,2024-01-15,株式会社ロイヤルクラウスハンセン・ジャパン,,株式会社,大阪府,大阪市都島区,片町２丁目２－４０大発ビル５Ｆ５０１,,27,102,5340025,,,2024-01-15,清算の結了等,,,2015-10-05,1,,,,,ロイヤルクラウスハンセンジャパン,0
2083,8140001092206,登記記録の閉鎖等,0,2024-01-23,2024-01-16,株式会社すまいる,,株式会社,兵庫県,伊丹市,北伊丹８丁目１０番地６アクトステージ伊丹５１５号,,28,207,6640831,,,2024-01-16,清算の結了等,,,2015-10-05,1,,,,,スマイル,0
2091,8140002036822,登記記録の閉鎖等,0,2024-01-23,2024-01-19,良和有限会社,,有限会社,兵庫県,加古川市,加古川町北在家２１９１番地,,28,210,6750031,,,2024-01-19,清算の結了等,,,2015-10-05,1,,,,,リョウワ,0
2094,8140005022753,登記記録の閉鎖等,0,2024-01-23,2024-01-15,特定非営利活動法人ヴォイス・アーツ,,その他の設立登記法人,兵庫県,西宮市,甲陽園東山町１２番１３号,,28,204,6620012,,,2024-01-15,清算の結了等,,,2016-01-15,1,,,,,ヴォイスアーツ,0
2096,8150001019117,登記記録の閉鎖等,0,2024-01-23,2024-01-22,インクス株式会社,,株式会社,奈良県,磯城郡田原本町,大字秦庄４０８－７ル・ジャルダンＶＩＩ－Ａ,00115384,29,363,6360343,,,2024-01-22,清算の結了等,,,2015-10-05,1,,,,,,0
2104,8180001024758,登記記録の閉鎖等,0,2024-01-23,2024-01-17,犬飼印刷株式会社,,株式会社,愛知県,名古屋市西区,上名古屋３丁目６番１１号,,23,104,4510025,,,2024-01-17,清算の結了等,,,2015-10-05,1,,,,,イヌカイインサツ,0
2113,8180301037402,登記記録の閉鎖等,0,2024-01-23,2024-01-11,株式会社丸服,,株式会社,愛知県,知立市,谷田町西１丁目１０番地１９,,23,225,4720014,,,2024-01-11,清算の結了等,,,2023-05-18,1,,,,,マルフク,0
2116,8190001007051,登記記録の閉鎖等,0,2024-01-23,2024-01-22,宮本重機株式会社,,株式会社,三重県,伊勢市,中島２丁目１番２４号,,24,203,5160067,,,2024-01-22,登記官による閉鎖,,,2015-10-05,1,,,,,,0
2120,8190002012959,登記記録の閉鎖等,0,2024-01-23,2024-01-22,有限会社亀山商店,,有限会社,三重県,名張市,梅が丘北２番町２６９番地,,24,208,5180747,,,2024-01-22,登記官による閉鎖,,,2015-10-05,1,,,,,,0
2121,8190002017520,登記記録の閉鎖等,0,2024-01-23,2024-01-22,有限会社サトウデンタルアート,,有限会社,三重県,桑名市,長島町押付５３５番地の３５,,24,205,5111113,,,2024-01-22,登記官による閉鎖,,,2015-10-05,1,,,,,,0
2122,8200002027897,登記記録の閉鎖等,0,2024-01-23,2024-01-22,有限会社トレンディ・マドカ,,有限会社,岐阜県,郡上市,八幡町殿町１８０番地の１,,21,219,5014213,,,2024-01-22,清算の結了等,,,2015-10-05,1,,,,,トレンディマドカ,0
2129,8250001005346,登記記録の閉鎖等,0,2024-01-23,2024-01-16,株式会社ギャラリーニイマルイチ,,株式会社,山口県,下関市,唐戸町２番１６号,,35,201,7500005,,,2024-01-16,登記官による閉鎖,,,2015-10-05,1,,,,,,0
2132,8250002002937,登記記録の閉鎖等,0,2024-01-23,2024-01-16,有限会社片山工務店,,有限会社,山口県,防府市,清水町２２番２７号,,35,206,7470842,,,2024-01-16,登記官による閉鎖,,,2017-03-07,1,,,,,,0
2133,8250002007696,登記記録の閉鎖等,0,2024-01-23,2024-01-16,有限会社志賀農産,,有限会社,山口県,美祢市,美東町真名２９０７番地,,35,213,7540122,,,2024-01-16,登記官による閉鎖,,,2015-10-05,1,,,,,,0
2134,8250002008372,登記記録の閉鎖等,0,2024-01-23,2024-01-16,有限会社大枝薬品,,有限会社,山口県,下関市,幸町１番６号,,35,201,7500001,,,2024-01-16,登記官による閉鎖,,,2015-10-05,1,,,,,,0
2135,8250002009461,登記記録の閉鎖等,0,2024-01-23,2024-01-16,有限会社新日本管財,,有限会社,山口県,下関市,楠乃３丁目５番５１号,,35,201,7510804,,,2024-01-16,登記官による閉鎖,,,2018-02-09,1,,,,,,0
2136,8250002011269,登記記録の閉鎖等,0,2024-01-23,2024-01-16,有限会社森開発,,有限会社,山口県,下関市,長府才川１丁目２４番１７号,,35,201,7520928,,,2024-01-16,登記官による閉鎖,,,2015-10-05,1,,,,,,0
2138,8250002020757,登記記録の閉鎖等,0,2024-01-23,2024-01-16,有限会社棟近商店,,有限会社,山口県,下関市,金比羅町１４番６号,,35,201,7500058,,,2024-01-16,登記官による閉鎖,,,2018-02-27,1,,,,,,0
2139,8250002020765,登記記録の閉鎖等,0,2024-01-23,2024-01-16,角谷木工有限会社,,有限会社,山口県,下松市,栄町１丁目５番１５号,,35,207,7440013,,,2024-01-16,登記官による閉鎖,,,2018-07-26,1,,,,,,0
2141,8250005005482,登記記録の閉鎖等,0,2024-01-23,2024-01-16,社団法人山口県解体業協会,,その他の設立登記法人,山口県,周南市,江の宮町３番３１号,,35,215,7450826,,,2024-01-16,登記官による閉鎖,,,2015-10-05,1,,,,,,0
2142,8250005005771,登記記録の閉鎖等,0,2024-01-23,2024-01-16,財団法人図書倶楽部,,その他の設立登記法人,山口県,光市,大字光井５５７番地の４,,35,210,7430011,,,2024-01-16,登記官による閉鎖,,,2015-10-05,1,,,,,,0
2143,8250005006316,登記記録の閉鎖等,0,2024-01-23,2024-01-16,財団法人羅漢開発協会,,その他の設立登記法人,山口県,岩国市,錦町大原５２３番地,,35,208,7400903,,,2024-01-16,登記官による閉鎖,,,2015-10-05,1,,,,,,0
2146,8260001024725,登記記録の閉鎖等,0,2024-01-23,2024-01-22,ＪＳ工房株式会社,,株式会社,岡山県,浅口市,金光町地頭下６４１番地,,33,216,7190106,,,2024-01-22,清算の結了等,,,2015-10-05,1,,,,,ジェイエスコウボウ,0
2150,8280005002774,登記記録の閉鎖等,0,2024-01-23,2024-01-04,協同組合荘原ショッピングセンター,,その他の設立登記法人,島根県,出雲市,斐川町荘原３８４０番地,,32,203,6990502,,,2024-01-04,清算の結了等,,,2015-10-05,1,,,,,ショウバラショッピングセンター,0
2166,8370001006778,登記記録の閉鎖等,0,2024-01-23,2024-01-22,株式会社アーバン設計,,株式会社,宮城県,仙台市青葉区,小松島３丁目６番２３－２０２号,,04,101,9810905,,,2024-01-22,登記官による閉鎖,,,2015-10-05,1,,,,,,0
2167,8370002001992,登記記録の閉鎖等,0,2024-01-23,2024-01-22,有限会社ヨシダ機工,,有限会社,宮城県,仙台市泉区,住吉台東２丁目８番地の１２,,04,105,9813222,,,2024-01-22,登記官による閉鎖,,,2015-10-05,1,,,,,,0
2168,8370002006182,登記記録の閉鎖等,0,2024-01-23,2024-01-22,有限会社森左官店,,有限会社,宮城県,仙台市若林区,霞目２丁目２３番２１号,,04,103,9840035,,,2024-01-22,登記官による閉鎖,,,2015-10-05,1,,,,,,0
2171,8370005000249,登記記録の閉鎖等,0,2024-01-23,2024-01-22,財団法人道交会,,その他の設立登記法人,宮城県,仙台市泉区,館２丁目２３番地の１,,04,105,9813214,,,2024-01-22,登記官による閉鎖,,,2015-10-05,1,,,,,,0
2172,8370102001637,登記記録の閉鎖等,0,2024-01-23,2024-01-22,有限会社伊藤エーエルシー,,有限会社,宮城県,伊具郡丸森町,大張川張字中ノ間舘５０番地２,,04,341,9812302,,,2024-01-22,登記官による閉鎖,,,2015-10-05,1,,,,,,0
2173,8370102002288,登記記録の閉鎖等,0,2024-01-23,2024-01-22,有限会社大野自動車整備工場,,有限会社,宮城県,白石市,大平森合字鹿ノ前１番地,,04,206,9890217,,,2024-01-22,登記官による閉鎖,,,2015-10-05,1,,,,,,0
2174,8370201003096,登記記録の閉鎖等,0,2024-01-23,2024-01-22,千葉造園設計株式会社,,株式会社,宮城県,栗原市,志波姫北郷糠塚前４５番地,,04,213,9895605,,,2024-01-22,登記官による閉鎖,,,2015-10-05,1,,,,,,0
2175,8370301002799,登記記録の閉鎖等,0,2024-01-23,2024-01-22,雄勝復興株式会社,,株式会社,宮城県,石巻市,雄勝町水浜字水浜６２番地３,,04,202,9861321,,,2024-01-22,登記官による閉鎖,,,2015-10-05,1,,,,,,0
2176,8370302003301,登記記録の閉鎖等,0,2024-01-23,2024-01-22,有限会社Ａ・ＭＩ,,有限会社,宮城県,石巻市,大街道北３丁目４番８５号,,04,202,9860854,,,2024-01-22,登記官による閉鎖,,,2015-10-05,1,,,,,,0
2177,8370602000403,登記記録の閉鎖等,0,2024-01-23,2024-01-22,有限会社カクサ佐々木商店,,有限会社,宮城県,塩竈市,越の浦１丁目３番３号,,04,203,9850083,,,2024-01-22,登記官による閉鎖,,,2015-10-05,1,,,,,,0
2178,8370801000988,登記記録の閉鎖等,0,2024-01-23,2024-01-22,株式会社テプル,,株式会社,宮城県,岩沼市,下野郷字出雲屋敷８３番地,,04,211,9892421,,,2024-01-22,登記官による閉鎖,,,2015-10-05,1,,,,,,0
2179,8370801001185,登記記録の閉鎖等,0,2024-01-23,2024-01-22,株式会社紅華亭,,株式会社,宮城県,亘理郡山元町,坂元字堤入８番地３,,04,362,9892111,,,2024-01-22,登記官による閉鎖,,,2015-10-05,1,,,,,,0
2183,8380002011520,登記記録の閉鎖等,0,2024-01-23,2024-01-19,有限会社橋本商店,,有限会社,福島県,郡山市,本町２丁目２５番２号,,07,203,9638871,,,2024-01-19,清算の結了等,,,2015-10-05,1,,,,,ハシモトショウテン,0
2189,8390002003252,登記記録の閉鎖等,0,2024-01-23,2024-01-22,有限会社あんしん,,有限会社,山形県,東村山郡中山町,大字柳沢３７５番地の２,,06,302,9900406,,,2024-01-22,登記官による閉鎖,,,2015-10-05,1,,,,,,0
2190,8390002003772,登記記録の閉鎖等,0,2024-01-23,2024-01-22,有限会社リンク,,有限会社,山形県,山形市,成沢西２丁目１３番２４号,,06,201,9902339,,,2024-01-22,登記官による閉鎖,,,2015-10-05,1,,,,,,0
2191,8390002012732,登記記録の閉鎖等,0,2024-01-23,2024-01-22,カツテイング古川有限会社,,有限会社,山形県,米沢市,舘山１丁目２番６号,,06,202,9920072,,,2024-01-22,登記官による閉鎖,,,2015-10-05,1,,,,,,0
2192,8390003000372,登記記録の閉鎖等,0,2024-01-23,2024-01-22,合同会社イマジン,,合同会社,山形県,山形市,桜田東４丁目５番４１号,,06,201,9902323,,,2024-01-22,登記官による閉鎖,,,2015-10-05,1,,,,,,0
2193,8390005006467,登記記録の閉鎖等,0,2024-01-23,2024-01-22,財団法人糠野目義社,,その他の設立登記法人,山形県,東置賜郡高畠町,大字糠野目１７３６番地,,06,381,9992176,,,2024-01-22,登記官による閉鎖,,,2015-10-05,1,,,,,,0
2194,8390005006483,登記記録の閉鎖等,0,2024-01-23,2024-01-22,農事組合法人羽前農林組合,,その他の設立登記法人,山形県,東置賜郡高畠町,大字元和田１２７３番地,,06,381,9920262,,,2024-01-22,登記官による閉鎖,,,2015-10-05,1,,,,,,0
2197,8410001006369,登記記録の閉鎖等,0,2024-01-23,2024-01-17,株式会社ユマノ,,株式会社,秋田県,北秋田市,米内沢字上野８７番地１,,05,213,0184301,,,2024-01-17,清算の結了等,,,2015-10-05,1,,,,,ユマノ,0
2199,8420001006013,登記記録の閉鎖等,0,2024-01-23,2024-01-17,関重商事株式会社,,株式会社,青森県,八戸市,大字三日町３２番地江口ビル３Ｆ,,02,203,0310032,,,2024-01-17,清算の結了等,,,2015-10-05,1,,,,,セキジュウショウジ,0
2202,8420002012092,登記記録の閉鎖等,0,2024-01-23,2024-01-18,有限会社プランナーハタノ,,有限会社,青森県,五所川原市,みどり町４丁目５番地,,02,205,0370024,,,2024-01-18,清算の結了等,,,2015-10-05,1,,,,,プランナーハタノ,0
2215,9010001187265,登記記録の閉鎖等,0,2024-01-23,2024-01-19,十娯屋商店株式会社,,株式会社,東京都,千代田区,神田佐久間町３丁目１７番地オガタビル６Ｆ,,13,101,1010025,,,2024-01-19,清算の結了等,,,2017-11-01,1,,,,,ジュウゴヤショウテン,0
2232,9010401115032,登記記録の閉鎖等,0,2024-01-23,2023-12-26,Ｍ－ＩＮＤＵＳＴＲＹ　Ｊａｐａｎ株式会社,,株式会社,東京都,港区,六本木１丁目７番２７号全特六本木ビル５階東京六本木法律特許事務所内,,13,103,1060032,,,2023-12-26,清算の結了等,,,2015-10-05,1,,,,,エムインダストリージャパン,0
2234,9010401141937,登記記録の閉鎖等,0,2024-01-23,2024-01-18,株式会社ＥＯＦ,,株式会社,東京都,足立区,千住中居町２４番１６号Ｌｕｍｉｎａｎｔ３０２,,13,121,1200035,,,2024-01-18,清算の結了等,,,2018-11-08,1,,,,,イーオーエフ,0
2256,9011001114325,登記記録の閉鎖等,0,2024-01-23,2024-01-12,株式会社ｔｉｎｙ　ｆｉｓｈ　ｃｏｍｐａｎｙ,,株式会社,東京都,渋谷区,神山町３０番１号,,13,113,1500047,,,2024-01-12,清算の結了等,,,2017-01-12,1,,,,,タイニーフィッシュカンパニー,0
2258,9011001132129,登記記録の閉鎖等,0,2024-01-23,2024-01-19,株式会社Ｖ　Ｃｈｕｕ,,株式会社,東京都,渋谷区,道玄坂２丁目１０番１２号新大宗ビル３号館５３１号,,13,113,1500043,,,2024-01-19,清算の結了等,,,2020-01-30,1,,,,,ブイチュー,0
2271,9011103011404,登記記録の閉鎖等,0,2024-01-23,2024-01-19,リリングカンパニー合同会社,,合同会社,東京都,新宿区,西新宿３丁目３番１３号西新宿水間ビル６階,,13,104,1600023,,,2024-01-19,清算の結了等,,,2022-01-31,1,,,,,リリングカンパニー,0
2282,9011502001823,登記記録の閉鎖等,0,2024-01-23,2024-01-11,久保工業有限会社,,有限会社,東京都,北区,上十条５丁目４８番１７号,,13,117,1140034,,,2024-01-11,清算の結了等,,,2015-10-05,1,,,,,クボコウギョウ,0
2284,9011602020731,登記記録の閉鎖等,0,2024-01-23,2024-01-15,ＫＲＣ有限会社,,有限会社,東京都,豊島区,西池袋１丁目３９番１号,,13,116,1710021,,,2024-01-15,清算の結了等,,,2015-10-05,1,,,,,ケーアールシー,0
2292,9012802003732,登記記録の閉鎖等,0,2024-01-23,2024-01-15,ポンテ有限会社,,有限会社,東京都,昭島市,美堀町５丁目２０番６－８０３号,,13,207,1960001,,,2024-01-15,清算の結了等,,,2015-10-05,1,,,,,ポンテ,0
2294,9013102002755,登記記録の閉鎖等,0,2024-01-23,2024-01-16,有限会社紺屋企画,,有限会社,東京都,東大和市,高木２丁目１７１番地,,13,220,2070005,,,2024-01-16,合併による解散等,2012801018952,令和６年１月１６日東京都東大和市高木二丁目１７１番地ＴＹリース株式会社（2012801018952）に合併し解散,2015-10-05,1,,,,,コンヤキカク,0
2298,9020001055909,登記記録の閉鎖等,0,2024-01-23,2024-01-15,株式会社オーベルシステムズ,,株式会社,神奈川県,横浜市南区,六ツ川１丁目１９０番地,,14,105,2320066,,,2024-01-15,清算の結了等,,,2015-10-05,1,,,,,オーベルシステムズ,0
2307,9020003012180,登記記録の閉鎖等,0,2024-01-23,2024-01-17,合同会社次世代通商,,合同会社,神奈川県,横浜市南区,浦舟町１丁目２番地１４カインドステージ横浜阪東橋５１２,,14,105,2320024,,,2024-01-17,清算の結了等,,,2017-01-05,1,,,,,ジセダイツウショウ,0
2315,9030002022493,登記記録の閉鎖等,0,2024-01-23,2024-01-15,有限会社丸伊,,有限会社,埼玉県,蓮田市,東１丁目２番１８号,,11,238,3490111,,,2024-01-15,清算の結了等,,,2015-10-05,1,,,,,マルイ,0
2316,9030002068495,登記記録の閉鎖等,0,2024-01-23,2024-01-16,有限会社ジュエリーウチノ,,有限会社,埼玉県,春日部市,緑町６丁目１５番２５号,,11,214,3440063,,,2024-01-16,清算の結了等,,,2015-10-05,1,,,,,ジュエリーウチノ,0
2333,9050002019983,登記記録の閉鎖等,0,2024-01-23,2024-01-19,有限会社台製作所,,有限会社,茨城県,坂東市,神田山１５３８番地の２０,,08,228,3060617,,,2024-01-19,清算の結了等,,,2015-10-05,1,,,,,ダイセイサクショ,0
2334,9050002044882,登記記録の閉鎖等,0,2024-01-23,2024-01-19,有限会社橋本電機,,有限会社,茨城県,結城市,大字上山川３４０９番地,,08,207,3070021,,,2024-01-19,清算の結了等,,,2015-10-05,1,,,,,ハシモトデンキ,0
2348,9080401012660,登記記録の閉鎖等,0,2024-01-23,2024-01-09,株式会社中川屋,,株式会社,静岡県,浜松市東区,中野町８６１番地の２,,22,132,4350004,,,2024-01-09,清算の結了等,,,2015-10-05,1,,,,,ナカガワヤ,0
2363,9120001051121,登記記録の閉鎖等,0,2024-01-23,2024-01-22,株式会社アド・フロンテ,,株式会社,大阪府,大阪市淀川区,西中島６丁目６番６号ＮＬＣ新大阪１１号館,,27,123,5320011,,,2024-01-22,清算の結了等,,,2015-10-05,1,,,,,アドフロンテ,0
2372,9120001173758,登記記録の閉鎖等,0,2024-01-23,2024-01-04,株式会社サロンセルフィット,,株式会社,大阪府,大阪市北区,梅田１丁目１番３号,,27,127,5300001,,,2024-01-04,合併による解散等,9120001061236,令和６年１月１日大阪市北区梅田一丁目１番３号株式会社セルフィット（9120001061236）に合併し解散,2015-10-05,1,,,,,サロンセルフィット,0
2382,9120901008872,登記記録の閉鎖等,0,2024-01-23,2024-01-19,株式会社ロータリー商事,,株式会社,大阪府,吹田市,垂水町２丁目１番地豊津ファミリー３１２号,,27,205,5640062,,,2024-01-19,清算の結了等,,,2015-10-05,1,,,,,ロータリーショウジ,0
2386,9130001034876,登記記録の閉鎖等,0,2024-01-23,2024-01-18,木上金物株式会社,,株式会社,京都府,南丹市,園部町新町１０６番地,,26,213,6220003,,,2024-01-18,清算の結了等,,,2015-10-05,1,,,,,,0
2388,9140001047126,登記記録の閉鎖等,0,2024-01-23,2024-01-17,株式会社福真運輸加古川,,株式会社,兵庫県,高砂市,伊保崎３丁目２番１６号,,28,216,6760076,,,2024-01-17,清算の結了等,,,2015-10-05,1,,,,,,0
2389,9140001086826,登記記録の閉鎖等,0,2024-01-23,2024-01-19,株式会社オリジナル,,株式会社,兵庫県,神戸市灘区,倉石通１丁目２番２３－３０１号,,28,102,6570826,,,2024-01-19,清算の結了等,,,2015-10-05,1,,,,,オリジナル,0
2400,9180001128434,登記記録の閉鎖等,0,2024-01-23,2024-01-19,内装奥寺株式会社,,株式会社,兵庫県,三木市,志染町東自由が丘３丁目１３２番地,,28,215,6730553,,,2024-01-19,清算の結了等,,,2017-06-29,1,,,,,ナイソウオクデラ,0
2402,9180002092605,登記記録の閉鎖等,0,2024-01-23,2024-01-16,有限会社杉藤事務所,,有限会社,愛知県,あま市,木田宮西１３番地,,23,237,4901222,,,2024-01-16,清算の結了等,,,2015-10-05,1,,,,,スギドウジムショ,0
2407,9180005004631,登記記録の閉鎖等,0,2024-01-23,2024-01-19,シマダ商店街協同組合,,その他の設立登記法人,愛知県,名古屋市天白区,土原４丁目４１１番地,,23,116,4680026,,,2024-01-19,清算の結了等,,,2015-10-05,1,,,,,シマダショウテンガイ,0
2409,9190002008106,登記記録の閉鎖等,0,2024-01-23,2024-01-22,有限会社煌産業,,有限会社,三重県,度会郡玉城町,上田辺２１３８番地１,,24,461,5190417,,,2024-01-22,登記官による閉鎖,,,2015-10-05,1,,,,,,0
2410,9190002011571,登記記録の閉鎖等,0,2024-01-23,2024-01-22,有限会社中武組,,有限会社,三重県,志摩市,大王町波切４５３０番地,,24,215,5170603,,,2024-01-22,登記官による閉鎖,,,2015-10-05,1,,,,,,0
2411,9190002012099,登記記録の閉鎖等,0,2024-01-23,2024-01-22,有限会社小川鉄工所,,有限会社,三重県,伊賀市,西明寺３２１３番地の２５,,24,216,5180809,,,2024-01-22,登記官による閉鎖,,,2015-10-05,1,,,,,,0
2412,9190002013361,登記記録の閉鎖等,0,2024-01-23,2024-01-22,ＭＡＫＥ　ＰＬＡＮ’Ｓ有限会社,,有限会社,三重県,名張市,安部田９０２番地,,24,208,5180737,,,2024-01-22,登記官による閉鎖,,,2015-10-05,1,,,,,,0
2413,9190002019854,登記記録の閉鎖等,0,2024-01-23,2024-01-22,有限会社喜月,00076105,有限会社,三重県,四日市市,上海老町１６４８番地の１９２,,24,202,5121201,,,2024-01-22,登記官による閉鎖,,,2015-10-05,1,,,,,,0
2414,9190002022585,登記記録の閉鎖等,0,2024-01-23,2024-01-22,有限会社柚久保建築設計事務所,,有限会社,三重県,四日市市,野田１丁目１番３８号,,24,202,5100815,,,2024-01-22,登記官による閉鎖,,,2015-10-05,1,,,,,,0
2415,9190005006478,登記記録の閉鎖等,0,2024-01-23,2024-01-22,特定非営利活動法人あおい,,その他の設立登記法人,三重県,伊賀市,西明寺１３７５番地の６,,24,216,5180809,,,2024-01-22,登記官による閉鎖,,,2015-10-05,1,,,,,,0
2416,9190005011271,登記記録の閉鎖等,0,2024-01-23,2024-01-22,的矢湾真珠養殖漁業協同組合,,その他の設立登記法人,三重県,志摩市,磯部町三ケ所４３３番地の１,,24,215,5170211,,,2024-01-22,登記官による閉鎖,,,2019-01-25,1,,,,,マトヤワンシンジュヨウショク,0
2420,9210001018937,登記記録の閉鎖等,0,2024-01-23,2023-12-27,株式会社林機業場,,株式会社,福井県,福井市,月見５丁目３番３０号,,18,201,9188011,,,2023-12-27,清算の結了等,,,2022-05-25,1,,,,,ハヤシキギョウジョウ,0
2426,9250001000032,登記記録の閉鎖等,0,2024-01-23,2024-01-16,株式会社秋穂開発事業企画,,株式会社,山口県,山口市,秋穂東６２６１番地,,35,203,7541101,,,2024-01-16,登記官による閉鎖,,,2015-10-05,1,,,,,,0
2427,9250001002854,登記記録の閉鎖等,0,2024-01-23,2024-01-16,萩ゴルフ倶楽部株式会社,,株式会社,山口県,山口市,小郡大江町６番３３号リーベンアルデバラン２階,,35,203,7540015,,,2024-01-16,登記官による閉鎖,,,2015-10-05,1,,,,,,0
2428,9250001010675,登記記録の閉鎖等,0,2024-01-23,2024-01-19,株式会社マクロトレード,,株式会社,山口県,周南市,浦山１丁目１番２号,,35,215,7450856,,,2024-01-19,清算の結了等,,,2015-10-05,1,,,,,マクロトレード,0
2429,9250001014800,登記記録の閉鎖等,0,2024-01-23,2024-01-16,昭和観光開発株式会社,,株式会社,山口県,岩国市,錦見６丁目７番８号,,35,208,7410061,,,2024-01-16,登記官による閉鎖,,,2015-10-05,1,,,,,,0
2430,9250002003026,登記記録の閉鎖等,0,2024-01-23,2024-01-16,有限会社こゆき観光,,有限会社,山口県,防府市,天神１丁目４番１７号,,35,206,7470034,,,2024-01-16,登記官による閉鎖,,,2015-10-05,1,,,,,,0
2431,9250002005484,登記記録の閉鎖等,0,2024-01-23,2024-01-16,有限会社浜野建設,,有限会社,山口県,宇部市,小松原町２丁目５番１３－１号,,35,202,7550066,,,2024-01-16,登記官による閉鎖,,,2015-10-05,1,,,,,,0
2432,9250002005815,登記記録の閉鎖等,0,2024-01-23,2024-01-16,有限会社村長工務店,,有限会社,山口県,宇部市,大字小串１８８０番地の３,,35,202,7550067,,,2024-01-16,登記官による閉鎖,,,2015-10-05,1,,,,,,0
2433,9250002010807,登記記録の閉鎖等,0,2024-01-23,2024-01-16,有限会社古屋自工,,有限会社,山口県,下関市,武久町１丁目６番１１号,,35,201,7510833,,,2024-01-16,登記官による閉鎖,,,2015-10-05,1,,,,,,0
2434,9250002016473,登記記録の閉鎖等,0,2024-01-23,2024-01-16,有限会社ヨシイマ不動産,,有限会社,山口県,下松市,潮音町４丁目１０番８号,,35,207,7440074,,,2024-01-16,登記官による閉鎖,,,2015-10-05,1,,,,,,0
2436,9250005003114,登記記録の閉鎖等,0,2024-01-23,2024-01-16,社団法人山口県あん摩マッサージ指圧師会,,その他の設立登記法人,山口県,下関市,後田町１丁目５番３号,,35,201,7510826,,,2024-01-16,登記官による閉鎖,,,2015-10-05,1,,,,,,0
2464,9370001012073,登記記録の閉鎖等,0,2024-01-23,2024-01-18,株式会社龍観,,株式会社,宮城県,登米市,登米町大字日根牛中山２０１番地,,04,212,9870703,,,2024-01-18,清算の結了等,,,2015-10-05,1,,,,,リョウケン,0
2468,9370102000241,登記記録の閉鎖等,0,2024-01-23,2024-01-22,有限会社佐々木建具店,,有限会社,宮城県,柴田郡柴田町,大字船岡字上大原１９番地の１,,04,323,9891606,,,2024-01-22,登記官による閉鎖,,,2015-10-05,1,,,,,,0
2469,9370402001906,登記記録の閉鎖等,0,2024-01-23,2024-01-22,有限会社大進工業,,有限会社,宮城県,登米市,中田町浅水字小島２１３番地,,04,212,9870611,,,2024-01-22,登記官による閉鎖,,,2015-10-05,1,,,,,,0
2470,9370502000799,登記記録の閉鎖等,0,2024-01-23,2024-01-22,有限会社藤生土木,,有限会社,宮城県,気仙沼市,岩月長平２４番地,,04,205,9880204,,,2024-01-22,登記官による閉鎖,,,2015-10-05,1,,,,,,0
2475,9390001012583,登記記録の閉鎖等,0,2024-01-23,2024-01-22,置賜無尽株式会社,,株式会社,山形県,米沢市,表町３２８９番地,,06,202,9920000,,,2024-01-22,登記官による閉鎖,,,2015-10-05,1,,,,,,1
2479,9390002011428,登記記録の閉鎖等,0,2024-01-23,2024-01-22,エイジィーファクトリー有限会社,,有限会社,山形県,新庄市,五日町１５５２番地,,06,205,9960001,,,2024-01-22,登記官による閉鎖,,,2015-10-05,1,,,,,,0
2480,9390005002614,登記記録の閉鎖等,0,2024-01-23,2024-01-22,特定非営利活動法人東北カモシカセンター,,その他の設立登記法人,山形県,山形市,大字滑川９９０番地の１０,,06,201,9900014,,,2024-01-22,登記官による閉鎖,,,2015-10-05,1,,,,,,0
2481,9390005006202,登記記録の閉鎖等,0,2024-01-23,2024-01-22,社団法人新田社,,その他の設立登記法人,山形県,米沢市,大字上新田６５７番地の１,,06,202,9920118,,,2024-01-22,登記官による閉鎖,,,2015-10-05,1,,,,,,0
2486,9430001051528,登記記録の閉鎖等,0,2024-01-23,2024-01-16,株式会社秋場商事,,株式会社,北海道,小樽市,オタモイ３丁目４番１２号,,01,203,0482671,,,2024-01-16,清算の結了等,,,2015-10-05,1,,,,,アキバショウジ,0
2493,9470002015206,登記記録の閉鎖等,0,2024-01-23,2024-01-22,有限会社成都工業,,有限会社,香川県,坂出市,八幡町２丁目８番２６号,,37,203,7620041,,,2024-01-22,清算の結了等,,,2015-10-05,1,,,,,,0
