sequenceNumber,corporateNumber,process,correct,updateDate,changeDate,name,nameImageId,kind,prefectureName,cityName,streetNumber,addressImageId,prefectureCode,cityCode,postCode,addressOutside,addressOutsideImageId,closeDate,closeCause,successorCorporateNumber,changeCause,assignmentDate,latest,enName,enPrefectureName,enCityName,enAddressOutside,furigana,hihyoji
13,1010003041502,新規,0,2023-09-26,2023-09-26,ライトサイド合同会社,,合同会社,東京都,文京区,本駒込６丁目１４番１４号７０６,,13,105,1130021,,,,,,,2023-09-26,1,,,,,ライトサイド,0
14,1010003041758,新規,0,2023-09-26,2023-09-26,合同会社３８６Ｃｏｒｐ．,,合同会社,東京都,中央区,京橋２丁目７番８号,,13,102,1040031,,,,,,,2023-09-26,1,,,,,サンハチロクコープ,0
15,1010005037291,新規,0,2023-09-26,2023-09-26,一般社団法人日本山西総商会,,その他の設立登記法人,東京都,文京区,本郷３丁目２６番４号ドルミ本郷・東京ササキビル６０２号,,13,105,1130033,,,,,,,2023-09-26,1,,,,,ニホンサンセイソウシヨウカイ,0
30,1010403030996,新規,0,2023-09-26,2023-09-26,ＦＡＣＴ　ＣＡＰＩＴＡＬ合同会社,,合同会社,東京都,港区,海岸１丁目２番２０号,,13,103,1050022,,,,,,,2023-09-26,1,,,,,ファクトキャピタル,0
31,1010403031012,新規,0,2023-09-26,2023-09-26,合同会社Ｌｉｖａｌｌ,,合同会社,東京都,港区,芝４丁目６番４ー３０２号,,13,103,1080014,,,,,,,2023-09-26,1,,,,,リブオール,0
34,1010701044896,新規,0,2023-09-26,2023-09-26,株式会社ＡＲＵ,,株式会社,東京都,品川区,上大崎１丁目１番１７号プライムメゾン白金台タワー１７０３,,13,109,1410021,,,,,,,2023-09-26,1,,,,,エーアールユー,0
36,1010803004690,新規,0,2023-09-26,2023-09-26,テクノヴィジョン合同会社,,合同会社,東京都,大田区,下丸子２丁目１３－５－１０１,,13,111,1460092,,,,,,,2023-09-26,1,,,,,テクノヴィジョン,0
44,1011003017590,新規,0,2023-09-26,2023-09-26,合同会社天使のたまご,,合同会社,東京都,渋谷区,神宮前６丁目２３番４号,,13,113,1500001,,,,,,,2023-09-26,1,,,,,テンシノタマゴ,0
45,1011101104448,新規,0,2023-09-26,2023-09-26,株式会社Ｒｕｎｒｕｎ,,株式会社,東京都,新宿区,西新宿６丁目２５番８－２０２号,,13,104,1600023,,,,,,,2023-09-26,1,,,,,ルンルン,0
46,1011101104489,新規,0,2023-09-26,2023-09-26,Ｃａｎｄｙ　ｆｏｒ　Ａｌｌ株式会社,,株式会社,東京都,新宿区,四谷４丁目１５番地,,13,104,1600004,,,,,,,2023-09-26,1,,,,,キャンディフォーオール,0
49,1011103013481,新規,0,2023-09-26,2023-09-26,合同会社ＳＡＭＥＤＥＳＵ,,合同会社,東京都,新宿区,下落合４丁目３－３１ＢｅｌｌｅＬｅａｄ,,13,104,1610033,,,,,,,2023-09-26,1,,,,,サメデス,0
50,1011103013515,新規,0,2023-09-26,2023-09-26,合同会社Ｊ‐ｓｔｙｌｅ,,合同会社,東京都,新宿区,西新宿６丁目１２番７－２０２号,,13,104,1600023,,,,,,,2023-09-26,1,,,,,ジェイスタイル,0
51,1011201024934,新規,0,2023-09-26,2023-09-26,株式会社ケーエフ,,株式会社,東京都,中野区,東中野５丁目１番１２号,,13,114,1640003,,,,,,,2023-09-26,1,,,,,ケーエフ,0
70,1020001153554,新規,0,2023-09-26,2023-09-26,株式会社庭一Ｌａｎｄｓｃａｐｅ,,株式会社,神奈川県,横浜市青葉区,すみよし台１５番地２５エミネンスすみよし台２号館１０４,,14,117,2270035,,,,,,,2023-09-26,1,,,,,ニワイチランドスケープ,0
71,1020001153612,新規,0,2023-09-26,2023-09-26,株式会社Ｆｏｒ２０,,株式会社,神奈川県,横浜市旭区,下川井町２２０５番地１７,,14,112,2410806,,,,,,,2023-09-26,1,,,,,フォートゥエンティー,0
72,1020001153620,新規,0,2023-09-26,2023-09-26,株式会社ＫＯＹＯ,,株式会社,神奈川県,横浜市神奈川区,新子安１丁目２４番１－４１３号,,14,102,2210013,,,,,,,2023-09-26,1,,,,,コヨー,0
73,1020001153629,新規,0,2023-09-26,2023-09-26,株式会社ＴＡＫＵＳＥＬ,,株式会社,神奈川県,横浜市青葉区,鴨志田町５６６番地８アザレアＩＩＩ－１０３号,00132036,14,117,2270033,,,,,,,2023-09-26,1,,,,,タクセル,0
74,1020001153637,新規,0,2023-09-26,2023-09-26,増田内装株式会社,,株式会社,神奈川県,横浜市戸塚区,深谷町１６６５番地７０,,14,110,2450067,,,,,,,2023-09-26,1,,,,,マスダナイソウ,0
75,1020001153645,新規,0,2023-09-26,2023-09-26,株式会社共栄ソフト,,株式会社,神奈川県,川崎市幸区,小倉５丁目３０番２５号,,14,132,2120054,,,,,,,2023-09-26,1,,,,,キョウエイソフト,0
79,1030001155888,新規,0,2023-09-26,2023-09-26,株式会社久築彩街,,株式会社,埼玉県,さいたま市岩槻区,太田２丁目４番３２－１号,,11,110,3390052,,,,,,,2023-09-26,1,,,,,キュウチクサイカイ,0
80,1030001156151,新規,0,2023-09-26,2023-09-26,アイムオフ株式会社,,株式会社,埼玉県,川越市,大字笠幡３６４０番地２１２,,11,201,3501175,,,,,,,2023-09-26,1,,,,,アイムオフ,0
81,1030001156192,新規,0,2023-09-26,2023-09-26,株式会社シャンクレール,,株式会社,埼玉県,蕨市,中央６丁目９番１７号,,11,223,3350004,,,,,,,2023-09-26,1,,,,,シャンクレール,0
82,1030001156291,新規,0,2023-09-26,2023-09-26,株式会社笹井総業,,株式会社,埼玉県,さいたま市岩槻区,仲町１丁目４番１号,,11,110,3390054,,,,,,,2023-09-26,1,,,,,ササイソウギョウ,0
90,1030003022632,新規,0,2023-09-26,2023-09-26,合同会社グロウ,,合同会社,埼玉県,吉川市,中央２丁目３１番地５,,11,243,3420061,,,,,,,2023-09-26,1,,,,,グロウ,0
94,1040001130171,新規,0,2023-09-26,2023-09-26,株式会社ＨｉＹｕ,,株式会社,千葉県,君津市,俵田２１７番地４,,12,225,2920455,,,,,,,2023-09-26,1,,,,,ヘイユー,0
95,1040001130188,新規,0,2023-09-26,2023-09-26,和工業株式会社,,株式会社,千葉県,市原市,山田橋３丁目４番地２１守屋ハイツ１０１,,12,219,2900021,,,,,,,2023-09-26,1,,,,,カズコウギョウ,0
96,1040001130213,新規,0,2023-09-26,2023-09-26,株式会社シーベース,,株式会社,千葉県,長生郡一宮町,船頭給１１１番地３５,,12,421,2994313,,,,,,,2023-09-26,1,,,,,シーベース,0
97,1040001130221,新規,0,2023-09-26,2023-09-26,株式会社レオーネ,,株式会社,千葉県,松戸市,松戸新田１１１番地の４４,,12,207,2702241,,,,,,,2023-09-26,1,,,,,レオーネ,0
98,1040001130238,新規,0,2023-09-26,2023-09-26,株式会社サンパネル・クリーン,,株式会社,千葉県,千葉市若葉区,若松町２３７０番地３７,,12,104,2640021,,,,,,,2023-09-26,1,,,,,サンパネルクリーン,0
99,1040001130246,新規,0,2023-09-26,2023-09-26,Ｐｌａｎｎｉｎｇ　ａｇｅｎｔ株式会社,,株式会社,千葉県,流山市,鰭ケ崎２丁目２番地の６,,12,220,2700161,,,,,,,2023-09-26,1,,,,,プランニングエージェント,0
103,1060001036375,新規,0,2023-09-26,2023-09-26,若松不動産株式会社,,株式会社,栃木県,大田原市,若松町１番３７号,,09,210,3240054,,,,,,,2023-09-26,1,,,,,ワカマツフドウサン,0
111,1080101024237,新規,0,2023-09-26,2023-09-26,株式会社ＮＥＸＴ　ＦＵＴＵＲＥ,,株式会社,静岡県,駿東郡清水町,徳倉１６００番地の６－２Ｆ,,22,341,4110917,,,,,,,2023-09-26,1,,,,,ネクストフューチャー,0
115,1080403004878,新規,0,2023-09-26,2023-09-26,合同会社Ｑｌｏ,,合同会社,静岡県,浜松市南区,若林町１２８０番地ハイツそよかぜ２０２,,22,134,4328051,,,,,,,2023-09-26,1,,,,,クロ,0
127,1120001258252,新規,0,2023-09-26,2023-09-26,株式会社本町不動産,,株式会社,大阪府,大阪市中央区,本町４丁目５番１５号５Ｆ,,27,128,5410053,,,,,,,2023-09-26,1,,,,,ホンマチフドウサン,0
128,1120001258285,新規,0,2023-09-26,2023-09-26,リブラーゴ株式会社,,株式会社,大阪府,大阪市北区,鶴野町４－１１朝日プラザ梅田ビル２Ｆ－４１,,27,127,5300014,,,,,,,2023-09-26,1,,,,,リブラーゴ,0
129,1120001258327,新規,0,2023-09-26,2023-09-26,株式会社ＲＥＧＯＬＩＴＨ,,株式会社,大阪府,寝屋川市,楠根南町１２番２０号,,27,215,5720811,,,,,,,2023-09-26,1,,,,,レゴリス,0
131,1120003024941,新規,0,2023-09-26,2023-09-26,合同会社ＶＪ,,合同会社,大阪府,大阪市平野区,平野東３丁目１番１号スペチアーレ平野東２０２号,,27,126,5470043,,,,,,,2023-09-26,1,,,,,ブイジェー,0
145,1140001131721,新規,0,2023-09-26,2023-09-26,株式会社藤原工作所,,株式会社,兵庫県,加東市,天神２４５－２,,28,228,6731311,,,,,,,2023-09-26,1,,,,,フジワラコウサクショ,0
146,1140001131738,新規,0,2023-09-26,2023-09-26,株式会社Ａｄｏｆａｉｔｈ,,株式会社,兵庫県,姫路市,広畑区末広町２丁目２番地,,28,201,6711115,,,,,,,2023-09-26,1,,,,,アドフェイス,0
149,1140003019592,新規,0,2023-09-26,2023-09-26,合同会社西宮流,,合同会社,兵庫県,西宮市,羽衣町７番３０号夙川グリーンタウン３階,,28,204,6620051,,,,,,,2023-09-26,1,,,,,ニシノミヤスタイル,0
152,1150003003075,新規,0,2023-09-26,2023-09-26,合同会社やしろ,,合同会社,奈良県,奈良市,西大寺新町２丁目８番７号,,29,201,6310815,,,,,,,2023-09-26,1,,,,,ヤシロ,0
154,1170001017793,新規,0,2023-09-26,2023-09-26,株式会社穂乃味,,株式会社,和歌山県,和歌山市,井辺２１９番地１１,,30,201,6408302,,,,,,,2023-09-26,1,,,,,ホノミ,0
164,1180001158158,新規,0,2023-09-26,2023-09-26,翔新福祉サービス株式会社,,株式会社,愛知県,一宮市,新生２丁目１７番１５号,,23,203,4910912,,,,,,,2023-09-26,1,,,,,ショウシンフクシサービス,0
165,1180003025769,新規,0,2023-09-26,2023-09-26,合同会社ＴＨＥ　ＨＡＩＲ,,合同会社,愛知県,名古屋市中区,千代田３丁目３２番８号,,23,106,4600012,,,,,,,2023-09-26,1,,,,,ザヘア,0
180,1250001020285,新規,0,2023-09-26,2023-09-26,株式会社ＳＩＧＮＣＲＥＷ,,株式会社,山口県,宇部市,川添３丁目４番６号,,35,202,7550074,,,,,,,2023-09-26,1,,,,,サインクルー,0
185,1260001038335,新規,0,2023-09-26,2023-09-26,株式会社Ｔｉｇｅｒ　ＶＩＰ,,株式会社,岡山県,岡山市北区,白石２９５番地１ＢＡＮ’ＳＨＯＵＳＥＣ,,33,101,7010143,,,,,,,2023-09-26,1,,,,,タイガーブイアイピー,0
198,1290001103103,新規,0,2023-09-26,2023-09-26,株式会社ＫＯＮＭＦＹＳ,,株式会社,福岡県,福岡市城南区,東油山１丁目７番２８号１Ｆ,,40,136,8140155,,,,,,,2023-09-26,1,,,,,コンフィーズ,0
199,1290001103144,新規,0,2023-09-26,2023-09-26,株式会社ＳＫ　ｐｌｕｓ,,株式会社,福岡県,小郡市,寺福童３６０番地３,,40,216,8380138,,,,,,,2023-09-26,1,,,,,エスケープラス,0
206,1330001031290,新規,0,2023-09-26,2023-09-26,株式会社咲セス,,株式会社,熊本県,宇土市,境目町１０２５,,43,211,8690417,,,,,,,2023-09-26,1,,,,,サクセス,0
208,1330003009987,新規,0,2023-09-26,2023-09-26,合同会社ポプリ,,合同会社,熊本県,熊本市中央区,琴平本町５番４１号,,43,101,8600814,,,,,,,2023-09-26,1,,,,,ポプリ,0
217,1360001032591,新規,0,2023-09-26,2023-09-26,株式会社サンリッツ,,株式会社,沖縄県,宮古島市,平良字下里１６４９番地１１丸富マンションＶ１０５,,47,214,9060013,,,,,,,2023-09-26,1,,,,,サンリッツ,0
225,1380001034000,新規,0,2023-09-26,2023-09-26,株式会社ヒロミ,,株式会社,福島県,郡山市,大槻町字原田東１番地の２,,07,203,9630201,,,,,,,2023-09-26,1,,,,,ヒロミ,0
257,2010001238751,新規,0,2023-09-26,2023-09-26,Ｔｏｋｙｏ　Ｉｎｖｅｓｔｍｅｎｔ　Ｕｎｉｔｅｄ　Ｃｏｒｐｏｒａｔｉｏｎ株式会社,,株式会社,東京都,中央区,月島１丁目１４番１３－８０８号,,13,102,1040052,,,,,,,2023-09-26,1,,,,,トウキョウインベストメントユナイテッドコーポレーション,0
261,2010003041740,新規,0,2023-09-26,2023-09-26,ＧａｚｅｒＲｅｓｏｒｔｓ合同会社,,合同会社,東京都,千代田区,平河町２丁目５番３号,,13,101,1020093,,,,,,,2023-09-26,1,,,,,ギャザーリゾーツ,0
262,2010003041757,新規,0,2023-09-26,2023-09-26,合同会社尾久の中小企業診断士,,合同会社,東京都,中央区,日本橋室町１丁目１１番１２号日本橋水野ビル７階,,13,102,1030022,,,,,,,2023-09-26,1,,,,,オクノチュウショウキギョウシンダンシ,0
268,2010401177343,新規,0,2023-09-26,2023-09-26,ＰＫコンサルティング株式会社,,株式会社,東京都,港区,赤坂１丁目３番５号赤坂アビタシオンビル３Ｆ,,13,103,1070052,,,,,,,2023-09-26,1,,,,,ピーケイコンサルティング,0
269,2010401177351,新規,0,2023-09-26,2023-09-26,ＲＰＤ株式会社,,株式会社,東京都,港区,北青山３丁目５番１７号Ｒ＆Ｍ２Ｆ,,13,103,1070061,,,,,,,2023-09-26,1,,,,,アールピーディ,0
272,2010403031011,新規,0,2023-09-26,2023-09-26,合同会社Ｂｌａｃｋ,,合同会社,東京都,港区,北青山１丁目３番１号,,13,103,1070061,,,,,,,2023-09-26,1,,,,,ブラック,0
274,2010405022487,新規,0,2023-09-26,2023-09-26,一般社団法人日本キャプティブ協議会,,その他の設立登記法人,東京都,港区,新橋６丁目９番２号,,13,103,1050004,,,,,,,2023-09-26,1,,,,,ニホンキャプティブキョウギカイ,0
289,2010901053878,新規,0,2023-09-26,2023-09-26,株式会社ｂａｕｎｄ,,株式会社,東京都,世田谷区,太子堂５丁目３１番２号モード２０２,,13,112,1540004,,,,,,,2023-09-26,1,,,,,バウント,0
290,2010901053894,新規,0,2023-09-26,2023-09-26,株式会社ＯＫＡＭＯＴＯ,,株式会社,東京都,世田谷区,太子堂３丁目２３番５号バニヤン・トゥリー１０１,,13,112,1540004,,,,,,,2023-09-26,1,,,,,オカモト,0
295,2011003017581,新規,0,2023-09-26,2023-09-26,合同会社ＡＩ　ｔｏｒｃｈ,,合同会社,東京都,渋谷区,渋谷２丁目１９－１５宮益坂ビルディング６０９,,13,113,1500002,,,,,,,2023-09-26,1,,,,,アイトーチ,0
296,2011003017607,新規,0,2023-09-26,2023-09-26,Ｍａｕｒｏ　Ｄａｎｃｅ　Ａｃａｄｅｍｙ合同会社,,合同会社,東京都,渋谷区,代々木３丁目１番４号日月光ビル４階,,13,113,1510053,,,,,,,2023-09-26,1,,,,,マウロダンスアカデミー,0
297,2011005010221,新規,0,2023-09-26,2023-09-26,弁護士法人Ｃ２Ｍ法律事務所,,その他の設立登記法人,東京都,渋谷区,代官山町１３番８号キャッスルマンション代官山２０２号室,,13,113,1500034,,,,,,,2023-09-26,1,,,,,シーツーエムホウリツジムショ,0
301,2011101104488,新規,0,2023-09-26,2023-09-26,株式会社中野克美会計事務所,,株式会社,東京都,新宿区,新宿１丁目６番８号,,13,104,1600022,,,,,,,2023-09-26,1,,,,,ナカノカツミカイケイジムショ,0
314,2012401041033,新規,0,2023-09-26,2023-09-26,ｐｏｇｏｇｒｅｅｎ株式会社,,株式会社,東京都,稲城市,東長沼２５７０番地の６南山６８街区１８号,,13,225,2060802,,,,,,,2023-09-26,1,,,,,ポゴグリーン,0
315,2012701017856,新規,0,2023-09-26,2023-09-26,株式会社アクト・ドゥー,,株式会社,東京都,東久留米市,新川町１丁目１０番８号,,13,222,2030013,,,,,,,2023-09-26,1,,,,,アクトドゥー,0
318,2013301051386,新規,0,2023-09-26,2023-09-26,株式会社ナイスワーク,,株式会社,東京都,豊島区,南池袋２丁目８番９号２階,,13,116,1710022,,,,,,,2023-09-26,1,,,,,ナイスワーク,0
320,2020001153628,新規,0,2023-09-26,2023-09-26,三吉株式会社,,株式会社,神奈川県,川崎市高津区,二子１丁目１７番１－８０２号ドレッセ二子新地,,14,134,2130002,,,,,,,2023-09-26,1,,,,,ミヨシ,0
322,2020003024645,新規,0,2023-09-26,2023-09-26,合同会社ＫＳＡＫＩ,,合同会社,神奈川県,川崎市多摩区,南生田７丁目１５番４号,,14,135,2140036,,,,,,,2023-09-26,1,,,,,ケーサキ,0
323,2020005016129,新規,0,2023-09-26,2023-09-26,一般社団法人ＯＮＦ　Ｊａｐａｎ,,その他の設立登記法人,神奈川県,横浜市保土ケ谷区,峰岡町２丁目１８９番地コーポ峰岡１０１号,,14,106,2400064,,,,,,,2023-09-26,1,,,,,オウエヌエフジャパン,0
325,2021001080275,新規,0,2023-09-26,2023-09-26,株式会社小泉内装,,株式会社,神奈川県,秦野市,西田原１２３３番地の１７,,14,211,2570027,,,,,,,2023-09-26,1,,,,,コイズミナイソウ,0
332,2030001155838,新規,0,2023-09-26,2023-09-26,ＥＣイノベーションズ株式会社,,株式会社,埼玉県,川口市,元郷１丁目３番２２号,,11,203,3320011,,,,,,,2023-09-26,1,,,,,イーシーイノベーションズ,0
333,2030001155879,新規,0,2023-09-26,2023-09-26,株式会社ＳＵＺＵＫＩ,,株式会社,埼玉県,蕨市,錦町６丁目１０番１４号ジオ北戸田４０２号,,11,223,3350005,,,,,,,2023-09-26,1,,,,,スズキ,0
334,2030001155904,新規,0,2023-09-26,2023-09-26,信和株式会社,,株式会社,埼玉県,草加市,西町２１５番地１１,,11,221,3400035,,,,,,,2023-09-26,1,,,,,シンワ,0
335,2030001156118,新規,0,2023-09-26,2023-09-26,株式会社ＹＫカンパニー,,株式会社,埼玉県,入間郡越生町,大字上谷２９１番地１,,11,327,3500407,,,,,,,2023-09-26,1,,,,,ワイケイカンパニー,0
336,2030001156150,新規,0,2023-09-26,2023-09-26,株式会社伊志井電設,,株式会社,埼玉県,入間郡毛呂山町,南台３丁目７番地２７,,11,326,3500464,,,,,,,2023-09-26,1,,,,,イシイデンセツ,0
339,2030003022499,新規,0,2023-09-26,2023-09-26,トウタン合同会社,,合同会社,埼玉県,新座市,新座２丁目１８番１１－５０５号,,11,230,3520006,,,,,,,2023-09-26,1,,,,,トウタン,0
343,2040001130187,新規,0,2023-09-26,2023-09-26,株式会社ｂｒａｓｉｓ,,株式会社,千葉県,松戸市,岩瀬１６２番地の２,,12,207,2710076,,,,,,,2023-09-26,1,,,,,ブレイシス,0
344,2040001130229,新規,0,2023-09-26,2023-09-26,株式会社アールエーワークス,,株式会社,千葉県,船橋市,三山８丁目２７番１１号,,12,204,2740072,,,,,,,2023-09-26,1,,,,,アールエーワークス,0
345,2040001130237,新規,0,2023-09-26,2023-09-26,アスコーポレーション株式会社,,株式会社,千葉県,船橋市,夏見５丁目２９番４－５１０号,,12,204,2730865,,,,,,,2023-09-26,1,,,,,アスコーポレーション,0
349,2040003023380,新規,0,2023-09-26,2023-09-26,合同会社Ｇｒａｉｎｅ,,合同会社,千葉県,千葉市花見川区,幕張本郷４丁目６番１６号,,12,102,2620033,,,,,,,2023-09-26,1,,,,,グレーヌ,0
357,2080403004877,新規,0,2023-09-26,2023-09-26,合同会社ＰＥＣＯＤＡ,,合同会社,静岡県,磐田市,今之浦２丁目１５番１３号,,22,211,4380071,,,,,,,2023-09-26,1,,,,,ペコダ,0
360,2110001037862,新規,0,2023-09-26,2023-09-26,ＪＯＴＳ株式会社,,株式会社,新潟県,三条市,一ツ屋敷新田４７９番地３,,15,204,9591152,,,,,,,2023-09-26,1,,,,,ジョッツ,0
373,2120001258227,新規,0,2023-09-26,2023-09-26,株式会社ＴＮａＧ,,株式会社,大阪府,大阪市中央区,久太郎町４丁目１番３号大阪センタービル６Ｆ－２４１,,27,128,5410056,,,,,,,2023-09-26,1,,,,,ツナグ,0
374,2120001258268,新規,0,2023-09-26,2023-09-26,株式会社ＪＣＬ,,株式会社,大阪府,大阪市天王寺区,大道４丁目５番２号１階,,27,109,5430052,,,,,,,2023-09-26,1,,,,,ジェーシーエル,0
375,2120001258276,新規,0,2023-09-26,2023-09-26,順和株式会社,,株式会社,大阪府,大阪市北区,本庄東２丁目２－２４キリン梅田ビル４０１,,27,127,5310074,,,,,,,2023-09-26,1,,,,,ジュンワ,0
376,2120001258284,新規,0,2023-09-26,2023-09-26,アーチワークス株式会社,,株式会社,大阪府,大阪市中央区,北浜３丁目２番２５号,,27,128,5410041,,,,,,,2023-09-26,1,,,,,アーチワークス,0
377,2120001258326,新規,0,2023-09-26,2023-09-26,ノックスインダストリアルソリューションズ株式会社,,株式会社,大阪府,大阪市北区,梅田１丁目１番３号大阪駅前第３ビル２９階１－１－１号室,,27,127,5300001,,,,,,,2023-09-26,1,,,,,ノックスインダストリアルソリューションズ,0
381,2120003024940,新規,0,2023-09-26,2023-09-26,合同会社ＢＡＥ　ＢＡＥ,,合同会社,大阪府,大阪市北区,扇町２丁目６番１７―１３０６号,,27,127,5300025,,,,,,,2023-09-26,1,,,,,ベベ,0
382,2120003024949,新規,0,2023-09-26,2023-09-26,合同会社マイアクティブ,,合同会社,大阪府,大阪市阿倍野区,阿倍野筋４丁目１８番１２号ディオレ阿倍野筋３０５号,,27,119,5450052,,,,,,,2023-09-26,1,,,,,マイアクティブ,0
392,2122003002678,新規,0,2023-09-26,2023-09-26,合同会社ＬａｓＶｉｓｔａｓ,,合同会社,大阪府,八尾市,太田１丁目４７番地,,27,212,5810037,,,,,,,2023-09-26,1,,,,,ラスビスタス,0
402,2140001131737,新規,0,2023-09-26,2023-09-26,株式会社エフエムラボ,,株式会社,兵庫県,神戸市中央区,熊内町８丁目１４番２０号,,28,110,6510056,,,,,,,2023-09-26,1,,,,,エフエムラボ,0
406,2150003003074,新規,0,2023-09-26,2023-09-26,合同会社ＤＫＳＫ,,合同会社,奈良県,香芝市,関屋３９０番８号,,29,210,6390255,,,,,,,2023-09-26,1,,,,,ディーケーエスケー,0
409,2170003001927,新規,0,2023-09-26,2023-09-26,合同会社リフォームＴＫＹ,,合同会社,和歌山県,和歌山市,中之島３９５番地コーポ東６号棟６２１号室,,30,201,6408392,,,,,,,2023-09-26,1,,,,,リフォームティケイワイ,0
419,2180001158165,新規,0,2023-09-26,2023-09-26,株式会社藤原工業,,株式会社,愛知県,稲沢市,祖父江町四貫南新田１２２６番地２,,23,220,4950033,,,,,,,2023-09-26,1,,,,,フジワラコウギョウ,0
422,2180005020362,新規,0,2023-09-26,2023-09-26,一般社団法人ＭＩＲＡＩ　Ｐｒｏｊｅｃｔ,,その他の設立登記法人,愛知県,半田市,桐ケ丘４丁目２０２番地の７,,23,205,4750928,,,,,,,2023-09-26,1,,,,,ミライプロジェクト,0
430,2220001025609,新規,0,2023-09-26,2023-09-26,株式会社Ｓ＆Ｂ,,株式会社,石川県,白山市,山島台３丁目５５番地,,17,210,9240836,,,,,,,2023-09-26,1,,,,,エスアンドビー,0
444,2290001103069,新規,0,2023-09-26,2023-09-26,テクニカルマネージメントシステム株式会社,,株式会社,福岡県,久留米市,東合川５丁目６番地５５号クレールヴィラ６０２,,40,203,8390809,,,,,,,2023-09-26,1,,,,,テクニカルマネージメントシステム,0
446,2290801029892,新規,0,2023-09-26,2023-09-26,株式会社ＳＵＭＥＢＡ,,株式会社,福岡県,田川郡添田町,大字庄１９５６番地,,40,602,8240601,,,,,,,2023-09-26,1,,,,,スメバ,0
451,2320005010101,新規,0,2023-09-26,2023-09-26,一般社団法人ひかり,,その他の設立登記法人,大分県,大分市,大字寒田４１５番地の１グリーンコープ生活協同組合おおいた（おおいた西センター内）,,44,201,8701123,,,,,,,2023-09-26,1,,,,,ヒカリ,0
455,2340001025919,新規,0,2023-09-26,2023-09-26,株式会社和田クレーン機工,,株式会社,鹿児島県,鹿屋市,寿３丁目３番１０号,,46,203,8930014,,,,,,,2023-09-26,1,,,,,ワダクレーンキコウ,0
460,2360003013317,新規,0,2023-09-26,2023-09-26,合同会社ＳＥＡＰＲＯ,,合同会社,沖縄県,那覇市,港町４丁目５番１号,,47,201,9000001,,,,,,,2023-09-26,1,,,,,シープロ,0
472,2430003015470,新規,0,2023-09-26,2023-09-26,合同会社藤野電工,,合同会社,北海道,札幌市南区,藤野三条１１丁目１７番１２号,,01,106,0612283,,,,,,,2023-09-26,1,,,,,フジノデンコウ,0
473,2430003015479,新規,0,2023-09-26,2023-09-26,合同会社旋,,合同会社,北海道,札幌市白石区,北郷四条８丁目４番１４号,,01,104,0030834,,,,,,,2023-09-26,1,,,,,セン,0
474,2430005014792,新規,0,2023-09-26,2023-09-26,医療法人札幌東和病院,,その他の設立登記法人,北海道,札幌市東区,北三十条東１８丁目８番１号,,01,103,0650030,,,,,,,2023-09-26,1,,,,,サッポロトウワビョウイン,0
477,2470001019825,新規,0,2023-09-26,2023-09-26,株式会社セトキン,,株式会社,香川県,高松市,香西西町４３８番地３,,37,201,7618015,,,,,,,2023-09-26,1,,,,,セトキン,0
480,2700150120723,新規,0,2023-09-26,2023-09-26,ｄｉｈａｏｄｉａｎｑｉｚｈｅｊｉａｎｇ　ｙｏｕｘｉａｎｇｏｎｇｓｉ,,外国会社等,,,,,,,,ｚｈｅｊｉａｎｇ　ｗｅｎｚｈｏｕｓｈｉ　ｙｕｅｑｉｎｇｓｈｉｌｉｕｓｈｉｚｈｅｎｓｈａｎｇｚｈａｉｃｕｎ　Ｃｈｉｎａ,,,,,,2023-09-26,1,,,,,ディハオデンチゼジャンユウゲンコウシ,0
490,3010001238643,新規,0,2023-09-26,2023-09-26,Ｎｅａｒｉｔｙ　Ｊａｐａｎ株式会社,,株式会社,東京都,千代田区,神田須田町１丁目７番地１ウィン神田ビル４２３号室,,13,101,1010041,,,,,,,2023-09-26,1,,,,,ニアリティジャパン,0
491,3010001238718,新規,0,2023-09-26,2023-09-26,株式会社ＮＥＥＧ,,株式会社,東京都,中央区,日本橋小舟町１３番１０号,,13,102,1030024,,,,,,,2023-09-26,1,,,,,ネッグ,0
492,3010001238734,新規,0,2023-09-26,2023-09-26,シルバーシーエステート株式会社,,株式会社,東京都,千代田区,霞が関３丁目２－５霞が関ビルディング３１階弁護士法人ＯｎｅＡｓｉａ内,,13,101,1000013,,,,,,,2023-09-26,1,,,,,シルバーシーエステート,0
493,3010001238750,新規,0,2023-09-26,2023-09-26,株式会社Ｆｉｖｅ　Ｓｔｏｒｍ,,株式会社,東京都,千代田区,東神田３丁目４－１２－４Ｆ,,13,101,1010031,,,,,,,2023-09-26,1,,,,,ファイブストーム,0
497,3010003041748,新規,0,2023-09-26,2023-09-26,三川商事合同会社,,合同会社,東京都,中央区,東日本橋１丁目９番１０号,,13,102,1030004,,,,,,,2023-09-26,1,,,,,ミカワショウジ,0
507,3010401177334,新規,0,2023-09-26,2023-09-26,株式会社リンクス,,株式会社,東京都,港区,赤坂２丁目１４番１１号天翔ビル６０４,,13,103,1070052,,,,,,,2023-09-26,1,,,,,リンクス,0
510,3010403031010,新規,0,2023-09-26,2023-09-26,合同会社Ｄｕａ,,合同会社,東京都,港区,北青山１丁目３番１号,,13,103,1070061,,,,,,,2023-09-26,1,,,,,デュア,0
516,3010701044878,新規,0,2023-09-26,2023-09-26,株式会社禾賽科技日本,,株式会社,東京都,品川区,東五反田１丁目１０番７号ＡＩＳＯ五反田ビル３１０号室,,13,109,1410022,,,,,,,2023-09-26,1,,,,,カサイカギニホン,0
520,3010901053869,新規,0,2023-09-26,2023-09-26,株式会社わんあっぷ,,株式会社,東京都,世田谷区,若林４丁目２８番１号－１０２,,13,112,1540023,,,,,,,2023-09-26,1,,,,,ワンアップ,0
521,3010903008474,新規,0,2023-09-26,2023-09-26,ＴＡＭＡＹＯ合同会社,,合同会社,東京都,世田谷区,三軒茶屋２丁目１５番１２号,,13,112,1540024,,,,,,,2023-09-26,1,,,,,タマヨ,0
529,3011003017556,新規,0,2023-09-26,2023-09-26,ＦＲＯＭ　ＪＡＰＡＮ合同会社,,合同会社,東京都,渋谷区,神宮前６丁目２３番４号桑野ビル２階,,13,113,1500001,,,,,,,2023-09-26,1,,,,,フロムジャパン,0
532,3011101104462,新規,0,2023-09-26,2023-09-26,三盛株式会社,,株式会社,東京都,新宿区,市谷田町２丁目２１番地５,,13,104,1620843,,,,,,,2023-09-26,1,,,,,サンセイ,0
552,3013301051377,新規,0,2023-09-26,2023-09-26,ＹＵＮＩ　ＷＯＲＬＤ株式会社,,株式会社,東京都,豊島区,東池袋２丁目４５番７号エコービル３０１号,,13,116,1700013,,,,,,,2023-09-26,1,,,,,ユニワールド,0
561,3020001153627,新規,0,2023-09-26,2023-09-26,株式会社ホマレ,,株式会社,神奈川県,横浜市鶴見区,岸谷４丁目１９番１６号,,14,101,2300078,,,,,,,2023-09-26,1,,,,,ホマレ,0
562,3020001153635,新規,0,2023-09-26,2023-09-26,株式会社Ｄ２Ｄ　Ｎｅｘｕｓ,,株式会社,神奈川県,横浜市中区,日本大通７番地合人社横浜日本大通７ビル４Ｆ,,14,104,2310021,,,,,,,2023-09-26,1,,,,,ディートゥーディーネクサス,0
563,3020001153643,新規,0,2023-09-26,2023-09-26,株式会社ＰＥＲＣＩＶＡＲＴＥＭＩＳ,,株式会社,神奈川県,横浜市港北区,高田東４丁目２３番４号クール高田駅前医療ビル３階,,14,109,2230065,,,,,,,2023-09-26,1,,,,,パーシバルテミス,0
564,3020001153651,新規,0,2023-09-26,2023-09-26,株式会社美和産業,,株式会社,神奈川県,横浜市中区,本牧原２１番３号棟６０８,,14,104,2310821,,,,,,,2023-09-26,1,,,,,ミワサンギョウ,0
568,3020003024652,新規,0,2023-09-26,2023-09-26,合同会社Ｒ　Ｓｅｌｌｉｎｇ　Ｐｒｏｄｕｃｔｓ,,合同会社,神奈川県,横浜市港北区,新羽町３１５番地７,,14,109,2230057,,,,,,,2023-09-26,1,,,,,アールセリングプロダクツ,0
569,3021001080290,新規,0,2023-09-26,2023-09-26,株式会社ｉｎｎｉｔ,,株式会社,神奈川県,藤沢市,湘南台４丁目３番地の２０,,14,205,2520804,,,,,,,2023-09-26,1,,,,,イニット,0
571,3021003013612,新規,0,2023-09-26,2023-09-26,ＦＣＮＴ合同会社,,合同会社,神奈川県,大和市,中央林間７丁目１０番１号,,14,213,2420007,,,,,,,2023-09-26,1,,,,,エフシーエヌティー,0
572,3030001155878,新規,0,2023-09-26,2023-09-26,株式会社ダブルスクイーズ,,株式会社,埼玉県,草加市,瀬崎２丁目４７番４０号,,11,221,3400022,,,,,,,2023-09-26,1,,,,,ダブルスクイーズ,0
573,3030001156018,新規,0,2023-09-26,2023-09-26,藤村工業株式会社,,株式会社,埼玉県,草加市,青柳８丁目４９番４号,,11,221,3400002,,,,,,,2023-09-26,1,,,,,フジムラコウギョウ,0
574,3030001156224,新規,0,2023-09-26,2023-09-26,株式会社ＡＳＰ,,株式会社,埼玉県,入間郡毛呂山町,南台５丁目４０番地５,,11,326,3500464,,,,,,,2023-09-26,1,,,,,エーエスピー,0
575,3030001156281,新規,0,2023-09-26,2023-09-26,メイリリィ株式会社,,株式会社,埼玉県,川口市,弥平１丁目１２－３０－２０３,,11,203,3320002,,,,,,,2023-09-26,1,,,,,メイリリィ,0
581,3030003022498,新規,0,2023-09-26,2023-09-26,ふるーる合同会社,,合同会社,埼玉県,桶川市,北２丁目６－２５,,11,231,3630011,,,,,,,2023-09-26,1,,,,,フルール,0
582,3030003022606,新規,0,2023-09-26,2023-09-26,イマジネーション合同会社,,合同会社,埼玉県,志木市,本町５丁目２２番２９－６０５号,,11,228,3530004,,,,,,,2023-09-26,1,,,,,イマジネーション,0
588,3040001130178,新規,0,2023-09-26,2023-09-26,株式会社ＨＯＫＥＮ　ＴＲＵＳＴ,,株式会社,千葉県,木更津市,清見台３丁目１番７号,,12,206,2920045,,,,,,,2023-09-26,1,,,,,ホケントラスト,0
589,3040001130211,新規,0,2023-09-26,2023-09-26,株式会社Ｇｌｕｅ,,株式会社,千葉県,大網白里市,南横川２９５９,,12,239,2993223,,,,,,,2023-09-26,1,,,,,グルー,0
590,3040001130228,新規,0,2023-09-26,2023-09-26,株式会社アントビーズ,,株式会社,千葉県,君津市,常代３丁目２番３号,,12,225,2991121,,,,,,,2023-09-26,1,,,,,アントビーズ,0
594,3040003023388,新規,0,2023-09-26,2023-09-26,スーパードライ合同会社,,合同会社,千葉県,船橋市,大穴北８丁目１３番１６号,,12,204,2740068,,,,,,,2023-09-26,1,,,,,スーパードライ,0
595,3040003023396,新規,0,2023-09-26,2023-09-26,合同会社颯,,合同会社,千葉県,千葉市中央区,富士見２丁目７番９号富士見ビル６０９号,,12,101,2600015,,,,,,,2023-09-26,1,,,,,ハヤテ,0
596,3040003023405,新規,0,2023-09-26,2023-09-26,ＮＭ合同会社,,合同会社,千葉県,松戸市,高塚新田４３１番地２,,12,207,2702222,,,,,,,2023-09-26,1,,,,,エヌエム,0
616,3120001258176,新規,0,2023-09-26,2023-09-26,株式会社ターチャオ,,株式会社,大阪府,大阪市福島区,鷺洲２丁目５番３０－２０５,,27,103,5530002,,,,,,,2023-09-26,1,,,,,ターチャオ,0
619,3120003024915,新規,0,2023-09-26,2023-09-26,合同会社ライフサポート,,合同会社,大阪府,大阪市浪速区,日本橋４丁目２番２０号コア日本橋５０３,,27,111,5560005,,,,,,,2023-09-26,1,,,,,ライフサポート,0
620,3120003024948,新規,0,2023-09-26,2023-09-26,ＡＡＲＯＮ合同会社,,合同会社,大阪府,大阪市北区,南森町１丁目２番２２－５０６号,,27,127,5300054,,,,,,,2023-09-26,1,,,,,アアロン,0
621,3120003024989,新規,0,2023-09-26,2023-09-26,ＡＬＶコンサルティング合同会社,,合同会社,大阪府,大阪市旭区,高殿６丁目１番２２号,,27,117,5350031,,,,,,,2023-09-26,1,,,,,エイエルヴィコンサルティング,0
623,3120005023898,新規,0,2023-09-26,2023-09-26,一般社団法人地域つながりサポート,,その他の設立登記法人,大阪府,大阪市東淀川区,東淡路１丁目５番５１号エバーレショッピングセンター内,,27,114,5330023,,,,,,,2023-09-26,1,,,,,チイキツナガリサポート,0
625,3120105009764,新規,0,2023-09-26,2023-09-26,社会福祉法人ｉｃｈｉ,,その他の設立登記法人,大阪府,大阪狭山市,池之原２丁目９６４番地の１０,,27,231,5890031,,,,,,,2023-09-26,1,,,,,イチ,0
633,3122001037403,新規,0,2023-09-26,2023-09-26,ＡＷＡＳ株式会社,,株式会社,大阪府,八尾市,久宝寺６丁目４番７号,,27,212,5810072,,,,,,,2023-09-26,1,,,,,アワス,0
638,3130003009007,新規,0,2023-09-26,2023-09-26,合同会社奥平亜美衣事務所,,合同会社,京都府,京都市右京区,花園宮ノ上町２４番地,,26,108,6168047,,,,,,,2023-09-26,1,,,,,オクダイラアミイジムショ,0
641,3140001131728,新規,0,2023-09-26,2023-09-26,Ｇａｍｅ　Ｎｅｗ　Ａｇｅ株式会社,,株式会社,兵庫県,神崎郡神河町,中村２６６番地,,28,446,6792413,,,,,,,2023-09-26,1,,,,,ゲームニューエイジ,0
642,3140001131736,新規,0,2023-09-26,2023-09-26,株式会社ＷＥＳＴ,,株式会社,兵庫県,尼崎市,塚口町４丁目５９－２６,,28,202,6610002,,,,,,,2023-09-26,1,,,,,ウエスト,0
649,3170001017791,新規,0,2023-09-26,2023-09-26,株式会社ＢＡＧＵ,,株式会社,和歌山県,橋本市,橋谷１番地の１２,,30,203,6480095,,,,,,,2023-09-26,1,,,,,バグ,0
657,3180001158107,新規,0,2023-09-26,2023-09-26,株式会社ミトミト,,株式会社,愛知県,名古屋市中村区,名駅４丁目２４番５号第２森ビル４０１,,23,105,4500002,,,,,,,2023-09-26,1,,,,,ミトミト,0
658,3180001158206,新規,0,2023-09-26,2023-09-26,大幸ハウジング株式会社,,株式会社,愛知県,名古屋市中区,栄１丁目２２番７号サカエビル２２・３Ａ,,23,106,4600008,,,,,,,2023-09-26,1,,,,,ダイコウハウジング,0
664,3180003025791,新規,0,2023-09-26,2023-09-26,合同会社Ｌａｇｕｒｕｓ,,合同会社,愛知県,名古屋市守山区,幸心３丁目６０７番地,,23,113,4630079,,,,,,,2023-09-26,1,,,,,ラグラス,0
667,3180005020361,新規,0,2023-09-26,2023-09-26,特定非営利活動法人日本栄養パトネット,,その他の設立登記法人,愛知県,名古屋市昭和区,山手通５丁目３３番地１,,23,107,4660815,,,,,,,2023-09-26,1,,,,,ニホンエイヨウパトネット,0
671,3200001041755,新規,0,2023-09-26,2023-09-26,玉城商事株式会社,,株式会社,岐阜県,瑞穂市,稲里６６７番地２,,21,216,5010224,,,,,,,2023-09-26,1,,,,,タマキショウジ,0
685,3250001020291,新規,0,2023-09-26,2023-09-26,株式会社ｅｎｎ,,株式会社,山口県,下関市,形山みどり町１４番２７－５０４号パサージュ新下関,,35,201,7510885,,,,,,,2023-09-26,1,,,,,エン,0
690,3260001038333,新規,0,2023-09-26,2023-09-26,きづな株式会社,,株式会社,岡山県,倉敷市,中島１８３４番地２ビッグウエストＢ棟１０３,,33,202,7100803,,,,,,,2023-09-26,1,,,,,キヅナ,0
693,3280005007571,新規,0,2023-09-26,2023-09-26,一般社団法人雲の輪,,その他の設立登記法人,島根県,雲南市,三刀屋町三刀屋１１２１番地１,,32,209,6902404,,,,,,,2023-09-26,1,,,,,クモノリン,0
695,3290001103092,新規,0,2023-09-26,2023-09-26,株式会社翔栄,,株式会社,福岡県,嘉麻市,下山田４５８番地３山田山下団地２５３号,,40,227,8210011,,,,,,,2023-09-26,1,,,,,ショウエイ,0
696,3290001103118,新規,0,2023-09-26,2023-09-26,株式会社フィールドデータラボ,,株式会社,福岡県,糟屋郡篠栗町,津波黒３丁目３－４１,,40,342,8112415,,,,,,,2023-09-26,1,,,,,フィールドデータラボ,0
697,3290001103126,新規,0,2023-09-26,2023-09-26,株式会社Ｈａｎｄｌｅｒｒ,,株式会社,福岡県,福岡市中央区,舞鶴１丁目６番２２－１１０８号レジディア天神,,40,133,8100073,,,,,,,2023-09-26,1,,,,,ハンドラー,0
698,3290001103134,新規,0,2023-09-26,2023-09-26,株式会社ＣＲＡＦＴ,,株式会社,福岡県,福岡市中央区,天神２丁目３番１０号天神パインクレスト７１９号,,40,133,8100001,,,,,,,2023-09-26,1,,,,,クラフト,0
699,3290001103142,新規,0,2023-09-26,2023-09-26,株式会社ＧＶ,,株式会社,福岡県,福岡市中央区,大名２丁目６番５０号,,40,133,8100041,,,,,,,2023-09-26,1,,,,,ジーブイ,0
702,3290005019153,新規,0,2023-09-26,2023-09-26,一般社団法人ＨＡＴＴＯ,,その他の設立登記法人,福岡県,久留米市,合川町１７５２番地１ＮＯ８山一ビル４０２号,,40,203,8390861,,,,,,,2023-09-26,1,,,,,ハット,0
704,3290801029891,新規,0,2023-09-26,2023-09-26,ＬｅａｄＣｌｏｖｅｒ株式会社,,株式会社,福岡県,北九州市門司区,上馬寄２丁目２－２８,,40,101,8000042,,,,,,,2023-09-26,1,,,,,リードクローバー,0
709,3330003009993,新規,0,2023-09-26,2023-09-26,合同会社ＳＴＡＲ　ＤＲＥＡＭ,,合同会社,熊本県,熊本市中央区,大江１丁目２９番３２号,,43,101,8620971,,,,,,,2023-09-26,1,,,,,スタードリーム,0
710,3340001025926,新規,0,2023-09-26,2023-09-26,テムレース株式会社,,株式会社,鹿児島県,垂水市,田神３４９８番地２,,46,214,8912104,,,,,,,2023-09-26,1,,,,,テムレース,0
716,3370001050450,新規,0,2023-09-26,2023-09-26,株式会社ＯＳアカウンティング,,株式会社,宮城県,仙台市青葉区,上杉１丁目６番１０号,,04,101,9800011,,,,,,,2023-09-26,1,,,,,オーエスアカウンティング,0
720,3370003006302,新規,0,2023-09-26,2023-09-26,ａｄｖａｎｃｅ合同会社,,合同会社,宮城県,仙台市青葉区,広瀬町４－８ライオンズタワー仙台広瀬１５０３,,04,101,9800873,,,,,,,2023-09-26,1,,,,,アドバンス,0
726,3380005012751,新規,0,2023-09-26,2023-09-26,一般財団法人西会津町農業公社,,その他の設立登記法人,福島県,耶麻郡西会津町,新郷大字笹川字笹川平５８９番地,,07,405,9694622,,,,,,,2023-09-26,1,,,,,ニシアイヅマチノウギョウコウシャ,0
729,3390003002142,新規,0,2023-09-26,2023-09-26,Ｓｐｉｂｅｒ　ＩＰ　Ｍａｎａｇｅｍｅｎｔ合同会社,,合同会社,山形県,鶴岡市,覚岸寺字水上２３４番地１,,06,203,9970052,,,,,,,2023-09-26,1,,,,,スパイバーアイピーマネジメント,0
731,3410001013601,新規,0,2023-09-26,2023-09-26,株式会社Ｂｅｅｎｅ　Ｓｔｙｌｅ,,株式会社,秋田県,秋田市,中通６丁目６番１５号パークヒルズ中通２Ｆ,,05,201,0100001,,,,,,,2023-09-26,1,,,,,ビーネスタイル,0
732,3430001090036,新規,0,2023-09-26,2023-09-26,株式会社Ｒｉｃｈ　Ｉｓｌａｎｄ,,株式会社,北海道,札幌市手稲区,前田十一条１０丁目３番３号,,01,109,0060821,,,,,,,2023-09-26,1,,,,,リッチアイランド,0
740,3700150120722,新規,0,2023-09-26,2023-09-26,ｓｈｅｎｚｈｅｎｓｈｉｘｉｎｙｉｈｕａｓｈｕｚｉｋｅｊｉ　ｙｏｕｘｉａｎｇｏｎｇｓｉ,,外国会社等,,,,,,,,ｓｈｅｎｚｈｅｎｓｈｉ　Ｌｏｎｇｇａｎｇｑｕ，Ｂａｎｔｉａｎ　Ｓｔｒｅｅｔ，Ｇａｎｇｔｏｕ　Ｃｏｍｍｕｎｉｔｙ，Ｗｕｈｅ　Ａｖｅｎｕｅ，Ｎｏ．４０１４，７ｔｈ　Ｆｌｏｏｒ，Ｒｏｏｍ　７０１　Ｃｈｉｎａ,,,,,,2023-09-26,1,,,,,シンセンシシンイフアシュズカギユウゲンコウシ,0
743,4010001238700,新規,0,2023-09-26,2023-09-26,ＱＵＡＴ株式会社,,株式会社,東京都,中央区,湊１丁目６番１１号,,13,102,1040043,,,,,,,2023-09-26,1,,,,,クアット,0
746,4010003041755,新規,0,2023-09-26,2023-09-26,合同会社野田プロジェクト,,合同会社,東京都,千代田区,有楽町２丁目１０番１号株式会社アセットソリューション内,,13,101,1000006,,,,,,,2023-09-26,1,,,,,ノダプロジェクト,0
757,4010405022485,新規,0,2023-09-26,2023-09-26,医療法人社団燈仁會,,その他の設立登記法人,東京都,港区,麻布十番１丁目５番８号ヴェスタビル４階,,13,103,1060045,,,,,,,2023-09-26,1,,,,,トウジンカイ,0
763,4010901053868,新規,0,2023-09-26,2023-09-26,ｇｒａｔｅｆｕｌ　ｃｒａｎｅ株式会社,,株式会社,東京都,世田谷区,太子堂４丁目１４番６号,,13,112,1540004,,,,,,,2023-09-26,1,,,,,グレイトフルクレイン,0
764,4010901053876,新規,0,2023-09-26,2023-09-26,株式会社ジャスダン,,株式会社,東京都,世田谷区,桜新町１丁目２９番２号,,13,112,1540015,,,,,,,2023-09-26,1,,,,,ジャスダン,0
770,4011001157097,新規,0,2023-09-26,2023-09-26,株式会社ＦＡＲＭＥＲ’ｓ,,株式会社,東京都,目黒区,南２丁目１１－９,,13,110,1520013,,,,,,,2023-09-26,1,,,,,ファーマーズ,0
771,4011001157163,新規,0,2023-09-26,2023-09-26,リプラス株式会社,,株式会社,東京都,渋谷区,本町３丁目１３番１２号,,13,113,1510071,,,,,,,2023-09-26,1,,,,,リプラス,0
772,4011003017588,新規,0,2023-09-26,2023-09-26,合同会社テック塾,,合同会社,東京都,渋谷区,渋谷２丁目１９－１５宮益坂ビルディング６０９,,13,113,1500002,,,,,,,2023-09-26,1,,,,,テックジュク,0
776,4011101104453,新規,0,2023-09-26,2023-09-26,伊杉株式会社,,株式会社,東京都,新宿区,西新宿３丁目５番３号西新宿ダイヤモンドパレス３０８号,,13,104,1600023,,,,,,,2023-09-26,1,,,,,イスギ,0
777,4011103013512,新規,0,2023-09-26,2023-09-26,合同会社Ｏｔｔｅｒ　Ａｔｙ,,合同会社,東京都,新宿区,西新宿７丁目６番５－１００３号グローリア初穂生沼ビル１０階,,13,104,1600023,,,,,,,2023-09-26,1,,,,,オッターアティ,0
778,4011201024931,新規,0,2023-09-26,2023-09-26,株式会社東京ソラーレ,,株式会社,東京都,中野区,中央５丁目４４番９号,,13,114,1640011,,,,,,,2023-09-26,1,,,,,トウキョウソラーレ,0
783,4011601027146,新規,0,2023-09-26,2023-09-26,株式会社もみじ不動産,,株式会社,東京都,練馬区,石神井台５丁目１１番４２号,,13,120,1770045,,,,,,,2023-09-26,1,,,,,モミジフドウサン,0
791,4020003024635,新規,0,2023-09-26,2023-09-26,合同会社岡村建築意匠室,,合同会社,神奈川県,横浜市港北区,大倉山３丁目１３番３号,,14,109,2220037,,,,,,,2023-09-26,1,,,,,オカムラケンチクイショウシツ,0
792,4030001156058,新規,0,2023-09-26,2023-09-26,株式会社ひらまつ,,株式会社,埼玉県,川口市,芝下２丁目６番４号,,11,203,3330848,,,,,,,2023-09-26,1,,,,,ヒラマツ,0
793,4030001156157,新規,0,2023-09-26,2023-09-26,株式会社エンティ,,株式会社,埼玉県,鶴ヶ島市,新町１丁目９番地８,,11,241,3502227,,,,,,,2023-09-26,1,,,,,エンティ,0
794,4030001156215,新規,0,2023-09-26,2023-09-26,ＲＹＢＳ株式会社,,株式会社,埼玉県,志木市,館１丁目１番８号３０１―Ａ,,11,228,3530006,,,,,,,2023-09-26,1,,,,,アールワイビーエス,0
806,4040001130169,新規,0,2023-09-26,2023-09-26,株式会社オープンイノベーションパートナーズ,,株式会社,千葉県,浦安市,富岡３丁目１番１－５０８号,,12,227,2790021,,,,,,,2023-09-26,1,,,,,オープンイノベーションパートナーズ,0
807,4040001130177,新規,0,2023-09-26,2023-09-26,巧ホールディングス株式会社,,株式会社,千葉県,鎌ケ谷市,東初富６丁目７番２０号,,12,224,2730122,,,,,,,2023-09-26,1,,,,,タクミホールディングス,0
811,4040003023379,新規,0,2023-09-26,2023-09-26,合同会社ルミエ,,合同会社,千葉県,船橋市,西船４丁目２０番１１号ＲＩＴＴＳビル４Ｆ,,12,204,2730031,,,,,,,2023-09-26,1,,,,,ルミエ,0
815,4070001040893,新規,0,2023-09-26,2023-09-26,株式会社美英,,株式会社,群馬県,前橋市,南町３丁目１８番地３,,10,201,3710805,,,,,,,2023-09-26,1,,,,,ミヨン,0
820,4080101024226,新規,0,2023-09-26,2023-09-26,株式会社創令,,株式会社,静岡県,富士市,厚原１００２番地,,22,210,4190201,,,,,,,2023-09-26,1,,,,,ソウレイ,0
840,4120001258191,新規,0,2023-09-26,2023-09-26,株式会社ちまこむ,,株式会社,大阪府,大阪市中央区,本町橋８番１－１３０５号,,27,128,5400029,,,,,,,2023-09-26,1,,,,,チマコム,0
841,4120001258209,新規,0,2023-09-26,2023-09-26,株式会社コーストエステート,,株式会社,大阪府,枚方市,香里ケ丘２丁目１１番地の１,,27,210,5730084,,,,,,,2023-09-26,1,,,,,コーストエステート,0
842,4120001258299,新規,0,2023-09-26,2023-09-26,株式会社ＴＡＮＯＣＹ,,株式会社,大阪府,大阪市北区,梅田１丁目２番２号大阪駅前第２ビル１２－１２,,27,127,5300001,,,,,,,2023-09-26,1,,,,,タノシー,0
843,4120001258316,新規,0,2023-09-26,2023-09-26,ＭＳマネジメント株式会社,,株式会社,大阪府,大阪市中央区,北浜３丁目５番１９号,,27,128,5410041,,,,,,,2023-09-26,1,,,,,エムエスマネジメント,0
848,4120005023889,新規,0,2023-09-26,2023-09-26,一般社団法人Ｐｏｓｓｉｂｌｅ,,その他の設立登記法人,大阪府,大阪市北区,中崎３丁目２番１１号みどり荘２０５,,27,127,5300016,,,,,,,2023-09-26,1,,,,,ポシブル,0
849,4120005023897,新規,0,2023-09-26,2023-09-26,一般社団法人桜守,,その他の設立登記法人,大阪府,大阪市中央区,平野町２丁目３番７号アーバンエース北浜ビル１階ＳＹＮＴＨ３０１号,,27,128,5410046,,,,,,,2023-09-26,1,,,,,サクラモリ,0
869,4140001131727,新規,0,2023-09-26,2023-09-26,株式会社あかつき不動産,,株式会社,兵庫県,加古川市,平岡町新在家４５７番地の１、３－Ａ,,28,210,6750101,,,,,,,2023-09-26,1,,,,,アカツキフドウサン,0
870,4140001131735,新規,0,2023-09-26,2023-09-26,株式会社パイルドライバー,,株式会社,兵庫県,姫路市,網干区垣内東町１８８番地,,28,201,6711252,,,,,,,2023-09-26,1,,,,,パイルドライバー,0
872,4140003019581,新規,0,2023-09-26,2023-09-26,合同会社ＣＲＡＢ,,合同会社,兵庫県,神戸市中央区,相生町４丁目６番１３幸福ビル６０１,,28,110,6500025,,,,,,,2023-09-26,1,,,,,クラブ,0
874,4150001026736,新規,0,2023-09-26,2023-09-26,株式会社ＡＲＡＶＩＡ,,株式会社,奈良県,奈良市,六条西６丁目５番２４号,,29,201,6308044,,,,,,,2023-09-26,1,,,,,アラヴィア,0
883,4180001158139,新規,0,2023-09-26,2023-09-26,株式会社メファボリ,,株式会社,愛知県,名古屋市昭和区,川名山町２５番地の１プラウド川名山２０４号,,23,107,4660827,,,,,,,2023-09-26,1,,,,,メファボリ,0
884,4180001158188,新規,0,2023-09-26,2023-09-26,株式会社フレンジョイ,,株式会社,愛知県,あま市,七宝町沖之島中折４番地,,23,237,4970001,,,,,,,2023-09-26,1,,,,,フレンジョイ,0
887,4180003025774,新規,0,2023-09-26,2023-09-26,合同会社Ｌｕｋｋａ,,合同会社,愛知県,名古屋市昭和区,桜山町４丁目７０番地の２１,,23,107,4660044,,,,,,,2023-09-26,1,,,,,ルッカ,0
890,4190003004447,新規,0,2023-09-26,2023-09-26,合同会社セオン,,合同会社,三重県,伊勢市,浦口４丁目２５番６号,,24,203,5160062,,,,,,,2023-09-26,1,,,,,セオン,0
892,4200003006094,新規,0,2023-09-26,2023-09-26,合同会社三壱,00132040,合同会社,岐阜県,岐阜市,北一色５丁目３－２１ハイツルネッサンス２０７号室,,21,201,5008227,,,,,,,2023-09-26,1,,,,,サンイチ,0
896,4220003003593,新規,0,2023-09-26,2023-09-26,合同会社北陸Ｎ＆Ｃ,,合同会社,石川県,金沢市,玉鉾２丁目２０６番地２,,17,201,9218002,,,,,,,2023-09-26,1,,,,,ホクリクエヌアンドシー,0
904,4260001038332,新規,0,2023-09-26,2023-09-26,株式会社サンキューホーム,,株式会社,岡山県,岡山市北区,今４丁目９番２３号第一今ビル８０３号室,,33,101,7000975,,,,,,,2023-09-26,1,,,,,サンキューホーム,0
910,4290001103133,新規,0,2023-09-26,2023-09-26,株式会社拓く,,株式会社,福岡県,福岡市城南区,七隈４丁目２７番７－１０２号カワハラビル,,40,136,8140133,,,,,,,2023-09-26,1,,,,,ヒラク,0
913,4290801029890,新規,0,2023-09-26,2023-09-26,株式会社ＭＱ,,株式会社,福岡県,遠賀郡水巻町,吉田西３丁目４番７号,,40,382,8070046,,,,,,,2023-09-26,1,,,,,エムキュウ,0
924,4370003006301,新規,0,2023-09-26,2023-09-26,合同会社須貝技建,,合同会社,宮城県,富谷市,日吉台２丁目１２－１９エコーハイム弐番館１０１,,04,216,9813362,,,,,,,2023-09-26,1,,,,,スガイギケン,0
931,4390001017380,新規,0,2023-09-26,2023-09-26,株式会社グラシーズ,,株式会社,山形県,山形市,七日町１丁目２番３６号,,06,201,9900042,,,,,,,2023-09-26,1,,,,,グラシーズ,0
934,4430001090035,新規,0,2023-09-26,2023-09-26,Ａｘｃｘｅｐｔ株式会社,,株式会社,北海道,札幌市中央区,南五条西１５丁目２－３リズム医大前５０３号室,,01,101,0640805,,,,,,,2023-09-26,1,,,,,アクセプト,0
938,4430003015469,新規,0,2023-09-26,2023-09-26,合同会社ジュピター,,合同会社,北海道,札幌市中央区,大通東７丁目１２番地４８,,01,101,0600041,,,,,,,2023-09-26,1,,,,,ジュピター,0
940,4470003002496,新規,0,2023-09-26,2023-09-26,宝産業合同会社,,合同会社,香川県,高松市,木太町１７５５番地,,37,201,7600080,,,,,,,2023-09-26,1,,,,,タカラサンギョウ,0
941,4480001012224,新規,0,2023-09-26,2023-09-26,株式会社ハリマテック,,株式会社,徳島県,小松島市,田浦町字東内５０番地３,,36,203,7730012,,,,,,,2023-09-26,1,,,,,ハリマテック,0
944,4700150120721,新規,0,2023-09-26,2023-09-26,Ｓｈｅｎｚｈｅｎｊｕｎｙｅｒｏｎｇｋｅｊｉ　ｙｏｕｘｉａｎｇｏｎｇｓｉ,,外国会社等,,,,,,,,Ｒｏｏｍ８０４ＢｕｉｌｄｉｎｇＡ　ＲｕｚｉｎｉｕＢｕｉｌｄｉｎｇ　Ｎｏ．５６Ｚｈｏｎｇｈａｏ１ｓｔＲｏａｄ　ＸｉａｎｇｊｉａｏｔａｎｇＣｏｍｍｕｎｉｔｙ　ＢａｎｔｉａｎＳｔｒｅｅｔ　ＬｏｎｇｇａｎｇＤｉｓｔｒｉｃｔ　Ｓｈｅｎｚｈｅｎ　Ｃｈｉｎａ,,,,,,2023-09-26,1,,,,,シンセンジュンイエヨンカギユウゲンコウシ,0
957,5010001238749,新規,0,2023-09-26,2023-09-26,原力株式会社,,株式会社,東京都,千代田区,鍛冶町２丁目９－７,,13,101,1010044,,,,,,,2023-09-26,1,,,,,ゲンリョク,0
959,5010003041754,新規,0,2023-09-26,2023-09-26,ＭＢＫＰ　Ｔｅｃｈｎｏ合同会社,,合同会社,東京都,千代田区,永田町２丁目１０番３号,,13,101,1000014,,,,,,,2023-09-26,1,,,,,エムビーケイピーテクノ,0
960,5010003041762,新規,0,2023-09-26,2023-09-26,ＣＯＫＯＯＺ合同会社,,合同会社,東京都,千代田区,九段南１丁目６番５号１Ｆ・Ｂ１Ｆ九段会館テラス,,13,101,1020074,,,,,,,2023-09-26,1,,,,,コクーズ,0
967,5010403031000,新規,0,2023-09-26,2023-09-26,Ｊ・Ｐ・Ｃ合同会社,,合同会社,東京都,港区,浜松町２丁目２番１５号浜松町ダイヤビル２Ｆ,,13,103,1050013,,,,,,,2023-09-26,1,,,,,ジェイピーシー,0
968,5010403031009,新規,0,2023-09-26,2023-09-26,合同会社ｃｈａｎｇｕ,,合同会社,東京都,港区,北青山１丁目３番１号,,13,103,1070061,,,,,,,2023-09-26,1,,,,,チャングー,0
976,5010701044884,新規,0,2023-09-26,2023-09-26,株式会社ＷＤＪハイテク,,株式会社,東京都,品川区,大崎２丁目１１番１号大崎ウィズタワー１８階,,13,109,1410032,,,,,,,2023-09-26,1,,,,,ダブリューディージェイハイテク,0
983,5010901053875,新規,0,2023-09-26,2023-09-26,株式会社Ｉｋｕｍｉ．Ｔｅｃｈ,,株式会社,東京都,世田谷区,奥沢５丁目１番１１号メゾンドジョワ２０２,,13,112,1580083,,,,,,,2023-09-26,1,,,,,イクミテック,0
984,5010903008480,新規,0,2023-09-26,2023-09-26,Ｆｒａｎｃｅｓｃａ　ｖｏｎ　Ｓｗｅｅｔｓ合同会社,,合同会社,東京都,世田谷区,粕谷３丁目３２－１２ヴィラ粕谷１Ａ,,13,112,1570063,,,,,,,2023-09-26,1,,,,,フランチェスカボンスイーツ,0
987,5011001156924,新規,0,2023-09-26,2023-09-26,株式会社仙伊商事,,株式会社,東京都,渋谷区,渋谷２丁目１９－１５－６０９,,13,113,1500002,,,,,,,2023-09-26,1,,,,,センイショウジ,0
988,5011001156998,新規,0,2023-09-26,2023-09-26,ＡＥ　Ｇｒｏｕｐ株式会社,,株式会社,東京都,渋谷区,道玄坂１丁目１０番８号渋谷道玄坂東急ビル２Ｆ－Ｃ,,13,113,1500043,,,,,,,2023-09-26,1,,,,,エーイーグループ,0
989,5011001157162,新規,0,2023-09-26,2023-09-26,株式会社カモフラ,,株式会社,東京都,渋谷区,神宮前２丁目３３番５号,,13,113,1500001,,,,,,,2023-09-26,1,,,,,カモフラ,0
990,5011003017570,新規,0,2023-09-26,2023-09-26,合同会社トラスト,,合同会社,東京都,渋谷区,神宮前６丁目２３番４号,,13,113,1500001,,,,,,,2023-09-26,1,,,,,トラスト,0
991,5011003017612,新規,0,2023-09-26,2023-09-26,大山合同会社,,合同会社,東京都,渋谷区,道玄坂１丁目１０番８号渋谷道玄坂東急ビル２Ｆ－Ｃ,,13,113,1500043,,,,,,,2023-09-26,1,,,,,オオヤマ,0
997,5011101104485,新規,0,2023-09-26,2023-09-26,株式会社クイーンズ・カフェ,,株式会社,東京都,新宿区,神楽坂４丁目３番地煉瓦塔ビル,,13,104,1620825,,,,,,,2023-09-26,1,,,,,クイーンズカフェ,0
1000,5011203004179,新規,0,2023-09-26,2023-09-26,合同会社ＷＡＮ,,合同会社,東京都,中野区,新井２丁目５０番１６号,,13,114,1650026,,,,,,,2023-09-26,1,,,,,ワン,0
1004,5011601027145,新規,0,2023-09-26,2023-09-26,株式会社ＴＢＫＫ　Ｊａｐａｎ,,株式会社,東京都,練馬区,三原台１丁目２５番６号,,13,120,1770031,,,,,,,2023-09-26,1,,,,,ティービーケイケイジャパン,0
1007,5011801043082,新規,0,2023-09-26,2023-09-26,株式会社ＢＯＮ・ＪＯＢ,,株式会社,東京都,足立区,舎人６丁目１番２０号,,13,121,1210831,,,,,,,2023-09-26,1,,,,,ボンジョブ,0
1008,5011803005849,新規,0,2023-09-26,2023-09-26,合同会社ＳｅａＳｉｄｅ,,合同会社,東京都,葛飾区,東新小岩５丁目１３番６－８０１号クレーデ東新小岩,,13,122,1240023,,,,,,,2023-09-26,1,,,,,シーサイド,0
1011,5012403006188,新規,0,2023-09-26,2023-09-26,Ｍａｍｉｅｌ　Ｓｐｉｒｉｔｕａｌ　Ｔｏｋｙｏ合同会社,,合同会社,東京都,調布市,緑ケ丘２丁目６１番地１３,,13,208,1820001,,,,,,,2023-09-26,1,,,,,マミエルスピリチュアルトウキョウ,0
1015,5013301051391,新規,0,2023-09-26,2023-09-26,株式会社テトラ,,株式会社,東京都,豊島区,東池袋４丁目２１番１－３８０８号,,13,116,1700013,,,,,,,2023-09-26,1,,,,,テトラ,0
1022,5020001153617,新規,0,2023-09-26,2023-09-26,株式会社ＥＭＢＹ．,,株式会社,神奈川県,横浜市港北区,大倉山３丁目１３番７号,,14,109,2220037,,,,,,,2023-09-26,1,,,,,エンビー,0
1027,5020003024642,新規,0,2023-09-26,2023-09-26,合同会社ミト,,合同会社,神奈川県,川崎市宮前区,神木本町１丁目１８番１６号,,14,136,2160031,,,,,,,2023-09-26,1,,,,,ミト,0
1028,5020003024650,新規,0,2023-09-26,2023-09-26,合同会社Ｓ,,合同会社,神奈川県,川崎市高津区,二子５丁目３番１２号サニーサイド１０２,,14,134,2130002,,,,,,,2023-09-26,1,,,,,エス,0
1031,5030001155843,新規,0,2023-09-26,2023-09-26,株式会社大寿ホームテック,,株式会社,埼玉県,さいたま市大宮区,桜木町１丁目９－１８１階,,11,103,3300854,,,,,,,2023-09-26,1,,,,,タイジュホームテック,0
1032,5030001156156,新規,0,2023-09-26,2023-09-26,株式会社陸正,,株式会社,埼玉県,吉川市,中央３丁目３７番地１４,,11,243,3420061,,,,,,,2023-09-26,1,,,,,リクセイ,0
1033,5030001156164,新規,0,2023-09-26,2023-09-26,ＴＯＳＹＯホールディングス株式会社,,株式会社,埼玉県,越谷市,弥生町６番１７号,,11,222,3430816,,,,,,,2023-09-26,1,,,,,トーショーホールディングス,0
1034,5030001156230,新規,0,2023-09-26,2023-09-26,株式会社ＲｉｂｂｉｔＬｏｇｉ,,株式会社,埼玉県,越谷市,大間野町４丁目１４８番地１,,11,222,3430844,,,,,,,2023-09-26,1,,,,,リビットロジ,0
1040,5030003022505,新規,0,2023-09-26,2023-09-26,合同会社ＫＥＩ,,合同会社,埼玉県,草加市,松江３丁目２５番１６号コーポＩＡ壱番館２０２号,00132029,11,221,3400013,,,,,,,2023-09-26,1,,,,,ケイ,0
1041,5030003022661,新規,0,2023-09-26,2023-09-26,Ｔ＆Ｍ合同会社,,合同会社,埼玉県,さいたま市南区,白幡４丁目１９番１９－２０４号,,11,108,3360022,,,,,,,2023-09-26,1,,,,,ティーアンドエム,0
1042,5030005021389,新規,0,2023-09-26,2023-09-26,一般社団法人ＮｉｇｈｔｉｎｇａｌｅＪａｐａｎ,,その他の設立登記法人,埼玉県,入間郡毛呂山町,大字毛呂本郷２４９番地１,,11,326,3500451,,,,,,,2023-09-26,1,,,,,ナイチンゲールジャパン,0
1054,5040003023329,新規,0,2023-09-26,2023-09-26,雲発貿易合同会社,,合同会社,千葉県,銚子市,上野町２４２－９,,12,202,2880805,,,,,,,2023-09-26,1,,,,,ウンハツボウエキ,0
1058,5050001053517,新規,0,2023-09-26,2023-09-26,株式会社Ｍｕｓａ　Ｔｒａｄｉｎｇ,,株式会社,茨城県,筑西市,藤ケ谷２０９１番地ロマ１０８号,,08,227,3080112,,,,,,,2023-09-26,1,,,,,ムサトレーディング,0
1065,5090001018334,新規,0,2023-09-26,2023-09-26,深沢油店株式会社,,株式会社,山梨県,南巨摩郡富士川町,長澤４５６番地,,19,368,4000505,,,,,,,2023-09-26,1,,,,,フカサワアブラテン,0
1070,5100003007201,新規,0,2023-09-26,2023-09-26,合同会社蓼科おてがる屋,,合同会社,長野県,茅野市,豊平泉２００－２０６,,20,214,3910000,,,,,,,2023-09-26,1,,,,,タテシナオテガルヤ,0
1083,5120001258265,新規,0,2023-09-26,2023-09-26,ダン会計コンサルティング株式会社,,株式会社,大阪府,大阪市淀川区,新高５丁目１５－２５,,27,123,5320033,,,,,,,2023-09-26,1,,,,,ダンカイケイコンサルティング,0
1084,5120001258298,新規,0,2023-09-26,2023-09-26,保田設備株式会社,,株式会社,大阪府,大阪市平野区,喜連西３丁目１７番３号,,27,126,5470026,,,,,,,2023-09-26,1,,,,,ヤスダセツビ,0
1085,5120001258315,新規,0,2023-09-26,2023-09-26,ＭＩＡ株式会社,,株式会社,大阪府,大阪市北区,堂山町１番５号,,27,127,5300027,,,,,,,2023-09-26,1,,,,,ミア,0
1089,5120003024921,新規,0,2023-09-26,2023-09-26,合同会社Ｒｅ．ｎｏｖｅ,,合同会社,大阪府,大阪市淀川区,新北野１丁目１１－２３ハイム北野４１０,,27,123,5320025,,,,,,,2023-09-26,1,,,,,リノベ,0
1090,5120003024938,新規,0,2023-09-26,2023-09-26,合同会社佳月,,合同会社,大阪府,大阪市鶴見区,鶴見２丁目１２番１２号,,27,124,5380053,,,,,,,2023-09-26,1,,,,,カゲツ,0
1091,5120101068259,新規,0,2023-09-26,2023-09-26,株式会社津川,,株式会社,大阪府,堺市北区,南花田町１１１－８,,27,146,5918011,,,,,,,2023-09-26,1,,,,,ツガワ,0
1095,5120903004849,新規,0,2023-09-26,2023-09-26,Ｅｙ‐ＰＯＲＴ合同会社,,合同会社,大阪府,吹田市,山田西２丁目３番２－２１１号,,27,205,5650824,,,,,,,2023-09-26,1,,,,,イーポート,0
1106,5140001131718,新規,0,2023-09-26,2023-09-26,株式会社ｓｔａｙ　Ｇｏｌｄ,,株式会社,兵庫県,豊岡市,竹野町三原１６０番地,,28,209,6696355,,,,,,,2023-09-26,1,,,,,ステイゴールド,0
1107,5140001131742,新規,0,2023-09-26,2023-09-26,株式会社扇交通,,株式会社,兵庫県,神戸市東灘区,深江浜町１３５番地,,28,101,6580023,,,,,,,2023-09-26,1,,,,,オウギコウツウ,0
1120,5180001158088,新規,0,2023-09-26,2023-09-26,株式会社Ｂｉｚ　Ｐｌａｎｅｔ,,株式会社,愛知県,名古屋市中村区,名駅４丁目２４番５号第２森ビル４０１,,23,105,4500002,,,,,,,2023-09-26,1,,,,,ビズプラネット,0
1121,5180001158154,新規,0,2023-09-26,2023-09-26,株式会社ハミヤ,,株式会社,愛知県,名古屋市中区,錦３丁目１９番３０号第三錦ビル２Ｆ,,23,106,4600003,,,,,,,2023-09-26,1,,,,,ハミヤ,0
1123,5180003025765,新規,0,2023-09-26,2023-09-26,合同会社ワーケーションスタイル,,合同会社,愛知県,名古屋市西区,名駅２丁目３４番１７号セントラル名古屋５１１号室,,23,104,4510045,,,,,,,2023-09-26,1,,,,,ワーケーションスタイル,0
1125,5180005020368,新規,0,2023-09-26,2023-09-26,医療法人イージースタジオ,,その他の設立登記法人,愛知県,名古屋市千種区,池下２丁目１番８号Ｓｔａｔｉｏｎ池下１階,,23,101,4640067,,,,,,,2023-09-26,1,,,,,イージースタジオ,0
1127,5180305009516,新規,0,2023-09-26,2023-09-26,医療法人脳敬会,,その他の設立登記法人,愛知県,豊田市,浄水町伊保原１７３番地の１,,23,211,4700343,,,,,,,2023-09-26,1,,,,,ノウケイカイ,0
1132,5200001041753,新規,0,2023-09-26,2023-09-26,Ｒ＆Ａ株式会社,,株式会社,岐阜県,本巣郡北方町,柱本２丁目６番地の３,,21,421,5010446,,,,,,,2023-09-26,1,,,,,アールアンドエイ,0
1133,5200003006093,新規,0,2023-09-26,2023-09-26,合同会社ＤＡＩＬＹ　ＤＥＬＩ,,合同会社,岐阜県,岐阜市,加納栄町通４丁目３０番地,,21,201,5008455,,,,,,,2023-09-26,1,,,,,デイリデリ,0
1134,5210001019476,新規,0,2023-09-26,2023-09-26,ｐａｎｄａｂｏｘ株式会社,,株式会社,福井県,坂井市,丸岡町一本田福所２５号１番地１レオパレス丸岡２０６号室,,18,210,9100251,,,,,,,2023-09-26,1,,,,,パンダボックス,0
1147,5260003004447,新規,0,2023-09-26,2023-09-26,Ｄｅｅ合同会社,,合同会社,岡山県,瀬戸内市,牛窓町牛窓４４４８,,33,212,7014302,,,,,,,2023-09-26,1,,,,,ディー,0
1152,5290003014402,新規,0,2023-09-26,2023-09-26,合同会社ＡＶＥＳ,,合同会社,福岡県,福岡市東区,香住ヶ丘５丁目５－５－２０６,,40,131,8130003,,,,,,,2023-09-26,1,,,,,アウィス,0
1157,5320003004184,新規,0,2023-09-26,2023-09-26,合同会社星庭,,合同会社,大分県,中津市,耶馬溪町大字樋山路１７７０番地６,,44,203,8710434,,,,,,,2023-09-26,1,,,,,ホシニワ,0
1162,5360003013314,新規,0,2023-09-26,2023-09-26,サクシード合同会社,,合同会社,沖縄県,中頭郡西原町,字徳佐田３０－２－３Ｆ,,47,329,9030127,,,,,,,2023-09-26,1,,,,,サクシード,0
1166,5370003006300,新規,0,2023-09-26,2023-09-26,合同会社佳,,合同会社,宮城県,黒川郡大郷町,大松沢字宮畑３０番地の２,,04,422,9813501,,,,,,,2023-09-26,1,,,,,ケイ,0
1168,5380001033997,新規,0,2023-09-26,2023-09-26,株式会社サバファルークトレーディング,,株式会社,福島県,須賀川市,木之崎字芝居原３３番地,,07,207,9620122,,,,,,,2023-09-26,1,,,,,サバファルークトレーディング,0
1175,5420001018416,新規,0,2023-09-26,2023-09-26,ＺＥＲＯ　ＮＯＳ株式会社,,株式会社,青森県,青森市,大字浜田字玉川２４４番地１７,,02,201,0300843,,,,,,,2023-09-26,1,,,,,ゼロノス,0
1176,5430001090034,新規,0,2023-09-26,2023-09-26,株式会社雅興業,,株式会社,北海道,札幌市中央区,南九条西６丁目１番２１号,,01,101,0640809,,,,,,,2023-09-26,1,,,,,ミヤビコウギョウ,0
1186,5480001012223,新規,0,2023-09-26,2023-09-26,ソーゾーリンク株式会社,,株式会社,徳島県,勝浦郡勝浦町,大字坂本字栄田１１－１,,36,301,7714308,,,,,,,2023-09-26,1,,,,,,0
1192,5700150120753,新規,0,2023-09-26,2023-09-26,Ａｍｐａｃｅ　Ｔｅｃｈｎｏｌｏｇｙ　Ｌｉｍｉｔｅｄ,,外国会社等,,,,,,,,Ｎｏ．３５０３，３５／Ｆ，Ｗｈａｒｆ　Ｃａｂｌｅ　Ｔｏｗｅｒ，９　Ｈａｉｓｈｅｎｇ　Ｒｏａｄ，Ｔｓｕｅｎ　Ｗａｎ，Ｎｅｗ　Ｔｅｒｒｉｔｏｒｉｅｓ，Ｈｏｎｇ　Ｋｏｎｇ,,,,,,2023-09-26,1,,,,,アンペーステクノロジーリミテツド,0
1204,6010001238442,新規,0,2023-09-26,2023-09-26,株式会社にぼし香,,株式会社,東京都,中央区,銀座１丁目１２－４Ｎ＆ＥＢＬＤ．７階,,13,102,1040061,,,,,,,2023-09-26,1,,,,,ニボシコウ,0
1205,6010001238715,新規,0,2023-09-26,2023-09-26,株式会社ボルドー・コンサルティング,,株式会社,東京都,千代田区,九段南１丁目５番６号りそな九段ビル５Ｆ,,13,101,1020074,,,,,,,2023-09-26,1,,,,,ボルドーコンサルティング,0
1215,6010403030967,新規,0,2023-09-26,2023-09-26,ＪＡＰＡＮ　ＴＯＵＲＳ合同会社,,合同会社,東京都,港区,浜松町２丁目２番１５号浜松町ダイヤビル２Ｆ,,13,103,1050013,,,,,,,2023-09-26,1,,,,,ジャパンツアーズ,0
1216,6010403030983,新規,0,2023-09-26,2023-09-26,合同会社ネザサ,,合同会社,東京都,港区,愛宕２丁目５番１号愛宕グリーンヒルズＭＯＲＩタワー２４階税理士法人Ｌｉｓ内,,13,103,1050002,,,,,,,2023-09-26,1,,,,,ネザサ,0
1217,6010403031008,新規,0,2023-09-26,2023-09-26,合同会社ｍｏｏｄｅｓｔ,,合同会社,東京都,港区,北青山１丁目３番１号,,13,103,1070061,,,,,,,2023-09-26,1,,,,,ムーデスト,0
1221,6010701044900,新規,0,2023-09-26,2023-09-26,大崎サービス株式会社,,株式会社,東京都,品川区,東五反田２丁目５－２－３０７号,,13,109,1410022,,,,,,,2023-09-26,1,,,,,オオサキサービス,0
1222,6010703006881,新規,0,2023-09-26,2023-09-26,リンクフル合同会社,,合同会社,東京都,品川区,東大井５丁目１０番２号ラ・セーヌ奥村５０３,,13,109,1400011,,,,,,,2023-09-26,1,,,,,リンクフル,0
1223,6010801034355,新規,0,2023-09-26,2023-09-26,Ｙｕｗａｉ株式会社,,株式会社,東京都,大田区,山王２丁目５－１３大森北口ビル５Ｆ,,13,111,1430023,,,,,,,2023-09-26,1,,,,,ユワイ,0
1224,6010901053874,新規,0,2023-09-26,2023-09-26,ＳＷＩＭＭＹ株式会社,,株式会社,東京都,世田谷区,三宿１丁目８番１０－５２３号,,13,112,1540005,,,,,,,2023-09-26,1,,,,,スイミー,0
1239,6011001157137,新規,0,2023-09-26,2023-09-26,株式会社Ｉｖｙ,,株式会社,東京都,渋谷区,猿楽町４番１０号,,13,113,1500033,,,,,,,2023-09-26,1,,,,,アイビー,0
1240,6011001157153,新規,0,2023-09-26,2023-09-26,株式会社エムプラス,,株式会社,東京都,渋谷区,桜丘町１７番１２号渋谷ジョンソンビル４０１,,13,113,1500031,,,,,,,2023-09-26,1,,,,,エムプラス,0
1241,6011001157161,新規,0,2023-09-26,2023-09-26,株式会社エル,,株式会社,東京都,渋谷区,鶯谷町１３番１号,,13,113,1500032,,,,,,,2023-09-26,1,,,,,エル,0
1242,6011003017561,新規,0,2023-09-26,2023-09-26,ＳＶＡ合同会社,,合同会社,東京都,目黒区,八雲５丁目１１番２１号,,13,110,1520023,,,,,,,2023-09-26,1,,,,,エスブイエー,0
1251,6011401025471,新規,0,2023-09-26,2023-09-26,株式会社Ｃａｚｙ,,株式会社,東京都,板橋区,高島平１丁目７８番３－７０１号,,13,119,1750082,,,,,,,2023-09-26,1,,,,,カジー,0
1254,6011601027144,新規,0,2023-09-26,2023-09-26,株式会社豊商事,,株式会社,東京都,練馬区,大泉町４丁目２３－４,,13,120,1780062,,,,,,,2023-09-26,1,,,,,ユタカショウジ,0
1263,6012403006187,新規,0,2023-09-26,2023-09-26,Ｒ＆Ｗ合同会社,,合同会社,東京都,稲城市,平尾２丁目４１‐２９,,13,225,2060823,,,,,,,2023-09-26,1,,,,,アールアンドダブリュー,0
1266,6013301051390,新規,0,2023-09-26,2023-09-26,株式会社リンベル,,株式会社,東京都,豊島区,巣鴨４丁目１１番４号,,13,116,1700002,,,,,,,2023-09-26,1,,,,,リンベル,0
1272,6020001153590,新規,0,2023-09-26,2023-09-26,株式会社ＺＡＰ　ＷＯＲＬＤ,,株式会社,神奈川県,横浜市保土ケ谷区,星川２丁目３番１８号,,14,106,2400006,,,,,,,2023-09-26,1,,,,,ザップワールド,0
1273,6020001153616,新規,0,2023-09-26,2023-09-26,ＳＡＮＩＭＡＲＯ株式会社,,株式会社,神奈川県,横浜市港北区,新吉田東５丁目１番３号,,14,109,2230058,,,,,,,2023-09-26,1,,,,,サニマロ,0
1279,6021001080255,新規,0,2023-09-26,2023-09-26,株式会社福来リフォーム,,株式会社,神奈川県,厚木市,水引２丁目７番３８号コスモビル４０６,,14,212,2430004,,,,,,,2023-09-26,1,,,,,フクライリフォーム,0
1280,6021003013601,新規,0,2023-09-26,2023-09-26,合同会社ＬＩＢＥＲＴＹ　ＧＲＯＷ,,合同会社,神奈川県,厚木市,下荻野１４８１番地１ＩＸＯＩＬＧＡＲＡＧＥ７８－２号室,,14,212,2430203,,,,,,,2023-09-26,1,,,,,リバティーグロウ,0
1286,6030001155900,新規,0,2023-09-26,2023-09-26,株式会社ＴＡＤＡＩＭＡ,,株式会社,埼玉県,さいたま市大宮区,宮町２丁目１００番地,,11,103,3300802,,,,,,,2023-09-26,1,,,,,タダイマ,0
1287,6030001155909,新規,0,2023-09-26,2023-09-26,株式会社ＵＮＩ,,株式会社,埼玉県,草加市,谷塚１丁目５番２０－１００５号,,11,221,3400028,,,,,,,2023-09-26,1,,,,,ウニ,0
1288,6030001156155,新規,0,2023-09-26,2023-09-26,株式会社ＹＲ,,株式会社,埼玉県,さいたま市大宮区,桜木町４丁目７６番地１大野ビル３Ｆ,,11,103,3300854,,,,,,,2023-09-26,1,,,,,ワイアール,0
1294,6030003022594,新規,0,2023-09-26,2023-09-26,合同会社山崎住宅設備,,合同会社,埼玉県,越谷市,花田４丁目１６番地２３,,11,222,3430015,,,,,,,2023-09-26,1,,,,,ヤマザキジュウタクセツビ,0
1299,6040001130175,新規,0,2023-09-26,2023-09-26,株式会社高商,,株式会社,千葉県,君津市,西原６５２番地１,,12,225,2920402,,,,,,,2023-09-26,1,,,,,タカショウ,0
1300,6040001130209,新規,0,2023-09-26,2023-09-26,株式会社Ｏｎｅ　Ｓｔａｒｔ,,株式会社,千葉県,千葉市中央区,富士見２丁目７番９号富士見ビル６０９号,,12,101,2600015,,,,,,,2023-09-26,1,,,,,ワンスタート,0
1305,6040003023369,新規,0,2023-09-26,2023-09-26,Ｍｕｎａｓｉｎｇｈｅ　Ｉｎｔｅｒｎａｔｉｏｎａｌ合同会社,,合同会社,千葉県,山武郡横芝光町,木戸９７８２番地１２,,12,410,2891726,,,,,,,2023-09-26,1,,,,,ムナシンハインターナショナル,0
1306,6040003023377,新規,0,2023-09-26,2023-09-26,ルートＡＴ合同会社,,合同会社,千葉県,印西市,内野１丁目１３番地４,,12,231,2701347,,,,,,,2023-09-26,1,,,,,ルートエーティー,0
1307,6040003023393,新規,0,2023-09-26,2023-09-26,合同会社ＫＡＯＲＩ　ＩＮＴＥＲＮＡＴＩＯＮＡＬ,,合同会社,千葉県,八街市,八街ろ９５－１９０,,12,230,2891144,,,,,,,2023-09-26,1,,,,,カオリインターナショナル,0
1317,6100001036804,新規,0,2023-09-26,2023-09-26,日本ＨＡＩ株式会社,,株式会社,長野県,北佐久郡軽井沢町,大字発地字湯川原１０９７－１２,,20,321,3890113,,,,,,,2023-09-26,1,,,,,ニホンハイ,0
1332,6120001258207,新規,0,2023-09-26,2023-09-26,株式会社ＬｉＬｙ,,株式会社,大阪府,大阪市浪速区,日本橋４丁目１６番１５号２Ｆ,,27,111,5560005,,,,,,,2023-09-26,1,,,,,リリー,0
1333,6120001258289,新規,0,2023-09-26,2023-09-26,至福株式会社,,株式会社,大阪府,大阪市浪速区,敷津西２丁目１０番１５号至福ビル２０２号室,,27,111,5560015,,,,,,,2023-09-26,1,,,,,シフク,0
1334,6120001258306,新規,0,2023-09-26,2023-09-26,株式会社ＡＧＦ,,株式会社,大阪府,大阪市福島区,福島７丁目１番１０号ＧＲＡＮＤＳＬＡＭ２３７,,27,103,5530003,,,,,,,2023-09-26,1,,,,,エージーエフ,0
1335,6120001258330,新規,0,2023-09-26,2023-09-26,対斉株式会社,,株式会社,大阪府,大阪市天王寺区,悲田院町四丁目３９番天王寺パサージュ２０４号,,27,109,5430055,,,,,,,2023-09-26,1,,,,,タイセイ,0
1336,6120001258396,新規,0,2023-09-26,2023-09-26,株式会社ＢＥＡＵＴＹ　ＣＵＲＬ,,株式会社,大阪府,大阪市北区,芝田１丁目１０番１０号,,27,127,5300012,,,,,,,2023-09-26,1,,,,,ビューティカール,0
1341,6120003024920,新規,0,2023-09-26,2023-09-26,アイルクス合同会社,,合同会社,大阪府,大阪市西成区,岸里１丁目４番２号岡崎マンション３４０１,,27,122,5570041,,,,,,,2023-09-26,1,,,,,アイルクス,0
1342,6120003024945,新規,0,2023-09-26,2023-09-26,合同会社ＵＮｋｅｒ,,合同会社,大阪府,大阪市中央区,谷町７丁目３番４号新谷町第３ビル６１４,,27,128,5420012,,,,,,,2023-09-26,1,,,,,アンカー,0
1343,6120003024961,新規,0,2023-09-26,2023-09-26,ａｒｃｏ　ｉｒｉｓ合同会社,,合同会社,大阪府,大阪市旭区,高殿４丁目２０番１２号,,27,117,5350031,,,,,,,2023-09-26,1,,,,,アルコイーリス,0
1346,6120005023895,新規,0,2023-09-26,2023-09-26,一般社団法人日本現代芸術推進協会,,その他の設立登記法人,大阪府,大阪市天王寺区,上汐５丁目１番２０号フラットインウエシオ７０１号,,27,109,5430002,,,,,,,2023-09-26,1,,,,,ニホンゲンダイゲイジュツスイシンキョウカイ,0
1351,6122001037400,新規,0,2023-09-26,2023-09-26,株式会社手と手,,株式会社,大阪府,東大阪市,鴻池元町８番６号,,27,227,5780974,,,,,,,2023-09-26,1,,,,,テトテ,0
1354,6130001075246,新規,0,2023-09-26,2023-09-26,株式会社マルヤス,,株式会社,京都府,舞鶴市,倉梯町１５番地２３,,26,202,6250056,,,,,,,2023-09-26,1,,,,,マルヤス,0
1355,6130001075254,新規,0,2023-09-26,2023-09-26,株式会社京都０１エクスポート,,株式会社,京都府,京都市北区,小松原北町１９－２７,,26,101,6038341,,,,,,,2023-09-26,1,,,,,キョウトゼロワンエクスポート,0
1356,6130001075270,新規,0,2023-09-26,2023-09-26,株式会社ＣＯＮＮＯＩＳＳＥＵＲＳ　ＦＩＶＥ,,株式会社,京都府,京都市下京区,中堂寺北町３０番地２５,,26,106,6008812,,,,,,,2023-09-26,1,,,,,コノサーズファイブ,0
1358,6130003009004,新規,0,2023-09-26,2023-09-26,合同会社パラノイド,,合同会社,京都府,京都市中京区,御池之町３２３ミサワビル８階,,26,104,6040000,,,,,,,2023-09-26,1,,,,,パラノイド,0
1359,6130003009012,新規,0,2023-09-26,2023-09-26,インフィルデザイン合同会社,,合同会社,京都府,京都市上京区,甲斐守町９７,,26,102,6028061,,,,,,,2023-09-26,1,,,,,インフィルデザイン,0
1362,6140001131741,新規,0,2023-09-26,2023-09-26,株式会社マタエル,,株式会社,兵庫県,芦屋市,山芦屋町８－８,00132041,28,206,6590082,,,,,,,2023-09-26,1,,,,,マタエル,0
1368,6150001026734,新規,0,2023-09-26,2023-09-26,株式会社わかくさ,,株式会社,奈良県,奈良市,登大路町５番地修徳ビル３階,,29,201,6308213,,,,,,,2023-09-26,1,,,,,ワカクサ,0
1376,6180001158145,新規,0,2023-09-26,2023-09-26,株式会社ケ・セラ・セラ,,株式会社,愛知県,常滑市,飛香台５丁目１１番地の１４,,23,216,4790868,,,,,,,2023-09-26,1,,,,,ケセラセラ,0
1377,6180005020367,新規,0,2023-09-26,2023-09-26,医療法人ＭＷ,,その他の設立登記法人,愛知県,名古屋市中区,新栄町１丁目３番地日丸名古屋ビル３階,,23,106,4600004,,,,,,,2023-09-26,1,,,,,エムダブリュー,0
1384,6210001019475,新規,0,2023-09-26,2023-09-26,株式会社ＤＯＮ,,株式会社,福井県,福井市,春山２丁目３番４号サカエビル１０２,,18,201,9100019,,,,,,,2023-09-26,1,,,,,ドン,0
1394,6250001020289,新規,0,2023-09-26,2023-09-26,サルビアヘルスケア株式会社,,株式会社,山口県,周南市,周陽２丁目４－１,,35,215,7450823,,,,,,,2023-09-26,1,,,,,サルビアヘルスケア,0
1400,6260003004446,新規,0,2023-09-26,2023-09-26,合同会社ＥＬＬＡ　ａｘｉａ,,合同会社,岡山県,岡山市北区,田中６１７番地２０,,33,101,7000951,,,,,,,2023-09-26,1,,,,,エラアクシア,0
1405,6290001103123,新規,0,2023-09-26,2023-09-26,ＹＮ九州株式会社,,株式会社,福岡県,福岡市中央区,天神１丁目９番１７号,,40,133,8100001,,,,,,,2023-09-26,1,,,,,ワイエヌキュウシュウ,0
1416,6320001020018,新規,0,2023-09-26,2023-09-26,Ｌｉｎｋ株式会社,,株式会社,大分県,大分市,大字野田４１８番地の５,,44,201,8700868,,,,,,,2023-09-26,1,,,,,リンク,0
1419,6330001031286,新規,0,2023-09-26,2023-09-26,株式会社サングリエフルール,,株式会社,熊本県,熊本市中央区,黒髪５丁目４番４０－１号,,43,101,8600862,,,,,,,2023-09-26,1,,,,,サングリエフルール,0
1433,6380001034004,新規,0,2023-09-26,2023-09-26,株式会社エールアップ,,株式会社,福島県,郡山市,中町１１番３号イーヲカ中町ビル３Ｆ,,07,203,9638004,,,,,,,2023-09-26,1,,,,,エールアップ,0
1436,6390001017379,新規,0,2023-09-26,2023-09-26,株式会社佐藤鉄工所,,株式会社,山形県,酒田市,亀ケ崎３丁目１番３８号,,06,204,9980842,,,,,,,2023-09-26,1,,,,,サトウテッコウジョ,0
1441,6430001090025,新規,0,2023-09-26,2023-09-26,株式会社胆振アドバンス,,株式会社,北海道,伊達市,鹿島町２９番地４コーポ白樺２０７,,01,233,0520024,,,,,,,2023-09-26,1,,,,,イブリアドバンス,0
1442,6430001090041,新規,0,2023-09-26,2023-09-26,ＫＲサービス株式会社,,株式会社,北海道,札幌市中央区,南二条西９丁目９９９番地２７,,01,101,0600062,,,,,,,2023-09-26,1,,,,,ケーアールサービス,0
1444,6430005014789,新規,0,2023-09-26,2023-09-26,医療法人札幌共立医院,,その他の設立登記法人,北海道,札幌市東区,北四十八条東１丁目１番５号,,01,103,0070848,,,,,,,2023-09-26,1,,,,,サッポロキョウリツイイン,0
1449,6480003002023,新規,0,2023-09-26,2023-09-26,合同会社善,,合同会社,徳島県,徳島市,佐古二番町１７番８号北星ビル１階,,36,201,7700022,,,,,,,2023-09-26,1,,,,,ゼン,0
1451,6700150120752,新規,0,2023-09-26,2023-09-26,ＹＵＥＱＩＮＧ　ＡＯＬＡＮ　ＩＮＴＥＲＮＡＴＩＯＮＡＬ　ＴＲＡＤＥ　ＣＯ．，ＬＴＤ,,外国会社等,,,,,,,,Ｎｏ．Ｂ３－２６，４ｔｈ　Ｆｌｏｏｒ，Ｂｕｉｌｄｉｎｇ　Ｂ，Ｈｏｎｇｘｉｎｇ　Ｅ－ｃｏｍｍｅｒｃｅ　Ｐａｒｋ，Ｎｏ．１８８８　Ｆｅｉｈｏｎｇ　Ｓｏｕｔｈ　Ｒｏａｄ，Ｈｏｎｇｑｉａｏ　Ｔｏｗｎ，Ｙｕｅｑｉｎｇ，Ｗｅｎｚｈｏｕ，Ｚｈｅｊｉａｎｇ　Ｐｒｏｖｉｎｃｅ,,,,,,2023-09-26,1,,,,,ラーチンシーアオラングオジーマオイーヨウシエンゴンスー,0
1457,7010001238565,新規,0,2023-09-26,2023-09-26,株式会社ｎｏａ,,株式会社,東京都,中央区,銀座１丁目１２－４Ｎ＆ＥＢＬＤ．７階,,13,102,1040061,,,,,,,2023-09-26,1,,,,,ノア,0
1458,7010001238664,新規,0,2023-09-26,2023-09-26,Ｎｅｕｔｒａｌｉｚａｔｉｏｎ　Ｇｒｏｕｐ株式会社,,株式会社,東京都,千代田区,飯田橋３丁目３－１０,,13,101,1020072,,,,,,,2023-09-26,1,,,,,ニュートラリゼーショングループ,0
1468,7010401177339,新規,0,2023-09-26,2023-09-26,Ｃｕｔｔｌｅｆｉｓｈ　Ｄｉｇｉｔａｌ　Ｊａｐａｎ　Ｌｉｍｉｔｅｄ株式会社,,株式会社,東京都,港区,元麻布３丁目１番６号,,13,103,1060046,,,,,,,2023-09-26,1,,,,,カトルフィッシュデジタルジャパンリミテッド,0
1469,7010401177413,新規,0,2023-09-26,2023-09-26,株式会社ＦｉＮＡＸ,,株式会社,東京都,港区,南青山３丁目３番３号,,13,103,1070062,,,,,,,2023-09-26,1,,,,,フィナックス,0
1472,7010405022482,新規,0,2023-09-26,2023-09-26,一般社団法人ティーアール・トゥウェルブ,,その他の設立登記法人,東京都,港区,赤坂２丁目１０番５号税理士法人赤坂国際会計事務所内,,13,103,1070052,,,,,,,2023-09-26,1,,,,,ティーアールトゥウェルブ,0
1473,7010501051088,新規,0,2023-09-26,2023-09-26,朝日スポーツ文化株式会社,,株式会社,東京都,台東区,千束３丁目２１番１２号キートスビル５０３,,13,106,1110031,,,,,,,2023-09-26,1,,,,,アサヒスポーツブンカ,0
1474,7010501051105,新規,0,2023-09-26,2023-09-26,株式会社サステナキャピタル,,株式会社,東京都,台東区,柳橋１丁目２３番３号,,13,106,1110052,,,,,,,2023-09-26,1,,,,,サステナキャピタル,0
1477,7010601063842,新規,0,2023-09-26,2023-09-26,晴海株式会社,,株式会社,東京都,墨田区,文花１丁目３４番１１－１０５号室,,13,107,1310044,,,,,,,2023-09-26,1,,,,,ハルミ,0
1482,7010901053873,新規,0,2023-09-26,2023-09-26,株式会社リノス,,株式会社,東京都,世田谷区,赤堤１丁目４０番１６－１０１号,,13,112,1560044,,,,,,,2023-09-26,1,,,,,リノス,0
1489,7011001157061,新規,0,2023-09-26,2023-09-26,Ｆｌｙｉｎｇ　Ｔ　Ｅｎｔｅｒｔａｉｎｍｅｎｔ株式会社,,株式会社,東京都,渋谷区,道玄坂２丁目８番８号コスモ渋谷館５０６,,13,113,1500043,,,,,,,2023-09-26,1,,,,,フライングティーエンターテイメント,0
1490,7011001157160,新規,0,2023-09-26,2023-09-26,Ｃｒｅｓｔ．ＢＡＳＥ株式会社,,株式会社,東京都,目黒区,目黒１丁目４番１６号目黒Ｇビル７階,,13,110,1530063,,,,,,,2023-09-26,1,,,,,クレストベイス,0
1491,7011003017610,新規,0,2023-09-26,2023-09-26,ＮＥＷＳＥＡ合同会社,,合同会社,東京都,渋谷区,道玄坂１丁目１０番８号渋谷道玄坂東急ビル２Ｆ－Ｃ,,13,113,1500043,,,,,,,2023-09-26,1,,,,,ニューシー,0
1494,7011105010793,新規,0,2023-09-26,2023-09-26,医療法人社団ｅａｉ,,その他の設立登記法人,東京都,新宿区,市谷柳町１５番地１プラウド市谷柳町１－Ａ号室,,13,104,1620061,,,,,,,2023-09-26,1,,,,,イーエーアイ,0
1501,7011601027119,新規,0,2023-09-26,2023-09-26,株式会社Ｍ＆Ｍ,,株式会社,東京都,練馬区,桜台３丁目４１番２０号,,13,120,1760002,,,,,,,2023-09-26,1,,,,,エムアンドエム,0
1504,7011801043080,新規,0,2023-09-26,2023-09-26,株式会社ＬＵ,,株式会社,東京都,足立区,千住仲町１９番７号森本ビル４階,,13,121,1200036,,,,,,,2023-09-26,1,,,,,エルユ,0
1509,7012403006194,新規,0,2023-09-26,2023-09-26,合同会社ＮＩＨＯＮＳＴＡＮＤＡＲＤ,,合同会社,東京都,三鷹市,牟礼４丁目１８－１９,,13,204,1810002,,,,,,,2023-09-26,1,,,,,ニホンスタンダード,0
1517,7020001153598,新規,0,2023-09-26,2023-09-26,株式会社ｓ．ｐ．ｉ,,株式会社,神奈川県,横浜市戸塚区,平戸２丁目３３番１４－１０１号,,14,110,2440802,,,,,,,2023-09-26,1,,,,,エスピーアイ,0
1518,7020001153623,新規,0,2023-09-26,2023-09-26,株式会社訪問看護・リハビリステーションほまれ,,株式会社,神奈川県,横浜市港南区,芹が谷２丁目２３番４－４２号,,14,111,2330006,,,,,,,2023-09-26,1,,,,,ホウモンカンゴリハビリステーションホマレ,0
1519,7020003024624,新規,0,2023-09-26,2023-09-26,合同会社Ｖｉｓｔａｒｔ,,合同会社,神奈川県,横浜市鶴見区,豊岡町２７－１０慶友ビル５０１,,14,101,2300062,,,,,,,2023-09-26,1,,,,,ヴィスタート,0
1520,7020003024649,新規,0,2023-09-26,2023-09-26,Ｄｅｕｘ　ｅｔ　Ｂｒｉｏ合同会社,,合同会社,神奈川県,横浜市中区,西之谷町５２番地１０,,14,104,2310844,,,,,,,2023-09-26,1,,,,,デューエブリオ,0
1525,7021001080279,新規,0,2023-09-26,2023-09-26,株式会社ＭＵＲＡＫＡＭＩ,,株式会社,神奈川県,秦野市,堀山下９９０番地,,14,211,2591304,,,,,,,2023-09-26,1,,,,,ムラカミ,0
1526,7021003013609,新規,0,2023-09-26,2023-09-26,合同会社ＭｃＷｏｒｋｓ,,合同会社,神奈川県,厚木市,温水２２２８番地３,,14,212,2430033,,,,,,,2023-09-26,1,,,,,エムシーワークス,0
1530,7030001155874,新規,0,2023-09-26,2023-09-26,株式会社クラフトラスト,,株式会社,埼玉県,三郷市,栄１丁目１１７番地２リバーハイツＴＡＫＡＨＡＳＨＩＢ棟１０１,,11,237,3410043,,,,,,,2023-09-26,1,,,,,クラフトラスト,0
1531,7030001155899,新規,0,2023-09-26,2023-09-26,株式会社エムワイグローバル,,株式会社,埼玉県,北足立郡伊奈町,本町１丁目１０３,,11,301,3620804,,,,,,,2023-09-26,1,,,,,エムワイグローバル,0
1532,7030001155908,新規,0,2023-09-26,2023-09-26,株式会社Ｕｐｌｉｆｔｉｎｇ,,株式会社,埼玉県,川越市,大字的場２２５７番地４,,11,201,3501101,,,,,,,2023-09-26,1,,,,,アップリフティング,0
1533,7030001156014,新規,0,2023-09-26,2023-09-26,株式会社４Ｄ,,株式会社,埼玉県,川口市,西川口１丁目１１番１６号,,11,203,3320021,,,,,,,2023-09-26,1,,,,,フォディー,0
1534,7030001156162,新規,0,2023-09-26,2023-09-26,株式会社ｅｔｅ‐Ｒｉｏ,,株式会社,埼玉県,さいたま市大宮区,桜木町２丁目３番地大宮マルイ７階,,11,103,3300854,,,,,,,2023-09-26,1,,,,,エテリオ,0
1535,7030001156187,新規,0,2023-09-26,2023-09-26,株式会社Ｄ．ＷＡＬＫ,,株式会社,埼玉県,上尾市,原市北１丁目２３番地９リーブルファイン原市北１０３号,,11,219,3620026,,,,,,,2023-09-26,1,,,,,ディーウォーク,0
1536,7030001156286,新規,0,2023-09-26,2023-09-26,株式会社翔榮技建,,株式会社,埼玉県,川口市,大字木曽呂６９０番地の１０,,11,203,3330831,,,,,,,2023-09-26,1,,,,,ショウエイギケン,0
1539,7030003022461,新規,0,2023-09-26,2023-09-26,スエヒロ合同会社,,合同会社,埼玉県,さいたま市北区,植竹町１丁目５１番地,,11,102,3310813,,,,,,,2023-09-26,1,,,,,スエヒロ,0
1540,7030003022486,新規,0,2023-09-26,2023-09-26,合同会社結心,,合同会社,埼玉県,所沢市,北中３丁目１９－３１－１０１,,11,208,3591101,,,,,,,2023-09-26,1,,,,,ユウシン,0
1541,7030003022511,新規,0,2023-09-26,2023-09-26,合同会社ＶＩＴＡ,,合同会社,埼玉県,ふじみ野市,駒西１丁目９番１８号,,11,245,3560029,,,,,,,2023-09-26,1,,,,,ヴィータ,0
1544,7040001130224,新規,0,2023-09-26,2023-09-26,Ｓ＆Ｒ株式会社,,株式会社,千葉県,浦安市,日の出６丁目２Ａ４０２アールフォーラム新浦安,,12,227,2790013,,,,,,,2023-09-26,1,,,,,エスアンドアール,0
1545,7040001130240,新規,0,2023-09-26,2023-09-26,羽翼之光株式会社,,株式会社,千葉県,船橋市,印内２丁目３番１５号ＴＯＰ西船橋第一２０３号室,,12,204,2730039,,,,,,,2023-09-26,1,,,,,ウヨクノヒカリ,0
1546,7040001130249,新規,0,2023-09-26,2023-09-26,ＮｅｗＳｐｏｔ株式会社,,株式会社,千葉県,流山市,思井２９５,,12,220,2700154,,,,,,,2023-09-26,1,,,,,ニュースポット,0
1551,7040003023376,新規,0,2023-09-26,2023-09-26,合同会社ネクストチャレンジ,,合同会社,千葉県,市川市,南行徳１丁目１６番２４号,,12,203,2720138,,,,,,,2023-09-26,1,,,,,ネクストチャレンジ,0
1552,7040003023392,新規,0,2023-09-26,2023-09-26,さくらＡ．Ｍ．合同会社,,合同会社,千葉県,佐倉市,上志津原２１番地１,,12,212,2850844,,,,,,,2023-09-26,1,,,,,サクラアッセットマネジメント,0
1553,7040003023401,新規,0,2023-09-26,2023-09-26,合同会社トラストサービス,,合同会社,千葉県,船橋市,坪井東５丁目１４番９号タロコートＡ－１号,,12,204,2740060,,,,,,,2023-09-26,1,,,,,トラストサービス,0
1554,7040003023418,新規,0,2023-09-26,2023-09-26,合同会社Ａｎｄｏ　Ｗｅｂ　Ｓｏｌｕｔｉｏｎｓ,,合同会社,千葉県,千葉市緑区,あすみが丘４丁目１７番地１パーク・レジーナＡ１０２号,,12,105,2670066,,,,,,,2023-09-26,1,,,,,アンドウウェブソリューションズ,0
1572,7110005016998,新規,0,2023-09-26,2023-09-26,一般社団法人アーツカルチベート,,その他の設立登記法人,新潟県,加茂市,五番町１１番２０号,,15,209,9591353,,,,,,,2023-09-26,1,,,,,アーツカルチベート,0
1576,7120001258180,新規,0,2023-09-26,2023-09-26,株式会社ＴＵＭＵＧＩ,,株式会社,大阪府,大阪市此花区,伝法６丁目３番１－５３８号,,27,104,5540002,,,,,,,2023-09-26,1,,,,,ツムギ,0
1577,7120001258206,新規,0,2023-09-26,2023-09-26,株式会社ＫＩＰ,,株式会社,大阪府,大阪市生野区,巽西４丁目３番８号,00132028,27,116,5440012,,,,,,,2023-09-26,1,,,,,ケーアイピー,0
1578,7120001258247,新規,0,2023-09-26,2023-09-26,株式会社ＩＫＥＲＵ,,株式会社,大阪府,大阪市平野区,加美東２丁目４－２８,,27,126,5470002,,,,,,,2023-09-26,1,,,,,イケル,0
1579,7120001258288,新規,0,2023-09-26,2023-09-26,株式会社ハシモト,,株式会社,大阪府,大阪市阿倍野区,阿倍野筋４丁目１２番６号,,27,119,5450052,,,,,,,2023-09-26,1,,,,,ハシモト,0
1584,7120003024928,新規,0,2023-09-26,2023-09-26,英楽合同会社,,合同会社,大阪府,大阪市東成区,大今里南１丁目１８番７号大宝今里ロイヤルハイツ２０５号室,,27,115,5370013,,,,,,,2023-09-26,1,,,,,エイラク,0
1585,7120003024944,新規,0,2023-09-26,2023-09-26,Ｐ．Ｗ．Ｃ合同会社,,合同会社,大阪府,大阪市住吉区,我孫子東３丁目２番３０－４０２号,,27,120,5580013,,,,,,,2023-09-26,1,,,,,ピーダブリューシー,0
1586,7120003024952,新規,0,2023-09-26,2023-09-26,合同会社デクステラ,,合同会社,大阪府,大阪市北区,中津４丁目１０番２８－９０７号,,27,127,5310071,,,,,,,2023-09-26,1,,,,,デクステラ,0
1588,7120005023894,新規,0,2023-09-26,2023-09-26,弁護士法人共栄法律事務所,,その他の設立登記法人,大阪府,大阪市中央区,南船場４丁目３番２号ヒューリック心斎橋ビル５階,,27,128,5420081,,,,,,,2023-09-26,1,,,,,キョウエイホウリツジムショ,0
1599,7130001075336,新規,0,2023-09-26,2023-09-26,株式会社リョウシン,,株式会社,京都府,京都市西京区,大枝西新林町３丁目１番地の３６,,26,111,6101141,,,,,,,2023-09-26,1,,,,,リョウシン,0
1605,7140001131740,新規,0,2023-09-26,2023-09-26,株式会社大倉工業,,株式会社,兵庫県,尼崎市,大庄北４丁目３番１－６１１号,,28,202,6600063,,,,,,,2023-09-26,1,,,,,オオクラコウギョウ,0
1608,7150001026733,新規,0,2023-09-26,2023-09-26,ニタス株式会社,,株式会社,奈良県,北葛城郡河合町,大字川合１０３９番地１,,29,427,6360051,,,,,,,2023-09-26,1,,,,,ニタス,0
1609,7160003002995,新規,0,2023-09-26,2023-09-26,ＫＳ合同会社,,合同会社,滋賀県,栗東市,目川１０２３番地,,25,208,5203013,,,,,,,2023-09-26,1,,,,,ケイエス,0
1618,7180003025771,新規,0,2023-09-26,2023-09-26,犬山ミヤコホテル合同会社,,合同会社,愛知県,犬山市,東余坂３５番地,,23,215,4840000,,,,,,,2023-09-26,1,,,,,イヌヤマミヤコホテル,0
1634,7240001062166,新規,0,2023-09-26,2023-09-26,株式会社オーティーエス,,株式会社,広島県,福山市,千代田町１丁目８番３５－３０８号,,34,207,7200823,,,,,,,2023-09-26,1,,,,,オーティーエス,0
1635,7240003006328,新規,0,2023-09-26,2023-09-26,合同会社天晴,,合同会社,広島県,広島市西区,井口５丁目１０番２７－１０３号,,34,104,7330842,,,,,,,2023-09-26,1,,,,,アッパレ,0
1637,7260001038338,新規,0,2023-09-26,2023-09-26,ＯｋａｍｏＬｉｆｅ株式会社,,株式会社,岡山県,倉敷市,宮前５２２－５,,33,202,7100065,,,,,,,2023-09-26,1,,,,,オカモライフ,0
1645,7290003014400,新規,0,2023-09-26,2023-09-26,ＳＴＵＤＩＯ　ＦＣＯＸ合同会社,,合同会社,福岡県,筑紫野市,大字永岡１１００－１フォーレスト桜台６０３,,40,217,8180066,,,,,,,2023-09-26,1,,,,,スタジオエフコックス,0
1647,7300001013476,新規,0,2023-09-26,2023-09-26,株式会社ｏ．ｄ．ａ,,株式会社,佐賀県,唐津市,二タ子２丁目７－１６,,41,202,8470861,,,,,,,2023-09-26,1,,,,,オーディーエー,0
1661,7360003013312,新規,0,2023-09-26,2023-09-26,合同会社Ｇコーポレーション,,合同会社,沖縄県,中頭郡中城村,字南上原７８３番地,,47,328,9012424,,,,,,,2023-09-26,1,,,,,ジーコーポレーション,0
1662,7370001050447,新規,0,2023-09-26,2023-09-26,株式会社ＡＢＥＮＴ,,株式会社,宮城県,仙台市青葉区,国分町１丁目４番９号ｅｎｓｐａｃｅ,,04,101,9800803,,,,,,,2023-09-26,1,,,,,アベント,0
1669,7380001034011,新規,0,2023-09-26,2023-09-26,株式会社ＲｅＢｅｔ．,,株式会社,福島県,郡山市,駅前２丁目３－７エリートビル３０、２Ｆ,,07,203,9638002,,,,,,,2023-09-26,1,,,,,リベット,0
1672,7420001018414,新規,0,2023-09-26,2023-09-26,株式会社Ｍ．Ｊ．Ｋ,,株式会社,青森県,南津軽郡藤崎町,大字中島字岩崎３２番地１,,02,361,0383811,,,,,,,2023-09-26,1,,,,,エムジェイケイ,0
1676,7430005014788,新規,0,2023-09-26,2023-09-26,一般社団法人ｓｍｉｌｅｓ,,その他の設立登記法人,北海道,千歳市,幸町３丁目１５番地エレガンスビル３階,,01,224,0660063,,,,,,,2023-09-26,1,,,,,スマイルズ,0
1680,7490001010595,新規,0,2023-09-26,2023-09-26,エイト株式会社,,株式会社,高知県,高知市,鴨部２丁目３番２２号,,39,201,7808052,,,,,,,2023-09-26,1,,,,,エイト,0
1683,7700150120743,新規,0,2023-09-26,2023-09-26,ＨＯＴ　ＰＥＰＰＥＲ　ＭＯＢＩＬＥ　ＩＮＣ,,外国会社等,,,,,,,,３５０　１０ＴＨ　ＡＶＥ　ＳＵＩＴＥ　１０００　ＳＡＮ　ＤＩＥＧＯ　ＣＡ　９２１０１,,,,,,2023-09-26,1,,,,,ホットペッパーモバイルインコーポレイテッド,0
1696,8010003041727,新規,0,2023-09-26,2023-09-26,合同会社Ｖｏｙａｇｅｒ,,合同会社,東京都,千代田区,麹町１丁目６番１６号半蔵門海和ビル９階（Ｃ／ＯＪｏｏ－ｒｅａｌｅｓｔａｔｅ－ｏｆｆｉｃｅ）,,13,101,1020083,,,,,,,2023-09-26,1,,,,,ボイジャー,0
1697,8010003041735,新規,0,2023-09-26,2023-09-26,大可メディア合同会社,,合同会社,東京都,中央区,銀座７丁目１３番６号サガミビル２階,,13,102,1040061,,,,,,,2023-09-26,1,,,,,ダイカメディア,0
1699,8010101015830,新規,0,2023-09-26,2023-09-26,株式会社ティーホームコーポレーション,,株式会社,東京都,八王子市,暁町２丁目２８－２１、２Ｂ,,13,201,1920043,,,,,,,2023-09-26,1,,,,,,0
1712,8010401177288,新規,0,2023-09-26,2023-09-26,株式会社ＳｐｏｎｓｏｒＦｏｒｃｅ,,株式会社,東京都,港区,麻布台１丁目５番９号５５－１麻布台ビル,,13,103,1060041,,,,,,,2023-09-26,1,,,,,スポンサーフォース,0
1713,8010401177404,新規,0,2023-09-26,2023-09-26,株式会社サンノミヤ,,株式会社,東京都,港区,麻布十番３丁目２番１２－３０５号,,13,103,1060045,,,,,,,2023-09-26,1,,,,,サンノミヤ,0
1720,8010501051087,新規,0,2023-09-26,2023-09-26,Ｈａｎｓｈｏｗ　Ｊａｐａｎ株式会社,,株式会社,東京都,台東区,台東１丁目２４番９号ブライト秋葉原Ｂ１Ｆ,,13,106,1100016,,,,,,,2023-09-26,1,,,,,ハンショウジャパン,0
1732,8011001157060,新規,0,2023-09-26,2023-09-26,株式会社スオ,,株式会社,東京都,渋谷区,円山町２５番１号コーポ円山２０１,,13,113,1500044,,,,,,,2023-09-26,1,,,,,スオ,0
1733,8011001157077,新規,0,2023-09-26,2023-09-26,株式会社ＭＴカンパニー,,株式会社,東京都,渋谷区,渋谷３丁目１番９号矢沢ビル３階,,13,113,1500002,,,,,,,2023-09-26,1,,,,,エムティーカンパニー,0
1734,8011001157093,新規,0,2023-09-26,2023-09-26,株式会社ｏｄｖｉ,,株式会社,東京都,目黒区,五本木１丁目２－５－２０１五本木フラット,,13,110,1530053,,,,,,,2023-09-26,1,,,,,オードヴィー,0
1735,8011001157135,新規,0,2023-09-26,2023-09-26,ＺＥＲＯＣＯ　ＴＥＣＨ株式会社,,株式会社,東京都,渋谷区,神宮前５丁目２７番８号,,13,113,1500001,,,,,,,2023-09-26,1,,,,,ゼロコテック,0
1739,8011003017584,新規,0,2023-09-26,2023-09-26,合同会社Ｌ２Ｆ,,合同会社,東京都,渋谷区,道玄坂１丁目１０番８号渋谷道玄坂東急ビル２Ｆ－Ｃ,,13,113,1500043,,,,,,,2023-09-26,1,,,,,エルトゥーエフ,0
1740,8011005010224,新規,0,2023-09-26,2023-09-26,一般社団法人日本ストレートネック協会,,その他の設立登記法人,東京都,渋谷区,渋谷２丁目２番３号ルカビルＩＩ２Ｆ,00132035,13,113,1500002,,,,,,,2023-09-26,1,,,,,ニッポンストレートネックキョウカイ,0
1743,8011101104474,新規,0,2023-09-26,2023-09-26,株式会社ＭＵＳＡＩ,,株式会社,東京都,新宿区,西新宿３丁目９番７号フロンティア新宿タワー,,13,104,1600023,,,,,,,2023-09-26,1,,,,,ムサイ,0
1744,8011101104482,新規,0,2023-09-26,2023-09-26,株式会社ＢＥＮＳＵＮ,,株式会社,東京都,新宿区,箪笥町２９番地１アルテシモリブラ６０１,,13,104,1620833,,,,,,,2023-09-26,1,,,,,ベンサン,0
1745,8011101104499,新規,0,2023-09-26,2023-09-26,株式会社ファイブストライプス,,株式会社,東京都,新宿区,西新宿１丁目２番７号,,13,104,1600023,,,,,,,2023-09-26,1,,,,,ファイブストライプス,0
1747,8011103013517,新規,0,2023-09-26,2023-09-26,明泉パートナーズ合同会社,,合同会社,東京都,新宿区,西新宿３丁目３番１３号西新宿水間ビル６階,,13,104,1600023,,,,,,,2023-09-26,1,,,,,メイセンパートナーズ,0
1748,8011105010792,新規,0,2023-09-26,2023-09-26,一般社団法人Ｐｏｋｅｒ　Ｎｉｐｐｏｎ　Ｓｅｒｉｅｓ,,その他の設立登記法人,東京都,新宿区,歌舞伎町１丁目２２番９号,,13,104,1600021,,,,,,,2023-09-26,1,,,,,ポーカーニッポンシリーズ,0
1749,8011201024936,新規,0,2023-09-26,2023-09-26,大畑株式会社,,株式会社,東京都,中野区,野方１丁目１０番１４－３０４号,,13,114,1650027,,,,,,,2023-09-26,1,,,,,オオハタ,0
1754,8011503005766,新規,0,2023-09-26,2023-09-26,日本優の食品合同会社,,合同会社,東京都,北区,浮間１丁目７－２３兆豊浮間ビル５０３号室,,13,117,1150051,,,,,,,2023-09-26,1,,,,,ニホンユウノショクヒン,0
1764,8012401041028,新規,0,2023-09-26,2023-09-26,ゆめみちプロジェクト株式会社,,株式会社,東京都,小金井市,梶野町１丁目２－３６,,13,210,1840002,,,,,,,2023-09-26,1,,,,,ユメミチプロジェクト,0
1765,8013301051389,新規,0,2023-09-26,2023-09-26,東朗株式会社,,株式会社,東京都,豊島区,池袋１丁目８－７,,13,116,1700014,,,,,,,2023-09-26,1,,,,,トウロウ,0
1774,8020001153622,新規,0,2023-09-26,2023-09-26,狭隅コーポレーション株式会社,,株式会社,神奈川県,川崎市川崎区,東田町１１番地１エンゼル川崎グランディア９０５,,14,131,2100005,,,,,,,2023-09-26,1,,,,,サクマコーポレーション,0
1775,8020001153630,新規,0,2023-09-26,2023-09-26,株式会社Ｏ＆Ｔ　ｓｕｐｐｏｒｔ,,株式会社,神奈川県,横浜市神奈川区,入江１丁目１４番３－２０４号,,14,102,2210014,,,,,,,2023-09-26,1,,,,,オーアンドティーサポート,0
1776,8020001153639,新規,0,2023-09-26,2023-09-26,株式会社Ａｔｅｌｉｅｒ眞,,株式会社,神奈川県,横浜市港南区,上永谷３丁目２８番２７号,,14,111,2330012,,,,,,,2023-09-26,1,,,,,アトリエシン,0
1777,8020001153647,新規,0,2023-09-26,2023-09-26,株式会社Ｃｒｅａｔｉｖｅ　Ｇａｒａｇｅ隼,,株式会社,神奈川県,川崎市多摩区,生田１丁目３番２９号,,14,135,2140038,,,,,,,2023-09-26,1,,,,,クリエイティヴガレージジュン,0
1778,8020001153655,新規,0,2023-09-26,2023-09-26,すかいぴーく株式会社,,株式会社,神奈川県,横浜市保土ケ谷区,仏向町１４１７番地４１,,14,106,2400044,,,,,,,2023-09-26,1,,,,,スカイピーク,0
1785,8020003024648,新規,0,2023-09-26,2023-09-26,合同会社ＥＡＲＴＨ　ＧＡＲＤ,,合同会社,神奈川県,横浜市神奈川区,六角橋４丁目２０－６テラスハウス横浜ＩＩ４１４,00132034,14,102,2210802,,,,,,,2023-09-26,1,,,,,アスガルド,0
1786,8021001080261,新規,0,2023-09-26,2023-09-26,鎌倉雅建装株式会社,,株式会社,神奈川県,鎌倉市,腰越１丁目１５番１８号,,14,204,2480033,,,,,,,2023-09-26,1,,,,,カマクラミヤビケンソウ,0
1787,8021001080278,新規,0,2023-09-26,2023-09-26,株式会社Ｇｌａｓｓｙ,,株式会社,神奈川県,茅ヶ崎市,東海岸北４丁目１２－４９,,14,207,2530053,,,,,,,2023-09-26,1,,,,,グラッシー,0
1789,8021003013608,新規,0,2023-09-26,2023-09-26,合同会社ＢＢＬ,,合同会社,神奈川県,秦野市,尾尻５３４番地の１ロジーナ１Ｆ,,14,211,2570011,,,,,,,2023-09-26,1,,,,,ビービーエル,0
1800,8030001155832,新規,0,2023-09-26,2023-09-26,株式会社ＫＵＧＥＤＯＵ,,株式会社,埼玉県,さいたま市桜区,西堀１０丁目５－２６,,11,106,3380832,,,,,,,2023-09-26,1,,,,,クゲドウ,0
1801,8030001155881,新規,0,2023-09-26,2023-09-26,ｃｏｎｎｅｃｔ　ｗｏｒｋ株式会社,,株式会社,埼玉県,さいたま市緑区,大字間宮９２２号,,11,109,3360965,,,,,,,2023-09-26,1,,,,,コネクトワーク,0
1802,8030001155898,新規,0,2023-09-26,2023-09-26,ららりるら株式会社,,株式会社,埼玉県,川口市,本蓮３丁目１０番１８号,00132039,11,203,3340076,,,,,,,2023-09-26,1,,,,,ララリルラ,0
1803,8030001155907,新規,0,2023-09-26,2023-09-26,株式会社田村写真事務所,,株式会社,埼玉県,さいたま市南区,内谷６丁目１３番４号,,11,108,3360034,,,,,,,2023-09-26,1,,,,,タムラミナミジムショ,0
1804,8030001156104,新規,0,2023-09-26,2023-09-26,株式会社イノベーションファクトリー２４７,,株式会社,埼玉県,日高市,大字高萩２４２７番地６,,11,242,3501213,,,,,,,2023-09-26,1,,,,,イノベーションファクトリーニイヨンナナ,0
1805,8030001156153,新規,0,2023-09-26,2023-09-26,ユタカ塗装工業株式会社,,株式会社,埼玉県,三郷市,東町１０５番地７,,11,237,3410036,,,,,,,2023-09-26,1,,,,,ユタカトソウコウギョウ,0
1813,8030003022460,新規,0,2023-09-26,2023-09-26,アラスカ商会合同会社,,合同会社,埼玉県,吉川市,吉川団地５番８号２０５,,11,243,3420054,,,,,,,2023-09-26,1,,,,,アラスカショウカイ,0
1814,8030003022650,新規,0,2023-09-26,2023-09-26,Ｄｏｒｉｓ合同会社,,合同会社,埼玉県,蕨市,塚越７丁目１２番１０－ビルドミール塚越３０１号,00132030,11,223,3350002,,,,,,,2023-09-26,1,,,,,ドリス,0
1817,8040001130207,新規,0,2023-09-26,2023-09-26,株式会社セカンドアクション,,株式会社,千葉県,船橋市,前原西３丁目５番７号,,12,204,2740825,,,,,,,2023-09-26,1,,,,,セカンドアクション,0
1818,8040001130223,新規,0,2023-09-26,2023-09-26,株式会社嘉楠,,株式会社,千葉県,浦安市,高洲６丁目２番４－１０１号,,12,227,2790023,,,,,,,2023-09-26,1,,,,,カナン,0
1819,8040001130231,新規,0,2023-09-26,2023-09-26,ＭＬ　ＴＲＡＤＩＮＧ株式会社,,株式会社,千葉県,八街市,八街ほ２３８番地４７,,12,230,2891115,,,,,,,2023-09-26,1,,,,,エムエルトレーディング,0
1824,8040005022128,新規,0,2023-09-26,2023-09-26,一般社団法人日本水上アスレチック協会,,その他の設立登記法人,千葉県,大網白里市,南飯塚４４０番地８,,12,239,2993219,,,,,,,2023-09-26,1,,,,,ニホンスイジョウアスレチックキョウカイ,0
1837,8080001025873,新規,0,2023-09-26,2023-09-26,株式会社Ｏ．Ｓ．１,,株式会社,静岡県,静岡市葵区,紺屋町１７－１葵タワー１Ｆ,,22,101,4200852,,,,,,,2023-09-26,1,,,,,オーエスワン,0
1856,8120001159114,新規,0,2023-09-26,2023-09-26,三晃地所株式会社,,株式会社,大阪府,守口市,桜町５番９号,,27,209,5700027,,,,,,,2023-09-26,1,,,,,サンコウチショ,0
1869,8120001258114,新規,0,2023-09-26,2023-09-26,低糖習慣株式会社,,株式会社,大阪府,大阪市中央区,南久宝寺町４丁目６番９号４０２号,,27,128,5410058,,,,,,,2023-09-26,1,,,,,テイトウシュウカン,0
1870,8120001258221,新規,0,2023-09-26,2023-09-26,株式会社ＳｔａｒＡｃｅ,,株式会社,大阪府,大阪市平野区,長吉長原２丁目３番５号,,27,126,5470016,,,,,,,2023-09-26,1,,,,,スターエース,0
1871,8120001258254,新規,0,2023-09-26,2023-09-26,杰啓株式会社,,株式会社,大阪府,大阪市中央区,平野町４丁目７番８号アベニュー淀屋橋５０８号室,,27,128,5410046,,,,,,,2023-09-26,1,,,,,ケツケイ,0
1872,8120001258262,新規,0,2023-09-26,2023-09-26,株式会社Ｏｎｅ　ｗｉｌｌ,,株式会社,大阪府,大阪市東成区,中本１丁目１０番９号ルポンヴェール６０２号,,27,115,5370022,,,,,,,2023-09-26,1,,,,,ワンウィル,0
1873,8120001258345,新規,0,2023-09-26,2023-09-26,株式会社まごらか,,株式会社,大阪府,大阪市中央区,東心斎橋１丁目９番２４号,,27,128,5420083,,,,,,,2023-09-26,1,,,,,マゴラカ,0
1877,8120003024919,新規,0,2023-09-26,2023-09-26,合同会社玉や,,合同会社,大阪府,大阪市大正区,三軒家西２丁目６番１３号,,27,108,5510001,,,,,,,2023-09-26,1,,,,,タマヤ,0
1878,8120003024992,新規,0,2023-09-26,2023-09-26,合同会社フロンティアＥＲＡ,,合同会社,大阪府,大阪市北区,梅田１丁目１‐３大阪駅前第３ビル２９階１‐１‐１号室,,27,127,5300001,,,,,,,2023-09-26,1,,,,,フロンティアイーラ,0
1890,8140001131624,新規,0,2023-09-26,2023-09-26,ブレイク株式会社,,株式会社,兵庫県,尼崎市,武庫之荘本町３丁目１８番６号,,28,202,6610031,,,,,,,2023-09-26,1,,,,,ブレイク,0
1891,8140001131723,新規,0,2023-09-26,2023-09-26,株式会社奏工業,,株式会社,兵庫県,たつの市,神岡町野部１８７番地５,,28,229,6794111,,,,,,,2023-09-26,1,,,,,カナデコウギョウ,0
1892,8140001131764,新規,0,2023-09-26,2023-09-26,株式会社エスケーリンク,,株式会社,兵庫県,明石市,大久保町緑が丘２５番５号,,28,203,6740055,,,,,,,2023-09-26,1,,,,,エスケーリンク,0
1893,8140003019520,新規,0,2023-09-26,2023-09-26,合同会社ＦｔｏＦ,,合同会社,兵庫県,神戸市灘区,大石東町１丁目１番１号５１３,,28,102,6570043,,,,,,,2023-09-26,1,,,,,エフトゥーエフ,0
1896,8160003002994,新規,0,2023-09-26,2023-09-26,合同会社ルミネセンテンス,,合同会社,滋賀県,大津市,朝日が丘１丁目２７番１‐７０３号,,25,201,5200052,,,,,,,2023-09-26,1,,,,,ルミネセンテンス,0
1897,8170001017787,新規,0,2023-09-26,2023-09-26,株式会社エビス工業,,株式会社,和歌山県,橋本市,高野口町名古曽６８６番地,,30,203,6497203,,,,,,,2023-09-26,1,,,,,エビスコウギョウ,0
1898,8170001017795,新規,0,2023-09-26,2023-09-26,匠ホールディングス株式会社,,株式会社,和歌山県,和歌山市,有本１０４番地の２,,30,201,6408390,,,,,,,2023-09-26,1,,,,,タクミホールディングス,0
1900,8180001158143,新規,0,2023-09-26,2023-09-26,株式会社Ｓｔｅｌｌａ　Ｕｎｉｖｅｒｓｅ,,株式会社,愛知県,名古屋市熱田区,木之免町３０１番地４エクセレント山房６０３,,23,109,4560046,,,,,,,2023-09-26,1,,,,,ステラユニバース,0
1904,8200005013523,新規,0,2023-09-26,2023-09-26,司法書士法人田内・高平事務所,00132027,その他の設立登記法人,岐阜県,岐阜市,東金宝町４丁目１５番地１,,21,201,5008167,,,,,,,2023-09-26,1,,,,,タウチタカヒラジムショ,0
1905,8210001019473,新規,0,2023-09-26,2023-09-26,ＥＳＳＡ　ＴＲＡＤＩＮＧ株式会社,,株式会社,福井県,勝山市,滝波町１丁目１０３番地,,18,206,9110034,,,,,,,2023-09-26,1,,,,,イーサトレイデイング,0
1923,8250001020295,新規,0,2023-09-26,2023-09-26,株式会社ＳＴＲＡＤＡ,,株式会社,山口県,美祢市,東厚保町川東２１３６番地９,,35,213,7592142,,,,,,,2023-09-26,1,,,,,ストラーダ,0
1925,8250003003356,新規,0,2023-09-26,2023-09-26,合同会社ＡＲＴ,,合同会社,山口県,周南市,横浜町１７番３１号,,35,215,7450812,,,,,,,2023-09-26,1,,,,,アート,0
1928,8260001038337,新規,0,2023-09-26,2023-09-26,株式会社ダイナスティ,,株式会社,岡山県,玉野市,番田１３７１番地,,33,204,7060304,,,,,,,2023-09-26,1,,,,,ダイナスティ,0
1936,8290001103146,新規,0,2023-09-26,2023-09-26,ＭＶＰ株式会社,,株式会社,福岡県,福岡市博多区,博多駅前２丁目１９－１７－３１２,,40,132,8120011,,,,,,,2023-09-26,1,,,,,エムブイピー,0
1937,8290001103154,新規,0,2023-09-26,2023-09-26,株式会社煌,,株式会社,福岡県,福岡市博多区,中洲４丁目１－３０－３Ｆ,,40,132,8100801,,,,,,,2023-09-26,1,,,,,キラメキ,0
1939,8290003014382,新規,0,2023-09-26,2023-09-26,合同会社開元,,合同会社,福岡県,福岡市東区,箱崎５丁目１１－６－５０３号,,40,131,8120053,,,,,,,2023-09-26,1,,,,,カイゲン,0
1940,8290801029895,新規,0,2023-09-26,2023-09-26,株式会社九州ケアラボ,,株式会社,福岡県,北九州市門司区,葛葉３丁目８番６号,,40,101,8000008,,,,,,,2023-09-26,1,,,,,キュウシュウケアラボ,0
1943,8310003004645,新規,0,2023-09-26,2023-09-26,合同会社ＮＵＴ,,合同会社,長崎県,長崎市,上銭座町８番２７号,,42,201,8500048,,,,,,,2023-09-26,1,,,,,ナット,0
1945,8330001031284,新規,0,2023-09-26,2023-09-26,株式会社Ｃｏｍｍｉｔ,,株式会社,熊本県,熊本市東区,広木町１５番２８号,,43,102,8620906,,,,,,,2023-09-26,1,,,,,コミット,0
1946,8330001031292,新規,0,2023-09-26,2023-09-26,株式会社直樹工業,,株式会社,熊本県,熊本市東区,小山町１９２０番地４,,43,102,8618030,,,,,,,2023-09-26,1,,,,,ナオキコウギョウ,0
1949,8350001018577,新規,0,2023-09-26,2023-09-26,ファーストステップ株式会社,,株式会社,宮崎県,宮崎市,千草町５番１８号,,45,201,8800006,,,,,,,2023-09-26,1,,,,,ファーストステップ,0
1951,8350003004443,新規,0,2023-09-26,2023-09-26,農業生産法人合同会社ゴールド農園宮崎,,合同会社,宮崎県,都城市,安久町５９５１番地１６,,45,202,8850044,,,,,,,2023-09-26,1,,,,,ノウギョウセイサンホウジンゴールドノウエンミヤザキ,0
1957,8370001050446,新規,0,2023-09-26,2023-09-26,株式会社ＨＩ‐ＬＩＮＥ,,株式会社,宮城県,仙台市青葉区,落合１丁目６番２７号,,04,101,9893126,,,,,,,2023-09-26,1,,,,,ハイライン,0
1960,8380001033994,新規,0,2023-09-26,2023-09-26,株式会社カーサ藤,,株式会社,福島県,大沼郡会津美里町,字高田甲２８９５番地,,07,447,9696264,,,,,,,2023-09-26,1,,,,,カーサフジ,0
1961,8380001034002,新規,0,2023-09-26,2023-09-26,株式会社磐梯猪苗代リゾート,,株式会社,福島県,耶麻郡猪苗代町,字綿場７１２６番地,,07,408,9693288,,,,,,,2023-09-26,1,,,,,バンダイイナワシロリゾート,0
1976,8430003015449,新規,0,2023-09-26,2023-09-26,合同会社北峰,,合同会社,北海道,札幌市厚別区,大谷地東５丁目１４番１,,01,108,0040041,,,,,,,2023-09-26,1,,,,,ホクホウ,0
1983,8500001025211,新規,0,2023-09-26,2023-09-26,株式会社田中興業,,株式会社,愛媛県,松山市,北条辻９３２番地１１,00132031,38,201,7992430,,,,,,,2023-09-26,1,,,,,タナカコウギョウ,0
1984,8500005008641,新規,0,2023-09-26,2023-09-26,グローバルＳＡＩＪＯ協同組合,,その他の設立登記法人,愛媛県,西条市,丹原町北田野２６８－１,,38,206,7910523,,,,,,,2023-09-26,1,,,,,グローバルサイジョウ,0
1996,9010003041750,新規,0,2023-09-26,2023-09-26,合同会社スマイルアース,,合同会社,東京都,中央区,勝どき６丁目３番２－３００５号,,13,102,1040054,,,,,,,2023-09-26,1,,,,,スマイルアース,0
2001,9010401177361,新規,0,2023-09-26,2023-09-26,株式会社ＣＬＡＹＣＲＥＥＫ,,株式会社,東京都,港区,南青山３丁目１番３６号青山丸竹ビル６Ｆ,,13,103,1070062,,,,,,,2023-09-26,1,,,,,クレイクリーク,0
2002,9010405022489,新規,0,2023-09-26,2023-09-26,一般社団法人ＮＣＰエンディングサポート協会,,その他の設立登記法人,東京都,港区,元赤坂１丁目３番１０－１９０３号,,13,103,1070051,,,,,,,2023-09-26,1,,,,,エヌシーピーエンディングサポートキョウカイ,0
2004,9010501051103,新規,0,2023-09-26,2023-09-26,アールリンク株式会社,,株式会社,東京都,台東区,上野６丁目１番６号御徒町グリーンハイツ１００５号,,13,106,1100005,,,,,,,2023-09-26,1,,,,,アールリンク,0
2008,9010803004683,新規,0,2023-09-26,2023-09-26,ＩｍａｇｉｎａｒｙＬｉｎｅ合同会社,,合同会社,東京都,大田区,上池台５丁目２番１７号,,13,111,1450064,,,,,,,2023-09-26,1,,,,,イマジナリーライン,0
2017,9011001156557,新規,0,2023-09-26,2023-09-26,株式会社ＡＰ‐ＣＲＥＡＴＩＯＮ,,株式会社,東京都,渋谷区,道玄坂１丁目１０番８号渋谷道玄坂東急ビル２Ｆ－Ｃ,,13,113,1500043,,,,,,,2023-09-26,1,,,,,エーピークリエイション,0
2022,9011005010223,新規,0,2023-09-26,2023-09-26,Ｅ‐ｂｉｚ税理士法人,,その他の設立登記法人,東京都,渋谷区,恵比寿３丁目７－１７－３０１,,13,113,1500013,,,,,,,2023-09-26,1,,,,,イービズ,0
2025,9011101104399,新規,0,2023-09-26,2023-09-26,株式会社ａｚｗｉｔｈ,,株式会社,東京都,新宿区,西新宿４丁目８番３２号ロンデ西新宿３０１,,13,104,1600023,,,,,,,2023-09-26,1,,,,,アズウィズ,0
2026,9011101104465,新規,0,2023-09-26,2023-09-26,中昌商事株式会社,,株式会社,東京都,新宿区,西新宿３丁目６番５－１２０２号トーカン新宿キャステール,,13,104,1600023,,,,,,,2023-09-26,1,,,,,チュウショウショウジ,0
2027,9011101104473,新規,0,2023-09-26,2023-09-26,日中メディカルコンサルタント株式会社,,株式会社,東京都,新宿区,高田馬場３丁目２１－９－２０２号室,,13,104,1690075,,,,,,,2023-09-26,1,,,,,ニッチュウメディカルコンサルタント,0
2028,9011101104523,新規,0,2023-09-26,2023-09-26,ｒｅｐｉｌａｔｅｓ株式会社,,株式会社,東京都,新宿区,神楽坂３丁目４番地山本ビル６Ｆ,,13,104,1620825,,,,,,,2023-09-26,1,,,,,リピラティス,0
2032,9011801043079,新規,0,2023-09-26,2023-09-26,株式会社ローカル不動産,,株式会社,東京都,足立区,鹿浜５丁目２９番１５号,,13,121,1230864,,,,,,,2023-09-26,1,,,,,ローカルフドウサン,0
2034,9012703002800,新規,0,2023-09-26,2023-09-26,合同会社ＫＹＯＧＵ,,合同会社,東京都,東久留米市,ひばりが丘団地５－２８ひばりヶ丘フィールズ２番街７０１,,13,222,2030022,,,,,,,2023-09-26,1,,,,,キョウグウ,0
2044,9013301051388,新規,0,2023-09-26,2023-09-26,誠和テクノロジー株式会社,,株式会社,東京都,豊島区,南池袋２丁目３１番３号東商ビル４Ｆ,,13,116,1710022,,,,,,,2023-09-26,1,,,,,セイワテクノロジー,0
2045,9013301051396,新規,0,2023-09-26,2023-09-26,株式会社エコダマ,,株式会社,東京都,豊島区,池袋３丁目３４番３号坂下グリンハイツ２１３,,13,116,1710014,,,,,,,2023-09-26,1,,,,,エコダマ,0
2051,9020001153613,新規,0,2023-09-26,2023-09-26,株式会社オリゼ企画,,株式会社,神奈川県,川崎市麻生区,金程２丁目１８番８号,,14,137,2150006,,,,,,,2023-09-26,1,,,,,オリゼキカク,0
2052,9020001153621,新規,0,2023-09-26,2023-09-26,Ｒｕｎ　Ｉｔ株式会社,,株式会社,神奈川県,川崎市川崎区,大師河原１丁目１番１３号,,14,131,2100811,,,,,,,2023-09-26,1,,,,,ランイット,0
2053,9020001153638,新規,0,2023-09-26,2023-09-26,株式会社Ｎ．ＳＴＹＬＥ,,株式会社,神奈川県,川崎市麻生区,上麻生３丁目１５番１－４０１号,,14,137,2150021,,,,,,,2023-09-26,1,,,,,エヌスタイル,0
2054,9020001153646,新規,0,2023-09-26,2023-09-26,株式会社グランドスラム,,株式会社,神奈川県,川崎市麻生区,高石３丁目１２番１０－２号,,14,137,2150003,,,,,,,2023-09-26,1,,,,,グランドスラム,0
2056,9020003024655,新規,0,2023-09-26,2023-09-26,合同会社オールドファッションド,,合同会社,神奈川県,川崎市宮前区,白幡台１丁目１５―７９,,14,136,2160025,,,,,,,2023-09-26,1,,,,,オールドファッションド,0
2057,9020003024663,新規,0,2023-09-26,2023-09-26,ＮＯＲＣＡＬ　ＩＮＴＥＲＮＡＴＩＯＮＡＬ合同会社,,合同会社,神奈川県,川崎市麻生区,高石５丁目１―３,,14,137,2150003,,,,,,,2023-09-26,1,,,,,ノーカルインターナショナル,0
2058,9020005016097,新規,0,2023-09-26,2023-09-26,特定非営利活動法人国際武医同源協会,,その他の設立登記法人,神奈川県,横浜市都筑区,荏田東３丁目１番４－４０１号,,14,118,2240006,,,,,,,2023-09-26,1,,,,,,0
2062,9030001155897,新規,0,2023-09-26,2023-09-26,ＷＵ　ａｉｒ　ｔｅｃ株式会社,,株式会社,埼玉県,春日部市,下蛭田３２１番地１８,,11,214,3440043,,,,,,,2023-09-26,1,,,,,ウィズユーエアテック,0
2063,9030001156152,新規,0,2023-09-26,2023-09-26,株式会社ハピニス,,株式会社,埼玉県,蓮田市,御前橋２丁目５番２７号,,11,238,3490125,,,,,,,2023-09-26,1,,,,,ハピニス,0
2064,9030001156160,新規,0,2023-09-26,2023-09-26,株式会社Ｂｌｕｅ‐Ｐ,,株式会社,埼玉県,久喜市,久喜北２丁目７番３号,,11,232,3460007,,,,,,,2023-09-26,1,,,,,ブルーピー,0
2065,9030001156219,新規,0,2023-09-26,2023-09-26,株式会社８８８,,株式会社,埼玉県,三郷市,泉１丁目１８番地９,,11,237,3410054,,,,,,,2023-09-26,1,,,,,ハチミツ,0
2066,9030001156268,新規,0,2023-09-26,2023-09-26,株式会社青柳サービス,,株式会社,埼玉県,狭山市,大字青柳１７７０番地の９,,11,215,3501301,,,,,,,2023-09-26,1,,,,,アオヤギサービス,0
2074,9040001130189,新規,0,2023-09-26,2023-09-26,Ｋ．Ｍ．Ｔ株式会社,,株式会社,千葉県,市原市,東国分寺台４丁目５番地３４,,12,219,2900074,,,,,,,2023-09-26,1,,,,,ケーエムティー,0
2075,9040001130206,新規,0,2023-09-26,2023-09-26,ノーライト株式会社,,株式会社,千葉県,船橋市,大穴北８丁目１３番１６号,,12,204,2740068,,,,,,,2023-09-26,1,,,,,ノーライト,0
2076,9040001130222,新規,0,2023-09-26,2023-09-26,株式会社ｄｅｅｒｈｏｕｓｅ,,株式会社,千葉県,千葉市若葉区,原町９０１番地２,,12,104,2640034,,,,,,,2023-09-26,1,,,,,ディアーハウス,0
2077,9040001130230,新規,0,2023-09-26,2023-09-26,株式会社８２,,株式会社,千葉県,市川市,南行徳２丁目１２－２４,,12,203,2720138,,,,,,,2023-09-26,1,,,,,ハチジュウニ,0
2078,9040001130239,新規,0,2023-09-26,2023-09-26,株式会社ＮＥＷＴＲＩＰ,,株式会社,千葉県,浦安市,北栄１丁目１２番２３号プレジデントビル６０４号室,,12,227,2790002,,,,,,,2023-09-26,1,,,,,ニュートリップ,0
2079,9040001130247,新規,0,2023-09-26,2023-09-26,強盛商事株式会社,,株式会社,千葉県,茂原市,真名４５７－１,,12,210,2970077,,,,,,,2023-09-26,1,,,,,キョウセイショウジ,0
2083,9040003023366,新規,0,2023-09-26,2023-09-26,合同会社啓明,,合同会社,千葉県,松戸市,小金清志町２丁目６０－１パンダハウス２０３,,12,207,2700016,,,,,,,2023-09-26,1,,,,,ケイメイ,0
2084,9040003023374,新規,0,2023-09-26,2023-09-26,ＷＯＲＫ　ＦＡＭＩＬＹ　ＦＥＮｉＸ合同会社,,合同会社,千葉県,船橋市,西習志野１丁目２１番６号,,12,204,2740815,,,,,,,2023-09-26,1,,,,,ワークスファミリーフェニックス,0
2085,9050003007814,新規,0,2023-09-26,2023-09-26,ＳＨ　ＩＮＴＥＲＮＡＴＩＯＮＡＬ合同会社,,合同会社,茨城県,つくば市,花畑３丁目２４－１－ＹＳ－Ｉ－２０３号室,,08,220,3003261,,,,,,,2023-09-26,1,,,,,エスエイチインターナショナル,0
2086,9070001040880,新規,0,2023-09-26,2023-09-26,ムツキ興業株式会社,,株式会社,群馬県,安中市,磯部１丁目１９番２号,,10,211,3790127,,,,,,,2023-09-26,1,,,,,ムツキコウギョウ,0
2091,9080003003059,新規,0,2023-09-26,2023-09-26,マタンコロレ合同会社,,合同会社,静岡県,島田市,東町１０番地の１０,,22,209,4270011,,,,,,,2023-09-26,1,,,,,マタンコロレ,0
2093,9080101024238,新規,0,2023-09-26,2023-09-26,株式会社りみらいず,,株式会社,静岡県,駿東郡清水町,新宿１７５番地の１アセントＫ１０３,,22,341,4110901,,,,,,,2023-09-26,1,,,,,リミライズ,0
2098,9100003007197,新規,0,2023-09-26,2023-09-26,合同会社ヨシケン,,合同会社,長野県,佐久市,甲１５２番地２,,20,217,3842104,,,,,,,2023-09-26,1,,,,,ヨシケン,0
2107,9120001258113,新規,0,2023-09-26,2023-09-26,円卓人工知能株式会社,,株式会社,大阪府,大阪市中央区,南久宝寺町３丁目４番１５－４０４号,,27,128,5410058,,,,,,,2023-09-26,1,,,,,エンタクジンコウチノウ,0
2108,9120001258294,新規,0,2023-09-26,2023-09-26,株式会社Ｄｅｓｉｇｎｓ　ｂｙ　Ｓｎｏｗ　Ｔｒｅｅ,,株式会社,大阪府,大阪市北区,本庄西１丁目１－７－３２０２,,27,127,5310073,,,,,,,2023-09-26,1,,,,,デザインズバイスノウツリー,0
2110,9120003024959,新規,0,2023-09-26,2023-09-26,合同会社クレイ,,合同会社,大阪府,大阪市中央区,北久宝寺町３丁目６番１号本町南ガーデンシティ７階,,27,128,5410057,,,,,,,2023-09-26,1,,,,,クレイ,0
2113,9120101068255,新規,0,2023-09-26,2023-09-26,ＳＡＤＡ　ＤＥＳＩＧＮ株式会社,,株式会社,大阪府,松原市,小川６丁目２番２号,,27,217,5800002,,,,,,,2023-09-26,1,,,,,サダデザイン,0
2121,9130001075251,新規,0,2023-09-26,2023-09-26,悠楽株式会社,,株式会社,京都府,京都市左京区,高野東開町１０番地６,,26,103,6068107,,,,,,,2023-09-26,1,,,,,ユウラク,0
2125,9140001131722,新規,0,2023-09-26,2023-09-26,株式会社Ｔｈｒｅｅ‐Ａｒｒｏｗｓ,,株式会社,兵庫県,神戸市北区,花山台６番２０号,,28,109,6511205,,,,,,,2023-09-26,1,,,,,スリーアローズ,0
2126,9140001131739,新規,0,2023-09-26,2023-09-26,ＭＯＣＯ　Ｗｏｒｋｓ株式会社,,株式会社,兵庫県,美方郡新温泉町,久斗山１９１８,,28,586,6696727,,,,,,,2023-09-26,1,,,,,モコワークス,0
2130,9140003019593,新規,0,2023-09-26,2023-09-26,ハチミツ情報企画合同会社,,合同会社,兵庫県,神戸市北区,日の峰３丁目６－１８,,28,109,6511233,,,,,,,2023-09-26,1,,,,,ハチミツジョウホウキカク,0
2131,9140005026753,新規,0,2023-09-26,2023-09-26,一般社団法人ユニバーサル・ドローン協会,,その他の設立登記法人,兵庫県,神戸市東灘区,住吉東町２丁目３番２０－１０２号,,28,101,6580052,,,,,,,2023-09-26,1,,,,,ユニバーサルドローンキョウカイ,0
2134,9170001017794,新規,0,2023-09-26,2023-09-26,株式会社わかもりラボ,,株式会社,和歌山県,和歌山市,木ノ本８３０番地１,,30,201,6408453,,,,,,,2023-09-26,1,,,,,ワカモリラボ,0
2141,9180001158142,新規,0,2023-09-26,2023-09-26,株式会社石浜商会,,株式会社,愛知県,東海市,養父町浜脇４６番地,,23,222,4770034,,,,,,,2023-09-26,1,,,,,イシハマショウカイ,0
2142,9180001158167,新規,0,2023-09-26,2023-09-26,株式会社エムテック,,株式会社,愛知県,名古屋市名東区,藤里町５３アイリス藤里７階,,23,115,4650036,,,,,,,2023-09-26,1,,,,,エムテック,0
2143,9180001158175,新規,0,2023-09-26,2023-09-26,株式会社ケイティーグローバル,,株式会社,愛知県,春日井市,知多町１丁目１１１番地,,23,206,4860947,,,,,,,2023-09-26,1,,,,,ケイティーグローバル,0
2175,9290001103129,新規,0,2023-09-26,2023-09-26,株式会社Ｅ．Ｓｅｅｋｅｒｓ,,株式会社,福岡県,福岡市博多区,博多駅東１丁目１１番５号,,40,132,8120013,,,,,,,2023-09-26,1,,,,,イーシーカーズ,0
2178,9300001013474,新規,0,2023-09-26,2023-09-26,ヴルーヴＧＮＯＣ株式会社,,株式会社,佐賀県,東松浦郡玄海町,大字平尾６９１番地,,41,387,8471432,,,,,,,2023-09-26,1,,,,,ヴルーヴジーノック,0
2182,9330001031283,新規,0,2023-09-26,2023-09-26,蒼櫻システム株式会社,,株式会社,熊本県,宇城市,不知火町高良３０６－１０,,43,213,8690552,,,,,,,2023-09-26,1,,,,,アオシステム,0
2183,9340001025929,新規,0,2023-09-26,2023-09-26,株式会社ＦＣ＆Ｍ,,株式会社,鹿児島県,霧島市,国分野口西２４番８－３号,,46,218,8994343,,,,,,,2023-09-26,1,,,,,エフシーアンドエム,0
2185,9340003004261,新規,0,2023-09-26,2023-09-26,合同会社ｏｍｅｍｅ,,合同会社,鹿児島県,姶良市,西餅田１９３８番地２８,,46,225,8995431,,,,,,,2023-09-26,1,,,,,オメメ,0
2186,9360005006907,新規,0,2023-09-26,2023-09-26,一般社団法人ひるぎ舎,,その他の設立登記法人,沖縄県,名護市,字田井等６２８番地８,,47,209,9051147,,,,,,,2023-09-26,1,,,,,ヒルギシャ,0
2190,9370001050445,新規,0,2023-09-26,2023-09-26,平野建築物調査者事務所株式会社,,株式会社,宮城県,仙台市青葉区,中山台３丁目１番地の８,,04,101,9893202,,,,,,,2023-09-26,1,,,,,ヒラノケンチクブツチョウサシャジムショ,0
2202,9430001090022,新規,0,2023-09-26,2023-09-26,株式会社グランプラス,,株式会社,北海道,札幌市中央区,北九条西２０丁目２番２８－２０３号,,01,101,0600009,,,,,,,2023-09-26,1,,,,,グランプラス,0
2203,9430001090039,新規,0,2023-09-26,2023-09-26,株式会社ＳＹＤ,,株式会社,北海道,札幌市中央区,南二条西１０丁目４－５－５０３,,01,101,0600062,,,,,,,2023-09-26,1,,,,,エスワイディ,0
2207,9430003015472,新規,0,2023-09-26,2023-09-26,合同会社ティーダ,,合同会社,北海道,札幌市豊平区,西岡四条２丁目８番１号,,01,105,0620034,,,,,,,2023-09-26,1,,,,,ティーダ,0
