sequenceNumber,corporateNumber,process,correct,updateDate,changeDate,name,nameImageId,kind,prefectureName,cityName,streetNumber,addressImageId,prefectureCode,cityCode,postCode,addressOutside,addressOutsideImageId,closeDate,closeCause,successorCorporateNumber,changeCause,assignmentDate,latest,enName,enPrefectureName,enCityName,enAddressOutside,furigana,hihyoji
8,1010001220537,新規,0,2021-08-19,2021-08-19,Ｐａｐｒｉｋａ株式会社,,株式会社,東京都,千代田区,永田町２丁目１１番１号山王パークタワー５階トラスティーズ・コンサルティングＬＬＰ内,,13,101,1000014,,,,,,,2021-08-19,1,,,,,パプリカ,0
22,1010403025930,新規,0,2021-08-19,2021-08-19,合同会社ＬＧＡｐａｒｔｎｅｒｓ,,合同会社,東京都,港区,港南２丁目１６－１品川イーストワンタワー４Ｆ,,13,103,1080075,,,,,,,2021-08-19,1,,,,,エルジーエーパートナーズ,0
23,1010403025947,新規,0,2021-08-19,2021-08-19,合同会社ワンイズミ,,合同会社,東京都,港区,赤坂９丁目６番２９号パシフィック乃木坂５０１号,,13,103,1070052,,,,,,,2021-08-19,1,,,,,ワンイズミ,0
24,1010403025955,新規,0,2021-08-19,2021-08-19,合同会社ＣＣＡ,,合同会社,東京都,港区,南青山２丁目２番１５号,,13,103,1070062,,,,,,,2021-08-19,1,,,,,シーシーエー,0
32,1010903006736,新規,0,2021-08-19,2021-08-19,合同会社Ａｍａｔｉ　ｂａｍｂｉｎｉ,,合同会社,東京都,世田谷区,奥沢２丁目１４－５自由が丘ハイツ２０６,,13,112,1580083,,,,,,,2021-08-19,1,,,,,アマティバンビーニ,0
40,1011003013243,新規,0,2021-08-19,2021-08-19,フラクタル合同会社,,合同会社,東京都,渋谷区,広尾３丁目１２番１７－３１７号ザ・パークハウス広尾羽澤,,13,113,1500012,,,,,,,2021-08-19,1,,,,,フラクタル,0
41,1011103010941,新規,0,2021-08-19,2021-08-19,合同会社Ｓｉｎｎｏｖａｔｉｏｎ,,合同会社,東京都,新宿区,歌舞伎町１丁目１５番１２号大河原ビル１Ｆ,,13,104,1600021,,,,,,,2021-08-19,1,,,,,エスイノベーション,0
47,1011501027232,新規,0,2021-08-19,2021-08-19,株式会社Ｃｕｅｐｌａｎｔ,,株式会社,東京都,北区,赤羽１丁目７－９、４Ｆ,,13,117,1150045,,,,,,,2021-08-19,1,,,,,キュープラント,0
49,1012301012671,新規,0,2021-08-19,2021-08-19,株式会社健進,,株式会社,東京都,町田市,山崎町１４９０番地１向ヶ丘Ｃ２０１,,13,209,1950074,,,,,,,2021-08-19,1,,,,,ケンシン,0
67,1020003020356,新規,0,2021-08-19,2021-08-19,合同会社ＦＯＭ,,合同会社,神奈川県,川崎市宮前区,有馬９丁目２－３１,,14,136,2160003,,,,,,,2021-08-19,1,,,,,フォム,0
87,1040001119826,新規,0,2021-08-19,2021-08-19,株式会社マキノプロスト,,株式会社,千葉県,柏市,柏の葉２丁目１３番地６,,12,217,2770882,,,,,,,2021-08-19,1,,,,,マキノプロスト,0
88,1040001119850,新規,0,2021-08-19,2021-08-19,株式会社ＯＮＥ　ＳＴＥＰ,,株式会社,千葉県,千葉市美浜区,真砂４丁目１番２号クレヴィア検見川浜７０３号,,12,106,2610011,,,,,,,2021-08-19,1,,,,,ワンステップ,0
93,1040003018324,新規,0,2021-08-19,2021-08-19,Ａｃｔｉｏｎ合同会社,,合同会社,千葉県,千葉市稲毛区,稲毛３丁目１４番２号ヴェレーナ稲毛７０３号,,12,103,2630034,,,,,,,2021-08-19,1,,,,,アクション,0
94,1040003018357,新規,0,2021-08-19,2021-08-19,合同会社島田コンサルティング,,合同会社,千葉県,市川市,相之川３丁目１１番１９号,,12,203,2720143,,,,,,,2021-08-19,1,,,,,シマダコンサルティング,0
99,1040005021318,新規,0,2021-08-19,2021-08-19,一般社団法人鎌ケ谷マネジメントラボ,,その他の設立登記法人,千葉県,鎌ケ谷市,東初富６丁目４番２３号,,12,224,2730122,,,,,,,2021-08-19,1,,,,,カマガヤマネジメントラボ,0
104,1060001033959,新規,0,2021-08-19,2021-08-19,月結株式会社,,株式会社,栃木県,小山市,大字外城８１－８,,09,208,3230042,,,,,,,2021-08-19,1,,,,,ツキムスビ,0
105,1060003003778,新規,0,2021-08-19,2021-08-19,合同会社ＴＨＡＲＡＮＧＡＮＩ　ＴＲＡＤＥＲＳ,,合同会社,栃木県,足利市,鹿島町４００番地６ドーム２１第二１０２号,,09,202,3260844,,,,,,,2021-08-19,1,,,,,タランガニトレーダーズ,0
112,1120001239780,新規,0,2021-08-19,2021-08-19,株式会社Ｓ　ａｎｄ　Ｓ,,株式会社,大阪府,寝屋川市,田井町２１番２９号,,27,215,5720021,,,,,,,2021-08-19,1,,,,,エスアンドエス,0
113,1120001239830,新規,0,2021-08-19,2021-08-19,株式会社ワンセルフ,,株式会社,大阪府,大阪市東淀川区,井高野１丁目３４番２８号,,27,114,5330001,,,,,,,2021-08-19,1,,,,,ワンセルフ,0
114,1120001239847,新規,0,2021-08-19,2021-08-19,株式会社ｍｕｓｈｏｋｕ,,株式会社,大阪府,大阪市西区,阿波座１丁目１１番５号,,27,106,5500011,,,,,,,2021-08-19,1,,,,,ムショク,0
120,1120103004298,新規,0,2021-08-19,2021-08-19,合同会社ｒａｕｇＨ,,合同会社,大阪府,堺市北区,百舌鳥赤畑町２丁８７番４号２Ｆ,,27,146,5918037,,,,,,,2021-08-19,1,,,,,ラフ,0
122,1120903003788,新規,0,2021-08-19,2021-08-19,ＥＲＩＯ合同会社,,合同会社,大阪府,池田市,城南２丁目２－１,,27,204,5630025,,,,,,,2021-08-19,1,,,,,エリオ,0
132,1130003007425,新規,0,2021-08-19,2021-08-19,合同会社ｎｅｗｍｅｒｏｕｓ,,合同会社,京都府,京都市下京区,新町通松原下る富永町１０７番地１ＧＲＯＶＩＮＧＢＡＳＥ４１号室,,26,106,6008449,,,,,,,2021-08-19,1,,,,,ニューメラス,0
148,1180001147466,新規,0,2021-08-19,2021-08-19,株式会社ＡＳＵＲＡ　ＭＯＴＯＲＳ,,株式会社,愛知県,名古屋市中川区,新家１丁目２７０１番地,,23,110,4540972,,,,,,,2021-08-19,1,,,,,アスラモータース,0
151,1180003022873,新規,0,2021-08-19,2021-08-19,合同会社ただよしアシスト,,合同会社,愛知県,名古屋市中川区,南八熊町２番６号,,23,110,4540015,,,,,,,2021-08-19,1,,,,,タダヨシアシスト,0
157,1200001039009,新規,0,2021-08-19,2021-08-19,株式会社ＫＫＢ,,株式会社,岐阜県,各務原市,川島小網町２１２６番地５５,,21,213,5016023,,,,,,,2021-08-19,1,,,,,,0
158,1220001024371,新規,0,2021-08-19,2021-08-19,株式会社ＣＰｊａｐａｎ,,株式会社,石川県,白山市,松本町１９００番地,,17,210,9240057,,,,,,,2021-08-19,1,,,,,シーピージャパン,0
162,1250001019071,新規,0,2021-08-19,2021-08-19,株式会社Ｋ．Ｔ．Ｃ,,株式会社,山口県,山口市,平井３５０番地１０,,35,203,7530831,,,,,,,2021-08-19,1,,,,,ケーティーシー,0
165,1260001035877,新規,0,2021-08-19,2021-08-19,株式会社ハップ,,株式会社,岡山県,岡山市北区,柳町１丁目４番８号,,33,101,7000904,,,,,,,2021-08-19,1,,,,,ハップ,0
174,1290001094251,新規,0,2021-08-19,2021-08-19,ＫＹＵＳＨＵ　ＤＲＥＡＭ　ＩＮＴＥＲＮＡＴＩＯＮＡＬ株式会社,,株式会社,福岡県,朝倉郡筑前町,吹田２４１８番地１,,40,447,8380221,,,,,,,2021-08-19,1,,,,,キュウシュウドリームインターナショナル,0
176,1290801027716,新規,0,2021-08-19,2021-08-19,株式会社中嶋内装,,株式会社,福岡県,中間市,中鶴４丁目１８番,,40,215,8090037,,,,,,,2021-08-19,1,,,,,ナカシマナイソウ,0
200,1420001017553,新規,0,2021-08-19,2021-08-19,株式会社カームライフ環境,,株式会社,青森県,三沢市,大字三沢字横沢１２６番地１号,,02,207,0330022,,,,,,,2021-08-19,1,,,,,カームライフカンキョウ,0
203,1430001084766,新規,0,2021-08-19,2021-08-19,株式会社Ｎｅｗ　ＫＲＨ,,株式会社,北海道,余市郡赤井川村,字常盤１２８番地１,,01,409,0460571,,,,,,,2021-08-19,1,,,,,ニューケーアールエイチ,0
206,1430003013062,新規,0,2021-08-19,2021-08-19,合同会社ｎａｏ,,合同会社,北海道,札幌市西区,平和二条７丁目１０番９号,,01,107,0630022,,,,,,,2021-08-19,1,,,,,ナオ,0
208,1450001013450,新規,0,2021-08-19,2021-08-19,ＲＯＥＮ株式会社,,株式会社,北海道,旭川市,東七条３丁目１番２１号,,01,204,0700027,,,,,,,2021-08-19,1,,,,,ロエン,0
214,1700150104462,新規,0,2021-08-19,2021-08-19,杭州科苑隆科技有限公司,,外国会社等,東京都,江東区,木場５丁目１－５メイプルハイム木場Ｂ－１２２号室,,13,108,1350042,杭州市余杭区銭江経済开＿区興国路５２２号,00123913,,,,,2021-08-19,1,,,,,コウシユウカエンリヨウカギユウゲンコウシ,0
215,1700150104470,新規,0,2021-08-19,2021-08-19,台湾保来得股份有限公司,00123861,外国会社等,,,,,,,,台灣苗栗縣竹南鎮大埔里２０鄰中埔街１號,,,,,,2021-08-19,1,,,,,タイワンポーライトコフンユーゲンコンス,0
216,1700150104479,新規,0,2021-08-19,2021-08-19,ＵＮＩＴＥＤ　ＥＮＴＥＲＰＲＩＳＥ　ＩＮＶＥＳＴＭＥＮＴ　ＵＳＡ　ＣＯＲＰ,,外国会社等,東京都,江戸川区,南小岩７丁目２８番１１－５０６号,,13,123,1330056,アメリカ合衆国カリフォルニア州パサデナ市サウスレイクアベニュー８０，５５０号室,,,,,,2021-08-19,1,,,,,ユナイテツドエンタープライズインベストメントユーエスエーコープ,0
217,1700150104487,新規,0,2021-08-19,2021-08-19,ＣＯＭＴＥＳＳＥ　ＧｍｂＨ,,外国会社等,東京都,千代田区,大手町１丁目７－２東京サンケイビル２７階,,13,101,1000004,Ｂｒüｈｌｓｔｒａβｅ　９ａ　６３１７９　Ｏｂｅｒｔｓｈａｕｓｅｎ，Ｇｅｒｍａｎｙ,00123956,,,,,2021-08-19,1,,,,,コンテスゲーエムベーハー,0
227,2010001220453,新規,0,2021-08-19,2021-08-19,株式会社シグロ,,株式会社,東京都,千代田区,神田佐久間町３丁目２７番１号大洋ビル５０３,,13,101,1010025,,,,,,,2021-08-19,1,,,,,シグロ,0
228,2010001220511,新規,0,2021-08-19,2021-08-19,株式会社Ｐｈｔｈａｌｏ,,株式会社,東京都,中央区,銀座１丁目２２－１１,,13,102,1040061,,,,,,,2021-08-19,1,,,,,フタロ,0
229,2010003035627,新規,0,2021-08-19,2021-08-19,合同会社品川トラスト,,合同会社,東京都,千代田区,神田淡路町２丁目１０１番地ワテラスタワーレジデンス２４１７,,13,101,1010063,,,,,,,2021-08-19,1,,,,,シナガワトラスト,0
230,2010005033802,新規,0,2021-08-19,2021-08-19,一般財団法人Ｔ．ＦＥＬＩＣＩＡ　ＪＡＰＡＮ,,その他の設立登記法人,東京都,中央区,銀座１丁目１３番１２号,,13,102,1040061,,,,,,,2021-08-19,1,,,,,ティーフェリシアジャパン,0
237,2010403025954,新規,0,2021-08-19,2021-08-19,合同会社ハーモニー,,合同会社,東京都,港区,六本木１丁目３－３９－Ｅ６０３,,13,103,1060032,,,,,,,2021-08-19,1,,,,,ハーモニー,0
243,2010903006735,新規,0,2021-08-19,2021-08-19,三明合同会社,,合同会社,東京都,世田谷区,池尻２丁目３０－７－２０２,,13,112,1540001,,,,,,,2021-08-19,1,,,,,サンメイ,0
250,2011001142266,新規,0,2021-08-19,2021-08-19,ＯＮＸ株式会社,,株式会社,東京都,目黒区,下目黒３丁目２－１ザ・パークハビオ目黒１４０４,,13,110,1530064,,,,,,,2021-08-19,1,,,,,オンクス,0
251,2011001142381,新規,0,2021-08-19,2021-08-19,株式会社ＫＭＹ　Ｃｏｍｐａｎｙ,,株式会社,東京都,渋谷区,神宮前１丁目１４番２号原宿ル・ポンテビル１階Ｂ号室,,13,113,1500001,,,,,,,2021-08-19,1,,,,,ケイエムワイカンパニー,0
252,2011001142407,新規,0,2021-08-19,2021-08-19,株式会社ビーリッシュ,,株式会社,東京都,目黒区,目黒本町５丁目３番２－６０７号,,13,110,1520002,,,,,,,2021-08-19,1,,,,,ビーリッシュ,0
254,2011003013234,新規,0,2021-08-19,2021-08-19,よよぎの合同会社,,合同会社,東京都,渋谷区,代々木５丁目４１－１－４１０,,13,113,1510053,,,,,,,2021-08-19,1,,,,,ヨヨギノ,0
257,2011101096049,新規,0,2021-08-19,2021-08-19,ｂｕｌｂＳ株式会社,,株式会社,東京都,新宿区,新宿１丁目３６番７号新宿内野ビルⅡ８Ｆ,00123966,13,104,1600022,,,,,,,2021-08-19,1,,,,,バルブス,0
258,2011103010940,新規,0,2021-08-19,2021-08-19,トレードハンティング合同会社,,合同会社,東京都,新宿区,高田馬場３丁目１－５サンパティオ高田馬場３０９号室,,13,104,1690075,,,,,,,2021-08-19,1,,,,,トレードハンティング,0
261,2011501027223,新規,0,2021-08-19,2021-08-19,株式会社Ｅｎｉｓｈｉ　ｇｌｏｂａｌ　ｆｏｏｄｓ,,株式会社,東京都,北区,田端１丁目５番３号山岸ビル,,13,117,1140014,,,,,,,2021-08-19,1,,,,,エニシグローバルフーズ,0
269,2012301012670,新規,0,2021-08-19,2021-08-19,株式会社みっつふる,,株式会社,東京都,町田市,野津田町１３６８番地２８,,13,209,1950063,,,,,,,2021-08-19,1,,,,,ミッツフル,0
270,2012303001580,新規,0,2021-08-19,2021-08-19,井坂コンサルティング合同会社,,合同会社,東京都,町田市,金森東１丁目２２番１４号,,13,209,1940015,,,,,,,2021-08-19,1,,,,,イサカコンサルティング,0
278,2012801021023,新規,0,2021-08-19,2021-08-19,株式会社ＲＩＺＵ,,株式会社,東京都,立川市,柴崎町３丁目８番１号ＮＡＣビル７階,,13,202,1900023,,,,,,,2021-08-19,1,,,,,リズ,0
293,2020003020347,新規,0,2021-08-19,2021-08-19,ゆーすえくすぽ合同会社,,合同会社,神奈川県,横浜市都筑区,大丸４－８,,14,118,2240061,,,,,,,2021-08-19,1,,,,,ユースエクスポ,0
294,2021001073700,新規,0,2021-08-19,2021-08-19,株式会社ＡＹＳカンパニー,,株式会社,神奈川県,横須賀市,長井６丁目１６番３２号,,14,201,2380316,,,,,,,2021-08-19,1,,,,,エイワイエスカンパニー,0
311,2030005020484,新規,0,2021-08-19,2021-08-19,彩の国トラスト協同組合,,その他の設立登記法人,埼玉県,川口市,東川口３丁目６番８号,,11,203,3330801,,,,,,,2021-08-19,1,,,,,サイノクニトラスト,0
322,2040003018331,新規,0,2021-08-19,2021-08-19,合同会社同帆,,合同会社,千葉県,市川市,市川南３丁目１２パークシティー市川Ｄ棟７０９号,,12,203,2720033,,,,,,,2021-08-19,1,,,,,ドウホ,0
328,2040005021317,新規,0,2021-08-19,2021-08-19,ＮＰＯ法人日本ムスリム商工振興会,,その他の設立登記法人,千葉県,木更津市,清見台東１丁目２６番２０号五番街ビル１０１,,12,206,2920041,,,,,,,2021-08-19,1,,,,,ニホンムスリムショウコウシンコウカイ,0
331,2050003006038,新規,0,2021-08-19,2021-08-19,合同会社ホテルクリーンサービス＆リテイリング,,合同会社,茨城県,水戸市,桜川２丁目１－４３アカデミープラザ１階,,08,201,3100801,,,,,,,2021-08-19,1,,,,,ホテルクリーンサービスアンドリテイリング,0
334,2060005009896,新規,0,2021-08-19,2021-08-19,特定非営利活動法人当事者と支援者の会,,その他の設立登記法人,栃木県,下都賀郡壬生町,大字安塚１０８８番地５,,09,361,3210201,,,,,,,2021-08-19,1,,,,,トウジシャトシエンシャノカイ,0
338,2090005007427,新規,0,2021-08-19,2021-08-19,特定非営利活動法人なかまフィールドうじゅうの森,,その他の設立登記法人,山梨県,韮崎市,藤井町南下條７００番地,,19,207,4070004,,,,,,,2021-08-19,1,,,,,ナカマフィールドウジュウノモリ,0
347,2120001239763,新規,0,2021-08-19,2021-08-19,株式会社Ｆ　Ｃｏｄｅ,,株式会社,大阪府,大阪市中央区,南船場３丁目１－１１青柳ビル３Ｆ,,27,128,5420081,,,,,,,2021-08-19,1,,,,,エフコード,0
348,2120001239796,新規,0,2021-08-19,2021-08-19,株式会社モノゴコロ,,株式会社,大阪府,大阪市北区,西天満４丁目５番５号マーキス梅田４１２号室,,27,127,5300047,,,,,,,2021-08-19,1,,,,,モノゴコロ,0
355,2120003020056,新規,0,2021-08-19,2021-08-19,合同会社ＮＬ　ｓｔｙｌｅ,,合同会社,大阪府,大阪市北区,梅田１丁目１１番４号大阪駅前第４ビル９階９２３－１５７８号,,27,127,5300001,,,,,,,2021-08-19,1,,,,,エヌエルスタイル,0
360,2130001069945,新規,0,2021-08-19,2021-08-19,株式会社ＣＯＲＥ,,株式会社,京都府,京都市東山区,富永町１４１番地,,26,105,6050078,,,,,,,2021-08-19,1,,,,,コア,0
372,2140001122711,新規,0,2021-08-19,2021-08-19,株式会社ディーシーエスホールディングス,,株式会社,兵庫県,西宮市,本町５番１０号,,28,204,6620914,,,,,,,2021-08-19,1,,,,,ディーシーエスホールディングス,0
373,2140001122760,新規,0,2021-08-19,2021-08-19,株式会社暁月建築,,株式会社,兵庫県,宝塚市,福井町１４番５号,,28,214,6650046,,,,,,,2021-08-19,1,,,,,,0
377,2140003016639,新規,0,2021-08-19,2021-08-19,合同会社Ｙ’ｓ　ＩＢ　Ｋｏｂｅ,,合同会社,兵庫県,西宮市,高木西町１番７号,,28,204,6638032,,,,,,,2021-08-19,1,,,,,ワイズアイビーコウベ,0
396,2180003022872,新規,0,2021-08-19,2021-08-19,Ｂｅｎｃｈｍａｒｋ　Ｐａｒｔｎｅｒｓ合同会社,,合同会社,愛知県,名古屋市昭和区,滝川町４７番地の６（ダイアパレス八事隼人池７０６号）,,23,107,4660826,,,,,,,2021-08-19,1,,,,,ベンチマークパートナーズ,0
398,2180303005081,新規,0,2021-08-19,2021-08-19,Ｇｅｍｉｎｉ　Ｔｒａｄｉｎｇ合同会社,,合同会社,愛知県,碧南市,相生町１丁目３４,,23,209,4470862,,,,,,,2021-08-19,1,,,,,ジェミニトレーディング,0
400,2200001039032,新規,0,2021-08-19,2021-08-19,株式会社グローバルセキュリティ,,株式会社,岐阜県,岐阜市,室津町２丁目３番地,,21,201,5008859,,,,,,,2021-08-19,1,,,,,グローバルセキュリティ,0
403,2220001024362,新規,0,2021-08-19,2021-08-19,株式会社宝来,,株式会社,石川県,野々市市,押野４丁目２３４番地１,,17,212,9218802,,,,,,,2021-08-19,1,,,,,ホウライ,0
404,2220001024370,新規,0,2021-08-19,2021-08-19,株式会社ＡＡＳ,,株式会社,石川県,金沢市,泉野町１丁目１番３０号,,17,201,9218034,,,,,,,2021-08-19,1,,,,,エーエーエス,0
405,2230003001714,新規,0,2021-08-19,2021-08-19,合同会社ＶＯＩＲ　Ｔｒａｄｉｎｇ,,合同会社,富山県,射水市,作道２１４０番地１－４０６号,,16,211,9340042,,,,,,,2021-08-19,1,,,,,ボイルトレーディング,0
406,2230005009160,新規,0,2021-08-19,2021-08-19,一般社団法人射水市サッカー協会,,その他の設立登記法人,富山県,射水市,海竜町５番５号,,16,211,9330222,,,,,,,2021-08-19,1,,,,,イミズシサッカーキョウカイ,0
412,2260001035876,新規,0,2021-08-19,2021-08-19,株式会社創和カンパニー,,株式会社,岡山県,岡山市南区,郡２９８０番地１４５,,33,104,7028011,,,,,,,2021-08-19,1,,,,,ソウワカンパニー,0
418,2290001094259,新規,0,2021-08-19,2021-08-19,株式会社栄光,,株式会社,福岡県,筑紫野市,大字山家５０００番地１,,40,217,8180003,,,,,,,2021-08-19,1,,,,,エイコウ,0
428,2340001024020,新規,0,2021-08-19,2021-08-19,株式会社奄美ブルー・スカイ農園,,株式会社,鹿児島県,大島郡伊仙町,大字面縄５８９番地１,,46,532,8918114,,,,,,,2021-08-19,1,,,,,アマミブルースカイノウエン,0
430,2350001017270,新規,0,2021-08-19,2021-08-19,株式会社Ｋｏｙｏ,,株式会社,宮崎県,都城市,郡元町３４２４番地サンライズＭ１０３号,,45,202,8850013,,,,,,,2021-08-19,1,,,,,コーヨー,0
438,2380003004999,新規,0,2021-08-19,2021-08-19,Ｈ＆Ｇオフィス合同会社,,合同会社,福島県,西白河郡矢吹町,小松２２２番地,,07,466,9690271,,,,,,,2021-08-19,1,,,,,,0
451,2430001084781,新規,0,2021-08-19,2021-08-19,株式会社Ｓ．Ｊ．Ｒ,,株式会社,北海道,札幌市手稲区,前田５９０番地３１,,01,109,0060000,,,,,,,2021-08-19,1,,,,,エスジェイアール,0
452,2430003013061,新規,0,2021-08-19,2021-08-19,ディグワークス合同会社,,合同会社,北海道,札幌市北区,北七条西２丁目６番地,,01,102,0600807,,,,,,,2021-08-19,1,,,,,ディグワークス,0
461,2700150104478,新規,0,2021-08-19,2021-08-19,Ｂｌａｃｋｂｉｒｄ　ＣａｐｉｔａｌⅡ　Ｌｅａｓｉｎｇ　３　Ｌｉｍｉｔｅｄ,00123955,外国会社等,,,,,,,,３ｒｄ　Ｆｌｏｏｒ，Ｋｉｌｍｏｒｅ　Ｈｏｕｓｅ，Ｐａｒｋ　Ｌａｎｅ，Ｓｐｅｎｃｅｒ　Ｄｏｃｋ，Ｄｕｂｌｉｎ　１，Ｉｒｅｌａｎｄ,,,,,,2021-08-19,1,,,,,ブラツクバードキヤピタルツーリーシングスリーリミテツド,0
462,2700150104486,新規,0,2021-08-19,2021-08-19,Ａｌｌｉｅｄ　Ｍｅｔａｌｓ　Ｃｏｒｐｏｒａｔｉｏｎ,,外国会社等,東京都,千代田区,丸の内２丁目３－２郵船ビルディング１階,,13,101,1000005,１７５０　Ｓｔｅｐｈｅｎｓｏｎ　Ｈｗｙ　Ｔｒｏｙ　ＭＩ　４８０８３,,,,,,2021-08-19,1,,,,,アライドメタルズコーポレーシヨン,0
475,3010001220535,新規,0,2021-08-19,2021-08-19,ＡｉＭＳ株式会社,,株式会社,東京都,中央区,銀座４丁目１３番１１号松竹倶楽部ビル９階,,13,102,1040061,,,,,,,2021-08-19,1,,,,,エーアイエムエス,0
480,3010005033850,新規,0,2021-08-19,2021-08-19,アスター特定目的会社,,その他の設立登記法人,東京都,千代田区,丸の内３丁目１番１号東京共同会計事務所内,,13,101,1000005,,,,,,,2021-08-19,1,,,,,アスター,0
488,3010401162154,新規,0,2021-08-19,2021-08-19,テックアセット株式会社,,株式会社,東京都,港区,海岸１丁目１－１－２８０６,,13,103,1050022,,,,,,,2021-08-19,1,,,,,テックアセット,0
489,3010401162229,新規,0,2021-08-19,2021-08-19,株式会社Ｌｕｍｉｎａマスターリース,,株式会社,東京都,港区,虎ノ門４丁目１番２８号,,13,103,1050001,,,,,,,2021-08-19,1,,,,,ルミナマスターリース,0
491,3010403025929,新規,0,2021-08-19,2021-08-19,合同会社Ｂｉｔ　Ｅｘｐｒｅｓｓｉｏｎ,,合同会社,東京都,港区,北青山２丁目７－２０猪瀬ビル２Ｆ,,13,103,1070061,,,,,,,2021-08-19,1,,,,,ビットエクスプレッション,0
492,3010403025945,新規,0,2021-08-19,2021-08-19,虎ノ門ワン合同会社,,合同会社,東京都,港区,虎ノ門３丁目２２番１０－２０１号,,13,103,1050001,,,,,,,2021-08-19,1,,,,,トラノモンワン,0
493,3010403025953,新規,0,2021-08-19,2021-08-19,ＩＹＡＳＡＫＡ合同会社,,合同会社,東京都,港区,虎ノ門１丁目１５番７号ＴＧ１１５ビル４Ｆ,,13,103,1050001,,,,,,,2021-08-19,1,,,,,イヤサカ,0
505,3011001142174,新規,0,2021-08-19,2021-08-19,株式会社Ｔｒｉｇｇｅｒ,,株式会社,東京都,渋谷区,恵比寿４丁目２０番恵比寿ガーデンプレイスタワー１８階,,13,113,1500013,,,,,,,2021-08-19,1,,,,,トリガー,0
506,3011001142380,新規,0,2021-08-19,2021-08-19,ＣＪレインボー株式会社,,株式会社,東京都,渋谷区,神南１丁目２０番１０号７Ｆ,,13,113,1500041,,,,,,,2021-08-19,1,,,,,シージェイレインボー,0
507,3011001142406,新規,0,2021-08-19,2021-08-19,ワイズウェルス株式会社,,株式会社,東京都,目黒区,目黒１丁目４番１６号目黒Ｇビル２階,,13,110,1530063,,,,,,,2021-08-19,1,,,,,ワイズウェルス,0
511,3011101096023,新規,0,2021-08-19,2021-08-19,株式会社ＲｏｙａｌＥｍｐｅｒｏｒ,,株式会社,東京都,新宿区,新宿４丁目２番２５号３Ｆ,,13,104,1600022,,,,,,,2021-08-19,1,,,,,ロイヤルエンペラー,0
512,3011101096056,新規,0,2021-08-19,2021-08-19,株式会社トランスミュー,,株式会社,東京都,新宿区,西新宿７丁目１番１２号,,13,104,1600023,,,,,,,2021-08-19,1,,,,,トランスミュー,0
513,3011101096072,新規,0,2021-08-19,2021-08-19,株式会社グロリア,,株式会社,東京都,新宿区,大京町９番地３０,,13,104,1600015,,,,,,,2021-08-19,1,,,,,グロリア,0
514,3011103010931,新規,0,2021-08-19,2021-08-19,マッキーエデュケーション合同会社,,合同会社,東京都,新宿区,原町２丁目３０番地,,13,104,1620053,,,,,,,2021-08-19,1,,,,,マッキーエデュケーション,0
519,3011203003620,新規,0,2021-08-19,2021-08-19,合同会社パープル,,合同会社,東京都,中野区,弥生町１丁目４２番１０号メゾン・ド・サブリエ２０３,,13,114,1640013,,,,,,,2021-08-19,1,,,,,パープル,0
526,3011501027222,新規,0,2021-08-19,2021-08-19,株式会社ＴＣ　ＷＯＲＫ,,株式会社,東京都,荒川区,荒川１丁目３３番３－１５０３号,,13,118,1160002,,,,,,,2021-08-19,1,,,,,ティーシーワーク,0
533,3012401038210,新規,0,2021-08-19,2021-08-19,株式会社吉祥寺３６１,,株式会社,東京都,武蔵野市,吉祥寺南町２丁目１３番１２号,,13,203,1800003,,,,,,,2021-08-19,1,,,,,キチジョウジサンロクイチ,0
534,3012401038219,新規,0,2021-08-19,2021-08-19,株式会社柏木,,株式会社,東京都,狛江市,中和泉５丁目１０番１５号,,13,219,2010012,,,,,,,2021-08-19,1,,,,,カシワギ,0
548,3020003020338,新規,0,2021-08-19,2021-08-19,合同会社Ｍ＆Ｒ,,合同会社,神奈川県,横浜市戸塚区,名瀬町４３２番地２５,,14,110,2450051,,,,,,,2021-08-19,1,,,,,エムアンドアール,0
549,3020003020354,新規,0,2021-08-19,2021-08-19,合同会社Ａｊ企画,,合同会社,神奈川県,川崎市幸区,南加瀬５丁目１２－７グランメールＴ１０５,,14,132,2120055,,,,,,,2021-08-19,1,,,,,エージェイキカク,0
550,3020005015170,新規,0,2021-08-19,2021-08-19,ワコーレロイヤルヒルズ横浜蒔田管理組合法人,,その他の設立登記法人,神奈川県,横浜市南区,蒔田町１０１８番地１５,,14,105,2320043,,,,,,,2021-08-19,1,,,,,ワコーレロイヤルヒルズヨコハママイタ,0
555,3021001073716,新規,0,2021-08-19,2021-08-19,株式会社山勝,,株式会社,神奈川県,横須賀市,森崎５丁目１４番３５号,,14,201,2380023,,,,,,,2021-08-19,1,,,,,ヤマショウ,0
567,3030005020483,新規,0,2021-08-19,2021-08-19,社会福祉法人信証会,,その他の設立登記法人,埼玉県,ふじみ野市,駒林元町３丁目４番２号,,11,245,3560038,,,,,,,2021-08-19,1,,,,,シンショウカイ,0
568,3030005020500,新規,0,2021-08-19,2021-08-19,社会福祉法人ともに生きる会,,その他の設立登記法人,埼玉県,さいたま市西区,大字西遊馬字上サ１５９９－１，６，７,,11,101,3310061,,,,,,,2021-08-19,1,,,,,トモニイキルカイ,0
576,3040001119816,新規,0,2021-08-19,2021-08-19,株式会社Ｂｒａｃｅ,,株式会社,千葉県,我孫子市,南青山３３番地１６,,12,222,2701178,,,,,,,2021-08-19,1,,,,,ブレイス,0
579,3040003018330,新規,0,2021-08-19,2021-08-19,吉先合同会社,,合同会社,千葉県,茂原市,本納５６５番地４,,12,210,2994114,,,,,,,2021-08-19,1,,,,,ヨシサキ,0
586,3040005021316,新規,0,2021-08-19,2021-08-19,一般社団法人看取りケアはごろも,,その他の設立登記法人,千葉県,船橋市,薬円台３丁目１６番５－３０８号,,12,204,2740077,,,,,,,2021-08-19,1,,,,,ミトリケアハゴロモ,0
590,3050003006037,新規,0,2021-08-19,2021-08-19,合同会社マチコ,,合同会社,茨城県,ひたちなか市,大字金上１０３２番地アルカンシェル・Ｋ２０３,,08,221,3120022,,,,,,,2021-08-19,1,,,,,マチコ,0
592,3060001034006,新規,0,2021-08-19,2021-08-19,ＦＨ農林開発株式会社,,株式会社,栃木県,芳賀郡芳賀町,大字祖母井１６６４番地５４,,09,345,3213304,,,,,,,2021-08-19,1,,,,,エフエイチノウリンカイハツ,0
599,3080105006171,新規,0,2021-08-19,2021-08-19,一般社団法人にくきゅうず,,その他の設立登記法人,静岡県,沼津市,青野７３番地の６,,22,203,4100307,,,,,,,2021-08-19,1,,,,,ニクキュウズ,0
602,3090001017156,新規,0,2021-08-19,2021-08-19,アラクラミヤコ株式会社,,株式会社,山梨県,富士吉田市,新町２丁目５番１８号,,19,202,4030019,,,,,,,2021-08-19,1,,,,,アラクラミヤコ,0
605,3100001034538,新規,0,2021-08-19,2021-08-19,株式会社キリン商店,,株式会社,長野県,千曲市,大字戸倉５９７番地３,,20,218,3890804,,,,,,,2021-08-19,1,,,,,キリンショウテン,0
610,3110003004554,新規,0,2021-08-19,2021-08-19,ｉＮＦＯＲＭＥ合同会社,,合同会社,新潟県,新潟市中央区,美の里１７番８号,,15,103,9500924,,,,,,,2021-08-19,1,,,,,インフォルメ,0
620,3120001239795,新規,0,2021-08-19,2021-08-19,株式会社ビルトラストマネジメント,,株式会社,大阪府,大阪市西区,阿波座１丁目３番１９号,,27,106,5500011,,,,,,,2021-08-19,1,,,,,ビルトラストマネジメント,0
621,3120001239829,新規,0,2021-08-19,2021-08-19,株式会社ＮＫＴ,,株式会社,大阪府,大阪市淀川区,東三国１丁目２０番４号,,27,123,5320002,,,,,,,2021-08-19,1,,,,,エヌケイティ,0
642,3140003016654,新規,0,2021-08-19,2021-08-19,合同会社ＲＡＳ,,合同会社,兵庫県,伊丹市,中央１丁目５－５ボントンビル４階,,28,207,6640851,,,,,,,2021-08-19,1,,,,,ラス,0
646,3150003002463,新規,0,2021-08-19,2021-08-19,合同会社オールクリア,,合同会社,奈良県,磯城郡田原本町,大字新木２１６番地,,29,363,6360347,,,,,,,2021-08-19,1,,,,,オールクリア,0
657,3180001147497,新規,0,2021-08-19,2021-08-19,株式会社ＣＳＩｃｒｅａｔｉｖｅ,,株式会社,愛知県,一宮市,栄３丁目８番１４号３階,,23,203,4910858,,,,,,,2021-08-19,1,,,,,シーエスアイクリエイティブ,0
660,3180005019387,新規,0,2021-08-19,2021-08-19,一般社団法人ムーンソウルＧＩＦＴ,,その他の設立登記法人,愛知県,名古屋市天白区,高島１丁目２０３番地スカイコート１０２号,,23,116,4680022,,,,,,,2021-08-19,1,,,,,ムーンソウルギフト,0
666,3200001039007,新規,0,2021-08-19,2021-08-19,株式会社サカイ技研,,株式会社,岐阜県,可児市,今渡字後路田３１４番地,,21,214,5090207,,,,,,,2021-08-19,1,,,,,サカイギケン,0
668,3210003001401,新規,0,2021-08-19,2021-08-19,Ｓ　ｏｎｅ’ｓ合同会社,,合同会社,福井県,福井市,二の宮３丁目６番２４号,,18,201,9100015,,,,,,,2021-08-19,1,,,,,エスワンズ,0
673,3230001018949,新規,0,2021-08-19,2021-08-19,アルコットケア株式会社,,株式会社,富山県,黒部市,植木４９１番地１,,16,207,9380014,,,,,,,2021-08-19,1,,,,,アルコットケア,0
676,3240001058465,新規,0,2021-08-19,2021-08-19,株式会社Ｌｅ　Ｌｉｅｎ,,株式会社,広島県,広島市中区,新天地１番１３号１Ｆ,,34,101,7300034,,,,,,,2021-08-19,1,,,,,ルリヤン,0
678,3270003001338,新規,0,2021-08-19,2021-08-19,ｅ．Ｌｏｖｉｎｇ合同会社,,合同会社,鳥取県,米子市,河崎３１３１番地２０,,31,202,6830852,,,,,,,2021-08-19,1,,,,,イーラヴィング,0
689,3290001094241,新規,0,2021-08-19,2021-08-19,株式会社祐輝設備,,株式会社,福岡県,福岡市東区,三苫５丁目５番１５号,,40,131,8110201,,,,,,,2021-08-19,1,,,,,ユウコウセツビ,0
690,3290003011517,新規,0,2021-08-19,2021-08-19,合同会社ＲＯＶＥＲ,,合同会社,福岡県,久留米市,東合川４丁目１番２０号－１０５号,,40,203,8390809,,,,,,,2021-08-19,1,,,,,ローバー,0
699,3330003009011,新規,0,2021-08-19,2021-08-19,合同会社ココロキラメク,,合同会社,熊本県,菊池郡菊陽町,光の森１丁目３番地１,,43,404,8691108,,,,,,,2021-08-19,1,,,,,ココロキラメク,0
701,3340003003525,新規,0,2021-08-19,2021-08-19,ＮＯＴＡＭ合同会社,,合同会社,鹿児島県,薩摩川内市,平佐１丁目３６番地ＮＫビル３０３号,,46,215,8950012,,,,,,,2021-08-19,1,,,,,ノータム,0
708,3360003011336,新規,0,2021-08-19,2021-08-19,Ｙ’ｓ合同会社,,合同会社,沖縄県,那覇市,山下町１８番２６号Ａ２０６,,47,201,9000027,,,,,,,2021-08-19,1,,,,,,0
723,3430001084772,新規,0,2021-08-19,2021-08-19,株式会社愛成,,株式会社,北海道,室蘭市,日の出町１丁目２１番２１号,,01,205,0500081,,,,,,,2021-08-19,1,,,,,アイセイ,0
724,3430001084780,新規,0,2021-08-19,2021-08-19,ユナイテッド北海道株式会社,,株式会社,北海道,札幌市中央区,南一条西１１丁目３２７番地,,01,101,0600061,,,,,,,2021-08-19,1,,,,,ユナイテッドホッカイドウ,0
728,3430003013060,新規,0,2021-08-19,2021-08-19,ｋｏｋｏｎｉｋｏ合同会社,,合同会社,北海道,札幌市中央区,南六条西１２丁目１３０１番地１クレステージ１１０１号,,01,101,0640806,,,,,,,2021-08-19,1,,,,,ココニコ,0
744,3700150104469,新規,0,2021-08-19,2021-08-19,ＹＡＳＫＡＷＡ　Ｉｎｄｉａ　Ｐｒｉｖａｔｅ　Ｌｉｍｉｔｅｄ,,外国会社等,,,,,,,,＃１７／Ａ，Ｅｌｅｃｔｒｏｎｉｃ　Ｃｉｔｙ，Ｈｏｓｕｒ　Ｒｏａｄ，，Ｂａｎｇａｌｏｒｅ－５６０１００，Ｋａｒｎａｔａｋａ，ＩＮＤＩＡ,,,,,,2021-08-19,1,,,,,ヤスカワインデイアプライベートリミテツド,0
745,3700150104477,新規,0,2021-08-19,2021-08-19,Ｂｒａｎｄｓ　Ｄｏｍｅ　Ｌｉｍｉｔｅｄ,,外国会社等,,,,,,,,７１－７５　Ｓｈｅｌｔｏｎ　Ｓｔｒｅｅｔ，Ｃｏｖｅｎｔ　Ｇａｒｄｅｎ，Ｌｏｎｄｏｎ，Ｅｎｇｌａｎｄ,,,,,,2021-08-19,1,,,,,ブランズドームリミテツド,0
746,3700150104485,新規,0,2021-08-19,2021-08-19,カタールガス　オペレーティングカンパニーリミテッド　日本連絡事務所,,外国会社等,東京都,千代田区,大手町１丁目９番２号大手町フィナンシャルシティ　グランキューブ　１８階,,13,101,1000004,ＰＯ　ＢＯＸ　２２６６６　ＱＡＴＡＲＧＡＳ　ＤＯＨＡ　ＨＥＡＤ　ＯＦＦＩＣＥ，ＤＯＨＡ，ＱＡＴＡＲ,,,,,,2021-08-19,1,,,,,カタールガスオペレーテイングカンパニーリミテツドニホンレンラクジムシヨ,0
751,4010003035633,新規,0,2021-08-19,2021-08-19,合同会社ＰＴＧフィットネス,,合同会社,東京都,千代田区,神田須田町２丁目１番地３ＢＰ秋葉原ビル２Ｆ,,13,101,1010041,,,,,,,2021-08-19,1,,,,,ピーティージーフィットネス,0
765,4010401162236,新規,0,2021-08-19,2021-08-19,株式会社ポラリス,,株式会社,東京都,港区,赤坂４丁目１３番１８号,,13,103,1070052,,,,,,,2021-08-19,1,,,,,ポラリス,0
768,4010403025928,新規,0,2021-08-19,2021-08-19,合同会社ＳＡＲＡＹＵ,,合同会社,東京都,港区,浜松町２丁目２番１５号浜松町ダイヤビル２Ｆ,,13,103,1050013,,,,,,,2021-08-19,1,,,,,サラユ,0
769,4010403025960,新規,0,2021-08-19,2021-08-19,合同会社オービーイー,,合同会社,東京都,港区,元赤坂１丁目１番８号赤坂コミュニティビル４階,,13,103,1070051,,,,,,,2021-08-19,1,,,,,オービーイー,0
797,4011101096039,新規,0,2021-08-19,2021-08-19,株式会社ＳＭＨ,,株式会社,東京都,新宿区,西新宿１丁目２０番３号西新宿高木ビル７階,,13,104,1600023,,,,,,,2021-08-19,1,,,,,エスエムエイチ,0
798,4011101096047,新規,0,2021-08-19,2021-08-19,株式会社ベオスアイティーブレーン,,株式会社,東京都,新宿区,西新宿４丁目２３－９,,13,104,1600023,,,,,,,2021-08-19,1,,,,,ベオスアイティーブレーン,0
799,4011101096055,新規,0,2021-08-19,2021-08-19,株式会社ＨＩＬＳ,,株式会社,東京都,新宿区,西新宿５丁目１０番１０号３階,,13,104,1600023,,,,,,,2021-08-19,1,,,,,ヒルズ,0
800,4011101096063,新規,0,2021-08-19,2021-08-19,株式会社ＭＤＦ　Ｎｅｘｕｓ　Ｇｒｏｕｐ,,株式会社,東京都,新宿区,西新宿４丁目８番１５－３０１号,,13,104,1600023,,,,,,,2021-08-19,1,,,,,エムディーエフネクサスグループ,0
801,4011101096071,新規,0,2021-08-19,2021-08-19,株式会社Ｄｏｏｒｓ,,株式会社,東京都,新宿区,西新宿７丁目２－６西新宿Ｋ－１ビル３階,,13,104,1600023,,,,,,,2021-08-19,1,,,,,ドアーズ,0
810,4011703002922,新規,0,2021-08-19,2021-08-19,合同会社ブレインマインド,,合同会社,東京都,江戸川区,中葛西５丁目３番５号,,13,123,1340083,,,,,,,2021-08-19,1,,,,,ブレインマインド,0
813,4012303001579,新規,0,2021-08-19,2021-08-19,合同会社南十字舍,,合同会社,東京都,町田市,南町田３丁目３１番１８号,,13,209,1940005,,,,,,,2021-08-19,1,,,,,ミナミジュウジシャ,0
818,4012401038201,新規,0,2021-08-19,2021-08-19,株式会社ｌａ　ｖｉｔａ,,株式会社,東京都,調布市,緑ケ丘２丁目５番地５０,,13,208,1820001,,,,,,,2021-08-19,1,,,,,ラヴィータ,0
824,4013303005792,新規,0,2021-08-19,2021-08-19,ソラシド合同会社,,合同会社,東京都,豊島区,南大塚３丁目４３－７,,13,116,1700005,,,,,,,2021-08-19,1,,,,,ソラシド,0
839,4020001142653,新規,0,2021-08-19,2021-08-19,株式会社ＥＳＣＡＰＥ,,株式会社,神奈川県,川崎市多摩区,生田７丁目１４番２０－２０８号,,14,135,2140038,,,,,,,2021-08-19,1,,,,,エスケープ,0
849,4021003010815,新規,0,2021-08-19,2021-08-19,合同会社パティスリーｉｒｏｄｏｒｉ,,合同会社,神奈川県,綾瀬市,深谷中２丁目２番４３号,,14,218,2521107,,,,,,,2021-08-19,1,,,,,パティスリーイロドリ,0
859,4030003017794,新規,0,2021-08-19,2021-08-19,合同会社ブリング,,合同会社,埼玉県,所沢市,くすのき台３丁目１０番地の２レジェンドくすのき台１０１,,11,208,3590037,,,,,,,2021-08-19,1,,,,,ブリング,0
867,4040001119848,新規,0,2021-08-19,2021-08-19,赤鯥商会株式会社,00123971,株式会社,千葉県,船橋市,東船橋４丁目３５番２２－１０１号,,12,204,2730002,,,,,,,2021-08-19,1,,,,,アカムツショウカイ,0
869,4040003018338,新規,0,2021-08-19,2021-08-19,ＡＮ　ＦＵＴＡＷＡ　ＬＡＮＫＡ合同会社,,合同会社,千葉県,船橋市,二和西６丁目２６－２メゾン大野１０１号室,,12,204,2740806,,,,,,,2021-08-19,1,,,,,エーエヌフタワランカ,0
870,4040003018346,新規,0,2021-08-19,2021-08-19,合同会社栄盛商事,,合同会社,千葉県,市川市,中国分３丁目１１番２０号,,12,203,2720835,,,,,,,2021-08-19,1,,,,,エイモリショウジ,0
871,4040003018354,新規,0,2021-08-19,2021-08-19,イースタンフォート合同会社,,合同会社,千葉県,船橋市,夏見台３丁目１０番３棟３０１号,,12,204,2730866,,,,,,,2021-08-19,1,,,,,イースタンフォート,0
872,4040003018362,新規,0,2021-08-19,2021-08-19,合同会社Ｒａｃｙ’ｓ,,合同会社,千葉県,千葉市緑区,誉田町１丁目８２９－９グリーンハイツイマイ８－１０２,,12,105,2660005,,,,,,,2021-08-19,1,,,,,ラシーズ,0
884,4060003003783,新規,0,2021-08-19,2021-08-19,合同会社結城企画,,合同会社,栃木県,宇都宮市,インターパーク２丁目６番地８,,09,201,3210118,,,,,,,2021-08-19,1,,,,,ユウキキカク,0
890,4100001034537,新規,0,2021-08-19,2021-08-19,株式会社ＴＡＫＵＭＩ,,株式会社,長野県,中野市,大字一本木１７４番地１号,,20,211,3830012,,,,,,,2021-08-19,1,,,,,タクミ,0
892,4100003006212,新規,0,2021-08-19,2021-08-19,合同会社Ｃｌａｓｓｙ　Ｄｉｎｉｎｇ　Ｓｅｒｖｉｃｅ,,合同会社,長野県,松本市,中央１丁目６番１号東洋ビル１・２階,,20,202,3900811,,,,,,,2021-08-19,1,,,,,クラッシーダイニングサービス,0
903,4120001239794,新規,0,2021-08-19,2021-08-19,株式会社麦鶏,,株式会社,大阪府,大阪市中央区,南船場３丁目１番１６号,,27,128,5420081,,,,,,,2021-08-19,1,,,,,ムギトリ,0
904,4120001239836,新規,0,2021-08-19,2021-08-19,株式会社介護のトリセツ,,株式会社,大阪府,大阪市生野区,生野東２丁目８－１０,,27,116,5440025,,,,,,,2021-08-19,1,,,,,カイゴノトリセツ,0
911,4120903003785,新規,0,2021-08-19,2021-08-19,ＣＨＩＡＱＥ合同会社,,合同会社,大阪府,吹田市,豊津町９－２２,,27,205,5640051,,,,,,,2021-08-19,1,,,,,チアキ,0
912,4122003002148,新規,0,2021-08-19,2021-08-19,合同会社くるみ,,合同会社,大阪府,八尾市,天王寺屋６丁目５０－１０２,,27,212,5810025,,,,,,,2021-08-19,1,,,,,クルミ,0
923,4140001122701,新規,0,2021-08-19,2021-08-19,株式会社エンビー,,株式会社,兵庫県,尼崎市,神崎町２－１３－１０１号室,,28,202,6610964,,,,,,,2021-08-19,1,,,,,エンビー,0
925,4140003016645,新規,0,2021-08-19,2021-08-19,播但社中合同会社,,合同会社,兵庫県,姫路市,北今宿２丁目３番４１号－１Ｆ,,28,201,6700057,,,,,,,2021-08-19,1,,,,,バンタンシャチュウ,0
934,4180001147455,新規,0,2021-08-19,2021-08-19,株式会社ＡＮＳＨＩＮ,,株式会社,愛知県,名古屋市中川区,吉津３丁目２００４番地,,23,110,4540981,,,,,,,2021-08-19,1,,,,,アンシン,0
942,4200001039030,新規,0,2021-08-19,2021-08-19,株式会社ツチモト建築,,株式会社,岐阜県,岐阜市,溝口上１１５番地,,21,201,5012557,,,,,,,2021-08-19,1,,,,,ツチモトケンチク,0
944,4220001024369,新規,0,2021-08-19,2021-08-19,株式会社Ｍｂｓ　ｌａｂｏ,,株式会社,石川県,加賀市,小菅波町２丁目９番地１,,17,206,9220424,,,,,,,2021-08-19,1,,,,,エムビーエスラボ,0
953,4260001035882,新規,0,2021-08-19,2021-08-19,株式会社スタイルエープラス,,株式会社,岡山県,岡山市北区,辰巳４２－１０１パサージュ１０１ビル３０２Ｂ,,33,101,7000976,,,,,,,2021-08-19,1,,,,,スタイルエープラスプラス,0
961,4290003011516,新規,0,2021-08-19,2021-08-19,合同会社イーリスバンコ,,合同会社,福岡県,糸島市,二丈深江９０５番地５,,40,230,8191601,,,,,,,2021-08-19,1,,,,,イーリスバンコ,0
965,4310003004137,新規,0,2021-08-19,2021-08-19,合同会社亜維子,,合同会社,長崎県,大村市,平町１５５５番地１２,,42,205,8560042,,,,,,,2021-08-19,1,,,,,アイコ,0
969,4350001017269,新規,0,2021-08-19,2021-08-19,ミンチ株式会社,,株式会社,宮崎県,宮崎市,橘通東３丁目６番３号冨山ビル１０２,,45,201,8800805,,,,,,,2021-08-19,1,,,,,ミンチ,0
971,4360003011368,新規,0,2021-08-19,2021-08-19,合同会社ＤＯＨＺＯ,,合同会社,沖縄県,那覇市,泊１丁目３番地２,,47,201,9000012,,,,,,,2021-08-19,1,,,,,ドウゾ,0
974,4380001032125,新規,0,2021-08-19,2021-08-19,株式会社サイドストーリー,,株式会社,福島県,双葉郡楢葉町,大字井出字木屋６０番地３サンライズマンションＡ２０２,,07,542,9790603,,,,,,,2021-08-19,1,,,,,サイドストーリー,0
975,4380001032133,新規,0,2021-08-19,2021-08-19,株式会社会津猪苗代観光ファーム,,株式会社,福島県,耶麻郡猪苗代町,字葉山７１０５番地,,07,408,9693102,,,,,,,2021-08-19,1,,,,,,0
980,4410001012940,新規,0,2021-08-19,2021-08-19,株式会社ハリマヤ,,株式会社,秋田県,秋田市,山王６丁目３番７－１０１号,,05,201,0100951,,,,,,,2021-08-19,1,,,,,ハリマヤ,0
985,4430001084788,新規,0,2021-08-19,2021-08-19,株式会社西商,,株式会社,北海道,札幌市中央区,南五条西２４丁目１番１６号,,01,101,0640805,,,,,,,2021-08-19,1,,,,,ニシショウ,0
987,4430003013068,新規,0,2021-08-19,2021-08-19,合同会社ＣＬＥＤコンサルティング,,合同会社,北海道,江別市,野幌住吉町１番地の１３,,01,217,0690816,,,,,,,2021-08-19,1,,,,,スィエルイーディーコンサルティング,0
990,4480003001712,新規,0,2021-08-19,2021-08-19,合同会社慎,,合同会社,徳島県,三好市,井川町御領田２１番地１,,36,208,7794802,,,,,,,2021-08-19,1,,,,,マコト,0
994,4700150104468,新規,0,2021-08-19,2021-08-19,キーノ香港有限会社　日本事業所,,外国会社等,東京都,中央区,東日本橋２丁目２８番５号５０８,,13,102,1030004,香港干諾道中１３７－１３９號三台大厦１２字＿全層,00123855,,,,,2021-08-19,1,,,,,キーノホンコンユウゲンガイシヤニホンジギヨウシヨ,0
995,4700150104476,新規,0,2021-08-19,2021-08-19,ＵＮＩＲＯ　ＣＲＥＡＴＩＯＮＳ　ＰＲＩＶＡＴＥ　ＬＩＭＩＴＥＤ,,外国会社等,千葉県,富里市,立沢新田４８番地２５３,,12,233,2860215,スリランカ，ミレワ，モラガハヘナ，アッカラ２５，４２０－１,,,,,,2021-08-19,1,,,,,ユニロクリエーシヨンズプライベートリミテツド,0
996,4700150104484,新規,0,2021-08-19,2021-08-19,ＴＲＵＳＴ　ＭＡＲＫＥＴＩＮＧ　ＡＮＤ　ＨＯＬＤＩＮＧ　ＰＶＴ　ＬＴＤ,,外国会社等,千葉県,四街道市,大日８３６番地オフィス３号,,12,228,2840001,スリランカ，キャンディ，アラワトゥゴダ，マワトゥポラ，タンネゲダラ，９６－３,,,,,,2021-08-19,1,,,,,トラストマーケテイングアンドホールデイングピーヴイテイエルテイデイ,0
997,4700150104492,新規,0,2021-08-19,2021-08-19,ゴールドマン・サックス・バンクＵＳＡ,,外国会社等,東京都,港区,六本木６丁目１０－１六本木ヒルズ森タワー,,13,103,1060032,アメリカ合衆国１０２８２ニューヨーク州ニューヨーク、ウェスト・ストリート２００,,,,,,2021-08-19,1,,,,,ゴールドマンサツクスバンクユーエスエー,0
1005,5010001220517,新規,0,2021-08-19,2021-08-19,ＩＣＯＮＡ　ＤＥＳＩＧＮ　ＧＲＯＵＰ　ＪＡＰＡＮ株式会社,,株式会社,東京都,中央区,銀座６丁目１４番８号,,13,102,1040061,,,,,,,2021-08-19,1,,,,,イコーナデザイングループジャパン,0
1010,5010003035640,新規,0,2021-08-19,2021-08-19,ＩＰ　Ｊａｐａｎ合同会社,,合同会社,東京都,千代田区,丸の内１丁目８番１号,,13,101,1000005,,,,,,,2021-08-19,1,,,,,アイピージャパン,0
1011,5010005033808,新規,0,2021-08-19,2021-08-19,ＡＰＧ特定目的会社,,その他の設立登記法人,東京都,千代田区,霞が関３丁目２番５号,,13,101,1000013,,,,,,,2021-08-19,1,,,,,エーピージー,0
1012,5010101014819,新規,0,2021-08-19,2021-08-19,株式会社電気印刷研究所,,株式会社,東京都,八王子市,元八王子町３丁目２７５０番地７２３,,13,201,1930826,,,,,,,2021-08-19,1,,,,,,0
1016,5010401162227,新規,0,2021-08-19,2021-08-19,株式会社ＭＥＴＥＴ,,株式会社,東京都,港区,麻布台３丁目５番３－３０１号,,13,103,1060041,,,,,,,2021-08-19,1,,,,,メテット,0
1017,5010401162235,新規,0,2021-08-19,2021-08-19,ＩＴアビエーションサポート株式会社,,株式会社,東京都,港区,南麻布２丁目１１番１０号,,13,103,1060047,,,,,,,2021-08-19,1,,,,,アイティアビエーションサポート,0
1036,5011001142354,新規,0,2021-08-19,2021-08-19,株式会社ＷＡＢＵＫＩ,,株式会社,東京都,渋谷区,猿楽町９番５－８０１号,,13,113,1500033,,,,,,,2021-08-19,1,,,,,ワブキ,0
1037,5011001142370,新規,0,2021-08-19,2021-08-19,株式会社ＩＫＧ,,株式会社,東京都,渋谷区,渋谷１丁目２３番２５号,,13,113,1500002,,,,,,,2021-08-19,1,,,,,アイケージー,0
1038,5011001142379,新規,0,2021-08-19,2021-08-19,株式会社Ｋ設計,,株式会社,東京都,渋谷区,上原３丁目１８番１号,,13,113,1510064,,,,,,,2021-08-19,1,,,,,ケイセッケイ,0
1039,5011003013223,新規,0,2021-08-19,2021-08-19,合同会社トラストバンク宮崎,,合同会社,東京都,渋谷区,渋谷２丁目２４番１２号,,13,113,1500002,,,,,,,2021-08-19,1,,,,,トラストバンクミヤザキ,0
1043,5011101096038,新規,0,2021-08-19,2021-08-19,株式会社ＺＡＲＩＮ　ＩＮＴＥＲＮＡＴＩＯＮＡＬ,,株式会社,東京都,新宿区,百人町２丁目１３番１７号フラットアイ３０２,,13,104,1690073,,,,,,,2021-08-19,1,,,,,ザリンインターナショナル,0
1044,5011101096054,新規,0,2021-08-19,2021-08-19,ミカタスキーム株式会社,,株式会社,東京都,新宿区,下落合３丁目１６番１７号４０１号室,,13,104,1610033,,,,,,,2021-08-19,1,,,,,ミカタスキーム,0
1045,5011101096062,新規,0,2021-08-19,2021-08-19,株式会社ＡＸＩＳ　ＯＮＥ,,株式会社,東京都,新宿区,新宿１丁目１９番６号ＩＳビル５０２,,13,104,1600022,,,,,,,2021-08-19,1,,,,,アクシスワン,0
1048,5011303004137,新規,0,2021-08-19,2021-08-19,直蔵合同会社,,合同会社,東京都,杉並区,堀ノ内３丁目１６番４５－３号,,13,115,1660013,,,,,,,2021-08-19,1,,,,,ナオゾウ,0
1051,5011505002418,新規,0,2021-08-19,2021-08-19,一般社団法人マザーシップ,,その他の設立登記法人,東京都,荒川区,町屋２丁目１３番１号,,13,118,1160001,,,,,,,2021-08-19,1,,,,,マザーシップ,0
1053,5011701024637,新規,0,2021-08-19,2021-08-19,株式会社ＮＭＴ,,株式会社,東京都,江戸川区,西小岩１丁目１６番２号,,13,123,1330057,,,,,,,2021-08-19,1,,,,,エヌエムティー,0
1054,5011703002921,新規,0,2021-08-19,2021-08-19,合同会社ｚａａｋｙ,,合同会社,東京都,江戸川区,南小岩８丁目１４番２１号相國第三ビル２０１号室,,13,123,1330056,,,,,,,2021-08-19,1,,,,,,0
1061,5013301047877,新規,0,2021-08-19,2021-08-19,株式会社デジタルリープ,,株式会社,東京都,豊島区,東池袋１丁目１７番１１号パークハイツ池袋１１０５号,,13,116,1700013,,,,,,,2021-08-19,1,,,,,デジタルリープ,0
1062,5013303005783,新規,0,2021-08-19,2021-08-19,合同会社ＤＩＥＵ,,合同会社,東京都,豊島区,西池袋１丁目４１番２号池袋東通ビル２Ｆ,,13,116,1710021,,,,,,,2021-08-19,1,,,,,デュー,0
1071,5020001142652,新規,0,2021-08-19,2021-08-19,株式会社お掃除パトロール,,株式会社,神奈川県,横浜市鶴見区,東寺尾北台７－２７,,14,101,2300016,,,,,,,2021-08-19,1,,,,,オソウジパトロール,0
1072,5020001142669,新規,0,2021-08-19,2021-08-19,ＫＩＲＡＮ株式会社,,株式会社,神奈川県,川崎市中原区,新丸子東２丁目９２６－１５－１０１,,14,133,2110004,,,,,,,2021-08-19,1,,,,,キラン,0
1077,5021001073697,新規,0,2021-08-19,2021-08-19,株式会社ＥＭＺＥＱ,,株式会社,神奈川県,大和市,深見３５４５番地３,,14,213,2420011,,,,,,,2021-08-19,1,,,,,エムゼック,0
1078,5021001073714,新規,0,2021-08-19,2021-08-19,株式会社ＲＡＭＳ,,株式会社,神奈川県,秦野市,三屋１０９番地の１１,,14,211,2591303,,,,,,,2021-08-19,1,,,,,ラムズ,0
1090,5030001143930,新規,0,2021-08-19,2021-08-19,株式会社ツバサ工業,,株式会社,埼玉県,川越市,大字砂新田１７６８番地１０,,11,201,3501137,,,,,,,2021-08-19,1,,,,,ツバサコウギョウ,0
1093,5030003017802,新規,0,2021-08-19,2021-08-19,合同会社Ｍ・Ａ,,合同会社,埼玉県,さいたま市緑区,大字大門９４０番地８,,11,109,3360963,,,,,,,2021-08-19,1,,,,,エムエー,0
1096,5040001119830,新規,0,2021-08-19,2021-08-19,株式会社Ｒ＆Ｃホールディングス,,株式会社,千葉県,柏市,松葉町２丁目６番地１－２階,,12,217,2770827,,,,,,,2021-08-19,1,,,,,アールアンドシーホールディングス,0
1097,5040001119847,新規,0,2021-08-19,2021-08-19,株式会社パラボ,,株式会社,千葉県,松戸市,八ケ崎６丁目５５番地の１５,,12,207,2700023,,,,,,,2021-08-19,1,,,,,パラボ,0
1098,5040001119855,新規,0,2021-08-19,2021-08-19,株式会社ＨＡＲＵ,,株式会社,千葉県,習志野市,東習志野１丁目９番４８号,,12,216,2750001,,,,,,,2021-08-19,1,,,,,ハル,0
1101,5040003018337,新規,0,2021-08-19,2021-08-19,ＷＡＮＩＧＡＰＵＲＡ合同会社,,合同会社,千葉県,千葉市花見川区,浪花町３－１６ケミハイツ１０５号室,,12,102,2620024,,,,,,,2021-08-19,1,,,,,ワニガプラ,0
1102,5040003018353,新規,0,2021-08-19,2021-08-19,合同会社Ｒｏｓｅ・Ｃａｂ,,合同会社,千葉県,千葉市花見川区,浪花町９５７番地２８,,12,102,2620024,,,,,,,2021-08-19,1,,,,,ローズキャブ,0
1103,5040003018361,新規,0,2021-08-19,2021-08-19,合同会社ｓｈｅｎｚ　ａｕｔｏｔｒａｄｅ　ｊａｐａｎ,,合同会社,千葉県,野田市,山崎２６３５－７ＨＭレジデンスＡ２０２,,12,208,2780022,,,,,,,2021-08-19,1,,,,,シェーンズオートトレードジャパン,0
1108,5050003006035,新規,0,2021-08-19,2021-08-19,合同会社ＦＬＳ,,合同会社,茨城県,つくば市,春風台３番地５,,08,220,3050007,,,,,,,2021-08-19,1,,,,,エフエルエス,0
1109,5050005012915,新規,0,2021-08-19,2021-08-19,特定非営利活動法人ｉｚｕｍｉ,,その他の設立登記法人,茨城県,日立市,大沼町２丁目１番２５号,,08,202,3160022,,,,,,,2021-08-19,1,,,,,イズミ,0
1110,5060001034004,新規,0,2021-08-19,2021-08-19,株式会社岩瀬,,株式会社,栃木県,宇都宮市,今泉新町２６７番地３,,09,201,3210961,,,,,,,2021-08-19,1,,,,,イワセ,0
1113,5060003003774,新規,0,2021-08-19,2021-08-19,合同会社ａｔａｃａｎａ,,合同会社,栃木県,下野市,緑３丁目２０番地１０,,09,216,3290433,,,,,,,2021-08-19,1,,,,,,0
1117,5080103002402,新規,0,2021-08-19,2021-08-19,ＣＮＬプラス合同会社,,合同会社,静岡県,富士市,高島町１３９番地ラ・フォンテ高島町１０３号室,,22,210,4170048,,,,,,,2021-08-19,1,,,,,シーエヌエルプラス,0
1118,5080401025261,新規,0,2021-08-19,2021-08-19,パロアルト株式会社,,株式会社,静岡県,浜松市中区,城北３丁目５番１号静岡大学イノベーション社会連携推進機構棟,,22,131,4328011,,,,,,,2021-08-19,1,,,,,パロアルト,0
1119,5080401025278,新規,0,2021-08-19,2021-08-19,Ｗｉｎｃｈｅｓｔｅｒ株式会社,,株式会社,静岡県,浜松市中区,鍛冶町２番地の５,,22,131,4300933,,,,,,,2021-08-19,1,,,,,ウィンチェスター,0
1123,5100003006211,新規,0,2021-08-19,2021-08-19,合同会社どうろくじんば,,合同会社,長野県,千曲市,大字上山田１２４０番地,,20,218,3890822,,,,,,,2021-08-19,1,,,,,ドウロクジンバ,0
1132,5120001239793,新規,0,2021-08-19,2021-08-19,株式会社神さまのごはん,,株式会社,大阪府,大阪市中央区,玉造２丁目１５番９号,,27,128,5400004,,,,,,,2021-08-19,1,,,,,カミサマノゴハン,0
1133,5120001239819,新規,0,2021-08-19,2021-08-19,敦行株式会社,,株式会社,大阪府,大阪市都島区,東野田町４丁目５－２翠蓮マンション４０１号室,,27,102,5340024,,,,,,,2021-08-19,1,,,,,トンコウ,0
1134,5120001239827,新規,0,2021-08-19,2021-08-19,株式会社ＳＯＺ,,株式会社,大阪府,大阪市中央区,東心斎橋２丁目８番５号,,27,128,5420083,,,,,,,2021-08-19,1,,,,,エスオーゼット,0
1135,5120001239843,新規,0,2021-08-19,2021-08-19,株式会社ＳｅｅＬｓ,,株式会社,大阪府,大阪市淀川区,野中南２丁目１０番５４－５０３号,,27,123,5320022,,,,,,,2021-08-19,1,,,,,シール,0
1139,5120103004303,新規,0,2021-08-19,2021-08-19,合同会社Ｉ’ｍ,,合同会社,大阪府,富田林市,西板持町２丁目１番１号,,27,214,5840048,,,,,,,2021-08-19,1,,,,,アイム,0
1149,5140003016644,新規,0,2021-08-19,2021-08-19,ＡＲＴ＆ＳＯＵＬ合同会社,,合同会社,兵庫県,神戸市東灘区,深江南町１丁目１番５４－３０９号,,28,101,6580022,,,,,,,2021-08-19,1,,,,,アートアンドソウル,0
1156,5170001016726,新規,0,2021-08-19,2021-08-19,株式会社ＭＫ足場,,株式会社,和歌山県,和歌山市,松島１７０番地１４,,30,201,6408304,,,,,,,2021-08-19,1,,,,,エムケイアシバ,0
1161,5180001147479,新規,0,2021-08-19,2021-08-19,株式会社佐藤商事,,株式会社,愛知県,愛西市,日置町髭田１０３番地,,23,232,4960906,,,,,,,2021-08-19,1,,,,,サトウショウジ,0
1162,5180001147487,新規,0,2021-08-19,2021-08-19,株式会社七彩,,株式会社,愛知県,名古屋市中区,新栄１丁目４－２－３０１,,23,106,4600007,,,,,,,2021-08-19,1,,,,,ナナセ,0
1164,5180005019402,新規,0,2021-08-19,2021-08-19,エイドワン協同組合,,その他の設立登記法人,愛知県,名古屋市港区,七番町５丁目４番地５,,23,111,4550001,,,,,,,2021-08-19,1,,,,,エイドワン,0
1168,5200001038997,新規,0,2021-08-19,2021-08-19,イビデンヒューマンネットワーク株式会社,,株式会社,岐阜県,大垣市,神田町２丁目１番地,,21,202,5030917,,,,,,,2021-08-19,1,,,,,イビデンヒューマンネットワーク,0
1172,5220001024368,新規,0,2021-08-19,2021-08-19,株式会社クラウド,,株式会社,石川県,金沢市,新神田１丁目１２番１号,,17,201,9218013,,,,,,,2021-08-19,1,,,,,クラウド,0
1183,5270003001336,新規,0,2021-08-19,2021-08-19,勇永建設合同会社,,合同会社,鳥取県,米子市,西福原３丁目７－３２－１０４,,31,202,6830805,,,,,,,2021-08-19,1,,,,,ユウエイケンセツ,0
1184,5280001008497,新規,0,2021-08-19,2021-08-19,株式会社山陰総合住宅,,株式会社,島根県,松江市,古志原６丁目１０－１３,,32,201,6900012,,,,,,,2021-08-19,1,,,,,サンインソウゴウジュウタク,0
1191,5290001094248,新規,0,2021-08-19,2021-08-19,株式会社ｓｐｏｏｄｅ,,株式会社,福岡県,福岡市南区,長住７丁目５番１号ボーナ長住,,40,134,8111362,,,,,,,2021-08-19,1,,,,,スプーデ,0
1199,5310003004136,新規,0,2021-08-19,2021-08-19,合同会社ディーディーディー,,合同会社,長崎県,大村市,黒丸町５１４番地２,,42,205,8560808,,,,,,,2021-08-19,1,,,,,ディーディーディー,0
1202,5340001024018,新規,0,2021-08-19,2021-08-19,株式会社ミライフケア,,株式会社,鹿児島県,霧島市,国分福島１丁目２番２６号,,46,218,8994322,,,,,,,2021-08-19,1,,,,,ミライフケア,0
1206,5360001029262,新規,0,2021-08-19,2021-08-19,株式会社Ｐｏｓｉｔｉｏｎ,,株式会社,沖縄県,那覇市,久茂地２丁目６番２５号ランドマークくもじ７Ｆ,,47,201,9000015,,,,,,,2021-08-19,1,,,,,ポジション,0
1213,5370003005327,新規,0,2021-08-19,2021-08-19,ｌｉｆｔ合同会社,,合同会社,宮城県,黒川郡大和町,杜の丘２丁目２０番地の１４,,04,421,9813628,,,,,,,2021-08-19,1,,,,,,0
1214,5370003005351,新規,0,2021-08-19,2021-08-19,合同会社ささきさん,,合同会社,宮城県,仙台市太白区,長町５丁目３－１ライオンズタワー仙台長町１３０８号室,,04,104,9820011,,,,,,,2021-08-19,1,,,,,ササキサン,0
1215,5370005010333,新規,0,2021-08-19,2021-08-19,一般社団法人みやぎたけのこ会,,その他の設立登記法人,宮城県,岩沼市,本町４番３１号,,04,211,9892444,,,,,,,2021-08-19,1,,,,,ミヤギタケノコカイ,0
1232,5430001084779,新規,0,2021-08-19,2021-08-19,アドバンストラスト株式会社,,株式会社,北海道,札幌市東区,東雁来十四条４丁目３番１号,,01,103,0070034,,,,,,,2021-08-19,1,,,,,アドバンストラスト,0
1234,5430005014253,新規,0,2021-08-19,2021-08-19,一般社団法人スポーツ環境デザイン研究所,,その他の設立登記法人,北海道,江別市,上江別西町４番地の３０ＣＵＢＥ１０２,,01,217,0670063,,,,,,,2021-08-19,1,,,,,スポーツカンキョウデザインケンキュウジョ,0
1235,5450001013447,新規,0,2021-08-19,2021-08-19,株式会社北の音工房,,株式会社,北海道,旭川市,神居二条１４丁目２番３号,,01,204,0708012,,,,,,,2021-08-19,1,,,,,キタノオトコウボウ,0
1237,5470001018667,新規,0,2021-08-19,2021-08-19,株式会社ＮｅｘｔＳｔａｇｅ,,株式会社,香川県,高松市,木太町４６９９番地７,,37,201,7600080,,,,,,,2021-08-19,1,,,,,ネクストステージ,0
1240,5700150104467,新規,0,2021-08-19,2021-08-19,高輪物業有限公司,,外国会社等,東京都,品川区,東五反田３丁目２１番ＫＤＡ御殿山,,13,109,1410022,１１ＴＨ　ＦＬＯＯＲ，ＫＷＡＩ　ＣＨＥＯＮＧ　８８　ＢＵＩＬＤＩＮＧ，８８　ＫＷＡＩ　ＣＨＥＯＮＧ　ＲＯＡＤ，ＫＷＡＩ　ＣＨＵＮＧ，Ｎ．Ｔ．，ＨＯＮＧ　ＫＯＮＧ．,,,,,,2021-08-19,1,,,,,タカナワブツギヨウユウゲンコウシ,0
1241,5700150104475,新規,0,2021-08-19,2021-08-19,ＣＮＳ　ＡＵＴＯ　ＣＡＲＥ,,外国会社等,千葉県,富里市,十倉９０４－４３十倉オフィス１,,12,233,2860212,スリランカ，ボラレスガムワ，アラリヤマワサ，Ｎｏ．３４４／１７,,,,,,2021-08-19,1,,,,,シーエヌエスオートケア,0
1242,5700150104483,新規,0,2021-08-19,2021-08-19,Ｃｒａｙ　Ｉｎｃ,,外国会社等,,,,,,,,１１４４５　Ｃｏｍｐａｑ　Ｃｅｎｔｅｒ　Ｄｒｉｖｅ　Ｗｅｓｔ　Ｈｏｕｓｔｏｎ，Ｔｅｘａｓ　７７０７０，ＵＳＡ,,,,,,2021-08-19,1,,,,,クレイインク,0
1250,6010001220508,新規,0,2021-08-19,2021-08-19,東京大禾製薬株式会社,,株式会社,東京都,中央区,日本橋蛎殻町１丁目３番５号共同ビル２階２３号,,13,102,1030014,,,,,,,2021-08-19,1,,,,,トウキョウダイカセイヤク,0
1251,6010001220524,新規,0,2021-08-19,2021-08-19,ＨＫホールディングス株式会社,,株式会社,東京都,中央区,勝どき５丁目３番１号,,13,102,1040054,,,,,,,2021-08-19,1,,,,,エイチケーホールディングス,0
1252,6010001220549,新規,0,2021-08-19,2021-08-19,ＲＩＮＡ　Ｊａｐａｎ株式会社,,株式会社,東京都,中央区,新富１丁目１５番３号新富ミハマビル４階ジパング,,13,102,1040041,,,,,,,2021-08-19,1,,,,,リナジャパン,0
1263,6010005033807,新規,0,2021-08-19,2021-08-19,一般社団法人ＴＯＹＯＴＥＣ連盟,,その他の設立登記法人,東京都,文京区,本郷１丁目１４番６号第２三沢ビル３階,,13,105,1130033,,,,,,,2021-08-19,1,,,,,トウヨウテックレンメイ,0
1274,6010403025950,新規,0,2021-08-19,2021-08-19,エターナルユース合同会社,,合同会社,東京都,港区,六本木１丁目７番１０号,,13,103,1060032,,,,,,,2021-08-19,1,,,,,エターナルユース,0
1276,6010501047715,新規,0,2021-08-19,2021-08-19,ＤＨＡＫＡＬ　ＭＡＳＴＩＫＡ株式会社,,株式会社,東京都,台東区,松が谷１丁目２番３－６０８号ニュー松が谷マンション,,13,106,1110036,,,,,,,2021-08-19,1,,,,,ダカルマスティカ,0
1279,6010601059825,新規,0,2021-08-19,2021-08-19,ＨＹＰＨＥＮ株式会社,,株式会社,東京都,江東区,清澄２丁目９－１４ダイアパレス清澄公園１Ｆ,,13,108,1350024,,,,,,,2021-08-19,1,,,,,ハイフン,0
1280,6010603009101,新規,0,2021-08-19,2021-08-19,合同会社ＧａｄｇｅＴａｎｋｅｒ,,合同会社,東京都,墨田区,文花１丁目１８－１３,,13,107,1310044,,,,,,,2021-08-19,1,,,,,ガジェタンカー,0
1288,6011001142378,新規,0,2021-08-19,2021-08-19,株式会社シノニー,,株式会社,東京都,目黒区,中根１丁目２４番３－１０７号,,13,110,1520031,,,,,,,2021-08-19,1,,,,,シノニー,0
1289,6011001142394,新規,0,2021-08-19,2021-08-19,ｏｎ　ｔｈｅ　ｂｌｏｃｋ　ｌａｂ株式会社,,株式会社,東京都,渋谷区,恵比寿南２丁目２３番３号恵比寿ＮＨビル２階,,13,113,1500022,,,,,,,2021-08-19,1,,,,,オンザブロックラボ,0
1293,6011101096053,新規,0,2021-08-19,2021-08-19,株式会社ＨＡＯＮ,,株式会社,東京都,新宿区,新宿区市谷仲之町３番１４号市谷仲之町テラス１０３号,,13,104,1600000,,,,,,,2021-08-19,1,,,,,ハオン,0
1294,6011101096061,新規,0,2021-08-19,2021-08-19,株式会社グレイスコネクト,,株式会社,東京都,新宿区,四谷１丁目１８番地ｂｅｌｌｅ四谷７階,,13,104,1600004,,,,,,,2021-08-19,1,,,,,グレイスコネクト,0
1298,6011103010937,新規,0,2021-08-19,2021-08-19,合同会社ＣＯＮＮＥＣＴＹ,,合同会社,東京都,新宿区,北新宿１丁目８番１７号１０Ｆ,,13,104,1690074,,,,,,,2021-08-19,1,,,,,コネクティ,0
1299,6011103010945,新規,0,2021-08-19,2021-08-19,ミカサコミュニティ合同会社,,合同会社,東京都,新宿区,新宿６丁目２９番９－５０３号,,13,104,1600022,,,,,,,2021-08-19,1,,,,,ミカサコミュニティ,0
1302,6011201023196,新規,0,2021-08-19,2021-08-19,株式会社ベネフィットデベロップ,,株式会社,東京都,中野区,中野４丁目１番１号中野サンプラザ９Ｆ,,13,114,1640001,,,,,,,2021-08-19,1,,,,,ベネフィットデベロップ,0
1319,6012403004991,新規,0,2021-08-19,2021-08-19,合同会社新井鉄筋,,合同会社,東京都,稲城市,向陽台４丁目４番地の２ビュープラザ向陽台２－７１０,,13,225,2060803,,,,,,,2021-08-19,1,,,,,アライテッキン,0
1322,6013301047884,新規,0,2021-08-19,2021-08-19,ＢＩＢ国際貿易株式会社,,株式会社,東京都,豊島区,南大塚１丁目６０番１９号,,13,116,1700005,,,,,,,2021-08-19,1,,,,,ビーアイビーコウクサイボウエキ,0
1330,6020001142627,新規,0,2021-08-19,2021-08-19,株式会社華団,,株式会社,神奈川県,川崎市中原区,井田中ノ町３３番１号,,14,133,2110034,,,,,,,2021-08-19,1,,,,,ハナダン,0
1339,6021001073696,新規,0,2021-08-19,2021-08-19,株式会社ＴＮＣ,,株式会社,神奈川県,海老名市,泉２丁目１４番１号,,14,215,2430437,,,,,,,2021-08-19,1,,,,,ティーエヌシー,0
1340,6021001073713,新規,0,2021-08-19,2021-08-19,株式会社Ｔ・Ｓ・Ｋ,,株式会社,神奈川県,相模原市緑区,西橋本２丁目２０番１６号,,14,151,2520131,,,,,,,2021-08-19,1,,,,,ティエスケイ,0
1354,6040001119739,新規,0,2021-08-19,2021-08-19,株式会社ｋｉｃｋｙ,,株式会社,千葉県,船橋市,本町７丁目１２番８号船橋プラノービル２０２,,12,204,2730005,,,,,,,2021-08-19,1,,,,,キッキー,0
1355,6040001119788,新規,0,2021-08-19,2021-08-19,株式会社平山堆肥,,株式会社,千葉県,山武郡芝山町,岩山２３６３－１６,,12,409,2891608,,,,,,,2021-08-19,1,,,,,ヒラヤマタイヒ,0
1356,6040001119846,新規,0,2021-08-19,2021-08-19,株式会社レベル・ワールド,,株式会社,千葉県,千葉市美浜区,中瀬２丁目６番１号,,12,106,2610023,,,,,,,2021-08-19,1,,,,,レベルワールド,0
1360,6040003018311,新規,0,2021-08-19,2021-08-19,ＫＯＮＥＸＴ合同会社,,合同会社,千葉県,流山市,おおたかの森東１丁目１０番地の４ジオ流山おおたかの森８１０,,12,220,2700138,,,,,,,2021-08-19,1,,,,,コネクスト,0
1361,6040003018352,新規,0,2021-08-19,2021-08-19,合同会社ゴールデンジョブズ,,合同会社,千葉県,浦安市,北栄２丁目４－１０－４０１号ホックニービル,,12,227,2790002,,,,,,,2021-08-19,1,,,,,ゴールデンジョブズ,0
1376,6090001017153,新規,0,2021-08-19,2021-08-19,株式会社ＲＩＳＥ,,株式会社,山梨県,富士吉田市,下吉田東２丁目２４番１号,,19,202,4030008,,,,,,,2021-08-19,1,,,,,ライズ,0
1377,6100001034519,新規,0,2021-08-19,2021-08-19,株式会社南信熔材商会,,株式会社,長野県,岡谷市,東銀座１丁目１４番１５号,,20,204,3940023,,,,,,,2021-08-19,1,,,,,ナンシンヨウザイショウカイ,0
1378,6100001034527,新規,0,2021-08-19,2021-08-19,株式会社ＣｒｉｃｋｅｔＦａｒｍ,,株式会社,長野県,岡谷市,川岸上１丁目１３番１９号,,20,204,3940048,,,,,,,2021-08-19,1,,,,,クリケットファーム,0
1383,6120001239735,新規,0,2021-08-19,2021-08-19,株式会社Ｐｉｎｏデザイン,,株式会社,大阪府,大阪市淀川区,宮原１丁目１９番地２３号ステュディオ新御堂６２６号室,,27,123,5320003,,,,,,,2021-08-19,1,,,,,ピノデザイン,0
1384,6120001239818,新規,0,2021-08-19,2021-08-19,日本桑友株式会社,,株式会社,大阪府,大阪市港区,南市岡３丁目１０－２グリシーヌ弁天町５０１号室,,27,107,5520011,,,,,,,2021-08-19,1,,,,,ニホンソウユウ,0
1386,6120101064174,新規,0,2021-08-19,2021-08-19,ラダーワークス株式会社,,株式会社,大阪府,堺市南区,原山台４丁９番４－２０６号,,27,145,5900132,,,,,,,2021-08-19,1,,,,,ラダーワークス,0
1387,6120901044788,新規,0,2021-08-19,2021-08-19,株式会社ＮＩＫＹ,,株式会社,大阪府,吹田市,上山手町２６番２５－１０１号,,27,205,5650841,,,,,,,2021-08-19,1,,,,,ナイキー,0
1402,6140001122732,新規,0,2021-08-19,2021-08-19,ｖｉｓｔａ株式会社,,株式会社,兵庫県,西宮市,段上町４丁目１０番５－５０３号,,28,204,6638006,,,,,,,2021-08-19,1,,,,,ビスタ,0
1403,6140001122740,新規,0,2021-08-19,2021-08-19,株式会社Ｔｏｍａｔｏｓｔｅｒ,,株式会社,兵庫県,神戸市中央区,磯上通８丁目１番２９号カサベラビルＣ＆Ｍ４０３号室,,28,110,6510086,,,,,,,2021-08-19,1,,,,,トマトスター,0
1406,6150003002460,新規,0,2021-08-19,2021-08-19,合同会社神藤配送,,合同会社,奈良県,奈良市,六条西４丁目５番２－４０４号,,29,201,6308044,,,,,,,2021-08-19,1,,,,,シンドウハイソウ,0
1408,6160005010972,新規,0,2021-08-19,2021-08-19,一般社団法人草津市観光物産協会,,その他の設立登記法人,滋賀県,草津市,草津３丁目１３番３０号,,25,206,5250034,,,,,,,2021-08-19,1,,,,,,0
1409,6170001016725,新規,0,2021-08-19,2021-08-19,株式会社ぷならす,,株式会社,和歌山県,橋本市,野７４０番地３６,,30,203,6480074,,,,,,,2021-08-19,1,,,,,プナラス,0
1410,6180003022860,新規,0,2021-08-19,2021-08-19,フレックス・プランニング合同会社,,合同会社,愛知県,一宮市,北方町北方字高徳寺前４６番地,,23,203,4938001,,,,,,,2021-08-19,1,,,,,フレックスプランニング,0
1411,6180003022877,新規,0,2021-08-19,2021-08-19,こよみスタイル合同会社,,合同会社,愛知県,半田市,花園町１丁目３番地の３０,,23,205,4750833,,,,,,,2021-08-19,1,,,,,コヨミスタイル,0
1414,6200001039037,新規,0,2021-08-19,2021-08-19,株式会社ｇｌａｂ,,株式会社,岐阜県,羽島市,小熊町２丁目３４７番地２,,21,209,5016273,,,,,,,2021-08-19,1,,,,,グラブ,0
1416,6210001018576,新規,0,2021-08-19,2021-08-19,ＧＲＡＮＤ　ＨＯＵＳＥ株式会社,,株式会社,福井県,福井市,羽水１丁目２０５番地１,,18,201,9188114,,,,,,,2021-08-19,1,,,,,グランハウス,0
1419,6220001024367,新規,0,2021-08-19,2021-08-19,株式会社エスイーエヌ,,株式会社,石川県,金沢市,高尾町ル１８番地１,,17,201,9218153,,,,,,,2021-08-19,1,,,,,エスイーエヌ,0
1432,6260001035880,新規,0,2021-08-19,2021-08-19,大心建設工業株式会社,,株式会社,岡山県,倉敷市,白楽町６３６番地１７,,33,202,7100824,,,,,,,2021-08-19,1,,,,,ダイシンケンセツコウギョウ,0
1433,6260003003654,新規,0,2021-08-19,2021-08-19,合同会社ＫａｏｒｉＭａ,,合同会社,岡山県,岡山市東区,神崎町２１６８,,33,103,7048138,,,,,,,2021-08-19,1,,,,,カオリマ,0
1444,6290001094222,新規,0,2021-08-19,2021-08-19,株式会社Ｂコンサルティング,,株式会社,福岡県,柳川市,上宮永町２８５番地５,,40,207,8320058,,,,,,,2021-08-19,1,,,,,ビーコンサルティング,0
1455,6340001024033,新規,0,2021-08-19,2021-08-19,株式会社リノベートリンク,,株式会社,鹿児島県,鹿児島市,永吉１丁目２番２６号,,46,201,8900023,,,,,,,2021-08-19,1,,,,,リノベートリンク,0
1458,6360001029237,新規,0,2021-08-19,2021-08-19,株式会社リュウキュウウチコ,,株式会社,沖縄県,中頭郡北谷町,北前１丁目１１－３、２Ｆ,,47,326,9040117,,,,,,,2021-08-19,1,,,,,リュウキュウウチコ,0
1459,6360003011358,新規,0,2021-08-19,2021-08-19,合同会社エルザ開発,,合同会社,沖縄県,中頭郡読谷村,字高志保３３７番地１０５号室,,47,324,9040323,,,,,,,2021-08-19,1,,,,,エルザカイハツ,0
1460,6370005010332,新規,0,2021-08-19,2021-08-19,特定非営利活動法人ございん,,その他の設立登記法人,宮城県,登米市,迫町佐沼字中江４丁目８番地６ＭＲＳビル２Ｆ,,04,212,9870511,,,,,,,2021-08-19,1,,,,,,0
1474,6430001084778,新規,0,2021-08-19,2021-08-19,株式会社ＡＬＯＳＳ,,株式会社,北海道,札幌市北区,北三十六条西３丁目２番１５－３０１号,,01,102,0010036,,,,,,,2021-08-19,1,,,,,アロス,0
1477,6430003013033,新規,0,2021-08-19,2021-08-19,合同会社メディカル・レセプト１号,,合同会社,北海道,札幌市中央区,北二条西１０丁目２番７号２０５号ＦＰＬ証券株式会社内,,01,101,0600002,,,,,,,2021-08-19,1,,,,,メディカルレセプトイチゴウ,0
1478,6430003013066,新規,0,2021-08-19,2021-08-19,合同会社Ｒｅｔｅｒｎａ,,合同会社,北海道,札幌市中央区,南二条西５丁目３１番地１,,01,101,0600062,,,,,,,2021-08-19,1,,,,,リテルナ,0
1480,6460001005582,新規,0,2021-08-19,2021-08-19,株式会社Ｃｏｎｎｅｃｔ　Ｈｅａｒｔｓ,,株式会社,北海道,釧路市,愛国東４丁目１０番６号ＫＩＴＡＺＡＷＡ１号室,,01,206,0850058,,,,,,,2021-08-19,1,,,,,コネクトハーツ,0
1484,6700150104466,新規,0,2021-08-19,2021-08-19,Ｊｏｈｎ　Ｗｉｌｅｙ　＆　Ｓｏｎｓ，　Ｉｎｃ．,,外国会社等,,,,,,,,１１１　Ｒｉｖｅｒ　Ｓｔｒｅｅｔ，Ｈｏｂｏｋｅｎ．Ｎｅｗ　Ｊｅｒｓｅｙ　０７０３０　ＵＳＡ,,,,,,2021-08-19,1,,,,,ジヨンワイリーアンドサンズインク,0
1485,6700150104474,新規,0,2021-08-19,2021-08-19,ｂｅ　ｏｎｅ　ｓｏｌｕｔｉｏｎｓ　Ａｓｉａ　Ｐａｃｉｆｉｃ,,外国会社等,東京都,港区,浜松町２丁目７－１５三電舎ビル７Ｆ,,13,103,1050013,Ｒｏｏｍ３０２，３／Ｆ，Ｍａｌａｙｓｉａ　Ｂｌｄｇ．，４７－５０　Ｇｌｏｕｃｅｓｔｅｒ　Ｒｏａｄ,,,,,,2021-08-19,1,,,,,ビーワンソリユーシヨンズアジアパシフイツク,0
1486,6700150104482,新規,0,2021-08-19,2021-08-19,ＰＥＡＲＬ　ＥＸＩＭ　ＰＶＴ　ＬＴＤ,,外国会社等,千葉県,四街道市,大日８３６番地オフィス１号,,12,228,2840001,スリランカ民主社会主義共和国、キャンディ、アクラナ、マルワナヒンナ、７７２－２,,,,,,2021-08-19,1,,,,,パールエクシムピーヴイテイエルテイデイ,0
1496,7010001220515,新規,0,2021-08-19,2021-08-19,株式会社爆流模型本舗,,株式会社,東京都,千代田区,神田和泉町１番地１－１２,,13,101,1010024,,,,,,,2021-08-19,1,,,,,バクリュウモケイホンポ,0
1497,7010001220523,新規,0,2021-08-19,2021-08-19,株式会社コンティニュー,,株式会社,東京都,文京区,関口１丁目１１番７－４０２号,,13,105,1120014,,,,,,,2021-08-19,1,,,,,コンティニュー,0
1499,7010005033806,新規,0,2021-08-19,2021-08-19,ＡＬＪ　Ｏｆｆｉｃｅ　Ｉｋｅｊｉｒｉ一般社団法人,,その他の設立登記法人,東京都,千代田区,神田神保町１丁目１１番地さくら綜合事務所内,,13,101,1010051,,,,,,,2021-08-19,1,,,,,エーエルジェーオフィスイケジリ,0
1500,7010005033822,新規,0,2021-08-19,2021-08-19,東京オフィスＥａｓｔ１一般社団法人,,その他の設立登記法人,東京都,千代田区,丸の内３丁目１番１号東京共同会計事務所内,,13,101,1000005,,,,,,,2021-08-19,1,,,,,トウキョウオフィスイーストワン,0
1511,7010401162191,新規,0,2021-08-19,2021-08-19,株式会社２１７,,株式会社,東京都,港区,浜松町２丁目２番１５号浜松町ダイヤビル２Ｆ,,13,103,1050013,,,,,,,2021-08-19,1,,,,,ニイイチナナ,0
1513,7010403025958,新規,0,2021-08-19,2021-08-19,今別ウィンドファーム合同会社,,合同会社,東京都,港区,南青山１丁目１２番３号Ｎ２１５,,13,103,1070062,,,,,,,2021-08-19,1,,,,,イマベツウィンドファーム,0
1514,7010405020123,新規,0,2021-08-19,2021-08-19,一般社団法人ＩＨＦ,,その他の設立登記法人,東京都,港区,虎ノ門３丁目２２番１０－２０１号,,13,103,1050001,,,,,,,2021-08-19,1,,,,,アイエイチエフ,0
1515,7010405020131,新規,0,2021-08-19,2021-08-19,Ｌｕｍｉｎａ一般社団法人,,その他の設立登記法人,東京都,港区,虎ノ門４丁目１番２８号,,13,103,1050001,,,,,,,2021-08-19,1,,,,,ルミナ,0
1518,7010501047714,新規,0,2021-08-19,2021-08-19,株式会社善,,株式会社,東京都,台東区,寿１丁目３番６号,,13,106,1110042,,,,,,,2021-08-19,1,,,,,ゼン,0
1521,7010601059824,新規,0,2021-08-19,2021-08-19,株式会社ニューオーシャン,,株式会社,東京都,江東区,富岡１丁目５番１０号,,13,108,1350047,,,,,,,2021-08-19,1,,,,,ニューオーシャン,0
1532,7010803003852,新規,0,2021-08-19,2021-08-19,合同会社ウィステリアス・エレクトリック・サービス,,合同会社,東京都,大田区,大森南３丁目１７番１５号明石ビル１Ｆ,,13,111,1430013,,,,,,,2021-08-19,1,,,,,ウィステリアスエレクトリックサービス,0
1542,7011001142336,新規,0,2021-08-19,2021-08-19,株式会社ＣＲＥＷ　ＳＴＥＰ,,株式会社,東京都,渋谷区,神宮前６丁目２３番４号桑野ビル２階,,13,113,1500001,,,,,,,2021-08-19,1,,,,,クルーステップ,0
1543,7011001142393,新規,0,2021-08-19,2021-08-19,Ｒｅａｐ　Ｔｅｃｈｎｏｌｏｇｉｅｓ　ＪＰ株式会社,,株式会社,東京都,渋谷区,猿楽町２９番１８号,,13,113,1500033,,,,,,,2021-08-19,1,,,,,リープテクノロジーズジェーピー,0
1550,7011101096028,新規,0,2021-08-19,2021-08-19,株式会社ＳＲＫ,,株式会社,東京都,新宿区,南元町２０番地３ガーデンヒルズ四ツ谷迎賓の森３１５,,13,104,1600012,,,,,,,2021-08-19,1,,,,,エスアールケイ,0
1553,7011103010936,新規,0,2021-08-19,2021-08-19,ＴＯＧＧＬＥ合同会社,,合同会社,東京都,新宿区,西新宿４丁目９番１４号,,13,104,1600023,,,,,,,2021-08-19,1,,,,,トグル,0
1555,7011201023195,新規,0,2021-08-19,2021-08-19,株式会社ＳＴＡＲＴ,,株式会社,東京都,中野区,江古田３丁目１４番３号８０７号室,,13,114,1650022,,,,,,,2021-08-19,1,,,,,スタート,0
1557,7011301027121,新規,0,2021-08-19,2021-08-19,株式会社ままや,,株式会社,東京都,杉並区,宮前４丁目２５番６号,,13,115,1680081,,,,,,,2021-08-19,1,,,,,ママヤ,0
1558,7011601025337,新規,0,2021-08-19,2021-08-19,株式会社フューチャージャパン,,株式会社,東京都,練馬区,石神井台２丁目１３番１３号,,13,120,1770045,,,,,,,2021-08-19,1,,,,,フューチャージャパン,0
1564,7012401038215,新規,0,2021-08-19,2021-08-19,アントレプレナーリゾーツジャパン株式会社,,株式会社,東京都,三鷹市,下連雀３丁目３５番１号,,13,204,1810013,,,,,,,2021-08-19,1,,,,,アントレプレナーリゾーツジャパン,0
1580,7020001142659,新規,0,2021-08-19,2021-08-19,株式会社Ｒｏｕｇｈｉｕｓ,,株式会社,神奈川県,横浜市神奈川区,三ツ沢東町５番２３号セロビスタ２０２号室,,14,102,2210853,,,,,,,2021-08-19,1,,,,,ラフィアス,0
1595,7021003010820,新規,0,2021-08-19,2021-08-19,タンヴォ合同会社,,合同会社,神奈川県,平塚市,南豊田１１１－３,,14,203,2540084,,,,,,,2021-08-19,1,,,,,タンヴォ,0
1602,7030001143904,新規,0,2021-08-19,2021-08-19,ＬＩＮＥ不動産株式会社,,株式会社,埼玉県,草加市,氷川町２１６６番地４,,11,221,3400034,,,,,,,2021-08-19,1,,,,,ラインフドウサン,0
1607,7030003017800,新規,0,2021-08-19,2021-08-19,合同会社誠心,,合同会社,埼玉県,朝霞市,田島１丁目６番５号,,11,227,3510032,,,,,,,2021-08-19,1,,,,,セイシン,0
1613,7040001119812,新規,0,2021-08-19,2021-08-19,株式会社裕海,,株式会社,千葉県,市原市,ちはら台東７丁目７番地１８,,12,219,2900141,,,,,,,2021-08-19,1,,,,,ユウミ,0
1614,7040001119837,新規,0,2021-08-19,2021-08-19,株式会社鋒行国際観光,,株式会社,千葉県,千葉市美浜区,稲毛海岸１丁目２－６－２０２,,12,106,2610005,,,,,,,2021-08-19,1,,,,,ホウコウコクサイカンコウ,0
1615,7040001119845,新規,0,2021-08-19,2021-08-19,株式会社ブライトフューチャー,,株式会社,千葉県,八千代市,八千代台南１丁目２８－４－１０２,,12,221,2760033,,,,,,,2021-08-19,1,,,,,ブライトフーチャー,0
1625,7040003018343,新規,0,2021-08-19,2021-08-19,イギア合同会社,,合同会社,千葉県,習志野市,津田沼５丁目１１－１３三橋ビル１階,,12,216,2750016,,,,,,,2021-08-19,1,,,,,イギア,0
1626,7040003018351,新規,0,2021-08-19,2021-08-19,合同会社カモンスマイル,,合同会社,千葉県,習志野市,谷津３丁目１７番２０号メゾンプライム２０２号,,12,216,2750026,,,,,,,2021-08-19,1,,,,,カモンスマイル,0
1629,7050001049728,新規,0,2021-08-19,2021-08-19,株式会社茨城洗機工業,,株式会社,茨城県,水戸市,平須町１９００番地の３１,,08,201,3100853,,,,,,,2021-08-19,1,,,,,イバラキセンキコウギョウ,0
1632,7050005012921,新規,0,2021-08-19,2021-08-19,アクトアライズ協同組合,,その他の設立登記法人,茨城県,下妻市,大宝５０番地２,,08,210,3040022,,,,,,,2021-08-19,1,,,,,アクトアライズ,0
1639,7080001024389,新規,0,2021-08-19,2021-08-19,株式会社ＳＡＮ　ＳＡＮ,,株式会社,静岡県,島田市,旭１丁目１２番３０号エクセル旭Ａ２０１号室,,22,209,4270018,,,,,,,2021-08-19,1,,,,,サンサン,0
1643,7080401025276,新規,0,2021-08-19,2021-08-19,株式会社ＮＳ管工,,株式会社,静岡県,浜松市中区,上島７丁目３番１０号,,22,131,4338122,,,,,,,2021-08-19,1,,,,,エヌエスカンコウ,0
1657,7120001239800,新規,0,2021-08-19,2021-08-19,株式会社Ｓｔｏｃｋ　Ｖｉｅｗ,,株式会社,大阪府,大阪市北区,鶴野町２番１号梅田タナダビル６階,,27,127,5300014,,,,,,,2021-08-19,1,,,,,ストックビュー,0
1658,7120001239817,新規,0,2021-08-19,2021-08-19,株式会社ＨａＫｕ,,株式会社,大阪府,大阪市中央区,島之内１丁目２２番２０号堺筋ビルディング２Ｆ２０７号室,,27,128,5420082,,,,,,,2021-08-19,1,,,,,ハク,0
1661,7120003019985,新規,0,2021-08-19,2021-08-19,合同会社ＳＰＡＣＥ,,合同会社,大阪府,大阪市北区,大淀南３丁目３－６８パークサイド西梅田９０３,,27,127,5310075,,,,,,,2021-08-19,1,,,,,スペース,0
1669,7120101064165,新規,0,2021-08-19,2021-08-19,中錦株式会社,,株式会社,大阪府,藤井寺市,野中４丁目１番３３号,,27,226,5830014,,,,,,,2021-08-19,1,,,,,チュウキン,0
1671,7122001035097,新規,0,2021-08-19,2021-08-19,株式会社タジマＡＣＳ,,株式会社,大阪府,東大阪市,宝町６－４,,27,227,5798025,,,,,,,2021-08-19,1,,,,,タジマエーシーエス,0
1686,7150005009321,新規,0,2021-08-19,2021-08-19,一般社団法人ＧＯ　ＴＯ　ＴＨＥ　ＦＵＴＵＲＥ,,その他の設立登記法人,奈良県,御所市,大字南郷２８０番地,,29,208,6392331,,,,,,,2021-08-19,1,,,,,ゴートゥーザフューチャー,0
1698,7180001147493,新規,0,2021-08-19,2021-08-19,株式会社Ｒｉｍｉ．ｃｏ,,株式会社,愛知県,名古屋市西区,幅下２丁目１４番１１号,,23,104,4510041,,,,,,,2021-08-19,1,,,,,リミ,0
1703,7180301035282,新規,0,2021-08-19,2021-08-19,株式会社丸福ｍｙｒｔｕｓ,,株式会社,愛知県,みよし市,三好町上ヶ池２５番地の１９,,23,236,4700224,,,,,,,2021-08-19,1,,,,,マルフクミルトス,0
1705,7190001028610,新規,0,2021-08-19,2021-08-19,株式会社エービーシー不動産,,株式会社,三重県,桑名市,紺屋町２４番地－３Ｄ,,24,205,5110085,,,,,,,2021-08-19,1,,,,,エービーシーフドウサン,0
1750,7370001047501,新規,0,2021-08-19,2021-08-19,ＡＬ　ｃｏｎｓｕｌｔｉｎｇ株式会社,,株式会社,宮城県,仙台市青葉区,中山１丁目２３番１０号,,04,101,9810952,,,,,,,2021-08-19,1,,,,,エイエルコンサルティング,0
1763,7430001084777,新規,0,2021-08-19,2021-08-19,株式会社オーディエートランス,,株式会社,北海道,札幌市東区,北二十四条東２１丁目７番３０号,,01,103,0650024,,,,,,,2021-08-19,1,,,,,オーディエートランス,0
1772,7700150104465,新規,0,2021-08-19,2021-08-19,Ｔｗｏ　Ｉｎｖｅｓｔｍｅｎｔｓ　Ｐｔｙ　Ｌｔｄ,,外国会社等,,,,,,,,９８　ＢＲＩＴＡＮＮＩＡ　ＡＶＥＮＵＥ　ＭＯＲＮＩＮＧＳＩＤＥ　ＱＬＤ　４１７０,,,,,,2021-08-19,1,,,,,ツーインベストメンツピーテイーワイリミテツド,0
1773,7700150104473,新規,0,2021-08-19,2021-08-19,ＴＨＡＲＡＮＧＡ　ＭＯＴＯＲ　ＴＲＡＤＩＮＧ　ＣＯＭＰＡＮＹ　ＰＲＩＶＡＴＥ　ＬＩＭＩＴＥＤ,,外国会社等,栃木県,大田原市,大豆田５０３パティオ六番館２０１号室,,09,210,3240242,スリランカ民主社会主義共和国ニッタブワ・カラルピティヤ・１４１．２６マイル・ポスト,,,,,,2021-08-19,1,,,,,タランガモータートレーデイングカンパニープライベイトリミテツド,0
1774,7700150104481,新規,0,2021-08-19,2021-08-19,Ｈｅａｎｔｌｙ　Ｔｒａｄｉｎｇ　Ｐｒｉｖａｔｅ　Ｌｉｍｉｔｅｄ,,外国会社等,千葉県,八街市,榎戸４１６番地１－２１－５,,12,230,2891106,スリランカ，コロンボ西部州，コロンボ１４，グランドパスロード，１９６－１１６,,,,,,2021-08-19,1,,,,,ハーントリートレーデイングプライベートリミテツド,0
1780,8010001220497,新規,0,2021-08-19,2021-08-19,株式会社尚優パートナーズ,,株式会社,東京都,中央区,日本橋兜町１１番７号,,13,102,1030026,,,,,,,2021-08-19,1,,,,,ショウユウパートナーズ,0
1781,8010001220522,新規,0,2021-08-19,2021-08-19,株式会社国際がん研究所,,株式会社,東京都,中央区,新富１丁目６－８第３東邦ビル２階,,13,102,1040041,,,,,,,2021-08-19,1,,,,,コクサイガンケンキュウジョ,0
1782,8010005033838,新規,0,2021-08-19,2021-08-19,横浜大船特定目的会社,,その他の設立登記法人,東京都,中央区,日本橋２丁目７番１号,,13,102,1030027,,,,,,,2021-08-19,1,,,,,ヨコハマオオフナ,0
1790,8010403025957,新規,0,2021-08-19,2021-08-19,深浦ウィンドファーム合同会社,,合同会社,東京都,港区,南青山１丁目１２番３号Ｎ２１５,,13,103,1070062,,,,,,,2021-08-19,1,,,,,フカウラウィンドファーム,0
1795,8010503006353,新規,0,2021-08-19,2021-08-19,ＰＡＣｒｅａｔｅ合同会社,,合同会社,東京都,台東区,浅草６丁目８－８,,13,106,1110032,,,,,,,2021-08-19,1,,,,,パクリエイト,0
1814,8011001142277,新規,0,2021-08-19,2021-08-19,株式会社ＥＵＲＥＫＡ,,株式会社,東京都,渋谷区,本町２丁目２－４,,13,113,1510071,,,,,,,2021-08-19,1,,,,,エウレカ,0
1815,8011001142392,新規,0,2021-08-19,2021-08-19,株式会社ＨＩＧＨ　ＢＥＴ,,株式会社,東京都,目黒区,碑文谷５丁目８番－１２ウェルスクエア碑文谷１０１,,13,110,1520003,,,,,,,2021-08-19,1,,,,,ハイベット,0
1817,8011003013237,新規,0,2021-08-19,2021-08-19,ＳｃａｌｅＢｒｉｇｈｔ合同会社,,合同会社,東京都,渋谷区,本町４丁目５０番９号アークビル西新宿４０１,,13,113,1510071,,,,,,,2021-08-19,1,,,,,スケールブライト,0
1818,8011003013245,新規,0,2021-08-19,2021-08-19,合同会社ベルヴュー,,合同会社,東京都,渋谷区,恵比寿南３丁目１１番４号,,13,113,1500022,,,,,,,2021-08-19,1,,,,,ベルヴュー,0
1824,8011101096035,新規,0,2021-08-19,2021-08-19,株式会社Ｗｏｏ,,株式会社,東京都,新宿区,新宿１丁目３６番２号新宿第七葉山ビル３階,,13,104,1600022,,,,,,,2021-08-19,1,,,,,ウー,0
1825,8011103010893,新規,0,2021-08-19,2021-08-19,スカラーオーストラフ合同会社,,合同会社,東京都,新宿区,四谷１丁目１４－１５メゾン四谷一丁目Ａ１１号,,13,104,1600004,,,,,,,2021-08-19,1,,,,,スカラーオーストラフ,0
1826,8011201023186,新規,0,2021-08-19,2021-08-19,株式会社ＳＴパートナーズ,,株式会社,東京都,中野区,中野５丁目６７番６号ビジネスハイツ６０１号,,13,114,1640001,,,,,,,2021-08-19,1,,,,,エスティパートナーズ,0
1830,8011601025336,新規,0,2021-08-19,2021-08-19,株式会社ＮＩＫＡＯ,,株式会社,東京都,練馬区,中村南１丁目１４番１１号２階,,13,120,1760025,,,,,,,2021-08-19,1,,,,,ニカオ,0
1833,8011701024642,新規,0,2021-08-19,2021-08-19,株式会社Ａｓｓｉｓｔ　Ｐｒｏ　Ｓｅｒｖｉｃｅ,,株式会社,東京都,江戸川区,鹿骨４丁目１６番８号吉田荘１０２号室,00123972,13,123,1330073,,,,,,,2021-08-19,1,,,,,アシストプロサービス,0
1841,8012805003045,新規,0,2021-08-19,2021-08-19,一般社団法人ＯＺＲホールディングス,,その他の設立登記法人,東京都,武蔵村山市,伊奈平５丁目５８番地の２０宿萬ビル３階,,13,223,2080023,,,,,,,2021-08-19,1,,,,,オーゼットアールホールディングス,0
1853,8020001142658,新規,0,2021-08-19,2021-08-19,山商株式会社,,株式会社,神奈川県,川崎市高津区,久地４丁目２６番１０号,,14,134,2130032,,,,,,,2021-08-19,1,,,,,ヤマショウ,0
1857,8020003020358,新規,0,2021-08-19,2021-08-19,ＴＳアセットマネジメント合同会社,,合同会社,神奈川県,横浜市神奈川区,台町１１番地１６ドゥーエ横濱台町２０３号,,14,102,2210834,,,,,,,2021-08-19,1,,,,,ティーエスアセットマネジメント,0
1866,8021001073711,新規,0,2021-08-19,2021-08-19,湘南ＮＥＸＵＳ株式会社,,株式会社,神奈川県,中郡大磯町,西小磯１４７３番地４４,,14,341,2550005,,,,,,,2021-08-19,1,,,,,ショウナンネクサス,0
1894,8080101022721,新規,0,2021-08-19,2021-08-19,株式会社ハニカムエイド,,株式会社,静岡県,伊豆の国市,四日町３９番地の２,,22,225,4102123,,,,,,,2021-08-19,1,,,,,ハニカムエイド,0
1897,8080103002408,新規,0,2021-08-19,2021-08-19,合同会社ＫＡＺＥ,,合同会社,静岡県,賀茂郡東伊豆町,片瀬５６７番地の８ライオンズマンション片瀬白田３０３号,,22,301,4130303,,,,,,,2021-08-19,1,,,,,カゼ,0
1911,8120001239849,新規,0,2021-08-19,2021-08-19,増井総計株式会社,,株式会社,大阪府,大阪市中央区,南本町２丁目１番１５号ジコウビル５階,,27,128,5410054,,,,,,,2021-08-19,1,,,,,マスイソウケイ,0
1913,8120101064164,新規,0,2021-08-19,2021-08-19,株式会社ＲＩＳＥ,,株式会社,大阪府,大阪狭山市,山本中３６４－１,,27,231,5890034,,,,,,,2021-08-19,1,,,,,ライズ,0
1921,8122001035088,新規,0,2021-08-19,2021-08-19,ダイイチハウス株式会社,,株式会社,大阪府,八尾市,久宝寺６丁目６番５８号,,27,212,5810072,,,,,,,2021-08-19,1,,,,,ダイイチハウス,0
1929,8130002034307,新規,0,2021-08-19,2021-08-19,三和電子工業有限会社,,有限会社,京都府,舞鶴市,字余部下８４３番地の２,,26,202,6250087,,,,,,,2021-08-19,1,,,,,サンワデンシコウギョウ,0
1931,8140001122739,新規,0,2021-08-19,2021-08-19,株式会社ＥＥＴ,,株式会社,兵庫県,尼崎市,水明町２６番地シャーメゾン水明公園１０５号室,,28,202,6600082,,,,,,,2021-08-19,1,,,,,イート,0
1934,8140003016633,新規,0,2021-08-19,2021-08-19,合同会社辰己旅館,,合同会社,兵庫県,姫路市,飯田２丁目１６８番地２,,28,201,6700974,,,,,,,2021-08-19,1,,,,,タツミリョカン,0
1942,8180001147435,新規,0,2021-08-19,2021-08-19,ＨＯＰＥ株式会社,,株式会社,愛知県,半田市,上池町４丁目３番地,,23,205,4750004,,,,,,,2021-08-19,1,,,,,ホープ,0
1943,8180001147468,新規,0,2021-08-19,2021-08-19,Ｓ’ａｐｐｕｙｅｒ株式会社,,株式会社,愛知県,名古屋市守山区,瀬古１丁目１０１番地の１,,23,113,4630068,,,,,,,2021-08-19,1,,,,,サピュイエ,0
1944,8180001147476,新規,0,2021-08-19,2021-08-19,ＷＵＪＥＥ株式会社,,株式会社,愛知県,名古屋市中村区,稲西町１８３番地,,23,105,4530849,,,,,,,2021-08-19,1,,,,,ウージー,0
1945,8180001147492,新規,0,2021-08-19,2021-08-19,株式会社ヨシックスキャピタル,,株式会社,愛知県,名古屋市東区,徳川１丁目９番３０号,,23,102,4610025,,,,,,,2021-08-19,1,,,,,ヨシックスキャピタル,0
1946,8180003022875,新規,0,2021-08-19,2021-08-19,合同会社ＭＫＴ　ＴＲＡＤＩＮＧ,,合同会社,愛知県,名古屋市中川区,下之一色町字宮分１９５番地,,23,110,4540945,,,,,,,2021-08-19,1,,,,,エムケイティートレーディング,0
1947,8200001039035,新規,0,2021-08-19,2021-08-19,株式会社プランアセット,,株式会社,岐阜県,岐阜市,六条南１丁目２０番１２号,,21,201,5008358,,,,,,,2021-08-19,1,,,,,プランアセット,0
1953,8240001058460,新規,0,2021-08-19,2021-08-19,株式会社日本総合貿易商社,,株式会社,広島県,庄原市,東城町川西４６－１６,,34,210,7295125,,,,,,,2021-08-19,1,,,,,ニホンソウゴウボウエキショウシャ,0
1960,8290001094253,新規,0,2021-08-19,2021-08-19,株式会社ＣＯＮＮＥＣＴＢＡＮＫ,,株式会社,福岡県,福岡市中央区,渡辺通５丁目１４番１２号南天神ビル３階,,40,133,8100004,,,,,,,2021-08-19,1,,,,,コネクトバンク,0
1968,8310001017426,新規,0,2021-08-19,2021-08-19,株式会社オカザキコーポレーション,,株式会社,長崎県,長崎市,金屋町１番２号,,42,201,8500037,,,,,,,2021-08-19,1,,,,,オカザキコーポレーション,0
1970,8330001028917,新規,0,2021-08-19,2021-08-19,パルスパートナーズ株式会社,,株式会社,熊本県,熊本市中央区,呉服町２丁目５番地６（３０１号）,,43,101,8600035,,,,,,,2021-08-19,1,,,,,パルスパートナーズ,0
1975,8340005009326,新規,0,2021-08-19,2021-08-19,一般社団法人夢みらい,,その他の設立登記法人,鹿児島県,大島郡伊仙町,大字伊仙２７０７番地５,,46,532,8918201,,,,,,,2021-08-19,1,,,,,ユメミライ,0
1976,8360001029243,新規,0,2021-08-19,2021-08-19,株式会社エンライホーム,,株式会社,沖縄県,沖縄市,古謝２丁目２３番５号,,47,211,9042161,,,,,,,2021-08-19,1,,,,,エンライホーム,0
1983,8380005012466,新規,0,2021-08-19,2021-08-19,特定非営利活動法人Ｌａｍｉａ　ｒｅｓｏｒｔ,,その他の設立登記法人,福島県,いわき市,小名浜字燈籠原５３番地の１７,,07,204,9718101,,,,,,,2021-08-19,1,,,,,,0
1992,8430001084784,新規,0,2021-08-19,2021-08-19,株式会社ＫＶＣ,,株式会社,北海道,札幌市中央区,大通東３丁目１番地３６パークホームズ札幌大通東３０５号,,01,101,0600041,,,,,,,2021-08-19,1,,,,,ケイブイシー,0
1993,8430001084792,新規,0,2021-08-19,2021-08-19,株式会社ｂａｓｅ．Ｎ,,株式会社,北海道,札幌市南区,藤野６６４番地１６,,01,106,0612271,,,,,,,2021-08-19,1,,,,,ベースエヌ,0
1997,8430003013056,新規,0,2021-08-19,2021-08-19,合同会社ＡＲＡＴＡ,,合同会社,北海道,札幌市東区,北二十条東９丁目３番２号,,01,103,0650020,,,,,,,2021-08-19,1,,,,,アラタ,0
1998,8430005014250,新規,0,2021-08-19,2021-08-19,特定非営利活動法人未来の職場,,その他の設立登記法人,北海道,札幌市中央区,南七条西２４丁目３番１５－６０３号,,01,101,0640807,,,,,,,2021-08-19,1,,,,,ミライノショクバ,0
2006,8500005008410,新規,0,2021-08-19,2021-08-19,特定非営利活動法人Ｇｕｍｉ,,その他の設立登記法人,愛媛県,松山市,辰巳町７番地２１号,,38,201,7918086,,,,,,,2021-08-19,1,,,,,グミ,0
2007,8700150104472,新規,0,2021-08-19,2021-08-19,立信香港有限公司,,外国会社等,,,,,,,,ＦＬＡＴ　Ａ，５０／Ｆ．，ＴＨＥ　ＡＲＣＨ，ＳＴＡＲ　ＴＯＷＥＲ，１　ＡＵＳＴＩＮ　ＲＯＡＤ　ＷＥＳＴ，ＴＳＩＭ　ＳＨＡ　ＴＳＵＩ，ＫＬＮ，ＨＯＮＧＫＯＮＧ,,,,,,2021-08-19,1,,,,,リシンホンコンユウゲンコウシ,0
2008,8700150104480,新規,0,2021-08-19,2021-08-19,ＨＩＳＨＭＡ　ＥＮＴＥＲＰＲＩＳＥＳ,,外国会社等,千葉県,八街市,四木１１９３番地１１四木オフィス１０２号,,12,230,2891122,スリランカ民主社会主義共和国、キャンディ、ビラナガマ、ランブカラ、２１６,,,,,,2021-08-19,1,,,,,ヒシユマエンタープライセス,0
2009,8700150104489,新規,0,2021-08-19,2021-08-19,Ｅｌｉ　Ｌｉｌｌｙ　Ｅｘｐｏｒｔ　Ｓ．Ａ．,,外国会社等,,,,,,,,Ｃｈｅｍｉｎｄｅｓ　Ｃｏｑｕｅｌｉｃｏｔｓ　１６，１２１４　Ｖｅｒｎｉｅｒ　Ｓｗｉｔｅｅｒｌａｎｄ,,,,,,2021-08-19,1,,,,,イーライリリーエクスポートエスエー,0
2016,9010001220513,新規,0,2021-08-19,2021-08-19,株式会社ＨＡＹＡＴＡＣ,,株式会社,東京都,中央区,銀座１丁目２２番１１号銀座大竹ビジデンス２階,,13,102,1040061,,,,,,,2021-08-19,1,,,,,ハヤタック,0
2017,9010001220554,新規,0,2021-08-19,2021-08-19,華益日盛株式会社,,株式会社,東京都,中央区,勝どき５丁目１２－４コスモ東京ベイタワー１２０３,,13,102,1040054,,,,,,,2021-08-19,1,,,,,カエキニッセイ,0
2035,9010401162215,新規,0,2021-08-19,2021-08-19,株式会社シードルリリー,,株式会社,東京都,港区,北青山３丁目５番１２号青山クリスタルビル,,13,103,1070061,,,,,,,2021-08-19,1,,,,,シードルリリー,0
2042,9010403025948,新規,0,2021-08-19,2021-08-19,コロコロアセット合同会社,,合同会社,東京都,港区,芝浦２丁目１番１１－７１０号,,13,103,1080023,,,,,,,2021-08-19,1,,,,,コロコロアセット,0
2043,9010403025956,新規,0,2021-08-19,2021-08-19,五所川原ウィンドファーム合同会社,,合同会社,東京都,港区,南青山１丁目１２番３号Ｎ２１５,,13,103,1070062,,,,,,,2021-08-19,1,,,,,ゴショガワラウィンドファーム,0
2061,9011001142276,新規,0,2021-08-19,2021-08-19,株式会社Ｎｅｘｔ　Ｅｐｉｓｏｄｅ,,株式会社,東京都,渋谷区,円山町６番７号,,13,113,1500044,,,,,,,2021-08-19,1,,,,,ネクストエピソード,0
2062,9011001142375,新規,0,2021-08-19,2021-08-19,株式会社Ｚｅｎ　Ｒｙｏｋｕ,,株式会社,東京都,目黒区,青葉台３丁目９番１１号青葉台ポイントＢ１,,13,110,1530042,,,,,,,2021-08-19,1,,,,,ゼンリョク,0
2067,9011101096034,新規,0,2021-08-19,2021-08-19,株式会社Ｅｍｂｅｒ,,株式会社,東京都,新宿区,西新宿３丁目９－７フロンティア新宿タワーオフィス,,13,104,1600023,,,,,,,2021-08-19,1,,,,,エンバー,0
2068,9011101096067,新規,0,2021-08-19,2021-08-19,株式会社タイニー・フィールド,,株式会社,東京都,新宿区,西落合１丁目２１番７－３０６号,,13,104,1610031,,,,,,,2021-08-19,1,,,,,タイニーフィールド,0
2069,9011201023193,新規,0,2021-08-19,2021-08-19,Ｔ・Ｋ・Ｇ株式会社,,株式会社,東京都,中野区,鷺宮４丁目１５番２０号,,13,114,1650032,,,,,,,2021-08-19,1,,,,,ティーケージー,0
2071,9011303004133,新規,0,2021-08-19,2021-08-19,合同会社サンコス・インタナショナル,,合同会社,東京都,杉並区,堀ノ内１丁目６番３０号,,13,115,1660013,,,,,,,2021-08-19,1,,,,,サンコスインタナショナル,0
2073,9011501027233,新規,0,2021-08-19,2021-08-19,株式会社山崎,,株式会社,東京都,北区,滝野川６丁目３番９－１０３号,,13,117,1140023,,,,,,,2021-08-19,1,,,,,ヤマザキ,0
2079,9012401038213,新規,0,2021-08-19,2021-08-19,株式会社シレオス,,株式会社,東京都,多摩市,落合１丁目４番地２,,13,224,2060033,,,,,,,2021-08-19,1,,,,,シレオス,0
2084,9013301047881,新規,0,2021-08-19,2021-08-19,株式会社ＳＣＳ,,株式会社,東京都,豊島区,西池袋３丁目２９番３号梅本ビル４階,,13,116,1710021,,,,,,,2021-08-19,1,,,,,エスシーエス,0
2094,9020001142657,新規,0,2021-08-19,2021-08-19,株式会社ＡＤＢＥＩＮＧ,,株式会社,神奈川県,横浜市瀬谷区,北新４－２７ハイツシェモアＤ２０１,,14,114,2460036,,,,,,,2021-08-19,1,,,,,アドビーイング,0
2098,9020005015165,新規,0,2021-08-19,2021-08-19,医療法人社団Ｅｍｍｅｔｔ　Ｂｒｏｗｎ,,その他の設立登記法人,神奈川県,川崎市中原区,小杉町３丁目４４１番地伊達ビル３階,,14,133,2110063,,,,,,,2021-08-19,1,,,,,エメットブラウン,0
2104,9021001073710,新規,0,2021-08-19,2021-08-19,大和屋デザイン株式会社,,株式会社,神奈川県,鎌倉市,笛田２丁目３６番１４号,,14,204,2480027,,,,,,,2021-08-19,1,,,,,ヤマトヤデザイン,0
2117,9030001143902,新規,0,2021-08-19,2021-08-19,龍騰産業株式会社,,株式会社,埼玉県,川越市,大字府川１４７－２,,11,201,3500831,,,,,,,2021-08-19,1,,,,,リュウトウサンギョウ,0
2127,9040001119843,新規,0,2021-08-19,2021-08-19,株式会社エフアイティ,,株式会社,千葉県,八千代市,大和田９３５番地４０,,12,221,2760045,,,,,,,2021-08-19,1,,,,,エフアイティ,0
2140,9080003002630,新規,0,2021-08-19,2021-08-19,合同会社みらいふ,,合同会社,静岡県,静岡市葵区,羽鳥３丁目２２番３６号,,22,101,4211215,,,,,,,2021-08-19,1,,,,,ミライフ,0
2142,9080401025274,新規,0,2021-08-19,2021-08-19,株式会社エムズグローバル,,株式会社,静岡県,浜松市浜北区,宮口１２３６番地の２,,22,136,4340004,,,,,,,2021-08-19,1,,,,,エムズグローバル,0
2146,9110003004557,新規,0,2021-08-19,2021-08-19,合同会社煌李,,合同会社,新潟県,長岡市,昭和１丁目２番３３号パンアンテリュール１０２号室,,15,202,9400092,,,,,,,2021-08-19,1,,,,,キラリ,0
2167,9130001069947,新規,0,2021-08-19,2021-08-19,株式会社ＡＲＩＡＮ,,株式会社,京都府,京都市山科区,西野野色町４８番地１４,,26,110,6078353,,,,,,,2021-08-19,1,,,,,アリアン,0
2177,9140001122746,新規,0,2021-08-19,2021-08-19,フラットワン株式会社,,株式会社,兵庫県,神戸市西区,水谷２丁目３番３５－Ｂ１０２号,,28,111,6512121,,,,,,,2021-08-19,1,,,,,フラットワン,0
2188,9180003022866,新規,0,2021-08-19,2021-08-19,ＮＯＢＯＲＩ合同会社,,合同会社,愛知県,名古屋市西区,新道１丁目２３番３８－２０２号（ダイアパレス浅間町）,,23,104,4510043,,,,,,,2021-08-19,1,,,,,ノボリ,0
2189,9180003022874,新規,0,2021-08-19,2021-08-19,合同会社リディキュラス,,合同会社,愛知県,名古屋市西区,名駅２丁目３４番１７号セントラル名古屋１１０１号,,23,104,4510045,,,,,,,2021-08-19,1,,,,,リディキュラス,0
2190,9180005019407,新規,0,2021-08-19,2021-08-19,一般社団法人万莉,,その他の設立登記法人,愛知県,名古屋市瑞穂区,弥富ケ丘町三丁目７番地,,23,108,4670000,,,,,,,2021-08-19,1,,,,,マリ,0
2193,9180301035280,新規,0,2021-08-19,2021-08-19,株式会社ＲＡＤＪＡＰＡＮ,,株式会社,愛知県,額田郡幸田町,大字横落字向野４１番地３,,23,501,4440114,,,,,,,2021-08-19,1,,,,,ラッドジャパン,0
2195,9200001039034,新規,0,2021-08-19,2021-08-19,永徳株式会社,,株式会社,岐阜県,羽島郡岐南町,みやまち１丁目１６８番地の２仙石ビル２０３号室,,21,302,5016019,,,,,,,2021-08-19,1,,,,,エイトク,0
2207,9290001094252,新規,0,2021-08-19,2021-08-19,大谷設備株式会社,,株式会社,福岡県,福岡市中央区,伊崎４番７号,,40,133,8100067,,,,,,,2021-08-19,1,,,,,オオタニセツビ,0
2210,9290005018307,新規,0,2021-08-19,2021-08-19,Ｓｔａｉｒ事業協同組合,,その他の設立登記法人,福岡県,春日市,春日公園７丁目３６番,,40,218,8160811,,,,,,,2021-08-19,1,,,,,ステア,0
2216,9320001018546,新規,0,2021-08-19,2021-08-19,株式会社シンワ設備,,株式会社,大分県,大分市,賀来北２丁目７番１８－３０３号,,44,201,8700848,,,,,,,2021-08-19,1,,,,,シンワセツビ,0
2218,9320003003587,新規,0,2021-08-19,2021-08-19,合同会社ＰＨＡＴ　ＬＯＣ,,合同会社,大分県,宇佐市,大字四日市１５０７番地６,,44,211,8790471,,,,,,,2021-08-19,1,,,,,ファットロック,0
2220,9330001028916,新規,0,2021-08-19,2021-08-19,株式会社Ｔａｋｉ,,株式会社,熊本県,熊本市西区,河内町船津１２９９番地,,43,103,8615347,,,,,,,2021-08-19,1,,,,,タキ,0
2231,9360001029234,新規,0,2021-08-19,2021-08-19,株式会社ＷＥ　Ａｒｅ　Ｗｉｌｄ,,株式会社,沖縄県,うるま市,与那城屋慶名４４４－１トォーラス３０４,,47,213,9042304,,,,,,,2021-08-19,1,,,,,ウィーアーワイルド,0
2234,9360003011371,新規,0,2021-08-19,2021-08-19,合同会社眞謝工務店,,合同会社,沖縄県,島尻郡南風原町,字兼城２３５番地２満天ビルⅢ２０１,00123965,47,350,9011111,,,,,,,2021-08-19,1,,,,,マジャコウムテン,0
2249,9430003013063,新規,0,2021-08-19,2021-08-19,合同会社グラッチェ,,合同会社,北海道,札幌市白石区,平和通１３丁目南４番１６号,,01,104,0030028,,,,,,,2021-08-19,1,,,,,グラッチェ,0
2260,9700150104463,新規,0,2021-08-19,2021-08-19,ＧｉｎｏＶＲ,,外国会社等,広島県,東広島市,西条町田口１０６０９－３２コーポサンピアＢ１０１,,34,212,7390036,ＵＮＩＴ　１６０３，１６ＴＨ　ＦＬＯＯＲ，ＴＨＥ　Ｌ．ＰＬＡＺＡ　３６７－３７５　ＱＵＥＥＮ’Ｓ　ＲＯＡＤ　ＣＥＮＴＲＡＬ　ＳＨＥＵＮＧ　ＷＡＮＨＯＮＧ　ＫＯＮＧ,,,,,,2021-08-19,1,,,,,ジノブイアール,0
2261,9700150104471,新規,0,2021-08-19,2021-08-19,鮮花盛開有限公司,,外国会社等,東京都,中央区,勝どき５丁目３－１勝どきザタワー２８２６号室,,13,102,1040054,中国香港上環蘇杭街４９－５１号建安大厦楼Ｄ１,,,,,,2021-08-19,1,,,,,センカセイカイユウゲンコウシ,0
2262,9700150104488,新規,0,2021-08-19,2021-08-19,Ｈｕｖｅｐｈａｒｍａ　ＥＯＯＤ,,外国会社等,京都府,京都市伏見区,観音寺町２１０番１,,26,109,6128101,１１１３　Ｓｏｆｉａ，３Ａ　Ｎｉｋｏｌａｙ　Ｈａｙｔｏｖ　Ｓｔｒｅｅｔ，Ｂｕｌｇａｒｉａ,,,,,,2021-08-19,1,,,,,ヒユーベフアーマイーオーオーデイー,0
