sequenceNumber,corporateNumber,process,correct,updateDate,changeDate,name,nameImageId,kind,prefectureName,cityName,streetNumber,addressImageId,prefectureCode,cityCode,postCode,addressOutside,addressOutsideImageId,closeDate,closeCause,successorCorporateNumber,changeCause,assignmentDate,latest,enName,enPrefectureName,enCityName,enAddressOutside,furigana,hihyoji
27,1010902014376,登記記録の閉鎖等,0,2025-04-01,2025-03-26,有限会社万福,,有限会社,東京都,世田谷区,北烏山７丁目３０番３２号,,13,112,1570061,,,2025-03-26,清算の結了等,,,2015-10-05,1,,,,,,0
33,1011002007460,登記記録の閉鎖等,0,2025-04-01,2025-03-26,有限会社ソフトブレインズ,,有限会社,東京都,世田谷区,粕谷２丁目１９番５－１４０３号,,13,112,1570063,,,2025-03-26,清算の結了等,,,2015-10-05,1,,,,,ソフトブレインズ,0
35,1011101062943,登記記録の閉鎖等,0,2025-04-01,2025-03-25,株式会社ＮＬＮジャパン,,株式会社,東京都,新宿区,西新宿２丁目７番１号,,13,104,1600023,,,2025-03-25,合併による解散等,2270001001068,令和７年３月１日鳥取市新品治町１番地２中国電力鳥取支社ビル１階株式会社エヌ・エル・エヌ（2270001001068）に合併し解散,2015-10-05,1,,,,,エヌエルエヌジャパン,0
36,1011101086430,登記記録の閉鎖等,0,2025-04-01,2025-03-25,株式会社ＮＬＮテクノロジー,,株式会社,東京都,新宿区,西新宿２丁目７番１号,,13,104,1600023,,,2025-03-25,合併による解散等,2270001001068,令和７年３月１日鳥取市新品治町１番地２中国電力鳥取支社ビル１階株式会社エヌ・エル・エヌ（2270001001068）に合併し解散,2019-01-04,1,,,,,エヌエルエヌテクノロジー,0
57,1013302016083,登記記録の閉鎖等,0,2025-04-01,2025-03-18,有限会社プルミエ音楽出版,,有限会社,東京都,豊島区,東池袋３丁目９番１号,,13,116,1700013,,,2025-03-18,清算の結了等,,,2015-10-05,1,,,,,プルミエオンガクシュッパン,0
66,1021001073437,登記記録の閉鎖等,0,2025-04-01,2025-03-31,グリーンプラネットフォレスト株式会社,,株式会社,神奈川県,大和市,南林間６丁目１番２１号,,14,213,2420006,,,2025-03-31,清算の結了等,,,2021-07-16,1,,,,,,0
91,1080401005820,登記記録の閉鎖等,0,2025-04-01,2025-03-24,理想不動産株式会社,,株式会社,静岡県,浜松市中央区,大平台２丁目２８番２２号,,22,138,4328068,,,2025-03-24,清算の結了等,,,2015-10-05,1,,,,,リソウフドウサン,0
95,1120001220030,登記記録の閉鎖等,0,2025-04-01,2025-03-21,ＩＮＳＯＵ　ＳＰＯＲＴＳ株式会社,,株式会社,大阪府,大阪市西区,新町３丁目６番１０号,,27,106,5500013,,,2025-03-21,合併による解散等,6120001126702,令和７年３月２０日大阪市西区新町三丁目６番１０号ＩＮＳＯＵホールディングス株式会社（6120001126702）に合併し解散,2019-04-09,1,,,,,インソウスポーツ,0
97,1120001225590,登記記録の閉鎖等,0,2025-04-01,2025-03-28,光成堂株式会社,,株式会社,大阪府,大阪市中央区,東高麗橋１番１２号,,27,128,5400039,,,2025-03-28,清算の結了等,,,2019-12-09,1,,,,,コウセイドウ,0
107,1120903001107,登記記録の閉鎖等,0,2025-04-01,2025-03-28,Ｊ．Ｆｒｅｅネットワーク合同会社,,合同会社,大阪府,箕面市,小野原東１丁目１番６３号,,27,220,5620031,,,2025-03-28,清算の結了等,,,2015-10-05,1,,,,,,0
111,1130001015982,登記記録の閉鎖等,0,2025-04-01,2025-03-31,株式会社弥生,,株式会社,京都府,京都市伏見区,深草正覚町１番地の１５,,26,109,6120801,,,2025-03-31,清算の結了等,,,2015-10-05,1,,,,,ヤヨイ,0
112,1130001040403,登記記録の閉鎖等,0,2025-04-01,2025-03-31,新日本商事株式会社,,株式会社,京都府,京都市右京区,西院東貝川町１０番地７,,26,108,6150057,,,2025-03-31,清算の結了等,,,2015-10-05,1,,,,,シンニホンショウジ,0
113,1130002023968,登記記録の閉鎖等,0,2025-04-01,2025-03-28,有限会社さゝき,,有限会社,京都府,京都市中京区,先斗町通四条上る松本町１５９番地,,26,104,6048013,,,2025-03-28,清算の結了等,,,2015-10-05,1,,,,,,0
119,1180001027767,登記記録の閉鎖等,0,2025-04-01,2025-03-27,安藤建築株式会社,,株式会社,愛知県,名古屋市緑区,鳴海町字長田４１番地,,23,114,4580801,,,2025-03-27,合併による解散等,1140001042951,令和７年３月２１日兵庫県加古川市加古川町溝之口５８４番地株式会社三建（1140001042951）に合併し解散,2015-10-05,1,,,,,アンドウケンチク,0
131,1200001014416,登記記録の閉鎖等,0,2025-04-01,2025-03-28,山中ハウジング株式会社,,株式会社,岐阜県,大垣市,安井町２丁目１７番地の１,,21,202,5030837,,,2025-03-28,清算の結了等,,,2015-10-05,1,,,,,,0
134,1220002001972,登記記録の閉鎖等,0,2025-04-01,2025-03-24,有限会社河口建築工房,,有限会社,石川県,金沢市,東蚊爪町ヌ４５番地４,,17,201,9200209,,,2025-03-24,清算の結了等,,,2015-10-05,1,,,,,,0
138,1240001044822,登記記録の閉鎖等,0,2025-04-01,2025-03-31,株式会社ＥＩＣ,,株式会社,広島県,広島市安佐北区,安佐町大字飯室９２１番地の２９４,,34,106,7311142,,,2025-03-31,清算の結了等,,,2015-10-05,1,,,,,イーアイシー,0
141,1240001064481,登記記録の閉鎖等,0,2025-04-01,2025-03-31,ヘルシーホールディングス株式会社,,株式会社,広島県,広島市安佐北区,真亀１丁目５番１１号,,34,106,7391741,,,2025-03-31,合併による解散等,9240001057197,令和７年３月３１日広島市安佐南区川内六丁目４４番１９号ヘルシーカンパニー株式会社（9240001057197）に合併し解散,2025-02-06,1,,,,,ヘルシーホールディングス,0
175,1370002017491,登記記録の閉鎖等,0,2025-04-01,2025-03-26,有限会社みやぎ葬祭,,有限会社,宮城県,仙台市宮城野区,鶴ケ谷字北畑３７番地の２,,04,102,9830824,,,2025-03-26,清算の結了等,,,2015-10-05,1,,,,,ミヤギソウサイ,0
180,1390005000757,登記記録の閉鎖等,0,2025-04-01,2025-03-25,協同組合山形県資産評価システムセンター,,その他の設立登記法人,山形県,山形市,七日町１丁目４番１０号,,06,201,9900042,,,2025-03-25,清算の結了等,,,2015-10-05,1,,,,,ヤマガタケンシサンヒョウカシステムセンター,0
192,1490002011400,登記記録の閉鎖等,0,2025-04-01,2025-03-31,有限会社モードアン,,有限会社,高知県,香美市,土佐山田町東本町５丁目２番２２号,,39,212,7820031,,,2025-03-31,清算の結了等,,,2015-10-05,1,,,,,モードアン,0
204,2010002039496,登記記録の閉鎖等,0,2025-04-01,2025-03-24,有限会社巽プレス,,有限会社,東京都,文京区,千石４丁目１４番１１号,,13,105,1120011,,,2025-03-24,清算の結了等,,,2015-10-05,1,,,,,タツミプレス,0
214,2010501043833,登記記録の閉鎖等,0,2025-04-01,2025-03-26,株式会社イグジット,,株式会社,東京都,台東区,上野２丁目１２番２号上野池之端立田ビル２階,,13,106,1100005,,,2025-03-26,合併による解散等,4011001068674,令和７年３月１日東京都中央区日本橋室町四丁目３番１０号秀永日本橋室町ビル５階株式会社Ｓｕｎｒｉｓｅ　Ｓｔａｒ　Ｃｏｎｓｕｌｔａｎｔ（4011001068674）に合併し解散,2019-03-12,1,,,,,イグジット,0
219,2011001023037,登記記録の閉鎖等,0,2025-04-01,2025-03-28,明治フード株式会社,,株式会社,沖縄県,島尻郡南風原町,字喜屋武３７番地,,47,350,9011113,,,2025-03-28,清算の結了等,,,2015-10-05,1,,,,,メイジフード,0
225,2011201012995,登記記録の閉鎖等,0,2025-04-01,2025-03-31,株式会社共生,,株式会社,東京都,中野区,中野３丁目３番５号,,13,114,1640001,,,2025-03-31,清算の結了等,,,2015-10-05,1,,,,,キョウセイ,0
227,2011401005460,登記記録の閉鎖等,0,2025-04-01,2025-03-27,株式会社ヒロシゲ製作所,,株式会社,埼玉県,新座市,栄２丁目８番２６－４号,,11,230,3520014,,,2025-03-27,清算の結了等,,,2015-10-05,1,,,,,ヒロシゲセイサクジョ,0
243,2020002013533,登記記録の閉鎖等,0,2025-04-01,2025-03-19,有限会社石武商事,,有限会社,神奈川県,横浜市青葉区,新石川２丁目１４番地３,,14,117,2250003,,,2025-03-19,清算の結了等,,,2015-10-05,1,,,,,イシタケショウジ,0
249,2021001020628,登記記録の閉鎖等,0,2025-04-01,2025-03-26,株式会社よねやま,,株式会社,神奈川県,厚木市,栄町１丁目１５番１１号,,14,212,2430017,,,2025-03-26,清算の結了等,,,2015-10-05,1,,,,,ヨネヤマ,0
250,2021001044718,登記記録の閉鎖等,0,2025-04-01,2025-03-31,株式会社関東産業,,株式会社,神奈川県,逗子市,沼間４丁目１５番２号,,14,208,2490004,,,2025-03-31,清算の結了等,,,2015-10-05,1,,,,,カントウサンギョウ,0
254,2021003012953,登記記録の閉鎖等,0,2025-04-01,2025-03-31,アイテック合同会社,,合同会社,神奈川県,相模原市中央区,星が丘１丁目３番１２号スターヒルズＩＩＩ２０１号室,00130051,14,152,2520238,,,2025-03-31,清算の結了等,,,2023-04-11,1,,,,,アイテック,0
260,2030002093772,登記記録の閉鎖等,0,2025-04-01,2025-03-27,有限会社ジオプランニジュウイチ,,有限会社,埼玉県,坂戸市,芦山町２１番地１３,,11,239,3500273,,,2025-03-27,清算の結了等,,,2015-10-05,1,,,,,ジオプランニジュウイチ,0
285,2120105006135,登記記録の閉鎖等,0,2025-04-01,2025-03-03,医療法人社団大阪昌栄会,,その他の設立登記法人,大阪府,岸和田市,下松町１３４４番地の３,,27,202,5960823,,,2025-03-03,合併による解散等,2120105005715,令和７年３月３日大阪府岸和田市上松町二丁目８番１０号医療法人えいしん会（2120105005715）に合併し解散,2015-10-05,1,,,,,オオサカショウエイカイ,0
301,2140005018922,登記記録の閉鎖等,0,2025-04-01,2025-03-27,特定非営利活動法人あ・ぷり,,その他の設立登記法人,兵庫県,宝塚市,金井町２番２,,28,214,6650824,,,2025-03-27,清算の結了等,,,2015-10-05,1,,,,,アプリ,0
303,2160001016440,登記記録の閉鎖等,0,2025-04-01,2025-03-31,関西パネル工業株式会社,,株式会社,滋賀県,東近江市,石谷町字北野瀬１２８０番地,,25,213,5270227,,,2025-03-31,清算の結了等,,,2015-10-05,1,,,,,カンサイパネルコウギョウ,0
304,2170001011358,登記記録の閉鎖等,0,2025-04-01,2025-03-24,株式会社ジャパンリテイリング,,株式会社,東京都,中央区,日本橋本町３丁目６番２号,,13,102,1030023,,,2025-03-24,清算の結了等,,,2015-10-05,1,,,,,ジャパンリテイリング,0
305,2180001072523,登記記録の閉鎖等,0,2025-04-01,2025-03-28,株式会社ハンドシステム,,株式会社,愛知県,名古屋市中川区,山王３丁目８番２１号マウンラ・フィールビル２階,,23,110,4540011,,,2025-03-28,清算の結了等,,,2015-10-05,1,,,,,ハンドシステム,0
317,2240002012744,登記記録の閉鎖等,0,2025-04-01,2025-03-27,有限会社原田石油店,,有限会社,広島県,広島市安佐北区,安佐町大字飯室１５００番地,,34,106,7311142,,,2025-03-27,清算の結了等,,,2015-10-05,1,,,,,ハラダセキユテン,0
319,2250001008676,登記記録の閉鎖等,0,2025-04-01,2025-03-28,磯村建設株式会社,,株式会社,山口県,周南市,大字櫛ケ浜５４２番地,,35,215,7450805,,,2025-03-28,清算の結了等,,,2015-10-05,1,,,,,イソムラケンセツ,0
324,2290001081067,登記記録の閉鎖等,0,2025-04-01,2025-03-14,小田総合企画株式会社,,株式会社,福岡県,福岡市中央区,梅光園３丁目１番１－２１３号,,40,133,8100035,,,2025-03-14,清算の結了等,,,2018-04-09,1,,,,,オダソウゴウキカク,0
331,2290801010745,登記記録の閉鎖等,0,2025-04-01,2025-03-27,山下電設株式会社,,株式会社,福岡県,北九州市八幡西区,熊西１丁目８番１５号,,40,109,8060031,,,2025-03-27,清算の結了等,,,2015-10-05,1,,,,,ヤマシタデンセツ,0
333,2310002014080,登記記録の閉鎖等,0,2025-04-01,2025-03-27,有限会社岡崎工業,00096060,有限会社,長崎県,佐世保市,浦川内町１２７番地９,,42,202,8593225,,,2025-03-27,清算の結了等,,,2015-10-05,1,,,,,オカザキコウギョウ,0
344,2340005007558,登記記録の閉鎖等,0,2025-04-01,2025-03-28,特定非営利活動法人青少年のスポーツを支援する会,,その他の設立登記法人,鹿児島県,鹿児島市,東谷山２丁目２８番１９号,,46,201,8910113,,,2025-03-28,清算の結了等,,,2015-10-05,1,,,,,セイショウネンノスポーツヲシエンスルカイ,0
349,2420005000827,登記記録の閉鎖等,0,2025-04-01,2025-03-26,神道大成教高山教会,,その他の設立登記法人,青森県,青森市,茶屋町１２番２号,,02,201,0300904,,,2025-03-26,清算の結了等,,,2015-10-05,1,,,,,シントウタイセイキョウタカヤマキョウカイ,0
351,2430001048761,登記記録の閉鎖等,0,2025-04-01,2025-03-31,株式会社室組,,株式会社,北海道,滝川市,明神町４丁目８番１１号,,01,225,0730032,,,2025-03-31,清算の結了等,,,2015-10-05,1,,,,,ムログミ,0
358,2470001004083,登記記録の閉鎖等,0,2025-04-01,2025-03-27,森山ミート株式会社,,株式会社,香川県,高松市,常磐町１丁目４番地４,,37,201,7600054,,,2025-03-27,清算の結了等,,,2015-10-05,1,,,,,モリヤマミート,0
364,3010001046096,登記記録の閉鎖等,0,2025-04-01,2025-03-21,株式会社正明,,株式会社,東京都,中央区,日本橋１丁目１８番１４号,,13,102,1030027,,,2025-03-21,清算の結了等,,,2015-10-05,1,,,,,ショウメイ,0
369,3010001228454,登記記録の閉鎖等,0,2025-04-01,2025-03-24,株式会社Ｆｌｏ,,株式会社,東京都,中央区,銀座１丁目２２番１１号銀座大竹ビジデンス２Ｆ,,13,102,1040061,,,2025-03-24,清算の結了等,,,2022-08-03,1,,,,,フロー,0
384,3010405018963,登記記録の閉鎖等,0,2025-04-01,2025-03-27,一般社団法人福岡篠栗,,その他の設立登記法人,東京都,千代田区,霞が関３丁目２番５号,,13,101,1000013,,,2025-03-27,清算の結了等,,,2020-08-05,1,,,,,フクオカササグリ,0
407,3021001062925,登記記録の閉鎖等,0,2025-04-01,2025-03-31,株式会社ＳＴＡＲｓｐａｃｅ,,株式会社,神奈川県,藤沢市,鵠沼石上１丁目９番３号フォーマルハウト１Ｆ,,14,205,2510025,,,2025-03-31,清算の結了等,,,2017-08-25,1,,,,,,0
429,3060001021945,登記記録の閉鎖等,0,2025-04-01,2025-03-28,株式会社バリーズホーム,,株式会社,栃木県,宇都宮市,下岡本町２１０４番地３３,,09,201,3291104,,,2025-03-28,清算の結了等,,,2015-10-05,1,,,,,バリーズホーム,0
447,3120001083962,登記記録の閉鎖等,0,2025-04-01,2025-03-18,タケモト産業株式会社,,株式会社,大阪府,大阪市中央区,瓦町３丁目６番１３号,,27,128,5410048,,,2025-03-18,清算の結了等,,,2025-01-06,1,,,,,,0
464,3130001043346,登記記録の閉鎖等,0,2025-04-01,2025-03-28,北近畿防水工業株式会社,,株式会社,京都府,舞鶴市,字魚屋２６１番地の１０,,26,202,6240923,,,2025-03-28,清算の結了等,,,2015-10-05,1,,,,,キタキンキボウスイコウギョウ,0
493,3200001016022,登記記録の閉鎖等,0,2025-04-01,2025-03-28,株式会社立花屋,,株式会社,岐阜県,揖斐郡揖斐川町,谷汲徳積３１１番地,00076591,21,401,5011311,,,2025-03-28,清算の結了等,,,2015-10-05,1,,,,,タチバナヤ,0
497,3210002011459,登記記録の閉鎖等,0,2025-04-01,2025-03-26,有限会社アクティブセールスエンジニアリング,,有限会社,福井県,越前市,四郎丸町５９号４番地の１,,18,209,9150857,,,2025-03-26,清算の結了等,,,2015-10-05,1,,,,,アクティブセールスエンジニアリング,0
503,3240002026941,登記記録の閉鎖等,0,2025-04-01,2025-03-28,有限会社愛ことば広島,,有限会社,広島県,広島市西区,山田町３４番地の１６２,,34,104,7330854,,,2025-03-28,清算の結了等,,,2015-10-05,1,,,,,アイコトバヒロシマ,0
516,3290002056835,登記記録の閉鎖等,0,2025-04-01,2025-03-27,有限会社Ｎ・Ｋクリーン,,有限会社,福岡県,北九州市小倉南区,北方２丁目６番１号テクノプラザ北方Ｂ－３,,40,107,8020841,,,2025-03-27,清算の結了等,,,2015-10-05,1,,,,,エヌケイクリーン,0
523,3330002030380,登記記録の閉鎖等,0,2025-04-01,2025-03-26,有限会社西工作所,,有限会社,熊本県,人吉市,中林町４５９番地,,43,203,8680082,,,2025-03-26,清算の結了等,,,2015-10-05,1,,,,,ニシコウサクショ,0
530,3360002009703,登記記録の閉鎖等,0,2025-04-01,2025-03-28,有限会社アーバンクレジットサービス,,有限会社,沖縄県,那覇市,おもろまち４丁目６番１０号新都心マンション大興３０７号室,,47,201,9000006,,,2025-03-28,清算の結了等,,,2015-10-05,1,,,,,,0
531,3360002018431,登記記録の閉鎖等,0,2025-04-01,2025-03-27,ａｄｂａｎ有限会社,,有限会社,沖縄県,宜野湾市,大謝名２丁目２５番７号,,47,205,9012225,,,2025-03-27,清算の結了等,,,2015-10-05,1,,,,,アドバン,0
540,3450005004213,登記記録の閉鎖等,0,2025-04-01,2025-03-25,特定非営利活動法人わくわく絵本ランドけんぶち,,その他の設立登記法人,北海道,上川郡剣淵町,仲町８番８号,,01,465,0980338,,,2025-03-25,清算の結了等,,,2019-06-28,1,,,,,ワクワクエホンランドケンブチ,0
544,3480005003014,登記記録の閉鎖等,0,2025-04-01,2025-03-27,ツツイグループ協同組合,,その他の設立登記法人,徳島県,吉野川市,鴨島町上下島２００番地,,36,205,7760013,,,2025-03-27,清算の結了等,,,2015-10-05,1,,,,,ツツイグループ,0
559,4010003027531,登記記録の閉鎖等,0,2025-04-01,2025-03-25,千鳥福祉貢献プロジェクト合同会社,,合同会社,東京都,中央区,日本橋３丁目４番１０号,,13,102,1030027,,,2025-03-25,清算の結了等,,,2018-05-17,1,,,,,チドリフクシコウケンプロジェクト,0
569,4010401152765,登記記録の閉鎖等,0,2025-04-01,2025-03-21,Ｅｘｅｃｕｔｉｖｅ　Ｃｏｎｓｕｌｔｉｎｇ株式会社,,株式会社,大阪府,大阪市西区,新町１丁目１３番１７号再生ビル新町３Ｆ,,27,106,5500013,,,2025-03-21,清算の結了等,,,2020-06-05,1,,,,,エグゼクティブコンサルティング,0
598,4011201005329,登記記録の閉鎖等,0,2025-04-01,2025-03-14,株式会社宮川憲司建築事務所,,株式会社,東京都,国立市,谷保５０３７番地の１,,13,215,1860011,,,2025-03-14,清算の結了等,,,2015-10-05,1,,,,,ミヤカワケンジケンチクジムショ,0
599,4011201025351,登記記録の閉鎖等,0,2025-04-01,2025-03-31,ピェーミヤンマースウェ株式会社,,株式会社,東京都,中野区,東中野４丁目４－５－８１８,,13,114,1640003,,,2025-03-31,清算の結了等,,,2024-03-25,1,,,,,ピェーミヤンマースウェ,0
610,4020002010446,登記記録の閉鎖等,0,2025-04-01,2025-03-28,有限会社ハト印刷,,有限会社,神奈川県,横浜市磯子区,磯子２丁目１６番４号,,14,107,2350016,,,2025-03-28,清算の結了等,,,2015-10-05,1,,,,,ハトインサツ,0
616,4030001056051,登記記録の閉鎖等,0,2025-04-01,2025-03-27,株式会社横山工務店,,株式会社,埼玉県,ふじみ野市,駒林１２３番地,,11,245,3560034,,,2025-03-27,清算の結了等,,,2015-10-05,1,,,,,ヨコヤマコウムテン,0
618,4030001152651,登記記録の閉鎖等,0,2025-04-01,2025-03-27,株式会社エヌイージーユー,,株式会社,埼玉県,戸田市,南町４番２８－６０８号,,11,224,3350025,,,2025-03-27,清算の結了等,,,2023-03-03,1,,,,,エヌイージーユー,0
622,4030003023495,登記記録の閉鎖等,0,2025-04-01,2025-03-07,合同会社ＭＲＳｙｓｔｅｍｓ,,合同会社,東京都,港区,南青山３丁目１番３６号青山丸竹ビル６Ｆ,,13,103,1070062,,,2025-03-07,清算の結了等,,,2024-01-29,1,,,,,エムアールシステムズ,0
624,4040001002847,登記記録の閉鎖等,0,2025-04-01,2025-03-21,株式会社三洋商會,,株式会社,千葉県,千葉市若葉区,高品町８９９番地１高品ハイツ１棟７１７号,,12,104,2640024,,,2025-03-21,清算の結了等,,,2015-10-05,1,,,,,サンヨウショウカイ,0
635,4080001018947,登記記録の閉鎖等,0,2025-04-01,2025-03-26,株式会社チロル,,株式会社,静岡県,静岡市清水区,折戸４２８番地の６,,22,103,4240902,,,2025-03-26,清算の結了等,,,2015-10-05,1,,,,,チロル,0
638,4120001142536,登記記録の閉鎖等,0,2025-04-01,2025-03-27,株式会社アースシティ,,株式会社,大阪府,吹田市,岸部中４丁目８番３２号,,27,205,5640002,,,2025-03-27,清算の結了等,,,2015-10-05,1,,,,,アースシティ,0
639,4120001188447,登記記録の閉鎖等,0,2025-04-01,2025-03-21,株式会社サクセスライフサポート,,株式会社,大阪府,大阪市天王寺区,夕陽丘町３番３号,,27,109,5430075,,,2025-03-21,清算の結了等,,,2015-10-05,1,,,,,サクセスライフサポート,0
655,4130001044112,登記記録の閉鎖等,0,2025-04-01,2025-03-07,Ｄｒｅａｍ　Ｊａｐａｎ株式会社,,株式会社,兵庫県,神戸市長田区,東尻池新町１番３３号,,28,106,6530023,,,2025-03-07,合併による解散等,5130001033997,令和７年３月１日京都市伏見区横大路芝生３０番地８株式会社リバティ（5130001033997）に合併し解散,2015-10-05,1,,,,,ドリームジャパン,0
676,4180001130898,登記記録の閉鎖等,0,2025-04-01,2025-03-27,ＫＡＳＨＩＷＡＹＡ　ＥＡＲＴＨ　ＷＩＮＤ＆ＦＩＲＥ株式会社,,株式会社,愛知県,半田市,住吉町３丁目１３９番地の２,,23,205,4750862,,,2025-03-27,清算の結了等,,,2018-01-17,1,,,,,カシワヤアースウインドアンドファイヤー,0
681,4180002034966,登記記録の閉鎖等,0,2025-04-01,2025-03-24,有限会社シンシアインターナショナルフーズ,,有限会社,愛知県,名古屋市中区,千代田３丁目４番１７号ルネ鶴舞６０６号,,23,106,4600012,,,2025-03-24,清算の結了等,,,2015-10-05,1,,,,,シンシアインターナショナルフーズ,0
682,4180002039412,登記記録の閉鎖等,0,2025-04-01,2025-03-28,有限会社中部ウェルディング,,有限会社,愛知県,名古屋市北区,若葉通２丁目１０番地,,23,103,4620854,,,2025-03-28,清算の結了等,,,2015-10-05,1,,,,,チュウブウェルディング,0
683,4180003026087,登記記録の閉鎖等,0,2025-04-01,2025-03-14,ＭＲＴコンサルティングジャパン合同会社,,合同会社,愛知県,名古屋市中川区,横堀町３丁目１０番地の２,,23,110,4540021,,,2025-03-14,清算の結了等,,,2023-12-15,1,,,,,エムアールティーコンサルティングジャパン,0
694,4250002003402,登記記録の閉鎖等,0,2025-04-01,2025-03-31,有限会社藤本材木店,,有限会社,山口県,防府市,大字上右田１７７０番地の２,,35,206,7470062,,,2025-03-31,清算の結了等,,,2015-10-05,1,,,,,フジモトザイモクテン,0
696,4260001028374,登記記録の閉鎖等,0,2025-04-01,2025-03-27,株式会社ＳＮＧ,,株式会社,岡山県,倉敷市,羽島３７５番地３４,,33,202,7100043,,,2025-03-27,清算の結了等,,,2015-10-05,1,,,,,エスエヌジー,0
706,4300001006094,登記記録の閉鎖等,0,2025-04-01,2025-03-28,株式会社池田工業,,株式会社,佐賀県,西松浦郡有田町,本町丙１５２２番地,,41,401,8440018,,,2025-03-28,清算の結了等,,,2015-10-05,1,,,,,イケダコウギョウ,0
711,4370001012565,登記記録の閉鎖等,0,2025-04-01,2025-03-26,株式会社テクノマート,,株式会社,宮城県,仙台市若林区,中倉２丁目２２番３７号,,04,103,9840821,,,2025-03-26,清算の結了等,,,2015-10-05,1,,,,,テクノマート,0
722,4430001028357,登記記録の閉鎖等,0,2025-04-01,2025-03-31,株式会社エムワイ建物,,株式会社,北海道,札幌市北区,北二十二条西５丁目２番１９号,,01,102,0010022,,,2025-03-31,清算の結了等,,,2015-10-05,1,,,,,,0
723,4430001077651,登記記録の閉鎖等,0,2025-04-01,2025-03-31,ＫＥＩＳＨＩＮ工業株式会社,,株式会社,北海道,札幌市厚別区,上野幌三条３丁目５番１９号,,01,108,0040033,,,2025-03-31,清算の結了等,,,2018-11-07,1,,,,,ケイシンコウギョウ,0
732,4460101003125,登記記録の閉鎖等,0,2025-04-01,2025-03-27,株式会社ホリサワ,,株式会社,北海道,帯広市,西十三条南１０丁目１１番地１,,01,207,0800023,,,2025-03-27,清算の結了等,,,2015-10-05,1,,,,,ホリサワ,0
744,5010001191584,登記記録の閉鎖等,0,2025-04-01,2025-03-03,株式会社エイガ・ドット・コム・オンデマンド,,株式会社,東京都,渋谷区,恵比寿１丁目１８－１４恵比寿ファーストスクエア８階,,13,113,1500013,,,2025-03-03,合併による解散等,7010001082096,令和７年３月１日東京都渋谷区恵比寿一丁目１８番１４号恵比寿ファーストスクエア８階株式会社エイガ・ドット・コム（7010001082096）に合併し解散,2018-05-25,1,,,,,エイガドットコムオンデマンド,0
769,5011001111680,登記記録の閉鎖等,0,2025-04-01,2025-03-03,株式会社東芸ブレイン,,株式会社,東京都,渋谷区,代々木１丁目２２番１号,,13,113,1510053,,,2025-03-03,清算の結了等,,,2016-07-05,1,,,,,トウゲイブレイン,0
782,5011801033075,登記記録の閉鎖等,0,2025-04-01,2025-03-26,棚受け女王蜂株式会社,,株式会社,東京都,葛飾区,東四つ木２丁目５番９号,,13,122,1240014,,,2025-03-26,清算の結了等,,,2017-03-24,1,,,,,タナウケジョウオウバチ,0
786,5011805000245,登記記録の閉鎖等,0,2025-04-01,2025-03-26,直日教本部教会,,その他の設立登記法人,東京都,足立区,鹿浜５丁目２５番２号,,13,121,1230864,,,2025-03-26,清算の結了等,,,2015-10-05,1,,,,,ナオヒキョウホンブキョウカイ,0
797,5020003009940,登記記録の閉鎖等,0,2025-04-01,2025-03-14,合同会社大田企画,,合同会社,神奈川県,横浜市港北区,箕輪町１丁目１４番１－５０８号,,14,109,2230051,,,2025-03-14,清算の結了等,,,2015-10-05,1,,,,,オオタキカク,0
798,5020003011517,登記記録の閉鎖等,0,2025-04-01,2025-03-27,ｌｕｎａ　ｐｉｅｎａ合同会社,,合同会社,東京都,世田谷区,経堂２丁目２番４号,,13,112,1560052,,,2025-03-27,清算の結了等,,,2016-07-14,1,,,,,,0
805,5021002012299,登記記録の閉鎖等,0,2025-04-01,2025-03-31,八起木販有限会社,,有限会社,神奈川県,茅ヶ崎市,中島７２１番地,,14,207,2530073,,,2025-03-31,清算の結了等,,,2015-10-05,1,,,,,,0
808,5030001064103,登記記録の閉鎖等,0,2025-04-01,2025-03-27,株式会社新生,,株式会社,埼玉県,越谷市,大字大泊２番地５,,11,222,3430044,,,2025-03-27,清算の結了等,,,2015-10-05,1,,,,,シンセイ,0
809,5030001105559,登記記録の閉鎖等,0,2025-04-01,2025-03-28,エクスターナル株式会社,,株式会社,埼玉県,さいたま市北区,別所町４３番地６,,11,102,3310821,,,2025-03-28,清算の結了等,,,2015-10-05,1,,,,,エクスターナル,0
814,5030002081345,登記記録の閉鎖等,0,2025-04-01,2025-03-27,有限会社須川建工,,有限会社,埼玉県,本庄市,児玉町児玉２０６番地７,,11,211,3670212,,,2025-03-27,清算の結了等,,,2015-10-05,1,,,,,スガワケンコウ,0
836,5120001028916,登記記録の閉鎖等,0,2025-04-01,2025-03-21,株式会社後藤商店,00027976,株式会社,大阪府,大阪市港区,田中２丁目１２番２７号,,27,107,5520005,,,2025-03-21,清算の結了等,,,2015-10-05,1,,,,,ゴトウショウテン,0
858,5120901049020,登記記録の閉鎖等,0,2025-04-01,2025-03-26,株式会社ＩＧコンサルティング,,株式会社,大阪府,高槻市,城北町１丁目５番２５号,,27,207,5690071,,,2025-03-26,清算の結了等,,,2024-04-10,1,,,,,アイジーコンサルティング,0
861,5122001029877,登記記録の閉鎖等,0,2025-04-01,2025-03-21,株式会社三誠,,株式会社,大阪府,大阪市中央区,谷町１丁目６番８号城西ビル９階Ｂ号室,,27,128,5400012,,,2025-03-21,清算の結了等,,,2016-08-22,1,,,,,,0
867,5140001079008,登記記録の閉鎖等,0,2025-04-01,2025-03-24,株式会社明電,,株式会社,兵庫県,伊丹市,西野６丁目２１番地,,28,207,6640028,,,2025-03-24,清算の結了等,,,2015-10-05,1,,,,,メイデン,0
874,5150001004526,登記記録の閉鎖等,0,2025-04-01,2025-03-06,株式会社河野店舗設計室,,株式会社,大阪府,大阪市中央区,博労町１丁目８番２号三共堺筋本町ビル１０階,,27,128,5410059,,,2025-03-06,合併による解散等,1010601030138,令和７年３月１日東京都江東区亀戸一丁目２８番６号タニビル株式会社ヤマトマネキン（1010601030138）に合併し解散,2015-10-05,1,,,,,カワノテンポセッケイシツ,0
879,5180001075003,登記記録の閉鎖等,0,2025-04-01,2025-03-11,中部冷蔵株式会社,,株式会社,愛知県,春日井市,長塚町１丁目１０３番地,,23,206,4860934,,,2025-03-11,合併による解散等,3030001084458,令和７年３月１日埼玉県熊谷市佐谷田１６３１番地株式会社井ノ瀬運送（3030001084458）に合併し解散,2015-10-05,1,,,,,チュウブレイゾウ,0
887,5180002044923,登記記録の閉鎖等,0,2025-04-01,2025-03-26,有限会社美鈴屋,,有限会社,愛知県,名古屋市中村区,中村本町２丁目８５番地,,23,105,4530828,,,2025-03-26,清算の結了等,,,2015-10-05,1,,,,,ミスズヤ,0
890,5180005001681,登記記録の閉鎖等,0,2025-04-01,2025-03-05,天理教愛宮分教会,,その他の設立登記法人,愛知県,名古屋市南区,呼続元町１１番１１号,,23,112,4570011,,,2025-03-05,合併による解散等,4180005001311,令和７年３月５日名古屋市瑞穂区中根町三丁目４８番地天理教尾陽分教会（4180005001311）に合併し解散,2015-10-05,1,,,,,テンリキョウアイミヤブンキョウカイ,0
904,5260002017680,登記記録の閉鎖等,0,2025-04-01,2025-03-11,株式会社キャピタル,,株式会社,岡山県,倉敷市,児島小川町３６７２－１０,,33,202,7110912,,,2025-03-11,合併による解散等,1010401183648,令和７年３月１日東京都港区赤坂五丁目３番１号赤坂Ｂｉｚタワー２９階ＬＣＪ　Ｂｌｕｅ株式会社（1010401183648）に合併し解散,2015-10-05,1,,,,,キャピタル,0
914,5290801010651,登記記録の閉鎖等,0,2025-04-01,2025-03-31,株式会社マルマス,,株式会社,福岡県,北九州市八幡西区,友田１丁目１２番４号,,40,109,8070828,,,2025-03-31,清算の結了等,,,2015-10-05,1,,,,,マルマス,0
915,5290802025491,登記記録の閉鎖等,0,2025-04-01,2025-03-28,有限会社せんり,,有限会社,福岡県,田川郡川崎町,大字田原１８６５番地の３,,40,605,8270004,,,2025-03-28,清算の結了等,,,2015-10-05,1,,,,,センリ,0
916,5300003001984,登記記録の閉鎖等,0,2025-04-01,2025-03-31,合同会社佐賀新聞販売センター諸富,,合同会社,佐賀県,佐賀市,兵庫南４丁目２１番１３号,,41,201,8490918,,,2025-03-31,清算の結了等,,,2023-06-28,1,,,,,サガシンブンハンバイセンターモロドミ,0
920,5340002001874,登記記録の閉鎖等,0,2025-04-01,2025-03-31,有限会社江戸屋履物店,,有限会社,鹿児島県,鹿児島市,東千石町１３番８号,,46,201,8920842,,,2025-03-31,清算の結了等,,,2015-10-05,1,,,,,エドヤハキモノテン,0
928,5370002018346,登記記録の閉鎖等,0,2025-04-01,2025-03-18,有限会社ロードマップ,,有限会社,宮城県,仙台市青葉区,北根１丁目１３番１－１００７号,,04,101,9810902,,,2025-03-18,清算の結了等,,,2015-10-05,1,,,,,ロードマップ,0
934,5430001011700,登記記録の閉鎖等,0,2025-04-01,2025-03-27,東和自動車販売株式会社,,株式会社,北海道,札幌市白石区,平和通１５丁目南１番１７号,,01,104,0030028,,,2025-03-27,清算の結了等,,,2015-10-05,1,,,,,,0
935,5430001017375,登記記録の閉鎖等,0,2025-04-01,2025-03-31,株式会社山際ハイツ,,株式会社,北海道,札幌市豊平区,平岸二条７丁目４番２７号,,01,105,0620932,,,2025-03-31,清算の結了等,,,2015-10-05,1,,,,,ヤマギワハイツ,0
938,5430001063741,登記記録の閉鎖等,0,2025-04-01,2025-03-31,株式会社上原興業,,株式会社,北海道,札幌市豊平区,月寒東一条１７丁目４番１号,,01,105,0620051,,,2025-03-31,清算の結了等,,,2015-10-05,1,,,,,ウエハラコウギョウ,0
940,5430005005079,登記記録の閉鎖等,0,2025-04-01,2025-03-27,特定非営利活動法人ほっかいどう増販情報センター,,その他の設立登記法人,北海道,札幌市中央区,北三条西２丁目２番地１,,01,101,0600003,,,2025-03-27,清算の結了等,,,2015-10-05,1,,,,,ホッカイドウゾウハンジョウホウセンター,0
960,6010001243500,登記記録の閉鎖等,0,2025-04-01,2025-03-19,株式会社オリジナル,,株式会社,東京都,中央区,日本橋室町１丁目５番２号東洋ビル５階,,13,102,1030022,,,2025-03-19,清算の結了等,,,2024-03-29,1,,,,,オリジナル,0
965,6010003037058,登記記録の閉鎖等,0,2025-04-01,2025-03-28,合同会社ｅｙｅ‐ｌａｎｄ,,合同会社,東京都,葛飾区,西亀有３丁目３４－１６,,13,122,1250002,,,2025-03-28,清算の結了等,,,2022-02-22,1,,,,,アイランド,0
968,6010005033749,登記記録の閉鎖等,0,2025-04-01,2025-03-03,日本医療福祉税理士法人,,その他の設立登記法人,東京都,千代田区,麹町３丁目３番地８麹町センタープレイス９階,,13,101,1020083,,,2025-03-03,合併による解散等,8010005035586,令和７年３月３日東京都千代田区麹町三丁目３番地８麹町センタープレイス９階成実税理士法人（8010005035586）に合併し解散,2021-08-12,1,,,,,ニホンイリョウフクシ,0
1010,6013205001599,登記記録の閉鎖等,0,2025-04-01,2025-03-04,解体リサイクルシステム協同組合,,その他の設立登記法人,東京都,目黒区,緑が丘２丁目１８番１６号,,13,110,1520034,,,2025-03-04,清算の結了等,,,2015-10-05,1,,,,,カイタイリサイクルシステム,0
1014,6020001055234,登記記録の閉鎖等,0,2025-04-01,2025-03-18,Ｍ＆Ｌ・Ｓ株式会社,,株式会社,神奈川県,横浜市旭区,白根５丁目４７番１１号,,14,112,2410005,,,2025-03-18,清算の結了等,,,2015-10-05,1,,,,,エムアンドエルエス,0
1026,6030001026548,登記記録の閉鎖等,0,2025-04-01,2025-03-27,株式会社日建ライフ,,株式会社,埼玉県,狭山市,富士見１丁目１５番２２号,,11,215,3501306,,,2025-03-27,清算の結了等,,,2015-10-05,1,,,,,ニッケンライフ,0
1027,6030001061850,登記記録の閉鎖等,0,2025-04-01,2025-03-28,深井ゴム工業株式会社,,株式会社,埼玉県,鴻巣市,上谷字飯島２１１９番地１,,11,217,3650027,,,2025-03-28,清算の結了等,,,2015-10-05,1,,,,,,0
1045,6120001049184,登記記録の閉鎖等,0,2025-04-01,2025-03-03,株式会社タケマス,,株式会社,大阪府,大阪市西区,千代崎１丁目１２番１５号,,27,106,5500023,,,2025-03-03,合併による解散等,9120001041254,令和７年３月１日大阪市西区千代崎一丁目１２番１５号株式会社タケマス（9120001041254）に合併して解散,2015-10-05,1,,,,,タケマス,0
1050,6120001178941,登記記録の閉鎖等,0,2025-04-01,2025-03-21,株式会社ＰＯＯＬ,,株式会社,大阪府,大阪市西区,靱本町２丁目４－７センターヒル３Ｆ,,27,106,5500004,,,2025-03-21,清算の結了等,,,2015-10-05,1,,,,,,0
1056,6120901006821,登記記録の閉鎖等,0,2025-04-01,2025-03-27,十王電機株式会社,,株式会社,大阪府,吹田市,山手町４丁目４番３８号,,27,205,5640073,,,2025-03-27,清算の結了等,,,2015-10-05,1,,,,,ジュウオウデンキ,0
1061,6130002034399,登記記録の閉鎖等,0,2025-04-01,2025-03-28,有限会社双鶴庵,,有限会社,京都府,舞鶴市,字北田辺１２７番地,,26,202,6240855,,,2025-03-28,清算の結了等,,,2015-10-05,1,,,,,ソウカクアン,0
1085,6180001159572,登記記録の閉鎖等,0,2025-04-01,2025-03-26,株式会社ｎａｖｉ,,株式会社,愛知県,名古屋市東区,泉１丁目１０番２３号,,23,102,4610001,,,2025-03-26,清算の結了等,,,2024-01-04,1,,,,,ナビ,0
1092,6240001003708,登記記録の閉鎖等,0,2025-04-01,2025-03-31,山陽礦油株式会社,,株式会社,広島県,広島市中区,西白島町２２番１５号,,34,101,7300005,,,2025-03-31,合併による解散等,4240001001770,令和７年３月３１日広島市中区西白島町２２番１５号株式会社大野石油店（4240001001770）に合併し解散,2015-10-05,1,,,,,サンヨウコウユ,0
1094,6240001046013,登記記録の閉鎖等,0,2025-04-01,2025-03-31,株式会社門出,,株式会社,広島県,広島市南区,宇品西２丁目２番３６号門出ビル２階,,34,103,7340014,,,2025-03-31,清算の結了等,,,2015-10-05,1,,,,,モンデ,0
1104,6280002011177,登記記録の閉鎖等,0,2025-04-01,2025-03-31,有限会社アダチ,,有限会社,島根県,雲南市,大東町須賀２９５番地５,,32,209,6991205,,,2025-03-31,清算の結了等,,,2015-10-05,1,,,,,アダチ,0
1106,6290001081229,登記記録の閉鎖等,0,2025-04-01,2025-03-12,Ｊ．Ｉ．Ｎ株式会社,,株式会社,福岡県,福岡市中央区,春吉３丁目１５番３０号２Ｆ,,40,133,8100003,,,2025-03-12,清算の結了等,,,2018-04-23,1,,,,,ジェイアイエヌ,0
1112,6300002009912,登記記録の閉鎖等,0,2025-04-01,2025-03-31,吉野産業有限会社,,有限会社,佐賀県,神埼郡吉野ヶ里町,吉田２６３番地３,,41,327,8420031,,,2025-03-31,清算の結了等,,,2015-10-05,1,,,,,ヨシノサンギョウ,0
1115,6310003003145,登記記録の閉鎖等,0,2025-04-01,2025-03-28,合同会社善八,,合同会社,長崎県,長崎市,興善町８番１４号,,42,201,8500032,,,2025-03-28,清算の結了等,,,2016-06-14,1,,,,,ゼンパチ,0
1124,6330003006559,登記記録の閉鎖等,0,2025-04-01,2025-03-26,モトウ技研合同会社,,合同会社,熊本県,菊池市,原８７５番地,,43,210,8611441,,,2025-03-26,清算の結了等,,,2015-12-22,1,,,,,モトウギケン,0
1127,6340001026797,登記記録の閉鎖等,0,2025-04-01,2025-03-28,Ｓｍｅｌｌ　Ｓｗｅｐｔ株式会社,,株式会社,鹿児島県,鹿児島市,易居町１－２鹿児島市役所みなと大通り別館６Ｆ９号室,,46,201,8920815,,,2025-03-28,清算の結了等,,,2024-09-12,1,,,,,スメルスエプト,0
1134,6370005001645,登記記録の閉鎖等,0,2025-04-01,2025-03-26,宮城県警友会消費生活協同組合,,その他の設立登記法人,宮城県,仙台市青葉区,本町３丁目８番１号,,04,101,9800014,,,2025-03-26,清算の結了等,,,2015-10-05,1,,,,,ミヤギケンケイユウカイ,0
1147,6430002016540,登記記録の閉鎖等,0,2025-04-01,2025-03-31,有限会社ビユーテイサロンたかの,,有限会社,北海道,札幌市北区,北四十条西４丁目２番７号,,01,102,0010040,,,2025-03-31,清算の結了等,,,2015-10-05,1,,,,,ビューテイサロンタカノ,0
1148,6430002032050,登記記録の閉鎖等,0,2025-04-01,2025-03-31,有限会社リファインドカンパニー,,有限会社,北海道,札幌市豊平区,中の島二条３丁目１番１号,,01,105,0620922,,,2025-03-31,清算の結了等,,,2015-10-05,1,,,,,リファインドカンパニー,0
1151,6460001004015,登記記録の閉鎖等,0,2025-04-01,2025-03-07,竹川釣具株式会社,,株式会社,北海道,旭川市,宮下通５丁目１番１３‐５０１号,,01,204,0700030,,,2025-03-07,合併による解散等,9460001001199,令和７年３月１日北海道釧路市新橋大通八丁目１番１号東洋不動産株式会社（9460001001199）に合併し解散,2016-02-25,1,,,,,タケカワツリグ,0
1167,7010401073307,登記記録の閉鎖等,0,2025-04-01,2025-03-24,株式会社ルーターズ,,株式会社,東京都,品川区,東五反田２丁目７番１３号,,13,109,1410022,,,2025-03-24,清算の結了等,,,2015-10-05,1,,,,,ルーターズ,0
1179,7010705002556,登記記録の閉鎖等,0,2025-04-01,2025-03-21,一般社団法人幸せの輪,,その他の設立登記法人,東京都,品川区,西五反田８丁目２番１２号７Ａ,,13,109,1410031,,,2025-03-21,清算の結了等,,,2017-01-18,1,,,,,シアワセノワ,0
1182,7011001109310,登記記録の閉鎖等,0,2025-04-01,2025-03-03,８Ｇｅａｒ株式会社,,株式会社,東京都,渋谷区,笹塚１丁目５５番７号マルエスファーストビル,,13,113,1510073,,,2025-03-03,合併による解散等,7011301016479,令和７年３月１日東京都渋谷区笹塚一丁目５５番７号マルエスファーストビル株式会社トラックオーコク（7011301016479）に合併し解散,2016-01-28,1,,,,,エイトギア,0
1195,7011101096325,登記記録の閉鎖等,0,2025-04-01,2025-03-17,株式会社エネマッチ,,株式会社,東京都,新宿区,西新宿８丁目１４番２４号,,13,104,1600023,,,2025-03-17,清算の結了等,,,2021-09-21,1,,,,,エネマッチ,0
1207,7013301052751,登記記録の閉鎖等,0,2025-04-01,2025-03-13,株式会社ケイエスアイティージャパン,,株式会社,福岡県,太宰府市,五条１丁目１５番７号シティハイム水城コーポ２階Ａ号,,40,221,8180125,,,2025-03-13,清算の結了等,,,2024-07-04,1,,,,,ケイエスアイティージャパン,0
1208,7013303003802,登記記録の閉鎖等,0,2025-04-01,2025-03-18,プロマックス合同会社,,合同会社,東京都,豊島区,千早２丁目２７番１７,,13,116,1710044,,,2025-03-18,清算の結了等,,,2017-08-08,1,,,,,プロマックス,0
1210,7020001089529,登記記録の閉鎖等,0,2025-04-01,2025-03-31,株式会社テクノクロス,,株式会社,神奈川県,綾瀬市,深谷上６丁目３番３号ラピスラズリ４０１,,14,218,2521108,,,2025-03-31,清算の結了等,,,2015-10-05,1,,,,,,0
1224,7030001160759,登記記録の閉鎖等,0,2025-04-01,2025-03-24,ドクターズアップ株式会社,,株式会社,埼玉県,さいたま市見沼区,大字風渡野３６６番２８,,11,104,3370017,,,2025-03-24,清算の結了等,,,2024-06-06,1,,,,,ドクターズアップ,0
1238,7050003007097,登記記録の閉鎖等,0,2025-04-01,2025-03-21,幸福合同会社,,合同会社,茨城県,結城郡八千代町,大字若１３１４番地３,,08,521,3003544,,,2025-03-21,清算の結了等,,,2022-12-19,1,,,,,コウフク,0
1246,7080405006058,登記記録の閉鎖等,0,2025-04-01,2025-03-21,協同組合森町ファミリーチエン,,その他の設立登記法人,静岡県,周智郡森町,森２０番地の９,,22,461,4370215,,,2025-03-21,清算の結了等,,,2015-10-05,1,,,,,モリマチファミリーチエン,0
1251,7120001206131,登記記録の閉鎖等,0,2025-04-01,2025-03-21,株式会社藤本,,株式会社,大阪府,大阪市鶴見区,今津南１丁目６番２９号,,27,124,5380043,,,2025-03-21,清算の結了等,,,2017-05-31,1,,,,,,0
1261,7130002025298,登記記録の閉鎖等,0,2025-04-01,2025-03-31,有限会社丸久化成,,有限会社,京都府,向日市,寺戸町大牧１４－１４８,,26,208,6170002,,,2025-03-31,清算の結了等,,,2015-10-05,1,,,,,マルキュウカセイ,0
1278,7180002033461,登記記録の閉鎖等,0,2025-04-01,2025-03-31,有限会社ランドプラン,,有限会社,愛知県,一宮市,木曽川町黒田字錦里９９番地１,,23,203,4930001,,,2025-03-31,清算の結了等,,,2015-10-05,1,,,,,ランドプラン,0
1284,7240001038216,登記記録の閉鎖等,0,2025-04-01,2025-03-31,瀬戸内産業株式会社,,株式会社,広島県,尾道市,因島三庄町１６０７番地の１,,34,205,7222322,,,2025-03-31,合併による解散等,4240001037815,令和７年３月３１日広島県尾道市因島三庄町１５７３番地因島鉄工株式会社（4240001037815）に合併し解散,2015-10-05,1,,,,,セトウチサンギョウ,0
1326,7370502000082,登記記録の閉鎖等,0,2025-04-01,2025-03-26,有限会社エヌシー,,有限会社,宮城県,気仙沼市,田中前１丁目２番地の９,,04,205,9880053,,,2025-03-26,清算の結了等,,,2015-10-05,1,,,,,エヌシー,0
1329,7400001013004,登記記録の閉鎖等,0,2025-04-01,2025-03-07,Ｇｏｏｄｔｉｍｅｓ株式会社,,株式会社,東京都,港区,南麻布３丁目２０－１Ｄａｉｗａ麻布テラス５Ｆ,,13,103,1060047,,,2025-03-07,清算の結了等,,,2015-12-17,1,,,,,グッドタイムズ,0
1333,7430001039376,登記記録の閉鎖等,0,2025-04-01,2025-03-31,株式会社北海道フード工房,,株式会社,北海道,札幌市中央区,南一条西２０丁目１番６号,,01,101,0640801,,,2025-03-31,清算の結了等,,,2015-10-05,1,,,,,ホッカイドウフードコウボウ,0
1339,7430003010211,登記記録の閉鎖等,0,2025-04-01,2025-03-03,合同会社ベリーファームとようら,,合同会社,北海道,虻田郡豊浦町,字船見町１２７番地８,,01,571,0495416,,,2025-03-03,合併による解散等,1420003001191,令和７年３月１日北海道虻田郡豊浦町字東雲町２３番地１合同会社ナチュラル・アセット・マネジメント（1420003001191）に合併し解散,2019-03-08,1,,,,,ベリーファームトヨウラ,0
1346,7500002023826,登記記録の閉鎖等,0,2025-04-01,2025-03-28,宝水産有限会社,,有限会社,愛媛県,南宇和郡愛南町,家串１１２１番地,,38,506,7983705,,,2025-03-28,清算の結了等,,,2015-10-05,1,,,,,タカラスイサン,0
1359,8010002014048,登記記録の閉鎖等,0,2025-04-01,2025-03-25,有限会社フォルスコーポレーション,,有限会社,東京都,千代田区,平河町１丁目５番７号,,13,101,1020093,,,2025-03-25,清算の結了等,,,2025-02-25,1,,,,,フォルスコーポレーション,0
1360,8010002051347,登記記録の閉鎖等,0,2025-04-01,2025-03-19,有限会社ジスタス,,有限会社,東京都,中央区,勝どき６丁目３番１－１０２２号,,13,102,1040054,,,2025-03-19,清算の結了等,,,2015-10-05,1,,,,,ジスタス,0
1363,8010003026892,登記記録の閉鎖等,0,2025-04-01,2025-03-25,両国福祉貢献プロジェクト合同会社,,合同会社,東京都,中央区,日本橋３丁目４番１０号,,13,102,1030027,,,2025-03-25,清算の結了等,,,2018-02-05,1,,,,,リョウゴクフクシコウケンプロジェクト,0
1388,8010902006887,登記記録の閉鎖等,0,2025-04-01,2025-03-27,有限会社三利,,有限会社,東京都,世田谷区,尾山台２丁目２番７号,,13,112,1580086,,,2025-03-27,清算の結了等,,,2015-10-05,1,,,,,ミツトシ,0
1391,8011001112296,登記記録の閉鎖等,0,2025-04-01,2025-03-27,株式会社ＳＫ　ｃｏａｔｅｒ,,株式会社,東京都,渋谷区,恵比寿南２丁目２９番７号,,13,113,1500022,,,2025-03-27,清算の結了等,,,2016-08-10,1,,,,,エスケーコーター,0
1416,8011801003406,登記記録の閉鎖等,0,2025-04-01,2025-03-27,株式会社ＳＨＯＷＷＡＹ,,株式会社,東京都,葛飾区,奥戸４丁目１８番１５号,,13,122,1240022,,,2025-03-27,清算の結了等,,,2015-10-05,1,,,,,,0
1431,8020001038484,登記記録の閉鎖等,0,2025-04-01,2025-03-06,株式会社ヤマトクリエーション横浜,,株式会社,神奈川県,横浜市港北区,新横浜３丁目１２－４エクステ新横浜１３０３,,14,109,2220033,,,2025-03-06,合併による解散等,1010601030138,令和７年３月１日東京都江東区亀戸一丁目２８番６号タニビル株式会社ヤマトマネキン（1010601030138）に合併し解散,2015-10-05,1,,,,,ヤマトクリエーションヨコハマ,0
1432,8020001094684,登記記録の閉鎖等,0,2025-04-01,2025-03-10,株式会社ＳＹＭＪＴＲＡＤＥ,,株式会社,神奈川県,川崎市高津区,子母口７９７番地６,,14,134,2130023,,,2025-03-10,清算の結了等,,,2015-10-05,1,,,,,エスワイエムジェイトレイド,0
1434,8020003008650,登記記録の閉鎖等,0,2025-04-01,2025-03-27,合同会社結ふ,,合同会社,東京都,渋谷区,代々木４丁目６番２号宍戸ビル１０２,,13,113,1510053,,,2025-03-27,清算の結了等,,,2015-10-05,1,,,,,ユウ,0
1435,8020003020548,登記記録の閉鎖等,0,2025-04-01,2025-03-27,合同会社ＢＥＳＴＡＲ,,合同会社,神奈川県,横浜市青葉区,あざみ野４丁目２６番地１６,,14,117,2250011,,,2025-03-27,清算の結了等,,,2021-09-29,1,,,,,ビースター,0
1440,8021002020142,登記記録の閉鎖等,0,2025-04-01,2025-03-28,有限会社こんにちは,,有限会社,神奈川県,相模原市中央区,星が丘３丁目６番２１号,,14,152,2520238,,,2025-03-28,清算の結了等,,,2015-10-05,1,,,,,コンニチハ,0
1453,8080401020961,登記記録の閉鎖等,0,2025-04-01,2025-03-31,株式会社トレクシィ,,株式会社,静岡県,浜松市中央区,西山町２０８３番地の２６,,22,138,4328001,,,2025-03-31,清算の結了等,,,2015-10-05,1,,,,,トレクシィ,0
1473,8120901000830,登記記録の閉鎖等,0,2025-04-01,2025-02-28,株式会社衣由,,株式会社,大阪府,茨木市,双葉町６番１１－８０３号,,27,211,5670829,,,2025-02-28,合併による解散等,5120901000833,令和７年２月２８日大阪府茨木市大池二丁目２８番２４号衣由産業株式会社（5120901000833）に合併し解散,2015-10-05,1,,,,,コロモヨシ,0
1477,8120902013055,登記記録の閉鎖等,0,2025-04-01,2025-03-26,有限会社北摂興産,,有限会社,大阪府,高槻市,川添２丁目２３番９号,,27,207,5690824,,,2025-03-26,清算の結了等,,,2015-10-05,1,,,,,,0
1480,8130001025364,登記記録の閉鎖等,0,2025-04-01,2025-03-27,京都健康食品株式会社,,株式会社,京都府,京都市左京区,一乗寺出口町２６番地,,26,103,6068164,,,2025-03-27,清算の結了等,,,2015-10-05,1,,,,,キョウトケンコウショクヒン,0
1491,8180001075000,登記記録の閉鎖等,0,2025-04-01,2025-03-11,中部ロジ株式会社,,株式会社,愛知県,春日井市,長塚町１丁目１０３番地,,23,206,4860934,,,2025-03-11,合併による解散等,3030001084458,令和７年３月１日埼玉県熊谷市佐谷田１６３１番地株式会社井ノ瀬運送（3030001084458）に合併し解散,2015-10-05,1,,,,,チュウブロジ,0
1494,8180002088100,登記記録の閉鎖等,0,2025-04-01,2025-03-27,有限会社デーエフケー,,有限会社,愛知県,東海市,南柴田町ホノ割２１３番地の５,,23,222,4760001,,,2025-03-27,合併による解散等,9180001094461,令和７年３月２１日愛知県東海市南柴田町ホの割２１３番地の５名古屋油化株式会社（9180001094461）に合併し解散,2015-10-05,1,,,,,デーエフケー,0
1502,8240002001758,登記記録の閉鎖等,0,2025-04-01,2025-03-31,上田尾漬物有限会社,,有限会社,広島県,広島市南区,元宇品町１３番３号,,34,103,7340012,,,2025-03-31,清算の結了等,,,2015-10-05,1,,,,,,0
1503,8240005015482,登記記録の閉鎖等,0,2025-04-01,2025-03-28,葦陽税理士法人,,その他の設立登記法人,広島県,福山市,久松台３丁目８番１５号,,34,207,7200083,,,2025-03-28,清算の結了等,,,2022-11-07,1,,,,,イヨウ,0
1504,8250002020006,登記記録の閉鎖等,0,2025-04-01,2025-03-28,有限会社大建住宅,,有限会社,山口県,熊毛郡平生町,大字佐賀３４５１番地の２,,35,344,7421111,,,2025-03-28,清算の結了等,,,2015-10-05,1,,,,,ダイケンジュウタク,0
1509,8290001018773,登記記録の閉鎖等,0,2025-04-01,2025-03-06,株式会社ヤマトマネキン・ウエスト,,株式会社,大阪府,大阪市中央区,博労町１丁目８番２号１０Ｆ,,27,128,5410059,,,2025-03-06,合併による解散等,1010601030138,令和７年３月１日東京都江東区亀戸一丁目２８番６号タニビル株式会社ヤマトマネキン（1010601030138）に合併し解散,2015-10-05,1,,,,,ヤマトマネキンウエスト,0
1513,8290005017937,登記記録の閉鎖等,0,2025-04-01,2025-03-27,ＮＰＯ法人ＢＡＬＭ,,その他の設立登記法人,福岡県,福岡市早良区,西新４丁目７－１０西川ビル２Ｆ－３,,40,137,8140002,,,2025-03-27,清算の結了等,,,2020-11-06,1,,,,,バーム,0
1517,8300003000752,登記記録の閉鎖等,0,2025-04-01,2025-03-26,合同会社ＮＫオフィス,,合同会社,佐賀県,佐賀市,高木瀬東５丁目２１番６号,,41,201,8490922,,,2025-03-26,清算の結了等,,,2015-10-05,1,,,,,エヌケイオフィス,0
1522,8350002004477,登記記録の閉鎖等,0,2025-04-01,2025-03-28,有限会社ミカエル堂,,有限会社,宮崎県,宮崎市,大塚町権現昔８６５番地３,,45,201,8800951,,,2025-03-28,清算の結了等,,,2015-10-05,1,,,,,ミカエルドウ,0
1534,8390002016064,登記記録の閉鎖等,0,2025-04-01,2025-03-25,有限会社西川運送,,有限会社,山形県,西村山郡西川町,大字睦合字滝ノ前甲４０５番２,,06,322,9900701,,,2025-03-25,清算の結了等,,,2015-10-05,1,,,,,ニシカワウンソウ,0
1547,8430005005084,登記記録の閉鎖等,0,2025-04-01,2025-03-31,特定非営利活動法人北海道市民環境ネットワーク,,その他の設立登記法人,北海道,札幌市中央区,南九条西３丁目２－５南九条ビル６０３,,01,101,0640809,,,2025-03-31,清算の結了等,,,2015-10-05,1,,,,,ホッカイドウシミンカンキョウネットワーク,0
1568,9010003028616,登記記録の閉鎖等,0,2025-04-01,2025-03-21,ネットワンビジネスオペレーションズ合同会社,,合同会社,東京都,千代田区,丸の内２丁目７番２号ＪＰタワー,,13,101,1000005,,,2025-03-21,清算の結了等,,,2018-11-02,1,,,,,ネットワンビジネスオペレーションズ,0
1587,9010703006078,登記記録の閉鎖等,0,2025-04-01,2025-03-21,合同会社ロングラン,,合同会社,東京都,品川区,東五反田１丁目１９－８ハイツ五反田７０４号室,,13,109,1410022,,,2025-03-21,清算の結了等,,,2022-01-24,1,,,,,ロングラン,0
1594,9011001151070,登記記録の閉鎖等,0,2025-04-01,2025-03-27,ｔｈｅ　ＢＲＯＡＤＥＮ株式会社,,株式会社,東京都,渋谷区,円山町５番５号Ｎａｖｉ渋谷Ｖ３階,,13,113,1500044,,,2025-03-27,清算の結了等,,,2022-11-22,1,,,,,ザブローデン,0
1597,9011003016544,登記記録の閉鎖等,0,2025-04-01,2025-03-04,合同会社ＡＲＡＴＡ,,合同会社,東京都,渋谷区,恵比寿南３丁目２－２アサンブレ恵比寿７０１,,13,113,1500022,,,2025-03-04,清算の結了等,,,2023-04-14,1,,,,,アラタ,0
1602,9011101087314,登記記録の閉鎖等,0,2025-04-01,2025-03-24,ワークライフログ株式会社,,株式会社,東京都,渋谷区,道玄坂１丁目１０番８号渋谷道玄坂東急ビル２Ｆ－Ｃ,,13,113,1500043,,,2025-03-24,合併による解散等,1010001116826,令和７年２月２８日東京都千代田区内幸町二丁目１番６号株式会社チームスピリット（1010001116826）に合併し解散,2019-04-11,1,,,,,ワークライフログ,0
1620,9011801010590,登記記録の閉鎖等,0,2025-04-01,2025-03-31,株式会社鳥海電気,,株式会社,東京都,足立区,弘道２丁目２３番１３号,,13,121,1200013,,,2025-03-31,清算の結了等,,,2015-10-05,1,,,,,トリミデンキ,0
1629,9021001064602,登記記録の閉鎖等,0,2025-04-01,2025-03-31,株式会社Ｓｉｂｌｉｎｇｓ,,株式会社,神奈川県,鎌倉市,御成町１３番３６号,,14,204,2480012,,,2025-03-31,清算の結了等,,,2018-04-18,1,,,,,シブリングス,0
1638,9030002012503,登記記録の閉鎖等,0,2025-04-01,2025-03-28,有限会社松鈴,,有限会社,埼玉県,さいたま市緑区,芝原３丁目３５番地７,,11,109,3360917,,,2025-03-28,清算の結了等,,,2015-10-05,1,,,,,マツスズ,0
1671,9120002001240,登記記録の閉鎖等,0,2025-04-01,2025-03-31,有限会社タカシマ,,有限会社,大阪府,大阪市鶴見区,緑１丁目７番１号,,27,124,5380054,,,2025-03-31,清算の結了等,,,2015-10-05,1,,,,,タカシマ,0
1688,9140005024856,登記記録の閉鎖等,0,2025-04-01,2025-03-21,一般社団法人日本障がい者ファッション協会,,その他の設立登記法人,大阪府,茨木市,中総持寺町１０番１号,,27,211,5670803,,,2025-03-21,清算の結了等,,,2019-11-13,1,,,,,ニホンショウガイシャファッションキョウカイ,0
1696,9180001098413,登記記録の閉鎖等,0,2025-04-01,2025-03-27,株式会社シルバーエンジニア,,株式会社,愛知県,あま市,森山番上５０番地１,,23,237,4901223,,,2025-03-27,合併による解散等,5180001098409,令和７年３月２１日愛知県あま市森山番上５０番地１三法鉄工株式会社（5180001098409）に合併し解散,2015-10-05,1,,,,,シルバーエンジニア,0
1701,9200003002155,登記記録の閉鎖等,0,2025-04-01,2025-03-06,小林保夫合名会社,,合名会社,岐阜県,美濃加茂市,中富町１丁目７番８号,,21,211,5050033,,,2025-03-06,清算の結了等,,,2015-10-05,1,,,,,コバヤシヤスオ,0
1709,9260001011417,登記記録の閉鎖等,0,2025-04-01,2025-03-28,株式会社パートナーズ,,株式会社,岡山県,岡山市北区,大供表町２番３号,,33,101,7000912,,,2025-03-28,清算の結了等,,,2015-10-05,1,,,,,パートナーズ,0
1717,9310002011930,登記記録の閉鎖等,0,2025-04-01,2025-03-26,山口土木有限会社,,有限会社,長崎県,佐世保市,松山町１２７番地,,42,202,8570015,,,2025-03-26,清算の結了等,,,2015-10-05,1,,,,,ヤマグチドボク,0
1719,9330002004809,登記記録の閉鎖等,0,2025-04-01,2025-03-25,有限会社潮崎石油,,有限会社,熊本県,熊本市西区,河内町船津１０５６番地,,43,103,8615347,,,2025-03-25,清算の結了等,,,2015-10-05,1,,,,,シオザキセキユ,0
1722,9350003002132,登記記録の閉鎖等,0,2025-04-01,2025-03-28,合同会社日南石販飫肥サービス,,合同会社,宮崎県,日南市,飫肥１丁目３９６２番地５,,45,204,8892535,,,2025-03-28,清算の結了等,,,2015-10-05,1,,,,,ニチナンセキハンオビサービス,0
1732,9390002007327,登記記録の閉鎖等,0,2025-04-01,2025-03-25,有限会社ササキ商会,,有限会社,山形県,酒田市,東大町３丁目１０番１,,06,204,9980851,,,2025-03-25,清算の結了等,,,2015-10-05,1,,,,,ササキショウカイ,0
1735,9430002009608,登記記録の閉鎖等,0,2025-04-01,2025-03-28,有限会社渋谷滋デザイン事務所,,有限会社,北海道,札幌市中央区,南十五条西７丁目１番１１号,,01,101,0640915,,,2025-03-28,清算の結了等,,,2015-10-05,1,,,,,シブヤシゲルデザインジムショ,0
1738,9430002055379,登記記録の閉鎖等,0,2025-04-01,2025-03-03,有限会社丸矢富岡物産,,有限会社,北海道,小樽市,新光５丁目１１番１号,,01,203,0470152,,,2025-03-03,合併による解散等,6430002055225,令和７年３月１日北海道小樽市新光五丁目１１番１号株式会社北海道製作所（6430002055225）に合併し解散,2015-10-05,1,,,,,マルヤトミオカブッサン,0
