sequenceNumber,corporateNumber,process,correct,updateDate,changeDate,name,nameImageId,kind,prefectureName,cityName,streetNumber,addressImageId,prefectureCode,cityCode,postCode,addressOutside,addressOutsideImageId,closeDate,closeCause,successorCorporateNumber,changeCause,assignmentDate,latest,enName,enPrefectureName,enCityName,enAddressOutside,furigana,hihyoji
4,1010001253776,新規,0,2025-04-07,2025-04-07,聖路加ホールディングス株式会社,,株式会社,東京都,中央区,佃１丁目５番７号,,13,102,1040051,,,,,,,2025-04-07,1,,,,,セイロカホールディングス,0
5,1010001253850,新規,0,2025-04-07,2025-04-07,ＲＯＥ株式会社,,株式会社,東京都,千代田区,神田小川町１丁目８番地３,,13,101,1010052,,,,,,,2025-04-07,1,,,,,アールオーイー,0
6,1010001253867,新規,0,2025-04-07,2025-04-07,株式会社ＥＬＰＩＳ　Ｇｒｏｕｐ,,株式会社,東京都,中央区,京橋２丁目７－８ＦＰＧ　ｌｉｎｋｓ　ＫＹＯＢＡＳＨＩ２Ｆ,,13,102,1040031,,,,,,,2025-04-07,1,,,,,エルピスグループ,0
7,1010001253875,新規,0,2025-04-07,2025-04-07,株式会社ＣｏＱｏａ,,株式会社,東京都,中央区,日本橋室町３丁目３－１Ｅ．Ｔ．Ｓ室町ビル６階,,13,102,1030022,,,,,,,2025-04-07,1,,,,,ココア,0
8,1010001253883,新規,0,2025-04-07,2025-04-07,株式会社Ｄａｎｆｏｒｔｈ,,株式会社,東京都,千代田区,内幸町２丁目１番６号,,13,101,1000011,,,,,,,2025-04-07,1,,,,,ダンフォース,0
11,1010005039825,新規,0,2025-04-07,2025-04-07,一般社団法人千代田区スポーツ協会,,その他の設立登記法人,東京都,千代田区,内神田２丁目１番８号,,13,101,1010047,,,,,,,2025-04-07,1,,,,,チヨダクスポーツキョウカイ,0
12,1010005039841,新規,0,2025-04-07,2025-04-07,サンシャイン共済協同組合,,その他の設立登記法人,東京都,中央区,八重洲１丁目３番７号,,13,102,1030028,,,,,,,2025-04-07,1,,,,,サンシャインキョウサイ,0
19,1010401189315,新規,0,2025-04-07,2025-04-07,株式会社ｍａｇａ,,株式会社,東京都,港区,北青山１丁目３番１号アールキューブ青山３階,,13,103,1070061,,,,,,,2025-04-07,1,,,,,マガ,0
20,1010401189331,新規,0,2025-04-07,2025-04-07,株式会社Ｊａｐａｎ　Ａｅｒｏｓｐａｃｅ＆Ｄｅｆｅｎｓｅ　Ｃｏｎｓｕｌｔｉｎｇ,,株式会社,東京都,港区,麻布台１丁目３番１号,,13,103,1060041,,,,,,,2025-04-07,1,,,,,ジャパンエアロスペースアンドディフェンスコンサルティング,0
21,1010401189356,新規,0,2025-04-07,2025-04-07,ＡｇｅＡＩ株式会社,,株式会社,東京都,港区,南青山３丁目１番３６号青山丸竹ビル６Ｆ,,13,103,1070062,,,,,,,2025-04-07,1,,,,,エイジエーアイ,0
22,1010401189397,新規,0,2025-04-07,2025-04-07,株式会社ＪＩＫＡＮ,,株式会社,東京都,港区,北青山１丁目３番１号,,13,103,1070061,,,,,,,2025-04-07,1,,,,,ジカン,0
25,1010403034766,新規,0,2025-04-07,2025-04-07,合同会社ＧＬＯＢＥ３,,合同会社,東京都,港区,南麻布５丁目３番１２号,,13,103,1060047,,,,,,,2025-04-07,1,,,,,グローブスリー,0
28,1010603011490,新規,0,2025-04-07,2025-04-07,マノハラン合同会社,,合同会社,東京都,江東区,南砂２丁目３番７－２２５号,,13,108,1360076,,,,,,,2025-04-07,1,,,,,マノハラン,0
30,1010703007653,新規,0,2025-04-07,2025-04-07,合同会社エイアンドエス,,合同会社,東京都,品川区,荏原４丁目１８番３号２０２,,13,109,1420063,,,,,,,2025-04-07,1,,,,,エイアンドエス,0
33,1010801036001,新規,0,2025-04-07,2025-04-07,株式会社ギアギア,,株式会社,東京都,大田区,大森西３丁目１番２５号,,13,111,1430015,,,,,,,2025-04-07,1,,,,,ギアギア,0
34,1010801036018,新規,0,2025-04-07,2025-04-07,株式会社ＡＩ研修法人,,株式会社,東京都,大田区,大森西４丁目１５－８－１０６,,13,111,1430015,,,,,,,2025-04-07,1,,,,,エーアイケンシュウホウジン,0
36,1010901057129,新規,0,2025-04-07,2025-04-07,株式会社Ｒ＆Ａ　Ｄｅｓｉｇｎ　Ｗｏｒｋｓ,,株式会社,東京都,世田谷区,三軒茶屋２丁目５１番８号,,13,112,1540024,,,,,,,2025-04-07,1,,,,,アールアンドエーデザインワークス,0
37,1010903009813,新規,0,2025-04-07,2025-04-07,合同会社Ｒ,,合同会社,東京都,世田谷区,三軒茶屋２丁目１４番１２号三元ビル１階,,13,112,1540024,,,,,,,2025-04-07,1,,,,,アール,0
42,1011001168477,新規,0,2025-04-07,2025-04-07,Ｂｅａｒｓ　Ｅｎｅｒｇｙ　Ｅｓｐｒｅｓｓｏ株式会社,,株式会社,東京都,目黒区,青葉台３丁目１－１２,,13,110,1530042,,,,,,,2025-04-07,1,,,,,ベアーズエナジーエスプレッソ,0
43,1011001168741,新規,0,2025-04-07,2025-04-07,株式会社ジャスマックエージェンシー,,株式会社,東京都,目黒区,八雲５丁目１番３号,,13,110,1520023,,,,,,,2025-04-07,1,,,,,ジャスマックエージェンシー,0
44,1011001168782,新規,0,2025-04-07,2025-04-07,株式会社ミライコア,,株式会社,東京都,渋谷区,神宮前６丁目２９番４号原宿ｋｏｍｉｙａビル６階,,13,113,1500001,,,,,,,2025-04-07,1,,,,,ミライコア,0
45,1011001168816,新規,0,2025-04-07,2025-04-07,株式会社Ｇａｒｄｅｎｉａ,,株式会社,東京都,目黒区,自由が丘２丁目８－８ルシェルブルー２０１,,13,110,1520035,,,,,,,2025-04-07,1,,,,,ガーデニア,0
46,1011001168824,新規,0,2025-04-07,2025-04-07,ＴＯＴ　Ｆａｓｈｉｏｎ株式会社,,株式会社,東京都,渋谷区,道玄坂１丁目１２－１渋谷マークシティＷ２２階,,13,113,1500043,,,,,,,2025-04-07,1,,,,,ティーオーティーファッション,0
48,1011003021287,新規,0,2025-04-07,2025-04-07,合同会社Ｏｕｋａ,,合同会社,東京都,渋谷区,広尾３丁目１６番６－１０７号オープンレジデンシア広尾Ｉ,00138611,13,113,1500012,,,,,,,2025-04-07,1,,,,,オウカ,0
49,1011003021329,新規,0,2025-04-07,2025-04-07,合同会社Ａｍｉｔｙ,,合同会社,東京都,渋谷区,神南１丁目１１－４ＦＰＧリンクス神南５階,,13,113,1500041,,,,,,,2025-04-07,1,,,,,アミティ,0
50,1011003021345,新規,0,2025-04-07,2025-04-07,ＣＦパートナーズ合同会社,,合同会社,東京都,渋谷区,神宮前６丁目３４－２３ｏｐ．Ｓｔ．Ｍ３Ｅ号室,,13,113,1500001,,,,,,,2025-04-07,1,,,,,シーエフパートナーズ,0
51,1011003021361,新規,0,2025-04-07,2025-04-07,合同会社ＢｏｘＴＶ,,合同会社,東京都,渋谷区,渋谷２丁目１９－１５宮益坂ビルディング６０９,,13,113,1500002,,,,,,,2025-04-07,1,,,,,ボックスティーヴィー,0
54,1011101111221,新規,0,2025-04-07,2025-04-07,株式会社ＥＳＰＲ,,株式会社,東京都,新宿区,西新宿６丁目１８番１－６０７号,,13,104,1600023,,,,,,,2025-04-07,1,,,,,イーエスピーアール,0
56,1011203004661,新規,0,2025-04-07,2025-04-07,合同会社シンファモード,,合同会社,東京都,中野区,中央１丁目５０番１７－６１１号,,13,114,1640011,,,,,,,2025-04-07,1,,,,,シンファモード,0
58,1011301030469,新規,0,2025-04-07,2025-04-07,株式会社Ｌｕｖｅｅ,,株式会社,東京都,杉並区,梅里１丁目１９番１２号,,13,115,1660011,,,,,,,2025-04-07,1,,,,,ルヴェ,0
63,1011701028212,新規,0,2025-04-07,2025-04-07,株式会社未来商事,,株式会社,東京都,江戸川区,西小岩５丁目１３－１３小出マンション１１５室,,13,123,1330057,,,,,,,2025-04-07,1,,,,,ミライショウジ,0
64,1012301014321,新規,0,2025-04-07,2025-04-07,株式会社ＦＲＥＥＤＯＭ,,株式会社,東京都,町田市,中町１丁目２番１６号,,13,209,1940021,,,,,,,2025-04-07,1,,,,,フリーダム,0
65,1012401042940,新規,0,2025-04-07,2025-04-07,株式会社４４０ｄｅｓｉｇｎ,,株式会社,東京都,小金井市,梶野町１丁目２番３６号,,13,210,1840002,,,,,,,2025-04-07,1,,,,,シシマルデザイン,0
66,1012801023870,新規,0,2025-04-07,2025-04-07,株式会社スワンコーポレーション,,株式会社,東京都,武蔵村山市,中原４丁目１４番地の６,,13,223,2080035,,,,,,,2025-04-07,1,,,,,スワンコーポレーション,0
67,1012801023879,新規,0,2025-04-07,2025-04-07,京成株式会社,,株式会社,東京都,東大和市,南街６丁目７３－３,,13,220,2070014,,,,,,,2025-04-07,1,,,,,ケイセイ,0
69,1013301054043,新規,0,2025-04-07,2025-04-07,株式会社ＭＡＪＩＤＥ,,株式会社,東京都,豊島区,東池袋１丁目４４番４号２階,,13,116,1700013,,,,,,,2025-04-07,1,,,,,マジデ,0
75,1020001162225,新規,0,2025-04-07,2025-04-07,株式会社ラセンフロンティア,,株式会社,神奈川県,横浜市港南区,笹下２丁目４番２７号２０１号,,14,111,2340052,,,,,,,2025-04-07,1,,,,,ラセンフロンティア,0
76,1020001162258,新規,0,2025-04-07,2025-04-07,株式会社鶴一家,,株式会社,神奈川県,横浜市神奈川区,鶴屋町１丁目７番地３４,,14,102,2210835,,,,,,,2025-04-07,1,,,,,ツルイチヤ,0
78,1020003028192,新規,0,2025-04-07,2025-04-07,合同会社山本工務店,,合同会社,神奈川県,川崎市多摩区,中野島５丁目２番３－５０２号,,14,135,2140012,,,,,,,2025-04-07,1,,,,,ヤマモトコウムテン,0
79,1020003028226,新規,0,2025-04-07,2025-04-07,合同会社萩原保太郎商店,,合同会社,神奈川県,横浜市栄区,笠間３丁目２９番Ｇ－４０１号,,14,115,2470006,,,,,,,2025-04-07,1,,,,,ハギワラヤスタロウショウテン,0
82,1020005016773,新規,0,2025-04-07,2025-04-07,医療法人松毬,,その他の設立登記法人,神奈川県,横浜市青葉区,若草台１７番地１－２階Ｂ区画,,14,117,2270045,,,,,,,2025-04-07,1,,,,,マツマリ,0
92,1030001165689,新規,0,2025-04-07,2025-04-07,ＫＥＥＰＲＯＡＤ株式会社,,株式会社,埼玉県,草加市,北谷２丁目３７番１２号,,11,221,3400046,,,,,,,2025-04-07,1,,,,,キープロード,0
93,1030001165706,新規,0,2025-04-07,2025-04-07,株式会社Ｌｉｅｎ,,株式会社,埼玉県,北葛飾郡松伏町,田中１丁目２７番地１２,,11,465,3430117,,,,,,,2025-04-07,1,,,,,リアン,0
94,1030001165730,新規,0,2025-04-07,2025-04-07,株式会社渋谷鈑金工業所,,株式会社,埼玉県,川越市,大字笠幡１３１番地３３,,11,201,3501175,,,,,,,2025-04-07,1,,,,,シブヤバンキンコウギョウショ,0
95,1030001165771,新規,0,2025-04-07,2025-04-07,株式会社むつみ屋消防,,株式会社,埼玉県,鶴ヶ島市,大字脚折１８２８番地３２,,11,241,3502213,,,,,,,2025-04-07,1,,,,,ムツミヤショウボウ,0
96,1030001165796,新規,0,2025-04-07,2025-04-07,株式会社Ｔ＆Ｋ　ＨＯＭＥ,,株式会社,埼玉県,川口市,在家町２０－６クレール在家町２０２,,11,203,3330863,,,,,,,2025-04-07,1,,,,,ティーアンドケーホーム,0
97,1030001165813,新規,0,2025-04-07,2025-04-07,株式会社ケアフル,,株式会社,埼玉県,羽生市,東３丁目３０番１２号,,11,216,3480052,,,,,,,2025-04-07,1,,,,,ケアフル,0
103,1030003026468,新規,0,2025-04-07,2025-04-07,合同会社チョコザイ,,合同会社,埼玉県,さいたま市大宮区,桜木町２丁目３番地大宮マルイ７階,,11,103,3300854,,,,,,,2025-04-07,1,,,,,チョコザイ,0
104,1030003026484,新規,0,2025-04-07,2025-04-07,ＢｌｕｅＲｏｃｋ合同会社,,合同会社,埼玉県,川口市,上青木１丁目４番１８号,,11,203,3330844,,,,,,,2025-04-07,1,,,,,ブルーロック,0
112,1040001138090,新規,0,2025-04-07,2025-04-07,株式会社Ｊｏｕｒｎｅｙ,,株式会社,千葉県,柏市,旭町１丁目２番８号ネモト第三ビル４０１号,,12,217,2770852,,,,,,,2025-04-07,1,,,,,ジャーニー,0
113,1040001138116,新規,0,2025-04-07,2025-04-07,株式会社Ｍ’ｓ　Ａｉｒ,,株式会社,千葉県,市川市,大野町４丁目２９５９番地３,,12,203,2720805,,,,,,,2025-04-07,1,,,,,エムズエアー,0
114,1040001138132,新規,0,2025-04-07,2025-04-07,振興産業株式会社,,株式会社,千葉県,成田市,本城１７番地４６,,12,211,2860114,,,,,,,2025-04-07,1,,,,,シンコウサンギョウ,0
116,1040003027242,新規,0,2025-04-07,2025-04-07,合同会社トピア,,合同会社,千葉県,船橋市,夏見台２丁目８番１７号,,12,204,2730866,,,,,,,2025-04-07,1,,,,,トピア,0
120,1050001056440,新規,0,2025-04-07,2025-04-07,株式会社イシビキフォトワークス,,株式会社,茨城県,龍ケ崎市,南中島町６８４番地３,,08,208,3010047,,,,,,,2025-04-07,1,,,,,イシビキフォトワークス,0
121,1050001056481,新規,0,2025-04-07,2025-04-07,株式会社エンタメーション,,株式会社,茨城県,つくば市,谷田部６０２９番地８,,08,220,3050861,,,,,,,2025-04-07,1,,,,,エンタメーション,0
127,1070001042793,新規,0,2025-04-07,2025-04-07,株式会社イシジン,,株式会社,群馬県,太田市,新田多村新田町１３８番地６２,,10,205,3700305,,,,,,,2025-04-07,1,,,,,イシジン,0
128,1070001042819,新規,0,2025-04-07,2025-04-07,北関東技建株式会社,,株式会社,群馬県,前橋市,青柳町６２番地１７,,10,201,3710056,,,,,,,2025-04-07,1,,,,,,0
131,1080001026861,新規,0,2025-04-07,2025-04-07,株式会社ＭＡＳＴＥＲ　ＣＡＰＩＴＡＬ,,株式会社,静岡県,静岡市葵区,相生町３番５号,,22,101,4200838,,,,,,,2025-04-07,1,,,,,マスターキャピタル,0
133,1080005007684,新規,0,2025-04-07,2025-04-07,ふるさと焼津協同組合,,その他の設立登記法人,静岡県,焼津市,柳新屋８４３番地,,22,212,4250074,,,,,,,2025-04-07,1,,,,,フルサトヤイヅ,0
136,1100001038458,新規,0,2025-04-07,2025-04-07,株式会社フォンス準備・ツー,,株式会社,長野県,北佐久郡軽井沢町,大字軽井沢１０７５番地４７,,20,321,3890102,,,,,,,2025-04-07,1,,,,,フォンスジュンビツー,0
137,1100001038466,新規,0,2025-04-07,2025-04-07,株式会社笹賀ファーム,,株式会社,長野県,松本市,大字笹賀２６５０番地,,20,202,3990033,,,,,,,2025-04-07,1,,,,,ササガファーム,0
138,1100001038474,新規,0,2025-04-07,2025-04-07,株式会社イマテラス,,株式会社,長野県,上田市,古里１１６４番地１５,,20,203,3860005,,,,,,,2025-04-07,1,,,,,イマテラス,0
139,1100001038482,新規,0,2025-04-07,2025-04-07,株式会社ハコブネプロジェクト,,株式会社,長野県,諏訪郡富士見町,境７３９４番地１,,20,362,3990101,,,,,,,2025-04-07,1,,,,,ハコブネプロジェクト,0
142,1100003008070,新規,0,2025-04-07,2025-04-07,ＴＹＳ合同会社,,合同会社,長野県,岡谷市,長地源２丁目６番２６号,,20,204,3940086,,,,,,,2025-04-07,1,,,,,ティーワイエス,0
158,1120001274258,新規,0,2025-04-07,2025-04-07,株式会社はまよし,,株式会社,大阪府,大阪市浪速区,桜川１丁目４番２５号,,27,111,5560022,,,,,,,2025-04-07,1,,,,,ハマヨシ,0
161,1120003029040,新規,0,2025-04-07,2025-04-07,合同会社ｗｉｔｈ　ｙｏｕ,,合同会社,大阪府,大阪市旭区,太子橋３丁目２番１－８０２号,,27,117,5350001,,,,,,,2025-04-07,1,,,,,ウィズユー,0
162,1120003029049,新規,0,2025-04-07,2025-04-07,合同会社ＲＥ,,合同会社,大阪府,枚方市,長尾元町４丁目３番７５号,,27,210,5730163,,,,,,,2025-04-07,1,,,,,リ,0
163,1120005024873,新規,0,2025-04-07,2025-04-07,一般社団法人関西長崎県人会,,その他の設立登記法人,大阪府,大阪市北区,梅田１丁目３番１号－８００,,27,127,5300001,,,,,,,2025-04-07,1,,,,,カンサイナガサキケンジンカイ,0
164,1120005024881,新規,0,2025-04-07,2025-04-07,一般社団法人クオリティ・マネジメント・アソシエーション,,その他の設立登記法人,大阪府,大阪市北区,豊崎２丁目１０番２２号,,27,127,5310072,,,,,,,2025-04-07,1,,,,,クオリティマネジメントアソシエーション,0
165,1120101071381,新規,0,2025-04-07,2025-04-07,株式会社Ｌｉｎｏｓ,,株式会社,大阪府,羽曳野市,栄町６番８号,,27,222,5830853,,,,,,,2025-04-07,1,,,,,リノス,0
167,1122001039054,新規,0,2025-04-07,2025-04-07,株式会社綾真,,株式会社,大阪府,八尾市,竹渕西４丁目２２３番１号,,27,212,5810051,,,,,,,2025-04-07,1,,,,,リョウシン,0
172,1130001079342,新規,0,2025-04-07,2025-04-07,株式会社ＥＩＫＩ建設,,株式会社,京都府,亀岡市,上矢田町岩田１９番地３,,26,206,6210856,,,,,,,2025-04-07,1,,,,,エイキケンセツ,0
173,1130001079367,新規,0,2025-04-07,2025-04-07,株式会社ＤｏｎＸ,,株式会社,京都府,船井郡京丹波町,上野中野２４番地３,,26,407,6220211,,,,,,,2025-04-07,1,,,,,ドンエックス,0
185,1140001137999,新規,0,2025-04-07,2025-04-07,株式会社双樹苑,,株式会社,兵庫県,尼崎市,南武庫之荘１０丁目５－１Ｃ号室,,28,202,6610033,,,,,,,2025-04-07,1,,,,,ソウジュエン,0
186,1140001138007,新規,0,2025-04-07,2025-04-07,株式会社ＭＡＴＳＵＯＫＡ,,株式会社,兵庫県,神戸市須磨区,北落合２丁目１１番１５－１０９号,,28,107,6540151,,,,,,,2025-04-07,1,,,,,マツオカ,0
192,1140003021870,新規,0,2025-04-07,2025-04-07,合同会社ＧｏｏｄＳｕｎ,,合同会社,兵庫県,尼崎市,大庄西町３丁目１３－１８－１,,28,202,6600077,,,,,,,2025-04-07,1,,,,,グッサン,0
193,1140003021887,新規,0,2025-04-07,2025-04-07,合同会社ｇｒａｎＶｉｔａ,,合同会社,兵庫県,西宮市,浜町１１－２６－２,,28,204,6620942,,,,,,,2025-04-07,1,,,,,グランヴィータ,0
194,1140003021895,新規,0,2025-04-07,2025-04-07,合同会社みんながいるよ,,合同会社,兵庫県,神戸市中央区,磯辺通１丁目１番１８号カサベラ国際プラザビル７０７号,,28,110,6510084,,,,,,,2025-04-07,1,,,,,ミンナガイルヨ,0
195,1140005027437,新規,0,2025-04-07,2025-04-07,一般財団法人ＡＳＩＣＳ　Ｆｏｕｎｄａｔｉｏｎ,,その他の設立登記法人,兵庫県,神戸市中央区,三宮町１丁目２番４号,,28,110,6500021,,,,,,,2025-04-07,1,,,,,アシックスファウンデーション,0
196,1140005027445,新規,0,2025-04-07,2025-04-07,医療法人社団かわかみ整形外科クリニック,,その他の設立登記法人,兵庫県,神戸市垂水区,学が丘４丁目１５番１５,,28,108,6550004,,,,,,,2025-04-07,1,,,,,カワカミセイケイゲカクリニック,0
197,1150001027992,新規,0,2025-04-07,2025-04-07,株式会社ｆｏｒｅｓｔ,,株式会社,奈良県,磯城郡田原本町,大字三笠２０５番地の１－Ｄ２０２,,29,363,6360342,,,,,,,2025-04-07,1,,,,,フォレスト,0
200,1150005009681,新規,0,2025-04-07,2025-04-07,一般社団法人ＮＡＲＡ　ＲＵＧＧＥＲ　ＢＬＵＥＳ,,その他の設立登記法人,奈良県,天理市,櫟本町３５５４番地２,,29,204,6320004,,,,,,,2025-04-07,1,,,,,ナララガーブルーズ,0
202,1160001026647,新規,0,2025-04-07,2025-04-07,株式会社Ｂｏｏｎ,,株式会社,滋賀県,米原市,磯１９８９番地１,,25,214,5210004,,,,,,,2025-04-07,1,,,,,ブーン,0
203,1160003003438,新規,0,2025-04-07,2025-04-07,合同会社豆太郎,,合同会社,滋賀県,湖南市,石部東１丁目５番１４号,,25,211,5203107,,,,,,,2025-04-07,1,,,,,マメタロウ,0
204,1170005007147,新規,0,2025-04-07,2025-04-07,一般社団法人和歌山研究会,,その他の設立登記法人,和歌山県,和歌山市,西高松１丁目２番２４号,,30,201,6410051,,,,,,,2025-04-07,1,,,,,ワカヤマケンキュウカイ,0
206,1180001166185,新規,0,2025-04-07,2025-04-07,株式会社Ｕｎｉｔｙｐｅ,,株式会社,愛知県,名古屋市中川区,吉津４丁目９０６番地,,23,110,4540981,,,,,,,2025-04-07,1,,,,,ユニティープ,0
207,1180001166193,新規,0,2025-04-07,2025-04-07,Ｇｌｏｏ　ＬｙｎＱ株式会社,,株式会社,愛知県,大府市,横根町名高山５５番地,,23,223,4740011,,,,,,,2025-04-07,1,,,,,グルーリンク,0
208,1180001166202,新規,0,2025-04-07,2025-04-07,Ｎｏｅｌ工業株式会社,,株式会社,愛知県,小牧市,中央６丁目１０６番地サンテラス２０１号,,23,219,4850029,,,,,,,2025-04-07,1,,,,,ノエルコウギョウ,0
209,1180001166219,新規,0,2025-04-07,2025-04-07,ＹＵＲＩコンサルティング株式会社,,株式会社,愛知県,名古屋市中村区,名駅４丁目２４番５号第２森ビル４０１,,23,105,4500002,,,,,,,2025-04-07,1,,,,,ユリコンサルティング,0
210,1180001166268,新規,0,2025-04-07,2025-04-07,株式会社あおばライフサポート,,株式会社,愛知県,名古屋市天白区,池場３丁目１３１５番地,,23,116,4680055,,,,,,,2025-04-07,1,,,,,アオバライフサポート,0
216,1180303006519,新規,0,2025-04-07,2025-04-07,合同会社鈴豊ファーム,,合同会社,愛知県,豊川市,御津町大草大森１３１番地,,23,207,4410315,,,,,,,2025-04-07,1,,,,,スズトヨファーム,0
228,1220001026558,新規,0,2025-04-07,2025-04-07,株式会社高塚化成,,株式会社,石川県,能美市,大成町イ６７番地５,,17,211,9290113,,,,,,,2025-04-07,1,,,,,タカツカカセイ,0
229,1220003003992,新規,0,2025-04-07,2025-04-07,合同会社のごころ,,合同会社,石川県,金沢市,北千石町ロ８３番地１,,17,201,9200128,,,,,,,2025-04-07,1,,,,,ノゴコロ,0
230,1230003002408,新規,0,2025-04-07,2025-04-07,合同会社つばき,,合同会社,富山県,富山市,豊田本町３丁目２０番１２‐１０１号ステンドハウスＤ棟,,16,201,9318312,,,,,,,2025-04-07,1,,,,,ツバキ,0
231,1230005009450,新規,0,2025-04-07,2025-04-07,一般社団法人ドリームシップ,,その他の設立登記法人,富山県,富山市,黒瀬北町２丁目１５‐２１,,16,201,9398216,,,,,,,2025-04-07,1,,,,,ドリームシップ,0
232,1240001064754,新規,0,2025-04-07,2025-04-07,株式会社大手町高橋ビル,,株式会社,広島県,広島市中区,大手町２丁目１番６号,,34,101,7300051,,,,,,,2025-04-07,1,,,,,オオテマチタカハシビル,0
233,1240001064779,新規,0,2025-04-07,2025-04-07,株式会社Ｍａｍａｃｈａｒｍ　ｇｒｏｕｐ,,株式会社,広島県,広島市南区,南大河町３６番２１号,,34,103,7340043,,,,,,,2025-04-07,1,,,,,ママチャームグループ,0
235,1250001021093,新規,0,2025-04-07,2025-04-07,株式会社Ｊａｃｋａｌ,,株式会社,山口県,山口市,江崎２５２７－４,,35,203,7540896,,,,,,,2025-04-07,1,,,,,ジャッカル,0
242,1260001040076,新規,0,2025-04-07,2025-04-07,株式会社Ｄｒｉｖｉｎｇ　ｆｏｒｃｅ,,株式会社,岡山県,岡山市南区,あけぼの町１９―６,,33,104,7028057,,,,,,,2025-04-07,1,,,,,ドライビングフォース,0
251,1290001109513,新規,0,2025-04-07,2025-04-07,ＹＩＫインターナショナル株式会社,,株式会社,福岡県,福岡市博多区,吉塚５丁目９番１７－８０５号,,40,132,8120041,,,,,,,2025-04-07,1,,,,,ワイアイケーインターナショナル,0
252,1290001109538,新規,0,2025-04-07,2025-04-07,ベブウィード株式会社,,株式会社,福岡県,福岡市南区,清水３丁目１５番１６号,,40,134,8150031,,,,,,,2025-04-07,1,,,,,ベブウィード,0
253,1290001109554,新規,0,2025-04-07,2025-04-07,株式会社佐々木アセットマネジメント,,株式会社,福岡県,福岡市早良区,百道浜４丁目１８番５号,,40,137,8140001,,,,,,,2025-04-07,1,,,,,ササキアセットマネジメント,0
254,1290001109587,新規,0,2025-04-07,2025-04-07,株式会社サンセット,,株式会社,福岡県,福岡市中央区,今泉２丁目５－３０－１０８,,40,133,8100021,,,,,,,2025-04-07,1,,,,,サンセット,0
255,1290001109620,新規,0,2025-04-07,2025-04-07,株式会社マグノリア,,株式会社,福岡県,福岡市東区,三苫７丁目３番１９号,,40,131,8110201,,,,,,,2025-04-07,1,,,,,マグノリア,0
261,1290801031420,新規,0,2025-04-07,2025-04-07,株式会社倉実商事,,株式会社,福岡県,北九州市小倉北区,浅野３丁目８番１号ＡＩＭビル６階,,40,106,8020001,,,,,,,2025-04-07,1,,,,,クラミショウジ,0
267,1300001014133,新規,0,2025-04-07,2025-04-07,株式会社ＥｓｃｏｒｔＣｒｅｗ,,株式会社,佐賀県,佐賀市,鍋島町大字森田１８１番地１１,,41,201,8490936,,,,,,,2025-04-07,1,,,,,エスコートクルー,0
271,1330001033056,新規,0,2025-04-07,2025-04-07,株式会社むくた実業,,株式会社,熊本県,熊本市東区,下南部２丁目１８番１２－１０１号,,43,102,8618019,,,,,,,2025-04-07,1,,,,,,0
276,1330003010929,新規,0,2025-04-07,2025-04-07,ＧＲＥＥＮ　ＴＩＤＥ合同会社,,合同会社,熊本県,上益城郡山都町,鶴ケ田３７９番地２,,43,447,8613812,,,,,,,2025-04-07,1,,,,,グリーンタイド,0
281,1350001019458,新規,0,2025-04-07,2025-04-07,株式会社成と,,株式会社,宮崎県,宮崎市,太田１丁目２番１６号,,45,201,8800903,,,,,,,2025-04-07,1,,,,,ナルト,0
282,1350003004895,新規,0,2025-04-07,2025-04-07,合同会社コミット,,合同会社,宮崎県,都城市,都島町９０１番地２,,45,202,8850083,,,,,,,2025-04-07,1,,,,,コミット,0
285,1360001034992,新規,0,2025-04-07,2025-04-07,ＣＣＳ株式会社,,株式会社,沖縄県,うるま市,字兼箇段８７６番地１,,47,213,9042241,,,,,,,2025-04-07,1,,,,,シーシーエス,0
287,1370001052416,新規,0,2025-04-07,2025-04-07,株式会社ＤＡＩＺＥＮ工業,,株式会社,宮城県,石巻市,あゆみ野２丁目１番地８,,04,202,9860850,,,,,,,2025-04-07,1,,,,,ダイゼンコウギョウ,0
288,1370001052449,新規,0,2025-04-07,2025-04-07,株式会社ＦＡＭＩＬＹ　ＯＦＦＩＣＥ　２ＰＮ,,株式会社,宮城県,柴田郡大河原町,字山崎町２１番地１０,,04,321,9891212,,,,,,,2025-04-07,1,,,,,ファミリーオフィスツーピーエヌ,0
289,1370003007021,新規,0,2025-04-07,2025-04-07,グランレクラン合同会社,,合同会社,宮城県,仙台市青葉区,本町１丁目５番２８号カーニープレイス仙台駅前通６０３号室,,04,101,9800014,,,,,,,2025-04-07,1,,,,,グランレクラン,0
292,1380001035205,新規,0,2025-04-07,2025-04-07,株式会社昭二建設,,株式会社,福島県,相馬市,西山字西山１１２－２４,,07,209,9760041,,,,,,,2025-04-07,1,,,,,ショウジケンセツ,0
297,1390003002367,新規,0,2025-04-07,2025-04-07,合同会社Ｃｏｎｎｅｃｔ,,合同会社,山形県,尾花沢市,上町６丁目３番６３号,,06,212,9994228,,,,,,,2025-04-07,1,,,,,,0
301,1420003003097,新規,0,2025-04-07,2025-04-07,合同会社ｇｒｏｗｔｈ,,合同会社,青森県,南津軽郡大鰐町,大字大鰐字前田１９番地３６,,02,362,0380211,,,,,,,2025-04-07,1,,,,,グロース,0
302,1430001094105,新規,0,2025-04-07,2025-04-07,Ｋ７株式会社,,株式会社,北海道,札幌市中央区,北一条西３丁目３番３１号古久根ビル４０１号室,,01,101,0600001,,,,,,,2025-04-07,1,,,,,ケーセブン,0
303,1430001094138,新規,0,2025-04-07,2025-04-07,羊蹄山下農業株式会社,,株式会社,北海道,虻田郡倶知安町,北四条東１丁目１番１号,,01,400,0440004,,,,,,,2025-04-07,1,,,,,ヨウテイザンシタノウギョウ,0
304,1430003017484,新規,0,2025-04-07,2025-04-07,合同会社良翔,,合同会社,北海道,千歳市,自由ケ丘５丁目１２－４,,01,224,0660072,,,,,,,2025-04-07,1,,,,,ヨシト,0
305,1460001005991,新規,0,2025-04-07,2025-04-07,株式会社大空ぺいんと,,株式会社,北海道,釧路市,愛国西３丁目１５番３号,,01,206,0850057,,,,,,,2025-04-07,1,,,,,オオゾラペイント,0
307,1500001026232,新規,0,2025-04-07,2025-04-07,株式会社ＯＫＵＢＯ　ＦＡＲＭ,,株式会社,愛媛県,西宇和郡伊方町,大江１９８番地,,38,442,7960503,,,,,,,2025-04-07,1,,,,,オオクボファーム,0
314,2010001253692,新規,0,2025-04-07,2025-04-07,ｍａｋａｂｏｎｄ株式会社,,株式会社,東京都,千代田区,神田和泉町１番地６－１６ヤマトビル４０５,,13,101,1010024,,,,,,,2025-04-07,1,,,,,マカボンド,0
315,2010001253734,新規,0,2025-04-07,2025-04-07,株式会社福慈総合研究所,,株式会社,東京都,中央区,日本橋２丁目１番３号アーバンネット日本橋二丁目ビル１０階,,13,102,1030027,,,,,,,2025-04-07,1,,,,,フクジソウゴウケンキュウジョ,0
316,2010001253791,新規,0,2025-04-07,2025-04-07,株式会社リメディカ,,株式会社,東京都,千代田区,霞が関３丁目２番５号,,13,101,1000013,,,,,,,2025-04-07,1,,,,,リメディカ,0
317,2010001253825,新規,0,2025-04-07,2025-04-07,株式会社Ｚｅｒｏ　Ｌｅａｄ,,株式会社,東京都,中央区,銀座１丁目１２番４号Ｎ＆ＥＢＬＤ．６階,,13,102,1040061,,,,,,,2025-04-07,1,,,,,ゼロリード,0
318,2010001253858,新規,0,2025-04-07,2025-04-07,株式会社ＸＧｒｏｗｔｈ,,株式会社,東京都,千代田区,丸の内１丁目１１番１号パシフィックセンチュリープレイス丸の内１３Ｆ,,13,101,1000005,,,,,,,2025-04-07,1,,,,,クロスグロース,0
319,2010001253890,新規,0,2025-04-07,2025-04-07,ＲＤｉｓｃｏｖｅｒｙ開発株式会社,,株式会社,東京都,中央区,日本橋室町３丁目２番１号日本橋室町三井タワー７階ＧＬＯＢＡＬＬＩＦＥＳＣＩＥＮＣＥＨＵＢ,,13,102,1030022,,,,,,,2025-04-07,1,,,,,アールディスカバリーカイハツ,0
320,2010001253899,新規,0,2025-04-07,2025-04-07,株式会社Ｓ２ＥＹＥ,,株式会社,東京都,千代田区,大手町１丁目５番１号大手町ファーストスクエアＢ１,,13,101,1000004,,,,,,,2025-04-07,1,,,,,エスツーアイ,0
321,2010001253908,新規,0,2025-04-07,2025-04-07,山佐ネクストＮＤＬＨ１リース株式会社,,株式会社,東京都,千代田区,丸の内１丁目４番１号東京共同会計事務所内,,13,101,1000005,,,,,,,2025-04-07,1,,,,,ヤマサネクストエヌディーエルエイチワンリース,0
324,2010003046962,新規,0,2025-04-07,2025-04-07,合同会社みちのくソーラーシェアリング,,合同会社,東京都,千代田区,神田須田町１丁目２４－５ＴＨＥＣＲＯＳＳ神田５階,,13,101,1010041,,,,,,,2025-04-07,1,,,,,ミチノクソーラーシェアリング,0
325,2010005039840,新規,0,2025-04-07,2025-04-07,一般社団法人日比谷地区駐車対策協議会,,その他の設立登記法人,東京都,千代田区,有楽町１丁目１番２号,,13,101,1000006,,,,,,,2025-04-07,1,,,,,ヒビヤチクチュウシャタイサクキョウギカイ,0
334,2010401189264,新規,0,2025-04-07,2025-04-07,和宿株式会社,,株式会社,東京都,港区,西麻布３丁目２０－９ハイネス麻布１４０１,,13,103,1060031,,,,,,,2025-04-07,1,,,,,ワヤド,0
335,2010401189339,新規,0,2025-04-07,2025-04-07,株式会社ａｎｅｌａ,,株式会社,東京都,港区,東新橋１丁目１０番１号Ｌ棟１１０９号室,,13,103,1050021,,,,,,,2025-04-07,1,,,,,アネラ,0
336,2010401189363,新規,0,2025-04-07,2025-04-07,Ｂａｒｄｄｙ株式会社,,株式会社,東京都,港区,虎ノ門４丁目３番１号,,13,103,1050001,,,,,,,2025-04-07,1,,,,,バーディ,0
337,2010403034765,新規,0,2025-04-07,2025-04-07,合同会社ＳＯＲＡ,,合同会社,東京都,港区,北青山１丁目３－３三橋ビル３階,,13,103,1070061,,,,,,,2025-04-07,1,,,,,ソラ,0
338,2010403034773,新規,0,2025-04-07,2025-04-07,合同会社鈴三,,合同会社,東京都,港区,白金台３丁目４番２０号,,13,103,1080071,,,,,,,2025-04-07,1,,,,,スズサン,0
347,2010901057136,新規,0,2025-04-07,2025-04-07,ＬＩＮＯ株式会社,,株式会社,東京都,世田谷区,野沢２丁目３０番３号,,13,112,1540003,,,,,,,2025-04-07,1,,,,,リノ,0
350,2010903009820,新規,0,2025-04-07,2025-04-07,ジパング合同会社,,合同会社,東京都,世田谷区,太子堂１丁目１２番２７号,,13,112,1540004,,,,,,,2025-04-07,1,,,,,ジパング,0
351,2010903009829,新規,0,2025-04-07,2025-04-07,合同会社Ｔａｋｓｉｍ,,合同会社,東京都,世田谷区,桜新町２丁目１０番１６号泉ビル２０３,,13,112,1540015,,,,,,,2025-04-07,1,,,,,タクシム,0
352,2011001168781,新規,0,2025-04-07,2025-04-07,株式会社Ｃｒａｆｔ＆Ｃｏ．,,株式会社,東京都,渋谷区,恵比寿西２丁目４番８号ウィンド恵比寿ビル８Ｆ,,13,113,1500021,,,,,,,2025-04-07,1,,,,,クラフトアンドコー,0
353,2011001168864,新規,0,2025-04-07,2025-04-07,株式会社ＢＬＵＥＢＩＲＤ　ＪＡＰＡＮ,,株式会社,東京都,目黒区,大橋１丁目６番２号８階,,13,110,1530044,,,,,,,2025-04-07,1,,,,,ブルーバードジャパン,0
355,2011003021360,新規,0,2025-04-07,2025-04-07,合同会社Ｄｅｊａ　Ｖｕ　Ｃａｓｔｉｎｇ,,合同会社,東京都,渋谷区,神南１丁目１１－４ＦＰＧリンクス神南５階,,13,113,1500041,,,,,,,2025-04-07,1,,,,,デジャヴキャスティング,0
356,2011003021377,新規,0,2025-04-07,2025-04-07,Ｍａｋｅ　ｈａｐｐｙ合同会社,,合同会社,東京都,目黒区,上目黒２丁目４４番２４号２Ｆ,,13,110,1530051,,,,,,,2025-04-07,1,,,,,メイクハッピー,0
360,2011101111195,新規,0,2025-04-07,2025-04-07,三和商事株式会社,,株式会社,東京都,新宿区,大久保２丁目２２－５吉祥ハイツ１０３号室,,13,104,1690072,,,,,,,2025-04-07,1,,,,,サンワショウジ,0
361,2011101111220,新規,0,2025-04-07,2025-04-07,株式会社ＮｅｗＳｔｏｒｙ,,株式会社,東京都,新宿区,新宿７丁目１２番９号宮庭東新宿ビル８０２,,13,104,1600022,,,,,,,2025-04-07,1,,,,,ニューストーリー,0
362,2011203004660,新規,0,2025-04-07,2025-04-07,輝輝合同会社,,合同会社,東京都,中野区,新井２丁目４９‐８,,13,114,1650026,,,,,,,2025-04-07,1,,,,,テルテル,0
365,2011401026969,新規,0,2025-04-07,2025-04-07,株式会社ＫＡＲＥＮＳ,,株式会社,東京都,板橋区,大谷口２丁目３６番１０号,,13,119,1730035,,,,,,,2025-04-07,1,,,,,カレンズ,0
367,2011403004659,新規,0,2025-04-07,2025-04-07,合同会社ミラージュ・コア,,合同会社,東京都,板橋区,成増２丁目１７番１９号高野ビル２０１,,13,119,1750094,,,,,,,2025-04-07,1,,,,,ミラージュコア,0
373,2011801045800,新規,0,2025-04-07,2025-04-07,株式会社飛陽国際,,株式会社,東京都,葛飾区,新小岩１丁目３６番９号ハウスアツタ１０１,,13,122,1240024,,,,,,,2025-04-07,1,,,,,ヒヨウコクサイ,0
376,2012301014320,新規,0,2025-04-07,2025-04-07,株式会社エーコミ,,株式会社,東京都,町田市,金井ヶ丘２丁目２番５号,,13,209,1950076,,,,,,,2025-04-07,1,,,,,エーコミ,0
377,2012301014329,新規,0,2025-04-07,2025-04-07,株式会社三方良し,,株式会社,東京都,町田市,南町田２丁目６番５号まるしげビル３階,,13,209,1940005,,,,,,,2025-04-07,1,,,,,サンポウヨシ,0
378,2012401042948,新規,0,2025-04-07,2025-04-07,株式会社ＹＵＴＯＲＯＳＵ一級建築士事務所,,株式会社,東京都,三鷹市,下連雀４丁目１５番３３号,,13,204,1810013,,,,,,,2025-04-07,1,,,,,ユトロスイッキュウケンチクシジムショ,0
379,2012403007049,新規,0,2025-04-07,2025-04-07,合同会社ｉ‐ｓｅｅｄ,,合同会社,東京都,府中市,宮西町５丁目６番地の２アローランドマンション２０３号室,,13,206,1830022,,,,,,,2025-04-07,1,,,,,アイシード,0
385,2020001162166,新規,0,2025-04-07,2025-04-07,株式会社ＴＳＵＭＵＧＵ,,株式会社,神奈川県,横浜市港北区,日吉４丁目１１番６－１０２号,,14,109,2230061,,,,,,,2025-04-07,1,,,,,ツムグ,0
386,2020001162190,新規,0,2025-04-07,2025-04-07,ＭＫプライム株式会社,,株式会社,神奈川県,横浜市緑区,長津田みなみ台４丁目１番地１プリマシティＡ３０４,,14,113,2260018,,,,,,,2025-04-07,1,,,,,エムケイプライム,0
387,2020001162199,新規,0,2025-04-07,2025-04-07,Ｍ．ｍ株式会社,,株式会社,神奈川県,横浜市中区,初音町２丁目３０番地３シンポビル３１１号室,,14,104,2310053,,,,,,,2025-04-07,1,,,,,エムドットエム,0
388,2020001162240,新規,0,2025-04-07,2025-04-07,株式会社ＯＮＥ　ＴＥＡＭ横浜,,株式会社,神奈川県,横浜市西区,浅間町１丁目４番地３ウィザードビル４０２,,14,103,2200072,,,,,,,2025-04-07,1,,,,,ワンチームヨコハマ,0
391,2020003028183,新規,0,2025-04-07,2025-04-07,合同会社Ｋｏｊｉｒｏ　Ｐｒｏｄｕｃｔｉｏｎ,,合同会社,神奈川県,横浜市港南区,芹が谷５丁目５２番２－６０７号,,14,111,2330006,,,,,,,2025-04-07,1,,,,,コジロープロダクション,0
392,2020003028191,新規,0,2025-04-07,2025-04-07,ＭＧＥ合同会社,,合同会社,神奈川県,川崎市中原区,中丸子５２１ルコネッサ武蔵小杉Ｃ棟,,14,133,2110012,,,,,,,2025-04-07,1,,,,,エムジーイー,0
393,2020003028209,新規,0,2025-04-07,2025-04-07,未来ビジネスアソシエイツ合同会社,,合同会社,神奈川県,横浜市西区,高島２丁目１１番２号スカイメナー横浜５１９,,14,103,2200011,,,,,,,2025-04-07,1,,,,,ミライビジネスアソシエイツ,0
394,2020003028233,新規,0,2025-04-07,2025-04-07,Ｌｕｒｉａ合同会社,,合同会社,神奈川県,横浜市港北区,新横浜２丁目５番１３号加瀬２２６ビル７０１,,14,109,2220033,,,,,,,2025-04-07,1,,,,,ルリア,0
399,2021001084862,新規,0,2025-04-07,2025-04-07,株式会社イシヅカ工務店,,株式会社,神奈川県,小田原市,小船１１２１番地,,14,206,2560806,,,,,,,2025-04-07,1,,,,,イシヅカコウムテン,0
400,2021001084895,新規,0,2025-04-07,2025-04-07,Ｔｈｅ　ＰＩＥＲ株式会社,,株式会社,神奈川県,藤沢市,本鵠沼４丁目１番５号,,14,205,2510028,,,,,,,2025-04-07,1,,,,,ザピア,0
403,2021003015849,新規,0,2025-04-07,2025-04-07,Ｈｕｇｎｏｌｏｇｙ合同会社,,合同会社,神奈川県,海老名市,下今泉３丁目３－２２,,14,215,2430435,,,,,,,2025-04-07,1,,,,,ハグノロジー,0
412,2030001165688,新規,0,2025-04-07,2025-04-07,株式会社齋藤ホールディングス,,株式会社,埼玉県,川口市,弥平３丁目１２番２４号,,11,203,3320002,,,,,,,2025-04-07,1,,,,,サイトウホールディングス,0
413,2030001165696,新規,0,2025-04-07,2025-04-07,株式会社スマイルライフ・サポート,,株式会社,埼玉県,狭山市,大字青柳６３番地７,,11,215,3501301,,,,,,,2025-04-07,1,,,,,スマイルライフサポート,0
414,2030001165746,新規,0,2025-04-07,2025-04-07,株式会社ＴＳＫ,,株式会社,埼玉県,さいたま市大宮区,仲町２丁目７１番地ソシオ大宮４階,,11,103,3300845,,,,,,,2025-04-07,1,,,,,ティーエスケー,0
415,2030001165762,新規,0,2025-04-07,2025-04-07,株式会社金山商事,,株式会社,埼玉県,蕨市,塚越７丁目３２番１号,,11,223,3350002,,,,,,,2025-04-07,1,,,,,カナヤマショウジ,0
416,2030001165770,新規,0,2025-04-07,2025-04-07,株式会社井上緑化,,株式会社,埼玉県,比企郡ときがわ町,大字西平５４０番地２,,11,349,3550364,,,,,,,2025-04-07,1,,,,,イノウエリョクカ,0
417,2030001165787,新規,0,2025-04-07,2025-04-07,株式会社ＳＥＩＨＯ,,株式会社,埼玉県,川口市,北原台２丁目８番３１－３０１号,,11,203,3330815,,,,,,,2025-04-07,1,,,,,セイホ,0
418,2030001165829,新規,0,2025-04-07,2025-04-07,株式会社甫重興,,株式会社,埼玉県,日高市,大字南平沢８１３番地,,11,242,3501206,,,,,,,2025-04-07,1,,,,,ハジメジュウコウ,0
421,2030003026475,新規,0,2025-04-07,2025-04-07,合同会社菜の花,,合同会社,埼玉県,本庄市,寿３丁目２番３２号,,11,211,3670023,,,,,,,2025-04-07,1,,,,,ナノハナ,0
422,2030003026483,新規,0,2025-04-07,2025-04-07,合同会社ＳＨＩＭＡＺＡＫＩ,,合同会社,埼玉県,春日部市,本田町２丁目１５０番地３,,11,214,3440016,,,,,,,2025-04-07,1,,,,,シマザキ,0
423,2030003026491,新規,0,2025-04-07,2025-04-07,合同会社草刈り代行しなの,,合同会社,埼玉県,秩父市,山田２７１１番地１６,,11,207,3680004,,,,,,,2025-04-07,1,,,,,クサカリダイコウシナノ,0
424,2030003026509,新規,0,2025-04-07,2025-04-07,合同会社イブ,,合同会社,埼玉県,戸田市,中町２丁目１４番３１－１０２号,,11,224,3350012,,,,,,,2025-04-07,1,,,,,イブ,0
425,2030005022118,新規,0,2025-04-07,2025-04-07,医療法人社団悠光会,,その他の設立登記法人,埼玉県,吉川市,美南５丁目６番地９,,11,243,3420038,,,,,,,2025-04-07,1,,,,,ユウコウカイ,0
435,2040001138123,新規,0,2025-04-07,2025-04-07,ひつよう株式会社,,株式会社,千葉県,木更津市,清見台１丁目１９番３号,,12,206,2920045,,,,,,,2025-04-07,1,,,,,ヒツヨウ,0
437,2040003027290,新規,0,2025-04-07,2025-04-07,合同会社ＫＡＮＺＡＫＩ,,合同会社,千葉県,香取郡神崎町,郡１３０７番地１,,12,342,2890202,,,,,,,2025-04-07,1,,,,,カンザキ,0
438,2050001056464,新規,0,2025-04-07,2025-04-07,株式会社関東総業,,株式会社,茨城県,稲敷市,柴崎７４９番地,,08,229,3001412,,,,,,,2025-04-07,1,,,,,カントウソウギョウ,0
440,2060001038073,新規,0,2025-04-07,2025-04-07,ＮＫ株式会社,,株式会社,栃木県,栃木市,泉町２４番２号,,09,203,3280014,,,,,,,2025-04-07,1,,,,,エヌケー,0
457,2100001038457,新規,0,2025-04-07,2025-04-07,株式会社フォンス準備・ワン,,株式会社,長野県,北佐久郡軽井沢町,大字軽井沢１０７５番地４７,,20,321,3890102,,,,,,,2025-04-07,1,,,,,フォンスジュンビワン,0
473,2120001274224,新規,0,2025-04-07,2025-04-07,雲中データ株式会社,,株式会社,大阪府,大阪市東住吉区,鷹合４丁目２１番１６号３Ｆ－Ａ,,27,121,5460014,,,,,,,2025-04-07,1,,,,,ウンチュウデータ,0
474,2120001274298,新規,0,2025-04-07,2025-04-07,飛揚産業株式会社,,株式会社,大阪府,大阪市東淀川区,下新庄４丁目２０－７－４０３,,27,114,5330021,,,,,,,2025-04-07,1,,,,,ヒヨウサンギョウ,0
478,2120003028958,新規,0,2025-04-07,2025-04-07,合同会社オルタナムーン,,合同会社,大阪府,寝屋川市,木屋町５番１６号,,27,215,5720087,,,,,,,2025-04-07,1,,,,,オルタナムーン,0
479,2120005024880,新規,0,2025-04-07,2025-04-07,一般社団法人薬局ＤＸ推進コンソーシアム,,その他の設立登記法人,大阪府,大阪市北区,天神橋１丁目９番５号,,27,127,5300041,,,,,,,2025-04-07,1,,,,,ヤッキョクディーエックススイシンコンソーシアム,0
481,2120101071380,新規,0,2025-04-07,2025-04-07,エベレスト株式会社,,株式会社,大阪府,松原市,小川５丁目１７番２－１０２号,,27,217,5800002,,,,,,,2025-04-07,1,,,,,エベレスト,0
482,2120101071397,新規,0,2025-04-07,2025-04-07,株式会社ミライ,,株式会社,大阪府,貝塚市,新町１０番１２－７０２号,,27,208,5970002,,,,,,,2025-04-07,1,,,,,ミライ,0
483,2120103006368,新規,0,2025-04-07,2025-04-07,合同会社ＨＡＣＯＲＩＳＵ,,合同会社,大阪府,羽曳野市,白鳥２丁目２番１３号,,27,222,5830856,,,,,,,2025-04-07,1,,,,,ハコリス,0
484,2120103006384,新規,0,2025-04-07,2025-04-07,マクシー合同会社,,合同会社,大阪府,堺市西区,津久野町１丁７－５－７０３,,27,144,5938322,,,,,,,2025-04-07,1,,,,,マクシー,0
485,2120901050674,新規,0,2025-04-07,2025-04-07,株式会社ＴＲＫ,,株式会社,大阪府,摂津市,鳥飼上２丁目５番５８号,,27,224,5660062,,,,,,,2025-04-07,1,,,,,ティーアールケー,0
486,2122001039061,新規,0,2025-04-07,2025-04-07,株式会社Ｎ建機,,株式会社,大阪府,東大阪市,西岩田３丁目３番１３－６３２号,,27,227,5780947,,,,,,,2025-04-07,1,,,,,エヌケンキ,0
487,2130001079309,新規,0,2025-04-07,2025-04-07,株式会社桃竹農園,,株式会社,京都府,京田辺市,大住岡村４２番地１,,26,211,6100343,,,,,,,2025-04-07,1,,,,,トウチクノウエン,0
488,2130001079325,新規,0,2025-04-07,2025-04-07,株式会社Ｕ‐ｔｅｃｈｎｉｃａ,,株式会社,京都府,京都市南区,久世中久世町３丁目２５番地,,26,107,6018213,,,,,,,2025-04-07,1,,,,,ユーテクニカ,0
491,2130003010353,新規,0,2025-04-07,2025-04-07,合同会社Ｙｕｇａｔａ　Ｄｅｓｉｇｎ,,合同会社,京都府,京都市伏見区,城通町６２４シャーメゾン伏見城通３０３号,,26,109,6128067,,,,,,,2025-04-07,1,,,,,ユウガタデザイン,0
497,2140001138030,新規,0,2025-04-07,2025-04-07,株式会社ＲＢ　ＭＥＤＩＡ　ＨＯＵＳＥ,,株式会社,兵庫県,尼崎市,塚口町１丁目１５番１３－１０１号,,28,202,6610002,,,,,,,2025-04-07,1,,,,,アールビーメディアハウス,0
500,2150001028008,新規,0,2025-04-07,2025-04-07,ウエダホールディングス株式会社,,株式会社,奈良県,北葛城郡広陵町,大字三吉７５,,29,426,6350823,,,,,,,2025-04-07,1,,,,,ウエダホールディングス,0
501,2160001026638,新規,0,2025-04-07,2025-04-07,株式会社ココデンソウ,,株式会社,滋賀県,湖南市,岩根中央２丁目４番地,,25,211,5203254,,,,,,,2025-04-07,1,,,,,ココデンソウ,0
502,2160001026646,新規,0,2025-04-07,2025-04-07,株式会社丈建,,株式会社,滋賀県,東近江市,昭和町３番４７号,,25,213,5270017,,,,,,,2025-04-07,1,,,,,ジョウケン,0
503,2170001018551,新規,0,2025-04-07,2025-04-07,株式会社ｋａｗａｎｉｓｈｉ,,株式会社,和歌山県,西牟婁郡白浜町,５１１番地の１,,30,401,6492211,,,,,,,2025-04-07,1,,,,,カワニシ,0
507,2180001166110,新規,0,2025-04-07,2025-04-07,株式会社アンジェリーナ,,株式会社,愛知県,名古屋市昭和区,川名本町５丁目１６番地の２,,23,107,4660855,,,,,,,2025-04-07,1,,,,,アンジェリーナ,0
508,2180001166176,新規,0,2025-04-07,2025-04-07,株式会社スリーエヌジャパン,,株式会社,愛知県,名古屋市守山区,下志段味５丁目３６１１番地,,23,113,4630003,,,,,,,2025-04-07,1,,,,,スリーエヌジャパン,0
509,2180001166234,新規,0,2025-04-07,2025-04-07,株式会社ワキウッド,,株式会社,愛知県,名古屋市中区,伊勢山１丁目３番１号,,23,106,4600026,,,,,,,2025-04-07,1,,,,,ワキウッド,0
511,2180003028291,新規,0,2025-04-07,2025-04-07,シマオクト合同会社,,合同会社,愛知県,知多市,西巽が丘２丁目４番地の１,,23,224,4780014,,,,,,,2025-04-07,1,,,,,シマオクト,0
514,2180301039668,新規,0,2025-04-07,2025-04-07,株式会社ＧｓＴＯＹＯＨＡＳＨＩ,,株式会社,愛知県,豊橋市,花田町字中ノ坪４９番地フジシロビル,,23,201,4418019,,,,,,,2025-04-07,1,,,,,ジズトヨハシ,0
515,2180301039676,新規,0,2025-04-07,2025-04-07,株式会社中島重設,,株式会社,愛知県,安城市,今池町２丁目１番１号,,23,212,4460071,,,,,,,2025-04-07,1,,,,,ナカシマジュウセツ,0
516,2180301039684,新規,0,2025-04-07,2025-04-07,株式会社都工業社,,株式会社,愛知県,豊川市,伊奈町慶応３４９番地３,,23,207,4410105,,,,,,,2025-04-07,1,,,,,ミヤココウギョウシャ,0
517,2180301039692,新規,0,2025-04-07,2025-04-07,Ｂａｋｅｒｙ　Ｃａｐｉｔａｌ株式会社,,株式会社,愛知県,豊田市,小坂町１丁目２番地１トヨタミッドヒルズ毘森公園８０９号,,23,211,4710035,,,,,,,2025-04-07,1,,,,,ベーカリーキャピタル,0
519,2180303006518,新規,0,2025-04-07,2025-04-07,合同会社ＦＵＮＯＶＡＴＥ,,合同会社,愛知県,岡崎市,亀井町１丁目４番地,,23,202,4440049,,,,,,,2025-04-07,1,,,,,ファノベイト,0
522,2190001032121,新規,0,2025-04-07,2025-04-07,株式会社Ｆ．Ｇ,,株式会社,三重県,鈴鹿市,南若松町７１１番地１,,24,207,5100227,,,,,,,2025-04-07,1,,,,,エフジー,0
523,2190003004985,新規,0,2025-04-07,2025-04-07,合同会社Ｙｏｕｒ　Ｐｌａｃｅ,,合同会社,三重県,鈴鹿市,郡山町７９６番地の１５,,24,207,5100263,,,,,,,2025-04-07,1,,,,,ユアープレイス,0
524,2200001043595,新規,0,2025-04-07,2025-04-07,株式会社誠,,株式会社,岐阜県,岐阜市,大洞１丁目１番１６号酒向第二ビル２０８号室,,21,201,5013124,,,,,,,2025-04-07,1,,,,,マコト,0
525,2200001043612,新規,0,2025-04-07,2025-04-07,株式会社新和化成,,株式会社,岐阜県,大垣市,荒尾町１０５４番地４,,21,202,5030034,,,,,,,2025-04-07,1,,,,,シンワカセイ,0
526,2200003006765,新規,0,2025-04-07,2025-04-07,フィールドバイクス合同会社,,合同会社,岐阜県,岐阜市,加野５丁目３－３７,,21,201,5013107,,,,,,,2025-04-07,1,,,,,フィールドバイクス,0
528,2210003001906,新規,0,2025-04-07,2025-04-07,合同会社おおぞら産業医事務所,,合同会社,福井県,あわら市,北潟第２０９号３９番地２３,,18,208,9104272,,,,,,,2025-04-07,1,,,,,オオゾラサンギョウイジムショ,0
534,2230001020831,新規,0,2025-04-07,2025-04-07,エスタート株式会社,,株式会社,富山県,富山市,秋吉１６３番地８,,16,201,9300953,,,,,,,2025-04-07,1,,,,,エスタート,0
535,2230003002407,新規,0,2025-04-07,2025-04-07,合同会社モンテ,,合同会社,富山県,富山市,豊田本町３丁目２０番１２‐２０１号ステンドハウスＤ棟,,16,201,9318312,,,,,,,2025-04-07,1,,,,,モンテ,0
536,2240001064778,新規,0,2025-04-07,2025-04-07,株式会社インフィニット,,株式会社,広島県,広島市中区,吉島二丁目３番５７号,,34,101,7300000,,,,,,,2025-04-07,1,,,,,インフィニット,0
542,2260001040109,新規,0,2025-04-07,2025-04-07,株式会社リンドウ,,株式会社,岡山県,倉敷市,神田３丁目１６番３５－２号,,33,202,7128061,,,,,,,2025-04-07,1,,,,,リンドウ,0
545,2260003005118,新規,0,2025-04-07,2025-04-07,合同会社萬屋技術士事務所,,合同会社,岡山県,倉敷市,五日市８５１番地１７,,33,202,7100041,,,,,,,2025-04-07,1,,,,,ヨロズヤギジュツシジムショ,0
546,2270001009177,新規,0,2025-04-07,2025-04-07,株式会社ティンクルティンクル,,株式会社,鳥取県,米子市,長砂町５７番地１,,31,202,6830033,,,,,,,2025-04-07,1,,,,,ティンクルティンクル,0
547,2270003001727,新規,0,2025-04-07,2025-04-07,合同会社ＡＲＡＴＥＣＨ,,合同会社,鳥取県,東伯郡琴浦町,大字徳万４５４番地４,,31,371,6892303,,,,,,,2025-04-07,1,,,,,アラテック,0
552,2290001109495,新規,0,2025-04-07,2025-04-07,株式会社ＢＭＳ都市開発,,株式会社,福岡県,福岡市中央区,天神４丁目１－２３－５０１,,40,133,8100001,,,,,,,2025-04-07,1,,,,,,0
553,2290001109537,新規,0,2025-04-07,2025-04-07,株式会社ＤＡＯＭＡＫＥ,,株式会社,福岡県,福岡市博多区,博多駅前２丁目１９番１７号トーカン博多第５ビル３１２号室,,40,132,8120011,,,,,,,2025-04-07,1,,,,,ダオメイク,0
554,2290001109652,新規,0,2025-04-07,2025-04-07,株式会社ｍｉｅｌ,,株式会社,福岡県,福岡市中央区,天神２丁目２番１２号Ｔ＆Ｊビルディング７Ｆ,,40,133,8100001,,,,,,,2025-04-07,1,,,,,ミエル,0
560,2290805009817,新規,0,2025-04-07,2025-04-07,社会保険労務士法人フェアウェイ,,その他の設立登記法人,福岡県,北九州市小倉北区,若富士町５番１８号金山ビル３０１号,,40,106,8020063,,,,,,,2025-04-07,1,,,,,フェアウェイ,0
568,2330001033047,新規,0,2025-04-07,2025-04-07,株式会社ポストラボ,,株式会社,熊本県,熊本市西区,春日８丁目７番３号,,43,103,8600047,,,,,,,2025-04-07,1,,,,,ポストラボ,0
574,2350001019473,新規,0,2025-04-07,2025-04-07,株式会社ハクジュＰＯＮＯ,,株式会社,宮崎県,延岡市,瀬之口町１丁目３－１４,,45,203,8820045,,,,,,,2025-04-07,1,,,,,ハクジュポノ,0
579,2360001034991,新規,0,2025-04-07,2025-04-07,Ｄｒ．ｆｒｕｉｔｓ株式会社,,株式会社,沖縄県,石垣市,字白保１２５番地２,,47,207,9070242,,,,,,,2025-04-07,1,,,,,ドクターフルーツ,0
580,2360001035008,新規,0,2025-04-07,2025-04-07,株式会社ＷＯＲＫＰＲＯ　ＯＦＦＩＣＥ,,株式会社,沖縄県,中頭郡読谷村,字大湾３１２番地１,,47,324,9040313,,,,,,,2025-04-07,1,,,,,ワークプロオフィス,0
584,2370001052407,新規,0,2025-04-07,2025-04-07,株式会社寺尾商会,,株式会社,宮城県,仙台市青葉区,芋沢字権現森山１３番３２,,04,101,9893212,,,,,,,2025-04-07,1,,,,,テラオショウカイ,0
585,2370001052448,新規,0,2025-04-07,2025-04-07,株式会社サイコロ,,株式会社,宮城県,仙台市太白区,泉崎２丁目３－１１コートヤード２４号室,,04,104,9820031,,,,,,,2025-04-07,1,,,,,サイコロ,0
588,2380003006013,新規,0,2025-04-07,2025-04-07,合同会社未来テック,,合同会社,福島県,郡山市,横塚１丁目１４－２７－２０２,,07,203,9638803,,,,,,,2025-04-07,1,,,,,ミライテック,0
589,2390003002366,新規,0,2025-04-07,2025-04-07,合同会社山形モ蔵商会,,合同会社,山形県,最上郡鮭川村,大字石名坂８０２番地２,,06,366,9995208,,,,,,,2025-04-07,1,,,,,ヤマガタモグラショウカイ,0
591,2410001014113,新規,0,2025-04-07,2025-04-07,株式会社ＡＮＢＥＥＮＡ,,株式会社,秋田県,大館市,東台２丁目１番７５－２号,,05,204,0170803,,,,,,,2025-04-07,1,,,,,アンベイイナ,0
592,2410003004079,新規,0,2025-04-07,2025-04-07,合同会社ＡＳＵＮＡＲＯ,,合同会社,秋田県,能代市,緑町１番２４号,,05,202,0160851,,,,,,,2025-04-07,1,,,,,アスナロ,0
593,2420001019086,新規,0,2025-04-07,2025-04-07,株式会社ネクストガレージ,,株式会社,青森県,青森市,大字新城字山田５８７番地２９２,,02,201,0380042,,,,,,,2025-04-07,1,,,,,ネクストガレージ,0
598,2430001094079,新規,0,2025-04-07,2025-04-07,株式会社白貴工業,,株式会社,北海道,札幌市北区,新琴似十一条１１丁目１０番３号,,01,102,0010911,,,,,,,2025-04-07,1,,,,,シラタカコウギョウ,0
599,2430001094087,新規,0,2025-04-07,2025-04-07,トリプル総合株式会社,,株式会社,北海道,札幌市東区,東苗穂九条２丁目１番６０号,,01,103,0070809,,,,,,,2025-04-07,1,,,,,トリプルソウゴウ,0
600,2430001094104,新規,0,2025-04-07,2025-04-07,Ｌ‐フィン株式会社,,株式会社,北海道,札幌市中央区,北一条西１８丁目１番地,,01,101,0600001,,,,,,,2025-04-07,1,,,,,エルフィン,0
601,2430003017483,新規,0,2025-04-07,2025-04-07,合同会社クロカワ,,合同会社,北海道,札幌市南区,石山一条７丁目３７２番２,,01,106,0050841,,,,,,,2025-04-07,1,,,,,クロカワ,0
604,2450003002632,新規,0,2025-04-07,2025-04-07,合同会社リース,,合同会社,北海道,旭川市,東光十一条２丁目２番２号コムハウスＢ,,01,204,0788351,,,,,,,2025-04-07,1,,,,,リース,0
612,2490005006982,新規,0,2025-04-07,2025-04-07,ループジョイン協同組合,,その他の設立登記法人,高知県,高知市,高須新町４丁目３番１１号,,39,201,7818122,,,,,,,2025-04-07,1,,,,,ループジョイン,0
620,3010001253733,新規,0,2025-04-07,2025-04-07,株式会社シービーティートレーディング,,株式会社,東京都,中央区,八丁堀４丁目１４番７号ファイブビル八丁堀２０６,,13,102,1040032,,,,,,,2025-04-07,1,,,,,シービーティートレーディング,0
621,3010001253758,新規,0,2025-04-07,2025-04-07,株式会社リバイング,,株式会社,東京都,中央区,銀座１丁目１２番４号Ｎ＆Ｂ・ＢＬＤ６Ｆ,,13,102,1040061,,,,,,,2025-04-07,1,,,,,リバイング,0
622,3010001253766,新規,0,2025-04-07,2025-04-07,株式会社フォーサイト,,株式会社,東京都,中央区,日本橋本石町４丁目４番１６号小泉第２ビル３０１,,13,102,1030021,,,,,,,2025-04-07,1,,,,,,0
627,3010003046961,新規,0,2025-04-07,2025-04-07,合同会社ぼうそうソーラーシェアリング,,合同会社,東京都,千代田区,神田須田町１丁目２４－５ＴＨＥＣＲＯＳＳ神田５階,,13,101,1010041,,,,,,,2025-04-07,1,,,,,ボウソウソーラーシェアリング,0
628,3010003046978,新規,0,2025-04-07,2025-04-07,合同会社商事テック,,合同会社,東京都,中央区,銀座１丁目２２番１１号銀座大竹ビジデンス２Ｆ,,13,102,1040061,,,,,,,2025-04-07,1,,,,,ショウジテック,0
629,3010003046994,新規,0,2025-04-07,2025-04-07,下宇津ソーラーウェイ合同会社,,合同会社,東京都,千代田区,丸の内２丁目１番１号,,13,101,1000005,,,,,,,2025-04-07,1,,,,,シモウツソーラーウェイ,0
641,3010401189305,新規,0,2025-04-07,2025-04-07,株式会社Ｓｙｎｔｅｌｌｅｃｔ,,株式会社,東京都,港区,南青山３丁目１番３６号青山丸竹ビル６Ｆ,,13,103,1070062,,,,,,,2025-04-07,1,,,,,シンテレクト,0
642,3010401189313,新規,0,2025-04-07,2025-04-07,株式会社ｎｅｗｔ,,株式会社,東京都,港区,赤坂１丁目３番５号赤坂アビタシオンビル２階,,13,103,1070052,,,,,,,2025-04-07,1,,,,,ニュート,0
643,3010401189321,新規,0,2025-04-07,2025-04-07,ヴィノス株式会社,,株式会社,東京都,港区,元麻布３丁目１２番４６,,13,103,1060046,,,,,,,2025-04-07,1,,,,,ヴィノス,0
644,3010401189338,新規,0,2025-04-07,2025-04-07,サプナス株式会社,,株式会社,東京都,港区,赤坂２丁目５番４号赤坂室町ビル１０階,,13,103,1070052,,,,,,,2025-04-07,1,,,,,サプナス,0
645,3010401189354,新規,0,2025-04-07,2025-04-07,お店の工務店株式会社,,株式会社,東京都,港区,赤坂３丁目１２番１１号ニューギンザビル７号館５Ｆ,,13,103,1070052,,,,,,,2025-04-07,1,,,,,オミセノコウムテン,0
646,3010401189362,新規,0,2025-04-07,2025-04-07,株式会社ＣＡＳ２,,株式会社,東京都,港区,麻布台１丁目３番１号麻布台ヒルズ森ＪＰタワー２３階,,13,103,1060041,,,,,,,2025-04-07,1,,,,,キャスツー,0
647,3010401189379,新規,0,2025-04-07,2025-04-07,株式会社ＡＩスリープテック,,株式会社,東京都,港区,三田３丁目７番１８号ＴＨＥ．ＩＴＯＹＡＭＡ．ＴＯＷＥＲ５階,,13,103,1080073,,,,,,,2025-04-07,1,,,,,エーアイスリープテック,0
648,3010403034764,新規,0,2025-04-07,2025-04-07,７Ｎ合同会社,,合同会社,東京都,港区,赤坂６丁目１２番１４ー１００７号,,13,103,1070052,,,,,,,2025-04-07,1,,,,,セブンエヌ,0
649,3010403034789,新規,0,2025-04-07,2025-04-07,合同会社Ｒｉｖｅｒ,,合同会社,東京都,港区,芝大門２丁目１－１８ＧＳハイム芝大門３１０,,13,103,1050012,,,,,,,2025-04-07,1,,,,,リバー,0
652,3010601067070,新規,0,2025-04-07,2025-04-07,株式会社ｅｍ．ｂ,,株式会社,東京都,墨田区,本所２丁目１４番１２号,,13,107,1300004,,,,,,,2025-04-07,1,,,,,エンビー,0
655,3010701047476,新規,0,2025-04-07,2025-04-07,小出不動産ソリューションズ株式会社,,株式会社,東京都,品川区,北品川２丁目２番３号,,13,109,1400001,,,,,,,2025-04-07,1,,,,,コイデフドウサンソリューションズ,0
656,3010701047518,新規,0,2025-04-07,2025-04-07,株式会社ＫＳ企画,,株式会社,東京都,品川区,西五反田７丁目９番５号,,13,109,1410031,,,,,,,2025-04-07,1,,,,,ケーエスキカク,0
662,3010901057135,新規,0,2025-04-07,2025-04-07,株式会社ａｔｔ‐ｓｅｅｋ,,株式会社,東京都,世田谷区,用賀３丁目７－１,,13,112,1580097,,,,,,,2025-04-07,1,,,,,アットシーク,0
664,3010903009828,新規,0,2025-04-07,2025-04-07,合同会社Ｓｔｅａｄｙ　Ｇｒｅｅｎ,,合同会社,東京都,世田谷区,松原３丁目２７番７－２０４号,,13,112,1560043,,,,,,,2025-04-07,1,,,,,ステディグリーン,0
666,3011001168806,新規,0,2025-04-07,2025-04-07,株式会社アストラ,,株式会社,東京都,渋谷区,代々木１丁目４８番９号セジュール代々木１０５,,13,113,1510053,,,,,,,2025-04-07,1,,,,,アストラ,0
667,3011001168830,新規,0,2025-04-07,2025-04-07,株式会社ｅｎ,,株式会社,東京都,渋谷区,神宮前５丁目３６－１７,,13,113,1500001,,,,,,,2025-04-07,1,,,,,エン,0
668,3011001168839,新規,0,2025-04-07,2025-04-07,株式会社ＰＲＯＤＳ,,株式会社,東京都,渋谷区,渋谷２丁目１９－１５宮益坂ビルディング６０９,,13,113,1500002,,,,,,,2025-04-07,1,,,,,プロディエス,0
669,3011003021260,新規,0,2025-04-07,2025-04-07,合同会社ＵＫＫ,,合同会社,東京都,渋谷区,恵比寿西１丁目８番１０号,,13,113,1500021,,,,,,,2025-04-07,1,,,,,ユーケーケー,0
670,3011003021319,新規,0,2025-04-07,2025-04-07,合同会社オリンポス,,合同会社,東京都,渋谷区,渋谷２丁目１９－１５宮益坂ビルディング６０９,,13,113,1500002,,,,,,,2025-04-07,1,,,,,オリンポス,0
671,3011003021401,新規,0,2025-04-07,2025-04-07,合同会社Ｃｈａｉｎ　ｔｈｅ　Ｓｅｅｄｓ,,合同会社,東京都,渋谷区,渋谷２丁目１９－１５宮益坂ビルディング６０９,,13,113,1500002,,,,,,,2025-04-07,1,,,,,チェーンザシーズ,0
679,3011303005483,新規,0,2025-04-07,2025-04-07,合同会社Ｓｈｉｂａ,,合同会社,東京都,杉並区,上井草１丁目１－１１亀屋ビル３０２,,13,115,1670023,,,,,,,2025-04-07,1,,,,,シバ,0
685,3011403004658,新規,0,2025-04-07,2025-04-07,音のさろん合同会社,,合同会社,東京都,板橋区,氷川町４７番９号ライオンズマンション大山氷川町１０６Ａ,,13,119,1730013,,,,,,,2025-04-07,1,,,,,オトノサロン,0
690,3011605002641,新規,0,2025-04-07,2025-04-07,一般社団法人ねりま終活身元保証センター,,その他の設立登記法人,東京都,練馬区,谷原５丁目１３番４０－１０５号,,13,120,1770032,,,,,,,2025-04-07,1,,,,,ネリマシュウカツミモトホショウセンター,0
691,3011701028235,新規,0,2025-04-07,2025-04-07,株式会社エンリンクテクノロジー,,株式会社,東京都,江戸川区,一之江８丁目１番１１号,,13,123,1320024,,,,,,,2025-04-07,1,,,,,エンリンクテクノロジー,0
694,3012401042939,新規,0,2025-04-07,2025-04-07,株式会社ＭＯＶＩＥ　ｐｒｏｄｕｃｔｉｏｎ,,株式会社,東京都,府中市,北山町１丁目７番地の８７,,13,206,1830041,,,,,,,2025-04-07,1,,,,,ムービープロダクション,0
697,3020001162149,新規,0,2025-04-07,2025-04-07,株式会社Ｆｒｏｎｔ　Ｒｏｗ　Ａｔｈｌｅｔｅ　Ａｇｅｎｃｙ,,株式会社,神奈川県,川崎市中原区,木月２丁目２１番２４号,,14,133,2110025,,,,,,,2025-04-07,1,,,,,フロントロウアスリートエージェンシー,0
698,3020001162223,新規,0,2025-04-07,2025-04-07,株式会社ＰＦＤ,,株式会社,神奈川県,横浜市中区,太田町６丁目７９アブソルート横浜馬車道ビル３０４,,14,104,2310011,,,,,,,2025-04-07,1,,,,,ピーエフディー,0
699,3020001162280,新規,0,2025-04-07,2025-04-07,ｍｉｅｕｘ株式会社,,株式会社,神奈川県,横浜市南区,中島町１丁目１番地,,14,105,2320055,,,,,,,2025-04-07,1,,,,,ミュウ,0
701,3020003028182,新規,0,2025-04-07,2025-04-07,合同会社ｈｕｍｍｉｎｇｂｉｒｄ,,合同会社,神奈川県,横浜市中区,弁天通３丁目４７番地２フロール横濱関内４０３,,14,104,2310007,,,,,,,2025-04-07,1,,,,,ハミングバード,0
702,3020003028190,新規,0,2025-04-07,2025-04-07,Ｏｆｆｉｃｅ　Ｈ２Ｏ合同会社,,合同会社,神奈川県,横浜市南区,大岡５丁目５番２号,,14,105,2320061,,,,,,,2025-04-07,1,,,,,オフィスエイチツーオー,0
703,3020003028199,新規,0,2025-04-07,2025-04-07,合同会社ＣｏｌｏｒｅｒＡｍｕｓｅ,,合同会社,神奈川県,川崎市宮前区,土橋４丁目３番地８プラウド鷺沼テラス２１３,,14,136,2160005,,,,,,,2025-04-07,1,,,,,クロレアミューズ,0
704,3020003028208,新規,0,2025-04-07,2025-04-07,合同会社パーティクル,,合同会社,神奈川県,横浜市南区,山王町４丁目２８番地１０,,14,105,2320013,,,,,,,2025-04-07,1,,,,,パーティクル,0
706,3021001084886,新規,0,2025-04-07,2025-04-07,株式会社アグリ＆リゾート,,株式会社,神奈川県,茅ヶ崎市,本宿町１２番３－２０１号プレジャー湘南,,14,207,2530014,,,,,,,2025-04-07,1,,,,,アグリアンドリゾート,0
712,3030001165695,新規,0,2025-04-07,2025-04-07,株式会社鳳桜,,株式会社,埼玉県,さいたま市桜区,西堀７丁目１７番２８－３０１号,,11,106,3380832,,,,,,,2025-04-07,1,,,,,ホウオウ,0
713,3030001165712,新規,0,2025-04-07,2025-04-07,ことだま株式会社,,株式会社,埼玉県,川越市,大字笠幡７６２番地９,,11,201,3501175,,,,,,,2025-04-07,1,,,,,コトダマ,0
714,3030001165729,新規,0,2025-04-07,2025-04-07,株式会社シビルホールディングス,,株式会社,埼玉県,さいたま市岩槻区,大字末田１５００番地１,,11,110,3390021,,,,,,,2025-04-07,1,,,,,シビルホールディングス,0
715,3030001165737,新規,0,2025-04-07,2025-04-07,株式会社ココウィズボイス,,株式会社,埼玉県,所沢市,日吉町２１番１号アネックス１０１,,11,208,3591123,,,,,,,2025-04-07,1,,,,,ココウィズボイス,0
716,3030001165745,新規,0,2025-04-07,2025-04-07,彩和工務店株式会社,,株式会社,埼玉県,和光市,白子３丁目２５番６０号ラシーネ藤ノ木１０５,,11,229,3510101,,,,,,,2025-04-07,1,,,,,サイワコウムテン,0
717,3030001165761,新規,0,2025-04-07,2025-04-07,株式会社Ｋ’ｓオートサービス,,株式会社,埼玉県,三郷市,谷口５８番地２,,11,237,3410042,,,,,,,2025-04-07,1,,,,,ケーズオートサービス,0
718,3030001165778,新規,0,2025-04-07,2025-04-07,株式会社エクスプローラー,,株式会社,埼玉県,川口市,青木１丁目１８番２１－５０６号,,11,203,3320031,,,,,,,2025-04-07,1,,,,,エクスプローラー,0
719,3030001165803,新規,0,2025-04-07,2025-04-07,株式会社フェイト,,株式会社,埼玉県,秩父市,上影森７９１番地５,,11,207,3691872,,,,,,,2025-04-07,1,,,,,フェイト,0
723,3030003026474,新規,0,2025-04-07,2025-04-07,合同会社池田サミット,,合同会社,埼玉県,桶川市,大字川田谷７３３６番地の７,,11,231,3630027,,,,,,,2025-04-07,1,,,,,イケダサミット,0
724,3030003026490,新規,0,2025-04-07,2025-04-07,合同会社ＴＨＡＩ　ＨＡＮ,,合同会社,埼玉県,飯能市,本町１９番２号ＫＩＶーＷｅｌｆａｒｅ会館飯能８号室,,11,209,3570032,,,,,,,2025-04-07,1,,,,,タイハン,0
725,3030003026499,新規,0,2025-04-07,2025-04-07,晨峰合同会社,,合同会社,埼玉県,蕨市,中央３丁目１９番２０号ライオンズプラザ蕨シティー９０６号,,11,223,3350004,,,,,,,2025-04-07,1,,,,,シンホウ,0
731,3040001138015,新規,0,2025-04-07,2025-04-07,株式会社ＵＫ企画,,株式会社,千葉県,四街道市,千代田５丁目２０番４号,,12,228,2840015,,,,,,,2025-04-07,1,,,,,ユーケーキカク,0
732,3040001138064,新規,0,2025-04-07,2025-04-07,エンジョイネット株式会社,,株式会社,千葉県,松戸市,栄町８丁目６４７番地の１２,,12,207,2710062,,,,,,,2025-04-07,1,,,,,エンジョイネット,0
733,3040001138080,新規,0,2025-04-07,2025-04-07,株式会社奥山環境,,株式会社,千葉県,柏市,北柏２丁目１５番地１５,,12,217,2770832,,,,,,,2025-04-07,1,,,,,オクヤマカンキョウ,0
734,3040001138089,新規,0,2025-04-07,2025-04-07,株式会社ＭＡＮＪＵ,,株式会社,千葉県,茂原市,高師台３丁目５番地２（新城ハイツ２００１－１０１）,,12,210,2970078,,,,,,,2025-04-07,1,,,,,マンジュ,0
735,3040001138122,新規,0,2025-04-07,2025-04-07,株式会社リュウフラップ,,株式会社,千葉県,松戸市,常盤平６丁目３－６,,12,207,2702261,,,,,,,2025-04-07,1,,,,,リュウフラップ,0
736,3040001138188,新規,0,2025-04-07,2025-04-07,株式会社Ｒｏｕｔｅ　Ｅｖｏ,,株式会社,千葉県,市川市,幸２丁目２番７－４０７号,,12,203,2720123,,,,,,,2025-04-07,1,,,,,ルートエボ,0
740,3040003027216,新規,0,2025-04-07,2025-04-07,ＹＥＴＩ合同会社,,合同会社,千葉県,君津市,法木作１丁目１１番２１号２０５,,12,225,2991174,,,,,,,2025-04-07,1,,,,,イエティ,0
745,3060003005500,新規,0,2025-04-07,2025-04-07,合同会社すくすくＫｉｄｓみるく保育園,,合同会社,栃木県,那須塩原市,小結２０１番地１６,,09,213,3250035,,,,,,,2025-04-07,1,,,,,スクスクキッズミルクホイクエン,0
747,3070001042791,新規,0,2025-04-07,2025-04-07,神明工業株式会社,,株式会社,群馬県,前橋市,小神明町６９２番地８,,10,201,3710134,,,,,,,2025-04-07,1,,,,,シンメイコウギョウ,0
749,3070003005854,新規,0,2025-04-07,2025-04-07,合同会社Ｓｔｅｐｗｉｓｅ,,合同会社,群馬県,伊勢崎市,境下武士２５７１番地,,10,204,3700126,,,,,,,2025-04-07,1,,,,,ステップワイズ,0
761,3100001038472,新規,0,2025-04-07,2025-04-07,株式会社フードマフィア,,株式会社,長野県,長野市,桜新町６６３番地６,,20,201,3810013,,,,,,,2025-04-07,1,,,,,フードマフィア,0
762,3100001038480,新規,0,2025-04-07,2025-04-07,株式会社柳沢電気,,株式会社,長野県,北佐久郡軽井沢町,軽井沢東３６番地９,,20,321,3890104,,,,,,,2025-04-07,1,,,,,ヤナギサワデンキ,0
777,3120001274181,新規,0,2025-04-07,2025-04-07,楽旅丸株式会社,,株式会社,大阪府,大阪市生野区,新今里３丁目４番１７号ＯＧビル３０６Ａ,,27,116,5440001,,,,,,,2025-04-07,1,,,,,ラクリョガン,0
778,3120001274231,新規,0,2025-04-07,2025-04-07,株式会社全景ホテルマネジメント,,株式会社,大阪府,大阪市中央区,博労町１丁目４番１０号博労町エステートビル６０３号,,27,128,5410059,,,,,,,2025-04-07,1,,,,,ゼンケイホテルマネジメント,0
779,3120001274248,新規,0,2025-04-07,2025-04-07,吉光商事株式会社,,株式会社,大阪府,大阪市西成区,南津守１丁目５番２８号－１０２,,27,122,5570063,,,,,,,2025-04-07,1,,,,,ヨシコウショウジ,0
780,3120001274256,新規,0,2025-04-07,2025-04-07,株式会社長藤,,株式会社,大阪府,大阪市中央区,谷町６丁目６番７号第５松屋ビル９３１号室,,27,128,5420012,,,,,,,2025-04-07,1,,,,,ナガフジ,0
781,3120001274280,新規,0,2025-04-07,2025-04-07,ＩＮＴ株式会社,,株式会社,大阪府,寝屋川市,葛原新町５番５４号,,27,215,5720037,,,,,,,2025-04-07,1,,,,,アイエヌティー,0
787,3120101071396,新規,0,2025-04-07,2025-04-07,株式会社ＡＣＰ,,株式会社,大阪府,堺市西区,鳳東町４丁３５９番地,,27,144,5938324,,,,,,,2025-04-07,1,,,,,エーシーピー,0
788,3120103006375,新規,0,2025-04-07,2025-04-07,合同会社ＬＢ,,合同会社,大阪府,堺市美原区,黒山５０３番地２英龍興産黒山ビル３階３号室,,27,147,5870002,,,,,,,2025-04-07,1,,,,,エルビー,0
790,3120901050673,新規,0,2025-04-07,2025-04-07,株式会社オーソデプト,,株式会社,大阪府,箕面市,牧落３丁目１８番１０号,,27,220,5620004,,,,,,,2025-04-07,1,,,,,オーソデプト,0
791,3120901050681,新規,0,2025-04-07,2025-04-07,株式会社Ｔｒｉａｎｇｌｅ,,株式会社,大阪府,吹田市,古江台１丁目２０番１－３号,,27,205,5650874,,,,,,,2025-04-07,1,,,,,トライアングル,0
793,3122001039052,新規,0,2025-04-07,2025-04-07,株式会社ＺＥＲＯ,,株式会社,大阪府,東大阪市,川田４丁目３番２７号,,27,227,5780905,,,,,,,2025-04-07,1,,,,,ゼロ,0
801,3130001079357,新規,0,2025-04-07,2025-04-07,株式会社ＨＩＲＯＴＡＮ,,株式会社,京都府,舞鶴市,字倉谷１０９０番地１,,26,202,6240906,,,,,,,2025-04-07,1,,,,,ヒロタン,0
803,3130003010344,新規,0,2025-04-07,2025-04-07,合同会社Ａ‐ｗａＲｉｓｅ,,合同会社,京都府,向日市,寺戸町古城６番地の４８,,26,208,6170002,,,,,,,2025-04-07,1,,,,,エーワライズ,0
810,3140005027443,新規,0,2025-04-07,2025-04-07,一般社団法人日本獣医歯科学会,,その他の設立登記法人,兵庫県,三田市,上井沢５８３番地３,,28,219,6691316,,,,,,,2025-04-07,1,,,,,ニホンジュウイシカガッカイ,0
814,3170001018559,新規,0,2025-04-07,2025-04-07,サラヤアクアカルチャー株式会社,,株式会社,和歌山県,和歌山市,田野３６２番地,,30,201,6410061,,,,,,,2025-04-07,1,,,,,サラヤアクアカルチャー,0
817,3180001166150,新規,0,2025-04-07,2025-04-07,株式会社ガルーダ・ジャパン,,株式会社,愛知県,名古屋市東区,東大曽根町１２番１９号ＯＺヒメノビル５階,,23,102,4610022,,,,,,,2025-04-07,1,,,,,ガルーダジャパン,0
818,3180001166159,新規,0,2025-04-07,2025-04-07,株式会社東海トラック,,株式会社,愛知県,大府市,横根町子新田３番地３,,23,223,4740011,,,,,,,2025-04-07,1,,,,,トウカイトラック,0
819,3180001166191,新規,0,2025-04-07,2025-04-07,株式会社オフィスディー,,株式会社,愛知県,名古屋市天白区,古川町４６番地,,23,116,4680046,,,,,,,2025-04-07,1,,,,,オフィスディー,0
820,3180001166217,新規,0,2025-04-07,2025-04-07,ハンブルキャリア株式会社,,株式会社,愛知県,名古屋市中区,錦２丁目１７番３０号,,23,106,4600003,,,,,,,2025-04-07,1,,,,,ハンブルキャリア,0
821,3180001166258,新規,0,2025-04-07,2025-04-07,株式会社Ｍａｔｓｕｎａｍｉ　Ｗｅｌｌｃａｒｅ　Ｐａｒｔｎｅｒｓ,,株式会社,愛知県,名古屋市瑞穂区,田辺通５丁目２番地の１１,,23,108,4670027,,,,,,,2025-04-07,1,,,,,マツナミウェルケアパートナーズ,0
822,3180001166274,新規,0,2025-04-07,2025-04-07,株式会社ハビランド,,株式会社,愛知県,名古屋市緑区,鎌倉台２丁目７０６番地,,23,114,4580829,,,,,,,2025-04-07,1,,,,,ハビランド,0
824,3180301039675,新規,0,2025-04-07,2025-04-07,株式会社ＳＴＣ,,株式会社,愛知県,刈谷市,今岡町西畑４４番地１,,23,210,4480008,,,,,,,2025-04-07,1,,,,,エスティーシー,0
826,3180303006509,新規,0,2025-04-07,2025-04-07,合同会社ＡＫＩ．Ｄ．Ｓ,,合同会社,愛知県,豊田市,西中山町榎前９９番地２,,23,211,4700431,,,,,,,2025-04-07,1,,,,,アキドットディドットエス,0
829,3200001043611,新規,0,2025-04-07,2025-04-07,株式会社Ｌｉｂｅｒｔｙ,,株式会社,岐阜県,美濃加茂市,森山町２丁目９番１号,,21,211,5050021,,,,,,,2025-04-07,1,,,,,リバティ,0
831,3210001020130,新規,0,2025-04-07,2025-04-07,株式会社ＲＹＯ　ＭＥＤＩＣＡＬ　ＳＥＲＶＩＳＥ,,株式会社,福井県,福井市,学園２丁目６番１８号ポントルミネール２０１号室,,18,201,9100028,,,,,,,2025-04-07,1,,,,,リョウメディカルサービス,0
836,3220001026606,新規,0,2025-04-07,2025-04-07,株式会社木佐貫,,株式会社,石川県,金沢市,常盤町１５番地３,,17,201,9200834,,,,,,,2025-04-07,1,,,,,キサヌキ,0
840,3230001020806,新規,0,2025-04-07,2025-04-07,株式会社金山ホールディングス,,株式会社,富山県,滑川市,中川原１８１番地,,16,206,9360021,,,,,,,2025-04-07,1,,,,,カナヤマホールディングス,0
841,3240001064728,新規,0,2025-04-07,2025-04-07,株式会社Ｎｏｕｅｌ,,株式会社,広島県,広島市安佐南区,山本新町２丁目３番５号,,34,105,7310139,,,,,,,2025-04-07,1,,,,,ノウル,0
842,3240001064744,新規,0,2025-04-07,2025-04-07,株式会社アークアセット,,株式会社,広島県,福山市,千田町３丁目５４番５号,,34,207,7200017,,,,,,,2025-04-07,1,,,,,アークアセット,0
849,3260001040066,新規,0,2025-04-07,2025-04-07,ママル株式会社,,株式会社,岡山県,津山市,一方３０３番地７,,33,203,7080883,,,,,,,2025-04-07,1,,,,,ママル,0
850,3260001040082,新規,0,2025-04-07,2025-04-07,株式会社ＰＯＮＯ　ＬＩＧＨＴ,,株式会社,岡山県,岡山市中区,原尾島２丁目１８番１７号,,33,102,7038235,,,,,,,2025-04-07,1,,,,,ポノライト,0
860,3290001109503,新規,0,2025-04-07,2025-04-07,白壁通り株式会社,,株式会社,福岡県,福岡市早良区,次郎丸３丁目２５番４号,,40,137,8140165,,,,,,,2025-04-07,1,,,,,シラカベドオリ,0
861,3290001109536,新規,0,2025-04-07,2025-04-07,株式会社Ｌｉｎｋｏｎｅ　Ｎｅｔｗｏｒｋｓ,,株式会社,福岡県,福岡市博多区,千代４丁目２９番４６号アストールビル５０３号,,40,132,8120044,,,,,,,2025-04-07,1,,,,,リンクワンネットワークス,0
862,3290001109560,新規,0,2025-04-07,2025-04-07,株式会社ＺＥＮ,,株式会社,福岡県,福岡市西区,大字飯氏９８３番地１,,40,135,8190371,,,,,,,2025-04-07,1,,,,,ゼン,0
863,3290001109569,新規,0,2025-04-07,2025-04-07,株式会社早良電業,,株式会社,福岡県,福岡市早良区,大字脇山２７３５番地３,,40,137,8111111,,,,,,,2025-04-07,1,,,,,サワラデンギョウ,0
864,3290003016631,新規,0,2025-04-07,2025-04-07,合同会社Ａ＆Ｓ,,合同会社,福岡県,福岡市中央区,天神４丁目６－２８天神ファーストビル７階,,40,133,8100001,,,,,,,2025-04-07,1,,,,,,0
866,3290801031427,新規,0,2025-04-07,2025-04-07,株式会社田才,,株式会社,福岡県,北九州市若松区,響町３丁目１番地１２,,40,103,8080021,,,,,,,2025-04-07,1,,,,,タサイ,0
869,3310001019526,新規,0,2025-04-07,2025-04-07,株式会社ライムイシモト大村,,株式会社,長崎県,大村市,東本町２９４番地,,42,205,8560831,,,,,,,2025-04-07,1,,,,,ライムイシモトオオムラ,0
870,3310003004988,新規,0,2025-04-07,2025-04-07,コンフェイトプラス合同会社,,合同会社,長崎県,壱岐市,芦辺町深江鶴亀触１０９２番５,,42,210,8115322,,,,,,,2025-04-07,1,,,,,コンフェイトプラス,0
872,3320001021035,新規,0,2025-04-07,2025-04-07,株式会社ＡＩオフィスソリューション,,株式会社,大分県,大分市,下郡東１丁目６番３０号,,44,201,8700953,,,,,,,2025-04-07,1,,,,,エーアイオフィスソリューション,0
873,3320003004616,新規,0,2025-04-07,2025-04-07,合同会社グローバルニッチ,,合同会社,大分県,大分市,大字中尾７７２番地の１,,44,201,8700862,,,,,,,2025-04-07,1,,,,,グローバルニッチ,0
876,3330001033054,新規,0,2025-04-07,2025-04-07,アスカマリンサービス株式会社,,株式会社,熊本県,上天草市,松島町合津７９１４番地４,,43,212,8616102,,,,,,,2025-04-07,1,,,,,アスカマリンサービス,0
880,3360001034990,新規,0,2025-04-07,2025-04-07,株式会社とき,,株式会社,沖縄県,中頭郡嘉手納町,水釜６丁目２３番７号,,47,325,9040204,,,,,,,2025-04-07,1,,,,,トキ,0
881,3360001035007,新規,0,2025-04-07,2025-04-07,株式会社ＭＩＹＡＶＩ創建,,株式会社,沖縄県,沖縄市,桃原４丁目２９番１号,,47,211,9042164,,,,,,,2025-04-07,1,,,,,ミヤビソウケン,0
886,3360003014818,新規,0,2025-04-07,2025-04-07,合同会社ホンダ二輪久米,,合同会社,沖縄県,那覇市,首里末吉町４丁目５番地１,,47,201,9030801,,,,,,,2025-04-07,1,,,,,ホンダニリンクメ,0
887,3370001052439,新規,0,2025-04-07,2025-04-07,株式会社ＳＰＩＣＥ　ＭＯＴＯＲＳ,,株式会社,宮城県,宮城郡松島町,磯崎字華園１３９番地,,04,401,9810212,,,,,,,2025-04-07,1,,,,,スパイスモータース,0
888,3370001052455,新規,0,2025-04-07,2025-04-07,株式会社Ｍｅｄｉｃａｌ　Ｓｅａｒｃｈ,,株式会社,宮城県,仙台市若林区,一本杉町１６番２０号,,04,103,9840828,,,,,,,2025-04-07,1,,,,,メディカルサーチ,0
890,3390001017951,新規,0,2025-04-07,2025-04-07,株式会社石田農園,,株式会社,山形県,東置賜郡高畠町,大字糠野目１７１６番地,,06,381,9992176,,,,,,,2025-04-07,1,,,,,イシダノウエン,0
894,3400003003428,新規,0,2025-04-07,2025-04-07,合同会社リアス商会,,合同会社,岩手県,下閉伊郡普代村,第１３地割字普代１０７番地３,,03,485,0288335,,,,,,,2025-04-07,1,,,,,リアスショウカイ,0
896,3420001019085,新規,0,2025-04-07,2025-04-07,株式会社津軽Ｄｅｎｔａｌ　Ｌａｂｏ,,株式会社,青森県,青森市,千富町１丁目２番２３号,,02,201,0300854,,,,,,,2025-04-07,1,,,,,ツガルデンタルラボ,0
897,3420003003095,新規,0,2025-04-07,2025-04-07,村井電装合同会社,,合同会社,青森県,八戸市,八太郎３丁目１番７－２号,,02,203,0391168,,,,,,,2025-04-07,1,,,,,ムライデンソウ,0
898,3430001094094,新規,0,2025-04-07,2025-04-07,株式会社ＢｂｙＧ,,株式会社,北海道,石狩市,花川南三条４丁目２１９若葉ビル１Ｆ,,01,235,0613203,,,,,,,2025-04-07,1,,,,,ビーバイジー,0
899,3430001094103,新規,0,2025-04-07,2025-04-07,株式会社コトリドリ,,株式会社,北海道,札幌市西区,西野五条７丁目８番８号,,01,107,0630035,,,,,,,2025-04-07,1,,,,,コトリドリ,0
900,3430001094136,新規,0,2025-04-07,2025-04-07,株式会社ＭＯＧＡ,,株式会社,北海道,札幌市北区,新琴似一条１０丁目７番１５号,,01,102,0010901,,,,,,,2025-04-07,1,,,,,モガ,0
902,3430003017474,新規,0,2025-04-07,2025-04-07,合同会社ＡＬＢＡ,,合同会社,北海道,千歳市,あずさ２丁目１４番１４号,,01,224,0660076,,,,,,,2025-04-07,1,,,,,アルバ,0
903,3430003017490,新規,0,2025-04-07,2025-04-07,合同会社ＨＹＴ,,合同会社,北海道,札幌市白石区,菊水元町八条１丁目１０番７号,,01,104,0030828,,,,,,,2025-04-07,1,,,,,エイチワイティー,0
905,3450001014579,新規,0,2025-04-07,2025-04-07,株式会社ｇｇｇ,,株式会社,北海道,旭川市,末広二条１５丁目９番１２号,,01,204,0718132,,,,,,,2025-04-07,1,,,,,ジージージー,0
914,3480001012803,新規,0,2025-04-07,2025-04-07,サカナノ株式会社,,株式会社,徳島県,徳島市,万代町５丁目７１番地５,,36,201,7700941,,,,,,,2025-04-07,1,,,,,サカナノ,0
917,3500001026222,新規,0,2025-04-07,2025-04-07,株式会社ＪＯＹ,,株式会社,愛媛県,新居浜市,萩生７２２番地１,,38,205,7920050,,,,,,,2025-04-07,1,,,,,ジョイ,0
935,4010001253749,新規,0,2025-04-07,2025-04-07,株式会社Ｒｅｂｅｌ,,株式会社,東京都,千代田区,神田須田町１丁目７番８号ＶＯＲＴ秋葉原ＩＶ２Ｆ,00138612,13,101,1010041,,,,,,,2025-04-07,1,,,,,リーベル,0
936,4010001253831,新規,0,2025-04-07,2025-04-07,株式会社Ｃｒｅａｔｉｖｅ　Ｒｉｇｈｔｓ　Ｃｏｍｐａｎｙ,,株式会社,東京都,千代田区,内神田２丁目２番６号田中ビル３階,,13,101,1010047,,,,,,,2025-04-07,1,,,,,クリエイティブライツカンパニー,0
937,4010001253864,新規,0,2025-04-07,2025-04-07,株式会社エイティアイランド,,株式会社,東京都,中央区,京橋２丁目６－５－９０５,,13,102,1040031,,,,,,,2025-04-07,1,,,,,エイティアイランド,0
938,4010001253880,新規,0,2025-04-07,2025-04-07,Ｋホールディングス株式会社,,株式会社,東京都,千代田区,有楽町１丁目７番１号有楽町電気ビルヂング北館８階,,13,101,1000006,,,,,,,2025-04-07,1,,,,,ケーホールディングス,0
939,4010001253914,新規,0,2025-04-07,2025-04-07,山佐産業ＬＨ４リース株式会社,,株式会社,東京都,千代田区,丸の内１丁目４番１号東京共同会計事務所内,,13,101,1000005,,,,,,,2025-04-07,1,,,,,ヤマササンギョウエルエイチフォーリース,0
940,4010001253939,新規,0,2025-04-07,2025-04-07,ＳＰジャパン株式会社,,株式会社,東京都,千代田区,神田須田町２丁目１９番２３号Ｄａｉｗａ秋葉原ビル２階,,13,101,1010041,,,,,,,2025-04-07,1,,,,,エスピージャパン,0
941,4010003046952,新規,0,2025-04-07,2025-04-07,ＡｒｉｅｓＬｅｏ合同会社,,合同会社,東京都,千代田区,神田須田町２丁目１９番２３号Ｄａｉｗａ秋葉原ビル２階,,13,101,1010041,,,,,,,2025-04-07,1,,,,,アリエスレオ,0
942,4010003046960,新規,0,2025-04-07,2025-04-07,ホルドル合同会社,,合同会社,東京都,中央区,晴海３丁目６番８号ベイシティ晴海スカイリンクタワー３７０３号,,13,102,1040053,,,,,,,2025-04-07,1,,,,,ホルドル,0
950,4010401189295,新規,0,2025-04-07,2025-04-07,株式会社アトム,,株式会社,東京都,港区,南青山２丁目２番１５－９４２号ウィン青山,,13,103,1070062,,,,,,,2025-04-07,1,,,,,アトム,0
951,4010401189329,新規,0,2025-04-07,2025-04-07,株式会社ガルディアーニ・デラ・ムジカ・トウキョウ,,株式会社,東京都,港区,港南２丁目１６番１号品川イーストワンタワー４Ｆ,,13,103,1080075,,,,,,,2025-04-07,1,,,,,ガルディアーニデラムジカトウキョウ,0
952,4010401189337,新規,0,2025-04-07,2025-04-07,株式会社ドコモ・ファイナンス債権回収,,株式会社,東京都,港区,赤坂１丁目８番１号,,13,103,1070052,,,,,,,2025-04-07,1,,,,,ドコモファイナンスサイケンカイシュウ,0
953,4010401189353,新規,0,2025-04-07,2025-04-07,みやびソリューションズ株式会社,,株式会社,東京都,港区,六本木２丁目２番２号イトーピア六本木３０５号室,,13,103,1060032,,,,,,,2025-04-07,1,,,,,ミヤビソリューションズ,0
954,4010401189361,新規,0,2025-04-07,2025-04-07,株式会社ロールーム,,株式会社,東京都,港区,虎ノ門５丁目１１番２号オランダヒルズ森タワー１７階,,13,103,1050001,,,,,,,2025-04-07,1,,,,,ロールーム,0
955,4010401189378,新規,0,2025-04-07,2025-04-07,株式会社アンドホイッスル,,株式会社,東京都,港区,白金台４丁目１７番９号ＴＨＥＳＡＮＭＡＩＳＯＮ白金台１０１号室,,13,103,1080071,,,,,,,2025-04-07,1,,,,,アンドホイッスル,0
956,4010401189386,新規,0,2025-04-07,2025-04-07,株式会社ＮＳＳＫ‐Ｋ２,,株式会社,東京都,港区,愛宕２丁目５番１号愛宕グリーンヒルズＭＯＲＩタワー,,13,103,1050002,,,,,,,2025-04-07,1,,,,,エヌエスエスケーケーツー,0
958,4010403034771,新規,0,2025-04-07,2025-04-07,合同会社ヒジリザカ,,合同会社,東京都,港区,三田４丁目１１番２７号,,13,103,1080073,,,,,,,2025-04-07,1,,,,,ヒジリザカ,0
959,4010403034805,新規,0,2025-04-07,2025-04-07,ＦＯＲＴＵＮＥ合同会社,,合同会社,東京都,港区,芝浦４丁目２０番２‐２７０５号,,13,103,1080023,,,,,,,2025-04-07,1,,,,,フォーチュン,0
969,4010801035999,新規,0,2025-04-07,2025-04-07,株式会社アルファダイニング,,株式会社,東京都,大田区,田園調布２丁目４２番６号,,13,111,1450071,,,,,,,2025-04-07,1,,,,,アルファダイニング,0
977,4011001166767,新規,0,2025-04-07,2025-04-07,株式会社ＳＩＧＮＡＬ,,株式会社,東京都,渋谷区,渋谷２丁目１９－１５宮益坂ビルディング６０９,,13,113,1500002,,,,,,,2025-04-07,1,,,,,シグナル,0
978,4011001168680,新規,0,2025-04-07,2025-04-07,株式会社Ａｎｔｌｅｒｓ．Ｄｉｇｉｔａｌ,,株式会社,東京都,渋谷区,渋谷２丁目１９－１５宮益坂ビルディング６０９,,13,113,1500002,,,,,,,2025-04-07,1,,,,,アントラーズデジタル,0
979,4011001168846,新規,0,2025-04-07,2025-04-07,株式会社テラス,,株式会社,東京都,渋谷区,道玄坂１丁目１０番８号渋谷道玄坂東急ビル２Ｆ－Ｃ,,13,113,1500043,,,,,,,2025-04-07,1,,,,,テラス,0
980,4011001168854,新規,0,2025-04-07,2025-04-07,ｈ．ｓｔａｇｅ株式会社,,株式会社,東京都,渋谷区,円山町５番５号Ｎａｖｉ渋谷Ｖ３階,,13,113,1500044,,,,,,,2025-04-07,1,,,,,エイチステージ,0
981,4011001168870,新規,0,2025-04-07,2025-04-07,ＮＯＴ　Ａ　ＨＯＴＥＬ　ＣＯＮＳＵＬＴＩＮＧ株式会社,,株式会社,東京都,渋谷区,千駄ヶ谷３丁目１１番８号（ＴＯＳグループ内）,,13,113,1510051,,,,,,,2025-04-07,1,,,,,ノットアホテルコンサルティング,0
982,4011001169027,新規,0,2025-04-07,2025-04-07,株式会社Ｓｌｏｗ　Ｆｏｏｄ　Ｐｒｏｍｏｔｉｏｎ,,株式会社,東京都,目黒区,大橋２丁目１６－１２ハイフィールド池尻大橋３０２,,13,110,1530044,,,,,,,2025-04-07,1,,,,,スローフードプロモーション,0
983,4011003021301,新規,0,2025-04-07,2025-04-07,にじいろＦＰ事務所合同会社,,合同会社,東京都,渋谷区,恵比寿西２丁目４番８号ウィンド恵比寿ビル８Ｆ,,13,113,1500021,,,,,,,2025-04-07,1,,,,,ニジイロエフピージムショ,0
984,4011003021318,新規,0,2025-04-07,2025-04-07,合同会社Ｒａｍｅｎ　Ｂｅａｓｔ,,合同会社,東京都,目黒区,洗足２丁目２８－１７－２０１,,13,110,1520012,,,,,,,2025-04-07,1,,,,,ラーメンビースト,0
985,4011003021359,新規,0,2025-04-07,2025-04-07,合同会社ワイアール,,合同会社,東京都,渋谷区,渋谷２丁目１９番１５号宮益坂ビルディング６０９,,13,113,1500002,,,,,,,2025-04-07,1,,,,,ワイアール,0
986,4011003021383,新規,0,2025-04-07,2025-04-07,合同会社ＢＡＳＥ,,合同会社,東京都,渋谷区,恵比寿西２丁目８番４号ＥＸ恵比寿西ビル５階,,13,113,1500021,,,,,,,2025-04-07,1,,,,,ベイス,0
990,4011503006470,新規,0,2025-04-07,2025-04-07,合同会社みつばちの巣,,合同会社,東京都,荒川区,西日暮里２丁目２２番１号,,13,118,1160013,,,,,,,2025-04-07,1,,,,,ミツバチノス,0
991,4011603004655,新規,0,2025-04-07,2025-04-07,合同会社４Ｕ‐Ｓｕｐｐｏｒｔ,,合同会社,東京都,練馬区,高野台３丁目７－４,,13,120,1770033,,,,,,,2025-04-07,1,,,,,フォーユーサポート,0
992,4011701028226,新規,0,2025-04-07,2025-04-07,菅野重量株式会社,,株式会社,東京都,江戸川区,南葛西７丁目５番１５－１０２号レジデンスＳＵＧＡ、Ａ,,13,123,1340085,,,,,,,2025-04-07,1,,,,,カンノジュウリョウ,0
995,4011801045815,新規,0,2025-04-07,2025-04-07,株式会社齋藤,,株式会社,東京都,足立区,千住元町３９－１５,,13,121,1200041,,,,,,,2025-04-07,1,,,,,サイトウ,0
996,4011805003447,新規,0,2025-04-07,2025-04-07,一般社団法人介護事業者生産性向上協会,,その他の設立登記法人,東京都,足立区,竹の塚１丁目３３番１０号,,13,121,1210813,,,,,,,2025-04-07,1,,,,,カイゴジギョウシャセイサンセイコウジョウキョウカイ,0
997,4012301014319,新規,0,2025-04-07,2025-04-07,株式会社リンガポルタ,,株式会社,東京都,町田市,金森２丁目１２番５６号,,13,209,1940012,,,,,,,2025-04-07,1,,,,,リンガポルタ,0
999,4012403007039,新規,0,2025-04-07,2025-04-07,合同会社桜華,,合同会社,東京都,狛江市,元和泉２丁目２７－２５－１０２,,13,219,2010013,,,,,,,2025-04-07,1,,,,,オウカ,0
1002,4012801023868,新規,0,2025-04-07,2025-04-07,株式会社アネモネ,,株式会社,東京都,国分寺市,南町２丁目１７番１号ハタヤ第一ビル５Ｆ,,13,214,1850021,,,,,,,2025-04-07,1,,,,,アネモネ,0
1003,4012803003678,新規,0,2025-04-07,2025-04-07,合同会社Ｒｅｎ,,合同会社,東京都,国立市,富士見台４丁目９－６インペリアルコーポ１Ｆ,,13,215,1860003,,,,,,,2025-04-07,1,,,,,レン,0
1004,4012803003686,新規,0,2025-04-07,2025-04-07,合同会社ブレイクトレード,,合同会社,東京都,立川市,高松町１丁目２４－４１ロイヤルヒルズ３２２,,13,202,1900011,,,,,,,2025-04-07,1,,,,,,0
1015,4020001162148,新規,0,2025-04-07,2025-04-07,株式会社ｔｓｕｋｉｈｉ,,株式会社,神奈川県,横浜市青葉区,新石川３丁目１５番地３サンレクスたまプラーザ３Ｆ,,14,117,2250003,,,,,,,2025-04-07,1,,,,,ツキヒ,0
1016,4020001162172,新規,0,2025-04-07,2025-04-07,株式会社ユニポール,,株式会社,神奈川県,横浜市金沢区,能見台通３４番１０号能見台若葉ビル４階,,14,108,2360053,,,,,,,2025-04-07,1,,,,,ユニポール,0
1017,4020001162197,新規,0,2025-04-07,2025-04-07,株式会社ハモミライ,,株式会社,神奈川県,横浜市神奈川区,金港町５－１４クアドリフォリオ８階,,14,102,2210056,,,,,,,2025-04-07,1,,,,,ハモミライ,0
1018,4020001162296,新規,0,2025-04-07,2025-04-07,株式会社ファシリップ,,株式会社,神奈川県,川崎市川崎区,砂子２丁目８番１－１３０７号,,14,131,2100006,,,,,,,2025-04-07,1,,,,,ファシリップ,0
1020,4020005016779,新規,0,2025-04-07,2025-04-07,一般社団法人全日本学生バドミントン連盟,,その他の設立登記法人,神奈川県,横浜市青葉区,鴨志田町１２２１番地１日本体育大学バドミントン研究室内,,14,117,2270033,,,,,,,2025-04-07,1,,,,,ゼンニホンガクセイバドミントンレンメイ,0
1023,4021001084844,新規,0,2025-04-07,2025-04-07,株式会社日ノ本,,株式会社,神奈川県,鎌倉市,山ノ内１４４５番地,,14,204,2470062,,,,,,,2025-04-07,1,,,,,ヒノモト,0
1024,4021001084885,新規,0,2025-04-07,2025-04-07,株式会社ＮＫＣ,,株式会社,神奈川県,藤沢市,宮前４２１番地の１ラ・ルーチェ湘南３０６号室,,14,205,2510014,,,,,,,2025-04-07,1,,,,,,0
1025,4021001084893,新規,0,2025-04-07,2025-04-07,株式会社海嶺,,株式会社,神奈川県,小田原市,東町３丁目５番３１号,,14,206,2500003,,,,,,,2025-04-07,1,,,,,,0
1033,4030001165694,新規,0,2025-04-07,2025-04-07,和多志乃株式会社,,株式会社,埼玉県,越谷市,千間台西１丁目１２番地１ダイアパレスルネッサせんげん台２１５号,,11,222,3430041,,,,,,,2025-04-07,1,,,,,ワタシノ,0
1034,4030001165736,新規,0,2025-04-07,2025-04-07,株式会社フォーステア,,株式会社,埼玉県,川口市,前川３丁目１６番１７号,,11,203,3330842,,,,,,,2025-04-07,1,,,,,フォーステア,0
1035,4030001165752,新規,0,2025-04-07,2025-04-07,株式会社ＴＡＮＯホールディングス,,株式会社,埼玉県,北足立郡伊奈町,大字小室７０８０番地,,11,301,3620806,,,,,,,2025-04-07,1,,,,,,0
1036,4030001165760,新規,0,2025-04-07,2025-04-07,株式会社ｔｒｕｔｈ　ｏｎｅ,,株式会社,埼玉県,所沢市,大字牛沼４３５番地の３,,11,208,3590026,,,,,,,2025-04-07,1,,,,,トゥルースワン,0
1037,4030001165769,新規,0,2025-04-07,2025-04-07,株式会社Ｖ‐ＳＵＰＰＯＲＴ,,株式会社,埼玉県,さいたま市北区,日進町２丁目１９１６番地１１－６０５,,11,102,3310823,,,,,,,2025-04-07,1,,,,,ブイサポート,0
1038,4030001165785,新規,0,2025-04-07,2025-04-07,株式会社アピールポイント,,株式会社,埼玉県,本庄市,児玉町児玉２２５１番地１,,11,211,3670212,,,,,,,2025-04-07,1,,,,,アピールポイント,0
1039,4030001165835,新規,0,2025-04-07,2025-04-07,株式会社ＺＵＴＴＯ,,株式会社,埼玉県,上尾市,大字南９０番地１,,11,219,3620002,,,,,,,2025-04-07,1,,,,,ズット,0
1045,4030003026465,新規,0,2025-04-07,2025-04-07,ＴＲ　Ｊａｐａｎ　Ｌｅａｄ合同会社,,合同会社,埼玉県,戸田市,上戸田２丁目３番８号,,11,224,3350022,,,,,,,2025-04-07,1,,,,,ティーアールジャパンリード,0
1046,4030003026473,新規,0,2025-04-07,2025-04-07,ＳＶ　ＢＥＳＳ　ＯＮＥ合同会社,,合同会社,埼玉県,さいたま市大宮区,吉敷町１丁目１３５番地Ａｒａｉビル８階,,11,103,3300843,,,,,,,2025-04-07,1,,,,,エスブイベスワン,0
1047,4030003026481,新規,0,2025-04-07,2025-04-07,合同会社ライフプラン研究会,,合同会社,埼玉県,さいたま市中央区,八王子５丁目１１番１０－３号,,11,105,3380006,,,,,,,2025-04-07,1,,,,,ライフプランケンキュウカイ,0
1052,4040001138047,新規,0,2025-04-07,2025-04-07,翠林商事株式会社,,株式会社,千葉県,千葉市緑区,あすみが丘６丁目１２－１１,,12,105,2670066,,,,,,,2025-04-07,1,,,,,スイリンショウジ,0
1053,4040001138088,新規,0,2025-04-07,2025-04-07,株式会社ｆｏｒ　Ｄｅａｒ,,株式会社,千葉県,柏市,小青田５丁目７番地デュオヒルズ・ザ・グラン１０１号,,12,217,2770803,,,,,,,2025-04-07,1,,,,,フォーディアー,0
1054,4040001138204,新規,0,2025-04-07,2025-04-07,株式会社Ａｓｓｉｓｔｌｙ,,株式会社,千葉県,香取市,府馬４８５８番地,,12,236,2890411,,,,,,,2025-04-07,1,,,,,アシストリー,0
1055,4040001138220,新規,0,2025-04-07,2025-04-07,株式会社レイエス,,株式会社,千葉県,館山市,八幡２６２番地カワチ薬品館山店内,,12,205,2940047,,,,,,,2025-04-07,1,,,,,レイエス,0
1061,4040003027289,新規,0,2025-04-07,2025-04-07,合同会社ＮＲガレージ,,合同会社,千葉県,八千代市,八千代台北９丁目８番３号,,12,221,2760031,,,,,,,2025-04-07,1,,,,,エヌアールガレージ,0
1067,4060001038071,新規,0,2025-04-07,2025-04-07,芳賀電工株式会社,,株式会社,栃木県,芳賀郡芳賀町,大字祖母井９９６メゾン・ド・カネス２－１０１号,,09,345,3213304,,,,,,,2025-04-07,1,,,,,ハガデンコウ,0
1069,4070001042774,新規,0,2025-04-07,2025-04-07,株式会社はせがわ,,株式会社,群馬県,沼田市,戸鹿野町２３１番地１,,10,206,3780015,,,,,,,2025-04-07,1,,,,,ハセガワ,0
1070,4070001042799,新規,0,2025-04-07,2025-04-07,株式会社上慈,,株式会社,群馬県,太田市,東新町２０９番地２,,10,205,3730015,,,,,,,2025-04-07,1,,,,,ジョウジ,0
1074,4080101025422,新規,0,2025-04-07,2025-04-07,株式会社Ｃａｒｅ,,株式会社,静岡県,御殿場市,印野１７９１番地の４,,22,215,4120008,,,,,,,2025-04-07,1,,,,,,0
1077,4100001038463,新規,0,2025-04-07,2025-04-07,株式会社エスプローグ,,株式会社,長野県,塩尻市,大字広丘吉田５０９番地２３,,20,215,3990701,,,,,,,2025-04-07,1,,,,,エスプローグ,0
1079,4100003008068,新規,0,2025-04-07,2025-04-07,合同会社美登利屋,,合同会社,長野県,長野市,青木島町大塚１４９５番地２,,20,201,3812205,,,,,,,2025-04-07,1,,,,,ミドリヤ,0
1080,4100005013322,新規,0,2025-04-07,2025-04-07,一般社団法人信州みんなのくらし研究所,,その他の設立登記法人,長野県,長野市,大字南長野県町４８４番地１センターボア２０６,,20,201,3800838,,,,,,,2025-04-07,1,,,,,シンシュウミンナノクラシケンキュウジョ,0
1092,4120001274148,新規,0,2025-04-07,2025-04-07,坤桂商事株式会社,,株式会社,大阪府,大阪市中央区,東心斎橋２丁目１－７ミフネ東心斎橋ビル１０Ｆ,,27,128,5420083,,,,,,,2025-04-07,1,,,,,コンケイショウジ,0
1093,4120001274164,新規,0,2025-04-07,2025-04-07,金石株式会社,,株式会社,大阪府,大阪市東淀川区,東中島４丁目１番１１－６０２号,,27,114,5330033,,,,,,,2025-04-07,1,,,,,キンセキ,0
1094,4120001274230,新規,0,2025-04-07,2025-04-07,株式会社エヌ・ドゥー,,株式会社,大阪府,大阪市西区,北堀江２丁目９番２０－１０１号,,27,106,5500014,,,,,,,2025-04-07,1,,,,,エヌドゥー,0
1095,4120001274239,新規,0,2025-04-07,2025-04-07,朴藤商事株式会社,,株式会社,大阪府,大阪市東淀川区,瑞光４丁目２番２１－４０６号,,27,114,5330005,,,,,,,2025-04-07,1,,,,,ボクトウショウジ,0
1096,4120001274247,新規,0,2025-04-07,2025-04-07,日本西域智慧供應鏈株式会社,,株式会社,大阪府,大阪市生野区,新今里５丁目１５－１７ブランシュＩＩ６Ｂ号,00138610,27,116,5440001,,,,,,,2025-04-07,1,,,,,ニホンセイイキチエキョウヨウレン,0
1097,4120001274610,新規,0,2025-04-07,2025-04-07,ＡＩトラスト株式会社,,株式会社,大阪府,大阪市中央区,本町橋２番２３号,,27,128,5400029,,,,,,,2025-04-07,1,,,,,エーアイトラスト,0
1106,4120101071370,新規,0,2025-04-07,2025-04-07,ＰＵＤＩ株式会社,,株式会社,大阪府,堺市西区,浜寺南町２丁１１６番地１９－１階,,27,144,5928344,,,,,,,2025-04-07,1,,,,,プディ,0
1107,4120101071387,新規,0,2025-04-07,2025-04-07,読売レナトス株式会社,,株式会社,大阪府,泉南郡熊取町,大久保中１丁目１番２号,,27,361,5900403,,,,,,,2025-04-07,1,,,,,ヨミウリレナトス,0
1108,4120101071395,新規,0,2025-04-07,2025-04-07,株式会社ダイキョウインターナショナルコネクト,,株式会社,大阪府,松原市,田井城６丁目２９７番４,,27,217,5800044,,,,,,,2025-04-07,1,,,,,ダイキョウインターナショナルコネクト,0
1109,4120103006374,新規,0,2025-04-07,2025-04-07,冰城王宇合同会社,,合同会社,大阪府,岸和田市,天神山町２丁目９番６号１０６号室,,27,202,5960834,,,,,,,2025-04-07,1,,,,,ヒョウジョウオウウ,0
1110,4120103006382,新規,0,2025-04-07,2025-04-07,Ｓｏｌｖｅｅ合同会社,,合同会社,大阪府,堺市東区,高松４０１番地２,,27,143,5998121,,,,,,,2025-04-07,1,,,,,ソルヴェ,0
1115,4120901050680,新規,0,2025-04-07,2025-04-07,Ｐｈｏｔｏ　ｉｍａｇｉｎｇ株式会社,,株式会社,大阪府,豊中市,東泉丘４丁目５番５０－６２７号,,27,203,5610861,,,,,,,2025-04-07,1,,,,,フォトイメージング,0
1116,4120901050697,新規,0,2025-04-07,2025-04-07,株式会社エフナインリレイト,,株式会社,大阪府,摂津市,鳥飼西５丁目５２７－１１,,27,224,5660072,,,,,,,2025-04-07,1,,,,,エフナインリレイト,0
1128,4130005017329,新規,0,2025-04-07,2025-04-07,一般社団法人いきいきライフ協会宇治久御山,,その他の設立登記法人,京都府,久世郡久御山町,佐山双置６９番地４６,,26,322,6130034,,,,,,,2025-04-07,1,,,,,イキイキライフキョウカイウジクミヤマ,0
1134,4140001138061,新規,0,2025-04-07,2025-04-07,株式会社前川商会,,株式会社,兵庫県,西宮市,東鳴尾町１丁目５番１－２号,,28,204,6638132,,,,,,,2025-04-07,1,,,,,マエカワショウカイ,0
1139,4140003021892,新規,0,2025-04-07,2025-04-07,合同会社ＦＯＲＥＳＴ,,合同会社,兵庫県,明石市,魚住町清水２３４６番地の２,,28,203,6740074,,,,,,,2025-04-07,1,,,,,フォレスト,0
1144,4150005009679,新規,0,2025-04-07,2025-04-07,弁護士法人川崎法律事務所,00138599,その他の設立登記法人,奈良県,奈良市,花芝町９番地の２川崎ビル,00138600,29,201,6308266,,,,,,,2025-04-07,1,,,,,カワサキホウリツジムショ,0
1147,4160001026644,新規,0,2025-04-07,2025-04-07,株式会社照組,,株式会社,滋賀県,長浜市,泉町１７０番地,,25,203,5260003,,,,,,,2025-04-07,1,,,,,ショウグミ,0
1148,4160001026652,新規,0,2025-04-07,2025-04-07,株式会社ＤＣＴＴＡＳＴ,,株式会社,滋賀県,東近江市,建部日吉町３４８番地２０,,25,213,5270006,,,,,,,2025-04-07,1,,,,,ディーシーティータスト,0
1150,4170001018558,新規,0,2025-04-07,2025-04-07,Ｕｐｒｏ株式会社,,株式会社,和歌山県,御坊市,湯川町小松原５７０番地,,30,205,6440012,,,,,,,2025-04-07,1,,,,,ウプロ,0
1155,4180001166158,新規,0,2025-04-07,2025-04-07,株式会社プライベートバンクカレッジ,,株式会社,愛知県,名古屋市中村区,太閤５丁目８番２０号,,23,105,4530801,,,,,,,2025-04-07,1,,,,,プライベートバンクカレッジ,0
1156,4180001166166,新規,0,2025-04-07,2025-04-07,株式会社矢田モータース,,株式会社,愛知県,尾張旭市,大塚町２丁目１１番地５,,23,226,4880826,,,,,,,2025-04-07,1,,,,,ヤダモータース,0
1157,4180001166182,新規,0,2025-04-07,2025-04-07,株式会社アーススタジオ,,株式会社,愛知県,西春日井郡豊山町,大字豊場字八反１０７番地,,23,342,4800202,,,,,,,2025-04-07,1,,,,,アーススタジオ,0
1158,4180001166224,新規,0,2025-04-07,2025-04-07,株式会社総合社会環境調査,,株式会社,愛知県,名古屋市中区,錦１丁目６番３６号,,23,106,4600003,,,,,,,2025-04-07,1,,,,,ソウゴウシャカイカンキョウチョウサ,0
1159,4180001166265,新規,0,2025-04-07,2025-04-07,八十八株式会社,,株式会社,愛知県,名古屋市中村区,名駅４丁目２４番１６号広小路ガーデンアベニュー３階,,23,105,4500002,,,,,,,2025-04-07,1,,,,,ハトヤ,0
1160,4180001166281,新規,0,2025-04-07,2025-04-07,クロスノット株式会社,,株式会社,愛知県,名古屋市中村区,名駅１丁目１番１号ＪＰタワー名古屋２１階,,23,105,4500002,,,,,,,2025-04-07,1,,,,,クロスノット,0
1164,4180301039674,新規,0,2025-04-07,2025-04-07,ＨＡＫＵＳＯＨ　ＦＲＯＮＴＩＥＲ株式会社,,株式会社,愛知県,豊川市,牛久保町常盤７１番地,,23,207,4420826,,,,,,,2025-04-07,1,,,,,ハクソウフロンティア,0
1165,4180301039682,新規,0,2025-04-07,2025-04-07,株式会社未来ネットワークス,,株式会社,愛知県,豊橋市,新栄町字南小向６９番地の１,,23,201,4418016,,,,,,,2025-04-07,1,,,,,ミライネットワークス,0
1167,4180303006516,新規,0,2025-04-07,2025-04-07,合同会社太田工学,,合同会社,愛知県,豊川市,伊奈町正庵８９番地２６０,,23,207,4410105,,,,,,,2025-04-07,1,,,,,オオタコウガク,0
1170,4190001032128,新規,0,2025-04-07,2025-04-07,フリーウォーキング株式会社,,株式会社,三重県,四日市市,蒔田２丁目１番３２号ビクトリーハイツ２０２,,24,202,5108022,,,,,,,2025-04-07,1,,,,,フリーウォーキング,0
1171,4190001032136,新規,0,2025-04-07,2025-04-07,株式会社倭グロワーズ,,株式会社,三重県,津市,白山町佐田２９２４番地,,24,201,5152621,,,,,,,2025-04-07,1,,,,,ヤマトグロワーズ,0
1174,4190005012035,新規,0,2025-04-07,2025-04-07,一般社団法人ｅ‐ケアネットよっかいち,,その他の設立登記法人,三重県,四日市市,小林町３０１８番地２７１,,24,202,5100946,,,,,,,2025-04-07,1,,,,,イーケアネットヨッカイチ,0
1175,4200001043585,新規,0,2025-04-07,2025-04-07,株式会社ユニコーン,,株式会社,岐阜県,多治見市,脇之島町５丁目３８番地の７,,21,204,5070826,,,,,,,2025-04-07,1,,,,,ユニコーン,0
1176,4200001043593,新規,0,2025-04-07,2025-04-07,株式会社克己ＳＫＹクリーン,,株式会社,岐阜県,飛騨市,古川町金森町５番１９号,,21,217,5094225,,,,,,,2025-04-07,1,,,,,カツミエスケイワイ,0
1180,4220001026596,新規,0,2025-04-07,2025-04-07,アキュテックエンジニアリング株式会社,,株式会社,石川県,金沢市,玉鉾４丁目７３番地,,17,201,9218002,,,,,,,2025-04-07,1,,,,,アキュテックエンジニアリング,0
1191,4250001021066,新規,0,2025-04-07,2025-04-07,株式会社志,,株式会社,山口県,山口市,吉敷下東２丁目２番３－２０２号,,35,203,7530814,,,,,,,2025-04-07,1,,,,,ココロザシ,0
1198,4270003001733,新規,0,2025-04-07,2025-04-07,Ｇ合同会社,,合同会社,鳥取県,岩美郡岩美町,大字浦富１０４１番地７,,31,302,6810003,,,,,,,2025-04-07,1,,,,,ジー,0
1199,4290001109527,新規,0,2025-04-07,2025-04-07,ＯＹＡＳＡＩ株式会社,,株式会社,福岡県,福岡市中央区,大名２丁目６－１１,,40,133,8100041,,,,,,,2025-04-07,1,,,,,オヤサイ,0
1200,4290003016630,新規,0,2025-04-07,2025-04-07,合同会社花香,,合同会社,福岡県,飯塚市,綱分１５９５番地１,,40,205,8200101,,,,,,,2025-04-07,1,,,,,ハナカ,0
1208,4290801031434,新規,0,2025-04-07,2025-04-07,株式会社ＶａｎｃｅＭｅ,,株式会社,福岡県,北九州市八幡西区,幸神２丁目９番２－４０１号,,40,109,8060055,,,,,,,2025-04-07,1,,,,,ヴァンスミー,0
1209,4300001014130,新規,0,2025-04-07,2025-04-07,株式会社加藤建築,,株式会社,佐賀県,東松浦郡玄海町,大字長倉１５５６番地,,41,387,8471404,,,,,,,2025-04-07,1,,,,,カトウケンチク,0
1210,4320001021034,新規,0,2025-04-07,2025-04-07,株式会社ブルーワークス,,株式会社,大分県,大分市,長浜町２丁目９番１１号,,44,201,8700023,,,,,,,2025-04-07,1,,,,,ブルーワークス,0
1211,4320003004623,新規,0,2025-04-07,2025-04-07,合同会社いけだ屋,,合同会社,大分県,由布市,湯布院町川北６４４番地３,,44,213,8795114,,,,,,,2025-04-07,1,,,,,イケダヤ,0
1213,4330001033061,新規,0,2025-04-07,2025-04-07,株式会社Ｌａ　ｖｉｅ,,株式会社,熊本県,熊本市東区,八反田１丁目３番８７号,,43,102,8618034,,,,,,,2025-04-07,1,,,,,ラヴィ,0
1216,4330003010918,新規,0,2025-04-07,2025-04-07,合同会社ｅＳｐｏｒｔｓ,,合同会社,熊本県,熊本市中央区,新市街７番２０号ＶＩＬＥＲＡ辛島９０４,,43,101,8600803,,,,,,,2025-04-07,1,,,,,イースポーツ,0
1217,4340001027252,新規,0,2025-04-07,2025-04-07,株式会社原田,,株式会社,鹿児島県,出水市,荘８８６番地１,,46,208,8990435,,,,,,,2025-04-07,1,,,,,ハラダ,0
1227,4360003014817,新規,0,2025-04-07,2025-04-07,合同会社オスカー,,合同会社,沖縄県,南城市,玉城字前川１３２８番地１オアシスがんがらー２０３,,47,215,9010616,,,,,,,2025-04-07,1,,,,,オスカー,0
1231,4370001052438,新規,0,2025-04-07,2025-04-07,株式会社アイオー建設,,株式会社,宮城県,仙台市宮城野区,出花１丁目１３４番地の１アスコット出花５０３,,04,102,9830012,,,,,,,2025-04-07,1,,,,,アイオーケンセツ,0
1232,4380001035202,新規,0,2025-04-07,2025-04-07,株式会社光,,株式会社,福島県,須賀川市,季の郷２９１番地,,07,207,9620405,,,,,,,2025-04-07,1,,,,,ヒカリ,0
1233,4380001035210,新規,0,2025-04-07,2025-04-07,株式会社ＦＲＭ,,株式会社,福島県,会津若松市,北会津町中荒井２番地,,07,202,9650131,,,,,,,2025-04-07,1,,,,,エフアールエム,0
1234,4380003006011,新規,0,2025-04-07,2025-04-07,合同会社真,,合同会社,福島県,いわき市,泉滝尻１丁目３番地の３,,07,204,9718189,,,,,,,2025-04-07,1,,,,,シン,0
1236,4390001017950,新規,0,2025-04-07,2025-04-07,ＨＭテクノシステム株式会社,,株式会社,山形県,酒田市,高見台２丁目３番地１９号,,06,204,9980051,,,,,,,2025-04-07,1,,,,,エイチエムテクノシステム,0
1238,4430001094085,新規,0,2025-04-07,2025-04-07,株式会社ＹＲ,,株式会社,北海道,札幌市中央区,南四条西３丁目３番地１第２Ｇビル７階,,01,101,0640804,,,,,,,2025-04-07,1,,,,,ワイアール,0
1241,4460001005989,新規,0,2025-04-07,2025-04-07,阿部電気株式会社,,株式会社,北海道,川上郡標茶町,桜１２丁目４番地,,01,664,0882303,,,,,,,2025-04-07,1,,,,,アベデンキ,0
1242,4460101007695,新規,0,2025-04-07,2025-04-07,株式会社ＢｕＦＦ,,株式会社,北海道,帯広市,西十条南９丁目２０番地２Ｆｏｒｅｓｔ１０９,,01,207,0800020,,,,,,,2025-04-07,1,,,,,ブーフ,0
1252,5010001253533,新規,0,2025-04-07,2025-04-07,株式会社ＴｈｒｅｅＧｅａｒｓ,,株式会社,東京都,千代田区,神田須田町１丁目７番８号ＶＯＲＴ秋葉原ＶＩ２Ｆ,00138603,13,101,1010041,,,,,,,2025-04-07,1,,,,,スリーギアーズ,0
1253,5010001253772,新規,0,2025-04-07,2025-04-07,ＦＯＸｅｅｙ　Ｃｏｎｓｕｌｔｉｎｇ株式会社,,株式会社,東京都,千代田区,丸の内３丁目２－２丸の内二重橋ビル２階,,13,101,1000005,,,,,,,2025-04-07,1,,,,,フォクシーコンサルティング,0
1254,5010001253839,新規,0,2025-04-07,2025-04-07,株式会社ＨｕｍｍｉｎｇＷａｙ,,株式会社,東京都,中央区,銀座１丁目１２番４号Ｎ＆ＥＢＬＤ．６Ｆ,,13,102,1040061,,,,,,,2025-04-07,1,,,,,ハミングウェイ,0
1255,5010001253888,新規,0,2025-04-07,2025-04-07,株式会社タミコ熊本,,株式会社,東京都,千代田区,富士見１丁目７番８号第５日東ビル３０１号,,13,101,1020071,,,,,,,2025-04-07,1,,,,,タミコクマモト,0
1256,5010001253913,新規,0,2025-04-07,2025-04-07,山佐産業ＬＨ３リース株式会社,,株式会社,東京都,千代田区,丸の内１丁目４番１号東京共同会計事務所内,,13,101,1000005,,,,,,,2025-04-07,1,,,,,ヤマササンギョウエルエイチスリーリース,0
1259,5010003046968,新規,0,2025-04-07,2025-04-07,合同会社物語工房,,合同会社,東京都,中央区,銀座１丁目２２番１１号銀座大竹ビジデンス２Ｆ,,13,102,1040061,,,,,,,2025-04-07,1,,,,,モノガタリコウボウ,0
1260,5010003047000,新規,0,2025-04-07,2025-04-07,ＩＴ未来研究所合同会社,,合同会社,東京都,千代田区,富士見２丁目１０番３,,13,101,1020071,,,,,,,2025-04-07,1,,,,,アイティーミライケンキュウジョ,0
1265,5010401189286,新規,0,2025-04-07,2025-04-07,株式会社Ｃｈａｎｍｉ,,株式会社,東京都,港区,南青山５丁目１６番５号,,13,103,1070062,,,,,,,2025-04-07,1,,,,,チャンミ,0
1266,5010401189311,新規,0,2025-04-07,2025-04-07,プライベートサウナ株式会社,,株式会社,東京都,港区,北青山１丁目３番１号アールキューブ青山３Ｆ,,13,103,1070061,,,,,,,2025-04-07,1,,,,,プライベートサウナ,0
1267,5010401189328,新規,0,2025-04-07,2025-04-07,株式会社Ｐｌａｎ　Ｓ,,株式会社,東京都,港区,南青山３丁目１番３６号青山丸竹ビル６Ｆ,,13,103,1070062,,,,,,,2025-04-07,1,,,,,プランエス,0
1268,5010401189336,新規,0,2025-04-07,2025-04-07,エムエル・ＩＴＡＤソリューション株式会社,,株式会社,東京都,港区,虎ノ門１丁目２番６号,,13,103,1050001,,,,,,,2025-04-07,1,,,,,エムエルアイタッドソリューション,0
1269,5010401189385,新規,0,2025-04-07,2025-04-07,株式会社ＮＳＳＫ‐Ｋ１,,株式会社,東京都,港区,愛宕２丁目５番１号愛宕グリーンヒルズＭＯＲＩタワー,,13,103,1050002,,,,,,,2025-04-07,1,,,,,エヌエスエスケーケーワン,0
1270,5010401189484,新規,0,2025-04-07,2025-04-07,株式会社Ｅ＆Ｊ,,株式会社,東京都,港区,西麻布４丁目５番１０－１３０３号,,13,103,1060031,,,,,,,2025-04-07,1,,,,,イーアンドジェイ,0
1271,5010403034762,新規,0,2025-04-07,2025-04-07,合同会社ｉｒｏ,,合同会社,東京都,港区,南青山２丁目２番１５号,,13,103,1070062,,,,,,,2025-04-07,1,,,,,イロ,0
1276,5010501053887,新規,0,2025-04-07,2025-04-07,株式会社大元クリエイティブジャパン,,株式会社,東京都,台東区,柳橋２丁目２番３号西田ビル４Ｆ,,13,106,1110052,,,,,,,2025-04-07,1,,,,,ダイゲンクリエイティブジャパン,0
1277,5010601067060,新規,0,2025-04-07,2025-04-07,株式会社Ｇｌｉｎｔ　Ｗｏｒｋｓ,,株式会社,東京都,江東区,富岡２丁目１１番１８号４階,,13,108,1350047,,,,,,,2025-04-07,1,,,,,グリントワークス,0
1283,5010801036014,新規,0,2025-04-07,2025-04-07,株式会社ニッケンホールディングス,,株式会社,東京都,大田区,大森北１丁目２２番２号,,13,111,1430016,,,,,,,2025-04-07,1,,,,,ニッケンホールディングス,0
1284,5010803005339,新規,0,2025-04-07,2025-04-07,合同会社カンカン,,合同会社,東京都,大田区,南馬込１丁目２番１２－１０２号,,13,111,1430025,,,,,,,2025-04-07,1,,,,,カンカン,0
1285,5010901057125,新規,0,2025-04-07,2025-04-07,ｎｕｒｏ　ｓｔｕｄｉｏ株式会社,,株式会社,東京都,世田谷区,中町３丁目１５番１０号,,13,112,1580091,,,,,,,2025-04-07,1,,,,,ニューロスタジオ,0
1286,5010901057133,新規,0,2025-04-07,2025-04-07,パーソナルウェイ株式会社,,株式会社,東京都,世田谷区,松原３丁目３４－８ＡＳＴＲＥ下高井戸１０２,,13,112,1560043,,,,,,,2025-04-07,1,,,,,パーソナルウェイ,0
1288,5011001168738,新規,0,2025-04-07,2025-04-07,株式会社ｇｒｏｏｍ　ｐｌｕｓ,,株式会社,東京都,渋谷区,恵比寿西１丁目２番１号エビスマンション７０５,,13,113,1500021,,,,,,,2025-04-07,1,,,,,グルームプラス,0
1289,5011001168762,新規,0,2025-04-07,2025-04-07,株式会社ＭＯＶ,,株式会社,東京都,渋谷区,代々木２丁目２番１号,,13,113,1510053,,,,,,,2025-04-07,1,,,,,モブ,0
1290,5011001168795,新規,0,2025-04-07,2025-04-07,株式会社馬匠,,株式会社,東京都,渋谷区,富ヶ谷２丁目２番５号ネオーバビル５０５,,13,113,1510063,,,,,,,2025-04-07,1,,,,,バショウ,0
1291,5011001168829,新規,0,2025-04-07,2025-04-07,東日株式会社,,株式会社,東京都,渋谷区,神宮前６丁目５番１号,,13,113,1500001,,,,,,,2025-04-07,1,,,,,トウヒ,0
1292,5011001168960,新規,0,2025-04-07,2025-04-07,プリズムメディア株式会社,,株式会社,東京都,目黒区,上目黒４丁目２番１０号,,13,110,1530051,,,,,,,2025-04-07,1,,,,,プリズムメディア,0
1293,5011003021317,新規,0,2025-04-07,2025-04-07,合同会社海の底,,合同会社,東京都,渋谷区,道玄坂１丁目１０番８号渋谷道玄坂東急ビル２Ｆ－Ｃ,,13,113,1500043,,,,,,,2025-04-07,1,,,,,ウミノソコ,0
1294,5011003021333,新規,0,2025-04-07,2025-04-07,合同会社Ｕｐａｌｕｐａ　Ｅｎｔｅｒｔａｉｎｍｅｎｔ,,合同会社,東京都,渋谷区,恵比寿西２丁目８番４号ＥＸ恵比寿西ビル５Ｆ,,13,113,1500021,,,,,,,2025-04-07,1,,,,,ウパルパエンタテイメント,0
1295,5011003021358,新規,0,2025-04-07,2025-04-07,ＣａｔＣａｒｅｅｒ合同会社,,合同会社,東京都,渋谷区,神南１丁目１１－４ＦＰＧリンクス神南５階,,13,113,1500041,,,,,,,2025-04-07,1,,,,,キャットキャリア,0
1298,5011101111259,新規,0,2025-04-07,2025-04-07,アズリリス株式会社,,株式会社,東京都,新宿区,西新宿１丁目２０－３,,13,104,1600023,,,,,,,2025-04-07,1,,,,,アズリリス,0
1299,5011101111291,新規,0,2025-04-07,2025-04-07,株式会社Ｌｙｎｓｔａｒ,,株式会社,東京都,新宿区,西新宿３丁目３番１３号西新宿水間ビル６階,,13,104,1600023,,,,,,,2025-04-07,1,,,,,リンスター,0
1302,5011401026966,新規,0,2025-04-07,2025-04-07,株式会社ベジサービス,,株式会社,東京都,板橋区,高島平５丁目５３番９号,,13,119,1750082,,,,,,,2025-04-07,1,,,,,ベジサービス,0
1303,5011401026982,新規,0,2025-04-07,2025-04-07,株式会社ＩＮＦＯＲＭＡ,,株式会社,東京都,板橋区,加賀２丁目３番１号,,13,119,1730003,,,,,,,2025-04-07,1,,,,,インフォーマー,0
1307,5011601028556,新規,0,2025-04-07,2025-04-07,株式会社クレアート,,株式会社,東京都,練馬区,東大泉２丁目６番７号,,13,120,1780063,,,,,,,2025-04-07,1,,,,,クレアート,0
1318,5012401042937,新規,0,2025-04-07,2025-04-07,株式会社メドロジー,,株式会社,東京都,武蔵野市,吉祥寺南町２丁目２番４号ＲＮビル２階,,13,203,1800003,,,,,,,2025-04-07,1,,,,,メドロジー,0
1319,5012401042953,新規,0,2025-04-07,2025-04-07,株式会社幸風,,株式会社,東京都,武蔵野市,桜堤２丁目８番８－Ｅ９０３号パークシティ武蔵野桜堤,,13,203,1800021,,,,,,,2025-04-07,1,,,,,サチカゼ,0
1321,5012403007046,新規,0,2025-04-07,2025-04-07,あねら合同会社,,合同会社,東京都,武蔵野市,吉祥寺本町１丁目２０－１吉祥寺永谷シティプラザ１００２,,13,203,1800004,,,,,,,2025-04-07,1,,,,,アネラ,0
1322,5012701018785,新規,0,2025-04-07,2025-04-07,株式会社ＵＮｉＴＥ　ＢＡＳＥ,,株式会社,東京都,東村山市,栄町２丁目３２番地８,,13,213,1890013,,,,,,,2025-04-07,1,,,,,ユナイトベース,0
1323,5012801023867,新規,0,2025-04-07,2025-04-07,株式会社アークアンドファクト,,株式会社,東京都,日野市,栄町１丁目２０番地の５フェステ１４０－２０２,,13,212,1910001,,,,,,,2025-04-07,1,,,,,アークアンドファクト,0
1325,5012803003685,新規,0,2025-04-07,2025-04-07,合同会社幸せ王国,,合同会社,東京都,東大和市,南街１丁目１１番地の２２,,13,220,2070014,,,,,,,2025-04-07,1,,,,,シアワセオウコク,0
1341,5020001162171,新規,0,2025-04-07,2025-04-07,荏原実業テクノロジーズ株式会社,,株式会社,神奈川県,川崎市麻生区,栗木２丁目３番１２号,,14,137,2150033,,,,,,,2025-04-07,1,,,,,エバラジツギョウテクノロジーズ,0
1342,5020001162196,新規,0,2025-04-07,2025-04-07,株式会社ゴールデンクロス,,株式会社,神奈川県,横浜市中区,妙香寺台２３番地３,,14,104,2310841,,,,,,,2025-04-07,1,,,,,ゴールデンクロス,0
1343,5020001162221,新規,0,2025-04-07,2025-04-07,株式会社ｃｏｔｏｎａｇｉ,,株式会社,神奈川県,横浜市神奈川区,金港町５－１４クアドリフォリオ８階,,14,102,2210056,,,,,,,2025-04-07,1,,,,,コトナギ,0
1344,5020001162295,新規,0,2025-04-07,2025-04-07,ハッピープレイス株式会社,,株式会社,神奈川県,横浜市戸塚区,品濃町５２４番地１４,,14,110,2440801,,,,,,,2025-04-07,1,,,,,ハッピープレイス,0
1346,5020003028230,新規,0,2025-04-07,2025-04-07,合同会社Ｌｉｎｏ,,合同会社,神奈川県,川崎市多摩区,登戸新町１８番地１三桝屋ビル１０１,,14,135,2140013,,,,,,,2025-04-07,1,,,,,リノ,0
1349,5021001084892,新規,0,2025-04-07,2025-04-07,ＺＥＭＯ株式会社,,株式会社,神奈川県,横須賀市,桜が丘１丁目１８番７号,,14,201,2390803,,,,,,,2025-04-07,1,,,,,ゼモ,0
1357,5030001165685,新規,0,2025-04-07,2025-04-07,株式会社ＰｉｉＳ　Ｓｔｅｐ,,株式会社,埼玉県,さいたま市北区,大字土呂一丁目１７番地５、１Ｆ－Ａ,,11,102,3310800,,,,,,,2025-04-07,1,,,,,ピースステップ,0
1358,5030001165693,新規,0,2025-04-07,2025-04-07,東部ホールディングス株式会社,,株式会社,埼玉県,八潮市,大字浮塚４１８番地６,,11,234,3400835,,,,,,,2025-04-07,1,,,,,トウブホールディングス,0
1359,5030001165710,新規,0,2025-04-07,2025-04-07,株式会社会田自動車整備工場,,株式会社,埼玉県,北葛飾郡杉戸町,大字佐左ヱ門１６５６番地,,11,464,3450033,,,,,,,2025-04-07,1,,,,,アイダジドウシャセイビコウジョウ,0
1360,5030001165768,新規,0,2025-04-07,2025-04-07,ＡＬＩＣＥ・ＤＯ株式会社,,株式会社,埼玉県,飯能市,新町１２番５号,,11,209,3570004,,,,,,,2025-04-07,1,,,,,アリスドゥー,0
1361,5030001165776,新規,0,2025-04-07,2025-04-07,株式会社ＫＯＳＨＩＮ,,株式会社,埼玉県,草加市,柳島町５１３番地７,,11,221,3400033,,,,,,,2025-04-07,1,,,,,コーシン,0
1362,5030001165784,新規,0,2025-04-07,2025-04-07,富士ｅ聯株式会社,,株式会社,埼玉県,入間市,大字下藤沢５６９－１９セービル鈴木３０４,,11,225,3580011,,,,,,,2025-04-07,1,,,,,フジイレン,0
1363,5030001165801,新規,0,2025-04-07,2025-04-07,株式会社片付け屋,,株式会社,埼玉県,三郷市,中央２丁目２４番１,,11,237,3410038,,,,,,,2025-04-07,1,,,,,カタズケヤ,0
1366,5030003026472,新規,0,2025-04-07,2025-04-07,合同会社興建企画,,合同会社,埼玉県,新座市,新堀２丁目１２番２１－６０８号,,11,230,3520032,,,,,,,2025-04-07,1,,,,,コウケンキカク,0
1367,5030003026489,新規,0,2025-04-07,2025-04-07,合同会社容声,,合同会社,埼玉県,鶴ヶ島市,大字下新田６２１番地２０５ＫＩＶオフィス下新田Ｃ号室,,11,241,3502222,,,,,,,2025-04-07,1,,,,,ヨウセイ,0
1376,5040001138129,新規,0,2025-04-07,2025-04-07,株式会社楽其,,株式会社,千葉県,千葉市稲毛区,園生町３９１番地１１１,,12,103,2630051,,,,,,,2025-04-07,1,,,,,ラッキー,0
1377,5040001138137,新規,0,2025-04-07,2025-04-07,株式会社トーキョーコンサルティング,,株式会社,千葉県,松戸市,六高台５丁目１５９－２１,,12,207,2702203,,,,,,,2025-04-07,1,,,,,トーキョーコンサルティング,0
1381,5040005022709,新規,0,2025-04-07,2025-04-07,一般社団法人かぐや平和研究所,,その他の設立登記法人,千葉県,松戸市,上矢切１６３１番地の６,,12,207,2710094,,,,,,,2025-04-07,1,,,,,カグヤヘイワケンキュウジョ,0
1384,5070005010371,新規,0,2025-04-07,2025-04-07,一般社団法人川場村観光協会,,その他の設立登記法人,群馬県,利根郡川場村,大字萩室３８５番地,,10,444,3780111,,,,,,,2025-04-07,1,,,,,カワバムラカンコウキョウカイ,0
1394,5100003008067,新規,0,2025-04-07,2025-04-07,合同会社アイカーカンパニー,,合同会社,長野県,須坂市,墨坂南１丁目１９番１３号,,20,207,3820098,,,,,,,2025-04-07,1,,,,,アイカーカンパニー,0
1406,5120001274213,新規,0,2025-04-07,2025-04-07,景昇株式会社,,株式会社,大阪府,大阪市港区,弁天３丁目１０番２０号港ＯＧＩビル７号室,,27,107,5520007,,,,,,,2025-04-07,1,,,,,ケイショウ,0
1407,5120001274238,新規,0,2025-04-07,2025-04-07,Ｌｅｍｏｎ　ｌｉｎｋ株式会社,,株式会社,大阪府,大阪市阿倍野区,天王寺町南２丁目２２番３－５０１号,,27,119,5450002,,,,,,,2025-04-07,1,,,,,レモンリンク,0
1408,5120001274246,新規,0,2025-04-07,2025-04-07,エンドルミナル・ソリューションズ株式会社,,株式会社,大阪府,大阪市東淀川区,西淡路１丁目１番３５号,,27,114,5330031,,,,,,,2025-04-07,1,,,,,エンドルミナルソリューションズ,0
1415,5120101071378,新規,0,2025-04-07,2025-04-07,株式会社ジャカコーポレーション,,株式会社,大阪府,泉佐野市,南中樫井８０５番地２,,27,213,5980035,,,,,,,2025-04-07,1,,,,,ジャカコーポレーション,0
1417,5120103006373,新規,0,2025-04-07,2025-04-07,合同会社福ちゃん,,合同会社,大阪府,堺市北区,百舌鳥西之町３丁６６８番地２階,,27,146,5918033,,,,,,,2025-04-07,1,,,,,フクチャン,0
1418,5120103006381,新規,0,2025-04-07,2025-04-07,合同会社ＳＡＢＲＯＳ,,合同会社,大阪府,堺市堺区,新在家町東４丁２番９号,,27,141,5900964,,,,,,,2025-04-07,1,,,,,サブロス,0
1419,5122001039050,新規,0,2025-04-07,2025-04-07,株式会社ＪＩＮ,,株式会社,大阪府,八尾市,青山町４丁目８番２５号,,27,212,5810018,,,,,,,2025-04-07,1,,,,,ジン,0
1420,5122001039059,新規,0,2025-04-07,2025-04-07,株式会社平本建設,,株式会社,大阪府,東大阪市,川俣１丁目８番３３号,,27,227,5770063,,,,,,,2025-04-07,1,,,,,ヒラモトケンセツ,0
1421,5130001079363,新規,0,2025-04-07,2025-04-07,株式会社岡山工業,,株式会社,京都府,京都市伏見区,納所星柳２－４,,26,109,6128274,,,,,,,2025-04-07,1,,,,,オカヤマコウギョウ,0
1428,5140001138069,新規,0,2025-04-07,2025-04-07,株式会社肉重北斎,,株式会社,兵庫県,神戸市中央区,新港町１３－２－１３０７,,28,110,6500041,,,,,,,2025-04-07,1,,,,,ニクジュウホクサイ,0
1433,5140003021850,新規,0,2025-04-07,2025-04-07,ＫＳＣＯ合同会社,,合同会社,兵庫県,神戸市中央区,東川崎町５丁目８番５号ハーバーハイツ神戸２０１号,,28,110,6500044,,,,,,,2025-04-07,1,,,,,ケーエスシーオー,0
1434,5150001028005,新規,0,2025-04-07,2025-04-07,株式会社ビギンウィズ,,株式会社,奈良県,桜井市,大字橋本４４６,,29,206,6330047,,,,,,,2025-04-07,1,,,,,ビギンウィズ,0
1435,5150001028013,新規,0,2025-04-07,2025-04-07,三佳不動産株式会社,,株式会社,奈良県,磯城郡田原本町,大字八尾７９２番地の１,,29,363,6360311,,,,,,,2025-04-07,1,,,,,サンケイフドウサン,0
1437,5150003003550,新規,0,2025-04-07,2025-04-07,合同会社ｋｉｚｕｋｅｌ,,合同会社,奈良県,奈良市,三条本町９番２１号ＪＲ奈良伝法ビル４階,,29,201,6308122,,,,,,,2025-04-07,1,,,,,キズケル,0
1438,5160001026643,新規,0,2025-04-07,2025-04-07,株式会社ＹＡＭＡＧＡＲＡ,,株式会社,滋賀県,長浜市,木之本町山梨子１４４番地,,25,203,5290436,,,,,,,2025-04-07,1,,,,,ヤマガラ,0
1439,5160001026651,新規,0,2025-04-07,2025-04-07,株式会社ピーアンドピー,,株式会社,滋賀県,彦根市,大東町２番３８号ＳＩＳビル東館４０１号,,25,202,5220074,,,,,,,2025-04-07,1,,,,,ピーアンドピー,0
1441,5170001018557,新規,0,2025-04-07,2025-04-07,株式会社Ｒ‐ｏｎｅ,,株式会社,和歌山県,和歌山市,湊２丁目１３－２０,,30,201,6408404,,,,,,,2025-04-07,1,,,,,アールワン,0
1445,5180001166157,新規,0,2025-04-07,2025-04-07,株式会社Ｄｏｌｃｅ,,株式会社,愛知県,名古屋市天白区,平針２丁目６０８番地,,23,116,4680011,,,,,,,2025-04-07,1,,,,,ドルチェ,0
1446,5180001166181,新規,0,2025-04-07,2025-04-07,タートルライフ株式会社,,株式会社,愛知県,名古屋市中村区,名駅３丁目２０番２１号名三ビル３階北,,23,105,4500002,,,,,,,2025-04-07,1,,,,,タートルライフ,0
1447,5180001166256,新規,0,2025-04-07,2025-04-07,株式会社Ｅｓｓｅｎｔｉａｌ　Ｐａｒｔｎｅｒｓ,,株式会社,愛知県,名古屋市守山区,鳥羽見２丁目１２番１５号ＴＲＹＩＩＩ鳥羽見３０３号室,00138602,23,113,4630076,,,,,,,2025-04-07,1,,,,,エッセンシャルパートナーズ,0
1448,5180001166280,新規,0,2025-04-07,2025-04-07,株式会社ホクシン,,株式会社,愛知県,知多郡東浦町,大字緒川字寿久茂１５８番地の７,,23,442,4702102,,,,,,,2025-04-07,1,,,,,ホクシン,0
1451,5180003028248,新規,0,2025-04-07,2025-04-07,合同会社Ｄａｎ,,合同会社,愛知県,名古屋市守山区,森孝１丁目１１０９,,23,113,4630035,,,,,,,2025-04-07,1,,,,,ダン,0
1452,5180301039681,新規,0,2025-04-07,2025-04-07,魚健水産株式会社,,株式会社,愛知県,岡崎市,欠町字札木４３番地４イーストＩＩ１０３,00138598,23,202,4440011,,,,,,,2025-04-07,1,,,,,ウオケンスイサン,0
1453,5180303006515,新規,0,2025-04-07,2025-04-07,合同会社ｃｏｎｔｅ　ｂｌｅｕ,,合同会社,愛知県,豊田市,花園町井田４１番地２,,23,211,4730924,,,,,,,2025-04-07,1,,,,,コンテブル,0
1456,5190001032127,新規,0,2025-04-07,2025-04-07,ジャストテック株式会社,,株式会社,三重県,鈴鹿市,広瀬町１４３２番地,,24,207,5130001,,,,,,,2025-04-07,1,,,,,ジャストテック,0
1457,5190003004990,新規,0,2025-04-07,2025-04-07,合同会社ワークライフ太葉,,合同会社,三重県,四日市市,川尻町２２５６番地６,,24,202,5100871,,,,,,,2025-04-07,1,,,,,,0
1458,5190005012034,新規,0,2025-04-07,2025-04-07,税理士法人清流会計,,その他の設立登記法人,三重県,四日市市,垂坂町３８５番地１,,24,202,5108037,,,,,,,2025-04-07,1,,,,,セイリュウカイケイ,0
1459,5200001043592,新規,0,2025-04-07,2025-04-07,株式会社Ｖｏｌａｒｅ,,株式会社,岐阜県,岐阜市,長良西山前９０番地,,21,201,5020074,,,,,,,2025-04-07,1,,,,,ヴォラーレ,0
1461,5200003006754,新規,0,2025-04-07,2025-04-07,合同会社ファンブル,,合同会社,岐阜県,大垣市,平町川向６３１番地の１,,21,202,5030841,,,,,,,2025-04-07,1,,,,,ファンブル,0
1465,5220001026604,新規,0,2025-04-07,2025-04-07,株式会社Ｙ’ｓＦＩＥＬＤ,,株式会社,石川県,羽咋郡志賀町,字上棚キの４０番地,,17,384,9250100,,,,,,,2025-04-07,1,,,,,ワイズフィールド,0
1467,5230001020820,新規,0,2025-04-07,2025-04-07,株式会社Ｈｙｐｅｒ　Ｖｉｓｉｏｎ,,株式会社,富山県,南砺市,荒木６４７番地３,,16,210,9391732,,,,,,,2025-04-07,1,,,,,ハイパービジョン,0
1468,5230001020829,新規,0,2025-04-07,2025-04-07,ＨＩエステート株式会社,,株式会社,富山県,高岡市,問屋町２０９番地,,16,202,9330804,,,,,,,2025-04-07,1,,,,,エイチアイエステート,0
1478,5260001040056,新規,0,2025-04-07,2025-04-07,株式会社いぶき,,株式会社,岡山県,瀬戸内市,長船町西須恵１１７８－２,,33,212,7014263,,,,,,,2025-04-07,1,,,,,イブキ,0
1479,5260001040072,新規,0,2025-04-07,2025-04-07,ＳＫ貿易株式会社,,株式会社,岡山県,岡山市中区,桑野５２５番地７５,,33,102,7028002,,,,,,,2025-04-07,1,,,,,エスケーボウエキ,0
1483,5290001109492,新規,0,2025-04-07,2025-04-07,株式会社ＲｉＣｒｕ,,株式会社,福岡県,福岡市中央区,天神２丁目２番１２号Ｔ＆Ｊビルディング７Ｆ,,40,133,8100001,,,,,,,2025-04-07,1,,,,,ライクル,0
1484,5290001109534,新規,0,2025-04-07,2025-04-07,株式会社ミヤマツ,,株式会社,福岡県,糸島市,香力１９７番地１,,40,230,8191147,,,,,,,2025-04-07,1,,,,,ミヤマツ,0
1485,5290001109559,新規,0,2025-04-07,2025-04-07,株式会社ＡＳＭ,,株式会社,福岡県,福岡市博多区,博多駅前２丁目１９番１７号,,40,132,8120011,,,,,,,2025-04-07,1,,,,,アスム,0
1486,5290001109575,新規,0,2025-04-07,2025-04-07,株式会社ＲＡＷＡＬＰＩＮＤＩ,,株式会社,福岡県,福岡市中央区,桜坂３丁目７番１４号ＡＴＥＬＩＥＲ３７１４Ｂ号室,,40,133,8100024,,,,,,,2025-04-07,1,,,,,ラワルピンディ,0
1487,5290001109617,新規,0,2025-04-07,2025-04-07,ワイティエスエレクトロニクス株式会社,,株式会社,福岡県,福岡市博多区,板付６丁目９－３５－４０２,,40,132,8120888,,,,,,,2025-04-07,1,,,,,ワイティエスエレクトロニクス,0
1493,5290801031417,新規,0,2025-04-07,2025-04-07,株式会社コネクトリア,,株式会社,福岡県,田川市,千代町１番１８号,,40,206,8260031,,,,,,,2025-04-07,1,,,,,コネクトリア,0
1494,5290805009822,新規,0,2025-04-07,2025-04-07,医療法人考歯会,,その他の設立登記法人,福岡県,北九州市小倉北区,黒住町２４番４１号,,40,106,8020056,,,,,,,2025-04-07,1,,,,,コウシカイ,0
1500,5310003004986,新規,0,2025-04-07,2025-04-07,合同会社ベリー不動産管理,,合同会社,長崎県,諫早市,多良見町シーサイド１番地６４,,42,204,8590407,,,,,,,2025-04-07,1,,,,,ベリーフドウサンカンリ,0
1502,5320003004622,新規,0,2025-04-07,2025-04-07,ＨＩＳＡ合同会社,,合同会社,大分県,中津市,大字東浜６３２番地１２,,44,203,8710006,,,,,,,2025-04-07,1,,,,,ヒサ,0
1504,5330001033052,新規,0,2025-04-07,2025-04-07,株式会社ブレインスターグループ,,株式会社,熊本県,熊本市中央区,新町２丁目１１番１６号,,43,101,8600004,,,,,,,2025-04-07,1,,,,,ブレインスターグループ,0
1505,5330001033060,新規,0,2025-04-07,2025-04-07,株式会社ノアノホーム,,株式会社,熊本県,熊本市北区,龍田弓削１丁目２９番１３号,,43,105,8618007,,,,,,,2025-04-07,1,,,,,ノアノホーム,0
1509,5340001027235,新規,0,2025-04-07,2025-04-07,株式会社ローカルデジタルブリッジ,,株式会社,鹿児島県,いちき串木野市,昭和通１８３番地２,,46,219,8960026,,,,,,,2025-04-07,1,,,,,ローカルデジタルブリッジ,0
1510,5340005009840,新規,0,2025-04-07,2025-04-07,一般社団法人鹿児島県ハンドボール協会,,その他の設立登記法人,鹿児島県,鹿児島市,唐湊４丁目２２－２,,46,201,8900081,,,,,,,2025-04-07,1,,,,,カゴシマケンハンドボールキョウカイ,0
1515,5360001035021,新規,0,2025-04-07,2025-04-07,株式会社宮城組,,株式会社,沖縄県,南城市,大里字稲嶺７６５番地１コーポ知念４０１号室,,47,215,9011204,,,,,,,2025-04-07,1,,,,,ミヤギグミ,0
1517,5360003014816,新規,0,2025-04-07,2025-04-07,合同会社カッシア,,合同会社,沖縄県,那覇市,田原４丁目４番地１・３０５,,47,201,9010156,,,,,,,2025-04-07,1,,,,,カッシア,0
1518,5360005007198,新規,0,2025-04-07,2025-04-07,一般社団法人アクシュゆいまーる沖縄,,その他の設立登記法人,沖縄県,浦添市,仲間１丁目２４番２６号,,47,208,9012103,,,,,,,2025-04-07,1,,,,,アクシュユイマールオキナワ,0
1520,5370001052453,新規,0,2025-04-07,2025-04-07,株式会社ラボーレ,,株式会社,宮城県,仙台市青葉区,中央２丁目２番３０号日興ビル,,04,101,9800021,,,,,,,2025-04-07,1,,,,,ラボーレ,0
1523,5380001035218,新規,0,2025-04-07,2025-04-07,株式会社手と手,,株式会社,福島県,安達郡大玉村,玉井字守谷山３７番５４３,,07,322,9691302,,,,,,,2025-04-07,1,,,,,テトテ,0
1524,5380003006010,新規,0,2025-04-07,2025-04-07,ｓｐａｃｅＳＯＭＡ合同会社,,合同会社,福島県,福島市,森合字台２８番地の１６,,07,201,9608003,,,,,,,2025-04-07,1,,,,,スペースソマ,0
1527,5410003004076,新規,0,2025-04-07,2025-04-07,合同会社大山,,合同会社,秋田県,仙北市,田沢湖梅沢字丸山２６番地,,05,215,0141112,,,,,,,2025-04-07,1,,,,,オオヤマ,0
1530,5420001019083,新規,0,2025-04-07,2025-04-07,株式会社ニコラ・フラメル,,株式会社,青森県,八戸市,石堂１丁目３０番７号,,02,203,0391165,,,,,,,2025-04-07,1,,,,,ニコラフラメル,0
1533,5430001094068,新規,0,2025-04-07,2025-04-07,上石工業株式会社,,株式会社,北海道,苫小牧市,ときわ町３丁目７番２２号,,01,213,0591261,,,,,,,2025-04-07,1,,,,,カミイシコウギョウ,0
1534,5430001094076,新規,0,2025-04-07,2025-04-07,株式会社ＫＳ　ＰＬＵＳ,,株式会社,北海道,千歳市,豊里１丁目２番１７号,,01,224,0660022,,,,,,,2025-04-07,1,,,,,ケーエスプラス,0
1535,5430001094126,新規,0,2025-04-07,2025-04-07,株式会社日幸,,株式会社,北海道,札幌市白石区,本通９丁目北４－４１三営ビル２０２,,01,104,0030027,,,,,,,2025-04-07,1,,,,,ニッコウ,0
1536,5430003017456,新規,0,2025-04-07,2025-04-07,合同会社北崎食品,00138601,合同会社,北海道,恵庭市,文京町２丁目２番２４－１０２号,,01,231,0611425,,,,,,,2025-04-07,1,,,,,キタザキショクヒン,0
1546,5500005008784,新規,0,2025-04-07,2025-04-07,一般社団法人愛媛県立西条高等学校教育活性化支援会,,その他の設立登記法人,愛媛県,西条市,明屋敷２３４番地,,38,206,7930023,,,,,,,2025-04-07,1,,,,,エヒメケンリツサイジョウコウトウガッコウキョウイクカッセイカシエンカイ,0
1555,6010001253763,新規,0,2025-04-07,2025-04-07,株式会社ＡＩｃｅｌｅｒａｔｅ,,株式会社,東京都,千代田区,四番町２番地１クレール東郷坂１階,,13,101,1020081,,,,,,,2025-04-07,1,,,,,アイセラレート,0
1556,6010001253821,新規,0,2025-04-07,2025-04-07,株式会社Ｄ．Ｅ．,,株式会社,東京都,中央区,銀座１丁目１２－４Ｎ＆ＥＢＬＤ．７階,,13,102,1040061,,,,,,,2025-04-07,1,,,,,,0
1557,6010001253838,新規,0,2025-04-07,2025-04-07,株式会社Ｓａｎａ　Ｌａｂｏ,,株式会社,東京都,文京区,湯島１丁目６番２号おむろビル２Ａ,,13,105,1130034,,,,,,,2025-04-07,1,,,,,サナラボ,0
1558,6010001253854,新規,0,2025-04-07,2025-04-07,株式会社Ｗｕ,,株式会社,東京都,中央区,勝どき４丁目６－１パークタワー勝どきサウス６１２,,13,102,1040054,,,,,,,2025-04-07,1,,,,,ダブリュー,0
1559,6010001253870,新規,0,2025-04-07,2025-04-07,株式会社百壽総合研究所,,株式会社,東京都,中央区,日本橋室町１丁目１１番１２号日本橋水野ビル７階,,13,102,1030022,,,,,,,2025-04-07,1,,,,,ヒャクジュソウゴウケンキュウショ,0
1560,6010001253912,新規,0,2025-04-07,2025-04-07,山佐ＤＬＨ２８リース株式会社,,株式会社,東京都,千代田区,丸の内１丁目４番１号東京共同会計事務所内,,13,101,1000005,,,,,,,2025-04-07,1,,,,,ヤマサディーエルエイチトゥエンティエイトリース,0
1562,6010003046959,新規,0,2025-04-07,2025-04-07,合同会社ＡＳＡＫＵＳＡ,,合同会社,東京都,千代田区,霞が関３丁目２番５号,,13,101,1000013,,,,,,,2025-04-07,1,,,,,アサクサ,0
1563,6010101016616,新規,0,2025-04-07,2025-04-07,株式会社光の華,,株式会社,東京都,八王子市,堀之内３００６番地,,13,201,1920355,,,,,,,2025-04-07,1,,,,,ヒカリノハナ,0
1564,6010103002548,新規,0,2025-04-07,2025-04-07,合同会社ＮＳＳ,,合同会社,東京都,八王子市,下柚木２丁目２７番地８,,13,201,1920372,,,,,,,2025-04-07,1,,,,,エヌエスエス,0
1568,6010401189327,新規,0,2025-04-07,2025-04-07,株式会社ＨＩＤＥＯ,,株式会社,東京都,港区,赤坂３丁目３番３号,,13,103,1070052,,,,,,,2025-04-07,1,,,,,ハイデオ,0
1569,6010401189335,新規,0,2025-04-07,2025-04-07,金融セールスアカデミー株式会社,,株式会社,東京都,港区,赤坂９丁目７番１号ミッドタウン・タワー１８階,,13,103,1070052,,,,,,,2025-04-07,1,,,,,キンユウセールスアカデミー,0
1570,6010401189351,新規,0,2025-04-07,2025-04-07,Ｒ＆Ｗリアルティ株式会社,,株式会社,東京都,港区,元赤坂１丁目２番７号赤坂Ｋタワー,,13,103,1070051,,,,,,,2025-04-07,1,,,,,アールアンドダブルリアルティ,0
1571,6010401189384,新規,0,2025-04-07,2025-04-07,株式会社ＮＳＳＫ‐Ｊ２,,株式会社,東京都,港区,愛宕２丁目５番１号愛宕グリーンヒルズＭＯＲＩタワー,,13,103,1050002,,,,,,,2025-04-07,1,,,,,エヌエスエスケージェイツー,0
1572,6010401189475,新規,0,2025-04-07,2025-04-07,株式会社カナメ,,株式会社,東京都,港区,南青山２丁目２番１５号,,13,103,1070062,,,,,,,2025-04-07,1,,,,,カナメ,0
1575,6010403034753,新規,0,2025-04-07,2025-04-07,合同会社ＡＯＹＡＭＡ　ＳＥＬＥＣＴ,,合同会社,東京都,港区,南青山３丁目１番３６号青山丸竹ビル６階,,13,103,1070062,,,,,,,2025-04-07,1,,,,,アオヤマセレクト,0
1580,6010503007790,新規,0,2025-04-07,2025-04-07,合同会社わっしょい,,合同会社,東京都,台東区,東上野５丁目１７―５―７０８,,13,106,1100015,,,,,,,2025-04-07,1,,,,,ワッショイ,0
1582,6010603011486,新規,0,2025-04-07,2025-04-07,ＡＫＩＢＯＵ　ＷＯＲＫＳ合同会社,,合同会社,東京都,江東区,東砂５丁目１０番１５号,,13,108,1360074,,,,,,,2025-04-07,1,,,,,アキボウワークス,0
1583,6010701047507,新規,0,2025-04-07,2025-04-07,株式会社ＦＰ,,株式会社,東京都,品川区,西五反田５丁目２－４レキシントン・プラザ西五反田１１階,,13,109,1410031,,,,,,,2025-04-07,1,,,,,エフピー,0
1584,6010703007657,新規,0,2025-04-07,2025-04-07,水色地球号合同会社,,合同会社,東京都,品川区,北品川５丁目５番２７－９０６号,,13,109,1410001,,,,,,,2025-04-07,1,,,,,ミズイロチキュウゴウ,0
1593,6010801036005,新規,0,2025-04-07,2025-04-07,株式会社ＡＳＯＶｉＶＡ,,株式会社,東京都,大田区,山王２丁目１番８号山王アーバンライフ１０１９号,,13,111,1430023,,,,,,,2025-04-07,1,,,,,アソビバ,0
1595,6010901057132,新規,0,2025-04-07,2025-04-07,クリップクロウ株式会社,,株式会社,東京都,世田谷区,奥沢１丁目３７番２号,,13,112,1580083,,,,,,,2025-04-07,1,,,,,クリップクロウ,0
1607,6011001168761,新規,0,2025-04-07,2025-04-07,株式会社ＡＩＭＥＤ,,株式会社,東京都,渋谷区,代々木２丁目２番１号,,13,113,1510053,,,,,,,2025-04-07,1,,,,,アイメド,0
1608,6011001168852,新規,0,2025-04-07,2025-04-07,株式会社アルバト,,株式会社,東京都,渋谷区,桜丘町２３番１７号シティコート桜丘４０８,,13,113,1500031,,,,,,,2025-04-07,1,,,,,アルバト,0
1610,6011003021308,新規,0,2025-04-07,2025-04-07,合同会社フロンティア,,合同会社,東京都,渋谷区,神南１丁目１１－４ＦＰＧリンクス神南５階,,13,113,1500041,,,,,,,2025-04-07,1,,,,,フロンティア,0
1611,6011003021407,新規,0,2025-04-07,2025-04-07,合同会社ｐｌａｃｅｈｏｌｄｅｒ,,合同会社,東京都,渋谷区,円山町５番３号ＭＩＥＵＸ渋谷ビル８階,,13,113,1500044,,,,,,,2025-04-07,1,,,,,プレースホルダー,0
1613,6011101111324,新規,0,2025-04-07,2025-04-07,株式会社ジョインボーナス,,株式会社,東京都,新宿区,西新宿３丁目３番１３号西新宿水間ビル６階,,13,104,1600023,,,,,,,2025-04-07,1,,,,,ジョインボーナス,0
1615,6011203004657,新規,0,2025-04-07,2025-04-07,合同会社１９０１,,合同会社,東京都,中野区,中央４丁目６番１２－１１０６号,,13,114,1640011,,,,,,,2025-04-07,1,,,,,ナインティーンオーワン,0
1616,6011301030489,新規,0,2025-04-07,2025-04-07,株式会社ｏｔｏｇｒａｆｉａ,,株式会社,東京都,杉並区,下高井戸２丁目８－１１ソステヌート３０６,,13,115,1680073,,,,,,,2025-04-07,1,,,,,オトグラフィア,0
1617,6011302002586,新規,0,2025-04-07,2025-04-07,有限会社カム・ホーム,,有限会社,東京都,杉並区,久我山４丁目９番４号,,13,115,1680082,,,,,,,2025-04-07,1,,,,,,0
1618,6011303005489,新規,0,2025-04-07,2025-04-07,ブループリントサービス合同会社,,合同会社,東京都,杉並区,南荻窪３丁目２１番１９号ドリームハイツ２０１,,13,115,1670052,,,,,,,2025-04-07,1,,,,,ブループリントサービス,0
1620,6011603004653,新規,0,2025-04-07,2025-04-07,合同会社ＴＶ　ＧＲＯＵＰ,,合同会社,東京都,練馬区,南田中４丁目３番１１号レオパレスシャンブル壱番館１０５号,,13,120,1770035,,,,,,,2025-04-07,1,,,,,ティヴィグループ,0
1625,6011801045879,新規,0,2025-04-07,2025-04-07,張亮株式会社,,株式会社,東京都,足立区,新田３丁目８－１８－４階,,13,121,1230865,,,,,,,2025-04-07,1,,,,,チョウリョウ,0
1626,6011801045887,新規,0,2025-04-07,2025-04-07,株式会社サンピークス,,株式会社,東京都,足立区,西新井１丁目７番１４号,,13,121,1230841,,,,,,,2025-04-07,1,,,,,サンピークス,0
1627,6012301014325,新規,0,2025-04-07,2025-04-07,株式会社夢前,,株式会社,東京都,町田市,下小山田町２７４１番地１５,,13,209,1940202,,,,,,,2025-04-07,1,,,,,ユメサキ,0
1629,6012401042952,新規,0,2025-04-07,2025-04-07,株式会社関心,,株式会社,東京都,武蔵野市,境南町３丁目１５番１１号ブルースカイ武蔵野１０８,,13,203,1800023,,,,,,,2025-04-07,1,,,,,セキシン,0
1631,6012403007053,新規,0,2025-04-07,2025-04-07,合同会社ゆめうつつ,,合同会社,東京都,武蔵野市,吉祥寺南町３丁目２５－２－３０２,,13,203,1800003,,,,,,,2025-04-07,1,,,,,ユメウツツ,0
1633,6012801023866,新規,0,2025-04-07,2025-04-07,Ｐｒｏｐｕｌｓｅｒｓ株式会社,,株式会社,東京都,日野市,旭が丘６丁目６番地,,13,212,1910065,,,,,,,2025-04-07,1,,,,,プロパルサーズ,0
1636,6013303007606,新規,0,2025-04-07,2025-04-07,Ｐｉｏｎｅｅｒ　Ｉｎｔｅｒｎａｔｉｏｎａｌ合同会社,,合同会社,東京都,豊島区,長崎２丁目１５番７号パールエステート２０３号,,13,116,1710051,,,,,,,2025-04-07,1,,,,,ピオニールインターナショナル,0
1644,6020001162179,新規,0,2025-04-07,2025-04-07,株式会社フジインテリアサービス,,株式会社,神奈川県,横浜市旭区,中白根２丁目９番１８号,,14,112,2410004,,,,,,,2025-04-07,1,,,,,フジインテリアサービス,0
1645,6020001162195,新規,0,2025-04-07,2025-04-07,株式会社秀栄,,株式会社,神奈川県,横浜市磯子区,森３丁目１９番３号,,14,107,2350023,,,,,,,2025-04-07,1,,,,,シュウエイ,0
1646,6020001162294,新規,0,2025-04-07,2025-04-07,株式会社Ｍｉａ　Ｔａｉｌ,,株式会社,神奈川県,川崎市川崎区,駅前本町１１番地２川崎フロンティアビル４階,,14,131,2100007,,,,,,,2025-04-07,1,,,,,ミアテイル,0
1651,6020003028196,新規,0,2025-04-07,2025-04-07,合同会社ＨＫエデュケーション,,合同会社,神奈川県,川崎市宮前区,土橋６丁目３番地２４,,14,136,2160005,,,,,,,2025-04-07,1,,,,,エイチケーエデュケーション,0
1652,6020003028205,新規,0,2025-04-07,2025-04-07,ＮＡＧＪ合同会社,,合同会社,神奈川県,川崎市麻生区,向原３丁目１６番１－１号,,14,137,2150007,,,,,,,2025-04-07,1,,,,,エヌエイジージェイ,0
1653,6020003028213,新規,0,2025-04-07,2025-04-07,合同会社ＰｅｒｓｏｎａｌＮｅｔｗｏｒｋｓ,,合同会社,神奈川県,横浜市青葉区,梅が丘２３番地１８０,,14,117,2270052,,,,,,,2025-04-07,1,,,,,パーソナルネットワークス,0
1656,6020005016769,新規,0,2025-04-07,2025-04-07,Ｆｏｒｅｓｔａｒ協同組合,,その他の設立登記法人,神奈川県,川崎市高津区,久末２３番地３－４０３,,14,134,2130026,,,,,,,2025-04-07,1,,,,,フォレスター,0
1657,6021001084850,新規,0,2025-04-07,2025-04-07,株式会社ＫＯＡクリエイション,,株式会社,神奈川県,藤沢市,辻堂東海岸１丁目７番４１号,,14,205,2510045,,,,,,,2025-04-07,1,,,,,コアクリエイション,0
1658,6021001084891,新規,0,2025-04-07,2025-04-07,株式会社ＵＮＩＶＩＳＳ,,株式会社,神奈川県,相模原市南区,相模大野３丁目１５番１６号エヌ・ケービル５０１号室,,14,153,2520303,,,,,,,2025-04-07,1,,,,,ユニヴィス,0
1667,6030001165651,新規,0,2025-04-07,2025-04-07,トン・テン・カン株式会社,,株式会社,埼玉県,富士見市,大字水子１３８２番地１アムールＭＩＹＡＢＩ１０５,,11,235,3540011,,,,,,,2025-04-07,1,,,,,トンテンカン,0
1668,6030001165684,新規,0,2025-04-07,2025-04-07,株式会社アオハル,,株式会社,埼玉県,越谷市,南越谷４丁目１３－３誠友第一ビル４階,,11,222,3430845,,,,,,,2025-04-07,1,,,,,アオハル,0
1669,6030001165718,新規,0,2025-04-07,2025-04-07,株式会社メタホリック,,株式会社,埼玉県,川口市,朝日１丁目１－３２ルネ川口アグリア６１０,,11,203,3320001,,,,,,,2025-04-07,1,,,,,メタホリック,0
1670,6030001165734,新規,0,2025-04-07,2025-04-07,Ｃｏｌｌｅｃｔｉｖｅ株式会社,,株式会社,埼玉県,川口市,北原台３丁目８番１２号,,11,203,3330815,,,,,,,2025-04-07,1,,,,,コレクティブ,0
1671,6030001165742,新規,0,2025-04-07,2025-04-07,日向株式会社,,株式会社,埼玉県,さいたま市南区,曲本１丁目７番２号,,11,108,3360033,,,,,,,2025-04-07,1,,,,,ヒナタ,0
1672,6030001165750,新規,0,2025-04-07,2025-04-07,株式会社エスエスサービス,,株式会社,埼玉県,川口市,大字東本郷１７２９番地の９０,,11,203,3340063,,,,,,,2025-04-07,1,,,,,エスエスサービス,0
1673,6030001165759,新規,0,2025-04-07,2025-04-07,株式会社Ｍ＆Ｋレーシング,,株式会社,埼玉県,さいたま市北区,盆栽町２３７番地１１,,11,102,3310805,,,,,,,2025-04-07,1,,,,,エムアンドケーレーシング,0
1674,6030001165767,新規,0,2025-04-07,2025-04-07,株式会社井伊造園土木,,株式会社,埼玉県,所沢市,大字下富１１５９番地の１４,,11,208,3590001,,,,,,,2025-04-07,1,,,,,イイゾウエンドボク,0
1675,6030001165775,新規,0,2025-04-07,2025-04-07,株式会社パイロ,,株式会社,埼玉県,新座市,野火止４丁目８番３９号,,11,230,3520011,,,,,,,2025-04-07,1,,,,,パイロ,0
1676,6030001165783,新規,0,2025-04-07,2025-04-07,株式会社ハクシノート,,株式会社,埼玉県,さいたま市緑区,東浦和２丁目３２番地９,,11,109,3360926,,,,,,,2025-04-07,1,,,,,ハクシノート,0
1677,6030001165791,新規,0,2025-04-07,2025-04-07,株式会社カワトメ,,株式会社,埼玉県,川越市,小仙波町２丁目４１番地３６,,11,201,3500036,,,,,,,2025-04-07,1,,,,,カワトメ,0
1678,6030001165809,新規,0,2025-04-07,2025-04-07,株式会社エリアハイ,,株式会社,埼玉県,さいたま市北区,宮原町４丁目１１３番地３６,,11,102,3310812,,,,,,,2025-04-07,1,,,,,エリアハイ,0
1681,6030003026439,新規,0,2025-04-07,2025-04-07,合同会社ブリランツ,,合同会社,埼玉県,桶川市,下日出谷西１丁目２２番地の２,,11,231,3630028,,,,,,,2025-04-07,1,,,,,ブリランツ,0
1682,6030005022106,新規,0,2025-04-07,2025-04-07,土地家屋調査士法人Ｎ,,その他の設立登記法人,埼玉県,吉川市,中曽根１丁目７番地３,,11,243,3420033,,,,,,,2025-04-07,1,,,,,エヌ,0
1687,6040003027270,新規,0,2025-04-07,2025-04-07,合同会社訪問看護Ｗｉｔｈ,,合同会社,千葉県,浦安市,富士見５丁目２４番３４‐１０３号,,12,227,2790043,,,,,,,2025-04-07,1,,,,,ホウモンカンゴウィズ,0
1699,6080001026857,新規,0,2025-04-07,2025-04-07,ルナソルアセットマネージメント株式会社,,株式会社,静岡県,静岡市清水区,草薙一里山２３番１７－２号,,22,103,4240884,,,,,,,2025-04-07,1,,,,,ルナソルアセットマネージメント,0
1705,6100001038461,新規,0,2025-04-07,2025-04-07,株式会社牧農園,,株式会社,長野県,須坂市,大字日滝３３５番地,,20,207,3820902,,,,,,,2025-04-07,1,,,,,マキノウエン,0
1706,6100001038478,新規,0,2025-04-07,2025-04-07,奥秩父観光株式会社,,株式会社,長野県,南佐久郡川上村,大字居倉５３５番地６０,,20,304,3841404,,,,,,,2025-04-07,1,,,,,オクチチブカンコウ,0
1718,6120001274179,新規,0,2025-04-07,2025-04-07,太紅株式会社,,株式会社,大阪府,大阪市生野区,小路東６丁目８番１７号昭和エクセルビュー東大阪１０３－Ｇ２７,,27,116,5440003,,,,,,,2025-04-07,1,,,,,タイコウ,0
1719,6120001274237,新規,0,2025-04-07,2025-04-07,ＲＤＭ株式会社,,株式会社,大阪府,大阪市港区,築港２丁目８番１９－５０８号,,27,107,5520021,,,,,,,2025-04-07,1,,,,,アールディーエム,0
1720,6120001274253,新規,0,2025-04-07,2025-04-07,天慶株式会社,,株式会社,大阪府,大阪市浪速区,日本橋東３丁目１５番３号４０２号室,,27,111,5560006,,,,,,,2025-04-07,1,,,,,テンケイ,0
1724,6120003029036,新規,0,2025-04-07,2025-04-07,合同会社Ｐｒｏｊｅｃｔ　Ｂ,,合同会社,大阪府,大阪市生野区,桃谷４丁目９番１２号２階,,27,116,5440034,,,,,,,2025-04-07,1,,,,,プロジェクトビー,0
1725,6120003029044,新規,0,2025-04-07,2025-04-07,綺絵数字設計合同会社,,合同会社,大阪府,大阪市旭区,生江１丁目８番２－６０５号,,27,117,5350004,,,,,,,2025-04-07,1,,,,,キエスウジセッケイ,0
1729,6120101071385,新規,0,2025-04-07,2025-04-07,株式会社クレインプラス,,株式会社,大阪府,堺市西区,鳳東町６丁６０２番地１－８０１号,,27,144,5938324,,,,,,,2025-04-07,1,,,,,クレインプラス,0
1730,6120101071410,新規,0,2025-04-07,2025-04-07,嘉騰株式会社,,株式会社,大阪府,南河内郡河南町,大字白木１１６２番地,,27,382,5850014,,,,,,,2025-04-07,1,,,,,カトウ,0
1731,6120101071419,新規,0,2025-04-07,2025-04-07,株式会社ＬＧＩＳ,,株式会社,大阪府,堺市堺区,北向陽町１丁１番２０号,,27,141,5900071,,,,,,,2025-04-07,1,,,,,エルジーアイエス,0
1732,6120901050670,新規,0,2025-04-07,2025-04-07,株式会社Ｍａｚａｌ,,株式会社,大阪府,高槻市,西真上１丁目３６－２,,27,207,5691127,,,,,,,2025-04-07,1,,,,,マザール,0
1737,6130001079338,新規,0,2025-04-07,2025-04-07,株式会社ＭＡＩＳＨＩＮ,,株式会社,京都府,京都市北区,小山初音町１４番地,,26,101,6038172,,,,,,,2025-04-07,1,,,,,マイシン,0
1742,6140001137994,新規,0,2025-04-07,2025-04-07,株式会社谷川,,株式会社,兵庫県,神戸市西区,伊川谷町布施畑６５７番地,,28,111,6512101,,,,,,,2025-04-07,1,,,,,タニガワ,0
1743,6140001138027,新規,0,2025-04-07,2025-04-07,株式会社Ｊｅｎｎｙ２１,,株式会社,兵庫県,三田市,相生町１番４０号相生スカイパーク１Ｆ,,28,219,6691526,,,,,,,2025-04-07,1,,,,,ジェニートゥエンティーワン,0
1744,6140003021890,新規,0,2025-04-07,2025-04-07,合同会社ラニウェル,,合同会社,兵庫県,神戸市垂水区,小束山６丁目８番地８,,28,108,6550002,,,,,,,2025-04-07,1,,,,,ラニウェル,0
1746,6150001028012,新規,0,2025-04-07,2025-04-07,株式会社けいわん,,株式会社,奈良県,奈良市,六条町３４１番地,,29,201,6308041,,,,,,,2025-04-07,1,,,,,ケイワン,0
1748,6160001026642,新規,0,2025-04-07,2025-04-07,株式会社Ｔ＆Ｋゲノブリード,,株式会社,滋賀県,栗東市,東坂９１番地,,25,208,5203001,,,,,,,2025-04-07,1,,,,,ティーアンドケーゲノブリード,0
1749,6160001026659,新規,0,2025-04-07,2025-04-07,株式会社レイズ,,株式会社,滋賀県,大津市,横木１丁目５番１４号,,25,201,5200063,,,,,,,2025-04-07,1,,,,,レイズ,0
1750,6160005011392,新規,0,2025-04-07,2025-04-07,農事組合法人小川ファームズ,,その他の設立登記法人,滋賀県,東近江市,小川町８５０番地１,,25,213,5211204,,,,,,,2025-04-07,1,,,,,オガワファームズ,0
1754,6170003002186,新規,0,2025-04-07,2025-04-07,ユキ・インベストメンツ合同会社,,合同会社,和歌山県,和歌山市,狐島２５番地５,,30,201,6408412,,,,,,,2025-04-07,1,,,,,ユキインベストメンツ,0
1757,6180001166131,新規,0,2025-04-07,2025-04-07,株式会社ＧＲＡＢＥＬＬ,,株式会社,愛知県,名古屋市守山区,元郷２丁目７１０番地,,23,113,4630025,,,,,,,2025-04-07,1,,,,,グラベル,0
1758,6180001166197,新規,0,2025-04-07,2025-04-07,株式会社トップヒット,,株式会社,愛知県,名古屋市中区,大須１丁目３４番２４号Ｎ・ａｐａｒｔｍｅｎｔ１１０１号,,23,106,4600011,,,,,,,2025-04-07,1,,,,,トップヒット,0
1759,6180001166271,新規,0,2025-04-07,2025-04-07,Ｋ，ｓパークス株式会社,,株式会社,愛知県,一宮市,萩原町串作字南方６番地,,23,203,4910376,,,,,,,2025-04-07,1,,,,,ケーズパークス,0
1760,6180003028255,新規,0,2025-04-07,2025-04-07,合同会社Ａｓｌｉ,,合同会社,愛知県,名古屋市西区,枇杷島２丁目６番９号,,23,104,4510053,,,,,,,2025-04-07,1,,,,,アズリ,0
1763,6200001043600,新規,0,2025-04-07,2025-04-07,株式会社ロント,,株式会社,岐阜県,可児市,下恵土８０１番地４,,21,214,5090203,,,,,,,2025-04-07,1,,,,,ロント,0
1764,6200003006753,新規,0,2025-04-07,2025-04-07,ＴＨＥ　ＫＩＮＧ’Ｓ　ＣＲＥＳＴ合同会社,,合同会社,岐阜県,加茂郡八百津町,潮見１０２４番地１３,,21,505,5050531,,,,,,,2025-04-07,1,,,,,ザキングズクレスト,0
1765,6220001026603,新規,0,2025-04-07,2025-04-07,株式会社Ｂｒｉｂｅｅ,,株式会社,石川県,小松市,下牧町乙１１６番地５　ダイナソー１０７,,17,203,9230026,,,,,,,2025-04-07,1,,,,,ブライビー,0
1766,6220001026611,新規,0,2025-04-07,2025-04-07,株式会社ＣＡＮ　ＦＥＥＬ,,株式会社,石川県,野々市市,太平寺１丁目２１３番地１,,17,212,9218845,,,,,,,2025-04-07,1,,,,,キャンフィール,0
1767,6230001020828,新規,0,2025-04-07,2025-04-07,株式会社ＧＬＯＢＡＬ　ＴＲＵＳＴ　ＣＯＭＰＡＮＹ,,株式会社,富山県,射水市,鷲塚１番地,,16,211,9390305,,,,,,,2025-04-07,1,,,,,グローバルトラストカンパニー,0
1768,6230005009454,新規,0,2025-04-07,2025-04-07,一般社団法人ウェルビーイングマネジメント協会,,その他の設立登記法人,富山県,富山市,五福１４１４番地１,,16,201,9300887,,,,,,,2025-04-07,1,,,,,ウェルビーイングマネジメントキョウカイ,0
1769,6240001064741,新規,0,2025-04-07,2025-04-07,株式会社カーテンプラザ,,株式会社,広島県,福山市,東深津町３丁目１３番３１号,,34,207,7210974,,,,,,,2025-04-07,1,,,,,カーテンプラザ,0
1770,6240001064774,新規,0,2025-04-07,2025-04-07,総栄建設工業株式会社,,株式会社,広島県,福山市,新涯町１丁目４番１号,,34,207,7210955,,,,,,,2025-04-07,1,,,,,ソウエイケンセツコウギョウ,0
1772,6260001040055,新規,0,2025-04-07,2025-04-07,株式会社みらいお,,株式会社,岡山県,岡山市東区,西大寺松崎８１３番地,,33,103,7048183,,,,,,,2025-04-07,1,,,,,ミライオ,0
1773,6260003005122,新規,0,2025-04-07,2025-04-07,合同会社ココミント,,合同会社,岡山県,岡山市南区,大福４１２番地４,,33,104,7010204,,,,,,,2025-04-07,1,,,,,ココミント,0
1774,6270001009181,新規,0,2025-04-07,2025-04-07,株式会社イータス,,株式会社,鳥取県,鳥取市,川端３丁目１１８,,31,201,6800036,,,,,,,2025-04-07,1,,,,,イータス,0
1776,6270003001731,新規,0,2025-04-07,2025-04-07,コンタクトフレンズ合同会社,,合同会社,鳥取県,米子市,旗ヶ崎１丁目２４番８号,,31,202,6830845,,,,,,,2025-04-07,1,,,,,コンタクトフレンズ,0
1779,6280003001937,新規,0,2025-04-07,2025-04-07,みわたす合同会社,,合同会社,島根県,松江市,鹿島町名分１１５５番地１０２,,32,201,6900803,,,,,,,2025-04-07,1,,,,,ミワタス,0
1782,6290001109525,新規,0,2025-04-07,2025-04-07,未来エステイト株式会社,,株式会社,福岡県,福岡市南区,若久５丁目３３番５号,,40,134,8150042,,,,,,,2025-04-07,1,,,,,ミライエステイト,0
1783,6290001109533,新規,0,2025-04-07,2025-04-07,株式会社ＵＭＢＲＡ’Ｓ,,株式会社,福岡県,糸島市,本１５３３番地１３,,40,230,8191151,,,,,,,2025-04-07,1,,,,,アンブラーズ,0
1784,6290001109541,新規,0,2025-04-07,2025-04-07,株式会社喜多村設計事務所,,株式会社,福岡県,糟屋郡新宮町,下府２丁目８番２７号,,40,345,8110112,,,,,,,2025-04-07,1,,,,,キタムラセッケイジムショ,0
1785,6290001109582,新規,0,2025-04-07,2025-04-07,ちっご川株式会社,,株式会社,福岡県,久留米市,上津町１１８２番地２,,40,203,8300052,,,,,,,2025-04-07,1,,,,,チッゴガワ,0
1786,6290003016629,新規,0,2025-04-07,2025-04-07,ＳＡＫＡＭＩＮＡ合同会社,,合同会社,福岡県,福岡市中央区,黒門６番４‐３０３号,,40,133,8100055,,,,,,,2025-04-07,1,,,,,サカミナ,0
1787,6290003016637,新規,0,2025-04-07,2025-04-07,ロフティセイル合同会社,,合同会社,福岡県,飯塚市,下三緒３７２番地１ＣＩＴＹ飯塚東１１０号,,40,205,8200012,,,,,,,2025-04-07,1,,,,,ロフティセイル,0
1788,6290003016645,新規,0,2025-04-07,2025-04-07,合同会社萩尾会計経理パートナーズ,,合同会社,福岡県,福岡市中央区,天神１丁目１５番５号天神明治通りビル８０３号室,,40,133,8100001,,,,,,,2025-04-07,1,,,,,ハギオカイケイケイリパートナーズ,0
1793,6290801031432,新規,0,2025-04-07,2025-04-07,株式会社Ｇ．Ｏ．Ｄ,,株式会社,福岡県,北九州市小倉南区,富士見２丁目７番１４号３Ｆ,,40,107,8020801,,,,,,,2025-04-07,1,,,,,ジーオーディー,0
1795,6300001014137,新規,0,2025-04-07,2025-04-07,株式会社Ｇｏｌｄ　Ｒｏｓｅ,,株式会社,佐賀県,佐賀市,久保田町久富３１７５－５,,41,201,8490000,,,,,,,2025-04-07,1,,,,,ゴールドローズ,0
1796,6310001019531,新規,0,2025-04-07,2025-04-07,株式会社うぐいす,,株式会社,長崎県,平戸市,岩の上町３６８番地１,,42,207,8595121,,,,,,,2025-04-07,1,,,,,ウグイス,0
1798,6320001021040,新規,0,2025-04-07,2025-04-07,株式会社バイクプラス,,株式会社,大分県,津久見市,大字千怒６２０８番地,,44,207,8792401,,,,,,,2025-04-07,1,,,,,,0
1800,6340001027226,新規,0,2025-04-07,2025-04-07,株式会社シビルテック西日本,,株式会社,鹿児島県,出水市,高尾野町江内１０３１番地１,,46,208,8990407,,,,,,,2025-04-07,1,,,,,シビルテックニシニホン,0
1807,6350005006299,新規,0,2025-04-07,2025-04-07,一般社団法人全日本空手道連盟九州地区協議会,,その他の設立登記法人,宮崎県,日南市,戸高３丁目１５番地４,,45,204,8870031,,,,,,,2025-04-07,1,,,,,ゼンニホンカラテドウレンメイキュウシュウチクキョウギカイ,0
1809,6360001034955,新規,0,2025-04-07,2025-04-07,ＢｉｇＪｏｈｎＥｎｇｉｎｅｅｒｉｎｇ株式会社,,株式会社,沖縄県,うるま市,与那城池味１－１８,,47,213,9042422,,,,,,,2025-04-07,1,,,,,ビッグジョンエンジニアリング,0
1810,6360001034996,新規,0,2025-04-07,2025-04-07,シンエン商事株式会社,,株式会社,沖縄県,豊見城市,字真玉橋１２番地３,,47,212,9010201,,,,,,,2025-04-07,1,,,,,シンエンショウジ,0
1811,6360001035004,新規,0,2025-04-07,2025-04-07,株式会社ＵＩＭ,,株式会社,沖縄県,沖縄市,登川３丁目２３番１８号上間アパート２０１,,47,211,9042142,,,,,,,2025-04-07,1,,,,,ユーアイエム,0
1814,6360003014823,新規,0,2025-04-07,2025-04-07,合同会社アクト,,合同会社,沖縄県,島尻郡南風原町,字宮平８２５番地２６,,47,350,9011104,,,,,,,2025-04-07,1,,,,,アクト,0
1815,6370001052460,新規,0,2025-04-07,2025-04-07,株式会社工藤不動産,,株式会社,宮城県,仙台市若林区,かすみ町２６番２２号,,04,103,9840822,,,,,,,2025-04-07,1,,,,,クドウフドウサン,0
1817,6370005010935,新規,0,2025-04-07,2025-04-07,一般社団法人保育士の輪つむぐ,,その他の設立登記法人,宮城県,仙台市太白区,長町南３丁目１６番１号ＳＴＡＹニュータイプビル,,04,104,9820012,,,,,,,2025-04-07,1,,,,,ホイクシノワツムグ,0
1819,6380001035217,新規,0,2025-04-07,2025-04-07,ドローンリサーチ福島株式会社,,株式会社,福島県,福島市,東浜町１０番２７号,,07,201,9608132,,,,,,,2025-04-07,1,,,,,ドローンリサーチ,0
1821,6390003002370,新規,0,2025-04-07,2025-04-07,合同会社ａ　Ｕｎｉｑｕｅ,,合同会社,山形県,山形市,小立１丁目２―１５,,06,201,9902402,,,,,,,2025-04-07,1,,,,,ユニーク,0
1823,6400003003425,新規,0,2025-04-07,2025-04-07,合同会社軽米チキンライフ,,合同会社,岩手県,九戸郡軽米町,大字軽米第３地割１６番地,,03,501,0286302,,,,,,,2025-04-07,1,,,,,カルマイチキンライフ,0
1824,6410003004075,新規,0,2025-04-07,2025-04-07,合同会社イカワ里共楽ファーム,,合同会社,秋田県,南秋田郡井川町,北川尻字海老沢巡り３７番地１,,05,366,0181512,,,,,,,2025-04-07,1,,,,,イカワサクラファーム,0
1827,6430001094059,新規,0,2025-04-07,2025-04-07,株式会社ＫＡＤＯＤＥ,,株式会社,北海道,札幌市厚別区,上野幌三条５丁目５番３号,,01,108,0040033,,,,,,,2025-04-07,1,,,,,カドデ,0
1828,6430001094125,新規,0,2025-04-07,2025-04-07,株式会社三一六,,株式会社,北海道,札幌市豊平区,平岸二条１３丁目３番１４－１０１０号,,01,105,0620932,,,,,,,2025-04-07,1,,,,,サンイチロク,0
1830,6430003017488,新規,0,2025-04-07,2025-04-07,シビルコア合同会社,,合同会社,北海道,札幌市厚別区,厚別中央三条２丁目１３番３５号,,01,108,0040053,,,,,,,2025-04-07,1,,,,,シビルコア,0
1831,6430003017505,新規,0,2025-04-07,2025-04-07,クオルタス合同会社,,合同会社,北海道,札幌市北区,北三十三条西２丁目１番１５号ＫＡＮＴＩＮＥ　Ｖ室,00138613,01,102,0010033,,,,,,,2025-04-07,1,,,,,クオルタス,0
1839,6500001026228,新規,0,2025-04-07,2025-04-07,株式会社バリ産業,,株式会社,愛媛県,今治市,南日吉町３丁目２番２６号,,38,202,7940056,,,,,,,2025-04-07,1,,,,,バリサンギョウ,0
1850,7010001253705,新規,0,2025-04-07,2025-04-07,アルテミラ準備株式会社,,株式会社,東京都,文京区,後楽１丁目４番２５号,,13,105,1120004,,,,,,,2025-04-07,1,,,,,アルテミラジュンビ,0
1851,7010001253861,新規,0,2025-04-07,2025-04-07,ＡＤＶＡＮＣＥ株式会社,,株式会社,東京都,文京区,本駒込５丁目２０番４ー１０１号,,13,105,1130021,,,,,,,2025-04-07,1,,,,,アドヴァンス,0
1852,7010001253911,新規,0,2025-04-07,2025-04-07,山佐ＤＬＨ２７リース株式会社,,株式会社,東京都,千代田区,丸の内１丁目４番１号東京共同会計事務所内,,13,101,1000005,,,,,,,2025-04-07,1,,,,,ヤマサディーエルエイチトゥエンティセブンリース,0
1853,7010001253936,新規,0,2025-04-07,2025-04-07,株式会社ＡＩ　Ｅｌｉｔｅ,,株式会社,東京都,千代田区,九段南２丁目４－１１パシフィックスクエア九段南６Ｆ,,13,101,1020074,,,,,,,2025-04-07,1,,,,,エーアイエリート,0
1857,7010003046958,新規,0,2025-04-07,2025-04-07,合同会社Ｆｂｉｔ第１号,,合同会社,東京都,千代田区,丸の内２丁目７番２号,,13,101,1000005,,,,,,,2025-04-07,1,,,,,エフビットダイイチゴウ,0
1858,7010003046966,新規,0,2025-04-07,2025-04-07,ＦＹＣ合同会社,,合同会社,東京都,中央区,日本橋室町１丁目１１番１２号日本橋水野ビル７階,,13,102,1030022,,,,,,,2025-04-07,1,,,,,エフワイシー,0
1859,7010003046974,新規,0,2025-04-07,2025-04-07,ムーンアイル合同会社,,合同会社,東京都,中央区,月島２丁目１７－１０－５０３,,13,102,1040052,,,,,,,2025-04-07,1,,,,,ムーンアイル,0
1860,7010003046999,新規,0,2025-04-07,2025-04-07,新世界プロパティー合同会社,,合同会社,東京都,千代田区,丸の内１丁目１１番１号,,13,101,1000005,,,,,,,2025-04-07,1,,,,,シンセカイプロパティー,0
1870,7010401189301,新規,0,2025-04-07,2025-04-07,Ｌ・Ｌ株式会社,,株式会社,東京都,港区,虎ノ門１丁目１５番７号ＴＲＵＳＴＶＡＬＵＥ虎ノ門９階,,13,103,1050001,,,,,,,2025-04-07,1,,,,,エルエル,0
1871,7010401189326,新規,0,2025-04-07,2025-04-07,株式会社Ｖ‐ＴＯＫＥＲ,,株式会社,東京都,港区,赤坂４丁目５番２１号バルミー赤坂３１７号室,,13,103,1070052,,,,,,,2025-04-07,1,,,,,ブイトッカー,0
1872,7010401189334,新規,0,2025-04-07,2025-04-07,株式会社レーヴ,,株式会社,東京都,港区,西新橋１丁目５番１０号,,13,103,1050003,,,,,,,2025-04-07,1,,,,,レーヴ,0
1873,7010401189359,新規,0,2025-04-07,2025-04-07,株式会社ＢＥＡＴ　ＢＲＡＮＤ　ＤＥＳＩＧＮ,,株式会社,東京都,港区,北青山１丁目３番１号アールキューブ青山３階,,13,103,1070061,,,,,,,2025-04-07,1,,,,,ビートブランドデザイン,0
1874,7010401189383,新規,0,2025-04-07,2025-04-07,株式会社ＮＳＳＫ‐Ｊ１,,株式会社,東京都,港区,愛宕２丁目５番１号愛宕グリーンヒルズＭＯＲＩタワー,,13,103,1050002,,,,,,,2025-04-07,1,,,,,エヌエスエスケージェイワン,0
1875,7010401189391,新規,0,2025-04-07,2025-04-07,Ｍコンサルティング株式会社,,株式会社,東京都,港区,赤坂５丁目３番３－１８０５号,,13,103,1070052,,,,,,,2025-04-07,1,,,,,エムコンサルティング,0
1876,7010401189409,新規,0,2025-04-07,2025-04-07,株式会社ＭＡＲＳ,,株式会社,東京都,港区,東新橋１丁目１０番１－２８０２号,,13,103,1050021,,,,,,,2025-04-07,1,,,,,マーズ,0
1878,7010403034769,新規,0,2025-04-07,2025-04-07,リノア合同会社,,合同会社,東京都,港区,北青山１丁目３‐３三橋ビル３階,,13,103,1070061,,,,,,,2025-04-07,1,,,,,リノア,0
1879,7010403034843,新規,0,2025-04-07,2025-04-07,合同会社ＶａＫｕＬｕｍｅ,,合同会社,東京都,港区,南青山２丁目２番１５号,,13,103,1070062,,,,,,,2025-04-07,1,,,,,バクルーム,0
1880,7010405024207,新規,0,2025-04-07,2025-04-07,一般社団法人日本タイハーブ協会,,その他の設立登記法人,東京都,港区,北青山２丁目１３番３号榎本ビル２０３,,13,103,1070061,,,,,,,2025-04-07,1,,,,,ニホンタイハーブキョウカイ,0
1885,7010601067075,新規,0,2025-04-07,2025-04-07,株式会社ＩＴｒｉｐ,,株式会社,東京都,墨田区,東向島５丁目１９番１２－８０１号,,13,107,1310032,,,,,,,2025-04-07,1,,,,,アイトリップ,0
1886,7010701047506,新規,0,2025-04-07,2025-04-07,株式会社ＳＩＰ,,株式会社,東京都,品川区,大崎２丁目９番１－６１２号,,13,109,1410032,,,,,,,2025-04-07,1,,,,,エスアイピー,0
1891,7010903009824,新規,0,2025-04-07,2025-04-07,ＶａｎレガルＪＡＰＡＮ合同会社,,合同会社,東京都,世田谷区,上馬４丁目３１番２０号ドミール駒沢４０１,,13,112,1540011,,,,,,,2025-04-07,1,,,,,バンレガルジャパン,0
1895,7011001168769,新規,0,2025-04-07,2025-04-07,株式会社クルムメディカル,,株式会社,東京都,渋谷区,千駄ヶ谷５丁目３２番４号１階,,13,113,1510051,,,,,,,2025-04-07,1,,,,,クルムメディカル,0
1896,7011001168785,新規,0,2025-04-07,2025-04-07,株式会社ＢＯＮＤ　ＷＯＲＫ,,株式会社,東京都,渋谷区,渋谷２丁目１９－１５宮益坂ビルディング６０９,,13,113,1500002,,,,,,,2025-04-07,1,,,,,ボンドワーク,0
1897,7011001168835,新規,0,2025-04-07,2025-04-07,株式会社Ｌａｓｔ　Ｓｃｅｎｅ,,株式会社,東京都,渋谷区,渋谷２丁目１９－１５宮益坂ビルディング６０９,,13,113,1500002,,,,,,,2025-04-07,1,,,,,ラストシーン,0
1898,7011001168843,新規,0,2025-04-07,2025-04-07,株式会社まーける,,株式会社,東京都,渋谷区,道玄坂１丁目１０番８号渋谷道玄坂東急ビル２Ｆ－Ｃ,,13,113,1500043,,,,,,,2025-04-07,1,,,,,マーケル,0
1901,7011003021298,新規,0,2025-04-07,2025-04-07,合同会社アシスト,,合同会社,東京都,渋谷区,道玄坂１丁目１０番８号渋谷道玄坂東急ビル２Ｆ－Ｃ,,13,113,1500043,,,,,,,2025-04-07,1,,,,,アシスト,0
1902,7011003021315,新規,0,2025-04-07,2025-04-07,ボーテソムリエールアカデミー合同会社,,合同会社,東京都,渋谷区,恵比寿西２丁目８番４号ＥＸ恵比寿西ビル５階,,13,113,1500021,,,,,,,2025-04-07,1,,,,,ボーテソムリエールアカデミー,0
1911,7011401026964,新規,0,2025-04-07,2025-04-07,株式会社ＶＩＥＴ　ＮＧＵＹＥＮ　ＫＵＲＡＭＡ,,株式会社,東京都,板橋区,中丸町１６番１６号ドミール北池袋３０１号,,13,119,1730026,,,,,,,2025-04-07,1,,,,,ヴィエットグエンクラマ,0
1919,7011701028231,新規,0,2025-04-07,2025-04-07,株式会社ＲｅｍｏＳｙｎｃ,,株式会社,東京都,江戸川区,西小岩５丁目１３－１３－１２６号室,,13,123,1330057,,,,,,,2025-04-07,1,,,,,リモシンク,0
1920,7011801045903,新規,0,2025-04-07,2025-04-07,株式会社ＴＯＫＹＯ　ＩＮＮＳ,,株式会社,東京都,葛飾区,新宿３丁目５－１アデニウムザ・オアシスガーデン２１２,,13,122,1250051,,,,,,,2025-04-07,1,,,,,トウキョウインズ,0
1921,7011801045911,新規,0,2025-04-07,2025-04-07,株式会社ＷＡＤ,,株式会社,東京都,葛飾区,西新小岩４丁目３０番２号ユネックスビル４０１,,13,122,1240025,,,,,,,2025-04-07,1,,,,,ワド,0
1924,7012301014324,新規,0,2025-04-07,2025-04-07,株式会社博楽,,株式会社,東京都,町田市,玉川学園２丁目４番２７号ターレット玉川学園１０８,,13,209,1940041,,,,,,,2025-04-07,1,,,,,ハクラク,0
1925,7012403007052,新規,0,2025-04-07,2025-04-07,トマスレディ合同会社,,合同会社,東京都,武蔵野市,吉祥寺北町２丁目２１番２０号,,13,203,1800001,,,,,,,2025-04-07,1,,,,,トマスレディ,0
1926,7012705002461,新規,0,2025-04-07,2025-04-07,一般社団法人おもち,,その他の設立登記法人,東京都,東村山市,久米川町３丁目２４番地３,,13,213,1890003,,,,,,,2025-04-07,1,,,,,オモチ,0
1932,7020001162161,新規,0,2025-04-07,2025-04-07,ポリメモ株式会社,,株式会社,神奈川県,川崎市幸区,小向西町３丁目３３番地,,14,132,2120004,,,,,,,2025-04-07,1,,,,,ポリメモ,0
1933,7020001162186,新規,0,2025-04-07,2025-04-07,株式会社ＨＡＫＵＹＡ,,株式会社,神奈川県,横浜市港北区,高田東１丁目７－３１,,14,109,2230065,,,,,,,2025-04-07,1,,,,,ハクヤ,0
1934,7020001162194,新規,0,2025-04-07,2025-04-07,海川商事株式会社,,株式会社,神奈川県,横浜市南区,中村町４丁目２８９番５号１０６号室,,14,105,2320033,,,,,,,2025-04-07,1,,,,,カイカワショウジ,0
1935,7020001162293,新規,0,2025-04-07,2025-04-07,株式会社ＡＰＥＸｃｒｅａｔｅ,,株式会社,神奈川県,川崎市宮前区,菅生６丁目２１番９号ピュアーハイム２０５,,14,136,2160015,,,,,,,2025-04-07,1,,,,,エイペックスクリエイト,0
1939,7020003028212,新規,0,2025-04-07,2025-04-07,合同会社木戸美掃企画,,合同会社,神奈川県,横浜市戸塚区,上倉田町２５９番地２棟４０３号,,14,110,2440816,,,,,,,2025-04-07,1,,,,,キドビソウキカク,0
1944,7021001084874,新規,0,2025-04-07,2025-04-07,ＲｅＳｏｌｏ株式会社,,株式会社,神奈川県,横須賀市,衣笠栄町４丁目４番地２９衣笠ハイツ１０２号,,14,201,2380031,,,,,,,2025-04-07,1,,,,,リゾロ,0
1948,7021003015844,新規,0,2025-04-07,2025-04-07,合同会社マイクロベアー,,合同会社,神奈川県,愛甲郡愛川町,中津３４０８の２番地,,14,401,2430303,,,,,,,2025-04-07,1,,,,,マイクロベアー,0
1952,7030001165709,新規,0,2025-04-07,2025-04-07,株式会社１ＦＲＥＳＨ産業,,株式会社,埼玉県,八潮市,大字浮塚８２４番地５,,11,234,3400835,,,,,,,2025-04-07,1,,,,,ワンフレッシュサンギョウ,0
1953,7030001165717,新規,0,2025-04-07,2025-04-07,Ａ．Ｗ．ＤＯＧ株式会社,,株式会社,埼玉県,八潮市,八潮４丁目２６番地１７スウィートコート八潮四丁目２０２号室,,11,234,3400815,,,,,,,2025-04-07,1,,,,,エーダブリュードッグ,0
1954,7030001165766,新規,0,2025-04-07,2025-04-07,株式会社ＬｕｍｉＬｉｎｋ,,株式会社,埼玉県,春日部市,備後西４丁目１５番６９号,,11,214,3440033,,,,,,,2025-04-07,1,,,,,ルミリンク,0
1955,7030001165774,新規,0,2025-04-07,2025-04-07,株式会社Ｆｅｅｌ,,株式会社,埼玉県,春日部市,西金野井１８２７番地７,,11,214,3440112,,,,,,,2025-04-07,1,,,,,フィール,0
1956,7030001165808,新規,0,2025-04-07,2025-04-07,株式会社Ｒｅｂｏｒｎ　Ｌｉｎｋ,,株式会社,埼玉県,和光市,丸山台１丁目４番４号２Ｆ,,11,229,3510112,,,,,,,2025-04-07,1,,,,,リボーンリンク,0
1957,7030003026454,新規,0,2025-04-07,2025-04-07,リジタル合同会社,,合同会社,埼玉県,さいたま市南区,根岸４丁目１９番１５号,,11,108,3360024,,,,,,,2025-04-07,1,,,,,リジタル,0
1958,7030003026470,新規,0,2025-04-07,2025-04-07,合同会社大胡蝶,,合同会社,埼玉県,川口市,南鳩ヶ谷３丁目２３番１－２０４号レゾン・フォルテ,,11,203,3340013,,,,,,,2025-04-07,1,,,,,オオゴチョウ,0
1959,7030003026479,新規,0,2025-04-07,2025-04-07,合同会社ひらがな,,合同会社,埼玉県,さいたま市緑区,大字三室１４０９番地１１,,11,109,3360911,,,,,,,2025-04-07,1,,,,,ヒラガナ,0
1960,7030005022105,新規,0,2025-04-07,2025-04-07,日本建設合同協同組合,,その他の設立登記法人,埼玉県,さいたま市緑区,太田窪３丁目１０番２９号,,11,109,3360936,,,,,,,2025-04-07,1,,,,,ニホンケンセツゴウドウ,0
1961,7030005022121,新規,0,2025-04-07,2025-04-07,医療法人社団エイル,,その他の設立登記法人,埼玉県,八潮市,茜町１丁目８番４号２階,,11,234,3400826,,,,,,,2025-04-07,1,,,,,エイル,0
1965,7040001138184,新規,0,2025-04-07,2025-04-07,株式会社ＨＡＪＩＭＥ,,株式会社,千葉県,船橋市,西船５丁目１６番９号カーサヴィオラ２０４号,,12,204,2730031,,,,,,,2025-04-07,1,,,,,ハジメ,0
1966,7040001138267,新規,0,2025-04-07,2025-04-07,株式会社ジーセブン,,株式会社,千葉県,浦安市,富岡１丁目２１番５号,,12,227,2790021,,,,,,,2025-04-07,1,,,,,ジーセブン,0
1970,7040003027237,新規,0,2025-04-07,2025-04-07,エルピスコンサルティング合同会社,,合同会社,千葉県,柏市,若柴２２７－６柏の葉キャンパス１４７街区Ｆ－５０５号,,12,217,2770871,,,,,,,2025-04-07,1,,,,,エルピスコンサルティング,0
1971,7040003027253,新規,0,2025-04-07,2025-04-07,ＳＡＫＵＲＡ　ＡＵＴＯ合同会社,,合同会社,千葉県,我孫子市,中峠１８５９番地花島戸建３号,,12,222,2701121,,,,,,,2025-04-07,1,,,,,サクラオート,0
1972,7040003027261,新規,0,2025-04-07,2025-04-07,合同会社ＮＯＴＩＯＮＳ,,合同会社,千葉県,八千代市,勝田台３丁目３７－１０ハピネスハウスビフォーＮｏ２－２０１,,12,221,2760023,,,,,,,2025-04-07,1,,,,,ノーションズ,0
1973,7040005022707,新規,0,2025-04-07,2025-04-07,医療法人社団千本桜,,その他の設立登記法人,千葉県,木更津市,請西２丁目４番１５号,,12,206,2920801,,,,,,,2025-04-07,1,,,,,センボンザクラ,0
1974,7050001056427,新規,0,2025-04-07,2025-04-07,株式会社Ｅｍｉｎａｓ,,株式会社,茨城県,筑西市,飯島１８番地１,,08,227,3080064,,,,,,,2025-04-07,1,,,,,エミナス,0
1976,7060001038085,新規,0,2025-04-07,2025-04-07,ＨＩＣＳ株式会社,,株式会社,栃木県,那須塩原市,方京２丁目１番地１,,09,213,3293156,,,,,,,2025-04-07,1,,,,,ヒックス,0
1978,7070001042796,新規,0,2025-04-07,2025-04-07,ＯＫＡコーポレーション株式会社,,株式会社,群馬県,邑楽郡邑楽町,大字藤川２４５番地３,,10,525,3700605,,,,,,,2025-04-07,1,,,,,オカコーポレーション,0
1981,7080001026856,新規,0,2025-04-07,2025-04-07,ココリーフ株式会社,,株式会社,静岡県,静岡市駿河区,高松１９７２番地の２７,,22,102,4228034,,,,,,,2025-04-07,1,,,,,ココリーフ,0
1982,7080001026864,新規,0,2025-04-07,2025-04-07,株式会社ＮＩＣＯ　ＳＥＬＥＣＴ,,株式会社,静岡県,静岡市葵区,千代田６丁目３－８,,22,101,4200803,,,,,,,2025-04-07,1,,,,,ニコセレクト,0
1983,7080105006498,新規,0,2025-04-07,2025-04-07,一般社団法人小山町観光協会,,その他の設立登記法人,静岡県,駿東郡小山町,用沢７２番地の２,,22,344,4101326,,,,,,,2025-04-07,1,,,,,オヤマチョウカンコウキョウカイ,0
1986,7090001019223,新規,0,2025-04-07,2025-04-07,株式会社ＨＡＬ,,株式会社,山梨県,中央市,山之神２３８９―１５,,19,214,4093845,,,,,,,2025-04-07,1,,,,,ハル,0
1988,7100001038477,新規,0,2025-04-07,2025-04-07,株式会社つむぐ,,株式会社,長野県,安曇野市,堀金三田１７０６番地１,,20,220,3998212,,,,,,,2025-04-07,1,,,,,ツムグ,0
2000,7120001274178,新規,0,2025-04-07,2025-04-07,火誕株式会社,,株式会社,大阪府,大阪市城東区,関目５丁目１９番９号関目花博公館３１２Ｂ,,27,118,5360008,,,,,,,2025-04-07,1,,,,,カタン,0
2001,7120001274194,新規,0,2025-04-07,2025-04-07,甘正株式会社,,株式会社,大阪府,大阪市西成区,南津守７丁目１番１６－２０５室,,27,122,5570063,,,,,,,2025-04-07,1,,,,,カンショウ,0
2002,7120001274244,新規,0,2025-04-07,2025-04-07,株式会社上福,,株式会社,大阪府,大阪市浪速区,敷津西１丁目１番２８号ワキタビル４Ｄ,,27,111,5560015,,,,,,,2025-04-07,1,,,,,カミフク,0
2003,7120001274252,新規,0,2025-04-07,2025-04-07,唐億株式会社,,株式会社,大阪府,大阪市生野区,新今里６丁目５番７号２０２号室,,27,116,5440001,,,,,,,2025-04-07,1,,,,,トウオク,0
2004,7120001274566,新規,0,2025-04-07,2025-04-07,株式会社ＫＥＹ　Ｓｔｒｕｃｔｕｒｅ,,株式会社,大阪府,大阪市西区,南堀江３丁目１４番３２－１３０１号,,27,106,5500015,,,,,,,2025-04-07,1,,,,,キーストラクチャー,0
2005,7120001274599,新規,0,2025-04-07,2025-04-07,株式会社サンフォート,,株式会社,大阪府,大阪市北区,梅田１丁目２番２号大阪駅前第２ビル１２－１２,,27,127,5300001,,,,,,,2025-04-07,1,,,,,サンフォート,0
2010,7120101071376,新規,0,2025-04-07,2025-04-07,株式会社オートサービス・シロー,,株式会社,大阪府,河内長野市,日野１０３１番地の９,,27,216,5860085,,,,,,,2025-04-07,1,,,,,オートサービスシロー,0
2011,7120101071392,新規,0,2025-04-07,2025-04-07,株式会社Ｓｈｉｍａｄａ,,株式会社,大阪府,堺市中区,深阪２丁２番４１号２Ｆ,,27,142,5998253,,,,,,,2025-04-07,1,,,,,シマダ,0
2012,7120101071401,新規,0,2025-04-07,2025-04-07,株式会社カヤ,,株式会社,大阪府,富田林市,かがり台９番８号,,27,214,5840040,,,,,,,2025-04-07,1,,,,,カヤ,0
2017,7122001039057,新規,0,2025-04-07,2025-04-07,株式会社Ｃ＆Ｃ,,株式会社,大阪府,大東市,中楠の里町１７番７号,,27,218,5740006,,,,,,,2025-04-07,1,,,,,シーアンドシー,0
2021,7130001079329,新規,0,2025-04-07,2025-04-07,京播磨株式会社,,株式会社,京都府,京都市右京区,太秦安井西裏町２２番地２７,,26,108,6168065,,,,,,,2025-04-07,1,,,,,キョウハリマ,0
2022,7130001079353,新規,0,2025-04-07,2025-04-07,ＢＵＤＤＹ　ＣＯＮＳＵＬＴＩＮＧ株式会社,,株式会社,京都府,京都市下京区,河原町通松原下る植松町７１７番地,,26,106,6008028,,,,,,,2025-04-07,1,,,,,バディコンサルティング,0
2023,7130001079361,新規,0,2025-04-07,2025-04-07,株式会社ＤＯのリフォーム,,株式会社,京都府,京都市右京区,西院坤町１番地,,26,108,6150062,,,,,,,2025-04-07,1,,,,,ドゥノリフォーム,0
2028,7140005027456,新規,0,2025-04-07,2025-04-07,一般社団法人ワーキングラボ,,その他の設立登記法人,兵庫県,神戸市兵庫区,南逆瀬川町２－２１,,28,105,6520893,,,,,,,2025-04-07,1,,,,,ワーキングラボ,0
2032,7160003003440,新規,0,2025-04-07,2025-04-07,Ｎｕｒｓｅ　Ｃｏｎｓｕｌｔｏｒ合同会社,,合同会社,滋賀県,近江八幡市,安土町桑実寺３８番８８号,,25,204,5211321,,,,,,,2025-04-07,1,,,,,ナースコンサルター,0
2039,7180001166221,新規,0,2025-04-07,2025-04-07,株式会社寺下住宅工房,,株式会社,愛知県,名古屋市天白区,元八事３丁目２１６番地,,23,116,4680066,,,,,,,2025-04-07,1,,,,,テラシタジュウタクコウボウ,0
2040,7180001166262,新規,0,2025-04-07,2025-04-07,株式会社テクノエレック,,株式会社,愛知県,瀬戸市,北浦町２丁目１３番地,,23,204,4890915,,,,,,,2025-04-07,1,,,,,テクノエレック,0
2041,7180001166279,新規,0,2025-04-07,2025-04-07,株式会社ｙｏｕ,,株式会社,愛知県,名古屋市天白区,元八事３丁目１８番地（シャーメゾンｙｏｕ１０１号）,,23,116,4680066,,,,,,,2025-04-07,1,,,,,ユウ,0
2043,7180003028279,新規,0,2025-04-07,2025-04-07,合同会社ハグネス,,合同会社,愛知県,津島市,唐臼町６３－２,,23,208,4960026,,,,,,,2025-04-07,1,,,,,ハグネス,0
2047,7180301039663,新規,0,2025-04-07,2025-04-07,Ｔ．Ｗ．Ｃ．Ｓ株式会社,,株式会社,愛知県,額田郡幸田町,大字野場字井戸田１２５番地,,23,501,4440128,,,,,,,2025-04-07,1,,,,,ティーダブルシーエス,0
2048,7180301039671,新規,0,2025-04-07,2025-04-07,忰山土建工業株式会社,,株式会社,愛知県,豊川市,西香ノ木町１丁目１１番地の１,,23,207,4420834,,,,,,,2025-04-07,1,,,,,カセヤマドケンコウギョウ,0
2050,7190001032117,新規,0,2025-04-07,2025-04-07,株式会社名泗鉄工,,株式会社,三重県,四日市市,白須賀３丁目２番１８号,,24,202,5100018,,,,,,,2025-04-07,1,,,,,メイシテッコウ,0
2051,7190005012032,新規,0,2025-04-07,2025-04-07,一般社団法人多気町スポーツ協会,,その他の設立登記法人,三重県,多気郡多気町,相可１６０８番地,,24,441,5192181,,,,,,,2025-04-07,1,,,,,タキチョウスポーツキョウカイ,0
2056,7200001043590,新規,0,2025-04-07,2025-04-07,株式会社櫻井鉄筋,,株式会社,岐阜県,羽島郡笠松町,無動寺２６１番地の２,,21,303,5016033,,,,,,,2025-04-07,1,,,,,サクライテッキン,0
2057,7200001043599,新規,0,2025-04-07,2025-04-07,株式会社藤克工業,,株式会社,岐阜県,加茂郡八百津町,野上１４０５番地１,,21,505,5050307,,,,,,,2025-04-07,1,,,,,フジカツコウギョウ,0
2065,7220001026593,新規,0,2025-04-07,2025-04-07,株式会社Ｋｎｏｔ,,株式会社,石川県,能美市,小長野町チ７１番地１,,17,211,9231116,,,,,,,2025-04-07,1,,,,,ノット,0
2067,7220003003995,新規,0,2025-04-07,2025-04-07,合同会社Ｂｒａｃｅ,,合同会社,石川県,金沢市,額谷２丁目６４番地,,17,201,9218145,,,,,,,2025-04-07,1,,,,,ブレイス,0
2068,7230001020827,新規,0,2025-04-07,2025-04-07,株式会社ＮＯＲＥＡＣＨ,,株式会社,富山県,高岡市,姫野３９４番地１,,16,202,9340093,,,,,,,2025-04-07,1,,,,,ノーリーチ,0
2071,7240001064781,新規,0,2025-04-07,2025-04-07,株式会社ビンゴネクスト,,株式会社,広島県,福山市,新市町大字戸手６４０番地６,,34,207,7293101,,,,,,,2025-04-07,1,,,,,ビンゴネクスト,0
2072,7250005008998,新規,0,2025-04-07,2025-04-07,医療法人むくのき歯科医院,,その他の設立登記法人,山口県,山口市,鰐石町５番２０号,,35,203,7530044,,,,,,,2025-04-07,1,,,,,ムクノキシカイイン,0
2077,7260001040062,新規,0,2025-04-07,2025-04-07,株式会社ＳＥＬＥＣＴ　ＢＡＳＥ,,株式会社,岡山県,岡山市北区,今５丁目１－１５,,33,101,7000975,,,,,,,2025-04-07,1,,,,,セレクトベース,0
2080,7290001109499,新規,0,2025-04-07,2025-04-07,ＫＡＫＡＩ株式会社,,株式会社,福岡県,福岡市東区,原田２丁目１５番７号ホワイトランドコーポラス２０２,,40,131,8120063,,,,,,,2025-04-07,1,,,,,カカイ,0
2081,7290001109549,新規,0,2025-04-07,2025-04-07,セイコー開発株式会社,,株式会社,福岡県,福岡市東区,香椎照葉２丁目６番１号,,40,131,8130017,,,,,,,2025-04-07,1,,,,,セイコーカイハツ,0
2082,7290001109557,新規,0,2025-04-07,2025-04-07,株式会社ゼロワン,,株式会社,福岡県,久留米市,荒木町荒木１９７１番地５,,40,203,8300063,,,,,,,2025-04-07,1,,,,,ゼロワン,0
2084,7290003016636,新規,0,2025-04-07,2025-04-07,合同会社ＹＯＳＨＩＫＡＷＡ,,合同会社,福岡県,大川市,大字榎津３番地,,40,212,8310004,,,,,,,2025-04-07,1,,,,,ヨシカワ,0
2085,7290003016644,新規,0,2025-04-07,2025-04-07,合同会社ｍｙ　ｗａｙ,,合同会社,福岡県,糟屋郡粕屋町,駕与丁１丁目４番１号,,40,349,8112309,,,,,,,2025-04-07,1,,,,,マイウェイ,0
2086,7290003016660,新規,0,2025-04-07,2025-04-07,合同会社Ｂ‐ｃｏｒｔ,,合同会社,福岡県,福岡市城南区,友丘１丁目１８－５０－１,,40,136,8140112,,,,,,,2025-04-07,1,,,,,ビーコート,0
2087,7290005019694,新規,0,2025-04-07,2025-04-07,一般社団法人プロダクトデザイン研究所,,その他の設立登記法人,福岡県,福岡市中央区,桜坂３丁目２９番地３パークハイツ桜坂１０５号室,,40,133,8100024,,,,,,,2025-04-07,1,,,,,プロダクトデザインケンキュウジョ,0
2093,7300001014136,新規,0,2025-04-07,2025-04-07,株式会社ＬＴ,,株式会社,佐賀県,唐津市,唐川４６番地１号,,41,202,8470885,,,,,,,2025-04-07,1,,,,,エルティー,0
2094,7310001019530,新規,0,2025-04-07,2025-04-07,株式会社Ｏｓｈｉｋａ,,株式会社,長崎県,対馬市,上対馬町小鹿６７番地８,,42,209,8172241,,,,,,,2025-04-07,1,,,,,オシカ,0
2095,7310005008843,新規,0,2025-04-07,2025-04-07,一般社団法人かたりす,,その他の設立登記法人,長崎県,長崎市,中里町１６８６番地,,42,201,8510103,,,,,,,2025-04-07,1,,,,,カタリス,0
2096,7320005010229,新規,0,2025-04-07,2025-04-07,一般社団法人由布院ラ・ママ,,その他の設立登記法人,大分県,由布市,湯布院町川北８９４番地１９３,,44,213,8795114,,,,,,,2025-04-07,1,,,,,ユフインラママ,0
2102,7330003010931,新規,0,2025-04-07,2025-04-07,合同会社ウィルサポート,,合同会社,熊本県,熊本市南区,城南町築地８５２番地,,43,104,8614212,,,,,,,2025-04-07,1,,,,,ウィルサポート,0
2104,7340001027225,新規,0,2025-04-07,2025-04-07,Ｊ．Ｏ．Ａ．ＧＲＯＵＰ株式会社,,株式会社,鹿児島県,南九州市,頴娃町牧之内８０１２番地３,,46,223,8910702,,,,,,,2025-04-07,1,,,,,ジェイオーエイグループ,0
2118,7380001035216,新規,0,2025-04-07,2025-04-07,株式会社クレバー,,株式会社,福島県,郡山市,字桑野清水台４８番地の５,,07,203,9638866,,,,,,,2025-04-07,1,,,,,クレバー,0
2121,7400003003424,新規,0,2025-04-07,2025-04-07,軽米チキンタイム合同会社,,合同会社,岩手県,九戸郡軽米町,大字軽米第１地割４１番地,,03,501,0286302,,,,,,,2025-04-07,1,,,,,カルマイチキンタイム,0
2123,7430001094058,新規,0,2025-04-07,2025-04-07,株式会社ＭＩＮＡＴＯ,,株式会社,北海道,札幌市厚別区,上野幌三条５丁目５番３号,,01,108,0040033,,,,,,,2025-04-07,1,,,,,ミナト,0
2124,7430001094066,新規,0,2025-04-07,2025-04-07,うみごま株式会社,,株式会社,北海道,札幌市西区,八軒八条東５丁目５番１４号,,01,107,0630868,,,,,,,2025-04-07,1,,,,,ウミゴマ,0
2125,7430001094124,新規,0,2025-04-07,2025-04-07,株式会社マイライフ,,株式会社,北海道,札幌市東区,伏古八条４丁目７番１０号,,01,103,0070868,,,,,,,2025-04-07,1,,,,,マイライフ,0
2126,7430001094132,新規,0,2025-04-07,2025-04-07,株式会社北嶋屋,,株式会社,北海道,札幌市豊平区,平岸二条２丁目３番３２号,,01,105,0620932,,,,,,,2025-04-07,1,,,,,キタジマヤ,0
2127,7430003017504,新規,0,2025-04-07,2025-04-07,Ｍ’ｓライフ合同会社,,合同会社,北海道,札幌市中央区,南二条西２５丁目２‐２４裏参道２５ビル４階,,01,101,0640802,,,,,,,2025-04-07,1,,,,,エムズライフ,0
2137,7500003003471,新規,0,2025-04-07,2025-04-07,合同会社さくら,,合同会社,愛媛県,伊予郡砥部町,高尾田９９４番地１天王ハイツ３０８号,,38,402,7912101,,,,,,,2025-04-07,1,,,,,サクラ,0
2138,7500005008782,新規,0,2025-04-07,2025-04-07,一般社団法人愛媛県溶接協会,,その他の設立登記法人,愛媛県,新居浜市,新田町３丁目２番２７号新居浜ビル１Ｆ,,38,205,7920003,,,,,,,2025-04-07,1,,,,,エヒメケンヨウセツキョウカイ,0
2139,7700150129834,新規,0,2025-04-07,2025-04-07,東懿昇国際股斌有限公司,00138597,外国会社等,東京都,武蔵野市,吉祥寺北町２丁目１９番２６号６,,13,203,1800001,台湾桃園市桃園区大興西路一段２６６号１８階,,,,,,2025-04-07,1,,,,,トウギショウコクサイコブンユウゲンコウシ,0
2142,8010001253704,新規,0,2025-04-07,2025-04-07,ＴＯＫＹＯ　Ｒｅａｌｔｏｒ株式会社,,株式会社,東京都,中央区,新川１丁目２６－６－２０１,,13,102,1040033,,,,,,,2025-04-07,1,,,,,トウキョウリアルター,0
2143,8010001253844,新規,0,2025-04-07,2025-04-07,株式会社ＮＯＲＥＮ,,株式会社,東京都,中央区,銀座１丁目４番６号紅雀ビル２階,,13,102,1040061,,,,,,,2025-04-07,1,,,,,ノーレン,0
2144,8010001253869,新規,0,2025-04-07,2025-04-07,株式会社丸の内リアルエステート,,株式会社,東京都,千代田区,丸の内３丁目３番１号新東京ビル６階,,13,101,1000005,,,,,,,2025-04-07,1,,,,,マルノウチリアルエステート,0
2145,8010001253910,新規,0,2025-04-07,2025-04-07,山佐ネクストＮＤＬＨ２リース株式会社,,株式会社,東京都,千代田区,丸の内１丁目４番１号東京共同会計事務所内,,13,101,1000005,,,,,,,2025-04-07,1,,,,,ヤマサネクストエヌディーエルエイチツーリース,0
2146,8010001253919,新規,0,2025-04-07,2025-04-07,株式会社美能矢,,株式会社,東京都,文京区,千石１丁目２番１号,,13,105,1120011,,,,,,,2025-04-07,1,,,,,ミノヤ,0
2147,8010003046973,新規,0,2025-04-07,2025-04-07,ＧＴＭａｎａｇｅｍｅｎｔ合同会社,,合同会社,東京都,中央区,日本橋室町１丁目１１番１２号日本橋水野ビル７階,,13,102,1030022,,,,,,,2025-04-07,1,,,,,ジーティーマネジメント,0
2148,8010003046981,新規,0,2025-04-07,2025-04-07,合同会社音音,,合同会社,東京都,千代田区,神田練塀町３番ベルファース秋葉原１６０８,,13,101,1010022,,,,,,,2025-04-07,1,,,,,オトオト,0
2156,8010401189341,新規,0,2025-04-07,2025-04-07,株式会社いさな,,株式会社,東京都,港区,西麻布１丁目１１番６号ホテル＆レジデンス六本木１Ｆ,,13,103,1060031,,,,,,,2025-04-07,1,,,,,イサナ,0
2157,8010401189358,新規,0,2025-04-07,2025-04-07,ＥＭＴイノベーション株式会社,,株式会社,東京都,港区,赤坂１丁目３番５号赤坂アビタシオンビル２階,,13,103,1070052,,,,,,,2025-04-07,1,,,,,イーエムティーイノベーション,0
2160,8010403034768,新規,0,2025-04-07,2025-04-07,合同会社Ｃｏｎｔｅｎｔｓ　Ｗｏｒｌｄ,,合同会社,東京都,港区,北青山１丁目３番１号アールキューブ青山３階,,13,103,1070061,,,,,,,2025-04-07,1,,,,,コンテンツワールド,0
2161,8010403034776,新規,0,2025-04-07,2025-04-07,アヴァンター・ライフ・サイエンス合同会社,,合同会社,東京都,港区,元麻布３丁目１番６号,,13,103,1060046,,,,,,,2025-04-07,1,,,,,アヴァンターライフサイエンス,0
2162,8010403034784,新規,0,2025-04-07,2025-04-07,合同会社吉田不動産管理,,合同会社,東京都,港区,芝浦３丁目２番２３号東京都交通局田町第二寮６０２,,13,103,1080023,,,,,,,2025-04-07,1,,,,,ヨシダフドウサンカンリ,0
2166,8010601067017,新規,0,2025-04-07,2025-04-07,光翼合株式会社,,株式会社,東京都,江東区,東砂４丁目２４番３号９２７号室,,13,108,1360074,,,,,,,2025-04-07,1,,,,,コウヨクゴウ,0
2167,8010601067066,新規,0,2025-04-07,2025-04-07,株式会社オーベルヴィスタ,,株式会社,東京都,墨田区,墨田４丁目６１番９号,,13,107,1310031,,,,,,,2025-04-07,1,,,,,オーベルヴィスタ,0
2172,8010801035987,新規,0,2025-04-07,2025-04-07,株式会社Ｗｈａｔｅｖｅｒ,,株式会社,東京都,大田区,池上３丁目４０番６－５０３号,,13,111,1460082,,,,,,,2025-04-07,1,,,,,ホワットエバー,0
2173,8010801035995,新規,0,2025-04-07,2025-04-07,株式会社センチュリオン,,株式会社,東京都,大田区,西馬込１丁目３１番１１号,,13,111,1430026,,,,,,,2025-04-07,1,,,,,センチュリオン,0
2175,8010901057114,新規,0,2025-04-07,2025-04-07,ＳＹ．Ｐｒｕｎｎｉｎｇ株式会社,,株式会社,東京都,世田谷区,南烏山６丁目１４－６－３０８,,13,112,1570062,,,,,,,2025-04-07,1,,,,,エスワイプランニング,0
2176,8010903009823,新規,0,2025-04-07,2025-04-07,合同会社ＵＰＡＬＡＮＤ,,合同会社,東京都,世田谷区,船橋３丁目１５番１１ー１０３号,,13,112,1560055,,,,,,,2025-04-07,1,,,,,ウパランド,0
2179,8011003021289,新規,0,2025-04-07,2025-04-07,合同会社ｍｉｎｔ　ｔａｇ,,合同会社,東京都,渋谷区,代々木４丁目５番１５号,,13,113,1510053,,,,,,,2025-04-07,1,,,,,,0
2180,8011003021330,新規,0,2025-04-07,2025-04-07,フリーモーション合同会社,,合同会社,東京都,渋谷区,道玄坂１丁目１６－６二葉ビル８ｂ,,13,113,1500043,,,,,,,2025-04-07,1,,,,,フリーモーション,0
2182,8011101111223,新規,0,2025-04-07,2025-04-07,株式会社リバンク,,株式会社,東京都,新宿区,百人町２丁目２４番１号,,13,104,1690073,,,,,,,2025-04-07,1,,,,,リバンク,0
2183,8011103015703,新規,0,2025-04-07,2025-04-07,ＭＩＳＵＭＩＳＯ合同会社,,合同会社,東京都,新宿区,西早稲田１丁目２２－３,,13,104,1690051,,,,,,,2025-04-07,1,,,,,ミスミソウ,0
2184,8011201026247,新規,0,2025-04-07,2025-04-07,株式会社フォレストーネ,,株式会社,東京都,中野区,弥生町５丁目２番３号,,13,114,1640013,,,,,,,2025-04-07,1,,,,,フォレストーネ,0
2186,8011401026955,新規,0,2025-04-07,2025-04-07,山風株式会社,,株式会社,東京都,板橋区,徳丸８丁目１６番２号,,13,119,1750083,,,,,,,2025-04-07,1,,,,,ヤマカゼ,0
2188,8011503006475,新規,0,2025-04-07,2025-04-07,合同会社営拓,,合同会社,東京都,北区,志茂４丁目２８－１２－２０１,,13,117,1150042,,,,,,,2025-04-07,1,,,,,エイタク,0
2192,8011801045893,新規,0,2025-04-07,2025-04-07,中央株式会社,,株式会社,東京都,葛飾区,水元２丁目１０番７号エリービル１３０１,,13,122,1250032,,,,,,,2025-04-07,1,,,,,チュウオウ,0
2193,8011801045910,新規,0,2025-04-07,2025-04-07,Ｎｏｔｉｃｅ株式会社,,株式会社,東京都,足立区,綾瀬１丁目３３番２号,,13,121,1200005,,,,,,,2025-04-07,1,,,,,ノティス,0
2195,8012401042950,新規,0,2025-04-07,2025-04-07,株式会社りんごの家,,株式会社,東京都,調布市,西つつじケ丘１丁目３８番１８号,,13,208,1820006,,,,,,,2025-04-07,1,,,,,リンゴノイエ,0
2196,8012403007051,新規,0,2025-04-07,2025-04-07,合同会社三笠ポリシーアドバイザリ,,合同会社,東京都,三鷹市,深大寺１丁目７番１０号マイキャッスル三鷹南５０１号室,,13,204,1810016,,,,,,,2025-04-07,1,,,,,ミカサポリシーアドバイザリ,0
2199,8012801023864,新規,0,2025-04-07,2025-04-07,株式会社ウェルスビジョン,,株式会社,東京都,立川市,錦町１丁目４番４号サニービル２階ＣＳ－２４１,,13,202,1900022,,,,,,,2025-04-07,1,,,,,ウェルスビジョン,0
2200,8012801023872,新規,0,2025-04-07,2025-04-07,株式会社Ｒｕｌｅ,,株式会社,東京都,国分寺市,東元町４丁目４番３２号,,13,214,1850022,,,,,,,2025-04-07,1,,,,,ルール,0
2205,8020001162136,新規,0,2025-04-07,2025-04-07,株式会社東京車輌サービス,,株式会社,神奈川県,横浜市鶴見区,生麦３丁目１２番２８－４０５号,,14,101,2300052,,,,,,,2025-04-07,1,,,,,トウキョウシャリョウサービス,0
2206,8020001162169,新規,0,2025-04-07,2025-04-07,信和工業株式会社,,株式会社,神奈川県,横浜市金沢区,鳥浜町３番地９,,14,108,2360002,,,,,,,2025-04-07,1,,,,,シンワコウギョウ,0
2207,8020001162177,新規,0,2025-04-07,2025-04-07,株式会社Ｙｕｉｇａ‐Ｄｏｃｋ,,株式会社,神奈川県,横浜市西区,北幸２丁目１０番４８号むつみビル３階,,14,103,2200004,,,,,,,2025-04-07,1,,,,,ユイガドック,0
2208,8020001162219,新規,0,2025-04-07,2025-04-07,赤門不動産株式会社,,株式会社,神奈川県,横浜市西区,平沼１丁目１９番１８号,,14,103,2200023,,,,,,,2025-04-07,1,,,,,,0
2214,8021001084873,新規,0,2025-04-07,2025-04-07,絆地所株式会社,,株式会社,神奈川県,綾瀬市,寺尾南１丁目１番１５号,,14,218,2521134,,,,,,,2025-04-07,1,,,,,キズナジショ,0
2217,8021003015851,新規,0,2025-04-07,2025-04-07,ＩＢＵＫＩ　ＷＯＲＫＳ合同会社,,合同会社,神奈川県,茅ヶ崎市,東海岸北５丁目９―３２,,14,207,2530053,,,,,,,2025-04-07,1,,,,,イブキワークス,0
2226,8030001165690,新規,0,2025-04-07,2025-04-07,株式会社司電気,,株式会社,埼玉県,川口市,前上町７番１５－３号,,11,203,3330843,,,,,,,2025-04-07,1,,,,,ツカサデンキ,0
2227,8030001165724,新規,0,2025-04-07,2025-04-07,株式会社吉田工業,,株式会社,埼玉県,越谷市,大成町１丁目２１５０番地,,11,222,3430825,,,,,,,2025-04-07,1,,,,,ヨシダコウギョウ,0
2228,8030001165757,新規,0,2025-04-07,2025-04-07,株式会社カンエイエナジー,,株式会社,埼玉県,さいたま市南区,沼影２丁目１番１１－９０２号,,11,108,3360027,,,,,,,2025-04-07,1,,,,,カンエイエナジー,0
2229,8030001165773,新規,0,2025-04-07,2025-04-07,クラッチ株式会社,,株式会社,埼玉県,ふじみ野市,上福岡１丁目６番３８号花磯ビル１０２,,11,245,3560004,,,,,,,2025-04-07,1,,,,,クラッチ,0
2230,8030001165781,新規,0,2025-04-07,2025-04-07,株式会社ハウオリ,,株式会社,埼玉県,さいたま市南区,白幡４丁目１２番２７号,,11,108,3360022,,,,,,,2025-04-07,1,,,,,ハウオリ,0
2231,8030001165798,新規,0,2025-04-07,2025-04-07,株式会社ＴＪ,,株式会社,埼玉県,春日部市,南４丁目１３番１５号,,11,214,3440064,,,,,,,2025-04-07,1,,,,,ティージェー,0
2235,8030003026420,新規,0,2025-04-07,2025-04-07,ＲＫ合同会社,,合同会社,埼玉県,川口市,並木４丁目５番４号ハイツちあき１０１号,,11,203,3320034,,,,,,,2025-04-07,1,,,,,アールケイ,0
2236,8030003026478,新規,0,2025-04-07,2025-04-07,合同会社ＴＲＹ　ＩＴ,,合同会社,埼玉県,富士見市,針ケ谷２丁目１２番地３２,,11,235,3540017,,,,,,,2025-04-07,1,,,,,トライイット,0
2237,8030003026486,新規,0,2025-04-07,2025-04-07,クリエイトコネクション合同会社,,合同会社,埼玉県,戸田市,南町４－２８－４１４,,11,224,3350025,,,,,,,2025-04-07,1,,,,,クリエイトコネクション,0
2238,8030005022104,新規,0,2025-04-07,2025-04-07,社会福祉法人幸の会,,その他の設立登記法人,埼玉県,比企郡滑川町,大字羽尾３４９９番地３,,11,341,3550811,,,,,,,2025-04-07,1,,,,,サチノカイ,0
2248,8040001138068,新規,0,2025-04-07,2025-04-07,株式会社スマイルブリッジ,,株式会社,千葉県,市川市,東菅野２丁目２番２号,,12,203,2720823,,,,,,,2025-04-07,1,,,,,スマイルブリッジ,0
2249,8040001138118,新規,0,2025-04-07,2025-04-07,ＨＴＹ株式会社,,株式会社,千葉県,船橋市,上山町２丁目４１８番地８,,12,204,2730046,,,,,,,2025-04-07,1,,,,,エッチティーワイ,0
2250,8040001138183,新規,0,2025-04-07,2025-04-07,ＮＯＶＡ株式会社,,株式会社,千葉県,船橋市,坪井町３７２番地４,,12,204,2740062,,,,,,,2025-04-07,1,,,,,ノヴァ,0
2251,8040001138191,新規,0,2025-04-07,2025-04-07,株式会社田口造園,,株式会社,千葉県,印西市,小林３９４６番地３,,12,231,2701318,,,,,,,2025-04-07,1,,,,,タグチゾウエン,0
2256,8050001056434,新規,0,2025-04-07,2025-04-07,エスポワール株式会社,,株式会社,茨城県,神栖市,知手５１３６番地１,,08,232,3140115,,,,,,,2025-04-07,1,,,,,エスポワール,0
2260,8070001042820,新規,0,2025-04-07,2025-04-07,株式会社草津温泉動物病院,,株式会社,群馬県,吾妻郡草津町,大字草津５４７番地１３,,10,426,3771711,,,,,,,2025-04-07,1,,,,,クサツオンセンドウブツビョウイン,0
2263,8080001026863,新規,0,2025-04-07,2025-04-07,ＯＮＯ電気株式会社,,株式会社,静岡県,牧之原市,細江１９８０番地１ハイナンエステートビル１Ｆ,,22,226,4210421,,,,,,,2025-04-07,1,,,,,オーエヌオーデンキ,0
2265,8080105006497,新規,0,2025-04-07,2025-04-07,一般社団法人南伊豆まちのらぼ,,その他の設立登記法人,静岡県,賀茂郡南伊豆町,下賀茂８３９番地の３,,22,304,4150303,,,,,,,2025-04-07,1,,,,,ミナミイズマチノラボ,0
2266,8080401027841,新規,0,2025-04-07,2025-04-07,株式会社Ｃｈａｒｉｔｙ．,,株式会社,静岡県,浜松市中央区,篠原町９８３０番地の３,,22,138,4310201,,,,,,,2025-04-07,1,,,,,チャリティ,0
2268,8100001038443,新規,0,2025-04-07,2025-04-07,株式会社わんｔｉｍｅ,,株式会社,長野県,千曲市,大字上山田６６８番地５,,20,218,3890822,,,,,,,2025-04-07,1,,,,,ワンタイム,0
2269,8100001038468,新規,0,2025-04-07,2025-04-07,株式会社Ｎａｔｕｒｅ　Ｔｏｎｅｓ,,株式会社,長野県,上伊那郡南箕輪村,９５７４番地１,,20,385,3994511,,,,,,,2025-04-07,1,,,,,ネイチャートーンズ,0
2273,8100003008072,新規,0,2025-04-07,2025-04-07,合同会社千年の森自然学校,,合同会社,長野県,大町市,平２１１５番地２,,20,212,3980001,,,,,,,2025-04-07,1,,,,,センネンノモリシゼンガッコウ,0
2274,8100005013319,新規,0,2025-04-07,2025-04-07,一般社団法人もらいパートナーズ,,その他の設立登記法人,長野県,南佐久郡佐久穂町,大字大日向２１１９番地,,20,309,3840502,,,,,,,2025-04-07,1,,,,,モライパートナーズ,0
2275,8110001039168,新規,0,2025-04-07,2025-04-07,株式会社ヤマダガレージ,,株式会社,新潟県,燕市,吉田法花堂４８１２番地２,,15,213,9590214,,,,,,,2025-04-07,1,,,,,ヤマダガレージ,0
2292,8120001274045,新規,0,2025-04-07,2025-04-07,中通株式会社,,株式会社,大阪府,大阪市生野区,新今里３丁目４番１７号ＯＧビル６０６Ｂ,,27,116,5440001,,,,,,,2025-04-07,1,,,,,チュウツウ,0
2293,8120001274219,新規,0,2025-04-07,2025-04-07,神バ株式会社,,株式会社,大阪府,大阪市中央区,船場中央２丁目２番５号船場センタービル５号館地下一階Ｂ１２９ＲＯＹＡＬＯＦＦＩＣＥ内,,27,128,5410055,,,,,,,2025-04-07,1,,,,,ジンバ,0
2294,8120001274235,新規,0,2025-04-07,2025-04-07,希明安株式会社,,株式会社,大阪府,大阪市城東区,関目５丁目１９番９号関目花博公館６１１Ｂ,,27,118,5360008,,,,,,,2025-04-07,1,,,,,キメイアン,0
2295,8120001274243,新規,0,2025-04-07,2025-04-07,ＡＢ　ＴＲＡＤＩＮＧ株式会社,,株式会社,大阪府,大阪市東淀川区,菅原２丁目５番７１号,,27,114,5330022,,,,,,,2025-04-07,1,,,,,エービートレーディング,0
2296,8120001274251,新規,0,2025-04-07,2025-04-07,株式会社キャリアペンギン,,株式会社,大阪府,大阪市東成区,中本３丁目８－２１プレステイジ緑橋４０１,,27,115,5370022,,,,,,,2025-04-07,1,,,,,キャリアペンギン,0
2303,8120101071400,新規,0,2025-04-07,2025-04-07,羽衣商事株式会社,,株式会社,大阪府,堺市西区,鳳中町７丁２３１番地,,27,144,5938327,,,,,,,2025-04-07,1,,,,,ハゴロモショウジ,0
2304,8120101071425,新規,0,2025-04-07,2025-04-07,株式会社Ｒｅｓ　ｃｏｍｐａｎｙ,,株式会社,大阪府,羽曳野市,伊賀３丁目１３番２号,,27,222,5830876,,,,,,,2025-04-07,1,,,,,レスカンパニー,0
2305,8120105009990,新規,0,2025-04-07,2025-04-07,一般社団法人中谷アセットマネジメント,,その他の設立登記法人,大阪府,河内長野市,鳩原２２２番地,,27,216,5860055,,,,,,,2025-04-07,1,,,,,ナカヤアセットマネジメント,0
2308,8120901050669,新規,0,2025-04-07,2025-04-07,暮らすくーかん株式会社,,株式会社,大阪府,高槻市,芥川町２丁目１番５号２階,,27,207,5691123,,,,,,,2025-04-07,1,,,,,クラスクーカン,0
2309,8120901050677,新規,0,2025-04-07,2025-04-07,株式会社アスディライト,,株式会社,大阪府,茨木市,別院町５番７号ハヤシビル５０１号,,27,211,5670817,,,,,,,2025-04-07,1,,,,,アスディライト,0
2315,8122001039048,新規,0,2025-04-07,2025-04-07,株式会社志Ｌａｂｏ,,株式会社,大阪府,大東市,氷野２丁目２番２号大政ビル１階,,27,218,5740062,,,,,,,2025-04-07,1,,,,,ココロザシラボ,0
2317,8122003003159,新規,0,2025-04-07,2025-04-07,合同会社ライヴストーン,,合同会社,大阪府,八尾市,上尾町１丁目１８番地１,,27,212,5810851,,,,,,,2025-04-07,1,,,,,ライヴストーン,0
2320,8130001079377,新規,0,2025-04-07,2025-04-07,サンテック株式会社,,株式会社,京都府,長岡京市,勝竜寺八ノ坪１－６,,26,209,6170836,,,,,,,2025-04-07,1,,,,,サンテック,0
2328,8140001138090,新規,0,2025-04-07,2025-04-07,ヘルスケアサーカス株式会社,,株式会社,兵庫県,神戸市中央区,東川崎町１丁目５番８－１１０４号,,28,110,6500044,,,,,,,2025-04-07,1,,,,,ヘルスケアサーカス,0
2338,8150001028019,新規,0,2025-04-07,2025-04-07,株式会社Ｎｅｔｈｏｄｓ,,株式会社,奈良県,奈良市,中山町２００番地の８４,,29,201,6310012,,,,,,,2025-04-07,1,,,,,ネソッド,0
2339,8150003003548,新規,0,2025-04-07,2025-04-07,合同会社真柴,,合同会社,奈良県,奈良市,佐保台１丁目３５７１番地の１１８,,29,201,6308105,,,,,,,2025-04-07,1,,,,,マシバ,0
2340,8160001026649,新規,0,2025-04-07,2025-04-07,株式会社十色総建,,株式会社,滋賀県,長浜市,新庄中町３０６番地６,,25,203,5260012,,,,,,,2025-04-07,1,,,,,トイロソウケン,0
2341,8160005011390,新規,0,2025-04-07,2025-04-07,医療法人ＳＤＣ会,,その他の設立登記法人,滋賀県,草津市,草津２丁目１５－２４,,25,206,5250034,,,,,,,2025-04-07,1,,,,,エスディーシーカイ,0
2344,8180001166154,新規,0,2025-04-07,2025-04-07,株式会社ｙｕｊ,,株式会社,愛知県,名古屋市西区,城西２丁目１３番２２号クリオ名古屋城西３０２,,23,104,4510031,,,,,,,2025-04-07,1,,,,,ユジー,0
2345,8180001166162,新規,0,2025-04-07,2025-04-07,株式会社ｍａｎｍａ,,株式会社,愛知県,海部郡蟹江町,本町１丁目５５番地,,23,425,4970034,,,,,,,2025-04-07,1,,,,,マンマ,0
2346,8180001166179,新規,0,2025-04-07,2025-04-07,株式会社なないろ,,株式会社,愛知県,知多郡美浜町,大字奥田字海道田２８番地,,23,446,4703233,,,,,,,2025-04-07,1,,,,,ナナイロ,0
2347,8180001166195,新規,0,2025-04-07,2025-04-07,株式会社なつやすみ,,株式会社,愛知県,知多郡南知多町,大字内海字浦向２９番地,,23,445,4703321,,,,,,,2025-04-07,1,,,,,ナツヤスミ,0
2348,8180001166204,新規,0,2025-04-07,2025-04-07,株式会社リバティー,,株式会社,愛知県,名古屋市中川区,好本町３丁目３９番地インカントロト２０３号,,23,110,4540825,,,,,,,2025-04-07,1,,,,,リバティー,0
2349,8180001166237,新規,0,2025-04-07,2025-04-07,株式会社山田土地建物,,株式会社,愛知県,名古屋市千種区,松軒１丁目９番１０号,,23,101,4640084,,,,,,,2025-04-07,1,,,,,ヤマダトチタテモノ,0
2350,8180001166294,新規,0,2025-04-07,2025-04-07,株式会社クローバー,,株式会社,愛知県,名古屋市中川区,万場５丁目１６０９番地の５,,23,110,4540997,,,,,,,2025-04-07,1,,,,,クローバー,0
2355,8180301039670,新規,0,2025-04-07,2025-04-07,Ｓ・Ｋコーポレーション株式会社,,株式会社,愛知県,西尾市,十郎島町下縄７１番地,,23,213,4450045,,,,,,,2025-04-07,1,,,,,エスケイコーポレーション,0
2358,8200001043631,新規,0,2025-04-07,2025-04-07,株式会社ＨＩＤＡ　ＷＯＲＫＳ,,株式会社,岐阜県,飛騨市,古川町弐之町８－７,,21,217,5094235,,,,,,,2025-04-07,1,,,,,ヒダワークス,0
2362,8230001020826,新規,0,2025-04-07,2025-04-07,株式会社Ｆｉｘ　ｕｐキタ設備,,株式会社,富山県,射水市,三ケ２５３３番地２,,16,211,9390341,,,,,,,2025-04-07,1,,,,,フィックスアップキタセツビ,0
2363,8230003002401,新規,0,2025-04-07,2025-04-07,合同会社ＮＯＮ,,合同会社,富山県,富山市,桜橋通り３番１号富山電気ビルディング本館２階,,16,201,9300004,,,,,,,2025-04-07,1,,,,,ノン,0
2364,8240001064780,新規,0,2025-04-07,2025-04-07,株式会社ワイ・プラス,,株式会社,広島県,三原市,沼田東町末光１４０６番地１,,34,204,7230142,,,,,,,2025-04-07,1,,,,,ワイプラス,0
2369,8260003005120,新規,0,2025-04-07,2025-04-07,合同会社ＢＲＵＮＯ,,合同会社,岡山県,倉敷市,船穂町柳井原２３３３番地７,,33,202,7100263,,,,,,,2025-04-07,1,,,,,ブルーノ,0
2374,8290001109548,新規,0,2025-04-07,2025-04-07,株式会社フラッグス,,株式会社,福岡県,福岡市中央区,大手門１丁目９番１１号,,40,133,8100074,,,,,,,2025-04-07,1,,,,,フラッグス,0
2375,8290001109572,新規,0,2025-04-07,2025-04-07,創株式会社,,株式会社,福岡県,福岡市博多区,金の隈３丁目１１番３号,,40,132,8120863,,,,,,,2025-04-07,1,,,,,ソウ,0
2376,8290001109580,新規,0,2025-04-07,2025-04-07,まごころパートナーズ株式会社,,株式会社,福岡県,福岡市中央区,天神１丁目９番１７号,,40,133,8100001,,,,,,,2025-04-07,1,,,,,マゴコロパートナーズ,0
2380,8290801031389,新規,0,2025-04-07,2025-04-07,株式会社ユプシロン,,株式会社,福岡県,北九州市小倉南区,北方３丁目１２番１２号,,40,107,8020841,,,,,,,2025-04-07,1,,,,,ユプシロン,0
2383,8310003004983,新規,0,2025-04-07,2025-04-07,ＫＩクリエイト合同会社,,合同会社,長崎県,佐世保市,干尽町２番３号,,42,202,8570852,,,,,,,2025-04-07,1,,,,,ケイアイクリエイト,0
2384,8320001021030,新規,0,2025-04-07,2025-04-07,株式会社ＴＯＳアグリ,,株式会社,大分県,大分市,春日浦８４３番地２７,,44,201,8700100,,,,,,,2025-04-07,1,,,,,ティーオーエスアグリ,0
2388,8330001033041,新規,0,2025-04-07,2025-04-07,マシン・アイランド・コネクテッド株式会社,,株式会社,熊本県,玉名市,安楽寺深浦２１５５番地１,,43,206,8650014,,,,,,,2025-04-07,1,,,,,マシンアイランドコネクテッド,0
2394,8340003004790,新規,0,2025-04-07,2025-04-07,合同会社増田電器,,合同会社,鹿児島県,出水郡長島町,平尾２８１番地５,,46,404,8991302,,,,,,,2025-04-07,1,,,,,マスダデンキ,0
2396,8350003004897,新規,0,2025-04-07,2025-04-07,ＡＯＫＩ　ＭＯＴＯＲＣＹＣＬＥ合同会社,,合同会社,宮崎県,宮崎市,吉村町上西中甲１３６９番地１,,45,201,8800841,,,,,,,2025-04-07,1,,,,,アオキモーターサイクル,0
2398,8360001034986,新規,0,2025-04-07,2025-04-07,株式会社なんごく,,株式会社,沖縄県,豊見城市,字田頭１０４番地マンション運天１０１号,,47,212,9010234,,,,,,,2025-04-07,1,,,,,ナンゴク,0
2399,8360001034994,新規,0,2025-04-07,2025-04-07,株式会社ウンポコ,,株式会社,沖縄県,那覇市,真嘉比１丁目２４番１号,,47,201,9020068,,,,,,,2025-04-07,1,,,,,ウンポコ,0
2400,8360001035019,新規,0,2025-04-07,2025-04-07,株式会社ＫＮグループ,,株式会社,沖縄県,石垣市,字新川４１８番地１,,47,207,9070024,,,,,,,2025-04-07,1,,,,,ケイエヌグループ,0
2404,8370001052450,新規,0,2025-04-07,2025-04-07,株式会社ＢＯＸ,,株式会社,宮城県,仙台市宮城野区,幸町２丁目２３番１号,,04,102,9830836,,,,,,,2025-04-07,1,,,,,ボックス,0
2406,8380001035207,新規,0,2025-04-07,2025-04-07,ウエスレッジ株式会社,,株式会社,福島県,双葉郡富岡町,小浜４９７番地１２３,,07,543,9791111,,,,,,,2025-04-07,1,,,,,ウエスレッジ,0
2407,8380001035215,新規,0,2025-04-07,2025-04-07,株式会社成幸社,,株式会社,福島県,郡山市,昭和１丁目８番３号,,07,203,9638822,,,,,,,2025-04-07,1,,,,,セイコウシャ,0
2408,8380003006008,新規,0,2025-04-07,2025-04-07,合同会社ＨＡＲＵ,,合同会社,福島県,須賀川市,梅田字七ッ石９番地１,,07,207,9620303,,,,,,,2025-04-07,1,,,,,ハル,0
2409,8390001017947,新規,0,2025-04-07,2025-04-07,株式会社アイジャス,,株式会社,山形県,尾花沢市,大字正厳５００番地,,06,212,9994211,,,,,,,2025-04-07,1,,,,,アイジャス,0
2410,8420001019072,新規,0,2025-04-07,2025-04-07,クレイジーファーム株式会社,,株式会社,青森県,平川市,新屋町道ノ下３５番地２,,02,210,0360213,,,,,,,2025-04-07,1,,,,,クレイジーファーム,0
2411,8430001094040,新規,0,2025-04-07,2025-04-07,Ｃａｐｅｘ　Ｓｏｌｕｔｉｏｎｓ株式会社,,株式会社,北海道,札幌市中央区,北四条西４丁目１番７号,,01,101,0600004,,,,,,,2025-04-07,1,,,,,キャペックスソリューションズ,0
2412,8430001094057,新規,0,2025-04-07,2025-04-07,株式会社ＦＵＮＡＤＥ,,株式会社,北海道,札幌市厚別区,上野幌三条５丁目５番３号,,01,108,0040033,,,,,,,2025-04-07,1,,,,,フナデ,0
2413,8430001094123,新規,0,2025-04-07,2025-04-07,株式会社永伸組,,株式会社,北海道,札幌市西区,西野十条６丁目２番１号都ハウス７号室,,01,107,0630040,,,,,,,2025-04-07,1,,,,,エイシングミ,0
2417,8430003017453,新規,0,2025-04-07,2025-04-07,ＪＡ３Ｊａｐａｎ合同会社,,合同会社,北海道,虻田郡倶知安町,ニセコひらふ一条４丁目２番地７,,01,400,0440080,,,,,,,2025-04-07,1,,,,,ジェーエースリージャパン,0
2418,8430003017494,新規,0,2025-04-07,2025-04-07,合同会社ＳＥＩ,,合同会社,北海道,札幌市白石区,平和通１３丁目南１番３号,,01,104,0030028,,,,,,,2025-04-07,1,,,,,セイ,0
2419,8430003017503,新規,0,2025-04-07,2025-04-07,合同会社北熊テクノロジー,,合同会社,北海道,札幌市中央区,大通西８丁目１番地８－２０２号室,,01,101,0600042,,,,,,,2025-04-07,1,,,,,キタクマテクノロジー,0
2424,8490005006985,新規,0,2025-04-07,2025-04-07,一般社団法人尾川たいこ岩,,その他の設立登記法人,高知県,高岡郡佐川町,本郷耕３７２番地,,39,402,7891221,,,,,,,2025-04-07,1,,,,,オガワタイコイワ,0
2426,8500001026234,新規,0,2025-04-07,2025-04-07,ＪＦ‐７株式会社,,株式会社,愛媛県,西条市,神拝甲２１７番地７,,38,206,7930041,,,,,,,2025-04-07,1,,,,,ジェイエフセブン,0
2427,8700150129833,新規,0,2025-04-07,2025-04-07,Ｚａｎｉｎｉ（Ｃｈａｎｇｚｈｏｕ）Ａｕｔｏ　Ｐａｒｔｓ　Ｃｏ．，Ｌｔｄ,,外国会社等,神奈川県,横浜市中区,住吉町２丁目２２　松栄関内ビル２階　ＥＣＯＶＩＳ　ＡＫＩＡ　Ｔａｘ　Ｃｏｎｓｕｌｔａｎｔｓ株式会社内,,14,104,2310013,中国江蘇省常州市新北区春江路１３６号、５号Ｌｖ,,,,,,2025-04-07,1,,,,,ザニーニオートパーツシーオーエルティーディー,0
2437,9010001253777,新規,0,2025-04-07,2025-04-07,エムジェイシー株式会社,,株式会社,東京都,千代田区,有楽町１丁目２番２号,,13,101,1000006,,,,,,,2025-04-07,1,,,,,エムジェイシー,0
2438,9010001253785,新規,0,2025-04-07,2025-04-07,株式会社Ａｕｒｏｒａ　Ａｎｉｍａｔｉｏｎ,,株式会社,東京都,千代田区,神田三崎町１丁目３番９号,,13,101,1010061,,,,,,,2025-04-07,1,,,,,オーロラアニメーション,0
2439,9010001253819,新規,0,2025-04-07,2025-04-07,株式会社ＳＹＮＡＰＳＥ　ＤＥＡＬ,,株式会社,東京都,中央区,銀座１丁目１２番４号Ｎ＆ＥＢＬＤ．６Ｆ,,13,102,1040061,,,,,,,2025-04-07,1,,,,,シナプスディール,0
2440,9010001253835,新規,0,2025-04-07,2025-04-07,Ｄ＆Ｄ　Ｓｎａｐ　Ｓｏｌｕｔｉｏｎｓ株式会社,,株式会社,東京都,中央区,日本橋富沢町９番１９号,,13,102,1030006,,,,,,,2025-04-07,1,,,,,ディーアンドディースナップソリューションズ,0
2441,9010001253934,新規,0,2025-04-07,2025-04-07,株式会社Ｂｕｄｄｙ,,株式会社,東京都,中央区,築地４丁目４番１４号ラフィネ東銀座２０２,,13,102,1040045,,,,,,,2025-04-07,1,,,,,バディー,0
2444,9010003047005,新規,0,2025-04-07,2025-04-07,合同会社１００ｐｆ,,合同会社,東京都,千代田区,九段南１丁目５番６号りそな九段ビル５Ｆ、ＫＳフロア,,13,101,1020074,,,,,,,2025-04-07,1,,,,,ハンドレッドピーエフ,0
2449,9010105002337,新規,0,2025-04-07,2025-04-07,一般社団法人八王子ＧＸ推進機構,,その他の設立登記法人,東京都,八王子市,滝山町１丁目８８６番地１,,13,201,1920011,,,,,,,2025-04-07,1,,,,,ハチオウジジーエックススイシンキコウ,0
2455,9010401189299,新規,0,2025-04-07,2025-04-07,株式会社グリフォン,,株式会社,東京都,港区,虎ノ門３丁目２２番１４号,,13,103,1050001,,,,,,,2025-04-07,1,,,,,グリフォン,0
2456,9010401189340,新規,0,2025-04-07,2025-04-07,株式会社Ｔａｒｏ　Ｓｔｕｄｉｏ,,株式会社,東京都,港区,北青山１丁目３番３号,,13,103,1070061,,,,,,,2025-04-07,1,,,,,タロスタジオ,0
2457,9010401189373,新規,0,2025-04-07,2025-04-07,まごころグロース株式会社,,株式会社,東京都,港区,港南２丁目１５番１号,,13,103,1080075,,,,,,,2025-04-07,1,,,,,マゴコログロース,0
2458,9010401189456,新規,0,2025-04-07,2025-04-07,株式会社ＶａｌｕｅＰｒｅｓｅｎｃｅ,,株式会社,東京都,港区,赤坂８丁目６－９－４０８,,13,103,1070052,,,,,,,2025-04-07,1,,,,,バリュープレゼンス,0
2459,9010401189522,新規,0,2025-04-07,2025-04-07,株式会社Ｎ‐ＢＬＵＥ,,株式会社,東京都,港区,赤坂８丁目５番４０号,,13,103,1070052,,,,,,,2025-04-07,1,,,,,エヌブルー,0
2460,9010403034742,新規,0,2025-04-07,2025-04-07,合同会社Ｒ４Ｄ,,合同会社,東京都,港区,北青山１丁目３番３号三橋ビル３階,,13,103,1070061,,,,,,,2025-04-07,1,,,,,アールフォーディー,0
2464,9010501053883,新規,0,2025-04-07,2025-04-07,株式会社葵商事,,株式会社,東京都,台東区,東上野２丁目２番１号品田ビル３階,,13,106,1100015,,,,,,,2025-04-07,1,,,,,アオイショウジ,0
2469,9010701047504,新規,0,2025-04-07,2025-04-07,株式会社アーバンコネクト・パートナーズ,,株式会社,東京都,品川区,東品川４丁目１２番８号品川シーサイドイーストタワー,,13,109,1400002,,,,,,,2025-04-07,1,,,,,アーバンコネクトパートナーズ,0
2470,9010701047529,新規,0,2025-04-07,2025-04-07,株式会社ＬｉＦｅ,,株式会社,東京都,品川区,西五反田１丁目２８番４号田口ビル３Ｆ,,13,109,1410031,,,,,,,2025-04-07,1,,,,,ライフ,0
2471,9010703007646,新規,0,2025-04-07,2025-04-07,合同会社海の森水素ステーション,,合同会社,東京都,品川区,東品川３丁目７番６号,,13,109,1400002,,,,,,,2025-04-07,1,,,,,ウミノモリスイソステーション,0
2476,9010801036002,新規,0,2025-04-07,2025-04-07,株式会社Ａｙｓｓ,,株式会社,東京都,大田区,西六郷１丁目２番１４－３１２号,,13,111,1440056,,,,,,,2025-04-07,1,,,,,アイズ,0
2480,9010901057146,新規,0,2025-04-07,2025-04-07,株式会社空間工場,,株式会社,東京都,世田谷区,代田２丁目３２番４号,,13,112,1550033,,,,,,,2025-04-07,1,,,,,クウカンコウジョウ,0
2487,9011001168478,新規,0,2025-04-07,2025-04-07,Ｉ　ａｍ　ｈｕｍａｎ株式会社,,株式会社,東京都,目黒区,青葉台３丁目１－１２,,13,110,1530042,,,,,,,2025-04-07,1,,,,,アイアムヒューマン,0
2488,9011001168742,新規,0,2025-04-07,2025-04-07,株式会社サムライソード,,株式会社,東京都,渋谷区,千駄ヶ谷３丁目２９－３川本アパート２Ｄ,,13,113,1510051,,,,,,,2025-04-07,1,,,,,サムライソード,0
2489,9011001168775,新規,0,2025-04-07,2025-04-07,ＳＥＲＥＮＤＯ株式会社,,株式会社,東京都,渋谷区,道玄坂１丁目１０番８号渋谷道玄坂東急ビル２Ｆ－Ｃ,,13,113,1500043,,,,,,,2025-04-07,1,,,,,セレンド,0
2490,9011001168783,新規,0,2025-04-07,2025-04-07,株式会社ワンナビ,,株式会社,東京都,渋谷区,道玄坂１丁目１０番８号渋谷道玄坂東急ビル２Ｆ－Ｃ,,13,113,1500043,,,,,,,2025-04-07,1,,,,,ワンナビ,0
2491,9011001168858,新規,0,2025-04-07,2025-04-07,Ｔａｎｕ株式会社,,株式会社,東京都,渋谷区,渋谷２丁目１９―１５宮益坂ビルディング６０９,,13,113,1500002,,,,,,,2025-04-07,1,,,,,タヌ,0
2492,9011001168981,新規,0,2025-04-07,2025-04-07,株式会社ミクソロジー,,株式会社,東京都,渋谷区,渋谷２丁目１９－１５宮益坂ビルディング６０９,,13,113,1500002,,,,,,,2025-04-07,1,,,,,ミクソロジー,0
2495,9011101111214,新規,0,2025-04-07,2025-04-07,泓禹株式会社,,株式会社,東京都,新宿区,下落合１丁目５番９－４０７号,,13,104,1610033,,,,,,,2025-04-07,1,,,,,コウユウ,0
2497,9011201026270,新規,0,2025-04-07,2025-04-07,株式会社ウィル,,株式会社,東京都,中野区,丸山２丁目２８‐１８第２メゾン篠崎３０１,,13,114,1650021,,,,,,,2025-04-07,1,,,,,ウィル,0
2498,9011301030461,新規,0,2025-04-07,2025-04-07,株式会社Ｄｅｅｐ　Ｉｍｐａｃｔ,,株式会社,東京都,杉並区,方南２丁目１３番１１号,,13,115,1680062,,,,,,,2025-04-07,1,,,,,ディープインパクト,0
2499,9011301030478,新規,0,2025-04-07,2025-04-07,ＥＡＳＴ　ＬＩＮＫ　ＴＲＡＤＩＮＧ　ＬＴＤ東進商事株式会社,,株式会社,東京都,杉並区,永福１丁目３２番１０号,,13,115,1680064,,,,,,,2025-04-07,1,,,,,イーストリンクトレーディングエルティーディートウシンショウジ,0
2501,9011403004660,新規,0,2025-04-07,2025-04-07,未来合同会社,,合同会社,東京都,板橋区,中丸町５５－３－８０８,,13,119,1730026,,,,,,,2025-04-07,1,,,,,ミライ,0
2506,9011801045892,新規,0,2025-04-07,2025-04-07,コラ株式会社,,株式会社,東京都,葛飾区,水元２丁目１０番７号エリービル１２１０,,13,122,1250032,,,,,,,2025-04-07,1,,,,,コラ,0
2508,9012401042958,新規,0,2025-04-07,2025-04-07,株式会社ＳＬＥＤ,,株式会社,東京都,調布市,小島町１丁目２８番地２９,,13,208,1820026,,,,,,,2025-04-07,1,,,,,スレッド,0
2510,9012405005102,新規,0,2025-04-07,2025-04-07,一般社団法人セルヴィ・アカデミー・ジャパン,,その他の設立登記法人,東京都,三鷹市,下連雀６丁目２番１９号,,13,204,1810013,,,,,,,2025-04-07,1,,,,,セルヴィアカデミージャパン,0
2511,9012801023863,新規,0,2025-04-07,2025-04-07,莉汐電工株式会社,,株式会社,東京都,日野市,百草３５９番地八木方,,13,212,1910033,,,,,,,2025-04-07,1,,,,,リセデンコウ,0
2513,9013301054052,新規,0,2025-04-07,2025-04-07,株式会社未来,,株式会社,東京都,豊島区,池袋本町１丁目８番１７号共立第１ビル２０２号,,13,116,1700011,,,,,,,2025-04-07,1,,,,,ミライ,0
2519,9020001162151,新規,0,2025-04-07,2025-04-07,株式会社Ｗｈｉｔｅｓｍｉｔｈ,,株式会社,神奈川県,川崎市多摩区,登戸１９９２番地パークホームズ向ヶ丘遊園ステーションアリーナ３１１,,14,135,2140014,,,,,,,2025-04-07,1,,,,,ホワイトスミス,0
2520,9020001162192,新規,0,2025-04-07,2025-04-07,株式会社ディーオーケープランニング横浜,,株式会社,神奈川県,横浜市戸塚区,上矢部町１６０９番地１４,,14,110,2450053,,,,,,,2025-04-07,1,,,,,,0
2521,9020001162291,新規,0,2025-04-07,2025-04-07,株式会社ＭＴＨＬＫ,,株式会社,神奈川県,川崎市川崎区,日進町１－１１川崎ルフロン２階,,14,131,2100024,,,,,,,2025-04-07,1,,,,,エムティーエイチエルケー,0
2524,9020003028210,新規,0,2025-04-07,2025-04-07,リアルエッセンス合同会社,,合同会社,神奈川県,横浜市西区,みなとみらい４丁目４－２横浜ブルーアベニュー１２階,,14,103,2200012,,,,,,,2025-04-07,1,,,,,リアルエッセンス,0
2526,9020005016766,新規,0,2025-04-07,2025-04-07,一般社団法人縁パワー人材開発研究センター,,その他の設立登記法人,神奈川県,横浜市港南区,大久保２丁目２番２７－６０５号,,14,111,2330007,,,,,,,2025-04-07,1,,,,,エンパワージンザイカイハツケンキュウセンター,0
2533,9021001084567,新規,0,2025-04-07,2025-04-07,ＤＯＭＹ株式会社,,株式会社,神奈川県,相模原市中央区,相模原５丁目１１番１－５０８号,,14,152,2520231,,,,,,,2025-04-07,1,,,,,ドミー,0
2534,9021001084872,新規,0,2025-04-07,2025-04-07,愛工サステナビリティ株式会社,,株式会社,神奈川県,秦野市,南が丘４丁目５番地の３３,,14,211,2570013,,,,,,,2025-04-07,1,,,,,,0
2545,9030001165657,新規,0,2025-04-07,2025-04-07,株式会社リード,,株式会社,埼玉県,越谷市,新越谷１丁目２１番地１,,11,222,3430857,,,,,,,2025-04-07,1,,,,,リード,0
2546,9030001165681,新規,0,2025-04-07,2025-04-07,ホームテックホールディングス株式会社,,株式会社,埼玉県,越谷市,東越谷５丁目３番地９,,11,222,3430023,,,,,,,2025-04-07,1,,,,,ホームテックホールディングス,0
2547,9030001165698,新規,0,2025-04-07,2025-04-07,株式会社３ｒｄｗａｙ,,株式会社,埼玉県,川口市,末広１丁目３番３１－２０１号レーベンスクエア川口シルフィア,,11,203,3320006,,,,,,,2025-04-07,1,,,,,サードウェイ,0
2548,9030001165707,新規,0,2025-04-07,2025-04-07,株式会社ブリッジ,,株式会社,埼玉県,深谷市,小前田１６４７番地１,,11,218,3691246,,,,,,,2025-04-07,1,,,,,ブリッジ,0
2549,9030001165715,新規,0,2025-04-07,2025-04-07,株式会社内田企画,,株式会社,埼玉県,さいたま市緑区,東大門１丁目６番地１０,,11,109,3360964,,,,,,,2025-04-07,1,,,,,ウチダキカク,0
2550,9030001165723,新規,0,2025-04-07,2025-04-07,Ｍａｓａｒｏ株式会社,,株式会社,埼玉県,富士見市,針ケ谷１丁目１９番地３５,,11,235,3540017,,,,,,,2025-04-07,1,,,,,マサロ,0
2551,9030001165731,新規,0,2025-04-07,2025-04-07,株式会社２ｃｏｌｏｒｓ,,株式会社,埼玉県,深谷市,東方２７５５番地５,,11,218,3660041,,,,,,,2025-04-07,1,,,,,ツーカラーズ,0
2552,9030001165748,新規,0,2025-04-07,2025-04-07,株式会社石川設備,,株式会社,埼玉県,戸田市,本町４丁目７番２６号カームレジデンスプロローグ５０２,,11,224,3350023,,,,,,,2025-04-07,1,,,,,イシカワセツビ,0
2553,9030001165756,新規,0,2025-04-07,2025-04-07,株式会社Ｌｉｆｅ　ｉｓ　Ｏｎｃｅ,,株式会社,埼玉県,さいたま市岩槻区,仲町２丁目１３－７－４リアン２０１,,11,110,3390054,,,,,,,2025-04-07,1,,,,,ライフイズワンス,0
2554,9030001165764,新規,0,2025-04-07,2025-04-07,株式会社ケーアール,,株式会社,埼玉県,八潮市,大字八條２８０６番地２６,,11,234,3400801,,,,,,,2025-04-07,1,,,,,ケーアール,0
2555,9030001165789,新規,0,2025-04-07,2025-04-07,ＹＵＡＮＹＵＥ株式会社,,株式会社,埼玉県,比企郡小川町,大字腰越４０番地４,,11,343,3550327,,,,,,,2025-04-07,1,,,,,ユェンユエ,0
2556,9030001165797,新規,0,2025-04-07,2025-04-07,株式会社比隣,,株式会社,埼玉県,川口市,並木３丁目２４－２１川坂ビル２Ｆ,,11,203,3320034,,,,,,,2025-04-07,1,,,,,ヒリン,0
2565,9030003026469,新規,0,2025-04-07,2025-04-07,合同会社ＳＰＯＲＴＳ　ＥＮＲＩＣＨ,,合同会社,埼玉県,ふじみ野市,大井中央３丁目５－１,,11,245,3560058,,,,,,,2025-04-07,1,,,,,スポーツエンリッチ,0
2566,9030003026477,新規,0,2025-04-07,2025-04-07,合同会社石塚運送,,合同会社,埼玉県,川口市,芝西２丁目２番２１号ファーストスプリング２０２,,11,203,3330855,,,,,,,2025-04-07,1,,,,,イシヅカウンソウ,0
2567,9030003026485,新規,0,2025-04-07,2025-04-07,ラムコ合同会社,,合同会社,埼玉県,さいたま市南区,大字大谷口７８５番地１２,,11,108,3360042,,,,,,,2025-04-07,1,,,,,ラムコ,0
2575,9040001138125,新規,0,2025-04-07,2025-04-07,マーチ株式会社,,株式会社,千葉県,我孫子市,船戸２丁目２番２７号（２０３号）ジュネパレス我孫子第一,,12,222,2701158,,,,,,,2025-04-07,1,,,,,マーチ,0
2576,9040001138182,新規,0,2025-04-07,2025-04-07,株式会社テトラブースト,,株式会社,千葉県,市川市,鬼高３丁目２０－２４,,12,203,2720015,,,,,,,2025-04-07,1,,,,,テトラブースト,0
2580,9050001056466,新規,0,2025-04-07,2025-04-07,株式会社ＡＤＤ　ＦＯＲＣＥ,,株式会社,茨城県,つくば市,館野５番地１,,08,220,3050067,,,,,,,2025-04-07,1,,,,,アッドフォース,0
2587,9070001042811,新規,0,2025-04-07,2025-04-07,株式会社ＣＯＡＴ,,株式会社,群馬県,伊勢崎市,国定町１丁目４８番地１,,10,204,3792221,,,,,,,2025-04-07,1,,,,,コート,0
2589,9080003003430,新規,0,2025-04-07,2025-04-07,ＡＳＫ合同会社,,合同会社,静岡県,静岡市駿河区,用宗５丁目１８番２５号,,22,102,4210122,,,,,,,2025-04-07,1,,,,,エーエスケー,0
2590,9080005007685,新規,0,2025-04-07,2025-04-07,特定非営利活動法人ＲＩＳＥ,,その他の設立登記法人,静岡県,藤枝市,駅前１丁目８番３号Ｍｉｋｉｎｅ１階,,22,214,4260034,,,,,,,2025-04-07,1,,,,,ライズ,0
2596,9080401027849,新規,0,2025-04-07,2025-04-07,株式会社桜,,株式会社,静岡県,浜松市浜名区,小松７１１番地の１,,22,139,4340042,,,,,,,2025-04-07,1,,,,,サクラ,0
2603,9100001038459,新規,0,2025-04-07,2025-04-07,株式会社フォンス準備・スリー,,株式会社,長野県,北佐久郡軽井沢町,大字軽井沢１０７５番地４７,,20,321,3890102,,,,,,,2025-04-07,1,,,,,フォンスジュンビスリー,0
2604,9100001038475,新規,0,2025-04-07,2025-04-07,ＹＯＳＨＩＪＩ　ＶＩＮＥＹＡＲＤＳ株式会社,,株式会社,長野県,諏訪郡富士見町,富士見８３５６番地３,,20,362,3990211,,,,,,,2025-04-07,1,,,,,ヨシジヴィンヤーズ,0
2607,9110003005729,新規,0,2025-04-07,2025-04-07,合同会社ＴＷ,,合同会社,新潟県,新潟市中央区,幸西２丁目１―５ディークレスト幸西ブランＢ７０６,,15,103,9500908,,,,,,,2025-04-07,1,,,,,ティーダブリュ,0
2615,9120001274044,新規,0,2025-04-07,2025-04-07,金瑶株式会社,,株式会社,大阪府,大阪市生野区,小路東６丁目８番１７号昭和エクセルビュー東大阪１０３－Ｇ０８,,27,116,5440003,,,,,,,2025-04-07,1,,,,,キンヨウ,0
2616,9120001274226,新規,0,2025-04-07,2025-04-07,大仁オートサービス株式会社,,株式会社,大阪府,大阪市東淀川区,小松５丁目６番４１号,,27,114,5330004,,,,,,,2025-04-07,1,,,,,ダイニオートサービス,0
2617,9120001274234,新規,0,2025-04-07,2025-04-07,大昌株式会社,,株式会社,大阪府,大阪市城東区,関目５丁目１９番９号関目花博公館１１０Ｂ,,27,118,5360008,,,,,,,2025-04-07,1,,,,,ダイショウ,0
2618,9120001274242,新規,0,2025-04-07,2025-04-07,中橋株式会社,,株式会社,大阪府,大阪市西成区,花園南１丁目６番１０－２０４号,,27,122,5570015,,,,,,,2025-04-07,1,,,,,ナカハシ,0
2619,9120001274250,新規,0,2025-04-07,2025-04-07,バティール株式会社,,株式会社,大阪府,大阪市中央区,南本町３丁目３番２３号インペリアル船場１１０２,,27,128,5410054,,,,,,,2025-04-07,1,,,,,バティール,0
2620,9120001274275,新規,0,2025-04-07,2025-04-07,株式会社ＩＧＮＥＸ,,株式会社,大阪府,大阪市中央区,瓦町３丁目２番１５号,,27,128,5410048,,,,,,,2025-04-07,1,,,,,イグネックス,0
2624,9120003029041,新規,0,2025-04-07,2025-04-07,合同会社ＳＯＬＡＳＣ,,合同会社,大阪府,大阪市北区,梅田１丁目２番２号大阪駅前第２ビル１２－１２,,27,127,5300001,,,,,,,2025-04-07,1,,,,,ソラスク,0
2625,9120101071399,新規,0,2025-04-07,2025-04-07,株式会社ＤＵＳＴＯＬ　ＱＵＡＬＩＴＹ　ＳＥＲＶＩＣＥ　ＣＯＭＰＡＮＹ,,株式会社,大阪府,堺市中区,八田寺町４７１番地６八田寺町倉庫１０４号,,27,142,5998267,,,,,,,2025-04-07,1,,,,,ダストルクオリティサービスカンパニー,0
2626,9120101071408,新規,0,2025-04-07,2025-04-07,株式会社ＢＵＤＩＲＯＳＳ,,株式会社,大阪府,和泉市,はつが野４丁目２０番２０号,,27,219,5941106,,,,,,,2025-04-07,1,,,,,バディロス,0
2627,9120101071424,新規,0,2025-04-07,2025-04-07,辰心株式会社,,株式会社,大阪府,堺市北区,長曽根町３０６９番地１－９０２号,,27,146,5918025,,,,,,,2025-04-07,1,,,,,タツシン,0
2629,9120901050676,新規,0,2025-04-07,2025-04-07,株式会社ＯＫコーポレーション,,株式会社,大阪府,高槻市,真上町２丁目１２番２５－２０５号,,27,207,5691121,,,,,,,2025-04-07,1,,,,,オーケーコーポレーション,0
2630,9120901050684,新規,0,2025-04-07,2025-04-07,株式会社ＴＯ　ＢＥ　ＣＯＮＮＥＣＴ,,株式会社,大阪府,箕面市,小野原西６丁目１２番３１号,,27,220,5620032,,,,,,,2025-04-07,1,,,,,トゥービーコネクト,0
2634,9130001079368,新規,0,2025-04-07,2025-04-07,京都フィロソフィー・コンサルティング株式会社,,株式会社,京都府,京都市北区,上賀茂榊田町５７番地２,,26,101,6038051,,,,,,,2025-04-07,1,,,,,キョウトフィロソフィーコンサルティング,0
2635,9130003010347,新規,0,2025-04-07,2025-04-07,合同会社ｔｏｍｏｓｉｂｉ　ｐａｒｔｎｅｒｓ,,合同会社,京都府,京都市下京区,中堂寺粟田町９３ＫＲＰ４号館,,26,106,6008815,,,,,,,2025-04-07,1,,,,,トモシビパートナーズ,0
2640,9140001137983,新規,0,2025-04-07,2025-04-07,ＷＥ　Ｔｅｃｈ　Ｓｏｌｕｔｉｏｎｓ株式会社,,株式会社,兵庫県,神戸市中央区,下山手通４丁目１２番３号中日輸船商事株式会社内,,28,110,6500011,,,,,,,2025-04-07,1,,,,,ウィーテックソリューションズ,0
2641,9140001138032,新規,0,2025-04-07,2025-04-07,株式会社まなはる,,株式会社,兵庫県,姫路市,飾磨区中島５１９番地,,28,201,6728035,,,,,,,2025-04-07,1,,,,,マナハル,0
2648,9160001026648,新規,0,2025-04-07,2025-04-07,株式会社ＲｅＳＨＩＮＥ,,株式会社,滋賀県,草津市,西大路町４番３２－６０７号,,25,206,5250037,,,,,,,2025-04-07,1,,,,,リシャイン,0
2649,9160001026656,新規,0,2025-04-07,2025-04-07,株式会社ＹＯＴＴＥＫＯ,,株式会社,滋賀県,草津市,片岡町１７１番地５１,,25,206,5250011,,,,,,,2025-04-07,1,,,,,ヨッテコ,0
2651,9180001166161,新規,0,2025-04-07,2025-04-07,株式会社ＬＯＬＡＭ,,株式会社,愛知県,半田市,清城町１丁目１２番地の２１,,23,205,4750917,,,,,,,2025-04-07,1,,,,,ローラム,0
2652,9180001166203,新規,0,2025-04-07,2025-04-07,株式会社コスモス,,株式会社,愛知県,名古屋市中区,正木４丁目８番７号,,23,106,4600024,,,,,,,2025-04-07,1,,,,,コスモス,0
2653,9180001166211,新規,0,2025-04-07,2025-04-07,株式会社営,,株式会社,愛知県,名古屋市西区,名駅２丁目３４番１７号,,23,104,4510045,,,,,,,2025-04-07,1,,,,,イトナミ,0
2656,9180301039686,新規,0,2025-04-07,2025-04-07,株式会社ｅｌｅｖｅｎ,,株式会社,愛知県,豊橋市,東脇１丁目２８番地７,,23,201,4418083,,,,,,,2025-04-07,1,,,,,イレブン,0
2658,9190001032131,新規,0,2025-04-07,2025-04-07,株式会社ホリウチ,,株式会社,三重県,三重郡菰野町,大字池底５７,,24,341,5101221,,,,,,,2025-04-07,1,,,,,ホリウチ,0
2659,9190003004987,新規,0,2025-04-07,2025-04-07,合同会社ｐｒｏｍｏｎｔｏｒｙ,,合同会社,三重県,津市,広明町３７１ハシモトビル４０３号室,,24,201,5140006,,,,,,,2025-04-07,1,,,,,パーメントリー,0
2660,9200001043614,新規,0,2025-04-07,2025-04-07,株式会社グットラック,,株式会社,岐阜県,岐阜市,加納清水町１丁目４番地,,21,201,5008429,,,,,,,2025-04-07,1,,,,,グットラック,0
2663,9210001020133,新規,0,2025-04-07,2025-04-07,株式会社第三編集室,,株式会社,福井県,越前市,天王町３－２１,,18,209,9150068,,,,,,,2025-04-07,1,,,,,ダイサンヘンシュウシツ,0
2668,9220001026591,新規,0,2025-04-07,2025-04-07,オフィスエムジェイ株式会社,,株式会社,石川県,金沢市,二口町ニ４４－６,,17,201,9200051,,,,,,,2025-04-07,1,,,,,オフィスエムジェイ,0
2669,9220003003993,新規,0,2025-04-07,2025-04-07,合同会社ミュー,,合同会社,石川県,金沢市,長田町５番２２号,,17,201,9200042,,,,,,,2025-04-07,1,,,,,ミュー,0
2675,9240001064771,新規,0,2025-04-07,2025-04-07,株式会社インテリオール,,株式会社,広島県,広島市南区,堀越１丁目７番１０－７号,,34,103,7340052,,,,,,,2025-04-07,1,,,,,インテリオール,0
2676,9240005015928,新規,0,2025-04-07,2025-04-07,一般社団法人ａｓＩａｍ,,その他の設立登記法人,広島県,広島市西区,都町９－３ハイツ達川２０２号,,34,104,7330023,,,,,,,2025-04-07,1,,,,,アズアイアム,0
2686,9290001109480,新規,0,2025-04-07,2025-04-07,株式会社ＯＹＢ,,株式会社,福岡県,福岡市中央区,大名１丁目３番３５－６０７号,,40,133,8100041,,,,,,,2025-04-07,1,,,,,オーワイビー,0
2687,9290001109506,新規,0,2025-04-07,2025-04-07,株式会社ＣＯＬＯＲ　ｏｆ　ＬＩＦＥ,,株式会社,福岡県,大野城市,旭ケ丘２丁目２番１５号ベレーザ旭ケ丘２０３号,,40,219,8160953,,,,,,,2025-04-07,1,,,,,カラーオブライフ,0
2688,9290001109547,新規,0,2025-04-07,2025-04-07,株式会社バリューアップファクトリー,,株式会社,福岡県,福岡市早良区,飯倉７丁目１１番２２号,,40,137,8140161,,,,,,,2025-04-07,1,,,,,バリューアップファクトリー,0
2689,9290001109555,新規,0,2025-04-07,2025-04-07,株式会社Ａ．Ｒ．Ｃ,,株式会社,福岡県,春日市,弥生３丁目８５－１三菱シティライフ春日２０５号室,,40,218,8160862,,,,,,,2025-04-07,1,,,,,エーアールシー,0
2690,9290001109563,新規,0,2025-04-07,2025-04-07,株式会社Ｖ．Ｔ．Ｇ,,株式会社,福岡県,糟屋郡須惠町,大字旅石７２番地１９３,,40,344,8112221,,,,,,,2025-04-07,1,,,,,ブイティージー,0
2691,9290001109621,新規,0,2025-04-07,2025-04-07,株式会社Ｐｌｕｓ,,株式会社,福岡県,福岡市南区,野間２丁目３－１５野間ハイム２０１号室,,40,134,8150041,,,,,,,2025-04-07,1,,,,,プラス,0
2692,9290003016618,新規,0,2025-04-07,2025-04-07,合同会社真医会,,合同会社,福岡県,糟屋郡粕屋町,酒殿４丁目１７番５－１０２号,,40,349,8112303,,,,,,,2025-04-07,1,,,,,シンイカイ,0
2693,9290003016634,新規,0,2025-04-07,2025-04-07,合同会社Ｈｉｋａｒｉ．,,合同会社,福岡県,久留米市,三潴町高三潴１１５５番地４,,40,203,8300103,,,,,,,2025-04-07,1,,,,,ヒカリ,0
2694,9290003016650,新規,0,2025-04-07,2025-04-07,合同会社Ｊｏｊｉｍａ　Ａｇｒｉ,,合同会社,福岡県,久留米市,城島町四郎丸２６８－２,,40,203,8300223,,,,,,,2025-04-07,1,,,,,ジョウジマアグリ,0
2696,9290801031421,新規,0,2025-04-07,2025-04-07,株式会社米安総合企画,,株式会社,福岡県,田川市,大字弓削田３５１番地２,,40,206,8260041,,,,,,,2025-04-07,1,,,,,ヨネヤスソウゴウキカク,0
2700,9300001014134,新規,0,2025-04-07,2025-04-07,リフルット株式会社,,株式会社,佐賀県,唐津市,和多田先石１番５号,,41,202,8470074,,,,,,,2025-04-07,1,,,,,リフルット,0
2703,9320003004627,新規,0,2025-04-07,2025-04-07,合同会社ｍａｇｅｎｔａ,,合同会社,大分県,別府市,大字南立石１０８１番地の１０２,,44,202,8740000,,,,,,,2025-04-07,1,,,,,マジェンタ,0
2705,9330001033073,新規,0,2025-04-07,2025-04-07,株式会社ＢＩＬ,,株式会社,熊本県,熊本市中央区,坪井６丁目２４番２５号,,43,101,8600863,,,,,,,2025-04-07,1,,,,,ビーアイエル,0
2706,9330005010894,新規,0,2025-04-07,2025-04-07,一般社団法人陰陽術式研究所,,その他の設立登記法人,熊本県,熊本市中央区,中央街４番２２号アルバ銀座通りビル２－８Ｆ,,43,101,8600802,,,,,,,2025-04-07,1,,,,,オンミョウジュツシキケンキュウジョ,0
2708,9340001027231,新規,0,2025-04-07,2025-04-07,ハマデン株式会社,,株式会社,鹿児島県,霧島市,国分敷根３１８番地１,,46,218,8994462,,,,,,,2025-04-07,1,,,,,ハマデン,0
2710,9350001019467,新規,0,2025-04-07,2025-04-07,株式会社黒瀬シーフーズ,,株式会社,宮崎県,串間市,西浜２丁目１５番地４,,45,207,8880012,,,,,,,2025-04-07,1,,,,,クロセシーフーズ,0
2711,9350003004896,新規,0,2025-04-07,2025-04-07,合同会社フロンティア,,合同会社,宮崎県,児湯郡新富町,大字上富田３３６１番地１メゾン秋山ＩＩＩ２０２号,00138604,45,402,8891403,,,,,,,2025-04-07,1,,,,,フロンティア,0
2713,9360001034977,新規,0,2025-04-07,2025-04-07,株式会社Ｗｅｌｆａｒｅ,,株式会社,沖縄県,那覇市,若狭２丁目７－８・２０２,,47,201,9000031,,,,,,,2025-04-07,1,,,,,ウェルフェア,0
2715,9360003014812,新規,0,2025-04-07,2025-04-07,合同会社かなさ運送,,合同会社,沖縄県,沖縄市,宮里４丁目４番１０号,,47,211,9042165,,,,,,,2025-04-07,1,,,,,カナサウンソウ,0
2718,9370003007022,新規,0,2025-04-07,2025-04-07,合同会社ユニゾンキャピタル,,合同会社,宮城県,仙台市青葉区,北根黒松１７番３７－２号,,04,101,9810901,,,,,,,2025-04-07,1,,,,,ユニゾンキャピタル,0
2719,9380001035214,新規,0,2025-04-07,2025-04-07,株式会社ＦｒｅｅＳｅｒｖｉｃｅＣｏｍｐａｎｙ,,株式会社,福島県,郡山市,駅前２丁目３番地７エリート３０ビル２Ｆ／３Ｆ,,07,203,9638002,,,,,,,2025-04-07,1,,,,,フリーサービスカンパニー,0
2720,9380005012952,新規,0,2025-04-07,2025-04-07,医療法人豊栄会,,その他の設立登記法人,福島県,福島市,栄町６番１号メディアシティエスタビル２階,,07,201,9608031,,,,,,,2025-04-07,1,,,,,ホウエイカイ,0
2722,9390003002368,新規,0,2025-04-07,2025-04-07,合同会社ギャラリーナナビーンズ,,合同会社,山形県,山形市,七日町２丁目７番１０号,,06,201,9900042,,,,,,,2025-04-07,1,,,,,ギャラリーナナビーンズ,0
2732,9430001094080,新規,0,2025-04-07,2025-04-07,株式会社Ｏｎｅ　Ｐｒｏｄｕｃｅ　Ｔｅａｍ,,株式会社,北海道,札幌市中央区,南五条西２丁目２,,01,101,0640805,,,,,,,2025-04-07,1,,,,,ワンプロデュースチーム,0
2733,9430001094097,新規,0,2025-04-07,2025-04-07,株式会社北新貿易,,株式会社,北海道,登別市,幸町３丁目１４番地６,,01,230,0590002,,,,,,,2025-04-07,1,,,,,ホクシンボウエキ,0
2734,9430001094122,新規,0,2025-04-07,2025-04-07,ＹＡＭＡＺＡＫＩ工業株式会社,,株式会社,北海道,札幌市手稲区,前田八条８丁目１番１０号,,01,109,0060818,,,,,,,2025-04-07,1,,,,,ヤマザキコウギョウ,0
2738,9450003002634,新規,0,2025-04-07,2025-04-07,合同会社サトー,,合同会社,北海道,枝幸郡枝幸町,新栄町７８９番地２６,,01,514,0985825,,,,,,,2025-04-07,1,,,,,サトー,0
2741,9470003002855,新規,0,2025-04-07,2025-04-07,合同会社ＪＭ企画,,合同会社,香川県,高松市,御厩町４０８番地１２,,37,201,7618042,,,,,,,2025-04-07,1,,,,,,0
2742,9480003002251,新規,0,2025-04-07,2025-04-07,合同会社ｍｅｒｉｄｉｅｓ,,合同会社,徳島県,板野郡藍住町,勝瑞字幸島１４５番地２,,36,403,7711271,,,,,,,2025-04-07,1,,,,,メリディエース,0
2744,9500001026233,新規,0,2025-04-07,2025-04-07,株式会社ＯＮＬＹ　ＦＩＴＮＥＳＳ,,株式会社,愛媛県,今治市,常盤町３丁目５番地１９,,38,202,7940015,,,,,,,2025-04-07,1,,,,,オンリーフィットネス,0
2746,9700150129832,新規,0,2025-04-07,2025-04-07,ＤＯＮＧ　ＧＵＡＮ　ＳＨＩ　ＳＨＡＮ　ＤＩＡＮ　ＸＩＮ　ＮＥＮＧ　ＹＵＡＮ　ＫＥ　ＪＩ　ＹＯＵ　ＸＩＡＮ　ＧＯＮＧ　ＳＩ,,外国会社等,,,,,,,,Ｒｏｏｍ　１０１，Ｕｎｉｔ　１，Ｂｕｉｌｄｉｎｇ　１４，Ｎｏ．９５，Ｊｉａｏｐｉｎｇ　Ｒｏａｄ，Ｔａｎｇｘｉａ　Ｔｏｗｎ，Ｄｏｎｇｇｕａｎ　Ｃｉｔｙ，Ｇｕａｎｇｄｏｎｇ　Ｐｒｏｖｉｎｃｅ　５２３７１０,,,,,,2025-04-07,1,,,,,ドングアンシサンデェンシンネンユェンカギヨウシエンゴンスー,0
