sequenceNumber,corporateNumber,process,correct,updateDate,changeDate,name,nameImageId,kind,prefectureName,cityName,streetNumber,addressImageId,prefectureCode,cityCode,postCode,addressOutside,addressOutsideImageId,closeDate,closeCause,successorCorporateNumber,changeCause,assignmentDate,latest,enName,enPrefectureName,enCityName,enAddressOutside,furigana,hihyoji
17,1010005034719,新規,0,2022-03-15,2022-03-15,一般社団法人柔和の会,,その他の設立登記法人,東京都,中央区,銀座１丁目２２番１１号銀座大竹ビジデンス２階,,13,102,1040061,,,,,,,2022-03-15,1,,,,,ニュウワノカイ,0
21,1010103001876,新規,0,2022-03-15,2022-03-15,ひなた合同会社,,合同会社,東京都,八王子市,下恩方町１６８７番地１３,,13,201,1920154,,,,,,,2022-03-15,1,,,,,,0
31,1010403027209,新規,0,2022-03-15,2022-03-15,芝中村資産管理合同会社,,合同会社,東京都,港区,芝４丁目３番２,,13,103,1080014,,,,,,,2022-03-15,1,,,,,シバナカムラシサンカンリ,0
32,1010403027258,新規,0,2022-03-15,2022-03-15,合同会社ＧＡＬＬＡＮＴ,,合同会社,東京都,港区,赤坂２丁目１７番５０－３２０８号,,13,103,1070052,,,,,,,2022-03-15,1,,,,,ギャラント,0
33,1010403027274,新規,0,2022-03-15,2022-03-15,合同会社エスケー商会,,合同会社,東京都,港区,南青山２丁目２番１５号ウィン青山９４２,,13,103,1070062,,,,,,,2022-03-15,1,,,,,エスケーショウカイ,0
36,1010501048585,新規,0,2022-03-15,2022-03-15,株式会社ＫＧクリエイト,,株式会社,東京都,台東区,根岸５丁目６番４,,13,106,1100003,,,,,,,2022-03-15,1,,,,,ケージークリエイト,0
57,1011001146301,新規,0,2022-03-15,2022-03-15,ＳＴＳ株式会社,,株式会社,東京都,渋谷区,渋谷２丁目１９番１５号宮益坂ビルディング６０９,,13,113,1500002,,,,,,,2022-03-15,1,,,,,エスティーエス,0
58,1011001146318,新規,0,2022-03-15,2022-03-15,株式会社２１,,株式会社,東京都,渋谷区,桜丘町２３番１７号シティコート桜丘４０８,,13,113,1500031,,,,,,,2022-03-15,1,,,,,トゥエンティーワン,0
60,1011005009487,新規,0,2022-03-15,2022-03-15,医療法人社団仁文会,,その他の設立登記法人,東京都,目黒区,中根２丁目１２番１号Ｋ＆Ｋビル３階,,13,110,1520031,,,,,,,2022-03-15,1,,,,,ジンブンカイ,0
68,1011501027843,新規,0,2022-03-15,2022-03-15,株式会社Ｓｔｏｏｏ,,株式会社,東京都,荒川区,西日暮里６丁目３１番１号,,13,118,1160013,,,,,,,2022-03-15,1,,,,,エスト,0
72,1011601025788,新規,0,2022-03-15,2022-03-15,株式会社ビーエスホームズ,,株式会社,東京都,練馬区,春日町２丁目５番２５号ブルースカイマンションＢ１－１０２,,13,120,1790074,,,,,,,2022-03-15,1,,,,,ビーエスホームズ,0
73,1011601025796,新規,0,2022-03-15,2022-03-15,株式会社ｚｕｖｏ,,株式会社,東京都,練馬区,小竹町２丁目５番６号ステーションスクエア３１０,,13,120,1760004,,,,,,,2022-03-15,1,,,,,ズーボ,0
80,1011701025127,新規,0,2022-03-15,2022-03-15,株式会社生木屋,,株式会社,東京都,江戸川区,谷河内１丁目１４番４号,,13,123,1320002,,,,,,,2022-03-15,1,,,,,イキヤ,0
93,1013305003319,新規,0,2022-03-15,2022-03-15,医療法人社団心明会,,その他の設立登記法人,東京都,豊島区,西巣鴨３丁目１９番３号,,13,116,1700001,,,,,,,2022-03-15,1,,,,,シンメイカイ,0
98,1020001145667,新規,0,2022-03-15,2022-03-15,株式会社Ｇａｋｕ,,株式会社,神奈川県,横浜市戸塚区,戸塚町９８－１ブランズ戸塚６０７,,14,110,2440003,,,,,,,2022-03-15,1,,,,,ガク,0
108,1030001147258,新規,0,2022-03-15,2022-03-15,株式会社ＹＳＫ,,株式会社,埼玉県,所沢市,東所沢３丁目７番地の３,,11,208,3590021,,,,,,,2022-03-15,1,,,,,ワイエスケイ,0
109,1030001147266,新規,0,2022-03-15,2022-03-15,リバティーブレス株式会社,,株式会社,埼玉県,朝霞市,浜崎３丁目１６番３８号,,11,227,3510033,,,,,,,2022-03-15,1,,,,,リバティーブレス,0
123,1070001039047,新規,0,2022-03-15,2022-03-15,動画制作株式会社,,株式会社,群馬県,太田市,西矢島町７１４－１、１ＦＣＡＭＰ４０７,,10,205,3730823,,,,,,,2022-03-15,1,,,,,ドウガセイサク,0
130,1070003004420,新規,0,2022-03-15,2022-03-15,合同会社ハッピースマイル,,合同会社,群馬県,館林市,高根町１１０１－３,,10,207,3740074,,,,,,,2022-03-15,1,,,,,ハッピースマイル,0
142,1110001036502,新規,0,2022-03-15,2022-03-15,株式会社ＬａｃｕＳ,,株式会社,新潟県,新潟市中央区,紫竹山６丁目３－５,,15,103,9500914,,,,,,,2022-03-15,1,,,,,ラコス,0
156,1120001244434,新規,0,2022-03-15,2022-03-15,株式会社キラリス,,株式会社,大阪府,枚方市,御殿山町１４番３８号,,27,210,5731182,,,,,,,2022-03-15,1,,,,,キラリス,0
157,1120001244475,新規,0,2022-03-15,2022-03-15,株式会社川禾,,株式会社,大阪府,大阪市北区,樋之口町１‐３２山崎ビル２階,,27,127,5300032,,,,,,,2022-03-15,1,,,,,センカ,0
162,1120003021278,新規,0,2022-03-15,2022-03-15,アミカル合同会社,,合同会社,大阪府,大阪市東住吉区,南田辺４丁目９番２－２０６号,,27,121,5460033,,,,,,,2022-03-15,1,,,,,アミカル,0
163,1120101065227,新規,0,2022-03-15,2022-03-15,株式会社ｍｉｍｏｓａ,,株式会社,大阪府,和泉市,はつが野４丁目１８番２１号,,27,219,5941106,,,,,,,2022-03-15,1,,,,,ミモザ,0
177,1140001125244,新規,0,2022-03-15,2022-03-15,ＨＵＯＮＧＶＩＥＴ株式会社,,株式会社,兵庫県,明石市,本町２丁目９－２３,,28,203,6730892,,,,,,,2022-03-15,1,,,,,フォンベト,0
192,1180001150346,新規,0,2022-03-15,2022-03-15,株式会社Ｓ＆Ｕカンパニー,,株式会社,愛知県,名古屋市緑区,神の倉１丁目３９８,,23,114,4580812,,,,,,,2022-03-15,1,,,,,エスユーカンパニー,0
200,1190001029226,新規,0,2022-03-15,2022-03-15,株式会社Ｄ＆Ｙ,,株式会社,三重県,伊勢市,黒瀬町２６０－４,,24,203,5160018,,,,,,,2022-03-15,1,,,,,ディーアンドワイ,0
203,1190003003922,新規,0,2022-03-15,2022-03-15,栄信商事合同会社,,合同会社,三重県,松阪市,下村町６６０番地６,,24,204,5150043,,,,,,,2022-03-15,1,,,,,エイシンショウジ,0
214,1240001059465,新規,0,2022-03-15,2022-03-15,株式会社Ｃ‐Ｆｕｔｕｒｅ,,株式会社,広島県,広島市佐伯区,薬師が丘２丁目４番７号,,34,108,7315154,,,,,,,2022-03-15,1,,,,,シーフューチャー,0
215,1240001059473,新規,0,2022-03-15,2022-03-15,株式会社ＨＯＰＥ,,株式会社,広島県,福山市,松永町４丁目７－５－１Ｆ,,34,207,7290104,,,,,,,2022-03-15,1,,,,,ホープ,0
219,1260001036644,新規,0,2022-03-15,2022-03-15,株式会社ＩＭＵＡ,,株式会社,岡山県,笠岡市,四番町４番地７,,33,205,7140085,,,,,,,2022-03-15,1,,,,,イムア,0
228,1290001096784,新規,0,2022-03-15,2022-03-15,ＳＹワークス株式会社,,株式会社,福岡県,福岡市南区,井尻４丁目６番２１号,,40,134,8111302,,,,,,,2022-03-15,1,,,,,エスワイワークス,0
229,1290001096826,新規,0,2022-03-15,2022-03-15,おかわりＪＡＰＡＮ株式会社,,株式会社,福岡県,福岡市中央区,天神２丁目３番１０号天神パインクレスト７１９号,,40,133,8100001,,,,,,,2022-03-15,1,,,,,オカワリジャパン,0
232,1290003012277,新規,0,2022-03-15,2022-03-15,ｄｏｔ．ｃ合同会社,,合同会社,福岡県,福岡市中央区,平尾１丁目３－４５ニューガイアリルーム薬院駅前Ｎｏ．２２　３０２号室,,40,133,8100014,,,,,,,2022-03-15,1,,,,,ドットシー,0
233,1290005018594,新規,0,2022-03-15,2022-03-15,一般社団法人ＳＡＩＳＥＩ,,その他の設立登記法人,福岡県,福岡市東区,西戸崎２丁目１番３０－６０７号,,40,131,8110321,,,,,,,2022-03-15,1,,,,,サイセイ,0
239,1320003003751,新規,0,2022-03-15,2022-03-15,合同会社ふらり,,合同会社,大分県,大分市,王子南町５番２７号ユナイテッドクリエーションビル３０４,,44,201,8700007,,,,,,,2022-03-15,1,,,,,フラリ,0
246,1340005009423,新規,0,2022-03-15,2022-03-15,医療法人みずぐち歯科クリニック,,その他の設立登記法人,鹿児島県,曽於市,末吉町二之方６３８８番地,,46,217,8998605,,,,,,,2022-03-15,1,,,,,ミズグチシカクリニック,0
255,1380001032656,新規,0,2022-03-15,2022-03-15,株式会社エスリー,,株式会社,福島県,いわき市,小名浜岩出字前田２７番地の１３,,07,204,9718121,,,,,,,2022-03-15,1,,,,,エスリー,0
258,1380003005123,新規,0,2022-03-15,2022-03-15,合同会社いわきオールラウンドサービス,,合同会社,福島県,いわき市,小名浜大原字西細野地１１２番地の１９,,07,204,9718111,,,,,,,2022-03-15,1,,,,,イワキオールラウンドサービス,0
263,1430001086201,新規,0,2022-03-15,2022-03-15,株式会社ＲＯＹＡＬ　ＪＡＰＡＮ,,株式会社,北海道,札幌市北区,屯田九条６丁目４番１２号,,01,102,0020859,,,,,,,2022-03-15,1,,,,,ロイヤルジャパン,0
264,1450001013640,新規,0,2022-03-15,2022-03-15,木村インダストリー株式会社,,株式会社,北海道,士別市,武徳町四十五線東三号,,01,220,0950062,,,,,,,2022-03-15,1,,,,,キムラインダストリー,0
266,1460103001435,新規,0,2022-03-15,2022-03-15,合同会社モコ,,合同会社,北海道,帯広市,西八条南９丁目１２－５,,01,207,0800018,,,,,,,2022-03-15,1,,,,,モコ,0
270,1490001010139,新規,0,2022-03-15,2022-03-15,マサキ建設株式会社,,株式会社,高知県,高知市,海老ノ丸６番１８号,,39,201,7810086,,,,,,,2022-03-15,1,,,,,マサキケンセツ,0
279,2010003037235,新規,0,2022-03-15,2022-03-15,合同会社カノープス,,合同会社,東京都,中央区,銀座１丁目２２－１１銀座大竹ビジデンス２Ｆ,,13,102,1040061,,,,,,,2022-03-15,1,,,,,カノープス,0
280,2010003037243,新規,0,2022-03-15,2022-03-15,合同会社３１０４,,合同会社,東京都,中央区,日本橋小網町１１－８,,13,102,1030016,,,,,,,2022-03-15,1,,,,,,0
288,2010401166164,新規,0,2022-03-15,2022-03-15,サンリン太陽光フィルム技術株式会社,,株式会社,東京都,港区,白金３丁目１番１３号日恵ビル２階,,13,103,1080072,,,,,,,2022-03-15,1,,,,,サンリンタイヨウコウフィルムギジュツ,0
290,2010403027273,新規,0,2022-03-15,2022-03-15,合同会社神谷町インベストメント１６号,,合同会社,東京都,港区,虎ノ門５丁目１番４号,,13,103,1050001,,,,,,,2022-03-15,1,,,,,カミヤチョウインベストメントジュウロクゴウ,0
293,2010501048576,新規,0,2022-03-15,2022-03-15,新成株式会社,,株式会社,東京都,台東区,三ノ輪１丁目２８－７－４０３,,13,106,1100011,,,,,,,2022-03-15,1,,,,,シンセイ,0
307,2011001146267,新規,0,2022-03-15,2022-03-15,株式会社ＫＫＭ企画,,株式会社,東京都,渋谷区,恵比寿西１丁目２４番１号,,13,113,1500021,,,,,,,2022-03-15,1,,,,,ケーケーエムキカク,0
308,2011001146275,新規,0,2022-03-15,2022-03-15,株式会社ＳＵＮＮＹＥＳ,,株式会社,東京都,目黒区,中目黒２丁目７番１４号,,13,110,1530061,,,,,,,2022-03-15,1,,,,,サニーズ,0
309,2011001146366,新規,0,2022-03-15,2022-03-15,Ｇ‐Ｊｏｉｎ株式会社,,株式会社,東京都,渋谷区,道玄坂１丁目１２‐１渋谷マークシティＷ２２階,,13,113,1500043,,,,,,,2022-03-15,1,,,,,ジージョイン,0
314,2011101098144,新規,0,2022-03-15,2022-03-15,株式会社Ａｃｃｔｉｏｎ,,株式会社,東京都,新宿区,新宿２丁目８番１号新宿セブンビル２０５号,,13,104,1600022,,,,,,,2022-03-15,1,,,,,アクション,0
315,2011101098152,新規,0,2022-03-15,2022-03-15,ツクルズ株式会社,,株式会社,東京都,新宿区,西新宿７丁目４－４武蔵ビル５Ｆ,,13,104,1600023,,,,,,,2022-03-15,1,,,,,ツクルズ,0
318,2011201023687,新規,0,2022-03-15,2022-03-15,株式会社ＲＯＳＥＢＡＮＫ,,株式会社,東京都,中野区,中野５丁目５６番１１号,,13,114,1640001,,,,,,,2022-03-15,1,,,,,ローズバンク,0
319,2011201023704,新規,0,2022-03-15,2022-03-15,株式会社ナカシマホールディングス,,株式会社,東京都,中野区,本町６丁目１７番１０号,,13,114,1640012,,,,,,,2022-03-15,1,,,,,ナカシマホールディングス,0
322,2011601025795,新規,0,2022-03-15,2022-03-15,株式会社ＯＮＩＨＳ,,株式会社,東京都,練馬区,春日町１丁目２６番３号,,13,120,1790074,,,,,,,2022-03-15,1,,,,,オニーシュ,0
324,2012401038962,新規,0,2022-03-15,2022-03-15,株式会社リンクスサービス,,株式会社,東京都,調布市,多摩川３丁目６２番地１ランドステージ調布多摩川１０１,,13,208,1820025,,,,,,,2022-03-15,1,,,,,リンクスサービス,0
325,2012401038979,新規,0,2022-03-15,2022-03-15,株式会社サンチャゴ,,株式会社,東京都,武蔵野市,吉祥寺南町２丁目２－５アスコーナミエビル６Ｆ,,13,203,1800003,,,,,,,2022-03-15,1,,,,,サンチャゴ,0
331,2013301048804,新規,0,2022-03-15,2022-03-15,株式会社ＭＯＲＩ　Ｈｅａｌｔｈｃａｒｅ,,株式会社,東京都,豊島区,東池袋３丁目５番７号ユニオンビル８０３,,13,116,1700013,,,,,,,2022-03-15,1,,,,,モリヘルスケア,0
332,2013305003318,新規,0,2022-03-15,2022-03-15,一般社団法人ソーシャル・シフト,,その他の設立登記法人,東京都,豊島区,長崎４丁目８番６号第二宏明ビル４０３号,,13,116,1710051,,,,,,,2022-03-15,1,,,,,ソーシャルシフト,0
341,2020001145633,新規,0,2022-03-15,2022-03-15,株式会社ヒロベニ,,株式会社,神奈川県,川崎市幸区,新小倉２－７－１２１５,,14,132,2120031,,,,,,,2022-03-15,1,,,,,ヒロベニ,0
342,2020001145666,新規,0,2022-03-15,2022-03-15,株式会社セイムボート,,株式会社,神奈川県,川崎市幸区,鹿島田１丁目１番５,,14,132,2120058,,,,,,,2022-03-15,1,,,,,セイムボート,0
355,2030001147273,新規,0,2022-03-15,2022-03-15,株式会社オフィスグラビティー,,株式会社,埼玉県,さいたま市浦和区,領家４丁目２番２９号,,11,107,3300072,,,,,,,2022-03-15,1,,,,,オフィスグラビティー,0
356,2030001147281,新規,0,2022-03-15,2022-03-15,株式会社ＨＡＹＡＢＵＳＡ,,株式会社,埼玉県,入間市,大字寺竹５０７番地４,,11,225,3580045,,,,,,,2022-03-15,1,,,,,ハヤブサ,0
360,2040001122201,新規,0,2022-03-15,2022-03-15,株式会社Ｏｎｅ　Ｃｈａｎｃｅ,,株式会社,千葉県,浦安市,当代島１丁目１－２２佃甚ビル４階,,12,227,2790001,,,,,,,2022-03-15,1,,,,,ワンチャンス,0
361,2040001122597,新規,0,2022-03-15,2022-03-15,株式会社Ｎａｖｙ　ｍｅｄｉｃａｌ　ｓｕｐｐｏｒｔ,,株式会社,千葉県,柏市,根戸３１６番地１,,12,217,2770831,,,,,,,2022-03-15,1,,,,,ネイビーメディカルサポート,0
362,2040001122606,新規,0,2022-03-15,2022-03-15,株式会社アロンの杖,,株式会社,千葉県,八千代市,八千代台北１３丁目１６番３号,,12,221,2760031,,,,,,,2022-03-15,1,,,,,アロンノツエ,0
366,2040003019643,新規,0,2022-03-15,2022-03-15,ミハス合同会社,,合同会社,千葉県,市川市,原木１丁目７番１１号,,12,203,2720004,,,,,,,2022-03-15,1,,,,,ミハス,0
369,2050003006434,新規,0,2022-03-15,2022-03-15,Ｐａｃ　Ｍａｒｉｎｅ　Ｓｅｒｖｉｃｅ合同会社,,合同会社,茨城県,北相馬郡利根町,大字布川２５３番地１５０,,08,564,3001622,,,,,,,2022-03-15,1,,,,,パックマリンサービス,0
370,2050005013032,新規,0,2022-03-15,2022-03-15,医療法人ふじえだクリニック,,その他の設立登記法人,茨城県,笠間市,東平３丁目１番４０号,,08,216,3091705,,,,,,,2022-03-15,1,,,,,フジエダクリニック,0
371,2060001034618,新規,0,2022-03-15,2022-03-15,エムケイサービス株式会社,,株式会社,栃木県,小山市,大字雨ケ谷新田７３番地９７,,09,208,3230824,,,,,,,2022-03-15,1,,,,,エムケイサービス,0
373,2070001039046,新規,0,2022-03-15,2022-03-15,株式会社ユアサ,,株式会社,群馬県,前橋市,天川大島町９８９番地１ユザワビル２Ｆ－３,,10,201,3792154,,,,,,,2022-03-15,1,,,,,ユアサ,0
376,2080003002752,新規,0,2022-03-15,2022-03-15,合同会社一期一笑,,合同会社,静岡県,島田市,東町１９６９－５ロッシュリーブル１０５,,22,209,4270011,,,,,,,2022-03-15,1,,,,,イチゴイチエ,0
378,2100001035149,新規,0,2022-03-15,2022-03-15,株式会社美村農園,,株式会社,長野県,上田市,上武石３２７番地３,,20,203,3860508,,,,,,,2022-03-15,1,,,,,ミムラノウエン,0
379,2110001036501,新規,0,2022-03-15,2022-03-15,Ａｎｄ‐Ｍ株式会社,,株式会社,新潟県,新潟市中央区,南笹口１丁目１－３８コープオリンピア８０８,,15,103,9500912,,,,,,,2022-03-15,1,,,,,アンドエム,0
396,2120003021285,新規,0,2022-03-15,2022-03-15,吉備クリーンセンター合同会社,,合同会社,大阪府,大阪市淀川区,西中島３丁目１１－２６,,27,123,5320011,,,,,,,2022-03-15,1,,,,,キビクリーンセンター,0
406,2130001071348,新規,0,2022-03-15,2022-03-15,株式会社ＡＩＣ,,株式会社,京都府,京都市下京区,烏丸通七条下る東塩小路町７３５番地１京阪京都ビル８階,,26,106,6008216,,,,,,,2022-03-15,1,,,,,エーアイシー,0
407,2130001071356,新規,0,2022-03-15,2022-03-15,株式会社Ｒｅｃｌｅａｒ,,株式会社,京都府,京都市伏見区,川東町５番地３,,26,109,6128375,,,,,,,2022-03-15,1,,,,,レクリア,0
421,2160003002513,新規,0,2022-03-15,2022-03-15,クレイス合同会社,,合同会社,滋賀県,栗東市,岡３５４番２号,,25,208,5203012,,,,,,,2022-03-15,1,,,,,クレイス,0
431,2180001150353,新規,0,2022-03-15,2022-03-15,ＷＷ株式会社,,株式会社,愛知県,知多郡阿久比町,大字草木字平井松３５番地１,,23,441,4702211,,,,,,,2022-03-15,1,,,,,ダブルウッド,0
434,2180005019677,新規,0,2022-03-15,2022-03-15,国鉄労働組合名古屋地方本部,,その他の設立登記法人,愛知県,名古屋市中村区,椿町２０番１５号,,23,105,4530015,,,,,,,2022-03-15,1,,,,,コクテツナゴヤチホウホンブ,0
435,2180301036021,新規,0,2022-03-15,2022-03-15,株式会社ダブルイーモーターズ,,株式会社,愛知県,刈谷市,小垣江町本郷下４４番地３,,23,210,4480813,,,,,,,2022-03-15,1,,,,,ダブルイーモーターズ,0
438,2200003005494,新規,0,2022-03-15,2022-03-15,合同会社報恩会,,合同会社,岐阜県,各務原市,鵜沼羽場町３丁目１６２－２,,21,213,5090135,,,,,,,2022-03-15,1,,,,,ホウオンカイ,0
453,2240001059472,新規,0,2022-03-15,2022-03-15,大知プロ株式会社,,株式会社,広島県,広島市東区,牛田中２丁目１番１２－２０３号,,34,102,7320065,,,,,,,2022-03-15,1,,,,,ダイチプロ,0
456,2240003005549,新規,0,2022-03-15,2022-03-15,合同会社おかげさま,,合同会社,広島県,三次市,上川立町１９８７番地,,34,209,7296334,,,,,,,2022-03-15,1,,,,,オカゲサマ,0
457,2250001019459,新規,0,2022-03-15,2022-03-15,株式会社３,,株式会社,山口県,下関市,竹崎町３丁目７番１０号４Ｆ,,35,201,7500025,,,,,,,2022-03-15,1,,,,,スリー,0
461,2260001036635,新規,0,2022-03-15,2022-03-15,株式会社ＢｅａｕｔｙＷａｓｈ,,株式会社,岡山県,岡山市北区,東古松４８５番地４－２Ｆ,,33,101,7000921,,,,,,,2022-03-15,1,,,,,ビューティーウォッシュ,0
463,2260005011048,新規,0,2022-03-15,2022-03-15,一般社団法人Ｌｙｃｋａ　ｔｉｌｌ,,その他の設立登記法人,岡山県,倉敷市,中庄２８８１番地７１－２階,,33,202,7100016,,,,,,,2022-03-15,1,,,,,リュッカティル,0
472,2290001096577,新規,0,2022-03-15,2022-03-15,ＭＩＡ株式会社,,株式会社,福岡県,福津市,若木台３丁目４番地の１４,,40,224,8113221,,,,,,,2022-03-15,1,,,,,エムアイエー,0
473,2290001096692,新規,0,2022-03-15,2022-03-15,株式会社ＰＬＡＮＣＥ　ＣＯＳＭＥＴＩＣＳ　ＪＡＰＡＮ,,株式会社,福岡県,福岡市中央区,警固１丁目１５番５３－５０６号,,40,133,8100023,,,,,,,2022-03-15,1,,,,,プランスコスメティックスジャパン,0
475,2290003012276,新規,0,2022-03-15,2022-03-15,合同会社芥屋電工,,合同会社,福岡県,糸島市,志摩芥屋１１１１－１,,40,230,8191335,,,,,,,2022-03-15,1,,,,,ケヤデンコウ,0
491,2350001017634,新規,0,2022-03-15,2022-03-15,株式会社日翔,,株式会社,宮崎県,延岡市,無鹿町２丁目３２３１番地,,45,203,8820021,,,,,,,2022-03-15,1,,,,,ニッショウ,0
495,2370001048314,新規,0,2022-03-15,2022-03-15,株式会社ＲＥＡＤ,,株式会社,宮城県,宮城郡利府町,菅谷台２丁目６番地６,,04,406,9810135,,,,,,,2022-03-15,1,,,,,リード,0
496,2370005010451,新規,0,2022-03-15,2022-03-15,特定非営利活動法人女性起業相談室ＳＴＥＰなとり,,その他の設立登記法人,宮城県,名取市,愛島台２丁目１２番地の１０,,04,207,9811251,,,,,,,2022-03-15,1,,,,,ジョセイキギョウソウダンシツステップナトリ,0
508,2380001032663,新規,0,2022-03-15,2022-03-15,株式会社ひなた,,株式会社,福島県,伊達市,保原町字京門１９番地１,,07,213,9600678,,,,,,,2022-03-15,1,,,,,ヒナタ,0
513,2420003002478,新規,0,2022-03-15,2022-03-15,コネクト合同会社,,合同会社,青森県,十和田市,大字三本木字西小稲２０８番地１２,,02,206,0340001,,,,,,,2022-03-15,1,,,,,コネクト,0
516,2430001086209,新規,0,2022-03-15,2022-03-15,株式会社さくらＳｍｉｌｅ,,株式会社,北海道,札幌市白石区,平和通５丁目北１０番１４号,,01,104,0030029,,,,,,,2022-03-15,1,,,,,サクラスマイル,0
517,2430001086225,新規,0,2022-03-15,2022-03-15,株式会社ライズプロジェクト,,株式会社,北海道,札幌市中央区,南六条西６丁目８番地２アートビル６階南,,01,101,0640806,,,,,,,2022-03-15,1,,,,,ライズプロジェクト,0
523,2460103001434,新規,0,2022-03-15,2022-03-15,合同会社ゼロドーン,,合同会社,北海道,帯広市,西二条南４丁目６番地２,,01,207,0800012,,,,,,,2022-03-15,1,,,,,ゼロドーン,0
526,2500001024061,新規,0,2022-03-15,2022-03-15,株式会社ＳＯＵ,,株式会社,愛媛県,松山市,道後緑台６番７号,,38,201,7900847,,,,,,,2022-03-15,1,,,,,ソウ,0
539,3010001225170,新規,0,2022-03-15,2022-03-15,ＭＩＹＡＧＡＷＡ　Ｂａｓｅ株式会社,,株式会社,東京都,小笠原村,父島字宮之浜道,,13,421,1002101,,,,,,,2022-03-15,1,,,,,ミヤガワベース,0
540,3010001225204,新規,0,2022-03-15,2022-03-15,株式会社１５,,株式会社,東京都,中央区,銀座１丁目２２番１１号銀座大竹ビジデンス２階,,13,102,1040061,,,,,,,2022-03-15,1,,,,,イチゴ,0
541,3010001225212,新規,0,2022-03-15,2022-03-15,株式会社ＤＸＥＥＤ,,株式会社,東京都,中央区,八重洲１丁目８－１７新槇町ビル６Ｆ,,13,102,1030028,,,,,,,2022-03-15,1,,,,,ディーエクシード,0
542,3010005034733,新規,0,2022-03-15,2022-03-15,一般社団法人日本経営連合会,,その他の設立登記法人,東京都,文京区,本郷４丁目９番２２号本郷フジビル２Ｆ,,13,105,1130033,,,,,,,2022-03-15,1,,,,,ニホンケイエイレンゴウカイ,0
548,3010403027272,新規,0,2022-03-15,2022-03-15,合同会社神谷町インベストメント１５号,,合同会社,東京都,港区,虎ノ門５丁目１番４号,,13,103,1050001,,,,,,,2022-03-15,1,,,,,カミヤチョウインベストメントジュウゴゴウ,0
549,3010501048583,新規,0,2022-03-15,2022-03-15,川旬株式会社,,株式会社,東京都,台東区,台東１丁目３２番６号小島ビル２０２号室,,13,106,1100016,,,,,,,2022-03-15,1,,,,,カワシュン,0
559,3010903007229,新規,0,2022-03-15,2022-03-15,シェアーサニーズ合同会社,,合同会社,東京都,世田谷区,玉川２丁目１１－７,,13,112,1580094,,,,,,,2022-03-15,1,,,,,シェアーサニーズ,0
562,3011001146258,新規,0,2022-03-15,2022-03-15,株式会社Ｈａｌｏ,,株式会社,東京都,渋谷区,道玄坂１丁目１０番８号渋谷道玄坂東急ビル２Ｆ－Ｃ,,13,113,1500043,,,,,,,2022-03-15,1,,,,,ハロ,0
563,3011001146266,新規,0,2022-03-15,2022-03-15,Ｓｏｔａｓ株式会社,,株式会社,東京都,目黒区,青葉台１丁目２２番１０－７０１号,,13,110,1530042,,,,,,,2022-03-15,1,,,,,ソータス,0
564,3011001146316,新規,0,2022-03-15,2022-03-15,ＤＪＢ株式会社,,株式会社,東京都,目黒区,八雲３丁目１６番１２号,,13,110,1520023,,,,,,,2022-03-15,1,,,,,ディージェービー,0
565,3011003014347,新規,0,2022-03-15,2022-03-15,合同会社クラフトハウス,,合同会社,東京都,渋谷区,本町１丁目１８番２号,,13,113,1510071,,,,,,,2022-03-15,1,,,,,クラフトハウス,0
566,3011101098069,新規,0,2022-03-15,2022-03-15,株式会社ＭＮＫ,,株式会社,東京都,新宿区,新宿５丁目１５番１４号ＩＮＢＯＵＮＤＬＥＡＧＵＥ,,13,104,1600022,,,,,,,2022-03-15,1,,,,,エムエヌケイ,0
567,3011201023703,新規,0,2022-03-15,2022-03-15,株式会社異次元ＮＡＫＡＮＯ,,株式会社,東京都,中野区,東中野４丁目３０番３号フォルゴーレ１号,,13,114,1640003,,,,,,,2022-03-15,1,,,,,イジゲンナカノ,0
568,3011203003769,新規,0,2022-03-15,2022-03-15,合同会社スコアアップゴルフ,,合同会社,東京都,中野区,野方４丁目３番６号,,13,114,1650027,,,,,,,2022-03-15,1,,,,,スコアアップゴルフ,0
584,3011701025125,新規,0,2022-03-15,2022-03-15,ＡＹＡＴ　Ｌｉｍｉｔｅｄ株式会社,,株式会社,東京都,江戸川区,大杉２丁目９番６号,,13,123,1320022,,,,,,,2022-03-15,1,,,,,アヤトリミテッド,0
596,3020001145657,新規,0,2022-03-15,2022-03-15,源新株式会社,,株式会社,神奈川県,横浜市神奈川区,反町１丁目５番地４,,14,102,2210825,,,,,,,2022-03-15,1,,,,,ゲンシン,0
602,3021003011467,新規,0,2022-03-15,2022-03-15,合同会社ＬＹＤＡ　ＢＬＥＳＳ　ＴＲＡＤＩＮＧ,,合同会社,神奈川県,愛甲郡愛川町,中津１２０２番地の３ハイツ菅原２０５,,14,401,2430303,,,,,,,2022-03-15,1,,,,,リーダブレストレーディング,0
603,3021003011483,新規,0,2022-03-15,2022-03-15,空き家レンジャー合同会社,,合同会社,神奈川県,逗子市,小坪５丁目１３番５号,,14,208,2490008,,,,,,,2022-03-15,1,,,,,アキヤレンジャー,0
605,3030001147256,新規,0,2022-03-15,2022-03-15,株式会社勇進,,株式会社,埼玉県,戸田市,笹目６丁目２０番地の３２ローズハイツ２０５,,11,224,3350034,,,,,,,2022-03-15,1,,,,,ユウシン,0
609,3040001122613,新規,0,2022-03-15,2022-03-15,株式会社小向商事,,株式会社,千葉県,市原市,荻作９７５番地,,12,219,2900177,,,,,,,2022-03-15,1,,,,,コムカイショウジ,0
610,3040003019675,新規,0,2022-03-15,2022-03-15,合同会社ＫＹ工業,,合同会社,千葉県,松戸市,上本郷２３７８番地の１－１０２,,12,207,2710064,,,,,,,2022-03-15,1,,,,,ケイワイコウギョウ,0
614,3050005013031,新規,0,2022-03-15,2022-03-15,医療法人オーケストラ,,その他の設立登記法人,茨城県,行方市,玉造甲５１０番地１,,08,233,3113512,,,,,,,2022-03-15,1,,,,,オーケストラ,0
618,3060001034658,新規,0,2022-03-15,2022-03-15,株式会社聖工房,,株式会社,栃木県,小山市,美しが丘２丁目１８番地８,,09,208,3290207,,,,,,,2022-03-15,1,,,,,ヒジリコウボウ,0
620,3070001039045,新規,0,2022-03-15,2022-03-15,ＮＢ株式会社,,株式会社,群馬県,前橋市,千代田町４丁目１番７－３Ａ,,10,201,3710022,,,,,,,2022-03-15,1,,,,,エヌビー,0
628,3080401025684,新規,0,2022-03-15,2022-03-15,株式会社ＣＯＮＮＥＱ,,株式会社,静岡県,浜松市中区,高林１丁目９番３０号山下ビル２Ｆ,,22,131,4300907,,,,,,,2022-03-15,1,,,,,コネック,0
631,3100001035156,新規,0,2022-03-15,2022-03-15,株式会社ＣＯＮＶＩＶＩＵＭ,,株式会社,長野県,長野市,西之門町５００－１西の門ホワイトハウス２Ｆ、ｒｏｏｍ３,,20,201,3810000,,,,,,,2022-03-15,1,,,,,コンヴィヴィウム,0
634,3120001000901,新規,0,2022-03-15,2022-03-15,ナニワ住宅サービス株式会社,,株式会社,大阪府,大阪市旭区,千林２丁目５番１号,,27,117,5350012,,,,,,,2022-03-15,1,,,,,ナニワジュウタクサービス,0
657,3120001244457,新規,0,2022-03-15,2022-03-15,株式会社祐コネクト,,株式会社,大阪府,大阪市中央区,南船場３丁目１１番１０号心斎橋太陽ビル３階,,27,128,5420081,,,,,,,2022-03-15,1,,,,,ユウコネクト,0
658,3120001244473,新規,0,2022-03-15,2022-03-15,株式会社ＳＴ,,株式会社,大阪府,大阪市天王寺区,上本町６丁目９番２号アーバンシティ上本町２０６号室,,27,109,5430001,,,,,,,2022-03-15,1,,,,,エスティー,0
661,3120003021276,新規,0,2022-03-15,2022-03-15,Ｆｉｌｌｅｔ　Ｊａｐａｎ合同会社,,合同会社,大阪府,大阪市住之江区,南港北２丁目１番１０号ＡＴＣビルＩＴＭ棟４階,,27,125,5590034,,,,,,,2022-03-15,1,,,,,フィレットジャパン,0
662,3120003021284,新規,0,2022-03-15,2022-03-15,合同会社とうと,,合同会社,大阪府,大阪市東住吉区,中野２丁目３番１号,,27,121,5460012,,,,,,,2022-03-15,1,,,,,トウト,0
665,3120101065225,新規,0,2022-03-15,2022-03-15,株式会社ミライエール,,株式会社,大阪府,羽曳野市,野々上４丁目７番６号,,27,222,5830871,,,,,,,2022-03-15,1,,,,,ミライエール,0
678,3140003017438,新規,0,2022-03-15,2022-03-15,合同会社リベラルアーツ,,合同会社,兵庫県,三田市,三田町５－４,,28,219,6691533,,,,,,,2022-03-15,1,,,,,リベラルアーツ,0
679,3140003017462,新規,0,2022-03-15,2022-03-15,合同会社コントリビューション,,合同会社,兵庫県,神戸市垂水区,西舞子７丁目１６番２－１１０号,,28,108,6550048,,,,,,,2022-03-15,1,,,,,コントリビューション,0
681,3150001025409,新規,0,2022-03-15,2022-03-15,ミーロ株式会社,,株式会社,奈良県,北葛城郡河合町,池部３丁目１番１９号,,29,427,6360053,,,,,,,2022-03-15,1,,,,,ミーロ,0
683,3160001024046,新規,0,2022-03-15,2022-03-15,ＲＩＳＥ　ＳＴＹＬＥ株式会社,,株式会社,滋賀県,大津市,大萱１丁目１６番６号,,25,201,5202144,,,,,,,2022-03-15,1,,,,,ライズスタイル,0
691,3180001150377,新規,0,2022-03-15,2022-03-15,Ｇｅｅｓ　Ｃｏｒｐｏｒａｔｉｏｎ株式会社,,株式会社,愛知県,一宮市,伝法寺４丁目７番地１３,,23,203,4910828,,,,,,,2022-03-15,1,,,,,ジーズコーポレーション,0
692,3180001150393,新規,0,2022-03-15,2022-03-15,株式会社Ｅｍｐｒｏｖｅ,,株式会社,愛知県,名古屋市中区,錦３丁目６－１５先名古屋テレビ塔３階,,23,106,4600003,,,,,,,2022-03-15,1,,,,,エンプルーブ,0
715,3240001059463,新規,0,2022-03-15,2022-03-15,株式会社Ｒｉｃｈ　Ｒｅａｌｉｚｅ,,株式会社,広島県,広島市中区,大手町１丁目７番２１号ＴＨＥ・ＣＵＢＥ・ＯＴＥＭＡＣＨＩ３０６号,,34,101,7300051,,,,,,,2022-03-15,1,,,,,リッチリアライズ,0
716,3240001059471,新規,0,2022-03-15,2022-03-15,株式会社ＳｍｉｌｅＭｅ,,株式会社,広島県,広島市中区,大手町５丁目２番２０号６０２号,,34,101,7300051,,,,,,,2022-03-15,1,,,,,スマイルミー,0
719,3240003005556,新規,0,2022-03-15,2022-03-15,合同会社Ｓｍｉｌｅ　Ｓｕｎ,,合同会社,広島県,呉市,中通２丁目３番３０－１１０２号,,34,202,7370046,,,,,,,2022-03-15,1,,,,,スマイルサン,0
724,3260001036634,新規,0,2022-03-15,2022-03-15,株式会社ＣＯＬＯＲ,,株式会社,岡山県,倉敷市,北畝７丁目９番３７号,,33,202,7128032,,,,,,,2022-03-15,1,,,,,カラー,0
725,3260001036642,新規,0,2022-03-15,2022-03-15,株式会社志倶,00125966,株式会社,岡山県,倉敷市,西富井１０８９番地６,,33,202,7100845,,,,,,,2022-03-15,1,,,,,シグ,0
727,3270001008467,新規,0,2022-03-15,2022-03-15,株式会社つばめ,,株式会社,鳥取県,鳥取市,南隈８８１番地サウスＩＩＩ１０１号,00125973,31,201,6800903,,,,,,,2022-03-15,1,,,,,ツバメ,0
735,3290001096782,新規,0,2022-03-15,2022-03-15,株式会社Ｆｉｒ‐ｖｉｃｅ,,株式会社,福岡県,福岡市西区,石丸３丁目３９番１１－１－１０３号,,40,135,8190025,,,,,,,2022-03-15,1,,,,,ファービス,0
736,3290001096816,新規,0,2022-03-15,2022-03-15,株式会社タイガーアイ,,株式会社,福岡県,福津市,津屋崎２丁目１６番４号,,40,224,8113304,,,,,,,2022-03-15,1,,,,,タイガーアイ,0
741,3290003012267,新規,0,2022-03-15,2022-03-15,合同会社緩,,合同会社,福岡県,太宰府市,五条４丁目１１－１５新崎アパート２０７号,,40,221,8180125,,,,,,,2022-03-15,1,,,,,ユルム,0
742,3290005018592,新規,0,2022-03-15,2022-03-15,行政書士法人Ａｐｅｒｉｏ,,その他の設立登記法人,福岡県,福岡市中央区,舞鶴３丁目３番４－８０２号ライフピア舞鶴,,40,133,8100073,,,,,,,2022-03-15,1,,,,,アペリオ,0
755,3370001048321,新規,0,2022-03-15,2022-03-15,ＪＰ　ＬＩＮＫＳ株式会社,,株式会社,宮城県,仙台市青葉区,子平町１６－３サンコーポ２０５,,04,101,9810944,,,,,,,2022-03-15,1,,,,,ジェーピーリンクス,0
756,3370003005618,新規,0,2022-03-15,2022-03-15,合同会社ベーシック,,合同会社,宮城県,仙台市青葉区,栗生１丁目１７番地の１９,,04,101,9893122,,,,,,,2022-03-15,1,,,,,ベーシック,0
769,3400001015813,新規,0,2022-03-15,2022-03-15,オヤマダホールディングス株式会社,,株式会社,岩手県,宮古市,小山田４丁目１番３０号,,03,202,0270038,,,,,,,2022-03-15,1,,,,,オヤマダホールディングス,0
771,3410001013122,新規,0,2022-03-15,2022-03-15,株式会社０８ＣＯＦＦＥＥ,,株式会社,秋田県,秋田市,山王新町１９番２１号,,05,201,0100952,,,,,,,2022-03-15,1,,,,,ゼロハチコーヒー,0
773,3410003003625,新規,0,2022-03-15,2022-03-15,合同会社Ｊ．Ｖトレーディング,,合同会社,秋田県,大仙市,大曲福見町１番１７号,,05,212,0140042,,,,,,,2022-03-15,1,,,,,ジェーブイトレーディング,0
780,3430003013713,新規,0,2022-03-15,2022-03-15,合同会社ＨＡＹＡ,,合同会社,北海道,北広島市,輪厚中央３丁目５番地６左,,01,234,0611268,,,,,,,2022-03-15,1,,,,,ハヤ,0
782,3490001010137,新規,0,2022-03-15,2022-03-15,株式会社躍,,株式会社,高知県,高岡郡佐川町,乙３３６６番地９,,39,402,7891202,,,,,,,2022-03-15,1,,,,,ヤク,0
784,3700150107397,新規,0,2022-03-15,2022-03-15,葵花薬業集団北京薬物研究院　有限公司　日本事務所,,外国会社等,埼玉県,さいたま市緑区,大字大門２５３３－４,,11,109,3360963,中国北京市朝陽区常恵路６号楼３層１単元３０１－３０９室,,,,,,2022-03-15,1,,,,,キカヤクギヨウシユウダンペキンヤクブツケンキユウインユウゲンコウシニホンジムシヨ,0
796,4010001225211,新規,0,2022-03-15,2022-03-15,ＣＯＲＮＥＲＳＴＯＮＥ株式会社,,株式会社,東京都,中央区,銀座１丁目６－１銀座１丁目ビル７Ｆ,,13,102,1040061,,,,,,,2022-03-15,1,,,,,コーナーストーン,0
798,4010003037233,新規,0,2022-03-15,2022-03-15,合同会社ＭＩＹＡＢＩ,,合同会社,東京都,文京区,本郷５丁目１番１３号,,13,105,1130033,,,,,,,2022-03-15,1,,,,,ミヤビ,0
802,4010005034724,新規,0,2022-03-15,2022-03-15,一般社団法人ワンジェネレーション,,その他の設立登記法人,東京都,中央区,銀座６丁目６番１号,,13,102,1040061,,,,,,,2022-03-15,1,,,,,ワンジェネレーション,0
803,4010105002151,新規,0,2022-03-15,2022-03-15,医療法人社団輪葉歯,,その他の設立登記法人,東京都,八王子市,堀之内３丁目３５番地９メルヴェール京王堀之内１階,,13,201,1920355,,,,,,,2022-03-15,1,,,,,,0
807,4010501048582,新規,0,2022-03-15,2022-03-15,静泊株式会社,,株式会社,東京都,台東区,台東１丁目３２番６号小島ビル３０２号室,,13,106,1100016,,,,,,,2022-03-15,1,,,,,セイハク,0
819,4010803004093,新規,0,2022-03-15,2022-03-15,合同会社ユッカ,,合同会社,東京都,大田区,大森北２丁目３番１２号ミテッツア大森ＩＩ２０１,00125967,13,111,1430016,,,,,,,2022-03-15,1,,,,,ユッカ,0
825,4011001146249,新規,0,2022-03-15,2022-03-15,株式会社エコスル,,株式会社,東京都,渋谷区,代々木１丁目５４番１号ＹＳ．Ｉビル５Ｆ佐久間会計事務所内,00125971,13,113,1510053,,,,,,,2022-03-15,1,,,,,エコスル,0
826,4011001146281,新規,0,2022-03-15,2022-03-15,株式会社ＳＵＮＥＩＧＨＴ,,株式会社,東京都,目黒区,自由が丘２丁目１６－１２ＬＣ１Ｆ,,13,110,1520035,,,,,,,2022-03-15,1,,,,,サンエイト,0
830,4011101098167,新規,0,2022-03-15,2022-03-15,株式会社ＭＫポリバレンツ,,株式会社,東京都,新宿区,西新宿３丁目３番１３号西新宿水間ビル６階,,13,104,1600023,,,,,,,2022-03-15,1,,,,,エムケーポリバレンツ,0
834,4011201023702,新規,0,2022-03-15,2022-03-15,株式会社コーナネ,,株式会社,東京都,中野区,本町４丁目３０－２１コンフォリア新中野６０９,,13,114,1640012,,,,,,,2022-03-15,1,,,,,コーナネ,0
841,4011601025802,新規,0,2022-03-15,2022-03-15,睿益株式会社,,株式会社,東京都,練馬区,上石神井３丁目５番３号１０２号,,13,120,1770044,,,,,,,2022-03-15,1,,,,,エイエキ,0
845,4011701025124,新規,0,2022-03-15,2022-03-15,株式会社生彩レイクス,,株式会社,東京都,江戸川区,北小岩５丁目２１番７－２１０号,,13,123,1330051,,,,,,,2022-03-15,1,,,,,セイサイレイクス,0
848,4011801040436,新規,0,2022-03-15,2022-03-15,株式会社ＲＥＭＥ,,株式会社,東京都,足立区,千住関屋町２０番１６号プレール京成関屋駅前３０３号室,,13,121,1200024,,,,,,,2022-03-15,1,,,,,リミー,0
850,4011803005008,新規,0,2022-03-15,2022-03-15,合同会社ぶらんこ,,合同会社,東京都,足立区,新田３丁目２９番１号グランスイートハートアイランド１２０２号室,,13,121,1230865,,,,,,,2022-03-15,1,,,,,ブランコ,0
862,4020001145631,新規,0,2022-03-15,2022-03-15,株式会社ＲＥＮ,,株式会社,神奈川県,横浜市中区,山手町１２０番地３６,,14,104,2310862,,,,,,,2022-03-15,1,,,,,レン,0
863,4020001145656,新規,0,2022-03-15,2022-03-15,株式会社広,,株式会社,神奈川県,横浜市中区,桜木町１丁目１番７号,,14,104,2310062,,,,,,,2022-03-15,1,,,,,コウ,0
864,4020001145664,新規,0,2022-03-15,2022-03-15,ｙａｍａｃｏ株式会社,,株式会社,神奈川県,横浜市神奈川区,台町８番地１４ベイシティ滝川６０４,,14,102,2210834,,,,,,,2022-03-15,1,,,,,ヤマコ,0
867,4020003021401,新規,0,2022-03-15,2022-03-15,合同会社ＳｅｅＳａｗ,,合同会社,神奈川県,川崎市宮前区,小台２丁目１２番地５,,14,136,2160007,,,,,,,2022-03-15,1,,,,,シーソー,0
868,4020003021450,新規,0,2022-03-15,2022-03-15,Ｔ・ＡＮ　ＧＲＯＵＰ合同会社,,合同会社,神奈川県,川崎市川崎区,渡田向町７番４－６０３号マルトミ渡田向町,,14,131,2100841,,,,,,,2022-03-15,1,,,,,ティアングループ,0
872,4030001147271,新規,0,2022-03-15,2022-03-15,株式会社ｂｅｅＳ,,株式会社,埼玉県,新座市,野火止６丁目１４番１７号,,11,230,3520011,,,,,,,2022-03-15,1,,,,,ビーズ,0
880,4040001122612,新規,0,2022-03-15,2022-03-15,株式会社４５ＢＡＳＥ,,株式会社,千葉県,木更津市,富士見１丁目１０番１０号,,12,206,2920831,,,,,,,2022-03-15,1,,,,,ヨコベース,0
882,4050001050787,新規,0,2022-03-15,2022-03-15,株式会社ＡＮ　ＮＡＭ,,株式会社,茨城県,龍ケ崎市,出し山町６０３番地２,,08,208,3010839,,,,,,,2022-03-15,1,,,,,,0
884,4050005013030,新規,0,2022-03-15,2022-03-15,医療法人ＴＮＣ,,その他の設立登記法人,茨城県,笠間市,赤坂９番地１７,,08,216,3091616,,,,,,,2022-03-15,1,,,,,ティエヌシー,0
885,4060001034657,新規,0,2022-03-15,2022-03-15,株式会社ＬＯＯＫ　ＵＰ,,株式会社,栃木県,宇都宮市,陽東８丁目２２番１９号,,09,201,3210904,,,,,,,2022-03-15,1,,,,,ルックアップ,0
893,4080403004487,新規,0,2022-03-15,2022-03-15,マシフデジタルソリューション合同会社,,合同会社,静岡県,湖西市,新所２８７１番地,,22,221,4310421,,,,,,,2022-03-15,1,,,,,マシフデジタルソリューション,0
897,4110001036499,新規,0,2022-03-15,2022-03-15,株式会社ＮｏＢｉｒｄ,,株式会社,新潟県,三条市,本町１丁目４番２６号,,15,204,9550071,,,,,,,2022-03-15,1,,,,,ノーバード,0
908,4120001244472,新規,0,2022-03-15,2022-03-15,株式会社ＥＤＧＥ,,株式会社,大阪府,大阪市西区,江之子島１丁目７－３奥内阿波座ビル８１３,,27,106,5500006,,,,,,,2022-03-15,1,,,,,エッジ,0
909,4120003021267,新規,0,2022-03-15,2022-03-15,合同会社ＶＩＳＦＬＡＰ,,合同会社,大阪府,大阪市北区,梅田１丁目１－３大阪駅前第３ビル２９階１－１－１号室,,27,127,5300001,,,,,,,2022-03-15,1,,,,,ビズフラップ,0
916,4120901045714,新規,0,2022-03-15,2022-03-15,株式会社エターナルカンパニー,,株式会社,大阪府,吹田市,片山町３丁目２番３３号ナカノビル３Ｆ,,27,205,5640082,,,,,,,2022-03-15,1,,,,,エターナルカンパニー,0
926,4130003007810,新規,0,2022-03-15,2022-03-15,一本木合同会社,,合同会社,京都府,京都市西京区,上桂前田町４４－１９,,26,111,6158223,,,,,,,2022-03-15,1,,,,,イポンギ,0
941,4140003017461,新規,0,2022-03-15,2022-03-15,合同会社ＫＯＢＡ,,合同会社,兵庫県,神戸市長田区,浜添通６丁目１番２３号ＮＥＸＴＹＯＵ３０３号,,28,106,6530024,,,,,,,2022-03-15,1,,,,,コバ,0
951,4180001150376,新規,0,2022-03-15,2022-03-15,株式会社ＩＤライフサポート,,株式会社,愛知県,あま市,二ツ寺三本松１５０番地９,,23,237,4901207,,,,,,,2022-03-15,1,,,,,アイディライフサポート,0
958,4190001029223,新規,0,2022-03-15,2022-03-15,Ｍｊｏｉｎ株式会社,,株式会社,三重県,鈴鹿市,東旭が丘３丁目１１番１１号サーパス東旭が丘４０８,,24,207,5100211,,,,,,,2022-03-15,1,,,,,エムジョイン,0
970,4240001059470,新規,0,2022-03-15,2022-03-15,株式会社フクシゲ不動産,,株式会社,広島県,広島市安佐南区,川内３丁目２－１７,,34,105,7310102,,,,,,,2022-03-15,1,,,,,フクシゲフドウサン,0
975,4260003003846,新規,0,2022-03-15,2022-03-15,合同会社Ｐｏｗｅｒ‐Ａ,,合同会社,岡山県,岡山市南区,西市２９７－１２ポテトチップＩＩ１０２号,00125981,33,104,7000953,,,,,,,2022-03-15,1,,,,,パワーエー,0
976,4270001008474,新規,0,2022-03-15,2022-03-15,株式会社Ｂｕｚｚ　Ｂｅｅ,,株式会社,鳥取県,八頭郡八頭町,船岡１１５２番地２,,31,329,6800471,,,,,,,2022-03-15,1,,,,,バズビー,0
979,4290001096798,新規,0,2022-03-15,2022-03-15,株式会社Ｗｉｓｈ　Ｓｔｙｌｅ,,株式会社,福岡県,福岡市早良区,荒江３丁目１２番３４号,,40,137,8140021,,,,,,,2022-03-15,1,,,,,ウィッシュスタイル,0
980,4290001096815,新規,0,2022-03-15,2022-03-15,株式会社バイケーション,,株式会社,福岡県,糟屋郡新宮町,中央駅前２丁目８番１４－２０４号,,40,345,8110120,,,,,,,2022-03-15,1,,,,,バイケーション,0
987,4310005008598,新規,0,2022-03-15,2022-03-15,一般社団法人ナビ,,その他の設立登記法人,長崎県,諫早市,貝津町２１９６番地１,,42,204,8540063,,,,,,,2022-03-15,1,,,,,ナビ,0
992,4330001029539,新規,0,2022-03-15,2022-03-15,株式会社ＴＨＥ　ＨＯＰＥ,,株式会社,熊本県,熊本市中央区,世安１丁目６番７２号,,43,101,8600827,,,,,,,2022-03-15,1,,,,,ザホープ,0
1005,4370001048320,新規,0,2022-03-15,2022-03-15,ＨＲ　ＩＮＴＥＲＮＡＴＩＯＮＡＬ株式会社,,株式会社,宮城県,東松島市,宮戸字里３６番地２,,04,214,9810412,,,,,,,2022-03-15,1,,,,,エイチアールインターナショナル,0
1008,4380001032661,新規,0,2022-03-15,2022-03-15,株式会社ＫＳ電気,,株式会社,福島県,福島市,飯坂町平野字万代１８番地の１,,07,201,9600231,,,,,,,2022-03-15,1,,,,,ケーエスデンキ,0
1015,4400001015812,新規,0,2022-03-15,2022-03-15,株式会社メイズコーポレーション,,株式会社,岩手県,北上市,さくら通り３丁目１番１８号,,03,206,0240084,,,,,,,2022-03-15,1,,,,,メイズコーポレーション,0
1019,4420001017765,新規,0,2022-03-15,2022-03-15,ＲＩＳＯ株式会社,,株式会社,青森県,東津軽郡蓬田村,大字中沢字浪返６７番地２,,02,304,0301214,,,,,,,2022-03-15,1,,,,,リゾ,0
1020,4430001086215,新規,0,2022-03-15,2022-03-15,株式会社Ｚｉホールディングス,,株式会社,北海道,札幌市北区,北七条西２丁目２０番地,,01,102,0600807,,,,,,,2022-03-15,1,,,,,ジーホールディングス,0
1021,4430003013712,新規,0,2022-03-15,2022-03-15,合同会社アイケイエステート,,合同会社,北海道,札幌市北区,北九条西４丁目７番地４エルムビル,,01,102,0600809,,,,,,,2022-03-15,1,,,,,アイケイエステート,0
1035,4700150107396,新規,0,2022-03-15,2022-03-15,白水地区協議会,,その他,岡山県,美作市,白水１５０５,,33,215,7094251,,,,,,,2022-03-15,1,,,,,シラミズチクキヨウギカイ,0
1055,5010401166145,新規,0,2022-03-15,2022-03-15,株式会社ｍａｄｅ　ｂｏｒｎ　Ｊａｐａｎ,,株式会社,東京都,港区,西麻布３丁目１３番１６号,,13,103,1060031,,,,,,,2022-03-15,1,,,,,メイドボーンジャパン,0
1056,5010401166161,新規,0,2022-03-15,2022-03-15,株式会社Ｌｅｔ’ｓ,,株式会社,東京都,港区,東麻布２丁目２３番３号－１０３,,13,103,1060044,,,,,,,2022-03-15,1,,,,,レッツ,0
1057,5010403027270,新規,0,2022-03-15,2022-03-15,合同会社なかーま,,合同会社,東京都,港区,赤坂６丁目４－１１－３０５,,13,103,1070052,,,,,,,2022-03-15,1,,,,,ナカーマ,0
1058,5010403027279,新規,0,2022-03-15,2022-03-15,シティニオン・ジャパン合同会社,,合同会社,東京都,港区,新橋５丁目２３番７号三栄ビル４階エーアンドシー総合事務所内,,13,103,1050004,,,,,,,2022-03-15,1,,,,,シティニオンジャパン,0
1062,5010501048581,新規,0,2022-03-15,2022-03-15,ＰＬＵＳ　ＩＣＨＩ株式会社,,株式会社,東京都,台東区,浅草７丁目６番５－１００１号ルネフラッツ浅草,,13,106,1110032,,,,,,,2022-03-15,1,,,,,プラスイチ,0
1063,5010701042368,新規,0,2022-03-15,2022-03-15,Ｓｕｒｅｌｙホールディングス株式会社,,株式会社,東京都,品川区,西五反田１丁目１３番７号マルキビル３階,,13,109,1410031,,,,,,,2022-03-15,1,,,,,シュアリーホールディングス,0
1064,5010701042384,新規,0,2022-03-15,2022-03-15,株式会社ルーディス・テクノロジア,,株式会社,東京都,品川区,西五反田８丁目１１番２１号,,13,109,1410031,,,,,,,2022-03-15,1,,,,,ルーディステクノロジア,0
1073,5010903007219,新規,0,2022-03-15,2022-03-15,合同会社ＳＩＬＶＥＲ　ＢＡＣＫ,,合同会社,東京都,世田谷区,等々力８丁目１２番９号,,13,112,1580082,,,,,,,2022-03-15,1,,,,,シルバーバック,0
1077,5011001146231,新規,0,2022-03-15,2022-03-15,株式会社ＹＫＳ　Ｖｅｎｔｕｒｅｓ,,株式会社,東京都,目黒区,青葉台３丁目６番２８－２５０３号,,13,110,1530042,,,,,,,2022-03-15,1,,,,,ワイケイエスベンチャーズ,0
1078,5011001146248,新規,0,2022-03-15,2022-03-15,日京美喬株式会社,,株式会社,東京都,目黒区,中目黒３丁目１１番２４号中目黒シティハウス１０１,,13,110,1530061,,,,,,,2022-03-15,1,,,,,ニッキョウビキョウ,0
1079,5011001146297,新規,0,2022-03-15,2022-03-15,株式会社リヤドヴィンテージ,,株式会社,東京都,渋谷区,神宮前５丁目１２番１０号鈴木マンション４０３,,13,113,1500001,,,,,,,2022-03-15,1,,,,,リヤドヴィンテージ,0
1085,5011101098141,新規,0,2022-03-15,2022-03-15,株式会社満,,株式会社,東京都,新宿区,新宿６丁目２８番１０－８０４号,,13,104,1600022,,,,,,,2022-03-15,1,,,,,マン,0
1086,5011101098166,新規,0,2022-03-15,2022-03-15,ドラゴンホールディングス株式会社,,株式会社,東京都,新宿区,歌舞伎町１丁目６番２号Ｔ－ＷｉｎｇＳｈｉｎｊｕｋｕ９Ｆ,,13,104,1600021,,,,,,,2022-03-15,1,,,,,ドラゴンホールディングス,0
1087,5011103011564,新規,0,2022-03-15,2022-03-15,律祭合同会社,,合同会社,東京都,新宿区,新宿７丁目１２番１号新宿平和ビル１階,,13,104,1600022,,,,,,,2022-03-15,1,,,,,リッサイ,0
1088,5011103011572,新規,0,2022-03-15,2022-03-15,合同会社ＧｌｏｒｉｏｕｓＳｏｌｕｔｉｏｎ,,合同会社,東京都,新宿区,西新宿１丁目４番１１号全研プラザ５１０,,13,104,1600023,,,,,,,2022-03-15,1,,,,,グロリアスソリューション,0
1089,5011305002808,新規,0,2022-03-15,2022-03-15,一般社団法人ＥＤＯＲＧ　ＪＡＰＡＮ,,その他の設立登記法人,東京都,杉並区,西荻北２丁目２番５号,,13,115,1670042,,,,,,,2022-03-15,1,,,,,エドルグジャパン,0
1090,5011603003549,新規,0,2022-03-15,2022-03-15,合同会社エンジニアリングマネージメント,,合同会社,東京都,練馬区,旭町３丁目２３番１２号Ｓｏｒａ２０８,,13,120,1790071,,,,,,,2022-03-15,1,,,,,エンジニアリングマネージメント,0
1091,5011605002433,新規,0,2022-03-15,2022-03-15,医療法人社団蒼森会,,その他の設立登記法人,東京都,練馬区,北町６丁目３２番２９号パラシオン平和台１００号室,,13,120,1790081,,,,,,,2022-03-15,1,,,,,ソウシンカイ,0
1094,5011801040451,新規,0,2022-03-15,2022-03-15,株式会社ステライト,,株式会社,東京都,葛飾区,奥戸６丁目５番８号,,13,122,1240022,,,,,,,2022-03-15,1,,,,,ステライト,0
1096,5012401038984,新規,0,2022-03-15,2022-03-15,株式会社ミートテック,,株式会社,東京都,三鷹市,中原１丁目２０－９グランデュール中原２０５,,13,204,1810005,,,,,,,2022-03-15,1,,,,,ミートテック,0
1116,5030001147221,新規,0,2022-03-15,2022-03-15,向島産機株式会社,,株式会社,埼玉県,三郷市,高州２丁目３２番１号,,11,237,3410037,,,,,,,2022-03-15,1,,,,,ムコウジマサンキ,0
1117,5030001147270,新規,0,2022-03-15,2022-03-15,株式会社叶生,,株式会社,埼玉県,川越市,岸町２丁目３９番地５パークイン岸町１０６,,11,201,3501131,,,,,,,2022-03-15,1,,,,,カナウ,0
1119,5030003019022,新規,0,2022-03-15,2022-03-15,合同会社ビーサポート,,合同会社,埼玉県,越谷市,赤山町３丁目９７番地５,,11,222,3430807,,,,,,,2022-03-15,1,,,,,ビーサポート,0
1122,5040001122594,新規,0,2022-03-15,2022-03-15,株式会社ｏｎｅ　ｐｒｏｐ,,株式会社,千葉県,船橋市,行田１丁目１８番３号,,12,204,2730044,,,,,,,2022-03-15,1,,,,,ワンプロップ,0
1123,5040001122628,新規,0,2022-03-15,2022-03-15,ＪＯＹ　ＩＮＴＥＲＮＡＴＩＯＮＡＬ株式会社,,株式会社,千葉県,野田市,東宝珠花１０３番地１,,12,208,2700226,,,,,,,2022-03-15,1,,,,,ジョイインターナショナル,0
1126,5050001050786,新規,0,2022-03-15,2022-03-15,香倉株式会社,,株式会社,茨城県,ひたちなか市,大字市毛９９５番地１５,,08,221,3120033,,,,,,,2022-03-15,1,,,,,コウソウ,0
1127,5050001050794,新規,0,2022-03-15,2022-03-15,株式会社ライズプラネット,,株式会社,茨城県,守谷市,松前台２丁目１１番地１,,08,224,3020102,,,,,,,2022-03-15,1,,,,,ライズプラネット,0
1130,5070001039043,新規,0,2022-03-15,2022-03-15,株式会社アールアイ,,株式会社,群馬県,高崎市,台新田町２４番地１,,10,202,3701206,,,,,,,2022-03-15,1,,,,,アールアイ,0
1136,5080003002758,新規,0,2022-03-15,2022-03-15,ＭＹＴエンジニアリング合同会社,,合同会社,静岡県,静岡市葵区,紺屋町１７番１号葵タワー１階,,22,101,4200852,,,,,,,2022-03-15,1,,,,,エムワイティーエンジニアリング,0
1137,5080101023152,新規,0,2022-03-15,2022-03-15,エム株式会社,,株式会社,静岡県,沼津市,神田町６番３‐２号ベラカーサ神田Ｉ‐２０１,00125968,22,203,4100042,,,,,,,2022-03-15,1,,,,,エム,0
1138,5080103002550,新規,0,2022-03-15,2022-03-15,Ｔｅｒａｈｅｒｚ７２５合同会社,,合同会社,静岡県,沼津市,南本郷町８番２８号,,22,203,4100815,,,,,,,2022-03-15,1,,,,,テラヘルツナツコ,0
1139,5080401025682,新規,0,2022-03-15,2022-03-15,株式会社クリア,,株式会社,静岡県,掛川市,上西郷１８８１番地の２７,,22,213,4360342,,,,,,,2022-03-15,1,,,,,クリア,0
1141,5100003006459,新規,0,2022-03-15,2022-03-15,ＲＩＧＯ合同会社,,合同会社,長野県,長野市,中越２丁目８番２７号,,20,201,3810044,,,,,,,2022-03-15,1,,,,,リゴ,0
1153,5120001244488,新規,0,2022-03-15,2022-03-15,株式会社ＴＨＲＥＥ　ＧＯＬＤ,,株式会社,大阪府,大阪市北区,西天満６丁目７番４－６０３号,,27,127,5300047,,,,,,,2022-03-15,1,,,,,スリーゴールド,0
1156,5120003021282,新規,0,2022-03-15,2022-03-15,合同会社Ｗｉｔｈｏｕｔ　Ｙｏｕ,,合同会社,大阪府,大阪市都島区,都島北通１丁目１５番２６号リリカルハウス４０３号,,27,102,5340014,,,,,,,2022-03-15,1,,,,,ウィズアウトユー,0
1157,5120101065223,新規,0,2022-03-15,2022-03-15,株式会社一期,,株式会社,大阪府,高石市,高師浜１丁目１４番１８号,,27,225,5920004,,,,,,,2022-03-15,1,,,,,イチゴ,0
1160,5120901045721,新規,0,2022-03-15,2022-03-15,株式会社福商,,株式会社,大阪府,高槻市,三島江４丁目１１番３号,,27,207,5690835,,,,,,,2022-03-15,1,,,,,フクショウ,0
1161,5122003002295,新規,0,2022-03-15,2022-03-15,ＢｕｉｌｄＷｏｒｋ合同会社,,合同会社,大阪府,東大阪市,長堂１丁目８番３７号ヴェルノール布施３階ＲｅｑｒｅｅＶｅｌｌｎｏｒｄ,,27,227,5770056,,,,,,,2022-03-15,1,,,,,ビルドワーク,0
1173,5140001125265,新規,0,2022-03-15,2022-03-15,エフケー株式会社,,株式会社,兵庫県,神戸市中央区,三宮町３丁目９番１３号,,28,110,6500021,,,,,,,2022-03-15,1,,,,,エフケー,0
1174,5140001125273,新規,0,2022-03-15,2022-03-15,株式会社シナリーありか,,株式会社,兵庫県,神戸市中央区,北野町１丁目１番,,28,110,6500002,,,,,,,2022-03-15,1,,,,,シナリーアリカ,0
1176,5140003017460,新規,0,2022-03-15,2022-03-15,合同会社Ｌｅ　Ｓａｇｉｔｔａｉｒｅ,,合同会社,兵庫県,西宮市,老松町１３番２４－３０１号,,28,204,6620085,,,,,,,2022-03-15,1,,,,,ルサジテール,0
1183,5160003002510,新規,0,2022-03-15,2022-03-15,Ｒｉ’ｔａｓ合同会社,,合同会社,滋賀県,大津市,におの浜３丁目２番７－１６０２号,,25,201,5200801,,,,,,,2022-03-15,1,,,,,リッタス,0
1192,5180001150383,新規,0,2022-03-15,2022-03-15,ジーエー企画株式会社,,株式会社,愛知県,名古屋市西区,長先町１９８番地,,23,104,4520838,,,,,,,2022-03-15,1,,,,,ジーエーキカク,0
1193,5180001150391,新規,0,2022-03-15,2022-03-15,株式会社Ｓａｎｓｈｏ,,株式会社,愛知県,名古屋市緑区,鹿山２丁目８２番１,,23,114,4580045,,,,,,,2022-03-15,1,,,,,サンショウ,0
1194,5180005019674,新規,0,2022-03-15,2022-03-15,一般財団法人ホドル,,その他の設立登記法人,愛知県,名古屋市西区,名駅２丁目３４番１７号セントラル名古屋１１０１号,,23,104,4510045,,,,,,,2022-03-15,1,,,,,ホドル,0
1196,5180301036019,新規,0,2022-03-15,2022-03-15,株式会社Ｂａｉｌｅ,,株式会社,愛知県,田原市,高松町広子村９０‐２,,23,231,4413501,,,,,,,2022-03-15,1,,,,,バイル,0
1198,5180303005277,新規,0,2022-03-15,2022-03-15,合同会社ＫＴＨ,,合同会社,愛知県,豊橋市,仲ノ町１１４番地１,,23,201,4400046,,,,,,,2022-03-15,1,,,,,ケイティーエイチ,0
1202,5200001039863,新規,0,2022-03-15,2022-03-15,株式会社ツクル,,株式会社,岐阜県,不破郡垂井町,東神田３丁目１５１番地の３,,21,361,5032125,,,,,,,2022-03-15,1,,,,,ツクル,0
1213,5240005015361,新規,0,2022-03-15,2022-03-15,広島キッチンカー協同組合,,その他の設立登記法人,広島県,東広島市,八本松町吉川５５７２番地５,,34,212,7390152,,,,,,,2022-03-15,1,,,,,ヒロシマキッチンカー,0
1217,5260003003845,新規,0,2022-03-15,2022-03-15,合同会社坂田総研,,合同会社,岡山県,岡山市北区,野田屋町１丁目５番２４号,,33,101,7000815,,,,,,,2022-03-15,1,,,,,サカタソウケン,0
1228,5290803004081,新規,0,2022-03-15,2022-03-15,８Ｂｕｓｉｎｅｓｓ合同会社,,合同会社,福岡県,遠賀郡芦屋町,中ノ浜１１番１４－１号,,40,381,8070113,,,,,,,2022-03-15,1,,,,,エイトビジネス,0
1229,5300001012843,新規,0,2022-03-15,2022-03-15,左官信松尾株式会社,,株式会社,佐賀県,唐津市,呼子町呼子４２００番地３,,41,202,8470303,,,,,,,2022-03-15,1,,,,,サカンシンマツオ,0
1241,5340001024570,新規,0,2022-03-15,2022-03-15,株式会社メロディービーンズ,,株式会社,鹿児島県,鹿児島市,真砂本町５３－３第一誠和ビル１０２,,46,201,8900067,,,,,,,2022-03-15,1,,,,,メロディービーンズ,0
1243,5350005006052,新規,0,2022-03-15,2022-03-15,一般社団法人ＴＯＲＩＨＡＤＡＬＡＢＯ,,その他の設立登記法人,宮崎県,宮崎市,宮崎駅東１丁目５番地１サーパス宮崎駅東１３０４号,,45,201,8800879,,,,,,,2022-03-15,1,,,,,トリハダラボ,0
1258,5400001015811,新規,0,2022-03-15,2022-03-15,株式会社３１２,,株式会社,岩手県,盛岡市,下太田下川原５８番地２ガレントＭ２０１号,,03,201,0200051,,,,,,,2022-03-15,1,,,,,ミイツ,0
1259,5430001086197,新規,0,2022-03-15,2022-03-15,Ｖ＆Ｃインベストメント・パートナーズ株式会社,,株式会社,北海道,札幌市白石区,本通２丁目南４番１６号アリテＳＢ２階,,01,104,0030026,,,,,,,2022-03-15,1,,,,,ブイアンドシーインベストメントパートナーズ,0
1270,5500005008470,新規,0,2022-03-15,2022-03-15,一般社団法人ＫＵＭＡＹＡＭＡ　ＳＴＯＲＩＥＳ,,その他の設立登記法人,愛媛県,上浮穴郡久万高原町,上野尻甲５６５番地,,38,386,7911206,,,,,,,2022-03-15,1,,,,,クマヤマストーリーズ,0
1282,6010001225168,新規,0,2022-03-15,2022-03-15,Ｋｉｚｕｎａ　Ｈｏｌｄｉｎｇｓ株式会社,,株式会社,東京都,中央区,築地２丁目５－７ＡＣＮ築地二丁目ビル６階,,13,102,1040045,,,,,,,2022-03-15,1,,,,,キズナホールディングス,0
1291,6010401166169,新規,0,2022-03-15,2022-03-15,株式会社ＦＡＲ＆ＥＡＳＴ,,株式会社,東京都,港区,赤坂８丁目４番１４号青山タワープレイス８Ｆ,,13,103,1070052,,,,,,,2022-03-15,1,,,,,ファーアンドイースト,0
1292,6010401166193,新規,0,2022-03-15,2022-03-15,グッドチャレンジ株式会社,,株式会社,東京都,港区,港南２丁目１６－４品川グランドセントラルタワー１７階,,13,103,1080075,,,,,,,2022-03-15,1,,,,,グッドチャレンジ,0
1296,6010605004059,新規,0,2022-03-15,2022-03-15,日本開発２特定目的会社,,その他の設立登記法人,東京都,江東区,亀戸６丁目５６番１５号,,13,108,1360071,,,,,,,2022-03-15,1,,,,,ニホンカイハツツー,0
1308,6010803004091,新規,0,2022-03-15,2022-03-15,Ｓａｉｂｏｕ　ｌｎｔｅｒｎａｔｉｏｎａｌ合同会社,,合同会社,東京都,大田区,下丸子１丁目１６－７,,13,111,1460092,,,,,,,2022-03-15,1,,,,,サイボウインターナショナル,0
1310,6010903007192,新規,0,2022-03-15,2022-03-15,合同会社ＲＡＫＵＧＯを世界へ,,合同会社,東京都,世田谷区,北沢２丁目３０－１４重宗ビル３Ｆ,,13,112,1550031,,,,,,,2022-03-15,1,,,,,ラクゴヲセカイエ,0
1311,6010903007218,新規,0,2022-03-15,2022-03-15,合同会社下北ＧＲＩＰ,,合同会社,東京都,世田谷区,北沢２丁目２５－２０東洋興業ビル３Ｆ,,13,112,1550031,,,,,,,2022-03-15,1,,,,,シモキタグリップ,0
1314,6011001146247,新規,0,2022-03-15,2022-03-15,株式会社ドゥーブルー,,株式会社,東京都,目黒区,上目黒３丁目１０番３号,,13,110,1530051,,,,,,,2022-03-15,1,,,,,ドゥーブルー,0
1315,6011001146255,新規,0,2022-03-15,2022-03-15,イノープ株式会社,,株式会社,東京都,渋谷区,円山町２５－１島田ビル２０２,,13,113,1500044,,,,,,,2022-03-15,1,,,,,イノープ,0
1316,6011001146288,新規,0,2022-03-15,2022-03-15,株式会社３８０,,株式会社,東京都,渋谷区,富ヶ谷２丁目１９番５－３０３号,,13,113,1510063,,,,,,,2022-03-15,1,,,,,サンハチゼロ,0
1317,6011003014344,新規,0,2022-03-15,2022-03-15,合同会社ヘイズ,,合同会社,東京都,渋谷区,渋谷２丁目１９－１５宮益坂ビルディング６０９,,13,113,1500002,,,,,,,2022-03-15,1,,,,,ヘイズ,0
1322,6011101098140,新規,0,2022-03-15,2022-03-15,株式会社ノラクロ,,株式会社,東京都,新宿区,西新宿６丁目２５－８アトラスタワー西新宿１５０４,,13,104,1600023,,,,,,,2022-03-15,1,,,,,ノラクロ,0
1323,6011101098165,新規,0,2022-03-15,2022-03-15,株式会社ストリーム,,株式会社,東京都,新宿区,大久保１丁目７－１８アサヒニューシティビル,,13,104,1690072,,,,,,,2022-03-15,1,,,,,ストリーム,0
1325,6011601025791,新規,0,2022-03-15,2022-03-15,グリーン・セカンド株式会社,,株式会社,東京都,練馬区,関町東２丁目１４番４号,,13,120,1770052,,,,,,,2022-03-15,1,,,,,グリーンセカンド,0
1334,6012705002297,新規,0,2022-03-15,2022-03-15,一般社団法人妊活サポータ連盟,,その他の設立登記法人,東京都,小平市,花小金井１丁目１４－５武蔵野プラザ２０３,,13,211,1870002,,,,,,,2022-03-15,1,,,,,ニンカツサポータレンメイ,0
1343,6020001145596,新規,0,2022-03-15,2022-03-15,株式会社Ｂｌｏｏｍ,,株式会社,神奈川県,川崎市中原区,新丸子町７６７セピアハイム４Ａ号室,,14,133,2110005,,,,,,,2022-03-15,1,,,,,ブルーム,0
1344,6020001145646,新規,0,2022-03-15,2022-03-15,株式会社スマートハウス,,株式会社,神奈川県,横浜市泉区,下飯田町９２８番地２５,,14,116,2450017,,,,,,,2022-03-15,1,,,,,スマートハウス,0
1368,6040001122627,新規,0,2022-03-15,2022-03-15,関東資源株式会社,,株式会社,千葉県,木更津市,伊豆島１１１８－１,,12,206,2920034,,,,,,,2022-03-15,1,,,,,カントウシゲン,0
1371,6040003019664,新規,0,2022-03-15,2022-03-15,ＫＡＬＯＮ合同会社,,合同会社,千葉県,市川市,平田１丁目１－２３,,12,203,2720031,,,,,,,2022-03-15,1,,,,,カロン,0
1373,6050001050785,新規,0,2022-03-15,2022-03-15,Ｊａｋｅ　Ｉｔｏ　Ｐｒｏｄｕｃｔｓ　Ｄｅｓｉｇｎ株式会社,,株式会社,茨城県,つくば市,吾妻２丁目５番地１,,08,220,3050031,,,,,,,2022-03-15,1,,,,,ジェイクイトウプロダクツデザイン,0
1375,6070001039042,新規,0,2022-03-15,2022-03-15,株式会社ＮＡＯ,,株式会社,群馬県,高崎市,日高町４７６番地４,,10,202,3700002,,,,,,,2022-03-15,1,,,,,ナオ,0
1376,6080001024811,新規,0,2022-03-15,2022-03-15,株式会社古優築,,株式会社,静岡県,焼津市,宗高１２７７番地の１,,22,212,4210205,,,,,,,2022-03-15,1,,,,,コユキ,0
1382,6080105006227,新規,0,2022-03-15,2022-03-15,一般社団法人日本花と緑のインテリア協会,,その他の設立登記法人,静岡県,沼津市,平町１９‐３７モンシャトー沼津平町１０３,,22,203,4100036,,,,,,,2022-03-15,1,,,,,ニホンハナトミドリノインテリアキョウカイ,0
1384,6100001035153,新規,0,2022-03-15,2022-03-15,株式会社大日方板金,,株式会社,長野県,長野市,大字茂菅３０８番地１,,20,201,3800874,,,,,,,2022-03-15,1,,,,,オビナタバンキン,0
1397,6120001244248,新規,0,2022-03-15,2022-03-15,株式会社ＫＩＺＵＮＡ,,株式会社,大阪府,枚方市,茄子作３丁目２０番５－１０１号,,27,210,5730071,,,,,,,2022-03-15,1,,,,,キズナ,0
1398,6120001244421,新規,0,2022-03-15,2022-03-15,株式会社ＳＯＯＭ,,株式会社,大阪府,大阪市北区,豊崎５丁目２番４号アスヴェル梅田北１００３,,27,127,5310072,,,,,,,2022-03-15,1,,,,,ソーム,0
1399,6120001244462,新規,0,2022-03-15,2022-03-15,株式会社スタートライン,,株式会社,大阪府,大阪市中央区,釣鐘町１丁目６番２号橋本ビル４０５,,27,128,5400035,,,,,,,2022-03-15,1,,,,,スタートライン,0
1404,6120003021281,新規,0,2022-03-15,2022-03-15,合同会社ハイボン,,合同会社,大阪府,大阪市生野区,巽中１丁目１９番３６号,00125969,27,116,5440013,,,,,,,2022-03-15,1,,,,,ハイボン,0
1406,6120903004063,新規,0,2022-03-15,2022-03-15,合同会社ＡＴＳ,,合同会社,大阪府,高槻市,八丁西町３番３３号,,27,207,5690095,,,,,,,2022-03-15,1,,,,,エーティーエス,0
1415,6140001125280,新規,0,2022-03-15,2022-03-15,株式会社ラフテル,,株式会社,兵庫県,加古郡稲美町,国岡６４６番地の７,,28,381,6751115,,,,,,,2022-03-15,1,,,,,ラフテル,0
1418,6140005026070,新規,0,2022-03-15,2022-03-15,一般社団法人いきいき応援プロジェクト,,その他の設立登記法人,兵庫県,西宮市,上田西町１－１,,28,204,6638135,,,,,,,2022-03-15,1,,,,,イキイキオウエンプロジェクト,0
1419,6150001025406,新規,0,2022-03-15,2022-03-15,アイ防災株式会社,,株式会社,奈良県,生駒郡三郷町,信貴ケ丘１丁目１－３０ラフィーネ信貴ヶ丘１０５号室,,29,343,6360813,,,,,,,2022-03-15,1,,,,,アイボウサイ,0
1426,6180001150325,新規,0,2022-03-15,2022-03-15,株式会社ディーエイト,,株式会社,愛知県,名古屋市北区,下飯田町４丁目７１番地,,23,103,4620865,,,,,,,2022-03-15,1,,,,,ディーエイト,0
1431,6180303005276,新規,0,2022-03-15,2022-03-15,合同会社ＭＩ,,合同会社,愛知県,豊橋市,松葉町２丁目４２番地２,,23,201,4400897,,,,,,,2022-03-15,1,,,,,エムアイ,0
1433,6190001029213,新規,0,2022-03-15,2022-03-15,株式会社ｘＲＳ,,株式会社,三重県,伊勢市,桜木町７番地５,,24,203,5160027,,,,,,,2022-03-15,1,,,,,エックスアールエス,0
1434,6190001029221,新規,0,2022-03-15,2022-03-15,Ａ．Ｒ．Ｔ．ｗｏｒｋｓ株式会社,,株式会社,三重県,津市,庄田町２１４６番地,,24,201,5141255,,,,,,,2022-03-15,1,,,,,エーアールティーワークス,0
1441,6240001059469,新規,0,2022-03-15,2022-03-15,株式会社Ｔｒｅ’ｂｕｃｈｅｔ,,株式会社,広島県,広島市中区,小網町６番８－６０５号,,34,101,7300855,,,,,,,2022-03-15,1,,,,,トレビュシェット,0
1477,6370001048319,新規,0,2022-03-15,2022-03-15,ＭＩＲＡＪ　ＴＲＡＤＩＮＧ株式会社,,株式会社,宮城県,仙台市青葉区,山手町９番３２号ＦパレスＩＩ－２０４,00125965,04,101,9810967,,,,,,,2022-03-15,1,,,,,ミラジトレーディング,0
1478,6370001048327,新規,0,2022-03-15,2022-03-15,株式会社雅ｅｄｉｔ,,株式会社,宮城県,仙台市泉区,館３丁目１７－１１,,04,105,9813214,,,,,,,2022-03-15,1,,,,,ミヤビエディット,0
1494,6430001086213,新規,0,2022-03-15,2022-03-15,株式会社モニタウン,,株式会社,北海道,札幌市中央区,南十四条西６丁目６番８号,,01,101,0640914,,,,,,,2022-03-15,1,,,,,モニタウン,0
1495,6430001086221,新規,0,2022-03-15,2022-03-15,株式会社大東フーズ,,株式会社,北海道,札幌市中央区,北五条西９丁目１１番地,,01,101,0600005,,,,,,,2022-03-15,1,,,,,ダイトウフーズ,0
1498,6430003013710,新規,0,2022-03-15,2022-03-15,合同会社Ａｎｔ　Ａｃｃｏｕｎｔｉｎｇ,,合同会社,北海道,札幌市北区,北十条西３丁目２３番地１ＴＨＥ　ＰＥＡＫ　ＳＡＰＰＯＲＯ１Ｆ－３６,,01,102,0010010,,,,,,,2022-03-15,1,,,,,アントアカウンティング,0
1502,6440001009049,新規,0,2022-03-15,2022-03-15,株式会社テレバース,,株式会社,北海道,函館市,本町１７番２号,,01,202,0400011,,,,,,,2022-03-15,1,,,,,テレバース,0
1506,6480001011678,新規,0,2022-03-15,2022-03-15,ＬＧＢＴＱ就職株式会社,,株式会社,徳島県,徳島市,八万町川南６７番地の１４,,36,201,7708082,,,,,,,2022-03-15,1,,,,,エルジービーティーキューシュウショク,0
1510,6490005006830,新規,0,2022-03-15,2022-03-15,一般社団法人奥四万十高知,,その他の設立登記法人,高知県,高岡郡津野町,永野２５７,,39,411,7850201,,,,,,,2022-03-15,1,,,,,,0
1525,7010001225191,新規,0,2022-03-15,2022-03-15,株式会社オーバース,,株式会社,東京都,千代田区,二番町５番地２麹町駅プラザ９０１,,13,101,1020084,,,,,,,2022-03-15,1,,,,,オーバース,0
1526,7010001225217,新規,0,2022-03-15,2022-03-15,株式会社ＣＨＣＰデンタル,,株式会社,東京都,中央区,八重洲２丁目５番１２号,,13,102,1040028,,,,,,,2022-03-15,1,,,,,シーエイチシーピーデンタル,0
1527,7010001225258,新規,0,2022-03-15,2022-03-15,株式会社アーバンロード,,株式会社,東京都,千代田区,丸の内１丁目１番３号日本生命丸の内ガーデンタワー３Ｆ,,13,101,1000005,,,,,,,2022-03-15,1,,,,,アーバンロード,0
1528,7010001225282,新規,0,2022-03-15,2022-03-15,エヌビービーパンプローナリース株式会社,,株式会社,東京都,中央区,日本橋浜町３丁目３番２号,,13,102,1030007,,,,,,,2022-03-15,1,,,,,エヌビービーパンプローナリース,0
1533,7010401166168,新規,0,2022-03-15,2022-03-15,アイレポ株式会社,,株式会社,東京都,港区,南青山２丁目２番１５号,,13,103,1070062,,,,,,,2022-03-15,1,,,,,アイレポ,0
1539,7010405020783,新規,0,2022-03-15,2022-03-15,一般社団法人全国町おこし支援協会,,その他の設立登記法人,東京都,港区,新橋２丁目９番５号中銀新橋ビル６階,,13,103,1050004,,,,,,,2022-03-15,1,,,,,ゼンコクマチオコシシエンキョウカイ,0
1540,7010501048588,新規,0,2022-03-15,2022-03-15,株式会社白山,,株式会社,東京都,台東区,雷門２丁目１９－１５石川ビル１階,,13,106,1110034,,,,,,,2022-03-15,1,,,,,シロヤマ,0
1541,7010605004058,新規,0,2022-03-15,2022-03-15,ジャパン・フジ特定目的会社,,その他の設立登記法人,東京都,江東区,亀戸６丁目５６番１５号,,13,108,1360071,,,,,,,2022-03-15,1,,,,,ジャパンフジ,0
1546,7010703006154,新規,0,2022-03-15,2022-03-15,合同会社ＰｏｎｄＧｒａｐｈｙ,,合同会社,東京都,品川区,東大井１丁目１３－５－５０３,,13,109,1400011,,,,,,,2022-03-15,1,,,,,ポンドグラフィー,0
1548,7010801032804,新規,0,2022-03-15,2022-03-15,株式会社マルチモーダルセンサテクノロジー,,株式会社,東京都,大田区,蒲田５丁目２４－４,,13,111,1440052,,,,,,,2022-03-15,1,,,,,マルチモーダルセンサテクノロジー,0
1552,7010903007233,新規,0,2022-03-15,2022-03-15,合同会社ＣＩＲＣＵＳ,,合同会社,東京都,世田谷区,豪徳寺１丁目４５－１１セイジョー豪徳寺ビル３Ｆ,,13,112,1540021,,,,,,,2022-03-15,1,,,,,サーカス,0
1559,7011001146295,新規,0,2022-03-15,2022-03-15,株式会社それっちゃ,,株式会社,東京都,目黒区,碑文谷５丁目２５番１号,,13,110,1520003,,,,,,,2022-03-15,1,,,,,ソレッチャ,0
1560,7011001146304,新規,0,2022-03-15,2022-03-15,株式会社ミタカエージェント,,株式会社,東京都,渋谷区,代々木１丁目３０番１５号,,13,113,1510053,,,,,,,2022-03-15,1,,,,,ミタカエージェント,0
1561,7011003014343,新規,0,2022-03-15,2022-03-15,合同会社ロウアウト,,合同会社,東京都,渋谷区,神宮前６丁目２３番４号桑野ビル２階,,13,113,1500001,,,,,,,2022-03-15,1,,,,,ロウアウト,0
1567,7011101098131,新規,0,2022-03-15,2022-03-15,株式会社Ｋ‐ＣＯＳＭＥＴＩＣ,,株式会社,東京都,新宿区,市谷左内町２２番地,,13,104,1620846,,,,,,,2022-03-15,1,,,,,ケーコスメティック,0
1568,7011101098148,新規,0,2022-03-15,2022-03-15,株式会社ｂｉｌ．ｌｉｎｋｓ,,株式会社,東京都,新宿区,下宮比町２－７ドメインビル４階,,13,104,1620822,,,,,,,2022-03-15,1,,,,,ビルリンクス,0
1569,7011101098172,新規,0,2022-03-15,2022-03-15,株式会社ＫＩＮＧ,,株式会社,東京都,新宿区,榎町３４番地３榎町ビル７Ｆ,,13,104,1620806,,,,,,,2022-03-15,1,,,,,キング,0
1575,7011201023699,新規,0,2022-03-15,2022-03-15,株式会社ネコユイ,,株式会社,東京都,中野区,東中野５丁目７番７号シティマンション東中野３０５号室,,13,114,1640003,,,,,,,2022-03-15,1,,,,,ネコユイ,0
1576,7011201023708,新規,0,2022-03-15,2022-03-15,ダズルポジショニング株式会社,,株式会社,東京都,中野区,本町１丁目３１番６号マンション中野坂上３０１号,,13,114,1640012,,,,,,,2022-03-15,1,,,,,ダズルポジショニング,0
1578,7011401024092,新規,0,2022-03-15,2022-03-15,株式会社ＹＥＬＬＴＲＯＮ,,株式会社,東京都,板橋区,成増２丁目１９番２号ＥＨ第７ビル２Ｆ,,13,119,1750094,,,,,,,2022-03-15,1,,,,,エルトロン,0
1580,7011501027838,新規,0,2022-03-15,2022-03-15,株式会社ケー七五三,,株式会社,東京都,荒川区,西日暮里６丁目５１番１０号アークプラザ西日暮里７０３,,13,118,1160013,,,,,,,2022-03-15,1,,,,,ケーシチゴサン,0
1583,7011505002457,新規,0,2022-03-15,2022-03-15,医療法人社団雷鳥会,,その他の設立登記法人,東京都,北区,王子５丁目１番４０号サミットストア王子桜田通り店２階１４号室,,13,117,1140002,,,,,,,2022-03-15,1,,,,,ライチョウカイ,0
1584,7011601025799,新規,0,2022-03-15,2022-03-15,株式会社ＧＲＡＮＺ　ＤＥＳＩＧＮ,,株式会社,東京都,練馬区,豊玉南３丁目２７－２３,,13,120,1760014,,,,,,,2022-03-15,1,,,,,グランツデザイン,0
1591,7012401038974,新規,0,2022-03-15,2022-03-15,株式会社ＭＡＥアーキテクト,,株式会社,東京都,調布市,西つつじケ丘１丁目４番地１９,,13,208,1820006,,,,,,,2022-03-15,1,,,,,マエアーキテクト,0
1592,7012403005279,新規,0,2022-03-15,2022-03-15,Ｌ．Ｌ．Ｋａｎｗａｉｉ合同会社,,合同会社,東京都,武蔵野市,吉祥寺東町２丁目３８番１４号第一ユーキビル１階,,13,203,1800002,,,,,,,2022-03-15,1,,,,,エルエルカンワイイ,0
1605,7020001145645,新規,0,2022-03-15,2022-03-15,ａｎｄ　Ｂ株式会社,,株式会社,神奈川県,横浜市緑区,寺山町４９６番地２９コトハウスＤ,,14,113,2260013,,,,,,,2022-03-15,1,,,,,アンビー,0
1606,7020001145653,新規,0,2022-03-15,2022-03-15,株式会社中俣,,株式会社,神奈川県,横浜市旭区,白根３丁目１５番１５－６０８号,,14,112,2410005,,,,,,,2022-03-15,1,,,,,ナカマタ,0
1608,7020003021456,新規,0,2022-03-15,2022-03-15,Ａｃｕｂｅ　Ｆｏｕｎｄａｔｉｏｎ合同会社,,合同会社,神奈川県,横浜市鶴見区,東寺尾中台２２番２３号ヒルズ東寺尾３０３,,14,101,2300017,,,,,,,2022-03-15,1,,,,,アキューブファウンデーション,0
1616,7030003019020,新規,0,2022-03-15,2022-03-15,Ｈ＆Ｚ合同会社,,合同会社,埼玉県,川口市,本町３丁目６番１９－１３０２号,,11,203,3320012,,,,,,,2022-03-15,1,,,,,エイチアンドゼット,0
1617,7030005020752,新規,0,2022-03-15,2022-03-15,特定非営利活動法人新しい住まい方研究所,,その他の設立登記法人,埼玉県,さいたま市緑区,大字三室６８０番地,,11,109,3360911,,,,,,,2022-03-15,1,,,,,アタラシイスマイカタケンキュウジョ,0
1622,7040003019655,新規,0,2022-03-15,2022-03-15,合同会社Ｂｉｚｆｕｌ,,合同会社,千葉県,印西市,内野２丁目６番地３８棟３０６,,12,231,2701347,,,,,,,2022-03-15,1,,,,,ビズフル,0
1623,7040003019663,新規,0,2022-03-15,2022-03-15,合同会社クボシン,,合同会社,千葉県,富里市,七栄９０４番地２０,,12,233,2860221,,,,,,,2022-03-15,1,,,,,クボシン,0
1624,7040003019671,新規,0,2022-03-15,2022-03-15,合同会社シェモア,,合同会社,千葉県,市原市,姉崎１８０８番地８,,12,219,2990111,,,,,,,2022-03-15,1,,,,,シェモア,0
1629,7080003002756,新規,0,2022-03-15,2022-03-15,合同会社ＳＯＲＥＴＡ,,合同会社,静岡県,焼津市,上新田５６３番地の１,,22,212,4210206,,,,,,,2022-03-15,1,,,,,ソレタ,0
1632,7080103002549,新規,0,2022-03-15,2022-03-15,合同会社ＫＯＭＯＲＥＢＩ,,合同会社,静岡県,田方郡函南町,畑５２７番地の３１１,,22,325,4190104,,,,,,,2022-03-15,1,,,,,コモレビ,0
1633,7080105006226,新規,0,2022-03-15,2022-03-15,一般社団法人三島せせらぎアンサンブル,,その他の設立登記法人,静岡県,三島市,日の出町４番５１号,,22,206,4110851,,,,,,,2022-03-15,1,,,,,ミシマセセラギアンサンブル,0
1637,7110001036505,新規,0,2022-03-15,2022-03-15,株式会社Ｌｏｃｏｗａｙ,,株式会社,新潟県,長岡市,花園南１丁目１１５,,15,202,9400841,,,,,,,2022-03-15,1,,,,,ロコウェイ,0
1665,7120001244461,新規,0,2022-03-15,2022-03-15,株式会社谷村エステート,,株式会社,大阪府,枚方市,出屋敷元町２丁目１５番２７号,,27,210,5730002,,,,,,,2022-03-15,1,,,,,タニムラエステート,0
1668,7120003021289,新規,0,2022-03-15,2022-03-15,合同会社ＭＹＯＳ,,合同会社,大阪府,大阪市西区,京町堀２丁目４－１－２６０５,,27,106,5500003,,,,,,,2022-03-15,1,,,,,エムワイオーエス,0
1669,7120005022839,新規,0,2022-03-15,2022-03-15,一般社団法人Ｈｅａｌｔｈ,,その他の設立登記法人,大阪府,大阪市東淀川区,西淡路１丁目１番９号５２１号,,27,114,5330031,,,,,,,2022-03-15,1,,,,,ヘルス,0
1672,7120903004062,新規,0,2022-03-15,2022-03-15,Ｎｏｒｔｈｓｉｄｅ　Ｖｉｌｌａｇｅ合同会社,,合同会社,大阪府,高槻市,寿町３丁目１１番２９号,,27,207,5690826,,,,,,,2022-03-15,1,,,,,ノースサイドビレッジ,0
1693,7140001125239,新規,0,2022-03-15,2022-03-15,ＭｉＲｉｚｅ株式会社,,株式会社,兵庫県,姫路市,香寺町香呂９０番地６,,28,201,6792151,,,,,,,2022-03-15,1,,,,,ミライズ,0
1700,7170005006952,新規,0,2022-03-15,2022-03-15,一般社団法人和歌山紀北国際振興協会,,その他の設立登記法人,和歌山県,有田郡広川町,大字広３０６番地,,30,362,6430071,,,,,,,2022-03-15,1,,,,,ワカヤマキホクコクサイシンコウキョウカイ,0
1704,7180003023610,新規,0,2022-03-15,2022-03-15,ネクストリー合同会社,,合同会社,愛知県,岩倉市,下本町真光寺４４番地２エスポア岩倉１０２号,,23,228,4820005,,,,,,,2022-03-15,1,,,,,ネクストリー,0
1709,7190005011678,新規,0,2022-03-15,2022-03-15,南海真珠養殖漁業協同組合,,その他の設立登記法人,三重県,度会郡南伊勢町,礫浦７５番地の２５,,24,472,5160117,,,,,,,2022-03-15,1,,,,,ナンカイシンジュヨウショク,0
1713,7200003005498,新規,0,2022-03-15,2022-03-15,合同会社奥飛騨源兵衛,,合同会社,岐阜県,高山市,下切町２０６番地５,,21,203,5060041,,,,,,,2022-03-15,1,,,,,オクヒダゲンベイ,0
1722,7240003005552,新規,0,2022-03-15,2022-03-15,合同会社アルパ,,合同会社,広島県,広島市南区,東雲２丁目３番３４号,,34,103,7340022,,,,,,,2022-03-15,1,,,,,アルパ,0
1730,7260003003843,新規,0,2022-03-15,2022-03-15,合同会社ＳＡＩ,,合同会社,岡山県,岡山市北区,旭本町１番３３号,,33,101,7000865,,,,,,,2022-03-15,1,,,,,サイ,0
1733,7280001008660,新規,0,2022-03-15,2022-03-15,ＲｉＢｒｏＶａ株式会社,,株式会社,島根県,益田市,中島町ロ１８６番地１,,32,204,6980043,,,,,,,2022-03-15,1,,,,,リブロバ,0
1738,7290001096762,新規,0,2022-03-15,2022-03-15,株式会社ＫＬｌｅｏｎ,,株式会社,福岡県,福岡市博多区,博多駅前２丁目１番１号,,40,132,8120011,,,,,,,2022-03-15,1,,,,,クレオン,0
1743,7290801028329,新規,0,2022-03-15,2022-03-15,株式会社ＡＩＡＭ,,株式会社,福岡県,北九州市八幡西区,京良城町１２番３０号,,40,109,8060061,,,,,,,2022-03-15,1,,,,,アイアム,0
1745,7310001017765,新規,0,2022-03-15,2022-03-15,株式会社空設,,株式会社,長崎県,長崎市,小菅町１番１２号,,42,201,8500934,,,,,,,2022-03-15,1,,,,,クウセツ,0
1747,7320001018952,新規,0,2022-03-15,2022-03-15,株式会社牛神食堂,,株式会社,大分県,中津市,大字牛神４１５－８,,44,203,8710015,,,,,,,2022-03-15,1,,,,,ウシガミショクドウ,0
1748,7320001018960,新規,0,2022-03-15,2022-03-15,株式会社桝本創建,,株式会社,大分県,杵築市,大字大内４４８８番地５,,44,210,8730006,,,,,,,2022-03-15,1,,,,,マスモトソウケン,0
1758,7360003011869,新規,0,2022-03-15,2022-03-15,合同会社雅工業,,合同会社,沖縄県,宮古島市,平良字西里８８１番地７,,47,214,9060012,,,,,,,2022-03-15,1,,,,,ミヤビコウギョウ,0
1759,7370001048318,新規,0,2022-03-15,2022-03-15,株式会社エスペランサ,,株式会社,宮城県,仙台市太白区,富沢南１丁目２０番地の２,,04,104,9820036,,,,,,,2022-03-15,1,,,,,エスペランサ,0
1760,7370001048326,新規,0,2022-03-15,2022-03-15,株式会社ＰＯＮＴＥ,,株式会社,宮城県,仙台市泉区,歩坂町７１－２－２０５,,04,105,9813106,,,,,,,2022-03-15,1,,,,,ポンテ,0
1768,7430001086204,新規,0,2022-03-15,2022-03-15,株式会社エレキまめ,,株式会社,北海道,虻田郡倶知安町,南一条西２丁目１６番地５,,01,400,0440031,,,,,,,2022-03-15,1,,,,,エレキマメ,0
1769,7430001086212,新規,0,2022-03-15,2022-03-15,株式会社スマイルコンフィデンス,,株式会社,北海道,札幌市豊平区,豊平三条２丁目２番７号プレジデント豊平４０５,,01,105,0620903,,,,,,,2022-03-15,1,,,,,スマイルコンフィデンス,0
1770,7430001086220,新規,0,2022-03-15,2022-03-15,株式会社Ｌａｋｅ　Ｔｏｙａ　Ｂｅｅｒ,,株式会社,北海道,虻田郡洞爺湖町,大原２７６－９０,,01,584,0495821,,,,,,,2022-03-15,1,,,,,レイクトーヤビア,0
1774,7450005004333,新規,0,2022-03-15,2022-03-15,一般社団法人ペアレントサポート旭川,,その他の設立登記法人,北海道,旭川市,宮下通３丁目２１８１番地の２,,01,204,0700030,,,,,,,2022-03-15,1,,,,,ペアレントサポートアサヒカワ,0
1776,7480001011677,新規,0,2022-03-15,2022-03-15,株式会社Ｈ．ｎ　ｃｏｍｐａｎｙ,,株式会社,徳島県,勝浦郡勝浦町,大字棚野字織田１３－３,,36,301,7714306,,,,,,,2022-03-15,1,,,,,エイチドットエヌカンパニー,0
1790,8010005034720,新規,0,2022-03-15,2022-03-15,一般社団法人ＣＯＬＬＥＧＡ,,その他の設立登記法人,東京都,千代田区,二番町５番地７ＪＰビル,,13,101,1020084,,,,,,,2022-03-15,1,,,,,コッレーガ,0
1791,8010005034737,新規,0,2022-03-15,2022-03-15,舞洲開発特定目的会社,,その他の設立登記法人,東京都,千代田区,飯田橋４丁目７番１号結和税理士法人内,,13,101,1020072,,,,,,,2022-03-15,1,,,,,マイシマカイハツ,0
1799,8010401165937,新規,0,2022-03-15,2022-03-15,株式会社ワン・チーム,,株式会社,東京都,港区,南麻布１丁目３番２２－３０１号,,13,103,1060047,,,,,,,2022-03-15,1,,,,,ワンチーム,0
1807,8010701042308,新規,0,2022-03-15,2022-03-15,株式会社ｉｒｏｈａ．,,株式会社,東京都,品川区,東五反田１丁目６－３いちご東五反田ビル３１０,,13,109,1410022,,,,,,,2022-03-15,1,,,,,イロハ,0
1808,8010805002926,新規,0,2022-03-15,2022-03-15,医療法人社団Ｈａｐｐｉｎｅｓｓ　ｔｒｅｅ,,その他の設立登記法人,東京都,大田区,蒲田５丁目４４番１４号トオヤビル２階,,13,111,1440052,,,,,,,2022-03-15,1,,,,,ハピネスツリー,0
1814,8011001146294,新規,0,2022-03-15,2022-03-15,株式会社Ｓｃａｌｅｈａｃｋ,,株式会社,東京都,渋谷区,恵比寿４丁目２０番３号恵比寿ガーデンプレイスタワー８階,,13,113,1500013,,,,,,,2022-03-15,1,,,,,スケールハック,0
1825,8011501027837,新規,0,2022-03-15,2022-03-15,ル・スール株式会社,,株式会社,東京都,北区,浮間１丁目１番１４号リムジンビル２１３,,13,117,1150051,,,,,,,2022-03-15,1,,,,,ルスール,0
1826,8011503005106,新規,0,2022-03-15,2022-03-15,合同会社Ｅｔｅｒｎｉｔｙ　Ｅｘｐｒｅｓｓ,,合同会社,東京都,北区,中十条２丁目２２番１０号,,13,117,1140032,,,,,,,2022-03-15,1,,,,,エタニティーエクスプレス,0
1828,8011601025798,新規,0,2022-03-15,2022-03-15,株式会社イレブン,,株式会社,東京都,練馬区,北町２丁目１５番６号,,13,120,1790081,,,,,,,2022-03-15,1,,,,,イレブン,0
1831,8011603003546,新規,0,2022-03-15,2022-03-15,合同会社Ｍ’ｓ,,合同会社,東京都,練馬区,豊玉北６丁目３番７号ＵＳビル,,13,120,1760012,,,,,,,2022-03-15,1,,,,,エムズ,0
1834,8011801040449,新規,0,2022-03-15,2022-03-15,株式会社ＧＲＯＷ,,株式会社,東京都,足立区,江北３丁目３９－３１－Ｃ２,,13,121,1230872,,,,,,,2022-03-15,1,,,,,グロー,0
1837,8012403005278,新規,0,2022-03-15,2022-03-15,キングコング合同会社,,合同会社,東京都,稲城市,百村１６０２番地２－１０２,,13,225,2060804,,,,,,,2022-03-15,1,,,,,キングコング,0
1851,8021001075393,新規,0,2022-03-15,2022-03-15,ＳｔａｃｋＵＰ株式会社,,株式会社,神奈川県,大和市,鶴間１丁目２０－２０セレナヴィラ２０１,,14,213,2420004,,,,,,,2022-03-15,1,,,,,スタックアップ,0
1854,8021005012459,新規,0,2022-03-15,2022-03-15,特定非営利活動法人民謡ふるさとメモリウム,,その他の設立登記法人,神奈川県,横須賀市,追浜本町１丁目２番地１ルナタウン追浜１００２,,14,201,2370068,,,,,,,2022-03-15,1,,,,,ミンヨウフルサトメモリウム,0
1859,8030001147235,新規,0,2022-03-15,2022-03-15,株式会社アンドエデュケーション,,株式会社,埼玉県,志木市,中宗岡２丁目１３番１０号,,11,228,3530002,,,,,,,2022-03-15,1,,,,,アンドエデュケーション,0
1863,8040001122609,新規,0,2022-03-15,2022-03-15,株式会社ＳＧ＆Ｄ,,株式会社,千葉県,千葉市花見川区,作新台５丁目２０番１３号,,12,102,2620045,,,,,,,2022-03-15,1,,,,,エスジーアンドディー,0
1864,8040003019670,新規,0,2022-03-15,2022-03-15,ＮＥＸＴ　Ｊ合同会社,,合同会社,千葉県,市川市,原木３丁目１５番２３号,,12,203,2720004,,,,,,,2022-03-15,1,,,,,ネクストジェイ,0
1872,8080003002755,新規,0,2022-03-15,2022-03-15,合同会社ＲＯＹＡＬ　ＴＲＡＤＩＮＧ,,合同会社,静岡県,焼津市,相川１２９４番地の１,,22,212,4210216,,,,,,,2022-03-15,1,,,,,ロイヤルトレーディング,0
1880,8110001036504,新規,0,2022-03-15,2022-03-15,株式会社Ｓ・Ｒ,,株式会社,新潟県,新潟市中央区,米山３丁目１３番地１５号ｋａｙａｓｕｍｉｔｏｐｉａ１０５号,,15,103,9500916,,,,,,,2022-03-15,1,,,,,エスアール,0
1882,8110003004715,新規,0,2022-03-15,2022-03-15,合同会社たにぐち,,合同会社,新潟県,南蒲原郡田上町,大字田上丁１９１８－４８,,15,361,9591502,,,,,,,2022-03-15,1,,,,,タニグチ,0
1888,8120001244477,新規,0,2022-03-15,2022-03-15,株式会社ＯｓａｋａＣｉｔｙＳＣ,,株式会社,大阪府,大阪市東成区,大今里西１丁目６番９号ラフテル西邸１０３号,,27,115,5370014,,,,,,,2022-03-15,1,,,,,オーサカシティエスシー,0
1908,8122001035666,新規,0,2022-03-15,2022-03-15,株式会社高杉会,,株式会社,大阪府,東大阪市,四条町３番１８号ハイツ・ラーニョ３０３,,27,227,5798053,,,,,,,2022-03-15,1,,,,,タカスギカイ,0
1911,8130001071359,新規,0,2022-03-15,2022-03-15,株式会社らいおん不動産,,株式会社,京都府,京都市上京区,丸太町通日暮西入南伊勢屋町７５７番地２ササキビル３０３,,26,102,6028153,,,,,,,2022-03-15,1,,,,,ライオンフドウサン,0
1915,8140001125262,新規,0,2022-03-15,2022-03-15,ＭＧ　ｅｓｔａｔｅ株式会社,,株式会社,兵庫県,神戸市須磨区,高倉台２丁目１２番７号,,28,107,6540081,,,,,,,2022-03-15,1,,,,,エムジーエステイト,0
1916,8140001125270,新規,0,2022-03-15,2022-03-15,ＪＰ　ＭＥＴＡＬ　ＴＲＡＤＥ株式会社,,株式会社,兵庫県,尼崎市,金楽寺町２丁目３２番１９号,,28,202,6600806,,,,,,,2022-03-15,1,,,,,ジェイピーメタルトレード,0
1917,8140001125279,新規,0,2022-03-15,2022-03-15,株式会社ＡＱＵＡ　ＬＩＮＫＳ,,株式会社,兵庫県,神戸市東灘区,北青木３丁目１４番３－２号,,28,101,6580014,,,,,,,2022-03-15,1,,,,,アクアリンクス,0
1928,8180001150380,新規,0,2022-03-15,2022-03-15,ＤＥＰＡＲＴＵＲＥＳ株式会社,,株式会社,愛知県,小牧市,大字間々原新田６０８－１－３０２,,23,219,4850016,,,,,,,2022-03-15,1,,,,,デパーチャーズ,0
1929,8180001150397,新規,0,2022-03-15,2022-03-15,株式会社寺川興業,,株式会社,愛知県,名古屋市緑区,東神の倉３丁目１１１１番地の１１,,23,114,4580808,,,,,,,2022-03-15,1,,,,,テラカワコウギョウ,0
1934,8190001029228,新規,0,2022-03-15,2022-03-15,株式会社ＳＥＬＩＧＯ,,株式会社,三重県,志摩市,浜島町浜島３１９３番地,,24,215,5170404,,,,,,,2022-03-15,1,,,,,セリゴ,0
1935,8190003003924,新規,0,2022-03-15,2022-03-15,合同会社ユーロワン,,合同会社,三重県,津市,豊が丘１丁目４８－３,,24,201,5142222,,,,,,,2022-03-15,1,,,,,ユーロワン,0
1943,8260001036646,新規,0,2022-03-15,2022-03-15,株式会社アイル,,株式会社,岡山県,岡山市北区,幸町７番８号,,33,101,7000903,,,,,,,2022-03-15,1,,,,,アイル,0
1954,8290001096704,新規,0,2022-03-15,2022-03-15,株式会社Ｓ＆Ｓ,,株式会社,福岡県,みやま市,瀬高町大草４３２番地１,,40,229,8350005,,,,,,,2022-03-15,1,,,,,エスアンドエス,0
1955,8290001096761,新規,0,2022-03-15,2022-03-15,ｈｍｓ株式会社,,株式会社,福岡県,福岡市南区,清水３丁目２０番１５号２Ｆ,,40,134,8150031,,,,,,,2022-03-15,1,,,,,エイチエムエス,0
1956,8290001096794,新規,0,2022-03-15,2022-03-15,株式会社ＮｅｘｔＳｔａｉｒｓ,,株式会社,福岡県,福岡市中央区,大手門３丁目１４－２７ラフォーレ大濠パークアベニュー６０４,,40,133,8100074,,,,,,,2022-03-15,1,,,,,ネクストステアーズ,0
1957,8290001096803,新規,0,2022-03-15,2022-03-15,株式会社シェアネス,,株式会社,福岡県,福岡市東区,松香台１丁目２番２１号,,40,131,8130004,,,,,,,2022-03-15,1,,,,,シェアネス,0
1963,8300003001809,新規,0,2022-03-15,2022-03-15,クレオプレイス合同会社,,合同会社,佐賀県,小城市,小城町５５６番地１,,41,208,8450001,,,,,,,2022-03-15,1,,,,,クレオプレイス,0
1964,8310001017764,新規,0,2022-03-15,2022-03-15,ＤＰＳ株式会社,,株式会社,長崎県,長崎市,小江町２７３４番地８５,,42,201,8511133,,,,,,,2022-03-15,1,,,,,ディーピーエス,0
1973,8350001017637,新規,0,2022-03-15,2022-03-15,ネオフェアパートナーズ株式会社,,株式会社,宮崎県,宮崎市,高千穂通１丁目１７４番地高千穂プラザビル４階,,45,201,8800812,,,,,,,2022-03-15,1,,,,,ネオフェアパートナーズ,0
1975,8370003005621,新規,0,2022-03-15,2022-03-15,合同会社Ｗ企画,,合同会社,宮城県,仙台市青葉区,北根１丁目１３番１号,,04,101,9810902,,,,,,,2022-03-15,1,,,,,ダブリュウキカク,0
1987,8390001016825,新規,0,2022-03-15,2022-03-15,株式会社ペンキ屋,,株式会社,山形県,東村山郡中山町,大字達磨寺４番地,,06,302,9900403,,,,,,,2022-03-15,1,,,,,ペンキヤ,0
1992,8430001086194,新規,0,2022-03-15,2022-03-15,株式会社クローバー,,株式会社,北海道,札幌市白石区,本通１１丁目南７番９号ハヤシビル３Ｆ－Ｂ,,01,104,0030026,,,,,,,2022-03-15,1,,,,,クローバー,0
1993,8430001086203,新規,0,2022-03-15,2022-03-15,株式会社ミュージックパレット,,株式会社,北海道,札幌市南区,澄川五条５丁目１７番２３号,,01,106,0050005,,,,,,,2022-03-15,1,,,,,ミュージックパレット,0
1994,8430003013709,新規,0,2022-03-15,2022-03-15,合同会社Ｓｏｎｏｒｅｃｏ,,合同会社,北海道,札幌市白石区,本郷通５丁目北１番２６号,,01,104,0030025,,,,,,,2022-03-15,1,,,,,ソノレコ,0
1996,8470001019002,新規,0,2022-03-15,2022-03-15,株式会社シンクエイ,,株式会社,香川県,高松市,由良町１０９１番地２,,37,201,7610441,,,,,,,2022-03-15,1,,,,,シンクエイ,0
2003,9010001225280,新規,0,2022-03-15,2022-03-15,エヌビービームルシアリース株式会社,,株式会社,東京都,中央区,日本橋浜町３丁目３番２号,,13,102,1030007,,,,,,,2022-03-15,1,,,,,エヌビービームルシアリース,0
2004,9010005034736,新規,0,2022-03-15,2022-03-15,ディエイチ・ディベロップメント・フォー特定目的会社,,その他の設立登記法人,東京都,千代田区,飯田橋４丁目７番１号結和税理士法人内,,13,101,1020072,,,,,,,2022-03-15,1,,,,,ディエイチディベロップメントフォー,0
2007,9010101015103,新規,0,2022-03-15,2022-03-15,株式会社エニカク,,株式会社,東京都,八王子市,堀之内３丁目２９番地４タウンハイツ３０７号室,,13,201,1920355,,,,,,,2022-03-15,1,,,,,エニカク,0
2012,9010403027275,新規,0,2022-03-15,2022-03-15,デスタコンセプト合同会社,,合同会社,東京都,港区,港南２丁目１６番７,,13,103,1080075,,,,,,,2022-03-15,1,,,,,デスタコンセプト,0
2017,9010801032802,新規,0,2022-03-15,2022-03-15,株式会社Ｏｆｆｉｃｅ３１０,,株式会社,東京都,大田区,西蒲田８丁目２３番３－４０７号,,13,111,1440051,,,,,,,2022-03-15,1,,,,,オフィスサンイチマル,0
2021,9010803004097,新規,0,2022-03-15,2022-03-15,合同会社将嘉,,合同会社,東京都,大田区,仲六郷４丁目３２番１１号,,13,111,1440055,,,,,,,2022-03-15,1,,,,,ショウカ,0
2024,9010905004284,新規,0,2022-03-15,2022-03-15,医療法人社団飛翔会,,その他の設立登記法人,東京都,世田谷区,上用賀１丁目７番５号細井ビル１階,,13,112,1580098,,,,,,,2022-03-15,1,,,,,ヒショウカイ,0
2030,9011001146285,新規,0,2022-03-15,2022-03-15,株式会社坂手開発,,株式会社,東京都,渋谷区,神泉町１２番４号,,13,113,1500045,,,,,,,2022-03-15,1,,,,,サカテカイハツ,0
2037,9011103011560,新規,0,2022-03-15,2022-03-15,ＲｅｘＬａｂｏ合同会社,,合同会社,東京都,新宿区,西新宿３丁目３番１３号西新宿水間ビル６階,,13,104,1600023,,,,,,,2022-03-15,1,,,,,レックスラボ,0
2038,9011201023706,新規,0,2022-03-15,2022-03-15,ネオキャリア株式会社,,株式会社,東京都,中野区,本町３丁目２９番１１号第２けやきビル３０６号,,13,114,1640012,,,,,,,2022-03-15,1,,,,,ネオキャリア,0
2043,9011503005105,新規,0,2022-03-15,2022-03-15,アーバンレックス合同会社,,合同会社,東京都,荒川区,東日暮里１丁目１７番１２号,,13,118,1160014,,,,,,,2022-03-15,1,,,,,アーバンレックス,0
2044,9011601025797,新規,0,2022-03-15,2022-03-15,Ｐｈｏｔｏｇｅｎｉｃ　Ｓｔａｔｉｏｎ株式会社,,株式会社,東京都,練馬区,中村２丁目１５－９－１０１,,13,120,1760024,,,,,,,2022-03-15,1,,,,,フォトジェニックステーション,0
2055,9020001145643,新規,0,2022-03-15,2022-03-15,阿部通商株式会社,,株式会社,神奈川県,川崎市川崎区,渡田新町２丁目２番２０－２０４号ライオンズガーデン川崎,,14,131,2100844,,,,,,,2022-03-15,1,,,,,アベツウショウ,0
2058,9021003011486,新規,0,2022-03-15,2022-03-15,笹兆総産合同会社,,合同会社,神奈川県,厚木市,長谷１０９２番地８,,14,212,2430036,,,,,,,2022-03-15,1,,,,,ササチョウソウサン,0
2064,9030001147259,新規,0,2022-03-15,2022-03-15,陽光至誠株式会社,,株式会社,埼玉県,所沢市,西所沢１丁目１５番３－１０１号,,11,208,3591144,,,,,,,2022-03-15,1,,,,,ヨウコウシセイ,0
2067,9030003018978,新規,0,2022-03-15,2022-03-15,柵木コンサルティング合同会社,,合同会社,埼玉県,さいたま市北区,日進町３丁目１５３―１―４０１,,11,102,3310823,,,,,,,2022-03-15,1,,,,,マサキコンサルティング,0
2068,9030005020734,新規,0,2022-03-15,2022-03-15,一般社団法人おひとりさまトラスト協会,,その他の設立登記法人,埼玉県,蓮田市,馬込５丁目４１２番地,,11,238,3490114,,,,,,,2022-03-15,1,,,,,オヒトリサマトラストキョウカイ,0
2071,9040001122616,新規,0,2022-03-15,2022-03-15,Ｓ・Ｌ・Ｈ株式会社,,株式会社,千葉県,富里市,立沢新田１０４番地３,,12,233,2860215,,,,,,,2022-03-15,1,,,,,エスエルエイチ,0
2072,9040001122624,新規,0,2022-03-15,2022-03-15,株式会社Ｄ＆Ｄ,,株式会社,千葉県,浦安市,富士見４丁目７番３５号コーポＨｉｇｕｃｈｉＡ棟１０１,,12,227,2790043,,,,,,,2022-03-15,1,,,,,ディーアンドディー,0
2073,9040001122632,新規,0,2022-03-15,2022-03-15,ミライズ株式会社,,株式会社,千葉県,千葉市中央区,都町１丁目４３－１６,,12,101,2600001,,,,,,,2022-03-15,1,,,,,ミライズ,0
2083,9070001039048,新規,0,2022-03-15,2022-03-15,株式会社ＦＯＮＳ,,株式会社,群馬県,藤岡市,藤岡１１３番地３,,10,209,3750024,,,,,,,2022-03-15,1,,,,,フォンス,0
2085,9070003004413,新規,0,2022-03-15,2022-03-15,コネクト合同会社,,合同会社,群馬県,桐生市,堤町２丁目３,,10,203,3760042,,,,,,,2022-03-15,1,,,,,コネクト,0
2107,9120001244451,新規,0,2022-03-15,2022-03-15,株式会社スタジオマーケット,,株式会社,大阪府,大阪市中央区,久太郎町２丁目５番１９号,,27,128,5410056,,,,,,,2022-03-15,1,,,,,スタジオマーケット,0
2112,9120901045676,新規,0,2022-03-15,2022-03-15,株式会社ｍｉｘｓｈｉｎ,,株式会社,大阪府,高槻市,氷室町１丁目２９番３号,,27,207,5691141,,,,,,,2022-03-15,1,,,,,ミクシン,0
2114,9122005003610,新規,0,2022-03-15,2022-03-15,特定非営利活動法人ディーセント・ファームかしわら,,その他の設立登記法人,大阪府,柏原市,安堂町２８番地の１７,,27,221,5820016,,,,,,,2022-03-15,1,,,,,ディーセントファームカシワラ,0
2120,9140003017457,新規,0,2022-03-15,2022-03-15,ＶＡＣ合同会社,,合同会社,兵庫県,神戸市東灘区,田中町２丁目１７番３号,,28,101,6580081,,,,,,,2022-03-15,1,,,,,ヴァック,0
2136,9180001150306,新規,0,2022-03-15,2022-03-15,株式会社ＶＮＪ　ＯＦ　ＴＥＣＨ,,株式会社,愛知県,名古屋市中区,千代田１丁目１３－１８マザック千代田７０２,,23,106,4600012,,,,,,,2022-03-15,1,,,,,ブイエヌジェイオブテック,0
2137,9180001150371,新規,0,2022-03-15,2022-03-15,アール株式会社,,株式会社,愛知県,名古屋市中区,栄５丁目２６番３９号ＧＳ栄ビル３Ｆ,,23,106,4600008,,,,,,,2022-03-15,1,,,,,アール,0
2138,9180001150388,新規,0,2022-03-15,2022-03-15,株式会社ＦＵＪＩ,,株式会社,愛知県,名古屋市熱田区,波寄町１４１１番地３,,23,109,4560003,,,,,,,2022-03-15,1,,,,,フジ,0
2139,9180001150396,新規,0,2022-03-15,2022-03-15,株式会社隆成,,株式会社,愛知県,一宮市,浅野字青石３０番地３・３Ｆ,,23,203,4910871,,,,,,,2022-03-15,1,,,,,リュウセイ,0
2140,9180003023600,新規,0,2022-03-15,2022-03-15,合同会社杉本工業,,合同会社,愛知県,名古屋市中村区,元中村町１丁目２８番地の１９アコモ元中村３０２号,,23,105,4530047,,,,,,,2022-03-15,1,,,,,スギモトコウギョウ,0
2143,9180301036023,新規,0,2022-03-15,2022-03-15,株式会社大和鐵樹,,株式会社,愛知県,岡崎市,滝町字追ノ狭間７２番地１１,,23,202,4443173,,,,,,,2022-03-15,1,,,,,ヤマトテッキ,0
2145,9180305009306,新規,0,2022-03-15,2022-03-15,一般社団法人ＡＴＺ　Ｍａｇｎｅｔ,,その他の設立登記法人,愛知県,刈谷市,銀座３丁目３４番地１‐４０４号,,23,210,4480845,,,,,,,2022-03-15,1,,,,,エーティージーマグネット,0
2162,9260001036645,新規,0,2022-03-15,2022-03-15,株式会社ここのつ,,株式会社,岡山県,赤磐市,桜が丘西９丁目１番４号,,33,213,7090802,,,,,,,2022-03-15,1,,,,,ココノツ,0
2167,9280003001595,新規,0,2022-03-15,2022-03-15,合同会社景富,,合同会社,島根県,松江市,浜乃木１丁目５番３２－２号,,32,201,6900044,,,,,,,2022-03-15,1,,,,,カゲトミ,0
2172,9290001096587,新規,0,2022-03-15,2022-03-15,株式会社あらたないろは,,株式会社,福岡県,福岡市博多区,住吉４丁目１０番１５－３０５号,,40,132,8120018,,,,,,,2022-03-15,1,,,,,アラタナイロハ,0
2173,9290001096785,新規,0,2022-03-15,2022-03-15,株式会社ウッドウエスト,,株式会社,福岡県,福岡市南区,塩原３丁目１３番１３号,,40,134,8150032,,,,,,,2022-03-15,1,,,,,ウッドウエスト,0
2176,9300003001808,新規,0,2022-03-15,2022-03-15,合同会社ｓｇ,,合同会社,佐賀県,嬉野市,塩田町大字久間丁４０２１番地,,41,209,8491404,,,,,,,2022-03-15,1,,,,,エスジー,0
2177,9310001017763,新規,0,2022-03-15,2022-03-15,リライフ株式会社,,株式会社,長崎県,大村市,杭出津２丁目５４番地１,,42,205,8560828,,,,,,,2022-03-15,1,,,,,リライフ,0
2181,9340003003734,新規,0,2022-03-15,2022-03-15,ＪＷサービス合同会社,,合同会社,鹿児島県,西之表市,西町６９８２番地,,46,213,8913111,,,,,,,2022-03-15,1,,,,,ジェーダブリュサービス,0
2187,9370005010453,新規,0,2022-03-15,2022-03-15,登米郡吉田村新田農事實行組合,,その他の設立登記法人,宮城県,登米市,米山町,,04,212,9870500,,,,,,,2022-03-15,1,,,,,,0
2194,9400005008221,新規,0,2022-03-15,2022-03-15,澤内開拓農業協同組合,,その他の設立登記法人,岩手県,和賀郡西和賀町,沢内字長瀬野１２地割３８番地,,03,366,0295617,,,,,,,2022-03-15,1,,,,,,0
2199,9430001086128,新規,0,2022-03-15,2022-03-15,株式会社ｔａｋｋｅ　ｆａｒｍ,,株式会社,北海道,伊達市,上長和町４３９番地,,01,233,0520036,,,,,,,2022-03-15,1,,,,,タッケファーム,0
2200,9430001086202,新規,0,2022-03-15,2022-03-15,株式会社小樽保全,,株式会社,北海道,小樽市,最上２丁目２番３号,,01,203,0470023,,,,,,,2022-03-15,1,,,,,オタルホゼン,0
2203,9460105002234,新規,0,2022-03-15,2022-03-15,医療法人社団ふくろうの森,,その他の設立登記法人,北海道,帯広市,西九条南１３丁目４番地１,,01,207,0800019,,,,,,,2022-03-15,1,,,,,フクロウノモリ,0
