sequenceNumber,corporateNumber,process,correct,updateDate,changeDate,name,nameImageId,kind,prefectureName,cityName,streetNumber,addressImageId,prefectureCode,cityCode,postCode,addressOutside,addressOutsideImageId,closeDate,closeCause,successorCorporateNumber,changeCause,assignmentDate,latest,enName,enPrefectureName,enCityName,enAddressOutside,furigana,hihyoji
1,1010001050315,登記記録の閉鎖等,0,2025-02-26,2025-02-10,株式会社中央労務協会,,株式会社,東京都,中央区,日本橋室町１丁目１１番２号,,13,102,1030022,,,2025-02-10,清算の結了等,,,2015-10-05,1,,,,,チュウオウロウムキョウカイ,0
3,1010001150024,登記記録の閉鎖等,0,2025-02-26,2025-02-10,株式会社インクス,,株式会社,東京都,中央区,湊３丁目４番８号,,13,102,1040043,,,2025-02-10,清算の結了等,,,2015-10-05,1,,,,,インクス,0
7,1010001239759,登記記録の閉鎖等,0,2025-02-26,2025-02-10,株式会社Ｋｏｔｏｎｏｈａ　ＡＩ,,株式会社,東京都,文京区,本郷６丁目２５番１４号,,13,105,1130033,,,2025-02-10,清算の結了等,,,2023-11-07,1,,,,,コトノハエーアイ,0
19,1010401146010,登記記録の閉鎖等,0,2025-02-26,2025-02-20,フラッグシップ・テクノロジーズ株式会社,,株式会社,東京都,港区,虎ノ門４丁目１番２８号虎ノ門タワーズオフィス１７階,,13,103,1050001,,,2025-02-20,合併による解散等,9020001075667,令和７年２月１４日長野市大字北尾張部３６番地ＦＩＣＴ株式会社（9020001075667）に合併し解散,2019-06-07,1,,,,,フラッグシップテクノロジーズ,0
35,1010902003494,登記記録の閉鎖等,0,2025-02-26,2025-02-19,有限会社押川国際事務所,,有限会社,東京都,世田谷区,砧４丁目３番３－４０３号,,13,112,1570073,,,2025-02-19,清算の結了等,,,2015-10-05,1,,,,,オシカワコクサイジムショ,0
48,1011401018050,登記記録の閉鎖等,0,2025-02-26,2025-02-18,株式会社ＣＲＯＳＳ,,株式会社,埼玉県,入間郡三芳町,大字藤久保８１７番地,,11,324,3540041,,,2025-02-18,清算の結了等,,,2015-10-05,1,,,,,クロス,0
49,1011401023505,登記記録の閉鎖等,0,2025-02-26,2025-02-19,玲瓏株式会社,,株式会社,東京都,板橋区,板橋３丁目３１－５ＴＯＰ板橋３１０,,13,119,1730004,,,2025-02-19,清算の結了等,,,2021-07-09,1,,,,,レイロウ,0
57,1011801041957,登記記録の閉鎖等,0,2025-02-26,2025-02-17,日日交通株式会社,,株式会社,東京都,足立区,保木間１丁目３２番１５－２０２号,,13,121,1210064,,,2025-02-17,合併による解散等,2011801041956,令和７年２月１７日東京都足立区保木間一丁目３２番１５－２０１号日日交通株式会社（2011801041956）に合併し解散,2023-02-28,1,,,,,ニチニチコウツウ,0
63,1013102007596,登記記録の閉鎖等,0,2025-02-26,2025-02-20,有限会社三恊木材,,有限会社,東京都,西多摩郡日の出町,大字平井１３７３番地,,13,305,1900182,,,2025-02-20,清算の結了等,,,2015-10-05,1,,,,,サンキョウモクザイ,0
68,1013302016488,登記記録の閉鎖等,0,2025-02-26,2025-02-12,有限会社セイコー馬券アカデミー,,有限会社,東京都,豊島区,高田１丁目１２番１４号,,13,116,1710033,,,2025-02-12,清算の結了等,,,2015-10-05,1,,,,,セイコーバケンアカデミー,0
69,1013402001159,登記記録の閉鎖等,0,2025-02-26,2025-02-12,有限会社ハイテックジャパン,,有限会社,東京都,日野市,多摩平２丁目１４番地の２,,13,212,1910062,,,2025-02-12,清算の結了等,,,2015-10-05,1,,,,,,0
70,1020001041263,登記記録の閉鎖等,0,2025-02-26,2025-02-10,幸信工業株式会社,,株式会社,神奈川県,横浜市鶴見区,北寺尾４丁目２６－４３－３０１,,14,101,2300074,,,2025-02-10,清算の結了等,,,2015-10-05,1,,,,,コウシンコウギョウ,0
72,1020001092067,登記記録の閉鎖等,0,2025-02-26,2025-02-06,株式会社プロステージ,,株式会社,神奈川県,横浜市青葉区,荏子田３丁目９番１３号,,14,117,2250005,,,2025-02-06,清算の結了等,,,2015-10-05,1,,,,,プロステージ,0
74,1020001134091,登記記録の閉鎖等,0,2025-02-26,2025-02-10,Ｋ’Ｓエステート株式会社,,株式会社,神奈川県,横浜市戸塚区,汲沢３丁目９番１７号,,14,110,2450061,,,2025-02-10,清算の結了等,,,2019-12-16,1,,,,,ケーズエステート,0
98,1040002055830,登記記録の閉鎖等,0,2025-02-26,2025-02-17,有限会社モーモーカンパニー,,有限会社,千葉県,成田市,飯田町１４３番地１１,,12,211,2860041,,,2025-02-17,清算の結了等,,,2015-10-05,1,,,,,モーモーカンパニー,0
118,1090001015855,登記記録の閉鎖等,0,2025-02-26,2025-02-21,株式会社ケアステーション新日本,,株式会社,山梨県,甲府市,小瀬町７７７番地１,,19,201,4000836,,,2025-02-21,清算の結了等,,,2018-12-18,1,,,,,ケアステーションシンニホン,0
122,1100002023252,登記記録の閉鎖等,0,2025-02-26,2025-02-20,有限会社有明自動車センター,,有限会社,長野県,安曇野市,穂高７５５０番地１,,20,220,3998303,,,2025-02-20,清算の結了等,,,2015-10-05,1,,,,,アリアケジドウシャセンター,0
123,1100002023368,登記記録の閉鎖等,0,2025-02-26,2025-02-20,有限会社上原建築オフィス二十一,,有限会社,長野県,安曇野市,穂高柏原２４８－１２,,20,220,3998304,,,2025-02-20,清算の結了等,,,2015-10-05,1,,,,,ウエハラケンチクオフィスニジュウイチ,0
134,1120001060617,登記記録の閉鎖等,0,2025-02-26,2025-02-17,石井化学器械株式会社,,株式会社,大阪府,大阪市北区,豊崎５丁目５番２４－１００２号,,27,127,5310072,,,2025-02-17,清算の結了等,,,2015-10-05,1,,,,,イシイカガクキカイ,0
156,1130001013177,登記記録の閉鎖等,0,2025-02-26,2025-02-25,株式会社のむらびょうぶ,,株式会社,京都府,京都市山科区,西野左義長町２６番地,,26,110,6078347,,,2025-02-25,清算の結了等,,,2015-10-05,1,,,,,ノムラビョウブ,0
168,1140003008711,登記記録の閉鎖等,0,2025-02-26,2025-02-12,あさまる生活応援隊合同会社,,合同会社,兵庫県,豊岡市,日高町日置１１５番地の６,,28,209,6695311,,,2025-02-12,清算の結了等,,,2015-10-05,1,,,,,アサマルセイカツオウエンタイ,0
169,1160001017002,登記記録の閉鎖等,0,2025-02-26,2025-02-17,株式会社エスアール,,株式会社,福井県,敦賀市,若葉町２丁目１２５番地,,18,202,9140125,,,2025-02-17,清算の結了等,,,2015-10-05,1,,,,,エスアール,0
182,1180002090252,登記記録の閉鎖等,0,2025-02-26,2025-02-20,有限会社井筒屋,,有限会社,愛知県,愛西市,西保町北川原２３番地１１,,23,232,4960911,,,2025-02-20,清算の結了等,,,2015-10-05,1,,,,,イヅツヤ,0
184,1180003024481,登記記録の閉鎖等,0,2025-02-26,2025-02-20,合同会社リハイヤ,,合同会社,愛知県,名古屋市中区,栄１丁目１６番１０号プライムアーバン栄３０３号室,,23,106,4600008,,,2025-02-20,清算の結了等,,,2022-12-15,1,,,,,リハイヤ,0
188,1180303003383,登記記録の閉鎖等,0,2025-02-26,2025-02-20,合同会社ライフワークサービス,,合同会社,愛知県,西尾市,寄住町東浦６３番地サンフレッシュ１０２号室,,23,213,4450073,,,2025-02-20,清算の結了等,,,2015-10-05,1,,,,,ライフワークサービス,0
191,1190002024721,登記記録の閉鎖等,0,2025-02-26,2025-02-17,有限会社八風建設,,有限会社,三重県,四日市市,平町２５番２号,,24,202,5108017,,,2025-02-17,清算の結了等,,,2024-12-09,1,,,,,ハップウケンセツ,0
200,1220001025345,登記記録の閉鎖等,0,2025-02-26,2025-02-17,日本医療再生機構株式会社,,株式会社,石川県,金沢市,新神田１丁目９番２０号,,17,201,9218013,,,2025-02-17,清算の結了等,,,2023-04-10,1,,,,,ニホンイリョウサイセイキコウ,0
233,1370001012361,登記記録の閉鎖等,0,2025-02-26,2025-02-20,ＮＥＣネットイノベーション株式会社,,株式会社,宮城県,仙台市青葉区,一番町１丁目１０番２３号,,04,101,9800811,,,2025-02-20,合併による解散等,6010001135680,令和７年２月１日東京都港区芝浦三丁目９番１４号ＮＥＣネッツエスアイ株式会社（6010001135680）に合併し解散,2015-10-05,1,,,,,エヌイーシーネットイノベーション,0
243,1420002018492,登記記録の閉鎖等,0,2025-02-26,2025-02-20,有限会社ケィ・ティー・イー,,有限会社,青森県,上北郡東北町,上北北３丁目２４番地６２,,02,408,0392404,,,2025-02-20,清算の結了等,,,2015-10-05,1,,,,,ケィティーイー,0
251,1450001012089,登記記録の閉鎖等,0,2025-02-26,2025-02-21,北海道バイオマスエネルギー株式会社,,株式会社,北海道,上川郡下川町,西町９５８番地１,,01,468,0981205,,,2025-02-21,清算の結了等,,,2017-05-23,1,,,,,ホッカイドウバイオマスエネルギー,0
253,1490001006368,登記記録の閉鎖等,0,2025-02-26,2025-02-21,株式会社国吉電気商会,,株式会社,高知県,香南市,赤岡町７１４番地４,,39,211,7815310,,,2025-02-21,清算の結了等,,,2015-10-05,1,,,,,クニヨシデンキショウカイ,0
254,1500001018691,登記記録の閉鎖等,0,2025-02-26,2025-02-20,株式会社アウル,,株式会社,愛媛県,今治市,喜田村２丁目３番２０号,,38,202,7991502,,,2025-02-20,清算の結了等,,,2015-10-05,1,,,,,アウル,0
267,2010003025917,登記記録の閉鎖等,0,2025-02-26,2025-02-10,ＷＩＺ合同会社,,合同会社,東京都,中央区,日本橋３丁目２番１４号新槇町ビル別館第一１階,,13,102,1030027,,,2025-02-10,清算の結了等,,,2017-08-21,1,,,,,ウィズ,0
272,2010401149243,登記記録の閉鎖等,0,2025-02-26,2025-02-10,アルヒ不動産テクノロジーズ株式会社,,株式会社,東京都,千代田区,平河町１丁目４番３号,,13,101,1020093,,,2025-02-10,清算の結了等,,,2019-11-14,1,,,,,アルヒフドウサンテクノロジーズ,0
277,2010403027174,登記記録の閉鎖等,0,2025-02-26,2025-02-07,ＫＯＫＯ　ＨＯＴＥＬ日本橋浜町合同会社,,合同会社,東京都,千代田区,五番町６番地２ＯＡＧ税理士法人内,,13,101,1020076,,,2025-02-07,清算の結了等,,,2022-03-01,1,,,,,ココホテルニホンバシハマチョウ,0
280,2010405003644,登記記録の閉鎖等,0,2025-02-26,2025-02-19,特定非営利活動法人ｉｔＳＭＦＪａｐａｎ,,その他の設立登記法人,東京都,港区,浜松町２丁目５番３号リブポート浜松町,,13,103,1050013,,,2025-02-19,合併による解散等,4010005014107,令和７年１月２３日東京都渋谷区恵比寿四丁目２０番４号特定非営利活動法人ＣｅＦＩＬ（4010005014107）に合併し解散,2015-10-05,1,,,,,アイティーエスエムエフジャパン,0
286,2010602019030,登記記録の閉鎖等,0,2025-02-26,2025-01-30,有限会社中居堀自動車,,有限会社,東京都,墨田区,八広２丁目５２番１５号,,13,107,1310041,,,2025-01-30,清算の結了等,,,2015-10-05,1,,,,,ナカイホリジドウシャ,0
296,2010903007130,登記記録の閉鎖等,0,2025-02-26,2025-02-19,合同会社ライトウェイ,,合同会社,東京都,世田谷区,鎌田３丁目１７番３号,,13,112,1570077,,,2025-02-19,清算の結了等,,,2022-02-03,1,,,,,ライトウェイ,0
302,2011001153296,登記記録の閉鎖等,0,2025-02-26,2025-01-10,Ａｌｌ　Ｗｒｉｔｅ株式会社,,株式会社,東京都,渋谷区,道玄坂１丁目１６－６二葉ビル８ｂ,,13,113,1500043,,,2025-01-10,清算の結了等,,,2023-03-24,1,,,,,オールライト,0
314,2011501006326,登記記録の閉鎖等,0,2025-02-26,2025-02-18,幸伸管工株式会社,,株式会社,東京都,荒川区,東尾久８丁目４４番１号,,13,118,1160012,,,2025-02-18,清算の結了等,,,2015-10-05,1,,,,,コウシンカンコウ,0
326,2013101007794,登記記録の閉鎖等,0,2025-02-26,2025-02-21,株式会社Ｄｏｌｌ　Ｌａｂ,,株式会社,東京都,羽村市,神明台１丁目２２番地２４,,13,227,2050023,,,2025-02-21,清算の結了等,,,2018-03-08,1,,,,,ドールラボ,0
329,2013301031339,登記記録の閉鎖等,0,2025-02-26,2025-02-25,株式会社ブヴェット,,株式会社,神奈川県,相模原市南区,南台２丁目１０番２１－１０２号,,14,153,2520314,,,2025-02-25,清算の結了等,,,2015-10-05,1,,,,,ブヴェット,0
338,2020001115025,登記記録の閉鎖等,0,2025-02-26,2025-02-10,ラムズ株式会社,,株式会社,神奈川県,横浜市中区,桜木町２丁目２番地,,14,104,2310062,,,2025-02-10,清算の結了等,,,2016-03-01,1,,,,,ラムズ,0
364,2030002050204,登記記録の閉鎖等,0,2025-02-26,2025-02-21,有限会社渡辺土建,,有限会社,埼玉県,三郷市,鷹野１丁目１３３番地２,,11,237,3410035,,,2025-02-21,清算の結了等,,,2015-10-05,1,,,,,ワタナベドケン,0
386,2100001034431,登記記録の閉鎖等,0,2025-02-26,2025-02-18,株式会社サンガイア,,株式会社,長野県,上田市,武石上本入１０６４番地,,20,203,3860507,,,2025-02-18,清算の結了等,,,2021-07-12,1,"SUNGAIA CO., Ltd.",Nagano,"1064, Takeshikamihoniri, Ueda City",,サンガイア,0
389,2100002036443,登記記録の閉鎖等,0,2025-02-26,2025-02-17,有限会社照光電気商会,,有限会社,長野県,飯田市,鼎名古熊２１８７番地４,,20,205,3950804,,,2025-02-17,清算の結了等,,,2015-10-05,1,,,,,ショウコウデンキショウカイ,0
399,2120001228007,登記記録の閉鎖等,0,2025-02-26,2025-02-17,株式会社ファシネーションジャパン,,株式会社,大阪府,大阪市浪速区,恵美須東１丁目５番１５号パークハイツ３０３号室,,27,111,5560002,,,2025-02-17,清算の結了等,,,2020-03-24,1,,,,,ファシネーションジャパン,0
403,2120001258409,登記記録の閉鎖等,0,2025-02-26,2025-02-19,北山漢方製薬株式会社,,株式会社,大阪府,大阪市西成区,玉出西２丁目１２番１１号チェリーハイツ２０１号室,,27,122,5570045,,,2025-02-19,清算の結了等,,,2023-10-02,1,,,,,キタヤマカンポウセイヤク,0
418,2120101003235,登記記録の閉鎖等,0,2025-02-26,2025-02-20,正栄産業株式会社,,株式会社,大阪府,堺市堺区,浅香山町２丁６番１４号,,27,141,5900012,,,2025-02-20,清算の結了等,,,2015-10-05,1,,,,,ショウエイサンギョウ,0
425,2130001014348,登記記録の閉鎖等,0,2025-02-26,2025-02-25,株式会社京滋折込広告,,株式会社,京都府,京都市伏見区,向島二ノ丸町１１４番地の９,,26,109,6128141,,,2025-02-25,清算の結了等,,,2015-10-05,1,,,,,ケイジオリコミコウコク,0
426,2130001020115,登記記録の閉鎖等,0,2025-02-26,2025-02-21,株式会社オーク商事,,株式会社,京都府,京都市下京区,西洞院通高辻下る東入菊屋町７４６番地３,00047209,26,106,6008464,,,2025-02-21,清算の結了等,,,2015-10-05,1,,,,,オークショウジ,0
437,2140001128948,登記記録の閉鎖等,0,2025-02-26,2025-02-19,大林貿易株式会社,,株式会社,兵庫県,明石市,沢野３丁目１１番地の６,,28,203,6730008,,,2025-02-19,清算の結了等,,,2023-02-06,1,"Obayashi Trading Co., Ltd.",Hyogo,"3-11-6, Sawano, Akashi-shi",,オオバヤシボウエキ,0
454,2180001116156,登記記録の閉鎖等,0,2025-02-26,2025-02-20,株式会社白輝堂,,株式会社,京都府,京都市上京区,烏丸通丸太町上る春日町４３５番地,,26,102,6028023,,,2025-02-20,清算の結了等,,,2015-10-05,1,,,,,ハッキドウ,0
468,2180301013482,登記記録の閉鎖等,0,2025-02-26,2025-02-21,ダブリュエム株式会社,,株式会社,愛知県,安城市,安城町祥南３０番地,,23,212,4460026,,,2025-02-21,清算の結了等,,,2015-10-05,1,,,,,ダブリュエム,0
469,2190001009202,登記記録の閉鎖等,0,2025-02-26,2025-02-21,株式会社チッタ,,株式会社,三重県,伊賀市,上野茅町２７０６番地,,24,216,5180838,,,2025-02-21,清算の結了等,,,2015-10-05,1,,,,,チッタ,0
470,2200001027598,登記記録の閉鎖等,0,2025-02-26,2025-02-21,株式会社アシストマーケティング,,株式会社,岐阜県,岐阜市,都通４丁目１１番地１,,21,201,5008309,,,2025-02-21,清算の結了等,,,2015-10-05,1,,,,,アシストマーケティング,0
486,2220002005551,登記記録の閉鎖等,0,2025-02-26,2025-02-20,有限会社マルコ運輸,,有限会社,石川県,金沢市,小坂町中１６番地６,,17,201,9200811,,,2025-02-20,清算の結了等,,,2015-10-05,1,,,,,マルコウンユ,0
487,2230001015864,登記記録の閉鎖等,0,2025-02-26,2025-02-21,富山ツーリズムアンドトランスポート株式会社,,株式会社,富山県,下新川郡朝日町,境７３３番地の１,,16,343,9390704,,,2025-02-21,清算の結了等,,,2015-10-05,1,,,,,トヤマツーリズムアンドトランスポート,0
489,2240001060042,登記記録の閉鎖等,0,2025-02-26,2025-02-21,株式会社Ｄ‐Ｐｒｏ,,株式会社,広島県,尾道市,瀬戸田町林６８６,,34,205,7222416,,,2025-02-21,清算の結了等,,,2022-07-06,1,,,,,ディープロ,0
493,2240002048160,登記記録の閉鎖等,0,2025-02-26,2025-02-25,有限会社坂口樹脂工業,,有限会社,広島県,安芸郡府中町,千代３番２８号,,34,302,7350027,,,2025-02-25,清算の結了等,,,2015-10-05,1,,,,,サカグチジュシコウギョウ,0
515,2320001017538,登記記録の閉鎖等,0,2025-02-26,2025-02-25,株式会社ＮＥＸＴ　ＦＡＲＭ,,株式会社,大分県,臼杵市,野津町大字野津市４２６番地の１,,44,206,8750201,,,2025-02-25,清算の結了等,,,2020-02-07,1,,,,,ネクストファーム,0
516,2340001023583,登記記録の閉鎖等,0,2025-02-26,2025-02-21,株式会社ＫＳＰＣ,,株式会社,鹿児島県,鹿児島市,松原町１３－１５シャトーグリーンウッド１０１,,46,201,8920833,,,2025-02-21,清算の結了等,,,2021-03-26,1,,,,,ケーエスピーシー,0
542,2470001003036,登記記録の閉鎖等,0,2025-02-26,2025-02-25,株式会社トラヤ,,株式会社,香川県,高松市,常磐町１丁目２番地２３,,37,201,7600054,,,2025-02-25,清算の結了等,,,2015-10-05,1,,,,,,0
562,3010003033976,登記記録の閉鎖等,0,2025-02-26,2025-02-10,マスト合同会社,,合同会社,東京都,中央区,日本橋３丁目２番１４号新槇町ビル別館第一１階,,13,102,1030027,,,2025-02-10,清算の結了等,,,2021-01-27,1,,,,,マスト,0
569,3010401138955,登記記録の閉鎖等,0,2025-02-26,2025-01-24,株式会社Ｃｒａｎｅ,,株式会社,東京都,港区,南青山２丁目２番１５号ウイン青山９４２,,13,103,1070062,,,2025-01-24,清算の結了等,,,2018-06-13,1,,,,,クレーン,0
604,3011505001982,登記記録の閉鎖等,0,2025-02-26,2025-02-14,特定非営利活動法人学生支援ハウスようこそ,,その他の設立登記法人,東京都,豊島区,南長崎４丁目７番６号１０３,,13,116,1710052,,,2025-02-14,清算の結了等,,,2016-03-14,1,,,,,ガクセイシエンハウスヨウコソ,0
614,3012405004258,登記記録の閉鎖等,0,2025-02-26,2025-02-19,特定非営利活動法人ｉｍｉｔａｔａ,,その他の設立登記法人,東京都,板橋区,大山東町２４番１５号シャンティ・タカハシ２０５,,13,119,1730014,,,2025-02-19,清算の結了等,,,2018-11-22,1,,,,,イミタタ,0
615,3013101004139,登記記録の閉鎖等,0,2025-02-26,2025-02-21,株式会社レ・グラツィエ,,株式会社,東京都,青梅市,友田町５丁目３７６番地,,13,205,1980051,,,2025-02-21,清算の結了等,,,2015-10-05,1,,,,,レグラツィエ,0
626,3020001037152,登記記録の閉鎖等,0,2025-02-26,2025-02-06,株式会社ヤマトデイスプレイ,,株式会社,神奈川県,横浜市泉区,上飯田町３５９０番地の１,,14,116,2450018,,,2025-02-06,清算の結了等,,,2015-10-05,1,,,,,ヤマトデイスプレイ,0
635,3020001130139,登記記録の閉鎖等,0,2025-02-26,2025-02-05,安聞日本技研株式会社,,株式会社,神奈川県,横浜市中区,本牧町２丁目４３７番地,,14,104,2310806,,,2025-02-05,清算の結了等,,,2019-03-06,1,,,,,アンブンニホンギケン,0
636,3020001135864,登記記録の閉鎖等,0,2025-02-26,2025-02-06,みなとみらいデザイン株式会社,,株式会社,神奈川県,横浜市中区,南仲通３丁目３５番地,,14,104,2310006,,,2025-02-06,清算の結了等,,,2020-04-20,1,,,,,ミナトミライデザイン,0
643,3021001066901,登記記録の閉鎖等,0,2025-02-26,2025-02-25,株式会社リバティ,,株式会社,神奈川県,茅ヶ崎市,小和田１丁目１９番４６号,,14,207,2530012,,,2025-02-25,清算の結了等,,,2019-03-26,1,,,,,リバティ,0
648,3030001085084,登記記録の閉鎖等,0,2025-02-26,2025-02-21,夏目設備株式会社,,株式会社,埼玉県,熊谷市,池上４９０番地,,11,202,3600011,,,2025-02-21,清算の結了等,,,2015-10-05,1,,,,,ナツメセツビ,0
665,3080105003169,登記記録の閉鎖等,0,2025-02-26,2025-02-18,富士市ＧＩＳ事業協同組合,,その他の設立登記法人,静岡県,富士市,永田町１丁目１２２番地,,22,210,4170055,,,2025-02-18,清算の結了等,,,2015-10-05,1,,,,,フジシジーアイエス,0
675,3120001143766,登記記録の閉鎖等,0,2025-02-26,2025-02-21,サンドリアウエスト株式会社,,株式会社,大阪府,大阪市北区,万歳町４番１２号,,27,127,5300028,,,2025-02-21,清算の結了等,,,2015-10-05,1,,,,,サンドリアウエスト,0
681,3120001237551,登記記録の閉鎖等,0,2025-02-26,2025-02-21,株式会社リールクリエイト,,株式会社,大阪府,大阪市中央区,西心斎橋２丁目１３番１６号おおきに西心斎橋ＢＰビル６０３号,,27,128,5420086,,,2025-02-21,清算の結了等,,,2021-05-26,1,,,,,リールクリエイト,0
710,3180002055014,登記記録の閉鎖等,0,2025-02-26,2025-02-18,有限会社浅井設備,,有限会社,愛知県,名古屋市天白区,梅が丘３丁目２３１３番地の２,,23,116,4680004,,,2025-02-18,清算の結了等,,,2015-10-05,1,,,,,アサイセツビ,0
711,3180301038875,登記記録の閉鎖等,0,2025-02-26,2025-02-21,株式会社ヤマボウシ,,株式会社,愛知県,岡崎市,牧平町字大野屋敷４９番地１,,23,202,4443624,,,2025-02-21,清算の結了等,,,2024-07-25,1,,,,,ヤマボウシ,0
723,3220001008827,登記記録の閉鎖等,0,2025-02-26,2025-02-19,三東食品工業株式会社,,株式会社,石川県,白山市,八ツ矢町４２９番地１,,17,210,9240882,,,2025-02-19,清算の結了等,,,2015-10-05,1,,,,,,0
733,3240001030110,登記記録の閉鎖等,0,2025-02-26,2025-02-20,上元工芸株式会社,,株式会社,広島県,福山市,加茂町字芦原２５５番地,,34,207,7202417,,,2025-02-20,清算の結了等,,,2015-10-05,1,,,,,ウエモトコウゲイ,0
735,3240002039142,登記記録の閉鎖等,0,2025-02-26,2025-02-21,旭観光有限会社,,有限会社,広島県,福山市,高西町４丁目３番３７号,,34,207,7290106,,,2025-02-21,清算の結了等,,,2015-10-05,1,,,,,アサヒカンコウ,0
740,3290001091081,登記記録の閉鎖等,0,2025-02-26,2025-02-12,株式会社ＵＴＡＴＯＥ,,株式会社,福岡県,福岡市中央区,天神４丁目５－１０チサンマンション第２天神１１１０号,,40,133,8100001,,,2025-02-12,清算の結了等,,,2020-11-27,1,,,,,ウタトエ,0
752,3340002017377,登記記録の閉鎖等,0,2025-02-26,2025-02-19,有限会社中山農場,,有限会社,鹿児島県,鹿児島市,西田１丁目１番地１（ル・サンク中央駅前９０６号）,,46,201,8900046,,,2025-02-19,清算の結了等,,,2015-10-05,1,,,,,ナカヤマノウジョウ,0
755,3350002008466,登記記録の閉鎖等,0,2025-02-26,2025-02-21,有限会社ツーエイフード,,有限会社,宮崎県,宮崎市,大字田吉６２６９番地２,,45,201,8800911,,,2025-02-21,清算の結了等,,,2015-10-05,1,,,,,ツーエイフード,0
758,3370001044394,登記記録の閉鎖等,0,2025-02-26,2025-02-19,株式会社秀令,,株式会社,宮城県,仙台市青葉区,一番町２丁目３番１０号カルチャービル３階,,04,101,9800811,,,2025-02-19,清算の結了等,,,2019-05-17,1,,,,,シュウレイ,0
767,3410003003880,登記記録の閉鎖等,0,2025-02-26,2025-02-21,ＣＡＭＰＥＲＳ　ＣＯＲＮＥＲ　ＪＡＰＡＮ合同会社,,合同会社,秋田県,秋田市,雄和椿川字川端５７０番地４,,05,201,0101211,,,2025-02-21,清算の結了等,,,2024-01-31,1,,,,,キャンパースコーナージャパン,0
775,3490001001400,登記記録の閉鎖等,0,2025-02-26,2025-02-25,大紀商事株式会社,,株式会社,高知県,高知市,仁井田新築４５１７番３,,39,201,7810112,,,2025-02-25,清算の結了等,,,2015-10-05,1,,,,,ダイキショウジ,0
781,4010001015158,登記記録の閉鎖等,0,2025-02-26,2025-02-03,株式会社クラフト・フード・サービス,,株式会社,東京都,千代田区,麹町４丁目３番地,00060264,13,101,1020083,,,2025-02-03,清算の結了等,,,2015-10-05,1,,,,,クラフトフードサービス,0
788,4010002044387,登記記録の閉鎖等,0,2025-02-26,2025-02-10,有限会社海事戦略研究所,,有限会社,東京都,中央区,銀座４丁目１４番６号,,13,102,1040061,,,2025-02-10,清算の結了等,,,2015-10-05,1,,,,,カイジセンリャクケンキュウショ,0
797,4010103001972,登記記録の閉鎖等,0,2025-02-26,2025-02-25,合同会社ＨＡＮＡＰＹ,,合同会社,東京都,八王子市,楢原町４４８－３ＡＱＵＡ楢原２０５,,13,201,1930803,,,2025-02-25,清算の結了等,,,2022-08-16,1,,,,,,0
828,4011105010516,登記記録の閉鎖等,0,2025-02-26,2025-02-17,一般社団法人ＤＩＣ　Ｊａｐａｎ,,その他の設立登記法人,東京都,新宿区,西新宿３丁目３番１３号西新宿水間ビル２Ｆ,,13,104,1600023,,,2025-02-17,清算の結了等,,,2023-01-13,1,,,,,ディーアイシージャパン,0
877,4050001019758,登記記録の閉鎖等,0,2025-02-26,2025-02-17,株式会社ジャンボウィング,,株式会社,茨城県,古河市,諸川２５２７番地２,,08,204,3060126,,,2025-02-17,清算の結了等,,,2015-10-05,1,,,,,ジャンボウィング,0
885,4080002003857,登記記録の閉鎖等,0,2025-02-26,2025-02-20,有限会社中央経営研究所,,有限会社,静岡県,静岡市葵区,昭府１丁目２１番２３号,,22,101,4200871,,,2025-02-20,清算の結了等,,,2015-10-05,1,,,,,チュウオウケイエイケンキュウジョ,0
893,4090001001794,登記記録の閉鎖等,0,2025-02-26,2025-02-21,株式会社ヒツジヤ,,株式会社,山梨県,中央市,流通団地二丁目７番７号,,19,214,4093800,,,2025-02-21,清算の結了等,,,2015-10-05,1,,,,,ヒツジヤ,0
924,4120901026029,登記記録の閉鎖等,0,2025-02-26,2025-02-18,株式会社山本塗料,,株式会社,大阪府,豊中市,中桜塚１丁目２１番１０号,,27,203,5610881,,,2025-02-18,清算の結了等,,,2015-10-05,1,,,,,ヤマモトトリョウ,0
931,4140001126099,登記記録の閉鎖等,0,2025-02-26,2025-02-20,信和貿易株式会社,,株式会社,兵庫県,姫路市,花田町高木３５３番地１,,28,201,6710256,,,2025-02-20,清算の結了等,,,2022-05-25,1,,,,,シンワボウエキ,0
953,4180302006376,登記記録の閉鎖等,0,2025-02-26,2025-02-20,有限会社泉屋酒店,,有限会社,神奈川県,足柄下郡湯河原町,吉浜１９０８番地の２６,,14,384,2590312,,,2025-02-20,清算の結了等,,,2015-10-05,1,,,,,イズミヤサケテン,0
957,4180302026449,登記記録の閉鎖等,0,2025-02-26,2025-02-21,有限会社山口内装,,有限会社,愛知県,西尾市,新渡場町中切４５番地１７,,23,213,4450077,,,2025-02-21,清算の結了等,,,2015-10-05,1,,,,,,0
982,4260003001073,登記記録の閉鎖等,0,2025-02-26,2025-02-21,合資会社野澤商店,,合資会社,岡山県,備前市,吉永町福満５８,,33,211,7090222,,,2025-02-21,清算の結了等,,,2015-10-05,1,,,,,ノザワショウテン,0
983,4260003003796,登記記録の閉鎖等,0,2025-02-26,2025-02-25,Ｐ‐ｓｔｙｌｅカンパニー合同会社,,合同会社,岡山県,津山市,志戸部６００番地朝日ヶ丘コーポ２０７号,,33,203,7080825,,,2025-02-25,清算の結了等,,,2022-02-07,1,,,,,ピースタイルカンパニー,0
984,4270002001602,登記記録の閉鎖等,0,2025-02-26,2025-02-25,有限会社七つのレモン,,有限会社,鳥取県,鳥取市,瓦町３０６番地,,31,201,6800821,,,2025-02-25,清算の結了等,,,2015-10-05,1,,,,,ナナツノレモン,0
1017,4450002005865,登記記録の閉鎖等,0,2025-02-26,2025-02-21,有限会社山五藤井商店,,有限会社,北海道,旭川市,曙一条７丁目２番４号,,01,204,0700061,,,2025-02-21,清算の結了等,,,2015-10-05,1,,,,,ヤマゴフジイショウテン,0
1019,4460105001422,登記記録の閉鎖等,0,2025-02-26,2025-02-20,社会復帰事業団足寄企業組合,,その他の設立登記法人,北海道,足寄郡足寄町,旭町２丁目３７番地,,01,647,0893721,,,2025-02-20,清算の結了等,,,2015-10-05,1,,,,,,0
1023,4500001011322,登記記録の閉鎖等,0,2025-02-26,2025-02-21,株式会社大道屋商店,,株式会社,愛媛県,今治市,米屋町２丁目１番地の１６,,38,202,7940021,,,2025-02-21,清算の結了等,,,2015-10-05,1,,,,,オオミチヤショウテン,0
1024,4500005003588,登記記録の閉鎖等,0,2025-02-26,2025-02-25,八幡浜酒販協同組合,,その他の設立登記法人,愛媛県,八幡浜市,１７６番地１,,38,204,7960088,,,2025-02-25,清算の結了等,,,2015-10-05,1,,,,,ヤワタハマシュハン,0
1035,5010001141746,登記記録の閉鎖等,0,2025-02-26,2025-02-10,株式会社カネサ,,株式会社,東京都,中央区,銀座２丁目１６番１１号,,13,102,1040061,,,2025-02-10,清算の結了等,,,2015-10-05,1,,,,,カネサ,0
1062,5010901009910,登記記録の閉鎖等,0,2025-02-26,2025-02-21,春田実業株式会社,,株式会社,東京都,品川区,上大崎３丁目１番１号目黒セントラルスクエア１５階,,13,109,1410021,,,2025-02-21,合併による解散等,9010703007407,令和７年２月２１日東京都品川区上大崎三丁目１番１号目黒セントラルスクエア１５階トドロキホールディングス合同会社（9010703007407）に合併し解散,2015-10-05,1,,,,,ハルタジツギョウ,0
1067,5010902012401,登記記録の閉鎖等,0,2025-02-26,2025-02-19,有限会社ヒーローシステムズ,,有限会社,東京都,世田谷区,三軒茶屋２丁目１５番１２－５０１号,,13,112,1540024,,,2025-02-19,清算の結了等,,,2015-10-05,1,,,,,ヒーローシステムズ,0
1094,5011801030766,登記記録の閉鎖等,0,2025-02-26,2025-02-21,東京産商株式会社,,株式会社,神奈川県,藤沢市,鵠沼桜が岡１丁目１７番４号４,,14,205,2510027,,,2025-02-21,清算の結了等,,,2015-10-05,1,,,,,トウキョウサンショウ,0
1146,5100001023530,登記記録の閉鎖等,0,2025-02-26,2025-02-20,株式会社イーシーエー,,株式会社,長野県,下伊那郡松川町,元大島５１１８番地４６,,20,402,3993303,,,2025-02-20,清算の結了等,,,2015-10-05,1,,,,,イーシーエー,0
1153,5120001205770,登記記録の閉鎖等,0,2025-02-26,2025-02-25,株式会社Ａｚｚｌｅ,,株式会社,大阪府,大阪市淀川区,新高６丁目１４番７－８０８号,,27,123,5320033,,,2025-02-25,清算の結了等,,,2017-05-22,1,,,,,アズル,0
1179,5140001133152,登記記録の閉鎖等,0,2025-02-26,2025-02-19,株式会社ＲＢＣ,,株式会社,兵庫県,西宮市,樋之池町２４番４号,,28,204,6620084,,,2025-02-19,清算の結了等,,,2024-01-30,1,,,,,アールビーシー,0
1218,5260001020792,登記記録の閉鎖等,0,2025-02-26,2025-02-25,株式会社大輝建設,,株式会社,岡山県,美作市,豊野３９６番地５,,33,215,7094224,,,2025-02-25,清算の結了等,,,2015-10-05,1,,,,,ダイキケンセツ,0
1221,5260002021278,登記記録の閉鎖等,0,2025-02-26,2025-02-21,丸勘水産有限会社,,有限会社,岡山県,倉敷市,阿知３丁目９番３２号,,33,202,7100055,,,2025-02-21,清算の結了等,,,2015-10-05,1,,,,,マルカンスイサン,0
1223,5260003000727,登記記録の閉鎖等,0,2025-02-26,2025-02-25,合同会社ベック,,合同会社,岡山県,倉敷市,中島１４３番地５,,33,202,7100803,,,2025-02-25,清算の結了等,,,2015-10-05,1,,,,,,0
1237,5310003004598,登記記録の閉鎖等,0,2025-02-26,2025-01-06,合同会社Ｌａ　ｖｅｔ,,合同会社,長崎県,南島原市,深江町甲４５７３番地,,42,214,8591501,,,2025-01-06,清算の結了等,,,2023-07-05,1,,,,,ラベット,0
1239,5310005008119,登記記録の閉鎖等,0,2025-02-26,2025-02-20,一般社団法人やすらぎ,,その他の設立登記法人,長崎県,長崎市,宝町５番５号ＨＡＣビル内,,42,201,8500045,,,2025-02-20,清算の結了等,,,2017-08-10,1,,,,,ヤスラギ,0
1242,5340001016915,登記記録の閉鎖等,0,2025-02-26,2025-02-21,株式会社原薗建設工業,,株式会社,鹿児島県,鹿児島市,吉野町２９１４番地８,,46,201,8920871,,,2025-02-21,清算の結了等,,,2015-10-05,1,,,,,,0
1244,5340002022796,登記記録の閉鎖等,0,2025-02-26,2025-02-20,有限会社文化印刷,,有限会社,鹿児島県,出水市,平和町１２７番地,,46,208,8990217,,,2025-02-20,清算の結了等,,,2015-10-05,1,,,,,ブンカインサツ,0
1256,5400002003138,登記記録の閉鎖等,0,2025-02-26,2025-02-14,有限会社丸中洋裝,,有限会社,岩手県,盛岡市,本町通１丁目９番２４号,,03,201,0200015,,,2025-02-14,清算の結了等,,,2015-10-05,1,,,,,マルナカヨウソウ,0
1260,5430001035014,登記記録の閉鎖等,0,2025-02-26,2025-02-25,株式会社オンリーワン,,株式会社,北海道,札幌市西区,山の手一条８丁目４番２０－３０１,,01,107,0630001,,,2025-02-25,清算の結了等,,,2015-10-05,1,,,,,オンリーワン,0
1269,6000020298591,削除,,2025-02-26,,,,,,,,,,,,,,,,,,,,,,,,,
1276,6010001122745,登記記録の閉鎖等,0,2025-02-26,2025-02-10,株式会社ワンフォワード,,株式会社,東京都,中央区,日本橋横山町７番１８号,,13,102,1030003,,,2025-02-10,清算の結了等,,,2015-10-05,1,,,,,ワンフォワード,0
1288,6010003022605,登記記録の閉鎖等,0,2025-02-26,2025-02-10,合同会社ＡＢＯＵＴ　Ａ　ＧＩＲＬ,,合同会社,東京都,千代田区,岩本町１丁目２番１３号渡東ビルディング３階,,13,101,1010032,,,2025-02-10,清算の結了等,,,2015-11-04,1,,,,,,0
1317,6011101026365,登記記録の閉鎖等,0,2025-02-26,2025-02-19,株式会社アルクス,,株式会社,東京都,新宿区,矢来町８２番地,,13,104,1620805,,,2025-02-19,清算の結了等,,,2015-10-05,1,,,,,アルクス,0
1340,6013301036838,登記記録の閉鎖等,0,2025-02-26,2025-02-10,バイナビ株式会社,,株式会社,東京都,中央区,銀座１丁目２２番１１号,,13,102,1040061,,,2025-02-10,清算の結了等,,,2015-10-05,1,,,,,バイナビ,0
1350,6020002039467,登記記録の閉鎖等,0,2025-02-26,2025-02-07,有限会社成田製作所,,有限会社,神奈川県,横浜市鶴見区,佃野町３２番２号,,14,101,2300061,,,2025-02-07,清算の結了等,,,2015-10-05,1,,,,,ナリタセイサクショ,0
1358,6030001088019,登記記録の閉鎖等,0,2025-02-26,2025-02-21,株式会社カーショップ吉沢,,株式会社,埼玉県,行田市,大字下忍３６８番地２,,11,206,3610037,,,2025-02-21,清算の結了等,,,2015-10-05,1,,,,,カーショップヨシザワ,0
1365,6030002031786,登記記録の閉鎖等,0,2025-02-26,2025-02-21,渡部タイル工業有限会社,,有限会社,埼玉県,所沢市,美原町２丁目２９５３番地の６,,11,208,3590045,,,2025-02-21,清算の結了等,,,2015-10-05,1,,,,,ワタベタイルコウギョウ,0
1366,6030002051157,登記記録の閉鎖等,0,2025-02-26,2025-02-20,有限会社プロジェクト３０,,有限会社,埼玉県,草加市,金明町２４８番地１０,,11,221,3400052,,,2025-02-20,清算の結了等,,,2015-10-05,1,,,,,プロジェクトサーティ,0
1383,6040002053904,登記記録の閉鎖等,0,2025-02-26,2025-02-18,有限会社戸松建設,,有限会社,千葉県,松戸市,五香西１丁目１５番地の９,,12,207,2702218,,,2025-02-18,清算の結了等,,,2015-10-05,1,,,,,トマツケンセツ,0
1388,6050001039738,登記記録の閉鎖等,0,2025-02-26,2025-02-18,株式会社ももや,,株式会社,茨城県,稲敷市,高田３４３３番地,,08,229,3000511,,,2025-02-18,清算の結了等,,,2015-10-05,1,,,,,モモヤ,0
1391,6070002019935,登記記録の閉鎖等,0,2025-02-26,2025-02-25,有限会社山口精工,,有限会社,群馬県,伊勢崎市,下植木町６３８番地１,,10,204,3720024,,,2025-02-25,清算の結了等,,,2015-10-05,1,,,,,ヤマグチセイコウ,0
1398,6100001026482,登記記録の閉鎖等,0,2025-02-26,2025-02-20,株式会社中機工,,株式会社,長野県,南佐久郡佐久穂町,大字上７４６番地の１０,,20,309,3840614,,,2025-02-20,清算の結了等,,,2015-10-05,1,,,,,ナカキコウ,0
1421,6120002018519,登記記録の閉鎖等,0,2025-02-26,2025-02-20,有限会社大阪市中央卸売市場保険事務局,,有限会社,大阪府,大阪市福島区,野田１丁目１番８６号,,27,103,5530005,,,2025-02-20,清算の結了等,,,2015-10-05,1,,,,,オオサカシチュウオウオロシウリイチバホケンジムキョク,0
1430,6120102018922,登記記録の閉鎖等,0,2025-02-26,2025-02-20,有限会社読売センター古市,,有限会社,大阪府,羽曳野市,白鳥２丁目２番１３号,,27,222,5830856,,,2025-02-20,清算の結了等,,,2015-10-05,1,,,,,ヨミウリセンターフルイチ,0
1432,6120902018551,登記記録の閉鎖等,0,2025-02-26,2025-02-19,有限会社ジー・アイ・エス,,有限会社,大阪府,豊中市,永楽荘１丁目８番４号,,27,203,5600051,,,2025-02-19,清算の結了等,,,2015-10-05,1,,,,,ジーアイエス,0
1440,6140001109531,登記記録の閉鎖等,0,2025-02-26,2025-02-06,株式会社住香,,株式会社,神奈川県,川崎市川崎区,大島１丁目２７番４号,,14,131,2100834,,,2025-02-06,清算の結了等,,,2018-03-29,1,,,,,スミカ,0
1447,6180001026938,登記記録の閉鎖等,0,2025-02-26,2025-02-21,不二建材株式会社,,株式会社,愛知県,名古屋市西区,枇杷島４丁目２３番２３号,,23,104,4510053,,,2025-02-21,清算の結了等,,,2015-10-05,1,,,,,フジケンザイ,0
1448,6180001127406,登記記録の閉鎖等,0,2025-02-26,2025-02-21,株式会社中野建材,,株式会社,愛知県,安城市,浜富町１０番地１６シャインユウ１０１,,23,212,4460022,,,2025-02-21,清算の結了等,,,2017-04-20,1,,,,,ナカノケンザイ,0
1459,6190002023512,登記記録の閉鎖等,0,2025-02-26,2025-02-21,有限会社ＫＫＹ,,有限会社,三重県,四日市市,富田１丁目２６番２２号,,24,202,5108014,,,2025-02-21,清算の結了等,,,2015-10-05,1,,,,,ケイケイワイ,0
1463,6200002020490,登記記録の閉鎖等,0,2025-02-26,2025-02-17,有限会社成木瓦店,,有限会社,岐阜県,多治見市,池田町８丁目１３６番地の２,,21,204,5070048,,,2025-02-17,清算の結了等,,,2015-10-05,1,,,,,ナルキカワラテン,0
1498,6320001005935,登記記録の閉鎖等,0,2025-02-26,2025-02-25,株式会社みらい創健,,株式会社,大分県,由布市,挾間町鬼崎２６５１番地１９,,44,213,8795501,,,2025-02-25,清算の結了等,,,2015-10-05,1,,,,,ミライソウケン,0
1503,6320002003756,登記記録の閉鎖等,0,2025-02-26,2025-02-25,オート住友自動車株式会社,,株式会社,大分県,大分市,大字旦野原１０１１番地の３,,44,201,8701124,,,2025-02-25,清算の結了等,,,2015-10-05,1,,,,,オートスミトモジドウシャ,0
1514,6380001020730,登記記録の閉鎖等,0,2025-02-26,2025-02-13,東北コンクリート工業株式会社,,株式会社,福島県,伊達市,霊山町山野川字柳沢入３番地１,,07,213,9600802,,,2025-02-13,清算の結了等,,,2015-10-05,1,,,,,トウホクコンクリートコウギョウ,0
1523,6420001008795,登記記録の閉鎖等,0,2025-02-26,2025-02-20,株式会社内山商店,,株式会社,青森県,青森市,千刈３丁目１２番５号,,02,201,0380015,,,2025-02-20,清算の結了等,,,2015-10-05,1,,,,,ウチヤマショウテン,0
1540,7010001022878,登記記録の閉鎖等,0,2025-02-26,2025-02-10,株式会社千代田染繍,00049194,株式会社,東京都,千代田区,飯田橋４丁目６番１０号,,13,101,1020072,,,2025-02-10,清算の結了等,,,2015-10-05,1,,,,,チヨダセンシュウ,0
1548,7010003029269,登記記録の閉鎖等,0,2025-02-26,2025-02-10,合同会社恵比寿エス・ファンディング,,合同会社,東京都,中央区,新川２丁目２７番１号,,13,102,1040033,,,2025-02-10,清算の結了等,,,2019-02-13,1,,,,,エビスエスファンディング,0
1549,7010003030111,登記記録の閉鎖等,0,2025-02-26,2025-02-10,合同会社悠洛,,合同会社,東京都,千代田区,霞が関３丁目２番５号,,13,101,1000013,,,2025-02-10,清算の結了等,,,2019-07-10,1,,,,,ユウラ,0
1560,7010403027228,登記記録の閉鎖等,0,2025-02-26,2025-01-22,ＮＥｉＲＯ合同会社,,合同会社,東京都,港区,南青山２丁目２番１５号ＷＩＮ青山５３１,,13,103,1070062,,,2025-01-22,清算の結了等,,,2022-03-08,1,,,,,ネイロ,0
1578,7011001145082,登記記録の閉鎖等,0,2025-02-26,2025-01-29,株式会社デジタルフューチャー,,株式会社,東京都,渋谷区,渋谷２丁目１９番１５号宮益坂ビルディング６０９,,13,113,1500002,,,2025-01-29,清算の結了等,,,2022-01-19,1,,,,,デジタルフューチャー,0
1595,7011601011345,登記記録の閉鎖等,0,2025-02-26,2025-02-25,株式会社翔栄興業,,株式会社,東京都,練馬区,大泉学園町８丁目２７番１８号カームズヒルズ３０３,,13,120,1780061,,,2025-02-25,清算の結了等,,,2015-10-05,1,,,,,,0
1599,7011702006310,登記記録の閉鎖等,0,2025-02-26,2025-01-16,有限会社隅田住宅,,有限会社,東京都,江戸川区,西小岩４丁目９番８号,,13,123,1330057,,,2025-01-16,清算の結了等,,,2015-10-05,1,,,,,スミダジュウタク,0
1601,7011801004520,登記記録の閉鎖等,0,2025-02-26,2025-02-20,マックデジタル株式会社,,株式会社,東京都,葛飾区,西新小岩４丁目６番７号,,13,122,1240025,,,2025-02-20,清算の結了等,,,2015-10-05,1,,,,,マックデジタル,0
1610,7013302007523,登記記録の閉鎖等,0,2025-02-26,2025-02-14,有限会社ナルシマ機工,,有限会社,東京都,豊島区,千早１丁目１７番１２号,,13,116,1710044,,,2025-02-14,清算の結了等,,,2015-10-05,1,,,,,ナルシマキコウ,0
1617,7020005005515,登記記録の閉鎖等,0,2025-02-26,2025-02-05,特定非営利活動法人六ッ川ふれあい福祉の会,,その他の設立登記法人,神奈川県,横浜市南区,花之木町２丁目３８番地レ・ジェイド横濱花之木６０７号,,14,105,2320018,,,2025-02-05,清算の結了等,,,2015-10-05,1,,,,,ムツカワフレアイフクシノカイ,0
1618,7021001037345,登記記録の閉鎖等,0,2025-02-26,2025-02-25,株式会社舟平,,株式会社,神奈川県,平塚市,紅谷町９番１－５０２号リーデンスタワー湘南平塚,,14,203,2540043,,,2025-02-25,清算の結了等,,,2015-10-05,1,,,,,フナヘイ,0
1641,7040005016948,登記記録の閉鎖等,0,2025-02-26,2025-02-17,一般社団法人日本人工関節・リウマチ治療研究所,,その他の設立登記法人,千葉県,木更津市,菅生７２５番地１,,12,206,2920036,,,2025-02-17,清算の結了等,,,2015-10-05,1,,,,,ニホンジンクオカンセツリウマチチリョウケンキュウジョ,0
1647,7080001019249,登記記録の閉鎖等,0,2025-02-26,2025-02-19,株式会社Ｓ＆Ｓ損保鑑定,,株式会社,静岡県,静岡市清水区,今泉１６６番地の１４,,22,103,4240874,,,2025-02-19,清算の結了等,,,2015-10-05,1,,,,,エスアンドエスソンポカンテイ,0
1650,7080402018717,登記記録の閉鎖等,0,2025-02-26,2025-02-14,日本トラベルサービス有限会社,,有限会社,静岡県,菊川市,半済９８０番地の２,,22,224,4390019,,,2025-02-14,清算の結了等,,,2015-10-05,1,,,,,ニホントラベルサービス,0
1657,7100002023809,登記記録の閉鎖等,0,2025-02-26,2025-02-17,有限会社豊科鉄工所,,有限会社,長野県,安曇野市,大字塚原３９７５番地２,,20,220,3998200,,,2025-02-17,清算の結了等,,,2015-10-05,1,,,,,トヨシナテッコウショ,0
1658,7100002031398,登記記録の閉鎖等,0,2025-02-26,2025-02-19,有限会社杉崎工業,,有限会社,長野県,岡谷市,加茂町２丁目３番２号,,20,204,3940003,,,2025-02-19,清算の結了等,,,2015-10-05,1,,,,,スギサキコウギョウ,0
1666,7120001147838,登記記録の閉鎖等,0,2025-02-26,2025-02-20,株式会社幸福アグリ,,株式会社,大阪府,枚方市,茄子作南町１３１２,,27,210,5730072,,,2025-02-20,合併による解散等,8120001147853,令和７年２月２０日大阪府枚方市茄子作南町１３１２幸福米穀株式会社（8120001147853）に合併し解散,2015-10-05,1,,,,,コウフクアグリ,0
1688,7140001095135,登記記録の閉鎖等,0,2025-02-26,2025-02-25,株式会社ライフエフ,,株式会社,岡山県,倉敷市,新倉敷駅前３丁目９５番地,,33,202,7100253,,,2025-02-25,清算の結了等,,,2015-10-05,1,,,,,,0
1690,7140001099458,登記記録の閉鎖等,0,2025-02-26,2025-02-19,株式会社アークエージェンシー,,株式会社,兵庫県,西宮市,西宮浜４丁目９番５－１４０４号,,28,204,6620934,,,2025-02-19,清算の結了等,,,2015-10-05,1,,,,,アークエージェンシー,0
1698,7180002015724,登記記録の閉鎖等,0,2025-02-26,2025-02-20,有限会社名西工芸,,有限会社,愛知県,清須市,桃栄３丁目１５０番地,,23,233,4520918,,,2025-02-20,清算の結了等,,,2015-10-05,1,,,,,メイセイコウゲイ,0
1701,7180303001984,登記記録の閉鎖等,0,2025-02-26,2025-02-18,合資会社林屋呉服店,,合資会社,愛知県,安城市,今本町１丁目３番３３号,,23,212,4460008,,,2025-02-18,清算の結了等,,,2015-10-05,1,,,,,ハヤシヤゴフクテン,0
1715,7240003006204,登記記録の閉鎖等,0,2025-02-26,2025-02-21,合同会社アンドサニー,,合同会社,広島県,広島市中区,舟入町５番２３号７階,,34,101,7300841,,,2025-02-21,清算の結了等,,,2023-07-05,1,,,,,アンドサニー,0
1722,7270001008942,登記記録の閉鎖等,0,2025-02-26,2025-02-21,株式会社ＦＵＮ　ＢＡＳＥ,,株式会社,鳥取県,米子市,西福原４丁目６番２８号,,31,202,6830805,,,2025-02-21,清算の結了等,,,2024-03-19,1,,,,,ファンベース,0
1739,7330005002027,登記記録の閉鎖等,0,2025-02-26,2025-02-18,特定非営利活動法人ＰＲＥＮＥＴ２１,,その他の設立登記法人,熊本県,熊本市中央区,南坪井町７番地７ジーエスハイムチクシ３０６,,43,101,8600848,,,2025-02-18,清算の結了等,,,2015-10-05,1,,,,,プレネットニジュウイチ,0
1751,7380001010103,登記記録の閉鎖等,0,2025-02-26,2025-02-14,株式会社イワキファーム,,株式会社,福島県,西白河郡泉崎村,大字踏瀬字大山３番地,,07,464,9690105,,,2025-02-14,清算の結了等,,,2015-10-05,1,,,,,イワキファーム,0
1754,7380002016693,登記記録の閉鎖等,0,2025-02-26,2025-02-14,有限会社渡辺石材,,有限会社,福島県,二本松市,成田字寺ノ前１０５番地,,07,210,9640315,,,2025-02-14,清算の結了等,,,2015-10-05,1,,,,,ワタナベセキザイ,0
1773,8010003037304,登記記録の閉鎖等,0,2025-02-26,2025-02-10,ＲＢソーラーシャイン合同会社,,合同会社,東京都,千代田区,麹町２丁目８番地ＭＬＣ麹町ビル４階フィンポート税理士法人内,,13,101,1020083,,,2025-02-10,清算の結了等,,,2022-03-23,1,,,,,アールビーソーラーシャイン,0
1778,8010401119439,登記記録の閉鎖等,0,2025-02-26,2025-02-06,株式会社ＪＰコンサルティング,,株式会社,東京都,港区,白金６丁目１６番３０－７０１号,,13,103,1080072,,,2025-02-06,清算の結了等,,,2015-10-05,1,,,,,ジェイピーコンサルティング,0
1780,8010401163833,登記記録の閉鎖等,0,2025-02-26,2025-02-05,株式会社ＭＩＨＡ,,株式会社,東京都,港区,新橋２丁目１６番１号ニュー新橋ビル７０２,,13,103,1050004,,,2025-02-05,清算の結了等,,,2021-11-15,1,,,,,ミハ,0
1786,8010501006396,登記記録の閉鎖等,0,2025-02-26,2025-02-17,株式会社スポーツ玉澤,,株式会社,東京都,台東区,東上野５丁目１０番５号,,13,106,1100015,,,2025-02-17,清算の結了等,,,2015-10-05,1,,,,,スポーツタマザワ,0
1796,8010701023308,登記記録の閉鎖等,0,2025-02-26,2025-02-25,株式会社イー・プロ,,株式会社,神奈川県,逗子市,久木８丁目５番１８号,,14,208,2490001,,,2025-02-25,清算の結了等,,,2015-10-05,1,,,,,イープロ,0
1828,8011601021748,登記記録の閉鎖等,0,2025-02-26,2025-02-25,株式会社Ｈ＆Ｊ,,株式会社,東京都,練馬区,南大泉３丁目２９番１５－１０５号,,13,120,1780064,,,2025-02-25,清算の結了等,,,2017-05-09,1,,,,,,0
1837,8013301030797,登記記録の閉鎖等,0,2025-02-26,2025-02-13,株式会社テクトロンジャパン,,株式会社,東京都,豊島区,高田３丁目６番７号,,13,116,1710033,,,2025-02-13,清算の結了等,,,2015-10-05,1,,,,,テクトロンジャパン,0
1845,8020002055017,登記記録の閉鎖等,0,2025-02-26,2025-02-06,有限会社レッドペッパー,,有限会社,神奈川県,横浜市戸塚区,川上町７９５番地１,,14,110,2440805,,,2025-02-06,清算の結了等,,,2015-10-05,1,,,,,レッドペッパー,0
1846,8020003021133,登記記録の閉鎖等,0,2025-02-26,2025-02-10,合同会社ＩＰＡＭ　Ｌｉｍｉｔｅｄ,,合同会社,神奈川県,横浜市瀬谷区,二ツ橋町２１５番地市営楽老ハイツ８棟２０３号,,14,114,2460021,,,2025-02-10,清算の結了等,,,2022-01-14,1,,,,,アイパムリミテッド,0
1848,8021001023245,登記記録の閉鎖等,0,2025-02-26,2025-02-25,サンヨーコーティング株式会社,,株式会社,神奈川県,厚木市,飯山南２丁目６番１３号,,14,212,2430218,,,2025-02-25,清算の結了等,,,2015-10-05,1,,,,,サンヨーコーティング,0
1854,8030001039853,登記記録の閉鎖等,0,2025-02-26,2025-02-20,株式会社エアウェイブ,,株式会社,静岡県,焼津市,西小川５丁目１１番地の５,,22,212,4250036,,,2025-02-20,清算の結了等,,,2015-10-05,1,,,,,エアウェイブ,0
1856,8030001116685,登記記録の閉鎖等,0,2025-02-26,2025-02-21,株式会社エスアイテック,,株式会社,埼玉県,さいたま市北区,櫛引町２丁目２５１番地４クラークケント７０１号,,11,102,3310825,,,2025-02-21,清算の結了等,,,2016-10-12,1,,,,,エスアイテック,0
1857,8030001119977,登記記録の閉鎖等,0,2025-02-26,2025-02-21,株式会社無限,,株式会社,埼玉県,さいたま市岩槻区,大字大野島４番地１,,11,110,3390018,,,2025-02-21,清算の結了等,,,2017-04-27,1,,,,,ムゲン,0
1858,8030001138523,登記記録の閉鎖等,0,2025-02-26,2025-02-25,株式会社ＢＥＬＬ　Ｅｍｐｌｏｙｍｅｎｔ　Ｓｕｐｐｏｒｔ,,株式会社,埼玉県,越谷市,新越谷１丁目４７－１,,11,222,3430857,,,2025-02-25,清算の結了等,,,2020-10-01,1,,,,,ベルエンプロイメントサポート,0
1861,8030002107130,登記記録の閉鎖等,0,2025-02-26,2025-02-19,有限会社松島製作所,,有限会社,埼玉県,川口市,末広３丁目１２番１４号,,11,203,3320006,,,2025-02-19,清算の結了等,,,2015-10-05,1,,,,,マツシマセイサクショ,0
1865,8040001046717,登記記録の閉鎖等,0,2025-02-26,2025-02-06,株式会社菊池組,,株式会社,千葉県,佐倉市,表町１丁目１４番地５,,12,212,2850811,,,2025-02-06,清算の結了等,,,2015-10-05,1,,,,,キクチグミ,0
1887,8120001130768,登記記録の閉鎖等,0,2025-02-26,2025-02-25,株式会社ワイズ,,株式会社,大阪府,大阪市中央区,内久宝寺町４丁目４番３号日宝パールビル,,27,128,5400013,,,2025-02-25,清算の結了等,,,2015-10-05,1,,,,,ワイズ,0
1897,8120003014639,登記記録の閉鎖等,0,2025-02-26,2025-02-14,合同会社川島,,合同会社,大阪府,大阪市東淀川区,小松３丁目２番１６号グリーンガーデン小松２０６号,,27,114,5330004,,,2025-02-14,清算の結了等,,,2018-08-17,1,,,,,カワシマ,0
1912,8140002052456,登記記録の閉鎖等,0,2025-02-26,2025-02-20,有限会社菊本防水,,有限会社,兵庫県,姫路市,田寺東２丁目２９番２３号,,28,201,6700081,,,2025-02-20,清算の結了等,,,2015-10-05,1,,,,,キクモトボウスイ,0
1914,8160002009487,登記記録の閉鎖等,0,2025-02-26,2025-02-21,有限会社共栄設備,,有限会社,滋賀県,東近江市,五個荘小幡町８６番地の５６,,25,213,5291422,,,2025-02-21,清算の結了等,,,2015-10-05,1,,,,,キョウエイセツビ,0
1928,8180301029878,登記記録の閉鎖等,0,2025-02-26,2025-02-19,株式会社オーシャンテイン,,株式会社,愛知県,西尾市,一色町一色上屋敷１６４番地,,23,213,4440423,,,2025-02-19,清算の結了等,,,2016-12-21,1,,,,,オーシャンテイン,0
1931,8190002001904,登記記録の閉鎖等,0,2025-02-26,2025-02-26,有限会社園田清商店,,有限会社,三重県,津市,久居新町７６８番地の２,,24,201,5141118,,,2025-02-26,清算の結了等,,,2015-10-05,1,,,,,ソノダセイショウテン,0
1951,8310001013193,登記記録の閉鎖等,0,2025-02-26,2025-02-20,株式会社ＭＦパートナーズ,,株式会社,長崎県,佐世保市,早岐１丁目１６番１号,,42,202,8593215,,,2025-02-20,清算の結了等,,,2015-10-05,1,,,,,エムエフパートナーズ,0
1977,8430001005039,登記記録の閉鎖等,0,2025-02-26,2025-02-25,株式会社クリエート工房,,株式会社,北海道,札幌市中央区,大通西１６丁目２番３,,01,101,0600042,,,2025-02-25,清算の結了等,,,2015-10-05,1,,,,,クリエートコウボウ,0
1978,8430001057402,登記記録の閉鎖等,0,2025-02-26,2025-02-20,株式会社ふくや,,株式会社,北海道,登別市,字登別温泉町３０番地,,01,230,0590000,,,2025-02-20,清算の結了等,,,2015-10-05,1,,,,,フクヤ,0
2001,9010001189757,登記記録の閉鎖等,0,2025-02-26,2025-02-03,株式会社アイビス・ケア,,株式会社,東京都,中央区,銀座４丁目１２番１５号,,13,102,1040061,,,2025-02-03,合併による解散等,1010001111975,令和７年２月１日東京都中央区銀座四丁目１２番１５号株式会社アイビス・キャピタル・パートナーズ（1010001111975）に合併し解散,2018-02-19,1,,,,,アイビスケア,0
2006,9010002014708,登記記録の閉鎖等,0,2025-02-26,2025-02-10,マルモパーツ有限会社,,有限会社,東京都,千代田区,外神田３丁目９番２号,,13,101,1010021,,,2025-02-10,清算の結了等,,,2015-10-05,1,,,,,マルモパーツ,0
2010,9010401032517,登記記録の閉鎖等,0,2025-02-26,2025-02-25,メタルラッツマーケットリサーチ株式会社,,株式会社,神奈川県,横須賀市,長井５丁目４－２８,,14,201,2380316,,,2025-02-25,清算の結了等,,,2015-10-05,1,,,,,メタルラッツマーケットリサーチ,0
2027,9011001111181,登記記録の閉鎖等,0,2025-02-26,2025-02-20,株式会社ジヘン,,株式会社,東京都,渋谷区,道玄坂１丁目１０番８号渋谷道玄坂東急ビル２Ｆ－Ｃ,,13,113,1500043,,,2025-02-20,合併による解散等,2013301050644,令和６年１２月１０日東京都中央区日本橋大伝馬町１３番７号日本橋大富ビル２、３Ｆ株式会社日本トレカセンター（2013301050644）に合併し解散,2016-06-03,1,,,,,ジヘン,0
2053,9011601023801,登記記録の閉鎖等,0,2025-02-26,2025-02-20,株式会社テスポート,,株式会社,東京都,練馬区,関町南４丁目１６番２０号,,13,120,1770053,,,2025-02-20,清算の結了等,,,2019-11-26,1,,,,,テスポート,0
2076,9021001006273,登記記録の閉鎖等,0,2025-02-26,2025-02-25,関東建物株式会社,,株式会社,神奈川県,高座郡寒川町,岡田６丁目８番１２号,,14,321,2530105,,,2025-02-25,清算の結了等,,,2015-10-05,1,,,,,カントウタテモノ,0
2082,9021002051525,登記記録の閉鎖等,0,2025-02-26,2025-02-21,有限会社狩野冷熱機器設備,,有限会社,神奈川県,小田原市,蓮正寺８８１の２９番地,00013599,14,206,2500865,,,2025-02-21,清算の結了等,,,2015-10-05,1,,,,,カノレイネツキキセツビ,0
2085,9030001100168,登記記録の閉鎖等,0,2025-02-26,2025-02-21,ＪＴＩ工業株式会社,,株式会社,埼玉県,さいたま市北区,別所町８２番地１（１０５号）,,11,102,3310821,,,2025-02-21,清算の結了等,,,2015-10-05,1,,,,,ジェイティーアイコウギョウ,0
2113,9090001008629,登記記録の閉鎖等,0,2025-02-26,2025-02-21,多摩川建設株式会社,,株式会社,山梨県,上野原市,新田１１７２番地,,19,212,4090113,,,2025-02-21,清算の結了等,,,2015-10-05,1,,,,,タマガワケンセツ,0
2121,9100002013758,登記記録の閉鎖等,0,2025-02-26,2025-02-17,有限会社太田鉄工所,,有限会社,長野県,上田市,常磐城３丁目４番３号,,20,203,3860027,,,2025-02-17,清算の結了等,,,2015-10-05,1,,,,,オオタテッコウショ,0
2122,9100002015696,登記記録の閉鎖等,0,2025-02-26,2025-02-20,有限会社オノザワ精機,,有限会社,長野県,東御市,鞍掛３８番地１,,20,219,3890502,,,2025-02-20,清算の結了等,,,2015-10-05,1,,,,,オノザワセイキ,0
2136,9120101060039,登記記録の閉鎖等,0,2025-02-26,2025-02-21,ｈａｌｆ株式会社,,株式会社,大阪府,堺市南区,泉田中５５２－１,,27,145,5900126,,,2025-02-21,清算の結了等,,,2019-06-12,1,,,,,ハーフ,0
2166,9180001075288,登記記録の閉鎖等,0,2025-02-26,2025-02-25,イメージインテック株式会社,,株式会社,愛知県,春日井市,黒鉾町字黒鉾６１番地の８,,23,206,4860907,,,2025-02-25,清算の結了等,,,2015-10-05,1,,,,,イメージインテック,0
2178,9200002013871,登記記録の閉鎖等,0,2025-02-26,2025-02-20,有限会社アブカン,,有限会社,岐阜県,養老郡養老町,高田１３７番地の３,,21,341,5031314,,,2025-02-20,清算の結了等,,,2015-10-05,1,,,,,アブカン,0
2186,9230001001305,登記記録の閉鎖等,0,2025-02-26,2025-02-20,シヤルム・ユニフオーム株式会社,,株式会社,富山県,富山市,田中町５丁目４番４８号,,16,201,9300985,,,2025-02-20,合併による解散等,3230001001302,令和７年２月２０日富山市田中町五丁目４番４８号株式会社シャルム（3230001001302）に合併し解散,2015-10-05,1,,,,,シヤルムユニフオーム,0
2229,9380001019415,登記記録の閉鎖等,0,2025-02-26,2025-02-12,株式会社オールウェイズ,,株式会社,福島県,いわき市,平下荒川字剃町３２番地の５２アーバンハウス１０１,,07,204,9708032,,,2025-02-12,清算の結了等,,,2015-10-05,1,,,,,オールウェイズ,0
2230,9380002023944,登記記録の閉鎖等,0,2025-02-26,2025-02-17,有限会社常磐損保サービス,,有限会社,福島県,いわき市,桜ケ丘４丁目１２９番地,,07,204,9728324,,,2025-02-17,清算の結了等,,,2015-10-05,1,,,,,ジョウバンソンポサービス,0
