sequenceNumber,corporateNumber,process,correct,updateDate,changeDate,name,nameImageId,kind,prefectureName,cityName,streetNumber,addressImageId,prefectureCode,cityCode,postCode,addressOutside,addressOutsideImageId,closeDate,closeCause,successorCorporateNumber,changeCause,assignmentDate,latest,enName,enPrefectureName,enCityName,enAddressOutside,furigana,hihyoji
10,1010001220181,新規,0,2021-08-05,2021-08-05,株式会社ｄｉｇｉｌ,,株式会社,東京都,中央区,銀座１丁目１２－４Ｎ＆ＥＢＬＤ．７階,,13,102,1040061,,,,,,,2021-08-05,1,,,,,ディジル,0
11,1010001220198,新規,0,2021-08-05,2021-08-05,ＳｕｇａｒＭ株式会社,,株式会社,東京都,文京区,本郷５丁目１６番３号,,13,105,1130033,,,,,,,2021-08-05,1,,,,,シュガーエム,0
12,1010001220207,新規,0,2021-08-05,2021-08-05,株式会社ＣＨＬ,,株式会社,東京都,中央区,銀座７丁目３番７号ブランエスパ銀座１１階ＴＨＥＳＡＬＯＮＳ内Ｂ区画ＣＨＬ,,13,102,1040061,,,,,,,2021-08-05,1,,,,,シーエイチエル,0
14,1010003035495,新規,0,2021-08-05,2021-08-05,合同会社ＡＰＧ　Ａｓｓｅｔ２,,合同会社,東京都,千代田区,霞が関３丁目２番５号,,13,101,1000013,,,,,,,2021-08-05,1,,,,,エピージーアセットツー,0
15,1010003035512,新規,0,2021-08-05,2021-08-05,マイメディクスジャパン合同会社,,合同会社,東京都,中央区,日本橋本町２丁目３番１１号,,13,102,1030023,,,,,,,2021-08-05,1,,,,,マイメディクスジャパン,0
22,1010401161884,新規,0,2021-08-05,2021-08-05,株式会社ＮｅｘＴｒｅａｓｕｒｅ,,株式会社,東京都,港区,西麻布３丁目１９番２１－２０４号,,13,103,1060031,,,,,,,2021-08-05,1,,,,,ネクストレジャー,0
23,1010401161926,新規,0,2021-08-05,2021-08-05,Ｄｒｉｖｅｎｅｔｓ株式会社,,株式会社,東京都,港区,赤坂２丁目１１番７号ＡＴＴ新館１１階Ｍａｚａｒｓ・Ｊａｐａｎ株式会社内,,13,103,1070052,,,,,,,2021-08-05,1,,,,,ドライブネッツ,0
24,1010401161934,新規,0,2021-08-05,2021-08-05,株式会社エル・ティ・ディ・エスジャポン,,株式会社,東京都,港区,六本木７丁目３番１２号六本木インターナショナルビル６Ｆ,,13,103,1060032,,,,,,,2021-08-05,1,,,,,エルティディエスジャポン,0
30,1010403025864,新規,0,2021-08-05,2021-08-05,合同会社シーランド,,合同会社,東京都,港区,六本木７丁目１２番１１号,,13,103,1060032,,,,,,,2021-08-05,1,,,,,シーランド,0
31,1010405020046,新規,0,2021-08-05,2021-08-05,一般社団法人ＡＧＥ健美食協会,,その他の設立登記法人,東京都,港区,浜松町２丁目２番１５号浜松町ダイヤビル２Ｆ,,13,103,1050013,,,,,,,2021-08-05,1,,,,,エージーイーケンビキョウカイ,0
33,1010601059755,新規,0,2021-08-05,2021-08-05,株式会社ＣｌａｓｓＩｃ,,株式会社,東京都,江東区,亀戸１丁目１３番１３号,,13,108,1360071,,,,,,,2021-08-05,1,,,,,クラシック,0
34,1010601059771,新規,0,2021-08-05,2021-08-05,株式会社千羽鶴,,株式会社,東京都,江東区,豊洲１丁目３番２６－１１０９号,,13,108,1350061,,,,,,,2021-08-05,1,,,,,センバヅル,0
38,1010603009080,新規,0,2021-08-05,2021-08-05,ユニハイブ合同会社,,合同会社,東京都,江東区,有明１丁目２番１１－２３０３号,,13,108,1350063,,,,,,,2021-08-05,1,,,,,ユニハイブ,0
39,1010701041357,新規,0,2021-08-05,2021-08-05,株式会社クラシアップ,,株式会社,東京都,品川区,小山３丁目２４番１号,,13,109,1420062,,,,,,,2021-08-05,1,,,,,クラシアップ,0
42,1010801032207,新規,0,2021-08-05,2021-08-05,株式会社きよみずや,,株式会社,東京都,大田区,蒲田５丁目２１番１２号Ｂ２Ｆ－７号,,13,111,1440052,,,,,,,2021-08-05,1,,,,,キヨミズヤ,0
43,1010901049200,新規,0,2021-08-05,2021-08-05,株式会社ＯＮＺＥ,,株式会社,東京都,世田谷区,太子堂３丁目３７番１号,,13,112,1540004,,,,,,,2021-08-05,1,,,,,オンズ,0
44,1010901049209,新規,0,2021-08-05,2021-08-05,株式会社ＢＯＮＤ　ＣＲＥＡＴＩＯＮ,,株式会社,東京都,世田谷区,若林４丁目３３番１４－５１３号,,13,112,1540023,,,,,,,2021-08-05,1,,,,,ボンドクリエーション,0
45,1010901049217,新規,0,2021-08-05,2021-08-05,株式会社ネクストデリ,,株式会社,東京都,世田谷区,鎌田１丁目２０番９号,,13,112,1570077,,,,,,,2021-08-05,1,,,,,ネクストデリ,0
46,1010901049225,新規,0,2021-08-05,2021-08-05,株式会社上田宅建,,株式会社,東京都,世田谷区,新町１丁目２４番１７号,,13,112,1540014,,,,,,,2021-08-05,1,,,,,ウエダタッケン,0
47,1010903006703,新規,0,2021-08-05,2021-08-05,ＳＴ・ＧＲＩＴ合同会社,,合同会社,東京都,世田谷区,等々力４丁目４番９号,,13,112,1580082,,,,,,,2021-08-05,1,,,,,エスティーグリット,0
50,1011001011109,新規,0,2021-08-05,2021-08-05,株式会社首都圏ファイナンス,,株式会社,東京都,渋谷区,代々木１丁目３０番６号,,13,113,1510053,,,,,,,2021-08-05,1,,,,,シュトケンファイナンス,0
54,1011001142093,新規,0,2021-08-05,2021-08-05,にし山エンターテイメント株式会社,,株式会社,東京都,目黒区,上目黒２丁目７－４,,13,110,1530051,,,,,,,2021-08-05,1,,,,,ニシヤマエンターテイメント,0
55,1011001142192,新規,0,2021-08-05,2021-08-05,株式会社イサミホールディングス,,株式会社,東京都,渋谷区,渋谷２丁目１２番１２号,,13,113,1500002,,,,,,,2021-08-05,1,,,,,イサミホールディングス,0
57,1011101095919,新規,0,2021-08-05,2021-08-05,株式会社ゴエン,,株式会社,東京都,新宿区,百人町３丁目７－３ベルコーポ１０２室,,13,104,1690073,,,,,,,2021-08-05,1,,,,,ゴエン,0
65,1011301027085,新規,0,2021-08-05,2021-08-05,株式会社ロロロ,,株式会社,東京都,杉並区,荻窪３丁目４８番８－１１０１号,,13,115,1670051,,,,,,,2021-08-05,1,,,,,ロロロ,0
66,1011301027093,新規,0,2021-08-05,2021-08-05,株式会社Ｇａｒｉｍｐｅｉｒｏ,,株式会社,東京都,杉並区,梅里２丁目２０－１サンタハウス２０１,,13,115,1660011,,,,,,,2021-08-05,1,,,,,ガリンペイロ,0
67,1011401023587,新規,0,2021-08-05,2021-08-05,株式会社ＡＴＫ,,株式会社,東京都,板橋区,東新町２丁目３８番４－２０２号,,13,119,1740074,,,,,,,2021-08-05,1,,,,,エイティーケイ,0
69,1011501027199,新規,0,2021-08-05,2021-08-05,株式会社センターテン,,株式会社,東京都,北区,浮間５丁目３－４３－１００８,,13,117,1150051,,,,,,,2021-08-05,1,,,,,センターテン,0
74,1011701024616,新規,0,2021-08-05,2021-08-05,アセットリモデリング株式会社,,株式会社,東京都,江戸川区,中央１丁目３番４号,,13,123,1320021,,,,,,,2021-08-05,1,,,,,アセットリモデリング,0
82,1012801020991,新規,0,2021-08-05,2021-08-05,株式会社ＲＯＰ,,株式会社,東京都,立川市,西砂町１丁目７５番地の３フレッチェ西武立川３０４号室,,13,202,1900034,,,,,,,2021-08-05,1,,,,,アールオーピー,0
83,1012801021008,新規,0,2021-08-05,2021-08-05,株式会社ナカガミエキマエ,,株式会社,東京都,昭島市,朝日町３丁目２番１号コスモスビル１Ｆ,,13,207,1960025,,,,,,,2021-08-05,1,,,,,ナカガミエキマエ,0
86,1013101008686,新規,0,2021-08-05,2021-08-05,株式会社ダッカ宮殿,,株式会社,東京都,羽村市,神明台１丁目１６番２号,,13,227,2050023,,,,,,,2021-08-05,1,,,,,ダッカキュウデン,0
88,1013301047831,新規,0,2021-08-05,2021-08-05,株式会社藤工業所,,株式会社,東京都,豊島区,巣鴨４丁目７番４号ハウス折戸通り３０３号,,13,116,1700002,,,,,,,2021-08-05,1,,,,,フジコウギョウショ,0
94,1020001142474,新規,0,2021-08-05,2021-08-05,山崎電気株式会社,,株式会社,神奈川県,川崎市川崎区,藤崎１丁目１番１１－２号,,14,131,2100804,,,,,,,2021-08-05,1,,,,,ヤマザキデンキ,0
95,1020001142482,新規,0,2021-08-05,2021-08-05,株式会社Ｕ２,,株式会社,神奈川県,横浜市青葉区,藤が丘２丁目４３番地２,,14,117,2270043,,,,,,,2021-08-05,1,,,,,ユーツー,0
102,1020003020265,新規,0,2021-08-05,2021-08-05,ＲＪＫＰ合同会社,,合同会社,神奈川県,横浜市栄区,小菅ケ谷１丁目１４番１８号カメリア１０２,,14,115,2470007,,,,,,,2021-08-05,1,,,,,アールジェイケーピー,0
103,1020003020281,新規,0,2021-08-05,2021-08-05,ザ・ショールームトウキョウ合同会社,,合同会社,神奈川県,横浜市旭区,本宿町１３２番地１３,,14,112,2410023,,,,,,,2021-08-05,1,,,,,ザショールームトウキョウ,0
104,1021001073610,新規,0,2021-08-05,2021-08-05,株式会社鎌倉彫弐陽堂,,株式会社,神奈川県,鎌倉市,坂ノ下１２番６号,,14,204,2480021,,,,,,,2021-08-05,1,,,,,カマクラボリニヨウドウ,0
105,1021001073619,新規,0,2021-08-05,2021-08-05,株式会社ファーマーズ・マーケット・ハウジング,,株式会社,神奈川県,座間市,東原３丁目６番５号,,14,216,2520004,,,,,,,2021-08-05,1,,,,,ファーマーズマーケットハウジング,0
113,1030001143629,新規,0,2021-08-05,2021-08-05,株式会社ＮＯＭＵＲＡＳＥＩＴＡ,,株式会社,埼玉県,さいたま市桜区,中島４丁目１１番１３号,,11,106,3380822,,,,,,,2021-08-05,1,,,,,ノムラセイタ,0
114,1030001143678,新規,0,2021-08-05,2021-08-05,株式会社Ａｓｕｋａ　Ｆｉｔ,,株式会社,埼玉県,さいたま市大宮区,桜木町１丁目７番５号ソニックシティビル１６階,,11,103,3300854,,,,,,,2021-08-05,1,,,,,アスカフィット,0
115,1030001143686,新規,0,2021-08-05,2021-08-05,あおいファーマメディカル株式会社,,株式会社,埼玉県,北本市,中央２丁目７４番地藤井ビル１階,,11,233,3640031,,,,,,,2021-08-05,1,,,,,アオイファーマメディカル,0
116,1030001143728,新規,0,2021-08-05,2021-08-05,ロール＆キャベツ株式会社,,株式会社,埼玉県,北葛飾郡杉戸町,大字下高野５９１番地４９,,11,464,3450043,,,,,,,2021-08-05,1,,,,,ロールアンドキャベツ,0
117,1030001143744,新規,0,2021-08-05,2021-08-05,株式会社みなと,,株式会社,埼玉県,さいたま市緑区,大字三室２３６１番地１２,,11,109,3360911,,,,,,,2021-08-05,1,,,,,ミナト,0
124,1040001119594,新規,0,2021-08-05,2021-08-05,ＹＫ・サクセス株式会社,,株式会社,千葉県,松戸市,五香西２丁目３２番２号グランシャリオⅠ（１０４）,00123852,12,207,2702218,,,,,,,2021-08-05,1,,,,,ワイケイサクセス,0
125,1040001119611,新規,0,2021-08-05,2021-08-05,株式会社ロードサイドステーション館山,,株式会社,千葉県,館山市,沼９７９番地,,12,205,2940034,,,,,,,2021-08-05,1,,,,,ロードサイドステーションタテヤマ,0
138,1050001049650,新規,0,2021-08-05,2021-08-05,株式会社全榮,,株式会社,茨城県,つくばみらい市,中原５０番地,,08,235,3002403,,,,,,,2021-08-05,1,,,,,ゼンエイ,0
139,1050003006014,新規,0,2021-08-05,2021-08-05,合同会社訪問看護ステーションアベリア,,合同会社,茨城県,下妻市,下妻乙９４８番地１,,08,210,3040067,,,,,,,2021-08-05,1,,,,,ホウモンカンゴステーションアベリア,0
140,1050005012910,新規,0,2021-08-05,2021-08-05,特定非営利活動法人まんまる,,その他の設立登記法人,茨城県,水戸市,東台２丁目８番２号,,08,201,3100818,,,,,,,2021-08-05,1,,,,,マンマル,0
145,1060001033975,新規,0,2021-08-05,2021-08-05,ジリオンス・アンド・ブラン株式会社,,株式会社,栃木県,宇都宮市,大通り２丁目１番６号,,09,201,3200811,,,,,,,2021-08-05,1,,,,,ジリオンスアンドブラン,0
151,1070005009888,新規,0,2021-08-05,2021-08-05,税理士法人プロスタッフ和,,その他の設立登記法人,群馬県,甘楽郡甘楽町,大字白倉６１番地１,,10,384,3702213,,,,,,,2021-08-05,1,,,,,プロスタッフナゴミ,0
154,1080101022694,新規,0,2021-08-05,2021-08-05,国際伊豆観光株式会社,,株式会社,静岡県,伊東市,吉田１００６番地,,22,208,4140051,,,,,,,2021-08-05,1,,,,,コクサイイズカンコウ,0
160,1100001034498,新規,0,2021-08-05,2021-08-05,株式会社八ケ岳ファーム,,株式会社,長野県,諏訪郡原村,５５００番地,,20,363,3910100,,,,,,,2021-08-05,1,,,,,ヤツガタケファーム,0
173,1120001239475,新規,0,2021-08-05,2021-08-05,株式会社ＡＤＥＳＳｉＮＧ,,株式会社,大阪府,大阪市中央区,釣鐘町１丁目６番６－２０３号,,27,128,5400035,,,,,,,2021-08-05,1,,,,,アデッシング,0
174,1120001239533,新規,0,2021-08-05,2021-08-05,株式会社ｍａｇｒｏ,,株式会社,大阪府,大阪市中央区,南船場４丁目１０番５号南船場ＳＯＨＯビル７０２,,27,128,5420081,,,,,,,2021-08-05,1,,,,,マグロ,0
175,1120001239541,新規,0,2021-08-05,2021-08-05,アートホーリンク株式会社,,株式会社,大阪府,枚方市,楠葉美咲３丁目１４番１１号,,27,210,5731112,,,,,,,2021-08-05,1,,,,,アートホーリンク,0
176,1120001239558,新規,0,2021-08-05,2021-08-05,株式会社キッチンカークリエイト,,株式会社,大阪府,大阪市旭区,高殿６丁目１４番３２号,,27,117,5350031,,,,,,,2021-08-05,1,,,,,キッチンカークリエイト,0
177,1120001239566,新規,0,2021-08-05,2021-08-05,株式会社フェイト,,株式会社,大阪府,大阪市港区,弁天４丁目１３番２３－１０７号,,27,107,5520007,,,,,,,2021-08-05,1,,,,,フェイト,0
179,1120003019974,新規,0,2021-08-05,2021-08-05,ＳＧＳ　ＣＡＲＥ　ＦＡＣＩＬＩＴＹ合同会社,,合同会社,大阪府,大阪市中央区,高津１丁目４番１２－４０１号,,27,128,5420072,,,,,,,2021-08-05,1,,,,,エスジーエスケアファシリティ,0
184,1120101064105,新規,0,2021-08-05,2021-08-05,株式会社エクステリア技研,,株式会社,大阪府,泉佐野市,元町５番９号,,27,213,5980056,,,,,,,2021-08-05,1,,,,,エクステリアギケン,0
188,1120901044719,新規,0,2021-08-05,2021-08-05,株式会社レガロ,,株式会社,大阪府,豊中市,三国２丁目２番３３号,,27,203,5610822,,,,,,,2021-08-05,1,,,,,レガロ,0
189,1120901044727,新規,0,2021-08-05,2021-08-05,株式会社日栄社,,株式会社,大阪府,吹田市,藤白台２丁目１３番９号,,27,205,5650873,,,,,,,2021-08-05,1,,,,,ニチエイシャ,0
190,1120901044735,新規,0,2021-08-05,2021-08-05,株式会社谷川建設,,株式会社,大阪府,吹田市,岸部北５丁目１０番２５号,,27,205,5640001,,,,,,,2021-08-05,1,,,,,タニガワケンセツ,0
191,1120903003771,新規,0,2021-08-05,2021-08-05,メディカルコンフィアンス合同会社,,合同会社,大阪府,豊中市,上新田１丁目１９－１リバーガーデン千里中央６１２,,27,203,5600085,,,,,,,2021-08-05,1,,,,,メディカルコンフィアンス,0
196,1130001069839,新規,0,2021-08-05,2021-08-05,株式会社ＬＬＹ,,株式会社,京都府,京都市西京区,樫原久保町５番地２プリマヴェーラⅠ２０２号,00123858,26,111,6158171,,,,,,,2021-08-05,1,,,,,リリー,0
197,1130001069847,新規,0,2021-08-05,2021-08-05,株式会社きのこ,,株式会社,京都府,京丹後市,弥栄町鳥取１９００番地,,26,212,6270133,,,,,,,2021-08-05,1,,,,,キノコ,0
203,1140001122571,新規,0,2021-08-05,2021-08-05,株式会社南都開発,,株式会社,兵庫県,加古川市,加古川町溝之口５０７番地,,28,210,6750064,,,,,,,2021-08-05,1,,,,,ナントカイハツ,0
204,1140001122613,新規,0,2021-08-05,2021-08-05,株式会社テン,,株式会社,兵庫県,神戸市中央区,熊内町７丁目３番１１－４０１号,,28,110,6510056,,,,,,,2021-08-05,1,,,,,テン,0
205,1140001122621,新規,0,2021-08-05,2021-08-05,株式会社長谷川土木,,株式会社,兵庫県,小野市,久保木町４７０番地の４,,28,218,6751362,,,,,,,2021-08-05,1,,,,,ハセガワドボク,0
206,1140001122646,新規,0,2021-08-05,2021-08-05,新陽金属株式会社,,株式会社,兵庫県,神戸市西区,神出町田井１１４８番地の１,,28,111,6512313,,,,,,,2021-08-05,1,,,,,シンヨウキンゾク,0
210,1140003016598,新規,0,2021-08-05,2021-08-05,ほりよし合同会社,,合同会社,兵庫県,神戸市兵庫区,荒田町４丁目２９番２４号－Ｂ１０５号,,28,105,6520032,,,,,,,2021-08-05,1,,,,,ホリヨシ,0
211,1140003016607,新規,0,2021-08-05,2021-08-05,合同会社Ｅａｒｔｈ,,合同会社,兵庫県,神戸市兵庫区,荒田町１丁目１８番１号,,28,105,6520032,,,,,,,2021-08-05,1,,,,,アース,0
215,1160001023529,新規,0,2021-08-05,2021-08-05,Ｓｍａｒｔ　Ｆｉｔ株式会社,,株式会社,滋賀県,近江八幡市,安土町東老蘇１３５０番地１０,,25,204,5211332,,,,,,,2021-08-05,1,,,,,スマートフィット,0
217,1170001016713,新規,0,2021-08-05,2021-08-05,株式会社マルミ,,株式会社,和歌山県,和歌山市,粟４２７－１チサンマンション紀ノ川５０８,,30,201,6408462,,,,,,,2021-08-05,1,,,,,マルミ,0
223,1180001147276,新規,0,2021-08-05,2021-08-05,株式会社アイバ美装,,株式会社,愛知県,名古屋市港区,港陽３丁目１０番１５号,,23,111,4550013,,,,,,,2021-08-05,1,,,,,アイバビソウ,0
224,1180001147292,新規,0,2021-08-05,2021-08-05,株式会社ア・スターズ,,株式会社,愛知県,津島市,神守町字下町１３１番１,,23,208,4960005,,,,,,,2021-08-05,1,,,,,アスターズ,0
225,1180001147318,新規,0,2021-08-05,2021-08-05,Ｔ’ｓ－Ｆｉｎｅ株式会社,,株式会社,愛知県,春日井市,上条町１０丁目１７４番地１,,23,206,4860833,,,,,,,2021-08-05,1,,,,,ティーズファイン,0
228,1180003022832,新規,0,2021-08-05,2021-08-05,合同会社ＢＰＭコンサルティング,,合同会社,愛知県,名古屋市東区,泉１丁目１５番１４号,,23,102,4610001,,,,,,,2021-08-05,1,,,,,ビーピーエムコンサルティング,0
231,1180301035222,新規,0,2021-08-05,2021-08-05,株式会社マルタケ板金,,株式会社,愛知県,豊川市,国府町清水１番地９,,23,207,4420854,,,,,,,2021-08-05,1,,,,,マルタケバンキン,0
232,1180301035255,新規,0,2021-08-05,2021-08-05,大進輸送株式会社,,株式会社,愛知県,安城市,尾崎町西向４５番地１,,23,212,4460004,,,,,,,2021-08-05,1,,,,,,0
235,1180303005074,新規,0,2021-08-05,2021-08-05,オーリン合同会社,,合同会社,愛知県,安城市,桜井町貝戸尻１１８番地,,23,212,4441154,,,,,,,2021-08-05,1,,,,,オーリン,0
237,1190001028558,新規,0,2021-08-05,2021-08-05,株式会社ｂｌａｎｃ,,株式会社,三重県,伊勢市,神田久志本町１４５１番地５,,24,203,5160016,,,,,,,2021-08-05,1,,,,,ブラン,0
238,1190001028582,新規,0,2021-08-05,2021-08-05,株式会社ＯＣＥＡＮ,,株式会社,三重県,四日市市,堀木２丁目１２番２号,,24,202,5100076,,,,,,,2021-08-05,1,,,,,オーシャン,0
242,1200001038992,新規,0,2021-08-05,2021-08-05,株式会社ＹＥＥＰ　ＳＩＧＮ,,株式会社,岐阜県,羽島市,福寿町平方字須賀境１０３２番地１,,21,209,5016257,,,,,,,2021-08-05,1,,,,,イープサイン,0
248,1200003005272,新規,0,2021-08-05,2021-08-05,合同会社ＵＲＧ,,合同会社,岐阜県,揖斐郡大野町,大字大衣斐字村ノ内前１８７番３,,21,403,5010552,,,,,,,2021-08-05,1,,,,,ユーアールジー,0
262,1240001058368,新規,0,2021-08-05,2021-08-05,ＡｉＯ　ＪＡＰＡＮ株式会社,,株式会社,広島県,府中市,栗柄町３１０７番地５,,34,208,7260023,,,,,,,2021-08-05,1,,,,,アイオジャパン,0
263,1240001058376,新規,0,2021-08-05,2021-08-05,先進ＨＩＭＡＫＵ株式会社,,株式会社,広島県,広島市東区,光町１丁目１２番２０号４Ｆ,,34,102,7320052,,,,,,,2021-08-05,1,,,,,センシンヒマク,0
264,1240001058384,新規,0,2021-08-05,2021-08-05,株式会社雄心,,株式会社,広島県,竹原市,下野町３３５２番地５,,34,203,7250012,,,,,,,2021-08-05,1,,,,,ユウシン,0
275,1260003003642,新規,0,2021-08-05,2021-08-05,合同会社チャーズ,,合同会社,岡山県,岡山市北区,久米３４９番地,,33,101,7010144,,,,,,,2021-08-05,1,,,,,チャーズ,0
277,1260005010950,新規,0,2021-08-05,2021-08-05,溝手社会保険労務士法人,,その他の設立登記法人,岡山県,岡山市北区,大供２丁目１番１号ＨＡＳＰＡＬＩＢＬ４０１号,,33,101,7000913,,,,,,,2021-08-05,1,,,,,ミゾテ,0
278,1270001008329,新規,0,2021-08-05,2021-08-05,山隂製糸株式會社,00123803,株式会社,鳥取県,倉吉市,福吉町５７番屋敷,,31,203,6820872,,,,,,,2021-08-05,1,,,,,サンインセイシ,0
288,1290001094045,新規,0,2021-08-05,2021-08-05,株式会社三成工業,,株式会社,福岡県,福岡市早良区,野芥２丁目３４番２号,,40,137,8140171,,,,,,,2021-08-05,1,,,,,サンセイコウギョウ,0
295,1310001017408,新規,0,2021-08-05,2021-08-05,株式会社ｈｏｔａｒｕ,,株式会社,長崎県,南島原市,北有馬町丙３４３７番地１,,42,214,8592303,,,,,,,2021-08-05,1,,,,,ホタル,0
303,1340001023980,新規,0,2021-08-05,2021-08-05,レイズランド株式会社,,株式会社,鹿児島県,大島郡知名町,大字瀬利覚２１１６番地１１,,46,534,8919213,,,,,,,2021-08-05,1,,,,,レイズランド,0
304,1340001023989,新規,0,2021-08-05,2021-08-05,株式会社海,,株式会社,鹿児島県,鹿児島市,春山町１２７７番地２,,46,201,8992704,,,,,,,2021-08-05,1,,,,,カイ,0
305,1340003003510,新規,0,2021-08-05,2021-08-05,合同会社さつま会計,,合同会社,鹿児島県,鹿児島市,武岡３丁目３５－１０,,46,201,8900031,,,,,,,2021-08-05,1,,,,,サツマカイケイ,0
310,1360001029200,新規,0,2021-08-05,2021-08-05,株式会社琉佐美,,株式会社,沖縄県,中頭郡北谷町,一丁目１番地５シティコーワビル１Ｆ,,47,326,9040100,,,,,,,2021-08-05,1,,,,,リュウサビ,0
311,1360003011354,新規,0,2021-08-05,2021-08-05,合同会社Ｃ‐ＣＬＯＵＤ,,合同会社,沖縄県,島尻郡南風原町,字照屋２５３－１東宝ビル３－３０１,,47,350,9011116,,,,,,,2021-08-05,1,,,,,シークラウド,0
312,1360005006484,新規,0,2021-08-05,2021-08-05,一般社団法人さやのりこアート,,その他の設立登記法人,沖縄県,那覇市,久茂地１丁目１番１号９階,,47,201,9000015,,,,,,,2021-08-05,1,,,,,サヤノリコアート,0
313,1370001047432,新規,0,2021-08-05,2021-08-05,株式会社エム・ジェイ・ケイ,,株式会社,宮城県,仙台市青葉区,国分町３丁目９番７－２４０１号,,04,101,9800803,,,,,,,2021-08-05,1,,,,,エムジェイケイ,0
314,1370001047449,新規,0,2021-08-05,2021-08-05,株式会社サリダ,,株式会社,宮城県,登米市,迫町佐沼字西佐沼１０６番地４,,04,212,9870511,,,,,,,2021-08-05,1,,,,,サリダ,0
315,1370001047457,新規,0,2021-08-05,2021-08-05,株式会社テクノメンテ,,株式会社,宮城県,富谷市,成田５丁目２２番地２８,,04,216,9813341,,,,,,,2021-08-05,1,,,,,テクノメンテ,0
323,1380003004991,新規,0,2021-08-05,2021-08-05,合同会社真栄,,合同会社,福島県,いわき市,錦町上中田２０９番地３,,07,204,9748232,,,,,,,2021-08-05,1,,,,,シンエイ,0
331,1430003012989,新規,0,2021-08-05,2021-08-05,合同会社山野勝也ステーブル,,合同会社,北海道,新冠郡新冠町,字節婦町７１番地の２０,,01,604,0592412,,,,,,,2021-08-05,1,,,,,ヤマノカツヤステーブル,0
342,1470001018646,新規,0,2021-08-05,2021-08-05,株式会社Ａｒｚｕ　Ｂｅａｕｔｙ　Ｃａｒｅ,,株式会社,香川県,善通寺市,木徳町１１６５番地１,,37,204,7650033,,,,,,,2021-08-05,1,,,,,アルズビューティーケア,0
347,1500001023601,新規,0,2021-08-05,2021-08-05,株式会社Ｋ・Ｉ自動車,,株式会社,愛媛県,新居浜市,大生院６４番地の１７,,38,205,7920060,,,,,,,2021-08-05,1,,,,,ケーアイジドウシャ,0
358,2010001220189,新規,0,2021-08-05,2021-08-05,株式会社ＵＮＩＴＥＤ＆ＢＥＡＵＴＥ,,株式会社,東京都,千代田区,丸の内１丁目１番３号３階,,13,101,1000005,,,,,,,2021-08-05,1,,,,,ユナイテッドアンドボーテ,0
359,2010001220197,新規,0,2021-08-05,2021-08-05,株式会社Ｇａｍａエキスパート,,株式会社,東京都,中央区,日本橋兜町２２番３号ＴＯＫＹＯＰＬＡＣＥＮＩＨＯＮＢＡＳＨＩ２階,,13,102,1030026,,,,,,,2021-08-05,1,,,,,ガマエキスパート,0
360,2010001220247,新規,0,2021-08-05,2021-08-05,株式会社ＯＳＰＲＯ,,株式会社,東京都,千代田区,岩本町３丁目８番１１号ＰＡＲＫＷＯＯＤｏｆｆｉｃｅｉｗａｍｏｔｏｃｈｏ５Ｆ,,13,101,1010032,,,,,,,2021-08-05,1,,,,,オスプロ,0
364,2010003035494,新規,0,2021-08-05,2021-08-05,合同会社ＡＰＧ　Ａｓｓｅｔ１,,合同会社,東京都,千代田区,霞が関３丁目２番５号,,13,101,1000013,,,,,,,2021-08-05,1,,,,,エーピージーアセットワン,0
365,2010003035503,新規,0,2021-08-05,2021-08-05,フリージア合同会社,,合同会社,東京都,文京区,本駒込２丁目２９－１５－３０５,,13,105,1130021,,,,,,,2021-08-05,1,,,,,,0
366,2010003035511,新規,0,2021-08-05,2021-08-05,合同会社すがわら,,合同会社,東京都,中央区,晴海３丁目６番８－１４０４号,,13,102,1040053,,,,,,,2021-08-05,1,,,,,スガワラ,0
373,2010401161925,新規,0,2021-08-05,2021-08-05,株式会社Ｔｅｎ　Ｆｅｅｔ,,株式会社,東京都,港区,南麻布３丁目２０番１号,,13,103,1060047,,,,,,,2021-08-05,1,,,,,テンフィート,0
375,2010403025855,新規,0,2021-08-05,2021-08-05,合同会社Ｊａｐａｎ　Ｒｅｇｅｎｅｒａｔｉｏｎ　Ｆｕｎｄ,,合同会社,東京都,港区,南青山２丁目２番１５号ウィン青山１２１４号,,13,103,1070062,,,,,,,2021-08-05,1,,,,,ジャパンリジェネレーションファンド,0
377,2010501047644,新規,0,2021-08-05,2021-08-05,株式会社江戸一工房,,株式会社,東京都,台東区,日本堤２丁目２４番４号,,13,106,1110021,,,,,,,2021-08-05,1,,,,,エドイチコウボウ,0
378,2010503006342,新規,0,2021-08-05,2021-08-05,合同会社ＬＶＣ．,,合同会社,東京都,台東区,元浅草３丁目１番３号サンライズ・メゾン１０２,,13,106,1110041,,,,,,,2021-08-05,1,,,,,エルブイシー,0
379,2010601059754,新規,0,2021-08-05,2021-08-05,株式会社ジョシュアクロージング,,株式会社,東京都,墨田区,太平２丁目１６番２号,,13,107,1300012,,,,,,,2021-08-05,1,,,,,ジョシュアクロージング,0
383,2010701041356,新規,0,2021-08-05,2021-08-05,株式会社ｓｋｙ,,株式会社,東京都,品川区,大崎５丁目６番１８－２０２号,,13,109,1410032,,,,,,,2021-08-05,1,,,,,スカイ,0
387,2010803003849,新規,0,2021-08-05,2021-08-05,合同会社ＴＯＲＡ,,合同会社,東京都,大田区,中央５丁目６番１９号,,13,111,1430024,,,,,,,2021-08-05,1,,,,,トラ,0
389,2010901049208,新規,0,2021-08-05,2021-08-05,株式会社きたむら,,株式会社,東京都,世田谷区,給田３丁目３２番５号,,13,112,1570064,,,,,,,2021-08-05,1,,,,,キタムラ,0
390,2010901049216,新規,0,2021-08-05,2021-08-05,株式会社Ｔ．Ｐ．Ｄ．,,株式会社,東京都,世田谷区,新町２丁目２９番３号,,13,112,1540014,,,,,,,2021-08-05,1,,,,,ティーピーディー,0
397,2011001142084,新規,0,2021-08-05,2021-08-05,株式会社アムリンク,,株式会社,東京都,渋谷区,神宮前２丁目３４番１７号,,13,113,1500001,,,,,,,2021-08-05,1,,,,,アムリンク,0
399,2011003013168,新規,0,2021-08-05,2021-08-05,ビグラッド合同会社,,合同会社,東京都,渋谷区,神宮前６丁目２３番４号桑野ビル２階,,13,113,1500001,,,,,,,2021-08-05,1,,,,,ビグラッド,0
408,2011203003605,新規,0,2021-08-05,2021-08-05,プロビデンス合同会社,,合同会社,東京都,中野区,新井３丁目３４－１５,,13,114,1650026,,,,,,,2021-08-05,1,,,,,プロビデンス,0
409,2011303004123,新規,0,2021-08-05,2021-08-05,合同会社吉橘,,合同会社,東京都,杉並区,和泉４丁目３４番４号,,13,115,1680063,,,,,,,2021-08-05,1,,,,,ヨシタチ,0
411,2011501027198,新規,0,2021-08-05,2021-08-05,東陽ホールディングス株式会社,,株式会社,東京都,荒川区,西日暮里２丁目２６番１０－９Ｆ,,13,118,1160013,,,,,,,2021-08-05,1,,,,,トウヨウホールディングス,0
415,2011701024598,新規,0,2021-08-05,2021-08-05,株式会社ビークス,,株式会社,東京都,江戸川区,北小岩２丁目３２－７,,13,123,1330051,,,,,,,2021-08-05,1,,,,,ビークス,0
416,2011701024607,新規,0,2021-08-05,2021-08-05,株式会社一戸興業,,株式会社,東京都,江戸川区,一之江１丁目１６番５号,,13,123,1320024,,,,,,,2021-08-05,1,,,,,イチノヘコウギョウ,0
420,2011801039538,新規,0,2021-08-05,2021-08-05,株式会社東京福祉不動産,,株式会社,東京都,葛飾区,水元４丁目２６番１３号,,13,122,1250032,,,,,,,2021-08-05,1,,,,,トウキョウフクシフドウサン,0
421,2011801039546,新規,0,2021-08-05,2021-08-05,株式会社ノア興業,,株式会社,東京都,葛飾区,柴又４丁目２３番地３号,,13,122,1250052,,,,,,,2021-08-05,1,,,,,ノアコウギョウ,0
425,2012703002278,新規,0,2021-08-05,2021-08-05,合同会社ＫＡＫＥＨＡＳＨＩ,,合同会社,東京都,西東京市,ひばりが丘１丁目６番１５号グリーンラークひばりが丘３０３号,,13,229,2020001,,,,,,,2021-08-05,1,,,,,カケハシ,0
426,2012801020990,新規,0,2021-08-05,2021-08-05,株式会社グランクール,,株式会社,東京都,立川市,錦町１丁目４番４号サニービル２階,,13,202,1900022,,,,,,,2021-08-05,1,,,,,グランクール,0
427,2012801020999,新規,0,2021-08-05,2021-08-05,株式会社オールスタイル,,株式会社,東京都,立川市,一番町５丁目１番２号,,13,202,1900033,,,,,,,2021-08-05,1,,,,,オールスタイル,0
428,2013101008693,新規,0,2021-08-05,2021-08-05,株式会社青と碧,,株式会社,東京都,青梅市,本町１３０番地１７,,13,205,1980083,,,,,,,2021-08-05,1,,,,,アオトアオ,0
434,2013301047839,新規,0,2021-08-05,2021-08-05,株式会社３ｃｏｎｎｅｃｔ,,株式会社,東京都,豊島区,雑司が谷１丁目３８番地２号,,13,116,1710032,,,,,,,2021-08-05,1,,,,,スリーコネクト,0
438,2020001142507,新規,0,2021-08-05,2021-08-05,株式会社スカイ,,株式会社,神奈川県,横浜市南区,永田東３丁目９番６号,,14,105,2320072,,,,,,,2021-08-05,1,,,,,スカイ,0
442,2020003020280,新規,0,2021-08-05,2021-08-05,合同会社こりとま,,合同会社,神奈川県,横浜市港北区,篠原台町６番９号,,14,109,2220024,,,,,,,2021-08-05,1,,,,,コリトマ,0
444,2021001073618,新規,0,2021-08-05,2021-08-05,株式会社プラス,,株式会社,神奈川県,大和市,中央２丁目７番３号高木ビル４Ｆ,,14,213,2420021,,,,,,,2021-08-05,1,,,,,プラス,0
445,2021001073626,新規,0,2021-08-05,2021-08-05,イカロス株式会社,,株式会社,神奈川県,相模原市緑区,橋本６丁目２４番１号,,14,151,2520143,,,,,,,2021-08-05,1,,,,,イカロス,0
446,2021001073634,新規,0,2021-08-05,2021-08-05,ｅｌｅ　ｅｙｅ株式会社,,株式会社,神奈川県,平塚市,北金目２丁目２０番４号,,14,203,2591207,,,,,,,2021-08-05,1,,,,,エレアイ,0
449,2021005012258,新規,0,2021-08-05,2021-08-05,一般社団法人横須賀ワールドフレンドシップ協会,,その他の設立登記法人,神奈川県,横須賀市,浦賀１丁目８番３号,,14,201,2390822,,,,,,,2021-08-05,1,,,,,ヨコスカワールドフレンドシップキョウカイ,0
466,2030003017730,新規,0,2021-08-05,2021-08-05,合同会社ＷＩＬＬ　ＷＥＡＶＥ,,合同会社,埼玉県,さいたま市中央区,上落合４丁目１２番１０－５０２号,,11,105,3380001,,,,,,,2021-08-05,1,,,,,ウィルウェーヴ,0
467,2030005020468,新規,0,2021-08-05,2021-08-05,一般社団法人とこまち東,,その他の設立登記法人,埼玉県,所沢市,御幸町９番１６号,,11,208,3591115,,,,,,,2021-08-05,1,,,,,トコマチヒガシ,0
469,2040001119610,新規,0,2021-08-05,2021-08-05,株式会社ＳＡＩ,,株式会社,千葉県,松戸市,上矢切３２５番地の１オークス２０１号,,12,207,2710094,,,,,,,2021-08-05,1,,,,,エスエーアイ,0
470,2040001119692,新規,0,2021-08-05,2021-08-05,株式会社ソレイユ,,株式会社,千葉県,船橋市,湊町２丁目８番１号,,12,204,2730011,,,,,,,2021-08-05,1,,,,,ソレイユ,0
477,2050001049633,新規,0,2021-08-05,2021-08-05,絆商会株式会社,,株式会社,茨城県,石岡市,旭台１丁目１２番５３号フェニックスビル２０１,,08,205,3150038,,,,,,,2021-08-05,1,,,,,キズナショウカイ,0
487,2070001038320,新規,0,2021-08-05,2021-08-05,栄生ライフサービス株式会社,,株式会社,群馬県,甘楽郡下仁田町,大字馬山２８５５番地,,10,382,3702603,,,,,,,2021-08-05,1,,,,,エイセイライフサービス,0
492,2070005009887,新規,0,2021-08-05,2021-08-05,異業種事業協同組合リンク,,その他の設立登記法人,群馬県,伊勢崎市,境栄１８３番地２,,10,204,3700122,,,,,,,2021-08-05,1,,,,,リンク,0
493,2080003002620,新規,0,2021-08-05,2021-08-05,合同会社雅,,合同会社,静岡県,静岡市清水区,南矢部９４１番地の１９,,22,103,4240864,,,,,,,2021-08-05,1,,,,,ミヤビ,0
494,2080101022693,新規,0,2021-08-05,2021-08-05,ＴＡＭＩＫＡ株式会社,,株式会社,静岡県,熱海市,咲見町７番３２号ユニオンビル１階,,22,205,4130019,,,,,,,2021-08-05,1,,,,,タミカ,0
495,2080103002396,新規,0,2021-08-05,2021-08-05,合同会社リゾルブ,,合同会社,静岡県,富士市,厚原２６２番地１８,,22,210,4190201,,,,,,,2021-08-05,1,,,,,リゾルブ,0
496,2080105006164,新規,0,2021-08-05,2021-08-05,税理士法人ベストサポート,,その他の設立登記法人,静岡県,富士市,中里４４３番地の７,,22,210,4170826,,,,,,,2021-08-05,1,,,,,ベストサポート,0
498,2080403004340,新規,0,2021-08-05,2021-08-05,合同会社中研トラスト,,合同会社,静岡県,浜松市北区,東三方町４７７番地の１１,,22,135,4338104,,,,,,,2021-08-05,1,,,,,チュウケントラスト,0
499,2090001017140,新規,0,2021-08-05,2021-08-05,株式会社ロイヤルブロス,,株式会社,山梨県,南アルプス市,藤田２２７６番地２,,19,208,4000334,,,,,,,2021-08-05,1,,,,,ロイヤルブロス,0
500,2090003001919,新規,0,2021-08-05,2021-08-05,合同会社シマダ,,合同会社,山梨県,甲府市,住吉５丁目２０番２５号,,19,201,4000851,,,,,,,2021-08-05,1,,,,,シマダ,0
501,2100001034497,新規,0,2021-08-05,2021-08-05,株式会社ハイハーバー,,株式会社,長野県,松本市,波田８３１番地,,20,202,3901401,,,,,,,2021-08-05,1,,,,,ハイハーバー,0
502,2100001034506,新規,0,2021-08-05,2021-08-05,株式会社ＬＩＧＨＴＩＮＧ　ＷＯＲＫ,,株式会社,長野県,上田市,小牧１３１番地１,,20,203,3860031,,,,,,,2021-08-05,1,,,,,ライティングワーク,0
504,2110005016689,新規,0,2021-08-05,2021-08-05,特定非営利活動法人はーもにープロジェクト,,その他の設立登記法人,新潟県,新潟市西蒲区,赤鏥９４２番地８,,15,108,9530042,,,,,,,2021-08-05,1,,,,,ハーモニープロジェクト,0
512,2120001239474,新規,0,2021-08-05,2021-08-05,株式会社Ｄ－ＧＲＯＵＰ,,株式会社,大阪府,大阪市旭区,中宮４丁目６番１１号アレーズ１階,,27,117,5350003,,,,,,,2021-08-05,1,,,,,ディーグループ,0
513,2120001239524,新規,0,2021-08-05,2021-08-05,株式会社ルミナスタ,,株式会社,大阪府,大阪市中央区,南船場３丁目１番７号日宝東心斎橋ビル７階,,27,128,5420081,,,,,,,2021-08-05,1,,,,,ルミナスタ,0
516,2120003019957,新規,0,2021-08-05,2021-08-05,合同会社シカク,,合同会社,大阪府,大阪市此花区,梅香１丁目６番１３号,,27,104,5540013,,,,,,,2021-08-05,1,,,,,シカク,0
517,2120003019973,新規,0,2021-08-05,2021-08-05,合同会社Ｓ－ＰＯＲＴ,,合同会社,大阪府,大阪市西区,北堀江１丁目１７番１号,,27,106,5500014,,,,,,,2021-08-05,1,,,,,エスポート,0
520,2120101064070,新規,0,2021-08-05,2021-08-05,株式会社ＥＢＩＳＵ,,株式会社,大阪府,和泉市,肥子町２丁目３番３１号（２０１）,,27,219,5940076,,,,,,,2021-08-05,1,,,,,エビス,0
521,2120101064104,新規,0,2021-08-05,2021-08-05,株式会社Ｍ,,株式会社,大阪府,堺市中区,東八田３４０番地１,,27,142,5998275,,,,,,,2021-08-05,1,,,,,エム,0
522,2120101064120,新規,0,2021-08-05,2021-08-05,株式会社キリト,,株式会社,大阪府,和泉市,唐国町１丁目１１番７号,,27,219,5941151,,,,,,,2021-08-05,1,,,,,キリト,0
524,2120901044718,新規,0,2021-08-05,2021-08-05,ＲＩＤＧＥ株式会社,,株式会社,大阪府,箕面市,船場東３丁目２番３５－２２０２号,,27,220,5620035,,,,,,,2021-08-05,1,,,,,リッジ,0
525,2120901044734,新規,0,2021-08-05,2021-08-05,株式会社ワークス,,株式会社,大阪府,豊中市,北緑丘２丁目１番１３－３０１号,,27,203,5600001,,,,,,,2021-08-05,1,,,,,ワークス,0
529,2122001035060,新規,0,2021-08-05,2021-08-05,Ｂｙｆｕｌｌ株式会社,,株式会社,大阪府,八尾市,南木の本４丁目３９番地の１,,27,212,5810042,,,,,,,2021-08-05,1,,,,,バイフル,0
533,2122005003575,新規,0,2021-08-05,2021-08-05,医療法人開名,,その他の設立登記法人,大阪府,東大阪市,鴻池元町１１番４号,,27,227,5780974,,,,,,,2021-08-05,1,,,,,カイナ,0
543,2140001122546,新規,0,2021-08-05,2021-08-05,Ｔｈｅ　Ｇｒｅｅｎ＆Ｃｏ．株式会社,,株式会社,兵庫県,尼崎市,東塚口町１丁目１１番１－１１７号,,28,202,6610011,,,,,,,2021-08-05,1,,,,,ザグリーンアンドコー,0
544,2140001122570,新規,0,2021-08-05,2021-08-05,株式会社ａｎｎ　ａｒｔ,,株式会社,兵庫県,神戸市中央区,栄町通４丁目４番８－９０１号,,28,110,6500023,,,,,,,2021-08-05,1,,,,,アンアート,0
545,2140001122579,新規,0,2021-08-05,2021-08-05,株式会社関山設備,,株式会社,兵庫県,加古川市,東神吉町西井ノ口２２９番地の２４,,28,210,6750055,,,,,,,2021-08-05,1,,,,,セキヤマセツビ,0
548,2140003016606,新規,0,2021-08-05,2021-08-05,合同会社オクトデザイン,,合同会社,兵庫県,神戸市中央区,磯辺通１丁目１－２０ＫＯＷＡビル１Ｆ,,28,110,6510084,,,,,,,2021-08-05,1,,,,,オクトデザイン,0
549,2140003016614,新規,0,2021-08-05,2021-08-05,合同会社テッテミール,,合同会社,兵庫県,川西市,大和東５丁目６１番地の１,,28,217,6660111,,,,,,,2021-08-05,1,,,,,テッテミール,0
560,2180001147275,新規,0,2021-08-05,2021-08-05,株式会社エンサポート,,株式会社,愛知県,名古屋市中川区,富田町大字千音寺字東福正４７８３番地の８,,23,110,4540971,,,,,,,2021-08-05,1,,,,,エンサポート,0
563,2180003022823,新規,0,2021-08-05,2021-08-05,合同会社ＭＳエステート,,合同会社,愛知県,春日井市,大手町１１２２番地・１１２３番地合併地,,23,206,4860807,,,,,,,2021-08-05,1,,,,,エムエスエステート,0
564,2180301035254,新規,0,2021-08-05,2021-08-05,アストロラーベ株式会社,,株式会社,愛知県,岡崎市,美合町字生田２２５番地,,23,202,4440804,,,,,,,2021-08-05,1,,,,,アストロラーベ,0
566,2180303005073,新規,0,2021-08-05,2021-08-05,メニーライス合資会社,,合資会社,愛知県,豊橋市,柱二番町５６番地１,,23,201,4418053,,,,,,,2021-08-05,1,,,,,メニーライス,0
570,2190001028573,新規,0,2021-08-05,2021-08-05,ｋｉｋｕ　ＤＥＳＩＧＮ株式会社,,株式会社,三重県,桑名市,南魚町３５番地２,,24,205,5110088,,,,,,,2021-08-05,1,,,,,キクデザイン,0
574,2200001038991,新規,0,2021-08-05,2021-08-05,ＨＡＩ　ＡＵ株式会社,,株式会社,岐阜県,中津川市,太田町１丁目５番３４号,,21,206,5080033,,,,,,,2021-08-05,1,,,,,ハイアウ,0
584,2240001058367,新規,0,2021-08-05,2021-08-05,株式会社森口建設,,株式会社,広島県,広島市東区,中山鏡が丘１８番２０号,,34,102,7320022,,,,,,,2021-08-05,1,,,,,モリグチケンセツ,0
585,2240001058391,新規,0,2021-08-05,2021-08-05,株式会社プッシュワン,,株式会社,広島県,広島市安佐南区,中須１丁目１２番２１号,,34,105,7310121,,,,,,,2021-08-05,1,,,,,プッシュワン,0
589,2250001019038,新規,0,2021-08-05,2021-08-05,株式会社メイリー,,株式会社,山口県,山口市,赤妻町３番２７号,,35,203,7530067,,,,,,,2021-08-05,1,,,,,メイリー,0
590,2250001019046,新規,0,2021-08-05,2021-08-05,Ｇ．Ｔ．ｃｕｒｌ株式会社,,株式会社,山口県,山口市,中央５丁目８番７号,,35,203,7530074,,,,,,,2021-08-05,1,,,,,ジーティーカール,0
595,2260001035802,新規,0,2021-08-05,2021-08-05,ＭＩＹＡＢＩ．ｎｅｔ株式会社,,株式会社,岡山県,岡山市南区,妹尾５０１－３－２Ｆ,,33,104,7010205,,,,,,,2021-08-05,1,,,,,ミヤビネット,0
596,2260001035810,新規,0,2021-08-05,2021-08-05,株式会社Ｌａｕｇｈ　Ｔａｌｅ,,株式会社,岡山県,備前市,日生町日生２４６番地８１,,33,211,7013204,,,,,,,2021-08-05,1,,,,,ラフテル,0
598,2260003003641,新規,0,2021-08-05,2021-08-05,合同会社ＪＰＳインベストメント,,合同会社,岡山県,倉敷市,中島１６３０番地１（２０１）,,33,202,7100803,,,,,,,2021-08-05,1,,,,,ジェイピーエスインベストメント,0
607,2310003004130,新規,0,2021-08-05,2021-08-05,合同会社ＩＮＳＴＥＡＤ,,合同会社,長崎県,長崎市,かき道２丁目１２番１０号,,42,201,8510115,,,,,,,2021-08-05,1,,,,,インステッド,0
614,2320003003593,新規,0,2021-08-05,2021-08-05,合同会社ゴールドベル,,合同会社,大分県,別府市,大字南立石１９３５番地の２３,,44,202,8740000,,,,,,,2021-08-05,1,,,,,ゴールドベル,0
615,2330001028880,新規,0,2021-08-05,2021-08-05,株式会社ｄｉａｄｉｕ,,株式会社,熊本県,熊本市西区,春日３丁目１０番２０号,,43,103,8600047,,,,,,,2021-08-05,1,,,,,ディアデュウ,0
622,2350003003905,新規,0,2021-08-05,2021-08-05,合同会社にじいろ,,合同会社,宮崎県,都城市,山田町中霧島３１５３番地３,,45,202,8894602,,,,,,,2021-08-05,1,,,,,ニジイロ,0
623,2360001029190,新規,0,2021-08-05,2021-08-05,株式会社家願寿,,株式会社,沖縄県,糸満市,字阿波根３６５番地の９、２階,,47,210,9010301,,,,,,,2021-08-05,1,,,,,ヤーガンジュー,0
624,2360001029199,新規,0,2021-08-05,2021-08-05,株式会社玉豊商事,,株式会社,沖縄県,浦添市,伊祖５丁目１１番１２号,,47,208,9012132,,,,,,,2021-08-05,1,,,,,タマトヨショウジ,0
625,2360003011345,新規,0,2021-08-05,2021-08-05,合同会社トクダ,,合同会社,沖縄県,那覇市,樋川２丁目２番２号,00123859,47,201,9000022,,,,,,,2021-08-05,1,,,,,トクダ,0
626,2360003011353,新規,0,2021-08-05,2021-08-05,合同会社凰,,合同会社,沖縄県,那覇市,首里山川町１丁目８７番地１,,47,201,9030825,,,,,,,2021-08-05,1,,,,,オウ,0
628,2370001047415,新規,0,2021-08-05,2021-08-05,友建興業株式会社,,株式会社,宮城県,名取市,小塚原字田中５０番地,,04,207,9811212,,,,,,,2021-08-05,1,,,,,ユウケンコウギョウ,0
629,2370001047456,新規,0,2021-08-05,2021-08-05,株式会社ウニドリーム,,株式会社,宮城県,仙台市青葉区,国分町３丁目１１番５号,,04,101,9800803,,,,,,,2021-08-05,1,,,,,ウニドリーム,0
632,2380001032085,新規,0,2021-08-05,2021-08-05,株式会社ｓｉｇｎ　ｔｒｕｓｔ,,株式会社,福島県,白河市,みさか２丁目１２番地１２,,07,205,9610836,,,,,,,2021-08-05,1,,,,,サイントラスト,0
633,2380001032093,新規,0,2021-08-05,2021-08-05,株式会社サイトウ設備,,株式会社,福島県,会津若松市,飯盛３丁目１５番５２号,,07,202,9650007,,,,,,,2021-08-05,1,,,,,サイトウセツビ,0
637,2410005006420,新規,0,2021-08-05,2021-08-05,農事組合法人うえきた,,その他の設立登記法人,秋田県,大仙市,太田町斉内字狐塚１４９番地,,05,212,0191611,,,,,,,2021-08-05,1,,,,,,0
639,2420005007764,新規,0,2021-08-05,2021-08-05,特定非営利活動法人ＦＬＥＸ,,その他の設立登記法人,青森県,三沢市,大字三沢字下久保５７番地１４９号,,02,207,0330022,,,,,,,2021-08-05,1,,,,,フレックス,0
643,2430001084658,新規,0,2021-08-05,2021-08-05,株式会社Ｍｅｓｓｉａｈ　Ｂｅｓｔ　Ｃｏｓｍｅｔｉｃｓ　Ｊａｐａｎ,,株式会社,北海道,札幌市中央区,南一条西３丁目８番地１１,,01,101,0600061,,,,,,,2021-08-05,1,,,,,メシアベストコスメティックスジャパン,0
648,2490001009956,新規,0,2021-08-05,2021-08-05,株式会社Ｃｏｙａｙａ,,株式会社,高知県,高知市,尾立１２２番地２,,39,201,7800962,,,,,,,2021-08-05,1,,,,,コヤヤ,0
671,3010001220171,新規,0,2021-08-05,2021-08-05,成光株式会社,,株式会社,東京都,千代田区,岩本町１丁目２番１３号渡東ビルディング３Ｆ,,13,101,1010032,,,,,,,2021-08-05,1,,,,,セイコウ,0
672,3010001220188,新規,0,2021-08-05,2021-08-05,株式会社ＡＣＮビルテクノサービス,,株式会社,東京都,千代田区,神田司町２丁目７番２号,,13,101,1010048,,,,,,,2021-08-05,1,,,,,エーシーエヌビルテクノサービス,0
673,3010001220254,新規,0,2021-08-05,2021-08-05,株式会社薄月,,株式会社,東京都,千代田区,神田神保町３丁目１１番１号,,13,101,1010051,,,,,,,2021-08-05,1,,,,,ハクゲツ,0
678,3010003035510,新規,0,2021-08-05,2021-08-05,ライフグロー合同会社,,合同会社,東京都,中央区,銀座１丁目２２番１１号銀座大竹ビジデンス２階,,13,102,1040061,,,,,,,2021-08-05,1,,,,,ライフグロー,0
680,3010005033768,新規,0,2021-08-05,2021-08-05,一般社団法人ＡＰＧ　Ａｓｓｅｔ,,その他の設立登記法人,東京都,千代田区,霞が関３丁目２番５号,,13,101,1000013,,,,,,,2021-08-05,1,,,,,エーピージーアセット,0
687,3010401161916,新規,0,2021-08-05,2021-08-05,株式会社Ｎｏ．Ｒ,,株式会社,東京都,港区,芝浦２丁目１６番７号中野第三ビル５階,,13,103,1080023,,,,,,,2021-08-05,1,,,,,ナンバーアール,0
688,3010401161924,新規,0,2021-08-05,2021-08-05,株式会社Ｓａｚｅｎｋａ,,株式会社,東京都,港区,南麻布４丁目７番５号,,13,103,1060047,,,,,,,2021-08-05,1,,,,,サゼンカ,0
690,3010403025821,新規,0,2021-08-05,2021-08-05,ＤＳ　Ｋｏｊｉｍａｃｈｉ合同会社,,合同会社,東京都,港区,虎ノ門５丁目１番４号,,13,103,1050001,,,,,,,2021-08-05,1,,,,,ディーエスコウジマチ,0
691,3010405020077,新規,0,2021-08-05,2021-08-05,ＤＳ　Ｋｏｊｉｍａｃｈｉ一般社団法人,,その他の設立登記法人,東京都,港区,虎ノ門５丁目１番４号,,13,103,1050001,,,,,,,2021-08-05,1,,,,,ディーエスコウジマチ,0
696,3010701041355,新規,0,2021-08-05,2021-08-05,株式会社ＷＡＬＰＡＳＳ,,株式会社,東京都,品川区,大井７丁目３番１９号,,13,109,1400014,,,,,,,2021-08-05,1,,,,,ウォルパス,0
702,3010901049207,新規,0,2021-08-05,2021-08-05,株式会社ｆｒｏｍ　Ｂ,,株式会社,東京都,世田谷区,尾山台２丁目１２番７号,,13,112,1580086,,,,,,,2021-08-05,1,,,,,フロムビー,0
703,3010901049223,新規,0,2021-08-05,2021-08-05,Ｎカンパニー株式会社,,株式会社,東京都,世田谷区,玉川１丁目１５番２号,,13,112,1580094,,,,,,,2021-08-05,1,,,,,エヌカンパニー,0
704,3010901049231,新規,0,2021-08-05,2021-08-05,株式会社Ｂｅｌｉｆｅ,,株式会社,東京都,世田谷区,大原２丁目１８番１９号ポルトダイタバシ２０２,,13,112,1560041,,,,,,,2021-08-05,1,,,,,ビーライフ,0
711,3011001142042,新規,0,2021-08-05,2021-08-05,株式会社ココウエルネス,,株式会社,東京都,渋谷区,宇田川町１番１２‐２３１０号,,13,113,1500042,,,,,,,2021-08-05,1,,,,,ココウエルネス,0
712,3011001142083,新規,0,2021-08-05,2021-08-05,株式会社リベラベル,,株式会社,東京都,渋谷区,神宮前６丁目２３番４号桑野ビル２階,,13,113,1500001,,,,,,,2021-08-05,1,,,,,リベラベル,0
717,3011101095917,新規,0,2021-08-05,2021-08-05,株式会社フロムエッグ,,株式会社,東京都,新宿区,新宿３丁目１２番４号新宿Ｎタウンプラザ３０９号,,13,104,1600022,,,,,,,2021-08-05,1,,,,,フロムエッグ,0
721,3011401023585,新規,0,2021-08-05,2021-08-05,ＫＡＴエンジニアリング株式会社,,株式会社,東京都,板橋区,板橋１丁目４３番１１号ＫＡＷＡＮＯビル２０２,,13,119,1730004,,,,,,,2021-08-05,1,,,,,ケイエイティエンジニアリング,0
722,3011501027197,新規,0,2021-08-05,2021-08-05,株式会社麟,,株式会社,東京都,北区,西ケ原３丁目５２番１２号３階００１,,13,117,1140024,,,,,,,2021-08-05,1,,,,,リン,0
723,3011601025308,新規,0,2021-08-05,2021-08-05,株式会社ＮｅｘｔＣｒｅａｔｉｏｎ,,株式会社,東京都,練馬区,富士見台１丁目３０番６号,,13,120,1770034,,,,,,,2021-08-05,1,,,,,ネクストクリエイション,0
724,3011701024606,新規,0,2021-08-05,2021-08-05,株式会社ハートフルリフォーム,,株式会社,東京都,江戸川区,東小岩６丁目２３番５号,,13,123,1330052,,,,,,,2021-08-05,1,,,,,ハートフルリフォーム,0
725,3011701024614,新規,0,2021-08-05,2021-08-05,株式会社ＳＫテクニカルリンクス,,株式会社,東京都,江戸川区,南葛西２丁目１１番３－５０２号,,13,123,1340085,,,,,,,2021-08-05,1,,,,,エスケーテクニカルリンクス,0
728,3011803004729,新規,0,2021-08-05,2021-08-05,合同会社華佑,,合同会社,東京都,足立区,扇１丁目１５番７－９０５号,,13,121,1230873,,,,,,,2021-08-05,1,,,,,カユウ,0
733,3012703002277,新規,0,2021-08-05,2021-08-05,合同会社喜屋,,合同会社,東京都,清瀬市,元町１丁目８番２６－１３０１号,,13,221,2040021,,,,,,,2021-08-05,1,,,,,キヤ,0
734,3012801021006,新規,0,2021-08-05,2021-08-05,株式会社Ｈ１Ｈ,,株式会社,東京都,国分寺市,戸倉４丁目１番１３号,,13,214,1850003,,,,,,,2021-08-05,1,,,,,エイチワンエイチ,0
748,3020003020288,新規,0,2021-08-05,2021-08-05,ドショウインジャパン合同会社,,合同会社,神奈川県,横浜市南区,浦舟町４丁目５０番サンハイツ村山２,,14,105,2320024,,,,,,,2021-08-05,1,,,,,ドショウインジャパン,0
750,3021001073609,新規,0,2021-08-05,2021-08-05,Ｍｉｎｉ－Ｌａｂ株式会社,,株式会社,神奈川県,厚木市,中町３丁目１８番５号ソーケン本厚木ビル４Ｆ,,14,212,2430018,,,,,,,2021-08-05,1,,,,,ミニラボ,0
751,3021001073617,新規,0,2021-08-05,2021-08-05,株式会社翔色建設Ｇｒｏｕｐ,,株式会社,神奈川県,相模原市中央区,田名１２１２番地１グラン・セリシール２－１０３,,14,152,2520244,,,,,,,2021-08-05,1,,,,,トイロケンセツグループ,0
761,3030001143676,新規,0,2021-08-05,2021-08-05,株式会社良工建築,,株式会社,埼玉県,八潮市,大字伊勢野３６４番地３,,11,234,3400821,,,,,,,2021-08-05,1,,,,,リョウコウケンチク,0
762,3030001143734,新規,0,2021-08-05,2021-08-05,ウルフリー株式会社,,株式会社,埼玉県,上尾市,大字原市１２７１番地１,,11,219,3620021,,,,,,,2021-08-05,1,,,,,ウルフリー,0
771,3040001119601,新規,0,2021-08-05,2021-08-05,便利屋シェビー株式会社,,株式会社,千葉県,市川市,日之出１３番１０－２０７号,,12,203,2720135,,,,,,,2021-08-05,1,,,,,ベンリヤシェビー,0
772,3040001119634,新規,0,2021-08-05,2021-08-05,株式会社Ｏｉｓｈｉｉｅｇａｏ,,株式会社,千葉県,千葉市中央区,新田町５番１０号,,12,101,2600027,,,,,,,2021-08-05,1,,,,,オイシイエガオ,0
773,3040001119700,新規,0,2021-08-05,2021-08-05,株式会社カカズ製作所,,株式会社,千葉県,富里市,御料１００９番地１５,,12,233,2860211,,,,,,,2021-08-05,1,,,,,カカズセイサクショ,0
776,3040003018289,新規,0,2021-08-05,2021-08-05,合同会社Ｒｅ　Ｃｏｍｍｅｎｄ,,合同会社,千葉県,千葉市花見川区,朝日ケ丘３丁目１８番３号,,12,102,2620019,,,,,,,2021-08-05,1,,,,,レコメンド,0
779,3050001049632,新規,0,2021-08-05,2021-08-05,株式会社コントレイル,,株式会社,茨城県,守谷市,本町８３番地の１リズィエールⅡ－１０１,00123845,08,224,3020109,,,,,,,2021-08-05,1,,,,,コントレイル,0
780,3050001049657,新規,0,2021-08-05,2021-08-05,株式会社優雅,,株式会社,茨城県,日立市,日高町１丁目２８番１２号,,08,202,3191414,,,,,,,2021-08-05,1,,,,,ユウガ,0
781,3050001049673,新規,0,2021-08-05,2021-08-05,株式会社Ｆｌｅｘｉｂｌｅ,,株式会社,茨城県,つくばみらい市,絹の台５丁目１－４,,08,235,3002436,,,,,,,2021-08-05,1,,,,,フレキシブル,0
786,3060003003768,新規,0,2021-08-05,2021-08-05,合同会社あおぞらマネジメント,,合同会社,栃木県,宇都宮市,今泉町３００３番地８,,09,201,3210962,,,,,,,2021-08-05,1,,,,,アオゾラマネジメント,0
788,3070003004195,新規,0,2021-08-05,2021-08-05,合同会社ＦＩＲＳＴ　ＣＬＡＳＳ,,合同会社,群馬県,桐生市,新里町板橋３２８番地７,,10,203,3760136,,,,,,,2021-08-05,1,,,,,,0
798,3100001034488,新規,0,2021-08-05,2021-08-05,株式会社協栄企画,,株式会社,長野県,安曇野市,豊科高家１０６９番地１２,,20,220,3998204,,,,,,,2021-08-05,1,,,,,キョウエイキカク,0
799,3100001034496,新規,0,2021-08-05,2021-08-05,株式会社ヤマコ,,株式会社,長野県,安曇野市,穂高２００９番地３,,20,220,3998303,,,,,,,2021-08-05,1,,,,,ヤマコ,0
803,3110001035956,新規,0,2021-08-05,2021-08-05,株式会社塩野谷縫製,,株式会社,新潟県,三条市,東鱈田１０４６番地,,15,204,9550816,,,,,,,2021-08-05,1,,,,,シオノヤホウセイ,0
816,3120001239523,新規,0,2021-08-05,2021-08-05,株式会社アドバンスインターナショナル,,株式会社,大阪府,大阪市北区,天満２丁目６番３号コープ野村天満橋１１４,,27,127,5300043,,,,,,,2021-08-05,1,,,,,アドバンスインターナショナル,0
817,3120001239556,新規,0,2021-08-05,2021-08-05,株式会社ニュートラル,,株式会社,大阪府,大阪市中央区,南本町２丁目４－１６本町デビスビル７階,,27,128,5410054,,,,,,,2021-08-05,1,,,,,ニュートラル,0
818,3120001239580,新規,0,2021-08-05,2021-08-05,株式会社タカシ鋼材,,株式会社,大阪府,大阪市西成区,岸里１丁目３番３４号有楽ハイツ３２号室,,27,122,5570041,,,,,,,2021-08-05,1,,,,,タカシコウザイ,0
823,3120003019948,新規,0,2021-08-05,2021-08-05,合同会社トルチュ,,合同会社,大阪府,枚方市,西禁野２丁目３０番６号,,27,210,5731192,,,,,,,2021-08-05,1,,,,,トルチュ,0
824,3120003019972,新規,0,2021-08-05,2021-08-05,合同会社展豊,,合同会社,大阪府,大阪市西淀川区,歌島１丁目１９番１７号,,27,113,5550021,,,,,,,2021-08-05,1,,,,,テンホウ,0
825,3120103004288,新規,0,2021-08-05,2021-08-05,合同会社まごころ,,合同会社,大阪府,羽曳野市,古市７丁目６番８号,,27,222,5830852,,,,,,,2021-08-05,1,,,,,マゴコロ,0
826,3120901044717,新規,0,2021-08-05,2021-08-05,株式会社ＢＭＡＸ,,株式会社,大阪府,豊中市,中桜塚１丁目２３番１０号００３号,,27,203,5610881,,,,,,,2021-08-05,1,,,,,ビーマックス,0
827,3120901044725,新規,0,2021-08-05,2021-08-05,株式会社エフアーキテック,,株式会社,大阪府,豊中市,中桜塚１丁目２３番２８－４１１号,,27,203,5610881,,,,,,,2021-08-05,1,,,,,エフアーキテック,0
828,3120901044733,新規,0,2021-08-05,2021-08-05,株式会社ウルズ,,株式会社,大阪府,豊中市,上新田１丁目１０番１０号パームハイツ豊中４０１号,,27,203,5600085,,,,,,,2021-08-05,1,,,,,ウルズ,0
843,3140003016605,新規,0,2021-08-05,2021-08-05,合同会社ＤＯＭＯＤＯＭＯ,,合同会社,兵庫県,三木市,別所町興治６０５番地１,,28,215,6730442,,,,,,,2021-08-05,1,,,,,ドーモドーモ,0
844,3140005025769,新規,0,2021-08-05,2021-08-05,一般社団法人但東シルクロード観光協会,,その他の設立登記法人,兵庫県,豊岡市,但東町出合１５０番地豊岡市役所但東庁舎内,,28,209,6680311,,,,,,,2021-08-05,1,,,,,タントウシルクロードカンコウキョウカイ,0
854,3180001147258,新規,0,2021-08-05,2021-08-05,株式会社ゴールデンハウス,,株式会社,愛知県,名古屋市天白区,土原３丁目１２１０番地,,23,116,4680026,,,,,,,2021-08-05,1,,,,,ゴールデンハウス,0
855,3180001147274,新規,0,2021-08-05,2021-08-05,株式会社アンビズホーム,,株式会社,愛知県,名古屋市中村区,則武２丁目１５番１２号,,23,105,4530014,,,,,,,2021-08-05,1,,,,,アンビズホーム,0
856,3180001147282,新規,0,2021-08-05,2021-08-05,株式会社エコ福,,株式会社,愛知県,一宮市,春明字西切生２３番地,,23,203,4910003,,,,,,,2021-08-05,1,,,,,エコフク,0
857,3180001147324,新規,0,2021-08-05,2021-08-05,株式会社コイケ不動産,,株式会社,愛知県,一宮市,大赤見２８７３番地,,23,203,4910015,,,,,,,2021-08-05,1,,,,,コイケフドウサン,0
858,3180001147349,新規,0,2021-08-05,2021-08-05,大登株式会社,,株式会社,愛知県,尾張旭市,井田町２丁目３７５番地,,23,226,4880024,,,,,,,2021-08-05,1,,,,,ダイト,0
860,3180003022814,新規,0,2021-08-05,2021-08-05,合同会社ＤＮＡ,,合同会社,愛知県,名古屋市中川区,十番町２丁目５番地,,23,110,4540055,,,,,,,2021-08-05,1,,,,,ディーエヌエー,0
861,3180003022830,新規,0,2021-08-05,2021-08-05,合同会社Ｔ＆Ｍ,,合同会社,愛知県,名古屋市中区,葵１丁目２２番１４号村上ビル３０１,,23,106,4600006,,,,,,,2021-08-05,1,,,,,ティーアンドエム,0
864,3180301035220,新規,0,2021-08-05,2021-08-05,株式会社ＢＬＡＮＣＡ,,株式会社,愛知県,刈谷市,司町５丁目７３番地３,,23,210,4480834,,,,,,,2021-08-05,1,,,,,ブランカ,0
865,3190001028580,新規,0,2021-08-05,2021-08-05,株式会社ＲＥＭＯＲＡ,,株式会社,三重県,伊賀市,川合１０３番地の１７,,24,216,5181315,,,,,,,2021-08-05,1,,,,,レモラ,0
868,3200001038974,新規,0,2021-08-05,2021-08-05,株式会社ワイズホーム,,株式会社,岐阜県,美濃加茂市,中部台４丁目８番地１,,21,211,5050038,,,,,,,2021-08-05,1,,,,,ワイズホーム,0
869,3200001038982,新規,0,2021-08-05,2021-08-05,株式会社創テック,,株式会社,岐阜県,土岐市,泉町河合５９４番地の２,,21,212,5095101,,,,,,,2021-08-05,1,,,,,ソウテック,0
871,3210001018554,新規,0,2021-08-05,2021-08-05,株式会社Ｏｒｉｊｉｎ,,株式会社,福井県,鯖江市,三六町１丁目５番１８号,,18,207,9160021,,,,,,,2021-08-05,1,,,,,オリジン,0
872,3210001018562,新規,0,2021-08-05,2021-08-05,株式会社ＡＧＭ,,株式会社,福井県,鯖江市,上河端町第６号１番地３３,,18,207,9160037,,,,,,,2021-08-05,1,,,,,エージーエム,0
879,3220001024337,新規,0,2021-08-05,2021-08-05,株式会社Ｊスマート,,株式会社,石川県,金沢市,千木町ル７０番１,,17,201,9200001,,,,,,,2021-08-05,1,,,,,ジェイスマート,0
881,3230001018924,新規,0,2021-08-05,2021-08-05,株式会社スロークカンパニー,,株式会社,富山県,富山市,白銀町４番１８－９０２号レーベンハイム富山白銀町,,16,201,9300048,,,,,,,2021-08-05,1,,,,,スロークカンパニー,0
887,3240001058374,新規,0,2021-08-05,2021-08-05,にわと株式会社,,株式会社,広島県,東広島市,高屋町溝口１５５番地,,34,212,7392123,,,,,,,2021-08-05,1,,,,,ニワト,0
891,3240005015248,新規,0,2021-08-05,2021-08-05,一般社団法人国際美容デザイン協会,,その他の設立登記法人,広島県,広島市中区,千田町３丁目１番１０号,,34,101,7300052,,,,,,,2021-08-05,1,,,,,コクサイビヨウデザインキョウカイ,0
898,3250001019037,新規,0,2021-08-05,2021-08-05,株式会社ドリームｐｌｕｓ,,株式会社,山口県,宇部市,あすとぴあ５丁目１５番３号,,35,202,7550152,,,,,,,2021-08-05,1,,,,,ドリームプラス,0
899,3250001019045,新規,0,2021-08-05,2021-08-05,おかもと不動産株式会社,,株式会社,山口県,周南市,宮の前１丁目２番１７号,,35,215,7460017,,,,,,,2021-08-05,1,,,,,オカモトフドウサン,0
911,3290001094043,新規,0,2021-08-05,2021-08-05,株式会社ｔｅｎ’ｓ,,株式会社,福岡県,福岡市博多区,博多駅前１丁目１５番２０号ＭＭＦ博多駅前ビル２階,,40,132,8120011,,,,,,,2021-08-05,1,,,,,テンズ,0
913,3290003011500,新規,0,2021-08-05,2021-08-05,合同会社ＣＲＥＳＴＡＴＥ,,合同会社,福岡県,福岡市南区,横手南町３２番１号,,40,134,8111312,,,,,,,2021-08-05,1,,,,,クレステート,0
921,3310001017397,新規,0,2021-08-05,2021-08-05,Ｕｐ　ｔｏ　ｙｏｕ株式会社,,株式会社,長崎県,北松浦郡佐々町,中川原免１３０番地４,,42,391,8570333,,,,,,,2021-08-05,1,,,,,アップトゥーユー,0
926,3320001018535,新規,0,2021-08-05,2021-08-05,株式会社Ｂｅｅｗｏｒｋｉｎｇ,,株式会社,大分県,杵築市,山香町大字向野２２５２－１,,44,210,8791301,,,,,,,2021-08-05,1,,,,,ビーワーキング,0
932,3340001023987,新規,0,2021-08-05,2021-08-05,三州フォーク株式会社,,株式会社,鹿児島県,鹿児島市,下荒田４丁目８番９号,,46,201,8900056,,,,,,,2021-08-05,1,,,,,サンシュウフォーク,0
933,3350001017237,新規,0,2021-08-05,2021-08-05,株式会社いち花,,株式会社,宮崎県,延岡市,旭ケ丘４丁目２番地３１,,45,203,8890507,,,,,,,2021-08-05,1,,,,,イチハナ,0
934,3350001017245,新規,0,2021-08-05,2021-08-05,佐藤建設株式会社,,株式会社,宮崎県,東臼杵郡門川町,西栄町１丁目３番２４号,,45,421,8890622,,,,,,,2021-08-05,1,,,,,サトウケンセツ,0
937,3350003003904,新規,0,2021-08-05,2021-08-05,合同会社アットホームＨＡＲＥＴＥ,,合同会社,宮崎県,都城市,都原町３３４７番地１７,,45,202,8850094,,,,,,,2021-08-05,1,,,,,アットホームハレテ,0
938,3360001029173,新規,0,2021-08-05,2021-08-05,株式会社ｃｏｎａ　ｗｏｒｋｓ１０４,,株式会社,沖縄県,中頭郡北中城村,字島袋１４６７番地２（Ｋ－１７）,,47,327,9012301,,,,,,,2021-08-05,1,,,,,コナワークスイチマルヨン,0
939,3360001029198,新規,0,2021-08-05,2021-08-05,株式会社ちゅらしんか,,株式会社,沖縄県,沖縄市,中央１丁目４番１４号,,47,211,9040004,,,,,,,2021-08-05,1,,,,,チュラシンカ,0
940,3360003011352,新規,0,2021-08-05,2021-08-05,合同会社サン・エヌコーポレーション,,合同会社,沖縄県,宜野湾市,伊佐３丁目１５番２０号,,47,205,9012221,,,,,,,2021-08-05,1,,,,,サンエヌコーポレーション,0
944,3370001047422,新規,0,2021-08-05,2021-08-05,株式会社ＣＯＭＲＡＤＥ,,株式会社,宮城県,仙台市泉区,南光台６丁目２４番１２号,,04,105,9818003,,,,,,,2021-08-05,1,,,,,コムレイド,0
945,3370001047430,新規,0,2021-08-05,2021-08-05,本田印刷株式会社,,株式会社,宮城県,仙台市若林区,六丁の目西町３番５号,,04,103,9840011,,,,,,,2021-08-05,1,,,,,ホンダインサツ,0
946,3370001047447,新規,0,2021-08-05,2021-08-05,山和地所株式会社,,株式会社,宮城県,栗原市,築館字蟹沢力石７番地,,04,213,9872236,,,,,,,2021-08-05,1,,,,,サンワジショ,0
954,3380001032092,新規,0,2021-08-05,2021-08-05,Ｆｏｒｂｉｃ　ＨＤ株式会社,,株式会社,福島県,郡山市,大町１丁目１７番５号,,07,203,9638001,,,,,,,2021-08-05,1,,,,,フォービックエイチディー,0
959,3390001016549,新規,0,2021-08-05,2021-08-05,株式会社荒木設備,,株式会社,山形県,山形市,大野目町１９６番地８,,06,201,9900000,,,,,,,2021-08-05,1,,,,,アラキセツビ,0
960,3390003001854,新規,0,2021-08-05,2021-08-05,合同会社ＴＤＲ,,合同会社,山形県,東村山郡山辺町,大字山辺２３４番地１,,06,301,9900301,,,,,,,2021-08-05,1,,,,,ティーディーアール,0
972,3430003012995,新規,0,2021-08-05,2021-08-05,合同会社ゆうひ,,合同会社,北海道,札幌市東区,東苗穂九条１丁目７番５号,,01,103,0070809,,,,,,,2021-08-05,1,,,,,ユウヒ,0
973,3430003013003,新規,0,2021-08-05,2021-08-05,合同会社丸翔工業,,合同会社,北海道,苫小牧市,大成町１丁目１４－４－１４０７,,01,213,0530806,,,,,,,2021-08-05,1,,,,,マルショウコウギョウ,0
976,3500001023599,新規,0,2021-08-05,2021-08-05,瀬戸内自然生活株式会社,,株式会社,愛媛県,松山市,北条辻１３８８番地,,38,201,7992430,,,,,,,2021-08-05,1,,,,,セトウチシゼンセイカツ,0
977,3500001023616,新規,0,2021-08-05,2021-08-05,株式会社ｔｒｕｓｔｏｎ,,株式会社,愛媛県,松山市,二番町１丁目１番地４センチュリー二番町３０３号,,38,201,7900002,,,,,,,2021-08-05,1,,,,,トラストン,0
983,4010001220187,新規,0,2021-08-05,2021-08-05,鎌倉橋コンサルティング株式会社,,株式会社,東京都,千代田区,内神田２丁目７番７号新内神田ビル３階,,13,101,1010047,,,,,,,2021-08-05,1,,,,,カマクラバシコンサルティング,0
990,4010401161931,新規,0,2021-08-05,2021-08-05,株式会社Ｈ２クリエイティブ,,株式会社,東京都,港区,赤坂２丁目７番３号ＣａｍｏｍｉｌｅＡＫＡＳＡＫＡ４０２,,13,103,1070052,,,,,,,2021-08-05,1,,,,,エイチツークリエイティブ,0
992,4010403025861,新規,0,2021-08-05,2021-08-05,合同会社ＹＩカンパニー,,合同会社,東京都,港区,南青山３丁目１５番９号ＭＩＮＯＷＡ表参道３Ｆ,,13,103,1070062,,,,,,,2021-08-05,1,,,,,ワイアイカンパニー,0
994,4010501047642,新規,0,2021-08-05,2021-08-05,株式会社ＰＬＵＳ１コミュニケーションズ,,株式会社,東京都,台東区,台東４丁目１番１０号,,13,106,1100016,,,,,,,2021-08-05,1,,,,,プラスワンコミュニケーションズ,0
995,4010503006340,新規,0,2021-08-05,2021-08-05,合同会社ハロールフィ,,合同会社,東京都,台東区,上野３丁目７番１０－２０３号室,,13,106,1100005,,,,,,,2021-08-05,1,,,,,ハロールフィ,0
1000,4010601059760,新規,0,2021-08-05,2021-08-05,株式会社じわら,,株式会社,東京都,江東区,平野１丁目１番１１号ＣＯＣＯハウス清澄３Ａ,,13,108,1350023,,,,,,,2021-08-05,1,,,,,ジワラ,0
1001,4010603009078,新規,0,2021-08-05,2021-08-05,合同会社ＧＮ,,合同会社,東京都,江東区,亀戸５丁目６番２１号ＵＩＷ９ＢＬＤＧ４Ｆ２０号,,13,108,1360071,,,,,,,2021-08-05,1,,,,,ジーエヌ,0
1006,4010801032179,新規,0,2021-08-05,2021-08-05,株式会社山本不動産,,株式会社,東京都,大田区,東六郷３丁目２６番１号,,13,111,1440046,,,,,,,2021-08-05,1,,,,,ヤマモトフドウサン,0
1013,4010901049206,新規,0,2021-08-05,2021-08-05,株式会社ＮＡＭＣ,,株式会社,東京都,世田谷区,尾山台２丁目１２番７号,,13,112,1580086,,,,,,,2021-08-05,1,,,,,エヌエーエムシー,0
1014,4010901049222,新規,0,2021-08-05,2021-08-05,ｐｏｒｔｅｅ株式会社,,株式会社,東京都,世田谷区,三宿２丁目１６番１０－４１６号,,13,112,1540005,,,,,,,2021-08-05,1,,,,,ポルテ,0
1016,4010903006709,新規,0,2021-08-05,2021-08-05,合同会社Ｂｅｓｔ　Ｂｕｄｄｉｅｓ,,合同会社,東京都,世田谷区,桜丘４丁目２４番１９号,,13,112,1560054,,,,,,,2021-08-05,1,,,,,ベストバディーズ,0
1026,4011001142082,新規,0,2021-08-05,2021-08-05,ＴＫクレアーレ株式会社,,株式会社,東京都,渋谷区,千駄ヶ谷３丁目３番８号第５スカイビル３０７号室,,13,113,1510051,,,,,,,2021-08-05,1,,,,,ティーケークレアーレ,0
1028,4011003013158,新規,0,2021-08-05,2021-08-05,ＩＮＰ合同会社,,合同会社,東京都,目黒区,上目黒３丁目１３番１１号,,13,110,1530051,,,,,,,2021-08-05,1,,,,,アイエヌピー,0
1029,4011003013166,新規,0,2021-08-05,2021-08-05,ＧＲＥＥＮ　ＦＯＲＥＳＴＥＲＳ応援合同会社,,合同会社,東京都,目黒区,洗足２丁目１３番３号,,13,110,1520012,,,,,,,2021-08-05,1,,,,,グリーンフォーレスターズオウエン,0
1030,4011003013199,新規,0,2021-08-05,2021-08-05,合同会社グローバルサポート,,合同会社,東京都,目黒区,南３丁目２番１号－３１０号エコロジー都立大学レジデンス,,13,110,1520013,,,,,,,2021-08-05,1,,,,,グローバルサポート,0
1035,4011301027090,新規,0,2021-08-05,2021-08-05,株式会社ＴＨＲＯＮＥ,,株式会社,東京都,杉並区,荻窪５丁目１７番１５－３０５号ライオンズマンション荻窪第２,,13,115,1670051,,,,,,,2021-08-05,1,,,,,ソロネ,0
1037,4011501027196,新規,0,2021-08-05,2021-08-05,株式会社ワイワイハンプ,,株式会社,東京都,荒川区,南千住１丁目５６番１１号,,13,118,1160003,,,,,,,2021-08-05,1,,,,,ワイワイハンプ,0
1038,4011503004854,新規,0,2021-08-05,2021-08-05,ＧＩＡ　ＰＨＡＴ合同会社,,合同会社,東京都,荒川区,荒川３丁目６４番３メゾン・ド・レカン１０４号,,13,118,1160002,,,,,,,2021-08-05,1,,,,,ジアファット,0
1040,4011703002914,新規,0,2021-08-05,2021-08-05,ナツレ合同会社,,合同会社,東京都,江戸川区,一之江８丁目３番２号ＭＭビル,,13,123,1320024,,,,,,,2021-08-05,1,,,,,ナツレ,0
1043,4011801039528,新規,0,2021-08-05,2021-08-05,株式会社青沼ライフサポート,,株式会社,東京都,足立区,南花畑３丁目３５番１号,,13,121,1210062,,,,,,,2021-08-05,1,,,,,アオヌマライフサポート,0
1044,4011805003091,新規,0,2021-08-05,2021-08-05,司法書士法人ミライ,,その他の設立登記法人,東京都,葛飾区,東金町１丁目２２番６号金町セントラルビル３階,,13,122,1250041,,,,,,,2021-08-05,1,,,,,ミライ,0
1049,4012403004952,新規,0,2021-08-05,2021-08-05,ｃｏｎｔｅ合同会社,,合同会社,東京都,調布市,布田２丁目３８番地１マートルコート調布第２、５０９,,13,208,1820024,,,,,,,2021-08-05,1,,,,,コンテ,0
1050,4012701016609,新規,0,2021-08-05,2021-08-05,株式会社スガノワークス,,株式会社,東京都,西東京市,ひばりが丘北４丁目４－２,,13,229,2020002,,,,,,,2021-08-05,1,,,,,スガノワークス,0
1052,4013101008691,新規,0,2021-08-05,2021-08-05,株式会社たもつ工業,,株式会社,東京都,青梅市,新町５丁目４８番地の５,,13,205,1980024,,,,,,,2021-08-05,1,,,,,タモツコウギョウ,0
1069,4020001142505,新規,0,2021-08-05,2021-08-05,ＭＥＲＧＥ株式会社,,株式会社,神奈川県,横浜市磯子区,杉田６丁目１７番５号,,14,107,2350033,,,,,,,2021-08-05,1,,,,,マージ,0
1072,4020003020295,新規,0,2021-08-05,2021-08-05,合同会社山本企画,,合同会社,神奈川県,横浜市泉区,緑園６丁目１－１４緑園フェンテ４０２,,14,116,2450002,,,,,,,2021-08-05,1,,,,,ヤマモトキカク,0
1081,4030001143700,新規,0,2021-08-05,2021-08-05,株式会社サンエコホールディングス,,株式会社,埼玉県,さいたま市浦和区,瀬ヶ崎２丁目１番１０号,,11,107,3300044,,,,,,,2021-08-05,1,,,,,サンエコホールディングス,0
1082,4030001143709,新規,0,2021-08-05,2021-08-05,株式会社メルゲン,,株式会社,埼玉県,草加市,谷塚町８２４番地６,,11,221,3400023,,,,,,,2021-08-05,1,,,,,メルゲン,0
1083,4030001143733,新規,0,2021-08-05,2021-08-05,株式会社藤倉商事,,株式会社,埼玉県,さいたま市岩槻区,大字黒谷１９０７番地１０,,11,110,3390033,,,,,,,2021-08-05,1,,,,,フジクラショウジ,0
1092,4040001119591,新規,0,2021-08-05,2021-08-05,株式会社Ｃ・Ｔ・Ｗ,,株式会社,千葉県,流山市,駒木５７７番地４,,12,220,2700132,,,,,,,2021-08-05,1,,,,,シーティダブル,0
1093,4040001119617,新規,0,2021-08-05,2021-08-05,株式会社ＨＭマーケティング,,株式会社,千葉県,いすみ市,深堀１番地７,,12,238,2980003,,,,,,,2021-08-05,1,,,,,,0
1094,4040001119699,新規,0,2021-08-05,2021-08-05,スーパーフトシくん株式会社,,株式会社,千葉県,流山市,大字木１４０９番地,,12,220,2700162,,,,,,,2021-08-05,1,,,,,スーパーフトシクン,0
1098,4040003018296,新規,0,2021-08-05,2021-08-05,シーウェイブ合同会社,,合同会社,千葉県,四街道市,大日３５１番地１２,,12,228,2840001,,,,,,,2021-08-05,1,,,,,シーウェイブ,0
1105,4070005009885,新規,0,2021-08-05,2021-08-05,特定非営利活動法人弦楽アンサンブルすみれ,,その他の設立登記法人,群馬県,前橋市,問屋町１丁目１０番地６ＨＳビル３Ｆ,,10,201,3710855,,,,,,,2021-08-05,1,,,,,ゲンガクアンサンブルスミレ,0
1109,4080003002619,新規,0,2021-08-05,2021-08-05,上泉合同会社,,合同会社,静岡県,焼津市,上泉６１２番地２５５,,22,212,4210217,,,,,,,2021-08-05,1,,,,,カミイズミ,0
1110,4080101022691,新規,0,2021-08-05,2021-08-05,株式会社ワールドコンセプト,,株式会社,静岡県,三島市,南本町１１番１０号,,22,206,4110841,,,,,,,2021-08-05,1,,,,,ワールドコンセプト,0
1113,4090001017130,新規,0,2021-08-05,2021-08-05,株式会社ＩＲＯＨＡＧＲＯＵＰ,,株式会社,山梨県,甲府市,中小河原１丁目４番３６号,,19,201,4000855,,,,,,,2021-08-05,1,,,,,イロハグループ,0
1116,4100001034487,新規,0,2021-08-05,2021-08-05,株式会社三協サービス,,株式会社,長野県,松本市,大字松原３５番地１７,,20,202,3990022,,,,,,,2021-08-05,1,,,,,サンキョウサービス,0
1117,4100001034495,新規,0,2021-08-05,2021-08-05,株式会社ｓｔｕｄｉｏ　ｆ,,株式会社,長野県,松本市,旭１丁目１番２４－１号,,20,202,3900802,,,,,,,2021-08-05,1,,,,,スタジオエフ,0
1118,4100003006195,新規,0,2021-08-05,2021-08-05,合同会社ラ・ルーチェ,,合同会社,長野県,松本市,野溝西２丁目８番４８号,,20,202,3990006,,,,,,,2021-08-05,1,,,,,ラルーチェ,0
1123,4110001035955,新規,0,2021-08-05,2021-08-05,株式会社ダイヤモンドマ,,株式会社,新潟県,新潟市西区,小新西３丁目１０番１２号パレオⅢ２Ｆ－Ｂ,00123849,15,107,9502024,,,,,,,2021-08-05,1,,,,,ダイヤモンドマ,0
1132,4120001239480,新規,0,2021-08-05,2021-08-05,株式会社エーナ,,株式会社,大阪府,大阪市生野区,巽東２丁目１８番１９号,00123847,27,116,5440014,,,,,,,2021-08-05,1,,,,,エーナ,0
1133,4120001239539,新規,0,2021-08-05,2021-08-05,株式会社アラート,,株式会社,大阪府,大阪市西成区,北津守４丁目３番６号,,27,122,5570061,,,,,,,2021-08-05,1,,,,,アラート,0
1134,4120001239605,新規,0,2021-08-05,2021-08-05,株式会社ＴＩＰ,,株式会社,大阪府,大阪市中央区,安土町２丁目３－１３大阪国際ビルディング,,27,128,5410052,,,,,,,2021-08-05,1,,,,,ティーアイピー,0
1136,4120003019971,新規,0,2021-08-05,2021-08-05,ベス・アソシエイツ合同会社,,合同会社,大阪府,大阪市都島区,友渕町１丁目４番１－２０４号,,27,102,5340016,,,,,,,2021-08-05,1,,,,,ベスアソシエイツ,0
1138,4120005022429,新規,0,2021-08-05,2021-08-05,一般社団法人住宅研究所,,その他の設立登記法人,大阪府,大阪市北区,東天満２丁目９番１号若杉センタービル本館１４階,,27,127,5300044,,,,,,,2021-08-05,1,,,,,ジュウタクケンキュウショ,0
1139,4120005022437,新規,0,2021-08-05,2021-08-05,医療法人森歯会,,その他の設立登記法人,大阪府,門真市,江端町１３番２３号,,27,223,5710012,,,,,,,2021-08-05,1,,,,,シンシカイ,0
1140,4120101064102,新規,0,2021-08-05,2021-08-05,株式会社栄匠工房,,株式会社,大阪府,堺市北区,北花田町４丁１０２番地５,,27,146,5918002,,,,,,,2021-08-05,1,,,,,エイショウコウボウ,0
1143,4120901044716,新規,0,2021-08-05,2021-08-05,ホースフィールド株式会社,,株式会社,大阪府,高槻市,古曽部町１丁目２６番５号,,27,207,5691115,,,,,,,2021-08-05,1,,,,,ホースフィールド,0
1144,4120901044724,新規,0,2021-08-05,2021-08-05,株式会社Ｎ－ＮＩＮＥ,,株式会社,大阪府,吹田市,南吹田１丁目１８番７号,,27,205,5640043,,,,,,,2021-08-05,1,,,,,エヌナイン,0
1145,4120903003769,新規,0,2021-08-05,2021-08-05,合同会社さわやかホーム,,合同会社,大阪府,豊中市,向丘１丁目７番１５－５０７号,,27,203,5600053,,,,,,,2021-08-05,1,,,,,サワヤカホーム,0
1146,4120905006217,新規,0,2021-08-05,2021-08-05,一般社団法人日本ＢＮＣＴ臨床腫瘍学会,,その他の設立登記法人,大阪府,高槻市,大学町２番７号,,27,207,5690801,,,,,,,2021-08-05,1,,,,,ニホンビーエヌシーティーリンショウシュヨウガッカイ,0
1147,4122001035059,新規,0,2021-08-05,2021-08-05,株式会社ＹＴｌａｂ,,株式会社,大阪府,柏原市,田辺２丁目１０番２０号,,27,221,5820024,,,,,,,2021-08-05,1,,,,,ワイティラボ,0
1153,4130001069844,新規,0,2021-08-05,2021-08-05,株式会社山本工務店,,株式会社,京都府,与謝郡与謝野町,字三河内１２０２番地２,,26,465,6292313,,,,,,,2021-08-05,1,,,,,ヤマモトコウムテン,0
1154,4130001069852,新規,0,2021-08-05,2021-08-05,株式会社ミナミ電気,,株式会社,京都府,宇治市,槇島町吹前１３０番地の５３,,26,204,6110041,,,,,,,2021-08-05,1,,,,,ミナミデンキ,0
1155,4130001069860,新規,0,2021-08-05,2021-08-05,松原板金株式会社,,株式会社,京都府,相楽郡精華町,大字北稲八間小字中垣外２６番地,,26,366,6190244,,,,,,,2021-08-05,1,,,,,マツバラバンキン,0
1156,4130001069869,新規,0,2021-08-05,2021-08-05,株式会社ＹＫ企画,,株式会社,京都府,京都市中京区,御池通東洞院東入笹屋町４３６番地永和御池ビル６０６号,,26,104,6048187,,,,,,,2021-08-05,1,,,,,ワイケーキカク,0
1157,4130001069885,新規,0,2021-08-05,2021-08-05,株式会社ＯＪＫ,,株式会社,京都府,京都市左京区,浄土寺西田町１１５番地,,26,103,6068417,,,,,,,2021-08-05,1,,,,,オージェーケー,0
1165,4140001122494,新規,0,2021-08-05,2021-08-05,株式会社ＫｉＴＴｏＭ,,株式会社,兵庫県,西宮市,西宮浜４丁目９番２－１０１０,,28,204,6620934,,,,,,,2021-08-05,1,,,,,キットム,0
1166,4140001122544,新規,0,2021-08-05,2021-08-05,株式会社Ｍｕｔｔｅｒ,,株式会社,兵庫県,神戸市東灘区,魚崎中町３丁目４番１４号,,28,101,6580083,,,,,,,2021-08-05,1,,,,,ムッター,0
1167,4140001122552,新規,0,2021-08-05,2021-08-05,株式会社コーメイ,,株式会社,兵庫県,加古川市,加古川町中津６２７番地の５,,28,210,6750068,,,,,,,2021-08-05,1,,,,,コーメイ,0
1168,4140001122560,新規,0,2021-08-05,2021-08-05,ＨｙＥｎｇ株式会社,,株式会社,兵庫県,明石市,二見町南二見１番地,,28,203,6740093,,,,,,,2021-08-05,1,,,,,ハイエンジ,0
1169,4140001122610,新規,0,2021-08-05,2021-08-05,株式会社Ｓａｌｏｎ　ｄｅ　Ｍｉｎａｔｏ,,株式会社,兵庫県,神戸市長田区,若松町３丁目１番２号アスタピア新長田駅前通り１０２号,,28,106,6530038,,,,,,,2021-08-05,1,,,,,サロンドミナト,0
1173,4140005025776,新規,0,2021-08-05,2021-08-05,特定非営利活動法人ＨＴＬＶ－１全国ねっと,,その他の設立登記法人,兵庫県,神崎郡福崎町,東田原１０３８番地５６,,28,443,6792205,,,,,,,2021-08-05,1,,,,,エイチティーエルブイワンゼンコクネット,0
1175,4160001023526,新規,0,2021-08-05,2021-08-05,ＹＫエステート株式会社,,株式会社,滋賀県,大津市,下阪本５丁目８番１８号２０１,,25,201,5200105,,,,,,,2021-08-05,1,,,,,ワイケイエステート,0
1181,4180001147182,新規,0,2021-08-05,2021-08-05,株式会社ワークライフインテグレート,,株式会社,愛知県,名古屋市中川区,篠原橋通２丁目９番地,,23,110,4540839,,,,,,,2021-08-05,1,,,,,ワークライフインテグレート,0
1182,4180001147273,新規,0,2021-08-05,2021-08-05,株式会社Ｏｆｆｉｃｅ　ＭＡＸＩＬ,,株式会社,愛知県,名古屋市中区,栄５丁目２番３４号ＨＡＬ－ＮＡＴＺ・ＧＡＲＤＥＮ２０１,,23,106,4600008,,,,,,,2021-08-05,1,,,,,オフィスマクシル,0
1183,4180001147348,新規,0,2021-08-05,2021-08-05,株式会社アレグリアス,,株式会社,愛知県,名古屋市昭和区,滝子通１丁目２番地の２シティコーポ滝子通４１０号,,23,107,4660055,,,,,,,2021-08-05,1,,,,,アレグリアス,0
1184,4180001147364,新規,0,2021-08-05,2021-08-05,株式会社ＧＴＳ,,株式会社,愛知県,名古屋市瑞穂区,白砂町１丁目１７番地白砂ヒルズ２０１号,,23,108,4670056,,,,,,,2021-08-05,1,,,,,ジーティーエス,0
1185,4180001147380,新規,0,2021-08-05,2021-08-05,株式会社リフト,,株式会社,愛知県,名古屋市守山区,金屋１丁目８番８号グランベール新守山７０１号,,23,113,4630072,,,,,,,2021-08-05,1,,,,,リフト,0
1190,4180005019394,新規,0,2021-08-05,2021-08-05,一般社団法人愛知マンションリノベーション機構,,その他の設立登記法人,愛知県,名古屋市千種区,南明町２丁目６５番地,,23,101,4640845,,,,,,,2021-08-05,1,,,,,アイチマンションリノベーションキコウ,0
1192,4180301035236,新規,0,2021-08-05,2021-08-05,株式会社Ｔｒｕｓｔ,,株式会社,愛知県,豊田市,伊保町大鳥居４６番地１,,23,211,4700374,,,,,,,2021-08-05,1,,,,,トラスト,0
1199,4200001038981,新規,0,2021-08-05,2021-08-05,株式会社鞄乃荒川堂,,株式会社,岐阜県,恵那市,長島町正家２１３番地１,,21,210,5097203,,,,,,,2021-08-05,1,,,,,カバンノアラカワドウ,0
1201,4200005013238,新規,0,2021-08-05,2021-08-05,一般社団法人ちまたファクトリ,,その他の設立登記法人,岐阜県,岐阜市,美殿町４０番地矢沢ビル２０１号室,,21,201,5008182,,,,,,,2021-08-05,1,,,,,チマタファクトリ,0
1203,4210001018561,新規,0,2021-08-05,2021-08-05,株式会社ミーティス,,株式会社,福井県,小浜市,南川町１１番１号,,18,204,9170075,,,,,,,2021-08-05,1,,,,,ミーティス,0
1204,4210002014428,新規,0,2021-08-05,2021-08-05,有限会社大勝総業,,有限会社,福井県,大野市,新町１番２号,,18,205,9120027,,,,,,,2021-08-05,1,,,,,ダイカツソウギョウ,0
1207,4230001018923,新規,0,2021-08-05,2021-08-05,株式会社Ｍｅ　Ｔｉｍｅ,,株式会社,富山県,富山市,室町通り２丁目２番８号,,16,201,9300051,,,,,,,2021-08-05,1,,,,,ミータイム,0
1213,4240001058398,新規,0,2021-08-05,2021-08-05,株式会社ＢＡＢＯＮＧ,,株式会社,広島県,安芸郡府中町,柳ケ丘８番２４－７０４号,,34,302,7350014,,,,,,,2021-08-05,1,,,,,バボン,0
1214,4240001058407,新規,0,2021-08-05,2021-08-05,株式会社ヒロアキ塗装,,株式会社,広島県,呉市,焼山宮ヶ迫１丁目２２番１５号,,34,202,7370908,,,,,,,2021-08-05,1,,,,,ヒロアキトソウ,0
1215,4240003005233,新規,0,2021-08-05,2021-08-05,カウ不動産合同会社,,合同会社,広島県,福山市,大門町１丁目１４番２０号,,34,207,7210926,,,,,,,2021-08-05,1,,,,,カウフドウサン,0
1216,4250001019036,新規,0,2021-08-05,2021-08-05,株式会社きずな,,株式会社,山口県,山口市,湯田温泉２丁目９番３０号,,35,203,7530056,,,,,,,2021-08-05,1,,,,,キズナ,0
1217,4250001019044,新規,0,2021-08-05,2021-08-05,ＷＪ株式会社,,株式会社,山口県,下関市,伊倉新町２丁目２番５号ニュー・ベェルウェル１０８号,,35,201,7510869,,,,,,,2021-08-05,1,,,,,ダブルジェイ,0
1218,4250001019052,新規,0,2021-08-05,2021-08-05,株式会社ＡｃｔＯｎｅ,,株式会社,山口県,宇部市,大小路３丁目５番２号,,35,202,7550076,,,,,,,2021-08-05,1,,,,,アクトワン,0
1223,4260001035858,新規,0,2021-08-05,2021-08-05,株式会社中村内装,,株式会社,岡山県,倉敷市,笹沖３４１番地６パルティール葦高１０３,,33,202,7100834,,,,,,,2021-08-05,1,,,,,ナカムラナイソウ,0
1237,4290003011482,新規,0,2021-08-05,2021-08-05,オリエテム合同会社,,合同会社,福岡県,糸島市,瀬戸４８４番地,,40,230,8191156,,,,,,,2021-08-05,1,,,,,オリエテム,0
1239,4290801027688,新規,0,2021-08-05,2021-08-05,株式会社Ｌｅｓ　ｌｉｅｎｓ,,株式会社,福岡県,北九州市八幡西区,吉祥寺町９番２５号,,40,109,8071114,,,,,,,2021-08-05,1,,,,,レリアン,0
1244,4310003004129,新規,0,2021-08-05,2021-08-05,咲楽合同会社,,合同会社,長崎県,長崎市,小江原２丁目２３番１６－４０４号,,42,201,8511132,,,,,,,2021-08-05,1,,,,,サクラ,0
1246,4330001028895,新規,0,2021-08-05,2021-08-05,株式会社モモタロウグローバル,,株式会社,熊本県,八代市,新浜町一丁目１番４３号,,43,202,8660031,,,,,,,2021-08-05,1,,,,,モモタロウグローバル,0
1247,4330003009002,新規,0,2021-08-05,2021-08-05,合同会社ＨＥＫＩ．ＣＯＭ,,合同会社,熊本県,下益城郡美里町,三和３２４番地,,43,348,8614732,,,,,,,2021-08-05,1,,,,,ヘキドットコム,0
1248,4340001023978,新規,0,2021-08-05,2021-08-05,株式会社翔丸,,株式会社,鹿児島県,出水郡長島町,諸浦１３５７番地６,,46,404,8991403,,,,,,,2021-08-05,1,,,,,ショウマル,0
1249,4340001023986,新規,0,2021-08-05,2021-08-05,株式会社オートテクニカルロック,,株式会社,鹿児島県,鹿児島市,清和４丁目７番５０号,,46,201,8910109,,,,,,,2021-08-05,1,,,,,オートテクニカルロック,0
1250,4360001029172,新規,0,2021-08-05,2021-08-05,株式会社ｉｎｋ,,株式会社,沖縄県,宜野湾市,大山３丁目２２番１－４０４号ｃａｓａ　ｄｅ　ｆｉｎｏ,,47,205,9012223,,,,,,,2021-08-05,1,,,,,インク,0
1251,4360003011351,新規,0,2021-08-05,2021-08-05,合同会社ＲＯＨＬＦ,,合同会社,沖縄県,宜野湾市,字宇地泊７０１番地ＮＤビル３０２号,,47,205,9012227,,,,,,,2021-08-05,1,,,,,ロールフ,0
1252,4360005006481,新規,0,2021-08-05,2021-08-05,土地家屋調査士法人半嶺当徹事務所,,その他の設立登記法人,沖縄県,那覇市,楚辺１丁目１７番１８号３階,,47,201,9000023,,,,,,,2021-08-05,1,,,,,ハンミネトウテツジムショ,0
1254,4370001047438,新規,0,2021-08-05,2021-08-05,株式会社エス・ブイ・シーライフビューイング,,株式会社,宮城県,仙台市青葉区,中央４丁目６番１号住友生命仙台中央ビル９Ｆ,,04,101,9800021,,,,,,,2021-08-05,1,,,,,,0
1259,4370003005336,新規,0,2021-08-05,2021-08-05,合同会社新英工業,,合同会社,宮城県,遠田郡涌谷町,字渋江４５番地１３,,04,501,9870113,,,,,,,2021-08-05,1,,,,,シンエイコウギョウ,0
1262,4380001032091,新規,0,2021-08-05,2021-08-05,株式会社ＫＹＯＳＨＩＮ,,株式会社,福島県,福島市,郷野目字金込町１８番地２,,07,201,9608161,,,,,,,2021-08-05,1,,,,,キョーシン,0
1264,4390001016548,新規,0,2021-08-05,2021-08-05,株式会社クーペラ,,株式会社,山形県,米沢市,栄町１番地６,,06,202,9920013,,,,,,,2021-08-05,1,,,,,クーペラ,0
1268,4430001084680,新規,0,2021-08-05,2021-08-05,株式会社アクシズ,,株式会社,北海道,美唄市,大通西一条南３丁目１番２号,,01,215,0720023,,,,,,,2021-08-05,1,,,,,アクシズ,0
1272,4460101007043,新規,0,2021-08-05,2021-08-05,株式会社Ｙ’ｓ,,株式会社,北海道,河西郡芽室町,東一条７丁目１番地１３,,01,637,0820011,,,,,,,2021-08-05,1,,,,,ワイズ,0
1288,5010001220186,新規,0,2021-08-05,2021-08-05,浴場市場株式会社,,株式会社,東京都,中央区,銀座３丁目１１番地５号,,13,102,1040061,,,,,,,2021-08-05,1,,,,,ヨクジョウイチバ,0
1289,5010001220277,新規,0,2021-08-05,2021-08-05,株式会社フジモト,,株式会社,東京都,中央区,銀座１丁目１２ー４Ｎ＆ＥＢＬＤ．７階,,13,102,1040061,,,,,,,2021-08-05,1,,,,,フジモト,0
1291,5010003035517,新規,0,2021-08-05,2021-08-05,合同会社Ｓｋｙ　Ｌａｂｏ,,合同会社,東京都,中央区,銀座１丁目２２番１１号銀座大竹ビジデンス２階,,13,102,1040061,,,,,,,2021-08-05,1,,,,,スカイラボ,0
1306,5010601059768,新規,0,2021-08-05,2021-08-05,株式会社谷口商店,,株式会社,東京都,江東区,潮見１丁目１６番２号,,13,108,1350052,,,,,,,2021-08-05,1,,,,,タニグチショウテン,0
1307,5010603009077,新規,0,2021-08-05,2021-08-05,ＢＬＡＣＫ　ＳＨＥＥＰ合同会社,,合同会社,東京都,墨田区,京島１丁目２２番１３号アーデル曳舟パークビュータワー２０２,,13,107,1310046,,,,,,,2021-08-05,1,,,,,ブラックシープ,0
1310,5010701041353,新規,0,2021-08-05,2021-08-05,株式会社茂礼,,株式会社,東京都,品川区,荏原１丁目３番２号,,13,109,1420063,,,,,,,2021-08-05,1,,,,,シゲノリ,0
1316,5010801032194,新規,0,2021-08-05,2021-08-05,株式会社アイシス,,株式会社,東京都,大田区,東六郷１丁目１５番１２－５０４号,,13,111,1440046,,,,,,,2021-08-05,1,,,,,アイシス,0
1317,5010801032203,新規,0,2021-08-05,2021-08-05,株式会社Ｂｌｏｏｍ,,株式会社,東京都,大田区,大森東１丁目９番３号,,13,111,1430012,,,,,,,2021-08-05,1,,,,,ブルーム,0
1318,5010801032211,新規,0,2021-08-05,2021-08-05,タスク・アクト物流株式会社,,株式会社,東京都,大田区,蒲田本町２丁目１５番３号,,13,111,1440053,,,,,,,2021-08-05,1,,,,,タスクアクト,0
1324,5010901049205,新規,0,2021-08-05,2021-08-05,株式会社タカハシ美装,,株式会社,東京都,世田谷区,深沢５丁目１番１６号,,13,112,1580081,,,,,,,2021-08-05,1,,,,,タカハシビソウ,0
1327,5011101095865,新規,0,2021-08-05,2021-08-05,株式会社Ｃｏ－Ｃｒｅａｔｉｏｎ,,株式会社,東京都,新宿区,市谷八幡町２番１号ＤＳ市谷ビル３階,,13,104,1620844,,,,,,,2021-08-05,1,,,,,コクリエイション,0
1329,5011201023164,新規,0,2021-08-05,2021-08-05,株式会社Ｒｅ．ｃｒｅａｔｉｏｎ,,株式会社,東京都,中野区,新井１丁目３５番１３号１Ｆ,,13,114,1650026,,,,,,,2021-08-05,1,,,,,レクリエーション,0
1332,5011503004853,新規,0,2021-08-05,2021-08-05,合同会社ＡＵＧＵＳＴ,,合同会社,東京都,荒川区,町屋７丁目１９－５尾竹橋公園スカイハイツ３０７号室,,13,118,1160001,,,,,,,2021-08-05,1,,,,,オーガスト,0
1335,5011701024604,新規,0,2021-08-05,2021-08-05,エム・ワイ・エンジニアリング株式会社,,株式会社,東京都,江戸川区,下篠崎町４番９－８０３号,,13,123,1330064,,,,,,,2021-08-05,1,,,,,エムワイエンジニアリング,0
1336,5011701024612,新規,0,2021-08-05,2021-08-05,株式会社ｂｅｌｌ　ｆｏｏｄｓ,,株式会社,東京都,江戸川区,上篠崎２丁目２番８号,,13,123,1330054,,,,,,,2021-08-05,1,,,,,ベルフーズ,0
1338,5011801039527,新規,0,2021-08-05,2021-08-05,稲垣祭儀株式会社,,株式会社,東京都,葛飾区,堀切６丁目２７番１３号,,13,122,1240006,,,,,,,2021-08-05,1,,,,,イナガキサイギ,0
1339,5011801039543,新規,0,2021-08-05,2021-08-05,株式会社彩天堂,,株式会社,東京都,足立区,中川２丁目６番４号,,13,121,1200002,,,,,,,2021-08-05,1,,,,,サイテンドウ,0
1349,5012801021004,新規,0,2021-08-05,2021-08-05,株式会社エスツービー,,株式会社,東京都,日野市,西平山５丁目４１番地の７,,13,212,1910055,,,,,,,2021-08-05,1,,,,,エスツービー,0
1355,5013301047828,新規,0,2021-08-05,2021-08-05,いちかわ不動産株式会社,,株式会社,東京都,豊島区,上池袋４丁目２９番９号,,13,116,1700012,,,,,,,2021-08-05,1,,,,,イチカワフドウサン,0
1363,5021001073607,新規,0,2021-08-05,2021-08-05,株式会社ＢａｃｋＢｏｎｅ,,株式会社,神奈川県,小田原市,本町２丁目１３番１５号第八セントラルビル小田原１階Ａ,,14,206,2500012,,,,,,,2021-08-05,1,,,,,バックボーン,0
1364,5021001073623,新規,0,2021-08-05,2021-08-05,株式会社ＦＩＮＡＬ　ＡＮＳＷＥＲ,,株式会社,神奈川県,藤沢市,菖蒲沢９１０,,14,205,2520823,,,,,,,2021-08-05,1,,,,,ファイナルアンサー,0
1372,5030001143682,新規,0,2021-08-05,2021-08-05,株式会社クリーンスパート,,株式会社,埼玉県,春日部市,大沼４丁目９３－１,,11,214,3440038,,,,,,,2021-08-05,1,,,,,クリーンスパート,0
1373,5030001143708,新規,0,2021-08-05,2021-08-05,株式会社マツモト建装,,株式会社,埼玉県,八潮市,茜町１丁目５番地１ＫＩＴＴＯⅡ１０３,00123851,11,234,3400826,,,,,,,2021-08-05,1,,,,,マツモトケンソウ,0
1374,5030001143740,新規,0,2021-08-05,2021-08-05,株式会社プレイウィル,,株式会社,埼玉県,川越市,霞ケ関東１丁目２番地２（レジデンス．コスモスⅠ３０１号室）,00123844,11,201,3501103,,,,,,,2021-08-05,1,,,,,プレイウィル,0
1378,5040001119608,新規,0,2021-08-05,2021-08-05,インターナショナルビジネスソリューションズ株式会社,,株式会社,千葉県,船橋市,三咲町１４３番地２４,,12,204,2740811,,,,,,,2021-08-05,1,,,,,インターナショナルビジネスソリューションズ,0
1379,5040001119616,新規,0,2021-08-05,2021-08-05,株式会社ＨＡＨ,,株式会社,千葉県,柏市,松ケ崎１３６番地７,,12,217,2770835,,,,,,,2021-08-05,1,,,,,ハフ,0
1380,5040001119665,新規,0,2021-08-05,2021-08-05,株式会社Ｃｏｍｆｏｒｔａｂｌｅ　Ｓｕｐｐｏｒｔ,,株式会社,千葉県,千葉市稲毛区,轟町１丁目１５番１３－２１０号,,12,103,2630021,,,,,,,2021-08-05,1,,,,,コンフォータブルサポート,0
1381,5040001119673,新規,0,2021-08-05,2021-08-05,株式会社タパフードサービス,,株式会社,千葉県,浦安市,当代島３丁目１５番３号メゾンジン（１０２）,,12,227,2790001,,,,,,,2021-08-05,1,,,,,タパフードサービス,0
1382,5040001119698,新規,0,2021-08-05,2021-08-05,ＮＩＲＭＡＬ株式会社,,株式会社,千葉県,白井市,折立５４８番地の１,,12,232,2701404,,,,,,,2021-08-05,1,,,,,ニルマール,0
1389,5040003018279,新規,0,2021-08-05,2021-08-05,合同会社ＫＨＭ,,合同会社,千葉県,市川市,欠真間２丁目２４番１６号,,12,203,2720142,,,,,,,2021-08-05,1,,,,,ケイエイチエム,0
1390,5040003018295,新規,0,2021-08-05,2021-08-05,合同会社ＣＨＬＯＲＯ,,合同会社,千葉県,八街市,榎戸６８０－２１－２０２,,12,230,2891106,,,,,,,2021-08-05,1,,,,,クロロ,0
1391,5050001049639,新規,0,2021-08-05,2021-08-05,株式会社ティーエルズカンパニー,,株式会社,茨城県,土浦市,小松１丁目１６番３０号,,08,203,3000823,,,,,,,2021-08-05,1,,,,,ティーエルズカンパニー,0
1392,5050001049663,新規,0,2021-08-05,2021-08-05,ＡＬ－ＫＨＡＩＲ　ＬＡＳＡＮＩ　ＴＲＡＤＩＮＧ株式会社,,株式会社,茨城県,古河市,諸川１１３４番地３０,,08,204,3060126,,,,,,,2021-08-05,1,,,,,アルカイルラサニトレーディング,0
1408,5070001038334,新規,0,2021-08-05,2021-08-05,株式会社Ｆａｃｅ　ｔｏ,,株式会社,群馬県,高崎市,上豊岡町２０５番地８,,10,202,3700871,,,,,,,2021-08-05,1,,,,,フェイスツー,0
1410,5080001024374,新規,0,2021-08-05,2021-08-05,株式会社グランディディエコンサルタント,,株式会社,静岡県,静岡市駿河区,中田２丁目８番２３－２０４号,,22,102,4228041,,,,,,,2021-08-05,1,,,,,グランディディエコンサルタント,0
1413,5090001017146,新規,0,2021-08-05,2021-08-05,株式会社ＨＩＭＡＬＡＹＡ,,株式会社,山梨県,甲府市,城東５丁目５番１４号アメニティ城東１階,,19,201,4000861,,,,,,,2021-08-05,1,,,,,ヒマラヤ,0
1414,5100001034494,新規,0,2021-08-05,2021-08-05,株式会社エーエスプランニング,,株式会社,長野県,大町市,常盤６８９８番地１４,,20,212,3980004,,,,,,,2021-08-05,1,,,,,エーエスプランニング,0
1421,5110001035954,新規,0,2021-08-05,2021-08-05,株式会社ロスカコス,,株式会社,新潟県,上越市,春日山町３丁目２３番５２号,,15,222,9430807,,,,,,,2021-08-05,1,,,,,ロスカコス,0
1438,5120001239496,新規,0,2021-08-05,2021-08-05,株式会社クラシー,,株式会社,大阪府,大阪市淀川区,十八条２丁目１６番４６－２１６号,,27,123,5320001,,,,,,,2021-08-05,1,,,,,クラシー,0
1442,5120003019979,新規,0,2021-08-05,2021-08-05,合同会社サルダ,,合同会社,大阪府,大阪市住吉区,万代６丁目８番２１号帝塚山南４０９号,,27,120,5580055,,,,,,,2021-08-05,1,,,,,サルダ,0
1447,5120901044715,新規,0,2021-08-05,2021-08-05,株式会社Ｋ－ＬＩＦＥ,,株式会社,大阪府,箕面市,粟生新家５丁目９番３０号,,27,220,5620024,,,,,,,2021-08-05,1,,,,,ケイライフ,0
1448,5120901044731,新規,0,2021-08-05,2021-08-05,株式会社Ｔ,,株式会社,大阪府,吹田市,新芦屋上２３番３号,00123854,27,205,5650804,,,,,,,2021-08-05,1,,,,,ティ,0
1451,5122001035066,新規,0,2021-08-05,2021-08-05,株式会社Ｋ－ＲＯＡＤ,,株式会社,大阪府,柏原市,法善寺１丁目６番２１号,,27,221,5820005,,,,,,,2021-08-05,1,,,,,ケイロード,0
1458,5130001069868,新規,0,2021-08-05,2021-08-05,株式会社ｕｐ　ｉｔ,,株式会社,京都府,京都市中京区,木屋町通三条上る上大阪町５１６番地キヤマチジャンクションビル東１－２階,,26,104,6048001,,,,,,,2021-08-05,1,,,,,アップイット,0
1472,5140001122386,新規,0,2021-08-05,2021-08-05,株式会社ＳＫＣｏｎｓｔｒｕｃｔｉｏｎ,,株式会社,兵庫県,加古郡播磨町,古田３丁目１－１５,,28,382,6750146,,,,,,,2021-08-05,1,,,,,エスケーコンストラクション,0
1473,5140001122551,新規,0,2021-08-05,2021-08-05,株式会社スプレッドスペース,,株式会社,兵庫県,加古川市,加古川町篠原町１３番地３,,28,210,6750065,,,,,,,2021-08-05,1,,,,,スプレッドスペース,0
1474,5140001122568,新規,0,2021-08-05,2021-08-05,株式会社ロック．Ｉ,,株式会社,兵庫県,西宮市,名塩さくら台２丁目１番地１,,28,204,6691146,,,,,,,2021-08-05,1,,,,,ロックアイ,0
1479,5140003016578,新規,0,2021-08-05,2021-08-05,合同会社エース,,合同会社,兵庫県,揖保郡太子町,東出２１６－５,,28,464,6711521,,,,,,,2021-08-05,1,,,,,エース,0
1480,5140003016594,新規,0,2021-08-05,2021-08-05,合同会社ジェイド,,合同会社,兵庫県,神戸市中央区,下山手通３丁目１５－１０,,28,110,6500011,,,,,,,2021-08-05,1,,,,,ジェイド,0
1481,5140003016603,新規,0,2021-08-05,2021-08-05,合同会社ＥＩＧＨＴ　ｐｌｕｓ　Ｆａｃｔｏｒｙ,,合同会社,兵庫県,豊岡市,中央町５番４２号,,28,209,6680033,,,,,,,2021-08-05,1,,,,,エイトプラスファクトリー,0
1482,5140003016611,新規,0,2021-08-05,2021-08-05,１８合同会社,,合同会社,兵庫県,神戸市中央区,相生町１丁目１番１６号,,28,110,6500025,,,,,,,2021-08-05,1,,,,,イチハチ,0
1483,5150001024813,新規,0,2021-08-05,2021-08-05,株式会社興縁,,株式会社,奈良県,桜井市,大字桜井３番地の１リバーヒルＭ,,29,206,6330091,,,,,,,2021-08-05,1,,,,,コウエン,0
1485,5160001023541,新規,0,2021-08-05,2021-08-05,株式会社エスティプランニング,,株式会社,滋賀県,草津市,追分２丁目１６番２６号,,25,206,5250047,,,,,,,2021-08-05,1,,,,,エスティプランニング,0
1488,5160003002345,新規,0,2021-08-05,2021-08-05,ＬｉｂｅｒｔｙＰａｒａｄｉｓｅ合同会社,,合同会社,滋賀県,近江八幡市,佐波江町２４２番地１,,25,204,5230076,,,,,,,2021-08-05,1,,,,,リバティーパラダイス,0
1497,5180001147297,新規,0,2021-08-05,2021-08-05,株式会社バードアイ,,株式会社,愛知県,春日井市,下屋敷町字知光院２８番地１５,,23,206,4860906,,,,,,,2021-08-05,1,,,,,バードアイ,0
1498,5180001147306,新規,0,2021-08-05,2021-08-05,株式会社与多喜堂,,株式会社,愛知県,名古屋市天白区,福池１丁目２７２番地,,23,116,4680049,,,,,,,2021-08-05,1,,,,,ヨタキドウ,0
1499,5180001147363,新規,0,2021-08-05,2021-08-05,株式会社Ｆｉｌｍ　Ｇａｌｌｅｒｙ,,株式会社,愛知県,名古屋市中区,丸の内３丁目４番２２号,,23,106,4600002,,,,,,,2021-08-05,1,,,,,フィルムギャラリー,0
1506,5190001028562,新規,0,2021-08-05,2021-08-05,株式会社ＪＹＯ,,株式会社,三重県,桑名郡木曽岬町,大字田代３１番地,,24,303,4980819,,,,,,,2021-08-05,1,,,,,ジェーワイオー,0
1507,5190001028595,新規,0,2021-08-05,2021-08-05,株式会社ＫｐｌｕｓＡ,,株式会社,三重県,四日市市,青葉町８００－１５２コンフォードＫＵＲＯＤＡ－１０３号室,,24,202,5100839,,,,,,,2021-08-05,1,,,,,カプラスエー,0
1510,5200001038980,新規,0,2021-08-05,2021-08-05,つくる株式会社,,株式会社,岐阜県,岐阜市,鵜川町３番地２鵜川町事務所２Ｆ,,21,201,5020837,,,,,,,2021-08-05,1,,,,,ツクル,0
1511,5200001038989,新規,0,2021-08-05,2021-08-05,敬商フィックス株式会社,,株式会社,岐阜県,多治見市,市之倉町１３丁目８３番地の５６７,,21,204,5070814,,,,,,,2021-08-05,1,,,,,キョウショウフィックス,0
1521,5250001019035,新規,0,2021-08-05,2021-08-05,株式会社ＡＭｃｒｅａｔｅ,,株式会社,山口県,防府市,大字大崎９２６番地の１,,35,206,7470065,,,,,,,2021-08-05,1,,,,,エイエムクリエイト,0
1522,5250001019043,新規,0,2021-08-05,2021-08-05,株式会社サプライアー,,株式会社,山口県,下関市,武久町２丁目２番１１号,,35,201,7510833,,,,,,,2021-08-05,1,,,,,サプライアー,0
1523,5250001019051,新規,0,2021-08-05,2021-08-05,株式会社ヒロセ電工,,株式会社,山口県,周南市,大字米光２５９番地の２５,,35,215,7460104,,,,,,,2021-08-05,1,,,,,ヒロセデンコウ,0
1524,5250003002880,新規,0,2021-08-05,2021-08-05,ヤブキ電設合同会社,,合同会社,山口県,岩国市,牛野谷町１丁目２番２７－４号,,35,208,7410071,,,,,,,2021-08-05,1,,,,,ヤブキデンセツ,0
1526,5260002019603,新規,0,2021-08-05,2021-08-05,有限会社中国創業,,有限会社,岡山県,倉敷市,四十瀬３０８番地の８,,33,202,7100835,,,,,,,2021-08-05,1,,,,,チュウゴクソウギョウ,0
1530,5260005010947,新規,0,2021-08-05,2021-08-05,一般社団法人花つばき,,その他の設立登記法人,岡山県,新見市,高尾２３２番地２,,33,210,7180003,,,,,,,2021-08-05,1,,,,,ハナツバキ,0
1531,5270001008325,新規,0,2021-08-05,2021-08-05,株式会社ドットクルー,,株式会社,鳥取県,米子市,福市５９４－１,,31,202,6830011,,,,,,,2021-08-05,1,,,,,ドットクルー,0
1537,5290001094066,新規,0,2021-08-05,2021-08-05,ＴＯＮＥ株式会社,,株式会社,福岡県,福岡市中央区,大名１丁目１３番１６号ＴＥＮＪＩＮアーク弐番館,,40,133,8100041,,,,,,,2021-08-05,1,,,,,トーン,0
1538,5290001094074,新規,0,2021-08-05,2021-08-05,株式会社ＢＯＺＵＢＯＮＤ,,株式会社,福岡県,宗像市,赤間駅前１丁目９番１６号,,40,220,8114185,,,,,,,2021-08-05,1,,,,,ボーズボンド,0
1539,5290001094223,新規,0,2021-08-05,2021-08-05,株式会社パートナーワン,,株式会社,福岡県,福岡市西区,姪浜駅南１丁目４番１号６０２号室,,40,135,8190006,,,,,,,2021-08-05,1,,,,,パートナーワン,0
1550,5310003004128,新規,0,2021-08-05,2021-08-05,合同会社クリスタリゼ,,合同会社,長崎県,長崎市,西北町２９番６－２０２号,,42,201,8528051,,,,,,,2021-08-05,1,,,,,クリスタリゼ,0
1552,5320003003590,新規,0,2021-08-05,2021-08-05,合同会社ＣａｓａＢｌａｎｃａ,,合同会社,大分県,佐伯市,大字長良３０３番地１,,44,205,8761511,,,,,,,2021-08-05,1,,,,,カサブランカ,0
1557,5340003003515,新規,0,2021-08-05,2021-08-05,合同会社ルノン,,合同会社,鹿児島県,鹿児島市,下伊敷１丁目５０番３０号,,46,201,8900005,,,,,,,2021-08-05,1,,,,,ルノン,0
1559,5350001017243,新規,0,2021-08-05,2021-08-05,株式会社志勢工業,,株式会社,宮崎県,日向市,向江町１丁目２０番地,,45,206,8830051,,,,,,,2021-08-05,1,,,,,シセイコウギョウ,0
1560,5350001017251,新規,0,2021-08-05,2021-08-05,株式会社朋電業,,株式会社,宮崎県,日向市,大字日知屋２４８１番地３,,45,206,8830062,,,,,,,2021-08-05,1,,,,,トモデンギョウ,0
1563,5360001029196,新規,0,2021-08-05,2021-08-05,株式会社高山,,株式会社,沖縄県,那覇市,首里末吉町１丁目１９５番地５,,47,201,9030801,,,,,,,2021-08-05,1,,,,,タカヤマ,0
1568,5370001047429,新規,0,2021-08-05,2021-08-05,株式会社一将,,株式会社,宮城県,仙台市青葉区,国分町１丁目６－１ルナパーク一番町ビル３Ｆ,,04,101,9800803,,,,,,,2021-08-05,1,,,,,イッショウ,0
1569,5370001047445,新規,0,2021-08-05,2021-08-05,株式会社ＷＯＮＤＥＲ　ＷＩＳＥ,,株式会社,宮城県,仙台市青葉区,大町２丁目１番７－８０２号,,04,101,9800804,,,,,,,2021-08-05,1,,,,,ワンダーワイズ,0
1570,5370001047453,新規,0,2021-08-05,2021-08-05,株式会社蔵王建業,,株式会社,宮城県,刈田郡蔵王町,大字曲竹字入畑沢１番地１,,04,301,9890851,,,,,,,2021-08-05,1,,,,,ザオウケンギョウ,0
1578,5380001032090,新規,0,2021-08-05,2021-08-05,株式会社グランツ,,株式会社,福島県,郡山市,大槻町字原田５３番地３,,07,203,9630201,,,,,,,2021-08-05,1,,,,,グランツ,0
1579,5390001016547,新規,0,2021-08-05,2021-08-05,株式会社大澤サッシ,,株式会社,山形県,新庄市,小田島町７番１１号,,06,205,9960071,,,,,,,2021-08-05,1,,,,,オオサワサッシ,0
1580,5390001016555,新規,0,2021-08-05,2021-08-05,株式会社港屋,,株式会社,山形県,山形市,小白川町３丁目１３番２１号,,06,201,9900021,,,,,,,2021-08-05,1,,,,,ミナトヤ,0
1583,5400005008175,新規,0,2021-08-05,2021-08-05,土地家屋調査士法人ごんとう事務所,,その他の設立登記法人,岩手県,北上市,本通り３丁目２番１５号,,03,206,0240094,,,,,,,2021-08-05,1,,,,,トチカオクチョウサシホウジンゴントウジムショ,0
1585,5430001084655,新規,0,2021-08-05,2021-08-05,株式会社Ｒｅ　ｔｕｒｎａ,,株式会社,北海道,札幌市豊平区,月寒中央通８丁目２番８号,,01,105,0620020,,,,,,,2021-08-05,1,,,,,リターナ,0
1586,5430001084663,新規,0,2021-08-05,2021-08-05,札幌パン工房株式会社,,株式会社,北海道,札幌市中央区,南九条西２０丁目１番３０号,,01,101,0640809,,,,,,,2021-08-05,1,,,,,サッポロパンコウボウ,0
1587,5430001084705,新規,0,2021-08-05,2021-08-05,株式会社美輝,,株式会社,北海道,札幌市西区,宮の沢一条１丁目６－１７,,01,107,0630051,,,,,,,2021-08-05,1,,,,,ヨシキ,0
1590,5430005014245,新規,0,2021-08-05,2021-08-05,一般社団法人アモール,,その他の設立登記法人,北海道,札幌市中央区,南十条西１４丁目１番２５号ＧＭＳビル,,01,101,0640810,,,,,,,2021-08-05,1,,,,,アモール,0
1598,5470005006370,新規,0,2021-08-05,2021-08-05,一般社団法人香川バレーボールプロモーション,,その他の設立登記法人,香川県,高松市,鶴市町６８６番地１,,37,201,7618032,,,,,,,2021-08-05,1,,,,,カガワバレーボールプロモーション,0
1600,5480003001703,新規,0,2021-08-05,2021-08-05,蒼翠合同会社,,合同会社,徳島県,徳島市,名東町１丁目３９５番地の８,,36,201,7700047,,,,,,,2021-08-05,1,,,,,アオミ,0
1603,5500001023614,新規,0,2021-08-05,2021-08-05,株式会社Ｌｉｂｒａ陽佳里,,株式会社,愛媛県,松山市,南江戸２丁目６－２０－６階,,38,201,7900062,,,,,,,2021-08-05,1,,,,,リブラヒカリ,0
1605,5700150104285,新規,0,2021-08-05,2021-08-05,ＳＡＪＩ　ＭＯＴＯＲ,,外国会社等,千葉県,佐倉市,大篠塚１３３２番地Ａ－１,,12,212,2850806,スリランカ民主社会主義共和国、アヌラダプラ、ランバウェ、タルガウェワ、１－７５,,,,,,2021-08-05,1,,,,,サジモーター,0
1611,6010001220185,新規,0,2021-08-05,2021-08-05,Ｅｎｇｉｎｅｅｒ　Ｃｏｍｍｕｎｉｔｙ株式会社,,株式会社,東京都,千代田区,二番町１１－９,,13,101,1020084,,,,,,,2021-08-05,1,,,,,エンジニアコミュニティ,0
1612,6010001220219,新規,0,2021-08-05,2021-08-05,株式会社オペレーションラボ,,株式会社,東京都,中央区,銀座７丁目１７番２号,,13,102,1040061,,,,,,,2021-08-05,1,,,,,オペレーションラボ,0
1613,6010001220227,新規,0,2021-08-05,2021-08-05,株式会社ビッグインサイド,,株式会社,東京都,中央区,銀座１丁目１２番４号Ｎ＆Ｅ．ＢＬＤ．７階,,13,102,1040061,,,,,,,2021-08-05,1,,,,,ビッグインサイド,0
1614,6010003035524,新規,0,2021-08-05,2021-08-05,ＴＲＵＳＴＯＣＫ合同会社,,合同会社,東京都,文京区,小石川５丁目３４－１２Ｓ－ＲＥＳＩＤＥＮＣＥ文京小石川９０１,,13,105,1120002,,,,,,,2021-08-05,1,,,,,トラストック,0
1625,6010401161913,新規,0,2021-08-05,2021-08-05,Ｂｅｙｏｎｄ　Ｂｏｒｄｅｒｓ株式会社,,株式会社,東京都,港区,南青山４丁目１７番３３号グランカーサ南青山２Ｆ,,13,103,1070062,,,,,,,2021-08-05,1,,,,,ビヨンドボーダーズカブシキガイシャ,0
1626,6010401161938,新規,0,2021-08-05,2021-08-05,株式会社たその会社,,株式会社,東京都,港区,南青山２丁目２番１５号ウィン青山９４２,,13,103,1070062,,,,,,,2021-08-05,1,,,,,タソノカイシャ,0
1634,6010603009076,新規,0,2021-08-05,2021-08-05,オフィス・スズキ合同会社,,合同会社,東京都,江東区,東砂１丁目３番２－７１７号,,13,108,1360074,,,,,,,2021-08-05,1,,,,,オフィススズキ,0
1636,6010701041352,新規,0,2021-08-05,2021-08-05,株式会社ＴＳカンパニー,,株式会社,東京都,品川区,東大井６丁目１４番９号大輝レジデンス３０３,,13,109,1400011,,,,,,,2021-08-05,1,,,,,ティーエスカンパニー,0
1637,6010701041360,新規,0,2021-08-05,2021-08-05,株式会社ＮＡＯＨＡＹＡ,,株式会社,東京都,品川区,小山２丁目２番１０号,,13,109,1420062,,,,,,,2021-08-05,1,,,,,ナオハヤ,0
1642,6010801032193,新規,0,2021-08-05,2021-08-05,株式会社ＭＯＭＯ,,株式会社,東京都,大田区,大森南２丁目２５番２号,,13,111,1430013,,,,,,,2021-08-05,1,,,,,モモ,0
1643,6010801032202,新規,0,2021-08-05,2021-08-05,株式会社ファニー,,株式会社,東京都,大田区,大森北１丁目１１番５号登丸ビル５階,,13,111,1430016,,,,,,,2021-08-05,1,,,,,ファニー,0
1646,6010901049220,新規,0,2021-08-05,2021-08-05,フジパスクホールディングス株式会社,,株式会社,東京都,世田谷区,上馬４丁目２番５号,,13,112,1540011,,,,,,,2021-08-05,1,,,,,フジパスクホールディングス,0
1656,6011001142097,新規,0,2021-08-05,2021-08-05,株式会社ＯＴＯ．ＬＩＫＯ,,株式会社,東京都,渋谷区,渋谷２丁目１９番１５－６０９号宮益坂ビルディング,,13,113,1500002,,,,,,,2021-08-05,1,,,,,オトリコ,0
1657,6011001142114,新規,0,2021-08-05,2021-08-05,株式会社Ｔｒｅｅ,,株式会社,東京都,渋谷区,神宮前６丁目２３番４号桑野ビル２階,,13,113,1500001,,,,,,,2021-08-05,1,,,,,ツリー,0
1663,6011005009136,新規,0,2021-08-05,2021-08-05,一般社団法人日本メンズヨガ協会,,その他の設立登記法人,東京都,渋谷区,本町３丁目２番１０号Ｃｏｎｓｏｌａｒｅ７１０,,13,113,1510071,,,,,,,2021-08-05,1,,,,,ニホンメンズヨガキョウカイ,0
1672,6011301027089,新規,0,2021-08-05,2021-08-05,株式会社ｐｌｕｓＡｐｌｕｓＱ,,株式会社,東京都,杉並区,高円寺南５丁目３１番１９号プルーム１０４,,13,115,1660003,,,,,,,2021-08-05,1,,,,,プラスエープラスキュー,0
1677,6011701024594,新規,0,2021-08-05,2021-08-05,ＣＩＥ東京国際投資株式会社,,株式会社,東京都,江戸川区,東小岩５丁目１２番１９－１１０３号,,13,123,1330052,,,,,,,2021-08-05,1,,,,,シーアイイートウキョウコクサイトウシ,0
1678,6011701024603,新規,0,2021-08-05,2021-08-05,株式会社イースター,,株式会社,東京都,江戸川区,中央３丁目７番１０号２Ｂ,,13,123,1320021,,,,,,,2021-08-05,1,,,,,イースター,0
1679,6011703002912,新規,0,2021-08-05,2021-08-05,信頼デジ合同会社,,合同会社,東京都,江戸川区,東小松川４丁目５４番８－３０７号,,13,123,1320033,,,,,,,2021-08-05,1,,,,,シンライデジ,0
1681,6011801039550,新規,0,2021-08-05,2021-08-05,ＬＹＳＯＮ株式会社,,株式会社,東京都,葛飾区,立石８丁目１７番１－５０４号,,13,122,1240012,,,,,,,2021-08-05,1,,,,,ライソン,0
1684,6012401038158,新規,0,2021-08-05,2021-08-05,株式会社ＲＵＮＷＡＹ,,株式会社,東京都,三鷹市,下連雀３丁目３１番２号ＭＩＢビル３０４号室,,13,204,1810013,,,,,,,2021-08-05,1,,,,,ランウェイ,0
1687,6012701016607,新規,0,2021-08-05,2021-08-05,株式会社モアトラスト,,株式会社,東京都,小平市,御幸町３２１番地の１６,,13,211,1870012,,,,,,,2021-08-05,1,,,,,モアトラスト,0
1695,6020001142478,新規,0,2021-08-05,2021-08-05,株式会社ＲＩＣ,,株式会社,神奈川県,横浜市神奈川区,鶴屋町１丁目７番１９号マルコシビル１階,,14,102,2210835,,,,,,,2021-08-05,1,,,,,アールアイシー,0
1696,6020001142503,新規,0,2021-08-05,2021-08-05,株式会社イブキ,,株式会社,神奈川県,川崎市宮前区,神木本町４丁目９－１－２,,14,136,2160031,,,,,,,2021-08-05,1,,,,,イブキ,0
1703,6020003020293,新規,0,2021-08-05,2021-08-05,合同会社Ｈａｎｅｕｌ,,合同会社,神奈川県,横浜市戸塚区,秋葉町２５３番地２４６,,14,110,2450052,,,,,,,2021-08-05,1,,,,,ハヌル,0
1704,6021001073622,新規,0,2021-08-05,2021-08-05,株式会社厚木総合研究所,,株式会社,神奈川県,厚木市,王子２丁目１３番１０号,,14,212,2430817,,,,,,,2021-08-05,1,,,,,アツギソウゴウケンキュウジョ,0
1713,6030001143616,新規,0,2021-08-05,2021-08-05,株式会社ディバイン,,株式会社,埼玉県,さいたま市中央区,上落合３丁目２番１号,,11,105,3380001,,,,,,,2021-08-05,1,,,,,ディバイン,0
1714,6030001143707,新規,0,2021-08-05,2021-08-05,アセットプラス株式会社,,株式会社,埼玉県,朝霞市,栄町３丁目４番２７－４０９号,,11,227,3510012,,,,,,,2021-08-05,1,,,,,アセットプラス,0
1719,6040001119615,新規,0,2021-08-05,2021-08-05,株式会社てるかね,,株式会社,千葉県,市川市,湊新田２丁目９番２１号,,12,203,2720132,,,,,,,2021-08-05,1,,,,,テルカネ,0
1724,6050001049646,新規,0,2021-08-05,2021-08-05,株式会社グリーン水道サービス,,株式会社,茨城県,水戸市,五平町２００２番地の５,,08,201,3190324,,,,,,,2021-08-05,1,,,,,グリーンスイドウサービス,0
1725,6050001049654,新規,0,2021-08-05,2021-08-05,株式会社ＡＳＤＦ,,株式会社,茨城県,つくば市,吾妻２丁目５番地１,,08,220,3050031,,,,,,,2021-08-05,1,,,,,エーエスディーエフ,0
1728,6050005012914,新規,0,2021-08-05,2021-08-05,一般社団法人いばらき樹木医会,,その他の設立登記法人,茨城県,古河市,東山田４２６０番地１フルヤ緑販株式会社内,,08,204,3060112,,,,,,,2021-08-05,1,,,,,イバラキジュモクイカイ,0
1729,6060001033979,新規,0,2021-08-05,2021-08-05,ＧＭ株式会社,,株式会社,栃木県,塩谷郡高根沢町,宝石台３丁目１２番地４,,09,386,3291231,,,,,,,2021-08-05,1,,,,,ジーエム,0
1738,6080401025236,新規,0,2021-08-05,2021-08-05,株式会社ＡＸＩＳ,,株式会社,静岡県,浜松市南区,高塚町２３１５番地の４,,22,134,4328065,,,,,,,2021-08-05,1,,,,,アクシス,0
1742,6090001017145,新規,0,2021-08-05,2021-08-05,株式会社布施組,,株式会社,山梨県,笛吹市,境川町三椚８５２番地１,,19,211,4060846,,,,,,,2021-08-05,1,,,,,フセグミ,0
1743,6100001034485,新規,0,2021-08-05,2021-08-05,株式会社ヒルズカフェ,,株式会社,長野県,飯田市,本町１丁目１５番地,,20,205,3950044,,,,,,,2021-08-05,1,,,,,ヒルズカフェ,0
1744,6100001034493,新規,0,2021-08-05,2021-08-05,株式会社Ａｒｃａｎａ製作所,,株式会社,長野県,東御市,田中１７８－２,,20,219,3890516,,,,,,,2021-08-05,1,,,,,アルカナセイサクジョ,0
1745,6100003006193,新規,0,2021-08-05,2021-08-05,２７８４合同会社,,合同会社,長野県,安曇野市,三郷温３０３５番地１７,,20,220,3998102,,,,,,,2021-08-05,1,,,,,フナバシ,0
1748,6110001035961,新規,0,2021-08-05,2021-08-05,株式会社Ｆｉｒｓｔ　ｓｔｅｐ,,株式会社,新潟県,新潟市西区,東青山１丁目１２番地１パークメゾン青山１０１号室,,15,107,9502003,,,,,,,2021-08-05,1,,,,,ファーストステップ,0
1755,6120001239479,新規,0,2021-08-05,2021-08-05,株式会社ネイロス,,株式会社,大阪府,大阪市淀川区,西宮原１丁目８番３３号日宝新大阪第２ビル２階－７号室,,27,123,5320004,,,,,,,2021-08-05,1,,,,,ネイロス,0
1756,6120001239512,新規,0,2021-08-05,2021-08-05,ミナトロジ株式会社,,株式会社,大阪府,寝屋川市,松屋町１９番１－５０２号,,27,215,5720086,,,,,,,2021-08-05,1,,,,,ミナトロジ,0
1760,6120003019945,新規,0,2021-08-05,2021-08-05,合同会社ＩＴ　Ｒｅ－Ｌｉｆｅ,,合同会社,大阪府,大阪市西淀川区,姫里３丁目４番２０－４０１号,,27,113,5550025,,,,,,,2021-08-05,1,,,,,アイティリライフ,0
1761,6120003019961,新規,0,2021-08-05,2021-08-05,合同会社ダイコク,,合同会社,大阪府,寝屋川市,大利元町１０番６号,,27,215,5720047,,,,,,,2021-08-05,1,,,,,ダイコク,0
1762,6120003019994,新規,0,2021-08-05,2021-08-05,よつば合同会社,,合同会社,大阪府,大阪市都島区,友渕町３丁目１番１－４１３号,,27,102,5340016,,,,,,,2021-08-05,1,,,,,ヨツバ,0
1763,6120101064083,新規,0,2021-08-05,2021-08-05,株式会社西村洋菓子店,,株式会社,大阪府,河内長野市,木戸１丁目７番１７号,,27,216,5860001,,,,,,,2021-08-05,1,,,,,ニシムラヨウガシテン,0
1764,6120101064100,新規,0,2021-08-05,2021-08-05,株式会社浜田工務店,,株式会社,大阪府,南河内郡河南町,大字寛弘寺９５８番地の１,,27,382,5850035,,,,,,,2021-08-05,1,,,,,ハマダコウムテン,0
1765,6120101064109,新規,0,2021-08-05,2021-08-05,五光電設株式会社,,株式会社,大阪府,堺市堺区,大浜南町３丁１番５８号,,27,141,5900976,,,,,,,2021-08-05,1,,,,,ゴコウデンセツ,0
1766,6120101064117,新規,0,2021-08-05,2021-08-05,正光トラスト株式会社,,株式会社,大阪府,貝塚市,木積２１５２番地,,27,208,5970102,,,,,,,2021-08-05,1,,,,,セイコウトラスト,0
1770,6120901044714,新規,0,2021-08-05,2021-08-05,リフィア株式会社,,株式会社,大阪府,豊中市,浜１丁目２７番１８－６０１号,,27,203,5610817,,,,,,,2021-08-05,1,,,,,リフィア,0
1771,6120901044739,新規,0,2021-08-05,2021-08-05,株式会社松壱,,株式会社,大阪府,高槻市,明田町１番７号,,27,207,5690806,,,,,,,2021-08-05,1,,,,,マツイチ,0
1775,6130001069842,新規,0,2021-08-05,2021-08-05,株式会社上野製作所,,株式会社,京都府,京都市右京区,西京極徳大寺団子田町２９番地の１０,,26,108,6150846,,,,,,,2021-08-05,1,,,,,ウエノセイサクショ,0
1776,6130001069859,新規,0,2021-08-05,2021-08-05,応志鉱業株式会社,,株式会社,京都府,京都市山科区,四ノ宮小金塚８番地８１０,,26,110,6078022,,,,,,,2021-08-05,1,,,,,オウシコウギョウ,0
1777,6130001069875,新規,0,2021-08-05,2021-08-05,Ｌａｕｎｄｒｙ’ｓ本田洗機株式会社,,株式会社,京都府,京都市山科区,西野山百々町２３０番地１２,,26,110,6078301,,,,,,,2021-08-05,1,,,,,ランドリーズホンダセンキ,0
1778,6130001069883,新規,0,2021-08-05,2021-08-05,株式会社実生社,,株式会社,京都府,京都市北区,大宮東小野堀町２５番地１,,26,101,6038406,,,,,,,2021-08-05,1,,,,,ミショウシャ,0
1783,6140001122534,新規,0,2021-08-05,2021-08-05,株式会社共生,,株式会社,兵庫県,姫路市,飾磨区中島字宝来３０５９番地の２３,,28,201,6728035,,,,,,,2021-08-05,1,,,,,キョウセイ,0
1784,6140001122583,新規,0,2021-08-05,2021-08-05,株式会社イデアル,,株式会社,兵庫県,加古郡稲美町,中村１３９２番地の１７,,28,381,6751122,,,,,,,2021-08-05,1,,,,,イデアル,0
1785,6140001122625,新規,0,2021-08-05,2021-08-05,神戸ハリマ防災株式会社,,株式会社,兵庫県,神戸市西区,長畑町２番地の５ハイツ長畑３０２号,,28,111,6512148,,,,,,,2021-08-05,1,,,,,コウベハリマボウサイ,0
1787,6140003016602,新規,0,2021-08-05,2021-08-05,合同会社ＣＰＭ,,合同会社,兵庫県,神戸市中央区,中山手通１丁目２１番１３号６階,,28,110,6500004,,,,,,,2021-08-05,1,,,,,シーピーエム,0
1791,6140005025774,新規,0,2021-08-05,2021-08-05,特定非営利活動法人みらプロ,,その他の設立登記法人,兵庫県,加西市,玉丘町２１７番地の２,,28,220,6790109,,,,,,,2021-08-05,1,,,,,ミラプロ,0
1794,6150005009314,新規,0,2021-08-05,2021-08-05,一般社団法人ｋｉｍｏｎｏ　ｄｒｅｓｓｅｒ　ｍｅｔｈｏｄ着付士支援機構,,その他の設立登記法人,奈良県,奈良市,西木辻町２４７,00123853,29,201,6308325,,,,,,,2021-08-05,1,,,,,キモノドレッサーメソッドキツケシシエンキコウ,0
1796,6160001023532,新規,0,2021-08-05,2021-08-05,岡本商店株式会社,,株式会社,滋賀県,蒲生郡日野町,大字北脇日野第二工業団地三丁目１番２号,,25,383,5291663,,,,,,,2021-08-05,1,,,,,オカモトショウテン,0
1808,6180001147016,新規,0,2021-08-05,2021-08-05,株式会社ＢＥＬＬＥＷＥＬＬ,,株式会社,愛知県,日進市,岩崎町芦廻間１１２－１１４１－Ｂ,,23,230,4700131,,,,,,,2021-08-05,1,,,,,ベルウェル,0
1809,6180001147288,新規,0,2021-08-05,2021-08-05,株式会社森井工業,,株式会社,愛知県,名古屋市北区,辻町３丁目２８番地,,23,103,4620032,,,,,,,2021-08-05,1,,,,,モリイコウギョウ,0
1810,6180001147313,新規,0,2021-08-05,2021-08-05,株式会社スマート生活,,株式会社,愛知県,名古屋市北区,西志賀町１丁目２６番４第三伊藤ビル１階,,23,103,4620058,,,,,,,2021-08-05,1,,,,,スマートセイカツ,0
1811,6180001147338,新規,0,2021-08-05,2021-08-05,中央朝日マネジメント株式会社,,株式会社,愛知県,名古屋市熱田区,金山町１丁目５番２号,,23,109,4560002,,,,,,,2021-08-05,1,,,,,チュウオウアサヒマネジメント,0
1812,6180001147362,新規,0,2021-08-05,2021-08-05,株式会社一心,,株式会社,愛知県,名古屋市中区,伊勢山１丁目８番６号,,23,106,4600026,,,,,,,2021-08-05,1,,,,,イッシン,0
1818,6180301035226,新規,0,2021-08-05,2021-08-05,株式会社小田,,株式会社,愛知県,豊橋市,西小鷹野１丁目１３番地４０,,23,201,4400013,,,,,,,2021-08-05,1,,,,,オダ,0
1824,6190003003736,新規,0,2021-08-05,2021-08-05,合同会社Ｐｒｉｍｅ　Ｓｔｏｒｙ,,合同会社,三重県,津市,一身田上津部田１４８８番地７３,,24,201,5140061,,,,,,,2021-08-05,1,,,,,プライムストーリー,0
1831,6250001019042,新規,0,2021-08-05,2021-08-05,株式会社佐々木総業,,株式会社,山口県,柳井市,柳井７８４８番地２３,,35,212,7420021,,,,,,,2021-08-05,1,,,,,ササキソウギョウ,0
1833,6260001035856,新規,0,2021-08-05,2021-08-05,株式会社ＴＡＮＩＣＯＭ,,株式会社,岡山県,岡山市南区,新保１３０５‐２,,33,104,7000945,,,,,,,2021-08-05,1,,,,,タニコム,0
1844,6310003004127,新規,0,2021-08-05,2021-08-05,合同会社フェアリーアイ,,合同会社,長崎県,長崎市,畝刈町１６１３番地３４２,,42,201,8512212,,,,,,,2021-08-05,1,,,,,フェアリーアイ,0
1845,6330001028860,新規,0,2021-08-05,2021-08-05,株式会社吉川運送,,株式会社,熊本県,八代市,高島町４０６８番地２,,43,202,8660014,,,,,,,2021-08-05,1,,,,,ヨシカワウンソウ,0
1846,6330001028893,新規,0,2021-08-05,2021-08-05,株式会社９９グループ,,株式会社,熊本県,熊本市南区,城南町坂野２６０－２,,43,104,8614201,,,,,,,2021-08-05,1,,,,,ナインティナイングループ,0
1848,6340001023984,新規,0,2021-08-05,2021-08-05,株式会社マツモト工芸,,株式会社,鹿児島県,肝属郡南大隅町,根占川北１２７４番地,,46,491,8932501,,,,,,,2021-08-05,1,,,,,マツモトコウゲイ,0
1849,6340001023992,新規,0,2021-08-05,2021-08-05,株式会社Ｂｒｅａｋ　ｍａｋｅｒ,,株式会社,鹿児島県,鹿児島市,下荒田１丁目４４番１０－４０５号,,46,201,8900056,,,,,,,2021-08-05,1,,,,,ブレイクメーカー,0
1850,6340001024000,新規,0,2021-08-05,2021-08-05,株式会社ＰＳＩコンサルティング,,株式会社,鹿児島県,曽於市,末吉町諏訪方８３５８番地３,,46,217,8998604,,,,,,,2021-08-05,1,,,,,ピーエスアイコンサルティング,0
1856,6350003003901,新規,0,2021-08-05,2021-08-05,坂元左官合同会社,,合同会社,宮崎県,北諸県郡三股町,大字樺山４６３８番地５,,45,341,8891901,,,,,,,2021-08-05,1,,,,,サカモトサカン,0
1861,6370001047436,新規,0,2021-08-05,2021-08-05,株式会社リンクギア,,株式会社,宮城県,仙台市青葉区,一番町２丁目６番１号シティハウス一番町中央,,04,101,9800811,,,,,,,2021-08-05,1,,,,,リンクギア,0
1864,6370003005334,新規,0,2021-08-05,2021-08-05,合同会社まめおひ,,合同会社,宮城県,柴田郡大河原町,字新東６番地１９,,04,321,9891246,,,,,,,2021-08-05,1,,,,,マメオヒ,0
1865,6380003004987,新規,0,2021-08-05,2021-08-05,合同会社Ｔ・Ｙコーポレーション,,合同会社,福島県,いわき市,若葉台２丁目２５番地１１,,07,204,9718138,,,,,,,2021-08-05,1,,,,,ティーワイコーポレーション,0
1873,6400005008174,新規,0,2021-08-05,2021-08-05,司法書士法人ごんとう事務所,,その他の設立登記法人,岩手県,北上市,本通り３丁目２番１５号,,03,206,0240094,,,,,,,2021-08-05,1,,,,,ゴントウジムショ,0
1885,6430001084654,新規,0,2021-08-05,2021-08-05,株式会社ＥＣＯＭＯＶＥＲＧＬＯＢＡＬ　ＨＯＫＫＡＩＤＯ,,株式会社,北海道,札幌市南区,南三十五条西１０丁目３番１５号,,01,106,0050035,,,,,,,2021-08-05,1,,,,,エコムーバーグローバルホッカイドウ,0
1886,6430001084662,新規,0,2021-08-05,2021-08-05,株式会社ブレイヴグランツ,,株式会社,北海道,札幌市白石区,東米里２０２９番地４,,01,104,0030876,,,,,,,2021-08-05,1,,,,,ブレイヴグランツ,0
1888,6430003012992,新規,0,2021-08-05,2021-08-05,合同会社ＺｉＮｉＡ,,合同会社,北海道,札幌市中央区,南四条西５丁目４番地１シャンゼリゼ・ビル３Ｆ,,01,101,0640804,,,,,,,2021-08-05,1,,,,,ジニア,0
1889,6430003013000,新規,0,2021-08-05,2021-08-05,エルクビルディングマネジメント合同会社,,合同会社,北海道,札幌市北区,北十一条西１丁目２番１９号ビッグバーンズマンションＮ壱壱１０１号室,,01,102,0010011,,,,,,,2021-08-05,1,,,,,エルクビルディングマネジメント,0
1893,6460301005002,新規,0,2021-08-05,2021-08-05,株式会社農夢,,株式会社,北海道,網走市,字藻琴２２５番地の２４５,,01,211,0993111,,,,,,,2021-08-05,1,,,,,ノーム,0
1895,6470001018641,新規,0,2021-08-05,2021-08-05,株式会社高橋建装,,株式会社,香川県,観音寺市,柞田町甲８３４番地７,,37,205,7680040,,,,,,,2021-08-05,1,,,,,タカハシケンソウ,0
1897,6480001011455,新規,0,2021-08-05,2021-08-05,株式会社Ｅ－ｍａｋｅ,,株式会社,徳島県,阿波市,市場町香美字秋葉本９０番地６,,36,206,7711610,,,,,,,2021-08-05,1,,,,,イーメイク,0
1898,6480003001702,新規,0,2021-08-05,2021-08-05,合同会社田園,,合同会社,徳島県,阿南市,原ケ崎町堀川床１７－１０カントリーハイツ１０１号室,,36,204,7740008,,,,,,,2021-08-05,1,,,,,デンエン,0
1900,6500001023605,新規,0,2021-08-05,2021-08-05,株式会社渡辺工業,,株式会社,愛媛県,新居浜市,高津町３番６１号,,38,205,7920867,,,,,,,2021-08-05,1,,,,,,0
1903,6700150104284,新規,0,2021-08-05,2021-08-05,ＡＳＯＫＡ　ＡＵＴＯ　ＴＲＡＤＩＮＧ,,外国会社等,千葉県,佐倉市,大篠塚７７３番地Ｃ－１,,12,212,2850806,スリランカ民主社会主義共和国、アヌラダプラ、ランバウェ、タルガウェワ、２１,,,,,,2021-08-05,1,,,,,アソカオートトレーデイング,0
1905,7010001219937,新規,0,2021-08-05,2021-08-05,株式会社エクセプショナル,,株式会社,東京都,文京区,本郷６丁目２５番１４号,,13,105,1130033,,,,,,,2021-08-05,1,,,,,エクセプショナル,0
1906,7010001220184,新規,0,2021-08-05,2021-08-05,株式会社アルマコ,,株式会社,東京都,千代田区,外神田４丁目１４－１秋葉原ＵＤＸ４Ｆ・ＬＩＦＯＲＫ秋葉原Ｒ１８,,13,101,1010021,,,,,,,2021-08-05,1,,,,,アルマコ,0
1907,7010001220218,新規,0,2021-08-05,2021-08-05,エムドゥ株式会社,,株式会社,東京都,文京区,湯島２丁目１０番１０号,,13,105,1130034,,,,,,,2021-08-05,1,,,,,エムドゥ,0
1908,7010001220226,新規,0,2021-08-05,2021-08-05,太平エンジニアリングサービス株式会社,,株式会社,東京都,千代田区,神田神保町２丁目４番地６３,,13,101,1010051,,,,,,,2021-08-05,1,,,,,タイヘイエンジニアリングサービス,0
1909,7010001220242,新規,0,2021-08-05,2021-08-05,株式会社＿參玖,00123850,株式会社,東京都,中央区,日本橋人形町１丁目１番１０号麻業会館５階,,13,102,1030013,,,,,,,2021-08-05,1,,,,,イチサンキュウ,0
1910,7010003035498,新規,0,2021-08-05,2021-08-05,合同会社ＡＰＧ　Ｈｏｌｄｉｎｇｓ,,合同会社,東京都,千代田区,霞が関３丁目２番５号,,13,101,1000013,,,,,,,2021-08-05,1,,,,,エーピージーホールディングス,0
1912,7010101014800,新規,0,2021-08-05,2021-08-05,帥龍株式会社,,株式会社,東京都,八王子市,元横山町１丁目１７番９号,,13,201,1920063,,,,,,,2021-08-05,1,,,,,スイリュウ,0
1916,7010401161929,新規,0,2021-08-05,2021-08-05,株式会社Ｆｒｏｎｔｉｅｒ　Ｃａｐｉｔａｌ,,株式会社,東京都,港区,虎ノ門１丁目７番１２号,,13,103,1050001,,,,,,,2021-08-05,1,,,,,フロンティアキャピタル,0
1917,7010401161937,新規,0,2021-08-05,2021-08-05,株式会社シオンＪｒ．,,株式会社,東京都,港区,浜松町２丁目２番１５号浜松町ダイヤビル２Ｆ,,13,103,1050013,,,,,,,2021-08-05,1,,,,,シオンジュニア,0
1923,7010403025850,新規,0,2021-08-05,2021-08-05,ＯＮＧ　ＣＲＥＡＴＯＲＳ合同会社,,合同会社,東京都,港区,赤坂２丁目１２番２０号ディア・シティ赤坂東館１０４,,13,103,1070052,,,,,,,2021-08-05,1,,,,,オーエヌジークリエイターズ,0
1924,7010403025859,新規,0,2021-08-05,2021-08-05,ＳＨＡＰＥ　ＷＯＲＫＳ合同会社,,合同会社,東京都,港区,麻布十番２丁目１３番７号プラシーボ麻布３０１,,13,103,1060045,,,,,,,2021-08-05,1,,,,,シェイプワークス,0
1925,7010405020049,新規,0,2021-08-05,2021-08-05,一般社団法人日比谷蓮愚狼事務所,,その他の設立登記法人,東京都,港区,赤坂２丁目５－８ヒューリックＪＰ赤坂ビル３Ｆ,,13,103,1070052,,,,,,,2021-08-05,1,,,,,ヒビヤレングロウジムショ,0
1934,7010701041351,新規,0,2021-08-05,2021-08-05,株式会社アマモスラパス,,株式会社,東京都,品川区,南大井３丁目８番１８号,,13,109,1400013,,,,,,,2021-08-05,1,,,,,アマモスラパス,0
1936,7010705003249,新規,0,2021-08-05,2021-08-05,一般社団法人創医会,,その他の設立登記法人,東京都,品川区,上大崎２丁目１３番２９号ルミエール上大崎５０２号,,13,109,1410021,,,,,,,2021-08-05,1,,,,,ソウイカイ,0
1937,7010901049203,新規,0,2021-08-05,2021-08-05,株式会社ＧＤＭ,,株式会社,東京都,世田谷区,三軒茶屋１丁目９番１６号,,13,112,1540024,,,,,,,2021-08-05,1,,,,,ジーディエム,0
1944,7011001142047,新規,0,2021-08-05,2021-08-05,Ｆｕｎ　Ｌｉｆｅ　Ｐｌａｎｎｉｎｇ株式会社,,株式会社,東京都,渋谷区,神宮前６丁目２３－４桑野ビル２Ｆ,,13,113,1500001,,,,,,,2021-08-05,1,,,,,ファンライフプランニング,0
1945,7011001142071,新規,0,2021-08-05,2021-08-05,株式会社スウェル・シー,,株式会社,東京都,目黒区,上目黒１丁目１１番１号ＯＡＫＢＬＤＧⅡ１Ｆ,00123848,13,110,1530051,,,,,,,2021-08-05,1,,,,,スウェルシー,0
1946,7011001142113,新規,0,2021-08-05,2021-08-05,株式会社テック,,株式会社,東京都,渋谷区,代々木１丁目４５番１０号ＮＪビル２０１号室,,13,113,1510053,,,,,,,2021-08-05,1,,,,,テック,0
1948,7011005009151,新規,0,2021-08-05,2021-08-05,一般社団法人企業の未来づくり研究所,,その他の設立登記法人,東京都,渋谷区,神宮前６丁目２９番４号原宿ｋｏｍｉｙａビル６階,,13,113,1500001,,,,,,,2021-08-05,1,,,,,キギョウノミライヅクリケンキュウジョ,0
1953,7011301027088,新規,0,2021-08-05,2021-08-05,株式会社まめなとうふ店,,株式会社,東京都,杉並区,松庵３丁目３８番２０号,,13,115,1670054,,,,,,,2021-08-05,1,,,,,マメナトウフテン,0
1954,7011501027193,新規,0,2021-08-05,2021-08-05,株式会社克心建設,,株式会社,東京都,北区,滝野川３丁目４番１号,,13,117,1140023,,,,,,,2021-08-05,1,,,,,カツシンケンセツ,0
1955,7011501027202,新規,0,2021-08-05,2021-08-05,株式会社小閃,,株式会社,東京都,北区,滝野川１丁目８７番７号３０１,,13,117,1140023,,,,,,,2021-08-05,1,,,,,ショウセン,0
1960,7011603003365,新規,0,2021-08-05,2021-08-05,合同会社中村モ－タ－ス,,合同会社,東京都,練馬区,大泉町１丁目３０番３号,,13,120,1780062,,,,,,,2021-08-05,1,,,,,ナカムラモータース,0
1961,7011701024602,新規,0,2021-08-05,2021-08-05,株式会社ゴールド・２４,,株式会社,東京都,江戸川区,上篠崎２丁目２２番１５号,,13,123,1330054,,,,,,,2021-08-05,1,,,,,ゴールドニジュウヨン,0
1968,7012401038157,新規,0,2021-08-05,2021-08-05,アソート株式会社,,株式会社,東京都,調布市,若葉町１丁目３０番６３号,,13,208,1820003,,,,,,,2021-08-05,1,,,,,アソート,0
1971,7012701016606,新規,0,2021-08-05,2021-08-05,株式会社Ｌｕｓｔ,,株式会社,東京都,小平市,花小金井１丁目１２番５号秋田ビル１Ｆ,,13,211,1870002,,,,,,,2021-08-05,1,,,,,ルスト,0
1972,7012801021002,新規,0,2021-08-05,2021-08-05,ＷＪプラニング株式会社,,株式会社,東京都,国分寺市,泉町１丁目５番１６号,,13,214,1850024,,,,,,,2021-08-05,1,,,,,ダブリュージェイプラニング,0
1976,7013301047842,新規,0,2021-08-05,2021-08-05,株式会社グレースマーケティング,,株式会社,東京都,豊島区,南長崎４丁目３４－１０内ノ倉ビル１階,,13,116,1710052,,,,,,,2021-08-05,1,,,,,グレースマーケティング,0
1977,7013303005773,新規,0,2021-08-05,2021-08-05,合同会社ネクストソートエデュケーション,,合同会社,東京都,豊島区,東池袋１丁目４７番７号木村ビル２階,,13,116,1700013,,,,,,,2021-08-05,1,,,,,ネクストソートエドュケーション,0
1986,7020001142452,新規,0,2021-08-05,2021-08-05,株式会社ｂｅ　ａｌｒｉｇｈｔ,,株式会社,神奈川県,川崎市川崎区,駅前本町１１番地２川崎フロンティアビル４階,,14,131,2100007,,,,,,,2021-08-05,1,,,,,ビーオールライト,0
1993,7020003020284,新規,0,2021-08-05,2021-08-05,ＬＬＢ合同会社,,合同会社,神奈川県,川崎市川崎区,四谷上町１２番２号,,14,131,2100828,,,,,,,2021-08-05,1,,,,,エルエルビー,0
1994,7020003020292,新規,0,2021-08-05,2021-08-05,合同会社Ｆａｎｓ,,合同会社,神奈川県,川崎市川崎区,四谷上町１２番２号,,14,131,2100828,,,,,,,2021-08-05,1,,,,,ファンス,0
1998,7021001073555,新規,0,2021-08-05,2021-08-05,株式会社アソート・ワーク,,株式会社,神奈川県,大和市,大和東３丁目３番１５号,,14,213,2420017,,,,,,,2021-08-05,1,,,,,アソートワーク,0
1999,7021001073588,新規,0,2021-08-05,2021-08-05,株式会社ＦＵＫＵＺＯ,,株式会社,神奈川県,茅ヶ崎市,共恵１丁目８番６－１００２号グレーシア茅ヶ崎,,14,207,2530056,,,,,,,2021-08-05,1,,,,,フクゾー,0
2011,7030001143623,新規,0,2021-08-05,2021-08-05,株式会社プロコム,,株式会社,埼玉県,比企郡吉見町,大字江和井１６４４番地３,,11,347,3550133,,,,,,,2021-08-05,1,,,,,プロコム,0
2012,7030001143680,新規,0,2021-08-05,2021-08-05,イーエルリミテッド株式会社,,株式会社,埼玉県,蓮田市,見沼町３番２０号,,11,238,3490127,,,,,,,2021-08-05,1,,,,,イーエルリミテッド,0
2013,7030001143689,新規,0,2021-08-05,2021-08-05,株式会社ＲＩＮエステート,,株式会社,埼玉県,飯能市,大字双柳４１５番地２,,11,209,3570021,,,,,,,2021-08-05,1,,,,,リンエステート,0
2014,7030001143706,新規,0,2021-08-05,2021-08-05,光電商事株式会社,,株式会社,埼玉県,鴻巣市,緑町３番１３号,,11,217,3650053,,,,,,,2021-08-05,1,,,,,コウデンショウジ,0
2020,7040001119622,新規,0,2021-08-05,2021-08-05,株式会社Ａｕｔｏ　Ｈｕｂ　Ｃｅｙｌｏｎ,,株式会社,千葉県,八街市,八街ろ９５番地１９０,,12,230,2891144,,,,,,,2021-08-05,1,,,,,オートハブセイロン,0
2021,7040001119696,新規,0,2021-08-05,2021-08-05,株式会社Ｓｍａｒｔ　Ｇｒｅｅｎ,,株式会社,千葉県,船橋市,行田１丁目５０番１１－１１０３号,,12,204,2730044,,,,,,,2021-08-05,1,,,,,スマートグリーン,0
2022,7040001119705,新規,0,2021-08-05,2021-08-05,株式会社Ｍｅｄｉｃｉａｎ,,株式会社,千葉県,市川市,末広２丁目８番２０号,,12,203,2720121,,,,,,,2021-08-05,1,,,,,メディシアン,0
2026,7040003018293,新規,0,2021-08-05,2021-08-05,合同会社９６ｃａｆｅ,,合同会社,千葉県,柏市,あけぼの３丁目５番１５号,,12,217,2770841,,,,,,,2021-08-05,1,,,,,クロカフェ,0
2029,7050001049653,新規,0,2021-08-05,2021-08-05,ソライ株式会社,,株式会社,茨城県,古河市,原町７番４５号,,08,204,3060025,,,,,,,2021-08-05,1,,,,,ソライ,0
2030,7050001049661,新規,0,2021-08-05,2021-08-05,Ｓｅｃｏｎｄ　Ｃｈａｎｃｅ株式会社,,株式会社,茨城県,水戸市,梅香２丁目２－４５,,08,201,3100022,,,,,,,2021-08-05,1,,,,,セカンドチャンス,0
2032,7050003006017,新規,0,2021-08-05,2021-08-05,合同会社Ｓｕｙａｂ,,合同会社,茨城県,土浦市,桜町２丁目１１番１０号グリーンパーク土浦２・１０１号室,,08,203,3000037,,,,,,,2021-08-05,1,,,,,スイヤーブ,0
2039,7060001033978,新規,0,2021-08-05,2021-08-05,ＫＨＡＮ　ＴＲＡＤＩＮＧ株式会社,,株式会社,栃木県,小山市,大字萱橋８１４番地,,09,208,3230804,,,,,,,2021-08-05,1,,,,,カントレーディング,0
2042,7080401025235,新規,0,2021-08-05,2021-08-05,株式会社ＴＯＲＯＡ,,株式会社,静岡県,磐田市,今之浦３丁目１９番１２号,,22,211,4380071,,,,,,,2021-08-05,1,,,,,トロア,0
2043,7080401025243,新規,0,2021-08-05,2021-08-05,株式会社オン・スタイル,,株式会社,静岡県,浜松市西区,大山町４１３５番地の４,,22,133,4311102,,,,,,,2021-08-05,1,,,,,オンスタイル,0
2044,7090001017144,新規,0,2021-08-05,2021-08-05,株式会社美富士,,株式会社,山梨県,中央市,成島３５０７番地８,,19,214,4093815,,,,,,,2021-08-05,1,,,,,ミフジ,0
2046,7100001034484,新規,0,2021-08-05,2021-08-05,株式会社藤井商会,,株式会社,長野県,東御市,和８６４９番地８,,20,219,3890505,,,,,,,2021-08-05,1,,,,,フジイショウカイ,0
2047,7100001034492,新規,0,2021-08-05,2021-08-05,株式会社Ｏｖｅｒ　ｔｈｅ　Ｃｏｕｎｔｅｒ　Ｃｕｌｔｕｒｅ,,株式会社,長野県,上田市,中央２丁目２４－４,,20,203,3860012,,,,,,,2021-08-05,1,,,,,オーヴァーザカウンターカルチャー,0
2048,7100003006201,新規,0,2021-08-05,2021-08-05,ヒュッゲスタイル合同会社,,合同会社,長野県,佐久市,新子田１７００番地３１,,20,217,3850007,,,,,,,2021-08-05,1,,,,,ヒュッゲスタイル,0
2049,7110001035952,新規,0,2021-08-05,2021-08-05,株式会社ＣＯＭＯＲＥ,,株式会社,新潟県,上越市,下門前２２９２番地,,15,222,9420063,,,,,,,2021-08-05,1,,,,,コモア,0
2050,7110001035960,新規,0,2021-08-05,2021-08-05,株式会社ＺＥＲＯホールディングス,,株式会社,新潟県,長岡市,新保４丁目１２番１７号,,15,202,9400875,,,,,,,2021-08-05,1,,,,,ゼロホールディングス,0
2060,7120001239503,新規,0,2021-08-05,2021-08-05,株式会社マヴーノ,,株式会社,大阪府,大阪市都島区,網島町８番２７号,,27,102,5340026,,,,,,,2021-08-05,1,,,,,マヴーノ,0
2061,7120001239528,新規,0,2021-08-05,2021-08-05,株式会社ユーテック,,株式会社,大阪府,大阪市淀川区,木川東１丁目１１番２２号昌和十三マンション２０６号,,27,123,5320012,,,,,,,2021-08-05,1,,,,,ユーテック,0
2062,7120001239536,新規,0,2021-08-05,2021-08-05,株式会社ビーエムプロデュース,,株式会社,大阪府,大阪市中央区,心斎橋筋１丁目８－３心斎橋ＰＡＲＣＯ４階ＳｋｉｉＭａ,,27,128,5420085,,,,,,,2021-08-05,1,,,,,ビーエムプロデュース,0
2063,7120001239544,新規,0,2021-08-05,2021-08-05,株式会社住まいるプラス,,株式会社,大阪府,枚方市,中宮山戸町２番１３号１階,,27,210,5730011,,,,,,,2021-08-05,1,,,,,スマイルプラス,0
2064,7120001239552,新規,0,2021-08-05,2021-08-05,株式会社ネクストステージ,,株式会社,大阪府,大阪市旭区,新森４丁目１９番１０号,,27,117,5350022,,,,,,,2021-08-05,1,,,,,ネクストステージ,0
2065,7120001239577,新規,0,2021-08-05,2021-08-05,株式会社和音,,株式会社,大阪府,大阪市中央区,谷町２丁目２番２２号ＮＳビル４階,,27,128,5400012,,,,,,,2021-08-05,1,,,,,ワオン,0
2066,7120001239585,新規,0,2021-08-05,2021-08-05,ＬＣ国際株式会社,,株式会社,大阪府,大阪市西成区,梅南２丁目４番２７－４０１号,,27,122,5570033,,,,,,,2021-08-05,1,,,,,エルシーコクサイ,0
2070,7120003019969,新規,0,2021-08-05,2021-08-05,合同会社パンダオフィス,,合同会社,大阪府,大阪市此花区,酉島３丁目１８番２３号,,27,104,5540051,,,,,,,2021-08-05,1,,,,,パンダオフィス,0
2072,7120005022426,新規,0,2021-08-05,2021-08-05,特定非営利活動法人ＪＥＦＡ国際社会貢献人材教育支援協会,,その他の設立登記法人,大阪府,大阪市中央区,心斎橋筋１丁目２番２５号,,27,128,5420085,,,,,,,2021-08-05,1,,,,,ジェイイーエフエーコクサイシャカイコウケンジンザイキョウイクシエンキョウカイ,0
2073,7120005022434,新規,0,2021-08-05,2021-08-05,司法書士法人ＫＡＩＤＯ法務事務所,,その他の設立登記法人,大阪府,大阪市中央区,南船場２丁目８番１１号５階,,27,128,5420081,,,,,,,2021-08-05,1,,,,,カイドホウムジムショ,0
2076,7120101064082,新規,0,2021-08-05,2021-08-05,株式会社ＫＯＢＡ,,株式会社,大阪府,富田林市,大字彼方２２６０番地２,,27,214,5840058,,,,,,,2021-08-05,1,,,,,コバ,0
2080,7120901044721,新規,0,2021-08-05,2021-08-05,ＰＲＩＮＣＩＰＬＥ株式会社,,株式会社,大阪府,吹田市,山田南３１番１２号,,27,205,5650823,,,,,,,2021-08-05,1,,,,,プリンシプル,0
2081,7120901044738,新規,0,2021-08-05,2021-08-05,株式会社エナジー,,株式会社,大阪府,豊中市,東豊中町６丁目６番２－２０５号,,27,203,5600003,,,,,,,2021-08-05,1,,,,,エナジー,0
2083,7120903003774,新規,0,2021-08-05,2021-08-05,プリマヴィスタ合同会社,,合同会社,大阪府,豊中市,柴原町２丁目１１－８,,27,203,5600055,,,,,,,2021-08-05,1,,,,,プリマヴィスタ,0
2088,7130001069841,新規,0,2021-08-05,2021-08-05,株式会社鍵幸,,株式会社,京都府,京都市南区,吉祥院車道町７番地２３,,26,107,6018315,,,,,,,2021-08-05,1,,,,,カギコウ,0
2089,7130001069858,新規,0,2021-08-05,2021-08-05,株式会社竹七,,株式会社,京都府,京都市伏見区,横大路東裏町４８番地,,26,109,6128481,,,,,,,2021-08-05,1,,,,,タケシチ,0
2090,7130001069874,新規,0,2021-08-05,2021-08-05,ｅｉｄ株式会社,,株式会社,京都府,京都市右京区,西院日照町１１２－１１３,,26,108,6150065,,,,,,,2021-08-05,1,,,,,イード,0
2091,7130001069882,新規,0,2021-08-05,2021-08-05,株式会社はくと建設,,株式会社,京都府,京都市伏見区,淀美豆町３２４番地４６,,26,109,6130916,,,,,,,2021-08-05,1,,,,,ハクトケンセツ,0
2094,7140001122558,新規,0,2021-08-05,2021-08-05,エピクシップ株式会社,,株式会社,兵庫県,神戸市中央区,磯上通４丁目１番１４号三宮スカイビル７Ｆ,,28,110,6510086,,,,,,,2021-08-05,1,,,,,エピクシップ,0
2095,7140001122566,新規,0,2021-08-05,2021-08-05,フジッコＮＥＷデリカ株式会社,,株式会社,兵庫県,神戸市中央区,港島中町６丁目１３番地４,,28,110,6500046,,,,,,,2021-08-05,1,,,,,フジッコニューデリカ,0
2096,7140001122616,新規,0,2021-08-05,2021-08-05,株式会社ミルサポート,,株式会社,兵庫県,神戸市中央区,琴ノ緒町２丁目２－７上田ビル４階,,28,110,6510094,,,,,,,2021-08-05,1,,,,,ミルサポート,0
2097,7140001122624,新規,0,2021-08-05,2021-08-05,株式会社花枝手,,株式会社,兵庫県,川西市,加茂５丁目３－１３,,28,217,6660025,,,,,,,2021-08-05,1,,,,,カエデ,0
2098,7140001122632,新規,0,2021-08-05,2021-08-05,株式会社ランのコンサル,,株式会社,兵庫県,神戸市東灘区,西岡本３丁目１９番１－１００５号,,28,101,6580073,,,,,,,2021-08-05,1,,,,,ランノコンサル,0
2106,7160001023531,新規,0,2021-08-05,2021-08-05,株式会社エンバンクメント,,株式会社,滋賀県,彦根市,高宮町１１１０番地,,25,202,5220201,,,,,,,2021-08-05,1,,,,,エンバンクメント,0
2109,7170001016708,新規,0,2021-08-05,2021-08-05,株式会社Ｆａｒｍｅｒｓ　Ｌｉｎｅｒ　Ｋｉｎｏｋｕｎｉ,,株式会社,和歌山県,有田市,初島町里１６５２番地の１,,30,204,6490307,,,,,,,2021-08-05,1,,,,,ファーマーズライナーキノクニ,0
2118,7180001147287,新規,0,2021-08-05,2021-08-05,株式会社フクワエステート,,株式会社,愛知県,名古屋市中区,栄５丁目２６番３９号ＧＳ栄ビル３Ｆ,,23,106,4600008,,,,,,,2021-08-05,1,,,,,フクワエステート,0
2119,7180001147295,新規,0,2021-08-05,2021-08-05,株式会社ｆｒｏｎｔｉｅｒ,,株式会社,愛知県,海部郡大治町,大字鎌須賀字川畔２８番地,,23,424,4901135,,,,,,,2021-08-05,1,,,,,フロンティア,0
2120,7180001147329,新規,0,2021-08-05,2021-08-05,株式会社レイズグループ,,株式会社,愛知県,名古屋市西区,名駅２丁目２７番１５,,23,104,4510045,,,,,,,2021-08-05,1,,,,,レイズグループ,0
2121,7180001147353,新規,0,2021-08-05,2021-08-05,メイカン機工株式会社,,株式会社,愛知県,名古屋市中村区,八社１丁目２８１番地の２,,23,105,4530863,,,,,,,2021-08-05,1,,,,,メイカンキコウ,0
2131,7180003022819,新規,0,2021-08-05,2021-08-05,合同会社南條会計,,合同会社,愛知県,春日井市,岩成台５丁目３番地３,,23,206,4870033,,,,,,,2021-08-05,1,,,,,ナンジョウカイケイ,0
2132,7180003022835,新規,0,2021-08-05,2021-08-05,合同会社ＬＧ,,合同会社,愛知県,一宮市,新生１丁目７番３号,,23,203,4910912,,,,,,,2021-08-05,1,,,,,エルジー,0
2134,7180005019391,新規,0,2021-08-05,2021-08-05,税理士法人ロジエンス,,その他の設立登記法人,愛知県,名古屋市守山区,小幡南２丁目１４番地１７号グランコンフォール１０１号,,23,113,4630048,,,,,,,2021-08-05,1,,,,,ロジエンス,0
2138,7180301035225,新規,0,2021-08-05,2021-08-05,株式会社ＡＧｗｏｒｋｓ,,株式会社,愛知県,豊田市,西中山町十七屋４番地２４１,,23,211,4700431,,,,,,,2021-08-05,1,,,,,エージーワークス,0
2142,7190001028577,新規,0,2021-08-05,2021-08-05,株式会社造家工房,,株式会社,三重県,亀山市,能褒野町２５番地２３,,24,210,5190212,,,,,,,2021-08-05,1,,,,,ゾウカコウボウ,0
2144,7190003003735,新規,0,2021-08-05,2021-08-05,合同会社ＩＮＳ,,合同会社,三重県,四日市市,ときわ２丁目１０番１号,,24,202,5100834,,,,,,,2021-08-05,1,,,,,アイエヌエス,0
2168,7240001058370,新規,0,2021-08-05,2021-08-05,株式会社アイ・ソーイング,,株式会社,広島県,三原市,港町１丁目５番１９号,,34,204,7230017,,,,,,,2021-08-05,1,,,,,アイソーイング,0
2169,7240001058379,新規,0,2021-08-05,2021-08-05,ピーシークリエイト株式会社,,株式会社,広島県,福山市,三之丸町４番１号グレイスビル,,34,207,7200066,,,,,,,2021-08-05,1,,,,,ピーシークリエイト,0
2170,7240001058387,新規,0,2021-08-05,2021-08-05,ディケイ広島株式会社,,株式会社,広島県,東広島市,西条土与丸４丁目２番６３号菱木ビル２階２０２号,,34,212,7390007,,,,,,,2021-08-05,1,,,,,ディケイヒロシマ,0
2171,7240001058412,新規,0,2021-08-05,2021-08-05,株式会社ティーアップ,,株式会社,広島県,広島市中区,八丁堀１５番６号,,34,101,7300013,,,,,,,2021-08-05,1,,,,,ティーアップ,0
2175,7250001019041,新規,0,2021-08-05,2021-08-05,株式会社西建工業,,株式会社,山口県,熊毛郡田布施町,大字麻郷５７２番地２６,,35,343,7421513,,,,,,,2021-08-05,1,,,,,ニシケンコウギョウ,0
2177,7250003002879,新規,0,2021-08-05,2021-08-05,合同会社小田水産,,合同会社,山口県,萩市,大字椿東５３００番地,,35,204,7580011,,,,,,,2021-08-05,1,,,,,オダスイサン,0
2178,7260001035822,新規,0,2021-08-05,2021-08-05,株式会社三彩堂,,株式会社,岡山県,笠岡市,笠岡２９９６番地,,33,205,7140081,,,,,,,2021-08-05,1,,,,,サンサイドウ,0
2180,7260003003645,新規,0,2021-08-05,2021-08-05,合同会社ライズ,,合同会社,岡山県,岡山市南区,あけぼの町２３番１１号,,33,104,7028057,,,,,,,2021-08-05,1,,,,,ライズ,0
2181,7260005010953,新規,0,2021-08-05,2021-08-05,医療法人社団そが歯科クリニック,,その他の設立登記法人,岡山県,岡山市中区,赤田２３９番地１６,,33,102,7038231,,,,,,,2021-08-05,1,,,,,ソガシカクリニック,0
2188,7290001094048,新規,0,2021-08-05,2021-08-05,株式会社Ｄ＆Ｓパートナーズ,,株式会社,福岡県,福岡市中央区,赤坂１丁目１３番１０号,,40,133,8100042,,,,,,,2021-08-05,1,,,,,ディアンドエスパートナーズ,0
2189,7290001094139,新規,0,2021-08-05,2021-08-05,株式会社カインドサポート,,株式会社,福岡県,福岡市中央区,天神４丁目７番１１号クレアビル４Ｆ,,40,133,8100001,,,,,,,2021-08-05,1,,,,,カインドサポート,0
2201,7320003003589,新規,0,2021-08-05,2021-08-05,合同会社ヤモリプロジェクト,,合同会社,大分県,大分市,久原北１２番１号,,44,201,8700324,,,,,,,2021-08-05,1,,,,,ヤモリプロジェクト,0
2202,7330001028876,新規,0,2021-08-05,2021-08-05,株式会社ＨＡＮＡＳＵＫＥ,,株式会社,熊本県,熊本市中央区,出水８丁目１５番２７号,,43,101,8620941,,,,,,,2021-08-05,1,,,,,ハナスケ,0
2203,7330005010376,新規,0,2021-08-05,2021-08-05,一般社団法人コンクリートひび割れ補修・圧力調整注入工法協会,,その他の設立登記法人,熊本県,熊本市東区,戸島西５丁目５番５７号,,43,102,8618043,,,,,,,2021-08-05,1,,,,,コンクリートヒビワレホシュウアツリョクチョウセイチュウニュウコウホウキョウカイ,0
2204,7340001023983,新規,0,2021-08-05,2021-08-05,株式会社豊晴ファーム,,株式会社,鹿児島県,志布志市,有明町野井倉１７３７番地１０,,46,221,8997402,,,,,,,2021-08-05,1,,,,,ホウバルファーム,0
2205,7340001023991,新規,0,2021-08-05,2021-08-05,株式会社ｐａｌｅｔｔｅ,,株式会社,鹿児島県,出水市,向江町２１番２６号,,46,208,8990206,,,,,,,2021-08-05,1,,,,,パレット,0
2207,7340003003513,新規,0,2021-08-05,2021-08-05,合同会社サツマプロ,,合同会社,鹿児島県,鹿児島市,原良１丁目１６番２２原良第一マンション５０７号,,46,201,8900026,,,,,,,2021-08-05,1,,,,,サツマプロ,0
2208,7350001017241,新規,0,2021-08-05,2021-08-05,株式会社Ｈ．Ｉ．Ｈ．リノベーション,,株式会社,宮崎県,都城市,高木町４７３２番地５,,45,202,8850003,,,,,,,2021-08-05,1,,,,,エイチアイエイチリノベーション,0
2212,7360001029194,新規,0,2021-08-05,2021-08-05,株式会社ＬｉｎｅＢｏａｔ．ｅｘｐ,,株式会社,沖縄県,豊見城市,字豊崎１番地１２５,,47,212,9010225,,,,,,,2021-08-05,1,,,,,ラインボートエキスプレス,0
2218,7370001047435,新規,0,2021-08-05,2021-08-05,小野総業株式会社,,株式会社,宮城県,仙台市宮城野区,白鳥１丁目８番１４号,,04,102,9830006,,,,,,,2021-08-05,1,,,,,オノソウギョウ,0
2219,7370001047451,新規,0,2021-08-05,2021-08-05,株式会社Ｔｒｕｓｔ,,株式会社,宮城県,仙台市泉区,鶴が丘２丁目８番地の６,,04,105,9813109,,,,,,,2021-08-05,1,,,,,トラスト,0
2220,7370003005325,新規,0,2021-08-05,2021-08-05,合同会社中央建希,,合同会社,宮城県,富谷市,とちの木２丁目６番１６号,,04,216,9813312,,,,,,,2021-08-05,1,,,,,チュウオウケンキ,0
2221,7370003005333,新規,0,2021-08-05,2021-08-05,合同会社ＳＯＵＡＩ,,合同会社,宮城県,登米市,南方町瀬川２９番地１,,04,212,9870422,,,,,,,2021-08-05,1,,,,,ソウアイ,0
2227,7390001016553,新規,0,2021-08-05,2021-08-05,株式会社ＴＭＫ,,株式会社,山形県,米沢市,下花沢１丁目１１番５－５号,,06,202,9920023,,,,,,,2021-08-05,1,,,,,ティーエムケー,0
2244,7450001013437,新規,0,2021-08-05,2021-08-05,株式会社デプロイネイチャー,,株式会社,北海道,紋別郡西興部村,字上興部１２１番地,,01,562,0981421,,,,,,,2021-08-05,1,,,,,デプロイネイチャー,0
2250,7480001011454,新規,0,2021-08-05,2021-08-05,株式会社かもな,,株式会社,徳島県,徳島市,名東町１丁目２０３－１,,36,201,7700047,,,,,,,2021-08-05,1,,,,,カモナ,0
2252,7480003001701,新規,0,2021-08-05,2021-08-05,日本人財サポート合同会社,,合同会社,徳島県,吉野川市,鴨島町鴨島１６１番地５,,36,205,7760010,,,,,,,2021-08-05,1,,,,,ニホンジンザイサポート,0
2253,7490001009943,新規,0,2021-08-05,2021-08-05,株式会社オートノーブル,,株式会社,高知県,高知市,葛島４丁目８番２２号,,39,201,7818121,,,,,,,2021-08-05,1,,,,,オートノーブル,0
2254,7490001009951,新規,0,2021-08-05,2021-08-05,ｃ－パステル株式会社,,株式会社,高知県,高知市,北秦泉寺７４６番地１６,,39,201,7800022,,,,,,,2021-08-05,1,,,,,シーパステル,0
2270,8010001220175,新規,0,2021-08-05,2021-08-05,株式会社ダック・アンド・ポンダーズ,,株式会社,東京都,千代田区,外神田４丁目９番２号千住ビル５,,13,101,1010021,,,,,,,2021-08-05,1,,,,,ダックアンドポンダーズ,0
2271,8010001220183,新規,0,2021-08-05,2021-08-05,株式会社石田興業,,株式会社,東京都,文京区,小石川４丁目１３番９号,,13,105,1120002,,,,,,,2021-08-05,1,,,,,イシダコウギョウ,0
2272,8010001220217,新規,0,2021-08-05,2021-08-05,常盤橋アドバイザリー株式会社,,株式会社,東京都,中央区,日本橋室町１丁目１番４号,,13,102,1030022,,,,,,,2021-08-05,1,,,,,トキワバシアドバイザリー,0
2277,8010005033771,新規,0,2021-08-05,2021-08-05,一般社団法人ＡＰＧ　Ｈｏｌｄｉｎｇｓ,,その他の設立登記法人,東京都,千代田区,霞が関３丁目２番５号,,13,101,1000013,,,,,,,2021-08-05,1,,,,,エーピージーホールディングス,0
2278,8010103001746,新規,0,2021-08-05,2021-08-05,合同会社クラシゴト,,合同会社,東京都,八王子市,片倉町１０３９番地１９,,13,201,1920914,,,,,,,2021-08-05,1,,,,,クラシゴト,0
2285,8010401161911,新規,0,2021-08-05,2021-08-05,株式会社ＦＭＣ,,株式会社,東京都,港区,芝浦４丁目１９番１－４６１３号,,13,103,1080023,,,,,,,2021-08-05,1,,,,,エフエムシー,0
2290,8010403025858,新規,0,2021-08-05,2021-08-05,ＪＥＣＴ８１合同会社,,合同会社,東京都,港区,南青山２丁目２番１５号,,13,103,1070062,,,,,,,2021-08-05,1,,,,,ジェクトエイティーワン,0
2291,8010501047630,新規,0,2021-08-05,2021-08-05,株式会社Ａ　ｔｏｐ　ｃｏｒｐｏｒａｔｉｏｎ,,株式会社,東京都,台東区,東上野１丁目１８－４,,13,106,1100015,,,,,,,2021-08-05,1,,,,,エートップコーポレーション,0
2292,8010501047647,新規,0,2021-08-05,2021-08-05,株式会社パートナー,,株式会社,東京都,台東区,松が谷１丁目４番４号中央スカイビル４Ｆ,,13,106,1110036,,,,,,,2021-08-05,1,,,,,パートナー,0
2294,8010601059757,新規,0,2021-08-05,2021-08-05,ＴＭＲグループ株式会社,,株式会社,東京都,江東区,常盤２丁目４番３号,,13,108,1350006,,,,,,,2021-08-05,1,,,,,ティーエムアールグループ,0
2295,8010603009082,新規,0,2021-08-05,2021-08-05,合同会社ＢＩＧ　ＳＵＲＰＲＩＳＥ,,合同会社,東京都,江東区,豊洲２丁目５番１号,,13,108,1350061,,,,,,,2021-08-05,1,,,,,ビッグサプライズ,0
2300,8010701041350,新規,0,2021-08-05,2021-08-05,株式会社ケープラス,,株式会社,東京都,品川区,南品川６丁目４番１号,,13,109,1400004,,,,,,,2021-08-05,1,,,,,ケープラス,0
2305,8010901049210,新規,0,2021-08-05,2021-08-05,コンパスポイント株式会社,,株式会社,東京都,世田谷区,北沢１丁目３８番１４号しょうわ下北ビル２階スタートアップしもきた,,13,112,1550031,,,,,,,2021-08-05,1,,,,,コンパスポイント,0
2306,8010901049219,新規,0,2021-08-05,2021-08-05,ＢＩＢＬＩＣＫ株式会社,,株式会社,東京都,世田谷区,桜新町２丁目５－２１桜新町さざんかハウス２０１,,13,112,1540015,,,,,,,2021-08-05,1,,,,,バイブリック,0
2312,8011001142070,新規,0,2021-08-05,2021-08-05,株式会社ｏｎｅ,,株式会社,東京都,渋谷区,円山町５番１８号道玄坂スクエア８０１,,13,113,1500044,,,,,,,2021-08-05,1,,,,,ワン,0
2313,8011001142104,新規,0,2021-08-05,2021-08-05,株式会社ＣａｆｅＣｒｅａｔｅｓ,,株式会社,東京都,渋谷区,円山町５番５号Ｎａｖｉ渋谷Ｖ３階,,13,113,1500044,,,,,,,2021-08-05,1,,,,,カフェクリエイツ,0
2317,8011101095920,新規,0,2021-08-05,2021-08-05,Ａｆｒｏ　ｓｐｉｃｅ株式会社,,株式会社,東京都,新宿区,新宿１丁目１４番２号,,13,104,1600022,,,,,,,2021-08-05,1,,,,,アフロスパイス,0
2318,8011201023161,新規,0,2021-08-05,2021-08-05,ムジカライズ株式会社,,株式会社,東京都,中野区,弥生町２丁目４１番１７号,,13,114,1640013,,,,,,,2021-08-05,1,,,,,ムジカライズ,0
2324,8011403003399,新規,0,2021-08-05,2021-08-05,合同会社１３２,,合同会社,東京都,板橋区,板橋１丁目４９番１４号プリベーラ板橋４０２,,13,119,1730004,,,,,,,2021-08-05,1,,,,,イチサンニ,0
2326,8011501027192,新規,0,2021-08-05,2021-08-05,株式会社パレハ,,株式会社,東京都,北区,滝野川６丁目６６番５号,,13,117,1140023,,,,,,,2021-08-05,1,,,,,パレハ,0
2327,8011501027201,新規,0,2021-08-05,2021-08-05,株式会社ＭＲ　ＴＪ２Ｇ,,株式会社,東京都,北区,田端４丁目１番１１－５０２号クレールビル,,13,117,1140014,,,,,,,2021-08-05,1,,,,,エムアールティージェートゥージー,0
2329,8011503004850,新規,0,2021-08-05,2021-08-05,合同会社Ｆａｎｔａｓｙ　Ｆａｃｔｏｒｙ,,合同会社,東京都,北区,浮間１丁目１番１４号リムジンビル３１９,,13,117,1150051,,,,,,,2021-08-05,1,,,,,ファンタジーファクトリー,0
2330,8011505002415,新規,0,2021-08-05,2021-08-05,一般社団法人東灌森稲荷神社,,その他の設立登記法人,東京都,北区,東田端１丁目１１番１号,,13,117,1140013,,,,,,,2021-08-05,1,,,,,トウカンモリイナリジンジャ,0
2332,8011601025303,新規,0,2021-08-05,2021-08-05,リックインダストリー株式会社,,株式会社,東京都,練馬区,中村南１丁目３３番１９－２０６号,,13,120,1760025,,,,,,,2021-08-05,1,,,,,リックインダストリー,0
2333,8011603003364,新規,0,2021-08-05,2021-08-05,合同会社ＯＺ,,合同会社,東京都,練馬区,東大泉１丁目１０番１８号,,13,120,1780063,,,,,,,2021-08-05,1,,,,,オーズィー,0
2335,8011701024618,新規,0,2021-08-05,2021-08-05,株式会社グリーン＆ゴールド,,株式会社,東京都,江戸川区,興宮町２６番１０号,,13,123,1330042,,,,,,,2021-08-05,1,,,,,グリーンアンドゴールド,0
2337,8011801039532,新規,0,2021-08-05,2021-08-05,株式会社Ｗｏｎｄｅｒ,,株式会社,東京都,葛飾区,東新小岩７丁目６番６号,,13,122,1240023,,,,,,,2021-08-05,1,,,,,ワンダー,0
2338,8011801039540,新規,0,2021-08-05,2021-08-05,株式会社Ｙ＆Ｋ,,株式会社,東京都,足立区,鹿浜７丁目１５番４号,,13,121,1230864,,,,,,,2021-08-05,1,,,,,ワイアンドケイ,0
2340,8011803004732,新規,0,2021-08-05,2021-08-05,合同会社プライマルケア,,合同会社,東京都,葛飾区,立石８丁目４４－１５飯島方,,13,122,1240012,,,,,,,2021-08-05,1,,,,,プライマルケア,0
2345,8012703002280,新規,0,2021-08-05,2021-08-05,ｃｉａｏ　ｅｍ　ｃａｆｅ合同会社,,合同会社,東京都,小平市,花小金井南町１丁目２７番１１号,,13,211,1870003,,,,,,,2021-08-05,1,,,,,チャオエムカフェ,0
2346,8012801020993,新規,0,2021-08-05,2021-08-05,株式会社Ｂｌｏｏｍ,,株式会社,東京都,立川市,高松町３丁目２６番１６号,,13,202,1900011,,,,,,,2021-08-05,1,,,,,ブルーム,0
2347,8012801021001,新規,0,2021-08-05,2021-08-05,株式会社アルブル企画,,株式会社,東京都,国立市,富士見台２丁目３５番地の２,,13,215,1860003,,,,,,,2021-08-05,1,,,,,アルブルキカク,0
2350,8013301047833,新規,0,2021-08-05,2021-08-05,Ｅｘパートナーズ株式会社,,株式会社,東京都,豊島区,西池袋２丁目２７番８号パールメゾンサカエ１０１号,,13,116,1710021,,,,,,,2021-08-05,1,,,,,イーエックスパートナーズ,0
2351,8013301047841,新規,0,2021-08-05,2021-08-05,株式会社Ｋｅｎｔｅｋｉ,,株式会社,東京都,豊島区,南長崎２丁目１８番１３号クレッセント椎名町１１１号,,13,116,1710052,,,,,,,2021-08-05,1,,,,,ケンテキ,0
2356,8020001142492,新規,0,2021-08-05,2021-08-05,株式会社ノースウェルズファーム,,株式会社,神奈川県,横浜市瀬谷区,三ツ境８番地１北井産業ビル３Ｆ,,14,114,2460022,,,,,,,2021-08-05,1,,,,,ノースウェルズファーム,0
2357,8020001142534,新規,0,2021-08-05,2021-08-05,株式会社ＨＡＲＥ,,株式会社,神奈川県,横浜市中区,野毛町２丁目７８番地,,14,104,2310064,,,,,,,2021-08-05,1,,,,,ハレ,0
2360,8020003020283,新規,0,2021-08-05,2021-08-05,合同会社エスレコ,,合同会社,神奈川県,横浜市港南区,港南３丁目２０番１３号,,14,111,2330003,,,,,,,2021-08-05,1,,,,,エスレコ,0
2365,8021001073587,新規,0,2021-08-05,2021-08-05,株式会社ワンズホープ,,株式会社,神奈川県,藤沢市,辻堂２丁目４番２９－３０２号,,14,205,2510047,,,,,,,2021-08-05,1,,,,,ワンズホープ,0
2366,8021001073612,新規,0,2021-08-05,2021-08-05,ゴールデンウェーブテクノロジー株式会社,,株式会社,神奈川県,平塚市,高根６番地の１－５１３号,,14,203,2540912,,,,,,,2021-08-05,1,,,,,ゴールデンウェーブテクノロジー,0
2368,8021003010761,新規,0,2021-08-05,2021-08-05,合同会社ケイエムクラフト,,合同会社,神奈川県,中郡二宮町,緑が丘１丁目６番地の４,,14,342,2590132,,,,,,,2021-08-05,1,,,,,ケイエムクラフト,0
2370,8030001143622,新規,0,2021-08-05,2021-08-05,株式会社ＧＨＡＮＩ　ＴＲＡＤＩＮＧ,,株式会社,埼玉県,加須市,阿良川３２４番地,,11,210,3470047,,,,,,,2021-08-05,1,,,,,ガニトレーディング,0
2371,8030001143671,新規,0,2021-08-05,2021-08-05,株式会社トムフーズ,,株式会社,埼玉県,越谷市,北越谷１丁目２番１１号,,11,222,3430026,,,,,,,2021-08-05,1,,,,,トムフーズ,0
2372,8030001143688,新規,0,2021-08-05,2021-08-05,ユミーナエステート株式会社,,株式会社,埼玉県,鶴ヶ島市,大字藤金８５１番地３０,,11,241,3502206,,,,,,,2021-08-05,1,,,,,ユミーナエステート,0
2373,8030001143705,新規,0,2021-08-05,2021-08-05,株式会社夏翔,,株式会社,埼玉県,春日部市,増富２４２番地４,,11,214,3440041,,,,,,,2021-08-05,1,,,,,カショウ,0
2382,8030003017725,新規,0,2021-08-05,2021-08-05,合同会社トムス,,合同会社,埼玉県,さいたま市南区,大字大谷口１３７１番地５,,11,108,3360042,,,,,,,2021-08-05,1,,,,,トムス,0
2383,8040001119621,新規,0,2021-08-05,2021-08-05,放射線測定計算株式会社,,株式会社,千葉県,市川市,高谷１丁目７番１１号,,12,203,2720013,,,,,,,2021-08-05,1,,,,,ホウシャセンソクテイケイサン,0
2384,8040001119695,新規,0,2021-08-05,2021-08-05,株式会社Ｋ・Ｋ・Ｄ,,株式会社,千葉県,印旛郡酒々井町,ふじき野１丁目１２番地２,,12,322,2850928,,,,,,,2021-08-05,1,,,,,ケーケーディー,0
2385,8040001119712,新規,0,2021-08-05,2021-08-05,リコプラス株式会社,,株式会社,千葉県,千葉市中央区,中央３丁目３番１号,,12,101,2600013,,,,,,,2021-08-05,1,,,,,リコプラス,0
2386,8040003018292,新規,0,2021-08-05,2021-08-05,ＳＵＮＲＩＳＥ合同会社,,合同会社,千葉県,八千代市,八千代台東１丁目４１－８コーポ・サンライズ１０３,,12,221,2760032,,,,,,,2021-08-05,1,,,,,サンライズ,0
2388,8050001049636,新規,0,2021-08-05,2021-08-05,株式会社ティーケープランニング,,株式会社,茨城県,取手市,戸頭１０４６番地１２,,08,217,3020034,,,,,,,2021-08-05,1,,,,,ティーケープランニング,0
2389,8050001049644,新規,0,2021-08-05,2021-08-05,株式会社アセッツ,,株式会社,茨城県,水戸市,大塚町８３８番地の２,00123846,08,201,3114143,,,,,,,2021-08-05,1,,,,,アセッツ,0
2390,8050001049652,新規,0,2021-08-05,2021-08-05,Ｒ－ＦＡＣＴＯＲＹ株式会社,,株式会社,茨城県,牛久市,牛久町８８１番地３,,08,219,3001221,,,,,,,2021-08-05,1,,,,,アールファクトリー,0
2391,8050001049660,新規,0,2021-08-05,2021-08-05,株式会社ほしいも工房ふたかわ,,株式会社,茨城県,ひたちなか市,大字三反田９０４番地１,,08,221,3120021,,,,,,,2021-08-05,1,,,,,ホシイモコウボウフタカワ,0
2392,8050001049669,新規,0,2021-08-05,2021-08-05,イコット株式会社,,株式会社,茨城県,神栖市,平泉東２丁目２番地４,,08,232,3140145,,,,,,,2021-08-05,1,,,,,イコット,0
2394,8060001033952,新規,0,2021-08-05,2021-08-05,株式会社パッソカンパニー,,株式会社,栃木県,足利市,中川町３６３６番地２９,,09,202,3260825,,,,,,,2021-08-05,1,,,,,パッソカンパニー,0
2395,8060001033977,新規,0,2021-08-05,2021-08-05,株式会社ＡＸＩＡ,,株式会社,栃木県,宇都宮市,陽東５丁目１０番２８号,,09,201,3210904,,,,,,,2021-08-05,1,,,,,アクシア,0
2402,8080005007389,新規,0,2021-08-05,2021-08-05,土地家屋調査士法人おさだ,,その他の設立登記法人,静岡県,静岡市駿河区,青木８０２番地の１,,22,102,4210134,,,,,,,2021-08-05,1,,,,,オサダ,0
2405,8080101022696,新規,0,2021-08-05,2021-08-05,株式会社西富士クレーン,,株式会社,静岡県,富士宮市,豊町７番５号,,22,207,4180068,,,,,,,2021-08-05,1,,,,,ニシフジクレーン,0
2408,8080401025234,新規,0,2021-08-05,2021-08-05,あまねキャリア株式会社,,株式会社,静岡県,浜松市中区,高林１丁目８番４３号ＴｈｅＧａｒａｇｅ内,,22,131,4300907,,,,,,,2021-08-05,1,,,,,アマネキャリア,0
2409,8080401025250,新規,0,2021-08-05,2021-08-05,株式会社おうちの窓口,,株式会社,静岡県,浜松市南区,本郷町１３５６番地の４,,22,134,4300812,,,,,,,2021-08-05,1,,,,,オウチノマドグチ,0
2413,8100001034491,新規,0,2021-08-05,2021-08-05,株式会社エフケン,,株式会社,長野県,東御市,和３５４８番地１３,,20,219,3890505,,,,,,,2021-08-05,1,,,,,エフケン,0
2415,8100003006191,新規,0,2021-08-05,2021-08-05,イブキ合同会社,,合同会社,長野県,上伊那郡宮田村,４７５１番地７５,,20,388,3994301,,,,,,,2021-08-05,1,,,,,イブキ,0
2417,8110001035951,新規,0,2021-08-05,2021-08-05,株式会社大花,,株式会社,新潟県,新潟市東区,猿ケ馬場２丁目４６３番地７,,15,102,9500835,,,,,,,2021-08-05,1,,,,,オオカ,0
2431,8120001239469,新規,0,2021-08-05,2021-08-05,株式会社ＴＲＤ,,株式会社,大阪府,大阪市淀川区,田川北１丁目１１番３号,,27,123,5320021,,,,,,,2021-08-05,1,,,,,ティーアールディー,0
2432,8120001239502,新規,0,2021-08-05,2021-08-05,株式会社ｚ．ｅ．ｎオオヨド,,株式会社,大阪府,大阪市都島区,友渕町３丁目７番５－５０３号,,27,102,5340016,,,,,,,2021-08-05,1,,,,,ゼットイーエヌオオヨド,0
2441,8120101064073,新規,0,2021-08-05,2021-08-05,株式会社ナガオ,,株式会社,大阪府,松原市,高見の里６丁目２５番３０号,,27,217,5800021,,,,,,,2021-08-05,1,,,,,ナガオ,0
2442,8120101064107,新規,0,2021-08-05,2021-08-05,株式会社超健,,株式会社,大阪府,藤井寺市,小山７丁目２２番１７号,,27,226,5830033,,,,,,,2021-08-05,1,,,,,チョウケン,0
2446,8120103004283,新規,0,2021-08-05,2021-08-05,合同会社ＮＡＹＵＴＡ,,合同会社,大阪府,松原市,阿保６丁目７番１１－２０２号,,27,217,5800043,,,,,,,2021-08-05,1,,,,,ナユタ,0
2454,8130001069840,新規,0,2021-08-05,2021-08-05,明城環境株式会社,,株式会社,京都府,宇治市,槇島町南落合３番地の７３,,26,204,6110041,,,,,,,2021-08-05,1,,,,,ミョウジョウカンキョウ,0
2455,8130001069881,新規,0,2021-08-05,2021-08-05,株式会社一義産業,,株式会社,京都府,京都市南区,久世大築町２１番地１５,,26,107,6018202,,,,,,,2021-08-05,1,,,,,イチギサンギョウ,0
2456,8130003007402,新規,0,2021-08-05,2021-08-05,満晴貿易合同会社,,合同会社,京都府,京田辺市,同志社山手１丁目５番地１３,,26,211,6100315,,,,,,,2021-08-05,1,,,,,ミツハルボウエキ,0
2463,8140001122549,新規,0,2021-08-05,2021-08-05,株式会社ファースト設備,,株式会社,兵庫県,神戸市兵庫区,塚本通８丁目１番２９－３０８号,,28,105,6520804,,,,,,,2021-08-05,1,,,,,ファーストセツビ,0
2464,8140001122581,新規,0,2021-08-05,2021-08-05,株式会社ＰｌｕｓＵｌｔｒａ,,株式会社,兵庫県,神戸市東灘区,田中町１丁目１５番７号パールビル５０３号,,28,101,6580081,,,,,,,2021-08-05,1,,,,,プルスウルトラ,0
2465,8140001122598,新規,0,2021-08-05,2021-08-05,株式会社ＶＩＳＨＯＰ,,株式会社,兵庫県,神戸市中央区,琴ノ緒町５丁目５番９号フューチャービル３階３０２号室,,28,110,6510094,,,,,,,2021-08-05,1,,,,,ビショップ,0
2466,8140001122607,新規,0,2021-08-05,2021-08-05,株式会社フォーベル,,株式会社,兵庫県,姫路市,広畑区東新町１丁目４０日曜大工センタービル２Ｆ,,28,201,6711121,,,,,,,2021-08-05,1,,,,,フォーベル,0
2467,8140001122623,新規,0,2021-08-05,2021-08-05,株式会社ＭｏｎｔＢｌａｎｃ,,株式会社,兵庫県,川西市,鼓が滝３丁目１１番７号,,28,217,6660123,,,,,,,2021-08-05,1,,,,,モンブラン,0
2468,8140001122631,新規,0,2021-08-05,2021-08-05,株式会社ＰｏｉｓｏｎＧａｍｅｓ,,株式会社,兵庫県,加古川市,尾上町池田６２４番地の１０５,,28,210,6750023,,,,,,,2021-08-05,1,,,,,ポイズンゲームス,0
2470,8140003016617,新規,0,2021-08-05,2021-08-05,ＴＫインベスト合同会社,,合同会社,兵庫県,たつの市,誉田町片吹１３６番地１,,28,229,6794137,,,,,,,2021-08-05,1,,,,,ティーケーインベスト,0
2471,8160001023530,新規,0,2021-08-05,2021-08-05,ＳＩＫＡ　ＡＵＴＯ株式会社,,株式会社,滋賀県,大津市,荒川５７０番２,,25,201,5200513,,,,,,,2021-08-05,1,,,,,シカオート,0
2486,8180001147237,新規,0,2021-08-05,2021-08-05,株式会社Ｊ・Ｉ・Ｐ,,株式会社,愛知県,名古屋市北区,石園町２丁目２４番地の８,,23,103,4620855,,,,,,,2021-08-05,1,,,,,ジェイアイピー,0
2487,8180001147311,新規,0,2021-08-05,2021-08-05,株式会社ＴＲＯＮＣＯ,,株式会社,愛知県,半田市,乙川太田町２丁目１０６番地の３,,23,205,4750041,,,,,,,2021-08-05,1,,,,,トロンコ,0
2488,8180001147336,新規,0,2021-08-05,2021-08-05,株式会社わさび,,株式会社,愛知県,半田市,東本町１丁目１－１,,23,205,4750878,,,,,,,2021-08-05,1,,,,,ワサビ,0
2489,8180001147352,新規,0,2021-08-05,2021-08-05,Ａｌｔｉｓｓｉｍｏ株式会社,,株式会社,愛知県,名古屋市中区,錦１丁目５番１１号名古屋伊藤忠ビル４階,,23,106,4600003,,,,,,,2021-08-05,1,,,,,アルティッシモ,0
2494,8180301035249,新規,0,2021-08-05,2021-08-05,株式会社ＯＲＯ,,株式会社,愛知県,刈谷市,下重原町５丁目１２番地１,,23,210,4480024,,,,,,,2021-08-05,1,,,,,オーアールオー,0
2495,8180301035257,新規,0,2021-08-05,2021-08-05,株式会社ケンゾウジャパン,,株式会社,愛知県,豊橋市,東脇４丁目２４番地２,,23,201,4418083,,,,,,,2021-08-05,1,,,,,ケンゾウジャパン,0
2503,8190005011611,新規,0,2021-08-05,2021-08-05,一般社団法人リッチェフラワースマイルズジャパン,,その他の設立登記法人,三重県,いなべ市,大安町梅戸２０９３プロミネントＤＡＩＡＮ,,24,214,5110284,,,,,,,2021-08-05,1,,,,,リッチェフラワースマイルズジャパン,0
2504,8200001038978,新規,0,2021-08-05,2021-08-05,株式会社トラストテック,,株式会社,岐阜県,高山市,松本町８０番地１,,21,203,5060808,,,,,,,2021-08-05,1,,,,,トラストテック,0
2505,8200001038986,新規,0,2021-08-05,2021-08-05,ＴＭエステート株式会社,,株式会社,岐阜県,大垣市,新開町９７番地６,,21,202,5030004,,,,,,,2021-08-05,1,,,,,ティーエムエステート,0
2512,8220001024340,新規,0,2021-08-05,2021-08-05,セブン・アーク株式会社,,株式会社,石川県,白山市,平木町４０２番地１,,17,210,9240026,,,,,,,2021-08-05,1,,,,,セブンアーク,0
2513,8220003003094,新規,0,2021-08-05,2021-08-05,不動開発合同会社,,合同会社,石川県,河北郡内灘町,字アカシア１丁目９９番地,,17,365,9200273,,,,,,,2021-08-05,1,,,,,フドウカイハツ,0
2519,8230003001709,新規,0,2021-08-05,2021-08-05,合同会社ＬＬビーンズ,,合同会社,富山県,富山市,掛尾町４６８番地,,16,201,9398212,,,,,,,2021-08-05,1,,,,,エルエルビーンズ,0
2524,8240001058378,新規,0,2021-08-05,2021-08-05,株式会社宮光,,株式会社,広島県,安芸高田市,吉田町上入江２０８０番地６,,34,214,7310532,,,,,,,2021-08-05,1,,,,,ミヤコウ,0
2525,8240001058386,新規,0,2021-08-05,2021-08-05,株式会社共信,,株式会社,広島県,安芸郡海田町,南堀川町５番２－１号,,34,304,7360044,,,,,,,2021-08-05,1,,,,,キョウシン,0
2526,8240001058394,新規,0,2021-08-05,2021-08-05,ファインライト株式会社,,株式会社,広島県,東広島市,西条町御薗宇６７９１番地,,34,212,7390024,,,,,,,2021-08-05,1,,,,,,0
2527,8240001058411,新規,0,2021-08-05,2021-08-05,株式会社ＴＯＭｉＣＬＥ,,株式会社,広島県,呉市,三条２丁目１番１－１１０１号,,34,202,7370821,,,,,,,2021-08-05,1,,,,,トミクル,0
2536,8250001019040,新規,0,2021-08-05,2021-08-05,株式会社ＩＦ,,株式会社,山口県,下松市,栄町１丁目６番２１号,,35,207,7440013,,,,,,,2021-08-05,1,,,,,イフ,0
2537,8250001019049,新規,0,2021-08-05,2021-08-05,株式会社音和,,株式会社,山口県,山陽小野田市,日の出１丁目１１番１８－９０５号,,35,216,7560091,,,,,,,2021-08-05,1,,,,,オンワ,0
2539,8250003002878,新規,0,2021-08-05,2021-08-05,合同会社ＫｔＦ,,合同会社,山口県,宇部市,黒石北２丁目４番２６号,,35,202,7590213,,,,,,,2021-08-05,1,,,,,ケーティーエフ,0
2540,8260001035838,新規,0,2021-08-05,2021-08-05,株式会社丸尾ライスセンター,,株式会社,岡山県,美作市,三保原７２４番地３,,33,215,7012603,,,,,,,2021-08-05,1,,,,,マルオライスセンター,0
2554,8310001017401,新規,0,2021-08-05,2021-08-05,株式会社絆志ボーリング工業,,株式会社,長崎県,長崎市,つつじが丘５丁目３番４１号,,42,201,8510102,,,,,,,2021-08-05,1,,,,,ハンジボーリングコウギョウ,0
2559,8330001028891,新規,0,2021-08-05,2021-08-05,株式会社食プロ,,株式会社,熊本県,熊本市西区,田崎町４８４番地の１０,,43,103,8600058,,,,,,,2021-08-05,1,,,,,ショクプロ,0
2562,8350001017240,新規,0,2021-08-05,2021-08-05,株式会社Ｒｅｖｉｖｅ．Ｒ,,株式会社,宮崎県,都城市,山田町中霧島３１５６番地１,,45,202,8894602,,,,,,,2021-08-05,1,,,,,リバイブドットアール,0
2565,8360001029193,新規,0,2021-08-05,2021-08-05,株式会社おおぎみファーム,,株式会社,沖縄県,国頭郡大宜味村,字喜如嘉４３６番地,,47,302,9051303,,,,,,,2021-08-05,1,,,,,オオギミファーム,0
2566,8360001029202,新規,0,2021-08-05,2021-08-05,ＫＩＫＩＭＯＮＯ株式会社,,株式会社,沖縄県,うるま市,字具志川２９９５－２,,47,213,9042223,,,,,,,2021-08-05,1,,,,,キキモノ,0
2567,8360003011348,新規,0,2021-08-05,2021-08-05,合同会社はるあき,,合同会社,沖縄県,那覇市,字国場１０７２番地１、２階,,47,201,9020075,,,,,,,2021-08-05,1,,,,,ハルアキ,0
2571,8370001047434,新規,0,2021-08-05,2021-08-05,株式会社ＹＳパートナーズ,,株式会社,宮城県,仙台市宮城野区,二十人町３０４番地８ライオンズマンション二十人町２Ｆ,,04,102,9830862,,,,,,,2021-08-05,1,,,,,ワイエスパートナーズ,0
2572,8370001047442,新規,0,2021-08-05,2021-08-05,株式会社ＧＬＡＵＧＨＴＵＲＥ,,株式会社,宮城県,仙台市宮城野区,扇町１丁目５番４号,,04,102,9830034,,,,,,,2021-08-05,1,,,,,グラフチャー,0
2573,8370001047450,新規,0,2021-08-05,2021-08-05,株式会社クリエイト,,株式会社,宮城県,仙台市太白区,西多賀４丁目２６番３５号,,04,104,9820034,,,,,,,2021-08-05,1,,,,,クリエイト,0
2574,8370001047459,新規,0,2021-08-05,2021-08-05,株式会社ｏｎｅ’ｓ　ｈｅａｒｔｓ,,株式会社,宮城県,仙台市太白区,四郎丸字戸ノ内４７番地の４,,04,104,9811101,,,,,,,2021-08-05,1,,,,,ワンズハーツ,0
2578,8380001032088,新規,0,2021-08-05,2021-08-05,株式会社ｌａｎｄｅｄ,,株式会社,福島県,田村郡三春町,桜ケ丘３丁目３番地の１１,,07,521,9637711,,,,,,,2021-08-05,1,,,,,ランデッド,0
2579,8380001032096,新規,0,2021-08-05,2021-08-05,ｎｉｃｏ株式会社,,株式会社,福島県,須賀川市,森宿字坪ノ内１６１番地７７,,07,207,9620001,,,,,,,2021-08-05,1,,,,,ニコ,0
2587,8430001084636,新規,0,2021-08-05,2021-08-05,株式会社ホクサン,,株式会社,北海道,古宇郡神恵内村,大字珊内村４番地３,,01,404,0450303,,,,,,,2021-08-05,1,,,,,ホクサン,0
2601,8480001011453,新規,0,2021-08-05,2021-08-05,株式会社シーサウス,,株式会社,徳島県,海部郡海陽町,多良字庄田３６番地５,,36,388,7750204,,,,,,,2021-08-05,1,,,,,シーサウス,0
2621,9010001220174,新規,0,2021-08-05,2021-08-05,鴨池株式会社,,株式会社,東京都,千代田区,外神田４丁目９番２号千住ビル５,,13,101,1010021,,,,,,,2021-08-05,1,,,,,カモイケ,0
2622,9010001220182,新規,0,2021-08-05,2021-08-05,ＡＩＣＲＯ株式会社,,株式会社,東京都,千代田区,一番町６番地相模屋本社ビル７Ｆ,,13,101,1020082,,,,,,,2021-08-05,1,,,,,アイクロ,0
2623,9010001220208,新規,0,2021-08-05,2021-08-05,株式会社エルグブレイン,,株式会社,東京都,中央区,銀座１丁目１９番１２号,,13,102,1040061,,,,,,,2021-08-05,1,,,,,エルグブレイン,0
2624,9010001220224,新規,0,2021-08-05,2021-08-05,株式会社Ｒｏｏｔ,,株式会社,東京都,中央区,銀座１丁目２３番２号,,13,102,1040061,,,,,,,2021-08-05,1,,,,,ルート,0
2625,9010001220257,新規,0,2021-08-05,2021-08-05,株式会社フュージョンプラス,,株式会社,東京都,千代田区,二番町１１－１７－３０１,,13,101,1020084,,,,,,,2021-08-05,1,,,,,フュージョンプラス,0
2626,9010001220265,新規,0,2021-08-05,2021-08-05,株式会社医療健康科学研究所,,株式会社,東京都,千代田区,三番町５番地１９ザ・パークハウスグラン三番町１５０２,,13,101,1020075,,,,,,,2021-08-05,1,,,,,イリョウケンコウカガクケンキュウショ,0
2632,9010401161927,新規,0,2021-08-05,2021-08-05,株式会社コミュニケーションラボ,,株式会社,東京都,港区,浜松町２丁目２番１５号浜松町ダイヤビル２Ｆ,,13,103,1050013,,,,,,,2021-08-05,1,,,,,コミュニケーションラボ,0
2635,9010601059756,新規,0,2021-08-05,2021-08-05,株式会社ティガ,,株式会社,東京都,墨田区,緑４丁目４０番１－４０５号,,13,107,1300021,,,,,,,2021-08-05,1,,,,,ティガ,0
2636,9010601059772,新規,0,2021-08-05,2021-08-05,株式会社ＨＩＤＥＭＡＳＡ,,株式会社,東京都,江東区,亀戸１丁目１１番５－８０１号,,13,108,1360071,,,,,,,2021-08-05,1,,,,,ヒデマサ,0
2637,9010603009081,新規,0,2021-08-05,2021-08-05,合同会社ｌｉｎｄｏ,,合同会社,東京都,墨田区,八広３丁目３７番９－４０１号,,13,107,1310041,,,,,,,2021-08-05,1,,,,,リンド,0
2639,9010701041358,新規,0,2021-08-05,2021-08-05,株式会社Ｑｕｌｕｍｉ,,株式会社,東京都,品川区,大井１丁目３１番１号,,13,109,1400014,,,,,,,2021-08-05,1,,,,,クルミ,0
2642,9010801032190,新規,0,2021-08-05,2021-08-05,株式会社ツナグ,,株式会社,東京都,大田区,東糀谷４丁目１０番４－４０４号,,13,111,1440033,,,,,,,2021-08-05,1,,,,,ツナグ,0
2643,9010801032199,新規,0,2021-08-05,2021-08-05,株式会社アーバンオフィス,,株式会社,東京都,大田区,西馬込２丁目１４番３号,,13,111,1430026,,,,,,,2021-08-05,1,,,,,アーバンオフィス,0
2645,9010901049168,新規,0,2021-08-05,2021-08-05,株式会社ｃｒａｆｔ　ｌｉｆｅ,,株式会社,東京都,世田谷区,用賀４丁目２８番２１号,,13,112,1580097,,,,,,,2021-08-05,1,,,,,クラフトライフ,0
2646,9010901049218,新規,0,2021-08-05,2021-08-05,株式会社紙和吉,,株式会社,東京都,世田谷区,代沢４丁目２３番１４号,,13,112,1550032,,,,,,,2021-08-05,1,,,,,カミワキチ,0
2648,9010903006712,新規,0,2021-08-05,2021-08-05,合同会社ＦＲＯＮＴＩＥＲＢＡＧ,,合同会社,東京都,世田谷区,駒沢４丁目３５番２号,,13,112,1540012,,,,,,,2021-08-05,1,,,,,フロンティアバッグ,0
2651,9011001142128,新規,0,2021-08-05,2021-08-05,株式会社星河,,株式会社,東京都,渋谷区,千駄ヶ谷３丁目５－５,,13,113,1510051,,,,,,,2021-08-05,1,,,,,セイガ,0
2655,9011201023160,新規,0,2021-08-05,2021-08-05,株式会社Ｕ,,株式会社,東京都,中野区,中央２丁目５３番２３号ＮＣＨＯＵＳＥ２０１,,13,114,1640011,,,,,,,2021-08-05,1,,,,,ユウ,0
2656,9011301027086,新規,0,2021-08-05,2021-08-05,和泉堂株式会社,,株式会社,東京都,杉並区,和泉２丁目４４番２２号,,13,115,1680063,,,,,,,2021-08-05,1,,,,,イズミドウ,0
2659,9011501027191,新規,0,2021-08-05,2021-08-05,株式会社ｉ・伝,,株式会社,東京都,荒川区,東日暮里３丁目４６番３号,,13,118,1160014,,,,,,,2021-08-05,1,,,,,アイデン,0
2660,9011701024609,新規,0,2021-08-05,2021-08-05,株式会社ＵＳＵＫＩ,,株式会社,東京都,江戸川区,東葛西１丁目４８番１号,,13,123,1340084,,,,,,,2021-08-05,1,,,,,ウスキ,0
2661,9011701024617,新規,0,2021-08-05,2021-08-05,ＧＵＲＵ　ＴＲＡＤＩＮＧ株式会社,,株式会社,東京都,江戸川区,大杉２丁目９－６,,13,123,1320022,,,,,,,2021-08-05,1,,,,,グルトレーディング,0
2663,9011801039531,新規,0,2021-08-05,2021-08-05,株式会社シーコム,,株式会社,東京都,足立区,東伊興１丁目１６番２２号,,13,121,1210801,,,,,,,2021-08-05,1,,,,,シーコム,0
2670,9012701016604,新規,0,2021-08-05,2021-08-05,株式会社たつま,,株式会社,東京都,西東京市,東伏見４丁目２番１８号,,13,229,2020021,,,,,,,2021-08-05,1,,,,,タツマ,0
2672,9013301047840,新規,0,2021-08-05,2021-08-05,株式会社スピリッツ,,株式会社,東京都,豊島区,池袋本町１丁目３３番１０号,,13,116,1700011,,,,,,,2021-08-05,1,,,,,スピリッツ,0
2678,9020001142459,新規,0,2021-08-05,2021-08-05,ＳＱＵＡＲＥ株式会社,,株式会社,神奈川県,横浜市都筑区,茅ケ崎中央２４番４号第六セキビル７０２,,14,118,2240032,,,,,,,2021-08-05,1,,,,,スクエア,0
2679,9020001142475,新規,0,2021-08-05,2021-08-05,株式会社アミノメ,,株式会社,神奈川県,川崎市中原区,上小田中３丁目２９番２－４５４号,,14,133,2110053,,,,,,,2021-08-05,1,,,,,アミノメ,0
2680,9020001142509,新規,0,2021-08-05,2021-08-05,株式会社ライムライト,,株式会社,神奈川県,横浜市旭区,白根２丁目３９番１２－２号,,14,112,2410005,,,,,,,2021-08-05,1,,,,,ライムライト,0
2684,9020003020274,新規,0,2021-08-05,2021-08-05,ＳＵＥＴＳＵＧＵ合同会社,,合同会社,神奈川県,横浜市栄区,飯島町１０８４番地３,,14,115,2440842,,,,,,,2021-08-05,1,,,,,スエツグ,0
2685,9020003020282,新規,0,2021-08-05,2021-08-05,合同会社多美,,合同会社,神奈川県,横浜市都筑区,茅ケ崎東１丁目４番３号,,14,118,2240033,,,,,,,2021-08-05,1,,,,,タミ,0
2688,9021001073603,新規,0,2021-08-05,2021-08-05,キャドワークス株式会社,,株式会社,神奈川県,海老名市,国分寺台１丁目５番７－２号,,14,215,2430413,,,,,,,2021-08-05,1,,,,,キャドワークス,0
2689,9021001073611,新規,0,2021-08-05,2021-08-05,株式会社昇己,,株式会社,神奈川県,横須賀市,佐原３丁目６番１６－１０１号,,14,201,2390835,,,,,,,2021-08-05,1,,,,,ショウキ,0
2692,9021003010760,新規,0,2021-08-05,2021-08-05,Ａｃｃｕｒａｔｉｏ合同会社,,合同会社,神奈川県,秦野市,渋沢２丁目４１番１５号,,14,211,2591322,,,,,,,2021-08-05,1,,,,,アクラティオ,0
2693,9021003010769,新規,0,2021-08-05,2021-08-05,合同会社ファミリータイズ,,合同会社,神奈川県,鎌倉市,手広４丁目３７番２２号,,14,204,2480036,,,,,,,2021-08-05,1,,,,,ファミリータイズ,0
2694,9021005012268,新規,0,2021-08-05,2021-08-05,一般社団法人うみかぜ公共嘱託登記土地家屋調査士協会,,その他の設立登記法人,神奈川県,横須賀市,久里浜７丁目１９番６号,,14,201,2390831,,,,,,,2021-08-05,1,,,,,ウミカゼコウキョウショクタクトウキトチカオクチョウサシキョウカイ,0
2703,9030001143687,新規,0,2021-08-05,2021-08-05,株式会社ネクサイト,,株式会社,埼玉県,久喜市,江面３９９番地１,,11,232,3460029,,,,,,,2021-08-05,1,,,,,ネクサイト,0
2704,9030001143712,新規,0,2021-08-05,2021-08-05,株式会社ハラダ,,株式会社,埼玉県,上尾市,本町２丁目１２番１８号,,11,219,3620014,,,,,,,2021-08-05,1,,,,,ハラダ,0
2705,9030001143720,新規,0,2021-08-05,2021-08-05,株式会社ＳＤＲ,,株式会社,埼玉県,さいたま市北区,宮原町３丁目３７６番地１－１３０２,,11,102,3310812,,,,,,,2021-08-05,1,,,,,エスディーアール,0
2706,9030001143729,新規,0,2021-08-05,2021-08-05,朝極株式会社,,株式会社,埼玉県,朝霞市,三原１丁目２番３０－４０６号,,11,227,3510025,,,,,,,2021-08-05,1,,,,,,0
2713,9040001119703,新規,0,2021-08-05,2021-08-05,下舞Ｆｏｏｄ　Ｓａｆｅｔｙ　Ｃｏｎｓｕｌｔｉｎｇ株式会社,,株式会社,千葉県,我孫子市,天王台２丁目１４番１７号,,12,222,2701143,,,,,,,2021-08-05,1,,,,,シモマイフードセイフティーコンサルティング,0
2722,9050001049668,新規,0,2021-08-05,2021-08-05,株式会社ＤｉｎｉｎｇＸ,,株式会社,茨城県,つくば市,大角豆２０１１番地２２８,,08,220,3050043,,,,,,,2021-08-05,1,,,,,ダイニングエックス,0
2724,9060001033976,新規,0,2021-08-05,2021-08-05,株式会社未佳コーポレーション,,株式会社,栃木県,宇都宮市,下岡本町４５２１番地１０,,09,201,3291104,,,,,,,2021-08-05,1,,,,,ミヨシコーポレーション,0
2731,9100001034499,新規,0,2021-08-05,2021-08-05,Ｅａｒｔｈｔｒａｅ株式会社,,株式会社,長野県,飯山市,南町１２番地９,,20,213,3892254,,,,,,,2021-08-05,1,,,,,アーストレイ,0
2733,9100003006199,新規,0,2021-08-05,2021-08-05,合同会社フォースネクスト,,合同会社,長野県,上伊那郡宮田村,６６９４番地,,20,388,3994301,,,,,,,2021-08-05,1,,,,,フォースネクスト,0
2742,9120001239476,新規,0,2021-08-05,2021-08-05,華美株式会社,,株式会社,大阪府,大阪市中央区,北久宝寺町１丁目７番９号,,27,128,5410057,,,,,,,2021-08-05,1,,,,,カミ,0
2743,9120001239501,新規,0,2021-08-05,2021-08-05,安富株式会社,,株式会社,大阪府,大阪市中央区,高津３丁目８番１９号スター・レジデンス黒門５０２,,27,128,5420072,,,,,,,2021-08-05,1,,,,,アンフク,0
2744,9120001239518,新規,0,2021-08-05,2021-08-05,株式会社ＬＯＢ,,株式会社,大阪府,大阪市中央区,平野町３丁目３番１０号浅野ビル３階,,27,128,5410046,,,,,,,2021-08-05,1,,,,,ロブ,0
2747,9120003019975,新規,0,2021-08-05,2021-08-05,合同会社ＶＥＮＴＵＳ,,合同会社,大阪府,大阪市西区,南堀江２丁目３－２４ＳＡＫＡＩ－ＢＭ南堀江７０３号室,,27,106,5500015,,,,,,,2021-08-05,1,,,,,ウェントゥス,0
2748,9120003019983,新規,0,2021-08-05,2021-08-05,レゾンデートル合同会社,,合同会社,大阪府,大阪市城東区,今福西１丁目７番２号１階,,27,118,5360004,,,,,,,2021-08-05,1,,,,,レゾンデートル,0
2755,9120005022432,新規,0,2021-08-05,2021-08-05,一般社団法人全国学生ＳＤＧｓプラットフォーム,,その他の設立登記法人,大阪府,大阪市北区,天満橋２丁目４番１３号,,27,127,5300042,,,,,,,2021-08-05,1,,,,,ゼンコクガクセイエスディージーズプラットフォーム,0
2756,9120101040131,新規,0,2021-08-05,2021-08-05,株式会社富士工業,,株式会社,大阪府,泉佐野市,鶴原１３１６番地の２０,,27,213,5980071,,,,,,,2021-08-05,1,,,,,フジコウギョウ,0
2757,9120101064080,新規,0,2021-08-05,2021-08-05,匠瓦葺工業株式会社,,株式会社,大阪府,泉佐野市,長滝２０５２番地の２,,27,213,5980034,,,,,,,2021-08-05,1,,,,,タクミカワラブキコウギョウ,0
2761,9120901044728,新規,0,2021-08-05,2021-08-05,株式会社瀧,,株式会社,大阪府,豊中市,蛍池中町四丁目３番１３号,,27,203,5600000,,,,,,,2021-08-05,1,,,,,タキ,0
2762,9122001035046,新規,0,2021-08-05,2021-08-05,株式会社ＧＲＯＷ,,株式会社,大阪府,東大阪市,山手町６番１４号,,27,227,5798022,,,,,,,2021-08-05,1,,,,,グロウ,0
2763,9122001035070,新規,0,2021-08-05,2021-08-05,株式会社ＡＬＥＴＥＯ　Ｍ,,株式会社,大阪府,大東市,深野３丁目２８番３号,,27,218,5740072,,,,,,,2021-08-05,1,,,,,アレテオエム,0
2770,9130001069856,新規,0,2021-08-05,2021-08-05,株式会社アグリ筒川,,株式会社,京都府,与謝郡伊根町,字菅野１１３０番地の１,,26,463,6260431,,,,,,,2021-08-05,1,,,,,アグリツツカワ,0
2771,9130001069864,新規,0,2021-08-05,2021-08-05,株式会社貴丸,,株式会社,京都府,京都市南区,上鳥羽南鉾立町１４番地２,,26,107,6018114,,,,,,,2021-08-05,1,,,,,タカマル,0
2772,9130001069872,新規,0,2021-08-05,2021-08-05,南山株式会社,,株式会社,京都府,京都市右京区,嵯峨鳥居本北代町５１－２,,26,108,6168432,,,,,,,2021-08-05,1,,,,,ナンザン,0
2773,9130001069880,新規,0,2021-08-05,2021-08-05,雅寧商事株式会社,,株式会社,京都府,京都市左京区,一乗寺地蔵本町３４番地２ファミールメゾンたけはし４Ｃ,,26,103,6068181,,,,,,,2021-08-05,1,,,,,マサネイショウジ,0
2776,9140001122580,新規,0,2021-08-05,2021-08-05,株式会社ＴＨＩＮＸ,,株式会社,兵庫県,加古川市,加古川町篠原町１３番地３,,28,210,6750065,,,,,,,2021-08-05,1,,,,,シンクス,0
2777,9140001122606,新規,0,2021-08-05,2021-08-05,Ｔアセット株式会社,,株式会社,兵庫県,神戸市中央区,江戸町１０４番地江戸町１０４ビル４階,,28,110,6500033,,,,,,,2021-08-05,1,,,,,ティーアセット,0
2778,9140001122614,新規,0,2021-08-05,2021-08-05,テン株式会社,,株式会社,兵庫県,神戸市中央区,熊内町７丁目３番１１－４０１号,,28,110,6510056,,,,,,,2021-08-05,1,,,,,テン,0
2785,9170001016714,新規,0,2021-08-05,2021-08-05,株式会社ウィズブレイン,,株式会社,和歌山県,和歌山市,数寄屋丁２番地１,,30,201,6408374,,,,,,,2021-08-05,1,,,,,ウィズブレイン,0
2796,9180001147293,新規,0,2021-08-05,2021-08-05,けやき不動産株式会社,,株式会社,愛知県,春日井市,上条町６丁目２５１９番地２,,23,206,4860833,,,,,,,2021-08-05,1,,,,,ケヤキフドウサン,0
2797,9180001147310,新規,0,2021-08-05,2021-08-05,ティーケーエンジニアリング株式会社,,株式会社,愛知県,弥富市,楠３丁目１３番地２,,23,235,4980066,,,,,,,2021-08-05,1,,,,,ティーケーエンジニアリング,0
2798,9180001147376,新規,0,2021-08-05,2021-08-05,株式会社ＢＴＦ,,株式会社,愛知県,名古屋市南区,上浜町１９４番地１０３,,23,112,4570067,,,,,,,2021-08-05,1,,,,,ビーティーエフ,0
2799,9180001147384,新規,0,2021-08-05,2021-08-05,株式会社ＫＧＣ,,株式会社,愛知県,春日井市,白山町７丁目２番地９,,23,206,4870034,,,,,,,2021-08-05,1,,,,,ケージーシー,0
2801,9180003022817,新規,0,2021-08-05,2021-08-05,合同会社華の風,,合同会社,愛知県,北名古屋市,沖村西ノ郷１１０番地,,23,234,4810043,,,,,,,2021-08-05,1,,,,,ハナノカゼ,0
2803,9180301035223,新規,0,2021-08-05,2021-08-05,株式会社Ｇｏｌｄｃｌｏｕｔ,,株式会社,愛知県,安城市,池浦町大山田上２番地１１２,,23,212,4460066,,,,,,,2021-08-05,1,,,,,ゴールドクラウト,0
2807,9190005011610,新規,0,2021-08-05,2021-08-05,一般社団法人ＡＷＡプロジェクト,,その他の設立登記法人,三重県,多気郡大台町,下楠５４６－６,,24,443,5192426,,,,,,,2021-08-05,1,,,,,エーダブリューエープロジェクト,0
2810,9200001038969,新規,0,2021-08-05,2021-08-05,株式会社日和機工,,株式会社,岐阜県,岐阜市,西中島３丁目１番１３号,,21,201,5020916,,,,,,,2021-08-05,1,,,,,ニチワキコウ,0
2811,9200001038977,新規,0,2021-08-05,2021-08-05,山崎建築株式会社,,株式会社,岐阜県,高山市,緑ケ丘町１丁目３３番地,,21,203,5060056,,,,,,,2021-08-05,1,,,,,ヤマザキケンチク,0
2812,9200001038993,新規,0,2021-08-05,2021-08-05,株式会社真和,,株式会社,岐阜県,海津市,南濃町津屋２８３７番地１３２,,21,221,5030401,,,,,,,2021-08-05,1,,,,,シンワ,0
2815,9210001018557,新規,0,2021-08-05,2021-08-05,株式会社Ａｉｔｈｒａ,,株式会社,福井県,敦賀市,若葉町３丁目１１２１番地の３ＷＡＫＡＳＡＨＯＵＳＥ２Ｆ,,18,202,9140125,,,,,,,2021-08-05,1,,,,,アイトラ,0
2816,9210001018565,新規,0,2021-08-05,2021-08-05,ＴＡＲＯ’Ｚ株式会社,,株式会社,福井県,福井市,足羽２丁目１０番８号,,18,201,9188007,,,,,,,2021-08-05,1,,,,,タロウズ,0
2823,9240001058377,新規,0,2021-08-05,2021-08-05,株式会社ｉｏｌｉｔｅ　ｆｌｏｗｅｒｓ,,株式会社,広島県,三次市,畠敷町８７６番地１－Ｃ,,34,209,7280006,,,,,,,2021-08-05,1,,,,,アイオライトフラワーズ,0
2824,9240001058393,新規,0,2021-08-05,2021-08-05,株式会社Ａｐｐａｒｅｌ　ＡＣＴ,,株式会社,広島県,府中市,中須町３４８番地７,,34,208,7260012,,,,,,,2021-08-05,1,,,,,アパレルアクト,0
2825,9240001058410,新規,0,2021-08-05,2021-08-05,ユウジインスペクションサービス株式会社,,株式会社,広島県,広島市佐伯区,五日市中央５丁目１８番７－２０１号,,34,108,7315128,,,,,,,2021-08-05,1,,,,,ユウジインスペクションサービス,0
2827,9240003005212,新規,0,2021-08-05,2021-08-05,合同会社瀬川事務所,,合同会社,広島県,福山市,東桜町２番１１号福山センタービル５階,,34,207,7200065,,,,,,,2021-08-05,1,,,,,セガワジムショ,0
2828,9250001019048,新規,0,2021-08-05,2021-08-05,窓ライフ株式会社,,株式会社,山口県,防府市,大字植松４８９番地の２,,35,206,7470836,,,,,,,2021-08-05,1,,,,,マドライフ,0
2841,9290001094046,新規,0,2021-08-05,2021-08-05,株式会社ベストフィールド,,株式会社,福岡県,八女市,本村７９８番地１,,40,210,8340063,,,,,,,2021-08-05,1,,,,,ベストフィールド,0
2842,9290001094079,新規,0,2021-08-05,2021-08-05,株式会社トロイ,,株式会社,福岡県,福岡市西区,今津４８０１番地６５,,40,135,8190165,,,,,,,2021-08-05,1,,,,,トロイ,0
2851,9320001018521,新規,0,2021-08-05,2021-08-05,株式会社ＳＵＮＴＥＣ,,株式会社,大分県,宇佐市,大字長洲３６５５番地,,44,211,8720001,,,,,,,2021-08-05,1,,,,,サンテック,0
2858,9350001017231,新規,0,2021-08-05,2021-08-05,株式会社宮崎県北デンタル,,株式会社,宮崎県,延岡市,安賀多町４丁目１－８,,45,203,8820845,,,,,,,2021-08-05,1,,,,,ミヤザキケンポクデンタル,0
2861,9360001029192,新規,0,2021-08-05,2021-08-05,株式会社ナンバー腕,,株式会社,沖縄県,島尻郡南風原町,字山川４３３番地,,47,350,9011115,,,,,,,2021-08-05,1,,,,,ナンバーワン,0
2862,9360001029201,新規,0,2021-08-05,2021-08-05,株式会社ＰＣＨ,,株式会社,沖縄県,那覇市,与儀１丁目１１番１８号,,47,201,9020076,,,,,,,2021-08-05,1,,,,,ピーシーエイチ,0
2863,9360003011347,新規,0,2021-08-05,2021-08-05,合同会社ＫＴＳ,,合同会社,沖縄県,浦添市,大平２丁目２０番１－５１８号レジデンスたくし,,47,208,9012113,,,,,,,2021-08-05,1,,,,,ケーティーエス,0
2865,9370001047433,新規,0,2021-08-05,2021-08-05,株式会社スガワラ工業,,株式会社,宮城県,仙台市太白区,四郎丸字吹上５０番地の１０,,04,104,9811101,,,,,,,2021-08-05,1,,,,,スガワラコウギョウ,0
2866,9370001047458,新規,0,2021-08-05,2021-08-05,エフスタイル株式会社,,株式会社,宮城県,富谷市,東向陽台３丁目１８番２－３号,,04,216,9813331,,,,,,,2021-08-05,1,,,,,エフスタイル,0
2870,9380001032087,新規,0,2021-08-05,2021-08-05,株式会社ＳＡＩＤＥＮ,,株式会社,福島県,西白河郡中島村,大字二子塚字入江２４番地１２,,07,465,9610106,,,,,,,2021-08-05,1,,,,,サイデン,0
2873,9390003001857,新規,0,2021-08-05,2021-08-05,Ｋ－プランニング合同会社,,合同会社,山形県,東田川郡三川町,大字横山字不動野６１番地３,,06,426,9971301,,,,,,,2021-08-05,1,,,,,ケイプランニング,0
2882,9430003012998,新規,0,2021-08-05,2021-08-05,合同会社ＢＥＧＯＳ,,合同会社,北海道,札幌市中央区,南二条西２５丁目２－２４－１０１,,01,101,0640802,,,,,,,2021-08-05,1,,,,,ベゴス,0
2891,9480003001699,新規,0,2021-08-05,2021-08-05,大家工務店合同会社,,合同会社,徳島県,名西郡神山町,下分字今井１４１番地１,,36,342,7713421,,,,,,,2021-08-05,1,,,,,オオヤコウムテン,0
