sequenceNumber,corporateNumber,process,correct,updateDate,changeDate,name,nameImageId,kind,prefectureName,cityName,streetNumber,addressImageId,prefectureCode,cityCode,postCode,addressOutside,addressOutsideImageId,closeDate,closeCause,successorCorporateNumber,changeCause,assignmentDate,latest,enName,enPrefectureName,enCityName,enAddressOutside,furigana,hihyoji
5,1010001238505,新規,0,2023-09-15,2023-09-15,株式会社ＲＰＣ,,株式会社,東京都,中央区,東日本橋３丁目７番１０号トミービル３Ｆ,,13,102,1030004,,,,,,,2023-09-15,1,,,,,アールピーシー,0
7,1010005037275,新規,0,2023-09-15,2023-09-15,社会保険労務士法人東洋労務コンサルティング,,その他の設立登記法人,東京都,千代田区,紀尾井町４番１号ニューオータニビジネスコート７階,,13,101,1020094,,,,,,,2023-09-15,1,,,,,トウヨウロウムコンサルティング,0
17,1010403030955,新規,0,2023-09-15,2023-09-15,合同会社とも経営研究所,,合同会社,東京都,港区,北青山１丁目３番１号,,13,103,1070061,,,,,,,2023-09-15,1,,,,,トモケイエイケンキュウジョ,0
27,1011001156977,新規,0,2023-09-15,2023-09-15,株式会社バズアセット,,株式会社,東京都,目黒区,目黒本町６丁目２０番２号,,13,110,1520002,,,,,,,2023-09-15,1,,,,,バズアセット,0
28,1011001156993,新規,0,2023-09-15,2023-09-15,株式会社Ｍ’ｓ　Ｂｕｓｉｎｅｓｓ　Ｓｕｐｐｏｒｔ,,株式会社,東京都,渋谷区,神宮前６丁目２３番４号桑野ビル２階,,13,113,1500001,,,,,,,2023-09-15,1,,,,,エムズビジネスサポート,0
34,1011101104373,新規,0,2023-09-15,2023-09-15,株式会社ＳＨＯＪＩＮ　Ｓｈｏｗ‐Ｂａｓｅ　ＴＯＫＹＯ,,株式会社,東京都,新宿区,高田馬場４丁目１１番１０号,,13,104,1690075,,,,,,,2023-09-15,1,,,,,ショージンショーベーストウキョウ,0
37,1011203004174,新規,0,2023-09-15,2023-09-15,いぬねこかえる合同会社,,合同会社,東京都,中野区,丸山１丁目１２番７－１０５号,,13,114,1650021,,,,,,,2023-09-15,1,,,,,イヌネコカエル,0
39,1011401025451,新規,0,2023-09-15,2023-09-15,ルーツ株式会社,,株式会社,東京都,板橋区,東新町１丁目２４番６号,,13,119,1740074,,,,,,,2023-09-15,1,,,,,ルーツ,0
42,1011501029765,新規,0,2023-09-15,2023-09-15,ＪＡＰＡＮ　ＩＮＤＩＣＡＴＯＲ株式会社,,株式会社,東京都,荒川区,南千住３丁目２７－２浅草ビル,,13,118,1160003,,,,,,,2023-09-15,1,,,,,ジャパンインジケータ,0
44,1011603004055,新規,0,2023-09-15,2023-09-15,Ｋａｓｈｉｆ　Ｌａｂｓ合同会社,,合同会社,東京都,練馬区,北町２丁目２８番１５号１０２,,13,120,1790081,,,,,,,2023-09-15,1,,,,,カシフラブス,0
45,1011701026595,新規,0,2023-09-15,2023-09-15,株式会社シャンドラ,,株式会社,東京都,江戸川区,中葛西２丁目２６番３号クレオ９１・２０２号室,,13,123,1340083,,,,,,,2023-09-15,1,,,,,シャンドラ,0
47,1012301013595,新規,0,2023-09-15,2023-09-15,株式会社ＵＧＯＫＵ,,株式会社,東京都,町田市,中町１丁目５番９号,,13,209,1940021,,,,,,,2023-09-15,1,,,,,ウゴク,0
49,1012403006183,新規,0,2023-09-15,2023-09-15,合同会社Ｉｎｔｅｌｌｉｇｅｎｃｅ　Ｗｉｎｇ,,合同会社,東京都,三鷹市,下連雀９丁目４－３－２４３,,13,204,1810013,,,,,,,2023-09-15,1,,,,,インテリジェンスウィング,0
53,1012701017832,新規,0,2023-09-15,2023-09-15,株式会社Ｔ‐ｄｅｓｉｇｎ,,株式会社,東京都,西東京市,谷戸町３丁目４番１３号,,13,229,1880001,,,,,,,2023-09-15,1,,,,,ティーデザイン,0
58,1012805003225,新規,0,2023-09-15,2023-09-15,医療法人社団榮明会,,その他の設立登記法人,東京都,昭島市,玉川町３丁目１８番１４号,,13,207,1960034,,,,,,,2023-09-15,1,,,,,シャダンエイメイカイ,0
66,1020001153513,新規,0,2023-09-15,2023-09-15,フジ・ユナイテッド株式会社,,株式会社,神奈川県,横浜市戸塚区,平戸５丁目１１番２３号,,14,110,2440802,,,,,,,2023-09-15,1,,,,,フジユナイテッド,0
68,1021001080177,新規,0,2023-09-15,2023-09-15,株式会社フルス,,株式会社,神奈川県,鎌倉市,植木３９４番地,,14,204,2470073,,,,,,,2023-09-15,1,,,,,フルス,0
69,1021001080185,新規,0,2023-09-15,2023-09-15,鋒鏑株式会社,,株式会社,神奈川県,相模原市中央区,相模原５丁目１１－１－８０４,,14,152,2520231,,,,,,,2023-09-15,1,,,,,ホウテキ,0
74,1030001155731,新規,0,2023-09-15,2023-09-15,ＳｈｉｎＴａｂｉＪａｐａｎ株式会社,,株式会社,埼玉県,富士見市,諏訪２丁目３番７号,,11,235,3540023,,,,,,,2023-09-15,1,,,,,シンタビジャパン,0
75,1030001155863,新規,0,2023-09-15,2023-09-15,株式会社Ａｌｏｈｉ,,株式会社,埼玉県,狭山市,大字青柳７７０番地の８,,11,215,3501301,,,,,,,2023-09-15,1,,,,,アロヒ,0
76,1030001155896,新規,0,2023-09-15,2023-09-15,アルリシュモン株式会社,,株式会社,埼玉県,南埼玉郡宮代町,和戸３丁目１４番１８号,,11,442,3450836,,,,,,,2023-09-15,1,,,,,アルリシュモン,0
83,1040001130114,新規,0,2023-09-15,2023-09-15,株式会社ＦＵＮ,,株式会社,千葉県,佐倉市,上志津原１０２番地３,,12,212,2850844,,,,,,,2023-09-15,1,,,,,ファン,0
91,1060001036342,新規,0,2023-09-15,2023-09-15,株式会社３４１,,株式会社,栃木県,小山市,城山町２丁目９番１６号,,09,208,3230025,,,,,,,2023-09-15,1,,,,,スリーフォーワン,0
103,1080101024212,新規,0,2023-09-15,2023-09-15,株式会社アスライン,,株式会社,静岡県,駿東郡長泉町,中土狩３７０番地の６アクシスコート長泉４０５号,,22,342,4110942,,,,,,,2023-09-15,1,,,,,アスライン,0
107,1080401026734,新規,0,2023-09-15,2023-09-15,株式会社ＨＭＤ,,株式会社,静岡県,浜松市中区,文丘町４番３３号,,22,131,4328004,,,,,,,2023-09-15,1,,,,,エイチエムディ,0
131,1120001258087,新規,0,2023-09-15,2023-09-15,株式会社Ｔ’ｓ　Ｌａｂ,,株式会社,大阪府,大阪市北区,梅田１丁目１－３大阪駅前第３ビル２９階１－１－１号室,,27,127,5300001,,,,,,,2023-09-15,1,,,,,ティーズラボ,0
139,1120101068221,新規,0,2023-09-15,2023-09-15,株式会社笑家,,株式会社,大阪府,高石市,東羽衣３丁目８番２０－２０３号,,27,225,5920003,,,,,,,2023-09-15,1,,,,,ショウカ,0
142,1122001037371,新規,0,2023-09-15,2023-09-15,青松福祉株式会社,,株式会社,大阪府,大東市,北条３丁目１２番３８号,,27,218,5740011,,,,,,,2023-09-15,1,,,,,アオマツフクシ,0
147,1130001075168,新規,0,2023-09-15,2023-09-15,株式会社紬,,株式会社,京都府,京都市東山区,広道通松原上る四丁目毘沙門町３０番地３,,26,105,6050000,,,,,,,2023-09-15,1,,,,,ツムギ,0
148,1130001075218,新規,0,2023-09-15,2023-09-15,株式会社ＦＭ,,株式会社,京都府,京都市左京区,松ケ崎柳井田町６番地４０,,26,103,6060904,,,,,,,2023-09-15,1,,,,,エフエム,0
151,1130003008968,新規,0,2023-09-15,2023-09-15,合同会社アウフヘーベン,,合同会社,京都府,京都市中京区,新京極通四条上る中之町５３７番地２よし久ビル４Ｂ,,26,104,6048042,,,,,,,2023-09-15,1,,,,,アウフヘーベン,0
152,1130003008976,新規,0,2023-09-15,2023-09-15,合同会社ＮＣ,,合同会社,京都府,京都市下京区,小田原町２３１－７,,26,106,6008430,,,,,,,2023-09-15,1,,,,,エヌシー,0
154,1140001131614,新規,0,2023-09-15,2023-09-15,株式会社スリーコーポレーション,,株式会社,兵庫県,神戸市中央区,元町通３丁目２番１号ワコーレ元町ザ・シティ２０３,,28,110,6500022,,,,,,,2023-09-15,1,,,,,スリーコーポレーション,0
155,1140001131630,新規,0,2023-09-15,2023-09-15,株式会社ツカサ,,株式会社,兵庫県,伊丹市,美鈴町４丁目１番３号,,28,207,6640884,,,,,,,2023-09-15,1,,,,,ツカサ,0
158,1140003019551,新規,0,2023-09-15,2023-09-15,合同会社ＬＡＮＤＳＣＡＰＥ,,合同会社,兵庫県,神戸市中央区,磯上通７丁目１番５三宮プラザＥＡＳＴ９階,,28,110,6510086,,,,,,,2023-09-15,1,,,,,ランドスケイプ,0
160,1150001026722,新規,0,2023-09-15,2023-09-15,株式会社ＡＲＧＴ,,株式会社,奈良県,香芝市,西真美３丁目１番地１－５０２号,,29,210,6390222,,,,,,,2023-09-15,1,,,,,エーアールジーティー,0
162,1160001025343,新規,0,2023-09-15,2023-09-15,株式会社アイニード,,株式会社,滋賀県,大津市,真野１丁目１番６２号アイニード堅田,,25,201,5200232,,,,,,,2023-09-15,1,,,,,アイニード,0
169,1180001158050,新規,0,2023-09-15,2023-09-15,株式会社心愛,,株式会社,愛知県,名古屋市中村区,名駅２丁目３８番２号オーキッドビル８階,,23,105,4500002,,,,,,,2023-09-15,1,,,,,ココア,0
172,1180003025744,新規,0,2023-09-15,2023-09-15,合同会社尾張栄和,,合同会社,愛知県,一宮市,大和町妙興寺字地蔵恵３３番地３,,23,203,4910922,,,,,,,2023-09-15,1,,,,,オワリエイワ,0
175,1180301037821,新規,0,2023-09-15,2023-09-15,ｓｐｒｏｕｔｓ株式会社,,株式会社,愛知県,豊橋市,松葉町１丁目８８番地大幸ビル４階,,23,201,4400897,,,,,,,2023-09-15,1,,,,,スプラウツ,0
184,1240001062130,新規,0,2023-09-15,2023-09-15,ＬａＬｉｂｅｒｔｅ株式会社,,株式会社,広島県,広島市安佐南区,伴南１丁目１番１－７０３号,,34,105,7313168,,,,,,,2023-09-15,1,,,,,ラリベルテ,0
188,1250005008863,新規,0,2023-09-15,2023-09-15,一般社団法人山口県エクステリア協会,,その他の設立登記法人,山口県,光市,室積新開２丁目７番２３号,,35,210,7430071,,,,,,,2023-09-15,1,,,,,ヤマグチケンエクステリアキョウカイ,0
194,1260003004434,新規,0,2023-09-15,2023-09-15,合同会社ｃｈｉｚ,,合同会社,岡山県,岡山市北区,宿本町７番地１７－１号あそびば２号室,,33,101,7000002,,,,,,,2023-09-15,1,,,,,チヅ,0
198,1280003001768,新規,0,2023-09-15,2023-09-15,合同会社Ｅ‐ライン,,合同会社,島根県,松江市,法吉町２３８番地６２４,,32,201,6900861,,,,,,,2023-09-15,1,,,,,イーライン,0
205,1290001103053,新規,0,2023-09-15,2023-09-15,株式会社ハイヤーク,,株式会社,福岡県,福岡市博多区,板付６丁目４－３１－２０２,,40,132,8120888,,,,,,,2023-09-15,1,,,,,ハイヤーク,0
206,1290003014356,新規,0,2023-09-15,2023-09-15,合同会社Ｔｏｙｏｎｃｈｉ,,合同会社,福岡県,福岡市博多区,住吉４丁目２８‐１２豊村ビル４階,,40,132,8120018,,,,,,,2023-09-15,1,,,,,トヨンチ,0
222,1360005006906,新規,0,2023-09-15,2023-09-15,一般社団法人Ｓａｎｔｏｋｕ,,その他の設立登記法人,沖縄県,国頭郡大宜味村,字喜如嘉２０８３,,47,302,9051303,,,,,,,2023-09-15,1,,,,,サントク,0
223,1370001050428,新規,0,2023-09-15,2023-09-15,株式会社佐藤自動車,,株式会社,宮城県,柴田郡川崎町,大字川内字七曲山１７６番地２,,04,324,9891503,,,,,,,2023-09-15,1,,,,,サトウジドウシャ,0
232,1430001089897,新規,0,2023-09-15,2023-09-15,太平洋アポイ株式会社,,株式会社,北海道,様似郡様似町,西町７２番地の２,,01,608,0580032,,,,,,,2023-09-15,1,,,,,タイヘイヨウアポイ,0
242,1480005006984,新規,0,2023-09-15,2023-09-15,医療法人真和会,,その他の設立登記法人,徳島県,徳島市,佐古一番町１４番１８号,,36,201,7700021,,,,,,,2023-09-15,1,,,,,シンワカイ,0
243,1490003001821,新規,0,2023-09-15,2023-09-15,合同会社高麗キムチ,,合同会社,高知県,高知市,小石木町１９８番地９,,39,201,7808032,,,,,,,2023-09-15,1,,,,,コウライキムチ,0
245,1500001025192,新規,0,2023-09-15,2023-09-15,株式会社にじとまめ,,株式会社,愛媛県,西条市,小松町新屋敷甲２９３８番地２,,38,206,7991101,,,,,,,2023-09-15,1,,,,,ニジトマメ,0
247,1700150119493,新規,0,2023-09-15,2023-08-29,玉島南小地域学校協働本部実行委員会,,その他,岡山県,倉敷市,玉島柏島６４４６番地,,33,202,7138123,,,,,,,2023-08-29,1,,,,,タマシマミナミシヨウチイキガツコウキヨウドウホンブジツコウイインカイ,0
248,1700150120286,新規,0,2023-09-15,2023-09-15,ｇｕａｎｇｚｈｏｕ　ｌｉｃｈｕａｎｇｍａｏｙｉ　ｙｏｕｘｉａｎｇｏｎｇｓｉ,,外国会社等,,,,,,,,Ｒｏｏｍ３０１－２Ｂｕｉｌｄｉｎｇ１１　Ｐｈａｓｅ　ＩＩ　Ｎｏ．４０　Ｓｈａｔａｉ　Ｎｏｒｔｈ　Ｒｏａｄ　Ｊｉｎｇｘｉ　Ｓｔｒｅｅｔ　Ｂａｉｙｕｎ　Ｄｉｓｔｒｉｃｔ　Ｇｕａｎｇｚｈｏｕ　５１００００　ＣＮ,00131774,,,,,2023-09-15,1,,,,,コウシュウリツァンマオイヨウシェンゴンスー,0
249,1700150120294,新規,0,2023-09-15,2023-09-15,Ｊｉａｎｇｓｈａｎｓｈｉｙｕｅｗｅｉｍａｏｙｉ　ｙｏｕｘｉａｎｇｏｎｇｓｉ,,外国会社等,,,,,,,,Ｎｏ．１０ＪｕｊｉａｓｈａｎＤｉｓｔｒｉｃｔ１ＷａｎｙａｏＴｏｗｎｓｈｉｐＪｉａｎｇｓｈａｎＣｉｔｙＱｕｚｈｏｕＣｉｔｙ　ＺｈｅｊｉａｎｇＰｒｏｖｉｎｃｅ,,,,,,2023-09-15,1,,,,,コウザンシユエウェイマオイユウゲンコウシ,0
250,1700150120303,新規,0,2023-09-15,2023-09-15,ＳＨＥＮＺＨＥＮ　ＴＩＡＮＨＵＩＦＥＮＧ　ＴＥＣＨＮＯＬＯＧＹ　ＣＯ．，ＬＴＤ,,外国会社等,,,,,,,,ＧＵＡＮＧＭＩＮＧＱＵＸＩＮＨＵＪＩＥＤＡＯＬＯＵＣＵＮＳＨＥＱＵＤＩＥＲＧＯＮＧＹＥＱＵ　ＺＨＯＮＧＴＡＩＬＵ　１９ＨＡＯ　ＤＩＳＡＮＤＯＮＧ　３ＣＥＮＧ　ＳＨＥＮＺＨＥＮ　ＧＵＡＮＧＤＯＮＧ,,,,,,2023-09-15,1,,,,,シンセンテンホウイフェンテクノロジーカンパニーリミテッド,0
251,1700150120311,新規,0,2023-09-15,2023-09-15,Ａｎｈｕｉ　Ｔｕｏｔｕ　Ｇｏｎｇｙｉｎｇｌｉａｎ　ｇｕａｎｌｉ　ｙｏｕｘｉａｎ　ｇｏｎｇｓｉ,,外国会社等,,,,,,,,ＧａｏＸｉｎ　Ｄｉｓｔｒｉｃｔ　ＳｈｉＮａｎ　Ｒｏａｄ　ＮＯ．３　ｔｈｅ　ｆａｃｔｏｒｙ　ｃｏｍｐｌｅｘ　ｂｕｉｌｄｉｎｇ　１ｓｔ　ｆｌｏｏｒ　Ｈｅｆｅｉ　Ｃｉｔｙ　Ａｎｈｕｉ　Ｐｒｏｖｉｎｃｅ,,,,,,2023-09-15,1,,,,,アンキタクズキョウオウレンカンリユウゲンコウシ,0
252,1700150120328,新規,0,2023-09-15,2023-09-15,ｙｕｊｕ　ｈｏｍｅ　ｔｅｘｔｉｌｅ　ｎａｔｏｎｇ　ｃｏ．，ＬＴＤ,,外国会社等,,,,,,,,Ｔｏｎｇｘｉｎ　Ｃｏｍｍｕｎｉｔｙ　ｓｉｘ　ｇｒｏｕｐｓ　Ｌａｎｇｓｈａｎ　ｔｏｗｎ　ｓｔｒｅｅｔ　Ｃｈｏｎｇｃｈｕａｎ　Ｄｉｓｔｒｉｃｔ　Ｎａｎｔｏｎｇ　ｃｉｔｙ　Ｊｉａｎｇｓｕ　２２６０００　ＣＮ,,,,,,2023-09-15,1,,,,,イージージャーファンナントンヨウシエンゴンスー,0
253,1700150120336,新規,0,2023-09-15,2023-09-15,Ｊｉｎｈｕａ　Ｂｕｑｉｎｇｙｕｎ　Ｅｎｅｒｇｙ　Ｌｔｄ．,,外国会社等,,,,,,,,５３７　ｏｆｆｉｃｅ，５Ｆ，Ｂｌｄ　２，ＮＯ．２０１１，Ｊｉｎｇａｎｇ　Ａｖｅ，Ｊｉｎｙｉ　Ｕｒｂａｎ　ＥＤＡ，Ｊｉｎｄｏｎｇ　Ｄｉｓｔ，Ｊｉｎｈｕａ　Ｚｈｅｊｉａｎｇ　３２１０００　ＣＮ,,,,,,2023-09-15,1,,,,,キンカブチンユンエナジーリミテッド,0
254,1700150120344,新規,0,2023-09-15,2023-09-15,Ｓｈｅｎｚｈｅｎｓｈｉ　Ｘｉｎｈｕａｓｈａｎｇ　Ｌｅａｔｈｅｒ　Ｐｒｏｄｕｃｔｓ　Ｃｏ．，Ｌｔｄ,,外国会社等,,,,,,,,２Ｆ　Ｎｏ３ＴｉａｎｋｕｏＲｏａｄＴｉａｎｌｉａｏＣｏｍｍｕｎｉｔｙＹｕｔａｎｇＳｔｒｅｅｔ　ＧｕａｎｇｍｉｎｇＤｉｓｔｒｉｃｔ　Ｓｈｅｎｚｈｅｎ,,,,,,2023-09-15,1,,,,,シンセンシシンホゥアシャンレザープロダクツカンパニーリミテッド,0
255,1700150120352,新規,0,2023-09-15,2023-09-15,ｊｉｎｈｕａｄｏｎｇｑｉｕｎｅｎｇｙｕａｎｋｅｊｉ　ｙｏｕｘｉａｎｇｏｎｇｓｉ,,外国会社等,,,,,,,,Ｎｏｒｔｈ　ｏｆ　Ｂｕｉｌｄｉｎｇ１　Ｎｏ．８８　ＪｉｎｘｉｎｇＮｏｒｔｈＳｔｒｅｅｔ　ＱｉｕｂｉｎＳｔｒｅｅｔ　ＷｕｃｈｅｎｇＤｉｓｔｒｉｃｔ　Ｊｉｎｈｕａ　Ｚｈｅｊｉａｎｇ　Ｃｈｉｎａ,,,,,,2023-09-15,1,,,,,ジンホゥアドンチュウネンユェンカギユウゲンコウシ,0
256,1700150120360,新規,0,2023-09-15,2023-09-15,ｈｕｚｈｏｕｓｈｉｙｅｈａｏｓｈａｎｇｍａｏ　ｙｏｕｘｉａｎｇｏｎｇｓｉ,,外国会社等,,,,,,,,ｗｕｘｉｎｇｑｕｈｕａｎｚｈｕｊｉｅｄａｏｈｕａｎｚｈｕｇｏｎｇｙｅｙｕａｎｑｕｊｉｎｓｕｏｌｕ１８８ｈａｏ９ｚｈｕａｎｇ４３８ｓｈｉ　ｈｕｚｈｏｕｓｈｉ　ｚｈｅｊｉａｎｇｓｈｅｎｇ　Ｃｈｉｎａ,,,,,,2023-09-15,1,,,,,フゾオウシイェハオシャンマオユウゲンコウシ,0
257,1700150120369,新規,0,2023-09-15,2023-09-15,ＳｈｅｎｚｈｅｎＸｉｎｍａｎｄｕｏ　Ｔｅｃｈｎｏｌｏｇｙ　Ｃｏ．，Ｌｔｄ．,,外国会社等,,,,,,,,ｌｏｎｇｇａｎｇｑｕ　ｐｉｎｇｈｕｊｉｅｄａｏｈｅｈｕａｓｈｅｑｕｈｕａｎａｎｄａｄａｏｙｉｈａｏｈｕａｎａｎｃｈｅｎｇｈｕａｎｑｉｕｗｕｌｉｕｚｈｏｎｇｘｉｎ２００６　ｓｈｅｎｚｈｅｎｓｈｉ,,,,,,2023-09-15,1,,,,,シンセンシンマンドオテクノロジーカンパニーリミテッド,0
258,1700150120377,新規,0,2023-09-15,2023-09-15,ｃｈｅｎｇｄｕｓｈｉ　ｃｈｅｎｇｈａｎｄｉａｎｚｉｓｈａｎｇｗｕｙｏｕｘｉａｎｇｏｎｇｓｉ,,外国会社等,,,,,,,,ｃｈｅｎｇｄｕ　ｇａｏｘｉｎｑｕｈｅｚｕｏｌｕ８９ｈａｏ２５ｄｏｎｇ６ｃｅｎｇｆｕ６０１ｈａｏ　６１００００　ＣＮ,,,,,,2023-09-15,1,,,,,セイトシチェンハンデンシショウムヨウシェンゴンスー,0
259,1700150120385,新規,0,2023-09-15,2023-09-15,Ｃｈｅｎｇｄｕｑｉｎｇｗａｎｇｕｔｉｎｇｋｅｊｉ　ｙｏｕｘｉａｎｇｏｎｇｓｉ,,外国会社等,,,,,,,,ｗｕｈｏｕｑｕｃｈａｎｇｈｕａｌｕ１９ｈａｏ３ｃｅｎｇ１８ｈａｏｃｈｅｎｇｄｕｓｈｉｓｉｃｈｕａｎ,,,,,,2023-09-15,1,,,,,セイトチンワングティンカギユウゲンコウシ,0
260,1700150120393,新規,0,2023-09-15,2023-09-15,ｓｈｅｎｚｈｅｎｓｈｉｍｕｚｉｃｈｅｎｇｋｅｊｉｙｏｕｘｉａｎｇｏｎｇｓｉ,,外国会社等,,,,,,,,ｂａｏａｎｑｕ　ｓｈｉｙａｎｊｉｅｄａｏ　ｌａｎｇｘｉｎｓｈｅｑｕ　ｌａｎｇｘｉｎｎａｎｌｕ　７ｈａｏ６０６　Ｓｈｅｎｚｈｅｎ　Ｇｕａｎｇｄｏｎｇ　５１８１０８　ＣＮ,,,,,,2023-09-15,1,,,,,シェンジェンシムゥズーチョンカージヨウシェンゴンスー,0
261,1700150120402,新規,0,2023-09-15,2023-09-15,Ｒｕｉａｎ　Ｃｉｔｙ　Ａｌｌｒｅｙ　Ｅ－Ｃｏｍｍｅｒｃｅ　Ｃｏ．，Ｌｔｄ．,,外国会社等,,,,,,,,ＬｕｏｆｅｎｇＢａｓｈｕｉＶｉｌｌａｇｅ３ＬａｎｅＫａｎｇｗｅｉＲｏａｄ　ＲｕｉａｎＣｉｔｙ　ＴａｎｇｘｉａＴｏｗｎ,,,,,,2023-09-15,1,,,,,ズイアンシティーオールレイイーコマースカンパニーリミテッド,0
262,1700150120410,新規,0,2023-09-15,2023-09-15,ｔａｉｙｕａｎｚｉｋｅｍａｏｙｉｙｏｕｘｉａｎｇｏｎｇｓｉ,,外国会社等,,,,,,,,ｚｈｕａｎｘｉｎｇｚｏｎｇｈｅｇａｉｇｅｓｈｉｆａｎｑｕ　ｘｕｅｆｕｃｈａｎｙｅｙｕａｎｃｈｕａｎｇｙｅｊｉｅ１９ｈａｏｆａｎｇｄａｌｉｎｇｄｉＣｚｕｏ９０１　ｔａｉｙｕａｎｓｈｉ　ｓｈａｎｘｉ　０３０３１１　ＣＮ,,,,,,2023-09-15,1,,,,,タイユエンズーコーマオイーヨウシエンゴンスー,0
263,1700150120419,新規,0,2023-09-15,2023-09-15,Ｈｅｆｅｉｘｉｎｘｕｎｊｉａｊｕｙｏｎｇｐｉｎｙｏｕｘｉａｎｇｏｎｇｓｉ,,外国会社等,,,,,,,,８４７１，Ｂｕｉｌｄｉｎｇ　４０，Ｈｅｎｇｄａ　Ｃｅｎｔｒａｌ　Ｐｌａｚａ，Ｈｕａｉｎａｎ　Ｒｏａｄ，Ｓｈｅｎｇｌｉ　Ｒｏａｄ，Ｙａｏｈａｉ　Ｄｉｓｔｒｉｃｔ，Ｈｅｆｅｉ　Ｃｉｔｙ，Ａｎｈｕｉ　Ｐｒｏｖｉｎｃｅ,,,,,,2023-09-15,1,,,,,ゴウヒシシンソンカキョヨウヒンユウゲンコウシ,0
264,1700150120427,新規,0,2023-09-15,2023-09-15,ＰＥＺＩＮ　＆　ＨＵＬＩＮ（Ｆｕｚｈｏｕ）Ｔｅｃｈｎｏｌｏｇｙ　Ｃｏ．，Ｌｔｄ,,外国会社等,,,,,,,,Ｉ－３０２，Ｆｌｏｏｒ　１，Ｂｕｉｌｄｉｎｇ　１，１４２　Ｊｉａｎｘｉｎ　Ｎｏｒｔｈ　Ｒｏａｄ，Ｊｉａｎｘｉｎ　Ｔｏｗｎ，Ｃａｎｇｓｈａｎ　Ｄｉｓｔｒｉｃｔ，Ｆｕｚｈｏｕ，Ｆｕｊｉａｎ　Ｐｒｏｖｉｎｃｅ,,,,,,2023-09-15,1,,,,,ボンキョクコフクシュウネットワークカギユウゲンコウシ,0
265,1700150120435,新規,0,2023-09-15,2023-09-15,ＪＩＡＯＺＵＯＳＨＩ　ＯＵＨＵＡ　ＷＡＮＧＬＵＯＫＥＪＩ　ＹＯＵＸＩＡＮＧＯＮＧＳＩ,,外国会社等,,,,,,,,ＧＵＡＮＧＭＩＮＧＬＵ　ＪＩＡＯＹＵＸＩＡＯＱＵ　５　ＨＡＯＬＯＵ　２　ＤＡＮＹＵＡＮ　２０３　ＨＡＯ　ＪＩＡＯＺＵＯＳＨＩ　ＪＩＥＦＡＮＧＱＵ　ＨＥＮＡＮＳＨＥＮＧ,,,,,,2023-09-15,1,,,,,シヨウサクシオカネツトワーツクテクノロジーカンパニリミテツド,0
266,1700150120468,新規,0,2023-09-15,2023-09-15,Ｓｈｅｎｚｈｅｎｓｈｉ　Ｍｕｚｈｉｔａｎｇ　Ｓｈｅｎｇｗｕｋｅｊｉ　Ｙｏｕｘｉａｎｇｏｎｇｓｉ,,外国会社等,,,,,,,,Ｐｉｎｇｓｈａｎｍｉｎｑｉｋｅｊｉｙｕａｎ　４Ｄｏｎｇ３０７　Ｎａｎｓｈａｎｑｕ　Ｔａｏｙｕａｎｊｉｅｄａｏ　Ｐｉｎｇｓｈａｎｓｈｅｑｕ　Ｌｉｓｈａｎｌｕ６５ｈａｏ　Ｓｈｅｎｚｈｅｎ　Ｇｕａｎｇｄｏｎｇ　Ｃｈｉｎａ,,,,,,2023-09-15,1,,,,,シンセンシモクショクドウセイブツカギユウゲンコウシ,0
267,1700150120476,新規,0,2023-09-15,2023-09-15,Ｄｏｎｇｇｕａｎｓｈｉｌｉｎｆｅｉｄｉａｎｚｉｓｈａｎｇｗｕｙｏｕｘｉａｎｇｏｎｇｓｉ,,外国会社等,,,,,,,,ｎａｎｃｈｅｎｇｊｉｅｄａｏｚｈｅｎｇｑｉａｎｌｕ　８ｈａｏ１０１ｓｈｉ　ｇｕａｎｇｄｏｎｇｓｈｅｎｇ　ｄｏｎｇｇｕａｎｓｈｉ　５２３０８７　ＣＮ,,,,,,2023-09-15,1,,,,,ドングワンシーリンフェイディエンズーシャンウーヨウシエンゴンスー,0
281,2010001238504,新規,0,2023-09-15,2023-09-15,株式会社ＣＵＲＩＯＳＩＴＹ,,株式会社,東京都,文京区,千石３丁目１８番９－３０６号,,13,105,1120011,,,,,,,2023-09-15,1,,,,,キュリオシティ,0
283,2010005037274,新規,0,2023-09-15,2023-09-15,一般社団法人ノンバーバルコミュニケーション協会,,その他の設立登記法人,東京都,中央区,銀座１丁目２２－１１銀座大竹ビジデンス２Ｆ,,13,102,1040061,,,,,,,2023-09-15,1,,,,,ノンバーバルコミュニケーションキョウカイ,0
291,2010401177120,新規,0,2023-09-15,2023-09-15,株式会社Ｕｎｉｖｉｓ　Ａｍｅｒｉｃａ,,株式会社,東京都,港区,虎ノ門３丁目８番８号ＮＴＴ虎ノ門ビル６階,,13,103,1050001,,,,,,,2023-09-15,1,,,,,ユニヴィスアメリカ,0
292,2010401177145,新規,0,2023-09-15,2023-09-15,株式会社ＭＡＲＵＮＡＫＡ,,株式会社,東京都,港区,海岸３丁目１８－２４－５０２,,13,103,1080022,,,,,,,2023-09-15,1,,,,,マルナカ,0
293,2010401177178,新規,0,2023-09-15,2023-09-15,株式会社ＤＲＥＡＭ　ＳＨＯＰ,,株式会社,東京都,港区,南青山２丁目２番１５号,,13,103,1070062,,,,,,,2023-09-15,1,,,,,ドリームショップ,0
294,2010401177186,新規,0,2023-09-15,2023-09-15,株式会社ワールドビー,,株式会社,東京都,港区,芝１丁目１５番３号藤ビル３０１号,,13,103,1050014,,,,,,,2023-09-15,1,,,,,ワールドビー,0
295,2010401177211,新規,0,2023-09-15,2023-09-15,株式会社Ｓｔａｒ　ｓｐａｃｅ．,,株式会社,東京都,港区,愛宕２丁目５番１号愛宕グリーンヒルズＭＯＲＩタワー３７階,,13,103,1050002,,,,,,,2023-09-15,1,,,,,スタースペース,0
297,2010403030938,新規,0,2023-09-15,2023-09-15,合同会社落合陽一事務所,,合同会社,東京都,港区,白金４丁目１３番５号,,13,103,1080072,,,,,,,2023-09-15,1,,,,,オチアイヨウイチジムショ,0
298,2010403030970,新規,0,2023-09-15,2023-09-15,合同会社こひつじ研究所,,合同会社,東京都,港区,西麻布３丁目１２－１２－２１０,,13,103,1060031,,,,,,,2023-09-15,1,,,,,コヒツジケンキュウジョ,0
321,2011001156844,新規,0,2023-09-15,2023-09-15,株式会社ＳＨＩＦＴ,,株式会社,東京都,渋谷区,道玄坂１丁目１０番８号渋谷道玄坂東急ビル２Ｆ－Ｃ,,13,113,1500043,,,,,,,2023-09-15,1,,,,,シフト,0
322,2011001156852,新規,0,2023-09-15,2023-09-15,株式会社ＭＯＭＥＤ　ＣＡＮＰＡＮＹ,,株式会社,東京都,渋谷区,代々木１丁目３５－３ｔｏＤＯｅ代々木地下１階,,13,113,1510053,,,,,,,2023-09-15,1,,,,,モメッドカンパニー,0
323,2011001156976,新規,0,2023-09-15,2023-09-15,株式会社Ｇｒａｎｇｅｆｉｅｌｄｓ,,株式会社,東京都,渋谷区,広尾４丁目１番１３－８０４号,,13,113,1500012,,,,,,,2023-09-15,1,,,,,グレインジフィールズ,0
324,2011003017524,新規,0,2023-09-15,2023-09-15,合同会社ＦＪＫコンサルティング,,合同会社,東京都,渋谷区,上原２丁目２０番１７－３１５号プラウド上原,,13,113,1510064,,,,,,,2023-09-15,1,,,,,エフジェイケイコンサルティング,0
325,2011003017549,新規,0,2023-09-15,2023-09-15,合同会社とむ,,合同会社,東京都,渋谷区,道玄坂１丁目１０番８号渋谷道玄坂東急ビル２Ｆ－Ｃ,,13,113,1500043,,,,,,,2023-09-15,1,,,,,トム,0
330,2011101104389,新規,0,2023-09-15,2023-09-15,株式会社エイト,,株式会社,東京都,新宿区,西新宿１丁目２６番２号,,13,104,1600023,,,,,,,2023-09-15,1,,,,,エイト,0
331,2011101104414,新規,0,2023-09-15,2023-09-15,ｅｌｅｃｔｒａｉｄ株式会社,,株式会社,東京都,新宿区,西新宿３丁目３－１３西新宿水間ビル６階,,13,104,1600023,,,,,,,2023-09-15,1,,,,,エレクトレイド,0
332,2011103013489,新規,0,2023-09-15,2023-09-15,合同会社ｂｌｕｅ　ｂｅｒｙｌ,,合同会社,東京都,新宿区,西早稲田３丁目５番１３号,,13,104,1690051,,,,,,,2023-09-15,1,,,,,ブルーベリル,0
333,2011105010781,新規,0,2023-09-15,2023-09-15,一般社団法人ＳＮリビング２号,,その他の設立登記法人,東京都,新宿区,西新宿８丁目５番１号,,13,104,1600023,,,,,,,2023-09-15,1,,,,,エスエヌリビングニゴウ,0
335,2011303004908,新規,0,2023-09-15,2023-09-15,合同会社Ｎ．Ｋ,,合同会社,東京都,杉並区,堀ノ内３丁目２番７号ヴィラＦ＆Ｆ１０１,,13,115,1660013,,,,,,,2023-09-15,1,,,,,エヌケー,0
339,2011501029764,新規,0,2023-09-15,2023-09-15,辰原株式会社,,株式会社,東京都,荒川区,南千住３丁目２７－２浅草ビル５０８,,13,118,1160003,,,,,,,2023-09-15,1,,,,,タツゲン,0
340,2011501029772,新規,0,2023-09-15,2023-09-15,無意貿易株式会社,,株式会社,東京都,荒川区,南千住３丁目２７－２浅草ビルＤ号室,,13,118,1160003,,,,,,,2023-09-15,1,,,,,ムイボウエキ,0
341,2011503005763,新規,0,2023-09-15,2023-09-15,ＮＯＤＥ合同会社,,合同会社,東京都,北区,浮間４丁目３２番２２－６０１号,,13,117,1150051,,,,,,,2023-09-15,1,,,,,ノード,0
343,2011605002543,新規,0,2023-09-15,2023-09-15,ＮＰＯ法人未来の医者を育てる会,,その他の設立登記法人,東京都,練馬区,氷川台４丁目５４番２４号１Ｆ,,13,120,1790084,,,,,,,2023-09-15,1,,,,,ミライノイシャヲソダテルカイ,0
347,2011701026594,新規,0,2023-09-15,2023-09-15,株式会社ＳＧＴ,,株式会社,東京都,江戸川区,南篠崎町４丁目８番７－３０３号,,13,123,1330065,,,,,,,2023-09-15,1,,,,,エスジーティー,0
351,2011801043044,新規,0,2023-09-15,2023-09-15,株式会社ＡＭ,,株式会社,東京都,足立区,西竹の塚１丁目１１番２号エミエルタワー竹の塚７１５,,13,121,1210822,,,,,,,2023-09-15,1,,,,,エーエム,0
353,2012301013594,新規,0,2023-09-15,2023-09-15,株式会社海桜興業,,株式会社,東京都,町田市,森野４丁目１６番２１号,,13,209,1940022,,,,,,,2023-09-15,1,,,,,カイオウコウギョウ,0
355,2012401041009,新規,0,2023-09-15,2023-09-15,株式会社エテルナケア,,株式会社,東京都,府中市,紅葉丘１丁目２８番地の５,,13,206,1830004,,,,,,,2023-09-15,1,,,,,エテルナケア,0
357,2012801022632,新規,0,2023-09-15,2023-09-15,株式会社シェルパ・ピーク,,株式会社,東京都,昭島市,玉川町５丁目４番２５号,,13,207,1960034,,,,,,,2023-09-15,1,,,,,シェルパピーク,0
364,2020001153248,新規,0,2023-09-15,2023-09-15,株式会社Ａｄｖｅｎｔｕｒｅ,,株式会社,神奈川県,横浜市青葉区,美しが丘４丁目２９番地１０アンディヴェール１０６,,14,117,2250002,,,,,,,2023-09-15,1,,,,,アドベンチャー,0
365,2020001153495,新規,0,2023-09-15,2023-09-15,株式会社麦,,株式会社,神奈川県,横浜市中区,曙町４丁目５６番地８‐９０２,,14,104,2310057,,,,,,,2023-09-15,1,,,,,ムギ,0
372,2021001080176,新規,0,2023-09-15,2023-09-15,株式会社九眞エステート,,株式会社,神奈川県,茅ヶ崎市,新栄町７番５号,,14,207,2530044,,,,,,,2023-09-15,1,,,,,キュウシンエステート,0
373,2021001080184,新規,0,2023-09-15,2023-09-15,株式会社ゼネラルオフィス,,株式会社,神奈川県,小田原市,栄町３丁目１５番１１号,,14,206,2500011,,,,,,,2023-09-15,1,,,,,ゼネラルオフィス,0
384,2030001155862,新規,0,2023-09-15,2023-09-15,ＡＩＲ　ＲＩＴ株式会社,,株式会社,埼玉県,さいたま市岩槻区,原町９番３２－１号,,11,110,3390047,,,,,,,2023-09-15,1,,,,,エアーリット,0
385,2030001155929,新規,0,2023-09-15,2023-09-15,株式会社モモラボ,,株式会社,埼玉県,川口市,並木２丁目３３番１８号,,11,203,3320034,,,,,,,2023-09-15,1,,,,,モモラボ,0
393,2040003023331,新規,0,2023-09-15,2023-09-15,桐鉄工業合同会社,,合同会社,千葉県,四街道市,栗山７３８番地２,,12,228,2840027,,,,,,,2023-09-15,1,,,,,トウテツコウギョウ,0
400,2060003004718,新規,0,2023-09-15,2023-09-15,石井トレーデング合同会社,,合同会社,栃木県,栃木市,岩舟町新里１３０４番地４２号室,,09,203,3294316,,,,,,,2023-09-15,1,,,,,イシイトレーデング,0
404,2070001040879,新規,0,2023-09-15,2023-09-15,Ｆｒｅａｋｓ株式会社,,株式会社,群馬県,沼田市,岡谷町４２０番地,,10,206,3780061,,,,,,,2023-09-15,1,,,,,フリークス,0
407,2080101024211,新規,0,2023-09-15,2023-09-15,株式会社魁輝興業,,株式会社,静岡県,富士市,松岡１３１８番地の５,,22,210,4160909,,,,,,,2023-09-15,1,,,,,カイキコウギョウ,0
413,2080405007572,新規,0,2023-09-15,2023-09-15,一般社団法人福田河川シラスうなぎ,,その他の設立登記法人,静岡県,磐田市,福田２０７０番地１,,22,211,4371203,,,,,,,2023-09-15,1,,,,,フクデカセンシラスウナギ,0
417,2090003002363,新規,0,2023-09-15,2023-09-15,ｔｒｉｐｌｅ　ｃｏｒｅ合同会社,,合同会社,山梨県,甲府市,落合町２７４番１号,,19,201,4000834,,,,,,,2023-09-15,1,,,,,トリプルコア,0
421,2100001036774,新規,0,2023-09-15,2023-09-15,株式会社ケアライフ,,株式会社,長野県,茅野市,仲町１２－１６,,20,214,3910005,,,,,,,2023-09-15,1,,,,,ケアライフ,0
423,2110001037846,新規,0,2023-09-15,2023-09-15,株式会社ヤマグチインターナショナル,,株式会社,新潟県,南魚沼市,浦佐１４１７番地,,15,226,9497302,,,,,,,2023-09-15,1,,,,,ヤマグチインターナショナル,0
433,2120001258029,新規,0,2023-09-15,2023-09-15,株式会社ＤＰａｉｄ　ｐｌｕｓ,,株式会社,大阪府,大阪市淀川区,西中島３丁目１８番１７号,,27,123,5320011,,,,,,,2023-09-15,1,,,,,ディペイドプラス,0
434,2120001258053,新規,0,2023-09-15,2023-09-15,株式会社東平工業,,株式会社,大阪府,寝屋川市,音羽町１９番１０号,,27,215,5720023,,,,,,,2023-09-15,1,,,,,ヒガシヒラコウギョウ,0
435,2120001258061,新規,0,2023-09-15,2023-09-15,ＹＹＭ株式会社,,株式会社,大阪府,大阪市西成区,南津守３丁目２番５８号,,27,122,5570063,,,,,,,2023-09-15,1,,,,,ワイワイエム,0
436,2120001258094,新規,0,2023-09-15,2023-09-15,３ｖｃ株式会社,,株式会社,大阪府,大阪市淀川区,木川東４丁目３番３４号５０６号室,,27,123,5320012,,,,,,,2023-09-15,1,,,,,スリーブィシー,0
437,2120001258103,新規,0,2023-09-15,2023-09-15,株式会社ＢＲＡＶＥ,,株式会社,大阪府,大阪市北区,天神橋１丁目２０番１５号天龍堂ビル４０３号,,27,127,5300041,,,,,,,2023-09-15,1,,,,,ブレイブ,0
438,2120001258160,新規,0,2023-09-15,2023-09-15,ＴＭＣ株式会社,,株式会社,大阪府,大阪市生野区,小路東３丁目９番２２号,,27,116,5440003,,,,,,,2023-09-15,1,,,,,ティーエムシー,0
448,2120103005428,新規,0,2023-09-15,2023-09-15,合同会社クリエイトライン,,合同会社,大阪府,羽曳野市,羽曳が丘９丁目２２番７号,,27,222,5830864,,,,,,,2023-09-15,1,,,,,クリエイトライン,0
449,2120103005444,新規,0,2023-09-15,2023-09-15,ＡＩＬＥＳ　ＪＡＰＡＮ合同会社,,合同会社,大阪府,泉南市,信達牧野１５３５番地の３,,27,228,5900522,,,,,,,2023-09-15,1,,,,,エールジャパン,0
454,2122001037379,新規,0,2023-09-15,2023-09-15,Ｇｌａｓｓ　Ｃｒｅａｔｉｖｅ　Ｈｕｂ株式会社,,株式会社,大阪府,八尾市,南亀井町４丁目１番２号,,27,212,5810054,,,,,,,2023-09-15,1,,,,,グラスクリエイティブハブ,0
457,2130001075150,新規,0,2023-09-15,2023-09-15,株式会社アトラス,,株式会社,京都府,京都市下京区,若宮通松原下る亀屋町３８番地,,26,106,6008451,,,,,,,2023-09-15,1,,,,,アトラス,0
458,2130001075217,新規,0,2023-09-15,2023-09-15,株式会社クリスタル,,株式会社,京都府,京都市下京区,杉屋町２９５番地カーサデ河原町５０２号室,,26,106,6008078,,,,,,,2023-09-15,1,,,,,クリスタル,0
459,2130003008983,新規,0,2023-09-15,2023-09-15,合同会社ＧｕｉｄｅＭｅ　Ｊａｐａｎ,,合同会社,京都府,京都市下京区,七条通油小路東入大黒町２２７番地第２キョートビル４０２,,26,106,6008223,,,,,,,2023-09-15,1,,,,,ガイドミージャパン,0
460,2130003008991,新規,0,2023-09-15,2023-09-15,ＫＭＳキャピタル合同会社,,合同会社,京都府,京都市東山区,新道通団栗下る一丁目上柳町１８８番地,,26,105,6050000,,,,,,,2023-09-15,1,,,,,ケーエムエスキャピタル,0
468,2140003019550,新規,0,2023-09-15,2023-09-15,合同会社きさらぎ,,合同会社,兵庫県,神戸市垂水区,塩屋町５丁目１４番９号,,28,108,6550872,,,,,,,2023-09-15,1,,,,,キサラギ,0
507,2290005019154,新規,0,2023-09-15,2023-09-15,一般社団法人クリエイティブ共生都市,,その他の設立登記法人,福岡県,福岡市中央区,春吉３丁目２２－１７協立ビル,,40,133,8100003,,,,,,,2023-09-15,1,,,,,クリエイティブキョウセイトシ,0
508,2290801029884,新規,0,2023-09-15,2023-09-15,株式会社テック,,株式会社,福岡県,北九州市戸畑区,元宮町５番３号,,40,105,8040072,,,,,,,2023-09-15,1,,,,,テック,0
513,2370003006286,新規,0,2023-09-15,2023-09-15,合同会社ＣＬＥＡＮ　ＵＰ,,合同会社,宮城県,本吉郡南三陸町,戸倉字寺浜９５番地５,,04,606,9860781,,,,,,,2023-09-15,1,,,,,クリーンアップ,0
525,2430005014784,新規,0,2023-09-15,2023-09-15,医療法人社団麻の実,,その他の設立登記法人,北海道,江別市,大麻高町１２番地の２,,01,217,0690853,,,,,,,2023-09-15,1,,,,,アサノミ,0
535,2490003001820,新規,0,2023-09-15,2023-09-15,合同会社Ｌｉｆｅ　ｅｎｈａｎｃｅｍｅｎｔ,,合同会社,高知県,高知市,八反町１丁目１３番３号,,39,201,7800912,,,,,,,2023-09-15,1,,,,,ライフエンハンスメント,0
536,2500001025191,新規,0,2023-09-15,2023-09-15,株式会社そば宏,,株式会社,愛媛県,西条市,周布７０４番地１,,38,206,7991371,,,,,,,2023-09-15,1,,,,,ソバヒロ,0
538,2700150118486,新規,0,2023-09-15,2023-09-15,ｈｕｉｚｈｏｕ　ｚｈｏｎｇｃｈｕａｎｇｂａｉｙｕｄｉａｎｚｉｓｈａｎｇｗｕｆｕｗｕ　Ｃｏ．，Ｌｔｄ,,外国会社等,,,,,,,,ｈｕｉｃｈｅｎｇｑｕｓｈｕｉｋｏｕｊｉｅｄａｏｂａｎｓｈｉｃｈｕｈｅｓｈｅｎｇｄａｄａｏ３ｈａｏ　ｈｅｓｈｅｎｇｇｕｏｊｉｘｉｎｃｈｅｎｇ１５，１６ｈａｏ１６ｈａｏ１２ｃｅｎｇ０４ｈａｏｆａｎｇ　ｈｕｉｚｈｏｕ　ｇｕａｎｇｄｏｎｇ　ＣＮ,,,,,,2023-09-15,1,,,,,ホウイゾオウゾンツウアンバイユデンシシヤンウフウカンパニーリミテツド,0
539,2700150120285,新規,0,2023-09-15,2023-09-15,Ｓｈｅｎｚｈｅｎ　Ｂｉｎｌｉ　Ｊｅｗｅｌｒｙ　Ｃｏ．，Ｌｔｄ．,,外国会社等,,,,,,,,Ｌｏｎｇｈｕａｑｕ　ＤａＬａｎｇＪｉｅｄａｏ　Ｂｕｉｌｄｉｎｇ　１，Ｎｏ．９　Ｚｈｏｎｇｘｉｎ　Ｒｏａｄ　Ｋａｎｇｒｕｉ　Ｗｉｓｄｏｍ　Ｖａｌｌｅｙ　３Ｃ　Ｓｈｅｎｚｈｅｎ　Ｇｕａｎｇｄｏｎｇ　５１８０００　ＣＮ,,,,,,2023-09-15,1,,,,,シェンジェンシビンリージュウバオヨウシェンゴンスー,0
540,2700150120293,新規,0,2023-09-15,2023-09-15,ＭＥＩＫＥ　ＩＮＴＥＲＮＡＴＩＯＮＡＬ　ＧＲＯＵＰ　ＨＯＮＧ　ＫＯＮＧ　ＣＯ　ＬＩＭＩＴＥＤ,,外国会社等,,,,,,,,ＵＮＩＴ１１０１Ｂ　１１／Ｆ．ＬＩＰＰＯ　ＳＵＮ　ＰＬＡＺＡ　２８　ＣＡＮＴＯＮ　ＲＯＡＤ　ＴＳＩＭ　ＳＨＡ　ＴＳＵＩ　ＫＯＷＬＯＯＮ　Ｈｏｎｇ　Ｋｏｎｇ,,,,,,2023-09-15,1,,,,,ミケインターナショナルグループホンコンカンパニーリミテッド,0
541,2700150120302,新規,0,2023-09-15,2023-09-15,ｃｈａｎｇｓｈａｓｈｉｔｕｏｙｕｄｉａｎｚｉｓｈａｎｇｗｕ　ｙｏｕｘｉａｎｇｏｎｇｓｉ,,外国会社等,,,,,,,,ｃｈａｎｇｓｈａｓｈｉｙｕｅｌｕｑｕｗａｎｇｃｈｅｎｇｐｏｊｉｅｄａｏｙｕｌａｎｌｕ５７７ｈａｏｄａｍｅｉｙｕａｎ４ｄｏｎｇ１６４７ｆａｎｇ,,,,,,2023-09-15,1,,,,,チョウサシトユデンシショウムユウゲンコウシ,0
542,2700150120310,新規,0,2023-09-15,2023-09-15,ＨＯＮＧＫＯＮＧ　ＵＭＥＤＩＡ　ＬＩＭＩＴＥＤ,,外国会社等,,,,,,,,ＲＭ　２２３Ｂ　２／Ｆ　１Ｗ　ＰＨＡＳＥ　ＯＮＥ　ＨＯＮＧ　ＫＯＮＧ　ＳＣＩＥＮＣＥ　ＰＡＲＫ　ＰＡＫ　ＳＨＥＫ　ＫＯＫ　ＴＡＩ　ＰＯ　ＴＯＷＮ　ＬＯＴ　ＮＯ．１７１　ＮＴ，ＨＯＮＧＫＯＮＧ，ＣＨＩＮＡ,,,,,,2023-09-15,1,,,,,シャンガンドンホンディエンズーマオイーヨウシエンゴンスー,0
543,2700150120319,新規,0,2023-09-15,2023-09-15,ｓｈｅｎｚｈｅｎｓｈｉｊｕｎｘｉｎｇｃｈｅｎｇｄｉａｎｚｉｋｅｊｉｙｏｕｘｉａｎｇｏｎｇｓｉ,,外国会社等,,,,,,,,ｓｈｅｎｚｈｅｎｓｈｉ　ｂａｏａｎｑｕ　ｘｉｎａｎｊｉｅｄａｏ　ｆａｎｓｈｅｎｓｈｅｑｕｂａｏａｎｑｕ４９ｑｕ　ｈｅｄｏｎｇｓｈａｎｇｙｅｃｈｅｎｇｈｕａｃｈｕａｎｇｄａｗｅｎｈｕａｋｅｊｉｃｈａｎｙｅｙｕａｎ９ｄｏｎｇ（Ｆｚｕｏ）Ｆ３０８,,,,,,2023-09-15,1,,,,,シェンジェンシージンシンチョンディエンズーコージーヨウシエンゴンスー,0
544,2700150120327,新規,0,2023-09-15,2023-09-15,ｄｏｎｇｇｕａｎｓｈｉｓｈｅｎｇｚｕｎｄｉａｎｚｉｙｏｕｘｉａｎｇｏｎｇｓｉ,,外国会社等,,,,,,,,ｇｕａｎｇｄｏｎｇｓｈｅｎｇｄｏｎｇｇｕａｎｓｈｉｈｕａｎｇｊｉａｎｇｚｈｅｎｄｏｎｇｈｕａｎｅｒｌｕｊｉｕｈａｏ,,,,,,2023-09-15,1,,,,,ドングワンシーションズンディエンズーヨウシエンゴンスー,0
545,2700150120335,新規,0,2023-09-15,2023-09-15,ｓｈｅｎｚｈｅｎｓｈｉ　ｄｉｗｅｉｄｕｎｋｅｊｉ　ｙｏｕｘｉａｎｇｏｎｇｓｉ,,外国会社等,,,,,,,,３０２，Ｆｌｏｏｒ　３，Ｂｕｉｌｄｉｎｇ　１４，Ｐｒｏｆｏｕｎｄ　Ｃｕｌｔｕｒａｌ　Ｉｎｄｕｓｔｒｉａｌ　Ｐａｒｋ，Ｄａｆａ　Ｐｕ　Ｃｏｍｍｕｎｉｔｙ，Ｂａｎｔｉａｎ　Ｓｔｒｅｅｔ，Ｌｏｎｇｇａｎｇ　Ｄｉｓｔｒｉｃｔ，Ｓｈｅｎｚｈｅｎ,,,,,,2023-09-15,1,,,,,シンセンシディウェイドンカギユウゲンコウシ,0
546,2700150120343,新規,0,2023-09-15,2023-09-15,Ｓｈｅｎｚｈｅｎ　Ｓｅｘｉ　Ｔｅｃｈｎｏｌｏｇｙ　Ｃｏ．，Ｌｔｄ．,,外国会社等,,,,,,,,ＢａｎｔｉａｎＳｔｒｅｅｔＬｏｎｇｇａｎｇＤｉｓｔｒｉｃｔ　３０１Ｂ　Ｂｕｉｌｄｉｎｇ１４ＳｅｃｏｎｄＩｎｄｕｓｔｒｉａｌＺｏｎｅＤａｆａｐｕＣｏｍｍｕｎｉｔｙ　Ｓｈｅｎｚｈｅｎ,,,,,,2023-09-15,1,,,,,シンセンセシテクノロジーカンパニーリミテッド,0
547,2700150120351,新規,0,2023-09-15,2023-09-15,ｈａｎｇｚｈｏｕｓｈｉｃｈｅｎｄｉａｎｚｉｋｅｊｉ　ｙｏｕｘｉａｎｇｏｎｇｓｉ,,外国会社等,,,,,,,,ｘｉｈｕｑｕｊｉｎｇｓｈａｎｌｉｎｇｌｕ２ｈａｏｈｕｉｆｅｎｇｇｕｏｊｉ　ｓｈａｎｇｗｕｚｈｏｎｇｘｉｎ１ｈａｏｌｏｕＣ１００６ｓｈｉ　ｈａｎｇｚｈｏｕ　ｚｈｅｊｉａｎｇ　Ｃｈｉｎａ,,,,,,2023-09-15,1,,,,,ハンゾオウシチェンデンシカギユウゲンコウシ,0
548,2700150120368,新規,0,2023-09-15,2023-09-15,ｇｕａｎｇｚｈｏｕｓｈｉｙｕａｎｄｅｄｉａｎｚｉｓｈａｎｇｗｕｙｏｕｘｉａｎｇｏｎｇｓｉ,,外国会社等,,,,,,,,Ｒｏｏｍ　４１８，Ｂｕｉｌｄｉｎｇ　１，Ｎｏ．４，Ｎｏｒｔｈ　Ｓｅｃｏｎｄ　Ｒｏａｄ，Ｄｏｎｇｌｉａｎ　Ｉｎｄｕｓｔｒｉａｌ　Ｚｏｎｅ，Ｄｏｎｇｌｉａｎ　Ｖｉｌｌａｇｅ，Ｄａｓｈｉ　Ｓｔｒｅｅｔ，Ｐａｎｙｕ　Ｄｉｓｔｒｉｃｔ，Ｇｕａｎｇｚｈｏｕ　Ｃｉｔｙ，Ｇｕａｎｇｄｏｎｇ　Ｐｒｏｖｉｎｃｅ，Ｃｈｉｎａ,,,,,,2023-09-15,1,,,,,グワンジョウシーユエンダーディエンズーシャンウーヨウシエンゴンスー,0
549,2700150120376,新規,0,2023-09-15,2023-09-15,Ｓｈｅｎｚｈｅｎｗｅｎｊｕｎｄａ　ｉｎｔｅｒｎａｔｉｏｎａｌ　ｃｏ．ＬＴＤ,,外国会社等,,,,,,,,４／Ｆ　Ｎｏ．２ＸｉｎｂａｏＬａｎｅ１ＸｉｎｅｒＣｏｍｍｕｎｉｔｙＸｉｎｑｉａｏＳｔｒｅｅｔ　ＢａｏａｎＤｉｓｔｒｉｃｔ　Ｓｈｅｎｚｈｅｎ　５１８０００　ＣＮ,,,,,,2023-09-15,1,,,,,シンセンウェンジュンダインターナショナルカンパニーリミテッド,0
550,2700150120384,新規,0,2023-09-15,2023-09-15,ｓｈｅｎｚｈｅｎｓｈｉｆｅｉｏｕｔｉａｎｌａｉｆｕｓｈｉ　ｙｏｕｘｉａｎｇｏｎｇｓｉ,,外国会社等,,,,,,,,ｇｕａｎｈｕｊｉｅｄａｏｇｕａｎｃｈｅｎｇｓｈｅｑｕｇｕａｎｌａｎｄａｄａｏ３９８ｈａｏ６０５－１　ｓｈｅｎｚｈｅｎｓｈｉ　５１８０００　ＣＮ,,,,,,2023-09-15,1,,,,,シンセンシフェイオウテンライフシヨウシェンゴンスー,0
551,2700150120392,新規,0,2023-09-15,2023-09-15,Ｓｈａｎｇｈａｉ　Ｌｉｎｋｍａｘ　Ｉｎｔｅｒｎａｔｉｏｎａｌ　Ｔｒａｄｅ　Ｌｔｄ．,,外国会社等,,,,,,,,Ｒｏｏｍ　４５７１，Ｂｕｉｌｄｉｎｇ　１，２１５　Ｌｉａｎｈｅｂｅｉ　Ｒｏａｄ，Ｆｅｎｇｘｉａｎ　Ｄｉｓｔｒｉｃｔ，Ｓｈａｎｇｈａｉ　２０１４００　ＣＮ,,,,,,2023-09-15,1,,,,,シャンハイリンクマックスインターナショナルトレードリミティッド,0
552,2700150120401,新規,0,2023-09-15,2023-09-15,ｓｈｅｎｚｈｅｎｓｈｉｘｉａｏｅｒｍａｏｙｉｙｏｕｘｉａｎｇｏｎｇｓｉ,,外国会社等,,,,,,,,ｌｏｎｇｃｈｅｎｇｊｉｅｄａｏｃｈｅｎｇｕａｎｇｌｕ９９ｈａｏ　ｂｉｎｆｅｎｓｈｉｊｉＡｚｕｏ２６Ｊ，ｓｈｅｎｚｈｅｎ，ｌｏｎｇｇａｎｇｑｕ，ｇｕａｎｇｄｏｎｇ　５１８１１６　ＣＮ,,,,,,2023-09-15,1,,,,,シェンジェンシシァオアルマオイーヨウシェンゴンスー,0
553,2700150120418,新規,0,2023-09-15,2023-09-15,ｇｕａｎｇｚｈｏｕｓｈｉｊｕｎｘｉｎｇｃｈｅｎｇｄｉａｎｚｉｋｅｊｉｙｏｕｘｉａｎｇｏｎｇｓｉ,,外国会社等,,,,,,,,ｇｕａｎｇｚｈｏｕｓｈｉｚｅｎｇｃｈｅｎｇｑｕｘｉｎｔａｎｇｚｈｅｎｘｉｎｄｕｎｃｕｎｗｅｎｙｏｎｇｌｕ１５ｈａｏＣｄｏｎｇ２ｌｏｕ２０１,,,,,,2023-09-15,1,,,,,グワンジョウシージンシンチョンディエンズーコージーヨウシエンゴンスー,0
554,2700150120426,新規,0,2023-09-15,2023-09-15,Ｓｈｅｎｚｈｅｎ　ＬｅｉＭｉｎｇＹｕＧｕａｎｇＤｉａｎ　Ｃｏ．，Ｌｔｄ,,外国会社等,,,,,,,,１１０１，Ｆｕｃｈａｎｇｓｈｅｎｇ　Ｉｎｄｕｓｔｒｉａｌ　Ｐｌａｎｔ，Ｎｏ．２，Ｃｈｅｎｇｘｉｎ　Ｒｏａｄ，Ｂａｏｌｏｎｇ　Ｃｏｍｍｕｎｉｔｙ，Ｂａｏｌｏｎｇ　Ｓｔｒｅｅｔ，Ｌｏｎｇｇａｎｇ　Ｄｉｓｔｒｉｃｔ，Ｓｈｅｎｚｈｅｎ，Ｇｕａｎｇｄｏｎｇ,,,,,,2023-09-15,1,,,,,シンセンシレイメイウコウデンユウゲンコウシ,0
555,2700150120434,新規,0,2023-09-15,2023-09-15,ｘｕｃｈａｎｇｔａｏｒｕａｎｗａｎｇｌｕｏｋｅｊｉｙｏｕｘｉａｎｇｏｎｇｓｉ,,外国会社等,,,,,,,,ｈｅｎａｎｓｈｅｎｇｘｕｃｈａｎｇｓｈｉｘｉａｎｇｃｈｅｎｇｘｉａｎｄｉｎｇｙｉｎｇｘｉａｎｇ　ｄｏｎｇｄｕｌｉｕｚｕ３９５ｈａｏ,,,,,,2023-09-15,1,,,,,シーチャンタオルワンワンルオコージーヨウシエンゴンスー,0
556,2700150120475,新規,0,2023-09-15,2023-09-15,ｇａｎｚｈｏｕｚｈｕｈｕｌｉｎｇｍａｏｙｉｙｏｕｘｉａｎｇｏｎｇｓｉ,,外国会社等,,,,,,,,ｘｉｎｇｇｕｏｌｕｃｈａｎｇｔａｎｇｘｉｎｃｕｎｔａｉａｎｊｉａｙｕａｎ４ｄｏｎｇ１５０１ｓｈｉ　ｇａｎｚｈｏｕｓｈｉｚｈａｎｇｇｏｎｇｑｕ　ｊｉａｎｇｘｉｓｈｅｎｇ　３４１０００　ＣＮ,,,,,,2023-09-15,1,,,,,ガンジョウジューフーリンマオイーヨウシエンゴンスー,0
558,3010001238528,新規,0,2023-09-15,2023-09-15,中遠株式会社,,株式会社,東京都,中央区,銀座１丁目１２番４号Ｎ＆Ｅ・ＢＬＤ．７階,,13,102,1040061,,,,,,,2023-09-15,1,,,,,チュウエン,0
564,3010401177111,新規,0,2023-09-15,2023-09-15,株式会社４５ｔｈ,,株式会社,東京都,港区,南青山２丁目２番１５号,,13,103,1070062,,,,,,,2023-09-15,1,,,,,フォーファイブス,0
565,3010401177152,新規,0,2023-09-15,2023-09-15,株式会社Ｂｌｕｅ　Ｐｅａｋ,,株式会社,東京都,港区,北青山２丁目５番８号,,13,103,1070061,,,,,,,2023-09-15,1,,,,,ブルーピーク,0
566,3010401177193,新規,0,2023-09-15,2023-09-15,サイバー・ダイブ・インベスティゲーション株式会社,,株式会社,東京都,港区,赤坂２丁目１２番２５号,,13,103,1070052,,,,,,,2023-09-15,1,,,,,サイバーダイブインベスティゲーション,0
567,3010401177210,新規,0,2023-09-15,2023-09-15,マドウラインベストメンツ株式会社,,株式会社,東京都,港区,西麻布４丁目１番１号,,13,103,1060031,,,,,,,2023-09-15,1,,,,,マドウラインベストメンツ,0
574,3010501051042,新規,0,2023-09-15,2023-09-15,株式会社Ｎａｎｏ　Ｂｏｏｓｔ,,株式会社,東京都,台東区,上野１丁目２番６号長谷川ビル３Ｆ,,13,106,1100005,,,,,,,2023-09-15,1,,,,,ナノブースト,0
575,3010501051059,新規,0,2023-09-15,2023-09-15,株式会社かつき設備,,株式会社,東京都,台東区,千束２丁目１８番７号,,13,106,1110031,,,,,,,2023-09-15,1,,,,,カツキセツビ,0
584,3010903008441,新規,0,2023-09-15,2023-09-15,合同会社北海道シネマプロジェクト,,合同会社,東京都,世田谷区,桜上水４丁目６番１４号,,13,112,1560045,,,,,,,2023-09-15,1,,,,,ホッカイドウシネマプロジェクト,0
592,3011001156843,新規,0,2023-09-15,2023-09-15,ＡＮ　ＴＨＩＮＨ株式会社,,株式会社,東京都,渋谷区,広尾３丁目６番４号,,13,113,1500012,,,,,,,2023-09-15,1,,,,,アンティン,0
593,3011001156950,新規,0,2023-09-15,2023-09-15,ＡＲＫ　ＯＮＥ株式会社,,株式会社,東京都,渋谷区,恵比寿４丁目２０番３号恵比寿ガーデンプレイスタワー１８Ｆ,,13,113,1500013,,,,,,,2023-09-15,1,,,,,アークワン,0
595,3011003017564,新規,0,2023-09-15,2023-09-15,天水合同会社,,合同会社,東京都,目黒区,碑文谷５丁目８番１２－６０９号,,13,110,1520003,,,,,,,2023-09-15,1,,,,,テンスイ,0
597,3011005010212,新規,0,2023-09-15,2023-09-15,一般社団法人鉄筋コンクリート構造躯体協会,,その他の設立登記法人,東京都,渋谷区,千駄ヶ谷３丁目３９番１号北参道サンイーストテラス５Ｆ,,13,113,1510051,,,,,,,2023-09-15,1,,,,,テッキンコンクリートコウゾウクタイキョウカイ,0
599,3011101104363,新規,0,2023-09-15,2023-09-15,株式会社ＣＯＭＭＥＲＣＩＡＬ　ＡＴ,,株式会社,東京都,新宿区,新宿１丁目３番１２号壱丁目参番館３階,,13,104,1600022,,,,,,,2023-09-15,1,,,,,コマーシャルアット,0
603,3011105010780,新規,0,2023-09-15,2023-09-15,一般社団法人コア・フォー,,その他の設立登記法人,東京都,新宿区,西新宿８丁目５番１号,,13,104,1600023,,,,,,,2023-09-15,1,,,,,コアフォー,0
604,3011303004907,新規,0,2023-09-15,2023-09-15,ナチュクレ合同会社,,合同会社,東京都,杉並区,西荻南１丁目１番１２号,,13,115,1670053,,,,,,,2023-09-15,1,,,,,ナチュクレ,0
610,3011701026602,新規,0,2023-09-15,2023-09-15,株式会社しろべえ,,株式会社,東京都,江戸川区,中葛西３丁目１３番１１号,,13,123,1340083,,,,,,,2023-09-15,1,,,,,シロベエ,0
612,3011803005834,新規,0,2023-09-15,2023-09-15,合同会社ＫＣ,,合同会社,東京都,葛飾区,新小岩１丁目２９番５号コンコルディア２００１,,13,122,1240024,,,,,,,2023-09-15,1,,,,,ケーシー,0
614,3012401041008,新規,0,2023-09-15,2023-09-15,株式会社ウルプロ,,株式会社,東京都,狛江市,岩戸北２丁目１６番７号,,13,219,2010004,,,,,,,2023-09-15,1,,,,,ウルプロ,0
616,3012801022598,新規,0,2023-09-15,2023-09-15,株式会社あんど,,株式会社,東京都,日野市,日野本町３丁目８番３号,,13,212,1910011,,,,,,,2023-09-15,1,,,,,アンド,0
621,3020001153536,新規,0,2023-09-15,2023-09-15,株式会社エスキューブ,,株式会社,神奈川県,横浜市中区,不老町１丁目２番地１,,14,104,2310032,,,,,,,2023-09-15,1,,,,,エスキューブ,0
624,3020003024553,新規,0,2023-09-15,2023-09-15,Ｈ＆Ｖ合同会社,,合同会社,神奈川県,横浜市磯子区,杉田１丁目１４－１,,14,107,2350033,,,,,,,2023-09-15,1,,,,,エイチアンドヴィー,0
625,3020003024611,新規,0,2023-09-15,2023-09-15,合同会社ウェルビーイングラボ,,合同会社,神奈川県,横浜市西区,北幸２丁目１０番地２８むつみビル３Ｆ,,14,103,2200004,,,,,,,2023-09-15,1,,,,,ウェルビーイングラボ,0
627,3021001080183,新規,0,2023-09-15,2023-09-15,株式会社良建,,株式会社,神奈川県,藤沢市,遠藤２７６１番地の１２,,14,205,2520816,,,,,,,2023-09-15,1,,,,,ヨシケン,0
635,3030001156067,新規,0,2023-09-15,2023-09-15,株式会社みどり創研,,株式会社,埼玉県,八潮市,緑町１丁目２８番地３,,11,234,3400808,,,,,,,2023-09-15,1,,,,,ミドリソウケン,0
642,3030003022556,新規,0,2023-09-15,2023-09-15,合同会社マトニティ,,合同会社,埼玉県,さいたま市北区,植竹町１丁目５１番地末広ビル２ＦＢ,,11,102,3310813,,,,,,,2023-09-15,1,,,,,マトニティ,0
649,3040005022116,新規,0,2023-09-15,2023-09-15,一般社団法人アート＆イノベーション教育研究会,,その他の設立登記法人,千葉県,柏市,若柴１７８番地４柏の葉キャンパス１４８街区２ショップ＆オフィス棟ＫＯＩＬ,,12,217,2770871,,,,,,,2023-09-15,1,,,,,アートアンドイノベーションキョウイクケンキュウカイ,0
657,3060001036340,新規,0,2023-09-15,2023-09-15,株式会社フィンステック,,株式会社,栃木県,那須塩原市,鹿野崎１１２番地１１,,09,213,3293121,,,,,,,2023-09-15,1,,,,,フィンステック,0
661,3070001040878,新規,0,2023-09-15,2023-09-15,株式会社ＹＡＧＩ緑化,,株式会社,群馬県,高崎市,萩原町１２６９番地３,,10,202,3700013,,,,,,,2023-09-15,1,,,,,ヤギリョッカ,0
667,3080101024210,新規,0,2023-09-15,2023-09-15,株式会社ミヤ製麺,,株式会社,静岡県,富士宮市,小泉６６５－１,,22,207,4180022,,,,,,,2023-09-15,1,,,,,ミヤセイメン,0
669,3080401026732,新規,0,2023-09-15,2023-09-15,株式会社Ａｎｓｗｅｒｓ,,株式会社,静岡県,浜松市西区,大平台３丁目１６番２２号１０２,,22,133,4328068,,,,,,,2023-09-15,1,,,,,アンサーズ,0
671,3100001036781,新規,0,2023-09-15,2023-09-15,株式会社玖龍,,株式会社,長野県,長野市,大字村山８８番地１,,20,201,3810011,,,,,,,2023-09-15,1,,,,,クーロン,0
672,3100003007186,新規,0,2023-09-15,2023-09-15,コンパクトバイオ合同会社,,合同会社,長野県,飯田市,鼎上山２９４８番地１号,,20,205,3950806,,,,,,,2023-09-15,1,,,,,コンパクトバイオ,0
674,3110001037845,新規,0,2023-09-15,2023-09-15,株式会社アマネセール,,株式会社,新潟県,新潟市中央区,笹口１丁目１８番地９,,15,103,9500911,,,,,,,2023-09-15,1,,,,,アマネセール,0
677,3110003005164,新規,0,2023-09-15,2023-09-15,合同会社エムテック,,合同会社,新潟県,柏崎市,松波４丁目３番３－５号,,15,205,9450011,,,,,,,2023-09-15,1,,,,,エムテック,0
690,3120001258044,新規,0,2023-09-15,2023-09-15,イプラス株式会社,,株式会社,大阪府,大阪市中央区,久太郎町４丁目１－３大阪センタービル６Ｆ－２４６,,27,128,5410056,,,,,,,2023-09-15,1,,,,,イプラス,0
691,3120001258077,新規,0,2023-09-15,2023-09-15,株式会社ニーズウエスト企画,,株式会社,大阪府,大阪市北区,中之島６丁目１番３８－３３０３号,,27,127,5300005,,,,,,,2023-09-15,1,,,,,ニーズウエストキカク,0
692,3120001258151,新規,0,2023-09-15,2023-09-15,株式会社ｗｉｔｈｗｉｎｓ　ａｎｄｘ,,株式会社,大阪府,大阪市中央区,材木町１番６号第１２新興ビル１００２号室,,27,128,5400010,,,,,,,2023-09-15,1,,,,,ウィズウィンズアンドエックス,0
696,3120101068211,新規,0,2023-09-15,2023-09-15,Ｄホームズ株式会社,,株式会社,大阪府,堺市堺区,出島海岸通３丁３番２号,,27,141,5900833,,,,,,,2023-09-15,1,,,,,ディーホームズ,0
697,3120103005443,新規,0,2023-09-15,2023-09-15,セブンアクティブ合同会社,,合同会社,大阪府,藤井寺市,津堂１丁目２番８号,,27,226,5830037,,,,,,,2023-09-15,1,,,,,セブンアクティブ,0
704,3130001075141,新規,0,2023-09-15,2023-09-15,株式会社カネリ,,株式会社,京都府,京都市中京区,錦堀川町６５９番地松田ビル８階,,26,104,6048235,,,,,,,2023-09-15,1,,,,,カネリ,0
705,3130001075208,新規,0,2023-09-15,2023-09-15,ＴＲＹ　ＴＨＲＥＥ株式会社,,株式会社,京都府,京都市中京区,西ノ京東月光町３０－８サンメゾン京都二条月光町ゲート１０２,,26,104,6048422,,,,,,,2023-09-15,1,,,,,トライスリー,0
706,3130001075224,新規,0,2023-09-15,2023-09-15,株式会社ＫＥＩＷＡ,,株式会社,京都府,京都市南区,久世東土川町２８９番地７,,26,107,6018204,,,,,,,2023-09-15,1,,,,,ケイワ,0
707,3130001075232,新規,0,2023-09-15,2023-09-15,イクタグループ株式会社,,株式会社,京都府,京都市伏見区,横大路下三栖辻堂町６番地,,26,109,6128241,,,,,,,2023-09-15,1,,,,,イクタグループ,0
708,3130003008990,新規,0,2023-09-15,2023-09-15,合同会社トトノイ,,合同会社,京都府,京都市中京区,三条通新町西入ル釜座町２２番地ストークビル三条烏丸３１２号室,,26,104,6040000,,,,,,,2023-09-15,1,,,,,トトノイ,0
714,3140001131629,新規,0,2023-09-15,2023-09-15,株式会社景翔,,株式会社,兵庫県,伊丹市,中央１丁目７番７号,,28,207,6640851,,,,,,,2023-09-15,1,,,,,ケイト,0
720,3150003003065,新規,0,2023-09-15,2023-09-15,合同会社Ｍｍマネジメントオフィス,,合同会社,奈良県,奈良市,学園赤松町３６０２番地の３,,29,201,6310027,,,,,,,2023-09-15,1,,,,,エムエムマネジメントオフィス,0
729,3180001158040,新規,0,2023-09-15,2023-09-15,株式会社Ｃａｍｐｈｏｒ　ｔｒｅｅ,,株式会社,愛知県,一宮市,奥町字田畑２８番地１,,23,203,4910201,,,,,,,2023-09-15,1,,,,,カンファーツリー,0
730,3180001158057,新規,0,2023-09-15,2023-09-15,株式会社珀澄,,株式会社,愛知県,名古屋市中区,大須４丁目１番７１号矢場町中駒ビル４０３号室,,23,106,4600011,,,,,,,2023-09-15,1,,,,,ハクト,0
734,3180005020353,新規,0,2023-09-15,2023-09-15,医療法人護明会,,その他の設立登記法人,愛知県,大府市,東新町２丁目１６５番地,,23,223,4740073,,,,,,,2023-09-15,1,,,,,ゴメイカイ,0
737,3190001030735,新規,0,2023-09-15,2023-09-15,株式会社竹建工業,,株式会社,三重県,四日市市,河原田町２２５５番地１,,24,202,5100874,,,,,,,2023-09-15,1,,,,,タッケンコウギョウ,0
742,3220003003586,新規,0,2023-09-15,2023-09-15,合同会社ミュークレス,,合同会社,石川県,河北郡内灘町,字鶴ケ丘１丁目３９５番地４,,17,365,9200271,,,,,,,2023-09-15,1,,,,,ミュークレス,0
749,3260001038317,新規,0,2023-09-15,2023-09-15,株式会社サンヨープレジャークリエイト,,株式会社,岡山県,岡山市北区,大内田７１５番地４,,33,101,7010165,,,,,,,2023-09-15,1,,,,,サンヨープレジャークリエイト,0
756,3290001103027,新規,0,2023-09-15,2023-09-15,株式会社アセプロ,,株式会社,福岡県,福岡市博多区,博多駅南３丁目１７番１９号ベーシックビル博多６０３号,,40,132,8120016,,,,,,,2023-09-15,1,,,,,アセプロ,0
764,3290801029883,新規,0,2023-09-15,2023-09-15,株式会社花蓮光‐ＳＡＴＳＵＫＩ,,株式会社,福岡県,北九州市門司区,大久保１丁目８番２４号,,40,101,8010883,,,,,,,2023-09-15,1,,,,,サツキ,0
765,3320001019995,新規,0,2023-09-15,2023-09-15,株式会社一粋,,株式会社,大分県,大分市,賀来新川１丁目１番５２号,,44,201,8700892,,,,,,,2023-09-15,1,,,,,イッスイ,0
766,3330001031264,新規,0,2023-09-15,2023-09-15,株式会社紀心,,株式会社,熊本県,宇城市,小川町江頭３２６－９,,43,213,8690624,,,,,,,2023-09-15,1,,,,,キシン,0
769,3360001032524,新規,0,2023-09-15,2023-09-15,株式会社ＹＵＢＡ　ＮＡＵＲＥ,,株式会社,沖縄県,石垣市,字大川２７８番地ＴＡＭＡビルＩＩ２Ｆ２０１号室,00131929,47,207,9070022,,,,,,,2023-09-15,1,,,,,ユバナウレ,0
774,3370003006285,新規,0,2023-09-15,2023-09-15,合同会社Ｂｌｏｓｓｏｍ,,合同会社,宮城県,遠田郡美里町,字叔廼前２４番地１,,04,505,9870053,,,,,,,2023-09-15,1,,,,,ブロッサム,0
785,3430001089978,新規,0,2023-09-15,2023-09-15,Ｔアシスト株式会社,,株式会社,北海道,札幌市白石区,東札幌二条２丁目２－７,,01,104,0030002,,,,,,,2023-09-15,1,,,,,ティーアシスト,0
789,3430003015395,新規,0,2023-09-15,2023-09-15,合同会社ＭＤ,,合同会社,北海道,札幌市中央区,北四条東１丁目３クリーンリバーフィーネス札幌駅イースト３０１,,01,101,0600034,,,,,,,2023-09-15,1,,,,,エムディー,0
795,3700150118485,新規,0,2023-09-15,2023-09-15,ｓｈｅｎ　ｚｈｅｎ　ｓｈｉ　ｙｏｎｇ　ｓｈｕｎ　ｔｕ　ｋｅ　ｊｉ　ｙｏｕ　ｘｉａｎ　ｇｏｎｇ　ｓｉ,,外国会社等,,,,,,,,ｌｏｎｇ　ｇａｎｇ　ｑｕ　ｐｉｎｇ　ｈｕ　ｊｉｅ　ｄａｏ　ｘｉｎ　ｍｕ　ｓｈｅ　ｑｕ　ｘｉｎ　ｍｕ　ｌｕ　３２１ｈａｏ　ｘｉｎ　ｍｕ　ｂａｎ　ｌｉ　ｄａ　ｓｈａ　Ａｚｕｏ　１４０３　ｓｈｅｎ　ｚｈｅｎ　ｓｈｉ　ｇｕａｎｇ　ｄｏｎｇ　ｓｈｅｎ　ＣＮ,,,,,,2023-09-15,1,,,,,シエンゼエンシヨンシユンテユケジユウゲンコウシ,0
796,3700150120284,新規,0,2023-09-15,2023-09-15,Ｘｉａｍｅｎ　Ｊｉｎｃｈｅｎｙｏｕ　Ｔｒａｄｉｎｇ　Ｃｏ．，Ｌｔｄ．,,外国会社等,,,,,,,,Ｒｏｏｍ　２６０１，Ｎｏ．１　Ｘｉｙａｎｇｓａｎｌｉ，　Ｗｕｘｉａｎ　Ｔｏｗｎ，Ｔｏｎｇ’ａｎ　Ｄｉｓｔｒｉｃｔ　Ｘｉａｍｅｎ　Ｆｕｊｉａｎ　３６１１００　ＣＮ,,,,,,2023-09-15,1,,,,,シャアメンジンチェンヨウマオイーヨウシェンゴンスー,0
797,3700150120292,新規,0,2023-09-15,2023-09-15,Ｄｏｎｇｇｕａｎ　Ｙｕｎｈｕａ　Ｅ－Ｃｏｍｍｅｒｃｅ　Ｃｏ．，Ｌｔｄ．,,外国会社等,,,,,,,,Ｎｏ．３　Ｓｏｕｔｈ　Ｃｈｉｋａｎ　Ｘｉｎｗｅｉ　Ｓｅｃｏｎｄ　Ｒｏａｄ　Ｓｈｉ　Ｐａｉ　Ｔｏｗｎ　Ｄｏｎｇｇｕａｎ　Ｃｉｔｙ　Ｇｕａｎｇｄｏｎｇ　Ｐｒｏｖｉｎｃｅ,,,,,,2023-09-15,1,,,,,トウカンユンホゥアイーコマースカンパニーリミテッド,0
798,3700150120301,新規,0,2023-09-15,2023-09-15,ｌｅｋｅｓｈｉｙａｎｓｈｉｓｈｅｂｅｉ（ｂｅｉｊｉｎｇ）ｙｏｕｘｉａｎｇｏｎｇｓｉ,,外国会社等,,,,,,,,Ｒｏｏｍ　Ｃ－１６０１，Ｗｅｓｔ　Ｓｏｎｇｌａｎｂａｏ　Ｖｉｌｌａｇｅ，Ｓｈａｈｅ　Ｔｏｗｎ，Ｃｈａｎｇｐｉｎｇ　Ｄｉｓｔｒｉｃｔ，Ｂｅｉｊｉｎｇ,,,,,,2023-09-15,1,,,,,レカシイェンシセツビペキンユウゲンコウシ,0
799,3700150120318,新規,0,2023-09-15,2023-09-15,Ｌｉａｎｙｕａｎｓｈｉｊｉｎｇｓｈｉｃｕｉｃａｎｄｉａｎｚｉｓｈａｎｇｗｕ　ｙｏｕｘｉａｎｇｏｎｇｓｉ,,外国会社等,,,,,,,,Ｈｕｎａｎｓｈｅｎｇ　ｌｏｕｄｉｓｈｉ　ｌｉａｎｙｕａｎｓｈｉ　ｄｏｕｌｉｓｈａｎｚｈｅｎ　ｊｉｎｌｉｎｇｃｕｎ　ｆｅｎｇｘｉｎｇｚｕ，Ｃｈｉｎａ,,,,,,2023-09-15,1,,,,,レンゲンシジンシツイチャンデンシショウムユウゲンコウシ,0
800,3700150120326,新規,0,2023-09-15,2023-09-15,Ｐｉｎｇｙａｎｇｘｉａｎｘｉｎｇｃｈｉｍａｏｙｉｙｏｕｘｉａｎｇｏｎｇｓｉ,,外国会社等,,,,,,,,Ｐｉｎｇｙａｎｇｘｉａｎｗａｎｑｕａｎｚｈｅｎｚｈｅｎｇｌｏｕｚｈｅｎｘｉｎｇｘｉｌｕ　Ｗｅｎｚｈｏｕｓｈｉ　Ｚｈｅｊｉａｎｇｓｈｅｎｇ　３２５４００　ＣＮ,,,,,,2023-09-15,1,,,,,ピンヤンシエンシンチーマオイーヨウシエンゴンスー,0
801,3700150120334,新規,0,2023-09-15,2023-09-15,ｌｏｕｄｉ　ｇｕｉｘｉｎｄｉａｎｚｉｓｈａｎｇｗｕ　ｙｏｕｘｉａｎｇｏｎｇｓｉ,,外国会社等,,,,,,,,ｘｉｎｈｕａｘｉａｎ　ｙｏｕｊｉａｚｈｅｎｄｏｎｇｌｉｎｇｃｕｎｎｉａｎｚｉｗｕ１ｚｕ　ｌｏｕｄｉｓｈｉ　ｈｕｎａｎｓｈｅｎｇ　４１７６００　ＣＮ,,,,,,2023-09-15,1,,,,,ロウディグイシンデンシショウムヨウシェンゴンスー,0
802,3700150120342,新規,0,2023-09-15,2023-09-15,Ｓｈｅｎｚｈｅｎｓｈｉ　Ｙｕｙｉｄｉａｎｚｉ　Ｋｅｊｉｙｏｕｘｉａｎｇｏｎｇｓｉ,,外国会社等,,,,,,,,６０１，Ｎｏ．２０９５　Ｂｉｘｉｎ　Ｒｏａｄ　Ｌｏｎｇｇａｎｇｄｕａｎ，Ｎａｎｌｉａｎ　Ｃｏｍｍｕｎｉｔｙ，Ｌｏｎｇｇａｎｇ　Ｓｔｒｅｅｔ，Ｌｏｎｇｇａｎｇ　Ｄｉｓｔｒｉｃｔ，Ｓｈｅｎｚｈｅｎ,,,,,,2023-09-15,1,,,,,シンセンシヨイデンシカギユウゲンコウシ,0
803,3700150120350,新規,0,2023-09-15,2023-09-15,Ｓｈｅｎｚｈｅｎ　Ｃｈｅｎｇｘｉｎ　Ｔｅｃｈｎｏｌｏｇｙ　Ｃｏ．，Ｌｔｄ．,,外国会社等,,,,,,,,Ｎｏ．４，Ｘｉｎｓｈａ　Ｓｔｒｅｅｔ，Ｘｉｎｓｈａ　Ｃｏｍｍｕｎｉｔｙ，Ｓｈａｔｏｕ　Ｓｔｒｅｅｔ，Ｆｕｔｉａｎ　Ｄｉｓｔｒｉｃｔ　Ｘｉｎｓｈａｙｕａｎ　６　Ｕｎｉｔ　５０１　Ｓｈｅｎｚｈｅｎ　Ｃｈｉｎａ,,,,,,2023-09-15,1,,,,,シンセンチェンシンテクノロジーカンパニーリミテッド,0
804,3700150120359,新規,0,2023-09-15,2023-09-15,Ｓｈｅｎｚｈｅｎ　Ｂａｏｌａｎ　Ｅ－ｃｏｍｍｅｒｃｅ　Ｃｏ．，Ｌｔｄ,,外国会社等,,,,,,,,Ｒｏｏｍ　２７１０，２７ｔｈ　Ｆｌｏｏｒ，Ｃｈａｎｇｊｉａｎｇ　Ｃｅｎｔｅｒ，Ｉｎｔｅｒｓｅｃｔｉｏｎ　ｏｆ　Ｒｅｎｍｉｎ　Ｒｏａｄ　ａｎｄ　Ｊｉａｎｓｈｅ　Ｒｏａｄ，Ｊｉｎｇｌｏｎｇ　Ｃｏｍｍｕｎｉｔｙ，Ｌｏｎｇｈｕａ　Ｓｔｒｅｅｔ，Ｌｏｎｇｈｕａ　Ｄｉｓｔｒｉｃｔ，Ｓｈｅｎｚｈｅｎ　Ｃｉｔｙ,,,,,,2023-09-15,1,,,,,シンセンバオランイーコマースカンパニーリミテッド,0
805,3700150120367,新規,0,2023-09-15,2023-09-15,ＪｉｎｊｉａｎｇＤａｙａｎＧｕａｎｇｄｉａｎ　ＹｏｕｘｉａｎＧｏｎｇｓｉ,,外国会社等,,,,,,,,ＡｎｈａｉＡｎｐｉｎｇＣｈｅｎｇａｎｌｕ２８ｈａｏ　Ｊｉｎｊｉａｎｇ　Ｆｕｊｉａｎ,,,,,,2023-09-15,1,,,,,シンコウダイエンコウデンユウゲンコウシ,0
806,3700150120375,新規,0,2023-09-15,2023-09-15,ｓｈｕａｎｇｆｅｎｇｍａｉｓｈｅｎｇｄｉａｎｚｉｓｈａｎｇｗｕ　ｙｏｕｘｉａｎｇｏｎｇｓｉ,,外国会社等,,,,,,,,Ｈｕｎａｎｓｈｅｎｇｌｏｕｄｉｓｈｉｓｈｕａｎｇｆｅｎｇｘｉａｎｙｏｎｇｆｅｎｇｊｉｅｄａｏｇｕｏｆａｎｌｕ（ｙｉｆａｎｇｘｉｎｃｈｅｎｇｈｅｙｕａｎ２０ｈａｏｌｏｕ１ｃｅｎｇ１１４ｆａｎｇ）,,,,,,2023-09-15,1,,,,,ソウホウマイセンデンシショウムユウゲンコウシ,0
807,3700150120383,新規,0,2023-09-15,2023-09-15,ｓｈｅｎｚｈｅｎｓｈｉｗａｎｔｕｓｈｉｒｕｉｋｅｊｉ　ｙｏｕｘｉａｎｇｏｎｇｓｉ,,外国会社等,,,,,,,,Ｒｏｏｍ２０１ＢｌｏｃｋＡＮｏ．１ＱｉａｎｗａｎＲｏａｄ１　ＱｉａｎｈａｉＳｈｅｎｚｈｅｎ－ＨｏｎｇＫｏｎｇ　ｃｏｏｐｅｒａｔｉｏｎｚｏｎｅ　ｓｈｅｎｚｈｅｎ,,,,,,2023-09-15,1,,,,,シンセンシワントシルイカギユウゲンコウシ,0
808,3700150120391,新規,0,2023-09-15,2023-09-15,ｓｈｅｎｚｈｅｎｘｉａｏｃｈｏｕｄｉａｎｚｉｓｈａｎｇｗｕ　ｙｏｕｘｉａｎｇｏｎｇｓｉ,,外国会社等,,,,,,,,ｆｕｔｉａｎｑｕｆｕｔｉａｎｊｉｅｄａｏｇａｎｇｓｈａｓｈｅｑｕｃａｉｔｉａｎｎａｎｌｕ３００２ｈａｏｃａｉｈｏｎｇｘｉｎｄｕ２ｃｅｎｇＡｄｕａｎＬ－２１３　Ｓｈｅｎｚｈｅｎ,,,,,,2023-09-15,1,,,,,シンセンシャオチョウデンシショウムユウゲンコウシ,0
809,3700150120400,新規,0,2023-09-15,2023-09-15,ｇｕａｎｇｚｈｏｕｔｕｇｕａｎｇｄｉａｎｚｉｋｅｊｉｙｏｕｘｉａｎｇｏｎｇｓｉ,,外国会社等,,,,,,,,ｆｅｎｇｚｅｌｕ１０６ｈａｏ（ｚｉｂｉａｎ１ｈａｏｌｏｕ）ｘ１３０１－Ｅ３６３０（ｊｉｑｕｎｚｈｕｃｅ）（ＪＭ）ｎａｎｓｈａｑｕ　ｇｕａｎｇｄｏｎｇｓｈｅｎｇｇｕａｎｇｚｈｏｕｓｈｉ　５１００００　ＣＮ,,,,,,2023-09-15,1,,,,,グァンジョウトゥーグァンディエンズーカージヨウシェンゴンスー,0
810,3700150120409,新規,0,2023-09-15,2023-09-15,ｚｈｕｈａｉｓｈｉｗｕｍｕｋｅｊｉｙｏｕｘｉａｎｇｏｎｇｓｉ,,外国会社等,,,,,,,,ｈｅｎｇｑｉｎｘｉｎｑｕｂａｏｈｕａｌｕ６ｈａｏ１０５ｓｈｉ－７８３０　ｚｈｕｈａｉ　ｇｕａｎｇｄｏｎｇ　５１９０００　ＣＮ,,,,,,2023-09-15,1,,,,,ジューハイシーウームーコージーヨウシエンゴンスー,0
811,3700150120417,新規,0,2023-09-15,2023-09-15,ｇｕａｎｇｚｈｏｕｒｕｉｃｈｕａｎｇｑｉｃｈｅｙｏｎｇｐｉｎｙｏｕｘｉａｎｇｏｎｇｓｉ,,外国会社等,,,,,,,,ｂａｉｙｕｎｑｕｙｏｎｇｐｉｎｇｊｉｅｄｏｎｇｐｉｎｇｊｉａｏｔｅｎｇｊｉｅｄｏｎｇｘｉａｎｇ２ｈａｏ２０４ｆａｎｇ　ｇｕａｎｇｚｈｏｕ　ｇｕａｎｇｄｏｎｇ　５１０４２０　ＣＮ,,,,,,2023-09-15,1,,,,,グワンジョウルイチュワンチーチョーヨンピンヨウシエンゴンスー,0
812,3700150120425,新規,0,2023-09-15,2023-09-15,杭州佰世吉進出口有限公司,,外国会社等,,,,,,,,中国浙江省杭州市臨平区東湖街道五洲路２６号４幢５１４室,,,,,,2023-09-15,1,,,,,コウシュウハクセキチシンシュツコウユウゲンコウシ,0
813,3700150120433,新規,0,2023-09-15,2023-09-15,ＳｈｅｎＺｈｅｎＸｉｎｇＹｕａｎＹｏｕＷａｎｇＬｕｏＫｅＪｉＹｏｕＸｉａｎＧｏｎｇＳｉ,,外国会社等,,,,,,,,ＳｈｅｎＺｈｅｎＳｈｉＬｏｎｇＧａｎｇＱｕＢａｎＴｉａｎＪｉｅＤａｏＢａｎＴｉａｎＳｈｅＱｕＪｉＨｕａＬｕ５３９Ｈａｏ５０３,,,,,,2023-09-15,1,,,,,シェンジェンシンユエンヨウワンルオコージーヨウシエンゴンスー,0
814,3700150120474,新規,0,2023-09-15,2023-09-15,ｇａｎｚｈｏｕｌｅｈｏｕｗｅｉｗａｎｇｌｕｏｋｅｊｉｙｏｕｘｉａｎｇｏｎｇｓｉ,,外国会社等,,,,,,,,ｚｈａｎｇｊｉａｎｇｂｅｉｄａｄａｏ１３８ｈａｏｃｈｕｎｊｉａｎｇｈｕａｙｕｅ７ｈａｏｌｏｕ１６０３ｓｈｉ　ｇａｎｚｈｏｕｓｈｉｚｈａｎｇｇｏｎｇｑｕ　ｊｉａｎｇｘｉｓｈｅｎｇ　３４１０００　ＣＮ,,,,,,2023-09-15,1,,,,,ガンジョウラーホウウェイワンルオコージーヨウシエンゴンスー,0
820,4010001238493,新規,0,2023-09-15,2023-09-15,株式会社テクノテックホールディング,,株式会社,東京都,千代田区,永田町１丁目１１番３０号サウスヒル永田町５階ＡＣＡ株式会社内,,13,101,1000014,,,,,,,2023-09-15,1,,,,,テクノテックホールディング,0
821,4010001238551,新規,0,2023-09-15,2023-09-15,北水館株式会社,,株式会社,東京都,千代田区,二番町１番地－４２３,,13,101,1020084,,,,,,,2023-09-15,1,,,,,ホクスイカン,0
827,4010005037264,新規,0,2023-09-15,2023-09-15,一般社団法人３ｒｄ　Ｍｅｄｉｃａｌ,,その他の設立登記法人,東京都,千代田区,飯田橋２丁目１８番１－２１０６号,,13,101,1020072,,,,,,,2023-09-15,1,,,,,サードメディカル,0
828,4010005037272,新規,0,2023-09-15,2023-09-15,一般財団法人花王みらい共生財団,,その他の設立登記法人,東京都,中央区,日本橋茅場町１丁目１４番１０号,,13,102,1030025,,,,,,,2023-09-15,1,,,,,カオウミライキョウセイザイダン,0
831,4010401177135,新規,0,2023-09-15,2023-09-15,株式会社ヤスダグループ,,株式会社,東京都,港区,西麻布１丁目６番１１－９０９号,,13,103,1060031,,,,,,,2023-09-15,1,,,,,ヤスダグループ,0
832,4010401177151,新規,0,2023-09-15,2023-09-15,株式会社ＹＳビル,,株式会社,東京都,港区,芝大門２丁目１１番１６号,,13,103,1050012,,,,,,,2023-09-15,1,,,,,ワイエスビル,0
833,4010401177168,新規,0,2023-09-15,2023-09-15,株式会社Ｈ２,,株式会社,東京都,港区,虎ノ門１丁目２１番１０－１００５号,,13,103,1050001,,,,,,,2023-09-15,1,,,,,エイチツー,0
834,4010401177201,新規,0,2023-09-15,2023-09-15,株式会社リプロエステート,,株式会社,東京都,港区,南青山２丁目２番８号,,13,103,1070062,,,,,,,2023-09-15,1,,,,,リプロエステート,0
835,4010401177234,新規,0,2023-09-15,2023-09-15,株式会社三石深井,,株式会社,東京都,港区,元赤坂１丁目１番８号株式会社赤坂国際会計内,,13,103,1070051,,,,,,,2023-09-15,1,,,,,ミツイシフカイ,0
836,4010403030969,新規,0,2023-09-15,2023-09-15,ＮＡＰＩＥＲ合同会社,,合同会社,東京都,港区,南青山４丁目９番１９号,,13,103,1070062,,,,,,,2023-09-15,1,,,,,ネイピア,0
839,4010501051058,新規,0,2023-09-15,2023-09-15,株式会社大唐国際,,株式会社,東京都,台東区,上野５丁目８番１０号１０１,,13,106,1100005,,,,,,,2023-09-15,1,,,,,ダイトウコクサイ,0
851,4011001156966,新規,0,2023-09-15,2023-09-15,株式会社ｃｌｉｍｂ　ａｌｌ,,株式会社,東京都,渋谷区,神宮前１丁目１２番６号原宿土肥ビル４０１,,13,113,1500001,,,,,,,2023-09-15,1,,,,,クライムオール,0
852,4011001156982,新規,0,2023-09-15,2023-09-15,株式会社プライムリンク,,株式会社,東京都,目黒区,下目黒２丁目１８番３号,,13,110,1530064,,,,,,,2023-09-15,1,,,,,プライムリンク,0
855,4011003017530,新規,0,2023-09-15,2023-09-15,日本情報サービス合同会社,,合同会社,東京都,渋谷区,渋谷２丁目１９－１５宮益坂ビルディング６０９,,13,113,1500002,,,,,,,2023-09-15,1,,,,,ニホンジョウホウサービス,0
859,4011101104354,新規,0,2023-09-15,2023-09-15,株式会社シーソリューションズ,,株式会社,東京都,新宿区,西新宿３丁目３番１３号西新宿水間ビル２Ｆ,,13,104,1600023,,,,,,,2023-09-15,1,,,,,シーソリューションズ,0
860,4011101104362,新規,0,2023-09-15,2023-09-15,ＥｃｏＳｌｉｄｅ株式会社,,株式会社,東京都,新宿区,百人町２丁目２６番８号加瀬ビル１７８－８０１室,,13,104,1690073,,,,,,,2023-09-15,1,,,,,エコスライド,0
861,4011101104412,新規,0,2023-09-15,2023-09-15,株式会社トリックルネクスト,,株式会社,東京都,新宿区,大久保１丁目１番３８号,,13,104,1690072,,,,,,,2023-09-15,1,,,,,トリックルネクスト,0
864,4011103013446,新規,0,2023-09-15,2023-09-15,合同会社ＭＥＬＬＯＷ,,合同会社,東京都,新宿区,市谷田町３丁目８市ヶ谷科学技術イノベーションセンタービル２Ｆ,,13,104,1620843,,,,,,,2023-09-15,1,,,,,メロウ,0
865,4011103013462,新規,0,2023-09-15,2023-09-15,合同会社Ｍａｉｓｏｎ　Ｒｉｃｈａｒｄ,,合同会社,東京都,新宿区,市谷台町６－２,,13,104,1620066,,,,,,,2023-09-15,1,,,,,メゾンリシャール,0
866,4011103013495,新規,0,2023-09-15,2023-09-15,合同会社ＭＩＵ,,合同会社,東京都,新宿区,歌舞伎町１丁目７番１号Ｊ２ビルディング２階,,13,104,1600021,,,,,,,2023-09-15,1,,,,,ミウ,0
868,4011301029005,新規,0,2023-09-15,2023-09-15,株式会社ハーフブロード３世‐ＳＯＲＡ,,株式会社,東京都,杉並区,荻窪１丁目５番６号,,13,115,1670051,,,,,,,2023-09-15,1,,,,,ハーフブロードサンセイソラ,0
873,4011801043042,新規,0,2023-09-15,2023-09-15,株式会社ホンド,,株式会社,東京都,足立区,中川２丁目１６番７号,,13,121,1200002,,,,,,,2023-09-15,1,,,,,ホンド,0
874,4012401041007,新規,0,2023-09-15,2023-09-15,株式会社ｋｉｄ,,株式会社,東京都,稲城市,矢野口１７２１番地,,13,225,2060812,,,,,,,2023-09-15,1,,,,,ケーアイディー,0
875,4012401041015,新規,0,2023-09-15,2023-09-15,株式会社吉祥寺商会,,株式会社,東京都,三鷹市,下連雀７丁目１４番８－５０１号,,13,204,1810013,,,,,,,2023-09-15,1,,,,,キチジョウジショウカイ,0
885,4020001153535,新規,0,2023-09-15,2023-09-15,Ｈ．Ｉ．Ｔ株式会社,,株式会社,神奈川県,横浜市港北区,新吉田東５丁目４７番９号,,14,109,2230058,,,,,,,2023-09-15,1,,,,,ヒット,0
886,4020003024585,新規,0,2023-09-15,2023-09-15,時間貸駐車場合同会社,,合同会社,神奈川県,横浜市西区,浅間町１丁目４‐３ウィザードビル４０２,,14,103,2200072,,,,,,,2023-09-15,1,,,,,ジカンカシチュウシャジョウ,0
887,4020003024593,新規,0,2023-09-15,2023-09-15,キララ商事合同会社,,合同会社,神奈川県,川崎市中原区,新城３丁目６－１－３Ｆ－３０３号,,14,133,2110044,,,,,,,2023-09-15,1,,,,,キララショウジ,0
888,4021001080190,新規,0,2023-09-15,2023-09-15,株式会社小田原エボリューション,,株式会社,神奈川県,小田原市,南鴨宮３丁目２８－２６,,14,206,2500875,,,,,,,2023-09-15,1,,,,,オダワラエボリューション,0
890,4021003013586,新規,0,2023-09-15,2023-09-15,Ｈｕｍｂｌｅ　Ｓｙｍｐｈｏｎｙ合同会社,,合同会社,神奈川県,逗子市,久木１丁目９番２９号ヴィラソナリオ２０１,,14,208,2490001,,,,,,,2023-09-15,1,,,,,ハンブルシンフォニー,0
896,4030001155480,新規,0,2023-09-15,2023-09-15,株式会社ＧＣＥ　ＪＡＰＡＮ,,株式会社,埼玉県,比企郡吉見町,大字黒岩１１１－３,,11,347,3550166,,,,,,,2023-09-15,1,,,,,ジーシーイージャパン,0
906,4040001130111,新規,0,2023-09-15,2023-09-15,株式会社心,,株式会社,千葉県,千葉市中央区,寒川町３丁目８５番地１,,12,101,2600832,,,,,,,2023-09-15,1,,,,,ココロ,0
909,4040005022123,新規,0,2023-09-15,2023-09-15,ＳＳＲ協同組合,,その他の設立登記法人,千葉県,鎌ケ谷市,西道野辺１０番２６－２０３号,,12,224,2730117,,,,,,,2023-09-15,1,,,,,エスエスアール,0
911,4060001036348,新規,0,2023-09-15,2023-09-15,株式会社リンクライズ,,株式会社,栃木県,足利市,五十部町１２０－５シーザーパレス渡良瀬１－２０４,,09,202,3260843,,,,,,,2023-09-15,1,,,,,リンクライズ,0
914,4070001040844,新規,0,2023-09-15,2023-09-15,株式会社ＡＣＳＩＳ,,株式会社,群馬県,前橋市,本町３丁目１８番４号,,10,201,3710023,,,,,,,2023-09-15,1,,,,,アクシス,0
918,4080101024218,新規,0,2023-09-15,2023-09-15,株式会社クスノ樹,,株式会社,静岡県,三島市,長伏６６６番地１の１,,22,206,4110824,,,,,,,2023-09-15,1,,,,,クスノキ,0
940,4120001257821,新規,0,2023-09-15,2023-09-15,Ｒａｉｓｔ株式会社,,株式会社,大阪府,大阪市淀川区,田川２丁目３番２６号セレーノ北野７０６号,,27,123,5320027,,,,,,,2023-09-15,1,,,,,レイスト,0
941,4120001258051,新規,0,2023-09-15,2023-09-15,エタージュ株式会社,,株式会社,大阪府,大阪市東淀川区,東中島４丁目１番３９－８１３号,,27,114,5330033,,,,,,,2023-09-15,1,,,,,エタージュ,0
942,4120001258118,新規,0,2023-09-15,2023-09-15,株式会社ｄｅａｒｓ　ｉｎｆｉｎｉｔｙ,,株式会社,大阪府,枚方市,岡本町７－１枚方ビオルネ５階,,27,210,5730031,,,,,,,2023-09-15,1,,,,,ディアズインフィニティ,0
944,4120003024922,新規,0,2023-09-15,2023-09-15,合同会社Ｏｄｄ,,合同会社,大阪府,守口市,菊水通１丁目４番８号,,27,209,5700032,,,,,,,2023-09-15,1,,,,,オッド,0
950,4130001075132,新規,0,2023-09-15,2023-09-15,サンボーズ株式会社,,株式会社,京都府,京都市南区,大黒町２９０ｏｆｆｉｃｅバニスター京都,,26,107,6010000,,,,,,,2023-09-15,1,,,,,サンボーズ,0
952,4130005016883,新規,0,2023-09-15,2023-09-15,一般社団法人文化財畳技術保存会,,その他の設立登記法人,京都府,京都市南区,東九条東山王町２７番地,,26,107,6018004,,,,,,,2023-09-15,1,,,,,ブンカザイタタミギジュツホゾンカイ,0
954,4140001131636,新規,0,2023-09-15,2023-09-15,折田環境株式会社,,株式会社,兵庫県,神戸市垂水区,星陵台５丁目１１番１４－６０１号,,28,108,6550038,,,,,,,2023-09-15,1,,,,,オリタカンキョウ,0
955,4140001131669,新規,0,2023-09-15,2023-09-15,株式会社ＲＯＦＬ,,株式会社,兵庫県,三木市,自由が丘本町２丁目１２３番地の１,,28,215,6730424,,,,,,,2023-09-15,1,,,,,ロフル,0
959,4140003019549,新規,0,2023-09-15,2023-09-15,ＳＫＭ産業合同会社,,合同会社,兵庫県,尼崎市,東園田町８丁目４６－８ヌーベル園田１０２,,28,202,6610953,,,,,,,2023-09-15,1,,,,,エスケーエムサンギョウ,0
969,4180301037819,新規,0,2023-09-15,2023-09-15,株式会社佐藤電工,,株式会社,愛知県,安城市,新田町小山西１０８番地１,,23,212,4460061,,,,,,,2023-09-15,1,,,,,サトウデンコウ,0
974,4240001062136,新規,0,2023-09-15,2023-09-15,株式会社ＧＯ　ＷＩＮＧ,,株式会社,広島県,広島市西区,高須４丁目１１番７－２１１号,,34,104,7330871,,,,,,,2023-09-15,1,,,,,ゴーウイング,0
977,4260001038324,新規,0,2023-09-15,2023-09-15,株式会社エヴォルシアン,,株式会社,岡山県,岡山市北区,岡南町１丁目４番２１号,,33,101,7000866,,,,,,,2023-09-15,1,,,,,エヴォルシアン,0
981,4260003004431,新規,0,2023-09-15,2023-09-15,合同会社ＵＪＣ,,合同会社,岡山県,津山市,神戸１０５番地４,,33,203,7080015,,,,,,,2023-09-15,1,,,,,ユージェイシー,0
988,4290001103042,新規,0,2023-09-15,2023-09-15,ＭＩＹＡＯホールディングス株式会社,,株式会社,福岡県,筑紫野市,大字永岡８１７番１,,40,217,8180066,,,,,,,2023-09-15,1,,,,,ミヤオホールディングス,0
989,4290001103067,新規,0,2023-09-15,2023-09-15,エムビジョン株式会社,,株式会社,福岡県,福岡市南区,若久団地２番１－６０３号,,40,134,8150048,,,,,,,2023-09-15,1,,,,,エムビジョン,0
992,4290801029882,新規,0,2023-09-15,2023-09-15,株式会社エス企画,,株式会社,福岡県,行橋市,行事７丁目７番１３号,,40,213,8240001,,,,,,,2023-09-15,1,,,,,エスキカク,0
994,4320003004177,新規,0,2023-09-15,2023-09-15,合同会社ＳＴＡＮＤＡＲＤ　Ｆｉｅｌｄ,,合同会社,大分県,大分市,金池町２丁目９番１９－７１１号,,44,201,8700026,,,,,,,2023-09-15,1,,,,,スタンダードフィールド,0
1002,4370001050425,新規,0,2023-09-15,2023-09-15,株式会社レティ,,株式会社,宮城県,名取市,杜せきのした２丁目１番地の１,,04,207,9811227,,,,,,,2023-09-15,1,,,,,レティ,0
1009,4390001017372,新規,0,2023-09-15,2023-09-15,株式会社大井沢Ｉ・Ｓ・Ｍ,,株式会社,山形県,西村山郡西川町,大字大井沢１１７７番地,,06,322,9900721,,,,,,,2023-09-15,1,,,,,オオイサワイズム,0
1011,4400003003146,新規,0,2023-09-15,2023-09-15,合同会社いちベジ,,合同会社,岩手県,一関市,末広１丁目１番３３号シャトレー１Ｄ,,03,209,0210032,,,,,,,2023-09-15,1,,,,,イチベジ,0
1020,4430003015428,新規,0,2023-09-15,2023-09-15,合同会社ｋｅｅ,,合同会社,北海道,札幌市清田区,北野三条５丁目２２番１２号,,01,110,0040863,,,,,,,2023-09-15,1,,,,,キイ,0
1021,4430005014774,新規,0,2023-09-15,2023-09-15,医療法人札幌ＩＢＤクリニック,,その他の設立登記法人,北海道,札幌市中央区,南十九条西８丁目１番１８号山鼻ドクタータウン２階,,01,101,0640919,,,,,,,2023-09-15,1,,,,,サッポロアイビーディークリニック,0
1022,4440001009323,新規,0,2023-09-15,2023-09-15,株式会社セブンズファーム,,株式会社,北海道,亀田郡七飯町,字桜町４３６番地,,01,337,0411105,,,,,,,2023-09-15,1,,,,,セブンズファーム,0
1026,4700150120283,新規,0,2023-09-15,2023-09-15,Ｓｈｅｎｚｈｅｎｈｅｉｗａｎｇｋｅｊｉｙｏｕｘｉａｎｇｏｎｇｓｉ,,外国会社等,,,,,,,,ｌｏｎｇｇａｎｇｑｕｂａｎｔｉａｎｊｉｅｄａｏｂａｎｔｉａｎｓｈｅｑｕｃｈａｎｇｆａｚｈｏｎｇｌｕ　ｈｏｎｇｈａｎｙｕａｎ２７ｄｏｎｇＢ８０８　ｓｈｅｎｚｈｅｎ　ｇｕａｎｇｄｏｎｇ　５１８１００　ＣＮ,,,,,,2023-09-15,1,,,,,シェンジェンヘイワンカージヨウシェンゴンスー,0
1027,4700150120291,新規,0,2023-09-15,2023-09-15,Ｊｉａｘｉｎｇ　Ａｉｂｉｔｅ　Ｔｒａｄｉｎｇ　ｃｏ，．ｌｔｄ,,外国会社等,,,,,,,,Ｒｏｏｍ　６０１，Ｂｕｉｌｄｉｎｇ　７７，Ｚｈｉｆｕ　Ｃｅｎｔｅｒ，Ｇａｏｚｈａｏ　Ｓｕｂ－ｄｉｓｔｒｉｃｔ，Ｘｉｕｚｈｏｕ　Ｄｉｓｔｒｉｃｔ，Ｊｉａｘｉｎｇ　Ｃｉｔｙ，Ｚｈｅｊｉａｎｇ　Ｐｒｏｖｉｎｃｅ,,,,,,2023-09-15,1,,,,,ジャシンアイビトトゥレイディングカンパニーリミテッド,0
1028,4700150120300,新規,0,2023-09-15,2023-09-15,Ｃｈａｎｇｓｈａｓｈｉｑｉｎｌｉｎｇｄｉａｎｚｉｓｈａｎｇｗｕ　ｙｏｕｘｉａｎｇｏｎｇｓｉ,,外国会社等,,,,,,,,Ｃｈａｎｇｓｈａｇａｏｘｉｎｋａｉｆａｑｕｇｕｙｕａｎｌｕ１０９ｈａｏｘｉａｎｇｓｕｄａｓｈａ３０１ｈａｏ,,,,,,2023-09-15,1,,,,,チョウサシチンリンデンシショウムユウゲンコウシ,0
1029,4700150120309,新規,0,2023-09-15,2023-09-15,Ｊｉｎｉｎｇ　Ｋａｉｓｈａｎｇ　Ｉｍｐｏｒｔ　ａｎｄ　Ｅｘｐｏｒｔ　Ｔｒａｄｉｎｇ　Ｃｏ．，Ｌｔｄ,,外国会社等,,,,,,,,１４０１，Ｂｌｏｃｋ　Ｂ，Ｈａｉｎｅｎｇ　Ｉｎｔｅｒｎａｔｉｏｎａｌ，Ｘｉａｎｙｉｎｇ　Ｓｔｒｅｅｔ，Ｒｅｎｃｈｅｎｇ　Ｄｉｓｔｒｉｃｔ，Ｊｉｎｉｎｇ，Ｓｈａｎｄｏｎｇ，Ｃｈｉｎａ,,,,,,2023-09-15,1,,,,,ジーニンカイシャンジンチューコウマオイーヨウシエンゴンスー,0
1030,4700150120317,新規,0,2023-09-15,2023-09-15,ｃｈａｎｇｓｈａｓｈｉｈｏｎｇｓｈｅｎｇｙｕａｎｄｉａｎｚｉｓｈａｎｇｗｕ　ｙｏｕｘｉａｎｇｏｎｇｓｉ,,外国会社等,,,,,,,,ｈｕｎａｎｓｈｅｎｇｃｈａｎｇｓｈａｓｈｉｙｕｅｌｕｑｕｗａｎｇｃｈｅｎｇｐｏｊｉｅｄａｏｎａｎｊｉａｔａｎｇａｎｚｈｉｘｉａｏｑｕ４ｄｏｎｇ２５ｈａｏ，Ｃｈｉｎａ,,,,,,2023-09-15,1,,,,,チョウサシホンシェンユアンデンシショウムユウゲンコウシ,0
1031,4700150120325,新規,0,2023-09-15,2023-09-15,ｙｏｎｇｋａｎｇｓｈｉｋｕａｙｖｅｍａｏｙｉ　ｙｏｕｘｉａｎｇｏｎｇｓｉ,,外国会社等,,,,,,,,ｘｉｃｈｅｎｇｊｉｅｄａｏｆｅｉｆｅｎｇｌｕ１８１ｈａｏ４ｌｏｕ　ｊｉｎｈｕａｓｈｉｙｏｎｇｋａｎｇｓｈｉ　ｚｈｅｊｉａｎｇｓｈｅｎｇ，Ｃｈｉｎａ,,,,,,2023-09-15,1,,,,,エイコウシフアユエマオイユウゲンコウシ,0
1032,4700150120333,新規,0,2023-09-15,2023-09-15,ＴＯＮＧ　ＳＩ　ＦＡＮＧ　ＣＯＭＭＥＲＣＥ　ＡＮＤ　ＴＲＡＤＥ　ＣＯ．，ＬＩＭＩＴＥＤ,,外国会社等,,,,,,,,ＦＬＡＴ／ＲＭ　１１０１Ｄ　１１／Ｆ，ＬＩＰＰＯ　ＳＵＮ　ＰＬＡＺＡ　２８　ＣＡＴＯＮ　ＲＯＡＤ，ＴＳＩＭ　ＳＨＡ　ＴＳＵＩ，ＫＯＷＬＯＯＮ，ＨＯＮＧＫＯＮＧ,,,,,,2023-09-15,1,,,,,トンスーファンシャンマオゾーレンヨウシエンゴンスー,0
1033,4700150120341,新規,0,2023-09-15,2023-09-15,ｓｈｅｎｚｈｅｎｓｈｉｚｉｚｈｅｎｋｅｊｉ　ｙｏｕｘｉａｎｇｏｎｇｓｉ,,外国会社等,,,,,,,,ｌｏｎｇｈｕａｑｕｄａｌａｎｇｊｉｅｄａｏｇａｏｆｅｎｇｓｈｅｑｕｙｕｎｆｅｎｇｌｕ３３－１０ｈａｏ６０３　ｓｈｅｎｚｈｅｎｓｈｉ,,,,,,2023-09-15,1,,,,,シンセンシズゼンカギユウゲンコウシ,0
1034,4700150120358,新規,0,2023-09-15,2023-09-15,ＳｈｅｎＺｈｅｎＳｈｉ　ＹｏｕＧａｏＪｉｕ　Ｎｅｔｗｏｒｋ　ｔｅｃｈｎｏｌｏｇｙ　Ｃｏ．，Ｌｔｄ．,,外国会社等,,,,,,,,ｐｉｎｇｓｈａｎｑｕ　ｐｉｎｇｓｈａｎｊｉｅｄａｏ　ｈｅｐｉｎｇｓｈｅｑｕ　ｓｈｅｎｓｈａｎｌｕ　ｐｉｎｇｓｈａｎｄｕａｎ　２４２ｈａｏ　ｔｏｕｚｉｄａｓｈａｌｉｕｌｏｕ　６６８ｈａｏ　ｓｈｅｎｚｈｅｎｓｈｉ　Ｃｈｉｎａ,,,,,,2023-09-15,1,,,,,シンセンシヨガオジュネットワークテクノロジーカンパニーリミテッド,0
1035,4700150120366,新規,0,2023-09-15,2023-09-15,ｓｈｕａｎｇｆｅｎｇｈｕｘｉｎｄｉａｎｚｉｓｈａｎｇｗｕ　ｙｏｕｘｉａｎｇｏｎｇｓｉ,,外国会社等,,,,,,,,Ｈｕｎａｎｓｈｅｎｇ　ｌｏｕｄｉｓｈｉ　ｓｈｕａｎｇｆｅｎｇｘｉａｎｙｏｎｇｆｅｎｇｊｉｅｄａｏｊｉｎｇｙｕａｎｓｈｅｑｕｊｉｎｇｗａｎｃｕｎ１２ｄｏｎｇ１０５ｈａｏ,,,,,,2023-09-15,1,,,,,ソウホウゴシンデンシショウムユウゲンコウシ,0
1036,4700150120374,新規,0,2023-09-15,2023-09-15,ｓｈａｎｄｏｎｇｓｈｅｎｇｙａｔｅｙｕｅｑｉｇｕｆｅｎｙｏｕｘｉａｎｇｏｎｇｓｉ,,外国会社等,,,,,,,,ｗｅｉｊｉａｎｇｌｕｙｕｗｅｉｊｉｕｌｕｊｉａｏｃｈａｌｕｋｏｕｎａｎ３００ｍｉｌｕｄｏｎｇ　ｃｈａｎｇｌｅｘｉａｎｔａｎｇｗｕｚｈｅｎ,,,,,,2023-09-15,1,,,,,シャンドンションヤーターラーチーグーフェンヨウシエンゴンスー,0
1037,4700150120382,新規,0,2023-09-15,2023-09-15,ＳＨＥＮＺＨＥＮＳＨＩＴＡＩＢＡＮＧＬＡＭＡＯＹＩ　ＹＯＵＸＩＡＮＧＯＮＧＳＩ,,外国会社等,,,,,,,,ＳＨＥＮＺＨＥＮＳＨＩＬＯＮＧＨＵＡＱＵＭＩＮＺＨＩＪＩＥＤＡＯＸＩＮＮＩＵＳＨＥＱＵＹＡＮＧＧＵＡＮＧＸＩＮＪＩＮＧＹＵＡＮ３ＤＯＮＧＧＤＡＮＹＵＡＮ５Ｃ,,,,,,2023-09-15,1,,,,,シンセンシタイバンラマオイユウゲンコウシ,0
1038,4700150120390,新規,0,2023-09-15,2023-09-15,Ｙｉｗｕｓｈｉｃａｉｑｉｇｏｎｇｙｉｐｉｎ　ｙｏｕｘｉａｎｇｏｎｇｓｉ,,外国会社等,,,,,,,,Ｆｕｔｉａｎｊｉｅｄａｏｑｉａｎｈｕａｎｇｚｈａｉｃｕｎｂａｉｗｕｚｉｒａｎｃｕｎ８８ｈａｏ　Ｙｉｗｕｓｈｉ　Ｚｈｅｊｉａｎｇｓｈｅｎｇ　３２２０００　ＣＮ,,,,,,2023-09-15,1,,,,,イーウシチャイチゴンイピンヨウシェンゴンスー,0
1039,4700150120399,新規,0,2023-09-15,2023-09-15,ｓｈｅｎｚｈｅｎｓｈｉｙｉｓｕｋｅｊｉ　ｙｏｕｘｉａｎｇｏｎｇｓｉ,,外国会社等,,,,,,,,ｌｏｎｇｇａｎｇｑｕｂａｎｔｉａｎｊｉｅｄａｏｇａｎｇｔｏｕｓｈｅｑｕｂａｎｘｕｅｇａｎｇｄａｄａｏ１６３ｈａｏＰｄｏｎｇ２０１ｓｈｅｎｚｈｅｎｓｈｉ,,,,,,2023-09-15,1,,,,,シンセンシイスカギユウゲンコウシ,0
1040,4700150120408,新規,0,2023-09-15,2023-09-15,ｆｏｓｈａｎｃｈｕａｎｇｈａｉｙｉｄｉａｎｚｉｋｅｊｉｙｏｕｘｉａｎｇｏｎｇｓｉ,,外国会社等,,,,,,,,ｆｏｓｈａｎｓｈｉｃｈａｎｃｈｅｎｇｑｕｚｈａｎｇｃｈａｙｉｌｕ１１７ｈａｏｅｒｚｕｏｚｉｂｉａｎ２ｈａｏｌｏｕｌｉｕｃｅｎｇ６９１６（ｚｈｕｓｕｏｓｈｅｎｂａｏ）,,,,,,2023-09-15,1,,,,,フォーシャンチュワンハイイーディエンズーコージーヨウシエンゴンスー,0
1041,4700150120416,新規,0,2023-09-15,2023-09-15,ＭＩＤＥＡ　ＲＥＦＲＩＧＥＲＡＴＩＯＮ（ＨＯＮＧ　ＫＯＮＧ）ＬＩＭＩＴＥＤ,,外国会社等,,,,,,,,ＦＬＡＴ／ＲＭ　０６－１０　３９／Ｆ，ＴＯＷＥＲ　６　ＴＨＥ　ＧＡＴＥＷＡＹ，ＨＡＲＢＯＵＲ　ＣＩＴＹ　９　ＣＡＮＴＯＮ　ＲＯＡＤ，ＴＳＩＭ　ＳＨＡ　ＴＳＵＩ，Ｈｏｎｇ　Ｋｏｎｇ,,,,,,2023-09-15,1,,,,,メイダーシャンガンジーロンヨウシエンゴンスー,0
1042,4700150120424,新規,0,2023-09-15,2023-09-15,深セン市喜燦電子商務有限公司,,外国会社等,,,,,,,,中国深セン市龍崗区坂田街道五和社区大光勘村二巷５号６０３,,,,,,2023-09-15,1,,,,,シンセンシキサンデンシショウムユウゲンコウシ,0
1043,4700150120432,新規,0,2023-09-15,2023-09-15,Ｑｉｎｇｄａｏ　ＲＯＮＧＸＩＮＧＹＵＡＮ　ＴＥＸＴＥＬ　Ｃｏ．，Ｌｔｄ,,外国会社等,,,,,,,,ｃｈｏｎｇｑｉｎｇｚｈｏｎｇｌｕ８８１ｈａｏ２ｈａｏｌｏｕ１ｄａｎｙｕａｎ５０４　ｑｉｎｇｄａｏ,,,,,,2023-09-15,1,,,,,チンダオロンシンユエンファンジーピンヨウシエンゴンスー,0
1044,4700150120473,新規,0,2023-09-15,2023-09-15,Ｚｈｕｊｉｓｈｉ　Ｑｉｆｅｎｇｌｅ　Ｍａｏｙｉｙｏｕｘｉａｎｇｏｎｇｓｉ,,外国会社等,,,,,,,,ｍｉａｏｗｕ　１３３　ｌｏｎｇｓｈａｎｓｈｅｑｕ　ｔａｏｚｈｕｊｉｅｄａｏ　ｚｈｕｊｉｓｈｉ　ｓｈａｏｘｉｎｇ　ｚｈｅｊｉａｎｇ　３１１８００　ＣＮ,,,,,,2023-09-15,1,,,,,ジュージーシーチーフォンラーマオイーヨウシエンゴンスー,0
1056,5010005037271,新規,0,2023-09-15,2023-09-15,れんビジネスパートナー行政書士法人,,その他の設立登記法人,東京都,中央区,八丁堀３丁目１８番６号,,13,102,1040032,,,,,,,2023-09-15,1,,,,,レンビジネスパートナー,0
1063,5010401177134,新規,0,2023-09-15,2023-09-15,蘭株式会社,,株式会社,東京都,港区,白金６丁目１６番２５号グランドメゾン白金の杜ザ・タワー３００６,,13,103,1080072,,,,,,,2023-09-15,1,,,,,ラン,0
1065,5010403030902,新規,0,2023-09-15,2023-09-15,防災サポートテクノロジー合同会社,,合同会社,東京都,港区,海岸１丁目７番１号８階,,13,103,1050022,,,,,,,2023-09-15,1,,,,,ボウサイサポートテクノロジー,0
1066,5010403030968,新規,0,2023-09-15,2023-09-15,合同会社ＵＮＩＳＰＥＣＴＩＶＥ　Ａｇｅｎｃｙ,,合同会社,東京都,港区,南麻布２丁目９－６－１０１,,13,103,1060047,,,,,,,2023-09-15,1,,,,,ユニスペクティブエージェンシー,0
1078,5010903008456,新規,0,2023-09-15,2023-09-15,合同会社ジゴワット,,合同会社,東京都,世田谷区,上野毛２丁目２４番１８号,,13,112,1580093,,,,,,,2023-09-15,1,,,,,ジゴワット,0
1084,5011001156949,新規,0,2023-09-15,2023-09-15,株式会社パームス,,株式会社,東京都,渋谷区,神宮前６丁目２３番４号桑野ビル２階,,13,113,1500001,,,,,,,2023-09-15,1,,,,,パームス,0
1085,5011001156965,新規,0,2023-09-15,2023-09-15,ＷｉｄｅＴａｂｌｅ株式会社,,株式会社,東京都,渋谷区,東２丁目２１番１３号,,13,113,1500011,,,,,,,2023-09-15,1,,,,,ワイドテーブル,0
1086,5011001157006,新規,0,2023-09-15,2023-09-15,株式会社ＡＴ　ＰＲＯＭＯＴＩＯＮ,,株式会社,東京都,渋谷区,恵比寿３丁目１５番６号カスタリア恵比寿７０３,,13,113,1500013,,,,,,,2023-09-15,1,,,,,エーティープロモーション,0
1093,5011101104378,新規,0,2023-09-15,2023-09-15,株式会社ＮＥＯＮ,,株式会社,東京都,新宿区,西新宿３丁目１番４号第二佐山ビルＢ１,,13,104,1600023,,,,,,,2023-09-15,1,,,,,ネオン,0
1094,5011101104411,新規,0,2023-09-15,2023-09-15,株式会社Ｂｅ　ｃｒｅｗｓ,,株式会社,東京都,新宿区,歌舞伎町１丁目３－７新宿センター街思い出の抜け道内２階,,13,104,1600021,,,,,,,2023-09-15,1,,,,,ビークルーズ,0
1096,5011105010779,新規,0,2023-09-15,2023-09-15,行政書士法人ＧＮｓ,,その他の設立登記法人,東京都,新宿区,新宿６丁目１２番５号新宿松喜ビル５階,,13,104,1600022,,,,,,,2023-09-15,1,,,,,ジーエヌエス,0
1099,5011301029004,新規,0,2023-09-15,2023-09-15,株式会社ハーフブロード３世‐ＴＡＩＹＯ,,株式会社,東京都,杉並区,荻窪１丁目５番６号,,13,115,1670051,,,,,,,2023-09-15,1,,,,,ハーフブロードサンセイタイヨウ,0
1110,5012401041006,新規,0,2023-09-15,2023-09-15,高階株式会社,00131937,株式会社,東京都,三鷹市,牟礼２丁目９番１号,,13,204,1810002,,,,,,,2023-09-15,1,,,,,タカハシ,0
1111,5012401041014,新規,0,2023-09-15,2023-09-15,株式会社ＫＹｕＦｕ,,株式会社,東京都,調布市,多摩川５丁目１７番地７オリエンタル京王多摩川３０３,,13,208,1820025,,,,,,,2023-09-15,1,,,,,キューフ,0
1115,5013303006798,新規,0,2023-09-15,2023-09-15,百斉興業合同会社,,合同会社,東京都,豊島区,池袋２丁目５番９号,,13,116,1710014,,,,,,,2023-09-15,1,,,,,ヒャクサイコウギョウ,0
1122,5020001153534,新規,0,2023-09-15,2023-09-15,株式会社Ｃｒｏｓｓ　Ｂｏｒｄｅｒｓ,,株式会社,神奈川県,横浜市港北区,篠原東３丁目３０－１３,,14,109,2220022,,,,,,,2023-09-15,1,,,,,クロスボーダーズ,0
1125,5020003024601,新規,0,2023-09-15,2023-09-15,Ｙ＆Ｙ　Ｔｒａｄｉｎｇ合同会社,,合同会社,神奈川県,横浜市緑区,白山３丁目２２－５,,14,113,2260006,,,,,,,2023-09-15,1,,,,,ワイワイトレーディング,0
1126,5020003024618,新規,0,2023-09-15,2023-09-15,合同会社南部市場ドットコム,,合同会社,神奈川県,横浜市金沢区,鳥浜町１－１,,14,108,2360002,,,,,,,2023-09-15,1,,,,,ナンブイチバドットコム,0
1127,5020003024626,新規,0,2023-09-15,2023-09-15,合同会社ＯＩＭＯ,,合同会社,神奈川県,横浜市都筑区,佐江戸町２１７２番地５,,14,118,2240054,,,,,,,2023-09-15,1,,,,,オイモ,0
1128,5020005016118,新規,0,2023-09-15,2023-09-15,一般社団法人ウェルビーイング研究所,,その他の設立登記法人,神奈川県,横浜市青葉区,美しが丘１丁目１３番地１０吉村ビル１０７号,,14,117,2250002,,,,,,,2023-09-15,1,,,,,ウェルビーイングケンキュウジョ,0
1131,5021001080181,新規,0,2023-09-15,2023-09-15,株式会社高輪編集オフィス,,株式会社,神奈川県,小田原市,鴨宮４２３番地,,14,206,2500874,,,,,,,2023-09-15,1,,,,,タカナワヘンシュウオフィス,0
1132,5021003013569,新規,0,2023-09-15,2023-09-15,合同会社石渡工業,,合同会社,神奈川県,横須賀市,佐原５丁目１９番１３号,,14,201,2390835,,,,,,,2023-09-15,1,,,,,イシワタコウギョウ,0
1133,5021003013577,新規,0,2023-09-15,2023-09-15,マシィ合同会社,,合同会社,神奈川県,平塚市,龍城ケ丘１７番４０－２１２号,,14,203,2540814,,,,,,,2023-09-15,1,,,,,マシィ,0
1138,5030001155868,新規,0,2023-09-15,2023-09-15,株式会社倉野内左官,,株式会社,埼玉県,本庄市,児玉町金屋７２５番地２１,,11,211,3670216,,,,,,,2023-09-15,1,,,,,クラノウチサカン,0
1139,5030001155892,新規,0,2023-09-15,2023-09-15,株式会社メディエイション,,株式会社,埼玉県,草加市,新里町１４５６番地１５,,11,221,3400031,,,,,,,2023-09-15,1,,,,,メディエイション,0
1140,5030001155934,新規,0,2023-09-15,2023-09-15,株式会社ＦＩＲＳＴ　ＣＬＡＳＳ,,株式会社,埼玉県,熊谷市,久保島６４４番地２０,,11,202,3600831,,,,,,,2023-09-15,1,,,,,ファーストクラス,0
1141,5030001155967,新規,0,2023-09-15,2023-09-15,株式会社ＴＲＹ,,株式会社,埼玉県,川口市,柳崎１丁目１２番１３号,,11,203,3330861,,,,,,,2023-09-15,1,,,,,ティーアールワイ,0
1146,5030003022496,新規,0,2023-09-15,2023-09-15,合同会社きさらぎ,,合同会社,埼玉県,三郷市,早稲田５丁目２３番地５三郷ダイヤモンドマンション１０５号,,11,237,3410018,,,,,,,2023-09-15,1,,,,,キサラギ,0
1147,5030003022604,新規,0,2023-09-15,2023-09-15,合同会社バオバブの森,,合同会社,埼玉県,春日部市,金崎１０６１番地６,,11,214,3440117,,,,,,,2023-09-15,1,,,,,バオバブノモリ,0
1151,5040001129838,新規,0,2023-09-15,2023-09-15,株式会社笑顔空間,,株式会社,千葉県,富里市,立沢１０９８番地１４７,,12,233,2860214,,,,,,,2023-09-15,1,,,,,エガオクウカン,0
1152,5040001130085,新規,0,2023-09-15,2023-09-15,宇賀神ホーム株式会社,,株式会社,千葉県,成田市,寺台３５１番地１,,12,211,2860022,,,,,,,2023-09-15,1,,,,,ウガジンホーム,0
1153,5040001130102,新規,0,2023-09-15,2023-09-15,株式会社エイト,,株式会社,千葉県,鎌ケ谷市,東道野辺３丁目６番２号（レオパレスヴィラポワール１０７号室）,,12,224,2730115,,,,,,,2023-09-15,1,,,,,エイト,0
1154,5040001130119,新規,0,2023-09-15,2023-09-15,ＳＰＥＣＤＡＹ株式会社,,株式会社,千葉県,千葉市稲毛区,稲毛東６丁目１０番１棟１１０号,,12,103,2630031,,,,,,,2023-09-15,1,,,,,スペックデイ,0
1161,5060001036347,新規,0,2023-09-15,2023-09-15,株式会社ＺＥＡＬＬ．ｐｌｕｓ,,株式会社,栃木県,塩谷郡高根沢町,大字宝積寺２２９０番地８,,09,386,3291233,,,,,,,2023-09-15,1,,,,,ジールプラス,0
1168,5080101024209,新規,0,2023-09-15,2023-09-15,株式会社理念,,株式会社,静岡県,富士宮市,貴船町９番１１号,,22,207,4180042,,,,,,,2023-09-15,1,,,,,リネン,0
1169,5080101024217,新規,0,2023-09-15,2023-09-15,株式会社ＳＩＲＩＵＳ,,株式会社,静岡県,駿東郡長泉町,下長窪７４３番地の１６,,22,342,4110934,,,,,,,2023-09-15,1,,,,,シリウス,0
1173,5090003002385,新規,0,2023-09-15,2023-09-15,合同会社小林基礎工業,,合同会社,山梨県,西八代郡市川三郷町,上野３１４２番地２,,19,346,4093612,,,,,,,2023-09-15,1,,,,,コバヤシキソコウギョウ,0
1174,5100001036771,新規,0,2023-09-15,2023-09-15,株式会社トライフォースＭ,,株式会社,長野県,東筑摩郡山形村,４２４８番地１５,,20,450,3901301,,,,,,,2023-09-15,1,,,,,トライフォースエム,0
1175,5110001037843,新規,0,2023-09-15,2023-09-15,空き家地方創生株式会社,,株式会社,新潟県,佐渡市,椿字下の町９番１,,15,224,9520003,,,,,,,2023-09-15,1,,,,,アキヤチホウソウセイ,0
1188,5120001257936,新規,0,2023-09-15,2023-09-15,ジェイアンドエーカンパニー株式会社,,株式会社,大阪府,大阪市平野区,長吉長原西２丁目８番３号,,27,126,5470015,,,,,,,2023-09-15,1,,,,,ジェイアンドエーカンパニー,0
1189,5120001258117,新規,0,2023-09-15,2023-09-15,株式会社ｃｏｎｎｅｃｔ　ｈｅａｒｔｓ,,株式会社,大阪府,大阪市浪速区,桜川４丁目１１－２１ラクレシェンテ６０３,,27,111,5560022,,,,,,,2023-09-15,1,,,,,コネクトハーツ,0
1195,5122001037368,新規,0,2023-09-15,2023-09-15,株式会社マイシューべ,,株式会社,大阪府,八尾市,南木の本４丁目５０番地の２０,,27,212,5810042,,,,,,,2023-09-15,1,,,,,マイシューベ,0
1205,5130001075156,新規,0,2023-09-15,2023-09-15,株式会社ＫＵＬＡＬＡ,,株式会社,京都府,京都市西京区,大原野北春日町８２７番地３,,26,111,6101152,,,,,,,2023-09-15,1,,,,,クララ,0
1206,5130001075222,新規,0,2023-09-15,2023-09-15,ＢＹＥ日本株式会社,,株式会社,京都府,京田辺市,大住池ノ端６６番地５,,26,211,6100343,,,,,,,2023-09-15,1,,,,,ビーワイイーニホン,0
1207,5130001075288,新規,0,2023-09-15,2023-09-15,株式会社Ｉｍｐ．ｌａｂ,,株式会社,京都府,京都市右京区,西京極堤町１１番地２,,26,108,6150863,,,,,,,2023-09-15,1,,,,,アイエムピーラボ,0
1219,5140001131635,新規,0,2023-09-15,2023-09-15,明翔海運株式会社,,株式会社,兵庫県,神戸市兵庫区,東出町３丁目１６番１０号,,28,105,6520823,,,,,,,2023-09-15,1,,,,,メイショウカイウン,0
1226,5140003019498,新規,0,2023-09-15,2023-09-15,合同会社Ｓ．Ｃ運送,,合同会社,兵庫県,加古川市,尾上町長田５２８番地の４３,,28,210,6750024,,,,,,,2023-09-15,1,,,,,エスシーウンソウ,0
1227,5140003019548,新規,0,2023-09-15,2023-09-15,エムグラフ合同会社,,合同会社,兵庫県,神戸市東灘区,鴨子ヶ原１丁目１０番６号,,28,101,6580064,,,,,,,2023-09-15,1,,,,,エムグラフ,0
1228,5140003019556,新規,0,2023-09-15,2023-09-15,合同会社さかい,,合同会社,兵庫県,丹波篠山市,東吹３３０－１第２ファーカスビル２０１号,,28,221,6692202,,,,,,,2023-09-15,1,,,,,サカイ,0
1229,5140003019572,新規,0,2023-09-15,2023-09-15,合同会社あぶらや,,合同会社,兵庫県,神戸市中央区,磯辺通１丁目１番１８号カサベラ国際プラザビル７０７号室,,28,110,6510084,,,,,,,2023-09-15,1,,,,,アブラヤ,0
1234,5180001158039,新規,0,2023-09-15,2023-09-15,株式会社Ｇｒａｎｄ　Ｌｉｇｈｔ,,株式会社,愛知県,小牧市,大字間々原新田４３５番地,,23,219,4850016,,,,,,,2023-09-15,1,,,,,グランドライト,0
1243,5180301037818,新規,0,2023-09-15,2023-09-15,株式会社リンネ,,株式会社,愛知県,豊橋市,大崎町字平地７０番地１,,23,201,4418073,,,,,,,2023-09-15,1,,,,,リンネ,0
1245,5200001041737,新規,0,2023-09-15,2023-09-15,株式会社Ｏｆｆｉｃｅ雅,,株式会社,岐阜県,岐阜市,若宮町５丁目４番地５シャインズビル３階Ｂ,,21,201,5008828,,,,,,,2023-09-15,1,,,,,オフィスミヤビ,0
1254,5240003006305,新規,0,2023-09-15,2023-09-15,合同会社ＦＳＷ,,合同会社,広島県,府中市,河佐町字矢野原１２５８番地,,34,208,7293221,,,,,,,2023-09-15,1,,,,,エフエスダブル,0
1258,5260001038323,新規,0,2023-09-15,2023-09-15,株式会社ＬＩＦ,,株式会社,岡山県,岡山市北区,宿本町８－３３１Ｆテナント,,33,101,7000002,,,,,,,2023-09-15,1,,,,,リフ,0
1261,5270003001559,新規,0,2023-09-15,2023-09-15,合同会社ラコールガガンズ,,合同会社,鳥取県,鳥取市,南吉方３丁目２１５,,31,201,6800843,,,,,,,2023-09-15,1,,,,,ラコールガガンズ,0
1272,5290001103041,新規,0,2023-09-15,2023-09-15,株式会社Ｙｏｕｆｕ建築設計,,株式会社,福岡県,福岡市早良区,室見２丁目６番５－３０１号,,40,137,8140015,,,,,,,2023-09-15,1,,,,,ヨウフケンチクセッケイ,0
1278,5290003014369,新規,0,2023-09-15,2023-09-15,合同会社ｗｈｉｔｅ,,合同会社,福岡県,宗像市,自由ヶ丘南４丁目２番４号,,40,220,8114156,,,,,,,2023-09-15,1,,,,,ホワイト,0
1280,5290005019127,新規,0,2023-09-15,2023-09-15,一般社団法人福岡セーリングクラブ,,その他の設立登記法人,福岡県,福岡市西区,小戸３丁目５８番１号,,40,135,8190001,,,,,,,2023-09-15,1,,,,,フクオカセーリングクラブ,0
1287,5300003002025,新規,0,2023-09-15,2023-09-15,合同会社ＳＨＩＮＩＮＧ　ＰＯＷＥＲ,,合同会社,佐賀県,佐賀市,多布施４丁目３－３０,,41,201,8400842,,,,,,,2023-09-15,1,,,,,シャイニングパワー,0
1288,5310001018609,新規,0,2023-09-15,2023-09-15,株式会社弥勒,,株式会社,長崎県,壱岐市,芦辺町国分川迎触２５４番地,00131928,42,210,8115733,,,,,,,2023-09-15,1,,,,,ミロク,0
1289,5320003004176,新規,0,2023-09-15,2023-09-15,合同会社オハナ,,合同会社,大分県,大分市,大字野津原１９５５－５,,44,201,8701203,,,,,,,2023-09-15,1,,,,,オハナ,0
1297,5360001032398,新規,0,2023-09-15,2023-09-15,株式会社ＫＹＵ,,株式会社,沖縄県,那覇市,西２丁目２１番１－４０４号ル・サンク那覇西街,,47,201,9000036,,,,,,,2023-09-15,1,,,,,キュウ,0
1302,5370001050416,新規,0,2023-09-15,2023-09-15,株式会社ＣＢＳ仙台,,株式会社,宮城県,仙台市青葉区,錦町１丁目１３番６号,,04,101,9800012,,,,,,,2023-09-15,1,,,,,シービーエスセンダイ,0
1303,5370001050424,新規,0,2023-09-15,2023-09-15,いいな株式会社,,株式会社,宮城県,仙台市太白区,八木山南２丁目２番地の９,,04,104,9820807,,,,,,,2023-09-15,1,,,,,イイナ,0
1306,5370005010688,新規,0,2023-09-15,2023-09-15,特定非営利活動法人子育て支援ＡＲＩママネット,,その他の設立登記法人,宮城県,名取市,みどり台３丁目３番地の３,,04,207,9811247,,,,,,,2023-09-15,1,,,,,コソダテシエンアリママネット,0
1309,5380001033989,新規,0,2023-09-15,2023-09-15,株式会社ＹＢＳ,,株式会社,福島県,須賀川市,森宿字海道西７番地,,07,207,9620001,,,,,,,2023-09-15,1,,,,,ワイビーエス,0
1310,5390001017371,新規,0,2023-09-15,2023-09-15,ＮＡＲＵＭＩ株式会社,,株式会社,山形県,山形市,大手町３番１８号,,06,201,9900046,,,,,,,2023-09-15,1,,,,,ナルミ,0
1313,5390003002140,新規,0,2023-09-15,2023-09-15,合同会社オーバーブリッジ,,合同会社,山形県,東置賜郡高畠町,大字相森１２０番地の１６,,06,381,9920332,,,,,,,2023-09-15,1,,,,,オーバーブリッジ,0
1314,5410001013599,新規,0,2023-09-15,2023-09-15,株式会社ａｂｅ護社,,株式会社,秋田県,横手市,駅前町１番２１号Ｙ２ぷらざ３階Ｂｉｚサポートよこて,,05,203,0130036,,,,,,,2023-09-15,1,,,,,アベマモリシャ,0
1324,5430001089976,新規,0,2023-09-15,2023-09-15,株式会社ＡＭＡＭ　ＰＬＵＳ,,株式会社,北海道,札幌市中央区,南十五条西１７丁目３番３０号,,01,101,0640915,,,,,,,2023-09-15,1,,,,,アマムプリュ,0
1328,5460103001555,新規,0,2023-09-15,2023-09-15,合同会社ＩＺＵＭＩ　ｉｎｄｕｓｔｒｙ,,合同会社,北海道,帯広市,大正町東３線９４,,01,207,0891242,,,,,,,2023-09-15,1,,,,,イズミインダストリー,0
1331,5700150118483,新規,0,2023-09-15,2023-09-15,Ｚｈｅｊｉａｎｇ　Ｋａｎｇｑｉａｎ　Ｉｎｄｕｓｔｒｙ　Ａｎｄ　Ｔｒａｄｅ　Ｃｏ．，Ｌｔｄ,,外国会社等,,,,,,,,ｚｈｅ　ｊｉａｎｇ　ｓｈｅｎｇ　ｊｉｎ　ｈｕａ　ｓｈｉ　ｙｏｎｇ　ｋａｎｇ　ｓｈｉ　ｘｉ　ｃｈｅｎｇ　ｊｉｅ　ｄａｏ　ｌｉｅ　ｑｉａｏ　ｃｕｎ　ｚｈｅｎｇ　ｄａ　ｌｕ７１ｈａｏ　ｎａｎ　ｄｉ　１ｚｈｕａｎｇ（ｚｉ　ｚｈｕ　ｓｈｅｎ　ｂａｏ）,,,,,,2023-09-15,1,,,,,ヂエジヤンカンチヤンインダストリエンドトレードカンパニーリミテツド,0
1332,5700150120282,新規,0,2023-09-15,2023-09-15,ｘｉｎｙｉｓｈｉ　ｓｕｉｙｉ　ｍａｏｙｉ　ｙｏｕｘｉａｎｇｏｎｇｓｉ,,外国会社等,,,,,,,,ｘｉｎｂａｏｚｈｅｎ　ｘｉｎｂａｏｃｕｎ　ｃｈｅｎｌｉｎｓｈｅｎｇｗｕｓｈｏｕｃｅｎｇ　ｘｉｎｙｉｓｈｉ　ｇｕａｎｇｄｏｎｇｓｈｅｎｇ　５２５３３９　ＣＮ,,,,,,2023-09-15,1,,,,,シンイーシスイイーマオイーヨウシェンゴンスー,0
1333,5700150120290,新規,0,2023-09-15,2023-09-15,Ｓｈｅｎｚｈｅｎ　Ｈｕｌｉａｎｄｏｎｇ　Ｔｅｃｈｎｏｌｏｇｙ　Ｃｏ．，Ｌｔｄ．,,外国会社等,,,,,,,,Ｒｏｏｍ　１００６　Ｂｕｉｌｄｉｎｇ　２２－２３　Ｂｕｉｌｄｉｎｇ　２２－２７　Ｄｏｎｇｑｕａｎ　ＮｅｗＶｉｌｌａｇｅ　ＮｏｒｔｈＳｔａｔｉｏｎ　Ｃｏｍｍｕｎｉｔｙ　ＭｉｎｚｈｉＳｔｒｅｅｔ　Ｌｏｎｇｈｕａ　Ｄｉｓｔｒｉｃｔ　Ｓｈｅｎｚｈｅｎ　５１８０００　ＣＮ,,,,,,2023-09-15,1,,,,,シンセンホレントンテクノロジーカンパニーリミテッド,0
1334,5700150120299,新規,0,2023-09-15,2023-09-15,ＧＵＡＮＧＺＨＯＵ　ＤＥＳＩＧＮ　ＩＮＤＵＳＴＲＩＡＬ　ＴＲＡＤＥ　ＣＯ．，ＬＩＭＩＴＥＤ,,外国会社等,,,,,,,,ＲＭ．２２０７　ＮＥＷ　ＷＯＲＬＤ　ＴＩＭＥＳ　ＣＥＮＴＥＲ　ＮＯ．２１９３　ＧＵＡＮＧＹＵＡＮ　ＥＡＳＴ　ＲＯＡＤ　ＴＩＡＮ　ＨＥ　ＤＩＳＴＲＩＣＴ　ＧＵＡＮＧＺＨＯＵ　ＣＩＴＹ,,,,,,2023-09-15,1,,,,,コウシュウディザインインダストゥリアルトレードカンパニーリミテッド,0
1335,5700150120308,新規,0,2023-09-15,2023-09-15,Ｃｈａｎｇｓｈａ　Ｆａｎｇｓｈｕｏ　Ｘｉｎｘｉ　Ｊｉｓｈｕ　Ｙｏｕｘｉａｎ　Ｇｏｎｇｓｉ,,外国会社等,,,,,,,,Ｘｉｎｇｓｈａ　Ｊｉｅｄａｏ　Ｌｅｉｊｉａｃｈｏｎｇ　Ｓｈｅｑｕ　Ｋａｉｙｕａｎｌｕ　Ｙｉｎａｎ　Ｄｏｎｇｓａｎｌｕ　Ｙｉｄｏｎｇ　Ｓｈｉｊｉｎｇｇｕｏｊｉｇｕａｎｇｃｈａｎｇ　Ａ　Ｚｕｏ　Ｘｉｅｚｉｌｏｕ　１８０５－１８０７　Ｃｈａｎｇｓｈａ　Ｈｕｎａｎ　４１００００　ＣＮ,,,,,,2023-09-15,1,,,,,チョウサファンシュオシンシジシュヨウシェンゴンスー,0
1336,5700150120316,新規,0,2023-09-15,2023-09-15,ｓｈｕａｎｇｆｅｎｇｊｉｅｊｉｅｓｈｅｎｇｄｉａｎｚｉｓｈａｎｇｗｕ　ｙｏｕｘｉａｎｇｏｎｇｓｉ,,外国会社等,,,,,,,,Ｈｕｎａｎｓｈｅｎｇｌｏｕｄｉｓｈｉｓｈｕａｎｇｆｅｎｇｘｉａｎｙｏｎｇｆｅｎｇｊｉｅｄａｏｚｈｏｎｇｗｅｉｓｈｉｊｉｃｈｅｎｇｎａｎｑｕ１２ｈａｏｌｏｕ１ｃｅｎｇ１０５ｆａｎｇ，Ｃｈｉｎａ,,,,,,2023-09-15,1,,,,,ソウホウジェジェショウデンシショウムユウゲンコウシ,0
1337,5700150120324,新規,0,2023-09-15,2023-09-15,ｇｕａｎｇｚｈｏｕｓｈｉｍａｎｂａｓｈｅｄｉａｎｚｉｋｅｊｉｙｏｕｘｉａｎｇｏｎｇｓｉ,,外国会社等,,,,,,,,ｇｕａｎｇｚｈｏｕｓｈｉｚｅｎｇｃｈｅｎｇｑｕｘｉｎｔａｎｇｚｈｅｎｗｅｎｙｏｎｇｌｕ１５ｈａｏｙｉｎｇｓｈｅｎｇｙｕａｎｑｕＣｄｏｎｇ２ｌｏｕ２０３,,,,,,2023-09-15,1,,,,,グワンジョウシーマンバーショーディエンズーコージーヨウシエンゴンスー,0
1338,5700150120332,新規,0,2023-09-15,2023-09-15,ｐｕｔｉａｎｓｈｉｊｉｎｇｍｉｎｇｄｉａｎｚｉｓｈａｎｇｗｕｙｏｕｘｉａｎｇｏｎｇｓｉ,,外国会社等,,,,,,,,ｚｈｅｎｈａｉｊｉｅｄａｏｈａｎｔｉｎｇｌｕ３０５ｈａｏ　ｈａｎｔｉｎｇｈｕａｙｕａｎｘｉａｏｑｕＢｑｕ８ｈａｏｌｏｕ２ｔｉ２０４ｓｈｉ　ｐｕｔｉａｎｓｈｉ　ｌｉｃｈｅｎｇｑｕ　ｆｕｊｉａｎｓｈｅｎｇ　３５１１００　ＣＮ,,,,,,2023-09-15,1,,,,,プーティエンシージンミンディエンズーシャンウーヨウシエンゴンスー,0
1339,5700150120340,新規,0,2023-09-15,2023-09-15,Ｆｕｊｉａｎ　Ｑｕａｎｚｈｏｕ　Ｑｕａｎｓｈｕｎ　Ｃｏｍｍｕｎｉｃａｔｉｏｎ　Ｔｅｃｈｎｏｌｏｇｙ,,外国会社等,,,,,,,,Ｑｕａｎｓｈｕｎ　Ｂｕｉｌｄｉｎｇ，Ｎｏ．１６３Ｊｕｎｍｉｎｌｉａｎｘｉｎ　Ｒｏａｄ，Ｘｉａｍｅｉ　Ｔｏｗｎ，Ｎａｎａｎ　Ｓｈｉ，Ｑｕａｎｚｈｏｕ　Ｃｉｔｙ，Ｆｕｊｉａｎ　Ｐｒｏｖｉｎｃｅ,,,,,,2023-09-15,1,,,,,フクケンセンシュウセンジュンツウジンカギユウゲンコウシ,0
1340,5700150120349,新規,0,2023-09-15,2023-09-15,Ｑｉｎｇｄａｏ　Ｆｕｒｕｉａｎ　Ｔｒａｄｉｎｇ　Ｃｏ．，Ｌｔｄ,,外国会社等,,,,,,,,Ｎｏ．１３０－２４　Ｊｉｕｓｈｕｉ　Ｅａｓｔ　Ｒｏａｄ，Ｌｉｃａｎｇ　Ｄｉｓｔｒｉｃｔ，Ｑｉｎｇｄａｏ　Ｃｉｔｙ，Ｓｈａｎｄｏｎｇ　Ｐｒｏｖｉｎｃｅ，Ｃｈｉｎａ,,,,,,2023-09-15,1,,,,,チンタオフルイアントレーディングカンパニーリミテッド,0
1341,5700150120357,新規,0,2023-09-15,2023-09-15,Ｄｏｎｇｇｕａｎｓｈｉｆａｎｇｄｅｗａｎｇｌｕｏｋｅｊｉ　ｙｏｕｘｉａｎｇｏｎｇｓｉ,,外国会社等,,,,,,,,Ｒｏｏｍ５０６　０１Ｂｕｉｌｄｉｎｇ１Ｎｏ．２Ｋｅｊｉ８ｔｈＲｏａｄＳｏｎｇｓｈａｎＬａｋｅ　ＤｏｎｇｇｕａｎＧｕａｎｇｄｏｎｇＰｒｏｖｉｎｃｅ,,,,,,2023-09-15,1,,,,,トンカンシファンデワンルオカギユウゲンコウシ,0
1342,5700150120365,新規,0,2023-09-15,2023-09-15,ｓｈｅｎｚｈｅｎｓｈｉｇｕａｎｇｚｈｅｎｇｊｉｎｇｍｉｋｅｊｉ　ｙｏｕｘｉａｎｇｏｎｇｓｉ,,外国会社等,,,,,,,,ｓｈｅｎｚｈｅｎｓｈｉｌｏｎｇｈｕａｘｉｎｑｕｄａｌａｎｇｊｉｅｄａｏｈｕａｃｈａｎｇｌｕ３２８ｈａｏｙｉｌｏｕ,,,,,,2023-09-15,1,,,,,シンセンシカンゼンジンミカギユウゲンコウシ,0
1343,5700150120373,新規,0,2023-09-15,2023-09-15,ＡｏＸｉＳｈｅｎｇＸｕｅＳｈｅｎＺｈｅｎ　ＹｏｕＸｉａｎＧｏｎｇＳｉ,,外国会社等,,,,,,,,Ａ６０２ｙｉｄａｎｙｕａｎｋｕｐａｉｄａｓｈａｋｅｙｕａｎｄａｄａｏｙｕｂａｏｓｈｅｎｌｕｊｉａｏｈｕｉｃｈｕｎａｎｓｈａｎｇａｏｘｉｎｂｅｉｑｕｓｏｎｇｐｉｎｇｓｈａｎｓｈｅｑｕｘｉｌｉｊｉｅｄａｏ　ｎａｎｓｈａｎｑｕ　ｓｈｅｎｚｈｅｎｓｈｉ,,,,,,2023-09-15,1,,,,,アオシセイガクシンセンユウゲンコウシ,0
1344,5700150120381,新規,0,2023-09-15,2023-09-15,ｔｉａｎｊｉｎｈａｉｋｅｗａｎｇｌｕｏｋｅｊｉ　ｙｏｕｘｉａｎｇｏｎｇｓｉ,,外国会社等,,,,,,,,Ｒｏｏｍ　２１３，Ｎｏ．３　Ｂｒｉｄｇｅ　Ｒｏａｄ，Ｙａｎｇｃｕｎ　Ｓｔｒｅｅｔ，Ｗｕｑｉｎｇ　Ｄｉｓｔｒｉｃｔ，Ｔｉａｎｊｉｎ　３０１７００　ＣＮ,,,,,,2023-09-15,1,,,,,テンシンハイケワンルオカギヨウシェンゴンスー,0
1345,5700150120398,新規,0,2023-09-15,2023-09-15,ｓｈｅｎｚｈｅｎｓｈｉｌｉｋｅｚｈｉｎｅｎｇｋｅｊｉｙｏｕｘｉａｎｇｏｎｇｓｉ,,外国会社等,,,,,,,,Ｌｏｎｇｇａｎｇ　Ｄｉｓｔｒｉｃｔ２０６　Ｎｏ．１－１，Ｌａｎｅ　４，Ｎａｎｋｅｎｇ　Ｌａｏ　Ｖｉｌｌａｇｅ　Ｎａｎｋｅｎｇ　Ｃｏｍｍｕｎｉｔｙ，Ｂａ　Ｓｈｅｎｚｈｅｎ　Ｇｕａｎｇｄｏｎｇ　５１８０００　ＣＮ,,,,,,2023-09-15,1,,,,,シェンジェンシリーカージーノンカージヨウシェンゴンスー,0
1346,5700150120407,新規,0,2023-09-15,2023-09-15,Ｃｈｅｎｇｄｕｘｉｕｑｉｑｉｎｇｑｉｋｅｊｉ　ｙｏｕｘｉａｎｇｏｎｇｓｉ,,外国会社等,,,,,,,,ｗｕｈｏｕｑｕｃｈａｎｇｈｕａｌｕ１９ｈａｏ３ｃｅｎｇ１８ｈａｏ　ｃｈｅｎｇｄｕｓｈｉ　ｓｉｃｈｕａｎ,,,,,,2023-09-15,1,,,,,セイトシュチチンチカギユウゲンコウシ,0
1347,5700150120415,新規,0,2023-09-15,2023-09-15,Ｆｕｚｈｏｕ　Ｂｒｉｎｇｓｍａｒｔ　Ｉｎｔｅｌｌｉｇｅｎｔ　Ｔｅｃｈ．Ｃｏ．，Ｌｔｄ．,,外国会社等,,,,,,,,Ｒｏｏｍ０５，１３／Ｆ，Ｍａｉｎ　Ｂｕｉｌｄｉｎｇ，Ｓｕｒｅｋａｍ　Ｃｅｎｔｅｒ，Ｎｏ．１　Ｗｕｙｉ　Ｓｏｕｔｈ　Ｒｏａｄ，Ｘｉｎｇａｎｇ　Ｓｔｒｅｅｔ，Ｔａｉｊｉａｎｇ　Ｄｉｓｔｒｉｃｔ，Ｆｕｚｈｏｕ　Ｃｉｔｙ　Ｆｕｊｉａｎ　Ｐｒｏｖｉｎｃｅ　３５００００　ＣＮ,,,,,,2023-09-15,1,,,,,フージョウシャンルイジーノンコージーヨウシエンゴンスー,0
1348,5700150120423,新規,0,2023-09-15,2023-09-15,深セン市以斯拉新能源科技有限公司,,外国会社等,,,,,,,,中国深セン市龍崗区平湖街道禾花社区華南大道一号華南城環球物流中心２５２０,,,,,,2023-09-15,1,,,,,シンセンシイシラシンノウゲンカギユウゲンコウシ,0
1349,5700150120431,新規,0,2023-09-15,2023-09-15,Ｋｕｎｓｈａｎ　Ｘｉｘｉｎｇ　Ｈｏｍｅ　Ｆｕｒｎｉｓｈｉｎｇｓ　Ｃｏ．，Ｌｔｄ,,外国会社等,,,,,,,,Ｒｏｏｍ　２７６，Ｎｏ．２，Ｘｕｇｏｎｇｑｉａｏ　Ｒｏａｄ，Ｈｕａｑｉａｏ　Ｔｏｗｎ，Ｋｕｎｓｈａｎ　Ｃｉｔｙ，Ｓｕｚｈｏｕ，Ｊｉａｎｇｓｕ　Ｐｒｏｖｉｎｃｅ．,,,,,,2023-09-15,1,,,,,クンシャンシーシンジャージーヨンピンヨウシエンゴンスー,0
1350,5700150120472,新規,0,2023-09-15,2023-09-15,ａｎｑｉｎｇｂｕｄｕｓｈａｎｇｍａｏｙｏｕｘｉａｎｇｏｎｇｓｉ,,外国会社等,,,,,,,,ｄａｌｏｎｇｓｈａｎｚｈｅｎｌｏｎｇｃｈｅｎｇｇｕｏｊｉ２ｄｏｎｇｌｏｕ０２ｓｈｉ　ｙｉｘｉｕｑｕ　ａｎｑｉｎｇｓｈｉ　ａｎｈｕｉ　２４６１３３　ＣＮ,,,,,,2023-09-15,1,,,,,アンチンブードウシャンマオヨウシエンゴンスー,0
1351,5700150120480,新規,0,2023-09-15,2023-09-15,豊郷台３丁目自治会,,その他,栃木県,宇都宮市,豊郷台３丁目１５番,,09,201,3200003,,,,,,,2023-09-15,1,,,,,トヨサトダイサンチョウメジチカイ,0
1359,6010001238533,新規,0,2023-09-15,2023-09-15,Ｕｎｉ‐８株式会社,,株式会社,東京都,中央区,日本橋室町１丁目１１番１２号日本橋水野ビル７階,,13,102,1030022,,,,,,,2023-09-15,1,,,,,ユニエイト,0
1360,6010005037279,新規,0,2023-09-15,2023-09-15,一般社団法人グッドコム・レジデンシャルファンド１,,その他の設立登記法人,東京都,中央区,八丁堀４丁目２番１０号ＡＯＪ税理士法人内,,13,102,1040032,,,,,,,2023-09-15,1,,,,,グッドコムレジデンシャルファンドワン,0
1361,6010401176985,新規,0,2023-09-15,2023-09-15,東京藤井ビル株式会社,,株式会社,東京都,港区,港南４丁目６番２－１６０５号,,13,103,1080075,,,,,,,2023-09-15,1,,,,,トウキョウフジイビル,0
1362,6010401177190,新規,0,2023-09-15,2023-09-15,ワイズサク株式会社,,株式会社,東京都,港区,虎ノ門５丁目１３番１号虎ノ門４０ＭＴビル７階,,13,103,1050001,,,,,,,2023-09-15,1,,,,,ワイズサク,0
1363,6010401177232,新規,0,2023-09-15,2023-09-15,株式会社土井トラスト,,株式会社,東京都,港区,南青山３丁目８番１４号ＡＵＳＰＩＣＥＯＭＯＴＥＳＡＮＤＯ３階,,13,103,1070062,,,,,,,2023-09-15,1,,,,,ドイトラスト,0
1365,6010403030950,新規,0,2023-09-15,2023-09-15,合同会社桜道４９,,合同会社,東京都,港区,芝２丁目１２番１３号ＡＳＩＴＩＳ芝ビル２０１,,13,103,1050014,,,,,,,2023-09-15,1,,,,,サクラミチヨンジュウキュウ,0
1371,6010501051064,新規,0,2023-09-15,2023-09-15,ＡＤＯ株式会社,,株式会社,東京都,台東区,上野３丁目１１番５号,,13,106,1100005,,,,,,,2023-09-15,1,,,,,エイディーオウ,0
1386,6011001156964,新規,0,2023-09-15,2023-09-15,株式会社たなおと,,株式会社,東京都,渋谷区,渋谷２丁目１９－１５宮益坂ビルディング６０９,,13,113,1500002,,,,,,,2023-09-15,1,,,,,タナオト,0
1387,6011001156980,新規,0,2023-09-15,2023-09-15,株式会社ＲＥＵＮＩＲ,,株式会社,東京都,渋谷区,渋谷１丁目８番１０－９０４号プレミスト渋谷宮益坂,,13,113,1500002,,,,,,,2023-09-15,1,,,,,レユニール,0
1391,6011101104369,新規,0,2023-09-15,2023-09-15,株式会社たすくる,,株式会社,東京都,新宿区,中落合２丁目２６番２４号ブリックス目白３Ｆ,,13,104,1610032,,,,,,,2023-09-15,1,,,,,タスクル,0
1392,6011101104377,新規,0,2023-09-15,2023-09-15,株式会社ＱＵＥＥＮ,,株式会社,東京都,新宿区,西新宿３丁目１番４号第二佐山ビルＢ１,,13,104,1600023,,,,,,,2023-09-15,1,,,,,クイーン,0
1393,6011101104393,新規,0,2023-09-15,2023-09-15,株式会社トラバク,,株式会社,東京都,新宿区,西新宿１丁目２２－２新宿サンエービル１４階,,13,104,1600023,,,,,,,2023-09-15,1,,,,,トラバク,0
1394,6011103013493,新規,0,2023-09-15,2023-09-15,ロンマネージメント合同会社,,合同会社,東京都,新宿区,西新宿３丁目３番１３号西新宿水間ビル２Ｆ,,13,104,1600023,,,,,,,2023-09-15,1,,,,,ロンマネージメント,0
1399,6011505002581,新規,0,2023-09-15,2023-09-15,医療法人社団ＬａＬａ会,,その他の設立登記法人,東京都,北区,赤羽２丁目１３番３号サトウビル３階,,13,117,1150045,,,,,,,2023-09-15,1,,,,,ララカイ,0
1402,6011701026599,新規,0,2023-09-15,2023-09-15,結喜工業株式会社,,株式会社,東京都,江戸川区,船堀６丁目７番１３－４０１号,,13,123,1340091,,,,,,,2023-09-15,1,,,,,ユウキコウギョウ,0
1403,6011803005831,新規,0,2023-09-15,2023-09-15,ジェイワイ合同会社,,合同会社,東京都,葛飾区,東新小岩５丁目１４番１０号,,13,122,1240023,,,,,,,2023-09-15,1,,,,,ジェイワイ,0
1405,6012401041005,新規,0,2023-09-15,2023-09-15,株式会社Ｏｌｉｖｅの木,,株式会社,東京都,調布市,西つつじケ丘２丁目１５番地２１,,13,208,1820006,,,,,,,2023-09-15,1,,,,,オリーブノキ,0
1407,6012703002794,新規,0,2023-09-15,2023-09-15,合同会社ＢＯＡＳＯＲＴＥ,,合同会社,東京都,小平市,上水本町５丁目５番１４号,,13,211,1870022,,,,,,,2023-09-15,1,,,,,ボアソルチ,0
1408,6012801022629,新規,0,2023-09-15,2023-09-15,株式会社Ｂｌｕｅｆｉｅｌｄ,,株式会社,東京都,国立市,北２丁目１５－２９、２０１号室,,13,215,1860001,,,,,,,2023-09-15,1,,,,,ブルーフィールド,0
1418,6020003024542,新規,0,2023-09-15,2023-09-15,アズマート合同会社,,合同会社,神奈川県,横浜市磯子区,杉田２丁目１１番１２号,,14,107,2350033,,,,,,,2023-09-15,1,,,,,アズマート,0
1419,6021001080189,新規,0,2023-09-15,2023-09-15,株式会社トレンドメーカー,,株式会社,神奈川県,厚木市,森の里４丁目４４番１０号,,14,212,2430122,,,,,,,2023-09-15,1,,,,,トレンドメーカー,0
1421,6021003013568,新規,0,2023-09-15,2023-09-15,合同会社アルコム,,合同会社,神奈川県,平塚市,幸町１９－８,,14,203,2540804,,,,,,,2023-09-15,1,,,,,アルコム,0
1426,6030001155735,新規,0,2023-09-15,2023-09-15,株式会社Ｙ‐ａｓｓｅｍｂｌｅ,,株式会社,埼玉県,川口市,栄町１丁目３番６－８号,,11,203,3320017,,,,,,,2023-09-15,1,,,,,ワイアッセンブル,0
1427,6030001155867,新規,0,2023-09-15,2023-09-15,株式会社錦,,株式会社,埼玉県,さいたま市岩槻区,大字岩槻６６４８番地ニューフィールドセカンド１０１号,,11,110,3390061,,,,,,,2023-09-15,1,,,,,ニシキ,0
1428,6030001155917,新規,0,2023-09-15,2023-09-15,株式会社Ｉ‐ＧＲＯＵＰ,,株式会社,埼玉県,羽生市,大字日野手新田７０番地１,,11,216,3480013,,,,,,,2023-09-15,1,,,,,アイグループ,0
1429,6030001155933,新規,0,2023-09-15,2023-09-15,株式会社Ｋ．Ｋ．,,株式会社,埼玉県,大里郡寄居町,大字寄居１０２１番地９,,11,408,3691203,,,,,,,2023-09-15,1,,,,,ケイケイ,0
1431,6030003022495,新規,0,2023-09-15,2023-09-15,合同会社大優工業,,合同会社,埼玉県,川口市,東川口５丁目１３番１５－３０６号,,11,203,3330801,,,,,,,2023-09-15,1,,,,,ダイユウコウギョウ,0
1434,6040001130092,新規,0,2023-09-15,2023-09-15,株式会社スカリミ,,株式会社,千葉県,市川市,南行徳４丁目１８番２－２０５号,,12,203,2720138,,,,,,,2023-09-15,1,,,,,スカリミ,0
1435,6040001130101,新規,0,2023-09-15,2023-09-15,株式会社ＧＡＤＺＩＬＬＡ,,株式会社,千葉県,香取市,佐原イ２６７０番地２,,12,236,2870003,,,,,,,2023-09-15,1,,,,,ガジラ,0
1436,6040001130118,新規,0,2023-09-15,2023-09-15,株式会社ｈａｎａ,,株式会社,千葉県,千葉市美浜区,磯辺３丁目１７番１１号,,12,106,2610012,,,,,,,2023-09-15,1,,,,,ハナ,0
1438,6040003023344,新規,0,2023-09-15,2023-09-15,合同会社トラスティ,,合同会社,千葉県,船橋市,大穴南５丁目２５番１５号,,12,204,2740067,,,,,,,2023-09-15,1,,,,,トラスティ,0
1455,6070003005100,新規,0,2023-09-15,2023-09-15,合同会社ＳＴコンサルティング,,合同会社,群馬県,伊勢崎市,西久保町２丁目３５２番地３Ａ１０１,,10,204,3792204,,,,,,,2023-09-15,1,,,,,エスティーコンサルティング,0
1456,6080001025859,新規,0,2023-09-15,2023-09-15,Ｆ‐ライン株式会社,,株式会社,静岡県,静岡市駿河区,中島２０３－１第二昌栄ビル２Ｆ,,22,102,4228046,,,,,,,2023-09-15,1,,,,,エフライン,0
1457,6080101024216,新規,0,2023-09-15,2023-09-15,株式会社Ｔ’ｓ　ｗｏｒｋｓ,,株式会社,静岡県,伊東市,荻７６４番地,,22,208,4140053,,,,,,,2023-09-15,1,,,,,ティーズワークス,0
1484,6120001258082,新規,0,2023-09-15,2023-09-15,株式会社ワールドエステートジャパン,,株式会社,大阪府,大阪市中央区,内久宝寺町２丁目２番２２－１３０１号,,27,128,5400013,,,,,,,2023-09-15,1,,,,,ワールドエステートジャパン,0
1485,6120001258116,新規,0,2023-09-15,2023-09-15,株式会社ＭＯＮＡ　ｅｎｔｅｒｔａｉｎｍｅｎｔ,,株式会社,大阪府,大阪市浪速区,幸町１丁目２－１５－１３０５,,27,111,5560021,,,,,,,2023-09-15,1,,,,,モナエンターテイメント,0
1493,6120903004831,新規,0,2023-09-15,2023-09-15,合同会社ＺＧＤ,,合同会社,大阪府,豊中市,上野東３丁目１８番１３号,,27,203,5600013,,,,,,,2023-09-15,1,,,,,ゼットジーディー,0
1495,6122001037367,新規,0,2023-09-15,2023-09-15,石田建物株式会社,,株式会社,大阪府,東大阪市,太平寺１丁目１０番１０号,,27,227,5770844,,,,,,,2023-09-15,1,,,,,イシダタテモノ,0
1498,6130003008971,新規,0,2023-09-15,2023-09-15,合同会社ＷＡＮＴ,,合同会社,京都府,福知山市,字大内４３６,,26,201,6200836,,,,,,,2023-09-15,1,,,,,ウォント,0
1506,6140001131626,新規,0,2023-09-15,2023-09-15,株式会社Ｍ・Ｃｒａｆｔ,,株式会社,兵庫県,姫路市,栗山町１２６番地イノウエビル１Ａ,,28,201,6700954,,,,,,,2023-09-15,1,,,,,エムクラフト,0
1512,6140003019555,新規,0,2023-09-15,2023-09-15,合同会社アンサンブル,,合同会社,兵庫県,神戸市中央区,江戸町１０４番,,28,110,6500033,,,,,,,2023-09-15,1,,,,,アンサンブル,0
1519,6180001157980,新規,0,2023-09-15,2023-09-15,株式会社モチーフ,,株式会社,愛知県,名古屋市中村区,名駅４丁目２４番５号第２森ビル４０１,,23,105,4500002,,,,,,,2023-09-15,1,,,,,モチーフ,0
1520,6180001158046,新規,0,2023-09-15,2023-09-15,株式会社Ｋ２ｗｏｒｋｓ,,株式会社,愛知県,犬山市,大字羽黒字桜海道４７番地４,,23,215,4840804,,,,,,,2023-09-15,1,,,,,ケーツーワークス,0
1521,6180001158054,新規,0,2023-09-15,2023-09-15,株式会社ＨＯＳＨＯ企画,,株式会社,愛知県,名古屋市中村区,名駅３丁目４番地１０アルティメイト名駅１ｓｔ２階,,23,105,4500002,,,,,,,2023-09-15,1,,,,,ホウショウキカク,0
1529,6200001041728,新規,0,2023-09-15,2023-09-15,株式会社ＯＳＴＹ,,株式会社,岐阜県,多治見市,生田町１丁目１２番地の１,,21,204,5070807,,,,,,,2023-09-15,1,,,,,オスティー,0
1537,6240001062134,新規,0,2023-09-15,2023-09-15,株式会社Ｈ・Ｙ・Ｒ,,株式会社,広島県,呉市,阿賀南３丁目１６番１－１０１号,,34,202,7370004,,,,,,,2023-09-15,1,,,,,エイチワイアール,0
1539,6240003006312,新規,0,2023-09-15,2023-09-15,合同会社ＭＹＳ,,合同会社,広島県,東広島市,西条中央３丁目２６番３５号ハーバードクラブ１Ｆ,,34,212,7390025,,,,,,,2023-09-15,1,,,,,エムワイエス,0
1541,6260001038314,新規,0,2023-09-15,2023-09-15,株式会社ｅｎ,,株式会社,岡山県,総社市,新本２３７０番地,,33,208,7101203,,,,,,,2023-09-15,1,,,,,エン,0
1542,6260001038322,新規,0,2023-09-15,2023-09-15,株式会社ｍｏｓｈｉｍｏ,,株式会社,岡山県,岡山市北区,磨屋町３－１０,,33,101,7000826,,,,,,,2023-09-15,1,,,,,モシモ,0
1553,6290001103032,新規,0,2023-09-15,2023-09-15,株式会社Ｈ．Ｃ．Ｗ．,,株式会社,福岡県,福岡市早良区,藤崎１丁目１４番１号,,40,137,8140013,,,,,,,2023-09-15,1,,,,,エイチシーダブリュー,0
1554,6290001103040,新規,0,2023-09-15,2023-09-15,株式会社アイオライト,,株式会社,福岡県,福岡市中央区,天神１丁目９番１７号福岡天神フコク生命ビル１５階,,40,133,8100001,,,,,,,2023-09-15,1,,,,,アイオライト,0
1562,6290003014368,新規,0,2023-09-15,2023-09-15,合同会社Ｃｏｍｆｙ,,合同会社,福岡県,福岡市博多区,博多駅南４丁目２－１０南近代ビル８階,,40,132,8120016,,,,,,,2023-09-15,1,,,,,コンフィ,0
1564,6290005019142,新規,0,2023-09-15,2023-09-15,ＮＰＯ法人ＢＯＲＤＥＲＬＥＳＳ,,その他の設立登記法人,福岡県,福岡市博多区,博多駅前３丁目２６番２９号九勧博多ビル,,40,132,8120011,,,,,,,2023-09-15,1,,,,,ボーダレス,0
1571,6310001018608,新規,0,2023-09-15,2023-09-15,ＳＣＲＵＭ　　ＧＲＯＷ株式会社,,株式会社,長崎県,大村市,水主町１丁目７４７番地１,,42,205,8560827,,,,,,,2023-09-15,1,,,,,スクラムグロウ,0
1572,6310003004639,新規,0,2023-09-15,2023-09-15,合同会社ＡＫＡＴＳＵＫＩ,,合同会社,長崎県,長崎市,田中町１８７７番地,,42,201,8510134,,,,,,,2023-09-15,1,,,,,アカツキ,0
1581,6340005009658,新規,0,2023-09-15,2023-09-15,特定非営利活動法人せとぐち,,その他の設立登記法人,鹿児島県,鹿屋市,田淵町１７６番地１,,46,203,8930045,,,,,,,2023-09-15,1,,,,,セトグチ,0
1582,6360001032546,新規,0,2023-09-15,2023-09-15,株式会社グラストン沖縄,,株式会社,沖縄県,国頭郡国頭村,字安田６２番地,,47,301,9051503,,,,,,,2023-09-15,1,,,,,グラストンオキナワ,0
1592,6430003015459,新規,0,2023-09-15,2023-09-15,合同会社ａｓｋ,,合同会社,北海道,札幌市豊平区,中の島一条２丁目２番２５号,,01,105,0620921,,,,,,,2023-09-15,1,,,,,アスカ,0
1593,6430005014780,新規,0,2023-09-15,2023-09-15,医療法人奏,,その他の設立登記法人,北海道,札幌市北区,南あいの里５丁目６番１０号グランディール３０３号,,01,102,0028091,,,,,,,2023-09-15,1,,,,,カナデ,0
1602,6700150117542,新規,0,2023-09-15,2023-06-16,東小千谷地区振興協議会,,その他,新潟県,小千谷市,東栄１丁目３－２３,,15,208,9470004,,,,,,,2023-06-16,1,,,,,ヒガシオヂヤチクシンコウキヨウギカイ,0
1603,6700150120298,新規,0,2023-09-15,2023-09-15,Ｓｈｅｎｚｈｅｎ　Ｔｕｒｎｗｉｎ　Ｔｅｃｈｎｏｌｏｇｙ　ｃｏ．，ｌｔｄ,,外国会社等,,,,,,,,Ｌｏｎｇｈｕａ　Ｍｌｎｚｈｉｊｉｅｄａｏ　Ｘｉｎｎｉｕｌｕ　Ｕｃｈｕａｎｇｇｕ　Ｄ９１６　Ｓｈｅｎｚｈｅｎ　Ｇｕａｎｇｄｏｎｇ,,,,,,2023-09-15,1,,,,,シンセンターンウィンテクノロジーカンパニーリミテッド,0
1604,6700150120307,新規,0,2023-09-15,2023-09-15,Ｄｏｎｇｇｕａｎｓｈｉｓｈｕｉｌｉｎｋｅｊｉ　ｙｏｕｘｉａｎｇｏｎｇｓｉ,,外国会社等,,,,,,,,ｔｉａｎｍｅｉ　ｃｈａｎｇｓｈｅｎｇｊｉｅ１ｈａｏ１ｄｏｎｇ１０１ｓｈｉ　Ｄｏｎｇｇｕａｎｓｈｉ　ｈｕａｎｇｊｉａｎｇｚｈｅｎ　Ｇｕａｎｇｄｏｎｇｓｈｅｎｇ　５２３７５０　ＣＮ,,,,,,2023-09-15,1,,,,,トンガンシシュイリンカギヨウシェンゴンスー,0
1605,6700150120315,新規,0,2023-09-15,2023-09-15,ｓｈｅｎｚｈｅｎｇａｏｚｈｉｄｉａｎｓｈａｎｇｍａｏｙｉｙｏｕｘｉａｎｇｏｎｇｓｉ,,外国会社等,,,,,,,,ｓｈｅｎｚｈｅｎｓｈｉｂａｏａｎｑｕｘｉｘｉａｎｇｊｉｅｄａｏ３９ｑｕ１１ｄｏｎｇ３０１ｓｈｉ,,,,,,2023-09-15,1,,,,,シェンジェンガオジーディエンシャンマオイーヨウシエンゴンスー,0
1606,6700150120323,新規,0,2023-09-15,2023-09-15,ｘｉａｎｎｉｎｇｓｈｉｂａｎｇｚｅｄｉａｎｚｉｓｈａｎｇｗｕ　ｙｏｕｘｉａｎｇｏｎｇｓｉ,,外国会社等,,,,,,,,ｔｏｎｇ　ｙａｎｇ　ｚｈｅｎ　ｙｉｎｇ　ｂｉｎ　ｄａ　ｄａｏ　ｔｉａｎ　ｘｉａ　ｙａｎｇ　ｇｕａｎｇ　Ｃ　ｑｕ　２０４　ｈａｏ－１０１　ｓｈｉ　ｔｏｎｇ　ｓｈａｎ　ｘｉａｎ，Ｃｈｉｎａ,,,,,,2023-09-15,1,,,,,カンネイシバンゼデンシショウムユウゲンコウシ,0
1607,6700150120331,新規,0,2023-09-15,2023-09-15,Ｈａｎｇｚｈｏｕ　Ｙｉｓｈｏｕｇｏｎｇ　Ｔｅｃｈｎｏｌｏｇｙ　Ｃｏ．，ＬＴＤ,,外国会社等,,,,,,,,Ｒｏｏｍ　１１０，Ｂｕｉｌｄｉｎｇ　１０，Ｎａｎｈｕａｎ　Ｒｏａｄ　Ｎｏ．４０２８　Ｂｉｎｊｉａｎｇ　Ｄｉｓｔｒｉｃｔ　Ｈａｎｇｚｈｏｕ　Ｚｈｅｊｉａｎｇ,,,,,,2023-09-15,1,,,,,ハンジョウイーショウゴンワンルオコージーヨウシエンゴンスー,0
1608,6700150120348,新規,0,2023-09-15,2023-09-15,ｈｕｚｈｏｕｌａｉｊｉｎｇｆｕｓｈｉ　ｙｏｕｘｉａｎｚｅｒｅｎｇｏｎｇｓｉ,,外国会社等,,,,,,,,ｗｕｘｉｎｇｑｕｇａｏｘｉｎｑｕｈｕａｎｚｈｕｌｕ５１７ｈａｏ１ｈａｏｌｏｕｓａｎｌｏｕｄｏｎｇｍｉａｎ３０１＃ｃｈｅｊｉａｎ　Ｈｕｚｈｏｕ　Ｚｈｅｊｉａｎｇ　Ｃｈｉｎａ,,,,,,2023-09-15,1,,,,,フゾォウライジンフシユウゲンセキニンコウシ,0
1609,6700150120356,新規,0,2023-09-15,2023-09-15,Ｓｈｅｎｚｈｅｎ　ｈｕａｙａｎｇｃｈｅｎｇ　ｉｎｔｅｒｎａｔｉｏｎａｌ　ｔｒａｄｅ　ｃｏ．ＬＴＤ,,外国会社等,,,,,,,,Ｒｏｏｍ　４０３，ｙｉｎｇｃｈａｎｇｓｈｅｎｇ　ｂｕｉｌｄｉｎｇ，ｎｏ．３７７，ｇｕａｎｇｓｈｅｎ　ｒｏａｄ（ｓｈａｊｉｎｇ）ｘｉｎｅｒ　ｃｏｍｍｕｎｉｔｙ，ｘｉｎｑｉａｏ　ｓｔｒｅｅｔ，ｂａｏａｎ　ｄｉｓｔｒｉｃｔ　Ｓｈｅｎｚｈｅｎ　Ｃｈｉｎａ,,,,,,2023-09-15,1,,,,,シンセンフアヤンチェンインターナショナルトレードカンパニーリミテッド,0
1610,6700150120364,新規,0,2023-09-15,2023-09-15,ＣｈｕＺｈｏｕ　ＢｅｅＮｅｓｔｉｎｇ　Ｎｅｔｗｏｒｋ　Ｔｅｃｈｎｏｌｏｇｙ　Ｃｏ　Ｌｔｄ,,外国会社等,,,,,,,,ｃｈａｎｇｌｅｌｕ６ｓｈａｏｓｈａｎｇｙｅ　ａｎｈｕｉｓｈｅｎｇ　ｃｈｕｚｈｏｕｓｈｉ,,,,,,2023-09-15,1,,,,,ジョシュウビーネスティングネットワークテクノロジーカンパニーリミテッド,0
1611,6700150120372,新規,0,2023-09-15,2023-09-15,ｓｈｅｎｚｈｅｎ　ｊｉｎｑｕａｎ　Ｔｅｃｈｎｏｌｏｇｙ　Ｃｏ．，Ｌｔｄ,,外国会社等,,,,,,,,Ｒｏｏｍ　１００３，Ｂｕｉｌｄｉｎｇ　２，Ｆｉｒｓｔ　Ｒｏｗ，Ｊｉａｎｇｓｈｉ　Ｒｏａｄ，Ｊｉａｎｇｗｅｉ　Ｏｌｄ　Ｖｉｌｌａｇｅ，Ｊｉａｎｇｗｅｉ　Ｃｏｍｍｕｎｉｔｙ，Ｇｕａｎｇｍｉｎｇ　Ｄｉｓｔｒｉｃｔ，Ｓｈｅｎｚｈｅｎ,,,,,,2023-09-15,1,,,,,シェンジェンジンチュエンコージーヨウシエンゴンスー,0
1612,6700150120380,新規,0,2023-09-15,2023-09-15,Ｎｉｎｇｂｏｙｉｋｅｔｅｈｕａｎｊｉｎｇｓｈｅｂｅｉ　ｙｏｕｘｉａｎｇｏｎｇｓｉ,,外国会社等,,,,,,,,ＹｕｙａｏＣｉｔｙ　ＭａｚｈｕＴｏｗｎ　Ｌｕｏｊｉａｖｉｌｌａｇｅ　３１５４５０　ＣＮ,,,,,,2023-09-15,1,,,,,ネイハイカテカンキョウセツビヨウシェンゴンスー,0
1613,6700150120389,新規,0,2023-09-15,2023-09-15,ｈｅｆｅｉｈｕａｎｂｕｓｈａｎｇｍａｏ　ｙｏｕｘｉａｎｇｏｎｇｓｉ,,外国会社等,,,,,,,,ｑｉａｎｓｈａｎｌｕ４０３ｈａｏｄｏｎｇｌｉｘｉｎｅｒｃｕｎ３５ｈａｏ１４－００７Ｙｓｈｉ　ｈｅｆｅｉｓｈｉ　ｓｈｕｓｈａｎｑｕ　ａｎｈｕｉｓｈｅｎｇ,,,,,,2023-09-15,1,,,,,ゴウヒカンブシャンマオユウゲンコウシ,0
1614,6700150120397,新規,0,2023-09-15,2023-09-15,Ｓｈｅｎｚｈｅｎｓｈｉｂａｏｌｉｆｅｉｋｅｊｉ　ｙｏｕｘｉａｎｇｏｎｇｓｉ,,外国会社等,,,,,,,,２０６ＡＮｏ．１ＨｅｋａｎＮｏｒｔｈＲｏａｄＷｕｈｅＣｏｍｍｕｎｉｔｙＢａｎｔｉａｎＳｔｒｅｅｔＬｏｎｇｇａｎｇＤｉｓｔｒｉｃｔ　Ｓｈｅｎｚｈｅｎ,,,,,,2023-09-15,1,,,,,シンセンシバオリフェイカギユウゲンコウシ,0
1615,6700150120406,新規,0,2023-09-15,2023-09-15,ｎａｎｃｈａｎｇｓｕｏｆｕｄｉａｎｚｉｋｅｊｉ　ｙｏｕｘｉａｎｇｏｎｇｓｉ,,外国会社等,,,,,,,,ｎａｎｃｈａｎｇｊｉｎｇｊｉｊｉｓｈｕｋａｉｆａｑｕｊｉｎｇｋａｉｄａｄａｏ１３８８ｈａｏ５ｌｏｕ１２０５ｓｈｉ　ｎａｎｃｈａｎｇｓｈｉ　ｊｉａｎｇｘｉｓｈｅｎｇ,,,,,,2023-09-15,1,,,,,ナンショウソオフデンシカギユウゲンコウシ,0
1616,6700150120414,新規,0,2023-09-15,2023-09-15,Ｓｈｅｎｚｈｅｎ　Ｍｅｉｌａｎｄｉｓｉ　Ｍａｏｙｉ　Ｃｏ．，Ｌｔｄ．,,外国会社等,,,,,,,,Ｘｉａｎｇｊｉａｏｔａｎｇ　Ｃｏｍｍｕｎｉｔｙ，Ｂａｎｔｉａｎ　Ｓｔｒｅｅｔ，Ｌｏｎｇｇａｎｇ　Ｄｉｓｔｒｉｃｔ６０２－１，６／Ｆ，Ｂｌｏｃｋ　Ａ，Ｂ，Ｍｕｌｔｉ－Ｂｌｏｃｋ，４０８８　Ｂａｎｘｕｅｇａｎｇ　Ａｖｅｎｕｅ　Ｓｈｅｎｚｈｅｎ　Ｇｕａｎｇｄｏｎｇ　５１８１００　ＣＮ,,,,,,2023-09-15,1,,,,,シェンジェンメイランディースーマオイーヨウシエンゴンスー,0
1617,6700150120422,新規,0,2023-09-15,2023-09-15,ｓｈｉｊｉａｚｈｕａｎｇｂａｉｘｉｓｈｕｋｅｊｉｙｏｕｘｉａｎｇｏｎｇｓｉ,,外国会社等,,,,,,,,Ｘｉｎｈｕａｑｕ　ｂｅｉｒｏｎｇｊｉｅ５６ｈａｏ　ｔｉｅｌｕｓｈｉｗｕｓｕｓｈｅｄｉｓｈａｎｇ８０１　ｓｈｉｊｉａｚｈｕａｎｇｓｈｉ　ｈｅｂｅｉｓｈｅｎｇ　０５００００　ＣＮ,,,,,,2023-09-15,1,,,,,シージャアジュァンバイシーシュウカージヨウシェンゴンスー,0
1618,6700150120430,新規,0,2023-09-15,2023-09-15,Ｑｉｎｇｄａｏ　Ｆａｂ　Ｍｉｌｌ　Ｃｏ．，Ｌｔｄ,,外国会社等,,,,,,,,Ｒｏｏｍ　３０２　Ｂｕｉｌｄｉｎｇ　１，Ｎｏ．４３　Ｑｕｔａｎｇｘｉａ　Ｒｏａｄ，Ｓｈｉｎａｎ　Ｄｉｓｔｒｉｃｔ，Ｑｉｎｇｄａｏ　Ｃｉｔｙ,,,,,,2023-09-15,1,,,,,チンダオルイボーファンジーヨウシエンゴンスー,0
1619,6700150120471,新規,0,2023-09-15,2023-09-15,Ｈｅｆｅｉ　Ｒｉｑｉｕ　Ｔｒａｄｉｎｇ　Ｃｏ．，Ｌｔｄ,,外国会社等,,,,,,,,２２０６，Ｂｕｉｌｄｉｎｇ　８，Ｂｏｕｒｂｏｎ　Ｐａｌａｃｅ，Ｊｉａｙｕａｎ　Ｕｒｂａｎ　Ｃｏｍｍｕｎｉｔｙ，Ｎｏ．２３６６　Ｄｏｎｇｔｉｎｇｈｕ　Ｒｏａｄ，Ｂｉｎｈｕ　Ｄｉｓｔｒｉｃｔ，Ｙｉｃｈｅｎｇ　Ｓｔｒｅｅｔ，Ｂａｏｈｅ　Ｄｉｓｔｒｉｃｔ，Ｈｅｆｅｉ　Ｃｉｔｙ，Ａｎｈｕｉ　Ｐｒｏｖｉｎｃｅ,,,,,,2023-09-15,1,,,,,ホーフェイシーリーチューマオイーヨウシエンゴンスー,0
1628,7010001238425,新規,0,2023-09-15,2023-09-15,ワンネスグループ株式会社,,株式会社,東京都,中央区,銀座２丁目１３番１９号銀座アルカビル３階Ａ,,13,102,1040061,,,,,,,2023-09-15,1,,,,,ワンネスグループ,0
1631,7010003041678,新規,0,2023-09-15,2023-09-15,合同会社かね吉,,合同会社,東京都,中央区,勝どき６丁目３番２－１９０９号,,13,102,1040054,,,,,,,2023-09-15,1,,,,,カネキチ,0
1633,7010005037278,新規,0,2023-09-15,2023-09-15,行政書士法人アズール,,その他の設立登記法人,東京都,千代田区,富士見１丁目７番８号第五日東ビル５０１号,,13,101,1020071,,,,,,,2023-09-15,1,,,,,アズール,0
1636,7010401177041,新規,0,2023-09-15,2023-09-15,株式会社ムーヴァー,,株式会社,東京都,港区,北青山１丁目３番１号アールキューブ青山３Ｆ,,13,103,1070061,,,,,,,2023-09-15,1,,,,,ムーヴァー,0
1637,7010401177108,新規,0,2023-09-15,2023-09-15,株式会社ｔｅｎｂａｎ,,株式会社,東京都,港区,三田２丁目３番３４,,13,103,1080073,,,,,,,2023-09-15,1,,,,,テンバン,0
1651,7010805003058,新規,0,2023-09-15,2023-09-15,税理士法人ＴＡＣｓ,,その他の設立登記法人,東京都,大田区,大森本町１丁目２－６,,13,111,1430011,,,,,,,2023-09-15,1,,,,,タックス,0
1660,7011001156872,新規,0,2023-09-15,2023-09-15,キャリアポータル株式会社,,株式会社,東京都,渋谷区,道玄坂１丁目１０－８渋谷道玄坂東急ビル２Ｆ－Ｃ,,13,113,1500043,,,,,,,2023-09-15,1,,,,,キャリアポータル,0
1661,7011001156947,新規,0,2023-09-15,2023-09-15,株式会社ｐｏｃｏ,,株式会社,東京都,渋谷区,鶯谷町８番１号ソミュール鉢山２０１,,13,113,1500032,,,,,,,2023-09-15,1,,,,,ポコ,0
1662,7011001156955,新規,0,2023-09-15,2023-09-15,株式会社ＹＫ,,株式会社,東京都,渋谷区,東１丁目９－２－４０１,,13,113,1500011,,,,,,,2023-09-15,1,,,,,ワイケイ,0
1663,7011001157004,新規,0,2023-09-15,2023-09-15,株式会社ＭＡＲＩＰ,,株式会社,東京都,渋谷区,渋谷２丁目１９－１５宮益坂ビルディング６０９,,13,113,1500002,,,,,,,2023-09-15,1,,,,,マリップ,0
1674,7011101104368,新規,0,2023-09-15,2023-09-15,株式会社ＴＳＵＮＡＧＩＹＡ　ｐｌｕｓ,,株式会社,東京都,新宿区,高田馬場３丁目２１番１８号,,13,104,1690075,,,,,,,2023-09-15,1,,,,,ツナギヤプラス,0
1675,7011101104376,新規,0,2023-09-15,2023-09-15,株式会社ＤＯＬＬＳＬＯＦＴ,,株式会社,東京都,新宿区,西新宿３丁目３番１３号西新宿水門ビル２階,,13,104,1600023,,,,,,,2023-09-15,1,,,,,ドールズロフト,0
1676,7011103013484,新規,0,2023-09-15,2023-09-15,合同会社ＧＨＵ,,合同会社,東京都,新宿区,高田馬場４丁目４番３２号,,13,104,1690075,,,,,,,2023-09-15,1,,,,,ジーエイチユー,0
1677,7011103013492,新規,0,2023-09-15,2023-09-15,合同会社路上テキーラ,,合同会社,東京都,新宿区,住吉町１２番１３号ヴォ－ノン曙橋１０３,,13,104,1620065,,,,,,,2023-09-15,1,,,,,ロジョウテキーラ,0
1679,7011301029002,新規,0,2023-09-15,2023-09-15,株式会社Ｐｒｏｇｒｅｓｓｉｏｎ,,株式会社,東京都,杉並区,高円寺北１丁目２１番５号高円寺Ｌｏｏｐ７－３Ｆ－２,,13,115,1660002,,,,,,,2023-09-15,1,,,,,プログレッション,0
1685,7011505002580,新規,0,2023-09-15,2023-09-15,医療法人社団柳桜,,その他の設立登記法人,東京都,北区,西ケ原１丁目６番５号アフニィ駒込２階,,13,117,1140024,,,,,,,2023-09-15,1,,,,,リュウオウ,0
1687,7011603004058,新規,0,2023-09-15,2023-09-15,合同会社ロックアーク,,合同会社,東京都,練馬区,氷川台３丁目１９－２０－２０２,,13,120,1790084,,,,,,,2023-09-15,1,,,,,ロックアーク,0
1688,7011701026598,新規,0,2023-09-15,2023-09-15,シー・セット・アソシエイツ株式会社,,株式会社,東京都,江戸川区,平井７丁目８番１６号３階,,13,123,1320035,,,,,,,2023-09-15,1,,,,,シーセットアソシエイツ,0
1689,7011703003595,新規,0,2023-09-15,2023-09-15,合同会社ＨＯＨＯ,,合同会社,東京都,江戸川区,清新町１丁目１番２２－３０４号,,13,123,1340087,,,,,,,2023-09-15,1,,,,,ホホ,0
1692,7011803005830,新規,0,2023-09-15,2023-09-15,Ｋ　ＶＡＮＣＲＥＷ合同会社,,合同会社,東京都,足立区,西新井本町４丁目２１―１,,13,121,1230845,,,,,,,2023-09-15,1,,,,,ケーヴァンクルー,0
1694,7012401041004,新規,0,2023-09-15,2023-09-15,ＹＵ‐ＮＡ　ＭＵＳＩＣ株式会社,,株式会社,東京都,小金井市,貫井南町３丁目１３番２号,,13,210,1840014,,,,,,,2023-09-15,1,,,,,ユーナミュージック,0
1695,7012401041012,新規,0,2023-09-15,2023-09-15,ゲームチェンジャーコンサルティング株式会社,,株式会社,東京都,三鷹市,下連雀３丁目２２番１８号林ビル２０１号室,,13,204,1810013,,,,,,,2023-09-15,1,,,,,ゲームチェンジャーコンサルティング,0
1697,7012701017843,新規,0,2023-09-15,2023-09-15,株式会社ＡＳＯ,,株式会社,東京都,西東京市,泉町６丁目１２番７号,,13,229,2020011,,,,,,,2023-09-15,1,,,,,アソ,0
1709,7020001153516,新規,0,2023-09-15,2023-09-15,ＨＣＳ株式会社,,株式会社,神奈川県,横浜市保土ケ谷区,権太坂１丁目２５－１２,,14,106,2400026,,,,,,,2023-09-15,1,,,,,エイチシーエス,0
1710,7020001153532,新規,0,2023-09-15,2023-09-15,Ｇｒａｐｈｉｃ　Ｌｉｎｋｓ株式会社,,株式会社,神奈川県,横浜市保土ケ谷区,上星川３丁目２－２２,,14,106,2400042,,,,,,,2023-09-15,1,,,,,グラフィックリンクス,0
1711,7020001153549,新規,0,2023-09-15,2023-09-15,株式会社紀心,,株式会社,神奈川県,横浜市港北区,鳥山町６４８番地ライオンズマンション小机第２－１０３,,14,109,2220035,,,,,,,2023-09-15,1,,,,,キシン,0
1714,7020003024590,新規,0,2023-09-15,2023-09-15,合同会社一和,,合同会社,神奈川県,横浜市旭区,善部町８０番地２ハイツグリーンウッド１０３号,,14,112,2410823,,,,,,,2023-09-15,1,,,,,イチワ,0
1715,7021001080188,新規,0,2023-09-15,2023-09-15,株式会社ゆうせい,,株式会社,神奈川県,藤沢市,片瀬海岸２丁目４番３号,,14,205,2510035,,,,,,,2023-09-15,1,,,,,ユウセイ,0
1727,7030001155866,新規,0,2023-09-15,2023-09-15,株式会社宏運商事,,株式会社,埼玉県,草加市,新栄４丁目１０００番地新栄町団地４－４－３０７,,11,221,3400056,,,,,,,2023-09-15,1,,,,,コウウンショウジ,0
1728,7030001155949,新規,0,2023-09-15,2023-09-15,株式会社Ｆ・ＦＯＵＲＴＥＥＮ,,株式会社,埼玉県,さいたま市南区,別所２丁目２３番１４号,,11,108,3360021,,,,,,,2023-09-15,1,,,,,エフフォーティーン,0
1729,7030001155973,新規,0,2023-09-15,2023-09-15,株式会社麗暁工業,,株式会社,埼玉県,蓮田市,大字閏戸３８５４番地１１,,11,238,3490133,,,,,,,2023-09-15,1,,,,,リギョウコウギョウ,0
1734,7040003023343,新規,0,2023-09-15,2023-09-15,ＹＯＲＯＺＵＹＡ合同会社,,合同会社,千葉県,松戸市,根木内５４１番地１,,12,207,2700011,,,,,,,2023-09-15,1,,,,,ヨロズヤ,0
1753,7090003002383,新規,0,2023-09-15,2023-09-15,合同会社ＲＩＮＪＩＮ,,合同会社,山梨県,甲斐市,富竹新田１０９－７,,19,210,4000113,,,,,,,2023-09-15,1,,,,,リンジン,0
1772,7120001257843,新規,0,2023-09-15,2023-09-15,株式会社ＣＯＷ‐ＢＵＬＬ,,株式会社,大阪府,大阪市住之江区,安立３丁目３番２１号,,27,125,5590003,,,,,,,2023-09-15,1,,,,,カウブル,0
1773,7120001258081,新規,0,2023-09-15,2023-09-15,富徳株式会社,00131931,株式会社,大阪府,大阪市東淀川区,下新庄５丁目７－１９高岡セカンドハイツ１階１０３号室,,27,114,5330021,,,,,,,2023-09-15,1,,,,,トミトク,0
1781,7120101068208,新規,0,2023-09-15,2023-09-15,株式会社ＲｅＲＩＳＥ,,株式会社,大阪府,堺市北区,野遠町５１５番地１メゾンＳＯＬＡ１０３号,,27,146,5918013,,,,,,,2023-09-15,1,,,,,リライズ,0
1782,7120101068216,新規,0,2023-09-15,2023-09-15,株式会社涼晴でんき,,株式会社,大阪府,貝塚市,澤１０８７番地３,,27,208,5970062,,,,,,,2023-09-15,1,,,,,リョウセイデンキ,0
1785,7120901048061,新規,0,2023-09-15,2023-09-15,株式会社ＡＧＭ　ｗｏｒｋｓ,,株式会社,大阪府,吹田市,豊津町１番１８号,,27,205,5640051,,,,,,,2023-09-15,1,,,,,エージーエムワークス,0
1786,7130001075212,新規,0,2023-09-15,2023-09-15,暮らし株式会社,,株式会社,京都府,京都市左京区,岩倉東五田町３４番地４,,26,103,6060007,,,,,,,2023-09-15,1,,,,,クラシ,0
1787,7130001075220,新規,0,2023-09-15,2023-09-15,カリル株式会社,,株式会社,京都府,京都市上京区,新町通丸太町上る春帯町３４９番地１,,26,102,6028026,,,,,,,2023-09-15,1,,,,,カリル,0
1788,7130003008987,新規,0,2023-09-15,2023-09-15,Ｆｒｅｉｈｅｉｔ合同会社,,合同会社,京都府,相楽郡精華町,狛田２丁目１０－１グラシアネオ３０３,,26,366,6190247,,,,,,,2023-09-15,1,,,,,フライハイト,0
1789,7140001131609,新規,0,2023-09-15,2023-09-15,株式会社Ｋｉｎｇｓｍａｎ,,株式会社,兵庫県,尼崎市,西立花町２丁目３－５プレセアンス立花３０１,,28,202,6600054,,,,,,,2023-09-15,1,,,,,キングスマン,0
1790,7140001131625,新規,0,2023-09-15,2023-09-15,株式会社ゼビス,,株式会社,兵庫県,神戸市中央区,二宮町４丁目９番２１号,,28,110,6510093,,,,,,,2023-09-15,1,,,,,ゼビス,0
1791,7140001131633,新規,0,2023-09-15,2023-09-15,ＢＢＣｏｎｓｕｌｔｉｎｇ株式会社,,株式会社,兵庫県,宝塚市,湯本町９番１８－１２０３号,,28,214,6650003,,,,,,,2023-09-15,1,,,,,ビービーコンサルティング,0
1792,7140001131641,新規,0,2023-09-15,2023-09-15,株式会社ＣＴＬＣ,,株式会社,兵庫県,神戸市東灘区,田中町５丁目１番３８号,,28,101,6580081,,,,,,,2023-09-15,1,,,,,シーティーエルシー,0
1795,7140003019546,新規,0,2023-09-15,2023-09-15,ＪＵＭＰ　ＥＮＴＥＲＰＲＩＳＥ合同会社,,合同会社,兵庫県,神戸市中央区,坂口通７丁目２番１７号ハイツ新神戸５０１,,28,110,6510062,,,,,,,2023-09-15,1,,,,,ジャンプエンタープライズ,0
1800,7160001025346,新規,0,2023-09-15,2023-09-15,株式会社Ｉｄｅａｌ　Ｓｔｙｌｅ,,株式会社,滋賀県,草津市,木川町４５１番地,,25,206,5250051,,,,,,,2023-09-15,1,,,,,アイディールスタイル,0
1810,7180001158037,新規,0,2023-09-15,2023-09-15,株式会社昇信,,株式会社,愛知県,日進市,竹の山４丁目８２３番地アミティエＩＩ６０２,00131924,23,230,4700136,,,,,,,2023-09-15,1,,,,,ショウシン,0
1819,7200001041710,新規,0,2023-09-15,2023-09-15,エポネクトホールディングス株式会社,,株式会社,岐阜県,岐阜市,島栄町１丁目２３番地,,21,201,5020904,,,,,,,2023-09-15,1,,,,,エポネクトホールディングス,0
1821,7210001019466,新規,0,2023-09-15,2023-09-15,株式会社ＶＥＲＴＥＸ　ＯＮＥ,,株式会社,福井県,福井市,八重巻町１０８番地トリプルエイト２０１,,18,201,9100123,,,,,,,2023-09-15,1,,,,,ヴァーテックスワン,0
1827,7240003006311,新規,0,2023-09-15,2023-09-15,合同会社ｙｏｒｏｚｕ　ａｃｃｏｍｐａｎｙ,,合同会社,広島県,福山市,川口町２丁目１９番２６の５号,,34,207,7200822,,,,,,,2023-09-15,1,,,,,ヨロズアカンパニー,0
1829,7260005011274,新規,0,2023-09-15,2023-09-15,一般社団法人くらしき地球子家,,その他の設立登記法人,岡山県,倉敷市,阿知３丁目１８－６,,33,202,7100055,,,,,,,2023-09-15,1,,,,,クラシキテラコヤ,0
1837,7290001103056,新規,0,2023-09-15,2023-09-15,株式会社なごみプラス,,株式会社,福岡県,福岡市中央区,桜坂３丁目８番４０号ＶＩＴＡ桜坂２Ｂ,,40,133,8100024,,,,,,,2023-09-15,1,,,,,ナゴミプラス,0
1841,7290003014367,新規,0,2023-09-15,2023-09-15,合同会社Ｒｉｍｉｒｏ,,合同会社,福岡県,春日市,大和町５丁目１番地１－５０７号,,40,218,8160874,,,,,,,2023-09-15,1,,,,,リミロ,0
1842,7290803004501,新規,0,2023-09-15,2023-09-15,合同会社Ｌｅ　ｃｉｅｌ　ｂｌｅｕ,,合同会社,福岡県,直方市,古町１７番４５号サンロードビル２Ｆ,,40,204,8220027,,,,,,,2023-09-15,1,,,,,ルシエルブルー,0
1846,7310001018607,新規,0,2023-09-15,2023-09-15,株式会社デフィー,,株式会社,長崎県,佐世保市,大黒町１１番３０－３３３号,,42,202,8570843,,,,,,,2023-09-15,1,,,,,デフィー,0
1847,7310003004638,新規,0,2023-09-15,2023-09-15,合同会社高来屋,00131926,合同会社,長崎県,諫早市,高来町汲水３１０番地８,,42,204,8590141,,,,,,,2023-09-15,1,,,,,タカキヤ,0
1848,7320003004174,新規,0,2023-09-15,2023-09-15,合同会社アルセ,,合同会社,大分県,中津市,大字上池永１２５８番地６,,44,203,8710161,,,,,,,2023-09-15,1,,,,,アルセ,0
1853,7340001025906,新規,0,2023-09-15,2023-09-15,アトラス・トレーディング株式会社,,株式会社,鹿児島県,鹿児島市,鴨池１丁目３６番１６号レスポワール鴨池２階,,46,201,8900063,,,,,,,2023-09-15,1,,,,,アトラストレーディング,0
1856,7360001032545,新規,0,2023-09-15,2023-09-15,株式会社Ａｄａベンチャー,,株式会社,沖縄県,国頭郡国頭村,字安田６２番地,,47,301,9051503,,,,,,,2023-09-15,1,,,,,アダベンチャー,0
1868,7410003003844,新規,0,2023-09-15,2023-09-15,合同会社イエカス,,合同会社,秋田県,秋田市,茨島２丁目１４番４５号,,05,201,0100065,,,,,,,2023-09-15,1,,,,,イエカス,0
1874,7430001089966,新規,0,2023-09-15,2023-09-15,Ｍ＆Ａ株式会社,,株式会社,北海道,小樽市,築港７－７,,01,203,0470008,,,,,,,2023-09-15,1,,,,,エムアンドエー,0
1875,7430001089990,新規,0,2023-09-15,2023-09-15,株式会社オール・ガレージ,,株式会社,北海道,室蘭市,日の出町２丁目３２番２１号,,01,205,0500081,,,,,,,2023-09-15,1,,,,,オールガレージ,0
1878,7430003015417,新規,0,2023-09-15,2023-09-15,合同会社コマイヌ,,合同会社,北海道,札幌市清田区,清田二条１丁目６番２１－４０２号,,01,110,0040842,,,,,,,2023-09-15,1,,,,,コマイヌ,0
1879,7460101007437,新規,0,2023-09-15,2023-09-15,株式会社輝英,,株式会社,北海道,帯広市,東十一条南６丁目２４番地１　１１条ハイツ２号,,01,207,0800811,,,,,,,2023-09-15,1,,,,,テルエイ,0
1880,7470001019812,新規,0,2023-09-15,2023-09-15,株式会社Ｃｒｅｓｉａ,,株式会社,香川県,高松市,香西北町６１１番地２,,37,201,7618011,,,,,,,2023-09-15,1,,,,,クレシア,0
1882,7500001025195,新規,0,2023-09-15,2023-09-15,株式会社シンアイ,,株式会社,愛媛県,新居浜市,一宮町１丁目１４番３号,,38,205,7920025,,,,,,,2023-09-15,1,,,,,シンアイ,0
1885,7700150120289,新規,0,2023-09-15,2023-09-15,Ｎａｎ　ｊｉｎｇ　ｗａｎ　ｙｕｅ　ｋｅ　ｊｉ　ｙｏｕ　ｘｉａｎ　ｇｏｎｇ　ｓｉ,,外国会社等,,,,,,,,ｙａｏｊｉａｌｕ　７ｈａｏ　ｓｈａｎｇｃｈｅｎｇｆｅｎｇｊｉｎｇｂｅｉｙｕａｎ１６ｚｈｕａｎｇ　１４０５ｓｈｉ　ｑｉｘｉａｑｕ　ｙａｏｈｕａｊｉｅｄａｏ　Ｎａｎ　ｊｉｎｇ　ｓｈｉ　２１００４６　ＣＮ,,,,,,2023-09-15,1,,,,,ナンキンワンユエカギヨウシェンゴンスー,0
1886,7700150120297,新規,0,2023-09-15,2023-09-15,Ｓｈｅｎｚｈｅｎ　Ｘｕａｎｚｈｉｔｉｎｇ　Ｔｒａｄｉｎｇ　Ｌｉｍｉｔｅｄ　Ｃｏｍｐａｎｙ,,外国会社等,,,,,,,,Ｐｕｔｉｌｕ　Ｎｏ．６８，ＪｉｎＧｕｉ　Ｂｕｉｌｄｉｎｇ　ＳｈｅｎＺｈｅｎ，ＦｕＴｉａｎ　Ｄｉｓｔｒｉｃｔ，Ｆｕｂａｏ　Ｓｔｅｅｔ,,,,,,2023-09-15,1,,,,,シンセンセンジティントゥレイディングリミテッドカンパニー,0
1887,7700150120306,新規,0,2023-09-15,2023-09-15,ｓｈｅｎｚｈｅｎｓｈｉｌｉｚａｏｋｅｊｉ　ｙｏｕｘｉａｎｇｏｎｇｓｉ,,外国会社等,,,,,,,,ｓｈｅｎｚｈｅｎｓｈｉ　ｆｕｔｉａｎｑｕ　ｆｕｔｉａｎｊｉｅｄａｏ　ｆｕａｎｓｈｅｑｕ　ｆｕｈｕａｙｉｌｕ１３８ｈａｏ　ｇｕｏｊｉｓｈａｎｇｈｕｉｄａｓｈａ　Ａ　Ｄｏｎｇ　１８０１－１８０３（１８０１Ｐ１２）５１８０００　ＣＮ,,,,,,2023-09-15,1,,,,,シンセンシリザオカギヨウシェンゴンスー,0
1888,7700150120314,新規,0,2023-09-15,2023-09-15,ｓｈｕａｎｇｆｅｎｇｍａｉｆａｎｇｄｉａｎｚｉｓｈａｎｇｗｕ　ｙｏｕｘｉａｎｇｏｎｇｓｉ,,外国会社等,,,,,,,,Ｈｕｎａｎｓｈｅｎｇｌｏｕｄｉｓｈｉｓｈｕａｎｇｆｅｎｇｘｉａｎｙｏｎｇｆｅｎｇｊｉｅｄａｏ（ｚｈｏｎｇｙａｎｇｌｏｎｇｔｉｎｇ１２ｈａｏｌｏｕ－１ｃｅｎｇ－１４５ｆａｎｇ），Ｃｈｉｎａ,,,,,,2023-09-15,1,,,,,ソウホウマイファンデンシショウムユウゲンコウシ,0
1889,7700150120322,新規,0,2023-09-15,2023-09-15,ＮｉｎｇｂｏＡｏＴａｉｋｅＧｕａｎｇＤｉａｎＫｅＪｉ　ＹｏｕＸｉａｎＧｏｎｇＳｉ,,外国会社等,,,,,,,,ＪｉａｏＣｈｕａｎＪｉｅＤａｏＸｉＤｉａｎ　ＺｈｅｎＮｉｎｇＸｉＬｕ１２３ＨａｏＢＺｕｏ１０３Ｓｈｉ　ＺｈｅｎＨａｉＱｕＮｉｎｇＢｏＳｈｉ，Ｃｈｉｎａ,,,,,,2023-09-15,1,,,,,ネイハアオタイケゴウデンカギユウゲンコウシ,0
1890,7700150120330,新規,0,2023-09-15,2023-09-15,Ｓｈｅｎ　ｚｈｅｎ　ｓｈｉ　ｘｉａｏ　ｙｏｕ　ｚｉ　ｍａｏ　ｙｉ　ｙｏｕ　ｘｉａｎ　ｇｏｎｇ　ｓｉ,,外国会社等,,,,,,,,Ｒｏｏｍ　８０８，Ｂｕｉｌｄｉｎｇ　２，Ｐａｎｓｈａｎ　Ｇａｒｄｅｎ，Ｎｏ．２０９８　Ｌｕｏｓｈａ　Ｒｏａｄ，Ｐａｎｓｈａｎ　Ｃｏｍｍｕｎｉｔｙ，Ｌｉａｎｔａｎｇ　Ｓｔｒｅｅｔ，Ｌｕｏｈｕ　Ｄｉｓｔｒｉｃｔ，Ｓｈｅｎｚｈｅｎ,,,,,,2023-09-15,1,,,,,シェンジェンシーシャオヨウズーマオイーヨウシエンゴンスー,0
1891,7700150120339,新規,0,2023-09-15,2023-09-15,ｓｈｅｎｚｈｅｎｓｈｉ　ｘｕａｎｋｕｇｕｏｊｉ　ｄｉａｎｚｉ　ｙｏｕｘｉａｎｇｏｎｇｓｉ,,外国会社等,,,,,,,,Ｒｏｏｍ　１９１９，Ｈｕａｎａｎｆａｚｈａｎ　Ｃｅｎｔｅｒ，Ｈｕａｎａｎ　Ａｖｅｎｕｅ，Ｐｉｎｇｈｕ　Ｓｔｒｅｅｔ，Ｌｏｎｇｇａｎｇ，Ｓｈｅｎｚｈｅｎ，Ｇｕａｎｇｄｏｎｇ,,,,,,2023-09-15,1,,,,,シンセンシケンコクコクサイデンシユウゲンコウシ,0
1892,7700150120347,新規,0,2023-09-15,2023-09-15,Ｓｈｅｎｚｈｅｎｓｈｉ　Ｊｉｅｄｅ　Ｃｈｕａｎｇｘｉｎｊｉｓｈｕ　Ｙｏｕｘｉａｎｇｏｎｇｓｉ,,外国会社等,,,,,,,,１００１　ｃｈｕａｎｇｈｕｉｄａｓｈａ，ｗｕｈｅｓｈｅｑｕ，Ｂａｎｔｉａｎ　ｊｉｅｄａｏ，ｌｏｎｇｇａｎｇ　ｑｕ，ＳＨＥＮＺＨＥＮ,,,,,,2023-09-15,1,,,,,シンセンシジエデチワンシンジシュユウゲンコウシ,0
1893,7700150120355,新規,0,2023-09-15,2023-09-15,ｎａｎｊｉｎｇｍｅｉｔｏｎｇｘｉｎｎｅｎｇｙｕａｎｋｅｊｉ　ｙｏｕｘｉａｎｇｏｎｇｓｉ,,外国会社等,,,,,,,,ｎａｎｊｉｎｇｓｈｉ　ｑｉｘｉａｑｕ　ｌｏｎｇｔａｎｊｉｅｄａｏｇａｎｇｃｈｅｎｇｌｕ１ｈａｏｂａｎｇｏｎｇｌｏｕ５５９９ｓｈｉ　Ｃｈｉｎａ,,,,,,2023-09-15,1,,,,,ナンジンメイトンシンネンユェンカギユウゲンコウシ,0
1894,7700150120363,新規,0,2023-09-15,2023-09-15,ＳｈｅｎＺｈｅｎ　ＲｕｏＣｈｅｎＳｈｕＭａＫｅＪｉ　ＹｏｕＸｉａｎＧｏｎｇＳｉ,,外国会社等,,,,,,,,ＬｏｎｇＧａｎｇＱｕ　ＰｉｎｇＨｕＪｉｅＤａｏ　ＰｉｎｇＨｕＳｈｅＱｕ　ＦｕＭｉｎＧｏｎｇＹｅＱｕ　ＭｉｎＡｎＬｕ１７ＤｏｎｇＣＨａｏ　Ｓｈｅｎｚｈｅｎ,,,,,,2023-09-15,1,,,,,シンセンルオチェンシュマカギユウゲンコウシ,0
1895,7700150120371,新規,0,2023-09-15,2023-09-15,ＧｕａｎｇｚｈｏｕＷｕｅｒｌｉｎｇ　Ｔｒａｄｅ　Ｃｏ．，ＬＴＤ,,外国会社等,,,,,,,,Ｃ０４Ｒｏｏｍ１０６Ｎｏ３８ＨｏｕｙｕａｎＲｏａｄＲｕｌｉｎＳｔｒｅｅｔ　ＴｉａｎｈｅＤｉｓｔｒｉｃｔ　Ｇｕａｎｇｚｈｏｕ,,,,,,2023-09-15,1,,,,,コウシュウウエリントレードカンパニーリミテッド,0
1896,7700150120388,新規,0,2023-09-15,2023-09-15,ＡＯＴＩＮＧ（ＮＩＮＧＢＯ）ＫＵＡＪＩＮＧＤＩＡＮＺＩＳＨＡＮＧＷＵ　ＹＯＵＸＩＡＮＧＯＮＧＳＩ,,外国会社等,,,,,,,,ＳｈｏｕｎａｎＳｔｒｅｅｔ　ＣｉｔｙＩｎｄｕｓｔｒｉａｌＰａｒｋＲｏｏｍ１７４１　Ｎｏ．２９８ＭｉｎｇｇｕａｎｇＲｏａｄＹｉｎｚｈｏｕＤｉｓｔｒｉｃｔ　ＮｉｎｇｂｏＣｉｔｙ　Ｚｈｅｊｉａｎｇ　Ｐｒｏｖｉｎｃｅ　３１５０１２　ＣＮ,,,,,,2023-09-15,1,,,,,アオテイネイハクアジンデンシショウムヨウシェンゴンスー,0
1897,7700150120396,新規,0,2023-09-15,2023-09-15,ｓｈｅｎｚｈｅｎｓｈｉｗｅｉｌａｉｄｉａｎｚｉｙｏｕｘｉａｎｇｏｎｇｓｉ,,外国会社等,,,,,,,,ｓｈｅｎｚｈｅｎｓｈｉｂａｏａｎｑｕｘｉｘｉａｎｇｊｉｅｄａｏ１０７ｇｕｏｄａｏｘｉｘｉａｎｇｄｕａｎ４６７ｈａｏｇｕｓｈｕｌｕｋｏｕｂｉａｎｙｕｓｈｅｎｇｇｏｎｇｙｅｑｕｄｉ１１ｄｏｎｇ６ｌｏｕＢ,,,,,,2023-09-15,1,,,,,シンセンシウェイライデンシユウゲンコウシ,0
1898,7700150120405,新規,0,2023-09-15,2023-09-15,ｇｕａｎｇｄｏｎｇｓｈｅｎｇｊｉｕｊｉａｎｇｊｉｎｃｈｕｋｏｕｍａｏｙｉ　ｙｏｕｘｉａｎｇｏｎｇｓｉ,,外国会社等,,,,,,,,ｎａｎｈａｉｑｕ　ｇｕｉｃｈｅｎｇｊｉｅｄａｏｙｏｎｇｓｈｅｎｇｄｏｎｇｌｕ３ｈａｏｊｉｎｙｕｈｕａｙｕａｎｅｒｑｕ２０ｚｕｏ２３１４ｓｈｉ　Ｆｏｓｈａｎ,,,,,,2023-09-15,1,,,,,カントンショウジュジャンジンツウコオマオイユウゲンコウシ,0
1899,7700150120413,新規,0,2023-09-15,2023-09-15,ＳＨＥＮＺＨＥＮＳＨＩ　ＬＥＳＵＯＳＩ　ＤＩＡＮＺＩＳＨＡＮＧＷＵ　ＹＯＵＸＩＡＮＧＯＮＧＳＩ,,外国会社等,,,,,,,,ＳＨＥＮＺＨＥＮＳＨＩ　ＬＯＮＧＧＡＮＧＱＵ　ＢＡＮＴＩＡＮＪＩＥＤＡＯ　ＭＡＡＮＴＡＮＧＳＨＥＱＵＢＵＬＯＮＧＬＵ３３９ＨＡＯ　ＨＯＮＧＳＨＥＮＧＹＵＡＮＸＩＮＸＩＣＨＡＮＹＥＹＵＡＮ　Ｂ、ＣＤＯＮＧＢ６０４ＺＨＩ６０６ＳＨＩ,,,,,,2023-09-15,1,,,,,シェンジェンシーラースオスーディエンズーシャンウーヨウシエンゴンスー,0
1900,7700150120421,新規,0,2023-09-15,2023-09-15,Ｇｕａｎｇｄｏｎｇ　Ｚｈｏｎｇｊｕ　Ｐｏｗｅｒ　Ｔｅｃｈｎｏｌｏｇｙ　Ｃｏ．，Ｌｔｄ,,外国会社等,,,,,,,,ｆｕｔｉａｎｚｈｅｎ　ｘｕｔｉａｎ，ａｏｌｉｎｇ，ｓｈａｎｘｉａｃｕｎ　ｂｏｌｕｏｘｉａｎ　ｇｕａｎｇｄｏｎｇｓｈｅｎｇ　５１６１３１　ＣＮ,,,,,,2023-09-15,1,,,,,グァンドンションジョンジュイディエンユェンジシュウヨウシェンゴンスー,0
1901,7700150120470,新規,0,2023-09-15,2023-09-15,Ｈｅｆｅｉ　Ｂａｎｄｉａｏ　Ｔｒａｄｉｎｇ　Ｃｏ．，Ｌｔｄ,,外国会社等,,,,,,,,Ｒｏｏｍ　１１０１，Ｂｕｉｌｄｉｎｇ　１３，Ａｍｂｅｒ　Ｒｕｉ’ａｎ　Ｊｉａｙｕａｎ，Ｎｏ．１７８９　Ｗａｎｑｕａｎｈｅ　Ｒｏａｄ，Ｂｉｎｈｕ　Ｃｅｎｔｕｒｙ　Ｃｏｍｍｕｎｉｔｙ　Ｓｔｒｅｅｔ，Ｂａｏｈｅ　Ｄｉｓｔｒｉｃｔ，Ｈｅｆｅｉ　Ｃｉｔｙ，Ａｎｈｕｉ　Ｐｒｏｖｉｎｃｅ,,,,,,2023-09-15,1,,,,,ホーフェイシーバンデャオマオイーヨウシエンゴンスー,0
1902,7700150120479,新規,0,2023-09-15,2023-09-15,象印マホービン健康保険組合,,その他,大阪府,大阪市北区,天満１丁目２０番５号,,27,127,5300043,,,,,,,2023-09-15,1,,,,,ゾウジルシマホービンケンコウホケンクミアイ,0
1917,8010403030949,新規,0,2023-09-15,2023-09-15,合同会社桜道４８,,合同会社,東京都,港区,芝２丁目１２番１３号ＡＳＩＴＩＳ芝ビル２０１,,13,103,1050014,,,,,,,2023-09-15,1,,,,,サクラミチヨンジュウハチ,0
1924,8010503007161,新規,0,2023-09-15,2023-09-15,合同会社住まいるアップ,,合同会社,東京都,台東区,根岸５丁目７番１２－３０１号ランドール根岸,,13,106,1100003,,,,,,,2023-09-15,1,,,,,スマイルアップ,0
1931,8011001156962,新規,0,2023-09-15,2023-09-15,株式会社ｖｉｔｏｍ,,株式会社,東京都,渋谷区,渋谷２丁目１９－１５宮益坂ビルディング６０９,,13,113,1500002,,,,,,,2023-09-15,1,,,,,ヴィトム,0
1937,8011101104367,新規,0,2023-09-15,2023-09-15,麟浚株式会社,,株式会社,東京都,新宿区,歌舞伎町２丁目６－１６,,13,104,1600021,,,,,,,2023-09-15,1,,,,,リンシュン,0
1939,8011103013491,新規,0,2023-09-15,2023-09-15,合同会社Ｙコンサルティングファーム,,合同会社,東京都,新宿区,北新宿１丁目２９番７－３０３号,,13,104,1690074,,,,,,,2023-09-15,1,,,,,コンサルティングファーム,0
1941,8011301029001,新規,0,2023-09-15,2023-09-15,株式会社Ｔｒｉｎｏ,,株式会社,東京都,杉並区,上井草４丁目１２番２８号,,13,115,1670023,,,,,,,2023-09-15,1,,,,,トリノ,0
1942,8011303004910,新規,0,2023-09-15,2023-09-15,合同会社嚮心塾,,合同会社,東京都,杉並区,西荻南３丁目１７番４号４０１,,13,115,1670053,,,,,,,2023-09-15,1,,,,,キョウシンジュク,0
1948,8011603004057,新規,0,2023-09-15,2023-09-15,志同道合合同会社,,合同会社,東京都,練馬区,大泉学園町３丁目２１－２３,,13,120,1780061,,,,,,,2023-09-15,1,,,,,シドウドウゴウ,0
1952,8012701017842,新規,0,2023-09-15,2023-09-15,株式会社ＴＯＷＡ,,株式会社,東京都,東村山市,恩多町５丁目３７番地４６,,13,213,1890011,,,,,,,2023-09-15,1,,,,,トウワ,0
1961,8020001153473,新規,0,2023-09-15,2023-09-15,株式会社はるみ屋,,株式会社,神奈川県,横浜市旭区,上白根町２７７番地１,,14,112,2410001,,,,,,,2023-09-15,1,,,,,ハルミヤ,0
1962,8020001153523,新規,0,2023-09-15,2023-09-15,株式会社ＭＡＣＨＥ,,株式会社,神奈川県,横浜市中区,長者町３丁目８－２ライトワンビル１階,,14,104,2310033,,,,,,,2023-09-15,1,,,,,マシェ,0
1965,8020003024607,新規,0,2023-09-15,2023-09-15,合同会社Ｒａｍｅｎ　Ｔａｋａｒａ　Ｎｉｐｐｏｎ,,合同会社,神奈川県,横浜市中区,真砂町２丁目１２,,14,104,2310016,,,,,,,2023-09-15,1,,,,,ラーメンタカラニッポン,0
1966,8021001080179,新規,0,2023-09-15,2023-09-15,株式会社ｂｒｉｄｇｅ,,株式会社,神奈川県,横須賀市,森崎４丁目３３番２号,,14,201,2380023,,,,,,,2023-09-15,1,,,,,ブリッジ,0
1968,8021003013558,新規,0,2023-09-15,2023-09-15,令和オート合同会社,,合同会社,神奈川県,愛甲郡清川村,煤ヶ谷１０４４－Ａ,,14,402,2430112,,,,,,,2023-09-15,1,,,,,レイワオート,0
1969,8021003013574,新規,0,2023-09-15,2023-09-15,大弁財天合同会社,,合同会社,神奈川県,藤沢市,辻堂西海岸１丁目７番８号,,14,205,2510046,,,,,,,2023-09-15,1,,,,,ダイベンザイテン,0
1970,8021005012896,新規,0,2023-09-15,2023-09-15,一般社団法人とびら,,その他の設立登記法人,神奈川県,海老名市,さつき町２番地,,14,215,2430421,,,,,,,2023-09-15,1,,,,,トビラ,0
1973,8030001155865,新規,0,2023-09-15,2023-09-15,株式会社ＡＫ．ｃｏｍ,,株式会社,埼玉県,川越市,新富町２丁目１２番地１０キッド川越第一ビル３階,,11,201,3500043,,,,,,,2023-09-15,1,,,,,エーケードットコム,0
1974,8030001156046,新規,0,2023-09-15,2023-09-15,龍江建設株式会社,,株式会社,埼玉県,川口市,上青木３丁目１５番８号,,11,203,3330844,,,,,,,2023-09-15,1,,,,,リュウコウケンセツ,0
1975,8030001156161,新規,0,2023-09-15,2023-09-15,株式会社Ｍｉｃｋｓ,,株式会社,埼玉県,川口市,戸塚２丁目２０番１－１１１号ロイヤルメゾン,,11,203,3330811,,,,,,,2023-09-15,1,,,,,ミックス,0
1979,8030003022601,新規,0,2023-09-15,2023-09-15,合同会社かめや,,合同会社,埼玉県,越谷市,東大沢３丁目１番地２１,,11,222,3430022,,,,,,,2023-09-15,1,,,,,カメヤ,0
1983,8040001130099,新規,0,2023-09-15,2023-09-15,株式会社ケイアンドエム,,株式会社,千葉県,我孫子市,緑１丁目６番１９号,,12,222,2701153,,,,,,,2023-09-15,1,,,,,ケイアンドエム,0
1988,8040003023342,新規,0,2023-09-15,2023-09-15,ＩＫ　ＴＲＡＤＩＮＧ合同会社,,合同会社,千葉県,山武郡芝山町,高田１１８０－３,,12,409,2891623,,,,,,,2023-09-15,1,,,,,アイケトレーディング,0
2000,8080101024214,新規,0,2023-09-15,2023-09-15,株式会社佐野工業,,株式会社,静岡県,富士宮市,万野原新田３１４１番地の１４,,22,207,4180001,,,,,,,2023-09-15,1,,,,,サノコウギョウ,0
2005,8090001018323,新規,0,2023-09-15,2023-09-15,株式会社ベビーダ,,株式会社,山梨県,甲府市,朝気２丁目１番１８号,,19,201,4000862,,,,,,,2023-09-15,1,,,,,ベビーダ,0
2006,8090003002366,新規,0,2023-09-15,2023-09-15,合同会社アオイ総合サービス,,合同会社,山梨県,山梨市,七日市場３９７番地,,19,205,4050007,,,,,,,2023-09-15,1,,,,,アオイソウゴウサービス,0
2019,8120001257900,新規,0,2023-09-15,2023-09-15,ユーフォリア株式会社,,株式会社,大阪府,大阪市福島区,福島６丁目５番３－４０３号,,27,103,5530003,,,,,,,2023-09-15,1,,,,,ユーフォリア,0
2020,8120001258064,新規,0,2023-09-15,2023-09-15,株式会社ＬＳＡＣ,,株式会社,大阪府,大阪市中央区,上汐２丁目６番地２０号ナイスワンビル５階５Ａ号室,,27,128,5420064,,,,,,,2023-09-15,1,,,,,エルエスエーシー,0
2024,8120003024877,新規,0,2023-09-15,2023-09-15,合同会社Ｄｅａｒ　Ｃｌｏｕｄ,,合同会社,大阪府,大阪市北区,梅田１丁目１－３大阪駅前第３ビル２９階１－１－１号室,,27,127,5300001,,,,,,,2023-09-15,1,,,,,ディアクラウド,0
2025,8120003024885,新規,0,2023-09-15,2023-09-15,シンタックスパートナーズ合同会社,,合同会社,大阪府,大阪市北区,梅田１丁目２番２号大阪駅前第２ビル１２－１２,,27,127,5300001,,,,,,,2023-09-15,1,,,,,シンタックスパートナーズ,0
2027,8120101068215,新規,0,2023-09-15,2023-09-15,株式会社Ｔ＆Ａ　ＣＯＭＰＡＮＹ,,株式会社,大阪府,高石市,千代田６丁目６－３４,,27,225,5920005,,,,,,,2023-09-15,1,,,,,ティーアンドエーカンパニー,0
2028,8120101068223,新規,0,2023-09-15,2023-09-15,株式会社はるや商会,,株式会社,大阪府,泉南市,馬場１丁目４番５号,,27,228,5900525,,,,,,,2023-09-15,1,,,,,ハルヤショウカイ,0
2032,8120901048069,新規,0,2023-09-15,2023-09-15,株式会社コルマリーアセット,,株式会社,大阪府,豊中市,熊野町４丁目１１番１５－６０２号,,27,203,5600014,,,,,,,2023-09-15,1,,,,,コルマリーアセット,0
2042,8130001075178,新規,0,2023-09-15,2023-09-15,株式会社Ｓｍｉｔｙ,,株式会社,京都府,京都市右京区,太秦開日町２０番地６５,,26,108,6168185,,,,,,,2023-09-15,1,,,,,スミティ,0
2043,8130001075211,新規,0,2023-09-15,2023-09-15,株式会社ｐｏｋｅｒｏ,,株式会社,京都府,京都市下京区,朱雀宝蔵町４４番地協栄ビル２階京都朱雀スタジオ,,26,106,6008846,,,,,,,2023-09-15,1,,,,,ポケーロ,0
2044,8130003008986,新規,0,2023-09-15,2023-09-15,合同会社エスエスワイ,,合同会社,京都府,京都市下京区,藪下町６Ｍｏｒｅ五条ＩＩ３０３,00131936,26,106,6008448,,,,,,,2023-09-15,1,,,,,エスエスワイ,0
2055,8140001131632,新規,0,2023-09-15,2023-09-15,株式会社ＣＡＰＥ　ＫＯＢＥ,,株式会社,兵庫県,神戸市中央区,元町通１丁目１２番８号,,28,110,6500022,,,,,,,2023-09-15,1,,,,,ケイプコウベ,0
2058,8140003019553,新規,0,2023-09-15,2023-09-15,ＮＯＡＨＲＤＳ合同会社,,合同会社,兵庫県,西宮市,満池谷町６番７号,,28,204,6620031,,,,,,,2023-09-15,1,,,,,ノアーズ,0
2062,8150001026724,新規,0,2023-09-15,2023-09-15,Ｌｉｅｂ株式会社,,株式会社,奈良県,奈良市,学園北１丁目８－８サンライトビル４階,,29,201,6310036,,,,,,,2023-09-15,1,,,,,リープ,0
2063,8160005011226,新規,0,2023-09-15,2023-09-15,医療法人あなうさぎ,,その他の設立登記法人,滋賀県,近江八幡市,安養寺町８７１番１,,25,204,5230045,,,,,,,2023-09-15,1,,,,,アナウサギ,0
2064,8170001017779,新規,0,2023-09-15,2023-09-15,株式会社希創,,株式会社,和歌山県,有田郡有田川町,大字下津野１０９８番地１,,30,366,6430021,,,,,,,2023-09-15,1,,,,,キソウ,0
2066,8180001158052,新規,0,2023-09-15,2023-09-15,リプロサービス株式会社,,株式会社,愛知県,小牧市,大字小牧原新田６５７番地５,,23,219,4850012,,,,,,,2023-09-15,1,,,,,リプロサービス,0
2068,8180003025738,新規,0,2023-09-15,2023-09-15,合同会社みずほ施工,,合同会社,愛知県,名古屋市瑞穂区,御劔町２丁目１４番地,,23,108,4670875,,,,,,,2023-09-15,1,,,,,ミズホセコウ,0
2069,8180003025746,新規,0,2023-09-15,2023-09-15,合同会社エムユー,,合同会社,愛知県,一宮市,森本４丁目１５番２７号,,23,203,4910831,,,,,,,2023-09-15,1,,,,,エムユー,0
2072,8180301037815,新規,0,2023-09-15,2023-09-15,株式会社パロマジャパン,,株式会社,愛知県,豊橋市,大井町７７番地の３,,23,201,4400826,,,,,,,2023-09-15,1,,,,,パロマジャパン,0
2082,8240001062140,新規,0,2023-09-15,2023-09-15,株式会社ＭＡＲＳ,,株式会社,広島県,広島市中区,十日市町２丁目２番６－３０１号,,34,101,7300805,,,,,,,2023-09-15,1,,,,,マアズ,0
2083,8240003006310,新規,0,2023-09-15,2023-09-15,合同会社ＬｕＡｎｇｅａ,,合同会社,広島県,広島市中区,昭和町５－２第２創ビル１Ｆ,,34,101,7300046,,,,,,,2023-09-15,1,,,,,ルアンジア,0
2085,8260001038320,新規,0,2023-09-15,2023-09-15,株式会社ＧａｌａｘｉＦｌｉｃｋｓ　Ｖｉｓｕａｌｓ,,株式会社,岡山県,井原市,西江原町６１０番地,,33,207,7150006,,,,,,,2023-09-15,1,,,,,ギャラクシーフリックスビジュアルズ,0
2088,8260003004436,新規,0,2023-09-15,2023-09-15,川上企画合同会社,,合同会社,岡山県,総社市,総社３丁目３番３３号,,33,208,7191126,,,,,,,2023-09-15,1,,,,,カワカミキカク,0
2096,8290001103039,新規,0,2023-09-15,2023-09-15,株式会社Ｂｒｅａｔｈ,,株式会社,福岡県,福岡市中央区,春吉２丁目６番６号４Ｆ,,40,133,8100003,,,,,,,2023-09-15,1,,,,,ブレス,0
2097,8290001103047,新規,0,2023-09-15,2023-09-15,株式会社Ｕｐ‐ｌｉｆｅ,,株式会社,福岡県,福岡市博多区,奈良屋町１４番２０号,,40,132,8120023,,,,,,,2023-09-15,1,,,,,アップライフ,0
2104,8370003006289,新規,0,2023-09-15,2023-09-15,合同会社ＤＩＣ,,合同会社,宮城県,仙台市泉区,八乙女中央３丁目８‐４０ｍａｋｅｎａ‐Ａ１号室,,04,105,9813135,,,,,,,2023-09-15,1,,,,,ディック,0
2114,8430001089908,新規,0,2023-09-15,2023-09-15,株式会社三栄工業,,株式会社,北海道,苫小牧市,花園町３丁目１０番３号ティアラ１０２,,01,213,0530853,,,,,,,2023-09-15,1,,,,,サンエイコウギョウ,0
2115,8430001089949,新規,0,2023-09-15,2023-09-15,みちみち種や株式会社,,株式会社,北海道,石狩市,緑ケ原２丁目２２番地,,01,235,0613483,,,,,,,2023-09-15,1,,,,,ミチミチタネヤ,0
2124,8700150120288,新規,0,2023-09-15,2023-09-15,ｌｏｕｄｉ　ｇｕｉｚｈｏｎｇｄｉａｎｚｉｓｈａｎｇｗｕ　ｙｏｕｘｉａｎｇｏｎｇｓｉ,,外国会社等,,,,,,,,ｈｕｎａｎｓｈｅｎｇ　ｌｏｕｄｉｓｈｉ　ｘｉｎｈｕａｘｉａｎｙｏｕｊｉａｚｈｅｎｊｉａｘｉｎｃｕｎ４ｚｕ　４１７６００　ＣＮ,,,,,,2023-09-15,1,,,,,ロウディグイゾンデンシショウムヨウシェンゴンスー,0
2125,8700150120296,新規,0,2023-09-15,2023-09-15,ｙｉｗｕｓｈｉｙａｎｉｕｔｉｙｕｙｏｎｇｐｉｎ　ｙｏｕｘｉａｎｇｏｎｇｓｉ,,外国会社等,,,,,,,,ＸＩＡＷＡＮＧ３ＱＵ５３ＤＯＮＧ２ＤＡＮＹＵＡＮ３０１，ＪＩＡＮＧＤＯＮＧＪＩＥＤＡＯ，ＹＩＷＵＳＨＩ，ＺＨＥＪＩＡＮＧ,,,,,,2023-09-15,1,,,,,ギウシヤニュティユヨンピンユウゲンコウシ,0
2126,8700150120305,新規,0,2023-09-15,2023-09-15,ＳＨＥＮＺＨＥＮＳＨＩ　ＢＩＮＧＨＥ　ＴＥＣＨＮＯＬＯＧＹ　ＣＯ．，ＬＴＤ,,外国会社等,,,,,,,,ＧＵＡＮＧＭＩＮＧＱＵ，ＸＩＮＨＵＪＩＥＤＡＯ，ＺＨＥＮＭＥＩＳＨＥＱＵ　ＺＨＥＮＹＵＡＮＬＵ２２２ＨＡＯ，ＹＵＮＫＥＦＵ１ＤＯＮＧ，ＢＺＵＯ，１６０３　ＳＨＥＮＺＨＥＮ,,,,,,2023-09-15,1,,,,,シンセンシヒョウガテクノロジーカンパニーリミテッド,0
2127,8700150120313,新規,0,2023-09-15,2023-09-15,Ｓｈｅｎｚｈｅｎｓｈｉ　ａｏｄｉｅｒ　ｄｉａｎｚｉｓｈａｎｇｗｕ　ｙｏｕｘｉａｎｇｏｎｇｓｉ,,外国会社等,,,,,,,,ｍｉｎｚｈｉｊｉｅｄａｏ　ｂａｉｓｈｉｌｏｎｇｓｈｅｑｕ　ｙｉｘｉｕｘｉｎｃｕｎ　７４ｄｏｎｇ　０６２７－Ｂ　Ｓｈｅｎｚｈｅｎ　Ｌｏｎｇｈｕａｑｕ，Ｃｈｉｎａ,,,,,,2023-09-15,1,,,,,シンセンシアオディエルデンシショウムユウゲンコウシ,0
2128,8700150120321,新規,0,2023-09-15,2023-09-15,Ｑｕａｎｚｈｏｕｂａｉｘｉｎｔｏｕｚｉｙｏｕｘｉａｎｇｏｎｇｓｉ,,外国会社等,,,,,,,,Ｎａｎａｎｓｈｉ　Ｍｅｉｌｉｎｊｉｅｄａｏ　ｘｉｎｃｈｅｎｇｄａｄａｏ　Ｃ３１ｈａｏ　Ｑｕａｎｚｈｏｕｓｈｉ　Ｆｕｊｉａｎｓｈｅｎｇ　３６２３００　ＣＮ,,,,,,2023-09-15,1,,,,,チュエンジョウバイシントウズーヨウシエンゴンスー,0
2129,8700150120338,新規,0,2023-09-15,2023-09-15,ＧｕａｎｇＺｈｏｕＱｉａｎＹｕｎＤｉａｎＺｉＳｈａｎｇＷｕ　ＹｏｕＸｉａｎＧｏｎｇＳｉ,,外国会社等,,,,,,,,ＢａｉｙｕｎｑｕＨｅｌｏｎｇｊｉｅＨｅｔａｉｌｕ２８ｈａｏＷｅｉｃｈｕａｎｇｄａｓｈａ２０２ｆａｎｇ　Ｇｕａｎｇｚｈｏｕ,,,,,,2023-09-15,1,,,,,コウシュウチェンウンデンシショウムユウゲンコウシ,0
2130,8700150120346,新規,0,2023-09-15,2023-09-15,ｓｈｅｎｚｈｅｎｓｈｉｒｕｉｑｉｓｈａｎｇｍａｏ　ｙｏｕｘｉａｎｇｏｎｇｓｉ,,外国会社等,,,,,,,,ｓｈｅｎｚｈｅｎｓｈｉｌｏｎｇｇａｎｇｑｕｂｕｊｉｊｉｅｄａｏｋｅｙｕａｎｓｈｅｑｕｂｕｊｉｊｉｅｄａｏｙｕｍｉａｏｌｕ７ｈａｏｗａｎｈｅｆｅｎｇｇｏｎｇｙｅｙｕａｎｃｈａｎｇｆａｎｇ５３１,,,,,,2023-09-15,1,,,,,シンセンシルイチシャンマオユウゲンコウシ,0
2131,8700150120354,新規,0,2023-09-15,2023-09-15,ＳＨＥＮＺＨＥＮＳＨＩＮＵＯＷＥＩＪＩＥＫＥＪＩ　ＹＯＵＸＩＡＮＧＯＮＧＳＩ,,外国会社等,,,,,,,,７０２ｂｕｉｌｄｉｎｇ１６０ＤａｗａｎｇｖｉｌｌａｇｅＤｏｎｇｈｕＳｔｒｅｅｔ　ＬＵＯＨＵ　ＳＨＥＮＺＨＥＮ,,,,,,2023-09-15,1,,,,,シンセンシノウェイジエカギユウゲンコウシ,0
2132,8700150120362,新規,0,2023-09-15,2023-09-15,ＳＨＥＮＺＨＥＮ　Ｅ－ＴＥＣＨ　ＤＩＧＩＴＡＬ　ＣＯ．，ＬＴＤ,,外国会社等,,,,,,,,３ＦＥＢｕｉｌｄｉｎｇＨｏｎｇｚｈｕｙｏｎｇｑｉＳｃｉｅｎｃｅａｎｄＴｅｃｈｎｏｌｏｇｙＰａｒｋＬｅｚｈｕｊｉａｏＨｕａｎｇｍａｂｕＣｏｍｍｕｎｉｔｙ　ＸｉｘｉａｎｇＳｔｒｅｅｔ　ＢａｏａｎＤｉｓｔｒｉｃｔ　Ｓｈｅｎｚｈｅｎ,,,,,,2023-09-15,1,,,,,シンセンイーテックデジタルカンパニーリミテッド,0
2133,8700150120370,新規,0,2023-09-15,2023-09-15,ｓｈｅｎｚｈｅｎｓｈｉｓｈａｎｇｙｕｍａｏｙｉｙｏｕｘｉａｎｇｏｎｇｓｉ,,外国会社等,,,,,,,,ｓｈｅｎｚｈｅｎｓｈｉ　ｌｏｎｇｈｕａｑｕ　ｇｕａｎｌａｎｊｉｅｄａｏ　ｎｉｕｈｕｓｈｅｑｕ　ｊｕｎｘｉｎｌｕ　ＮＯ．２５００１０７－８２１,,,,,,2023-09-15,1,,,,,シェンジェンシーシャンイーマオイーヨウシエンゴンスー,0
2134,8700150120379,新規,0,2023-09-15,2023-09-15,ＳｈｅｎｚｈｅｎＫｕｎＰｅｎｇ　Ｔｅｃｈｎｏｌｏｇｙ　Ｄｅｖｅｌｏｐｍｅｎｔ　Ｃｏ．，Ｌｔｄ,,外国会社等,,,,,,,,ＬｏｎｇＨｕａＳｔｒｅｅｔＳｏｎｇＨｅＳｈｅＱｕＭｅｉＬｏｎｇＤａＤａｏＮｏ８９８　２０２ＬｏｎｇｈｕａＤｉｓｔｒｉｃｔ　Ｓｈｅｎｚｈｅｎ,,,,,,2023-09-15,1,,,,,シンセンクンペンテクノロジーデベロップメントカンパニーリミテッド,0
2135,8700150120387,新規,0,2023-09-15,2023-09-15,ｓｈｅｎｚｈｅｎｒｉｙａｎｋｅｊｉ　ｙｏｕｘｉａｎｇｏｎｇｓｉ,,外国会社等,,,,,,,,ｓｈｅｎｚｈｅｎｓｈｉ　ｌｏｎｇｇａｎｇｑｕ　ｎａｎｗａｎｊｉｅｄａｏｙｉｎｇｊｕｎｎｉａｎｈｕａ３ｄｏｎｇ１ｄａｎｙｕａｎ９ｃ,,,,,,2023-09-15,1,,,,,シンセンルイイェンカギユウゲンコウシ,0
2136,8700150120395,新規,0,2023-09-15,2023-09-15,Ｓｈｅｎｚｈｅｎ　Ｈａｏｙｕ　Ｔｒａｄｉｎｇ　Ｃｏ．，Ｌｔｄ,,外国会社等,,,,,,,,Ｂ３０１，Ｎｏ．５９２　Ｄａｈｅ　Ｖｉｌｌａｇｅ，Ｇｕａｎｃｈｅｎｇ　Ｃｏｍｍｕｎｉｔｙ，Ｇｕａｎｈｕ　Ｓｔｒｅｅｔ　Ｌｏｎｇｈｕａ　Ｄｉｓｔｒｉｃｔ，Ｓｈｅｎｚｈｅｎ　Ｃｉｔｙ　Ｇｕａｎｇｄｏｎｇ　５１８１１０　ＣＮ,,,,,,2023-09-15,1,,,,,シェンジェンハオユィマオイーヨウシェンゴンスー,0
2137,8700150120404,新規,0,2023-09-15,2023-09-15,ｑｕａｎｚｈｏｕｓｈｉｘｉｎｇａｏｍａｏｙｉ　ｙｏｕｘｉａｎｇｏｎｇｓｉ,,外国会社等,,,,,,,,ａｎｈａｉｚｈｅｎｂｉｎｇｃｕｏｃｕｎｊｉｎｌｉｎｇｂｅｉｌｕｎｏ２８ｑｕａｎｚｈｏｕｊｉｎｊｉａｎｇ　ｆｕｊｉａｎ,,,,,,2023-09-15,1,,,,,センシュウシシンアオマオイユウゲンコウシ,0
2138,8700150120412,新規,0,2023-09-15,2023-09-15,ｓｈｅｎｚｈｅｎｋａｌｉｄｉｋｅｊｉｙｏｕｘｉａｎｇｏｎｇｓｉ,,外国会社等,,,,,,,,ｊｉｎｂｉｌｕ２ｈａｏｘｉｎｇｈｕｈｕａｙｕａｎ８ｄｏｎｇＡｚｕｏ４Ｅ　ｌｕｏｈｕｑｕｑｉｎｇｓｈｕｉｈｅｊｉｅｄａｏｎｉｇａｎｇｓｈｅｑｕ　ｓｈｅｎｚｈｅｎｓｈｉ　ｇｕａｎｇｄｏｎｇｓｈｅｎｇ　５１８０００　ＣＮ,,,,,,2023-09-15,1,,,,,シェンジェンカーリーディーコージーヨウシエンゴンスー,0
2139,8700150120420,新規,0,2023-09-15,2023-09-15,Ｈｅｆｅｉ　Ｘｕｎｔｏｕ　ｄｉａｎｚｉ　ｓｈａｎｇｗｕ　ｙｏｕｘｉａｎ　ｇｏｎｇｓｉ,,外国会社等,,,,,,,,ＳｈｕＳｈａｎ　Ｄｉｓｔｒｉｃｔ　Ｓａｎｌｉ’ａｎ　Ｓｔｒｅｅｔ　Ｃｈａｎｇｊｉａｎｇ　Ｗｅｓｔ　Ｒｏａｄ　ＮＯ．１８９　ＺｈｉＸｉｎＣｈｅｎｇ　Ｂ　Ｂｕｉｌｄｉｎｇ　Ｒｏｏｍ　１９０３－３　Ｈｅｆｅｉ　Ｃｉｔｙ　Ａｎｈｕｉ　Ｐｒｏｖｉｎｃｅ　２３００００　ＣＮ,,,,,,2023-09-15,1,,,,,ホーフェイシュントウディエンズーシャンウヨウシェンゴンスー,0
2140,8700150120429,新規,0,2023-09-15,2023-09-15,Ｈｅｎａｎ　Ｄａｎｄａｎ　ＸｕｅＴａｎｇ　Ｅｄｕｃａｔｉｏｎ　Ｔｅｃｈｎｏｌｏｇｙ　Ｃｏ．,,外国会社等,,,,,,,,Ｎｏ．１０，Ｉｎｄｕｓｔｒｉａｌ　Ｒｏａｄ，Ｍａｚｈａｉ　Ｔｏｗｎ，Ｅｒｑｉ　Ｄｉｓｔｒｉｃｔ，Ｚｈｅｎｇｚｈｏｕ　Ｃｉｔｙ，Ｈｅｎａｎ　Ｐｒｏｖｉｎｃｅ，Ｃｈｉｎａ,,,,,,2023-09-15,1,,,,,ホーナンダンダンシュエタンジャオイーコージーヨウシエンゴンスー,0
2141,8700150120478,新規,0,2023-09-15,2023-09-15,医療安全心理・行動学会,,その他,東京都,文京区,本郷４丁目７－１２－１０２,,13,105,1130033,,,,,,,2023-09-15,1,,,,,イリョウアンゼンシンリコウドウガッカイ,0
2155,9010401177130,新規,0,2023-09-15,2023-09-15,株式会社ＨＵＭＡＮ　ＢＡＳＥ,,株式会社,東京都,港区,六本木５丁目１６番５０号六本木デュープレックスＭ’ｓ２０９,,13,103,1060032,,,,,,,2023-09-15,1,,,,,ヒューマンベース,0
2156,9010401177155,新規,0,2023-09-15,2023-09-15,株式会社ストラテジック・エンゲージメント,,株式会社,東京都,港区,南青山２丁目１１番１７号,,13,103,1070062,,,,,,,2023-09-15,1,,,,,ストラテジックエンゲージメント,0
2157,9010401177188,新規,0,2023-09-15,2023-09-15,株式会社イマドキ,,株式会社,東京都,港区,南青山３丁目１５番９号ＭＩＮＯＷＡ表参道３階,,13,103,1070062,,,,,,,2023-09-15,1,,,,,イマドキ,0
2159,9010403030907,新規,0,2023-09-15,2023-09-15,合同会社ファクトリー,,合同会社,東京都,港区,六本木３丁目１２番５号Ｂ１階,,13,103,1060032,,,,,,,2023-09-15,1,,,,,ファクトリー,0
2160,9010501051053,新規,0,2023-09-15,2023-09-15,ＨＡＬＯ株式会社,,株式会社,東京都,台東区,東上野１丁目７番１２号徳永ビル６Ｆ,,13,106,1100015,,,,,,,2023-09-15,1,,,,,ハロ,0
2162,9010503007160,新規,0,2023-09-15,2023-09-15,グロウアップ合同会社,,合同会社,東京都,台東区,台東１丁目３８－９イトーピア清洲橋通ビル５Ｆ－３８号室,,13,106,1100016,,,,,,,2023-09-15,1,,,,,グロウアップ,0
2164,9010601063725,新規,0,2023-09-15,2023-09-15,株式会社石史,,株式会社,東京都,墨田区,太平３丁目１１番２号２０８,,13,107,1300012,,,,,,,2023-09-15,1,,,,,イシシ,0
2166,9010605004238,新規,0,2023-09-15,2023-09-15,一般社団法人新日本自動車振興協会,,その他の設立登記法人,東京都,江東区,新木場２丁目１０番１号,,13,108,1360082,,,,,,,2023-09-15,1,,,,,シンニホンジドウシャシンコウキョウカイ,0
2176,9011001156961,新規,0,2023-09-15,2023-09-15,Ｆｕｓｅ　Ｉｎｎｏｖａｔｉｏｎ株式会社,,株式会社,東京都,渋谷区,渋谷２丁目１９－１５宮益坂ビルディング６０９,,13,113,1500002,,,,,,,2023-09-15,1,,,,,フューズイノベーション,0
2177,9011001156994,新規,0,2023-09-15,2023-09-15,株式会社東京ねこ,,株式会社,東京都,渋谷区,千駄ヶ谷４丁目６番８－２１０７号パークコート神宮北参道ザタワー,,13,113,1510051,,,,,,,2023-09-15,1,,,,,トウキョウネコ,0
2186,9011101104390,新規,0,2023-09-15,2023-09-15,株式会社セカンド,,株式会社,東京都,新宿区,西新宿３丁目３番１３号西新宿水間ビル２Ｆ,,13,104,1600023,,,,,,,2023-09-15,1,,,,,セカンド,0
2191,9011105010783,新規,0,2023-09-15,2023-09-15,一般社団法人日本中華青年連合総会,,その他の設立登記法人,東京都,新宿区,北新宿１丁目８番２１号鴨石ビル５Ｆ,,13,104,1690074,,,,,,,2023-09-15,1,,,,,ニホンチュウカセイネンレンゴウソウカイ,0
2192,9011301029000,新規,0,2023-09-15,2023-09-15,株式会社ティアード,,株式会社,東京都,杉並区,井草４丁目３番２５号,,13,115,1670021,,,,,,,2023-09-15,1,,,,,ティアード,0
2193,9011401025460,新規,0,2023-09-15,2023-09-15,株式会社Ｌｉｎｅ　ａｔ,,株式会社,東京都,板橋区,中板橋１４番７号アジュール中板橋２０２,,13,119,1730016,,,,,,,2023-09-15,1,,,,,ラインアット,0
2194,9011601027125,新規,0,2023-09-15,2023-09-15,株式会社ＨＵＧＥ　ＦＡＶＯＲ,,株式会社,東京都,練馬区,羽沢２丁目３番５－１１０号,,13,120,1760003,,,,,,,2023-09-15,1,,,,,ヒュージフェイバー,0
2195,9012401041010,新規,0,2023-09-15,2023-09-15,株式会社ＶＡＲＰ,,株式会社,東京都,武蔵野市,中町３丁目１８番１９号Ｍ・Ｎフラット２０４,,13,203,1800006,,,,,,,2023-09-15,1,,,,,ヴァープ,0
2196,9012801022626,新規,0,2023-09-15,2023-09-15,株式会社リーフメディカル,,株式会社,東京都,国分寺市,東元町３丁目３３番１号,,13,214,1850022,,,,,,,2023-09-15,1,,,,,リーフメディカル,0
2197,9013101009248,新規,0,2023-09-15,2023-09-15,株式会社Ｓｅｋｋｅｙ,,株式会社,東京都,あきる野市,雨間５０５番地１９,,13,228,1970825,,,,,,,2023-09-15,1,,,,,セッキー,0
2200,9013303006794,新規,0,2023-09-15,2023-09-15,エフェクト合同会社,,合同会社,東京都,豊島区,北大塚２丁目１８番８－３０２号,,13,116,1700004,,,,,,,2023-09-15,1,,,,,エフェクト,0
2207,9020003024606,新規,0,2023-09-15,2023-09-15,合同会社ＱＷＥＲＴ,,合同会社,神奈川県,横浜市西区,北幸２丁目１０番地４８むつみビル３Ｆ,,14,103,2200004,,,,,,,2023-09-15,1,,,,,キューワート,0
2209,9021001080178,新規,0,2023-09-15,2023-09-15,株式会社インフィニティ,,株式会社,神奈川県,鎌倉市,腰越３丁目２２番１７号,,14,204,2480033,,,,,,,2023-09-15,1,,,,,インフィニティ,0
2210,9021001080186,新規,0,2023-09-15,2023-09-15,株式会社サンサンサン,,株式会社,神奈川県,三浦市,南下浦町菊名１２３３番地１,,14,210,2380102,,,,,,,2023-09-15,1,,,,,サンサンサン,0
2213,9030001155872,新規,0,2023-09-15,2023-09-15,株式会社Ｃｏｌｏｒｆｕｌ　Ｓｕｎｓ　Ｖｉｓｉｏｎ,,株式会社,埼玉県,鴻巣市,神明１丁目３番３７号,,11,217,3650074,,,,,,,2023-09-15,1,,,,,カラフルサンズビジョン,0
2214,9030001155914,新規,0,2023-09-15,2023-09-15,株式会社ミッケ,,株式会社,埼玉県,春日部市,南１丁目９番５６－７０５号,,11,214,3440064,,,,,,,2023-09-15,1,,,,,ミッケ,0
2222,9040001130107,新規,0,2023-09-15,2023-09-15,株式会社エムスリー,,株式会社,千葉県,柏市,手賀の杜５丁目２３番地３エレガントヒル１０１号,,12,217,2701447,,,,,,,2023-09-15,1,,,,,エムスリー,0
2229,9040003023341,新規,0,2023-09-15,2023-09-15,アロイノベーション合同会社,,合同会社,千葉県,八街市,榎戸９１９－１６ビュー和ＩＩ１０５号室,00131935,12,230,2891106,,,,,,,2023-09-15,1,,,,,アロイノベーション,0
2232,9050003007698,新規,0,2023-09-15,2023-09-15,合同会社ケアプランセンター白ゆり稲敷,,合同会社,茨城県,稲敷市,月出里１３６７－２１,,08,229,3000521,,,,,,,2023-09-15,1,,,,,ケアプランセンターシラユリイナシキ,0
2233,9050005013331,新規,0,2023-09-15,2023-09-15,陶都協同組合,,その他の設立登記法人,茨城県,水戸市,宮町１丁目２番４号ＭＹＭビル３ＦＢＩＺｃｏｍｆｏｒｔ水戸,,08,201,3100015,,,,,,,2023-09-15,1,,,,,トウト,0
2249,9090003002381,新規,0,2023-09-15,2023-09-15,合同会社Ｄｅａｒ,,合同会社,山梨県,甲府市,大里町１０４９－１０５,,19,201,4000053,,,,,,,2023-09-15,1,,,,,ディアー,0
2253,9100003007180,新規,0,2023-09-15,2023-09-15,ＧＭ　Ｇｒｏｕｐ合同会社,,合同会社,長野県,北安曇郡白馬村,大字神城２５３６７番地１,,20,485,3999211,,,,,,,2023-09-15,1,,,,,ジーエムグループ,0
2256,9110001037848,新規,0,2023-09-15,2023-09-15,株式会社ＴＡＣ,,株式会社,新潟県,長岡市,千歳１丁目３番２６号,,15,202,9400082,,,,,,,2023-09-15,1,,,,,タック,0
2273,9120001258088,新規,0,2023-09-15,2023-09-15,株式会社Ｍ３,,株式会社,大阪府,大阪市東住吉区,桑津３丁目１４番２７－２１２号,,27,121,5460041,,,,,,,2023-09-15,1,,,,,エムスリー,0
2280,9120003024934,新規,0,2023-09-15,2023-09-15,Ｓｔｒｉｐｅ合同会社,,合同会社,大阪府,大阪市北区,梅田１丁目２番２号大阪駅前第２ビル１２‐１２,,27,127,5300001,,,,,,,2023-09-15,1,,,,,ストライプ,0
2281,9120003024950,新規,0,2023-09-15,2023-09-15,ＦＰ不動産合同会社,,合同会社,大阪府,大阪市東住吉区,南田辺１丁目８番７‐７０２号,,27,121,5460033,,,,,,,2023-09-15,1,,,,,エフピーフドウサン,0
2282,9120101068206,新規,0,2023-09-15,2023-09-15,成功オーラ株式会社,,株式会社,大阪府,泉佐野市,葵町２丁目１番３号,,27,213,5980014,,,,,,,2023-09-15,1,,,,,セイコウオーラ,0
2286,9120901048076,新規,0,2023-09-15,2023-09-15,株式会社華一,,株式会社,大阪府,豊能郡豊能町,野間口２０５番地,,27,321,5630218,,,,,,,2023-09-15,1,,,,,ハナイチ,0
2291,9130001075219,新規,0,2023-09-15,2023-09-15,株式会社サンガード,,株式会社,京都府,城陽市,寺田樋尻４８－４７坂本ビル２Ｆ,,26,207,6100121,,,,,,,2023-09-15,1,,,,,サンガード,0
2292,9130001075227,新規,0,2023-09-15,2023-09-15,ＨＡＫ株式会社,,株式会社,京都府,京都市北区,鷹峯藤林町１番地８５,,26,101,6038445,,,,,,,2023-09-15,1,,,,,ハク,0
2293,9130003009001,新規,0,2023-09-15,2023-09-15,合同会社大メ,,合同会社,京都府,京都市左京区,岡崎東福ノ川町１８番地,,26,103,6068321,,,,,,,2023-09-15,1,,,,,ダイシメ,0
2302,9140001131557,新規,0,2023-09-15,2023-09-15,株式会社グレイス,,株式会社,兵庫県,尼崎市,塚口町１丁目１６番６号,,28,202,6610002,,,,,,,2023-09-15,1,,,,,グレイス,0
2305,9140003019552,新規,0,2023-09-15,2023-09-15,合同会社クロスエイト,,合同会社,兵庫県,西宮市,北口町１８番１３－３０１号,,28,204,6638035,,,,,,,2023-09-15,1,,,,,クロスエイト,0
2307,9140005026745,新規,0,2023-09-15,2023-09-15,一般社団法人インクルーシブパートナーズ,,その他の設立登記法人,兵庫県,伊丹市,北本町３丁目５０番地,,28,207,6640836,,,,,,,2023-09-15,1,,,,,インクルーシブパートナーズ,0
2308,9150001026707,新規,0,2023-09-15,2023-09-15,株式会社Ｉ・Ｅ,,株式会社,奈良県,橿原市,白橿町７丁目２６番３号,,29,205,6340051,,,,,,,2023-09-15,1,,,,,アイイー,0
2315,9180001158002,新規,0,2023-09-15,2023-09-15,株式会社マルハチ,,株式会社,愛知県,名古屋市中村区,西米野町４丁目１８番地の３,,23,105,4530812,,,,,,,2023-09-15,1,,,,,マルハチ,0
2316,9180001158101,新規,0,2023-09-15,2023-09-15,株式会社匠工房,,株式会社,愛知県,豊明市,栄町下原７５－５,,23,229,4701161,,,,,,,2023-09-15,1,,,,,タクミコウボウ,0
2322,9180005020356,新規,0,2023-09-15,2023-09-15,司法書士法人沖野総合事務所,,その他の設立登記法人,愛知県,瀬戸市,東松山町５番地１３,,23,204,4890069,,,,,,,2023-09-15,1,,,,,オキノソウゴウジムショ,0
2325,9180305009512,新規,0,2023-09-15,2023-09-15,医療法人沿志会,,その他の設立登記法人,愛知県,碧南市,栄町１丁目４４番地,,23,209,4470877,,,,,,,2023-09-15,1,,,,,ソウシカイ,0
2327,9200001041733,新規,0,2023-09-15,2023-09-15,株式会社大心建設,,株式会社,岐阜県,岐阜市,柳津町東塚３丁目４４番地,,21,201,5016102,,,,,,,2023-09-15,1,,,,,タイシンケンセツ,0
2330,9220001025602,新規,0,2023-09-15,2023-09-15,株式会社ラフィネ,,株式会社,石川県,かほく市,松浜イ６５番地１７,,17,209,9291172,,,,,,,2023-09-15,1,,,,,ラフィネ,0
2335,9240001062131,新規,0,2023-09-15,2023-09-15,株式会社こねっと,,株式会社,広島県,広島市西区,商工センター６丁目９番３９号,,34,104,7330833,,,,,,,2023-09-15,1,,,,,コネット,0
2339,9240003006268,新規,0,2023-09-15,2023-09-15,ＯＳＯＲＡＮＯ合同会社,,合同会社,広島県,廿日市市,河津原１１０４－１,,34,213,7380204,,,,,,,2023-09-15,1,,,,,オソラーノ,0
2342,9260003004435,新規,0,2023-09-15,2023-09-15,合同会社アサヒ農園,,合同会社,岡山県,浅口市,鴨方町六条院中３１５２,,33,216,7190252,,,,,,,2023-09-15,1,,,,,アサヒノウエン,0
2347,9290001103046,新規,0,2023-09-15,2023-09-15,株式会社Ｍ＆ｎ,,株式会社,福岡県,福岡市南区,五十川２丁目２０番９号,,40,134,8150001,,,,,,,2023-09-15,1,,,,,エムアンドエヌ,0
2348,9290001103054,新規,0,2023-09-15,2023-09-15,株式会社ワイズ,,株式会社,福岡県,福岡市東区,香椎駅前１丁目１８－１２フラットフルス２Ｆ－Ｂ,,40,131,8130013,,,,,,,2023-09-15,1,,,,,ワイズ,0
2352,9290003014349,新規,0,2023-09-15,2023-09-15,イヴ合同会社,,合同会社,福岡県,筑紫野市,大字牛島４３６－１５,,40,217,8180014,,,,,,,2023-09-15,1,,,,,イブ,0
2354,9290801029878,新規,0,2023-09-15,2023-09-15,株式会社ヨシケン,,株式会社,福岡県,田川市,大字夏吉１２５８番地３０６,,40,206,8250004,,,,,,,2023-09-15,1,,,,,ヨシケン,0
2357,9310003004636,新規,0,2023-09-15,2023-09-15,合同会社広良,,合同会社,長崎県,長崎市,三原１丁目４番１８－５０５号,,42,201,8528123,,,,,,,2023-09-15,1,,,,,コウリョウ,0
2359,9340001025904,新規,0,2023-09-15,2023-09-15,株式会社スカイヒーロー,,株式会社,鹿児島県,鹿児島市,武岡５丁目２５番２３号,,46,201,8900031,,,,,,,2023-09-15,1,,,,,スカイヒーロー,0
2362,9360001032527,新規,0,2023-09-15,2023-09-15,株式会社柳,00131930,株式会社,沖縄県,那覇市,松山１丁目１９番１１号パークサイド松山１階,,47,201,9000032,,,,,,,2023-09-15,1,,,,,ヤナギ,0
2373,9380001033993,新規,0,2023-09-15,2023-09-15,株式会社藤和,,株式会社,福島県,伊達郡桑折町,大字谷地字川上３番地の２,,07,301,9691643,,,,,,,2023-09-15,1,,,,,トウワ,0
2385,9430005014778,新規,0,2023-09-15,2023-09-15,医療法人いちい会,,その他の設立登記法人,北海道,札幌市豊平区,平岸一条１２丁目１番３０号メディカルスクエア南平岸２階,,01,105,0620931,,,,,,,2023-09-15,1,,,,,イチイカイ,0
2388,9480001012211,新規,0,2023-09-15,2023-09-15,株式会社ＡＮＤＧＩＶＥ,,株式会社,徳島県,徳島市,住吉１丁目３－９アートグリーンハイツ３０５号室,,36,201,7700861,,,,,,,2023-09-15,1,,,,,アンドギブ,0
2390,9490001010593,新規,0,2023-09-15,2023-09-15,ネクストリー・はるの株式会社,,株式会社,高知県,高知市,春野町仁ノ２０５４番地５,,39,201,7810323,,,,,,,2023-09-15,1,,,,,ネクストリーハルノ,0
2391,9700150120287,新規,0,2023-09-15,2023-09-15,ｆｏｓｈａｎｓｈｉ　ｓｉｗｅｉｗａｎｈｏｎｇ　ｊｉｎｃｈｕｋｏｕｙｏｕｘｉａｎｇｏｎｇｓｉ,,外国会社等,,,,,,,,Ｄａｎｚａｏ　Ｔｏｗｎ，Ｘｉｎｎｏｎｇ　Ｘｉｅｂｉａｎ　Ｑｉａｎｄｉｄｕａｎ，Ｏｎｅ　ｏｆ　ｔｈｅ　ｓｅｃｏｎｄ　ｆｌｏｏｒｓ　ｏｆ　Ｚｅｎｇ　Ｊｉｎｃｈａｎｇ　ｆａｃｔｏｒｙ　ｂｕｉｌｄｉｎｇ，Ｎａｎｈａｉ　Ｆｏｓｈａｎ　Ｃｉｔｙ　５２８２００　ＣＮ,,,,,,2023-09-15,1,,,,,フォサンシシウェイワンホンジンツコオヨウシェンゴンスー,0
2392,9700150120295,新規,0,2023-09-15,2023-09-15,ｓｈｅｎｚｈｅｎｓｈｉａｏｄａｄｉａｎｙｕａｎｋｅｊｉ　ｙｏｕｘｉａｎｇｏｎｇｓｉ,,外国会社等,,,,,,,,２５０１，Ｂｕｉｌｄｉｎｇ　１，Ｈｕｉｄｅ　Ｍａｎｓｉｏｎ，Ｎｏｒｔｈ　Ｓｔａｔｉｏｎ　Ｃｏｍｍｕｎｉｔｙ，Ｍｉｎｚｈｉ　Ｓｔｒｅｅｔ，Ｌｏｎｇｈｕａ　Ｄｉｓｔｒｉｃｔ，Ｓｈｅｎｚｈｅｎ,,,,,,2023-09-15,1,,,,,シンセンシアオダデンゲンカギユウゲンコウシ,0
2393,9700150120304,新規,0,2023-09-15,2023-09-15,ｚｈｅｊｉａｎｇｑｉｋｅｊｉｎｃｈｕｋｏｕ　ｙｏｕｘｉａｎｇｏｎｇｓｉ,,外国会社等,,,,,,,,ｈｕ　ｓｈａｎ　ｊｉｅ　ｄａｏ　ｊｉａｎｇ　ｄｉａｎ　ｌｕ　３０　ｈａｏ　ｑｕ　ｚｈｏｕ　ｓｈｉ　ｊｉａｎｇ　ｓｈａｎ　ｓｈｉ　ｚｈｅ　ｊｉａｎｇ　ｓｈｅｎｇ,,,,,,2023-09-15,1,,,,,セッコウチケジンチュコユウゲンコウシ,0
2394,9700150120312,新規,0,2023-09-15,2023-09-15,ｓｈｅｎｚｈｅｎｓｈｉ　ｈｕａｋｕｏｔｏｎｇ　ｋｅｊｉ　ｙｏｕｘｉａｎ　ｇｏｎｇｓｉ,,外国会社等,,,,,,,,ＦＧ　ｆｌｏｏｒ　１４，ｂｕｉｌｄｉｎｇ　１，Ｎｏ．１７，ｄａｗａｎｇｓｈａｎ　Ｉｎｄｕｓｔｒｉａｌ　１ｓｔ　Ｒｏａｄ，Ｓｈａｊｉｎ　ｊｉｅｄａｏ　ｂａｏａｎ　ｓｈｅｎｚｈｅｎ，Ｃｈｉｎａ,,,,,,2023-09-15,1,,,,,シンセンシフアクオトンカギユウゲンコウシ,0
2395,9700150120320,新規,0,2023-09-15,2023-09-15,Ｇｕａｎｇｚｈｏｕ　Ｙｌｃａｓｔｅｒ　Ｍｅｔａｌ　Ｃｏ．，ＬＴＤ,,外国会社等,,,,,,,,Ｒｏｏｍ　３０２，Ｎｏ．１８３，Ｔｉｎｇｙｕａｎ　Ｒｏａｄ，Ｘｉｎｇａｎｇ　Ｅａｓｔ　Ｒｏａｄ　ＧＵＡＮＧＺＨＯＵ　ＧＵＡＮＧＤＯＮＧ　ＨＡＩＺＨＵ　５１００００　ＣＮ,,,,,,2023-09-15,1,,,,,コウシュウワイエルキャスターメタルカンパニーリミテッド,0
2396,9700150120329,新規,0,2023-09-15,2023-09-15,Ｇｕａｎｇｘｉ　Ｂｏｂａｉ　Ｈｕａｎｇｔｕ　Ｃｒａｆｔｓ　Ｃｏ．，Ｌｔｄ,,外国会社等,,,,,,,,ＢＯＢＡＩＸＩＡＮ　ＢＯＢＡＩＺＨＥＮ　ＸＩＮＧＬＯＮＧＤＯＮＧＬＵ（ＭＵＴＯＮＧＣＵＮＷＥＩＰＡＮＧ）ＹＵＬＩＮ　ＧＵＡＮＧＸＩ　５３７６００　ＣＮ,,,,,,2023-09-15,1,,,,,グワンシーボーバイシエンフアントゥーゴンイーピンヨウシエンゾーレンゴンスー,0
2397,9700150120337,新規,0,2023-09-15,2023-09-15,ｄｏｎｇｇｕａｎ　ｓｉｗｅｉｊｉａｄｉａｎｚｉｋｅｊｉ　ｙｏｕｘｉａｎｇｏｎｇｓｉ,,外国会社等,,,,,,,,Ｌｉａｏｂｕｚｈｅｎ　Ｔａｎｇｃｈｕｎｃｕｎ　Ｊｉｎｆｕ　２　ｌｕ　Ｊｕｈｕｉ　ｅ　ｇｕ　０　ｄｏｎｇ　２　ｌｏｕ　Ｄｏｎｇｇｕａｎ,,,,,,2023-09-15,1,,,,,トンカンスウェイジアデンシカギユウゲンコウシ,0
2398,9700150120345,新規,0,2023-09-15,2023-09-15,ｄｏｎｇｇｕａｎｓｈｉｌｉｎｇｄｕｑｉｃｈｅｄｉａｎｚｉｋｅｊｉ　ｙｏｕｘｉａｎｇｏｎｇｓｉ,,外国会社等,,,,,,,,ｇｕａｎｇｄｏｎｇｓｈｅｎｇ　ｄｏｎｇｇｕａｎｓｈｉ　ｑｉｓｈｉｚｈｅｎｈｕａｎｑｉｄａｄａｏ２７ｈａｏ１０２ｓｈｉ,,,,,,2023-09-15,1,,,,,トウカンシリンドオキシャデンシカギユウゲンコウシ,0
2399,9700150120353,新規,0,2023-09-15,2023-09-15,Ｓｈｅｎｚｈｅｎ　ｉＬｏｖｅｙ　Ｔｅｃｈｎｏｌｏｇｙ　Ｃｏ．，Ｌｔｄ,,外国会社等,,,,,,,,ＸｉｘｉａｎｇＳｔｒｅｅｔ　ＬａｂｏｒＲｏａｄ　ＬａｏｄｏｎｇｅｒｄｕｉＹｉｘｉａｎｇ１２＃８０２　Ｓｈｅｎｚｈｅｎ　Ｂａｏａｎ　Ｃｈｉｎａ,,,,,,2023-09-15,1,,,,,シンセンアイラブイーテクノロジーカンパニーリミテッド,0
2400,9700150120361,新規,0,2023-09-15,2023-09-15,Ｓｈｅｎｚｈｅｎｓｈｉ　Ｌｉｃｈｉ　Ｄｉａｎｚｉｓｈａｎｇｗｕ　Ｃｏ．，Ｌｔｄ．,,外国会社等,,,,,,,,３０６－１　３Ｆ　Ｔｉａｎｈｕｉ　Ｂｕｉｌｄｉｎｇ　Ａ　ＤｏｎｇｈｕａｎｙｉＲｏａｄＦｕｋａｎｇＣｏｍｍｕｎｉｔｙＬｏｎｇｈｕａＳｔｒｅｅｔＬｏｎｇｈｕａＤｉｓｔｒｉｃｔ　Ｓｈｅｎｚｈｅｎ,,,,,,2023-09-15,1,,,,,シンセンシリチデンシショウムカンパニーリミテッド,0
2401,9700150120378,新規,0,2023-09-15,2023-09-15,ｓｈｅｎｚｈｅｎｓｈｉ　ｃｈｅｎｇｃｈｕｎ　ｊｉａｊｕｙｏｎｇｐｉｎ　ｙｏｕｘｉａｎｇｏｎｇｓｉ,,外国会社等,,,,,,,,ｇｕａｎｇ　ｍｉｎｇ　ｑｕ　ｇｕａｎｇ　ｍｉｎｇ　ｊｉｅ　ｄａｏ　ｂｉ　ｙａｎ　ｓｈｅ　ｑｕ　ｈｕａ　ｑｉａｎｇ　ｃｈｕａｎｇ　ｙｉ　ｇｏｎｇ　ｙｕａｎ　５　ｄｏｎｇ　Ｂ　ｚｕｏ　０５０３　Ｓｈｅｎｚｈｅｎ　５１８０００　ＣＮ,,,,,,2023-09-15,1,,,,,シンセンシチェンチュンジアジュヨンピンヨウシェンゴンスー,0
2402,9700150120386,新規,0,2023-09-15,2023-09-15,ｙｏｕｋｏｕｍａｍａｏｙｉ（ｓｈｅｎｚｈｅｎ）　ｙｏｕｘｉａｎｇｏｎｇｓｉ,,外国会社等,,,,,,,,ｓｈｅｎｚｈｅｎｓｈｉｌｕｏｈｕｑｕｄｏｎｇｘｉａｏｊｉｅｄａｏｄｕｓｈｕｓｈｅｑｕｂｕｘｉｎｌｕ３００８ｈａｏｓｈｕｉｂｅｉｚｈｕｂａｏｚｏｎｇｂｕｄａｓｈａＢｚｕｏ２７１２ｓｈｅｎｚｈｅｎｓｈｉ　５１８０００　ＣＮ,,,,,,2023-09-15,1,,,,,ヨコママオイシンセンヨウシェンゴンスー,0
2403,9700150120394,新規,0,2023-09-15,2023-09-15,ＳｈｅｎＺｈｅｎＰａＰｕＫｅＪｉ　ＹｏｕＸｉａｎＧｏｎｇＳｉ,,外国会社等,,,,,,,,ＬｏｎｇｈｕａＸｉｎｑｕ　ＤａｌａｎｇＪｉｅＤａｏｋｅｌｕｎｔｅｄｉｔａｎｃｈａｎｙｅｙｕａｎＣｄｏｎｇ５ｌｏｕｄｏｎｇｃｅ　Ｓｈｅｎｚｈｅｎ,,,,,,2023-09-15,1,,,,,シンセンパプカギユウゲンコウシ,0
2404,9700150120403,新規,0,2023-09-15,2023-09-15,ｓｈｅｎｚｈｅｎｓｈｉｒｏｎｇｙｉｄｉａｎｚｉｋｅｊｉ　ｙｏｕｘｉａｎｇｏｎｇｓｉ,,外国会社等,,,,,,,,２－３ＨａｏＹａｎｇＧｕａｎｇＧｏｎｇＹｅＹｕａｎＢ３ＤｏｎｇＣｈａｎｇＦａｎｇ４ＬｏｕＢａｏＡｎＱｕＨａｎｇＣｈｅｎｇＪｉｅＤａｏＨｅＺｈｏｕＳｈｅＱｕＨｅＺｈｏｕＮａｎＰｉａｎＧｏｎｇＹｅＱｕ　Ｓｈｅｎｚｈｅｎｃｉｔｙ,,,,,,2023-09-15,1,,,,,シンセンシヨンイデンシカギユウゲンコウシ,0
2405,9700150120411,新規,0,2023-09-15,2023-09-15,ＷＥＭＵＧ　＆　Ｌｉｆｅｓｔｙｌｅ　Ｌｉｍｉｔｅｄ,,外国会社等,,,,,,,,１３／Ｆ　Ｌｉｂｅｒａｌ　Ｆａｃｔｏｒｙ　Ｂｕｉｌｄｉｎｇ　３　Ｗｉｎｇ　Ｍｉｎｇ　Ｓｔｒｅｅｔ，Ｃｈｅｕｎｇ　Ｓｈａ　Ｗａｎ　Ｋｏｗｌｏｏｎ　００００　ＨＫ,,,,,,2023-09-15,1,,,,,ウェンムーゴーウェンフワーチュワンイー,0
2406,9700150120428,新規,0,2023-09-15,2023-09-15,ｈｕａ　ｒｏｎｇ　ｌｉ　ｙｕ　ｄｉａｎ　ｚｉ　ｓｈａｎｇ　ｗｕ　ｙｏｕ　ｘｉａｎ　ｇｏｎｇ　ｓｉ,,外国会社等,,,,,,,,ｈｕｎａｎｓｈｅｎｇ　ｙｕｅｙａｎｇｓｈｉ　ｈｕａｒｏｎｇｘｉａｎ　ｙｕｓｈａｎｚｈｅｎ　ｄａｃｈｅｎｇｓｉｓｈｅｑｕｂｅｉｊｉｅ,,,,,,2023-09-15,1,,,,,フワーロンリーイーディエンズーシャンウーヨウシエンゴンスー,0
2407,9700150120436,新規,0,2023-09-15,2023-09-15,ＴＥＸＥＧ　Ｉｎｄｉａ　Ｐｒｉｖａｔｅ　Ｌｉｍｉｔｅｄ,,外国会社等,,,,,,,,ＳＨＯＰ　Ｎｏ．２，ＰＬＯＴ　Ｎｏ．５５５／１　ＴＡＬＵＫ　ＫＡＬＯＬ　ＲＡＫＡＮＰＵＲ　Ｇａｎｄｈｉｎａｇａｒ　ＧＪ　３８２７２１,,,,,,2023-09-15,1,,,,,テツクスイージーインドプライベートリミテツド,0
