sequenceNumber,corporateNumber,process,correct,updateDate,changeDate,name,nameImageId,kind,prefectureName,cityName,streetNumber,addressImageId,prefectureCode,cityCode,postCode,addressOutside,addressOutsideImageId,closeDate,closeCause,successorCorporateNumber,changeCause,assignmentDate,latest,enName,enPrefectureName,enCityName,enAddressOutside,furigana,hihyoji
13,1010005005430,登記記録の閉鎖等,0,2025-10-16,2025-10-09,爽監査法人,,その他の設立登記法人,東京都,千代田区,内神田３丁目１５番３号Ｉ・Ｓビル,,13,101,1010047,,,2025-10-09,清算の結了等,,,2015-10-05,1,,,,,ソウ,0
15,1010101008056,登記記録の閉鎖等,0,2025-10-16,2025-10-10,株式会社ホリエイ不動産ショップ,,株式会社,東京都,八王子市,元横山町２丁目２番１１号,,13,201,1920063,,,2025-10-10,清算の結了等,,,2015-10-05,1,,,,,ホリエイフドウサンショップ,0
16,1010101010648,登記記録の閉鎖等,0,2025-10-16,2025-10-10,株式会社コイズミ通信,,株式会社,東京都,八王子市,椚田町５２７番地１０,,13,201,1930942,,,2025-10-10,清算の結了等,,,2015-10-05,1,,,,,コイズミツウシン,0
20,1010401177583,登記記録の閉鎖等,0,2025-10-16,2025-10-07,株式会社ＵＭＩＴＯホスピタリティ,,株式会社,東京都,千代田区,紀尾井町４番１号ニューオータニガーデンコート,,13,101,1020094,,,2025-10-07,合併による解散等,3010401145159,令和７年１０月１日東京都千代田区紀尾井町４番１号ニューオータニガーデンコート株式会社ＵＭＩＴＯ（3010401145159）に合併し解散,2023-10-11,1,,,,,ウミトホスピタリティ,0
38,1010901027230,登記記録の閉鎖等,0,2025-10-16,2025-10-14,株式会社早坂スタジオ,,株式会社,東京都,世田谷区,下馬１丁目１３番１５号,,13,112,1540002,,,2025-10-14,清算の結了等,,,2015-10-05,1,,,,,ハヤサカスタジオ,0
52,1011101032657,登記記録の閉鎖等,0,2025-10-16,2025-09-29,株式会社ホンダ興産,,株式会社,東京都,中央区,日本橋２丁目９番４号,,13,102,1030027,,,2025-09-29,清算の結了等,,,2015-10-05,1,,,,,ホンダコウサン,0
53,1011101039355,登記記録の閉鎖等,0,2025-10-16,2025-10-14,株式会社オフィスザップ,,株式会社,東京都,新宿区,新宿７丁目９番２７号３０２,,13,104,1600022,,,2025-10-14,清算の結了等,,,2015-10-05,1,,,,,オフィスザップ,0
73,1011803002486,登記記録の閉鎖等,0,2025-10-16,2025-10-08,八木橋経営サポート合同会社,,合同会社,東京都,葛飾区,青戸６丁目６番８号,,13,122,1250062,,,2025-10-08,清算の結了等,,,2016-06-06,1,,,,,ヤギハシケイエイサポート,0
95,1030001084526,登記記録の閉鎖等,0,2025-10-16,2025-10-07,株式会社大西商店,,株式会社,埼玉県,熊谷市,小曽根１０４８番地,,11,202,3600017,,,2025-10-07,清算の結了等,,,2015-10-05,1,,,,,オオニシショウテン,0
96,1030001131336,登記記録の閉鎖等,0,2025-10-16,2025-10-03,株式会社ＣＬ　Ｃｒｅａｔｉｖｅ,,株式会社,東京都,千代田区,三番町２番地,,13,101,1020075,,,2025-10-03,清算の結了等,,,2019-06-10,1,,,,,シーエルクリエイティブ,0
112,1040003025361,登記記録の閉鎖等,0,2025-10-16,2025-10-07,合同会社ＬｉｂｅｒｔｙＳＰ,,合同会社,千葉県,松戸市,松飛台４００－８,,12,207,2702214,,,2025-10-07,清算の結了等,,,2024-07-08,1,,,,,リバティエスピー,0
113,1040005004529,登記記録の閉鎖等,0,2025-10-16,2025-09-19,浦安市上下水道管工事協同組合,,その他の設立登記法人,千葉県,浦安市,富士見１丁目１６番１５号株式会社浦安設備管工内,,12,227,2790043,,,2025-09-19,清算の結了等,,,2015-10-05,1,,,,,ウラヤスシジョウゲスイドウカンコウジ,0
117,1060001031574,登記記録の閉鎖等,0,2025-10-16,2025-10-06,株式会社ＳＯ－ＹＡ,,株式会社,栃木県,栃木市,惣社町３３４番地１,,09,203,3280002,,,2025-10-06,清算の結了等,,,2019-05-13,1,,,,,ソーヤ,0
119,1060002037942,登記記録の閉鎖等,0,2025-10-16,2025-10-10,有限会社イマージュプロダクツ,,有限会社,栃木県,足利市,島田町６９３番地２,,09,202,3260337,,,2025-10-10,清算の結了等,,,2015-10-05,1,,,,,イマージュプロダクツ,0
127,1110001009739,登記記録の閉鎖等,0,2025-10-16,2025-10-09,株式会社笑美,,株式会社,新潟県,新潟市秋葉区,北上２丁目４番２２号,,15,105,9560861,,,2025-10-09,清算の結了等,,,2015-10-05,1,,,,,エミ,0
141,1120003026252,登記記録の閉鎖等,0,2025-10-16,2025-09-22,ＴＡＫＭＡＫ　ＩＮＴＥＲＮＡＴＩＯＮＡＬ合同会社,,合同会社,北海道,札幌市中央区,南十条西１０丁目１－２０,,01,101,0640810,,,2025-09-22,清算の結了等,,,2024-04-04,1,,,,,タクマックインターナショナル,0
154,1140002029601,登記記録の閉鎖等,0,2025-10-16,2025-10-07,有限会社藤田ゴム工業所,,有限会社,兵庫県,明石市,大久保町森田１４０番地,,28,203,6740061,,,2025-10-07,清算の結了等,,,2015-10-05,1,,,,,フジタゴムコウギョウショ,0
164,1180001141287,登記記録の閉鎖等,0,2025-10-16,2025-10-09,ロジスネクスト中部株式会社,,株式会社,愛知県,名古屋市中川区,四女子町１丁目５２番地,,23,110,4540822,,,2025-10-09,合併による解散等,8120001229206,令和７年１０月１日大阪府守口市大日東町３５番２号ロジスネクストジャパン株式会社（8120001229206）に合併し解散,2020-05-25,1,,,,,ロジスネクストチュウブ,0
167,1180001163075,登記記録の閉鎖等,0,2025-10-16,2025-10-15,ＬＴＴ株式会社,,株式会社,愛知県,瀬戸市,幡野町２９７番地の２,,23,204,4890874,,,2025-10-15,清算の結了等,,,2024-09-04,1,,,,,エルティーティー,0
176,1180301006272,登記記録の閉鎖等,0,2025-10-16,2025-10-02,株式会社中部総建,,株式会社,愛知県,豊橋市,神野新田町字ワノ割１０７番地,,23,201,4418077,,,2025-10-02,清算の結了等,,,2015-10-05,1,,,,,チュウブソウケン,0
180,1190001007917,登記記録の閉鎖等,0,2025-10-16,2025-10-03,株式会社味工房いせ,,株式会社,三重県,伊勢市,西豊浜町出雲１４１番地,,24,203,5150505,,,2025-10-03,清算の結了等,,,2015-10-05,1,,,,,アジコウボウイセ,0
188,1210001013029,登記記録の閉鎖等,0,2025-10-16,2025-10-10,大豊ニツテイング株式会社,,株式会社,福井県,鯖江市,落井町第４０号６番地,,18,207,9161115,,,2025-10-10,清算の結了等,,,2015-10-05,1,,,,,タイホウニツテイング,0
204,1290001082017,登記記録の閉鎖等,0,2025-10-16,2025-09-16,株式会社ＮＴＡＢＩ,,株式会社,福岡県,福岡市城南区,西片江２丁目１１－４,,40,136,8140141,,,2025-09-16,清算の結了等,,,2018-07-12,1,,,,,エヌタビ,0
222,1360001028524,登記記録の閉鎖等,0,2025-10-16,2025-10-09,波光株式会社,,株式会社,沖縄県,石垣市,字新川２０９５番地８、２号室,,47,207,9070024,,,2025-10-09,清算の結了等,,,2021-03-31,1,,,,,ナミコウ,0
236,1460002001701,登記記録の閉鎖等,0,2025-10-16,2025-10-10,有限会社田中重機興業,,有限会社,北海道,釧路市,星が浦南１丁目５番１４号,,01,206,0840913,,,2025-10-10,清算の結了等,,,2015-10-05,1,,,,,タナカジュウキコウギョウ,0
276,2010401159614,登記記録の閉鎖等,0,2025-10-16,2025-09-10,株式会社ケイスタジオ,,株式会社,東京都,港区,新橋６丁目２０番１号ル・グラシエルＢＬＤＧ．１－３階,,13,103,1050004,,,2025-09-10,合併による解散等,8011001098981,令和７年９月１０日東京都港区新橋六丁目２０番１号ル・グラシエルＢＬＤＧ．１－２階株式会社ケイコンテンツ（8011001098981）に合併し解散,2021-04-16,1,,,,,ケイスタジオ,0
295,2011001127424,登記記録の閉鎖等,0,2025-10-16,2025-10-14,株式会社Ｓｈｏｃｋ　Ｔｅｃｈ,,株式会社,東京都,新宿区,歌舞伎町２丁目１番２号,,13,104,1600021,,,2025-10-14,清算の結了等,,,2019-04-09,1,,,,,ショックテック,0
304,2011301022993,登記記録の閉鎖等,0,2025-10-16,2025-10-06,株式会社フォート・ノックス,,株式会社,東京都,杉並区,和田３丁目３４番９号,,13,115,1660012,,,2025-10-06,清算の結了等,,,2017-03-15,1,,,,,,0
312,2012302004436,登記記録の閉鎖等,0,2025-10-16,2025-08-12,有限会社マム相原,,有限会社,東京都,町田市,相原町１１３９番地,,13,209,1940211,,,2025-08-12,清算の結了等,,,2015-10-05,1,,,,,マムアイハラ,0
348,2030003019058,登記記録の閉鎖等,0,2025-10-16,2025-10-06,合同会社勝恵舎,,合同会社,埼玉県,上尾市,大字平方４８０番地２,,11,219,3620059,,,2025-10-06,清算の結了等,,,2022-03-22,1,,,,,ショウケイシャ,0
351,2040001049295,登記記録の閉鎖等,0,2025-10-16,2025-09-12,株式会社ゼピロス,,株式会社,千葉県,八街市,榎戸１３９－１６,,12,230,2891106,,,2025-09-12,清算の結了等,,,2015-10-05,1,,,,,ゼピロス,0
354,2040002078970,登記記録の閉鎖等,0,2025-10-16,2025-09-16,有限会社ブリエ,,有限会社,千葉県,大網白里市,柳橋２６９番地,,12,239,2993263,,,2025-09-16,清算の結了等,,,2015-10-05,1,,,,,ブリエ,0
357,2050001034049,登記記録の閉鎖等,0,2025-10-16,2025-10-02,株式会社ＫＯＤＡＭＡ,,株式会社,茨城県,神栖市,若松中央５丁目３２番地２,,08,232,3140256,,,2025-10-02,清算の結了等,,,2015-10-05,1,,,,,コダマ,0
362,2080001015748,登記記録の閉鎖等,0,2025-10-16,2025-10-08,株式会社岩商,,株式会社,静岡県,焼津市,石津２丁目４番地３,,22,212,4250041,,,2025-10-08,清算の結了等,,,2015-10-05,1,,,,,イワショウ,0
367,2090001000468,登記記録の閉鎖等,0,2025-10-16,2025-10-08,株式会社神田活字甲府店,,株式会社,山梨県,甲府市,丸の内２丁目２７番６号,,19,201,4000031,,,2025-10-08,清算の結了等,,,2015-10-05,1,,,,,カンダカツジコウフテン,0
371,2110001016981,登記記録の閉鎖等,0,2025-10-16,2025-10-06,株式会社サクマ,,株式会社,新潟県,三条市,西本成寺１丁目４番１３号,,15,204,9550845,,,2025-10-06,清算の結了等,,,2015-10-05,1,,,,,サクマ,0
374,2110002020438,登記記録の閉鎖等,0,2025-10-16,2025-10-06,有限会社カネサンサトウ,,有限会社,新潟県,三島郡出雲崎町,大字鳴滝町３５４番地,,15,405,9494304,,,2025-10-06,清算の結了等,,,2015-10-05,1,,,,,カネサンサトウ,0
375,2110002028431,登記記録の閉鎖等,0,2025-10-16,2025-10-06,有限会社頓所新聞店,,有限会社,新潟県,長岡市,高見町１番地１,,15,202,9400004,,,2025-10-06,清算の結了等,,,2015-10-05,1,,,,,トンショシンブンテン,0
398,2120101052455,登記記録の閉鎖等,0,2025-10-16,2025-09-29,株式会社Ｈ２ＯＭｅｄアドバイザーズ,,株式会社,大阪府,松原市,松ケ丘１丁目１番１号,,27,217,5800042,,,2025-09-29,清算の結了等,,,2015-10-05,1,,,,,エイチツーオーメドアドバイザーズ,0
408,2130001056159,登記記録の閉鎖等,0,2025-10-16,2025-10-10,株式会社ケイアイ紙工,,株式会社,京都府,京都市西京区,大枝北沓掛町４丁目３４番地２４,,26,111,6101101,,,2025-10-10,清算の結了等,,,2015-10-08,1,,,,,,0
426,2170001013560,登記記録の閉鎖等,0,2025-10-16,2025-10-14,株式会社あるぽると,,株式会社,和歌山県,伊都郡かつらぎ町,大字東渋田６４４番地の４,,30,341,6497151,,,2025-10-14,清算の結了等,,,2015-10-05,1,,,,,アルポルト,0
428,2180001060073,登記記録の閉鎖等,0,2025-10-16,2025-10-06,株式会社コーワメックス,,株式会社,愛知県,名古屋市中区,金山１丁目１４番１８号,,23,106,4600022,,,2025-10-06,合併による解散等,6011101093174,令和７年１０月１日東京都新宿区西新宿二丁目１番１号株式会社豆蔵（6011101093174）に合併し解散,2015-10-05,1,,,,,コーワメックス,0
430,2180001149321,登記記録の閉鎖等,0,2025-10-16,2025-09-25,株式会社ソールドアウト,,株式会社,愛知県,名古屋市港区,遠若町３丁目４９番地,,23,111,4550054,,,2025-09-25,清算の結了等,,,2022-01-05,1,,,,,ソールドアウト,0
431,2180001164312,登記記録の閉鎖等,0,2025-10-16,2025-10-03,靖坤株式会社,,株式会社,愛知県,名古屋市中区,三の丸１丁目１４番７号本丸ビル３０６号室,,23,106,4600001,,,2025-10-03,清算の結了等,,,2024-11-27,1,,,,,セイコン,0
435,2180002029869,登記記録の閉鎖等,0,2025-10-16,2025-10-01,有限会社イマミネ,,有限会社,愛知県,名古屋市中区,新栄２丁目４２番１６号,,23,106,4600007,,,2025-10-01,清算の結了等,,,2015-10-05,1,,,,,イマミネ,0
437,2180002064387,登記記録の閉鎖等,0,2025-10-16,2025-10-02,有限会社ラビス,,有限会社,愛知県,豊明市,阿野町滑５８番地の２,,23,229,4701148,,,2025-10-02,清算の結了等,,,2015-10-05,1,,,,,ラビス,0
438,2180005020552,登記記録の閉鎖等,0,2025-10-16,2025-10-14,一般社団法人クオリティークリエイト,,その他の設立登記法人,愛知県,名古屋市東区,泉２丁目１番２８号Ｖｉａｒｅ　ｓｔｏｒｉａ６０３号,,23,102,4610001,,,2025-10-14,清算の結了等,,,2024-03-18,1,,,,,クオリティークリエイト,0
440,2190001020415,登記記録の閉鎖等,0,2025-10-16,2025-10-07,ヘルスケアサポート株式会社,,株式会社,愛知県,豊明市,三崎町中ノ坪２４番２０,,23,229,4701125,,,2025-10-07,合併による解散等,1180301001686,令和７年１０月１日愛知県岡崎市戸崎町字牛転１０番地９１株式会社ナンブ（1180301001686）に合併し解散,2015-10-05,1,,,,,ヘルスケアサポート,0
442,2190001029316,登記記録の閉鎖等,0,2025-10-16,2025-10-07,株式会社ｅｎｉｓｈｉｓ,,株式会社,三重県,四日市市,智積町２４８８番地５,,24,202,5121212,,,2025-10-07,清算の結了等,,,2022-04-08,1,,,,,エニシス,0
447,2200001024950,登記記録の閉鎖等,0,2025-10-16,2025-10-08,太平測器株式会社,,株式会社,岐阜県,高山市,名田町５丁目２３番地,,21,203,5060021,,,2025-10-08,清算の結了等,,,2015-10-05,1,,,,,タイヘイソッキ,0
462,2290001024447,登記記録の閉鎖等,0,2025-10-16,2025-09-09,キララ株式会社,,株式会社,福岡県,福岡市博多区,博多駅前２丁目１１番２２号,,40,132,8120011,,,2025-09-09,清算の結了等,,,2015-10-05,1,,,,,キララ,0
466,2290802016386,登記記録の閉鎖等,0,2025-10-16,2025-10-06,有限会社産機シグマ,,有限会社,福岡県,北九州市八幡東区,尾倉２丁目７番１－２０７号,,40,108,8050059,,,2025-10-06,清算の結了等,,,2015-10-05,1,,,,,サンキシグマ,0
483,2370302002762,登記記録の閉鎖等,0,2025-10-16,2025-09-30,有限会社愛榮社,,有限会社,宮城県,石巻市,新栄２丁目１８番地８,,04,202,9860004,,,2025-09-30,清算の結了等,,,2015-10-05,1,,,,,アイエイシャ,0
489,2410002002042,登記記録の閉鎖等,0,2025-10-16,2025-10-14,秋南機工有限会社,,有限会社,秋田県,秋田市,太平山谷字中山谷２４７番地２９,,05,201,0101106,,,2025-10-14,清算の結了等,,,2015-10-05,1,,,,,,0
496,2430003006247,登記記録の閉鎖等,0,2025-10-16,2025-10-02,合同会社ＷＥＥＰ,,合同会社,北海道,江別市,ゆめみ野東町４番地の５,,01,217,0670065,,,2025-10-02,清算の結了等,,,2015-10-05,1,,,,,ウィープ,0
502,2500002000045,登記記録の閉鎖等,0,2025-10-16,2025-10-10,有限会社松本博文電気,,有限会社,愛媛県,松山市,中島大浦３０３９番地,,38,201,7914501,,,2025-10-10,清算の結了等,,,2015-10-05,1,,,,,マツモトヒロフミデンキ,0
503,2500002017089,登記記録の閉鎖等,0,2025-10-16,2025-10-10,有限会社フタバグループ,,有限会社,愛媛県,新居浜市,桜木町１番４３号,,38,205,7920865,,,2025-10-10,清算の結了等,,,2015-10-05,1,,,,,フタバグループ,0
531,3010601037073,登記記録の閉鎖等,0,2025-10-16,2025-10-03,日本清潔デポ株式会社,,株式会社,東京都,墨田区,錦糸２丁目１０番１号,,13,107,1300013,,,2025-10-03,清算の結了等,,,2015-10-05,1,,,,,,0
534,3010601062658,登記記録の閉鎖等,0,2025-10-16,2025-10-01,株式会社ＦＩＧＨＴ　ＡＧＩＮＧ,,株式会社,東京都,墨田区,両国３丁目６番５号ジゼル１１０１,,13,107,1300026,,,2025-10-01,合併による解散等,1220001017821,令和７年１０月１日東京都墨田区亀沢四丁目１番１１号株式会社マルダイホールディングス（1220001017821）に合併し解散,2023-02-24,1,,,,,ファイトエイジング,0
560,3011101098300,登記記録の閉鎖等,0,2025-10-16,2025-10-03,株式会社通達,,株式会社,東京都,豊島区,南池袋３丁目１８－３５ＯＫビル３０１,,13,116,1710022,,,2025-10-03,清算の結了等,,,2022-03-28,1,,,,,ツウタツ,0
564,3011103005337,登記記録の閉鎖等,0,2025-10-16,2025-09-24,合同会社アール,,合同会社,神奈川県,相模原市南区,相模台４丁目６番１１号,,14,153,2520321,,,2025-09-24,清算の結了等,,,2015-10-05,1,,,,,アール,0
593,3020001134486,登記記録の閉鎖等,0,2025-10-16,2025-09-24,ＥＰＯＳ　Ｊａｐａｎ株式会社,,株式会社,神奈川県,川崎市幸区,堀川町５８０番地ソリッドスクエア西館１６階,,14,132,2120013,,,2025-09-24,清算の結了等,,,2020-01-15,1,,,,,イーポスジャパン,0
610,3021002025105,登記記録の閉鎖等,0,2025-10-16,2025-10-01,有限会社山田商興,,有限会社,神奈川県,相模原市中央区,光が丘３丁目１２番６号,,14,152,2520227,,,2025-10-01,清算の結了等,,,2015-10-05,1,,,,,ヤマダショウコウ,0
613,3021002050854,登記記録の閉鎖等,0,2025-10-16,2025-09-30,有限会社シナリー・ハーゼライン,,有限会社,神奈川県,小田原市,久野４０３番地の１５,,14,206,2500055,,,2025-09-30,清算の結了等,,,2015-10-05,1,,,,,シナリーハーゼライン,0
618,3030001164383,登記記録の閉鎖等,0,2025-10-16,2025-10-06,ダイヤモンドハウス株式会社,,株式会社,埼玉県,朝霞市,膝折町２丁目１７－５６,,11,227,3510014,,,2025-10-06,清算の結了等,,,2025-01-16,1,,,,,ダイヤモンドハウス,0
621,3030003026920,登記記録の閉鎖等,0,2025-10-16,2025-10-06,月華龍星合同会社,,合同会社,埼玉県,飯能市,大字長沢１１７７－２２,,11,209,3570203,,,2025-10-06,清算の結了等,,,2025-06-05,1,,,,,ゲッカリュウショウ,0
632,3040005005459,登記記録の閉鎖等,0,2025-10-16,2025-09-11,医療法人社団棟風会,,その他の設立登記法人,千葉県,流山市,江戸川台西１丁目１０４番地,,12,220,2700115,,,2025-09-11,清算の結了等,,,2015-10-05,1,,,,,トウフウカイ,0
636,3050002000370,登記記録の閉鎖等,0,2025-10-16,2025-10-06,有限会社野上建築設計,,有限会社,茨城県,水戸市,千波町２７９番地の４,,08,201,3100851,,,2025-10-06,清算の結了等,,,2015-10-05,1,,,,,ノガミケンチクセッケイ,0
637,3060001009478,登記記録の閉鎖等,0,2025-10-16,2025-10-06,株式会社真岡新聞社,,株式会社,栃木県,真岡市,荒町３丁目４５番地２,,09,209,3214305,,,2025-10-06,清算の結了等,,,2015-10-05,1,,,,,モオカシンブンシャ,0
641,3060002027405,登記記録の閉鎖等,0,2025-10-16,2025-10-06,有限会社ジョセフィンファーム,,有限会社,栃木県,大田原市,蛭田３８３番地,,09,210,3240412,,,2025-10-06,清算の結了等,,,2015-10-05,1,,,,,ジョセフィンファーム,0
651,3100001007543,登記記録の閉鎖等,0,2025-10-16,2025-10-07,日精電機株式会社,,株式会社,長野県,佐久市,根々井１５番地７,,20,217,3850012,,,2025-10-07,合併による解散等,9100001007422,令和７年１０月１日長野県佐久市中込３１５６番地株式会社中川電機製作所（9100001007422）に合併し解散,2015-10-05,1,,,,,ニッセイデンキ,0
653,3100001033060,登記記録の閉鎖等,0,2025-10-16,2025-10-10,株式会社サンライズ,,株式会社,長野県,飯田市,大瀬木２６２６番地２２２,,20,205,3950157,,,2025-10-10,清算の結了等,,,2020-04-13,1,,,,,サンライズ,0
654,3100002010744,登記記録の閉鎖等,0,2025-10-16,2025-10-14,有限会社高原タクシー,00069465,有限会社,長野県,佐久市,臼田１０９番地３,,20,217,3840301,,,2025-10-14,清算の結了等,,,2015-10-05,1,,,,,コウゲンタクシー,0
679,3120902001304,登記記録の閉鎖等,0,2025-10-16,2025-10-01,有限会社浜田企画,,有限会社,大阪府,茨木市,大住町９番２号,,27,211,5670813,,,2025-10-01,清算の結了等,,,2015-10-05,1,,,,,ハマダキカク,0
697,3150002000063,登記記録の閉鎖等,0,2025-10-16,2025-10-08,有限会社アゴラ,,有限会社,奈良県,奈良市,富雄北１丁目１２番４号,,29,201,6310076,,,2025-10-08,清算の結了等,,,2015-10-05,1,,,,,アゴラ,0
703,3180001129504,登記記録の閉鎖等,0,2025-10-16,2025-10-01,株式会社ジョブサポート研究所,,株式会社,愛知県,名古屋市熱田区,沢上１丁目５番３０号,,23,109,4560012,,,2025-10-01,清算の結了等,,,2017-09-26,1,,,,,ジョブサポートケンキュウジョ,0
716,3180302027274,登記記録の閉鎖等,0,2025-10-16,2025-10-02,有限会社アウル,,有限会社,愛知県,西尾市,野々宮町斉藤泓３番地２,,23,213,4450057,,,2025-10-02,清算の結了等,,,2015-10-05,1,,,,,アウル,0
720,3210002000461,登記記録の閉鎖等,0,2025-10-16,2025-10-14,有限会社エイ・アイ・エイ,,有限会社,福井県,福井市,学園２丁目５番５号岡本マンション１０２号,,18,201,9100028,,,2025-10-14,清算の結了等,,,2015-10-05,1,,,,,エイアイエイ,0
721,3210002002490,登記記録の閉鎖等,0,2025-10-16,2025-10-09,有限会社トーワ設計,,有限会社,福井県,福井市,渕２丁目８１６番地,,18,201,9188026,,,2025-10-09,清算の結了等,,,2015-10-05,1,,,,,トーワセッケイ,0
732,3270001000779,登記記録の閉鎖等,0,2025-10-16,2025-10-15,株式会社メイズ,,株式会社,鳥取県,鳥取市,岩吉９６番地３０,,31,201,6800931,,,2025-10-15,清算の結了等,,,2015-10-05,1,,,,,メイズ,0
742,3290802005198,登記記録の閉鎖等,0,2025-10-16,2025-10-08,有限会社バンビ,,有限会社,福岡県,北九州市小倉南区,田原３丁目１６番２３号,,40,107,8000225,,,2025-10-08,清算の結了等,,,2015-10-05,1,,,,,バンビ,0
745,3310005008005,登記記録の閉鎖等,0,2025-10-16,2025-10-15,特定非営利活動法人テニスプレイアンドステイ長崎,,その他の設立登記法人,長崎県,長崎市,青山町１９番２１号,,42,201,8528036,,,2025-10-15,清算の結了等,,,2016-10-17,1,,,,,テニスプレイアンドステイナガサキ,0
747,3320001017363,登記記録の閉鎖等,0,2025-10-16,2025-10-06,国東道の駅株式会社,,株式会社,大分県,国東市,国東町小原２６６４番地１,,44,214,8730511,,,2025-10-06,清算の結了等,,,2019-10-23,1,,,,,クニサキミチノエキ,0
803,4010005037355,登記記録の閉鎖等,0,2025-10-16,2025-10-14,一般社団法人ＡＳＩＡ再生医療学会,,その他の設立登記法人,東京都,千代田区,丸の内１丁目８番３号丸の内トラストタワー本館２０階,,13,101,1000005,,,2025-10-14,清算の結了等,,,2023-10-12,1,,,,,アジアサイセイイリョウガッカイ,0
806,4010401159199,登記記録の閉鎖等,0,2025-10-16,2025-09-19,ＩＣペイメントジャパン株式会社,,株式会社,千葉県,佐倉市,ユーカリが丘４丁目１番Ｓ－２４０１号,,12,212,2850858,,,2025-09-19,清算の結了等,,,2021-04-05,1,,,,,アイシーペイメントジャパン,0
818,4010501046628,登記記録の閉鎖等,0,2025-10-16,2025-09-26,株式会社ＰＳＢＬＴ,,株式会社,東京都,千代田区,神田和泉町１－１２－３,,13,101,1010024,,,2025-09-26,清算の結了等,,,2020-12-16,1,,,,,ピーエスビーエルティー,0
830,4011001028380,登記記録の閉鎖等,0,2025-10-16,2025-09-12,株式会社アーキテクトファイブ,,株式会社,東京都,渋谷区,神山町５番２号,,13,113,1500047,,,2025-09-12,清算の結了等,,,2015-10-05,1,,,,,アーキテクトファイブ,0
847,4011101097648,登記記録の閉鎖等,0,2025-10-16,2025-09-10,株式会社レヴァンテ,,株式会社,東京都,新宿区,西新宿７丁目１７番１４－１０６号,,13,104,1600023,,,2025-09-10,清算の結了等,,,2022-02-01,1,,,,,レヴァンテ,0
856,4011402001382,登記記録の閉鎖等,0,2025-10-16,2025-10-09,有限会社エイト・ビジネス・マネージメント,,有限会社,東京都,板橋区,板橋１丁目１３番２号竹芳ビル２Ｆ,,13,119,1730004,,,2025-10-09,清算の結了等,,,2015-10-05,1,,,,,エイトビジネスマネージメント,0
861,4011602023978,登記記録の閉鎖等,0,2025-10-16,2025-10-02,有限会社オフィストーク,,有限会社,東京都,練馬区,春日町６丁目１０番１４号,,13,120,1790074,,,2025-10-02,清算の結了等,,,2015-10-05,1,,,,,オフィストーク,0
863,4011701014861,登記記録の閉鎖等,0,2025-10-16,2025-09-16,株式会社ＦＢプランニング,,株式会社,千葉県,船橋市,高根台２丁目２番アートヒル高根台１１号７０１,,12,204,2740065,,,2025-09-16,清算の結了等,,,2015-10-05,1,,,,,エフビープランニング,0
871,4012401025199,登記記録の閉鎖等,0,2025-10-16,2025-10-01,株式会社マレーヒル,,株式会社,東京都,国分寺市,光町１丁目１番地４０,,13,214,1850034,,,2025-10-01,清算の結了等,,,2015-10-05,1,,,,,マレーヒル,0
881,4020001067784,登記記録の閉鎖等,0,2025-10-16,2025-09-29,サンユーシステム株式会社,,株式会社,神奈川県,川崎市宮前区,有馬３丁目９番１２号,,14,136,2160003,,,2025-09-29,清算の結了等,,,2015-10-05,1,,,,,サンユーシステム,0
895,4020003025550,登記記録の閉鎖等,0,2025-10-16,2025-09-25,合同会社ＯｎｅＣｏｌａｂ　ＡＩ,,合同会社,神奈川県,横浜市西区,北幸２丁目１０番４８号,,14,103,2200004,,,2025-09-25,清算の結了等,,,2024-02-15,1,,,,,ワンコラボエーアイ,0
899,4021002029699,登記記録の閉鎖等,0,2025-10-16,2025-10-01,有限会社日進開発,,有限会社,神奈川県,相模原市緑区,若葉台１丁目１２番１０号,,14,151,2520112,,,2025-10-01,清算の結了等,,,2015-10-05,1,,,,,ニッシンカイハツ,0
916,4060003004105,登記記録の閉鎖等,0,2025-10-16,2025-10-08,合同会社富士見町訪問看護ステーション,,合同会社,栃木県,栃木市,富士見町１３番１７号サンライズアイ２０３,,09,203,3280044,,,2025-10-08,清算の結了等,,,2022-06-16,1,,,,,フジミチョウホウモンカンゴステーション,0
918,4070002001052,登記記録の閉鎖等,0,2025-10-16,2025-10-09,有限会社大津建築店,,有限会社,群馬県,前橋市,城東町１丁目１０番地の１,,10,201,3710016,,,2025-10-09,清算の結了等,,,2015-10-05,1,,,,,オオツケンチクテン,0
919,4070002019763,登記記録の閉鎖等,0,2025-10-16,2025-10-10,真下情報サービス有限会社,,有限会社,群馬県,伊勢崎市,曲輪町２４番３０号,,10,204,3720055,,,2025-10-10,合併による解散等,2070001001385,令和７年１０月１０日群馬県前橋市文京町三丁目２５番１２号株式会社北関東Ｍ＆Ａサポート（2070001001385）に合併し解散,2015-10-05,1,,,,,マシモジョウホウサービス,0
937,4120001266401,登記記録の閉鎖等,0,2025-10-16,2025-10-06,株式会社大誠,,株式会社,大阪府,大阪市都島区,都島本通４丁目２番２２号クリスタルグランツ都島本通１１０１,,27,102,5340021,,,2025-10-06,清算の結了等,,,2024-07-03,1,,,,,タイセイ,0
948,4120002067055,登記記録の閉鎖等,0,2025-10-16,2025-10-14,有限会社アークエステート,,有限会社,大阪府,大阪市淀川区,東三国３丁目９番１３－３０１号,,27,123,5320002,,,2025-10-14,清算の結了等,,,2015-10-05,1,,,,,アークエステート,0
956,4120105009409,登記記録の閉鎖等,0,2025-10-16,2025-10-02,一般社団法人サニープレイス,,その他の設立登記法人,大阪府,和泉市,箕形町１丁目２番５２号,,27,219,5940042,,,2025-10-02,清算の結了等,,,2021-06-21,1,,,,,サニープレイス,0
976,4140002041272,登記記録の閉鎖等,0,2025-10-16,2025-10-06,有限会社伸和設備,,有限会社,兵庫県,尼崎市,浜田町１丁目３４番地,,28,202,6600062,,,2025-10-06,清算の結了等,,,2015-10-05,1,,,,,シンワセツビ,0
984,4180001011396,登記記録の閉鎖等,0,2025-10-16,2025-10-02,株式会社愛協,,株式会社,愛知県,名古屋市瑞穂区,内方町１丁目６番地の２,,23,108,4670068,,,2025-10-02,清算の結了等,,,2015-10-05,1,,,,,アイキョウ,0
1004,4190001026261,登記記録の閉鎖等,0,2025-10-16,2025-10-14,株式会社つばめ食品,,株式会社,三重県,桑名市,大字友村２６１番地,,24,205,5110938,,,2025-10-14,合併による解散等,3180001069700,令和７年１０月１日愛知県豊明市沓掛町小所１８９番地寿がきや食品株式会社（3180001069700）に合併し解散,2019-03-12,1,,,,,ツバメショクヒン,0
1008,4210001019683,登記記録の閉鎖等,0,2025-10-16,2025-10-09,株式会社ＦＴＷ,,株式会社,福井県,福井市,江端町２２－９－５,,18,201,9188016,,,2025-10-09,清算の結了等,,,2024-03-21,1,,,,,エフティーダブリュー,0
1013,4240001042641,登記記録の閉鎖等,0,2025-10-16,2025-10-08,Ｄ．Ｐ．Ｒ．インフォメーション株式会社,,株式会社,広島県,広島市西区,南観音町１８番１２号,,34,104,7330034,,,2025-10-08,清算の結了等,,,2015-10-05,1,,,,,ディーピーアールインフォメーション,0
1017,4260003000125,登記記録の閉鎖等,0,2025-10-16,2025-10-06,株式会社濱田紙商店,,株式会社,岡山県,岡山市北区,中央町９番１７号,,33,101,7000836,,,2025-10-06,清算の結了等,,,2015-10-05,1,,,,,ハマダカミショウテン,0
1018,4260003002427,登記記録の閉鎖等,0,2025-10-16,2025-10-06,合同会社くしだファーム,,合同会社,岡山県,岡山市南区,西高崎９２番地,,33,104,7091204,,,2025-10-06,清算の結了等,,,2018-01-09,1,,,,,,0
1036,4350002000075,登記記録の閉鎖等,0,2025-10-16,2025-10-09,有限会社檍水産,,有限会社,宮崎県,宮崎市,稗原町５５番地,00100607,45,201,8800832,,,2025-10-09,清算の結了等,,,2015-10-05,1,,,,,アオキスイサン,0
1047,4410002013558,登記記録の閉鎖等,0,2025-10-16,2025-10-14,有限会社テクノタイユウ,,有限会社,秋田県,横手市,大雄字新町南９８番地の１,,05,203,0130304,,,2025-10-14,清算の結了等,,,2015-10-05,1,,,,,,0
1049,4430001050484,登記記録の閉鎖等,0,2025-10-16,2025-10-01,丸一北川食品株式会社,,株式会社,北海道,小樽市,信香町３番２１号,,01,203,0470016,,,2025-10-01,清算の結了等,,,2015-10-05,1,,,,,マルイチキタガワショクヒン,0
1055,4470002009872,登記記録の閉鎖等,0,2025-10-16,2025-10-09,赤帽スマイルサービス有限会社,,有限会社,香川県,高松市,国分寺町国分４３番地５,,37,201,7690102,,,2025-10-09,清算の結了等,,,2015-10-05,1,,,,,,0
1063,5010001181338,登記記録の閉鎖等,0,2025-10-16,2025-09-26,株式会社ピュアーズ,,株式会社,東京都,千代田区,平河町２丁目６番４号海運ビル,,13,101,1020093,,,2025-09-26,清算の結了等,,,2017-02-08,1,,,,,ピュアーズ,0
1073,5010003030740,登記記録の閉鎖等,0,2025-10-16,2025-09-11,合同会社リース事業ファンド,,合同会社,東京都,中央区,日本橋堀留町１丁目２番１３号,,13,102,1030012,,,2025-09-11,清算の結了等,,,2019-09-25,1,,,,,リースジギョウファンド,0
1078,5010005028510,登記記録の閉鎖等,0,2025-10-16,2025-10-14,一般社団法人ＡＦ１５,,その他の設立登記法人,東京都,中央区,京橋１丁目１１番１号,,13,102,1040031,,,2025-10-14,清算の結了等,,,2018-05-11,1,,,,,エーエフフィフティーン,0
1080,5010401094916,登記記録の閉鎖等,0,2025-10-16,2025-10-14,株式会社ヴァイセコーポレーション,,株式会社,東京都,杉並区,天沼２丁目１４番５号,,13,115,1670032,,,2025-10-14,合併による解散等,6011301026041,令和７年１０月１日東京都西東京市南町二丁目５番４号Ｒａｋｚａ楽座株式会社（6011301026041）に合併し解散,2015-10-05,1,,,,,ヴァイセコーポレーション,0
1087,5010402027577,登記記録の閉鎖等,0,2025-10-16,2025-09-12,有限会社ドリアナジャパン,,有限会社,東京都,港区,三田２丁目１０番６号,,13,103,1080073,,,2025-09-12,清算の結了等,,,2015-10-05,1,,,,,ドリアナジャパン,0
1090,5010405023796,登記記録の閉鎖等,0,2025-10-16,2025-09-11,Ｗｉｎｂｌｏｏｍ　Ｊａｐａｎ特定目的会社,,その他の設立登記法人,東京都,港区,虎ノ門３丁目２２番１０－２０１号,,13,103,1050001,,,2025-09-11,清算の結了等,,,2024-11-25,1,,,,,ウィンブルームジャパン,0
1094,5010601060370,登記記録の閉鎖等,0,2025-10-16,2025-10-01,株式会社Ｆｕｊｉ　Ｃｕｌｔｕｒｅ　Ｘ,,株式会社,東京都,江東区,青海１丁目１番２０号,,13,108,1350064,,,2025-10-01,合併による解散等,8010601042812,令和７年１０月１日東京都江東区青海一丁目１番２０号株式会社フジ・ネクステラ・ラボ（8010601042812）に合併し解散,2021-12-16,1,,,,,フジカルチャーエックス,0
1104,5010801027450,登記記録の閉鎖等,0,2025-10-16,2025-10-09,株式会社エクステリア若林,,株式会社,東京都,大田区,北嶺町２７番５号,,13,111,1450073,,,2025-10-09,清算の結了等,,,2017-02-01,1,,,,,エクステリアワカバヤシ,0
1108,5010901011420,登記記録の閉鎖等,0,2025-10-16,2025-10-15,株式会社マハール商会,,株式会社,東京都,世田谷区,等々力１丁目２番１９号,,13,112,1580082,,,2025-10-15,清算の結了等,,,2015-10-05,1,,,,,マハールショウカイ,0
1129,5011501022782,登記記録の閉鎖等,0,2025-10-16,2025-10-09,六閤錦瀾株式会社,,株式会社,東京都,荒川区,東日暮里５丁目２２番３号ＡＬＦ日暮里２０１室,,13,118,1160014,,,2025-10-09,清算の結了等,,,2017-06-26,1,,,,,ロッカクキンラン,0
1130,5011501031437,登記記録の閉鎖等,0,2025-10-16,2025-10-09,株式会社Ｄｒｅａｍｅｒｓ,,株式会社,東京都,北区,十条仲原１丁目２６番５号鳥芳ビル３０３号室,,13,117,1140031,,,2025-10-09,清算の結了等,,,2024-12-17,1,,,,,ドリーマーズ,0
1147,5020002055449,登記記録の閉鎖等,0,2025-10-16,2025-10-02,有限会社メディックス,,有限会社,神奈川県,横浜市青葉区,黒須田２５番地３０,,14,117,2250022,,,2025-10-02,清算の結了等,,,2015-10-05,1,,,,,メディックス,0
1181,5060002025175,登記記録の閉鎖等,0,2025-10-16,2025-10-09,有限会社大田原こめや,,有限会社,栃木県,大田原市,新富町２丁目１０番４号,,09,210,3240055,,,2025-10-09,清算の結了等,,,2015-10-05,1,,,,,オオタワラコメヤ,0
1184,5070001024169,登記記録の閉鎖等,0,2025-10-16,2025-10-02,株式会社でんきやさん綿貫電機,,株式会社,群馬県,吾妻郡中之条町,大字折田７３５番地１,,10,421,3770433,,,2025-10-02,清算の結了等,,,2015-10-05,1,,,,,デンキヤサンワタヌキデンキ,0
1190,5080002018656,登記記録の閉鎖等,0,2025-10-16,2025-10-09,有限会社新日興業,,有限会社,静岡県,藤枝市,清里２丁目２番地の３,,22,214,4260223,,,2025-10-09,清算の結了等,,,2015-10-05,1,,,,,シンニチコウギョウ,0
1197,5110001036151,登記記録の閉鎖等,0,2025-10-16,2025-10-01,坂井村上土地区画整理株式会社,,株式会社,新潟県,新潟市中央区,鳥屋野２丁目１３番２２号,,15,103,9500951,,,2025-10-01,清算の結了等,,,2021-11-02,1,,,,,サカイムラカミトチクカクセイリ,0
1198,5110002009552,登記記録の閉鎖等,0,2025-10-16,2025-10-03,有限会社サトウレコード,,有限会社,新潟県,新潟市秋葉区,新津本町１丁目６番２号,,15,105,9560864,,,2025-10-03,清算の結了等,,,2015-10-05,1,,,,,サトウレコード,0
1225,5140001006985,登記記録の閉鎖等,0,2025-10-16,2025-10-06,辛島真珠株式会社,,株式会社,兵庫県,神戸市中央区,北野町２丁目７番１号北野町アーバンライフ１１６,,28,110,6500002,,,2025-10-06,清算の結了等,,,2015-10-05,1,,,,,カラシマシンジュ,0
1240,5180002007995,登記記録の閉鎖等,0,2025-10-16,2025-10-02,有限会社小林,,有限会社,愛知県,名古屋市天白区,原５丁目２５０２番地ヴェルデ平針南４Ｃ,,23,116,4680015,,,2025-10-02,清算の結了等,,,2015-10-05,1,,,,,コバヤシ,0
1242,5180003024973,登記記録の閉鎖等,0,2025-10-16,2025-10-03,合同会社Ｒ＆Ｋ,,合同会社,愛知県,名古屋市東区,芳野１丁目１５番２２号,,23,102,4610027,,,2025-10-03,清算の結了等,,,2023-03-14,1,,,,,アールアンドケイ,0
1244,5180301016763,登記記録の閉鎖等,0,2025-10-16,2025-10-02,株式会社ＳＵＮ－ＲＯＡＤ,,株式会社,愛知県,高浜市,沢渡町４丁目１番地１５,,23,227,4441333,,,2025-10-02,合併による解散等,9180301015877,令和７年１０月１日愛知県高浜市沢渡町四丁目１番地１５株式会社明昇進開発（9180301015877）に合併し解散,2015-10-05,1,,,,,サンロード,0
1247,5180303003628,登記記録の閉鎖等,0,2025-10-16,2025-10-02,合同会社ゼプト,,合同会社,東京都,豊島区,南池袋１丁目１６番２０号ぬかりやビル６階,,13,116,1710022,,,2025-10-02,清算の結了等,,,2016-05-24,1,,,,,ゼプト,0
1254,5210005009795,登記記録の閉鎖等,0,2025-10-16,2025-10-07,一般社団法人勝山健康福祉協会,,その他の設立登記法人,福井県,勝山市,栄町３丁目４番５号,,18,206,9110033,,,2025-10-07,清算の結了等,,,2019-03-26,1,,,,,カツヤマケンコウフクシキョウカイ,0
1257,5220002011860,登記記録の閉鎖等,0,2025-10-16,2025-10-10,有限会社田中土建,,有限会社,石川県,小松市,立明寺町ロ６８番地甲,,17,203,9230065,,,2025-10-10,清算の結了等,,,2015-10-05,1,,,,,タナカドケン,0
1258,5220002011976,登記記録の閉鎖等,0,2025-10-16,2025-10-10,有限会社ケイワイ建築コンサルタント,,有限会社,石川県,小松市,千木野町３丁目４３番地,,17,203,9230834,,,2025-10-10,清算の結了等,,,2015-10-05,1,,,,,ケイワイケンチクコンサルタント,0
1275,5330002005414,登記記録の閉鎖等,0,2025-10-16,2025-10-06,有限会社光貴,,有限会社,熊本県,熊本市中央区,国府３丁目１０番４０号,,43,101,8620949,,,2025-10-06,清算の結了等,,,2015-10-05,1,,,,,コウキ,0
1282,5350002013860,登記記録の閉鎖等,0,2025-10-16,2025-10-06,有限会社Ｌ＆Ｃ,,有限会社,宮崎県,北諸県郡三股町,大字樺山字花見原４９１３番２,,45,341,8891901,,,2025-10-06,清算の結了等,,,2015-10-05,1,,,,,エルアンドシー,0
1285,5380001034665,登記記録の閉鎖等,0,2025-10-16,2025-09-22,株式会社トゥクシェア,,株式会社,福島県,郡山市,鳴神１丁目９７－１ベレオ鳴神３０１,,07,203,9630207,,,2025-09-22,清算の結了等,,,2024-07-17,1,,,,,トゥクシェア,0
1288,5410001001034,登記記録の閉鎖等,0,2025-10-16,2025-10-10,株式会社クリエイテブライフ,,株式会社,秋田県,秋田市,外旭川字三後田２６６番地２,,05,201,0100802,,,2025-10-10,清算の結了等,,,2015-10-05,1,,,,,クリエイテブライフ,0
1303,6010001003441,登記記録の閉鎖等,0,2025-10-16,2025-09-26,株式会社神幸,,株式会社,東京都,文京区,白山５丁目２２番１１－４０６号,,13,105,1120001,,,2025-09-26,清算の結了等,,,2015-10-05,1,,,,,シンコウ,0
1333,6010702002626,登記記録の閉鎖等,0,2025-10-16,2025-10-08,有限会社黒崎商店,,有限会社,東京都,品川区,南品川５丁目８番２８号,,13,109,1400004,,,2025-10-08,清算の結了等,,,2015-10-05,1,,,,,クロサキショウテン,0
1334,6010801004003,登記記録の閉鎖等,0,2025-10-16,2025-10-08,株式会社近藤工機,,株式会社,東京都,大田区,下丸子２丁目３０番９号,,13,111,1460092,,,2025-10-08,清算の結了等,,,2015-10-05,1,,,,,コンドウコウキ,0
1341,6010803005164,登記記録の閉鎖等,0,2025-10-16,2025-10-08,合同会社クラウド,,合同会社,東京都,大田区,大森西３丁目２８番５号コスモリード大森西２Ｆ,,13,111,1430015,,,2025-10-08,清算の結了等,,,2024-11-14,1,,,,,クラウド,0
1364,6011701019173,登記記録の閉鎖等,0,2025-10-16,2025-10-03,株式会社ユイットファンド,,株式会社,東京都,江戸川区,西葛西６丁目６番１２号,,13,123,1340088,,,2025-10-03,清算の結了等,,,2015-10-05,1,,,,,ユイットファンド,0
1382,6020001044402,登記記録の閉鎖等,0,2025-10-16,2025-10-01,株式会社ラビックス,,株式会社,神奈川県,横浜市都筑区,中川４丁目７番１５号,,14,118,2240001,,,2025-10-01,清算の結了等,,,2015-10-05,1,,,,,ラビックス,0
1400,6021002016316,登記記録の閉鎖等,0,2025-10-16,2025-10-01,有限会社アタ・コーポレーション,,有限会社,神奈川県,鎌倉市,雪ノ下４丁目１２番６号,,14,204,2480005,,,2025-10-01,清算の結了等,,,2015-10-05,1,,,,,アタコーポレーション,0
1405,6030001005502,登記記録の閉鎖等,0,2025-10-16,2025-10-06,株式会社田園一級建築士事務所,,株式会社,埼玉県,さいたま市浦和区,高砂４丁目３番１号,,11,107,3300063,,,2025-10-06,清算の結了等,,,2015-10-05,1,,,,,デンエンイッキュウケンチクシジムショ,0
1413,6040001121397,登記記録の閉鎖等,0,2025-10-16,2025-10-06,株式会社ＴＯＳ,,株式会社,群馬県,伊勢崎市,連取町３１０５番地４,,10,204,3720812,,,2025-10-06,清算の結了等,,,2021-12-17,1,,,,,ティーオーエス,0
1439,6080101006528,登記記録の閉鎖等,0,2025-10-16,2025-10-01,株式会社エース,,株式会社,静岡県,静岡市駿河区,小鹿３丁目１番５８号,,22,102,4228021,,,2025-10-01,合併による解散等,4080001003255,令和７年１０月１日静岡市駿河区小鹿三丁目１番５８号株式会社タカラ・エムシー（4080001003255）に合併し解散,2015-10-05,1,,,,,エース,0
1443,6100002007143,登記記録の閉鎖等,0,2025-10-16,2025-10-10,有限会社ツナシマ薬局,,有限会社,長野県,長野市,青木島町綱島３０５番地５,,20,201,3812206,,,2025-10-10,清算の結了等,,,2015-10-05,1,,,,,ツナシマヤッキョク,0
1444,6100003005641,登記記録の閉鎖等,0,2025-10-16,2025-10-14,合同会社ながすもでんき,,合同会社,長野県,長野市,大字中御所岡田町２６０－１信用開発ビル２階,,20,201,3800936,,,2025-10-14,清算の結了等,,,2020-04-07,1,,,,,ナガスモデンキ,0
1450,6120001007778,登記記録の閉鎖等,0,2025-10-16,2025-10-03,菅商事株式会社,,株式会社,大阪府,大阪市都島区,都島本通１丁目１１番１３号,,27,102,5340021,,,2025-10-03,清算の結了等,,,2015-10-05,1,,,,,スガショウジ,0
1453,6120001143243,登記記録の閉鎖等,0,2025-10-16,2025-09-30,株式会社ナットリアルエステート大阪,,株式会社,愛知県,名古屋市中村区,靖国町２丁目１１０番地の３,,23,105,4530065,,,2025-09-30,合併による解散等,7180001126893,令和７年９月３０日名古屋市中村区靖国町二丁目１１０番地の３株式会社ナットアセットマネジメント（7180001126893）に合併し解散,2015-10-05,1,,,,,ナットリアルエステートオオサカ,0
1469,6120002081038,登記記録の閉鎖等,0,2025-10-16,2025-10-02,有限会社ハヤシテック,,有限会社,大阪府,枚方市,星丘２丁目２１番４８号,,27,210,5730013,,,2025-10-02,清算の結了等,,,2015-10-05,1,,,,,ハヤシテック,0
1472,6120101008016,登記記録の閉鎖等,0,2025-10-16,2025-09-29,株式会社アイライフ,,株式会社,大阪府,堺市堺区,旭ヶ丘北町２丁３番１４号,,27,141,5900809,,,2025-09-29,清算の結了等,,,2015-10-05,1,,,,,アイライフ,0
1481,6130002009467,登記記録の閉鎖等,0,2025-10-16,2025-10-06,有限会社山本電機商会,,有限会社,京都府,京都市西京区,大枝中山町２番地の１０６,,26,111,6101104,,,2025-10-06,清算の結了等,,,2015-10-05,1,,,,,ヤマモトデンキショウカイ,0
1494,6150001023046,登記記録の閉鎖等,0,2025-10-16,2025-10-08,Ｃｔｒｌ株式会社,,株式会社,奈良県,桜井市,大字大泉２６－１１,,29,206,6330076,,,2025-10-08,清算の結了等,,,2019-05-28,1,,,,,コントロール,0
1496,6160002005298,登記記録の閉鎖等,0,2025-10-16,2025-10-09,有限会社大藪電気,,有限会社,滋賀県,甲賀市,水口町東名坂５２番地,,25,209,5280036,,,2025-10-09,清算の結了等,,,2015-10-05,1,,,,,オオヤブデンキ,0
1499,6160005008414,登記記録の閉鎖等,0,2025-10-16,2025-10-10,医療法人智林会,,その他の設立登記法人,滋賀県,草津市,西渋川１丁目２１番１４号,,25,206,5250025,,,2025-10-10,清算の結了等,,,2015-10-05,1,,,,,チリンカイ,0
1502,6180001082576,登記記録の閉鎖等,0,2025-10-16,2025-10-02,共和紙業株式会社,,株式会社,愛知県,一宮市,浅井町西浅井字郷西１９番地,,23,203,4910113,,,2025-10-02,清算の結了等,,,2015-10-05,1,,,,,キョウワシギョウ,0
1519,6180301037759,登記記録の閉鎖等,0,2025-10-16,2025-10-01,株式会社高宮城３,,株式会社,愛知県,西尾市,今川町石橋９０番地,,23,213,4450063,,,2025-10-01,合併による解散等,6180301029946,令和７年１０月１日愛知県西尾市中町７５番地１株式会社高宮城２（6180301029946）に合併し解散,2023-08-31,1,,,,,タカミヤギスリー,0
1523,6190005010854,登記記録の閉鎖等,0,2025-10-16,2025-10-02,一般社団法人特化エキスパート推進協議会,,その他の設立登記法人,三重県,三重郡菰野町,大字下村１００４番地１２,,24,341,5101225,,,2025-10-02,清算の結了等,,,2015-10-05,1,,,,,トッカエキスパートスイシンキョウギカイ,0
1530,6230001001464,登記記録の閉鎖等,0,2025-10-16,2025-10-06,第一物産株式会社,,株式会社,富山県,富山市,開発３４６番地,,16,201,9398137,,,2025-10-06,清算の結了等,,,2015-10-05,1,,,,,ダイイチブッサン,0
1535,6250001021064,登記記録の閉鎖等,0,2025-10-16,2025-10-09,株式会社宮本商店,,株式会社,山口県,柳井市,日積２９７７番地６,,35,212,7420111,,,2025-10-09,合併による解散等,2250001012389,令和７年１０月７日山口県柳井市柳井１１１７１番地１株式会社アデリー（2250001012389）に合併し解散,2025-03-31,1,,,,,ミヤモトショウテン,0
1536,6260001013135,登記記録の閉鎖等,0,2025-10-16,2025-10-06,株式会社倉敷日の出,,株式会社,岡山県,倉敷市,中島９２０番地８,,33,202,7100803,,,2025-10-06,清算の結了等,,,2015-10-05,1,,,,,クラシキヒノデ,0
1540,6290001062922,登記記録の閉鎖等,0,2025-10-16,2025-09-10,ＳＥＮＳＥ株式会社,,株式会社,福岡県,福岡市東区,奈多３丁目５番２４号,,40,131,8110204,,,2025-09-10,清算の結了等,,,2015-10-05,1,,,,,,0
1551,6310005004926,登記記録の閉鎖等,0,2025-10-16,2025-10-10,一般社団法人聖和会,,その他の設立登記法人,長崎県,大村市,古賀島町７５－４,,42,205,8560817,,,2025-10-10,清算の結了等,,,2015-10-05,1,,,,,セイワカイ,0
1567,6370602002310,登記記録の閉鎖等,0,2025-10-16,2025-10-01,有限会社山二,,有限会社,宮城県,宮城郡利府町,しらかし台３丁目１３番地の６,,04,406,9810134,,,2025-10-01,清算の結了等,,,2015-10-05,1,,,,,ヤマニ,0
1568,6380001020391,登記記録の閉鎖等,0,2025-10-16,2025-10-03,株式会社葵オートメーション,,株式会社,福島県,福島市,伏拝字台田２２番地２,,07,201,9608154,,,2025-10-03,清算の結了等,,,2015-10-05,1,,,,,アオイオートメーション,0
1572,6380002020762,登記記録の閉鎖等,0,2025-10-16,2025-10-01,有限会社金子電設,,有限会社,福島県,岩瀬郡天栄村,大字大里字西畑１１４番地１,,07,344,9620504,,,2025-10-01,清算の結了等,,,2015-10-05,1,,,,,カネコデンセツ,0
1573,6380002023939,登記記録の閉鎖等,0,2025-10-16,2025-10-03,有限会社常磐企画,,有限会社,福島県,いわき市,常磐西郷町忠多６０番地の７１,,07,204,9728316,,,2025-10-03,清算の結了等,,,2015-10-05,1,,,,,,0
1585,6430002062964,登記記録の閉鎖等,0,2025-10-16,2025-10-02,有限会社アロエ・カンパニー,,有限会社,北海道,沙流郡平取町,字紫雲古津２００番地２,,01,602,0550104,,,2025-10-02,清算の結了等,,,2015-10-05,1,,,,,アロエカンパニー,0
1590,6450001005402,登記記録の閉鎖等,0,2025-10-16,2025-10-07,株式会社とーけん,,株式会社,北海道,旭川市,豊岡十条２丁目３番１１号,,01,204,0788240,,,2025-10-07,清算の結了等,,,2015-10-05,1,,,,,トーケン,0
1600,7010001155604,登記記録の閉鎖等,0,2025-10-16,2025-10-14,クィーンズゲート株式会社,,株式会社,東京都,千代田区,外神田１丁目８番３号野水ビル４階,,13,101,1010021,,,2025-10-14,合併による解散等,2010001175193,令和７年９月１日東京都新宿区市谷本村町２番２１号市ヶ谷キャナルコート３階ジャパンオープンポーカーツアー株式会社（2010001175193）に合併し解散,2015-10-05,1,,,,,クイーンズゲート,0
1611,7010003031200,登記記録の閉鎖等,0,2025-10-16,2025-09-24,合同会社ＨＲ　ＣＲＯＳＳ,,合同会社,東京都,千代田区,神田須田町１丁目２３番地１,,13,101,1010041,,,2025-09-24,清算の結了等,,,2019-12-11,1,,,,,エイチアールクロス,0
1617,7010005033450,登記記録の閉鎖等,0,2025-10-16,2025-10-10,一般社団法人グリーンエネルギー推進協会,,その他の設立登記法人,東京都,中央区,銀座３丁目１０番９号ＫＥＣ銀座ビル８階マクシブ総合会計事務所内,,13,102,1040061,,,2025-10-10,清算の結了等,,,2021-06-07,1,,,,,グリーンエネルギースイシンキョウカイ,0
1619,7010401081185,登記記録の閉鎖等,0,2025-10-16,2025-09-11,Ｇｌｏｂａｌ　Ａｄｖｉｓｏｒｙ　Ｊａｐａｎ株式会社,,株式会社,東京都,港区,虎ノ門４丁目３番２０号神谷町ＭＴビル２０階,,13,103,1050001,,,2025-09-11,合併による解散等,8010401092041,令和７年９月１０日東京都港区虎ノ門四丁目３番２０号神谷町ＭＴビル１４階グローバル・ヒューマン・サポート株式会社（8010401092041）に合併し解散,2015-10-05,1,,,,,グローバルアドバイザリージャパン,0
1648,7010901021046,登記記録の閉鎖等,0,2025-10-16,2025-10-14,株式会社日本総研情報サービス,,株式会社,東京都,世田谷区,用賀４丁目５番１６号,,13,112,1580097,,,2025-10-14,合併による解散等,4010701026082,令和７年１０月１日東京都品川区東五反田二丁目１８番１号株式会社日本総合研究所（4010701026082）に合併し解散,2015-10-05,1,,,,,ニホンソウケンジョウホウサービス,0
1655,7011001113543,登記記録の閉鎖等,0,2025-10-16,2025-09-03,株式会社Ｒｕｂａｈ　４,,株式会社,東京都,渋谷区,笹塚１丁目６４番８号Ｄａｉｗａ笹塚ビル７階,,13,113,1510073,,,2025-09-03,清算の結了等,,,2016-11-08,1,,,,,ルバーフォー,0
1664,7011105008978,登記記録の閉鎖等,0,2025-10-16,2025-10-09,一般社団法人東逗子ホールディングス,,その他の設立登記法人,東京都,千代田区,大手町２丁目２番２号アーバンネット大手町ビル,,13,101,1000004,,,2025-10-09,清算の結了等,,,2019-08-08,1,,,,,ヒガシズシホールディングス,0
1675,7012402003861,登記記録の閉鎖等,0,2025-10-16,2025-10-01,有限会社千代,,有限会社,東京都,国分寺市,本多２丁目１４番８号,,13,214,1850011,,,2025-10-01,清算の結了等,,,2015-10-05,1,,,,,チヨ,0
1681,7012802002406,登記記録の閉鎖等,0,2025-10-16,2025-09-30,有限会社山田文華堂,,有限会社,東京都,立川市,高松町３丁目１８番１号,,13,202,1900011,,,2025-09-30,清算の結了等,,,2015-10-05,1,,,,,ヤマダブンカドウ,0
1682,7013301025880,登記記録の閉鎖等,0,2025-10-16,2025-10-06,株式会社ひじりプラネット,,株式会社,東京都,豊島区,池袋２丁目５０番１号,,13,116,1710014,,,2025-10-06,清算の結了等,,,2015-10-05,1,,,,,ヒジリプラネット,0
1687,7020001010295,登記記録の閉鎖等,0,2025-10-16,2025-10-01,とく種ファミリー株式会社,,株式会社,神奈川県,横浜市保土ケ谷区,新桜ケ丘１丁目３３－２０,,14,106,2400036,,,2025-10-01,清算の結了等,,,2015-10-05,1,,,,,トクダネファミリー,0
1690,7020001147344,登記記録の閉鎖等,0,2025-10-16,2025-10-01,ＡＳＴ　ＷＯＮＤＥＲＬＡＮＤ株式会社,,株式会社,神奈川県,横浜市港北区,新横浜３丁目２４番地５号,,14,109,2220033,,,2025-10-01,清算の結了等,,,2022-07-12,1,,,,,アストワンダーランド,0
1702,7030001013735,登記記録の閉鎖等,0,2025-10-16,2025-10-09,ビジオ株式会社,,株式会社,北海道,函館市,神山３丁目４５番１３号,,01,202,0410832,,,2025-10-09,清算の結了等,,,2015-10-05,1,,,,,ビジオ,0
1715,7050002010655,登記記録の閉鎖等,0,2025-10-16,2025-10-03,有限会社オネステージ,,有限会社,茨城県,笠間市,下郷４０３８番地の９,,08,216,3190202,,,2025-10-03,清算の結了等,,,2015-10-05,1,,,,,オネステージ,0
1722,7060002036435,登記記録の閉鎖等,0,2025-10-16,2025-10-06,有限会社象雲堂,,有限会社,栃木県,足利市,伊勢町３丁目９番地４,,09,202,3260053,,,2025-10-06,清算の結了等,,,2015-10-05,1,,,,,ショウウンドウ,0
1723,7060003004044,登記記録の閉鎖等,0,2025-10-16,2025-10-09,Ｐ＆Ｅ　Ｂｌｉｓｓｆｕｌ合同会社,,合同会社,栃木県,宇都宮市,鶴田町７５６番地６号,,09,201,3200851,,,2025-10-09,清算の結了等,,,2022-04-19,1,,,,,ピーアンドイーブリスフル,0
1729,7080101008507,登記記録の閉鎖等,0,2025-10-16,2025-10-09,株式会社コスミック,,株式会社,静岡県,富士市,島田町１丁目５０番地ＷＯＲＸ富士,,22,210,4170033,,,2025-10-09,合併による解散等,1070001004827,令和７年１０月１日群馬県前橋市駒形町１４８１番地１株式会社エクスブレーン（1070001004827）に合併し解散,2015-10-05,1,,,,,コスミック,0
1733,7090002004959,登記記録の閉鎖等,0,2025-10-16,2025-10-09,有限会社羽田タイル,,有限会社,山梨県,甲府市,向町３８５番地の２,,19,201,4000813,,,2025-10-09,清算の結了等,,,2015-10-05,1,,,,,ハダタイル,0
1734,7090002006815,登記記録の閉鎖等,0,2025-10-16,2025-10-09,有限会社ケアサービス青空,,有限会社,山梨県,甲府市,武田２丁目１２番１４号,,19,201,4000016,,,2025-10-09,清算の結了等,,,2015-10-05,1,,,,,ケアサービスアオゾラ,0
1736,7100001028164,登記記録の閉鎖等,0,2025-10-16,2025-10-14,ながの農花株式会社,,株式会社,長野県,長野市,大字柳原１４６７番地２,,20,201,3810012,,,2025-10-14,清算の結了等,,,2015-10-05,1,,,,,ナガノノウカ,0
1764,7120901030804,登記記録の閉鎖等,0,2025-10-16,2025-10-10,デイリートランス株式会社,,株式会社,大阪府,高槻市,三箇牧１丁目３５番４号,,27,207,5690843,,,2025-10-10,合併による解散等,7040001023072,令和７年１０月１日東京都中央区日本橋一丁目１番１号ロジストラスト・パートナーズ株式会社（7040001023072）に合併し解散,2015-10-05,1,,,,,デイリートランス,0
1771,7130001060841,登記記録の閉鎖等,0,2025-10-16,2025-10-10,黒鯛釣具ネット株式会社,,株式会社,京都府,舞鶴市,田園町１丁目１番地,,26,202,6250027,,,2025-10-10,清算の結了等,,,2017-10-30,1,,,,,クロダイツリグネット,0
1776,7140001083809,登記記録の閉鎖等,0,2025-10-16,2025-10-06,株式会社キヨウリツ,,株式会社,兵庫県,宝塚市,仁川高台１丁目２番２５－２０３号,,28,214,6650062,,,2025-10-06,清算の結了等,,,2015-10-05,1,,,,,キヨウリツ,0
1787,7180001054888,登記記録の閉鎖等,0,2025-10-16,2025-10-02,ドクターエアータオル東海株式会社,,株式会社,愛知県,名古屋市西区,城北町３丁目６９番地１,,23,104,4510023,,,2025-10-02,清算の結了等,,,2015-10-05,1,,,,,ドクターエアータオルトウカイ,0
1795,7180001124039,登記記録の閉鎖等,0,2025-10-16,2025-09-30,株式会社東海厨美,,株式会社,愛知県,名古屋市中川区,本前田町４４番地,,23,110,4540914,,,2025-09-30,合併による解散等,2180001048399,令和７年９月３０日名古屋市中川区本前田町４４番地株式会社東海装美（2180001048399）に合併し解散,2016-07-11,1,,,,,トウカイチュウビ,0
1797,7180001144961,登記記録の閉鎖等,0,2025-10-16,2025-10-14,ダイダンサービス中部株式会社,,株式会社,愛知県,名古屋市中区,大須４丁目１０番３２号上前津ＫＤビル８階,,23,106,4600011,,,2025-10-14,合併による解散等,6120001045084,令和７年１０月１日大阪市西区江戸堀一丁目９番２５号ダイダン株式会社（6120001045084）に合併し解散,2021-03-01,1,,,,,ダイダンサービスチュウブ,0
1808,7200001020557,登記記録の閉鎖等,0,2025-10-16,2025-10-08,金政株式会社,,株式会社,岐阜県,多治見市,錦町１丁目２６番地,,21,204,5070835,,,2025-10-08,清算の結了等,,,2015-10-05,1,,,,,カネマサ,0
1812,7200001034037,登記記録の閉鎖等,0,2025-10-16,2025-10-14,株式会社さかえロック,,株式会社,岐阜県,岐阜市,加納新本町４丁目１３番地１,,21,201,5008463,,,2025-10-14,清算の結了等,,,2017-05-16,1,,,,,,0
1819,7230002012245,登記記録の閉鎖等,0,2025-10-16,2025-10-08,山本自工有限会社,,有限会社,富山県,高岡市,清水町３丁目４番５２号,,16,202,9330866,,,2025-10-08,清算の結了等,,,2015-10-05,1,,,,,ヤマモトジコウ,0
1821,7240001050443,登記記録の閉鎖等,0,2025-10-16,2025-10-06,株式会社松浦商店,,株式会社,広島県,福山市,大門町３丁目２６番３２号,,34,207,7210926,,,2025-10-06,清算の結了等,,,2017-01-12,1,,,,,マツウラショウテン,0
1843,7340003002102,登記記録の閉鎖等,0,2025-10-16,2025-10-06,合同会社斎場そお,,合同会社,鹿児島県,曽於市,末吉町新町２丁目１９番１０号,,46,217,8998603,,,2025-10-06,清算の結了等,,,2016-05-24,1,,,,,,0
1855,7400002013366,登記記録の閉鎖等,0,2025-10-16,2025-10-01,有限会社セレナ,,有限会社,岩手県,九戸郡洋野町,種市第４１地割７８番地５,,03,507,0287911,,,2025-10-01,清算の結了等,,,2015-10-05,1,,,,,セレナ,0
1857,7420002007993,登記記録の閉鎖等,0,2025-10-16,2025-10-01,有限会社トラストアート,,有限会社,青森県,八戸市,城下２丁目１１番２５号,,02,203,0310072,,,2025-10-01,清算の結了等,,,2015-10-05,1,,,,,トラストアート,0
1865,7470001014516,登記記録の閉鎖等,0,2025-10-16,2025-10-09,三好設備工業株式会社,,株式会社,香川県,高松市,香西本町５９０番地,,37,201,7618012,,,2025-10-09,清算の結了等,,,2015-10-05,1,,,,,ミヨシセツビコウギョウ,0
1876,8010003031158,登記記録の閉鎖等,0,2025-10-16,2025-10-01,合同会社ＨＡＫＫＡ,,合同会社,東京都,中央区,銀座１丁目２２番１１号銀座大竹ビジデンス２階,,13,102,1040061,,,2025-10-01,清算の結了等,,,2019-12-03,1,,,,,ハッカ,0
1906,8010602017508,登記記録の閉鎖等,0,2025-10-16,2025-10-01,有限会社クロゼット,,有限会社,東京都,墨田区,菊川３丁目２番６号,,13,107,1300024,,,2025-10-01,清算の結了等,,,2015-10-05,1,,,,,クロゼット,0
1922,8011101097652,登記記録の閉鎖等,0,2025-10-16,2025-09-10,株式会社アールエス,,株式会社,東京都,新宿区,西新宿７丁目１７番１４－１０６号,,13,104,1600023,,,2025-09-10,清算の結了等,,,2022-02-01,1,,,,,アールエス,0
1923,8011101099418,登記記録の閉鎖等,0,2025-10-16,2025-10-09,株式会社ＦＯＣＩ,,株式会社,東京都,新宿区,西新宿７丁目３番１０号,,13,104,1600023,,,2025-10-09,合併による解散等,9120001184243,令和７年９月３０日大阪市北区豊崎三丁目１９番３号株式会社ＥＱＵＡＴＩＯＮ（9120001184243）に合併し解散,2022-07-06,1,,,,,フォーサイ,0
1924,8011101108475,登記記録の閉鎖等,0,2025-10-16,2025-09-19,株式会社ＲＯＡＤ,,株式会社,東京都,新宿区,若葉１丁目１２番地４カーサ四谷２０６号,,13,104,1600011,,,2025-09-19,清算の結了等,,,2024-08-19,1,,,,,ロード,0
1941,8012401040021,登記記録の閉鎖等,0,2025-10-16,2025-10-01,アセンドゾーンロジ株式会社,,株式会社,東京都,調布市,佐須町３丁目３５番地３,,13,208,1820016,,,2025-10-01,合併による解散等,1012403003544,令和７年１０月１日東京都調布市深大寺東町七丁目２８番地３７アセンドゾーン株式会社（1012403003544）に合併し解散,2023-01-05,1,,,,,アセンドゾーンロジ,0
1943,8012701001648,登記記録の閉鎖等,0,2025-10-16,2025-10-01,東和管材株式会社,,株式会社,東京都,東村山市,青葉町１丁目３番地３０,,13,213,1890002,,,2025-10-01,合併による解散等,5011401007314,令和７年９月２１日東京都板橋区高島平一丁目４５番１号株式会社不二商会（5011401007314）に合併し解散,2015-10-05,1,,,,,トウワカンザイ,0
1946,8013301034807,登記記録の閉鎖等,0,2025-10-16,2025-10-02,株式会社グライド,,株式会社,北海道,札幌市中央区,南一条西１丁目１６番地４シルキービル,,01,101,0600061,,,2025-10-02,清算の結了等,,,2015-10-05,1,,,,,グライド,0
1968,8021002006091,登記記録の閉鎖等,0,2025-10-16,2025-09-30,有限会社古沢設計スタジオ,,有限会社,神奈川県,藤沢市,白旗３丁目１２番１３号,,14,205,2510051,,,2025-09-30,清算の結了等,,,2015-10-05,1,,,,,,0
1975,8030002032691,登記記録の閉鎖等,0,2025-10-16,2025-10-06,有限会社ワタナベエンタープライズ,,有限会社,埼玉県,所沢市,大字山口１５４１番地の１０,,11,208,3591145,,,2025-10-06,清算の結了等,,,2015-10-05,1,,,,,ワタナベエンタープライズ,0
1986,8040002061574,登記記録の閉鎖等,0,2025-10-16,2025-09-17,有限会社丸山クリーン,,有限会社,千葉県,佐倉市,先崎９０９番地,,12,212,2850851,,,2025-09-17,清算の結了等,,,2015-10-05,1,,,,,マルヤマクリーン,0
1991,8040005019495,登記記録の閉鎖等,0,2025-10-16,2025-09-16,ＮＰＯ法人ＢｅｅＧａｒｄｅｎ,,その他の設立登記法人,千葉県,大網白里市,細草１８１３番,,12,239,2993211,,,2025-09-16,清算の結了等,,,2017-04-19,1,,,,,ビーガーデン,0
2004,8100001032891,登記記録の閉鎖等,0,2025-10-16,2025-10-14,株式会社コネクテッド・イノベーションセンター,,株式会社,長野県,安曇野市,穂高８４１６番地５,,20,220,3998303,,,2025-10-14,清算の結了等,,,2020-01-29,1,,,,,コネクテッドイノベーションセンター,0
2005,8100001032999,登記記録の閉鎖等,0,2025-10-16,2025-10-10,株式会社ＫＩＳＯ　ＷＡＶＥ,,株式会社,長野県,木曽郡木曽町,福島１６５２番地,,20,432,3970001,,,2025-10-10,清算の結了等,,,2020-03-13,1,,,,,キソウェーブ,0
2048,8130005014215,登記記録の閉鎖等,0,2025-10-16,2025-10-09,一般社団法人日本厚生労働推進機構,,その他の設立登記法人,京都府,京都市下京区,五条通寺町西入る御影堂町１６－２１京都建物ビル５Ｆ,,26,106,6000000,,,2025-10-09,清算の結了等,,,2015-10-05,1,,,,,ニホンコウセイロウドウスイシンキコウ,0
2064,8170001017011,登記記録の閉鎖等,0,2025-10-16,2025-10-01,株式会社ＩＲＯＤＯＲＵ,,株式会社,東京都,中央区,八丁堀２丁目３番９号４階,,13,102,1040032,,,2025-10-01,合併による解散等,3010601054011,令和７年１０月１日東京都中央区八丁堀二丁目３番９号４階株式会社Ｈｕｂ　Ｗｏｒｋｓ（3010601054011）に合併し解散,2022-03-14,1,,,,,イロドル,0
2069,8180001149976,登記記録の閉鎖等,0,2025-10-16,2025-09-12,株式会社Ｒｅｏｎ,,株式会社,愛知県,名古屋市東区,葵３丁目２０番１８号,,23,102,4610004,,,2025-09-12,清算の結了等,,,2022-02-16,1,,,,,レオン,0
2074,8180302021578,登記記録の閉鎖等,0,2025-10-16,2025-10-02,有限会社エムエス,,有限会社,愛知県,豊田市,土橋町８丁目９１番地,,23,211,4710842,,,2025-10-02,清算の結了等,,,2015-10-05,1,,,,,エムエス,0
2078,8190002023997,登記記録の閉鎖等,0,2025-10-16,2025-10-06,有限会社前川工業,,有限会社,三重県,三重郡菰野町,大字宿野７８番地,,24,341,5101232,,,2025-10-06,清算の結了等,,,2015-10-05,1,,,,,マエカワコウギョウ,0
2090,8230001019273,登記記録の閉鎖等,0,2025-10-16,2025-10-07,株式会社リベラ・ホテルズ＆リゾーツ,,株式会社,岩手県,奥州市,衣川日向６０番地２,,03,215,0294421,,,2025-10-07,合併による解散等,4230001009583,令和７年９月１日東京都新宿区西新宿六丁目２５番８号株式会社リベラ・リアル・エステート・マネジメント（4230001009583）に合併し解散,2022-03-14,1,,,,,,0
2109,8330002017200,登記記録の閉鎖等,0,2025-10-16,2025-10-09,有限会社ドラッグカンパニーフクダ,,有限会社,熊本県,合志市,御代志１６９０番地６,,43,216,8611104,,,2025-10-09,清算の結了等,,,2015-10-05,1,,,,,ドラッグカンパニーフクダ,0
2112,8350001010798,登記記録の閉鎖等,0,2025-10-16,2025-10-08,株式会社五領ブロイラー,,株式会社,宮崎県,えびの市,大字東長江浦１６７６番地４１３,,45,209,8894231,,,2025-10-08,清算の結了等,,,2015-10-05,1,,,,,ゴリョウブロイラー,0
2117,8380002012840,登記記録の閉鎖等,0,2025-10-16,2025-10-01,有限会社山善橋本建設,,有限会社,福島県,郡山市,中田町下枝字長久保３５１番地,,07,203,9630833,,,2025-10-01,清算の結了等,,,2015-10-05,1,,,,,ヤマゼンハシモトケンセツ,0
2127,8430002055438,登記記録の閉鎖等,0,2025-10-16,2025-10-02,有限会社水越工務所,,有限会社,北海道,小樽市,花園３丁目１４番５号,,01,203,0470024,,,2025-10-02,清算の結了等,,,2015-10-05,1,,,,,ミズコシコウムショ,0
2129,8430003011200,登記記録の閉鎖等,0,2025-10-16,2025-10-01,合同会社どん,,合同会社,北海道,札幌市豊平区,平岸三条４丁目７－３,,01,105,0620933,,,2025-10-01,清算の結了等,,,2020-01-28,1,,,,,ドン,0
2131,8440002005796,登記記録の閉鎖等,0,2025-10-16,2025-10-10,有限会社三井水産,,有限会社,北海道,松前郡松前町,字赤神５４４番地の２,,01,331,0491643,,,2025-10-10,清算の結了等,,,2015-10-05,1,,,,,ミツイスイサン,0
2132,8450001006225,登記記録の閉鎖等,0,2025-10-16,2025-10-09,株式会社ソウホク,,株式会社,北海道,旭川市,東旭川北一条１丁目１０番１２号,,01,204,0788251,,,2025-10-09,清算の結了等,,,2015-10-05,1,,,,,ソウホク,0
2152,9010003036692,登記記録の閉鎖等,0,2025-10-16,2025-10-02,合同会社ＫＨＦ８,,合同会社,東京都,千代田区,内幸町２丁目１番６号,,13,101,1000011,,,2025-10-02,清算の結了等,,,2022-01-12,1,,,,,ケイエイチエフエイト,0
2155,9010005035635,登記記録の閉鎖等,0,2025-10-16,2025-10-14,一般社団法人タチバナストリート,,その他の設立登記法人,東京都,千代田区,神田神保町１丁目１１番地さくら綜合事務所内,,13,101,1010051,,,2025-10-14,清算の結了等,,,2022-10-06,1,,,,,タチバナストリート,0
2157,9010403020247,登記記録の閉鎖等,0,2025-10-16,2025-09-11,合同会社Ｂａｍｂｏｏ,,合同会社,東京都,港区,虎ノ門３丁目２２番１０－２０１号,,13,103,1050001,,,2025-09-11,清算の結了等,,,2019-02-27,1,,,,,バンブー,0
2170,9010705003528,登記記録の閉鎖等,0,2025-10-16,2025-10-08,一般社団法人王子加工所,,その他の設立登記法人,東京都,品川区,上大崎３丁目１番１号目黒セントラルスクエア１５階,,13,109,1410021,,,2025-10-08,清算の結了等,,,2023-08-22,1,,,,,オウジカコウショ,0
2171,9010801001096,登記記録の閉鎖等,0,2025-10-16,2025-10-08,株式会社イナバ,,株式会社,東京都,大田区,池上１丁目７番４号,,13,111,1460082,,,2025-10-08,清算の結了等,,,2025-07-16,1,,,,,イナバ,0
2179,9010905003996,登記記録の閉鎖等,0,2025-10-16,2025-10-08,クリーンジャパン事業協同組合,,その他の設立登記法人,東京都,世田谷区,上馬４丁目２番５号,,13,112,1540011,,,2025-10-08,清算の結了等,,,2020-08-24,1,,,,,クリーンジャパン,0
2187,9011101084501,登記記録の閉鎖等,0,2025-10-16,2025-10-14,株式会社アバコスタジオ,,株式会社,東京都,新宿区,西早稲田２丁目３番１８号,,13,104,1690051,,,2025-10-14,清算の結了等,,,2018-06-18,1,,,,,アバコスタジオ,0
2193,9011301017418,登記記録の閉鎖等,0,2025-10-16,2025-10-01,株式会社ジャストマネジメント,,株式会社,東京都,武蔵野市,御殿山１丁目５番６号,,13,203,1800005,,,2025-10-01,合併による解散等,2012401020284,令和７年１０月１日東京都武蔵野市御殿山一丁目５番６号株式会社ブルズアイ（2012401020284）に合併し解散,2015-10-05,1,,,,,ジャストマネジメント,0
2201,9011802007223,登記記録の閉鎖等,0,2025-10-16,2025-10-10,有限会社松原商会,,有限会社,東京都,葛飾区,東四つ木１丁目６番２４号,,13,122,1240014,,,2025-10-10,清算の結了等,,,2015-10-05,1,,,,,マツバラショウカイ,0
2204,9011803004707,登記記録の閉鎖等,0,2025-10-16,2025-10-07,合同会社ＣＡＳＥＩＤＯ,,合同会社,東京都,足立区,中川４丁目２３番１９－６０２号,,13,121,1200002,,,2025-10-07,清算の結了等,,,2021-07-20,1,,,,,カセイド,0
2229,9030001112576,登記記録の閉鎖等,0,2025-10-16,2025-10-06,株式会社バンナイ,,株式会社,埼玉県,さいたま市西区,大字島根４１２,,11,101,3310054,,,2025-10-06,清算の結了等,,,2016-02-02,1,,,,,バンナイ,0
2245,9040003012344,登記記録の閉鎖等,0,2025-10-16,2025-10-03,合同会社増取,,合同会社,東京都,千代田区,東神田１丁目１７番４号ヤマックス東神田ビル２０１号,,13,101,1010031,,,2025-10-03,清算の結了等,,,2018-10-19,1,,,,,マストリ,0
2253,9060002032382,登記記録の閉鎖等,0,2025-10-16,2025-10-10,有限会社栃木ゴルフ販売,,有限会社,栃木県,栃木市,昭和町１－２３,,09,203,3280013,,,2025-10-10,清算の結了等,,,2015-10-05,1,,,,,トチギゴルフハンバイ,0
2269,9120001177370,登記記録の閉鎖等,0,2025-10-16,2025-10-01,株式会社ＡＮＪＩコーポレーション,,株式会社,大阪府,大阪市東淀川区,小松４丁目２番１５号,,27,114,5330004,,,2025-10-01,合併による解散等,9120001051088,令和７年１０月１日大阪市東淀川区小松四丁目２番１５号安積商事株式会社（9120001051088）に合併し解散,2015-10-05,1,,,,,アンジコーポレーション,0
2290,9122001000636,登記記録の閉鎖等,0,2025-10-16,2025-09-30,株式会社稲葉製作所,,株式会社,大阪府,東大阪市,新家西町１７番６号,,27,227,5770028,,,2025-09-30,清算の結了等,,,2015-10-05,1,,,,,イナバセイサクショ,0
2299,9140001043323,登記記録の閉鎖等,0,2025-10-16,2025-10-01,株式会社トータルリース,,株式会社,兵庫県,加古川市,平荘町小畑６０８－６,,28,210,6751235,,,2025-10-01,合併による解散等,8140001061012,令和７年１０月１日兵庫県姫路市南条一丁目１３３番地姫路ハウスサービス株式会社（8140001061012）に合併し解散,2015-10-05,1,,,,,トータルリース,0
2323,9180002062095,登記記録の閉鎖等,0,2025-10-16,2025-10-01,有限会社近江園,,有限会社,愛知県,日進市,赤池３丁目６０５番地,,23,230,4700125,,,2025-10-01,清算の結了等,,,2015-10-05,1,,,,,オウミエン,0
2325,9180003028087,登記記録の閉鎖等,0,2025-10-16,2025-10-06,合同会社サンマルコ,,合同会社,愛知県,小牧市,大字村中１２７５番地１,,23,219,4850082,,,2025-10-06,清算の結了等,,,2025-03-07,1,,,,,サンマルコ,0
2329,9180301019093,登記記録の閉鎖等,0,2025-10-16,2025-10-03,株式会社ひまわり建設,,株式会社,愛知県,豊田市,高岡町西川前６１番地２,,23,211,4730933,,,2025-10-03,清算の結了等,,,2015-10-05,1,,,,,ヒマワリケンセツ,0
2331,9180305008415,登記記録の閉鎖等,0,2025-10-16,2025-09-30,特定非営利活動法人サンたいよう,,その他の設立登記法人,愛知県,新城市,緑が丘４丁目１番地１１,,23,221,4411316,,,2025-09-30,清算の結了等,,,2015-10-05,1,,,,,サンタイヨウ,0
2338,9220001013598,登記記録の閉鎖等,0,2025-10-16,2025-10-10,株式会社モトヤ,,株式会社,石川県,加賀市,山中温泉中田町ホ１４５番地１,,17,206,9220101,,,2025-10-10,清算の結了等,,,2015-10-05,1,,,,,モトヤ,0
2343,9240001049673,登記記録の閉鎖等,0,2025-10-16,2025-10-09,株式会社今度工務店,,株式会社,広島県,広島市中区,南竹屋町５番１９号,,34,101,7300049,,,2025-10-09,清算の結了等,,,2016-07-21,1,,,,,イマドコウムテン,0
2345,9240003004560,登記記録の閉鎖等,0,2025-10-16,2025-10-09,合同会社ミームアセット,,合同会社,広島県,安芸郡坂町,横浜中央３丁目１０番２９号,,34,309,7314323,,,2025-10-09,清算の結了等,,,2020-02-10,1,,,,,ミームアセット,0
2348,9290001027690,登記記録の閉鎖等,0,2025-10-16,2025-10-08,エス・エス・シー九州株式会社,,株式会社,福岡県,糟屋郡久山町,大字山田２３０５番１,,40,348,8112502,,,2025-10-08,合併による解散等,8120001034713,令和７年１０月１日大阪市福島区野田三丁目７番３０号関包スチール株式会社（8120001034713）に合併し解散,2015-10-05,1,,,,,エスエスシーキュウシュウ,0
2361,9310005003058,登記記録の閉鎖等,0,2025-10-16,2025-10-14,医療法人井上産科婦人科医院,,その他の設立登記法人,長崎県,佐世保市,新田町７０７番地５,,42,202,8580913,,,2025-10-14,清算の結了等,,,2015-10-05,1,,,,,イノウエサンカフジンカイイン,0
2367,9340002006812,登記記録の閉鎖等,0,2025-10-16,2025-10-06,有限会社南光テクノサービス,,有限会社,鹿児島県,鹿児島市,荒田１丁目４０番７－７０８号,,46,201,8900054,,,2025-10-06,清算の結了等,,,2015-10-05,1,,,,,ナンコウテクノサービス,0
2368,9340002025969,登記記録の閉鎖等,0,2025-10-16,2025-10-07,有限会社寺石設計,,有限会社,鹿児島県,肝属郡肝付町,新富４５０番地３,,46,492,8931207,,,2025-10-07,清算の結了等,,,2015-10-05,1,,,,,テライシセッケイ,0
2372,9360001020143,登記記録の閉鎖等,0,2025-10-16,2025-10-09,株式会社Ｏｒｉｇｉｎｓ,,株式会社,沖縄県,国頭郡本部町,字山里７９１番地５,,47,308,9050219,,,2025-10-09,清算の結了等,,,2015-11-27,1,,,,,オリジンズ,0
2375,9370001045767,登記記録の閉鎖等,0,2025-10-16,2025-10-09,ロジスネクスト東北株式会社,,株式会社,宮城県,仙台市宮城野区,中野２丁目２番地の１７,,04,102,9830013,,,2025-10-09,合併による解散等,8120001229206,令和７年１０月１日大阪府守口市大日東町３５番２号ロジスネクストジャパン株式会社（8120001229206）に合併し解散,2020-05-20,1,,,,,ロジスネクストトウホク,0
2377,9370402002202,登記記録の閉鎖等,0,2025-10-16,2025-09-08,みずほコーポレーション有限会社,,有限会社,宮城県,登米市,迫町佐沼字新駒木袋１６１番地,,04,212,9870511,,,2025-09-08,清算の結了等,,,2015-10-05,1,,,,,ミズホコーポレーション,0
2379,9390002006931,登記記録の閉鎖等,0,2025-10-16,2025-10-10,有限会社庄内手づくり農場,,有限会社,山形県,酒田市,浜中字八間山１４０番地の１,,06,204,9980112,,,2025-10-10,清算の結了等,,,2015-10-05,1,,,,,ショウナイテヅクリノウジョウ,0
2390,9430002006316,登記記録の閉鎖等,0,2025-10-16,2025-10-01,清見商事有限会社,,有限会社,北海道,札幌市清田区,清田三条３丁目１番２１号,,01,110,0040843,,,2025-10-01,清算の結了等,,,2015-10-05,1,,,,,キョミショウジ,0
2403,9500001019922,登記記録の閉鎖等,0,2025-10-16,2025-10-01,株式会社ディック,,株式会社,愛媛県,松山市,美沢１丁目９番１号,,38,201,7918022,,,2025-10-01,合併による解散等,1500002009574,令和７年１０月１日愛媛県松山市喜与町一丁目２番地２株式会社ＹＯＵプラニング（1500002009574）に合併し解散,2016-06-21,1,,,,,ディック,0
