sequenceNumber,corporateNumber,process,correct,updateDate,changeDate,name,nameImageId,kind,prefectureName,cityName,streetNumber,addressImageId,prefectureCode,cityCode,postCode,addressOutside,addressOutsideImageId,closeDate,closeCause,successorCorporateNumber,changeCause,assignmentDate,latest,enName,enPrefectureName,enCityName,enAddressOutside,furigana,hihyoji
9,1010001250633,新規,0,2024-12-13,2024-12-13,株式会社フェリンクス,,株式会社,東京都,中央区,銀座１丁目２２番１１号銀座大竹ビジデンス２Ｆ,,13,102,1040061,,,,,,,2024-12-13,1,,,,,フェリンクス,0
10,1010001250658,新規,0,2024-12-13,2024-12-13,株式会社巴商事,,株式会社,東京都,千代田区,神田佐久間町１丁目１６番地８０１号,,13,101,1010025,,,,,,,2024-12-13,1,,,,,トモエショウジ,0
11,1010001250724,新規,0,2024-12-13,2024-12-13,ＣＹＢＥＲ　ＮＥＴＷＯＲＫＳ株式会社,,株式会社,東京都,中央区,銀座７丁目１３番６号サガミビル２階,,13,102,1040061,,,,,,,2024-12-13,1,,,,,サイバーネットワークス,0
18,1010003045775,新規,0,2024-12-13,2024-12-13,Ａｄｅｄｅ合同会社,,合同会社,東京都,中央区,晴海２丁目２－４２－１９２０,,13,102,1040053,,,,,,,2024-12-13,1,,,,,アデデ,0
19,1010003045791,新規,0,2024-12-13,2024-12-13,合同会社オホーツク北見焼肉のっけ,,合同会社,東京都,中央区,晴海３丁目１６番１号,,13,102,1040053,,,,,,,2024-12-13,1,,,,,オホーツクキタミヤキニクノッケ,0
37,1010401186997,新規,0,2024-12-13,2024-12-13,株式会社ＧＴＧＰ２,,株式会社,東京都,港区,南青山４丁目２２番１号王子ホームズ青山２０７,,13,103,1070062,,,,,,,2024-12-13,1,,,,,ジーティージーピーツー,0
38,1010401187038,新規,0,2024-12-13,2024-12-13,株式会社Ｓａｎｃｔｕａｒｙ,,株式会社,東京都,港区,白金６丁目２－６－２Ｆ,,13,103,1080072,,,,,,,2024-12-13,1,,,,,サンクチュアリ,0
40,1010403034007,新規,0,2024-12-13,2024-12-13,ＣＯＤＥＪＵＩＣＥ合同会社,,合同会社,東京都,港区,北青山１丁目３番１号アールキューブ青山３階,,13,103,1070061,,,,,,,2024-12-13,1,,,,,コードジュース,0
48,1010501053271,新規,0,2024-12-13,2024-12-13,新化原容和株式会社,,株式会社,東京都,台東区,台東２丁目２７番３号ＮＳＫビル１０Ｆ,,13,106,1100016,,,,,,,2024-12-13,1,,,,,シンカゲンヨウワ,0
49,1010501053305,新規,0,2024-12-13,2024-12-13,株式会社ＰＯＴ,,株式会社,東京都,台東区,上野３丁目３－４ＪＴＴビル２階,,13,106,1100005,,,,,,,2024-12-13,1,,,,,ポット,0
50,1010601066462,新規,0,2024-12-13,2024-12-13,株式会社Ｓｅｅｄ３Ｄ,,株式会社,東京都,江東区,青海２丁目５番１０号テレコムセンタービル東棟１４階,,13,108,1350064,,,,,,,2024-12-13,1,,,,,,0
61,1010901056485,新規,0,2024-12-13,2024-12-13,株式会社ＵＣＲ,,株式会社,東京都,世田谷区,三軒茶屋１丁目３６番３－３０５号,,13,112,1540024,,,,,,,2024-12-13,1,,,,,ユーシーアール,0
62,1010901056493,新規,0,2024-12-13,2024-12-13,株式会社ＭＩＫＡＴＡ,,株式会社,東京都,世田谷区,宮坂３丁目１２番１５号ライズビーアパートキョウドウ２Ｆ,,13,112,1560051,,,,,,,2024-12-13,1,,,,,ミカタ,0
63,1010903009565,新規,0,2024-12-13,2024-12-13,合同会社ユウウェブ,,合同会社,東京都,世田谷区,鎌田３丁目２６番１１号,,13,112,1570077,,,,,,,2024-12-13,1,,,,,ユウウェブ,0
67,1011003020578,新規,0,2024-12-13,2024-12-13,合同会社Ｈｕｎｄｒｅｄｓ,,合同会社,東京都,渋谷区,道玄坂１丁目１０番８号渋谷道玄坂東急ビル２Ｆ‐Ｃ,,13,113,1500043,,,,,,,2024-12-13,1,,,,,ハンドレッツ,0
74,1011201025981,新規,0,2024-12-13,2024-12-13,株式会社ＡＬ　Ｒｅｋｉｎｄｌｅ,,株式会社,東京都,中野区,沼袋２丁目２６番１０号,,13,114,1650025,,,,,,,2024-12-13,1,,,,,エイエルリカインドル,0
77,1011401026648,新規,0,2024-12-13,2024-12-13,株式会社ＭＩＮＫＳ,,株式会社,東京都,板橋区,中丸町３１番７号澤田ビル２Ｆ,,13,119,1730026,,,,,,,2024-12-13,1,,,,,ミンクス,0
80,1011501031481,新規,0,2024-12-13,2024-12-13,株式会社Ｖａｌｉｄ,,株式会社,東京都,荒川区,東日暮里５丁目４５番１０号能美ビル３０３,,13,118,1160014,,,,,,,2024-12-13,1,,,,,ヴァリッド,0
84,1012303002084,新規,0,2024-12-13,2024-12-13,合同会社酒井商事,,合同会社,東京都,町田市,図師町２９６０番地１７,,13,209,1940203,,,,,,,2024-12-13,1,,,,,サカイショウジ,0
98,1020001160567,新規,0,2024-12-13,2024-12-13,株式会社ＣＯＭＭＯＮ,,株式会社,神奈川県,横浜市西区,北幸２丁目１０番４８号むつみビル３階,,14,103,2200004,,,,,,,2024-12-13,1,,,,,コモン,0
99,1020001160600,新規,0,2024-12-13,2024-12-13,株式会社タカノハ,,株式会社,神奈川県,横浜市金沢区,谷津町４０番地７３,,14,108,2360016,,,,,,,2024-12-13,1,,,,,タカノハ,0
104,1020003027434,新規,0,2024-12-13,2024-12-13,合同会社ニューディール・ファミリア,,合同会社,神奈川県,川崎市麻生区,早野５１５番地,,14,137,2150016,,,,,,,2024-12-13,1,,,,,ニューディールファミリア,0
106,1021001083980,新規,0,2024-12-13,2024-12-13,株式会社デイトリップ,,株式会社,神奈川県,鎌倉市,極楽寺３丁目７番１６号,,14,204,2480023,,,,,,,2024-12-13,1,,,,,デイトリップ,0
114,1030001163916,新規,0,2024-12-13,2024-12-13,シグマエステート株式会社,,株式会社,埼玉県,深谷市,上柴町東６丁目７番地１１,,11,218,3660051,,,,,,,2024-12-13,1,,,,,シグマエステート,0
117,1040001136549,新規,0,2024-12-13,2024-12-13,金山商事株式会社,,株式会社,千葉県,千葉市花見川区,花見川６番８棟５０２号,,12,102,2620046,,,,,,,2024-12-13,1,,,,,カネヤマショウジ,0
118,1040001136581,新規,0,2024-12-13,2024-12-13,株式会社ＹＭ電設,,株式会社,千葉県,千葉市若葉区,小倉台１丁目２１番６号,,12,104,2640006,,,,,,,2024-12-13,1,,,,,ワイエムデンキセツビ,0
121,1040003026384,新規,0,2024-12-13,2024-12-13,合同会社和牛ギャング,,合同会社,千葉県,千葉市中央区,神明町５４３番地,,12,101,2600022,,,,,,,2024-12-13,1,,,,,ワギュウギャング,0
123,1050001055863,新規,0,2024-12-13,2024-12-13,株式会社Ｏｎｅホールディングス,,株式会社,茨城県,水戸市,城南２丁目５番１９号黄門ビル,,08,201,3100803,,,,,,,2024-12-13,1,,,,,ワンホールディングス,0
124,1070001042447,新規,0,2024-12-13,2024-12-13,Ｔ＆Ｄアライアンス株式会社,,株式会社,群馬県,藤岡市,小林４０２番地１７,,10,209,3750021,,,,,,,2024-12-13,1,,,,,ティーアンドディーアライアンス,0
126,1080001026663,新規,0,2024-12-13,2024-12-13,日立空調清水株式会社,,株式会社,静岡県,静岡市清水区,村松３９０番地,,22,103,4240926,,,,,,,2024-12-13,1,,,,,ヒタチクウチョウシミズ,0
145,1120001271073,新規,0,2024-12-13,2024-12-13,株式会社ｒｏｏｔｓ,,株式会社,大阪府,大阪市天王寺区,下味原町３番１５号,,27,109,5430025,,,,,,,2024-12-13,1,,,,,ルーツ,0
146,1120001271107,新規,0,2024-12-13,2024-12-13,株式会社操学館,,株式会社,大阪府,大阪市北区,梅田２丁目２番２号ヒルトンプラザウエストオフィスタワー１９Ｆ,,27,127,5300001,,,,,,,2024-12-13,1,,,,,ソウガッカン,0
149,1120003028158,新規,0,2024-12-13,2024-12-13,ＢＥＳＴ　ＯＮＥ合同会社,,合同会社,大阪府,大阪市城東区,鴫野西５丁目１５番１１号,,27,118,5360014,,,,,,,2024-12-13,1,,,,,ベストワン,0
156,1120901050171,新規,0,2024-12-13,2024-12-13,株式会社ブルーオーシャン,,株式会社,大阪府,豊中市,上野坂２丁目２０番２号,,27,203,5600012,,,,,,,2024-12-13,1,,,,,ブルーオーシャン,0
163,1130001078583,新規,0,2024-12-13,2024-12-13,株式会社聚楽,,株式会社,京都府,京都市伏見区,久我石原町７番地１５アルディエンテＹ＆Ｊ１０６号室,,26,109,6128491,,,,,,,2024-12-13,1,,,,,ジュラク,0
176,1150005009649,新規,0,2024-12-13,2024-12-13,医療法人白沙会,,その他の設立登記法人,奈良県,北葛城郡広陵町,馬見中２丁目１１番１６号,,29,426,6350832,,,,,,,2024-12-13,1,,,,,ハクシャカイ,0
186,1180001164569,新規,0,2024-12-13,2024-12-13,株式会社イブラヒムトレーディング,,株式会社,愛知県,海部郡飛島村,大字三福１丁目２５番１,,23,427,4901432,,,,,,,2024-12-13,1,,,,,イブラヒムトレーディング,0
188,1180003027724,新規,0,2024-12-13,2024-12-13,合同会社Ｈｏｌｄｅｒ,,合同会社,愛知県,名古屋市熱田区,伝馬３丁目２番５号ファミリアーレ熱田伝馬町８０３号,,23,109,4560034,,,,,,,2024-12-13,1,,,,,ホルダー,0
189,1180003027732,新規,0,2024-12-13,2024-12-13,合同会社Ｎｅｏｍｅｎｔｏ,,合同会社,愛知県,名古屋市中村区,名駅４丁目２４番５号第２森ビル４０１,,23,105,4500002,,,,,,,2024-12-13,1,,,,,ネオメント,0
192,1180301039330,新規,0,2024-12-13,2024-12-13,株式会社ホスピタルインテリジェンス,,株式会社,愛知県,蒲郡市,港町１８番２３号蒲郡商工会議所１階,,23,214,4430034,,,,,,,2024-12-13,1,,,,,ホスピタルインテリジェンス,0
194,1190003004879,新規,0,2024-12-13,2024-12-13,合同会社芋笑,,合同会社,三重県,亀山市,西町５５９番地２,,24,210,5190153,,,,,,,2024-12-13,1,,,,,イモショウ,0
195,1190005012005,新規,0,2024-12-13,2024-12-13,特定非営利活動法人Ｋｏｔｏｉｓａ,,その他の設立登記法人,三重県,四日市市,富田３丁目２１番２４‐５０１号デュオヒルズ四日市富田,,24,202,5108014,,,,,,,2024-12-13,1,,,,,コトイサ,0
200,1200001043225,新規,0,2024-12-13,2024-12-13,株式会社アイレット,,株式会社,岐阜県,岐阜市,五坪２丁目８番２６号,,21,201,5008157,,,,,,,2024-12-13,1,,,,,アイレット,0
237,1360001034522,新規,0,2024-12-13,2024-12-13,株式会社てぃんがーら,,株式会社,沖縄県,中頭郡北中城村,字島袋６０２－１ドミール比嘉,,47,327,9012301,,,,,,,2024-12-13,1,,,,,ティンガーラ,0
246,1380003005908,新規,0,2024-12-13,2024-12-13,合同会社ＳＵＮ,,合同会社,福島県,いわき市,小名浜君ケ塚町４番地の２２,,07,204,9718168,,,,,,,2024-12-13,1,,,,,サン,0
248,1400003003363,新規,0,2024-12-13,2024-12-13,合同会社あべ,,合同会社,岩手県,胆沢郡金ケ崎町,西根西壇原２２番地８,,03,381,0294503,,,,,,,2024-12-13,1,,,,,アベ,0
264,1700150128214,新規,0,2024-12-13,2024-12-13,Ｓｐａｃｅｗａｌｋｅｒ　Ｔｅｃｈｎｏｌｏｇｙ　Ｈｏｎｇ　Ｋｏｎｇ　Ｃｏ．，Ｌｉｍｉｔｅｄ,,外国会社等,,,,,,,,ＲＭ　０１，２６ＴＨ　ＦＬＯＯＲ，ＷＯＲＫＩＮＧ　ＶＩＥＷ　ＣＯＭＭＥＲＣＩＡＬ　ＢＵＩＬＤＩＮＧ，２１　ＹＩＵ　ＷＡＨ　ＳＴＲＥＥＴ，ＣＡＵＳＥＷＡＹＢＡＹ，ＨＫ,,,,,,2024-12-13,1,,,,,スペースウォーカーテクノロジーホンコンカンパニーリミテッド,0
275,2010001250731,新規,0,2024-12-13,2024-12-13,三易株式会社,,株式会社,東京都,中央区,新川１丁目７－１－４１５号室,,13,102,1040033,,,,,,,2024-12-13,1,,,,,サンエキ,0
276,2010001250764,新規,0,2024-12-13,2024-12-13,株式会社Ｔｈａｌｅｉａ,,株式会社,東京都,中央区,銀座７丁目５番１５号銀座蒲田ビル３Ｆ－ＡＢ号室,,13,102,1040061,,,,,,,2024-12-13,1,,,,,タレイア,0
295,2010401187029,新規,0,2024-12-13,2024-12-13,株式会社ＦＵＮＳ,,株式会社,東京都,港区,六本木１丁目９番１８－３０５号,,13,103,1060032,,,,,,,2024-12-13,1,,,,,ファンズ,0
296,2010405023865,新規,0,2024-12-13,2024-12-13,一般社団法人ＬＣＣＮ推進研究会,,その他の設立登記法人,東京都,港区,赤坂６丁目１０番４２号,,13,103,1070052,,,,,,,2024-12-13,1,,,,,エルシーシーエヌスイシンケンキュウカイ,0
299,2010501053353,新規,0,2024-12-13,2024-12-13,翼ソリューションズ株式会社,,株式会社,東京都,台東区,東上野１丁目１５番４号キスワイヤ御徒町ビル４階,,13,106,1100015,,,,,,,2024-12-13,1,,,,,ツバサソリューションズ,0
301,2010703007504,新規,0,2024-12-13,2024-12-13,合同会社フィナンシャルラボ,,合同会社,東京都,品川区,小山３丁目１５番２－１４０９号,,13,109,1420062,,,,,,,2024-12-13,1,,,,,フィナンシャルラボ,0
306,2011001166273,新規,0,2024-12-13,2024-12-13,株式会社Ｖｉｖｉｄ　Ｐｒｏｏｆ,,株式会社,東京都,渋谷区,渋谷２丁目１９番１５号宮益坂ビルディング６０９,,13,113,1500002,,,,,,,2024-12-13,1,,,,,ビビッドプルーフ,0
307,2011001166281,新規,0,2024-12-13,2024-12-13,サブスクソリューションズ株式会社,,株式会社,東京都,渋谷区,渋谷２丁目１２番１９号,,13,113,1500002,,,,,,,2024-12-13,1,,,,,サブスクソリューションズ,0
325,2011303005360,新規,0,2024-12-13,2024-12-13,合同会社ＩＭＹＴ,,合同会社,東京都,杉並区,荻窪１丁目５９番１０号,,13,115,1670051,,,,,,,2024-12-13,1,,,,,,0
333,2011701027898,新規,0,2024-12-13,2024-12-13,豊渓商事株式会社,,株式会社,東京都,江戸川区,北小岩２丁目１番１６－２０２号ラ・ベルティ小岩,,13,123,1330051,,,,,,,2024-12-13,1,,,,,トヨケイショウジ,0
344,2013303007428,新規,0,2024-12-13,2024-12-13,ワイズ合同会社,,合同会社,東京都,豊島区,千早３丁目３１番１０号,,13,116,1710044,,,,,,,2024-12-13,1,,,,,ワイズ,0
351,2020001160500,新規,0,2024-12-13,2024-12-13,株式会社ＲＫ,,株式会社,神奈川県,横浜市港北区,師岡町１１３１番地９,,14,109,2220002,,,,,,,2024-12-13,1,,,,,アールケー,0
352,2020001160533,新規,0,2024-12-13,2024-12-13,株式会社Ｓ＆Ｍ,,株式会社,神奈川県,横浜市神奈川区,三枚町１４番地５,,14,102,2210862,,,,,,,2024-12-13,1,,,,,エスアンドエム,0
357,2020003027425,新規,0,2024-12-13,2024-12-13,合同会社イシバシールエージェンシー,,合同会社,神奈川県,川崎市幸区,南加瀬３丁目６番２８号フレールハイツ３０２,,14,132,2120055,,,,,,,2024-12-13,1,,,,,イシバシールエージェンシー,0
363,2021003015337,新規,0,2024-12-13,2024-12-13,西方合同会社,,合同会社,神奈川県,茅ヶ崎市,東海岸南６丁目６番８６－１号,,14,207,2530054,,,,,,,2024-12-13,1,,,,,ニシカタ,0
365,2030001163931,新規,0,2024-12-13,2024-12-13,株式会社ＤＥＡＣＴＩＯＮ,,株式会社,埼玉県,熊谷市,広瀬１２９－１６,,11,202,3600833,,,,,,,2024-12-13,1,,,,,ディアクション,0
366,2030003025683,新規,0,2024-12-13,2024-12-13,Ｊａｎａｈａ　Ｍａｒｔ合同会社,,合同会社,埼玉県,川口市,芝下１丁目７番１８号フラワーメゾン２０３号,,11,203,3330848,,,,,,,2024-12-13,1,,,,,ジャナハマート,0
379,2040003026342,新規,0,2024-12-13,2024-12-13,合同会社ＪＣプランニング,,合同会社,千葉県,松戸市,西馬橋５丁目２４５番地の１４,,12,207,2710044,,,,,,,2024-12-13,1,,,,,ジェイシープランニング,0
380,2040003026383,新規,0,2024-12-13,2024-12-13,ＣＪＷ合同会社,,合同会社,千葉県,八街市,八街ほ１７１番地２,,12,230,2891115,,,,,,,2024-12-13,1,,,,,シージェーダブル,0
393,2090003002693,新規,0,2024-12-13,2024-12-13,ｖｉｎｅｎａｇｅ合同会社,,合同会社,山梨県,北杜市,大泉町谷戸５８６５－１２,,19,209,4091502,,,,,,,2024-12-13,1,,,,,ヴァインネージ,0
398,2110001038910,新規,0,2024-12-13,2024-12-13,株式会社ニミインターナショナル,,株式会社,新潟県,南魚沼市,浦佐３２６番地１,,15,226,9497302,,,,,,,2024-12-13,1,,,,,ニミインターナショナル,0
416,2120001270909,新規,0,2024-12-13,2024-12-13,ユニーズ株式会社,,株式会社,大阪府,大阪市淀川区,西中島３丁目２２番１７号,,27,123,5320011,,,,,,,2024-12-13,1,,,,,ユニーズ,0
417,2120001270925,新規,0,2024-12-13,2024-12-13,曜采株式会社,,株式会社,大阪府,大阪市住之江区,御崎１丁目１１番１９－２１０号,,27,125,5590013,,,,,,,2024-12-13,1,,,,,ヨウサイ,0
418,2120001271031,新規,0,2024-12-13,2024-12-13,芝士包株式会社,,株式会社,大阪府,大阪市旭区,清水１丁目１２－１４モデラート千林２０２号,,27,117,5350021,,,,,,,2024-12-13,1,,,,,シシホウ,0
419,2120001271056,新規,0,2024-12-13,2024-12-13,Ｆｕｓｉｏｎ　Ｗａｖｅ株式会社,,株式会社,大阪府,大阪市住吉区,沢之町１丁目５－２８－２０１Ｂ,,27,120,5580031,,,,,,,2024-12-13,1,,,,,フュージョンウェーブ,0
420,2120001271080,新規,0,2024-12-13,2024-12-13,株式会社タイセー建設,,株式会社,大阪府,枚方市,長尾家具町１丁目５番６号,,27,210,5730102,,,,,,,2024-12-13,1,,,,,タイセーケンセツ,0
432,2130001078590,新規,0,2024-12-13,2024-12-13,株式会社ワンチーム,,株式会社,京都府,城陽市,枇杷庄鹿背田７２トライアングルプラザ,,26,207,6100117,,,,,,,2024-12-13,1,,,,,ワンチーム,0
447,2140003021366,新規,0,2024-12-13,2024-12-13,ＭＩＫＡ合同会社,,合同会社,兵庫県,神崎郡福崎町,馬田４番地７,,28,443,6792213,,,,,,,2024-12-13,1,,,,,ミカ,0
448,2140003021408,新規,0,2024-12-13,2024-12-13,合同会社ＹＯＳＨＩＤＡ,,合同会社,兵庫県,西宮市,剣谷町１４－１０,,28,204,6620099,,,,,,,2024-12-13,1,,,,,ヨシダ,0
451,2140005027304,新規,0,2024-12-13,2024-12-13,医療法人健悠会,,その他の設立登記法人,兵庫県,神戸市中央区,北長狭通１丁目２番２号三宮イーストビル３階,,28,110,6500012,,,,,,,2024-12-13,1,,,,,ケンユウカイ,0
454,2160003003354,新規,0,2024-12-13,2024-12-13,合同会社一才堂,,合同会社,滋賀県,大津市,南小松３０１,,25,201,5200502,,,,,,,2024-12-13,1,,,,,イッサイドウ,0
458,2180001164485,新規,0,2024-12-13,2024-12-13,株式会社Ｋｒｓｈ,,株式会社,愛知県,名古屋市西区,五才美町１２７番地（ＨＩハイツ１０５号）,,23,104,4520806,,,,,,,2024-12-13,1,,,,,クルシュ,0
459,2180001164519,新規,0,2024-12-13,2024-12-13,ｐｒｉｍｅ＆ｃｏ株式会社,,株式会社,愛知県,名古屋市中川区,万場１丁目７０３番地の１ソフィア令２０３号,,23,110,4540997,,,,,,,2024-12-13,1,,,,,プライムアンドコー,0
467,2180003027731,新規,0,2024-12-13,2024-12-13,合同会社壬星,,合同会社,愛知県,名古屋市中区,大須１丁目７番１４号パークＩＭビル２Ｆ,,23,106,4600011,,,,,,,2024-12-13,1,,,,,ミズボシ,0
471,2200003006625,新規,0,2024-12-13,2024-12-13,天上合同会社,,合同会社,岐阜県,可児郡御嵩町,中２６６番地４７,,21,521,5050121,,,,,,,2024-12-13,1,,,,,アマガミ,0
475,2210003001864,新規,0,2024-12-13,2024-12-13,武陽合同会社,,合同会社,福井県,福井市,天池町第３７号２番地８,,18,201,9100124,,,,,,,2024-12-13,1,,,,,ブヨウ,0
477,2230001020658,新規,0,2024-12-13,2024-12-13,株式会社ｃｌｉｍｂ,,株式会社,富山県,富山市,綾田町１丁目３‐５トレーラーハウス２号棟,,16,201,9300845,,,,,,,2024-12-13,1,,,,,クライム,0
490,2290001108274,新規,0,2024-12-13,2024-12-13,楽和株式会社,,株式会社,福岡県,福岡市東区,松田３丁目２０番１０－３０２号ＰＬＥＡＳＴ箱崎公園,,40,131,8120064,,,,,,,2024-12-13,1,,,,,ラクワ,0
491,2290001108282,新規,0,2024-12-13,2024-12-13,松下書声株式会社,,株式会社,福岡県,福岡市東区,三苫７丁目７番５号,,40,131,8110201,,,,,,,2024-12-13,1,,,,,マツシタショセイ,0
492,2290001108290,新規,0,2024-12-13,2024-12-13,めぐり夢株式会社,,株式会社,福岡県,福岡市博多区,博多駅前１丁目２３－２ＰａｒｋＦｒｏｎｔ博多駅前１丁目５Ｆ－Ｂ,,40,132,8120011,,,,,,,2024-12-13,1,,,,,メグリム,0
496,2290801031122,新規,0,2024-12-13,2024-12-13,株式会社辰錦,,株式会社,福岡県,北九州市八幡西区,黒崎１丁目１３番１９号,,40,109,8060021,,,,,,,2024-12-13,1,,,,,タツニシキ,0
498,2300001014009,新規,0,2024-12-13,2024-12-13,株式会社Ｓ‐ｈｏｍｅ,,株式会社,佐賀県,鹿島市,大字納富分２５２２番地１１,,41,207,8491312,,,,,,,2024-12-13,1,,,,,エスホーム,0
501,2330001032734,新規,0,2024-12-13,2024-12-13,株式会社リノヴィスタ,,株式会社,熊本県,熊本市中央区,花畑町１番１４号Ａ＆Ｍ　ＨＡＮＡＢＡＴＡ３０１号,,43,101,8600806,,,,,,,2024-12-13,1,,,,,リノヴィスタ,0
506,2360003014521,新規,0,2024-12-13,2024-12-13,合同会社いちんやー,,合同会社,沖縄県,中頭郡北中城村,字島袋２０８－６名幸ハウス,,47,327,9012301,,,,,,,2024-12-13,1,,,,,イチンヤー,0
515,2380005012901,新規,0,2024-12-13,2024-12-13,一般社団法人外来カミキリ対策室,,その他の設立登記法人,福島県,郡山市,緑町２１番１６号,,07,203,9638023,,,,,,,2024-12-13,1,,,,,ガイライカミキリタイサクシツ,0
526,2440003001651,新規,0,2024-12-13,2024-12-13,合同会社メビウス,,合同会社,北海道,函館市,花園町５番６号,,01,202,0410843,,,,,,,2024-12-13,1,,,,,メビウス,0
530,2700150128213,新規,0,2024-12-13,2024-12-13,甲賀市工業会,,その他,滋賀県,甲賀市,水口町水口６０５３（甲賀市産業経済部商工労政課内）,,25,209,5280005,,,,,,,2024-12-13,1,,,,,コウカシコウギョウカイ,0
542,3010001250441,新規,0,2024-12-13,2024-12-13,ＳＭ　Ｃｏｎｓｕｌｔｉｎｇ株式会社,,株式会社,東京都,中央区,新富１丁目１７－９Ｌｏｇ銀座東１００２,,13,102,1040041,,,,,,,2024-12-13,1,,,,,エスエムコンサルティング,0
543,3010001250706,新規,0,2024-12-13,2024-12-13,チスイ・ホールディングス株式会社,,株式会社,東京都,千代田区,神田三崎町２丁目１５番６号,,13,101,1010061,,,,,,,2024-12-13,1,,,,,チスイホールディングス,0
544,3010001250747,新規,0,2024-12-13,2024-12-13,株式会社縁総合不動産,,株式会社,東京都,千代田区,神田鍛冶町３丁目７番２１号天翔神田駅前ビル６０３号室,,13,101,1010045,,,,,,,2024-12-13,1,,,,,エニシソウゴウフドウサン,0
557,3010003045600,新規,0,2024-12-13,2024-12-13,合同会社Ａｄｄｉｔｉｏｎａｌ　Ｔｉｍｅ,,合同会社,東京都,中央区,銀座１丁目１２－４Ｎ＆ＥＢＬＤ．７階,,13,102,1040061,,,,,,,2024-12-13,1,,,,,アディショナルタイム,0
558,3010003045633,新規,0,2024-12-13,2024-12-13,大川不動産合同会社,,合同会社,東京都,千代田区,内神田１丁目３－６クラッシィハウス大手町ザ・スイート７０３号,,13,101,1010047,,,,,,,2024-12-13,1,,,,,オオカワフドウサン,0
559,3010003045732,新規,0,2024-12-13,2024-12-13,合同会社ＭＳＪ開発,,合同会社,東京都,千代田区,隼町２番１６－３０１号,,13,101,1020092,,,,,,,2024-12-13,1,,,,,エムエスジェイカイハツ,0
560,3010003045757,新規,0,2024-12-13,2024-12-13,ＨＫ投資合同会社,,合同会社,東京都,千代田区,丸の内１丁目９番１号,,13,101,1000005,,,,,,,2024-12-13,1,,,,,エイチケートウシ,0
576,3010401187028,新規,0,2024-12-13,2024-12-13,株式会社ＳＦＮ,,株式会社,東京都,港区,赤坂５丁目２番２０号赤坂パークビル１８階,,13,103,1070052,,,,,,,2024-12-13,1,,,,,エスエフエヌ,0
578,3010403034005,新規,0,2024-12-13,2024-12-13,トライウインド合同会社,,合同会社,東京都,港区,虎ノ門３丁目２２番１０－２０１号,,13,103,1050001,,,,,,,2024-12-13,1,,,,,トライウインド,0
579,3010403034013,新規,0,2024-12-13,2024-12-13,合同会社ジーテン・ジャパン・ファイブ,,合同会社,東京都,港区,虎ノ門３丁目２２番１０－２０１号,,13,103,1050001,,,,,,,2024-12-13,1,,,,,ジーテンジャパンファイブ,0
580,3010405023864,新規,0,2024-12-13,2024-12-13,一般社団法人発明力開発協会,,その他の設立登記法人,東京都,港区,白金４丁目７－２レジデンス・ド・ラフォーレ３０３,,13,103,1080072,,,,,,,2024-12-13,1,,,,,ハツメイリョクカイハツキョウカイ,0
581,3010405023889,新規,0,2024-12-13,2024-12-13,一般社団法人ＳＯ２号,,その他の設立登記法人,東京都,港区,西新橋１丁目２番９号メンターキャピタル税理士法人内,,13,103,1050003,,,,,,,2024-12-13,1,,,,,エスオーニゴウ,0
582,3010501053336,新規,0,2024-12-13,2024-12-13,ファイン・ファセット株式会社,,株式会社,東京都,台東区,上野５丁目１３番４号,,13,106,1100005,,,,,,,2024-12-13,1,,,,,ファインファセット,0
583,3010501053344,新規,0,2024-12-13,2024-12-13,一君株式会社,,株式会社,東京都,台東区,台東３丁目１１番１０－５０２号室,,13,106,1100016,,,,,,,2024-12-13,1,,,,,イチクン,0
592,3010803005200,新規,0,2024-12-13,2024-12-13,合同会社ＤＵＯＮＧ　ＮＧＯＣ,,合同会社,東京都,大田区,大森西７丁目９－７ＫＡエンゼルハイム蒲田第三２１０号,,13,111,1430015,,,,,,,2024-12-13,1,,,,,ズオンゴック,0
595,3010901056491,新規,0,2024-12-13,2024-12-13,株式会社ＬＥＡＦ,,株式会社,東京都,世田谷区,上馬５丁目１５番２３号,,13,112,1540011,,,,,,,2024-12-13,1,,,,,リーフ,0
605,3011003020510,新規,0,2024-12-13,2024-12-13,合同会社Ｃｕａｔｒｏ,,合同会社,東京都,渋谷区,神宮前６丁目２５番８神宮前コーポラス５０２号,,13,113,1500001,,,,,,,2024-12-13,1,,,,,クアトロ,0
614,3011501031471,新規,0,2024-12-13,2024-12-13,食享家株式会社,,株式会社,東京都,北区,上十条５丁目４１－１５－２０１,,13,117,1140034,,,,,,,2024-12-13,1,,,,,ショクキョウカ,0
616,3012401042575,新規,0,2024-12-13,2024-12-13,株式会社ｎｏｌｌａ,,株式会社,東京都,府中市,小柳町３丁目２９番地の２２,,13,206,1830013,,,,,,,2024-12-13,1,,,,,ノーラ,0
617,3012403006859,新規,0,2024-12-13,2024-12-13,合同会社ノルディック,,合同会社,東京都,三鷹市,上連雀８丁目２番４１－６１６号,,13,204,1810012,,,,,,,2024-12-13,1,,,,,ノルディック,0
623,3013301053497,新規,0,2024-12-13,2024-12-13,ＧＸ　Ｇｌｏｂａｌ株式会社,,株式会社,東京都,豊島区,西池袋３丁目６番１１号ドゥーエ西池袋５０４号室,,13,116,1710021,,,,,,,2024-12-13,1,,,,,ジーエックスグローバル,0
634,3020001160499,新規,0,2024-12-13,2024-12-13,株式会社イズム投資,,株式会社,神奈川県,川崎市中原区,新丸子東２丁目９２５番地,,14,133,2110004,,,,,,,2024-12-13,1,,,,,イズムトウシ,0
635,3020001160573,新規,0,2024-12-13,2024-12-13,吉晴株式会社,,株式会社,神奈川県,川崎市多摩区,菅北浦３丁目１２番２２号１０１号室,,14,135,2140008,,,,,,,2024-12-13,1,,,,,ヨシハレ,0
638,3020003027424,新規,0,2024-12-13,2024-12-13,合同会社ジーシスジャパン,,合同会社,神奈川県,横浜市西区,北幸２丁目１０番４８号むつみビル３階,,14,103,2200004,,,,,,,2024-12-13,1,,,,,ジーシスジャパン,0
640,3021001083979,新規,0,2024-12-13,2024-12-13,株式会社戸谷技術士事務所,,株式会社,神奈川県,大和市,南林間３丁目５番２－２号,,14,213,2420006,,,,,,,2024-12-13,1,,,,,トタニギジュツシジムショ,0
642,3021003015328,新規,0,2024-12-13,2024-12-13,ＴＨＷ合同会社,,合同会社,神奈川県,茅ヶ崎市,共恵１丁目７番２９―６０１号コージーコート茅ヶ崎,,14,207,2530056,,,,,,,2024-12-13,1,,,,,ティーエイチダブリュー,0
648,3030001163914,新規,0,2024-12-13,2024-12-13,株式会社ブリッジ,,株式会社,埼玉県,さいたま市大宮区,大成町３丁目６０９番地２,,11,103,3300852,,,,,,,2024-12-13,1,,,,,ブリッジ,0
650,3030003025658,新規,0,2024-12-13,2024-12-13,雄一合同会社,,合同会社,埼玉県,草加市,花栗３丁目５番１９号,,11,221,3400044,,,,,,,2024-12-13,1,,,,,ユウイチ,0
654,3040001136547,新規,0,2024-12-13,2024-12-13,株式会社矢上塗装,,株式会社,千葉県,市原市,畑木４２番地２,,12,219,2990112,,,,,,,2024-12-13,1,,,,,ヤガミトソウ,0
661,3060001037727,新規,0,2024-12-13,2024-12-13,株式会社大健,,株式会社,栃木県,宇都宮市,西川田町８９３番地１６,,09,201,3210151,,,,,,,2024-12-13,1,,,,,ダイケン,0
668,3080105006469,新規,0,2024-12-13,2024-12-13,一般社団法人Ｆ‐ＰＲＩＤＥ,,その他の設立登記法人,静岡県,富士市,宮下３０３番地１２,,22,210,4160947,,,,,,,2024-12-13,1,,,,,エフプライド,0
673,3090005007665,新規,0,2024-12-13,2024-12-13,一般社団法人大月エスペラント図書館,,その他の設立登記法人,山梨県,大月市,猿橋町桂台１丁目４番地４,,19,206,4090618,,,,,,,2024-12-13,1,,,,,オオツキエスペラントトショカン,0
686,3120001271022,新規,0,2024-12-13,2024-12-13,馨意株式会社,,株式会社,大阪府,大阪市中央区,松屋町９番２０号ローレルステート松屋町７０５Ａ,,27,128,5420067,,,,,,,2024-12-13,1,,,,,キョウイ,0
691,3120101070737,新規,0,2024-12-13,2024-12-13,株式会社Ａｓｏｂｉ　Ｓｐｉｃｅ,,株式会社,大阪府,堺市西区,神野町２丁１１２１－１,,27,144,5938308,,,,,,,2024-12-13,1,,,,,アソビスパイス,0
692,3120101070745,新規,0,2024-12-13,2024-12-13,株式会社ラフ,,株式会社,大阪府,堺市堺区,翁橋町１丁１０番１４号アルデビル２Ｂ,,27,141,5900061,,,,,,,2024-12-13,1,,,,,ラフ,0
693,3120103006193,新規,0,2024-12-13,2024-12-13,合同会社橋口メンテナンス,,合同会社,大阪府,貝塚市,三ツ松２０３７番地４３,,27,208,5970105,,,,,,,2024-12-13,1,,,,,ハシグチメンテナンス,0
694,3120901050178,新規,0,2024-12-13,2024-12-13,株式会社フィアース２１ホールディングス,,株式会社,大阪府,高槻市,城北町１丁目１４番１８－２０３号,,27,207,5690071,,,,,,,2024-12-13,1,,,,,フィアースニジュウイチホールディングス,0
700,3130003010071,新規,0,2024-12-13,2024-12-13,合同会社Ａｒｂｒｅ,,合同会社,京都府,京都市下京区,西七条西石ケ坪町１９番地６,,26,106,6008896,,,,,,,2024-12-13,1,,,,,アーブル,0
706,3150005009647,新規,0,2024-12-13,2024-12-13,特定非営利活動法人奈良県囲碁協会,,その他の設立登記法人,奈良県,奈良市,高天市町１－１井上ビル３階奈良囲碁センター内,,29,201,6308238,,,,,,,2024-12-13,1,,,,,ナラケンイゴキョウカイ,0
716,3180001164427,新規,0,2024-12-13,2024-12-13,株式会社ＥＣＬＡＴ,,株式会社,愛知県,名古屋市中区,丸の内２丁目１７番６号丸の内ホリエビル２階,,23,106,4600002,,,,,,,2024-12-13,1,,,,,エクラ,0
717,3180001164534,新規,0,2024-12-13,2024-12-13,株式会社Ｃｈａｒｋｈａ,,株式会社,愛知県,海部郡蟹江町,西之森９丁目３９番地,,23,425,4970052,,,,,,,2024-12-13,1,,,,,チャルカ,0
720,3180003027730,新規,0,2024-12-13,2024-12-13,合同会社オカシア,,合同会社,愛知県,稲沢市,下津片町２０２番地,,23,220,4928054,,,,,,,2024-12-13,1,,,,,オカシア,0
723,3180303006368,新規,0,2024-12-13,2024-12-13,合同会社ＴＲＩＳＨＩＫＡ,,合同会社,愛知県,豊川市,谷川町洞１５６番地フランプラシード２０１号,,23,207,4420807,,,,,,,2024-12-13,1,,,,,ティリシカ,0
745,3290003016169,新規,0,2024-12-13,2024-12-13,合同会社前後左右,,合同会社,福岡県,福岡市中央区,桜坂１丁目１５番１３－４０１号東急ドエルアルス桜坂,,40,133,8100024,,,,,,,2024-12-13,1,,,,,ゼンゴサユウ,0
746,3290003016177,新規,0,2024-12-13,2024-12-13,合同会社ハレレア,,合同会社,福岡県,飯塚市,平恒３５７番地２,,40,205,8200073,,,,,,,2024-12-13,1,,,,,ハレレア,0
750,3300003002209,新規,0,2024-12-13,2024-12-13,合同会社大空,,合同会社,佐賀県,佐賀市,昭栄町７番１１号,,41,201,8400855,,,,,,,2024-12-13,1,,,,,オオゾラ,0
757,3330001032733,新規,0,2024-12-13,2024-12-13,株式会社ＡＢＥ,,株式会社,熊本県,宇城市,小川町河江９６番地６,,43,213,8690606,,,,,,,2024-12-13,1,,,,,エービーイー,0
766,3380001034972,新規,0,2024-12-13,2024-12-13,コッパーワークコム株式会社,,株式会社,福島県,福島市,伏拝字田中２３番地の１,,07,201,9608154,,,,,,,2024-12-13,1,,,,,コッパーワークコム,0
770,3400003003361,新規,0,2024-12-13,2024-12-13,合同会社菊二郎,,合同会社,岩手県,北上市,本通り３丁目９番５号,,03,206,0240094,,,,,,,2024-12-13,1,,,,,キクジロウ,0
771,3410001014013,新規,0,2024-12-13,2024-12-13,ジャパンオフショアサポート株式会社,,株式会社,秋田県,秋田市,土崎港西２丁目５番９号,,05,201,0110945,,,,,,,2024-12-13,1,,,,,ジャパンオフショアサポート,0
773,3430001093261,新規,0,2024-12-13,2024-12-13,室感フーズ株式会社,,株式会社,北海道,室蘭市,中島町４丁目４番１２－２０１号,,01,205,0500074,,,,,,,2024-12-13,1,,,,,ムロカンフーズ,0
777,3450001014471,新規,0,2024-12-13,2024-12-13,ソーム株式会社,,株式会社,北海道,旭川市,旭神二条１丁目２番４１号メゾンＴ＆Ｃ　Ｂ棟１０５号室,,01,204,0788372,,,,,,,2024-12-13,1,,,,,ソーム,0
781,3700150007069,新規,0,2024-12-13,2015-10-09,東京土建一般労働組合　台東支部,,その他,東京都,台東区,竜泉１丁目１５－２,,13,106,1100012,,,,,,,2015-10-09,1,,,,,トウキヨウドケンイツパンロウドウクミアイタイトウシブ,0
799,4010003045780,新規,0,2024-12-13,2024-12-13,ＫＬクリエイティブ合同会社,,合同会社,東京都,中央区,日本橋室町１丁目１１番１２号日本橋水野ビル７階,,13,102,1030022,,,,,,,2024-12-13,1,,,,,ケーエルクリエイティブ,0
809,4010401187035,新規,0,2024-12-13,2024-12-13,株式会社ロンフィー,,株式会社,東京都,港区,赤坂２丁目１３番１９号３階,,13,103,1070052,,,,,,,2024-12-13,1,,,,,ロンフィー,0
811,4010403034004,新規,0,2024-12-13,2024-12-13,合同会社Ａｒｅａ　Ｎｉｎｅ,,合同会社,東京都,港区,芝浦２丁目７番１１－２４０４号,,13,103,1080023,,,,,,,2024-12-13,1,,,,,エリアナイン,0
812,4010405023863,新規,0,2024-12-13,2024-12-13,一般財団法人劉鋒植基金会,,その他の設立登記法人,東京都,港区,芝浦１丁目３番２－７０２号,,13,103,1050023,,,,,,,2024-12-13,1,,,,,リュウホウショクキキンカイ,0
813,4010501053319,新規,0,2024-12-13,2024-12-13,ＳｔｅｌｌＡＩ　ＴＥＣＨ株式会社,,株式会社,東京都,台東区,浅草橋５丁目１番３１－３０８号,,13,106,1110053,,,,,,,2024-12-13,1,,,,,ステルアイテック,0
814,4010501053343,新規,0,2024-12-13,2024-12-13,株式会社エヌプロジェクト,,株式会社,東京都,台東区,東上野３丁目２８番４－７０３号,,13,106,1100015,,,,,,,2024-12-13,1,,,,,エヌプロジェクト,0
824,4010703007502,新規,0,2024-12-13,2024-12-13,合同会社エマージェント,,合同会社,東京都,品川区,南大井６丁目１８番１－１３１５号,,13,109,1400013,,,,,,,2024-12-13,1,,,,,エマージェント,0
835,4010903009570,新規,0,2024-12-13,2024-12-13,合同会社ＢＲＩＤＧＥ　ＡＣＴ,,合同会社,東京都,世田谷区,北烏山８丁目２４番３号,,13,112,1570061,,,,,,,2024-12-13,1,,,,,ブリッジアクト,0
855,4011101109824,新規,0,2024-12-13,2024-12-13,株式会社日本ＩＴサービス,,株式会社,東京都,新宿区,西新宿３丁目３－１３西新宿水間ビル６Ｆ,,13,104,1600023,,,,,,,2024-12-13,1,,,,,ニホンアイティーサービス,0
856,4011103015293,新規,0,2024-12-13,2024-12-13,志輝合同会社,,合同会社,東京都,新宿区,西新宿３丁目３番１３号西新宿水間ビル６階,,13,104,1600023,,,,,,,2024-12-13,1,,,,,シキ,0
858,4011301030227,新規,0,2024-12-13,2024-12-13,株式会社ＬＵＣＡ３,,株式会社,東京都,杉並区,今川３丁目１２番２０号,,13,115,1670035,,,,,,,2024-12-13,1,,,,,ルカサード,0
862,4011501031470,新規,0,2024-12-13,2024-12-13,日本ＩＨＳオフロード株式会社,,株式会社,東京都,北区,上十条５丁目４１－１５－２０２,,13,117,1140034,,,,,,,2024-12-13,1,,,,,ニホンアイエイチエスオフロード,0
865,4011801045294,新規,0,2024-12-13,2024-12-13,株式会社Ｇｌｏｂａｌ　Ｋ,,株式会社,東京都,葛飾区,立石３丁目３番５号,,13,122,1240012,,,,,,,2024-12-13,1,,,,,グローバルケイ,0
866,4012303002081,新規,0,2024-12-13,2024-12-13,合同会社ＮＥＴＰＡＮＡ,,合同会社,東京都,町田市,野津田町１４４０－９,,13,209,1950063,,,,,,,2024-12-13,1,,,,,ネットパナ,0
873,4013301053496,新規,0,2024-12-13,2024-12-13,株式会社坂口創造建設,,株式会社,東京都,豊島区,南池袋２丁目１２－５第三中野ビル７階Ａ号室,,13,116,1710022,,,,,,,2024-12-13,1,,,,,サカグチソウゾウケンセツ,0
878,4020001160515,新規,0,2024-12-13,2024-12-13,ｓｐａｒｋｉｎｇ株式会社,,株式会社,神奈川県,川崎市宮前区,鷺沼１丁目７－２－６０３,,14,136,2160004,,,,,,,2024-12-13,1,,,,,スパーキング,0
882,4020003027456,新規,0,2024-12-13,2024-12-13,合同会社Ｒｕｒｕ,,合同会社,神奈川県,横浜市中区,若葉町１丁目２番２号エステムプラザ横濱関内４１１,,14,104,2310056,,,,,,,2024-12-13,1,,,,,ルル,0
883,4020003027464,新規,0,2024-12-13,2024-12-13,合同会社飛鳥ホーム,,合同会社,神奈川県,横浜市保土ケ谷区,岩井町４７６番地８えるまやＢ１,,14,106,2400023,,,,,,,2024-12-13,1,,,,,アスカホーム,0
884,4020003027472,新規,0,2024-12-13,2024-12-13,港南介護サービス合同会社,,合同会社,神奈川県,横浜市港南区,芹が谷３丁目１９－１８,,14,111,2330006,,,,,,,2024-12-13,1,,,,,コウナンカイゴサービス,0
887,4021001083994,新規,0,2024-12-13,2024-12-13,Ｂｅｅ　Ｇｒｅｅｎｅ株式会社,,株式会社,神奈川県,横須賀市,久里浜７丁目３０番４号,,14,201,2390831,,,,,,,2024-12-13,1,,,,,ビーグリーン,0
903,4040001136554,新規,0,2024-12-13,2024-12-13,株式会社ＥＮＯＶＡエンターテイメント,,株式会社,千葉県,市川市,市川１丁目７番１５号,,12,203,2720034,,,,,,,2024-12-13,1,,,,,エノバエンターテイメント,0
904,4040001136562,新規,0,2024-12-13,2024-12-13,３Ｆ　ｆｒｏｍ　Ｋ株式会社,,株式会社,千葉県,松戸市,松戸１３０７－１松戸ビル１３Ｆ,,12,207,2710092,,,,,,,2024-12-13,1,,,,,スリーエフフロムケー,0
910,4090005007664,新規,0,2024-12-13,2024-12-13,一般社団法人生活環境改善協会,,その他の設立登記法人,山梨県,甲府市,国母７丁目５番１７号,,19,201,4000043,,,,,,,2024-12-13,1,,,,,セイカツカンキョウカイゼンキョウカイ,0
925,4120001271021,新規,0,2024-12-13,2024-12-13,幸福的餃子株式会社,,株式会社,大阪府,大阪市中央区,松屋町９番２０号ローレルステート松屋町３０６Ａ,,27,128,5420067,,,,,,,2024-12-13,1,,,,,コウフクテキギョウザ,0
926,4120001271054,新規,0,2024-12-13,2024-12-13,株式会社かきくけこっこ,,株式会社,大阪府,守口市,京阪北本通１－２０－１０２,,27,209,5700094,,,,,,,2024-12-13,1,,,,,カキクケコッコ,0
927,4120001271079,新規,0,2024-12-13,2024-12-13,株式会社左官屋,,株式会社,大阪府,守口市,春日町４－１２－３階,,27,209,5700055,,,,,,,2024-12-13,1,,,,,サカンヤ,0
947,4130003010079,新規,0,2024-12-13,2024-12-13,合同会社ＨＥＲＥＭＯＡＮＡ,,合同会社,京都府,京都市右京区,西院矢掛町１５番地,,26,108,6150024,,,,,,,2024-12-13,1,,,,,ヘレモアナ,0
957,4140001136668,新規,0,2024-12-13,2024-12-13,株式会社規格外,,株式会社,兵庫県,揖保郡太子町,東保３９８番地１０,,28,464,6711524,,,,,,,2024-12-13,1,,,,,キカクガイ,0
960,4140003021414,新規,0,2024-12-13,2024-12-13,合同会社ティーデスクスタイル,,合同会社,兵庫県,神戸市中央区,磯辺通１丁目１番１８号カサベラ国際プラザビル７０７号室,,28,110,6510084,,,,,,,2024-12-13,1,,,,,ティーデスクスタイル,0
966,4180001164491,新規,0,2024-12-13,2024-12-13,株式会社大嶽設備,,株式会社,愛知県,名古屋市守山区,向台２丁目１５０１番地の２,,23,113,4630036,,,,,,,2024-12-13,1,,,,,オオタケセツビ,0
970,4180003027746,新規,0,2024-12-13,2024-12-13,合同会社ステラ．ｃｏｍ,,合同会社,愛知県,名古屋市天白区,植田２丁目１１１４番地,,23,116,4680051,,,,,,,2024-12-13,1,,,,,ステラドットコム,0
982,4230001020656,新規,0,2024-12-13,2024-12-13,株式会社デジタルレバレッジ,,株式会社,富山県,射水市,小林４３３番地,,16,211,9390288,,,,,,,2024-12-13,1,,,,,デジタルレバレッジ,0
983,4230003002347,新規,0,2024-12-13,2024-12-13,ＳＡＫＵＲＡ　ＷＩＮＧＳ合同会社,,合同会社,富山県,射水市,かもめ台１４１番地,,16,211,9330240,,,,,,,2024-12-13,1,,,,,サクラウィングス,0
995,4290001108181,新規,0,2024-12-13,2024-12-13,株式会社ボヌール,,株式会社,福岡県,福岡市中央区,平尾浄水町４番３６号,,40,133,8100029,,,,,,,2024-12-13,1,,,,,ボヌール,0
1004,4290003016176,新規,0,2024-12-13,2024-12-13,ＡＬＬ合同会社,,合同会社,福岡県,福岡市東区,原田１丁目２２番４０号,,40,131,8120063,,,,,,,2024-12-13,1,,,,,オール,0
1007,4300001014007,新規,0,2024-12-13,2024-12-13,株式会社ソノリク水産,,株式会社,佐賀県,鳥栖市,姫方町１６６０番地,,41,203,8410023,,,,,,,2024-12-13,1,,,,,ソノリクスイサン,0
1011,4330003010678,新規,0,2024-12-13,2024-12-13,福祉タクシー山椒会合同会社,,合同会社,熊本県,上益城郡益城町,大字惣領１６７８番地１２,,43,443,8612233,,,,,,,2024-12-13,1,,,,,フクシタクシーサンショウカイ,0
1012,4350005006276,新規,0,2024-12-13,2024-12-13,社会保険労務士法人ＬｉＢ,,その他の設立登記法人,宮崎県,小林市,細野４５１番地６,,45,205,8860004,,,,,,,2024-12-13,1,,,,,リブ,0
1020,4410001014012,新規,0,2024-12-13,2024-12-13,エヌケー企画株式会社,,株式会社,秋田県,山本郡三種町,上岩川字二本杉９１番地,,05,348,0182101,,,,,,,2024-12-13,1,,,,,エヌケーキカク,0
1025,4430001093194,新規,0,2024-12-13,2024-12-13,株式会社ハイウィンド,,株式会社,北海道,札幌市西区,八軒五条東４丁目１番１号,,01,107,0630865,,,,,,,2024-12-13,1,,,,,ハイウィンド,0
1026,4430001093269,新規,0,2024-12-13,2024-12-13,株式会社ＴＩＭＥＣＨＡ,,株式会社,北海道,札幌市手稲区,曙七条３丁目１番８号,00137331,01,109,0060837,,,,,,,2024-12-13,1,,,,,ティーメカ,0
1030,4430005015120,新規,0,2024-12-13,2024-12-13,一般社団法人愛育協会,,その他の設立登記法人,北海道,登別市,新生町４丁目２３番地３６,,01,230,0590032,,,,,,,2024-12-13,1,,,,,アイイクキョウカイ,0
1057,5010003045623,新規,0,2024-12-13,2024-12-13,合同会社雅逸堂・隆基開発,,合同会社,東京都,千代田区,神田佐久間町３丁目２８番地５階,,13,101,1010025,,,,,,,2024-12-13,1,,,,,ガイツドウリュウキカイハツ,0
1060,5010101016451,新規,0,2024-12-13,2024-12-13,広兼貿易株式会社,,株式会社,東京都,八王子市,東町１２番８号長澤ビル５階２４室,,13,201,1920082,,,,,,,2024-12-13,1,,,,,ヒロカネボウエキ,0
1069,5010401186878,新規,0,2024-12-13,2024-12-13,株式会社キッズジャパン,,株式会社,東京都,港区,虎ノ門１丁目１７番１号虎ノ門ヒルズビジネスタワー,,13,103,1050001,,,,,,,2024-12-13,1,,,,,キッズジャパン,0
1084,5011001166320,新規,0,2024-12-13,2024-12-13,株式会社サイニー,,株式会社,東京都,渋谷区,渋谷２丁目１９番１５号宮益坂ビルディング６０９,,13,113,1500002,,,,,,,2024-12-13,1,,,,,サイニー,0
1085,5011001166510,新規,0,2024-12-13,2024-12-13,Ｈｏｄａｒａ　Ｉｎｔｅｒｎａｔｉｏｎａｌ株式会社,,株式会社,東京都,渋谷区,富ヶ谷１丁目１２番７号タムラビル１０１,,13,113,1510063,,,,,,,2024-12-13,1,,,,,ホダラインターナショナル,0
1087,5011103015284,新規,0,2024-12-13,2024-12-13,合同会社ネクステージＧＰファンド,,合同会社,東京都,新宿区,高田馬場２丁目１６番１１号高田馬場２１６ビル７階,,13,104,1690075,,,,,,,2024-12-13,1,,,,,ネクステージジーピーファンド,0
1092,5011301030226,新規,0,2024-12-13,2024-12-13,株式会社Ｆｕｍｏｎ　ＩＴ　Ｓｙｓｔｅｍｓ,,株式会社,東京都,杉並区,和田２丁目７番１号,,13,115,1660012,,,,,,,2024-12-13,1,,,,,フモンアイティーシステムズ,0
1094,5011401026628,新規,0,2024-12-13,2024-12-13,株式会社ゆめ興産,,株式会社,東京都,板橋区,常盤台１丁目５番５号２階,,13,119,1740071,,,,,,,2024-12-13,1,,,,,ユメコウサン,0
1096,5011403004573,新規,0,2024-12-13,2024-12-13,ゆかり相続コンサルティング合同会社,,合同会社,東京都,板橋区,大山東町２４番１０号松沢ビル２０１号,,13,119,1730014,,,,,,,2024-12-13,1,,,,,ユカリソウゾクコンサルティング,0
1097,5011601028275,新規,0,2024-12-13,2024-12-13,株式会社ＥＴｅｃｏ,,株式会社,東京都,練馬区,関町北１丁目１－４０－Ｂ１,,13,120,1770051,,,,,,,2024-12-13,1,,,,,エテコ,0
1102,5011801045293,新規,0,2024-12-13,2024-12-13,株式会社小倉屋,,株式会社,東京都,足立区,西新井７丁目９番１号,,13,121,1230841,,,,,,,2024-12-13,1,,,,,オグラヤ,0
1104,5013301053504,新規,0,2024-12-13,2024-12-13,株式会社Ｎフラット,,株式会社,東京都,豊島区,千川１丁目２６番６号,,13,116,1710041,,,,,,,2024-12-13,1,,,,,エヌフラット,0
1113,5020001160547,新規,0,2024-12-13,2024-12-13,株式会社Ｃｈｉｆｆｏｎｓ　Ｃｈｅｒｓ,,株式会社,神奈川県,川崎市高津区,久地１丁目７－４－２０２,,14,134,2130032,,,,,,,2024-12-13,1,,,,,シフォンシェール,0
1114,5020001160571,新規,0,2024-12-13,2024-12-13,株式会社言の葉国語教室,,株式会社,神奈川県,横浜市青葉区,つつじが丘２３－９サンモール青葉台１０６,,14,117,2270055,,,,,,,2024-12-13,1,,,,,コトノハコクゴキョウシツ,0
1117,5020005016646,新規,0,2024-12-13,2024-12-13,医療法人社団Ｎｏｃ,,その他の設立登記法人,神奈川県,川崎市多摩区,登戸２４２７番地５メディカルプレイスタナカ４階,,14,135,2140014,,,,,,,2024-12-13,1,,,,,エヌオーシー,0
1124,5021003015342,新規,0,2024-12-13,2024-12-13,エイチ合同会社,,合同会社,神奈川県,茅ヶ崎市,東海岸南１丁目１３番１１号,,14,207,2530054,,,,,,,2024-12-13,1,,,,,エイチ,0
1129,5030001163929,新規,0,2024-12-13,2024-12-13,株式会社Ｋｓ，ＳＴＹＬＥ,,株式会社,埼玉県,所沢市,松葉町１番５号新所沢エーシービル２０１,,11,208,3590044,,,,,,,2024-12-13,1,,,,,ケーズスタイル,0
1130,5030001163937,新規,0,2024-12-13,2024-12-13,株式会社Ａｕｔｏ　Ｋｌｉｐ,,株式会社,埼玉県,川越市,大字山田１６２１－１モンドビル２Ｆ,,11,201,3500822,,,,,,,2024-12-13,1,,,,,オートクリップ,0
1137,5040001136545,新規,0,2024-12-13,2024-12-13,株式会社子富,,株式会社,千葉県,浦安市,堀江３丁目２６番６号,,12,227,2790041,,,,,,,2024-12-13,1,,,,,コトミ,0
1153,5080403005162,新規,0,2024-12-13,2024-12-13,合同会社チャオランド,,合同会社,静岡県,浜松市中央区,若林町２６００番地の１,,22,138,4328051,,,,,,,2024-12-13,1,,,,,チャオランド,0
1154,5090001019043,新規,0,2024-12-13,2024-12-13,株式会社ＥＩＧＨＴ,,株式会社,山梨県,笛吹市,石和町川中島４１７番地６,,19,211,4060024,,,,,,,2024-12-13,1,,,,,エイト,0
1169,5120001270757,新規,0,2024-12-13,2024-12-13,＿永瀾株式会社,00137322,株式会社,大阪府,大阪市城東区,関目５丁目１９番９号関目花博公館５１２Ｂ,,27,118,5360008,,,,,,,2024-12-13,1,,,,,キンヨウラン,0
1170,5120001271020,新規,0,2024-12-13,2024-12-13,日本佳沛株式会社,,株式会社,大阪府,大阪市中央区,松屋町９番２０号ローレルステート松屋町７０８Ｂ,,27,128,5420067,,,,,,,2024-12-13,1,,,,,ニホンカハイ,0
1171,5120001271045,新規,0,2024-12-13,2024-12-13,株式会社Ｄｏｌｌｙ,,株式会社,大阪府,大阪市都島区,片町２丁目５番６－３０７号,,27,102,5340025,,,,,,,2024-12-13,1,,,,,ドリー,0
1172,5120001271094,新規,0,2024-12-13,2024-12-13,株式会社Ｍｅａｌ　Ｌｉｎｋｓ,,株式会社,大阪府,大阪市鶴見区,今津北３丁目５番２０号,,27,124,5380041,,,,,,,2024-12-13,1,,,,,ミールリンクス,0
1188,5130001078324,新規,0,2024-12-13,2024-12-13,株式会社Ｒｅ．ｃｏｍｅ,,株式会社,京都府,京都市下京区,七条通油小路東入大黒町２２７番地第２キョートビル４０２,,26,106,6008223,,,,,,,2024-12-13,1,,,,,リケイム,0
1190,5130003010078,新規,0,2024-12-13,2024-12-13,合同会社バリュー・アップ,,合同会社,京都府,京都市下京区,玉津島町２９４,,26,106,6008427,,,,,,,2024-12-13,1,,,,,バリューアップ,0
1201,5180001164490,新規,0,2024-12-13,2024-12-13,株式会社Ｋ．ＩＮＮＯＶＡＴＩＯＮ,,株式会社,愛知県,名古屋市西区,那古野１丁目３４番３６号,,23,104,4510042,,,,,,,2024-12-13,1,,,,,ケーイノベーション,0
1202,5180001164516,新規,0,2024-12-13,2024-12-13,ＬｉｎＱｓ株式会社,,株式会社,愛知県,豊明市,三崎町中ノ坪２７番地３４,,23,229,4701125,,,,,,,2024-12-13,1,,,,,リンクス,0
1229,5290003016167,新規,0,2024-12-13,2024-12-13,Ａｓｅｒｒａ合同会社,,合同会社,福岡県,福岡市早良区,百道浜３丁目９番３３－１４０９号グランドメゾン百道浜オーシャン＆フォレスト,,40,137,8140001,,,,,,,2024-12-13,1,,,,,アセラ,0
1230,5290003016175,新規,0,2024-12-13,2024-12-13,バニヤン合同会社,,合同会社,福岡県,福岡市中央区,舞鶴２丁目２番３号８階,,40,133,8100073,,,,,,,2024-12-13,1,,,,,バニヤン,0
1233,5320005010206,新規,0,2024-12-13,2024-12-13,一般社団法人国東社中,,その他の設立登記法人,大分県,国東市,国東町浜４８８５番地３,,44,214,8721651,,,,,,,2024-12-13,1,,,,,クニサキシャチュウ,0
1242,5390003002322,新規,0,2024-12-13,2024-12-13,合同会社ｍａｒｕｗａ　ｃｏｍｐａｎｙ,,合同会社,山形県,上山市,旭町２丁目９番１号,,06,207,9993106,,,,,,,2024-12-13,1,,,,,マルワカンパニー,0
1253,5460301005259,新規,0,2024-12-13,2024-12-13,ＥＬＥＶＥＮ株式会社,,株式会社,北海道,北見市,山下町１丁目２番１０コーポチロル３－３号,,01,208,0900037,,,,,,,2024-12-13,1,,,,,イレブン,0
1267,6010001250711,新規,0,2024-12-13,2024-12-13,株式会社ノーイス,,株式会社,東京都,千代田区,一番町５－１９,,13,101,1020082,,,,,,,2024-12-13,1,,,,,ノーイス,0
1268,6010001250736,新規,0,2024-12-13,2024-12-13,株式会社ＷＡＷＡＷＡ,,株式会社,東京都,中央区,銀座１丁目１２番４号Ｎ＆ＥＢＬＤ．６Ｆ,,13,102,1040061,,,,,,,2024-12-13,1,,,,,ワワワ,0
1274,6010003045779,新規,0,2024-12-13,2024-12-13,合同会社Ｄｒｅａｍ　Ｔｅｃｈ,,合同会社,東京都,中央区,日本橋１丁目２番１０号東洋ビル３階１０３号室,,13,102,1030027,,,,,,,2024-12-13,1,,,,,ドリームテック,0
1275,6010003045795,新規,0,2024-12-13,2024-12-13,Ａｎｓｏｉｎ合同会社,,合同会社,東京都,千代田区,神田三崎町２丁目１０－１１（Ｐｅｇビル）５Ａ－１号室,,13,101,1010061,,,,,,,2024-12-13,1,,,,,アンソン,0
1285,6010403033953,新規,0,2024-12-13,2024-12-13,Ｔｈｅ　Ｂａｕｈｉｎｉａ　Ｈｏｔｅｌｓ　Ｇｒｏｕｐ　Ｊａｐａｎ５合同会社,,合同会社,東京都,港区,赤坂３丁目２番２号日総第２４ビル,,13,103,1070052,,,,,,,2024-12-13,1,,,,,ザバウヒニアホテルズグループジャパンファイブ,0
1286,6010403034002,新規,0,2024-12-13,2024-12-13,合同会社ＳＦ２号,,合同会社,東京都,港区,西新橋１丁目２番９号メンターキャピタル税理士法人内,,13,103,1050003,,,,,,,2024-12-13,1,,,,,エスエフニゴウ,0
1289,6010503007659,新規,0,2024-12-13,2024-12-13,映縁合同会社,,合同会社,東京都,台東区,蔵前３丁目２１番１－１１０８号,,13,106,1110051,,,,,,,2024-12-13,1,,,,,エイエン,0
1297,6010801035659,新規,0,2024-12-13,2024-12-13,株式会社ＦＨＡＮＯＵ,,株式会社,東京都,大田区,久が原２丁目１２－１２ブランシエスタ久が原７０７,,13,111,1460085,,,,,,,2024-12-13,1,,,,,ファーナウ,0
1300,6010903009569,新規,0,2024-12-13,2024-12-13,合同会社ＴＨＡＭＥＳ,,合同会社,東京都,世田谷区,喜多見５丁目１５番１４号,,13,112,1570067,,,,,,,2024-12-13,1,,,,,テムズ,0
1303,6011001166245,新規,0,2024-12-13,2024-12-13,株式会社ＢＥＹＯＮＤ　Ｌｕｎｅ,,株式会社,東京都,渋谷区,道玄坂１丁目１６－６二葉ビル８ｂ,,13,113,1500043,,,,,,,2024-12-13,1,,,,,ビヨンドルーン,0
1304,6011001166261,新規,0,2024-12-13,2024-12-13,Ｆ　ｆｅｃｔ．ｆ株式会社,,株式会社,東京都,目黒区,緑が丘１丁目１８番１７号,,13,110,1520034,,,,,,,2024-12-13,1,,,,,エフフェクトエフ,0
1305,6011001166492,新規,0,2024-12-13,2024-12-13,株式会社ビー・リード,,株式会社,東京都,目黒区,原町２丁目１２番２号,,13,110,1520011,,,,,,,2024-12-13,1,,,,,ビーリード,0
1306,6011003020557,新規,0,2024-12-13,2024-12-13,Ａｇｉｌｉｆｙ合同会社,,合同会社,東京都,渋谷区,渋谷２丁目１９－１５宮益坂ビルディング６０９,,13,113,1500002,,,,,,,2024-12-13,1,,,,,アジリファイ,0
1311,6011101109905,新規,0,2024-12-13,2024-12-13,株式会社Ｔ・Ｉ　Ｃｏｍｐａｎｙ,,株式会社,東京都,新宿区,西新宿２丁目６番１号,,13,104,1600023,,,,,,,2024-12-13,1,,,,,ティーアイカンパニー,0
1313,6011201025993,新規,0,2024-12-13,2024-12-13,株式会社金舞台,,株式会社,東京都,中野区,中野６丁目２８－７一和園ビル３０２,,13,114,1640001,,,,,,,2024-12-13,1,,,,,キンブタイ,0
1318,6011401026651,新規,0,2024-12-13,2024-12-13,株式会社はなとら,,株式会社,東京都,板橋区,板橋３丁目１６番１１号,,13,119,1730004,,,,,,,2024-12-13,1,,,,,ハナトラ,0
1321,6011503006337,新規,0,2024-12-13,2024-12-13,Ａｌｌ　Ｉｎ　Ｓｕｐｐｏｒｔ合同会社,,合同会社,東京都,北区,中里１丁目３番地３－３０１号,,13,117,1140015,,,,,,,2024-12-13,1,,,,,オールインサポート,0
1329,6013301053503,新規,0,2024-12-13,2024-12-13,株式会社ＭＥＮＵ,,株式会社,東京都,豊島区,巣鴨５丁目２６番１号,,13,116,1700002,,,,,,,2024-12-13,1,,,,,メニュー,0
1338,6020001160562,新規,0,2024-12-13,2024-12-13,ＳａｇｅＨｏｒｓｅ株式会社,,株式会社,神奈川県,横浜市青葉区,荏田町２７番地４メゾンドアンジュ３０２,,14,117,2250013,,,,,,,2024-12-13,1,,,,,セージホース,0
1339,6020001160570,新規,0,2024-12-13,2024-12-13,株式会社そうぶエレベーター,,株式会社,神奈川県,横浜市緑区,西八朔町３８番地３６,,14,113,2260024,,,,,,,2024-12-13,1,,,,,ソウブエレベーター,0
1345,6020003027454,新規,0,2024-12-13,2024-12-13,エフティーエム合同会社,,合同会社,神奈川県,横浜市緑区,十日市場町８６７番地３プレベールカデット１０６,,14,113,2260025,,,,,,,2024-12-13,1,,,,,エフティーエム,0
1347,6020005016629,新規,0,2024-12-13,2024-12-13,行政書士法人ＢＥＮＣＨＷＯＲＫ５０,,その他の設立登記法人,神奈川県,横浜市港北区,新横浜３丁目７番地７新横浜アリーナ通りビル３Ｆ,,14,109,2220033,,,,,,,2024-12-13,1,,,,,ベンチワークフィフティ,0
1351,6030001163928,新規,0,2024-12-13,2024-12-13,株式会社二鷹リアルエステート,,株式会社,埼玉県,さいたま市緑区,原山１丁目１４番３号,,11,109,3360931,,,,,,,2024-12-13,1,,,,,ニタカリアルエステート,0
1357,6040001136552,新規,0,2024-12-13,2024-12-13,株式会社朔天,,株式会社,千葉県,流山市,加２丁目４番地の５,,12,220,2700176,,,,,,,2024-12-13,1,,,,,サクタカ,0
1358,6040001136585,新規,0,2024-12-13,2024-12-13,オリパスター株式会社,,株式会社,千葉県,流山市,おおたかの森北１丁目４―１―３１１,,12,220,2700119,,,,,,,2024-12-13,1,,,,,オリパスター,0
1365,6050001055883,新規,0,2024-12-13,2024-12-13,株式会社オフィスホリー,,株式会社,茨城県,つくば市,吾妻４丁目６番地１ＯＳＩつくば吾妻ＩＩＩ２１０号,00137330,08,220,3050031,,,,,,,2024-12-13,1,,,,,オフィスホリー,0
1372,6080003003350,新規,0,2024-12-13,2024-12-13,合同会社ＳＰＣ,,合同会社,静岡県,焼津市,小屋敷２２の６番地エンブルステーション西焼津５０１号,,22,212,4250076,,,,,,,2024-12-13,1,,,,,エスピーシー,0
1378,6080403005161,新規,0,2024-12-13,2024-12-13,ＡＳ　ＧＬＯＢＡＬ　ＳＹＳＴＥＭ合同会社,,合同会社,静岡県,浜松市中央区,大原町３２０－３,,22,138,4338102,,,,,,,2024-12-13,1,,,,,エーエスグローバルシステム,0
1403,6120001270855,新規,0,2024-12-13,2024-12-13,＿＿口袋株式会社,00137323,株式会社,大阪府,大阪市城東区,関目５丁目１９番９号関目花博公館４０６Ａ,,27,118,5360008,,,,,,,2024-12-13,1,,,,,シロウコウタイ,0
1404,6120001271011,新規,0,2024-12-13,2024-12-13,光織株式会社,,株式会社,大阪府,大阪市中央区,島之内１丁目３番１１－７０４号,,27,128,5420082,,,,,,,2024-12-13,1,,,,,ミオリウ,0
1405,6120001271060,新規,0,2024-12-13,2024-12-13,ＥＵビューティー株式会社,,株式会社,大阪府,大阪市旭区,高殿１丁目８番２１号,,27,117,5350031,,,,,,,2024-12-13,1,,,,,イーユービューティー,0
1406,6120001271085,新規,0,2024-12-13,2024-12-13,株式会社ＮＷ・Ｃａｐｉｔａｌ,,株式会社,大阪府,大阪市西区,京町堀３丁目１番３－７０４号,,27,106,5500003,,,,,,,2024-12-13,1,,,,,エヌダブリューキャピタル,0
1407,6120003028153,新規,0,2024-12-13,2024-12-13,合同会社ＫＯＧＥＩ,,合同会社,大阪府,大阪市中央区,南船場２丁目２番１３－９０９号,,27,128,5420081,,,,,,,2024-12-13,1,,,,,コーゲイ,0
1408,6120005024654,新規,0,2024-12-13,2024-12-13,特定非営利活動法人アユラ,,その他の設立登記法人,大阪府,大阪市住吉区,東粉浜２丁目１５番１号,,27,120,5580051,,,,,,,2024-12-13,1,,,,,アユラ,0
1414,6120901050167,新規,0,2024-12-13,2024-12-13,株式会社ＦＡ,,株式会社,大阪府,茨木市,彩都あさぎ１丁目３－６－３２５シエリア彩都,,27,211,5670085,,,,,,,2024-12-13,1,,,,,エフエー,0
1416,6130001078579,新規,0,2024-12-13,2024-12-13,株式会社Ａ‐ＲＡＴＡ,,株式会社,京都府,向日市,物集女町南条３番地の２カサ・フィレンツェ１０３,,26,208,6170001,,,,,,,2024-12-13,1,,,,,アラタ,0
1417,6130001078595,新規,0,2024-12-13,2024-12-13,株式会社リーガルリアルエステート,,株式会社,京都府,京都市中京区,三条通烏丸西入御倉町８５番地１ＫＤＸ烏丸ビル４階,,26,104,6048166,,,,,,,2024-12-13,1,,,,,リーガルリアルエステート,0
1424,6140001136724,新規,0,2024-12-13,2024-12-13,株式会社ＹＰ,,株式会社,兵庫県,神戸市北区,山田町小部字大東１番地の１シャンブレ古志根２Ｄ号室,,28,109,6511101,,,,,,,2024-12-13,1,,,,,ワイピー,0
1432,6180001164507,新規,0,2024-12-13,2024-12-13,株式会社ゆらゆらり,,株式会社,愛知県,日進市,香久山１丁目３４０４番地良仙２０１,,23,230,4700134,,,,,,,2024-12-13,1,,,,,ユラユラリ,0
1436,6180003027736,新規,0,2024-12-13,2024-12-13,合同会社ＴＭＳ,,合同会社,愛知県,名古屋市名東区,社が丘４丁目８０４番地の５,,23,115,4650051,,,,,,,2024-12-13,1,,,,,ティーエムエス,0
1441,6190003004882,新規,0,2024-12-13,2024-12-13,合同会社栞,,合同会社,三重県,津市,上浜町４丁目２７番地９０,,24,201,5140008,,,,,,,2024-12-13,1,,,,,シオリ,0
1454,6240001064254,新規,0,2024-12-13,2024-12-13,株式会社ＨＳＰ,,株式会社,広島県,福山市,大門町大門１８９番地３,,34,207,7210921,,,,,,,2024-12-13,1,,,,,エイチエスピー,0
1464,6280001009305,新規,0,2024-12-13,2024-12-13,株式会社チップビーチ,,株式会社,島根県,大田市,仁摩町馬路１３９２番地,,32,205,6992304,,,,,,,2024-12-13,1,,,,,チップビーチ,0
1471,6290003016166,新規,0,2024-12-13,2024-12-13,合同会社ＪＡ　ＥＸＰＯＲＴ,,合同会社,福岡県,福岡市博多区,博多駅東１丁目１－３３－２ＥＤ５号室,,40,132,8120013,,,,,,,2024-12-13,1,,,,,ジェイエイエクスポート,0
1473,6300001014005,新規,0,2024-12-13,2024-12-13,株式会社Ｃａｒｉｎａ,,株式会社,佐賀県,佐賀市,鍋島３丁目６番９号,,41,201,8490937,,,,,,,2024-12-13,1,,,,,カリーナ,0
1474,6330001032706,新規,0,2024-12-13,2024-12-13,ロンクレア株式会社,,株式会社,熊本県,熊本市北区,徳王２丁目７－６６５－６６,,43,105,8615525,,,,,,,2024-12-13,1,,,,,ロンクレア,0
1497,6470001020498,新規,0,2024-12-13,2024-12-13,株式会社ＣｏＣＲＥ,,株式会社,香川県,三豊市,仁尾町仁尾丁１４５２番地３,,37,208,7691407,,,,,,,2024-12-13,1,,,,,コクリ,0
1513,7010001250578,新規,0,2024-12-13,2024-12-13,株式会社Ｃｏｍｕｎｉｉ,,株式会社,東京都,千代田区,神田和泉町１番地６－１６ヤマトビル４０５,,13,101,1010024,,,,,,,2024-12-13,1,,,,,コミュニー,0
1514,7010001250652,新規,0,2024-12-13,2024-12-13,福仕希ＦＬＡＩＸＩ株式会社,,株式会社,東京都,千代田区,神田佐久間町３丁目２８星野ビル四階８号室,,13,101,1010025,,,,,,,2024-12-13,1,,,,,フシキフライクシー,0
1515,7010001250702,新規,0,2024-12-13,2024-12-13,株式会社ＦＯＲＥＸ　ＡＣＡＤＥＭＹ,,株式会社,東京都,中央区,銀座１丁目１２番４号Ｎ＆Ｅ－ＢＬＤ．６Ｆ,,13,102,1040061,,,,,,,2024-12-13,1,,,,,フォレックスアカデミー,0
1516,7010001250727,新規,0,2024-12-13,2024-12-13,クラシックナナハチ株式会社,,株式会社,東京都,中央区,勝どき６丁目３番１－５１１１号,,13,102,1040054,,,,,,,2024-12-13,1,,,,,クラシックナナハチ,0
1526,7010103002472,新規,0,2024-12-13,2024-12-13,らいふのーと合同会社,,合同会社,東京都,八王子市,新町２－５コスモリード八王子１Ｆ,,13,201,1920065,,,,,,,2024-12-13,1,,,,,ライフノート,0
1532,7010401187008,新規,0,2024-12-13,2024-12-13,株式会社Ｍｅｄｌｉｎｋ,,株式会社,東京都,港区,白金６丁目２－６－２Ｆ,,13,103,1080072,,,,,,,2024-12-13,1,,,,,メドリンク,0
1533,7010401187040,新規,0,2024-12-13,2024-12-13,ＩＫＺＯ株式会社,,株式会社,東京都,港区,芝５丁目１６－５クリオ三田ラ・モード１１０５,,13,103,1080014,,,,,,,2024-12-13,1,,,,,イクゾ,0
1540,7010703007499,新規,0,2024-12-13,2024-12-13,Ｐ＆Ｓ合同会社,,合同会社,東京都,品川区,北品川５丁目１２番１５－３０５号,,13,109,1410001,,,,,,,2024-12-13,1,,,,,ピーアンドエス,0
1542,7010805003149,新規,0,2024-12-13,2024-12-13,アライン税理士法人,,その他の設立登記法人,東京都,大田区,大森北１丁目５番１号,,13,111,1430016,,,,,,,2024-12-13,1,,,,,アライン,0
1553,7011001166293,新規,0,2024-12-13,2024-12-13,オルニ株式会社,,株式会社,東京都,渋谷区,道玄坂１丁目１０番８号渋谷道玄坂東急ビル２Ｆ－Ｃ,,13,113,1500043,,,,,,,2024-12-13,1,,,,,オルニ,0
1554,7011001166541,新規,0,2024-12-13,2024-12-13,株式会社ＭａｒｋＥｄｇｅ,,株式会社,東京都,渋谷区,本町３丁目５１番１７‐５０８プラウド渋谷本町,,13,113,1510071,,,,,,,2024-12-13,1,,,,,マークエッジ,0
1562,7011101109904,新規,0,2024-12-13,2024-12-13,株式会社ＲＥＲＩＳＥアセット,,株式会社,東京都,新宿区,西新宿３丁目７番１号新宿パークタワー３０階,,13,104,1600023,,,,,,,2024-12-13,1,,,,,リライズアセット,0
1566,7011303005364,新規,0,2024-12-13,2024-12-13,合同会社アギィ,,合同会社,東京都,杉並区,成田西１丁目１６番２号,,13,115,1660016,,,,,,,2024-12-13,1,,,,,アギィ,0
1567,7011401026642,新規,0,2024-12-13,2024-12-13,株式会社ＯＨＡＮＡ,,株式会社,東京都,板橋区,大山東町６０－６,,13,119,1730014,,,,,,,2024-12-13,1,,,,,オハナ,0
1570,7011501031476,新規,0,2024-12-13,2024-12-13,星晨株式会社,,株式会社,東京都,荒川区,町屋３丁目１－１３－４０２,,13,118,1160001,,,,,,,2024-12-13,1,,,,,セイシン,0
1571,7011503006336,新規,0,2024-12-13,2024-12-13,合同会社エスプラス,,合同会社,東京都,荒川区,西日暮里２丁目５３番２号アウルム日暮里１０１,,13,118,1160013,,,,,,,2024-12-13,1,,,,,エスプラス,0
1574,7012301014191,新規,0,2024-12-13,2024-12-13,ＧａＲＤｅＮ株式会社,,株式会社,東京都,町田市,森野４丁目２番１６号,,13,209,1940022,,,,,,,2024-12-13,1,,,,,ガーデン,0
1576,7012803003568,新規,0,2024-12-13,2024-12-13,合同会社ＡＲＡＴＡ,,合同会社,東京都,昭島市,中神町１２４４番地１２,,13,207,1960022,,,,,,,2024-12-13,1,,,,,アラタ,0
1585,7020001160553,新規,0,2024-12-13,2024-12-13,Ｆｏｏｄａｍｅｎｔａｌ株式会社,,株式会社,神奈川県,横浜市西区,浅間町１丁目４番３号ウィザードビル４０２,,14,103,2200072,,,,,,,2024-12-13,1,,,,,フーダメンタル,0
1601,7030001163943,新規,0,2024-12-13,2024-12-13,小川町有機農業生産組合株式会社,,株式会社,埼玉県,比企郡小川町,大字大塚９４５番地２８あかつき荘１０１,,11,343,3550328,,,,,,,2024-12-13,1,,,,,オガワマチユウキノウギョウセイサンクミアイ,0
1602,7030001163951,新規,0,2024-12-13,2024-12-13,株式会社クリック,,株式会社,埼玉県,越谷市,北越谷５丁目４－６１－１ラウレア北越谷１０１号室,,11,222,3430026,,,,,,,2024-12-13,1,,,,,クリック,0
1611,7040001136551,新規,0,2024-12-13,2024-12-13,株式会社家造,,株式会社,千葉県,白井市,根１７１０番地１,,12,232,2701431,,,,,,,2024-12-13,1,,,,,イエゾウ,0
1615,7040003026387,新規,0,2024-12-13,2024-12-13,合同会社フルール・アカウンティング,,合同会社,千葉県,八千代市,緑が丘西５丁目１８番地７,,12,221,2760040,,,,,,,2024-12-13,1,,,,,フルールアカウンティング,0
1619,7040005022599,新規,0,2024-12-13,2024-12-13,一般社団法人公園未来プロジェクト,,その他の設立登記法人,千葉県,市原市,ちはら台西３丁目３,,12,219,2900143,,,,,,,2024-12-13,1,,,,,コウエンミライプロジェクト,0
1647,7120001271019,新規,0,2024-12-13,2024-12-13,智賦株式会社,,株式会社,大阪府,大阪市城東区,関目５丁目１９番９号関目花博公館４０６Ｂ,,27,118,5360008,,,,,,,2024-12-13,1,,,,,チフ,0
1648,7120001271035,新規,0,2024-12-13,2024-12-13,天宇株式会社,,株式会社,大阪府,大阪市中央区,南船場１丁目１０番１２号,,27,128,5420081,,,,,,,2024-12-13,1,,,,,テンウ,0
1649,7120001271051,新規,0,2024-12-13,2024-12-13,ＣＩＥＬ　ＭＩＹＡ株式会社,,株式会社,大阪府,大阪市北区,天満２丁目７番２８号,,27,127,5300043,,,,,,,2024-12-13,1,,,,,シエルミヤ,0
1650,7120001271076,新規,0,2024-12-13,2024-12-13,株式会社ＦＦ１１,,株式会社,大阪府,大阪市西区,江戸堀２丁目６番２５－１０５号,,27,106,5500002,,,,,,,2024-12-13,1,,,,,エフエフイレブン,0
1651,7120001271159,新規,0,2024-12-13,2024-12-13,ＡＩリサーチジャパン株式会社,,株式会社,大阪府,大阪市北区,梅田１丁目１‐３大阪駅前第３ビル２９階１‐１‐１,,27,127,5300001,,,,,,,2024-12-13,1,,,,,エーアイリサーチジャパン,0
1659,7120005024653,新規,0,2024-12-13,2024-12-13,一般社団法人Ｐａｒｏｍａ,,その他の設立登記法人,大阪府,大阪市阿倍野区,晴明通６番２３号,,27,119,5450032,,,,,,,2024-12-13,1,,,,,パロマ,0
1670,7130001078578,新規,0,2024-12-13,2024-12-13,株式会社ロイヤルパレス,,株式会社,京都府,京都市上京区,宮垣町９１－まむあん荒神口１０２,,26,102,6020853,,,,,,,2024-12-13,1,,,,,ロイヤルパレス,0
1671,7130003010076,新規,0,2024-12-13,2024-12-13,エーアールエー合同会社,,合同会社,京都府,京都市中京区,蟷螂山町４５９－１－８０３,,26,104,6048225,,,,,,,2024-12-13,1,,,,,エーアールエー,0
1685,7180001164497,新規,0,2024-12-13,2024-12-13,朝宮アイデアル株式会社,,株式会社,愛知県,名古屋市西区,牛島町６－１名古屋ルーセントタワー４０階,,23,104,4510046,,,,,,,2024-12-13,1,,,,,アサミヤアイデアル,0
1686,7180001164514,新規,0,2024-12-13,2024-12-13,なかのや株式会社,,株式会社,愛知県,名古屋市昭和区,福江１丁目２番５号,,23,107,4660059,,,,,,,2024-12-13,1,,,,,ナカノヤ,0
1707,7220001026379,新規,0,2024-12-13,2024-12-13,株式会社ティエス,,株式会社,石川県,金沢市,小坂町中９１番地２,,17,201,9200811,,,,,,,2024-12-13,1,,,,,ティエス,0
1722,7290001108286,新規,0,2024-12-13,2024-12-13,株式会社アイユーエージェント,,株式会社,福岡県,福岡市博多区,博多駅東２丁目１０－１６川辺ビル４Ｆ,,40,132,8120013,,,,,,,2024-12-13,1,,,,,アイユーエージェント,0
1723,7290001108311,新規,0,2024-12-13,2024-12-13,株式会社ベロップ,,株式会社,福岡県,福岡市城南区,東油山１丁目８番２９－４０５号,,40,136,8140155,,,,,,,2024-12-13,1,,,,,ベロップ,0
1727,7290003016173,新規,0,2024-12-13,2024-12-13,合同会社ネオリアス,,合同会社,福岡県,福岡市博多区,三筑１丁目８番５－２０５号Ｇｒａｎｄｔｉｃルミエール,,40,132,8120887,,,,,,,2024-12-13,1,,,,,ネオリアス,0
1729,7290005019570,新規,0,2024-12-13,2024-12-13,一般社団法人尚真会のびっこらんど,,その他の設立登記法人,福岡県,八女市,鵜池１８３番地１,,40,210,8340055,,,,,,,2024-12-13,1,,,,,ショウシンカイノビッコランド,0
1736,7360001034541,新規,0,2024-12-13,2024-12-13,株式会社北谷企画,,株式会社,沖縄県,中頭郡北谷町,字伊平４１６番地６,,47,326,9040102,,,,,,,2024-12-13,1,,,,,チャタンキカク,0
1744,7380001034969,新規,0,2024-12-13,2024-12-13,中原石材店株式会社,,株式会社,福島県,田村郡小野町,大字小野新町字中通１２９番地,,07,522,9633401,,,,,,,2024-12-13,1,,,,,ナカハラセキザイテン,0
1757,7490001010918,新規,0,2024-12-13,2024-12-13,株式会社香美かほく,,株式会社,高知県,香南市,香我美町山北２５２２番地イ,,39,211,7815453,,,,,,,2024-12-13,1,,,,,カミカホク,0
1769,8010001250692,新規,0,2024-12-13,2024-12-13,株式会社ＰＯＬＡＲＩＳ,,株式会社,東京都,中央区,銀座１丁目７番１６号コミット銀座ビル,,13,102,1040061,,,,,,,2024-12-13,1,,,,,ポラリス,0
1770,8010001250742,新規,0,2024-12-13,2024-12-13,株式会社ＢＣＪ‐９２,,株式会社,東京都,千代田区,丸の内１丁目１番１号パレスビル５階,,13,101,1000005,,,,,,,2024-12-13,1,,,,,ビーシージェイナインティーツー,0
1785,8010003045744,新規,0,2024-12-13,2024-12-13,Ｇｏｌｄｗｅｌｌ　Ｇｒｕｐｐｏ合同会社,,合同会社,東京都,中央区,銀座１丁目１２－４Ｎ＆Ｅ－ＢＬＤ．７階,,13,102,1040061,,,,,,,2024-12-13,1,,,,,ゴールドウェルグルーポ,0
1786,8010003045769,新規,0,2024-12-13,2024-12-13,４ｒｅｓｔ合同会社,,合同会社,東京都,中央区,銀座１丁目２２番１１号銀座大竹ビジデンス２Ｆ,,13,102,1040061,,,,,,,2024-12-13,1,,,,,フォーレスト,0
1789,8010101016449,新規,0,2024-12-13,2024-12-13,株式会社Ｘｅｎｏ,,株式会社,東京都,八王子市,上壱分方町２２６－３,,13,201,1930811,,,,,,,2024-12-13,1,,,,,ゼノ,0
1801,8010403034000,新規,0,2024-12-13,2024-12-13,合同会社ＹＲＭ,,合同会社,東京都,港区,赤坂５丁目３番３－７０２号,,13,103,1070052,,,,,,,2024-12-13,1,,,,,ワイアールエム,0
1817,8011001166235,新規,0,2024-12-13,2024-12-13,株式会社オーカー,,株式会社,東京都,目黒区,柿の木坂１丁目２６番２号,,13,110,1520022,,,,,,,2024-12-13,1,,,,,オーカー,0
1822,8011101109928,新規,0,2024-12-13,2024-12-13,株式会社ＷＩＮＧ,,株式会社,東京都,新宿区,北新宿１丁目１番１６号ＪＳビル５０３,,13,104,1690074,,,,,,,2024-12-13,1,,,,,ウイング,0
1823,8011103015281,新規,0,2024-12-13,2024-12-13,Ｇｒｅｅｎｓ合同会社,,合同会社,東京都,新宿区,上落合２丁目１４－１０ラ・セルジュ新宿落合１０４,,13,104,1610034,,,,,,,2024-12-13,1,,,,,グリーンズ,0
1825,8011303005363,新規,0,2024-12-13,2024-12-13,合同会社ＵＮｉｉＫ,,合同会社,東京都,杉並区,成田西４丁目６番３０号,,13,115,1660016,,,,,,,2024-12-13,1,,,,,ユニーク,0
1830,8011501031483,新規,0,2024-12-13,2024-12-13,株式会社アイノリ,,株式会社,東京都,荒川区,荒川３丁目６－４ハイシティー日暮里東４０２,,13,118,1160002,,,,,,,2024-12-13,1,,,,,アイノリ,0
1831,8011503006277,新規,0,2024-12-13,2024-12-13,ひえもん本舗合同会社,,合同会社,東京都,北区,豊島５丁目５番６号６号棟１１５,,13,117,1140003,,,,,,,2024-12-13,1,,,,,ヒエモンホンポ,0
1832,8011505002662,新規,0,2024-12-13,2024-12-13,一般社団法人Ｂｅａｔ‐Ｏｎｅ,,その他の設立登記法人,東京都,荒川区,西日暮里２丁目４９－５光工芸社ビル４階,,13,118,1160013,,,,,,,2024-12-13,1,,,,,,0
1834,8011703004056,新規,0,2024-12-13,2024-12-13,合同会社柏,,合同会社,東京都,江戸川区,鹿骨１丁目３１番１６号,,13,123,1330073,,,,,,,2024-12-13,1,,,,,カシワ,0
1843,8012803003559,新規,0,2024-12-13,2024-12-13,合同会社イケメン,,合同会社,東京都,昭島市,朝日町５丁目７－２７ナエゲコーポ,,13,207,1960025,,,,,,,2024-12-13,1,,,,,イケメン,0
1845,8013301053492,新規,0,2024-12-13,2024-12-13,株式会社ｕｍｉ,,株式会社,東京都,豊島区,目白３丁目５番１２号目白コアＢ１,,13,116,1710031,,,,,,,2024-12-13,1,,,,,ウミ,0
1846,8020001160503,新規,0,2024-12-13,2024-12-13,株式会社ふじさん,,株式会社,神奈川県,川崎市高津区,新作３丁目４－１３－１０２,,14,134,2130014,,,,,,,2024-12-13,1,,,,,フジサン,0
1847,8020001160544,新規,0,2024-12-13,2024-12-13,青雲株式会社,,株式会社,神奈川県,川崎市川崎区,小川町１６－１７ＭＦプラザ４０３号,,14,131,2100023,,,,,,,2024-12-13,1,,,,,セイウン,0
1849,8020005016635,新規,0,2024-12-13,2024-12-13,医療法人社団ＣＡＣＡＯ,,その他の設立登記法人,神奈川県,横浜市都筑区,葛が谷１０番１６号ワイズビル２０１号室,,14,118,2240062,,,,,,,2024-12-13,1,,,,,カカオ,0
1861,8030001163942,新規,0,2024-12-13,2024-12-13,株式会社ＡｐｈａｓｉＡｒｔ,,株式会社,埼玉県,新座市,西堀２丁目１１－２５,,11,230,3520031,,,,,,,2024-12-13,1,,,,,アフェイジアート,0
1865,8040001136542,新規,0,2024-12-13,2024-12-13,株式会社ＡＶＥＮＴＡＲＡ,,株式会社,千葉県,千葉市緑区,あすみが丘東１丁目１２番地１８,,12,105,2670067,,,,,,,2024-12-13,1,,,,,アヴェンタラ,0
1866,8040001136550,新規,0,2024-12-13,2024-12-13,ＴＭＴ株式会社,,株式会社,千葉県,船橋市,宮本９丁目６番１－１００６号,,12,204,2730003,,,,,,,2024-12-13,1,,,,,ティーエムティー,0
1869,8040003026378,新規,0,2024-12-13,2024-12-13,合同会社花いろ,,合同会社,千葉県,東金市,広瀬５９５番地５,,12,213,2830041,,,,,,,2024-12-13,1,,,,,ハナイロ,0
1870,8040003026386,新規,0,2024-12-13,2024-12-13,合同会社ＬＡＴＴＥ,,合同会社,千葉県,八千代市,上高野１１４２番地１０,,12,221,2760022,,,,,,,2024-12-13,1,,,,,ラテ,0
1872,8040005022598,新規,0,2024-12-13,2024-12-13,グローバルゲイト協同組合,,その他の設立登記法人,千葉県,印西市,岩戸２０５６番地,,12,231,2701616,,,,,,,2024-12-13,1,,,,,グローバルゲイト,0
1878,8050001055857,新規,0,2024-12-13,2024-12-13,株式会社タスクサービスホールディングス,,株式会社,茨城県,守谷市,立沢１４５番地５,,08,224,3020118,,,,,,,2024-12-13,1,,,,,タスクサービスホールディングス,0
1879,8050001055865,新規,0,2024-12-13,2024-12-13,株式会社天麗,,株式会社,茨城県,取手市,野々井８３４番地１,,08,217,3020032,,,,,,,2024-12-13,1,,,,,テンリ,0
1880,8050001055873,新規,0,2024-12-13,2024-12-13,ＹＡＲ　ＧＵＬ　ＩＮＴＥＲＮＡＴＩＯＮＡＬ株式会社,,株式会社,茨城県,下妻市,半谷８９８－６,,08,210,3040005,,,,,,,2024-12-13,1,,,,,ヤルグルインターナショナル,0
1885,8070003005701,新規,0,2024-12-13,2024-12-13,やまと福祉用具プランニング合同会社,,合同会社,群馬県,伊勢崎市,下蓮町７２４番地,,10,204,3720852,,,,,,,2024-12-13,1,,,,,ヤマトフクシヨウグプランニング,0
1889,8080101025187,新規,0,2024-12-13,2024-12-13,株式会社３１８１,,株式会社,静岡県,駿東郡小山町,藤曲５４番地の４,,22,344,4101304,,,,,,,2024-12-13,1,,,,,サイワイ,0
1895,8080103003216,新規,0,2024-12-13,2024-12-13,フジヤマエンジニアリング合同会社,,合同会社,静岡県,沼津市,大諏訪３６５番地の１１,,22,203,4100873,,,,,,,2024-12-13,1,,,,,フジヤマエンジニアリング,0
1897,8080401027627,新規,0,2024-12-13,2024-12-13,地域承継＆パートナーズ株式会社,,株式会社,静岡県,浜松市中央区,鍛冶町１００－１ザザシティ浜松中央館Ｂ１Ｆ,,22,138,4300933,,,,,,,2024-12-13,1,,,,,チイキショウケイアンドパートナーズ,0
1901,8100001038121,新規,0,2024-12-13,2024-12-13,神明工業株式会社,,株式会社,長野県,飯田市,上殿岡６６６番地２,,20,205,3950153,,,,,,,2024-12-13,1,,,,,シンメイコウギョウ,0
1917,8120001271042,新規,0,2024-12-13,2024-12-13,安和居株式会社,,株式会社,大阪府,大阪市中央区,南船場３丁目６－１８心斎橋第３ＮＳＤビル４階,,27,128,5420081,,,,,,,2024-12-13,1,,,,,アンワキョ,0
1918,8120001271050,新規,0,2024-12-13,2024-12-13,株式会社セピア,,株式会社,大阪府,大阪市中央区,北久宝寺町２丁目１番７号,,27,128,5410057,,,,,,,2024-12-13,1,,,,,セピア,0
1919,8120001271083,新規,0,2024-12-13,2024-12-13,ＨＯＭＡＲＥ　Ｗｏｒｋｓ株式会社,,株式会社,大阪府,大阪市北区,中津１丁目２番２１号中津明大ビル,,27,127,5310071,,,,,,,2024-12-13,1,,,,,ホマレワークス,0
1920,8120001271091,新規,0,2024-12-13,2024-12-13,しろはとマリンファーム株式会社,,株式会社,大阪府,守口市,京阪本通１丁目４番１０号,,27,209,5700083,,,,,,,2024-12-13,1,,,,,シロハトマリンファーム,0
1921,8120001271158,新規,0,2024-12-13,2024-12-13,ＳＨＩＯ株式会社,,株式会社,大阪府,大阪市生野区,鶴橋４丁目１４‐６,,27,116,5440031,,,,,,,2024-12-13,1,,,,,シオ,0
1937,8130001078593,新規,0,2024-12-13,2024-12-13,ＪＴＳ国際株式会社,,株式会社,京都府,京都市左京区,鹿ケ谷法然院町１５,,26,103,6068421,,,,,,,2024-12-13,1,,,,,ジェーティーエスコクサイ,0
1938,8130003010075,新規,0,2024-12-13,2024-12-13,Ａｄａｃｈｉ　Ｋｉ合同会社,,合同会社,京都府,京都市中京区,新町通蛸薬師下る百足屋町３８５番地１４,,26,104,6048214,,,,,,,2024-12-13,1,,,,,アダチキー,0
1944,8140005027307,新規,0,2024-12-13,2024-12-13,医療法人はつだ歯科クリニック,,その他の設立登記法人,兵庫県,神戸市西区,伊川谷町有瀬３２０番１,,28,111,6512113,,,,,,,2024-12-13,1,,,,,ハツダシカクリニック,0
1956,8180001164496,新規,0,2024-12-13,2024-12-13,ＲＮコンサルティング株式会社,,株式会社,愛知県,日進市,赤池２丁目２０１番地クリオレジダンス赤池ザ・マークス１２０６,,23,230,4700125,,,,,,,2024-12-13,1,,,,,アールエヌコンサルティング,0
1959,8180003027734,新規,0,2024-12-13,2024-12-13,ＡＳ合同会社,,合同会社,愛知県,名古屋市名東区,大針２丁目２６４番地の１－２Ｆ,,23,115,4650064,,,,,,,2024-12-13,1,,,,,エーエス,0
1961,8200001043227,新規,0,2024-12-13,2024-12-13,株式会社ＭＩＬＬＩＯＮ　Ｎｅｏ,,株式会社,岐阜県,多治見市,宝町２丁目３９番地の１,,21,204,5070054,,,,,,,2024-12-13,1,,,,,ミリオンネオ,0
1971,8220001026378,新規,0,2024-12-13,2024-12-13,株式会社大生フードサービス,,株式会社,石川県,金沢市,湊４丁目６８番地,,17,201,9200211,,,,,,,2024-12-13,1,,,,,タイセイフードサービス,0
1976,8240003006979,新規,0,2024-12-13,2024-12-13,合同会社のび屋,,合同会社,広島県,呉市,音戸町波多見９丁目１５番１６号,,34,202,7371207,,,,,,,2024-12-13,1,,,,,ノビヤ,0
1980,8260003005005,新規,0,2024-12-13,2024-12-13,合同会社Ｈａｐｉｎａｓ,,合同会社,岡山県,岡山市北区,辰巳１１－１０９－１０１,,33,101,7000976,,,,,,,2024-12-13,1,,,,,ハピナス,0
1981,8260005011430,新規,0,2024-12-13,2024-12-13,医療法人社団みらい歯科,,その他の設立登記法人,岡山県,岡山市南区,新保１６１５番地１７,,33,104,7000945,,,,,,,2024-12-13,1,,,,,ミライシカ,0
1990,8290001108293,新規,0,2024-12-13,2024-12-13,株式会社フォーリーフ,,株式会社,福岡県,福岡市南区,那の川２丁目４番１１－１０４号,,40,134,8150081,,,,,,,2024-12-13,1,,,,,フォーリーフ,0
2004,8340005009796,新規,0,2024-12-13,2024-12-13,特定非営利活動法人みなみなさつま,,その他の設立登記法人,鹿児島県,南さつま市,加世田本町５番１６－１階,,46,220,8970006,,,,,,,2024-12-13,1,,,,,ミナミナサツマ,0
2009,8360003014516,新規,0,2024-12-13,2024-12-13,合同会社ｓｉｇｅｍｉｅ,,合同会社,沖縄県,中頭郡西原町,字我謝７０番地,,47,329,9030112,,,,,,,2024-12-13,1,,,,,シゲミエ,0
2010,8360003014524,新規,0,2024-12-13,2024-12-13,合同会社グッドスマイル沖縄,,合同会社,沖縄県,島尻郡与那原町,字与那原３６３３－１コーポラス儀武２－Ｃ,,47,348,9011303,,,,,,,2024-12-13,1,,,,,グッドスマイルオキナワ,0
2015,8380001034984,新規,0,2024-12-13,2024-12-13,ＫＳ株式会社,,株式会社,福島県,二本松市,油井字宮下２番地,,07,210,9691404,,,,,,,2024-12-13,1,,,,,ケーエス,0
2027,8450003002569,新規,0,2024-12-13,2024-12-13,合同会社ＳｋｉＳｐｏｒｔｓＡｄｖｅｎｔｕｒｅ　Ｊａｐａｎ,,合同会社,北海道,富良野市,北の峰町８番２２号,,01,229,0760034,,,,,,,2024-12-13,1,,,,,スカイスポーツアドベンチャージャパン,0
2028,8460103001668,新規,0,2024-12-13,2024-12-13,合同会社星空ヘアー,,合同会社,北海道,帯広市,自由が丘７丁目４番地４,,01,207,0802476,,,,,,,2024-12-13,1,,,,,ホシゾラヘアー,0
2030,8480001012674,新規,0,2024-12-13,2024-12-13,日本住総株式会社,,株式会社,徳島県,徳島市,幸町３丁目１３番地１－２Ｆ,,36,201,7700847,,,,,,,2024-12-13,1,,,,,ニホンジュウソウ,0
2031,8480003002211,新規,0,2024-12-13,2024-12-13,合同会社こころ,,合同会社,徳島県,鳴門市,瀬戸町明神字下本城１５９番地１６,,36,202,7710360,,,,,,,2024-12-13,1,,,,,ココロ,0
2044,9010001250659,新規,0,2024-12-13,2024-12-13,株式会社セルバイギフト,,株式会社,東京都,中央区,晴海５丁目１番９－９１６号,,13,102,1040053,,,,,,,2024-12-13,1,,,,,セルバイギフト,0
2045,9010001250725,新規,0,2024-12-13,2024-12-13,株式会社ＬＥＡＬＥ,,株式会社,東京都,中央区,銀座８丁目１５番１０号銀座ダイヤハイツ１１０５,,13,102,1040061,,,,,,,2024-12-13,1,,,,,レアーレ,0
2046,9010001250741,新規,0,2024-12-13,2024-12-13,株式会社ＢＣＪ‐９１,,株式会社,東京都,千代田区,丸の内１丁目１番１号パレスビル５階,,13,101,1000005,,,,,,,2024-12-13,1,,,,,ビーシージェイナインティーワン,0
2053,9010003045784,新規,0,2024-12-13,2024-12-13,合同会社佃テラス,,合同会社,東京都,中央区,月島１丁目２２番１号,,13,102,1040052,,,,,,,2024-12-13,1,,,,,ツクダテラス,0
2062,9010401187039,新規,0,2024-12-13,2024-12-13,株式会社Ｙｏｄａ,,株式会社,東京都,港区,南青山７丁目１２番１６号ザ・パークハウスグラン南青山高樹町３１５号室,,13,103,1070062,,,,,,,2024-12-13,1,,,,,ヨダ,0
2071,9010501053322,新規,0,2024-12-13,2024-12-13,株式会社Ｐｒｏｐｓ,,株式会社,東京都,台東区,柳橋１丁目１番４－８０１号柳橋リバーサイドマンション,,13,106,1110052,,,,,,,2024-12-13,1,,,,,プロップス,0
2072,9010501053339,新規,0,2024-12-13,2024-12-13,安聯株式会社,,株式会社,東京都,台東区,北上野２丁目２５番９号－５０７号室,,13,106,1100014,,,,,,,2024-12-13,1,,,,,アンレン,0
2080,9010901056478,新規,0,2024-12-13,2024-12-13,株式会社ツキヨノサクラ,,株式会社,東京都,世田谷区,太子堂４丁目１８番１５号マガザン三軒茶屋２・３Ｆ－３,,13,112,1540004,,,,,,,2024-12-13,1,,,,,ツキヨノサクラ,0
2081,9010901056486,新規,0,2024-12-13,2024-12-13,株式会社Ｌａ　Ｖｉｔａ,,株式会社,東京都,世田谷区,等々力６丁目２０番１０号,,13,112,1580082,,,,,,,2024-12-13,1,,,,,ラヴィータ,0
2089,9011001166382,新規,0,2024-12-13,2024-12-13,Ｅｌｄｅｒｉｔｈｍ株式会社,,株式会社,東京都,渋谷区,神南１丁目１１番４号ＦＰＧリンクス神南５階,,13,113,1500041,,,,,,,2024-12-13,1,,,,,エルデリズム,0
2093,9011103015280,新規,0,2024-12-13,2024-12-13,Ｒｉｃｅ　ｂａｌｌ合同会社,,合同会社,東京都,新宿区,上落合２丁目１４－１０ラ・セルジュ新宿落合１０４,,13,104,1610034,,,,,,,2024-12-13,1,,,,,ライスボール,0
2102,9012303002085,新規,0,2024-12-13,2024-12-13,合同会社こころ,,合同会社,東京都,町田市,三輪緑山４丁目１５番地１７,,13,209,1950055,,,,,,,2024-12-13,1,,,,,ココロ,0
2109,9013301053491,新規,0,2024-12-13,2024-12-13,株式会社ＣＥＲＵＬＥＡＮ　ＢＬＵＥ,,株式会社,東京都,豊島区,南大塚２丁目１１番１０号ミモザビル３階,,13,116,1700005,,,,,,,2024-12-13,1,,,,,セルリアンブルー,0
2111,9020001160469,新規,0,2024-12-13,2024-12-13,株式会社ホリデーリクルート,,株式会社,神奈川県,横浜市中区,元町４丁目１７２番地クリオ横濱元町通り２０３号,,14,104,2310861,,,,,,,2024-12-13,1,,,,,ホリデーリクルート,0
2116,9021001083973,新規,0,2024-12-13,2024-12-13,株式会社エスティマーケット,,株式会社,神奈川県,平塚市,八重咲町１７番１１号,,14,203,2540811,,,,,,,2024-12-13,1,,,,,エスティマーケット,0
2117,9021001084006,新規,0,2024-12-13,2024-12-13,Ｄ‐ｂｙｓｉｄｅ株式会社,,株式会社,神奈川県,厚木市,寿町２丁目１番地１８,,14,212,2430003,,,,,,,2024-12-13,1,,,,,ディーバイサイド,0
2119,9021003015347,新規,0,2024-12-13,2024-12-13,Ｒｏｏｔｉｎｇｗｏｒｋｓ合同会社,,合同会社,神奈川県,大和市,林間１丁目１７番５号,,14,213,2420003,,,,,,,2024-12-13,1,,,,,ルーティングワークス,0
2126,9030001163891,新規,0,2024-12-13,2024-12-13,株式会社プレジール,,株式会社,埼玉県,さいたま市大宮区,桜木町４丁目１０１０番地２アインズ桜木ビル２０１号室,,11,103,3300854,,,,,,,2024-12-13,1,,,,,プレジール,0
2127,9030001163900,新規,0,2024-12-13,2024-12-13,株式会社ＪＵＭＰ,,株式会社,埼玉県,さいたま市見沼区,東大宮１丁目１９番地１６,,11,104,3370051,,,,,,,2024-12-13,1,,,,,ジャンプ,0
2128,9030001163917,新規,0,2024-12-13,2024-12-13,株式会社ＭＡＴＲ,,株式会社,埼玉県,白岡市,小久喜７７６番地２,,11,246,3490217,,,,,,,2024-12-13,1,,,,,エムエーティーアール,0
2133,9040001136491,新規,0,2024-12-13,2024-12-13,Ｔｒｉｎｉｔｙ株式会社,,株式会社,千葉県,船橋市,本町６丁目２番１０－９１０号,,12,204,2730005,,,,,,,2024-12-13,1,,,,,トリニティ,0
2134,9040001136525,新規,0,2024-12-13,2024-12-13,株式会社Ｋｏｉｚｕｍｉ,,株式会社,千葉県,千葉市中央区,新宿１丁目１９番１３号,,12,101,2600021,,,,,,,2024-12-13,1,,,,,コイズミ,0
2135,9040001136566,新規,0,2024-12-13,2024-12-13,株式会社エス・デザインオフィス,,株式会社,千葉県,白井市,根４６８番地の５,,12,232,2701431,,,,,,,2024-12-13,1,,,,,エスデザインオフィス,0
2139,9040003026385,新規,0,2024-12-13,2024-12-13,合同会社Ｏ３,,合同会社,千葉県,柏市,根戸１９１３番地１ガーデンビスカヤ４０２号,,12,217,2770831,,,,,,,2024-12-13,1,,,,,オースリー,0
2144,9050001055872,新規,0,2024-12-13,2024-12-13,株式会社ミトカラ,,株式会社,茨城県,水戸市,千波町２４４７番地の１,,08,201,3100851,,,,,,,2024-12-13,1,,,,,ミトカラ,0
2145,9050001055880,新規,0,2024-12-13,2024-12-13,株式会社キムラ,,株式会社,茨城県,龍ケ崎市,川原代町２７５６番地１,,08,208,3010005,,,,,,,2024-12-13,1,,,,,キムラ,0
2146,9070005010335,新規,0,2024-12-13,2024-12-13,ＮＰＯ法人つなぐハーモニー,,その他の設立登記法人,群馬県,吾妻郡長野原町,大字大津８１５番地１,,10,424,3771308,,,,,,,2024-12-13,1,,,,,ツナグハーモニー,0
2152,9100003007908,新規,0,2024-12-13,2024-12-13,合同会社Ｔｈｅ　Ｗａｙ　Ｂ．Ｃ．Ｓ．Ｌ．,,合同会社,長野県,東御市,祢津２１２０－７,,20,219,3890506,,,,,,,2024-12-13,1,,,,,ザウェイビーシーエスエル,0
2154,9110001038920,新規,0,2024-12-13,2024-12-13,アラカワホールディング株式会社,,株式会社,新潟県,新潟市中央区,鐙西２丁目１番３号,,15,103,9500915,,,,,,,2024-12-13,1,,,,,アラカワホールディング,0
2173,9120001270976,新規,0,2024-12-13,2024-12-13,株式会社Ｃｈｏｉ’ｓ　ｃｈｏｉｃｅ,,株式会社,大阪府,寝屋川市,北大利町１７－１－２Ｆ,,27,215,5720032,,,,,,,2024-12-13,1,,,,,チョイズチョイス,0
2176,9120003028134,新規,0,2024-12-13,2024-12-13,合同会社ＧａＨ,,合同会社,大阪府,大阪市淀川区,西宮原１丁目８番１－２０７号,,27,123,5320004,,,,,,,2024-12-13,1,,,,,ジーエーエイチ,0
2182,9120901050172,新規,0,2024-12-13,2024-12-13,株式会社ｓｉｎｏ,,株式会社,大阪府,豊中市,向丘１丁目６番１－１０２号,,27,203,5600053,,,,,,,2024-12-13,1,,,,,シーノ,0
2199,9140001136614,新規,0,2024-12-13,2024-12-13,株式会社Ｊｕｓｔｍｅａｔ,,株式会社,兵庫県,神戸市中央区,北長狭通２丁目１２－６Ｋビル５階,,28,110,6500012,,,,,,,2024-12-13,1,,,,,ジャストミート,0
2200,9140001136721,新規,0,2024-12-13,2024-12-13,株式会社ＫＣＧ,,株式会社,兵庫県,神戸市須磨区,妙法寺字大津江４３０番地の３ワコーレ須磨妙法寺ステーションマークス９０２号,,28,107,6540121,,,,,,,2024-12-13,1,,,,,ケーシージー,0
2203,9140005027297,新規,0,2024-12-13,2024-12-13,医療法人社団寺田内科・呼吸器科,,その他の設立登記法人,兵庫県,姫路市,城東町五軒屋３番地６,,28,201,6700849,,,,,,,2024-12-13,1,,,,,テラダナイカコキュウキカ,0
2204,9140005027306,新規,0,2024-12-13,2024-12-13,医療法人社団はたにクリニック,,その他の設立登記法人,兵庫県,神戸市須磨区,高倉台１丁目１番７号ＴｅｒｒａｓＭａクリニックモール１０３,,28,107,6540081,,,,,,,2024-12-13,1,,,,,ハタニクリニック,0
2213,9180001164479,新規,0,2024-12-13,2024-12-13,株式会社ＴＲＹＰＯＤ,,株式会社,愛知県,名古屋市守山区,小幡中１丁目１７番２１号,,23,113,4630013,,,,,,,2024-12-13,1,,,,,トライポッド,0
2215,9180003027733,新規,0,2024-12-13,2024-12-13,合同会社ジンザイル豊田,,合同会社,愛知県,日進市,栄３丁目１１０６番地,,23,230,4700113,,,,,,,2024-12-13,1,,,,,ジンザイルトヨタ,0
2217,9180301039331,新規,0,2024-12-13,2024-12-13,株式会社エルグラ,,株式会社,愛知県,刈谷市,築地町３丁目２７番地の２エルグランデ築地ＩＩ２０３,00137329,23,210,4480011,,,,,,,2024-12-13,1,,,,,エルグラ,0
2222,9200003006627,新規,0,2024-12-13,2024-12-13,合同会社プルーブルー,,合同会社,岐阜県,大垣市,笠木町５３２番地１,,21,202,5030023,,,,,,,2024-12-13,1,,,,,プルーブルー,0
2233,9220003003911,新規,0,2024-12-13,2024-12-13,合同会社ｎｏｔｏｐｈｏｔｏ,,合同会社,石川県,珠洲市,大谷町５－３５,,17,205,9271321,,,,,,,2024-12-13,1,,,,,ノトフォト,0
2243,9270003001695,新規,0,2024-12-13,2024-12-13,合同会社Ｓｏｌｉｎｅ,,合同会社,鳥取県,米子市,東倉吉町５８番地＆Ａビル２階,,31,202,6830815,,,,,,,2024-12-13,1,,,,,ソリネ,0
2251,9290001108284,新規,0,2024-12-13,2024-12-13,株式会社ツリー,,株式会社,福岡県,福岡市博多区,博多駅前１丁目２３番２号ＰａｒｋＦｒｏｎｔ博多駅前１丁目５Ｆ－Ｂ,,40,132,8120011,,,,,,,2024-12-13,1,,,,,ツリー,0
2258,9320001020857,新規,0,2024-12-13,2024-12-13,株式会社カギの防犯堂２４大分,,株式会社,大分県,大分市,大字猪野１５７４番地５,,44,201,8700134,,,,,,,2024-12-13,1,,,,,カギノボウハンドウニジュウヨンオオイタ,0
2259,9320003004536,新規,0,2024-12-13,2024-12-13,合同会社ダイトー農産,,合同会社,大分県,大分市,大字上戸次３４８６番地,,44,201,8797764,,,,,,,2024-12-13,1,,,,,ダイトーノウサン,0
2271,9360003014523,新規,0,2024-12-13,2024-12-13,合同会社ｃｏｌｏｒｅ,,合同会社,沖縄県,浦添市,城間４丁目４０番３号,,47,208,9012133,,,,,,,2024-12-13,1,,,,,コローレ,0
2273,9370003006858,新規,0,2024-12-13,2024-12-13,合同会社ｇｏ‐ｇａｍｅ,,合同会社,宮城県,仙台市泉区,鶴が丘３丁目１４－３,,04,105,9813109,,,,,,,2024-12-13,1,,,,,,0
2290,9450003002568,新規,0,2024-12-13,2024-12-13,合同会社ゆーもあ,,合同会社,北海道,旭川市,神楽三条２丁目１番８号,,01,204,0708003,,,,,,,2024-12-13,1,,,,,ユーモア,0
2292,9460303000849,新規,0,2024-12-13,2024-12-13,聚＿合同会社,00137332,合同会社,北海道,常呂郡訓子府町,西幸町１０６番地,,01,549,0991423,,,,,,,2024-12-13,1,,,,,シュウキン,0
2297,9700150005083,新規,0,2024-12-13,2015-10-09,東京芝　ロータリークラブ,,その他,東京都,港区,虎ノ門３丁目１８－１２,,13,103,1050001,,,,,,,2015-10-09,1,,,,,トウキヨウシバロータリークラブ,0
2298,9700150128215,新規,0,2024-12-13,2024-12-13,Ｔａｉｘｉｎｇｓｈｉｋａｎｇｄｅｍａｎｄｉａｎｚｉｓｈａｎｇｗｕｙｏｕｘｉａｎｇｏｎｇｓｉ,,外国会社等,,,,,,,,２－１，Ｎａｎｙｉｎ　Ｃｏｍｍｕｎｉｔｙ，Ｈｕａｎｇｑｉａｏ　Ｔｏｗｎ，Ｔａｉｘｉｎｇ　Ｃｉｔｙ　２２５４００　ＣＮ,,,,,,2024-12-13,1,,,,,タイシンシカンディマンデンシショウムヨウシエンゴンスー,0
