sequenceNumber,corporateNumber,process,correct,updateDate,changeDate,name,nameImageId,kind,prefectureName,cityName,streetNumber,addressImageId,prefectureCode,cityCode,postCode,addressOutside,addressOutsideImageId,closeDate,closeCause,successorCorporateNumber,changeCause,assignmentDate,latest,enName,enPrefectureName,enCityName,enAddressOutside,furigana,hihyoji
3,1010001240056,新規,0,2023-11-14,2023-11-14,Ｃａｒｅｅｒ　Ｐｅｒｓｐｅｃｔｉｖｅ株式会社,,株式会社,東京都,千代田区,神田三崎町３丁目５番９号天翔水道橋ビル,,13,101,1010061,,,,,,,2023-11-14,1,,,,,キャリアパースペクティブ,0
6,1010005037481,新規,0,2023-11-14,2023-11-14,一般社団法人国際ビジュー・セラピー協会,,その他の設立登記法人,東京都,中央区,築地２丁目１０番４号,,13,102,1040045,,,,,,,2023-11-14,1,,,,,コクサイビジューセラピーキョウカイ,0
7,1010005037498,新規,0,2023-11-14,2023-11-14,一般社団法人あさがお,,その他の設立登記法人,東京都,千代田区,平河町１丁目３番１３号平河町フロントビル７階株式会社シリウス・アドバイザリー内,,13,101,1020093,,,,,,,2023-11-14,1,,,,,アサガオ,0
8,1010005037515,新規,0,2023-11-14,2023-11-14,ＥＮＣ一般社団法人,,その他の設立登記法人,東京都,中央区,八丁堀４丁目２番１０号ＡＯＪ税理士法人内,,13,102,1040032,,,,,,,2023-11-14,1,,,,,イーエヌシー,0
15,1010401178490,新規,0,2023-11-14,2023-11-14,株式会社マッケイアンドパートナーズ,,株式会社,東京都,港区,六本木４丁目３番１１号六本木ユニハウス２２３,,13,103,1060032,,,,,,,2023-11-14,1,,,,,マッケイアンドパートナーズ,0
16,1010401178499,新規,0,2023-11-14,2023-11-14,株式会社８８２３,,株式会社,東京都,港区,西新橋１丁目２２番４号ＳｐａｃｅＲ３Ｆ,,13,103,1050003,,,,,,,2023-11-14,1,,,,,ハヤブサ,0
19,1010403031350,新規,0,2023-11-14,2023-11-14,アラン合同会社,,合同会社,東京都,港区,浜松町１丁目２０番１０号ライオネス浜松町５０６号室,,13,103,1050013,,,,,,,2023-11-14,1,,,,,アラン,0
20,1010405022703,新規,0,2023-11-14,2023-11-14,税理士法人葵坂パートナーズ,,その他の設立登記法人,東京都,港区,赤坂２丁目１８－３－２階,,13,103,1070052,,,,,,,2023-11-14,1,,,,,アオイザカパートナーズ,0
39,1010901054167,新規,0,2023-11-14,2023-11-14,株式会社おむすび,,株式会社,東京都,世田谷区,三軒茶屋２丁目１１番２２号,,13,112,1540024,,,,,,,2023-11-14,1,,,,,オムスビ,0
43,1011003017855,新規,0,2023-11-14,2023-11-14,合同会社結懸社,,合同会社,東京都,渋谷区,恵比寿西２丁目４番８号ウィンド恵比寿ビル８Ｆ,,13,113,1500021,,,,,,,2023-11-14,1,,,,,ユウケンシャ,0
44,1011003017946,新規,0,2023-11-14,2023-11-14,ＥＳＰコンサルティング合同会社,,合同会社,東京都,渋谷区,恵比寿３丁目２０番１１号,,13,113,1500013,,,,,,,2023-11-14,1,,,,,イーエスピーコンサルティング,0
47,1011101105124,新規,0,2023-11-14,2023-11-14,株式会社Ｍｉｍ,,株式会社,東京都,新宿区,西新宿３丁目３－１３西新宿水間ビル６Ｆ,,13,104,1600023,,,,,,,2023-11-14,1,,,,,ミム,0
48,1011103013738,新規,0,2023-11-14,2023-11-14,合同会社グローバルシステムズ,,合同会社,東京都,新宿区,西落合１丁目２１番２０－１０３号,,13,104,1610031,,,,,,,2023-11-14,1,,,,,グローバルシステムズ,0
62,1011801043318,新規,0,2023-11-14,2023-11-14,株式会社ｔａｋｅ　ｓｅｒｉｅ,,株式会社,東京都,足立区,西新井３丁目６番１７号５０２,,13,121,1230841,,,,,,,2023-11-14,1,,,,,タケセリア,0
69,1012403006274,新規,0,2023-11-14,2023-11-14,合同会社ＡＲＣ,,合同会社,東京都,武蔵野市,境２丁目２番２３号,,13,203,1800022,,,,,,,2023-11-14,1,,,,,アーク,0
70,1012701017956,新規,0,2023-11-14,2023-11-14,株式会社ＤｅＳＴＵＤＩＯＳ,,株式会社,東京都,東久留米市,新川町１丁目１９－５,,13,222,2030013,,,,,,,2023-11-14,1,,,,,ディスタジオズ,0
72,1013103001276,新規,0,2023-11-14,2023-11-14,合同会社おつぽん,,合同会社,東京都,青梅市,河辺町９丁目６番地８,,13,205,1980036,,,,,,,2023-11-14,1,,,,,オツポン,0
80,1020003024968,新規,0,2023-11-14,2023-11-14,Ｏｆｆｉｃｅ　Ｍ合同会社,,合同会社,神奈川県,川崎市川崎区,小田４丁目２６番１０号,,14,131,2100846,,,,,,,2023-11-14,1,,,,,オフィスエム,0
81,1020003024992,新規,0,2023-11-14,2023-11-14,伊勢企画合同会社,,合同会社,神奈川県,横浜市南区,山王町４丁目２８番地１０ヴィータローザ横浜吉野町７０３号,,14,105,2320013,,,,,,,2023-11-14,1,,,,,イセキカク,0
82,1020003025009,新規,0,2023-11-14,2023-11-14,合同会社プロアシスト,,合同会社,神奈川県,横浜市港南区,日限山１丁目４１番１７号,,14,111,2330015,,,,,,,2023-11-14,1,,,,,プロアシスト,0
90,1030001157133,新規,0,2023-11-14,2023-11-14,株式会社グリーン＆ブルー,,株式会社,埼玉県,さいたま市南区,大字大谷口１２７２－５,,11,108,3360042,,,,,,,2023-11-14,1,,,,,グリーンアンドブルー,0
96,1030003022772,新規,0,2023-11-14,2023-11-14,合同会社ＭＯＳＨ,,合同会社,埼玉県,越谷市,越ヶ谷１丁目１６－２５－１アルジェンテォｃａ９号室,,11,222,3430813,,,,,,,2023-11-14,1,,,,,モッシュ,0
97,1030003022962,新規,0,2023-11-14,2023-11-14,ｃｌｏｖｅｒ合同会社,,合同会社,埼玉県,越谷市,大字大竹５７７,,11,222,3430034,,,,,,,2023-11-14,1,,,,,クローバー,0
103,1040001130898,新規,0,2023-11-14,2023-11-14,株式会社Ａｅｇｉｓ　Ｈｏｍｅ,,株式会社,千葉県,習志野市,東習志野５丁目１番５－２０３号,,12,216,2750001,,,,,,,2023-11-14,1,,,,,イージスホーム,0
110,1060001036540,新規,0,2023-11-14,2023-11-14,株式会社Ｒｅ・ｃｏｒｅ,,株式会社,栃木県,宇都宮市,駒生１丁目１０番２号,,09,201,3200066,,,,,,,2023-11-14,1,,,,,リコア,0
113,1080401026841,新規,0,2023-11-14,2023-11-14,ノヴァテック株式会社,,株式会社,静岡県,浜松市浜北区,於呂２６１０番地,,22,136,4340015,,,,,,,2023-11-14,1,,,,,ノヴァテック,0
121,1120001259762,新規,0,2023-11-14,2023-11-14,風生水起株式会社,,株式会社,大阪府,大阪市城東区,中浜１丁目１７－１４ルネッサンスシャレード２Ｂ,,27,118,5360024,,,,,,,2023-11-14,1,,,,,フウセイスイキ,0
122,1120001259779,新規,0,2023-11-14,2023-11-14,株式会社ＳＫＹＦＡＬＬ,,株式会社,大阪府,大阪市北区,西天満２丁目９番８号幸田第２ビル６０４,,27,127,5300047,,,,,,,2023-11-14,1,,,,,スカイフォール,0
126,1120003025337,新規,0,2023-11-14,2023-11-14,リアン合同会社,,合同会社,大阪府,大阪市淀川区,三津屋中２丁目３番９号,,27,123,5320036,,,,,,,2023-11-14,1,,,,,リアン,0
127,1120005023990,新規,0,2023-11-14,2023-11-14,一般社団法人ＫＳ２,,その他の設立登記法人,大阪府,大阪市中央区,北久宝寺町１丁目２番１号,,27,128,5410057,,,,,,,2023-11-14,1,,,,,ケーエスツー,0
128,1120101068502,新規,0,2023-11-14,2023-11-14,景明株式会社,,株式会社,大阪府,堺市堺区,三国ヶ丘御幸通１０－１三幸ビル５Ｆ,,27,141,5900028,,,,,,,2023-11-14,1,,,,,ケイメイ,0
131,1120901048364,新規,0,2023-11-14,2023-11-14,株式会社マスラボプラス,,株式会社,大阪府,高槻市,真上町１丁目１３番１１号木村ビル１階,,27,207,5691121,,,,,,,2023-11-14,1,,,,,マスラボプラス,0
150,1140001132307,新規,0,2023-11-14,2023-11-14,ゼロネック株式会社,,株式会社,兵庫県,姫路市,別所町北宿１００３番地インタービレッジ別所２０１,,28,201,6710223,,,,,,,2023-11-14,1,,,,,ゼロネック,0
151,1140001132323,新規,0,2023-11-14,2023-11-14,アンダー株式会社,,株式会社,兵庫県,西宮市,羽衣町７番３０号夙川グリーンタウン３Ｆ,,28,204,6620051,,,,,,,2023-11-14,1,,,,,アンダー,0
169,1180001158901,新規,0,2023-11-14,2023-11-14,株式会社誉,,株式会社,愛知県,春日井市,岩成台２丁目２番地１９,,23,206,4870033,,,,,,,2023-11-14,1,,,,,ホマレ,0
170,1180001158918,新規,0,2023-11-14,2023-11-14,株式会社アグリス,,株式会社,愛知県,名古屋市西区,城西２丁目１８－１８,,23,104,4510031,,,,,,,2023-11-14,1,,,,,アグリス,0
184,1220001025691,新規,0,2023-11-14,2023-11-14,瑞兆ホールディングス株式会社,,株式会社,石川県,金沢市,松村４丁目３０７番地,,17,201,9200348,,,,,,,2023-11-14,1,,,,,ズイチョウホールディングス,0
190,1240001062411,新規,0,2023-11-14,2023-11-14,株式会社ＮｅＣｏｌｌｅｃｔｉｏｎ,,株式会社,広島県,広島市安佐南区,長束５丁目４番２９－２０１号,,34,105,7310135,,,,,,,2023-11-14,1,,,,,ネコレクション,0
196,1250003003379,新規,0,2023-11-14,2023-11-14,合同会社Ｂｌｕｅ,,合同会社,山口県,光市,大字三輪６９３－７,,35,210,7430102,,,,,,,2023-11-14,1,,,,,,0
200,1270001008873,新規,0,2023-11-14,2023-11-14,株式会社ＯＶＥＲ,,株式会社,鳥取県,米子市,淀江町佐陀３４０番地１３,,31,202,6893425,,,,,,,2023-11-14,1,,,,,オーバー,0
207,1290003014604,新規,0,2023-11-14,2023-11-14,合同会社ＳＥＫＩＴ,,合同会社,福岡県,福岡市中央区,今泉２丁目３番３０－８０１号メゾン・ド・天神,,40,133,8100021,,,,,,,2023-11-14,1,,,,,,0
211,1310001018686,新規,0,2023-11-14,2023-11-14,株式会社Ｃｏｍｍｕｎｉｔｙ　Ｔｅｃｈ,,株式会社,長崎県,長崎市,元船町９－１８長崎ＢｉｚＰＯＲＴ２Ｆ,,42,201,8500035,,,,,,,2023-11-14,1,,,,,コミュニティテック,0
221,1330001031464,新規,0,2023-11-14,2023-11-14,あさり住建株式会社,,株式会社,熊本県,宇城市,松橋町松橋１３１１番地３,,43,213,8690502,,,,,,,2023-11-14,1,,,,,アサリジュウケン,0
222,1330005010720,新規,0,2023-11-14,2023-11-14,司法書士法人ｔ４,,その他の設立登記法人,熊本県,熊本市中央区,新町１丁目６番１２号サングレース蔚山１Ｆ,,43,101,8600004,,,,,,,2023-11-14,1,,,,,ティーフォー,0
223,1360003013466,新規,0,2023-11-14,2023-11-14,合同会社宜野湾グリーン工業,,合同会社,沖縄県,宜野湾市,真栄原２丁目１番８号ラフォンテＵＫ１Ｆ,,47,205,9012215,,,,,,,2023-11-14,1,,,,,ギノワングリーンコウギョウ,0
236,1450001014143,新規,0,2023-11-14,2023-11-14,株式会社ＰＯＬＯＴＥＣＨ,,株式会社,北海道,上川郡東神楽町,１９号５東神楽大学内,,01,453,0711549,,,,,,,2023-11-14,1,,,,,ポロテック,0
243,1490001010634,新規,0,2023-11-14,2023-11-14,株式会社リフォーム岡本,,株式会社,高知県,高知市,朝倉甲２４８番地１３,,39,201,7808061,,,,,,,2023-11-14,1,,,,,リフォームオカモト,0
259,2010003042185,新規,0,2023-11-14,2023-11-14,合同会社Ｑ＆Ａ,,合同会社,東京都,中央区,銀座７丁目１５番８号タウンハイツ銀座,,13,102,1040061,,,,,,,2023-11-14,1,,,,,キューアンドエー,0
260,2010003042210,新規,0,2023-11-14,2023-11-14,合同会社ＰＵＥＮＥＲＯ,,合同会社,東京都,中央区,日本橋３丁目２番１４号新槇町ビル別館第一１階,,13,102,1030027,,,,,,,2023-11-14,1,,,,,プエネロ,0
262,2010005037497,新規,0,2023-11-14,2023-11-14,一般社団法人ひまわり,,その他の設立登記法人,東京都,千代田区,平河町１丁目３番１３号平河町フロントビル７階株式会社シリウス・アドバイザリー内,,13,101,1020093,,,,,,,2023-11-14,1,,,,,ヒマワリ,0
263,2010005037514,新規,0,2023-11-14,2023-11-14,一般社団法人Ｒａｐｐｏｒｔ２,,その他の設立登記法人,東京都,中央区,八丁堀４丁目２番１０号ＡＯＪ税理士法人内,,13,102,1040032,,,,,,,2023-11-14,1,,,,,ラポールツー,0
269,2010401178548,新規,0,2023-11-14,2023-11-14,日本アルテラ・セミコンダクター・テクノロジー株式会社,,株式会社,東京都,港区,六本木１丁目９番１０号アークヒルズ仙石山森タワー２８階べーカー＆マッケンジー法律事務所（外国法共同事業）内,,13,103,1060032,,,,,,,2023-11-14,1,,,,,ニホンアルテラセミコンダクターテクノロジー,0
303,2011101105123,新規,0,2023-11-14,2023-11-14,Ｍ’ｓ　Ｇｏｖｅｒｎａｎｃｅ　Ａｄｖｉｓｏｒｓ株式会社,,株式会社,東京都,新宿区,西新宿６丁目５番１号新宿アイランドタワー２Ｆ,,13,104,1600023,,,,,,,2023-11-14,1,,,,,ミューズガバナンスアドバイザーズ,0
305,2011103013737,新規,0,2023-11-14,2023-11-14,合同会社Ｐａｎｈａｎａ,,合同会社,東京都,新宿区,百人町１丁目１１番３号ＮＳロイヤル大久保２０１,,13,104,1690073,,,,,,,2023-11-14,1,,,,,パンハナ,0
312,2011201025048,新規,0,2023-11-14,2023-11-14,株式会社Ｃ‐ＳＥＡＬＳ,,株式会社,東京都,中野区,本町１丁目５番５－３０６号,,13,114,1640012,,,,,,,2023-11-14,1,,,,,シーシールズ,0
315,2011301029171,新規,0,2023-11-14,2023-11-14,株式会社Ａｌｐｈａ　Ｂｒｏｔｈｅｒｓ　Ｊａｐａｎ,,株式会社,東京都,杉並区,阿佐谷南１丁目３６番１６号第５７東京ビル２階３０号,,13,115,1660004,,,,,,,2023-11-14,1,,,,,アルファーブラザーズジャパン,0
318,2011701026776,新規,0,2023-11-14,2023-11-14,株式会社ＳＳＣ,,株式会社,東京都,江戸川区,東葛西９丁目１２番８－７０１号,,13,123,1340084,,,,,,,2023-11-14,1,,,,,エスエスシー,0
322,2012401041207,新規,0,2023-11-14,2023-11-14,ＢｏｒｄｅｒｌｅｓｓＨｅａｌｔｈ＆Ｔｒｉｐ株式会社,,株式会社,東京都,武蔵野市,吉祥寺本町２丁目８番４号ｉ－ｏｆｆｉｃｅ吉祥寺,,13,203,1800004,,,,,,,2023-11-14,1,,,,,ボウダレスヘルスアンドトリップ,0
323,2012401041215,新規,0,2023-11-14,2023-11-14,ＳＲＣ工業株式会社,,株式会社,東京都,稲城市,坂浜４丁目８番地の１,,13,225,2060822,,,,,,,2023-11-14,1,,,,,エスアールシーコウギョウ,0
324,2012401041223,新規,0,2023-11-14,2023-11-14,ＳｏｕｎｄＣｏｍｐａｓｓ株式会社,,株式会社,東京都,小金井市,貫井北町３丁目３１番２０号,,13,210,1840015,,,,,,,2023-11-14,1,,,,,サウンドコンパス,0
325,2012701017955,新規,0,2023-11-14,2023-11-14,株式会社ＨＡＲＵ,,株式会社,東京都,小平市,小川町１丁目２５９７番地の１コーポ桜井１０２,,13,211,1870032,,,,,,,2023-11-14,1,,,,,ハル,0
326,2012801022764,新規,0,2023-11-14,2023-11-14,株式会社つむぐ,,株式会社,東京都,国立市,富士見台１丁目１７－２９－５０１,,13,215,1860003,,,,,,,2023-11-14,1,,,,,ツムグ,0
335,2020001154460,新規,0,2023-11-14,2023-11-14,関東水道設備株式会社,,株式会社,神奈川県,横浜市南区,堀ノ内町２丁目１４４－４,,14,105,2320042,,,,,,,2023-11-14,1,,,,,カントウスイドウセツビ,0
339,2020003024983,新規,0,2023-11-14,2023-11-14,合同会社Ｐｉｃｃｏｌｏ．Ｍ,,合同会社,神奈川県,川崎市中原区,下小田中４丁目２２番１０－１０４号,,14,133,2110041,,,,,,,2023-11-14,1,,,,,ピッコロエム,0
340,2020003024991,新規,0,2023-11-14,2023-11-14,合同会社Ｋｉｋｕ　ＫｎｉｇｈｔＳ,,合同会社,神奈川県,横浜市港北区,師岡町６２８番９,,14,109,2220002,,,,,,,2023-11-14,1,,,,,キクナイツ,0
341,2020005016178,新規,0,2023-11-14,2023-11-14,ＮＰＯ法人横浜フェロー,,その他の設立登記法人,神奈川県,横浜市西区,浜松町８－１１ライオンズマンション西横浜第３－２０８号室,,14,103,2200055,,,,,,,2023-11-14,1,,,,,ヨコハマフェロー,0
354,2030001156943,新規,0,2023-11-14,2023-11-14,株式会社ＬＭＪｗｏｒｋｓ,,株式会社,埼玉県,朝霞市,宮戸１丁目６番８１号エルビータＡ１０１,,11,227,3510031,,,,,,,2023-11-14,1,,,,,エルエムジェイワークス,0
363,2040001130906,新規,0,2023-11-14,2023-11-14,株式会社ビーエスピー,,株式会社,千葉県,八千代市,大和田新田１０５４番地７０,,12,221,2760046,,,,,,,2023-11-14,1,,,,,ビーエスピー,0
364,2040001130914,新規,0,2023-11-14,2023-11-14,株式会社ＳＮＭ,,株式会社,千葉県,八千代市,大和田新田９０８－１－２１－５,,12,221,2760046,,,,,,,2023-11-14,1,,,,,エスエンエム,0
381,2070001041068,新規,0,2023-11-14,2023-11-14,株式会社ジョブズ,,株式会社,群馬県,伊勢崎市,富塚町２２０番地１６サンヒルズ富塚４０４号室,,10,204,3720833,,,,,,,2023-11-14,1,,,,,,0
403,2120001259712,新規,0,2023-11-14,2023-11-14,株式会社海霊,,株式会社,大阪府,大阪市中央区,南船場３丁目８番２号,,27,128,5420081,,,,,,,2023-11-14,1,,,,,カイレイ,0
404,2120001259786,新規,0,2023-11-14,2023-11-14,Ｓｋｙ　ｗａｌｋｅｒ　ｐｒｏｐｅｒｔｙ株式会社,,株式会社,大阪府,大阪市中央区,島之内２丁目３番１０－４０２号,,27,128,5420082,,,,,,,2023-11-14,1,,,,,スカイウォーカープロパティ,0
405,2120001259794,新規,0,2023-11-14,2023-11-14,えびふらいレコーズ株式会社,,株式会社,大阪府,大阪市天王寺区,筆ケ崎町２番１０－１６０６号,,27,109,5430027,,,,,,,2023-11-14,1,,,,,エビフライレコーズ,0
409,2120003025286,新規,0,2023-11-14,2023-11-14,合同会社１８１８,,合同会社,大阪府,大阪市北区,梅田１丁目２番２号大阪駅前第２ビル１２－１２,,27,127,5300001,,,,,,,2023-11-14,1,,,,,イチハチイチハチ,0
410,2120003025336,新規,0,2023-11-14,2023-11-14,合同会社Ｃａｒｅｅｒ‐Ｖａｌｕｅ研究所,,合同会社,大阪府,大阪市中央区,南本町２丁目１番１号本町サザンビル１階,,27,128,5410054,,,,,,,2023-11-14,1,,,,,キャリアバリューケンキュウショ,0
412,2120101068526,新規,0,2023-11-14,2023-11-14,株式会社いわもと工務店,,株式会社,大阪府,岸和田市,磯上町５丁目２６番１０号,,27,202,5960001,,,,,,,2023-11-14,1,,,,,イワモトコウムテン,0
414,2120901048347,新規,0,2023-11-14,2023-11-14,株式会社Ｔ＆Ｈ,,株式会社,大阪府,豊中市,上新田２丁目２４番１－５０７号,,27,203,5600085,,,,,,,2023-11-14,1,,,,,ティーアンドエイチ,0
415,2120903004918,新規,0,2023-11-14,2023-11-14,合同会社トライフォース,,合同会社,大阪府,高槻市,東天川１丁目５番１１号,,27,207,5690012,,,,,,,2023-11-14,1,,,,,トライフォース,0
422,2130001075679,新規,0,2023-11-14,2023-11-14,株式会社エルミン,,株式会社,京都府,京都市伏見区,深草田谷町１番地学校法人聖母女学院本館内,,26,109,6120878,,,,,,,2023-11-14,1,,,,,エルミン,0
428,2140003019798,新規,0,2023-11-14,2023-11-14,合同会社高下組,,合同会社,兵庫県,三田市,高次２丁目６－６,,28,219,6691512,,,,,,,2023-11-14,1,,,,,コウゲグミ,0
438,2180001158917,新規,0,2023-11-14,2023-11-14,株式会社ベルウッド,,株式会社,愛知県,名古屋市千種区,東明町５丁目１２番地,,23,101,4640028,,,,,,,2023-11-14,1,,,,,ベルウッド,0
441,2180005020420,新規,0,2023-11-14,2023-11-14,一般社団法人日本口もと美容学会,,その他の設立登記法人,愛知県,名古屋市中村区,名駅南３丁目９番１５号,,23,105,4500003,,,,,,,2023-11-14,1,,,,,ニホンクチモトビヨウガッカイ,0
443,2180301038018,新規,0,2023-11-14,2023-11-14,江間忠ウッドパワー株式会社,,株式会社,愛知県,新城市,富岡字東門沢９０番地,,23,221,4411335,,,,,,,2023-11-14,1,,,,,エマチュウウッドパワー,0
444,2180301038034,新規,0,2023-11-14,2023-11-14,株式会社Ｄｅｄｉｃａｔｅｄ　Ｃｒｅｗｓ,,株式会社,愛知県,豊田市,花園町塩倉１８番地１１,,23,211,4730924,,,,,,,2023-11-14,1,,,,,デディケイティッドクルーズ,0
453,2190001030884,新規,0,2023-11-14,2023-11-14,株式会社バギー,,株式会社,三重県,鈴鹿市,寺家５丁目１番２５号,,24,207,5100254,,,,,,,2023-11-14,1,,,,,バギー,0
454,2190005011880,新規,0,2023-11-14,2023-11-14,特定非営利活動法人カフェ話・話,,その他の設立登記法人,三重県,名張市,桔梗が丘３番町四街区４１番地１９,,24,208,5180623,,,,,,,2023-11-14,1,,,,,ハナハナ,0
458,2210001019545,新規,0,2023-11-14,2023-11-14,株式会社ユニオンジャパン,,株式会社,福井県,福井市,西谷１丁目９０１番地,,18,201,9188023,,,,,,,2023-11-14,1,,,,,ユニオンジャパン,0
465,2220001025690,新規,0,2023-11-14,2023-11-14,株式会社Ｒｕｔｏ,,株式会社,石川県,金沢市,松村町ヌ２１０番地,,17,201,9200347,,,,,,,2023-11-14,1,,,,,ルート,0
466,2230001020105,新規,0,2023-11-14,2023-11-14,システム興業株式会社,,株式会社,富山県,富山市,太田南町４１番地,,16,201,9398044,,,,,,,2023-11-14,1,,,,,システムコウギョウ,0
471,2240001062419,新規,0,2023-11-14,2023-11-14,株式会社リラク,,株式会社,広島県,広島市中区,小町９番３９－８０３号,,34,101,7300041,,,,,,,2023-11-14,1,,,,,リラク,0
474,2260001038490,新規,0,2023-11-14,2023-11-14,ＦＩホールディングス株式会社,,株式会社,岡山県,岡山市南区,泉田１丁目３番１０号,,33,104,7000944,,,,,,,2023-11-14,1,,,,,エフアイホールディングス,0
496,2290005019195,新規,0,2023-11-14,2023-11-14,一般社団法人わんにゃんテイル,,その他の設立登記法人,福岡県,福岡市早良区,次郎丸４丁目１番１９－１０２号コアメゾンアイ,,40,137,8140165,,,,,,,2023-11-14,1,,,,,,0
512,2330003010077,新規,0,2023-11-14,2023-11-14,合同会社ＴＯＭＭＹ‐Ｇ,,合同会社,熊本県,熊本市南区,鳶町２丁目１番１１号,,43,104,8614135,,,,,,,2023-11-14,1,,,,,,0
517,2350001018657,新規,0,2023-11-14,2023-11-14,株式会社ＥＣＨＯＥＳ,,株式会社,宮崎県,都城市,高崎町大牟田２５６－１,,45,202,8894505,,,,,,,2023-11-14,1,,,,,エコーズ,0
518,2350003004481,新規,0,2023-11-14,2023-11-14,ｄｏｔ　ｃｏｍ合同会社,,合同会社,宮崎県,宮崎市,高洲町２３５－２６,,45,201,8800852,,,,,,,2023-11-14,1,,,,,ドットコム,0
521,2370001050617,新規,0,2023-11-14,2023-11-14,聚思智能株式会社,,株式会社,宮城県,仙台市青葉区,台原３丁目３８－２－３０５,,04,101,9810911,,,,,,,2023-11-14,1,,,,,シュウシチノウ,0
524,2370003006369,新規,0,2023-11-14,2023-11-14,燕商事合同会社,,合同会社,宮城県,亘理郡亘理町,字上茨田７９番地２,,04,361,9892351,,,,,,,2023-11-14,1,,,,,ツバメショウジ,0
538,2430001090433,新規,0,2023-11-14,2023-11-14,株式会社北匠システム,,株式会社,北海道,北広島市,大曲中央３丁目２－１３,,01,234,0611271,,,,,,,2023-11-14,1,,,,,ホクショウシステム,0
572,3010001239848,新規,0,2023-11-14,2023-11-14,日本能源株式会社,,株式会社,東京都,千代田区,神田須田町１丁目３番地９ＰＭＯ神田万世橋１０階,,13,101,1010041,,,,,,,2023-11-14,1,,,,,ニホンノウゲン,0
573,3010001239906,新規,0,2023-11-14,2023-11-14,株式会社秋葉観光,,株式会社,東京都,千代田区,外神田３丁目１６番１３号ＦＴビル３階,,13,101,1010021,,,,,,,2023-11-14,1,,,,,アキバカンコウ,0
575,3010005037496,新規,0,2023-11-14,2023-11-14,一般社団法人ソル,,その他の設立登記法人,東京都,千代田区,平河町１丁目３番１３号平河町フロントビル７階株式会社シリウス・アドバイザリー内,,13,101,1020093,,,,,,,2023-11-14,1,,,,,ソル,0
576,3010005037513,新規,0,2023-11-14,2023-11-14,一般社団法人Ｒａｐｐｏｒｔ１,,その他の設立登記法人,東京都,中央区,八丁堀４丁目２番１０号ＡＯＪ税理士法人内,,13,102,1040032,,,,,,,2023-11-14,1,,,,,ラポールワン,0
577,3010005037521,新規,0,2023-11-14,2023-11-14,エスティコアミ一般社団法人,,その他の設立登記法人,東京都,千代田区,丸の内３丁目１番１号東京共同会計事務所内,,13,101,1000005,,,,,,,2023-11-14,1,,,,,エスティコアミ,0
582,3010403031299,新規,0,2023-11-14,2023-11-14,合同会社Ｂｌｏｏｍ　Ｐｒｏｊｅｃｔ,,合同会社,東京都,港区,西麻布４丁目６番２－８０３号,,13,103,1060031,,,,,,,2023-11-14,1,,,,,ブルームプロジェクト,0
583,3010405022692,新規,0,2023-11-14,2023-11-14,ＳＯＩＣＯ司法書士法人,,その他の設立登記法人,東京都,港区,西麻布３丁目３番２３号ＦＩＬＤＯＲＥ西麻布２Ｆ,,13,103,1060031,,,,,,,2023-11-14,1,,,,,ソイコ,0
584,3010405022701,新規,0,2023-11-14,2023-11-14,アラン１一般社団法人,,その他の設立登記法人,東京都,港区,浜松町１丁目２０番１０号ライオネス浜松町５０６号室,,13,103,1050013,,,,,,,2023-11-14,1,,,,,アランイチ,0
588,3010603010474,新規,0,2023-11-14,2023-11-14,合同会社イノベーションプロジェクト,,合同会社,東京都,墨田区,文花１丁目１８－１３,,13,107,1310044,,,,,,,2023-11-14,1,,,,,イノベーションプロジェクト,0
593,3010903008581,新規,0,2023-11-14,2023-11-14,グリーム合同会社,,合同会社,東京都,世田谷区,喜多見５丁目１６番２５号テラスフローラ３－３０５,,13,112,1570067,,,,,,,2023-11-14,1,,,,,グリーム,0
601,3011103013744,新規,0,2023-11-14,2023-11-14,合同会社イグナイア,,合同会社,東京都,新宿区,西新宿３丁目３番１３号西新宿水間ビル６階,,13,104,1600023,,,,,,,2023-11-14,1,,,,,イグナイア,0
606,3011601027270,新規,0,2023-11-14,2023-11-14,株式会社Ｄ’Ｓ,,株式会社,東京都,練馬区,中村北３丁目１８番７号,,13,120,1760023,,,,,,,2023-11-14,1,,,,,ディーズ,0
607,3011603004128,新規,0,2023-11-14,2023-11-14,合同会社コスモクリーン,,合同会社,東京都,練馬区,上石神井１丁目１４番２号,,13,120,1770044,,,,,,,2023-11-14,1,,,,,コスモクリーン,0
615,3013301051591,新規,0,2023-11-14,2023-11-14,笑門ウェルフェア株式会社,,株式会社,東京都,豊島区,巣鴨５丁目１４－８－６０５,,13,116,1700002,,,,,,,2023-11-14,1,,,,,エモンウェルフェア,0
622,3020001154245,新規,0,2023-11-14,2023-11-14,オリビンマテリアル株式会社,,株式会社,神奈川県,横浜市中区,赤門町１丁目３番地７,,14,104,2310051,,,,,,,2023-11-14,1,,,,,オリビンマテリアル,0
623,3020001154492,新規,0,2023-11-14,2023-11-14,株式会社ＲＣイノベーション,,株式会社,神奈川県,川崎市麻生区,東百合丘４丁目４０番１４号,,14,137,2150012,,,,,,,2023-11-14,1,,,,,アールシーイノベーション,0
630,3020003024982,新規,0,2023-11-14,2023-11-14,合同会社ネクストクリエイト,,合同会社,神奈川県,川崎市多摩区,東三田３丁目１番２１号シャーメゾンベルデ３０２,,14,135,2140033,,,,,,,2023-11-14,1,,,,,ネクストクリエイト,0
631,3020003024990,新規,0,2023-11-14,2023-11-14,合同会社ＦＰＯ,,合同会社,神奈川県,横浜市西区,北幸２丁目１０番地４８むつみビル３Ｆ,,14,103,2200004,,,,,,,2023-11-14,1,,,,,エフピーオー,0
632,3020003024999,新規,0,2023-11-14,2023-11-14,合同会社オープンドア,,合同会社,神奈川県,横浜市緑区,三保町２６０８番地３リーベスト中山Ａ棟２１９号,,14,113,2260015,,,,,,,2023-11-14,1,,,,,オープンドア,0
657,3040001130913,新規,0,2023-11-14,2023-11-14,株式会社ネビュラインフィニティ,,株式会社,千葉県,松戸市,上本郷３９４８番地の３,,12,207,2710064,,,,,,,2023-11-14,1,,,,,ネビュラインフィニティ,0
660,3040003023719,新規,0,2023-11-14,2023-11-14,合同会社とわいえ,,合同会社,千葉県,白井市,桜台２丁目４番８－１００２号,,12,232,2701412,,,,,,,2023-11-14,1,,,,,トワイエ,0
661,3040003023727,新規,0,2023-11-14,2023-11-14,合同会社ｓｏｌｉｄｍａｔｃｈ,,合同会社,千葉県,匝瑳市,椿１５５１番地３,,12,235,2892102,,,,,,,2023-11-14,1,,,,,ソリッドマッチ,0
672,3070003005160,新規,0,2023-11-14,2023-11-14,合同会社要電気工事,,合同会社,群馬県,前橋市,駒形町７４番地１１,,10,201,3792122,,,,,,,2023-11-14,1,,,,,カナメデンキコウジ,0
675,3080101024334,新規,0,2023-11-14,2023-11-14,株式会社ＡＬＬＩＥＤ　ＰＲＯＦＥＳＳＩＯＮＡＬ,,株式会社,静岡県,裾野市,千福が丘３丁目６番１２,,22,220,4101115,,,,,,,2023-11-14,1,,,,,アライードプロフェッシオナル,0
681,3090003002420,新規,0,2023-11-14,2023-11-14,合同会社Ｅｓｐｏｉｒ．Ｋ,,合同会社,山梨県,甲府市,山宮町３３６８‐１８８,,19,201,4000075,,,,,,,2023-11-14,1,,,,,エスポワールケー,0
684,3110003005206,新規,0,2023-11-14,2023-11-14,合同会社ゆいこと,,合同会社,新潟県,上越市,春日新田５丁目６番７号,,15,222,9420061,,,,,,,2023-11-14,1,,,,,ユイコト,0
703,3120001259736,新規,0,2023-11-14,2023-11-14,株式会社Ｂｕｉｌｔ,,株式会社,大阪府,大阪市北区,梅田１丁目２番２号大阪駅前第２ビル１２－１２,,27,127,5300001,,,,,,,2023-11-14,1,,,,,ビルト,0
704,3120001259760,新規,0,2023-11-14,2023-11-14,瑪寺柯株式会社,,株式会社,大阪府,大阪市生野区,新今里５丁目７－６新今里サクセスビル２０１,,27,116,5440001,,,,,,,2023-11-14,1,,,,,マスク,0
705,3120001259769,新規,0,2023-11-14,2023-11-14,株式会社フラフィル,,株式会社,大阪府,大阪市中央区,南船場３丁目１番１０号,,27,128,5420081,,,,,,,2023-11-14,1,,,,,フラフィル,0
706,3120001259785,新規,0,2023-11-14,2023-11-14,株式会社ＰＲＩＭＩ,,株式会社,大阪府,大阪市東淀川区,西淡路３丁目３番１７号,,27,114,5330031,,,,,,,2023-11-14,1,,,,,プリミ,0
707,3120003025252,新規,0,2023-11-14,2023-11-14,合同会社マイスタイル,,合同会社,大阪府,大阪市北区,梅田１丁目１番１号大阪駅前第３ビル２９階１－１－１号室,,27,127,5300001,,,,,,,2023-11-14,1,,,,,マイスタイル,0
708,3120003025277,新規,0,2023-11-14,2023-11-14,ＴＭＴ合同会社,,合同会社,大阪府,門真市,下馬伏町１０番２０号,,27,223,5710009,,,,,,,2023-11-14,1,,,,,ティーエムティー,0
709,3120003025319,新規,0,2023-11-14,2023-11-14,卓越合同会社,,合同会社,大阪府,大阪市此花区,春日出南２丁目３番７号栄ハイツ１０１号室,,27,104,5540023,,,,,,,2023-11-14,1,,,,,タクエツ,0
710,3120003025335,新規,0,2023-11-14,2023-11-14,合同会社ＷＥＥＤ,,合同会社,大阪府,大阪市城東区,今福西３丁目５番２２号,,27,118,5360004,,,,,,,2023-11-14,1,,,,,ウィード,0
711,3120005023989,新規,0,2023-11-14,2023-11-14,一般社団法人ＷＡＺＩＷＡＺＩ,,その他の設立登記法人,大阪府,大阪市西区,北堀江１丁目６番５号,,27,106,5500014,,,,,,,2023-11-14,1,,,,,ワジワジ,0
716,3120101068525,新規,0,2023-11-14,2023-11-14,株式会社ターマス,,株式会社,大阪府,堺市東区,日置荘西町２丁１１番１６号,,27,143,5998114,,,,,,,2023-11-14,1,,,,,ターマス,0
717,3120103005534,新規,0,2023-11-14,2023-11-14,合同会社中西パートナーズ,,合同会社,大阪府,堺市中区,東山８２０番地１０,,27,142,5998247,,,,,,,2023-11-14,1,,,,,ナカニシパートナーズ,0
719,3120903004917,新規,0,2023-11-14,2023-11-14,Ｕｎｄｅｒ　Ｔｈｅ　Ｍｏｏｎ合同会社,,合同会社,大阪府,吹田市,桃山台３丁目８－４,,27,205,5650854,,,,,,,2023-11-14,1,,,,,アンダーザムーン,0
729,3130001075711,新規,0,2023-11-14,2023-11-14,株式会社小林工務店,,株式会社,京都府,京田辺市,河原北口２１－１－４０１,,26,211,6100361,,,,,,,2023-11-14,1,,,,,コバヤシコウムテン,0
734,3140001132123,新規,0,2023-11-14,2023-11-14,株式会社Ｔ２Ｇ,,株式会社,兵庫県,加古川市,平岡町二俣７５５番地の３,,28,210,6750111,,,,,,,2023-11-14,1,,,,,ティーツージー,0
735,3140001132321,新規,0,2023-11-14,2023-11-14,秋山グループ株式会社,,株式会社,兵庫県,西宮市,東山台４丁目１３番地１５,,28,204,6691133,,,,,,,2023-11-14,1,,,,,アキヤマグループ,0
738,3140003019797,新規,0,2023-11-14,2023-11-14,はんしんかんＤＭＯ合同会社,,合同会社,兵庫県,神戸市東灘区,深江本町３丁目１番３－３０１号,,28,101,6580021,,,,,,,2023-11-14,1,,,,,ハンシンカンディーエムオー,0
739,3140003019806,新規,0,2023-11-14,2023-11-14,ＤＢＦ合同会社,,合同会社,兵庫県,神戸市中央区,海岸通５丁目２－１８－８０１,,28,110,6500024,,,,,,,2023-11-14,1,,,,,ディービーエフ,0
745,3150005009523,新規,0,2023-11-14,2023-11-14,一般社団法人みんなとふるさと,,その他の設立登記法人,奈良県,天理市,福住町２１０５,,29,204,6320122,,,,,,,2023-11-14,1,,,,,ミンナトフルサト,0
750,3180001158866,新規,0,2023-11-14,2023-11-14,株式会社牡丹堂,,株式会社,愛知県,名古屋市東区,黒門町７４番地（黒門館１０２号）,,23,102,4610035,,,,,,,2023-11-14,1,,,,,ボタンドウ,0
751,3180001158940,新規,0,2023-11-14,2023-11-14,株式会社ビリオンエステート,,株式会社,愛知県,名古屋市中川区,中郷５丁目７２番地,,23,110,4540921,,,,,,,2023-11-14,1,,,,,ビリオンエステート,0
753,3180003025932,新規,0,2023-11-14,2023-11-14,合同会社クリエチュアル,,合同会社,愛知県,北名古屋市,加島新田北浦３０－２－１０６,,23,234,4810044,,,,,,,2023-11-14,1,,,,,クリエチュアル,0
754,3180003025981,新規,0,2023-11-14,2023-11-14,合同会社エックス,,合同会社,愛知県,知多郡東浦町,大字緒川字屋敷参区８５番地,,23,442,4702102,,,,,,,2023-11-14,1,,,,,エックス,0
758,3190003004497,新規,0,2023-11-14,2023-11-14,合同会社Ｕｐ,,合同会社,三重県,尾鷲市,栄町７番１７号,,24,209,5193618,,,,,,,2023-11-14,1,,,,,アップ,0
763,3200003006153,新規,0,2023-11-14,2023-11-14,合同会社Ｇｒｅｅｎ　Ｇｒａｓｓ,,合同会社,岐阜県,瑞浪市,北小田町１丁目４０番地,,21,208,5096115,,,,,,,2023-11-14,1,,,,,グリーングラス,0
767,3240001062418,新規,0,2023-11-14,2023-11-14,株式会社ＡＬＧＯ,,株式会社,広島県,広島市中区,流川町６番４－３０２号,,34,101,7300028,,,,,,,2023-11-14,1,,,,,アルゴ,0
785,3290001103605,新規,0,2023-11-14,2023-11-14,ＯＣＣＩＯＲＩＥＮＴＡＬＥ株式会社,,株式会社,福岡県,福津市,渡１５３番地,,40,224,8113307,,,,,,,2023-11-14,1,,,,,オッチオリエンターレ,0
788,3290005019194,新規,0,2023-11-14,2023-11-14,社会保険労務士法人村田人事労務管理研究所,,その他の設立登記法人,福岡県,福岡市城南区,東油山２丁目３番１０号ファインコア３階,,40,136,8140155,,,,,,,2023-11-14,1,,,,,ムラタジンジロウムカンリケンキュウショ,0
791,3290803004546,新規,0,2023-11-14,2023-11-14,合同会社Ｒｉｓｕｌｕｓ,,合同会社,福岡県,北九州市戸畑区,福柳木２丁目１６番２５号,,40,105,8040025,,,,,,,2023-11-14,1,,,,,リーザルス,0
803,3330001031470,新規,0,2023-11-14,2023-11-14,弘物流株式会社,,株式会社,熊本県,熊本市東区,沼山津３丁目１４番４１号,,43,102,8612102,,,,,,,2023-11-14,1,,,,,,0
807,3330003010084,新規,0,2023-11-14,2023-11-14,合同会社火の国不動産,,合同会社,熊本県,上益城郡御船町,大字御船１００２－７,,43,441,8613207,,,,,,,2023-11-14,1,,,,,ヒノクニフドウサン,0
809,3340003004309,新規,0,2023-11-14,2023-11-14,合同会社Ｖ,,合同会社,鹿児島県,奄美市,名瀬平松町１７７番地,,46,222,8940045,,,,,,,2023-11-14,1,,,,,ブイ,0
813,3360003013464,新規,0,2023-11-14,2023-11-14,合同会社琉球とるカート,,合同会社,沖縄県,那覇市,真嘉比２丁目２３－１０,,47,201,9020068,,,,,,,2023-11-14,1,,,,,リュウキュウトルカート,0
814,3360003013472,新規,0,2023-11-14,2023-11-14,合同会社ＭＪ,,合同会社,沖縄県,那覇市,松山２丁目９番５号フラミンゴビルＩＩ４Ｆ,00132638,47,201,9000032,,,,,,,2023-11-14,1,,,,,エムジェイ,0
815,3360003013489,新規,0,2023-11-14,2023-11-14,合同会社Ｉ・Ｐ・Ｏ,,合同会社,沖縄県,浦添市,仲西２丁目２番１１号フロンテアプランドール６０３号,,47,208,9012125,,,,,,,2023-11-14,1,,,,,アイピーオー,0
817,3370001050616,新規,0,2023-11-14,2023-11-14,株式会社ＤＨ　ｓｔｏｒｙ,,株式会社,宮城県,仙台市若林区,文化町５番５号ドエル南泉１０６号,,04,103,9840815,,,,,,,2023-11-14,1,,,,,ディーエイチストーリー,0
818,3370001050624,新規,0,2023-11-14,2023-11-14,株式会社ＥＡＳＴ　Ｉ,,株式会社,宮城県,多賀城市,新田字南関合９番地の４,,04,209,9850854,,,,,,,2023-11-14,1,,,,,イーストアイ,0
827,3430001090424,新規,0,2023-11-14,2023-11-14,サンセリテ株式会社,,株式会社,北海道,札幌市中央区,北六条西１０丁目３番地１,,01,101,0600006,,,,,,,2023-11-14,1,,,,,サンセリテ,0
840,4010001240037,新規,0,2023-11-14,2023-11-14,株式会社軽井沢追分リゾート,,株式会社,東京都,千代田区,霞が関３丁目２番１号,,13,101,1000013,,,,,,,2023-11-14,1,,,,,カルイザワオイワケリゾート,0
848,4010401178496,新規,0,2023-11-14,2023-11-14,株式会社ＳＯＭＭＳＱＵＡＤ,,株式会社,東京都,港区,元麻布２丁目１－２１－Ｂ１Ｆ,,13,103,1060046,,,,,,,2023-11-14,1,,,,,ソムスカッド,0
849,4010401178505,新規,0,2023-11-14,2023-11-14,ポンテ・パシフィック株式会社,,株式会社,東京都,港区,三田２丁目１４番４号三田慶応ビジデンス１００３,,13,103,1080073,,,,,,,2023-11-14,1,,,,,ポンテパシフィック,0
850,4010403031348,新規,0,2023-11-14,2023-11-14,新宿フロンティア２合同会社,,合同会社,東京都,港区,六本木１丁目９番１０号アークヒルズ仙石山森タワー４０階,,13,103,1060032,,,,,,,2023-11-14,1,,,,,シンジュクフロンティアツー,0
851,4010501051347,新規,0,2023-11-14,2023-11-14,株式会社オルキデア,,株式会社,東京都,台東区,上野７丁目１３－１０－１４０６,,13,106,1100005,,,,,,,2023-11-14,1,,,,,オルキデア,0
852,4010501051355,新規,0,2023-11-14,2023-11-14,希宸商事株式会社,,株式会社,東京都,台東区,浅草橋１丁目２８－６－１Ｆ,,13,106,1110053,,,,,,,2023-11-14,1,,,,,キシンショウジ,0
853,4010601064133,新規,0,2023-11-14,2023-11-14,株式会社ＣＯＣＯ２０１９,,株式会社,東京都,江東区,東陽２丁目２番１４－１４０３号,,13,108,1350016,,,,,,,2023-11-14,1,,,,,ココニゼロイチキュウ,0
863,4010701045124,新規,0,2023-11-14,2023-11-14,株式会社まちづくりホールディングス,,株式会社,東京都,品川区,北品川５丁目５番１５号大崎ブライトコアＳＨＩＰ,,13,109,1410001,,,,,,,2023-11-14,1,,,,,マチヅクリホールディングス,0
874,4011001158178,新規,0,2023-11-14,2023-11-14,株式会社ＢＡＮＡＰＳ,,株式会社,東京都,渋谷区,道玄坂１丁目１０番８号渋谷道玄坂東急ビル２Ｆ－Ｃ,,13,113,1500043,,,,,,,2023-11-14,1,,,,,バナップス,0
875,4011001158269,新規,0,2023-11-14,2023-11-14,株式会社ＣＲＡＳ,,株式会社,東京都,渋谷区,千駄ヶ谷３丁目１５－３,,13,113,1510051,,,,,,,2023-11-14,1,,,,,クラース,0
876,4011003017927,新規,0,2023-11-14,2023-11-14,合同会社ｉｔｓｕ,,合同会社,東京都,渋谷区,恵比寿南１丁目１４－９アルティｕｎ２０４号室,,13,113,1500022,,,,,,,2023-11-14,1,,,,,イツ,0
878,4011101105113,新規,0,2023-11-14,2023-11-14,株式会社Ｋ．Ｔ　ｃｒｅａｔｉｏｎ,,株式会社,東京都,新宿区,新宿１丁目２－１新宿御苑前マンション２０６,,13,104,1600022,,,,,,,2023-11-14,1,,,,,ケーティークリエイション,0
879,4011101105121,新規,0,2023-11-14,2023-11-14,株式会社ＨＩＲｏｕｖｅｒ,,株式会社,東京都,新宿区,西新宿３丁目３番１３号西新宿水間ビル２Ｆ,,13,104,1600023,,,,,,,2023-11-14,1,,,,,ハイローバー,0
888,4011501029960,新規,0,2023-11-14,2023-11-14,株式会社北王ＧＲＯＵＰ,,株式会社,東京都,北区,王子２丁目３０番２号,,13,117,1140002,,,,,,,2023-11-14,1,,,,,ホクオウグループ,0
891,4011805003315,新規,0,2023-11-14,2023-11-14,一般社団法人日越１００年共創協会,,その他の設立登記法人,東京都,葛飾区,亀有５丁目１２番１２号振興ビル２０７号,,13,122,1250061,,,,,,,2023-11-14,1,,,,,ニチエツヒャクネンキョウソウキョウカイ,0
893,4012401041213,新規,0,2023-11-14,2023-11-14,株式会社トライズプロパティ,,株式会社,東京都,武蔵野市,吉祥寺本町１丁目２０番１号吉祥寺永谷シティプラザ１００２,,13,203,1800004,,,,,,,2023-11-14,1,,,,,トライズプロパティ,0
895,4013101009285,新規,0,2023-11-14,2023-11-14,株式会社ドゥーイットナウ,,株式会社,東京都,西多摩郡日の出町,大字平井２０８番地６,,13,305,1900182,,,,,,,2023-11-14,1,,,,,ドゥーイットナウ,0
913,4020001154236,新規,0,2023-11-14,2023-11-14,ＳＥ株式会社,,株式会社,神奈川県,横浜市神奈川区,金港町５番地１４クアドリフォリオ８階,,14,102,2210056,,,,,,,2023-11-14,1,,,,,エスイー,0
914,4020001154467,新規,0,2023-11-14,2023-11-14,昭和食堂株式会社,,株式会社,神奈川県,横浜市中区,相生町４丁目６９番地１トーカン馬車道キャステール５Ｆ,,14,104,2310012,,,,,,,2023-11-14,1,,,,,ショウワショクドウ,0
915,4020001154500,新規,0,2023-11-14,2023-11-14,株式会社Ｅｄｅ,,株式会社,神奈川県,横浜市戸塚区,汲沢５丁目２０－６－２Ｆ,,14,110,2450061,,,,,,,2023-11-14,1,,,,,エデ,0
921,4021001080728,新規,0,2023-11-14,2023-11-14,株式会社ナギサ,,株式会社,神奈川県,藤沢市,高谷５番１号,,14,205,2510017,,,,,,,2023-11-14,1,,,,,ナギサ,0
931,4030001156925,新規,0,2023-11-14,2023-11-14,長富株式会社,,株式会社,埼玉県,蕨市,北町１丁目１６－１２,,11,223,3350001,,,,,,,2023-11-14,1,,,,,ナガトミ,0
937,4030003022992,新規,0,2023-11-14,2023-11-14,リバーツリー合同会社,,合同会社,埼玉県,さいたま市南区,南浦和３丁目４４番４号,,11,108,3360017,,,,,,,2023-11-14,1,,,,,リバーツリー,0
938,4030003023009,新規,0,2023-11-14,2023-11-14,合同会社ゼロエイトＲ＆Ｄ日本東印度会社,,合同会社,埼玉県,さいたま市緑区,芝原３丁目３－１２Ｂ１０２,,11,109,3360917,,,,,,,2023-11-14,1,,,,,ゼロエイトアールアンドディーニホンヒガシインドガイシャ,0
942,4040001130706,新規,0,2023-11-14,2023-11-14,三共総業株式会社,,株式会社,千葉県,千葉市中央区,祐光２丁目７番１号,,12,101,2600007,,,,,,,2023-11-14,1,,,,,サンキョウソウギョウ,0
944,4040005022197,新規,0,2023-11-14,2023-11-14,一般社団法人地域人材育成アカデミー,,その他の設立登記法人,千葉県,市原市,五井中央西２丁目１４番１１号,,12,219,2900081,,,,,,,2023-11-14,1,,,,,チイキジンザイイクセイアカデミー,0
958,4080101024341,新規,0,2023-11-14,2023-11-14,ＤｉｖｅｒｓｅＷｏｒｋ株式会社,,株式会社,静岡県,富士市,中之郷３１７３－１エスペランス１０１,,22,210,4213306,,,,,,,2023-11-14,1,,,,,ダイバーズワーク,0
962,4080403004909,新規,0,2023-11-14,2023-11-14,合同会社ＳＯＬ,,合同会社,静岡県,浜松市北区,初生町８１番地の３,,22,135,4338112,,,,,,,2023-11-14,1,,,,,ソル,0
977,4120001259685,新規,0,2023-11-14,2023-11-14,株式会社バルパ,,株式会社,大阪府,大阪市西区,江戸堀１丁目２０番２２号,,27,106,5500002,,,,,,,2023-11-14,1,,,,,バルパ,0
978,4120001259776,新規,0,2023-11-14,2023-11-14,株式会社フォレストジャパン,,株式会社,大阪府,大阪市天王寺区,東高津町６－７ドルチェ上本町２０１,,27,109,5430021,,,,,,,2023-11-14,1,,,,,フォレストジャパン,0
979,4120001259792,新規,0,2023-11-14,2023-11-14,新世代株式会社,,株式会社,大阪府,大阪市西成区,長橋３丁目４番２０号,,27,122,5570025,,,,,,,2023-11-14,1,,,,,シンセダイ,0
980,4120001259834,新規,0,2023-11-14,2023-11-14,Ｌｏｕｉｓ　Ｖａｌｉａｎｔ株式会社,,株式会社,大阪府,大阪市中央区,南船場４丁目１４番１号南船場センター１階２階,,27,128,5420081,,,,,,,2023-11-14,1,,,,,ルイヴァリアント,0
981,4120001259891,新規,0,2023-11-14,2023-11-14,株式会社進路は東へ,,株式会社,大阪府,大阪市中央区,伏見町４丁目３番４－８０５号,,27,128,5410044,,,,,,,2023-11-14,1,,,,,シンロハヒガシヘ,0
985,4120003025326,新規,0,2023-11-14,2023-11-14,合同会社ＨＡＮＡＯ,,合同会社,大阪府,大阪市東住吉区,杭全８丁目６番２３号,,27,121,5460002,,,,,,,2023-11-14,1,,,,,ハナオ,0
986,4120003025334,新規,0,2023-11-14,2023-11-14,ＢｅＳｉｄｅ合同会社,,合同会社,大阪府,大阪市北区,梅田１丁目２番２号大阪駅前第２ビル１２‐１２,,27,127,5300001,,,,,,,2023-11-14,1,,,,,ビサイド,0
987,4120003025342,新規,0,2023-11-14,2023-11-14,リョウエン合同会社,,合同会社,大阪府,守口市,梶町３丁目３１番３４号,,27,209,5700015,,,,,,,2023-11-14,1,,,,,リョウエン,0
988,4120005023988,新規,0,2023-11-14,2023-11-14,弁護士法人夕陽ヶ丘法律事務所,,その他の設立登記法人,大阪府,大阪市天王寺区,上本町８丁目２番１－２０２号,,27,109,5430001,,,,,,,2023-11-14,1,,,,,ユウヒガオカホウリツジムショ,0
994,4120903004916,新規,0,2023-11-14,2023-11-14,合同会社Ｍ１９９７Ｃａｋｅ,,合同会社,大阪府,摂津市,鳥飼西１丁目３番２５号２Ａ,,27,224,5660072,,,,,,,2023-11-14,1,,,,,エムイチキューキューナナケーキ,0
1003,4140001132312,新規,0,2023-11-14,2023-11-14,株式会社ＯＫＢ,,株式会社,兵庫県,宝塚市,山本中３丁目１２番１号,,28,214,6650883,,,,,,,2023-11-14,1,,,,,オーケービー,0
1006,4140003019805,新規,0,2023-11-14,2023-11-14,合同会社ＷＨＯＬＥ,,合同会社,兵庫県,西宮市,大社町１１番３１－１０７号,,28,204,6620867,,,,,,,2023-11-14,1,,,,,ホール,0
1007,4140005026799,新規,0,2023-11-14,2023-11-14,一般社団法人ＷＥＢカウンデ,,その他の設立登記法人,兵庫県,明石市,東朝霧丘４番１２号,,28,203,6730854,,,,,,,2023-11-14,1,,,,,ウェブカウンデ,0
1008,4150005009522,新規,0,2023-11-14,2023-11-14,一般社団法人つなＣＡＮ,,その他の設立登記法人,奈良県,大和高田市,東三倉堂町１７番地１０号,,29,202,6350034,,,,,,,2023-11-14,1,,,,,ツナカン,0
1009,4170003001941,新規,0,2023-11-14,2023-11-14,合同会社ＫＡＷＡＳＡＫＩ,,合同会社,和歌山県,和歌山市,梶取１４７―８プリムローズ１０３,,30,201,6408411,,,,,,,2023-11-14,1,,,,,カワサキ,0
1018,4180001158915,新規,0,2023-11-14,2023-11-14,株式会社ＲＥＰＬＡＹ,,株式会社,愛知県,名古屋市名東区,社が丘２丁目６０７番地Ｔａｓｔｅ本郷２０１号,,23,115,4650051,,,,,,,2023-11-14,1,,,,,リプレイ,0
1025,4190001030882,新規,0,2023-11-14,2023-11-14,株式会社Ｓｔｒｉｐｅ＆ｓｐａｃｅ,,株式会社,三重県,松阪市,東町１２２番地,,24,204,5150012,,,,,,,2023-11-14,1,,,,,ストライプアンドスペース,0
1026,4200001041886,新規,0,2023-11-14,2023-11-14,株式会社えなファーマシー,,株式会社,岐阜県,恵那市,大井町宮ノ前１１１６番地４,,21,210,5097201,,,,,,,2023-11-14,1,,,,,エナファーマシー,0
1027,4200001041903,新規,0,2023-11-14,2023-11-14,金鴻株式会社,,株式会社,岐阜県,揖斐郡大野町,大字公郷１１１０番地６９,,21,403,5010555,,,,,,,2023-11-14,1,,,,,キンコウ,0
1036,4240001062409,新規,0,2023-11-14,2023-11-14,株式会社悠修,,株式会社,広島県,広島市安佐北区,落合２丁目３５番８号,,34,106,7391731,,,,,,,2023-11-14,1,,,,,ユウシュウ,0
1046,4290001103752,新規,0,2023-11-14,2023-11-14,セイケン株式会社,,株式会社,福岡県,福岡市東区,二又瀬新町９番１２号,,40,131,8120065,,,,,,,2023-11-14,1,,,,,,0
1053,4290003014592,新規,0,2023-11-14,2023-11-14,プロマネサポート合同会社,,合同会社,福岡県,福岡市博多区,博多駅前４丁目２２－２５,,40,132,8120011,,,,,,,2023-11-14,1,,,,,プロマネサポート,0
1054,4290801030048,新規,0,2023-11-14,2023-11-14,Ｉ．Ｎ．Ｒ株式会社,,株式会社,福岡県,北九州市小倉北区,大手町４番２３－７０５号,,40,106,8030814,,,,,,,2023-11-14,1,,,,,アイエヌアール,0
1057,4290803004545,新規,0,2023-11-14,2023-11-14,合同会社ＰＵ,,合同会社,福岡県,北九州市小倉南区,中曽根東１丁目２番２５号（４０７）,,40,107,8000213,,,,,,,2023-11-14,1,,,,,ピーユー,0
1058,4310001018709,新規,0,2023-11-14,2023-11-14,株式会社ＭＯＳＴ,,株式会社,長崎県,諫早市,幸町４番６号,,42,204,8540022,,,,,,,2023-11-14,1,,,,,モスト,0
1064,4330005010718,新規,0,2023-11-14,2023-11-14,一般社団法人Ｒｅｌｉｅｆ,,その他の設立登記法人,熊本県,菊池市,赤星１３８１番地,,43,210,8611311,,,,,,,2023-11-14,1,,,,,リリーフ,0
1066,4340001026072,新規,0,2023-11-14,2023-11-14,株式会社エムアールユー,,株式会社,鹿児島県,鹿屋市,下祓川町２０６２番地９,,46,203,8930024,,,,,,,2023-11-14,1,,,,,エムアールユー,0
1073,4370001050623,新規,0,2023-11-14,2023-11-14,株式会社渥美,,株式会社,宮城県,黒川郡大郷町,土橋字細田９９番地,,04,422,9813523,,,,,,,2023-11-14,1,,,,,アツミ,0
1083,4430003015642,新規,0,2023-11-14,2023-11-14,合同会社ＨＬＳｏｌｕｔｉｏｎ,,合同会社,北海道,札幌市中央区,南一条西２４丁目１番３０号円山ＯＣＴ　ｂｌｄ．２階,,01,101,0640801,,,,,,,2023-11-14,1,,,,,エイチエルソリューション,0
1085,4470001019897,新規,0,2023-11-14,2023-11-14,株式会社グローアップ,,株式会社,香川県,高松市,太田上町１０６０番地７,,37,201,7618074,,,,,,,2023-11-14,1,,,,,グローアップ,0
1087,4500001025306,新規,0,2023-11-14,2023-11-14,株式会社ＬＵＣＫＩＮＥＳＳ,,株式会社,愛媛県,伊予郡松前町,大字北川原３６５番地３,,38,401,7913131,,,,,,,2023-11-14,1,,,,,ラッキネス,0
1095,5010001240085,新規,0,2023-11-14,2023-11-14,川口屋商店株式会社,,株式会社,東京都,中央区,日本橋室町１丁目１１番１２号日本橋水野ビル７Ｆ,,13,102,1030022,,,,,,,2023-11-14,1,,,,,カワグチヤショウテン,0
1098,5010003042216,新規,0,2023-11-14,2023-11-14,ニッポン・サポート合同会社,,合同会社,東京都,千代田区,四番町４番地９新東京国際リーガル内,,13,101,1020081,,,,,,,2023-11-14,1,,,,,ニッポンサポート,0
1107,5010403031347,新規,0,2023-11-14,2023-11-14,新宿フロンティア１合同会社,,合同会社,東京都,港区,六本木１丁目９番１０号アークヒルズ仙石山森タワー４０階,,13,103,1060032,,,,,,,2023-11-14,1,,,,,シンジュクフロンティアワン,0
1109,5010501051354,新規,0,2023-11-14,2023-11-14,株式会社ＬＯＢＢＥＥ,,株式会社,東京都,台東区,柳橋２丁目１６－１６ホテルブリリオ浅草橋１Ｆ,,13,106,1110052,,,,,,,2023-11-14,1,,,,,ロビー,0
1124,5011001158227,新規,0,2023-11-14,2023-11-14,株式会社ＷＯＲＫ　ＬＡＢＥＬ,,株式会社,東京都,渋谷区,恵比寿４丁目６番１０号恵比寿ホークビル４階,,13,113,1500013,,,,,,,2023-11-14,1,,,,,ワークレーベル,0
1125,5011003017892,新規,0,2023-11-14,2023-11-14,合同会社ｂａｍｂｉ,,合同会社,東京都,目黒区,青葉台４丁目４－１２ルフォンプログレ渋谷ヒルトップ９１２,,13,110,1530042,,,,,,,2023-11-14,1,,,,,バンビ,0
1136,5011501029919,新規,0,2023-11-14,2023-11-14,株式会社カーボンチャット,,株式会社,東京都,北区,浮間１丁目１番１４－２０６号,,13,117,1150051,,,,,,,2023-11-14,1,,,,,カーボンチャット,0
1140,5011703003655,新規,0,2023-11-14,2023-11-14,合同会社ＷＯＲＫＳ,,合同会社,東京都,江戸川区,一之江６丁目１３番１９号,,13,123,1320024,,,,,,,2023-11-14,1,,,,,ワークス,0
1141,5011705001806,新規,0,2023-11-14,2023-11-14,一般社団法人水辺環境創造グループ,,その他の設立登記法人,東京都,江戸川区,平井５丁目１４番１０－３階,,13,123,1320035,,,,,,,2023-11-14,1,,,,,ミズベカンキョウソウゾウグループ,0
1145,5012701017952,新規,0,2023-11-14,2023-11-14,株式会社けんぞう,,株式会社,東京都,西東京市,田無町６丁目１６番１３号,,13,229,1880011,,,,,,,2023-11-14,1,,,,,ケンゾウ,0
1146,5012801022761,新規,0,2023-11-14,2023-11-14,株式会社真成,,株式会社,東京都,昭島市,大神町２丁目７番１８号,,13,207,1960013,,,,,,,2023-11-14,1,,,,,シンセイ,0
1151,5020001154441,新規,0,2023-11-14,2023-11-14,Ｂａｄ　Ｐｅａｃｅ株式会社,,株式会社,神奈川県,川崎市川崎区,浅田３丁目１０番地２２号,,14,131,2100847,,,,,,,2023-11-14,1,,,,,バッドピース,0
1152,5020001154466,新規,0,2023-11-14,2023-11-14,株式会社フィードバック,,株式会社,神奈川県,横浜市緑区,西八朔町１２番地３３,,14,113,2260024,,,,,,,2023-11-14,1,,,,,フィードバック,0
1153,5020001154474,新規,0,2023-11-14,2023-11-14,株式会社マルチディメンションナルテックイノベーション,,株式会社,神奈川県,横浜市保土ケ谷区,保土ケ谷町１丁目９２番地５オークフォート保土ケ谷３０１号,,14,106,2400021,,,,,,,2023-11-14,1,,,,,マルチディメンションナルテックイノベーション,0
1156,5020003024956,新規,0,2023-11-14,2023-11-14,合同会社シャーロックアイピー,,合同会社,神奈川県,横浜市保土ケ谷区,峰沢町８８番地６９,,14,106,2400061,,,,,,,2023-11-14,1,,,,,シャーロックアイピー,0
1181,5040001130837,新規,0,2023-11-14,2023-11-14,タスグローバル株式会社,,株式会社,千葉県,山武市,小松２８３６－２,,12,237,2891302,,,,,,,2023-11-14,1,,,,,タスグローバル,0
1182,5040001130894,新規,0,2023-11-14,2023-11-14,株式会社ＨＩＧＨ　ＴＲＥＥ,,株式会社,千葉県,千葉市若葉区,桜木北２丁目２番９号,,12,104,2640029,,,,,,,2023-11-14,1,,,,,ハイツリー,0
1183,5040001130903,新規,0,2023-11-14,2023-11-14,ＣＮ　Ｋｉｎｇｄｏｍ株式会社,,株式会社,千葉県,香取郡多古町,喜多井野４７３番地４１,,12,347,2892200,,,,,,,2023-11-14,1,,,,,シーエヌキングダム,0
1195,5070001041065,新規,0,2023-11-14,2023-11-14,株式会社ｆプラス,,株式会社,群馬県,邑楽郡大泉町,東小泉１丁目６番１７号,,10,524,3700513,,,,,,,2023-11-14,1,,,,,エフプラス,0
1202,5080403004908,新規,0,2023-11-14,2023-11-14,Ｄｃ・Ｐｌｕｓ合同会社,,合同会社,静岡県,浜松市中区,鴨江３丁目６３－６,,22,131,4328023,,,,,,,2023-11-14,1,,,,,ディーシープラス,0
1203,5090003002427,新規,0,2023-11-14,2023-11-14,Ｓｐｉｃｅ合同会社,,合同会社,山梨県,南都留郡富士河口湖町,勝山３３１９番地５コテージ樹林２０４号,,19,430,4010310,,,,,,,2023-11-14,1,,,,,スパイス,0
1222,5120001259759,新規,0,2023-11-14,2023-11-14,ＺＡＭＡＸ株式会社,,株式会社,大阪府,大阪市西成区,太子２丁目２番２０号１０２号室,,27,122,5570002,,,,,,,2023-11-14,1,,,,,ザマックス,0
1223,5120001259767,新規,0,2023-11-14,2023-11-14,日本恵子優品株式会社,,株式会社,大阪府,大阪市港区,田中３丁目６番１２号,,27,107,5520005,,,,,,,2023-11-14,1,,,,,ニホンケイコユウヒン,0
1224,5120001259833,新規,0,2023-11-14,2023-11-14,株式会社アップスタート,,株式会社,大阪府,大阪市東淀川区,瑞光５丁目５番９号,,27,114,5330005,,,,,,,2023-11-14,1,,,,,アップスタート,0
1226,5120003025317,新規,0,2023-11-14,2023-11-14,ＣＫ‐ＭＧＫ合同会社,,合同会社,大阪府,大阪市北区,中之島３丁目６番１６号,,27,127,5300005,,,,,,,2023-11-14,1,,,,,シーケーエムジーケー,0
1228,5120101068523,新規,0,2023-11-14,2023-11-14,株式会社小坂自動車,,株式会社,大阪府,堺市西区,菱木４丁２７９２,,27,144,5938315,,,,,,,2023-11-14,1,,,,,コサカジドウシャ,0
1229,5120101068531,新規,0,2023-11-14,2023-11-14,株式会社ＳＨＩＫＡ,,株式会社,大阪府,岸和田市,土生町７丁目９－２－２０２,,27,202,5960825,,,,,,,2023-11-14,1,,,,,シカ,0
1236,5120903004915,新規,0,2023-11-14,2023-11-14,さくさくＬａ３合同会社,,合同会社,大阪府,豊中市,待兼山町２０－７,,27,203,5600043,,,,,,,2023-11-14,1,,,,,サクサクラララ,0
1247,5140003019795,新規,0,2023-11-14,2023-11-14,ＲｕＺｅ合同会社,,合同会社,兵庫県,川西市,南花屋敷３丁目１３－２１－ヒルコート花屋敷３０１号,,28,217,6660026,,,,,,,2023-11-14,1,,,,,ルーズ,0
1250,5150001026883,新規,0,2023-11-14,2023-11-14,株式会社猪原,,株式会社,奈良県,宇陀市,榛原下井足１６５０番地,,29,212,6330241,,,,,,,2023-11-14,1,,,,,イバラ,0
1252,5160003003038,新規,0,2023-11-14,2023-11-14,合同会社ＡＯＳＥ,,合同会社,滋賀県,東近江市,宮川町２４４－９０５,,25,213,5291551,,,,,,,2023-11-14,1,,,,,アオセ,0
1260,5180001158897,新規,0,2023-11-14,2023-11-14,株式会社ＳＨＯ,,株式会社,愛知県,あま市,中萱津五反田２１番地ラドーニ甚目寺大地の館７０１号,,23,237,4901113,,,,,,,2023-11-14,1,,,,,ショウ,0
1262,5180003026004,新規,0,2023-11-14,2023-11-14,合同会社１６１６リフォーム,,合同会社,愛知県,一宮市,浅井町大日比野字尾関前９０－１,,23,203,4910105,,,,,,,2023-11-14,1,,,,,イロイロリフォーム,0
1263,5190001030881,新規,0,2023-11-14,2023-11-14,株式会社インフィニティ,,株式会社,三重県,松阪市,末広町１丁目２２５番地１,,24,204,5150016,,,,,,,2023-11-14,1,,,,,インフィニティ,0
1264,5190003004504,新規,0,2023-11-14,2023-11-14,ＴＡＭＡＧＯ９５合同会社,,合同会社,三重県,桑名市,大字桑名４７６番地５６－３－２Ｆ,,24,205,5110009,,,,,,,2023-11-14,1,,,,,タマゴキュウジュウゴ,0
1266,5200001041902,新規,0,2023-11-14,2023-11-14,株式会社ファイナリスト,,株式会社,岐阜県,瑞穂市,美江寺４３７番地１,,21,216,5010312,,,,,,,2023-11-14,1,,,,,ファイナリスト,0
1267,5200003006151,新規,0,2023-11-14,2023-11-14,合同会社ひだ土地管理サービス,,合同会社,岐阜県,高山市,中山町６０３番地,,21,203,5060051,,,,,,,2023-11-14,1,,,,,ヒダトチカンリサービス,0
1276,5250003003383,新規,0,2023-11-14,2023-11-14,合同会社フロムハンズ,,合同会社,山口県,熊毛郡田布施町,大字下田布施３８１番地１,,35,343,7421511,,,,,,,2023-11-14,1,,,,,フロムハンズ,0
1281,5270003001575,新規,0,2023-11-14,2023-11-14,合同会社アジアフューチャー,,合同会社,鳥取県,米子市,河崎３１８８－１,,31,202,6830852,,,,,,,2023-11-14,1,,,,,アジアフューチャー,0
1291,5290001103710,新規,0,2023-11-14,2023-11-14,株式会社Ａｒｃ　Ｃｏｌｏｒｅｒ,,株式会社,福岡県,久留米市,高良内町１６２番地１７,,40,203,8390852,,,,,,,2023-11-14,1,,,,,アーククロレ,0
1292,5290001103743,新規,0,2023-11-14,2023-11-14,株式会社イトウ技建,,株式会社,福岡県,飯塚市,枝国４４８番地４,,40,205,8200081,,,,,,,2023-11-14,1,,,,,イトウギケン,0
1294,5290003014609,新規,0,2023-11-14,2023-11-14,合同会社ＴＨＣ,,合同会社,福岡県,福岡市早良区,高取１丁目１９番９号,,40,137,8140011,,,,,,,2023-11-14,1,,,,,ティーエイチシー,0
1295,5290005019192,新規,0,2023-11-14,2023-11-14,ＮＰＯ法人ティエラ,,その他の設立登記法人,福岡県,福岡市南区,和田３丁目２５番８－２０２号シャルマンコート,,40,134,8111343,,,,,,,2023-11-14,1,,,,,,0
1296,5290801030039,新規,0,2023-11-14,2023-11-14,株式会社凪,,株式会社,福岡県,北九州市八幡西区,大平１丁目６番１８号１Ｆ,,40,109,8070083,,,,,,,2023-11-14,1,,,,,ナギ,0
1297,5290801030047,新規,0,2023-11-14,2023-11-14,株式会社くにたけカンパニー,,株式会社,福岡県,北九州市小倉北区,魚町１丁目６番１０号,,40,106,8020006,,,,,,,2023-11-14,1,,,,,クニタケカンパニー,0
1299,5320001020142,新規,0,2023-11-14,2023-11-14,株式会社ｔｏｔａｌ　ｄｅｓｉｇｎ　ｈｏｍｅ,,株式会社,大分県,中津市,大字下池永４８２番地４スクエアアライアンスＤ,,44,203,8710011,,,,,,,2023-11-14,1,,,,,トータルデザインホーム,0
1303,5340001026071,新規,0,2023-11-14,2023-11-14,株式会社徳之島いきがい創生局,,株式会社,鹿児島県,大島郡天城町,大字松原１９０１番地１,,46,531,8917602,,,,,,,2023-11-14,1,,,,,トクノシマイキガイソウセイキョク,0
1305,5340005009675,新規,0,2023-11-14,2023-11-14,一般社団法人フルール,,その他の設立登記法人,鹿児島県,霧島市,隼人町真孝１６６０番地３,,46,218,8995102,,,,,,,2023-11-14,1,,,,,フルール,0
1308,5360001032828,新規,0,2023-11-14,2023-11-14,株式会社陸運社中,,株式会社,沖縄県,浦添市,牧港２丁目９番６－６０２号,,47,208,9012131,,,,,,,2023-11-14,1,,,,,リクウンシャチュウ,0
1309,5360003013479,新規,0,2023-11-14,2023-11-14,合同会社なはコンサル,,合同会社,沖縄県,那覇市,田原３丁目１２－１７、１Ｆ,,47,201,9010156,,,,,,,2023-11-14,1,,,,,ナハコンサル,0
1310,5360005006935,新規,0,2023-11-14,2023-11-14,医療法人颯陽会,,その他の設立登記法人,沖縄県,うるま市,勝連平安名１６５５番１－１,,47,213,9042312,,,,,,,2023-11-14,1,,,,,ソウヨウカイ,0
1312,5370001050622,新規,0,2023-11-14,2023-11-14,株式会社亀岡建築アトリエ,,株式会社,宮城県,仙台市太白区,向山２丁目２－１７－１０１,,04,104,9820841,,,,,,,2023-11-14,1,,,,,カメオカケンチクアトリエ,0
1317,5400001016462,新規,0,2023-11-14,2023-11-14,株式会社高清ホールディングス,,株式会社,岩手県,花巻市,南笹間１地割３８５番地,,03,205,0250134,,,,,,,2023-11-14,1,,,,,コウセイホールディングス,0
1320,5420001018481,新規,0,2023-11-14,2023-11-14,株式会社ＮＧＳ,,株式会社,青森県,上北郡野辺地町,字向田４２４番地１,,02,401,0393109,,,,,,,2023-11-14,1,,,,,エヌジーエス,0
1325,5460101007463,新規,0,2023-11-14,2023-11-14,株式会社気勇,,株式会社,北海道,帯広市,東三条南１３丁目１番地３ＨＯＵＳＥ伽羅Ａ号室,,01,207,0800803,,,,,,,2023-11-14,1,,,,,キユウ,0
1327,5480001012289,新規,0,2023-11-14,2023-11-14,株式会社ＮＯＡＨプラス,,株式会社,徳島県,板野郡板野町,大寺字岡ノ前６２番地１,,36,404,7790105,,,,,,,2023-11-14,1,,,,,ノアプラス,0
1330,5500003003135,新規,0,2023-11-14,2023-11-14,合同会社Ａ‐ＳＴＹＬＥ,,合同会社,愛媛県,西予市,城川町土居９０番地,,38,214,7971701,,,,,,,2023-11-14,1,,,,,エースタイル,0
1331,5700150122122,新規,0,2023-11-14,2023-11-14,ＴＢＯＬＴ　ＩＩＩ　ＨＫ　Ｌｔｄ,00132637,外国会社等,,,,,,,,１４ｔｈ　Ｆｌｏｏｒ，Ｇｏｌｄｅｎ　Ｃｅｎｔｒｅ，１８８　Ｄｅｓ　Ｖｏｅｕｘ　Ｒｏａｄ　Ｃｅｎｔｒａｌ，Ｈｏｎｇ　Ｋｏｎｇ,,,,,,2023-11-14,1,,,,,テイーボルトサードエイチケーエルテイーデイー,0
1339,6010001240035,新規,0,2023-11-14,2023-11-14,株式会社ノーザンライツ,,株式会社,東京都,千代田区,神田和泉町１番地６－１６ヤマトビル４０５,,13,101,1010024,,,,,,,2023-11-14,1,,,,,ノーザンライツ,0
1340,6010001240084,新規,0,2023-11-14,2023-11-14,星宏株式会社,,株式会社,東京都,千代田区,神田三崎町２丁目１０番１１号Ｐｅｇビル５Ａ－２,,13,101,1010061,,,,,,,2023-11-14,1,,,,,セイコウ,0
1344,6010103002242,新規,0,2023-11-14,2023-11-14,台日合同会社,,合同会社,東京都,八王子市,越野３２番地３７,,13,201,1920361,,,,,,,2023-11-14,1,,,,,タイニチ,0
1345,6010401178511,新規,0,2023-11-14,2023-11-14,エフエム＆パートナーズ株式会社,,株式会社,東京都,港区,虎ノ門３丁目１１番８号山田ビル３階,,13,103,1050001,,,,,,,2023-11-14,1,,,,,エフエムアンドバートナーズ,0
1346,6010403031346,新規,0,2023-11-14,2023-11-14,アジアライフ３ホールディング合同会社,,合同会社,東京都,港区,六本木１丁目９番１０号アークヒルズ仙石山森タワー４０階,,13,103,1060032,,,,,,,2023-11-14,1,,,,,アジアライフスリーホールディング,0
1347,6010403031354,新規,0,2023-11-14,2023-11-14,Ｊａｐａｎ　Ｗｏｒｌｄ　Ｅｎｔｅｒｐｒｉｓｅｓ合同会社,,合同会社,東京都,港区,南青山３丁目５番２号南青山第一韮澤ビル３Ｆ,,13,103,1070062,,,,,,,2023-11-14,1,,,,,ジャパンワールドエンタープライゼス,0
1351,6010501051337,新規,0,2023-11-14,2023-11-14,ＩＳＳＹＺＯＮＥ　ＪＡＰＡＮ株式会社,,株式会社,東京都,台東区,浅草６丁目５番１１号レムリア浅草１階、２階,,13,106,1110032,,,,,,,2023-11-14,1,,,,,イシーゾンジャパン,0
1352,6010501051345,新規,0,2023-11-14,2023-11-14,株式会社Ｔ＆Ａｓｓｏｃｉａｔｅｓ,,株式会社,東京都,台東区,元浅草１丁目３番１－５０１号,,13,106,1110041,,,,,,,2023-11-14,1,,,,,ティアンドエーアソシエイツ,0
1355,6010701045122,新規,0,2023-11-14,2023-11-14,株式会社ＡＫＵＳＨＵ,,株式会社,東京都,品川区,西五反田３丁目１３番７号ハーモニーグラシア目黒不動前７０１室,,13,109,1410031,,,,,,,2023-11-14,1,,,,,アクシュ,0
1357,6010901054179,新規,0,2023-11-14,2023-11-14,株式会社Ｂｉｚｂｌｅｎｄ,,株式会社,東京都,世田谷区,野沢３丁目３－１５,,13,112,1540003,,,,,,,2023-11-14,1,,,,,ビズブレンド,0
1363,6011003017891,新規,0,2023-11-14,2023-11-14,合同会社ミニ１,,合同会社,東京都,渋谷区,神泉町１２－５ジェイパーク渋谷神泉７０１,,13,113,1500045,,,,,,,2023-11-14,1,,,,,ミニワン,0
1368,6011101105086,新規,0,2023-11-14,2023-11-14,株式会社ふれんどホールディングス,,株式会社,東京都,新宿区,百人町１丁目３番２０号ＳＫビル１Ｆ,,13,104,1690073,,,,,,,2023-11-14,1,,,,,フレンドホールディングス,0
1369,6011101105103,新規,0,2023-11-14,2023-11-14,佳源株式会社,,株式会社,東京都,新宿区,高田馬場４丁目９番１１号藤和高田馬場コープＩＩ５０４号室,00132629,13,104,1690075,,,,,,,2023-11-14,1,,,,,カゲン,0
1373,6011501029918,新規,0,2023-11-14,2023-11-14,澤熙株式会社,,株式会社,東京都,北区,浮間１丁目１番１４－２１３号,,13,117,1150051,,,,,,,2023-11-14,1,,,,,タクキ,0
1374,6011501029950,新規,0,2023-11-14,2023-11-14,星光株式会社,,株式会社,東京都,北区,中十条２丁目９－１５－２０１号室,,13,117,1140032,,,,,,,2023-11-14,1,,,,,セイコウ,0
1375,6011601027268,新規,0,2023-11-14,2023-11-14,エヌスタイル株式会社,,株式会社,東京都,練馬区,関町南３丁目６番１１号,,13,120,1770053,,,,,,,2023-11-14,1,,,,,エヌスタイル,0
1380,6011703003654,新規,0,2023-11-14,2023-11-14,青盈合同会社,,合同会社,東京都,江戸川区,松江２丁目１－１３－１１０号室,,13,123,1320025,,,,,,,2023-11-14,1,,,,,セイエイ,0
1381,6012301013665,新規,0,2023-11-14,2023-11-14,株式会社プロテクト・サポート,,株式会社,東京都,町田市,原町田２丁目８番２号ＩＳ２１・３０１号室,,13,209,1940013,,,,,,,2023-11-14,1,,,,,プロテクトサポート,0
1388,6013301051622,新規,0,2023-11-14,2023-11-14,株式会社クロスポイント,,株式会社,東京都,豊島区,高田１丁目２９番７号メイクスデザイン学習院下３０４,,13,116,1710033,,,,,,,2023-11-14,1,,,,,クロスポイント,0
1398,6020003024939,新規,0,2023-11-14,2023-11-14,合同会社未完善,,合同会社,神奈川県,川崎市中原区,木月４丁目２６番３９号木村ハイツ１－Ａ,,14,133,2110025,,,,,,,2023-11-14,1,,,,,ミカンゼン,0
1399,6020003024988,新規,0,2023-11-14,2023-11-14,合同会社Ａｍｂｉｔｉｏｕｓ,,合同会社,神奈川県,川崎市多摩区,菅北浦２丁目１番３－３０２号,,14,135,2140008,,,,,,,2023-11-14,1,,,,,アンビシャス,0
1400,6020003024996,新規,0,2023-11-14,2023-11-14,Ｍｉｓｉｕ合同会社,,合同会社,神奈川県,横浜市中区,本牧和田２７－１８パティオ本牧６０１,,14,104,2310827,,,,,,,2023-11-14,1,,,,,ミシュ,0
1401,6020005016182,新規,0,2023-11-14,2023-11-14,ソワレ司法書士法人,,その他の設立登記法人,神奈川県,横浜市神奈川区,鶴屋町２丁目２１番地１ダイヤビル５０４,,14,102,2210835,,,,,,,2023-11-14,1,,,,,ソワレ,0
1420,6030001157161,新規,0,2023-11-14,2023-11-14,リフターテクニカル株式会社,,株式会社,埼玉県,越谷市,七左町４丁目２１１番地の１,,11,222,3430851,,,,,,,2023-11-14,1,,,,,リフターテクニカル,0
1421,6030001157194,新規,0,2023-11-14,2023-11-14,株式会社ＡＮＤＳＭＩＬＥ,,株式会社,埼玉県,川口市,並木３丁目１０番１３号,,11,203,3320034,,,,,,,2023-11-14,1,,,,,アンドスマイル,0
1428,6030005021462,新規,0,2023-11-14,2023-11-14,一般社団法人音あそびラボ,,その他の設立登記法人,埼玉県,三郷市,泉１丁目１９番地１９,,11,237,3410054,,,,,,,2023-11-14,1,,,,,オトアソビラボ,0
1438,6040003023716,新規,0,2023-11-14,2023-11-14,合同会社エーハウス,,合同会社,千葉県,市川市,市川１丁目６番５号ＢＳビル２Ｆ,,12,203,2720034,,,,,,,2023-11-14,1,,,,,エーハウス,0
1442,6060001036536,新規,0,2023-11-14,2023-11-14,株式会社オルコクア,,株式会社,栃木県,宇都宮市,桜２丁目２番７号,,09,201,3200043,,,,,,,2023-11-14,1,,,,,オルコクア,0
1443,6060001036544,新規,0,2023-11-14,2023-11-14,株式会社ＳＳ商会,,株式会社,栃木県,栃木市,今泉町１丁目８番１５号,,09,203,3280027,,,,,,,2023-11-14,1,,,,,エスエスショウカイ,0
1445,6070001041064,新規,0,2023-11-14,2023-11-14,株式会社ＪＹＳ,,株式会社,群馬県,太田市,大原町１１０６番地５,,10,205,3792304,,,,,,,2023-11-14,1,,,,,ジェイワイエス,0
1450,6080003003094,新規,0,2023-11-14,2023-11-14,Ｄｅａｆ　Ｔｅｃｈ合同会社,,合同会社,静岡県,静岡市葵区,駒形通５丁目４－１田中ビル１０１,,22,101,4200042,,,,,,,2023-11-14,1,,,,,デフテック,0
1451,6090003002426,新規,0,2023-11-14,2023-11-14,Ｓａｉｒａｍ合同会社,,合同会社,山梨県,南都留郡富士河口湖町,勝山３３１９番地５コテージ樹林２０４号,,19,430,4010310,,,,,,,2023-11-14,1,,,,,サイラム,0
1459,6120001259568,新規,0,2023-11-14,2023-11-14,日本セラピーホールディング株式会社,,株式会社,大阪府,大阪市住吉区,苅田７丁目４番５号,,27,120,5580011,,,,,,,2023-11-14,1,,,,,ニホンセラピーホールディング,0
1460,6120001259659,新規,0,2023-11-14,2023-11-14,株式会社フィール・ステージ・サービス,,株式会社,大阪府,枚方市,岡山手町１１番８８－５０３号,,27,210,5730034,,,,,,,2023-11-14,1,,,,,フィールステージサービス,0
1461,6120001259758,新規,0,2023-11-14,2023-11-14,ＴＣＬ株式会社,,株式会社,大阪府,大阪市西成区,岸里東１丁目２９番３号ＢＳ第六ハイツ２０５号,,27,122,5570042,,,,,,,2023-11-14,1,,,,,ティーシーエル,0
1462,6120001259790,新規,0,2023-11-14,2023-11-14,熙申株式会社,,株式会社,大阪府,大阪市港区,八幡屋１丁目３－１第２共栄マンション３０１号,,27,107,5520014,,,,,,,2023-11-14,1,,,,,キシン,0
1463,6120001259799,新規,0,2023-11-14,2023-11-14,栄晟株式会社,,株式会社,大阪府,大阪市平野区,加美正覚寺１丁目５番３号ショウエイハウス３Ｃ号室,,27,126,5470006,,,,,,,2023-11-14,1,,,,,エイセイ,0
1464,6120001259824,新規,0,2023-11-14,2023-11-14,株式会社Ｆｌｅｘｉｂｌｅ,,株式会社,大阪府,大阪市東淀川区,東中島１丁目１３番３－２０４号,,27,114,5330033,,,,,,,2023-11-14,1,,,,,フレキシブル,0
1465,6120001259873,新規,0,2023-11-14,2023-11-14,株式会社のぞみ,,株式会社,大阪府,大阪市東住吉区,住道矢田６丁目１３番１０号,,27,121,5460022,,,,,,,2023-11-14,1,,,,,ノゾミ,0
1467,6120003025316,新規,0,2023-11-14,2023-11-14,合同会社出松,,合同会社,大阪府,大阪市旭区,中宮３丁目１６番２８号,,27,117,5350003,,,,,,,2023-11-14,1,,,,,イデマツ,0
1468,6120003025324,新規,0,2023-11-14,2023-11-14,ＮＥＴＳＨＡ合同会社,,合同会社,大阪府,大阪市西区,本田２丁目７－１４レアレア九条５３番館５１０号室,,27,106,5500022,,,,,,,2023-11-14,1,,,,,ネットシャ,0
1469,6120005023986,新規,0,2023-11-14,2023-11-14,一般社団法人第三者評価機構,,その他の設立登記法人,大阪府,大阪市阿倍野区,旭町１丁目２－７あべのメディックス４１４号,,27,119,5450051,,,,,,,2023-11-14,1,,,,,ダイサンシャヒョウカキコウ,0
1471,6120903004914,新規,0,2023-11-14,2023-11-14,合同会社いこーる,,合同会社,大阪府,高槻市,郡家新町９番１９号,,27,207,5691136,,,,,,,2023-11-14,1,,,,,イコール,0
1474,6122001037565,新規,0,2023-11-14,2023-11-14,株式会社つむぎ興産,,株式会社,大阪府,東大阪市,荒川２丁目１３番５号上田ビル２Ｆ,,27,227,5770843,,,,,,,2023-11-14,1,,,,,ツムギコウサン,0
1480,6130001075626,新規,0,2023-11-14,2023-11-14,株式会社Ａ‐ＳＫＹ,,株式会社,京都府,京都市北区,出雲路立テ本町１０８番地７８,,26,101,6038134,,,,,,,2023-11-14,1,,,,,エースカイ,0
1481,6130001075733,新規,0,2023-11-14,2023-11-14,株式会社コウタリ商会,,株式会社,京都府,長岡京市,神足稲葉１番地２－５１５,,26,209,6170833,,,,,,,2023-11-14,1,,,,,コウタリショウカイ,0
1491,6140001132319,新規,0,2023-11-14,2023-11-14,株式会社ｔｅｃｈｌｉｖｅ,,株式会社,兵庫県,芦屋市,高浜町１５番８号,,28,206,6590033,,,,,,,2023-11-14,1,,,,,テックライブ,0
1492,6140001132327,新規,0,2023-11-14,2023-11-14,株式会社ＤＡＩ,,株式会社,兵庫県,神戸市中央区,港島中町２丁目５－１ビレッジハウス港島５１５号室,,28,110,6500046,,,,,,,2023-11-14,1,,,,,ダイ,0
1493,6140003019786,新規,0,2023-11-14,2023-11-14,合同会社ｔｈｘ,,合同会社,兵庫県,神戸市中央区,加納町４丁目８番９号ＴＡＫＡＩＢ．Ｌ．Ｄ北野坂,,28,110,6500001,,,,,,,2023-11-14,1,,,,,サンク,0
1494,6140005026797,新規,0,2023-11-14,2023-11-14,土地家屋調査士法人神戸測量登記事務所,,その他の設立登記法人,兵庫県,神戸市中央区,栄町通４丁目１番１１号,,28,110,6500023,,,,,,,2023-11-14,1,,,,,コウベソクリョウトウキジムショ,0
1495,6150001026882,新規,0,2023-11-14,2023-11-14,株式会社保険ｎａｒａｃｏｃｏ,,株式会社,奈良県,奈良市,三条大路１丁目１０番４３号フォレストスクエア３Ａ,,29,201,6308013,,,,,,,2023-11-14,1,,,,,ホケンナラココ,0
1499,6170003001948,新規,0,2023-11-14,2023-11-14,アルプス工業合同会社,,合同会社,和歌山県,西牟婁郡すさみ町,口和深５０１番地の７１,,30,406,6492612,,,,,,,2023-11-14,1,,,,,アルプスコウギョウ,0
1505,6180003025987,新規,0,2023-11-14,2023-11-14,合同会社フュチュール,,合同会社,愛知県,春日井市,篠木町６丁目１６６５番地１２,,23,206,4860851,,,,,,,2023-11-14,1,,,,,フュチュール,0
1509,6180301038022,新規,0,2023-11-14,2023-11-14,株式会社Ｅ．Ｗ　Ｈａｒｍｏｎｙ,,株式会社,愛知県,岡崎市,六名東町７番地４５,,23,202,4440847,,,,,,,2023-11-14,1,,,,,イーダブリューハーモニー,0
1510,6180301038030,新規,0,2023-11-14,2023-11-14,株式会社オーネストリー,,株式会社,愛知県,豊田市,高上２丁目２２－１０桑田店舗１０２号,,23,211,4710013,,,,,,,2023-11-14,1,,,,,オーネストリー,0
1512,6200001041892,新規,0,2023-11-14,2023-11-14,株式会社イーストハウス,,株式会社,岐阜県,多治見市,滝呂町１７丁目７６番地の１４,,21,204,5070813,,,,,,,2023-11-14,1,,,,,イーストハウス,0
1524,6240001062415,新規,0,2023-11-14,2023-11-14,株式会社ＬＩＴＧＥ,,株式会社,広島県,福山市,神辺町字上御領９４番地１,,34,207,7202111,,,,,,,2023-11-14,1,,,,,リッジ,0
1530,6250003003382,新規,0,2023-11-14,2023-11-14,合同会社末吉,,合同会社,山口県,防府市,中央町６番３７大林寺マンション２０２号,,35,206,7470802,,,,,,,2023-11-14,1,,,,,スエヨシ,0
1537,6290001103734,新規,0,2023-11-14,2023-11-14,ＬＩＧＨＴＭＵＳＩＣ株式会社,,株式会社,福岡県,三井郡大刀洗町,大字鵜木１４０１番地２５,,40,503,8301224,,,,,,,2023-11-14,1,,,,,ライトミュージック,0
1538,6290001103742,新規,0,2023-11-14,2023-11-14,株式会社スプリング,,株式会社,福岡県,福岡市城南区,友泉亭１番１５－２１１号,,40,136,8140122,,,,,,,2023-11-14,1,,,,,スプリング,0
1539,6290001103750,新規,0,2023-11-14,2023-11-14,ＮＥＸＴ株式会社,,株式会社,福岡県,福岡市東区,二又瀬新町８－３６Ａ,,40,131,8120065,,,,,,,2023-11-14,1,,,,,ネクスト,0
1540,6290003014608,新規,0,2023-11-14,2023-11-14,合同会社ノイ,,合同会社,福岡県,福岡市南区,老司３丁目２６番１６－２０１号フローラルハイム,,40,134,8111346,,,,,,,2023-11-14,1,,,,,ノイ,0
1543,6290801030038,新規,0,2023-11-14,2023-11-14,中島株式会社,,株式会社,福岡県,北九州市八幡西区,泉ケ浦３丁目２０番５号,,40,109,8070854,,,,,,,2023-11-14,1,,,,,ナカシマ,0
1544,6290801030046,新規,0,2023-11-14,2023-11-14,株式会社ａｎｄＭカンパニー,,株式会社,福岡県,北九州市小倉北区,香春口１丁目２－１１グランドパレス小倉香春口１３０３,,40,106,8020084,,,,,,,2023-11-14,1,,,,,アンドエムカンパニー,0
1545,6290803004543,新規,0,2023-11-14,2023-11-14,ＨＫＴ　Ｅｎｔｅｒｔａｉｎｍｅｎｔ合同会社,,合同会社,福岡県,行橋市,宮市町５－２４ハイライフサクセス１Ｆ,,40,213,8240008,,,,,,,2023-11-14,1,,,,,エイチケーティーエンタテインメント,0
1549,6310001018707,新規,0,2023-11-14,2023-11-14,フクニ株式会社,,株式会社,長崎県,雲仙市,愛野町甲２０７番地１,,42,213,8540301,,,,,,,2023-11-14,1,,,,,フクニ,0
1559,6360001032785,新規,0,2023-11-14,2023-11-14,株式会社那覇増改築サービス,,株式会社,沖縄県,那覇市,宮城１丁目１１番２号,,47,201,9010147,,,,,,,2023-11-14,1,,,,,ナハゾウカイチクサービス,0
1562,6370001050621,新規,0,2023-11-14,2023-11-14,仙台富士トレーディング株式会社,,株式会社,宮城県,仙台市宮城野区,二の森１６－２２ウィンディ二の森２０３号,,04,102,9830838,,,,,,,2023-11-14,1,,,,,センダイフジトレーディング,0
1572,6470001019895,新規,0,2023-11-14,2023-11-14,株式会社アップバンス,,株式会社,香川県,さぬき市,寒川町神前１６９７番地３,,37,206,7692323,,,,,,,2023-11-14,1,,,,,アップバンス,0
1573,6480001012288,新規,0,2023-11-14,2023-11-14,株式会社おれんじ会計,,株式会社,徳島県,吉野川市,川島町三ツ島字森３２３番地５,,36,205,7793307,,,,,,,2023-11-14,1,,,,,オレンジカイケイ,0
1594,7010001240001,新規,0,2023-11-14,2023-11-14,医療ＡＩ推進機構株式会社,,株式会社,東京都,中央区,日本橋大伝馬町１２番９号,,13,102,1030011,,,,,,,2023-11-14,1,,,,,イリョウエーアイスイシンキコウ,0
1596,7010401178502,新規,0,2023-11-14,2023-11-14,ＡＸテックケア株式会社,,株式会社,東京都,港区,北青山１丁目３番１号アールキューブ青山３階,,13,103,1070061,,,,,,,2023-11-14,1,,,,,エーエックステックケア,0
1598,7010405022697,新規,0,2023-11-14,2023-11-14,ＡＬＦホールディング一般社団法人,,その他の設立登記法人,東京都,港区,六本木１丁目９番１０号アークヒルズ仙石山森タワー４０階,,13,103,1060032,,,,,,,2023-11-14,1,,,,,エーエルエフホールディング,0
1611,7011001158118,新規,0,2023-11-14,2023-11-14,株式会社セキララカード,,株式会社,東京都,渋谷区,上原２丁目４１－５イルマーレ代々木上原３０３,,13,113,1510064,,,,,,,2023-11-14,1,,,,,セキララカード,0
1617,7011201025043,新規,0,2023-11-14,2023-11-14,株式会社トラレンヌ,,株式会社,東京都,中野区,中央２丁目４０番５号,,13,114,1640011,,,,,,,2023-11-14,1,,,,,トラレンヌ,0
1625,7011701026763,新規,0,2023-11-14,2023-11-14,桑雪株式会社,,株式会社,東京都,江戸川区,平井７丁目１３番１１－３０４号レーベン平井ヴェネージオ,,13,123,1320035,,,,,,,2023-11-14,1,,,,,クワユキ,0
1634,7020001154456,新規,0,2023-11-14,2023-11-14,株式会社エル・プランニング,,株式会社,神奈川県,川崎市多摩区,宿河原２丁目１１番８－１０２号,,14,135,2140021,,,,,,,2023-11-14,1,,,,,エルプランニング,0
1635,7020001154464,新規,0,2023-11-14,2023-11-14,アールスペース株式会社,,株式会社,神奈川県,横浜市中区,山下町１８６番地,,14,104,2310023,,,,,,,2023-11-14,1,,,,,アールスペース,0
1639,7020003024987,新規,0,2023-11-14,2023-11-14,合同会社活躍研究所,,合同会社,神奈川県,横浜市保土ケ谷区,鎌谷町２６４番地１７,,14,106,2400063,,,,,,,2023-11-14,1,,,,,カツヤクケンキュウジョ,0
1652,7030001157128,新規,0,2023-11-14,2023-11-14,ＭＴコンサル株式会社,,株式会社,埼玉県,さいたま市南区,沼影２丁目１２番３号,,11,108,3360027,,,,,,,2023-11-14,1,,,,,エムティーコンサル,0
1664,7040003023731,新規,0,2023-11-14,2023-11-14,合同会社ＴＫＰｌａｎｎｉｎｇ,,合同会社,千葉県,船橋市,大穴北２丁目２３番２０号,,12,204,2740068,,,,,,,2023-11-14,1,,,,,ティーケープランニング,0
1669,7060001036551,新規,0,2023-11-14,2023-11-14,株式会社ライジングスター,,株式会社,栃木県,宇都宮市,屋板町３１５番地５３,,09,201,3210112,,,,,,,2023-11-14,1,,,,,ライジングスター,0
1671,7080101024339,新規,0,2023-11-14,2023-11-14,Ｇｒａｃｅ株式会社,,株式会社,静岡県,伊東市,宇佐美１５７２番地の５５,,22,208,4140001,,,,,,,2023-11-14,1,,,,,グレース,0
1675,7090003002425,新規,0,2023-11-14,2023-11-14,合同会社でいじぃー,,合同会社,山梨県,笛吹市,石和町四日市場８７７番地１,,19,211,4060032,,,,,,,2023-11-14,1,,,,,デイジィー,0
1691,7120001259757,新規,0,2023-11-14,2023-11-14,星之蘭株式会社,,株式会社,大阪府,大阪市西成区,松１丁目５番４号帰園田居１０１号,,27,122,5570034,,,,,,,2023-11-14,1,,,,,ホシノラン,0
1692,7120001259773,新規,0,2023-11-14,2023-11-14,株式会社ｍｈａ,,株式会社,大阪府,大阪市都島区,東野田町２丁目９番１５号山佐ビル５階,,27,102,5340024,,,,,,,2023-11-14,1,,,,,エムエイチエー,0
1693,7120001259807,新規,0,2023-11-14,2023-11-14,株式会社ペルソナマーケティング,,株式会社,大阪府,大阪市東成区,深江北１丁目３番１５号,,27,115,5370001,,,,,,,2023-11-14,1,,,,,ペルソナマーケティング,0
1694,7120001259823,新規,0,2023-11-14,2023-11-14,株式会社ラウンドクオリティーズ,,株式会社,大阪府,大阪市阿倍野区,文の里１丁目８番２１号アークビル,,27,119,5450004,,,,,,,2023-11-14,1,,,,,ラウンドクオリティーズ,0
1697,7120003025331,新規,0,2023-11-14,2023-11-14,Ｓａｌｕｄｉｎｅｒａ合同会社,,合同会社,大阪府,大阪市北区,大淀南３丁目２－４－６０１,,27,127,5310075,,,,,,,2023-11-14,1,,,,,サルディネラ,0
1702,7120901048350,新規,0,2023-11-14,2023-11-14,株式会社ＢｉｚＯｐｔｉｍａｒｓ,,株式会社,大阪府,吹田市,青山台２丁目７ＯＰＨ北千里青山台１棟１０７号室,,27,205,5650875,,,,,,,2023-11-14,1,,,,,ビズオプティマーズ,0
1703,7120901048359,新規,0,2023-11-14,2023-11-14,Ｊ＆Ｍ株式会社,,株式会社,大阪府,豊中市,庄内東町２丁目１番４号とよなか起業・チャレンジセンター内,,27,203,5610831,,,,,,,2023-11-14,1,,,,,ジェイアンドエム,0
1704,7122001037572,新規,0,2023-11-14,2023-11-14,株式会社Ｋｉｒｉｔａ,,株式会社,大阪府,東大阪市,玉串町東２丁目５番２１号,,27,227,5780932,,,,,,,2023-11-14,1,,,,,キリタ,0
1715,7130001075732,新規,0,2023-11-14,2023-11-14,株式会社上垣不動産,,株式会社,京都府,京都市下京区,若宮通松原下る亀屋町４４番地１、２階,,26,106,6008451,,,,,,,2023-11-14,1,,,,,ウエガキフドウサン,0
1725,7140001132318,新規,0,2023-11-14,2023-11-14,株式会社Ｖａｒｉｏｕｓ,,株式会社,兵庫県,尼崎市,東七松町１丁目９番４号Ｂ,,28,202,6600051,,,,,,,2023-11-14,1,,,,,ヴェリアス,0
1726,7140003019810,新規,0,2023-11-14,2023-11-14,合同会社モンシェール,,合同会社,兵庫県,宝塚市,安倉南４丁目１７番２号,,28,214,6650823,,,,,,,2023-11-14,1,,,,,モンシェール,0
1727,7140005026796,新規,0,2023-11-14,2023-11-14,一般社団法人紅茶とお茶を楽しむ会,,その他の設立登記法人,兵庫県,西宮市,久出ケ谷町９番２１－２０１号,,28,204,6620077,,,,,,,2023-11-14,1,,,,,コウチャトオチャヲタノシムカイ,0
1731,7170003001947,新規,0,2023-11-14,2023-11-14,フローステート合同会社,,合同会社,和歌山県,日高郡みなべ町,芝６７２,,30,391,6450002,,,,,,,2023-11-14,1,,,,,フローステート,0
1736,7180001158854,新規,0,2023-11-14,2023-11-14,大和ホールディングス株式会社,,株式会社,愛知県,名古屋市熱田区,千年１丁目９番７０号,,23,109,4560054,,,,,,,2023-11-14,1,,,,,ダイワホールディングス,0
1745,7180303005903,新規,0,2023-11-14,2023-11-14,合同会社ベル,,合同会社,愛知県,岡崎市,山綱町字西坂尻１０番地３,,23,202,4443513,,,,,,,2023-11-14,1,,,,,ベル,0
1746,7190001030888,新規,0,2023-11-14,2023-11-14,株式会社ミックＨＤ,,株式会社,三重県,松阪市,上川町３６７０番地１５,,24,204,5150041,,,,,,,2023-11-14,1,,,,,ミックホールディングス,0
1747,7190003004502,新規,0,2023-11-14,2023-11-14,合同会社さんにんのて,,合同会社,三重県,四日市市,栄町１－１１,,24,202,5100084,,,,,,,2023-11-14,1,,,,,サンニンノテ,0
1753,7230005009346,新規,0,2023-11-14,2023-11-14,特定非営利活動法人シャフト,,その他の設立登記法人,富山県,富山市,婦中町下轡田６６６番地１,,16,201,9392716,,,,,,,2023-11-14,1,,,,,シャフト,0
1756,7240001062422,新規,0,2023-11-14,2023-11-14,タックドゥ株式会社,,株式会社,広島県,呉市,広中新開１丁目１０番２１号,,34,202,7370124,,,,,,,2023-11-14,1,,,,,タックドゥ,0
1761,7250001020395,新規,0,2023-11-14,2023-11-14,株式会社なかがわ,,株式会社,山口県,防府市,緑町２丁目４番２８－１０８号緑町マンション,,35,206,7470026,,,,,,,2023-11-14,1,,,,,ナカガワ,0
1763,7260001038486,新規,0,2023-11-14,2023-11-14,株式会社ＴＲＵＳＴ物流,,株式会社,岡山県,倉敷市,新田２５７９番地５,,33,202,7100038,,,,,,,2023-11-14,1,,,,,トラストブツリュウ,0
1778,7290001103741,新規,0,2023-11-14,2023-11-14,Ａ‐ｙａｓａｉ株式会社,,株式会社,福岡県,福岡市東区,若宮５丁目４番２号,,40,131,8130036,,,,,,,2023-11-14,1,,,,,アヤサイ,0
1779,7290001103758,新規,0,2023-11-14,2023-11-14,株式会社ＭＩＫＩ．Ｊ,,株式会社,福岡県,福岡市南区,屋形原２丁目４１番２号,,40,134,8111351,,,,,,,2023-11-14,1,,,,,ミキジェイ,0
1781,7290003014615,新規,0,2023-11-14,2023-11-14,合同会社ＤＲＯＳ,,合同会社,福岡県,福岡市博多区,博多駅前１丁目２３番２号ＰａｒｋＦｒｏｎｔ博多駅前一丁目５Ｆ－Ｂ,,40,132,8120011,,,,,,,2023-11-14,1,,,,,ディーロス,0
1789,7320003004232,新規,0,2023-11-14,2023-11-14,合同会社粋元,,合同会社,大分県,佐伯市,向島２丁目１１番３３号,,44,205,8760844,,,,,,,2023-11-14,1,,,,,スイゲン,0
1793,7340001026078,新規,0,2023-11-14,2023-11-14,株式会社土曜日,,株式会社,鹿児島県,阿久根市,脇本３５５４番地１,,46,206,8991131,,,,,,,2023-11-14,1,,,,,ドヨウビ,0
1802,7360001032818,新規,0,2023-11-14,2023-11-14,倖拓興業株式会社,,株式会社,沖縄県,南城市,大里字稲嶺１００番地１グランステイトリー２０３号,,47,215,9011204,,,,,,,2023-11-14,1,,,,,コウタクコウギョウ,0
1803,7360001032826,新規,0,2023-11-14,2023-11-14,ＳＰＯＲＴＳ　ＳＭＩＬＥ　ＬＩＦＥ株式会社,,株式会社,沖縄県,国頭郡恩納村,字名嘉真１９５２番地１０,,47,311,9040401,,,,,,,2023-11-14,1,,,,,スポーツスマイルライフ,0
1805,7360003013477,新規,0,2023-11-14,2023-11-14,レンタルシェア沖縄合同会社,,合同会社,沖縄県,那覇市,おもろまち４丁目１５番３－２０４号,,47,201,9000006,,,,,,,2023-11-14,1,,,,,レンタルシェアオキナワ,0
1811,7370001050620,新規,0,2023-11-14,2023-11-14,株式会社旭トレーディング,,株式会社,宮城県,仙台市宮城野区,安養寺２丁目２１－１９コーポ橘２０２号,,04,102,9830832,,,,,,,2023-11-14,1,,,,,アサヒトレーディング,0
1823,7440001009345,新規,0,2023-11-14,2023-11-14,株式会社大湖,,株式会社,北海道,亀田郡七飯町,字大沼町６２４番地,,01,337,0411354,,,,,,,2023-11-14,1,,,,,タイコ,0
1825,7450003002405,新規,0,2023-11-14,2023-11-14,リトルカンパニー合同会社,,合同会社,北海道,旭川市,豊岡四条４丁目１番９号,,01,204,0788234,,,,,,,2023-11-14,1,,,,,リトルカンパニー,0
1827,7470001019894,新規,0,2023-11-14,2023-11-14,株式会社おりーぶ不動産,,株式会社,香川県,観音寺市,出作町４１３番地,,37,205,7680011,,,,,,,2023-11-14,1,,,,,オリーブフドウサン,0
1843,8010001240058,新規,0,2023-11-14,2023-11-14,ももたろう不動産株式会社,,株式会社,東京都,中央区,日本橋３丁目６－２－１Ｆ,,13,102,1030027,,,,,,,2023-11-14,1,,,,,モモタロウフドウサン,0
1844,8010001240074,新規,0,2023-11-14,2023-11-14,株式会社ＲＴ１,,株式会社,東京都,中央区,日本橋室町４丁目１番２２号,,13,102,1030022,,,,,,,2023-11-14,1,,,,,アールティーワン,0
1845,8010001240082,新規,0,2023-11-14,2023-11-14,海栄株式会社,,株式会社,東京都,中央区,新富１丁目４番５東銀座ビル２階２０２号,,13,102,1040041,,,,,,,2023-11-14,1,,,,,カイエイ,0
1849,8010003042163,新規,0,2023-11-14,2023-11-14,Ｇｉａｎｔ　Ｓｑｕｉｄ　Ｓｅｒｖｉｃｅｓ合同会社,,合同会社,東京都,千代田区,霞が関１丁目４番１号日土地ビル４階,,13,101,1000013,,,,,,,2023-11-14,1,,,,,ジャイアントスクイッドサービス,0
1850,8010003042205,新規,0,2023-11-14,2023-11-14,西蒲田ＰＰＰプロジェクト合同会社,,合同会社,東京都,中央区,日本橋３丁目４番１０号,,13,102,1030027,,,,,,,2023-11-14,1,,,,,ニシカマタピーピーピープロジェクト,0
1852,8010005037517,新規,0,2023-11-14,2023-11-14,一般社団法人ＨＳ投資研究会,,その他の設立登記法人,東京都,中央区,新川１丁目１７番１８号,,13,102,1040033,,,,,,,2023-11-14,1,,,,,エイチエストウシケンキュウカイ,0
1865,8010401178501,新規,0,2023-11-14,2023-11-14,株式会社ＷＯＲＫＰＡＳＳ,,株式会社,東京都,港区,浜松町２丁目２番１５号浜松町ダイヤビル２Ｆ,,13,103,1050013,,,,,,,2023-11-14,1,,,,,ワークパス,0
1869,8010501051319,新規,0,2023-11-14,2023-11-14,株式会社ＣＶＯ,,株式会社,東京都,台東区,上野桜木２丁目３番１３号ダイユウビル２０１,,13,106,1100002,,,,,,,2023-11-14,1,,,,,シーブイオー,0
1870,8010501051327,新規,0,2023-11-14,2023-11-14,弘元株式会社,,株式会社,東京都,台東区,北上野１丁目１番１３号加藤ビル２階,,13,106,1100014,,,,,,,2023-11-14,1,,,,,コウゲン,0
1873,8010603010478,新規,0,2023-11-14,2023-11-14,ＦＲＥ合同会社,,合同会社,東京都,江東区,新砂３丁目４番３－１０２３号,,13,108,1360075,,,,,,,2023-11-14,1,,,,,エフアールイー,0
1888,8011101105126,新規,0,2023-11-14,2023-11-14,株式会社ティーエムシィーホールディングス,,株式会社,東京都,新宿区,大久保２丁目４番１５号,,13,104,1690072,,,,,,,2023-11-14,1,,,,,ティーエムシィーホールディングス,0
1889,8011101105134,新規,0,2023-11-14,2023-11-14,株式会社材耕,,株式会社,東京都,新宿区,大久保１丁目２番１８号藤江ビル２階,,13,104,1690072,,,,,,,2023-11-14,1,,,,,チェギョン,0
1895,8011505002588,新規,0,2023-11-14,2023-11-14,一般社団法人Ｕｎｉｈｏｐｅ,,その他の設立登記法人,東京都,北区,赤羽１丁目７番９号赤羽第一葉山ビル４階,,13,117,1150045,,,,,,,2023-11-14,1,,,,,ユニホープ,0
1897,8011601027266,新規,0,2023-11-14,2023-11-14,文古株式会社,,株式会社,東京都,練馬区,北町５丁目５番７－２０２号,,13,120,1790081,,,,,,,2023-11-14,1,,,,,ブンコ,0
1900,8012301013663,新規,0,2023-11-14,2023-11-14,株式会社もくれん製作所,,株式会社,東京都,町田市,東玉川学園１丁目１７番８号,,13,209,1940042,,,,,,,2023-11-14,1,,,,,モクレンセイサクショ,0
1902,8012403006276,新規,0,2023-11-14,2023-11-14,合同会社詠屋,,合同会社,東京都,武蔵野市,吉祥寺東町３丁目５番１－４２２号,,13,203,1800002,,,,,,,2023-11-14,1,,,,,エイヤ,0
1913,8020001154471,新規,0,2023-11-14,2023-11-14,株式会社二代目どん平,,株式会社,神奈川県,川崎市多摩区,登戸１５４５番地５,,14,135,2140014,,,,,,,2023-11-14,1,,,,,ニダイメドンペイ,0
1928,8030001157127,新規,0,2023-11-14,2023-11-14,ＪＣ国際ブリッジ株式会社,,株式会社,埼玉県,さいたま市浦和区,北浦和３丁目１７番２４－３号,,11,107,3300074,,,,,,,2023-11-14,1,,,,,ジェイシーコクサイブリッジ,0
1929,8030001157168,新規,0,2023-11-14,2023-11-14,株式会社旭日商事,,株式会社,埼玉県,川口市,芝下２丁目２７番１５号,,11,203,3330848,,,,,,,2023-11-14,1,,,,,アサヒショウジ,0
1936,8040001130776,新規,0,2023-11-14,2023-11-14,株式会社ローダーホールディング,,株式会社,千葉県,千葉市中央区,登戸２丁目８番１１号,,12,101,2600032,,,,,,,2023-11-14,1,,,,,ローダーホールディング,0
1937,8040001130900,新規,0,2023-11-14,2023-11-14,＿・彩依株式会社,00132630,株式会社,千葉県,松戸市,二十世紀が丘萩町２３８番地の１,,12,207,2710086,,,,,,,2023-11-14,1,,,,,カサイイ,0
1938,8040001130917,新規,0,2023-11-14,2023-11-14,Ｔｈｅ　Ｌｉｑｕｉｄ株式会社,,株式会社,千葉県,長生郡一宮町,東野３０番地２（アンジュレーヴＩＩ２０１）,00132639,12,421,2994306,,,,,,,2023-11-14,1,,,,,ザリキッド,0
1942,8040003023722,新規,0,2023-11-14,2023-11-14,ＭＨ・ＤＥＣＯＲ合同会社,,合同会社,千葉県,千葉市稲毛区,長沼町１８５－１メゾンルポ１０５,,12,103,2630005,,,,,,,2023-11-14,1,,,,,エムエイチデコル,0
1943,8040003023730,新規,0,2023-11-14,2023-11-14,ＶＥＲＳＡＴＩＬＥ合同会社,,合同会社,千葉県,旭市,ニ１３１５番地３８グランソレイユＡ号棟,,12,215,2892504,,,,,,,2023-11-14,1,,,,,バーサタイル,0
1952,8060001036542,新規,0,2023-11-14,2023-11-14,株式会社ジャスティスホーム,,株式会社,栃木県,宇都宮市,江曽島町１０３１番地６,,09,201,3210102,,,,,,,2023-11-14,1,,,,,ジャスティスホーム,0
1960,8090003002424,新規,0,2023-11-14,2023-11-14,Ａｌｐｉｃｋ合同会社,,合同会社,山梨県,南アルプス市,百々２４４２番地,,19,208,4000214,,,,,,,2023-11-14,1,,,,,アルピック,0
1973,8120001259756,新規,0,2023-11-14,2023-11-14,株式会社マスマルカンパニー,,株式会社,大阪府,大阪市港区,夕凪１丁目７番２１号,,27,107,5520004,,,,,,,2023-11-14,1,,,,,マスマルカンパニー,0
1974,8120001259780,新規,0,2023-11-14,2023-11-14,信洋株式会社,,株式会社,大阪府,大阪市生野区,林寺２丁目２６番３０号,,27,116,5440023,,,,,,,2023-11-14,1,,,,,シンヨウ,0
1975,8120001259905,新規,0,2023-11-14,2023-11-14,株式会社シェアバイト,,株式会社,大阪府,大阪市北区,芝田１丁目１０番１０号,,27,127,5300012,,,,,,,2023-11-14,1,,,,,シェアバイト,0
1976,8120003025339,新規,0,2023-11-14,2023-11-14,合同会社ＫＳ１,,合同会社,大阪府,大阪市中央区,北久宝寺町１丁目２番１号,,27,128,5410057,,,,,,,2023-11-14,1,,,,,ケーエスワン,0
1977,8120005023992,新規,0,2023-11-14,2023-11-14,一般社団法人つつむ,,その他の設立登記法人,大阪府,大阪市城東区,今福西３丁目２番２４号,,27,118,5360004,,,,,,,2023-11-14,1,,,,,ツツム,0
1978,8120101068504,新規,0,2023-11-14,2023-11-14,ＩＢＫ　ｐｌａｎｎｉｎｇ株式会社,,株式会社,大阪府,泉南郡熊取町,七山北２１１番地,,27,361,5900424,,,,,,,2023-11-14,1,,,,,アイビーケイプランニング,0
1980,8122003002730,新規,0,2023-11-14,2023-11-14,合同会社六文銭,,合同会社,大阪府,東大阪市,永和１丁目２６番２０－７０２号,,27,227,5770809,,,,,,,2023-11-14,1,,,,,ロクモンセン,0
1989,8140001132317,新規,0,2023-11-14,2023-11-14,株式会社ＫＰＳ,,株式会社,兵庫県,西宮市,上大市１丁目８－１６甲東園レジデンシア３０１,,28,204,6638003,,,,,,,2023-11-14,1,,,,,ケーピーエス,0
1995,8140005026795,新規,0,2023-11-14,2023-11-14,一般社団法人大学都市神戸産官学プラットフォーム,,その他の設立登記法人,兵庫県,神戸市中央区,三宮町１丁目９番１号,,28,110,6500021,,,,,,,2023-11-14,1,,,,,ダイガクトシコウベサンカンガクプラットフォーム,0
1997,8170003001946,新規,0,2023-11-14,2023-11-14,合同会社サンワピーチサービス,,合同会社,和歌山県,紀の川市,桃山町最上１１４６番地１,,30,208,6496111,,,,,,,2023-11-14,1,,,,,サンワピーチサービス,0
2009,8180001158969,新規,0,2023-11-14,2023-11-14,株式会社ＷＡＫＯ,,株式会社,愛知県,名古屋市天白区,鴻の巣１丁目７１３番地,,23,116,4680003,,,,,,,2023-11-14,1,,,,,ワコー,0
2012,8180003025985,新規,0,2023-11-14,2023-11-14,合同会社穂希,,合同会社,愛知県,一宮市,木曽川町内割田字屋敷４９番地,,23,203,4930006,,,,,,,2023-11-14,1,,,,,ホマレ,0
2013,8180003026001,新規,0,2023-11-14,2023-11-14,合同会社アロマニエール,,合同会社,愛知県,名古屋市緑区,松が根台７８番地の１,,23,114,4580843,,,,,,,2023-11-14,1,,,,,アロマニエール,0
2016,8180301038020,新規,0,2023-11-14,2023-11-14,株式会社Ｂｅｔ　Ｌｉｆｅ,,株式会社,愛知県,豊橋市,松葉町１丁目６７番地ＣＯＺＹビル１Ｆ,,23,201,4400897,,,,,,,2023-11-14,1,,,,,ベットライフ,0
2017,8180301038029,新規,0,2023-11-14,2023-11-14,株式会社ヴィア,,株式会社,愛知県,岡崎市,薮田２丁目１１番地１０,,23,202,4442137,,,,,,,2023-11-14,1,,,,,ヴィア,0
2018,8180303005902,新規,0,2023-11-14,2023-11-14,ＯＫＡＤＡ　ＷＯＲＫＳ合同会社,,合同会社,愛知県,西尾市,南中根町曽根４７番地５,,23,213,4450801,,,,,,,2023-11-14,1,,,,,オカダワークス,0
2024,8230001020108,新規,0,2023-11-14,2023-11-14,株式会社Ｕ’ｚ　ＮＥＸＴ,,株式会社,富山県,中新川郡立山町,二ツ塚１０１番地１,,16,323,9300218,,,,,,,2023-11-14,1,,,,,ユーズネクスト,0
2027,8240001062421,新規,0,2023-11-14,2023-11-14,株式会社ＣＲＥＹＸ,,株式会社,広島県,広島市中区,十日市町２丁目１番２５－６０１号,,34,101,7300805,,,,,,,2023-11-14,1,,,,,クレイクス,0
2035,8250001020394,新規,0,2023-11-14,2023-11-14,宇宙総合科学株式会社,,株式会社,山口県,下関市,一の宮町３丁目１２番２２号,,35,201,7510806,,,,,,,2023-11-14,1,,,,,ウチュウソウゴウカガク,0
2048,8290001103740,新規,0,2023-11-14,2023-11-14,株式会社Ｂｒｅａｋ＆Ｉｎｎｏｖａｔｉｏｎ,,株式会社,福岡県,飯塚市,鯰田１３５６－５,,40,205,8200001,,,,,,,2023-11-14,1,,,,,ブレイクアンドイノベーション,0
2052,8290801030036,新規,0,2023-11-14,2023-11-14,株式会社未来人材研究所,,株式会社,福岡県,北九州市八幡東区,西本町４丁目１番１号,,40,108,8050061,,,,,,,2023-11-14,1,,,,,ミライジンザイケンキュウジョ,0
2053,8290801030044,新規,0,2023-11-14,2023-11-14,パワーソリューション株式会社,,株式会社,福岡県,中間市,中央３丁目６番１４号,,40,215,8090030,,,,,,,2023-11-14,1,,,,,パワーソリューション,0
2057,8310001018705,新規,0,2023-11-14,2023-11-14,株式会社令和リース,,株式会社,長崎県,東彼杵郡東彼杵町,大音琴郷１６１２番地２,,42,321,8593811,,,,,,,2023-11-14,1,,,,,レイワリース,0
2061,8310003004678,新規,0,2023-11-14,2023-11-14,合同会社リブロス,,合同会社,長崎県,諫早市,平山町３６６－２９,,42,204,8540057,,,,,,,2023-11-14,1,,,,,リブロス,0
2065,8320001020148,新規,0,2023-11-14,2023-11-14,株式会社住むケアゆふ,,株式会社,大分県,由布市,挾間町古野３７９番地,,44,213,8795511,,,,,,,2023-11-14,1,,,,,スムケアユフ,0
2072,8340001026069,新規,0,2023-11-14,2023-11-14,イースリーエンジニアリング株式会社,,株式会社,鹿児島県,鹿児島市,城西２丁目１５番１－９０２号,,46,201,8900041,,,,,,,2023-11-14,1,,,,,イースリーエンジニアリング,0
2077,8350003004484,新規,0,2023-11-14,2023-11-14,合同会社ｅ‐プラス,,合同会社,宮崎県,宮崎市,大島町南窪８１４－４マルコービル１０２号,,45,201,8800824,,,,,,,2023-11-14,1,,,,,イープラス,0
2081,8360003013476,新規,0,2023-11-14,2023-11-14,合同会社みらすくキッズガーデン,,合同会社,沖縄県,宜野湾市,愛知３丁目１２番３１号,,47,205,9012206,,,,,,,2023-11-14,1,,,,,ミラスクキッズガーデン,0
2082,8360003013484,新規,0,2023-11-14,2023-11-14,合同会社平良清掃社,,合同会社,沖縄県,石垣市,新栄町７６番地,,47,207,9070014,,,,,,,2023-11-14,1,,,,,タイラセイソウシャ,0
2086,8390003002162,新規,0,2023-11-14,2023-11-14,ｋｏｋｏｃｈｉ合同会社,,合同会社,山形県,上山市,河崎３丁目１２番１５号,,06,207,9993145,,,,,,,2023-11-14,1,,,,,ココチ,0
2107,9010001240024,新規,0,2023-11-14,2023-11-14,東京牧野株式会社,,株式会社,東京都,中央区,銀座６丁目６番１号銀座風月堂ビル５Ｆ,,13,102,1040061,,,,,,,2023-11-14,1,,,,,トウキョウマキノ,0
2108,9010001240032,新規,0,2023-11-14,2023-11-14,株式会社日な田,,株式会社,東京都,千代田区,神田神保町２丁目２８番地神田製本会館ビル１０２,,13,101,1010051,,,,,,,2023-11-14,1,,,,,ヒナタ,0
2109,9010001240057,新規,0,2023-11-14,2023-11-14,株式会社タイムスペースエンペラー,,株式会社,東京都,中央区,日本橋室町１丁目１１番１２号日本橋水野ビル７階,,13,102,1030022,,,,,,,2023-11-14,1,,,,,タイムスペースエンペラー,0
2129,9010401178500,新規,0,2023-11-14,2023-11-14,ＰＰゴルフアカデミー株式会社,,株式会社,東京都,港区,浜松町１丁目２７番１７号,,13,103,1050013,,,,,,,2023-11-14,1,,,,,ピーピーゴルフアカデミー,0
2130,9010401178517,新規,0,2023-11-14,2023-11-14,株式会社クアッドパートナーズ,,株式会社,東京都,港区,新橋６丁目１２番２号高嶋ビル,,13,103,1050004,,,,,,,2023-11-14,1,,,,,クアッドパートナーズ,0
2137,9010501051326,新規,0,2023-11-14,2023-11-14,株式会社テンイ,,株式会社,東京都,台東区,上野６丁目７番１６号川久保ビル８０３,,13,106,1100005,,,,,,,2023-11-14,1,,,,,テンイ,0
2138,9010501051359,新規,0,2023-11-14,2023-11-14,楽創未来株式会社,,株式会社,東京都,台東区,台東１丁目２４番９号ブライト秋葉原Ｂ１Ｆ,,13,106,1100016,,,,,,,2023-11-14,1,,,,,ラクソウミライ,0
2142,9010603010477,新規,0,2023-11-14,2023-11-14,合同会社ＦｌｙＴｒｅｅ,,合同会社,東京都,墨田区,文花１丁目１８－１３,,13,107,1310044,,,,,,,2023-11-14,1,,,,,フライツリー,0
2143,9010703006945,新規,0,2023-11-14,2023-11-14,五徳食芸社合同会社,,合同会社,東京都,品川区,荏原３丁目５番２４号,,13,109,1420063,,,,,,,2023-11-14,1,,,,,ゴトクショクゲイシャ,0
2160,9011101105100,新規,0,2023-11-14,2023-11-14,株式会社ＪＡＯＰＳ,,株式会社,東京都,新宿区,西新宿３丁目３番１３号西新宿水間ビル６階,,13,104,1600023,,,,,,,2023-11-14,1,,,,,ジャオプス,0
2161,9011103013747,新規,0,2023-11-14,2023-11-14,ストライバー合同会社,,合同会社,東京都,新宿区,西新宿４丁目２番１５－５１１号,,13,104,1600023,,,,,,,2023-11-14,1,,,,,ストライバー,0
2163,9011301029157,新規,0,2023-11-14,2023-11-14,株式会社ｅｎ　Ｍｉｃｈｅｌｌｅ,,株式会社,東京都,杉並区,阿佐谷南１丁目１７番２０号,,13,115,1660004,,,,,,,2023-11-14,1,,,,,アンミシェール,0
2164,9011303004967,新規,0,2023-11-14,2023-11-14,シルバテクノロジー合同会社,,合同会社,東京都,杉並区,上高井戸１丁目８－２０ＡＬＰＳ八幡山ビル５０６,,13,115,1680074,,,,,,,2023-11-14,1,,,,,シルバテクノロジー,0
2170,9012301013662,新規,0,2023-11-14,2023-11-14,株式会社ＳＴＡＲ’Ｓ,,株式会社,東京都,町田市,三輪緑山１丁目２７番地１３,,13,209,1950055,,,,,,,2023-11-14,1,,,,,スターズ,0
2172,9012705002377,新規,0,2023-11-14,2023-11-14,一般社団法人星の見える家,,その他の設立登記法人,東京都,東村山市,青葉町３丁目４６番地２７,,13,213,1890002,,,,,,,2023-11-14,1,,,,,ホシノミエルイエ,0
2174,9012803003236,新規,0,2023-11-14,2023-11-14,Ｐ．Ｅテクノロジー合同会社,,合同会社,東京都,立川市,錦町６丁目４番１０号ハイホーム立川錦町３０４号,,13,202,1900022,,,,,,,2023-11-14,1,,,,,ピーイーテクノロジー,0
2186,9020001154223,新規,0,2023-11-14,2023-11-14,株式会社アリサラのうんてい屋さん,,株式会社,神奈川県,横浜市南区,六ツ川２丁目１５２－１１テラスハウス六ツ川１号室,,14,105,2320066,,,,,,,2023-11-14,1,,,,,アリサラノウンテイヤサン,0
2193,9020003024985,新規,0,2023-11-14,2023-11-14,合同会社コムハピ,,合同会社,神奈川県,川崎市中原区,市ノ坪４４９－３－４９０２,,14,133,2110016,,,,,,,2023-11-14,1,,,,,コムハピ,0
2203,9030001157126,新規,0,2023-11-14,2023-11-14,徳恩商事株式会社,,株式会社,埼玉県,川口市,西川口１丁目６番１号小野田ビル８Ｆ,,11,203,3320021,,,,,,,2023-11-14,1,,,,,トクオンショウジ,0
2210,9040001130899,新規,0,2023-11-14,2023-11-14,京川株式会社,,株式会社,千葉県,浦安市,海楽２丁目２４番１０号,,12,227,2790003,,,,,,,2023-11-14,1,,,,,キョウカワ,0
2211,9040003023713,新規,0,2023-11-14,2023-11-14,栄俊合同会社,,合同会社,千葉県,柏市,緑ケ丘１１番９号緑ハイム３０２号室,,12,217,2770082,,,,,,,2023-11-14,1,,,,,エイシュン,0
2212,9040005022192,新規,0,2023-11-14,2023-11-14,司法書士法人ＴＯＴＡＬ,,その他の設立登記法人,千葉県,船橋市,本町７丁目１１番５号ＫＤＸ船橋ビル７階,,12,204,2730005,,,,,,,2023-11-14,1,,,,,トータル,0
2213,9040005022201,新規,0,2023-11-14,2023-11-14,特定非営利活動法人ＵＭＩＫＮＯＷ,,その他の設立登記法人,千葉県,千葉市美浜区,打瀬１丁目４番地パティオス８番街２０７号,,12,106,2610013,,,,,,,2023-11-14,1,,,,,ウミノ,0
2224,9070003005163,新規,0,2023-11-14,2023-11-14,合同会社ＢＨＡＶＹＡ　ＩＭＰＥＸ,,合同会社,群馬県,太田市,西新町９０－３ベルヴューＡ館１階１０１,,10,205,3730847,,,,,,,2023-11-14,1,,,,,バーヴィアインペックス,0
2226,9080001025971,新規,0,2023-11-14,2023-11-14,株式会社ＢＯＮＤＳエイジェンシー,,株式会社,静岡県,静岡市葵区,古庄４丁目１番３号、２Ｆ,,22,101,4200812,,,,,,,2023-11-14,1,,,,,ボンズエイジェンシー,0
2229,9080103002919,新規,0,2023-11-14,2023-11-14,合同会社ＰＬＯＴ,,合同会社,静岡県,富士宮市,村山１１１６番地の７,,22,207,4180012,,,,,,,2023-11-14,1,,,,,プロット,0
2231,9080401026842,新規,0,2023-11-14,2023-11-14,株式会社オフィス・Ｍ,,株式会社,静岡県,御前崎市,白羽７１１７番地の２,,22,223,4371622,,,,,,,2023-11-14,1,,,,,オフィスエム,0
2237,9120001259747,新規,0,2023-11-14,2023-11-14,株式会社ＯＦＦＩＣＥ．Ｋ,,株式会社,大阪府,大阪市西区,新町４丁目１４番１３号,,27,106,5500013,,,,,,,2023-11-14,1,,,,,オフィスケイ,0
2238,9120001259771,新規,0,2023-11-14,2023-11-14,雲山株式会社,,株式会社,大阪府,大阪市港区,海岸通１丁目５番１０号大阪文化館・天保山２Ｆ,,27,107,5520022,,,,,,,2023-11-14,1,,,,,ウンザン,0
2239,9120001259838,新規,0,2023-11-14,2023-11-14,株式会社翔建,,株式会社,大阪府,大阪市港区,三先２丁目２０番６２号,,27,107,5520016,,,,,,,2023-11-14,1,,,,,ショウケン,0
2240,9120001259846,新規,0,2023-11-14,2023-11-14,株式会社ＣＳＳ,,株式会社,大阪府,大阪市中央区,南船場４丁目１０番５号南船場ＳＯＨＯビル７０２,,27,128,5420081,,,,,,,2023-11-14,1,,,,,シーエスエス,0
2243,9120101068511,新規,0,2023-11-14,2023-11-14,河内開発株式会社,,株式会社,大阪府,南河内郡太子町,大字山田２９６８番地の５,,27,381,5830992,,,,,,,2023-11-14,1,,,,,カワチカイハツ,0
2247,9120901048349,新規,0,2023-11-14,2023-11-14,株式会社ＡＩＤ,,株式会社,大阪府,箕面市,小野原東３丁目８番２６号,,27,220,5620031,,,,,,,2023-11-14,1,,,,,エーアイディー,0
2248,9120901048357,新規,0,2023-11-14,2023-11-14,株式会社クール,,株式会社,大阪府,豊中市,利倉西２丁目４－７グランドール瑞宝２０２,,27,203,5610844,,,,,,,2023-11-14,1,,,,,クール,0
2252,9122001037562,新規,0,2023-11-14,2023-11-14,ドラゴンシーエヌシー株式会社,,株式会社,大阪府,東大阪市,弥生町１２番１８号,,27,227,5798026,,,,,,,2023-11-14,1,,,,,ドラゴンシーエヌシー,0
2253,9122005003718,新規,0,2023-11-14,2023-11-14,一般社団法人東大阪まちごとスタジアム構想協議会,,その他の設立登記法人,大阪府,東大阪市,永和２丁目８番２８号,,27,227,5770809,,,,,,,2023-11-14,1,,,,,ヒガシオオサカマチゴトスタジアムコウソウキョウギカイ,0
2270,9140001132308,新規,0,2023-11-14,2023-11-14,株式会社和のこころ,,株式会社,兵庫県,神戸市西区,押部谷町木見３５０番地の１,,28,111,6512223,,,,,,,2023-11-14,1,,,,,ワノココロ,0
2271,9140001132316,新規,0,2023-11-14,2023-11-14,株式会社ジョイラボ,,株式会社,兵庫県,姫路市,西今宿１丁目１－１０,,28,201,6700061,,,,,,,2023-11-14,1,,,,,ジョイラボ,0
2292,9180303005901,新規,0,2023-11-14,2023-11-14,合同会社ＴＯＭ企画,,合同会社,愛知県,安城市,里町北井畑１番地５８井畑団地９０,,23,212,4460001,,,,,,,2023-11-14,1,,,,,トムキカク,0
2294,9190001030878,新規,0,2023-11-14,2023-11-14,９１ｉ‐ｔｅｃｈ株式会社,,株式会社,三重県,桑名市,大字西汰上７３番地２,,24,205,5110807,,,,,,,2023-11-14,1,,,,,ナインワンアイテック,0
2295,9190001030886,新規,0,2023-11-14,2023-11-14,株式会社ＢＲＡＩＮ,,株式会社,三重県,津市,中河原２０５７番地,,24,201,5140018,,,,,,,2023-11-14,1,,,,,ブレイン,0
2296,9190005011882,新規,0,2023-11-14,2023-11-14,医療法人北大路眼科,,その他の設立登記法人,三重県,松阪市,嬉野中川町８３８－８,,24,204,5152321,,,,,,,2023-11-14,1,,,,,キタオオジガンカ,0
2300,9220001025692,新規,0,2023-11-14,2023-11-14,株式会社Ｐｒｏボディ,,株式会社,石川県,金沢市,中屋南１７８番地,,17,201,9200379,,,,,,,2023-11-14,1,,,,,プロボディ,0
2302,9230003002111,新規,0,2023-11-14,2023-11-14,ＲＴＷ合同会社,,合同会社,富山県,富山市,常盤台２０－３１,,16,201,9300983,,,,,,,2023-11-14,1,,,,,アールティーダブリュー,0
2312,9260001038484,新規,0,2023-11-14,2023-11-14,株式会社岡山ナラムラ,,株式会社,岡山県,岡山市北区,表町３丁目２１番１４号,,33,101,7000822,,,,,,,2023-11-14,1,,,,,オカヤマナラムラ,0
2330,9290001103748,新規,0,2023-11-14,2023-11-14,株式会社ＶＡＬＵＡＬ,,株式会社,福岡県,福岡市博多区,博多駅東１丁目１番３３号はかた近代ビル７Ｆ,,40,132,8120013,,,,,,,2023-11-14,1,,,,,バリュアル,0
2331,9290001103756,新規,0,2023-11-14,2023-11-14,株式会社カツラギ木工,,株式会社,福岡県,福岡市早良区,内野８丁目１６番２５号,,40,137,8111123,,,,,,,2023-11-14,1,,,,,カツラギモッコウ,0
2335,9290003014596,新規,0,2023-11-14,2023-11-14,木漏れ日合同会社,,合同会社,福岡県,福岡市早良区,祖原２６番３８号カーザマリノア１０３,,40,137,8140005,,,,,,,2023-11-14,1,,,,,コモレビ,0
2338,9290801030043,新規,0,2023-11-14,2023-11-14,株式会社アネスティソリューションズ,,株式会社,福岡県,北九州市小倉北区,浅野３丁目８番１号,,40,106,8020001,,,,,,,2023-11-14,1,,,,,アネスティソリューションズ,0
2341,9320001020139,新規,0,2023-11-14,2023-11-14,株式会社Ｐ‐ＢＯＸ,,株式会社,大分県,大分市,大字羽田４６７番地の１,,44,201,8700942,,,,,,,2023-11-14,1,,,,,ピーボックス,0
2345,9320005010111,新規,0,2023-11-14,2023-11-14,一般社団法人終活みんなのひろば,,その他の設立登記法人,大分県,大分市,長浜町１丁目４番６号塩九升ビル２階２００１,,44,201,8700023,,,,,,,2023-11-14,1,,,,,シュウカツミンナノヒロバ,0
2346,9330001031457,新規,0,2023-11-14,2023-11-14,株式会社ｅｘｐ,,株式会社,熊本県,熊本市東区,新南部１丁目３－２５,,43,102,8618028,,,,,,,2023-11-14,1,,,,,,0
2347,9330005010721,新規,0,2023-11-14,2023-11-14,一般社団法人しまき２０２３,,その他の設立登記法人,熊本県,上益城郡山都町,島木５４６９－５,,43,447,8613454,,,,,,,2023-11-14,1,,,,,シマキニーゼロニーサン,0
2351,9360001032766,新規,0,2023-11-14,2023-11-14,株式会社ＫＩＤＡ　ＣＯＭＰＡＮＹ,,株式会社,沖縄県,国頭郡恩納村,字真栄田２２２９番地１,,47,311,9040417,,,,,,,2023-11-14,1,,,,,キダカンパニー,0
2352,9360001032799,新規,0,2023-11-14,2023-11-14,株式会社ハンビー,,株式会社,沖縄県,中頭郡北谷町,北前１丁目１７番地９仲座ビル２０３,,47,326,9040117,,,,,,,2023-11-14,1,,,,,ハンビー,0
2354,9360003013467,新規,0,2023-11-14,2023-11-14,合同会社スカイ,,合同会社,沖縄県,宮古島市,平良字下里１０７３番地,,47,214,9060013,,,,,,,2023-11-14,1,,,,,スカイ,0
2358,9370001050619,新規,0,2023-11-14,2023-11-14,株式会社リトリート,,株式会社,宮城県,仙台市太白区,松が丘４１番２３号,,04,104,9820821,,,,,,,2023-11-14,1,,,,,リトリート,0
2359,9370001050627,新規,0,2023-11-14,2023-11-14,大栄運送株式会社,,株式会社,宮城県,大崎市,岩出山字下真山雲雀休２番地,,04,215,9896402,,,,,,,2023-11-14,1,,,,,ダイエイウンソウ,0
2361,9370003006370,新規,0,2023-11-14,2023-11-14,合同会社Ｆｅｌｉｃｉｔａｓ,,合同会社,宮城県,仙台市青葉区,本町１丁目５番２８号カーニープレイス仙台駅前通６０３号室,,04,101,9800014,,,,,,,2023-11-14,1,,,,,フェリチタス,0
2364,9400003003174,新規,0,2023-11-14,2023-11-14,合同会社かなめ,,合同会社,岩手県,紫波郡紫波町,日詰字朝日田１２０番地３,,03,321,0283305,,,,,,,2023-11-14,1,,,,,カナメ,0
2375,9470001019892,新規,0,2023-11-14,2023-11-14,株式会社グリーンコレクト,,株式会社,香川県,高松市,香川町浅野３８１番地９,,37,201,7611703,,,,,,,2023-11-14,1,,,,,グリーンコレクト,0
2382,9700150122093,新規,0,2023-11-14,2023-11-14,下野池第２住宅マンション建替組合,,その他,大阪府,堺市北区,長曽根町５４５番地下野池住宅１７棟２０３号,,27,146,5918025,,,,,,,2023-11-14,1,,,,,シモツイケダイニジユウタクマンシヨンタテカエクミアイ,0
