sequenceNumber,corporateNumber,process,correct,updateDate,changeDate,name,nameImageId,kind,prefectureName,cityName,streetNumber,addressImageId,prefectureCode,cityCode,postCode,addressOutside,addressOutsideImageId,closeDate,closeCause,successorCorporateNumber,changeCause,assignmentDate,latest,enName,enPrefectureName,enCityName,enAddressOutside,furigana,hihyoji
7,1010401023465,登記記録の閉鎖等,0,2024-07-18,2024-07-01,株式会社ネコス,,株式会社,東京都,港区,南青山５丁目９番１５号,,13,103,1070062,,,2024-07-01,清算の結了等,,,2015-10-05,1,,,,,,0
12,1010402030304,登記記録の閉鎖等,0,2024-07-18,2024-07-11,有限会社ＶＴＦＡワン,,有限会社,東京都,台東区,台東１丁目２番１－１６０５号,,13,106,1100016,,,2024-07-11,清算の結了等,,,2015-10-05,1,,,,,,0
21,1010801016465,登記記録の閉鎖等,0,2024-07-18,2024-07-10,ＨＯＭＩＥＳ株式会社,,株式会社,東京都,品川区,南品川２丁目１番９号,,13,109,1400004,,,2024-07-10,清算の結了等,,,2015-10-05,1,,,,,エイチオーエムアイイーエス,0
23,1010901011366,登記記録の閉鎖等,0,2024-07-18,2024-07-10,株式会社マダムサンク,,株式会社,東京都,世田谷区,代田６丁目２２番１１号,,13,112,1550033,,,2024-07-10,清算の結了等,,,2015-10-05,1,,,,,マダムサンク,0
37,1011403003249,登記記録の閉鎖等,0,2024-07-18,2024-07-04,合同会社わくわくふく,,合同会社,東京都,板橋区,板橋１丁目４５番２－７０２号,,13,119,1730004,,,2024-07-04,清算の結了等,,,2021-02-19,1,,,,,ワクワクフク,0
44,1012302003372,登記記録の閉鎖等,0,2024-07-18,2024-07-09,有限会社藤和商事,,有限会社,東京都,町田市,玉川学園８丁目１７番９号,,13,209,1940041,,,2024-07-09,清算の結了等,,,2015-10-05,1,,,,,トウワショウジ,0
56,1021001037912,登記記録の閉鎖等,0,2024-07-18,2024-07-08,株式会社神奈中商事,,株式会社,神奈川県,平塚市,東八幡３丁目１５番３号,,14,203,2540016,,,2024-07-08,合併による解散等,2021001036104,令和６年７月１日神奈川県平塚市東八幡三丁目１５番３号株式会社神奈中商事（2021001036104）に合併し解散,2015-10-05,1,,,,,カナチュウショウジ,0
61,1030001068198,登記記録の閉鎖等,0,2024-07-18,2024-07-11,Ｐｌａｚａ　ｄｅ　ＦＰ株式会社,,株式会社,埼玉県,越谷市,相模町４丁目６番地１０,,11,222,3430823,,,2024-07-11,清算の結了等,,,2015-10-05,1,,,,,,0
74,1040001119966,登記記録の閉鎖等,0,2024-07-18,2024-07-02,株式会社アイビーホーム,,株式会社,千葉県,千葉市花見川区,幕張本郷１丁目１１番３号ワコービル２階,,12,102,2620033,,,2024-07-02,清算の結了等,,,2021-09-01,1,,,,,アイビーホーム,0
83,1050002044015,登記記録の閉鎖等,0,2024-07-18,2024-07-10,有限会社アダチペイント,,有限会社,茨城県,桜川市,上野原地新田４００番地,,08,231,3091226,,,2024-07-10,清算の結了等,,,2015-10-05,1,,,,,アダチペイント,0
96,1100001020787,登記記録の閉鎖等,0,2024-07-18,2024-07-01,株式会社タイヤテック伊那,,株式会社,長野県,上伊那郡南箕輪村,５６９１番地１,,20,385,3994511,,,2024-07-01,合併による解散等,9100001013478,令和６年７月１日長野県松本市小屋南二丁目１８番２０号ブリヂストンリテール長野株式会社（9100001013478）に合併し解散,2015-10-05,1,,,,,タイヤテックイナ,0
106,1120001253690,登記記録の閉鎖等,0,2024-07-18,2024-07-17,星曇株式会社,,株式会社,大阪府,大阪市天王寺区,悲田院町９－１７阪和ビル３０４,,27,109,5430055,,,2024-07-17,清算の結了等,,,2023-04-10,1,,,,,セイウン,0
132,1140002058039,登記記録の閉鎖等,0,2024-07-18,2024-07-10,有限会社明成テクノサービス,,有限会社,兵庫県,西宮市,苦楽園四番町５番８号,,28,204,6620088,,,2024-07-10,清算の結了等,,,2015-10-05,1,,,,,メイセイテクノサービス,0
134,1140002063369,登記記録の閉鎖等,0,2024-07-18,2024-07-12,有限会社オカモト・サン商会,,有限会社,大阪府,豊中市,玉井町１丁目１１番７号,,27,203,5600026,,,2024-07-12,清算の結了等,,,2015-10-05,1,,,,,オカモトサンショウカイ,0
152,1180301016180,登記記録の閉鎖等,0,2024-07-18,2024-07-08,株式会社ＪＰプランニング,,株式会社,愛知県,刈谷市,築地町３丁目４番地１１,,23,210,4480011,,,2024-07-08,清算の結了等,,,2015-10-05,1,,,,,ジェーピープランニング,0
167,1240001020609,登記記録の閉鎖等,0,2024-07-18,2024-07-10,株式会社アクティブライフおおの,,株式会社,広島県,広島市南区,段原南２丁目１２番２３号,,34,103,7320814,,,2024-07-10,清算の結了等,,,2015-10-05,1,,,,,アクティブライフオオノ,0
168,1240001022885,登記記録の閉鎖等,0,2024-07-18,2024-07-11,株式会社森田呉服店,,株式会社,広島県,東広島市,河内町中河内１２６１番地の４,,34,212,7392201,,,2024-07-11,清算の結了等,,,2015-10-05,1,,,,,モリタゴフクテン,0
173,1290001076035,登記記録の閉鎖等,0,2024-07-18,2024-06-20,株式会社フランソアフードスタッフ,,株式会社,福岡県,糟屋郡新宮町,緑ケ浜３丁目１番１号,,40,345,8110119,,,2024-06-20,清算の結了等,,,2016-12-07,1,,,,,フランソアフードスタッフ,0
174,1290001094235,登記記録の閉鎖等,0,2024-07-18,2024-06-19,シンセロライン株式会社,,株式会社,福岡県,福岡市東区,筥松４丁目４番４９号ウィング筥松Ａ棟２０１,,40,131,8120061,,,2024-06-19,清算の結了等,,,2021-08-17,1,,,,,シンセロライン,0
184,1310005004484,登記記録の閉鎖等,0,2024-07-18,2024-07-03,医療法人社団杏風会,,その他の設立登記法人,長崎県,諫早市,東小路町１２番５号,,42,204,8540014,,,2024-07-03,清算の結了等,,,2015-10-05,1,,,,,シャダンキョウフウカイ,0
195,1350005004943,登記記録の閉鎖等,0,2024-07-18,2024-07-05,ＮＰＯ法人なんごうオーシャンネットワーク,,その他の設立登記法人,宮崎県,日南市,南郷町中村乙４８３０番地,,45,204,8893204,,,2024-07-05,清算の結了等,,,2015-10-05,1,,,,,ナンゴウオーシャンネットワーク,0
197,1380002026541,登記記録の閉鎖等,0,2024-07-18,2024-07-05,有限会社ヤマト,,有限会社,福島県,いわき市,平字下の町４番地の７,,07,204,9708026,,,2024-07-05,清算の結了等,,,2015-10-05,1,,,,,ヤマト,0
200,1400601000225,登記記録の閉鎖等,0,2024-07-18,2024-07-01,株式会社東瑛,,株式会社,岩手県,奥州市,水沢姉体町字宿６番地１,,03,215,0230831,,,2024-07-01,清算の結了等,,,2015-10-05,1,,,,,トウエイ,0
204,1410003002348,登記記録の閉鎖等,0,2024-07-18,2024-07-08,合資会社花場タクシー,,合資会社,秋田県,仙北市,角館町中菅沢９４番地の７２,,05,215,0140368,,,2024-07-08,清算の結了等,,,2015-10-05,1,,,,,ハナバタクシー,0
217,2010001100283,登記記録の閉鎖等,0,2024-07-18,2024-07-10,株式会社エーワン,,株式会社,埼玉県,飯能市,大字青木４９番地の２６,,11,209,3570003,,,2024-07-10,清算の結了等,,,2015-10-05,1,,,,,エーワン,0
222,2010005012260,登記記録の閉鎖等,0,2024-07-18,2024-07-04,公益社団法人日本・中国水墨交流協会,,その他の設立登記法人,東京都,文京区,本郷２丁目３０番１４号文京第２ビル１０２号,,13,105,1130033,,,2024-07-04,清算の結了等,,,2015-10-05,1,,,,,ニホンチュウゴクスイボクコウリュウキョウカイ,0
234,2010601013819,登記記録の閉鎖等,0,2024-07-18,2024-07-08,東方紡織株式会社,,株式会社,東京都,墨田区,本所１丁目８番１０号直井ビル４階,,13,107,1300004,,,2024-07-08,清算の結了等,,,2015-10-05,1,,,,,,0
242,2011001121039,登記記録の閉鎖等,0,2024-07-18,2024-07-01,株式会社Ｓａｋｕｍｏ,,株式会社,東京都,港区,六本木３丁目４－３３マルマン六本木ビル３階,,13,103,1060032,,,2024-07-01,清算の結了等,,,2018-03-07,1,,,,,サクモ,0
245,2011002023812,登記記録の閉鎖等,0,2024-07-18,2024-07-01,有限会社インクリース,,有限会社,東京都,渋谷区,恵比寿３丁目２０番１号,,13,113,1500013,,,2024-07-01,清算の結了等,,,2015-10-05,1,,,,,インクリース,0
261,2011302003522,登記記録の閉鎖等,0,2024-07-18,2024-07-10,有限会社コアフイル・ウノ,,有限会社,東京都,杉並区,松ノ木３丁目２６番１１号日信ビル,,13,115,1660014,,,2024-07-10,清算の結了等,,,2015-10-05,1,,,,,コアフイルウノ,0
264,2011801008889,登記記録の閉鎖等,0,2024-07-18,2024-07-11,株式会社すずき,,株式会社,東京都,足立区,東和２丁目３番６号,,13,121,1200003,,,2024-07-11,清算の結了等,,,2015-10-05,1,,,,,スズキ,0
294,2021002072528,登記記録の閉鎖等,0,2024-07-18,2024-07-16,有限会社佐々木鈑金工業,,有限会社,神奈川県,綾瀬市,吉岡東２丁目５番３１号,,14,218,2521125,,,2024-07-16,清算の結了等,,,2015-10-05,1,,,,,,0
336,2120001239805,登記記録の閉鎖等,0,2024-07-18,2024-07-02,ライフウォーク株式会社,,株式会社,大阪府,枚方市,招提北町１丁目２３１５番地３５,,27,210,5731138,,,2024-07-02,清算の結了等,,,2021-08-18,1,,,,,ライフウォーク,0
343,2120101002534,登記記録の閉鎖等,0,2024-07-18,2024-07-12,株式会社堺企画センター,,株式会社,大阪府,堺市東区,日置荘原寺町４４９番地５,,27,143,5998112,,,2024-07-12,清算の結了等,,,2015-10-05,1,,,,,サカイキカクセンター,0
346,2120102015460,登記記録の閉鎖等,0,2024-07-18,2024-07-16,有限会社ジュンタイヨウ,,有限会社,大阪府,大阪狭山市,半田６丁目１１８３番地の３,,27,231,5890011,,,2024-07-16,清算の結了等,,,2015-10-05,1,,,,,ジュンタイヨウ,0
360,2140002028065,登記記録の閉鎖等,0,2024-07-18,2024-07-12,有限会社ＳＯＯＮ,,有限会社,兵庫県,神戸市西区,天が岡１７番地の５,,28,111,6512141,,,2024-07-12,清算の結了等,,,2015-10-05,1,,,,,スーン,0
379,2180002073553,登記記録の閉鎖等,0,2024-07-18,2024-07-01,有限会社中部インテック,,有限会社,愛知県,瀬戸市,西米泉町３０番地,,23,204,4890943,,,2024-07-01,清算の結了等,,,2015-10-05,1,,,,,チュウブインテック,0
381,2180003016750,登記記録の閉鎖等,0,2024-07-18,2024-07-02,合同会社ＴＳＳ,,合同会社,愛知県,名古屋市瑞穂区,本願寺町２丁目２６番地の１,,23,108,4670814,,,2024-07-02,清算の結了等,,,2015-12-07,1,,,,,ティーエスエス,0
394,2200001024711,登記記録の閉鎖等,0,2024-07-18,2024-07-11,株式会社磐下建築設計事務所,,株式会社,岐阜県,高山市,清見町三日町１４６０番地,,21,203,5060102,,,2024-07-11,清算の結了等,,,2015-10-05,1,,,,,イワシタケンチクセッケイジムショ,0
396,2200002019776,登記記録の閉鎖等,0,2024-07-18,2024-07-08,有限会社洞戸化成,,有限会社,岐阜県,関市,洞戸阿部１７５３番地の１,,21,205,5012807,,,2024-07-08,清算の結了等,,,2015-10-05,1,,,,,ホラドカセイ,0
399,2220001022812,登記記録の閉鎖等,0,2024-07-18,2024-07-08,株式会社サクラシステムズ,,株式会社,石川県,金沢市,香林坊２丁目１２番２０号,,17,201,9200961,,,2024-07-08,清算の結了等,,,2019-04-09,1,,,,,サクラシステムズ,0
402,2240001031480,登記記録の閉鎖等,0,2024-07-18,2024-07-10,時平工業株式会社,,株式会社,広島県,福山市,川口町１丁目１５番３２号,,34,207,7200822,,,2024-07-10,清算の結了等,,,2015-10-05,1,,,,,トキヒラコウギョウ,0
427,2300002001336,登記記録の閉鎖等,0,2024-07-18,2024-07-11,有限会社福地電機工作所,,有限会社,佐賀県,佐賀市,八幡小路１番１号,,41,201,8400834,,,2024-07-11,清算の結了等,,,2015-10-05,1,,,,,フクチデンキコウサクショ,0
433,2340001001275,登記記録の閉鎖等,0,2024-07-18,2024-07-11,株式会社錦江湾,,株式会社,鹿児島県,鹿児島市,和田３丁目６３番５０号,,46,201,8910143,,,2024-07-11,清算の結了等,,,2015-10-05,1,,,,,キンコウワン,0
436,2340002013261,登記記録の閉鎖等,0,2024-07-18,2024-07-09,有限会社森永妙円寺ミルクセンター,,有限会社,鹿児島県,日置市,伊集院町妙円寺１丁目５２番地４,,46,216,8992503,,,2024-07-09,清算の結了等,,,2015-10-05,1,,,,,モリナガミョウエンジミルクセンター,0
447,2390001005890,登記記録の閉鎖等,0,2024-07-18,2024-06-28,株式会社グローバルグリーンコーポレーション,,株式会社,山形県,山形市,大字十文字字韮窪１３１８番地の５,,06,201,9902211,,,2024-06-28,清算の結了等,,,2015-10-05,1,,,,,グローバルグリーンコーポレーション,0
450,2400002006845,登記記録の閉鎖等,0,2024-07-18,2024-07-02,有限会社インテリア藤原,,有限会社,岩手県,紫波郡矢巾町,大字南矢幅第９地割３２５番地,,03,322,0283615,,,2024-07-02,清算の結了等,,,2015-10-05,1,,,,,インテリアフジワラ,0
477,3010001171357,登記記録の閉鎖等,0,2024-07-18,2024-07-03,株式会社Ｈ＆Ｄグローバル,,株式会社,東京都,中央区,日本橋室町１丁目５番２号,,13,102,1030022,,,2024-07-03,清算の結了等,,,2015-10-29,1,,,,,エイチアンドディグローバル,0
491,3010402001419,登記記録の閉鎖等,0,2024-07-18,2024-07-01,市橋ビル管財有限会社,,有限会社,東京都,港区,芝大門２丁目１２番６－６０１号,,13,103,1050012,,,2024-07-01,清算の結了等,,,2015-10-05,1,,,,,イチハシビルカンザイ,0
498,3010405003965,登記記録の閉鎖等,0,2024-07-18,2024-07-04,一般社団法人人材開発協会,,その他の設立登記法人,東京都,中央区,日本橋２丁目７番１号東京日本橋タワー,,13,102,1030027,,,2024-07-04,清算の結了等,,,2015-10-05,1,,,,,ジンザイカイハツキョウカイ,0
499,3010501006806,登記記録の閉鎖等,0,2024-07-18,2024-07-05,株式会社千城商会,,株式会社,東京都,台東区,秋葉原５番１２号,,13,106,1100006,,,2024-07-05,清算の結了等,,,2015-10-05,1,,,,,チシロショウカイ,0
502,3010503007141,登記記録の閉鎖等,0,2024-07-18,2024-07-03,トリミングサービス合同会社,,合同会社,東京都,台東区,台東１丁目９番４号松浦ビル５Ｆ,,13,106,1100016,,,2024-07-03,清算の結了等,,,2023-09-01,1,,,,,トリミングサービス,0
528,3011101099587,登記記録の閉鎖等,0,2024-07-18,2024-07-03,Ｄａｃｈｓ株式会社,,株式会社,東京都,新宿区,西新宿７丁目５番８号ＧＯＷＡ西新宿５階,,13,104,1600023,,,2024-07-03,清算の結了等,,,2022-07-20,1,,,,,ダックス,0
541,3012301003108,登記記録の閉鎖等,0,2024-07-18,2024-07-10,株式会社地域経営プロジェクト,,株式会社,東京都,町田市,中町１丁目１９番６号,,13,209,1940021,,,2024-07-10,清算の結了等,,,2015-10-05,1,,,,,チイキケイエイプロジェクト,0
544,3012402017980,登記記録の閉鎖等,0,2024-07-18,2024-07-12,有限会社やまこう,,有限会社,東京都,武蔵野市,境２丁目８番１７号,,13,203,1800022,,,2024-07-12,清算の結了等,,,2015-10-05,1,,,,,ヤマコウ,0
555,3020001042318,登記記録の閉鎖等,0,2024-07-18,2024-07-16,株式会社グローリィ横浜,,株式会社,神奈川県,藤沢市,鵠沼橘１丁目１２番１１号,,14,205,2510024,,,2024-07-16,清算の結了等,,,2015-10-05,1,,,,,グローリィヨコハマ,0
556,3020001091414,登記記録の閉鎖等,0,2024-07-18,2024-07-01,株式会社住空間研究所,,株式会社,神奈川県,横浜市栄区,野七里１丁目３３番８号,,14,115,2470024,,,2024-07-01,清算の結了等,,,2015-10-05,1,,,,,ジュウクウカンケンキュウショ,0
558,3020002045666,登記記録の閉鎖等,0,2024-07-18,2024-07-01,有限会社山手精機,,有限会社,神奈川県,横浜市中区,柏葉１０９番地,,14,104,2310866,,,2024-07-01,清算の結了等,,,2015-10-05,1,,,,,,0
579,3050001001378,登記記録の閉鎖等,0,2024-07-18,2024-07-11,水理技研株式会社,,株式会社,茨城県,水戸市,天王町９番１７号,,08,201,3100025,,,2024-07-11,清算の結了等,,,2015-10-05,1,,,,,スイリギケン,0
580,3050002028817,登記記録の閉鎖等,0,2024-07-18,2024-07-08,有限会社西浦精工,,有限会社,茨城県,行方市,五町田２８５番地,,08,233,3113807,,,2024-07-08,清算の結了等,,,2015-10-05,1,,,,,ニシウラセイコウ,0
584,3060002027297,登記記録の閉鎖等,0,2024-07-18,2024-07-04,有限会社ユーマート八百清,,有限会社,栃木県,矢板市,木幡１３１７番地１,,09,211,3292142,,,2024-07-04,清算の結了等,,,2015-10-05,1,,,,,ユーマートヤオセイ,0
597,3110002009835,登記記録の閉鎖等,0,2024-07-18,2024-07-01,新津興産有限会社,,有限会社,新潟県,新潟市秋葉区,川口５７８番地１２,,15,105,9560015,,,2024-07-01,合併による解散等,5110001007268,令和６年７月１日新潟県新潟市秋葉区川口５７８番地１２樋口鉄工建設株式会社（5110001007268）に合併し解散,2015-10-05,1,,,,,ニイツコウサン,0
611,3120005005434,登記記録の閉鎖等,0,2024-07-18,2024-07-17,医療法人中井医院,,その他の設立登記法人,大阪府,大阪市阿倍野区,晴明通１１番７号,,27,119,5450032,,,2024-07-17,清算の結了等,,,2015-10-05,1,,,,,ナカイイイン,0
618,3130001025897,登記記録の閉鎖等,0,2024-07-18,2024-07-08,株式会社蓮佳,,株式会社,京都府,京都市伏見区,竹田桶ノ井町１５０番地,,26,109,6128421,,,2024-07-08,合併による解散等,5130001026472,令和６年７月８日京都市伏見区竹田西小屋ノ内町２６番地株式会社華仙（5130001026472）に合併し解散,2015-10-05,1,,,,,レンカ,0
630,3140002068408,登記記録の閉鎖等,0,2024-07-18,2024-07-11,有限会社ピュアツリー,,有限会社,兵庫県,宝塚市,末広町１番３０号,,28,214,6650031,,,2024-07-11,清算の結了等,,,2015-10-05,1,,,,,ピュアツリー,0
634,3140003017693,登記記録の閉鎖等,0,2024-07-18,2024-07-12,合同会社ルピナスソフトウェア,,合同会社,兵庫県,たつの市,揖西町新宮１０４５番５号,,28,229,6794001,,,2024-07-12,清算の結了等,,,2022-05-18,1,,,,,ルピナスソフトウェア,0
641,3180001015233,登記記録の閉鎖等,0,2024-07-18,2024-07-01,日信商事株式会社,,株式会社,愛知県,名古屋市千種区,今池４丁目９番４号,,23,101,4640850,,,2024-07-01,合併による解散等,2180001058332,令和６年７月１日名古屋市千種区今池四丁目９番４号株式会社共和物産（2180001058332）に合併し解散,2015-10-05,1,,,,,ニッシンショウジ,0
642,3180001067035,登記記録の閉鎖等,0,2024-07-18,2024-07-01,ゼリアド・カンパニー株式会社,,株式会社,愛知県,名古屋市名東区,朝日が丘７５番地５,,23,115,4650041,,,2024-07-01,合併による解散等,4180001101998,令和６年７月１日名古屋市名東区朝日が丘７５番地５ブルネエズ株式会社（4180001101998）に合併し解散,2015-10-05,1,,,,,ゼリアドカンパニー,0
643,3180001082819,登記記録の閉鎖等,0,2024-07-18,2024-07-02,株式会社サンヨーホーム,,株式会社,愛知県,一宮市,松降２丁目８番２５号,,23,203,4910042,,,2024-07-02,清算の結了等,,,2015-10-05,1,,,,,サンヨーホーム,0
644,3180001114860,登記記録の閉鎖等,0,2024-07-18,2024-07-02,株式会社大橋設備,,株式会社,愛知県,一宮市,大赤見字八幡西２０番地２,,23,203,4910015,,,2024-07-02,清算の結了等,,,2015-10-05,1,,,,,オオハシセツビ,0
652,3180302023422,登記記録の閉鎖等,0,2024-07-18,2024-07-05,北真機工有限会社,,有限会社,愛知県,豊田市,駒場町北６６番地,,23,211,4730925,,,2024-07-05,清算の結了等,,,2015-10-05,1,,,,,ホクシンキコウ,0
716,3430001005828,登記記録の閉鎖等,0,2024-07-18,2024-07-08,株式会社コア・ビーエム,,株式会社,北海道,札幌市北区,屯田三条２丁目２番８号,,01,102,0020853,,,2024-07-08,清算の結了等,,,2015-10-05,1,,,,,コアビーエム,0
721,3430002036343,登記記録の閉鎖等,0,2024-07-18,2024-07-10,有限会社ジー・ディー・アイ,,有限会社,北海道,札幌市手稲区,星置二条７丁目５番１３号,,01,109,0060852,,,2024-07-10,清算の結了等,,,2015-10-05,1,,,,,ジーディーアイ,0
724,3460101006574,登記記録の閉鎖等,0,2024-07-18,2024-07-11,株式会社ＴＭリテイル,,株式会社,北海道,帯広市,西十七条南４丁目２４番１８号１７４メゾネットＢ,,01,207,0800027,,,2024-07-11,清算の結了等,,,2019-05-31,1,,,,,ティーエムリテイル,0
725,3460305001446,登記記録の閉鎖等,0,2024-07-18,2024-07-18,網走建具生産協同組合,,その他の設立登記法人,北海道,網走市,字呼人２９５番地,,01,211,0992421,,,2024-07-18,清算の結了等,,,2015-10-05,1,,,,,アバシリタテグセイサン,0
731,3500001010762,登記記録の閉鎖等,0,2024-07-18,2024-07-08,株式会社こころ,,株式会社,愛媛県,新居浜市,中村１丁目１０番２３号,,38,205,7920044,,,2024-07-08,清算の結了等,,,2015-10-05,1,,,,,ココロ,0
738,4010001133629,登記記録の閉鎖等,0,2024-07-18,2024-07-03,株式会社フロンティアＯ’ｓ,,株式会社,東京都,中央区,八丁堀３丁目１１番８号,,13,102,1040032,,,2024-07-03,清算の結了等,,,2015-10-05,1,,,,,フロンティアオーエス,0
740,4010001217695,登記記録の閉鎖等,0,2024-07-18,2024-07-03,オーダブリュエー・エンジニアリング・アンド・マネージメント株式会社,,株式会社,東京都,中央区,八丁堀３丁目２５番９号,,13,102,1040032,,,2024-07-03,清算の結了等,,,2021-04-26,1,,,,,オーダブリュエーエンジニアリングアンドマネージメント,0
744,4010003034726,登記記録の閉鎖等,0,2024-07-18,2024-07-03,合同会社ＬＯＧＩ　ＦＬＡＧ１号,,合同会社,東京都,中央区,日本橋１丁目４番１号,,13,102,1030027,,,2024-07-03,清算の結了等,,,2021-04-27,1,,,,,ロジフラッグイチゴウ,0
745,4010005023495,登記記録の閉鎖等,0,2024-07-18,2024-07-04,一般社団法人エコマート,,その他の設立登記法人,東京都,中央区,銀座６丁目８番７号交詢ビルディング,,13,102,1040061,,,2024-07-04,清算の結了等,,,2015-10-05,1,,,,,エコマート,0
777,4011101057437,登記記録の閉鎖等,0,2024-07-18,2024-07-03,株式会社Ｈｅａｔｈ　ｐｒｏｊｅｃｔ,,株式会社,東京都,新宿区,西新宿４丁目４番１号メゾン前田６０１,,13,104,1600023,,,2024-07-03,清算の結了等,,,2015-10-05,1,,,,,ヒースプロジェクト,0
786,4011702012518,登記記録の閉鎖等,0,2024-07-18,2024-07-10,有限会社リコウパック,,有限会社,東京都,江戸川区,新堀２丁目１３番７号,,13,123,1320001,,,2024-07-10,清算の結了等,,,2015-10-05,1,,,,,リコウパック,0
794,4012402010472,登記記録の閉鎖等,0,2024-07-18,2024-07-16,有限会社エイワン,,有限会社,東京都,調布市,富士見町２丁目２０番地の２５,,13,208,1820033,,,2024-07-16,清算の結了等,,,2015-10-05,1,,,,,エイワン,0
805,4020001122052,登記記録の閉鎖等,0,2024-07-18,2024-07-01,株式会社智将,,株式会社,神奈川県,横浜市旭区,今宿１丁目５７番５号,,14,112,2410817,,,2024-07-01,清算の結了等,,,2017-07-03,1,,,,,トモショウ,0
812,4021001009009,登記記録の閉鎖等,0,2024-07-18,2024-07-16,株式会社河合コンサルティング,,株式会社,神奈川県,鎌倉市,腰越２丁目３４番１３号,,14,204,2480033,,,2024-07-16,清算の結了等,,,2015-10-05,1,,,,,カワイコンサルティング,0
821,4021002057601,登記記録の閉鎖等,0,2024-07-18,2024-07-11,有限会社クラヤペット産業,,有限会社,神奈川県,平塚市,札場町１２番１６号,,14,203,2540802,,,2024-07-11,清算の結了等,,,2015-10-05,1,,,,,クラヤペットサンギョウ,0
832,4030002110906,登記記録の閉鎖等,0,2024-07-18,2024-07-10,有限会社マザーケアサービス,,有限会社,埼玉県,川口市,並木３丁目２９番１７号,,11,203,3320034,,,2024-07-10,清算の結了等,,,2015-10-05,1,,,,,マザーケアサービス,0
846,4050001038477,登記記録の閉鎖等,0,2024-07-18,2024-06-19,株式会社ワイ・キュートラスト,,株式会社,千葉県,柏市,藤心９６４番地１,,12,217,2770034,,,2024-06-19,合併による解散等,1040001103508,令和６年４月６日千葉県柏市中央二丁目３番１８号いつきレジデンス弐番館１０２株式会社ワールドポーター（1040001103508）に合併し解散,2015-10-05,1,,,,,ワイキュートラスト,0
848,4050002011557,登記記録の閉鎖等,0,2024-07-18,2024-07-09,有限会社さのや,,有限会社,茨城県,土浦市,荒川沖西１丁目１８番１０号,,08,203,3000874,,,2024-07-09,清算の結了等,,,2015-10-05,1,,,,,サノヤ,0
880,4120102026852,登記記録の閉鎖等,0,2024-07-18,2024-07-16,有限会社テルミット・シビル・コンサルタント,,有限会社,大阪府,大阪市西区,新町３丁目２番１８号,,27,106,5500013,,,2024-07-16,清算の結了等,,,2015-10-05,1,,,,,テルミットシビルコンサルタント,0
895,4160001002422,登記記録の閉鎖等,0,2024-07-18,2024-07-12,株式会社明徳ケアワーク,,株式会社,滋賀県,大津市,大石中１丁目６９番３号,,25,201,5202263,,,2024-07-12,合併による解散等,4120001151248,令和６年７月１日大阪市浪速区元町二丁目５番８号株式会社オージープラン（4120001151248）に合併し解散,2015-10-05,1,,,,,メイトクケアワーク,0
899,4170001003361,登記記録の閉鎖等,0,2024-07-18,2024-07-16,株式会社矢出工務店,,株式会社,和歌山県,和歌山市,中之島３７５番地の５,,30,201,6408392,,,2024-07-16,清算の結了等,,,2015-10-05,1,,,,,ヤデコウムテン,0
900,4170002010935,登記記録の閉鎖等,0,2024-07-18,2024-07-16,有限会社ダイニチ,,有限会社,和歌山県,伊都郡かつらぎ町,大字妙寺７９４番地の１,,30,341,6497113,,,2024-07-16,清算の結了等,,,2015-10-05,1,,,,,ダイニチ,0
911,4180005005576,登記記録の閉鎖等,0,2024-07-18,2024-07-03,特定非営利活動法人ビジュアルコンテンツプロダクトネットワーク,,その他の設立登記法人,愛知県,名古屋市東区,泉２丁目２８番２４号,,23,102,4610001,,,2024-07-03,清算の結了等,,,2015-10-05,1,,,,,ビジュアルコンテンツプロダクトネットワーク,0
917,4200001031243,登記記録の閉鎖等,0,2024-07-18,2024-07-11,株式会社エス建,,株式会社,岐阜県,多治見市,滝呂町９丁目１５５番地の１６９,,21,204,5070813,,,2024-07-11,清算の結了等,,,2015-10-05,1,,,,,エスケン,0
923,4240001014962,登記記録の閉鎖等,0,2024-07-18,2024-07-08,株式会社マルモ,,株式会社,広島県,広島市東区,戸坂千足１丁目３番１２号,,34,102,7320009,,,2024-07-08,合併による解散等,6030001066965,令和６年６月１日埼玉県北葛飾郡松伏町築比地７９５番地１株式会社ウィーズ（6030001066965）に合併し解散,2015-10-05,1,,,,,マルモ,0
926,4240002044026,登記記録の閉鎖等,0,2024-07-18,2024-07-09,山陽鋳工有限会社,,有限会社,広島県,福山市,西町２丁目１３番６号,,34,207,7200067,,,2024-07-09,清算の結了等,,,2015-10-05,1,,,,,サンヨウチュウコウ,0
932,4270001007410,登記記録の閉鎖等,0,2024-07-18,2024-07-17,株式会社影山建装,,株式会社,鳥取県,鳥取市,相生町１丁目２１４番地２,,31,201,6800805,,,2024-07-17,清算の結了等,,,2017-12-04,1,,,,,,0
951,4340001018276,登記記録の閉鎖等,0,2024-07-18,2024-07-09,株式会社幸芽,,株式会社,鹿児島県,鹿児島市,真砂町３４番６号１Ｆ,,46,201,8900066,,,2024-07-09,清算の結了等,,,2015-10-05,1,,,,,コウメイ,0
974,4380002006961,登記記録の閉鎖等,0,2024-07-18,2024-07-05,緑牧場有限会社,,有限会社,福島県,福島市,野田町７丁目１２番５４号,,07,201,9608055,,,2024-07-05,清算の結了等,,,2015-10-05,1,,,,,ミドリボクジョウ,0
978,4420002009266,登記記録の閉鎖等,0,2024-07-18,2024-07-05,有限会社ラビアンみちのく,,有限会社,青森県,八戸市,類家４丁目２番２５号,,02,203,0310001,,,2024-07-05,清算の結了等,,,2015-10-05,1,,,,,ラビアンミチノク,0
986,4500001009218,登記記録の閉鎖等,0,2024-07-18,2024-07-08,株式会社青山,,株式会社,愛媛県,西条市,吉田２３６番地５,,38,206,7991372,,,2024-07-08,清算の結了等,,,2015-10-05,1,,,,,アオヤマ,0
990,4500002019182,登記記録の閉鎖等,0,2024-07-18,2024-07-08,有限会社丸分物産,,有限会社,愛媛県,今治市,大西町新町甲１０３６番地７,,38,202,7992203,,,2024-07-08,清算の結了等,,,2015-10-05,1,,,,,,0
1002,5010401025367,登記記録の閉鎖等,0,2024-07-18,2024-07-10,株式会社蛭川企画,,株式会社,東京都,町田市,本町田２４４番地,,13,209,1940032,,,2024-07-10,清算の結了等,,,2015-10-05,1,,,,,ヒルカワキカク,0
1043,5011802021806,登記記録の閉鎖等,0,2024-07-18,2024-07-11,株式会社水建企画工業,,株式会社,東京都,足立区,辰沼２丁目７番９号,,13,121,1210054,,,2024-07-11,清算の結了等,,,2015-10-05,1,,,,,スイケンキカクコウギョウ,0
1061,5020002021137,登記記録の閉鎖等,0,2024-07-18,2024-07-04,有限会社栗田建商,,有限会社,神奈川県,横浜市旭区,二俣川２丁目１６番地,,14,112,2410821,,,2024-07-04,清算の結了等,,,2015-10-05,1,,,,,クリタケンショウ,0
1090,5040002030788,登記記録の閉鎖等,0,2024-07-18,2024-07-03,有限会社南秋工業,,有限会社,千葉県,八千代市,米本９３８番地,,12,221,2760015,,,2024-07-03,清算の結了等,,,2015-10-05,1,,,,,ナンシュウコウギョウ,0
1094,5050001007167,登記記録の閉鎖等,0,2024-07-18,2024-07-10,岩喜製綱株式会社,,株式会社,茨城県,東茨城郡大洗町,大貫町６４番地,,08,309,3111311,,,2024-07-10,清算の結了等,,,2015-10-05,1,,,,,イワキセイコウ,0
1100,5070001028418,登記記録の閉鎖等,0,2024-07-18,2024-07-01,株式会社ＦＪ,,株式会社,東京都,港区,南青山３丁目１番３６号青山丸竹ビル６Ｆ,,13,103,1070062,,,2024-07-01,清算の結了等,,,2015-10-05,1,,,,,エフジェイ,0
1102,5080002000911,登記記録の閉鎖等,0,2024-07-18,2024-07-04,有限会社エスエスコーポレーション,,有限会社,静岡県,静岡市葵区,駒形通１丁目１番３３号,,22,101,4200042,,,2024-07-04,清算の結了等,,,2015-10-05,1,,,,,エスエスコーポレーション,0
1105,5080402010155,登記記録の閉鎖等,0,2024-07-18,2024-07-08,有限会社バックアップル,,有限会社,静岡県,菊川市,本所１０６２番地の２,,22,224,4390018,,,2024-07-08,清算の結了等,,,2015-10-05,1,,,,,バックアップル,0
1135,5122003001108,登記記録の閉鎖等,0,2024-07-18,2024-07-11,合同会社ワークス,,合同会社,大阪府,摂津市,鳥飼本町４丁目９番３１号,,27,224,5660052,,,2024-07-11,清算の結了等,,,2015-10-05,1,,,,,ワークス,0
1143,5140001064240,登記記録の閉鎖等,0,2024-07-18,2024-07-11,コーラルハウジング株式会社,,株式会社,兵庫県,姫路市,広畑区早瀬町２丁目２６番地の２,,28,201,6711151,,,2024-07-11,合併による解散等,3260002013566,令和６年７月１日岡山市北区今八丁目５番２９号アルファプラス株式会社（3260002013566）に合併し解散,2015-10-05,1,,,,,コーラルハウジング,0
1153,5170001010365,登記記録の閉鎖等,0,2024-07-18,2024-07-16,株式会社道建設,,株式会社,和歌山県,御坊市,名田町野島１６９２番地２,,30,205,6440023,,,2024-07-16,清算の結了等,,,2015-10-05,1,,,,,ドウケンセツ,0
1155,5170003000942,登記記録の閉鎖等,0,2024-07-18,2024-07-16,合同会社さくら,,合同会社,和歌山県,和歌山市,舟津町４丁目１４－１ニューハイツ舟津５０１号,,30,201,6408255,,,2024-07-16,清算の結了等,,,2015-10-05,1,,,,,サクラ,0
1159,5180001123083,登記記録の閉鎖等,0,2024-07-18,2024-07-01,株式会社ルード,,株式会社,愛知県,名古屋市瑞穂区,岳見町６丁目５番地,,23,108,4670043,,,2024-07-01,清算の結了等,,,2016-04-26,1,,,,,ルード,0
1162,5180002019644,登記記録の閉鎖等,0,2024-07-18,2024-07-02,有限会社森山食品,,有限会社,愛知県,名古屋市中川区,小本本町１丁目６９番地,,23,110,4540826,,,2024-07-02,清算の結了等,,,2015-10-05,1,,,,,モリヤマショクヒン,0
1163,5180002045236,登記記録の閉鎖等,0,2024-07-18,2024-07-02,有限会社ワカスギカンパニー,,有限会社,愛知県,名古屋市名東区,小井堀町１００２番地,,23,115,4650044,,,2024-07-02,清算の結了等,,,2015-10-05,1,,,,,ワカスギカンパニー,0
1166,5180003018091,登記記録の閉鎖等,0,2024-07-18,2024-07-01,合同会社Ｔｈｒｅｅ　Ｚｏｎｅ,,合同会社,愛知県,春日井市,高森台４丁目１５番地９,,23,206,4870032,,,2024-07-01,清算の結了等,,,2017-07-14,1,,,,,スリーゾーン,0
1168,5180301028180,登記記録の閉鎖等,0,2024-07-18,2024-07-04,株式会社Ｄｅｃｏｍ．,,株式会社,愛知県,豊橋市,神野新田町字ホノ割１７－１,,23,201,4418077,,,2024-07-04,清算の結了等,,,2015-10-05,1,,,,,ディコム,0
1172,5190001029791,登記記録の閉鎖等,0,2024-07-18,2024-07-11,株式会社ＱＵＡＲＩＳ,,株式会社,三重県,津市,大門１８番１１号ＡＫＡＴＳＵＫＩビル１－８号室,,24,201,5140027,,,2024-07-11,清算の結了等,,,2022-09-29,1,,,,,クオリス,0
1176,5230001011695,登記記録の閉鎖等,0,2024-07-18,2024-07-11,株式会社堀埜商店,,株式会社,富山県,氷見市,北大町７番６号,,16,205,9350004,,,2024-07-11,清算の結了等,,,2015-10-05,1,,,,,ホリノショウテン,0
1177,5230002001010,登記記録の閉鎖等,0,2024-07-18,2024-07-11,有限会社久保工務店,,有限会社,富山県,富山市,清水町８丁目２番２３号,,16,201,9300036,,,2024-07-11,清算の結了等,,,2015-10-05,1,,,,,クボコウムテン,0
1199,5290002030103,登記記録の閉鎖等,0,2024-07-18,2024-06-19,有限会社グッドライフコミュニケーションズ,,有限会社,福岡県,福岡市博多区,綱場町４番１１号,,40,132,8120024,,,2024-06-19,清算の結了等,,,2015-10-05,1,,,,,グッドライフコミュニケーションズ,0
1211,5360001020774,登記記録の閉鎖等,0,2024-07-18,2024-07-11,ダイセイ建設株式会社,,株式会社,沖縄県,国頭郡恩納村,字恩納６３４９番地６,,47,311,9040411,,,2024-07-11,清算の結了等,,,2016-05-09,1,,,,,ダイセイケンセツ,0
1214,5370002010567,登記記録の閉鎖等,0,2024-07-18,2024-07-01,北日本フードサービス有限会社,,有限会社,宮城県,仙台市青葉区,花京院２丁目２番７５号,,04,101,9800013,,,2024-07-01,合併による解散等,2370001010208,令和６年７月１日仙台市青葉区花京院二丁目２番７５号株式会社紅谷（2370001010208）に合併し解散,2015-10-05,1,,,,,キタニホンフードサービス,0
1218,5380001014972,登記記録の閉鎖等,0,2024-07-18,2024-07-05,株式会社Ｙ・Ｋ空調,,株式会社,福島県,いわき市,泉町下川字宮ノ下１２４番地３,,07,204,9718183,,,2024-07-05,清算の結了等,,,2015-10-05,1,,,,,ワイケイクウチョウ,0
1230,5420001015470,登記記録の閉鎖等,0,2024-07-18,2024-07-10,三建工業株式会社,,株式会社,青森県,三戸郡三戸町,大字斗内字上ノ平５７番地,,02,441,0390122,,,2024-07-10,清算の結了等,,,2016-10-31,1,,,,,サンケンコウギョウ,0
1235,5440001009173,登記記録の閉鎖等,0,2024-07-18,2024-07-09,株式会社長俣設備,,株式会社,北海道,函館市,亀田港町３番２号,,01,202,0410822,,,2024-07-09,清算の結了等,,,2022-10-18,1,,,,,ナガマタセツビ,0
1245,5470001016753,登記記録の閉鎖等,0,2024-07-18,2024-07-16,みすまる加工株式会社,,株式会社,高知県,香南市,香我美町上分１１５３番地５,,39,211,7815451,,,2024-07-16,合併による解散等,5470001013404,令和６年７月１日香川県観音寺市大野原町花稲１１１１番地１みすまる産業株式会社（5470001013404）に合併し解散,2018-02-21,1,,,,,ミスマルカコウ,0
1249,5480002016272,登記記録の閉鎖等,0,2024-07-18,2024-07-16,有限会社淡水荘,,有限会社,徳島県,那賀郡那賀町,竹ヶ谷字長門１４７番地,,36,368,7715329,,,2024-07-16,清算の結了等,,,2024-02-07,1,,,,,タンスイソウ,0
1263,6010003035680,登記記録の閉鎖等,0,2024-07-18,2024-07-04,オーパスファンディング５合同会社,,合同会社,東京都,千代田区,丸の内３丁目１番１号東京共同会計事務所内,,13,101,1000005,,,2024-07-04,清算の結了等,,,2021-08-24,1,,,,,オーパスファンディングファイブ,0
1265,6010005032610,登記記録の閉鎖等,0,2024-07-18,2024-07-04,一般社団法人ＤＳＢ－５,,その他の設立登記法人,東京都,中央区,日本橋１丁目４番１号,,13,102,1030027,,,2024-07-04,清算の結了等,,,2020-11-26,1,,,,,ディーエスビーファイブ,0
1266,6010401112874,登記記録の閉鎖等,0,2024-07-18,2024-06-28,マクロパス株式会社,,株式会社,東京都,港区,南青山５丁目１２番５号,,13,103,1070062,,,2024-06-28,清算の結了等,,,2015-10-05,1,,,,,マクロパス,0
1308,6011801038718,登記記録の閉鎖等,0,2024-07-18,2024-07-11,株式会社Ｒｅ－ｓｏｌｕｔｉｏｎ,,株式会社,東京都,葛飾区,堀切３丁目１番１３号ガレリア堀切１Ｆ,,13,122,1240006,,,2024-07-11,清算の結了等,,,2021-02-08,1,,,,,リソリューション,0
1309,6012702001351,登記記録の閉鎖等,0,2024-07-18,2024-07-09,有限会社中嶋電設,,有限会社,東京都,小平市,小川町１丁目９６３番地の１８,,13,211,1870032,,,2024-07-09,清算の結了等,,,2015-10-05,1,,,,,ナカジマデンセツ,0
1315,6020001037356,登記記録の閉鎖等,0,2024-07-18,2024-07-02,日新レジン株式会社,,株式会社,神奈川県,横浜市戸塚区,上矢部町２２８０番地,,14,110,2450053,,,2024-07-02,清算の結了等,,,2015-10-05,1,,,,,ニッシンレジン,0
1349,6080002014902,登記記録の閉鎖等,0,2024-07-18,2024-07-04,有限会社大栄館,,有限会社,静岡県,牧之原市,相良３３３番地の２の４,,22,226,4210522,,,2024-07-04,清算の結了等,,,2015-10-05,1,,,,,ダイエイカン,0
1356,6110001032232,登記記録の閉鎖等,0,2024-07-18,2024-07-12,新潟県民電力株式会社,,株式会社,新潟県,新潟市中央区,学校町通１番町５番地１,,15,103,9518126,,,2024-07-12,合併による解散等,7010001141521,令和６年７月１日東京都台東区上野三丁目２４番６号株式会社Ｌｏｏｏｐ（7010001141521）に合併し解散,2017-03-15,1,,,,,ニイガタケンミンデンリョク,0
1358,6120001018346,登記記録の閉鎖等,0,2024-07-18,2024-07-17,中谷製油株式会社,,株式会社,大阪府,大阪市生野区,巽南５丁目９番１４号,00027527,27,116,5440015,,,2024-07-17,清算の結了等,,,2015-10-05,1,,,,,ナカタニセイユ,0
1375,6120101010095,登記記録の閉鎖等,0,2024-07-18,2024-07-16,アナックス株式会社,,株式会社,大阪府,堺市南区,新檜尾台１丁１４番９号,,27,145,5900143,,,2024-07-16,清算の結了等,,,2015-10-05,1,,,,,アナックス,0
1391,6180001146678,登記記録の閉鎖等,0,2024-07-18,2024-07-01,Ｄｉｇ　ｕｐ株式会社,,株式会社,愛知県,名古屋市中区,錦３丁目２３番１８号ニューサカエビル７階,,23,106,4600003,,,2024-07-01,清算の結了等,,,2021-06-22,1,,,,,ディグアップ,0
1397,6180002089463,登記記録の閉鎖等,0,2024-07-18,2024-07-01,有限会社藤田プレス工作所,,有限会社,愛知県,あま市,新居屋高島５１番地,,23,237,4901105,,,2024-07-01,清算の結了等,,,2015-10-05,1,,,,,フジタプレスコウサクショ,0
1399,6180002091287,登記記録の閉鎖等,0,2024-07-18,2024-07-02,有限会社ＫＪＭ,,有限会社,愛知県,津島市,百島町字居屋敷６７番地,,23,208,4960019,,,2024-07-02,清算の結了等,,,2015-10-05,1,,,,,ケイジェイエム,0
1402,6180302019814,登記記録の閉鎖等,0,2024-07-18,2024-07-12,有限会社磯明精肉本店,,有限会社,愛知県,碧南市,野田町５７番地,,23,209,4470876,,,2024-07-12,清算の結了等,,,2015-10-05,1,,,,,,0
1407,6220002008708,登記記録の閉鎖等,0,2024-07-18,2024-07-12,有限会社カーペンター・オクノ,,有限会社,石川県,白山市,平加町リ２６番地２,,17,210,9290204,,,2024-07-12,清算の結了等,,,2015-10-05,1,,,,,カーペンターオクノ,0
1409,6240002007294,登記記録の閉鎖等,0,2024-07-18,2024-07-11,有限会社シンエイ食品,,有限会社,広島県,広島市西区,南観音２丁目４番５号,,34,104,7330035,,,2024-07-11,清算の結了等,,,2015-10-05,1,,,,,シンエイショクヒン,0
1417,6270001008902,登記記録の閉鎖等,0,2024-07-18,2024-07-17,白うさぎ健康クラブ株式会社,,株式会社,鳥取県,鳥取市,国府町新通り２丁目３０７番地,,31,201,6808066,,,2024-07-17,清算の結了等,,,2024-01-04,1,,,,,シロウサギケンコウクラブ,0
1418,6270002009156,登記記録の閉鎖等,0,2024-07-18,2024-07-16,有限会社マツタニ建築,,有限会社,鳥取県,米子市,淀江町佐陀１２５番地,,31,202,6893425,,,2024-07-16,清算の結了等,,,2015-10-05,1,,,,,,0
1421,6290001082672,登記記録の閉鎖等,0,2024-07-18,2024-06-19,株式会社北翔,,株式会社,福岡県,古賀市,青柳１３１８－１,,40,223,8113134,,,2024-06-19,清算の結了等,,,2018-09-10,1,,,,,キタショウ,0
1422,6290001091368,登記記録の閉鎖等,0,2024-07-18,2024-06-19,ｐａｒａｌｒｅａｌ株式会社,,株式会社,福岡県,福岡市中央区,天神２丁目４番１１号,,40,133,8100001,,,2024-06-19,清算の結了等,,,2020-12-21,1,,,,,パラレアル,0
1432,6300002010119,登記記録の閉鎖等,0,2024-07-18,2024-07-11,有限会社暁,,有限会社,佐賀県,唐津市,鏡３７５８番地９,,41,202,8470022,,,2024-07-11,清算の結了等,,,2015-10-05,1,,,,,アカツキ,0
1466,6480002002214,登記記録の閉鎖等,0,2024-07-18,2024-07-11,株式会社アンダンテ・アソシエイツ,,株式会社,東京都,杉並区,宮前２丁目１３番２２－３０４号,,13,115,1680081,,,2024-07-11,清算の結了等,,,2015-10-05,1,,,,,アンダンテアソシエイツ,0
1471,7010001063666,登記記録の閉鎖等,0,2024-07-18,2024-07-03,アプリネット株式会社,,株式会社,東京都,中央区,日本橋１丁目１４番５号,,13,102,1030027,,,2024-07-03,清算の結了等,,,2015-10-05,1,,,,,アプリネット,0
1473,7010001153913,登記記録の閉鎖等,0,2024-07-18,2024-07-03,株式会社幸貴,,株式会社,東京都,中央区,銀座６丁目８番３号,,13,102,1040061,,,2024-07-03,清算の結了等,,,2015-10-05,1,,,,,コウキ,0
1474,7010001154639,登記記録の閉鎖等,0,2024-07-18,2024-07-03,株式会社エコ・ペットリサイクル,,株式会社,東京都,中央区,築地４丁目４番１５号,,13,102,1040045,,,2024-07-03,清算の結了等,,,2015-10-05,1,,,,,エコペットリサイクル,0
1480,7010001199972,登記記録の閉鎖等,0,2024-07-18,2024-07-03,セミナーＢＯＯＫ株式会社,,株式会社,東京都,千代田区,飯田橋１丁目７番４号,,13,101,1020072,,,2024-07-03,清算の結了等,,,2019-04-15,1,,,,,セミナーブック,0
1489,7010401093841,登記記録の閉鎖等,0,2024-07-18,2024-07-01,ＵＤフィナンシャルサービス株式会社,,株式会社,神奈川県,横浜市西区,高島１丁目２番５号,,14,103,2200011,,,2024-07-01,合併による解散等,7010701027334,令和６年７月１日神奈川県横浜市西区高島一丁目２番５号いすゞリーシングサービス株式会社（7010701027334）に合併し解散,2015-10-05,1,,,,,ユーディーフィナンシャルサービス,0
1498,7010401154635,登記記録の閉鎖等,0,2024-07-18,2024-07-01,株式会社Ｙ’ｓ,,株式会社,東京都,港区,赤坂９丁目５番２６号４Ｆ,,13,103,1070052,,,2024-07-01,清算の結了等,,,2020-08-19,1,,,,,ワイズ,0
1505,7010505003151,登記記録の閉鎖等,0,2024-07-18,2024-07-05,一般社団法人ベトナムジャパンオープンイノベーションネットワーク,,その他の設立登記法人,東京都,台東区,東上野４丁目８番１号,,13,106,1100015,,,2024-07-05,清算の結了等,,,2020-07-30,1,,,,,ベトナムジャパンオープンイノベーションネットワーク,0
1506,7010603010314,登記記録の閉鎖等,0,2024-07-18,2024-07-12,おおとも企画合同会社,,合同会社,東京都,墨田区,江東橋５丁目５番１３号,,13,107,1300022,,,2024-07-12,清算の結了等,,,2023-08-24,1,,,,,オオトモキカク,0
1529,7020001095601,登記記録の閉鎖等,0,2024-07-18,2024-07-02,株式会社みやび,,株式会社,神奈川県,川崎市川崎区,日進町１番地,,14,131,2100024,,,2024-07-02,清算の結了等,,,2015-10-05,1,,,,,ミヤビ,0
1540,7030001136973,登記記録の閉鎖等,0,2024-07-18,2024-07-10,株式会社ＫＧハウスサービス,,株式会社,埼玉県,川越市,大字今福１０３７番地３０－２０１号,,11,201,3501151,,,2024-07-10,清算の結了等,,,2020-06-24,1,,,,,ケージーハウスサービス,0
1544,7030002072870,登記記録の閉鎖等,0,2024-07-18,2024-07-11,有限会社勝友メディカル・サービス,,有限会社,埼玉県,川越市,旭町３丁目６番地１９,,11,201,3501126,,,2024-07-11,清算の結了等,,,2015-10-05,1,,,,,ショウユウメディカルサービス,0
1556,7040003016173,登記記録の閉鎖等,0,2024-07-18,2024-07-11,ロト合同会社,,合同会社,東京都,台東区,浅草橋５丁目１７番１号ＨＭビル５０５号室,,13,106,1110053,,,2024-07-11,清算の結了等,,,2020-10-02,1,,,,,ロト,0
1573,7110001008883,登記記録の閉鎖等,0,2024-07-18,2024-07-05,株式会社リブウェル新潟松崎,,株式会社,新潟県,新潟市中央区,水道町２丁目８０８番地,,15,103,9518121,,,2024-07-05,清算の結了等,,,2015-10-05,1,,,,,リブウェルニイガタマツザキ,0
1588,7120101052137,登記記録の閉鎖等,0,2024-07-18,2024-07-08,株式会社羽曳が丘不動産,,株式会社,大阪府,羽曳野市,羽曳が丘１０丁目２０番２３号,,27,222,5830864,,,2024-07-08,清算の結了等,,,2015-10-05,1,,,,,ハビキガオカフドウサン,0
1609,7180001124575,登記記録の閉鎖等,0,2024-07-18,2024-07-02,天城株式会社,,株式会社,愛知県,名古屋市中区,錦１丁目７番３４号,,23,106,4600003,,,2024-07-02,清算の結了等,,,2016-08-24,1,,,,,テンジョウ,0
1617,7180301033930,登記記録の閉鎖等,0,2024-07-18,2024-07-11,株式会社ＤｅａｒＢｅ,,株式会社,愛知県,豊田市,西中山町崩ケ崎３０番地５３,,23,211,4700431,,,2024-07-11,清算の結了等,,,2020-08-04,1,,,,,ディアビー,0
1620,7180302016389,登記記録の閉鎖等,0,2024-07-18,2024-07-05,有限会社イブキ,,有限会社,愛知県,安城市,安城町宮前８０番地２,,23,212,4460026,,,2024-07-05,清算の結了等,,,2015-10-05,1,,,,,イブキ,0
1622,7190001015113,登記記録の閉鎖等,0,2024-07-18,2024-07-16,新光電機工業株式会社,,株式会社,三重県,四日市市,稲葉町１番１号,,24,202,5100041,,,2024-07-16,清算の結了等,,,2015-10-05,1,,,,,シンコウデンキコウギョウ,0
1623,7190001024551,登記記録の閉鎖等,0,2024-07-18,2024-07-16,株式会社ｂｌｅｎｄ－ｌａｂ,,株式会社,三重県,桑名市,新西方１丁目２４番地ポレスター新西方２０２,,24,205,5110863,,,2024-07-16,清算の結了等,,,2017-04-12,1,,,,,ブレンドラボ,0
1636,7240002032622,登記記録の閉鎖等,0,2024-07-18,2024-07-11,有限会社桑田食料品店,,有限会社,広島県,呉市,中通２丁目１番２０号桑田ビル,,34,202,7370046,,,2024-07-11,清算の結了等,,,2015-10-05,1,,,,,クワダショクリョウヒンテン,0
1639,7260001002277,登記記録の閉鎖等,0,2024-07-18,2024-07-01,株式会社建築倶楽部,,株式会社,岡山県,岡山市北区,三門中町３番５号,,33,101,7000043,,,2024-07-01,合併による解散等,4021001014966,令和６年７月１日岡山市北区三門中町３番５号ニナオ設計株式会社（4021001014966）に合併し解散,2015-10-05,1,,,,,ケンチククラブ,0
1640,7280002007091,登記記録の閉鎖等,0,2024-07-18,2024-07-16,有限会社環境サービス,,有限会社,島根県,出雲市,灘分町２００１番地,,32,203,6910003,,,2024-07-16,清算の結了等,,,2015-10-05,1,,,,,カンキョウサービス,0
1646,7290002013898,登記記録の閉鎖等,0,2024-07-18,2024-06-21,有限会社アイピーデー,,有限会社,福岡県,福岡市博多区,博多駅前３丁目１９番１４号ビーエスビル博多,,40,132,8120011,,,2024-06-21,清算の結了等,,,2015-10-05,1,,,,,アイピーデー,0
1652,7310003004274,登記記録の閉鎖等,0,2024-07-18,2024-07-04,合同会社優美武,,合同会社,長崎県,大村市,宮小路３丁目１９４６番地６,,42,205,8560807,,,2024-07-04,清算の結了等,,,2022-02-15,1,,,,,ユミタケ,0
1675,7380003002214,登記記録の閉鎖等,0,2024-07-18,2024-07-05,合同会社ケアプランステーション大和田,,合同会社,福島県,いわき市,平沼ノ内字新街２０番地の３,,07,204,9700222,,,2024-07-05,清算の結了等,,,2015-10-05,1,,,,,ケアプランステーションオオワダ,0
1690,7430002055810,登記記録の閉鎖等,0,2024-07-18,2024-07-16,有限会社モリヤ,,有限会社,北海道,小樽市,塩谷２丁目１９番８号,,01,203,0482672,,,2024-07-16,清算の結了等,,,2015-10-05,1,,,,,モリヤ,0
1694,7470002006355,登記記録の閉鎖等,0,2024-07-18,2024-07-08,有限会社松下文具店,,有限会社,香川県,高松市,仏生山町甲８３４番地３,,37,201,7618078,,,2024-07-08,清算の結了等,,,2015-10-05,1,,,,,,0
1709,8010003033237,登記記録の閉鎖等,0,2024-07-18,2024-07-04,ＯＫ大宮開発合同会社,,合同会社,東京都,千代田区,丸の内３丁目１番１号東京共同会計事務所内,,13,101,1000005,,,2024-07-04,清算の結了等,,,2020-10-13,1,,,,,オーケーオオミヤカイハツ,0
1711,8010005028152,登記記録の閉鎖等,0,2024-07-18,2024-07-04,特定目的会社ＨＴＴ－１号ファンド,,その他の設立登記法人,東京都,千代田区,神田佐久間町３丁目２７番３号ガーデンパークビル３階吉田・森本・石野税理士法人内,,13,101,1010025,,,2024-07-04,清算の結了等,,,2018-02-22,1,,,,,エイチティーティーイチゴウファンド,0
1739,8010701024727,登記記録の閉鎖等,0,2024-07-18,2024-07-01,株式会社ハイテンション,,株式会社,東京都,港区,芝５丁目２３－６,,13,103,1080014,,,2024-07-01,清算の結了等,,,2015-10-05,1,,,,,ハイテンション,0
1752,8011002006646,登記記録の閉鎖等,0,2024-07-18,2024-07-12,有限会社杉浦康平プラスアイズ,,有限会社,東京都,中野区,東中野２丁目１７番１１号,,13,114,1640003,,,2024-07-12,清算の結了等,,,2015-10-05,1,,,,,スギウラコウヘイプラスアイズ,0
1756,8011101015176,登記記録の閉鎖等,0,2024-07-18,2024-07-04,東京濱商株式会社,,株式会社,東京都,新宿区,山吹町３３７番地,,13,104,1620801,,,2024-07-04,合併による解散等,5011101017547,令和６年６月３０日東京都新宿区余丁町１０番８号株式会社ハマシヨウ（5011101017547）に合併し解散,2015-10-05,1,,,,,トウキョウハマショウ,0
1767,8011703001078,登記記録の閉鎖等,0,2024-07-18,2024-07-10,合資会社エムズ・ファクトリー,,合資会社,東京都,江戸川区,南篠崎町４丁目９番８－７０１号エスポアール瑞江,,13,123,1330065,,,2024-07-10,清算の結了等,,,2015-10-05,1,,,,,エムズファクトリー,0
1771,8012302005189,登記記録の閉鎖等,0,2024-07-18,2024-07-02,有限会社リーダース,,有限会社,東京都,町田市,小山町６７４番地５,,13,209,1940212,,,2024-07-02,清算の結了等,,,2015-10-05,1,,,,,リーダース,0
1785,8013402000708,登記記録の閉鎖等,0,2024-07-18,2024-07-12,株式会社清水薬局,,株式会社,東京都,日野市,多摩平３丁目１２番地の３,,13,212,1910062,,,2024-07-12,合併による解散等,9010401095530,令和６年７月１日東京都中央区八重洲二丁目２番１号株式会社ストレチア（9010401095530）に合併し解散,2015-10-05,1,,,,,シミズヤッキョク,0
1787,8020002015292,登記記録の閉鎖等,0,2024-07-18,2024-07-02,有限会社フェーデ・しらとり,,有限会社,神奈川県,横浜市青葉区,しらとり台３５番地１６,,14,117,2270054,,,2024-07-02,清算の結了等,,,2015-10-05,1,,,,,フェーデシラトリ,0
1823,8070005005253,登記記録の閉鎖等,0,2024-07-18,2024-07-11,特定非営利活動法人ビハーラ,,その他の設立登記法人,群馬県,桐生市,東５丁目６番４７号,,10,203,3760034,,,2024-07-11,清算の結了等,,,2015-10-05,1,,,,,ビハーラ,0
1834,8110001007348,登記記録の閉鎖等,0,2024-07-18,2024-07-05,株式会社新津鮮魚問屋,,株式会社,新潟県,新潟市秋葉区,新津本町２丁目５番１０号,,15,105,9560864,,,2024-07-05,清算の結了等,,,2015-10-05,1,,,,,ニイツセンギョドンヤ,0
1850,8120003025446,登記記録の閉鎖等,0,2024-07-18,2024-07-16,リートシステム合同会社,,合同会社,大阪府,大阪市北区,梅田１丁目２番２号大阪駅前第２ビル１２－１２,,27,127,5300001,,,2024-07-16,清算の結了等,,,2023-12-05,1,,,,,リートシステム,0
1856,8130001039455,登記記録の閉鎖等,0,2024-07-18,2024-07-16,株式会社平成コーポレーション,,株式会社,京都府,八幡市,男山金振２番地２４,,26,210,6148365,,,2024-07-16,清算の結了等,,,2015-10-05,1,,,,,ヘイセイコーポレーション,0
1861,8140003016988,登記記録の閉鎖等,0,2024-07-18,2024-06-20,合同会社ＳＩＴ,,合同会社,兵庫県,神戸市西区,桜が丘中町５丁目３番地の１２,,28,111,6512226,,,2024-06-20,清算の結了等,,,2021-11-16,1,,,,,エスアイティー,0
1864,8170002000313,登記記録の閉鎖等,0,2024-07-18,2024-07-16,有限会社石野,,有限会社,和歌山県,和歌山市,西庄９８４番地の１,,30,201,6400112,,,2024-07-16,清算の結了等,,,2015-10-05,1,,,,,イシノ,0
1865,8180001052379,登記記録の閉鎖等,0,2024-07-18,2024-07-01,株式会社丸八青果,,株式会社,愛知県,名古屋市北区,玄馬町２０１番地,,23,103,4620018,,,2024-07-01,清算の結了等,,,2015-10-05,1,,,,,マルハチセイカ,0
1867,8180001064738,登記記録の閉鎖等,0,2024-07-18,2024-07-02,株式会社ティー・エス・コーポレーション,,株式会社,愛知県,名古屋市名東区,よもぎ台３丁目２０９番地,,23,115,4650091,,,2024-07-02,清算の結了等,,,2015-10-05,1,,,,,ティーエスコーポレーション,0
1877,8180301011497,登記記録の閉鎖等,0,2024-07-18,2024-07-11,株式会社ＭＩＮＤ,,株式会社,愛知県,豊橋市,駅前大通１丁目１３５番地,,23,201,4400888,,,2024-07-11,清算の結了等,,,2015-10-05,1,,,,,マインド,0
1879,8180302014508,登記記録の閉鎖等,0,2024-07-18,2024-07-04,有限会社ハヤシ,,有限会社,愛知県,豊川市,西桜木町２丁目３８番地の１,,23,207,4420063,,,2024-07-04,清算の結了等,,,2015-10-05,1,,,,,ハヤシ,0
1891,8240002001196,登記記録の閉鎖等,0,2024-07-18,2024-07-05,有限会社石田五郎商店,,有限会社,広島県,広島市東区,尾長西２丁目６番５号,,34,102,7320047,,,2024-07-05,清算の結了等,,,2015-10-05,1,,,,,,0
1911,8330001012904,登記記録の閉鎖等,0,2024-07-18,2024-07-04,株式会社藤本工務店,,株式会社,熊本県,宇土市,古保里町７６０番地の１,,43,211,8690415,,,2024-07-04,清算の結了等,,,2015-10-05,1,,,,,フジモトコウムテン,0
1922,8400001004349,登記記録の閉鎖等,0,2024-07-18,2024-07-02,株式会社松福堂,,株式会社,岩手県,八幡平市,大更第２３地割６２番地７,,03,214,0287111,,,2024-07-02,清算の結了等,,,2015-10-05,1,,,,,ショウフクドウ,0
1924,8400002001238,登記記録の閉鎖等,0,2024-07-18,2024-07-01,有限会社コスモ・フーズ,,有限会社,岩手県,盛岡市,西見前１５地割１８４番地３,,03,201,0200833,,,2024-07-01,清算の結了等,,,2015-10-05,1,,,,,コスモフーズ,0
1927,8410002007993,登記記録の閉鎖等,0,2024-07-18,2024-07-08,有限会社マルハンニット,,有限会社,秋田県,雄勝郡羽後町,貝沢字柏野２１番地５,,05,463,0121123,,,2024-07-08,清算の結了等,,,2015-10-05,1,,,,,マルハンニット,0
1928,8420005006868,登記記録の閉鎖等,0,2024-07-18,2024-07-05,特定非営利活動法人青森バイオマスエネルギー推進協議会,,その他の設立登記法人,青森県,三沢市,新町２丁目３１番地２１７１号,,02,207,0330062,,,2024-07-05,清算の結了等,,,2015-10-05,1,,,,,アオモリバイオマスエネルギースイシンキョウギカイ,0
1936,8500005007701,登記記録の閉鎖等,0,2024-07-18,2024-07-09,農事組合法人トクデ,,その他の設立登記法人,愛媛県,西条市,丹原町徳能出作１３６番地１,,38,206,7910501,,,2024-07-09,清算の結了等,,,2015-10-05,1,,,,,トクデ,0
1941,9010001155981,登記記録の閉鎖等,0,2024-07-18,2024-07-05,四ツ谷ビジネスサポート株式会社,,株式会社,東京都,豊島区,高田１丁目２９番７－３０５号,,13,116,1710033,,,2024-07-05,清算の結了等,,,2015-10-05,1,,,,,ヨツヤビジネスサポート,0
1970,9010501033373,登記記録の閉鎖等,0,2024-07-18,2024-07-03,株式会社アクオリア,,株式会社,東京都,千代田区,神田須田町２丁目２－３ＩＴＣ神田須田町ビル７Ｆ,,13,101,1010041,,,2024-07-03,清算の結了等,,,2015-10-05,1,AQUALIA corporation,,,,アクオリア,0
1974,9010602016145,登記記録の閉鎖等,0,2024-07-18,2024-07-11,有限会社柳澤商店,,有限会社,東京都,足立区,千住東２丁目２４番１－１４０４号,,13,121,1200025,,,2024-07-11,清算の結了等,,,2015-10-05,1,,,,,ヤナギサワショウテン,0
1986,9011501022283,登記記録の閉鎖等,0,2024-07-18,2024-07-16,株式会社トリプルパック,,株式会社,東京都,荒川区,東日暮里６丁目３１番１２号,,13,118,1160014,,,2024-07-16,清算の結了等,,,2017-01-24,1,,,,,トリプルパック,0
2001,9013301025144,登記記録の閉鎖等,0,2024-07-18,2024-07-10,宏達産業貿易株式会社,,株式会社,東京都,墨田区,向島２丁目６番５号,,13,107,1310033,,,2024-07-10,清算の結了等,,,2015-10-05,1,,,,,コウタツサンギョウボウエキ,0
2017,9021002028283,登記記録の閉鎖等,0,2024-07-18,2024-07-16,有限会社ケアステーションやまびこ,,有限会社,神奈川県,相模原市南区,東林間１丁目１５番１－６１１号,,14,153,2520311,,,2024-07-16,清算の結了等,,,2015-10-05,1,,,,,,0
2045,9100001020755,登記記録の閉鎖等,0,2024-07-18,2024-07-01,株式会社スズキ,,株式会社,長野県,伊那市,上新田２４０６番地,,20,209,3960012,,,2024-07-01,合併による解散等,9100001013478,令和６年７月１日長野県松本市小屋南二丁目１８番２０号ブリヂストンリテール長野株式会社（9100001013478）に合併し解散,2015-10-05,1,,,,,スズキ,0
2053,9110002004723,登記記録の閉鎖等,0,2024-07-18,2024-07-05,有限会社新潟看護婦家政婦紹介所,,有限会社,新潟県,新潟市中央区,水島町１番７号,,15,103,9500904,,,2024-07-05,清算の結了等,,,2015-10-05,1,,,,,,0
2055,9120001010993,登記記録の閉鎖等,0,2024-07-18,2024-07-16,株式会社マイン,,株式会社,大阪府,大阪市東住吉区,杭全４丁目７番４号,,27,121,5460002,,,2024-07-16,清算の結了等,,,2015-10-05,1,,,,,マイン,0
2056,9120001036592,登記記録の閉鎖等,0,2024-07-18,2024-07-17,株式会社三吉屋,,株式会社,大阪府,大阪市福島区,野田１丁目１番８６号大阪市中央卸売市場内,,27,103,5530005,,,2024-07-17,清算の結了等,,,2015-10-05,1,,,,,ミヨシヤ,0
2069,9120901038267,登記記録の閉鎖等,0,2024-07-18,2024-07-12,株式会社悠征,,株式会社,大阪府,摂津市,鳥飼下３丁目４８番１号,,27,224,5660071,,,2024-07-12,清算の結了等,,,2017-04-10,1,,,,,ユウセイ,0
2089,9160001004034,登記記録の閉鎖等,0,2024-07-18,2024-07-12,株式会社大津介護,,株式会社,滋賀県,大津市,大江２丁目２５番２号,,25,201,5202141,,,2024-07-12,清算の結了等,,,2015-10-05,1,,,,,オオツカイゴ,0
2102,9180301007981,登記記録の閉鎖等,0,2024-07-18,2024-07-12,株式会社兵道,,株式会社,愛知県,豊川市,白鳥町穴田６８番地２,,23,207,4420848,,,2024-07-12,合併による解散等,5180001091702,令和６年７月１日愛知県半田市住吉町三丁目３４番地株式会社榊原（5180001091702）に合併し解散,2015-10-05,1,,,,,ヒョウドウ,0
2126,9260005007304,登記記録の閉鎖等,0,2024-07-18,2024-07-08,協同組合大原ショッピングセンター,,その他の設立登記法人,岡山県,美作市,古町１６２０番地の１,,33,215,7070412,,,2024-07-08,清算の結了等,,,2015-10-05,1,,,,,,0
2127,9280002001209,登記記録の閉鎖等,0,2024-07-18,2024-07-17,杉村板金有限会社,,有限会社,島根県,松江市,八幡町７９８番地２,,32,201,6900025,,,2024-07-17,清算の結了等,,,2015-10-05,1,,,,,スギムラバンキン,0
2130,9290001062374,登記記録の閉鎖等,0,2024-07-18,2024-06-19,ヴィンセント製薬株式会社,,株式会社,福岡県,福岡市博多区,綱場町４番１１号,,40,132,8120024,,,2024-06-19,清算の結了等,,,2015-10-05,1,,,,,ヴィンセントセイヤク,0
2135,9290003012154,登記記録の閉鎖等,0,2024-07-18,2024-06-19,合同会社ゼットエス,,合同会社,福岡県,福岡市博多区,那珂６丁目１６－１５－１０２,,40,132,8120893,,,2024-06-19,清算の結了等,,,2022-02-22,1,,,,,ゼットエス,0
2144,9310002007086,登記記録の閉鎖等,0,2024-07-18,2024-07-17,有限会社旬菜篝屋,00118266,有限会社,長崎県,長崎市,万屋町２番２３号,,42,201,8500852,,,2024-07-17,清算の結了等,,,2015-10-05,1,,,,,シュンサイカガリヤ,0
2154,9350001008486,登記記録の閉鎖等,0,2024-07-18,2024-07-08,株式会社都城茶業センター,,株式会社,宮崎県,北諸県郡三股町,大字蓼池４４２１番地,,45,341,8891914,,,2024-07-08,清算の結了等,,,2015-10-05,1,,,,,,0
2162,9370302000322,登記記録の閉鎖等,0,2024-07-18,2024-06-28,有限会社伊藤建築設計事務所,,有限会社,宮城県,石巻市,鹿又字新田町浦４５番地,,04,202,9861111,,,2024-06-28,清算の結了等,,,2015-10-05,1,,,,,イトウケンチクセッケイジムショ,0
2173,9430001082754,登記記録の閉鎖等,0,2024-07-18,2024-07-09,株式会社８ＭＥＡＴ,,株式会社,北海道,札幌市中央区,南二条西７丁目４番地１,,01,101,0600062,,,2024-07-09,清算の結了等,,,2020-11-18,1,,,,,エイトミート,0
2177,9470002007260,登記記録の閉鎖等,0,2024-07-18,2024-07-08,有限会社ユー・プラン,,有限会社,香川県,高松市,三条町３８番地１９,,37,201,7618072,,,2024-07-08,清算の結了等,,,2015-10-05,1,,,,,ユープラン,0
2180,9490001005313,登記記録の閉鎖等,0,2024-07-18,2024-07-08,株式会社りぼん,,株式会社,高知県,四万十市,右山五月町８番１３号アピアさつき１Ｆ,,39,210,7870012,,,2024-07-08,清算の結了等,,,2015-10-05,1,,,,,リボン,0
