sequenceNumber,corporateNumber,process,correct,updateDate,changeDate,name,nameImageId,kind,prefectureName,cityName,streetNumber,addressImageId,prefectureCode,cityCode,postCode,addressOutside,addressOutsideImageId,closeDate,closeCause,successorCorporateNumber,changeCause,assignmentDate,latest,enName,enPrefectureName,enCityName,enAddressOutside,furigana,hihyoji
1,1010001075188,登記記録の閉鎖等,0,2022-12-23,2022-12-21,株式会社グローバルネットワーク,,株式会社,福島県,双葉郡浪江町,大字川添字葉山２６番地１,,07,547,9791531,,,2022-12-21,合併による解散等,5010001011899,令和４年１２月１５日千葉県我孫子市天王台二丁目１６番１６号株式会社エー・ケー・シー（5010001011899）に合併し解散,2015-10-05,1,,,,,グローバルネットワーク,0
3,1010001187090,登記記録の閉鎖等,0,2022-12-23,2022-12-01,ディスカバリーライン株式会社,,株式会社,東京都,中央区,日本橋浜町３丁目９番５号ＴＯＫＹＯＭＩＤＯＲＩＬＡＢＯ．４階,,13,102,1030007,,,2022-12-01,合併による解散等,4010001159194,令和４年１２月１日東京都中央区日本橋浜町三丁目９番５号ＴＯＫＹＯＭＩＤＯＲＩＬＡＢＯ．４階株式会社ファームシップ（4010001159194）に合併し解散,2017-10-27,1,,,,,ディスカバリーライン,0
17,1010405016085,登記記録の閉鎖等,0,2022-12-23,2022-12-15,一般社団法人建物保全協会,,その他の設立登記法人,東京都,港区,新橋４丁目９番１号,,13,103,1050004,,,2022-12-15,清算の結了等,,,2017-09-19,1,,,,,タテモノホゼンキョウカイ,0
20,1010601002467,登記記録の閉鎖等,0,2022-12-23,2022-12-19,株式会社アアア紙器社,,株式会社,東京都,江東区,森下５丁目３番２号,,13,108,1350004,,,2022-12-19,清算の結了等,,,2015-10-05,1,,,,,アアアシキシャ,0
44,1011602008049,登記記録の閉鎖等,0,2022-12-23,2022-12-19,有限会社花清植物園,,有限会社,東京都,練馬区,石神井台５丁目１０番１１号,,13,120,1770045,,,2022-12-19,清算の結了等,,,2015-10-05,1,,,,,ハナセイショクブツエン,0
45,1011602022842,登記記録の閉鎖等,0,2022-12-23,2022-12-15,有限会社木村企画,,有限会社,東京都,練馬区,桜台６丁目８番６号,,13,120,1760002,,,2022-12-15,清算の結了等,,,2015-10-05,1,,,,,キムラキカク,0
51,1012402011481,登記記録の閉鎖等,0,2022-12-23,2022-12-20,有限会社鈴木硝子店,,有限会社,東京都,調布市,国領町１丁目１７番地１５調布第２コーポラス３１９,,13,208,1820022,,,2022-12-20,清算の結了等,,,2015-10-05,1,,,,,スズキガラステン,0
52,1012701013682,登記記録の閉鎖等,0,2022-12-23,2022-12-21,アサカ通商株式会社,,株式会社,東京都,西東京市,新町１丁目４番２－８０７号,,13,229,2020023,,,2022-12-21,清算の結了等,,,2016-04-15,1,,,,,アサカツウショウ,0
57,1013202001680,登記記録の閉鎖等,0,2022-12-23,2022-12-22,有限会社オフィスラドンナ,,有限会社,東京都,目黒区,東が丘２丁目１１番１５号東が丘１１番館１０３,,13,110,1520021,,,2022-12-22,清算の結了等,,,2015-10-05,1,,,,,オフィスラドンナ,0
61,1020001085483,登記記録の閉鎖等,0,2022-12-23,2022-12-19,株式会社オーカクリエイト,,株式会社,神奈川県,横浜市旭区,笹野台４丁目１５番３０号,,14,112,2410816,,,2022-12-19,清算の結了等,,,2015-10-05,1,,,,,オーカクリエイト,0
63,1020001136955,登記記録の閉鎖等,0,2022-12-23,2022-12-20,株式会社ＭＩＡ　ＴＥＣＨ,,株式会社,神奈川県,川崎市中原区,市ノ坪６３６番地８,,14,133,2110016,,,2022-12-20,清算の結了等,,,2020-07-21,1,,,,,ミアテック,0
78,1021002018556,登記記録の閉鎖等,0,2022-12-23,2022-12-20,有限会社エム・デー・イー,,有限会社,神奈川県,相模原市中央区,上溝１９１４番地の１０,,14,152,2520243,,,2022-12-20,清算の結了等,,,2015-10-05,1,,,,,エムデーイー,0
79,1021002021114,登記記録の閉鎖等,0,2022-12-23,2022-12-19,有限会社下九沢増田屋,,有限会社,神奈川県,相模原市緑区,下九沢１９３９番地の７,,14,151,2520134,,,2022-12-19,清算の結了等,,,2015-10-05,1,,,,,シモクザワマスダヤ,0
95,1030002102328,登記記録の閉鎖等,0,2022-12-23,2022-12-20,有限会社廣栄,,有限会社,埼玉県,川口市,東本郷１丁目８番１０号,,11,203,3340063,,,2022-12-20,清算の結了等,,,2015-10-05,1,,,,,コウエイ,0
100,1040002017665,登記記録の閉鎖等,0,2022-12-23,2022-12-20,有限会社ＦＤＣ,,有限会社,千葉県,千葉市美浜区,磯辺１丁目４１番８号,,12,106,2610012,,,2022-12-20,清算の結了等,,,2015-10-05,1,,,,,エフディーシー,0
115,1110002011900,登記記録の閉鎖等,0,2022-12-23,2022-12-20,有限会社ＲＫＴ,,有限会社,新潟県,新潟市中央区,古町通８番町１４９２番地,,15,103,9518063,,,2022-12-20,清算の結了等,,,2015-10-05,1,,,,,アールケイティ,0
125,1120002049106,登記記録の閉鎖等,0,2022-12-23,2022-12-22,有限会社カルテット,,有限会社,大阪府,吹田市,広芝町４－３４,,27,205,5640052,,,2022-12-22,清算の結了等,,,2015-10-05,1,,,,,カルテット,0
143,1140005005442,登記記録の閉鎖等,0,2022-12-23,2022-12-21,明石情報通信事業協同組合,,その他の設立登記法人,兵庫県,明石市,硯町２丁目５番明石ハウス１－１１０,,28,203,6730028,,,2022-12-21,清算の結了等,,,2015-10-05,1,,,,,アカシジョウホウツウシン,0
150,1180001024946,登記記録の閉鎖等,0,2022-12-23,2022-12-20,株式会社オーエヌ冷機,,株式会社,愛知県,名古屋市西区,笠取町４丁目４５番地,,23,104,4510072,,,2022-12-20,清算の結了等,,,2015-10-05,1,,,,,オーエヌレイキ,0
164,1180005003921,登記記録の閉鎖等,0,2022-12-23,2022-12-21,名古屋西区食糧協同組合,,その他の設立登記法人,愛知県,名古屋市西区,押切２丁目１番２９号,,23,104,4510063,,,2022-12-21,清算の結了等,,,2015-10-05,1,,,,,ナゴヤニシクショクリョウ,0
174,1200002014737,登記記録の閉鎖等,0,2022-12-23,2022-12-22,有限会社東海イトー,,有限会社,岐阜県,海津市,南濃町田鶴２９５番地の２,,21,221,5030533,,,2022-12-22,清算の結了等,,,2015-10-05,1,,,,,トウカイイトー,0
182,1240002009171,登記記録の閉鎖等,0,2022-12-23,2022-12-22,有限会社ダイワ共栄物産,,有限会社,広島県,広島市東区,東蟹屋町６番１０号,,34,102,7320055,,,2022-12-22,清算の結了等,,,2015-10-05,1,,,,,ダイワキョウエイブッサン,0
186,1250002014889,登記記録の閉鎖等,0,2022-12-23,2022-12-19,有限会社セイカ運輸,,有限会社,山口県,周南市,鼓海１丁目３２４番地の１８,,35,215,7450814,,,2022-12-19,清算の結了等,,,2015-10-05,1,,,,,,0
188,1260002009871,登記記録の閉鎖等,0,2022-12-23,2022-12-22,有限会社雅サービスクリエーター,,有限会社,岡山県,岡山市北区,下石井２丁目８番６号,,33,101,7000907,,,2022-12-22,清算の結了等,,,2015-10-05,1,,,,,ミヤビサービスクリエーター,0
198,1320001011590,登記記録の閉鎖等,0,2022-12-23,2022-12-21,株式会社ハネタ,,株式会社,大分県,大分市,王子北町５番９号,,44,201,8700005,,,2022-12-21,清算の結了等,,,2015-10-05,1,,,,,,0
205,1370005010114,登記記録の閉鎖等,0,2022-12-23,2022-12-20,一般社団法人犬猫個体識別情報管理センター,,その他の設立登記法人,宮城県,名取市,大手町２丁目９６番地,,04,207,9811232,,,2022-12-20,清算の結了等,,,2020-05-14,1,,,,,イヌネココタイシキベツジョウホウカンリセンター,0
247,2010603007488,登記記録の閉鎖等,0,2022-12-23,2022-12-20,ＫＨコマース合同会社,,合同会社,東京都,江東区,東雲１丁目１番９－９０４号,,13,108,1350062,,,2022-12-20,清算の結了等,,,2018-10-11,1,,,,,ケイエイチコマース,0
250,2010605001646,登記記録の閉鎖等,0,2022-12-23,2022-12-20,医療法人財団たすけあい,,その他の設立登記法人,東京都,墨田区,緑１丁目２７番９号１階,,13,107,1300021,,,2022-12-20,清算の結了等,,,2015-10-05,1,,,,,タスケアイ,0
257,2011001025306,登記記録の閉鎖等,0,2022-12-23,2022-12-19,株式会社レン,,株式会社,東京都,渋谷区,宇田川町１７番２号,,13,113,1500042,,,2022-12-19,清算の結了等,,,2015-10-05,1,,,,,レン,0
286,2012401018171,登記記録の閉鎖等,0,2022-12-23,2022-12-20,株式会社ウルトラアイ,,株式会社,山口県,萩市,大字堀内４６３番地１,,35,204,7580057,,,2022-12-20,清算の結了等,,,2015-10-05,1,,,,,ウルトラアイ,0
290,2013205001652,登記記録の閉鎖等,0,2022-12-23,2022-12-22,一般財団法人マダム・バタフライインターナショナル財団,,その他の設立登記法人,東京都,目黒区,東が丘２丁目１１番１５号,,13,110,1520021,,,2022-12-22,清算の結了等,,,2015-10-05,1,,,,,マダムバタフライインターナショナルザイダン,0
295,2013302010614,登記記録の閉鎖等,0,2022-12-23,2022-12-15,有限会社横山商事,,有限会社,東京都,豊島区,上池袋３丁目１１番７号,,13,116,1700012,,,2022-12-15,清算の結了等,,,2015-10-05,1,,,,,ヨコヤマショウジ,0
297,2020001015398,登記記録の閉鎖等,0,2022-12-23,2022-12-20,株式会社筒井商事,,株式会社,神奈川県,横浜市西区,浅間町５丁目３７５番地１,,14,103,2200072,,,2022-12-20,清算の結了等,,,2015-10-05,1,,,,,ツツイショウジ,0
312,2030001067249,登記記録の閉鎖等,0,2022-12-23,2022-12-21,株式会社トモエ工業,,株式会社,埼玉県,越谷市,東町３丁目６番地１,,11,222,3430826,,,2022-12-21,清算の結了等,,,2015-10-05,1,,,,,トモエコウギョウ,0
333,2050001014026,登記記録の閉鎖等,0,2022-12-23,2022-12-20,金久保製畳株式会社,,株式会社,茨城県,坂東市,菅谷６９９番地の５,,08,228,3060505,,,2022-12-20,清算の結了等,,,2015-10-05,1,,,,,カナクボセイジョウ,0
342,2070005003386,登記記録の閉鎖等,0,2022-12-23,2022-12-15,特定非営利活動法人夢農園安城,,その他の設立登記法人,群馬県,安中市,原市５２１番地３,,10,211,3790133,,,2022-12-15,清算の結了等,,,2015-10-05,1,,,,,ユメノウエンアンジョウ,0
354,2080402007195,登記記録の閉鎖等,0,2022-12-23,2022-12-22,有限会社ペティートラップ,,有限会社,静岡県,浜松市中区,佐鳴台５丁目１番７号,,22,131,4328021,,,2022-12-22,清算の結了等,,,2015-10-05,1,,,,,ペティートラップ,0
363,2100002031881,登記記録の閉鎖等,0,2022-12-23,2022-12-20,有限会社ミヤサカ,,有限会社,長野県,岡谷市,加茂町３丁目３番３号,,20,204,3940003,,,2022-12-20,清算の結了等,,,2015-10-05,1,,,,,ミヤサカ,0
366,2120001137661,登記記録の閉鎖等,0,2022-12-23,2022-12-20,株式会社イクスティラボ,,株式会社,大阪府,大阪市西区,南堀江１丁目１１番８号５階,,27,106,5500015,,,2022-12-20,清算の結了等,,,2015-10-05,1,,,,,イクスティラボ,0
384,2120901023119,登記記録の閉鎖等,0,2022-12-23,2022-12-21,株式会社大江インテリア,,株式会社,大阪府,豊中市,北条町１丁目７番２号,,27,203,5610812,,,2022-12-21,清算の結了等,,,2015-10-05,1,,,,,オオエインテリア,0
395,2140002033049,登記記録の閉鎖等,0,2022-12-23,2022-12-15,有限会社塚崎酒造場,,有限会社,兵庫県,佐用郡佐用町,末広４７１番地の１,,28,501,6795300,,,2022-12-15,合併による解散等,6140001039332,令和４年１２月１５日兵庫県佐用郡佐用町末広３５９番地三興繊維株式会社（6140001039332）に合併し解散,2015-10-05,1,,,,,ツカザキシュゾウジョウ,0
407,2180001028450,登記記録の閉鎖等,0,2022-12-23,2022-12-19,中日ガス圧接株式会社,,株式会社,愛知県,名古屋市緑区,鳴子町２丁目１００番地,,23,114,4580041,,,2022-12-19,清算の結了等,,,2015-10-05,1,,,,,チュウニチガスアッセツ,0
418,2180003023219,登記記録の閉鎖等,0,2022-12-23,2022-12-20,合同会社アースリーフチェリー,,合同会社,愛知県,名古屋市西区,名駅２丁目２９－３プリマヴェール名駅シュール２０４,,23,104,4510045,,,2022-12-20,清算の結了等,,,2021-11-22,1,,,,,アースリーフチェリー,0
438,2270001007180,登記記録の閉鎖等,0,2022-12-23,2022-12-20,株式会社虹のかけ橋,,株式会社,鳥取県,鳥取市,賀露町４１６２番地,,31,201,6800905,,,2022-12-20,清算の結了等,,,2017-03-03,1,,,,,ニジノカケハシ,0
441,2290001064848,登記記録の閉鎖等,0,2022-12-23,2022-12-15,株式会社ワンプレイス,,株式会社,福岡県,福岡市早良区,祖原２６番３２－１０２号,,40,137,8140005,,,2022-12-15,清算の結了等,,,2015-10-05,1,,,,,ワンプレイス,0
442,2290001067990,登記記録の閉鎖等,0,2022-12-23,2022-12-07,株式会社アロマデザインＳＴＵＤＩＯ,,株式会社,熊本県,熊本市中央区,出水７丁目７６－１５,,43,101,8620941,,,2022-12-07,清算の結了等,,,2015-10-05,1,,,,,アロマデザインスタジオ,0
446,2290002003549,登記記録の閉鎖等,0,2022-12-23,2022-12-20,有限会社フルハウス,,有限会社,福岡県,福岡市南区,市崎２丁目８番８号,,40,134,8150084,,,2022-12-20,清算の結了等,,,2015-10-05,1,,,,,フルハウス,0
461,2380002028982,登記記録の閉鎖等,0,2022-12-23,2022-12-21,有限会社三善,,有限会社,岐阜県,郡上市,和良町三庫１７９９番地１,,21,219,5014516,,,2022-12-21,清算の結了等,,,2015-10-05,1,,,,,ミヨシ,0
467,2430001025216,登記記録の閉鎖等,0,2022-12-23,2022-12-19,株式会社メタルワン北海道,,株式会社,北海道,札幌市中央区,北一条西２丁目１番地,,01,101,0600001,,,2022-12-19,清算の結了等,,,2015-10-05,1,,,,,メタルワンホッカイドウ,0
484,3010001083214,登記記録の閉鎖等,0,2022-12-23,2022-12-19,株式会社アイティプラッツ,,株式会社,東京都,千代田区,二番町５番地２麹町駅プラザ９０１,,13,101,1020084,,,2022-12-19,清算の結了等,,,2015-10-05,1,,,,,アイティプラッツ,0
499,3010003028324,登記記録の閉鎖等,0,2022-12-23,2022-12-15,Ｌｅ　ｍｏｎｄｅ合同会社,,合同会社,東京都,中央区,銀座７丁目１３番６号サガミビル２階,,13,102,1040061,,,2022-12-15,清算の結了等,,,2018-09-20,1,,,,,ルモンド,0
506,3010401081560,登記記録の閉鎖等,0,2022-12-23,2022-12-01,ＲＥＧＡＩＮ　ＧＲＯＵＰ株式会社,,株式会社,東京都,港区,芝公園１丁目１－１住友不動産御成門タワー,,13,103,1050011,,,2022-12-01,合併による解散等,6010401135371,令和４年１２月１日東京都港区芝公園１－１－１住友不動産御成門タワーＲＥＧＡＩＮ　ＧＲＯＵＰ株式会社（6010401135371）に合併し解散,2015-10-05,1,,,,,リゲイングループ,0
530,3011003009132,登記記録の閉鎖等,0,2022-12-23,2022-12-19,ＭＡＳＨキャピタル合同会社,,合同会社,東京都,渋谷区,広尾１丁目３－１８広尾オフィスビル１１Ｆ,,13,113,1500012,,,2022-12-19,清算の結了等,,,2018-09-06,1,,,,,マッシュキャピタル,0
546,3011601001606,登記記録の閉鎖等,0,2022-12-23,2022-12-14,株式会社共栄洋行,,株式会社,東京都,練馬区,高野台２丁目４番１８号,,13,120,1770033,,,2022-12-14,清算の結了等,,,2015-10-05,1,,,,,キョウエイヨウコウ,0
547,3011601024012,登記記録の閉鎖等,0,2022-12-23,2022-12-15,マーミーマーミー株式会社,,株式会社,東京都,練馬区,石神井町６丁目３２番１９号,,13,120,1770041,,,2022-12-15,清算の結了等,,,2020-02-19,1,,,,,マーミーマーミー,0
549,3011702005415,登記記録の閉鎖等,0,2022-12-23,2022-12-20,有限会社鹿本,,有限会社,東京都,江戸川区,松本２丁目５番１１号,,13,123,1330043,,,2022-12-20,清算の結了等,,,2015-10-05,1,,,,,,0
564,3020002000836,登記記録の閉鎖等,0,2022-12-23,2022-12-20,有限会社モールドプラスセンター,,有限会社,神奈川県,横浜市都筑区,新栄町１４番１－６２４号,,14,118,2240035,,,2022-12-20,清算の結了等,,,2015-10-05,1,,,,,モールドプラスセンター,0
565,3021001016633,登記記録の閉鎖等,0,2022-12-23,2022-12-19,株式会社ミカドブレード,,株式会社,神奈川県,相模原市中央区,田名塩田１丁目１１番１７号,,14,152,2520245,,,2022-12-19,清算の結了等,,,2015-10-05,1,,,,,ミカドブレード,0
566,3021001031847,登記記録の閉鎖等,0,2022-12-23,2022-12-20,株式会社デルタ,,株式会社,神奈川県,茅ヶ崎市,美住町９番１６号,,14,207,2530023,,,2022-12-20,清算の結了等,,,2015-10-05,1,,,,,デルタ,0
571,3021002039996,登記記録の閉鎖等,0,2022-12-23,2022-12-20,有限会社石澤工務店,,有限会社,神奈川県,大和市,上草柳１２３番地１４,,14,213,2420029,,,2022-12-20,清算の結了等,,,2015-10-05,1,,,,,イシザワコウムテン,0
574,3030001034594,登記記録の閉鎖等,0,2022-12-23,2022-12-19,株式会社アトリエわたなべ緑,,株式会社,埼玉県,草加市,旭町５丁目３番７号,,11,221,3400053,,,2022-12-19,清算の結了等,,,2022-08-03,1,,,,,アトリエワタナベミドリ,0
585,3030002046127,登記記録の閉鎖等,0,2022-12-23,2022-12-20,有限会社山下工務店,,有限会社,埼玉県,草加市,八幡町１２０番地２,,11,221,3400006,,,2022-12-20,清算の結了等,,,2015-10-05,1,,,,,,0
591,3040001068724,登記記録の閉鎖等,0,2022-12-23,2022-12-16,株式会社エイユウ,,株式会社,千葉県,柏市,鷲野谷４５７番地,,12,217,2701443,,,2022-12-16,清算の結了等,,,2015-10-05,1,,,,,エイユウ,0
595,3040002043073,登記記録の閉鎖等,0,2022-12-23,2022-12-16,有限会社グランディール,,有限会社,千葉県,市川市,妙典３丁目１６番１０号,,12,203,2720111,,,2022-12-16,清算の結了等,,,2015-10-05,1,,,,,グランディール,0
618,3100002022574,登記記録の閉鎖等,0,2022-12-23,2022-12-20,有限会社ひまわり企画,,有限会社,長野県,松本市,梓川倭６２８番地１,,20,202,3901701,,,2022-12-20,清算の結了等,,,2015-10-05,1,,,,,ヒマワリキカク,0
629,3120001138519,登記記録の閉鎖等,0,2022-12-23,2022-12-22,株式会社ＡＢＣ綜合研究所,,株式会社,大阪府,大阪市城東区,古市２丁目８番７号,,27,118,5360001,,,2022-12-22,清算の結了等,,,2015-10-05,1,,,,,エービーシイソウゴウケンキュウジョ,0
659,3140001077392,登記記録の閉鎖等,0,2022-12-23,2022-12-20,宏清建設株式会社,,株式会社,兵庫県,加東市,黒谷字太尾１２１６番２３４,,28,228,6731301,,,2022-12-20,清算の結了等,,,2015-10-05,1,,,,,コウセイケンセツ,0
660,3140002027421,登記記録の閉鎖等,0,2022-12-23,2022-12-13,有限会社和炭,,有限会社,兵庫県,神戸市灘区,中郷町２丁目２番１２－３１０号,,28,102,6570032,,,2022-12-13,清算の結了等,,,2015-10-05,1,,,,,,0
667,3170002004888,登記記録の閉鎖等,0,2022-12-23,2022-12-22,有限会社医療経営情報社,,有限会社,和歌山県,和歌山市,東高松４丁目１番２１号,,30,201,6410052,,,2022-12-22,清算の結了等,,,2015-10-05,1,,,,,,0
676,3180001125998,登記記録の閉鎖等,0,2022-12-23,2022-12-16,株式会社探偵室ピュア,,株式会社,愛知県,名古屋市昭和区,山里町５３番地の２,,23,107,4660824,,,2022-12-16,清算の結了等,,,2016-12-22,1,,,,,タンテイシツピュア,0
684,3190002018853,登記記録の閉鎖等,0,2022-12-23,2022-12-20,有限会社辰野興業,,有限会社,三重県,いなべ市,藤原町東禅寺７４３番地,,24,214,5110515,,,2022-12-20,清算の結了等,,,2015-10-05,1,,,,,タツノコウギョウ,0
686,3200001037836,登記記録の閉鎖等,0,2022-12-23,2022-12-21,株式会社ＫＵＲＯ,,株式会社,岐阜県,可児郡御嵩町,上恵土１２３９番地６,,21,521,5050126,,,2022-12-21,清算の結了等,,,2020-09-14,1,,,,,,0
691,3210001000990,登記記録の閉鎖等,0,2022-12-23,2022-12-21,株式会社木下商店,,株式会社,福井県,福井市,大宮２丁目１４番３３号,,18,201,9100016,,,2022-12-21,清算の結了等,,,2015-10-05,1,,,,,キノシタショウテン,0
692,3210002013819,登記記録の閉鎖等,0,2022-12-23,2022-12-20,有限会社田中建設,,有限会社,福井県,小浜市,遠敷第２０号１２番地２,,18,204,9170241,,,2022-12-20,清算の結了等,,,2015-10-05,1,,,,,タナカケンセツ,0
693,3220001007416,登記記録の閉鎖等,0,2022-12-23,2022-12-22,吉田電機工業株式会社,,株式会社,石川県,金沢市,桜田町２丁目５１番地,,17,201,9200057,,,2022-12-22,清算の結了等,,,2015-10-05,1,,,,,ヨシダデンキコウギョウ,0
694,3220001018710,登記記録の閉鎖等,0,2022-12-23,2022-12-21,株式会社Ｐｕａｌａｎｉ,,株式会社,石川県,金沢市,福久町ル１番地１,,17,201,9203122,,,2022-12-21,清算の結了等,,,2015-10-05,1,,,,,プアラニ,0
704,3290001030519,登記記録の閉鎖等,0,2022-12-23,2022-12-16,ジュビランルアンジュ株式会社,,株式会社,福岡県,春日市,春日原東町４丁目２５番春日サンコービル１Ｆ,,40,218,8160801,,,2022-12-16,清算の結了等,,,2015-10-05,1,,,,,ジュビランルアンジュ,0
711,3310001006689,登記記録の閉鎖等,0,2022-12-23,2022-12-21,株式会社今井建材店,,株式会社,長崎県,佐世保市,白岳町１０７番地１１,,42,202,8571164,,,2022-12-21,清算の結了等,,,2022-10-18,1,,,,,イマイケンザイテン,0
712,3310001014782,登記記録の閉鎖等,0,2022-12-23,2022-12-22,株式会社三股工業,,株式会社,長崎県,松浦市,志佐町庄野免２５７番地１５,,42,208,8594507,,,2022-12-22,清算の結了等,,,2017-03-13,1,,,,,ミマタコウギョウ,0
714,3330001011506,登記記録の閉鎖等,0,2022-12-23,2022-12-21,ヤマエ青果株式会社,,株式会社,熊本県,玉名市,伊倉北方２０４９番地,,43,206,8650041,,,2022-12-21,清算の結了等,,,2015-10-05,1,,,,,ヤマエセイカ,0
720,3340005001147,登記記録の閉鎖等,0,2022-12-23,2022-12-21,医療法人社団新杏会,,その他の設立登記法人,鹿児島県,鹿児島市,宇宿３丁目４１番１,,46,201,8900073,,,2022-12-21,清算の結了等,,,2015-10-05,1,,,,,シンキョウカイ,0
722,3370001013341,登記記録の閉鎖等,0,2022-12-23,2022-12-20,株式会社アイティビルド,,株式会社,宮城県,仙台市泉区,住吉台西１丁目１５－１０,,04,105,9813223,,,2022-12-20,清算の結了等,,,2015-10-05,1,,,,,アイティビルド,0
725,3410001003833,登記記録の閉鎖等,0,2022-12-23,2022-12-20,株式会社マルヤ看板店,,株式会社,秋田県,秋田市,八橋南２丁目７番２５号,,05,201,0100976,,,2022-12-20,清算の結了等,,,2015-10-05,1,,,,,マルヤカンバンテン,0
733,3450002010619,登記記録の閉鎖等,0,2022-12-23,2022-12-21,有限会社小田切水産,,有限会社,北海道,枝幸郡浜頓別町,字斜内,,01,512,0985703,,,2022-12-21,清算の結了等,,,2015-10-05,1,,,,,オダギリスイサン,0
746,4010001215501,登記記録の閉鎖等,0,2022-12-23,2022-12-16,絵本のサブスク株式会社,,株式会社,東京都,中央区,銀座１丁目２２番１１号銀座大竹ビジデンス２階,,13,102,1040061,,,2022-12-16,清算の結了等,,,2021-02-01,1,,,,,エホンノサブスク,0
749,4010001224592,登記記録の閉鎖等,0,2022-12-23,2022-12-20,オーシャン・ウェーブズ・ホールディングス株式会社,,株式会社,東京都,千代田区,丸の内１丁目５番１号,,13,101,1000005,,,2022-12-20,合併による解散等,7360001008504,令和４年１２月１日沖縄県豊見城市字豊崎１番地４１１オリオンビール株式会社（7360001008504）に合併し解散,2022-02-17,1,,,,,オーシャンウェーブズホールディングス,0
762,4010401135373,登記記録の閉鎖等,0,2022-12-23,2022-12-01,ＲＥＧＡＩＮ　ＶＥＮＴＵＲＥ　ＣＯＮＳＵＬＴＩＮＧ株式会社,,株式会社,東京都,港区,芝公園１丁目１－１住友不動産御成門タワー,,13,103,1050011,,,2022-12-01,合併による解散等,6010401135371,令和４年１２月１日東京都港区芝公園１－１－１住友不動産御成門タワーＲＥＧＡＩＮ　ＧＲＯＵＰ株式会社（6010401135371）に合併し解散,2017-12-08,1,,,,,リゲインベンチャーコンサルティング,0
766,4010502007141,登記記録の閉鎖等,0,2022-12-23,2022-12-22,力サツシ販売有限会社,,有限会社,東京都,台東区,浅草６丁目４７番５号,,13,106,1110032,,,2022-12-22,清算の結了等,,,2015-10-05,1,,,,,,0
783,4011103001129,登記記録の閉鎖等,0,2022-12-23,2022-12-20,株式会社東栄印刷所,,株式会社,東京都,新宿区,早稲田鶴巻町１１２番地,,13,104,1620041,,,2022-12-20,清算の結了等,,,2015-10-05,1,,,,,,0
785,4011202007654,登記記録の閉鎖等,0,2022-12-23,2022-12-21,有限会社ディ・ケィ,,有限会社,東京都,中野区,江原町３丁目２４番１３号,,13,114,1650023,,,2022-12-21,清算の結了等,,,2015-10-05,1,,,,,ディケィ,0
788,4011302005764,登記記録の閉鎖等,0,2022-12-23,2022-12-20,有限会社タツミ,,有限会社,東京都,杉並区,高円寺南３丁目４５番２号,,13,115,1660003,,,2022-12-20,清算の結了等,,,2015-10-05,1,,,,,タツミ,0
795,4011603003112,登記記録の閉鎖等,0,2022-12-23,2022-12-16,合同会社ＰＭ,,合同会社,東京都,練馬区,石神井台５丁目１２番２号,,13,120,1770045,,,2022-12-16,清算の結了等,,,2020-10-28,1,,,,,ピーエム,0
806,4020001034900,登記記録の閉鎖等,0,2022-12-23,2022-12-20,株式会社装美,,株式会社,神奈川県,横浜市栄区,上之町５７番１５号,,14,115,2470025,,,2022-12-20,清算の結了等,,,2015-10-05,1,,,,,ソウビ,0
816,4020003018736,登記記録の閉鎖等,0,2022-12-23,2022-12-16,合同会社Ｗｏｒｌｄ　ＲＩＺｅ,,合同会社,神奈川県,横浜市中区,花咲町１丁目４８番３号ロゼ桜木町４０６号,,14,104,2310063,,,2022-12-16,清算の結了等,,,2020-11-05,1,,,,,ワールドライズ,0
845,4030002039419,登記記録の閉鎖等,0,2022-12-23,2022-12-21,有限会社田村土建,,有限会社,埼玉県,久喜市,島川４９番地の１,,11,232,3491116,,,2022-12-21,清算の結了等,,,2015-10-05,1,,,,,,0
847,4030002076255,登記記録の閉鎖等,0,2022-12-23,2022-12-15,有限会社美松システム,,有限会社,埼玉県,ふじみ野市,上福岡２丁目３番３号,,11,245,3560004,,,2022-12-15,清算の結了等,,,2015-10-05,1,,,,,ミマツシステム,0
850,4030002094406,登記記録の閉鎖等,0,2022-12-23,2022-12-20,有限会社東和サービス,,有限会社,埼玉県,比企郡鳩山町,松ヶ丘１丁目１４番１２号,,11,348,3500313,,,2022-12-20,清算の結了等,,,2015-10-05,1,,,,,トウワサービス,0
856,4040001067122,登記記録の閉鎖等,0,2022-12-23,2022-12-16,鹿島商事株式会社,,株式会社,千葉県,柏市,大島田５６番地３,,12,217,2770922,,,2022-12-16,清算の結了等,,,2015-10-05,1,,,,,カシマショウジ,0
861,4050001009486,登記記録の閉鎖等,0,2022-12-23,2022-12-14,株式会社土浦総業,,株式会社,茨城県,土浦市,神立東２丁目３１番２８号,,08,203,3000012,,,2022-12-14,清算の結了等,,,2015-10-05,1,,,,,ツチウラソウギョウ,0
889,4120001176220,登記記録の閉鎖等,0,2022-12-23,2022-12-20,株式会社クローバー,,株式会社,大阪府,大阪市天王寺区,上本町７丁目２番１０－８０２号,,27,109,5430001,,,2022-12-20,清算の結了等,,,2015-10-05,1,,,,,クローバー,0
908,4120003007927,登記記録の閉鎖等,0,2022-12-23,2022-12-15,合同会社ＫＭＳＴ,,合同会社,大阪府,交野市,南星台４丁目１２番１７号,,27,230,5760013,,,2022-12-15,清算の結了等,,,2015-10-05,1,,,,,ケイエムエスティー,0
914,4120901027902,登記記録の閉鎖等,0,2022-12-23,2022-12-21,株式会社イデア,,株式会社,大阪府,豊中市,東泉丘２丁目１３－１０－２０８,,27,203,5610861,,,2022-12-21,清算の結了等,,,2015-10-05,1,,,,,イデア,0
924,4130002033849,登記記録の閉鎖等,0,2022-12-23,2022-12-16,有限会社下谷鉄工所,,有限会社,京都府,京丹後市,丹後町大山９番地,,26,212,6270211,,,2022-12-16,清算の結了等,,,2015-10-05,1,,,,,シモタニテッコウショ,0
944,4180002026534,登記記録の閉鎖等,0,2022-12-23,2022-12-19,有限会社ポルテ,,有限会社,愛知県,名古屋市緑区,相原郷１丁目５０３番地,,23,114,4580033,,,2022-12-19,清算の結了等,,,2015-10-05,1,,,,,ポルテ,0
949,4180005004231,登記記録の閉鎖等,0,2022-12-23,2022-12-22,名南ショッピングセンター協同組合,,その他の設立登記法人,愛知県,名古屋市南区,鳴浜町６丁目１番地,,23,112,4570806,,,2022-12-22,清算の結了等,,,2015-10-05,1,,,,,メイナンショッピングセンター,0
952,4190001019389,登記記録の閉鎖等,0,2022-12-23,2022-12-21,株式会社福森綜合商社,,株式会社,三重県,鈴鹿市,稲生３丁目４５６５番地の１,,24,207,5100205,,,2022-12-21,清算の結了等,,,2015-10-05,1,,,,,フクモリソウゴウショウシャ,0
982,4330002025669,登記記録の閉鎖等,0,2022-12-23,2022-12-21,有限会社金橋総合計画事務所,,有限会社,熊本県,八代市,古閑中町１５６７番地４,,43,202,8660898,,,2022-12-21,清算の結了等,,,2015-10-05,1,,,,,カナハシソウゴウケイカクジムショ,0
987,4380001023289,登記記録の閉鎖等,0,2022-12-23,2022-12-19,株式会社ＮＯＭＳ,,株式会社,福島県,郡山市,芳賀３丁目１番１８号,,07,203,9638813,,,2022-12-19,清算の結了等,,,2015-10-05,1,,,,,ノムス,0
991,4380002016176,登記記録の閉鎖等,0,2022-12-23,2022-12-20,有限会社大戸屋,,有限会社,福島県,二本松市,根崎１丁目４６番地,,07,210,9640903,,,2022-12-20,清算の結了等,,,2015-10-05,1,,,,,オオトヤ,0
1005,4470002007620,登記記録の閉鎖等,0,2022-12-23,2022-12-09,有限会社渡中商会,,有限会社,香川県,高松市,中新町１番地４０,,37,201,7600056,,,2022-12-09,清算の結了等,,,2015-10-05,1,,,,,ワタナカショウカイ,0
1006,4480002005037,登記記録の閉鎖等,0,2022-12-23,2022-12-21,有限会社山一水産,,有限会社,徳島県,徳島市,北沖洲４丁目１番１２３号,,36,201,7700872,,,2022-12-21,清算の結了等,,,2015-10-05,1,,,,,ヤマイチスイサン,0
1026,5010401024906,登記記録の閉鎖等,0,2022-12-23,2022-12-20,ビスタ航空サービス株式会社,,株式会社,東京都,江東区,亀戸３丁目５５番１２号,,13,108,1360071,,,2022-12-20,清算の結了等,,,2015-10-05,1,,,,,ビスタコウクウサービス,0
1028,5010401070033,登記記録の閉鎖等,0,2022-12-23,2022-12-16,株式会社グリットコンサルティング,,株式会社,北海道,札幌市白石区,北郷九条７丁目２番１１号,,01,104,0030839,,,2022-12-16,合併による解散等,9430001084965,令和４年１２月１６日札幌市白石区北郷九条七丁目２番１１号株式会社グリット（9430001084965）に合併し解散,2015-10-05,1,,,,,グリットコンサルティング,0
1045,5010701017238,登記記録の閉鎖等,0,2022-12-23,2022-12-20,株式会社りんプロデュース,,株式会社,東京都,練馬区,中村北２丁目２５番９号,,13,120,1760023,,,2022-12-20,清算の結了等,,,2015-10-05,1,,,,,リンプロデュース,0
1049,5010702005142,登記記録の閉鎖等,0,2022-12-23,2022-12-21,有限会社タルモト薬局,,有限会社,東京都,品川区,西大井４丁目１８番１８号,,13,109,1400015,,,2022-12-21,清算の結了等,,,2015-10-05,1,,,,,タルモトヤッキョク,0
1051,5010801013293,登記記録の閉鎖等,0,2022-12-23,2022-12-15,株式会社みづほ,,株式会社,東京都,大田区,大森北１丁目３４番１号,,13,111,1430016,,,2022-12-15,清算の結了等,,,2015-10-05,1,,,,,ミヅホ,0
1052,5010901037168,登記記録の閉鎖等,0,2022-12-23,2022-12-22,ＭＡＭＥＩＤＯジャパン株式会社,,株式会社,東京都,世田谷区,中町５丁目１２番１０号,,13,112,1580091,,,2022-12-22,清算の結了等,,,2015-12-02,1,,,,,マメイドジャパン,0
1054,5011001065613,登記記録の閉鎖等,0,2022-12-23,2022-12-16,株式会社ブラスカンパニー,,株式会社,東京都,練馬区,光が丘７丁目３番７－１０２号,,13,120,1790072,,,2022-12-16,清算の結了等,,,2015-10-05,1,,,,,ブラスカンパニー,0
1055,5011001101938,登記記録の閉鎖等,0,2022-12-23,2022-12-20,株式会社ＷＡＮＮＡ　ＣＯＭＥ,,株式会社,東京都,新宿区,新宿１丁目３６－２新宿第七葉山ビル３階,,13,104,1600022,,,2022-12-20,清算の結了等,,,2015-10-05,1,,,,,,0
1065,5011201011747,登記記録の閉鎖等,0,2022-12-23,2022-12-20,株式会社プラスワン,,株式会社,東京都,中野区,若宮３丁目２２番４号,,13,114,1650033,,,2022-12-20,清算の結了等,,,2015-10-05,1,,,,,プラスワン,0
1074,5012701008621,登記記録の閉鎖等,0,2022-12-23,2022-12-21,株式会社吉野商店,,株式会社,東京都,西東京市,芝久保町３丁目４番３０号,,13,229,1880014,,,2022-12-21,清算の結了等,,,2015-10-05,1,,,,,ヨシノショウテン,0
1087,5020002042166,登記記録の閉鎖等,0,2022-12-23,2022-12-20,有限会社協和電業社,,有限会社,神奈川県,横浜市中区,本牧町１丁目１４番地,,14,104,2310806,,,2022-12-20,清算の結了等,,,2015-10-05,1,,,,,キョウワデンギョウシャ,0
1096,5030001143633,登記記録の閉鎖等,0,2022-12-23,2022-12-20,駒林水道株式会社,,株式会社,埼玉県,ふじみ野市,駒林８９６番地８,,11,245,3560034,,,2022-12-20,清算の結了等,,,2021-08-10,1,,,,,コマバヤシスイドウ,0
1105,5030003014064,登記記録の閉鎖等,0,2022-12-23,2022-12-19,ＢＡＴＥＲＡ合同会社,,合同会社,埼玉県,飯能市,大字久下４５７番地８ナイスアーバン飯能３０５,,11,209,3570064,,,2022-12-19,清算の結了等,,,2019-09-06,1,,,,,バテラ,0
1112,5040001107918,登記記録の閉鎖等,0,2022-12-23,2022-12-20,株式会社シーラ,,株式会社,東京都,江戸川区,東葛西６丁目２番６号第二須三ビル７０１,,13,123,1340084,,,2022-12-20,清算の結了等,,,2019-02-07,1,,,,,シーラ,0
1115,5040002069612,登記記録の閉鎖等,0,2022-12-23,2022-12-19,有限会社市原リースサービス,,有限会社,千葉県,木更津市,ほたる野２丁目５０番地２,,12,206,2920038,,,2022-12-19,清算の結了等,,,2015-10-05,1,,,,,イチハラリースサービス,0
1117,5050001046677,登記記録の閉鎖等,0,2022-12-23,2022-12-19,ＣＲＩＴＩＣＡＬ　ＦＡＣＩＬＩＴＹ　ＪＡＰＡＮ株式会社,,株式会社,茨城県,つくば市,吾妻１丁目５－７ダイワロイネットホテルつくばビル２階,,08,220,3050031,,,2022-12-19,清算の結了等,,,2019-10-24,1,,,,,クリティカルファシリティジャパン,0
1123,5060002014062,登記記録の閉鎖等,0,2022-12-23,2022-12-19,有限会社高橋孵卵場,00024424,有限会社,栃木県,那須烏山市,谷浅見１２６５番地,,09,215,3210603,,,2022-12-19,清算の結了等,,,2015-10-05,1,,,,,タカハシフランジョウ,0
1163,5120901034716,登記記録の閉鎖等,0,2022-12-23,2022-12-22,株式会社エデュキッズ,,株式会社,大阪府,吹田市,豊津町１番１８号,,27,205,5640051,,,2022-12-22,清算の結了等,,,2015-10-05,1,,,,,エデュキッズ,0
1186,5160005008472,登記記録の閉鎖等,0,2022-12-23,2022-12-21,医療法人松下クリニック,,その他の設立登記法人,滋賀県,草津市,渋川１丁目２番２６－２９０９号ザ・草津タワー,,25,206,5250026,,,2022-12-21,清算の結了等,,,2015-10-05,1,,,,,マツシタクリニック,0
1187,5170002007369,登記記録の閉鎖等,0,2022-12-23,2022-12-21,有限会社宮武工業,,有限会社,和歌山県,有田市,千田５７６番地の１０,,30,204,6490313,,,2022-12-21,清算の結了等,,,2015-10-05,1,,,,,ミヤタケコウギョウ,0
1191,5180001022921,登記記録の閉鎖等,0,2022-12-23,2022-12-20,株式会社武蔵屋ブルボン,,株式会社,愛知県,名古屋市熱田区,玉の井町２番２６号,,23,109,4560025,,,2022-12-20,清算の結了等,,,2015-10-05,1,,,,,ムサシヤブルボン,0
1198,5180002021864,登記記録の閉鎖等,0,2022-12-23,2022-12-20,有限会社東海企画,,有限会社,愛知県,名古屋市天白区,保呂町６１０番地１,,23,116,4680041,,,2022-12-20,清算の結了等,,,2015-10-05,1,,,,,トウカイキカク,0
1211,5220001013809,登記記録の閉鎖等,0,2022-12-23,2022-12-20,ＮＴＦ株式会社,,株式会社,石川県,能美市,宮竹町ホ７番地,,17,211,9231205,,,2022-12-20,清算の結了等,,,2015-10-05,1,,,,,エヌティーエフ,0
1213,5220002010581,登記記録の閉鎖等,0,2022-12-23,2022-12-16,株式会社コマツコーサン,,株式会社,石川県,小松市,軽海町ウ１８番地３,,17,203,9230824,,,2022-12-16,合併による解散等,8220001011999,令和４年１２月１０日石川県小松市工業団地一丁目９３番地コマニー株式会社（8220001011999）に合併し解散,2015-10-05,1,,,,,コマツコーサン,0
1235,5310001006068,登記記録の閉鎖等,0,2022-12-23,2022-12-21,睦興産株式会社,,株式会社,長崎県,佐世保市,木場田町５番１３号,,42,202,8570041,,,2022-12-21,清算の結了等,,,2015-10-05,1,,,,,ムツミコウサン,0
1242,5350001012698,登記記録の閉鎖等,0,2022-12-23,2022-12-20,株式会社石波林業,,株式会社,宮崎県,串間市,大字市木４４３番地１,,45,207,8893311,,,2022-12-20,清算の結了等,,,2015-10-05,1,,,,,イシナミリンギョウ,0
1244,5350002005973,登記記録の閉鎖等,0,2022-12-23,2022-12-22,有限会社とくどめたたみ屋,,有限会社,宮崎県,宮崎市,田代町１４８番地１,,45,201,8800855,,,2022-12-22,清算の結了等,,,2015-10-05,1,,,,,トクドメタタミヤ,0
1257,5420002011989,登記記録の閉鎖等,0,2022-12-23,2022-12-21,有限会社小銀,,有限会社,青森県,五所川原市,十三深津２２２番地,,02,205,0370403,,,2022-12-21,清算の結了等,,,2015-10-05,1,,,,,コギン,0
1267,5490002009837,登記記録の閉鎖等,0,2022-12-23,2022-12-21,有限会社福井興産,,有限会社,高知県,土佐市,波介１３２３番地１,,39,205,7811143,,,2022-12-21,清算の結了等,,,2015-10-05,1,,,,,フクイコウサン,0
1270,5500002000307,登記記録の閉鎖等,0,2022-12-23,2022-12-19,有限会社勉強堂,,有限会社,愛媛県,松山市,北条辻１３４２番地,00007676,38,201,7992430,,,2022-12-19,清算の結了等,,,2015-10-05,1,,,,,ベンキョウドウ,0
1273,6010001035988,登記記録の閉鎖等,0,2022-12-23,2022-12-20,株式会社アーバン・プロデュース,,株式会社,東京都,中央区,新川２丁目９番３号,,13,102,1040033,,,2022-12-20,清算の結了等,,,2015-10-05,1,,,,,アーバンプロデュース,0
1280,6010003033676,登記記録の閉鎖等,0,2022-12-23,2022-12-19,合同会社川崎東門前プロパティ,,合同会社,東京都,千代田区,内幸町２丁目１番６号,,13,101,1000011,,,2022-12-19,清算の結了等,,,2020-12-09,1,,,,,カワサキヒガシモンゼンプロパティ,0
1288,6010401094865,登記記録の閉鎖等,0,2022-12-23,2022-12-13,株式会社プライム,,株式会社,東京都,港区,港南３丁目７番１０号ラクシア品川ポルトチッタ２２０１,,13,103,1080075,,,2022-12-13,清算の結了等,,,2015-10-05,1,,,,,,0
1300,6010501046023,登記記録の閉鎖等,0,2022-12-23,2022-12-22,株式会社フューチャーランド,,株式会社,東京都,台東区,上野６丁目１６番１６号,,13,106,1100005,,,2022-12-22,清算の結了等,,,2020-07-29,1,,,,,フューチャーランド,0
1327,6011302006802,登記記録の閉鎖等,0,2022-12-23,2022-12-19,有限会社ナグモ,,有限会社,東京都,杉並区,井草２丁目３０番２号,,13,115,1670021,,,2022-12-19,清算の結了等,,,2015-10-05,1,,,,,ナグモ,0
1352,6013402004082,登記記録の閉鎖等,0,2022-12-23,2022-12-13,有限会社エヌ・ディ・ケー,,有限会社,東京都,日野市,栄町１丁目２０番地の５,,13,212,1910001,,,2022-12-13,清算の結了等,,,2015-10-05,1,,,,,エヌディケー,0
1354,6020001083152,登記記録の閉鎖等,0,2022-12-23,2022-12-14,株式会社ＫＳＣ,,株式会社,神奈川県,横浜市青葉区,新石川１丁目３１番地６,,14,117,2250003,,,2022-12-14,清算の結了等,,,2015-10-05,1,,,,,ケイエスシー,0
1378,6021005009432,登記記録の閉鎖等,0,2022-12-23,2022-12-20,特定非営利活動法人伊勢原市の未来を創る会,,その他の設立登記法人,神奈川県,伊勢原市,田中１４１番地１,,14,214,2591142,,,2022-12-20,清算の結了等,,,2015-10-05,1,,,,,イセハラシノミライヲツクルカイ,0
1393,6040002077572,登記記録の閉鎖等,0,2022-12-23,2022-12-20,有限会社東海ハウジング,,有限会社,千葉県,東金市,東金７９８番地１,,12,213,2830802,,,2022-12-20,清算の結了等,,,2015-10-05,1,,,,,トウカイハウジング,0
1396,6040005017237,登記記録の閉鎖等,0,2022-12-23,2022-12-19,我孫子再生資源協同組合,,その他の設立登記法人,千葉県,我孫子市,中峠３０４８番地３３,,12,222,2701121,,,2022-12-19,清算の結了等,,,2015-10-05,1,,,,,,0
1401,6060001004393,登記記録の閉鎖等,0,2022-12-23,2022-12-19,株式会社睦美設計,,株式会社,栃木県,宇都宮市,宮本町１９番１０号,,09,201,3210163,,,2022-12-19,清算の結了等,,,2015-10-05,1,,,,,ムツミセッケイ,0
1418,6110001033882,登記記録の閉鎖等,0,2022-12-23,2022-12-20,株式会社サンマルク,,株式会社,新潟県,新潟市秋葉区,吉岡町７番５号,,15,105,9560837,,,2022-12-20,清算の結了等,,,2019-03-08,1,,,,,サンマルク,0
1419,6110002020640,登記記録の閉鎖等,0,2022-12-23,2022-12-20,有限会社しちりん亭,,有限会社,新潟県,柏崎市,岩上９番１７号,,15,205,9450811,,,2022-12-20,清算の結了等,,,2015-10-05,1,,,,,シチリンテイ,0
1421,6110005015357,登記記録の閉鎖等,0,2022-12-23,2022-12-19,一般社団法人アウトドアソリューション,,その他の設立登記法人,新潟県,妙高市,大字坂口新田６４５番地,,15,217,9492234,,,2022-12-19,清算の結了等,,,2015-10-05,1,,,,,アウトドアソリューション,0
1423,6120001163571,登記記録の閉鎖等,0,2022-12-23,2022-12-21,日本オーエーシステム株式会社,,株式会社,大阪府,大阪市中央区,高麗橋２丁目２番７号,,27,128,5410043,,,2022-12-21,清算の結了等,,,2015-10-05,1,,,,,ニホンオーエーシステム,0
1436,6120002040448,登記記録の閉鎖等,0,2022-12-23,2022-12-22,有限会社ロゴス,,有限会社,大阪府,吹田市,広芝町４－３４,,27,205,5640052,,,2022-12-22,清算の結了等,,,2015-10-05,1,,,,,ロゴス,0
1460,6170001007022,登記記録の閉鎖等,0,2022-12-23,2022-12-22,株式会社Ｍ＆Ｍ会計センター,,株式会社,和歌山県,和歌山市,福町２８番地,,30,201,6408043,,,2022-12-22,清算の結了等,,,2015-10-05,1,,,,,エムアンドエムカイケイセンター,0
1466,6180001092328,登記記録の閉鎖等,0,2022-12-23,2022-12-20,チザック開発株式会社,,株式会社,愛知県,知多郡阿久比町,大字草木字白山根１番地,,23,441,4702211,,,2022-12-20,清算の結了等,,,2015-10-05,1,,,,,チザックカイハツ,0
1469,6180002018018,登記記録の閉鎖等,0,2022-12-23,2022-12-12,有限会社小原電気工事,,有限会社,愛知県,名古屋市中川区,尾頭橋４丁目１３番１７号,,23,110,4540012,,,2022-12-12,清算の結了等,,,2015-10-05,1,,,,,オハラデンキコウジ,0
1477,6180305006594,登記記録の閉鎖等,0,2022-12-23,2022-12-20,一般社団法人名古屋ＥＡＰコンサルタント協会,,その他の設立登記法人,愛知県,豊田市,住吉町１丁目３番地１,,23,211,4730905,,,2022-12-20,清算の結了等,,,2015-10-05,1,,,,,ナゴヤイーエイピーコンサルタントキョウカイ,0
1494,6240002029438,登記記録の閉鎖等,0,2022-12-23,2022-12-22,ケイエム有限会社,,有限会社,広島県,東広島市,高屋高美が丘３丁目１６番２５号,,34,212,7392115,,,2022-12-22,清算の結了等,,,2015-10-05,1,,,,,ケイエム,0
1495,6240002031492,登記記録の閉鎖等,0,2022-12-23,2022-12-16,有限会社庄原環境保全工社,,有限会社,広島県,庄原市,川手町２０８番地１,,34,210,7270005,,,2022-12-16,清算の結了等,,,2015-10-05,1,,,,,ショウバラカンキョウホゼンコウシャ,0
1497,6240005002020,登記記録の閉鎖等,0,2022-12-23,2022-12-19,星が丘団地管理組合法人,,その他の設立登記法人,広島県,広島市安佐北区,安佐町大字鈴張４９７８番地,,34,106,7311141,,,2022-12-19,清算の結了等,,,2015-10-05,1,,,,,ホシガオカ,0
1498,6250001005538,登記記録の閉鎖等,0,2022-12-23,2022-12-21,株式会社山陽マリンセンター,,株式会社,山口県,下関市,椋野町２丁目１番４０号,,35,201,7510816,,,2022-12-21,清算の結了等,,,2015-10-05,1,,,,,サンヨウマリンセンター,0
1527,6370001031373,登記記録の閉鎖等,0,2022-12-23,2022-12-21,株式会社グッドハウス,,株式会社,宮城県,仙台市太白区,長町６丁目４－５２富田ビル１Ｆ,,04,104,9820011,,,2022-12-21,清算の結了等,,,2015-10-05,1,,,,,グッドハウス,0
1533,6430001054764,登記記録の閉鎖等,0,2022-12-23,2022-12-20,株式会社尾下プロダクション,,株式会社,北海道,室蘭市,中島町１丁目３４番２号,,01,205,0500074,,,2022-12-20,清算の結了等,,,2015-10-05,1,,,,,オシタプロダクション,0
1538,6490002011049,登記記録の閉鎖等,0,2022-12-23,2022-12-22,有限会社渡辺建設,,有限会社,高知県,高岡郡檮原町,大蔵谷１０６６番地,,39,405,7850613,,,2022-12-22,清算の結了等,,,2015-10-05,1,,,,,ワタナベケンセツ,0
1541,6490005006525,登記記録の閉鎖等,0,2022-12-23,2022-12-15,企業組合企業価値共創センター,,その他の設立登記法人,高知県,南国市,東崎５４９番地１,,39,204,7830024,,,2022-12-15,清算の結了等,,,2017-04-10,1,,,,,キギョウカチキョウソウセンター,0
1555,7010401021059,登記記録の閉鎖等,0,2022-12-23,2022-12-13,南海商事株式会社,,株式会社,東京都,港区,芝大門２丁目１１番１８号,,13,103,1050012,,,2022-12-13,清算の結了等,,,2015-10-05,1,,,,,,0
1570,7010403019365,登記記録の閉鎖等,0,2022-12-23,2022-12-14,Ｍｕｒａｎｏマスターリース合同会社,,合同会社,東京都,港区,虎ノ門４丁目１番２８号,,13,103,1050001,,,2022-12-14,清算の結了等,,,2018-09-21,1,,,,,ムラーノマスターリース,0
1574,7010501049405,登記記録の閉鎖等,0,2022-12-23,2022-12-21,株式会社プラザパートナーズ,,株式会社,東京都,台東区,上野２丁目１２番３号,,13,106,1100005,,,2022-12-21,清算の結了等,,,2022-09-27,1,,,,,プラザパートナーズ,0
1593,7011003015085,登記記録の閉鎖等,0,2022-12-23,2022-12-19,合同会社ＴＥＡＭＩＮＧ,,合同会社,東京都,渋谷区,恵比寿１丁目２５番３号,,13,113,1500013,,,2022-12-19,清算の結了等,,,2022-07-25,1,,,,,チーミング,0
1601,7011602010858,登記記録の閉鎖等,0,2022-12-23,2022-12-16,有限会社リンクス,,有限会社,東京都,練馬区,大泉町１丁目１６番２号,,13,120,1780062,,,2022-12-16,清算の結了等,,,2015-10-05,1,,,,,リンクス,0
1621,7020002017034,登記記録の閉鎖等,0,2022-12-23,2022-12-20,有限会社土屋技研,,有限会社,神奈川県,横浜市泉区,和泉町１０４７番地３,,14,116,2450016,,,2022-12-20,清算の結了等,,,2015-10-05,1,,,,,ツチヤギケン,0
1638,7030001006648,登記記録の閉鎖等,0,2022-12-23,2022-12-19,日成建設株式会社,,株式会社,埼玉県,さいたま市見沼区,大字東門前６２番地３,,11,104,3370016,,,2022-12-19,清算の結了等,,,2015-10-05,1,,,,,ニッセイケンセツ,0
1639,7030001048946,登記記録の閉鎖等,0,2022-12-23,2022-12-20,スリージェイ株式会社,,株式会社,埼玉県,新座市,野火止４丁目５番４号,,11,230,3520011,,,2022-12-20,清算の結了等,,,2015-10-05,1,,,,,スリージェイ,0
1642,7030001094965,登記記録の閉鎖等,0,2022-12-23,2022-12-20,株式会社スエナガフロアー,,株式会社,埼玉県,川口市,大字安行原１２６２番地の３２,,11,203,3340057,,,2022-12-20,清算の結了等,,,2015-10-05,1,,,,,スエナガフロアー,0
1645,7030001139282,登記記録の閉鎖等,0,2022-12-23,2022-12-19,株式会社ＥＴツリーズ,,株式会社,埼玉県,朝霞市,溝沼３丁目１０番２７号アーネスト・ハイライズ４０３,,11,227,3510023,,,2022-12-19,清算の結了等,,,2020-11-16,1,,,,,イーティーツリーズ,0
1647,7030002058564,登記記録の閉鎖等,0,2022-12-23,2022-12-20,有限会社佐藤組,,有限会社,埼玉県,朝霞市,岡３丁目１３番３３号,,11,227,3510007,,,2022-12-20,清算の結了等,,,2015-10-05,1,,,,,サトウグミ,0
1660,7050002029638,登記記録の閉鎖等,0,2022-12-23,2022-12-20,有限会社ホコタアルミ,,有限会社,茨城県,鉾田市,鳥栖１３１２番地３,,08,234,3111534,,,2022-12-20,清算の結了等,,,2015-10-05,1,,,,,ホコタアルミ,0
1664,7060002026312,登記記録の閉鎖等,0,2022-12-23,2022-12-19,有限会社朝野工業,,有限会社,栃木県,大田原市,黒羽向町８４６番地,,09,210,3240241,,,2022-12-19,清算の結了等,,,2015-10-05,1,,,,,アサノコウギョウ,0
1665,7070001009663,登記記録の閉鎖等,0,2022-12-23,2022-12-20,福田建設株式会社,,株式会社,群馬県,高崎市,菅谷町５７４番地１,,10,202,3703522,,,2022-12-20,清算の結了等,,,2022-12-16,1,,,,,フクダケンセツ,0
1667,7080002001643,登記記録の閉鎖等,0,2022-12-23,2022-12-21,有限会社きもの,,有限会社,静岡県,静岡市葵区,唐瀬２丁目１３番１７号,,22,101,4200937,,,2022-12-21,清算の結了等,,,2015-10-05,1,,,,,キモノ,0
1675,7100001018231,登記記録の閉鎖等,0,2022-12-23,2022-12-20,株式会社エネコム,,株式会社,長野県,諏訪市,大字豊田１２１５番地１,,20,206,3920016,,,2022-12-20,清算の結了等,,,2015-10-05,1,,,,,エネコム,0
1702,7130001004625,登記記録の閉鎖等,0,2022-12-23,2022-12-20,株式会社京成,,株式会社,京都府,京都市北区,大宮北箱ノ井町１２－１番地,,26,101,6038475,,,2022-12-20,清算の結了等,,,2015-10-05,1,,,,,ケイセイ,0
1706,7130001066566,登記記録の閉鎖等,0,2022-12-23,2022-12-12,株式会社Ｌｉｋｅ,,株式会社,京都府,京都市南区,久世築山町２１２番地１,,26,107,6018203,,,2022-12-12,合併による解散等,8130001014144,令和４年１２月１日京都市南区久世築山町２１２番地１株式会社カワタキコーポレーション（8130001014144）に合併し解散,2020-03-26,1,,,,,ライク,0
1717,7150001020348,登記記録の閉鎖等,0,2022-12-23,2022-12-16,株式会社さくら歯研,,株式会社,奈良県,橿原市,中町２００番地の１０２,,29,205,6340009,,,2022-12-16,清算の結了等,,,2015-11-17,1,,,,,サクラシケン,0
1729,7180003009493,登記記録の閉鎖等,0,2022-12-23,2022-12-19,合資会社ナニワ,,合資会社,愛知県,日進市,米野木町南山９７３番地６８,,23,230,4700111,,,2022-12-19,合併による解散等,9180301019738,令和４年１０月１日愛知県みよし市莇生町下永井田１番地の２株式会社ナニワ（9180301019738）に合併し解散,2015-10-05,1,,,,,ナニワ,0
1744,7250002010239,登記記録の閉鎖等,0,2022-12-23,2022-12-21,有限会社中野電機商会,,有限会社,山口県,下関市,竹崎町２丁目２番８号,,35,201,7500025,,,2022-12-21,清算の結了等,,,2015-10-05,1,,,,,ナカノデンキショウカイ,0
1745,7260001016062,登記記録の閉鎖等,0,2022-12-23,2022-12-22,ツーン株式会社,,株式会社,岡山県,倉敷市,児島下の町３丁目１１番７７号,,33,202,7110906,,,2022-12-22,清算の結了等,,,2015-10-05,1,,,,,ツーン,0
1749,7290001081368,登記記録の閉鎖等,0,2022-12-23,2022-12-20,株式会社ＯＣＣＳ,,株式会社,福岡県,みやま市,山川町甲田１８２１番地１,,40,229,8350114,,,2022-12-20,清算の結了等,,,2018-05-07,1,,,,,オーシーシーエス,0
1750,7290001090352,登記記録の閉鎖等,0,2022-12-23,2022-12-19,株式会社ＦＪＦ,,株式会社,福岡県,小郡市,大板井２４番地,,40,216,8380142,,,2022-12-19,清算の結了等,,,2020-09-30,1,,,,,エフジェイエフ,0
1760,7330002014116,登記記録の閉鎖等,0,2022-12-23,2022-12-19,有限会社Ｓ．Ｈ．Ｃ．,,有限会社,熊本県,熊本市中央区,桜町２番３７号,,43,101,8600805,,,2022-12-19,合併による解散等,4330001029613,令和４年１１月７日熊本市中央区九品寺四丁目７番８号株式会社東照地所（4330001029613）に合併し解散,2015-10-05,1,,,,,エスエイチシー,0
1761,7330002021830,登記記録の閉鎖等,0,2022-12-23,2022-12-20,竹内組有限会社,,有限会社,熊本県,荒尾市,西原町２丁目７番２３号,,43,204,8640053,,,2022-12-20,清算の結了等,,,2015-10-05,1,,,,,タケウチグミ,0
1762,7330002028826,登記記録の閉鎖等,0,2022-12-23,2022-12-21,有限会社中野鉄工,,有限会社,熊本県,天草市,本渡町広瀬１９２１番地,,43,215,8630001,,,2022-12-21,清算の結了等,,,2015-10-05,1,,,,,ナカノテッコウ,0
1768,7380002010218,登記記録の閉鎖等,0,2022-12-23,2022-12-19,有限会社鈴芳パン店,,有限会社,福島県,郡山市,深沢１丁目４番２３号,,07,203,9638874,,,2022-12-19,清算の結了等,,,2015-10-05,1,,,,,スズヨシパンテン,0
1783,7440002007249,登記記録の閉鎖等,0,2022-12-23,2022-12-16,有限会社北南工業,,有限会社,北海道,函館市,神山３丁目２７番５号,,01,202,0410832,,,2022-12-16,清算の結了等,,,2015-10-05,1,,,,,ホクナンコウギョウ,0
1784,7490002003978,登記記録の閉鎖等,0,2022-12-23,2022-12-21,有限会社西山企画,,有限会社,高知県,高知市,一宮東町３丁目１０番４０号,,39,201,7818132,,,2022-12-21,清算の結了等,,,2015-10-05,1,,,,,ニシヤマキカク,0
1790,8010001004859,登記記録の閉鎖等,0,2022-12-23,2022-12-20,株式会社地域環境研究所,,株式会社,東京都,文京区,本郷４丁目１番６号,,13,105,1130033,,,2022-12-20,清算の結了等,,,2015-10-05,1,,,,,チイキカンキョウケンキュウショ,0
1794,8010001119203,登記記録の閉鎖等,0,2022-12-23,2022-12-21,クリーン・エナジー・サービス株式会社,,株式会社,東京都,千代田区,大手町１丁目２番１号,,13,101,1000004,,,2022-12-21,清算の結了等,,,2015-10-05,1,,,,,クリーンエナジーサービス,0
1826,8010501024076,登記記録の閉鎖等,0,2022-12-23,2022-12-22,エフアイティー三和株式会社,,株式会社,東京都,台東区,台東４丁目５番１２－２０３号,,13,106,1100016,,,2022-12-22,清算の結了等,,,2015-10-05,1,,,,,,0
1827,8010501037235,登記記録の閉鎖等,0,2022-12-23,2022-12-15,株式会社奏和,,株式会社,東京都,港区,西麻布２丁目２５番２６号リクレイシア西麻布一番館３０２,,13,103,1060031,,,2022-12-15,清算の結了等,,,2015-10-05,1,,,,,ソウワ,0
1836,8010901000998,登記記録の閉鎖等,0,2022-12-23,2022-12-20,株式会社池田屋呉服店,,株式会社,東京都,世田谷区,大原２丁目２６番４号,,13,112,1560041,,,2022-12-20,清算の結了等,,,2015-10-05,1,,,,,イケダヤゴフクテン,0
1838,8010901045473,登記記録の閉鎖等,0,2022-12-23,2022-12-19,コンサル大塚株式会社,00118584,株式会社,東京都,世田谷区,砧１丁目２２番２４号,,13,112,1570073,,,2022-12-19,清算の結了等,,,2019-12-27,1,,,,,コンサルオオツカ,0
1840,8010903005905,登記記録の閉鎖等,0,2022-12-23,2022-12-16,日本伝承合同会社,,合同会社,東京都,世田谷区,太子堂２丁目１４－３－７階,,13,112,1540004,,,2022-12-16,清算の結了等,,,2020-08-24,1,,,,,ニホンデンショウ,0
1857,8011601014933,登記記録の閉鎖等,0,2022-12-23,2022-12-19,株式会社いずみ,,株式会社,東京都,練馬区,高野台５丁目３７番４号,,13,120,1770033,,,2022-12-19,清算の結了等,,,2015-10-05,1,,,,,イズミ,0
1887,8020002091160,登記記録の閉鎖等,0,2022-12-23,2022-12-19,有限会社平田屋,,有限会社,神奈川県,川崎市高津区,二子１丁目８番７号,,14,134,2130002,,,2022-12-19,清算の結了等,,,2015-10-05,1,,,,,ヒラタヤ,0
1893,8021002039067,登記記録の閉鎖等,0,2022-12-23,2022-12-19,有限会社松本工業,,有限会社,神奈川県,秦野市,堀西４６４番地７,,14,211,2591331,,,2022-12-19,清算の結了等,,,2015-10-05,1,,,,,マツモトコウギョウ,0
1899,8030001141741,登記記録の閉鎖等,0,2022-12-23,2022-12-20,方時株式会社,,株式会社,埼玉県,川口市,西川口１丁目３０番２０－５階Ｆ,,11,203,3320021,,,2022-12-20,清算の結了等,,,2021-04-13,1,,,,,ホウジ,0
1909,8040001005549,登記記録の閉鎖等,0,2022-12-23,2022-12-19,株式会社鳥海測量,,株式会社,千葉県,千葉市中央区,新田町３５番６号,,12,101,2600027,,,2022-12-19,清算の結了等,,,2015-10-05,1,,,,,トリウミソクリョウ,0
1911,8040001048614,登記記録の閉鎖等,0,2022-12-23,2022-12-19,株式会社ダイニング川本,,株式会社,千葉県,佐倉市,春路１丁目３番地３４,,12,212,2850814,,,2022-12-19,清算の結了等,,,2015-10-05,1,,,,,,0
1928,8060002038620,登記記録の閉鎖等,0,2022-12-23,2022-12-19,有限会社青木電業社,,有限会社,栃木県,佐野市,奈良渕町３３９番地９,,09,204,3270842,,,2022-12-19,清算の結了等,,,2015-10-05,1,,,,,アオキデンギョウシャ,0
1932,8080402018419,登記記録の閉鎖等,0,2022-12-23,2022-12-21,有限会社岳文堂,,有限会社,静岡県,菊川市,下平川１２６６番地の１,,22,224,4371514,,,2022-12-21,清算の結了等,,,2015-10-05,1,,,,,ガクブンドウ,0
1961,8120902002256,登記記録の閉鎖等,0,2022-12-23,2022-12-20,有限会社サーモテクノ,,有限会社,大阪府,茨木市,春日２丁目２番１号,,27,211,5670031,,,2022-12-20,清算の結了等,,,2015-10-05,1,,,,,サーモテクノ,0
1979,8160005001292,登記記録の閉鎖等,0,2022-12-23,2022-12-22,特定非営利活動法人ふれあい大津,,その他の設立登記法人,滋賀県,大津市,富士見台２６番７号,,25,201,5200846,,,2022-12-22,清算の結了等,,,2015-10-05,1,,,,,フレアイオオツ,0
1992,8190001019039,登記記録の閉鎖等,0,2022-12-23,2022-12-21,株式会社通源,,株式会社,三重県,津市,栗真中山町４５３番地１６・１－１０３号,,24,201,5140103,,,2022-12-21,清算の結了等,,,2015-10-05,1,,,,,ツウゲン,0
1993,8190001026191,登記記録の閉鎖等,0,2022-12-23,2022-12-22,株式会社マシナリートレーズ,,株式会社,三重県,津市,芸濃町椋本５４２７番地１６,,24,201,5142211,,,2022-12-22,清算の結了等,,,2019-02-13,1,,,,,マシナリートレーズ,0
2001,8220002011560,登記記録の閉鎖等,0,2022-12-23,2022-12-20,有限会社山口陶業社,,有限会社,石川県,能美市,寺井町レ１３１番地,,17,211,9231121,,,2022-12-20,清算の結了等,,,2015-10-05,1,,,,,ヤマグチトウギョウシャ,0
2007,8240001006964,登記記録の閉鎖等,0,2022-12-23,2022-12-21,株式会社中将,,株式会社,広島県,広島市西区,井口明神３丁目１２番１２号,,34,104,7330841,,,2022-12-21,清算の結了等,,,2015-10-05,1,,,,,ナカマサ,0
2010,8260001011863,登記記録の閉鎖等,0,2022-12-23,2022-12-22,ＴＷＯ－ＩＳＬＡＮＤ　ＴＲＡＤＩＮＧ株式会社,,株式会社,岡山県,岡山市北区,厚生町３丁目３番７号,,33,101,7000985,,,2022-12-22,清算の結了等,,,2015-10-05,1,,,,,トゥーアイランドトレーディング,0
2025,8320002002038,登記記録の閉鎖等,0,2022-12-23,2022-12-21,株式会社カワヒロ建設工業,,株式会社,大分県,大分市,大字八幡３３６番地,,44,201,8700100,,,2022-12-21,清算の結了等,,,2015-10-05,1,,,,,カワヒロケンセツコウギョウ,0
2032,8360003009771,登記記録の閉鎖等,0,2022-12-23,2022-12-15,合同会社ＴＧＭ,,合同会社,沖縄県,浦添市,城間２丁目１６番２－４０１号ＶｉｌｌａＡｓｍｉｌｅ,,47,208,9012133,,,2022-12-15,清算の結了等,,,2019-09-20,1,,,,,ティージーエム,0
2036,8370302001874,登記記録の閉鎖等,0,2022-12-23,2022-12-21,有限会社ハート・メディカル,,有限会社,宮城県,石巻市,元倉１丁目９番９－１０号,,04,202,9860811,,,2022-12-21,清算の結了等,,,2015-10-05,1,,,,,ハートメディカル,0
2054,8490001008226,登記記録の閉鎖等,0,2022-12-23,2022-12-21,株式会社Ｓ２Ｋ,,株式会社,高知県,高知市,一ツ橋町２丁目５５番地３,,39,201,7800981,,,2022-12-21,清算の結了等,,,2015-12-22,1,,,,,エスツーケー,0
2057,8500002001797,登記記録の閉鎖等,0,2022-12-23,2022-12-22,有限会社奥村産業,,有限会社,愛媛県,松山市,北井門２丁目９番３２号,,38,201,7911105,,,2022-12-22,清算の結了等,,,2015-10-05,1,,,,,オクムラサンギョウ,0
2072,9010401018607,登記記録の閉鎖等,0,2022-12-23,2022-12-14,テクニカルワールド株式会社,,株式会社,東京都,港区,三田３丁目４番１７号,,13,103,1080073,,,2022-12-14,清算の結了等,,,2015-10-05,1,,,,,テクニカルワールド,0
2078,9010501004110,登記記録の閉鎖等,0,2022-12-23,2022-12-21,株式会社邦立,,株式会社,東京都,台東区,東浅草１丁目３番１０号,,13,106,1110025,,,2022-12-21,清算の結了等,,,2015-10-05,1,,,,,クニタチ,0
2084,9010701033082,登記記録の閉鎖等,0,2022-12-23,2022-12-21,華聖商業株式会社,,株式会社,東京都,品川区,八潮５丁目１０番５３－４０５号,,13,109,1400003,,,2022-12-21,清算の結了等,,,2016-10-07,1,,,,,カセイショウギョウ,0
2086,9010802021416,登記記録の閉鎖等,0,2022-12-23,2022-12-15,有限会社大鳥居荘,,有限会社,東京都,大田区,西糀谷３丁目３６番１５号,,13,111,1440034,,,2022-12-15,清算の結了等,,,2022-12-01,1,,,,,オオトリイソウ,0
2107,9011301020842,登記記録の閉鎖等,0,2022-12-23,2022-12-12,株式会社イーエルエイチ,,株式会社,東京都,千代田区,外神田３丁目１番１６号ダイドーリミテッドビル７階,,13,101,1010021,,,2022-12-12,合併による解散等,9011201012394,令和４年１２月１日東京都千代田区外神田三丁目１番１６号ダイドーリミテッドビル７階株式会社エルフィン（9011201012394）に合併し解散,2015-10-05,1,,,,,イーエルエイチ,0
2110,9011401002286,登記記録の閉鎖等,0,2022-12-23,2022-12-22,株式会社サンエス工業,,株式会社,東京都,板橋区,仲町１２番２号,,13,119,1730022,,,2022-12-22,清算の結了等,,,2015-10-05,1,,,,,,0
2114,9011602005278,登記記録の閉鎖等,0,2022-12-23,2022-12-19,有限会社シルバーケア・サービス豊住,,有限会社,東京都,練馬区,早宮３丁目９番２１号,,13,120,1790085,,,2022-12-19,清算の結了等,,,2015-10-05,1,,,,,シルバーケアサービストヨスミ,0
2124,9012405001423,登記記録の閉鎖等,0,2022-12-23,2022-12-07,吉祥寺エフエフ商業協同組合,,その他の設立登記法人,東京都,武蔵野市,吉祥寺本町１丁目８番１６号,,13,203,1800004,,,2022-12-07,清算の結了等,,,2015-10-05,1,,,,,キチジョウジエフエフショウギョウ,0
2133,9020001002472,登記記録の閉鎖等,0,2022-12-23,2022-12-19,松原インテリア株式会社,,株式会社,神奈川県,横浜市緑区,鴨居３丁目２０番６号,,14,113,2260003,,,2022-12-19,清算の結了等,,,2015-10-05,1,,,,,マツバラインテリア,0
2134,9020001023279,登記記録の閉鎖等,0,2022-12-23,2022-12-20,新栄電業株式会社,,株式会社,神奈川県,横浜市神奈川区,子安通３丁目３０１番地,,14,102,2210021,,,2022-12-20,清算の結了等,,,2015-10-05,1,,,,,シンエイデンギョウ,0
2142,9020002010375,登記記録の閉鎖等,0,2022-12-23,2022-12-20,有限会社南道,,有限会社,神奈川県,横浜市磯子区,洋光台１丁目１６番１６号,,14,107,2350045,,,2022-12-20,清算の結了等,,,2015-10-05,1,,,,,ナンドウ,0
2152,9030001145873,登記記録の閉鎖等,0,2022-12-23,2022-12-20,株式会社ドリームスターズ,,株式会社,埼玉県,比企郡ときがわ町,大字西平６７２,,11,349,3550364,,,2022-12-20,清算の結了等,,,2021-12-15,1,,,,,ドリームスターズ,0
2159,9030002119505,登記記録の閉鎖等,0,2022-12-23,2022-12-21,有限会社志久屋商店,,有限会社,埼玉県,飯能市,大字赤沢２１７番地の３,,11,209,3570128,,,2022-12-21,清算の結了等,,,2015-10-05,1,,,,,シクヤショウテン,0
2161,9040001064874,登記記録の閉鎖等,0,2022-12-23,2022-12-20,株式会社コスモネットワーク,,株式会社,千葉県,浦安市,弁天４丁目７番９号,,12,227,2790026,,,2022-12-20,清算の結了等,,,2015-10-05,1,,,,,コスモネットワーク,0
2184,9090005005127,登記記録の閉鎖等,0,2022-12-23,2022-12-16,農事組合法人ＳＵＮ・ラズベリー明野,,その他の設立登記法人,山梨県,北杜市,明野町浅尾５２５９番地１０２,,19,209,4080201,,,2022-12-16,清算の結了等,,,2015-10-05,1,,,,,サンラズベリーアケノ,0
2185,9100001011408,登記記録の閉鎖等,0,2022-12-23,2022-12-21,株式会社椎菜,,株式会社,長野県,上田市,古里９７３番地１,,20,203,3860005,,,2022-12-21,清算の結了等,,,2015-10-05,1,,,,,シイナ,0
2188,9100002019697,登記記録の閉鎖等,0,2022-12-23,2022-12-20,有限会社ケースク,,有限会社,長野県,松本市,大字笹賀５６５２番地９１,,20,202,3990033,,,2022-12-20,清算の結了等,,,2015-10-05,1,,,,,ケースク,0
2189,9100002028979,登記記録の閉鎖等,0,2022-12-23,2022-12-20,有限会社マツヤ酒店,,有限会社,長野県,諏訪郡下諏訪町,５５１２番地１,,20,361,3930000,,,2022-12-20,清算の結了等,,,2015-10-05,1,,,,,マツヤサケテン,0
2214,9130001002412,登記記録の閉鎖等,0,2022-12-23,2022-12-20,青木織物株式会社,,株式会社,京都府,京都市上京区,大宮通寺之内下る東入１丁目西北小路町４６２番地,,26,102,6028414,,,2022-12-20,清算の結了等,,,2015-10-05,1,,,,,アオキオリモノ,0
2219,9130003005025,登記記録の閉鎖等,0,2022-12-23,2022-12-20,合同会社カーケアサポート大和,,合同会社,京都府,京都市伏見区,羽束師菱川町２０９番地の１,,26,109,6128487,,,2022-12-20,清算の結了等,,,2017-05-02,1,,,,,カーケアサポートダイワ,0
2231,9160003002110,登記記録の閉鎖等,0,2022-12-23,2022-12-21,合同会社サスケ,,合同会社,滋賀県,甲賀市,甲南町竜法師８７８番地２,,25,209,5203311,,,2022-12-21,清算の結了等,,,2020-09-03,1,,,,,サスケ,0
2247,9180002078331,登記記録の閉鎖等,0,2022-12-23,2022-12-19,有限会社尾西製作所,,有限会社,愛知県,一宮市,小信中島字西九反１４番地,,23,203,4940007,,,2022-12-19,清算の結了等,,,2015-10-05,1,,,,,ビサイセイサクショ,0
2254,9190001028071,登記記録の閉鎖等,0,2022-12-23,2022-12-19,ファーストドア電力株式会社,,株式会社,三重県,津市,羽所町３８８番地津三交ビルディング,,24,201,5140009,,,2022-12-19,合併による解散等,6120001195656,令和４年１２月２日兵庫県高砂市中筋五丁目４２－９Ｋ．Ｇ．ＴＲＡＤＩＮＧ株式会社（6120001195656）に合併し解散,2021-02-24,1,,,,,ファーストドアデンリョク,0
2255,9190002022420,登記記録の閉鎖等,0,2022-12-23,2022-12-21,有限会社森部塗装工業,,有限会社,三重県,四日市市,日永２丁目１番１８号,,24,202,5100885,,,2022-12-21,清算の結了等,,,2015-10-05,1,,,,,モリベトソウコウギョウ,0
2256,9200001016198,登記記録の閉鎖等,0,2022-12-23,2022-12-21,株式会社オンダ石材,,株式会社,岐阜県,揖斐郡池田町,片山２４８番地,,21,404,5032428,,,2022-12-21,清算の結了等,,,2015-10-05,1,,,,,オンダセキザイ,0
2264,9220002003648,登記記録の閉鎖等,0,2022-12-23,2022-12-20,有限会社高橋工業,,有限会社,石川県,金沢市,高畠３丁目３１番地,,17,201,9218001,,,2022-12-20,清算の結了等,,,2015-10-05,1,,,,,タカハシコウギョウ,0
2270,9240002040945,登記記録の閉鎖等,0,2022-12-23,2022-12-21,サンユー建材有限会社,,有限会社,広島県,福山市,今津町５丁目５番３号,,34,207,7290111,,,2022-12-21,清算の結了等,,,2015-10-05,1,,,,,サンユーケンザイ,0
2275,9280002007263,登記記録の閉鎖等,0,2022-12-23,2022-12-22,有限会社松本電機,,有限会社,島根県,出雲市,西平田町１１０番地,,32,203,6910002,,,2022-12-22,清算の結了等,,,2015-10-05,1,,,,,マツモトデンキ,0
2292,9340002024070,登記記録の閉鎖等,0,2022-12-23,2022-12-21,有限会社ミナセ,,有限会社,鹿児島県,南さつま市,大浦町７４８２番地,,46,220,8971201,,,2022-12-21,清算の結了等,,,2015-10-05,1,,,,,ミナセ,0
2311,9410001009701,登記記録の閉鎖等,0,2022-12-23,2022-12-21,株式会社オフィス優,,株式会社,秋田県,潟上市,天王字追分西２番地１０６,,05,211,0100101,,,2022-12-21,清算の結了等,,,2015-10-05,1,,,,,オフィスユウ,0
