sequenceNumber,corporateNumber,process,correct,updateDate,changeDate,name,nameImageId,kind,prefectureName,cityName,streetNumber,addressImageId,prefectureCode,cityCode,postCode,addressOutside,addressOutsideImageId,closeDate,closeCause,successorCorporateNumber,changeCause,assignmentDate,latest,enName,enPrefectureName,enCityName,enAddressOutside,furigana,hihyoji
8,1010001255244,新規,0,2025-05-23,2025-05-23,Ｂｒｕｃｅ　Ｔｅｃｈ株式会社,,株式会社,東京都,千代田区,神田平河町１番地第３東ビル５Ｆ－６７室,,13,101,1010027,,,,,,,2025-05-23,1,,,,,ブルーステック,0
9,1010001255252,新規,0,2025-05-23,2025-05-23,ＴｒｙＮｅｘ株式会社,,株式会社,東京都,中央区,銀座７丁目１２番４号友野本社ビル６階,,13,102,1040061,,,,,,,2025-05-23,1,,,,,トライネックス,0
10,1010001255269,新規,0,2025-05-23,2025-05-23,ＲｉＭ　Ｄｅｓｉｇｎ株式会社,,株式会社,東京都,中央区,銀座１丁目１２番４号Ｎ＆Ｅ－ＢＬＤ,,13,102,1040061,,,,,,,2025-05-23,1,,,,,リムデザイン,0
11,1010001255310,新規,0,2025-05-23,2025-05-23,株式会社ファイブ・ウィンテート,,株式会社,東京都,文京区,湯島２丁目５番６号,,13,105,1130034,,,,,,,2025-05-23,1,,,,,ファイブウィンテート,0
13,1010003047425,新規,0,2025-05-23,2025-05-23,合同会社ＦＵＪＩＹＡＭＡ　ＥＮＴＥＲＴＡＩＮＭＥＮＴ,,合同会社,東京都,千代田区,外神田６丁目２番地１０号アイエフ外神田４Ｆ,,13,101,1010021,,,,,,,2025-05-23,1,,,,,フジヤマエンタテインメント,0
16,1010005040072,新規,0,2025-05-23,2025-05-23,ＴＦＭエナジーストレージ一般社団法人,,その他の設立登記法人,東京都,中央区,京橋２丁目１２番６号ＡＯＪ税理士法人内,,13,102,1040031,,,,,,,2025-05-23,1,,,,,ティーエフエムエナジーストレージ,0
22,1010401190470,新規,0,2025-05-23,2025-05-23,株式会社テラマート,,株式会社,東京都,港区,北青山１丁目３番１号アールキューブ青山３階,,13,103,1070061,,,,,,,2025-05-23,1,,,,,テラマート,0
23,1010401190487,新規,0,2025-05-23,2025-05-23,株式会社トランジット,,株式会社,東京都,港区,六本木３丁目７番１号,,13,103,1060032,,,,,,,2025-05-23,1,,,,,トランジット,0
24,1010403035137,新規,0,2025-05-23,2025-05-23,エルピコット合同会社,,合同会社,東京都,港区,西麻布４丁目８番２９号エコーマンション３０２,,13,103,1060031,,,,,,,2025-05-23,1,,,,,エルピコット,0
25,1010403035186,新規,0,2025-05-23,2025-05-23,合同会社ティーアール・サーティーン,,合同会社,東京都,港区,赤坂２丁目１０番５号デロイトトーマツ赤坂インターナショナル株式会社内,,13,103,1070052,,,,,,,2025-05-23,1,,,,,ティーアールサーティーン,0
28,1010503007853,新規,0,2025-05-23,2025-05-23,助合同会社,,合同会社,東京都,台東区,小島１丁目１８番４号シース御徒町１０１,,13,106,1110056,,,,,,,2025-05-23,1,,,,,スケ,0
31,1010701047750,新規,0,2025-05-23,2025-05-23,株式会社ＫＩＳＨＩＲＯホールディングス,,株式会社,東京都,品川区,西五反田８丁目７番１１号,,13,109,1410031,,,,,,,2025-05-23,1,,,,,キシロホールディングス,0
34,1010801036182,新規,0,2025-05-23,2025-05-23,株式会社ＤＯＲＵＫ,,株式会社,東京都,大田区,山王３丁目１２番４号,,13,111,1430023,,,,,,,2025-05-23,1,,,,,ドルク,0
45,1011001169657,新規,0,2025-05-23,2025-05-23,株式会社住まいと暮らしのコンサル,,株式会社,東京都,目黒区,大橋１丁目１０番１－９０８号,,13,110,1530044,,,,,,,2025-05-23,1,,,,,スマイトクラシノコンサル,0
46,1011001169681,新規,0,2025-05-23,2025-05-23,ＴｒｉｏＷｏｒｋｓ株式会社,,株式会社,東京都,渋谷区,恵比寿西２丁目４番８号ウィンド恵比寿ビル８Ｆ,,13,113,1500021,,,,,,,2025-05-23,1,,,,,トリオワークス,0
47,1011001169723,新規,0,2025-05-23,2025-05-23,株式会社メディアブレインズ,,株式会社,東京都,目黒区,中目黒１丁目１番１７－４１５号,,13,110,1530061,,,,,,,2025-05-23,1,,,,,メディアブレインズ,0
48,1011001169954,新規,0,2025-05-23,2025-05-23,株式会社Ｌｏｌｌｉｐｏｐ,,株式会社,東京都,渋谷区,鶯谷町３番４,,13,113,1500032,,,,,,,2025-05-23,1,,,,,ロリポップ,0
49,1011001170020,新規,0,2025-05-23,2025-05-23,株式会社エイム,,株式会社,東京都,渋谷区,恵比寿２丁目３０番１号,,13,113,1500013,,,,,,,2025-05-23,1,,,,,エイム,0
51,1011003021733,新規,0,2025-05-23,2025-05-23,さかぼん合同会社,,合同会社,東京都,渋谷区,渋谷３丁目２５－１６－６０１,,13,113,1500002,,,,,,,2025-05-23,1,,,,,サカボン,0
57,1011101111766,新規,0,2025-05-23,2025-05-23,株式会社さと,,株式会社,東京都,新宿区,西新宿３丁目３番１３号西新宿水間ビル２Ｆ,,13,104,1600023,,,,,,,2025-05-23,1,,,,,サト,0
65,1011203004703,新規,0,2025-05-23,2025-05-23,ｔｏｗａｗｏｗ合同会社,,合同会社,東京都,中野区,中野５丁目６７番７号プラザ中野８０１,,13,114,1640001,,,,,,,2025-05-23,1,,,,,トワヲ,0
71,1011601028675,新規,0,2025-05-23,2025-05-23,株式会社ＭＡＳ　ＷＩＮＧＳ,,株式会社,東京都,練馬区,高松６丁目４番１４号,,13,120,1790075,,,,,,,2025-05-23,1,,,,,マスウィングス,0
79,1011801046147,新規,0,2025-05-23,2025-05-23,株式会社ＫＡＴＡＧＩＲＩ,,株式会社,東京都,足立区,鹿浜４丁目１３番６号,,13,121,1230864,,,,,,,2025-05-23,1,,,,,カタギリ,0
80,1011801046171,新規,0,2025-05-23,2025-05-23,株式会社Ａｐｒｅｎｄｅｒ　ｅｑｕｉｐｏ,,株式会社,東京都,足立区,東和２丁目２８番１９号,,13,121,1200003,,,,,,,2025-05-23,1,,,,,アプレンデールエキーポ,0
81,1011805003458,新規,0,2025-05-23,2025-05-23,一般社団法人安全餅つき協会,,その他の設立登記法人,東京都,足立区,大谷田３丁目２１番６号,,13,121,1200001,,,,,,,2025-05-23,1,,,,,アンゼンモチツキキョウカイ,0
84,1012305002132,新規,0,2025-05-23,2025-05-23,一般社団法人ＦＧＥＭ,,その他の設立登記法人,東京都,町田市,三輪町３９２番地１,,13,209,1950054,,,,,,,2025-05-23,1,,,,,エフジェム,0
87,1012401043138,新規,0,2025-05-23,2025-05-23,株式会社ＡＳＯＢＩ　ＩＮＮＯＶＡＴＩＯＮ,,株式会社,東京都,調布市,深大寺東町７丁目１番地１９,,13,208,1820012,,,,,,,2025-05-23,1,,,,,アソビイノベーション,0
100,1020001162984,新規,0,2025-05-23,2025-05-23,株式会社Ｎｏｃｔｕａ,,株式会社,神奈川県,川崎市宮前区,宮崎６丁目１－１１クロノス宮崎台３０１号室,,14,136,2160033,,,,,,,2025-05-23,1,,,,,ノクチュア,0
112,1030001166679,新規,0,2025-05-23,2025-05-23,株式会社メンテナンスファクトリー桶川,,株式会社,埼玉県,桶川市,泉１丁目８番７号,,11,231,3630021,,,,,,,2025-05-23,1,,,,,メンテナンスファクトリーオケガワ,0
113,1030001166687,新規,0,2025-05-23,2025-05-23,株式会社Ｒ＆Ｒ,,株式会社,埼玉県,ふじみ野市,鶴ケ岡１丁目５－１３,,11,245,3560045,,,,,,,2025-05-23,1,,,,,アールアール,0
118,1030003026831,新規,0,2025-05-23,2025-05-23,林陽合同会社,,合同会社,埼玉県,坂戸市,薬師町１０番地２１宮崎アネックス,,11,239,3500229,,,,,,,2025-05-23,1,,,,,ハヤシヨウ,0
126,1040003027622,新規,0,2025-05-23,2025-05-23,合同会社咲和楽,,合同会社,千葉県,佐倉市,表町１丁目１６番地９,,12,212,2850811,,,,,,,2025-05-23,1,,,,,サワラ,0
130,1050001056688,新規,0,2025-05-23,2025-05-23,株式会社ＤｏｒｉＤｏｒｉ,,株式会社,茨城県,つくば市,西岡２４０－１,,08,220,3050832,,,,,,,2025-05-23,1,,,,,ドリドリ,0
131,1050003009297,新規,0,2025-05-23,2025-05-23,ＳＲ　ＡＵＴＯＴＲＡＤＥＲ合同会社,,合同会社,茨城県,常総市,豊岡町乙１２９２－７クラ第８ハイツ２０２,,08,211,3030041,,,,,,,2025-05-23,1,,,,,エスアールオートトレーダー,0
134,1060001038223,新規,0,2025-05-23,2025-05-23,株式会社イサミサービス,,株式会社,栃木県,小山市,大字小山１５２２番地５,,09,208,3230825,,,,,,,2025-05-23,1,,,,,イサミサービス,0
136,1060005010343,新規,0,2025-05-23,2025-05-23,駅前通りハイツ管理組合法人,,その他の設立登記法人,栃木県,宇都宮市,駅前通り２丁目２番２１号駅前通りハイツ管理室,,09,201,3210964,,,,,,,2025-05-23,1,,,,,エキマエドオリハイツ,0
140,1080101025508,新規,0,2025-05-23,2025-05-23,株式会社ｒｅ,,株式会社,静岡県,三島市,大場７９番地興栄ハイツ１階,,22,206,4110803,,,,,,,2025-05-23,1,,,,,アールイー,0
153,1110003005769,新規,0,2025-05-23,2025-05-23,合同会社ＰＫＣ企画,,合同会社,新潟県,新潟市東区,上木戸３丁目１１番２３号フィラエ２０５号,,15,102,9500891,,,,,,,2025-05-23,1,,,,,ピーケーシーキカク,0
164,1120001275999,新規,0,2025-05-23,2025-05-23,渡辺防災設備株式会社,,株式会社,大阪府,大阪市城東区,成育４丁目２２番２０号,,27,118,5360007,,,,,,,2025-05-23,1,,,,,ワタナベボウサイセツビ,0
165,1120001276056,新規,0,2025-05-23,2025-05-23,東澤株式会社,,株式会社,大阪府,大阪市都島区,中野町４丁目３番６号Ｈ２Ｈ大阪桜之宮邸５Ｄ－３,,27,102,5340027,,,,,,,2025-05-23,1,,,,,トウタク,0
166,1120001276080,新規,0,2025-05-23,2025-05-23,株式会社トラストコンサルティング,,株式会社,大阪府,大阪市平野区,加美北８丁目１番１８号,,27,126,5470001,,,,,,,2025-05-23,1,,,,,トラストコンサルティング,0
167,1120001276089,新規,0,2025-05-23,2025-05-23,株式会社フードアップ,,株式会社,大阪府,大阪市城東区,関目６丁目９番２４－９０１号,,27,118,5360008,,,,,,,2025-05-23,1,,,,,フードアップ,0
168,1120001276097,新規,0,2025-05-23,2025-05-23,＿力元盛株式会社,00139282,株式会社,大阪府,大阪市城東区,関目５丁目１９番９号関目花博公館５０１Ｂ,,27,118,5360008,,,,,,,2025-05-23,1,,,,,キンリョクゲンセイ,0
169,1120003029503,新規,0,2025-05-23,2025-05-23,ＤＡＮＨＡ　ＤＡＩＺＡ合同会社,,合同会社,大阪府,大阪市生野区,舎利寺３丁目８番１８号,,27,116,5440022,,,,,,,2025-05-23,1,,,,,ザンハダイザ,0
172,1120101071729,新規,0,2025-05-23,2025-05-23,株式会社Ｏｆｆｉｃｅ　ＣＨ,,株式会社,大阪府,藤井寺市,道明寺１丁目２３番１４－３０１号,,27,226,5830012,,,,,,,2025-05-23,1,,,,,オフィスシーエイチ,0
174,1120901050898,新規,0,2025-05-23,2025-05-23,株式会社Ｔｒｉｐｌｅ・Ｒ・Ｃａｐｉｔａｌ,,株式会社,大阪府,吹田市,江坂町２丁目１番３５号,,27,205,5640063,,,,,,,2025-05-23,1,,,,,トリプルアールキャピタル,0
175,1120901050907,新規,0,2025-05-23,2025-05-23,ヴァイシュマネジメント株式会社,,株式会社,大阪府,高槻市,前島１丁目１２番７号,,27,207,5690021,,,,,,,2025-05-23,1,,,,,ヴァイシュマネジメント,0
177,1122001039244,新規,0,2025-05-23,2025-05-23,株式会社バラード,,株式会社,大阪府,大東市,灰塚１丁目１０番３６号,00139268,27,218,5740043,,,,,,,2025-05-23,1,,,,,バラード,0
180,1130001079739,新規,0,2025-05-23,2025-05-23,株式会社Ｔｉｆｏ‐Ｎｅ,,株式会社,京都府,京都市右京区,宇多野御池町３８番地１ローラン宇多野２号室,,26,108,6168204,,,,,,,2025-05-23,1,,,,,ティフォーネ,0
192,1150001028140,新規,0,2025-05-23,2025-05-23,株式会社勇電気土木,,株式会社,奈良県,北葛城郡河合町,大字穴闇１６７番地１,,29,427,6360054,,,,,,,2025-05-23,1,,,,,イサミデンキドボク,0
193,1150003003612,新規,0,2025-05-23,2025-05-23,合同会社治道,,合同会社,奈良県,大和郡山市,横田町９番地,,29,203,6391115,,,,,,,2025-05-23,1,,,,,ハルミチ,0
197,1180001166912,新規,0,2025-05-23,2025-05-23,ＳＯＤＡＴＥＲＵ株式会社,,株式会社,愛知県,弥富市,竹田３丁目５４－１,,23,235,4901428,,,,,,,2025-05-23,1,,,,,ソダテル,0
199,1180003028490,新規,0,2025-05-23,2025-05-23,合同会社ＰｏｔＰａｒｔｙ,,合同会社,愛知県,北名古屋市,熊之庄小烏１３７番地,,23,234,4810006,,,,,,,2025-05-23,1,,,,,ポットパーティー,0
215,1230003002432,新規,0,2025-05-23,2025-05-23,瑠璃合同会社,,合同会社,富山県,小矢部市,東福町１２番８号,,16,209,9320041,,,,,,,2025-05-23,1,,,,,ルリ,0
217,1240005015943,新規,0,2025-05-23,2025-05-23,ＮＰＯ法人あきつとあしたに,,その他の設立登記法人,広島県,東広島市,安芸津町風早７６６,,34,212,7392403,,,,,,,2025-05-23,1,,,,,アキツトアシタニ,0
222,1260003005184,新規,0,2025-05-23,2025-05-23,合同会社おりべ,,合同会社,岡山県,岡山市北区,原１１１７,,33,101,7012154,,,,,,,2025-05-23,1,,,,,オリベ,0
227,1290001110099,新規,0,2025-05-23,2025-05-23,株式会社Ｒｉｍｕｓ,,株式会社,福岡県,福津市,花見の里３丁目２１番２７号,,40,224,8113215,,,,,,,2025-05-23,1,,,,,リムス,0
232,1330003011019,新規,0,2025-05-23,2025-05-23,ルクス合同会社,,合同会社,熊本県,熊本市南区,上ノ郷１丁目１番３号,,43,104,8614132,,,,,,,2025-05-23,1,,,,,ルクス,0
240,1350003004937,新規,0,2025-05-23,2025-05-23,合同会社Ｓ．Ｆ,,合同会社,宮崎県,延岡市,緑ケ丘２丁目２５番１９号,,45,203,8820863,,,,,,,2025-05-23,1,,,,,エスエフ,0
241,1360001035248,新規,0,2025-05-23,2025-05-23,株式会社Ｌｉｅｎ,,株式会社,沖縄県,那覇市,真嘉比２丁目１２番１４号ｃａｓａｆｕｅｎｔｅ３０２,,47,201,9020068,,,,,,,2025-05-23,1,,,,,リアン,0
247,1380005012976,新規,0,2025-05-23,2025-05-23,特定非営利活動法人Ｒ３９９戸渡やまゆり会,,その他の設立登記法人,福島県,いわき市,小川町上小川字細石赤坂３９番地７３,,07,204,9793124,,,,,,,2025-05-23,1,,,,,ルートサンキュウキュウトワダヤマユリカイ,0
248,1390001017994,新規,0,2025-05-23,2025-05-23,株式会社アメジア,,株式会社,山形県,山形市,富の中４丁目４番２９号,,06,201,9902463,,,,,,,2025-05-23,1,,,,,アメジア,0
249,1400001017043,新規,0,2025-05-23,2025-05-23,株式会社Ｆｏｒｔｕｎｅ　Ｌｉｎｋ,,株式会社,岩手県,一関市,新大町９４番地,,03,209,0210883,,,,,,,2025-05-23,1,,,,,フォーチュンリンク,0
255,1450001014630,新規,0,2025-05-23,2025-05-23,ヒマラヤ・マリカ株式会社,,株式会社,北海道,稚内市,港１丁目５番１５号栄港ビル,,01,214,0970021,,,,,,,2025-05-23,1,,,,,ヒマラヤマリカ,0
256,1450003002658,新規,0,2025-05-23,2025-05-23,合同会社ｓｔｒｕｇｇｌｅ,,合同会社,北海道,空知郡上富良野町,宮町４丁目２－３３ヤマノハイツｄ号室,,01,460,0710552,,,,,,,2025-05-23,1,,,,,ストラグル,0
259,1470001020718,新規,0,2025-05-23,2025-05-23,株式会社ＬＥＳＨＵ　ＳＴＹＬＥ,,株式会社,香川県,善通寺市,文京町２丁目２番４０－２０６号ヒューマンアカデミーハウジングＩＩ,00139283,37,204,7650013,,,,,,,2025-05-23,1,,,,,ルシュスタイル,0
261,1700150130681,新規,0,2025-05-23,2025-05-23,入野土地改良区,,その他,兵庫県,淡路市,生穂新島８番地,,28,226,6562225,,,,,,,2025-05-23,1,,,,,イリノトチカイリヨウク,0
274,2010001255243,新規,0,2025-05-23,2025-05-23,五花馬株式会社,,株式会社,東京都,千代田区,神田平河町１番地第３東ビル５Ｆ－３号室,,13,101,1010027,,,,,,,2025-05-23,1,,,,,ゴカバ,0
275,2010001255318,新規,0,2025-05-23,2025-05-23,ロビンソンリアルティ株式会社,,株式会社,東京都,中央区,銀座１丁目１２－４Ｎ＆ＥＢＬＤ．７階,,13,102,1040061,,,,,,,2025-05-23,1,,,,,ロビンソンリアルティ,0
276,2010003047416,新規,0,2025-05-23,2025-05-23,合同会社ヒンリッチ,,合同会社,東京都,中央区,晴海５丁目５番４－１１０８号,,13,102,1040053,,,,,,,2025-05-23,1,,,,,ヒンリッチ,0
277,2010003047449,新規,0,2025-05-23,2025-05-23,合同会社ＯＨＥ研究所,,合同会社,東京都,中央区,銀座１丁目１２－４Ｎ＆ＥＢＬＤ．７階,,13,102,1040061,,,,,,,2025-05-23,1,,,,,オーエッチイーケンキュウジョ,0
278,2010005040071,新規,0,2025-05-23,2025-05-23,特定非営利活動法人国際女性連合協会,,その他の設立登記法人,東京都,千代田区,内神田２丁目４番２号一広グローバルビル１００１号室,,13,101,1010047,,,,,,,2025-05-23,1,,,,,コクサイジョセイレンゴウキョウカイ,0
279,2010101016693,新規,0,2025-05-23,2025-05-23,株式会社ＦＵＭＩＫＡ,,株式会社,東京都,八王子市,絹ケ丘１丁目１－１ダイアパレス八王子北野３０８,,13,201,1920912,,,,,,,2025-05-23,1,,,,,フミカ,0
289,2010401190395,新規,0,2025-05-23,2025-05-23,株式会社Ｅｌａｎ　Ａｓｓｅｔ　Ｍａｎａｇｅｍｅｎｔ,,株式会社,東京都,港区,赤坂１丁目８－１赤坂インターシティＡｉｒ９Ｆ,,13,103,1070052,,,,,,,2025-05-23,1,,,,,エランアセットマネジメント,0
290,2010401190453,新規,0,2025-05-23,2025-05-23,株式会社プリンセスレイコ,,株式会社,東京都,港区,白金台３丁目７番７－１０６号,,13,103,1080071,,,,,,,2025-05-23,1,,,,,プリンセスレイコ,0
296,2010403035136,新規,0,2025-05-23,2025-05-23,Ｋ＆Ｎ合同会社,,合同会社,東京都,港区,北青山１丁目３－３三橋ビル３階,,13,103,1070061,,,,,,,2025-05-23,1,,,,,ケーアンドエヌ,0
297,2010403035144,新規,0,2025-05-23,2025-05-23,張家合同会社,,合同会社,東京都,港区,赤坂２丁目２３番１号アークヒルズ・フロントタワーＩｎＣｏｎｔｒｏｌ内,,13,103,1070052,,,,,,,2025-05-23,1,,,,,チョウカ,0
298,2010405024434,新規,0,2025-05-23,2025-05-23,一般社団法人みなと００６,,その他の設立登記法人,東京都,港区,虎ノ門３丁目２２番１０－２０１号,,13,103,1050001,,,,,,,2025-05-23,1,,,,,ミナトゼロゼロシックス,0
299,2010501054095,新規,0,2025-05-23,2025-05-23,ＮＳＢホールディングス株式会社,,株式会社,東京都,台東区,浅草橋１丁目９番１６号,,13,106,1110053,,,,,,,2025-05-23,1,,,,,エヌエスビーホールディングス,0
306,2010803005399,新規,0,2025-05-23,2025-05-23,マムポンド合同会社,,合同会社,東京都,大田区,南千束２丁目２０―３,,13,111,1450063,,,,,,,2025-05-23,1,,,,,マムポンド,0
308,2010901057409,新規,0,2025-05-23,2025-05-23,株式会社成広塗装,,株式会社,東京都,世田谷区,大原１丁目５４番７号,,13,112,1560041,,,,,,,2025-05-23,1,,,,,セイコウトソウ,0
309,2010903009936,新規,0,2025-05-23,2025-05-23,合同会社セタガヤ広告社,,合同会社,東京都,世田谷区,太子堂４丁目１８－１５マガザン三軒茶屋２－３Ｆ－３,,13,112,1540004,,,,,,,2025-05-23,1,,,,,セタガヤコウコクシャ,0
313,2011001169598,新規,0,2025-05-23,2025-05-23,株式会社ＹＡＭＡＮＯＮＡＫＡ,,株式会社,東京都,渋谷区,渋谷２丁目１９番１９号ワコー宮益坂ビル５階,,13,113,1500002,,,,,,,2025-05-23,1,,,,,ヤマノナカ,0
314,2011001169689,新規,0,2025-05-23,2025-05-23,株式会社ナイン,,株式会社,東京都,渋谷区,代々木２丁目２３番１号ニューステイトメナー７１５号,,13,113,1510053,,,,,,,2025-05-23,1,,,,,ナイン,0
317,2011003021600,新規,0,2025-05-23,2025-05-23,ユニエステート合同会社,,合同会社,東京都,渋谷区,広尾１丁目８番９号,,13,113,1500012,,,,,,,2025-05-23,1,,,,,ユニエステート,0
333,2011501032090,新規,0,2025-05-23,2025-05-23,迅商株式会社,,株式会社,東京都,荒川区,東日暮里６丁目２０番１２号金岡ビル１０４,,13,118,1160014,,,,,,,2025-05-23,1,,,,,シュンショウ,0
339,2012403007148,新規,0,2025-05-23,2025-05-23,合同会社シフト,,合同会社,東京都,三鷹市,中原３丁目３番地９号コーポ中島Ｄ１０２,,13,204,1810005,,,,,,,2025-05-23,1,,,,,シフト,0
347,2020001069403,新規,0,2025-05-23,2025-05-23,昭和動力工事株式会社,,株式会社,神奈川県,川崎市中原区,市ノ坪３６０番地,,14,133,2110016,,,,,,,2025-05-23,1,,,,,,0
351,2020001162983,新規,0,2025-05-23,2025-05-23,Ｌａｎｄｍａｒｋ　ａｎｄ　Ｌｅｇｅｎｄｓ株式会社,,株式会社,神奈川県,横浜市保土ケ谷区,岩井町２５番地２ＹＴビル４０１号室,,14,106,2400023,,,,,,,2025-05-23,1,,,,,ランドマークアンドレジェンズ,0
356,2021001085299,新規,0,2025-05-23,2025-05-23,株式会社湘堂ホーム,,株式会社,神奈川県,藤沢市,辻堂西海岸２丁目３番３～３０７号,,14,205,2510046,,,,,,,2025-05-23,1,,,,,ショウドウホーム,0
362,2030001166645,新規,0,2025-05-23,2025-05-23,超強株式会社,,株式会社,埼玉県,春日部市,粕壁東６丁目３番９号１階,,11,214,3440062,,,,,,,2025-05-23,1,,,,,チョウキョウ,0
363,2030001166653,新規,0,2025-05-23,2025-05-23,富士グリーンエナジー株式会社,,株式会社,埼玉県,深谷市,本田６２４８番地１,,11,218,3691105,,,,,,,2025-05-23,1,,,,,フジグリーンエナジー,0
364,2030001166661,新規,0,2025-05-23,2025-05-23,株式会社ＷａｎＤｉ,,株式会社,埼玉県,川口市,並木４丁目２番１１号アーバンヒルズ西川口７０３号,,11,203,3320034,,,,,,,2025-05-23,1,,,,,ワンディ,0
367,2030003026681,新規,0,2025-05-23,2025-05-23,合同会社トムソン・ジャパン,,合同会社,埼玉県,新座市,あたご３丁目１５－３,,11,230,3520021,,,,,,,2025-05-23,1,,,,,トムソンジャパン,0
368,2030003026822,新規,0,2025-05-23,2025-05-23,Ｉｎｆｉｎｉｔｙ　Ｇｒｏｗｉｎｇ合同会社,,合同会社,埼玉県,北足立郡伊奈町,大字小室５６２５－７,,11,301,3620806,,,,,,,2025-05-23,1,,,,,インフィニティーグローウィング,0
369,2030003026830,新規,0,2025-05-23,2025-05-23,ＪＡ　Ｍｏｂｉｌｅ合同会社,,合同会社,埼玉県,入間市,東藤沢３丁目２番１３号ＫＩＶ商会館入間Ｅ号室,,11,225,3580012,,,,,,,2025-05-23,1,,,,,ジアモバイル,0
374,2040001138718,新規,0,2025-05-23,2025-05-23,株式会社創成,,株式会社,千葉県,市川市,宮久保５丁目１０番８‐１０１号,,12,203,2720822,,,,,,,2025-05-23,1,,,,,ソウセイ,0
379,2040003027506,新規,0,2025-05-23,2025-05-23,合同会社雪豹,,合同会社,千葉県,船橋市,習志野台５丁目４－１６,,12,204,2740063,,,,,,,2025-05-23,1,,,,,ユキヒョウ,0
392,2080401027921,新規,0,2025-05-23,2025-05-23,株式会社ｏｇａｗａ．,,株式会社,静岡県,浜松市天竜区,小川１９４２－１,,22,140,4313752,,,,,,,2025-05-23,1,,,,,オガワ,0
393,2090003002826,新規,0,2025-05-23,2025-05-23,合同会社ＹＯＲＯＳＳ,,合同会社,山梨県,甲斐市,西八幡３８５０－３９,,19,210,4000117,,,,,,,2025-05-23,1,,,,,ヨロズ,0
407,2120001276039,新規,0,2025-05-23,2025-05-23,威爾株式会社,,株式会社,大阪府,大阪市淀川区,十三本町１丁目１８－７－９０１,,27,123,5320024,,,,,,,2025-05-23,1,,,,,ウィル,0
408,2120001276047,新規,0,2025-05-23,2025-05-23,ＮＥＸＴＡ株式会社,,株式会社,大阪府,大阪市西区,北堀江１丁目２２番２５号,,27,106,5500014,,,,,,,2025-05-23,1,,,,,ネクスタ,0
409,2120001276096,新規,0,2025-05-23,2025-05-23,Ｏｐｔｉｖｅ株式会社,,株式会社,大阪府,大阪市都島区,中野町４丁目３番６号Ｈ２Ｈ大阪桜之宮邸５Ｄ－５,,27,102,5340027,,,,,,,2025-05-23,1,,,,,オプティブ,0
416,2120003029510,新規,0,2025-05-23,2025-05-23,合同会社ＴＤ,,合同会社,大阪府,大阪市東住吉区,湯里２丁目１３番地２－１０３号室,,27,121,5460013,,,,,,,2025-05-23,1,,,,,ティーディー,0
417,2120003029527,新規,0,2025-05-23,2025-05-23,Ｌｏｇｒｏ　Ｓｐｏｒｔｓ　Ａｇｅｎｃｙ合同会社,,合同会社,大阪府,大阪市天王寺区,上本町８丁目５番１４－２階,,27,109,5430001,,,,,,,2025-05-23,1,,,,,ログロスポーツエージェンシー,0
418,2120003029535,新規,0,2025-05-23,2025-05-23,マールテル合同会社,,合同会社,大阪府,大阪市天王寺区,玉造本町２番１２号,,27,109,5430013,,,,,,,2025-05-23,1,,,,,マールテル,0
419,2120103006475,新規,0,2025-05-23,2025-05-23,未来さぽーと合同会社,,合同会社,大阪府,泉佐野市,上町２丁目１２番２６号,,27,213,5980007,,,,,,,2025-05-23,1,,,,,ミライサポート,0
422,2120901050897,新規,0,2025-05-23,2025-05-23,コネクト株式会社,,株式会社,大阪府,吹田市,豊津町１番１８号エクラート江坂ビル３Ｆ,,27,205,5640051,,,,,,,2025-05-23,1,,,,,コネクト,0
425,2130001079597,新規,0,2025-05-23,2025-05-23,株式会社ＫＵＲＡＭＡ,,株式会社,京都府,京都市左京区,静市市原町９２０番地１２,,26,103,6011123,,,,,,,2025-05-23,1,,,,,クラマ,0
442,2180003028515,新規,0,2025-05-23,2025-05-23,ＣＲＯＳＳＬＩＮＫ合同会社,,合同会社,愛知県,名古屋市中村区,名駅３丁目４番１０号アルティメイト名駅１ｓｔ２階,,23,105,4500002,,,,,,,2025-05-23,1,,,,,クロスリンク,0
443,2180005021105,新規,0,2025-05-23,2025-05-23,一般社団法人相続あんしんサポート,,その他の設立登記法人,愛知県,名古屋市西区,花の木２丁目２０番２４号ＭＯＲＥ花の木３Ｂ,,23,104,4510062,,,,,,,2025-05-23,1,,,,,ソウゾクアンシンサポート,0
444,2180301039817,新規,0,2025-05-23,2025-05-23,株式会社サラ,,株式会社,愛知県,岡崎市,大和町字家下２５番地８,,23,202,4440931,,,,,,,2025-05-23,1,,,,,サラ,0
451,2220005008972,新規,0,2025-05-23,2025-05-23,特定非営利活動法人グランディール能登スポーツクラブ,,その他の設立登記法人,石川県,羽咋市,立開町ニ９番地８,,17,207,9250041,,,,,,,2025-05-23,1,,,,,グランディールノトスポーツクラブ,0
452,2240001064968,新規,0,2025-05-23,2025-05-23,株式会社ｎｉｉｎｉ,,株式会社,広島県,広島市南区,段原日出１丁目８番２号,,34,103,7320818,,,,,,,2025-05-23,1,,,,,ニイニ,0
455,2260003005183,新規,0,2025-05-23,2025-05-23,合同会社トリニティファーム,,合同会社,岡山県,岡山市東区,君津１１７２－２,,33,103,7048166,,,,,,,2025-05-23,1,,,,,トリニティファーム,0
486,2430001094442,新規,0,2025-05-23,2025-05-23,Ｔｈｅ　Ｔｒｕｅ　Ｌｅｇｅｎｄ　Ｉｎｉｔｉａｔｉｖｅ株式会社,,株式会社,北海道,虻田郡倶知安町,ニセコひらふ一条３丁目２番３号四季ニセコ１Ｆ,,01,400,0440080,,,,,,,2025-05-23,1,,,,,ザトゥルーレジェンドイニシエイティブ,0
492,2470001020717,新規,0,2025-05-23,2025-05-23,株式会社はればれ,,株式会社,香川県,高松市,東ハゼ町８番地８,,37,201,7618054,,,,,,,2025-05-23,1,,,,,ハレバレ,0
493,2480003002266,新規,0,2025-05-23,2025-05-23,合同会社ｆｌｕｓｓ,,合同会社,徳島県,阿南市,那賀川町中島６３６番地,,36,204,7791245,,,,,,,2025-05-23,1,,,,,フルス,0
507,3010003047431,新規,0,2025-05-23,2025-05-23,ＪＤＰ４ソーラー合同会社,,合同会社,東京都,中央区,八重洲２丁目２番１号,,13,102,1040028,,,,,,,2025-05-23,1,,,,,ジェイディーピーフォーソーラー,0
526,3010401190361,新規,0,2025-05-23,2025-05-23,ＮＥＳＩＣホールディングス株式会社,,株式会社,東京都,港区,芝浦３丁目９番１４号,,13,103,1080023,,,,,,,2025-05-23,1,,,,,ネシックホールディングス,0
529,3010405024318,新規,0,2025-05-23,2025-05-23,一般社団法人全海研,,その他の設立登記法人,東京都,港区,愛宕１丁目３番４号愛宕東洋ビル６階公益財団法人海外子女教育振興財団内,,13,103,1050002,,,,,,,2025-05-23,1,,,,,ゼンカイケン,0
530,3010405024359,新規,0,2025-05-23,2025-05-23,特定非営利活動法人ポリオジャパン,,その他の設立登記法人,東京都,港区,浜松町２丁目２番１５号浜松町ダイヤビル２Ｆ,,13,103,1050013,,,,,,,2025-05-23,1,,,,,ポリオジャパン,0
531,3010405024425,新規,0,2025-05-23,2025-05-23,一般社団法人日本映像著作権管理協会,,その他の設立登記法人,東京都,港区,赤坂６丁目２番１２号サージュ赤坂５０６,,13,103,1070052,,,,,,,2025-05-23,1,,,,,ニホンエイゾウチョサクケンカンリキョウカイ,0
534,3010701047699,新規,0,2025-05-23,2025-05-23,株式会社ＹＯＪＩＮＢＯＵ,,株式会社,東京都,品川区,平塚１丁目６番６－３０８号,,13,109,1420051,,,,,,,2025-05-23,1,,,,,ヨウジンボウ,0
544,3011001169597,新規,0,2025-05-23,2025-05-23,株式会社コネクト,,株式会社,東京都,渋谷区,南平台町１５－１ライオンズマンション南平台１００７,,13,113,1500036,,,,,,,2025-05-23,1,,,,,コネクト,0
545,3011001169671,新規,0,2025-05-23,2025-05-23,株式会社ＺＥＮ　ＦＥＥＬ,,株式会社,東京都,渋谷区,恵比寿１丁目１５－９日宝恵比寿ビル４０３,,13,113,1500013,,,,,,,2025-05-23,1,,,,,ゼンフィール,0
546,3011001169985,新規,0,2025-05-23,2025-05-23,株式会社メイテン,,株式会社,東京都,渋谷区,渋谷２丁目１０番６号山田青山ビル３階,,13,113,1500002,,,,,,,2025-05-23,1,,,,,メイテン,0
547,3011001170035,新規,0,2025-05-23,2025-05-23,株式会社Ｂ,,株式会社,東京都,渋谷区,円山町５番３号ＭＩＥＵＸ渋谷ビル８階,,13,113,1500044,,,,,,,2025-05-23,1,,,,,ビー,0
549,3011003021599,新規,0,2025-05-23,2025-05-23,よつばラボ合同会社,,合同会社,東京都,渋谷区,渋谷２丁目１９－１５宮益坂ビルディング６０９,,13,113,1500002,,,,,,,2025-05-23,1,,,,,ヨツバラボ,0
554,3011103015922,新規,0,2025-05-23,2025-05-23,ＨａｎａＳｏｕ合同会社,,合同会社,東京都,新宿区,西新宿３丁目３番１３号西新宿水間ビル６階,,13,104,1600023,,,,,,,2025-05-23,1,,,,,ハナソウ,0
557,3011201026367,新規,0,2025-05-23,2025-05-23,株式会社グラスメディジャパン,,株式会社,東京都,中野区,鷺宮４丁目２－４,,13,114,1650032,,,,,,,2025-05-23,1,,,,,グラスメディジャパン,0
558,3011203004701,新規,0,2025-05-23,2025-05-23,合同会社Ｌｉｌｙ　ｌｉｌｙ,,合同会社,東京都,中野区,新井３丁目１９番２号,,13,114,1650026,,,,,,,2025-05-23,1,,,,,リリーリリー,0
559,3011301030599,新規,0,2025-05-23,2025-05-23,株式会社ｎａｃｈｏ,,株式会社,東京都,杉並区,下高井戸４丁目３５番１０号Ｓ／ＣＯＲＲＩＤＯＲ、Ｃ－１－２,,13,115,1680073,,,,,,,2025-05-23,1,,,,,ナチョ,0
566,3011503006546,新規,0,2025-05-23,2025-05-23,合同会社アースシンフォニー・ジャパン,,合同会社,東京都,北区,浮間４丁目８番１６号,,13,117,1150051,,,,,,,2025-05-23,1,,,,,,0
570,3011701028367,新規,0,2025-05-23,2025-05-23,株式会社アルライト,,株式会社,東京都,江戸川区,南小岩６丁目２６－１３－２号室,,13,123,1330056,,,,,,,2025-05-23,1,,,,,アルライト,0
577,3011801046145,新規,0,2025-05-23,2025-05-23,広川電飾株式会社,,株式会社,東京都,足立区,谷在家３丁目２０番１号３Ｆ,,13,121,1230863,,,,,,,2025-05-23,1,,,,,ヒロカワデンショク,0
578,3011801046178,新規,0,2025-05-23,2025-05-23,Ｍａｓａ　Ｊａｐａｎ株式会社,,株式会社,東京都,葛飾区,柴又１丁目２番２号ＭＢ高砂１階,,13,122,1250052,,,,,,,2025-05-23,1,,,,,マサジャパン,0
579,3011805003456,新規,0,2025-05-23,2025-05-23,行政書士法人ＢＡＢＡ事務所,,その他の設立登記法人,東京都,足立区,南花畑４丁目１４番１号,,13,121,1210062,,,,,,,2025-05-23,1,,,,,ババジムショ,0
580,3012301014393,新規,0,2025-05-23,2025-05-23,株式会社あすと,,株式会社,東京都,町田市,金井２丁目３７番地２０,,13,209,1950072,,,,,,,2025-05-23,1,,,,,アスト,0
583,3012401043144,新規,0,2025-05-23,2025-05-23,ＡＬＢＡ　ＨＯＲＩＺＯＮ株式会社,,株式会社,東京都,三鷹市,上連雀１丁目１２－１７三鷹ビジネスパーク１号館Ｂ１ＦＭｕｓａｓｈｉｎｏＶａｌｌｅｙ,,13,204,1810012,,,,,,,2025-05-23,1,,,,,アルバホライズン,0
585,3012403007147,新規,0,2025-05-23,2025-05-23,ＭＩＮＥＫ合同会社,,合同会社,東京都,小金井市,緑町３丁目３番１９号,,13,210,1840003,,,,,,,2025-05-23,1,,,,,ミネック,0
593,3013301054306,新規,0,2025-05-23,2025-05-23,株式会社Ｒｅｂｒｉｇｈｔ,,株式会社,東京都,豊島区,東池袋２丁目６２番８号ＢＩＧオフィスプラザ池袋１２０６,,13,116,1700013,,,,,,,2025-05-23,1,,,,,リブライト,0
594,3013301054314,新規,0,2025-05-23,2025-05-23,ＰＲＡＶＩＫＡ株式会社,,株式会社,東京都,豊島区,巣鴨１丁目２８－２まりもビル１０２,,13,116,1700002,,,,,,,2025-05-23,1,,,,,プラビカ,0
600,3020001162958,新規,0,2025-05-23,2025-05-23,株式会社グループダイナミックス研究所,,株式会社,神奈川県,横浜市都筑区,茅ケ崎南２丁目８番２１－２０５号,,14,118,2240037,,,,,,,2025-05-23,1,,,,,グループダイナミックスケンキュウショ,0
601,3020001162966,新規,0,2025-05-23,2025-05-23,株式会社エスプリ,,株式会社,神奈川県,横浜市神奈川区,新子安１丁目２番３号,,14,102,2210013,,,,,,,2025-05-23,1,,,,,エスプリ,0
609,3021003016045,新規,0,2025-05-23,2025-05-23,ＮＯＯＲ　ＴＲＡＤＩＮＧ合同会社,,合同会社,神奈川県,藤沢市,宮原３１８８番１０１号,,14,205,2520826,,,,,,,2025-05-23,1,,,,,ノールトレーディング,0
613,3030001166636,新規,0,2025-05-23,2025-05-23,卓海株式会社,,株式会社,埼玉県,熊谷市,赤城町３丁目２００番地ロジュマンＡ棟２０３号室,,11,202,3600826,,,,,,,2025-05-23,1,,,,,タクミ,0
615,3030003026730,新規,0,2025-05-23,2025-05-23,アンダークエスト合同会社,,合同会社,埼玉県,さいたま市南区,別所１丁目１－９－９０１,,11,108,3360021,,,,,,,2025-05-23,1,,,,,アンダークエスト,0
629,3050001056620,新規,0,2025-05-23,2025-05-23,株式会社ライフコーディネート,,株式会社,茨城県,水戸市,千波町２２７４番地の１０,,08,201,3100851,,,,,,,2025-05-23,1,,,,,ライフコーディネート,0
638,3070001042949,新規,0,2025-05-23,2025-05-23,株式会社ＪＫＳ,,株式会社,群馬県,渋川市,北橘町小室１０５７－５４,,10,208,3770065,,,,,,,2025-05-23,1,,,,,,0
648,3080403005263,新規,0,2025-05-23,2025-05-23,アニック経営コンサルティング合同会社,,合同会社,静岡県,磐田市,前野２７８７番地,,22,211,4380068,,,,,,,2025-05-23,1,,,,,アニックケイエイコンサルティング,0
653,3100005013356,新規,0,2025-05-23,2025-05-23,一般財団法人大野川環境協議会,,その他の設立登記法人,長野県,松本市,安曇３９９２番地１,,20,202,3901520,,,,,,,2025-05-23,1,,,,,オオノガワカンキョウキョウギカイ,0
664,3120001275972,新規,0,2025-05-23,2025-05-23,瑞隆株式会社,,株式会社,大阪府,大阪市中央区,高津２丁目３番１－２０８号,,27,128,5420072,,,,,,,2025-05-23,1,,,,,ズイリュウ,0
665,3120001276038,新規,0,2025-05-23,2025-05-23,＿発株式会社,00139281,株式会社,大阪府,大阪市淀川区,十三本町１丁目１８－７－７０５,,27,123,5320024,,,,,,,2025-05-23,1,,,,,シンファ,0
666,3120001276054,新規,0,2025-05-23,2025-05-23,株式会社ルミナス,,株式会社,大阪府,大阪市中央区,内本町２丁目１番１９号第１０松屋ビル９階,,27,128,5400026,,,,,,,2025-05-23,1,,,,,ルミナス,0
667,3120001276062,新規,0,2025-05-23,2025-05-23,Ｅｎｖｏｌｖｅ　Ｇｒｏｕｐ株式会社,,株式会社,大阪府,大阪市生野区,新今里３丁目４番１７号ＯＧビル４０５Ｂ,,27,116,5440001,,,,,,,2025-05-23,1,,,,,エンボルブグループ,0
668,3120001276120,新規,0,2025-05-23,2025-05-23,株式会社光陽通,,株式会社,大阪府,大阪市中央区,松屋町９番２０号ローレルステート松屋町６０７Ａ,,27,128,5420067,,,,,,,2025-05-23,1,,,,,コウヨウツウ,0
670,3120003029534,新規,0,2025-05-23,2025-05-23,ヘルスジャパン合同会社,,合同会社,大阪府,大阪市北区,西天満４丁目７－１７パーフェクトライフ西天満４０３号室,,27,127,5300047,,,,,,,2025-05-23,1,,,,,ヘルスジャパン,0
675,3120901050913,新規,0,2025-05-23,2025-05-23,株式会社Ｄｏ‐ＩＣ,,株式会社,大阪府,池田市,室町２番２０－２０２号,,27,204,5630047,,,,,,,2025-05-23,1,,,,,ドゥウアイシー,0
678,3122001039250,新規,0,2025-05-23,2025-05-23,株式会社Ｒｅｉ,,株式会社,大阪府,大東市,灰塚４丁目４番３３号サンモールＥ棟１０３号,00139271,27,218,5740043,,,,,,,2025-05-23,1,,,,,レイ,0
696,3140001138608,新規,0,2025-05-23,2025-05-23,セブンジャパンコーポレーション株式会社,,株式会社,兵庫県,神戸市東灘区,御影３丁目２番１１－３０７号,,28,101,6580047,,,,,,,2025-05-23,1,,,,,セブンジャパンコーポレーション,0
705,3180001166902,新規,0,2025-05-23,2025-05-23,株式会社ＰＲＩＭＡＫＥ,,株式会社,愛知県,名古屋市千種区,大島町２丁目１８番地２１８ＨＯＵＳＥ１Ｄ号室,,23,101,4640833,,,,,,,2025-05-23,1,,,,,プライメイク,0
720,3220001026696,新規,0,2025-05-23,2025-05-23,ＶＩＮＡ　ＲＥＳＯＲＴ　ＧＡＲＤＥＮＳ株式会社,,株式会社,石川県,金沢市,神野３丁目９番地１,,17,201,9200368,,,,,,,2025-05-23,1,,,,,ヴィーナリゾートガーデンズ,0
726,3240003007222,新規,0,2025-05-23,2025-05-23,合同会社セクター,,合同会社,広島県,広島市中区,鶴見町１２番１２号４０１号室,,34,101,7300045,,,,,,,2025-05-23,1,,,,,セクター,0
734,3290001110056,新規,0,2025-05-23,2025-05-23,ＢＥＢＵ株式会社,,株式会社,福岡県,福岡市中央区,高砂１丁目１番２５号,,40,133,8100011,,,,,,,2025-05-23,1,,,,,ビーブ,0
735,3290001110097,新規,0,2025-05-23,2025-05-23,成徹高機株式会社,,株式会社,福岡県,大川市,大字一木１０５０番地４,,40,212,8310034,,,,,,,2025-05-23,1,,,,,セイテツコウキ,0
736,3290003016862,新規,0,2025-05-23,2025-05-23,合同会社ＡＣ　ＦＵＫＵＯＫＡ,,合同会社,福岡県,福津市,花見が丘３丁目１７－２５,,40,224,8113214,,,,,,,2025-05-23,1,,,,,エーシーフクオカ,0
744,3310005008855,新規,0,2025-05-23,2025-05-23,一般社団法人長崎相続手続サポートプラザ,,その他の設立登記法人,長崎県,大村市,東本町１０４番地７まなビル３Ａ,,42,205,8560831,,,,,,,2025-05-23,1,,,,,ナガサキソウゾクテツヅキサポートプラザ,0
758,3370001052595,新規,0,2025-05-23,2025-05-23,ＯＮＣＥ株式会社,,株式会社,宮城県,仙台市青葉区,国分町２丁目３番１２号柴山ビル６Ｆ,,04,101,9800803,,,,,,,2025-05-23,1,,,,,ワンス,0
761,3370602002073,新規,0,2025-05-23,2025-05-23,有限会社渡幸,,有限会社,宮城県,塩竈市,北浜４丁目９番８号,,04,203,9850003,,,,,,,2025-05-23,1,,,,,ワタコウ,0
782,4010001255316,新規,0,2025-05-23,2025-05-23,株式会社ＶＵＣＡｄａｐｔ,,株式会社,東京都,中央区,銀座１丁目１２－４Ｎ＆ＥＢＬＤ．７階,,13,102,1040061,,,,,,,2025-05-23,1,,,,,ブーカダプト,0
786,4010003047439,新規,0,2025-05-23,2025-05-23,西久慈ウインド合同会社,,合同会社,東京都,千代田区,永田町２丁目１１番１号山王パークタワー２１階,,13,101,1000014,,,,,,,2025-05-23,1,,,,,ニシクジウインド,0
787,4010005040061,新規,0,2025-05-23,2025-05-23,一般社団法人優先調達推進協議会,,その他の設立登記法人,東京都,中央区,日本橋浜町２丁目６０番８号,,13,102,1030007,,,,,,,2025-05-23,1,,,,,ユウセンチョウタツスイシンキョウギカイ,0
788,4010101016691,新規,0,2025-05-23,2025-05-23,ＡＹＭ株式会社,,株式会社,東京都,八王子市,南大沢４丁目１２番グリーンライフ４－３０２,,13,201,1920364,,,,,,,2025-05-23,1,,,,,エーワイエム,0
793,4010401190393,新規,0,2025-05-23,2025-05-23,株式会社Ｅ２ＳＥＡ　Ｊａｐａｎ,,株式会社,東京都,港区,港南４丁目６－５－６０６,,13,103,1080075,,,,,,,2025-05-23,1,,,,,イーツーシージャパン,0
794,4010401190501,新規,0,2025-05-23,2025-05-23,ＮＳ　Ｔｅｃｈ株式会社,,株式会社,東京都,港区,三田１丁目４番２８号三田国際ビル２４階,,13,103,1080073,,,,,,,2025-05-23,1,,,,,エヌエステック,0
800,4010403035101,新規,0,2025-05-23,2025-05-23,合同会社最＆高,,合同会社,東京都,港区,六本木６丁目８番８号六本木ゴーディビル４階Ｃ号室,,13,103,1060032,,,,,,,2025-05-23,1,,,,,サイアンドコウ,0
801,4010403035134,新規,0,2025-05-23,2025-05-23,Ｎｉｃｏｍｉｅ合同会社,,合同会社,東京都,港区,浜松町２丁目２番１５号浜松町ダイヤビル２Ｆ,,13,103,1050013,,,,,,,2025-05-23,1,,,,,ニコミー,0
805,4010503007850,新規,0,2025-05-23,2025-05-23,合同会社ＭＡＲＵ,,合同会社,東京都,台東区,根岸５丁目１１番１９号,,13,106,1100003,,,,,,,2025-05-23,1,,,,,マル,0
806,4010505003600,新規,0,2025-05-23,2025-05-23,司法書士法人Ｐｒｅｓｅｎｃｅ　Ｇｒｏｕｐ,,その他の設立登記法人,東京都,台東区,台東３丁目１５番３号ＭＡＲＫＳＱＵＡＲＥ御徒町９Ｆ,,13,106,1100016,,,,,,,2025-05-23,1,,,,,プレゼンスグループ,0
812,4010803005397,新規,0,2025-05-23,2025-05-23,合同会社Ａｉｓ,,合同会社,東京都,大田区,千鳥２丁目６番７－５０５号,,13,111,1460083,,,,,,,2025-05-23,1,,,,,アイス,0
815,4010901057357,新規,0,2025-05-23,2025-05-23,株式会社東京城山事務所,,株式会社,東京都,世田谷区,玉川２丁目２８番１０－１０４号,,13,112,1580094,,,,,,,2025-05-23,1,,,,,トウキョウシロヤマジムショ,0
819,4010903009934,新規,0,2025-05-23,2025-05-23,イレーネ合同会社,,合同会社,東京都,世田谷区,世田谷２丁目８番２－７０７号,,13,112,1540017,,,,,,,2025-05-23,1,,,,,イレーネ,0
821,4011001169588,新規,0,2025-05-23,2025-05-23,ｉｔｃｓｍａｔ株式会社,,株式会社,東京都,渋谷区,富ヶ谷１丁目１４番１４号スタンフォードアネックスビル４Ｆ,,13,113,1510063,,,,,,,2025-05-23,1,,,,,アイティーシスマット,0
822,4011001169646,新規,0,2025-05-23,2025-05-23,株式会社カルチャーＢＯＸ,,株式会社,東京都,渋谷区,代々木２丁目１５番１２号クランツ南新宿２０２,,13,113,1510053,,,,,,,2025-05-23,1,,,,,カルチャーボックス,0
823,4011001170001,新規,0,2025-05-23,2025-05-23,うつしよとこよ株式会社,,株式会社,東京都,渋谷区,円山町５番３号ＭＩＥＵＸ渋谷ビル８階,,13,113,1500044,,,,,,,2025-05-23,1,,,,,ウツシヨトコヨ,0
824,4011001170050,新規,0,2025-05-23,2025-05-23,株式会社モジャフル,,株式会社,東京都,渋谷区,道玄坂１丁目１０番８号渋谷道玄坂東急ビル２Ｆ‐Ｃ,,13,113,1500043,,,,,,,2025-05-23,1,,,,,モジャフル,0
826,4011003021722,新規,0,2025-05-23,2025-05-23,ＫＹＵＴＥ合同会社,,合同会社,東京都,渋谷区,恵比寿西２丁目８番４号ＥＸ恵比寿西ビル５階,,13,113,1500021,,,,,,,2025-05-23,1,,,,,キュート,0
827,4011005010995,新規,0,2025-05-23,2025-05-23,一般社団法人ＤＤＤＤ　Ｉｎｓｔｉｔｕｔｅ,,その他の設立登記法人,東京都,渋谷区,神宮前６丁目２３番４号桑野ビル２階,,13,113,1500001,,,,,,,2025-05-23,1,,,,,ディーディーディーディーインスティテュート,0
837,4011101111706,新規,0,2025-05-23,2025-05-23,株式会社凛,,株式会社,東京都,新宿区,下落合４丁目２２番８－３０１号,,13,104,1610033,,,,,,,2025-05-23,1,,,,,リン,0
841,4011103015946,新規,0,2025-05-23,2025-05-23,キセコンサルティング合同会社,,合同会社,東京都,新宿区,新宿４丁目４番２０号マンションヒロノ３０１,,13,104,1600022,,,,,,,2025-05-23,1,,,,,キセコンサルティング,0
843,4011401027115,新規,0,2025-05-23,2025-05-23,Ａｕｒａ　Ｇｌｏｗ株式会社,,株式会社,東京都,板橋区,仲宿６３番７号ＯＥＯｆｆｉｃｅＢｌｄｇ．２０９号,,13,119,1730005,,,,,,,2025-05-23,1,,,,,オーラグロー,0
844,4011403004707,新規,0,2025-05-23,2025-05-23,ｓｔａｎｄａｒｄ合同会社,,合同会社,東京都,板橋区,中丸町４６－１２－１０２,,13,119,1730026,,,,,,,2025-05-23,1,,,,,スタンダード,0
845,4011503006545,新規,0,2025-05-23,2025-05-23,Ｐａｌｅｔｔｅ　ＩＡＳ合同会社,,合同会社,東京都,北区,岸町１丁目９番１９号,,13,117,1140021,,,,,,,2025-05-23,1,,,,,,0
851,4011801046169,新規,0,2025-05-23,2025-05-23,株式会社ＢＴＲ,,株式会社,東京都,葛飾区,東金町１丁目３番１号８１９号室,,13,122,1250041,,,,,,,2025-05-23,1,,,,,ビーティーアール,0
852,4011801046177,新規,0,2025-05-23,2025-05-23,株式会社ワイズジャパン,,株式会社,東京都,葛飾区,東新小岩５丁目６番１３号３０３号室,,13,122,1240023,,,,,,,2025-05-23,1,,,,,ワイズジャパン,0
854,4011803006872,新規,0,2025-05-23,2025-05-23,合同会社Ｓ・Ｋ,,合同会社,東京都,足立区,西新井本町１丁目２７番７号,,13,121,1230845,,,,,,,2025-05-23,1,,,,,エスケイ,0
857,4012301014392,新規,0,2025-05-23,2025-05-23,株式会社ディオイズジャパン,,株式会社,東京都,町田市,原町田６丁目９－８ＡＥＴＡ町田４Ｆ,,13,209,1940013,,,,,,,2025-05-23,1,,,,,ディオイズジャパン,0
862,4020001162965,新規,0,2025-05-23,2025-05-23,株式会社Ｗｉｉｌｌ,,株式会社,神奈川県,横浜市西区,北幸２丁目１０番４８号,,14,103,2200004,,,,,,,2025-05-23,1,,,,,ウィール,0
863,4020001162973,新規,0,2025-05-23,2025-05-23,株式会社ＹＮＳＰＩＲＥ,,株式会社,神奈川県,横浜市神奈川区,金港町５－１４クアドリフォリオ８階,,14,102,2210056,,,,,,,2025-05-23,1,,,,,ワイエヌスパイア,0
864,4020001163022,新規,0,2025-05-23,2025-05-23,株式会社ＣＬＯＶＥＲ　ＨＥＡＲＴ,,株式会社,神奈川県,横浜市西区,浅間町１丁目４番地３ウィザードビル４０２,,14,103,2200072,,,,,,,2025-05-23,1,,,,,クローバーハート,0
870,4021001019180,新規,0,2025-05-23,2025-05-23,光律設備工業株式会社,,株式会社,神奈川県,鎌倉市,城廻４４０番地１,,14,204,2470074,,,,,,,2025-05-23,1,,,,,コウリツセツビコウギョウ,0
878,4030001166668,新規,0,2025-05-23,2025-05-23,株式会社ＡＬＬ‐ＩＮ　ＷＯＲＫＳ,,株式会社,埼玉県,越谷市,川柳町３丁目９０番地３,,11,222,3430827,,,,,,,2025-05-23,1,,,,,オールインワークス,0
879,4030001166676,新規,0,2025-05-23,2025-05-23,ワソラ株式会社,,株式会社,埼玉県,川口市,芝樋ノ爪２丁目２番１－１０１号,,11,203,3330852,,,,,,,2025-05-23,1,,,,,ワソラ,0
885,4040003027594,新規,0,2025-05-23,2025-05-23,マルエステート合同会社,,合同会社,千葉県,船橋市,本町６丁目１５番１８号ガーデンヴィラクレセント４０６号,,12,204,2730005,,,,,,,2025-05-23,1,,,,,マルエステート,0
886,4040003027652,新規,0,2025-05-23,2025-05-23,カンミナーレ合同会社,,合同会社,千葉県,船橋市,湊町２丁目１２－２４湊町日本橋ビル６Ｆ,,12,204,2730011,,,,,,,2025-05-23,1,,,,,カンミナーレ,0
887,4040003027677,新規,0,2025-05-23,2025-05-23,合同会社アウフヘーベン,,合同会社,千葉県,八千代市,緑が丘西３丁目１番地９エトワールＤ２０１,,12,221,2760040,,,,,,,2025-05-23,1,,,,,アウフヘーベン,0
895,4060001038220,新規,0,2025-05-23,2025-05-23,株式会社ソル・オーク,,株式会社,栃木県,宇都宮市,駅前通り３丁目６番９号ザ・レジデンス宇都宮１７０２,,09,201,3210964,,,,,,,2025-05-23,1,,,,,ソルオーク,0
898,4070001042956,新規,0,2025-05-23,2025-05-23,ＷＨ株式会社,,株式会社,群馬県,邑楽郡邑楽町,大字中野７２５番地２,,10,525,3700603,,,,,,,2025-05-23,1,,,,,,0
906,4090002007493,新規,0,2025-05-23,2025-05-23,有限会社石原建材興業,,有限会社,山梨県,中央市,大鳥居３６４４番地,,19,214,4001513,,,,,,,2025-05-23,1,,,,,イシハラケンザイコウギョウ,0
907,4100001038629,新規,0,2025-05-23,2025-05-23,はくじつ株式会社,,株式会社,長野県,須坂市,大字須坂１２３０番地４３,,20,207,3820911,,,,,,,2025-05-23,1,,,,,ハクジツ,0
911,4110001039279,新規,0,2025-05-23,2025-05-23,株式会社プロジェクト・ゼロ新潟,,株式会社,新潟県,新潟市中央区,米山４丁目１番３１号,,15,103,9500916,,,,,,,2025-05-23,1,,,,,プロジェクトゼロニイガタ,0
922,4120001275831,新規,0,2025-05-23,2025-05-23,株式会社近畿住宅設備,,株式会社,大阪府,大阪市生野区,田島２丁目２番１５号,,27,116,5440011,,,,,,,2025-05-23,1,,,,,キンキジュウタクセツビ,0
923,4120001275988,新規,0,2025-05-23,2025-05-23,積木商業株式会社,,株式会社,大阪府,大阪市阿倍野区,桃ケ池町２丁目１１番２－４０３号,,27,119,5450012,,,,,,,2025-05-23,1,,,,,ツミキショウギョウ,0
924,4120001276029,新規,0,2025-05-23,2025-05-23,葵花株式会社,,株式会社,大阪府,大阪市西成区,長橋１丁目３番９号２０１号室,,27,122,5570025,,,,,,,2025-05-23,1,,,,,キカ,0
925,4120001276061,新規,0,2025-05-23,2025-05-23,三仟俚株式会社,,株式会社,大阪府,大阪市東成区,大今里３丁目１５番６号ＩｍａｚａｔｏＴｏｗｅｒ２０２Ｃ,,27,115,5370012,,,,,,,2025-05-23,1,,,,,サンセンリ,0
926,4120001276078,新規,0,2025-05-23,2025-05-23,株式会社オカナガン,,株式会社,大阪府,大阪市淀川区,十三元今里２丁目８番５号,,27,123,5320028,,,,,,,2025-05-23,1,,,,,オカナガン,0
928,4120003029509,新規,0,2025-05-23,2025-05-23,Ｉｄｌｅｗｉｌｄ合同会社,,合同会社,大阪府,大阪市天王寺区,堂ケ芝１丁目４番１７号ヴォーヌング堂ケ芝８０１号,,27,109,5430033,,,,,,,2025-05-23,1,,,,,アイドルワイルド,0
929,4120003029533,新規,0,2025-05-23,2025-05-23,合同会社ＯＶＥＲ,,合同会社,大阪府,大阪市中央区,大手通１丁目４番８－４０４号,,27,128,5400021,,,,,,,2025-05-23,1,,,,,オーバー,0
930,4120101071742,新規,0,2025-05-23,2025-05-23,株式会社協和メンテ,,株式会社,大阪府,堺市堺区,錦綾町１丁２番１５－４０２号,,27,141,5900006,,,,,,,2025-05-23,1,,,,,キョウワメンテ,0
931,4120103006465,新規,0,2025-05-23,2025-05-23,合同会社セイメイストア,,合同会社,大阪府,岸和田市,土生町６丁目２７番地４１号,,27,202,5960825,,,,,,,2025-05-23,1,,,,,セイメイストア,0
932,4120103006473,新規,0,2025-05-23,2025-05-23,合同会社ＳＨＡＮＫＡ　ＡＵＴＯ　ＨＵＢ,,合同会社,大阪府,和泉市,室堂町２８８－６－２０６号,,27,219,5941101,,,,,,,2025-05-23,1,,,,,シャンカオートハッブ,0
934,4120901050912,新規,0,2025-05-23,2025-05-23,株式会社にしかわ会計,,株式会社,大阪府,吹田市,青山台１丁目１番１－２１２号,,27,205,5650875,,,,,,,2025-05-23,1,,,,,ニシカワカイケイ,0
938,4130001079736,新規,0,2025-05-23,2025-05-23,和美創株式会社,,株式会社,京都府,京都市右京区,太秦安井馬塚町１８ハルモニア１０２号室,00139274,26,108,6168077,,,,,,,2025-05-23,1,,,,,ワビソウ,0
945,4140005027517,新規,0,2025-05-23,2025-05-23,一般社団法人やまとた,,その他の設立登記法人,兵庫県,神戸市北区,道場町道場７４－３,,28,109,6511501,,,,,,,2025-05-23,1,,,,,ヤマトタ,0
953,4160001026768,新規,0,2025-05-23,2025-05-23,株式会社ＢｌｕｅＣｒｏｐｓ,,株式会社,滋賀県,米原市,中多良６３０番地１,,25,214,5210011,,,,,,,2025-05-23,1,,,,,ブルークロップス,0
966,4180303006581,新規,0,2025-05-23,2025-05-23,合同会社マルミツ,,合同会社,愛知県,蒲郡市,竹谷町松田５７番地８,,23,214,4430046,,,,,,,2025-05-23,1,,,,,マルミツ,0
974,4200001043809,新規,0,2025-05-23,2025-05-23,株式会社Ｉｔ’ｓ　Ｏｖｅｒ,,株式会社,岐阜県,本巣市,三橋１１００番地５８,,21,218,5010406,,,,,,,2025-05-23,1,,,,,イッツオーバー,0
980,4220001026695,新規,0,2025-05-23,2025-05-23,株式会社うのきスタジオ,,株式会社,石川県,能美市,上開発町１０５リーフガーデンＢ－１,,17,211,9231231,,,,,,,2025-05-23,1,,,,,ウノキスタジオ,0
982,4240001064966,新規,0,2025-05-23,2025-05-23,株式会社アルマ,,株式会社,広島県,呉市,仁方桟橋通１１番１４－３０１号,,34,202,7370154,,,,,,,2025-05-23,1,,,,,アルマ,0
983,4250001021157,新規,0,2025-05-23,2025-05-23,株式会社ＮａｔｕｒｅＤａｔａ,,株式会社,山口県,山口市,平井６８８－５,,35,203,7530831,,,,,,,2025-05-23,1,,,,,ネイチャーデータ,0
984,4250003003731,新規,0,2025-05-23,2025-05-23,ＭＰＡ合同会社,,合同会社,山口県,防府市,牟礼今宿２丁目２番１８号,,35,206,7470012,,,,,,,2025-05-23,1,,,,,エムピーエー,0
988,4290001110088,新規,0,2025-05-23,2025-05-23,株式会社ＡＬＬｍｉｓｓｉｏｎ,,株式会社,福岡県,福岡市博多区,博多駅前１丁目２３番２号ＰａｒｋＦｒｏｎｔ博多駅前１丁目５Ｆ－Ｂ,,40,132,8120011,,,,,,,2025-05-23,1,,,,,オールミッション,0
989,4290003016894,新規,0,2025-05-23,2025-05-23,Ｔ‐Ｄｅｓｉｇｎ合同会社,,合同会社,福岡県,福岡市博多区,美野島１丁目１－１－１２１５,,40,132,8120017,,,,,,,2025-05-23,1,,,,,ティーデザイン,0
1007,4360005007232,新規,0,2025-05-23,2025-05-23,一般社団法人Ｕ‐ＬＥＡＧＵＥ,,その他の設立登記法人,沖縄県,うるま市,字宮里５５－１林山アパート２０２,,47,213,9042243,,,,,,,2025-05-23,1,,,,,ユーリーグ,0
1008,4370005010961,新規,0,2025-05-23,2025-05-23,一般財団法人みやぎこども基金,,その他の設立登記法人,宮城県,仙台市宮城野区,鶴ケ谷５丁目８番地の９,,04,102,9830824,,,,,,,2025-05-23,1,,,,,ミヤギコドモキキン,0
1014,4380005000391,新規,0,2025-05-23,2025-05-23,協同組合福島睦会,,その他の設立登記法人,福島県,福島市,大町４番１５号,,07,201,9608041,,,,,,,2025-05-23,1,,,,,,0
1023,4390003002389,新規,0,2025-05-23,2025-05-23,慢火実業合同会社,,合同会社,山形県,上山市,旭町２丁目４番８号,,06,207,9993106,,,,,,,2025-05-23,1,,,,,,0
1024,4390005009119,新規,0,2025-05-23,2025-05-23,特定非営利活動法人ＭＯＹＡ,,その他の設立登記法人,山形県,最上郡金山町,大字金山３２５,,06,361,9995402,,,,,,,2025-05-23,1,,,,,,0
1027,4430001094416,新規,0,2025-05-23,2025-05-23,株式会社ヒートライフ札幌,,株式会社,北海道,札幌市北区,屯田七条１２丁目３‐１左,,01,102,0020857,,,,,,,2025-05-23,1,,,,,ヒートライフサッポロ,0
1028,4430001094473,新規,0,2025-05-23,2025-05-23,株式会社ネクストアース,,株式会社,北海道,札幌市中央区,南五条西１５丁目２番３号,,01,101,0640805,,,,,,,2025-05-23,1,,,,,ネクストアース,0
1036,4700150130687,新規,0,2025-05-23,2025-05-23,ＶＥＲＳＥ　ＥＵＲＯＰＡ　ＳＬ,,外国会社等,東京都,渋谷区,神宮前６丁目２３番４号桑野ビル２階,,13,113,1500001,スペイン王国、マドリード、ガリレオ通り２５番地、１階Ａ号,,,,,,2025-05-23,1,,,,,ヴエルセヨーロツパエステル,0
1050,5010003047388,新規,0,2025-05-23,2025-05-23,ＳＵＮＲＩＳＥ　ＥＮＴＥＲＰＲＩＳＥＳ　ＮＩＰＰＯＮ合同会社,,合同会社,東京都,中央区,日本橋３丁目７番７号,,13,102,1030027,,,,,,,2025-05-23,1,,,,,サンライズエンタープライゼニッポン,0
1065,5010401190351,新規,0,2025-05-23,2025-05-23,八方栄地株式会社,,株式会社,東京都,港区,芝２丁目２８－１１芝ＭＫビル３１１号室,,13,103,1050014,,,,,,,2025-05-23,1,,,,,ユニバーサルリッチランド,0
1067,5010403035125,新規,0,2025-05-23,2025-05-23,合同会社ラムン,,合同会社,東京都,港区,赤坂６丁目７番１４－１１０４号,,13,103,1070052,,,,,,,2025-05-23,1,,,,,ラムン,0
1068,5010405024423,新規,0,2025-05-23,2025-05-23,一般社団法人シェアでんき２５,,その他の設立登記法人,東京都,港区,元赤坂１丁目１番７－１２０９号株式会社赤坂国際会計内,,13,103,1070051,,,,,,,2025-05-23,1,,,,,シェアデンキニジュウゴ,0
1071,5010501054076,新規,0,2025-05-23,2025-05-23,天川株式会社,,株式会社,東京都,台東区,入谷１丁目１９－５,,13,106,1100013,,,,,,,2025-05-23,1,,,,,アマカワ,0
1073,5010801036146,新規,0,2025-05-23,2025-05-23,株式会社慶和電設工業,,株式会社,東京都,大田区,大森北１丁目２３番１２号,,13,111,1430016,,,,,,,2025-05-23,1,,,,,ケイワデンセツコウギョウ,0
1084,5011001169678,新規,0,2025-05-23,2025-05-23,株式会社田創工務店,,株式会社,東京都,渋谷区,恵比寿西２丁目４番８号ウィンド恵比寿ビル８Ｆ,,13,113,1500021,,,,,,,2025-05-23,1,,,,,タソウコウムテン,0
1085,5011001169686,新規,0,2025-05-23,2025-05-23,株式会社Ｈｉｇｈｌｉｔｅ,,株式会社,東京都,渋谷区,神泉町３番４号ウェルズ渋谷３０３号室,,13,113,1500045,,,,,,,2025-05-23,1,,,,,ハイライト,0
1088,5011003021639,新規,0,2025-05-23,2025-05-23,合同会社Ｈａｎａｍｉ　Ｊａｐａｎ,,合同会社,東京都,渋谷区,南平台町１６－２８Ｄａｉｗａ渋谷スクエア６Ｆ,,13,113,1500036,,,,,,,2025-05-23,1,,,,,ハナミジャパン,0
1089,5011005010994,新規,0,2025-05-23,2025-05-23,一般社団法人Ｌｉｆｅプラス,,その他の設立登記法人,東京都,渋谷区,恵比寿西２丁目４番８号ウィンド恵比寿ビル８Ｆ,,13,113,1500021,,,,,,,2025-05-23,1,,,,,ライフプラス,0
1094,5011101111787,新規,0,2025-05-23,2025-05-23,株式会社マッドボム,,株式会社,東京都,新宿区,新宿１丁目３４番１６号清水ビル２０３号室,,13,104,1600022,,,,,,,2025-05-23,1,,,,,マッドボム,0
1095,5011101111829,新規,0,2025-05-23,2025-05-23,ＥＢＡエデュケーション株式会社,,株式会社,東京都,新宿区,西新宿６丁目１２番７号,,13,104,1600023,,,,,,,2025-05-23,1,,,,,イービーエーエデュケーション,0
1097,5011103015846,新規,0,2025-05-23,2025-05-23,合同会社ＳＨ,,合同会社,東京都,新宿区,左門町２番地石橋ビル３０２号室,,13,104,1600017,,,,,,,2025-05-23,1,,,,,エスエイチ,0
1098,5011103015904,新規,0,2025-05-23,2025-05-23,オリーブ合同会社,,合同会社,東京都,新宿区,新宿５丁目７番１０－４０２号,,13,104,1600022,,,,,,,2025-05-23,1,,,,,オリーブ,0
1103,5011205002692,新規,0,2025-05-23,2025-05-23,特定非営利活動法人るがーる,,その他の設立登記法人,東京都,中野区,鷺宮１丁目６番１号暁ハウス１０５,,13,114,1650032,,,,,,,2025-05-23,1,,,,,ルガール,0
1106,5011503006544,新規,0,2025-05-23,2025-05-23,合同会社ＳＳ,,合同会社,東京都,荒川区,西尾久１丁目２６番１２号,,13,118,1160011,,,,,,,2025-05-23,1,,,,,,0
1107,5011701028365,新規,0,2025-05-23,2025-05-23,株式会社ケイズ,,株式会社,東京都,江戸川区,中葛西７丁目９番７号,,13,123,1340083,,,,,,,2025-05-23,1,,,,,ケイズ,0
1108,5011703004249,新規,0,2025-05-23,2025-05-23,ＬＡＰＳＵＮ合同会社,,合同会社,東京都,江戸川区,西小岩５丁目１３番１３号小出マンション１６１号室,,13,123,1330057,,,,,,,2025-05-23,1,,,,,ラプサン,0
1111,5012303002163,新規,0,2025-05-23,2025-05-23,マーヴェリック合同会社,,合同会社,東京都,町田市,成瀬台２丁目３５番地１７,,13,209,1940043,,,,,,,2025-05-23,1,,,,,マーヴェリック,0
1116,5012701018884,新規,0,2025-05-23,2025-05-23,株式会社カネサイ,,株式会社,東京都,東村山市,諏訪町１丁目２８番地２,,13,213,1890021,,,,,,,2025-05-23,1,,,,,カネサイ,0
1129,5020001162980,新規,0,2025-05-23,2025-05-23,ＳｔａｙＧｏｌｄ株式会社,,株式会社,神奈川県,川崎市幸区,新小倉２番１－１４１１号,,14,132,2120031,,,,,,,2025-05-23,1,,,,,ステイゴールド,0
1134,5020005016869,新規,0,2025-05-23,2025-05-23,一般社団法人慈聖会,,その他の設立登記法人,神奈川県,川崎市幸区,塚越２丁目１５９番地,,14,132,2120024,,,,,,,2025-05-23,1,,,,,ジセイカイ,0
1138,5021003016027,新規,0,2025-05-23,2025-05-23,合同会社ｂｅｒｕｔａＳプランニング,,合同会社,神奈川県,横須賀市,浦上台３丁目２４番８号,,14,201,2390815,,,,,,,2025-05-23,1,,,,,ベルタエスプランニング,0
1142,5030001166576,新規,0,2025-05-23,2025-05-23,サンフレッシュ株式会社,,株式会社,埼玉県,比企郡滑川町,大字羽尾６５２番地１,,11,341,3550811,,,,,,,2025-05-23,1,,,,,サンフレッシュ,0
1143,5030001166659,新規,0,2025-05-23,2025-05-23,上田設備株式会社,,株式会社,埼玉県,草加市,原町１丁目５番２３号,,11,221,3400048,,,,,,,2025-05-23,1,,,,,ウエダセツビ,0
1144,5030001166667,新規,0,2025-05-23,2025-05-23,竹井株式会社,,株式会社,埼玉県,蕨市,中央４丁目２－２ポプラ第一ビル１０２,,11,223,3350004,,,,,,,2025-05-23,1,,,,,タケイ,0
1151,5030003026828,新規,0,2025-05-23,2025-05-23,合同会社満月,,合同会社,埼玉県,さいたま市桜区,西堀９丁目１４番５号,,11,106,3380832,,,,,,,2025-05-23,1,,,,,マンゲツ,0
1159,5040003027643,新規,0,2025-05-23,2025-05-23,滝上町グリーン電力合同会社,,合同会社,千葉県,木更津市,かずさ鎌足３丁目９番地１,,12,206,2920818,,,,,,,2025-05-23,1,,,,,タキノウエチョウグリーンデンリョク,0
1165,5050003009277,新規,0,2025-05-23,2025-05-23,Ｌｉｎｋ合同会社,,合同会社,茨城県,水戸市,見川町２１３１番地の２２１３,,08,201,3100913,,,,,,,2025-05-23,1,,,,,リンク,0
1167,5060001038203,新規,0,2025-05-23,2025-05-23,ＳＵＬＥＹ　ＴＲＡＤＩＮＧ株式会社,,株式会社,栃木県,栃木市,樋ノ口町４０番地２２,,09,203,3280024,,,,,,,2025-05-23,1,,,,,スレイトレーディング,0
1172,5070005010396,新規,0,2025-05-23,2025-05-23,ＮＰＯ法人Ｌｉｎｋ　Ｆｏｒｅｓｔ,,その他の設立登記法人,群馬県,高崎市,棟高町１３２５番地１,,10,202,3703521,,,,,,,2025-05-23,1,,,,,,0
1174,5080103003326,新規,0,2025-05-23,2025-05-23,合同会社ダイヤモンド,,合同会社,静岡県,裾野市,二ツ屋１４０番地の２,,22,220,4101128,,,,,,,2025-05-23,1,,,,,ダイヤモンド,0
1176,5080401027919,新規,0,2025-05-23,2025-05-23,ＭＳＮ株式会社,,株式会社,静岡県,磐田市,海老島７１８番地１５,,22,211,4380212,,,,,,,2025-05-23,1,,,,,エムエスエヌ,0
1179,5110001039278,新規,0,2025-05-23,2025-05-23,株式会社富永,,株式会社,新潟県,南魚沼市,南田中５３４番地８９,,15,226,9496362,,,,,,,2025-05-23,1,,,,,トミナガ,0
1180,5110001039286,新規,0,2025-05-23,2025-05-23,株式会社プライドツアーズ新潟,,株式会社,新潟県,新潟市中央区,上大川前通７番町１２３０－７,,15,103,9518068,,,,,,,2025-05-23,1,,,,,プライドツアーズニイガタ,0
1193,5120001275954,新規,0,2025-05-23,2025-05-23,サンライト株式会社,,株式会社,大阪府,大阪市天王寺区,夕陽丘町４番２－０８号室,,27,109,5430075,,,,,,,2025-05-23,1,,,,,サンライト,0
1194,5120001276036,新規,0,2025-05-23,2025-05-23,博泰康株式会社,,株式会社,大阪府,大阪市都島区,東野田町４丁目１－５吉升ビル３０８号,,27,102,5340024,,,,,,,2025-05-23,1,,,,,ハクタイコウ,0
1195,5120001276060,新規,0,2025-05-23,2025-05-23,建一株式会社,,株式会社,大阪府,大阪市城東区,関目５丁目１９番９号関目花博公館４１２Ａ,,27,118,5360008,,,,,,,2025-05-23,1,,,,,ケンイチ,0
1196,5120001276069,新規,0,2025-05-23,2025-05-23,株式会社ｈｕｎｄｒｅｄ,,株式会社,大阪府,大阪市北区,梅田１丁目１－３大阪駅前第３ビル２９階１－１－１号室,,27,127,5300001,,,,,,,2025-05-23,1,,,,,ハンドレッド,0
1197,5120001276077,新規,0,2025-05-23,2025-05-23,住吉不動産株式会社,,株式会社,大阪府,大阪市東住吉区,住道矢田２丁目４番１８号,,27,121,5460022,,,,,,,2025-05-23,1,,,,,スミヨシフドウサン,0
1198,5120001276093,新規,0,2025-05-23,2025-05-23,株式会社ＨＳＴ,,株式会社,大阪府,大阪市北区,梅田１丁目２番２号大阪駅前第２ビル１２－１２,,27,127,5300001,,,,,,,2025-05-23,1,,,,,エイチエスティー,0
1199,5120001276119,新規,0,2025-05-23,2025-05-23,鴻千株式会社,,株式会社,大阪府,大阪市中央区,松屋町９番２０号ローレルステート松屋町３０６Ｂ,,27,128,5420067,,,,,,,2025-05-23,1,,,,,コウセン,0
1201,5120003029409,新規,0,2025-05-23,2025-05-23,合同会社ＫＦ‐７,,合同会社,大阪府,大阪市中央区,大手通２丁目４－８Ａｓｓｅｓｓ大手通ビル１０Ｆ,,27,128,5400021,,,,,,,2025-05-23,1,,,,,ケーエフセブン,0
1202,5120003029516,新規,0,2025-05-23,2025-05-23,イレイザー・ラボ合同会社,,合同会社,大阪府,大阪市浪速区,元町１丁目７番５号,,27,111,5560016,,,,,,,2025-05-23,1,,,,,イレイザーラボ,0
1203,5120003029524,新規,0,2025-05-23,2025-05-23,Ｍ＆Ｓ合同会社,,合同会社,大阪府,大阪市中央区,常盤町１丁目１－９－６０６,,27,128,5400028,,,,,,,2025-05-23,1,,,,,エムアンドエス,0
1207,5120901050911,新規,0,2025-05-23,2025-05-23,株式会社サラティー,,株式会社,大阪府,吹田市,片山町１丁目１番１号メロード吹田一番館３１０６号,,27,205,5640082,,,,,,,2025-05-23,1,,,,,サラティー,0
1209,5122001039249,新規,0,2025-05-23,2025-05-23,株式会社和田建設,,株式会社,大阪府,大東市,平野屋１丁目２番４号,,27,218,5740022,,,,,,,2025-05-23,1,,,,,ワダケンセツ,0
1216,5130003010482,新規,0,2025-05-23,2025-05-23,合同会社キエリ,,合同会社,京都府,京都市伏見区,竹田西桶ノ井町７９,,26,109,6128428,,,,,,,2025-05-23,1,,,,,キエリ,0
1232,5140003022097,新規,0,2025-05-23,2025-05-23,合同会社成功ＧＲＯＵＰ,,合同会社,兵庫県,神戸市中央区,元町通５丁目４－８三木ビル５０１,,28,110,6500022,,,,,,,2025-05-23,1,,,,,セイコウグループ,0
1239,5160001026775,新規,0,2025-05-23,2025-05-23,株式会社日昇建設,,株式会社,滋賀県,野洲市,吉川９４５,,25,210,5202401,,,,,,,2025-05-23,1,,,,,ニッショウケンセツ,0
1245,5180001166925,新規,0,2025-05-23,2025-05-23,Ｚａｉｎ　Ｂｒｏｔｈｅｒ株式会社,,株式会社,愛知県,海部郡蟹江町,舟入２丁目２５６番地・２Ｆ,,23,425,4970048,,,,,,,2025-05-23,1,,,,,ザインブラザー,0
1253,5180003028504,新規,0,2025-05-23,2025-05-23,合同会社Ｈ２Ｏソリューションズ,,合同会社,愛知県,名古屋市西区,牛島町６番１号名古屋ルーセントタワー４０階,,23,104,4510046,,,,,,,2025-05-23,1,,,,,エイチツーオーソリューションズ,0
1254,5180003028512,新規,0,2025-05-23,2025-05-23,合同会社ＳＵＮＡＮ,,合同会社,愛知県,あま市,森７丁目６－７サンハウススギハラ１階店舗北,,23,237,4901107,,,,,,,2025-05-23,1,,,,,スナン,0
1255,5180003028520,新規,0,2025-05-23,2025-05-23,合同会社Ａ,,合同会社,愛知県,江南市,飛高町門野１２３番地１,,23,217,4838332,,,,,,,2025-05-23,1,,,,,アー,0
1261,5180301039822,新規,0,2025-05-23,2025-05-23,株式会社ＴＫＳ,,株式会社,愛知県,豊橋市,牛川通３丁目３番地５３,,23,201,4400011,,,,,,,2025-05-23,1,,,,,ティーケーエス,0
1276,5260005011482,新規,0,2025-05-23,2025-05-23,行政書士法人Ｇフォース,,その他の設立登記法人,岡山県,津山市,高野山西８５５番地９,,33,203,7081124,,,,,,,2025-05-23,1,,,,,ジーフォース,0
1286,5290003016869,新規,0,2025-05-23,2025-05-23,合同会社アスノメ,,合同会社,福岡県,久留米市,日吉町２２番地２グランフォーレ日吉レジデンス４０５号,,40,203,8300017,,,,,,,2025-05-23,1,,,,,アスノメ,0
1289,5320001021108,新規,0,2025-05-23,2025-05-23,株式会社ＩＳＳＥＩ,,株式会社,大分県,豊後大野市,三重町内田２５０６番地１Ａ棟,,44,212,8797125,,,,,,,2025-05-23,1,,,,,イッセイ,0
1294,5360001035194,新規,0,2025-05-23,2025-05-23,株式会社ｋｉｃｋ　ｉｎ　ｔｈｅ　ｈｏｌｄｉｎｇｓ,,株式会社,沖縄県,宮古島市,平良字荷川取２０６－３,,47,214,9060008,,,,,,,2025-05-23,1,,,,,キックインザホールディングス,0
1295,5370001052593,新規,0,2025-05-23,2025-05-23,株式会社竹中商店,,株式会社,宮城県,仙台市宮城野区,東宮城野４番１－１００６号,,04,102,9830042,,,,,,,2025-05-23,1,,,,,タケナカショウテン,0
1298,5370003007100,新規,0,2025-05-23,2025-05-23,合同会社ＶＯＷマネジメント,,合同会社,宮城県,石巻市,垂水町２丁目６番地９,,04,202,9862104,,,,,,,2025-05-23,1,,,,,バウマネジメント,0
1301,5390005009118,新規,0,2025-05-23,2025-05-23,東五十川農事実行組合,,その他の設立登記法人,山形県,長井市,五十川,,06,209,9930072,,,,,,,2025-05-23,1,,,,,,0
1312,5430001094456,新規,0,2025-05-23,2025-05-23,株式会社ＫＮＳ,,株式会社,北海道,札幌市西区,山の手三条５丁目１番１９号東洋ハイム１０２号,,01,107,0630003,,,,,,,2025-05-23,1,,,,,ケーエヌエス,0
1313,5430001094472,新規,0,2025-05-23,2025-05-23,株式会社ＡＵＢＥ,,株式会社,北海道,江別市,野幌代々木町８０番地１,,01,217,0690817,,,,,,,2025-05-23,1,,,,,オーブ,0
1317,5470001020706,新規,0,2025-05-23,2025-05-23,株式会社エルフオート,,株式会社,香川県,善通寺市,与北町９７９番地１,,37,204,7650040,,,,,,,2025-05-23,1,,,,,エルフオート,0
1323,5700150130686,新規,0,2025-05-23,2025-05-23,ＴＯＭＩＯ　ＥＮＴＥＲＰＲＩＳＥＳ,,外国会社等,千葉県,山武市,横田４９０番地１２－１,,12,237,2891226,スリランカ民主社会主義共和国、カダワタ、メインストリート、Ｎｏ．２３／１,,,,,,2025-05-23,1,,,,,トミオエンタープライズ,0
1333,6010001254753,新規,0,2025-05-23,2025-05-23,ＴＯＭグループ株式会社,,株式会社,東京都,千代田区,有楽町１丁目１３番２号第一生命日比谷ファースト１８階,,13,101,1000006,,,,,,,2025-05-23,1,,,,,ティオーエムグループ,0
1334,6010001255207,新規,0,2025-05-23,2025-05-23,ＥＷＡ株式会社,,株式会社,東京都,千代田区,神田和泉町１番地６－１６ヤマトビル４０５,,13,101,1010024,,,,,,,2025-05-23,1,,,,,エワ,0
1341,6010003047346,新規,0,2025-05-23,2025-05-23,合同会社藤江,,合同会社,東京都,中央区,日本橋室町１丁目１１番１２号日本橋水野ビル７階,,13,102,1030022,,,,,,,2025-05-23,1,,,,,フジエ,0
1353,6010403035124,新規,0,2025-05-23,2025-05-23,合同会社ＴＫＭ,,合同会社,東京都,港区,白金１丁目２５番１号パレフルール白金１０１号室,,13,103,1080072,,,,,,,2025-05-23,1,,,,,ティーケーエム,0
1354,6010403035165,新規,0,2025-05-23,2025-05-23,合同会社ＬＵＭＩＮＡ,,合同会社,東京都,港区,南青山３丁目１番３６号青山丸竹ビルディング６Ｆ,,13,103,1070062,,,,,,,2025-05-23,1,,,,,ルミナ,0
1355,6010405024356,新規,0,2025-05-23,2025-05-23,一般社団法人和歌文化国際協会,,その他の設立登記法人,東京都,港区,虎ノ門３丁目２２番７－９０４号ニューハイツ芝公園,,13,103,1050001,,,,,,,2025-05-23,1,,,,,ワカブンカコクサイキョウカイ,0
1356,6010405024372,新規,0,2025-05-23,2025-05-23,司法書士法人はじめ,,その他の設立登記法人,東京都,港区,虎ノ門４丁目３番２０号神谷町ＭＴビル１４Ｆ,,13,103,1050001,,,,,,,2025-05-23,1,,,,,ハジメ,0
1376,6011001169586,新規,0,2025-05-23,2025-05-23,株式会社大雄工業,,株式会社,東京都,目黒区,自由が丘２丁目１６番１２号ＲＪ３,,13,110,1520035,,,,,,,2025-05-23,1,,,,,ダイユウコウギョウ,0
1377,6011001169842,新規,0,2025-05-23,2025-05-23,株式会社Ｒａｉｇａｔｅ,,株式会社,東京都,渋谷区,道玄坂１丁目１０番８号渋谷道玄坂東急ビル２Ｆ－Ｃ,,13,113,1500043,,,,,,,2025-05-23,1,,,,,ライゲート,0
1379,6011003021654,新規,0,2025-05-23,2025-05-23,エスポパートナーズ合同会社,,合同会社,東京都,渋谷区,円山町５番３号ＭＩＥＵＸ渋谷ビル８階,,13,113,1500044,,,,,,,2025-05-23,1,,,,,エスポパートナーズ,0
1380,6011003021670,新規,0,2025-05-23,2025-05-23,Ｃｈａｎｎｅｌ　Ｂ合同会社,,合同会社,東京都,目黒区,八雲１丁目５番１号,,13,110,1520023,,,,,,,2025-05-23,1,,,,,チャンネルビー,0
1385,6011101111828,新規,0,2025-05-23,2025-05-23,エース・コーポレーション株式会社,,株式会社,東京都,新宿区,北新宿４丁目２２番１７号秀和ハイム２,,13,104,1690074,,,,,,,2025-05-23,1,,,,,エースコーポレーション,0
1387,6011103015911,新規,0,2025-05-23,2025-05-23,合同会社Ｔｅｃｈ　ＰＲＯ‐Ｖａｌ,,合同会社,東京都,新宿区,西新宿３丁目３番１３号西新宿水間ビル２Ｆ,,13,104,1600023,,,,,,,2025-05-23,1,,,,,テックプローバル,0
1390,6011403004705,新規,0,2025-05-23,2025-05-23,ビッドメイト合同会社,,合同会社,東京都,板橋区,徳丸３丁目２４番８号グラナーデ徳丸３０１号,,13,119,1750083,,,,,,,2025-05-23,1,,,,,ビッドメイト,0
1392,6011501032104,新規,0,2025-05-23,2025-05-23,株式会社ｈｉｔｏｅ,,株式会社,東京都,北区,赤羽南１丁目７番２号,,13,117,1150044,,,,,,,2025-05-23,1,,,,,ヒトエ,0
1393,6011501032112,新規,0,2025-05-23,2025-05-23,株式会社リン,,株式会社,東京都,北区,王子５丁目２番２－８３７号,,13,117,1140002,,,,,,,2025-05-23,1,,,,,リン,0
1395,6011503006543,新規,0,2025-05-23,2025-05-23,合同会社ＡＴＹ,,合同会社,東京都,北区,東十条１丁目８番１１号,,13,117,1140001,,,,,,,2025-05-23,1,,,,,,0
1397,6011601028687,新規,0,2025-05-23,2025-05-23,株式会社ウェアダプトハブ,,株式会社,東京都,練馬区,高野台５丁目２８番５号,,13,120,1770033,,,,,,,2025-05-23,1,,,,,ウェアダプトハブ,0
1403,6011801046167,新規,0,2025-05-23,2025-05-23,株式会社秀和,,株式会社,東京都,葛飾区,東新小岩３丁目４番２１号大生新小岩ハイツ４０７,,13,122,1240023,,,,,,,2025-05-23,1,,,,,シュウワ,0
1404,6011801046183,新規,0,2025-05-23,2025-05-23,ＣＯＲＥ株式会社,,株式会社,東京都,足立区,西新井栄町２丁目３番７号第１１１新井ビル２０６,,13,121,1230843,,,,,,,2025-05-23,1,,,,,コア,0
1424,6020001162996,新規,0,2025-05-23,2025-05-23,東亜医療健康推進センター株式会社,,株式会社,神奈川県,川崎市麻生区,岡上５丁目１３番２５号１０５号室,,14,137,2150027,,,,,,,2025-05-23,1,,,,,トウアイリョウケンコウスイシンセンター,0
1428,6020005016868,新規,0,2025-05-23,2025-05-23,アドヴァンス北寺尾管理組合法人,,その他の設立登記法人,神奈川県,横浜市鶴見区,北寺尾６丁目３２番１７号アドヴァンス北寺尾２階管理事務室,,14,101,2300074,,,,,,,2025-05-23,1,,,,,アドヴァンスキタテラオ,0
1439,6030001166666,新規,0,2025-05-23,2025-05-23,株式会社ＧＯＯＤ　ＤＡＹ,,株式会社,埼玉県,本庄市,小島南３丁目１番４４号,,11,211,3670062,,,,,,,2025-05-23,1,,,,,グッデイ,0
1440,6030001166674,新規,0,2025-05-23,2025-05-23,成功株式会社,,株式会社,埼玉県,朝霞市,宮戸３丁目１５－３５－２０５,,11,227,3510031,,,,,,,2025-05-23,1,,,,,セイコウ,0
1441,6030001166682,新規,0,2025-05-23,2025-05-23,株式会社クリアサポート,,株式会社,埼玉県,幸手市,中４丁目１３番３号増田第４ビル１０２,,11,240,3400115,,,,,,,2025-05-23,1,,,,,クリアサポート,0
1443,6030003026827,新規,0,2025-05-23,2025-05-23,ＧＣ合同会社,,合同会社,埼玉県,川越市,霞ケ関東１丁目１０－１６ラ．フォレスタ３０１号,,11,201,3501103,,,,,,,2025-05-23,1,,,,,ジーシー,0
1447,6040001138895,新規,0,2025-05-23,2025-05-23,株式会社日創松戸,,株式会社,千葉県,松戸市,大谷口字外番場４０８番地,,12,207,2700005,,,,,,,2025-05-23,1,,,,,ニッソウマツド,0
1448,6040001138904,新規,0,2025-05-23,2025-05-23,株式会社ブックハウス,,株式会社,千葉県,八千代市,上高野２０６９番地２０,,12,221,2760022,,,,,,,2025-05-23,1,,,,,ブックハウス,0
1452,6040003027510,新規,0,2025-05-23,2025-05-23,合同会社片岡,,合同会社,千葉県,四街道市,大日１４８－１アルシオネＩＶ１０１号,00139278,12,228,2840001,,,,,,,2025-05-23,1,,,,,カタオカ,0
1453,6040003027568,新規,0,2025-05-23,2025-05-23,萬屋甚太合同会社,,合同会社,千葉県,長生郡白子町,中里３３０３番地１０,,12,424,2994215,,,,,,,2025-05-23,1,,,,,ヨロズヤジンタ,0
1454,6040003027618,新規,0,2025-05-23,2025-05-23,合同会社あいのや,,合同会社,千葉県,柏市,若柴１７８－４柏の葉キャンパス１４８街区２ショップ＆オフィス棟６階,,12,217,2770871,,,,,,,2025-05-23,1,,,,,アイノヤ,0
1455,6040003027667,新規,0,2025-05-23,2025-05-23,ＳｏｌａｒＬｉｎｋｓ合同会社,,合同会社,千葉県,流山市,南流山９丁目４－１ウェリス南流山１１０５,,12,220,2700163,,,,,,,2025-05-23,1,,,,,ソーラーリンクス,0
1467,6070001042954,新規,0,2025-05-23,2025-05-23,株式会社Ａｌｌｍａｔ,,株式会社,群馬県,高崎市,緑町２丁目１１番地５,,10,202,3700073,,,,,,,2025-05-23,1,,,,,オールマット,0
1469,6080003003458,新規,0,2025-05-23,2025-05-23,Ｅ＆Ｆ合同会社,,合同会社,静岡県,静岡市駿河区,森下町一丁目３９号ＳＯＺＯＳＹＡ森下町ビル４０２号,,22,102,4228061,,,,,,,2025-05-23,1,,,,,イーアンドエフ,0
1475,6090005007712,新規,0,2025-05-23,2025-05-23,一般社団法人八ヶ岳暮らしと文化協議会,,その他の設立登記法人,山梨県,北杜市,高根町村山北割１４６－４,,19,209,4080002,,,,,,,2025-05-23,1,,,,,ヤツガタケクラシトブンカキョウギカイ,0
1479,6100001038602,新規,0,2025-05-23,2025-05-23,株式会社ヒロタスエージェント,,株式会社,長野県,塩尻市,大字広丘原新田５７２－１３エスケーパレス２、２０１号,,20,215,3990706,,,,,,,2025-05-23,1,,,,,ヒロタスエージェント,0
1494,6120001275409,新規,0,2025-05-23,2025-05-23,株式会社Ｗ工務店,,株式会社,大阪府,大阪市城東区,東中浜２丁目３番２４号ゼクス東中浜２０１号,,27,118,5360023,,,,,,,2025-05-23,1,,,,,ダブリューコウムテン,0
1495,6120001276002,新規,0,2025-05-23,2025-05-23,株式会社ワイワイジャパン,,株式会社,大阪府,大阪市天王寺区,東上町５番１７号,,27,109,5430026,,,,,,,2025-05-23,1,,,,,ワイワイジャパン,0
1496,6120001276035,新規,0,2025-05-23,2025-05-23,ごなな株式会社,,株式会社,大阪府,大阪市西成区,花園北１丁目７－４ナニワＩＩＩ番館３０２号室,00139273,27,122,5570016,,,,,,,2025-05-23,1,,,,,ゴナナ,0
1497,6120001276076,新規,0,2025-05-23,2025-05-23,株式会社ベルブリッジ,,株式会社,大阪府,大阪市東淀川区,東淡路４丁目２２番２２号,,27,114,5330023,,,,,,,2025-05-23,1,,,,,ベルブリッジ,0
1501,6120003029531,新規,0,2025-05-23,2025-05-23,合同会社ＢＮＲ,,合同会社,大阪府,大阪市西区,阿波座２丁目２番２２－５０５号,,27,106,5500011,,,,,,,2025-05-23,1,,,,,ビーエヌアール,0
1502,6120003029564,新規,0,2025-05-23,2025-05-23,合同会社ＦＵＴＵＲＥＣＲＥＡＴＩＯＮ,,合同会社,大阪府,大阪市北区,梅田１丁目２番２号大阪駅前第２ビル１２‐１２,,27,127,5300001,,,,,,,2025-05-23,1,,,,,ヒューチャークリエイション,0
1515,6130001079726,新規,0,2025-05-23,2025-05-23,Ｓｅｐｔｅｍｂｅｒ株式会社,,株式会社,京都府,京都市伏見区,深草西浦町２丁目９９番地コーポフローラ３０２室,,26,109,6120029,,,,,,,2025-05-23,1,,,,,セプテンバー,0
1519,6140005027515,新規,0,2025-05-23,2025-05-23,一般社団法人神戸中央リトルシニア野球協会,,その他の設立登記法人,兵庫県,神戸市西区,櫨谷町長谷字渋谷８３－５５,,28,111,6512235,,,,,,,2025-05-23,1,,,,,コウベチュウオウリトルシニアヤキュウキョウカイ,0
1531,6180001166924,新規,0,2025-05-23,2025-05-23,株式会社Ｏｋａｄａ　Ｋｏｇｙｏ,,株式会社,愛知県,岩倉市,八剱町井ノ下１７番地,00139284,23,228,4820031,,,,,,,2025-05-23,1,,,,,オカダコウギョウ,0
1532,6180003028511,新規,0,2025-05-23,2025-05-23,合同会社ＲＵＮ　ＢＡＳＥ,,合同会社,愛知県,名古屋市中村区,中村本町３丁目３３番地,,23,105,4530828,,,,,,,2025-05-23,1,,,,,ランベース,0
1533,6180301039821,新規,0,2025-05-23,2025-05-23,株式会社Ｎーｔｅｃｈ．,,株式会社,愛知県,刈谷市,田町３丁目１５番地１５,,23,210,4480811,,,,,,,2025-05-23,1,,,,,エヌテック,0
1536,6200001043807,新規,0,2025-05-23,2025-05-23,株式会社東海ｅｃｏフィールド,,株式会社,岐阜県,土岐市,土岐津町高山４３３番地の１,,21,212,5095121,,,,,,,2025-05-23,1,,,,,トウカイエコフィールド,0
1542,6240001064964,新規,0,2025-05-23,2025-05-23,株式会社Ｔｗｉｎｓ,,株式会社,広島県,安芸郡熊野町,呉地５丁目１５番地１,,34,307,7314222,,,,,,,2025-05-23,1,,,,,ツインズ,0
1550,6260003005188,新規,0,2025-05-23,2025-05-23,合同会社ファストデリ,,合同会社,岡山県,備前市,蕃山５４７番地,,33,211,7050031,,,,,,,2025-05-23,1,,,,,ファストデリ,0
1551,6270001009207,新規,0,2025-05-23,2025-05-23,株式会社ワンダーワークス,,株式会社,鳥取県,鳥取市,富安２丁目３４番地２Ｆ,,31,201,6800845,,,,,,,2025-05-23,1,,,,,ワンダーワークス,0
1560,6290003016851,新規,0,2025-05-23,2025-05-23,合同会社ＲＯＤＥＯ　ＥＮＧＬＩＳＨ,,合同会社,福岡県,柳川市,金納４００番地２４,,40,207,8320007,,,,,,,2025-05-23,1,,,,,ロデオイングリッシュ,0
1564,6290005019753,新規,0,2025-05-23,2025-05-23,医療法人興侑会,,その他の設立登記法人,福岡県,福岡市中央区,薬院３丁目３番５号オフィスニューガイアＬＡＰＩＳ薬院２階,,40,133,8100022,,,,,,,2025-05-23,1,,,,,キョウユウカイ,0
1583,6370001052601,新規,0,2025-05-23,2025-05-23,株式会社ＣＯＮＮＥＣＴＰＲＯ,,株式会社,宮城県,仙台市若林区,大和町２丁目１番１５号４０２,,04,103,9840042,,,,,,,2025-05-23,1,,,,,コネクトプロ,0
1593,6380003006050,新規,0,2025-05-23,2025-05-23,合同会社スイングマスターズ,,合同会社,福島県,郡山市,富田町字下西田５３－１２ニューシティー長谷川Ｂ２０２,,07,203,9638041,,,,,,,2025-05-23,1,,,,,スイングマスターズ,0
1609,6500001026302,新規,0,2025-05-23,2025-05-23,株式会社さくらさく,,株式会社,愛媛県,松山市,余戸南４丁目５番４－１号,,38,201,7900047,,,,,,,2025-05-23,1,,,,,サクラサク,0
1611,6700150130685,新規,0,2025-05-23,2025-05-23,ＹＵＵＤＡＩ　ＥＮＴＥＲＰＲＩＳＥＳ,,外国会社等,千葉県,山武市,横田４９０番地１２－２,,12,237,2891226,スリランカ民主社会主義共和国、ポルヘナ、アルスワッタ、Ｎｏ．２／１１,,,,,,2025-05-23,1,,,,,ユウダイエンタープライズ,0
1639,7010401190119,新規,0,2025-05-23,2025-05-23,Ｔｈｅ　Ｓａｓａｋｉ株式会社,,株式会社,東京都,港区,麻布十番２丁目１９番４号,,13,103,1060045,,,,,,,2025-05-23,1,,,,,ザササキ,0
1640,7010401190515,新規,0,2025-05-23,2025-05-23,株式会社ＦＲＵＩＴＳ　ＷＯＲＫＳ,,株式会社,東京都,港区,赤坂２丁目１３番１号ルーセント赤坂７階,,13,103,1070052,,,,,,,2025-05-23,1,,,,,フルーツワークス,0
1642,7010403035164,新規,0,2025-05-23,2025-05-23,合同会社Ｉｎｂｏｕｎｄ　Ｔｅｃｈｎｏｌｏｇｉｅｓ．,,合同会社,東京都,港区,南青山７丁目１番７号Ｃ－ＣＵＢＥ南青山４Ｆ,,13,103,1070062,,,,,,,2025-05-23,1,,,,,インバウンドテクノロジーズ,0
1643,7010501054108,新規,0,2025-05-23,2025-05-23,株式会社零,,株式会社,東京都,台東区,清川２丁目２１番７号－１０２,,13,106,1110022,,,,,,,2025-05-23,1,,,,,ゼロ,0
1645,7010503007848,新規,0,2025-05-23,2025-05-23,合同会社サジッタ,,合同会社,東京都,台東区,柳橋２丁目２２番１０－７０５号マ・メゾン浅草橋,,13,106,1110052,,,,,,,2025-05-23,1,,,,,サジッタ,0
1646,7010503007856,新規,0,2025-05-23,2025-05-23,合同会社三幸酒家,,合同会社,東京都,台東区,上野２丁目１２番４号,,13,106,1100005,,,,,,,2025-05-23,1,,,,,サンコウシュカ,0
1655,7010701047753,新規,0,2025-05-23,2025-05-23,株式会社ｍａｔｔａｎ,,株式会社,東京都,品川区,八潮５丁目２番６号,,13,109,1400003,,,,,,,2025-05-23,1,,,,,マッタン,0
1656,7010705003760,新規,0,2025-05-23,2025-05-23,うれしく行政書士法人,,その他の設立登記法人,東京都,品川区,戸越５丁目４－３アズ品川ビル４Ｆ,,13,109,1420041,,,,,,,2025-05-23,1,,,,,ウレシク,0
1657,7010803005403,新規,0,2025-05-23,2025-05-23,おはる合同会社,,合同会社,東京都,大田区,山王２丁目２８番３号,,13,111,1430023,,,,,,,2025-05-23,1,,,,,オハル,0
1661,7011001169651,新規,0,2025-05-23,2025-05-23,株式会社Ｐｕｐｕｎｎｙ,,株式会社,東京都,渋谷区,円山町５番３号ＭＩＥＵＸ渋谷ビル８階,,13,113,1500044,,,,,,,2025-05-23,1,,,,,ププニー,0
1662,7011001169791,新規,0,2025-05-23,2025-05-23,プラスＨ株式会社,,株式会社,東京都,渋谷区,恵比寿南１丁目１番１号８Ｆ,,13,113,1500022,,,,,,,2025-05-23,1,,,,,プラスエイチ,0
1663,7011003021629,新規,0,2025-05-23,2025-05-23,合同会社ＯＬＩＶＥＲ＆Ｃｏ．,,合同会社,東京都,渋谷区,恵比寿南３丁目４番３号,,13,113,1500022,,,,,,,2025-05-23,1,,,,,オリバーアンドコー,0
1664,7011003021661,新規,0,2025-05-23,2025-05-23,合同会社Ｙ　ｏｆ　ＧＭ,,合同会社,東京都,渋谷区,大山町２５番１２－４０８号,,13,113,1510065,,,,,,,2025-05-23,1,,,,,ワイオブジーエム,0
1669,7011103015927,新規,0,2025-05-23,2025-05-23,合同会社Ｃｏｒｅ　Ｖａｌｕｅ,,合同会社,東京都,新宿区,新宿１丁目３６－２新宿七葉山ビル３Ｆ,,13,104,1600022,,,,,,,2025-05-23,1,,,,,コアバリュー,0
1675,7011401027112,新規,0,2025-05-23,2025-05-23,ダンデリオン株式会社,,株式会社,東京都,板橋区,赤塚新町１丁目２４番３号グレース赤塚３０２号室,,13,119,1750093,,,,,,,2025-05-23,1,,,,,,0
1677,7011501032111,新規,0,2025-05-23,2025-05-23,株式会社天鈿商事,,株式会社,東京都,荒川区,南千住３丁目１１番７号,,13,118,1160003,,,,,,,2025-05-23,1,,,,,テンテンショウジ,0
1679,7011703004230,新規,0,2025-05-23,2025-05-23,大竹総研合同会社,,合同会社,東京都,江戸川区,船堀２丁目３―２０リヴァーパーク０２０１号室,,13,123,1340091,,,,,,,2025-05-23,1,,,,,オオタケソウケン,0
1680,7011703004255,新規,0,2025-05-23,2025-05-23,合同会社紬ＴＳＵＭＵＧＩ,,合同会社,東京都,江戸川区,北小岩３丁目１－１５－１０１,,13,123,1330051,,,,,,,2025-05-23,1,,,,,ツムギ,0
1683,7011801046174,新規,0,2025-05-23,2025-05-23,株式会社楽印,,株式会社,東京都,足立区,加賀２丁目１番２３号３階,,13,121,1230861,,,,,,,2025-05-23,1,,,,,ラクチン,0
1686,7012301014398,新規,0,2025-05-23,2025-05-23,株式会社エレクト,,株式会社,東京都,町田市,本町田３１１６番地１２,,13,209,1940032,,,,,,,2025-05-23,1,,,,,エレクト,0
1693,7013301054228,新規,0,2025-05-23,2025-05-23,株式会社ＡＩ　Ｎｅｔｗｏｒｋ　Ｓｏｌｕｔｉｏｎ,,株式会社,東京都,豊島区,南大塚１丁目１８番２号作田ビル３０２号室,,13,116,1700005,,,,,,,2025-05-23,1,,,,,エーアイネットワークソリューション,0
1694,7013301054327,新規,0,2025-05-23,2025-05-23,クローナ株式会社,,株式会社,東京都,豊島区,東池袋４丁目２１番１号,,13,116,1700013,,,,,,,2025-05-23,1,,,,,クローナ,0
1696,7013303007654,新規,0,2025-05-23,2025-05-23,合同会社ＫＤｒｉｖｅ,,合同会社,東京都,豊島区,池袋２丁目１７番８号２０１号室,,13,116,1710014,,,,,,,2025-05-23,1,,,,,ケイドライブ,0
1702,7020001162847,新規,0,2025-05-23,2025-05-23,株式会社３ＷＩＮ,,株式会社,神奈川県,横浜市鶴見区,矢向３丁目２１番２９号,,14,101,2300001,,,,,,,2025-05-23,1,,,,,スリーウィン,0
1703,7020001162995,新規,0,2025-05-23,2025-05-23,株式会社サイレントフット,,株式会社,神奈川県,横浜市青葉区,市ケ尾町４３６番地１,,14,117,2250024,,,,,,,2025-05-23,1,,,,,サイレントフット,0
1706,7020003028526,新規,0,2025-05-23,2025-05-23,Ｗｏｒｌｄ　Ｇｒｏｏｖｅ合同会社,,合同会社,神奈川県,横浜市港北区,日吉本町１丁目６－２３オーベルジュ１０１,,14,109,2230062,,,,,,,2025-05-23,1,,,,,ワールドグルーヴ,0
1707,7020003028542,新規,0,2025-05-23,2025-05-23,たらくパートナーズ合同会社,,合同会社,神奈川県,横浜市神奈川区,青木町七丁目６番広洋フォルム横浜５０３,,14,102,2210057,,,,,,,2025-05-23,1,,,,,タラクパートナーズ,0
1721,7030001166649,新規,0,2025-05-23,2025-05-23,株式会社ＳＥ工業,,株式会社,埼玉県,加須市,鴻茎３３５番地２,,11,210,3470111,,,,,,,2025-05-23,1,,,,,エスイーコウギョウ,0
1726,7030003026826,新規,0,2025-05-23,2025-05-23,恵洋合同会社,,合同会社,埼玉県,東松山市,若松町２丁目５－１１,,11,212,3550037,,,,,,,2025-05-23,1,,,,,ケイヨウ,0
1727,7030003026834,新規,0,2025-05-23,2025-05-23,Ｄｅｅｐ　Ｐｏｒｔ合同会社,,合同会社,埼玉県,新座市,新堀１丁目８－１７－６,,11,230,3520032,,,,,,,2025-05-23,1,,,,,ディープポート,0
1730,7040003027492,新規,0,2025-05-23,2025-05-23,合同会社ＡｗＡ,,合同会社,千葉県,柏市,高田１０７５番地１７コスモ柏サニーフィールズ６０３号,,12,217,2770861,,,,,,,2025-05-23,1,,,,,エーダブリュエー,0
1735,7060001038226,新規,0,2025-05-23,2025-05-23,株式会社ＮＥＯ　ｆａｒｍ,,株式会社,栃木県,佐野市,船津川町１０８９番地,,09,204,3270035,,,,,,,2025-05-23,1,,,,,ネオファーム,0
1740,7070001042953,新規,0,2025-05-23,2025-05-23,マルコフーズ株式会社,,株式会社,群馬県,沼田市,久屋原町１５６０－１４,,10,206,3780005,,,,,,,2025-05-23,1,,,,,,0
1741,7070003005933,新規,0,2025-05-23,2025-05-23,合同会社ＧＯＫ　ＲＡＮＧＥ,,合同会社,群馬県,佐波郡玉村町,大字斎田４３番３,,10,464,3701131,,,,,,,2025-05-23,1,,,,,,0
1752,7120001275457,新規,0,2025-05-23,2025-05-23,慧橋日本投資開発株式会社,,株式会社,大阪府,大阪市西区,新町１丁目２２番２２号７０１号,,27,106,5500013,,,,,,,2025-05-23,1,,,,,ケイキョウニホントウシカイハツ,0
1753,7120001275911,新規,0,2025-05-23,2025-05-23,都鵬株式会社,,株式会社,大阪府,大阪市淀川区,十三元今里２丁目１２番２５号１０３Ｂ,,27,123,5320028,,,,,,,2025-05-23,1,,,,,トホウ,0
1754,7120001275952,新規,0,2025-05-23,2025-05-23,東隅和通株式会社,,株式会社,大阪府,大阪市天王寺区,真法院町１４番１６号,,27,109,5430041,,,,,,,2025-05-23,1,,,,,トウグウワツウ,0
1755,7120001275977,新規,0,2025-05-23,2025-05-23,河崎ホールディングス株式会社,00139269,株式会社,大阪府,大阪市東淀川区,東中島２丁目８番８号ワークステーション新大阪１１階,,27,114,5330033,,,,,,,2025-05-23,1,,,,,カワサキホールディングス,0
1756,7120001275985,新規,0,2025-05-23,2025-05-23,株式会社西恒栄,,株式会社,大阪府,大阪市中央区,南船場３丁目２番２２号おおきに南船場ビル２０５,,27,128,5420081,,,,,,,2025-05-23,1,,,,,サイコウエイ,0
1757,7120001276001,新規,0,2025-05-23,2025-05-23,株式会社麒麟国際観光総合サービス,,株式会社,大阪府,大阪市西成区,山王２丁目５－１１－３０１号,,27,122,5570001,,,,,,,2025-05-23,1,,,,,キリンコクサイカンコウソウゴウサービス,0
1758,7120001276018,新規,0,2025-05-23,2025-05-23,株式会社ＴＯＷＡ　ＥＳＴＡＴＥ,,株式会社,大阪府,大阪市中央区,島之内１丁目１９番２１号２階中,,27,128,5420082,,,,,,,2025-05-23,1,,,,,トーワエステート,0
1759,7120001276059,新規,0,2025-05-23,2025-05-23,ＹＨ有恒株式会社,,株式会社,大阪府,大阪市城東区,関目５丁目１９番９号関目花博公館１１３Ｂ,,27,118,5360008,,,,,,,2025-05-23,1,,,,,ワイエッチユウコウ,0
1762,7120003029522,新規,0,2025-05-23,2025-05-23,ＮＥＭ合同会社,,合同会社,大阪府,大阪市浪速区,敷津西１丁目６番２２－７０１号,,27,111,5560015,,,,,,,2025-05-23,1,,,,,ネム,0
1763,7120003029547,新規,0,2025-05-23,2025-05-23,合同会社ダナン,,合同会社,大阪府,大阪市西成区,鶴見橋１丁目１番７号,,27,122,5570031,,,,,,,2025-05-23,1,,,,,ダナン,0
1764,7120003029571,新規,0,2025-05-23,2025-05-23,合同会社Ｖｅｎｔｕｒｅ　Ｌｉｎｋ,,合同会社,大阪府,大阪市北区,中崎西１丁目６番１４－２０２号,,27,127,5300015,,,,,,,2025-05-23,1,,,,,ベンチャーリンク,0
1769,7120903005671,新規,0,2025-05-23,2025-05-23,Ｍｉｄｆｉｅｌｄｓ合同会社,,合同会社,大阪府,茨木市,中津町１－２ギルド茨木１Ｆ,,27,211,5670824,,,,,,,2025-05-23,1,,,,,ミッドフィールズ,0
1771,7122001039255,新規,0,2025-05-23,2025-05-23,株式会社Ｌｕｍｉｎｏｕｓ,,株式会社,大阪府,東大阪市,今米１丁目１５番３７号,,27,227,5780903,,,,,,,2025-05-23,1,,,,,ルミナス,0
1777,7130001079717,新規,0,2025-05-23,2025-05-23,ＴＥＲＡＳ　ＮＵＳＡＮＴＡＲＡ株式会社,,株式会社,京都府,京都市上京区,竹屋町通浄福寺東入主税町１０４５番地１,,26,102,6028155,,,,,,,2025-05-23,1,,,,,テラスヌサンタラ,0
1812,7220003004036,新規,0,2025-05-23,2025-05-23,合同会社ホワイト,,合同会社,石川県,能美市,佐野町ロ１２番地,,17,211,9231112,,,,,,,2025-05-23,1,,,,,ホワイト,0
1814,7230005009478,新規,0,2025-05-23,2025-05-23,特定非営利活動法人大空,,その他の設立登記法人,富山県,富山市,高島２６３番地２,,16,201,9318441,,,,,,,2025-05-23,1,,,,,オオゾラ,0
1846,7290003016891,新規,0,2025-05-23,2025-05-23,大池ソリューションズ合同会社,,合同会社,福岡県,福岡市南区,大池１丁目２０番２６号,,40,134,8150073,,,,,,,2025-05-23,1,,,,,オオイケソリューションズ,0
1849,7300001014193,新規,0,2025-05-23,2025-05-23,株式会社Ａｇｒｉ　Ｔｕｄｏ,,株式会社,佐賀県,佐賀市,高木瀬町大字東高木１１８０番地,,41,201,8490916,,,,,,,2025-05-23,1,,,,,アグリトゥード,0
1850,7310003005017,新規,0,2025-05-23,2025-05-23,合同会社ニューポート,,合同会社,長崎県,長崎市,戸石町６８１番地１６６,,42,201,8510113,,,,,,,2025-05-23,1,,,,,ニューポート,0
1857,7370001052600,新規,0,2025-05-23,2025-05-23,株式会社アテインカム,,株式会社,宮城県,仙台市若林区,卸町１丁目６番地の１０,,04,103,9840015,,,,,,,2025-05-23,1,,,,,アテインカム,0
1858,7370005010959,新規,0,2025-05-23,2025-05-23,特定非営利活動法人Ｓｅｐｔ　Ｃｌｏｖｅｒ,,その他の設立登記法人,宮城県,仙台市泉区,北中山４丁目３２番地の１６,,04,105,9813215,,,,,,,2025-05-23,1,,,,,セプトクローバー,0
1876,7490005001673,新規,0,2025-05-23,2025-05-23,高知県開発財団,,その他の設立登記法人,高知県,高知市,本町３丁目６番３７号,,39,201,7800870,,,,,,,2025-05-23,1,,,,,,0
1880,7700150130684,新規,0,2025-05-23,2025-05-23,ＡＵＴＯ　ＡＳＩＡ　ＥＮＴＥＲＰＲＩＳＥＳ,,外国会社等,千葉県,山武郡九十九里町,不動堂８２６番地３０,,12,403,2830113,スリランカ民主社会主義共和国、キャンディ、アンバテンナ、クドゥガラ、Ｎｏ．１６４,,,,,,2025-05-23,1,,,,,オートアジアエンタープライズ,0
1895,8010003047435,新規,0,2025-05-23,2025-05-23,ＡＩコンサルＬａｂ合同会社,,合同会社,東京都,中央区,銀座１丁目１２－４Ｎ＆ＥＢＬＤ．７階,,13,102,1040061,,,,,,,2025-05-23,1,,,,,エーアイコンサルラボ,0
1901,8010401190423,新規,0,2025-05-23,2025-05-23,ＺＩＷＡＲＩ株式会社,,株式会社,東京都,港区,北青山１丁目３番１号アールキューブ青山３階,,13,103,1070061,,,,,,,2025-05-23,1,,,,,ジワリ,0
1902,8010401190456,新規,0,2025-05-23,2025-05-23,株式会社スパークル,,株式会社,東京都,港区,台場１丁目３番２－６０１号,,13,103,1350091,,,,,,,2025-05-23,1,,,,,スパークル,0
1903,8010401190464,新規,0,2025-05-23,2025-05-23,株式会社Ｍａｇｎｏｌｉａ　Ｐｕｒｐｌｅ,,株式会社,東京都,港区,西新橋３丁目７番１号,,13,103,1050003,,,,,,,2025-05-23,1,,,,,マグノリアパープル,0
1904,8010401190480,新規,0,2025-05-23,2025-05-23,アイコニア・ホスピタリティ株式会社,,株式会社,東京都,港区,六本木６丁目１０番１号,,13,103,1060032,,,,,,,2025-05-23,1,,,,,アイコニアホスピタリティ,0
1905,8010401190522,新規,0,2025-05-23,2025-05-23,後藤＆パートナーズ株式会社,,株式会社,東京都,港区,新橋４丁目１４番１新橋ＡＵＮＢＬＤＧ４階,,13,103,1050004,,,,,,,2025-05-23,1,,,,,ゴトウアンドパートナーズ,0
1909,8010403035072,新規,0,2025-05-23,2025-05-23,ＬＵＸ　ＬＯＯＰ合同会社,,合同会社,東京都,港区,北青山１丁目３番１号アールキューブ青山３階,,13,103,1070061,,,,,,,2025-05-23,1,,,,,ルックスループ,0
1910,8010403035147,新規,0,2025-05-23,2025-05-23,合同会社シェアでんき２５,,合同会社,東京都,港区,元赤坂１丁目１番７－１２０９号株式会社赤坂国際会計内,,13,103,1070051,,,,,,,2025-05-23,1,,,,,シェアデンキニジュウゴ,0
1915,8010701047736,新規,0,2025-05-23,2025-05-23,株式会社ＣａｎＬｉｎｋｓ,,株式会社,東京都,品川区,上大崎２丁目１５番１９号ＭＧ目黒駅前ビル２階,,13,109,1410021,,,,,,,2025-05-23,1,,,,,キャンリンクス,0
1918,8010801036168,新規,0,2025-05-23,2025-05-23,株式会社ＳＨＩＲＯ＆Ｃｏ．,,株式会社,東京都,大田区,田園調布本町２５番８,,13,111,1450072,,,,,,,2025-05-23,1,,,,,シロアンドカンパニー,0
1919,8010801036176,新規,0,2025-05-23,2025-05-23,株式会社Ｋｏｓｅｉ　Ｋｏｍａｔｓｕ　Ｓｔｕｄｉｏ,,株式会社,東京都,大田区,西蒲田７丁目６１番１３号ＨＵＮＣＨ４Ａ,,13,111,1440051,,,,,,,2025-05-23,1,,,,,コウセイコマツスタジオ,0
1920,8010803005402,新規,0,2025-05-23,2025-05-23,合同会社仁平会,,合同会社,東京都,大田区,大森北６丁目１７番１３号,,13,111,1430016,,,,,,,2025-05-23,1,,,,,ジンヘイカイ,0
1921,8010901057403,新規,0,2025-05-23,2025-05-23,株式会社ｓｐｈｅｒｅ,,株式会社,東京都,世田谷区,太子堂４丁目１８番１５号マガザン三軒茶屋２・３Ｆ－３,,13,112,1540004,,,,,,,2025-05-23,1,,,,,スフィア,0
1926,8011001169618,新規,0,2025-05-23,2025-05-23,株式会社Ｏ．Ｎ．ｅｌｅｃｔｒｉｃ,,株式会社,東京都,渋谷区,西原２丁目３０番２号,,13,113,1510066,,,,,,,2025-05-23,1,,,,,オーエヌエレクトリック,0
1927,8011001169989,新規,0,2025-05-23,2025-05-23,株式会社ＵＮＶＧＩ,,株式会社,東京都,渋谷区,渋谷２丁目１９－１５宮益坂ビルディング６０９,,13,113,1500002,,,,,,,2025-05-23,1,,,,,ウナギ,0
1929,8011003021545,新規,0,2025-05-23,2025-05-23,フラットイコール合同会社,,合同会社,東京都,目黒区,碑文谷４丁目１５－１８－３０１,,13,110,1520003,,,,,,,2025-05-23,1,,,,,フラットイコール,0
1930,8011003021677,新規,0,2025-05-23,2025-05-23,合同会社Ｏｆｆｉｃｅ　Ｓ,,合同会社,東京都,渋谷区,恵比寿西２丁目８‐４ＥＸ恵比寿西ビル５Ｆ,,13,113,1500021,,,,,,,2025-05-23,1,,,,,オフィスエス,0
1936,8011103015926,新規,0,2025-05-23,2025-05-23,ＣＳ東京今井ＥＳＳ２合同会社,,合同会社,東京都,新宿区,西新宿２丁目１番１号新宿三井ビル４３階,,13,104,1600023,,,,,,,2025-05-23,1,,,,,シーエストウキョウイマイイーエスエスニ,0
1939,8011201026370,新規,0,2025-05-23,2025-05-23,株式会社ＴｈｉｒｄＤｏｏｒ,,株式会社,東京都,中野区,新井２丁目４－９プリンス中野３０１,,13,114,1650026,,,,,,,2025-05-23,1,,,,,サードドア,0
1941,8011401027111,新規,0,2025-05-23,2025-05-23,株式会社ＦＵＬＬ　ＬＩＮＫ,,株式会社,東京都,板橋区,幸町１－１０ライオンズマンション大山幸町２０５,,13,119,1730034,,,,,,,2025-05-23,1,,,,,フルリング,0
1944,8011501032110,新規,0,2025-05-23,2025-05-23,株式会社華睿,,株式会社,東京都,北区,田端新町１丁目７番１４号ビズフィールド西日暮里２０７,,13,117,1140012,,,,,,,2025-05-23,1,,,,,カエイ,0
1945,8011601028644,新規,0,2025-05-23,2025-05-23,Ｄｏｃｔｏｒ　Ｑ株式会社,,株式会社,東京都,練馬区,関町北３丁目４２番４号,,13,120,1770051,,,,,,,2025-05-23,1,,,,,ドクターキュー,0
1948,8011801046165,新規,0,2025-05-23,2025-05-23,株式会社ＲＥ　ＲＩＳＥ,,株式会社,東京都,足立区,東和１丁目２１番５号ラ・ペジーブルＩＩ３０２,00139267,13,121,1200003,,,,,,,2025-05-23,1,,,,,リライズ,0
1950,8011803006869,新規,0,2025-05-23,2025-05-23,欣翔合同会社,,合同会社,東京都,足立区,舎人３丁目１０番１号,,13,121,1210831,,,,,,,2025-05-23,1,,,,,キンショウ,0
1952,8012301014397,新規,0,2025-05-23,2025-05-23,株式会社リッチマン,,株式会社,東京都,町田市,旭町１丁目２０番２４号,,13,209,1940023,,,,,,,2025-05-23,1,,,,,リッチマン,0
1954,8012401043131,新規,0,2025-05-23,2025-05-23,株式会社ベスト総合管理,,株式会社,東京都,多摩市,関戸４丁目７２番地聖蹟桜ヶ丘ビュータワー２２０３,,13,224,2060011,,,,,,,2025-05-23,1,,,,,ベストソウゴウカンリ,0
1955,8012701018881,新規,0,2025-05-23,2025-05-23,株式会社丸大グリット・サービス,,株式会社,東京都,小平市,学園西町１丁目３２番３号,,13,211,1870045,,,,,,,2025-05-23,1,,,,,マルダイグリットサービス,0
1963,8020001162945,新規,0,2025-05-23,2025-05-23,株式会社ＷＩＮＤＹ　ＶＥＲＳＥ,,株式会社,神奈川県,横浜市南区,六ツ川３丁目７５－２－３０５,,14,105,2320066,,,,,,,2025-05-23,1,,,,,ウィンディヴァース,0
1964,8020001162961,新規,0,2025-05-23,2025-05-23,株式会社ｇｏｏｄ　ｎｅｗｓ,,株式会社,神奈川県,川崎市宮前区,菅生２丁目５番４８－２１３号,,14,136,2160015,,,,,,,2025-05-23,1,,,,,グッドニュース,0
1965,8020001163010,新規,0,2025-05-23,2025-05-23,宸建株式会社,,株式会社,神奈川県,横浜市南区,中村町２丁目１２３番地３５,,14,105,2320033,,,,,,,2025-05-23,1,,,,,シンケン,0
1967,8020005016866,新規,0,2025-05-23,2025-05-23,一般財団法人国際内視鏡予防医療財団,,その他の設立登記法人,神奈川県,横浜市西区,西戸部町３丁目２５２番地９,,14,103,2200046,,,,,,,2025-05-23,1,,,,,コクサイナイシキョウヨボウイリョウザイダン,0
1971,8021001085302,新規,0,2025-05-23,2025-05-23,株式会社ｇｏｊｉ愛,,株式会社,神奈川県,大和市,中央林間７丁目９番５－４１０号,,14,213,2420007,,,,,,,2025-05-23,1,,,,,ゴジアイ,0
1972,8021001085319,新規,0,2025-05-23,2025-05-23,株式会社木と夏,,株式会社,神奈川県,藤沢市,辻堂元町４丁目３番３号,,14,205,2510043,,,,,,,2025-05-23,1,,,,,キトナツ,0
1976,8030001166623,新規,0,2025-05-23,2025-05-23,ＣＢＷ株式会社,,株式会社,埼玉県,蕨市,北町４丁目１番２号,,11,223,3350001,,,,,,,2025-05-23,1,,,,,シービーダブル,0
1977,8030001166648,新規,0,2025-05-23,2025-05-23,株式会社Ｍ,,株式会社,埼玉県,川口市,東川口５丁目３番１５号,,11,203,3330801,,,,,,,2025-05-23,1,,,,,エム,0
1978,8030001166656,新規,0,2025-05-23,2025-05-23,株式会社レディアンスメタル,,株式会社,埼玉県,三郷市,彦野１丁目３１番地３,,11,237,3410052,,,,,,,2025-05-23,1,,,,,レディアンスメタル,0
1979,8030001166664,新規,0,2025-05-23,2025-05-23,中天株式会社,,株式会社,埼玉県,川口市,芝４丁目１１番１３号,,11,203,3330866,,,,,,,2025-05-23,1,,,,,ナカテン,0
1980,8030001166672,新規,0,2025-05-23,2025-05-23,株式会社シマカワ,,株式会社,埼玉県,草加市,谷塚仲町３４１番地２－４０２号,,11,221,3400025,,,,,,,2025-05-23,1,,,,,シマカワ,0
1981,8030001166689,新規,0,2025-05-23,2025-05-23,株式会社Ｍｏｎ　Ａｍｉ　Ｈｏｕｓｅ,,株式会社,埼玉県,八潮市,大字木曽根８８１－８,,11,234,3400813,,,,,,,2025-05-23,1,,,,,モナミハウス,0
1985,8030003026775,新規,0,2025-05-23,2025-05-23,合同会社ＢＬＯＷＩＮ’,,合同会社,埼玉県,越谷市,南町１丁目１３番８号,,11,222,3430832,,,,,,,2025-05-23,1,,,,,,0
1986,8030003026825,新規,0,2025-05-23,2025-05-23,恵幸合同会社,,合同会社,埼玉県,川口市,本町１丁目７番１９号,,11,203,3320012,,,,,,,2025-05-23,1,,,,,ケイコウ,0
1994,8040003027616,新規,0,2025-05-23,2025-05-23,アラインワールド合同会社,,合同会社,千葉県,印西市,牧の原６丁目６－２１,,12,231,2701331,,,,,,,2025-05-23,1,,,,,アラインワールド,0
1995,8040005022788,新規,0,2025-05-23,2025-05-23,一般社団法人上総麻産業振興会,,その他の設立登記法人,千葉県,市原市,東国吉４９５番地,,12,219,2900163,,,,,,,2025-05-23,1,,,,,ジョウソウアササンギョウシンコ,0
1998,8050003009290,新規,0,2025-05-23,2025-05-23,三金産業合同会社,,合同会社,茨城県,笠間市,小原４５１７－２,,08,216,3091701,,,,,,,2025-05-23,1,,,,,サンキンサンギョウ,0
2000,8060003005561,新規,0,2025-05-23,2025-05-23,太陽のひかり合同会社,,合同会社,栃木県,佐野市,堀米町１２８８番地１８,,09,204,3270843,,,,,,,2025-05-23,1,,,,,タイヨウノヒカリ,0
2002,8070003005932,新規,0,2025-05-23,2025-05-23,合同会社蔵,,合同会社,群馬県,前橋市,箱田町５９４番地２リュミエールＡ１１２,,10,201,3710837,,,,,,,2025-05-23,1,,,,,クラ,0
2019,8110001039283,新規,0,2025-05-23,2025-05-23,株式会社ｈａｌｏ,,株式会社,新潟県,新潟市西蒲区,松山１６番地２,,15,108,9530016,,,,,,,2025-05-23,1,,,,,ハロ,0
2027,8120001276017,新規,0,2025-05-23,2025-05-23,株式会社楽心,,株式会社,大阪府,大阪市東淀川区,東中島１丁目１７－５－２３０号,,27,114,5330033,,,,,,,2025-05-23,1,,,,,ラクシン,0
2028,8120001276041,新規,0,2025-05-23,2025-05-23,恒泰株式会社,,株式会社,大阪府,大阪市淀川区,十三本町１丁目１８－７－７０６,,27,123,5320024,,,,,,,2025-05-23,1,,,,,コウタイ,0
2029,8120001276058,新規,0,2025-05-23,2025-05-23,柏舟地産株式会社,,株式会社,大阪府,大阪市城東区,関目５丁目１９番９号関目花博公館４０８Ｂ,,27,118,5360008,,,,,,,2025-05-23,1,,,,,ハクシュウチサン,0
2030,8120001276074,新規,0,2025-05-23,2025-05-23,ＵＮＲＵＩＥＮ株式会社,,株式会社,大阪府,大阪市平野区,平野馬場１丁目５番２５－１０１号,,27,126,5470048,,,,,,,2025-05-23,1,,,,,アンルイエン,0
2032,8120003029447,新規,0,2025-05-23,2025-05-23,合同会社ＮＡＫＡ商会,,合同会社,大阪府,大阪市西淀川区,大和田６丁目１６番２７号,,27,113,5550032,,,,,,,2025-05-23,1,,,,,ナカショウカイ,0
2033,8120003029521,新規,0,2025-05-23,2025-05-23,Ｄｕｎｇ　Ａｎ合同会社,,合同会社,大阪府,大阪市東住吉区,湯里２丁目１３番地２－３０１号室,,27,121,5460013,,,,,,,2025-05-23,1,,,,,ズンアン,0
2038,8120903005670,新規,0,2025-05-23,2025-05-23,合同会社Ｕｌｕ,,合同会社,大阪府,豊中市,柴原町３丁目３番１５号,,27,203,5600055,,,,,,,2025-05-23,1,,,,,ウル,0
2043,8130001079724,新規,0,2025-05-23,2025-05-23,Ｍｏｒｉ株式会社,,株式会社,京都府,京都市伏見区,深草西浦町７丁目１９番地Ｂ棟１０７－Ｂ,,26,109,6120029,,,,,,,2025-05-23,1,,,,,モリ,0
2044,8130001079732,新規,0,2025-05-23,2025-05-23,株式会社晟銘社,,株式会社,京都府,京都市右京区,山ノ内北ノ口町１９番地１－４Ｆ,,26,108,6150094,,,,,,,2025-05-23,1,,,,,セイメイシャ,0
2048,8140001138636,新規,0,2025-05-23,2025-05-23,ＥＴＬＡＳ株式会社,,株式会社,兵庫県,神戸市兵庫区,上庄通３丁目１－１－２Ｆ、２Ｄ室,,28,105,6520862,,,,,,,2025-05-23,1,,,,,エトラス,0
2049,8140001138644,新規,0,2025-05-23,2025-05-23,株式会社Ｓｔｅｍ　Ｃｅｌｌ　Ｂｅａｕｔｙ,,株式会社,兵庫県,神戸市西区,井吹台西町４丁目３０番地の２,,28,111,6512243,,,,,,,2025-05-23,1,,,,,ステムセルビューティ,0
2078,8230001020917,新規,0,2025-05-23,2025-05-23,株式会社河合バット製作所,,株式会社,富山県,南砺市,法林寺１７７番地２,,16,210,9391626,,,,,,,2025-05-23,1,,,,,カワイバットセイサクショ,0
2079,8230003002434,新規,0,2025-05-23,2025-05-23,合同会社Ｍ‐Ｌｉｎｋ,,合同会社,富山県,高岡市,長江２９番地の２,,16,202,9330959,,,,,,,2025-05-23,1,,,,,エムリンク,0
2080,8230005009477,新規,0,2025-05-23,2025-05-23,一般社団法人Ｆｒｉｎｇｅ,,その他の設立登記法人,富山県,下新川郡入善町,入膳１４４番地１,,16,342,9390626,,,,,,,2025-05-23,1,,,,,フリンジ,0
2081,8240001009125,新規,0,2025-05-23,2025-05-23,広島小野田レミコン株式会社,,株式会社,広島県,広島市中区,南吉島２丁目４番４１号,,34,101,7300826,,,,,,,2025-05-23,1,,,,,ヒロシマオノダレミコン,0
2084,8260001040210,新規,0,2025-05-23,2025-05-23,太郎吉不動産株式会社,,株式会社,岡山県,倉敷市,児島赤崎４丁目１４番１８号,,33,202,7110931,,,,,,,2025-05-23,1,,,,,タロキチフドウサン,0
2088,8290001110019,新規,0,2025-05-23,2025-05-23,株式会社マハー,,株式会社,福岡県,福岡市中央区,赤坂１丁目１３－１０,,40,133,8100042,,,,,,,2025-05-23,1,,,,,,0
2098,8350001019542,新規,0,2025-05-23,2025-05-23,株式会社ファーストブック,,株式会社,宮崎県,宮崎市,清水２丁目１０番３０号アルテマイスター黒迫通り４０６号,,45,201,8800021,,,,,,,2025-05-23,1,,,,,ファーストブック,0
2127,8700150130683,新規,0,2025-05-23,2025-05-23,ＡＪＩ　ＥＮＴＥＲＰＲＩＳＥＳ,,外国会社等,千葉県,大網白里市,柳橋８４４－６,,12,239,2993263,スリランカ民主社会主義共和国、アクラナ、マータレロード、ＮＯ．４６／１,,,,,,2025-05-23,1,,,,,アジエンタープライセス,0
2134,9010001255105,新規,0,2025-05-23,2025-05-23,株式会社木村千盃,,株式会社,東京都,千代田区,麹町３丁目１－８－７０１,,13,101,1020083,,,,,,,2025-05-23,1,,,,,キムラセンバイ,0
2135,9010001255245,新規,0,2025-05-23,2025-05-23,隆翔国際株式会社,,株式会社,東京都,中央区,日本橋久松町９番１２号８階,,13,102,1030005,,,,,,,2025-05-23,1,,,,,リュウショウコクサイ,0
2137,9010003047426,新規,0,2025-05-23,2025-05-23,合同会社ＣＡＳＥ,,合同会社,東京都,千代田区,神田小川町３丁目１４番３－２０４号,,13,101,1010052,,,,,,,2025-05-23,1,,,,,ケース,0
2138,9010005040065,新規,0,2025-05-23,2025-05-23,クラフツ監査法人,,その他の設立登記法人,東京都,千代田区,丸の内２丁目４－１,,13,101,1000005,,,,,,,2025-05-23,1,,,,,クラフツ,0
2139,9010005040073,新規,0,2025-05-23,2025-05-23,医療法人社団ｈａｎｏｈａｎｏ,,その他の設立登記法人,東京都,中央区,日本橋人形町２丁目２番３号アライヴ人形町２階,,13,102,1030013,,,,,,,2025-05-23,1,,,,,ハノハノ,0
2148,9010401190208,新規,0,2025-05-23,2025-05-23,中庭株式会社,,株式会社,東京都,港区,赤坂２丁目２１番５号ＡＢＣ・Ａ－２,,13,103,1070052,,,,,,,2025-05-23,1,,,,,チュウテイ,0
2149,9010403035187,新規,0,2025-05-23,2025-05-23,合同会社みなと００６,,合同会社,東京都,港区,虎ノ門３丁目２２番１０－２０１号,,13,103,1050001,,,,,,,2025-05-23,1,,,,,ミナトゼロゼロシックス,0
2154,9010601002699,新規,0,2025-05-23,2025-05-23,コミネインプレス株式会社,,株式会社,東京都,江東区,木場３丁目７番１４号,,13,108,1350042,,,,,,,2025-05-23,1,,,,,,0
2163,9010901057410,新規,0,2025-05-23,2025-05-23,株式会社ＯＢＡＲＡ,,株式会社,東京都,世田谷区,等々力７丁目２７－１７,,13,112,1580082,,,,,,,2025-05-23,1,,,,,オバラ,0
2174,9011001169583,新規,0,2025-05-23,2025-05-23,株式会社ギブリーコンサルティング,,株式会社,東京都,渋谷区,南平台町１５－１３帝都渋谷ビル８階,,13,113,1500036,,,,,,,2025-05-23,1,,,,,ギブリーコンサルティング,0
2175,9011001169708,新規,0,2025-05-23,2025-05-23,株式会社タイタンワークス,,株式会社,東京都,渋谷区,恵比寿西１丁目１３番７号５ビル３０１,,13,113,1500021,,,,,,,2025-05-23,1,,,,,タイタンワークス,0
2176,9011001169955,新規,0,2025-05-23,2025-05-23,株式会社Ｔｈｅ　ＳｔａｎｄＯｕｔ,,株式会社,東京都,渋谷区,鶯谷町３番４,,13,113,1500032,,,,,,,2025-05-23,1,,,,,ザスタンドアウト,0
2179,9011005011031,新規,0,2025-05-23,2025-05-23,一般社団法人日本の国益を実現する会,,その他の設立登記法人,東京都,目黒区,鷹番３丁目１９－２第８エスペランス３階,,13,110,1520004,,,,,,,2025-05-23,1,,,,,ニッポンノコクエキヲジツゲンスルカイ,0
2184,9011101111775,新規,0,2025-05-23,2025-05-23,グランツリー・パートナーズ株式会社,,株式会社,東京都,新宿区,西新宿３丁目３番１３号西新宿水間ビル２Ｆ,,13,104,1600023,,,,,,,2025-05-23,1,,,,,グランツリーパートナーズ,0
2187,9011103015925,新規,0,2025-05-23,2025-05-23,合同会社Ａｓａｇｉｒｉ　Ｅｎｔｅｒｔａｉｎｍｅｎｔ,,合同会社,東京都,新宿区,新宿２丁目１０－７ＴＯＭビル２階,,13,104,1600022,,,,,,,2025-05-23,1,,,,,アサギリエンターテインメント,0
2193,9011503006549,新規,0,2025-05-23,2025-05-23,合同会社Ｋｅｙ,,合同会社,東京都,北区,岩淵町３７番９,,13,117,1150041,,,,,,,2025-05-23,1,,,,,キー,0
2197,9011801046148,新規,0,2025-05-23,2025-05-23,株式会社ＲＨ,,株式会社,東京都,葛飾区,鎌倉３丁目２９番２号,,13,122,1250053,,,,,,,2025-05-23,1,,,,,アールエイチ,0
2205,9012305002133,新規,0,2025-05-23,2025-05-23,一般社団法人日本みらい医療福祉共創協会,,その他の設立登記法人,東京都,町田市,中町１丁目４番２号,,13,209,1940021,,,,,,,2025-05-23,1,,,,,ニホンミライイリョウフクシキョウソウキョウカイ,0
2217,9020003028474,新規,0,2025-05-23,2025-05-23,合同会社情,,合同会社,神奈川県,横浜市港北区,鳥山町１９６－１コンフォールＡ２０１,,14,109,2220035,,,,,,,2025-05-23,1,,,,,ジョウ,0
2218,9020003028540,新規,0,2025-05-23,2025-05-23,合同会社ココロミ,,合同会社,神奈川県,横浜市中区,元町４丁目１６８,,14,104,2310861,,,,,,,2025-05-23,1,,,,,ココロミ,0
2230,9030001166663,新規,0,2025-05-23,2025-05-23,株式会社フレンツ,,株式会社,埼玉県,さいたま市緑区,大字中尾１８２８番地１４,,11,109,3360932,,,,,,,2025-05-23,1,,,,,フレンツ,0
2242,9040001138892,新規,0,2025-05-23,2025-05-23,株式会社カーサソレイユ,,株式会社,千葉県,館山市,坂田４２０－３,,12,205,2940308,,,,,,,2025-05-23,1,,,,,カーサソレイユ,0
2254,9070001042951,新規,0,2025-05-23,2025-05-23,株式会社トモケン,,株式会社,群馬県,安中市,原市１５８０番地１,,10,211,3790133,,,,,,,2025-05-23,1,,,,,トモケン,0
2260,9070003005931,新規,0,2025-05-23,2025-05-23,嬉々合同会社,,合同会社,群馬県,前橋市,駒形町８１５番地４,,10,201,3792122,,,,,,,2025-05-23,1,,,,,,0
2264,9080101025509,新規,0,2025-05-23,2025-05-23,株式会社きくかわ御殿場,,株式会社,静岡県,御殿場市,東山９６４番地の６,,22,215,4120024,,,,,,,2025-05-23,1,,,,,キクカワゴテンバ,0
2273,9100003008170,新規,0,2025-05-23,2025-05-23,スマイルブレイン合同会社,,合同会社,長野県,小諸市,大字市９０７番地,,20,208,3840083,,,,,,,2025-05-23,1,,,,,スマイルブレイン,0
2277,9110005017235,新規,0,2025-05-23,2025-05-23,一般社団法人日本ノーディグ協会,,その他の設立登記法人,新潟県,長岡市,飯塚１９８６番地,,15,202,9495414,,,,,,,2025-05-23,1,,,,,ニホンノーディグキョウカイ,0
2288,9120001276016,新規,0,2025-05-23,2025-05-23,Ｋ．Ｍ　ＴＲＡＤＩＮＧ株式会社,,株式会社,大阪府,大阪市淀川区,塚本４丁目１１番６号塚本壱番館３０４号,,27,123,5320026,,,,,,,2025-05-23,1,,,,,ケーエムトレーディング,0
2289,9120001276040,新規,0,2025-05-23,2025-05-23,君正株式会社,,株式会社,大阪府,大阪市住吉区,東粉浜３丁目１－７－３０６室,,27,120,5580051,,,,,,,2025-05-23,1,,,,,クンセイ,0
2290,9120001276065,新規,0,2025-05-23,2025-05-23,株式会社Ｈ‐ｂｒｉｄｇｅ,,株式会社,大阪府,大阪市中央区,南船場３丁目８－７,,27,128,5420081,,,,,,,2025-05-23,1,,,,,エイチブリッジ,0
2291,9120001276073,新規,0,2025-05-23,2025-05-23,大龍ホーム株式会社,,株式会社,大阪府,大阪市浪速区,恵美須東２丁目６番１５－３０２号,,27,111,5560002,,,,,,,2025-05-23,1,,,,,ダイリュウホーム,0
2292,9120001276098,新規,0,2025-05-23,2025-05-23,仲盛合株式会社,,株式会社,大阪府,大阪市大正区,三軒家西３丁目４番１６号中山ビル３０８Ｂ,,27,108,5510001,,,,,,,2025-05-23,1,,,,,チュウセイゴウ,0
2293,9120001276123,新規,0,2025-05-23,2025-05-23,株式会社はなっこ,,株式会社,大阪府,大阪市城東区,中浜１丁目１５番２号,,27,118,5360024,,,,,,,2025-05-23,1,,,,,ハナッコ,0
2298,9120003029495,新規,0,2025-05-23,2025-05-23,ＴＴＬ合同会社,,合同会社,大阪府,大阪市西成区,鶴見橋２丁目９番１１号三源ハウス１０１,,27,122,5570031,,,,,,,2025-05-23,1,,,,,ティーティーエル,0
2301,9120901050908,新規,0,2025-05-23,2025-05-23,ＷｉｎｇＲｅｉ株式会社,,株式会社,大阪府,池田市,荘園１丁目５番１４号,,27,204,5630038,,,,,,,2025-05-23,1,,,,,ウイングレイ,0
2302,9120901050916,新規,0,2025-05-23,2025-05-23,アイプロホーム株式会社,,株式会社,大阪府,高槻市,郡家新町７番１９号,,27,207,5691136,,,,,,,2025-05-23,1,,,,,アイプロホーム,0
2307,9130001079723,新規,0,2025-05-23,2025-05-23,博雅不動産株式会社,,株式会社,京都府,京都市伏見区,深草越後屋敷町６７番地６メゾンタイム墨染２０１号室,,26,109,6128431,,,,,,,2025-05-23,1,,,,,ヒロマサフドウサン,0
2308,9130003010479,新規,0,2025-05-23,2025-05-23,ＭＯＮＯ　ＰＬＵＳ合同会社,,合同会社,京都府,宇治市,六地蔵町並３８番地の１ブランズ六地蔵ユニハイム１５０６号,,26,204,6110001,,,,,,,2025-05-23,1,,,,,モノプラス,0
2317,9140001138643,新規,0,2025-05-23,2025-05-23,株式会社スイミーよく,,株式会社,兵庫県,明石市,魚住町西岡５０４番地の２１レーク魚住１－Ｃ号室,,28,203,6740084,,,,,,,2025-05-23,1,,,,,スイミーヨク,0
2323,9140003022093,新規,0,2025-05-23,2025-05-23,ＮＶＴ合同会社,,合同会社,兵庫県,姫路市,船津町１９６５番地１,,28,201,6792101,,,,,,,2025-05-23,1,,,,,エヌブイティー,0
2329,9150001028141,新規,0,2025-05-23,2025-05-23,株式会社信和貿易,,株式会社,奈良県,生駒市,壱分町６７番地２９３,,29,209,6300222,,,,,,,2025-05-23,1,,,,,シンワボウエキ,0
2339,9180001166789,新規,0,2025-05-23,2025-05-23,株式会社ファリミーアセット,,株式会社,愛知県,大府市,桃山町４丁目１５６番地の４,,23,223,4740026,,,,,,,2025-05-23,1,,,,,ファリミーアセット,0
2340,9180001166905,新規,0,2025-05-23,2025-05-23,メイツコア株式会社,,株式会社,愛知県,名古屋市北区,黒川本通２丁目２３番地,,23,103,4620841,,,,,,,2025-05-23,1,,,,,メイツコア,0
2341,9180001166921,新規,0,2025-05-23,2025-05-23,株式会社勝田,,株式会社,愛知県,尾張旭市,平子町長池上６４１９番地６,,23,226,4880872,,,,,,,2025-05-23,1,,,,,カツタ,0
2343,9180303006577,新規,0,2025-05-23,2025-05-23,合同会社Ｃｒｏｓｓ　Ｃｌｏｖｅｒ,,合同会社,愛知県,豊田市,小坂本町１丁目９番地３,,23,211,4710034,,,,,,,2025-05-23,1,,,,,クロスクローバー,0
2346,9200001043812,新規,0,2025-05-23,2025-05-23,株式会社Ｉｒｏｈａ　Ｗｏｒｋｓ,,株式会社,岐阜県,下呂市,湯之島４９９番地５,,21,220,5092207,,,,,,,2025-05-23,1,,,,,イロハワークス,0
2353,9230001020866,新規,0,2025-05-23,2025-05-23,立山山麓蒸溜所株式会社,,株式会社,富山県,富山市,丸の内１丁目８番１７号新丸の内ビル４Ｆ,,16,201,9300085,,,,,,,2025-05-23,1,,,,,タテヤマサンロクジョウリュウジョ,0
2369,9280003001950,新規,0,2025-05-23,2025-05-23,シガクミライ合同会社,,合同会社,島根県,大田市,三瓶町志学２０６５番地２,,32,205,6940222,,,,,,,2025-05-23,1,,,,,シガクミライ,0
2383,9320001021112,新規,0,2025-05-23,2025-05-23,株式会社マカンリゾート,,株式会社,大分県,由布市,湯布院町川上３４２番地１,,44,213,8795102,,,,,,,2025-05-23,1,,,,,マカンリゾート,0
2390,9360003014952,新規,0,2025-05-23,2025-05-23,合同会社ａｍｂｅｒ,,合同会社,沖縄県,那覇市,字安謝７４番地レジデンスちねん２０１,,47,201,9000003,,,,,,,2025-05-23,1,,,,,アンバー,0
2394,9370003007105,新規,0,2025-05-23,2025-05-23,Ｃｏｕｃｈ　Ｃｒｅａｔｉｖｅｓ合同会社,,合同会社,宮城県,石巻市,あゆみ野２丁目１１－７,,04,202,9860850,,,,,,,2025-05-23,1,,,,,カウチクリエイティブズ,0
2402,9390003002392,新規,0,2025-05-23,2025-05-23,合同会社Ｅｎｒｉｎ,,合同会社,山形県,天童市,芳賀タウン南２丁目８番１２号,,06,210,9940083,,,,,,,2025-05-23,1,,,,,,0
2411,9430001094469,新規,0,2025-05-23,2025-05-23,株式会社ブロッサム,,株式会社,北海道,札幌市中央区,南二条西２５丁目２番３０－１０６号室,,01,101,0640802,,,,,,,2025-05-23,1,,,,,ブロッサム,0
2412,9430001094477,新規,0,2025-05-23,2025-05-23,株式会社中鉢左官,,株式会社,北海道,虻田郡倶知安町,北七条西１丁目２番地２,,01,400,0440057,,,,,,,2025-05-23,1,,,,,チュウバチサカン,0
2417,9700150130682,新規,0,2025-05-23,2025-05-23,ＣＲＯＷＮ　ＡＵＴＯ,,外国会社等,千葉県,香取郡神崎町,古原乙３２６番地２１２オフィスＣ,,12,342,2890215,スリランカ民主社会主義共和国、パンチガワタ、マルダナロード、Ｎｏ．４５０Ｆ,,,,,,2025-05-23,1,,,,,クラウンオート,0
