sequenceNumber,corporateNumber,process,correct,updateDate,changeDate,name,nameImageId,kind,prefectureName,cityName,streetNumber,addressImageId,prefectureCode,cityCode,postCode,addressOutside,addressOutsideImageId,closeDate,closeCause,successorCorporateNumber,changeCause,assignmentDate,latest,enName,enPrefectureName,enCityName,enAddressOutside,furigana,hihyoji
18,1010402029916,登記記録の閉鎖等,0,2025-07-08,2025-06-16,有限会社昂電工,,有限会社,東京都,港区,高輪２丁目１５－５,,13,103,1080074,,,2025-06-16,清算の結了等,,,2015-10-05,1,,,,,,0
23,1010501030808,登記記録の閉鎖等,0,2025-07-08,2025-06-30,株式会社クリード,,株式会社,埼玉県,戸田市,本町２丁目６番５号サンヒルズセキ２０３号,,11,224,3350023,,,2025-06-30,清算の結了等,,,2015-10-05,1,,,,,クリード,0
26,1010601061117,登記記録の閉鎖等,0,2025-07-08,2025-06-27,株式会社ＴＹＴフードサービス,,株式会社,東京都,墨田区,石原２丁目７番３号,,13,107,1300011,,,2025-06-27,清算の結了等,,,2022-05-11,1,,,,,ティーワイティーフードサービス,0
31,1010801008727,登記記録の閉鎖等,0,2025-07-08,2025-06-30,長野電機株式会社,,株式会社,東京都,大田区,大森西３丁目１２番２２号,,13,111,1430015,,,2025-06-30,清算の結了等,,,2015-10-05,1,,,,,ナガノデンキ,0
35,1010902014392,登記記録の閉鎖等,0,2025-07-08,2025-07-04,有限会社マネジメント・インプルーブメント研究所,00052914,有限会社,東京都,世田谷区,三宿２丁目３３番１８－４０２号,,13,112,1540005,,,2025-07-04,清算の結了等,,,2015-10-05,1,,,,,マネジメントインプルーブメント,0
44,1011003013441,登記記録の閉鎖等,0,2025-07-08,2025-06-10,合同会社カフカノネコ,,合同会社,東京都,渋谷区,神宮前３丁目６番１９号,,13,113,1500001,,,2025-06-10,清算の結了等,,,2021-10-04,1,,,,,カフカノネコ,0
63,1012701002537,登記記録の閉鎖等,0,2025-07-08,2025-06-26,株式会社丸和事務所,,株式会社,東京都,新宿区,高田馬場４丁目２３番２８号ヒルズＩＳＨＩＤＡ２０１号,,13,104,1690075,,,2025-06-26,清算の結了等,,,2015-10-05,1,,,,,マルワジムショ,0
75,1020003018111,登記記録の閉鎖等,0,2025-07-08,2025-06-30,Ｗｉｌｌ　Ｓｕｚｕｋｉ＆Ｃｏ．合同会社,,合同会社,神奈川県,横浜市都筑区,東山田４丁目５番３－１１３号,,14,118,2240023,,,2025-06-30,清算の結了等,,,2020-07-03,1,,,,,ウィルスズキアンドカンパニー,0
80,1030001055519,登記記録の閉鎖等,0,2025-07-08,2025-06-30,株式会社フレッシュサービス,,株式会社,埼玉県,川越市,脇田本町３１番地１（コスモシティ川越１００７号室）,,11,201,3501123,,,2025-06-30,清算の結了等,,,2015-10-05,1,,,,,フレッシュサービス,0
87,1030002071102,登記記録の閉鎖等,0,2025-07-08,2025-06-30,有限会社ハーツ,,有限会社,埼玉県,春日部市,備後東７丁目２２番１６号,,11,214,3440032,,,2025-06-30,清算の結了等,,,2015-10-05,1,,,,,ハーツ,0
115,1110002027954,登記記録の閉鎖等,0,2025-07-08,2025-06-19,有限会社城南不動産,,有限会社,新潟県,長岡市,宮内８丁目６番２２号,,15,202,9401106,,,2025-06-19,清算の結了等,,,2015-10-05,1,,,,,ジョウナンフドウサン,0
130,1120901036609,登記記録の閉鎖等,0,2025-07-08,2025-06-25,株式会社シンセイ,,株式会社,大阪府,大阪市中央区,本町１丁目１番３号,,27,128,5410053,,,2025-06-25,清算の結了等,,,2016-03-07,1,,,,,シンセイ,0
161,1180005001363,登記記録の閉鎖等,0,2025-07-08,2025-06-26,御嶽教敬神教会,,その他の設立登記法人,愛知県,名古屋市東区,東矢場町一丁目２番地,,23,102,4610000,,,2025-06-26,清算の結了等,,,2015-10-05,1,,,,,オンタケキョウケイシンキョウカイ,1
170,1200001031064,登記記録の閉鎖等,0,2025-07-08,2025-07-01,株式会社メカランド,,株式会社,岐阜県,不破郡垂井町,岩手１９８５番地の２９,,21,361,5032107,,,2025-07-01,清算の結了等,,,2015-10-05,1,,,,,メカランド,0
172,1200002000282,登記記録の閉鎖等,0,2025-07-08,2025-06-30,有限会社イーグル観光,,有限会社,岐阜県,岐阜市,加納水野町１丁目９番地,,21,201,5008477,,,2025-06-30,清算の結了等,,,2015-10-05,1,,,,,イーグルカンコウ,0
175,1220003002961,登記記録の閉鎖等,0,2025-07-08,2025-07-01,合同会社ＦＯＲＣＥ,,合同会社,石川県,金沢市,高尾台１丁目１０７番地（ラフォーレ高尾台・３０２号）,,17,201,9218155,,,2025-07-01,清算の結了等,,,2021-01-07,1,,,,,,0
178,1230001006261,登記記録の閉鎖等,0,2025-07-08,2025-07-01,サワキ工舎株式会社,,株式会社,富山県,富山市,東岩瀬町４０２番地,,16,201,9318358,,,2025-07-01,清算の結了等,,,2015-10-05,1,,,,,サワキコウシャ,0
182,1250003002876,登記記録の閉鎖等,0,2025-07-08,2025-06-20,合同会社雫,,合同会社,山口県,周南市,若宮町２丁目３７番地,,35,215,7450016,,,2025-06-20,清算の結了等,,,2021-07-29,1,,,,,シズク,0
184,1280001003535,登記記録の閉鎖等,0,2025-07-08,2025-07-01,株式会社ホンダカーズ出雲,,株式会社,島根県,出雲市,斐川町荘原２２４２番地２,,32,203,6990502,,,2025-07-01,合併による解散等,7280001000667,令和７年７月１日島根県松江市西津田四丁目２番８号株式会社ホンダカーズ島根（7280001000667）に合併し解散,2015-10-05,1,,,,,ホンダカーズイズモ,0
208,1370803000027,登記記録の閉鎖等,0,2025-07-08,2025-06-25,合資会社東北ファミリー,,合資会社,宮城県,岩沼市,中央３丁目５番１７号,,04,211,9892432,,,2025-06-25,清算の結了等,,,2015-10-05,1,,,,,トウホクファミリー,0
214,1410002005698,登記記録の閉鎖等,0,2025-07-08,2025-07-03,有限会社鈴木建設,,有限会社,秋田県,南秋田郡井川町,黒坪字越雄３３番地の３,,05,366,0181513,,,2025-07-03,清算の結了等,,,2015-10-05,1,,,,,スズキケンセツ,0
215,1410005002387,登記記録の閉鎖等,0,2025-07-08,2025-07-01,秋田県湯沢雄勝建設事業協同組合,,その他の設立登記法人,秋田県,湯沢市,千石町２丁目１番１１号,,05,207,0120857,,,2025-07-01,清算の結了等,,,2015-10-05,1,,,,,アキタケンユザワオガチケンセツ,0
233,1460102005602,登記記録の閉鎖等,0,2025-07-08,2025-07-03,有限会社井出重機鉄工,,有限会社,北海道,河東郡上士幌町,字上士幌東２線２４６番地,,01,633,0801408,,,2025-07-03,清算の結了等,,,2015-10-05,1,,,,,イデジュウキテッコウ,0
236,1490003001185,登記記録の閉鎖等,0,2025-07-08,2025-06-19,合同会社やまいのソーラーパワー,,合同会社,東京都,港区,虎ノ門３丁目２２番１０－２０１号,,13,103,1050001,,,2025-06-19,清算の結了等,,,2017-12-22,1,,,,,ヤマイノソーラーパワー,0
237,1500001023048,登記記録の閉鎖等,0,2025-07-08,2025-06-27,日鋼ビルド株式会社,,株式会社,愛媛県,新居浜市,新田町２丁目１番５号,,38,205,7920003,,,2025-06-27,清算の結了等,,,2020-12-04,1,,,,,ニッコウビルド,0
238,1500002016232,登記記録の閉鎖等,0,2025-07-08,2025-06-30,有限会社ケイソー,,有限会社,愛媛県,新居浜市,庄内町１丁目６番２６号,,38,205,7920811,,,2025-06-30,清算の結了等,,,2015-10-05,1,,,,,ケイソー,0
244,2010001056096,登記記録の閉鎖等,0,2025-07-08,2025-06-27,株式会社フタバヤ靴店,,株式会社,大阪府,大阪市北区,中津１丁目６番２９－１００５号,,27,127,5310071,,,2025-06-27,清算の結了等,,,2015-10-05,1,,,,,フタバヤクツテン,0
261,2010403023850,登記記録の閉鎖等,0,2025-07-08,2025-06-03,合同会社桜川ホールディングス,,合同会社,大阪府,大阪市北区,梅田２丁目５番１３号,,27,127,5300001,,,2025-06-03,清算の結了等,,,2020-10-06,1,,,,,サクラガワホールディングス,0
277,2010903005679,登記記録の閉鎖等,0,2025-07-08,2025-07-03,ティエムシー合同会社,,合同会社,東京都,世田谷区,豪徳寺２丁目１４番１０－３３１号,,13,112,1540021,,,2025-07-03,清算の結了等,,,2020-05-11,1,,,,,ティエムシー,0
294,2011702011934,登記記録の閉鎖等,0,2025-07-08,2025-06-30,有限会社山崎機械工業,,有限会社,東京都,江戸川区,松江６丁目８番１５号,,13,123,1320025,,,2025-06-30,清算の結了等,,,2015-10-05,1,,,,,ヤマザキキカイコウギョウ,0
310,2020001062894,登記記録の閉鎖等,0,2025-07-08,2025-07-02,株式会社ＳＲＭ,,株式会社,神奈川県,横浜市中区,尾上町４丁目５４番地ＫａｎｎａｉＥＸ４Ｆ,,14,104,2310015,,,2025-07-02,清算の結了等,,,2015-10-05,1,,,,,エスアールエム,0
330,2021003005049,登記記録の閉鎖等,0,2025-07-08,2025-07-02,セレンデピティ合同会社,,合同会社,神奈川県,大和市,下鶴間２丁目２番３１－１４０１号,,14,213,2420001,,,2025-07-02,清算の結了等,,,2015-10-05,1,,,,,セレンデピティ,0
334,2030001093451,登記記録の閉鎖等,0,2025-07-08,2025-06-30,株式会社Ｔｓｕｔｓｕｍｉ,,株式会社,埼玉県,入間郡三芳町,みよし台６番地１５－１０７,,11,324,3540042,,,2025-06-30,清算の結了等,,,2015-10-05,1,,,,,ツツミ,0
339,2030002027739,登記記録の閉鎖等,0,2025-07-08,2025-06-30,有限会社タクト,,有限会社,埼玉県,戸田市,笹目４丁目３５番５号,,11,224,3350034,,,2025-06-30,清算の結了等,,,2015-10-05,1,,,,,タクト,0
342,2030002072925,登記記録の閉鎖等,0,2025-07-08,2025-06-30,株式会社プロスパー,,株式会社,埼玉県,川越市,大字上戸２２７番地,,11,201,3500816,,,2025-06-30,清算の結了等,,,2015-10-05,1,,,,,プロスパー,0
358,2080101003999,登記記録の閉鎖等,0,2025-07-08,2025-06-30,勝間田機械商事株式会社,,株式会社,静岡県,御殿場市,川島田５２３番地,,22,215,4120045,,,2025-06-30,清算の結了等,,,2015-10-05,1,,,,,カツマタキカイショウジ,0
369,2100005007053,登記記録の閉鎖等,0,2025-07-08,2025-07-01,特定非営利活動法人えみーる,,その他の設立登記法人,長野県,安曇野市,豊科４４９２番地１８,,20,220,3998205,,,2025-07-01,清算の結了等,,,2015-10-05,1,,,,,エミール,0
370,2120001023886,登記記録の閉鎖等,0,2025-07-08,2025-06-27,株式会社スター海外観光,,株式会社,大阪府,大阪市天王寺区,真田山町２番２号,,27,109,5430015,,,2025-06-27,清算の結了等,,,2015-10-05,1,,,,,スターカイガイカンコウ,0
371,2120001171883,登記記録の閉鎖等,0,2025-07-08,2025-07-04,株式会社ネイカーホワイト,,株式会社,兵庫県,伊丹市,松ケ丘４丁目６７番地,,28,207,6640024,,,2025-07-04,合併による解散等,9120001230088,令和７年６月３０日大阪市北区天神橋二丁目５番２５号４０８号室株式会社あかりやホールディングス（9120001230088）に合併し解散,2015-10-05,1,,,,,ネイカーホワイト,0
397,2140001120269,登記記録の閉鎖等,0,2025-07-08,2025-07-01,株式会社ｍｏｃｃｈｉ,,株式会社,兵庫県,神戸市中央区,磯上通８丁目１番２９号カサベラビルＣ＆Ｍ４０３号室,,28,110,6510086,,,2025-07-01,清算の結了等,,,2021-01-29,1,,,,,モッチ,0
422,2210001016294,登記記録の閉鎖等,0,2025-07-08,2025-06-30,株式会社ナノ・ブレイン,,株式会社,福井県,鯖江市,平井町第５７号５番地１３,,18,207,9160061,,,2025-06-30,清算の結了等,,,2016-04-08,1,,,,,ナノブレイン,0
429,2230001016284,登記記録の閉鎖等,0,2025-07-08,2025-06-11,株式会社コ・クリエーション,,株式会社,富山県,富山市,根塚町３丁目８番７号,00126750,16,201,9398204,,,2025-06-11,合併による解散等,6230001014425,令和７年５月２７日富山市根塚町三丁目８番７号株式会社ａｎｄ　ＵＳ（6230001014425）に合併し解散,2016-02-02,1,,,,,コクリエーション,0
450,2290805004859,登記記録の閉鎖等,0,2025-07-08,2025-06-17,朝霧神社,,その他の設立登記法人,福岡県,中間市,大字中間字朝霧１１９６番地,,40,215,8090034,,,2025-06-17,合併による解散等,9290805004877,令和７年６月１７日福岡県中間市中尾一丁目４番３号惣社宮（9290805004877）に合併し解散,2015-10-05,1,,,,,アサギリジンジャ,0
456,2320002012117,登記記録の閉鎖等,0,2025-07-08,2025-06-27,有限会社ハトヤ設計,,有限会社,大分県,別府市,秋葉町５番３３号,,44,202,8740937,,,2025-06-27,清算の結了等,,,2015-10-05,1,,,,,,0
459,2340001006712,登記記録の閉鎖等,0,2025-07-08,2025-06-26,サニープラザ株式会社,,株式会社,鹿児島県,鹿児島市,東千石町２番３０号,,46,201,8920842,,,2025-06-26,清算の結了等,,,2015-10-05,1,,,,,サニープラザ,0
473,2390002016251,登記記録の閉鎖等,0,2025-07-08,2025-06-25,有限会社菅野金型,,有限会社,山形県,西村山郡西川町,大字海味９１番地９,,06,322,9900702,,,2025-06-25,清算の結了等,,,2015-10-05,1,,,,,カンノカナガタ,0
483,2430001055816,登記記録の閉鎖等,0,2025-07-08,2025-06-26,株式会社スターレーシング,,株式会社,北海道,沙流郡日高町,字福満３０４番地の１,,01,601,0550003,,,2025-06-26,清算の結了等,,,2015-10-05,1,,,,,スターレーシング,0
485,2430001089789,登記記録の閉鎖等,0,2025-07-08,2025-06-24,株式会社八天堂北海道,,株式会社,北海道,札幌市中央区,北一条西３丁目３番地ばらと北一条ビル９Ｆ－３５,,01,101,0600001,,,2025-06-24,清算の結了等,,,2023-08-21,1,,,,,ハッテンドウホッカイドウ,0
498,2480005005465,登記記録の閉鎖等,0,2025-07-08,2025-06-30,医療法人さんさん医院,,その他の設立登記法人,徳島県,三好郡東みよし町,加茂２５４６番地４,,36,489,7794701,,,2025-06-30,清算の結了等,,,2015-10-05,1,,,,,サンサンイイン,0
509,3010001179334,登記記録の閉鎖等,0,2025-07-08,2025-07-01,Ａｐａｍａｎ　Ｅｎｅｒｇｙ株式会社,,株式会社,東京都,千代田区,丸の内１丁目８番１号丸の内トラストタワーＮ館,,13,101,1000005,,,2025-07-01,合併による解散等,7010001095222,令和７年７月１日東京都千代田区丸の内一丁目８番１号丸の内トラストタワーＮ館Ａｐａｍａｎ　Ｐｒｏｐｅｒｔｙ株式会社（7010001095222）に合併し解散,2016-11-04,1,,,,,アパマンエナジー,0
512,3010005028685,登記記録の閉鎖等,0,2025-07-08,2025-06-30,一般社団法人Ｂｅｒｒｙ,,その他の設立登記法人,東京都,千代田区,丸の内１丁目４番１号東京共同会計事務所内,,13,101,1000005,,,2025-06-30,清算の結了等,,,2018-06-19,1,,,,,ベリー,0
516,3010401162947,登記記録の閉鎖等,0,2025-07-08,2025-06-16,株式会社ＷＥ　Ａｓｓｏｃｉａｔｅｓ,,株式会社,東京都,港区,六本木５丁目１５番２１－６０１号,,13,103,1060032,,,2025-06-16,清算の結了等,,,2021-10-26,1,,,,,ウィーアソシエーツ,0
539,3011001113943,登記記録の閉鎖等,0,2025-07-08,2025-06-10,株式会社キッチホールディングス,,株式会社,東京都,目黒区,自由が丘１丁目３番１８号,,13,110,1520035,,,2025-06-10,清算の結了等,,,2016-12-09,1,,,,,キッチホールディングス,0
549,3011101019727,登記記録の閉鎖等,0,2025-07-08,2025-06-12,株式会社ほていや,,株式会社,東京都,新宿区,四谷４丁目６番地,,13,104,1600004,,,2025-06-12,清算の結了等,,,2015-10-05,1,,,,,ホテイヤ,0
559,3011401020731,登記記録の閉鎖等,0,2025-07-08,2025-06-20,ＡＣＧマネジメント株式会社,,株式会社,東京都,港区,赤坂２丁目１７番５０－２８０９号,,13,103,1070052,,,2025-06-20,清算の結了等,,,2017-12-22,1,,,,,エーシージーマネジメント,0
568,3011801043349,登記記録の閉鎖等,0,2025-07-08,2025-07-02,Ｇｌｏｖｏｙ株式会社,,株式会社,東京都,足立区,西新井本町５丁目２番４－１０１号,,13,121,1230845,,,2025-07-02,清算の結了等,,,2023-11-16,1,,,,,グロボ,0
575,3020001006826,登記記録の閉鎖等,0,2025-07-08,2025-07-01,株式会社マルトモ商店,,株式会社,神奈川県,横浜市神奈川区,栄町８９番地の２２,,14,102,2210052,,,2025-07-01,清算の結了等,,,2015-10-05,1,,,,,マルトモショウテン,0
603,3030001117894,登記記録の閉鎖等,0,2025-07-08,2025-06-30,株式会社ａｎｄ,,株式会社,埼玉県,富士見市,上沢１丁目１番８号,,11,235,3540034,,,2025-06-30,清算の結了等,,,2016-12-28,1,,,,,アンド,0
607,3030003013761,登記記録の閉鎖等,0,2025-07-08,2025-06-30,合同会社ｅｎｓｅｍｂｌｅ,,合同会社,埼玉県,川口市,大字辻１００４番地の２,00117044,11,203,3340004,,,2025-06-30,清算の結了等,,,2019-07-04,1,,,,,アンサンブル,0
624,3080101020300,登記記録の閉鎖等,0,2025-07-08,2025-06-30,ネクスト株式会社,,株式会社,静岡県,富士市,伝法２４８５番地の４,,22,210,4170061,,,2025-06-30,清算の結了等,,,2018-01-29,1,,,,,,0
633,3120001145993,登記記録の閉鎖等,0,2025-07-08,2025-06-26,株式会社キレイ,,株式会社,大阪府,大阪市天王寺区,上本町８丁目６番２１－６０７,,27,109,5430001,,,2025-06-26,清算の結了等,,,2015-10-05,1,,,,,キレイ,0
636,3120001195626,登記記録の閉鎖等,0,2025-07-08,2025-06-26,株式会社ナニワやきいも本舗,,株式会社,大阪府,大阪市都島区,片町１丁目７番１９号,,27,102,5340025,,,2025-06-26,清算の結了等,,,2016-01-12,1,,,,,,0
651,3120102021490,登記記録の閉鎖等,0,2025-07-08,2025-07-01,有限会社橋本電気,,有限会社,大阪府,岸和田市,加守町１丁目１６番３２号,,27,202,5960042,,,2025-07-01,清算の結了等,,,2015-10-05,1,,,,,ハシモトデンキ,0
657,3122001013593,登記記録の閉鎖等,0,2025-07-08,2025-07-04,株式会社エス・ケー・シー,,株式会社,大阪府,東大阪市,長田東５丁目１番３号,,27,227,5770012,,,2025-07-04,清算の結了等,,,2015-10-05,1,,,,,エスケーシー,0
662,3140001060679,登記記録の閉鎖等,0,2025-07-08,2025-07-01,株式会社ハクロ書房,,株式会社,兵庫県,姫路市,亀山２６８番地,,28,201,6700973,,,2025-07-01,清算の結了等,,,2015-10-05,1,,,,,ハクロショボウ,0
677,3180001102923,登記記録の閉鎖等,0,2025-07-08,2025-06-24,株式会社ＳＨＯＵＪＩＮ,,株式会社,愛知県,名古屋市中区,伊勢山２丁目１１番１３号,,23,106,4600026,,,2025-06-24,清算の結了等,,,2015-10-05,1,,,,,ショウジン,0
683,3180003021147,登記記録の閉鎖等,0,2025-07-08,2025-06-24,合同会社Ａｍｎｉｓ,,合同会社,愛知県,名古屋市東区,徳川２丁目２２番４号,,23,102,4610025,,,2025-06-24,清算の結了等,,,2020-05-15,1,,,,,アムニス,0
687,3200001000100,登記記録の閉鎖等,0,2025-07-08,2025-06-30,株式会社アカネ商会,,株式会社,岐阜県,岐阜市,加納栄町通２丁目１８番地,,21,201,5008455,,,2025-06-30,清算の結了等,,,2015-10-05,1,,,,,アカネショウカイ,0
690,3200002003011,登記記録の閉鎖等,0,2025-07-08,2025-06-30,有限会社ツールテック,,有限会社,岐阜県,岐阜市,茶屋新田４丁目７番地,,21,201,5016135,,,2025-06-30,清算の結了等,,,2015-10-05,1,,,,,ツールテック,0
692,3220001004173,登記記録の閉鎖等,0,2025-07-08,2025-07-01,株式会社田中商事,,株式会社,石川県,金沢市,黒田１丁目１８６番地（レフィナードＩＩ・２０３号）,00123773,17,201,9218051,,,2025-07-01,清算の結了等,,,2015-10-05,1,,,,,タナカショウジ,0
729,3370001021468,登記記録の閉鎖等,0,2025-07-08,2025-06-12,クロスシード株式会社,,株式会社,東京都,中央区,東日本橋２丁目１６番４号,,13,102,1030004,,,2025-06-12,清算の結了等,,,2015-10-05,1,,,,,クロスシード,0
761,4010001245903,登記記録の閉鎖等,0,2025-07-08,2025-06-12,Ｍｉｋｉ‐Ｌａｂ株式会社,,株式会社,東京都,文京区,千石４丁目１４番９号,,13,105,1120011,,,2025-06-12,清算の結了等,,,2024-06-24,1,,,,,ミキラブ,0
766,4010002017153,登記記録の閉鎖等,0,2025-07-08,2025-06-18,有限会社魚谷管財,,有限会社,東京都,中央区,銀座６丁目３番６号,,13,102,1040061,,,2025-06-18,清算の結了等,,,2015-10-05,1,,,,,ウオタニカンザイ,0
773,4010401052379,登記記録の閉鎖等,0,2025-07-08,2025-06-18,株式会社ＺＡＭＡＸコーポレーション,,株式会社,東京都,港区,高輪３丁目１６番３号,,13,103,1080074,,,2025-06-18,清算の結了等,,,2015-10-05,1,,,,,ザマックスコーポレーション,0
777,4010403020193,登記記録の閉鎖等,0,2025-07-08,2025-06-16,Ｙａｍａｍｕｒａ　Ａｓｓｏｃｉａｔｅｓ合同会社,,合同会社,東京都,港区,浜松町２丁目２番１５号,,13,103,1050013,,,2025-06-16,清算の結了等,,,2019-02-22,1,,,,,ヤマムラアソシエイツ,0
781,4010405020753,登記記録の閉鎖等,0,2025-07-08,2025-06-17,一般社団法人コンビナート連携推進機構,,その他の設立登記法人,東京都,港区,虎ノ門１丁目１３番４号,,13,103,1050001,,,2025-06-17,清算の結了等,,,2022-03-01,1,,,,,コンビナートレンケイスイシンキコウ,0
790,4011001130228,登記記録の閉鎖等,0,2025-07-08,2025-07-02,株式会社門倉有希音楽事務所,,株式会社,東京都,世田谷区,玉川台１丁目１４番１６号ファミールグラン用賀イクスヴィア,,13,112,1580096,,,2025-07-02,清算の結了等,,,2019-10-07,1,,,,,カドクラユキオンガクジムショ,0
791,4011001132736,登記記録の閉鎖等,0,2025-07-08,2025-06-10,株式会社カラココ,,株式会社,東京都,渋谷区,東１丁目２６番３０号,,13,113,1500011,,,2025-06-10,清算の結了等,,,2020-03-06,1,,,,,カラココ,0
805,4011102011392,登記記録の閉鎖等,0,2025-07-08,2025-06-13,有限会社富士貴商事,,有限会社,東京都,新宿区,歌舞伎町２丁目４５番５号新宿永谷ビル,,13,104,1600021,,,2025-06-13,清算の結了等,,,2015-10-05,1,,,,,フジキショウジ,0
810,4011401025787,登記記録の閉鎖等,0,2025-07-08,2025-07-01,ＬＩＢＥＲＡＬ株式会社,,株式会社,東京都,板橋区,赤塚２丁目３５－１４,,13,119,1750092,,,2025-07-01,清算の結了等,,,2024-01-23,1,,,,,リベラル,0
818,4011501015515,登記記録の閉鎖等,0,2025-07-08,2025-07-01,ミッドインホテル株式会社,,株式会社,東京都,千代田区,霞が関３丁目２番１号,,13,101,1000013,,,2025-07-01,合併による解散等,1010001204283,令和７年７月１日東京都千代田区霞が関三丁目２番１号ｆａｖ　ｈｏｓｐｉｔａｌｉｔｙ　ｇｒｏｕｐ株式会社（1010001204283）に合併し解散,2015-10-05,1,,,,,ミッドインホテル,0
821,4011602023532,登記記録の閉鎖等,0,2025-07-08,2025-06-27,有限会社ケイキューブ,,有限会社,東京都,練馬区,南大泉４丁目３３番４号,,13,120,1780064,,,2025-06-27,清算の結了等,,,2015-10-05,1,,,,,ケイキューブ,0
844,4013202004103,登記記録の閉鎖等,0,2025-07-08,2025-06-11,有限会社テイアンドテイエンジニアリング,,有限会社,東京都,目黒区,下目黒４丁目１４番４号,,13,110,1530064,,,2025-06-11,清算の結了等,,,2015-10-05,1,,,,,テイアンドテイエンジニアリング,0
871,4030002096534,登記記録の閉鎖等,0,2025-07-08,2025-06-30,有限会社小川設備工業,,有限会社,埼玉県,比企郡吉見町,大字北吉見８８３番地,,11,347,3550155,,,2025-06-30,清算の結了等,,,2015-10-05,1,,,,,オガワセツビコウギョウ,0
872,4030003005345,登記記録の閉鎖等,0,2025-07-08,2025-06-30,合同会社よろず便利相談社,,合同会社,埼玉県,三郷市,早稲田８丁目８番地２２,,11,237,3410018,,,2025-06-30,清算の結了等,,,2015-10-05,1,,,,,ヨロズベンリソウダンシャ,0
873,4030003009016,登記記録の閉鎖等,0,2025-07-08,2025-06-30,合同会社ふぉーてぃ,,合同会社,埼玉県,越谷市,大字南荻島８６９番地１８,,11,222,3430804,,,2025-06-30,清算の結了等,,,2016-07-01,1,,,,,フォーティ,0
884,4060001004024,登記記録の閉鎖等,0,2025-07-08,2025-07-01,株式会社報徳自動車学校,,株式会社,栃木県,宇都宮市,屋板町３３６番地２,,09,201,3210112,,,2025-07-01,合併による解散等,6260001032110,令和７年６月１日岡山県倉敷市中島２２３６番地１００株式会社モトヤエデュケイツ（6260001032110）に合併し解散,2015-10-05,1,,,,,ホウトクジドウシャガッコウ,0
888,4070001030192,登記記録の閉鎖等,0,2025-07-08,2025-06-27,株式会社ＷＯＲＫ　ＳＴＡＦＦ,,株式会社,群馬県,邑楽郡大泉町,坂田２丁目１２番８号,,10,524,3700532,,,2025-06-27,清算の結了等,,,2015-10-05,1,,,,,ワークスタッフ,0
890,4070002025563,登記記録の閉鎖等,0,2025-07-08,2025-06-27,有限会社アドバンス・テクノ,,有限会社,群馬県,太田市,飯田町７０８番地清水ビル２階,,10,205,3730851,,,2025-06-27,清算の結了等,,,2015-10-05,1,,,,,アドバンステクノ,0
899,4100002005108,登記記録の閉鎖等,0,2025-07-08,2025-07-03,有限会社ミヤ精工,,有限会社,長野県,長野市,篠ノ井塩崎３１２３番地,,20,201,3888014,,,2025-07-03,清算の結了等,,,2015-10-05,1,,,,,ミヤセイコウ,0
910,4120001087434,登記記録の閉鎖等,0,2025-07-08,2025-06-26,株式会社パレット,,株式会社,大阪府,大阪市中央区,淡路町３丁目１番８号,,27,128,5410047,,,2025-06-26,清算の結了等,,,2015-10-05,1,,,,,パレット,0
914,4120001190452,登記記録の閉鎖等,0,2025-07-08,2025-06-27,航福貿易株式会社,,株式会社,大阪府,大阪市西区,本田３丁目１番６－６０２号,,27,106,5500022,,,2025-06-27,清算の結了等,,,2015-10-05,1,,,,,コウフクボウエキ,0
926,4120005004699,登記記録の閉鎖等,0,2025-07-08,2025-06-13,学校法人椿本学園,,その他の設立登記法人,大阪府,大阪市天王寺区,大道１丁目１２番６号,,27,109,5430052,,,2025-06-13,合併による解散等,3120105008485,令和７年６月１３日大阪市中央区南新町一丁目２番４号椿本ビル学校法人山椿学園（3120105008485）に合併し解散,2015-10-05,1,,,,,ツバキモトガクエン,0
950,4140001102934,登記記録の閉鎖等,0,2025-07-08,2025-06-30,青空マネジメント株式会社,,株式会社,兵庫県,豊岡市,中央町４番１２号,,28,209,6680033,,,2025-06-30,合併による解散等,5140002033558,令和７年６月３０日兵庫県豊岡市中央町４番１２号ＳＵＮＺｆａｃｔｏｒｙ株式会社（5140002033558）に合併し解散,2016-08-02,1,,,,,アオゾラマネジメント,0
961,4180001124207,登記記録の閉鎖等,0,2025-07-08,2025-07-03,株式会社Ｂｒａｕｈａｕｓ,,株式会社,長野県,松本市,鎌田１丁目１６番１７号,,20,202,3900837,,,2025-07-03,清算の結了等,,,2016-07-27,1,,,,,ブラウハウス,0
963,4180001150715,登記記録の閉鎖等,0,2025-07-08,2025-06-25,電丸株式会社,,株式会社,愛知県,名古屋市昭和区,出口町２丁目３３番地の３,,23,107,4660041,,,2025-06-25,清算の結了等,,,2022-04-04,1,,,,,デンマル,0
967,4180002086165,登記記録の閉鎖等,0,2025-07-08,2025-06-25,有限会社ティー・ディー・エル,,有限会社,愛知県,常滑市,多屋町１丁目１８６番地,,23,216,4790839,,,2025-06-25,清算の結了等,,,2015-10-05,1,,,,,ティーディーエル,0
980,4240003004103,登記記録の閉鎖等,0,2025-07-08,2025-06-27,合同会社ＹＭＳ,,合同会社,広島県,広島市安佐南区,山本７丁目８番１０－１０２号,,34,105,7310137,,,2025-06-27,清算の結了等,,,2019-01-09,1,,,,,ワイエムエス,0
1015,4370602002130,登記記録の閉鎖等,0,2025-07-08,2025-06-25,有限会社ビーグリップ,,有限会社,宮城県,宮城郡七ヶ浜町,汐見台２丁目２番地の１,,04,404,9850821,,,2025-06-25,清算の結了等,,,2015-10-05,1,,,,,ビーグリップ,0
1031,4490005002625,登記記録の閉鎖等,0,2025-07-08,2025-06-20,善照寺,,その他の設立登記法人,高知県,宿毛市,中央３丁目６番２１－１号,,39,208,7880001,,,2025-06-20,合併による解散等,4490005002311,令和７年６月２０日高知県四万十市具同８６９１番地２宗教法人金生院（4490005002311）に合併し解散,2015-10-05,1,,,,,,0
1044,5010002021939,登記記録の閉鎖等,0,2025-07-08,2025-06-18,有限会社高越,,有限会社,東京都,中央区,銀座３丁目１３番２号,,13,102,1040061,,,2025-06-18,清算の結了等,,,2015-10-05,1,,,,,タカコシ,0
1055,5010403024648,登記記録の閉鎖等,0,2025-07-08,2025-05-30,合同会社メディリア,,合同会社,東京都,港区,南青山２丁目２番１５号,,13,103,1070062,,,2025-05-30,清算の結了等,,,2021-02-05,1,,,,,メディリア,0
1058,5010405020422,登記記録の閉鎖等,0,2025-07-08,2025-06-19,一般社団法人ＲＥＤ　ＴＯＫＹＯ　ＴＯＷＥＲ,,その他の設立登記法人,東京都,港区,元赤坂１丁目１番８号赤坂コミュニティビル４階,,13,103,1070051,,,2025-06-19,清算の結了等,,,2021-11-15,1,,,,,レッドトウキョウタワー,0
1064,5010901006809,登記記録の閉鎖等,0,2025-07-08,2025-07-04,大協建設株式会社,,株式会社,東京都,世田谷区,鎌田３丁目１９番３号,,13,112,1570077,,,2025-07-04,清算の結了等,,,2015-10-05,1,,,,,ダイキョウケンセツ,0
1069,5011001126530,登記記録の閉鎖等,0,2025-07-08,2025-07-02,株式会社ｎｅｔｅｒｏ,,株式会社,東京都,目黒区,八雲５丁目１０番２２号グリーンヒル駒沢公園３０４,,13,110,1520023,,,2025-07-02,清算の結了等,,,2019-02-14,1,,,,,ネテロ,0
1078,5011101102324,登記記録の閉鎖等,0,2025-07-08,2025-07-04,Ｃｒｏｓｓ　Ｃｕｌｔｕｒｅ　Ｊａｐａｎ株式会社,,株式会社,東京都,新宿区,西新宿６丁目１２番７号,,13,104,1600023,,,2025-07-04,清算の結了等,,,2023-03-29,1,,,,,クロスカルチャージャパン,0
1086,5011205001645,登記記録の閉鎖等,0,2025-07-08,2025-07-03,特定非営利活動法人グリーンネットワーク,,その他の設立登記法人,東京都,中野区,野方４丁目３９番９号,,13,114,1650027,,,2025-07-03,清算の結了等,,,2015-10-05,1,,,,,グリーンネットワーク,0
1102,5013102007097,登記記録の閉鎖等,0,2025-07-08,2025-07-04,有限会社まるにや肉店,,有限会社,東京都,西多摩郡奥多摩町,氷川１７３番地,,13,308,1980212,,,2025-07-04,清算の結了等,,,2015-10-05,1,,,,,マルニヤニクテン,0
1105,5013301052910,登記記録の閉鎖等,0,2025-07-08,2025-06-25,株式会社たかびん,,株式会社,東京都,豊島区,池袋本町１丁目３８番１６号アビタシオン・ケイ２０２号,,13,116,1700011,,,2025-06-25,清算の結了等,,,2024-07-29,1,,,,,タカビン,0
1107,5020001086189,登記記録の閉鎖等,0,2025-07-08,2025-06-27,株式会社中野組,,株式会社,神奈川県,横浜市戸塚区,前田町５０３番地１７,,14,110,2440804,,,2025-06-27,清算の結了等,,,2015-10-05,1,,,,,ナカノグミ,0
1112,5020002034460,登記記録の閉鎖等,0,2025-07-08,2025-07-02,総合企画有限会社,,有限会社,神奈川県,横浜市港北区,日吉７丁目１７番３２号,,14,109,2230061,,,2025-07-02,清算の結了等,,,2015-10-05,1,,,,,ソウゴウキカク,0
1114,5020003023223,登記記録の閉鎖等,0,2025-07-08,2025-06-26,ＢＡＯＴＵ合同会社,,合同会社,神奈川県,横浜市鶴見区,鶴見中央４丁目２７,,14,101,2300051,,,2025-06-26,清算の結了等,,,2023-02-08,1,,,,,バオツ,0
1121,5030001116481,登記記録の閉鎖等,0,2025-07-08,2025-06-30,株式会社Ｏｎｅ＆Ｃｏ．,,株式会社,埼玉県,狭山市,大字堀兼２２０９番地の１２,,11,215,3501312,,,2025-06-30,清算の結了等,,,2016-09-27,1,,,,,ワンアンドコーポレーション,0
1124,5030001139078,登記記録の閉鎖等,0,2025-07-08,2025-06-30,株式会社Ｈａｒｋ,,株式会社,埼玉県,加須市,水深１０４番地１３,,11,210,3470022,,,2025-06-30,清算の結了等,,,2020-11-06,1,,,,,ハルク,0
1133,5040001061347,登記記録の閉鎖等,0,2025-07-08,2025-07-04,京葉沢井薬品株式会社,,株式会社,千葉県,山武郡芝山町,山田１７０８番地,,12,409,2891606,,,2025-07-04,合併による解散等,5190001026302,令和７年６月１日三重県津市西丸之内３６番２５号株式会社メディカル一光（5190001026302）に合併し解散,2015-10-05,1,,,,,ケイヨウサワイヤクヒン,0
1140,5040002064290,登記記録の閉鎖等,0,2025-07-08,2025-06-23,有限会社たか平,,有限会社,千葉県,四街道市,もねの里２丁目２２番１０号,,12,228,2840016,,,2025-06-23,清算の結了等,,,2015-10-05,1,,,,,タカヘイ,0
1144,5060001011358,登記記録の閉鎖等,0,2025-07-08,2025-07-01,株式会社黒磯南自動車教習所,,株式会社,栃木県,那須塩原市,埼玉１８２番地,,09,213,3250033,,,2025-07-01,合併による解散等,6260001032110,令和７年６月１日岡山県倉敷市中島２２３６番地１００株式会社モトヤエデュケイツ（6260001032110）に合併し解散,2015-10-05,1,,,,,クロイソミナミジドウシャキョウシュウジョ,0
1151,5080101008509,登記記録の閉鎖等,0,2025-07-08,2025-07-01,株式会社コスモハウジング,,株式会社,静岡県,富士市,永田町１丁目１７１番地の２,,22,210,4170055,,,2025-07-01,清算の結了等,,,2015-10-05,1,,,,,コスモハウジング,0
1155,5090002010249,登記記録の閉鎖等,0,2025-07-08,2025-07-03,有限会社山晃,,有限会社,山梨県,都留市,法能７６７番地,,19,204,4020025,,,2025-07-03,清算の結了等,,,2015-10-05,1,,,,,サンコウ,0
1171,5120002010170,登記記録の閉鎖等,0,2025-07-08,2025-06-30,有限会社双葉温泉,,有限会社,大阪府,大阪市住吉区,庭井２丁目１３番１６号,,27,120,5580012,,,2025-06-30,清算の結了等,,,2015-10-05,1,,,,,フタバオンセン,0
1196,5140001095426,登記記録の閉鎖等,0,2025-07-08,2025-07-01,株式会社リケンエナジー,,株式会社,兵庫県,西宮市,南越木岩町１番３９号,,28,204,6620075,,,2025-07-01,合併による解散等,8140001004251,令和７年７月１日神戸市東灘区住吉南町一丁目１２番２１号株式会社リケン工業（8140001004251）に合併し解散,2015-10-05,1,,,,,リケンエナジー,0
1198,5140001119382,登記記録の閉鎖等,0,2025-07-08,2025-07-04,株式会社ＳＵＭＡＩ情報館,,株式会社,兵庫県,姫路市,西庄甲１５５番９,,28,201,6700981,,,2025-07-04,合併による解散等,7120001214349,令和７年７月１日大阪府枚方市山之上二丁目２１番９号株式会社ＮＡＴＴＯＫＵ（7120001214349）に合併し解散,2020-11-10,1,,,,,スマイジョウホウカン,0
1199,5140001125059,登記記録の閉鎖等,0,2025-07-08,2025-06-30,株式会社光和管財明石,,株式会社,兵庫県,明石市,魚住町清水１１０６－４,,28,203,6740074,,,2025-06-30,合併による解散等,1140001007599,令和７年６月３０日神戸市中央区磯辺通三丁目２番１７号ＫＯＷＡワールド三宮ビル光和管財株式会社（1140001007599）に合併し解散,2022-03-01,1,,,,,コウワカンザイアカシ,0
1205,5160001019663,登記記録の閉鎖等,0,2025-07-08,2025-06-30,株式会社Ｎ＆Ｒ,,株式会社,滋賀県,草津市,西大路町１２番８３号,,25,206,5250037,,,2025-06-30,清算の結了等,,,2016-08-08,1,,,,,エヌアンドアール,0
1221,5230001012974,登記記録の閉鎖等,0,2025-07-08,2025-07-02,王基建設株式会社,,株式会社,富山県,射水市,赤井１３９番地９,,16,211,9390287,,,2025-07-02,清算の結了等,,,2015-10-05,1,,,,,オウキケンセツ,0
1230,5260002028232,登記記録の閉鎖等,0,2025-07-08,2025-06-20,ケーエス工業有限会社,,有限会社,岡山県,津山市,瓜生原３３６番地の３,,33,203,7080844,,,2025-06-20,清算の結了等,,,2015-10-05,1,,,,,ケーエスコウギョウ,0
1259,5340001006115,登記記録の閉鎖等,0,2025-07-08,2025-06-26,株式会社アクトウェル,,株式会社,鹿児島県,鹿児島市,吉野町３３２２番地２３,,46,201,8920871,,,2025-06-26,清算の結了等,,,2015-10-05,1,,,,,,0
1265,5370001006112,登記記録の閉鎖等,0,2025-07-08,2025-06-25,株式会社マルイ,,株式会社,宮城県,仙台市宮城野区,扇町６丁目４番１０号,,04,102,9830034,,,2025-06-25,清算の結了等,,,2015-10-05,1,,,,,,0
1268,5370002009691,登記記録の閉鎖等,0,2025-07-08,2025-06-24,有限会社イマヰビル,,有限会社,宮城県,仙台市青葉区,中央２丁目１１番１号,,04,101,9800021,,,2025-06-24,清算の結了等,,,2015-10-05,1,,,,,イマイビル,0
1269,5370301001358,登記記録の閉鎖等,0,2025-07-08,2025-06-25,株式会社ヤマゼン雁部組,,株式会社,宮城県,石巻市,渡波字念仏壇７２番地の４,,04,202,9862135,,,2025-06-25,清算の結了等,,,2015-10-05,1,,,,,ヤマゼンガンベグミ,0
1286,5460102006869,登記記録の閉鎖等,0,2025-07-08,2025-07-02,浜頭漁業有限会社,,有限会社,北海道,広尾郡広尾町,会所前２丁目３７番地,,01,642,0892605,,,2025-07-02,清算の結了等,,,2015-10-05,1,,,,,ハマガシラギョギョウ,0
1344,6010902002970,登記記録の閉鎖等,0,2025-07-08,2025-07-01,有限会社エム・ディ・アイ,,有限会社,兵庫県,神戸市垂水区,星が丘３丁目１番５６号,,28,108,6550032,,,2025-07-01,清算の結了等,,,2015-10-05,1,,,,,エムディアイ,0
1349,6011001113783,登記記録の閉鎖等,0,2025-07-08,2025-07-01,ＴｅｎＴｅｎ株式会社,,株式会社,東京都,渋谷区,道玄坂１丁目１０番８号渋谷道玄坂東急ビル２Ｆ－Ｃ,,13,113,1500043,,,2025-07-01,清算の結了等,,,2016-11-25,1,,,,,テンテン,0
1353,6011003015383,登記記録の閉鎖等,0,2025-07-08,2025-06-10,合同会社ＴＭ　Ｐａｒｔｎｅｒｓ,,合同会社,東京都,渋谷区,神泉町１０番１５号,,13,113,1500045,,,2025-06-10,清算の結了等,,,2022-09-14,1,,,,,ティーエムパートナーズ,0
1355,6011101088752,登記記録の閉鎖等,0,2025-07-08,2025-06-23,メタジェニックス株式会社,,株式会社,東京都,新宿区,新宿２丁目１番１２号,,13,104,1600022,,,2025-06-23,清算の結了等,,,2019-08-26,1,,,,,メタジェニックス,0
1356,6011101090048,登記記録の閉鎖等,0,2025-07-08,2025-06-12,株式会社Ｆｕｎｄｅｒｆｕｌ,,株式会社,東京都,新宿区,歌舞伎町１丁目９－１ヒサコービルＢ２,,13,104,1600021,,,2025-06-12,清算の結了等,,,2020-01-09,1,,,,,ファンダフル,0
1357,6011101108287,登記記録の閉鎖等,0,2025-07-08,2025-06-12,株式会社アシスト,,株式会社,東京都,新宿区,西新宿３丁目３番１３号西新宿水間ビル２Ｆ,,13,104,1600023,,,2025-06-12,清算の結了等,,,2024-08-01,1,,,,,アシスト,0
1369,6013201011148,登記記録の閉鎖等,0,2025-07-08,2025-07-01,株式会社エムランド,,株式会社,東京都,千代田区,霞が関３丁目２番５号,,13,101,1000013,,,2025-07-01,合併による解散等,2010001092018,令和７年６月３０日東京都千代田区霞が関三丁目２番５号株式会社アーバネットコーポレーション（2010001092018）に合併し解散,2015-10-05,1,,,,,エムランド,0
1372,6020001128262,登記記録の閉鎖等,0,2025-07-08,2025-07-01,株式会社ＡＹコンサルティング,,株式会社,神奈川県,横浜市青葉区,美しが丘１丁目２３番地８,,14,117,2250002,,,2025-07-01,清算の結了等,,,2018-10-11,1,,,,,エーワイコンサルティング,0
1385,6030001015328,登記記録の閉鎖等,0,2025-07-08,2025-06-30,株式会社篠原製作所,,株式会社,埼玉県,さいたま市中央区,上峰２丁目１８番１５号,,11,105,3380014,,,2025-06-30,清算の結了等,,,2015-10-05,1,,,,,シノハラセイサクジョ,0
1386,6030001031993,登記記録の閉鎖等,0,2025-07-08,2025-06-30,株式会社大成,,株式会社,埼玉県,久喜市,菖蒲町三箇６８８番地,,11,232,3460104,,,2025-06-30,清算の結了等,,,2015-10-05,1,,,,,タイセイ,0
1394,6030002103957,登記記録の閉鎖等,0,2025-07-08,2025-06-30,有限会社鈴栄電設,,有限会社,埼玉県,川口市,大字神戸５７９番地の２９,,11,203,3330832,,,2025-06-30,清算の結了等,,,2015-10-05,1,,,,,スズエイデンセツ,0
1397,6040001084280,登記記録の閉鎖等,0,2025-07-08,2025-06-20,上條商事株式会社,,株式会社,千葉県,旭市,鎌数字川西一番９４００番８,,12,215,2892505,,,2025-06-20,清算の結了等,,,2015-10-05,1,,,,,カミジョウショウジ,0
1409,6050001037246,登記記録の閉鎖等,0,2025-07-08,2025-06-27,株式会社スージー,,株式会社,茨城県,牛久市,さくら台３丁目１９番地２６,,08,219,3001217,,,2025-06-27,清算の結了等,,,2015-10-05,1,,,,,スージー,0
1415,6070001025109,登記記録の閉鎖等,0,2025-07-08,2025-06-30,株式会社塩谷会計事務所,,株式会社,群馬県,前橋市,大友町１丁目１２番地２２,,10,201,3710847,,,2025-06-30,清算の結了等,,,2015-10-05,1,,,,,シオヤカイケイジムショ,0
1417,6080102001866,登記記録の閉鎖等,0,2025-07-08,2025-06-26,有限会社すずき写真製版所,,有限会社,静岡県,沼津市,大岡２２７０番地の５,,22,203,4100022,,,2025-06-26,清算の結了等,,,2015-10-05,1,,,,,スズキシャシンセイバンジョ,0
1434,6120001255245,登記記録の閉鎖等,0,2025-07-08,2025-06-27,リードテック工業株式会社,,株式会社,兵庫県,神戸市中央区,磯辺通４丁目１番８号ＩＴＣビルディング,,28,110,6510084,,,2025-06-27,清算の結了等,,,2023-05-29,1,,,,,リードテックコウギョウ,0
1443,6120901016878,登記記録の閉鎖等,0,2025-07-08,2025-06-27,株式会社周陽社,,株式会社,大阪府,茨木市,西福井３丁目１９番７号の７,,27,211,5670067,,,2025-06-27,清算の結了等,,,2015-10-05,1,,,,,シュウヨウシャ,0
1451,6140001056303,登記記録の閉鎖等,0,2025-07-08,2025-07-01,兵庫ミートプロセッサー株式会社,,株式会社,兵庫県,豊岡市,日高町池上１０５番地の１,,28,209,6695326,,,2025-07-01,合併による解散等,7140001056277,令和７年７月１日兵庫県豊岡市日高町池上１０５番地の１テイ．ケイフーズサービス株式会社（7140001056277）に合併し解散,2015-10-05,1,,,,,ヒョウゴミートプロセッサー,0
1456,6140003014606,登記記録の閉鎖等,0,2025-07-08,2025-07-01,ヒューマンディグニティ合同会社,,合同会社,兵庫県,川西市,丸山台２丁目４番地の１５,,28,217,6660152,,,2025-07-01,清算の結了等,,,2020-01-10,1,,,,,ヒューマンディグニティ,0
1462,6180001039262,登記記録の閉鎖等,0,2025-07-08,2025-06-25,ナルックスパイル販売株式会社,,株式会社,愛知県,名古屋市中区,栄４丁目３番２６号（昭和ビル内）,,23,106,4600008,,,2025-06-25,清算の結了等,,,2015-10-05,1,,,,,ナルックスパイルハンバイ,0
1472,6180302006168,登記記録の閉鎖等,0,2025-07-08,2025-06-27,有限会社浅井製糸場,,有限会社,愛知県,豊橋市,小畷町１３９番地,,23,201,4400873,,,2025-06-27,清算の結了等,,,2015-10-05,1,,,,,アサイセイシジョウ,0
1489,6260002003481,登記記録の閉鎖等,0,2025-07-08,2025-06-23,有限会社ケイショップ,,有限会社,岡山県,岡山市南区,東畦１４－２,,33,104,7010211,,,2025-06-23,清算の結了等,,,2015-10-05,1,,,,,ケイショップ,0
1490,6270002004966,登記記録の閉鎖等,0,2025-07-08,2025-07-07,有限会社杉の子薬局,,有限会社,鳥取県,鳥取市,湖山町東３丁目６７番地,,31,201,6800942,,,2025-07-07,清算の結了等,,,2015-10-05,1,,,,,スギノコヤッキョク,0
1492,6280001006392,登記記録の閉鎖等,0,2025-07-08,2025-07-04,株式会社リーベ,,株式会社,島根県,松江市,菅田町１４２番地,,32,201,6900824,,,2025-07-04,清算の結了等,,,2015-10-05,1,,,,,リーベ,0
1527,6460102003881,登記記録の閉鎖等,0,2025-07-08,2025-07-02,有限会社中川農場,,有限会社,北海道,河西郡芽室町,新朝日３線１５番地４,,01,637,0820079,,,2025-07-02,清算の結了等,,,2015-10-05,1,,,,,ナカガワノウジョウ,0
1531,6490002004928,登記記録の閉鎖等,0,2025-07-08,2025-07-02,有限会社友一水産,,有限会社,高知県,高知市,青柳町３７番地５,,39,201,7810813,,,2025-07-02,清算の結了等,,,2015-10-05,1,,,,,トモイチスイサン,0
1548,7010005017197,登記記録の閉鎖等,0,2025-07-08,2025-06-30,一般社団法人Ｑ－Ｃｈａｒｇｅ,,その他の設立登記法人,東京都,千代田区,九段南２丁目３番２１号,,13,101,1020074,,,2025-06-30,清算の結了等,,,2015-10-05,1,,,,,キューチャージ,0
1559,7010605001427,登記記録の閉鎖等,0,2025-07-08,2025-06-24,医療法人社団ＳＧＨ会,,その他の設立登記法人,東京都,江東区,北砂３丁目３６番１８号鈴木ビル１階,,13,108,1360073,,,2025-06-24,清算の結了等,,,2015-10-05,1,,,,,エスジーエイチカイ,0
1576,7011102017164,登記記録の閉鎖等,0,2025-07-08,2025-07-04,有限会社南設備事務所,,有限会社,東京都,世田谷区,北烏山９丁目２１番１０号,,13,112,1570061,,,2025-07-04,清算の結了等,,,2015-10-05,1,,,,,ミナミセツビジムショ,0
1588,7011802010708,登記記録の閉鎖等,0,2025-07-08,2025-07-02,有限会社大川商行,,有限会社,東京都,足立区,皿沼１丁目９番１０号,,13,121,1230862,,,2025-07-02,清算の結了等,,,2015-10-05,1,,,,,オオカワショウコウ,0
1613,7021002038524,登記記録の閉鎖等,0,2025-07-08,2025-07-02,有限会社ビッグエス,,有限会社,神奈川県,秦野市,下大槻４１０番地２－１１－６０８,,14,211,2570004,,,2025-07-02,清算の結了等,,,2015-10-05,1,,,,,ビッグエス,0
1614,7021002070832,登記記録の閉鎖等,0,2025-07-08,2025-07-02,丸石総業有限会社,,有限会社,神奈川県,横須賀市,浦上台２丁目１１番１０号,,14,201,2390815,,,2025-07-02,清算の結了等,,,2015-10-05,1,,,,,マルイシソウギョウ,0
1618,7030005019266,登記記録の閉鎖等,0,2025-07-08,2025-06-30,特定非営利活動法人マミング,,その他の設立登記法人,埼玉県,上尾市,上町２丁目５－１０サンフラワー上町１０１,,11,219,3620037,,,2025-06-30,清算の結了等,,,2018-11-28,1,,,,,マミング,0
1619,7040001018857,登記記録の閉鎖等,0,2025-07-08,2025-06-20,株式会社三松屋,,株式会社,千葉県,船橋市,本町３丁目５番１号,,12,204,2730005,,,2025-06-20,清算の結了等,,,2015-10-05,1,,,,,ミマツヤ,0
1651,7120001248066,登記記録の閉鎖等,0,2025-07-08,2025-06-25,淀川コンサルティング株式会社,,株式会社,大阪府,大阪市淀川区,木川東３丁目４番１１号,,27,123,5320012,,,2025-06-25,清算の結了等,,,2022-08-09,1,,,,,ヨドガワコンサルティング,0
1661,7120101044992,登記記録の閉鎖等,0,2025-07-08,2025-06-27,株式会社Ｅ・Ｃ・Ｒ農業生産法人,,株式会社,大阪府,泉南市,幡代２００４番地,,27,228,5900524,,,2025-06-27,清算の結了等,,,2015-10-05,1,,,,,イーシーアールノウギョウセイサンホウジン,0
1664,7120102020134,登記記録の閉鎖等,0,2025-07-08,2025-07-01,有限会社西田設計,,有限会社,大阪府,河内長野市,美加の台６丁目３４番４号,,27,216,5860044,,,2025-07-01,清算の結了等,,,2015-10-05,1,,,,,ニシダセッケイ,0
1684,7140003008061,登記記録の閉鎖等,0,2025-07-08,2025-07-01,合同会社セレクティー・スタッフ,,合同会社,兵庫県,加東市,黒谷字太尾１２１６番２３４,,28,228,6731301,,,2025-07-01,清算の結了等,,,2015-10-05,1,,,,,セレクティースタッフ,0
1686,7150001007436,登記記録の閉鎖等,0,2025-07-08,2025-07-04,株式会社美多民工房,,株式会社,奈良県,生駒市,鹿ノ台南１丁目７番地９,,29,209,6300113,,,2025-07-04,清算の結了等,,,2015-10-05,1,,,,,ビタミンコウボウ,0
1715,7280003001886,登記記録の閉鎖等,0,2025-07-08,2025-07-03,合同会社華の木,,合同会社,島根県,浜田市,真光町１６,,32,202,6970046,,,2025-07-03,清算の結了等,,,2024-09-25,1,,,,,ハナノキ,0
1733,7320002021682,登記記録の閉鎖等,0,2025-07-08,2025-07-01,有限会社シマタ,,有限会社,大分県,中津市,中央町１丁目８番２８号,,44,203,8710024,,,2025-07-01,清算の結了等,,,2015-10-05,1,,,,,シマタ,0
1735,7330001009331,登記記録の閉鎖等,0,2025-07-08,2025-06-26,株式会社ヘルシーグリーン九州,,株式会社,熊本県,菊池市,泗水町吉富２４５９番地１,,43,210,8611201,,,2025-06-26,清算の結了等,,,2015-10-05,1,,,,,ヘルシーグリーンキュウシュウ,0
1753,7380002030546,登記記録の閉鎖等,0,2025-07-08,2025-06-25,有限会社世の守農場,,有限会社,福島県,双葉郡富岡町,大字大菅字蛇谷須１６８番地の２,,07,543,9791171,,,2025-06-25,清算の結了等,,,2015-10-05,1,,,,,ヨノモリノウジョウ,0
1796,8010005031593,登記記録の閉鎖等,0,2025-07-08,2025-06-30,ディエイチ・ディベロップメント・ツー特定目的会社,,その他の設立登記法人,東京都,千代田区,飯田橋４丁目７番１号結和税理士法人内,,13,101,1020072,,,2025-06-30,清算の結了等,,,2020-03-16,1,,,,,ディエイチディベロップメントツー,0
1819,8011001105556,登記記録の閉鎖等,0,2025-07-08,2025-06-10,株式会社Ｙｏｓｈｉ　Ｃｏｒｐｏｒａｔｉｏｎ,,株式会社,東京都,目黒区,柿の木坂２丁目１６番１４号,,13,110,1520022,,,2025-06-10,清算の結了等,,,2015-10-05,1,,,,,ヨシコーポレーション,0
1820,8011001158934,登記記録の閉鎖等,0,2025-07-08,2025-06-09,株式会社ｉｎｃｅｐｔｉｏＮ,,株式会社,東京都,渋谷区,恵比寿西２丁目８番４号ＥＸ恵比寿西ビル５階,,13,113,1500021,,,2025-06-09,清算の結了等,,,2023-12-19,1,,,,,インセプション,0
1827,8011101009145,登記記録の閉鎖等,0,2025-07-08,2025-06-12,株式会社柴沼ビニール工業所,,株式会社,東京都,新宿区,横寺町９番地１,,13,104,1620831,,,2025-06-12,清算の結了等,,,2015-10-05,1,,,,,シバヌマビニールコウギョウショ,0
1848,8011502004281,登記記録の閉鎖等,0,2025-07-08,2025-07-01,有限会社外山タイル工事店,,有限会社,東京都,北区,滝野川７丁目９番９号,,13,117,1140023,,,2025-07-01,清算の結了等,,,2015-10-05,1,,,,,トヤマタイルコウジテン,0
1849,8011503005221,登記記録の閉鎖等,0,2025-07-08,2025-07-01,Ｙ・Ｈ・Ｋ合同会社,,合同会社,東京都,北区,赤羽２丁目４７番８－３０７号大黒ビル,,13,117,1150045,,,2025-07-01,清算の結了等,,,2022-07-13,1,,,,,ワイエイチケイ,0
1852,8011702017001,登記記録の閉鎖等,0,2025-07-08,2025-07-04,有限会社アキラテック,,有限会社,東京都,新宿区,高田馬場４丁目２３－２９,,13,104,1690075,,,2025-07-04,清算の結了等,,,2015-10-05,1,,,,,アキラテック,0
1874,8020005002627,登記記録の閉鎖等,0,2025-07-08,2025-06-30,特定非営利活動法人エコエネルギーによる地域交通システム推進協会,,その他の設立登記法人,神奈川県,横浜市港北区,日吉１丁目２１番４号メロスコート１０１,,14,109,2230061,,,2025-06-30,清算の結了等,,,2015-10-05,1,,,,,エコエネルギーニヨルチイキコウツウシステムスイシンキョウカイ,0
1890,8030005001108,登記記録の閉鎖等,0,2025-07-08,2025-06-30,医療法人一成会,,その他の設立登記法人,埼玉県,さいたま市見沼区,大字東宮下字西１９６番地,,11,104,3370012,,,2025-06-30,清算の結了等,,,2015-10-05,1,,,,,イッセイカイ,0
1896,8040001113772,登記記録の閉鎖等,0,2025-07-08,2025-06-20,ＳＴＯＲＹＵＰ株式会社,,株式会社,千葉県,千葉市中央区,新千葉１丁目７－２,,12,101,2600031,,,2025-06-20,清算の結了等,,,2020-06-01,1,,,,,ストーリーアップ,0
1903,8040002064965,登記記録の閉鎖等,0,2025-07-08,2025-06-23,有限会社ケイエステクノサービス,,有限会社,千葉県,佐倉市,中志津３丁目２２番５号,,12,212,2850843,,,2025-06-23,清算の結了等,,,2015-10-05,1,,,,,ケイエステクノサービス,0
1907,8050001041238,登記記録の閉鎖等,0,2025-07-08,2025-06-30,かさまのにゃんこ株式会社,,株式会社,茨城県,笠間市,旭町６３８番地５,,08,216,3091717,,,2025-06-30,清算の結了等,,,2016-07-04,1,,,,,カサマノニャンコ,0
1911,8060001031576,登記記録の閉鎖等,0,2025-07-08,2025-06-30,株式会社ＢＭコンサルティング,,株式会社,栃木県,宇都宮市,戸祭４丁目１０番２５号,,09,201,3200056,,,2025-06-30,清算の結了等,,,2019-05-13,1,,,,,ビーエムコンサルティング,0
1917,8080101001584,登記記録の閉鎖等,0,2025-07-08,2025-06-30,株式会社ピアノショップ沼津,,株式会社,静岡県,沼津市,沼北町１丁目１番７号,,22,203,4100058,,,2025-06-30,清算の結了等,,,2015-10-05,1,,,,,,0
1919,8080101025294,登記記録の閉鎖等,0,2025-07-08,2025-07-01,福七株式会社,,株式会社,静岡県,富士市,青島町２２８番地２Ｆ,,22,210,4170047,,,2025-07-01,清算の結了等,,,2025-02-05,1,,,,,フクシチ,0
1922,8090001002153,登記記録の閉鎖等,0,2025-07-08,2025-07-02,株式会社村松工務所,,株式会社,山梨県,甲府市,里吉３丁目２番５号,,19,201,4000822,,,2025-07-02,清算の結了等,,,2015-10-05,1,,,,,ムラマツコウムショ,0
1923,8100001008371,登記記録の閉鎖等,0,2025-07-08,2025-07-01,株式会社エムテー,,株式会社,長野県,佐久市,桜井１１９番地,,20,217,3850056,,,2025-07-01,清算の結了等,,,2015-10-05,1,,,,,エムテー,0
1926,8110001028666,登記記録の閉鎖等,0,2025-07-08,2025-06-17,株式会社ＳＭＡＲＴ,,株式会社,新潟県,新潟市中央区,鐙西１丁目１７番２８号第一鐙ビル２０９,,15,103,9500915,,,2025-06-17,清算の結了等,,,2015-10-05,1,,,,,スマート,0
1929,8120001030217,登記記録の閉鎖等,0,2025-07-08,2025-07-01,淡路鋼管株式会社,,株式会社,大阪府,大阪市住之江区,柴谷２丁目５番６号,,27,125,5590021,,,2025-07-01,合併による解散等,6120001094635,令和７年７月１日大阪市中央区伏見町四丁目２番１４号イゲタサンライズパイプ株式会社（6120001094635）に合併し解散,2015-10-05,1,,,,,アワジコウカン,0
1961,8130002018342,登記記録の閉鎖等,0,2025-07-08,2025-07-01,有限会社アールエムシー,,有限会社,京都府,京都市中京区,西ノ京車坂町９番地,,26,104,6048405,,,2025-07-01,合併による解散等,2130001051226,令和７年７月１日京都市中京区西ノ京車坂町９番地株式会社ＨＬＣ（2130001051226）に合併し解散,2015-10-05,1,,,,,アールエムシー,0
1963,8130002023978,登記記録の閉鎖等,0,2025-07-08,2025-06-30,有限会社亮美堂,,有限会社,京都府,京都市右京区,西院坤町３０番地,,26,108,6150062,,,2025-06-30,清算の結了等,,,2015-10-05,1,,,,,リョウビドウ,0
1967,8140001085911,登記記録の閉鎖等,0,2025-07-08,2025-07-01,株式会社金山工務店,,株式会社,兵庫県,南あわじ市,広田中筋２０１番地の３,,28,224,6560131,,,2025-07-01,清算の結了等,,,2015-10-05,1,,,,,カナヤマコウムテン,0
1969,8140001100488,登記記録の閉鎖等,0,2025-07-08,2025-06-30,株式会社ＭＩＨＡＲＡ一級建築士事務所,,株式会社,兵庫県,高砂市,中島３丁目６番４４号,,28,216,6760001,,,2025-06-30,清算の結了等,,,2016-01-05,1,,,,,ミハライッキュウケンチクシジムショ,0
1971,8140002026699,登記記録の閉鎖等,0,2025-07-08,2025-06-27,有限会社アイゥオーラ,,有限会社,兵庫県,神戸市北区,星和台４丁目２６番地の２,,28,109,6511121,,,2025-06-27,清算の結了等,,,2015-10-05,1,,,,,アイゥオーラ,0
1977,8170003001302,登記記録の閉鎖等,0,2025-07-08,2025-07-02,ＦＭＯ合同会社,,合同会社,和歌山県,和歌山市,吉田６７７ルーセント吉田７０１,,30,201,6408343,,,2025-07-02,清算の結了等,,,2019-01-10,1,,,,,エフエムオー,0
1981,8180002032727,登記記録の閉鎖等,0,2025-07-08,2025-06-26,有限会社プロジェクト・ヤマダ,,有限会社,長崎県,諫早市,多良見町木床１６４１番地,,42,204,8590406,,,2025-06-26,清算の結了等,,,2015-10-05,1,,,,,プロジェクトヤマダ,0
1990,8220002013920,登記記録の閉鎖等,0,2025-07-08,2025-07-02,有限会社道路サービス工業,,有限会社,石川県,七尾市,田鶴浜町ル部５３,,17,202,9292121,,,2025-07-02,清算の結了等,,,2015-10-05,1,,,,,ドウロサービスコウギョウ,0
2001,8260002033345,登記記録の閉鎖等,0,2025-07-08,2025-06-24,有限会社ヤマシタボード内装,,有限会社,岡山県,玉野市,渋川１丁目７番５号,,33,204,7060028,,,2025-06-24,清算の結了等,,,2015-10-05,1,,,,,ヤマシタボードナイソウ,0
2029,8370302002030,登記記録の閉鎖等,0,2025-07-08,2025-06-25,有限会社福島土建,,有限会社,宮城県,東松島市,野蒜字北赤崎５番地１,,04,214,9810411,,,2025-06-25,清算の結了等,,,2015-10-05,1,,,,,フクシマドケン,0
2031,8380002021742,登記記録の閉鎖等,0,2025-07-08,2025-06-25,有限会社永山建設,,有限会社,福島県,須賀川市,長沼字信濃町下３０番地,,07,207,9620203,,,2025-06-25,清算の結了等,,,2015-10-05,1,,,,,ナガヤマケンセツ,0
2045,8450005001742,登記記録の閉鎖等,0,2025-07-08,2025-06-26,医療法人丸谷会丸谷病院,,その他の設立登記法人,北海道,旭川市,四条通５丁目右１号,,01,204,0700034,,,2025-06-26,清算の結了等,,,2015-10-05,1,,,,,マルヤカイマルヤビョウイン,0
2046,8460001003064,登記記録の閉鎖等,0,2025-07-08,2025-07-01,株式会社スターファーム,,株式会社,北海道,厚岸郡厚岸町,白浜４丁目３０番地,,01,662,0881125,,,2025-07-01,合併による解散等,6460001003561,令和７年７月１日北海道厚岸郡厚岸町白浜四丁目３０番地株式会社ナリテツ（6460001003561）に合併し解散,2015-10-05,1,,,,,スターファーム,0
2087,9010901002325,登記記録の閉鎖等,0,2025-07-08,2025-07-04,株式会社オオミヤ,,株式会社,東京都,世田谷区,代田４丁目１番１８号ハヤマビル３０１号,,13,112,1550033,,,2025-07-04,清算の結了等,,,2015-10-05,1,,,,,オオミヤ,0
2117,9020001144562,登記記録の閉鎖等,0,2025-07-08,2025-06-26,株式会社ＴＥＭＰＥＲＡＮＣＥ．,,株式会社,神奈川県,横浜市戸塚区,原宿４丁目３４番２３－３０３号,,14,110,2450063,,,2025-06-26,清算の結了等,,,2022-01-05,1,,,,,テンパランス,0
2153,9050001034042,登記記録の閉鎖等,0,2025-07-08,2025-06-13,株式会社ウィントリア,,株式会社,茨城県,守谷市,ひがし野２丁目１番地ブランズシティ守谷６０３号室,,08,224,3020131,,,2025-06-13,清算の結了等,,,2015-10-05,1,,,,,ウィントリア,0
2158,9070002030162,登記記録の閉鎖等,0,2025-07-08,2025-06-27,有限会社東京インテリア,,有限会社,群馬県,太田市,安良岡町５６３番地の５,,10,205,3730811,,,2025-06-27,清算の結了等,,,2015-10-05,1,,,,,トウキョウインテリア,0
2183,9120102004457,登記記録の閉鎖等,0,2025-07-08,2025-06-27,有限会社マックメディカルサービス,,有限会社,大阪府,堺市堺区,栄橋町２丁２番２３号ベルメゾン堺１０２号,,27,141,5900971,,,2025-06-27,清算の結了等,,,2015-10-05,1,,,,,マックメディカルサービス,0
2194,9130001046161,登記記録の閉鎖等,0,2025-07-08,2025-07-01,株式会社庵珠,,株式会社,京都府,京都市中京区,西ノ京星池町１６５番地,,26,104,6048416,,,2025-07-01,清算の結了等,,,2015-10-05,1,,,,,アンジュ,0
2197,9130001075937,登記記録の閉鎖等,0,2025-07-08,2025-07-01,新途ハイテク株式会社,,株式会社,京都府,京都市中京区,御池通東洞院東入笹屋町４３６永和御池ビル６０６号,,26,104,6048187,,,2025-07-01,清算の結了等,,,2023-12-13,1,,,,,シントハイテク,0
2202,9130003008119,登記記録の閉鎖等,0,2025-07-08,2025-06-26,合同会社ＹＵＫＡＩ,,合同会社,京都府,京都市左京区,山端大塚町１８番地２９,00127511,26,103,6068014,,,2025-06-26,清算の結了等,,,2022-08-12,1,,,,,ユカイ,0
2222,9180001028097,登記記録の閉鎖等,0,2025-07-08,2025-06-24,株式会社近藤被服,,株式会社,愛知県,名古屋市緑区,篠の風１丁目８０４番地,,23,114,4580015,,,2025-06-24,清算の結了等,,,2015-10-05,1,,,,,コンドウヒフク,0
2223,9180001038369,登記記録の閉鎖等,0,2025-07-08,2025-06-19,株式会社ディ・エス・エーエージェンシーズナゴヤ,,株式会社,東京都,港区,赤坂１丁目１１番４４号赤坂インターシティ５階Ｆｏｒｖｉｓ・Ｍａｚａｒｓ・Ｊａｐａｎ株式会社内,,13,103,1070052,,,2025-06-19,清算の結了等,,,2015-10-05,1,,,,,ディエスエーエージェンシーズナゴヤ,0
2230,9180301016297,登記記録の閉鎖等,0,2025-07-08,2025-07-01,東海インプルＳＥ株式会社,,株式会社,愛知県,安城市,緑町１丁目２５番地１,,23,212,4460055,,,2025-07-01,合併による解散等,9180301013666,令和７年７月１日愛知県安城市緑町一丁目２５番地１東海インプル建設株式会社（9180301013666）に合併し解散,2015-10-05,1,,,,,トウカイインプルエスイー,0
2242,9260001014246,登記記録の閉鎖等,0,2025-07-08,2025-06-23,中野電器株式会社,,株式会社,岡山県,倉敷市,鶴形２丁目６番３号,,33,202,7100056,,,2025-06-23,清算の結了等,,,2015-10-05,1,,,,,ナカノデンキ,0
2262,9330001004834,登記記録の閉鎖等,0,2025-07-08,2025-06-26,株式会社楊村商店,,株式会社,熊本県,熊本市西区,田崎町４１４番地,,43,103,8600058,,,2025-06-26,清算の結了等,,,2015-10-05,1,,,,,ヨウムラショウテン,0
2274,9370001048150,登記記録の閉鎖等,0,2025-07-08,2025-06-25,株式会社エピデミア,,株式会社,宮城県,仙台市青葉区,滝道２５番１７号,,04,101,9810951,,,2025-06-25,清算の結了等,,,2022-02-01,1,,,,,エピデミア,0
2295,9440002004797,登記記録の閉鎖等,0,2025-07-08,2025-07-07,有限会社味楽亭,,有限会社,北海道,函館市,石川町１０７番地の２３,,01,202,0410802,,,2025-07-07,清算の結了等,,,2015-10-05,1,,,,,ミラクテイ,0
2306,9500002012629,登記記録の閉鎖等,0,2025-07-08,2025-06-30,有限会社ウエマツ建設,,有限会社,愛媛県,大洲市,菅田町菅田甲８５１番地２,,38,207,7950081,,,2025-06-30,清算の結了等,,,2015-10-05,1,,,,,ウエマツケンセツ,0
