sequenceNumber,corporateNumber,process,correct,updateDate,changeDate,name,nameImageId,kind,prefectureName,cityName,streetNumber,addressImageId,prefectureCode,cityCode,postCode,addressOutside,addressOutsideImageId,closeDate,closeCause,successorCorporateNumber,changeCause,assignmentDate,latest,enName,enPrefectureName,enCityName,enAddressOutside,furigana,hihyoji
6,1010001244296,新規,0,2024-05-02,2024-05-02,メディライス株式会社,,株式会社,東京都,中央区,京橋２丁目６番１４号,,13,102,1040031,,,,,,,2024-05-02,1,,,,,,0
7,1010001244395,新規,0,2024-05-02,2024-05-02,ＡＫコンサルティング株式会社,,株式会社,東京都,中央区,日本橋兜町１７番１号日本橋ロイヤルプラザ７０６,,13,102,1030026,,,,,,,2024-05-02,1,,,,,エイケイコンサルティング,0
8,1010001244494,新規,0,2024-05-02,2024-05-02,シルバーライニング株式会社,,株式会社,東京都,中央区,銀座１丁目１６番地１号東貨ビル９階,,13,102,1040061,,,,,,,2024-05-02,1,,,,,シルバーライニング,0
9,1010001244536,新規,0,2024-05-02,2024-05-02,ＡＣＨ株式会社,,株式会社,東京都,中央区,日本橋蛎殻町１丁目３番５号共同ビル２階２３号,,13,102,1030014,,,,,,,2024-05-02,1,,,,,エーシーエイチ,0
10,1010001244552,新規,0,2024-05-02,2024-05-02,ＬＤＥＣ株式会社,,株式会社,東京都,中央区,京橋２丁目９番２号,,13,102,1040031,,,,,,,2024-05-02,1,,,,,エルディーイーシー,0
22,1010401181949,新規,0,2024-05-02,2024-05-02,株式会社ＪＡＤＥ　ＵＰ,,株式会社,東京都,港区,芝３丁目４－１６ＫＤＸレジデンス芝公園７０２,,13,103,1050014,,,,,,,2024-05-02,1,,,,,ジェイダップ,0
25,1010403032530,新規,0,2024-05-02,2024-05-02,合同会社みなと００１,,合同会社,東京都,港区,虎ノ門３丁目２２番１０－２０１号,,13,103,1050001,,,,,,,2024-05-02,1,,,,,ミナトゼロゼロワン,0
26,1010403032547,新規,0,2024-05-02,2024-05-02,合同会社シルバーアップル,,合同会社,東京都,港区,虎ノ門３丁目２２番１０－２０１号,,13,103,1050001,,,,,,,2024-05-02,1,,,,,シルバーアップル,0
27,1010405023214,新規,0,2024-05-02,2024-05-02,一般社団法人みなと００２,,その他の設立登記法人,東京都,港区,虎ノ門３丁目２２番１０－２０１号,,13,103,1050001,,,,,,,2024-05-02,1,,,,,ミナトゼロゼロツー,0
28,1010405023222,新規,0,2024-05-02,2024-05-02,一般社団法人シルバーアップル,,その他の設立登記法人,東京都,港区,虎ノ門３丁目２２番１０－２０１号,,13,103,1050001,,,,,,,2024-05-02,1,,,,,シルバーアップル,0
32,1010501052199,新規,0,2024-05-02,2024-05-02,福田株式会社,,株式会社,東京都,台東区,千束３丁目８番１０号４０４室,,13,106,1110031,,,,,,,2024-05-02,1,,,,,フクダ,0
37,1010901055173,新規,0,2024-05-02,2024-05-02,Ｕｒｏｂｏｒｏｓ　Ｐａｒｔｎｅｒ株式会社,,株式会社,東京都,世田谷区,玉川３丁目２０番２号マノア玉川第３ビル５０１号室,,13,112,1580094,,,,,,,2024-05-02,1,,,,,ウロボロスパートナー,0
38,1010901055198,新規,0,2024-05-02,2024-05-02,株式会社Ｍ‐ＦＡＣＴＯＲＹ,,株式会社,東京都,世田谷区,世田谷１丁目１４番３号,,13,112,1540017,,,,,,,2024-05-02,1,,,,,エムファクトリー,0
41,1010903009029,新規,0,2024-05-02,2024-05-02,ブリックスパートナーズ合同会社,,合同会社,東京都,世田谷区,深沢６丁目２０番１０号,,13,112,1580081,,,,,,,2024-05-02,1,,,,,ブリックスパートナーズ,0
48,1011001161671,新規,0,2024-05-02,2024-05-02,ＥＲＩＫＯ　Ｂｅａｕｔｙ　Ｐｒｏｄｕｃｅ株式会社,,株式会社,東京都,渋谷区,広尾１丁目１１番５－１１１２号,,13,113,1500012,,,,,,,2024-05-02,1,,,,,エリコビューティープロデュース,0
49,1011001161688,新規,0,2024-05-02,2024-05-02,株式会社ハイパーモルモット,,株式会社,東京都,渋谷区,広尾２丁目１－１８広尾Ｎビル４階,,13,113,1500012,,,,,,,2024-05-02,1,,,,,ハイパーモルモット,0
50,1011001161721,新規,0,2024-05-02,2024-05-02,株式会社Ｂｒｉｌｌｅ,,株式会社,東京都,渋谷区,渋谷２丁目１９番１５号宮益坂ビルディング６０９,,13,113,1500002,,,,,,,2024-05-02,1,,,,,ブリエ,0
53,1011101107070,新規,0,2024-05-02,2024-05-02,株式会社Ａｒｋ　Ｈｅａｌｔｈｃａｒｅ,,株式会社,東京都,新宿区,矢来町１１１－１ＹＳＫＡＧＵＲＡＺＡＫＡ９０１,,13,104,1620805,,,,,,,2024-05-02,1,,,,,アークヘルスケア,0
54,1011101107153,新規,0,2024-05-02,2024-05-02,東雲株式会社,,株式会社,東京都,新宿区,北新宿３丁目３１番１４号柏木クラビオン５０１号室,,13,104,1690074,,,,,,,2024-05-02,1,,,,,シノノメ,0
62,1011201025445,新規,0,2024-05-02,2024-05-02,株式会社ニュートラル,,株式会社,東京都,中野区,上鷺宮４丁目１７番１３号,,13,114,1650031,,,,,,,2024-05-02,1,,,,,ニュートラル,0
68,1011701027222,新規,0,2024-05-02,2024-05-02,株式会社テックホーン・コンサルティング,,株式会社,東京都,江戸川区,西葛西３丁目１１番１６号,,13,123,1340088,,,,,,,2024-05-02,1,,,,,テックホーンコンサルティング,0
71,1011801044191,新規,0,2024-05-02,2024-05-02,ＢＡＣＫ　ＯＦＦＩＣＥ株式会社,,株式会社,東京都,葛飾区,奥戸７丁目７－８,,13,122,1240022,,,,,,,2024-05-02,1,,,,,バックオフィス,0
73,1012301013892,新規,0,2024-05-02,2024-05-02,株式会社Ｇａｔｔｏ,,株式会社,東京都,町田市,金井ヶ丘４丁目４３－１１,,13,209,1950076,,,,,,,2024-05-02,1,,,,,ガット,0
75,1012303001986,新規,0,2024-05-02,2024-05-02,ストック合同会社,,合同会社,東京都,町田市,原町田２丁目４番３号,,13,209,1940013,,,,,,,2024-05-02,1,,,,,ストック,0
82,1012801023144,新規,0,2024-05-02,2024-05-02,因幡技研株式会社,,株式会社,東京都,国分寺市,本多５丁目１３番７号ナイスプラザ４０６,,13,214,1850011,,,,,,,2024-05-02,1,,,,,イナバギケン,0
88,1020001156986,新規,0,2024-05-02,2024-05-02,ＧＯＤ　Ｆｏｏｄｓ株式会社,,株式会社,神奈川県,横浜市港北区,高田西５丁目３０番９号,,14,109,2230066,,,,,,,2024-05-02,1,,,,,ゴッドフーズ,0
89,1020001157035,新規,0,2024-05-02,2024-05-02,株式会社オトムスビ,,株式会社,神奈川県,川崎市多摩区,登戸新町４２２番地１ボヌール・ロジュマン１０１,,14,135,2140013,,,,,,,2024-05-02,1,,,,,オトムスビ,0
93,1021001082116,新規,0,2024-05-02,2024-05-02,株式会社桜花,,株式会社,神奈川県,茅ヶ崎市,芹沢９１８番地１１,,14,207,2530008,,,,,,,2024-05-02,1,,,,,オウカ,0
101,1030001159996,新規,0,2024-05-02,2024-05-02,株式会社ＢＯＮＤＳ,,株式会社,埼玉県,白岡市,新白岡９丁目１５－４ＰＲＩＭＥＭＩＲＡＩＥＡＳＴ,,11,246,3490212,,,,,,,2024-05-02,1,,,,,ボンズ,0
102,1030001160129,新規,0,2024-05-02,2024-05-02,株式会社サンクス,,株式会社,埼玉県,鴻巣市,鎌塚１丁目１１番２号,,11,217,3690112,,,,,,,2024-05-02,1,,,,,サンクス,0
110,1030003024199,新規,0,2024-05-02,2024-05-02,合同会社Ｃｅｒｅｚｏ,,合同会社,埼玉県,ふじみ野市,苗間５９１－１０,,11,245,3560052,,,,,,,2024-05-02,1,,,,,セレッソ,0
112,1040001133397,新規,0,2024-05-02,2024-05-02,株式会社山川塗装,,株式会社,千葉県,松戸市,常盤平７丁目２８番地の６－２０１号,,12,207,2702261,,,,,,,2024-05-02,1,,,,,ヤマカワトソウ,0
114,1040003024867,新規,0,2024-05-02,2024-05-02,合同会社ＳＳＰ,,合同会社,千葉県,市川市,平田４丁目１０番１号,,12,203,2720031,,,,,,,2024-05-02,1,,,,,エスエスピー,0
115,1040003024875,新規,0,2024-05-02,2024-05-02,合同会社ハーベスト,,合同会社,千葉県,松戸市,根本７０－２マンション高橋３０２,,12,207,2710077,,,,,,,2024-05-02,1,,,,,ハーベスト,0
116,1040003024900,新規,0,2024-05-02,2024-05-02,合同会社Ｋ＆Ａ,,合同会社,千葉県,千葉市花見川区,幕張町４丁目６８９番地,,12,102,2620032,,,,,,,2024-05-02,1,,,,,ケーアンドエー,0
117,1040005022381,新規,0,2024-05-02,2024-05-02,医療法人社団高邦会,,その他の設立登記法人,千葉県,成田市,南三里塚１８番地１,,12,211,2860113,,,,,,,2024-05-02,1,,,,,コウホウカイ,0
127,1070005010268,新規,0,2024-05-02,2024-05-02,農事組合法人マスコファーム,,その他の設立登記法人,群馬県,みどり市,笠懸町鹿１７１番地１Ｂ２,,10,212,3792313,,,,,,,2024-05-02,1,,,,,マスコファーム,0
129,1080401027154,新規,0,2024-05-02,2024-05-02,株式会社チョキットサンド,,株式会社,静岡県,浜松市中央区,十軒町６０番地の１,,22,138,4350055,,,,,,,2024-05-02,1,,,,,チョキットサンド,0
130,1080401027170,新規,0,2024-05-02,2024-05-02,株式会社ナイスラン,,株式会社,静岡県,浜松市中央区,佐鳴台３丁目５４番３７号,,22,138,4328021,,,,,,,2024-05-02,1,,,,,ナイスラン,0
132,1080403005001,新規,0,2024-05-02,2024-05-02,合同会社サンプー,,合同会社,静岡県,浜松市中央区,神立町５１８番地の２,,22,138,4300801,,,,,,,2024-05-02,1,,,,,サンプー,0
135,1110001038382,新規,0,2024-05-02,2024-05-02,株式会社高橋興業,,株式会社,新潟県,長岡市,宝５丁目８番地２３,,15,202,9400016,,,,,,,2024-05-02,1,,,,,タカハシコウギョウ,0
136,1110003005372,新規,0,2024-05-02,2024-05-02,Ｔａｍａｇｏ合同会社,,合同会社,新潟県,妙高市,大字関川７８１－５３,,15,217,9492112,,,,,,,2024-05-02,1,,,,,,0
145,1120001264440,新規,0,2024-05-02,2024-05-02,華立株式会社,,株式会社,大阪府,大阪市東住吉区,針中野３丁目３－８,,27,121,5460011,,,,,,,2024-05-02,1,,,,,カリツ,0
146,1120001264548,新規,0,2024-05-02,2024-05-02,セレクション株式会社,,株式会社,大阪府,大阪市北区,梅田１丁目２番２号大阪駅前第２ビル１２－１２,,27,127,5300001,,,,,,,2024-05-02,1,,,,,セレクション,0
147,1120001264564,新規,0,2024-05-02,2024-05-02,小盧株式会社,,株式会社,大阪府,大阪市大正区,三軒家西３丁目４番１６号中山ビル２１２Ｂ,,27,108,5510001,,,,,,,2024-05-02,1,,,,,ショウロ,0
149,1120003026500,新規,0,2024-05-02,2024-05-02,合同会社オンザハント,,合同会社,大阪府,大阪市天王寺区,夕陽丘町４－２ＭｅｔｒｏＰｏｒｔｅ四天王寺前夕陽ケ丘ＩＩＩ「ＢＩＺｃｏｍｆｏｒｔ四天王寺」３９号室,00134613,27,109,5430075,,,,,,,2024-05-02,1,,,,,オンザハント,0
150,1120003026525,新規,0,2024-05-02,2024-05-02,ＭＡＳＨＡＬＬＡＨ　ＴＲＡＤＩＮＧ合同会社,,合同会社,大阪府,大阪市西区,九条２丁目２２番１０号－２０２,,27,106,5500027,,,,,,,2024-05-02,1,,,,,マシャラトレーディング,0
157,1130001076959,新規,0,2024-05-02,2024-05-02,株式会社きょうどうコンサルティング,,株式会社,京都府,京都市中京区,西洞院通三条下る柳水町８４番地三洋六角ビル２０２,,26,104,6048242,,,,,,,2024-05-02,1,,,,,キョウドウコンサルティング,0
158,1130001076975,新規,0,2024-05-02,2024-05-02,株式会社ＹＡＹＫＡ,,株式会社,京都府,京都市中京区,六角通富小路西入大黒町７６－２不破ビル１Ｆ,,26,104,6048073,,,,,,,2024-05-02,1,,,,,ヤイカ,0
159,1130001076983,新規,0,2024-05-02,2024-05-02,株式会社ｓｅｌｌｆｉｓｈ．,,株式会社,京都府,京都市左京区,岩倉村松町１２３番地７８,,26,103,6060034,,,,,,,2024-05-02,1,,,,,セルフィッシュ,0
164,1130003009512,新規,0,2024-05-02,2024-05-02,ＣｕｒｅｎｔｈｅＸ合同会社,,合同会社,京都府,京都市下京区,七条通油小路東入大黒町２２７番地第２キョートビル４０２,,26,106,6008223,,,,,,,2024-05-02,1,,,,,キュレンテックス,0
165,1130003009520,新規,0,2024-05-02,2024-05-02,合同会社ジョイプロダクト,,合同会社,京都府,京都市上京区,中立売通松屋町西入新白水丸町４６２－５７プラネシア中立売１０１,,26,102,6028205,,,,,,,2024-05-02,1,,,,,ジョイプロダクト,0
166,1130003009537,新規,0,2024-05-02,2024-05-02,合同会社ＬＥＯ,,合同会社,京都府,向日市,物集女町北ノ口５５－３６,,26,208,6170001,,,,,,,2024-05-02,1,,,,,レオ,0
167,1140001134278,新規,0,2024-05-02,2024-05-02,株式会社ＷＨＩＴＥ,,株式会社,兵庫県,神戸市東灘区,深江南町１丁目１番２４号,,28,101,6580022,,,,,,,2024-05-02,1,,,,,ホワイト,0
169,1140005027065,新規,0,2024-05-02,2024-05-02,一般社団法人さつき会,,その他の設立登記法人,兵庫県,神戸市東灘区,田中町１丁目１５番７－２０３号,,28,101,6580081,,,,,,,2024-05-02,1,,,,,サツキカイ,0
172,1150001027258,新規,0,2024-05-02,2024-05-02,株式会社サンジャトレーディング,,株式会社,奈良県,吉野郡吉野町,大字御園３６７番地,,29,441,6393444,,,,,,,2024-05-02,1,,,,,サンジャトレーディング,0
175,1160003003181,新規,0,2024-05-02,2024-05-02,合同会社オーキッド,,合同会社,滋賀県,栗東市,野尻５２４番地（Ｂ－２０２号）,,25,208,5203027,,,,,,,2024-05-02,1,,,,,オーキッド,0
179,1170003002034,新規,0,2024-05-02,2024-05-02,合同会社リッシュ,,合同会社,和歌山県,御坊市,薗８１６－８,,30,205,6440002,,,,,,,2024-05-02,1,,,,,リッシュ,0
197,1180003026734,新規,0,2024-05-02,2024-05-02,合同会社クロスホサカ,,合同会社,愛知県,名古屋市守山区,小幡南１丁目９番１５号パークシティザ・ウイングス西棟２０２号,,23,113,4630048,,,,,,,2024-05-02,1,,,,,クロスホサカ,0
202,1190003004664,新規,0,2024-05-02,2024-05-02,合同会社ｍｉｓａｔｏ,,合同会社,三重県,志摩市,志摩町御座１１３番地,,24,215,5170705,,,,,,,2024-05-02,1,,,,,ミサト,0
219,1240001063153,新規,0,2024-05-02,2024-05-02,株式会社ラ・ヴィータ・フェリーチェ,,株式会社,広島県,広島市中区,西白島町１９番１－８０４号,,34,101,7300005,,,,,,,2024-05-02,1,,,,,ラヴィータフェリーチェ,0
229,1280001009169,新規,0,2024-05-02,2024-05-02,株式会社Ｍ’ｓ　ｗｏｒｋｓ,,株式会社,島根県,松江市,福原町２０番地８わこう３－１０２号,,32,201,6900811,,,,,,,2024-05-02,1,,,,,エムズワークス,0
233,1290001105561,新規,0,2024-05-02,2024-05-02,株式会社ビルド,,株式会社,福岡県,大川市,大字鬼古賀４１３－１,,40,212,8310024,,,,,,,2024-05-02,1,,,,,ビルド,0
234,1290005019386,新規,0,2024-05-02,2024-05-02,一般社団法人不動産被害者の会,,その他の設立登記法人,福岡県,福岡市東区,箱崎２丁目２１番１７号,,40,131,8120053,,,,,,,2024-05-02,1,,,,,フドウサンヒガイシャノカイ,0
236,1300001013713,新規,0,2024-05-02,2024-05-02,株式会社そばかす,,株式会社,佐賀県,鳥栖市,加藤田町２丁目１５０番地５０,,41,203,8410003,,,,,,,2024-05-02,1,,,,,ソバカス,0
237,1310001018991,新規,0,2024-05-02,2024-05-02,Ｂｏｒｄｅｒ株式会社,,株式会社,長崎県,佐世保市,大宮町４６番１号,,42,202,8570841,,,,,,,2024-05-02,1,,,,,ボーダー,0
238,1320001020443,新規,0,2024-05-02,2024-05-02,株式会社Ａｄｖａｎｃｅ　Ｗａｙｓ,,株式会社,大分県,大分市,汐見２丁目２番２４号,,44,201,8700253,,,,,,,2024-05-02,1,,,,,アドバンスウェイズ,0
239,1320001020451,新規,0,2024-05-02,2024-05-02,ペルシア株式会社,,株式会社,大分県,日田市,中城町２番３０号,,44,204,8770011,,,,,,,2024-05-02,1,,,,,ペルシア,0
242,1320003004353,新規,0,2024-05-02,2024-05-02,合同会社ＳＨＯＤＡＩ,,合同会社,大分県,佐伯市,蒲江大字畑野浦６４１番地,,44,205,8762201,,,,,,,2024-05-02,1,,,,,ショウダイ,0
243,1340001026471,新規,0,2024-05-02,2024-05-02,株式会社えん,,株式会社,鹿児島県,鹿児島市,吉野町１１３９０番地５,,46,201,8920871,,,,,,,2024-05-02,1,,,,,エン,0
244,1340003004459,新規,0,2024-05-02,2024-05-02,合同会社ｏｍｕｒｅｙｓ,,合同会社,鹿児島県,鹿児島市,西田２丁目１０番１５号,,46,201,8900046,,,,,,,2024-05-02,1,,,,,オームレイズ,0
245,1340003004467,新規,0,2024-05-02,2024-05-02,ｐａｌｉｃｏ合同会社,,合同会社,鹿児島県,南九州市,川辺町上山田１２３２番地１,,46,223,8970131,,,,,,,2024-05-02,1,,,,,パリコ,0
251,1350003004631,新規,0,2024-05-02,2024-05-02,合同会社ｗｅａｌｉＦｅ,,合同会社,宮崎県,小林市,細野９３７番地１２,,45,205,8860004,,,,,,,2024-05-02,1,,,,,ウィーライフ,0
253,1360001033607,新規,0,2024-05-02,2024-05-02,Ｉｎｋｐｏｔ株式会社,,株式会社,沖縄県,中頭郡西原町,字幸地１０３７番地の２,,47,329,9030116,,,,,,,2024-05-02,1,,,,,インクポット,0
258,1380001034495,新規,0,2024-05-02,2024-05-02,株式会社あったか,,株式会社,福島県,白河市,白坂三輪台６－５３,,07,205,9610835,,,,,,,2024-05-02,1,,,,,アッタカ,0
261,1380005012828,新規,0,2024-05-02,2024-05-02,一般社団法人ファンメーク,,その他の設立登記法人,福島県,田村市,船引町東部台４丁目２８１番地２Ｆ,,07,211,9634317,,,,,,,2024-05-02,1,,,,,ファンメーク,0
266,1430001091705,新規,0,2024-05-02,2024-05-02,株式会社ストリーム,,株式会社,北海道,札幌市中央区,南六条西１１丁目１２８４－２７マチュザレムビル５０２,,01,101,0640806,,,,,,,2024-05-02,1,,,,,ストリーム,0
274,1500001025597,新規,0,2024-05-02,2024-05-02,紙企画株式会社,,株式会社,愛媛県,松山市,東野３丁目２番１３号,,38,201,7900903,,,,,,,2024-05-02,1,,,,,カミキカク,0
278,2010001244386,新規,0,2024-05-02,2024-05-02,ＣＨＡＩＮＳＴＡＲ株式会社,,株式会社,東京都,千代田区,大手町１丁目６－１大手町ビル１Ｆ－３ＦＳｐａｃｅｓ大手町,,13,101,1000004,,,,,,,2024-05-02,1,,,,,チェンスター,0
279,2010001244403,新規,0,2024-05-02,2024-05-02,株式会社ヴァルキリーインタラクティブ,,株式会社,東京都,千代田区,神田駿河台２丁目２－１國井ビル４Ｆ,,13,101,1010062,,,,,,,2024-05-02,1,,,,,ヴァルキリーインタラクティブ,0
283,2010401182129,新規,0,2024-05-02,2024-05-02,株式会社ＢｒｉｄｇｅＧａｔｅ　Ｓｔａｆｆｉｎｇ　Ｊａｐａｎ,,株式会社,東京都,港区,芝５丁目３２番１２号シャーメゾンステージ田町４Ｆ,,13,103,1080014,,,,,,,2024-05-02,1,,,,,ブリッジゲートスタッフィングジャパン,0
284,2010401182153,新規,0,2024-05-02,2024-05-02,ＩＢＣ株式会社,,株式会社,東京都,港区,芝大門２丁目４番５－９０８号,,13,103,1050012,,,,,,,2024-05-02,1,,,,,アイビーシー,0
285,2010401182161,新規,0,2024-05-02,2024-05-02,Ｔ．Ｓ株式会社,,株式会社,東京都,港区,南麻布１丁目１番３号,,13,103,1060047,,,,,,,2024-05-02,1,,,,,ティードットエス,0
286,2010401182203,新規,0,2024-05-02,2024-05-02,株式会社Ｔ　Ｐａｒｔｎｅｒｓ,,株式会社,東京都,港区,虎ノ門４丁目１番２８号虎ノ門タワーズオフィス１７階,,13,103,1050001,,,,,,,2024-05-02,1,,,,,ティーパートナーズ,0
288,2010403032546,新規,0,2024-05-02,2024-05-02,合資会社フィンテックキャピタル,,合資会社,東京都,港区,赤坂２丁目２１番１５号,,13,103,1070052,,,,,,,2024-05-02,1,,,,,フィンテックキャピタル,0
290,2010405023213,新規,0,2024-05-02,2024-05-02,一般社団法人みなと００１,,その他の設立登記法人,東京都,港区,虎ノ門３丁目２２番１０－２０１号,,13,103,1050001,,,,,,,2024-05-02,1,,,,,ミナトゼロゼロワン,0
294,2010603010806,新規,0,2024-05-02,2024-05-02,合同会社ＹＯＩＦＵＲＯ,,合同会社,東京都,墨田区,東墨田２丁目１１‐４,,13,107,1310042,,,,,,,2024-05-02,1,,,,,ヨイフロ,0
297,2010801035010,新規,0,2024-05-02,2024-05-02,株式会社ＲＵＬＥ,,株式会社,東京都,大田区,西糀谷２丁目３１番３号,,13,111,1440034,,,,,,,2024-05-02,1,,,,,ルール,0
298,2010803004938,新規,0,2024-05-02,2024-05-02,いさらや合同会社,,合同会社,東京都,大田区,西蒲田３丁目１６番１９号,,13,111,1440051,,,,,,,2024-05-02,1,,,,,イサラヤ,0
300,2010901055180,新規,0,2024-05-02,2024-05-02,株式会社ＣＲＥＳＣＥＮＴ,,株式会社,東京都,世田谷区,成城３丁目７－４ルナサテラートＢ,,13,112,1570066,,,,,,,2024-05-02,1,,,,,クレセント,0
308,2011001161563,新規,0,2024-05-02,2024-05-02,株式会社ＲＴＫ,,株式会社,東京都,渋谷区,桜丘町２３番１７号シティコート桜丘４０８,,13,113,1500031,,,,,,,2024-05-02,1,,,,,アールティーケー,0
309,2011001161679,新規,0,2024-05-02,2024-05-02,株式会社ＰｒｏＡＩ,,株式会社,東京都,目黒区,三田２丁目３番８号,,13,110,1530062,,,,,,,2024-05-02,1,,,,,プロエーアイ,0
310,2011001161695,新規,0,2024-05-02,2024-05-02,株式会社リアンファンフィット,,株式会社,東京都,目黒区,自由が丘２丁目１２番２１号,,13,110,1520035,,,,,,,2024-05-02,1,,,,,リアンファンフィット,0
311,2011001161704,新規,0,2024-05-02,2024-05-02,株式会社ＰＡＹ　ＦＯＲＷＡＲＤ,,株式会社,東京都,渋谷区,恵比寿１丁目８番１８号Ｋ－１ビル３Ｆ,,13,113,1500013,,,,,,,2024-05-02,1,,,,,ペイフォワード,0
312,2011001161720,新規,0,2024-05-02,2024-05-02,株式会社ＳＴＯＮＥ　ＥＤＧＥ,,株式会社,東京都,渋谷区,神南１丁目４番９－５０４号テアトル神南,,13,113,1500041,,,,,,,2024-05-02,1,,,,,ストーンエッジ,0
319,2011101107152,新規,0,2024-05-02,2024-05-02,株式会社ロードマシナリー,,株式会社,東京都,新宿区,揚場町２－１８ブリエ飯田橋４Ｆ,,13,104,1620824,,,,,,,2024-05-02,1,,,,,ロードマシナリー,0
320,2011101107177,新規,0,2024-05-02,2024-05-02,株式会社ｓｔｕｄｉｏ　ＲＥＢＥＣＣＡ,,株式会社,東京都,新宿区,百人町２丁目１番４７号,,13,104,1690073,,,,,,,2024-05-02,1,,,,,スタジオレベッカ,0
323,2011103014371,新規,0,2024-05-02,2024-05-02,ＡＫＡＮＥ０１合同会社,,合同会社,東京都,新宿区,西新宿２丁目１番１号新宿三井ビル４３階,,13,104,1600023,,,,,,,2024-05-02,1,,,,,アカネゼロワン,0
332,2012301013891,新規,0,2024-05-02,2024-05-02,株式会社Ｃｒｏｓｓ　Ｏｖｅｒ　Ｃｏｍｐａｎｙ,,株式会社,東京都,町田市,原町田６丁目２１番２３号３Ｆ,,13,209,1940013,,,,,,,2024-05-02,1,,,,,クロスオーバーカンパニー,0
333,2012303001985,新規,0,2024-05-02,2024-05-02,合同会社Ｃ‐ＬＩＮＫ,,合同会社,東京都,町田市,小野路町４３７４番地４ベルハウス２０３,,13,209,1950064,,,,,,,2024-05-02,1,,,,,シーリンク,0
336,2012803003382,新規,0,2024-05-02,2024-05-02,合同会社Ｄｅｌｉｇｈｔ,,合同会社,東京都,昭島市,郷地町３丁目７番８－２０４号,,13,207,1960032,,,,,,,2024-05-02,1,,,,,ディライト,0
340,2013305003598,新規,0,2024-05-02,2024-05-02,一般財団法人ＪＳＣ国際共生奨学財団,,その他の設立登記法人,東京都,豊島区,北大塚１丁目１３番４号オーク大塚ビル６階,,13,116,1700004,,,,,,,2024-05-02,1,,,,,ジェイエスシーコクサイキョウセイショウガクザイダン,0
342,2020001157018,新規,0,2024-05-02,2024-05-02,ＨＬＪ株式会社,,株式会社,神奈川県,横浜市西区,北幸２丁目１０番４８号むつみビル３階,,14,103,2200004,,,,,,,2024-05-02,1,,,,,エイチエルジェー,0
346,2020003026030,新規,0,2024-05-02,2024-05-02,合同会社ＳｅｍｉＬａｔｔｉｃｅ,,合同会社,神奈川県,横浜市神奈川区,神奈川２丁目１８番地１８アイランドパレス東神奈川３０３,,14,102,2210045,,,,,,,2024-05-02,1,,,,,セミラティス,0
357,2021001082081,新規,0,2024-05-02,2024-05-02,株式会社フルバック,,株式会社,神奈川県,相模原市中央区,相模原４丁目９番１２号６０２,,14,152,2520231,,,,,,,2024-05-02,1,,,,,フルバック,0
358,2021001082115,新規,0,2024-05-02,2024-05-02,ニューエンターテイメントオブネオン株式会社,,株式会社,神奈川県,相模原市南区,桜台３番７号,,14,153,2520315,,,,,,,2024-05-02,1,,,,,ニューエンターテイメントオブネオン,0
359,2021001082123,新規,0,2024-05-02,2024-05-02,株式会社Ｂエンドレス,,株式会社,神奈川県,綾瀬市,寺尾中４丁目１５番１０号,,14,218,2521132,,,,,,,2024-05-02,1,,,,,ビーエンドレス,0
361,2021003014470,新規,0,2024-05-02,2024-05-02,ＪＷ　Ｉｎｖｅｓｔｍｅｎｔｓ合同会社,,合同会社,神奈川県,相模原市緑区,長竹４４２番地１２,,14,151,2520154,,,,,,,2024-05-02,1,,,,,ジェイダブリューインベストメンツ,0
368,2030001160103,新規,0,2024-05-02,2024-05-02,アポステル株式会社,,株式会社,埼玉県,北足立郡伊奈町,西小針１丁目７３番地３８,,11,301,3620811,,,,,,,2024-05-02,1,,,,,アポステル,0
369,2030001160111,新規,0,2024-05-02,2024-05-02,株式会社ＯＡＳＩＳ,,株式会社,埼玉県,越谷市,北越谷４丁目２５番１０号－１０１,,11,222,3430026,,,,,,,2024-05-02,1,,,,,オアシス,0
370,2030001160128,新規,0,2024-05-02,2024-05-02,株式会社ＳＫＳ,,株式会社,埼玉県,本庄市,栄２丁目１０番６号,,11,211,3670046,,,,,,,2024-05-02,1,,,,,エスケーエス,0
377,2030003024198,新規,0,2024-05-02,2024-05-02,ＤＵＭＡＵ　ＩＮＴＥＲＮＡＴＩＯＮＡＬ合同会社,,合同会社,埼玉県,鴻巣市,宮前３９７番地４,,11,217,3650051,,,,,,,2024-05-02,1,,,,,ドゥマウインターナショナル,0
378,2030003024207,新規,0,2024-05-02,2024-05-02,合同会社アクアルビー,,合同会社,埼玉県,川口市,芝新町４－８,,11,203,3330851,,,,,,,2024-05-02,1,,,,,アクアルビー,0
382,2040003024775,新規,0,2024-05-02,2024-05-02,福田屋不動産合同会社,,合同会社,千葉県,松戸市,東松戸１丁目９番地の２,,12,207,2702225,,,,,,,2024-05-02,1,,,,,フクダヤフドウサン,0
383,2040003024890,新規,0,2024-05-02,2024-05-02,ＬＡＸＭＩ合同会社,,合同会社,千葉県,市川市,鬼高２丁目１０－８柳沢ビル２０２号,,12,203,2720015,,,,,,,2024-05-02,1,,,,,ラクスミ,0
384,2040003024899,新規,0,2024-05-02,2024-05-02,合同会社Ｗｉｎｇ,,合同会社,千葉県,佐倉市,西ユーカリが丘１丁目８－２,,12,212,2850850,,,,,,,2024-05-02,1,,,,,ウィング,0
385,2050001054708,新規,0,2024-05-02,2024-05-02,株式会社紅芳,,株式会社,茨城県,つくば市,桜２丁目９－２トップ・アスリートＥ１０３,,08,220,3050003,,,,,,,2024-05-02,1,,,,,コウホウ,0
386,2050003008323,新規,0,2024-05-02,2024-05-02,ＭＩＲＡＩ合同会社,,合同会社,茨城県,筑西市,木戸４７５,,08,227,3080104,,,,,,,2024-05-02,1,,,,,ミライ,0
397,2070003005401,新規,0,2024-05-02,2024-05-02,合同会社こころば居宅介護支援事業所,,合同会社,群馬県,太田市,台之郷町７０６番地３,,10,205,3730801,,,,,,,2024-05-02,1,,,,,,0
398,2070005010267,新規,0,2024-05-02,2024-05-02,特定非営利活動法人アスワード,,その他の設立登記法人,群馬県,伊勢崎市,連取町３３３３番地６ライトフェイス内,,10,204,3720812,,,,,,,2024-05-02,1,,,,,アスワード,0
402,2080403005000,新規,0,2024-05-02,2024-05-02,合同会社ｗａｋｅ,,合同会社,静岡県,浜松市中央区,東若林町１４３４番地の２,,22,138,4328052,,,,,,,2024-05-02,1,,,,,ウェイク,0
403,2100001037418,新規,0,2024-05-02,2024-05-02,株式会社ｐａｓｔｅｌ,,株式会社,長野県,松本市,庄内１丁目８番１２号,,20,202,3900828,,,,,,,2024-05-02,1,,,,,パステル,0
405,2100003007518,新規,0,2024-05-02,2024-05-02,合同会社雲のポッケ,,合同会社,長野県,松本市,大字今井２６１６番１,,20,202,3901131,,,,,,,2024-05-02,1,,,,,クモノポッケ,0
409,2110001038381,新規,0,2024-05-02,2024-05-02,株式会社Ｒｉｓｅ,,株式会社,新潟県,新潟市東区,藤見町１丁目１２番５号,,15,102,9500025,,,,,,,2024-05-02,1,,,,,ライズ,0
418,2120001264539,新規,0,2024-05-02,2024-05-02,株式会社アドエフ,,株式会社,大阪府,大阪市東淀川区,大桐１丁目８番７号,,27,114,5330011,,,,,,,2024-05-02,1,,,,,アドエフ,0
419,2120001264547,新規,0,2024-05-02,2024-05-02,株式会社ＤＯＤ,,株式会社,大阪府,大阪市大正区,泉尾１丁目１３番９号,,27,108,5510031,,,,,,,2024-05-02,1,,,,,ディーオーディー,0
420,2120001264555,新規,0,2024-05-02,2024-05-02,株式会社ＧＹＲＥ,,株式会社,大阪府,大阪市中央区,北久宝寺町３丁目６番１号本町南ガーデンシティ７階,,27,128,5410057,,,,,,,2024-05-02,1,,,,,ジャイル,0
421,2120001264563,新規,0,2024-05-02,2024-05-02,知一株式会社,,株式会社,大阪府,大阪市城東区,関目５丁目１９番９号関目花博公館４０８Ｂ,,27,118,5360008,,,,,,,2024-05-02,1,,,,,チイチ,0
422,2120003026540,新規,0,2024-05-02,2024-05-02,合同会社アトリエイト,,合同会社,大阪府,大阪市東淀川区,下新庄３丁目４番２７‐５０６号,,27,114,5330021,,,,,,,2024-05-02,1,,,,,アトリエイト,0
424,2120005024303,新規,0,2024-05-02,2024-05-02,サンディール司法書士法人,,その他の設立登記法人,大阪府,大阪市中央区,谷町２丁目７番４号,,27,128,5400012,,,,,,,2024-05-02,1,,,,,サンディール,0
426,2120103005808,新規,0,2024-05-02,2024-05-02,合同会社ラクサス,,合同会社,大阪府,富田林市,大字嬉７４４番地１,,27,214,5840056,,,,,,,2024-05-02,1,,,,,ラクサス,0
427,2120901049122,新規,0,2024-05-02,2024-05-02,株式会社キーポイント,,株式会社,大阪府,豊中市,北条町１丁目１０番２６号,,27,203,5610812,,,,,,,2024-05-02,1,,,,,キーポイント,0
435,2130001076933,新規,0,2024-05-02,2024-05-02,株式会社Ｕ‐ＴＥＣ,,株式会社,京都府,亀岡市,南つつじケ丘桜台４丁目８番１９号,,26,206,6210847,,,,,,,2024-05-02,1,,,,,ユーテック,0
436,2130001076958,新規,0,2024-05-02,2024-05-02,株式会社Ｕｎｃｏｕｎｔａｂｌｅ　Ｓｅｔ,,株式会社,京都府,京都市中京区,河原町通二条下る一之船入町３７６クロトビル５階,,26,104,6040924,,,,,,,2024-05-02,1,,,,,アンカウンタブルセット,0
437,2130001076966,新規,0,2024-05-02,2024-05-02,株式会社斎藤商会,,株式会社,京都府,京都市北区,大宮西総門口町５－２,,26,101,6038835,,,,,,,2024-05-02,1,,,,,サイトウショウカイ,0
449,2170001018114,新規,0,2024-05-02,2024-05-02,株式会社アイ,,株式会社,和歌山県,和歌山市,湊３丁目１２０１－３,,30,201,6408404,,,,,,,2024-05-02,1,,,,,アイ,0
451,2180001161235,新規,0,2024-05-02,2024-05-02,株式会社ＤＨ,,株式会社,愛知県,春日井市,高森台４丁目１０番地４５,,23,206,4870032,,,,,,,2024-05-02,1,,,,,ディーエイチ,0
455,2180005020619,新規,0,2024-05-02,2024-05-02,司法書士法人中島事務所,,その他の設立登記法人,愛知県,名古屋市名東区,一社２丁目３０番地東名グランドビル５０２号,,23,115,4650093,,,,,,,2024-05-02,1,,,,,ナカシマジムショ,0
473,2240001063160,新規,0,2024-05-02,2024-05-02,株式会社三原ファースト,,株式会社,広島県,三原市,本町２丁目１０番２号,,34,204,7230062,,,,,,,2024-05-02,1,,,,,ミハラファースト,0
474,2240001063169,新規,0,2024-05-02,2024-05-02,株式会社ＮＳマシナリー,,株式会社,広島県,広島市安佐南区,西原４丁目３６番１４－１０４号,,34,105,7310113,,,,,,,2024-05-02,1,,,,,エヌエスマシナリー,0
475,2240001063177,新規,0,2024-05-02,2024-05-02,株式会社ユーケー興産,,株式会社,広島県,広島市東区,矢賀１丁目３番３４号,,34,102,7320042,,,,,,,2024-05-02,1,,,,,ユーケーコウサン,0
476,2240001063185,新規,0,2024-05-02,2024-05-02,株式会社飛翔工業,,株式会社,広島県,三原市,糸崎５丁目１６番３０号,,34,204,7290324,,,,,,,2024-05-02,1,,,,,ヒショウコウギョウ,0
492,2290003015221,新規,0,2024-05-02,2024-05-02,南会津バイオマス発電所合同会社,,合同会社,福岡県,福岡市早良区,百道浜２丁目４番２７号ＡＩビル６Ｆ,,40,137,8140001,,,,,,,2024-05-02,1,,,,,ミナミアイヅバイオマスハツデンショ,0
496,2310001018990,新規,0,2024-05-02,2024-05-02,株式会社冷電クリエイト,,株式会社,長崎県,島原市,三会町乙３７番地１,,42,203,8550003,,,,,,,2024-05-02,1,,,,,レイデンクリエイト,0
497,2340001026462,新規,0,2024-05-02,2024-05-02,株式会社ＯＦＭＴ,,株式会社,鹿児島県,大島郡和泊町,大字和泊３５８－３,,46,533,8919112,,,,,,,2024-05-02,1,,,,,オーエフエムティー,0
498,2340001026470,新規,0,2024-05-02,2024-05-02,株式会社フジ電装,,株式会社,鹿児島県,鹿児島市,西陵１丁目４０番１０号,,46,201,8900032,,,,,,,2024-05-02,1,,,,,フジデンソウ,0
499,2340001026479,新規,0,2024-05-02,2024-05-02,ＩＣＨＩＤＡ株式会社,,株式会社,鹿児島県,姶良市,平松４０６９番地１,,46,225,8995652,,,,,,,2024-05-02,1,,,,,イチダ,0
502,2360003013944,新規,0,2024-05-02,2024-05-02,沖縄ＤＩ合同会社,,合同会社,沖縄県,那覇市,おもろまち１丁目１番２５号１１０８号,,47,201,9000006,,,,,,,2024-05-02,1,,,,,オキナワディーアイ,0
508,2370001051243,新規,0,2024-05-02,2024-05-02,大日本翼工芸会株式会社,,株式会社,宮城県,仙台市太白区,羽黒台２７番１８号,,04,104,9820817,,,,,,,2024-05-02,1,,,,,ダイニッポンツバサコウゲイシャ,0
510,2370003006591,新規,0,2024-05-02,2024-05-02,合同会社ｉｉｎｅ,,合同会社,宮城県,栗原市,築館宮野中央１丁目１０－１１,,04,213,9872205,,,,,,,2024-05-02,1,,,,,イイネ,0
513,2390001017597,新規,0,2024-05-02,2024-05-02,株式会社ヤンバイダー,,株式会社,山形県,山形市,飯塚町１３５５－２０,,06,201,9900845,,,,,,,2024-05-02,1,,,,,ヤンバイダー,0
520,2430001091605,新規,0,2024-05-02,2024-05-02,株式会社Ａｔｔｏｌｌ,,株式会社,北海道,札幌市豊平区,福住一条６丁目４番２４号,,01,105,0620041,,,,,,,2024-05-02,1,,,,,アトール,0
521,2430001091704,新規,0,2024-05-02,2024-05-02,株式会社サムライウタリ,,株式会社,北海道,札幌市西区,琴似一条６丁目１番１２号,,01,107,0630811,,,,,,,2024-05-02,1,,,,,サムライウタリ,0
522,2430001091712,新規,0,2024-05-02,2024-05-02,株式会社エゾリアクト,,株式会社,北海道,空知郡南幌町,西町６丁目２番８号,,01,423,0690236,,,,,,,2024-05-02,1,,,,,エゾリアクト,0
523,2430003016279,新規,0,2024-05-02,2024-05-02,合同会社アルファスノース,,合同会社,北海道,札幌市南区,南沢五条２丁目３番７号,,01,106,0050825,,,,,,,2024-05-02,1,,,,,アルファスノース,0
527,2460103001616,新規,0,2024-05-02,2024-05-02,合同会社シンサリティ,,合同会社,北海道,帯広市,西八条北５丁目８番地２０イリスＩｗ－２０２号室,00134601,01,207,0800038,,,,,,,2024-05-02,1,,,,,シンサリティ,0
528,2460303000822,新規,0,2024-05-02,2024-05-02,合同会社クリオネット,,合同会社,北海道,網走市,字潮見４４番地の１７,,01,211,0930042,,,,,,,2024-05-02,1,,,,,クリオネット,0
531,2490005006941,新規,0,2024-05-02,2024-05-02,一般社団法人ふるさと納税地域商社会,,その他の設立登記法人,高知県,須崎市,緑町１番１２号,,39,206,7850036,,,,,,,2024-05-02,1,,,,,フルサトノウゼイチイキショウシャカイ,0
534,2700150125177,新規,0,2024-05-02,2024-05-02,新高物産有限公司,,外国会社等,東京都,杉並区,上荻１丁目１５番８号栄ビル３０１号,,13,115,1670043,台湾台北市信義区基隆路二段５１号７階－７,00133507,,,,,2024-05-02,1,,,,,ニタカブツサンユウゲンコウシ,0
538,3010001244402,新規,0,2024-05-02,2024-05-02,株式会社ＨＡＰｉＥＮ,,株式会社,東京都,中央区,銀座１丁目１２番４号Ｎ＆ＥＢＬＤ．７階,,13,102,1040061,,,,,,,2024-05-02,1,,,,,ハピエン,0
539,3010001244451,新規,0,2024-05-02,2024-05-02,ＰｒｉｍｅＷａｖｅ株式会社,,株式会社,東京都,中央区,日本橋室町１丁目１１番１２号日本橋水野ビル７階,,13,102,1030022,,,,,,,2024-05-02,1,,,,,プライムウェーブ,0
540,3010001244492,新規,0,2024-05-02,2024-05-02,株式会社東京孔専,,株式会社,東京都,中央区,銀座１丁目１２－４Ｎ＆ＥＢＬＤ．７階,,13,102,1040061,,,,,,,2024-05-02,1,,,,,トウキョウコウセン,0
541,3010001244526,新規,0,2024-05-02,2024-05-02,株式会社ＧＳＫホールディングス,,株式会社,東京都,中央区,銀座１丁目２２－１１－２Ｆ,,13,102,1040061,,,,,,,2024-05-02,1,,,,,ジーエスケイホールディングス,0
547,3010003043629,新規,0,2024-05-02,2024-05-02,ノット・ザット・フィルムズ合同会社,,合同会社,東京都,千代田区,平河町２丁目５－３ＭＩＤＯＲＩ．ｓｏＮＡＧＡＴＡＣＨＯ５階,,13,101,1020093,,,,,,,2024-05-02,1,,,,,ノットザットフィルムズ,0
549,3010101016123,新規,0,2024-05-02,2024-05-02,株式会社ビヨン,,株式会社,東京都,八王子市,松木１５番地８,,13,201,1920362,,,,,,,2024-05-02,1,,,,,ビヨン,0
554,3010401182169,新規,0,2024-05-02,2024-05-02,Ｅｍａｎｉａ株式会社,,株式会社,東京都,港区,麻布十番１丁目２番７号,,13,103,1060045,,,,,,,2024-05-02,1,,,,,エマニア,0
555,3010401182177,新規,0,2024-05-02,2024-05-02,株式会社千寿産業,,株式会社,東京都,港区,新橋３丁目３番１４号田村町ビル１０階,,13,103,1050004,,,,,,,2024-05-02,1,,,,,センジュサンギョウ,0
556,3010401182193,新規,0,2024-05-02,2024-05-02,株式会社ｔａｌｅｂｌｕｅ,,株式会社,東京都,港区,六本木７丁目１７番３７－２０１号ＥｓｔｅｒｌａＲｏｐｐｏｎｇｉ,,13,103,1060032,,,,,,,2024-05-02,1,,,,,テイルブルー,0
558,3010403032487,新規,0,2024-05-02,2024-05-02,合同会社旭,,合同会社,東京都,港区,赤坂９丁目１番２７－９０３号,,13,103,1070052,,,,,,,2024-05-02,1,,,,,アサヒ,0
559,3010403032529,新規,0,2024-05-02,2024-05-02,合同会社リオナスホールディングス,,合同会社,東京都,港区,北青山３丁目５番１４号７階,,13,103,1070061,,,,,,,2024-05-02,1,,,,,リオナスホールディングス,0
565,3010405023229,新規,0,2024-05-02,2024-05-02,枚方一般社団法人,,その他の設立登記法人,東京都,港区,元赤坂１丁目１番８号株式会社赤坂国際会計内,,13,103,1070051,,,,,,,2024-05-02,1,,,,,ヒラカタ,0
567,3010501052189,新規,0,2024-05-02,2024-05-02,株式会社ＥａｒｔｈＭａｎａｇｅｍｅｎｔ,,株式会社,東京都,台東区,寿２丁目１０番１６号フォーラム浅草田原町９階,,13,106,1110042,,,,,,,2024-05-02,1,,,,,アースマネジメント,0
573,3010703007123,新規,0,2024-05-02,2024-05-02,合同会社ＳＵＣＳＥＥＤ,,合同会社,東京都,品川区,北品川２丁目２０番２５号さくらハイツ２０１,,13,109,1400001,,,,,,,2024-05-02,1,,,,,サクシード,0
574,3010703007156,新規,0,2024-05-02,2024-05-02,ＦｒｉｅｎｄｓＣｌｕｂ合同会社,,合同会社,東京都,品川区,西五反田１丁目７番１－５０２号,,13,109,1410031,,,,,,,2024-05-02,1,,,,,フレンズクラブ,0
578,3010901055130,新規,0,2024-05-02,2024-05-02,株式会社Ｍ．Ｈ　Ｍａｎａｇｅｍｅｎｔ,,株式会社,東京都,世田谷区,経堂４丁目４１番３号,,13,112,1560052,,,,,,,2024-05-02,1,,,,,エムエイチマネジメント,0
579,3010901055171,新規,0,2024-05-02,2024-05-02,株式会社ｔｄｋ,,株式会社,東京都,世田谷区,野沢４丁目２３番１４－６０１号,,13,112,1540003,,,,,,,2024-05-02,1,,,,,ティーディーケー,0
580,3010901055196,新規,0,2024-05-02,2024-05-02,マロリーアンドカンパニー株式会社,,株式会社,東京都,世田谷区,祖師谷３丁目８番１１号１階,,13,112,1570072,,,,,,,2024-05-02,1,,,,,マロリーアンドカンパニー,0
582,3010903009010,新規,0,2024-05-02,2024-05-02,エニィルクス合同会社,,合同会社,東京都,世田谷区,桜上水１丁目１７番７号,,13,112,1560045,,,,,,,2024-05-02,1,,,,,エニィルクス,0
584,3011001161653,新規,0,2024-05-02,2024-05-02,株式会社ＬＩＫＡＩ　ＳＴＵＤＩＯ,,株式会社,東京都,渋谷区,渋谷２丁目１９番１５号宮益坂ビルディング６０９,,13,113,1500002,,,,,,,2024-05-02,1,,,,,リカイスタジオ,0
585,3011001161686,新規,0,2024-05-02,2024-05-02,株式会社ｒｏｏｍ１０３,,株式会社,東京都,目黒区,中目黒３丁目６番２号中目黒Ｆ・Ｓビル５階,,13,110,1530061,,,,,,,2024-05-02,1,,,,,ルームイチマルサン,0
586,3011001161703,新規,0,2024-05-02,2024-05-02,ＳＥＫ株式会社,,株式会社,東京都,目黒区,柿の木坂１丁目３２番３号,,13,110,1520022,,,,,,,2024-05-02,1,,,,,エスイーケー,0
587,3011001161711,新規,0,2024-05-02,2024-05-02,株式会社Ｖｅｒｓａｌ　Ｊａｐａｎ,,株式会社,東京都,渋谷区,渋谷２丁目２番５号クルスビル５Ｆ,,13,113,1500002,,,,,,,2024-05-02,1,,,,,ヴァーサルジャパン,0
588,3011001161777,新規,0,2024-05-02,2024-05-02,株式会社ｓｏｉ．,,株式会社,東京都,渋谷区,恵比寿西２丁目４番８号８階,,13,113,1500021,,,,,,,2024-05-02,1,,,,,ソイ,0
595,3011101107176,新規,0,2024-05-02,2024-05-02,株式会社ＪＯＢ　ＨＵＮＴＥＲ,,株式会社,東京都,新宿区,大久保１丁目１２番３号カーサ第二新宿４０１,,13,104,1690072,,,,,,,2024-05-02,1,,,,,ジョブハンター,0
596,3011103014379,新規,0,2024-05-02,2024-05-02,合同会社易雲,,合同会社,東京都,新宿区,新宿７丁目２０－２０,,13,104,1600022,,,,,,,2024-05-02,1,,,,,エキウン,0
598,3011203004321,新規,0,2024-05-02,2024-05-02,合同会社ユリイカ,,合同会社,東京都,中野区,中央３丁目４５番１５号,,13,114,1640011,,,,,,,2024-05-02,1,,,,,ユリイカ,0
599,3011301029625,新規,0,2024-05-02,2024-05-02,株式会社ＣＰＦ,,株式会社,東京都,杉並区,上井草２丁目３２番４号サニーハイツ２０２号室,,13,115,1670023,,,,,,,2024-05-02,1,,,,,シーピーエフ,0
604,3011601027709,新規,0,2024-05-02,2024-05-02,那羅株式会社,,株式会社,東京都,練馬区,北町８丁目１２－１６ボヌール・マ・メゾンＢ１－Ｂ号室,,13,120,1790081,,,,,,,2024-05-02,1,,,,,ナラ,0
608,3011701027229,新規,0,2024-05-02,2024-05-02,恩上株式会社,,株式会社,東京都,江戸川区,平井５丁目４５番５号渡辺ハイツ１０１,,13,123,1320035,,,,,,,2024-05-02,1,,,,,オンジョウ,0
609,3011701027237,新規,0,2024-05-02,2024-05-02,株式会社ＷＡＲＭ,,株式会社,東京都,江戸川区,新堀２丁目１３－７号,,13,123,1320001,,,,,,,2024-05-02,1,,,,,ウォーム,0
616,3012401041809,新規,0,2024-05-02,2024-05-02,株式会社ｋｏｇｕｍａ,,株式会社,東京都,府中市,住吉町２丁目３－２ホクレア府中１０６Ａ,,13,206,1830034,,,,,,,2024-05-02,1,,,,,コグマ,0
619,3012803003381,新規,0,2024-05-02,2024-05-02,ミック合同会社,,合同会社,東京都,日野市,多摩平４丁目１１番地の６３,,13,212,1910062,,,,,,,2024-05-02,1,,,,,ミック,0
622,3013301052458,新規,0,2024-05-02,2024-05-02,株式会社ケーズワークス,,株式会社,東京都,豊島区,北大塚３丁目２４番５－５０３号,,13,116,1700004,,,,,,,2024-05-02,1,,,,,ケーズワークス,0
623,3013301052466,新規,0,2024-05-02,2024-05-02,株式会社なんでもいい,,株式会社,東京都,豊島区,南池袋１丁目２１－５，Ｂ１,,13,116,1710022,,,,,,,2024-05-02,1,,,,,ナンデモイイ,0
629,3020001156910,新規,0,2024-05-02,2024-05-02,セイユウ設備株式会社,,株式会社,神奈川県,川崎市川崎区,京町２丁目４番１９－５号,,14,131,2100848,,,,,,,2024-05-02,1,,,,,セイユウセツビ,0
630,3020001156968,新規,0,2024-05-02,2024-05-02,株式会社ＩＭＭＵＮＥ,,株式会社,神奈川県,横浜市中区,太田町１丁目１６番地ＬＡ・ＩＰＳＥ３０１号室,,14,104,2310011,,,,,,,2024-05-02,1,,,,,イミューン,0
631,3020001156992,新規,0,2024-05-02,2024-05-02,株式会社ＲＫ日本,,株式会社,神奈川県,川崎市川崎区,南町１５番地３大平ビルＢ棟３０３号,,14,131,2100015,,,,,,,2024-05-02,1,,,,,アールケイニホン,0
632,3020001157000,新規,0,2024-05-02,2024-05-02,コスモスパワー株式会社,,株式会社,神奈川県,川崎市川崎区,新川通３番１２号,,14,131,2100013,,,,,,,2024-05-02,1,,,,,コスモスパワー,0
633,3020001157017,新規,0,2024-05-02,2024-05-02,株式会社４３２,,株式会社,神奈川県,川崎市麻生区,千代ケ丘８丁目１５番１７号,,14,137,2150005,,,,,,,2024-05-02,1,,,,,ヨンサンニ,0
634,3020003025923,新規,0,2024-05-02,2024-05-02,未来合同会社,,合同会社,神奈川県,横浜市鶴見区,生麦４丁目２５－４横浜スカイマンション５０８,,14,101,2300052,,,,,,,2024-05-02,1,,,,,ミライ,0
635,3020003026038,新規,0,2024-05-02,2024-05-02,蘭天合同会社,00134607,合同会社,神奈川県,川崎市川崎区,渡田１丁目１６番２－２０８号コアメゾン川崎,,14,131,2100837,,,,,,,2024-05-02,1,,,,,ランテン,0
649,3030001159920,新規,0,2024-05-02,2024-05-02,Ｆｕｔａｂａ株式会社,,株式会社,埼玉県,比企郡滑川町,月の輪１丁目６－２,,11,341,3550815,,,,,,,2024-05-02,1,,,,,フタバ,0
650,3030001160143,新規,0,2024-05-02,2024-05-02,株式会社ネイチャースカイ,,株式会社,埼玉県,東松山市,神明町１丁目６番２６号,,11,212,3550021,,,,,,,2024-05-02,1,,,,,ネイチャースカイ,0
652,3030003024206,新規,0,2024-05-02,2024-05-02,合同会社アシストスペース,,合同会社,埼玉県,さいたま市緑区,大字大門字西裏１４９５番地１３号,,11,109,3360963,,,,,,,2024-05-02,1,,,,,アシストスペース,0
653,3030003024222,新規,0,2024-05-02,2024-05-02,ＫＩ　ＨＯＭＥ．ｓ合同会社,,合同会社,埼玉県,加須市,三俣１丁目２２番地１１,,11,210,3470009,,,,,,,2024-05-02,1,,,,,ケイアイホームズ,0
658,3040001133387,新規,0,2024-05-02,2024-05-02,株式会社ＧＡＲＡＧＥ８,,株式会社,千葉県,木更津市,高柳１丁目１０番,,12,206,2920014,,,,,,,2024-05-02,1,,,,,ガレージエイト,0
659,3040001133404,新規,0,2024-05-02,2024-05-02,株式会社Ｌｉｎｏｓｔａｒ,,株式会社,千葉県,夷隅郡大多喜町,柳原２４５－４,,12,441,2980221,,,,,,,2024-05-02,1,,,,,リノスター,0
660,3040001133412,新規,0,2024-05-02,2024-05-02,ＫＤＭ株式会社,,株式会社,千葉県,船橋市,本町４丁目１５番１号,,12,204,2730005,,,,,,,2024-05-02,1,,,,,ケイディーエム,0
663,3040003024774,新規,0,2024-05-02,2024-05-02,潮来不動産合同会社,,合同会社,千葉県,松戸市,東松戸１丁目９番地の２,,12,207,2702225,,,,,,,2024-05-02,1,,,,,イタコフドウサン,0
666,3050001054707,新規,0,2024-05-02,2024-05-02,エンジェル速配株式会社,,株式会社,茨城県,稲敷市,浮島字前浦６９７７－５９－１号室,,08,229,3000641,,,,,,,2024-05-02,1,,,,,エンジェルソクハイ,0
674,3070001041694,新規,0,2024-05-02,2024-05-02,ＡＬ　ＨＡＹＡＴ　ＴＲＡＤＩＮＧ株式会社,,株式会社,群馬県,太田市,熊野町２８番８－２Ａ号,,10,205,3730025,,,,,,,2024-05-02,1,,,,,アルハヤトトレーディング,0
680,3080005007609,新規,0,2024-05-02,2024-05-02,一般社団法人静岡県マンション・ビル改修技術協会,,その他の設立登記法人,静岡県,静岡市清水区,蒲原堰沢４５９番地の１,,22,103,4213214,,,,,,,2024-05-02,1,,,,,シズオカケンマンションビルカイシュウギジュツキョウカイ,0
684,3080401027160,新規,0,2024-05-02,2024-05-02,株式会社壱丁前,,株式会社,静岡県,浜松市中央区,和田町８９８番地の１,,22,138,4350016,,,,,,,2024-05-02,1,,,,,イッチョウマエ,0
688,3100001037409,新規,0,2024-05-02,2024-05-02,株式会社ＤｒｏｎｅＡｐｐｒｏｖｅ,,株式会社,長野県,長野市,大字栗田６５３－９８,,20,201,3800921,,,,,,,2024-05-02,1,,,,,ドローンアプルーヴ,0
692,3110001038372,新規,0,2024-05-02,2024-05-02,株式会社Ｇｅｎｕｉｎｅ吉田,,株式会社,新潟県,新潟市中央区,天神１丁目１番地プラーカ３、２階、ＨＵＢＳＴＡＴＩＯＮＫＥＮＴＯ内,,15,103,9500917,,,,,,,2024-05-02,1,,,,,ジェニュエンヨシダ,0
693,3110001038389,新規,0,2024-05-02,2024-05-02,株式会社テリア,,株式会社,新潟県,新潟市南区,和泉１８４番地３９,,15,106,9501471,,,,,,,2024-05-02,1,,,,,テリア,0
697,3110005017091,新規,0,2024-05-02,2024-05-02,一般社団法人新潟東北中華總商会,,その他の設立登記法人,新潟県,新潟市西区,立仏１１６３番地９,,15,107,9501103,,,,,,,2024-05-02,1,,,,,ニイガタトウホクチュウカソウショウカイ,0
706,3120001264439,新規,0,2024-05-02,2024-05-02,ＣａｓｈＯＫ株式会社,,株式会社,大阪府,大阪市東住吉区,東田辺３丁目１－１－２Ｆ－Ｃ,,27,121,5460032,,,,,,,2024-05-02,1,,,,,キャッシュオーケー,0
707,3120001264546,新規,0,2024-05-02,2024-05-02,株式会社ＲＥＤ　ＳＵＮ,,株式会社,大阪府,大阪市平野区,長吉川辺３丁目５番２１号,,27,126,5470014,,,,,,,2024-05-02,1,,,,,レッドサン,0
708,3120001264562,新規,0,2024-05-02,2024-05-02,丸茉商務株式会社,,株式会社,大阪府,大阪市東成区,深江北３丁目４番２１号エクラ深江橋５１５Ｃ,,27,115,5370001,,,,,,,2024-05-02,1,,,,,マルマツショウム,0
711,3120003026457,新規,0,2024-05-02,2024-05-02,合同会社デジラボラトリー,,合同会社,大阪府,大阪市淀川区,木川東２丁目５－４１Ｋ２イースト５０５,,27,123,5320012,,,,,,,2024-05-02,1,,,,,デジラボラトリー,0
712,3120003026498,新規,0,2024-05-02,2024-05-02,ＵＰＴＯＷＮ合同会社,,合同会社,大阪府,大阪市北区,大淀南２丁目２番９－１８１０号,,27,127,5310075,,,,,,,2024-05-02,1,,,,,アップタウン,0
715,3120103005807,新規,0,2024-05-02,2024-05-02,合同会社うぐいす介護ステーション,,合同会社,大阪府,堺市中区,深井沢町３３２６,,27,142,5998236,,,,,,,2024-05-02,1,,,,,ウグイスカイゴステーション,0
720,3130003009493,新規,0,2024-05-02,2024-05-02,合同会社ソキウス,,合同会社,京都府,京都市中京区,御幸町通二条上る達磨町６１６番地,,26,104,6040962,,,,,,,2024-05-02,1,,,,,ソキウス,0
733,3150001027256,新規,0,2024-05-02,2024-05-02,Ｐｕｒｅ‐Ｅ株式会社,,株式会社,奈良県,奈良市,三条栄町４番８－２０１号,,29,201,6308126,,,,,,,2024-05-02,1,,,,,ピュアイ,0
739,3160001025894,新規,0,2024-05-02,2024-05-02,村井組株式会社,,株式会社,滋賀県,蒲生郡竜王町,大字岡屋３４３４番地,,25,384,5202541,,,,,,,2024-05-02,1,,,,,ムライグミ,0
749,3180001161234,新規,0,2024-05-02,2024-05-02,株式会社Ｒｅｖｏ．Ｊａｐａｎ,,株式会社,愛知県,名古屋市中区,栄３丁目１８番１号ナゴヤイノベーターズガレージ内,,23,106,4600008,,,,,,,2024-05-02,1,,,,,レボジャパン,0
750,3180001161259,新規,0,2024-05-02,2024-05-02,Ｌａｓ　Ｐｏｓｈｔｅ株式会社,,株式会社,愛知県,名古屋市中区,千代田３丁目１４番７号（ベレーサ鶴舞公園１００６号）,,23,106,4600012,,,,,,,2024-05-02,1,,,,,ラスポシイト,0
760,3180003026708,新規,0,2024-05-02,2024-05-02,合同会社ＳＦＤ,,合同会社,愛知県,東海市,大田町下浜田１００５番地ＥＡＳＴＢＬＵＥ３Ｃ,,23,222,4770031,,,,,,,2024-05-02,1,,,,,エスエフディ,0
766,3190001031304,新規,0,2024-05-02,2024-05-02,Ｈｕｍａｎ‐Ｓｃａｌｅ株式会社,,株式会社,三重県,四日市市,元町４番１２号,,24,202,5100088,,,,,,,2024-05-02,1,,,,,ヒューマンスケール,0
767,3190003004670,新規,0,2024-05-02,2024-05-02,合同会社Ｆｏｒｔｕｎｅ　ｎａｉｌ,,合同会社,三重県,四日市市,泊町１２番２１号メゾンカトルＡ号室,,24,202,5100884,,,,,,,2024-05-02,1,,,,,フォーチュンネイル,0
768,3190005011946,新規,0,2024-05-02,2024-05-02,特定非営利活動法人ふらっと,,その他の設立登記法人,三重県,南牟婁郡御浜町,大字下市木３３２９番地,,24,561,5195203,,,,,,,2024-05-02,1,,,,,フラット,0
771,3200005013619,新規,0,2024-05-02,2024-05-02,一般社団法人ビーエルエス協会,,その他の設立登記法人,岐阜県,各務原市,新鵜沼台６丁目１５番地,,21,213,5090122,,,,,,,2024-05-02,1,,,,,ビーエルエスキョウカイ,0
774,3210005010144,新規,0,2024-05-02,2024-05-02,一般社団法人東黒田みのり会,,その他の設立登記法人,福井県,三方上中郡若狭町,東黒田第８号１８番地の３,,18,501,9191327,,,,,,,2024-05-02,1,,,,,ヒガシクロタミノリカイ,0
775,3220001025979,新規,0,2024-05-02,2024-05-02,株式会社Ｋ３,,株式会社,石川県,鳳珠郡能登町,字宇出津ム字３７番地１０,,17,463,9270433,,,,,,,2024-05-02,1,,,,,ケースリー,0
777,3220005008831,新規,0,2024-05-02,2024-05-02,一般社団法人スレイベル,,その他の設立登記法人,石川県,金沢市,野町３丁目１１番１号金沢未来のまち創造館２階,,17,201,9218031,,,,,,,2024-05-02,1,,,,,スレイベル,0
781,3240001063184,新規,0,2024-05-02,2024-05-02,株式会社シューロング,,株式会社,広島県,竹原市,本町１丁目７番２０号,,34,203,7250022,,,,,,,2024-05-02,1,,,,,シューロング,0
783,3240003006653,新規,0,2024-05-02,2024-05-02,合同会社Ｎａｔｕｒｅ,,合同会社,広島県,広島市安芸区,中野２丁目４０番１８－２８－２０２号リバーサイド中野Ｂ棟,,34,107,7390321,,,,,,,2024-05-02,1,,,,,ナチュレ,0
784,3250001020639,新規,0,2024-05-02,2024-05-02,濱田板金株式会社,,株式会社,山口県,萩市,大字椿東４０５番地２,,35,204,7580011,,,,,,,2024-05-02,1,,,,,ハマダバンキン,0
785,3260001039001,新規,0,2024-05-02,2024-05-02,ＬＩＭＩＴＬＥＳＳ株式会社,,株式会社,岡山県,岡山市北区,田中１０２番地１０３－２０３,,33,101,7000951,,,,,,,2024-05-02,1,,,,,リミットレス,0
787,3260003004671,新規,0,2024-05-02,2024-05-02,柴田合同会社,,合同会社,岡山県,津山市,院庄１２７７番地１,,33,203,7080014,,,,,,,2024-05-02,1,,,,,シバタ,0
789,3280003001840,新規,0,2024-05-02,2024-05-02,合同会社ヨシノ商事,,合同会社,島根県,松江市,乃木福富町３２番地,,32,201,6900046,,,,,,,2024-05-02,1,,,,,ヨシノショウジ,0
791,3290001105535,新規,0,2024-05-02,2024-05-02,順陽商事株式会社,,株式会社,福岡県,福岡市東区,唐原４丁目１１番８号２Ｆ,,40,131,8130001,,,,,,,2024-05-02,1,,,,,ジュンヨウショウジ,0
793,3290003015220,新規,0,2024-05-02,2024-05-02,合同会社ひまわりの家ウェルフェア,,合同会社,福岡県,福岡市中央区,高砂１丁目７番７号伸光ハイツ１０３号,,40,133,8100011,,,,,,,2024-05-02,1,,,,,ヒマワリノイエウェルフェア,0
794,3290005019384,新規,0,2024-05-02,2024-05-02,医療法人せんばクリニック,,その他の設立登記法人,福岡県,福岡市西区,拾六町団地１番２５号,,40,135,8190045,,,,,,,2024-05-02,1,,,,,センバクリニック,0
795,3290801030528,新規,0,2024-05-02,2024-05-02,株式会社Ｎ’ｓ,,株式会社,福岡県,北九州市八幡東区,東山１丁目１－１８,,40,108,8050026,,,,,,,2024-05-02,1,,,,,エヌズ,0
797,3290805009741,新規,0,2024-05-02,2024-05-02,特定非営利活動法人みんなのＰａｌｅｔｔｅ,,その他の設立登記法人,福岡県,田川市,大字猪国２５５９番地,,40,206,8260045,,,,,,,2024-05-02,1,,,,,ミンナノパレット,0
802,3330001032023,新規,0,2024-05-02,2024-05-02,精進テクノロジー株式会社,,株式会社,熊本県,熊本市中央区,水前寺６丁目５番２３号,,43,101,8620950,,,,,,,2024-05-02,1,,,,,セイシンテクノロジー,0
805,3330003010349,新規,0,2024-05-02,2024-05-02,合同会社ＲＡＮＤＹ,,合同会社,熊本県,熊本市南区,富合町榎津２９８番地５,,43,104,8614146,,,,,,,2024-05-02,1,,,,,,0
809,3340003004457,新規,0,2024-05-02,2024-05-02,合同会社グレイテスト,,合同会社,鹿児島県,鹿児島市,川上町２７０番地１シャングリラ１０２号,,46,201,8920875,,,,,,,2024-05-02,1,,,,,グレイテスト,0
811,3360001033605,新規,0,2024-05-02,2024-05-02,株式会社ＹＢＳ,,株式会社,沖縄県,浦添市,字前田８６２番地２６９,,47,208,9012102,,,,,,,2024-05-02,1,,,,,ワイビーエス,0
813,3360003013935,新規,0,2024-05-02,2024-05-02,合同会社訪日観光サポート,,合同会社,沖縄県,那覇市,牧志２丁目１７－２７－４０１,,47,201,9000013,,,,,,,2024-05-02,1,,,,,ホウニチカンコウサポート,0
814,3360003013951,新規,0,2024-05-02,2024-05-02,合同会社Ｕｌｕ　ＯＫＩＮＡＷＡ,,合同会社,沖縄県,那覇市,字国場１６０番地ＧＲＡＮＤＣＯＲＥ３０２号室,,47,201,9020075,,,,,,,2024-05-02,1,,,,,ウルオキナワ,0
816,3370001051250,新規,0,2024-05-02,2024-05-02,株式会社いとやす,,株式会社,宮城県,仙台市若林区,荒井１丁目１４番地の４,,04,103,9840032,,,,,,,2024-05-02,1,,,,,イトヤス,0
830,3410001013824,新規,0,2024-05-02,2024-05-02,株式会社ラップアップ,,株式会社,秋田県,秋田市,新屋豊町４番６４号,,05,201,0101612,,,,,,,2024-05-02,1,,,,,ラップアップ,0
836,3430003016278,新規,0,2024-05-02,2024-05-02,合同会社ＲＤ　Ｌｉｎｅ,,合同会社,北海道,新冠郡新冠町,字西泊津１３番地の２７,,01,604,0592418,,,,,,,2024-05-02,1,,,,,アールディーライン,0
837,3430003016286,新規,0,2024-05-02,2024-05-02,合同会社ＨＬＳ,,合同会社,北海道,札幌市西区,平和二条１０丁目６番２０号,,01,107,0630022,,,,,,,2024-05-02,1,,,,,エイチエルエス,0
838,3440001009431,新規,0,2024-05-02,2024-05-02,三喜株式会社,,株式会社,北海道,北斗市,追分２丁目６５番地１６,,01,236,0490101,,,,,,,2024-05-02,1,,,,,サンキ,0
842,3490001010764,新規,0,2024-05-02,2024-05-02,株式会社アールホーム,,株式会社,高知県,高知市,杉井流１３番６号,,39,201,7800072,,,,,,,2024-05-02,1,,,,,アールホーム,0
845,3500001025595,新規,0,2024-05-02,2024-05-02,株式会社ＬＥＤ,,株式会社,愛媛県,松山市,余戸中１丁目４番６号,,38,201,7900045,,,,,,,2024-05-02,1,,,,,エルイーディー,0
847,3700150125011,新規,0,2024-05-02,2024-04-22,飛騨市防災士会,,その他,岐阜県,飛騨市,古川町末真２７１,,21,217,5094205,,,,,,,2024-04-22,1,,,,,ヒダシボウサイシカイ,0
848,3700150125176,新規,0,2024-05-02,2024-05-02,ＭＯＯＮ　ＬＡＮＫＡ　ＩＮＴＥＲＮＡＴＩＯＮＡＬ　ＰＶＴ　ＬＴＤ,,外国会社等,千葉県,八街市,沖１１５５番地７Ｂ,,12,230,2891126,スリランカ民主社会主義共和国、クルネガラ、Ｄ．Ｂ．ウェラゲダラストリート、Ｎｏ．１３９Ｂ,,,,,,2024-05-02,1,,,,,ムーンランカインターナシヨナルプライベートリミテツド,0
853,4010001244302,新規,0,2024-05-02,2024-05-02,株式会社ＭＫＮ５,,株式会社,東京都,中央区,湊２丁目１５番１４－３１０１号,,13,102,1040043,,,,,,,2024-05-02,1,,,,,エムケーエヌゴ,0
854,4010001244401,新規,0,2024-05-02,2024-05-02,ワイヤテック株式会社,,株式会社,東京都,中央区,銀座７丁目１５番８号タウンハイツ銀座４０６,,13,102,1040061,,,,,,,2024-05-02,1,,,,,ワイヤテック,0
855,4010001244426,新規,0,2024-05-02,2024-05-02,ペロブスカイトシステムズ株式会社,,株式会社,東京都,千代田区,三番町３－７セット東京ビル３階,,13,101,1020075,,,,,,,2024-05-02,1,,,,,ペロブスカイトシステムズ,0
856,4010001244491,新規,0,2024-05-02,2024-05-02,三鋒環球株式会社,,株式会社,東京都,中央区,銀座１丁目１４－５銀座ウイングビル北４階,,13,102,1040061,,,,,,,2024-05-02,1,,,,,サンポウカンキュウ,0
857,4010001244517,新規,0,2024-05-02,2024-05-02,株式会社Ｃｌｏｓｓｒｉｅｓ,,株式会社,東京都,中央区,日本橋室町１丁目１１番１２号,,13,102,1030022,,,,,,,2024-05-02,1,,,,,クロスリーズ,0
859,4010003043628,新規,0,2024-05-02,2024-05-02,合同会社水仙信用サービス,,合同会社,東京都,千代田区,丸の内３丁目１番１号東京共同会計事務所内,,13,101,1000005,,,,,,,2024-05-02,1,,,,,スイセンシンヨウサービス,0
869,4010401182135,新規,0,2024-05-02,2024-05-02,エクラ・ドゥ・モード株式会社,,株式会社,東京都,港区,赤坂５丁目２番２０号赤坂パークビル３階,,13,103,1070052,,,,,,,2024-05-02,1,,,,,エクラドゥモード,0
870,4010401182143,新規,0,2024-05-02,2024-05-02,ＧＣＪＧ３６株式会社,,株式会社,東京都,港区,元赤坂１丁目１番８号株式会社赤坂国際会計内,,13,103,1070051,,,,,,,2024-05-02,1,,,,,ジーシージェイジーサーティシックス,0
871,4010401182192,新規,0,2024-05-02,2024-05-02,日の出２０号株式会社,,株式会社,東京都,港区,海岸１丁目７番１号,,13,103,1050022,,,,,,,2024-05-02,1,,,,,ヒノデニジュウゴウ,0
872,4010401182275,新規,0,2024-05-02,2024-05-02,株式会社ＨＡＲＵＫＡＳＵ,,株式会社,東京都,港区,赤坂２丁目１７－５２タウンハウス赤坂３０３,,13,103,1070052,,,,,,,2024-05-02,1,,,,,ハルカス,0
877,4010501052188,新規,0,2024-05-02,2024-05-02,株式会社セイシンハウス,,株式会社,東京都,台東区,雷門１丁目２番１０号,,13,106,1110034,,,,,,,2024-05-02,1,,,,,セイシンハウス,0
878,4010505003518,新規,0,2024-05-02,2024-05-02,一般社団法人ＸＲ　Ｌｉｖｅ,,その他の設立登記法人,東京都,台東区,松が谷３丁目１７番５－３０４号,,13,106,1110036,,,,,,,2024-05-02,1,,,,,エックスアールライブ,0
885,4010705003623,新規,0,2024-05-02,2024-05-02,一般社団法人ＰＩＶＯＴ,,その他の設立登記法人,東京都,品川区,上大崎１丁目１番１－３０２号,,13,109,1410021,,,,,,,2024-05-02,1,,,,,ピボット,0
887,4010801035009,新規,0,2024-05-02,2024-05-02,株式会社ｃｏｃｏ．ｎｅ．,,株式会社,東京都,大田区,池上７丁目２－７,,13,111,1460082,,,,,,,2024-05-02,1,,,,,ココネ,0
894,4010901055195,新規,0,2024-05-02,2024-05-02,株式会社貸ふとん玉屋,,株式会社,東京都,世田谷区,千歳台２丁目２７番３号,,13,112,1570071,,,,,,,2024-05-02,1,,,,,カシフトンタマヤ,0
898,4011001161636,新規,0,2024-05-02,2024-05-02,株式会社Ｊ,,株式会社,東京都,渋谷区,広尾１丁目９－１５－１０２,,13,113,1500012,,,,,,,2024-05-02,1,,,,,ジェイ,0
899,4011001161685,新規,0,2024-05-02,2024-05-02,新陽テクノロジー株式会社,,株式会社,東京都,渋谷区,富ヶ谷１丁目１４番１４号４階,,13,113,1510063,,,,,,,2024-05-02,1,,,,,シンヨウテクノロジー,0
900,4011001161719,新規,0,2024-05-02,2024-05-02,株式会社ｂｕｓｉａｒｔ,,株式会社,東京都,渋谷区,神宮前６丁目２３番４号桑野ビル２階,,13,113,1500001,,,,,,,2024-05-02,1,,,,,ビジアート,0
902,4011003019056,新規,0,2024-05-02,2024-05-02,ＬｅｏＴｏｋｙｏ合同会社,,合同会社,東京都,渋谷区,恵比寿西２丁目８番４号５階,,13,113,1500021,,,,,,,2024-05-02,1,,,,,レオトウキョウ,0
907,4011101107142,新規,0,2024-05-02,2024-05-02,株式会社Ｃａｍｅｌｌｉａ,,株式会社,東京都,新宿区,西新宿７丁目４番５号新宿ウエストスクエアビル１Ｆ,,13,104,1600023,,,,,,,2024-05-02,1,,,,,カメリア,0
908,4011101107159,新規,0,2024-05-02,2024-05-02,株式会社Ｓｔｅｐｗｉｓｅ,,株式会社,東京都,新宿区,中里町２４番地１,,13,104,1620804,,,,,,,2024-05-02,1,,,,,ステップワイズ,0
909,4011101107209,新規,0,2024-05-02,2024-05-02,株式会社ＫＡＯＳＴＹＬＥ,,株式会社,東京都,新宿区,西新宿７丁目１６番４号,,13,104,1600023,,,,,,,2024-05-02,1,,,,,カオスタイル,0
911,4011401026059,新規,0,2024-05-02,2024-05-02,株式会社＿＿商事,00134608,株式会社,東京都,板橋区,成増３丁目４３番１０号パワーバンクビル成増１０６号室,,13,119,1750094,,,,,,,2024-05-02,1,,,,,シンショウショウジ,0
913,4011701027228,新規,0,2024-05-02,2024-05-02,株式会社ＮＥＷ　ＰＨＡＳＥ,,株式会社,東京都,江戸川区,北小岩７丁目２５番１９号,,13,123,1330051,,,,,,,2024-05-02,1,,,,,ニューフェーズ,0
914,4011701027244,新規,0,2024-05-02,2024-05-02,利君行株式会社,,株式会社,東京都,江戸川区,西小岩１丁目２０番１８号浅見ビル２０２号室,,13,123,1330057,,,,,,,2024-05-02,1,,,,,リクンギョウ,0
915,4011703003821,新規,0,2024-05-02,2024-05-02,アトリエオント合同会社,,合同会社,東京都,江戸川区,中央２丁目１７―２１―４０３,,13,123,1320021,,,,,,,2024-05-02,1,,,,,アトリエオント,0
916,4011801044164,新規,0,2024-05-02,2024-05-02,ＩｎｎｎｏＴｅｃｈ株式会社,,株式会社,東京都,足立区,千住中居町１７－２０マルアイビル６Ｆ,,13,121,1200035,,,,,,,2024-05-02,1,,,,,イノテック,0
917,4011801044189,新規,0,2024-05-02,2024-05-02,日東株式会社,,株式会社,東京都,葛飾区,白鳥２丁目１８番８－５０２号リリーベルお花茶屋,,13,122,1250063,,,,,,,2024-05-02,1,,,,,ニットウ,0
918,4012801023125,新規,0,2024-05-02,2024-05-02,ＫＫコンサルティング株式会社,,株式会社,東京都,立川市,上砂町１丁目１３番地の１,,13,202,1900032,,,,,,,2024-05-02,1,,,,,ケーケーコンサルティング,0
924,4013303007129,新規,0,2024-05-02,2024-05-02,合同会社Ｆタイム,,合同会社,東京都,豊島区,千早２丁目２０番５号アルビレオ３０１,,13,116,1710044,,,,,,,2024-05-02,1,,,,,エフタイム,0
930,4020003025988,新規,0,2024-05-02,2024-05-02,合同会社ＭＩＢ,,合同会社,神奈川県,横浜市栄区,小菅ケ谷１丁目２２番１－１１６号,,14,115,2470007,,,,,,,2024-05-02,1,,,,,エムアイビー,0
931,4020003026020,新規,0,2024-05-02,2024-05-02,合同会社Ａ‐ｌｉｇｈｔ,,合同会社,神奈川県,横浜市中区,野毛町３丁目１３１番地１コスモ桜木町グランポール６０３,,14,104,2310064,,,,,,,2024-05-02,1,,,,,エーライト,0
939,4021001082121,新規,0,2024-05-02,2024-05-02,株式会社パスタン,,株式会社,神奈川県,秦野市,鶴巻北１丁目８番５号,,14,211,2570001,,,,,,,2024-05-02,1,,,,,パスタン,0
943,4021003014469,新規,0,2024-05-02,2024-05-02,合同会社辻堂研究所,,合同会社,神奈川県,藤沢市,辻堂東海岸３丁目７番１４号,,14,205,2510045,,,,,,,2024-05-02,1,,,,,ツジドウケンキュウジョ,0
955,4030001160118,新規,0,2024-05-02,2024-05-02,幸酵素株式会社,,株式会社,埼玉県,川口市,大字安行領根岸３５１番地の９,,11,203,3330834,,,,,,,2024-05-02,1,,,,,サイコーソ,0
956,4030001160126,新規,0,2024-05-02,2024-05-02,株式会社キミオフーズ,,株式会社,埼玉県,さいたま市岩槻区,本町３丁目１５番２２号,,11,110,3390057,,,,,,,2024-05-02,1,,,,,キミオフーズ,0
957,4030001160134,新規,0,2024-05-02,2024-05-02,ＪＳＥ株式会社,,株式会社,埼玉県,さいたま市大宮区,桜木町２丁目３番地大宮マルイ７階,,11,103,3300854,,,,,,,2024-05-02,1,,,,,ジェイエスイー,0
958,4030001160142,新規,0,2024-05-02,2024-05-02,株式会社ＡＸＩＳ,,株式会社,埼玉県,深谷市,原郷４９１番地１５,,11,218,3660035,,,,,,,2024-05-02,1,,,,,アクシス,0
959,4030001160159,新規,0,2024-05-02,2024-05-02,株式会社クレーンパートナーズ,,株式会社,埼玉県,さいたま市南区,別所２丁目３９番７号,,11,108,3360021,,,,,,,2024-05-02,1,,,,,クレーンパートナーズ,0
964,4030003024205,新規,0,2024-05-02,2024-05-02,合同会社ワイ・ケイ,,合同会社,埼玉県,所沢市,小手指南４丁目２１番地の１１,,11,208,3591146,,,,,,,2024-05-02,1,,,,,ワイケイ,0
965,4030003024213,新規,0,2024-05-02,2024-05-02,Ｈａｒａｍ　Ｅｎｔｅｒｐｒｉｓｅｓ合同会社,,合同会社,埼玉県,加須市,花崎北１丁目５－２,,11,210,3470016,,,,,,,2024-05-02,1,,,,,ハラムエンタープライズ,0
967,4040001133394,新規,0,2024-05-02,2024-05-02,株式会社Ｋｉｔｓｕｎｅｘｕｓ,,株式会社,千葉県,流山市,おおたかの森西２丁目６番地の２８,,12,220,2700128,,,,,,,2024-05-02,1,,,,,キツネクサス,0
968,4040001133403,新規,0,2024-05-02,2024-05-02,昭和ナ株式会社,,株式会社,千葉県,野田市,岩名２丁目５番地の１５,,12,208,2780055,,,,,,,2024-05-02,1,,,,,ショウワナ,0
980,4050001054706,新規,0,2024-05-02,2024-05-02,株式会社野仲林業,,株式会社,茨城県,坂東市,逆井１０３８－１,,08,228,3060501,,,,,,,2024-05-02,1,,,,,ノナカリンギョウ,0
985,4070003005399,新規,0,2024-05-02,2024-05-02,Ｓｕｃｈｉ　Ｈａｔｔｉ　Ｔｒａｄｉｎｇ合同会社,,合同会社,群馬県,伊勢崎市,境伊与久４６７番地３,,10,204,3700105,,,,,,,2024-05-02,1,,,,,スチハッティトレーディング,0
986,4080005007608,新規,0,2024-05-02,2024-05-02,司法書士法人すんぷ相続,,その他の設立登記法人,静岡県,静岡市葵区,七間町３番地の４七間町ハイム,,22,101,4200035,,,,,,,2024-05-02,1,,,,,,0
990,4090001018681,新規,0,2024-05-02,2024-05-02,ＲＴＯＲＵ　Ｊａｐａｎ株式会社,,株式会社,山梨県,富士吉田市,旭２丁目１番７号,,19,202,4030012,,,,,,,2024-05-02,1,,,,,レトルジャパン,0
996,4110001038371,新規,0,2024-05-02,2024-05-02,株式会社ＴＫ設計,,株式会社,新潟県,新潟市南区,和泉２０５番地１ウィング北１０１,,15,106,9501471,,,,,,,2024-05-02,1,,,,,ティーケーセッケイ,0
998,4120001080331,新規,0,2024-05-02,2024-05-02,三恵株式会社,,株式会社,大阪府,大阪市中央区,南船場２丁目６番１７号,,27,128,5420081,,,,,,,2024-05-02,1,,,,,サンケイ,0
1005,4120001264529,新規,0,2024-05-02,2024-05-02,ＡＮＯＴＨＥＲ　ＳＴＯＲＹ株式会社,,株式会社,大阪府,大阪市中央区,東心斎橋２丁目１番１４ＺＯＯＭビル１Ｆ,,27,128,5420083,,,,,,,2024-05-02,1,,,,,アナザーストーリー,0
1006,4120001264561,新規,0,2024-05-02,2024-05-02,玖立株式会社,,株式会社,大阪府,大阪市城東区,関目５丁目１９番９号関目花博公館４１２Ａ,,27,118,5360008,,,,,,,2024-05-02,1,,,,,クリツ,0
1009,4120002031003,新規,0,2024-05-02,2024-05-02,有限会社祥富,,有限会社,大阪府,大阪市北区,梅田１丁目２番２－１４００号,,27,127,5300001,,,,,,,2024-05-02,1,,,,,ショウフ,0
1014,4120003026497,新規,0,2024-05-02,2024-05-02,合同会社ｅＧＥＮ,,合同会社,大阪府,大阪市西成区,天下茶屋１丁目２５番１２号,,27,122,5570014,,,,,,,2024-05-02,1,,,,,エゲン,0
1015,4120003026506,新規,0,2024-05-02,2024-05-02,英峰合同会社,,合同会社,大阪府,大阪市天王寺区,生玉町１１－２４ビーエルディーケーシアター５０１号室,,27,109,5430071,,,,,,,2024-05-02,1,,,,,エイホウ,0
1020,4120101069489,新規,0,2024-05-02,2024-05-02,株式会社ＨＯＭＭＥ’Ｓ,,株式会社,大阪府,堺市美原区,黒山８４６番地２,,27,147,5870002,,,,,,,2024-05-02,1,,,,,オムズ,0
1021,4120901049120,新規,0,2024-05-02,2024-05-02,ＯＨＫ　ＧＬＡＤ株式会社,,株式会社,大阪府,吹田市,江坂町１丁目１３番４１号江坂ＮＫビル２Ｆ３号室,,27,205,5640063,,,,,,,2024-05-02,1,,,,,オーエイチケーグラッド,0
1022,4120903005154,新規,0,2024-05-02,2024-05-02,ｖｉｔａｒｄｏｒｅ合同会社,,合同会社,大阪府,吹田市,広芝町１８番－３７－１１０１号,,27,205,5640052,,,,,,,2024-05-02,1,,,,,ヴィタルドーレ,0
1023,4120903005162,新規,0,2024-05-02,2024-05-02,合同会社ＭＡＲＫＡ,,合同会社,大阪府,豊中市,利倉西２丁目１５番９号,,27,203,5610844,,,,,,,2024-05-02,1,,,,,マルカ,0
1030,4130001076964,新規,0,2024-05-02,2024-05-02,株式会社ＬＲ,,株式会社,京都府,宇治市,広野町大開１７７番地の４,,26,204,6110031,,,,,,,2024-05-02,1,,,,,エルアール,0
1031,4130003009518,新規,0,2024-05-02,2024-05-02,ＰＯＰＬＯＯＰ合同会社,,合同会社,京都府,京都市伏見区,深草大亀谷万帖敷町１３９,,26,109,6120846,,,,,,,2024-05-02,1,,,,,ポップループ,0
1032,4130003009526,新規,0,2024-05-02,2024-05-02,合同会社寿都訪問介護事業所,,合同会社,京都府,京都市伏見区,久我石原町３－４１２,,26,109,6128491,,,,,,,2024-05-02,1,,,,,コトホウモンカイゴジギョウショ,0
1042,4140001134151,新規,0,2024-05-02,2024-05-02,シーマルジャパン株式会社,,株式会社,兵庫県,神戸市中央区,東川崎町５丁目６－１０－２０１,,28,110,6500044,,,,,,,2024-05-02,1,,,,,シーマルジャパン,0
1044,4140003020498,新規,0,2024-05-02,2024-05-02,合同会社ソラキワ,,合同会社,兵庫県,神戸市北区,桂木２丁目１０番地の１,,28,109,6511223,,,,,,,2024-05-02,1,,,,,ソラキワ,0
1045,4150001027263,新規,0,2024-05-02,2024-05-02,株式会社ＳＷＩＮＧ　ＢＹ,,株式会社,奈良県,天理市,石上町３６１番地１ソルレヴェンテ１０１,,29,204,6320011,,,,,,,2024-05-02,1,,,,,スウィングバイ,0
1052,4160001025885,新規,0,2024-05-02,2024-05-02,株式会社関西幸運,,株式会社,滋賀県,大津市,神領３丁目１２番２３号,,25,201,5202132,,,,,,,2024-05-02,1,,,,,カンサイコウウン,0
1054,4170001018112,新規,0,2024-05-02,2024-05-02,株式会社ミライズ,,株式会社,和歌山県,和歌山市,東蔵前丁４番地ファーストビル１階,,30,201,6408203,,,,,,,2024-05-02,1,,,,,ミライズ,0
1067,4180001161200,新規,0,2024-05-02,2024-05-02,紗羅貿易株式会社,,株式会社,愛知県,一宮市,瀬部字中島３２－４Ｓｅａｓｏｎ中島２０１,,23,203,4910001,,,,,,,2024-05-02,1,,,,,サラボウエキ,0
1068,4180002011726,新規,0,2024-05-02,2024-05-02,有限会社壽ゞや不動産,,有限会社,愛知県,名古屋市北区,山田町１丁目３０番地,,23,103,4620813,,,,,,,2024-05-02,1,,,,,スズヤフドウサン,0
1075,4180003026731,新規,0,2024-05-02,2024-05-02,合同会社１６１６ＫＡ．不動産,,合同会社,愛知県,小牧市,間々本町１１３,,23,219,4850048,,,,,,,2024-05-02,1,,,,,イロイロケーエーフドウサン,0
1078,4190001031311,新規,0,2024-05-02,2024-05-02,株式会社今津オフィス,,株式会社,三重県,津市,南が丘３丁目２４番地１,,24,201,5140822,,,,,,,2024-05-02,1,,,,,イマヅオフィス,0
1090,4240001063159,新規,0,2024-05-02,2024-05-02,株式会社３‐ＴＨＲＥＥ‐ＡＲＲＯＷＳ,,株式会社,広島県,広島市西区,庚午中４丁目２番１０－９０４号,,34,104,7330822,,,,,,,2024-05-02,1,,,,,スリーアローズ,0
1091,4240001063183,新規,0,2024-05-02,2024-05-02,株式会社アートビュー,,株式会社,広島県,広島市東区,温品３丁目１８番１７号,,34,102,7320033,,,,,,,2024-05-02,1,,,,,アートビュー,0
1106,4280001009174,新規,0,2024-05-02,2024-05-02,ＡＶＡＮＴ株式会社,,株式会社,島根県,松江市,西茶町４０番地１ワーキングスペースｅｎｕｎ２Ｆ,,32,201,6900845,,,,,,,2024-05-02,1,,,,,アヴァン,0
1110,4290005019383,新規,0,2024-05-02,2024-05-02,一般社団法人ＯＶＥＳＴ,,その他の設立登記法人,福岡県,みやま市,瀬高町坂田９５５番地１,,40,229,8350006,,,,,,,2024-05-02,1,,,,,オーベスト,0
1111,4290005019400,新規,0,2024-05-02,2024-05-02,司法書士法人すずらん,,その他の設立登記法人,福岡県,福岡市中央区,舞鶴３丁目２番２１号ストリームライン舞鶴５０２,,40,133,8100073,,,,,,,2024-05-02,1,,,,,スズラン,0
1119,4310001018989,新規,0,2024-05-02,2024-05-02,株式会社タグチ塗装,,株式会社,長崎県,壱岐市,郷ノ浦町片原触３１６番地１,,42,210,8115136,,,,,,,2024-05-02,1,,,,,タグチトソウ,0
1123,4330001032006,新規,0,2024-05-02,2024-05-02,ＫＹ　ＳＭＣ株式会社,,株式会社,熊本県,菊池郡大津町,大字室１７０５番地８,,43,403,8691235,,,,,,,2024-05-02,1,,,,,ケーワイエスエムシー,0
1128,4360001033595,新規,0,2024-05-02,2024-05-02,Ａｄｎｙ株式会社,,株式会社,沖縄県,那覇市,真嘉比２丁目３５番２１－６０１号,,47,201,9020068,,,,,,,2024-05-02,1,,,,,アドニー,0
1134,4370003006581,新規,0,2024-05-02,2024-05-02,合同会社ＢＴＡ,,合同会社,宮城県,仙台市青葉区,大町１丁目１番５－７０３号,,04,101,9800804,,,,,,,2024-05-02,1,,,,,ビーティーエー,0
1142,4420001018706,新規,0,2024-05-02,2024-05-02,株式会社Ｉｒｉｓ,,株式会社,青森県,青森市,本町５丁目６番２号,,02,201,0300802,,,,,,,2024-05-02,1,,,,,アイリス,0
1147,4430001091677,新規,0,2024-05-02,2024-05-02,株式会社栗山農村リゾート,,株式会社,北海道,夕張郡栗山町,中央３丁目３２８番地,,01,429,0691511,,,,,,,2024-05-02,1,,,,,クリヤマノウソンリゾート,0
1150,4430003016269,新規,0,2024-05-02,2024-05-02,合同会社ユメプロ,,合同会社,北海道,小樽市,朝里４丁目６番４号,,01,203,0470151,,,,,,,2024-05-02,1,,,,,ユメプロ,0
1154,4460101007539,新規,0,2024-05-02,2024-05-02,株式会社田村建設,,株式会社,北海道,河東郡音更町,宝来仲町南２丁目９番地４,,01,631,0800135,,,,,,,2024-05-02,1,,,,,タムラケンセツ,0
1160,4500001025594,新規,0,2024-05-02,2024-05-02,株式会社上商,,株式会社,愛媛県,松山市,二番町２丁目４番地１１ＧＸビル,,38,201,7900002,,,,,,,2024-05-02,1,,,,,ウエショウ,0
1164,5010001244425,新規,0,2024-05-02,2024-05-02,株式会社ＪＥＤＩ,,株式会社,東京都,中央区,銀座１丁目２２番１１号銀座大竹ビジデンス２階,,13,102,1040061,,,,,,,2024-05-02,1,,,,,ジェダイ,0
1174,5010401182150,新規,0,2024-05-02,2024-05-02,株式会社テックコーチ,,株式会社,東京都,港区,南青山２丁目２番１５－９４２号ウィン青山,,13,103,1070062,,,,,,,2024-05-02,1,,,,,テックコーチ,0
1175,5010401182175,新規,0,2024-05-02,2024-05-02,ＳＵＮ　ＲＯＣＫ　ＭＡＮＡＧＥＭＥＮＴ株式会社,,株式会社,東京都,港区,元麻布３丁目１番６号,,13,103,1060046,,,,,,,2024-05-02,1,,,,,サンロックマネジメント,0
1176,5010401182183,新規,0,2024-05-02,2024-05-02,株式会社ｙｏｎ　ｉ,,株式会社,東京都,港区,南青山７丁目４番１号１Ｆ,,13,103,1070062,,,,,,,2024-05-02,1,,,,,ヨンアイ,0
1177,5010401182191,新規,0,2024-05-02,2024-05-02,日の出１９号株式会社,,株式会社,東京都,港区,海岸１丁目７番１号,,13,103,1050022,,,,,,,2024-05-02,1,,,,,ヒノデジュウキュウゴウ,0
1183,5010403032551,新規,0,2024-05-02,2024-05-02,合同会社ＲＩＮＤＹ,,合同会社,東京都,港区,港南４丁目６番８号,,13,103,1080075,,,,,,,2024-05-02,1,,,,,リンディー,0
1185,5010501052212,新規,0,2024-05-02,2024-05-02,株式会社総研,,株式会社,東京都,台東区,鳥越１丁目５番２号ＹＫＯビル３Ｆ,,13,106,1110054,,,,,,,2024-05-02,1,,,,,ソウケン,0
1187,5010601065080,新規,0,2024-05-02,2024-05-02,株式会社ｍｏｕｎｂｏｏ,,株式会社,東京都,墨田区,緑２丁目２０番９号（３０１）,,13,107,1300021,,,,,,,2024-05-02,1,,,,,マウンブー,0
1189,5010701045924,新規,0,2024-05-02,2024-05-02,株式会社上里興業,,株式会社,東京都,品川区,西五反田６丁目２５番４－９０２号,,13,109,1410031,,,,,,,2024-05-02,1,,,,,ウエサトコウギョウ,0
1190,5010705003622,新規,0,2024-05-02,2024-05-02,一般財団法人表現革新振興財団,,その他の設立登記法人,東京都,品川区,東大井５丁目２３番３７号,,13,109,1400011,,,,,,,2024-05-02,1,,,,,ヒョウゲンカクシンシンコウザイダン,0
1191,5010801035008,新規,0,2024-05-02,2024-05-02,ＯＭＯＣＨＩ株式会社,,株式会社,東京都,大田区,蒲田本町１丁目７－１,,13,111,1440053,,,,,,,2024-05-02,1,,,,,オモチ,0
1196,5010803004935,新規,0,2024-05-02,2024-05-02,ＬＩＮＫ合同会社,,合同会社,東京都,大田区,大森本町２丁目２５－７－２０１,,13,111,1430011,,,,,,,2024-05-02,1,,,,,リンク,0
1204,5011001161668,新規,0,2024-05-02,2024-05-02,株式会社Ｓｏｕｔｈ　Ｓｉｄｅ　Ｓｏｕｎｄ,,株式会社,東京都,渋谷区,渋谷２丁目１９－１５宮益坂ビルディング６０９,,13,113,1500002,,,,,,,2024-05-02,1,,,,,サウスサイドサウンド,0
1205,5011001161684,新規,0,2024-05-02,2024-05-02,株式会社ＮＥＸＵＳ　ＰＬＡＮ,,株式会社,東京都,渋谷区,恵比寿１丁目２０－１６イークオーレ２０３,,13,113,1500013,,,,,,,2024-05-02,1,,,,,ネクサスプラン,0
1206,5011001161783,新規,0,2024-05-02,2024-05-02,株式会社Ｒｉｂｕｒａ,,株式会社,東京都,渋谷区,渋谷２丁目１９－１５宮益坂ビルディング６０９,,13,113,1500002,,,,,,,2024-05-02,1,,,,,リブラ,0
1208,5011003019030,新規,0,2024-05-02,2024-05-02,合同会社Ｍａｒｉａｇｅ　Ｃｒｅａｔｉｏｎ,,合同会社,東京都,渋谷区,渋谷２丁目１９‐１５宮益坂ビルディング６０９,,13,113,1500002,,,,,,,2024-05-02,1,,,,,マリアージュクリエーション,0
1210,5011005010490,新規,0,2024-05-02,2024-05-02,一般社団法人ジーエムジー,,その他の設立登記法人,東京都,目黒区,鷹番２丁目２０番１７号,,13,110,1520004,,,,,,,2024-05-02,1,,,,,ジーエムジー,0
1215,5011101107166,新規,0,2024-05-02,2024-05-02,株式会社ＳＭＩＴＥ,,株式会社,東京都,新宿区,西新宿３丁目３番１３号西新宿水間ビル２Ｆ,,13,104,1600023,,,,,,,2024-05-02,1,,,,,スマイト,0
1216,5011101107174,新規,0,2024-05-02,2024-05-02,Ｇｏｔｈｅｓｔ株式会社,,株式会社,東京都,新宿区,上落合１丁目７番１３－１０４,,13,104,1610034,,,,,,,2024-05-02,1,,,,,ゴテスト,0
1220,5011103014377,新規,0,2024-05-02,2024-05-02,合同会社Ｋａｚｅ　ｏｆｆｉｃｅ,,合同会社,東京都,新宿区,西新宿６丁目１２番６号コアロード西新宿１３０１号,,13,104,1600023,,,,,,,2024-05-02,1,,,,,カゼオフィス,0
1221,5011103014385,新規,0,2024-05-02,2024-05-02,合同会社アーバンハウス,,合同会社,東京都,新宿区,高田馬場２丁目１９－７タックイレブン高田馬場７０２,,13,104,1690075,,,,,,,2024-05-02,1,,,,,アーバンハウス,0
1225,5011401026066,新規,0,2024-05-02,2024-05-02,ユーユー株式会社,,株式会社,東京都,板橋区,小茂根３丁目６番２５－５０１号,,13,119,1730037,,,,,,,2024-05-02,1,,,,,ユーユー,0
1229,5011503006049,新規,0,2024-05-02,2024-05-02,合同会社ＨＡＤＩ,,合同会社,東京都,北区,十条仲原３丁目２２番９－３０１号グランドールピア,,13,117,1140031,,,,,,,2024-05-02,1,,,,,ハディ,0
1238,5012301013889,新規,0,2024-05-02,2024-05-02,エスキューコーポレーション株式会社,,株式会社,東京都,町田市,高ヶ坂４丁目３番７号,,13,209,1940014,,,,,,,2024-05-02,1,,,,,エスキューコーポレーション,0
1239,5012701018232,新規,0,2024-05-02,2024-05-02,ＴｏｍｏＨｏｍｅ株式会社,,株式会社,東京都,小平市,天神町１丁目２番２４号,,13,211,1870004,,,,,,,2024-05-02,1,,,,,トモホーム,0
1241,5012801023124,新規,0,2024-05-02,2024-05-02,株式会社ぐらどるスパ,,株式会社,東京都,日野市,旭が丘１丁目７番地の３グロリー旭が丘３０２,,13,212,1910065,,,,,,,2024-05-02,1,,,,,グラドルスパ,0
1248,5020001157007,新規,0,2024-05-02,2024-05-02,横浜ファンカンパニー株式会社,,株式会社,神奈川県,横浜市西区,東ケ丘２３番地１,,14,103,2200033,,,,,,,2024-05-02,1,,,,,ヨコハマファンカンパニー,0
1249,5020001157023,新規,0,2024-05-02,2024-05-02,株式会社ジェイエイチ,,株式会社,神奈川県,横浜市泉区,和泉中央北２丁目２３番１０号,,14,116,2450024,,,,,,,2024-05-02,1,,,,,ジェイエイチ,0
1252,5020003026077,新規,0,2024-05-02,2024-05-02,エイムフルフィー合同会社,,合同会社,神奈川県,横浜市栄区,飯島町１０７３番地１０,,14,115,2440842,,,,,,,2024-05-02,1,,,,,エイムフルフィー,0
1257,5021001082120,新規,0,2024-05-02,2024-05-02,ＲＥＸＴ　ＢＩＺ株式会社,,株式会社,神奈川県,座間市,ひばりが丘４丁目２９番２号,,14,216,2520003,,,,,,,2024-05-02,1,,,,,レクストビズ,0
1258,5021001082129,新規,0,2024-05-02,2024-05-02,株式会社ｇｏｏｄ　ｈａｎｄ　ｐａｒｔｎｅｒｓ,,株式会社,神奈川県,横須賀市,若松町２丁目１番地３川島ビル４Ｆ,,14,201,2380007,,,,,,,2024-05-02,1,,,,,グッドハンドパートナーズ,0
1259,5021003014427,新規,0,2024-05-02,2024-05-02,合同会社ｃａｐｒｉｃｅ,,合同会社,神奈川県,海老名市,今里２丁目２－１６－３０３,,14,215,2430423,,,,,,,2024-05-02,1,,,,,カプリス,0
1264,5030001160034,新規,0,2024-05-02,2024-05-02,株式会社翠果,,株式会社,埼玉県,加須市,琴寄２２０番地,,11,210,3491133,,,,,,,2024-05-02,1,,,,,スイカ,0
1267,5030003024204,新規,0,2024-05-02,2024-05-02,アカツキエンジニアリング合同会社,,合同会社,埼玉県,本庄市,万年寺１丁目７番１０号,,11,211,3670064,,,,,,,2024-05-02,1,,,,,アカツキエンジニアリング,0
1270,5040001133410,新規,0,2024-05-02,2024-05-02,株式会社ＮＭスタイル,,株式会社,千葉県,流山市,おおたかの森東１丁目１１番地６の２０８,,12,220,2700138,,,,,,,2024-05-02,1,,,,,エヌエムスタイル,0
1284,5060003005060,新規,0,2024-05-02,2024-05-02,合同会社ケアプランつむぎ,,合同会社,栃木県,日光市,和泉８７３番地１,,09,206,3211425,,,,,,,2024-05-02,1,,,,,ケアプランツムギ,0
1291,5080403004998,新規,0,2024-05-02,2024-05-02,合同会社オーテック・エス,,合同会社,静岡県,浜松市天竜区,山東２８６０番地,,22,140,4313303,,,,,,,2024-05-02,1,,,,,オーテックエス,0
1293,5090001018680,新規,0,2024-05-02,2024-05-02,株式会社ホテルマネージメント,,株式会社,山梨県,南都留郡富士河口湖町,船津６８００番地,,19,430,4010301,,,,,,,2024-05-02,1,,,,,ホテルマネージメント,0
1305,5120001264577,新規,0,2024-05-02,2024-05-02,株式会社Ｏｎｅ　Ｌｉｎｋ,,株式会社,大阪府,大阪市西区,新町１丁目３３番１１－５０４号,,27,106,5500013,,,,,,,2024-05-02,1,,,,,ワンリンク,0
1312,5120101069505,新規,0,2024-05-02,2024-05-02,都市研株式会社,,株式会社,大阪府,富田林市,梅の里２丁目１番２号,,27,214,5840001,,,,,,,2024-05-02,1,,,,,トシケン,0
1316,5122005003746,新規,0,2024-05-02,2024-05-02,一般社団法人ＥＳＬ,,その他の設立登記法人,大阪府,八尾市,末広町３丁目６番１８－１１２号,,27,212,5810001,,,,,,,2024-05-02,1,,,,,イーエスエル,0
1321,5130001076856,新規,0,2024-05-02,2024-05-02,株式会社Ｅ７,,株式会社,京都府,京都市伏見区,深草谷口町７０番地６０,,26,109,6120829,,,,,,,2024-05-02,1,,,,,イーセブン,0
1329,5140001134299,新規,0,2024-05-02,2024-05-02,株式会社グライズ,,株式会社,兵庫県,西宮市,石在町１５番１８－５０１号,,28,204,6620928,,,,,,,2024-05-02,1,,,,,グライズ,0
1335,5160003003178,新規,0,2024-05-02,2024-05-02,スタンドプロセス合同会社,,合同会社,滋賀県,長浜市,神照町８３８番地６,,25,203,5260015,,,,,,,2024-05-02,1,,,,,スタンドプロセス,0
1344,5180001161174,新規,0,2024-05-02,2024-05-02,Ｐｓｙｖｅ株式会社,,株式会社,愛知県,犬山市,上野新町４３５,,23,215,4840078,,,,,,,2024-05-02,1,,,,,サイブ,0
1345,5180001161249,新規,0,2024-05-02,2024-05-02,株式会社ＭＩＩテクセレ,,株式会社,愛知県,瀬戸市,ふじの台２丁目１９番地,,23,204,4890907,,,,,,,2024-05-02,1,,,,,エムアイアイテクセレ,0
1356,5180003026722,新規,0,2024-05-02,2024-05-02,プレアノヴァ合同会社,,合同会社,愛知県,名古屋市中村区,名駅４丁目２４番５号第２森ビル４０１,,23,105,4500002,,,,,,,2024-05-02,1,,,,,プレアノヴァ,0
1357,5180301038601,新規,0,2024-05-02,2024-05-02,井桜株式会社,,株式会社,愛知県,豊田市,神池町１丁目１１１９番地３２,,23,211,4710804,,,,,,,2024-05-02,1,,,,,イザクラ,0
1362,5190001031310,新規,0,2024-05-02,2024-05-02,株式会社ＭＫテック四日市,,株式会社,三重県,四日市市,城西町１３番２８号第二大誠ビル３０Ｃ号室,,24,202,5100829,,,,,,,2024-05-02,1,,,,,エムケーテックヨッカイチ,0
1363,5190001031319,新規,0,2024-05-02,2024-05-02,株式会社グリーン,,株式会社,三重県,四日市市,川島町２８４６‐９,,24,202,5120934,,,,,,,2024-05-02,1,,,,,グリーン,0
1364,5190003004669,新規,0,2024-05-02,2024-05-02,ＦＹ　ＡＲＴ企画合同会社,,合同会社,三重県,四日市市,泊町１２番２１号メゾンカトルＡ号室,,24,202,5100884,,,,,,,2024-05-02,1,,,,,エフワイアートキカク,0
1369,5200001042470,新規,0,2024-05-02,2024-05-02,株式会社弘＿商事,00134609,株式会社,岐阜県,岐阜市,東栄町３丁目１６番地６,,21,201,5008144,,,,,,,2024-05-02,1,,,,,コウキンショウジ,0
1371,5200005013617,新規,0,2024-05-02,2024-05-02,特定非営利活動法人牛牧サッカースポーツ少年団,,その他の設立登記法人,岐阜県,瑞穂市,牛牧１２６２番地５,,21,216,5010234,,,,,,,2024-05-02,1,,,,,ウシキサッカースポーツショウネンダン,0
1374,5240001063166,新規,0,2024-05-02,2024-05-02,株式会社ＳＡＩＴＯＨ,,株式会社,広島県,広島市安佐北区,可部６丁目１番４６‐３０７号,,34,106,7310221,,,,,,,2024-05-02,1,,,,,サイトウ,0
1375,5240001063174,新規,0,2024-05-02,2024-05-02,ＡＭＯ‐ＴＲＩＰ株式会社,,株式会社,広島県,広島市南区,大州３丁目７番２－２０３号,,34,103,7320802,,,,,,,2024-05-02,1,,,,,アモトリップ,0
1376,5240001063182,新規,0,2024-05-02,2024-05-02,株式会社北村,,株式会社,広島県,福山市,坪生町２丁目３番６号,,34,207,7210903,,,,,,,2024-05-02,1,,,,,キタムラ,0
1379,5240003006651,新規,0,2024-05-02,2024-05-02,ヒラタパートナーズ合同会社,,合同会社,広島県,江田島市,江田島町江南１丁目２番８号,,34,215,7372132,,,,,,,2024-05-02,1,,,,,ヒラタパートナーズ,0
1383,5270003001617,新規,0,2024-05-02,2024-05-02,合同会社ｓｔｕｄｓ,,合同会社,鳥取県,鳥取市,的場３丁目１２－１,,31,201,6800873,,,,,,,2024-05-02,1,,,,,スタッズ,0
1386,5290005019382,新規,0,2024-05-02,2024-05-02,一般社団法人久留米市居住支援協会,,その他の設立登記法人,福岡県,久留米市,国分町１３２３番地１,,40,203,8390863,,,,,,,2024-05-02,1,,,,,クルメシキョジュウシエンキョウカイ,0
1392,5330001032038,新規,0,2024-05-02,2024-05-02,株式会社Ｈａｎｇ　ｏｖｅｒ,,株式会社,熊本県,熊本市西区,上高橋２丁目６番１０号,,43,103,8600061,,,,,,,2024-05-02,1,,,,,ハングオーバー,0
1400,5360001033594,新規,0,2024-05-02,2024-05-02,株式会社Ｚｅｎ,,株式会社,沖縄県,那覇市,字国場１１６６－４,,47,201,9020075,,,,,,,2024-05-02,1,,,,,ゼン,0
1401,5360001033603,新規,0,2024-05-02,2024-05-02,Ｋ２アソシエ株式会社,,株式会社,沖縄県,島尻郡八重瀬町,字新城１８３２番地,,47,362,9010503,,,,,,,2024-05-02,1,,,,,ケイツーアソシエ,0
1406,5370001051249,新規,0,2024-05-02,2024-05-02,株式会社仙風,,株式会社,宮城県,仙台市宮城野区,福室２丁目５番６０号サンヴューズ２０３,,04,102,9830005,,,,,,,2024-05-02,1,,,,,センフウ,0
1407,5370003006589,新規,0,2024-05-02,2024-05-02,合同会社ＣＲＵＭＢ　ＷＯＲＬＤ,,合同会社,宮城県,白石市,旭町４丁目１番１号,,04,206,9890223,,,,,,,2024-05-02,1,,,,,クラムワールド,0
1414,5390005009068,新規,0,2024-05-02,2024-05-02,しらたかマルチワーク事業協同組合,,その他の設立登記法人,山形県,西置賜郡白鷹町,大字荒砥甲１００４－２,,06,402,9920831,,,,,,,2024-05-02,1,,,,,シラタカマルチワーク,0
1418,5410001013814,新規,0,2024-05-02,2024-05-02,株式会社秋麗,,株式会社,秋田県,由利本荘市,大門７９番地,,05,210,0150808,,,,,,,2024-05-02,1,,,,,シュウレイ,0
1419,5410003003920,新規,0,2024-05-02,2024-05-02,合同会社ＭＡ,,合同会社,秋田県,秋田市,泉菅野１丁目１２番２５号,,05,201,0100817,,,,,,,2024-05-02,1,,,,,エムエー,0
1424,5430001091676,新規,0,2024-05-02,2024-05-02,株式会社Ｊ,,株式会社,北海道,札幌市中央区,北二条西１丁目１０番地,,01,101,0600002,,,,,,,2024-05-02,1,,,,,ジェイ,0
1426,5430003016276,新規,0,2024-05-02,2024-05-02,Ｃｅｎｄｒｉｌｌｏｎ合同会社,,合同会社,北海道,札幌市東区,北五条東１０丁目１６番地４ザ・グランアルト札幌苗穂ステーションタワー３１２号,,01,103,0650005,,,,,,,2024-05-02,1,,,,,サンドリヨン,0
1427,5430003016284,新規,0,2024-05-02,2024-05-02,合同会社地域医療連携ラボ,,合同会社,北海道,札幌市北区,あいの里三条８丁目３番８号,,01,102,0028073,,,,,,,2024-05-02,1,,,,,チイキイリョウレンケイラボ,0
1430,5500003003234,新規,0,2024-05-02,2024-05-02,合同会社ＭｏｂｙＤｉｃｋｓ,,合同会社,愛媛県,松山市,道後湯之町１２－２３－４０４,,38,201,7900842,,,,,,,2024-05-02,1,,,,,モビーディックス,0
1437,6010001244093,新規,0,2024-05-02,2024-05-02,株式会社東亞建物管理,,株式会社,東京都,中央区,日本橋本町１丁目１０番２号近甚ビル２階,,13,102,1030023,,,,,,,2024-05-02,1,,,,,トウアタテモノカンリ,0
1443,6010005038252,新規,0,2024-05-02,2024-05-02,一般社団法人こどもドリームデザイン,,その他の設立登記法人,東京都,中央区,銀座４丁目１０番１４号Ａｃｎ銀座４ビルディング１０－１１Ｆ,,13,102,1040061,,,,,,,2024-05-02,1,,,,,コドモドリームデザイン,0
1449,6010401182182,新規,0,2024-05-02,2024-05-02,株式会社真誠不動産,,株式会社,東京都,港区,南青山２丁目２番８号ＤＦビル６２４号室,,13,103,1070062,,,,,,,2024-05-02,1,,,,,シンセイフドウサン,0
1450,6010401182190,新規,0,2024-05-02,2024-05-02,日の出１８号株式会社,,株式会社,東京都,港区,海岸１丁目７番１号,,13,103,1050022,,,,,,,2024-05-02,1,,,,,ヒノデジュウハチゴウ,0
1451,6010403032550,新規,0,2024-05-02,2024-05-02,合同会社Ａｗｅ　ａｎｄ　Ｗｏｎｄｅｒ,,合同会社,東京都,港区,北青山１丁目３番１号アールキューブ青山３階,,13,103,1070061,,,,,,,2024-05-02,1,,,,,オーアンドワンダー,0
1452,6010405023168,新規,0,2024-05-02,2024-05-02,一般社団法人ｌｎｄｏｎｅｓｉａＬｉｎｋａｇｅＣｌｕｂ,,その他の設立登記法人,東京都,港区,芝大門２丁目７－１ハイリーフ芝大門１０５,,13,103,1050012,,,,,,,2024-05-02,1,,,,,インドネシアリンケージクラブ,0
1458,6010801035007,新規,0,2024-05-02,2024-05-02,株式会社ＴＳＵＭＵＪＩ　ＷＯＲＫＳ,,株式会社,東京都,大田区,南雪谷４丁目１４番３号,,13,111,1450066,,,,,,,2024-05-02,1,,,,,ツムジワークス,0
1459,6010801035015,新規,0,2024-05-02,2024-05-02,株式会社エクスト,,株式会社,東京都,大田区,東雪谷２丁目９番１４号,,13,111,1450065,,,,,,,2024-05-02,1,,,,,エクスト,0
1466,6011001161650,新規,0,2024-05-02,2024-05-02,株式会社Ｊ＆Ｍ,,株式会社,東京都,目黒区,青葉台２丁目９番１号,,13,110,1530042,,,,,,,2024-05-02,1,,,,,ジェイアンドエム,0
1467,6011001161758,新規,0,2024-05-02,2024-05-02,株式会社ＴＨＲＥＥ　ＧＯＮＧ,,株式会社,東京都,渋谷区,南平台町４番８号,,13,113,1500036,,,,,,,2024-05-02,1,,,,,スリーゴング,0
1468,6011003019054,新規,0,2024-05-02,2024-05-02,合同会社ニューラルオプト,,合同会社,東京都,渋谷区,松濤２丁目１２－７カサビアンカ松濤１０７,,13,113,1500046,,,,,,,2024-05-02,1,,,,,ニューラルオプト,0
1469,6011003019062,新規,0,2024-05-02,2024-05-02,合同会社ｉｍｐｒｅｓｓｉｖｅ,,合同会社,東京都,目黒区,大岡山２丁目５番２６号エストレーラＭ－２０１,,13,110,1520033,,,,,,,2024-05-02,1,,,,,インプレッシブ,0
1472,6011101107165,新規,0,2024-05-02,2024-05-02,株式会社ｍａｇｎｅｔ,,株式会社,東京都,新宿区,若松町１７番５号,,13,104,1620056,,,,,,,2024-05-02,1,,,,,マグネット,0
1474,6011105011025,新規,0,2024-05-02,2024-05-02,イージス＆パートナーズ司法書士法人,,その他の設立登記法人,東京都,新宿区,新宿１丁目２４番７－６１３号,,13,104,1600022,,,,,,,2024-05-02,1,,,,,イージスアンドパートナーズ,0
1475,6011201025440,新規,0,2024-05-02,2024-05-02,株式会社クロシェットリング,,株式会社,東京都,中野区,中央２丁目３０番９号山王ＭＧＴビルＥ２２０号室,,13,114,1640011,,,,,,,2024-05-02,1,,,,,クロシェットリング,0
1476,6011301029639,新規,0,2024-05-02,2024-05-02,株式会社すずきコンサルティングオフィス,,株式会社,東京都,杉並区,宮前５丁目１３番５号,,13,115,1680081,,,,,,,2024-05-02,1,,,,,スズキコンサルティングオフィス,0
1479,6011701027226,新規,0,2024-05-02,2024-05-02,桃ハナ株式会社,,株式会社,東京都,江戸川区,松江２丁目１－１３－２０２号室,,13,123,1320025,,,,,,,2024-05-02,1,,,,,モモハナ,0
1482,6011801044179,新規,0,2024-05-02,2024-05-02,ＬＥＺＡＰＲＯ株式会社,,株式会社,東京都,足立区,谷中１丁目２２番５－５０３,,13,121,1200006,,,,,,,2024-05-02,1,,,,,レザプロ,0
1494,6020001156981,新規,0,2024-05-02,2024-05-02,株式会社ＣＳＹ,,株式会社,神奈川県,横浜市神奈川区,子安通３丁目３４７番地１６－８１３号,,14,102,2210021,,,,,,,2024-05-02,1,,,,,シーエスワイ,0
1495,6020001157022,新規,0,2024-05-02,2024-05-02,株式会社ＮＥＺｉｍ,,株式会社,神奈川県,横浜市青葉区,あざみ野３丁目２６番地５５,,14,117,2250011,,,,,,,2024-05-02,1,,,,,ネジム,0
1496,6020001157047,新規,0,2024-05-02,2024-05-02,ＳＢＣ株式会社,,株式会社,神奈川県,横浜市港北区,新横浜３丁目７番地１８日総第１８ビル９Ｆ,,14,109,2220033,,,,,,,2024-05-02,1,,,,,エスビーシー,0
1498,6020003026035,新規,0,2024-05-02,2024-05-02,合同会社Ｋ．Ｍ．Ｆ,,合同会社,神奈川県,川崎市宮前区,東有馬２丁目２２番１６号,,14,136,2160002,,,,,,,2024-05-02,1,,,,,ケーエムエフ,0
1504,6021001082136,新規,0,2024-05-02,2024-05-02,株式会社島田企画,,株式会社,神奈川県,海老名市,本郷１５７１番地１,,14,215,2430417,,,,,,,2024-05-02,1,,,,,シマダキカク,0
1507,6021003014450,新規,0,2024-05-02,2024-05-02,合同会社藤咲建築,,合同会社,神奈川県,座間市,広野台１丁目５番２２号,,14,216,2520012,,,,,,,2024-05-02,1,,,,,フジサキケンチク,0
1508,6021003014459,新規,0,2024-05-02,2024-05-02,合同会社ＫＯ,,合同会社,神奈川県,厚木市,水引２丁目１０番１８－２０２号,,14,212,2430004,,,,,,,2024-05-02,1,,,,,コウ,0
1511,6030001160082,新規,0,2024-05-02,2024-05-02,太陽総合コンサルティング株式会社,,株式会社,埼玉県,越谷市,瓦曽根３丁目１０番１８－２号,,11,222,3430821,,,,,,,2024-05-02,1,,,,,,0
1512,6030001160124,新規,0,2024-05-02,2024-05-02,株式会社思い立ったが吉日,,株式会社,埼玉県,久喜市,久喜東１丁目２番２号フジタ第１２ビル３Ｆ,,11,232,3460016,,,,,,,2024-05-02,1,,,,,オモイタッタガキチジツ,0
1527,6040001133401,新規,0,2024-05-02,2024-05-02,株式会社Ｓ．Ｓ．Ｋ,,株式会社,千葉県,八街市,八街ほ１７番地４９,,12,230,2891115,,,,,,,2024-05-02,1,,,,,エスエスケー,0
1528,6040001133434,新規,0,2024-05-02,2024-05-02,株式会社秋山重機工業,,株式会社,千葉県,千葉市稲毛区,園生町１０１７－１ダイアパレス稲毛ＩＩ１０３,00134611,12,103,2630051,,,,,,,2024-05-02,1,,,,,アキヤマジュウキコウギョウ,0
1540,6040003024895,新規,0,2024-05-02,2024-05-02,合同会社ミルク,,合同会社,千葉県,市川市,行徳駅前４丁目８－２,,12,203,2720133,,,,,,,2024-05-02,1,,,,,ミルク,0
1541,6040003024912,新規,0,2024-05-02,2024-05-02,合同会社タイムリー,,合同会社,千葉県,習志野市,秋津４丁目４番１１号,,12,216,2750025,,,,,,,2024-05-02,1,,,,,タイムリー,0
1544,6050001054720,新規,0,2024-05-02,2024-05-02,Ｓｅａｍｒ株式会社,,株式会社,茨城県,つくば市,吾妻２丁目５番地１つくば市産業振興センター,,08,220,3050031,,,,,,,2024-05-02,1,,,,,シームル,0
1545,6050005013441,新規,0,2024-05-02,2024-05-02,行政書士法人磯山事務所,,その他の設立登記法人,茨城県,土浦市,中央１丁目１５番６号,,08,203,3000043,,,,,,,2024-05-02,1,,,,,イソヤマジムショ,0
1557,6080001026279,新規,0,2024-05-02,2024-05-02,株式会社シフォン・焼津,,株式会社,静岡県,焼津市,東小川７丁目７番地の１０,,22,212,4250035,,,,,,,2024-05-02,1,,,,,シフォンヤイズ,0
1561,6080401027158,新規,0,2024-05-02,2024-05-02,ＫＫＥ株式会社,,株式会社,静岡県,浜松市中央区,上石田町２２５１番地,,22,138,4350001,,,,,,,2024-05-02,1,,,,,ケイケイイー,0
1567,6110001038386,新規,0,2024-05-02,2024-05-02,株式会社リノベル,,株式会社,新潟県,北蒲原郡聖籠町,大字次第浜２６５４番地,,15,307,9570105,,,,,,,2024-05-02,1,,,,,リノベル,0
1568,6110003005376,新規,0,2024-05-02,2024-05-02,合同会社ふらっとプラス,,合同会社,新潟県,柏崎市,駅前１丁目２番２４号－１０１,,15,205,9450055,,,,,,,2024-05-02,1,,,,,フラットプラス,0
1583,6120001264361,新規,0,2024-05-02,2024-05-02,株式会社川維,,株式会社,大阪府,大阪市中央区,心斎橋筋１丁目８番３号,,27,128,5420085,,,,,,,2024-05-02,1,,,,,カワイ,0
1584,6120001264411,新規,0,2024-05-02,2024-05-02,大成株式会社,,株式会社,大阪府,大阪市浪速区,桜川４丁目３－２２ＦｏｒＹｏｕ桜川ビル５階,,27,111,5560022,,,,,,,2024-05-02,1,,,,,ダイセイ,0
1585,6120001264527,新規,0,2024-05-02,2024-05-02,Ｋｎｏｃｋ　Ｌｉｖｅ株式会社,,株式会社,大阪府,大阪市城東区,今福西４丁目４番２３号,,27,118,5360004,,,,,,,2024-05-02,1,,,,,ノックライブ,0
1592,6120003026479,新規,0,2024-05-02,2024-05-02,合同会社セディミュージック,,合同会社,大阪府,大阪市北区,梅田１丁目１－３大阪駅前第３ビル２９階１－１－１号室,,27,127,5300001,,,,,,,2024-05-02,1,,,,,セディミュージック,0
1593,6120003026487,新規,0,2024-05-02,2024-05-02,合同会社くすのき,,合同会社,大阪府,大阪市淀川区,西中島２丁目４－２第二高永ハイツ２０２号,,27,123,5320011,,,,,,,2024-05-02,1,,,,,クスノキ,0
1594,6120003026504,新規,0,2024-05-02,2024-05-02,ＳＡＩ　ＧＲＯＵＰ合同会社,,合同会社,大阪府,門真市,野里町２１番３号,,27,223,5710079,,,,,,,2024-05-02,1,,,,,サイグループ,0
1603,6120901049102,新規,0,2024-05-02,2024-05-02,株式会社リージュカインド,,株式会社,大阪府,豊中市,新千里西町２丁目３番５－４０３号,,27,203,5600083,,,,,,,2024-05-02,1,,,,,リージュカインド,0
1604,6120901049127,新規,0,2024-05-02,2024-05-02,ネクスト株式会社,,株式会社,大阪府,高槻市,西面南３丁目９６８番１,,27,207,5690847,,,,,,,2024-05-02,1,,,,,ネクスト,0
1608,6130001076946,新規,0,2024-05-02,2024-05-02,株式会社Ｊａｐａｎ　Ｎｏｖａ　Ｉｎｎｏｖａｔｉｏｎｓ,,株式会社,京都府,京都市東山区,五条橋東４丁目４３２－１３對嵐坊ビル,,26,105,6050846,,,,,,,2024-05-02,1,,,,,ジャパンノバイノベーションズ,0
1609,6130001076979,新規,0,2024-05-02,2024-05-02,株式会社エヌホーム,,株式会社,京都府,京都市伏見区,醍醐辰己町２番地２,,26,109,6011344,,,,,,,2024-05-02,1,,,,,エヌホーム,0
1610,6130001076995,新規,0,2024-05-02,2024-05-02,ＮｕＶｅ株式会社,,株式会社,京都府,京都市北区,上賀茂西河原町１番地の１,,26,101,6038036,,,,,,,2024-05-02,1,,,,,ニューブ,0
1618,6140003020505,新規,0,2024-05-02,2024-05-02,Ｉ．Ｃ．合同会社,,合同会社,兵庫県,神戸市西区,伊川谷町有瀬１０４６番地の１、５１０号,,28,111,6512113,,,,,,,2024-05-02,1,,,,,アイシー,0
1619,6140005027069,新規,0,2024-05-02,2024-05-02,一般社団法人桜尊会,,その他の設立登記法人,兵庫県,加西市,北条町西南２２４番地の２,,28,220,6752323,,,,,,,2024-05-02,1,,,,,サクラカイ,0
1632,6180003026696,新規,0,2024-05-02,2024-05-02,愛豊開発合同会社,,合同会社,愛知県,一宮市,浅野字南之川７番地１,,23,203,4910871,,,,,,,2024-05-02,1,,,,,アイホウカイハツ,0
1633,6180301038600,新規,0,2024-05-02,2024-05-02,ＴＭコンサルティング株式会社,,株式会社,愛知県,みよし市,三好町大坪２３番地久野ビル２Ｄ,,23,236,4700224,,,,,,,2024-05-02,1,,,,,ティーエムコンサルティング,0
1634,6180301038609,新規,0,2024-05-02,2024-05-02,株式会社フナケン,,株式会社,愛知県,豊橋市,神野新田町字水神下１８９番地の２,,23,201,4418077,,,,,,,2024-05-02,1,,,,,フナケン,0
1638,6190003004668,新規,0,2024-05-02,2024-05-02,合同会社ＨＮ　ＫＩＴＣＨＥＮ,,合同会社,三重県,四日市市,泊山崎町２番３３号パークハイムトマリＣ‐２０２,,24,202,5100892,,,,,,,2024-05-02,1,,,,,エイチエヌキッチン,0
1642,6220001025976,新規,0,2024-05-02,2024-05-02,株式会社ＯｎｅＬｏｖｅＣｏｍｐａｎｙ,,株式会社,石川県,金沢市,材木町２番１７号,,17,201,9200921,,,,,,,2024-05-02,1,,,,,ワンラブカンパニー,0
1647,6240001063157,新規,0,2024-05-02,2024-05-02,株式会社ティー・エム・ディジタル,,株式会社,広島県,広島市西区,高須１丁目１０番６号,,34,104,7330871,,,,,,,2024-05-02,1,,,,,ティーエムディジタル,0
1648,6240001063173,新規,0,2024-05-02,2024-05-02,株式会社丸井,,株式会社,広島県,広島市中区,本通７番２９号,,34,101,7300035,,,,,,,2024-05-02,1,,,,,マルイ,0
1653,6240003006650,新規,0,2024-05-02,2024-05-02,合同会社ＮＩＫＫＯ,,合同会社,広島県,広島市安佐南区,緑井３丁目４３番１－２０３号,,34,105,7310103,,,,,,,2024-05-02,1,,,,,ニッコ,0
1655,6260001039015,新規,0,2024-05-02,2024-05-02,株式会社小春商事,,株式会社,岡山県,岡山市北区,下石井２丁目１０番３０号（３７０２号）,,33,101,7000907,,,,,,,2024-05-02,1,,,,,コハルショウジ,0
1661,6290005019381,新規,0,2024-05-02,2024-05-02,ＮＰＯ法人桃李塾,,その他の設立登記法人,福岡県,宗像市,陵厳寺４丁目４番１９号,,40,220,8114145,,,,,,,2024-05-02,1,,,,,トウリジュク,0
1663,6290801030541,新規,0,2024-05-02,2024-05-02,小田建株式会社,,株式会社,福岡県,遠賀郡水巻町,吉田南５丁目３番２８号,,40,382,8070048,,,,,,,2024-05-02,1,,,,,オダケン,0
1667,6310001019003,新規,0,2024-05-02,2024-05-02,ＫＯＳＨＩＮ株式会社,,株式会社,長崎県,長崎市,石神町８番１号,,42,201,8528126,,,,,,,2024-05-02,1,,,,,コウシン,0
1674,6330001032037,新規,0,2024-05-02,2024-05-02,株式会社Ｋｏｍｏｒｉ　Ｆａｒｍ,,株式会社,熊本県,宇土市,石橋町３６９番地,,43,211,8690456,,,,,,,2024-05-02,1,,,,,コモリファーム,0
1676,6330003010354,新規,0,2024-05-02,2024-05-02,合同会社ＨＩＤＥ,,合同会社,熊本県,合志市,幾久富１８６６番地８６９,,43,216,8611112,,,,,,,2024-05-02,1,,,,,ヒデ,0
1680,6360001033602,新規,0,2024-05-02,2024-05-02,ミラフェート株式会社,,株式会社,沖縄県,那覇市,安里１丁目１番５８号光生ビル３階,,47,201,9020067,,,,,,,2024-05-02,1,,,,,ミラフェート,0
1682,6370005010778,新規,0,2024-05-02,2024-05-02,一般社団法人レヴァークスポーツ,,その他の設立登記法人,宮城県,仙台市若林区,沖野６丁目２６番２６号七ツ星ハイツ２０３,,04,103,9840831,,,,,,,2024-05-02,1,,,,,レヴァークスポーツ,0
1698,6430001091683,新規,0,2024-05-02,2024-05-02,株式会社エネック,,株式会社,北海道,岩内郡共和町,梨野舞納１２６番地８,,01,401,0450031,,,,,,,2024-05-02,1,,,,,エネック,0
1699,6430001091691,新規,0,2024-05-02,2024-05-02,株式会社ＫＺ,,株式会社,北海道,札幌市南区,澄川三条１丁目１０番３号,,01,106,0050003,,,,,,,2024-05-02,1,,,,,ケーゼット,0
1700,6430001091700,新規,0,2024-05-02,2024-05-02,株式会社Ｋ５,,株式会社,北海道,札幌市南区,真駒内本町５丁目２番２‐２０２号,,01,106,0050021,,,,,,,2024-05-02,1,,,,,ケーファイブ,0
1701,6430001091709,新規,0,2024-05-02,2024-05-02,株式会社ＦＨＲ,,株式会社,北海道,札幌市中央区,大通西６丁目１０番地,,01,101,0600042,,,,,,,2024-05-02,1,,,,,エフエイチアール,0
1702,6430003016283,新規,0,2024-05-02,2024-05-02,合同会社Ｓｏａｒ,,合同会社,北海道,札幌市北区,篠路九条２丁目２番１５号,,01,102,0028029,,,,,,,2024-05-02,1,,,,,ソアー,0
1704,6450001014279,新規,0,2024-05-02,2024-05-02,竹本商事株式会社,,株式会社,北海道,名寄市,西二条南７丁目１番地,,01,221,0960012,,,,,,,2024-05-02,1,,,,,,0
1705,6460301005217,新規,0,2024-05-02,2024-05-02,株式会社飛翔,,株式会社,北海道,常呂郡置戸町,字勝山１９２‐２,,01,550,0991252,,,,,,,2024-05-02,1,,,,,ヒショウ,0
1708,6490001010761,新規,0,2024-05-02,2024-05-02,株式会社ワークス,,株式会社,高知県,高知市,長浜６６６番地,,39,201,7810270,,,,,,,2024-05-02,1,,,,,ワークス,0
1709,6500001025592,新規,0,2024-05-02,2024-05-02,株式会社ＫＴＥＣ,,株式会社,愛媛県,松山市,太山寺町９０１番地１４,,38,201,7992662,,,,,,,2024-05-02,1,,,,,コーテック,0
1710,6500003003233,新規,0,2024-05-02,2024-05-02,Ｂｅｌｌｅｗｅｌｌ合同会社,,合同会社,愛媛県,宇和島市,三間町則９７２番地,,38,203,7981102,,,,,,,2024-05-02,1,,,,,ベルウィル,0
1717,7010001244497,新規,0,2024-05-02,2024-05-02,ＣｈｅｆＳｅｃ株式会社,,株式会社,東京都,千代田区,神田和泉町１番地６－１６ヤマトビル４０５,,13,101,1010024,,,,,,,2024-05-02,1,,,,,,0
1718,7010001244506,新規,0,2024-05-02,2024-05-02,Ｄｉｖｅｒｓｉｔｙ　Ｍａｎａｇｅｍｅｎｔ株式会社,,株式会社,東京都,中央区,銀座１丁目２２番１１号銀座大竹ビジデンス２Ｆ,,13,102,1040061,,,,,,,2024-05-02,1,,,,,ダイバーシティマネージメント,0
1719,7010001244522,新規,0,2024-05-02,2024-05-02,保田リゾート開発株式会社,,株式会社,東京都,中央区,八丁堀３丁目２２－１３株式会社風間＆パートナーズ内,,13,102,1040032,,,,,,,2024-05-02,1,,,,,ホリタリゾートカイハツ,0
1723,7010003043625,新規,0,2024-05-02,2024-05-02,シルクル３合同会社,,合同会社,東京都,千代田区,九段南４丁目６番１－２０２号,,13,101,1020074,,,,,,,2024-05-02,1,,,,,シルクルスリー,0
1734,7010401182157,新規,0,2024-05-02,2024-05-02,ＪＸ金属サーキュラーソリューションズ株式会社,,株式会社,東京都,港区,虎ノ門２丁目１０番４号,,13,103,1050001,,,,,,,2024-05-02,1,,,,,ジェイエックスキンゾクサーキュラーソリューションズ,0
1735,7010401182173,新規,0,2024-05-02,2024-05-02,株式会社Ｂｏｒｄｅｒｓａｋｉ,,株式会社,東京都,港区,東新橋２丁目１０番１０号東新橋ビル４０７,,13,103,1050021,,,,,,,2024-05-02,1,,,,,ボーダーサキ,0
1736,7010403032525,新規,0,2024-05-02,2024-05-02,ＧＬＩＮ　Ｉｍｐａｃｔ　Ｃａｐｉｔａｌ合同会社,,合同会社,東京都,港区,南青山２丁目２番１５号,,13,103,1070062,,,,,,,2024-05-02,1,,,,,グリンインパクトキャピタル,0
1738,7010501052185,新規,0,2024-05-02,2024-05-02,奥普電気日本株式会社,,株式会社,東京都,台東区,上野３丁目１１番５号,,13,106,1100005,,,,,,,2024-05-02,1,,,,,アップデンキニホン,0
1739,7010501052193,新規,0,2024-05-02,2024-05-02,株式会社ＰＲＩＭＥ　ＨＯＭＥ,,株式会社,東京都,台東区,千束２丁目１９－７,,13,106,1110031,,,,,,,2024-05-02,1,,,,,プライムホーム,0
1742,7010601065095,新規,0,2024-05-02,2024-05-02,株式会社セイノデイ,,株式会社,東京都,江東区,亀戸３丁目４５番１７－１００１号,,13,108,1360071,,,,,,,2024-05-02,1,,,,,セイノデイ,0
1743,7010603010776,新規,0,2024-05-02,2024-05-02,合同会社ＦＲＥＩＧＨＴ　ＴＲＡＩＮ,,合同会社,東京都,墨田区,文花１丁目１８番１３号,,13,107,1310044,,,,,,,2024-05-02,1,,,,,フレイトトレイン,0
1747,7010703007152,新規,0,2024-05-02,2024-05-02,ｗｉｎｙ．ｔｏｋｙｏ合同会社,,合同会社,東京都,品川区,北品川６丁目５―２６坂の上テラスＵ―１２,,13,109,1410001,,,,,,,2024-05-02,1,,,,,ワイニートーキョー,0
1748,7010801035014,新規,0,2024-05-02,2024-05-02,ＫＯＤ　ＴＥＣ株式会社,,株式会社,東京都,大田区,城南島２丁目９番６号４Ｆ,,13,111,1430002,,,,,,,2024-05-02,1,,,,,ケイオーデイテック,0
1754,7010903009015,新規,0,2024-05-02,2024-05-02,Ｚｅｎ　Ａｎｔｉｑｕｅｓ　Ｊａｐａｎ合同会社,,合同会社,東京都,世田谷区,瀬田２丁目８番４号－２０１,,13,112,1580095,,,,,,,2024-05-02,1,,,,,ゼンアンティークスジャパン,0
1760,7011001161658,新規,0,2024-05-02,2024-05-02,ＬＡＮ株式会社,,株式会社,東京都,渋谷区,恵比寿１丁目７番１１号,,13,113,1500013,,,,,,,2024-05-02,1,,,,,ラン,0
1761,7011001161682,新規,0,2024-05-02,2024-05-02,株式会社ＬＥＯＮＥＸ,,株式会社,東京都,渋谷区,本町２丁目１６番２号アーバンヒルズ初台２０１,,13,113,1510071,,,,,,,2024-05-02,1,,,,,レオネックス,0
1762,7011001161732,新規,0,2024-05-02,2024-05-02,Ｊｕｐｙｔｅｒ株式会社,,株式会社,東京都,渋谷区,渋谷２丁目１９－１５宮益坂ビルディング６０９,,13,113,1500002,,,,,,,2024-05-02,1,,,,,ジュピター,0
1764,7011003019045,新規,0,2024-05-02,2024-05-02,合同会社ＡＰＴＯＮＥ　Ｊａｐａｎ,,合同会社,東京都,渋谷区,桜丘町２６番１号,,13,113,1500031,,,,,,,2024-05-02,1,,,,,アプトンジャパン,0
1765,7011003019053,新規,0,2024-05-02,2024-05-02,ワイズ合同会社,,合同会社,東京都,渋谷区,渋谷２丁目１９－１５宮益坂ビルディング６０９,,13,113,1500002,,,,,,,2024-05-02,1,,,,,ワイズ,0
1766,7011005010522,新規,0,2024-05-02,2024-05-02,一般社団法人ハイドロブラスト,,その他の設立登記法人,東京都,渋谷区,本町３丁目４８－５株式会社デューズ内,,13,113,1510071,,,,,,,2024-05-02,1,,,,,ハイドロブラスト,0
1770,7011501030619,新規,0,2024-05-02,2024-05-02,品格株式会社,,株式会社,東京都,北区,王子本町１丁目２２番１号ＫＳＧビル２０６号室,,13,117,1140022,,,,,,,2024-05-02,1,,,,,,0
1774,7011603004306,新規,0,2024-05-02,2024-05-02,豫恒合同会社,,合同会社,東京都,練馬区,向山２丁目２８番１２号第三ハイツエルモア２０２号室,,13,120,1760022,,,,,,,2024-05-02,1,,,,,ヨツネ,0
1775,7011801044161,新規,0,2024-05-02,2024-05-02,株式会社しまとら,,株式会社,東京都,足立区,新田３丁目５番８号,,13,121,1230865,,,,,,,2024-05-02,1,,,,,シマトラ,0
1778,7012403006525,新規,0,2024-05-02,2024-05-02,合同会社スリーイーグル,,合同会社,東京都,三鷹市,牟礼７丁目４番５２号,,13,204,1810002,,,,,,,2024-05-02,1,,,,,スリーイーグル,0
1779,7012703002975,新規,0,2024-05-02,2024-05-02,合同会社ｔｏｃｈｉｏｗａｎ,,合同会社,東京都,西東京市,保谷町２丁目１３－６,,13,229,2020015,,,,,,,2024-05-02,1,,,,,トチオワン,0
1781,7013101009407,新規,0,2024-05-02,2024-05-02,株式会社ＭＡＹ,,株式会社,東京都,青梅市,長淵４丁目３７４－１－１１０１,,13,205,1980052,,,,,,,2024-05-02,1,,,,,,0
1787,7020001156997,新規,0,2024-05-02,2024-05-02,Ｓｅｒｉｋｕエステート株式会社,,株式会社,神奈川県,川崎市中原区,宮内２丁目２７番３号,,14,133,2110051,,,,,,,2024-05-02,1,,,,,セリクエステート,0
1788,7020001157005,新規,0,2024-05-02,2024-05-02,株式会社Ｋ＆Ａ,,株式会社,神奈川県,横浜市泉区,岡津町２５８９番地５,,14,116,2450003,,,,,,,2024-05-02,1,,,,,ケーアンドエー,0
1791,7020003026026,新規,0,2024-05-02,2024-05-02,合同会社山武建設,,合同会社,神奈川県,川崎市多摩区,西生田４丁目３－２２グリーンハイツ１０１,,14,135,2140037,,,,,,,2024-05-02,1,,,,,,0
1792,7020003026042,新規,0,2024-05-02,2024-05-02,合同会社ＮＫＫ,,合同会社,神奈川県,横浜市青葉区,美しが丘西２丁目１５番地９サンクタスヒューマンたまプラーザ４１４,,14,117,2250001,,,,,,,2024-05-02,1,,,,,エヌケーケー,0
1813,7030001160123,新規,0,2024-05-02,2024-05-02,株式会社Ｏｚｈ工業,,株式会社,埼玉県,所沢市,大字上安松６２４番地の１０,,11,208,3590025,,,,,,,2024-05-02,1,,,,,,0
1814,7030001160131,新規,0,2024-05-02,2024-05-02,サイタマ建築防災株式会社,,株式会社,埼玉県,深谷市,境３４８番地１,,11,218,3660813,,,,,,,2024-05-02,1,,,,,サイタマケンチクボウサイ,0
1827,7040001133391,新規,0,2024-05-02,2024-05-02,株式会社ＹＵ‐ＷＡ鋼業,,株式会社,千葉県,千葉市花見川区,幕張本郷７丁目２番３－２０８号,,12,102,2620033,,,,,,,2024-05-02,1,,,,,ユーワコウギョウ,0
1828,7040001133400,新規,0,2024-05-02,2024-05-02,株式会社４０７,,株式会社,千葉県,柏市,南増尾４丁目１番１４－１号,,12,217,2770054,,,,,,,2024-05-02,1,,,,,ヨンマルナナ,0
1829,7040001133417,新規,0,2024-05-02,2024-05-02,株式会社ジンタツ,,株式会社,千葉県,船橋市,前原西２丁目３２番１５号,,12,204,2740825,,,,,,,2024-05-02,1,,,,,ジンタツ,0
1837,7040003024738,新規,0,2024-05-02,2024-05-02,九之江易呂久商事合同会社,,合同会社,千葉県,習志野市,大久保２丁目６番１イトーピア津田沼東リーフガーデン６０７号,,12,216,2750011,,,,,,,2024-05-02,1,,,,,クノエエキロクショウジ,0
1838,7040003024861,新規,0,2024-05-02,2024-05-02,合同会社ＤＩＬＵ　ＥＮＴＥＲＰＲＩＳＥ,,合同会社,千葉県,我孫子市,布佐宇宮作１１６１－８,,12,222,2701101,,,,,,,2024-05-02,1,,,,,ディルエンタープライズ,0
1845,7050001054728,新規,0,2024-05-02,2024-05-02,株式会社Ｉｒｉｓ,,株式会社,茨城県,那珂郡東海村,村松北１丁目１３－４,,08,341,3191108,,,,,,,2024-05-02,1,,,,,イリス,0
1847,7050003008335,新規,0,2024-05-02,2024-05-02,合同会社Ｋ　ｓｔｙｌｅ,,合同会社,茨城県,水戸市,見川町２１３１番地の９６２,,08,201,3100913,,,,,,,2024-05-02,1,,,,,ケースタイル,0
1856,7070005010270,新規,0,2024-05-02,2024-05-02,一般社団法人ＯＤＤＳＣＨＯＯＬ,,その他の設立登記法人,群馬県,前橋市,河原浜町７２０番地３,,10,201,3710224,,,,,,,2024-05-02,1,,,,,オッドスクール,0
1857,7080001026278,新規,0,2024-05-02,2024-05-02,株式会社川口通信工業,,株式会社,静岡県,静岡市清水区,庵原町１４４番地の８,,22,103,4240114,,,,,,,2024-05-02,1,,,,,カワグチツウシンコウギョウ,0
1863,7080401027157,新規,0,2024-05-02,2024-05-02,三和合成化学ＨＤ株式会社,,株式会社,静岡県,磐田市,福田５４９９番地１５,,22,211,4371203,,,,,,,2024-05-02,1,,,,,サンワゴウセイカガクエイチディー,0
1867,7090005007629,新規,0,2024-05-02,2024-05-02,特定非営利活動法人山梨ねこボランティアネットワーク,,その他の設立登記法人,山梨県,南都留郡富士河口湖町,小立３７０５番地２,,19,430,4010302,,,,,,,2024-05-02,1,,,,,ヤマナシネコボランティアネットワーク,0
1872,7110001038377,新規,0,2024-05-02,2024-05-02,村上ヒールスペース株式会社,,株式会社,新潟県,村上市,緑町２丁目３番１０号,,15,212,9580033,,,,,,,2024-05-02,1,,,,,ムラカミヒールスペース,0
1873,7110001038385,新規,0,2024-05-02,2024-05-02,イーテクノ株式会社,,株式会社,新潟県,新潟市中央区,南出来島２丁目７番３２号,,15,103,9500963,,,,,,,2024-05-02,1,,,,,イーテクノ,0
1885,7120001264369,新規,0,2024-05-02,2024-05-02,検索デスク株式会社,,株式会社,大阪府,大阪市都島区,中野町５丁目２番２６号,,27,102,5340027,,,,,,,2024-05-02,1,,,,,ケンサクデスク,0
1886,7120001264542,新規,0,2024-05-02,2024-05-02,株式会社リーパス・エステート,,株式会社,大阪府,大阪市中央区,和泉町１丁目１番１４号,,27,128,5400019,,,,,,,2024-05-02,1,,,,,リーパスエステート,0
1887,7120001264559,新規,0,2024-05-02,2024-05-02,株式会社Ｋｏｚｈａ　Ｇｌｏｂａｌ,,株式会社,大阪府,大阪市中央区,本町２丁目３番４号アソルティ本町４階,,27,128,5410053,,,,,,,2024-05-02,1,,,,,コザグローバル,0
1888,7120001264575,新規,0,2024-05-02,2024-05-02,エンターフォースサーティーシックス株式会社,,株式会社,大阪府,大阪市西区,北堀江２丁目５番１０号,,27,106,5500014,,,,,,,2024-05-02,1,,,,,エンターフォースサーティーシックス,0
1893,7120003026494,新規,0,2024-05-02,2024-05-02,合同会社Ｌｉｖｅ　ｉｎ　Ｃｏｌｏｒ,,合同会社,大阪府,大阪市東成区,大今里４丁目２７番３１号,,27,115,5370012,,,,,,,2024-05-02,1,,,,,リブインカラー,0
1894,7120003026503,新規,0,2024-05-02,2024-05-02,合同会社Ｕｎｉｃｏｒｎ　Ｄｒｅａｍ,,合同会社,大阪府,大阪市北区,梅田１丁目２番２号大阪駅前第２ビル１２－１２,,27,127,5300001,,,,,,,2024-05-02,1,,,,,ユニコーンドリーム,0
1898,7120901049118,新規,0,2024-05-02,2024-05-02,株式会社大立,,株式会社,大阪府,箕面市,白島２丁目２８番２－３０２号,,27,220,5620012,,,,,,,2024-05-02,1,,,,,ダイリツ,0
1899,7120901049134,新規,0,2024-05-02,2024-05-02,株式会社エムディライト,,株式会社,大阪府,豊中市,上野東２丁目１１番８３号,,27,203,5600013,,,,,,,2024-05-02,1,,,,,エムディライト,0
1900,7122001038059,新規,0,2024-05-02,2024-05-02,ＭＯＩＣＡ株式会社,,株式会社,大阪府,東大阪市,御厨東２丁目１３番３１号フォレドフルール２０５,,27,227,5770033,,,,,,,2024-05-02,1,,,,,モイカ,0
1903,7130001076870,新規,0,2024-05-02,2024-05-02,株式会社バイオセラーＧＸ,,株式会社,京都府,京都市下京区,七条御所ノ内本町８８番地１西大路ビル,,26,106,6008863,,,,,,,2024-05-02,1,,,,,バイオセラージーエックス,0
1905,7130003009515,新規,0,2024-05-02,2024-05-02,Ｃｒｏｓｓ　Ｒｏａｄｓコンサルティング合同会社,,合同会社,京都府,京都市右京区,花園内畑町８－１１,,26,108,6168045,,,,,,,2024-05-02,1,,,,,クロスローズコンサルティング,0
1909,7140001134181,新規,0,2024-05-02,2024-05-02,白鷺観光株式会社,,株式会社,兵庫県,姫路市,小姓町３５番地の１,,28,201,6700043,,,,,,,2024-05-02,1,,,,,ハクロカンコウ,0
1910,7140001134272,新規,0,2024-05-02,2024-05-02,株式会社ＳｅａｉＫ,,株式会社,兵庫県,西宮市,本町９－２４,,28,204,6620914,,,,,,,2024-05-02,1,,,,,シーク,0
1913,7140005027068,新規,0,2024-05-02,2024-05-02,一般社団法人雲雀丘安田邸プロジェクト,,その他の設立登記法人,兵庫県,宝塚市,雲雀丘１丁目２番１１号,,28,214,6650805,,,,,,,2024-05-02,1,,,,,ヒバリガオカヤスダテイプロジェクト,0
1915,7150005009585,新規,0,2024-05-02,2024-05-02,医療法人健高会,,その他の設立登記法人,奈良県,高市郡高取町,大字下子島２３番地１,,29,401,6350151,,,,,,,2024-05-02,1,,,,,ケンコウカイ,0
1916,7160001025890,新規,0,2024-05-02,2024-05-02,株式会社大晴工務店,,株式会社,滋賀県,草津市,野路東４丁目１１番４７号,,25,206,5250058,,,,,,,2024-05-02,1,,,,,タイセイコウムテン,0
1925,7180001161296,新規,0,2024-05-02,2024-05-02,Ｐｉｖｏｔ　Ｐｌｕｓ株式会社,,株式会社,愛知県,名古屋市西区,赤城町１２４―２,,23,104,4520813,,,,,,,2024-05-02,1,,,,,ピボットプラス,0
1927,7180003026720,新規,0,2024-05-02,2024-05-02,合同会社五感シロダーラ協会,,合同会社,愛知県,愛知郡東郷町,大字和合字東蚊谷５７番地－２エストフォーレ和合５０１号,,23,302,4700153,,,,,,,2024-05-02,1,,,,,ゴカンシロダーラキョウカイ,0
1929,7180301038608,新規,0,2024-05-02,2024-05-02,株式会社ＳＨＩＳＥＩ,,株式会社,愛知県,豊橋市,高師本郷町字東上２４－６,,23,201,4418153,,,,,,,2024-05-02,1,,,,,シセイ,0
1932,7190003004667,新規,0,2024-05-02,2024-05-02,合同会社ＭＺ　ＴＥＣＨＮＩＣ,,合同会社,三重県,四日市市,泊山崎町２番３３号パークハイムトマリＣ‐２０２,,24,202,5100892,,,,,,,2024-05-02,1,,,,,エムズテクニック,0
1935,7200001042477,新規,0,2024-05-02,2024-05-02,株式会社ＩＬ‐Ｏ,,株式会社,岐阜県,岐阜市,祈年町１０丁目５３番地,,21,201,5008156,,,,,,,2024-05-02,1,,,,,イルオー,0
1941,7220001025983,新規,0,2024-05-02,2024-05-02,株式会社相川工建,,株式会社,石川県,金沢市,太陽が丘３丁目３０６番地,,17,201,9201154,,,,,,,2024-05-02,1,,,,,アイカワコウケン,0
1942,7240001063148,新規,0,2024-05-02,2024-05-02,株式会社ウィルいしざき,,株式会社,広島県,広島市安芸区,矢野新町１丁目２番１５号,,34,107,7360084,,,,,,,2024-05-02,1,,,,,ウィルイシザキ,0
1943,7240001063172,新規,0,2024-05-02,2024-05-02,株式会社福田板金,,株式会社,広島県,広島市西区,南観音８丁目６番２４－３０３号,,34,104,7330035,,,,,,,2024-05-02,1,,,,,フクダバンキン,0
1951,7260001039014,新規,0,2024-05-02,2024-05-02,株式会社岡山スクールランチパートナーズ,,株式会社,岡山県,岡山市北区,上中野１丁目１９番１８号,,33,101,7000972,,,,,,,2024-05-02,1,,,,,オカヤマスクールランチパートナーズ,0
1952,7260005011349,新規,0,2024-05-02,2024-05-02,一般社団法人浅口地区サッカー協会,,その他の設立登記法人,岡山県,浅口市,鴨方町益坂１６００番地４４,,33,216,7190234,,,,,,,2024-05-02,1,,,,,アサクチチクサッカーキョウカイ,0
1958,7290001105548,新規,0,2024-05-02,2024-05-02,株式会社ヴィータ・フェリーズ,,株式会社,福岡県,糟屋郡新宮町,下府５丁目３番７号,,40,345,8110112,,,,,,,2024-05-02,1,,,,,ヴィータフェリーズ,0
1959,7290001105556,新規,0,2024-05-02,2024-05-02,プレートフロンティア株式会社,,株式会社,福岡県,福岡市東区,千早５丁目４－２５－１０２,,40,131,8130044,,,,,,,2024-05-02,1,,,,,プレートフロンティア,0
1960,7290001105688,新規,0,2024-05-02,2024-05-02,株式会社Ｅｑｕｉｔｙ　Ｆａｉｒｎｅｓｓ,,株式会社,福岡県,福岡市博多区,千代４丁目４番１６号２Ｆ,,40,132,8120044,,,,,,,2024-05-02,1,,,,,エクイティフェアネス,0
1965,7300001013716,新規,0,2024-05-02,2024-05-02,株式会社暁,,株式会社,佐賀県,佐賀市,駅前中央２丁目２番２８号,,41,201,8400801,,,,,,,2024-05-02,1,,,,,アカツキ,0
1968,7330001032036,新規,0,2024-05-02,2024-05-02,株式会社渡辺農産,,株式会社,熊本県,菊池市,七城町清水７０３番地１,,43,210,8611341,,,,,,,2024-05-02,1,,,,,ワタナベノウサン,0
1969,7330001032044,新規,0,2024-05-02,2024-05-02,株式会社Ｍａｒｕｄｅｎ,,株式会社,熊本県,熊本市南区,野口１丁目１２－２２,,43,104,8614137,,,,,,,2024-05-02,1,,,,,マルデン,0
1972,7330005010789,新規,0,2024-05-02,2024-05-02,ＮＰＯ法人ひのくにスマイルプロジェクト,,その他の設立登記法人,熊本県,菊池市,泗水町吉富３００番地６１,,43,210,8611201,,,,,,,2024-05-02,1,,,,,ヒノクニスマイルプロジェクト,0
1974,7340001026482,新規,0,2024-05-02,2024-05-02,株式会社サニーサイド,,株式会社,鹿児島県,鹿児島市,星ヶ峯４丁目２８番７号,,46,201,8910102,,,,,,,2024-05-02,1,,,,,サニーサイド,0
1978,7370001051239,新規,0,2024-05-02,2024-05-02,株式会社Ｄ‐１Ｃｏｍｐａｎｙ,,株式会社,宮城県,仙台市青葉区,栗生１丁目１７番地の２２,,04,101,9893122,,,,,,,2024-05-02,1,,,,,ディーワンカンパニー,0
1984,7400003003259,新規,0,2024-05-02,2024-05-02,合同会社Ｔ’ｓ‐Ｄｅｃｋ,,合同会社,岩手県,盛岡市,盛岡駅前北通５番２５－４０８号,,03,201,0200033,,,,,,,2024-05-02,1,,,,,ティーズデック,0
1986,7410003003919,新規,0,2024-05-02,2024-05-02,合同会社ＦＯＲＴＥ,,合同会社,秋田県,秋田市,中通２丁目１－４８仲小路ビル地下１階,,05,201,0100001,,,,,,,2024-05-02,1,,,,,フォルテ,0
1989,7420001018711,新規,0,2024-05-02,2024-05-02,株式会社あおいもりトレーディング,,株式会社,青森県,三戸郡田子町,大字田子字田子５４―１,,02,443,0390201,,,,,,,2024-05-02,1,,,,,アオイモリトレーディング,0
1990,7430001091625,新規,0,2024-05-02,2024-05-02,株式会社艸,,株式会社,北海道,千歳市,上長都１０３４番１,,01,224,0660077,,,,,,,2024-05-02,1,,,,,ソウ,0
1991,7430001091699,新規,0,2024-05-02,2024-05-02,株式会社オオミヤ左官工業,,株式会社,北海道,千歳市,高台１丁目８番３号,,01,224,0660035,,,,,,,2024-05-02,1,,,,,オオミヤサカンコウギョウ,0
1992,7430001091724,新規,0,2024-05-02,2024-05-02,株式会社Ｃｈｅｃｋ　Ｅｓｔａｔｅ,,株式会社,北海道,札幌市中央区,南六条東２丁目４番地１,,01,101,0600056,,,,,,,2024-05-02,1,,,,,チェックエステート,0
1993,7430003016266,新規,0,2024-05-02,2024-05-02,合同会社グッドラック,,合同会社,北海道,札幌市中央区,南七条西９丁目１０２６番地８ミュゲＳ７－３０２号,,01,101,0640807,,,,,,,2024-05-02,1,,,,,グッドラック,0
1998,7450003002479,新規,0,2024-05-02,2024-05-02,合同会社創庵,,合同会社,北海道,旭川市,豊岡二条２丁目３番４号ＴＲＹ１０３,,01,204,0788232,,,,,,,2024-05-02,1,,,,,ソウアン,0
2000,7470001020183,新規,0,2024-05-02,2024-05-02,株式会社タイザンコーポレーション,,株式会社,香川県,高松市,内町３番４号,,37,201,7600034,,,,,,,2024-05-02,1,,,,,タイザンコーポレーション,0
2002,7480001012460,新規,0,2024-05-02,2024-05-02,株式会社キタダノ,,株式会社,徳島県,勝浦郡勝浦町,大字棚野字前田１１番地１,,36,301,7714306,,,,,,,2024-05-02,1,,,,,キタダノ,0
2003,7490001010760,新規,0,2024-05-02,2024-05-02,株式会社ｍｓｙ,,株式会社,高知県,高知市,桟橋通１丁目１０番６号アステールＫ１０３,,39,201,7818010,,,,,,,2024-05-02,1,,,,,エムエスワイ,0
2007,7500003003240,新規,0,2024-05-02,2024-05-02,合同会社野口土地建物,,合同会社,愛媛県,東温市,野田１丁目１３番地９,,38,215,7910216,,,,,,,2024-05-02,1,,,,,ノグチトチタテモノ,0
2008,7700150109027,新規,0,2024-05-02,2022-05-26,ＴＵＢＡＳＳＡＤＯＲＳ,,その他,埼玉県,深谷市,上柴町東５丁目１６－１０３,,11,218,3660051,,,,,,,2022-05-26,1,,,,,チユーバサダーズ,0
2024,8010001243861,新規,0,2024-05-02,2024-05-02,株式会社ＹＯＮＳ,,株式会社,東京都,千代田区,平河町１丁目６番１５号ＵＳビル８Ｆ,,13,101,1020093,,,,,,,2024-05-02,1,,,,,,0
2025,8010001244348,新規,0,2024-05-02,2024-05-02,株式会社ＡＣＣＡ　ＲＯＳＡ,,株式会社,東京都,中央区,銀座６丁目１３番１６号銀座ＷａｌｌビルＵＣＦ５０１,,13,102,1040061,,,,,,,2024-05-02,1,,,,,アッカローザ,0
2026,8010001244447,新規,0,2024-05-02,2024-05-02,株式会社ａＺ,,株式会社,東京都,中央区,銀座７丁目１３番２０号銀座ＴＨビル９階,,13,102,1040061,,,,,,,2024-05-02,1,,,,,エーゼット,0
2027,8010001244513,新規,0,2024-05-02,2024-05-02,株式会社ジューシー,,株式会社,東京都,千代田区,丸の内１丁目５番１号,,13,101,1000005,,,,,,,2024-05-02,1,,,,,ジューシー,0
2028,8010003043624,新規,0,2024-05-02,2024-05-02,ＫＺＯＯ　Ｇｒｏｕｐ合同会社,,合同会社,東京都,中央区,銀座７丁目１３番２０号銀座ＴＨビル９階,,13,102,1040061,,,,,,,2024-05-02,1,,,,,ケーズーグループ,0
2029,8010101016119,新規,0,2024-05-02,2024-05-02,株式会社ギミックス,,株式会社,東京都,八王子市,中野上町２丁目２７－６,,13,201,1920041,,,,,,,2024-05-02,1,,,,,ギミックス,0
2033,8010401182156,新規,0,2024-05-02,2024-05-02,ＪＸ金属白河アセットマネジメント株式会社,,株式会社,東京都,港区,虎ノ門２丁目１０番４号,,13,103,1050001,,,,,,,2024-05-02,1,,,,,ジェイエックスキンゾクシラカワアセットマネジメント,0
2034,8010401182180,新規,0,2024-05-02,2024-05-02,株式会社そらいろ,,株式会社,東京都,港区,虎ノ門２丁目５－５ニュー虎ノ門ビル１Ｆ,,13,103,1050001,,,,,,,2024-05-02,1,,,,,ソライロ,0
2035,8010401182239,新規,0,2024-05-02,2024-05-02,株式会社ｉｎｔａｎｇｉｂｌｅ,,株式会社,東京都,港区,西新橋１丁目１７番６号,,13,103,1050003,,,,,,,2024-05-02,1,,,,,インタンジブル,0
2036,8010403032516,新規,0,2024-05-02,2024-05-02,トレードキャスト合同会社,,合同会社,東京都,港区,北青山１丁目３番１号アールキューブ青山３階,,13,103,1070061,,,,,,,2024-05-02,1,,,,,トレードキャスト,0
2037,8010403032549,新規,0,2024-05-02,2024-05-02,合同会社コンバース,,合同会社,東京都,港区,元赤坂１丁目１番７－８０７号,,13,103,1070051,,,,,,,2024-05-02,1,,,,,コンバース,0
2039,8010501052184,新規,0,2024-05-02,2024-05-02,アイホールディングス株式会社,,株式会社,東京都,台東区,東上野１丁目１５番４号キスワイヤ御徒町ビル８階,,13,106,1100015,,,,,,,2024-05-02,1,,,,,アイホールディングス,0
2048,8010801035005,新規,0,2024-05-02,2024-05-02,株式会社ａｎｔ,,株式会社,東京都,大田区,仲池上２丁目２１番５号,,13,111,1460081,,,,,,,2024-05-02,1,,,,,アント,0
2052,8010901055191,新規,0,2024-05-02,2024-05-02,株式会社ダンデライオン,,株式会社,東京都,世田谷区,南烏山５丁目１番２７号,,13,112,1570062,,,,,,,2024-05-02,1,,,,,ダンデライオン,0
2054,8010903009014,新規,0,2024-05-02,2024-05-02,合同会社ＺｅｒｏＢｉｔ,,合同会社,東京都,世田谷区,北沢５丁目９－１３ＴＯＢＥ北沢４０１,,13,112,1550031,,,,,,,2024-05-02,1,,,,,ゼロビット,0
2056,8011001161483,新規,0,2024-05-02,2024-05-02,株式会社３１９０,,株式会社,東京都,渋谷区,恵比寿２丁目９－４－３階Ｂ号室,,13,113,1500013,,,,,,,2024-05-02,1,,,,,サンイチキュウゼロ,0
2057,8011001161657,新規,0,2024-05-02,2024-05-02,株式会社ＨＡＮＤＥＭ,,株式会社,東京都,渋谷区,神宮前６丁目２３番４号,,13,113,1500001,,,,,,,2024-05-02,1,,,,,ハンデム,0
2058,8011001161673,新規,0,2024-05-02,2024-05-02,株式会社ひだまりライフ,,株式会社,東京都,渋谷区,宇田川町１３－８ちとせ会館２階,,13,113,1500042,,,,,,,2024-05-02,1,,,,,ヒダマリライフ,0
2067,8011301029620,新規,0,2024-05-02,2024-05-02,株式会社フローラルタイガー,,株式会社,東京都,杉並区,松庵１丁目１５番２４号,,13,115,1670054,,,,,,,2024-05-02,1,,,,,フローラルタイガー,0
2072,8013101009406,新規,0,2024-05-02,2024-05-02,グルンド東京株式会社,,株式会社,東京都,西多摩郡瑞穂町,大字駒形富士山字原３２４番地１,,13,303,1901202,,,,,,,2024-05-02,1,,,,,,0
2076,8013301052429,新規,0,2024-05-02,2024-05-02,株式会社Ｇｕｉｄｅａ,,株式会社,東京都,豊島区,東池袋２丁目２０番１号,,13,116,1700013,,,,,,,2024-05-02,1,,,,,ガイディア,0
2077,8013301052453,新規,0,2024-05-02,2024-05-02,株式会社プラスワン,,株式会社,東京都,豊島区,池袋２丁目５１－９東健シティハイツ池袋８０２,,13,116,1710014,,,,,,,2024-05-02,1,,,,,プラスワン,0
2079,8020001157012,新規,0,2024-05-02,2024-05-02,ショウデンエナジー株式会社,,株式会社,神奈川県,横浜市瀬谷区,阿久和西１丁目３６－１０,,14,114,2460025,,,,,,,2024-05-02,1,,,,,ショウデンエナジー,0
2082,8020003026033,新規,0,2024-05-02,2024-05-02,合同会社ＬｕｎａＳｏｌ,,合同会社,神奈川県,川崎市川崎区,東田町３番地１１栄ビル２Ｆ,,14,131,2100005,,,,,,,2024-05-02,1,,,,,ルナソル,0
2083,8020003026066,新規,0,2024-05-02,2024-05-02,ＳＳＤ合同会社,,合同会社,神奈川県,川崎市幸区,南幸町２丁目１３番１号ペガサスマンション１Ｆ,,14,132,2120016,,,,,,,2024-05-02,1,,,,,エスエスディ,0
2088,8021001082126,新規,0,2024-05-02,2024-05-02,株式会社ＮＥＯ,,株式会社,神奈川県,足柄上郡大井町,西大井８０９番地２４,,14,362,2580017,,,,,,,2024-05-02,1,,,,,ネオ,0
2092,8021003014440,新規,0,2024-05-02,2024-05-02,合同会社らっくらく,,合同会社,神奈川県,相模原市南区,鵜野森２丁目２５－３４－４,,14,153,2520301,,,,,,,2024-05-02,1,,,,,ラックラク,0
2097,8030001160130,新規,0,2024-05-02,2024-05-02,ＳＳ　ＴＲＡＤＩＮＧ株式会社,,株式会社,埼玉県,羽生市,北３丁目２番３号,,11,216,3480057,,,,,,,2024-05-02,1,,,,,エスエストレーディング,0
2108,8040003024885,新規,0,2024-05-02,2024-05-02,合同会社うるま,,合同会社,千葉県,千葉市中央区,新宿１丁目８番１号,,12,101,2600021,,,,,,,2024-05-02,1,,,,,ウルマ,0
2109,8040003024893,新規,0,2024-05-02,2024-05-02,合同会社Ｒ．Ａ．Ｔ,,合同会社,千葉県,柏市,柏４３５番地３ＳＫアーバンコート１０１号,,12,217,2770005,,,,,,,2024-05-02,1,,,,,アールエーティー,0
2114,8050001054727,新規,0,2024-05-02,2024-05-02,株式会社ＳＡＩＮ,,株式会社,茨城県,水戸市,吉沢町３５４番地３０,,08,201,3100845,,,,,,,2024-05-02,1,,,,,サイン,0
2119,8050002045923,新規,0,2024-05-02,2024-05-02,有限会社大祐産業,,有限会社,茨城県,下妻市,大字半谷中荒久７７４番地,,08,210,3040000,,,,,,,2024-05-02,1,,,,,ダイユウサンギョウ,0
2120,8050003008334,新規,0,2024-05-02,2024-05-02,ＧＭＴ　Ｔｒａｄｉｎｇ合同会社,,合同会社,茨城県,下妻市,南原字南原１３０番１,,08,210,3040075,,,,,,,2024-05-02,1,,,,,,0
2121,8050003008342,新規,0,2024-05-02,2024-05-02,下小川太陽光発電合同会社,,合同会社,茨城県,水戸市,石川２丁目４０８１番地の１,,08,201,3100905,,,,,,,2024-05-02,1,,,,,シモオガワタイヨウコウハツデン,0
2127,8060001037053,新規,0,2024-05-02,2024-05-02,株式会社木木,,株式会社,栃木県,宇都宮市,二荒町２番１号カクイチビル１階,,09,201,3200804,,,,,,,2024-05-02,1,,,,,キギ,0
2137,8080003003191,新規,0,2024-05-02,2024-05-02,Ｉｎｆｉｎｉ　Ｔｅｃ　Ｗａｖｅ合同会社,,合同会社,静岡県,静岡市葵区,紺屋町１７－１葵タワー２Ｆ,,22,101,4200852,,,,,,,2024-05-02,1,,,,,インフィニテックウェイブ,0
2140,8080101024718,新規,0,2024-05-02,2024-05-02,株式会社和工業,,株式会社,静岡県,裾野市,須山２５８４番地,,22,220,4101231,,,,,,,2024-05-02,1,,,,,ヤワラコウギョウ,0
2143,8080401027156,新規,0,2024-05-02,2024-05-02,Ｙａｎａｇｉ屋株式会社,,株式会社,静岡県,浜松市中央区,初生町７８９番地の２,,22,138,4338112,,,,,,,2024-05-02,1,,,,,ヤナギヤ,0
2144,8080401027164,新規,0,2024-05-02,2024-05-02,株式会社勢麟,,株式会社,静岡県,浜松市中央区,元城町２２２番地の２５,,22,138,4300946,,,,,,,2024-05-02,1,,,,,セイリン,0
2149,8100003007520,新規,0,2024-05-02,2024-05-02,合同会社スノーシティー,,合同会社,長野県,千曲市,大字新田７００番地１鋳物師屋団地８－Ａ,,20,218,3870018,,,,,,,2024-05-02,1,,,,,スノーシティー,0
2154,8110003005382,新規,0,2024-05-02,2024-05-02,合同会社ＡＬＡ,,合同会社,新潟県,佐渡市,千種１０８５番地１４,,15,224,9521209,,,,,,,2024-05-02,1,,,,,アラ,0
2163,8120001264558,新規,0,2024-05-02,2024-05-02,株式会社イーナ,,株式会社,大阪府,大阪市中央区,備後町３丁目４番９号輸出繊維会館２階,,27,128,5410051,,,,,,,2024-05-02,1,,,,,イーナ,0
2170,8120003026502,新規,0,2024-05-02,2024-05-02,合同会社ＲＩＫＫＡ,,合同会社,大阪府,大阪市北区,梅田１丁目２番２号大阪駅前第２ビル１２－１２,,27,127,5300001,,,,,,,2024-05-02,1,,,,,リッカ,0
2175,8120101069502,新規,0,2024-05-02,2024-05-02,国際人財システム株式会社,,株式会社,大阪府,富田林市,若松町東１丁目２番６号,,27,214,5840023,,,,,,,2024-05-02,1,,,,,コクサイジンザイシステム,0
2176,8120101069510,新規,0,2024-05-02,2024-05-02,恒康健太株式会社,,株式会社,大阪府,和泉市,池上町４丁目２番１２号,,27,219,5940083,,,,,,,2024-05-02,1,,,,,コウコウケンタイ,0
2178,8120901049117,新規,0,2024-05-02,2024-05-02,株式会社ビッグフィールド,,株式会社,大阪府,吹田市,津雲台６丁目１１－４－１,,27,205,5650862,,,,,,,2024-05-02,1,,,,,ビッグフィールド,0
2180,8122001038058,新規,0,2024-05-02,2024-05-02,株式会社ヴィアンド,,株式会社,大阪府,柏原市,大県３丁目５番９号,,27,221,5820018,,,,,,,2024-05-02,1,,,,,ヴィアンド,0
2186,8130001076969,新規,0,2024-05-02,2024-05-02,株式会社末吉,,株式会社,京都府,京都市左京区,吉田二本松町４番地６,,26,103,6068316,,,,,,,2024-05-02,1,,,,,スエキチ,0
2187,8130001076985,新規,0,2024-05-02,2024-05-02,株式会社ＬＴＩ,,株式会社,京都府,福知山市,字岡ノ１２０番地の１,,26,201,6200000,,,,,,,2024-05-02,1,,,,,エルティアイ,0
2196,8140001134271,新規,0,2024-05-02,2024-05-02,アワーコンサルティング株式会社,,株式会社,兵庫県,芦屋市,東芦屋町５番１１－１０３号,00134614,28,206,6590095,,,,,,,2024-05-02,1,,,,,アワーコンサルティング,0
2200,8150003003242,新規,0,2024-05-02,2024-05-02,合同会社ＷａｎＦｏｕｒ,,合同会社,奈良県,奈良市,中ノ川町９７５番地の８,,29,201,6308201,,,,,,,2024-05-02,1,,,,,ワンフォー,0
2211,8180001161205,新規,0,2024-05-02,2024-05-02,ＦｉｒｓｔＴｏｋａｉ株式会社,,株式会社,愛知県,東海市,富木島町東長口８５－２－３Ｄ,,23,222,4760011,,,,,,,2024-05-02,1,,,,,ファーストトーカイ,0
2212,8180001161213,新規,0,2024-05-02,2024-05-02,株式会社Ｂａｄ　Ｃｏｍｐａｎｙ,,株式会社,愛知県,知多郡阿久比町,大字植大字大松本２１番地１,,23,441,4702216,,,,,,,2024-05-02,1,,,,,バッドカンパニー,0
2221,8190001031308,新規,0,2024-05-02,2024-05-02,株式会社エンパシー,,株式会社,三重県,鈴鹿市,阿古曽町２１‐１Ｂ号室,,24,207,5130828,,,,,,,2024-05-02,1,,,,,エンパシー,0
2239,8230003002194,新規,0,2024-05-02,2024-05-02,合同会社ＫＴｗｏｒｋｓ,,合同会社,富山県,富山市,中冨居２０番５１号２階,,16,201,9300832,,,,,,,2024-05-02,1,,,,,ケーティーワークス,0
2240,8240001063155,新規,0,2024-05-02,2024-05-02,株式会社リュー,,株式会社,広島県,福山市,新市町相方４６６,,34,207,7210000,,,,,,,2024-05-02,1,,,,,リュー,0
2248,8270001008966,新規,0,2024-05-02,2024-05-02,株式会社Ｔ．Ｔ　ＰＬＡＮ,,株式会社,鳥取県,鳥取市,弥生町１１３番地柏木テナント１階,,31,201,6800832,,,,,,,2024-05-02,1,,,,,ティーティープラン,0
2250,8280001009170,新規,0,2024-05-02,2024-05-02,株式会社Ｏｆｆｉｃｅ晴,,株式会社,島根県,松江市,石橋町３５０番地１,,32,201,6900881,,,,,,,2024-05-02,1,,,,,オフィスハレ,0
2258,8290001105555,新規,0,2024-05-02,2024-05-02,株式会社大河,,株式会社,福岡県,福岡市東区,松崎４丁目１６番２８号,,40,131,8130035,,,,,,,2024-05-02,1,,,,,タイガ,0
2259,8290001105563,新規,0,2024-05-02,2024-05-02,株式会社Ｇｕｒａｒｃｈ,,株式会社,福岡県,那珂川市,片縄北７丁目９番３号,,40,231,8111203,,,,,,,2024-05-02,1,,,,,グラーチ,0
2264,8330001032002,新規,0,2024-05-02,2024-05-02,株式会社総合山業,,株式会社,熊本県,上益城郡甲佐町,大字早川２９３５番地,,43,444,8613241,,,,,,,2024-05-02,1,,,,,ソウゴウサンギョウ,0
2265,8330003010344,新規,0,2024-05-02,2024-05-02,合同会社水政農庭園,,合同会社,熊本県,山鹿市,志々岐１０８８番地,,43,208,8610542,,,,,,,2024-05-02,1,,,,,ミズマサノウテイエン,0
2266,8330003010352,新規,0,2024-05-02,2024-05-02,合同会社マウナラニ,,合同会社,熊本県,熊本市中央区,新屋敷１丁目１４番４０－３０２号,,43,101,8620975,,,,,,,2024-05-02,1,,,,,マウナラニ,0
2268,8340001026465,新規,0,2024-05-02,2024-05-02,株式会社ａｒｉｇａ‐ｔｏ,,株式会社,鹿児島県,熊毛郡屋久島町,宮之浦２４０１番地１０,,46,505,8914205,,,,,,,2024-05-02,1,,,,,アリガトウ,0
2269,8340001026481,新規,0,2024-05-02,2024-05-02,脇田林業株式会社,,株式会社,鹿児島県,出水市,西出水町１５４８,,46,208,8990213,,,,,,,2024-05-02,1,,,,,ワキタリンギョウ,0
2271,8340003004460,新規,0,2024-05-02,2024-05-02,岡留総合企画合同会社,,合同会社,鹿児島県,志布志市,志布志町志布志３丁目３番１４号－２Ｆ,,46,221,8997103,,,,,,,2024-05-02,1,,,,,オカドメソウゴウキカク,0
2272,8350001018940,新規,0,2024-05-02,2024-05-02,株式会社Ｆ‐Ｔｅｃｈ,,株式会社,宮崎県,宮崎市,小戸町３０－２ディテーラーハイツ１０１,,45,201,8800857,,,,,,,2024-05-02,1,,,,,エフテック,0
2275,8360001033583,新規,0,2024-05-02,2024-05-02,株式会社Ｐｅｒｉｄｏｔ,,株式会社,沖縄県,那覇市,牧志２丁目１７番２７－４０１号,,47,201,9000013,,,,,,,2024-05-02,1,,,,,ペリドット,0
2276,8360001033609,新規,0,2024-05-02,2024-05-02,株式会社ＯＣＥＡＮ　ＳＴＡＲ,,株式会社,沖縄県,糸満市,潮崎町４丁目８番地の１５,,47,210,9010364,,,,,,,2024-05-02,1,,,,,オーシャンスター,0
2281,8370001051238,新規,0,2024-05-02,2024-05-02,仙・台・ＢＲＩＤＧＥ株式会社,,株式会社,宮城県,仙台市青葉区,八幡３丁目１０番２０－００５号セブンスターマンション,,04,101,9800871,,,,,,,2024-05-02,1,,,,,センタイブリッジ,0
2288,8410003003918,新規,0,2024-05-02,2024-05-02,合同会社アレスフォース,,合同会社,秋田県,秋田市,添川字地ノ内５６番地４９,,05,201,0100822,,,,,,,2024-05-02,1,,,,,アレスフォース,0
2289,8430001091723,新規,0,2024-05-02,2024-05-02,株式会社ＬＡＳＨ,,株式会社,北海道,札幌市白石区,菊水元町四条２丁目１番１号,,01,104,0030824,,,,,,,2024-05-02,1,,,,,ラッシュ,0
2292,8450003002478,新規,0,2024-05-02,2024-05-02,ＩｃｈｉｇｏＴｅｃｈ合同会社,,合同会社,北海道,富良野市,東麻町５－１５,,01,229,0760051,,,,,,,2024-05-02,1,,,,,イチゴテック,0
2298,8470001020174,新規,0,2024-05-02,2024-05-02,株式会社笠無板金,,株式会社,香川県,高松市,国分寺町福家甲２８１６番地１,,37,201,7690103,,,,,,,2024-05-02,1,,,,,カサナシバンキン,0
2310,9010001244479,新規,0,2024-05-02,2024-05-02,シー・シックス・ファイブ・ホールディングス株式会社,,株式会社,東京都,千代田区,丸の内２丁目４番１号,,13,101,1000005,,,,,,,2024-05-02,1,,,,,シーシックスファイブホールディングス,0
2311,9010001244512,新規,0,2024-05-02,2024-05-02,ストライザー株式会社,,株式会社,東京都,中央区,日本橋室町１丁目１１番１２号日本橋水野ビル７階,,13,102,1030022,,,,,,,2024-05-02,1,,,,,ストライザー,0
2312,9010001244545,新規,0,2024-05-02,2024-05-02,アクトアウト株式会社,,株式会社,東京都,中央区,日本橋室町１丁目１１番１２号日本橋水野ビル７階,,13,102,1030022,,,,,,,2024-05-02,1,,,,,アクトアウト,0
2322,9010401182171,新規,0,2024-05-02,2024-05-02,株式会社ＡＰ,,株式会社,東京都,港区,芝浦３丁目１７番１１号,,13,103,1080023,,,,,,,2024-05-02,1,,,,,エーピー,0
2323,9010401182238,新規,0,2024-05-02,2024-05-02,株式会社ハニーグロウ,,株式会社,東京都,港区,新橋６丁目２－６大黒堂２階,,13,103,1050004,,,,,,,2024-05-02,1,,,,,ハニーグロウ,0
2328,9010403032515,新規,0,2024-05-02,2024-05-02,合同会社ｌｉｅｎ,,合同会社,東京都,港区,浜松町２丁目２番１５号浜松町ダイヤビル２Ｆ,,13,103,1050013,,,,,,,2024-05-02,1,,,,,リアン,0
2329,9010403032531,新規,0,2024-05-02,2024-05-02,合同会社みなと００２,,合同会社,東京都,港区,虎ノ門３丁目２２番１０－２０１号,,13,103,1050001,,,,,,,2024-05-02,1,,,,,ミナトゼロゼロツー,0
2330,9010501052200,新規,0,2024-05-02,2024-05-02,恩東株式会社,,株式会社,東京都,台東区,元浅草３丁目５番６－３０９号,,13,106,1110041,,,,,,,2024-05-02,1,,,,,オントウ,0
2331,9010503007433,新規,0,2024-05-02,2024-05-02,合同会社七宝あかり,,合同会社,東京都,台東区,東浅草１丁目１０番１１号ルピアコート浅草９０１,,13,106,1110025,,,,,,,2024-05-02,1,,,,,シッポウアカリ,0
2338,9010701045912,新規,0,2024-05-02,2024-05-02,株式会社ｌｉｌ’ｗｏｏｄｓ,,株式会社,東京都,品川区,西五反田２丁目１３番１－２１４号プレジデントハイツ五反田,,13,109,1410031,,,,,,,2024-05-02,1,,,,,リルウッズ,0
2342,9010801035012,新規,0,2024-05-02,2024-05-02,種子部落株式会社,,株式会社,東京都,大田区,東海３丁目７番３号東海ビル,,13,111,1430001,,,,,,,2024-05-02,1,,,,,シュシブラク,0
2344,9010901055182,新規,0,2024-05-02,2024-05-02,株式会社鈴乃屋,,株式会社,東京都,世田谷区,奥沢５丁目２４番１８号,,13,112,1580083,,,,,,,2024-05-02,1,,,,,スズノヤ,0
2345,9010901055190,新規,0,2024-05-02,2024-05-02,ＢＲＩＤＧＥ＆Ｃｏ株式会社,,株式会社,東京都,世田谷区,砧４丁目２８番６号メゾングラース１０２,,13,112,1570073,,,,,,,2024-05-02,1,,,,,ブリッジアンドコー,0
2346,9010903009013,新規,0,2024-05-02,2024-05-02,合同会社まなびコンサルティング,,合同会社,東京都,世田谷区,北沢５丁目９－１３ＴＯＢＥ北沢４０１,,13,112,1550031,,,,,,,2024-05-02,1,,,,,マナビコンサルティング,0
2347,9010905004615,新規,0,2024-05-02,2024-05-02,一般社団法人プレストフラワーアートプロデュース協会,,その他の設立登記法人,東京都,世田谷区,駒沢２丁目３番１３号,,13,112,1540012,,,,,,,2024-05-02,1,,,,,プレストフラワーアートプロデュースキョウカイ,0
2352,9011001161607,新規,0,2024-05-02,2024-05-02,株式会社絹代,,株式会社,東京都,渋谷区,渋谷２丁目１９－１５宮益坂ビルディング６０９,,13,113,1500002,,,,,,,2024-05-02,1,,,,,キヌヨ,0
2353,9011001161722,新規,0,2024-05-02,2024-05-02,株式会社ｍｉｇｒａｔｉｏ,,株式会社,東京都,渋谷区,神宮前６丁目２３番４号桑野ビル２階,,13,113,1500001,,,,,,,2024-05-02,1,,,,,ミグラティオ,0
2354,9011003019068,新規,0,2024-05-02,2024-05-02,アハラ合同会社,,合同会社,東京都,渋谷区,道玄坂２丁目７番４号白鳳渋谷第１ビル地下１階,,13,113,1500043,,,,,,,2024-05-02,1,,,,,アハラ,0
2357,9011201025438,新規,0,2024-05-02,2024-05-02,＿瀚株式会社,00134605,株式会社,東京都,中野区,弥生町６丁目１２番３号,,13,114,1640013,,,,,,,2024-05-02,1,,,,,キンカン,0
2358,9011301029628,新規,0,2024-05-02,2024-05-02,Ｘｌｉｍｉｔ　Ｔｅｃ株式会社,,株式会社,東京都,杉並区,下高井戸４丁目３１番２３－１３号,,13,115,1680073,,,,,,,2024-05-02,1,,,,,エックスリミットテック,0
2366,9011801044168,新規,0,2024-05-02,2024-05-02,ＢＨＹ株式会社,,株式会社,東京都,葛飾区,東四つ木２丁目６－８の１Ｆ,,13,122,1240014,,,,,,,2024-05-02,1,,,,,ビーエイチワイ,0
2374,9013301052460,新規,0,2024-05-02,2024-05-02,株式会社Ｒｅ．ｓｔｉｃ,,株式会社,東京都,豊島区,巣鴨３丁目３１番２号アルカディア篠Ａ館３階,,13,116,1700002,,,,,,,2024-05-02,1,,,,,リスティック,0
2375,9013301052469,新規,0,2024-05-02,2024-05-02,璞園株式会社,,株式会社,東京都,豊島区,南大塚３丁目３８番１４－２０２号室,,13,116,1700005,,,,,,,2024-05-02,1,,,,,ボクエン,0
2382,9020001156987,新規,0,2024-05-02,2024-05-02,フォーシーズ湘南株式会社,,株式会社,神奈川県,横浜市鶴見区,向井町１丁目４５番地１,,14,101,2300037,,,,,,,2024-05-02,1,,,,,フォーシーズショウナン,0
2383,9020001157028,新規,0,2024-05-02,2024-05-02,株式会社アイファーム,,株式会社,神奈川県,横浜市中区,日本大通１４,,14,104,2310021,,,,,,,2024-05-02,1,,,,,アイファーム,0
2384,9020001157036,新規,0,2024-05-02,2024-05-02,株式会社イースト,,株式会社,神奈川県,川崎市高津区,溝口１丁目７番７－６０５号溝口レジデンス,,14,134,2130001,,,,,,,2024-05-02,1,,,,,イースト,0
2388,9020003025983,新規,0,2024-05-02,2024-05-02,合同会社Ｈ＆Ｋ,,合同会社,神奈川県,横浜市瀬谷区,阿久和西１丁目１６－１７－１０５,,14,114,2460025,,,,,,,2024-05-02,1,,,,,エイチアンドケイ,0
2391,9021001082133,新規,0,2024-05-02,2024-05-02,株式会社スリー・ウェルス,,株式会社,神奈川県,横須賀市,大矢部１丁目８番５号,,14,201,2380024,,,,,,,2024-05-02,1,,,,,スリーウェルス,0
2402,9030001160113,新規,0,2024-05-02,2024-05-02,株式会社アークリンクス,,株式会社,埼玉県,さいたま市緑区,東浦和６丁目２４番２７号,,11,109,3360926,,,,,,,2024-05-02,1,,,,,アークリンクス,0
2403,9030001160138,新規,0,2024-05-02,2024-05-02,株式会社ＲｅＳＯＣＩＯ,,株式会社,埼玉県,草加市,栄町３丁目５番１６号,,11,221,3400011,,,,,,,2024-05-02,1,,,,,リソシオ,0
2406,9030003024200,新規,0,2024-05-02,2024-05-02,ＧＴＣ合同会社,,合同会社,埼玉県,所沢市,和ケ原１丁目２２１番地の７,,11,208,3591162,,,,,,,2024-05-02,1,,,,,ジーティーシー,0
2409,9040001133191,新規,0,2024-05-02,2024-05-02,株式会社ジョワリフォーム,,株式会社,千葉県,四街道市,小名木９４番地５７,,12,228,2840042,,,,,,,2024-05-02,1,,,,,ジョワリフォーム,0
2410,9040001133407,新規,0,2024-05-02,2024-05-02,株式会社新井電気,,株式会社,千葉県,富津市,絹２１６番地ハイムシルクＢ,,12,226,2930034,,,,,,,2024-05-02,1,,,,,アライデンキ,0
2412,9040005022382,新規,0,2024-05-02,2024-05-02,一般社団法人ＬＥＡＤ　ＬＥＧ　ＪＡＰＡＮスポーツクラブ,,その他の設立登記法人,千葉県,佐倉市,染井野１丁目１８番地１,,12,212,2850831,,,,,,,2024-05-02,1,,,,,リードレッグジャパンスポーツクラブ,0
2418,9060003005065,新規,0,2024-05-02,2024-05-02,合同会社ＴＲＹ,,合同会社,栃木県,佐野市,金屋下町２４５５,,09,204,3270025,,,,,,,2024-05-02,1,,,,,トライ,0
2421,9080101024725,新規,0,2024-05-02,2024-05-02,株式会社ＡＲＡＫＩＹＡ,,株式会社,静岡県,駿東郡長泉町,納米里１７２番地の１７チェリーブロッサム１０２号,,22,342,4110933,,,,,,,2024-05-02,1,,,,,アラキヤ,0
2423,9080401027163,新規,0,2024-05-02,2024-05-02,株式会社ＴＡ,,株式会社,静岡県,磐田市,南田２２８番地２,,22,211,4371212,,,,,,,2024-05-02,1,,,,,ティーエー,0
2424,9080403005002,新規,0,2024-05-02,2024-05-02,壱ノ壱合同会社,,合同会社,静岡県,磐田市,富士見台１番地１,,22,211,4380088,,,,,,,2024-05-02,1,,,,,イチノイチ,0
2427,9110001038367,新規,0,2024-05-02,2024-05-02,株式会社ヒスイ水産,,株式会社,新潟県,糸魚川市,横町２丁目７番１０号,,15,216,9410067,,,,,,,2024-05-02,1,,,,,ヒスイスイサン,0
2428,9110001038375,新規,0,2024-05-02,2024-05-02,株式会社共立重建,,株式会社,新潟県,胎内市,東牧１８８番地,,15,227,9592808,,,,,,,2024-05-02,1,,,,,キョウリツジュウケン,0
2439,9120001264441,新規,0,2024-05-02,2024-05-02,キンダイ株式会社,,株式会社,大阪府,大阪市旭区,千林２丁目１３－７－２０３,,27,117,5350012,,,,,,,2024-05-02,1,,,,,キンダイ,0
2440,9120001264524,新規,0,2024-05-02,2024-05-02,株式会社結,,株式会社,大阪府,大阪市北区,本庄東２丁目４－１ローレルハイツ６２３,,27,127,5310074,,,,,,,2024-05-02,1,,,,,ムスビ,0
2442,9120003026476,新規,0,2024-05-02,2024-05-02,ダイセント合同会社,,合同会社,大阪府,大阪市北区,芝田２丁目８番１１号,,27,127,5300012,,,,,,,2024-05-02,1,,,,,ダイセント,0
2443,9120003026492,新規,0,2024-05-02,2024-05-02,ＣｒｅａｔｅＦｏｒＳｍｉｌｅ合同会社,,合同会社,大阪府,寝屋川市,豊野町２５－２－１２０１,,27,215,5720831,,,,,,,2024-05-02,1,,,,,クリエイトフォースマイル,0
2447,9122001038057,新規,0,2024-05-02,2024-05-02,株式会社Ｃｈｉｎｇ,,株式会社,大阪府,東大阪市,新池島町３丁目５番６号,,27,227,5798065,,,,,,,2024-05-02,1,,,,,チング,0
2452,9130001076992,新規,0,2024-05-02,2024-05-02,ＭＡＥＤＡ　ＯＬＩＶＥ　ＦＡＲＭ株式会社,,株式会社,京都府,宮津市,字中野２３６番地の１,,26,205,6292232,,,,,,,2024-05-02,1,,,,,マエダオリーブファーム,0
2453,9130001077000,新規,0,2024-05-02,2024-05-02,株式会社伊東商事,,株式会社,京都府,京都市山科区,四ノ宮岩久保町２０番地８,,26,110,6078028,,,,,,,2024-05-02,1,,,,,イトウショウジ,0
2460,9140003020361,新規,0,2024-05-02,2024-05-02,合同会社雄成,,合同会社,兵庫県,川西市,鼓が滝２丁目１３番４８号３０４,,28,217,6660123,,,,,,,2024-05-02,1,,,,,ユウセイ,0
2461,9140003020493,新規,0,2024-05-02,2024-05-02,レッサーパンヤ合同会社,,合同会社,兵庫県,西宮市,堀切町７番３５号,,28,204,6620953,,,,,,,2024-05-02,1,,,,,レッサーパンヤ,0
2462,9140003020510,新規,0,2024-05-02,2024-05-02,合同会社ＴＫＣ,,合同会社,兵庫県,尼崎市,猪名寺１丁目１４番２６号,,28,202,6610981,,,,,,,2024-05-02,1,,,,,ティケーシー,0
2465,9150001027250,新規,0,2024-05-02,2024-05-02,株式会社ｅＭ,,株式会社,奈良県,生駒郡安堵町,大字東安堵４４１番地の２,,29,345,6391061,,,,,,,2024-05-02,1,,,,,エム,0
2466,9150001027259,新規,0,2024-05-02,2024-05-02,株式会社阪神管理ホールディングス,,株式会社,奈良県,橿原市,八木町１丁目８番１５号,,29,205,6340078,,,,,,,2024-05-02,1,,,,,ハンシンカンリホールディングス,0
2470,9170003002035,新規,0,2024-05-02,2024-05-02,介護タクシー花色合同会社,,合同会社,和歌山県,和歌山市,秋月３８４番地９メゾンフェリス２－１,,30,201,6408322,,,,,,,2024-05-02,1,,,,,カイゴタクシーハナイロ,0
2478,9180001161195,新規,0,2024-05-02,2024-05-02,株式会社Ｐ‐Ｌｉｖｅ,,株式会社,愛知県,名古屋市中区,新栄２丁目１１番２５号エルミタージュ新栄７０２号,,23,106,4600007,,,,,,,2024-05-02,1,,,,,ピーライブ,0
2479,9180001161261,新規,0,2024-05-02,2024-05-02,株式会社エスティインシュア,,株式会社,愛知県,半田市,幸町１丁目３０番地,,23,205,4750814,,,,,,,2024-05-02,1,,,,,エスティインシュア,0
2480,9180001161311,新規,0,2024-05-02,2024-05-02,株式会社Ｖｉｇｏｒｓ,,株式会社,愛知県,名古屋市南区,豊田４丁目８番１６号ソフィア１‐２０２号,,23,112,4570841,,,,,,,2024-05-02,1,,,,,ビガーズ,0
2487,9190001031307,新規,0,2024-05-02,2024-05-02,株式会社クエストファンディング,,株式会社,三重県,松阪市,駅部田町１２３番地３,,24,204,5150045,,,,,,,2024-05-02,1,,,,,クエストファンディング,0
2502,9240003006648,新規,0,2024-05-02,2024-05-02,合同会社ユウワ,,合同会社,広島県,広島市安佐北区,可部東３丁目３９番８号,,34,106,7310222,,,,,,,2024-05-02,1,,,,,ユウワ,0
2506,9250005008914,新規,0,2024-05-02,2024-05-02,一般社団法人七福,,その他の設立登記法人,山口県,熊毛郡田布施町,大字麻郷奥５０８,,35,343,7421512,,,,,,,2024-05-02,1,,,,,,0
2507,9260001039012,新規,0,2024-05-02,2024-05-02,株式会社おかげ,,株式会社,岡山県,笠岡市,笠岡２４８１番地１６,,33,205,7140081,,,,,,,2024-05-02,1,,,,,オカゲ,0
2514,9290001105538,新規,0,2024-05-02,2024-05-02,Ｙｅ株式会社,,株式会社,福岡県,福岡市中央区,高砂１丁目１－２５ニューガイアビルディング天神Ｎｏ．６２,,40,133,8100011,,,,,,,2024-05-02,1,,,,,イェ,0
2515,9290001105554,新規,0,2024-05-02,2024-05-02,株式会社アカリ,,株式会社,福岡県,糟屋郡宇美町,四王寺坂２丁目３４番３号,,40,341,8112103,,,,,,,2024-05-02,1,,,,,アカリ,0
2519,9290005019387,新規,0,2024-05-02,2024-05-02,ＮＰＯ法人ｍｏｍ’ｓ　ｓｍｉｌｅ,,その他の設立登記法人,福岡県,糟屋郡粕屋町,長者原西２丁目１５番１５号,,40,349,8112316,,,,,,,2024-05-02,1,,,,,マムズスマイル,0
2520,9300001013714,新規,0,2024-05-02,2024-05-02,株式会社Ａ‐ＪＯＹ,,株式会社,佐賀県,神埼市,千代田町姉２１２１番地,,41,210,8420052,,,,,,,2024-05-02,1,,,,,エージョイ,0
2526,9320003004354,新規,0,2024-05-02,2024-05-02,合同会社現代芸術社,,合同会社,大分県,玖珠郡九重町,大字後野上７－２５,,44,461,8794803,,,,,,,2024-05-02,1,,,,,ゲンダイゲイジュツシャ,0
2527,9340001026472,新規,0,2024-05-02,2024-05-02,株式会社あさひなサポート,,株式会社,鹿児島県,鹿児島市,鴨池新町２１番７号鴨池シーサイドビル３０１,,46,201,8900064,,,,,,,2024-05-02,1,,,,,アサヒナサポート,0
2528,9340003004468,新規,0,2024-05-02,2024-05-02,合同会社ライトニング,,合同会社,鹿児島県,鹿児島市,紫原７丁目３０番１９号,,46,201,8900082,,,,,,,2024-05-02,1,,,,,ライトニング,0
2537,9360001033566,新規,0,2024-05-02,2024-05-02,株式会社ＳＫＡＹミラクル,,株式会社,沖縄県,宮古島市,平良字池間１７８番地,,47,214,9060421,,,,,,,2024-05-02,1,,,,,スカイミラクル,0
2538,9360001033582,新規,0,2024-05-02,2024-05-02,株式会社ＧＲＧＴＩＤＡ,,株式会社,沖縄県,糸満市,字真栄里２００３番地の１３,,47,210,9010362,,,,,,,2024-05-02,1,,,,,ジーアールジーティダ,0
2539,9360001033608,新規,0,2024-05-02,2024-05-02,株式会社ＢＢＯ,,株式会社,沖縄県,豊見城市,字豊崎１番地１２１４シーサイド華３階,,47,212,9010225,,,,,,,2024-05-02,1,,,,,ビービーオー,0
2543,9370001051253,新規,0,2024-05-02,2024-05-02,ＹＡ商事株式会社,,株式会社,宮城県,仙台市泉区,長命ケ丘３丁目２０番地の１３,,04,105,9813212,,,,,,,2024-05-02,1,,,,,ワイエーショウジ,0
2559,9430001091697,新規,0,2024-05-02,2024-05-02,岩見沢産業株式会社,,株式会社,北海道,岩見沢市,日の出町６１５番地６,,01,210,0680825,,,,,,,2024-05-02,1,,,,,イワミザワサンギョウ,0
2560,9430001091714,新規,0,2024-05-02,2024-05-02,株式会社余市ウイスキー,,株式会社,北海道,余市郡余市町,沢町２丁目２６,,01,408,0460022,,,,,,,2024-05-02,1,,,,,ヨイチウイスキー,0
2569,9460401001261,新規,0,2024-05-02,2024-05-02,株式会社マルミヤ水産,,株式会社,北海道,根室市,桂木１５３番地,,01,223,0870023,,,,,,,2024-05-02,1,,,,,マルミヤスイサン,0
2570,9462501000993,新規,0,2024-05-02,2024-05-02,株式会社中春別フィードファクトリー,,株式会社,北海道,野付郡別海町,中春別３０７番地の２,,01,691,0860654,,,,,,,2024-05-02,1,,,,,ナカシュンベツフィードファクトリー,0
2577,9490001010759,新規,0,2024-05-02,2024-05-02,株式会社片岡工務店,,株式会社,高知県,高知市,福井町１９５０番地１,,39,201,7800965,,,,,,,2024-05-02,1,,,,,カタオカコウムテン,0
