sequenceNumber,corporateNumber,process,correct,updateDate,changeDate,name,nameImageId,kind,prefectureName,cityName,streetNumber,addressImageId,prefectureCode,cityCode,postCode,addressOutside,addressOutsideImageId,closeDate,closeCause,successorCorporateNumber,changeCause,assignmentDate,latest,enName,enPrefectureName,enCityName,enAddressOutside,furigana,hihyoji
7,1010001190623,登記記録の閉鎖等,0,2021-08-13,2021-08-06,Ｈ＆Ａトレーディング株式会社,,株式会社,奈良県,生駒市,北田原町１０６７番地２５,,29,209,6300142,,,2021-08-06,清算の結了等,,,2018-03-29,1,,,,,エイチアンドエートレーディング,0
9,1010003016850,登記記録の閉鎖等,0,2021-08-13,2021-08-02,東京映像人材研究所合同会社,,合同会社,東京都,文京区,本郷６丁目１１番８－１０１号,,13,105,1130033,,,2021-08-02,清算の結了等,,,2015-10-05,1,,,,,トウキョウエイゾウジンザイケンキュウショ,0
12,1010005016403,登記記録の閉鎖等,0,2021-08-13,2021-08-02,一般社団法人日本の伝統を守る会,,その他の設立登記法人,東京都,千代田区,六番町７、番町グロリアビル２階,,13,101,1020085,,,2021-08-02,清算の結了等,,,2015-10-05,1,,,,,ニッポンノデントウヲマモルカイ,0
23,1010403022928,登記記録の閉鎖等,0,2021-08-13,2021-07-30,合同会社アリエストラスト,,合同会社,東京都,港区,赤坂１丁目１２番３２号,,13,103,1070052,,,2021-07-30,清算の結了等,,,2020-05-13,1,,,,,アリエストラスト,0
33,1010801017769,登記記録の閉鎖等,0,2021-08-13,2021-08-02,株式会社花村,,株式会社,東京都,大田区,東馬込２丁目４番７号,,13,111,1430022,,,2021-08-02,清算の結了等,,,2015-10-05,1,,,,,ハナムラ,0
61,1011802006199,登記記録の閉鎖等,0,2021-08-13,2021-08-11,有限会社バツカスウチダ,,有限会社,東京都,葛飾区,亀有３丁目２１番７号,,13,122,1250061,,,2021-08-11,清算の結了等,,,2015-10-05,1,,,,,バツカスウチダ,0
74,1020001050867,登記記録の閉鎖等,0,2021-08-13,2021-08-02,株式会社ブレイン・パートナー,,株式会社,神奈川県,横浜市神奈川区,松見町４丁目９４４番地１妙蓮寺ハイツ１０５号,,14,102,2210005,,,2021-08-02,清算の結了等,,,2015-10-05,1,,,,,ブレインパートナー,0
75,1020001094781,登記記録の閉鎖等,0,2021-08-13,2021-08-02,大輝シール株式会社,,株式会社,鹿児島県,指宿市,大牟礼１丁目２番５号,,46,210,8910401,,,2021-08-02,清算の結了等,,,2015-10-05,1,,,,,ダイキシール,0
77,1020001111413,登記記録の閉鎖等,0,2021-08-13,2021-08-04,株式会社Ｅ・リレーションズ,,株式会社,神奈川県,横浜市神奈川区,鶴屋町１丁目１番地の２,,14,102,2210835,,,2021-08-04,清算の結了等,,,2015-10-05,1,,,,,イーリレーションズ,0
80,1020002054215,登記記録の閉鎖等,0,2021-08-13,2021-08-03,有限会社秀吉,,有限会社,神奈川県,横浜市中区,花咲町１丁目３９番７号,,14,104,2310063,,,2021-08-03,清算の結了等,,,2015-10-05,1,,,,,,0
82,1020005004159,登記記録の閉鎖等,0,2021-08-13,2021-08-03,神奈川県公営競輪コンサルタント協同組合,,その他の設立登記法人,神奈川県,横浜市戸塚区,上倉田町１７３４番地１１,,14,110,2440816,,,2021-08-03,清算の結了等,,,2015-10-05,1,,,,,カナガワケンコウエイケイリンコンサルタント,0
85,1030001012098,登記記録の閉鎖等,0,2021-08-13,2021-08-04,株式会社ホシノ,,株式会社,埼玉県,さいたま市見沼区,東大宮５丁目３８番地１星野ビル２Ｆ,,11,104,3370051,,,2021-08-04,清算の結了等,,,2015-10-05,1,,,,,ホシノ,0
90,1030003015628,登記記録の閉鎖等,0,2021-08-13,2021-07-29,ユーエス合同会社,,合同会社,埼玉県,東松山市,大字大黒部５８番地１,,11,212,3550046,,,2021-07-29,清算の結了等,,,2020-07-31,1,,,,,ユーエス,0
110,1080001007762,登記記録の閉鎖等,0,2021-08-13,2021-08-11,株式会社オカベインテリアファニチャー,,株式会社,静岡県,静岡市清水区,木の下町３１７番地の２,,22,103,4240846,,,2021-08-11,清算の結了等,,,2015-10-05,1,,,,,オカベインテリアファニチャー,0
113,1080001013439,登記記録の閉鎖等,0,2021-08-13,2021-08-06,株式会社八光電装,,株式会社,静岡県,島田市,金谷扇町１９７８番地,,22,209,4280015,,,2021-08-06,清算の結了等,,,2015-10-05,1,,,,,ハッコウデンソウ,0
115,1080102008271,登記記録の閉鎖等,0,2021-08-13,2021-08-04,有限会社澤木建設,,有限会社,静岡県,伊豆市,矢熊３２２番地の１,,22,222,4103203,,,2021-08-04,清算の結了等,,,2015-10-05,1,,,,,サワキケンセツ,0
118,1100002015472,登記記録の閉鎖等,0,2021-08-13,2021-08-11,作楽クリエイト有限会社,,有限会社,長野県,上田市,天神２丁目４番６０号,,20,203,3860025,,,2021-08-11,清算の結了等,,,2015-10-05,1,,,,,サクラクリエイト,0
121,1110002003162,登記記録の閉鎖等,0,2021-08-13,2021-08-06,有限会社新風舎,,有限会社,新潟県,新潟市東区,江南２丁目１４５８番地１,,15,102,9500855,,,2021-08-06,清算の結了等,,,2015-10-05,1,,,,,,0
138,1120901034967,登記記録の閉鎖等,0,2021-08-13,2021-08-05,株式会社福田モーターズ,,株式会社,大阪府,摂津市,千里丘５丁目８番２０号,,27,224,5660001,,,2021-08-05,清算の結了等,,,2015-10-05,1,,,,,フクダモーターズ,0
140,1120901040065,登記記録の閉鎖等,0,2021-08-13,2021-08-10,株式会社エスケイ・ワン,,株式会社,大阪府,池田市,五月丘５丁目２番２４号,,27,204,5630029,,,2021-08-10,清算の結了等,,,2018-06-29,1,,,,,エスケイワン,0
215,1290002033480,登記記録の閉鎖等,0,2021-08-13,2021-07-16,有限会社大翔,,有限会社,福岡県,福岡市南区,三宅２丁目３６番６－３０５号,,40,134,8111344,,,2021-07-16,清算の結了等,,,2015-10-05,1,,,,,ダイショウ,0
216,1290002036368,登記記録の閉鎖等,0,2021-08-13,2021-07-16,有限会社皇福屋,,有限会社,福岡県,糟屋郡志免町,別府２丁目１０番４６号,,40,343,8112205,,,2021-07-16,清算の結了等,,,2015-10-05,1,,,,,コウフクヤ,0
218,1290801005829,登記記録の閉鎖等,0,2021-08-13,2021-08-03,ワシダ興産株式会社,,株式会社,福岡県,北九州市門司区,小森江２丁目１番１５号,,40,101,8000007,,,2021-08-03,合併による解散等,4290801013119,令和３年８月１日北九州市八幡東区枝光本町３番１号ワシダホールディングス株式会社（4290801013119）に合併し解散,2015-10-05,1,,,,,ワシダコウサン,0
243,1370302000049,登記記録の閉鎖等,0,2021-08-13,2021-07-30,有限会社あいたけ,,有限会社,宮城県,石巻市,八幡町２丁目１番２１号,,04,202,9860016,,,2021-07-30,清算の結了等,,,2015-10-05,1,,,,,アイタケ,0
248,1400001009239,登記記録の閉鎖等,0,2021-08-13,2021-07-07,ソーラーパワー久慈株式会社,,株式会社,岩手県,久慈市,枝成沢第１８地割１２７番４,,03,207,0280034,,,2021-07-07,合併による解散等,5370001009362,令和３年７月１日仙台市青葉区一番町三丁目７番１号東北自然エネルギー株式会社（5370001009362）に合併し解散,2015-10-05,1,,,,,ソーラーパワークジ,0
265,1470001007533,登記記録の閉鎖等,0,2021-08-13,2021-08-10,信和工業株式会社,,株式会社,香川県,丸亀市,土器町東６丁目３７３番地,,37,202,7630082,,,2021-08-10,清算の結了等,,,2015-10-05,1,,,,,シンワコウギョウ,0
276,2010001144834,登記記録の閉鎖等,0,2021-08-13,2021-08-02,株式会社ブランドリフト,,株式会社,東京都,中央区,銀座６丁目１０番１号,,13,102,1040061,,,2021-08-02,合併による解散等,3010401046051,令和３年８月１日東京都中央区銀座六丁目１０番１号株式会社タカミ（3010401046051）に合併し解散,2015-10-05,1,,,,,ブランドリフト,0
277,2010001201404,登記記録の閉鎖等,0,2021-08-13,2021-08-02,株式会社千代田都市管理,,株式会社,東京都,千代田区,神田錦町２丁目７番地,,13,101,1010054,,,2021-08-02,合併による解散等,8010001133914,令和３年８月１日東京都千代田区大手町一丁目９番２号ＤＢＪビジネスサポート株式会社（8010001133914）に合併し解散,2019-06-10,1,,,,,チヨダトシカンリ,0
281,2010003015281,登記記録の閉鎖等,0,2021-08-13,2021-07-30,エスプリ・ロジック合同会社,,合同会社,東京都,文京区,大塚５丁目１番１７号,,13,105,1120012,,,2021-07-30,清算の結了等,,,2015-10-05,1,,,,,エスプリロジック,0
289,2010405018733,登記記録の閉鎖等,0,2021-08-13,2021-07-30,一般社団法人レオクリエイト,,その他の設立登記法人,東京都,港区,赤坂１丁目１２番３２号,,13,103,1070052,,,2021-07-30,清算の結了等,,,2020-05-13,1,,,,,レオクリエイト,0
293,2010502017076,登記記録の閉鎖等,0,2021-08-13,2021-08-02,有限会社星経営情報センター,,有限会社,東京都,台東区,上野１丁目１５番１０号大秀ビル５０１,,13,106,1100005,,,2021-08-02,清算の結了等,,,2015-10-05,1,,,,,ホシケイエイジョウホウセンター,0
316,2011005002747,登記記録の閉鎖等,0,2021-08-13,2021-08-12,特定非営利活動法人地域文化アーカイブス,,その他の設立登記法人,東京都,葛飾区,東金町１丁目２２番１１号,,13,122,1250041,,,2021-08-12,清算の結了等,,,2015-10-05,1,,,,,チイキブンカアーカイブス,0
317,2011005006665,登記記録の閉鎖等,0,2021-08-13,2021-07-26,一般社団法人徳川紅葉会,,その他の設立登記法人,東京都,渋谷区,上原１丁目１４番１５号２０１,,13,113,1510064,,,2021-07-26,清算の結了等,,,2016-02-24,1,,,,,トクガワモミジカイ,0
333,2011601020771,登記記録の閉鎖等,0,2021-08-13,2021-08-10,株式会社ひまわり看護ステーション,,株式会社,東京都,練馬区,大泉学園町４丁目２２番４号,,13,120,1780061,,,2021-08-10,合併による解散等,6430001025872,令和３年７月１日札幌市中央区北十条西二十四丁目３番地株式会社メディカルシステムネットワーク（6430001025872）に合併し解散,2016-03-18,1,,,,,ヒマワリカンゴステーション,0
349,2012803001650,登記記録の閉鎖等,0,2021-08-13,2021-07-30,合同会社甲州マネジメント,,合同会社,東京都,日野市,大字上田３３９番地の５,,13,212,1910014,,,2021-07-30,清算の結了等,,,2017-07-19,1,,,,,コウシュウマネジメント,0
366,2020002081563,登記記録の閉鎖等,0,2021-08-13,2021-08-03,有限会社ティーアンドティー建築設計事務所,,有限会社,神奈川県,川崎市幸区,古市場１丁目３８番地１５,,14,132,2120052,,,2021-08-03,清算の結了等,,,2015-10-05,1,,,,,ティーアンドティーケンチクセッケイジムショ,0
383,2030002089325,登記記録の閉鎖等,0,2021-08-13,2021-08-04,有限会社オフィスＰＯＭ,,有限会社,埼玉県,越谷市,七左町８丁目１４３番地７,,11,222,3430851,,,2021-08-04,清算の結了等,,,2015-10-05,1,,,,,オフィスポム,0
390,2040002050277,登記記録の閉鎖等,0,2021-08-13,2021-08-02,有限会社シー・エス・ブレイン,,有限会社,千葉県,松戸市,幸田３丁目３８番地の３,,12,207,2700001,,,2021-08-02,清算の結了等,,,2015-10-05,1,,,,,シーエスブレイン,0
394,2050002026086,登記記録の閉鎖等,0,2021-08-13,2021-08-06,有限会社モンジョリ,,有限会社,茨城県,古河市,東本町１丁目１４番１号,,08,204,3060013,,,2021-08-06,清算の結了等,,,2015-10-05,1,,,,,モンジョリ,0
406,2080102014764,登記記録の閉鎖等,0,2021-08-13,2021-08-10,有限会社美翔,00068029,有限会社,静岡県,富士市,錦町１丁目２番１５号,,22,210,4170045,,,2021-08-10,清算の結了等,,,2015-10-05,1,,,,,ビショウ,0
416,2120001207555,登記記録の閉鎖等,0,2021-08-13,2021-08-03,株式会社アシスト大阪,,株式会社,大阪府,大阪市北区,天神西町７番１２－６０２号,,27,127,5300045,,,2021-08-03,清算の結了等,,,2017-08-23,1,,,,,アシストオオサカ,0
446,2130001050120,登記記録の閉鎖等,0,2021-08-13,2021-07-16,京都ソーシャル・エステイト株式会社,,株式会社,京都府,京都市中京区,衣棚通丸太町下る玉植町２３５番地２,,26,104,6040005,,,2021-07-16,合併による解散等,3130001026607,令和３年７月１６日京都市伏見区肥後町３８１番地株式会社ソーシャル・イノベーション（3130001026607）に合併し解散,2015-10-05,1,,,,,キョウトソーシャルエステイト,0
448,2140001003969,登記記録の閉鎖等,0,2021-08-13,2021-08-12,株式会社富士建装,,株式会社,兵庫県,神戸市灘区,天城通３丁目１番４号,,28,102,6570823,,,2021-08-12,清算の結了等,,,2015-10-05,1,,,,,,0
457,2140002028486,登記記録の閉鎖等,0,2021-08-13,2021-08-06,有限会社エフ・ワイ,,有限会社,兵庫県,明石市,朝霧東町１丁目１１番５３号ソーシャルアメニティ１０１号室,,28,203,6730860,,,2021-08-06,清算の結了等,,,2015-10-05,1,,,,,エフワイ,0
460,2150001007234,登記記録の閉鎖等,0,2021-08-13,2021-08-05,株式会社和広,,株式会社,奈良県,生駒郡斑鳩町,法隆寺西１丁目４番２１号,00048887,29,344,6360114,,,2021-08-05,清算の結了等,,,2015-10-05,1,,,,,ワコウ,0
484,2180301024406,登記記録の閉鎖等,0,2021-08-13,2021-08-11,鈴星株式会社,,株式会社,愛知県,豊橋市,弥生町字西豊和４９番地の２,,23,201,4418106,,,2021-08-11,清算の結了等,,,2015-10-05,1,,,,,スズホシ,0
489,2220002002045,登記記録の閉鎖等,0,2021-08-13,2021-08-03,有限会社金沢測量設計事務所,,有限会社,石川県,金沢市,旭町２丁目７番１４号,,17,201,9200941,,,2021-08-03,清算の結了等,,,2015-10-05,1,,,,,カナザワソクリョウセッケイジムショ,0
496,2240002005624,登記記録の閉鎖等,0,2021-08-13,2021-07-30,有限会社幸伸,,有限会社,広島県,広島市安佐南区,祇園６丁目４番１５号,,34,105,7310138,,,2021-07-30,清算の結了等,,,2015-10-05,1,,,,,コウシン,0
501,2240002022669,登記記録の閉鎖等,0,2021-08-13,2021-07-30,有限会社ビットデザイン,,有限会社,広島県,広島市佐伯区,美鈴が丘緑１丁目５番２８号,,34,108,7315113,,,2021-07-30,清算の結了等,,,2015-10-05,1,,,,,ビットデザイン,0
518,2290801009639,登記記録の閉鎖等,0,2021-08-13,2021-07-29,いわた商事株式会社,,株式会社,福岡県,北九州市八幡西区,黒崎１丁目１３番１２号,,40,109,8060021,,,2021-07-29,清算の結了等,,,2015-10-05,1,,,,,イワタショウジ,0
524,2330001011770,登記記録の閉鎖等,0,2021-08-13,2021-08-10,三加和商店株式会社,,株式会社,熊本県,玉名郡和水町,西吉地２２２６番地の２,,43,369,8610906,,,2021-08-10,清算の結了等,,,2015-10-05,1,,,,,ミカワショウテン,0
536,2350001008105,登記記録の閉鎖等,0,2021-08-13,2021-08-05,株式会社田中博善社,,株式会社,宮崎県,都城市,下川東３丁目１６号１番地,,45,202,8850011,,,2021-08-05,清算の結了等,,,2015-10-05,1,,,,,タナカハクゼンシャ,0
539,2360002009753,登記記録の閉鎖等,0,2021-08-13,2021-08-04,有限会社ライフプラン,,有限会社,沖縄県,那覇市,具志１丁目２０番１号,,47,201,9010146,,,2021-08-04,清算の結了等,,,2015-10-05,1,,,,,ライフプラン,0
545,2380002018686,登記記録の閉鎖等,0,2021-08-13,2021-08-05,有限会社エムズ,,有限会社,福島県,白河市,道東７番地５０,,07,205,9610031,,,2021-08-05,清算の結了等,,,2015-10-05,1,,,,,エムズ,0
551,2430001035586,登記記録の閉鎖等,0,2021-08-13,2021-07-19,株式会社アルケミ,,株式会社,北海道,札幌市手稲区,曙二条４丁目３番５４号,,01,109,0060832,,,2021-07-19,清算の結了等,,,2015-10-05,1,,,,,アルケミ,0
573,3010001108838,登記記録の閉鎖等,0,2021-08-13,2021-08-02,株式会社ワールドミッション,,株式会社,東京都,中央区,日本橋３丁目４番１５号,,13,102,1030027,,,2021-08-02,合併による解散等,1010001066534,令和３年８月１日東京都中央区日本橋三丁目４番１５号株式会社ワールドベンチャー（1010001066534）に合併し解散,2015-10-05,1,,,,,ワールドミッション,0
582,3010005025690,登記記録の閉鎖等,0,2021-08-13,2021-07-30,桑名開発特定目的会社,,その他の設立登記法人,東京都,千代田区,内神田２丁目６番１１号,,13,101,1010047,,,2021-07-30,清算の結了等,,,2016-08-24,1,,,,,クワナカイハツ,0
612,3010701032957,登記記録の閉鎖等,0,2021-08-13,2021-08-10,ＳＴ＆Ｃｏｍｐａｎｙ株式会社,,株式会社,東京都,品川区,東五反田２丁目７番１８号,,13,109,1410022,,,2021-08-10,合併による解散等,8012401025550,令和３年８月１日東京都武蔵野市境二丁目１８番１１号株式会社ＴＭＳ（8012401025550）に合併し解散,2016-09-06,1,,,,,エスティアンドカンパニー,0
690,3040001031681,登記記録の閉鎖等,0,2021-08-13,2021-08-03,株式会社ＫＩＺＵＮＡ．Ｐ,,株式会社,千葉県,市川市,本塩１５番６号,,12,203,2720104,,,2021-08-03,清算の結了等,,,2015-10-05,1,,,,,キズナドットピー,0
697,3040002078268,登記記録の閉鎖等,0,2021-08-13,2021-07-27,有限会社涸澤電機,,有限会社,千葉県,大網白里市,南今泉４８８１番地,,12,239,2993202,,,2021-07-27,清算の結了等,,,2015-10-05,1,,,,,カラサワデンキ,0
702,3060001016771,登記記録の閉鎖等,0,2021-08-13,2021-08-03,株式会社ジュピテル,,株式会社,栃木県,栃木市,大平町西水代２７８４番地３４,,09,203,3294423,,,2021-08-03,清算の結了等,,,2015-10-05,1,,,,,ジュピテル,0
705,3070002021464,登記記録の閉鎖等,0,2021-08-13,2021-08-06,有限会社テイー・エイチ・アール,,有限会社,群馬県,伊勢崎市,西久保町２丁目２２７番地５,,10,204,3792204,,,2021-08-06,清算の結了等,,,2015-10-05,1,,,,,テイーエイチアール,0
706,3070002031760,登記記録の閉鎖等,0,2021-08-13,2021-08-10,有限会社エスト・トエンティ・ワン,,有限会社,群馬県,太田市,高林東町２４９４番地の１,,10,205,3730825,,,2021-08-10,清算の結了等,,,2015-10-05,1,,,,,エストトエンティワン,0
717,3110001025742,登記記録の閉鎖等,0,2021-08-13,2021-08-05,株式会社エヌエス技研,,株式会社,新潟県,長岡市,宝３丁目１番１号,,15,202,9400016,,,2021-08-05,清算の結了等,,,2015-10-05,1,,,,,エヌエスギケン,0
726,3120003012317,登記記録の閉鎖等,0,2021-08-13,2021-08-03,ハイランドメガソーラー発電合同会社,,合同会社,大阪府,大阪市浪速区,元町２丁目３番８号,,27,111,5560016,,,2021-08-03,清算の結了等,,,2017-01-04,1,,,,,ハイランドメガソーラーハツデン,0
742,3130002000164,登記記録の閉鎖等,0,2021-08-13,2021-08-11,有限会社五百磐商店,,有限会社,京都府,京都市右京区,西院西平町１１番地,,26,108,6150023,,,2021-08-11,清算の結了等,,,2015-10-05,1,,,,,イニワショウテン,0
751,3140002002804,登記記録の閉鎖等,0,2021-08-13,2021-08-06,有限会社池工,,有限会社,兵庫県,神戸市灘区,新在家南町５丁目６番５号,,28,102,6570864,,,2021-08-06,清算の結了等,,,2015-10-05,1,,,,,イケコウ,0
772,3180002074674,登記記録の閉鎖等,0,2021-08-13,2021-08-04,有限会社昌永鉄工所,,有限会社,愛知県,丹羽郡大口町,城屋敷１丁目４７番地,,23,361,4800143,,,2021-08-04,清算の結了等,,,2015-10-05,1,,,,,ショウエイテッコウショ,0
773,3180002091050,登記記録の閉鎖等,0,2021-08-13,2021-08-10,有限会社信和製作所,,有限会社,愛知県,あま市,篠田小塚４２番地,,23,237,4901211,,,2021-08-10,清算の結了等,,,2015-10-05,1,,,,,シンワセイサクショ,0
813,3260002022261,登記記録の閉鎖等,0,2021-08-13,2021-08-11,有限会社ワタナベテクノ,,有限会社,岡山県,倉敷市,福田町古新田２６４番地の３９,,33,202,7128046,,,2021-08-11,清算の結了等,,,2015-10-05,1,,,,,ワタナベテクノ,0
837,3300002010030,登記記録の閉鎖等,0,2021-08-13,2021-07-30,有限会社建築工房Ｍ２,,有限会社,佐賀県,三養基郡基山町,けやき台４丁目１７番地３,,41,341,8410205,,,2021-07-30,清算の結了等,,,2015-10-05,1,,,,,ケンチクコウボウエムツー,0
845,3330002020415,登記記録の閉鎖等,0,2021-08-13,2021-08-06,有限会社彩甲エンタープライズ,,有限会社,熊本県,上益城郡甲佐町,大字豊内６４０番地,,43,444,8614607,,,2021-08-06,清算の結了等,,,2015-10-05,1,,,,,サイコウエンタープライズ,0
846,3330002022196,登記記録の閉鎖等,0,2021-08-13,2021-08-10,有限会社岡本電設,,有限会社,熊本県,玉名郡南関町,大字肥猪３３番地,,43,367,8610814,,,2021-08-10,清算の結了等,,,2015-10-05,1,,,,,オカモトデンセツ,0
847,3330002024085,登記記録の閉鎖等,0,2021-08-13,2021-08-06,有限会社境建設,,有限会社,熊本県,宇城市,小川町南小川９５６番地の１,,43,213,8690614,,,2021-08-06,清算の結了等,,,2015-10-05,1,,,,,サカイケンセツ,0
855,3340002020323,登記記録の閉鎖等,0,2021-08-13,2021-08-02,有限会社きよせ,,有限会社,鹿児島県,大島郡伊仙町,大字検福１１８番地４,,46,532,8918116,,,2021-08-02,清算の結了等,,,2015-10-05,1,,,,,,0
858,3360002005173,登記記録の閉鎖等,0,2021-08-13,2021-07-29,有限会社砂川商事,,有限会社,沖縄県,那覇市,古波蔵１丁目５番１号,,47,201,9000024,,,2021-07-29,清算の結了等,,,2015-10-05,1,,,,,スナガワショウジ,0
869,3380005003420,登記記録の閉鎖等,0,2021-08-13,2021-08-04,農事組合法人滝根町堆肥供給組合,,その他の設立登記法人,福島県,田村市,滝根町菅谷字椚塚１２１番地,,07,211,9633601,,,2021-08-04,清算の結了等,,,2015-10-05,1,,,,,タキネマチタイヒキョウキュウクミアイ,0
873,3400601001048,登記記録の閉鎖等,0,2021-08-13,2021-08-10,株式会社正進工業,,株式会社,岩手県,奥州市,胆沢南都田字片子沢３９５番地１,,03,215,0230401,,,2021-08-10,清算の結了等,,,2015-10-05,1,,,,,セイシンコウギョウ,0
875,3420001006694,登記記録の閉鎖等,0,2021-08-13,2021-08-02,株式会社プライムフィールド,,株式会社,青森県,八戸市,大字三日町１４番地１,,02,203,0310032,,,2021-08-02,合併による解散等,7420001006699,令和３年８月１日青森県八戸市大字三日町１４番地１株式会社盛田（7420001006699）に合併し解散,2015-10-05,1,,,,,プライムフィールド,0
888,3470001007259,登記記録の閉鎖等,0,2021-08-13,2021-08-11,榮進電工株式会社,,株式会社,香川県,丸亀市,郡家町２０８３番地１１,,37,202,7630093,,,2021-08-11,清算の結了等,,,2015-10-05,1,,,,,エイシンデンコウ,0
894,3500001012924,登記記録の閉鎖等,0,2021-08-13,2021-08-11,住徳汽船株式会社,,株式会社,愛媛県,今治市,吉海町名５１１５番地,,38,202,7942114,,,2021-08-11,清算の結了等,,,2015-10-05,1,,,,,スミトクキセン,0
906,4010002028209,登記記録の閉鎖等,0,2021-08-13,2021-08-04,有限会社宇野コーポレーション,,有限会社,埼玉県,草加市,吉町１丁目４番２２－９号,,11,221,3400017,,,2021-08-04,清算の結了等,,,2015-10-05,1,,,,,ウノコーポレーション,0
942,4010902015818,登記記録の閉鎖等,0,2021-08-13,2021-08-11,ユーロ・デザイン有限会社,,有限会社,東京都,世田谷区,成城９丁目３０番１２号,,13,112,1570066,,,2021-08-11,清算の結了等,,,2015-10-05,1,,,,,,0
952,4011001134022,登記記録の閉鎖等,0,2021-08-13,2021-08-03,株式会社ＳＵＰＥＲ　ＢＩＲＤ,,株式会社,東京都,目黒区,下目黒２丁目２３番１８号目黒山手通ビル８階,,13,110,1530064,,,2021-08-03,清算の結了等,,,2020-05-26,1,,,,,スーパーバード,0
959,4011002012714,登記記録の閉鎖等,0,2021-08-13,2021-07-15,有限会社ジェラン,,有限会社,東京都,渋谷区,幡ヶ谷２丁目３８番１－１１２号,,13,113,1510072,,,2021-07-15,清算の結了等,,,2015-10-05,1,,,,,ジェラン,0
960,4011101049822,登記記録の閉鎖等,0,2021-08-13,2021-08-02,ライトアップ株式会社,,株式会社,東京都,新宿区,新宿５丁目１８番２０号,,13,104,1600022,,,2021-08-02,清算の結了等,,,2015-10-05,1,,,,,ライトアップ,0
970,4011301023684,登記記録の閉鎖等,0,2021-08-13,2021-08-04,ＢＪ　ＨＯＬＤＩＮＧ株式会社,,株式会社,東京都,杉並区,高円寺南４丁目７番１－３０２号,,13,115,1660003,,,2021-08-04,清算の結了等,,,2017-12-04,1,,,,,ビージェーホールディング,0
979,4012302005060,登記記録の閉鎖等,0,2021-08-13,2021-07-30,有限会社ヨコスカドアサービス,,有限会社,東京都,町田市,三輪町３５０番地６,,13,209,1950054,,,2021-07-30,清算の結了等,,,2015-10-05,1,,,,,,0
985,4013201001233,登記記録の閉鎖等,0,2021-08-13,2021-08-02,株式会社小倉エンヂニアリング,,株式会社,東京都,目黒区,原町２丁目２番４号,,13,110,1520011,,,2021-08-02,清算の結了等,,,2015-10-05,1,,,,,オグラエンヂニアリング,0
1000,4020002055689,登記記録の閉鎖等,0,2021-08-13,2021-08-03,有限会社ディード,,有限会社,神奈川県,横浜市緑区,北八朔町１４１０番地１６,,14,113,2260021,,,2021-08-03,清算の結了等,,,2015-10-05,1,,,,,ディード,0
1005,4020003016392,登記記録の閉鎖等,0,2021-08-13,2021-08-03,合同会社Ｕｋｉｇｕｍｏ,,合同会社,神奈川県,川崎市宮前区,神木２丁目３番地８,,14,136,2160032,,,2021-08-03,清算の結了等,,,2019-07-22,1,,,,,ウキグモ,0
1009,4021002008942,登記記録の閉鎖等,0,2021-08-13,2021-08-04,有限会社志田工務店,,有限会社,神奈川県,藤沢市,並木台２丁目１２番地の６,,14,205,2510005,,,2021-08-04,清算の結了等,,,2015-10-05,1,,,,,シダコウムテン,0
1029,4050002034161,登記記録の閉鎖等,0,2021-08-13,2021-08-05,有限会社東装飾,,有限会社,茨城県,稲敷市,本新５３８番地,,08,229,3000731,,,2021-08-05,清算の結了等,,,2015-10-05,1,,,,,アズマソウショク,0
1048,4120001152089,登記記録の閉鎖等,0,2021-08-13,2021-08-04,株式会社サクラス,,株式会社,大阪府,枚方市,茄子作１丁目１２番２９号,,27,210,5730071,,,2021-08-04,清算の結了等,,,2015-10-05,1,,,,,サクラス,0
1063,4120003014329,登記記録の閉鎖等,0,2021-08-13,2021-08-04,合同会社Ｓｎｏｗ　ｂａｌｌ,,合同会社,兵庫県,宝塚市,湯本町４番２６－５０２号,,28,214,6650003,,,2021-08-04,清算の結了等,,,2018-05-29,1,,,,,スノーボール,0
1087,4150001006572,登記記録の閉鎖等,0,2021-08-13,2021-08-06,大洋工業株式会社,,株式会社,奈良県,天理市,西長柄町６９３番地,,29,204,6320063,,,2021-08-06,清算の結了等,,,2015-10-05,1,,,,,タイヨウコウギョウ,0
1089,4150005002378,登記記録の閉鎖等,0,2021-08-13,2021-08-04,天現遍照教教会本部,,その他の設立登記法人,奈良県,生駒市,元町２丁目６番１１号,,29,209,6300257,,,2021-08-04,清算の結了等,,,2015-10-05,1,,,,,テンゲンヘンジョウキョウキョウカイホンブ,0
1120,4200005002892,登記記録の閉鎖等,0,2021-08-13,2021-07-27,特定非営利活動法人ＧＫサポーターズ,,その他の設立登記法人,岐阜県,岐阜市,又丸村中３７番地１,,21,201,5011157,,,2021-07-27,清算の結了等,,,2015-10-05,1,,,,,ジーケーサポーターズ,0
1121,4220001001814,登記記録の閉鎖等,0,2021-08-13,2021-08-04,観田共同木材株式会社,,株式会社,石川県,金沢市,湊２丁目３０番地１,,17,201,9200211,,,2021-08-04,清算の結了等,,,2015-10-05,1,,,,,カンダキョウドウモクザイ,0
1123,4220005005860,登記記録の閉鎖等,0,2021-08-13,2021-06-18,明照寺,,その他の設立登記法人,石川県,輪島市,輪島崎町３部８番地,,17,204,9280071,,,2021-06-18,合併による解散等,3220005005861,令和３年６月１８日石川県輪島市輪島崎町３部１１番地浄明寺（3220005005861）に合併し解散,2015-10-05,1,,,,,,0
1125,4230001017066,登記記録の閉鎖等,0,2021-08-13,2021-08-03,株式会社さくら,,株式会社,富山県,富山市,二口町５丁目９番地１,,16,201,9398211,,,2021-08-03,清算の結了等,,,2017-08-02,1,,,,,サクラ,0
1135,4270001005372,登記記録の閉鎖等,0,2021-08-13,2021-08-03,嶋田米穀株式会社,,株式会社,鳥取県,倉吉市,不入岡８５番地１,,31,203,6820915,,,2021-08-03,清算の結了等,,,2015-10-05,1,,,,,シマダベイコク,0
1157,4330002021197,登記記録の閉鎖等,0,2021-08-13,2021-08-05,有限会社松岡薬の店,,有限会社,熊本県,玉名市,亀甲７９番地の４,,43,206,8650015,,,2021-08-05,清算の結了等,,,2015-10-05,1,,,,,マツオカクスリノミセ,0
1158,4330002029439,登記記録の閉鎖等,0,2021-08-13,2021-08-10,有限会社堀江瓦工業所,,有限会社,熊本県,上天草市,姫戸町二間戸３８６２番地５１,,43,212,8660102,,,2021-08-10,清算の結了等,,,2015-10-05,1,,,,,ホリエカワラコウギョウショ,0
1159,4340001000647,登記記録の閉鎖等,0,2021-08-13,2021-08-03,株式会社エムエスケイ,,株式会社,鹿児島県,鹿児島市,谷山中央２丁目４１３６番地,,46,201,8910141,,,2021-08-03,清算の結了等,,,2015-10-05,1,,,,,エムエスケイ,0
1160,4340002014175,登記記録の閉鎖等,0,2021-08-13,2021-08-02,有限会社松元企画,,有限会社,鹿児島県,霧島市,国分下井１８３７番地,,46,218,8994463,,,2021-08-02,清算の結了等,,,2015-10-05,1,,,,,マツモトキカク,0
1172,4380001015006,登記記録の閉鎖等,0,2021-08-13,2021-08-05,帝国コンサルティング株式会社,,株式会社,福島県,いわき市,平上山口字榎町２２番地,,07,204,9700225,,,2021-08-05,清算の結了等,,,2015-10-05,1,,,,,テイコクコンサルティング,0
1173,4380002023619,登記記録の閉鎖等,0,2021-08-13,2021-08-04,有限会社ゴリラガードセキュリティ,,有限会社,福島県,いわき市,錦町中迎４丁目７番地２,,07,204,9748232,,,2021-08-04,清算の結了等,,,2015-10-05,1,,,,,ゴリラガードセキュリティ,0
1179,4430001067108,登記記録の閉鎖等,0,2021-08-13,2021-07-30,株式会社みよし千歳,,株式会社,北海道,千歳市,柏台南１丁目１番地９,,01,224,0660009,,,2021-07-30,清算の結了等,,,2015-10-05,1,,,,,ミヨシセンサイ,0
1188,4440001007822,登記記録の閉鎖等,0,2021-08-13,2021-08-11,函館日吉福祉コミュニティ開発株式会社,,株式会社,北海道,函館市,海岸町９番２３号,,01,202,0400061,,,2021-08-11,清算の結了等,,,2016-01-29,1,,,,,ハコダテヒヨシフクシコミュニティカイハツ,0
1206,5010001140194,登記記録の閉鎖等,0,2021-08-13,2021-08-03,ＦＣパートナーズ株式会社,,株式会社,東京都,千代田区,麹町１丁目４番地,,13,101,1020083,,,2021-08-03,合併による解散等,7010001140218,令和３年８月１日東京都千代田区麹町一丁目４番地株式会社ファンドクリエーション（7010001140218）に合併し解散,2015-10-05,1,,,,,エフシーパートナーズ,0
1207,5010001180604,登記記録の閉鎖等,0,2021-08-13,2021-07-30,株式会社花侖,,株式会社,東京都,千代田区,九段南１丁目５番６号,,13,101,1020074,,,2021-07-30,清算の結了等,,,2017-01-12,1,,,,,カロン,0
1211,5010003025699,登記記録の閉鎖等,0,2021-08-13,2021-08-02,合同会社Ｙ・ｃｏｒｐｏｒａｔｉｏｎ,,合同会社,東京都,中央区,月島４丁目８番１５－３０８号,,13,102,1040052,,,2021-08-02,清算の結了等,,,2017-07-24,1,,,,,ワイコーポレーション,0
1263,5011201001863,登記記録の閉鎖等,0,2021-08-13,2021-08-02,三和印刷株式会社,,株式会社,東京都,中野区,鷺宮４丁目１０７０番地,,13,114,1650032,,,2021-08-02,清算の結了等,,,2015-10-05,1,,,,,サンワインサツ,0
1269,5011703002707,登記記録の閉鎖等,0,2021-08-13,2021-08-06,ＶＡ　Ｉｎｖｅｓｔｍｅｎｔ合同会社,,合同会社,東京都,江戸川区,中葛西８丁目１１番１８号,,13,123,1340083,,,2021-08-06,清算の結了等,,,2020-11-26,1,,,,,ブイエーインベストメント,0
1272,5011802013951,登記記録の閉鎖等,0,2021-08-13,2021-08-11,有限会社清水タイル工業所,,有限会社,東京都,足立区,六木４丁目２番１６号,,13,121,1210052,,,2021-08-11,清算の結了等,,,2015-10-05,1,,,,,シミズタイルコウギョウショ,0
1276,5012401015199,登記記録の閉鎖等,0,2021-08-13,2021-08-04,株式会社けんこう舍,,株式会社,東京都,調布市,富士見町４丁目３０番地２,,13,208,1820033,,,2021-08-04,清算の結了等,,,2015-10-05,1,,,,,ケンコウシャ,0
1279,5012701015270,登記記録の閉鎖等,0,2021-08-13,2021-08-06,株式会社Ｎプラス,,株式会社,東京都,東久留米市,滝山２丁目１番２２号,,13,222,2030033,,,2021-08-06,清算の結了等,,,2019-03-28,1,,,,,エヌプラス,0
1293,5020001081933,登記記録の閉鎖等,0,2021-08-13,2021-08-04,株式会社リーディングクラフト,,株式会社,神奈川県,川崎市中原区,市ノ坪３６９番地６,,14,133,2110016,,,2021-08-04,清算の結了等,,,2015-10-05,1,,,,,リーディングクラフト,0
1295,5020001118248,登記記録の閉鎖等,0,2021-08-13,2021-07-28,株式会社Ｋ１,,株式会社,東京都,町田市,南成瀬３丁目１番２６号,,13,209,1940045,,,2021-07-28,清算の結了等,,,2016-10-14,1,,,,,ケイワン,0
1306,5021002016052,登記記録の閉鎖等,0,2021-08-13,2021-08-04,有限会社にいみ,,有限会社,神奈川県,鎌倉市,大船３丁目１５番１６号,,14,204,2470056,,,2021-08-04,清算の結了等,,,2015-10-05,1,,,,,ニイミ,0
1311,5030001037942,登記記録の閉鎖等,0,2021-08-13,2021-08-02,株式会社ジュノオエンタープライズ,,株式会社,埼玉県,草加市,旭町６丁目１５番２２号,,11,221,3400053,,,2021-08-02,清算の結了等,,,2015-10-05,1,,,,,ジュノオエンタープライズ,0
1336,5050001002622,登記記録の閉鎖等,0,2021-08-13,2021-08-04,株式会社ミツマサ,,株式会社,茨城県,水戸市,千波町２２７９番地の１７,,08,201,3100851,,,2021-08-04,清算の結了等,,,2015-10-05,1,,,,,ミツマサ,0
1349,5080101014432,登記記録の閉鎖等,0,2021-08-13,2021-07-01,株式会社伊豆観光ホテル,,株式会社,静岡県,下田市,白浜２７３２番地の７,,22,219,4150012,,,2021-07-01,合併による解散等,4080101013261,令和３年７月１日静岡県伊東市八幡野１１５１番地株式会社伊豆急コミュニティー（4080101013261）に合併し解散,2015-10-05,1,,,,,イズカンコウホテル,0
1353,5080402002945,登記記録の閉鎖等,0,2021-08-13,2021-08-12,有限会社小島歯車製作所,,有限会社,静岡県,浜松市中区,佐藤１丁目１１番１７号,,22,131,4300807,,,2021-08-12,清算の結了等,,,2015-10-05,1,,,,,コジマハグルマセイサクショ,0
1358,5110001029064,登記記録の閉鎖等,0,2021-08-13,2021-08-05,株式会社武蔵システム,,株式会社,新潟県,長岡市,中島２丁目１番２１号,,15,202,9400094,,,2021-08-05,清算の結了等,,,2015-10-05,1,,,,,ムサシシステム,0
1359,5110001031326,登記記録の閉鎖等,0,2021-08-13,2021-08-05,株式会社ｎａｎａ　ｐａｒｔ,,株式会社,新潟県,上越市,東城町１丁目１４番１２号,,15,222,9430836,,,2021-08-05,清算の結了等,,,2016-03-09,1,,,,,ナナパート,0
1363,5120001031399,登記記録の閉鎖等,0,2021-08-13,2021-07-01,日建設備工業株式会社,,株式会社,大阪府,大阪市天王寺区,上本町５丁目１番５号,,27,109,5430001,,,2021-07-01,合併による解散等,5120001025707,令和３年７月１日大阪市天王寺区上本町五丁目１番５号雄健建設株式会社（5120001025707）に合併し解散,2015-10-05,1,,,,,ニッケンセツビコウギョウ,0
1379,5120905004434,登記記録の閉鎖等,0,2021-08-13,2021-08-10,特定非営利活動法人産業技術資料保存調査会,,その他の設立登記法人,大阪府,豊中市,岡町北１丁目３番２２号,,27,203,5610884,,,2021-08-10,清算の結了等,,,2015-10-05,1,,,,,サンギョウギジュツシリョウホゾンチョウサカイ,0
1385,5130001028857,登記記録の閉鎖等,0,2021-08-13,2021-08-05,イチセ商事株式会社,,株式会社,京都府,京都市右京区,山ノ内西裏町２０－３エクセレンス山ノ内１０１,,26,108,6150071,,,2021-08-05,清算の結了等,,,2015-10-05,1,,,,,イチセショウジ,0
1396,5150002002314,登記記録の閉鎖等,0,2021-08-13,2021-08-10,有限会社ワイユー堀部紙器,,有限会社,奈良県,奈良市,東登美ヶ丘６丁目２３番１１号,,29,201,6310002,,,2021-08-10,清算の結了等,,,2015-10-05,1,,,,,ワイユーホリベシキ,0
1402,5180001053545,登記記録の閉鎖等,0,2021-08-13,2021-08-02,株式会社１２３,,株式会社,愛知県,名古屋市中川区,供米田３丁目１８０７番地,,23,110,4540984,,,2021-08-02,合併による解散等,3180001103590,令和３年８月１日愛知県東海市東海町二丁目６番地５株式会社平洲（3180001103590）に合併し解散,2015-10-05,1,,,,,ヒフミ,0
1423,5180302027132,登記記録の閉鎖等,0,2021-08-13,2021-08-12,有限会社ラディッシュ,,有限会社,愛知県,西尾市,巨海町南河原３８番地,,23,213,4440322,,,2021-08-12,清算の結了等,,,2015-10-05,1,,,,,ラディッシュ,0
1433,5230002013088,登記記録の閉鎖等,0,2021-08-13,2021-08-03,藤下プラスチック有限会社,,有限会社,富山県,氷見市,窪２０７６番地,,16,205,9350024,,,2021-08-03,清算の結了等,,,2015-10-05,1,,,,,フジシタプラスチック,0
1439,5250005006319,登記記録の閉鎖等,0,2021-08-13,2021-08-10,医療法人社団松原医院,,その他の設立登記法人,山口県,岩国市,錦町広瀬６６９１番地,,35,208,7400724,,,2021-08-10,清算の結了等,,,2015-10-05,1,,,,,マツバライイン,0
1451,5290002035556,登記記録の閉鎖等,0,2021-08-13,2021-07-19,有限会社リラス,,有限会社,福岡県,宗像市,自由ヶ丘２丁目１６番地８,,40,220,8114163,,,2021-07-19,清算の結了等,,,2015-10-05,1,,,,,リラス,0
1455,5300002010499,登記記録の閉鎖等,0,2021-08-13,2021-07-30,有限会社ツルヤ,,有限会社,佐賀県,唐津市,呉服町１７９２番地１,,41,202,8470052,,,2021-07-30,清算の結了等,,,2015-10-05,1,,,,,ツルヤ,0
1458,5320005007078,登記記録の閉鎖等,0,2021-08-13,2021-08-10,日田椎茸商業協同組合,,その他の設立登記法人,大分県,日田市,大字西有田２７４番地の１,,44,204,8770000,,,2021-08-10,清算の結了等,,,2015-10-05,1,,,,,ヒタシイタケショウギョウ,0
1467,5330002023928,登記記録の閉鎖等,0,2021-08-13,2021-08-10,有限会社古川商店,,有限会社,熊本県,宇城市,松橋町大野５番地の４,,43,213,8690531,,,2021-08-10,清算の結了等,,,2015-10-05,1,,,,,フルカワショウテン,0
1469,5340001009448,登記記録の閉鎖等,0,2021-08-13,2021-08-02,株式会社オーシャン,,株式会社,鹿児島県,指宿市,西方４８２番地１,,46,210,8910311,,,2021-08-02,清算の結了等,,,2015-10-05,1,,,,,オーシャン,0
1490,5380003004410,登記記録の閉鎖等,0,2021-08-13,2021-08-05,合同会社ライスプラント只見,,合同会社,福島県,南会津郡只見町,大字蒲生字小八木沢２５６番地１,,07,367,9680414,,,2021-08-05,清算の結了等,,,2019-02-06,1,,,,,ライスプラントタダミ,0
1512,5490005003795,登記記録の閉鎖等,0,2021-08-13,2021-08-12,林産協同組合維森,,その他の設立登記法人,高知県,高岡郡檮原町,田野々７８０番地,,39,405,7850607,,,2021-08-12,清算の結了等,,,2015-10-05,1,,,,,リンサンキョウドウクミアイイシン,0
1514,5500002018662,登記記録の閉鎖等,0,2021-08-13,2021-08-11,有限会社タマイ,,有限会社,愛媛県,今治市,片山１丁目６番１号,,38,202,7940063,,,2021-08-11,清算の結了等,,,2015-10-05,1,,,,,タマイ,0
1552,6010901033315,登記記録の閉鎖等,0,2021-08-13,2021-08-02,株式会社ウェル,,株式会社,東京都,千代田区,九段北４丁目１番５号市ヶ谷法曹ビル４０７,,13,101,1020073,,,2021-08-02,清算の結了等,,,2015-10-05,1,,,,,ウェル,0
1575,6011005002124,登記記録の閉鎖等,0,2021-08-13,2021-07-26,特定非営利活動法人日本学生スポーツ・音楽振興協議会,,その他の設立登記法人,東京都,渋谷区,桜丘町４番１４号ＶＯＲＴ渋谷桜丘ビル５階,,13,113,1500031,,,2021-07-26,清算の結了等,,,2015-10-05,1,,,,,ニホンガクセイスポーツオンガクシンコウキョウギカイ,0
1580,6011105009250,登記記録の閉鎖等,0,2021-08-13,2021-07-30,一般社団法人ジェイ・エイチ・イー,,その他の設立登記法人,東京都,新宿区,下宮比町１番４号,,13,104,1620822,,,2021-07-30,清算の結了等,,,2020-02-14,1,,,,,ジェイエイチイー,0
1588,6011702011567,登記記録の閉鎖等,0,2021-08-13,2021-08-06,有限会社メカトロサイエンス,,有限会社,東京都,江戸川区,東小岩１丁目６番２４号,,13,123,1330052,,,2021-08-06,清算の結了等,,,2015-10-05,1,,,,,,0
1592,6011805001168,登記記録の閉鎖等,0,2021-08-13,2021-08-10,東京都ソース工業協同組合,,その他の設立登記法人,東京都,葛飾区,青戸３丁目２番２号,,13,122,1250062,,,2021-08-10,清算の結了等,,,2015-10-05,1,,,,,トウキョウトソースコウギョウ,0
1600,6013301004126,登記記録の閉鎖等,0,2021-08-13,2021-08-06,株式会社三英建設,,株式会社,東京都,豊島区,巣鴨４丁目２８番１５号,,13,116,1700002,,,2021-08-06,清算の結了等,,,2015-10-05,1,,,,,,0
1618,6030001007300,登記記録の閉鎖等,0,2021-08-13,2021-08-05,株式会社プライム・インフォメーション,,株式会社,埼玉県,さいたま市浦和区,高砂４丁目１番１号,,11,107,3300063,,,2021-08-05,清算の結了等,,,2015-10-05,1,,,,,プライムインフォメーション,0
1619,6030001039665,登記記録の閉鎖等,0,2021-08-13,2021-07-30,株式会社マルニ商会,,株式会社,埼玉県,三郷市,彦川戸１丁目３０番地１,,11,237,3410005,,,2021-07-30,清算の結了等,,,2015-10-05,1,,,,,マルニショウカイ,0
1641,6040003009277,登記記録の閉鎖等,0,2021-08-13,2021-08-03,サナップホーム合同会社,,合同会社,千葉県,木更津市,中野４５番地５,,12,206,2920002,,,2021-08-03,清算の結了等,,,2016-11-10,1,,,,,サナップホーム,0
1647,6060001019061,登記記録の閉鎖等,0,2021-08-13,2021-08-03,株式会社早川文具,,株式会社,栃木県,足利市,問屋町１５３５番地９,,09,202,3260333,,,2021-08-03,清算の結了等,,,2015-10-05,1,,,,,ハヤカワブング,0
1660,6080101014431,登記記録の閉鎖等,0,2021-08-13,2021-07-01,株式会社伊豆急物産,,株式会社,静岡県,伊東市,八幡野１１５１番地,,22,208,4130232,,,2021-07-01,合併による解散等,4080101013261,令和３年７月１日静岡県伊東市八幡野１１５１番地株式会社伊豆急コミュニティー（4080101013261）に合併し解散,2015-10-05,1,,,,,イズキュウブッサン,0
1666,6080402009139,登記記録の閉鎖等,0,2021-08-13,2021-08-12,有限会社池田精工,,有限会社,静岡県,湖西市,大知波３０７番地の１,,22,221,4310403,,,2021-08-12,清算の結了等,,,2015-10-05,1,,,,,イケダセイコウ,0
1683,6120101037361,登記記録の閉鎖等,0,2021-08-13,2021-08-10,日本スチール株式会社,,株式会社,大阪府,岸和田市,臨海町１１番地,,27,202,5960013,,,2021-08-10,合併による解散等,1120001028390,令和３年８月１日大阪市大正区南恩加島一丁目９番３号大阪製鐵株式会社（1120001028390）に合併し解散,2015-10-05,1,,,,,ニホンスチール,0
1697,6130003006926,登記記録の閉鎖等,0,2021-08-13,2021-08-10,合同会社ＭｏｒｐｈｅＴｅｃｈ,,合同会社,京都府,京都市左京区,田中里ノ内町１５、３０５号,,26,103,6068212,,,2021-08-10,清算の結了等,,,2020-12-11,1,,,,,,0
1705,6140003012923,登記記録の閉鎖等,0,2021-08-13,2021-08-05,ＫＳ工業合同会社,,合同会社,兵庫県,姫路市,広畑区西蒲田２５３番地,,28,201,6711107,,,2021-08-05,清算の結了等,,,2018-04-19,1,,,,,ケーエスコウギョウ,0
1719,6180002048766,登記記録の閉鎖等,0,2021-08-13,2021-08-06,有限会社宮里デザイン事務所,,有限会社,愛知県,名古屋市緑区,桶狭間西１６７番地,,23,114,4580929,,,2021-08-06,清算の結了等,,,2015-10-05,1,,,,,ミヤサトデザインジムショ,0
1726,6180302019038,登記記録の閉鎖等,0,2021-08-13,2021-08-12,有限会社宮園興業,,有限会社,愛知県,刈谷市,今岡町宮丘８１番地１,,23,210,4480008,,,2021-08-12,清算の結了等,,,2015-10-05,1,,,,,ミヤゾノコウギョウ,0
1732,6210001016349,登記記録の閉鎖等,0,2021-08-13,2021-08-05,株式会社Ｄｏｒｎｏｃｈ,,株式会社,福井県,あわら市,市姫２丁目２８番５号,,18,208,9190621,,,2021-08-05,清算の結了等,,,2016-05-17,1,,,,,ドアノック,0
1764,6300001011571,登記記録の閉鎖等,0,2021-08-13,2021-08-02,株式会社Ｓｙｎｋ’ｓ,,株式会社,佐賀県,鳥栖市,大正町８２８番地サンパーク鳥栖中央公園テラス１０２,,41,203,8410032,,,2021-08-02,清算の結了等,,,2019-01-18,1,,,,,シンクス,0
1767,6310001001935,登記記録の閉鎖等,0,2021-08-13,2021-07-01,ページワンプランニング株式会社,,株式会社,長崎県,長崎市,恵美須町４番５号,,42,201,8500056,,,2021-07-01,合併による解散等,6310001000251,令和３年７月１日長崎市上町１番３５号株式会社ＮＢＣソシア（6310001000251）に合併し解散,2015-10-05,1,,,,,ページワンプランニング,0
1773,6330002024891,登記記録の閉鎖等,0,2021-08-13,2021-08-06,有限会社ケイ製作所,,有限会社,熊本県,熊本市南区,城南町坂野２１３６番地,,43,104,8614201,,,2021-08-06,清算の結了等,,,2015-10-05,1,,,,,ケイセイサクショ,0
1778,6350005003924,登記記録の閉鎖等,0,2021-08-13,2021-08-10,花木地区振興事業協同組合,,その他の設立登記法人,宮崎県,都城市,山之口町花木２０３９番地６,,45,202,8891802,,,2021-08-10,清算の結了等,,,2015-10-05,1,,,,,ハナノキチクシンコウ,0
1785,6370002008263,登記記録の閉鎖等,0,2021-08-13,2021-08-02,有限会社ナガオ産業,,有限会社,宮城県,仙台市宮城野区,蒲生字小田切２３５,,04,102,9830002,,,2021-08-02,清算の結了等,,,2015-10-05,1,,,,,ナガオサンギョウ,0
1786,6370302001760,登記記録の閉鎖等,0,2021-08-13,2021-08-02,有限会社中里薬局調剤センター,,有限会社,宮城県,石巻市,中里２丁目１２番１号,,04,202,9860815,,,2021-08-02,清算の結了等,,,2015-10-05,1,,,,,ナカザトヤッキョクチョウザイセンター,0
1790,6380002011679,登記記録の閉鎖等,0,2021-08-13,2021-08-02,有限会社樋口商事,00083586,有限会社,福島県,郡山市,富田町字大十内８５番地の２７２,,07,203,9638041,,,2021-08-02,清算の結了等,,,2015-10-05,1,,,,,ヒグチショウジ,0
1792,6420001013738,登記記録の閉鎖等,0,2021-08-13,2021-07-07,ソーラーパワー鰺ヶ沢株式会社,,株式会社,青森県,西津軽郡鰺ヶ沢町,大字北浮田町字外馬屋１９２番地１,,02,321,0382701,,,2021-07-07,合併による解散等,5370001009362,令和３年７月１日仙台市青葉区一番町三丁目７番１号東北自然エネルギー株式会社（5370001009362）に合併し解散,2015-10-05,1,,,,,ソーラーパワーアジガサワ,0
1794,6430001040343,登記記録の閉鎖等,0,2021-08-13,2021-08-02,株式会社ライフ・プラン,,株式会社,北海道,札幌市豊平区,月寒中央通１０丁目６番１５号,,01,105,0620020,,,2021-08-02,清算の結了等,,,2015-10-05,1,,,,,ライフプラン,0
1823,7010403024019,登記記録の閉鎖等,0,2021-08-13,2021-07-30,ＰＥ　ＳＡＮＤＡ合同会社,,合同会社,東京都,港区,六本木３丁目２番１号六本木グランドタワー,,13,103,1060032,,,2021-07-30,合併による解散等,6010403020101,令和３年７月３０日東京都港区六本木三丁目２番１号六本木グランドタワーパシフィコ・エナジー三田合同会社（6010403020101）に合併し解散,2020-10-28,1,,,,,ピーイーサンダ,0
1829,7010701032796,登記記録の閉鎖等,0,2021-08-13,2021-08-12,株式会社スーパースピード,,株式会社,東京都,品川区,大崎１丁目２番３号,,13,109,1410032,,,2021-08-12,清算の結了等,,,2016-07-29,1,,,,,スーパースピード,0
1837,7011001093793,登記記録の閉鎖等,0,2021-08-13,2021-08-02,株式会社ログバー,,株式会社,東京都,渋谷区,神南１丁目１２番１４号,,13,113,1500041,,,2021-08-02,清算の結了等,,,2015-10-05,1,,,,,ログバー,0
1842,7011001116819,登記記録の閉鎖等,0,2021-08-13,2021-08-02,株式会社ｉＴＯＮＹ　ＭＡＮＡＧＥＭＥＮＴ,,株式会社,東京都,目黒区,大橋１丁目３－９フェイスビル４Ｆ,,13,110,1530044,,,2021-08-02,清算の結了等,,,2017-06-13,1,,,,,アイトニーマネジメント,0
1844,7011003004765,登記記録の閉鎖等,0,2021-08-13,2021-07-26,合同会社ＳＬＦ,,合同会社,東京都,渋谷区,渋谷３丁目１番９号Ｙａｚａｗａビル４階,,13,113,1500002,,,2021-07-26,清算の結了等,,,2015-10-05,1,,,,,エスエルエフ,0
1866,7013105001137,登記記録の閉鎖等,0,2021-08-13,2021-08-10,住江町商店街振興組合,,その他の設立登記法人,東京都,青梅市,住江町６３番地,,13,205,1980084,,,2021-08-10,清算の結了等,,,2015-10-05,1,,,,,スミエチョウ,0
1883,7021002050033,登記記録の閉鎖等,0,2021-08-13,2021-08-02,有限会社サンヘルス,,有限会社,神奈川県,足柄下郡湯河原町,中央１丁目１４番地の１１,,14,384,2590301,,,2021-08-02,清算の結了等,,,2015-10-05,1,,,,,サンヘルス,0
1887,7030001067574,登記記録の閉鎖等,0,2021-08-13,2021-08-04,株式会社福籠建設,,株式会社,埼玉県,越谷市,大字平方２３２４番地１,,11,222,3430002,,,2021-08-04,清算の結了等,,,2015-10-05,1,,,,,フクロウケンセツ,0
1913,7040002066005,登記記録の閉鎖等,0,2021-08-13,2021-08-02,有限会社伊藤ボーリング,,有限会社,千葉県,木更津市,清見台３丁目７番１１号,,12,206,2920045,,,2021-08-02,清算の結了等,,,2015-10-05,1,,,,,イトウボーリング,0
1924,7050003004771,登記記録の閉鎖等,0,2021-08-13,2021-08-05,ＢＦＣコネクト合同会社,,合同会社,茨城県,日立市,助川町１丁目８－１０助川センタービル２０１,,08,202,3170065,,,2021-08-05,清算の結了等,,,2019-07-31,1,,,,,ビーエフシーコネクト,0
1926,7050005003929,登記記録の閉鎖等,0,2021-08-13,2021-08-06,特定非営利活動法人筑波山環境クラブ,,その他の設立登記法人,茨城県,石岡市,小幡１８３６番地,,08,205,3150155,,,2021-08-06,清算の結了等,,,2015-10-05,1,,,,,ツクバサンカンキョウクラブ,0
1929,7060002016635,登記記録の閉鎖等,0,2021-08-13,2021-08-03,有限会社丸天高瀨酒店,00024468,有限会社,栃木県,塩谷郡塩谷町,大字玉生４３５番地１,,09,384,3292221,,,2021-08-03,清算の結了等,,,2015-10-05,1,,,,,マルテンタカセサケテン,0
1952,7120001225486,登記記録の閉鎖等,0,2021-08-13,2021-07-26,Ｓｕｐｒｉｅｖｅ　Ｔｅｃｈｎｏｌｏｇｙ株式会社,,株式会社,大阪府,大阪市北区,太融寺町１番１７号梅田アスカビル６階,,27,127,5300051,,,2021-07-26,清算の結了等,,,2019-12-02,1,,,,,スプリーブテクノロジー,0
1981,7140001020506,登記記録の閉鎖等,0,2021-08-13,2021-08-06,株式会社ダックス建築事務所,,株式会社,兵庫県,神戸市東灘区,向洋町中６丁目９番地神戸ファッションマート２階２Ｓ－０６,,28,101,6580032,,,2021-08-06,清算の結了等,,,2015-10-05,1,,,,,ダックスケンチクジムショ,0
1983,7140002037598,登記記録の閉鎖等,0,2021-08-13,2021-08-04,東樽喜有限会社,00040984,有限会社,兵庫県,加古郡播磨町,本荘４丁目３番１１号,,28,382,6750154,,,2021-08-04,清算の結了等,,,2015-10-05,1,,,,,ヒガシタルキ,0
2000,7180301023667,登記記録の閉鎖等,0,2021-08-13,2021-08-12,株式会社デイアクト,,株式会社,愛知県,西尾市,熊味町山畔１０番地１４,,23,213,4450071,,,2021-08-12,清算の結了等,,,2015-10-05,1,,,,,デイアクト,0
2016,7250001013309,登記記録の閉鎖等,0,2021-08-13,2021-08-10,株式会社くすの樹,,株式会社,山口県,下関市,彦島角倉町３丁目４番９号,,35,201,7500081,,,2021-08-10,清算の結了等,,,2015-10-05,1,,,,,クスノキ,0
2027,7300002001083,登記記録の閉鎖等,0,2021-08-13,2021-07-30,有限会社中島総合設備,,有限会社,佐賀県,佐賀市,南佐賀１丁目１６番６号,,41,201,8400016,,,2021-07-30,清算の結了等,,,2015-10-05,1,,,,,ナカシマソウゴウセツビ,0
2029,7330001015858,登記記録の閉鎖等,0,2021-08-13,2021-08-06,株式会社安民堂,,株式会社,熊本県,人吉市,土手町２５番地２,,43,203,8680057,,,2021-08-06,清算の結了等,,,2015-10-05,1,,,,,アンミンドウ,0
2052,7380001003998,登記記録の閉鎖等,0,2021-08-13,2021-08-05,株式会社アオ・デ・ライオン,,株式会社,福島県,福島市,飯坂町平野字戸野内２８番地の３,,07,201,9600231,,,2021-08-05,清算の結了等,,,2015-10-05,1,,,,,アオデライオン,0
2058,7400005007803,登記記録の閉鎖等,0,2021-08-13,2021-08-10,特定非営利活動法人Ｖｏｔｅｒ’ｓ　Ｐｏｒｔ,,その他の設立登記法人,岩手県,盛岡市,繋字湯ノ舘１２１番地１,,03,201,0200055,,,2021-08-10,清算の結了等,,,2017-06-19,1,,,,,ボーターズポート,0
2060,7410002011360,登記記録の閉鎖等,0,2021-08-13,2021-08-11,有限会社きんせい運転代行,,有限会社,秋田県,仙北郡美郷町,浪花字反橋７４番地,,05,434,0191501,,,2021-08-11,清算の結了等,,,2015-10-05,1,,,,,キンセイウンテンダイコウ,0
2089,8010401139800,登記記録の閉鎖等,0,2021-08-13,2021-07-30,株式会社ＶＩＤＰＯＯＬ,,株式会社,東京都,港区,赤坂１丁目１２番３２号,,13,103,1070052,,,2021-07-30,清算の結了等,,,2018-07-23,1,,,,,ビッドプール,0
2107,8010802006186,登記記録の閉鎖等,0,2021-08-13,2021-08-02,有限会社サンシャイン,,有限会社,東京都,大田区,大森北１丁目１５番６号,,13,111,1430016,,,2021-08-02,清算の結了等,,,2015-10-05,1,,,,,サンシャイン,0
2114,8011001108591,登記記録の閉鎖等,0,2021-08-13,2021-07-28,株式会社ＤＲＥＡＭ　ＳＱＵＡＲＥ,,株式会社,東京都,渋谷区,南平台町２番１２号,,13,113,1500036,,,2021-07-28,清算の結了等,,,2015-12-14,1,,,,,ドリームスクエア,0
2123,8011101057326,登記記録の閉鎖等,0,2021-08-13,2021-08-02,株式会社新宿南ビルディング,,株式会社,東京都,新宿区,新宿４丁目２番１１号,,13,104,1600022,,,2021-08-02,清算の結了等,,,2015-10-05,1,,,,,シンジュクミナミビルディング,0
2124,8011101074908,登記記録の閉鎖等,0,2021-08-13,2021-08-04,ブリアンテメンテ株式会社,,株式会社,東京都,杉並区,荻窪４丁目２８番９号,,13,115,1670051,,,2021-08-04,清算の結了等,,,2015-10-19,1,,,,,ブリアンテメンテ,0
2145,8012805002682,登記記録の閉鎖等,0,2021-08-13,2021-07-30,一般社団法人甲州マネジメント,,その他の設立登記法人,東京都,日野市,大字上田３３９番地の５,,13,212,1910014,,,2021-07-30,清算の結了等,,,2017-07-14,1,,,,,コウシュウマネジメント,0
2155,8020001060100,登記記録の閉鎖等,0,2021-08-13,2021-08-03,ツルエンジニアリング株式会社,,株式会社,神奈川県,横浜市旭区,今宿東町１５３０番地２,,14,112,2410032,,,2021-08-03,清算の結了等,,,2015-10-05,1,,,,,ツルエンジニアリング,0
2162,8020002035571,登記記録の閉鎖等,0,2021-08-13,2021-08-04,有限会社富士コーポレーション,,有限会社,神奈川県,横浜市港北区,大曽根３丁目１８番１２号,,14,109,2220003,,,2021-08-04,清算の結了等,,,2015-10-05,1,,,,,フジコーポレーション,0
2178,8030001130463,登記記録の閉鎖等,0,2021-08-13,2021-08-04,ＣＯＣＯＲＯ　ＦＩＴＮＥＳＳ株式会社,,株式会社,埼玉県,さいたま市岩槻区,上野６丁目１１番地２４,,11,110,3390073,,,2021-08-04,清算の結了等,,,2019-04-17,1,,,,,ココロフィットネス,0
2195,8060001006594,登記記録の閉鎖等,0,2021-08-13,2021-08-02,株式会社青い空コーポレーション,,株式会社,栃木県,宇都宮市,江曽島町１４１２番地２２,,09,201,3210102,,,2021-08-02,清算の結了等,,,2015-10-05,1,,,,,アオイソラコーポレーション,0
2201,8080401011820,登記記録の閉鎖等,0,2021-08-13,2021-08-10,株式会社河合システム研究所,,株式会社,静岡県,浜松市北区,細江町中川７１７２番地の１５８３,,22,135,4311304,,,2021-08-10,清算の結了等,,,2015-10-05,1,,,,,カワイシステムケンキュウジョ,0
2209,8110002010912,登記記録の閉鎖等,0,2021-08-13,2021-08-06,有限会社渡寅,,有限会社,新潟県,新潟市北区,森下１３０８番地,,15,101,9503368,,,2021-08-06,清算の結了等,,,2015-10-05,1,,,,,ワタトラ,0
2211,8120001030019,登記記録の閉鎖等,0,2021-08-13,2021-08-04,山田土地株式会社,,株式会社,大阪府,大阪市港区,波除３丁目２番７号,,27,107,5520001,,,2021-08-04,清算の結了等,,,2015-10-05,1,,,,,ヤマダトチ,0
2230,8120902020092,登記記録の閉鎖等,0,2021-08-13,2021-08-10,有限会社山室保険事務所,,有限会社,大阪府,豊中市,小曽根１丁目１１番７号,,27,203,5610813,,,2021-08-10,清算の結了等,,,2015-10-05,1,,,,,ヤマムロホケンジムショ,0
2234,8130002034975,登記記録の閉鎖等,0,2021-08-13,2021-08-11,有限会社ＡＩＷＡ　ｓｈｉｎｅ,,有限会社,京都府,舞鶴市,天台新町５番地,,26,202,6240909,,,2021-08-11,清算の結了等,,,2015-10-05,1,,,,,,0
2235,8130002035222,登記記録の閉鎖等,0,2021-08-13,2021-08-06,有限会社エムエス・エンターテイメント,,有限会社,京都府,京都市中京区,御幸町通御池上る亀屋町３８７番地ボンネール葵３０８,,26,104,6040941,,,2021-08-06,清算の結了等,,,2015-10-05,1,,,,,エムエスエンターテイメント,0
2249,8150002004704,登記記録の閉鎖等,0,2021-08-13,2021-08-06,有限会社京都山宇製茶,,有限会社,奈良県,奈良市,奈良阪町２２８７番地,,29,201,6308104,,,2021-08-06,清算の結了等,,,2015-10-05,1,,,,,キョウトヤマウセイチャ,0
2269,8180005017832,登記記録の閉鎖等,0,2021-08-13,2021-08-11,一般社団法人ＪＩＭＳ,,その他の設立登記法人,愛知県,豊明市,前後町大狭間１４４５番地２,,23,229,4701151,,,2021-08-11,清算の結了等,,,2018-05-29,1,,,,,ジムス,0
2278,8220003001486,登記記録の閉鎖等,0,2021-08-13,2021-08-04,合同会社輝け白山,,合同会社,石川県,白山市,鶴来本町２丁目ワ１２１番地,,17,210,9202121,,,2021-08-04,清算の結了等,,,2015-10-05,1,,,,,カガヤケハクサン,0
2298,8310001001925,登記記録の閉鎖等,0,2021-08-13,2021-07-01,株式会社プロダクシヨンナツプ,,株式会社,長崎県,長崎市,上町１番３５号,,42,201,8500054,,,2021-07-01,合併による解散等,6310001000251,令和３年７月１日長崎市上町１番３５号株式会社ＮＢＣソシア（6310001000251）に合併し解散,2015-10-05,1,,,,,プロダクシヨンナツプ,0
2338,8390001000572,登記記録の閉鎖等,0,2021-08-13,2021-08-06,株式会社小松ゴム商会,,株式会社,山形県,山形市,流通センター２丁目１１番２号,,06,201,9900071,,,2021-08-06,清算の結了等,,,2015-10-05,1,,,,,コマツゴムショウカイ,0
2341,8400002010255,登記記録の閉鎖等,0,2021-08-13,2021-08-10,有限会社金野工務店,,有限会社,岩手県,遠野市,上郷町板沢１１地割１２番地７,,03,208,0280776,,,2021-08-10,清算の結了等,,,2015-10-05,1,,,,,コンノコウムテン,0
2345,8430001004131,登記記録の閉鎖等,0,2021-08-13,2021-07-30,川上商事株式会社,,株式会社,北海道,札幌市中央区,北四条東２丁目８番２号,,01,101,0600034,,,2021-07-30,清算の結了等,,,2015-10-05,1,,,,,カワカミショウジ,0
2396,9010802012514,登記記録の閉鎖等,0,2021-08-13,2021-08-03,有限会社福本,,有限会社,東京都,大田区,北千束３丁目２番７号,,13,111,1450062,,,2021-08-03,清算の結了等,,,2015-10-05,1,,,,,フクモト,0
2400,9010901033436,登記記録の閉鎖等,0,2021-08-13,2021-08-03,株式会社ファルコ,,株式会社,東京都,世田谷区,等々力１丁目１６番１０号グランドール等々力１０１,,13,112,1580082,,,2021-08-03,清算の結了等,,,2015-10-05,1,,,,,,0
2457,9030001038598,登記記録の閉鎖等,0,2021-08-13,2021-07-29,株式会社　エープラン,,株式会社,埼玉県,八潮市,大字南川崎１２３番地１７,,11,234,3400814,,,2021-07-29,清算の結了等,,,2015-10-05,1,,,,,エープラン,0
2469,9030003014028,登記記録の閉鎖等,0,2021-08-13,2021-08-03,Ｂｕｓｈ＆Ｓｌｌａｓｈ合同会社,,合同会社,埼玉県,北足立郡伊奈町,内宿台２丁目４６番地,,11,301,3620812,,,2021-08-03,清算の結了等,,,2019-09-03,1,,,,,ブッシュアンドスラッシュ,0
2471,9040001074155,登記記録の閉鎖等,0,2021-08-13,2021-08-02,鴨川重機株式会社,,株式会社,千葉県,鴨川市,北小町５４２番地１,,12,223,2960101,,,2021-08-02,清算の結了等,,,2015-10-05,1,,,,,カモガワジュウキ,0
2475,9040002068874,登記記録の閉鎖等,0,2021-08-13,2021-08-02,有限会社旅館いいじま,,有限会社,千葉県,袖ケ浦市,奈良輪５０８番地,,12,229,2990263,,,2021-08-02,清算の結了等,,,2015-10-05,1,,,,,リョカンイイジマ,0
2477,9040003007559,登記記録の閉鎖等,0,2021-08-13,2021-08-02,合同会社ＪＵＮＯ　ＪＵＮＯ,,合同会社,千葉県,市川市,東菅野１丁目２番８号,,12,203,2720823,,,2021-08-02,清算の結了等,,,2015-10-05,1,,,,,ユノユノ,0
2483,9070002017523,登記記録の閉鎖等,0,2021-08-13,2021-08-10,有限会社盛喜庵,,有限会社,群馬県,藤岡市,藤岡甲３９９番地,,10,209,3750024,,,2021-08-10,清算の結了等,,,2015-10-05,1,,,,,セイキアン,0
2497,9110002020175,登記記録の閉鎖等,0,2021-08-13,2021-08-05,有限会社あさひ荘,,有限会社,新潟県,柏崎市,中浜１丁目５番６号,,15,205,9450852,,,2021-08-05,清算の結了等,,,2015-10-05,1,,,,,アサヒソウ,0
2512,9120002038019,登記記録の閉鎖等,0,2021-08-13,2021-08-04,有限会社ＦＯＲＭＯ,,有限会社,大阪府,大阪市西区,京町堀１丁目８番２２号,,27,106,5500003,,,2021-08-04,清算の結了等,,,2015-10-05,1,,,,,フォルモ,0
2533,9140005024699,登記記録の閉鎖等,0,2021-08-13,2021-08-11,特定非営利活動法人日中青少年交流企画,,その他の設立登記法人,兵庫県,神戸市中央区,磯上通４丁目１番１４号三宮スカイビル７階,,28,110,6510086,,,2021-08-11,清算の結了等,,,2019-07-12,1,,,,,ニッチュウセイショウネンコウリュウキカク,0
2547,9180002053994,登記記録の閉鎖等,0,2021-08-13,2021-08-05,有限会社竹内商店,,有限会社,愛知県,名古屋市東区,葵２丁目１０番２８号,,23,102,4610004,,,2021-08-05,清算の結了等,,,2015-10-05,1,,,,,タケウチショウテン,0
2549,9180301006521,登記記録の閉鎖等,0,2021-08-13,2021-08-10,大高建設株式会社,,株式会社,愛知県,豊橋市,緑ケ丘１丁目９番地２５,,23,201,4400005,,,2021-08-10,清算の結了等,,,2015-10-05,1,,,,,ダイコウケンセツ,0
2551,9180301018178,登記記録の閉鎖等,0,2021-08-13,2021-07-02,ＴＢクリエイトスタッフ株式会社,,株式会社,愛知県,豊田市,大島町前畑１番地の１,,23,211,4730935,,,2021-07-02,合併による解散等,3180301017929,令和３年７月１日愛知県豊田市大島町前畑１番地の１ＴＢコーポレートサービス株式会社（3180301017929）に合併し解散,2015-10-05,1,,,,,ティービークリエイトスタッフ,0
2558,9190005010273,登記記録の閉鎖等,0,2021-08-13,2021-08-02,一般社団法人学校図書館マイスター協会,,その他の設立登記法人,東京都,中央区,日本橋１丁目１７番４号,,13,102,1030027,,,2021-08-02,清算の結了等,,,2015-10-05,1,,,,,ガッコウトショカンマイスターキョウカイ,0
2590,9290802012437,登記記録の閉鎖等,0,2021-08-13,2021-08-03,株式会社オカハシ,,株式会社,福岡県,北九州市八幡東区,枝光本町３番１号,,40,108,8050008,,,2021-08-03,合併による解散等,4290801013119,令和３年８月１日北九州市八幡東区枝光本町３番１号ワシダホールディングス株式会社（4290801013119）に合併し解散,2015-10-05,1,,,,,オカハシ,0
2603,9370002013962,登記記録の閉鎖等,0,2021-08-13,2021-07-30,有限会社弥栄,,有限会社,宮城県,仙台市青葉区,片平１丁目３番２８－６０４号,,04,101,9800812,,,2021-07-30,清算の結了等,,,2015-10-05,1,,,,,ヤエイ,0
2623,9420002006333,登記記録の閉鎖等,0,2021-08-13,2021-08-03,栄和不動産建設有限会社,,有限会社,青森県,八戸市,大字白銀町字三島下２４番地１４６,,02,203,0310822,,,2021-08-03,清算の結了等,,,2015-10-05,1,,,,,エイワフドウサンケンセツ,0
2631,9490001003283,登記記録の閉鎖等,0,2021-08-13,2021-08-12,株式会社オーライン,,株式会社,高知県,高知市,唐人町１番３７号,,39,201,7800864,,,2021-08-12,清算の結了等,,,2015-10-05,1,,,,,オーライン,0
