sequenceNumber,corporateNumber,process,correct,updateDate,changeDate,name,nameImageId,kind,prefectureName,cityName,streetNumber,addressImageId,prefectureCode,cityCode,postCode,addressOutside,addressOutsideImageId,closeDate,closeCause,successorCorporateNumber,changeCause,assignmentDate,latest,enName,enPrefectureName,enCityName,enAddressOutside,furigana,hihyoji
14,1010001228679,新規,0,2022-08-10,2022-08-10,株式会社エイチアイ・トラスト,,株式会社,東京都,千代田区,丸の内１丁目６番２号新丸の内センタービルディング２１階,,13,101,1000005,,,,,,,2022-08-10,1,,,,,エイチアイトラスト,0
15,1010001228695,新規,0,2022-08-10,2022-08-10,株式会社Ｍ‐ＳＴＹＬＥ,,株式会社,東京都,中央区,勝どき１丁目８番１－３４１５号,,13,102,1040054,,,,,,,2022-08-10,1,,,,,エムスタイル,0
16,1010001228729,新規,0,2022-08-10,2022-08-10,ＶＣホールディングス株式会社,,株式会社,東京都,千代田区,麹町３丁目５番地２,,13,101,1020083,,,,,,,2022-08-10,1,,,,,ブイシーホールディングス,0
30,1010401168987,新規,0,2022-08-10,2022-08-10,株式会社Ｏｖａｌ　Ｃｏｎｎｅｃｔ,,株式会社,東京都,港区,虎ノ門３丁目１４－１－１８０５,,13,103,1050001,,,,,,,2022-08-10,1,,,,,オーバルコネクト,0
31,1010401168995,新規,0,2022-08-10,2022-08-10,Ｄｅａｒ　Ｍｕｓｅ　Ｇｒｏｕｐ株式会社,,株式会社,東京都,港区,西新橋３丁目２４番８号山内ビル３階,,13,103,1050003,,,,,,,2022-08-10,1,,,,,ディアミューズグループ,0
32,1010403028181,新規,0,2022-08-10,2022-08-10,合同会社こざまるエンターテイメント,,合同会社,東京都,港区,高輪３丁目５－６カスタリア高輪台ＩＩ４０３,00127493,13,103,1080074,,,,,,,2022-08-10,1,,,,,コザマルエンターテイメント,0
33,1010403028256,新規,0,2022-08-10,2022-08-10,合同会社ＮＦＴ　ＡＲＴ　ＴＯＫＹＯ,,合同会社,東京都,港区,芝浦２丁目１番１１号,,13,103,1080023,,,,,,,2022-08-10,1,,,,,エヌエフティアートトウキョウ,0
34,1010403028272,新規,0,2022-08-10,2022-08-10,ＣＹＯＳ合同会社,,合同会社,東京都,港区,南青山３丁目１番３６号青山丸竹ビル６Ｆ,,13,103,1070062,,,,,,,2022-08-10,1,,,,,サイオス,0
39,1010501049220,新規,0,2022-08-10,2022-08-10,株式会社エテルノ,,株式会社,東京都,台東区,橋場１丁目２４番２０－１１０２号,,13,106,1110023,,,,,,,2022-08-10,1,,,,,エテルノ,0
41,1010503006681,新規,0,2022-08-10,2022-08-10,日易合同会社,,合同会社,東京都,台東区,上野６丁目７番１６号川久保ビル４Ｆ,,13,106,1100005,,,,,,,2022-08-10,1,,,,,,0
42,1010505003330,新規,0,2022-08-10,2022-08-10,一般社団法人飛鳥山,,その他の設立登記法人,東京都,台東区,台東４丁目２９番１３－８０２号,,13,106,1100016,,,,,,,2022-08-10,1,,,,,アスカヤマ,0
47,1010801033196,新規,0,2022-08-10,2022-08-10,わッ株式会社,,株式会社,東京都,大田区,西蒲田７丁目６１－３１ＨＵＮＣＨ２Ｆ,,13,111,1440051,,,,,,,2022-08-10,1,,,,,ワッ,0
49,1010901051395,新規,0,2022-08-10,2022-08-10,株式会社ビヨンドフロー,,株式会社,東京都,世田谷区,奥沢５丁目１番１１号メゾンドジョワ２０２,,13,112,1580083,,,,,,,2022-08-10,1,,,,,ビヨンドフロー,0
53,1010903007577,新規,0,2022-08-10,2022-08-10,ＡＲＬＹ合同会社,,合同会社,東京都,世田谷区,北烏山７丁目２５番２－１０５号,,13,112,1570061,,,,,,,2022-08-10,1,,,,,アーリー,0
61,1011001148891,新規,0,2022-08-10,2022-08-10,株式会社Ｏｓａｐ,,株式会社,東京都,目黒区,青葉台３丁目３番１１号２階３階,,13,110,1530042,,,,,,,2022-08-10,1,,,,,オサップ,0
64,1011101099829,新規,0,2022-08-10,2022-08-10,株式会社ＨＪ,,株式会社,東京都,新宿区,新宿７丁目２６番７－４０８号,,13,104,1600022,,,,,,,2022-08-10,1,,,,,エイチジェイ,0
65,1011103012054,新規,0,2022-08-10,2022-08-10,合同会社ミュース,,合同会社,東京都,新宿区,西新宿７丁目５－５プラザ西新宿３０９,,13,104,1600023,,,,,,,2022-08-10,1,,,,,ミュース,0
70,1011601026159,新規,0,2022-08-10,2022-08-10,株式会社ＡＯＷ,,株式会社,東京都,練馬区,光が丘３丁目９番３号,,13,120,1790072,,,,,,,2022-08-10,1,,,,,エーオーダブリュ,0
74,1011701025523,新規,0,2022-08-10,2022-08-10,株式会社ｙａｗｌｔｒａｄｅｒ,,株式会社,東京都,江戸川区,東葛西５丁目１番１４号,,13,123,1340084,,,,,,,2022-08-10,1,,,,,ヨールトレーダー,0
76,1011801041107,新規,0,2022-08-10,2022-08-10,海倫司東京株式会社,,株式会社,東京都,葛飾区,小菅１丁目３７番１－１０７号ソライエ葛飾小菅,,13,122,1240001,,,,,,,2022-08-10,1,,,,,ヘレンストウキョウ,0
77,1012301013100,新規,0,2022-08-10,2022-08-10,株式会社Ａｐｐｌｅ　ｔｒａｉｎ,,株式会社,東京都,町田市,金井ヶ丘４丁目３７番２号,,13,209,1950076,,,,,,,2022-08-10,1,,,,,アップルトレイン,0
85,1012403005540,新規,0,2022-08-10,2022-08-10,合同会社ＡＮＧＥＬＩＫＡ,,合同会社,東京都,武蔵野市,吉祥寺本町４丁目６番３号,,13,203,1800004,,,,,,,2022-08-10,1,,,,,アンジェリカ,0
95,1020001147688,新規,0,2022-08-10,2022-08-10,よこはまＡＢＥビル株式会社,,株式会社,神奈川県,横浜市西区,高島２丁目３番２１号,,14,103,2200011,,,,,,,2022-08-10,1,,,,,ヨコハマアベビル,0
100,1020003022220,新規,0,2022-08-10,2022-08-10,合同会社こたつまる,,合同会社,神奈川県,横浜市磯子区,汐見台３丁目２番地３ヴェレーナシティ上大岡６２１号,,14,107,2350022,,,,,,,2022-08-10,1,,,,,コタツマル,0
103,1021001076729,新規,0,2022-08-10,2022-08-10,株式会社弘和建設工業,,株式会社,神奈川県,小田原市,酒匂５丁目５番１７号,,14,206,2560816,,,,,,,2022-08-10,1,,,,,コウワケンセツコウギョウ,0
104,1021001076737,新規,0,2022-08-10,2022-08-10,株式会社Ｋａｎａｕｐ,,株式会社,神奈川県,相模原市中央区,田名８４３４番地２,,14,152,2520244,,,,,,,2022-08-10,1,,,,,カナップ,0
107,1030001149502,新規,0,2022-08-10,2022-08-10,株式会社泰凜工業,,株式会社,埼玉県,川口市,川口１丁目３番１６－２０３号,,11,203,3320015,,,,,,,2022-08-10,1,,,,,タイリコウギョウ,0
108,1030001149519,新規,0,2022-08-10,2022-08-10,株式会社キセキ食堂,,株式会社,埼玉県,さいたま市岩槻区,並木１丁目５番１号,,11,110,3390068,,,,,,,2022-08-10,1,,,,,キセキショクドウ,0
111,1030003019967,新規,0,2022-08-10,2022-08-10,合同会社ＨＡＬＯＷ,,合同会社,埼玉県,越谷市,南越谷４丁目２１番地７,,11,222,3430845,,,,,,,2022-08-10,1,,,,,ハロウ,0
112,1030003019975,新規,0,2022-08-10,2022-08-10,カク合同会社,,合同会社,埼玉県,さいたま市北区,宮原町３丁目５７２－１,,11,102,3310812,,,,,,,2022-08-10,1,,,,,カク,0
119,1040003020577,新規,0,2022-08-10,2022-08-10,合同会社Ｔ＆Ｍ　Ｉｎｔｅｒｎａｔｉｏｎａｌ,,合同会社,千葉県,松戸市,本町１７番地の１１芦澤ビル６Ｆ,,12,207,2710091,,,,,,,2022-08-10,1,,,,,ティーアンドエムインターナショナル,0
147,1110001036881,新規,0,2022-08-10,2022-08-10,森林資源開発株式会社,,株式会社,新潟県,十日町市,干溝ニ４１９番地１,,15,210,9498408,,,,,,,2022-08-10,1,,,,,シンリンシゲンカイハツ,0
149,1110003004837,新規,0,2022-08-10,2022-08-10,合同会社ｈｕｋｂｅ,,合同会社,新潟県,小千谷市,城内１丁目８番２０号,,15,208,9470028,,,,,,,2022-08-10,1,,,,,フクベ,0
164,1120001247916,新規,0,2022-08-10,2022-08-10,株式会社ＬＰＳ,,株式会社,大阪府,大阪市中央区,安土町２丁目２番１０号本二ビル１階,,27,128,5410052,,,,,,,2022-08-10,1,,,,,エルピーエス,0
165,1120001248055,新規,0,2022-08-10,2022-08-10,株式会社ＨＳ,,株式会社,大阪府,大阪市此花区,西九条４丁目３－３６ＪＵＭＡ２ビル３０１号,,27,104,5540012,,,,,,,2022-08-10,1,,,,,エイチエス,0
166,1120001248063,新規,0,2022-08-10,2022-08-10,株式会社Ｄ．Ｇｒａｂ,,株式会社,大阪府,大阪市鶴見区,今津南２丁目８番１号,,27,124,5380043,,,,,,,2022-08-10,1,,,,,ディーグラブ,0
167,1120001248096,新規,0,2022-08-10,2022-08-10,株式会社ＫＳ,,株式会社,大阪府,交野市,私部７丁目１６番１３号,,27,230,5760052,,,,,,,2022-08-10,1,,,,,ケイエス,0
175,1120101066051,新規,0,2022-08-10,2022-08-10,株式会社和泉ホールディングス,,株式会社,大阪府,泉南郡岬町,望海坂３丁目３番３０号,,27,366,5990304,,,,,,,2022-08-10,1,,,,,イズミホールディングス,0
178,1120901046351,新規,0,2022-08-10,2022-08-10,石嵜園藝株式会社,,株式会社,大阪府,茨木市,南春日丘５丁目１番５５号ヴェルビュ茨木南春日丘３０６号,,27,211,5670046,,,,,,,2022-08-10,1,,,,,イシザキエンゲイ,0
182,1130005016548,新規,0,2022-08-10,2022-08-10,一般社団法人素足会,,その他の設立登記法人,京都府,宇治市,五ケ庄平野８番地１,,26,204,6110011,,,,,,,2022-08-10,1,,,,,スアシカイ,0
192,1140003018009,新規,0,2022-08-10,2022-08-10,合同会社ｕｐｗａｒｄ,,合同会社,兵庫県,丹波篠山市,網掛４０７番地の１,,28,221,6692205,,,,,,,2022-08-10,1,,,,,アップワード,0
193,1140003018017,新規,0,2022-08-10,2022-08-10,合同会社デリシオーサ,,合同会社,兵庫県,西宮市,熊野町３番４ジェイグラン甲子園口７１２号,,28,204,6638103,,,,,,,2022-08-10,1,,,,,デリシオーサ,0
194,1150001025757,新規,0,2022-08-10,2022-08-10,株式会社ジンクリエイション,,株式会社,奈良県,橿原市,東坊城町１９７番地の１０,,29,205,6340835,,,,,,,2022-08-10,1,,,,,ジンクリエイション,0
198,1160001024444,新規,0,2022-08-10,2022-08-10,株式会社Ｋ’ｓ　Ｆｒｏｎｔｉｅｒ,,株式会社,滋賀県,東近江市,福堂町３４８３番地,,25,213,5211242,,,,,,,2022-08-10,1,,,,,ケーズフロンティア,0
199,1160001024452,新規,0,2022-08-10,2022-08-10,株式会社田中土建,,株式会社,滋賀県,大津市,大江７丁目１０番２８号,,25,201,5202141,,,,,,,2022-08-10,1,,,,,タナカドケン,0
202,1180001152549,新規,0,2022-08-10,2022-08-10,株式会社大野クレーン,,株式会社,愛知県,名古屋市港区,油屋町４丁目２４番地の１ＲｏｓｓｏみなとＢ号,,23,111,4550815,,,,,,,2022-08-10,1,,,,,オオノクレーン,0
203,1180001152565,新規,0,2022-08-10,2022-08-10,株式会社ホープアイ,,株式会社,愛知県,名古屋市西区,菊井２丁目７番８号,,23,104,4510044,,,,,,,2022-08-10,1,,,,,ホープアイ,0
205,1180005019868,新規,0,2022-08-10,2022-08-10,あおい綜合コンサルタント司法書士法人,,その他の設立登記法人,愛知県,名古屋市東区,葵１丁目１８番３２号,,23,102,4610004,,,,,,,2022-08-10,1,,,,,アオイソウゴウコンサルタント,0
208,1180301036534,新規,0,2022-08-10,2022-08-10,ＩＭＡＩＢＯＤＹ株式会社,,株式会社,愛知県,岡崎市,東牧内町字日久１０１番地１,,23,202,4440934,,,,,,,2022-08-10,1,,,,,イマイボディ,0
212,1200001040370,新規,0,2022-08-10,2022-08-10,テックプレッソホールディングス株式会社,,株式会社,岐阜県,岐阜市,宇佐３丁目７番１号,,21,201,5008368,,,,,,,2022-08-10,1,,,,,テックプレッソホールディングス,0
213,1200005013380,新規,0,2022-08-10,2022-08-10,特定非営利活動法人ひととき,,その他の設立登記法人,岐阜県,土岐市,土岐ヶ丘４丁目２番地の４１,,21,212,5095127,,,,,,,2022-08-10,1,,,,,ヒトトキ,0
217,1240003005748,新規,0,2022-08-10,2022-08-10,合同会社好運商事,,合同会社,広島県,福山市,神村町字大日５８５２番１,,34,207,7290112,,,,,,,2022-08-10,1,,,,,コウウンショウジ,0
223,1250003003131,新規,0,2022-08-10,2022-08-10,新山口ＣＣホールディングス合同会社,,合同会社,山口県,防府市,多々良１丁目１５番１号,,35,206,7470023,,,,,,,2022-08-10,1,,,,,シンヤマグチシーシーホールディングス,0
228,1290001098533,新規,0,2022-08-10,2022-08-10,株式会社むうぶ,,株式会社,福岡県,福岡市中央区,天神１丁目１５番３８号,,40,133,8100001,,,,,,,2022-08-10,1,,,,,ムウブ,0
229,1290003012830,新規,0,2022-08-10,2022-08-10,合同会社ｔｅｃｏｎｏ,,合同会社,福岡県,糟屋郡宇美町,ゆりが丘１丁目１２番４号,,40,341,8112108,,,,,,,2022-08-10,1,,,,,テコノ,0
235,1340001024962,新規,0,2022-08-10,2022-08-10,株式会社瓦心,,株式会社,鹿児島県,鹿児島市,千年１丁目４１番４号,,46,201,8900001,,,,,,,2022-08-10,1,,,,,カワラシン,0
236,1340003003881,新規,0,2022-08-10,2022-08-10,パウズウエルネス合同会社,,合同会社,鹿児島県,霧島市,隼人町東郷１丁目２９番地,,46,218,8995115,,,,,,,2022-08-10,1,,,,,パウズウエルネス,0
245,1360005006699,新規,0,2022-08-10,2022-08-10,行政書士法人いけね事務所,,その他の設立登記法人,沖縄県,うるま市,字宮里８６８番地８,,47,213,9042243,,,,,,,2022-08-10,1,,,,,イケネジムショ,0
252,1370005010519,新規,0,2022-08-10,2022-08-10,一般社団法人交通文化観光推進機構,,その他の設立登記法人,宮城県,石巻市,南中里３丁目１５番７－３０２号,,04,202,9860814,,,,,,,2022-08-10,1,,,,,コウツウブンカカンコウスイシンキコウ,0
260,1430001087249,新規,0,2022-08-10,2022-08-10,株式会社ＴＫ　ＴＲＡＤＩＮＧ,,株式会社,北海道,札幌市南区,澄川六条１１丁目１７番１号,,01,106,0050006,,,,,,,2022-08-10,1,,,,,ティーケートレーディング,0
261,1430003014184,新規,0,2022-08-10,2022-08-10,ＹＲＧＬ合同会社,,合同会社,北海道,札幌市豊平区,平岸五条８丁目１番１号イーストセンタービル９０２号室,,01,105,0620935,,,,,,,2022-08-10,1,,,,,ワイアールジーエル,0
264,1470001019215,新規,0,2022-08-10,2022-08-10,株式会社ｚｕｔｔｉｅ,,株式会社,香川県,高松市,福岡町２丁目１２番１号福栄ビル,,37,201,7600066,,,,,,,2022-08-10,1,,,,,ズッティー,0
270,1700150111095,新規,0,2022-08-10,2022-08-10,ＷＯＲＬＤ　ＷＥＡＬＴＨ　ＬＩＭＩＴＥＤ,,外国会社等,北海道,虻田郡ニセコ町,字ニセコ４３２番地６７,,01,395,0481511,４　Ｄａｉ　Ｆｕ　Ｓｔｒｅｅｔ　Ｔａｉ　Ｐｏ　Ｉｎｄｕｓｔｒｉａｌ　Ｅｓｔａｔｅ　ＮＴ　Ｈｏｎｇ　Ｋｏｎｇ　,,,,,,2022-08-10,1,,,,,ワールドウエルスリミテツド,0
277,2010001228694,新規,0,2022-08-10,2022-08-10,株式会社ポラスト,,株式会社,東京都,千代田区,神田佐久間町３丁目２２号神田ＳＫビル,,13,101,1010025,,,,,,,2022-08-10,1,,,,,ポラスト,0
280,2010003038357,新規,0,2022-08-10,2022-08-10,ドムス合同会社,,合同会社,東京都,千代田区,丸の内３丁目１番１号東京共同会計事務所内,,13,101,1000005,,,,,,,2022-08-10,1,,,,,ドムス,0
283,2010103001974,新規,0,2022-08-10,2022-08-10,合同会社ＣＲＯＳ,,合同会社,東京都,八王子市,中町３番１４号ダイナシティ八王子８０２号,,13,201,1920085,,,,,,,2022-08-10,1,,,,,クロス,0
291,2010401168978,新規,0,2022-08-10,2022-08-10,株式会社でじたる,,株式会社,東京都,港区,南青山２丁目２番１５号ウィン青山９４２,,13,103,1070062,,,,,,,2022-08-10,1,,,,,デジタル,0
292,2010401169019,新規,0,2022-08-10,2022-08-10,株式会社Ｌａｈａｒａｓ,,株式会社,東京都,港区,虎ノ門１丁目２番１１号,,13,103,1050001,,,,,,,2022-08-10,1,,,,,ラハラ,0
293,2010401169035,新規,0,2022-08-10,2022-08-10,あなぶきキャピタルマネジメント株式会社,,株式会社,東京都,港区,芝大門２丁目２番１号,,13,103,1050012,,,,,,,2022-08-10,1,,,,,アナブキキャピタルマネジメント,0
294,2010403028189,新規,0,2022-08-10,2022-08-10,合同会社赤坂マーヴェリック,,合同会社,東京都,港区,虎ノ門３丁目２２番１０－２０１号,,13,103,1050001,,,,,,,2022-08-10,1,,,,,アカサカマーヴェリック,0
297,2010503006680,新規,0,2022-08-10,2022-08-10,合同会社燕,,合同会社,東京都,台東区,柳橋１丁目４番５号,,13,106,1110052,,,,,,,2022-08-10,1,,,,,エン,0
298,2010601061660,新規,0,2022-08-10,2022-08-10,株式会社サイグルＪＡＰＡＮ,,株式会社,東京都,墨田区,緑１丁目１４番６号シティポート両国３階袁暁娟税理士事務所内,,13,107,1300021,,,,,,,2022-08-10,1,,,,,サイグルジャパン,0
305,2010901051394,新規,0,2022-08-10,2022-08-10,Ｈｕｎｎｙ　Ｐｏｔ株式会社,,株式会社,東京都,世田谷区,赤堤１丁目３９番５号,,13,112,1560044,,,,,,,2022-08-10,1,,,,,ハニーポット,0
306,2010903007576,新規,0,2022-08-10,2022-08-10,合同会社エスカレ,,合同会社,東京都,世田谷区,松原５丁目２３番１０号,,13,112,1560043,,,,,,,2022-08-10,1,,,,,エスカレ,0
317,2011201024017,新規,0,2022-08-10,2022-08-10,株式会社ポストモダン,,株式会社,東京都,中野区,中野６丁目２番１９号,,13,114,1640001,,,,,,,2022-08-10,1,,,,,ポストモダン,0
318,2011301028025,新規,0,2022-08-10,2022-08-10,株式会社Ｉｎｔｅｇｒｉｔｙ,,株式会社,東京都,杉並区,浜田山４丁目１６番４－６０９号,,13,115,1680065,,,,,,,2022-08-10,1,,,,,インテグリティ,0
321,2011503005251,新規,0,2022-08-10,2022-08-10,大同商事合同会社,,合同会社,東京都,北区,王子３丁目４番２１号,,13,117,1140002,,,,,,,2022-08-10,1,,,,,ダイドウショウジ,0
325,2011603003675,新規,0,2022-08-10,2022-08-10,合同会社藍苺Ｒｉｂｅｓ,,合同会社,東京都,練馬区,中村南３丁目１０番３号,,13,120,1760025,,,,,,,2022-08-10,1,,,,,ランメイリベス,0
328,2011801041130,新規,0,2022-08-10,2022-08-10,株式会社ハーティー・エステートコンサルティング,,株式会社,東京都,足立区,栗原３丁目２０番１０号,,13,121,1230842,,,,,,,2022-08-10,1,,,,,ハーティーエステートコンサルティング,0
334,2012401039515,新規,0,2022-08-10,2022-08-10,株式会社いろは,,株式会社,東京都,多摩市,関戸２丁目２４番地の２６加瀬ビル１１７,,13,224,2060011,,,,,,,2022-08-10,1,,,,,イロハ,0
335,2012401039523,新規,0,2022-08-10,2022-08-10,株式会社ＢＬＩＮＫ,,株式会社,東京都,稲城市,東長沼２１１６－３メゾン・イシダ２０３,,13,225,2060802,,,,,,,2022-08-10,1,,,,,ブリンク,0
337,2012705002318,新規,0,2022-08-10,2022-08-10,一般社団法人日本ベイビーシアターネットワーク,,その他の設立登記法人,東京都,東村山市,富士見町３丁目１２番地６,,13,213,1890024,,,,,,,2022-08-10,1,,,,,ニホンベイビーシアターネットワーク,0
339,2012801021782,新規,0,2022-08-10,2022-08-10,株式会社日照園商会,,株式会社,東京都,日野市,万願寺６丁目４１番地の３第２日照ビル１０３,,13,212,1910024,,,,,,,2022-08-10,1,,,,,ニッショウエンショウカイ,0
344,2013301049496,新規,0,2022-08-10,2022-08-10,株式会社アディーレ・メディカルサービス,,株式会社,東京都,豊島区,東池袋３丁目１番１号サンシャイン６０,,13,116,1700013,,,,,,,2022-08-10,1,,,,,アディーレメディカルサービス,0
349,2020001147679,新規,0,2022-08-10,2022-08-10,株式会社ＪＳＮインベストメント,,株式会社,神奈川県,川崎市中原区,小杉町２丁目２７６番地１Ｅ２２０７,,14,133,2110063,,,,,,,2022-08-10,1,,,,,ジェイエスエヌインベストメント,0
350,2020001147761,新規,0,2022-08-10,2022-08-10,ＨａＭａＲｕ株式会社,,株式会社,神奈川県,横浜市中区,桜木町１丁目１０１番地１クロスゲート７階,,14,104,2310062,,,,,,,2022-08-10,1,,,,,ハマル,0
356,2021001076694,新規,0,2022-08-10,2022-08-10,株式会社照手住建,,株式会社,神奈川県,相模原市中央区,相模原４丁目３番１７号相模原ＴＯＢビル７階,,14,152,2520231,,,,,,,2022-08-10,1,,,,,テルテジュウケン,0
357,2021001076736,新規,0,2022-08-10,2022-08-10,株式会社Ｒｉｓｅ　Ｇｒｏｕｐ,,株式会社,神奈川県,厚木市,寿町３丁目１番１号－１０５,,14,212,2430003,,,,,,,2022-08-10,1,,,,,ライズグループ,0
358,2021001076744,新規,0,2022-08-10,2022-08-10,オイルヘルパー株式会社,,株式会社,神奈川県,伊勢原市,板戸９１７番地の２サンヴェール伊勢原６０７号,,14,214,2591145,,,,,,,2022-08-10,1,,,,,オイルヘルパー,0
359,2021001076752,新規,0,2022-08-10,2022-08-10,株式会社遊園こみち,,株式会社,神奈川県,厚木市,森の里２丁目１８番８号,,14,212,2430122,,,,,,,2022-08-10,1,,,,,ユウエンコミチ,0
369,2030003019958,新規,0,2022-08-10,2022-08-10,Ｍ　Ｍ　ＣＨＥＥＭＡ合同会社,,合同会社,埼玉県,入間市,久保稲荷４丁目２番地９ターナ商事ビル３０３,,11,225,3580024,,,,,,,2022-08-10,1,,,,,エムエムチーマ,0
370,2030005020955,新規,0,2022-08-10,2022-08-10,一般社団法人フラワーインテリアフラフルーデザイン協会,,その他の設立登記法人,埼玉県,新座市,東北２丁目３１番５号,,11,230,3520001,,,,,,,2022-08-10,1,,,,,フラワーインテリアフラフルーデザインキョウカイ,0
374,2040001124503,新規,0,2022-08-10,2022-08-10,株式会社Ｃトラン,,株式会社,千葉県,富里市,七栄６５４番地７６,,12,233,2860221,,,,,,,2022-08-10,1,,,,,シートラン,0
375,2040001124627,新規,0,2022-08-10,2022-08-10,株式会社ｅｄｇｅ,,株式会社,千葉県,船橋市,湊町２丁目１番１８号新堀ギタービル２Ｆ,,12,204,2730011,,,,,,,2022-08-10,1,,,,,エッジ,0
377,2040003020618,新規,0,2022-08-10,2022-08-10,合同会社Ｓ．Ｐ．ＩＮＴＥＲＮＡＴＩＯＮＡＬ,,合同会社,千葉県,山武郡横芝光町,牛熊８８２番地,,12,410,2891742,,,,,,,2022-08-10,1,,,,,エスピーインターナショナル,0
382,2050001051507,新規,0,2022-08-10,2022-08-10,株式会社ＳＫＧ,,株式会社,茨城県,下妻市,本城町３丁目４４番地,,08,210,3040064,,,,,,,2022-08-10,1,,,,,エスケージー,0
390,2060003004164,新規,0,2022-08-10,2022-08-10,合同会社Ｇｒａｆｆｉｔｉ’ｓ　Ｄｅｌｉ,,合同会社,栃木県,宇都宮市,川田町１２１７－１７ＯｎｅＩｃｈｉｒｉＣ棟,,09,201,3210111,,,,,,,2022-08-10,1,,,,,グラフィティーズデリ,0
400,2080101023477,新規,0,2022-08-10,2022-08-10,アソシエネット・ウエルファー株式会社,,株式会社,静岡県,駿東郡清水町,新宿１９０番地の１,,22,341,4110901,,,,,,,2022-08-10,1,,,,,アソシエネットウエルファー,0
403,2090001017727,新規,0,2022-08-10,2022-08-10,エミュ株式会社,,株式会社,山梨県,甲府市,青葉町１番６号,,19,201,4000828,,,,,,,2022-08-10,1,,,,,,0
407,2110001036889,新規,0,2022-08-10,2022-08-10,株式会社あだち陸送,,株式会社,新潟県,長岡市,宮本町１丁目甲８６３番地,,15,202,9402042,,,,,,,2022-08-10,1,,,,,アダチリクソウ,0
417,2120001247964,新規,0,2022-08-10,2022-08-10,ツバサ株式会社,,株式会社,大阪府,大阪市中央区,鎗屋町２丁目２番９号ＲＥ－ＬＡＢ大阪中央ビル６Ｆ,,27,128,5400027,,,,,,,2022-08-10,1,,,,,ツバサ,0
418,2120001247972,新規,0,2022-08-10,2022-08-10,株式会社ひと・プラス,,株式会社,大阪府,大阪市中央区,本町２丁目３－４アソルティ本町４Ｆ,,27,128,5410053,,,,,,,2022-08-10,1,,,,,ヒトプラス,0
424,2120003022201,新規,0,2022-08-10,2022-08-10,合同会社ｉｉｍａ,,合同会社,大阪府,大阪市北区,梅田１丁目１－３大阪駅前第３ビル２９階１－１－１号室,,27,127,5300001,,,,,,,2022-08-10,1,,,,,イイマ,0
427,2120101066075,新規,0,2022-08-10,2022-08-10,株式会社ＨＪＳ,,株式会社,大阪府,松原市,天美東４丁目２５０番地の２,,27,217,5800032,,,,,,,2022-08-10,1,,,,,エイチジェイエス,0
431,2120901046350,新規,0,2022-08-10,2022-08-10,政やエンタープライズ株式会社,,株式会社,大阪府,高槻市,大蔵司３丁目２０番１８号,,27,207,5691034,,,,,,,2022-08-10,1,,,,,マサヤエンタープライズ,0
435,2130001072429,新規,0,2022-08-10,2022-08-10,ＫＲＣ株式会社,,株式会社,京都府,京都市右京区,太秦西野町１０番地１９,,26,108,6168156,,,,,,,2022-08-10,1,,,,,ケーアールシー,0
439,2140001127017,新規,0,2022-08-10,2022-08-10,株式会社ＲＯＯＴ　ＰＬＵＳ,,株式会社,兵庫県,神戸市中央区,山本通２丁目６番２－７０１号,,28,110,6500003,,,,,,,2022-08-10,1,,,,,ルートプラス,0
440,2140001127033,新規,0,2022-08-10,2022-08-10,ＵＰ　ＴＯ　ＭＥ株式会社,,株式会社,兵庫県,神戸市東灘区,森北町７丁目１１－１６,,28,101,6580001,,,,,,,2022-08-10,1,,,,,アップトゥミー,0
442,2140003017967,新規,0,2022-08-10,2022-08-10,合同会社ＳＡＵＭＡＫＩ,,合同会社,兵庫県,神戸市東灘区,岡本７丁目２１番３号,,28,101,6580072,,,,,,,2022-08-10,1,,,,,サウマキ,0
443,2140003018016,新規,0,2022-08-10,2022-08-10,橘経営合同会社,,合同会社,兵庫県,西宮市,大社町１１－３７,,28,204,6620867,,,,,,,2022-08-10,1,,,,,タチバナケイエイ,0
444,2140003018024,新規,0,2022-08-10,2022-08-10,合同会社スプリング,,合同会社,兵庫県,神戸市北区,鈴蘭台西町３丁目１２番３６－２０４号,,28,109,6511114,,,,,,,2022-08-10,1,,,,,スプリング,0
445,2150001025756,新規,0,2022-08-10,2022-08-10,株式会社ケイズファクトリー,,株式会社,奈良県,天理市,川原城町８４６番地福住開発ビル１Ｆ,,29,204,6320016,,,,,,,2022-08-10,1,,,,,ケイズファクトリー,0
446,2160001024443,新規,0,2022-08-10,2022-08-10,株式会社Ｓｍａｒｔ‐Ｊｏｂ,,株式会社,滋賀県,草津市,野村１丁目２５－２８,,25,206,5250027,,,,,,,2022-08-10,1,,,,,スマートジョブ,0
447,2170001017231,新規,0,2022-08-10,2022-08-10,株式会社ｅｃｏキューブクリーンサービス,,株式会社,和歌山県,新宮市,南檜杖６０１番地５,,30,207,6470054,,,,,,,2022-08-10,1,,,,,エコキューブクリーンサービス,0
455,2180001152548,新規,0,2022-08-10,2022-08-10,株式会社Ｓａｖｅ　ｔｈｅ　ＳＥＥＤ,,株式会社,愛知県,名古屋市中区,錦１丁目８番４９号カスタリア伏見１２０２号,,23,106,4600003,,,,,,,2022-08-10,1,,,,,セーブザシード,0
456,2180001152564,新規,0,2022-08-10,2022-08-10,株式会社ブライトアイ,,株式会社,愛知県,名古屋市西区,菊井２丁目７番８号,,23,104,4510044,,,,,,,2022-08-10,1,,,,,ブライトアイ,0
462,2180003024134,新規,0,2022-08-10,2022-08-10,合同会社ＫＮＹ工業,,合同会社,愛知県,日進市,香久山１丁目１００３番地レオパレスステラコート１０１,,23,230,4700134,,,,,,,2022-08-10,1,,,,,ケーエヌワイコウギョウ,0
465,2190001029695,新規,0,2022-08-10,2022-08-10,株式会社マチナス,,株式会社,三重県,松阪市,川井町６１１番地９,,24,204,5150818,,,,,,,2022-08-10,1,,,,,マチナス,0
469,2190003004060,新規,0,2022-08-10,2022-08-10,ホチツナフレンズ合同会社,,合同会社,三重県,津市,藤方３６０,,24,201,5140815,,,,,,,2022-08-10,1,,,,,ホチツナフレンズ,0
470,2200001040361,新規,0,2022-08-10,2022-08-10,株式会社Ｔ‐ＳＴＹＬＥ,,株式会社,岐阜県,岐阜市,中西郷１丁目１３９番地２,,21,201,5011177,,,,,,,2022-08-10,1,,,,,ティースタイル,0
475,2240001060208,新規,0,2022-08-10,2022-08-10,株式会社勇輝,,株式会社,広島県,福山市,春日町浦上１４９５番地１,,34,207,7210902,,,,,,,2022-08-10,1,,,,,ユウキ,0
478,2260001037096,新規,0,2022-08-10,2022-08-10,株式会社一路,,株式会社,岡山県,瀬戸内市,邑久町百田３番地５,,33,212,7014248,,,,,,,2022-08-10,1,,,,,イチロ,0
479,2260001037138,新規,0,2022-08-10,2022-08-10,株式会社ユニオンプランニング,,株式会社,岡山県,岡山市北区,白石４２７番地６,,33,101,7010143,,,,,,,2022-08-10,1,,,,,ユニオンプランニング,0
480,2260001037146,新規,0,2022-08-10,2022-08-10,株式会社ＴＡＹＯＲＩ,,株式会社,岡山県,倉敷市,北畝４丁目４番４３号,,33,202,7128032,,,,,,,2022-08-10,1,,,,,タヨリ,0
483,2260005011122,新規,0,2022-08-10,2022-08-10,一般社団法人日本小児口腔発達学会,,その他の設立登記法人,岡山県,岡山市中区,倉田５０８番地２１－２階,,33,102,7038265,,,,,,,2022-08-10,1,,,,,ニホンショウニコウクウハッタツガッカイ,0
484,2270001008609,新規,0,2022-08-10,2022-08-10,スカイ自然工学株式会社,,株式会社,鳥取県,倉吉市,杉野１７６番地,,31,203,6820611,,,,,,,2022-08-10,1,,,,,スカイシゼンコウガク,0
486,2290001098532,新規,0,2022-08-10,2022-08-10,株式会社ル・パティシエ・ムタ,,株式会社,福岡県,朝倉市,宮野１７８４番地１,,40,228,8381302,,,,,,,2022-08-10,1,,,,,ルパティシエムタ,0
488,2290801028779,新規,0,2022-08-10,2022-08-10,株式会社グローバルケア,,株式会社,福岡県,鞍手郡鞍手町,大字中山６３１番地２,,40,402,8071312,,,,,,,2022-08-10,1,,,,,グローバルケア,0
489,2290801028804,新規,0,2022-08-10,2022-08-10,株式会社宝璃,,株式会社,福岡県,北九州市八幡東区,山王１丁目１番１３号,,40,108,8050017,,,,,,,2022-08-10,1,,,,,ホウリ,0
493,2310001017992,新規,0,2022-08-10,2022-08-10,Ｂｅｅ株式会社,,株式会社,長崎県,長崎市,目覚町２５番２号カーサアーデント１０２号室,,42,201,8528105,,,,,,,2022-08-10,1,,,,,ビー,0
494,2330001030011,新規,0,2022-08-10,2022-08-10,株式会社ＰＬＵＭ　ＰＬＡＮ,,株式会社,熊本県,熊本市東区,長嶺東４丁目９番１０号,,43,102,8618038,,,,,,,2022-08-10,1,,,,,プラムプラン,0
496,2330003009482,新規,0,2022-08-10,2022-08-10,合同会社Ｂｌｕｅｂｅｌｌ,,合同会社,熊本県,八代市,植柳新町２丁目２６号１番地,,43,202,8660084,,,,,,,2022-08-10,1,,,,,ブルーベル,0
497,2340001024961,新規,0,2022-08-10,2022-08-10,株式会社Ｗｉｔｈ　Ｓｍｉｌｅｓ,,株式会社,鹿児島県,鹿児島市,広木３丁目１４番１１号,,46,201,8900037,,,,,,,2022-08-10,1,,,,,ウイズスマイル,0
498,2340003003880,新規,0,2022-08-10,2022-08-10,ＲＥＸＣＯ合同会社,,合同会社,鹿児島県,大島郡与論町,大字麦屋１０３９番地３,,46,535,8919300,,,,,,,2022-08-10,1,,,,,レクスコ,0
501,2360001030818,新規,0,2022-08-10,2022-08-10,株式会社アルティメット・フローラグレイスギフト,,株式会社,沖縄県,那覇市,松山１丁目１９番１１号パークサイド松山ビル１Ｆ,,47,201,9000032,,,,,,,2022-08-10,1,,,,,アルティメットフローラグレイスギフト,0
504,2360003012211,新規,0,2022-08-10,2022-08-10,合同会社ハマ土建,,合同会社,沖縄県,宮古島市,伊良部字前里添１７００番地２,,47,214,9060501,,,,,,,2022-08-10,1,,,,,ハマドケン,0
506,2370001048883,新規,0,2022-08-10,2022-08-10,ＳＳＳ株式会社,,株式会社,宮城県,柴田郡川崎町,大字今宿字小銀沢山１番地１１５,,04,324,9891502,,,,,,,2022-08-10,1,,,,,サケサポートサービス,0
507,2370001048925,新規,0,2022-08-10,2022-08-10,七十七ヒューマンデザイン株式会社,,株式会社,宮城県,仙台市青葉区,中央３丁目３番２０号,,04,101,9800021,,,,,,,2022-08-10,1,,,,,シチジュウシチヒューマンデザイン,0
512,2390001016995,新規,0,2022-08-10,2022-08-10,Ｈｉｇｈ　Ｌｉｆｅ株式会社,,株式会社,山形県,山形市,嶋北１丁目１２番６号,,06,201,9900885,,,,,,,2022-08-10,1,,,,,ハイライフ,0
516,2420003002560,新規,0,2022-08-10,2022-08-10,合同会社ミーモテック,,合同会社,青森県,弘前市,大字桜林町５番地３,,02,202,0368222,,,,,,,2022-08-10,1,,,,,ミーモテック,0
517,2430001087256,新規,0,2022-08-10,2022-08-10,株式会社ＺＯＵ,,株式会社,北海道,札幌市中央区,南三条西８丁目１番地１,,01,101,0600063,,,,,,,2022-08-10,1,,,,,ゾウ,0
518,2430001087264,新規,0,2022-08-10,2022-08-10,株式会社ＤＲＩＶＥ　Ｉｎｃｕｂａｔｉｏｎ,,株式会社,北海道,札幌市中央区,北二条東１丁目４－１９－７０３,,01,101,0600032,,,,,,,2022-08-10,1,,,,,ドライブインキュベーション,0
521,2500005008515,新規,0,2022-08-10,2022-08-10,一般社団法人合気道合心館,,その他の設立登記法人,愛媛県,松山市,中央１丁目４番４号モーゼルビル３０２号,,38,201,7918015,,,,,,,2022-08-10,1,,,,,アイキドウアイシンカン,0
534,3010001228669,新規,0,2022-08-10,2022-08-10,ニュートン・インベストメント・マネジメント・ジャパン株式会社,,株式会社,東京都,千代田区,丸の内１丁目８番３号丸の内トラストタワー本館,,13,101,1000005,,,,,,,2022-08-10,1,,,,,ニュートンインベストメントマネジメントジャパン,0
535,3010001228677,新規,0,2022-08-10,2022-08-10,大可不動産開発株式会社,,株式会社,東京都,中央区,銀座１丁目１８番２号,,13,102,1040061,,,,,,,2022-08-10,1,,,,,タイガフドウサンカイハツ,0
536,3010001228685,新規,0,2022-08-10,2022-08-10,パシフィック・アセット・マネジメント株式会社,,株式会社,東京都,中央区,勝どき６丁目５番１６号プライマル勝どき６０８号室,,13,102,1040054,,,,,,,2022-08-10,1,,,,,パシフィックアセットマネジメント,0
537,3010001228693,新規,0,2022-08-10,2022-08-10,株式会社レインボーゲート,,株式会社,東京都,千代田区,外神田４丁目７番１１号,,13,101,1010021,,,,,,,2022-08-10,1,,,,,レインボーゲート,0
538,3010001228735,新規,0,2022-08-10,2022-08-10,株式会社Ｏｙｓｔｅｒ,,株式会社,東京都,中央区,日本橋小舟町８番１３号,,13,102,1030024,,,,,,,2022-08-10,1,,,,,オイスター,0
539,3010001228751,新規,0,2022-08-10,2022-08-10,株式会社ｖｉｎｋａ,,株式会社,東京都,中央区,銀座１丁目２２番１１号銀座大竹ビジデンス２階,,13,102,1040061,,,,,,,2022-08-10,1,,,,,ヴィンカ,0
542,3010003038216,新規,0,2022-08-10,2022-08-10,合同会社日商結準備委員会,,合同会社,東京都,中央区,新富２丁目４番５号１階Ｅｌｉｓａオフィス１００２,,13,102,1040041,,,,,,,2022-08-10,1,,,,,ニッショウユイジュンビイインカイ,0
543,3010003038356,新規,0,2022-08-10,2022-08-10,合同会社クリーンエナジーファンド,,合同会社,東京都,千代田区,丸の内３丁目１番１号東京共同会計事務所内,,13,101,1000005,,,,,,,2022-08-10,1,,,,,クリーンエナジーファンド,0
549,3010103001973,新規,0,2022-08-10,2022-08-10,合同会社スリーステップ,,合同会社,東京都,八王子市,本町３－１１メゾン橘２０１,,13,201,1920066,,,,,,,2022-08-10,1,,,,,スリーステップ,0
555,3010401169001,新規,0,2022-08-10,2022-08-10,株式会社苗林実業,,株式会社,東京都,港区,東新橋１丁目５番２号汐留シティセンター５階,,13,103,1050021,,,,,,,2022-08-10,1,,,,,ミャオリンフーズ,0
557,3010403028254,新規,0,2022-08-10,2022-08-10,ＳＫＹ合同会社,,合同会社,東京都,港区,赤坂４丁目１４番１４－２２０８号,,13,103,1070052,,,,,,,2022-08-10,1,,,,,スカイ,0
559,3010501049219,新規,0,2022-08-10,2022-08-10,株式会社ＧＰ,,株式会社,東京都,台東区,北上野２丁目２５番９号ＩＳビル７階,,13,106,1100014,,,,,,,2022-08-10,1,,,,,ジーピー,0
560,3010505003329,新規,0,2022-08-10,2022-08-10,一般社団法人フリーウェイ,,その他の設立登記法人,東京都,台東区,台東４丁目２９番１３－８０２号,,13,106,1100016,,,,,,,2022-08-10,1,,,,,フリーウェイ,0
566,3010901051393,新規,0,2022-08-10,2022-08-10,株式会社リエイト,,株式会社,東京都,世田谷区,奥沢５丁目３８番８号テラス自由が丘１Ｆ,,13,112,1580083,,,,,,,2022-08-10,1,,,,,リエイト,0
569,3010903007575,新規,0,2022-08-10,2022-08-10,合同会社七幸,,合同会社,東京都,世田谷区,世田谷１丁目２６番８号,,13,112,1540017,,,,,,,2022-08-10,1,,,,,ナナコウ,0
572,3011001149046,新規,0,2022-08-10,2022-08-10,株式会社ｍｉｉｍｏ,,株式会社,東京都,渋谷区,幡ヶ谷２丁目５－３,,13,113,1510072,,,,,,,2022-08-10,1,,,,,ミーモ,0
573,3011001149054,新規,0,2022-08-10,2022-08-10,アドバーチャ株式会社,,株式会社,東京都,渋谷区,神宮前６丁目２３番４号桑野ビル２階,,13,113,1500001,,,,,,,2022-08-10,1,,,,,アドバーチャ,0
574,3011001149120,新規,0,2022-08-10,2022-08-10,株式会社Ｒｅ．Ｔｏｋｙｏ,,株式会社,東京都,渋谷区,東３丁目１４番２２号,,13,113,1500011,,,,,,,2022-08-10,1,,,,,アールイートウキョウ,0
575,3011001149153,新規,0,2022-08-10,2022-08-10,株式会社ＬＧＤ,,株式会社,東京都,渋谷区,恵比寿２丁目６番２８－６０４号,,13,113,1500013,,,,,,,2022-08-10,1,,,,,エルジーディー,0
577,3011003015155,新規,0,2022-08-10,2022-08-10,合同会社ＫＡＫＥＲＵＮＩ,,合同会社,東京都,渋谷区,道玄坂１丁目１０番８号渋谷道玄坂東急ビル２Ｆ－Ｃ,,13,113,1500043,,,,,,,2022-08-10,1,,,,,カケルニ,0
582,3011103012060,新規,0,2022-08-10,2022-08-10,合同会社令和企画,,合同会社,東京都,新宿区,四谷三栄町２番１４号,,13,104,1600008,,,,,,,2022-08-10,1,,,,,レイワキカク,0
587,3011303004493,新規,0,2022-08-10,2022-08-10,合同会社セカンドファクター,,合同会社,東京都,杉並区,西荻北５丁目１５－３,,13,115,1670042,,,,,,,2022-08-10,1,,,,,セカンドファクター,0
591,3011601026165,新規,0,2022-08-10,2022-08-10,株式会社Ｏｆｆｉｃｅ　ＨＡＮＡ,,株式会社,東京都,練馬区,石神井町８丁目４９番１２号,,13,120,1770041,,,,,,,2022-08-10,1,,,,,オフィスハナ,0
592,3011701025521,新規,0,2022-08-10,2022-08-10,株式会社プッロ,,株式会社,東京都,江戸川区,西葛西６丁目２６番１２－１０５号ＳＫプラスパーステージ,,13,123,1340088,,,,,,,2022-08-10,1,,,,,プッロ,0
595,3011801041121,新規,0,2022-08-10,2022-08-10,株式会社ＵＮＩＴＹ,,株式会社,東京都,葛飾区,東四つ木３丁目６番２３号,,13,122,1240014,,,,,,,2022-08-10,1,,,,,ユニティ,0
597,3012301013098,新規,0,2022-08-10,2022-08-10,株式会社Ｒ・Ｋプランニング,,株式会社,東京都,町田市,玉川学園２丁目１番１－１０２号,,13,209,1940041,,,,,,,2022-08-10,1,,,,,アールケープランニング,0
599,3012401039514,新規,0,2022-08-10,2022-08-10,株式会社Ｉｏｔａ　Ｓｔｕｄｉｏ,,株式会社,東京都,武蔵野市,吉祥寺本町３丁目１２番４号,,13,203,1800004,,,,,,,2022-08-10,1,,,,,イオタスタジオ,0
604,3012403005539,新規,0,2022-08-10,2022-08-10,合同会社Ｙ２Ｃ,,合同会社,東京都,多摩市,諏訪２丁目２番地Ａ－１０１,,13,224,2060024,,,,,,,2022-08-10,1,,,,,ワイツーシー,0
605,3012701017194,新規,0,2022-08-10,2022-08-10,株式会社優芯,,株式会社,東京都,東村山市,恩多町３丁目１９番地２０,,13,213,1890011,,,,,,,2022-08-10,1,,,,,ユウシン,0
606,3013101008998,新規,0,2022-08-10,2022-08-10,東京酒類株式会社,,株式会社,東京都,あきる野市,秋川４丁目５番地８,,13,228,1970804,,,,,,,2022-08-10,1,,,,,トウキョウサケルイ,0
608,3013301049495,新規,0,2022-08-10,2022-08-10,昌連商事株式会社,,株式会社,東京都,豊島区,西池袋２丁目４０－４セレナハイム池袋アプレ６０２号室,,13,116,1710021,,,,,,,2022-08-10,1,,,,,ショウレンショウジ,0
623,3020001147637,新規,0,2022-08-10,2022-08-10,アキヤマ管理株式会社,,株式会社,神奈川県,川崎市川崎区,南町２０番地３,,14,131,2100015,,,,,,,2022-08-10,1,,,,,アキヤマカンリ,0
624,3020001147777,新規,0,2022-08-10,2022-08-10,株式会社サラサムイ,,株式会社,神奈川県,横浜市港北区,綱島東１丁目１３番１０号１階,,14,109,2230052,,,,,,,2022-08-10,1,,,,,サラサムイ,0
631,3021001076735,新規,0,2022-08-10,2022-08-10,株式会社ＣＬＥＶＥＲｓ,,株式会社,神奈川県,厚木市,寿町１丁目３番１３号－３Ｆ,,14,212,2430003,,,,,,,2022-08-10,1,,,,,クレバーズ,0
632,3021001076743,新規,0,2022-08-10,2022-08-10,オオトリ株式会社,,株式会社,神奈川県,横須賀市,汐入町５丁目３３番２７号,,14,201,2380042,,,,,,,2022-08-10,1,,,,,オオトリ,0
634,3021003012028,新規,0,2022-08-10,2022-08-10,合同会社ＣＯＳＭＩＳＭ,,合同会社,神奈川県,秦野市,沼代新町３－４８,,14,211,2591316,,,,,,,2022-08-10,1,,,,,コスイズム,0
645,3040001124626,新規,0,2022-08-10,2022-08-10,ｅｋｕｓ株式会社,,株式会社,千葉県,松戸市,松戸１３０７－１松戸ビル１３階,,12,207,2710092,,,,,,,2022-08-10,1,,,,,イカス,0
646,3040001124634,新規,0,2022-08-10,2022-08-10,株式会社ＳＱ,,株式会社,千葉県,千葉市稲毛区,小仲台２丁目１１－６メゾン小仲台１Ｆ,,12,103,2630043,,,,,,,2022-08-10,1,,,,,エスキュー,0
648,3040003020609,新規,0,2022-08-10,2022-08-10,合同会社日吉建装,,合同会社,千葉県,富里市,日吉台５丁目３０番地１,,12,233,2860201,,,,,,,2022-08-10,1,,,,,ヒヨシケンソウ,0
657,3050005013122,新規,0,2022-08-10,2022-08-10,一般社団法人茨城県相続支援協会,,その他の設立登記法人,茨城県,鹿嶋市,大字和７９７番地１３,,08,222,3112215,,,,,,,2022-08-10,1,,,,,イバラキケンソウゾクシエンキョウカイ,0
662,3070001039524,新規,0,2022-08-10,2022-08-10,株式会社ＫＡＲＺ,,株式会社,群馬県,高崎市,飯塚町４３３番地２,,10,202,3700069,,,,,,,2022-08-10,1,,,,,カーズ,0
664,3070005010027,新規,0,2022-08-10,2022-08-10,医療法人双成会,,その他の設立登記法人,群馬県,桐生市,相生町１丁目１４１番地の１,,10,203,3760011,,,,,,,2022-08-10,1,,,,,ソウセイカイ,0
678,3110001036888,新規,0,2022-08-10,2022-08-10,カーオペネクスト株式会社,,株式会社,新潟県,上越市,中郷区岡沢１３８４番地,,15,222,9492322,,,,,,,2022-08-10,1,,,,,カーオペネクスト,0
689,3120001248094,新規,0,2022-08-10,2022-08-10,株式会社ＮＨプロパティ,,株式会社,大阪府,大阪市中央区,北浜２丁目６番１１号,,27,128,5410041,,,,,,,2022-08-10,1,,,,,エヌエイチプロパティ,0
693,3120101066058,新規,0,2022-08-10,2022-08-10,株式会社Ｃｈｅｅｒなのはな,,株式会社,大阪府,泉佐野市,高松西２丁目５９０７番地の１１,,27,213,5980016,,,,,,,2022-08-10,1,,,,,チアナノハナ,0
694,3120101066074,新規,0,2022-08-10,2022-08-10,株式会社ｉｋｅｔａｒａｉｋｕｗａ,,株式会社,大阪府,大阪狭山市,池尻中３丁目１９－４５,,27,231,5890007,,,,,,,2022-08-10,1,,,,,イケタライクワ,0
700,3130001072403,新規,0,2022-08-10,2022-08-10,株式会社トランスポートサード,,株式会社,京都府,久世郡久御山町,市田新珠城２２０番地１,,26,322,6130022,,,,,,,2022-08-10,1,,,,,トランスポートサード,0
715,3150001025755,新規,0,2022-08-10,2022-08-10,株式会社墓石の大くぼ,,株式会社,奈良県,橿原市,新口町２３３番地の９,,29,205,6340802,,,,,,,2022-08-10,1,,,,,ボセキノオオクボ,0
717,3160001024450,新規,0,2022-08-10,2022-08-10,株式会社ＭＴ　ｆａｃｔｏｒｙ,,株式会社,滋賀県,蒲生郡日野町,大字西大路２２５７番地,,25,383,5291628,,,,,,,2022-08-10,1,,,,,エムティーファクトリー,0
718,3160003002644,新規,0,2022-08-10,2022-08-10,合同会社山の辺製菓,,合同会社,滋賀県,湖南市,石部東１丁目７番１０号,,25,211,5203107,,,,,,,2022-08-10,1,,,,,ヤマノベセイカ,0
726,3200001040369,新規,0,2022-08-10,2022-08-10,株式会社アトリエシャンティ,,株式会社,岐阜県,各務原市,蘇原柿沢町３丁目５番地１,,21,213,5040825,,,,,,,2022-08-10,1,,,,,アトリエシャンティ,0
729,3220001024980,新規,0,2022-08-10,2022-08-10,株式会社北国バンケットサービス,,株式会社,石川県,金沢市,尾山町９番１０号,,17,201,9200918,,,,,,,2022-08-10,1,,,,,ホッコクバンケットサービス,0
738,3220005008690,新規,0,2022-08-10,2022-08-10,特定非営利活動法人紫桜,,その他の設立登記法人,石川県,金沢市,西念１丁目１５番７号恵西苑１号室,,17,201,9200024,,,,,,,2022-08-10,1,,,,,,0
748,3260001037145,新規,0,2022-08-10,2022-08-10,株式会社岡伸,,株式会社,岡山県,岡山市北区,田町２丁目１３番１号,,33,101,7000825,,,,,,,2022-08-10,1,,,,,オカシン,0
750,3270001008608,新規,0,2022-08-10,2022-08-10,縁屋株式会社,,株式会社,鳥取県,鳥取市,湖山町東５丁目５７０番地２,,31,201,6800942,,,,,,,2022-08-10,1,,,,,エニシヤ,0
755,3290001098580,新規,0,2022-08-10,2022-08-10,株式会社Ｔホールディングス,,株式会社,福岡県,福岡市東区,青葉６丁目２９番１２号,,40,131,8130025,,,,,,,2022-08-10,1,,,,,ティーホールディングス,0
758,3310001017991,新規,0,2022-08-10,2022-08-10,株式会社ヒロヤ,,株式会社,長崎県,佐世保市,祇園町２番２４号,,42,202,8570801,,,,,,,2022-08-10,1,,,,,ヒロヤ,0
762,3330003009481,新規,0,2022-08-10,2022-08-10,合同会社ＨｉＭａｒｉ開発,,合同会社,熊本県,熊本市西区,島崎６丁目３番１６号,,43,103,8600073,,,,,,,2022-08-10,1,,,,,ヒマリカイハツ,0
763,3340001024952,新規,0,2022-08-10,2022-08-10,株式会社中尾設備工業,,株式会社,鹿児島県,鹿児島市,中山町１２６５番地７,,46,201,8910105,,,,,,,2022-08-10,1,,,,,ナカオセツビコウギョウ,0
764,3340001024960,新規,0,2022-08-10,2022-08-10,株式会社鹿児島総合メンテナンス,,株式会社,鹿児島県,鹿児島市,牟礼岡２丁目３０番６号,,46,201,8911306,,,,,,,2022-08-10,1,,,,,カゴシマソウゴウメンテナンス,0
769,3350003004142,新規,0,2022-08-10,2022-08-10,合同会社リクシー,,合同会社,宮崎県,宮崎市,江平西１丁目１番２４号Ｆ・ＳＴＡＧＥ江平８０１号,,45,201,8800051,,,,,,,2022-08-10,1,,,,,リクシー,0
772,3360003012227,新規,0,2022-08-10,2022-08-10,合同会社大豊建設,,合同会社,沖縄県,那覇市,字安里１５番地４,,47,201,9020067,,,,,,,2022-08-10,1,,,,,タイホウケンセツ,0
776,3370001048916,新規,0,2022-08-10,2022-08-10,株式会社ＫＤワークス,,株式会社,宮城県,大崎市,三本木新町１丁目３番１１号,,04,215,9896306,,,,,,,2022-08-10,1,,,,,ケーディーワークス,0
779,3370005010509,新規,0,2022-08-10,2022-08-10,一般社団法人蒼いまちおこしカンパニー,,その他の設立登記法人,宮城県,東松島市,矢本字大溜１１８番地１,,04,214,9810503,,,,,,,2022-08-10,1,,,,,アオイマチオコシカンパニー,0
803,3430003014174,新規,0,2022-08-10,2022-08-10,合同会社ＴＬＯ,,合同会社,北海道,札幌市中央区,南六条西４丁目５番地３３Ｇ４ビル７Ｆ,,01,101,0640806,,,,,,,2022-08-10,1,,,,,ティーエルオー,0
804,3450001013770,新規,0,2022-08-10,2022-08-10,株式会社Ｓｋｙ　Ｐｒｏｂｅ　Ｕｎｉｔ,,株式会社,北海道,旭川市,末広五条３丁目３番１１号,,01,204,0718135,,,,,,,2022-08-10,1,,,,,スカイプローブユニット,0
811,3700150110244,新規,0,2022-08-10,2022-06-22,たゆたう実行委員会,,その他,東京都,府中市,押立町１丁目２２－１車返団地３－７－２０６,,13,206,1830012,,,,,,,2022-06-22,1,,,,,タユタウジツコウイインカイ,0
824,4010001228684,新規,0,2022-08-10,2022-08-10,株式会社長野経営総研,,株式会社,東京都,千代田区,四番町６－１１－１１０２,,13,101,1020081,,,,,,,2022-08-10,1,,,,,ナガノケイエイソウケン,0
825,4010001228734,新規,0,2022-08-10,2022-08-10,株式会社ＧＵＥＳＴ　ＣＵＬＴＵＲＥ,,株式会社,東京都,千代田区,九段北４丁目３番２４号,,13,101,1020073,,,,,,,2022-08-10,1,,,,,ゲストカルチャー,0
827,4010003038347,新規,0,2022-08-10,2022-08-10,合同会社コハラプロパティ,,合同会社,東京都,千代田区,内神田１丁目１１－１０コハラビル,,13,101,1010047,,,,,,,2022-08-10,1,,,,,コハラプロパティ,0
828,4010003038355,新規,0,2022-08-10,2022-08-10,合同会社わいんばーギンザ,,合同会社,東京都,中央区,銀座５丁目１番１６号西山興業西銀座ビル４階,,13,102,1040061,,,,,,,2022-08-10,1,,,,,ワインバーギンザ,0
829,4010003038363,新規,0,2022-08-10,2022-08-10,合同会社ＮＯＦＡ　Ｓ,,合同会社,東京都,千代田区,九段南１丁目５番６号りそな九段ビル５Ｆ・ＫＳフロア,,13,101,1020074,,,,,,,2022-08-10,1,,,,,ノーファエス,0
836,4010401168910,新規,0,2022-08-10,2022-08-10,株式会社レプシム,,株式会社,東京都,港区,東新橋１丁目６番３号２４Ｆ,,13,103,1050021,,,,,,,2022-08-10,1,,,,,レプシム,0
841,4010503006679,新規,0,2022-08-10,2022-08-10,大地合同会社,,合同会社,東京都,台東区,千束３丁目２１－１２－２０１,,13,106,1110031,,,,,,,2022-08-10,1,,,,,ダイチ,0
845,4010701043061,新規,0,2022-08-10,2022-08-10,株式会社ナイン,,株式会社,東京都,品川区,戸越３丁目１１番１３号Ｋ＆ＭハイツＩＩＩ３０５,00127487,13,109,1420041,,,,,,,2022-08-10,1,,,,,ナイン,0
848,4010801033193,新規,0,2022-08-10,2022-08-10,株式会社ＨＲ＆Ｍ総研,,株式会社,東京都,大田区,下丸子４丁目２６番３－２１０３号,,13,111,1460092,,,,,,,2022-08-10,1,,,,,エイチアールアンドエムソウケン,0
853,4010901051384,新規,0,2022-08-10,2022-08-10,株式会社ＭｏｒｏｃｃｏＯｃｅａｎ,,株式会社,東京都,世田谷区,用賀１丁目２７番１８号スカイコート世田谷用賀９０４,,13,112,1580097,,,,,,,2022-08-10,1,,,,,モロッコオーシャン,0
854,4010901051401,新規,0,2022-08-10,2022-08-10,正心株式会社,,株式会社,東京都,世田谷区,太子堂２丁目１４－２１ユースフル三軒茶屋４０４号室,,13,112,1540004,,,,,,,2022-08-10,1,,,,,セイシン,0
856,4010903007574,新規,0,2022-08-10,2022-08-10,オンティエ合同会社,,合同会社,東京都,世田谷区,桜丘２丁目２番地１号チェリーガーデンＡ２０５,,13,112,1560054,,,,,,,2022-08-10,1,,,,,オンティエ,0
861,4011001149037,新規,0,2022-08-10,2022-08-10,株式会社伊達研究所,,株式会社,東京都,渋谷区,渋谷２丁目１９－１５宮益坂ビルディング６０９,,13,113,1500002,,,,,,,2022-08-10,1,,,,,ダテケンキュウジョ,0
862,4011001149045,新規,0,2022-08-10,2022-08-10,株式会社元文不動産,,株式会社,東京都,渋谷区,元代々木町８番１０号,,13,113,1510062,,,,,,,2022-08-10,1,,,,,ゲンブンフドウサン,0
863,4011001149078,新規,0,2022-08-10,2022-08-10,株式会社エンライツ,,株式会社,東京都,渋谷区,道玄坂１丁目１０番８号渋谷道玄坂東急ビル２Ｆ－Ｃ,,13,113,1500043,,,,,,,2022-08-10,1,,,,,エンライツ,0
864,4011003015179,新規,0,2022-08-10,2022-08-10,合同会社Ｋａｚａｒｉｐｒｏｊｅｃｔ,,合同会社,東京都,渋谷区,神宮前６丁目２３番４号桑野ビル２階,,13,113,1500001,,,,,,,2022-08-10,1,,,,,,0
865,4011101099826,新規,0,2022-08-10,2022-08-10,株式会社三〇,,株式会社,東京都,新宿区,西新宿８丁目３番３２号カーメルＩ３０２号,,13,104,1600023,,,,,,,2022-08-10,1,,,,,ミツマル,0
866,4011101099834,新規,0,2022-08-10,2022-08-10,株式会社ミルシル,,株式会社,東京都,新宿区,西新宿３丁目３番１３号西新宿水間ビル６階,,13,104,1600023,,,,,,,2022-08-10,1,,,,,ミルシル,0
872,4011701025520,新規,0,2022-08-10,2022-08-10,株式会社Ｋｌｏｃｋ,,株式会社,東京都,江戸川区,松江３丁目５番１２号,,13,123,1320025,,,,,,,2022-08-10,1,,,,,クロック,0
873,4011703003219,新規,0,2022-08-10,2022-08-10,ｍｏｍｅｎｔ合同会社,,合同会社,東京都,江戸川区,船堀３丁目１６番５－１１５号,,13,123,1340091,,,,,,,2022-08-10,1,,,,,モーメント,0
874,4011801041120,新規,0,2022-08-10,2022-08-10,綜合技術工房雷電株式会社,,株式会社,東京都,葛飾区,東金町３丁目２４番１号川畑ビル,,13,122,1250041,,,,,,,2022-08-10,1,,,,,ソウゴウギジュツコウボウライデン,0
881,4012403005538,新規,0,2022-08-10,2022-08-10,合同会社ＳＨＥｙＬＥＥ,,合同会社,東京都,三鷹市,井の頭５丁目８番３１号リッツコートＩＩ１０１号室,00127484,13,204,1810001,,,,,,,2022-08-10,1,,,,,シェイリー,0
882,4012703002516,新規,0,2022-08-10,2022-08-10,チェンジチェアコンサルティング合同会社,,合同会社,東京都,西東京市,南町４丁目１７番１４号,,13,229,1880012,,,,,,,2022-08-10,1,,,,,,0
886,4013303006246,新規,0,2022-08-10,2022-08-10,１２３４商事合同会社,,合同会社,東京都,豊島区,池袋２丁目１７－８－３１４号,,13,116,1710014,,,,,,,2022-08-10,1,,,,,イチニサンシショウジ,0
894,4020001147677,新規,0,2022-08-10,2022-08-10,株式会社ミーリス,,株式会社,神奈川県,横浜市金沢区,能見台通３４番７号ミュールバッハ能見台２０１,,14,108,2360053,,,,,,,2022-08-10,1,,,,,ミーリス,0
900,4021001076726,新規,0,2022-08-10,2022-08-10,株式会社ディリンク,,株式会社,神奈川県,逗子市,小坪３丁目１６番１号,,14,208,2490008,,,,,,,2022-08-10,1,,,,,ディリンク,0
901,4021001076734,新規,0,2022-08-10,2022-08-10,株式会社クオーレ,,株式会社,神奈川県,伊勢原市,板戸２０８番地の１－３０１号,,14,214,2591145,,,,,,,2022-08-10,1,,,,,クオーレ,0
902,4021003012010,新規,0,2022-08-10,2022-08-10,合同会社大志企画,,合同会社,神奈川県,横須賀市,久里浜４丁目１３番１３号,,14,201,2390831,,,,,,,2022-08-10,1,,,,,ダイシキカク,0
903,4021003012027,新規,0,2022-08-10,2022-08-10,合同会社リアン,,合同会社,神奈川県,相模原市中央区,相模原５丁目２番１号,,14,152,2520231,,,,,,,2022-08-10,1,,,,,リアン,0
911,4030003019956,新規,0,2022-08-10,2022-08-10,合同会社モンテ不動産,,合同会社,埼玉県,熊谷市,別府５丁目１７番地,,11,202,3600856,,,,,,,2022-08-10,1,,,,,モンテフドウサン,0
912,4030003019980,新規,0,2022-08-10,2022-08-10,合同会社ＣＳＭ企画,,合同会社,埼玉県,飯能市,大字落合３４６番地２,,11,209,3570047,,,,,,,2022-08-10,1,,,,,シーエスエムキカク,0
917,4040001124609,新規,0,2022-08-10,2022-08-10,清松株式会社,,株式会社,千葉県,千葉市花見川区,花園町１５７３番地１０,,12,102,2620021,,,,,,,2022-08-10,1,,,,,セイショウ,0
918,4040001124674,新規,0,2022-08-10,2022-08-10,株式会社輝月庭園,,株式会社,千葉県,船橋市,行田町４９番地１４ロイヤルシャトー船橋１０３号,,12,204,2730043,,,,,,,2022-08-10,1,,,,,キヅキテイエン,0
919,4040003020608,新規,0,2022-08-10,2022-08-10,合同会社旭食品,,合同会社,千葉県,旭市,足川１４０９,,12,215,2892522,,,,,,,2022-08-10,1,,,,,アサヒショクヒン,0
920,4040003020616,新規,0,2022-08-10,2022-08-10,逸家合同会社,,合同会社,千葉県,松戸市,二十世紀が丘柿の木町１０５番地の３,,12,207,2710088,,,,,,,2022-08-10,1,,,,,イッカ,0
930,4070003004590,新規,0,2022-08-10,2022-08-10,合同会社ハルクロ,,合同会社,群馬県,高崎市,高砂町６０番地１ハイラーク高崎１１０２号,,10,202,3700047,,,,,,,2022-08-10,1,,,,,ハルクロ,0
931,4080001025126,新規,0,2022-08-10,2022-08-10,株式会社ＦＤＩ,,株式会社,静岡県,牧之原市,静波３２９９番地６,,22,226,4210422,,,,,,,2022-08-10,1,,,,,エフディーアイ,0
932,4080005007475,新規,0,2022-08-10,2022-08-10,Ｇｌｏｂａｌ　Ｓｔａｒ協同組合,,その他の設立登記法人,静岡県,藤枝市,前島３丁目１２番３８号富士ビル２Ｆ,,22,214,4260067,,,,,,,2022-08-10,1,,,,,グローバルスター,0
936,4080401025997,新規,0,2022-08-10,2022-08-10,ＡＫＡＳＨＩホールディングス株式会社,,株式会社,静岡県,浜松市中区,田町２２８番地の５,,22,131,4300944,,,,,,,2022-08-10,1,,,,,アカシホールディングス,0
937,4090003002147,新規,0,2022-08-10,2022-08-10,合同会社フローラ,,合同会社,山梨県,甲府市,朝気１丁目１番７号,,19,201,4000862,,,,,,,2022-08-10,1,,,,,フローラ,0
943,4110001036887,新規,0,2022-08-10,2022-08-10,株式会社ゴロウホールディングス,,株式会社,新潟県,新潟市中央区,本町通３番町２０２番地２,,15,103,9518067,,,,,,,2022-08-10,1,,,,,ゴロウホールディングス,0
954,4120001248052,新規,0,2022-08-10,2022-08-10,養正株式会社,,株式会社,大阪府,大阪市西成区,玉出西２丁目１０番４８号,,27,122,5570045,,,,,,,2022-08-10,1,,,,,ヨウセイ,0
955,4120001248085,新規,0,2022-08-10,2022-08-10,株式会社ＭＵＳＵＢＵ,,株式会社,大阪府,大阪市淀川区,西宮原１丁目５番３３号新大阪飯田ビル１階夢あらた,,27,123,5320004,,,,,,,2022-08-10,1,,,,,ムスブ,0
956,4120001248093,新規,0,2022-08-10,2022-08-10,ストレ株式会社,,株式会社,大阪府,大阪市城東区,今福東２丁目９番３号,,27,118,5360002,,,,,,,2022-08-10,1,,,,,ストレ,0
957,4120001248102,新規,0,2022-08-10,2022-08-10,株式会社Ｊ‐ＡＳＳＩＳＴ,,株式会社,大阪府,大阪市中央区,谷町１丁目４番２号,,27,128,5400012,,,,,,,2022-08-10,1,,,,,ジェイアシスト,0
958,4120001248110,新規,0,2022-08-10,2022-08-10,株式会社ＫＩＫＩテクノ,,株式会社,大阪府,大阪市淀川区,十八条２丁目１６番４６－１０１１号,,27,123,5320001,,,,,,,2022-08-10,1,,,,,キキテクノ,0
959,4120001248127,新規,0,2022-08-10,2022-08-10,日香国際株式会社,,株式会社,大阪府,大阪市中央区,島之内２丁目４－１６ケイアンドティ道頓堀,,27,128,5420082,,,,,,,2022-08-10,1,,,,,ニチカコクサイ,0
968,4120901046349,新規,0,2022-08-10,2022-08-10,株式会社Ｇ‐ＮＥＸＴ,,株式会社,大阪府,摂津市,別府２丁目８番１８号,,27,224,5660046,,,,,,,2022-08-10,1,,,,,ジーネクスト,0
975,4130001072393,新規,0,2022-08-10,2022-08-10,株式会社みちひらき,,株式会社,京都府,京都市右京区,嵯峨天龍寺広道町１０番地３６,,26,108,6168372,,,,,,,2022-08-10,1,,,,,ミチヒラキ,0
976,4130003008123,新規,0,2022-08-10,2022-08-10,合同会社浜風,,合同会社,京都府,舞鶴市,字浜２００６番地１０９,,26,202,6250036,,,,,,,2022-08-10,1,,,,,ハマカゼ,0
979,4140001127023,新規,0,2022-08-10,2022-08-10,株式会社グランドライン,,株式会社,兵庫県,西宮市,甲東園１丁目１－６パセオ甲東１Ｆ１１０,,28,204,6620812,,,,,,,2022-08-10,1,,,,,グランドライン,0
980,4140001127097,新規,0,2022-08-10,2022-08-10,淡路島球団株式会社,,株式会社,兵庫県,淡路市,岩屋１８４６番地１,,28,226,6562401,,,,,,,2022-08-10,1,,,,,アワジシマキュウダン,0
984,4150003002751,新規,0,2022-08-10,2022-08-10,アチーバー合同会社,,合同会社,奈良県,奈良市,朱雀５丁目２番地の２平城朱雀第１住宅３５－４０２,,29,201,6310806,,,,,,,2022-08-10,1,,,,,アチーバー,0
990,4180001152562,新規,0,2022-08-10,2022-08-10,株式会社祭,,株式会社,愛知県,日進市,岩崎町小林９７番地１,,23,230,4700131,,,,,,,2022-08-10,1,,,,,マツリ,0
1004,4240001060206,新規,0,2022-08-10,2022-08-10,イケナカ工業株式会社,,株式会社,広島県,尾道市,西藤町９３６－１,,34,205,7290142,,,,,,,2022-08-10,1,,,,,イケナカコウギョウ,0
1011,4270001008607,新規,0,2022-08-10,2022-08-10,株式会社河崎植木園,,株式会社,鳥取県,米子市,河崎１７１番地４,,31,202,6830852,,,,,,,2022-08-10,1,,,,,カワサキウエキエン,0
1013,4290001098514,新規,0,2022-08-10,2022-08-10,株式会社大和屋,,株式会社,福岡県,福岡市南区,長丘４丁目３番１９号サンコーポ長丘１０１号,,40,134,8150075,,,,,,,2022-08-10,1,,,,,ヤマトヤ,0
1014,4290001098530,新規,0,2022-08-10,2022-08-10,株式会社Ｎ２フロンティア,,株式会社,福岡県,福岡市東区,東浜１丁目１３番７号１００５号,,40,131,8120055,,,,,,,2022-08-10,1,,,,,エヌツーフロンティア,0
1015,4290001098539,新規,0,2022-08-10,2022-08-10,株式会社三力不動産,,株式会社,福岡県,福岡市中央区,平和３丁目１２－１－２０３,,40,133,8100016,,,,,,,2022-08-10,1,,,,,サンリキフドウサン,0
1016,4290001098547,新規,0,2022-08-10,2022-08-10,株式会社ＤＥＦＴ,,株式会社,福岡県,福岡市早良区,田隈１丁目１１番６号,,40,137,8140174,,,,,,,2022-08-10,1,,,,,デフト,0
1017,4290001098563,新規,0,2022-08-10,2022-08-10,株式会社ＢＳＲ,,株式会社,福岡県,福岡市東区,千早４丁目２１番５５－１５２６号,,40,131,8130044,,,,,,,2022-08-10,1,,,,,ビーエスアール,0
1018,4290001098588,新規,0,2022-08-10,2022-08-10,株式会社ＨＡＣＨＩ　ＣＡＦＥ,,株式会社,福岡県,福岡市博多区,井相田１丁目９番１４号,,40,132,8120881,,,,,,,2022-08-10,1,,,,,ハチカフェ,0
1022,4290003012828,新規,0,2022-08-10,2022-08-10,華州合同会社,,合同会社,福岡県,福岡市東区,馬出３丁目１４番６号,,40,131,8120054,,,,,,,2022-08-10,1,,,,,カシュウ,0
1023,4290003012836,新規,0,2022-08-10,2022-08-10,合同会社Ｆａｉｔｈｆｕｌ,,合同会社,福岡県,八女市,納楚５４４番地,,40,210,8340004,,,,,,,2022-08-10,1,,,,,フェイスフル,0
1024,4290801028802,新規,0,2022-08-10,2022-08-10,株式会社リバティ,,株式会社,福岡県,北九州市小倉北区,上富野２丁目２番１０号ＦＩＲＳＴ上富野ハイツ３０１号,,40,106,8020022,,,,,,,2022-08-10,1,,,,,リバティ,0
1027,4310001017990,新規,0,2022-08-10,2022-08-10,株式会社友塗装,,株式会社,長崎県,西彼杵郡長与町,高田郷１３２４番地１,,42,307,8512127,,,,,,,2022-08-10,1,,,,,トモトソウ,0
1030,4320001019268,新規,0,2022-08-10,2022-08-10,株式会社ナルゲン,,株式会社,大分県,大分市,大字家島１０３７番地の１,,44,201,8700113,,,,,,,2022-08-10,1,,,,,ナルゲン,0
1034,4330003009480,新規,0,2022-08-10,2022-08-10,合同会社ＡＬＢＵＳ,,合同会社,熊本県,菊池郡菊陽町,大字津久礼３０５２番地１４,,43,404,8691101,,,,,,,2022-08-10,1,,,,,アルバス,0
1035,4340001024951,新規,0,2022-08-10,2022-08-10,株式会社田中建業,,株式会社,鹿児島県,鹿児島市,中山町１８０４番地１,,46,201,8910105,,,,,,,2022-08-10,1,,,,,タナカケンギョウ,0
1041,4350001017905,新規,0,2022-08-10,2022-08-10,ハッピー・ワンダー・ネット株式会社,,株式会社,宮崎県,宮崎市,橘通東３丁目２番６号２階,,45,201,8800805,,,,,,,2022-08-10,1,,,,,ハッピーワンダーネット,0
1043,4350003004141,新規,0,2022-08-10,2022-08-10,合同会社ｅ‐サポート,,合同会社,宮崎県,宮崎市,大島町南窪７９８,,45,201,8800824,,,,,,,2022-08-10,1,,,,,イーサポート,0
1051,4370001048915,新規,0,2022-08-10,2022-08-10,ＲＡＹＳ株式会社,,株式会社,宮城県,仙台市青葉区,宮町３丁目６番１５－１号,,04,101,9800004,,,,,,,2022-08-10,1,,,,,レイズ,0
1052,4370001048923,新規,0,2022-08-10,2022-08-10,株式会社阿部建設,,株式会社,宮城県,仙台市宮城野区,東仙台４丁目２番２号,,04,102,9830833,,,,,,,2022-08-10,1,,,,,アベケンセツ,0
1063,4390001016993,新規,0,2022-08-10,2022-08-10,株式会社００８,,株式会社,山形県,東置賜郡高畠町,大字一本柳５０番地６,,06,381,9920334,,,,,,,2022-08-10,1,,,,,ゼロゼロハチ,0
1064,4410001013253,新規,0,2022-08-10,2022-08-10,株式会社ひない鶏食品,,株式会社,秋田県,南秋田郡井川町,坂本字飛塚５８番地３,,05,366,0181523,,,,,,,2022-08-10,1,,,,,ヒナイドリショクヒン,0
1070,4430003014181,新規,0,2022-08-10,2022-08-10,合同会社ＭＥＤＥＬ,,合同会社,北海道,札幌市東区,北十五条東１丁目１－２８サニープレイス１５１－２０１,,01,103,0650015,,,,,,,2022-08-10,1,,,,,メデル,0
1072,4470001019212,新規,0,2022-08-10,2022-08-10,株式会社ソルナ,,株式会社,香川県,仲多度郡まんのう町,七箇３３０５番地２,,37,406,7690303,,,,,,,2022-08-10,1,,,,,ソルナ,0
1075,4700150109161,新規,0,2022-08-10,2022-06-01,たてやまラテンフェスティバル実行委員会,,その他,千葉県,館山市,見物１５－１,,12,205,2940305,,,,,,,2022-06-01,1,,,,,タテヤマラテンフエステイバルジツコウイインカイ,0
1088,5010001228659,新規,0,2022-08-10,2022-08-10,株式会社ＣＡＲＰＬＥ,,株式会社,東京都,千代田区,神田須田町２丁目２３－１天翔ビル１１０４号,,13,101,1010041,,,,,,,2022-08-10,1,,,,,カープル,0
1089,5010001228683,新規,0,2022-08-10,2022-08-10,ｉＳＴＵＤｉＯ株式会社,,株式会社,東京都,中央区,銀座１丁目１２番４号Ｎ＆ＥＢＬＤ．７階,,13,102,1040061,,,,,,,2022-08-10,1,,,,,アイスタジオ,0
1090,5010001228691,新規,0,2022-08-10,2022-08-10,再エネ電源開発株式会社,,株式会社,東京都,千代田区,霞が関３丁目２番５号,,13,101,1000013,,,,,,,2022-08-10,1,,,,,サイエネデンゲンカイハツ,0
1091,5010001228725,新規,0,2022-08-10,2022-08-10,株式会社楓会,,株式会社,東京都,文京区,白山５丁目２番１０号,,13,105,1120001,,,,,,,2022-08-10,1,,,,,カエデカイ,0
1094,5010101015288,新規,0,2022-08-10,2022-08-10,株式会社ＡＲＳ　ＯＮＥ,,株式会社,東京都,八王子市,下柚木３丁目４番地３－４０３,,13,201,1920372,,,,,,,2022-08-10,1,,,,,アースワン,0
1096,5010103001971,新規,0,2022-08-10,2022-08-10,合同会社ＦＩＲＥ,,合同会社,東京都,八王子市,打越町１４８１－５１,,13,201,1920911,,,,,,,2022-08-10,1,,,,,ファイアー,0
1102,5010401168918,新規,0,2022-08-10,2022-08-10,株式会社ＲＥＮＯＳＹ　Ｍ＆Ａ,,株式会社,東京都,港区,六本木３丁目２番１号,,13,103,1060032,,,,,,,2022-08-10,1,,,,,リノシーエムアンドエー,0
1103,5010401168967,新規,0,2022-08-10,2022-08-10,株式会社九龍薬品,,株式会社,東京都,港区,南青山２丁目２７番２２号青山安田ビル３階,,13,103,1070062,,,,,,,2022-08-10,1,,,,,クリュウヤクヒン,0
1104,5010401168975,新規,0,2022-08-10,2022-08-10,ＤＡＲＥＤＩ株式会社,,株式会社,東京都,港区,南麻布４丁目４番２１号,,13,103,1060047,,,,,,,2022-08-10,1,,,,,ダレッジ,0
1106,5010501049217,新規,0,2022-08-10,2022-08-10,株式会社東洋ドライクリーニング,,株式会社,東京都,台東区,元浅草４丁目２－１３石塚ビル１階,,13,106,1110041,,,,,,,2022-08-10,1,,,,,トウヨウドライクリーニング,0
1108,5010503006678,新規,0,2022-08-10,2022-08-10,合同会社ＮＫ企画,,合同会社,東京都,台東区,根岸１丁目１番２７号,,13,106,1100003,,,,,,,2022-08-10,1,,,,,エヌケイキカク,0
1109,5010601061609,新規,0,2022-08-10,2022-08-10,株式会社Ｄｕａｌ　Ｗｏｒｋ,,株式会社,東京都,墨田区,京島１丁目１番２－１８０８号,,13,107,1310046,,,,,,,2022-08-10,1,,,,,デュアルワーク,0
1114,5010701043044,新規,0,2022-08-10,2022-08-10,株式会社Ｒｅ‐Ｂｕｉｌｄ,,株式会社,東京都,品川区,東五反田１丁目１８番５－２０３号,,13,109,1410022,,,,,,,2022-08-10,1,,,,,リビルド,0
1115,5010701043060,新規,0,2022-08-10,2022-08-10,株式会社アルテール,,株式会社,東京都,品川区,大井１丁目２３番７号,,13,109,1400014,,,,,,,2022-08-10,1,,,,,アルテール,0
1117,5010705003399,新規,0,2022-08-10,2022-08-10,かむろ坂監査法人,,その他の設立登記法人,東京都,品川区,西五反田３丁目１５番６号リードシー目黒不動前ビル７－２０,,13,109,1410031,,,,,,,2022-08-10,1,,,,,カムロザカ,0
1121,5010901051391,新規,0,2022-08-10,2022-08-10,株式会社テックブイ,,株式会社,東京都,世田谷区,北沢１丁目３３番１９号,,13,112,1550031,,,,,,,2022-08-10,1,,,,,テックブイ,0
1131,5011001149093,新規,0,2022-08-10,2022-08-10,ニューライフサイエンス株式会社,,株式会社,東京都,渋谷区,広尾１丁目７番２０号,,13,113,1500012,,,,,,,2022-08-10,1,,,,,ニューライフサイエンス,0
1134,5011003015178,新規,0,2022-08-10,2022-08-10,ダイヤモンドダリア合同会社,,合同会社,東京都,渋谷区,渋谷３丁目１－９,,13,113,1500002,,,,,,,2022-08-10,1,,,,,ダイヤモンドダリア,0
1136,5011101099817,新規,0,2022-08-10,2022-08-10,株式会社Ｔｏｋｙｏ　Ｌａｎｄｓ,,株式会社,東京都,新宿区,上落合３丁目１９番地２１号１０７,,13,104,1610034,,,,,,,2022-08-10,1,,,,,トウキョウランズ,0
1144,5011601026163,新規,0,2022-08-10,2022-08-10,株式会社プロメテミス,,株式会社,東京都,練馬区,中村南１丁目３０番５号,,13,120,1760025,,,,,,,2022-08-10,1,,,,,プロメテミス,0
1148,5011801041136,新規,0,2022-08-10,2022-08-10,株式会社Ｔｗｉｎｋｌｅ,,株式会社,東京都,足立区,千住大川町３６番１９号Ｌａ，Ｐｒｏｖｅｎｃｅ，ｄｕ北千住２０４,,13,121,1200031,,,,,,,2022-08-10,1,,,,,トゥインクル,0
1150,5012401039520,新規,0,2022-08-10,2022-08-10,株式会社テイクワンズ,,株式会社,東京都,三鷹市,大沢５丁目１８番１０号,,13,204,1810015,,,,,,,2022-08-10,1,,,,,テイクワンズ,0
1151,5012403005537,新規,0,2022-08-10,2022-08-10,ｎｏｔ合同会社,,合同会社,東京都,稲城市,矢野口１２３１－３４,,13,225,2060812,,,,,,,2022-08-10,1,,,,,ノット,0
1152,5012701017192,新規,0,2022-08-10,2022-08-10,株式会社Ｕｌｕ　Ｅｉｇｈｔ,,株式会社,東京都,東村山市,恩多町１丁目２６番地１６,,13,213,1890011,,,,,,,2022-08-10,1,,,,,ウルエイト,0
1153,5012703002515,新規,0,2022-08-10,2022-08-10,合同会社ワイルデスト,,合同会社,東京都,西東京市,住吉町３丁目１０番２５－１６１０号,,13,229,2020005,,,,,,,2022-08-10,1,,,,,ワイルデスト,0
1156,5013105001808,新規,0,2022-08-10,2022-08-10,一般社団法人ｂｏｎｄ,,その他の設立登記法人,東京都,青梅市,大門２丁目２０５番地の１,,13,205,1980014,,,,,,,2022-08-10,1,,,,,ボンド,0
1170,5020001147643,新規,0,2022-08-10,2022-08-10,株式会社エヌエスコンサルティング,,株式会社,神奈川県,横浜市中区,弁天通６丁目７６番地ＬＳＰ横濱プリマゾーナ７０５号室,,14,104,2310007,,,,,,,2022-08-10,1,,,,,エヌエスコンサルティング,0
1171,5020001147742,新規,0,2022-08-10,2022-08-10,株式会社ＨＡＲＬＳ,,株式会社,神奈川県,横浜市中区,太田町２丁目３２番地１ビラアペックス横浜関内３－Ｅ,,14,104,2310011,,,,,,,2022-08-10,1,,,,,ハールズ,0
1178,5020003022209,新規,0,2022-08-10,2022-08-10,カノエキャピタル合同会社,,合同会社,神奈川県,川崎市多摩区,菅馬場１丁目３１番９号,,14,135,2140004,,,,,,,2022-08-10,1,,,,,カノエキャピタル,0
1180,5020005015623,新規,0,2022-08-10,2022-08-10,一般社団法人動植物と人間が共に快適空間を作る会,,その他の設立登記法人,神奈川県,横浜市金沢区,福浦１丁目１番地１,,14,108,2360004,,,,,,,2022-08-10,1,,,,,ドウショクブツトニンゲンガトモニカイテキクウカンヲツクルカイ,0
1183,5021001076725,新規,0,2022-08-10,2022-08-10,プレキャストブレイン株式会社,,株式会社,神奈川県,藤沢市,大庭５０５５番地の６湘南西部２～１４～１４５１,,14,205,2510861,,,,,,,2022-08-10,1,,,,,プレキャストブレイン,0
1184,5021001076733,新規,0,2022-08-10,2022-08-10,株式会社いえびるこめぜん,,株式会社,神奈川県,平塚市,代官町１番２２号,,14,203,2540807,,,,,,,2022-08-10,1,,,,,イエビルコメゼン,0
1191,5030001149589,新規,0,2022-08-10,2022-08-10,ＳＡＨＩＷＡＬ　ＴＲＡＤＩＮＧ株式会社,,株式会社,埼玉県,羽生市,西５丁目２７番地１４,,11,216,3480054,,,,,,,2022-08-10,1,,,,,サヒワルトレーディング,0
1192,5030001149606,新規,0,2022-08-10,2022-08-10,パーツプランニング株式会社,,株式会社,埼玉県,川口市,末広１丁目１５番９号２Ｆ,,11,203,3320006,,,,,,,2022-08-10,1,,,,,パーツプランニング,0
1193,5030001149655,新規,0,2022-08-10,2022-08-10,株式会社ＭｉＲＡＣＬＥＳ,,株式会社,埼玉県,秩父郡東秩父村,大字坂本５５,,11,369,3550372,,,,,,,2022-08-10,1,,,,,ミラクルズ,0
1198,5030003019955,新規,0,2022-08-10,2022-08-10,ＲｅＡｒｃｈｉ合同会社,,合同会社,埼玉県,朝霞市,朝志ケ丘１丁目５番４０－Ｅ－１０６号,,11,227,3510035,,,,,,,2022-08-10,1,,,,,リアーキ,0
1199,5040001124632,新規,0,2022-08-10,2022-08-10,ノバソフト株式会社,,株式会社,千葉県,松戸市,西馬橋幸町１１２,,12,207,2710047,,,,,,,2022-08-10,1,,,,,ノバソフト,0
1200,5040001124673,新規,0,2022-08-10,2022-08-10,株式会社カワウチ,,株式会社,千葉県,松戸市,本町１７－１１芹澤ビル６Ｆ,,12,207,2710091,,,,,,,2022-08-10,1,,,,,カワウチ,0
1202,5040003020458,新規,0,2022-08-10,2022-08-10,ＥＶＥＲＦＲＥＳＨ合同会社,,合同会社,千葉県,千葉市美浜区,高洲３丁目１５－４－１２１０,,12,106,2610004,,,,,,,2022-08-10,1,,,,,エバーフレッシュ,0
1203,5040003020598,新規,0,2022-08-10,2022-08-10,合同会社オミクス,,合同会社,千葉県,市川市,真間２丁目１番４号,,12,203,2720826,,,,,,,2022-08-10,1,,,,,オミクス,0
1204,5040003020615,新規,0,2022-08-10,2022-08-10,合同会社カリス,,合同会社,千葉県,船橋市,西船４丁目２９－８ＮＳＴ西船３０５,,12,204,2730031,,,,,,,2022-08-10,1,,,,,カリス,0
1209,5050005013120,新規,0,2022-08-10,2022-08-10,一般社団法人学術支援協会,,その他の設立登記法人,茨城県,ひたちなか市,湊泉町３番９号,,08,221,3111216,,,,,,,2022-08-10,1,,,,,ガクジュツシエンキョウカイ,0
1213,5060001035167,新規,0,2022-08-10,2022-08-10,株式会社ストラクタス,,株式会社,栃木県,宇都宮市,富士見が丘２丁目１番８号,,09,201,3200011,,,,,,,2022-08-10,1,,,,,ストラクタス,0
1214,5060001035175,新規,0,2022-08-10,2022-08-10,株式会社ＭＵＮＩ,,株式会社,栃木県,宇都宮市,宮原１丁目８番１５号,,09,201,3200835,,,,,,,2022-08-10,1,,,,,ムニ,0
1218,5070001039522,新規,0,2022-08-10,2022-08-10,株式会社Ｓｐｒｏｕｔ,,株式会社,群馬県,高崎市,栄町３番１１号高崎バナーズビル４Ｆ,,10,202,3700841,,,,,,,2022-08-10,1,,,,,スプラウト,0
1229,5110001036886,新規,0,2022-08-10,2022-08-10,ｃｈａｉｎｏｎ株式会社,,株式会社,新潟県,新潟市中央区,近江２丁目１０－１２第二近江ビル５０１,,15,103,9500971,,,,,,,2022-08-10,1,,,,,シェノン,0
1243,5120001247937,新規,0,2022-08-10,2022-08-10,株式会社エイチ,,株式会社,大阪府,大阪市西成区,太子１丁目１４番１６号,,27,122,5570002,,,,,,,2022-08-10,1,,,,,エイチ,0
1244,5120001248010,新規,0,2022-08-10,2022-08-10,天＿株式会社,00127486,株式会社,大阪府,大阪市中央区,船場中央２丁目１番４号船場センタービル４号館地下一階Ｂ１０８ＲＯＹＡＬＯＦＦＩＣＥ内,,27,128,5410055,,,,,,,2022-08-10,1,,,,,テンゲ,0
1245,5120001248035,新規,0,2022-08-10,2022-08-10,株式会社ジェリー,,株式会社,大阪府,大阪市住吉区,墨江３丁目１７番１８号申野オフィス１０１号室,,27,120,5580043,,,,,,,2022-08-10,1,,,,,ジェリー,0
1246,5120001248051,新規,0,2022-08-10,2022-08-10,株式会社ＲＩＳＥＧＡＴＥ,,株式会社,大阪府,大阪市中央区,南久宝寺町３丁目３番３号１階,,27,128,5410058,,,,,,,2022-08-10,1,,,,,ライズゲート,0
1247,5120001248118,新規,0,2022-08-10,2022-08-10,株式会社木津不動産,,株式会社,大阪府,大阪市中央区,上本町西３丁目２番２０－６０１号,,27,128,5420062,,,,,,,2022-08-10,1,,,,,キヅフドウサン,0
1248,5120001248150,新規,0,2022-08-10,2022-08-10,株式会社クロスワン,,株式会社,大阪府,枚方市,春日西町４丁目１番１号,,27,210,5730136,,,,,,,2022-08-10,1,,,,,クロスワン,0
1255,5120101066048,新規,0,2022-08-10,2022-08-10,ＮＡＲＡ国際株式会社,,株式会社,大阪府,堺市堺区,新在家町西１丁２番２５号,,27,141,5900969,,,,,,,2022-08-10,1,,,,,ナラコクサイ,0
1257,5120901046348,新規,0,2022-08-10,2022-08-10,株式会社高瀬建設,,株式会社,大阪府,吹田市,上山田２番Ａ－３０１号,,27,205,5650872,,,,,,,2022-08-10,1,,,,,タカセケンセツ,0
1258,5120901046364,新規,0,2022-08-10,2022-08-10,株式会社Ｏ．ｓｔｏｎｅ,,株式会社,大阪府,茨木市,新堂１丁目８番１９号,,27,211,5670835,,,,,,,2022-08-10,1,,,,,オーストーン,0
1271,5140001127022,新規,0,2022-08-10,2022-08-10,株式会社佐曽利園芸組合,,株式会社,兵庫県,宝塚市,上佐曽利字大垣内１６－１,,28,214,6691202,,,,,,,2022-08-10,1,,,,,サソリエンゲイクミアイ,0
1272,5140001127030,新規,0,2022-08-10,2022-08-10,そう株式会社,,株式会社,兵庫県,姫路市,岡田２４６番地１,,28,201,6700982,,,,,,,2022-08-10,1,,,,,ソウ,0
1275,5150003002750,新規,0,2022-08-10,2022-08-10,合同会社Ｈｉｄｔｓ,,合同会社,奈良県,北葛城郡王寺町,本町５丁目１０番１４号,,29,425,6360012,,,,,,,2022-08-10,1,,,,,ヒッツ,0
1277,5160001024440,新規,0,2022-08-10,2022-08-10,株式会社イーエムエステート,,株式会社,滋賀県,大津市,稲葉台１４番２２号,,25,201,5200065,,,,,,,2022-08-10,1,,,,,イーエムエステート,0
1278,5160001024449,新規,0,2022-08-10,2022-08-10,株式会社ニシザワ商会,,株式会社,滋賀県,東近江市,中里町５６７番地,,25,213,5270105,,,,,,,2022-08-10,1,,,,,ニシザワショウカイ,0
1279,5170001017229,新規,0,2022-08-10,2022-08-10,板橋ホールディングス株式会社,,株式会社,和歌山県,和歌山市,有本１１１番地,,30,201,6408390,,,,,,,2022-08-10,1,,,,,イタバシホールディングス,0
1280,5170003001759,新規,0,2022-08-10,2022-08-10,スリーユー合同会社,,合同会社,和歌山県,和歌山市,狐島６１５－２８７,,30,201,6408412,,,,,,,2022-08-10,1,,,,,スリーユー,0
1288,5180001152479,新規,0,2022-08-10,2022-08-10,Ｓｏｌｕｔｉｏｎｓ株式会社,,株式会社,愛知県,名古屋市中村区,名駅１丁目１番地３号ＪＲゲートタワー２７階,,23,105,4500002,,,,,,,2022-08-10,1,,,,,ソリューションズ,0
1289,5180001152561,新規,0,2022-08-10,2022-08-10,光進トレーディング株式会社,,株式会社,愛知県,海部郡飛島村,大字梅之郷字宮東２５番地の１,,23,427,4901435,,,,,,,2022-08-10,1,,,,,コウシントレーディング,0
1290,5180001152586,新規,0,2022-08-10,2022-08-10,株式会社一寿々,,株式会社,愛知県,海部郡蟹江町,舟入１丁目１６７番地,,23,425,4970048,,,,,,,2022-08-10,1,,,,,イチスズ,0
1300,5180301036506,新規,0,2022-08-10,2022-08-10,ゼンウェル中部株式会社,,株式会社,愛知県,豊田市,広美町郷西１３６番地,,23,211,4701215,,,,,,,2022-08-10,1,,,,,ゼンウェルチュウブ,0
1301,5180301036539,新規,0,2022-08-10,2022-08-10,株式会社政真,,株式会社,愛知県,豊田市,吉原町平池４９番地１ヴォワールノール,,23,211,4730916,,,,,,,2022-08-10,1,,,,,セイシン,0
1304,5200001040367,新規,0,2022-08-10,2022-08-10,株式会社ライカレイン,,株式会社,岐阜県,岐阜市,今小町３番地,,21,201,5008069,,,,,,,2022-08-10,1,,,,,ライカレイン,0
1305,5200003005640,新規,0,2022-08-10,2022-08-10,合同会社Ｆｕｚｉクリエイティブ,,合同会社,岐阜県,大垣市,西之川町１丁目１５７－１,,21,202,5030018,,,,,,,2022-08-10,1,,,,,フジイクリエイティブ,0
1306,5200005013377,新規,0,2022-08-10,2022-08-10,ＮＰＯ法人未来へのみち,,その他の設立登記法人,岐阜県,岐阜市,六条北４丁目１０番１９号,,21,201,5008359,,,,,,,2022-08-10,1,,,,,ミライヘノミチ,0
1307,5210003001548,新規,0,2022-08-10,2022-08-10,合同会社ＫＯＴＯＮＯＨＡ,,合同会社,福井県,大飯郡高浜町,和田１１７字上浜田９９番地,,18,481,9192201,,,,,,,2022-08-10,1,,,,,コトノハ,0
1310,5230001019482,新規,0,2022-08-10,2022-08-10,流れ星不動産株式会社,,株式会社,富山県,富山市,五福１７２１番地１０,,16,201,9300887,,,,,,,2022-08-10,1,,,,,ナガレボシフドウサン,0
1312,5240001060213,新規,0,2022-08-10,2022-08-10,株式会社高岡産業,,株式会社,広島県,福山市,引野町２丁目２１番４号,,34,207,7210942,,,,,,,2022-08-10,1,,,,,タカオカサンギョウ,0
1313,5240001060221,新規,0,2022-08-10,2022-08-10,株式会社ＨＣインベストメント,,株式会社,広島県,広島市中区,千田町３丁目２番１２－４０３号,,34,101,7300052,,,,,,,2022-08-10,1,,,,,エイチシーインベストメント,0
1315,5250003003128,新規,0,2022-08-10,2022-08-10,合同会社ＬＥＤパートナーズ,,合同会社,山口県,下関市,一の宮東町２丁目２９１番地１６,,35,201,7510809,,,,,,,2022-08-10,1,,,,,エルイーディーパートナーズ,0
1319,5260003004001,新規,0,2022-08-10,2022-08-10,合同会社ＵＭＩＺＯＩ,,合同会社,岡山県,岡山市北区,花尻あかね町８番地１０１号,,33,101,7010133,,,,,,,2022-08-10,1,,,,,ウミゾイ,0
1320,5270001008606,新規,0,2022-08-10,2022-08-10,株式会社ＴＥＧＯ,,株式会社,鳥取県,東伯郡北栄町,江北７５番地,,31,372,6892101,,,,,,,2022-08-10,1,,,,,テゴ,0
1323,5290001098521,新規,0,2022-08-10,2022-08-10,株式会社松嶋商店,,株式会社,福岡県,福津市,花見が丘３丁目１８番１６号,,40,224,8113214,,,,,,,2022-08-10,1,,,,,マツシマショウテン,0
1324,5290001098546,新規,0,2022-08-10,2022-08-10,蓮ホールディングス株式会社,,株式会社,福岡県,福岡市博多区,祇園町６番２６号,,40,132,8120038,,,,,,,2022-08-10,1,,,,,レンホールディングス,0
1325,5290001098562,新規,0,2022-08-10,2022-08-10,株式会社アップステラ,,株式会社,福岡県,福岡市中央区,今川２丁目７－６０－１３０２,,40,133,8100054,,,,,,,2022-08-10,1,,,,,アップステラ,0
1326,5290003012835,新規,0,2022-08-10,2022-08-10,ＥＡＲＴＨＥＲ　ＨＯＭＥ　ＪＡＰＡＮ合同会社,,合同会社,福岡県,福岡市中央区,荒戸１丁目６番１号１Ｆ,,40,133,8100062,,,,,,,2022-08-10,1,,,,,アーサーホームジャパン,0
1327,5290801028801,新規,0,2022-08-10,2022-08-10,株式会社Ｍ’ｓ,,株式会社,福岡県,遠賀郡岡垣町,海老津２丁目５番２号,,40,383,8114231,,,,,,,2022-08-10,1,,,,,エムズ,0
1331,5330001030017,新規,0,2022-08-10,2022-08-10,アングルトライホールディングス株式会社,,株式会社,熊本県,上益城郡嘉島町,大字井寺４１番地８,,43,442,8613103,,,,,,,2022-08-10,1,,,,,アングルトライホールディングス,0
1340,5350003004140,新規,0,2022-08-10,2022-08-10,ＬＵＡＮＡ合同会社,,合同会社,宮崎県,宮崎市,青島西２丁目９番地１１オーシャンクレスト２０２号,,45,201,8892163,,,,,,,2022-08-10,1,,,,,ルアナ,0
1342,5370001048930,新規,0,2022-08-10,2022-08-10,ＮＥＯワークシステム株式会社,,株式会社,宮城県,仙台市太白区,柳生２丁目２７番地の１ダイアパレス南仙台１０３,,04,104,9811106,,,,,,,2022-08-10,1,,,,,ネオワークシステム,0
1349,5390003001984,新規,0,2022-08-10,2022-08-10,ふくファーマシー合同会社,,合同会社,山形県,鶴岡市,本町２丁目１６番１号,,06,203,9970034,,,,,,,2022-08-10,1,,,,,フクファーマシー,0
1362,5430003014172,新規,0,2022-08-10,2022-08-10,合同会社ＰＲＯＡＲＴ,,合同会社,北海道,札幌市手稲区,西宮の沢一条４丁目１３番９号,,01,109,0060001,,,,,,,2022-08-10,1,,,,,プロアート,0
1372,5700150111100,新規,0,2022-08-10,2022-08-10,Ｍｉｈａｒａｓｈｉ　Ｐｔｙ　Ｌｉｍｉｔｅｄ,,外国会社等,,,,,,,,１１０　Ｌａｍｒｏｃｋ　Ａｖｅ，Ｂｏｎｄｉ　Ｂｅａｃｈ　ＮＳＷ　２０２６　Ａｕｓｔｒａｌｉａ,,,,,,2022-08-10,1,,,,,ミハラシピーテイーワイリミテツド,0
1387,6010001228732,新規,0,2022-08-10,2022-08-10,Ｍ　ｆｌｏｗｅｒ株式会社,,株式会社,東京都,中央区,新川２丁目２３番１１号,,13,102,1040033,,,,,,,2022-08-10,1,,,,,エムフラワー,0
1390,6010003038378,新規,0,2022-08-10,2022-08-10,合同会社ハートウェルズアップ,,合同会社,東京都,文京区,白山１丁目１６－６,,13,105,1130001,,,,,,,2022-08-10,1,,,,,ハートウェルズアップ,0
1391,6010003038386,新規,0,2022-08-10,2022-08-10,合同会社百才,,合同会社,東京都,中央区,銀座１丁目２２番１１号,,13,102,1040061,,,,,,,2022-08-10,1,,,,,ヒャクサイ,0
1393,6010103001970,新規,0,2022-08-10,2022-08-10,ＤＵＡＬ合同会社,,合同会社,東京都,八王子市,元横山町２丁目５－６－２０５,,13,201,1920063,,,,,,,2022-08-10,1,,,,,デュアル,0
1395,6010401168917,新規,0,2022-08-10,2022-08-10,株式会社ＬｉＰＬＵＳ,,株式会社,東京都,港区,東新橋１丁目９番２号汐留住友ビル１６階,,13,103,1050021,,,,,,,2022-08-10,1,,,,,リプラス,0
1396,6010401168933,新規,0,2022-08-10,2022-08-10,株式会社ＧＩＦＴ．ＡＣＡＤＥＭＹ,,株式会社,東京都,港区,南青山５丁目１３番２号ＣＩＳＣビル２Ｆ,,13,103,1070062,,,,,,,2022-08-10,1,,,,,ギフトアカデミー,0
1397,6010401169064,新規,0,2022-08-10,2022-08-10,ｈｅｒｍｉｎｅ株式会社,,株式会社,東京都,港区,海岸３丁目１９番２－７１６号マリンシティダイヤモンドパレス,,13,103,1080022,,,,,,,2022-08-10,1,,,,,エルミン,0
1400,6010403028243,新規,0,2022-08-10,2022-08-10,ｒｏａｒ合同会社,,合同会社,東京都,港区,西麻布１丁目１４番５号永都ビル西麻布１０２,,13,103,1060031,,,,,,,2022-08-10,1,,,,,ロア,0
1405,6010501049216,新規,0,2022-08-10,2022-08-10,株式会社Ｌｕｃｉｌａ　Ｌｕｃｉｌａ,,株式会社,東京都,台東区,入谷２丁目６番１１－７０１号,,13,106,1100013,,,,,,,2022-08-10,1,,,,,ルシラルシラ,0
1407,6010705003398,新規,0,2022-08-10,2022-08-10,Ｋ２税理士法人,,その他の設立登記法人,東京都,品川区,西五反田１丁目１７番１号第二東栄ビル６０２,,13,109,1410031,,,,,,,2022-08-10,1,,,,,ケーツー,0
1413,6010901051390,新規,0,2022-08-10,2022-08-10,南雲株式会社,,株式会社,東京都,世田谷区,奥沢５丁目２６番３号,,13,112,1580083,,,,,,,2022-08-10,1,,,,,ナンクモ,0
1414,6010903007572,新規,0,2022-08-10,2022-08-10,合同会社ＳｅｎＴｅｎｃｅ,,合同会社,東京都,世田谷区,三軒茶屋１丁目１６番２２号ＡＰＥＸ２０２号室,,13,112,1540024,,,,,,,2022-08-10,1,,,,,センテンス,0
1420,6011003015160,新規,0,2022-08-10,2022-08-10,新農業支援協会合同会社,,合同会社,東京都,渋谷区,渋谷２丁目２４－１２渋谷スクランブルスクエア３９Ｆ,,13,113,1500002,,,,,,,2022-08-10,1,,,,,シンノウギョウシエンキョウカイ,0
1421,6011005009672,新規,0,2022-08-10,2022-08-10,一般社団法人美意識コンシェルジュ協会,,その他の設立登記法人,東京都,渋谷区,本町２丁目４０番６号茶静山園ビル３階,,13,113,1510071,,,,,,,2022-08-10,1,,,,,ビイシキコンシェルジュキョウカイ,0
1435,6011601026170,新規,0,2022-08-10,2022-08-10,株式会社Ｓｕｎｓｈｉｎｅ　Ｌｉｆｅ,,株式会社,東京都,練馬区,石神井町２丁目１０番１７号,,13,120,1770041,,,,,,,2022-08-10,1,,,,,サンシャインライフ,0
1438,6011701025519,新規,0,2022-08-10,2022-08-10,株式会社エスポワール,,株式会社,東京都,江戸川区,西葛西２丁目１番２４号,,13,123,1340088,,,,,,,2022-08-10,1,,,,,エスポワール,0
1439,6011703003217,新規,0,2022-08-10,2022-08-10,東陽フーズ合同会社,,合同会社,東京都,江戸川区,東葛西６丁目２７番６号,,13,123,1340084,,,,,,,2022-08-10,1,,,,,トウヨウフーズ,0
1440,6011801041127,新規,0,2022-08-10,2022-08-10,株式会社エコ助,,株式会社,東京都,足立区,中川４丁目４１番３０号東亜ビル２Ｆ,,13,121,1200002,,,,,,,2022-08-10,1,,,,,エコスケ,0
1441,6011803005220,新規,0,2022-08-10,2022-08-10,合同会社ステラ・イブ,,合同会社,東京都,足立区,竹の塚４丁目１３番３号シャングリラ竹の塚３０３,,13,121,1210813,,,,,,,2022-08-10,1,,,,,ステライブ,0
1442,6012701017200,新規,0,2022-08-10,2022-08-10,株式会社シンデンコウ,,株式会社,東京都,東久留米市,南沢１丁目５番１１号,,13,222,2030023,,,,,,,2022-08-10,1,,,,,シンデンコウ,0
1443,6012703002514,新規,0,2022-08-10,2022-08-10,合同会社コスモ,,合同会社,東京都,東村山市,秋津町５丁目１５－１－２０１,,13,213,1890001,,,,,,,2022-08-10,1,,,,,コスモ,0
1444,6012803002851,新規,0,2022-08-10,2022-08-10,合同会社ケーナオ・エージェンシー,,合同会社,東京都,日野市,南平６丁目２８―２４,,13,212,1910041,,,,,,,2022-08-10,1,,,,,ケーナオエージェンシー,0
1455,6020001147667,新規,0,2022-08-10,2022-08-10,株式会社ファインデザイン,,株式会社,神奈川県,横浜市緑区,鴨居４丁目２３番１１号,,14,113,2260003,,,,,,,2022-08-10,1,,,,,ファインデザイン,0
1456,6020001147683,新規,0,2022-08-10,2022-08-10,株式会社Ｌｕｍｉｔ,,株式会社,神奈川県,横浜市中区,本町５丁目４９甲陽ビル８階,,14,104,2310005,,,,,,,2022-08-10,1,,,,,ルミット,0
1465,6021001076682,新規,0,2022-08-10,2022-08-10,株式会社Ｒ‐９９,,株式会社,神奈川県,大和市,下鶴間１７８３番地３,,14,213,2420001,,,,,,,2022-08-10,1,,,,,アールナインティーナイン,0
1466,6021001076724,新規,0,2022-08-10,2022-08-10,株式会社亀谷工務店,,株式会社,神奈川県,横須賀市,馬堀海岸４丁目１番１２－２０２号,,14,201,2390801,,,,,,,2022-08-10,1,,,,,カメヤコウムテン,0
1467,6021001076732,新規,0,2022-08-10,2022-08-10,株式会社Ｋ．Ｉ　ｉｎｔｅｒｉｏｒ,,株式会社,神奈川県,横須賀市,馬堀町４丁目６番２７号,,14,201,2390802,,,,,,,2022-08-10,1,,,,,ケーアイインテリア,0
1468,6021001076749,新規,0,2022-08-10,2022-08-10,株式会社ＹＭＯコーポレーション,,株式会社,神奈川県,茅ヶ崎市,菱沼１丁目９番１３号,,14,207,2530011,,,,,,,2022-08-10,1,,,,,ワイエムオーコーポレーション,0
1469,6021001076757,新規,0,2022-08-10,2022-08-10,株式会社吉田,,株式会社,神奈川県,座間市,入谷西２丁目３８番１２号,,14,216,2520029,,,,,,,2022-08-10,1,,,,,ヨシダ,0
1474,6030001149605,新規,0,2022-08-10,2022-08-10,株式会社ＤＩＡＬＴＯ,,株式会社,埼玉県,さいたま市大宮区,桜木町１丁目３７８番地,,11,103,3300854,,,,,,,2022-08-10,1,,,,,ディアルト,0
1477,6030003019962,新規,0,2022-08-10,2022-08-10,合同会社ルピナス,,合同会社,埼玉県,戸田市,中町１丁目６番地の９,,11,224,3350012,,,,,,,2022-08-10,1,,,,,ルピナス,0
1479,6040001124581,新規,0,2022-08-10,2022-08-10,株式会社ｏｆｆｉｃｅ　Ｂ,,株式会社,千葉県,船橋市,二和西６丁目１８番７０－３０４号,,12,204,2740806,,,,,,,2022-08-10,1,,,,,オフィスビー,0
1484,6040003020589,新規,0,2022-08-10,2022-08-10,ＲＩＯＭＯＴＯＲ合同会社,,合同会社,千葉県,野田市,岩名１丁目６番地の２２,,12,208,2780055,,,,,,,2022-08-10,1,,,,,リオモーター,0
1487,6050001051494,新規,0,2022-08-10,2022-08-10,株式会社マルマス,,株式会社,茨城県,那珂郡東海村,大字舟石川８４３番地の１,,08,341,3191111,,,,,,,2022-08-10,1,,,,,マルマス,0
1496,6060003004185,新規,0,2022-08-10,2022-08-10,サンポア合同会社,,合同会社,栃木県,日光市,木和田島１５６８番地１０４,,09,206,3212345,,,,,,,2022-08-10,1,,,,,サンポア,0
1503,6080001025124,新規,0,2022-08-10,2022-08-10,株式会社ローゼン・クランツ,,株式会社,静岡県,静岡市駿河区,西大谷３番地の１３,,22,102,4228018,,,,,,,2022-08-10,1,,,,,ローゼンクランツ,0
1506,6080401026003,新規,0,2022-08-10,2022-08-10,つばめ家株式会社,,株式会社,静岡県,菊川市,東横地１３７８番地４Ｃｉｎｑ１０１号室,,22,224,4390022,,,,,,,2022-08-10,1,,,,,ツバメヤ,0
1508,6090001017731,新規,0,2022-08-10,2022-08-10,株式会社ＭＡＲＥＵＳＨＩ,,株式会社,山梨県,富士吉田市,大明見５丁目５番５号,,19,202,4030003,,,,,,,2022-08-10,1,,,,,マレウシ,0
1512,6110001036885,新規,0,2022-08-10,2022-08-10,株式会社渡組,,株式会社,新潟県,上越市,大字下荒浜８７５番地の１,,15,222,9420022,,,,,,,2022-08-10,1,,,,,ワタリグミ,0
1513,6110003004840,新規,0,2022-08-10,2022-08-10,合同会社都,,合同会社,新潟県,新潟市西区,寺尾台２丁目２番２０号,,15,107,9502063,,,,,,,2022-08-10,1,,,,,ミヤコ,0
1517,6120001248034,新規,0,2022-08-10,2022-08-10,株式会社ルリアンジュ,,株式会社,大阪府,大阪市北区,天満４丁目９番１６号,,27,127,5300043,,,,,,,2022-08-10,1,,,,,ルリアンジュ,0
1518,6120001248050,新規,0,2022-08-10,2022-08-10,澤皓株式会社,,株式会社,大阪府,大阪市生野区,巽北１丁目１番１号３Ｆ－Ｃ,,27,116,5440004,,,,,,,2022-08-10,1,,,,,サワコウ,0
1519,6120001248075,新規,0,2022-08-10,2022-08-10,株式会社Ａ‐ＳＴＹＬＥ,,株式会社,大阪府,大阪市北区,松ケ枝町２番９号ＡＬＺＡ松ヶ枝２０２号室,,27,127,5300037,,,,,,,2022-08-10,1,,,,,エイスタイル,0
1520,6120001248083,新規,0,2022-08-10,2022-08-10,ＯＣＥＡＮ　ＨＥＡＲＴ株式会社,,株式会社,大阪府,大阪市生野区,鶴橋４丁目１１番４号,,27,116,5440031,,,,,,,2022-08-10,1,,,,,オーシャンハート,0
1523,6120003022255,新規,0,2022-08-10,2022-08-10,合同会社ＮＯＢｉＬ,,合同会社,大阪府,枚方市,香里ケ丘１１丁目１１番１２号,,27,210,5730084,,,,,,,2022-08-10,1,,,,,ノビル,0
1526,6120103004814,新規,0,2022-08-10,2022-08-10,合同会社下村商店,,合同会社,大阪府,堺市中区,八田寺町８８番地,,27,142,5998267,,,,,,,2022-08-10,1,,,,,シモムラショウテン,0
1527,6120901046347,新規,0,2022-08-10,2022-08-10,株式会社ＩＮＣＲＥＡＳＥ,,株式会社,大阪府,豊中市,玉井町３丁目１－５,,27,203,5600026,,,,,,,2022-08-10,1,,,,,インクリース,0
1535,6130001072400,新規,0,2022-08-10,2022-08-10,株式会社ＤＡＳＨ,,株式会社,京都府,京都市西京区,桂南滝川町４７番地サンフローラ桂５Ｄ,,26,111,6158023,,,,,,,2022-08-10,1,,,,,ダッシュ,0
1536,6130001072425,新規,0,2022-08-10,2022-08-10,エイチエフエム株式会社,,株式会社,京都府,京都市中京区,六角通室町西入玉蔵町１３０番地スペリオン四条烏丸４０３号,,26,104,6048211,,,,,,,2022-08-10,1,,,,,エイチエフエム,0
1558,6160001024448,新規,0,2022-08-10,2022-08-10,株式会社日産フーズ,,株式会社,滋賀県,近江八幡市,日吉野町６３１番地４,,25,204,5230033,,,,,,,2022-08-10,1,,,,,ニッサンフーズ,0
1562,6170001017236,新規,0,2022-08-10,2022-08-10,紀州木材工業株式会社,,株式会社,和歌山県,有田郡湯浅町,大字湯浅２７３５番地の１,,30,361,6430004,,,,,,,2022-08-10,1,,,,,キシュウモクザイコウギョウ,0
1566,6200001040358,新規,0,2022-08-10,2022-08-10,株式会社ＫＵＢＯＴＡ,,株式会社,岐阜県,養老郡養老町,高田６６８番地３,,21,341,5031314,,,,,,,2022-08-10,1,,,,,クボタ,0
1567,6200001040366,新規,0,2022-08-10,2022-08-10,大光建設株式会社,,株式会社,岐阜県,加茂郡白川町,和泉３０５番地１,,21,506,5091104,,,,,,,2022-08-10,1,,,,,ダイコウケンセツ,0
1572,6200005013376,新規,0,2022-08-10,2022-08-10,一般社団法人日本砂防コーヒー協会,,その他の設立登記法人,岐阜県,飛騨市,神岡町坂富町１１番地１２,,21,217,5061122,,,,,,,2022-08-10,1,,,,,ニホンサボウコーヒーキョウカイ,0
1579,6230001019481,新規,0,2022-08-10,2022-08-10,株式会社ＴＳ,,株式会社,富山県,氷見市,大浦１０番地３,,16,205,9350103,,,,,,,2022-08-10,1,,,,,ティーエス,0
1589,6290001098545,新規,0,2022-08-10,2022-08-10,株式会社みつき建設,,株式会社,福岡県,柳川市,三橋町中山１０５８番地１０,,40,207,8320811,,,,,,,2022-08-10,1,,,,,ミツキケンセツ,0
1590,6290001098578,新規,0,2022-08-10,2022-08-10,株式会社ＢＡＲＢＡＳ,,株式会社,福岡県,春日市,春日原北町３丁目２４番地２Ｆ,,40,218,8160802,,,,,,,2022-08-10,1,,,,,バルバス,0
1593,6290003012834,新規,0,2022-08-10,2022-08-10,Ｂｒｉｓａ合同会社,,合同会社,福岡県,福岡市中央区,港３丁目２－１,,40,133,8100075,,,,,,,2022-08-10,1,,,,,ブリーザ,0
1594,6290801028800,新規,0,2022-08-10,2022-08-10,株式会社ＫＥＮ,,株式会社,福岡県,北九州市小倉北区,魚町２丁目６番１号,,40,106,8020006,,,,,,,2022-08-10,1,,,,,ケン,0
1599,6330001030008,新規,0,2022-08-10,2022-08-10,株式会社エヌリンクス,,株式会社,熊本県,熊本市中央区,保田窪１丁目４番８号ニューエンパイヤＡ－２０３,,43,101,8620926,,,,,,,2022-08-10,1,,,,,エヌリンクス,0
1600,6330001030016,新規,0,2022-08-10,2022-08-10,株式会社アヴェイルネクストホールディングス,,株式会社,熊本県,上益城郡益城町,大字田原１１５５番地８,,43,443,8612202,,,,,,,2022-08-10,1,,,,,アヴェイルネクストホールディングス,0
1605,6340001024966,新規,0,2022-08-10,2022-08-10,株式会社里光,,株式会社,鹿児島県,鹿児島市,西千石町１１－２１鹿児島ＭＳビル５階,,46,201,8920847,,,,,,,2022-08-10,1,,,,,リコウ,0
1606,6340003003877,新規,0,2022-08-10,2022-08-10,合同会社南海プロテック,,合同会社,鹿児島県,鹿児島市,坂之上５丁目７番８号,,46,201,8910150,,,,,,,2022-08-10,1,,,,,ナンカイプロテック,0
1617,6370001048913,新規,0,2022-08-10,2022-08-10,東日本電気設備株式会社,,株式会社,宮城県,仙台市青葉区,中央４丁目１０番３号２ＦＪＭＦビル仙台０１,,04,101,9800021,,,,,,,2022-08-10,1,,,,,ヒガシニホンデンキセツビ,0
1618,6370001048921,新規,0,2022-08-10,2022-08-10,株式会社ＴＡカンパニー,,株式会社,宮城県,仙台市青葉区,中江１丁目１番２１号,,04,101,9800001,,,,,,,2022-08-10,1,,,,,ティーエーカンパニー,0
1625,6390001016991,新規,0,2022-08-10,2022-08-10,シーマット株式会社,,株式会社,山形県,寒河江市,大字日田字平田１３０番地の１,,06,206,9910011,,,,,,,2022-08-10,1,,,,,シーマット,0
1636,6430001087277,新規,0,2022-08-10,2022-08-10,Ｈ＆Ｒ建設株式会社,,株式会社,北海道,千歳市,大和４丁目８番１２号,,01,224,0660066,,,,,,,2022-08-10,1,,,,,エイチアンドアールケンセツ,0
1644,6700150108772,新規,0,2022-08-10,2022-05-16,劇団宇宙キャンパス,,その他,東京都,杉並区,阿佐谷北５丁目４３－１１横川エンゼルハイム阿佐谷１０２,,13,115,1660001,,,,,,,2022-05-16,1,,,,,ゲキダンウチユウキヤンパス,0
1645,6700150111099,新規,0,2022-08-10,2022-08-10,Ｏｍｎｉｔｕｄｅ　Ｉｎｖｅｓｔｍｅｎｔｓ　Ｌｔｄ．,,外国会社等,北海道,虻田郡ニセコ町,字ニセコ４３２－４９,,01,395,0481511,Ｑｕｉｊａｎｏ　Ｃｈａｍｂｅｒ．Ｐ．Ｏ．　Ｂｏｘ　３１５９．Ｒｏａｄ　Ｔｏｗｎ．Ｔｏｒｔｏｌａ，ＢＶＩ,,,,,,2022-08-10,1,,,,,オムニチユードインベストメンツリミテツド,0
1654,7010001228673,新規,0,2022-08-10,2022-08-10,株式会社Ｕ‐ｎｅｔ　Ｉｎｔｅｒｎａｔｉｏｎａｌ,,株式会社,東京都,中央区,銀座１丁目１９番１４号,,13,102,1040061,,,,,,,2022-08-10,1,,,,,ユーネットインターナショナル,0
1655,7010001228698,新規,0,2022-08-10,2022-08-10,株式会社Ｂｏｌｔｅｏ,,株式会社,東京都,千代田区,神田小川町３丁目２８番地５,,13,101,1010052,,,,,,,2022-08-10,1,,,,,ボルテオ,0
1656,7010001228731,新規,0,2022-08-10,2022-08-10,東銀リースビジネスイノベーション株式会社,,株式会社,東京都,中央区,新川２丁目２７番１号,,13,102,1040033,,,,,,,2022-08-10,1,,,,,トウギンリースビジネスイノベーション,0
1657,7010001228756,新規,0,2022-08-10,2022-08-10,ＥＥＵ株式会社,,株式会社,東京都,中央区,築地４丁目１２番２号シグネットビル８Ｆ,,13,102,1040045,,,,,,,2022-08-10,1,,,,,イーイーユー,0
1662,7010003038360,新規,0,2022-08-10,2022-08-10,ＣＬＦ２合同会社,,合同会社,東京都,中央区,日本橋１丁目４番１号,,13,102,1030027,,,,,,,2022-08-10,1,,,,,シーエルエフツー,0
1663,7010003038369,新規,0,2022-08-10,2022-08-10,合同会社ゴールデンカイト,,合同会社,東京都,中央区,日本橋１丁目４番１号,,13,102,1030027,,,,,,,2022-08-10,1,,,,,ゴールデンカイト,0
1664,7010005035364,新規,0,2022-08-10,2022-08-10,一般社団法人環境自然保護協議会,,その他の設立登記法人,東京都,千代田区,東神田３丁目４番１１号,,13,101,1010031,,,,,,,2022-08-10,1,,,,,,0
1668,7010401168800,新規,0,2022-08-10,2022-08-10,株式会社Ｅａｒｔｉｓｔ,,株式会社,東京都,港区,東麻布３丁目４番１７号,,13,103,1060044,,,,,,,2022-08-10,1,,,,,アーティスト,0
1669,7010401169030,新規,0,2022-08-10,2022-08-10,株式会社サンズプロモーション,,株式会社,東京都,港区,浜松町２丁目２番１５号浜松町ダイヤビル２Ｆ,,13,103,1050013,,,,,,,2022-08-10,1,,,,,サンズプロモーション,0
1672,7010403028234,新規,0,2022-08-10,2022-08-10,合同会社スモールミディアム,,合同会社,東京都,港区,高輪３丁目５－２０－２０２,,13,103,1080074,,,,,,,2022-08-10,1,,,,,スモールミディアム,0
1673,7010403028242,新規,0,2022-08-10,2022-08-10,積智研究院合同会社,,合同会社,東京都,港区,東新橋１丁目９番２号汐留住友ビル２１階,,13,103,1050021,,,,,,,2022-08-10,1,,,,,セキチケンキュウイン,0
1675,7010501049223,新規,0,2022-08-10,2022-08-10,株式会社パルファム,,株式会社,東京都,台東区,東上野２丁目１０番２号,,13,106,1100015,,,,,,,2022-08-10,1,,,,,パルファム,0
1689,7011001149042,新規,0,2022-08-10,2022-08-10,株式会社１００９,,株式会社,東京都,渋谷区,神宮前４丁目２６－２８－２Ｆ,,13,113,1500001,,,,,,,2022-08-10,1,,,,,テンナイン,0
1690,7011001149050,新規,0,2022-08-10,2022-08-10,株式会社積希,,株式会社,東京都,渋谷区,元代々木町１０番１１号,,13,113,1510062,,,,,,,2022-08-10,1,,,,,ツミキ,0
1696,7011101099823,新規,0,2022-08-10,2022-08-10,イーユーシージャパン株式会社,,株式会社,東京都,新宿区,西新宿３丁目３番地１３号西新宿水間ビル６階,,13,104,1600023,,,,,,,2022-08-10,1,,,,,イーユーシージャパン,0
1697,7011101099831,新規,0,2022-08-10,2022-08-10,株式会社Ｒｅ,,株式会社,東京都,新宿区,新宿２丁目９番２２号,,13,104,1600022,,,,,,,2022-08-10,1,,,,,アールイー,0
1706,7012701017199,新規,0,2022-08-10,2022-08-10,株式会社ハレサンホーム,,株式会社,東京都,小平市,回田町２７８番地の５,,13,211,1870013,,,,,,,2022-08-10,1,,,,,ハレサンホーム,0
1729,7020001147708,新規,0,2022-08-10,2022-08-10,株式会社アレイ,,株式会社,神奈川県,川崎市多摩区,菅稲田堤３丁目８番２－２０７号,,14,135,2140003,,,,,,,2022-08-10,1,,,,,アレイ,0
1735,7021001076731,新規,0,2022-08-10,2022-08-10,ＡＸＬ株式会社,,株式会社,神奈川県,横須賀市,本町１丁目２－５ジュネスサンライトマンション３０２号,,14,201,2380041,,,,,,,2022-08-10,1,,,,,アクセル,0
1736,7021001076748,新規,0,2022-08-10,2022-08-10,株式会社ＯＴＭエステート,,株式会社,神奈川県,茅ヶ崎市,菱沼１丁目１１番６７－５０１号グラビス,,14,207,2530011,,,,,,,2022-08-10,1,,,,,オーティーエムエステート,0
1737,7021001076756,新規,0,2022-08-10,2022-08-10,株式会社然輝,,株式会社,神奈川県,藤沢市,円行１１１５番地の５,,14,205,2520805,,,,,,,2022-08-10,1,,,,,ゼンキ,0
1740,7021003012032,新規,0,2022-08-10,2022-08-10,云来合同会社,,合同会社,神奈川県,相模原市中央区,相模原２丁目２番１６号ルネッサンスプラザビル１Ｆ,,14,152,2520231,,,,,,,2022-08-10,1,,,,,ウンライ,0
1747,7030001149612,新規,0,2022-08-10,2022-08-10,株式会社ＯＩＴＯ工業,,株式会社,埼玉県,熊谷市,曙町２丁目１４番地サンクレイドル熊谷曙町３０７,,11,202,3600033,,,,,,,2022-08-10,1,,,,,オイトコウギョウ,0
1748,7030001149637,新規,0,2022-08-10,2022-08-10,株式会社学び舎花桜,,株式会社,埼玉県,さいたま市見沼区,東大宮５丁目１５番地１,,11,104,3370051,,,,,,,2022-08-10,1,,,,,マナビヤハナザクラ,0
1752,7040001124564,新規,0,2022-08-10,2022-08-10,齋栄弱電設備株式会社,,株式会社,千葉県,船橋市,山手３丁目５番４０号,,12,204,2730045,,,,,,,2022-08-10,1,,,,,サイエイジャクデンセツビ,0
1756,7040003020605,新規,0,2022-08-10,2022-08-10,月山合同会社,,合同会社,千葉県,柏市,しいの木台４丁目１５番地１３,,12,217,2770945,,,,,,,2022-08-10,1,,,,,ガッサン,0
1764,7060001035157,新規,0,2022-08-10,2022-08-10,株式会社ホワイトワン,,株式会社,栃木県,栃木市,箱森町２番４４号,,09,203,3280075,,,,,,,2022-08-10,1,,,,,ホワイトワン,0
1769,7070001039520,新規,0,2022-08-10,2022-08-10,ＡＲＡコンサルタントサービス株式会社,,株式会社,群馬県,前橋市,青柳町８６４番地１６,,10,201,3710056,,,,,,,2022-08-10,1,,,,,エーアールエーコンサルタントサービス,0
1773,7080401026002,新規,0,2022-08-10,2022-08-10,株式会社ＪＡＰＡＮ　Ｅ．Ｘ．Ｐ．,,株式会社,静岡県,浜松市中区,幸５丁目１１番２３号マイスペース２Ｅ,,22,131,4338123,,,,,,,2022-08-10,1,,,,,ジャパンイーエクスピー,0
1774,7080403004600,新規,0,2022-08-10,2022-08-10,合同会社Ｉｒｉｓ,,合同会社,静岡県,浜松市東区,豊町２１９０－２,,22,132,4313101,,,,,,,2022-08-10,1,,,,,アイリス,0
1776,7090001017730,新規,0,2022-08-10,2022-08-10,高橋金属株式会社,,株式会社,山梨県,韮崎市,神山町鍋山３９０番地,,19,207,4070043,,,,,,,2022-08-10,1,,,,,タカハシキンゾク,0
1784,7120001247860,新規,0,2022-08-10,2022-08-10,諾亜生命ｎｏａｈ　ｌｉｆｅ株式会社,,株式会社,大阪府,大阪市天王寺区,空清町４－１１杉野ビル本館３０２号室,,27,109,5430018,,,,,,,2022-08-10,1,,,,,ダクアセイメイノアライフ,0
1785,7120001247877,新規,0,2022-08-10,2022-08-10,Ｍａｇｅｌｌａｎ株式会社,,株式会社,大阪府,大阪市生野区,新今里３丁目４番１７号シャトー第４今里２１０Ｂ,,27,116,5440001,,,,,,,2022-08-10,1,,,,,マゼラン,0
1786,7120001248132,新規,0,2022-08-10,2022-08-10,株式会社ハッチビューティージャパン,,株式会社,大阪府,大阪市淀川区,十三東２丁目６番８号,,27,123,5320023,,,,,,,2022-08-10,1,,,,,ハッチビューティージャパン,0
1787,7120001248149,新規,0,2022-08-10,2022-08-10,雲頂株式会社,,株式会社,大阪府,大阪市城東区,今福南４丁目６番５９号Ｊａｃ．’ｓＨｏｕｓｅ２Ｆ－Ｂ号室,,27,118,5360003,,,,,,,2022-08-10,1,,,,,ウンチョウ,0
1788,7120003022246,新規,0,2022-08-10,2022-08-10,合同会社くくる龍光堂,,合同会社,大阪府,大阪市天王寺区,餌差町１５－１０グランピア真田山１Ｆ,,27,109,5430016,,,,,,,2022-08-10,1,,,,,ククルリュウコウドウ,0
1789,7120003022262,新規,0,2022-08-10,2022-08-10,合同会社松神,,合同会社,大阪府,大阪市淀川区,十三東２丁目６－１６ヴィラポンテ２０２,,27,123,5320023,,,,,,,2022-08-10,1,,,,,ショウシン,0
1792,7120005023135,新規,0,2022-08-10,2022-08-10,ＨＡＮＡ協同組合,,その他の設立登記法人,大阪府,大阪市北区,梅田１丁目１番３号大阪駅前第３ビル２０Ｆ,,27,127,5300001,,,,,,,2022-08-10,1,,,,,ハナ,0
1801,7120901046346,新規,0,2022-08-10,2022-08-10,株式会社ＵＫハウス,,株式会社,大阪府,高槻市,宮田町２丁目１９番４号,,27,207,5691142,,,,,,,2022-08-10,1,,,,,ユーケーハウス,0
1802,7120901046362,新規,0,2022-08-10,2022-08-10,株式会社Ｌｉｂｒｅ,,株式会社,大阪府,豊中市,庄内東町５丁目１０番３７－３０１号,,27,203,5610831,,,,,,,2022-08-10,1,,,,,リブレ,0
1808,7130001072390,新規,0,2022-08-10,2022-08-10,勝井電業株式会社,,株式会社,京都府,城陽市,寺田今堀５２番地の３８,,26,207,6100121,,,,,,,2022-08-10,1,,,,,カツイデンギョウ,0
1809,7130001072399,新規,0,2022-08-10,2022-08-10,株式会社Ｌａｈａｉｎａ,,株式会社,京都府,相楽郡精華町,光台１丁目７,,26,366,6190237,,,,,,,2022-08-10,1,,,,,ラハイナ,0
1810,7130001072408,新規,0,2022-08-10,2022-08-10,株式会社シンライズカンパニー,,株式会社,京都府,京都市伏見区,久我御旅町１１番地６１,,26,109,6128493,,,,,,,2022-08-10,1,,,,,シンライズカンパニー,0
1811,7130003008129,新規,0,2022-08-10,2022-08-10,ＺＩＲＡＥＬ合同会社,,合同会社,京都府,京都市東山区,祇園町北側３１３番地７,,26,105,6050073,,,,,,,2022-08-10,1,,,,,ジラエル,0
1819,7140001127037,新規,0,2022-08-10,2022-08-10,日本産業株式会社,,株式会社,兵庫県,神戸市中央区,琴ノ諸町五丁目５番９号フューチャービル３階３０２号室,,28,110,6500000,,,,,,,2022-08-10,1,,,,,ニホンサンギョウ,0
1829,7170001017227,新規,0,2022-08-10,2022-08-10,株式会社光,,株式会社,和歌山県,東牟婁郡那智勝浦町,大字朝日１丁目１９０番地,,30,421,6495332,,,,,,,2022-08-10,1,,,,,コウ,0
1830,7170001017235,新規,0,2022-08-10,2022-08-10,ＮＩＢ株式会社,,株式会社,和歌山県,岩出市,山１６番地の１,,30,209,6496258,,,,,,,2022-08-10,1,,,,,エヌアイビー,0
1832,7170005006969,新規,0,2022-08-10,2022-08-10,一般社団法人０術数秘学協会,,その他の設立登記法人,和歌山県,和歌山市,有家３８１番地１７,,30,201,6408316,,,,,,,2022-08-10,1,,,,,ゼロジュツスウヒガクキョウカイ,0
1835,7180001152551,新規,0,2022-08-10,2022-08-10,株式会社木村建装,,株式会社,愛知県,知多市,岡田美里町１８９番地,,23,224,4780062,,,,,,,2022-08-10,1,,,,,キムラケンソウ,0
1840,7180005019887,新規,0,2022-08-10,2022-08-10,行政書士法人イースマイル,,その他の設立登記法人,愛知県,春日井市,鳥居松町４丁目１６７番地,,23,206,4860844,,,,,,,2022-08-10,1,,,,,イースマイル,0
1846,7190001029690,新規,0,2022-08-10,2022-08-10,株式会社松井工業,,株式会社,三重県,四日市市,平尾町３０４３番１,,24,202,5121205,,,,,,,2022-08-10,1,,,,,マツイコウギョウ,0
1848,7200001040357,新規,0,2022-08-10,2022-08-10,株式会社ＡＳＡＮＯ,,株式会社,岐阜県,羽島市,小熊町天王３丁目５０番地２,,21,209,5016267,,,,,,,2022-08-10,1,,,,,アサノ,0
1849,7200005013367,新規,0,2022-08-10,2022-08-10,一般社団法人岐阜県地方創生推進協会,,その他の設立登記法人,岐阜県,岐阜市,寿町１丁目７番地１,,21,201,5008325,,,,,,,2022-08-10,1,,,,,ギフケンチホウソウセイスイシンキョウカイ,0
1850,7210001019037,新規,0,2022-08-10,2022-08-10,福興順株式会社,,株式会社,福井県,敦賀市,木崎１３号２８番地,,18,202,9140814,,,,,,,2022-08-10,1,,,,,フクコウジュン,0
1851,7220001024985,新規,0,2022-08-10,2022-08-10,イコシテトラ株式会社,,株式会社,石川県,小松市,川辺町２番地６８,,17,203,9230044,,,,,,,2022-08-10,1,,,,,イコシテトラ,0
1855,7230003001899,新規,0,2022-08-10,2022-08-10,合同会社コスモテック,,合同会社,富山県,中新川郡舟橋村,東芦原１４０番地１０,,16,321,9300286,,,,,,,2022-08-10,1,,,,,コスモテック,0
1859,7270003001433,新規,0,2022-08-10,2022-08-10,ＡＭＣ合同会社,,合同会社,鳥取県,東伯郡琴浦町,大字浦安２２８番地１,,31,371,6892352,,,,,,,2022-08-10,1,,,,,エーエムシー,0
1862,7290001098536,新規,0,2022-08-10,2022-08-10,株式会社ＴＯＲＵ　ＨＡＵＳ,,株式会社,福岡県,福岡市早良区,藤崎１丁目１６番２号,,40,137,8140013,,,,,,,2022-08-10,1,,,,,トルハウス,0
1867,7290801028808,新規,0,2022-08-10,2022-08-10,株式会社オフィスアローズ,,株式会社,福岡県,北九州市八幡東区,光明二丁目８番７号,,40,108,8050000,,,,,,,2022-08-10,1,,,,,オフィスアローズ,0
1869,7320001019265,新規,0,2022-08-10,2022-08-10,株式会社野上,,株式会社,大分県,日田市,大字東有田２７７６番地１８,,44,204,8770000,,,,,,,2022-08-10,1,,,,,ノガミ,0
1870,7330001030023,新規,0,2022-08-10,2022-08-10,株式会社アプローチ,,株式会社,熊本県,熊本市中央区,平成３丁目１５番３３号,,43,101,8600833,,,,,,,2022-08-10,1,,,,,アプローチ,0
1873,7340001024957,新規,0,2022-08-10,2022-08-10,ＬＩＮＥサービス株式会社,,株式会社,鹿児島県,鹿児島市,中山町５２３１番地２,,46,201,8910105,,,,,,,2022-08-10,1,,,,,ラインサービス,0
1886,7370001048887,新規,0,2022-08-10,2022-08-10,株式会社ＭＹＳ,,株式会社,宮城県,栗原市,若柳字川北田中９５番地２,,04,213,9895501,,,,,,,2022-08-10,1,,,,,エムワイエス,0
1887,7370001048920,新規,0,2022-08-10,2022-08-10,株式会社アールＥホーム,,株式会社,宮城県,塩竈市,字庚塚１２８番地７３,,04,203,9850085,,,,,,,2022-08-10,1,,,,,アールイーホーム,0
1888,7370001048929,新規,0,2022-08-10,2022-08-10,株式会社クラフトメーカー,,株式会社,宮城県,仙台市宮城野区,小田原１丁目１０番１－２０８号,,04,102,9830803,,,,,,,2022-08-10,1,,,,,クラフトメーカー,0
1904,7400001015974,新規,0,2022-08-10,2022-08-10,株式会社ジオ開発計画,,株式会社,岩手県,久慈市,長内町第１０地割３３番地１,,03,207,0280041,,,,,,,2022-08-10,1,,,,,ジオカイハツケイカク,0
1920,7700150110496,新規,0,2022-08-10,2022-06-27,エクセレントプラザ湯河原三番館管理組合,,その他,神奈川県,足柄下郡湯河原町,宮上２７９番地の２,,14,384,2590314,,,,,,,2022-06-27,1,,,,,エクセレントプラザユガワラサンバンカンカンリクミアイ,0
1921,7700150111098,新規,0,2022-08-10,2022-08-10,ＮＡＭＹ　ＰＴＥ．　ＬＴＤ．,,外国会社等,長野県,北安曇郡白馬村,大字北城４７８５－１ＲＯＫＡ５０１,,20,485,3999301,５８３　Ｏｒｃｈａｒｄ　Ｒｏａｄ　＃０６－０１　Ｆｏｒｕｍ,,,,,,2022-08-10,1,,,,,ネイミーピーテイーイーリミテツド,0
1926,8010001228680,新規,0,2022-08-10,2022-08-10,ＸＳＹＳ　Ｊａｐａｎ株式会社,,株式会社,東京都,千代田区,三番町６番地３三番町ＫＢ－６ビル,,13,101,1020075,,,,,,,2022-08-10,1,,,,,エクシスジャパン,0
1927,8010001228697,新規,0,2022-08-10,2022-08-10,株式会社コーヒープライド,,株式会社,東京都,千代田区,麹町２丁目１０番地３,,13,101,1020083,,,,,,,2022-08-10,1,,,,,コーヒープライド,0
1936,8010401168873,新規,0,2022-08-10,2022-08-10,株式会社ワイズプラチナラボ,,株式会社,東京都,港区,白金台５丁目１２番３－３０３号,,13,103,1080071,,,,,,,2022-08-10,1,,,,,ワイズプラチナラボ,0
1937,8010401168964,新規,0,2022-08-10,2022-08-10,株式会社エンムスビ,,株式会社,東京都,港区,新橋６丁目５番４号ＤＩＫマンション新橋４Ｆ,,13,103,1050004,,,,,,,2022-08-10,1,,,,,エンムスビ,0
1938,8010401168972,新規,0,2022-08-10,2022-08-10,株式会社Ｂ,,株式会社,東京都,港区,南麻布３丁目１１番４４－５０１号,,13,103,1060047,,,,,,,2022-08-10,1,,,,,ビー,0
1939,8010401168989,新規,0,2022-08-10,2022-08-10,ＳｙｎｔｈｅｔｉｃＭＲ　Ｊａｐａｎ株式会社,,株式会社,東京都,港区,六本木１丁目１０番３－９０１号,,13,103,1060032,,,,,,,2022-08-10,1,,,,,シンセティックエムアールジャパン,0
1942,8010403028217,新規,0,2022-08-10,2022-08-10,イヴレスコンサルティング合同会社,,合同会社,東京都,港区,愛宕２丁目５番１号愛宕グリーンヒルズＭＯＲＩタワー２５Ｆ,,13,103,1050002,,,,,,,2022-08-10,1,,,,,イヴレスコンサルティング,0
1944,8010603009677,新規,0,2022-08-10,2022-08-10,合同会社ＥＮＨＡＮＣＥ　ＦＡＣＴＯＲＹ,,合同会社,東京都,江東区,亀戸２丁目３７－１１,,13,108,1360071,,,,,,,2022-08-10,1,,,,,エンハンスファクトリー,0
1957,8011001149108,新規,0,2022-08-10,2022-08-10,株式会社ＣＲＹＰＴＯ　ＦＯＲＥＳＴ,,株式会社,東京都,渋谷区,渋谷２丁目１９－１５宮益坂ビルディング６０９,,13,113,1500002,,,,,,,2022-08-10,1,,,,,,0
1958,8011001149132,新規,0,2022-08-10,2022-08-10,株式会社ＬＥＭ,,株式会社,東京都,渋谷区,道玄坂１丁目１９－６道玄坂ＯＫビル４Ｆ,,13,113,1500043,,,,,,,2022-08-10,1,,,,,エルイーエム,0
1961,8011003015159,新規,0,2022-08-10,2022-08-10,Ｔｅｌｓｏｎ合同会社,,合同会社,東京都,渋谷区,神宮前６丁目２３－４桑野ビル２Ｆ,,13,113,1500001,,,,,,,2022-08-10,1,,,,,テルソン,0
1968,8011403003746,新規,0,2022-08-10,2022-08-10,ｅ‐Ｔｅｃ　Ｗｏｒｋｓ合同会社,,合同会社,東京都,板橋区,蓮根１丁目２９番７号,,13,119,1740046,,,,,,,2022-08-10,1,,,,,イーテックワークス,0
1971,8011503005254,新規,0,2022-08-10,2022-08-10,アクティヴォ・フォルマ合同会社,,合同会社,東京都,北区,王子４丁目２２番７号,,13,117,1140002,,,,,,,2022-08-10,1,,,,,アクティヴォフォルマ,0
1976,8011701025525,新規,0,2022-08-10,2022-08-10,株式会社アペックスジャパン,,株式会社,東京都,江戸川区,北葛西２丁目５番３０号,,13,123,1340081,,,,,,,2022-08-10,1,,,,,アペックスジャパン,0
1978,8011801041133,新規,0,2022-08-10,2022-08-10,株式会社Ｓｏｕｒｉ,,株式会社,東京都,葛飾区,柴又５丁目３２番５号,,13,122,1250052,,,,,,,2022-08-10,1,,,,,ソウリ,0
1994,8020003022222,新規,0,2022-08-10,2022-08-10,合同会社沖工業,,合同会社,神奈川県,横浜市戸塚区,名瀬町７９５番地３名瀬第二住宅２棟６０３号,,14,110,2450051,,,,,,,2022-08-10,1,,,,,オキコウギョウ,0
1997,8021001076730,新規,0,2022-08-10,2022-08-10,株式会社Ｆｌｕｋｅ,,株式会社,神奈川県,秦野市,下大槻１３１６番地の５,,14,211,2570004,,,,,,,2022-08-10,1,,,,,フルーク,0
1998,8021003012023,新規,0,2022-08-10,2022-08-10,合同会社海ッペリーノ,,合同会社,神奈川県,藤沢市,片瀬海岸３丁目２４番２０号,,14,205,2510035,,,,,,,2022-08-10,1,,,,,,0
2008,8030001149529,新規,0,2022-08-10,2022-08-10,ハルリカ株式会社,,株式会社,埼玉県,川越市,岸町３丁目９－１８,,11,201,3501131,,,,,,,2022-08-10,1,,,,,ハルリカ,0
2009,8030001149594,新規,0,2022-08-10,2022-08-10,ＨＡＲＵ株式会社,,株式会社,埼玉県,越谷市,千間台西３丁目１５番地７サンハイツ１０２,,11,222,3430041,,,,,,,2022-08-10,1,,,,,ハル,0
2010,8030001149636,新規,0,2022-08-10,2022-08-10,株式会社空花,,株式会社,埼玉県,川口市,大字久左衛門新田４２番地の２,,11,203,3330804,,,,,,,2022-08-10,1,,,,,ソウカ,0
2011,8030001149644,新規,0,2022-08-10,2022-08-10,漢松堂株式会社,,株式会社,埼玉県,東松山市,大字市ノ川１９９－１６４,,11,212,3550006,,,,,,,2022-08-10,1,,,,,カンショウドウ,0
2012,8030001149669,新規,0,2022-08-10,2022-08-10,株式会社野島工業,,株式会社,埼玉県,さいたま市見沼区,大字東宮下３８６番地４,,11,104,3370012,,,,,,,2022-08-10,1,,,,,ノジマコウギョウ,0
2020,8040001124563,新規,0,2022-08-10,2022-08-10,株式会社ライズ製作所,,株式会社,千葉県,市原市,八幡浦１丁目１２番地３階,,12,219,2900068,,,,,,,2022-08-10,1,,,,,ライズセイサクショ,0
2029,8060001035172,新規,0,2022-08-10,2022-08-10,株式会社ＮｏＲｅｐｌｉｃａ,,株式会社,栃木県,宇都宮市,東宿郷２丁目１３番２号,,09,201,3210953,,,,,,,2022-08-10,1,,,,,ノーレプリカ,0
2031,8070001039494,新規,0,2022-08-10,2022-08-10,金ソウセイキ株式会社,,株式会社,群馬県,伊勢崎市,境女塚３１４番地６,,10,204,3700121,,,,,,,2022-08-10,1,,,,,キンソウセイキ,0
2034,8080001025130,新規,0,2022-08-10,2022-08-10,株式会社東海,,株式会社,静岡県,静岡市駿河区,東新田３丁目３１番１号,,22,102,4210112,,,,,,,2022-08-10,1,,,,,トウカイ,0
2039,8080401026001,新規,0,2022-08-10,2022-08-10,株式会社エーティーエス,,株式会社,静岡県,浜松市南区,米津町６１３番地,,22,134,4328056,,,,,,,2022-08-10,1,,,,,エーティーエス,0
2043,8110001036883,新規,0,2022-08-10,2022-08-10,株式会社全日運輸機工,,株式会社,新潟県,新潟市中央区,上大川前通７番町１２３０番地７ストークビル鏡橋７階,,15,103,9518068,,,,,,,2022-08-10,1,,,,,ゼンニチウンユキコウ,0
2044,8110001036891,新規,0,2022-08-10,2022-08-10,株式会社Ｋ２,,株式会社,新潟県,新潟市中央区,神通寺南一丁目１５番３号,,15,103,9500000,,,,,,,2022-08-10,1,,,,,ケーツー,0
2045,8110003004839,新規,0,2022-08-10,2022-08-10,合同会社岩佐,,合同会社,新潟県,佐渡市,相川鹿伏４１７番地,,15,224,9521583,,,,,,,2022-08-10,1,,,,,イワサ,0
2059,8120001248049,新規,0,2022-08-10,2022-08-10,Ｇｉｓｋａｒｄ株式会社,,株式会社,大阪府,大阪市生野区,巽北１丁目１番１号３Ｆ－Ｈ,,27,116,5440004,,,,,,,2022-08-10,1,,,,,ギスカード,0
2064,8120005023134,新規,0,2022-08-10,2022-08-10,一般社団法人日本相続センター,,その他の設立登記法人,大阪府,大阪市北区,天神橋２丁目北１－１４－３０２号,,27,127,5300041,,,,,,,2022-08-10,1,,,,,ニホンソウゾクセンター,0
2065,8120101066045,新規,0,2022-08-10,2022-08-10,株式会社Ｄｏｕｂｌｅ　Ｓｕｐｐｏｒｔ,,株式会社,大阪府,岸和田市,作才町１丁目６番６号,,27,202,5960826,,,,,,,2022-08-10,1,,,,,ダブルサポート,0
2070,8130001072381,新規,0,2022-08-10,2022-08-10,株式会社リオトレーディング,,株式会社,京都府,木津川市,木津大次２９番地,,26,214,6190214,,,,,,,2022-08-10,1,,,,,リオトレーディング,0
2078,8140001127036,新規,0,2022-08-10,2022-08-10,株式会社鹿毛組,,株式会社,兵庫県,三田市,つつじが丘南３丁目１－７,,28,219,6691347,,,,,,,2022-08-10,1,,,,,カゲグミ,0
2079,8140001127052,新規,0,2022-08-10,2022-08-10,ＳＰＡＲＫ株式会社,,株式会社,兵庫県,神戸市中央区,浜辺通３丁目１番３１号,,28,110,6510083,,,,,,,2022-08-10,1,,,,,スパーク,0
2082,8140003017986,新規,0,2022-08-10,2022-08-10,合同会社ヒガシナダ,,合同会社,兵庫県,神戸市東灘区,魚崎中町２丁目１番１４号,,28,101,6580083,,,,,,,2022-08-10,1,,,,,ヒガシナダ,0
2083,8140003018010,新規,0,2022-08-10,2022-08-10,五色丘クロス合同会社,,合同会社,兵庫県,洲本市,五色町鮎原神陽６００番地６５,,28,205,6561318,,,,,,,2022-08-10,1,,,,,ゴシキオカクロス,0
2084,8140003018019,新規,0,2022-08-10,2022-08-10,合同会社門田商会,,合同会社,兵庫県,芦屋市,西芦屋町４番８号２Ａ,00127485,28,206,6590085,,,,,,,2022-08-10,1,,,,,カドタショウカイ,0
2089,8170001017226,新規,0,2022-08-10,2022-08-10,株式会社ワイエム,,株式会社,和歌山県,海南市,重根２３５番地１,,30,202,6420023,,,,,,,2022-08-10,1,,,,,ワイエム,0
2094,8180003024137,新規,0,2022-08-10,2022-08-10,合同会社アルバトロス,,合同会社,愛知県,名古屋市昭和区,下構町２丁目２６番地ＮＯＶＥＬＢＲＩＧＨＴ　ＳＡＫＵＲＡＹＡＭＡ７０３号室,,23,107,4660025,,,,,,,2022-08-10,1,,,,,アルバトロス,0
2109,8240001060202,新規,0,2022-08-10,2022-08-10,株式会社３３３,,株式会社,広島県,広島市西区,大芝２丁目１６番２１－１４０４号,,34,104,7330001,,,,,,,2022-08-10,1,,,,,ミミミ,0
2110,8240005015433,新規,0,2022-08-10,2022-08-10,一般社団法人北広島デジタル田園開発機構,,その他の設立登記法人,広島県,山県郡北広島町,今吉田１８０７番地,,34,369,7311221,,,,,,,2022-08-10,1,,,,,キタヒロシマデジタルデンエンカイハツキコウ,0
2116,8260003004007,新規,0,2022-08-10,2022-08-10,合同会社ケンズデザインオフィス,,合同会社,岡山県,岡山市北区,中井町２丁目８－４１－３０１,,33,101,7000804,,,,,,,2022-08-10,1,,,,,ケンズデザインオフィス,0
2117,8260005011125,新規,0,2022-08-10,2022-08-10,一般社団法人おかやま食品ロス削減ネットワーク,,その他の設立登記法人,岡山県,岡山市北区,東古松３丁目５番１５号,,33,101,7000921,,,,,,,2022-08-10,1,,,,,オカヤマショクヒンロスサクゲンネットワーク,0
2121,8290001098527,新規,0,2022-08-10,2022-08-10,株式会社ＦＯＬＢ,,株式会社,福岡県,福岡市西区,富士見３丁目１２番１８号,,40,135,8190387,,,,,,,2022-08-10,1,,,,,フォルブ,0
2122,8290001098535,新規,0,2022-08-10,2022-08-10,株式会社ＨＲＹ,,株式会社,福岡県,福岡市東区,千早５丁目１３番３８号,,40,131,8130044,,,,,,,2022-08-10,1,,,,,エイチアールワイ,0
2123,8290001098551,新規,0,2022-08-10,2022-08-10,株式会社グローバルトリップ,,株式会社,福岡県,飯塚市,天道１－２０２,,40,205,8200075,,,,,,,2022-08-10,1,,,,,グローバルトリップ,0
2124,8290001098576,新規,0,2022-08-10,2022-08-10,株式会社リュウビ,,株式会社,福岡県,福岡市博多区,東光寺町１丁目１７番２５号,,40,132,8120896,,,,,,,2022-08-10,1,,,,,リュウビ,0
2128,8290801028807,新規,0,2022-08-10,2022-08-10,株式会社奥田工業,,株式会社,福岡県,北九州市八幡西区,永犬丸東町１丁目７番５４－２０３号,,40,109,8070842,,,,,,,2022-08-10,1,,,,,オクダコウギョウ,0
2132,8310001017987,新規,0,2022-08-10,2022-08-10,ＮＫＴｅｃｈ株式会社,,株式会社,長崎県,諫早市,福田町１６１１番地１１２,,42,204,8540001,,,,,,,2022-08-10,1,,,,,エヌケーテック,0
2135,8320001019264,新規,0,2022-08-10,2022-08-10,くにさき工業株式会社,,株式会社,大分県,大分市,曙台３丁目１０番１号,,44,201,8700273,,,,,,,2022-08-10,1,,,,,クニサキコウギョウ,0
2142,8350001017901,新規,0,2022-08-10,2022-08-10,Ｔｈａｎｋオート株式会社,,株式会社,宮崎県,宮崎市,田野町甲５６０４番地２,,45,201,8891701,,,,,,,2022-08-10,1,,,,,サンクオート,0
2144,8350005006090,新規,0,2022-08-10,2022-08-10,一般社団法人わがや,,その他の設立登記法人,宮崎県,宮崎市,佐土原町下那珂７９１番地５,,45,201,8800212,,,,,,,2022-08-10,1,,,,,ワガヤ,0
2146,8360003012214,新規,0,2022-08-10,2022-08-10,合同会社モエウハネ,,合同会社,沖縄県,那覇市,字安里１２８番地フレスコア泊９０１,,47,201,9020067,,,,,,,2022-08-10,1,,,,,モエウハネ,0
2149,8370001048928,新規,0,2022-08-10,2022-08-10,株式会社ａｌｌｅｇｒｏ,,株式会社,宮城県,仙台市青葉区,上杉１丁目７番２８‐４０３号,,04,101,9800011,,,,,,,2022-08-10,1,,,,,アレグロ,0
2170,8490003001690,新規,0,2022-08-10,2022-08-10,合同会社エヌシー,,合同会社,高知県,高知市,春野町内ノ谷７４０番地,,39,201,7810313,,,,,,,2022-08-10,1,,,,,エヌシー,0
2172,8500001024386,新規,0,2022-08-10,2022-08-10,株式会社寅寅寅,,株式会社,愛媛県,西条市,朔日市２５７番地１,,38,206,7930027,,,,,,,2022-08-10,1,,,,,トラトラトラ,0
2176,8700150111097,新規,0,2022-08-10,2022-08-10,ＫＥＳＷＩＣＫ　ＩＮＶＥＳＴＭＥＮＴＳ　ＰＴＹ　ＬＴＤ,,外国会社等,長野県,北安曇郡白馬村,大字北城４７８５－１ＲＯＫＡ５０１,,20,485,3999301,Ｌｅｖｅｌ７，６１６　Ｓｔ　Ｋｉｌｄａ　Ｒｏａｄ，ＭＥＬＢＯＵＲＮＥ,,,,,,2022-08-10,1,,,,,ケズウイツクインベストメンツピーテイーワイリミテツド,0
2182,9010001228606,新規,0,2022-08-10,2022-08-10,株式会社ＡＳＭＩＫ．,,株式会社,東京都,中央区,銀座８丁目１４番９号,,13,102,1040061,,,,,,,2022-08-10,1,,,,,,0
2183,9010001228696,新規,0,2022-08-10,2022-08-10,株式会社ビューティリアム,,株式会社,東京都,中央区,銀座１丁目２２番１１号銀座大竹ビジデンス２階,,13,102,1040061,,,,,,,2022-08-10,1,,,,,ビューティリアム,0
2188,9010005035362,新規,0,2022-08-10,2022-08-10,一般社団法人日本ＢＣＰ支援サービス推進協会,,その他の設立登記法人,東京都,千代田区,神田駿河台２丁目１番１９号アルベルゴ御茶の水１１０９,,13,101,1010062,,,,,,,2022-08-10,1,,,,,ニホンビーシーピーシエンサービススイシンキョウカイ,0
2189,9010005035412,新規,0,2022-08-10,2022-08-10,一般社団法人アクシス発見スクール,,その他の設立登記法人,東京都,千代田区,九段南１丁目５番６号りそな九段ビル５階ＫＳフロア,,13,101,1020074,,,,,,,2022-08-10,1,,,,,アクシスハッケンスクール,0
2197,9010401168963,新規,0,2022-08-10,2022-08-10,株式会社ピースオブマインド,,株式会社,東京都,港区,浜松町２丁目２－１５,,13,103,1050013,,,,,,,2022-08-10,1,,,,,ピースオブマインド,0
2198,9010401169053,新規,0,2022-08-10,2022-08-10,株式会社ＬＢＦ,,株式会社,東京都,港区,三田４丁目１番１７号,,13,103,1080073,,,,,,,2022-08-10,1,,,,,エルビーエフ,0
2199,9010401169078,新規,0,2022-08-10,2022-08-10,ＧＣＪＩ７株式会社,,株式会社,東京都,港区,元赤坂１丁目１番８号株式会社赤坂国際会計内,,13,103,1070051,,,,,,,2022-08-10,1,,,,,ジーシージェイアイセブン,0
2201,9010405021251,新規,0,2022-08-10,2022-08-10,一般社団法人赤坂マーヴェリック,,その他の設立登記法人,東京都,港区,虎ノ門３丁目２２番１０－２０１号,,13,103,1050001,,,,,,,2022-08-10,1,,,,,アカサカマーヴェリック,0
2203,9010503006682,新規,0,2022-08-10,2022-08-10,合同会社オリエンス,,合同会社,東京都,台東区,小島１丁目１５番３号,,13,106,1110056,,,,,,,2022-08-10,1,,,,,オリエンス,0
2204,9010505003331,新規,0,2022-08-10,2022-08-10,一般社団法人太平洋開発,,その他の設立登記法人,東京都,台東区,台東４丁目２９番１３－８０２号,,13,106,1100016,,,,,,,2022-08-10,1,,,,,タイヘイヨウカイハツ,0
2207,9010603009684,新規,0,2022-08-10,2022-08-10,合同会社ＹＵエージェンシー,,合同会社,東京都,江東区,東砂３丁目２番２０号,,13,108,1360074,,,,,,,2022-08-10,1,,,,,ユーエージェンシー,0
2212,9010801033197,新規,0,2022-08-10,2022-08-10,株式会社トライワークス,,株式会社,東京都,大田区,千鳥３丁目７－１８,,13,111,1460083,,,,,,,2022-08-10,1,,,,,トライワークス,0
2213,9010803004254,新規,0,2022-08-10,2022-08-10,合同会社ＳＭＬ,,合同会社,東京都,大田区,鵜の木３丁目４番１７号コルティーレ５０５,,13,111,1460091,,,,,,,2022-08-10,1,,,,,エスエムエル,0
2214,9010901051388,新規,0,2022-08-10,2022-08-10,株式会社獅子團,,株式会社,東京都,世田谷区,三軒茶屋２丁目５２番１７－３０１号,,13,112,1540024,,,,,,,2022-08-10,1,,,,,シシマル,0
2222,9011001149065,新規,0,2022-08-10,2022-08-10,アスコット・インベストメント・マネジメント株式会社,,株式会社,東京都,渋谷区,神宮前３丁目１番３０号,,13,113,1500001,,,,,,,2022-08-10,1,,,,,アスコットインベストメントマネジメント,0
2223,9011001149156,新規,0,2022-08-10,2022-08-10,株式会社ＹＪＲ,,株式会社,東京都,渋谷区,神宮前６丁目２３番４号,,13,113,1500001,,,,,,,2022-08-10,1,,,,,ワイジェイアール,0
2224,9011001149180,新規,0,2022-08-10,2022-08-10,キルク株式会社,,株式会社,東京都,渋谷区,猿楽町１７番５号ＤＡＩＫＡＮＹＡＭＡＴ－ＳＩＴＥ蔦屋書店３号館２階,,13,113,1500033,,,,,,,2022-08-10,1,,,,,キルク,0
2225,9011003015166,新規,0,2022-08-10,2022-08-10,合同会社Ｄｉｓｃｏｖｅｒｙ,,合同会社,東京都,渋谷区,東３丁目２５ライオンズプラザ恵比寿５０４,,13,113,1500011,,,,,,,2022-08-10,1,,,,,ディスカバリー,0
2228,9011101099788,新規,0,2022-08-10,2022-08-10,株式会社三合商事,,株式会社,東京都,新宿区,高田馬場４丁目４－２,,13,104,1690075,,,,,,,2022-08-10,1,,,,,サンアイショウジ,0
2229,9011101099821,新規,0,2022-08-10,2022-08-10,Ｇｒｅｅｎｓｔａｆｆ　Ｍｅｄｉｃａｌ株式会社,,株式会社,東京都,新宿区,西新宿１丁目４番１１号全研プラザビル,,13,104,1600023,,,,,,,2022-08-10,1,,,,,グリーンスタッフメディカル,0
2232,9011103012055,新規,0,2022-08-10,2022-08-10,合同会社Ｗａｔｔａ,,合同会社,東京都,新宿区,西新宿３丁目３番１３号西新宿水間ビル６階,,13,104,1600023,,,,,,,2022-08-10,1,,,,,ワッタ,0
2235,9011603003677,新規,0,2022-08-10,2022-08-10,合同会社ＷＩＮＧ,,合同会社,東京都,練馬区,春日町２丁目１５番２２号,,13,120,1790074,,,,,,,2022-08-10,1,,,,,ウイング,0
2238,9011801041090,新規,0,2022-08-10,2022-08-10,ＳＷＩＦＴ株式会社,,株式会社,東京都,葛飾区,高砂２丁目１番１４号,,13,122,1250054,,,,,,,2022-08-10,1,,,,,スイフト,0
2240,9012401039517,新規,0,2022-08-10,2022-08-10,株式会社Ｃｏｎｃｉｅｒｇｅ,,株式会社,東京都,狛江市,駒井町１丁目８番２号ｓｔｏｒｙｔｅｌｌｅｒｂｌｄ．,,13,219,2010016,,,,,,,2022-08-10,1,,,,,コンシェルジュ,0
2242,9012403005541,新規,0,2022-08-10,2022-08-10,合同会社オーリジェール,,合同会社,東京都,武蔵野市,吉祥寺本町３丁目４番９号コルティーレ２０２,,13,203,1800004,,,,,,,2022-08-10,1,,,,,オーリジェール,0
2243,9012701017197,新規,0,2022-08-10,2022-08-10,株式会社ＨＴＳ,,株式会社,東京都,東久留米市,幸町３丁目７番６号ハピネス京路２０２,,13,222,2030052,,,,,,,2022-08-10,1,,,,,エイチティーエス,0
2260,9020001147607,新規,0,2022-08-10,2022-08-10,株式会社サンライトトレーディング,,株式会社,神奈川県,横浜市中区,扇町２丁目４番地２横浜関内京浜ビル３０３,,14,104,2310027,,,,,,,2022-08-10,1,,,,,サンライトトレーディング,0
2261,9020001147697,新規,0,2022-08-10,2022-08-10,株式会社きむらや,,株式会社,神奈川県,横浜市都筑区,東山田２丁目１４番２号,,14,118,2240023,,,,,,,2022-08-10,1,,,,,キムラヤ,0
2269,9021001076738,新規,0,2022-08-10,2022-08-10,サンユーホールディングス株式会社,,株式会社,神奈川県,平塚市,夕陽ケ丘３番２３号,,14,203,2540806,,,,,,,2022-08-10,1,,,,,サンユーホールディングス,0
2272,9021003012022,新規,0,2022-08-10,2022-08-10,梅田設備合同会社,,合同会社,神奈川県,海老名市,東柏ケ谷５丁目１８番１１－４０１号,,14,215,2430401,,,,,,,2022-08-10,1,,,,,ウメダセツビ,0
2280,9030001149536,新規,0,2022-08-10,2022-08-10,森吉株式会社,,株式会社,埼玉県,川口市,芝宮根町１７番３７号ペアパレス五十鈴１０３号,,11,203,3330869,,,,,,,2022-08-10,1,,,,,モリヨシ,0
2281,9030001149619,新規,0,2022-08-10,2022-08-10,株式会社ＦＩＫＡ　Ｇｒｏｕｐ,,株式会社,埼玉県,さいたま市緑区,東浦和２丁目４５番地１７,,11,109,3360926,,,,,,,2022-08-10,1,,,,,フィーカグループ,0
2282,9030001149635,新規,0,2022-08-10,2022-08-10,オリィーブ株式会社,,株式会社,埼玉県,さいたま市北区,本郷町２１５番地１,,11,102,3310802,,,,,,,2022-08-10,1,,,,,オリィーブ,0
2283,9030001149668,新規,0,2022-08-10,2022-08-10,株式会社クレイン,,株式会社,埼玉県,草加市,吉町２丁目３番１５号田川ハイツ１－１０８号,,11,221,3400017,,,,,,,2022-08-10,1,,,,,クレイン,0
2284,9030003019976,新規,0,2022-08-10,2022-08-10,ぼくらの農業合同会社,,合同会社,埼玉県,加須市,中種足６６７番地１,,11,210,3470114,,,,,,,2022-08-10,1,,,,,ボクラノノウギョウ,0
2285,9030003019992,新規,0,2022-08-10,2022-08-10,ＵＲＳパートナーズ合同会社,,合同会社,埼玉県,さいたま市南区,大字太田窪３２２６番地５,,11,108,3360015,,,,,,,2022-08-10,1,,,,,ユーアールエスパートナーズ,0
2291,9040001124629,新規,0,2022-08-10,2022-08-10,株式会社華松,,株式会社,千葉県,八千代市,ゆりのき台７丁目２３番５号,,12,221,2760042,,,,,,,2022-08-10,1,,,,,ハナショウ,0
2297,9040003020603,新規,0,2022-08-10,2022-08-10,丹峰合同会社,,合同会社,千葉県,佐倉市,直弥３３３番地１,,12,212,2850065,,,,,,,2022-08-10,1,,,,,ニミネ,0
2306,9050003006766,新規,0,2022-08-10,2022-08-10,合同会社ネットデザインファクトリー,,合同会社,茨城県,常総市,菅生町２９６０番地,,08,211,3030044,,,,,,,2022-08-10,1,,,,,ネットデザインファクトリー,0
2317,9080401026000,新規,0,2022-08-10,2022-08-10,株式会社魚忠,,株式会社,静岡県,浜松市西区,舞阪町舞阪１７７２番地,,22,133,4310211,,,,,,,2022-08-10,1,,,,,ウオチュウ,0
2329,9110001036882,新規,0,2022-08-10,2022-08-10,エスエー株式会社,,株式会社,新潟県,新潟市西区,寺尾西５丁目２２番１９号ジョイプレイスファミリアＡ－１,,15,107,9502064,,,,,,,2022-08-10,1,,,,,エスエー,0
2332,9110003004838,新規,0,2022-08-10,2022-08-10,合同会社村山重機,,合同会社,新潟県,新潟市北区,大久保１７４番地,,15,101,9503363,,,,,,,2022-08-10,1,,,,,ムラヤマジュウキ,0
2341,9120001248097,新規,0,2022-08-10,2022-08-10,株式会社えびすや,,株式会社,大阪府,大阪市中央区,高麗橋１丁目７番７－６０４号,,27,128,5410043,,,,,,,2022-08-10,1,,,,,エビスヤ,0
2342,9120001248155,新規,0,2022-08-10,2022-08-10,株式会社Ｃｏｚｙ　Ｃｏｎｓｕｌｔｉｎｇ,,株式会社,大阪府,大阪市北区,長柄東１丁目４番２３－８１２号,,27,127,5310063,,,,,,,2022-08-10,1,,,,,コージーコンサルティング,0
2346,9120003022260,新規,0,2022-08-10,2022-08-10,合同会社轟創建,,合同会社,大阪府,門真市,下島町１７番２０号Ｋコンフォート２０１号,,27,223,5710075,,,,,,,2022-08-10,1,,,,,トドロキソウケン,0
2348,9120901046352,新規,0,2022-08-10,2022-08-10,株式会社ノエフォトビジュアルズ,,株式会社,大阪府,茨木市,大字上音羽１６３番地,,27,211,5680086,,,,,,,2022-08-10,1,,,,,ノエフォトビジュアルズ,0
2350,9130001072422,新規,0,2022-08-10,2022-08-10,株式会社ａｄｄ９,,株式会社,京都府,京都市下京区,高辻堀川町３６６－２－８０５,00127488,26,106,6008486,,,,,,,2022-08-10,1,,,,,アッドナイン,0
2360,9140001127051,新規,0,2022-08-10,2022-08-10,株式会社Ｓａｌｔｏ,,株式会社,兵庫県,神戸市灘区,記田町４丁目１番２６号,,28,102,6570034,,,,,,,2022-08-10,1,,,,,サルト,0
2361,9140001127076,新規,0,2022-08-10,2022-08-10,株式会社和左官,,株式会社,兵庫県,たつの市,神岡町大住寺７６３番地１,,28,229,6794108,,,,,,,2022-08-10,1,,,,,ナゴミサカン,0
2366,9140003018018,新規,0,2022-08-10,2022-08-10,ＡＰ　ＭＡＲＴ合同会社,,合同会社,兵庫県,神戸市兵庫区,羽坂通３丁目７番１４号,,28,105,6520805,,,,,,,2022-08-10,1,,,,,エーピーマート,0
2367,9140003018026,新規,0,2022-08-10,2022-08-10,合同会社森口総合研究室,,合同会社,兵庫県,丹波篠山市,八上上８６番地１,,28,221,6692446,,,,,,,2022-08-10,1,,,,,モリグチソウゴウケンキュウシツ,0
2369,9160001024445,新規,0,2022-08-10,2022-08-10,株式会社もりしま,,株式会社,滋賀県,近江八幡市,玉木町２丁目１６番地,,25,204,5230872,,,,,,,2022-08-10,1,,,,,モリシマ,0
2370,9160001024453,新規,0,2022-08-10,2022-08-10,株式会社光興業,,株式会社,滋賀県,大津市,石山外畑町８０番地の１４,,25,201,5200868,,,,,,,2022-08-10,1,,,,,ヒカリコウギョウ,0
2372,9160003002647,新規,0,2022-08-10,2022-08-10,合同会社隅田造園,,合同会社,滋賀県,大津市,青山７丁目１番９号,,25,201,5202101,,,,,,,2022-08-10,1,,,,,スミダゾウエン,0
2384,9180001152582,新規,0,2022-08-10,2022-08-10,株式会社あだちメディカルサービス,,株式会社,愛知県,北名古屋市,鹿田清水４０番地１,,23,234,4810004,,,,,,,2022-08-10,1,,,,,アダチメディカルサービス,0
2387,9180003024128,新規,0,2022-08-10,2022-08-10,零技術研究所合同会社,,合同会社,愛知県,名古屋市緑区,上旭２丁目１３０１番地の８,,23,114,4580016,,,,,,,2022-08-10,1,,,,,レイギジュツケンキュウショ,0
2393,9180303005422,新規,0,2022-08-10,2022-08-10,あいうエデュケーション合同会社,,合同会社,愛知県,岡崎市,福岡町字東河原３３番地５,,23,202,4440825,,,,,,,2022-08-10,1,,,,,アイウエデュケーション,0
2400,9200001040363,新規,0,2022-08-10,2022-08-10,株式会社ナチュエット,,株式会社,岐阜県,可児郡御嵩町,御嵩１８２２番地９５,,21,521,5050116,,,,,,,2022-08-10,1,,,,,ナチュエット,0
2404,9230001019479,新規,0,2022-08-10,2022-08-10,株式会社ＤＳＮ,,株式会社,富山県,富山市,婦中町蔵島２６７番地５,,16,201,9392726,,,,,,,2022-08-10,1,,,,,ディーエスエヌ,0
2408,9240003005749,新規,0,2022-08-10,2022-08-10,ＨＩＰＰＹ　ＷＯＲＫＳ合同会社,,合同会社,広島県,広島市安佐南区,上安２丁目５２番２９－２０１号Ｂ棟,,34,105,7310154,,,,,,,2022-08-10,1,,,,,ヒッピーワークス,0
2411,9260001037081,新規,0,2022-08-10,2022-08-10,株式会社プライムマネジメント,,株式会社,岡山県,岡山市北区,伊島町２丁目２０－２６エクセレント津島２Ｆ,,33,101,7000016,,,,,,,2022-08-10,1,,,,,プライムマネジメント,0
2412,9260001037131,新規,0,2022-08-10,2022-08-10,株式会社篠原工業,,株式会社,岡山県,岡山市南区,古新田９０４番地９,,33,104,7010203,,,,,,,2022-08-10,1,,,,,シノハラコウギョウ,0
2416,9260005011124,新規,0,2022-08-10,2022-08-10,Ｂｉｚサポート協同組合,,その他の設立登記法人,岡山県,岡山市北区,川入４８番,,33,101,7010161,,,,,,,2022-08-10,1,,,,,ビズサポート,0
2417,9270001008610,新規,0,2022-08-10,2022-08-10,株式会社シモケン,,株式会社,鳥取県,鳥取市,宮長２３５番地２２,,31,201,6800872,,,,,,,2022-08-10,1,,,,,シモケン,0
2418,9270003001431,新規,0,2022-08-10,2022-08-10,合同会社えがおの森,,合同会社,鳥取県,鳥取市,南安長３丁目１０２番地ソファレファミーユ棟１０１号,,31,201,6800914,,,,,,,2022-08-10,1,,,,,エガオノモリ,0
2422,9290001098559,新規,0,2022-08-10,2022-08-10,株式会社Ｇ‐Ｐｌｕｓ,,株式会社,福岡県,久留米市,北野町十郎丸１７０３番地５,,40,203,8301121,,,,,,,2022-08-10,1,,,,,ジープラス,0
2423,9290001098567,新規,0,2022-08-10,2022-08-10,株式会社ＡＬホールディングス,,株式会社,福岡県,福岡市中央区,大名２丁目１０番２９号,,40,133,8100041,,,,,,,2022-08-10,1,,,,,エーエルホールディングス,0
2424,9290801028806,新規,0,2022-08-10,2022-08-10,株式会社Ｌａｋｅ　Ｒｉｖｅｒ,,株式会社,福岡県,北九州市八幡西区,岡田町１１番４９－７０８号,,40,109,8060033,,,,,,,2022-08-10,1,,,,,レイクリバー,0
2428,9320001019271,新規,0,2022-08-10,2022-08-10,株式会社グローバル東洋,,株式会社,大分県,豊後大野市,大野町田中１４５番地７,,44,212,8796441,,,,,,,2022-08-10,1,,,,,グローバルトウヨウ,0
2437,9340001024955,新規,0,2022-08-10,2022-08-10,株式会社Ｌａｍｐ,,株式会社,鹿児島県,西之表市,西之表８０７７番地,,46,213,8913101,,,,,,,2022-08-10,1,,,,,ランプ,0
2438,9340001024963,新規,0,2022-08-10,2022-08-10,株式会社上舞技建,,株式会社,鹿児島県,南さつま市,加世田川畑４１４３番地２,,46,220,8970003,,,,,,,2022-08-10,1,,,,,カミマイギケン,0
2443,9360001030794,新規,0,2022-08-10,2022-08-10,株式会社シンティコーポレーション,,株式会社,沖縄県,宜野湾市,野嵩３丁目４番９号,,47,205,9012203,,,,,,,2022-08-10,1,,,,,シンティコーポレーション,0
2447,9370001048943,新規,0,2022-08-10,2022-08-10,株式会社鹿又,,株式会社,宮城県,仙台市宮城野区,福室１丁目１３番２７号,,04,102,9830005,,,,,,,2022-08-10,1,,,,,カノマタ,0
2465,9460101007237,新規,0,2022-08-10,2022-08-10,Ｒｅｆｉｎｅ株式会社,,株式会社,北海道,河西郡芽室町,東めむろ二条北２丁目５番地８,,01,637,0820802,,,,,,,2022-08-10,1,,,,,リファイン,0
2466,9470003002228,新規,0,2022-08-10,2022-08-10,合同会社ビックファイブ,,合同会社,香川県,高松市,北浜町８番２０号,,37,201,7600031,,,,,,,2022-08-10,1,,,,,ビックファイブ,0
2470,9700150110651,新規,0,2022-08-10,2022-07-01,ネオ・プライマリー・カルテット,,その他,神奈川県,川崎市高津区,下作延４丁目２４－５０－２０１パストラル梶ヶ谷,,14,134,2130033,,,,,,,2022-07-01,1,,,,,ネオプライマリーカルテツト,0
2471,9700150111096,新規,0,2022-08-10,2022-08-10,ＥＢＩＳＵ　ＤＥＲＩＶＡＴＩＶＥＳ　ＰＴＥ．ＬＴＤ．,,外国会社等,長野県,北安曇郡白馬村,大字北城４７８５－１ＲＯＫＡ５０１,,20,485,3999301,５８３　Ｏｒｃｈａｒｄ　Ｒｏａｄ　＃０６－０１　Ｆｏｒｕｍ,,,,,,2022-08-10,1,,,,,エビスデリバテイブスピーテイーイーリミテツド,0
