sequenceNumber,corporateNumber,process,correct,updateDate,changeDate,name,nameImageId,kind,prefectureName,cityName,streetNumber,addressImageId,prefectureCode,cityCode,postCode,addressOutside,addressOutsideImageId,closeDate,closeCause,successorCorporateNumber,changeCause,assignmentDate,latest,enName,enPrefectureName,enCityName,enAddressOutside,furigana,hihyoji
7,1010001250063,新規,0,2024-12-10,2024-12-10,Ｍｉｎｕｔｉａ株式会社,,株式会社,東京都,千代田区,神田司町２丁目１３番地,,13,101,1010048,,,,,,,2024-12-10,1,,,,,マニューシャ,0
8,1010001250410,新規,0,2024-12-10,2024-12-10,株式会社クラウンセンス,,株式会社,東京都,中央区,日本橋兜町９－５兜町平和ダイヤビル８階,,13,102,1030026,,,,,,,2024-12-10,1,,,,,クラウンセンス,0
9,1010001250484,新規,0,2024-12-10,2024-12-10,Ｈｏｍｅｙ株式会社,,株式会社,東京都,中央区,銀座１丁目２２番１１号銀座大竹ビジデンス２Ｆ,,13,102,1040061,,,,,,,2024-12-10,1,,,,,ホーミィ,0
10,1010001250492,新規,0,2024-12-10,2024-12-10,ＭｅｄＢｚイノベーター株式会社,,株式会社,東京都,中央区,日本橋２丁目１番３号,,13,102,1030027,,,,,,,2024-12-10,1,,,,,メドビズイノベーター,0
11,1010001250518,新規,0,2024-12-10,2024-12-10,Ａｃｔｉｖａｔｉｏｎ　Ｅｎｅｒｇｙ株式会社,,株式会社,東京都,千代田区,岩本町３丁目４番３号リードシー秋葉原ビル４０２,,13,101,1010032,,,,,,,2024-12-10,1,,,,,アクティベーションエナジー,0
12,1010001250526,新規,0,2024-12-10,2024-12-10,ＢＯＬＵＶＮＩ株式会社,,株式会社,東京都,千代田区,神田佐久間町２丁目１永島ビル９階,,13,101,1010025,,,,,,,2024-12-10,1,,,,,ボルヴィーニ,0
13,1010001250559,新規,0,2024-12-10,2024-12-10,株式会社セイムトラベル,,株式会社,東京都,千代田区,神田駿河台２丁目１番３４号,,13,101,1010062,,,,,,,2024-12-10,1,,,,,セイムトラベル,0
14,1010001250567,新規,0,2024-12-10,2024-12-10,株式会社ＥＦＦＯＲＴ,,株式会社,東京都,中央区,銀座１丁目１２番４号Ｎ＆ＥＢＬＤ７階,,13,102,1040061,,,,,,,2024-12-10,1,,,,,エフォート,0
15,1010001250591,新規,0,2024-12-10,2024-12-10,株式会社アップサーブ・コンサルティング,,株式会社,東京都,中央区,日本橋室町１丁目１１番１２号日本橋水野ビル７階,,13,102,1030022,,,,,,,2024-12-10,1,,,,,アップサーブコンサルティング,0
16,1010001250600,新規,0,2024-12-10,2024-12-10,株式会社ＨＥＸ　Ｓｏｆｔｗａｒｅ,,株式会社,東京都,中央区,銀座１丁目１２－４Ｎ＆ＥＢＬＤ．７階,,13,102,1040061,,,,,,,2024-12-10,1,,,,,ヘックスソフトウェア,0
20,1010003045734,新規,0,2024-12-10,2024-12-10,アールファイブ蓄電所合同会社,,合同会社,東京都,中央区,京橋２丁目２番１号,,13,102,1040031,,,,,,,2024-12-10,1,,,,,アールファイブチクデンショ,0
21,1010003045742,新規,0,2024-12-10,2024-12-10,合同会社カイケイアドバイザーズ,,合同会社,東京都,中央区,銀座１丁目１２番４号Ｎ＆ＥＢＬＤ．６Ｆ,,13,102,1040061,,,,,,,2024-12-10,1,,,,,カイケイアドバイザーズ,0
24,1010005039230,新規,0,2024-12-10,2024-12-10,ＪＴＡ税理士法人,,その他の設立登記法人,東京都,千代田区,大手町１丁目６番１号大手町ビルヂング１階,,13,101,1000004,,,,,,,2024-12-10,1,,,,,ジェーティーエー,0
36,1010701046959,新規,0,2024-12-10,2024-12-10,株式会社Ｏｃｔａ,,株式会社,東京都,品川区,荏原１丁目３番１５号,,13,109,1420063,,,,,,,2024-12-10,1,,,,,オクタ,0
38,1010803005185,新規,0,2024-12-10,2024-12-10,合同会社須藤総研,,合同会社,東京都,大田区,東嶺町３９番１０号,,13,111,1450074,,,,,,,2024-12-10,1,,,,,スドウソウケン,0
45,1011003020553,新規,0,2024-12-10,2024-12-10,合同会社三八,,合同会社,東京都,渋谷区,東４丁目１２番２号ドメイン広尾８０１,,13,113,1500011,,,,,,,2024-12-10,1,,,,,サンパチ,0
46,1011003020586,新規,0,2024-12-10,2024-12-10,合同会社ウェール,,合同会社,東京都,渋谷区,渋谷２丁目１９‐１５宮益坂ビルディング６０９,,13,113,1500002,,,,,,,2024-12-10,1,,,,,ウェール,0
51,1011101109851,新規,0,2024-12-10,2024-12-10,株式会社ＮＲＯ,,株式会社,東京都,新宿区,西新宿３丁目３番１３号西新宿水間ビル２階,,13,104,1600023,,,,,,,2024-12-10,1,,,,,エヌアールオー,0
60,1011501031416,新規,0,2024-12-10,2024-12-10,株式会社海納山,,株式会社,東京都,北区,十条仲原１丁目２６番５号鳥芳ビル３０２号室,,13,117,1140031,,,,,,,2024-12-10,1,,,,,カイノサン,0
61,1011501031457,新規,0,2024-12-10,2024-12-10,中陽汽車集団株式会社,,株式会社,東京都,荒川区,南千住３丁目２７－２浅草ビル,,13,118,1160003,,,,,,,2024-12-10,1,,,,,チュウヨウカーグループ,0
63,1011503006333,新規,0,2024-12-10,2024-12-10,合同会社タロウテック,,合同会社,東京都,荒川区,荒川４丁目２９番１０号エスポワール町屋４０５,,13,118,1160002,,,,,,,2024-12-10,1,,,,,,0
71,1012803003565,新規,0,2024-12-10,2024-12-10,合同会社Ｄｒｅａｍ　Ｋｉｔｔｅｎ,,合同会社,東京都,東大和市,上北台２丁目１－３１豊ビル１０１,,13,220,2070023,,,,,,,2024-12-10,1,,,,,,0
76,1013301053474,新規,0,2024-12-10,2024-12-10,株式会社Ｕｓｅｓ　Ｃｏｎｎｅｃｔｉｏｎ,,株式会社,東京都,豊島区,東池袋１丁目３４番５号いちご東池袋ビル６階,,13,116,1700013,,,,,,,2024-12-10,1,,,,,ユーズコネクション,0
77,1013301053482,新規,0,2024-12-10,2024-12-10,株式会社ＲＯＳＥＮＴＩＣＡ,,株式会社,東京都,豊島区,南大塚２丁目３８番１号リードシー大塚ビル５０９,,13,116,1700005,,,,,,,2024-12-10,1,,,,,ロセンティカ,0
86,1020001160344,新規,0,2024-12-10,2024-12-10,株式会社海誠商事,,株式会社,神奈川県,横浜市中区,千歳町３番地２－４０５号室,,14,104,2310035,,,,,,,2024-12-10,1,,,,,カイセイショウジ,0
87,1020001160468,新規,0,2024-12-10,2024-12-10,株式会社ＮＥＸＵＳ,,株式会社,神奈川県,横浜市瀬谷区,阿久和南２丁目２２番地４,,14,114,2460026,,,,,,,2024-12-10,1,,,,,ネクサス,0
88,1020001160518,新規,0,2024-12-10,2024-12-10,株式会社１ｓｔ　Ｂｅｓｔ,,株式会社,神奈川県,横浜市港北区,新吉田東５丁目５６番２１号,,14,109,2230058,,,,,,,2024-12-10,1,,,,,ファーストベスト,0
93,1020003027450,新規,0,2024-12-10,2024-12-10,合同会社タングルド,,合同会社,神奈川県,横浜市緑区,三保町２４０２－１岩澤マンション１０５,,14,113,2260015,,,,,,,2024-12-10,1,,,,,タングルド,0
97,1021001083923,新規,0,2024-12-10,2024-12-10,株式会社ＮＯＭ,,株式会社,神奈川県,小田原市,飯泉５４５番地の１３,,14,206,2500863,,,,,,,2024-12-10,1,,,,,ノム,0
98,1021001083964,新規,0,2024-12-10,2024-12-10,ＭＵＧＥＮ　ＭＯＴＯＲＳ株式会社,,株式会社,神奈川県,茅ヶ崎市,芹沢５６７８番地,,14,207,2530008,,,,,,,2024-12-10,1,,,,,ムゲンモータース,0
106,1030001163882,新規,0,2024-12-10,2024-12-10,ＥＣＯ　ＴＥＣＨ株式会社,,株式会社,埼玉県,さいたま市西区,大字内野本郷９２７番地３－２０２,,11,101,3310045,,,,,,,2024-12-10,1,,,,,エコテック,0
111,1030003025643,新規,0,2024-12-10,2024-12-10,合同会社邑の邸,,合同会社,埼玉県,戸田市,大字新曽２１２２,,11,224,3350021,,,,,,,2024-12-10,1,,,,,ムラノイエ,0
117,1040001136516,新規,0,2024-12-10,2024-12-10,株式会社もとやす,,株式会社,千葉県,柏市,中新宿１丁目８番２０号,,12,217,2770066,,,,,,,2024-12-10,1,,,,,モトヤス,0
143,1080105006470,新規,0,2024-12-10,2024-12-10,フェニックスビル管理組合法人,,その他の設立登記法人,静岡県,沼津市,白銀町９番地の９,,22,203,4100805,,,,,,,2024-12-10,1,,,,,フェニックスビル,0
148,1090001019039,新規,0,2024-12-10,2024-12-10,株式会社ＳＵＧＡＩ,,株式会社,山梨県,中央市,井之口６７番地２,,19,214,4093804,,,,,,,2024-12-10,1,,,,,スガイ,0
154,1100001038111,新規,0,2024-12-10,2024-12-10,株式会社ＭＦＯ,,株式会社,長野県,岡谷市,長地御所２丁目５番３８号,,20,204,3940082,,,,,,,2024-12-10,1,,,,,エムフォー,0
157,1110001038894,新規,0,2024-12-10,2024-12-10,株式会社Ｅｃｌｉｐｃｅ,,株式会社,新潟県,新潟市中央区,長潟３丁目１０番３号,,15,103,9500932,,,,,,,2024-12-10,1,,,,,エクリプス,0
158,1110001038903,新規,0,2024-12-10,2024-12-10,株式会社ｔｏｆｆ,,株式会社,新潟県,新潟市中央区,東万代町９番３８号ロイヤルパークスＥＲ万代１２１７号,,15,103,9500082,,,,,,,2024-12-10,1,,,,,,0
159,1110001038911,新規,0,2024-12-10,2024-12-10,株式会社井口工業,,株式会社,新潟県,小千谷市,大字桜町４８９８番地,,15,208,9470035,,,,,,,2024-12-10,1,,,,,イグチコウギョウ,0
169,1120001270934,新規,0,2024-12-10,2024-12-10,株式会社映の美スタジオ,,株式会社,大阪府,大阪市西区,西本町１丁目１１－１本町セントラルハイツ１４０３,,27,106,5500005,,,,,,,2024-12-10,1,,,,,バエノビスタジオ,0
170,1120001270942,新規,0,2024-12-10,2024-12-10,Ｒｅｓｔ　Ｆｕｊｉ株式会社,,株式会社,大阪府,大阪市港区,弁天４丁目４番５号１０１号,,27,107,5520007,,,,,,,2024-12-10,1,,,,,レストフジ,0
171,1120001270950,新規,0,2024-12-10,2024-12-10,株式会社０,,株式会社,大阪府,大阪市平野区,加美東５丁目５番２０号メルヴェーユＡ－６,,27,126,5470002,,,,,,,2024-12-10,1,,,,,ラブ,0
172,1120001270975,新規,0,2024-12-10,2024-12-10,清水株式会社,,株式会社,大阪府,大阪市生野区,新今里７丁目７番２－２０１号,,27,116,5440001,,,,,,,2024-12-10,1,,,,,シミズ,0
173,1120001271024,新規,0,2024-12-10,2024-12-10,株式会社Ｃｉｅｌ,,株式会社,大阪府,大阪市港区,夕凪１丁目１番８号,,27,107,5520004,,,,,,,2024-12-10,1,,,,,シエル,0
176,1120003028091,新規,0,2024-12-10,2024-12-10,ＳＷＳクリエイト合同会社,,合同会社,大阪府,大阪市北区,梅田１丁目２番２号大阪駅前第２ビル１２－１２,,27,127,5300001,,,,,,,2024-12-10,1,,,,,エスダブリューエスクリエイト,0
177,1120003028133,新規,0,2024-12-10,2024-12-10,合同会社テンクリエイト,,合同会社,大阪府,大阪市中央区,森ノ宮中央１丁目１１－３－５０４,,27,128,5400003,,,,,,,2024-12-10,1,,,,,テンクリエイト,0
178,1120003028141,新規,0,2024-12-10,2024-12-10,合同会社ＩＭ・２,,合同会社,大阪府,大阪市住吉区,南住吉２丁目６番２７－４０３号,,27,120,5580041,,,,,,,2024-12-10,1,,,,,アイエムツー,0
179,1120005024650,新規,0,2024-12-10,2024-12-10,一般社団法人アジア音楽連合会,,その他の設立登記法人,大阪府,大阪市東成区,中道１丁目５番２８号３０３号室,,27,115,5370025,,,,,,,2024-12-10,1,,,,,アジアオンガクレンゴウカイ,0
185,1120101070730,新規,0,2024-12-10,2024-12-10,株式会社パロホム,,株式会社,大阪府,堺市北区,金岡町１４２３番地３－１３２９号,,27,146,5918022,,,,,,,2024-12-10,1,,,,,パロホム,0
189,1140001136530,新規,0,2024-12-10,2024-12-10,西宮酒類販売株式会社,,株式会社,兵庫県,西宮市,津門西口町７番２０号,,28,204,6638231,,,,,,,2024-12-10,1,,,,,,0
190,1140001136687,新規,0,2024-12-10,2024-12-10,株式会社ＬＡＭＴＥＸ,,株式会社,兵庫県,神戸市長田区,若松町１丁目３番３号１階,,28,106,6530038,,,,,,,2024-12-10,1,,,,,ラムテックス,0
193,1140003021409,新規,0,2024-12-10,2024-12-10,合同会社米クラフト,,合同会社,兵庫県,加東市,牧野４７番地,,28,228,6731474,,,,,,,2024-12-10,1,,,,,コメクラフト,0
195,1150001027687,新規,0,2024-12-10,2024-12-10,株式会社清水組建設,,株式会社,奈良県,大和郡山市,東岡町２８番地の１１,,29,203,6391137,,,,,,,2024-12-10,1,,,,,シミズグミケンセツ,0
208,1180001164478,新規,0,2024-12-10,2024-12-10,株式会社沖野不動産,,株式会社,愛知県,北名古屋市,西之保宮前３０番地,,23,234,4810033,,,,,,,2024-12-10,1,,,,,オキノフドウサン,0
209,1180001164486,新規,0,2024-12-10,2024-12-10,株式会社Ｆｏｒｓｅ,,株式会社,愛知県,長久手市,久保山７１０番地１ダイアパレスはなみずき通５０３号,,23,238,4801151,,,,,,,2024-12-10,1,,,,,フォルセ,0
216,1190003004870,新規,0,2024-12-10,2024-12-10,合同会社ｆｏｒｍｅ,,合同会社,三重県,伊勢市,小俣町明野９８２‐３,,24,203,5190501,,,,,,,2024-12-10,1,,,,,フォルム,0
217,1200001043217,新規,0,2024-12-10,2024-12-10,株式会社山野薬彩,,株式会社,岐阜県,飛騨市,古川町向町３丁目８番１号,,21,217,5094241,,,,,,,2024-12-10,1,,,,,サンヤヤクサイ,0
224,1240003006969,新規,0,2024-12-10,2024-12-10,合同会社宮田ソーラー,,合同会社,広島県,広島市佐伯区,吉見園１番１２－４０７号,,34,108,7315132,,,,,,,2024-12-10,1,,,,,ミヤタソーラー,0
236,1290001108250,新規,0,2024-12-10,2024-12-10,ＡＨＳ株式会社,,株式会社,福岡県,福岡市博多区,博多駅前２丁目１９番１７－７１２号,,40,132,8120011,,,,,,,2024-12-10,1,,,,,エーエイチエス,0
241,1290801031115,新規,0,2024-12-10,2024-12-10,株式会社トウン,,株式会社,福岡県,北九州市八幡東区,尾倉２丁目３－３,,40,108,8050059,,,,,,,2024-12-10,1,,,,,トウン,0
244,1320003004527,新規,0,2024-12-10,2024-12-10,合同会社Ｅａｔ　Ｔｏｇｅｔｈｅｒ,,合同会社,大分県,中津市,沖代町１丁目６番２９号沖代貸家１３号,,44,203,8710021,,,,,,,2024-12-10,1,,,,,イートトゥゲザー,0
246,1330005010844,新規,0,2024-12-10,2024-12-10,ＮＰＯ法人この指とまれ,,その他の設立登記法人,熊本県,玉名市,大浜町４１３９番地２,,43,206,8650055,,,,,,,2024-12-10,1,,,,,コノユビトマレ,0
250,1350003004796,新規,0,2024-12-10,2024-12-10,南九州太陽光発電合同会社,,合同会社,宮崎県,児湯郡高鍋町,大字上江６７６５番地１１,,45,401,8840006,,,,,,,2024-12-10,1,,,,,ミナミキュウシュウタイヨウコウハツデン,0
270,1462503000223,新規,0,2024-12-10,2024-12-10,合同会社キーファクリンゲル,,合同会社,北海道,標津郡中標津町,西一条南３丁目２番地６グランビレッジ２０８,,01,692,0861101,,,,,,,2024-12-10,1,,,,,キーファクリンゲル,0
276,1500001026034,新規,0,2024-12-10,2024-12-10,株式会社慧進,,株式会社,愛媛県,今治市,馬越町２丁目１番７号,,38,202,7940062,,,,,,,2024-12-10,1,,,,,ケイシン,0
282,2010001250500,新規,0,2024-12-10,2024-12-10,シャイン株式会社,,株式会社,東京都,中央区,日本橋馬喰町２丁目６番１０号東京大和化成ビル５階,,13,102,1030002,,,,,,,2024-12-10,1,,,,,シャイン,0
283,2010001250525,新規,0,2024-12-10,2024-12-10,Ｆｏｕｎｄａｔｉｏｎ　Ｈｏｌｄｉｎｇｓ２株式会社,,株式会社,東京都,千代田区,大手町１丁目６番１号,,13,101,1000004,,,,,,,2024-12-10,1,,,,,ファウンデーションホールディングスツー,0
284,2010001250558,新規,0,2024-12-10,2024-12-10,株式会社ＲＶＤフードサービス,,株式会社,東京都,文京区,本郷４丁目３１番９号,,13,105,1130033,,,,,,,2024-12-10,1,,,,,アールブイディーフードサービス,0
285,2010001250599,新規,0,2024-12-10,2024-12-10,株式会社Ａ‐ＢＬＯＯＭ,,株式会社,東京都,中央区,新富２丁目５番１１－４０３号,,13,102,1040041,,,,,,,2024-12-10,1,,,,,エーブルーム,0
287,2010003045717,新規,0,2024-12-10,2024-12-10,合同会社カナザワ,,合同会社,東京都,中央区,銀座１丁目１２番４号Ｎ＆Ｅ．ＢＬＤ．６Ｆ,,13,102,1040061,,,,,,,2024-12-10,1,,,,,カナザワ,0
288,2010003045733,新規,0,2024-12-10,2024-12-10,アールフォー蓄電所合同会社,,合同会社,東京都,中央区,京橋２丁目２番１号,,13,102,1040031,,,,,,,2024-12-10,1,,,,,アールフォーチクデンショ,0
290,2010101016446,新規,0,2024-12-10,2024-12-10,株式会社今永空設,,株式会社,東京都,八王子市,富士見町３９番１号,,13,201,1920044,,,,,,,2024-12-10,1,,,,,イマナガクウセツ,0
291,2010103002469,新規,0,2024-12-10,2024-12-10,ＷＩＮ合同会社,,合同会社,東京都,八王子市,横山町９番２２号ＯＫ－３ビル４階,,13,201,1920081,,,,,,,2024-12-10,1,,,,,ウィン,0
298,2010401186947,新規,0,2024-12-10,2024-12-10,株式会社ＪＧ２６,,株式会社,東京都,港区,虎ノ門１丁目３番１号,,13,103,1050001,,,,,,,2024-12-10,1,,,,,ジェージーニジュウロク,0
300,2010405023782,新規,0,2024-12-10,2024-12-10,一般社団法人脱炭素防災支援協会,,その他の設立登記法人,東京都,港区,西新橋２丁目３３番４号,,13,103,1050003,,,,,,,2024-12-10,1,,,,,ダツタンソボウサイシエンキョウカイ,0
301,2010501053213,新規,0,2024-12-10,2024-12-10,株式会社ＴＲＥＴＨ,,株式会社,東京都,台東区,上野５丁目８番１０上野アビタシオン２０４号,,13,106,1100005,,,,,,,2024-12-10,1,,,,,トレス,0
314,2011001166397,新規,0,2024-12-10,2024-12-10,株式会社ＫｅｙＧｏ,,株式会社,東京都,目黒区,柿の木坂１丁目６番２７号柿の木坂藤マンション３０２,,13,110,1520022,,,,,,,2024-12-10,1,,,,,キーゴー,0
319,2011003020569,新規,0,2024-12-10,2024-12-10,合同会社ＢＡＫＵＳＯＵ,,合同会社,東京都,目黒区,下目黒１丁目８－３１－２０２,,13,110,1530064,,,,,,,2024-12-10,1,,,,,,0
321,2011101109875,新規,0,2024-12-10,2024-12-10,株式会社ＡＩＫＫＯＵ,,株式会社,東京都,新宿区,西新宿３丁目３番１３号西新宿水間ビル２Ｆ,,13,104,1600023,,,,,,,2024-12-10,1,,,,,アイコウ,0
323,2011103015279,新規,0,2024-12-10,2024-12-10,Ｋ＆ＣＯＭＰＡＮＹ合同会社,,合同会社,東京都,新宿区,新宿２丁目１２番１３号アントレサロンビル２階,,13,104,1600022,,,,,,,2024-12-10,1,,,,,ケイカンパニー,0
326,2011401026639,新規,0,2024-12-10,2024-12-10,ＭＡＸＩＮ株式会社,,株式会社,東京都,板橋区,板橋３丁目３４－１２Ｓａｋｕｒａ板橋,,13,119,1730004,,,,,,,2024-12-10,1,,,,,マックスイン,0
329,2011501031456,新規,0,2024-12-10,2024-12-10,株式会社ＬＯＬ,,株式会社,東京都,荒川区,南千住３丁目４１番２－４０５号,,13,118,1160003,,,,,,,2024-12-10,1,,,,,ロール,0
330,2011501031464,新規,0,2024-12-10,2024-12-10,株式会社Ｓｅｎｋｉ,,株式会社,東京都,北区,十条仲原１丁目２６番５号－２Ｆ,,13,117,1140031,,,,,,,2024-12-10,1,,,,,センキ,0
332,2012301014188,新規,0,2024-12-10,2024-12-10,株式会社ＮＡＥＣＨＡＮ,,株式会社,東京都,町田市,玉川学園２丁目１０番６号,,13,209,1940041,,,,,,,2024-12-10,1,,,,,ナエチャン,0
336,2012801023630,新規,0,2024-12-10,2024-12-10,株式会社エミュプロダクション,,株式会社,東京都,昭島市,朝日町２丁目４番４号コーポアサヒＢ２０６号,,13,207,1960025,,,,,,,2024-12-10,1,,,,,エミュプロダクション,0
339,2013301053481,新規,0,2024-12-10,2024-12-10,株式会社ｐｏｓｉｄｄｙ,,株式会社,東京都,豊島区,西池袋３丁目２９番１１号ファーストビル５Ｆ,,13,116,1710021,,,,,,,2024-12-10,1,,,,,ポジディ,0
357,2021001083963,新規,0,2024-12-10,2024-12-10,ＮＩＨＯＮ　ＭＡＸ株式会社,,株式会社,神奈川県,海老名市,杉久保南１丁目６番２３号大貫第二ハイツ１０１,,14,215,2430427,,,,,,,2024-12-10,1,,,,,ニホンマックス,0
365,2030001163832,新規,0,2024-12-10,2024-12-10,ベンチャーウイスキーホールディングス株式会社,,株式会社,埼玉県,秩父市,みどりが丘４９番地,,11,207,3680067,,,,,,,2024-12-10,1,,,,,ベンチャーウイスキーホールディングス,0
366,2030001163857,新規,0,2024-12-10,2024-12-10,船越興業株式会社,,株式会社,埼玉県,志木市,下宗岡２丁目６番２－６号,,11,228,3530003,,,,,,,2024-12-10,1,,,,,フナコシコウギョウ,0
368,2030003025642,新規,0,2024-12-10,2024-12-10,合同会社ＡＮＥＬＡＦＩＴ,,合同会社,埼玉県,ふじみ野市,うれし野２丁目１６番１号ＬＣモールうれし野１階,,11,245,3560056,,,,,,,2024-12-10,1,,,,,アネラフィット,0
377,2040001136515,新規,0,2024-12-10,2024-12-10,株式会社ＳＴＥＡＤＦＡＳＴ,,株式会社,千葉県,市川市,妙典５丁目１３－３３Ａ＆Ｙビル３Ｆ,,12,203,2720111,,,,,,,2024-12-10,1,,,,,ステッドファスト,0
382,2040003026350,新規,0,2024-12-10,2024-12-10,合同会社ＴＷエンタープライズ,,合同会社,千葉県,山武郡横芝光町,坂田池２１３番地４,,12,410,2891755,,,,,,,2024-12-10,1,,,,,ティダブリューエンタープライズ,0
383,2040005022595,新規,0,2024-12-10,2024-12-10,医療法人社団遼陽会,,その他の設立登記法人,千葉県,船橋市,本中山２丁目８番２１号１階,,12,204,2730035,,,,,,,2024-12-10,1,,,,,リョウヨウカイ,0
395,2080101025184,新規,0,2024-12-10,2024-12-10,増田商事株式会社,,株式会社,静岡県,富士宮市,万野原新田４０５３番地の１５,,22,207,4180001,,,,,,,2024-12-10,1,,,,,マスダショウジ,0
398,2090001019038,新規,0,2024-12-10,2024-12-10,株式会社ｃｏｃｏｃｈｉ,,株式会社,山梨県,甲府市,貢川本町８番３１号キャピタル貢川１階,,19,201,4000048,,,,,,,2024-12-10,1,,,,,ココチ,0
412,2120001270842,新規,0,2024-12-10,2024-12-10,ＳＯＲＡ株式会社,,株式会社,大阪府,大阪市中央区,南久宝寺町４丁目５番６号,,27,128,5410058,,,,,,,2024-12-10,1,,,,,ソラ,0
413,2120001270966,新規,0,2024-12-10,2024-12-10,西郊株式会社,,株式会社,大阪府,大阪市浪速区,恵美須西２丁目１４－１２－４０６室,,27,111,5560003,,,,,,,2024-12-10,1,,,,,サイコウ,0
414,2120001270990,新規,0,2024-12-10,2024-12-10,Ｈｏｏｔ　Ｓｔｕｄｉｏ株式会社,,株式会社,大阪府,大阪市北区,鶴野町４－１１朝日プラザ梅田４０９,,27,127,5300014,,,,,,,2024-12-10,1,,,,,フートスタジオ,0
415,2120001271015,新規,0,2024-12-10,2024-12-10,Ｔｉｍｉ株式会社,,株式会社,大阪府,大阪市淀川区,西宮原２丁目６番１６号新大阪コーポビアネーズ２０４号室,,27,123,5320004,,,,,,,2024-12-10,1,,,,,ティミー,0
418,2120003028140,新規,0,2024-12-10,2024-12-10,ＡＫＩＮＡＩ合同会社,,合同会社,大阪府,大阪市大正区,千島３丁目６番１７－７０６号,,27,108,5510003,,,,,,,2024-12-10,1,,,,,アキナイ,0
419,2120003028149,新規,0,2024-12-10,2024-12-10,合同会社ＩＣＴエデュケーションラボ,,合同会社,大阪府,寝屋川市,成田南町１０番１１号,,27,215,5720003,,,,,,,2024-12-10,1,,,,,アイシーティーエデュケーションラボ,0
421,2120103006178,新規,0,2024-12-10,2024-12-10,合同会社三樹,,合同会社,大阪府,泉佐野市,下瓦屋３４２番地の１８,,27,213,5980062,,,,,,,2024-12-10,1,,,,,ミツキ,0
424,2120901050138,新規,0,2024-12-10,2024-12-10,株式会社ミイスカイ,,株式会社,大阪府,吹田市,五月が丘南７番１７－１０６号,,27,205,5650832,,,,,,,2024-12-10,1,,,,,ミイスカイ,0
428,2130001078541,新規,0,2024-12-10,2024-12-10,株式会社ＳＷＩＦＴ,,株式会社,京都府,長岡京市,奥海印寺台田８番地３,,26,209,6170853,,,,,,,2024-12-10,1,,,,,スウィフト,0
431,2130003010056,新規,0,2024-12-10,2024-12-10,プライムシフト合同会社,,合同会社,京都府,京都市下京区,七条通油小路東入大黒町２２７番地第２キョートビル４０２,,26,106,6008223,,,,,,,2024-12-10,1,,,,,プライムシフト,0
441,2180001164460,新規,0,2024-12-10,2024-12-10,株式会社ＲＡＩＳＥ,,株式会社,愛知県,名古屋市中区,丸の内３丁目１６番１１号丸の内パークマンション２０８号室,,23,106,4600002,,,,,,,2024-12-10,1,,,,,レイズ,0
442,2180001164493,新規,0,2024-12-10,2024-12-10,株式会社ＪＡＴ,,株式会社,愛知県,名古屋市中村区,名駅３丁目４番１０号アルティメイト名駅１ｓｔ２階,,23,105,4500002,,,,,,,2024-12-10,1,,,,,ジェーエイティー,0
445,2180003027715,新規,0,2024-12-10,2024-12-10,合同会社ＬＡＶＩＥ,,合同会社,愛知県,名古屋市中村区,名駅南１丁目１番９号プレサンス名古屋ＳＴＡＴＩＯＮルミアス１１０２号,,23,105,4500003,,,,,,,2024-12-10,1,,,,,ラヴィ,0
448,2180303006369,新規,0,2024-12-10,2024-12-10,ｓｉｎｒｉｎ合同会社,,合同会社,愛知県,豊橋市,神野新田町字タノ割６３番地の１８,,23,201,4418077,,,,,,,2024-12-10,1,,,,,シンリン,0
449,2190001031866,新規,0,2024-12-10,2024-12-10,株式会社ＳｈｉｎｅＰａｔｈ　ＨＲ,,株式会社,三重県,四日市市,西新地７番３号プラトンホテル四日市２階ＷＯＲＫＰＬＡＣＥＹＯＫＫＡＩＣＨＩ,,24,202,5100087,,,,,,,2024-12-10,1,,,,,シャインパスエイチアール,0
451,2200001043216,新規,0,2024-12-10,2024-12-10,株式会社アペロ,,株式会社,岐阜県,岐阜市,則武中１丁目１２番１５号,,21,201,5020932,,,,,,,2024-12-10,1,,,,,アペロ,0
464,2290001108217,新規,0,2024-12-10,2024-12-10,株式会社ａｓａ,,株式会社,福岡県,福岡市城南区,南片江６丁目１４番１４号,,40,136,8140143,,,,,,,2024-12-10,1,,,,,アサ,0
465,2290001108266,新規,0,2024-12-10,2024-12-10,合一株式会社,,株式会社,福岡県,福岡市東区,香椎照葉６丁目２－５１－４１０７号室,,40,131,8130017,,,,,,,2024-12-10,1,,,,,ゴウイツ,0
473,2310001019361,新規,0,2024-12-10,2024-12-10,株式会社アイアンマン,,株式会社,長崎県,長崎市,松山町４番４４号,,42,201,8528118,,,,,,,2024-12-10,1,,,,,アイアンマン,0
476,2320003004534,新規,0,2024-12-10,2024-12-10,合同会社Ｇａｒｍｅｎｔ,,合同会社,大分県,大分市,須賀２丁目１７番３１号,,44,201,8700244,,,,,,,2024-12-10,1,,,,,ガーメント,0
482,2340001026990,新規,0,2024-12-10,2024-12-10,株式会社ウノイケ技建,,株式会社,鹿児島県,鹿児島市,田上２丁目９番２号,,46,201,8900034,,,,,,,2024-12-10,1,,,,,ウノイケギケン,0
494,2500001026033,新規,0,2024-12-10,2024-12-10,株式会社クレスト,,株式会社,愛媛県,宇和島市,遊子２８５５番地,,38,203,7980103,,,,,,,2024-12-10,1,,,,,クレスト,0
508,3010001250508,新規,0,2024-12-10,2024-12-10,アオバアンドカンパニー株式会社,,株式会社,東京都,千代田区,隼町２番１０号２１０半蔵門ビル３階,,13,101,1020092,,,,,,,2024-12-10,1,,,,,アオバアンドカンパニー,0
509,3010001250540,新規,0,2024-12-10,2024-12-10,Ｂａｎｄｒｕｐｔｉｏｎ株式会社,,株式会社,東京都,中央区,日本橋茅場町１丁目８番１号,,13,102,1030025,,,,,,,2024-12-10,1,,,,,バンドラプション,0
510,3010001250565,新規,0,2024-12-10,2024-12-10,株式会社ＬＡＮＤ,,株式会社,東京都,中央区,勝どき４丁目６番２号パークタワー勝どきミッド１８３３号,,13,102,1040054,,,,,,,2024-12-10,1,,,,,ランド,0
511,3010001250581,新規,0,2024-12-10,2024-12-10,ＭｅｄＢｅＳｔｒａｔ株式会社,,株式会社,東京都,中央区,日本橋茅場町２丁目５－６日本橋大江戸ビル６１３号室,,13,102,1030025,,,,,,,2024-12-10,1,,,,,メッドビーストラット,0
517,3010003045724,新規,0,2024-12-10,2024-12-10,Ｔｓｕｎａｍｉ　Ｔｓｏｌｕｔｉｏｎｓ　Ｊａｐａｎ合同会社,,合同会社,東京都,千代田区,神田須田町１丁目７番８号２階,,13,101,1010041,,,,,,,2024-12-10,1,,,,,ツナミソリューションズジャパン,0
518,3010003045740,新規,0,2024-12-10,2024-12-10,ＫＲ　Ｉｎｖｅｓｔｍｅｎｔ３合同会社,,合同会社,東京都,中央区,京橋２丁目１２番６号ＡＯＪ税理士法人内,,13,102,1040031,,,,,,,2024-12-10,1,,,,,ケーアールインベストメントスリー,0
519,3010003045749,新規,0,2024-12-10,2024-12-10,合同会社まなぶならここからＣｏｎｓｕｌｔｉｎｇ　Ｏｆｆｉｃｅ,,合同会社,東京都,中央区,銀座１丁目１２番４号Ｎ＆Ｅ－ＢＬＤ．６Ｆ,,13,102,1040061,,,,,,,2024-12-10,1,,,,,マナブナラココカラコンサルティングオフィス,0
520,3010003045765,新規,0,2024-12-10,2024-12-10,アトリエ０合同会社,,合同会社,東京都,千代田区,神田和泉町１番地６―１６ヤマトビル４０５,,13,101,1010024,,,,,,,2024-12-10,1,,,,,アトリエゼロ,0
522,3010101016445,新規,0,2024-12-10,2024-12-10,株式会社ＲＩＫＲＩ,,株式会社,東京都,八王子市,元本郷町３丁目５－２２,,13,201,1920051,,,,,,,2024-12-10,1,,,,,リクリ,0
532,3010501053294,新規,0,2024-12-10,2024-12-10,スカイライン株式会社,,株式会社,東京都,台東区,清川２丁目６－９グラード南千住５０１号,,13,106,1110022,,,,,,,2024-12-10,1,,,,,スカイライン,0
534,3010603011266,新規,0,2024-12-10,2024-12-10,合同会社ＰＡＩＫＡＪＩ,,合同会社,東京都,江東区,三好４丁目７番３０号,,13,108,1350022,,,,,,,2024-12-10,1,,,,,パイカジ,0
539,3010901056459,新規,0,2024-12-10,2024-12-10,株式会社城南フーズ,,株式会社,東京都,世田谷区,尾山台２丁目２９番１７号アーバンスペース２Ｆ,,13,112,1580086,,,,,,,2024-12-10,1,,,,,ジョウナンフーズ,0
540,3010903009555,新規,0,2024-12-10,2024-12-10,合同会社アコトジュエ,,合同会社,東京都,世田谷区,代沢４丁目３１－１０ＶＲＥＳＥＣＲＡＣＩＡＩＤＺ下北沢５０１,,13,112,1550032,,,,,,,2024-12-10,1,,,,,アコトジュエ,0
548,3011001166495,新規,0,2024-12-10,2024-12-10,ＡＲＴ　ＥＡＵ株式会社,,株式会社,東京都,渋谷区,恵比寿西１丁目３１番１７－２０１号,,13,113,1500021,,,,,,,2024-12-10,1,,,,,アールオー,0
559,3011501031463,新規,0,2024-12-10,2024-12-10,株式会社馬成金,,株式会社,東京都,北区,赤羽南２丁目１１番１４号,,13,117,1150044,,,,,,,2024-12-10,1,,,,,ウマナリキン,0
560,3011502016918,新規,0,2024-12-10,2024-12-10,有限会社九十九商会,,有限会社,東京都,北区,中里１丁目３番３号,,13,117,1140015,,,,,,,2024-12-10,1,,,,,ツクモショウカイ,0
561,3011503006331,新規,0,2024-12-10,2024-12-10,ＮＥＷＡＰＡＳＡ合同会社,,合同会社,東京都,北区,王子１丁目２２番２一番街ビル２Ｆ,,13,117,1140002,,,,,,,2024-12-10,1,,,,,ネワパサ,0
567,3013301053480,新規,0,2024-12-10,2024-12-10,株式会社Ｓｗａｌｌｏｗ,,株式会社,東京都,豊島区,池袋２丁目４７－７フォーレセブンビル５階,,13,116,1710014,,,,,,,2024-12-10,1,,,,,スワロー,0
576,3020003027399,新規,0,2024-12-10,2024-12-10,合同会社ＭＡＮＡ,,合同会社,神奈川県,横浜市西区,みなとみらい４丁目７番１－２３０３号,,14,103,2200012,,,,,,,2024-12-10,1,,,,,マナ,0
577,3020003027408,新規,0,2024-12-10,2024-12-10,ＳＧＰ合同会社,,合同会社,神奈川県,横浜市緑区,寺山町１８３番地８ドルミ中山Ｅ棟１０６号,,14,113,2260013,,,,,,,2024-12-10,1,,,,,エスジーピー,0
578,3020003027449,新規,0,2024-12-10,2024-12-10,合同会社Ｔ＆Ｓ,,合同会社,神奈川県,横浜市保土ケ谷区,釜台町３３番７号,,14,106,2400066,,,,,,,2024-12-10,1,,,,,ティーアンドエス,0
579,3020005016631,新規,0,2024-12-10,2024-12-10,一般社団法人わたつみ,,その他の設立登記法人,神奈川県,横浜市中区,海岸通１番地１大桟橋共同ビル１Ｆ,,14,104,2310000,,,,,,,2024-12-10,1,,,,,ワタツミ,0
580,3021001083962,新規,0,2024-12-10,2024-12-10,ＷＯＲＬＤ　ＬＩＮＫ　ＪＡＰＡＮ株式会社,,株式会社,神奈川県,相模原市中央区,宮下本町３丁目１９番２５号,,14,152,2520211,,,,,,,2024-12-10,1,,,,,ワールドリンクジャパン,0
593,3030001163815,新規,0,2024-12-10,2024-12-10,Ｍｉｘ　Ｉｎｎｏｖａｔｉｏｎ株式会社,,株式会社,埼玉県,さいたま市南区,辻３丁目２番２５号,,11,108,3360026,,,,,,,2024-12-10,1,,,,,ミックスイノベーション,0
594,3030001163848,新規,0,2024-12-10,2024-12-10,ちくわ株式会社,,株式会社,埼玉県,坂戸市,関間３丁目１２番６７－３号,,11,239,3500215,,,,,,,2024-12-10,1,,,,,チクワ,0
595,3030001163872,新規,0,2024-12-10,2024-12-10,株式会社ＹＬマネジメント,,株式会社,埼玉県,朝霞市,泉水３丁目１１番６号,,11,227,3510024,,,,,,,2024-12-10,1,,,,,ワイエルマネジメント,0
596,3030001163889,新規,0,2024-12-10,2024-12-10,株式会社Ｋｉｄｓ　Ｉｎｎｏｖａｔｉｏｎ,,株式会社,埼玉県,さいたま市南区,南浦和３丁目２６番２号,,11,108,3360017,,,,,,,2024-12-10,1,,,,,キッズイノベーション,0
599,3030003025641,新規,0,2024-12-10,2024-12-10,合同会社ｔｏｌｉｂｕｔｉｏｎ,,合同会社,埼玉県,川越市,脇田本町５番１２号,,11,201,3501123,,,,,,,2024-12-10,1,,,,,トリビューション,0
600,3030003025666,新規,0,2024-12-10,2024-12-10,合同会社ＴＡＫＫＹ,,合同会社,埼玉県,さいたま市緑区,原山３丁目１９番１６－５号,,11,109,3360931,,,,,,,2024-12-10,1,,,,,タキー,0
606,3040001136522,新規,0,2024-12-10,2024-12-10,株式会社ＴＡＫＥＲＵ,,株式会社,千葉県,市川市,鬼越１丁目２３番４号,,12,203,2720022,,,,,,,2024-12-10,1,,,,,タケル,0
619,3080101025183,新規,0,2024-12-10,2024-12-10,株式会社オリジナルコネクト,,株式会社,静岡県,富士市,田子２１１番地の３,,22,210,4160935,,,,,,,2024-12-10,1,,,,,オリジナルコネクト,0
621,3080405007695,新規,0,2024-12-10,2024-12-10,社会保険労務士法人はーとふるりんく,,その他の設立登記法人,静岡県,掛川市,大池２０５番地の１０,,22,213,4360043,,,,,,,2024-12-10,1,,,,,ハートフルリンク,0
624,3100001038101,新規,0,2024-12-10,2024-12-10,株式会社鞆の浦ホテルマネジメント,,株式会社,長野県,北佐久郡軽井沢町,大字長倉２１４８番地,,20,321,3890111,,,,,,,2024-12-10,1,,,,,トモノウラホテルマネジメント,0
628,3100005013265,新規,0,2024-12-10,2024-12-10,一般社団法人すざかランドバンク,,その他の設立登記法人,長野県,須坂市,北横町１２９５番地１シルキービル１階,,20,207,3820000,,,,,,,2024-12-10,1,,,,,スザカランドバンク,0
632,3110003005602,新規,0,2024-12-10,2024-12-10,合同会社ヨシダ,,合同会社,新潟県,上越市,中郷区八斗蒔５０,,15,222,9492306,,,,,,,2024-12-10,1,,,,,,0
635,3120001270750,新規,0,2024-12-10,2024-12-10,株式会社Ｆｒｉｅｎｄ　ｏｆ　Ｆｌｏｗｅｒ,,株式会社,大阪府,大阪市東住吉区,鷹合３丁目１５番３号,,27,121,5460014,,,,,,,2024-12-10,1,,,,,フレンドオブフラワー,0
636,3120001270800,新規,0,2024-12-10,2024-12-10,株式会社新笑人,,株式会社,大阪府,大阪市城東区,東中浜２丁目３－１０－６０１,,27,118,5360023,,,,,,,2024-12-10,1,,,,,シンショウニン,0
637,3120001270908,新規,0,2024-12-10,2024-12-10,広進株式会社,,株式会社,大阪府,大阪市平野区,平野市町１丁目１－１３申野オフィス１０１号室,,27,126,5470042,,,,,,,2024-12-10,1,,,,,コウシン,0
638,3120001270932,新規,0,2024-12-10,2024-12-10,ＰＵＲＥ　ＣＬＥＡＮ株式会社,,株式会社,大阪府,大阪市東住吉区,矢田４丁目９－１５－４０２,,27,121,5460023,,,,,,,2024-12-10,1,,,,,ピュアクリーン,0
639,3120001270965,新規,0,2024-12-10,2024-12-10,株式会社Ｕ＆ａｉホールディングス,,株式会社,大阪府,大阪市住之江区,西加賀屋３丁目５番１号,,27,125,5590016,,,,,,,2024-12-10,1,,,,,ユーアンドアイホールディングス,0
640,3120001271014,新規,0,2024-12-10,2024-12-10,ルミエッジ株式会社,,株式会社,大阪府,大阪市淀川区,三津屋北１丁目３６－１０－８３３,,27,123,5320032,,,,,,,2024-12-10,1,,,,,ルミエッジ,0
644,3120003028131,新規,0,2024-12-10,2024-12-10,Ｇｒａｎｄｉｒ合同会社,,合同会社,大阪府,寝屋川市,宇谷町５番２－８２５号,,27,215,5720856,,,,,,,2024-12-10,1,,,,,グランディール,0
646,3120101070729,新規,0,2024-12-10,2024-12-10,株式会社暁,,株式会社,大阪府,松原市,三宅中３丁目１０番１５号,,27,217,5800046,,,,,,,2024-12-10,1,,,,,アカツキ,0
649,3120901050137,新規,0,2024-12-10,2024-12-10,株式会社ゴリラフィールド,,株式会社,大阪府,豊能郡豊能町,牧下林８番地の８,,27,321,5630211,,,,,,,2024-12-10,1,,,,,ゴリラフィールド,0
650,3120901050153,新規,0,2024-12-10,2024-12-10,株式会社ブルーム,,株式会社,大阪府,茨木市,舟木町９番２６－６０１号,,27,211,5670828,,,,,,,2024-12-10,1,,,,,ブルーム,0
663,3140001136685,新規,0,2024-12-10,2024-12-10,株式会社ＩＮＦＲＡＫＵ,,株式会社,兵庫県,宝塚市,武庫川町６番２６－８０４号,,28,214,6650844,,,,,,,2024-12-10,1,,,,,インフラク,0
665,3140005027294,新規,0,2024-12-10,2024-12-10,一般社団法人ぱぶりっくはーもにー,,その他の設立登記法人,兵庫県,西宮市,段上町１丁目１１番２４号,,28,204,6638006,,,,,,,2024-12-10,1,,,,,パブリックハーモニー,0
666,3160003003353,新規,0,2024-12-10,2024-12-10,岡正開発合同会社,,合同会社,滋賀県,近江八幡市,中村町４０８番地２（２０２号）,,25,204,5230894,,,,,,,2024-12-10,1,,,,,オカショウカイハツ,0
673,3180001164468,新規,0,2024-12-10,2024-12-10,株式会社ＳＦＫ,,株式会社,愛知県,東海市,荒尾町向前田２５番地の４,,23,222,4760003,,,,,,,2024-12-10,1,,,,,エスエフケイ,0
674,3180001164484,新規,0,2024-12-10,2024-12-10,株式会社Ｐｉｎｋｙ,,株式会社,愛知県,名古屋市昭和区,北山町３丁目２２番地の２シャトレ北山５０２号,,23,107,4660006,,,,,,,2024-12-10,1,,,,,ピンキー,0
675,3180001164492,新規,0,2024-12-10,2024-12-10,株式会社ＭＩＰ,,株式会社,愛知県,名古屋市中村区,名駅３丁目４番１０号アルティメイト名駅１ｓｔ２階,,23,105,4500002,,,,,,,2024-12-10,1,,,,,エムアイピー,0
676,3180001164518,新規,0,2024-12-10,2024-12-10,安藤コンサルティング株式会社,,株式会社,愛知県,名古屋市中村区,竹橋町５番５号,,23,105,4530016,,,,,,,2024-12-10,1,,,,,アンドウコンサルティング,0
677,3180001164526,新規,0,2024-12-10,2024-12-10,株式会社ハータブル,,株式会社,愛知県,名古屋市千種区,丸山町１丁目４５番地,,23,101,4640843,,,,,,,2024-12-10,1,,,,,ハータブル,0
678,3180001164542,新規,0,2024-12-10,2024-12-10,株式会社Ｆｏｒｔｕｎｅ,,株式会社,愛知県,小牧市,堀の内３丁目１４番地,,23,219,4850046,,,,,,,2024-12-10,1,,,,,フォーチュン,0
692,3180301039295,新規,0,2024-12-10,2024-12-10,株式会社ルート,,株式会社,愛知県,豊田市,錦町２丁目１５番地１,,23,211,4710877,,,,,,,2024-12-10,1,,,,,ルート,0
695,3190001031865,新規,0,2024-12-10,2024-12-10,株式会社Ｓｅａｓ,,株式会社,三重県,北牟婁郡紀北町,長島２０５６番地１,,24,543,5193205,,,,,,,2024-12-10,1,,,,,シーズ,0
697,3190003004869,新規,0,2024-12-10,2024-12-10,ＭＹＶＥＴ合同会社,,合同会社,三重県,四日市市,日永１丁目１０番１４－２号,,24,202,5100885,,,,,,,2024-12-10,1,,,,,エムワイベット,0
710,3240001064232,新規,0,2024-12-10,2024-12-10,株式会社ＵＮＩＱＵＥ‐ＪＯＢ,,株式会社,広島県,広島市安佐南区,西原５丁目１３番１５号,,34,105,7310113,,,,,,,2024-12-10,1,,,,,ユニークジョブ,0
717,3270003001692,新規,0,2024-12-10,2024-12-10,合同会社わおん,,合同会社,鳥取県,鳥取市,末広温泉町７５５,,31,201,6800833,,,,,,,2024-12-10,1,,,,,ワオン,0
724,3290001108208,新規,0,2024-12-10,2024-12-10,株式会社ＥＬＰＩＳ　ＳＴＹＬＥ,,株式会社,福岡県,福岡市中央区,赤坂１丁目１５番２７号赤坂ハイツ２Ｄ号室,,40,133,8100042,,,,,,,2024-12-10,1,,,,,エルピススタイル,0
725,3290003016160,新規,0,2024-12-10,2024-12-10,合同会社アドウィズ,,合同会社,福岡県,福岡市東区,香椎照葉６丁目２番５２－９０５号,,40,131,8130017,,,,,,,2024-12-10,1,,,,,アドウィズ,0
730,3310001019360,新規,0,2024-12-10,2024-12-10,株式会社儀乃助,,株式会社,長崎県,佐世保市,下船越町１３４番地１,,42,202,8571232,,,,,,,2024-12-10,1,,,,,ギノスケ,0
731,3310003004906,新規,0,2024-12-10,2024-12-10,合同会社大耀,,合同会社,長崎県,南島原市,深江町丁１５３０番地１,,42,214,8591504,,,,,,,2024-12-10,1,,,,,タイヨウ,0
733,3320001020854,新規,0,2024-12-10,2024-12-10,株式会社アンシャンテ,,株式会社,大分県,別府市,青山町１０番１２号,,44,202,8740902,,,,,,,2024-12-10,1,,,,,アンシャンテ,0
739,3340003004688,新規,0,2024-12-10,2024-12-10,合同会社Ｆ’ｓｆａｒｍ,,合同会社,鹿児島県,志布志市,松山町泰野３７４４番地,,46,221,8997602,,,,,,,2024-12-10,1,,,,,エフズファーム,0
740,3360001034529,新規,0,2024-12-10,2024-12-10,株式会社マキデンタルラボ,,株式会社,沖縄県,宜野湾市,宇地泊１丁目１１番１号,,47,205,9012227,,,,,,,2024-12-10,1,,,,,マキデンタルラボ,0
741,3360005007134,新規,0,2024-12-10,2024-12-10,特定非営利活動法人未来きづなのたね,,その他の設立登記法人,沖縄県,中頭郡中城村,字南上原７３９番地４１街区９画地,,47,328,9012424,,,,,,,2024-12-10,1,,,,,ミライキヅナノタネ,0
751,3420001018938,新規,0,2024-12-10,2024-12-10,株式会社Ｓｐｈｅｒｅ,,株式会社,青森県,五所川原市,大字神山字鶉野４７番地２４,,02,205,0370611,,,,,,,2024-12-10,1,,,,,スフィア,0
755,3430001093220,新規,0,2024-12-10,2024-12-10,株式会社ＳＡＮＰＯＵ,,株式会社,北海道,札幌市厚別区,上野幌三条２丁目２０番２１号,,01,108,0040033,,,,,,,2024-12-10,1,,,,,サンポウ,0
758,3450003002565,新規,0,2024-12-10,2024-12-10,合同会社とかち岳,,合同会社,北海道,富良野市,弥生町３番１４４号,,01,229,0760018,,,,,,,2024-12-10,1,,,,,,0
759,3460303000846,新規,0,2024-12-10,2024-12-10,合同会社アキアッキー,,合同会社,北海道,網走郡美幌町,字福住４２番地の４,,01,543,0920024,,,,,,,2024-12-10,1,,,,,アキアッキー,0
768,3490001010913,新規,0,2024-12-10,2024-12-10,入交ゴルフサービス株式会社,,株式会社,高知県,高知市,仁井田４５６３番地１,,39,201,7810112,,,,,,,2024-12-10,1,,,,,イリマジリゴルフサービス,0
769,3500003003384,新規,0,2024-12-10,2024-12-10,合同会社廣瀬コーポレーション,,合同会社,愛媛県,松山市,三番町１丁目７番１－３０３号,,38,201,7900003,,,,,,,2024-12-10,1,,,,,ヒロセコーポレーション,0
777,4010001250457,新規,0,2024-12-10,2024-12-10,株式会社ミニミニＢｕｄｄｙ,,株式会社,東京都,千代田区,丸の内１丁目８番３号,,13,101,1000005,,,,,,,2024-12-10,1,,,,,ミニミニバディ,0
778,4010001250597,新規,0,2024-12-10,2024-12-10,Ｈｉｄｄｅｎ　ｂｌｏｏｍ株式会社,,株式会社,東京都,千代田区,神田須田町１丁目７番８号ＶＯＲＴ秋葉原ＩＶ２Ｆ,00137285,13,101,1010041,,,,,,,2024-12-10,1,,,,,ヘイデンブルーム,0
779,4010003045715,新規,0,2024-12-10,2024-12-10,合同会社Ｅｎｅ　Ｃｕｂｅ,,合同会社,東京都,千代田区,内神田２丁目７番４号三井ビル２階,,13,101,1010047,,,,,,,2024-12-10,1,,,,,エネキューブ,0
780,4010003045731,新規,0,2024-12-10,2024-12-10,合同会社ビートラス,,合同会社,東京都,千代田区,神田須田町１丁目７番地８ＶＯＲＴ秋葉原ＩＶ２Ｆ,00137291,13,101,1010041,,,,,,,2024-12-10,1,,,,,ビートラス,0
788,4010401186862,新規,0,2024-12-10,2024-12-10,株式会社及川商事,,株式会社,東京都,港区,浜松町２丁目２番１５号浜松町ダイヤビル２Ｆ,,13,103,1050013,,,,,,,2024-12-10,1,,,,,オイカワショウジ,0
790,4010403033988,新規,0,2024-12-10,2024-12-10,合同会社カラーズ,,合同会社,東京都,港区,北青山１丁目３番１号アールキューブ青山３階,,13,103,1070061,,,,,,,2024-12-10,1,,,,,カラーズ,0
792,4010603011265,新規,0,2024-12-10,2024-12-10,ショウ合同会社,,合同会社,東京都,墨田区,墨田１丁目１７番１１－６０５号,,13,107,1310031,,,,,,,2024-12-10,1,,,,,ショウ,0
811,4011401026637,新規,0,2024-12-10,2024-12-10,株式会社ＨＯＮＥＹ　ＢＥＥＳ,,株式会社,東京都,板橋区,仲宿４６番１１号,,13,119,1730005,,,,,,,2024-12-10,1,,,,,ハニービーズ,0
819,4013301053471,新規,0,2024-12-10,2024-12-10,ｐｄｉ株式会社,,株式会社,東京都,豊島区,東池袋２丁目６２番８号ビックオフィスプラザ,,13,116,1700013,,,,,,,2024-12-10,1,,,,,ピーディーアイ,0
828,4020001160498,新規,0,2024-12-10,2024-12-10,株式会社竹ハウス,,株式会社,神奈川県,川崎市幸区,南幸町３丁目１９番地４ＳＯＰＨＩＡ明治堂２０２,,14,132,2120016,,,,,,,2024-12-10,1,,,,,タケハウス,0
829,4020001160531,新規,0,2024-12-10,2024-12-10,長島興業株式会社,,株式会社,神奈川県,川崎市川崎区,渡田１丁目９番１３号アイリーヤード２０１,,14,131,2100837,,,,,,,2024-12-10,1,,,,,ナガシマコウギョウ,0
833,4020003027407,新規,0,2024-12-10,2024-12-10,合同会社シンビ,,合同会社,神奈川県,横浜市青葉区,あざみ野３丁目３３番地６４,,14,117,2250011,,,,,,,2024-12-10,1,,,,,シンビ,0
842,4021003015327,新規,0,2024-12-10,2024-12-10,ピュアリペ合同会社,,合同会社,神奈川県,相模原市緑区,橋本２丁目１８－１４ＤＲＡＧＯＮ橋本六番館３０５,,14,151,2520143,,,,,,,2024-12-10,1,,,,,ピュアリペ,0
848,4030001163855,新規,0,2024-12-10,2024-12-10,株式会社Ｗｅｌｌｆｌｏｒ,,株式会社,埼玉県,川口市,南鳩ヶ谷５丁目１１番２４号クレール南鳩ヶ谷１０２号,,11,203,3340013,,,,,,,2024-12-10,1,,,,,ウェルフロール,0
854,4030003025665,新規,0,2024-12-10,2024-12-10,合同会社サンエース,,合同会社,埼玉県,さいたま市大宮区,下町３丁目７－１Ｓ２２０７,,11,103,3300844,,,,,,,2024-12-10,1,,,,,サンエース,0
860,4040001136439,新規,0,2024-12-10,2024-12-10,株式会社ＹＴサポート,,株式会社,千葉県,船橋市,湊町３丁目１番６号,,12,204,2730011,,,,,,,2024-12-10,1,,,,,ワイティーサポート,0
861,4040001136488,新規,0,2024-12-10,2024-12-10,株式会社ＭＩＲＩＧＨＴ,,株式会社,千葉県,船橋市,咲が丘４丁目３０番３２号,,12,204,2740807,,,,,,,2024-12-10,1,,,,,ミライト,0
862,4040001136513,新規,0,2024-12-10,2024-12-10,株式会社エクスペクト,,株式会社,千葉県,松戸市,小金きよしケ丘３丁目４番地の２２メゾン北小金６０４,,12,207,2700013,,,,,,,2024-12-10,1,,,,,エクスペクト,0
865,4040003026357,新規,0,2024-12-10,2024-12-10,合同会社山口流体設計事務所,,合同会社,千葉県,流山市,大字鰭ケ崎１３２１番地の１クレスト南流山４０２,,12,220,2700161,,,,,,,2024-12-10,1,,,,,ヤマグチリュウタイセッケイジムショ,0
882,4080101025182,新規,0,2024-12-10,2024-12-10,アークサービス株式会社,,株式会社,静岡県,富士宮市,若の宮町９３１番地,,22,207,4180063,,,,,,,2024-12-10,1,,,,,アークサービス,0
887,4090001019044,新規,0,2024-12-10,2024-12-10,株式会社サルバトール,,株式会社,山梨県,都留市,金井２０７番地,,19,204,4020041,,,,,,,2024-12-10,1,,,,,,0
889,4100001038109,新規,0,2024-12-10,2024-12-10,株式会社ｓｈｒｅｗｄ　ｆｅｌｌｏｗ,,株式会社,長野県,下高井郡山ノ内町,大字平穏２９９２番地３,,20,561,3810401,,,,,,,2024-12-10,1,,,,,シュールドフェロー,0
890,4100001038117,新規,0,2024-12-10,2024-12-10,株式会社アールティーエス,,株式会社,長野県,下高井郡野沢温泉村,大字豊郷４４１０番地,,20,563,3892502,,,,,,,2024-12-10,1,,,,,アールティーエス,0
897,4120001270295,新規,0,2024-12-10,2024-12-10,ＭＥＤＩＢＡＮ　Ｂｉｏｔｅｃｈ株式会社,,株式会社,大阪府,大阪市淀川区,木川西１丁目６番２７号３階,,27,123,5320013,,,,,,,2024-12-10,1,,,,,メディバンバイオテック,0
898,4120001270766,新規,0,2024-12-10,2024-12-10,株式会社政楠,,株式会社,大阪府,大阪市中央区,南新町１丁目４番９－３０２号,,27,128,5400024,,,,,,,2024-12-10,1,,,,,セイナン,0
899,4120001270857,新規,0,2024-12-10,2024-12-10,積水ハウスサポートプラス株式会社,,株式会社,大阪府,大阪市北区,大淀中１丁目１番８８号,,27,127,5310076,,,,,,,2024-12-10,1,,,,,セキスイハウスサポートプラス,0
900,4120001270907,新規,0,2024-12-10,2024-12-10,株式会社縁和,,株式会社,大阪府,寝屋川市,太秦東が丘１３番２８号,,27,215,5720841,,,,,,,2024-12-10,1,,,,,エンワ,0
901,4120001270964,新規,0,2024-12-10,2024-12-10,Ｆｏｒｃｅ　Ｊａｐａｎ株式会社,,株式会社,大阪府,守口市,寺方本通２丁目１０番１４号,,27,209,5700048,,,,,,,2024-12-10,1,,,,,フォースジャパン,0
902,4120001270972,新規,0,2024-12-10,2024-12-10,諾亜不動産開発株式会社,,株式会社,大阪府,大阪市港区,市岡４丁目５番１８号,,27,107,5520012,,,,,,,2024-12-10,1,,,,,ノアフドウサンカイハツ,0
911,4122001038722,新規,0,2024-12-10,2024-12-10,双＿楽建材装飾株式会社,00137288,株式会社,大阪府,東大阪市,額田町１番８号,,27,227,5798021,,,,,,,2024-12-10,1,,,,,ソウキンラクケンザイソウショク,0
914,4130001078515,新規,0,2024-12-10,2024-12-10,嘉楽グリーンエナジー株式会社,,株式会社,京都府,京都市伏見区,葭島矢倉町４番７２,,26,109,6128224,,,,,,,2024-12-10,1,,,,,カラクグリーンエナジー,0
915,4130001078556,新規,0,2024-12-10,2024-12-10,Ｐａｎｔｅｒ　Ｓｔｕｄｉｏ株式会社,,株式会社,京都府,京都市中京区,蟷螂山町４６６番地ファヴィエ四条西洞院１００２号室,,26,104,6048225,,,,,,,2024-12-10,1,,,,,パンタースタジオ,0
916,4130001078564,新規,0,2024-12-10,2024-12-10,株式会社ファムスホールディングス,,株式会社,京都府,京都市下京区,醒ケ井通松原下る篠屋町７１番地,,26,106,6008488,,,,,,,2024-12-10,1,,,,,ファムスホールディングス,0
917,4130001078572,新規,0,2024-12-10,2024-12-10,株式会社イノリー,,株式会社,京都府,京都市下京区,仏光寺通烏丸東入上柳町３３１タカノハスクエア４Ｆ,,26,106,6008099,,,,,,,2024-12-10,1,,,,,イノリー,0
921,4130005017246,新規,0,2024-12-10,2024-12-10,一般社団法人ＴＵＮＡＧＵ,,その他の設立登記法人,京都府,舞鶴市,字引土２６３番地,,26,202,6240841,,,,,,,2024-12-10,1,,,,,ツナグ,0
926,4140001136684,新規,0,2024-12-10,2024-12-10,株式会社ｃｏｒａｌｌｏ,,株式会社,兵庫県,西宮市,苦楽園三番町３番７号,,28,204,6620081,,,,,,,2024-12-10,1,,,,,コラッロ,0
945,4180005020856,新規,0,2024-12-10,2024-12-10,ＭＡＣ行政書士法人,,その他の設立登記法人,愛知県,名古屋市中村区,名駅３丁目２８番１２号,,23,105,4500002,,,,,,,2024-12-10,1,,,,,マック,0
953,4180303006367,新規,0,2024-12-10,2024-12-10,合同会社ヘルスマネイジメントアドバイザリー,,合同会社,愛知県,豊橋市,曲尺手町７番地,,23,201,4400803,,,,,,,2024-12-10,1,,,,,ヘルスマネイジメントアドバイザリー,0
957,4200001043214,新規,0,2024-12-10,2024-12-10,株式会社ＧＬＡＦＡ,,株式会社,岐阜県,岐阜市,一日市場北町５番２２号リヴァシティ一日市場１０１号,,21,201,5010102,,,,,,,2024-12-10,1,,,,,グラファ,0
959,4220003003908,新規,0,2024-12-10,2024-12-10,建築設備エネルギーラボ合同会社,,合同会社,石川県,野々市市,押越２丁目１６５番地４,,17,212,9218803,,,,,,,2024-12-10,1,,,,,ケンチクセツビエネルギーラボ,0
969,4260003005000,新規,0,2024-12-10,2024-12-10,合同会社レンタルスペースかのう,,合同会社,岡山県,岡山市北区,大供２丁目５番２１号,,33,101,7000913,,,,,,,2024-12-10,1,,,,,レンタルスペースカノウ,0
974,4290001108248,新規,0,2024-12-10,2024-12-10,株式会社Ｓ＆Ｙ,,株式会社,福岡県,宗像市,稲元１丁目２－１５,,40,220,8113406,,,,,,,2024-12-10,1,,,,,エスアンドワイ,0
975,4290003016151,新規,0,2024-12-10,2024-12-10,合同会社林々,,合同会社,福岡県,糟屋郡須惠町,大字植木６１６番地９,,40,344,8112112,,,,,,,2024-12-10,1,,,,,リンリン,0
977,4320003004532,新規,0,2024-12-10,2024-12-10,合同会社Ｃｕｏｒｅ,,合同会社,大分県,大分市,明野東３丁目３番１号リビオ明野東ヴェルデンスＩ６０３,00137287,44,201,8700161,,,,,,,2024-12-10,1,,,,,クオーレ,0
986,4360001034528,新規,0,2024-12-10,2024-12-10,株式会社トライアングル,,株式会社,沖縄県,石垣市,字石垣２７０番地１０パールマンション３０３,,47,207,9070023,,,,,,,2024-12-10,1,,,,,トライアングル,0
1000,4430001093236,新規,0,2024-12-10,2024-12-10,株式会社光眞,,株式会社,北海道,札幌市白石区,川北三条１丁目１番１２号,,01,104,0030853,,,,,,,2024-12-10,1,,,,,コウシン,0
1002,4450003002564,新規,0,2024-12-10,2024-12-10,合同会社そらち川,,合同会社,北海道,富良野市,弥生町３番１４４号,,01,229,0760018,,,,,,,2024-12-10,1,,,,,ソラチガワ,0
1003,4460101007638,新規,0,2024-12-10,2024-12-10,株式会社大井アグリサポート,,株式会社,北海道,河東郡音更町,字東和西４線４７番地,,01,631,0800151,,,,,,,2024-12-10,1,,,,,オオイアグリサポート,0
1008,5010001250282,新規,0,2024-12-10,2024-12-10,株式会社エドコ,,株式会社,東京都,中央区,銀座１丁目１２番４号Ｎ＆ＥＢＬＤ．６Ｆ,,13,102,1040061,,,,,,,2024-12-10,1,,,,,エドコ,0
1009,5010001250679,新規,0,2024-12-10,2024-12-10,株式会社ＫＫレディ,,株式会社,東京都,文京区,湯島３丁目４２－３桂昇上野湯島ビル２Ｆ,,13,105,1130034,,,,,,,2024-12-10,1,,,,,ケーケーレディ,0
1012,5010003045714,新規,0,2024-12-10,2024-12-10,ＡＮＤ合同会社,,合同会社,東京都,中央区,銀座１丁目１２－４Ｎ＆ＥＢＬＤ．７階,,13,102,1040061,,,,,,,2024-12-10,1,,,,,アンド,0
1027,5010403033995,新規,0,2024-12-10,2024-12-10,合同会社ＤＯ　Ｃｈａｎｇｅ　Ａｇｅｎｔ,,合同会社,東京都,港区,白金台５丁目２２－１２前田道路白金ビル４Ｆ,,13,103,1080071,,,,,,,2024-12-10,1,,,,,ディーオーチェンジエージェント,0
1029,5010501053318,新規,0,2024-12-10,2024-12-10,ｗｅ　ｇｒｏｗｔｈ株式会社,,株式会社,東京都,台東区,浅草２丁目２９－１５－７０１,,13,106,1110032,,,,,,,2024-12-10,1,,,,,ウィーグロース,0
1030,5010501053334,新規,0,2024-12-10,2024-12-10,心心株式会社,,株式会社,東京都,台東区,駒形２丁目２番１０号,,13,106,1110043,,,,,,,2024-12-10,1,,,,,シンシン,0
1034,5010805003150,新規,0,2024-12-10,2024-12-10,一般社団法人ＹＵＴＡ　ＢＩＧＳＭＩＬＥ　ＰＲＯＪＥＣＴ,,その他の設立登記法人,東京都,大田区,大森西１丁目８番２２号,,13,111,1430015,,,,,,,2024-12-10,1,,,,,ユウタビッグスマイルプロジェクト,0
1037,5010901056366,新規,0,2024-12-10,2024-12-10,株式会社力,,株式会社,東京都,世田谷区,太子堂４丁目６番１８号ＡＫレジデンス三軒茶屋２０３,,13,112,1540004,,,,,,,2024-12-10,1,,,,,チカラ,0
1038,5010901056457,新規,0,2024-12-10,2024-12-10,エーエン興業株式会社,,株式会社,東京都,世田谷区,上馬５丁目３０番１１号,,13,112,1540011,,,,,,,2024-12-10,1,,,,,エーエンコウギョウ,0
1047,5011001166361,新規,0,2024-12-10,2024-12-10,株式会社ノア,,株式会社,東京都,渋谷区,神宮前１丁目１９番１４号サンキュービル１０１号室,,13,113,1500001,,,,,,,2024-12-10,1,,,,,ノア,0
1048,5011001166403,新規,0,2024-12-10,2024-12-10,株式会社ｃｈｉｃａｂｌｅ,,株式会社,東京都,渋谷区,渋谷２丁目１９‐１５宮益坂ビルディング６０９,,13,113,1500002,,,,,,,2024-12-10,1,,,,,シックアブル,0
1049,5011001166502,新規,0,2024-12-10,2024-12-10,株式会社ＷａｃＯｒｄｅｒ,,株式会社,東京都,渋谷区,道玄坂１丁目１０番８号渋谷道玄坂東急ビル２Ｆ―Ｃ,,13,113,1500043,,,,,,,2024-12-10,1,,,,,ワックオーダー,0
1057,5011105011257,新規,0,2024-12-10,2024-12-10,ＳＣ司法書士法人,,その他の設立登記法人,東京都,新宿区,西新宿６丁目８番１号住友不動産新宿オークタワー,,13,104,1600023,,,,,,,2024-12-10,1,,,,,エスシー,0
1065,5011701027887,新規,0,2024-12-10,2024-12-10,株式会社ＹＵＥ,,株式会社,東京都,江戸川区,船堀２丁目４番２７号,,13,123,1340091,,,,,,,2024-12-10,1,,,,,ユエ,0
1066,5011801045277,新規,0,2024-12-10,2024-12-10,こくり株式会社,,株式会社,東京都,足立区,関原１丁目６番３０号,,13,121,1230852,,,,,,,2024-12-10,1,,,,,コクリ,0
1070,5013301053479,新規,0,2024-12-10,2024-12-10,株式会社ＦＯＲＴＩＳＳＩＭＯ,,株式会社,東京都,豊島区,東池袋１丁目７番７号鳥駒総本店ビル１０Ｆ,,13,116,1700013,,,,,,,2024-12-10,1,,,,,フォルティシモ,0
1078,5020001160464,新規,0,2024-12-10,2024-12-10,株式会社横浜ファニーズ,,株式会社,神奈川県,横浜市中区,伊勢佐木町２丁目１０番地１,,14,104,2310045,,,,,,,2024-12-10,1,,,,,ヨコハマファニーズ,0
1081,5020003027397,新規,0,2024-12-10,2024-12-10,合同会社ＷＯＰ,,合同会社,神奈川県,川崎市川崎区,榎町７番３号,,14,131,2100002,,,,,,,2024-12-10,1,,,,,ダブリューオーピー,0
1082,5020003027406,新規,0,2024-12-10,2024-12-10,合同会社志元,,合同会社,神奈川県,横浜市中区,常磐町二丁目１５番地１,,14,104,2310000,,,,,,,2024-12-10,1,,,,,シゲン,0
1083,5020003027414,新規,0,2024-12-10,2024-12-10,合同会社ｇｏ　ｈｏｍｅ,,合同会社,神奈川県,川崎市中原区,小杉町１丁目５２０－６カサコルデロ５０２,,14,133,2110063,,,,,,,2024-12-10,1,,,,,ゴーホーム,0
1084,5021003015326,新規,0,2024-12-10,2024-12-10,マイケルス合同会社,,合同会社,神奈川県,横須賀市,馬堀町３丁目４番１０号,,14,201,2390802,,,,,,,2024-12-10,1,,,,,マイケルス,0
1097,5030003025664,新規,0,2024-12-10,2024-12-10,合同会社リブート,,合同会社,埼玉県,八潮市,大字二丁目３６９－２,,11,234,3400811,,,,,,,2024-12-10,1,,,,,リブート,0
1105,5040003026356,新規,0,2024-12-10,2024-12-10,ＡＯＲ合同会社,,合同会社,千葉県,八千代市,八千代台北１０丁目１５番１６号クラブオリエントＮＯ１４１－２０２２,,12,221,2760031,,,,,,,2024-12-10,1,,,,,エーオーアール,0
1116,5080001026651,新規,0,2024-12-10,2024-12-10,株式会社増井自動車,,株式会社,静岡県,藤枝市,下薮田１１３番地の１,,22,214,4260000,,,,,,,2024-12-10,1,,,,,マスイジドウシャ,0
1117,5080003003351,新規,0,2024-12-10,2024-12-10,合同会社ＡＦＭ,,合同会社,静岡県,静岡市葵区,城北２丁目９番２１号,,22,101,4200805,,,,,,,2024-12-10,1,,,,,エーエフエム,0
1123,5090001019027,新規,0,2024-12-10,2024-12-10,株式会社リブラ,,株式会社,山梨県,南都留郡富士河口湖町,河口１１６０－２,,19,430,4010304,,,,,,,2024-12-10,1,,,,,リブラ,0
1125,5100001038108,新規,0,2024-12-10,2024-12-10,株式会社７２ｐｌａｎ,,株式会社,長野県,北安曇郡白馬村,大字北城７１９４番地,,20,485,3999301,,,,,,,2024-12-10,1,,,,,セブンツープラン,0
1127,5110001038908,新規,0,2024-12-10,2024-12-10,株式会社ＬＩＮＫＴＨ,,株式会社,新潟県,新潟市西区,有明町３番２７号,,15,107,9502073,,,,,,,2024-12-10,1,,,,,リンクス,0
1138,5120001270823,新規,0,2024-12-10,2024-12-10,高達株式会社,,株式会社,大阪府,大阪市港区,磯路２丁目７番１０－２０２号,,27,107,5520003,,,,,,,2024-12-10,1,,,,,コウタツ,0
1139,5120001270939,新規,0,2024-12-10,2024-12-10,株式会社Ｕｏｎｌｙ,,株式会社,大阪府,大阪市浪速区,難波中３丁目９番３号,,27,111,5560011,,,,,,,2024-12-10,1,,,,,ウォンリー,0
1140,5120001271004,新規,0,2024-12-10,2024-12-10,株式会社ドリームファング,,株式会社,大阪府,大阪市北区,天満４丁目３番１２号,,27,127,5300043,,,,,,,2024-12-10,1,,,,,ドリームファング,0
1150,5120103006183,新規,0,2024-12-10,2024-12-10,合同会社ＴＡＫＡＲＡＹＡ,,合同会社,大阪府,堺市西区,菱木１丁１３７６番地１４,,27,144,5938315,,,,,,,2024-12-10,1,,,,,タカラヤ,0
1152,5122001038655,新規,0,2024-12-10,2024-12-10,株式会社神明精肉物産,,株式会社,大阪府,東大阪市,稲田上町１丁目２番１９号ラブリーひらやま３０１,,27,227,5770002,,,,,,,2024-12-10,1,,,,,シンメイセイニクブッサン,0
1156,5130001078571,新規,0,2024-12-10,2024-12-10,弘光測量事務所株式会社,,株式会社,京都府,京都市西京区,嵐山薬師下町３番地３嵐山ファミリオ２０７号,,26,111,6160026,,,,,,,2024-12-10,1,,,,,ヒロミツソクリョウジムショ,0
1158,5130003010061,新規,0,2024-12-10,2024-12-10,Ｃｒｅａｔｉｖｅ　Ｃｏｎｎｅｃｔ合同会社,,合同会社,京都府,京都市東山区,富永町１２１番地日宝花見小路館,,26,105,6050078,,,,,,,2024-12-10,1,,,,,クリエイティブコネクト,0
1162,5160001026387,新規,0,2024-12-10,2024-12-10,株式会社Ｇａｒａｇｅ８８,,株式会社,滋賀県,甲賀市,土山町大野字猪荒４８４８番地１,,25,209,5280235,,,,,,,2024-12-10,1,,,,,ガレージハチハチ,0
1171,5180001164425,新規,0,2024-12-10,2024-12-10,株式会社協永,,株式会社,愛知県,名古屋市南区,忠次１丁目４番２１号,,23,112,4570843,,,,,,,2024-12-10,1,,,,,キョウエイ,0
1172,5180001164508,新規,0,2024-12-10,2024-12-10,株式会社ＣＧＫ,,株式会社,愛知県,海部郡蟹江町,学戸４丁目２０７番地,,23,425,4970050,,,,,,,2024-12-10,1,,,,,シージーケイ,0
1177,5180003027720,新規,0,2024-12-10,2024-12-10,合同会社Ａｃｏｕｓｔｉｃ　Ｓｅｒｉｅｓ,,合同会社,愛知県,名古屋市熱田区,伝馬１丁目４－１４ＡＸＩＳ伝馬７０１,,23,109,4560034,,,,,,,2024-12-10,1,,,,,アコースティックシリーズ,0
1181,5180301039319,新規,0,2024-12-10,2024-12-10,株式会社まるなか,,株式会社,愛知県,安城市,桜町１２番２４号,,23,212,4460041,,,,,,,2024-12-10,1,,,,,マルナカ,0
1182,5180301039327,新規,0,2024-12-10,2024-12-10,帝興建設株式会社,,株式会社,愛知県,豊田市,美里３丁目２２－２,,23,211,4710805,,,,,,,2024-12-10,1,,,,,テイコウケンセツ,0
1189,5190001031863,新規,0,2024-12-10,2024-12-10,柏強産業株式会社,,株式会社,三重県,三重郡菰野町,大字大強原３８１４番地２,,24,341,5101222,,,,,,,2024-12-10,1,,,,,ハクキョウサンギョウ,0
1192,5200003006606,新規,0,2024-12-10,2024-12-10,合同会社名岐ビル管理,,合同会社,岐阜県,岐阜市,金町６丁目２１番地岐阜ステーションビル３０４,,21,201,5008842,,,,,,,2024-12-10,1,,,,,メイギビルカンリ,0
1201,5240001064230,新規,0,2024-12-10,2024-12-10,株式会社ＨＡＵＯＬＩ,,株式会社,広島県,広島市中区,東千田町１丁目１番５５－１２０６号ｈｉｔｏｔｏ広島ＴｈｅＴｏｗｅｒ,,34,101,7300053,,,,,,,2024-12-10,1,,,,,ハウオリ,0
1203,5240003006973,新規,0,2024-12-10,2024-12-10,合同会社狭山ひびき,,合同会社,広島県,安芸郡府中町,八幡３丁目１０番８号,,34,302,7350012,,,,,,,2024-12-10,1,,,,,サヤマヒビキ,0
1212,5290001108230,新規,0,2024-12-10,2024-12-10,株式会社ＥＮＪＯＩＮＴ,,株式会社,福岡県,福岡市博多区,博多駅南４丁目１２－３ルノアス博多５０３,,40,132,8120016,,,,,,,2024-12-10,1,,,,,エンジョイント,0
1213,5290001108247,新規,0,2024-12-10,2024-12-10,株式会社ＢＥＡＲ,,株式会社,福岡県,福岡市中央区,春吉３丁目１１番１９号パノラマスクエアビル３Ｆ,,40,133,8100003,,,,,,,2024-12-10,1,,,,,ベア,0
1214,5290001108255,新規,0,2024-12-10,2024-12-10,ＢＴＦ株式会社,,株式会社,福岡県,糟屋郡新宮町,夜臼３丁目１１番１２号,,40,345,8110110,,,,,,,2024-12-10,1,,,,,ビーティーエフ,0
1215,5290003016150,新規,0,2024-12-10,2024-12-10,山田東貝合同会社,,合同会社,福岡県,福岡市西区,愛宕浜１丁目２６番３号,,40,135,8190013,,,,,,,2024-12-10,1,,,,,ヤマダトウカイ,0
1216,5290003016159,新規,0,2024-12-10,2024-12-10,合同会社Ｔ．Ｏ．ｅｎ,,合同会社,福岡県,福岡市中央区,大名１丁目９番３０号福岡観光ビル６階,,40,133,8100041,,,,,,,2024-12-10,1,,,,,トーエン,0
1222,5310001019359,新規,0,2024-12-10,2024-12-10,株式会社Ｐｕｒｅ　ａｎｄ,,株式会社,長崎県,佐世保市,塩浜町１番２２号柴藤ビル２階,,42,202,8570876,,,,,,,2024-12-10,1,,,,,ピュアアンド,0
1227,5330003010677,新規,0,2024-12-10,2024-12-10,合同会社Ｇ‐ＬＩＮＫ,,合同会社,熊本県,熊本市中央区,国府３丁目１１－１２・２Ｆ,,43,101,8620949,,,,,,,2024-12-10,1,,,,,ジーリンク,0
1233,5360005007140,新規,0,2024-12-10,2024-12-10,一般社団法人宮古島千年プラットフォーム,,その他の設立登記法人,沖縄県,宮古島市,下地字上地４７２番３９,,47,214,9060304,,,,,,,2024-12-10,1,,,,,ミヤコジマセンネンプラットフォーム,0
1250,5460101007637,新規,0,2024-12-10,2024-12-10,株式会社ライトシップ,,株式会社,北海道,帯広市,西十一条南２５丁目３番地,,01,207,0800021,,,,,,,2024-12-10,1,,,,,,0
1265,6010001250455,新規,0,2024-12-10,2024-12-10,株式会社ＳＴＲＡＷＢＥＲＲＹＭＥＥＴ,,株式会社,東京都,中央区,銀座１丁目１２‐４Ｎ＆ＥＢＬＤ．７階,,13,102,1040061,,,,,,,2024-12-10,1,,,,,ストロベリーミート,0
1266,6010001250513,新規,0,2024-12-10,2024-12-10,ＤＤＩ　Ｃｏｍｍｕｎｉｔｙ株式会社,,株式会社,東京都,中央区,入船１丁目９番８号ピエノアーク入船,,13,102,1040042,,,,,,,2024-12-10,1,,,,,ディーディーコミューニティー,0
1267,6010001250587,新規,0,2024-12-10,2024-12-10,オクシリア株式会社,,株式会社,東京都,千代田区,丸の内１丁目１１－１パシフィックセンチュリープレイス８Ｆ,,13,101,1000005,,,,,,,2024-12-10,1,,,,,オクシリア,0
1280,6010401186877,新規,0,2024-12-10,2024-12-10,アペックス資本株式会社,,株式会社,東京都,港区,六本木７丁目１７番１２号六本木ビジネスアパートメンツ６０２号室,,13,103,1060032,,,,,,,2024-12-10,1,,,,,アペックスシホン,0
1285,6010501053300,新規,0,2024-12-10,2024-12-10,株式会社ＬＩＢＥＲＴＹ,,株式会社,東京都,台東区,東上野４丁目８番１号ＴＩＸＴＯＷＥＲＵＥＮＯ,,13,106,1100015,,,,,,,2024-12-10,1,,,,,リバティー,0
1290,6010603011255,新規,0,2024-12-10,2024-12-10,合同会社ＬＩＦＥ　ＬＩＧＨＴ,,合同会社,東京都,墨田区,錦糸２丁目９番１１号乾木工芸ビル２０５号,,13,107,1300013,,,,,,,2024-12-10,1,,,,,ライフライト,0
1291,6010701046954,新規,0,2024-12-10,2024-12-10,株式会社ＴＯＭＯＳ,,株式会社,東京都,品川区,荏原２丁目３番１６号,,13,109,1420063,,,,,,,2024-12-10,1,,,,,トモス,0
1292,6010703007491,新規,0,2024-12-10,2024-12-10,合同会社ＰＯＭＥ,,合同会社,東京都,品川区,西五反田２丁目３１－２－９０１,,13,109,1410031,,,,,,,2024-12-10,1,,,,,ピーオーエムイー,0
1294,6010801035626,新規,0,2024-12-10,2024-12-10,日本ビットコイン産業株式会社,,株式会社,東京都,大田区,大森東３丁目２７番１３号,,13,111,1430012,,,,,,,2024-12-10,1,,,,,ニホンビットコインサンギョウ,0
1317,6011501031460,新規,0,2024-12-10,2024-12-10,株式会社鈴蘭,,株式会社,東京都,北区,豊島４丁目１５番２５－８１６号,,13,117,1140003,,,,,,,2024-12-10,1,,,,,スズラン,0
1330,6013301053478,新規,0,2024-12-10,2024-12-10,株式会社ＧＯＳＳＩＰ,,株式会社,東京都,豊島区,東池袋１丁目７番７号鳥駒総本店ビル６Ｆ,,13,116,1700013,,,,,,,2024-12-10,1,,,,,ゴシップ,0
1345,6021001083968,新規,0,2024-12-10,2024-12-10,株式会社エイチシー,,株式会社,神奈川県,大和市,中央林間３丁目１３番４号リベラ林間１階,,14,213,2420007,,,,,,,2024-12-10,1,,,,,エイチシー,0
1354,6030001163795,新規,0,2024-12-10,2024-12-10,一緒上米株式会社,,株式会社,埼玉県,志木市,柏町６丁目１６番１１－４号,,11,228,3530007,,,,,,,2024-12-10,1,,,,,イッショジョウベイ,0
1359,6030003025663,新規,0,2024-12-10,2024-12-10,合同会社保育教育実践向上研究会,,合同会社,埼玉県,川越市,新富町１丁目１２－３ベルメゾン川越サザンスケープ１００１号,,11,201,3500043,,,,,,,2024-12-10,1,,,,,ホイクキョウイクジッセンコウジョウケンキュウカイ,0
1367,6040003026306,新規,0,2024-12-10,2024-12-10,合同会社言成,,合同会社,千葉県,鎌ケ谷市,新鎌ケ谷１丁目８－９ベルツリーＢ２０２,,12,224,2730107,,,,,,,2024-12-10,1,,,,,コトナリ,0
1368,6040003026355,新規,0,2024-12-10,2024-12-10,ＫＡＮＤＹ　ＩＮＴＥＲＮＡＴＩＯＮＡＬ合同会社,,合同会社,千葉県,千葉市若葉区,金親町９７４－６５－１,,12,104,2640001,,,,,,,2024-12-10,1,,,,,カンディインターナショナル,0
1369,6040005022591,新規,0,2024-12-10,2024-12-10,社会保険労務士法人アレセイア,,その他の設立登記法人,千葉県,習志野市,実籾１丁目２９番地４０号５０２,,12,216,2750002,,,,,,,2024-12-10,1,,,,,アレセイア,0
1385,6100001038098,新規,0,2024-12-10,2024-12-10,Ｆ＆Ｌ株式会社,,株式会社,長野県,上田市,御所２９１番地,,20,203,3860033,,,,,,,2024-12-10,1,,,,,エフアンドエル,0
1386,6100001038107,新規,0,2024-12-10,2024-12-10,ユウ建設株式会社,,株式会社,長野県,諏訪市,中州２４８番地１２,,20,206,3920000,,,,,,,2024-12-10,1,,,,,ユウケンセツ,0
1387,6100001038115,新規,0,2024-12-10,2024-12-10,ＫＯＲＵ株式会社,,株式会社,長野県,上伊那郡飯島町,飯島７４６番地１,,20,384,3993702,,,,,,,2024-12-10,1,,,,,コル,0
1397,6120001270839,新規,0,2024-12-10,2024-12-10,ＳｕｇｉＮａｖｉ株式会社,,株式会社,大阪府,寝屋川市,明徳１丁目１７‐３,,27,215,5720011,,,,,,,2024-12-10,1,,,,,スギナビ,0
1398,6120001270938,新規,0,2024-12-10,2024-12-10,Ｏｘｂｒｉｄｇｅ　Ａｓｉａ株式会社,,株式会社,大阪府,大阪市東住吉区,矢田４丁目９－１５－２０３,,27,121,5460023,,,,,,,2024-12-10,1,,,,,オックスブリッジアジア,0
1399,6120001270962,新規,0,2024-12-10,2024-12-10,Ｃｈｉｌｌ　ｗａｙ株式会社,,株式会社,大阪府,大阪市浪速区,日本橋東１丁目１－１１－３０２号室,,27,111,5560006,,,,,,,2024-12-10,1,,,,,チルウェイ,0
1400,6120001270987,新規,0,2024-12-10,2024-12-10,株式会社Ｍｕｕｖａ,,株式会社,大阪府,大阪市旭区,新森１丁目７番地クローバーハイツ森小路１号棟２０５号室,,27,117,5350022,,,,,,,2024-12-10,1,,,,,ムーヴァ,0
1401,6120001271052,新規,0,2024-12-10,2024-12-10,株式会社福久家,,株式会社,大阪府,大阪市生野区,林寺３丁目３番６号,,27,116,5440023,,,,,,,2024-12-10,1,,,,,フクヤ,0
1403,6120003028120,新規,0,2024-12-10,2024-12-10,合同会社タンデム,,合同会社,大阪府,大阪市東成区,中本１丁目１０番２６号２Ｆ,,27,115,5370022,,,,,,,2024-12-10,1,,,,,タンデム,0
1404,6120003028129,新規,0,2024-12-10,2024-12-10,合同会社すりーぴーす,,合同会社,大阪府,大阪市西成区,出城２丁目４番２６号,,27,122,5570024,,,,,,,2024-12-10,1,,,,,スリーピース,0
1405,6120003028137,新規,0,2024-12-10,2024-12-10,合同会社ＣＯＣＯ,,合同会社,大阪府,大阪市城東区,鴫野西５丁目２２－１２アマントリビエールシギノ３０４,,27,118,5360014,,,,,,,2024-12-10,1,,,,,ココ,0
1409,6120101070726,新規,0,2024-12-10,2024-12-10,株式会社Ｂｌｏｏｍｉｎｇ　Ｌｉｆｅ,,株式会社,大阪府,富田林市,桜ケ丘町１番４５号スカイビューコーポ３０２号室,,27,214,5840084,,,,,,,2024-12-10,1,,,,,ブルーミングライフ,0
1411,6120103006182,新規,0,2024-12-10,2024-12-10,水素足湯サロン・カシダ合同会社,,合同会社,大阪府,羽曳野市,はびきの３丁目１番９号,,27,222,5830872,,,,,,,2024-12-10,1,,,,,スイソアシユサロンカシダ,0
1413,6120901050134,新規,0,2024-12-10,2024-12-10,株式会社Ｓｎｏｗｄｒｏｐ,,株式会社,大阪府,豊中市,北桜塚４丁目８番１９－４０６号,00137281,27,203,5600022,,,,,,,2024-12-10,1,,,,,スノードロップ,0
1418,6130001078570,新規,0,2024-12-10,2024-12-10,浅居産業株式会社,,株式会社,京都府,京田辺市,田辺西垣内５８番地１,,26,211,6100331,,,,,,,2024-12-10,1,,,,,アサイサンギョウ,0
1440,6180001164473,新規,0,2024-12-10,2024-12-10,株式会社Ｂｒｉｇｈｔ‐ＥＮ,,株式会社,愛知県,名古屋市千種区,春岡２丁目１８番５号,,23,101,4640848,,,,,,,2024-12-10,1,,,,,ブライテン,0
1441,6180001164523,新規,0,2024-12-10,2024-12-10,株式会社ＳＮＣシステムインテグレーション,,株式会社,愛知県,名古屋市名東区,山の手３丁目１４２０番地,,23,115,4650011,,,,,,,2024-12-10,1,,,,,エスエヌシーシステムインテグレーション,0
1443,6180003027728,新規,0,2024-12-10,2024-12-10,合同会社ＡＲＭＡＬ,,合同会社,愛知県,名古屋市中村区,名駅４丁目２４－５第二森ビル４０１号室,,23,105,4500002,,,,,,,2024-12-10,1,,,,,アーマル,0
1446,6180301039318,新規,0,2024-12-10,2024-12-10,天利産業株式会社,,株式会社,愛知県,刈谷市,相生町１丁目２３番地藤和シティコープ刈谷駅前ＩＩ１１０２号,00137298,23,210,4480027,,,,,,,2024-12-10,1,,,,,テンリサンギョウ,0
1451,6190003004874,新規,0,2024-12-10,2024-12-10,合同会社勢和企画,,合同会社,三重県,津市,豊が丘２丁目４番３号,,24,201,5142222,,,,,,,2024-12-10,1,,,,,セイワキカク,0
1454,6200003006613,新規,0,2024-12-10,2024-12-10,ｎａｎａ　ｂａｓｅ．合同会社,,合同会社,岐阜県,関市,山田７番地,,21,205,5013944,,,,,,,2024-12-10,1,,,,,ナナベイス,0
1471,6290001108205,新規,0,2024-12-10,2024-12-10,株式会社花菱,,株式会社,福岡県,久留米市,北野町今山２４７番地１,,40,203,8301122,,,,,,,2024-12-10,1,,,,,ハナビシ,0
1472,6290001108221,新規,0,2024-12-10,2024-12-10,株式会社白川テック,,株式会社,福岡県,飯塚市,勢田１０６番地,,40,205,8201111,,,,,,,2024-12-10,1,,,,,シラカワテック,0
1473,6290001108262,新規,0,2024-12-10,2024-12-10,株式会社恭栄社,,株式会社,福岡県,太宰府市,青山１丁目１５番２号,,40,221,8180121,,,,,,,2024-12-10,1,,,,,キョウエイシャ,0
1477,6290003016141,新規,0,2024-12-10,2024-12-10,俊合同会社,,合同会社,福岡県,久留米市,安武町武島１７８５番地４,,40,203,8300071,,,,,,,2024-12-10,1,,,,,トシ,0
1481,6310001019358,新規,0,2024-12-10,2024-12-10,ＬＩＶＥＧＯＯＤ株式会社,,株式会社,長崎県,壱岐市,郷ノ浦町柳田触１２９番地２,,42,210,8115114,,,,,,,2024-12-10,1,,,,,リヴグッド,0
1507,6390003002321,新規,0,2024-12-10,2024-12-10,ＮＧＯＣ　ＹＥＮ合同会社,,合同会社,山形県,東根市,小林１丁目４番１号ＩＣパレス１０５号室,,06,211,9993710,,,,,,,2024-12-10,1,,,,,ゴックイエン,0
1530,7010001250421,新規,0,2024-12-10,2024-12-10,株式会社ＬＩＧＨＴＨＯＵＳＥ,,株式会社,東京都,文京区,白山４丁目１０－１４,,13,105,1120001,,,,,,,2024-12-10,1,,,,,ライトハウス,0
1531,7010001250504,新規,0,2024-12-10,2024-12-10,株式会社ＤＳＫホールディングス,,株式会社,東京都,文京区,小石川４丁目５番４号,,13,105,1120002,,,,,,,2024-12-10,1,,,,,ディーエスケーホールディングス,0
1532,7010001250512,新規,0,2024-12-10,2024-12-10,ＤＤＩ　ＡＩ　Ｔｅｃｈｎｏｌｏｇｙ株式会社,,株式会社,東京都,中央区,入船１丁目９番８号ピエノアーク入船,,13,102,1040042,,,,,,,2024-12-10,1,,,,,ディーディーエーアイテクノロジー,0
1533,7010001250520,新規,0,2024-12-10,2024-12-10,株式会社ともよし,,株式会社,東京都,千代田区,丸の内１丁目８番２号鉄鋼ビルディング４階,,13,101,1000005,,,,,,,2024-12-10,1,,,,,トモヨシ,0
1534,7010001250603,新規,0,2024-12-10,2024-12-10,株式会社ハルモニクス,,株式会社,東京都,中央区,銀座１丁目１２－４Ｎ＆ＥＢＬＤ．７階,,13,102,1040061,,,,,,,2024-12-10,1,,,,,ハルモニクス,0
1536,7010003045687,新規,0,2024-12-10,2024-12-10,Ｅｌｅｃｔｒｅｏｎ　Ｗｉｒｅｌｅｓｓ合同会社,,合同会社,東京都,千代田区,丸の内１丁目８番３号,,13,101,1000005,,,,,,,2024-12-10,1,,,,,エレクトリオンワイヤレス,0
1537,7010003045737,新規,0,2024-12-10,2024-12-10,アールエイト蓄電所合同会社,,合同会社,東京都,中央区,京橋２丁目２番１号,,13,102,1040031,,,,,,,2024-12-10,1,,,,,アールエイトチクデンショ,0
1538,7010003045778,新規,0,2024-12-10,2024-12-10,合同会社ラックアップ,,合同会社,東京都,千代田区,神田須田町１丁目７番８号ＶＯＲＴ秋葉原ＩＶ２Ｆ,,13,101,1010041,,,,,,,2024-12-10,1,,,,,ラックアップ,0
1552,7010501053332,新規,0,2024-12-10,2024-12-10,パスポルテ不動産株式会社,,株式会社,東京都,台東区,浅草１丁目１３番５号,,13,106,1110032,,,,,,,2024-12-10,1,,,,,パスポルテフドウサン,0
1563,7010901056455,新規,0,2024-12-10,2024-12-10,株式会社りえハウジング,,株式会社,東京都,世田谷区,三宿２丁目３５番８号,,13,112,1540005,,,,,,,2024-12-10,1,,,,,リエハウジング,0
1564,7010901056463,新規,0,2024-12-10,2024-12-10,株式会社ハードカバー,,株式会社,東京都,世田谷区,代沢５丁目１９番１２号ＷＡＶＩＡＳＨＩＭＯＫＩＴＡＺＡＷＡ２Ｆ,,13,112,1550032,,,,,,,2024-12-10,1,,,,,ハードカバー,0
1587,7011501031344,新規,0,2024-12-10,2024-12-10,翔世株式会社,,株式会社,東京都,荒川区,東尾久２丁目２番９号三祥ビル２５４号,,13,118,1160012,,,,,,,2024-12-10,1,,,,,ショウセ,0
1588,7011501031468,新規,0,2024-12-10,2024-12-10,株式会社ＪＭＫ,,株式会社,東京都,北区,浮間１丁目１番１８号ダイアパレス北赤羽駅前２０１号,,13,117,1150051,,,,,,,2024-12-10,1,,,,,,0
1596,7012403006871,新規,0,2024-12-10,2024-12-10,モーメンタムドライブ合同会社,,合同会社,東京都,武蔵野市,桜堤２丁目８番８－Ｃ８０６号パークシティ武蔵野桜堤,,13,203,1800021,,,,,,,2024-12-10,1,,,,,モーメンタムドライブ,0
1597,7013301053477,新規,0,2024-12-10,2024-12-10,株式会社ＰＩＡＮＩＳＳＩＭＯ,,株式会社,東京都,豊島区,東池袋１丁目３８番４号カシワビル２Ｆ,,13,116,1700013,,,,,,,2024-12-10,1,,,,,ピアニッシモ,0
1607,7020001160487,新規,0,2024-12-10,2024-12-10,株式会社ＰＲＯＬＯＧＵＥ,,株式会社,神奈川県,横浜市中区,山下町２８番地２ライオンズプラザ山下公園２１３号室,,14,104,2310023,,,,,,,2024-12-10,1,,,,,プロローグ,0
1608,7020003027395,新規,0,2024-12-10,2024-12-10,合同会社ＥＶＥＲＧＲＥＥＮ,,合同会社,神奈川県,川崎市中原区,上小田中７丁目１４番１号,,14,133,2110053,,,,,,,2024-12-10,1,,,,,エバーグリーン,0
1609,7020003027412,新規,0,2024-12-10,2024-12-10,Ｒ＆Ｎ合同会社,,合同会社,神奈川県,川崎市麻生区,上麻生３丁目８番２号,,14,137,2150021,,,,,,,2024-12-10,1,,,,,アールアンドエヌ,0
1629,7040001136436,新規,0,2024-12-10,2024-12-10,株式会社Ｄｒｏｐ　ｂｙ　Ｌｉｆｅ,,株式会社,千葉県,流山市,おおたかの森北２丁目５番地の６ハーミングテラスおおたかの森１０３,,12,220,2700119,,,,,,,2024-12-10,1,,,,,ドロップバイライフ,0
1630,7040001136519,新規,0,2024-12-10,2024-12-10,株式会社Ｈａｋｕ,,株式会社,千葉県,流山市,木１丁目２番地の５,,12,220,2700162,,,,,,,2024-12-10,1,,,,,ハク,0
1632,7040003026354,新規,0,2024-12-10,2024-12-10,ＯＭＡＲ　ＩＮＴＥＲＮＡＴＩＯＮＡＬ合同会社,,合同会社,千葉県,君津市,久保１丁目１２番３号高橋店舗Ａ号室,00137286,12,225,2991152,,,,,,,2024-12-10,1,,,,,オマールインターナショナル,0
1643,7080403005160,新規,0,2024-12-10,2024-12-10,Ｅｔｅｒｎａｌ合同会社,,合同会社,静岡県,浜松市中央区,幸１丁目２番２８号パルジュ幸２０１,,22,138,4338123,,,,,,,2024-12-10,1,,,,,エターナル,0
1647,7100001038106,新規,0,2024-12-10,2024-12-10,株式会社アンダーフラット,,株式会社,長野県,駒ヶ根市,赤穂９３３４－３,,20,210,3994117,,,,,,,2024-12-10,1,,,,,アンダーフラット,0
1648,7100001038114,新規,0,2024-12-10,2024-12-10,株式会社中屋りけい,,株式会社,長野県,長野市,戸隠２９２４番地,,20,201,3814101,,,,,,,2024-12-10,1,,,,,ナカヤリケイ,0
1653,7110003005607,新規,0,2024-12-10,2024-12-10,ｔｒｅｓ合同会社,,合同会社,新潟県,新潟市北区,白新町３丁目２番３号,,15,101,9503325,,,,,,,2024-12-10,1,,,,,トレス,0
1659,7120001270846,新規,0,2024-12-10,2024-12-10,株式会社フルタニ,,株式会社,大阪府,大阪市淀川区,三津屋北２丁目１４番２４－１００５号,,27,123,5320032,,,,,,,2024-12-10,1,,,,,フルタニ,0
1660,7120001270904,新規,0,2024-12-10,2024-12-10,株式会社Ｇｒａｎｔ　ｇｒｏｕｐ　Ｈｏｌｄｉｎｇｓ,,株式会社,大阪府,大阪市中央区,博労町１丁目９－８堺筋ＭＳビル８Ｆ,,27,128,5410059,,,,,,,2024-12-10,1,,,,,グラントグループホールディングス,0
1661,7120001270961,新規,0,2024-12-10,2024-12-10,株式会社はなぶさ,,株式会社,大阪府,大阪市西成区,南津守６丁目１番２７号９号棟,,27,122,5570063,,,,,,,2024-12-10,1,,,,,ハナブサ,0
1664,7120103006181,新規,0,2024-12-10,2024-12-10,合同会社すなふらーれん,,合同会社,大阪府,堺市南区,庭代台１－７－６,,27,145,5900100,,,,,,,2024-12-10,1,,,,,スナフラーレン,0
1666,7120901050141,新規,0,2024-12-10,2024-12-10,井上建設株式会社,,株式会社,大阪府,箕面市,西小路５丁目５番５号ＭＩＲＵＳ箕面５０１号,,27,220,5620003,,,,,,,2024-12-10,1,,,,,イノウエケンセツ,0
1667,7122001038728,新規,0,2024-12-10,2024-12-10,株式会社在宅会ヘルスケア関西,,株式会社,大阪府,東大阪市,荒川１丁目１４－２１,,27,227,5770843,,,,,,,2024-12-10,1,,,,,ザイタクカイヘルスケアカンサイ,0
1691,7180001164415,新規,0,2024-12-10,2024-12-10,株式会社Ｕｍａｎｉａｃ,,株式会社,愛知県,名古屋市天白区,植田南２丁目３０４番地,,23,116,4680053,,,,,,,2024-12-10,1,,,,,ユーマニアック,0
1693,7180005020853,新規,0,2024-12-10,2024-12-10,モデラトゥス税理士法人,,その他の設立登記法人,愛知県,名古屋市西区,那古野１丁目１９－４,,23,104,4510042,,,,,,,2024-12-10,1,,,,,モデラトゥス,0
1695,7180301039317,新規,0,2024-12-10,2024-12-10,株式会社本庄建築事務所,,株式会社,愛知県,碧南市,若松町３丁目２０８番地１,,23,209,4470836,,,,,,,2024-12-10,1,,,,,ホンジョウケンチクジムショ,0
1712,7260003004998,新規,0,2024-12-10,2024-12-10,合同会社ＥＮＮＥＴ,,合同会社,岡山県,都窪郡早島町,前潟５２０番地１－８０１,,33,423,7010303,,,,,,,2024-12-10,1,,,,,エネット,0
1715,7290001108195,新規,0,2024-12-10,2024-12-10,株式会社ＣＯＮＶ,,株式会社,福岡県,福岡市中央区,平尾２丁目１５－１,,40,133,8100014,,,,,,,2024-12-10,1,,,,,コンブ,0
1716,7290001108245,新規,0,2024-12-10,2024-12-10,ＫＮＯＴ株式会社,,株式会社,福岡県,久留米市,西町１４８６番地１,,40,203,8300038,,,,,,,2024-12-10,1,,,,,ノット,0
1720,7290003016157,新規,0,2024-12-10,2024-12-10,合同会社Ｗレインボー,,合同会社,福岡県,久留米市,西町７４１番地グリーンキャッスル１０２号,,40,203,8300038,,,,,,,2024-12-10,1,,,,,ダブルレインボー,0
1724,7290803004914,新規,0,2024-12-10,2024-12-10,合同会社サイン,,合同会社,福岡県,行橋市,門樋町３番１１－４０１号,,40,213,8240006,,,,,,,2024-12-10,1,,,,,サイン,0
1730,7310001019357,新規,0,2024-12-10,2024-12-10,株式会社アドバンストコンセプトテクノロジー,,株式会社,長崎県,長崎市,鳴見台２丁目１番１－３０６号,,42,201,8512215,,,,,,,2024-12-10,1,,,,,アドバンストコンセンプトテクノロジー,0
1736,7340001026986,新規,0,2024-12-10,2024-12-10,株式会社ＭＯＲＥＴＺ,,株式会社,鹿児島県,曽於市,大隅町鳴神町１３０番地,,46,217,8998104,,,,,,,2024-12-10,1,,,,,モリッツ,0
1744,7360003014509,新規,0,2024-12-10,2024-12-10,Ｉｎｔｅｒｎａｔｉｏｎａｌ　Ｓｐｒｏｕｔｓ　Ａｃａｄｅｍｙ合同会社,,合同会社,沖縄県,うるま市,勝連南風原１７３５番地１,,47,213,9042311,,,,,,,2024-12-10,1,,,,,インターナショナルスプラウツアカデミー,0
1751,7430003017058,新規,0,2024-12-10,2024-12-10,合同会社Ｙａｒｍ,,合同会社,北海道,札幌市東区,北二十七条東２１丁目１番７号,,01,103,0650027,,,,,,,2024-12-10,1,,,,,ヤーム,0
1756,7470001020489,新規,0,2024-12-10,2024-12-10,株式会社九天工業,,株式会社,香川県,丸亀市,今津町７４９－３,,37,202,7630051,,,,,,,2024-12-10,1,,,,,,0
1765,8010001250478,新規,0,2024-12-10,2024-12-10,株式会社ＫＹＯＧ,,株式会社,東京都,千代田区,神田多町２丁目２－２２,,13,101,1010046,,,,,,,2024-12-10,1,,,,,キョウグ,0
1766,8010001250585,新規,0,2024-12-10,2024-12-10,株式会社室町インベストメント,,株式会社,東京都,中央区,日本橋３丁目６番２号,,13,102,1030027,,,,,,,2024-12-10,1,,,,,ムロマチインベストメント,0
1767,8010001250668,新規,0,2024-12-10,2024-12-10,株式会社ＪＭＺ,,株式会社,東京都,中央区,銀座４丁目１４番４号,,13,102,1040061,,,,,,,2024-12-10,1,,,,,ジェイエムズィー,0
1771,8010003045703,新規,0,2024-12-10,2024-12-10,Ｓ＆Ｌ　Ｃｒｅ８ｉｖｅ合同会社,,合同会社,東京都,中央区,入船３丁目７番７号ウィンド入船ビル３階,,13,102,1040042,,,,,,,2024-12-10,1,,,,,エスアンドエルクリエイティブ,0
1772,8010003045728,新規,0,2024-12-10,2024-12-10,合同会社ゆう紀,,合同会社,東京都,文京区,湯島３丁目４５番１０号湯島ジェストビル１Ｆ,,13,105,1130034,,,,,,,2024-12-10,1,,,,,ユウキ,0
1773,8010003045736,新規,0,2024-12-10,2024-12-10,アールセブン蓄電所合同会社,,合同会社,東京都,中央区,京橋２丁目２番１号,,13,102,1040031,,,,,,,2024-12-10,1,,,,,アールセブンチクデンショ,0
1774,8010003045752,新規,0,2024-12-10,2024-12-10,Ｔｒａｎｓｆｏｒｍａｔｉｏｎスクール合同会社,,合同会社,東京都,中央区,銀座１丁目２２番１１号銀座大竹ビジデンス２階,,13,102,1040061,,,,,,,2024-12-10,1,,,,,トランスフォーメーションスクール,0
1776,8010005039249,新規,0,2024-12-10,2024-12-10,税理士法人銀座中央税経,,その他の設立登記法人,東京都,中央区,銀座２丁目３番１９号銀座深田ビル４階,,13,102,1040061,,,,,,,2024-12-10,1,,,,,ギンザチュウオウゼイケイ,0
1785,8010401186925,新規,0,2024-12-10,2024-12-10,ＲＯＹ株式会社,,株式会社,東京都,港区,浜松町１丁目３０番５－１４０１号,,13,103,1050013,,,,,,,2024-12-10,1,,,,,ロイ,0
1786,8010401186982,新規,0,2024-12-10,2024-12-10,株式会社フォーキャストビジネス,,株式会社,東京都,港区,高輪２丁目１３番１号,,13,103,1080074,,,,,,,2024-12-10,1,,,,,,0
1787,8010405023843,新規,0,2024-12-10,2024-12-10,一般社団法人ＨＤＧ４２,,その他の設立登記法人,東京都,港区,虎ノ門３丁目２２番１０－２０１号,,13,103,1050001,,,,,,,2024-12-10,1,,,,,エイチディージーフォーツー,0
1791,8010603011245,新規,0,2024-12-10,2024-12-10,合同会社Ｒｏａｄ　Ｓｏｌｕｔｉｏｎ,,合同会社,東京都,江東区,塩浜２丁目１０－３－２０６,,13,108,1350043,,,,,,,2024-12-10,1,,,,,,0
1798,8010901056446,新規,0,2024-12-10,2024-12-10,ＡＩＰＯＮ株式会社,,株式会社,東京都,世田谷区,代田３丁目４－１０,,13,112,1550033,,,,,,,2024-12-10,1,,,,,アイポン,0
1812,8011003020605,新規,0,2024-12-10,2024-12-10,合同会社ＳｔａｒＬｉｔｔｌｅＬｕｎａ,,合同会社,東京都,渋谷区,道玄坂１丁目１０番８号渋谷道玄坂東急ビル２Ｆ―Ｃ,,13,113,1500043,,,,,,,2024-12-10,1,,,,,スターリトルルナ,0
1820,8011501031426,新規,0,2024-12-10,2024-12-10,株式会社ＰｒｏｐＨｕｂ,,株式会社,東京都,北区,赤羽北２丁目３３－８－１０４号,,13,117,1150052,,,,,,,2024-12-10,1,,,,,プロップハブ,0
1821,8011501031467,新規,0,2024-12-10,2024-12-10,美創研ホールディングス株式会社,,株式会社,東京都,荒川区,南千住４丁目７番３号ロイヤルパークスタワー南千住１７０６,,13,118,1160003,,,,,,,2024-12-10,1,,,,,ビソウケンホールディングス,0
1824,8012303002078,新規,0,2024-12-10,2024-12-10,ＴＲＣコンサルティング合同会社,,合同会社,東京都,町田市,金井５丁目１０番５号,,13,209,1950072,,,,,,,2024-12-10,1,,,,,ティーアールシーコンサルティング,0
1831,8012803003567,新規,0,2024-12-10,2024-12-10,合同会社ＩＴＳＵＭＯ,,合同会社,東京都,立川市,錦町５丁目１６番３０号,,13,202,1900022,,,,,,,2024-12-10,1,,,,,イツモ,0
1834,8013301053476,新規,0,2024-12-10,2024-12-10,株式会社ロングテールインターナショナル,,株式会社,東京都,豊島区,高松２丁目２８－１－１０２,,13,116,1710042,,,,,,,2024-12-10,1,,,,,ロングテールインターナショナル,0
1835,8013303007422,新規,0,2024-12-10,2024-12-10,バニラレイク合同会社,,合同会社,東京都,豊島区,南大塚１丁目６０－２０天翔大塚駅前ビル５階Ｓ５０６号室,,13,116,1700005,,,,,,,2024-12-10,1,,,,,バニラレイク,0
1845,8020003027436,新規,0,2024-12-10,2024-12-10,合同会社ファーストコールカンパニー,,合同会社,神奈川県,横浜市旭区,二俣川１丁目１２－４アルエットパレ１０１号,,14,112,2410821,,,,,,,2024-12-10,1,,,,,ファーストコールカンパニー,0
1847,8021001083909,新規,0,2024-12-10,2024-12-10,株式会社小山工務店,,株式会社,神奈川県,相模原市南区,東大沼１丁目２０番３６号,,14,153,2520333,,,,,,,2024-12-10,1,,,,,コヤマコウムテン,0
1854,8040001136385,新規,0,2024-12-10,2024-12-10,株式会社ボナンザ牧場,,株式会社,千葉県,富里市,久能１８２番地２５,,12,233,2860203,,,,,,,2024-12-10,1,,,,,ボナンザボクジョウ,0
1857,8040003026353,新規,0,2024-12-10,2024-12-10,合同会社ナインピース,,合同会社,千葉県,船橋市,本町２丁目１５番８－１００１号,,12,204,2730005,,,,,,,2024-12-10,1,,,,,ナインピース,0
1859,8060001037689,新規,0,2024-12-10,2024-12-10,Ｃｉｔｙ　Ｍｏｔｏｒｓ株式会社,,株式会社,栃木県,小山市,大字松沼字房合９２０番地３,,09,208,3230007,,,,,,,2024-12-10,1,,,,,シティモーターズ,0
1860,8060003005355,新規,0,2024-12-10,2024-12-10,合同会社ワークサポート,,合同会社,栃木県,足利市,山下町２４５１番地９シミズアパート３,,09,202,3260846,,,,,,,2024-12-10,1,,,,,ワークサポート,0
1869,8090001019040,新規,0,2024-12-10,2024-12-10,株式会社ＨＩＴ,,株式会社,山梨県,甲府市,上今井町８８１－１０３,,19,201,4000845,,,,,,,2024-12-10,1,,,,,ヒット,0
1872,8100003007909,新規,0,2024-12-10,2024-12-10,合同会社丸詠興業,,合同会社,長野県,岡谷市,川岸上３丁目１１番４４号ハイツ鶴峰３号,,20,204,3940048,,,,,,,2024-12-10,1,,,,,マルエイコウギョウ,0
1875,8110001038905,新規,0,2024-12-10,2024-12-10,長島工事株式会社,,株式会社,新潟県,新潟市東区,逢谷内２丁目７番１１号１２,,15,102,9500814,,,,,,,2024-12-10,1,,,,,ナガシマコウジ,0
1877,8110003005606,新規,0,2024-12-10,2024-12-10,合同会社冨塚食堂,,合同会社,新潟県,上越市,五智１丁目１３番１６号,,15,222,9420081,,,,,,,2024-12-10,1,,,,,トミヅカショクドウ,0
1888,8120001270911,新規,0,2024-12-10,2024-12-10,東京大誠テクノ株式会社,,株式会社,大阪府,大阪市中央区,安堂寺町１丁目４番２２号,,27,128,5420061,,,,,,,2024-12-10,1,,,,,トウキョウタイセイテクノ,0
1889,8120001270944,新規,0,2024-12-10,2024-12-10,株式会社ＲＯＮＧＨＵＩ,,株式会社,大阪府,大阪市中央区,南本町２丁目４番６号インターワンプレイス５階,,27,128,5410054,,,,,,,2024-12-10,1,,,,,ロンフイ,0
1898,8120103006180,新規,0,2024-12-10,2024-12-10,ＫＥＮ　ＴＲＡＮ合同会社,,合同会社,大阪府,貝塚市,麻生中７５２番地６－２０３号室,,27,208,5970081,,,,,,,2024-12-10,1,,,,,ケンチャン,0
1902,8120901050140,新規,0,2024-12-10,2024-12-10,株式会社ＨＡＬ,,株式会社,大阪府,豊中市,北条町４丁目１０番１－９０８号,,27,203,5610812,,,,,,,2024-12-10,1,,,,,ハル,0
1916,8140001136656,新規,0,2024-12-10,2024-12-10,株式会社ＨＯＰＥ,,株式会社,兵庫県,神戸市中央区,三宮町１丁目４－８,,28,110,6500021,,,,,,,2024-12-10,1,,,,,ホープ,0
1922,8150003003440,新規,0,2024-12-10,2024-12-10,合同会社Ｎｅｅｄ,,合同会社,奈良県,大和郡山市,北郡山町１６８番地３,,29,203,6391160,,,,,,,2024-12-10,1,,,,,ニード,0
1924,8160001026401,新規,0,2024-12-10,2024-12-10,株式会社メディカルサポート縁結,,株式会社,滋賀県,長浜市,祇園町７０３番地９,00137290,25,203,5260061,,,,,,,2024-12-10,1,,,,,メディカルサポートエン,0
1936,8180001164050,新規,0,2024-12-10,2024-12-10,ＥｍｅｒｇｅＴｅｃｈ株式会社,,株式会社,愛知県,名古屋市中川区,荒江町３５番５号１階南,,23,110,4540032,,,,,,,2024-12-10,1,,,,,エマージテック,0
1937,8180001164356,新規,0,2024-12-10,2024-12-10,ＮＪＳ株式会社,,株式会社,愛知県,小牧市,大字入鹿出新田１１８７番地８,,23,219,4850084,,,,,,,2024-12-10,1,,,,,エヌジェーエス,0
1951,8190003004872,新規,0,2024-12-10,2024-12-10,ＫＹｓｅｒｖｉｃｅ合同会社,,合同会社,三重県,四日市市,尾平町３７６８番地１１８,,24,202,5120921,,,,,,,2024-12-10,1,,,,,ケイワイサービス,0
1955,8210001019993,新規,0,2024-12-10,2024-12-10,株式会社ＦＵＮＡＩ　ＳＴＵＤＩＯ,,株式会社,福井県,敦賀市,萩野町７２６,,18,202,9140142,,,,,,,2024-12-10,1,,,,,フナイスタジオ,0
1959,8260001039707,新規,0,2024-12-10,2024-12-10,株式会社海壱,,株式会社,岡山県,倉敷市,玉島長尾２３５４,,33,202,7100251,,,,,,,2024-12-10,1,,,,,ウミイチ,0
1960,8270001009097,新規,0,2024-12-10,2024-12-10,株式会社ＣＲＥＡＳ,,株式会社,鳥取県,鳥取市,賀露町南４丁目９番１３号,,31,201,6800909,,,,,,,2024-12-10,1,,,,,クレアス,0
1961,8280003001902,新規,0,2024-12-10,2024-12-10,福星合同会社,,合同会社,島根県,出雲市,姫原３丁目４－２姫原テナント,,32,203,6930068,,,,,,,2024-12-10,1,,,,,フクホシ,0
1966,8290001108203,新規,0,2024-12-10,2024-12-10,株式会社Ｔｉｇｅｒ　Ｂｅａｒ,,株式会社,福岡県,久留米市,東町３０番地１５,,40,203,8300032,,,,,,,2024-12-10,1,,,,,タイガーベア,0
1981,8320002005866,新規,0,2024-12-10,2024-12-10,有限会社フジカメラ,,有限会社,大分県,大分市,中春日町７番２号,,44,201,8700039,,,,,,,2024-12-10,1,,,,,,0
1988,8340001026977,新規,0,2024-12-10,2024-12-10,株式会社ＫＬＮ,,株式会社,鹿児島県,鹿児島市,西田２丁目２０番８号,,46,201,8900046,,,,,,,2024-12-10,1,,,,,ケーエルエヌ,0
1992,8350003004798,新規,0,2024-12-10,2024-12-10,合同会社Ｐｏｌｙｇｏｎ,,合同会社,宮崎県,日南市,飫肥２丁目１１番２５号,,45,204,8892535,,,,,,,2024-12-10,1,,,,,ポリゴン,0
1995,8360001034499,新規,0,2024-12-10,2024-12-10,ＶＩＳＴＡ株式会社,,株式会社,沖縄県,豊見城市,字豊崎１番地４７６－Ａ,,47,212,9010225,,,,,,,2024-12-10,1,,,,,ビスタ,0
2025,8700150128199,新規,0,2024-12-10,2024-12-10,瓦納（東莞）商貿有限公司,,外国会社等,,,,,,,,中国広東省東莞市南城街道石鼓宝石路１８号３棟３２９８室,,,,,,2024-12-10,1,,,,,ガナトウカンショウボウユウゲンコウシ,0
2030,9010001250469,新規,0,2024-12-10,2024-12-10,株式会社目利き腕利き,,株式会社,東京都,中央区,日本橋堀留町１丁目３番２１号,,13,102,1030012,,,,,,,2024-12-10,1,,,,,メキキウデキキ,0
2031,9010001250510,新規,0,2024-12-10,2024-12-10,株式会社Ｔ．Ｏ．Ｐ,,株式会社,東京都,中央区,日本橋室町１丁目１１番１２号　日本橋水野ビル７階,,13,102,1030022,,,,,,,2024-12-10,1,,,,,ティーオーピー,0
2032,9010001250543,新規,0,2024-12-10,2024-12-10,株式会社Ｌｕｓｈｉｃ　Ｒ,,株式会社,東京都,中央区,晴海５丁目５番３－３１４号,,13,102,1040053,,,,,,,2024-12-10,1,,,,,ルシックアール,0
2033,9010001250584,新規,0,2024-12-10,2024-12-10,株式会社ＡＬＢＡ,,株式会社,東京都,千代田区,丸の内１丁目８番３号丸の内トラストタワー本館２０階,,13,101,1000005,,,,,,,2024-12-10,1,,,,,アルバ,0
2034,9010001250601,新規,0,2024-12-10,2024-12-10,ＰＯＷＥＥＥＲ株式会社,,株式会社,東京都,中央区,日本橋箱崎町１－２ＴＨＥＳＨＯＲＥ日本茅場町２Ｆ,,13,102,1030015,,,,,,,2024-12-10,1,,,,,パワー,0
2036,9010003045719,新規,0,2024-12-10,2024-12-10,合同会社ソルセプト,,合同会社,東京都,中央区,日本橋３丁目２番１４号新槇町ビル別館第一２階,,13,102,1030027,,,,,,,2024-12-10,1,,,,,ソルセプト,0
2037,9010003045735,新規,0,2024-12-10,2024-12-10,アールシックス蓄電所合同会社,,合同会社,東京都,中央区,京橋２丁目２番１号,,13,102,1040031,,,,,,,2024-12-10,1,,,,,アールシックスチクデンショ,0
2038,9010003045751,新規,0,2024-12-10,2024-12-10,マツ・メディア合同会社,,合同会社,東京都,中央区,銀座１丁目１２番４号Ｎ＆Ｅ－ＢＬＤ．６Ｆ,,13,102,1040061,,,,,,,2024-12-10,1,,,,,マツメディア,0
2039,9010003045776,新規,0,2024-12-10,2024-12-10,合同会社アルビレオ,,合同会社,東京都,千代田区,神田須田町１丁目７番８号ＶＯＲＴ秋葉原ＩＶ２Ｆ,,13,101,1010041,,,,,,,2024-12-10,1,,,,,アルビレオ,0
2050,9010401186940,新規,0,2024-12-10,2024-12-10,株式会社Ｄｏｕｂｌｅ　Ｈ,,株式会社,東京都,港区,赤坂５丁目２番３３号,,13,103,1070052,,,,,,,2024-12-10,1,,,,,ドゥーブルアッシュ,0
2061,9011001166085,新規,0,2024-12-10,2024-12-10,株式会社プロサイム,,株式会社,東京都,渋谷区,桜丘町１５－１４フジビル４０、９階,,13,113,1500031,,,,,,,2024-12-10,1,,,,,プロサイム,0
2068,9011101109885,新規,0,2024-12-10,2024-12-10,亞郁株式会社,,株式会社,東京都,新宿区,西新宿３丁目３番１３号西新宿水間ビル６階,,13,104,1600023,,,,,,,2024-12-10,1,,,,,アイク,0
2071,9011501031458,新規,0,2024-12-10,2024-12-10,赤羽ホールディングス株式会社,,株式会社,東京都,北区,赤羽西１丁目３９番１０号赤羽フィリピンスクウェア４０１号,,13,117,1150055,,,,,,,2024-12-10,1,,,,,アカバネホールディングス,0
2072,9011503006326,新規,0,2024-12-10,2024-12-10,合同会社アイテム,,合同会社,東京都,北区,昭和町１丁目２番３,,13,117,1140011,,,,,,,2024-12-10,1,,,,,アイテム,0
2073,9011601028271,新規,0,2024-12-10,2024-12-10,幸和株式会社,,株式会社,東京都,練馬区,氷川台２丁目１２番１０－３０５号,,13,120,1790084,,,,,,,2024-12-10,1,,,,,コウワ,0
2075,9011803006587,新規,0,2024-12-10,2024-12-10,学ぶ不動産合同会社,,合同会社,東京都,足立区,綾瀬５丁目１４番１６号,,13,121,1200005,,,,,,,2024-12-10,1,,,,,マナブフドウサン,0
2076,9012303002077,新規,0,2024-12-10,2024-12-10,合同会社ＴＭ,,合同会社,東京都,町田市,中町１丁目８番１３号Ｆｅｌｉｃｅ中町２０３,,13,209,1940021,,,,,,,2024-12-10,1,,,,,ティーエム,0
2081,9012801023616,新規,0,2024-12-10,2024-12-10,株式会社祐,,株式会社,東京都,立川市,緑町７－１立飛ビル８号館,,13,202,1900014,,,,,,,2024-12-10,1,,,,,ユウ,0
2097,9020001160460,新規,0,2024-12-10,2024-12-10,株式会社Ｔｈｅ　ｂｒｉｇｈｔ　ｆｕｔｕｒｅ　ｃｏｍｐａｎｙ,,株式会社,神奈川県,横浜市青葉区,桂台１丁目２番地５１,,14,117,2270034,,,,,,,2024-12-10,1,,,,,ザブライトフューチャーカンパニー,0
2098,9020001160493,新規,0,2024-12-10,2024-12-10,株式会社ＣＯＮＮＥＫＵＴＯ,,株式会社,神奈川県,川崎市川崎区,小田４丁目１４番１２号ユナイト小田ジェイマック２０３,,14,131,2100846,,,,,,,2024-12-10,1,,,,,コネクト,0
2103,9020003027410,新規,0,2024-12-10,2024-12-10,合同会社Ｃａｒｅｅｒ　Ｌｉｎｋ,,合同会社,神奈川県,横浜市保土ケ谷区,岩井町１－７アーバン・Ｉ保土ヶ谷駅ビル５Ｆ３号室,00137283,14,106,2400023,,,,,,,2024-12-10,1,,,,,キャリアリンク,0
2113,9021005013233,新規,0,2024-12-10,2024-12-10,一般社団法人ブルー・ガーディアンズ,,その他の設立登記法人,神奈川県,平塚市,めぐみが丘２丁目９番２９号,,14,203,2591220,,,,,,,2024-12-10,1,,,,,ブルーガーディアンズ,0
2121,9030001163859,新規,0,2024-12-10,2024-12-10,株式会社モリセド,,株式会社,埼玉県,秩父郡小鹿野町,長留１６６４番地,,11,365,3680102,,,,,,,2024-12-10,1,,,,,モリセド,0
2134,9040001136384,新規,0,2024-12-10,2024-12-10,株式会社Ｋｅｉｋｏ,,株式会社,千葉県,柏市,南増尾２丁目２番１５号,,12,217,2770054,,,,,,,2024-12-10,1,,,,,ケイコ,0
2136,9040001136483,新規,0,2024-12-10,2024-12-10,株式会社ＣＯＣＯＬＵ,,株式会社,千葉県,船橋市,藤原３丁目１０－４８,,12,204,2730047,,,,,,,2024-12-10,1,,,,,ココル,0
2142,9040003026303,新規,0,2024-12-10,2024-12-10,合同会社ルクスグラティア,,合同会社,千葉県,船橋市,本郷町６６５番３号エスポワール３０１号室,,12,204,2730033,,,,,,,2024-12-10,1,,,,,ルクスグラティア,0
2148,9060001037713,新規,0,2024-12-10,2024-12-10,株式会社５６’ｓ,,株式会社,栃木県,塩谷郡高根沢町,大字宝積寺２３３１番地１号サンハイツ１０２,,09,386,3291233,,,,,,,2024-12-10,1,,,,,ゴローズ,0
2149,9060001037721,新規,0,2024-12-10,2024-12-10,株式会社愛翔,,株式会社,栃木県,鹿沼市,府中町３９３番地９１,,09,205,3220034,,,,,,,2024-12-10,1,,,,,アイショウ,0
2150,9060003005354,新規,0,2024-12-10,2024-12-10,合同会社ＢｅＥｎＴａ,,合同会社,栃木県,足利市,利保町２丁目１１番地１３,,09,202,3260006,,,,,,,2024-12-10,1,,,,,ビーエンタ,0
2164,9080403005159,新規,0,2024-12-10,2024-12-10,合同会社らるご,,合同会社,静岡県,袋井市,上山梨１５２８番４,,22,216,4370125,,,,,,,2024-12-10,1,,,,,ラルゴ,0
2166,9100001038104,新規,0,2024-12-10,2024-12-10,株式会社ＨＴＳ‐Ｇｒｏｕｐ,,株式会社,長野県,須坂市,大字須坂１２９８番地１３、４Ｆ,,20,207,3820000,,,,,,,2024-12-10,1,,,,,エイチティーエスグループ,0
2182,9120001270927,新規,0,2024-12-10,2024-12-10,Ｃｉｔａｗｏｏｄ　Ｉｎｔｅｒｎａｔｉｏｎａｌ株式会社,,株式会社,大阪府,大阪市東住吉区,矢田４丁目９－１５－２０６,,27,121,5460023,,,,,,,2024-12-10,1,,,,,シータウッドインターナショナル,0
2183,9120001270968,新規,0,2024-12-10,2024-12-10,株式会社山中組,,株式会社,大阪府,門真市,上野口町９番２１号,,27,223,5710070,,,,,,,2024-12-10,1,,,,,ヤマナカグミ,0
2184,9120001271009,新規,0,2024-12-10,2024-12-10,株式会社ＵＰ　ＳＴＡＣＩＡ,,株式会社,大阪府,大阪市中央区,南船場３丁目１１番１０号心斎橋大陽ビルＢ１Ｆ,,27,128,5420081,,,,,,,2024-12-10,1,,,,,アップスタシア,0
2186,9120003028150,新規,0,2024-12-10,2024-12-10,アドリアーノ合同会社,,合同会社,大阪府,大阪市中央区,森ノ宮中央２丁目７ー２０ー２０３,,27,128,5400003,,,,,,,2024-12-10,1,,,,,アドリアーノ,0
2189,9120101070723,新規,0,2024-12-10,2024-12-10,株式会社あしたば,,株式会社,大阪府,羽曳野市,島泉９丁目１４番４号,,27,222,5830881,,,,,,,2024-12-10,1,,,,,アシタバ,0
2195,9122001038726,新規,0,2024-12-10,2024-12-10,陽子旅行株式会社,,株式会社,大阪府,東大阪市,加納８丁目１７番２６号,,27,227,5780901,,,,,,,2024-12-10,1,,,,,ヨウコウリョコウ,0
2201,9130001078568,新規,0,2024-12-10,2024-12-10,中源株式会社,,株式会社,京都府,京都市南区,西九条開ケ町４１番地１,,26,107,6018439,,,,,,,2024-12-10,1,,,,,チュウゲン,0
2227,9180003027709,新規,0,2024-12-10,2024-12-10,合同会社ＡＧＴ,,合同会社,愛知県,名古屋市西区,上堀越町３丁目１２,,23,104,4510084,,,,,,,2024-12-10,1,,,,,エージーティー,0
2247,9240001064227,新規,0,2024-12-10,2024-12-10,株式会社ＥＹＥＣＡＰＩＴＡＬ　ＭＡＮＡＧＥＭＥＮＴ,,株式会社,広島県,広島市中区,白島北町１０番１１号,,34,101,7300001,,,,,,,2024-12-10,1,,,,,アイキャピタルマネージメント,0
2248,9240001064235,新規,0,2024-12-10,2024-12-10,株式会社Ｎ．ｋｍｒ,,株式会社,広島県,広島市佐伯区,楽々園５丁目９番１５－１５０３号,,34,108,7315136,,,,,,,2024-12-10,1,,,,,エヌケーエムアール,0
2258,9290001108227,新規,0,2024-12-10,2024-12-10,株式会社ＭＡＫＥ　ＴＲＡＤＥ,,株式会社,福岡県,福岡市早良区,西新４丁目６番２６－１２０１号,,40,137,8140002,,,,,,,2024-12-10,1,,,,,メイクトレード,0
2259,9290001108251,新規,0,2024-12-10,2024-12-10,株式会社ＬＡ,,株式会社,福岡県,福岡市東区,多々良２丁目５３番３１号,,40,131,8130033,,,,,,,2024-12-10,1,,,,,エルエイ,0
2263,9290801000252,新規,0,2024-12-10,2024-12-10,池畑産業株式会社,,株式会社,福岡県,北九州市戸畑区,牧山新町７番８号,,40,105,8040054,,,,,,,2024-12-10,1,,,,,イケハタサンギョウ,0
2271,9310001019355,新規,0,2024-12-10,2024-12-10,株式会社Ｎａｋａｙｏｓｈｉ,,株式会社,長崎県,佐世保市,大塔町８番地２,,42,202,8571161,,,,,,,2024-12-10,1,,,,,ナカヨシ,0
2274,9340001026976,新規,0,2024-12-10,2024-12-10,株式会社ＯＡＫ　ＰＲＯＰＥＲＴＹ,,株式会社,鹿児島県,鹿児島市,中央町１５－２パレロワイヤルマツモト２０４,,46,201,8900053,,,,,,,2024-12-10,1,,,,,オークプロパティ,0
2297,9460103001667,新規,0,2024-12-10,2024-12-10,合同会社美容堂かりんとう,,合同会社,北海道,帯広市,西十一条南１７丁目４番地７,,01,207,0800021,,,,,,,2024-12-10,1,,,,,,0
