sequenceNumber,corporateNumber,process,correct,updateDate,changeDate,name,nameImageId,kind,prefectureName,cityName,streetNumber,addressImageId,prefectureCode,cityCode,postCode,addressOutside,addressOutsideImageId,closeDate,closeCause,successorCorporateNumber,changeCause,assignmentDate,latest,enName,enPrefectureName,enCityName,enAddressOutside,furigana,hihyoji
9,1010001225643,新規,0,2022-04-07,2022-04-07,株式会社Ｐｒｏｍｏｔｉｏｎ　Ｅｉｇｈｔ,,株式会社,東京都,千代田区,神田三崎町３丁目５－９,,13,101,1010061,,,,,,,2022-04-07,1,,,,,プロモーションエイト,0
10,1010001225651,新規,0,2022-04-07,2022-04-07,株式会社あび清総合計画,,株式会社,東京都,千代田区,鍛冶町１丁目７番１号手島ビル４Ｆ,,13,101,1010044,,,,,,,2022-04-07,1,,,,,アビセイソウゴウキカク,0
14,1010005034818,新規,0,2022-04-07,2022-04-07,一般社団法人日本私産運用協会,,その他の設立登記法人,東京都,中央区,日本橋本町１丁目４番９号日本橋ＭＭＩビル８階Ａ,,13,102,1030023,,,,,,,2022-04-07,1,,,,,ニホンシサンウンヨウキョウカイ,0
20,1010401166578,新規,0,2022-04-07,2022-04-07,株式会社Ａｌｔ,,株式会社,東京都,港区,三田３丁目１１番３４号,,13,103,1080073,,,,,,,2022-04-07,1,,,,,オルト,0
21,1010401166586,新規,0,2022-04-07,2022-04-07,株式会社マーク,,株式会社,東京都,港区,赤坂７丁目７番５号,,13,103,1070052,,,,,,,2022-04-07,1,,,,,マーク,0
22,1010401166603,新規,0,2022-04-07,2022-04-07,株式会社ＡＣＮ東京,,株式会社,東京都,港区,芝大門２丁目２番１号,,13,103,1050012,,,,,,,2022-04-07,1,,,,,エーシーエヌトウキョウ,0
23,1010401166611,新規,0,2022-04-07,2022-04-07,株式会社Ｆｉｅｌｄｍａｎ,,株式会社,東京都,港区,浜松町１丁目３０番５号浜松町スクエア,,13,103,1050013,,,,,,,2022-04-07,1,,,,,フィールドマン,0
24,1010401166628,新規,0,2022-04-07,2022-04-07,フロンティア・キャピタル株式会社,,株式会社,東京都,港区,六本木３丁目２番１号,,13,103,1060032,,,,,,,2022-04-07,1,,,,,フロンティアキャピタル,0
28,1010403027407,新規,0,2022-04-07,2022-04-07,プロスペリダッド合同会社,,合同会社,東京都,港区,浜松町２丁目２番１５号浜松町ダイヤビル２Ｆ,,13,103,1050013,,,,,,,2022-04-07,1,,,,,プロスペリダッド,0
29,1010403027415,新規,0,2022-04-07,2022-04-07,ＲＢソーラーレイク合同会社,,合同会社,東京都,港区,虎ノ門３丁目２２番１０－２０１号,,13,103,1050001,,,,,,,2022-04-07,1,,,,,アールビーソーラーレイク,0
32,1010503006558,新規,0,2022-04-07,2022-04-07,合同会社ｔｉｍｅ,,合同会社,東京都,台東区,小島２丁目８番１６号２Ｆ,,13,106,1110056,,,,,,,2022-04-07,1,,,,,タイム,0
34,1010701042462,新規,0,2022-04-07,2022-04-07,再会株式会社,,株式会社,東京都,品川区,西五反田３丁目１５－６リードシー目黒不動前ビル８階,,13,109,1410031,,,,,,,2022-04-07,1,,,,,サイカイ,0
35,1010801032875,新規,0,2022-04-07,2022-04-07,株式会社Ｃ＆Ｓ,,株式会社,東京都,大田区,池上３丁目１５番８号,,13,111,1460082,,,,,,,2022-04-07,1,,,,,シーアンドエス,0
39,1010901050653,新規,0,2022-04-07,2022-04-07,株式会社ＬＩＦＴ,,株式会社,東京都,世田谷区,上馬３丁目４番１２号,,13,112,1540011,,,,,,,2022-04-07,1,,,,,リフト,0
40,1010903007255,新規,0,2022-04-07,2022-04-07,ｉｎｃｕｂｅ合同会社,,合同会社,東京都,世田谷区,東玉川１丁目３１―１７,,13,112,1580084,,,,,,,2022-04-07,1,,,,,インキューブ,0
42,1011001146722,新規,0,2022-04-07,2022-04-07,株式会社マイゴルフレンジ,,株式会社,東京都,渋谷区,神宮前４丁目１３番１３号フォレストプラザ表参道１０４,,13,113,1500001,,,,,,,2022-04-07,1,,,,,マイゴルフレンジ,0
43,1011001146739,新規,0,2022-04-07,2022-04-07,株式会社ファミリアモサ,,株式会社,東京都,渋谷区,恵比寿１丁目２３番２３号恵比寿スクエア１階,,13,113,1500013,,,,,,,2022-04-07,1,,,,,ファミリアモサ,0
44,1011001146771,新規,0,2022-04-07,2022-04-07,株式会社ＢＥＡＲＳ,,株式会社,東京都,渋谷区,広尾５丁目１４番２号,,13,113,1500012,,,,,,,2022-04-07,1,,,,,,0
45,1011001146821,新規,0,2022-04-07,2022-04-07,株式会社ｋｏｏＫ,,株式会社,東京都,渋谷区,東２丁目９番６号,,13,113,1500011,,,,,,,2022-04-07,1,,,,,クーク,0
46,1011003014472,新規,0,2022-04-07,2022-04-07,福田屋合同会社,,合同会社,東京都,渋谷区,渋谷２丁目１９－１５宮益坂ビルディング６０９,,13,113,1500002,,,,,,,2022-04-07,1,,,,,フクダヤ,0
47,1011003014480,新規,0,2022-04-07,2022-04-07,Ｃｈａｐｔｅｒ　Ｔｅｃｈ合同会社,,合同会社,東京都,渋谷区,広尾５丁目１４番２号,,13,113,1500012,,,,,,,2022-04-07,1,,,,,チャプターテック,0
50,1011101098434,新規,0,2022-04-07,2022-04-07,株式会社東掃,,株式会社,東京都,新宿区,北新宿４丁目５番９号ハイムトーシン２０１,,13,104,1690074,,,,,,,2022-04-07,1,,,,,トウソウ,0
51,1011101098442,新規,0,2022-04-07,2022-04-07,株式会社ＰＡＲＴ,,株式会社,東京都,新宿区,矢来町９０番地ドメーヌ神楽坂４０１,,13,104,1620805,,,,,,,2022-04-07,1,,,,,パート,0
53,1011201023746,新規,0,2022-04-07,2022-04-07,株式会社プラチナムステーツジャパン,,株式会社,東京都,中野区,中野１丁目２２番１８号,,13,114,1640001,,,,,,,2022-04-07,1,,,,,プラチナムステーツジャパン,0
55,1011301027696,新規,0,2022-04-07,2022-04-07,株式会社フューチャーベース,,株式会社,東京都,杉並区,上荻２丁目６番２９号,,13,115,1670043,,,,,,,2022-04-07,1,,,,,フューチャーベース,0
59,1011701025201,新規,0,2022-04-07,2022-04-07,株式会社松原機設,,株式会社,東京都,江戸川区,鹿骨２丁目１１番１号フラワーハイツ２０２,,13,123,1330073,,,,,,,2022-04-07,1,,,,,マツバラキセツ,0
61,1011801040546,新規,0,2022-04-07,2022-04-07,ＦＴ株式会社,,株式会社,東京都,足立区,竹の塚２丁目１３番１号,,13,121,1210813,,,,,,,2022-04-07,1,,,,,エフティ,0
64,1012301012944,新規,0,2022-04-07,2022-04-07,おうちの絆サポート株式会社,,株式会社,東京都,町田市,山崎町１２０４番地１オルト・ケイＢ－１０１,,13,209,1950074,,,,,,,2022-04-07,1,,,,,オウチノキズナサポート,0
67,1012801021503,新規,0,2022-04-07,2022-04-07,株式会社テイク,,株式会社,東京都,東大和市,南街５丁目８９番地の３－１０３,,13,220,2070014,,,,,,,2022-04-07,1,,,,,テイク,0
71,1013301048904,新規,0,2022-04-07,2022-04-07,株式会社Ｇｕｔ’ｓ,,株式会社,東京都,豊島区,上池袋４丁目１１番９－２１１号,,13,116,1700012,,,,,,,2022-04-07,1,,,,,ガッツ,0
72,1013305003335,新規,0,2022-04-07,2022-04-07,司法書士法人小田桐事務所,,その他の設立登記法人,東京都,豊島区,東池袋３丁目１５番２－７０１号,,13,116,1700013,,,,,,,2022-04-07,1,,,,,オダギリジムショ,0
76,1020001145907,新規,0,2022-04-07,2022-04-07,Ｈｅａｔ株式会社,,株式会社,神奈川県,横浜市港南区,日野南５丁目２－１－４０６,,14,111,2340055,,,,,,,2022-04-07,1,,,,,ヒート,0
77,1020001145989,新規,0,2022-04-07,2022-04-07,株式会社フェニックス,,株式会社,神奈川県,横浜市西区,楠町７番地１シルエタワー５０６号,,14,103,2200003,,,,,,,2022-04-07,1,,,,,フェニックス,0
78,1020001145997,新規,0,2022-04-07,2022-04-07,株式会社マクミラン・フォースター,,株式会社,神奈川県,川崎市川崎区,駅前本町１１番地２川崎フロンティアビル４階,,14,131,2100007,,,,,,,2022-04-07,1,,,,,マクミランフォースター,0
79,1020003021528,新規,0,2022-04-07,2022-04-07,エンカレッジコンサルティング合同会社,,合同会社,神奈川県,横浜市中区,常盤町５丁目６６－３プランタンビル６階,,14,104,2310014,,,,,,,2022-04-07,1,,,,,エンカレッジコンサルティング,0
80,1020003021552,新規,0,2022-04-07,2022-04-07,合同会社すぽーつびと,,合同会社,神奈川県,横浜市瀬谷区,瀬谷１丁目２１番地の６,,14,114,2460031,,,,,,,2022-04-07,1,,,,,スポーツビト,0
83,1021001075598,新規,0,2022-04-07,2022-04-07,株式会社ＮＭーＭＣ,,株式会社,神奈川県,秦野市,曲松１丁目３番１９号,,14,211,2591321,,,,,,,2022-04-07,1,,,,,エヌエムエムシー,0
86,1021005012473,新規,0,2022-04-07,2022-04-07,一般社団法人日本歌ってみたＭＩＸ師協会,,その他の設立登記法人,神奈川県,相模原市南区,若松１丁目１７番４－６号,,14,153,2520334,,,,,,,2022-04-07,1,,,,,ニホンウタッテミタミックスシキョウカイ,0
92,1030001147522,新規,0,2022-04-07,2022-04-07,株式会社柿島工務店,,株式会社,埼玉県,児玉郡神川町,大字八日市５７６番地７,,11,383,3670244,,,,,,,2022-04-07,1,,,,,カキシマコウムテン,0
93,1030001147555,新規,0,2022-04-07,2022-04-07,株式会社Ｌ・Ｋ,,株式会社,埼玉県,羽生市,東６丁目４番１０号,,11,216,3480052,,,,,,,2022-04-07,1,,,,,エルケイ,0
94,1030001147588,新規,0,2022-04-07,2022-04-07,ピース株式会社,,株式会社,埼玉県,さいたま市浦和区,常盤３丁目１８番２０号常盤コーポラス９０３,,11,107,3300061,,,,,,,2022-04-07,1,,,,,ピース,0
95,1030001147638,新規,0,2022-04-07,2022-04-07,株式会社ＶＥＨＩＣＬＥ　ＴＲＡＤＩＮＧ,,株式会社,埼玉県,春日部市,牛島２１７番地３マインドハイムソフィアＩＩＩ－２０２,00126181,11,214,3440004,,,,,,,2022-04-07,1,,,,,ビークルトレーディング,0
96,1030001147654,新規,0,2022-04-07,2022-04-07,ＤＥＰ商運株式会社,,株式会社,埼玉県,所沢市,美原町２丁目２９６６番地の１オハナ新所沢６０７,,11,208,3590045,,,,,,,2022-04-07,1,,,,,デップショウウン,0
97,1030003019141,新規,0,2022-04-07,2022-04-07,合同会社Ａｌｅｅｎａ,,合同会社,埼玉県,三郷市,早稲田１丁目５番地８,,11,237,3410018,,,,,,,2022-04-07,1,,,,,アリーナ,0
103,1040001122879,新規,0,2022-04-07,2022-04-07,株式会社東日本クルーサービス,,株式会社,千葉県,佐倉市,白銀１丁目９番地１０,,12,212,2850045,,,,,,,2022-04-07,1,,,,,ヒガシニホンクルーサービス,0
104,1040001122887,新規,0,2022-04-07,2022-04-07,阿部組株式会社,,株式会社,千葉県,旭市,横根１３０６番地,,12,215,2892712,,,,,,,2022-04-07,1,,,,,アベグミ,0
107,1050001050930,新規,0,2022-04-07,2022-04-07,株式会社タカショーホーム,,株式会社,茨城県,神栖市,日川４４９６番地３,,08,232,3140114,,,,,,,2022-04-07,1,,,,,タカショーホーム,0
109,1060001034718,新規,0,2022-04-07,2022-04-07,株式会社ＵＴｉＴＥＬＡＳ,,株式会社,栃木県,宇都宮市,南高砂町１０番１１号,,09,201,3210143,,,,,,,2022-04-07,1,,,,,ウチテラス,0
119,1080001024857,新規,0,2022-04-07,2022-04-07,サンライズ株式会社,,株式会社,静岡県,牧之原市,仁田６１６番地４,,22,226,4210413,,,,,,,2022-04-07,1,,,,,サンライズ,0
120,1080001024865,新規,0,2022-04-07,2022-04-07,プロコート静岡株式会社,,株式会社,静岡県,静岡市駿河区,広野５丁目１７番２０－１号,,22,102,4210121,,,,,,,2022-04-07,1,,,,,プロコートシズオカ,0
122,1080103002570,新規,0,2022-04-07,2022-04-07,Ｑｕａｎｇ　Ｍｉｎｈ合同会社,,合同会社,静岡県,三島市,大場９１番地の２,,22,206,4110803,,,,,,,2022-04-07,1,,,,,クアンミン,0
124,1080401025728,新規,0,2022-04-07,2022-04-07,株式会社Ｒｏｏｔ,,株式会社,静岡県,浜松市東区,有玉西町２４１１番地の２,,22,132,4313123,,,,,,,2022-04-07,1,,,,,ルート,0
125,1080403004507,新規,0,2022-04-07,2022-04-07,ＹＢＴ合同会社,,合同会社,静岡県,掛川市,葛ケ丘２丁目８番地の２１,,22,213,4360088,,,,,,,2022-04-07,1,,,,,ワイビーティー,0
127,1110001036543,新規,0,2022-04-07,2022-04-07,株式会社南沢商会,,株式会社,新潟県,魚沼市,下倉５５番地１,,15,225,9497401,,,,,,,2022-04-07,1,,,,,ミナミザワショウカイ,0
138,1120001244822,新規,0,2022-04-07,2022-04-07,Ｔ‐ＳＡＫＡＩ　ＨＤ株式会社,,株式会社,大阪府,大阪市西成区,津守３丁目２番１０号,,27,122,5570062,,,,,,,2022-04-07,1,,,,,ティサカイエイチディ,0
139,1120001244839,新規,0,2022-04-07,2022-04-07,株式会社ブルーライン,,株式会社,大阪府,大阪市港区,海岸通２丁目３番６号,,27,107,5520022,,,,,,,2022-04-07,1,,,,,ブルーライン,0
140,1120001244888,新規,0,2022-04-07,2022-04-07,ＯＭＮ　ｂｅａｕｔｙ株式会社,,株式会社,大阪府,大阪市平野区,長吉長原西４丁目４番２５－３１５号,,27,126,5470015,,,,,,,2022-04-07,1,,,,,オーエムエヌビューティー,0
141,1120001244946,新規,0,2022-04-07,2022-04-07,株式会社Ｕｎｉｔｅ,,株式会社,大阪府,大阪市西区,北堀江１丁目２２番２,,27,106,5500014,,,,,,,2022-04-07,1,,,,,ユナイト,0
142,1120001244962,新規,0,2022-04-07,2022-04-07,株式会社木下設備,,株式会社,大阪府,大阪市東住吉区,杭全３丁目４番２２号スマイルハイツ杭全７０２号,,27,121,5460002,,,,,,,2022-04-07,1,,,,,キノシタセツビ,0
143,1120001244987,新規,0,2022-04-07,2022-04-07,日優采株式会社,,株式会社,大阪府,大阪市北区,西天満４丁目５番５号,,27,127,5300047,,,,,,,2022-04-07,1,,,,,ニユウサイ,0
144,1120001245044,新規,0,2022-04-07,2022-04-07,株式会社ＡＳＲＡＹ,,株式会社,大阪府,大阪市淀川区,西宮原１丁目７番４－７０２号,,27,123,5320004,,,,,,,2022-04-07,1,,,,,アスレイ,0
145,1120001245052,新規,0,2022-04-07,2022-04-07,株式会社ＦＲＥＥＡＫＳ,,株式会社,大阪府,守口市,大久保町３丁目１２番１０号,,27,209,5700012,,,,,,,2022-04-07,1,,,,,フリークス,0
146,1120003021435,新規,0,2022-04-07,2022-04-07,合同会社ｔｉａｒａｌａｎｄ,,合同会社,大阪府,大阪市北区,梅田１丁目２番２－２００号大阪駅前第２ビル２階３－１－２,,27,127,5300001,,,,,,,2022-04-07,1,,,,,ティアラランド,0
147,1120003021443,新規,0,2022-04-07,2022-04-07,合同会社良真不動産研究所,,合同会社,大阪府,大阪市東住吉区,田辺５丁目１５番１６号,,27,121,5460031,,,,,,,2022-04-07,1,,,,,リョウシンフドウサンケンキュウショ,0
152,1120101065318,新規,0,2022-04-07,2022-04-07,株式会社大川建設,,株式会社,大阪府,和泉市,府中町１丁目１０番１３号ユウパレス４Ｄ,,27,219,5940071,,,,,,,2022-04-07,1,,,,,オオカワケンセツ,0
153,1120101065350,新規,0,2022-04-07,2022-04-07,株式会社Ｍｉｒａｉ　Ｆａｃｔｏｒｙ,,株式会社,大阪府,堺市堺区,三国ヶ丘御幸通１５４番地（８１６号）,,27,141,5900028,,,,,,,2022-04-07,1,,,,,ミライファクトリー,0
154,1120103004645,新規,0,2022-04-07,2022-04-07,合同会社ワーム,,合同会社,大阪府,堺市北区,百舌鳥梅町１丁１８番４号,,27,146,5918032,,,,,,,2022-04-07,1,,,,,ワーム,0
155,1120901045808,新規,0,2022-04-07,2022-04-07,株式会社ＩＡソリューションズ,,株式会社,大阪府,吹田市,古江台３丁目７番２２－４０８号,,27,205,5650874,,,,,,,2022-04-07,1,,,,,アイエーソリューションズ,0
156,1120901045816,新規,0,2022-04-07,2022-04-07,株式会社ＥＤＧＥ　ＢＡＳＥ,,株式会社,大阪府,茨木市,宿久庄３丁目２４番２５号,,27,211,5670051,,,,,,,2022-04-07,1,,,,,エッジベース,0
157,1120901045832,新規,0,2022-04-07,2022-04-07,株式会社ＲＡＳ,,株式会社,大阪府,高槻市,萩之庄３丁目１１番３号,,27,207,5690093,,,,,,,2022-04-07,1,,,,,ラス,0
158,1120903004092,新規,0,2022-04-07,2022-04-07,Ｓｐｉｎｅ合同会社,,合同会社,大阪府,茨木市,南春日丘７丁目５－３６－７,,27,211,5670046,,,,,,,2022-04-07,1,,,,,スパイン,0
159,1122001035730,新規,0,2022-04-07,2022-04-07,株式会社ＯＫＵＳＨＩＭＡ　ｗｏｏｄ　ｗｏｒｋｓ,,株式会社,大阪府,八尾市,北木の本３丁目６番地の３,,27,212,5810041,,,,,,,2022-04-07,1,,,,,オクシマウッドワークス,0
160,1130001071456,新規,0,2022-04-07,2022-04-07,株式会社しんやさい,,株式会社,京都府,京都市南区,唐橋赤金町６０番地１グランシティ京都Ｉ番館６０４号,00126178,26,107,6018463,,,,,,,2022-04-07,1,,,,,シンヤサイ,0
161,1140001125467,新規,0,2022-04-07,2022-04-07,株式会社ＣＩＴＹ　ＣＬＥＡＮ,,株式会社,兵庫県,神戸市中央区,八雲通４丁目２番１号,,28,110,6510078,,,,,,,2022-04-07,1,,,,,シティクリーン,0
162,1140001125525,新規,0,2022-04-07,2022-04-07,株式会社エルトラスト,,株式会社,兵庫県,尼崎市,塚口本町３丁目３番２号,,28,202,6610001,,,,,,,2022-04-07,1,,,,,,0
163,1140001125558,新規,0,2022-04-07,2022-04-07,フリックス株式会社,,株式会社,兵庫県,神戸市中央区,神戸空港３番地４,,28,110,6500048,,,,,,,2022-04-07,1,,,,,フリックス,0
169,1150001025443,新規,0,2022-04-07,2022-04-07,株式会社ＣＴ　Ｒｉｂｕｔｅ,,株式会社,奈良県,奈良市,中登美ヶ丘６丁目３番７号,,29,201,6310003,,,,,,,2022-04-07,1,,,,,シーティーリビュート,0
171,1160001024097,新規,0,2022-04-07,2022-04-07,グラッソレジデンシャル株式会社,,株式会社,滋賀県,近江八幡市,鷹飼町５６０番地１－１階,,25,204,5230891,,,,,,,2022-04-07,1,,,,,グラッソレジデンシャル,0
172,1160001024106,新規,0,2022-04-07,2022-04-07,株式会社ほとけマインド,,株式会社,滋賀県,甲賀市,甲南町野田３１４番地１,,25,209,5203308,,,,,,,2022-04-07,1,,,,,ホトケマインド,0
173,1160003002530,新規,0,2022-04-07,2022-04-07,合同会社オッテルＱ,,合同会社,滋賀県,栗東市,綣１丁目８番６号,,25,208,5203031,,,,,,,2022-04-07,1,,,,,オッテルキュー,0
177,1180001150651,新規,0,2022-04-07,2022-04-07,株式会社メジロメディカル,,株式会社,愛知県,大府市,桃山町２丁目８番地の１,,23,223,4740026,,,,,,,2022-04-07,1,,,,,メジロメディカル,0
178,1180001150676,新規,0,2022-04-07,2022-04-07,株式会社鈴正,,株式会社,愛知県,名古屋市緑区,諸の木１丁目１２１０番地の３,,23,114,4580817,,,,,,,2022-04-07,1,,,,,スズマサ,0
179,1180001150759,新規,0,2022-04-07,2022-04-07,株式会社オルビス,,株式会社,愛知県,名古屋市瑞穂区,西ノ割町１丁目３１番地の１,,23,108,4670813,,,,,,,2022-04-07,1,,,,,オルビス,0
188,1180301036071,新規,0,2022-04-07,2022-04-07,株式会社ＰＩ,,株式会社,愛知県,豊田市,陣中町１丁目２２番地６,,23,211,4710079,,,,,,,2022-04-07,1,,,,,ピーアイ,0
189,1180301036088,新規,0,2022-04-07,2022-04-07,株式会社パラレルワーク,,株式会社,愛知県,刈谷市,東陽町３丁目４４番地,,23,210,4480842,,,,,,,2022-04-07,1,,,,,パラレルワーク,0
190,1180301036096,新規,0,2022-04-07,2022-04-07,株式会社エース・アクセス,,株式会社,愛知県,岡崎市,若松町字東太夫道下２７番地２デュラアサヒＡ１０１,,23,202,4440826,,,,,,,2022-04-07,1,,,,,エースアクセス,0
191,1190001029275,新規,0,2022-04-07,2022-04-07,株式会社アイエホーム,,株式会社,三重県,松阪市,嬉野中川新町２丁目７１パークサイドＭ０１号室,,24,204,5152325,,,,,,,2022-04-07,1,,,,,アイエホーム,0
193,1200001039958,新規,0,2022-04-07,2022-04-07,株式会社アヤ,,株式会社,岐阜県,岐阜市,六条東１丁目２番４‐１号笠原第一ビル１階,,21,201,5008353,,,,,,,2022-04-07,1,,,,,アヤ,0
195,1200003005529,新規,0,2022-04-07,2022-04-07,合同会社ガイセン,,合同会社,岐阜県,岐阜市,鷺山新町４番３１号,,21,201,5020871,,,,,,,2022-04-07,1,,,,,ガイセン,0
208,1240001059589,新規,0,2022-04-07,2022-04-07,協和テック株式会社,,株式会社,広島県,福山市,神村町６３７３番地１,,34,207,7290112,,,,,,,2022-04-07,1,,,,,キョウワテック,0
209,1240001059597,新規,0,2022-04-07,2022-04-07,ドアズシステム株式会社,,株式会社,広島県,福山市,幕山台６丁目７番１５号,,34,207,7210913,,,,,,,2022-04-07,1,,,,,ドアズシステム,0
212,1240003005582,新規,0,2022-04-07,2022-04-07,合同会社すまいる,,合同会社,広島県,広島市安佐北区,可部町勝木１６８２－４０,,34,106,7391700,,,,,,,2022-04-07,1,,,,,スマイル,0
214,1250001019484,新規,0,2022-04-07,2022-04-07,株式会社サポートキャリア,,株式会社,山口県,下関市,秋根本町２丁目１０番１０号２Ｆ,,35,201,7510875,,,,,,,2022-04-07,1,,,,,サポートキャリア,0
217,1250003003040,新規,0,2022-04-07,2022-04-07,合同会社ＮＯＭ,,合同会社,山口県,山陽小野田市,新生１丁目９番１０号,,35,216,7560092,,,,,,,2022-04-07,1,,,,,エヌオーエム,0
218,1260001036719,新規,0,2022-04-07,2022-04-07,株式会社Ｆｒｅｅ　Ｊａｍ,,株式会社,岡山県,岡山市北区,今８丁目５番１号,,33,101,7000975,,,,,,,2022-04-07,1,,,,,フリージャム,0
221,1290001097031,新規,0,2022-04-07,2022-04-07,株式会社ゆあもん,,株式会社,福岡県,三潴郡大木町,大字横溝２１０６番地４,,40,522,8300405,,,,,,,2022-04-07,1,,,,,ユアモン,0
222,1290001097089,新規,0,2022-04-07,2022-04-07,株式会社えいでんサービス,,株式会社,福岡県,那珂川市,片縄北７丁目７番１７号,,40,231,8111203,,,,,,,2022-04-07,1,,,,,エイデンサービス,0
224,1290003012351,新規,0,2022-04-07,2022-04-07,合同会社ほがらか,,合同会社,福岡県,福岡市東区,二又瀬１番３１号３階,,40,131,8120066,,,,,,,2022-04-07,1,,,,,ホガラカ,0
226,1290801028425,新規,0,2022-04-07,2022-04-07,株式会社ＲＹＯＥＮ,,株式会社,福岡県,北九州市戸畑区,一枝４丁目１４番１０－５０２号,,40,105,8040021,,,,,,,2022-04-07,1,,,,,リョウエン,0
233,1300001012871,新規,0,2022-04-07,2022-04-07,株式会社Ｆ・Ｓファーム,,株式会社,佐賀県,三養基郡みやき町,大字原古賀７４８１番地１,,41,346,8490101,,,,,,,2022-04-07,1,,,,,エフエスファーム,0
236,1330001029616,新規,0,2022-04-07,2022-04-07,ホームロボット・コミュニケーションズ株式会社,,株式会社,熊本県,熊本市中央区,帯山４丁目４０番９号,,43,101,8620924,,,,,,,2022-04-07,1,,,,,ホームロボットコミュニケーションズ,0
238,1340001024640,新規,0,2022-04-07,2022-04-07,株式会社吉田商店,,株式会社,鹿児島県,鹿児島市,唐湊１丁目１３番１０号メゾン唐湊第一ビル１００号,,46,201,8900081,,,,,,,2022-04-07,1,,,,,ヨシダショウテン,0
240,1350001017643,新規,0,2022-04-07,2022-04-07,株式会社瀬之口商店,,株式会社,宮崎県,都城市,高崎町縄瀬２９３８番地１,,45,202,8894503,,,,,,,2022-04-07,1,,,,,セノクチショウテン,0
243,1360001030224,新規,0,2022-04-07,2022-04-07,福山建設株式会社,,株式会社,沖縄県,浦添市,牧港４丁目１４番１７号,,47,208,9012131,,,,,,,2022-04-07,1,,,,,フクヤマケンセツ,0
245,1370003005644,新規,0,2022-04-07,2022-04-07,合同会社三栄,,合同会社,宮城県,遠田郡涌谷町,字田町裏３３番地１,,04,501,9870141,,,,,,,2022-04-07,1,,,,,サンエイ,0
249,1380003005148,新規,0,2022-04-07,2022-04-07,歓喜Ｙ＆Ｋ合同会社,,合同会社,福島県,いわき市,好間町大利字成沢５６番地,,07,204,9701147,,,,,,,2022-04-07,1,,,,,カンキワイアンドケイ,0
251,1380005012555,新規,0,2022-04-07,2022-04-07,医療法人博峰会,,その他の設立登記法人,福島県,白河市,会津町５８番地２３,,07,205,9610075,,,,,,,2022-04-07,1,,,,,ハクホウカイ,0
262,1410001013140,新規,0,2022-04-07,2022-04-07,ＮＡＫＡ建築設計株式会社,,株式会社,秋田県,大館市,二井田字中前田３０１番地２,,05,204,0185751,,,,,,,2022-04-07,1,,,,,ナカケンチクセッケイ,0
263,1410003003635,新規,0,2022-04-07,2022-04-07,合同会社ｃｉｖｉｌ,,合同会社,秋田県,湯沢市,字下山谷２２８番地,,05,207,0120822,,,,,,,2022-04-07,1,,,,,シビル,0
266,1420003002495,新規,0,2022-04-07,2022-04-07,合同会社やど香り,,合同会社,青森県,弘前市,大字大町２丁目３－７吉田ビルマンション３０１,,02,202,0368004,,,,,,,2022-04-07,1,,,,,ヤドカリ,0
267,1430001086325,新規,0,2022-04-07,2022-04-07,トラスト株式会社,,株式会社,北海道,札幌市東区,北四十九条東３丁目７番８－２０２号,,01,103,0070849,,,,,,,2022-04-07,1,,,,,トラスト,0
268,1430001086366,新規,0,2022-04-07,2022-04-07,Ａｎｙｗａｙ　Ｊａｐａｎ株式会社,,株式会社,北海道,苫小牧市,しらかば町２丁目１５番７号,,01,213,0530821,,,,,,,2022-04-07,1,,,,,エニウェイジャパン,0
270,1450001013657,新規,0,2022-04-07,2022-04-07,株式会社あいふぁーむ,,株式会社,北海道,士別市,多寄町三十六線西５番地,,01,220,0980475,,,,,,,2022-04-07,1,,,,,アイファーム,0
272,1460003000891,新規,0,2022-04-07,2022-04-07,合同会社Ｎｏｒｔｈ　Ｑｕｅｅｎ,,合同会社,北海道,釧路市,鳥取大通４丁目１３番１４号,,01,206,0840906,,,,,,,2022-04-07,1,,,,,ノースクィーン,0
273,1460101007178,新規,0,2022-04-07,2022-04-07,株式会社松田農場,,株式会社,北海道,中川郡幕別町,字相川７０７番地の２,,01,643,0890621,,,,,,,2022-04-07,1,,,,,マツダノウジョウ,0
282,1500001024120,新規,0,2022-04-07,2022-04-07,株式会社ｆｏｒｃｈ,,株式会社,愛媛県,松山市,久万ノ台９２１番地１,,38,201,7918016,,,,,,,2022-04-07,1,,,,,フォーチ,0
283,1500001024137,新規,0,2022-04-07,2022-04-07,株式会社蓮果園,,株式会社,愛媛県,松山市,小川甲６４４番地,,38,201,7992468,,,,,,,2022-04-07,1,,,,,レンカエン,0
292,2010001225642,新規,0,2022-04-07,2022-04-07,株式会社ソレイユ,,株式会社,東京都,中央区,築地７丁目８番７号Ｒａｙｏｎｄｕｓｏｌｅｉｌ９０１号,,13,102,1040045,,,,,,,2022-04-07,1,,,,,ソレイユ,0
293,2010001225667,新規,0,2022-04-07,2022-04-07,株式会社Ｇｅｐｓｉｌｏｎ,,株式会社,東京都,千代田区,丸の内１丁目１１番１号,,13,101,1000005,,,,,,,2022-04-07,1,,,,,ジプシロン,0
298,2010103001891,新規,0,2022-04-07,2022-04-07,作削工業合同会社,,合同会社,東京都,八王子市,大船町１５６番地５７,,13,201,1930935,,,,,,,2022-04-07,1,,,,,サクサクコウギョウ,0
303,2010401166577,新規,0,2022-04-07,2022-04-07,ＡＧＨ株式会社,,株式会社,東京都,港区,新橋２丁目２０番１５号,,13,103,1050004,,,,,,,2022-04-07,1,,,,,エイジーエイチ,0
304,2010403027397,新規,0,2022-04-07,2022-04-07,合同会社ＪＵＮＷＡ・ＥＳＴＡＴＥ,,合同会社,東京都,港区,芝大門２丁目８番４号,,13,103,1050012,,,,,,,2022-04-07,1,,,,,ジュンワエステート,0
305,2010403027414,新規,0,2022-04-07,2022-04-07,ＲＢソーラーアイル合同会社,,合同会社,東京都,港区,虎ノ門３丁目２２番１０－２０１号,,13,103,1050001,,,,,,,2022-04-07,1,,,,,アールビーソーラーアイル,0
309,2010503006540,新規,0,2022-04-07,2022-04-07,合同会社ＮＯ２,,合同会社,東京都,台東区,西浅草３丁目２７番地１０号ユニハイツ４０３,,13,106,1110035,,,,,,,2022-04-07,1,,,,,ナンバーツー,0
310,2010503006557,新規,0,2022-04-07,2022-04-07,京大合同会社,,合同会社,東京都,台東区,浅草橋１丁目２５－７シティコープ浅草橋２０２,,13,106,1110053,,,,,,,2022-04-07,1,,,,,キョウダイ,0
312,2010601060927,新規,0,2022-04-07,2022-04-07,株式会社Ｌｅｐｕｓ,,株式会社,東京都,江東区,平野２丁目１１番１９－１０３号,,13,108,1350023,,,,,,,2022-04-07,1,,,,,レプス,0
318,2011001146705,新規,0,2022-04-07,2022-04-07,株式会社ＩＮＴＩＭＥＤ,,株式会社,東京都,渋谷区,神泉町２０－２１クロスシー渋谷神泉ビル,,13,113,1500045,,,,,,,2022-04-07,1,,,,,インタイムド,0
319,2011001146738,新規,0,2022-04-07,2022-04-07,株式会社ブリーズ,,株式会社,東京都,渋谷区,代々木２丁目２１番１１号,,13,113,1510053,,,,,,,2022-04-07,1,,,,,ブリーズ,0
320,2011001146762,新規,0,2022-04-07,2022-04-07,株式会社スカイハーバー,,株式会社,東京都,渋谷区,神宮前６丁目２３番４号桑野ビル２階,,13,113,1500001,,,,,,,2022-04-07,1,,,,,スカイハーバー,0
321,2011003014430,新規,0,2022-04-07,2022-04-07,合同会社Ｄｏｓｔｒｅｓ,,合同会社,東京都,渋谷区,神南１丁目１４番７号ワイズ神南ビル２Ｆ,,13,113,1500041,,,,,,,2022-04-07,1,,,,,ドストレス,0
322,2011003014447,新規,0,2022-04-07,2022-04-07,合同会社Ｔｈｒｅｅ　Ａｒｒｏｗｓ,,合同会社,東京都,目黒区,緑が丘１丁目２―８,,13,110,1520034,,,,,,,2022-04-07,1,,,,,スリーアローズ,0
323,2011003014496,新規,0,2022-04-07,2022-04-07,合同会社Ｐｏｎｄ　ｃａｐｉｔａｌ,,合同会社,東京都,渋谷区,神泉町４－１２グランディール渋谷神泉２０４,,13,113,1500045,,,,,,,2022-04-07,1,,,,,ポンドキャピタル,0
331,2011101098433,新規,0,2022-04-07,2022-04-07,株式会社ＩＭＩＴ,,株式会社,東京都,新宿区,西早稲田１丁目２２番３号,,13,104,1690051,,,,,,,2022-04-07,1,,,,,アイエムアイティー,0
333,2011105010212,新規,0,2022-04-07,2022-04-07,一般社団法人日本静脈学会,,その他の設立登記法人,東京都,新宿区,下宮比町２番２８号,,13,104,1620822,,,,,,,2022-04-07,1,,,,,ニホンジョウミャクガッカイ,0
335,2011301027695,新規,0,2022-04-07,2022-04-07,株式会社アモク,,株式会社,東京都,杉並区,高円寺南１丁目１６番２１号２Ｆ,,13,115,1660003,,,,,,,2022-04-07,1,,,,,アモク,0
343,2011503005128,新規,0,2022-04-07,2022-04-07,合同会社Ｍｅｔｈｉｋ,,合同会社,東京都,北区,神谷１丁目３番２－５０８号,,13,117,1150043,,,,,,,2022-04-07,1,,,,,メティック,0
344,2011505002461,新規,0,2022-04-07,2022-04-07,一般社団法人絵本読み語り協会,,その他の設立登記法人,東京都,北区,浮間３丁目３１番９号,,13,117,1150051,,,,,,,2022-04-07,1,,,,,エホンヨミカタリキョウカイ,0
346,2011701025175,新規,0,2022-04-07,2022-04-07,株式会社ＶＥＣＴＯＲ,,株式会社,東京都,江戸川区,南小岩７丁目１３番１号,,13,123,1330056,,,,,,,2022-04-07,1,,,,,ヴェクター,0
347,2011701025191,新規,0,2022-04-07,2022-04-07,株式会社ＴＯＰ　Ｊ,,株式会社,東京都,江戸川区,北小岩８丁目２番１号,,13,123,1330051,,,,,,,2022-04-07,1,,,,,トップジェイ,0
352,2012303001655,新規,0,2022-04-07,2022-04-07,ステラ合同会社,,合同会社,東京都,町田市,中町３丁目２４－８シティーユー中町ＩＩ２０８,00126182,13,209,1940021,,,,,,,2022-04-07,1,,,,,ステラ,0
358,2012801021502,新規,0,2022-04-07,2022-04-07,株式会社尾崎建材,00126185,株式会社,東京都,立川市,西砂町５丁目１３番地の１３,,13,202,1900034,,,,,,,2022-04-07,1,,,,,オザキケンザイ,0
360,2013305003334,新規,0,2022-04-07,2022-04-07,一般社団法人日本デジタルゲーム学会,,その他の設立登記法人,東京都,豊島区,東池袋２丁目３９番２－４０１号,,13,116,1700013,,,,,,,2022-04-07,1,,,,,ニホンデジタルゲームガッカイ,0
376,2021001075589,新規,0,2022-04-07,2022-04-07,株式会社ＰＶＣ　Ｌａｂｏ,,株式会社,神奈川県,相模原市中央区,上溝２４９７番地９,,14,152,2520243,,,,,,,2022-04-07,1,,,,,ピーブイシーラボ,0
377,2021001075597,新規,0,2022-04-07,2022-04-07,株式会社営農舎,,株式会社,神奈川県,厚木市,下荻野３８６番地１,,14,212,2430203,,,,,,,2022-04-07,1,,,,,エイノウシャ,0
381,2021005012472,新規,0,2022-04-07,2022-04-07,医療法人社団緑風会,,その他の設立登記法人,神奈川県,相模原市中央区,鹿沼台２丁目１９番６号パークハイム鹿沼３０５号室,,14,152,2520233,,,,,,,2022-04-07,1,,,,,リョクフウカイ,0
382,2021005012480,新規,0,2022-04-07,2022-04-07,一般社団法人湘南運動科学研究所,,その他の設立登記法人,神奈川県,鎌倉市,台１丁目７番１１－１号,,14,204,2470061,,,,,,,2022-04-07,1,,,,,ショウナンウンドウカガクケンキュウジョ,0
389,2030001147430,新規,0,2022-04-07,2022-04-07,株式会社オールナイトプランニング,,株式会社,埼玉県,さいたま市見沼区,東大宮４丁目３０番地２,,11,104,3370051,,,,,,,2022-04-07,1,,,,,オールナイトプランニング,0
390,2030001147538,新規,0,2022-04-07,2022-04-07,株式会社伊藤板金,,株式会社,埼玉県,さいたま市岩槻区,太田２丁目１番８８－３号,,11,110,3390052,,,,,,,2022-04-07,1,,,,,イトウバンキン,0
391,2030001147546,新規,0,2022-04-07,2022-04-07,黒木電気株式会社,,株式会社,埼玉県,さいたま市緑区,大字上野田６５０番地,,11,109,3360977,,,,,,,2022-04-07,1,,,,,クロキデンキ,0
392,2030001147554,新規,0,2022-04-07,2022-04-07,株式会社ＥＮＲＩＫＩ,,株式会社,埼玉県,志木市,下宗岡３丁目２０番３１号,,11,228,3530003,,,,,,,2022-04-07,1,,,,,エンリキ,0
393,2030001147562,新規,0,2022-04-07,2022-04-07,株式会社ＣＣＭ関東,,株式会社,埼玉県,羽生市,小松台２丁目７０５番地２２,,11,216,3480038,,,,,,,2022-04-07,1,,,,,シーシーエムカントウ,0
394,2030001147579,新規,0,2022-04-07,2022-04-07,深谷ベジタブルコミュニケーション株式会社,,株式会社,埼玉県,深谷市,黒田字上反５４番地,,11,218,3691244,,,,,,,2022-04-07,1,,,,,フカヤベジタブルコミュニケーション,0
395,2030001147645,新規,0,2022-04-07,2022-04-07,株式会社エィシー広告,,株式会社,埼玉県,川越市,吉田新町１丁目２番地２（２－１０５）,,11,201,3500808,,,,,,,2022-04-07,1,,,,,エィシーコウコク,0
396,2040001122861,新規,0,2022-04-07,2022-04-07,三共リース株式会社,,株式会社,千葉県,船橋市,上山町１丁目２０９番地３,,12,204,2730046,,,,,,,2022-04-07,1,,,,,サンキョウリース,0
397,2040001122903,新規,0,2022-04-07,2022-04-07,ＶＡＮＳＹＳＴＥＭ株式会社,,株式会社,千葉県,八街市,文違１５９番地３,,12,230,2891104,,,,,,,2022-04-07,1,,,,,バンシステム,0
401,2040003019809,新規,0,2022-04-07,2022-04-07,合同会社スピカ,,合同会社,千葉県,千葉市花見川区,天戸町１４７４番地２７,,12,102,2620043,,,,,,,2022-04-07,1,,,,,スピカ,0
410,2060003004016,新規,0,2022-04-07,2022-04-07,合同会社ベリー・タウン,,合同会社,栃木県,宇都宮市,豊郷台２丁目２２－１０,,09,201,3200003,,,,,,,2022-04-07,1,,,,,ベリータウン,0
413,2080003002777,新規,0,2022-04-07,2022-04-07,合同会社葵華,,合同会社,静岡県,焼津市,与惣次１３９番地,,22,212,4250034,,,,,,,2022-04-07,1,,,,,アオイ,0
414,2080005007444,新規,0,2022-04-07,2022-04-07,行政書士法人かぐや,,その他の設立登記法人,静岡県,静岡市葵区,人宿町１丁目４番地の６ＧＯＴＯビル３Ｆ,,22,101,4200037,,,,,,,2022-04-07,1,,,,,カグヤ,0
418,2080401025727,新規,0,2022-04-07,2022-04-07,株式会社テックギア,,株式会社,静岡県,浜松市中区,砂山町３２９番地の１,,22,131,4300926,,,,,,,2022-04-07,1,,,,,テックギア,0
419,2080401025735,新規,0,2022-04-07,2022-04-07,株式会社廣畑工房,,株式会社,静岡県,御前崎市,御前崎９４番地の６３,,22,223,4371621,,,,,,,2022-04-07,1,,,,,ヒロハタコウボウ,0
420,2080403004506,新規,0,2022-04-07,2022-04-07,合同会社上島緑地水巻会,,合同会社,静岡県,浜松市天竜区,佐久間町中部８０番地の１,,22,137,4313908,,,,,,,2022-04-07,1,,,,,カミシマリョクチミズマキカイ,0
422,2090001017504,新規,0,2022-04-07,2022-04-07,株式会社ｆａｍ,,株式会社,山梨県,甲斐市,團子新居５１０番地５,,19,210,4000102,,,,,,,2022-04-07,1,,,,,ファム,0
423,2090003002074,新規,0,2022-04-07,2022-04-07,合同会社ケプラー,,合同会社,山梨県,北杜市,小淵沢町上笹尾２５３８－１２９,,19,209,4080041,,,,,,,2022-04-07,1,,,,,ケプラー,0
427,2110001036542,新規,0,2022-04-07,2022-04-07,株式会社前田商店,,株式会社,新潟県,上越市,下門前２１９２番地プランドールｆｕｊｉＩＩ１０２号,00126179,15,222,9420063,,,,,,,2022-04-07,1,,,,,マエダショウテン,0
428,2110001036559,新規,0,2022-04-07,2022-04-07,株式会社ＷＯＮＤＥＲ　ＷＡＬＬ,,株式会社,新潟県,新潟市西区,関屋堀割町９番２３号,,15,107,9518155,,,,,,,2022-04-07,1,,,,,ワンダーウォール,0
436,2120001244887,新規,0,2022-04-07,2022-04-07,株式会社ＺＡＲＩＧＡＮＩ．ＲＥＣ,,株式会社,大阪府,大阪市中央区,内淡路町２丁目４番１０号７０２,,27,128,5400038,,,,,,,2022-04-07,1,,,,,ザリガニドットレック,0
437,2120001244895,新規,0,2022-04-07,2022-04-07,株式会社ＴＡＫＡＫＵＲＡ,,株式会社,大阪府,大阪市東成区,深江南３丁目２０番１７号,,27,115,5370002,,,,,,,2022-04-07,1,,,,,タカクラ,0
438,2120001244937,新規,0,2022-04-07,2022-04-07,株式会社ＳＰＩＮＯ,,株式会社,大阪府,大阪市淀川区,東三国３丁目９番２１号,,27,123,5320002,,,,,,,2022-04-07,1,,,,,スピノ,0
439,2120001244945,新規,0,2022-04-07,2022-04-07,ＡＣメタルズ株式会社,,株式会社,大阪府,大阪市中央区,北浜２丁目６番１８号,,27,128,5410041,,,,,,,2022-04-07,1,,,,,エイシーメタルズ,0
440,2120001244978,新規,0,2022-04-07,2022-04-07,ホワイトアスク株式会社,,株式会社,大阪府,大阪市中央区,南本町２丁目３番１２号ＥＤＧＥ本町３Ｆ,,27,128,5410054,,,,,,,2022-04-07,1,,,,,ホワイトアスク,0
441,2120001245002,新規,0,2022-04-07,2022-04-07,株式会社スターコネクト,,株式会社,大阪府,大阪市都島区,都島南通２丁目５番１８－１０４号,,27,102,5340023,,,,,,,2022-04-07,1,,,,,スターコネクト,0
442,2120001245010,新規,0,2022-04-07,2022-04-07,株式会社Ｔ’ｓＣｏｒｐｏｒａｔｉｏｎ,,株式会社,大阪府,大阪市天王寺区,下味原町３番１３号,,27,109,5430025,,,,,,,2022-04-07,1,,,,,ティーズコーポレーション,0
443,2120001245019,新規,0,2022-04-07,2022-04-07,株式会社テイト・モノ,,株式会社,大阪府,大阪市西区,千代崎２丁目１７番６号１階,,27,106,5500023,,,,,,,2022-04-07,1,,,,,テイトモノ,0
444,2120001245051,新規,0,2022-04-07,2022-04-07,株式会社アイピーラボ,,株式会社,大阪府,大阪市阿倍野区,阿倍野筋１丁目１番４３号あべのハルカス３１階,,27,119,5450052,,,,,,,2022-04-07,1,,,,,アイピーラボ,0
445,2120003021418,新規,0,2022-04-07,2022-04-07,合同会社Ａ＆Ａ,,合同会社,大阪府,大阪市西成区,千本南１丁目１１－１４朝日プラザプレール岸里３０４号,,27,122,5570055,,,,,,,2022-04-07,1,,,,,エーアンドエー,0
448,2120101065309,新規,0,2022-04-07,2022-04-07,いろは株式会社,,株式会社,大阪府,泉佐野市,市場西１丁目１４番９号,,27,213,5980006,,,,,,,2022-04-07,1,,,,,イロハ,0
449,2120101065341,新規,0,2022-04-07,2022-04-07,株式会社空,,株式会社,大阪府,貝塚市,木積７７７番地１,,27,208,5970102,,,,,,,2022-04-07,1,,,,,ソラ,0
450,2120101065366,新規,0,2022-04-07,2022-04-07,株式会社愛ネックス,,株式会社,大阪府,大阪狭山市,東池尻３丁目９４０番地の６,,27,231,5890004,,,,,,,2022-04-07,1,,,,,アイネックス,0
451,2120103004636,新規,0,2022-04-07,2022-04-07,合同会社こよみ,,合同会社,大阪府,堺市西区,北条町１丁３８番１号,,27,144,5938302,,,,,,,2022-04-07,1,,,,,コヨミ,0
452,2120105009542,新規,0,2022-04-07,2022-04-07,一般社団法人ひのもと研究室,,その他の設立登記法人,大阪府,藤井寺市,惣社２丁目７番６号,,27,226,5830005,,,,,,,2022-04-07,1,,,,,ヒノモトケンキュウシツ,0
467,2140001125490,新規,0,2022-04-07,2022-04-07,株式会社福田営農,,株式会社,兵庫県,佐用郡佐用町,福澤１１３６番地３,,28,501,6795311,,,,,,,2022-04-07,1,,,,,フクダエイノウ,0
468,2140001125524,新規,0,2022-04-07,2022-04-07,株式会社神戸ＭＡＸＫＥＬＬＹ,,株式会社,兵庫県,神戸市中央区,北長狭通２丁目５番９号グランドプラザトーア１Ｆ,,28,110,6500012,,,,,,,2022-04-07,1,,,,,コウベマックスケリー,0
469,2140001125557,新規,0,2022-04-07,2022-04-07,株式会社トラストワン,,株式会社,兵庫県,豊岡市,日高町祢布３６番地の２,,28,209,6695305,,,,,,,2022-04-07,1,,,,,トラストワン,0
470,2140005026108,新規,0,2022-04-07,2022-04-07,一般社団法人グリーフエデュケーションプロジェクト,,その他の設立登記法人,兵庫県,西宮市,上ケ原一番町１番１５５号,,28,204,6620891,,,,,,,2022-04-07,1,,,,,グリーフエデュケーションプロジェクト,0
471,2140005026116,新規,0,2022-04-07,2022-04-07,一般社団法人加古川観光協会,,その他の設立登記法人,兵庫県,加古川市,加古川町溝之口７０１番地,,28,210,6750064,,,,,,,2022-04-07,1,,,,,カコガワカンコウキョウカイ,0
474,2150001025442,新規,0,2022-04-07,2022-04-07,株式会社Ｆｅ‐Ｍｏ　ｄｅｓｉｇｎ,,株式会社,奈良県,生駒市,山崎新町１番２３号,,29,209,6300255,,,,,,,2022-04-07,1,,,,,フィーモデザイン,0
475,2150001025450,新規,0,2022-04-07,2022-04-07,株式会社吉田衛生社,00126189,株式会社,奈良県,五條市,須恵３丁目１番５８号,,29,207,6370005,,,,,,,2022-04-07,1,,,,,ヨシダエイセイシャ,0
477,2160001024096,新規,0,2022-04-07,2022-04-07,株式会社なかにし牧場,,株式会社,滋賀県,東近江市,平尾町５６５番地,,25,213,5270153,,,,,,,2022-04-07,1,,,,,ナカニシボクジョウ,0
483,2180001150733,新規,0,2022-04-07,2022-04-07,株式会社Ｃ‐ｃｏａｔ,,株式会社,愛知県,名古屋市瑞穂区,関取町４４番地Ｃ棟,,23,108,4670058,,,,,,,2022-04-07,1,,,,,シーコート,0
484,2180001150766,新規,0,2022-04-07,2022-04-07,株式会社レジスタンス・ソル,,株式会社,愛知県,北名古屋市,加島新田南田面２１６番地スパイクナード１０２号,,23,234,4810044,,,,,,,2022-04-07,1,,,,,レジスタンスソル,0
488,2180301036087,新規,0,2022-04-07,2022-04-07,株式会社ＳＬＹＤＥ,,株式会社,愛知県,豊川市,松原町南貝津２５番地６,,23,207,4411221,,,,,,,2022-04-07,1,,,,,スライド,0
493,2190003003946,新規,0,2022-04-07,2022-04-07,あんしんサービス合同会社,,合同会社,三重県,鈴鹿市,竹野２丁目１８番５号ダイアパレス三日市７０３号室,,24,207,5130025,,,,,,,2022-04-07,1,,,,,アンシンサービス,0
496,2200001039957,新規,0,2022-04-07,2022-04-07,桜伎ベルト株式会社,,株式会社,岐阜県,加茂郡坂祝町,黒岩８９１番地５,,21,501,5050071,,,,,,,2022-04-07,1,,,,,オウギベルト,0
505,2240001059547,新規,0,2022-04-07,2022-04-07,株式会社ゑにし屋,,株式会社,広島県,三次市,十日市東４丁目１番３０号サングリーン２Ｆ,,34,209,7280013,,,,,,,2022-04-07,1,,,,,エニシヤ,0
506,2240003005581,新規,0,2022-04-07,2022-04-07,合同会社平本商店,,合同会社,広島県,三原市,本郷南６丁目２４－２７,,34,204,7290417,,,,,,,2022-04-07,1,,,,,ヒラモトショウテン,0
507,2240005015372,新規,0,2022-04-07,2022-04-07,一般社団法人棚田開墾モリモリ倶楽部,,その他の設立登記法人,広島県,安芸高田市,八千代町上根１１７１番地,,34,214,7310305,,,,,,,2022-04-07,1,,,,,タナダカイコンモリモリクラブ,0
513,2260001036734,新規,0,2022-04-07,2022-04-07,株式会社ミムラ,,株式会社,岡山県,岡山市南区,福富中１丁目１６番１３－３号,,33,104,7028032,,,,,,,2022-04-07,1,,,,,ミムラ,0
517,2290001097047,新規,0,2022-04-07,2022-04-07,株式会社リノ．ハウス,,株式会社,福岡県,福岡市早良区,賀茂２丁目２０番３０号,,40,137,8140164,,,,,,,2022-04-07,1,,,,,リノハウス,0
518,2290001097071,新規,0,2022-04-07,2022-04-07,ｙａｎｏ工業株式会社,,株式会社,福岡県,糟屋郡志免町,桜丘３丁目５番７号,,40,343,8112201,,,,,,,2022-04-07,1,,,,,ヤノコウギョウ,0
519,2290001097088,新規,0,2022-04-07,2022-04-07,ＫＳＳ株式会社,,株式会社,福岡県,福岡市博多区,中呉服町１－２２吉田善平商店ビル４０１号,,40,132,8120035,,,,,,,2022-04-07,1,,,,,ケイエスエス,0
520,2290001097121,新規,0,2022-04-07,2022-04-07,株式会社ユーウォント,,株式会社,福岡県,久留米市,東合川３丁目７番２６号,,40,203,8390809,,,,,,,2022-04-07,1,,,,,ユーウォント,0
523,2290003012359,新規,0,2022-04-07,2022-04-07,センチュリーホテル合同会社,,合同会社,福岡県,朝倉市,板屋２番地１,,40,228,8380027,,,,,,,2022-04-07,1,,,,,センチュリーホテル,0
526,2290005018627,新規,0,2022-04-07,2022-04-07,医療法人Ｈｅａｒｔ＆Ｌｉｆｅ,,その他の設立登記法人,福岡県,福岡市城南区,荒江１丁目１８番８号,,40,136,8140101,,,,,,,2022-04-07,1,,,,,ハートアンドライフ,0
528,2300001012870,新規,0,2022-04-07,2022-04-07,株式会社中山鉄工所分割準備会社,,株式会社,佐賀県,武雄市,朝日町大字甘久２２４６番地１,,41,206,8430001,,,,,,,2022-04-07,1,,,,,ナカヤマテッコウショブンカツジュンビガイシャ,0
534,2320001018998,新規,0,2022-04-07,2022-04-07,株式会社ｍｏｔｈｅｒ　ｓｈｉｐ,,株式会社,大分県,中津市,大字加来２２８３番地６５４,,44,203,8710152,,,,,,,2022-04-07,1,,,,,マザーシップ,0
535,2320001019006,新規,0,2022-04-07,2022-04-07,令和エアーテック株式会社,,株式会社,大分県,杵築市,大字守江１３６６番地１３,,44,210,8730033,,,,,,,2022-04-07,1,,,,,レイワエアーテック,0
539,2330001029598,新規,0,2022-04-07,2022-04-07,株式会社喜多川,,株式会社,熊本県,宇土市,築籠町１２１番地２０,,43,211,8690408,,,,,,,2022-04-07,1,,,,,キタガワ,0
540,2330001029623,新規,0,2022-04-07,2022-04-07,株式会社ワイズビスポーク,,株式会社,熊本県,熊本市北区,飛田３丁目５番８号,,43,105,8615514,,,,,,,2022-04-07,1,,,,,ワイズビスポーク,0
543,2330003009318,新規,0,2022-04-07,2022-04-07,合同会社Ｆｅｅｌ　Ｅａｓｙ,,合同会社,熊本県,熊本市西区,田崎２丁目３番８６－１０３号,,43,103,8600053,,,,,,,2022-04-07,1,,,,,フィールイージー,0
545,2350001017675,新規,0,2022-04-07,2022-04-07,株式会社マツシタ電器,,株式会社,宮崎県,宮崎市,和知川原２丁目１３１番地,,45,201,8800023,,,,,,,2022-04-07,1,,,,,マツシタデンキ,0
546,2370001048396,新規,0,2022-04-07,2022-04-07,株式会社ホンダクリーニング仙台,,株式会社,宮城県,仙台市宮城野区,岩切１丁目１番４０号,,04,102,9830821,,,,,,,2022-04-07,1,,,,,ホンダクリーニングセンダイ,0
547,2370001048405,新規,0,2022-04-07,2022-04-07,みうら商事株式会社,,株式会社,宮城県,気仙沼市,本吉町後田５８番地５,,04,205,9880261,,,,,,,2022-04-07,1,,,,,ミウラショウジ,0
561,2410001013148,新規,0,2022-04-07,2022-04-07,株式会社ＢＭＳ大館,,株式会社,秋田県,大館市,御成町４丁目５番２０号,,05,204,0170044,,,,,,,2022-04-07,1,,,,,ビーエムエスオオダテ,0
562,2420001017791,新規,0,2022-04-07,2022-04-07,三共リース株式会社,,株式会社,青森県,八戸市,沼館１丁目１５番１２号,,02,203,0310071,,,,,,,2022-04-07,1,,,,,サンキョウリース,0
566,2430001086324,新規,0,2022-04-07,2022-04-07,株式会社やのプリント,,株式会社,北海道,札幌市白石区,北郷七条８丁目８番８号,,01,104,0030837,,,,,,,2022-04-07,1,,,,,ヤノプリント,0
574,2460101007177,新規,0,2022-04-07,2022-04-07,株式会社Ｓｍｉｌｅ,,株式会社,北海道,帯広市,依田町４４番地１,,01,207,0800817,,,,,,,2022-04-07,1,,,,,スマイル,0
575,2460103001442,新規,0,2022-04-07,2022-04-07,合同会社ｍａｎａｓｏｂｉ,,合同会社,北海道,帯広市,西五条北４丁目１番地１,,01,207,0800035,,,,,,,2022-04-07,1,,,,,マナソビ,0
586,2500005008481,新規,0,2022-04-07,2022-04-07,ＮＰＯ法人リブラ,,その他の設立登記法人,愛媛県,松山市,余戸南４丁目１０番３８号,,38,201,7900047,,,,,,,2022-04-07,1,,,,,リブラ,0
595,3010005034808,新規,0,2022-04-07,2022-04-07,社会保険労務士法人金綱事務所,,その他の設立登記法人,東京都,千代田区,神田小川町３丁目１１番,,13,101,1010052,,,,,,,2022-04-07,1,,,,,カネツナジムショ,0
596,3010005034832,新規,0,2022-04-07,2022-04-07,行政書士法人みなも,,その他の設立登記法人,東京都,千代田区,三番町２０番地２三番町パークライフ５０３号,,13,101,1020075,,,,,,,2022-04-07,1,,,,,ミナモ,0
601,3010401166576,新規,0,2022-04-07,2022-04-07,Ｄｕｃｋ・Ｉｎｖｅｓｔｍｅｎｔ株式会社,,株式会社,東京都,港区,麻布十番１丁目３番８号,,13,103,1060045,,,,,,,2022-04-07,1,,,,,ダックインヴェストメント,0
602,3010401166618,新規,0,2022-04-07,2022-04-07,株式会社Ｅｘｏｄｉａ,,株式会社,東京都,港区,東麻布１丁目２８番３号ＳＱＵＡＲＥＡＺＡＢＵ８０３,,13,103,1060044,,,,,,,2022-04-07,1,,,,,エクゾディア,0
603,3010401166650,新規,0,2022-04-07,2022-04-07,株式会社Ａｃｃｅｌ　Ｉｎｎｏｖａｔｉｏｎ,,株式会社,東京都,港区,南青山２丁目２番１５号ＷＩＮ青山５３１,,13,103,1070062,,,,,,,2022-04-07,1,,,,,アクセルイノベーション,0
604,3010401166691,新規,0,2022-04-07,2022-04-07,株式会社Ｓｉｇｍａ,,株式会社,東京都,港区,虎ノ門１丁目５番９号,,13,103,1050001,,,,,,,2022-04-07,1,,,,,シグマ,0
606,3010403027388,新規,0,2022-04-07,2022-04-07,Ｍａｎａｂｉｅ　Ｊａｐａｎ合同会社,,合同会社,東京都,港区,虎ノ門１丁目１０番５号,,13,103,1050001,,,,,,,2022-04-07,1,,,,,マナビージャパン,0
607,3010403027413,新規,0,2022-04-07,2022-04-07,ＲＢソーラータウン合同会社,,合同会社,東京都,港区,虎ノ門３丁目２２番１０－２０１号,,13,103,1050001,,,,,,,2022-04-07,1,,,,,アールビーソーラータウン,0
617,3010701042477,新規,0,2022-04-07,2022-04-07,株式会社Ｍｅｄｓｍｉｌｅｒｓ,,株式会社,東京都,品川区,戸越３丁目１１番１０－７０１号,,13,109,1420041,,,,,,,2022-04-07,1,,,,,メドスマイラーズ,0
618,3010703006182,新規,0,2022-04-07,2022-04-07,テレス合同会社,,合同会社,東京都,品川区,北品川４丁目８番５号,,13,109,1400001,,,,,,,2022-04-07,1,,,,,テレス,0
624,3010901050651,新規,0,2022-04-07,2022-04-07,株式会社ＴＩＮＫ,,株式会社,東京都,世田谷区,池尻３丁目１番１－６０４号,,13,112,1540001,,,,,,,2022-04-07,1,,,,,ティンク,0
630,3011001146720,新規,0,2022-04-07,2022-04-07,株式会社ＷＥ,,株式会社,東京都,渋谷区,笹塚２丁目３７番５号,,13,113,1510073,,,,,,,2022-04-07,1,,,,,ウィー,0
631,3011001146737,新規,0,2022-04-07,2022-04-07,株式会社ＬｅｔｔｅｒＭｅ,,株式会社,東京都,渋谷区,神宮前６丁目２３番４号桑野ビル２階,,13,113,1500001,,,,,,,2022-04-07,1,,,,,レターミー,0
632,3011003014462,新規,0,2022-04-07,2022-04-07,ｄａｒｗｉｎｚｆｉｎｃｈ合同会社,,合同会社,東京都,渋谷区,神宮前６丁目２３番４号桑野ビル２階,,13,113,1500001,,,,,,,2022-04-07,1,,,,,ダーウィンズフィンチ,0
642,3011501027908,新規,0,2022-04-07,2022-04-07,株式会社ＵＳ　ＨＯＵＳＩＮＧ,,株式会社,東京都,北区,赤羽３丁目６番４号,,13,117,1150045,,,,,,,2022-04-07,1,,,,,ユーエスハウジング,0
643,3011505002460,新規,0,2022-04-07,2022-04-07,一般社団法人育み舎,,その他の設立登記法人,東京都,荒川区,南千住１丁目５４番３号,,13,118,1160003,,,,,,,2022-04-07,1,,,,,ハグクミシャ,0
651,3012401039035,新規,0,2022-04-07,2022-04-07,株式会社ムサコ,,株式会社,東京都,小金井市,本町２丁目１７番１９号,,13,210,1840004,,,,,,,2022-04-07,1,,,,,ムサコ,0
652,3012401039043,新規,0,2022-04-07,2022-04-07,モノアースアンドカンパニー株式会社,,株式会社,東京都,調布市,柴崎２丁目３７番地６１,,13,208,1820014,,,,,,,2022-04-07,1,,,,,モノアースアンドカンパニー,0
654,3012801021501,新規,0,2022-04-07,2022-04-07,株式会社テクリア,,株式会社,東京都,昭島市,拝島町１丁目１７番１６号,,13,207,1960002,,,,,,,2022-04-07,1,,,,,テクリア,0
657,3013301048910,新規,0,2022-04-07,2022-04-07,株式会社４７ｐａｒｔｎｅｒｓ,,株式会社,東京都,豊島区,東池袋３丁目１番１号サンシャイン６０－４５階,,13,116,1700013,,,,,,,2022-04-07,1,,,,,フォーセブンパートナーズ,0
662,3020001145995,新規,0,2022-04-07,2022-04-07,株式会社ＷＡＬＡ,,株式会社,神奈川県,川崎市宮前区,有馬９丁目５－１５,,14,136,2160003,,,,,,,2022-04-07,1,,,,,ワラ,0
666,3020003021526,新規,0,2022-04-07,2022-04-07,ラビニアインターナショナル合同会社,,合同会社,神奈川県,横浜市中区,山下町３７番地８グローリオタワー横浜元町２００８号室,,14,104,2310023,,,,,,,2022-04-07,1,,,,,ラビニアインターナショナル,0
667,3020005015468,新規,0,2022-04-07,2022-04-07,医療法人やすらぎ,,その他の設立登記法人,神奈川県,横浜市中区,尾上町３丁目２８番地横浜国際ビル２階,,14,104,2310015,,,,,,,2022-04-07,1,,,,,ヤスラギ,0
673,3021001075588,新規,0,2022-04-07,2022-04-07,株式会社アクシオム,,株式会社,神奈川県,相模原市中央区,宮下１丁目１番２０号,,14,152,2520212,,,,,,,2022-04-07,1,,,,,アクシオム,0
674,3021001075596,新規,0,2022-04-07,2022-04-07,株式会社Ｓカルテット,,株式会社,神奈川県,藤沢市,亀井野１９１番地,,14,205,2520813,,,,,,,2022-04-07,1,,,,,エスカルテット,0
675,3021003011566,新規,0,2022-04-07,2022-04-07,マリンライフコンピューター合同会社,,合同会社,神奈川県,中郡大磯町,国府本郷２０５番地の６,,14,341,2590111,,,,,,,2022-04-07,1,,,,,マリンライフコンピューター,0
680,3030001147520,新規,0,2022-04-07,2022-04-07,株式会社祐興業,,株式会社,埼玉県,志木市,本町５丁目２３番２４号第３吉本ビル４階４３０号室,,11,228,3530004,,,,,,,2022-04-07,1,,,,,タスクコウギョウ,0
681,3030001147545,新規,0,2022-04-07,2022-04-07,株式会社ＣＳＡコーポレーション,,株式会社,埼玉県,川口市,西川口１丁目９番８－３０６号スカイコート西川口第５,,11,203,3320021,,,,,,,2022-04-07,1,,,,,シーエスエーコーポレーション,0
682,3030001147553,新規,0,2022-04-07,2022-04-07,株式会社楽酒,,株式会社,埼玉県,志木市,下宗岡３丁目２０番３１号,,11,228,3530003,,,,,,,2022-04-07,1,,,,,ラッシュ,0
684,3030003019156,新規,0,2022-04-07,2022-04-07,ライトシップソリューション合同会社,,合同会社,埼玉県,さいたま市見沼区,東大宮２丁目３３番地２８,,11,104,3370051,,,,,,,2022-04-07,1,,,,,ライトシップソリューション,0
693,3040001122877,新規,0,2022-04-07,2022-04-07,株式会社栄進総合設備,,株式会社,千葉県,柏市,大井１４６番地５５,,12,217,2770902,,,,,,,2022-04-07,1,,,,,エイシンソウゴウセツビ,0
694,3040001122893,新規,0,2022-04-07,2022-04-07,株式会社登健,,株式会社,千葉県,松戸市,小金原４丁目２４番地の１０,,12,207,2700021,,,,,,,2022-04-07,1,,,,,トケン,0
697,3050003006474,新規,0,2022-04-07,2022-04-07,合同会社アルアス,,合同会社,茨城県,結城市,大字結城１３８７５番地,,08,207,3070001,,,,,,,2022-04-07,1,,,,,アルアス,0
702,3060001034708,新規,0,2022-04-07,2022-04-07,株式会社グルホナビ,,株式会社,栃木県,宇都宮市,下砥上町１４２８－１,,09,201,3200852,,,,,,,2022-04-07,1,,,,,グルホナビ,0
703,3060001034724,新規,0,2022-04-07,2022-04-07,ＨＡＩＤＥＲ　ＴＲＡＤＥＲＳ株式会社,,株式会社,栃木県,栃木市,大平町富田１９４番地２ファミール樹Ａ１０１,,09,203,3294404,,,,,,,2022-04-07,1,,,,,ハイダートレーダーズ,0
704,3060001034740,新規,0,2022-04-07,2022-04-07,株式会社ＺＥＲＯテック,,株式会社,栃木県,鹿沼市,樅山町４２９番地３,,09,205,3220046,,,,,,,2022-04-07,1,,,,,ゼロテック,0
705,3060003004015,新規,0,2022-04-07,2022-04-07,合同会社ＡＫメディカル,,合同会社,栃木県,矢板市,木幡７０７番地２,,09,211,3292142,,,,,,,2022-04-07,1,,,,,エーケーメディカル,0
709,3080001024871,新規,0,2022-04-07,2022-04-07,株式会社松づくり藤枝,,株式会社,静岡県,藤枝市,瀬戸新屋３３番地の５,,22,214,4260075,,,,,,,2022-04-07,1,,,,,マツヅクリフジエダ,0
713,3080403004505,新規,0,2022-04-07,2022-04-07,合同会社ベストブレーン浜松,,合同会社,静岡県,浜松市浜北区,内野台４丁目６番地２号,,22,136,4340045,,,,,,,2022-04-07,1,,,,,ベストブレーンハママツ,0
720,3110001036558,新規,0,2022-04-07,2022-04-07,株式会社ニュータウンホームズ,,株式会社,新潟県,新潟市東区,古湊町１番１７号,,15,102,9500044,,,,,,,2022-04-07,1,,,,,ニュータウンホームズ,0
731,3120001244861,新規,0,2022-04-07,2022-04-07,株式会社鍛冶屋商店,,株式会社,大阪府,大阪市浪速区,湊町１丁目２番１７－３１０２号,,27,111,5560017,,,,,,,2022-04-07,1,,,,,カジヤショウテン,0
732,3120001244903,新規,0,2022-04-07,2022-04-07,株式会社ＮＳＫ,,株式会社,大阪府,大阪市住吉区,万代５丁目１３番１９号,,27,120,5580055,,,,,,,2022-04-07,1,,,,,エヌエスケー,0
733,3120001244911,新規,0,2022-04-07,2022-04-07,株式会社電響社分割準備会社,,株式会社,大阪府,大阪市浪速区,難波中２丁目１０番７０号,,27,111,5560011,,,,,,,2022-04-07,1,,,,,デンキョウシャブンカツジュンビガイシャ,0
734,3120001244936,新規,0,2022-04-07,2022-04-07,株式会社オフィスセブン,,株式会社,大阪府,大阪市北区,西天満４丁目９番２号西天満ビル２０７号,,27,127,5300047,,,,,,,2022-04-07,1,,,,,オフィスセブン,0
735,3120001244985,新規,0,2022-04-07,2022-04-07,株式会社Ｎ．Ｔ　ｃｏｍｐａｎｙ,,株式会社,大阪府,大阪市中央区,谷町７丁目４番３１号大南ビル３階Ｄ号室,,27,128,5420012,,,,,,,2022-04-07,1,,,,,エヌティカンパニー,0
736,3120001244993,新規,0,2022-04-07,2022-04-07,コスモスキャピタル株式会社,,株式会社,大阪府,大阪市阿倍野区,阪南町５丁目４番２８号,,27,119,5450021,,,,,,,2022-04-07,1,,,,,コスモスキャピタル,0
737,3120001245026,新規,0,2022-04-07,2022-04-07,株式会社三原色,,株式会社,大阪府,大阪市北区,豊崎３丁目１６番１６号,,27,127,5310072,,,,,,,2022-04-07,1,,,,,サンゲンショク,0
738,3120001245050,新規,0,2022-04-07,2022-04-07,株式会社ＦＥＲＮＡ,,株式会社,大阪府,大阪市城東区,新喜多東２丁目２番２３－１４０７号,,27,118,5360017,,,,,,,2022-04-07,1,,,,,フェルナ,0
739,3120001245059,新規,0,2022-04-07,2022-04-07,ＹｏｇａｓｔｕｄｉｏＣＯＮＳＵＬＴＩＮＧ株式会社,,株式会社,大阪府,大阪市北区,中之島６丁目１番３８－４５１３号,,27,127,5300005,,,,,,,2022-04-07,1,,,,,ヨガスタジオコンサルティング,0
740,3120001245067,新規,0,2022-04-07,2022-04-07,ＤＥＳＴＩＮＯ株式会社,,株式会社,大阪府,大阪市北区,天神橋４丁目１２－１８,,27,127,5300041,,,,,,,2022-04-07,1,,,,,デスティーノ,0
741,3120001245083,新規,0,2022-04-07,2022-04-07,株式会社ｈ．ｍ．ｃ　ＪＡＰＡＮ,,株式会社,大阪府,大阪市北区,堂島２丁目１番２５－６１０号堂島アーバンライフ,,27,127,5300003,,,,,,,2022-04-07,1,,,,,エイチエムシージャパン,0
742,3120001245091,新規,0,2022-04-07,2022-04-07,株式会社エネイブル,,株式会社,大阪府,守口市,金田町３丁目１６番１号,,27,209,5700011,,,,,,,2022-04-07,1,,,,,エネイブル,0
745,3120003021441,新規,0,2022-04-07,2022-04-07,合同会社杭全興産,,合同会社,大阪府,大阪市平野区,平野上町１丁目２番４号,,27,126,5470045,,,,,,,2022-04-07,1,,,,,クマタコウサン,0
748,3120101065357,新規,0,2022-04-07,2022-04-07,株式会社ＹＴＣ,,株式会社,大阪府,岸和田市,三田町７０３番地の１４,,27,202,5960808,,,,,,,2022-04-07,1,,,,,ワイティーシー,0
749,3120103004635,新規,0,2022-04-07,2022-04-07,合同会社ＮＡＯ企画,,合同会社,大阪府,堺市堺区,竜神橋町２丁１番２２－３０１号,,27,141,5900972,,,,,,,2022-04-07,1,,,,,ナオキカク,0
750,3120105009541,新規,0,2022-04-07,2022-04-07,一般社団法人傍楽,,その他の設立登記法人,大阪府,羽曳野市,羽曳が丘西４丁目５番４８号,,27,222,5830865,,,,,,,2022-04-07,1,,,,,ハタラク,0
752,3120901045830,新規,0,2022-04-07,2022-04-07,オークスワン株式会社,,株式会社,大阪府,豊中市,新千里西町２丁目２２番３－３１１,,27,203,5600083,,,,,,,2022-04-07,1,,,,,オークスワン,0
753,3120903004099,新規,0,2022-04-07,2022-04-07,合同会社葉,,合同会社,大阪府,高槻市,芥川町３丁目２番２４号,,27,207,5691123,,,,,,,2022-04-07,1,,,,,ヨウ,0
766,3140001125507,新規,0,2022-04-07,2022-04-07,株式会社ＵＶＣ,,株式会社,兵庫県,明石市,人丸町２番１９号,,28,203,6730877,,,,,,,2022-04-07,1,,,,,ユーブイシー,0
767,3140001125523,新規,0,2022-04-07,2022-04-07,株式会社ＭＡＸコーポレーション,,株式会社,兵庫県,神戸市中央区,北長狭通２丁目５番９号グランドプラザトーア２Ｆ,,28,110,6500012,,,,,,,2022-04-07,1,,,,,マックスコーポレーション,0
768,3140001125548,新規,0,2022-04-07,2022-04-07,株式会社足立電気,,株式会社,兵庫県,明石市,二見町東二見１２８５－１,,28,203,6740092,,,,,,,2022-04-07,1,,,,,アダチデンキ,0
769,3140001125556,新規,0,2022-04-07,2022-04-07,株式会社Ｎ．Ｆ．Ｌ．,,株式会社,兵庫県,神戸市長田区,宮川町１丁目１４番３号,,28,106,6530813,,,,,,,2022-04-07,1,,,,,エヌエフエル,0
772,3150003002661,新規,0,2022-04-07,2022-04-07,合同会社ケアセンターあかね,,合同会社,奈良県,天理市,櫟本町２０７１番地８,,29,204,6320004,,,,,,,2022-04-07,1,,,,,ケアセンターアカネ,0
775,3160001024087,新規,0,2022-04-07,2022-04-07,株式会社ＳＲＫスマイル,,株式会社,滋賀県,大津市,富士見台３８－７６,,25,201,5200846,,,,,,,2022-04-07,1,,,,,エスアールケイスマイル,0
776,3160001024095,新規,0,2022-04-07,2022-04-07,株式会社Ｒｅａｃｈ・Ｈｏｌｄｉｎｇｓ,,株式会社,滋賀県,大津市,御殿浜２番３０号,,25,201,5200834,,,,,,,2022-04-07,1,,,,,リーチホールディングス,0
777,3160001024104,新規,0,2022-04-07,2022-04-07,株式会社Ｌ．ＡＣＴｉｖｅ,,株式会社,滋賀県,大津市,石山寺３丁目１８番１２－３０５号,,25,201,5200861,,,,,,,2022-04-07,1,,,,,エルアクティブ,0
778,3160003002537,新規,0,2022-04-07,2022-04-07,合同会社ジャパンレガシー,,合同会社,滋賀県,大津市,坂本７丁目５番１号,,25,201,5200113,,,,,,,2022-04-07,1,,,,,ジャパンレガシー,0
779,3160005011073,新規,0,2022-04-07,2022-04-07,一般社団法人鈴鹿１０座エコツアーガイドクラブ,,その他の設立登記法人,滋賀県,東近江市,蓼畑町５１０番地,,25,213,5270207,,,,,,,2022-04-07,1,,,,,スズカジュウザエコツアーガイドクラブ,0
785,3180001150740,新規,0,2022-04-07,2022-04-07,株式会社長友電気,,株式会社,愛知県,知多郡武豊町,大字冨貴字寺西１９番地３,,23,447,4702531,,,,,,,2022-04-07,1,,,,,ナガトモデンキ,0
786,3180001150757,新規,0,2022-04-07,2022-04-07,合法レバ刺し株式会社,,株式会社,愛知県,名古屋市昭和区,恵方町３丁目１６番地グランドメゾン桜山Ｄ－２号,,23,107,4660037,,,,,,,2022-04-07,1,,,,,ゴウホウレバサシ,0
787,3180001150765,新規,0,2022-04-07,2022-04-07,株式会社フルコネクト,,株式会社,愛知県,名古屋市中村区,椿町１３－１６サン・オフィス名駅新幹線口４階４０８号室,,23,105,4530015,,,,,,,2022-04-07,1,,,,,フルコネクト,0
792,3180301036078,新規,0,2022-04-07,2022-04-07,株式会社ＭＩＫ,,株式会社,愛知県,豊田市,美山町１丁目１０２番地１－３０５号,,23,211,4710849,,,,,,,2022-04-07,1,,,,,エムアイケー,0
793,3180301036086,新規,0,2022-04-07,2022-04-07,株式会社トラスト,,株式会社,愛知県,豊川市,明野町３丁目１番地２,,23,207,4420887,,,,,,,2022-04-07,1,,,,,トラスト,0
796,3190001029298,新規,0,2022-04-07,2022-04-07,実幸工業株式会社,,株式会社,三重県,四日市市,大字泊村１０５０番地１００,,24,202,5100894,,,,,,,2022-04-07,1,,,,,ミサチコウギョウ,0
798,3200001039956,新規,0,2022-04-07,2022-04-07,株式会社伊縫建築設計事務所,,株式会社,岐阜県,岐阜市,大福町３丁目１２ＡＣＣＥＳＳビル１Ａ,,21,201,5020934,,,,,,,2022-04-07,1,,,,,イヌイケンチクセッケイジムショ,0
800,3200005013321,新規,0,2022-04-07,2022-04-07,一般社団法人可児ＵＮＩＣスポーツクラブ,,その他の設立登記法人,岐阜県,可児市,谷迫間８０６番地２,,21,214,5090242,,,,,,,2022-04-07,1,,,,,カニユニックスポーツクラブ,0
804,3210003001491,新規,0,2022-04-07,2022-04-07,Ｔアセットマネジメント合同会社,,合同会社,福井県,鯖江市,丸山町２丁目２番１２号,,18,207,9160019,,,,,,,2022-04-07,1,,,,,ティーアセットマネジメント,0
808,3230005009218,新規,0,2022-04-07,2022-04-07,医療法人社団エルラトン,,その他の設立登記法人,富山県,富山市,上大久保９２７番地１,,16,201,9392252,,,,,,,2022-04-07,1,,,,,エルラトン,0
816,3240001059595,新規,0,2022-04-07,2022-04-07,株式会社Ａ‐ＷＯＲＫＳ,,株式会社,広島県,福山市,神辺町大字新湯野５番地４,,34,207,7202122,,,,,,,2022-04-07,1,,,,,エーワークス,0
819,3250001019490,新規,0,2022-04-07,2022-04-07,坂田産業株式会社,,株式会社,山口県,長門市,深川湯本２５２５番地１,,35,211,7594103,,,,,,,2022-04-07,1,,,,,サカタサンギョウ,0
821,3260001036725,新規,0,2022-04-07,2022-04-07,フィットコンサルティング株式会社,,株式会社,岡山県,岡山市北区,今７丁目２４番１８号今七丁目ビル２階,,33,101,7000975,,,,,,,2022-04-07,1,,,,,フィットコンサルティング,0
825,3260003003871,新規,0,2022-04-07,2022-04-07,オフィスショウエイ合同会社,,合同会社,岡山県,倉敷市,鶴形２丁目６番１７号横田ビル２Ｆ,,33,202,7100056,,,,,,,2022-04-07,1,,,,,オフィスショウエイ,0
829,3290001097005,新規,0,2022-04-07,2022-04-07,イードル株式会社,,株式会社,福岡県,福岡市早良区,百道浜３丁目８番３３号,,40,137,8140001,,,,,,,2022-04-07,1,,,,,イードル,0
830,3290001097137,新規,0,2022-04-07,2022-04-07,株式会社クローステール,,株式会社,福岡県,福岡市東区,香椎駅前５－３－２１プリスティン香椎５０３,,40,131,8130000,,,,,,,2022-04-07,1,,,,,クローステール,0
834,3290003012374,新規,0,2022-04-07,2022-04-07,合同会社Ｌａｒｃｈ,,合同会社,福岡県,大野城市,上大利２丁目９番８号１０２号,,40,219,8160955,,,,,,,2022-04-07,1,,,,,ラーチ,0
836,3290005018626,新規,0,2022-04-07,2022-04-07,一般社団法人Ａｃｔｅｌｌｕｓ,,その他の設立登記法人,福岡県,福岡市東区,和白３丁目９番２２－２０５号,,40,131,8110202,,,,,,,2022-04-07,1,,,,,アクテラス,0
846,3330001029589,新規,0,2022-04-07,2022-04-07,株式会社ラコンタ,,株式会社,熊本県,熊本市東区,尾ノ上１丁目６番１８号,,43,102,8620913,,,,,,,2022-04-07,1,,,,,ラコンタ,0
849,3340001024622,新規,0,2022-04-07,2022-04-07,株式会社ＧＣ・ＮｅｗＥｎｅｒｇｙ,,株式会社,鹿児島県,鹿児島市,中央町６番地１,,46,201,8900053,,,,,,,2022-04-07,1,,,,,,0
856,3360003011922,新規,0,2022-04-07,2022-04-07,合同会社ａｉｔａｒｕ,,合同会社,沖縄県,那覇市,若狭１丁目２１－７－１０２,,47,201,9000031,,,,,,,2022-04-07,1,,,,,アイタル,0
859,3370005010467,新規,0,2022-04-07,2022-04-07,一般社団法人ｆａｃｉｌ,,その他の設立登記法人,宮城県,仙台市太白区,山田本町１６番１号,,04,104,9820816,,,,,,,2022-04-07,1,,,,,ファーシル,0
863,3380005012561,新規,0,2022-04-07,2022-04-07,一般社団法人大玉村農業振興公社,,その他の設立登記法人,福島県,安達郡大玉村,大山字谷地１１６番地４,,07,322,9691301,,,,,,,2022-04-07,1,,,,,オオタマムラノウギョウシンコウコウシャ,0
869,3410001013147,新規,0,2022-04-07,2022-04-07,株式会社成直,,株式会社,秋田県,鹿角市,十和田大湯字赤川９８番地,,05,209,0185421,,,,,,,2022-04-07,1,,,,,ナリナオ,0
871,3410003003633,新規,0,2022-04-07,2022-04-07,ＡＩＯ　Ｍｅｄｉａ合同会社,,合同会社,秋田県,山本郡八峰町,峰浜畑谷字川端６７―２,,05,349,0182512,,,,,,,2022-04-07,1,,,,,エーアイオーメディア,0
872,3410003003641,新規,0,2022-04-07,2022-04-07,秋田能代・三種・男鹿オフショアウィンド合同会社,,合同会社,秋田県,秋田市,中通５丁目１番５１号,,05,201,0100001,,,,,,,2022-04-07,1,,,,,アキタノシロミタネオガオフショアウィンド,0
874,3430001086323,新規,0,2022-04-07,2022-04-07,株式会社ボデガで洞爺,,株式会社,北海道,虻田郡洞爺湖町,成香７８,,01,584,0495832,,,,,,,2022-04-07,1,,,,,ボデガデトウヤ,0
875,3430001086364,新規,0,2022-04-07,2022-04-07,株式会社端解,,株式会社,北海道,江別市,上江別南町１５番地の５,,01,217,0670062,,,,,,,2022-04-07,1,,,,,バタカイ,0
880,3460101007176,新規,0,2022-04-07,2022-04-07,株式会社Ｒｏａｄ　ｒｕｎｎｅｒ,,株式会社,北海道,帯広市,依田町４４番地１,,01,207,0800817,,,,,,,2022-04-07,1,,,,,ロードランナー,0
881,3460103001441,新規,0,2022-04-07,2022-04-07,合同会社石田工業,,合同会社,北海道,河西郡芽室町,東一条南２丁目１番地１５,,01,637,0820051,,,,,,,2022-04-07,1,,,,,イシダコウギョウ,0
893,3500001024127,新規,0,2022-04-07,2022-04-07,スピカエージェント株式会社,,株式会社,愛媛県,新居浜市,坂井町３丁目６番９号,,38,205,7920812,,,,,,,2022-04-07,1,,,,,スピカエージェント,0
894,3500001024135,新規,0,2022-04-07,2022-04-07,株式会社Ｃｏｚｃｍ,,株式会社,愛媛県,松山市,山越町４２３－５,,38,201,7918014,,,,,,,2022-04-07,1,,,,,コズコム,0
901,4010005034807,新規,0,2022-04-07,2022-04-07,一般財団法人東京三田倶楽部,,その他の設立登記法人,東京都,千代田区,内幸町１丁目１番１号,,13,101,1000011,,,,,,,2022-04-07,1,,,,,トウキョウミタクラブ,0
903,4010101015132,新規,0,2022-04-07,2022-04-07,株式会社アルティザン,,株式会社,東京都,八王子市,大塚２４０番地１３１,,13,201,1920352,,,,,,,2022-04-07,1,,,,,アルティザン,0
909,4010401166583,新規,0,2022-04-07,2022-04-07,株式会社Ｇａｃｈａｃｏ,,株式会社,東京都,港区,港南１丁目８番１５号,,13,103,1080075,,,,,,,2022-04-07,1,,,,,ガチャコ,0
910,4010401166591,新規,0,2022-04-07,2022-04-07,株式会社コネクトアラウンド,,株式会社,東京都,港区,新橋４丁目１番１号,,13,103,1050004,,,,,,,2022-04-07,1,,,,,コネクトアラウンド,0
911,4010401166617,新規,0,2022-04-07,2022-04-07,株式会社千代田商事,,株式会社,東京都,港区,南青山２丁目２番１５号,,13,103,1070062,,,,,,,2022-04-07,1,,,,,チヨダショウジ,0
915,4010403027412,新規,0,2022-04-07,2022-04-07,ＲＢソーラーヒル合同会社,,合同会社,東京都,港区,虎ノ門３丁目２２番１０－２０１号,,13,103,1050001,,,,,,,2022-04-07,1,,,,,アールビーソーラーヒル,0
916,4010601060941,新規,0,2022-04-07,2022-04-07,株式会社ＭＩＹＡＫＯ,,株式会社,東京都,江東区,森下１丁目１３番２号クレヴィア森下駅前１３０２,,13,108,1350004,,,,,,,2022-04-07,1,,,,,ミヤコ,0
922,4010901050618,新規,0,2022-04-07,2022-04-07,株式会社ＫＯＡＬＡ,,株式会社,東京都,世田谷区,宇奈根２丁目２０番１７号,,13,112,1570068,,,,,,,2022-04-07,1,,,,,コアラ,0
923,4010901050650,新規,0,2022-04-07,2022-04-07,株式会社鈴木,,株式会社,東京都,世田谷区,宮坂２丁目２５番６号,,13,112,1560051,,,,,,,2022-04-07,1,,,,,スズキ,0
924,4010905004297,新規,0,2022-04-07,2022-04-07,一般財団法人ＴＨＥ　ＤＥＳＩＧＮ　ＳＣＩＥＮＣＥ　ＦＯＵＮＤＡＴＩＯＮ,,その他の設立登記法人,東京都,世田谷区,新町１丁目２８番４号,,13,112,1540014,,,,,,,2022-04-07,1,,,,,ザデザインサイエンスファンデーション,0
930,4011001146728,新規,0,2022-04-07,2022-04-07,株式会社モパエステート,,株式会社,東京都,目黒区,中目黒１丁目４番２０－５０７号,,13,110,1530061,,,,,,,2022-04-07,1,,,,,モパエステート,0
931,4011001146736,新規,0,2022-04-07,2022-04-07,株式会社うるとら,,株式会社,東京都,渋谷区,東２丁目２６－１６渋谷ＨＡＮＡビル３Ｆ,,13,113,1500011,,,,,,,2022-04-07,1,,,,,ウルトラ,0
932,4011001146819,新規,0,2022-04-07,2022-04-07,株式会社Ｋｅｙ　Ｓｐｙｋｅｒ,,株式会社,東京都,渋谷区,神宮前６丁目２３番４号桑野ビル２階,,13,113,1500001,,,,,,,2022-04-07,1,,,,,キースパイカー,0
934,4011003014437,新規,0,2022-04-07,2022-04-07,合同会社ラベンダーベラー,,合同会社,東京都,渋谷区,神泉町２０－２１,,13,113,1500045,,,,,,,2022-04-07,1,,,,,ラベンダーベラー,0
941,4011101098448,新規,0,2022-04-07,2022-04-07,株式会社柔軟クリエイティブカンパニー,,株式会社,東京都,新宿区,百人町１丁目１３番１号,,13,104,1690073,,,,,,,2022-04-07,1,,,,,ジュウナンクリエイティブカンパニー,0
943,4011103011648,新規,0,2022-04-07,2022-04-07,ＯＣＴＯ　ＴＥＬＥＭＡＴＩＣＳ　ＪＡＰＡＮ合同会社,,合同会社,東京都,新宿区,西新宿１丁目２０番３号西新宿高木ビル,,13,104,1600023,,,,,,,2022-04-07,1,,,,,オクトテレマティックスジャパン,0
945,4011301027693,新規,0,2022-04-07,2022-04-07,株式会社エール,,株式会社,東京都,杉並区,高円寺北３丁目３３番１６号,,13,115,1660002,,,,,,,2022-04-07,1,,,,,エール,0
947,4011501027907,新規,0,2022-04-07,2022-04-07,株式会社ＨＩＲＯＤＥＮ,,株式会社,東京都,北区,中十条３丁目２番９－３０１号,,13,117,1140032,,,,,,,2022-04-07,1,,,,,ヒロデン,0
951,4011503005118,新規,0,2022-04-07,2022-04-07,八八合同会社,,合同会社,東京都,荒川区,荒川３丁目６－４,,13,118,1160002,,,,,,,2022-04-07,1,,,,,ハパチ,0
952,4011601025868,新規,0,2022-04-07,2022-04-07,株式会社静工業,,株式会社,東京都,練馬区,田柄５丁目９番６－１０１号,,13,120,1790073,,,,,,,2022-04-07,1,,,,,シズコウギョウ,0
965,4012803002746,新規,0,2022-04-07,2022-04-07,合同会社番頭屋本舗,,合同会社,東京都,国立市,西１丁目９番地の４２,,13,215,1860005,,,,,,,2022-04-07,1,,,,,バントウヤホンポ,0
967,4013301048901,新規,0,2022-04-07,2022-04-07,オーサム株式会社,,株式会社,東京都,豊島区,東池袋４丁目２１番１－２００１号,,13,116,1700013,,,,,,,2022-04-07,1,,,,,オーサム,0
968,4013303006106,新規,0,2022-04-07,2022-04-07,花のみやこ合同会社,,合同会社,東京都,豊島区,池袋本町４丁目３４－４,,13,116,1700011,,,,,,,2022-04-07,1,,,,,ハナノミヤコ,0
969,4013305003332,新規,0,2022-04-07,2022-04-07,一般社団法人中小企業産学官連携センター,,その他の設立登記法人,東京都,豊島区,東池袋２丁目１番１３号,,13,116,1700013,,,,,,,2022-04-07,1,,,,,チュウショウキギョウサンガクカンレンケイセンター,0
974,4020001145945,新規,0,2022-04-07,2022-04-07,碧屋株式会社,,株式会社,神奈川県,川崎市川崎区,小川町１５番地１３,,14,131,2100023,,,,,,,2022-04-07,1,,,,,ミドリヤ,0
975,4020001146002,新規,0,2022-04-07,2022-04-07,株式会社惠日舎,,株式会社,神奈川県,横浜市西区,紅葉ケ丘１番地１横濱紅葉坂レジデンス３－３０５号,,14,103,2200044,,,,,,,2022-04-07,1,,,,,ケイジツシャ,0
979,4021001075604,新規,0,2022-04-07,2022-04-07,株式会社Ｂｏ,,株式会社,神奈川県,小田原市,城山１丁目６－８０－４０２,,14,206,2500045,,,,,,,2022-04-07,1,,,,,ボー,0
980,4021001075612,新規,0,2022-04-07,2022-04-07,ＥＦＵＮテクノロジージャパン株式会社,,株式会社,神奈川県,厚木市,中町３丁目２番６号厚木Ｔビル６Ｆ－Ｂ,,14,212,2430018,,,,,,,2022-04-07,1,,,,,イーファンテクノロジージャパン,0
981,4021001075629,新規,0,2022-04-07,2022-04-07,Ｚコンサルティング株式会社,,株式会社,神奈川県,秦野市,千村４丁目１０番５５号,,14,211,2591324,,,,,,,2022-04-07,1,,,,,ゼットコンサルティング,0
982,4021001075653,新規,0,2022-04-07,2022-04-07,株式会社手塚組,,株式会社,神奈川県,高座郡寒川町,宮山２８８５番地８,,14,321,2530106,,,,,,,2022-04-07,1,,,,,テヅカグミ,0
987,4030001147593,新規,0,2022-04-07,2022-04-07,株式会社Ｃａｓａｎｅｌ,,株式会社,埼玉県,上尾市,谷津１丁目８番３３号,,11,219,3620042,,,,,,,2022-04-07,1,,,,,カサネル,0
988,4030001147619,新規,0,2022-04-07,2022-04-07,株式会社長谷川塗装,,株式会社,埼玉県,久喜市,菖蒲町小林１２８０番地１,,11,232,3460115,,,,,,,2022-04-07,1,,,,,ハセガワトソウ,0
989,4030001147627,新規,0,2022-04-07,2022-04-07,株式会社Ｋ‐Ｌｉｎｅ,,株式会社,埼玉県,越谷市,大間野町４丁目１８２番地４,,11,222,3430844,,,,,,,2022-04-07,1,,,,,ケイライン,0
996,4040001122843,新規,0,2022-04-07,2022-04-07,ＨＯＮＥＹ　ＢＥＥ株式会社,,株式会社,千葉県,千葉市稲毛区,園生町３９１番地２９サマックス・サカエ２０２号,,12,103,2630051,,,,,,,2022-04-07,1,,,,,ハニービー,0
997,4040001122868,新規,0,2022-04-07,2022-04-07,八千代企画株式会社,,株式会社,千葉県,八千代市,ゆりのき台３丁目４番地エルプレシア９１６号,,12,221,2760042,,,,,,,2022-04-07,1,,,,,ヤチヨキカク,0
998,4040001122884,新規,0,2022-04-07,2022-04-07,株式会社イプシロン,,株式会社,千葉県,流山市,松ケ丘５丁目６６６番地の３,,12,220,2700141,,,,,,,2022-04-07,1,,,,,イプシロン,0
999,4040001122918,新規,0,2022-04-07,2022-04-07,株式会社風加園,,株式会社,千葉県,野田市,桜の里２丁目５番地の９４,,12,208,2780048,,,,,,,2022-04-07,1,,,,,フウカエン,0
1000,4040001122926,新規,0,2022-04-07,2022-04-07,株式会社アキバ,,株式会社,千葉県,八街市,八街ほ２１１番地１９１,,12,230,2891115,,,,,,,2022-04-07,1,,,,,アキバ,0
1004,4040003019815,新規,0,2022-04-07,2022-04-07,合同会社じばこぱま,,合同会社,千葉県,船橋市,藤原６丁目１２番５号,,12,204,2730047,,,,,,,2022-04-07,1,,,,,ジバコパマ,0
1005,4040005021570,新規,0,2022-04-07,2022-04-07,学校法人帝南学園,,その他の設立登記法人,千葉県,長生郡長南町,米満１０１,,12,427,2970112,,,,,,,2022-04-07,1,,,,,テイナンガクエン,0
1018,4060001034731,新規,0,2022-04-07,2022-04-07,株式会社ナカノ商店,,株式会社,栃木県,佐野市,小中町１０９６番地２,,09,204,3270001,,,,,,,2022-04-07,1,,,,,ナカノショウテン,0
1023,4060003004014,新規,0,2022-04-07,2022-04-07,日進エンタープライズ合同会社,,合同会社,栃木県,真岡市,荒町３丁目５番地５,,09,209,3214305,,,,,,,2022-04-07,1,,,,,ニッシンエンタープライズ,0
1026,4070001039127,新規,0,2022-04-07,2022-04-07,株式会社バイタルトップ,,株式会社,群馬県,高崎市,下大類町９３４番地１,,10,202,3700034,,,,,,,2022-04-07,1,,,,,バイタルトップ,0
1029,4070003004442,新規,0,2022-04-07,2022-04-07,奏合同会社,,合同会社,群馬県,伊勢崎市,羽黒町４－６,,10,204,3720844,,,,,,,2022-04-07,1,,,,,カナデ,0
1034,4080103002568,新規,0,2022-04-07,2022-04-07,合同会社Ｂコーポレーション,,合同会社,静岡県,沼津市,下香貫島郷２６３６番地の２メゾンファミリア沼津２０１,,22,203,4100822,,,,,,,2022-04-07,1,,,,,ビーコーポレーション,0
1036,4080401025725,新規,0,2022-04-07,2022-04-07,ＫＪプラント株式会社,,株式会社,静岡県,浜松市東区,薬師町４６６番地の１,,22,132,4350017,,,,,,,2022-04-07,1,,,,,ケイジェイプラント,0
1037,4080401025733,新規,0,2022-04-07,2022-04-07,株式会社ミダックライナー,,株式会社,静岡県,浜松市東区,有玉南町２１６３番地,,22,132,4313122,,,,,,,2022-04-07,1,,,,,ミダックライナー,0
1039,4090001017519,新規,0,2022-04-07,2022-04-07,株式会社Ｈａｓｅｎ,,株式会社,山梨県,山梨市,三富下荻原１２０番地,,19,205,4040203,,,,,,,2022-04-07,1,,,,,ハセン,0
1043,4110001036549,新規,0,2022-04-07,2022-04-07,株式会社ＮＳ,,株式会社,新潟県,新潟市中央区,紫竹１丁目２１番７号,,15,103,9500864,,,,,,,2022-04-07,1,,,,,エヌエス,0
1047,4120001244844,新規,0,2022-04-07,2022-04-07,株式会社ＳＴＭ,,株式会社,大阪府,枚方市,須山町２０番９ー２号,,27,210,5731164,,,,,,,2022-04-07,1,,,,,エスティーエム,0
1048,4120001244902,新規,0,2022-04-07,2022-04-07,株式会社ＡＣＮ近畿,,株式会社,大阪府,大阪市中央区,城見２丁目１番６１号,,27,128,5400001,,,,,,,2022-04-07,1,,,,,エーシーエヌキンキ,0
1049,4120001244919,新規,0,2022-04-07,2022-04-07,Ｆｉｂｏｎａｃｃｉ株式会社,,株式会社,大阪府,大阪市中央区,本町橋６番２１号,,27,128,5400029,,,,,,,2022-04-07,1,,,,,フィボナッチ,0
1050,4120001244935,新規,0,2022-04-07,2022-04-07,株式会社現,,株式会社,大阪府,大阪市都島区,都島北通１丁目１番１６号セントアミー都島１００２号,,27,102,5340014,,,,,,,2022-04-07,1,,,,,ゲン,0
1051,4120001244951,新規,0,2022-04-07,2022-04-07,株式会社ぱん・ぼっくす,,株式会社,大阪府,大阪市城東区,関目３丁目４番４号,,27,118,5360008,,,,,,,2022-04-07,1,,,,,パンボックス,0
1052,4120001244984,新規,0,2022-04-07,2022-04-07,ソレーア株式会社,,株式会社,大阪府,大阪市中央区,松屋町９番２０号ローレルステート松屋町３０１Ａ,,27,128,5420067,,,,,,,2022-04-07,1,,,,,ソレーア,0
1053,4120001245017,新規,0,2022-04-07,2022-04-07,株式会社たぬ吉資格塾,,株式会社,大阪府,大阪市中央区,上汐１丁目１－３ｈｕｉｔ・ａｒｂｒｅ上町台７０５号,,27,128,5420064,,,,,,,2022-04-07,1,,,,,タヌキチシカクジュク,0
1054,4120001245041,新規,0,2022-04-07,2022-04-07,ワイネットシステム株式会社,,株式会社,大阪府,大阪市北区,中津１丁目２－３中津清風ビル５０２,,27,127,5310071,,,,,,,2022-04-07,1,,,,,ワイネットシステム,0
1055,4120001245074,新規,0,2022-04-07,2022-04-07,ライフサポート株式会社,,株式会社,大阪府,大阪市東淀川区,東中島１丁目１４番２９－１１１０号,,27,114,5330033,,,,,,,2022-04-07,1,,,,,ライフサポート,0
1056,4120001245108,新規,0,2022-04-07,2022-04-07,ｌｉｖｅ　ｗｉｔｈ　ｐｅｔｓ株式会社,,株式会社,大阪府,大阪市東住吉区,針中野３丁目１０番２５号,,27,121,5460011,,,,,,,2022-04-07,1,,,,,ライブウィズペッツ,0
1057,4120003021399,新規,0,2022-04-07,2022-04-07,Ｃ＆Ｍ　Ｌａｎｋａ　Ｅｎｔｅｒｐｒｉｓｅｓ合同会社,,合同会社,大阪府,大阪市都島区,中野町５丁目１３番３－４００８号,,27,102,5340027,,,,,,,2022-04-07,1,,,,,シーアンドエムランカエンタープライズ,0
1061,4120005022882,新規,0,2022-04-07,2022-04-07,一般社団法人日本土地管財,,その他の設立登記法人,大阪府,大阪市東住吉区,鷹合２丁目１２番１９号,,27,121,5460014,,,,,,,2022-04-07,1,,,,,ニホントチカンザイ,0
1062,4120101065323,新規,0,2022-04-07,2022-04-07,株式会社関西水設,,株式会社,大阪府,堺市美原区,太井３６０番地１８,,27,147,5870062,,,,,,,2022-04-07,1,,,,,カンサイスイセツ,0
1063,4120101065348,新規,0,2022-04-07,2022-04-07,株式会社アトリエ・グリーン,,株式会社,大阪府,松原市,高見の里３丁目１３番３号,,27,217,5800021,,,,,,,2022-04-07,1,,,,,アトリエグリーン,0
1067,4120105009540,新規,0,2022-04-07,2022-04-07,一般社団法人Ｔｅｘｔｉｌｅ　Ｃｉｒｃｕｌａｒ　Ｎｅｔｗｏｒｋ,,その他の設立登記法人,大阪府,泉大津市,旭町１７番２４号,,27,206,5950025,,,,,,,2022-04-07,1,,,,,テキスタイルサーキュラーネットワーク,0
1082,4140001125489,新規,0,2022-04-07,2022-04-07,株式会社マルデン,,株式会社,兵庫県,姫路市,網干区高田２６７番地１,,28,201,6711226,,,,,,,2022-04-07,1,,,,,マルデン,0
1083,4140001125547,新規,0,2022-04-07,2022-04-07,未来Ｔａｂｌｅ株式会社,,株式会社,兵庫県,姫路市,青山北１丁目１６番５号,,28,201,6712221,,,,,,,2022-04-07,1,,,,,ミライテーブル,0
1084,4140001125571,新規,0,2022-04-07,2022-04-07,かわの商店株式会社,,株式会社,兵庫県,尼崎市,塚口本町３丁目３２番２０号３１１,,28,202,6610001,,,,,,,2022-04-07,1,,,,,カワノショウテン,0
1086,4140003017536,新規,0,2022-04-07,2022-04-07,笑ん合同会社,,合同会社,兵庫県,神戸市西区,玉津町出合４６２番地１０１号,,28,111,6512137,,,,,,,2022-04-07,1,,,,,エン,0
1087,4140003017552,新規,0,2022-04-07,2022-04-07,ライスクリエーション合同会社,,合同会社,兵庫県,尼崎市,武庫元町２丁目１９番１号,,28,202,6610043,,,,,,,2022-04-07,1,,,,,ライスクリエーション,0
1090,4160001024086,新規,0,2022-04-07,2022-04-07,小澤建設株式会社,,株式会社,滋賀県,長浜市,木之本町木之本２０５５番地２,,25,203,5290425,,,,,,,2022-04-07,1,,,,,コザワケンセツ,0
1091,4160001024094,新規,0,2022-04-07,2022-04-07,株式会社優建設,,株式会社,滋賀県,甲賀市,水口町宇川１１９３番地,,25,209,5280052,,,,,,,2022-04-07,1,,,,,ユウケンセツ,0
1092,4160001024103,新規,0,2022-04-07,2022-04-07,株式会社竹中造園,,株式会社,滋賀県,東近江市,栄町２番１８号,,25,213,5270027,,,,,,,2022-04-07,1,,,,,タケナカゾウエン,0
1093,4160003002528,新規,0,2022-04-07,2022-04-07,合同会社見廻組,,合同会社,滋賀県,大津市,浜大津３丁目４番８号,,25,201,5200047,,,,,,,2022-04-07,1,,,,,ミマワリグミ,0
1094,4160003002536,新規,0,2022-04-07,2022-04-07,ＢｅＴｅｃｋ合同会社,,合同会社,滋賀県,栗東市,綣２丁目２番３４－１００９号,,25,208,5203031,,,,,,,2022-04-07,1,,,,,ビーテック,0
1103,4180001150681,新規,0,2022-04-07,2022-04-07,株式会社アイル,,株式会社,愛知県,一宮市,伝法寺４丁目１１番２２号,,23,203,4910828,,,,,,,2022-04-07,1,,,,,アイル,0
1104,4180001150723,新規,0,2022-04-07,2022-04-07,株式会社サンクスアクティビティ,,株式会社,愛知県,丹羽郡大口町,下小口４丁目７６番地,,23,361,4800144,,,,,,,2022-04-07,1,,,,,サンクスアクティビティ,0
1105,4180001150764,新規,0,2022-04-07,2022-04-07,ティッピングポイント株式会社,,株式会社,愛知県,名古屋市名東区,亀の井３丁目５０番地,,23,115,4650094,,,,,,,2022-04-07,1,,,,,ティッピングポイント,0
1106,4180001150797,新規,0,2022-04-07,2022-04-07,ＩＮＳＰＩＲＡＴＩＯＮ株式会社,,株式会社,愛知県,名古屋市中区,栄５丁目２６番４号,,23,106,4600008,,,,,,,2022-04-07,1,,,,,インスピレーション,0
1108,4180003023679,新規,0,2022-04-07,2022-04-07,Ｗｉｎｎｅｒ合同会社,,合同会社,愛知県,名古屋市千種区,内山１丁目２番１号,,23,101,4640075,,,,,,,2022-04-07,1,,,,,ウィナー,0
1109,4180003023687,新規,0,2022-04-07,2022-04-07,合同会社ＮＥＷ　ＲＯＵＴＥ,,合同会社,愛知県,江南市,江森町上１３２番地,,23,217,4838041,,,,,,,2022-04-07,1,,,,,ニュールート,0
1110,4180003023704,新規,0,2022-04-07,2022-04-07,合同会社コスモス,,合同会社,愛知県,名古屋市北区,楠味鋺３丁目２３３５番地,,23,103,4620014,,,,,,,2022-04-07,1,,,,,コスモス,0
1113,4180301036069,新規,0,2022-04-07,2022-04-07,株式会社春風,,株式会社,愛知県,北設楽郡東栄町,大字下田字金紫１８番地１１,,23,562,4490206,,,,,,,2022-04-07,1,,,,,ハルカゼ,0
1114,4180301036077,新規,0,2022-04-07,2022-04-07,クレードリアルエステート株式会社,,株式会社,愛知県,岡崎市,上佐々木町字中切８番地１０,,23,202,4440936,,,,,,,2022-04-07,1,,,,,クレードリアルエステート,0
1115,4180301036085,新規,0,2022-04-07,2022-04-07,株式会社ＡＲＭＳ,,株式会社,愛知県,岡崎市,上和田町字切戸２０番地ケントスクエア１階南,,23,202,4440201,,,,,,,2022-04-07,1,,,,,アームズ,0
1116,4180305009327,新規,0,2022-04-07,2022-04-07,一般社団法人高橋スポーツクラブ,,その他の設立登記法人,愛知県,豊田市,高橋町３丁目１００番地の１,,23,211,4710019,,,,,,,2022-04-07,1,,,,,タカハシスポーツクラブ,0
1123,4200003005526,新規,0,2022-04-07,2022-04-07,Ｎ＆Ｙ合同会社,,合同会社,岐阜県,中津川市,昭和町５番１１号,,21,206,5080044,,,,,,,2022-04-07,1,,,,,エヌアンドワイ,0
1124,4200003005534,新規,0,2022-04-07,2022-04-07,合同会社ＬＥ．ＢＹＬ,,合同会社,岐阜県,多治見市,滝呂町４丁目３７番地の９,,21,204,5070813,,,,,,,2022-04-07,1,,,,,リビル,0
1128,4220003003255,新規,0,2022-04-07,2022-04-07,合同会社北陸つどいフォーラム,,合同会社,石川県,金沢市,駅西本町２丁目１２番３７号西大ビル１Ｆ,,17,201,9200025,,,,,,,2022-04-07,1,,,,,ホクリクツドイフォーラム,0
1132,4230005009217,新規,0,2022-04-07,2022-04-07,あとり相続税理士法人,,その他の設立登記法人,富山県,富山市,問屋町２丁目３番７号,,16,201,9300834,,,,,,,2022-04-07,1,,,,,アトリソウゾク,0
1136,4240001059537,新規,0,2022-04-07,2022-04-07,株式会社たかや鮨,,株式会社,広島県,広島市南区,宇品御幸３丁目１３番１－１号,,34,103,7340015,,,,,,,2022-04-07,1,,,,,タカヤズシ,0
1137,4240001059586,新規,0,2022-04-07,2022-04-07,株式会社トラストカンパニー,,株式会社,広島県,東広島市,西条町上三永７７３番地６,,34,212,7390022,,,,,,,2022-04-07,1,,,,,トラストカンパニー,0
1138,4240001059594,新規,0,2022-04-07,2022-04-07,株式会社Ｄ．ｆａｒｍ,,株式会社,広島県,安芸郡海田町,日の出町１番９号,,34,304,7360035,,,,,,,2022-04-07,1,,,,,ディーファーム,0
1139,4240001059603,新規,0,2022-04-07,2022-04-07,株式会社ＳＡＴＳＵＫＩ,,株式会社,広島県,広島市南区,宇品西４丁目４番３６－８０１号,,34,103,7340014,,,,,,,2022-04-07,1,,,,,サツキ,0
1141,4250001019481,新規,0,2022-04-07,2022-04-07,ベルちゃんたちのおうち株式会社,,株式会社,山口県,下関市,菊川町大字久野１０５５６番地の３,,35,201,7500324,,,,,,,2022-04-07,1,,,,,ベルチャンタチノオウチ,0
1143,4260001036724,新規,0,2022-04-07,2022-04-07,株式会社Ｒｅ．Ｐｒｏｐｅｒｔｙ,,株式会社,岡山県,倉敷市,田ノ上１１２８番地６,,33,202,7100831,,,,,,,2022-04-07,1,,,,,リプロパティ,0
1151,4290001097086,新規,0,2022-04-07,2022-04-07,株式会社ＳＭＴ,,株式会社,福岡県,糟屋郡粕屋町,大字柚須６２番地１,,40,349,8112305,,,,,,,2022-04-07,1,,,,,エスエムティ,0
1152,4290001097144,新規,0,2022-04-07,2022-04-07,株式会社ＫＥＮＺ　ＣＯＲＰＯＲＡＴＩＯＮ,,株式会社,福岡県,朝倉市,須川２４２９番地３,,40,228,8381304,,,,,,,2022-04-07,1,,,,,ケンズコーポレーション,0
1154,4290003012373,新規,0,2022-04-07,2022-04-07,合同会社Ｓｈｉｏｎ,,合同会社,福岡県,八女市,黒木町今４４６番地１アルバライズグリシーナｕｎｏ１０１,,40,210,8341221,,,,,,,2022-04-07,1,,,,,シオン,0
1162,4320001019004,新規,0,2022-04-07,2022-04-07,株式会社山共設備,,株式会社,大分県,日田市,大字庄手５５１番地,,44,204,8770000,,,,,,,2022-04-07,1,,,,,サンキョウセツビ,0
1163,4330001029588,新規,0,2022-04-07,2022-04-07,株式会社アゼリアソフト,,株式会社,熊本県,菊池郡大津町,大字室５２９番地３,,43,403,8691235,,,,,,,2022-04-07,1,,,,,,0
1167,4340001024638,新規,0,2022-04-07,2022-04-07,オフィスＣＯＣＯカラ株式会社,,株式会社,鹿児島県,鹿児島市,吉野町２９２８番地２７グランドパレス吉野ＩＩ１０１号,00126184,46,201,8920871,,,,,,,2022-04-07,1,,,,,オフィスココカラ,0
1169,4340003003755,新規,0,2022-04-07,2022-04-07,合同会社海と月,,合同会社,鹿児島県,鹿児島市,下荒田４丁目８番２０号,,46,201,8900056,,,,,,,2022-04-07,1,,,,,ウミトツキ,0
1170,4340005009437,新規,0,2022-04-07,2022-04-07,一般社団法人ＳＵＰＥＲＩＯスポーツコミッション,,その他の設立登記法人,鹿児島県,垂水市,田神２２９１番地,,46,214,8912104,,,,,,,2022-04-07,1,,,,,,0
1171,4350001017681,新規,0,2022-04-07,2022-04-07,株式会社ＥＧ,,株式会社,宮崎県,宮崎市,大字郡司分乙１１８６番地２,,45,201,8800924,,,,,,,2022-04-07,1,,,,,イージー,0
1173,4360001030196,新規,0,2022-04-07,2022-04-07,株式会社ＥＧＧＳ,,株式会社,沖縄県,浦添市,城間１丁目２番地１,,47,208,9012133,,,,,,,2022-04-07,1,,,,,エッグズ,0
1174,4370001048428,新規,0,2022-04-07,2022-04-07,株式会社ウィズアップ,,株式会社,宮城県,仙台市宮城野区,五輪１丁目１１番１３－２号,,04,102,9830842,,,,,,,2022-04-07,1,,,,,ウィズアップ,0
1175,4370003005641,新規,0,2022-04-07,2022-04-07,合同会社ＬＵＮＥＴＴＡ,,合同会社,宮城県,仙台市青葉区,中央４丁目８番１７号小林ビル１Ｆ,,04,101,9800021,,,,,,,2022-04-07,1,,,,,ルネッタ,0
1187,4380005012560,新規,0,2022-04-07,2022-04-07,一般社団法人福島県精神保健福祉士会,,その他の設立登記法人,福島県,福島市,丸子字上川原２８番地の７３,,07,201,9600111,,,,,,,2022-04-07,1,,,,,フクシマケンセイシンホケンフクシシカイ,0
1189,4400001015853,新規,0,2022-04-07,2022-04-07,株式会社大新,,株式会社,岩手県,一関市,萩荘字下中田３７番地,,03,209,0210902,,,,,,,2022-04-07,1,,,,,ダイシン,0
1194,4410001013138,新規,0,2022-04-07,2022-04-07,高橋商事株式会社,00126190,株式会社,秋田県,男鹿市,船越字内子２９４番地２０６６,,05,206,0100341,,,,,,,2022-04-07,1,,,,,タカハシショウジ,0
1195,4410003003640,新規,0,2022-04-07,2022-04-07,秋田由利本荘オフショアウィンド合同会社,,合同会社,秋田県,秋田市,中通５丁目１番５１号,,05,201,0100001,,,,,,,2022-04-07,1,,,,,アキタユリホンジョウオフショアウィンド,0
1198,4420003002492,新規,0,2022-04-07,2022-04-07,合同会社はまなす,,合同会社,青森県,平川市,岩館下り松２０１番地１,,02,210,0360145,,,,,,,2022-04-07,1,,,,,ハマナス,0
1199,4430001086363,新規,0,2022-04-07,2022-04-07,株式会社ソラピア,,株式会社,北海道,札幌市清田区,北野二条２丁目７番２６号,,01,110,0040862,,,,,,,2022-04-07,1,,,,,ソラピア,0
1201,4440001009059,新規,0,2022-04-07,2022-04-07,株式会社コンテック,,株式会社,北海道,北斗市,本町１丁目５番３号,,01,236,0411201,,,,,,,2022-04-07,1,,,,,コンテック,0
1203,4460101007175,新規,0,2022-04-07,2022-04-07,株式会社Ｆｕｉｓｅ,,株式会社,北海道,帯広市,依田町４４番地１,,01,207,0800817,,,,,,,2022-04-07,1,,,,,フェイス,0
1206,4460103001440,新規,0,2022-04-07,2022-04-07,合同会社大樹町エネルギー公社,,合同会社,北海道,広尾郡大樹町,東本通３３番地,,01,641,0892134,,,,,,,2022-04-07,1,,,,,タイキチョウエネルギーコウシャ,0
1211,4480003001811,新規,0,2022-04-07,2022-04-07,栄町食品合同会社,,合同会社,徳島県,徳島市,栄町５丁目１４番地,,36,201,7700921,,,,,,,2022-04-07,1,,,,,サカエマチショクヒン,0
1212,4480005006899,新規,0,2022-04-07,2022-04-07,特定非営利活動法人コミュナール,,その他の設立登記法人,徳島県,鳴門市,撫養町南浜字東浜３２番地１９,,36,202,7720003,,,,,,,2022-04-07,1,,,,,コミュナール,0
1215,4490001010152,新規,0,2022-04-07,2022-04-07,株式会社ホットガレージ,,株式会社,高知県,高知市,長浜１０６１番地,,39,201,7810270,,,,,,,2022-04-07,1,,,,,ホットガレージ,0
1222,5010001225623,新規,0,2022-04-07,2022-04-07,株式会社ＥＬ,,株式会社,東京都,千代田区,神田平河町１番地第３東ビル５階,,13,101,1010027,,,,,,,2022-04-07,1,,,,,エル,0
1223,5010001225714,新規,0,2022-04-07,2022-04-07,株式会社東京チャンネル９,,株式会社,東京都,千代田区,麹町１丁目１２番地,,13,101,1020083,,,,,,,2022-04-07,1,,,,,トウキョウチャンネルナイン,0
1227,5010101015131,新規,0,2022-04-07,2022-04-07,ＳＫＹホールディング株式会社,,株式会社,東京都,八王子市,石川町２９６８番地２１,,13,201,1920032,,,,,,,2022-04-07,1,,,,,スカイホールディング,0
1232,5010401166599,新規,0,2022-04-07,2022-04-07,株式会社Ｔａｋｕｍｉ,,株式会社,東京都,港区,西麻布１丁目１１番１０号ビルマーサ１階,,13,103,1060031,,,,,,,2022-04-07,1,,,,,タクミ,0
1233,5010401166616,新規,0,2022-04-07,2022-04-07,株式会社ロットネスト,,株式会社,東京都,港区,白金台２丁目２７番７－１０３号,,13,103,1080071,,,,,,,2022-04-07,1,,,,,ロットネスト,0
1236,5010503006554,新規,0,2022-04-07,2022-04-07,ピボット合同会社,,合同会社,東京都,台東区,東上野２丁目１番１３－２０３号,,13,106,1100015,,,,,,,2022-04-07,1,,,,,ピボット,0
1239,5010601060924,新規,0,2022-04-07,2022-04-07,株式会社Ｌｉｖｉｎｇｒｏｏｔ,,株式会社,東京都,墨田区,石原１丁目４１番１５号,,13,107,1300011,,,,,,,2022-04-07,1,,,,,リビングルート,0
1241,5010603009481,新規,0,2022-04-07,2022-04-07,ウィリング市場開拓合同会社,,合同会社,東京都,江東区,潮見２丁目９番１６号スクエア潮見８０１,,13,108,1350052,,,,,,,2022-04-07,1,,,,,ウィリングシジョウカイタク,0
1242,5010703006180,新規,0,2022-04-07,2022-04-07,ＷＩＮ‐ＤＹ合同会社,,合同会社,東京都,品川区,東大井４丁目６－５－７０１,,13,109,1400011,,,,,,,2022-04-07,1,,,,,ウィンディ,0
1247,5010901050658,新規,0,2022-04-07,2022-04-07,ｉｎｔｅｒｒｏｏｔ株式会社,,株式会社,東京都,世田谷区,三軒茶屋１丁目３１番３号,,13,112,1540024,,,,,,,2022-04-07,1,,,,,インタールート,0
1248,5010905004296,新規,0,2022-04-07,2022-04-07,一般財団法人絹谷幸二美術財団,,その他の設立登記法人,東京都,世田谷区,成城４丁目６番１５号,,13,112,1570066,,,,,,,2022-04-07,1,,,,,キヌタニコウジビジュツザイダン,0
1256,5011001146719,新規,0,2022-04-07,2022-04-07,株式会社ディレクターズＨＤ,,株式会社,東京都,渋谷区,渋谷３丁目２７番１１号,,13,113,1500002,,,,,,,2022-04-07,1,,,,,ディレクターズホールディングス,0
1257,5011001146727,新規,0,2022-04-07,2022-04-07,株式会社ＬＡＭＥＤＩＡ,,株式会社,東京都,渋谷区,渋谷２丁目１９番１５号宮益坂ビルディング６０９,,13,113,1500002,,,,,,,2022-04-07,1,,,,,ラメディア,0
1258,5011001146801,新規,0,2022-04-07,2022-04-07,株式会社かに吉,,株式会社,東京都,目黒区,緑が丘２丁目２５番１７号,,13,110,1520034,,,,,,,2022-04-07,1,,,,,カニキチ,0
1259,5011003014469,新規,0,2022-04-07,2022-04-07,フラッグシップ合同会社,,合同会社,東京都,渋谷区,神宮前６丁目２３番４号桑野ビル２階,,13,113,1500001,,,,,,,2022-04-07,1,,,,,フラッグシップ,0
1265,5011101098414,新規,0,2022-04-07,2022-04-07,ＢＳＣホールディングス株式会社,,株式会社,東京都,新宿区,西新宿１丁目２６番２号新宿野村ビル１４Ｆ,,13,104,1600023,,,,,,,2022-04-07,1,,,,,ビーエスシーホールディングス,0
1266,5011101098447,新規,0,2022-04-07,2022-04-07,株式会社ラリアット,,株式会社,東京都,新宿区,下落合２丁目３番１８号ＳＫビルＫ棟３Ｆ,,13,104,1610033,,,,,,,2022-04-07,1,,,,,ラリアット,0
1267,5011103011639,新規,0,2022-04-07,2022-04-07,レッド・リボソーム新宿合同会社,,合同会社,東京都,新宿区,北新宿２丁目６－２０ヴェラハイツ新宿７０６,,13,104,1690074,,,,,,,2022-04-07,1,,,,,レッドリボソームシンジュク,0
1270,5011401024136,新規,0,2022-04-07,2022-04-07,株式会社トリニティスタ,,株式会社,東京都,板橋区,高島平８丁目１５番１号とくしまビル１０２,,13,119,1750082,,,,,,,2022-04-07,1,,,,,トリニティスタ,0
1271,5011401024144,新規,0,2022-04-07,2022-04-07,富岡不動産株式会社,,株式会社,東京都,板橋区,本町１３番１号,,13,119,1730001,,,,,,,2022-04-07,1,,,,,トミオカフドウサン,0
1272,5011501027906,新規,0,2022-04-07,2022-04-07,株式会社ベストコンビ,,株式会社,東京都,荒川区,西日暮里６丁目４１番７－４０５号マンション二葉,,13,118,1160013,,,,,,,2022-04-07,1,,,,,ベストコンビ,0
1273,5011501027922,新規,0,2022-04-07,2022-04-07,エス・ケイ開発株式会社,,株式会社,東京都,北区,豊島５丁目５番８－１２０４号,,13,117,1140003,,,,,,,2022-04-07,1,,,,,エスケイカイハツ,0
1274,5011505002459,新規,0,2022-04-07,2022-04-07,一般社団法人日本学校心理学会,,その他の設立登記法人,東京都,北区,十条台１丁目７番１３号,,13,117,1140033,,,,,,,2022-04-07,1,,,,,ニホンガッコウシンリガッカイ,0
1277,5011701025180,新規,0,2022-04-07,2022-04-07,株式会社Ｖｉｌｌａｇｅ　Ｓｙｓｔｅｍｓ,,株式会社,東京都,江戸川区,本一色３丁目５番５号ツインソシアＡ１０３,,13,123,1330044,,,,,,,2022-04-07,1,,,,,ビレッジシステムズ,0
1280,5012301012940,新規,0,2022-04-07,2022-04-07,株式会社女柳建設,,株式会社,東京都,町田市,小野路町６０番地３,,13,209,1950064,,,,,,,2022-04-07,1,,,,,メヤナギケンセツ,0
1281,5012303001652,新規,0,2022-04-07,2022-04-07,合同会社ＣＲＥＡＴ＆ＩＶＥ,,合同会社,東京都,町田市,小山町２８８,,13,209,1940212,,,,,,,2022-04-07,1,,,,,クリエイティブ,0
1284,5012401039033,新規,0,2022-04-07,2022-04-07,株式会社田村商事,,株式会社,東京都,多摩市,諏訪３丁目５番１号９０７号室,,13,224,2060024,,,,,,,2022-04-07,1,,,,,タムラショウジ,0
1285,5012403005306,新規,0,2022-04-07,2022-04-07,合同会社ｂｕｔｔｅｒ　ｃｕｐ,,合同会社,東京都,稲城市,東長沼３１０７番地の５－２０６号,,13,225,2060802,,,,,,,2022-04-07,1,,,,,バターカップ,0
1287,5013103001124,新規,0,2022-04-07,2022-04-07,ＴＡＧ合同会社,,合同会社,東京都,青梅市,河辺町１０丁目１４番１２号,,13,205,1980036,,,,,,,2022-04-07,1,,,,,タグ,0
1301,5020001145903,新規,0,2022-04-07,2022-04-07,株式会社ＣＵＬＴＵＲＥ　ＡＶＥＮＵＥ,,株式会社,神奈川県,横浜市神奈川区,橋本町２丁目５番地３ＢＷ－３６１０,,14,102,2210053,,,,,,,2022-04-07,1,,,,,,0
1302,5020001145960,新規,0,2022-04-07,2022-04-07,株式会社一塗,,株式会社,神奈川県,横浜市鶴見区,生麦４丁目１３番１８号,,14,101,2300052,,,,,,,2022-04-07,1,,,,,ヒトヌリ,0
1303,5020001145969,新規,0,2022-04-07,2022-04-07,オーパス・エンタープライズ株式会社,,株式会社,神奈川県,川崎市麻生区,下麻生１丁目１４番８－２号,,14,137,2150022,,,,,,,2022-04-07,1,,,,,オーパスエンタープライズ,0
1304,5020001146026,新規,0,2022-04-07,2022-04-07,株式会社池本トータルサービス,,株式会社,神奈川県,川崎市麻生区,五力田２丁目３番３－３０２号,,14,137,2150025,,,,,,,2022-04-07,1,,,,,イケモトトータルサービス,0
1308,5020005015466,新規,0,2022-04-07,2022-04-07,ＮＰＯ法人Ｂｅｔｔｅｒ　Ｗａｙ　Ｌｉｆｅ,,その他の設立登記法人,神奈川県,横浜市旭区,中希望が丘７４番地９,,14,112,2410825,,,,,,,2022-04-07,1,,,,,ベターウエイライフ,0
1311,5021001075628,新規,0,2022-04-07,2022-04-07,エーライズ株式会社,,株式会社,神奈川県,綾瀬市,深谷南３丁目２０番５３号レオパレスアゼリア１０６,,14,218,2521106,,,,,,,2022-04-07,1,,,,,エーライズ,0
1312,5021001075636,新規,0,2022-04-07,2022-04-07,株式会社ｓｆｒｔｈ,,株式会社,神奈川県,藤沢市,本町３丁目１７番１６号,,14,205,2510053,,,,,,,2022-04-07,1,,,,,スフース,0
1315,5021003011523,新規,0,2022-04-07,2022-04-07,巫合同会社,,合同会社,神奈川県,相模原市中央区,鹿沼台２丁目１２番３－８０５号,,14,152,2520233,,,,,,,2022-04-07,1,,,,,カンナギ,0
1316,5021005012478,新規,0,2022-04-07,2022-04-07,一般社団法人ＳＨＵ,,その他の設立登記法人,神奈川県,鎌倉市,笹目町１２番１６号,,14,204,2480015,,,,,,,2022-04-07,1,,,,,エスエイチユー,0
1321,5030001147543,新規,0,2022-04-07,2022-04-07,株式会社開成サービス,,株式会社,埼玉県,さいたま市岩槻区,大字徳力１１８番地５,,11,110,3390004,,,,,,,2022-04-07,1,,,,,カイセイサービス,0
1323,5030003019138,新規,0,2022-04-07,2022-04-07,ＡＳＫソリューション合同会社,,合同会社,埼玉県,さいたま市北区,日進町２丁目１２８５番地４,,11,102,3310823,,,,,,,2022-04-07,1,,,,,エーエスケーソリューション,0
1324,5030003019146,新規,0,2022-04-07,2022-04-07,越谷まるこ合同会社,,合同会社,埼玉県,越谷市,中町７番１７号,,11,222,3430817,,,,,,,2022-04-07,1,,,,,コシガヤマルコ,0
1334,5040001122834,新規,0,2022-04-07,2022-04-07,株式会社崇源,,株式会社,千葉県,市原市,菊間１９５７番地６,,12,219,2900007,,,,,,,2022-04-07,1,,,,,タカモト,0
1335,5040001122941,新規,0,2022-04-07,2022-04-07,株式会社ギルテックス,,株式会社,千葉県,市川市,大町４３１－１ロイヤルプラザ市川大町３０４号室,,12,203,2720801,,,,,,,2022-04-07,1,,,,,ギルテックス,0
1337,5040003019806,新規,0,2022-04-07,2022-04-07,合同会社矢本工業,,合同会社,千葉県,佐倉市,上志津１６６７番地２０,,12,212,2850846,,,,,,,2022-04-07,1,,,,,ヤモトコウギョウ,0
1341,5060001034706,新規,0,2022-04-07,2022-04-07,株式会社荒井電設,,株式会社,栃木県,那須塩原市,高柳１１９番地１０,,09,213,3292707,,,,,,,2022-04-07,1,,,,,アライデンセツ,0
1344,5060003004013,新規,0,2022-04-07,2022-04-07,ヌルク合同会社,,合同会社,栃木県,真岡市,台町２４８１番地,,09,209,3214306,,,,,,,2022-04-07,1,,,,,ヌルク,0
1348,5070001039134,新規,0,2022-04-07,2022-04-07,Ｅ‐ＴＥＣＨ株式会社,,株式会社,群馬県,高崎市,柴崎町１２０４番地３,,10,202,3700035,,,,,,,2022-04-07,1,,,,,イーテック,0
1349,5080001024861,新規,0,2022-04-07,2022-04-07,株式会社ＩＳＭ,,株式会社,静岡県,静岡市清水区,八坂東２丁目１番２１－２号,,22,103,4240024,,,,,,,2022-04-07,1,,,,,イズム,0
1356,5080103002567,新規,0,2022-04-07,2022-04-07,合同会社ウーノ,,合同会社,静岡県,駿東郡長泉町,下土狩３７０番地の１ディアドール長泉８０２号,,22,342,4110943,,,,,,,2022-04-07,1,,,,,ウーノ,0
1361,5090001017518,新規,0,2022-04-07,2022-04-07,ＭＫメンテナンス株式会社,,株式会社,山梨県,甲府市,大和町１番２４号,,19,201,4000072,,,,,,,2022-04-07,1,,,,,エムケイメンテナンス,0
1362,5090003002071,新規,0,2022-04-07,2022-04-07,合同会社野来人,,合同会社,山梨県,山梨市,上神内川１４９２番地,,19,205,4050018,,,,,,,2022-04-07,1,,,,,ノラビト,0
1365,5100001035237,新規,0,2022-04-07,2022-04-07,Ｂｕｄｄｉｅａｔｅ株式会社,,株式会社,長野県,上田市,上野１１００番地３７,,20,203,3860003,,,,,,,2022-04-07,1,,,,,バディエイト,0
1369,5100005012843,新規,0,2022-04-07,2022-04-07,一般社団法人長野県馬術連盟,,その他の設立登記法人,長野県,松本市,大字今井６８８５番地１,,20,202,3901131,,,,,,,2022-04-07,1,,,,,ナガノケンバジュツレンメイ,0
1384,5120001244884,新規,0,2022-04-07,2022-04-07,飛龍国際貿易株式会社,,株式会社,大阪府,大阪市西成区,旭１丁目４番１８号,,27,122,5570032,,,,,,,2022-04-07,1,,,,,ヒリュウコクサイボウエキ,0
1385,5120001244892,新規,0,2022-04-07,2022-04-07,株式会社キュアアンドケアラボ,,株式会社,大阪府,大阪市北区,梅田１丁目１番３－２００号大阪駅前第３ビル２階２８号,,27,127,5300001,,,,,,,2022-04-07,1,,,,,キュアアンドケアラボ,0
1386,5120001244901,新規,0,2022-04-07,2022-04-07,株式会社Ｕｎｃｈａｉｎ,,株式会社,大阪府,門真市,桑才新町１０番６号,,27,223,5710043,,,,,,,2022-04-07,1,,,,,アンチェイン,0
1387,5120001244918,新規,0,2022-04-07,2022-04-07,株式会社オフィスヘッドライン,,株式会社,大阪府,大阪市北区,紅梅町２番１７号,,27,127,5300038,,,,,,,2022-04-07,1,,,,,オフィスヘッドライン,0
1388,5120001244942,新規,0,2022-04-07,2022-04-07,株式会社ミヨシグループ,,株式会社,大阪府,寝屋川市,黒原橘町１８－１,,27,215,5720058,,,,,,,2022-04-07,1,,,,,ミヨシグループ,0
1389,5120001244950,新規,0,2022-04-07,2022-04-07,株式会社ドゥポイント,,株式会社,大阪府,大阪市淀川区,西中島６丁目２番３号,,27,123,5320011,,,,,,,2022-04-07,1,,,,,ドゥポイント,0
1390,5120001244975,新規,0,2022-04-07,2022-04-07,株式会社ＥＬＡＩＮＥ,,株式会社,大阪府,大阪市中央区,南船場４丁目６番１５号,,27,128,5420081,,,,,,,2022-04-07,1,,,,,イレイン,0
1391,5120001244983,新規,0,2022-04-07,2022-04-07,株式会社るり動物病院,,株式会社,大阪府,枚方市,山之上１丁目２番１６号,,27,210,5730047,,,,,,,2022-04-07,1,,,,,ルリドウブツビョウイン,0
1392,5120001245008,新規,0,2022-04-07,2022-04-07,Ｕ＆Ｌコンサルティング株式会社,,株式会社,大阪府,大阪市港区,弁天１丁目３番１３－４３０９号,,27,107,5520007,,,,,,,2022-04-07,1,,,,,ユーアンドエルコンサルティング,0
1393,5120001245016,新規,0,2022-04-07,2022-04-07,株式会社壱信コンサルタント,,株式会社,大阪府,大阪市中央区,材木町１番６号,,27,128,5400010,,,,,,,2022-04-07,1,,,,,イッシンコンサルタント,0
1394,5120001245024,新規,0,2022-04-07,2022-04-07,株式会社ＢＡＲ．ｓ,,株式会社,大阪府,大阪市浪速区,大国１丁目３番１号,,27,111,5560014,,,,,,,2022-04-07,1,,,,,バーズ,0
1395,5120001245049,新規,0,2022-04-07,2022-04-07,株式会社ＳｂＴ,,株式会社,大阪府,大阪市西区,北堀江１丁目１８番１９号シバタハイツ２０１号,,27,106,5500014,,,,,,,2022-04-07,1,,,,,エスビーティー,0
1396,5120001245057,新規,0,2022-04-07,2022-04-07,Ｎａｋａｇａｗａ　Ｃｏｎｓｕｌｔｉｎｇ株式会社,,株式会社,大阪府,大阪市北区,中津１丁目６番３３号,,27,127,5310071,,,,,,,2022-04-07,1,,,,,ナカガワコンサルティング,0
1397,5120001245065,新規,0,2022-04-07,2022-04-07,株式会社蔵屋フードサービス,,株式会社,大阪府,守口市,寺内町２丁目１番２号,,27,209,5700056,,,,,,,2022-04-07,1,,,,,クラヤフードサービス,0
1398,5120001245098,新規,0,2022-04-07,2022-04-07,株式会社Ｋ‐ｇｒｏｕｐ,,株式会社,大阪府,大阪市福島区,吉野２丁目１番２６号,,27,103,5530006,,,,,,,2022-04-07,1,,,,,ケーグループ,0
1406,5120003021423,新規,0,2022-04-07,2022-04-07,クサカ合同会社,,合同会社,大阪府,大阪市城東区,野江１丁目２番１１号,,27,118,5360006,,,,,,,2022-04-07,1,,,,,クサカ,0
1410,5120005022881,新規,0,2022-04-07,2022-04-07,ＴＲＥＳ税理士法人,,その他の設立登記法人,大阪府,大阪市北区,鶴野町４番１１号２階,,27,127,5300014,,,,,,,2022-04-07,1,,,,,トレス,0
1412,5120101065322,新規,0,2022-04-07,2022-04-07,クラノス株式会社,,株式会社,大阪府,堺市堺区,北庄町１丁５番６号,,27,141,5900007,,,,,,,2022-04-07,1,,,,,クラノス,0
1413,5120101065339,新規,0,2022-04-07,2022-04-07,株式会社ＣＩＥＬ,,株式会社,大阪府,堺市北区,北花田町３丁１７番６－６階,,27,146,5918002,,,,,,,2022-04-07,1,,,,,シエル,0
1414,5120101065347,新規,0,2022-04-07,2022-04-07,ＫＩＲＡＲＩ株式会社,,株式会社,大阪府,堺市南区,桃山台４丁９番４号,,27,145,5900141,,,,,,,2022-04-07,1,,,,,キラリ,0
1415,5120101065355,新規,0,2022-04-07,2022-04-07,山崎食品株式会社,,株式会社,大阪府,泉大津市,下条町１番１９号,,27,206,5950027,,,,,,,2022-04-07,1,,,,,ヤマサキショクヒン,0
1417,5120103004633,新規,0,2022-04-07,2022-04-07,合同会社ｆｌｏｗｅｒ,,合同会社,大阪府,堺市北区,新堀町１丁３２番地２－２０７号,,27,146,5918005,,,,,,,2022-04-07,1,,,,,フラワー,0
1418,5120103004641,新規,0,2022-04-07,2022-04-07,コミュニティケアリング合同会社,,合同会社,大阪府,堺市南区,三原台３丁５番２４号,,27,145,5900111,,,,,,,2022-04-07,1,,,,,コミュニティケアリング,0
1420,5120901045837,新規,0,2022-04-07,2022-04-07,株式会社プライム,,株式会社,大阪府,池田市,神田１丁目１番１２号Ａ棟,,27,204,5630043,,,,,,,2022-04-07,1,,,,,プライム,0
1432,5140001125496,新規,0,2022-04-07,2022-04-07,株式会社アールエステクノロジー,,株式会社,兵庫県,神戸市東灘区,住吉山手２丁目１２番１６－４０８号,,28,101,6580063,,,,,,,2022-04-07,1,,,,,アールエステクノロジー,0
1433,5140001125513,新規,0,2022-04-07,2022-04-07,株式会社ＰＲＯ・ＳＨＯＰ大井,,株式会社,兵庫県,尼崎市,久々知１丁目１４番１１号,,28,202,6610977,,,,,,,2022-04-07,1,,,,,プロショップオオイ,0
1434,5140001125546,新規,0,2022-04-07,2022-04-07,レフチェックサポート株式会社,,株式会社,兵庫県,神戸市東灘区,鴨子ケ原２丁目１１番８号,,28,101,6580064,,,,,,,2022-04-07,1,,,,,レフチェックサポート,0
1435,5140001125554,新規,0,2022-04-07,2022-04-07,株式会社森新聞舗,,株式会社,兵庫県,洲本市,本町６丁目４番２９号,,28,205,6560025,,,,,,,2022-04-07,1,,,,,モリシンブンホ,0
1437,5140003017535,新規,0,2022-04-07,2022-04-07,合同会社Ｘａｍａ,,合同会社,兵庫県,神戸市灘区,篠原北町２丁目３番３０号,,28,102,6570068,,,,,,,2022-04-07,1,,,,,クサマ,0
1438,5140003017551,新規,0,2022-04-07,2022-04-07,合同会社ＬｉＩｙｃａ,,合同会社,兵庫県,西宮市,川添町４－１８,,28,204,6620944,,,,,,,2022-04-07,1,,,,,リリカ,0
1442,5160001024085,新規,0,2022-04-07,2022-04-07,株式会社静勝工務店,,株式会社,滋賀県,愛知郡愛荘町,東出２６３番地２,,25,425,5291233,,,,,,,2022-04-07,1,,,,,セイショウコウムテン,0
1443,5160001024093,新規,0,2022-04-07,2022-04-07,株式会社大西工務店,,株式会社,滋賀県,湖南市,石部西３丁目３番３７号（１０３）,,25,211,5203105,,,,,,,2022-04-07,1,,,,,オオニシコウムテン,0
1444,5160003002535,新規,0,2022-04-07,2022-04-07,合同会社京滋井上,,合同会社,滋賀県,大津市,石山寺４丁目１番５号,,25,201,5200861,,,,,,,2022-04-07,1,,,,,ケイジイノウエ,0
1445,5160005011071,新規,0,2022-04-07,2022-04-07,社会保険労務士法人サニーディ,,その他の設立登記法人,滋賀県,大津市,蓮池町８－１９岩井ビル２階,,25,201,5200001,,,,,,,2022-04-07,1,,,,,サニーディ,0
1446,5180001150664,新規,0,2022-04-07,2022-04-07,株式会社葵,,株式会社,愛知県,名古屋市東区,葵３丁目１８番１５号,,23,102,4610004,,,,,,,2022-04-07,1,,,,,アオイ,0
1447,5180001150796,新規,0,2022-04-07,2022-04-07,株式会社ＮＮＣ,,株式会社,愛知県,名古屋市昭和区,山脇町１丁目３１番地１９,,23,107,4660063,,,,,,,2022-04-07,1,,,,,エヌエヌシー,0
1448,5180001150805,新規,0,2022-04-07,2022-04-07,株式会社ＢＢＨ,,株式会社,愛知県,名古屋市東区,葵１丁目２番６号,,23,102,4610004,,,,,,,2022-04-07,1,,,,,ビービーエイチ,0
1451,5180003023694,新規,0,2022-04-07,2022-04-07,ＴＡｍｉコンサルティング合同会社,,合同会社,愛知県,日進市,岩崎台４丁目１０１７番地１,,23,230,4700135,,,,,,,2022-04-07,1,,,,,タミコンサルティング,0
1454,5180301036076,新規,0,2022-04-07,2022-04-07,カスタマーサポートエンジニアリング株式会社,,株式会社,愛知県,みよし市,黒笹いずみ２丁目１０番地３,,23,236,4700232,,,,,,,2022-04-07,1,,,,,カスタマーサポートエンジニアリング,0
1455,5180301036084,新規,0,2022-04-07,2022-04-07,Ｃ＆Ｍ株式会社,,株式会社,愛知県,岡崎市,西蔵前町字峠１２番地１ラリック・ヒルＡ２０２,,23,202,4442147,,,,,,,2022-04-07,1,,,,,シーアンドエム,0
1457,5190005011688,新規,0,2022-04-07,2022-04-07,医療法人直英会,,その他の設立登記法人,三重県,鈴鹿市,石薬師町２１５９番地１,,24,207,5130012,,,,,,,2022-04-07,1,,,,,チョクエイカイ,0
1459,5200001039954,新規,0,2022-04-07,2022-04-07,ＵＳＤ株式会社,,株式会社,岐阜県,美濃加茂市,加茂野町加茂野１７８番地３,,21,211,5050054,,,,,,,2022-04-07,1,,,,,ユーエスディー,0
1461,5200003005533,新規,0,2022-04-07,2022-04-07,合同会社やまでん工業,,合同会社,岐阜県,高山市,国府町宇津江２２４３番地３４,,21,203,5094121,,,,,,,2022-04-07,1,,,,,ヤマデンコウギョウ,0
1465,5220001024772,新規,0,2022-04-07,2022-04-07,株式会社大和建築,,株式会社,石川県,羽咋郡志賀町,代田ワの１９番地,,17,384,9250202,,,,,,,2022-04-07,1,,,,,ヤマトケンチク,0
1469,5230005009216,新規,0,2022-04-07,2022-04-07,一般社団法人立山ガイド協会,,その他の設立登記法人,富山県,中新川郡立山町,芦峅寺７番地,00126183,16,323,9301406,,,,,,,2022-04-07,1,,,,,タテヤマガイドキョウカイ,0
1473,5240001059593,新規,0,2022-04-07,2022-04-07,株式会社アプリシエイト,,株式会社,広島県,広島市南区,西霞町３番１０－１１０１号,,34,103,7340044,,,,,,,2022-04-07,1,,,,,アプリシエイト,0
1477,5250003003037,新規,0,2022-04-07,2022-04-07,合同会社岡技建,,合同会社,山口県,萩市,大字椿３０３５番地,,35,204,7580061,,,,,,,2022-04-07,1,,,,,オカギケン,0
1484,5290001097052,新規,0,2022-04-07,2022-04-07,株式会社イントリア,,株式会社,福岡県,福岡市中央区,白金１丁目１２番１６号－２０１,,40,133,8100012,,,,,,,2022-04-07,1,,,,,イントリア,0
1485,5290001097102,新規,0,2022-04-07,2022-04-07,株式会社ＢＥＬＵｓ,,株式会社,福岡県,太宰府市,御笠５丁目１２番２０号,,40,221,8180110,,,,,,,2022-04-07,1,,,,,ベルズ,0
1491,5290005018624,新規,0,2022-04-07,2022-04-07,医療法人城島富裕会,,その他の設立登記法人,福岡県,久留米市,城島町四郎丸２６１番地,,40,203,8300223,,,,,,,2022-04-07,1,,,,,ジョウジマフユウカイ,0
1496,5300001012868,新規,0,2022-04-07,2022-04-07,株式会社コニシプラスチック,,株式会社,佐賀県,三養基郡みやき町,大字白壁４２１１,,41,346,8490111,,,,,,,2022-04-07,1,,,,,コニシプラスチック,0
1497,5310005008606,新規,0,2022-04-07,2022-04-07,一般社団法人長与南児童クラブ,,その他の設立登記法人,長崎県,西彼杵郡長与町,高田郷１００６番地３２５,,42,307,8512127,,,,,,,2022-04-07,1,,,,,ナガヨミナミジドウクラブ,0
1498,5320005009982,新規,0,2022-04-07,2022-04-07,医療法人ゆずの木会,,その他の設立登記法人,大分県,由布市,湯布院町川上２７１３番地２,,44,213,8795102,,,,,,,2022-04-07,1,,,,,ユズノキカイ,0
1500,5330001029595,新規,0,2022-04-07,2022-04-07,株式会社ＵＲＡＮＩＷＡ,,株式会社,熊本県,天草市,古川町７番８号,,43,215,8630025,,,,,,,2022-04-07,1,,,,,ウラニワ,0
1501,5330001029612,新規,0,2022-04-07,2022-04-07,オールウェイズゴルフクラブ株式会社,,株式会社,熊本県,山鹿市,新町７０５番地,,43,208,8610514,,,,,,,2022-04-07,1,,,,,オールウェイズゴルフクラブ,0
1502,5330003009307,新規,0,2022-04-07,2022-04-07,合同会社美クィーン,,合同会社,熊本県,荒尾市,大島４５番地６プリティハウス２０１,,43,204,8640057,,,,,,,2022-04-07,1,,,,,ビクィーン,0
1504,5340001024637,新規,0,2022-04-07,2022-04-07,株式会社ＴＯＦＵＫＵ,,株式会社,鹿児島県,霧島市,溝辺町三縄５５６番地４,,46,218,8996403,,,,,,,2022-04-07,1,,,,,トーフク,0
1505,5350001017689,新規,0,2022-04-07,2022-04-07,株式会社未翔丸水産,,株式会社,宮崎県,延岡市,北浦町宮野浦５６１番地２,,45,203,8890303,,,,,,,2022-04-07,1,,,,,ミカマルスイサン,0
1507,5370001048377,新規,0,2022-04-07,2022-04-07,株式会社このり,,株式会社,宮城県,牡鹿郡女川町,女川２丁目５番地７,,04,581,9862265,,,,,,,2022-04-07,1,,,,,コノリ,0
1515,5400001015852,新規,0,2022-04-07,2022-04-07,株式会社ｓａｎｏｖｅｔｔ,,株式会社,岩手県,奥州市,水沢山崎町８番４号,,03,215,0230852,,,,,,,2022-04-07,1,,,,,サノベット,0
1517,5410001013137,新規,0,2022-04-07,2022-04-07,株式会社匠創基官,,株式会社,秋田県,潟上市,天王字追分西５３番地５,,05,211,0100101,,,,,,,2022-04-07,1,,,,,タクソウキカン,0
1521,5420001017789,新規,0,2022-04-07,2022-04-07,深浦林業株式会社,,株式会社,青森県,西津軽郡深浦町,大字広戸字家野上１０１番地３７８,,02,323,0382321,,,,,,,2022-04-07,1,,,,,フカウラリンギョウ,0
1522,5420001017797,新規,0,2022-04-07,2022-04-07,株式会社３Ｃａｒｅ,,株式会社,青森県,青森市,花園２丁目９番３０号マンション甲田１０１号,,02,201,0300966,,,,,,,2022-04-07,1,,,,,スリーケア,0
1523,5420003002491,新規,0,2022-04-07,2022-04-07,合同会社ＯＮＥ　ＢＡＳＥ,,合同会社,青森県,弘前市,大字浜の町西３丁目８番地５,,02,202,0368324,,,,,,,2022-04-07,1,,,,,ワンベース,0
1528,5430005014427,新規,0,2022-04-07,2022-04-07,一般社団法人Ｗｅａｐｏｎ　ｔｏ　ｌｉｖｅ,,その他の設立登記法人,北海道,江別市,野幌末広町３９番地５の１０６,,01,217,0690815,,,,,,,2022-04-07,1,,,,,ウエポントゥリブ,0
1530,5450001013661,新規,0,2022-04-07,2022-04-07,株式会社シャインハート,,株式会社,北海道,旭川市,春光七条２丁目６－３５,,01,204,0700877,,,,,,,2022-04-07,1,,,,,シャインハート,0
1536,5480001011704,新規,0,2022-04-07,2022-04-07,株式会社日誠コネクト,,株式会社,徳島県,阿南市,津乃峰町新浜３３番地１０,,36,204,7740021,,,,,,,2022-04-07,1,,,,,ニッセイコネクト,0
1540,5490001010151,新規,0,2022-04-07,2022-04-07,株式会社高知森澤食品,,株式会社,高知県,高知市,長浜東並松６０３３番地２,,39,201,7810270,,,,,,,2022-04-07,1,,,,,コウチモリサワショクヒン,0
1541,5500001024133,新規,0,2022-04-07,2022-04-07,株式会社ＢａｓｅＵｐ,,株式会社,愛媛県,松山市,空港通７丁目１６－２０－３,,38,201,7910054,,,,,,,2022-04-07,1,,,,,ベースアップ,0
1553,6010005034805,新規,0,2022-04-07,2022-04-07,一般社団法人メタバース推進協議会,,その他の設立登記法人,東京都,千代田区,紀尾井町３番３３号プリンス通りビル２階,,13,101,1020094,,,,,,,2022-04-07,1,,,,,メタバーススイシンキョウギカイ,0
1554,6010005034813,新規,0,2022-04-07,2022-04-07,一般社団法人セルフケアフード協議会,,その他の設立登記法人,東京都,千代田区,神田錦町１丁目３番地,,13,101,1010054,,,,,,,2022-04-07,1,,,,,セルフケアフードキョウギカイ,0
1557,6010401166581,新規,0,2022-04-07,2022-04-07,株式会社冒険の旅,,株式会社,東京都,港区,南青山４丁目９番２９号サタール青山３階,,13,103,1070062,,,,,,,2022-04-07,1,,,,,ボウケンノタビ,0
1558,6010401166664,新規,0,2022-04-07,2022-04-07,株式会社Ｋ,,株式会社,東京都,港区,浜松町２丁目２番１５号浜松町ダイヤビル２階,,13,103,1050013,,,,,,,2022-04-07,1,,,,,ケー,0
1566,6010601060923,新規,0,2022-04-07,2022-04-07,株式会社ｓｗａｌｌｏｗ,,株式会社,東京都,江東区,佐賀１丁目１０番１２号ソフィエルサガ３０１,,13,108,1350031,,,,,,,2022-04-07,1,,,,,スワロウ,0
1567,6010701042466,新規,0,2022-04-07,2022-04-07,株式会社Ａｄａｍａｎｔ,,株式会社,東京都,品川区,西品川１丁目１番１号住友不動産大崎ガーデンタワー９階,,13,109,1410033,,,,,,,2022-04-07,1,,,,,アダマント,0
1570,6010901050657,新規,0,2022-04-07,2022-04-07,株式会社Ｎｕｍａｚａｗａ，Ｉｉｚｕｋａ，ａｎｄ　Ｎａｇａｉ　ｆｏｒ　Ｋｉｍｂｅｒｌｅｙ,,株式会社,東京都,世田谷区,奥沢５丁目２番１号,,13,112,1580083,,,,,,,2022-04-07,1,,,,,ヌマザワイイヅカアンドナガイフォーキンバリー,0
1576,6011001146734,新規,0,2022-04-07,2022-04-07,株式会社少年,,株式会社,東京都,渋谷区,渋谷２丁目１９番１５号宮益坂ビルディング６０９,,13,113,1500002,,,,,,,2022-04-07,1,,,,,ショウネン,0
1577,6011001146759,新規,0,2022-04-07,2022-04-07,株式会社セレネ,,株式会社,東京都,渋谷区,恵比寿南３丁目７番３号,,13,113,1500022,,,,,,,2022-04-07,1,,,,,セレネ,0
1581,6011101098347,新規,0,2022-04-07,2022-04-07,株式会社Ｇｏ＆Ｄｏ,,株式会社,東京都,新宿区,西新宿３丁目３番１３号西新宿水間ビル６階,,13,104,1600023,,,,,,,2022-04-07,1,,,,,ゴーアンドドゥー,0
1582,6011101098446,新規,0,2022-04-07,2022-04-07,株式会社ＲＩＺＥ,,株式会社,東京都,新宿区,高田馬場３丁目３番２号ＭＦビル６階,,13,104,1690075,,,,,,,2022-04-07,1,,,,,ライズ,0
1583,6011103011605,新規,0,2022-04-07,2022-04-07,ＩＴＯｎｅＳ合同会社,,合同会社,東京都,新宿区,西新宿３丁目３番１３号西新宿水間ビル６階,,13,104,1600023,,,,,,,2022-04-07,1,,,,,アイティワンエス,0
1584,6011103011646,新規,0,2022-04-07,2022-04-07,リニューアブルＬパワー合同会社,,合同会社,東京都,新宿区,新宿１丁目２８番１１号,,13,104,1600022,,,,,,,2022-04-07,1,,,,,リニューアブルエルパワー,0
1585,6011103011654,新規,0,2022-04-07,2022-04-07,合同会社ＡＫ　ｅｎｔｅｒｐｒｉｓｅ,,合同会社,東京都,新宿区,歌舞伎町２丁目６番１６－３０５号,,13,104,1600021,,,,,,,2022-04-07,1,,,,,エーケーエンタープライズ,0
1587,6011305002815,新規,0,2022-04-07,2022-04-07,一般社団法人アフリカファッション,,その他の設立登記法人,東京都,杉並区,永福３丁目９番５号,,13,115,1680064,,,,,,,2022-04-07,1,,,,,アフリカファッション,0
1592,6011401024135,新規,0,2022-04-07,2022-04-07,株式会社新成電工,,株式会社,東京都,板橋区,新河岸１丁目６番１７号パレス高島平５０５,,13,119,1750081,,,,,,,2022-04-07,1,,,,,シンセイデンコウ,0
1598,6011503005124,新規,0,2022-04-07,2022-04-07,ｍｅｇｍｉ合同会社,,合同会社,東京都,北区,豊島５丁目２番２０－１１１４号,,13,117,1140003,,,,,,,2022-04-07,1,,,,,メグミ,0
1601,6011701025196,新規,0,2022-04-07,2022-04-07,六七八九株式会社,,株式会社,東京都,江戸川区,北小岩５丁目４番１号１０５,,13,123,1330051,,,,,,,2022-04-07,1,,,,,ロクナナハチキュウ,0
1602,6011805003164,新規,0,2022-04-07,2022-04-07,一般社団法人東京都産業技術振興協会,,その他の設立登記法人,東京都,足立区,鹿浜８丁目１６番１０号,,13,121,1230864,,,,,,,2022-04-07,1,,,,,トウキョウトサンギョウギジュツシンコウキョウカイ,0
1607,6013301048890,新規,0,2022-04-07,2022-04-07,株式会社瑞和不動産,,株式会社,東京都,豊島区,雑司が谷３丁目８番２－２０１号,,13,116,1710032,,,,,,,2022-04-07,1,,,,,ミズワフドウサン,0
1608,6013303006112,新規,0,2022-04-07,2022-04-07,合同会社Ｋ．Ｍ,,合同会社,東京都,豊島区,北大塚１丁目１６番５号,,13,116,1700004,,,,,,,2022-04-07,1,,,,,ケーエム,0
1611,6020001145992,新規,0,2022-04-07,2022-04-07,ジャンプミュージックソリューションズ株式会社,,株式会社,神奈川県,川崎市幸区,鹿島田１丁目１番５－２４０９号,,14,132,2120058,,,,,,,2022-04-07,1,,,,,ジャンプミュージックソリューションズ,0
1615,6020005015481,新規,0,2022-04-07,2022-04-07,一般社団法人神奈川県産業振興協会,,その他の設立登記法人,神奈川県,横浜市中区,桜木町１丁目１０１番１号,,14,104,2310062,,,,,,,2022-04-07,1,,,,,カナガワケンサンギョウシンコウキョウカイ,0
1621,6021001075593,新規,0,2022-04-07,2022-04-07,ソーコーロジスティクス株式会社,,株式会社,神奈川県,小田原市,曽比１５２６番地の１,,14,206,2500851,,,,,,,2022-04-07,1,,,,,ソーコーロジスティクス,0
1625,6021005012477,新規,0,2022-04-07,2022-04-07,一般社団法人相模原市水泳協会,,その他の設立登記法人,神奈川県,相模原市中央区,横山３丁目６番１９号,,14,152,2520242,,,,,,,2022-04-07,1,,,,,サガミハラシスイエイキョウカイ,0
1632,6030001147542,新規,0,2022-04-07,2022-04-07,株式会社ビスカス,,株式会社,埼玉県,所沢市,東狭山ケ丘４丁目２７１２番地の１２,,11,208,3591106,,,,,,,2022-04-07,1,,,,,ビスカス,0
1633,6030001147559,新規,0,2022-04-07,2022-04-07,株式会社アンドケイ,,株式会社,埼玉県,所沢市,緑町１丁目２番５号３階,,11,208,3591111,,,,,,,2022-04-07,1,,,,,アンドケイ,0
1634,6030001147583,新規,0,2022-04-07,2022-04-07,ネモト・トレーディング株式会社,,株式会社,埼玉県,さいたま市南区,曲本５丁目５番３号５０２,,11,108,3360033,,,,,,,2022-04-07,1,,,,,ネモトトレーディング,0
1635,6030001147591,新規,0,2022-04-07,2022-04-07,株式会社ｔａｎｔ‐ｔａｎｚダンススタジオ,,株式会社,埼玉県,所沢市,東所沢１丁目３番地の４増田ビル２階,,11,208,3590021,,,,,,,2022-04-07,1,,,,,タントタンツダンススタジオ,0
1636,6030001147633,新規,0,2022-04-07,2022-04-07,株式会社中澤工業,,株式会社,埼玉県,川口市,東領家３丁目２８番１５号,,11,203,3320003,,,,,,,2022-04-07,1,,,,,ナカザワコウギョウ,0
1637,6030003019145,新規,0,2022-04-07,2022-04-07,合同会社Ｋａｐｏｎｏ,,合同会社,埼玉県,さいたま市大宮区,桜木町２丁目４４６番地５１２号,,11,103,3300854,,,,,,,2022-04-07,1,,,,,カポノ,0
1639,6040001122866,新規,0,2022-04-07,2022-04-07,株式会社田島電設,,株式会社,千葉県,八千代市,緑が丘西７丁目６番地５,,12,221,2760040,,,,,,,2022-04-07,1,,,,,タジマデンセツ,0
1640,6040001122874,新規,0,2022-04-07,2022-04-07,心暖ケア株式会社,,株式会社,千葉県,八街市,滝台２２０番地２,,12,230,2891123,,,,,,,2022-04-07,1,,,,,コハルケア,0
1641,6040001122882,新規,0,2022-04-07,2022-04-07,平良塗装株式会社,,株式会社,千葉県,市原市,今津朝山２６７番地６,,12,219,2990106,,,,,,,2022-04-07,1,,,,,タイラトソウ,0
1642,6040003019788,新規,0,2022-04-07,2022-04-07,合同会社幕張法律研究所,,合同会社,千葉県,千葉市中央区,富士見２丁目７番９号６階,,12,101,2600015,,,,,,,2022-04-07,1,,,,,マクハリホウリツケンキュウジョ,0
1643,6040003019813,新規,0,2022-04-07,2022-04-07,千葉銚子オフショアウィンド合同会社,,合同会社,千葉県,銚子市,三軒町１９番地４,,12,202,2880045,,,,,,,2022-04-07,1,,,,,チバチョウシオフショアウィンド,0
1647,6040005021560,新規,0,2022-04-07,2022-04-07,一般財団法人亀田研究財団,,その他の設立登記法人,千葉県,鴨川市,東町９２９番地,,12,223,2960041,,,,,,,2022-04-07,1,,,,,カメダケンキュウザイダン,0
1649,6050001050901,新規,0,2022-04-07,2022-04-07,株式会社サンフレッシュ美浦,,株式会社,茨城県,稲敷郡美浦村,大字土浦３０５番地,,08,442,3000404,,,,,,,2022-04-07,1,,,,,サンフレッシュミホ,0
1657,6080001024869,新規,0,2022-04-07,2022-04-07,米澤塗装株式会社,,株式会社,静岡県,静岡市清水区,西久保１９６番地の３３,,22,103,4240038,,,,,,,2022-04-07,1,,,,,ヨネザワトソウ,0
1662,6080403004502,新規,0,2022-04-07,2022-04-07,合同会社アカラ,,合同会社,静岡県,浜松市東区,大蒲町８３番地の４ブライトタウン大蒲３０７号室,,22,132,4350014,,,,,,,2022-04-07,1,,,,,アカラ,0
1663,6090003002070,新規,0,2022-04-07,2022-04-07,凱運合同会社,,合同会社,山梨県,韮崎市,藤井町北下條３１５番地,,19,207,4070003,,,,,,,2022-04-07,1,,,,,ガイウン,0
1668,6110001036555,新規,0,2022-04-07,2022-04-07,株式会社本多設備,,株式会社,新潟県,南魚沼市,西泉田８４番地１,,15,226,9496615,,,,,,,2022-04-07,1,,,,,ホンダセツビ,0
1669,6110001036571,新規,0,2022-04-07,2022-04-07,ＭＯＣＯＯＬホールディングス株式会社,,株式会社,新潟県,長岡市,中島１丁目９番２７号,,15,202,9400094,,,,,,,2022-04-07,1,,,,,モアクールホールディングス,0
1673,6120001244850,新規,0,2022-04-07,2022-04-07,株式会社ＢＡＣＫ‐ＯＦＦＩＣＥ‐ＳＥＣＴＩＯＮ,,株式会社,大阪府,大阪市北区,東天満２丁目１番４号五高ビル７階７０１号,,27,127,5300044,,,,,,,2022-04-07,1,,,,,バックオフィスセクション,0
1674,6120001244867,新規,0,2022-04-07,2022-04-07,株式会社キャラット,,株式会社,大阪府,大阪市北区,豊崎１丁目１番９号,,27,127,5310072,,,,,,,2022-04-07,1,,,,,キャラット,0
1675,6120001244875,新規,0,2022-04-07,2022-04-07,株式会社高西工業,00126180,株式会社,大阪府,門真市,一番町３番１１号,,27,223,5710033,,,,,,,2022-04-07,1,,,,,タカニシコウギョウ,0
1676,6120001244883,新規,0,2022-04-07,2022-04-07,Ａｓｕｍｏ電気株式会社,,株式会社,大阪府,大阪市東住吉区,矢田２丁目１２番２９号,,27,121,5460023,,,,,,,2022-04-07,1,,,,,アスモデンキ,0
1677,6120001244909,新規,0,2022-04-07,2022-04-07,株式会社Ｓｅｎｓｅ＆Ｔｅｃｈｎｏｌｏｇｙ,,株式会社,大阪府,大阪市西区,北堀江１丁目６－１２四ツ橋中央ビル３Ｆ,,27,106,5500014,,,,,,,2022-04-07,1,,,,,センスアンドテクノロジー,0
1678,6120001244966,新規,0,2022-04-07,2022-04-07,テクノエース株式会社,,株式会社,大阪府,交野市,私市４丁目５４番９号,,27,230,5760033,,,,,,,2022-04-07,1,,,,,テクノエース,0
1679,6120001244974,新規,0,2022-04-07,2022-04-07,株式会社Ａｉ‐ｂｏｔ,,株式会社,大阪府,大阪市城東区,森之宮２丁目１番１０１－１００６号,,27,118,5360025,,,,,,,2022-04-07,1,,,,,アイボ,0
1680,6120001244999,新規,0,2022-04-07,2022-04-07,株式会社レクシード・ジャパン,,株式会社,大阪府,大阪市東淀川区,井高野２丁目９番５号,,27,114,5330001,,,,,,,2022-04-07,1,,,,,レクシードジャパン,0
1681,6120001245015,新規,0,2022-04-07,2022-04-07,グローバルスタイル株式会社,,株式会社,大阪府,大阪市中央区,淡路町３丁目５番１号,,27,128,5410047,,,,,,,2022-04-07,1,,,,,グローバルスタイル,0
1682,6120001245023,新規,0,2022-04-07,2022-04-07,株式会社リペアーフォーム,,株式会社,大阪府,大阪市東淀川区,相川２丁目１０番１７号,,27,114,5330007,,,,,,,2022-04-07,1,,,,,リペアーフォーム,0
1683,6120001245031,新規,0,2022-04-07,2022-04-07,株式会社錦盛商事,,株式会社,大阪府,大阪市平野区,加美正覚寺２丁目２番２０号,,27,126,5470006,,,,,,,2022-04-07,1,,,,,キンセイショウジ,0
1684,6120001245048,新規,0,2022-04-07,2022-04-07,いぬい丸株式会社,,株式会社,大阪府,大阪市平野区,加美北３丁目７番４３号,,27,126,5470001,,,,,,,2022-04-07,1,,,,,イヌイマル,0
1685,6120001245064,新規,0,2022-04-07,2022-04-07,大晋商店株式会社,,株式会社,大阪府,大阪市東成区,中本３丁目１１番１１号,,27,115,5370022,,,,,,,2022-04-07,1,,,,,ダイシンショウテン,0
1686,6120001245089,新規,0,2022-04-07,2022-04-07,株式会社ＫＡＴＳＵＫＩ,,株式会社,大阪府,大阪市大正区,泉尾４丁目１番１０号,,27,108,5510031,,,,,,,2022-04-07,1,,,,,カツキ,0
1687,6120003021430,新規,0,2022-04-07,2022-04-07,合同会社タイミング,,合同会社,大阪府,大阪市東淀川区,下新庄５丁目８－２０,,27,114,5330021,,,,,,,2022-04-07,1,,,,,タイミング,0
1688,6120003021439,新規,0,2022-04-07,2022-04-07,ＢＢＱ．ｃａｒｅ合同会社,,合同会社,大阪府,大阪市城東区,関目５丁目１９－２０,,27,118,5360008,,,,,,,2022-04-07,1,,,,,ビービーキューケア,0
1691,6120005022880,新規,0,2022-04-07,2022-04-07,一般社団法人スポーツプラネット,,その他の設立登記法人,大阪府,寝屋川市,梅が丘１丁目１７番２－８１５号,,27,215,5720803,,,,,,,2022-04-07,1,,,,,スポーツプラネット,0
1692,6120005022897,新規,0,2022-04-07,2022-04-07,一般社団法人日本ウェルビーイング協会,,その他の設立登記法人,大阪府,大阪市中央区,淡路町２丁目６番６号淡路町パークビル２号館,,27,128,5410047,,,,,,,2022-04-07,1,,,,,ニホンウェルビーイングキョウカイ,0
1696,6120101065338,新規,0,2022-04-07,2022-04-07,株式会社ＯＮＥＳ,,株式会社,大阪府,堺市東区,日置荘西町４丁目６番３号レオパレス３番館１０３号室,,27,143,5998114,,,,,,,2022-04-07,1,,,,,ワンズ,0
1697,6120101065346,新規,0,2022-04-07,2022-04-07,株式会社ブライトサニー,,株式会社,大阪府,堺市西区,浜寺船尾町西２丁１３５番地６,,27,144,5928342,,,,,,,2022-04-07,1,,,,,ブライトサニー,0
1698,6120101065370,新規,0,2022-04-07,2022-04-07,株式会社谷岡工業,,株式会社,大阪府,岸和田市,尾生町４丁目２番１９号,,27,202,5960816,,,,,,,2022-04-07,1,,,,,タニオカコウギョウ,0
1701,6120105009539,新規,0,2022-04-07,2022-04-07,一般社団法人泉南スポーツコミッション協会,,その他の設立登記法人,大阪府,泉南市,樽井７丁目２番１１号,,27,228,5900521,,,,,,,2022-04-07,1,,,,,センナンスポーツコミッションキョウカイ,0
1706,6120901045803,新規,0,2022-04-07,2022-04-07,株式会社ＳＥＮＹＵ,,株式会社,大阪府,茨木市,水尾２丁目７番２９号の３,,27,211,5670891,,,,,,,2022-04-07,1,,,,,センユー,0
1709,6122001035726,新規,0,2022-04-07,2022-04-07,株式会社ＳＨＯＤＥＮ,,株式会社,大阪府,東大阪市,川田３丁目９番２１号,,27,227,5780905,,,,,,,2022-04-07,1,,,,,ショウデン,0
1710,6122001035734,新規,0,2022-04-07,2022-04-07,土井建鋼業株式会社,,株式会社,大阪府,大東市,三箇３丁目９番１６号,,27,218,5740077,,,,,,,2022-04-07,1,,,,,ドイケンコウギョウ,0
1711,6122001035742,新規,0,2022-04-07,2022-04-07,株式会社ｓａｎｓｕｉ,,株式会社,大阪府,東大阪市,玉串町東２丁目１０番２５号,,27,227,5780932,,,,,,,2022-04-07,1,,,,,サンスイ,0
1714,6140001125479,新規,0,2022-04-07,2022-04-07,株式会社ｏｏｃ,,株式会社,兵庫県,淡路市,志筑２３３２番地４５,,28,226,6562131,,,,,,,2022-04-07,1,,,,,オーオーシー,0
1715,6140001125487,新規,0,2022-04-07,2022-04-07,株式会社ワールドプラットフォームサービス,,株式会社,兵庫県,神戸市中央区,港島中町６丁目８番１,,28,110,6500046,,,,,,,2022-04-07,1,,,,,ワールドプラットフォームサービス,0
1716,6140001125495,新規,0,2022-04-07,2022-04-07,株式会社カウンセリング・ルーム輝,,株式会社,兵庫県,神戸市東灘区,住吉東町２丁目３番３３－１１０４号,,28,101,6580052,,,,,,,2022-04-07,1,,,,,カウンセリングルームカガヤキ,0
1717,6140001125504,新規,0,2022-04-07,2022-04-07,株式会社サポート淡路島,,株式会社,兵庫県,神戸市長田区,明泉寺町２丁目４番３号,,28,106,6530884,,,,,,,2022-04-07,1,,,,,サポートアワジシマ,0
1718,6140001125537,新規,0,2022-04-07,2022-04-07,株式会社ケイズ・パープル,,株式会社,兵庫県,揖保郡太子町,太田６２６番地４,,28,464,6711511,,,,,,,2022-04-07,1,,,,,ケイズパープル,0
1719,6140001125545,新規,0,2022-04-07,2022-04-07,ｍａｉｍａｉ株式会社,,株式会社,兵庫県,神戸市北区,松宮台１丁目５番地の１８,,28,109,6511147,,,,,,,2022-04-07,1,,,,,マイマイ,0
1720,6140001125553,新規,0,2022-04-07,2022-04-07,株式会社ｔｏ　ｃｏｎｎｅｃｔ,,株式会社,兵庫県,神戸市中央区,下山手通２丁目１３番３号,,28,110,6500011,,,,,,,2022-04-07,1,,,,,トゥコネクト,0
1723,6140003017492,新規,0,2022-04-07,2022-04-07,合同会社ＡＬＯＳ,,合同会社,兵庫県,西宮市,西宮浜４丁目１４番３－９０７号,,28,204,6620934,,,,,,,2022-04-07,1,,,,,アロス,0
1724,6140005026112,新規,0,2022-04-07,2022-04-07,社会保険労務士法人ジャストナウ,,その他の設立登記法人,兵庫県,神戸市垂水区,東垂水町字菅ノ口７０４－３,,28,108,6550881,,,,,,,2022-04-07,1,,,,,ジャストナウ,0
1725,6140005026129,新規,0,2022-04-07,2022-04-07,一般社団法人ＩＮＣＲＥＷ,,その他の設立登記法人,兵庫県,豊岡市,出石町寺坂１１１７番地,,28,209,6680241,,,,,,,2022-04-07,1,,,,,インクルー,0
1726,6150001025447,新規,0,2022-04-07,2022-04-07,株式会社アートプレイス,,株式会社,奈良県,生駒市,本町７番１２号（本町ビル３０３）,,29,209,6300256,,,,,,,2022-04-07,1,,,,,アートプレイス,0
1729,6160001024092,新規,0,2022-04-07,2022-04-07,三國エンジニアリング株式会社,,株式会社,滋賀県,湖南市,下田１８３２番地１１,,25,211,5203201,,,,,,,2022-04-07,1,,,,,ミクニエンジニアリング,0
1730,6160001024101,新規,0,2022-04-07,2022-04-07,株式会社輝工務店,,株式会社,滋賀県,長浜市,高月町東高田２７８番地４,,25,203,5290202,,,,,,,2022-04-07,1,,,,,テルコウムテン,0
1735,6180001150688,新規,0,2022-04-07,2022-04-07,株式会社熊牧場,,株式会社,愛知県,日進市,梅森台２丁目８３番地１,,23,230,4700133,,,,,,,2022-04-07,1,,,,,クマボクジョウ,0
1736,6180001150696,新規,0,2022-04-07,2022-04-07,株式会社Ｅ‐ｐｒｏｃｅｓｓ,,株式会社,愛知県,豊明市,沓掛町徳田１００番地１,,23,229,4701101,,,,,,,2022-04-07,1,,,,,イープロセス,0
1737,6180003023685,新規,0,2022-04-07,2022-04-07,Ｇａｂｒｉｅｌ合同会社,,合同会社,愛知県,江南市,般若町南山３０７番地,,23,217,4838013,,,,,,,2022-04-07,1,,,,,ガブリエル,0
1738,6180003023693,新規,0,2022-04-07,2022-04-07,グッドアンドニュー合同会社,,合同会社,愛知県,名古屋市北区,杉村１丁目５番９号ヴィラアイリス２０２号,,23,103,4620835,,,,,,,2022-04-07,1,,,,,グッドアンドニュー,0
1743,6180005019707,新規,0,2022-04-07,2022-04-07,税理士法人ＭＡＲＫコンサルタンツ,,その他の設立登記法人,愛知県,名古屋市中区,栄４丁目１４番３１号栄オークリッジ４階,,23,106,4600008,,,,,,,2022-04-07,1,,,,,マークコンサルタンツ,0
1746,6180301036075,新規,0,2022-04-07,2022-04-07,株式会社ＵＰ,,株式会社,愛知県,刈谷市,恩田町１丁目１５６番地４パークハイツ都Ａ２０３号,,23,210,4480013,,,,,,,2022-04-07,1,,,,,アップ,0
1747,6180301036083,新規,0,2022-04-07,2022-04-07,株式会社丸伸建工,,株式会社,愛知県,豊橋市,向山大池町３番地６（２Ｄ）,,23,201,4400862,,,,,,,2022-04-07,1,,,,,マルシンケンコウ,0
1748,6180305009325,新規,0,2022-04-07,2022-04-07,医療法人スマイルランド,,その他の設立登記法人,愛知県,豊田市,下林町２丁目５８番地１,,23,211,4710878,,,,,,,2022-04-07,1,,,,,スマイルランド,0
1755,6200001039953,新規,0,2022-04-07,2022-04-07,株式会社アンドーホールディングス,,株式会社,岐阜県,大垣市,東前１丁目８０番地の２,,21,202,5030835,,,,,,,2022-04-07,1,,,,,アンドーホールディングス,0
1756,6200003005524,新規,0,2022-04-07,2022-04-07,合同会社ＨＥＲＤＯ,,合同会社,岐阜県,岐阜市,茜部菱野１丁目４８番地,,21,201,5008268,,,,,,,2022-04-07,1,,,,,ヘルド,0
1757,6200003005532,新規,0,2022-04-07,2022-04-07,高山電業合同会社,,合同会社,岐阜県,高山市,片野町２丁目２５番地,,21,203,5060824,,,,,,,2022-04-07,1,,,,,タカヤマデンギョウ,0
1760,6210001018873,新規,0,2022-04-07,2022-04-07,株式会社ＴＳＣ．,,株式会社,福井県,丹生郡越前町,小樟第４号３０番地２,,18,423,9160315,,,,,,,2022-04-07,1,,,,,ティーエスシードット,0
1761,6210003001489,新規,0,2022-04-07,2022-04-07,合同会社日盛,,合同会社,福井県,鯖江市,鳥羽１丁目１０番２１号,,18,207,9160013,,,,,,,2022-04-07,1,,,,,ニッセイ,0
1763,6220001024788,新規,0,2022-04-07,2022-04-07,Ｓｔａｒｔｓ株式会社,,株式会社,石川県,金沢市,豊穂町９番地,,17,201,9200372,,,,,,,2022-04-07,1,,,,,スターツ,0
1764,6220001024796,新規,0,2022-04-07,2022-04-07,株式会社サンフラワー,,株式会社,石川県,小松市,園町ハ９１番地１園町オフィスビル３号,,17,203,9230801,,,,,,,2022-04-07,1,,,,,サンフラワー,0
1770,6230005009215,新規,0,2022-04-07,2022-04-07,一般社団法人富山県溶接協会,,その他の設立登記法人,富山県,高岡市,二上町１５０番地富山県産業技術研究開発センター内,,16,202,9330981,,,,,,,2022-04-07,1,,,,,トヤマケンヨウセツキョウカイ,0
1776,6240001059584,新規,0,2022-04-07,2022-04-07,株式会社つばき,,株式会社,広島県,呉市,宝町２番３７－１５０４号,,34,202,7370029,,,,,,,2022-04-07,1,,,,,ツバキ,0
1777,6240001059592,新規,0,2022-04-07,2022-04-07,株式会社ＶＩＳＴ,,株式会社,広島県,広島市佐伯区,五日市５丁目３－２９,,34,108,7315127,,,,,,,2022-04-07,1,,,,,ヴィスト,0
1778,6240001059601,新規,0,2022-04-07,2022-04-07,ラシードトレーディング株式会社,,株式会社,広島県,福山市,曙町４丁目２０番１５号レジデンスホールＦＳ２０３号室,,34,207,7210952,,,,,,,2022-04-07,1,,,,,ラシードトレーディング,0
1781,6250001019488,新規,0,2022-04-07,2022-04-07,株式会社エイシン,,株式会社,山口県,下関市,一の宮町５丁目１番３７号,,35,201,7510806,,,,,,,2022-04-07,1,,,,,エイシン,0
1784,6250003003036,新規,0,2022-04-07,2022-04-07,合同会社畔亭,,合同会社,山口県,萩市,大字南片河町６２番地,,35,204,7580076,,,,,,,2022-04-07,1,,,,,ホトリテイ,0
1790,6260003003869,新規,0,2022-04-07,2022-04-07,オルソメリア合同会社,,合同会社,岡山県,井原市,西江原町２９３６―４,,33,207,7150006,,,,,,,2022-04-07,1,,,,,オルソメリア,0
1791,6260003003877,新規,0,2022-04-07,2022-04-07,合同会社アシストプラス,,合同会社,岡山県,岡山市中区,江崎１５７番地１６,,33,102,7028005,,,,,,,2022-04-07,1,,,,,,0
1792,6260005011060,新規,0,2022-04-07,2022-04-07,一般社団法人岡山県成年後見振興会,,その他の設立登記法人,岡山県,岡山市北区,津高台１丁目２００３番地１０,,33,101,7011151,,,,,,,2022-04-07,1,,,,,オカヤマケンセイネンコウケンシンコウカイ,0
1796,6290001097019,新規,0,2022-04-07,2022-04-07,株式会社ＡＬＴインフォメーション,,株式会社,福岡県,久留米市,三潴町玉満２３２番地１Ａ・Ｙ・Ｊ天神ＩＩ・Ａ号室,00126188,40,203,8300112,,,,,,,2022-04-07,1,,,,,アルトインフォメーション,0
1797,6290001097092,新規,0,2022-04-07,2022-04-07,株式会社コスモ,,株式会社,福岡県,久留米市,通町１０６番地９,,40,203,8300018,,,,,,,2022-04-07,1,,,,,コスモ,0
1798,6290001097142,新規,0,2022-04-07,2022-04-07,株式会社ビアード,,株式会社,福岡県,糟屋郡粕屋町,大字江辻９０９－２０２号,00126191,40,349,8112313,,,,,,,2022-04-07,1,,,,,ビアード,0
1804,6290803004097,新規,0,2022-04-07,2022-04-07,合同会社タキグチ,,合同会社,福岡県,北九州市戸畑区,中原西２丁目７番３０号,,40,105,8040011,,,,,,,2022-04-07,1,,,,,タキグチ,0
1810,6320001018994,新規,0,2022-04-07,2022-04-07,株式会社正良工業,,株式会社,大分県,大分市,坂ノ市中央３丁目３番１６号,,44,201,8700307,,,,,,,2022-04-07,1,,,,,セイリョウコウギョウ,0
1814,6320005009981,新規,0,2022-04-07,2022-04-07,医療法人まつなり歯科医院,,その他の設立登記法人,大分県,豊後高田市,香々地３９４９番地,,44,209,8721202,,,,,,,2022-04-07,1,,,,,マツナリシカイイン,0
1815,6330001029603,新規,0,2022-04-07,2022-04-07,株式会社マツオカ材木店,,株式会社,熊本県,熊本市東区,上南部２丁目７番１８号,,43,102,8618010,,,,,,,2022-04-07,1,,,,,マツオカザイモクテン,0
1816,6330001029611,新規,0,2022-04-07,2022-04-07,共栄メディカル株式会社,,株式会社,熊本県,熊本市東区,健軍４丁目８番９１号健軍エルイービル飛鳥１０Ｃ号室,,43,102,8620911,,,,,,,2022-04-07,1,,,,,キョウエイメディカル,0
1824,6340001024644,新規,0,2022-04-07,2022-04-07,株式会社ＨＩＲＯコーポレーション,,株式会社,鹿児島県,鹿児島市,南林寺町１６番１３号４Ｆ,,46,201,8920834,,,,,,,2022-04-07,1,,,,,ヒロコーポレーション,0
1839,6420001017788,新規,0,2022-04-07,2022-04-07,株式会社田中自動車整備工場,,株式会社,青森県,三戸郡新郷村,大字戸来字中野２４番地,,02,450,0391801,,,,,,,2022-04-07,1,,,,,タナカジドウシャセイビコウジョウ,0
1845,6430001086337,新規,0,2022-04-07,2022-04-07,株式会社丸安テオ,,株式会社,北海道,札幌市南区,真駒内南町５丁目６番２号,,01,106,0050016,,,,,,,2022-04-07,1,,,,,マルアテオ,0
1846,6450001013669,新規,0,2022-04-07,2022-04-07,株式会社ｔｏｎｅ,,株式会社,北海道,旭川市,九条通８丁目２４８６－２１,,01,204,0700039,,,,,,,2022-04-07,1,,,,,トーン,0
1849,6460001005681,新規,0,2022-04-07,2022-04-07,ダイイチ興業株式会社,,株式会社,北海道,釧路市,桂恋１９２番２,,01,206,0850802,,,,,,,2022-04-07,1,,,,,ダイイチコウギョウ,0
1852,6460101007173,新規,0,2022-04-07,2022-04-07,株式会社北誠運輸,,株式会社,北海道,河東郡音更町,木野西通７丁目２番１８号,,01,631,0800302,,,,,,,2022-04-07,1,,,,,ホクセイウンユ,0
1853,6460101007181,新規,0,2022-04-07,2022-04-07,株式会社ＨＰＰ,,株式会社,北海道,河東郡音更町,新通１丁目６番地１９パレス鳥海１０３,,01,631,0800104,,,,,,,2022-04-07,1,,,,,エイチピーピー,0
1858,6470003002164,新規,0,2022-04-07,2022-04-07,合同会社オフィスアキオ,,合同会社,香川県,高松市,香西南町４９０番地１香西グランドマンション９０１,,37,201,7618014,,,,,,,2022-04-07,1,,,,,オフィスアキオ,0
1859,6470005006428,新規,0,2022-04-07,2022-04-07,特定非営利活動法人香川活性化生徒の会,,その他の設立登記法人,香川県,高松市,今里町４０８番地２０,,37,201,7600078,,,,,,,2022-04-07,1,,,,,カガワカッセイカセイトノカイ,0
1863,6480005006897,新規,0,2022-04-07,2022-04-07,一般社団法人徳島日越親善協会,,その他の設立登記法人,徳島県,徳島市,一番町３丁目１６番３号,,36,201,7700833,,,,,,,2022-04-07,1,,,,,トクシマニチエツシンゼンキョウカイ,0
1864,6490001010150,新規,0,2022-04-07,2022-04-07,株式会社横山畜産,,株式会社,高知県,四万十市,西土佐橘５１０番地,,39,210,7871611,,,,,,,2022-04-07,1,,,,,ヨコヤマチクサン,0
1869,7010001225646,新規,0,2022-04-07,2022-04-07,株式会社駿河屋ＢＡＳＥ,,株式会社,東京都,千代田区,神田駿河台４丁目３番地,,13,101,1010062,,,,,,,2022-04-07,1,,,,,スルガヤベース,0
1870,7010003037387,新規,0,2022-04-07,2022-04-07,合同会社ＫＯＴＯＨＯＧ,,合同会社,東京都,千代田区,平河町１丁目６番１５号ＵＳビル８Ｆ,,13,101,1020093,,,,,,,2022-04-07,1,,,,,コトホグ,0
1878,7010401166622,新規,0,2022-04-07,2022-04-07,株式会社ライドオンシーズ,,株式会社,東京都,港区,三田３丁目５番２７号,,13,103,1080073,,,,,,,2022-04-07,1,,,,,ライドオンシーズ,0
1879,7010401166639,新規,0,2022-04-07,2022-04-07,株式会社ＰＥＴＴＥＣＣ　ＪＡＰＡＮ,,株式会社,東京都,港区,北青山３丁目６番７号青山パラシオタワー１１Ｆ,,13,103,1070061,,,,,,,2022-04-07,1,,,,,ペテックジャパン,0
1881,7010501048670,新規,0,2022-04-07,2022-04-07,株式会社ＦｉｒｓｔＳｔｅｐ,,株式会社,東京都,台東区,台東４丁目５番１号タマタビル４階,,13,106,1100016,,,,,,,2022-04-07,1,,,,,ファーストステップ,0
1890,7010803004124,新規,0,2022-04-07,2022-04-07,ＨＡＧＩ合同会社,,合同会社,東京都,大田区,中央５丁目２２番１号,,13,111,1430024,,,,,,,2022-04-07,1,,,,,ハギ,0
1893,7010901050648,新規,0,2022-04-07,2022-04-07,株式会社ＳＫＹ　ＴＨＥ　ＬＩＭＩＴ,,株式会社,東京都,世田谷区,羽根木１丁目３番１４－６０２号,,13,112,1560042,,,,,,,2022-04-07,1,,,,,スカイザリミット,0
1894,7010903007282,新規,0,2022-04-07,2022-04-07,Ｒ＆Ｉヘルスケア合同会社,,合同会社,東京都,世田谷区,奥沢５丁目３１番８号,,13,112,1580083,,,,,,,2022-04-07,1,,,,,アールアンドアイヘルスケア,0
1898,7011001146824,新規,0,2022-04-07,2022-04-07,株式会社エコログマーケテイング,,株式会社,東京都,渋谷区,道玄坂１丁目１０番８号渋谷道玄坂東急ビル２Ｆ－Ｃ,,13,113,1500043,,,,,,,2022-04-07,1,,,,,エコログマーケテイング,0
1903,7011103011645,新規,0,2022-04-07,2022-04-07,合同会社３６０ＰＬＵＳ,,合同会社,東京都,新宿区,市谷本村町２番２０号ＰＬＡＣＥ．Ｔ５０１,,13,104,1620845,,,,,,,2022-04-07,1,,,,,サンロクマルプラス,0
1904,7011105010216,新規,0,2022-04-07,2022-04-07,一般社団法人日本炎症性腸疾患学会,,その他の設立登記法人,東京都,新宿区,下宮比町２番２８号,,13,104,1620822,,,,,,,2022-04-07,1,,,,,ニホンエンショウセイチョウシッカンガッカイ,0
1905,7011301027690,新規,0,2022-04-07,2022-04-07,株式会社フルーク,,株式会社,東京都,杉並区,阿佐谷北２丁目１番８号,,13,115,1660001,,,,,,,2022-04-07,1,,,,,フルーク,0
1909,7011501027904,新規,0,2022-04-07,2022-04-07,新瑞澤株式会社,,株式会社,東京都,荒川区,東日暮里４丁目３３－１２－２０３室,,13,118,1160014,,,,,,,2022-04-07,1,,,,,シンミズサワ,0
1910,7011501027912,新規,0,2022-04-07,2022-04-07,株式会社ＳＢＨライン,,株式会社,東京都,荒川区,東日暮里３丁目３７番２号,,13,118,1160014,,,,,,,2022-04-07,1,,,,,エスビーエイチライン,0
1911,7011501027920,新規,0,2022-04-07,2022-04-07,株式会社ＴＬＣ,,株式会社,東京都,北区,中里１丁目２番９号ルネサンスコート駒込５０１号,,13,117,1140015,,,,,,,2022-04-07,1,,,,,ティーエルシー,0
1912,7011503005123,新規,0,2022-04-07,2022-04-07,合同会社ＫＪアシスト,,合同会社,東京都,北区,田端新町３丁目１２番９－８１２号,,13,117,1140012,,,,,,,2022-04-07,1,,,,,ケイジェイアシスト,0
1913,7011503005131,新規,0,2022-04-07,2022-04-07,レグランド合同会社,,合同会社,東京都,北区,西ケ原１丁目４６番１９－１０１号,,13,117,1140024,,,,,,,2022-04-07,1,,,,,レグランド,0
1916,7011601025873,新規,0,2022-04-07,2022-04-07,株式会社ＫＴＳＫ,,株式会社,東京都,練馬区,豊玉南３丁目７番２号,,13,120,1760014,,,,,,,2022-04-07,1,,,,,ケーティーエスケー,0
1917,7011701025195,新規,0,2022-04-07,2022-04-07,株式会社フィリア,,株式会社,東京都,江戸川区,平井４丁目７番９号,,13,123,1320035,,,,,,,2022-04-07,1,,,,,フィリア,0
1922,7012301012947,新規,0,2022-04-07,2022-04-07,株式会社Ａｋａｔｕｋｉ,,株式会社,東京都,町田市,上小山田町４３９番地２７,,13,209,1940201,,,,,,,2022-04-07,1,,,,,アカツキ,0
1929,7013301048898,新規,0,2022-04-07,2022-04-07,ウイズダム株式会社,,株式会社,東京都,豊島区,東池袋２丁目６２番８号ビッグオフィスプラザ池袋３０８,,13,116,1700013,,,,,,,2022-04-07,1,,,,,ウイズダム,0
1930,7013301048915,新規,0,2022-04-07,2022-04-07,株式会社ＪＡＣエージェンシー,,株式会社,東京都,豊島区,南池袋２丁目２９番１０号金井ビル９階,,13,116,1710022,,,,,,,2022-04-07,1,,,,,ジェーエーシーエージェンシー,0
1936,7020001145876,新規,0,2022-04-07,2022-04-07,株式会社ＪＩＪＩＥ．,,株式会社,神奈川県,横浜市磯子区,久木町１８番１１号,,14,107,2350015,,,,,,,2022-04-07,1,,,,,ジーヂエ,0
1938,7020003021588,新規,0,2022-04-07,2022-04-07,Ｎｅｘｔｏｎ合同会社,,合同会社,神奈川県,横浜市泉区,中田西３丁目１３番１６号,,14,116,2450015,,,,,,,2022-04-07,1,,,,,ネクストン,0
1939,7020005015456,新規,0,2022-04-07,2022-04-07,一般社団法人川崎ものづくり支援協会,,その他の設立登記法人,神奈川県,川崎市川崎区,駅前本町１１番地２,,14,131,2100007,,,,,,,2022-04-07,1,,,,,,0
1940,7020005015489,新規,0,2022-04-07,2022-04-07,医療法人友歯会,,その他の設立登記法人,神奈川県,川崎市川崎区,渡田１丁目９番２号,,14,131,2100837,,,,,,,2022-04-07,1,,,,,ユウシカイ,0
1943,7021001075601,新規,0,2022-04-07,2022-04-07,あそびゴコロ株式会社,,株式会社,神奈川県,藤沢市,亀井野４丁目１３番地の１６,,14,205,2520813,,,,,,,2022-04-07,1,,,,,アソビゴコロ,0
1944,7021001075650,新規,0,2022-04-07,2022-04-07,株式会社リージェ,,株式会社,神奈川県,鎌倉市,小町２丁目１６番５号,,14,204,2480006,,,,,,,2022-04-07,1,,,,,リージェ,0
1946,7021003011554,新規,0,2022-04-07,2022-04-07,合同会社ＫＳＴ,,合同会社,神奈川県,相模原市緑区,相原４丁目２５番３５号,,14,151,2520141,,,,,,,2022-04-07,1,,,,,ケイエスティー,0
1947,7021003011562,新規,0,2022-04-07,2022-04-07,合同会社ドア・トゥ・シー,,合同会社,神奈川県,鎌倉市,材木座２丁目８番２３号,,14,204,2480013,,,,,,,2022-04-07,1,,,,,ドアトゥシー,0
1948,7021005012484,新規,0,2022-04-07,2022-04-07,一般社団法人日本ブルーフラッグ協会,,その他の設立登記法人,神奈川県,藤沢市,鵠沼桜が岡３丁目９番２９号,,14,205,2510027,,,,,,,2022-04-07,1,,,,,ニホンブルーフラッグキョウカイ,0
1953,7030001147491,新規,0,2022-04-07,2022-04-07,株式会社ＳＳＣ,,株式会社,埼玉県,吉川市,高富２丁目２番地１７,,11,243,3420036,,,,,,,2022-04-07,1,,,,,エスエスシー,0
1954,7030001147582,新規,0,2022-04-07,2022-04-07,レイト建設株式会社,,株式会社,埼玉県,川口市,大字安行慈林７５４番地の２５,,11,203,3340071,,,,,,,2022-04-07,1,,,,,レイトケンセツ,0
1955,7030001147590,新規,0,2022-04-07,2022-04-07,株式会社オオミヤ,,株式会社,埼玉県,さいたま市桜区,田島３丁目６番１号グランドカーサ武蔵野２０３号,,11,106,3380837,,,,,,,2022-04-07,1,,,,,オオミヤ,0
1956,7030001147632,新規,0,2022-04-07,2022-04-07,株式会社丸鳶,,株式会社,埼玉県,飯能市,大字原町２８１番地９,,11,209,3570005,,,,,,,2022-04-07,1,,,,,マルトビ,0
1958,7030003019144,新規,0,2022-04-07,2022-04-07,合同会社ａｒｉａ,,合同会社,埼玉県,越谷市,千間台西６丁目１８番地２９,,11,222,3430041,,,,,,,2022-04-07,1,,,,,アリア,0
1965,7040001122881,新規,0,2022-04-07,2022-04-07,株式会社ナベプロ,,株式会社,千葉県,船橋市,大穴南１丁目２０番２６号,,12,204,2740067,,,,,,,2022-04-07,1,,,,,ナベプロ,0
1968,7040003019812,新規,0,2022-04-07,2022-04-07,ＭＡＫＥＳ　ｅｉｇｈｔ合同会社,,合同会社,千葉県,市原市,根田３丁目７番地５０,,12,219,2900024,,,,,,,2022-04-07,1,,,,,メイクスエイト,0
1970,7050001050891,新規,0,2022-04-07,2022-04-07,株式会社アンプリファイド,,株式会社,茨城県,ひたちなか市,大字馬渡２９７６番地１５,,08,221,3120012,,,,,,,2022-04-07,1,,,,,アンプリファイド,0
1971,7050001050909,新規,0,2022-04-07,2022-04-07,株式会社ミトコンドリアＨＴＲ,,株式会社,茨城県,水戸市,千波町１４１番地の７,,08,201,3100851,,,,,,,2022-04-07,1,,,,,ミトコンドリアエイチティーアール,0
1974,7060001034729,新規,0,2022-04-07,2022-04-07,株式会社ＤＣ　ＨＥＡＬＳ,,株式会社,栃木県,宇都宮市,上戸祭町２４６番地１ハピネスソルファ１０３号室,,09,201,3200051,,,,,,,2022-04-07,1,,,,,ディーシーヒールズ,0
1978,7060003004011,新規,0,2022-04-07,2022-04-07,合同会社大電,,合同会社,栃木県,日光市,根室３４１番地,,09,206,3212342,,,,,,,2022-04-07,1,,,,,ダイデン,0
1979,7070005009981,新規,0,2022-04-07,2022-04-07,一般社団法人太田フリースクールあおば,,その他の設立登記法人,群馬県,太田市,大島町９３５番地５,,10,205,3730055,,,,,,,2022-04-07,1,,,,,オオタフリースクールアオバ,0
1984,7080105006242,新規,0,2022-04-07,2022-04-07,静岡ＴＲＥＥ　ＣＡＲＥ　ＰＲＯＦＥＳＳＩＯＮＡＬ協同組合,,その他の設立登記法人,静岡県,伊東市,玖須美元和田７１５番地の１２０,,22,208,4140045,,,,,,,2022-04-07,1,,,,,シズオカツリーケアプロフェッショナル,0
1985,7080401025730,新規,0,2022-04-07,2022-04-07,株式会社Ｍ’ｓ,,株式会社,静岡県,浜松市中区,高林４丁目３番３６号,,22,131,4300907,,,,,,,2022-04-07,1,,,,,エムズ,0
1986,7080401025739,新規,0,2022-04-07,2022-04-07,株式会社キカラボ,,株式会社,静岡県,浜松市中区,和合町２２０番地の２６３４,,22,131,4338125,,,,,,,2022-04-07,1,,,,,キカラボ,0
1987,7090001017508,新規,0,2022-04-07,2022-04-07,山道珈琲株式会社,,株式会社,山梨県,山梨市,小原東７２番地２,,19,205,4050005,,,,,,,2022-04-07,1,,,,,ヤマミチコーヒー,0
1990,7100003006498,新規,0,2022-04-07,2022-04-07,合同会社ｆｉｒｓｔ　ｐｌａｃｅ,,合同会社,長野県,上田市,上田１４６８番地１中丘ハイツＡ棟１０１号,,20,203,3860001,,,,,,,2022-04-07,1,,,,,ファーストプレス,0
1995,7110001036562,新規,0,2022-04-07,2022-04-07,株式会社再生支援機構,,株式会社,新潟県,新潟市中央区,医学町通２番町７４番地１トーカン医学町マンション３０２,,15,103,9518124,,,,,,,2022-04-07,1,,,,,サイセイシエンキコウ,0
2006,7120001244841,新規,0,2022-04-07,2022-04-07,株式会社Ｃｈａｐｔｅｒ３,,株式会社,大阪府,大阪市港区,夕凪１丁目９－９プレアール夕凪１－Ａ,,27,107,5520004,,,,,,,2022-04-07,1,,,,,チャプタースリー,0
2007,7120001244890,新規,0,2022-04-07,2022-04-07,株式会社メゾンドハタナカ,,株式会社,大阪府,大阪市北区,野崎町１－３０－１１１２,,27,127,5300055,,,,,,,2022-04-07,1,,,,,メゾンドハタナカ,0
2008,7120001244957,新規,0,2022-04-07,2022-04-07,ＨＲ株式会社,,株式会社,大阪府,大阪市西区,江戸堀２丁目１番１号,,27,106,5500002,,,,,,,2022-04-07,1,,,,,エイチアール,0
2009,7120001244965,新規,0,2022-04-07,2022-04-07,株式会社オペレーションエンタープライズ,,株式会社,大阪府,大阪市北区,堂島１丁目２番２７号オーシャンビル２０１号室,,27,127,5300003,,,,,,,2022-04-07,1,,,,,オペレーションエンタープライズ,0
2010,7120001245014,新規,0,2022-04-07,2022-04-07,瑞城株式会社,,株式会社,大阪府,大阪市生野区,生野西４丁目１８番１４号,,27,116,5440024,,,,,,,2022-04-07,1,,,,,ミズジョウ,0
2011,7120001245047,新規,0,2022-04-07,2022-04-07,ＡＳＹＵ工業株式会社,,株式会社,大阪府,大阪市此花区,高見１丁目３番３２－１１０６号,,27,104,5540001,,,,,,,2022-04-07,1,,,,,アシュウコウギョウ,0
2012,7120001245063,新規,0,2022-04-07,2022-04-07,株式会社ケイディプラス,,株式会社,大阪府,大阪市福島区,福島８丁目８番３号,,27,103,5530003,,,,,,,2022-04-07,1,,,,,ケイディプラス,0
2015,7120003021446,新規,0,2022-04-07,2022-04-07,合同会社ＮＯ　ＮＯＯＤＬＥ，ＮＯ　ＬＩＦＥ．,,合同会社,大阪府,大阪市北区,浪花町１３－１９－６０２,,27,127,5300022,,,,,,,2022-04-07,1,,,,,ノーヌードルノーライフ,0
2020,7120101065337,新規,0,2022-04-07,2022-04-07,株式会社アサヤマ,,株式会社,大阪府,貝塚市,三ケ山１６３２番地１,,27,208,5970101,,,,,,,2022-04-07,1,,,,,アサヤマ,0
2021,7120101065345,新規,0,2022-04-07,2022-04-07,株式会社ひのもと企画室,,株式会社,大阪府,藤井寺市,惣社２丁目７番６号,,27,226,5830005,,,,,,,2022-04-07,1,,,,,ヒノモトキカクシツ,0
2022,7120105009538,新規,0,2022-04-07,2022-04-07,一般社団法人ＷａｉＷａｉ,,その他の設立登記法人,大阪府,泉佐野市,長滝２０９,,27,213,5980034,,,,,,,2022-04-07,1,,,,,ワイワイ,0
2025,7120901045793,新規,0,2022-04-07,2022-04-07,株式会社ＷＡＫＡＴＥＣ,,株式会社,大阪府,豊中市,上野西２丁目２０番２６－２０１号,,27,203,5600011,,,,,,,2022-04-07,1,,,,,ワカテック,0
2026,7120901045819,新規,0,2022-04-07,2022-04-07,株式会社ＳＤＴＥＣ,,株式会社,大阪府,高槻市,花林苑１９番１９号,,27,207,5691018,,,,,,,2022-04-07,1,,,,,エスディーテック,0
2032,7130003007849,新規,0,2022-04-07,2022-04-07,合同会社たんぽぽ乳児保育園,,合同会社,京都府,福知山市,字篠尾１２７６番地の１,,26,201,6200000,,,,,,,2022-04-07,1,,,,,タンポポニュウジホイクエン,0
2034,7130005016435,新規,0,2022-04-07,2022-04-07,医療法人インターメディカル,,その他の設立登記法人,京都府,京都市中京区,寺町通二条上る西側要法寺前町７２４番地１,,26,104,6040000,,,,,,,2022-04-07,1,,,,,インターメディカル,0
2035,7140001125445,新規,0,2022-04-07,2022-04-07,株式会社オキテック,,株式会社,兵庫県,神戸市長田区,野田町７丁目７番１１－１号,,28,106,6530051,,,,,,,2022-04-07,1,,,,,オキテック,0
2036,7140001125486,新規,0,2022-04-07,2022-04-07,株式会社関仲,,株式会社,兵庫県,淡路市,岩屋１０８０番地,,28,226,6562401,,,,,,,2022-04-07,1,,,,,セキナカ,0
2037,7140001125503,新規,0,2022-04-07,2022-04-07,株式会社Ｏｆｆｉｃｅ　ＧＲＡＮＩＴＯ,,株式会社,兵庫県,神戸市東灘区,鴨子ケ原２丁目８番１３号,,28,101,6580064,,,,,,,2022-04-07,1,,,,,オフィスグラニート,0
2038,7140001125536,新規,0,2022-04-07,2022-04-07,株式会社Ｔｒａｓｔｉｃ．Ｆ,,株式会社,兵庫県,尼崎市,善法寺町２３番１６号,,28,202,6610973,,,,,,,2022-04-07,1,,,,,トラスティックエフ,0
2039,7140001125552,新規,0,2022-04-07,2022-04-07,株式会社ＡＳＡ,,株式会社,兵庫県,芦屋市,業平町６番１６号,,28,206,6590068,,,,,,,2022-04-07,1,,,,,エーエスエー,0
2042,7140003017541,新規,0,2022-04-07,2022-04-07,ＫＯＢＥＳＯ合同会社,,合同会社,兵庫県,神戸市中央区,江戸町９６番地,,28,110,6500033,,,,,,,2022-04-07,1,,,,,コベソウ,0
2045,7160001024091,新規,0,2022-04-07,2022-04-07,株式会社Ｒ＆Ｍ,,株式会社,滋賀県,高島市,安曇川町下小川４３３番地,,25,212,5201223,,,,,,,2022-04-07,1,,,,,アールアンドエム,0
2046,7160001024100,新規,0,2022-04-07,2022-04-07,株式会社薪来歩,,株式会社,滋賀県,高島市,今津町梅原１２０５番地７,,25,212,5201654,,,,,,,2022-04-07,1,,,,,マキライフ,0
2047,7160003002533,新規,0,2022-04-07,2022-04-07,合同会社ＮＡＮＡＰＬＵＳ,,合同会社,滋賀県,彦根市,新町３９番地,,25,202,5220085,,,,,,,2022-04-07,1,,,,,ナナプラス,0
2054,7180001150720,新規,0,2022-04-07,2022-04-07,株式会社ワイズブライト,,株式会社,愛知県,一宮市,あずら２丁目３１番２７号,,23,203,4910835,,,,,,,2022-04-07,1,,,,,ワイズブライト,0
2055,7180001150737,新規,0,2022-04-07,2022-04-07,株式会社ＳＳオートグラス,,株式会社,愛知県,名古屋市緑区,鳴海町字白山１５番地の３,,23,114,4580801,,,,,,,2022-04-07,1,,,,,エスエスオートグラス,0
2056,7180001150753,新規,0,2022-04-07,2022-04-07,株式会社カナエル不動産,,株式会社,愛知県,一宮市,本町２丁目４番１６号,,23,203,4910859,,,,,,,2022-04-07,1,,,,,カナエルフドウサン,0
2057,7180001150786,新規,0,2022-04-07,2022-04-07,株式会社伊良湖ホテル＆リゾート,,株式会社,愛知県,名古屋市中川区,八田町２３０６番地ルフィール八田４０１,,23,110,4540877,,,,,,,2022-04-07,1,,,,,イラゴホテルアンドリゾート,0
2059,7180003023643,新規,0,2022-04-07,2022-04-07,合同会社ｙ０,,合同会社,愛知県,稲沢市,大塚南８丁目２５番地セジュールＦＸ塚本Ｈ号室,,23,220,4928214,,,,,,,2022-04-07,1,,,,,ワイゼロ,0
2060,7180003023701,新規,0,2022-04-07,2022-04-07,合同会社ＨＤＭコンサルティング,,合同会社,愛知県,春日井市,味美白山町２丁目９－２６,,23,206,4860969,,,,,,,2022-04-07,1,,,,,エイチディーエムコンサルティング,0
2061,7180005019706,新規,0,2022-04-07,2022-04-07,医療法人安仁会,,その他の設立登記法人,愛知県,知多市,岡田字向田５３番地１,,23,224,4780021,,,,,,,2022-04-07,1,,,,,アンジンカイ,0
2062,7180005019730,新規,0,2022-04-07,2022-04-07,一般社団法人あいち障がい者就労・生活支援機構,,その他の設立登記法人,愛知県,名古屋市千種区,香流橋２丁目１番４１号（ユーステージ香流伍番館１３０４号）,,23,101,4640002,,,,,,,2022-04-07,1,,,,,アイチショウガイシャシュウロウセイカツシエンキコウ,0
2064,7180301036074,新規,0,2022-04-07,2022-04-07,株式会社Ｗｉｔｈ．,,株式会社,愛知県,岡崎市,福岡町字堂ノ後２９番地３,,23,202,4440825,,,,,,,2022-04-07,1,,,,,ウィズ,0
2065,7180301036082,新規,0,2022-04-07,2022-04-07,株式会社三景グリーン,,株式会社,愛知県,西尾市,深池町東浦３２番地,,23,213,4450875,,,,,,,2022-04-07,1,,,,,サンケイグリーン,0
2066,7180301036090,新規,0,2022-04-07,2022-04-07,株式会社Ｒａｃｋ　ｕｐ,,株式会社,愛知県,刈谷市,井ケ谷町戌沼２２番地１石川マンション１０３号,,23,210,4480001,,,,,,,2022-04-07,1,,,,,ラックアップ,0
2067,7180305009324,新規,0,2022-04-07,2022-04-07,一般社団法人グラスルーツとよはし,,その他の設立登記法人,愛知県,豊橋市,豊岡町１３０番地パークウエストハイムＢ,,23,201,4400034,,,,,,,2022-04-07,1,,,,,グラスルーツトヨハシ,0
2072,7200003005515,新規,0,2022-04-07,2022-04-07,合同会社アバカム,,合同会社,岐阜県,岐阜市,加野２丁目２０番１１号,,21,201,5013107,,,,,,,2022-04-07,1,,,,,アバカム,0
2073,7200003005523,新規,0,2022-04-07,2022-04-07,合同会社本田電気保安管理事務所,,合同会社,岐阜県,関市,山田８７４番地１６,,21,205,5013944,,,,,,,2022-04-07,1,,,,,ホンダデンキホアンカンリジムショ,0
2074,7200003005531,新規,0,2022-04-07,2022-04-07,ウツエ電業合同会社,,合同会社,岐阜県,高山市,国府町宇津江２２４３番地３４,,21,203,5094121,,,,,,,2022-04-07,1,,,,,ウツエデンギョウ,0
2083,7240001059567,新規,0,2022-04-07,2022-04-07,株式会社ＡＣＮ中四国,,株式会社,広島県,広島市中区,立町１番２０号,,34,101,7300032,,,,,,,2022-04-07,1,,,,,エーシーエヌチュウシコク,0
2087,7260001036721,新規,0,2022-04-07,2022-04-07,株式会社廣幡農園,,株式会社,岡山県,勝田郡勝央町,下町川９２２番地,,33,622,7094301,,,,,,,2022-04-07,1,,,,,ヒロハタノウエン,0
2091,7260003003876,新規,0,2022-04-07,2022-04-07,合同会社桜尾支障木処理,,合同会社,岡山県,津山市,阿波２５２１,,33,203,7093951,,,,,,,2022-04-07,1,,,,,サクラオシショウボクショリ,0
2094,7290001097059,新規,0,2022-04-07,2022-04-07,株式会社風土テック,,株式会社,福岡県,福岡市博多区,博多駅東２丁目６番１４－２０１号,,40,132,8120013,,,,,,,2022-04-07,1,,,,,フウドテック,0
2095,7290001097091,新規,0,2022-04-07,2022-04-07,株式会社氣サプライ,,株式会社,福岡県,久留米市,北野町今山５３４番地１,,40,203,8301122,,,,,,,2022-04-07,1,,,,,キサプライ,0
2096,7290001097100,新規,0,2022-04-07,2022-04-07,株式会社達磨工業,,株式会社,福岡県,福岡市西区,小戸３丁目１９番５号,,40,135,8190001,,,,,,,2022-04-07,1,,,,,ダルマコウギョウ,0
2101,7290003012362,新規,0,2022-04-07,2022-04-07,ＦＭＣ合同会社,,合同会社,福岡県,朝倉市,甘木１２３７番地２１,,40,228,8380068,,,,,,,2022-04-07,1,,,,,エフエムシー,0
2105,7290801028411,新規,0,2022-04-07,2022-04-07,北九州ガスセンター株式会社,,株式会社,福岡県,北九州市戸畑区,牧山５丁目１番１０号,,40,105,8040053,,,,,,,2022-04-07,1,,,,,キタキュウシュウガスセンター,0
2106,7290801028428,新規,0,2022-04-07,2022-04-07,株式会社ｆｉｓｔ,,株式会社,福岡県,北九州市小倉南区,下城野２丁目８番９号,,40,107,8020804,,,,,,,2022-04-07,1,,,,,フィスト,0
2112,7310005008604,新規,0,2022-04-07,2022-04-07,一般社団法人江島審議会,,その他の設立登記法人,長崎県,西海市,崎戸町江島字丸田１１１番４,,42,212,8573103,,,,,,,2022-04-07,1,,,,,エノシマシンギカイ,0
2113,7330001029602,新規,0,2022-04-07,2022-04-07,株式会社Ｓ・Ｂ・Ｈ,,株式会社,熊本県,熊本市中央区,出水４丁目５番２１号,,43,101,8620941,,,,,,,2022-04-07,1,,,,,エスビーエイチ,0
2114,7330001029635,新規,0,2022-04-07,2022-04-07,株式会社ＤＤＭ,,株式会社,熊本県,熊本市北区,飛田３丁目３番２７号,,43,105,8615514,,,,,,,2022-04-07,1,,,,,ディディエム,0
2117,7340001024627,新規,0,2022-04-07,2022-04-07,株式会社祐建,,株式会社,鹿児島県,肝属郡肝付町,新富４７番地１,,46,492,8931207,,,,,,,2022-04-07,1,,,,,ユウケン,0
2120,7350003004056,新規,0,2022-04-07,2022-04-07,合同会社ＵＴ,,合同会社,宮崎県,都城市,上川東４丁目５７５３－１１,,45,202,8850012,,,,,,,2022-04-07,1,,,,,ユーティー,0
2121,7350005006059,新規,0,2022-04-07,2022-04-07,社会福祉法人せせらぎ,,その他の設立登記法人,宮崎県,日南市,大字酒谷乙１０４３９番地１,,45,204,8892511,,,,,,,2022-04-07,1,,,,,セセラギ,0
2131,7380005012558,新規,0,2022-04-07,2022-04-07,医療法人松尚会,,その他の設立登記法人,福島県,福島市,南矢野目字上戸ノ内３番地の１,,07,201,9600112,,,,,,,2022-04-07,1,,,,,マツショウカイ,0
2132,7380005012566,新規,0,2022-04-07,2022-04-07,医療法人ナチュール歯科,,その他の設立登記法人,福島県,福島市,東浜町５番１２号,,07,201,9608132,,,,,,,2022-04-07,1,,,,,ナチュールシカ,0
2138,7410001013135,新規,0,2022-04-07,2022-04-07,株式会社えびす工務店,,株式会社,秋田県,山本郡三種町,鵜川字内田９６番地５,,05,348,0182401,,,,,,,2022-04-07,1,,,,,エビスコウムテン,0
2139,7420001017787,新規,0,2022-04-07,2022-04-07,株式会社竹浪板金店,,株式会社,青森県,弘前市,大字種市字高瀬１番地２,,02,202,0383614,,,,,,,2022-04-07,1,,,,,タケナミバンキンテン,0
2143,7430001086336,新規,0,2022-04-07,2022-04-07,株式会社Ｈｏｎｅｓｔ,,株式会社,北海道,札幌市豊平区,月寒東三条１９丁目１４番７号,,01,105,0620053,,,,,,,2022-04-07,1,,,,,オネスト,0
2146,7430003013783,新規,0,2022-04-07,2022-04-07,合同会社ｑｕａｎｇ,,合同会社,北海道,札幌市北区,篠路町上篠路３０番地１９,,01,102,0028052,,,,,,,2022-04-07,1,,,,,クオング,0
2148,7460001005680,新規,0,2022-04-07,2022-04-07,ＹＳＰ重建株式会社,,株式会社,北海道,釧路市,鳥取大通４丁目９番２０号,,01,206,0840906,,,,,,,2022-04-07,1,,,,,ワイエスピージュウケン,0
2153,7480001011693,新規,0,2022-04-07,2022-04-07,株式会社三井紙器,,株式会社,徳島県,徳島市,北佐古一番町４番２８号,,36,201,7700011,,,,,,,2022-04-07,1,,,,,ミツイシキ,0
2155,7500001024131,新規,0,2022-04-07,2022-04-07,株式会社Ｎｗｏｏｄ,,株式会社,愛媛県,松山市,古三津１丁目６番２２号,,38,201,7918067,,,,,,,2022-04-07,1,,,,,エヌウッド,0
2164,8010001225653,新規,0,2022-04-07,2022-04-07,株式会社キミテックス,,株式会社,東京都,中央区,八重州二丁目４番１号,,13,102,1030000,,,,,,,2022-04-07,1,,,,,キミテックス,0
2166,8010003037378,新規,0,2022-04-07,2022-04-07,Ｒｉｎｇ　Ａｇｉｌｉｔｙ合同会社,,合同会社,東京都,中央区,勝どき６丁目３－１－７２１,,13,102,1040054,,,,,,,2022-04-07,1,,,,,リングアジリティ,0
2167,8010003037411,新規,0,2022-04-07,2022-04-07,おもてなし合同会社,,合同会社,東京都,中央区,銀座１丁目２２－１１－２Ｆ,,13,102,1040061,,,,,,,2022-04-07,1,,,,,オモテナシ,0
2174,8010401166506,新規,0,2022-04-07,2022-04-07,株式会社Ｍａｒｉｓｔｏ分割準備会社,,株式会社,東京都,港区,六本木３丁目１６番３３号青葉六本木ビルＡＮＮＥＸ２Ｆ,,13,103,1060032,,,,,,,2022-04-07,1,,,,,マリストブンカツジュンビガイシャ,0
2175,8010401166662,新規,0,2022-04-07,2022-04-07,株式会社Ｌｉｎｔｈｅｍ,,株式会社,東京都,港区,南青山６丁目３番１３号,,13,103,1070062,,,,,,,2022-04-07,1,,,,,リンセム,0
2177,8010403027400,新規,0,2022-04-07,2022-04-07,合同会社ＫＥＹ　ＶＩＩＩ,,合同会社,東京都,港区,赤坂４丁目８番１９号赤坂フロントタウン３階,,13,103,1070052,,,,,,,2022-04-07,1,,,,,ケイエイト,0
2179,8010405020873,新規,0,2022-04-07,2022-04-07,一般社団法人アジア太平洋ＩＴ人材支援協会,,その他の設立登記法人,東京都,港区,芝浦３丁目８番１０号ＭＡ芝浦ビル４階,,13,103,1080023,,,,,,,2022-04-07,1,,,,,アジアタイヘイヨウアイティージンザイシエンキョウカイ,0
2187,8010701042464,新規,0,2022-04-07,2022-04-07,ｉＣｕｒｅテクノロジー株式会社,,株式会社,東京都,品川区,東五反田５丁目２２番３３号ＴＫ池田山ビル２Ｆ,,13,109,1410022,,,,,,,2022-04-07,1,,,,,アイキュアテクノロジー,0
2188,8010805002934,新規,0,2022-04-07,2022-04-07,一般社団法人ＯＦＦＩＣＥ　Ｋ,,その他の設立登記法人,東京都,大田区,中馬込２丁目１６番１号,,13,111,1430027,,,,,,,2022-04-07,1,,,,,オフィスケイ,0
2192,8010901050606,新規,0,2022-04-07,2022-04-07,株式会社ｍｏｃｏ　Ｅａｒｔｈ,,株式会社,東京都,世田谷区,船橋４丁目３８番５号,,13,112,1560055,,,,,,,2022-04-07,1,,,,,モコアース,0
2193,8010901050647,新規,0,2022-04-07,2022-04-07,株式会社ＳＬＡＳＨ,,株式会社,東京都,世田谷区,若林２丁目２２番２１号,,13,112,1540023,,,,,,,2022-04-07,1,,,,,スラッシュ,0
2194,8010901050663,新規,0,2022-04-07,2022-04-07,株式会社ピュアワン２ｎｄ,,株式会社,東京都,世田谷区,等々力７丁目２２－１６,,13,112,1580082,,,,,,,2022-04-07,1,,,,,ピュアワンセカンド,0
2197,8011001146567,新規,0,2022-04-07,2022-04-07,株式会社ＱＶＥ,,株式会社,東京都,渋谷区,神宮前６丁目２３－４,,13,113,1500001,,,,,,,2022-04-07,1,,,,,キュブイイー,0
2198,8011001146724,新規,0,2022-04-07,2022-04-07,株式会社ＭＡＡＫ,,株式会社,東京都,渋谷区,千駄ヶ谷３丁目１２番１９－１０１号,,13,113,1510051,,,,,,,2022-04-07,1,,,,,マーク,0
2199,8011001146732,新規,0,2022-04-07,2022-04-07,Ｔｏｋｙｏ　Ｉｎｎｏｖａｔｉｏｎ　Ｉｎｓｔｉｔｕｔｅ株式会社,,株式会社,東京都,渋谷区,渋谷２丁目１９番１５号,,13,113,1500002,,,,,,,2022-04-07,1,,,,,トウキョウイノベーションインスティテュート,0
2200,8011001146740,新規,0,2022-04-07,2022-04-07,ＳＡＫＥ　ＪＡＰＡＮ株式会社,,株式会社,東京都,目黒区,目黒１丁目４－１６目黒Ｇビル７Ｆ,,13,110,1530063,,,,,,,2022-04-07,1,,,,,サケジャパン,0
2201,8011001146815,新規,0,2022-04-07,2022-04-07,株式会社エッジ,,株式会社,東京都,渋谷区,渋谷２丁目７番１３号ネオメット青山３階,,13,113,1500002,,,,,,,2022-04-07,1,,,,,エッジ,0
2202,8011003014482,新規,0,2022-04-07,2022-04-07,ドットアンドカンパニー合同会社,,合同会社,東京都,渋谷区,神宮前６丁目２３番４号桑野ビル２階,,13,113,1500001,,,,,,,2022-04-07,1,,,,,ドットアンドカンパニー,0
2204,8011101098436,新規,0,2022-04-07,2022-04-07,株式会社ナインモア,,株式会社,東京都,新宿区,富久町１５番１－５０１７号,,13,104,1620067,,,,,,,2022-04-07,1,,,,,ナインモア,0
2205,8011101098444,新規,0,2022-04-07,2022-04-07,株式会社ＮＯＢＵ’Ｓ,,株式会社,東京都,新宿区,新宿２丁目１３番１６号旭ビル地下１階,,13,104,1600022,,,,,,,2022-04-07,1,,,,,ノブズ,0
2206,8011101098452,新規,0,2022-04-07,2022-04-07,株式会社ヌォーヴォアルバ,,株式会社,東京都,新宿区,西新宿３丁目３番１３号西新宿水間ビル６階,,13,104,1600023,,,,,,,2022-04-07,1,,,,,ヌォーヴォアルバ,0
2207,8011103011644,新規,0,2022-04-07,2022-04-07,合同会社Ｐ＆Ｔレイズ・インベストメント,,合同会社,東京都,新宿区,新宿１丁目５番４号,,13,104,1600022,,,,,,,2022-04-07,1,,,,,ピーアンドティーレイズインベストメント,0
2209,8011303004373,新規,0,2022-04-07,2022-04-07,合同会社印度で乱数,,合同会社,東京都,杉並区,久我山３丁目２８番５号第三吉伸荘２Ｆ号室,,13,115,1680082,,,,,,,2022-04-07,1,,,,,インドデランスウ,0
2212,8011403003622,新規,0,2022-04-07,2022-04-07,ＳＯＯ　ＷＩＮＥ合同会社,,合同会社,東京都,板橋区,板橋２丁目４５－１０Ｋマンション１０２号室,,13,119,1730004,,,,,,,2022-04-07,1,,,,,ソーワイン,0
2214,8011701025194,新規,0,2022-04-07,2022-04-07,株式会社ダイリン工業,,株式会社,東京都,江戸川区,東小松川４丁目１２番２６号,,13,123,1320033,,,,,,,2022-04-07,1,,,,,ダイリンコウギョウ,0
2215,8012301012938,新規,0,2022-04-07,2022-04-07,株式会社Ｃｌｅａｒｅｓｔ,,株式会社,東京都,町田市,森野１丁目３６番２号セレステ町田２階,,13,209,1940022,,,,,,,2022-04-07,1,,,,,クリアレスト,0
2216,8012305002002,新規,0,2022-04-07,2022-04-07,一般社団法人エコー淡路,,その他の設立登記法人,東京都,町田市,森野１丁目３１番８号－２コンフォートピア町田Ａ,,13,209,1940022,,,,,,,2022-04-07,1,,,,,エコーアワジ,0
2219,8012401039047,新規,0,2022-04-07,2022-04-07,株式会社Ｅ‐ＣＯＲＥ　ｄｅｓｉｇｎ,,株式会社,東京都,狛江市,東和泉１丁目３２番２号,,13,219,2010014,,,,,,,2022-04-07,1,,,,,イーコアデザイン,0
2223,8020001145990,新規,0,2022-04-07,2022-04-07,株式会社ミラソール,,株式会社,神奈川県,横浜市旭区,本宿町９７番地２２,,14,112,2410023,,,,,,,2022-04-07,1,,,,,ミラソール,0
2232,8021001075600,新規,0,2022-04-07,2022-04-07,株式会社ＧＥＫＫＯ,,株式会社,神奈川県,横須賀市,桜が丘２丁目４番１０号,,14,201,2390803,,,,,,,2022-04-07,1,,,,,ゲッコウ,0
2233,8021001075617,新規,0,2022-04-07,2022-04-07,箱根リゾートマネージメント株式会社,,株式会社,神奈川県,足柄下郡箱根町,仙石原１２６番地,,14,382,2500631,,,,,,,2022-04-07,1,,,,,ハコネリゾートマネージメント,0
2237,8030001147557,新規,0,2022-04-07,2022-04-07,株式会社ベルツリー農園,,株式会社,埼玉県,川口市,北原台２丁目１番１９号,,11,203,3330815,,,,,,,2022-04-07,1,,,,,ベルツリーノウエン,0
2238,8030001147581,新規,0,2022-04-07,2022-04-07,株式会社Ｎｅｘｔ　Ｉｎｎｏｖａｔｉｏｎ,,株式会社,埼玉県,さいたま市浦和区,高砂２丁目１番２０号日建高砂ビル６階,,11,107,3300063,,,,,,,2022-04-07,1,,,,,ネクストイノベーション,0
2241,8030003019143,新規,0,2022-04-07,2022-04-07,合同会社Ａｕｔｏ　ｓｅｒｖｉｃｅ＆ｐｅｒｆｏｒｍａｎｃｅ　ＥＮＤＯ,,合同会社,埼玉県,本庄市,児玉町金屋７８６番地２２,,11,211,3670216,,,,,,,2022-04-07,1,,,,,オートサービスアンドパフォーマンスエンドウ,0
2245,8040001122872,新規,0,2022-04-07,2022-04-07,株式会社ネクストライフ,,株式会社,千葉県,茂原市,高師町１丁目６番地３,,12,210,2970021,,,,,,,2022-04-07,1,,,,,ネクストライフ,0
2246,8040001122889,新規,0,2022-04-07,2022-04-07,株式会社安西商会,,株式会社,千葉県,南房総市,下滝田１５９０番地１,,12,234,2940805,,,,,,,2022-04-07,1,,,,,アンザイショウカイ,0
2252,8040003019803,新規,0,2022-04-07,2022-04-07,合同会社Ｄ‐ＳＴＹＬＥ,,合同会社,千葉県,市川市,福栄４丁目８番９号,,12,203,2720137,,,,,,,2022-04-07,1,,,,,ディースタイル,0
2254,8050003006494,新規,0,2022-04-07,2022-04-07,合同会社ハウオリ,,合同会社,茨城県,水戸市,中央２丁目７番１４号白田ビル,,08,201,3100805,,,,,,,2022-04-07,1,,,,,ハウオリ,0
2258,8060001034728,新規,0,2022-04-07,2022-04-07,株式会社楽農グループアオキ,,株式会社,栃木県,栃木市,都賀町家中６１１０番地１,,09,203,3280111,,,,,,,2022-04-07,1,,,,,ラクノウグループアオキ,0
2262,8060003004010,新規,0,2022-04-07,2022-04-07,合同会社タナカ商会,,合同会社,栃木県,下都賀郡壬生町,大字国谷８２２番地,,09,361,3210211,,,,,,,2022-04-07,1,,,,,タナカショウカイ,0
2263,8060005009965,新規,0,2022-04-07,2022-04-07,社会保険労務士法人田村事務所,,その他の設立登記法人,栃木県,宇都宮市,高砂町１１番５号,,09,201,3210134,,,,,,,2022-04-07,1,,,,,タムラジムショ,0
2264,8070001039107,新規,0,2022-04-07,2022-04-07,株式会社グリーンファーム創造,,株式会社,群馬県,太田市,矢田堀町１８番地,,10,205,3730016,,,,,,,2022-04-07,1,,,,,グリーンファームソウゾウ,0
2268,8080101023166,新規,0,2022-04-07,2022-04-07,株式会社めでたい,,株式会社,静岡県,富士市,島田町１丁目５０,,22,210,4170033,,,,,,,2022-04-07,1,,,,,メデタイ,0
2269,8080101023208,新規,0,2022-04-07,2022-04-07,株式会社ＡＭＥＮＯ,,株式会社,静岡県,熱海市,東海岸町４番１１号シーサイドレジデンス３０３号室,,22,205,4130012,,,,,,,2022-04-07,1,,,,,アメノ,0
2271,8080401025721,新規,0,2022-04-07,2022-04-07,エンシュウコネクティッド株式会社,,株式会社,静岡県,浜松市南区,高塚町４８８８番地,,22,134,4328065,,,,,,,2022-04-07,1,,,,,エンシュウコネクティッド,0
2272,8080401025738,新規,0,2022-04-07,2022-04-07,株式会社オフィスホリウチ,,株式会社,静岡県,浜松市東区,篠ケ瀬町３１番地の１,,22,132,4350042,,,,,,,2022-04-07,1,,,,,オフィスホリウチ,0
2274,8080403004509,新規,0,2022-04-07,2022-04-07,合同会社イーピス,,合同会社,静岡県,浜松市南区,三島町１１０６番地,,22,134,4300853,,,,,,,2022-04-07,1,,,,,イーピス,0
2277,8100003006497,新規,0,2022-04-07,2022-04-07,合同会社白兎,,合同会社,長野県,松本市,大手２丁目２番１０号グランドメゾン松本六九１０６号,,20,202,3900874,,,,,,,2022-04-07,1,,,,,ハクト,0
2281,8110003004731,新規,0,2022-04-07,2022-04-07,合同会社松楓園,,合同会社,新潟県,新潟市東区,材木町１番５８号,,15,102,9500811,,,,,,,2022-04-07,1,,,,,ショウフウエン,0
2282,8110005016782,新規,0,2022-04-07,2022-04-07,医療法人社団高桑歯科医院,,その他の設立登記法人,新潟県,燕市,新町２番３７号,,15,213,9591255,,,,,,,2022-04-07,1,,,,,タカクワシカイイン,0
2293,8120001244840,新規,0,2022-04-07,2022-04-07,株式会社モクｇｙｏｋｋｏｄｏ,,株式会社,大阪府,大阪市東成区,中道３丁目１５番１６号毎日東ビル６Ｆ,,27,115,5370025,,,,,,,2022-04-07,1,,,,,モクギョッコードー,0
2294,8120001244873,新規,0,2022-04-07,2022-04-07,高さんキムチ株式会社,,株式会社,大阪府,大阪市生野区,桃谷５丁目３番２２号,,27,116,5440034,,,,,,,2022-04-07,1,,,,,コウサンキムチ,0
2295,8120001244881,新規,0,2022-04-07,2022-04-07,株式会社Ｆｉｔｎｅｓｓ　ｏｆ　Ｊａｐａｎ,,株式会社,大阪府,大阪市北区,堂島２丁目４番２７号ＪＲＥ堂島タワーＢ１Ｆ,,27,127,5300003,,,,,,,2022-04-07,1,,,,,フィットネスオブジャパン,0
2296,8120001244923,新規,0,2022-04-07,2022-04-07,株式会社Ｐｕｂｌｉｃ　Ｉｍａｇｅ　Ｌｉｔｅ,,株式会社,大阪府,大阪市北区,大淀中３丁目１番３号,,27,127,5310076,,,,,,,2022-04-07,1,,,,,パブリックイメージライト,0
2297,8120001244964,新規,0,2022-04-07,2022-04-07,株式会社小川工業,,株式会社,大阪府,大阪市鶴見区,緑１丁目１２番１３号,,27,124,5380054,,,,,,,2022-04-07,1,,,,,オガワコウギョウ,0
2298,8120001244972,新規,0,2022-04-07,2022-04-07,株式会社デュエル,,株式会社,大阪府,大阪市西区,靱本町１丁目１５番１０号,,27,106,5500004,,,,,,,2022-04-07,1,,,,,デュエル,0
2299,8120001244997,新規,0,2022-04-07,2022-04-07,主派株式会社,,株式会社,大阪府,大阪市中央区,内本町２丁目３－１１内本町グリーンビル７Ｆ,,27,128,5400026,,,,,,,2022-04-07,1,,,,,シュハ,0
2300,8120001245046,新規,0,2022-04-07,2022-04-07,Ｙｓ　Ｄｅｃｏ株式会社,,株式会社,大阪府,大阪市旭区,中宮３丁目１３－５,,27,117,5350003,,,,,,,2022-04-07,1,,,,,ワイズデコ,0
2301,8120001245054,新規,0,2022-04-07,2022-04-07,株式会社彩聖テック,,株式会社,大阪府,大阪市生野区,舎利寺３丁目３番８号,,27,116,5440022,,,,,,,2022-04-07,1,,,,,サイセイテック,0
2302,8120001245062,新規,0,2022-04-07,2022-04-07,株式会社レジエス,,株式会社,大阪府,大阪市北区,東天満２丁目２番５号第二新興ビル４階,,27,127,5300044,,,,,,,2022-04-07,1,,,,,レジエス,0
2304,8120003021437,新規,0,2022-04-07,2022-04-07,合同会社ＬＩＮＫ　ｐｌｕｓ,,合同会社,大阪府,守口市,寺内町２丁目４番１５－２０１号,,27,209,5700056,,,,,,,2022-04-07,1,,,,,リンクプラス,0
2305,8120005022887,新規,0,2022-04-07,2022-04-07,一般社団法人大阪女子大学同窓会斐文会結婚相談室,,その他の設立登記法人,大阪府,大阪市淀川区,西中島４丁目４番２５号,,27,123,5320011,,,,,,,2022-04-07,1,,,,,,0
2306,8120005022895,新規,0,2022-04-07,2022-04-07,一般社団法人関西福祉支援協会,,その他の設立登記法人,大阪府,大阪市中央区,北浜２丁目１番２３号,,27,128,5410041,,,,,,,2022-04-07,1,,,,,カンサイフクシシエンキョウカイ,0
2311,8120901045792,新規,0,2022-04-07,2022-04-07,株式会社豊友会さくらんぼ保育園,,株式会社,大阪府,豊中市,南桜塚１丁目１６番７号,,27,203,5610882,,,,,,,2022-04-07,1,,,,,ホウユウカイサクランボホイクエン,0
2312,8120901045834,新規,0,2022-04-07,2022-04-07,株式会社ＳＩＬＳＩＡ,,株式会社,大阪府,茨木市,真砂３丁目４番１８号の１,,27,211,5670851,,,,,,,2022-04-07,1,,,,,シルシア,0
2318,8122001035740,新規,0,2022-04-07,2022-04-07,株式会社風呂屋,,株式会社,大阪府,八尾市,植松町５丁目５番１５号,,27,212,5810084,,,,,,,2022-04-07,1,,,,,フロヤ,0
2323,8130005016434,新規,0,2022-04-07,2022-04-07,一般社団法人日本経済支援機構,,その他の設立登記法人,京都府,京都市下京区,四条通室町東入函谷鉾町１０１番地アーバンネット四条烏丸ビル６階,,26,106,6008009,,,,,,,2022-04-07,1,,,,,ニホンケイザイシエンキコウ,0
2327,8140001125519,新規,0,2022-04-07,2022-04-07,株式会社Ｇｅｎｅ‐Ｂｅａｔ,,株式会社,兵庫県,神戸市中央区,磯上通８丁目１番２９号,,28,110,6510086,,,,,,,2022-04-07,1,,,,,ジェンビート,0
2330,8140003017532,新規,0,2022-04-07,2022-04-07,合同会社エヌ・プランツ,,合同会社,兵庫県,神戸市長田区,池田上町２番地の７,,28,106,6530824,,,,,,,2022-04-07,1,,,,,エヌプランツ,0
2333,8150001025429,新規,0,2022-04-07,2022-04-07,株式会社ジェイエムコネクト,,株式会社,奈良県,香芝市,旭ケ丘３丁目１４番地８,,29,210,6390266,,,,,,,2022-04-07,1,,,,,ジェイエムコネクト,0
2334,8160001024099,新規,0,2022-04-07,2022-04-07,株式会社ＡＮＫＡＭＡ,,株式会社,滋賀県,草津市,追分８丁目１３番１４号,,25,206,5250047,,,,,,,2022-04-07,1,,,,,アンカマ,0
2340,8160005011069,新規,0,2022-04-07,2022-04-07,一般社団法人滋賀県老人福祉施設協議会,,その他の設立登記法人,滋賀県,草津市,笠山７丁目８番１３８号,,25,206,5250072,,,,,,,2022-04-07,1,,,,,シガケンロウジンフクシシセツキョウギカイ,0
2346,8180001150703,新規,0,2022-04-07,2022-04-07,株式会社モデスト・イブー,,株式会社,愛知県,名古屋市緑区,篭山３丁目１１９番地Ａ－３４号,,23,114,4580007,,,,,,,2022-04-07,1,,,,,モデストイブー,0
2347,8180001150711,新規,0,2022-04-07,2022-04-07,株式会社閃電,,株式会社,愛知県,名古屋市守山区,西新１３番１４号ｓｔａｇｅ西新１０２号,,23,113,4630055,,,,,,,2022-04-07,1,,,,,センデン,0
2348,8180001150760,新規,0,2022-04-07,2022-04-07,株式会社ＳＣＦソリューションズ,,株式会社,愛知県,名古屋市北区,大曽根２丁目６番３号,,23,103,4620825,,,,,,,2022-04-07,1,,,,,エスシーエフソリューションズ,0
2349,8180001150785,新規,0,2022-04-07,2022-04-07,金森株式会社,,株式会社,愛知県,名古屋市中区,栄４丁目２０－１５美吉ビル２Ｆ南,,23,106,4600008,,,,,,,2022-04-07,1,,,,,カネモリ,0
2352,8180003023691,新規,0,2022-04-07,2022-04-07,むっちオフィス合同会社,,合同会社,愛知県,愛知郡東郷町,大字和合字牛廻間２３１番地１１,,23,302,4700153,,,,,,,2022-04-07,1,,,,,ムッチオフィス,0
2356,8180301036081,新規,0,2022-04-07,2022-04-07,株式会社ＢＥＡＭＳ,,株式会社,愛知県,額田郡幸田町,大字深溝字中池田５５番地,,23,501,4440124,,,,,,,2022-04-07,1,,,,,ビームス,0
2357,8180305009323,新規,0,2022-04-07,2022-04-07,一般社団法人チアフル岡崎,,その他の設立登記法人,愛知県,岡崎市,羽根東町３丁目３番地３,,23,202,4440832,,,,,,,2022-04-07,1,,,,,チアフルオカザキ,0
2359,8190005011693,新規,0,2022-04-07,2022-04-07,一般社団法人榊原温泉振興協会,,その他の設立登記法人,三重県,津市,榊原町５８２４番地１,,24,201,5141251,,,,,,,2022-04-07,1,,,,,サカキバラオンセンシンコウキョウカイ,0
2361,8200001039919,新規,0,2022-04-07,2022-04-07,株式会社ミライズ不動産,,株式会社,岐阜県,各務原市,那加浜見町１丁目８９番地１コーポ浜見１０１,,21,213,5040034,,,,,,,2022-04-07,1,,,,,ミライズフドウサン,0
2364,8200003005522,新規,0,2022-04-07,2022-04-07,合同会社夢風船,,合同会社,岐阜県,安八郡輪之内町,大吉新田９８０番地,,21,382,5030216,,,,,,,2022-04-07,1,,,,,ユメフウセン,0
2365,8200003005530,新規,0,2022-04-07,2022-04-07,合同会社ｆｅｌｉｃｅ,,合同会社,岐阜県,大垣市,入方３丁目３０番地３,,21,202,5030962,,,,,,,2022-04-07,1,,,,,フェリーチェ,0
2372,8230001019315,新規,0,2022-04-07,2022-04-07,株式会社ブイニティ,,株式会社,富山県,氷見市,鞍川１５６７番地,,16,205,9350025,,,,,,,2022-04-07,1,,,,,,0
2379,8260001036729,新規,0,2022-04-07,2022-04-07,株式会社ＷＩＮ警備保障,,株式会社,岡山県,津山市,大田５７番地６,,33,203,7080806,,,,,,,2022-04-07,1,,,,,ウィンケイビホショウ,0
2380,8260001036737,新規,0,2022-04-07,2022-04-07,株式会社アネル,,株式会社,岡山県,岡山市南区,妹尾１５番地３,,33,104,7010205,,,,,,,2022-04-07,1,,,,,アネル,0
2383,8260003003875,新規,0,2022-04-07,2022-04-07,ハレマチ不動産合同会社,,合同会社,岡山県,備前市,穂浪３２６番地４,,33,211,7050033,,,,,,,2022-04-07,1,,,,,ハレマチフドウサン,0
2384,8260005011059,新規,0,2022-04-07,2022-04-07,一般社団法人ひなた,,その他の設立登記法人,岡山県,倉敷市,福田町古新田１００２番地６５,,33,202,7128046,,,,,,,2022-04-07,1,,,,,ヒナタ,0
2391,8290001097025,新規,0,2022-04-07,2022-04-07,株式会社シマダ,,株式会社,福岡県,大牟田市,大字三池７８６番地,,40,202,8370921,,,,,,,2022-04-07,1,,,,,シマダ,0
2392,8290001097090,新規,0,2022-04-07,2022-04-07,株式会社福岡ＭＡＸＫＥＬＬＹ,,株式会社,福岡県,福岡市中央区,大名２丁目１番５３号ＢＰＲスクエア天神大名,,40,133,8100041,,,,,,,2022-04-07,1,,,,,フクオカマックスケリー,0
2393,8290001097132,新規,0,2022-04-07,2022-04-07,株式会社サステナブル,,株式会社,福岡県,福岡市早良区,原６丁目１８番２４号,,40,137,8140022,,,,,,,2022-04-07,1,,,,,サステナブル,0
2395,8290005018613,新規,0,2022-04-07,2022-04-07,社会保険労務士法人綾部事務所,,その他の設立登記法人,福岡県,春日市,ちくし台２丁目５１番地,,40,218,8160822,,,,,,,2022-04-07,1,,,,,アヤベジムショ,0
2397,8290801028410,新規,0,2022-04-07,2022-04-07,安心警備保障株式会社,,株式会社,福岡県,北九州市小倉南区,石田南３丁目３番１号,,40,107,8020836,,,,,,,2022-04-07,1,,,,,アンシンケイビホショウ,0
2400,8300001012873,新規,0,2022-04-07,2022-04-07,株式会社ニューライフ不動産,,株式会社,佐賀県,唐津市,千代田町２１０９番地１２３,,41,202,8470041,,,,,,,2022-04-07,1,,,,,ニューライフフドウサン,0
2407,8310005008603,新規,0,2022-04-07,2022-04-07,一般社団法人ぼちぼちくらぶ,,その他の設立登記法人,長崎県,佐世保市,小佐世保町１８番１号,,42,202,8570813,,,,,,,2022-04-07,1,,,,,ボチボチクラブ,0
2412,8330001029601,新規,0,2022-04-07,2022-04-07,Ｋ・Ｎ株式会社,,株式会社,熊本県,球磨郡錦町,大字木上北２７３８番地１,,43,501,8680301,,,,,,,2022-04-07,1,,,,,ケーエヌ,0
2416,8350001017686,新規,0,2022-04-07,2022-04-07,株式会社かげまさ,,株式会社,宮崎県,日向市,大字平岩８９８７番地１,,45,206,8830022,,,,,,,2022-04-07,1,,,,,カゲマサ,0
2418,8350005006058,新規,0,2022-04-07,2022-04-07,一般社団法人延岡後見支援センターささえ愛,,その他の設立登記法人,宮崎県,延岡市,中町１丁目４番地９,,45,203,8820823,,,,,,,2022-04-07,1,,,,,ノベオカコウケンシエンセンターササエアイ,0
2424,8380001032699,新規,0,2022-04-07,2022-04-07,株式会社アールエステート,,株式会社,福島県,福島市,八島町１２番２０号ＢＣビル４Ｆ,,07,201,9608136,,,,,,,2022-04-07,1,,,,,アールエステート,0
2425,8380001032716,新規,0,2022-04-07,2022-04-07,株式会社Ｐｒａｙｚ,,株式会社,福島県,相馬市,中村字桜ケ丘５４番地,,07,209,9760042,,,,,,,2022-04-07,1,,,,,プレイズ,0
2427,8380005012557,新規,0,2022-04-07,2022-04-07,税理士法人鈴木会計,,その他の設立登記法人,福島県,福島市,八島町１０番１５号,,07,201,9608136,,,,,,,2022-04-07,1,,,,,スズキカイケイ,0
2433,8390005008950,新規,0,2022-04-07,2022-04-07,一般社団法人やしろ,,その他の設立登記法人,山形県,鶴岡市,由良３丁目１２番３５号,,06,203,9997464,,,,,,,2022-04-07,1,,,,,ヤシロ,0
2438,8430001086343,新規,0,2022-04-07,2022-04-07,株式会社Ａｍｂｉ,,株式会社,北海道,札幌市中央区,大通西１丁目１４番地２桂和大通ビル５０　９Ｆ,,01,101,0600042,,,,,,,2022-04-07,1,,,,,アンビ,0
2440,8440001009055,新規,0,2022-04-07,2022-04-07,株式会社ヤマテ沼田水産,,株式会社,北海道,山越郡長万部町,字旭浜７１番地,,01,347,0493519,,,,,,,2022-04-07,1,,,,,ヤマテヌマタスイサン,0
2444,8450003002197,新規,0,2022-04-07,2022-04-07,合同会社大吉建設,,合同会社,北海道,旭川市,緑町２２丁目２１９６番地の１０,,01,204,0700823,,,,,,,2022-04-07,1,,,,,ダイキチケンセツ,0
2446,8460101007171,新規,0,2022-04-07,2022-04-07,株式会社イタガキ・ル・ブーランジェ,,株式会社,北海道,中川郡幕別町,字千住２３５－４,,01,643,0890563,,,,,,,2022-04-07,1,,,,,イタガキルブランジェ,0
2456,8490005006837,新規,0,2022-04-07,2022-04-07,一般社団法人加茂の里づくり会,,その他の設立登記法人,高知県,高岡郡佐川町,加茂６２１番地１,,39,402,7891204,,,,,,,2022-04-07,1,,,,,カモノサトヅクリカイ,0
2477,9010401166587,新規,0,2022-04-07,2022-04-07,供養ソリューションズ株式会社,,株式会社,東京都,港区,白金台５丁目２２番１２号前田道路白金ビル４Ｆ,,13,103,1080071,,,,,,,2022-04-07,1,,,,,クヨウソリューションズ,0
2478,9010401166595,新規,0,2022-04-07,2022-04-07,株式会社ジープラス,,株式会社,東京都,港区,六本木７丁目２１番２４号ＴＨＥ・ＭＯＤＵＬＥ・ｒｏｐｐｏｎｇｉ３１０号室,,13,103,1060032,,,,,,,2022-04-07,1,,,,,ジープラス,0
2479,9010401166629,新規,0,2022-04-07,2022-04-07,株式会社ひとうみ,,株式会社,東京都,港区,西新橋２丁目１４番７号,,13,103,1050003,,,,,,,2022-04-07,1,,,,,ヒトウミ,0
2480,9010401166653,新規,0,2022-04-07,2022-04-07,株式会社Ｔａｐｐｉ,,株式会社,東京都,港区,芝２丁目２２番９－７０８号,,13,103,1050014,,,,,,,2022-04-07,1,,,,,タッピー,0
2481,9010401166703,新規,0,2022-04-07,2022-04-07,株式会社ＡＺＰＲＯＭＯＴＩＯＮ,,株式会社,東京都,港区,赤坂４丁目１３－５赤坂オフィスハイツ,,13,103,1070052,,,,,,,2022-04-07,1,,,,,アズプロモーション,0
2482,9010403027416,新規,0,2022-04-07,2022-04-07,ＲＢソーラーウェーブ合同会社,,合同会社,東京都,港区,虎ノ門３丁目２２番１０－２０１号,,13,103,1050001,,,,,,,2022-04-07,1,,,,,アールビーソーラーウェーブ,0
2486,9010503006559,新規,0,2022-04-07,2022-04-07,合同会社ＩＫＩＨＡＪＩ,,合同会社,東京都,台東区,根岸１丁目１番３０号,,13,106,1100003,,,,,,,2022-04-07,1,,,,,イキハジ,0
2487,9010601060929,新規,0,2022-04-07,2022-04-07,株式会社丸大フードサプライ,,株式会社,東京都,江東区,枝川２丁目２３番２号,,13,108,1350051,,,,,,,2022-04-07,1,,,,,マルダイフードサプライ,0
2488,9010701042463,新規,0,2022-04-07,2022-04-07,株式会社日本マテリアルサービス,,株式会社,東京都,品川区,西五反田２丁目１８番２号,,13,109,1410031,,,,,,,2022-04-07,1,,,,,ニホンマテリアルサービス,0
2498,9011001146723,新規,0,2022-04-07,2022-04-07,サインフィルム株式会社,,株式会社,東京都,渋谷区,幡ヶ谷１丁目８番４号リッツパラシオ５０３号室,,13,113,1510072,,,,,,,2022-04-07,1,,,,,サインフィルム,0
2499,9011001146748,新規,0,2022-04-07,2022-04-07,株式会社ワンアンドオンリー,,株式会社,東京都,渋谷区,恵比寿４丁目３番１４号恵比寿ＳＳビル６Ｆ,,13,113,1500013,,,,,,,2022-04-07,1,,,,,ワンアンドオンリー,0
2500,9011001146764,新規,0,2022-04-07,2022-04-07,株式会社ＭＤＣ,,株式会社,東京都,渋谷区,渋谷１丁目１２番２号クロスオフィス渋谷３０５,,13,113,1500002,,,,,,,2022-04-07,1,,,,,エムディーシー,0
2501,9011001146780,新規,0,2022-04-07,2022-04-07,株式会社Ｄｅｌｉｓｈ　Ｊａｐａｎ,,株式会社,東京都,渋谷区,広尾１丁目９番２０号,,13,113,1500012,,,,,,,2022-04-07,1,,,,,デリッシュジャパン,0
2502,9011003014473,新規,0,2022-04-07,2022-04-07,合同会社千駄ヶ谷尾澤ビル,,合同会社,東京都,渋谷区,千駄ヶ谷１丁目７番８号,,13,113,1510051,,,,,,,2022-04-07,1,,,,,センダガヤオザワビル,0
2506,9011101098328,新規,0,2022-04-07,2022-04-07,株式会社ＧＲＩＴＥＣＴ,,株式会社,東京都,新宿区,新宿３丁目４番８号京王フレンテ新宿３丁目４Ｆ,,13,104,1600022,,,,,,,2022-04-07,1,,,,,グリテクト,0
2507,9011101098385,新規,0,2022-04-07,2022-04-07,株式会社クレア,,株式会社,東京都,新宿区,西新宿３丁目３番３１号,,13,104,1600023,,,,,,,2022-04-07,1,,,,,クレア,0
2508,9011101098427,新規,0,2022-04-07,2022-04-07,株式会社クロスリンク・インベストメンツ,,株式会社,東京都,新宿区,愛住町２３番１４号ベルックス新宿ビル３階,,13,104,1600005,,,,,,,2022-04-07,1,,,,,クロスリンクインベストメンツ,0
2510,9011103011643,新規,0,2022-04-07,2022-04-07,アールツー合同会社,,合同会社,東京都,新宿区,西新宿３丁目３番１３号西新宿水間ビル６階,,13,104,1600023,,,,,,,2022-04-07,1,,,,,アールツー,0
2511,9011103011651,新規,0,2022-04-07,2022-04-07,リゾナンシア合同会社,,合同会社,東京都,新宿区,神楽坂５丁目２０番５号神楽坂アインスタワー６０１号,,13,104,1620825,,,,,,,2022-04-07,1,,,,,リゾナンシア,0
2514,9011301027689,新規,0,2022-04-07,2022-04-07,株式会社ｉｎｏ建築設計室,,株式会社,東京都,杉並区,高円寺北３丁目４５番１号ＳＥＩＷＡ、ＢＬＤＧ２Ｆ,,13,115,1660002,,,,,,,2022-04-07,1,,,,,イノケンチクセッケイシツ,0
2516,9011501027910,新規,0,2022-04-07,2022-04-07,株式会社ひかる大地,,株式会社,東京都,北区,豊島８丁目２７番１－４１６号,,13,117,1140003,,,,,,,2022-04-07,1,,,,,ヒカルダイチ,0
2519,9011701025202,新規,0,2022-04-07,2022-04-07,株式会社鰆工舎,,株式会社,東京都,江戸川区,篠崎町６丁目７番５号長嶋コーポ２０２,,13,123,1330061,,,,,,,2022-04-07,1,,,,,サワラコウシャ,0
2525,9012305002001,新規,0,2022-04-07,2022-04-07,一般社団法人日本ポイントオブケア超音波学会,,その他の設立登記法人,東京都,町田市,森野１丁目３１番８－２号コンフォートピア町田Ａ,,13,209,1940022,,,,,,,2022-04-07,1,,,,,ニホンポイントオブケアチョウオンパガッカイ,0
2534,9013301048905,新規,0,2022-04-07,2022-04-07,株式会社Ｋｉｎｅｍａ,,株式会社,東京都,豊島区,上池袋３丁目１９番７号グランメゾン２Ｆ,,13,116,1700012,,,,,,,2022-04-07,1,,,,,キネマ,0
2535,9013301048913,新規,0,2022-04-07,2022-04-07,株式会社カンシャス,,株式会社,東京都,豊島区,東池袋４丁目３番３号５Ｆ,,13,116,1700013,,,,,,,2022-04-07,1,,,,,カンシャス,0
2541,9020001145973,新規,0,2022-04-07,2022-04-07,株式会社ＫＵＭＡ　Ｅｎｔｅｒｐｒｉｓｅ,,株式会社,神奈川県,横浜市港北区,新横浜２丁目３番１２号,,14,109,2220033,,,,,,,2022-04-07,1,,,,,クマエンタープライズ,0
2542,9020001145998,新規,0,2022-04-07,2022-04-07,株式会社トランブラスター,,株式会社,神奈川県,横浜市南区,永楽町２丁目２１番地ドミール関内大通２０４,,14,105,2320031,,,,,,,2022-04-07,1,,,,,トランブラスター,0
2548,9021001075590,新規,0,2022-04-07,2022-04-07,けんゆう株式会社,,株式会社,神奈川県,平塚市,寺田縄１１７番地の４６,,14,203,2591215,,,,,,,2022-04-07,1,,,,,ケンユウ,0
2549,9021001075616,新規,0,2022-04-07,2022-04-07,株式会社リバウィン,,株式会社,神奈川県,小田原市,入生田１６５番地,,14,206,2500031,,,,,,,2022-04-07,1,,,,,リバウィン,0
2551,9021005012474,新規,0,2022-04-07,2022-04-07,一般社団法人日本特殊清掃協議会,,その他の設立登記法人,神奈川県,相模原市中央区,上溝７９６番地３,,14,152,2520243,,,,,,,2022-04-07,1,,,,,ニホントクシュセイソウキョウギカイ,0
2556,9030001147473,新規,0,2022-04-07,2022-04-07,株式会社ＳＵＸＩＡ,,株式会社,埼玉県,所沢市,大字下安松４６８番地の３ガーデンパークヒナタＢ－１０１,,11,208,3590024,,,,,,,2022-04-07,1,,,,,サクシア,0
2557,9030001147523,新規,0,2022-04-07,2022-04-07,株式会社トーマスエンジニアリングジャパン,,株式会社,埼玉県,上尾市,仲町１丁目７番２７号アークエムビル７Ｆ,,11,219,3620035,,,,,,,2022-04-07,1,,,,,トーマスエンジニアリングジャパン,0
2558,9030001147556,新規,0,2022-04-07,2022-04-07,株式会社ハウスメーク,,株式会社,埼玉県,熊谷市,楊井１７３４番地２,,11,202,3600164,,,,,,,2022-04-07,1,,,,,ハウスメーク,0
2559,9030001147655,新規,0,2022-04-07,2022-04-07,株式会社ＣＬＡＳＳＩＸ,,株式会社,埼玉県,川口市,上青木西４丁目２６番１７号,,11,203,3330845,,,,,,,2022-04-07,1,,,,,,0
2568,9040001122871,新規,0,2022-04-07,2022-04-07,株式会社森林連結経営,,株式会社,千葉県,千葉市花見川区,幕張本郷１丁目２番１号サンクレスト本郷２０４号室,,12,102,2620033,,,,,,,2022-04-07,1,,,,,シンリンレンケツケイエイ,0
2569,9040001122888,新規,0,2022-04-07,2022-04-07,株式会社絆リフォーム,,株式会社,千葉県,松戸市,串崎南町２６番地－３０６号,,12,207,2702215,,,,,,,2022-04-07,1,,,,,キズナリフォーム,0
2570,9040001122896,新規,0,2022-04-07,2022-04-07,株式会社木村工業,,株式会社,千葉県,松戸市,稔台５丁目３番地の１,,12,207,2702231,,,,,,,2022-04-07,1,,,,,キムラコウギョウ,0
2571,9050001050915,新規,0,2022-04-07,2022-04-07,株式会社靖光ファーム,,株式会社,茨城県,結城郡八千代町,大字佐野９０６番地４,,08,521,3003505,,,,,,,2022-04-07,1,,,,,セイコウファーム,0
2573,9060001034710,新規,0,2022-04-07,2022-04-07,古美術の里株式会社,,株式会社,栃木県,足利市,駒場町８９１番地１,,09,202,3294217,,,,,,,2022-04-07,1,,,,,コビジュツノサト,0
2574,9060001034735,新規,0,2022-04-07,2022-04-07,株式会社トランスマネージメント,,株式会社,栃木県,足利市,八椚町３７２番地１０,,09,202,3260015,,,,,,,2022-04-07,1,,,,,トランスマネージメント,0
2575,9060001034743,新規,0,2022-04-07,2022-04-07,株式会社アリビアンサ,,株式会社,栃木県,小山市,大字羽川４６３番地６－１０１,,09,208,3230012,,,,,,,2022-04-07,1,,,,,アリビアンサ,0
2576,9060003004001,新規,0,2022-04-07,2022-04-07,合同会社ＮＢワークス,,合同会社,栃木県,真岡市,田町１０５３－８大山コーポ１０５,,09,209,3214325,,,,,,,2022-04-07,1,,,,,エヌビーワークス,0
2577,9060005009964,新規,0,2022-04-07,2022-04-07,地方独立行政法人栃木県立岡本台病院,,その他の設立登記法人,栃木県,宇都宮市,下岡本町２１６２番地,,09,201,3291104,,,,,,,2022-04-07,1,,,,,トチギケンリツオカモトダイビョウイン,0
2578,9070001039122,新規,0,2022-04-07,2022-04-07,株式会社伊勢崎地方卸売市場,,株式会社,群馬県,伊勢崎市,日乃出町７０２番地１,,10,204,3720022,,,,,,,2022-04-07,1,,,,,イセサキチホウオロシウリイチバ,0
2579,9070001039130,新規,0,2022-04-07,2022-04-07,株式会社ワンゲージ,,株式会社,群馬県,高崎市,石原町３０２６番地１,,10,202,3700864,,,,,,,2022-04-07,1,,,,,ワンゲージ,0
2583,9080001024858,新規,0,2022-04-07,2022-04-07,株式会社飯島建築,,株式会社,静岡県,焼津市,石津９９１番地の２,,22,212,4250041,,,,,,,2022-04-07,1,,,,,イイジマケンチク,0
2584,9080001024866,新規,0,2022-04-07,2022-04-07,株式会社創潤,,株式会社,静岡県,静岡市清水区,山原２９０番地の６４,,22,103,4240002,,,,,,,2022-04-07,1,,,,,ソウジュン,0
2589,9080401025720,新規,0,2022-04-07,2022-04-07,Ｋｅｅｐ　Ｓｍｉｌｅ株式会社,,株式会社,静岡県,磐田市,福田１７４１番地２,,22,211,4371203,,,,,,,2022-04-07,1,,,,,キープスマイル,0
2590,9080401025729,新規,0,2022-04-07,2022-04-07,株式会社サン太郎,,株式会社,静岡県,磐田市,下万能４０３番地３,,22,211,4380818,,,,,,,2022-04-07,1,,,,,サンタロウ,0
2591,9080401025737,新規,0,2022-04-07,2022-04-07,株式会社エンス,,株式会社,静岡県,浜松市東区,白鳥町２４８番地の３,,22,132,4350002,,,,,,,2022-04-07,1,,,,,エンス,0
2595,9100005012848,新規,0,2022-04-07,2022-04-07,一般社団法人ミドルマン,,その他の設立登記法人,長野県,安曇野市,豊科５５９３番地２１,,20,220,3998205,,,,,,,2022-04-07,1,,,,,ミドルマン,0
2597,9110001036544,新規,0,2022-04-07,2022-04-07,株式会社エムデン,,株式会社,新潟県,燕市,灰方５５６番地２０,,15,213,9591201,,,,,,,2022-04-07,1,,,,,エムデン,0
2602,9120001244864,新規,0,2022-04-07,2022-04-07,ミナト株式会社,,株式会社,大阪府,大阪市中央区,今橋２丁目５番８号,,27,128,5410042,,,,,,,2022-04-07,1,,,,,ミナト,0
2603,9120001244889,新規,0,2022-04-07,2022-04-07,株式会社メゾンカンパニー,,株式会社,大阪府,枚方市,養父西町４番５号,,27,210,5731141,,,,,,,2022-04-07,1,,,,,メゾンカンパニー,0
2604,9120001245004,新規,0,2022-04-07,2022-04-07,エリアデザイン株式会社,,株式会社,大阪府,大阪市北区,浮田２丁目５番１３－６０１号,,27,127,5300021,,,,,,,2022-04-07,1,,,,,エリアデザイン,0
2605,9120001245020,新規,0,2022-04-07,2022-04-07,株式会社スナメリ,,株式会社,大阪府,大阪市天王寺区,上本町８丁目２番１－５０３号,,27,109,5430001,,,,,,,2022-04-07,1,,,,,スナメリ,0
2606,9120001245053,新規,0,2022-04-07,2022-04-07,株式会社音の糸プロジェクト,,株式会社,大阪府,寝屋川市,早子町１３番７－２０２号,,27,215,5720837,,,,,,,2022-04-07,1,,,,,オトノイトプロジェクト,0
2609,9120005022886,新規,0,2022-04-07,2022-04-07,一般社団法人長持ち住まいラボ,,その他の設立登記法人,大阪府,大阪市中央区,今橋３丁目３番１３号,,27,128,5410042,,,,,,,2022-04-07,1,,,,,ナガモチスマイラボ,0
2610,9120101065343,新規,0,2022-04-07,2022-04-07,株式会社心和葬祭,,株式会社,大阪府,河内長野市,木戸町６７８番地１,,27,216,5860001,,,,,,,2022-04-07,1,,,,,シンワソウサイ,0
2611,9120101065368,新規,0,2022-04-07,2022-04-07,株式会社三塩組,,株式会社,大阪府,高石市,千代田４丁目３番８号,,27,225,5920005,,,,,,,2022-04-07,1,,,,,ミシオグミ,0
2613,9120901045775,新規,0,2022-04-07,2022-04-07,プラスフォー株式会社,,株式会社,大阪府,高槻市,真上町６丁目３５番６号,,27,207,5691121,,,,,,,2022-04-07,1,,,,,プラスフォー,0
2614,9120901045783,新規,0,2022-04-07,2022-04-07,株式会社ＢＢ,,株式会社,大阪府,吹田市,清水８番１号,,27,205,5650805,,,,,,,2022-04-07,1,,,,,ビービー,0
2618,9130001071473,新規,0,2022-04-07,2022-04-07,株式会社ＲＯＯＴＳ,,株式会社,京都府,京都市北区,西賀茂蟹ケ坂町７０番地,,26,101,6038805,,,,,,,2022-04-07,1,,,,,ルーツ,0
2619,9130001071481,新規,0,2022-04-07,2022-04-07,クリエイトバリュー株式会社,,株式会社,京都府,八幡市,八幡三本橋４４番地の１,,26,210,6148093,,,,,,,2022-04-07,1,,,,,クリエイトバリュー,0
2625,9140001125501,新規,0,2022-04-07,2022-04-07,株式会社佐藤創建,,株式会社,兵庫県,南あわじ市,山添７８９番地９,,28,224,6560121,,,,,,,2022-04-07,1,,,,,サトウソウケン,0
2626,9140001125534,新規,0,2022-04-07,2022-04-07,株式会社８ｃｏｆｆｅｅ,,株式会社,兵庫県,宝塚市,安倉南１丁目１７番１４号,,28,214,6650823,,,,,,,2022-04-07,1,,,,,ハチコーヒー,0
2627,9140001125542,新規,0,2022-04-07,2022-04-07,Ｔ．ｎｅｔｗｏｒｋ株式会社,,株式会社,兵庫県,丹波市,柏原町南多田８８６番地２,,28,223,6693301,,,,,,,2022-04-07,1,,,,,ティーネットワーク,0
2628,9140001125550,新規,0,2022-04-07,2022-04-07,株式会社アクアトラスト,,株式会社,兵庫県,神戸市灘区,赤坂通６丁目３番７号,,28,102,6570821,,,,,,,2022-04-07,1,,,,,アクアトラスト,0
2629,9150001025444,新規,0,2022-04-07,2022-04-07,株式会社ｍｉｎａ,,株式会社,奈良県,生駒市,山崎町２１番３９号,,29,209,6300252,,,,,,,2022-04-07,1,,,,,ミーナ,0
2632,9160005011068,新規,0,2022-04-07,2022-04-07,特定非営利活動法人Ｓｉｎｃｅ,,その他の設立登記法人,滋賀県,近江八幡市,中村町５７７番地２号,,25,204,5230894,,,,,,,2022-04-07,1,,,,,シンス,0
2633,9160005011076,新規,0,2022-04-07,2022-04-07,社会福祉法人大津びけん会,,その他の設立登記法人,滋賀県,大津市,際川３丁目３５番１号,,25,201,5200002,,,,,,,2022-04-07,1,,,,,オオツビケンカイ,0
2642,9180001150339,新規,0,2022-04-07,2022-04-07,株式会社スターヴィラ,,株式会社,愛知県,名古屋市西区,名駅２丁目３４番１７号セントラル名古屋１１０１号,,23,104,4510045,,,,,,,2022-04-07,1,,,,,スターヴィラ,0
2643,9180001150628,新規,0,2022-04-07,2022-04-07,ＰＦＦホールディングス株式会社,,株式会社,愛知県,名古屋市守山区,翠松園１丁目５０１番地の１,,23,113,4630010,,,,,,,2022-04-07,1,,,,,ピイエフエフホールディングス,0
2644,9180001150669,新規,0,2022-04-07,2022-04-07,株式会社空・インターナショナル,,株式会社,愛知県,名古屋市西区,名駅１丁目１番１７号名駅ダイヤメイテツビル１１階,,23,104,4510045,,,,,,,2022-04-07,1,,,,,クウインターナショナル,0
2645,9180001150710,新規,0,2022-04-07,2022-04-07,株式会社たぐちごはん,,株式会社,愛知県,名古屋市千種区,猫洞通５丁目２９番地の１,,23,101,4640032,,,,,,,2022-04-07,1,,,,,タグチゴハン,0
2646,9180001150719,新規,0,2022-04-07,2022-04-07,株式会社ＮＥＵＢＡＵ,,株式会社,愛知県,一宮市,萩原町朝宮字宮西２２番地１,,23,203,4910354,,,,,,,2022-04-07,1,,,,,ノイバウ,0
2649,9180003023658,新規,0,2022-04-07,2022-04-07,合同会社ＴＦＭ　ＬＩＮＫ,,合同会社,愛知県,名古屋市瑞穂区,瑞穂通２丁目２番地の２サニーストン瑞穂５０２号,,23,108,4670806,,,,,,,2022-04-07,1,,,,,ティーエフエムリンク,0
2650,9180003023666,新規,0,2022-04-07,2022-04-07,合同会社ＺＯＢＡＴＹ,,合同会社,愛知県,春日井市,惣中町３丁目１１番地,,23,206,4860949,,,,,,,2022-04-07,1,,,,,ゾウバティ,0
2651,9180003023699,新規,0,2022-04-07,2022-04-07,合同会社Ｂｅ　ｓｔｕｄｉｏ,,合同会社,愛知県,弥富市,鎌島８丁目１００５－６８,,23,235,4980035,,,,,,,2022-04-07,1,,,,,ビースタジオ,0
2654,9180005019720,新規,0,2022-04-07,2022-04-07,弁理士法人トレスペクト,,その他の設立登記法人,愛知県,名古屋市中区,錦１丁目７番２号楠本第１５ビル３階,,23,106,4600003,,,,,,,2022-04-07,1,,,,,トレスペクト,0
2658,9200001039959,新規,0,2022-04-07,2022-04-07,プラスジー株式会社,,株式会社,岐阜県,瑞穂市,馬場春雨町１丁目３１番地,,21,216,5010204,,,,,,,2022-04-07,1,,,,,プラスジー,0
2669,9240001059565,新規,0,2022-04-07,2022-04-07,株式会社ｎｏｏｍ,,株式会社,広島県,広島市中区,袋町４－６袋町五番館２０１,,34,101,7300036,,,,,,,2022-04-07,1,,,,,ヌーム,0
2670,9240001059598,新規,0,2022-04-07,2022-04-07,ブラン株式会社,,株式会社,広島県,広島市西区,東観音町２番１５号,,34,104,7330032,,,,,,,2022-04-07,1,,,,,ブラン,0
2673,9240005015374,新規,0,2022-04-07,2022-04-07,医療法人ＭＫＴ,,その他の設立登記法人,広島県,東広島市,西条栄町２－２３,,34,212,7390015,,,,,,,2022-04-07,1,,,,,エムケーティー,0
2674,9250003003041,新規,0,2022-04-07,2022-04-07,合同会社赤間キャピタル,,合同会社,山口県,山口市,嘉川５０４９番地６,,35,203,7540897,,,,,,,2022-04-07,1,,,,,アカマキャピタル,0
2676,9260001036736,新規,0,2022-04-07,2022-04-07,Ｙｅｓ，ｃｏｍｍｕｎｉｃａｔｉｏｎｓ株式会社,,株式会社,岡山県,岡山市北区,伊島町２丁目２０－２６エクセレント津島２Ｆ,,33,101,7000016,,,,,,,2022-04-07,1,,,,,イエスコミュニケイションズ,0
2680,9270003001398,新規,0,2022-04-07,2022-04-07,合同会社ＳＫｙ　ＮＥＸＴ,,合同会社,鳥取県,倉吉市,東巌城町１９０番地,,31,203,6820802,,,,,,,2022-04-07,1,,,,,スカイネクスト,0
2687,9290001097032,新規,0,2022-04-07,2022-04-07,株式会社さくらデザイン,,株式会社,福岡県,古賀市,青柳町１１１８番地１,,40,223,8113133,,,,,,,2022-04-07,1,,,,,サクラデザイン,0
2688,9290001097098,新規,0,2022-04-07,2022-04-07,株式会社ＣＫファーマシスト,,株式会社,福岡県,福岡市中央区,渡辺通５丁目１４番１２南天神ビル３階,,40,133,8100004,,,,,,,2022-04-07,1,,,,,シーケーファーマシスト,0
2689,9290001097123,新規,0,2022-04-07,2022-04-07,株式会社三和ハウジング,,株式会社,福岡県,福岡市博多区,吉塚５丁目２番１０号アルファーディオＹＯＳＨＩＺＵＫＡ２Ｂ,,40,132,8120041,,,,,,,2022-04-07,1,,,,,サンワハウジング,0
2695,9330001029617,新規,0,2022-04-07,2022-04-07,Ｆａｓｔ株式会社,,株式会社,熊本県,熊本市北区,下硯川２丁目１２番２５号,,43,105,8615526,,,,,,,2022-04-07,1,,,,,ファスト,0
2700,9340001024625,新規,0,2022-04-07,2022-04-07,株式会社岡留蒲鉾本舗,,株式会社,鹿児島県,志布志市,有明町野井倉８１００番地１,,46,221,8997402,,,,,,,2022-04-07,1,,,,,オカドメカマボコホンポ,0
2701,9340001024641,新規,0,2022-04-07,2022-04-07,株式会社ｅｎＴｒｕｓｔ,,株式会社,鹿児島県,鹿児島市,玉里町１９番８号京竹楽２０８号,,46,201,8900012,,,,,,,2022-04-07,1,,,,,エントラスト,0
2713,9370001048431,新規,0,2022-04-07,2022-04-07,株式会社ルート・デュ・ソレイユ,,株式会社,宮城県,仙台市青葉区,中山台２丁目２７番地,,04,101,9893202,,,,,,,2022-04-07,1,,,,,ルートデュソレイユ,0
2722,9410003003636,新規,0,2022-04-07,2022-04-07,合同会社ＭＫ工房,,合同会社,秋田県,横手市,雄物川町東里字東槻６４番地,,05,203,0130203,,,,,,,2022-04-07,1,,,,,エムケーコウボウ,0
2726,9430001086334,新規,0,2022-04-07,2022-04-07,株式会社Ｃｒｅｅｒ,,株式会社,北海道,札幌市東区,伏古二条５丁目２番１０号,,01,103,0070862,,,,,,,2022-04-07,1,,,,,クレエ,0
2729,9450003002196,新規,0,2022-04-07,2022-04-07,合同会社Ｍｏｈａｌａ　Ｂｕｓｉｎｅｓｓ　Ｓｕｐｐｏｒｔ,,合同会社,北海道,上川郡美瑛町,旭町３丁目１－２８　１階,,01,459,0710212,,,,,,,2022-04-07,1,,,,,モハラビジネスサポート,0
2731,9460101007179,新規,0,2022-04-07,2022-04-07,北海道再生工業株式会社,,株式会社,北海道,帯広市,自由が丘４丁目３番地１,,01,207,0802476,,,,,,,2022-04-07,1,,,,,ホッカイドウサイセイコウギョウ,0
2734,9460305001977,新規,0,2022-04-07,2022-04-07,一般社団法人綺羅,,その他の設立登記法人,北海道,北見市,北九条東４丁目５番地１,,01,208,0900029,,,,,,,2022-04-07,1,,,,,キラ,0
2738,9480003001815,新規,0,2022-04-07,2022-04-07,合同会社恵,,合同会社,徳島県,板野郡松茂町,笹木野字八北開拓１６１番地２,,36,401,7710219,,,,,,,2022-04-07,1,,,,,ケイ,0
2741,9500001024121,新規,0,2022-04-07,2022-04-07,株式会社コアスト構造設計,,株式会社,愛媛県,松山市,久万ノ台９２１番地１,,38,201,7918016,,,,,,,2022-04-07,1,,,,,コアストコウゾウセッケイ,0
