sequenceNumber,corporateNumber,process,correct,updateDate,changeDate,name,nameImageId,kind,prefectureName,cityName,streetNumber,addressImageId,prefectureCode,cityCode,postCode,addressOutside,addressOutsideImageId,closeDate,closeCause,successorCorporateNumber,changeCause,assignmentDate,latest,enName,enPrefectureName,enCityName,enAddressOutside,furigana,hihyoji
7,1010001230214,新規,0,2022-10-21,2022-10-21,株式会社明耀商事,,株式会社,東京都,文京区,千駄木２丁目８番８－２０２号,,13,105,1130022,,,,,,,2022-10-21,1,,,,,メイヨウショウジ,0
8,1010001230263,新規,0,2022-10-21,2022-10-21,加藤産商ホールディングス株式会社,,株式会社,東京都,中央区,日本橋兜町２１番７号,,13,102,1030026,,,,,,,2022-10-21,1,,,,,カトウサンショウホールディングス,0
9,1010001230288,新規,0,2022-10-21,2022-10-21,株式会社西松三和事務所,,株式会社,東京都,千代田区,神田錦町２丁目９番,,13,101,1010054,,,,,,,2022-10-21,1,,,,,ニシマツサンワジムショ,0
12,1010003038894,新規,0,2022-10-21,2022-10-21,合同会社第六惑星,,合同会社,東京都,千代田区,神田佐久間町１丁目１４番地,,13,101,1010025,,,,,,,2022-10-21,1,,,,,ダイロクワクセイ,0
13,1010105002187,新規,0,2022-10-21,2022-10-21,特定非営利活動法人はるぞら,,その他の設立登記法人,東京都,八王子市,上野町３４番地７,,13,201,1920902,,,,,,,2022-10-21,1,,,,,ハルゾラ,0
20,1010401170357,新規,0,2022-10-21,2022-10-21,Ｂａｒ三代目株式会社,,株式会社,東京都,港区,赤坂２丁目１３番８号赤坂ロイヤルプラザ２０４,,13,103,1070052,,,,,,,2022-10-21,1,,,,,バーサンダイメ,0
21,1010401170381,新規,0,2022-10-21,2022-10-21,株式会社ゼフィール,,株式会社,東京都,港区,港南２丁目１６番４号品川グランドセントラルタワー１７階,,13,103,1080075,,,,,,,2022-10-21,1,,,,,ゼフィール,0
25,1010403028743,新規,0,2022-10-21,2022-10-21,新今宮・ホテル・インベストメンツ合同会社,,合同会社,東京都,港区,虎ノ門３丁目２２番１０－２０１号,,13,103,1050001,,,,,,,2022-10-21,1,,,,,シンイマミヤホテルインベストメンツ,0
30,1010603009790,新規,0,2022-10-21,2022-10-21,合同会社グローストレード,,合同会社,東京都,墨田区,江東橋５丁目１２番５号ＲｉｓｉｎｇＰｌａｃｅ錦糸町５０１号,,13,107,1300022,,,,,,,2022-10-21,1,,,,,グローストレード,0
41,1011001150369,新規,0,2022-10-21,2022-10-21,株式会社ＤＪＴＹＯ,,株式会社,東京都,渋谷区,恵比寿西１丁目３３－６－１Ｆ,,13,113,1500021,,,,,,,2022-10-21,1,,,,,,0
46,1011101100562,新規,0,2022-10-21,2022-10-21,株式会社イノベーションの未来,,株式会社,東京都,新宿区,市谷砂土原町３丁目４－１いづみハイツ市ヶ谷６０１,,13,104,1620842,,,,,,,2022-10-21,1,,,,,イノベーションノミライ,0
47,1011101100587,新規,0,2022-10-21,2022-10-21,アスワン・アセット・マネジメント株式会社,,株式会社,東京都,新宿区,西新宿２丁目１番１号新宿三井ビルディング４９Ｆ,,13,104,1600023,,,,,,,2022-10-21,1,,,,,アスワンアセットマネジメント,0
48,1011101100604,新規,0,2022-10-21,2022-10-21,利輝アセットマネジメント株式会社,,株式会社,東京都,新宿区,西新宿６丁目１２番６号,,13,104,1600023,,,,,,,2022-10-21,1,,,,,リキアセットマネジメント,0
54,1011501028569,新規,0,2022-10-21,2022-10-21,株式会社ＴＯＭＯＲＩ,,株式会社,東京都,北区,東田端２丁目１３番１８－１３０２号ジオ・イニシア田端,,13,117,1140013,,,,,,,2022-10-21,1,,,,,トモリ,0
55,1011503005319,新規,0,2022-10-21,2022-10-21,合同会社ＰＡＲＴＹ　ＴＲＥＥ　ＣＯＲＥ,,合同会社,東京都,北区,豊島３丁目７番１８号１０１,,13,117,1140003,,,,,,,2022-10-21,1,,,,,パーティーツリーコア,0
56,1011601026324,新規,0,2022-10-21,2022-10-21,株式会社ロゴステラ,,株式会社,東京都,練馬区,南大泉４丁目４番１２号第１グリーンハイツ２０２号室,,13,120,1780064,,,,,,,2022-10-21,1,,,,,ロゴステラ,0
63,1012401039771,新規,0,2022-10-21,2022-10-21,株式会社若尾工務店,,株式会社,東京都,武蔵野市,吉祥寺南町４丁目２４番６号,,13,203,1800003,,,,,,,2022-10-21,1,,,,,ワカオコウムテン,0
78,1020001148645,新規,0,2022-10-21,2022-10-21,富士見パークマネジメント株式会社,,株式会社,神奈川県,川崎市高津区,末長４丁目８番５２号,,14,134,2130013,,,,,,,2022-10-21,1,,,,,フジミパークマネジメント,0
81,1020003022600,新規,0,2022-10-21,2022-10-21,合同会社提総合研究所,,合同会社,神奈川県,横浜市南区,山谷８２－４－９０２,,14,105,2320036,,,,,,,2022-10-21,1,,,,,ツツミソウゴウケンキュウショ,0
90,1021001077231,新規,0,2022-10-21,2022-10-21,株式会社Ｎｅｗｅ,,株式会社,神奈川県,鎌倉市,御成町１１－２ヤノヤビル２Ｆ,,14,204,2480012,,,,,,,2022-10-21,1,,,,,ニュー,0
106,1030001150674,新規,0,2022-10-21,2022-10-21,株式会社マロディア,,株式会社,埼玉県,川口市,元郷２丁目１５番１－２４０４号,,11,203,3320011,,,,,,,2022-10-21,1,,,,,マロディア,0
107,1030001150682,新規,0,2022-10-21,2022-10-21,株式会社Ｇｒａｄａｔｏｉｎ,,株式会社,埼玉県,朝霞市,本町１丁目３２番２８号,,11,227,3510011,,,,,,,2022-10-21,1,,,,,グラデーション,0
111,1030003020438,新規,0,2022-10-21,2022-10-21,合同会社ｐｌａｚｉｍａ,,合同会社,埼玉県,越谷市,神明町２丁目３６７番地１２,,11,222,3430805,,,,,,,2022-10-21,1,,,,,パージマ,0
116,1040001125510,新規,0,2022-10-21,2022-10-21,株式会社ＢＥＬＩＥＶＥ,,株式会社,千葉県,松戸市,新松戸１丁目４４１番地流鉄カーサ新松戸２０３号,,12,207,2700034,,,,,,,2022-10-21,1,,,,,ビリーブ,0
117,1040001125519,新規,0,2022-10-21,2022-10-21,株式会社ゐまる,,株式会社,千葉県,柏市,柏３丁目４番１９号,,12,217,2770005,,,,,,,2022-10-21,1,,,,,イマル,0
118,1040001125535,新規,0,2022-10-21,2022-10-21,株式会社ディライト,,株式会社,千葉県,市川市,曽谷４丁目１８番８号（サンクレールＮ１０１号）,,12,203,2720832,,,,,,,2022-10-21,1,,,,,ディライト,0
119,1040001125551,新規,0,2022-10-21,2022-10-21,株式会社東京キャッチ,,株式会社,千葉県,浦安市,富岡３丁目３番Ａ－１０１０号,,12,227,2790021,,,,,,,2022-10-21,1,,,,,トウキョウキャッチ,0
126,1040003021096,新規,0,2022-10-21,2022-10-21,合同会社あんず,,合同会社,千葉県,千葉市花見川区,瑞穂３丁目８番地３４,,12,102,2620026,,,,,,,2022-10-21,1,,,,,アンズ,0
127,1040003021105,新規,0,2022-10-21,2022-10-21,合同会社デザインコンポ,,合同会社,千葉県,柏市,みどり台３丁目１９番１１号,,12,217,2770884,,,,,,,2022-10-21,1,,,,,デザインコンポ,0
128,1040003021113,新規,0,2022-10-21,2022-10-21,合同会社Ｋｉｒｉ‐ｎｏ　Ｓｏｒｉ‐ｎｏ,,合同会社,千葉県,柏市,小青田２丁目１番地２,,12,217,2770803,,,,,,,2022-10-21,1,,,,,キリーノソリーノ,0
135,1050001051838,新規,0,2022-10-21,2022-10-21,株式会社Ｉｎｆｉｎｉｔｙ,,株式会社,茨城県,古河市,長谷町３３番７号,,08,204,3060034,,,,,,,2022-10-21,1,,,,,インフィニティ,0
148,1080101008363,新規,0,2022-10-21,2022-10-21,金指建設株式会社,,株式会社,静岡県,富士市,本市場１４７番地の１,,22,210,4160906,,,,,,,2022-10-21,1,,,,,カネザシケンセツ,0
170,1120001249706,新規,0,2022-10-21,2022-10-21,ティーズコネクト株式会社,,株式会社,大阪府,大阪市中央区,北新町１番１号千倉ビル６階,,27,128,5400023,,,,,,,2022-10-21,1,,,,,ティーズコネクト,0
171,1120001249714,新規,0,2022-10-21,2022-10-21,高天株式会社,,株式会社,大阪府,大阪市中央区,東平２丁目２－１０東平ビル３０３号,,27,128,5420063,,,,,,,2022-10-21,1,,,,,コウテン,0
172,1120003022689,新規,0,2022-10-21,2022-10-21,合同会社ＭＹ　ＸＵ,,合同会社,大阪府,大阪市西区,西本町３丁目１－１６奥内西本町２０９号室,,27,106,5500005,,,,,,,2022-10-21,1,,,,,ミース,0
173,1120003022706,新規,0,2022-10-21,2022-10-21,ファンタフューチャーミュージック合同会社,,合同会社,大阪府,大阪市北区,梅田２丁目２番２号ヒルトンプラザウエスト１８階,,27,127,5300001,,,,,,,2022-10-21,1,,,,,ファンタフューチャーミュージック,0
177,1120901046590,新規,0,2022-10-21,2022-10-21,株式会社リーファ,,株式会社,大阪府,豊中市,東豊中町６丁目２３番３７号グランディ東豊中１０３号室,,27,203,5600003,,,,,,,2022-10-21,1,,,,,リーファ,0
178,1120901046624,新規,0,2022-10-21,2022-10-21,コトブキ経営株式会社,,株式会社,大阪府,箕面市,小野原東５丁目７フォルク北千里Ｅ棟２０６,,27,220,5620031,,,,,,,2022-10-21,1,,,,,コトブキケイエイ,0
180,1120903004340,新規,0,2022-10-21,2022-10-21,合同会社メイボジャパン,,合同会社,大阪府,三島郡島本町,水無瀬２丁目２番２号６０４,,27,301,6180014,,,,,,,2022-10-21,1,,,,,メイボジャパン,0
187,1130001072850,新規,0,2022-10-21,2022-10-21,ＤＰ株式会社,,株式会社,京都府,京都市北区,紫野下築山町５番地１３,,26,101,6038222,,,,,,,2022-10-21,1,,,,,ディーピー,0
196,1140001127760,新規,0,2022-10-21,2022-10-21,ＥＮＰＩＮＥ株式会社,,株式会社,兵庫県,西宮市,松ケ丘町４番７号,,28,204,6620061,,,,,,,2022-10-21,1,,,,,エンパイン,0
198,1140003018264,新規,0,2022-10-21,2022-10-21,合同会社ブルーリーフ,,合同会社,兵庫県,神戸市北区,青葉台４０番２号,,28,109,6511231,,,,,,,2022-10-21,1,,,,,ブルーリーフ,0
222,1180001153464,新規,0,2022-10-21,2022-10-21,株式会社Ａ．Ｍ．Ｓトレーディング,,株式会社,愛知県,名古屋市中村区,塩池町２丁目２番２号２Ｆ,,23,105,4530032,,,,,,,2022-10-21,1,,,,,エイエムエストレーディング,0
235,1200001040569,新規,0,2022-10-21,2022-10-21,株式会社エッジグレイン,,株式会社,岐阜県,岐阜市,鏡島精華３丁目６番１０号,,21,201,5010112,,,,,,,2022-10-21,1,,,,,エッジグレイン,0
238,1210005010063,新規,0,2022-10-21,2022-10-21,一般社団法人おおいの魚屋,,その他の設立登記法人,福井県,大飯郡おおい町,大島第８３号３番地,,18,483,9192101,,,,,,,2022-10-21,1,,,,,オオイノサカナヤ,0
241,1220001025097,新規,0,2022-10-21,2022-10-21,株式会社ＬＭＣ,,株式会社,石川県,金沢市,本町２丁目６‐１５金沢駅前ビル３Ｆ,,17,201,9200853,,,,,,,2022-10-21,1,,,,,エルエムシー,0
244,1230001019552,新規,0,2022-10-21,2022-10-21,株式会社キジマツ,,株式会社,富山県,富山市,羽根９９０番地１２４,,16,201,9300864,,,,,,,2022-10-21,1,,,,,キジマツ,0
248,1240003005863,新規,0,2022-10-21,2022-10-21,合同会社ＭＡＮＡ,,合同会社,広島県,三原市,糸崎３丁目１３番２０号,,34,204,7290324,,,,,,,2022-10-21,1,,,,,マナ,0
252,1260001037337,新規,0,2022-10-21,2022-10-21,株式会社リジョイス,,株式会社,岡山県,岡山市南区,泉田４丁目４番５０－２号,,33,104,7000944,,,,,,,2022-10-21,1,,,,,リジョイス,0
257,1290001099300,新規,0,2022-10-21,2022-10-21,ＫＴエステート株式会社,,株式会社,福岡県,福岡市中央区,天神２丁目３番１０号天神パインクレスト７１９号,,40,133,8100001,,,,,,,2022-10-21,1,,,,,ケイティーエステート,0
262,1290805009594,新規,0,2022-10-21,2022-10-21,一般社団法人岡垣スタイル,,その他の設立登記法人,福岡県,遠賀郡岡垣町,東高倉１丁目１８－５,,40,383,8114237,,,,,,,2022-10-21,1,,,,,オカガキスタイル,0
263,1310001018091,新規,0,2022-10-21,2022-10-21,株式会社かきた建設,,株式会社,長崎県,南島原市,深江町丙１１６９番地,,42,214,8591503,,,,,,,2022-10-21,1,,,,,カキタケンセツ,0
270,1350001017998,新規,0,2022-10-21,2022-10-21,ＣＨＡＢＯＮ　ＬＩＦＥ株式会社,,株式会社,宮崎県,都城市,妻ケ丘町４０街区１６号Ａ,,45,202,8850033,,,,,,,2022-10-21,1,,,,,シャボンライフ,0
274,1350005006106,新規,0,2022-10-21,2022-10-21,特定非営利活動法人はまゆう会,,その他の設立登記法人,宮崎県,宮崎市,江平西２丁目２番２０号ロイヤルハイツ神宮１階１０２号レンタルホール「ムーンリバー」,,45,201,8800051,,,,,,,2022-10-21,1,,,,,ハマユウカイ,0
282,1370001049164,新規,0,2022-10-21,2022-10-21,株式会社友板金工業,,株式会社,宮城県,仙台市若林区,沖野６丁目１７番４７号,,04,103,9840831,,,,,,,2022-10-21,1,,,,,トモバンキンコウギョウ,0
283,1370003005867,新規,0,2022-10-21,2022-10-21,合同会社リザルト,,合同会社,宮城県,仙台市青葉区,立町１０番１－４０３号,,04,101,9800822,,,,,,,2022-10-21,1,,,,,リザルト,0
287,1400001016037,新規,0,2022-10-21,2022-10-21,株式会社Ｃ　ｓｕｐｐｏｒｔ,,株式会社,岩手県,北上市,村崎野１６地割１３４番地１９,,03,206,0240004,,,,,,,2022-10-21,1,,,,,シーサポート,0
293,1430001087703,新規,0,2022-10-21,2022-10-21,株式会社トータルサポートＳＫ,,株式会社,北海道,札幌市清田区,清田二条１丁目７番３－２０７号,,01,110,0040842,,,,,,,2022-10-21,1,,,,,トータルサポートエスケー,0
296,1430003014390,新規,0,2022-10-21,2022-10-21,アクア管工合同会社,,合同会社,北海道,北広島市,新富町東１丁目１－１４,,01,234,0611126,,,,,,,2022-10-21,1,,,,,アクアカンコウ,0
297,1430005014587,新規,0,2022-10-21,2022-10-21,一般社団法人フードバンクセンター,,その他の設立登記法人,北海道,札幌市中央区,北四条西６丁目１番地,,01,101,0600004,,,,,,,2022-10-21,1,,,,,フードバンクセンター,0
303,1480001011889,新規,0,2022-10-21,2022-10-21,株式会社ＫＩＧ徳島,,株式会社,徳島県,徳島市,寺島本町西２丁目３２番地１,,36,201,7700831,,,,,,,2022-10-21,1,,,,,ケーアイジートクシマ,0
316,2010001230279,新規,0,2022-10-21,2022-10-21,株式会社グルー,,株式会社,東京都,千代田区,岩本町３丁目２番１号共同ビル（新岩本町）５Ｆ,,13,101,1010032,,,,,,,2022-10-21,1,,,,,グルー,0
326,2010401170356,新規,0,2022-10-21,2022-10-21,エジプトニューキャピタル不動産法人株式会社,,株式会社,東京都,港区,南青山１丁目１番１号新青山ビル東館３階,,13,103,1070062,,,,,,,2022-10-21,1,,,,,エジプトニューキャピタルフドウサンホウジン,0
328,2010403028767,新規,0,2022-10-21,2022-10-21,エヌアールイーエルピー合同会社,,合同会社,東京都,港区,虎ノ門２丁目１０番４号オークラプレステージタワー,,13,103,1050001,,,,,,,2022-10-21,1,,,,,エヌアールイーエルピー,0
338,2010903007733,新規,0,2022-10-21,2022-10-21,合同会社エムケージー,,合同会社,東京都,世田谷区,南烏山２丁目２番１号,,13,112,1570062,,,,,,,2022-10-21,1,,,,,エムケージー,0
351,2011101100594,新規,0,2022-10-21,2022-10-21,ＫＹＯ株式会社,,株式会社,東京都,新宿区,下落合４丁目２６番８号－４０１,,13,104,1610033,,,,,,,2022-10-21,1,,,,,キョ,0
356,2012401039762,新規,0,2022-10-21,2022-10-21,株式会社イージー,,株式会社,東京都,小金井市,本町２丁目２０番２２号マロニエハウス１０１,,13,210,1840004,,,,,,,2022-10-21,1,,,,,イージー,0
359,2013301049827,新規,0,2022-10-21,2022-10-21,金祥株式会社,,株式会社,東京都,豊島区,池袋１丁目２－６ベルメゾン池袋７０６号室,,13,116,1700014,,,,,,,2022-10-21,1,,,,,キンショウ,0
361,2013305003391,新規,0,2022-10-21,2022-10-21,特定非営利活動法人読書の時間,,その他の設立登記法人,東京都,豊島区,東池袋１丁目３４番５号いちご東池袋ビル６階,,13,116,1700013,,,,,,,2022-10-21,1,,,,,ドクショノジカン,0
380,2021001077255,新規,0,2022-10-21,2022-10-21,株式会社Ｓ．Ｄｅｓｉｇｎ　Ｃｒｅａｔｅ,,株式会社,神奈川県,相模原市緑区,西橋本５丁目４－２１,,14,151,2520131,,,,,,,2022-10-21,1,,,,,エスデザインクリエイト,0
403,2040001125526,新規,0,2022-10-21,2022-10-21,株式会社グリーン・リーフ,,株式会社,千葉県,流山市,おおたかの森南１丁目１８７番地の３１,,12,220,2700139,,,,,,,2022-10-21,1,,,,,グリーンリーフ,0
404,2040001125534,新規,0,2022-10-21,2022-10-21,株式会社ｓｕｉｓｅｉｒｅｎ,,株式会社,千葉県,浦安市,富士見５丁目４番３１号,,12,227,2790043,,,,,,,2022-10-21,1,,,,,スイセイレン,0
405,2040001125559,新規,0,2022-10-21,2022-10-21,株式会社奈良屋,,株式会社,千葉県,八街市,八街ほ２４０番地３０,,12,230,2891115,,,,,,,2022-10-21,1,,,,,ナラヤ,0
412,2040003020865,新規,0,2022-10-21,2022-10-21,合同会社ｓｍｉｌｅｙ大夢,,合同会社,千葉県,松戸市,松戸１３０７－１松戸ビル１３階１３０２,,12,207,2710092,,,,,,,2022-10-21,1,,,,,スマイリィタイム,0
413,2040003021087,新規,0,2022-10-21,2022-10-21,合同会社Ｋ＆Ｙ,,合同会社,千葉県,松戸市,北松戸３丁目４番２号,,12,207,2710063,,,,,,,2022-10-21,1,,,,,ケイアンドワイ,0
417,2050001051837,新規,0,2022-10-21,2022-10-21,株式会社ドライフ,,株式会社,茨城県,ひたちなか市,大字高場１２８９番地,,08,221,3120062,,,,,,,2022-10-21,1,,,,,ドライフ,0
433,2080401026114,新規,0,2022-10-21,2022-10-21,株式会社メディカルサポート大島,,株式会社,静岡県,浜松市東区,大島町１８７番地の１,,22,132,4313112,,,,,,,2022-10-21,1,,,,,メディカルサポートオオシマ,0
440,2110003004893,新規,0,2022-10-21,2022-10-21,なぎはる企画合同会社,,合同会社,新潟県,新潟市中央区,南長潟３－１５－Ｇ,,15,103,9500931,,,,,,,2022-10-21,1,,,,,ナギハルキカク,0
453,2120001249688,新規,0,2022-10-21,2022-10-21,株式会社Ｎ・Ｙ・Ｏ,,株式会社,大阪府,大阪市旭区,大宮４丁目１０番１３号,,27,117,5350002,,,,,,,2022-10-21,1,,,,,エヌワイオー,0
454,2120001249696,新規,0,2022-10-21,2022-10-21,盛峰商事株式会社,,株式会社,大阪府,大阪市住吉区,長居東４丁目１１番４号,,27,120,5580004,,,,,,,2022-10-21,1,,,,,サカミネショウジ,0
455,2120001249713,新規,0,2022-10-21,2022-10-21,新祺株式会社,,株式会社,大阪府,大阪市中央区,東平２丁目２－１０東平ビル３０２号,,27,128,5420063,,,,,,,2022-10-21,1,,,,,シンギ,0
459,2120003022705,新規,0,2022-10-21,2022-10-21,エヴァーシスト合同会社,,合同会社,大阪府,大阪市福島区,福島７丁目１７番９号大包ビル２階,,27,103,5530003,,,,,,,2022-10-21,1,,,,,エヴァーシスト,0
461,2120005023255,新規,0,2022-10-21,2022-10-21,一般社団法人労働衛生事業団,,その他の設立登記法人,大阪府,大阪市福島区,野田６丁目３－１９,,27,103,5530005,,,,,,,2022-10-21,1,,,,,ロウドウエイセイジギョウダン,0
477,2130001072874,新規,0,2022-10-21,2022-10-21,サクセスキャリア株式会社,,株式会社,京都府,京都市下京区,竹屋之町２５２－１四条烏丸アーバンライフビル５０４号室,,26,106,6008090,,,,,,,2022-10-21,1,,,,,サクセスキャリア,0
484,2140003018263,新規,0,2022-10-21,2022-10-21,合同会社翠松園,,合同会社,兵庫県,宝塚市,中筋６丁目６番２０号,,28,214,6650874,,,,,,,2022-10-21,1,,,,,スイショウエン,0
486,2140005026347,新規,0,2022-10-21,2022-10-21,アジャスト協同組合,,その他の設立登記法人,兵庫県,神戸市北区,有野中町３丁目１４番１０号,,28,109,6511313,,,,,,,2022-10-21,1,,,,,アジャスト,0
491,2160003002711,新規,0,2022-10-21,2022-10-21,合同会社Ｔ．ＤＬＳ,,合同会社,滋賀県,近江八幡市,末広町２００番地１１７,,25,204,5230005,,,,,,,2022-10-21,1,,,,,ティドラス,0
506,2190001029844,新規,0,2022-10-21,2022-10-21,株式会社ｓｏａｖｅ,,株式会社,三重県,桑名市,星見ヶ丘３丁目８０３番地Ａ号,,24,205,5110912,,,,,,,2022-10-21,1,,,,,ソアーヴェ,0
523,2240003005862,新規,0,2022-10-21,2022-10-21,合同会社Ｔ＆Ｍ,,合同会社,広島県,広島市佐伯区,八幡東２丁目１１－２５ベゾンダハイムＩＩ１０１号室,00128201,34,108,7315115,,,,,,,2022-10-21,1,,,,,ティーアンドエム,0
526,2260001037336,新規,0,2022-10-21,2022-10-21,株式会社ＮＥＸＴ　ＩＮＮＯＶＡＴＩＯＮ,,株式会社,岡山県,岡山市中区,平井４丁目５番１９号ベルソレイユ２０１,,33,102,7038282,,,,,,,2022-10-21,1,,,,,ネクストイノベーション,0
539,2300003001888,新規,0,2022-10-21,2022-10-21,合同会社ＮＡＤ,,合同会社,佐賀県,佐賀市,開成５丁目４番２３－２０３号,,41,201,8490934,,,,,,,2022-10-21,1,,,,,エヌエーディー,0
546,2330005010570,新規,0,2022-10-21,2022-10-21,肥後観音寺,,その他の設立登記法人,熊本県,菊池郡菊陽町,大字津久礼１８－１９,,43,404,8691101,,,,,,,2022-10-21,1,,,,,ヒゴカンノンジ,0
550,2350003004201,新規,0,2022-10-21,2022-10-21,合同会社ＹＦｔｐｏ,,合同会社,宮崎県,都城市,中町８街区２号,,45,202,8850071,,,,,,,2022-10-21,1,,,,,ワイエフティーピーオー,0
552,2360003012384,新規,0,2022-10-21,2022-10-21,合同会社モンキーポッド沖縄,,合同会社,沖縄県,島尻郡八重瀬町,字長毛２０６番地４・１階,,47,362,9010501,,,,,,,2022-10-21,1,,,,,モンキーポッドオキナワ,0
555,2370001049163,新規,0,2022-10-21,2022-10-21,株式会社ＲＡＣ,,株式会社,宮城県,仙台市若林区,大和町５丁目３３番５号,,04,103,9840042,,,,,,,2022-10-21,1,,,,,アールエーシー,0
581,2430001087710,新規,0,2022-10-21,2022-10-21,株式会社ＬｅｅＬ,,株式会社,北海道,札幌市白石区,菊水五条３丁目２番９号,,01,104,0030805,,,,,,,2022-10-21,1,,,,,リール,0
585,2440005002739,新規,0,2022-10-21,2022-10-21,社会福祉法人さゆり,,その他の設立登記法人,北海道,瀬棚郡今金町,字今金４３５番地の３８０,,01,370,0494308,,,,,,,2022-10-21,1,,,,,サユリ,0
589,2450005004354,新規,0,2022-10-21,2022-10-21,一般社団法人ＮＯＲＴＨ　ＢＲＩＧＨＴ,,その他の設立登記法人,北海道,旭川市,五条通５丁目１６９０－１,,01,204,0700035,,,,,,,2022-10-21,1,,,,,ノースブライツ,0
591,2470005006472,新規,0,2022-10-21,2022-10-21,一般社団法人桜会,,その他の設立登記法人,香川県,高松市,扇町３丁目１３番２４号,,37,201,7600013,,,,,,,2022-10-21,1,,,,,サクラカイ,0
596,2490005006867,新規,0,2022-10-21,2022-10-21,高知フォレストパートナーズ事業協同組合,,その他の設立登記法人,高知県,高知市,仁井田字新築４５０２番地,,39,201,7810112,,,,,,,2022-10-21,1,,,,,コウチフォレストパートナーズ,0
604,3010001230286,新規,0,2022-10-21,2022-10-21,株式会社ささえる,,株式会社,東京都,千代田区,飯田橋１丁目５番６号協和西ビル４Ｆ,,13,101,1020072,,,,,,,2022-10-21,1,,,,,ササエル,0
605,3010001230294,新規,0,2022-10-21,2022-10-21,ＳＮエンターテイメント株式会社,,株式会社,東京都,千代田区,神田須田町１丁目７番５号,,13,101,1010041,,,,,,,2022-10-21,1,,,,,エスエヌエンターテイメント,0
606,3010001230352,新規,0,2022-10-21,2022-10-21,株式会社バイタリティトラベル,,株式会社,東京都,中央区,銀座７丁目１３番２０号銀座ＴＨビル９階,,13,102,1040061,,,,,,,2022-10-21,1,,,,,バイタリティトラベル,0
609,3010005035698,新規,0,2022-10-21,2022-10-21,一般社団法人田端,,その他の設立登記法人,東京都,千代田区,霞が関３丁目２番５号,,13,101,1000013,,,,,,,2022-10-21,1,,,,,タバタ,0
624,3010401170363,新規,0,2022-10-21,2022-10-21,Ｒｅａｌ　Ｃｒｏｗｄ株式会社,,株式会社,東京都,港区,南青山３丁目８番４０号青山センタービル２Ｆ,,13,103,1070062,,,,,,,2022-10-21,1,,,,,リアルクラウド,0
630,3010601062030,新規,0,2022-10-21,2022-10-21,株式会社プライム・ファンリード,,株式会社,東京都,江東区,東雲１丁目６番１５－１５０４号,,13,108,1350062,,,,,,,2022-10-21,1,,,,,プライムファンリード,0
637,3010905004380,新規,0,2022-10-21,2022-10-21,一般社団法人ひよこルーム,,その他の設立登記法人,東京都,世田谷区,用賀２丁目３３番１７号,,13,112,1580097,,,,,,,2022-10-21,1,,,,,ヒヨコルーム,0
641,3011001150144,新規,0,2022-10-21,2022-10-21,フィールズ株式会社,,株式会社,東京都,渋谷区,南平台町１６番１７号,,13,113,1500036,,,,,,,2022-10-21,1,,,,,フィールズ,0
642,3011001150359,新規,0,2022-10-21,2022-10-21,ＫＬＹ株式会社,,株式会社,東京都,渋谷区,神宮前６丁目２３番４号桑野ビル２Ｆ,,13,113,1500001,,,,,,,2022-10-21,1,,,,,ケイリー,0
643,3011001150458,新規,0,2022-10-21,2022-10-21,株式会社ＲｅｖｉＣｏ,,株式会社,東京都,渋谷区,渋谷２丁目１５番１号,,13,113,1500002,,,,,,,2022-10-21,1,,,,,レビコ,0
645,3011101100577,新規,0,2022-10-21,2022-10-21,株式会社エスペラール,,株式会社,東京都,新宿区,新宿２丁目１３番１０号武蔵野ビル５Ｆ，１１号,,13,104,1600022,,,,,,,2022-10-21,1,,,,,エスペラール,0
646,3011101100593,新規,0,2022-10-21,2022-10-21,株式会社ブラフマムフルタヨガ,,株式会社,東京都,新宿区,市谷砂土原町３丁目８番３－２０４号,,13,104,1620842,,,,,,,2022-10-21,1,,,,,ブラフマムフルタヨガ,0
647,3011101100602,新規,0,2022-10-21,2022-10-21,株式会社スタープラチナ,,株式会社,東京都,新宿区,大久保１丁目１５番２３号Ｇ－ＧＲＡＮＤ東新宿３０２,,13,104,1690072,,,,,,,2022-10-21,1,,,,,スタープラチナ,0
650,3011103012291,新規,0,2022-10-21,2022-10-21,恒予商貿合同会社,,合同会社,東京都,新宿区,百人町４丁目９番７号新宿ユー・エストビル９０１,,13,104,1690073,,,,,,,2022-10-21,1,,,,,コウヨショウボウ,0
652,3011301028156,新規,0,2022-10-21,2022-10-21,岩通ケミカルクロス株式会社,,株式会社,東京都,杉並区,久我山１丁目７番４１号,,13,115,1680082,,,,,,,2022-10-21,1,,,,,イワツウケミカルクロス,0
671,3012703002558,新規,0,2022-10-21,2022-10-21,合同会社Ｔｏｒｒｅｎｔ,,合同会社,東京都,西東京市,田無町４丁目２０番１８－２０３号,,13,229,1880011,,,,,,,2022-10-21,1,,,,,トレント,0
673,3013101009039,新規,0,2022-10-21,2022-10-21,ＫＡＮＰＥＫＩ株式会社,,株式会社,東京都,あきる野市,入野６１８番地３－１Ｆ,,13,228,1900161,,,,,,,2022-10-21,1,,,,,カンペキ,0
686,3020003022557,新規,0,2022-10-21,2022-10-21,チルノバ合同会社,,合同会社,神奈川県,横浜市磯子区,西町１２－２２－７０２,,14,107,2350007,,,,,,,2022-10-21,1,,,,,チルノバ,0
694,3021001077246,新規,0,2022-10-21,2022-10-21,株式会社ＭＥＧＵＲＯ,,株式会社,神奈川県,藤沢市,稲荷１丁目９番１ココタウンヒルトップマリーナ４１７,,14,205,2510862,,,,,,,2022-10-21,1,,,,,メグロ,0
710,3030003020444,新規,0,2022-10-21,2022-10-21,ＡＧＳ物流合同会社,,合同会社,埼玉県,川口市,大字安行吉蔵２９８番地の１６,,11,203,3340053,,,,,,,2022-10-21,1,,,,,エージーエスブツリュウ,0
723,3040001125558,新規,0,2022-10-21,2022-10-21,ＹＡＨＹＡ株式会社,,株式会社,千葉県,八街市,大木８１３番地２１,,12,230,2891111,,,,,,,2022-10-21,1,,,,,ヤヒヤ,0
727,3050001051844,新規,0,2022-10-21,2022-10-21,株式会社Ｔｈｒｅｅ　Ｐｒｏｕｄ,,株式会社,茨城県,古河市,女沼１９１番地３メゾンミナ２０１号,,08,204,3060226,,,,,,,2022-10-21,1,,,,,スリープラウド,0
734,3060001035375,新規,0,2022-10-21,2022-10-21,優株式会社,,株式会社,栃木県,小山市,東城南５丁目３５番地３３,,09,208,3230829,,,,,,,2022-10-21,1,,,,,ユウ,0
738,3080001025259,新規,0,2022-10-21,2022-10-21,ポコワークス株式会社,,株式会社,静岡県,静岡市駿河区,大谷４４９５－４－Ｄ,,22,102,4228017,,,,,,,2022-10-21,1,,,,,ポコワークス,0
740,3080101023583,新規,0,2022-10-21,2022-10-21,株式会社ウエセツ,,株式会社,静岡県,富士宮市,西小泉町３７番地の２,,22,207,4180026,,,,,,,2022-10-21,1,,,,,ウエセツ,0
767,3120001249679,新規,0,2022-10-21,2022-10-21,株式会社ＷＩＺＤＡＭ,,株式会社,大阪府,大阪市生野区,中川西２丁目１５番２２号,,27,116,5440032,,,,,,,2022-10-21,1,,,,,ウィズダム,0
768,3120001249687,新規,0,2022-10-21,2022-10-21,高和株式会社,,株式会社,大阪府,大阪市中央区,島之内２丁目６－５第三エクセルビル３階３５号,,27,128,5420082,,,,,,,2022-10-21,1,,,,,コウワ,0
769,3120001249704,新規,0,2022-10-21,2022-10-21,ＤＩＧ株式会社,,株式会社,大阪府,大阪市西淀川区,姫里３丁目３番３号,,27,113,5550025,,,,,,,2022-10-21,1,,,,,ディグ,0
773,3120003022654,新規,0,2022-10-21,2022-10-21,Ａ．Ｍ　Ｅｘｐｏｒｔｅｒ’ｓ合同会社,,合同会社,大阪府,枚方市,杉１丁目３４－１サンパレスオオツ３０２号室,,27,210,5730117,,,,,,,2022-10-21,1,,,,,エーエムエクスポーターズ,0
774,3120005023254,新規,0,2022-10-21,2022-10-21,一般社団法人アスリートアロマトレーナー協会,,その他の設立登記法人,大阪府,大阪市北区,堂島２丁目２番２２号,,27,127,5300003,,,,,,,2022-10-21,1,,,,,アスリートアロマトレーナーキョウカイ,0
792,3130001072865,新規,0,2022-10-21,2022-10-21,伊藤商事株式会社,,株式会社,京都府,京都市東山区,新門前通大和大路東入二丁目中之町２４５－６,,26,105,6050000,,,,,,,2022-10-21,1,,,,,イトウショウジ,0
793,3130001072873,新規,0,2022-10-21,2022-10-21,株式会社ＢＩＧＯＬＩ,,株式会社,京都府,京都市下京区,室町通松原下る元両替町２４５番地２パルコート四条室町２０６,,26,106,6008436,,,,,,,2022-10-21,1,,,,,ビゴリ,0
800,3140001127759,新規,0,2022-10-21,2022-10-21,株式会社ＷＴＳ,,株式会社,兵庫県,神戸市灘区,徳井町４丁目２番７号,,28,102,6570033,,,,,,,2022-10-21,1,,,,,ダブリューティーエス,0
801,3140001127767,新規,0,2022-10-21,2022-10-21,ＬＭＱ株式会社,,株式会社,兵庫県,神戸市長田区,二番町２丁目３６番地香山ビル１Ｆ,,28,106,6530012,,,,,,,2022-10-21,1,,,,,エルエムキュー,0
803,3140003018246,新規,0,2022-10-21,2022-10-21,合同会社ニューヨーク,,合同会社,兵庫県,西宮市,松園町６番１５－２０５号,,28,204,6620053,,,,,,,2022-10-21,1,,,,,ニューヨーク,0
804,3140005026346,新規,0,2022-10-21,2022-10-21,一般財団法人フェニックス厚生福祉財団,,その他の設立登記法人,兵庫県,神戸市西区,岩岡町岩岡９１７番地の１３,,28,111,6512401,,,,,,,2022-10-21,1,,,,,フェニックスコウセイフクシザイダン,0
806,3150001025895,新規,0,2022-10-21,2022-10-21,株式会社ＭＢＴジョブレオーネ,,株式会社,奈良県,橿原市,四条町８４０番地奈良県立医科大学内,,29,205,6340813,,,,,,,2022-10-21,1,,,,,ジョブレオーネ,0
808,3160001024582,新規,0,2022-10-21,2022-10-21,株式会社ＡＲ,,株式会社,滋賀県,長浜市,三和町５番１６号,,25,203,5260055,,,,,,,2022-10-21,1,,,,,エーアール,0
812,3160003002710,新規,0,2022-10-21,2022-10-21,合同会社具体化経営,,合同会社,滋賀県,大津市,坂本２丁目２１番１５号,,25,201,5200113,,,,,,,2022-10-21,1,,,,,グタイカケイエイ,0
813,3170001017338,新規,0,2022-10-21,2022-10-21,リファクト株式会社,,株式会社,和歌山県,和歌山市,北野４０９番４,,30,201,6496331,,,,,,,2022-10-21,1,,,,,リファクト,0
831,3180301036730,新規,0,2022-10-21,2022-10-21,株式会社ｍｍｓ,,株式会社,愛知県,西尾市,東幡豆町本郷２４番地,,23,213,4440701,,,,,,,2022-10-21,1,,,,,エムエムエス,0
837,3190001029851,新規,0,2022-10-21,2022-10-21,株式会社マンテンクリーンサービス,,株式会社,三重県,鳥羽市,安楽島町１２２２番地５２,,24,211,5170021,,,,,,,2022-10-21,1,,,,,マンテンクリーンサービス,0
838,3190003004118,新規,0,2022-10-21,2022-10-21,合同会社ＭＯＮＤＯ,,合同会社,三重県,津市,久居野村町８７０番地３,,24,201,5141113,,,,,,,2022-10-21,1,,,,,モンド,0
850,3290001099273,新規,0,2022-10-21,2022-10-21,Ｖｏｙｅｌｌｅｓ株式会社,,株式会社,福岡県,福岡市中央区,赤坂２丁目２番９号ＡＲＫ赤坂５０２号,,40,133,8100042,,,,,,,2022-10-21,1,,,,,ボイエレズ,0
851,3290001099298,新規,0,2022-10-21,2022-10-21,株式会社ナガユキ,,株式会社,福岡県,糟屋郡宇美町,大字井野２７７番地２,,40,341,8112104,,,,,,,2022-10-21,1,,,,,ナガユキ,0
854,3290003013059,新規,0,2022-10-21,2022-10-21,ＲＵＮ＆ＲＵＮ合同会社,,合同会社,福岡県,古賀市,天神６丁目２－４０,,40,223,8113101,,,,,,,2022-10-21,1,,,,,ランアンドラン,0
857,3300001013109,新規,0,2022-10-21,2022-10-21,Ｖｅｒｙコーポレーション株式会社,,株式会社,佐賀県,佐賀市,諸富町大字山領７４２番地５,,41,201,8402106,,,,,,,2022-10-21,1,,,,,ベリーコーポレーション,0
866,3320003003931,新規,0,2022-10-21,2022-10-21,合同会社清松海空コンサルティング,,合同会社,大分県,竹田市,荻町瓜作４５７９番地１,,44,208,8796134,,,,,,,2022-10-21,1,,,,,キヨマツウミソラコンサルティング,0
892,3430003014389,新規,0,2022-10-21,2022-10-21,合同会社ＫＧカンパニー,,合同会社,北海道,札幌市東区,北十八条東８丁目１番１２－４０１号,,01,103,0650018,,,,,,,2022-10-21,1,,,,,ケージーカンパニー,0
893,3440001009175,新規,0,2022-10-21,2022-10-21,株式会社Ｂｏｌｕ　ｃｏ．,,株式会社,北海道,北斗市,本郷２丁目１２番１１号,,01,236,0411251,,,,,,,2022-10-21,1,,,,,ボルコーポレーション,0
894,3460301005104,新規,0,2022-10-21,2022-10-21,株式会社アーネストファーム,,株式会社,北海道,北見市,留辺蘂町大和４５０番地１,,01,208,0910155,,,,,,,2022-10-21,1,,,,,アーネストファーム,0
897,3490005006866,新規,0,2022-10-21,2022-10-21,まるまる協同組合,,その他の設立登記法人,高知県,須崎市,大間本町８番２０号,,39,206,7850034,,,,,,,2022-10-21,1,,,,,マルマル,0
911,4010005035680,新規,0,2022-10-21,2022-10-21,弁理士法人ＩＡＢ,,その他の設立登記法人,東京都,中央区,東日本橋３丁目４番１０号,,13,102,1030004,,,,,,,2022-10-21,1,,,,,アイエービー,0
917,4010401169982,新規,0,2022-10-21,2022-10-21,ＡＮＤＡ　ＪＡＰＡＮ株式会社,,株式会社,東京都,港区,芝４丁目６番１３号パレステュディオ三田１０３,,13,103,1080014,,,,,,,2022-10-21,1,,,,,アンダジャパン,0
920,4010403028757,新規,0,2022-10-21,2022-10-21,ジャパンロジスティクス１合同会社,,合同会社,東京都,港区,六本木１丁目９番１０号アークヒルズ仙石山森タワー４０階,,13,103,1060032,,,,,,,2022-10-21,1,,,,,ジャパンロジスティクスワン,0
929,4010801033367,新規,0,2022-10-21,2022-10-21,株式会社Ｐｒｏｍｏａｃｔ,,株式会社,東京都,大田区,南馬込６丁目１２番１１号,,13,111,1430025,,,,,,,2022-10-21,1,,,,,プロモアクト,0
937,4011003015575,新規,0,2022-10-21,2022-10-21,合同会社Ｏｆｆｉｃｅ１４１,,合同会社,東京都,目黒区,大岡山１丁目３４―１、２０７,,13,110,1520033,,,,,,,2022-10-21,1,,,,,オフイスイチヨンイチ,0
942,4011101100584,新規,0,2022-10-21,2022-10-21,Ｉｌｌｕｍｉｎｏ株式会社,,株式会社,東京都,新宿区,西新宿２丁目１番１－４９階,,13,104,1600023,,,,,,,2022-10-21,1,,,,,イルミノ,0
943,4011101100592,新規,0,2022-10-21,2022-10-21,株式会社Ｍａｋａｎａ,,株式会社,東京都,新宿区,新宿３丁目１２番４号新宿Ｎタウンプラザ３０９,,13,104,1600022,,,,,,,2022-10-21,1,,,,,マカナ,0
944,4011101100601,新規,0,2022-10-21,2022-10-21,ＱＵＡＮＴ株式会社,,株式会社,東京都,新宿区,西新宿６丁目１８番１号,,13,104,1600023,,,,,,,2022-10-21,1,,,,,クアント,0
945,4011101100618,新規,0,2022-10-21,2022-10-21,株式会社新征,,株式会社,東京都,新宿区,新宿７丁目１２番２号新宿武蔵野マンション１階Ｄ号室,,13,104,1600022,,,,,,,2022-10-21,1,,,,,シンセイ,0
946,4011103012290,新規,0,2022-10-21,2022-10-21,Ｔ＆Ｎ合同会社,,合同会社,東京都,新宿区,四谷１丁目１番地６号アーバンビルサカス１７－１Ｆ,,13,104,1600004,,,,,,,2022-10-21,1,,,,,ティーアンドエヌ,0
957,4011701025719,新規,0,2022-10-21,2022-10-21,ＫＩＲＯＲＡＮ株式会社,,株式会社,東京都,江戸川区,東葛西５丁目１番３－８０２号ボアビルマンション,,13,123,1340084,,,,,,,2022-10-21,1,,,,,キロラン,0
959,4011801041418,新規,0,2022-10-21,2022-10-21,株式会社まちにく,,株式会社,東京都,足立区,西綾瀬１丁目１番１６－４０４号セブンスターマンション西綾瀬,,13,121,1200014,,,,,,,2022-10-21,1,,,,,マチニク,0
962,4013301049825,新規,0,2022-10-21,2022-10-21,株式会社１７ｈ,,株式会社,東京都,豊島区,南大塚３丁目１７番４号カスタリア大塚４０４号,,13,116,1700005,,,,,,,2022-10-21,1,,,,,セブンティーンエイチ,0
979,4021001077253,新規,0,2022-10-21,2022-10-21,オオトリ株式会社,,株式会社,神奈川県,相模原市南区,栄町３番６号,,14,153,2520306,,,,,,,2022-10-21,1,,,,,オオトリ,0
984,4021003012266,新規,0,2022-10-21,2022-10-21,合同会社心愛,,合同会社,神奈川県,足柄下郡湯河原町,吉浜１９１３－７６,,14,384,2590312,,,,,,,2022-10-21,1,,,,,シンアイ,0
997,4030001150663,新規,0,2022-10-21,2022-10-21,株式会社ＦＥＥＬ　ＦＲＥＥ,,株式会社,埼玉県,行田市,矢場２丁目５番２０号,,11,206,3610051,,,,,,,2022-10-21,1,,,,,フィールフリー,0
998,4030001150696,新規,0,2022-10-21,2022-10-21,株式会社ＲＥＡＬＩＺＥ　ＳＴＯＮＥ,,株式会社,埼玉県,さいたま市緑区,美園４丁目１番地２センターフィールド浦和美園壱番街１００２,,11,109,3360967,,,,,,,2022-10-21,1,,,,,レアリゼストーン,0
1002,4030005021019,新規,0,2022-10-21,2022-10-21,特定非営利活動法人あけとＮＰＯ,,その他の設立登記法人,埼玉県,深谷市,新井３０８番地１１,,11,218,3660016,,,,,,,2022-10-21,1,,,,,アケトエヌピーオー,0
1003,4030005021035,新規,0,2022-10-21,2022-10-21,医療法人慶麗会,,その他の設立登記法人,埼玉県,東松山市,大字高坂１１７１番地３,,11,212,3550047,,,,,,,2022-10-21,1,,,,,ケイレイカイ,0
1010,4040001125557,新規,0,2022-10-21,2022-10-21,株式会社リフィックス,,株式会社,千葉県,千葉市中央区,新千葉１丁目７番２号,,12,101,2600031,,,,,,,2022-10-21,1,,,,,リフィックス,0
1018,4040003021102,新規,0,2022-10-21,2022-10-21,ＪＡＰＡＮ　ＭＯＴＯＲＳ合同会社,,合同会社,千葉県,野田市,桐ケ作１６８６番地６６,,12,208,2700213,,,,,,,2022-10-21,1,,,,,ジャパンモターズ,0
1019,4040003021110,新規,0,2022-10-21,2022-10-21,おべんとＨａｒｕｍａｋｏ合同会社,,合同会社,千葉県,佐倉市,宮ノ台３丁目１０番８号,,12,212,2850857,,,,,,,2022-10-21,1,,,,,オベントハルマコ,0
1028,4050005013162,新規,0,2022-10-21,2022-10-21,特定非営利活動法人ＰＲＯＧＲＥＳＳ,,その他の設立登記法人,茨城県,水戸市,石川１丁目４００９番地の１４,,08,201,3100905,,,,,,,2022-10-21,1,,,,,プログレス,0
1030,4060001035374,新規,0,2022-10-21,2022-10-21,株式会社Ｎ・Ｓ,,株式会社,栃木県,佐野市,植下町１１７９番地５,,09,204,3270835,,,,,,,2022-10-21,1,,,,,エヌエス,0
1031,4070001039754,新規,0,2022-10-21,2022-10-21,株式会社木乃き庵,,株式会社,群馬県,多野郡神流町,大字生利７２番地,,10,367,3701503,,,,,,,2022-10-21,1,,,,,キノキアン,0
1034,4080001025258,新規,0,2022-10-21,2022-10-21,株式会社クラスマイル,,株式会社,静岡県,静岡市葵区,沓谷６丁目２５番地の１５,,22,101,4200816,,,,,,,2022-10-21,1,,,,,クラスマイル,0
1040,4080401026112,新規,0,2022-10-21,2022-10-21,株式会社ビッソーバ,,株式会社,静岡県,浜松市浜北区,染地台６丁目１１番１０号,,22,136,4340046,,,,,,,2022-10-21,1,,,,,ビッソーバ,0
1042,4080403004636,新規,0,2022-10-21,2022-10-21,ＣＮ　ＩＮＴＥＲＮＡＴＩＯＮＡＬ合同会社,,合同会社,静岡県,浜松市天竜区,春野町気田５８９番７,,22,137,4370605,,,,,,,2022-10-21,1,,,,,シーエヌインターナショナル,0
1046,4110001037051,新規,0,2022-10-21,2022-10-21,株式会社ＨＥＡＲＴＳ,,株式会社,新潟県,長岡市,上除町甲１７３番地４１,,15,202,9402033,,,,,,,2022-10-21,1,,,,,ハーツ,0
1054,4120001249637,新規,0,2022-10-21,2022-10-21,株式会社ＤｅＤｅ,,株式会社,大阪府,大阪市中央区,谷町６丁目１６－５,,27,128,5420012,,,,,,,2022-10-21,1,,,,,デエデエ,0
1058,4120003022678,新規,0,2022-10-21,2022-10-21,Ｘ‐ＳＴＥＰ合同会社,,合同会社,大阪府,大阪市北区,梅田１丁目１－３大阪駅前第３ビル２９階１－１－１号室,,27,127,5300001,,,,,,,2022-10-21,1,,,,,クロスステップ,0
1061,4120101066404,新規,0,2022-10-21,2022-10-21,株式会社Ｂｃｏｖｅｒｙ　ｌｏｃａｔｉｏｎ,,株式会社,大阪府,岸和田市,三田町９３番地の９（１Ｆ）,,27,202,5960808,,,,,,,2022-10-21,1,,,,,ビカバリーロケーション,0
1062,4120101066412,新規,0,2022-10-21,2022-10-21,株式会社グローカルアシスト,,株式会社,大阪府,羽曳野市,羽曳が丘９丁目１１番６号,,27,222,5830864,,,,,,,2022-10-21,1,,,,,,0
1071,4130003008263,新規,0,2022-10-21,2022-10-21,ピュアニュージー合同会社,,合同会社,京都府,相楽郡精華町,桜が丘１丁目１３番地３,,26,366,6190232,,,,,,,2022-10-21,1,,,,,ピュアニュージー,0
1078,4140001127774,新規,0,2022-10-21,2022-10-21,株式会社クールパートナーズ,,株式会社,兵庫県,西宮市,小松町２丁目２番１２号,,28,204,6638127,,,,,,,2022-10-21,1,,,,,クールパートナーズ,0
1079,4140003018220,新規,0,2022-10-21,2022-10-21,合同会社ｅｍｓ　ｗｅｌｌ‐ｂｅｉｎｇ,,合同会社,兵庫県,神戸市北区,桜森町５番地の１,,28,109,6511214,,,,,,,2022-10-21,1,,,,,エムズウェルビーイング,0
1080,4140003018253,新規,0,2022-10-21,2022-10-21,ｐｏｋｋｅ合同会社,,合同会社,兵庫県,西宮市,馬場町２－３２,,28,204,6620915,,,,,,,2022-10-21,1,,,,,ポッケ,0
1081,4140003018261,新規,0,2022-10-21,2022-10-21,ＮＡＧＡＲＡＹＡ合同会社,,合同会社,兵庫県,宍粟市,山崎町須賀沢１５４番地３,,28,227,6712533,,,,,,,2022-10-21,1,,,,,ナガラヤ,0
1095,4180001153461,新規,0,2022-10-21,2022-10-21,株式会社久遠,,株式会社,愛知県,名古屋市中川区,清船町１丁目１番地の６フィール清船６０６号,,23,110,4540832,,,,,,,2022-10-21,1,,,,,クオン,0
1106,4180303005484,新規,0,2022-10-21,2022-10-21,ＫＥＡＮ合同会社,,合同会社,愛知県,岡崎市,美合町字生田４１番地１９,,23,202,4440804,,,,,,,2022-10-21,1,,,,,キーン,0
1108,4190001029850,新規,0,2022-10-21,2022-10-21,株式会社後呂組,,株式会社,三重県,熊野市,金山町１３０番地,,24,212,5194327,,,,,,,2022-10-21,1,,,,,ウシログミ,0
1111,4200001040574,新規,0,2022-10-21,2022-10-21,株式会社ジーエスフューチャー,,株式会社,岐阜県,大垣市,高砂町２丁目２１番地,,21,202,5030889,,,,,,,2022-10-21,1,,,,,ジーエスフューチャー,0
1119,4230001019558,新規,0,2022-10-21,2022-10-21,株式会社エムテクノ,,株式会社,富山県,富山市,町村７－１７,,16,201,9300952,,,,,,,2022-10-21,1,,,,,エムテクノ,0
1121,4240001060536,新規,0,2022-10-21,2022-10-21,株式会社康和国際,,株式会社,広島県,呉市,天応南町１１番２０号,,34,202,7370874,,,,,,,2022-10-21,1,,,,,コウワコクサイ,0
1130,4290001099297,新規,0,2022-10-21,2022-10-21,株式会社ａｄｄｉｃｔ,,株式会社,福岡県,福岡市中央区,春吉２丁目３番１６号－Ｒ４０５,,40,133,8100003,,,,,,,2022-10-21,1,,,,,アディクト,0
1138,4290003013066,新規,0,2022-10-21,2022-10-21,合同会社Ｒｅｇａｒｄ,,合同会社,福岡県,久留米市,三潴町西牟田１６５６－２,,40,203,8300111,,,,,,,2022-10-21,1,,,,,リガード,0
1139,4290003013090,新規,0,2022-10-21,2022-10-21,ＹＯＬＯ合同会社,,合同会社,福岡県,福岡市中央区,天神４丁目６－２８天神ファーストビル７階,,40,133,8100001,,,,,,,2022-10-21,1,,,,,ヨロ,0
1140,4300001013108,新規,0,2022-10-21,2022-10-21,株式会社ユーコネクト,,株式会社,佐賀県,佐賀市,愛敬町１３番１３号,,41,201,8400812,,,,,,,2022-10-21,1,,,,,ユーコネクト,0
1142,4310001018089,新規,0,2022-10-21,2022-10-21,株式会社瑞穂,,株式会社,長崎県,長崎市,昭和３丁目３２１番地５レイクサイドハイツＢ２０２,,42,201,8528145,,,,,,,2022-10-21,1,,,,,ミズホ,0
1143,4310003004467,新規,0,2022-10-21,2022-10-21,合同会社ＲＥボーンプラス,,合同会社,長崎県,長崎市,坂本３丁目８－１７,,42,201,8528102,,,,,,,2022-10-21,1,,,,,リボーンプラス,0
1153,4370001049161,新規,0,2022-10-21,2022-10-21,株式会社ＦＬＡＰ　ＪＡＰＡＮ,,株式会社,宮城県,仙台市青葉区,立町１２番１２－７０３号,,04,101,9800822,,,,,,,2022-10-21,1,,,,,フラップジャパン,0
1164,4400001016034,新規,0,2022-10-21,2022-10-21,Ｎ‐ｓｔｙｌｅ株式会社,,株式会社,岩手県,盛岡市,黒川１０地割２７番地１７,,03,201,0200402,,,,,,,2022-10-21,1,,,,,エヌスタイル,0
1170,4430001087709,新規,0,2022-10-21,2022-10-21,ＰＳＡＵＭＥ株式会社,,株式会社,北海道,札幌市中央区,盤渓２３２番地６,,01,101,0640945,,,,,,,2022-10-21,1,,,,,ソーム,0
1171,4430001087717,新規,0,2022-10-21,2022-10-21,株式会社ＵＳコンサルティング,,株式会社,北海道,札幌市中央区,北二条西２丁目３２第３７桂和ビル６０３,,01,101,0600002,,,,,,,2022-10-21,1,,,,,ユーエスコンサルティング,0
1174,4430003014396,新規,0,2022-10-21,2022-10-21,ＬＩＦＥＷＯＲＫ合同会社,,合同会社,北海道,札幌市南区,南三十九条西１１丁目１番１３号ウエルス藻岩１０１,,01,106,0050039,,,,,,,2022-10-21,1,,,,,ライフワーク,0
1189,5010001230301,新規,0,2022-10-21,2022-10-21,ＰＡＵＬ　ａｓｓｅｔ‐ｍａｎａｇｅｍｅｎｔ株式会社,,株式会社,東京都,中央区,日本橋兜町２２‐６東京セントラルプレイス６階,,13,102,1030026,,,,,,,2022-10-21,1,,,,,ポールアセットマネージメント,0
1191,5010005035696,新規,0,2022-10-21,2022-10-21,一般財団法人日ノ本文化財団,,その他の設立登記法人,東京都,中央区,銀座７丁目１３番６号サガミビル２階,,13,102,1040061,,,,,,,2022-10-21,1,,,,,ヒノモトブンカザイダン,0
1201,5010401170304,新規,0,2022-10-21,2022-10-21,株式会社ＶＥＬＤＡ　ＤＥＳＩＧＮ　ＦＩＲＭ,,株式会社,東京都,港区,南青山３丁目１番３６号青山丸竹ビル６Ｆ,,13,103,1070062,,,,,,,2022-10-21,1,,,,,ヴェルダデザインファーム,0
1202,5010401170361,新規,0,2022-10-21,2022-10-21,株式会社ビー・サーキュレーション,,株式会社,東京都,港区,麻布十番２丁目２１番６号アクシア麻布１９０４,,13,103,1060045,,,,,,,2022-10-21,1,,,,,ビーサーキュレーション,0
1203,5010401170386,新規,0,2022-10-21,2022-10-21,豊和株式会社,,株式会社,東京都,港区,三田１丁目３－４０－４０３号室,,13,103,1080073,,,,,,,2022-10-21,1,,,,,ホウワ,0
1205,5010501049530,新規,0,2022-10-21,2022-10-21,信禾国際株式会社,,株式会社,東京都,台東区,台東１丁目２９番３号イースタンクロスアキバ３階３１１号室,,13,106,1100016,,,,,,,2022-10-21,1,,,,,シンワコクサイ,0
1206,5010603009795,新規,0,2022-10-21,2022-10-21,合同会社ディフュージョン,,合同会社,東京都,墨田区,錦糸２丁目１１－６,,13,107,1300013,,,,,,,2022-10-21,1,,,,,ディフュージョン,0
1209,5010701043366,新規,0,2022-10-21,2022-10-21,Ｃａｐｓｔｏｎｅ株式会社,,株式会社,東京都,品川区,大崎１丁目１５－２５プラチナレジデンス白金台２０２,,13,109,1410032,,,,,,,2022-10-21,1,,,,,キャプストーン,0
1212,5010803004324,新規,0,2022-10-21,2022-10-21,Ｆｉｒｓｔａｒｔ合同会社,,合同会社,東京都,大田区,西蒲田３丁目２１番１５号,,13,111,1440051,,,,,,,2022-10-21,1,,,,,ファースタート,0
1213,5010903007722,新規,0,2022-10-21,2022-10-21,合同会社リンク,,合同会社,東京都,世田谷区,上用賀６丁目３２番２６号,,13,112,1580098,,,,,,,2022-10-21,1,,,,,リンク,0
1219,5011001150332,新規,0,2022-10-21,2022-10-21,Ｔ‐ｃｈａｎｇｅ株式会社,,株式会社,東京都,渋谷区,神宮前６丁目２３番４号２Ｆ,,13,113,1500001,,,,,,,2022-10-21,1,,,,,ティーチェンジ,0
1220,5011001150448,新規,0,2022-10-21,2022-10-21,株式会社ＧＲＯＵＳＥ．,,株式会社,東京都,渋谷区,桜丘町１４番６号黒松ビル４０２,,13,113,1500031,,,,,,,2022-10-21,1,,,,,グラウス,0
1222,5011005009789,新規,0,2022-10-21,2022-10-21,一般社団法人ＭＢＤＧｓ,,その他の設立登記法人,東京都,渋谷区,神宮前６丁目２３番４号桑野ビル２階,,13,113,1500001,,,,,,,2022-10-21,1,,,,,エムビーディージーズ,0
1229,5011101100591,新規,0,2022-10-21,2022-10-21,株式会社ＧＬＴ,,株式会社,東京都,新宿区,新宿１丁目３５番１０号カテリーナ新宿御苑４０２号室,,13,104,1600022,,,,,,,2022-10-21,1,,,,,ジーエルティー,0
1230,5011101100600,新規,0,2022-10-21,2022-10-21,株式会社ＬＩＢ,,株式会社,東京都,新宿区,高田馬場１丁目２５番２８号佐藤ビル７階,,13,104,1690075,,,,,,,2022-10-21,1,,,,,リブ,0
1241,5011701025718,新規,0,2022-10-21,2022-10-21,ウィルホールディングス株式会社,,株式会社,東京都,江戸川区,中央４丁目１１番８号,,13,123,1320021,,,,,,,2022-10-21,1,,,,,ウィルホールディングス,0
1266,5020001148658,新規,0,2022-10-21,2022-10-21,株式会社Ｇｅｎｅｒａｔｉｏｎ　Ｗａｖｅ,,株式会社,神奈川県,川崎市宮前区,西野川３丁目３２番２６号,,14,136,2160044,,,,,,,2022-10-21,1,,,,,ジェネレーションウェーブ,0
1278,5021001077252,新規,0,2022-10-21,2022-10-21,株式会社ＣＣ,,株式会社,神奈川県,茅ヶ崎市,東海岸北１丁目１－３東海岸ビル１０１,,14,207,2530053,,,,,,,2022-10-21,1,,,,,シーシー,0
1295,5030001150662,新規,0,2022-10-21,2022-10-21,株式会社トーマス,,株式会社,埼玉県,坂戸市,関間３丁目１２番６０号,,11,239,3500215,,,,,,,2022-10-21,1,,,,,トーマス,0
1296,5030001150679,新規,0,2022-10-21,2022-10-21,株式会社カイケンアセットマネジメント,,株式会社,埼玉県,北本市,中央２丁目６１番地,,11,233,3640031,,,,,,,2022-10-21,1,,,,,カイケンアセットマネジメント,0
1302,5040001125531,新規,0,2022-10-21,2022-10-21,株式会社Ｓｏａｒ,,株式会社,千葉県,千葉市若葉区,若松台３丁目３１番地３号,,12,104,2640027,,,,,,,2022-10-21,1,,,,,ソアー,0
1303,5040001125548,新規,0,2022-10-21,2022-10-21,株式会社プロフェムＲ．Ｄ．Ｓ．,,株式会社,千葉県,木更津市,清見台南１丁目１４番Ｃ棟１０１号,,12,206,2920042,,,,,,,2022-10-21,1,,,,,プロフェムアールディーエス,0
1306,5040003021101,新規,0,2022-10-21,2022-10-21,ＡＺＩＭＩ　ＡＵＴＯ　ＴＲＡＤＩＮＧ合同会社,,合同会社,千葉県,四街道市,大日４７１番地２１,,12,228,2840001,,,,,,,2022-10-21,1,,,,,アジミオートトレーディング,0
1310,5040005021768,新規,0,2022-10-21,2022-10-21,医療法人社団Ｄａｙ　Ｏｎｅ,,その他の設立登記法人,千葉県,我孫子市,本町３丁目９番５号,,12,222,2701151,,,,,,,2022-10-21,1,,,,,デイワン,0
1322,5080105006293,新規,0,2022-10-21,2022-10-21,一般社団法人東部文化振興協会,,その他の設立登記法人,静岡県,三島市,南町１３番２８号,,22,206,4110842,,,,,,,2022-10-21,1,,,,,トウブブンカシンコウキョウカイ,0
1323,5080401026111,新規,0,2022-10-21,2022-10-21,株式会社ＨＯＺＵＭＩ,,株式会社,静岡県,浜松市東区,中郡町９８５番地の１,,22,132,4313111,,,,,,,2022-10-21,1,,,,,ホズミ,0
1342,5120001249157,新規,0,2022-10-21,2022-10-21,茶虎商事株式会社,,株式会社,大阪府,大阪市中央区,船場中央２丁目１番４号船場センタービル４号館地下一階Ｂ１０８ＲＯＹＡＬＯＦＦＩＣＥ内,,27,128,5410055,,,,,,,2022-10-21,1,,,,,チャトラショウジ,0
1343,5120001249693,新規,0,2022-10-21,2022-10-21,株式会社ナニワロックサービス,,株式会社,大阪府,大阪市浪速区,芦原２丁目５番４６号,,27,111,5560029,,,,,,,2022-10-21,1,,,,,ナニワロックサービス,0
1345,5120003022702,新規,0,2022-10-21,2022-10-21,合同会社メディアトレーディング,,合同会社,大阪府,大阪市北区,梅田１丁目１番３大阪駅前第３ビル２９階１－１－１号室,,27,127,5300001,,,,,,,2022-10-21,1,,,,,メディアトレーディング,0
1350,5120901046629,新規,0,2022-10-21,2022-10-21,株式会社あからん,,株式会社,大阪府,豊中市,上新田１丁目１０番３３号,,27,203,5600085,,,,,,,2022-10-21,1,,,,,アカラン,0
1355,5130001072780,新規,0,2022-10-21,2022-10-21,株式会社ＡＤＸ,,株式会社,京都府,八幡市,男山指月１番地１,,26,210,6148361,,,,,,,2022-10-21,1,,,,,アディックス,0
1356,5130001072871,新規,0,2022-10-21,2022-10-21,レジリエント株式会社,,株式会社,京都府,京都市中京区,中島町９０－２,,26,104,6048004,,,,,,,2022-10-21,1,,,,,レジリエント,0
1362,5140001127526,新規,0,2022-10-21,2022-10-21,株式会社Ｎｅｗ　ａｇｅ,,株式会社,兵庫県,伊丹市,昆陽７丁目３－１ＤＳ伊丹ビル４０６号室,,28,207,6640881,,,,,,,2022-10-21,1,,,,,ニューエイジ,0
1363,5140001127781,新規,0,2022-10-21,2022-10-21,ＭＯＲＲＩＺ　ＣＯＮＳＵＬＴＡＮＴ株式会社,,株式会社,兵庫県,宝塚市,口谷西３丁目１４番２１号,,28,214,6650813,,,,,,,2022-10-21,1,,,,,モリズコンサルタント,0
1366,5140003018260,新規,0,2022-10-21,2022-10-21,合同会社アプリオリ,,合同会社,兵庫県,尼崎市,武庫之荘１丁目３３番１－１３０８号,,28,202,6610035,,,,,,,2022-10-21,1,,,,,アプリオリ,0
1388,5220001025102,新規,0,2022-10-21,2022-10-21,ファーメランタ株式会社,,株式会社,石川県,野々市市,末松３丁目５７０番地,,17,212,9218836,,,,,,,2022-10-21,1,,,,,ファーメランタ,0
1391,5240001060535,新規,0,2022-10-21,2022-10-21,株式会社天又,,株式会社,広島県,広島市佐伯区,五日市中央５丁目１番６号,,34,108,7315128,,,,,,,2022-10-21,1,,,,,テンマタ,0
1407,5290001099296,新規,0,2022-10-21,2022-10-21,ポッド・クリエイション株式会社,,株式会社,福岡県,福岡市中央区,天神２丁目３番１０号天神パインクレスト７１９号,,40,133,8100001,,,,,,,2022-10-21,1,,,,,ポッドクリエイション,0
1409,5290801028982,新規,0,2022-10-21,2022-10-21,住まいる株式会社,,株式会社,福岡県,北九州市若松区,赤崎町５－３７,,40,103,8080003,,,,,,,2022-10-21,1,,,,,スマイル,0
1423,5360001031094,新規,0,2022-10-21,2022-10-21,有人株式会社,,株式会社,沖縄県,浦添市,西原３丁目１６番１２号Ｎ－ＦＬＡＴ１号室,,47,208,9012101,,,,,,,2022-10-21,1,,,,,ユウジン,0
1437,5400003002989,新規,0,2022-10-21,2022-10-21,ホープ合同会社,,合同会社,岩手県,久慈市,新中の橋第３７地割６９番地５サンパレス新中の橋Ａ２号室,,03,207,0280023,,,,,,,2022-10-21,1,,,,,ホープ,0
1447,5430001087699,新規,0,2022-10-21,2022-10-21,株式会社ＧＰＬ,,株式会社,北海道,札幌市手稲区,前田九条９丁目９番１７号,,01,109,0060819,,,,,,,2022-10-21,1,,,,,ジーピーエル,0
1455,5430003014387,新規,0,2022-10-21,2022-10-21,合同会社Ａｏｉ,,合同会社,北海道,札幌市中央区,南三条西９丁目９９９番地１６ピュア東彩館ＩＩ６０３号,00128203,01,101,0600063,,,,,,,2022-10-21,1,,,,,アオイ,0
1471,6010001230300,新規,0,2022-10-21,2022-10-21,株式会社ＳＥＥＦＹ,,株式会社,東京都,中央区,月島１丁目１４－１３月島ホームズ６０７,,13,102,1040052,,,,,,,2022-10-21,1,,,,,シーファイ,0
1478,6010103002011,新規,0,2022-10-21,2022-10-21,朗読らいおん合同会社,,合同会社,東京都,八王子市,千人町４丁目４番２３号ドエル上地西八王子５０３号,,13,201,1930835,,,,,,,2022-10-21,1,,,,,ロウドクライオン,0
1491,6010401170360,新規,0,2022-10-21,2022-10-21,株式会社リンクケム,,株式会社,東京都,港区,虎ノ門１丁目３番１号,,13,103,1050001,,,,,,,2022-10-21,1,,,,,リンクケム,0
1495,6010405021493,新規,0,2022-10-21,2022-10-21,一般社団法人Ａｒｄａｎ,,その他の設立登記法人,東京都,港区,虎ノ門５丁目１番４号,,13,103,1050001,,,,,,,2022-10-21,1,,,,,アルダン,0
1504,6011001021276,新規,0,2022-10-21,2022-10-21,株式会社ぷろだくしょん森,,株式会社,東京都,渋谷区,渋谷１丁目１７番４号,,13,113,1500002,,,,,,,2022-10-21,1,,,,,,0
1514,6011101100582,新規,0,2022-10-21,2022-10-21,株式会社ＡＭＵＳＥ,,株式会社,東京都,新宿区,四谷３丁目５番地,,13,104,1600004,,,,,,,2022-10-21,1,,,,,アミューズ,0
1515,6011101100590,新規,0,2022-10-21,2022-10-21,株式会社ＧＬＧ,,株式会社,東京都,新宿区,新宿１丁目３５番１４－７０５号,,13,104,1600022,,,,,,,2022-10-21,1,,,,,ジーエルジー,0
1516,6011103012289,新規,0,2022-10-21,2022-10-21,合同会社マイオーラ,,合同会社,東京都,新宿区,西新宿３丁目３番１３号西新宿水間ビル６階,,13,104,1600023,,,,,,,2022-10-21,1,,,,,マイオーラ,0
1522,6011701025717,新規,0,2022-10-21,2022-10-21,Ｓ＆Ｃ株式会社,,株式会社,東京都,江戸川区,平井１丁目１３番７号・１Ｆ,,13,123,1320035,,,,,,,2022-10-21,1,,,,,エスアンドシー,0
1523,6011703003274,新規,0,2022-10-21,2022-10-21,鳥桜合同会社,,合同会社,東京都,江戸川区,東小岩６丁目２６番１５号ジュメル２０１,,13,123,1330052,,,,,,,2022-10-21,1,,,,,トリオウ,0
1548,6021001077251,新規,0,2022-10-21,2022-10-21,株式会社ＳＫＹ＆ＯＡＫ,,株式会社,神奈川県,藤沢市,湘南台１丁目２６番地の５サンヒルズ湘南台２Ｆ,,14,205,2520804,,,,,,,2022-10-21,1,,,,,スカイアンドオーク,0
1556,6021003012280,新規,0,2022-10-21,2022-10-21,合同会社シグマ,,合同会社,神奈川県,鎌倉市,関谷６５３番地１鎌倉関谷スカイハイツ８０７号,,14,204,2470075,,,,,,,2022-10-21,1,,,,,シグマ,0
1566,6030001150273,新規,0,2022-10-21,2022-10-21,株式会社Ａ＆Ｔ,,株式会社,埼玉県,川越市,大字下小坂６２４－１,,11,201,3500812,,,,,,,2022-10-21,1,,,,,エーアンドティー,0
1567,6030001150678,新規,0,2022-10-21,2022-10-21,株式会社ＷＡＺ,,株式会社,埼玉県,入間郡三芳町,大字竹間沢７４４,,11,324,3540043,,,,,,,2022-10-21,1,,,,,ワズ,0
1568,6030001150686,新規,0,2022-10-21,2022-10-21,株式会社トサキ,,株式会社,埼玉県,羽生市,大字藤井上組２０４番地２,,11,216,3480064,,,,,,,2022-10-21,1,,,,,トサキ,0
1569,6030001150694,新規,0,2022-10-21,2022-10-21,株式会社沼建舎,,株式会社,埼玉県,入間市,久保稲荷２丁目１番地３１,,11,225,3580024,,,,,,,2022-10-21,1,,,,,ヌマケンシャ,0
1574,6030003020433,新規,0,2022-10-21,2022-10-21,ＯＧワークス合同会社,,合同会社,埼玉県,和光市,下新倉４丁目２３番２号,,11,229,3510111,,,,,,,2022-10-21,1,,,,,オージーワークス,0
1575,6030003020441,新規,0,2022-10-21,2022-10-21,合同会社Ｕシステム,,合同会社,埼玉県,さいたま市北区,奈良町４４番地３１－１０１号,,11,102,3310822,,,,,,,2022-10-21,1,,,,,ユーシステム,0
1581,6040001125506,新規,0,2022-10-21,2022-10-21,ＭＡＲＣＵＳ株式会社,,株式会社,千葉県,白井市,西白井４丁目２９番９号ＦＮＢＡＳＥ‐Ｂ号室,,12,232,2701408,,,,,,,2022-10-21,1,,,,,マーカス,0
1582,6040001125539,新規,0,2022-10-21,2022-10-21,ＨＭＬ千葉重機株式会社,,株式会社,千葉県,富里市,十倉１８５番地９４３,,12,233,2860212,,,,,,,2022-10-21,1,,,,,エイチエムエルチバジュウキ,0
1583,6040001125547,新規,0,2022-10-21,2022-10-21,株式会社生活緊急サービス,,株式会社,千葉県,袖ケ浦市,蔵波２９６０番地１２５,,12,229,2990243,,,,,,,2022-10-21,1,,,,,セイカツキンキュウサービス,0
1589,6040003021100,新規,0,2022-10-21,2022-10-21,合同会社ＴＩＥＳ,,合同会社,千葉県,野田市,目吹２１９１番地の６,,12,208,2780001,,,,,,,2022-10-21,1,,,,,タイズ,0
1592,6050003006942,新規,0,2022-10-21,2022-10-21,ＥＹＯＮ　ＩＮＴＥＲＮＡＴＩＯＮＡＬ合同会社,,合同会社,茨城県,龍ケ崎市,佐貫３丁目１０番８号コーポ西２０２号室,,08,208,3010032,,,,,,,2022-10-21,1,,,,,エヨンインターナショナル,0
1603,6070003004663,新規,0,2022-10-21,2022-10-21,合同会社かなやまの里,,合同会社,群馬県,太田市,東今泉町６６５番地１８,,10,205,3730021,,,,,,,2022-10-21,1,,,,,カナヤマノサト,0
1625,6120001249635,新規,0,2022-10-21,2022-10-21,アルバート株式会社,,株式会社,大阪府,大阪市東住吉区,駒川５丁目１４－１５金井ビル２Ｂ,,27,121,5460043,,,,,,,2022-10-21,1,,,,,アルバート,0
1626,6120001249692,新規,0,2022-10-21,2022-10-21,株式会社谷町,,株式会社,大阪府,大阪市北区,梅田１丁目１－３大阪駅前第３ビル２９階１－１－１号室,,27,127,5300001,,,,,,,2022-10-21,1,,,,,タニマチ,0
1629,6120003022651,新規,0,2022-10-21,2022-10-21,ＢＥＥ　ＳＨＯＰ合同会社,,合同会社,大阪府,大阪市浪速区,戎本町１丁目４番９号トウリオーニＥＢＩＳＵ５０２号室,,27,111,5560013,,,,,,,2022-10-21,1,,,,,ビーショップ,0
1630,6120003022684,新規,0,2022-10-21,2022-10-21,ＨＰ合同会社,,合同会社,大阪府,大阪市阿倍野区,丸山通１丁目６番１６号松虫ハイツ３０５,,27,119,5450042,,,,,,,2022-10-21,1,,,,,エイチピー,0
1631,6120003022718,新規,0,2022-10-21,2022-10-21,合同会社Ｌ,,合同会社,大阪府,大阪市此花区,四貫島１丁目５番３号ナポリ千鳥橋ビル５階,,27,104,5540014,,,,,,,2022-10-21,1,,,,,エル,0
1650,6130003008261,新規,0,2022-10-21,2022-10-21,合同会社ＺＥＮＤＡ,,合同会社,京都府,京都市右京区,西京極西川町５７番地,,26,108,6150852,,,,,,,2022-10-21,1,,,,,ゼンダ,0
1656,6140001127764,新規,0,2022-10-21,2022-10-21,日本東旭資源株式会社,,株式会社,兵庫県,芦屋市,涼風町１２－３,,28,206,6590036,,,,,,,2022-10-21,1,,,,,ニホントウシュシゲン,0
1692,6290001099304,新規,0,2022-10-21,2022-10-21,株式会社ナンバーナイン,,株式会社,福岡県,福岡市東区,箱崎３丁目９番４－３０３号,,40,131,8120053,,,,,,,2022-10-21,1,,,,,ナンバーナイン,0
1694,6290801028981,新規,0,2022-10-21,2022-10-21,株式会社平和建設,,株式会社,福岡県,鞍手郡小竹町,大字勝野４２６１番地３,,40,401,8201103,,,,,,,2022-10-21,1,,,,,ヘイワケンセツ,0
1702,6330001030214,新規,0,2022-10-21,2022-10-21,株式会社ユーパス,,株式会社,熊本県,熊本市東区,健軍１丁目３７番６号,,43,102,8620911,,,,,,,2022-10-21,1,,,,,ユーパス,0
1708,6360001031093,新規,0,2022-10-21,2022-10-21,株式会社むるくＰｌｕｓ,,株式会社,沖縄県,浦添市,城間４丁目６番５－５０２号コートヴィレッジ城間サンパーク通り,,47,208,9012133,,,,,,,2022-10-21,1,,,,,ムルクプラス,0
1709,6360003012397,新規,0,2022-10-21,2022-10-21,結合同会社,,合同会社,沖縄県,浦添市,伊祖１丁目２４番９－２０１号,,47,208,9012132,,,,,,,2022-10-21,1,,,,,ユイ,0
1710,6360005006728,新規,0,2022-10-21,2022-10-21,一般社団法人マリンレジャー振興協会,,その他の設立登記法人,沖縄県,那覇市,港町２丁目２番２号,,47,201,9000001,,,,,,,2022-10-21,1,,,,,マリンレジャーシンコウキョウカイ,0
1712,6370001049168,新規,0,2022-10-21,2022-10-21,ｍｉｎｄｂｅｎｔｏ株式会社,,株式会社,宮城県,仙台市青葉区,国分町１丁目４番９号ｅｎｓｐａｃｅ,,04,101,9800803,,,,,,,2022-10-21,1,,,,,マインドベント,0
1713,6380001033204,新規,0,2022-10-21,2022-10-21,株式会社薬果,,株式会社,福島県,福島市,鎌田字鶴田５６－１,,07,201,9600102,,,,,,,2022-10-21,1,,,,,ヤッカ,0
1716,6390005008977,新規,0,2022-10-21,2022-10-21,一般社団法人ｔｅｒｒａ,,その他の設立登記法人,山形県,天童市,糠塚１丁目１１番２０号,,06,210,9940014,,,,,,,2022-10-21,1,,,,,テラ,0
1719,6420001018043,新規,0,2022-10-21,2022-10-21,川村建設株式会社,,株式会社,青森県,五所川原市,大字石岡字藤巻３７番地３,,02,205,0370005,,,,,,,2022-10-21,1,,,,,カワムラケンセツ,0
1726,6460303000777,新規,0,2022-10-21,2022-10-21,合同会社らいく,,合同会社,北海道,北見市,山下町４丁目４－１２,,01,208,0900037,,,,,,,2022-10-21,1,,,,,,0
1730,6700150112196,新規,0,2022-10-21,2022-10-21,「いいね！スポーツ」せんだいアクティブライフスタイル推進事業実行委員会,,その他,宮城県,仙台市青葉区,国分町３丁目７番１号,,04,101,9800803,,,,,,,2022-10-21,1,,,,,イイネスポーツセンダイアクティブライフスタイルスイシンジギョウジッコウイインカイ,0
1740,7010001230316,新規,0,2022-10-21,2022-10-21,株式会社ＣＯＡ,,株式会社,東京都,千代田区,紀尾井町３－３２,,13,101,1020094,,,,,,,2022-10-21,1,,,,,コア,0
1741,7010003038897,新規,0,2022-10-21,2022-10-21,Ｑｕａｒｔｅｔ　Ｐａｒｔｎｅｒｓ合同会社,,合同会社,東京都,千代田区,四番町９‐８‐５０６,,13,101,1020081,,,,,,,2022-10-21,1,,,,,カルテットパートナーズ,0
1746,7010401170368,新規,0,2022-10-21,2022-10-21,株式会社トラッドジャパン,,株式会社,東京都,港区,新橋４丁目２９番１号プラウド新虎通り１７０１,,13,103,1050004,,,,,,,2022-10-21,1,,,,,トラッドジャパン,0
1748,7010403028754,新規,0,2022-10-21,2022-10-21,合同会社Ｎｅｐｔｕｎｅ　Ｌｅａｓｉｎｇ,,合同会社,東京都,港区,虎ノ門５丁目１番４号,,13,103,1050001,,,,,,,2022-10-21,1,,,,,ネプチューンリーシング,0
1749,7010405021492,新規,0,2022-10-21,2022-10-21,一般社団法人Ｖｅｒｓｏ,,その他の設立登記法人,東京都,港区,虎ノ門５丁目１番４号,,13,103,1050001,,,,,,,2022-10-21,1,,,,,ヴェルソ,0
1750,7010501049520,新規,0,2022-10-21,2022-10-21,株式会社ＴＹＧ商事,,株式会社,東京都,台東区,東上野４丁目２６番１２号,,13,106,1100015,,,,,,,2022-10-21,1,,,,,ティーワイジーショウジ,0
1761,7010903007737,新規,0,2022-10-21,2022-10-21,合同会社ＡＫ企画,,合同会社,東京都,世田谷区,赤堤４丁目４３－８,,13,112,1560044,,,,,,,2022-10-21,1,,,,,,0
1764,7011001150462,新規,0,2022-10-21,2022-10-21,株式会社ＢＲＯＣＣＯ　ＦＩＬＭＳ,,株式会社,東京都,渋谷区,千駄ヶ谷４丁目５番１号ニュー外苑ハイツ１００４,,13,113,1510051,,,,,,,2022-10-21,1,,,,,ブロッコフィルムズ,0
1767,7011005009787,新規,0,2022-10-21,2022-10-21,医療法人社団健芽会,,その他の設立登記法人,東京都,渋谷区,西原３丁目７番８号フィールド代々木上原２階,,13,113,1510066,,,,,,,2022-10-21,1,,,,,ケンガカイ,0
1785,7011701025716,新規,0,2022-10-21,2022-10-21,９９ＢＩＳＨＮＵ株式会社,,株式会社,東京都,江戸川区,平井３丁目２９番６－２０８号永和第１０ビル,,13,123,1320035,,,,,,,2022-10-21,1,,,,,キュウキュウビスヌ,0
1786,7011703003281,新規,0,2022-10-21,2022-10-21,潤いＬｉｆｅ合同会社,,合同会社,東京都,江戸川区,中葛西３丁目２４－２１－１０３号,,13,123,1340083,,,,,,,2022-10-21,1,,,,,ウルオイライフ,0
1800,7013303006342,新規,0,2022-10-21,2022-10-21,合同会社東越,,合同会社,東京都,豊島区,池袋４丁目１６番２号,,13,116,1710014,,,,,,,2022-10-21,1,,,,,トウエツ,0
1817,7020005015695,新規,0,2022-10-21,2022-10-21,特定非営利活動法人ＮＰＯ芸術で人々をつなぐＰｏｗＷｏｗ,,その他の設立登記法人,神奈川県,横浜市都筑区,北山田５丁目１２－５－５０２,,14,118,2240021,,,,,,,2022-10-21,1,,,,,エヌピーオーゲイジュツデヒトビトヲツナグパウワウ,0
1820,7021001077259,新規,0,2022-10-21,2022-10-21,株式会社ＹＡＭＡＳＥＩ,,株式会社,神奈川県,横須賀市,鶴が丘２丁目３番１２号,,14,201,2380056,,,,,,,2022-10-21,1,,,,,ヤマセイ,0
1827,7021005012641,新規,0,2022-10-21,2022-10-21,一般社団法人サーファーズケアコミュニティＮａｍｉ‐ｎｉｃａｔｉｏｎｓ,,その他の設立登記法人,神奈川県,三浦郡葉山町,堀内２１８４－３０,,14,301,2400112,,,,,,,2022-10-21,1,,,,,サーファーズケアコミュニティナミニケーションズ,0
1834,7030001150660,新規,0,2022-10-21,2022-10-21,百合株式会社,,株式会社,埼玉県,蕨市,塚越１丁目４番７号２階,,11,223,3350002,,,,,,,2022-10-21,1,,,,,ユリ,0
1835,7030001150669,新規,0,2022-10-21,2022-10-21,雲騰株式会社,,株式会社,埼玉県,幸手市,西２丁目１７－１７,,11,240,3400116,,,,,,,2022-10-21,1,,,,,ウントウ,0
1836,7030001150677,新規,0,2022-10-21,2022-10-21,木澤国際株式会社,,株式会社,埼玉県,川口市,並木４丁目１６番１７号の７０３室,,11,203,3320034,,,,,,,2022-10-21,1,,,,,キザワコクサイ,0
1837,7030001150685,新規,0,2022-10-21,2022-10-21,株式会社ＳｅｃｏｎｄＤｒｅａｍ,,株式会社,埼玉県,さいたま市見沼区,大和田町１丁目１５３８番地,,11,104,3370053,,,,,,,2022-10-21,1,,,,,セカンドドリーム,0
1840,7030003020432,新規,0,2022-10-21,2022-10-21,合同会社ステップワン,,合同会社,埼玉県,新座市,東北２丁目３９番地１０号ドゥーセット弐番館６Ｆ,,11,230,3520001,,,,,,,2022-10-21,1,,,,,ステップワン,0
1852,7040001125447,新規,0,2022-10-21,2022-10-21,星宇株式会社,,株式会社,千葉県,柏市,若葉町３－３彬田ビル１Ｆ,,12,217,2770024,,,,,,,2022-10-21,1,,,,,セイウ,0
1853,7040001125513,新規,0,2022-10-21,2022-10-21,グッド・イー株式会社,,株式会社,千葉県,松戸市,中矢切６２４番地の１アドグランデ松戸４１３号,,12,207,2710095,,,,,,,2022-10-21,1,,,,,グッドイー,0
1859,7040003021099,新規,0,2022-10-21,2022-10-21,ＬＳＣアセット合同会社,,合同会社,千葉県,流山市,駒木５５９番地の１２グリーンヴィラグマナスティ２０１,,12,220,2700132,,,,,,,2022-10-21,1,,,,,エルエスシーアセット,0
1871,7060001035371,新規,0,2022-10-21,2022-10-21,株式会社東京プラス,,株式会社,栃木県,小山市,大字大行寺１１４８番地１５モンパレス１号館２０２号室,,09,208,3230041,,,,,,,2022-10-21,1,,,,,トウキョウプラス,0
1872,7060005010024,新規,0,2022-10-21,2022-10-21,ＮＰＯ法人希望のタネ,,その他の設立登記法人,栃木県,真岡市,並木町４丁目１２番地３,,09,209,3214361,,,,,,,2022-10-21,1,,,,,キボウノタネ,0
1874,7070001039751,新規,0,2022-10-21,2022-10-21,株式会社ローカルガーデン,,株式会社,群馬県,前橋市,上大島町４８番地１６,,10,201,3792153,,,,,,,2022-10-21,1,,,,,ローカルガーデン,0
1876,7070003004662,新規,0,2022-10-21,2022-10-21,リサイクルマネジメント合同会社,,合同会社,群馬県,安中市,下後閑１３７５番地,,10,211,3790106,,,,,,,2022-10-21,1,,,,,リサイクルマネジメント,0
1897,7120001249700,新規,0,2022-10-21,2022-10-21,中進国際商事株式会社,,株式会社,大阪府,大阪市中央区,上本町西４丁目１番８－１２０１号,,27,128,5420062,,,,,,,2022-10-21,1,,,,,チュウシンコクサイショウジ,0
1899,7120003022642,新規,0,2022-10-21,2022-10-21,ＪＭＪ＆Ｐａｒｔｎｅｒｓ不動産投資合同会社,,合同会社,大阪府,大阪市中央区,南船場２丁目１１番４号,,27,128,5420081,,,,,,,2022-10-21,1,,,,,ジェイエムジェイアンドパートナーズフドウサントウシ,0
1903,7120901046635,新規,0,2022-10-21,2022-10-21,株式会社エーシーファクトリー,,株式会社,大阪府,箕面市,箕面３丁目３番２０－１０１号,,27,220,5620001,,,,,,,2022-10-21,1,,,,,エーシーファクトリー,0
1913,7140001127747,新規,0,2022-10-21,2022-10-21,株式会社ことりく,,株式会社,兵庫県,加東市,黒谷１１９７番地４７４,,28,228,6731301,,,,,,,2022-10-21,1,,,,,コトリク,0
1914,7140001127763,新規,0,2022-10-21,2022-10-21,楽娃服飾株式会社,,株式会社,兵庫県,西宮市,今津大東町三丁目１３号ゴーディ甲子園２番館１０３号,,28,204,6638221,,,,,,,2022-10-21,1,,,,,ラクワフクショク,0
1915,7140001127771,新規,0,2022-10-21,2022-10-21,株式会社ＪＰ　Ｍｅｇａ　Ｆｏｏｄｓ,,株式会社,兵庫県,三田市,沢谷７８４番地１,,28,219,6691335,,,,,,,2022-10-21,1,,,,,ジェーピーメガフーズ,0
1924,7150001025900,新規,0,2022-10-21,2022-10-21,株式会社岩井農園,,株式会社,奈良県,奈良市,山町６９１番地,,29,201,6308434,,,,,,,2022-10-21,1,,,,,イワイノウエン,0
1925,7170001017342,新規,0,2022-10-21,2022-10-21,株式会社ＫＢテック,,株式会社,和歌山県,和歌山市,加太１５７８番地１,,30,201,6400103,,,,,,,2022-10-21,1,,,,,ケービーテック,0
1941,7200003005713,新規,0,2022-10-21,2022-10-21,エキスフォート合同会社,,合同会社,岐阜県,岐阜市,茜部菱野４丁目５０番地３,,21,201,5008268,,,,,,,2022-10-21,1,,,,,エキスフォート,0
1945,7230001019555,新規,0,2022-10-21,2022-10-21,アトランド株式会社,,株式会社,富山県,下新川郡入善町,下飯野２５２番１,,16,342,9390663,,,,,,,2022-10-21,1,,,,,アトランド,0
1947,7240001060450,新規,0,2022-10-21,2022-10-21,株式会社ＫＡＴＯペイントハウス,,株式会社,広島県,福山市,御幸町大字森脇１００２番地１１,,34,207,7200003,,,,,,,2022-10-21,1,,,,,カトウペイントハウス,0
1948,7240001060525,新規,0,2022-10-21,2022-10-21,株式会社楽だ企画,,株式会社,広島県,広島市南区,宇品海岸３丁目９番１５号,,34,103,7340011,,,,,,,2022-10-21,1,,,,,ラクダキカク,0
1949,7240001060533,新規,0,2022-10-21,2022-10-21,株式会社Ｒｅ．Ｌａｎｄ,,株式会社,広島県,広島市安佐南区,大塚西３丁目１３番１２－１０１号,,34,105,7313167,,,,,,,2022-10-21,1,,,,,リランド,0
1961,7290001099195,新規,0,2022-10-21,2022-10-21,株式会社シメイチ総合サービス,,株式会社,福岡県,糟屋郡志免町,志免１丁目１５番３号,,40,343,8112202,,,,,,,2022-10-21,1,,,,,シメイチソウゴウサービス,0
1962,7290001099286,新規,0,2022-10-21,2022-10-21,株式会社ケイアームス,,株式会社,福岡県,福岡市博多区,吉塚３丁目１７番９号,,40,132,8120041,,,,,,,2022-10-21,1,,,,,ケイアームス,0
1963,7290001099294,新規,0,2022-10-21,2022-10-21,株式会社モンステラ,,株式会社,福岡県,久留米市,田主丸町野田１６４２番地,,40,203,8391231,,,,,,,2022-10-21,1,,,,,モンステラ,0
1978,7330001030213,新規,0,2022-10-21,2022-10-21,株式会社エスケーアイ,,株式会社,熊本県,上益城郡御船町,大字滝尾５８４６番地５,,43,441,8613208,,,,,,,2022-10-21,1,,,,,エスケーアイ,0
1980,7340001025105,新規,0,2022-10-21,2022-10-21,株式会社南の巨人,,株式会社,鹿児島県,鹿児島市,荒田２丁目４０番１７号２Ｆ,,46,201,8900054,,,,,,,2022-10-21,1,,,,,ミナミノキョジン,0
1981,7350001018000,新規,0,2022-10-21,2022-10-21,株式会社オカザキ,,株式会社,宮崎県,宮崎市,月見ケ丘１丁目３４番１５号,,45,201,8800926,,,,,,,2022-10-21,1,,,,,オカザキ,0
1982,7360001031084,新規,0,2022-10-21,2022-10-21,株式会社富士見興業,,株式会社,沖縄県,中頭郡西原町,上原１丁目２６番地の６（サニーヒル４０５号）,,47,329,9030125,,,,,,,2022-10-21,1,,,,,フジミコウギョウ,0
1983,7360003012396,新規,0,2022-10-21,2022-10-21,ＣＯＣＯＮＡＷＡ合同会社,,合同会社,沖縄県,中頭郡西原町,字我謝８１０－２８－１０５,,47,329,9030112,,,,,,,2022-10-21,1,,,,,ココナワ,0
1988,7380001033203,新規,0,2022-10-21,2022-10-21,株式会社木村工業,,株式会社,福島県,いわき市,平沼ノ内字新街２３１番地の８レジデンスヨシオカＩ－１０１,00128208,07,204,9700222,,,,,,,2022-10-21,1,,,,,キムラコウギョウ,0
2002,7430001087689,新規,0,2022-10-21,2022-10-21,株式会社草庵,,株式会社,北海道,苫小牧市,字高丘６番地の１８１,,01,213,0530035,,,,,,,2022-10-21,1,,,,,ソウアン,0
2003,7430001087706,新規,0,2022-10-21,2022-10-21,北海道水道サービス株式会社,,株式会社,北海道,札幌市西区,西野六条１０丁目１２番２１号,,01,107,0630036,,,,,,,2022-10-21,1,,,,,ホッカイドウスイドウサービス,0
2004,7430001087714,新規,0,2022-10-21,2022-10-21,株式会社エイト建機サービス,,株式会社,北海道,岩見沢市,一条東８丁目７番地６,,01,210,0680001,,,,,,,2022-10-21,1,,,,,エイトケンキサービス,0
2016,7700150112195,新規,0,2022-10-21,2022-10-21,ＳＨＥＮＺＨＥＮ　ＪＩＣＡＮＧ　ＧＯＮＧＹＩＮＧＬＩＡＮ　ＣＯ．，ＬＴＤ,,外国会社等,,,,,,,,Ｎｏ．２０，Ｈａｏｙｅ　Ｒｄ．，Ｈｅｐｉｎｇ　Ｃｏｍｍｕｎｉｔｙ．Ｆｕｈａｉ　Ｓｔ．，Ｂａｏ　ａｎ　Ｄｉｓｔ．，Ｓｈｅｎｚｈｅｎ，Ｃｈｉｎａ,,,,,,2022-10-21,1,,,,,シエンチエンジカンゴンギングリアンカンパニーリミテツド,0
2022,8010001230240,新規,0,2022-10-21,2022-10-21,ＪＳＦＰ　Ａｓｃｅｎｔ株式会社,,株式会社,東京都,千代田区,大手町２丁目２番２号,,13,101,1000004,,,,,,,2022-10-21,1,,,,,ジェイエスエフピーアセント,0
2023,8010001230315,新規,0,2022-10-21,2022-10-21,株式会社ＴＡＮＺＡＭ,,株式会社,東京都,中央区,日本橋兜町１７－１日本橋ロイヤルプラザ７０６,,13,102,1030026,,,,,,,2022-10-21,1,,,,,タンザム,0
2027,8010003038888,新規,0,2022-10-21,2022-10-21,ナッシング合同会社,,合同会社,東京都,中央区,銀座１丁目１２番４号Ｎ＆ＥＢＬＤ．６Ｆ,,13,102,1040061,,,,,,,2022-10-21,1,,,,,ナッシング,0
2034,8010005035693,新規,0,2022-10-21,2022-10-21,フォーリングススクエア一般社団法人,,その他の設立登記法人,東京都,千代田区,丸の内３丁目１番１号東京共同会計事務所内,,13,101,1000005,,,,,,,2022-10-21,1,,,,,フォーリングススクエア,0
2052,8010601062026,新規,0,2022-10-21,2022-10-21,株式会社大同パートナーズ,,株式会社,東京都,江東区,扇橋２丁目１７番５号,,13,108,1350011,,,,,,,2022-10-21,1,,,,,ダイドウパートナーズ,0
2055,8010703006392,新規,0,2022-10-21,2022-10-21,ａｓ合同会社,,合同会社,東京都,品川区,西品川３丁目１３－１４ピースフルライト２０２,,13,109,1410033,,,,,,,2022-10-21,1,,,,,アズ,0
2065,8011101100572,新規,0,2022-10-21,2022-10-21,株式会社えりか,,株式会社,東京都,新宿区,西新宿３丁目３番１３号西新宿水間ビル２Ｆ,,13,104,1600023,,,,,,,2022-10-21,1,,,,,エリカ,0
2066,8011101100589,新規,0,2022-10-21,2022-10-21,株式会社Ｇ．Ｏ．Ａ．Ｔ．,,株式会社,東京都,新宿区,西新宿１丁目１９－１１西新宿甲州ビル４Ｆ,,13,104,1600023,,,,,,,2022-10-21,1,,,,,ゴート,0
2067,8011103012287,新規,0,2022-10-21,2022-10-21,デカフェソフト合同会社,,合同会社,東京都,新宿区,西新宿３丁目３番１３号西新宿水間ビル６階,,13,104,1600023,,,,,,,2022-10-21,1,,,,,デカフェソフト,0
2069,8011201024176,新規,0,2022-10-21,2022-10-21,株式会社チャップンオー,,株式会社,東京都,中野区,中央５丁目２７番３４号,,13,114,1640011,,,,,,,2022-10-21,1,,,,,チャップンオー,0
2074,8011503005329,新規,0,2022-10-21,2022-10-21,合同会社石塚産業,,合同会社,東京都,荒川区,東日暮里３丁目４４番１２－８０１,,13,118,1160014,,,,,,,2022-10-21,1,,,,,イシヅカサンギョウ,0
2079,8011801041422,新規,0,2022-10-21,2022-10-21,丸吉技商株式会社,,株式会社,東京都,葛飾区,新小岩１丁目４６番９号セントレック三田ビル５階,,13,122,1240024,,,,,,,2022-10-21,1,,,,,マルヨシギショウ,0
2091,8020001148647,新規,0,2022-10-21,2022-10-21,株式会社ＪＯＵＳ,,株式会社,神奈川県,横浜市保土ケ谷区,岩間町１丁目１１－１４パレス天王町１０１号室,,14,106,2400004,,,,,,,2022-10-21,1,,,,,ジョウズ,0
2092,8020003022602,新規,0,2022-10-21,2022-10-21,合同会社ふきのとう,,合同会社,神奈川県,川崎市麻生区,百合丘３丁目２番地９,,14,137,2150011,,,,,,,2022-10-21,1,,,,,フキノトウ,0
2111,8021003012279,新規,0,2022-10-21,2022-10-21,ＷＩＬＬ　ＢＲＡＮＤＩＮＧ合同会社,,合同会社,神奈川県,鎌倉市,浄明寺１丁目５番２号,,14,204,2480003,,,,,,,2022-10-21,1,,,,,ウィルブランディング,0
2112,8021005012640,新規,0,2022-10-21,2022-10-21,一般社団法人日本匠リライアンス協会,,その他の設立登記法人,神奈川県,相模原市南区,御園３丁目４１番６号,,14,153,2520317,,,,,,,2022-10-21,1,,,,,ニホンタクミリライアンスキョウカイ,0
2127,8030003020431,新規,0,2022-10-21,2022-10-21,合同会社ＬＥＯ,,合同会社,埼玉県,さいたま市浦和区,瀬ヶ崎５丁目２２番７号,,11,107,3300044,,,,,,,2022-10-21,1,,,,,エルイーオー,0
2136,8040001125512,新規,0,2022-10-21,2022-10-21,Ｎｏｖａ　Ｃｒｅａｔｉｏｎ株式会社,,株式会社,千葉県,松戸市,西馬橋幸町８２ＨＩＲＡＫＡＷＡビル２０２,,12,207,2710047,,,,,,,2022-10-21,1,,,,,ノヴァクリエイション,0
2137,8040001125529,新規,0,2022-10-21,2022-10-21,株式会社拓実,,株式会社,千葉県,袖ケ浦市,のぞみ野５１番地８,,12,229,2990251,,,,,,,2022-10-21,1,,,,,タクミ,0
2138,8040001125537,新規,0,2022-10-21,2022-10-21,ダビスタ株式会社,,株式会社,千葉県,印西市,戸神台１丁目１２番地６,,12,231,2701349,,,,,,,2022-10-21,1,,,,,ダビスタ,0
2139,8040001125545,新規,0,2022-10-21,2022-10-21,株式会社ＳＯＫ,,株式会社,千葉県,八千代市,緑が丘西３丁目９番地１５,,12,221,2760040,,,,,,,2022-10-21,1,,,,,エスオーケー,0
2142,8040003021098,新規,0,2022-10-21,2022-10-21,合同会社サンサン,,合同会社,千葉県,鎌ケ谷市,新鎌ケ谷１丁目１９－２,,12,224,2730107,,,,,,,2022-10-21,1,,,,,サンサン,0
2146,8050003006940,新規,0,2022-10-21,2022-10-21,ＳＩＮＧＨ　ＴＲＡＤＩＮＧ合同会社,,合同会社,茨城県,坂東市,岩井４４０８－１ベルハイムＩＩ１０５,00128204,08,228,3060631,,,,,,,2022-10-21,1,,,,,シングトレーディング,0
2148,8060001035370,新規,0,2022-10-21,2022-10-21,株式会社ＵＺＵ,,株式会社,栃木県,那須塩原市,豊浦中町１００番地５０レヂデンス岡野１０３号,,09,213,3250063,,,,,,,2022-10-21,1,,,,,ウズ,0
2156,8080101023579,新規,0,2022-10-21,2022-10-21,株式会社Ｋ‐Ｐｒｏｊｅｃｔ,,株式会社,静岡県,沼津市,岡宮５７３番地の４,,22,203,4100011,,,,,,,2022-10-21,1,,,,,ケイプロジェクト,0
2157,8080401026109,新規,0,2022-10-21,2022-10-21,Ｍａｋｅ　Ａ　Ｆｌｏｗ株式会社,,株式会社,静岡県,浜松市中区,海老塚町１番地の４０松家ビル４Ｆ,,22,131,4328032,,,,,,,2022-10-21,1,,,,,メイクアフロー,0
2187,8120001249633,新規,0,2022-10-21,2022-10-21,エバースター株式会社,,株式会社,大阪府,大阪市中央区,船場中央２丁目１番４号船場センタービル４号館地下一階Ｂ１０８ＲＯＹＡＬＯＦＦＩＣＥ内,,27,128,5410055,,,,,,,2022-10-21,1,,,,,エバースター,0
2188,8120001249658,新規,0,2022-10-21,2022-10-21,株式会社森麟社,,株式会社,大阪府,大阪市淀川区,塚本５丁目３－１１－５０３,,27,123,5320026,,,,,,,2022-10-21,1,,,,,シンリンシャ,0
2189,8120001249674,新規,0,2022-10-21,2022-10-21,株式会社山岡不動産,,株式会社,大阪府,大阪市中央区,伏見町４丁目４番９号淀屋橋東洋ビル３Ｆ,,27,128,5410044,,,,,,,2022-10-21,1,,,,,ヤマオカフドウサン,0
2190,8120003022708,新規,0,2022-10-21,2022-10-21,合同会社ミスティック,,合同会社,大阪府,大阪市福島区,玉川１丁目７番１号－４０３号室,,27,103,5530004,,,,,,,2022-10-21,1,,,,,ミスティック,0
2193,8120901046626,新規,0,2022-10-21,2022-10-21,株式会社イマジネイツ,,株式会社,大阪府,吹田市,朝日町２７番１７号富士ビル６０１,,27,205,5640027,,,,,,,2022-10-21,1,,,,,イマジネイツ,0
2203,8140001127754,新規,0,2022-10-21,2022-10-21,株式会社エスシーオー,,株式会社,兵庫県,赤穂市,木津１３２７番地１５７,,28,212,6780165,,,,,,,2022-10-21,1,,,,,エスシーオー,0
2206,8140003018266,新規,0,2022-10-21,2022-10-21,Ｕ‐Ｅｘｐｒｅｓｓ合同会社,,合同会社,兵庫県,明石市,魚住町錦が丘４丁目１番地の１７ウエスト魚住ＩＩ－１０２号,00128202,28,203,6740081,,,,,,,2022-10-21,1,,,,,ユーエクスプレス,0
2208,8150001025899,新規,0,2022-10-21,2022-10-21,ケーズカンパニー株式会社,,株式会社,奈良県,奈良市,中山町１５２３番１－２,,29,201,6310012,,,,,,,2022-10-21,1,,,,,ケーズカンパニー,0
2209,8160003002706,新規,0,2022-10-21,2022-10-21,合同会社丹尾コンサルティング,,合同会社,滋賀県,大津市,関津３丁目１３－１５,,25,201,5202277,,,,,,,2022-10-21,1,,,,,ニオコンサルティング,0
2210,8160005011135,新規,0,2022-10-21,2022-10-21,ＮＰＯ法人湖北じんけんネットワーク,,その他の設立登記法人,滋賀県,長浜市,高月町高月９３９番地,,25,203,5290241,,,,,,,2022-10-21,1,,,,,コホクジンケンネットワーク,0
2236,8230003001923,新規,0,2022-10-21,2022-10-21,合同会社ＴＡＫＡ,,合同会社,富山県,富山市,本宮１５１０,,16,201,9301455,,,,,,,2022-10-21,1,,,,,タカ,0
2239,8250001019817,新規,0,2022-10-21,2022-10-21,ＨＡＲＡＤＡ　ＳＥＷＩＮＧ株式会社,,株式会社,山口県,防府市,大字新田５９３番地の１,,35,206,7470825,,,,,,,2022-10-21,1,,,,,ハラダソーイング,0
2243,8260003004072,新規,0,2022-10-21,2022-10-21,合同会社ヨリツネ,,合同会社,岡山県,総社市,井尻野１６７６番地５,,33,208,7191154,,,,,,,2022-10-21,1,,,,,ヨリツネ,0
2248,8290001099302,新規,0,2022-10-21,2022-10-21,株式会社ＫＡＫＵ,,株式会社,福岡県,福岡市南区,屋形原５丁目１０番１８号,,40,134,8111351,,,,,,,2022-10-21,1,,,,,カク,0
2265,8350003004204,新規,0,2022-10-21,2022-10-21,合同会社ＣＷＰ,,合同会社,宮崎県,宮崎市,末広１丁目４番１１号モアナレア末広２０１号,,45,201,8800012,,,,,,,2022-10-21,1,,,,,シーダブリューピー,0
2269,8360001031091,新規,0,2022-10-21,2022-10-21,沖縄コンダクト株式会社,,株式会社,沖縄県,那覇市,安謝１丁目２２番５６号,,47,201,9000003,,,,,,,2022-10-21,1,,,,,オキナワコンダクト,0
2271,8360003012387,新規,0,2022-10-21,2022-10-21,ＹＫＹ合同会社,,合同会社,沖縄県,浦添市,宮城２丁目４０－９－２Ｆ,,47,208,9012126,,,,,,,2022-10-21,1,,,,,ワイケイワイ,0
2272,8370001049166,新規,0,2022-10-21,2022-10-21,株式会社ラスカル,,株式会社,宮城県,仙台市青葉区,二日町３番３２号二日町深松ビル２０３号,,04,101,9800802,,,,,,,2022-10-21,1,,,,,ラスカル,0
2277,8380003005298,新規,0,2022-10-21,2022-10-21,合同会社ケーエスエス企画,,合同会社,福島県,郡山市,田村町御代田字中平５２番地,,07,203,9631164,,,,,,,2022-10-21,1,,,,,,0
2279,8390001017055,新規,0,2022-10-21,2022-10-21,株式会社三栄工務店,,株式会社,山形県,山形市,落合町２１２番地２,,06,201,9900075,,,,,,,2022-10-21,1,,,,,サンエイコウムテン,0
2297,8460101007270,新規,0,2022-10-21,2022-10-21,株式会社ムゥ,,株式会社,北海道,帯広市,西五条南１８丁目１９番地１,,01,207,0800015,,,,,,,2022-10-21,1,,,,,ムゥ,0
2298,8470001019299,新規,0,2022-10-21,2022-10-21,インターナショナルヘルシーランド株式会社,,株式会社,香川県,小豆郡土庄町,甲２６９５番地１,,37,322,7614101,,,,,,,2022-10-21,1,,,,,インターナショナルヘルシーランド,0
2302,8700150112194,新規,0,2022-10-21,2022-10-21,深セン市聯業光電技術有限公司,,外国会社等,,,,,,,,Ｎｏ．４２，Ｃａｉｙｕｎ　Ｒｏａｄ，Ｌｏｎｇｔｅｎｇ　Ｉｎｄｕｓｔｒｙ　Ａｒｅａ，Ａｉｌｉａｎ，Ｌｏｎｇｇａｎｇ　Ｄｉｓｔｒｉｃｔ，Ｓｈｅｎｚｈｅｎ，Ｇｕａｎｇｄｏｎｇ，Ｃｈｉｎａ,,,,,,2022-10-21,1,,,,,シンセンシレンギヨウコウデンギジユツユウゲンコウシ,0
2314,9010001230264,新規,0,2022-10-21,2022-10-21,株式会社ＹＫホールディングス,,株式会社,東京都,千代田区,丸の内１丁目６番５号,,13,101,1000005,,,,,,,2022-10-21,1,,,,,ワイケーホールディングス,0
2315,9010001230272,新規,0,2022-10-21,2022-10-21,音と旅と株式会社,,株式会社,東京都,中央区,銀座１丁目２２番１１号銀座大竹ビジデンス２階,,13,102,1040061,,,,,,,2022-10-21,1,,,,,オトトタビト,0
2316,9010001230347,新規,0,2022-10-21,2022-10-21,株式会社ＢＬＡＮＣ　ＮＡＶＩ,,株式会社,東京都,中央区,銀座１丁目２２－１１銀座大竹ビジデンス２階,,13,102,1040061,,,,,,,2022-10-21,1,,,,,ブランナビ,0
2320,9010003038879,新規,0,2022-10-21,2022-10-21,合同会社ＲＪＤコンサルティング,,合同会社,東京都,中央区,日本橋本町４丁目１３番６－３０９号,,13,102,1030023,,,,,,,2022-10-21,1,,,,,アールジェイディコンサルティング,0
2321,9010003038895,新規,0,2022-10-21,2022-10-21,合同会社ＭＯＴＩＦ,,合同会社,東京都,中央区,築地３丁目７番１号ＴＳＵＫＩＪＩＧＲＡＮＤＥ２Ｆ,,13,102,1040045,,,,,,,2022-10-21,1,,,,,モチーフ,0
2324,9010103002009,新規,0,2022-10-21,2022-10-21,ＫＩＮＩ合同会社,,合同会社,東京都,八王子市,大和田町１丁目９－８アーバンイースト２０４,,13,201,1920045,,,,,,,2022-10-21,1,,,,,キニ,0
2335,9010403028744,新規,0,2022-10-21,2022-10-21,合同会社バストーネ,,合同会社,東京都,港区,西新橋１丁目２０番１０号サンライズ山西ビル,,13,103,1050003,,,,,,,2022-10-21,1,,,,,バストーネ,0
2341,9010801033370,新規,0,2022-10-21,2022-10-21,東京環境保全株式会社,,株式会社,東京都,大田区,蒲田４丁目３３番７号,,13,111,1440052,,,,,,,2022-10-21,1,,,,,トウキョウカンキョウホゼン,0
2342,9010803004320,新規,0,2022-10-21,2022-10-21,合同会社ルミエール,,合同会社,東京都,大田区,大森北６丁目５番１４号,,13,111,1430016,,,,,,,2022-10-21,1,,,,,ルミエール,0
2364,9011001150287,新規,0,2022-10-21,2022-10-21,株式会社ＬＯＹＬ,,株式会社,東京都,渋谷区,円山町５－４ＦｅｅｌＡ３０２,,13,113,1500044,,,,,,,2022-10-21,1,,,,,ロイル,0
2365,9011001150345,新規,0,2022-10-21,2022-10-21,Ｐｒｏｊｅｃｔ　ＳＭＬ株式会社,,株式会社,東京都,渋谷区,富ヶ谷１丁目１４－１４スタンフォードアネックスビル４階,,13,113,1510063,,,,,,,2022-10-21,1,,,,,プロジェクトエスエムエル,0
2366,9011001150436,新規,0,2022-10-21,2022-10-21,株式会社ＳＷ２０,,株式会社,東京都,渋谷区,代々木１丁目４２番４号,,13,113,1510053,,,,,,,2022-10-21,1,,,,,エスダブリュートゥエンティー,0
2377,9011103012294,新規,0,2022-10-21,2022-10-21,合同会社フラワークルスター,,合同会社,東京都,新宿区,新宿５丁目１番４－８０５号,,13,104,1600022,,,,,,,2022-10-21,1,,,,,フラワークルスター,0
2385,9011503005328,新規,0,2022-10-21,2022-10-21,エクスリンク合同会社,,合同会社,東京都,北区,東十条１丁目１３番３－１１０号,,13,117,1140001,,,,,,,2022-10-21,1,,,,,エクスリンク,0
2388,9011701025714,新規,0,2022-10-21,2022-10-21,ＭＹ株式会社,,株式会社,東京都,江戸川区,西小岩１丁目２０番１８号２Ｆ,,13,123,1330057,,,,,,,2022-10-21,1,,,,,エムワイ,0
2389,9012701017313,新規,0,2022-10-21,2022-10-21,株式会社ＭＥＲＶＥＲＹ,,株式会社,東京都,東村山市,廻田町３丁目２１番地３１,,13,213,1890025,,,,,,,2022-10-21,1,,,,,マーヴェリー,0
2390,9012703002560,新規,0,2022-10-21,2022-10-21,合同会社天地,,合同会社,東京都,東村山市,多摩湖町１丁目１番地２９,,13,213,1890026,,,,,,,2022-10-21,1,,,,,テンチ,0
2396,9013303006340,新規,0,2022-10-21,2022-10-21,合同会社諸岡商事,,合同会社,東京都,豊島区,南大塚２丁目２６番５エーデルハイム１０３号,,13,116,1700005,,,,,,,2022-10-21,1,,,,,モロオカショウジ,0
2411,9020003022592,新規,0,2022-10-21,2022-10-21,ＭＩＵＲＡ　ＩＴ　Ｓｅｒｖｉｃｅ合同会社,,合同会社,神奈川県,横浜市青葉区,新石川４丁目１０番地１工藤新石川ビル１０１,,14,117,2250003,,,,,,,2022-10-21,1,,,,,ミウラアイティーサービス,0
2432,9030001150675,新規,0,2022-10-21,2022-10-21,株式会社桜エンジニアリング,,株式会社,埼玉県,さいたま市桜区,大字神田１１９番地９,,11,106,3380812,,,,,,,2022-10-21,1,,,,,サクラエンジニアリング,0
2433,9030001150700,新規,0,2022-10-21,2022-10-21,株式会社エクステリアＡｌｅｇｒｅ,,株式会社,埼玉県,北葛飾郡杉戸町,大字杉戸３００９番地６,,11,464,3450036,,,,,,,2022-10-21,1,,,,,エクステリアアレグリ,0
2442,9040001125528,新規,0,2022-10-21,2022-10-21,株式会社ヤママン,,株式会社,千葉県,市原市,松崎４７５番地,,12,219,2900217,,,,,,,2022-10-21,1,,,,,ヤママン,0
2443,9040001125536,新規,0,2022-10-21,2022-10-21,株式会社ＧＡ　ＨＯＬＤＩＮＧＳ,,株式会社,千葉県,市川市,行徳駅前２丁目１６番６号,,12,203,2720133,,,,,,,2022-10-21,1,,,,,ジーエーホールディングス,0
2446,9040003021064,新規,0,2022-10-21,2022-10-21,Ｌｉｖｉｎｇ　ｆｏｒ　Ｔｏｄａｙ合同会社,,合同会社,千葉県,木更津市,久津間１１６５番地７,,12,206,2920004,,,,,,,2022-10-21,1,,,,,リビングフォートゥデイ,0
2447,9040003021089,新規,0,2022-10-21,2022-10-21,合同会社Ｓ．Ｌａｂ,,合同会社,千葉県,市川市,国府台６丁目２番５号ローズハイツ１１１号,,12,203,2720827,,,,,,,2022-10-21,1,,,,,エスラボ,0
2448,9040003021097,新規,0,2022-10-21,2022-10-21,リアルポイント合同会社,,合同会社,千葉県,市川市,幸１丁目１番１－９１２号（行徳ニューグランドハイツ）,,12,203,2720123,,,,,,,2022-10-21,1,,,,,リアルポイント,0
2449,9040003021106,新規,0,2022-10-21,2022-10-21,合同会社八街商事,,合同会社,千葉県,八街市,山田台１０２９番地２,,12,230,2891124,,,,,,,2022-10-21,1,,,,,ヤチマタショウジ,0
2450,9040003021114,新規,0,2022-10-21,2022-10-21,Ｔ＆Ｕ合同会社,,合同会社,千葉県,野田市,山崎１４２７番地の１大和田マツキマンション２０１号室,,12,208,2780022,,,,,,,2022-10-21,1,,,,,ティーアンドユー,0
2466,9080101023578,新規,0,2022-10-21,2022-10-21,玩主一高ゴルフクラブ株式会社,,株式会社,静岡県,伊東市,荻字大畑ケ４９０番地,,22,208,4140053,,,,,,,2022-10-21,1,,,,,ガンシュイッコウゴルフクラブ,0
2467,9080401026108,新規,0,2022-10-21,2022-10-21,株式会社アッシュＭ,,株式会社,静岡県,掛川市,三俣１３７６番地の１サンバーストＭ２０１,,22,213,4371416,,,,,,,2022-10-21,1,,,,,アッシュエム,0
2472,9100001035803,新規,0,2022-10-21,2022-10-21,株式会社サンメグ,,株式会社,長野県,飯田市,鼎切石４７４６番地５,,20,205,3950807,,,,,,,2022-10-21,1,,,,,サンメグ,0
2484,9120001249698,新規,0,2022-10-21,2022-10-21,株式会社Ｍａｃｋｅｙ,,株式会社,大阪府,大阪市天王寺区,味原本町３番５号なつめビル２０１号,,27,109,5430022,,,,,,,2022-10-21,1,,,,,マッキー,0
2485,9120001249707,新規,0,2022-10-21,2022-10-21,株式会社ダック,,株式会社,大阪府,大阪市中央区,南久宝寺町４丁目５番１７号アップウェル船場ビル１階,,27,128,5410058,,,,,,,2022-10-21,1,,,,,ダック,0
2505,9140001127555,新規,0,2022-10-21,2022-10-21,ＭＬｉｆｅ株式会社,,株式会社,兵庫県,加古川市,野口町北野１２０７番地の７１,,28,210,6750011,,,,,,,2022-10-21,1,,,,,エムライフ,0
2506,9140001127753,新規,0,2022-10-21,2022-10-21,株式会社グリーントラスト,,株式会社,兵庫県,芦屋市,翠ケ丘町１８番１３号,,28,206,6590014,,,,,,,2022-10-21,1,,,,,グリーントラスト,0
2507,9140001127761,新規,0,2022-10-21,2022-10-21,株式会社ドリームステージ,,株式会社,兵庫県,神戸市長田区,大塚町七丁目１番３号,00128205,28,106,6530000,,,,,,,2022-10-21,1,,,,,ドリームステージ,0
2510,9150001025898,新規,0,2022-10-21,2022-10-21,株式会社ＹＳＣ,,株式会社,奈良県,奈良市,杉ヶ町７０番地の１オリエント奈良杉ヶ町５０３号,,29,201,6308357,,,,,,,2022-10-21,1,,,,,ワイエスシー,0
2530,9190005011750,新規,0,2022-10-21,2022-10-21,ＣａｍｐｉｎｇＳｐｅｃｉａｌｉｓｔ労働者協同組合,,その他の設立登記法人,三重県,四日市市,平尾町２８００番地２,,24,202,5121205,,,,,,,2022-10-21,1,,,,,キャンピングスペシャリスト,0
2532,9220001025098,新規,0,2022-10-21,2022-10-21,株式会社福田駿,,株式会社,石川県,金沢市,東山２丁目２５番６５号,,17,201,9200831,,,,,,,2022-10-21,1,,,,,フクダシュン,0
2534,9220003003382,新規,0,2022-10-21,2022-10-21,ブルーテック合同会社,,合同会社,石川県,七尾市,能登島須曽町１９部５７‐１,,17,202,9260213,,,,,,,2022-10-21,1,,,,,ブルーテック,0
2543,9290001099276,新規,0,2022-10-21,2022-10-21,株式会社ｏｆｆｆ,,株式会社,福岡県,福岡市城南区,片江５丁目４６番２３－２０２号,,40,136,8140142,,,,,,,2022-10-21,1,,,,,オッフ,0
2555,9350001017999,新規,0,2022-10-21,2022-10-21,株式会社Ｌｅ　ｒｏｎｄ,,株式会社,宮崎県,日向市,北町３番２５号,,45,206,8830041,,,,,,,2022-10-21,1,,,,,ラロン,0
2565,9370003005868,新規,0,2022-10-21,2022-10-21,合同会社ジオレグ,,合同会社,宮城県,仙台市青葉区,春日町１１番２３－５０２号,,04,101,9800821,,,,,,,2022-10-21,1,,,,,ジオレグ,0
2571,9410001013307,新規,0,2022-10-21,2022-10-21,株式会社ＴＩＭＥＬＥＳＳ＆Ｃｏ．,,株式会社,秋田県,秋田市,手形字蛇野１７２番地３ルピナス手形１０３,,05,201,0100851,,,,,,,2022-10-21,1,,,,,タイムレスアンドカンパニー,0
2580,9430001087704,新規,0,2022-10-21,2022-10-21,株式会社ＫＡＮＡＲＯＡ,,株式会社,北海道,札幌市東区,東苗穂六条１丁目１７番１９号,,01,103,0070806,,,,,,,2022-10-21,1,,,,,カナロア,0
2581,9430001087712,新規,0,2022-10-21,2022-10-21,ココノギクリエイション株式会社,,株式会社,北海道,札幌市豊平区,平岸四条７丁目７番１６号,,01,105,0620934,,,,,,,2022-10-21,1,,,,,ココノギクリエイション,0
2582,9430003014391,新規,0,2022-10-21,2022-10-21,Ｔｒｙ＆Ｋｅｙ合同会社,,合同会社,北海道,札幌市中央区,南十条西６丁目５番２０号,,01,101,0640810,,,,,,,2022-10-21,1,,,,,トライアンドキー,0
2584,9460001005737,新規,0,2022-10-21,2022-10-21,株式会社ＭＯＶＩＳＳＵＥ,,株式会社,北海道,川上郡弟子屈町,鈴蘭４丁目８番９号,,01,665,0883202,,,,,,,2022-10-21,1,,,,,ムービーシュー,0
2585,9470001019298,新規,0,2022-10-21,2022-10-21,株式会社矢尾物産,,株式会社,香川県,坂出市,本町２丁目９番１号ＲＥＮＴビル,,37,203,7620044,,,,,,,2022-10-21,1,,,,,ヤオブッサン,0
2586,9470005006474,新規,0,2022-10-21,2022-10-21,一般社団法人ノーワン,,その他の設立登記法人,香川県,丸亀市,郡家町７７１番地１,,37,202,7630093,,,,,,,2022-10-21,1,,,,,ノーワン,0
