sequenceNumber,corporateNumber,process,correct,updateDate,changeDate,name,nameImageId,kind,prefectureName,cityName,streetNumber,addressImageId,prefectureCode,cityCode,postCode,addressOutside,addressOutsideImageId,closeDate,closeCause,successorCorporateNumber,changeCause,assignmentDate,latest,enName,enPrefectureName,enCityName,enAddressOutside,furigana,hihyoji
8,1010003041295,新規,0,2023-08-17,2023-08-17,ＷＨＡＴＳＬＥ合同会社,,合同会社,東京都,文京区,関口３丁目４－７－３０１,,13,105,1120014,,,,,,,2023-08-17,1,,,,,ワッスル,0
9,1010003041403,新規,0,2023-08-17,2023-08-17,ＯＵＲＢＡＮ合同会社,,合同会社,東京都,千代田区,霞が関３丁目２番５号,,13,101,1000013,,,,,,,2023-08-17,1,,,,,オーアーバン,0
12,1010101015779,新規,0,2023-08-17,2023-08-17,株式会社Ｓｔｕｄｉｏ　Ｇｏｓｈｕ,,株式会社,東京都,八王子市,明神町２丁目１４－３アートスペースＫＥＩＨＯビル,,13,201,1920046,,,,,,,2023-08-17,1,,,,,スタジオゴーシュ,0
18,1010401176180,新規,0,2023-08-17,2023-08-17,エイベックス・アライアンス＆パートナーズ株式会社,,株式会社,東京都,港区,三田１丁目４番１号,,13,103,1080073,,,,,,,2023-08-17,1,,,,,エイベックスアライアンスアンドパートナーズ,0
19,1010401176420,新規,0,2023-08-17,2023-08-17,ＥＲ２９株式会社,,株式会社,東京都,港区,六本木１丁目６番１号,,13,103,1060032,,,,,,,2023-08-17,1,,,,,イーアールトゥエンティーナイン,0
20,1010401176429,新規,0,2023-08-17,2023-08-17,しげもとまもる株式会社,,株式会社,東京都,港区,赤坂２丁目２０番５号デニス赤坂,,13,103,1070052,,,,,,,2023-08-17,1,,,,,シゲモトマモル,0
21,1010401176453,新規,0,2023-08-17,2023-08-17,株式会社スマートリサーチ,,株式会社,東京都,港区,南青山３丁目１番３６号青山丸竹ビル６Ｆ,,13,103,1070062,,,,,,,2023-08-17,1,,,,,スマートリサーチ,0
22,1010401176461,新規,0,2023-08-17,2023-08-17,株式会社アオテン,,株式会社,東京都,港区,北青山１丁目３番１号アールキューブ青山３階,,13,103,1070061,,,,,,,2023-08-17,1,,,,,アオテン,0
23,1010401176486,新規,0,2023-08-17,2023-08-17,ｉｎｔｅＧｒｉｔ株式会社,,株式会社,東京都,港区,高輪３丁目１番１４－９０２号,,13,103,1080074,,,,,,,2023-08-17,1,,,,,インテグリット,0
24,1010403030716,新規,0,2023-08-17,2023-08-17,合同会社ソーラーパーク３１号,,合同会社,東京都,港区,六本木３丁目２番１号,,13,103,1060032,,,,,,,2023-08-17,1,,,,,ソーラーパーサンジュウイチゴウ,0
27,1010503007127,新規,0,2023-08-17,2023-08-17,森川合同会社,,合同会社,東京都,台東区,花川戸１丁目２番８号コーポ花川戸６０２,,13,106,1110033,,,,,,,2023-08-17,1,,,,,モリカワ,0
40,1010803004641,新規,0,2023-08-17,2023-08-17,Ｎｏｒｔｈ４３合同会社,,合同会社,東京都,大田区,池上５丁目１０番１号,,13,111,1460082,,,,,,,2023-08-17,1,,,,,ノースフォースリー,0
41,1010901053656,新規,0,2023-08-17,2023-08-17,株式会社ＢｅＴ,,株式会社,東京都,世田谷区,上野毛４丁目３０番５号ＧＵＲＵＲＩ－Ｇ５,,13,112,1580093,,,,,,,2023-08-17,1,,,,,ベッツ,0
44,1010903008385,新規,0,2023-08-17,2023-08-17,合同会社ハチジュウナナ,,合同会社,東京都,世田谷区,代沢４丁目２１－１５,,13,112,1550032,,,,,,,2023-08-17,1,,,,,ハチジュウナナ,0
49,1011001156300,新規,0,2023-08-17,2023-08-17,株式会社ｃｏｒｏｂｅｅ,,株式会社,東京都,渋谷区,神宮前６丁目２３番４号桑野ビル２階,,13,113,1500001,,,,,,,2023-08-17,1,,,,,コロビー,0
52,1011003017351,新規,0,2023-08-17,2023-08-17,合同会社スタジオ８８,,合同会社,東京都,目黒区,駒場１丁目４－４アジールコフレ渋谷神泉６０２,,13,110,1530041,,,,,,,2023-08-17,1,,,,,スタジオハチハチ,0
53,1011003017384,新規,0,2023-08-17,2023-08-17,合同会社紫藤樹,,合同会社,東京都,渋谷区,道玄坂１丁目１０番８号渋谷道玄坂東急ビル２Ｆ－Ｃ,,13,113,1500043,,,,,,,2023-08-17,1,,,,,シトウジュ,0
59,1011101103994,新規,0,2023-08-17,2023-08-17,株式会社ウカルン,,株式会社,東京都,新宿区,市谷台町１６番２号アケボノビル３階,,13,104,1620066,,,,,,,2023-08-17,1,,,,,ウカルン,0
61,1011403004057,新規,0,2023-08-17,2023-08-17,七彩霞谷合同会社,,合同会社,東京都,板橋区,赤塚２丁目１１番３－２０５号トップ下赤塚第１,,13,119,1750092,,,,,,,2023-08-17,1,,,,,シチサイカコク,0
71,1011801042897,新規,0,2023-08-17,2023-08-17,株式会社フロントロウレーシング,,株式会社,東京都,葛飾区,宝町２丁目１４番３１号,,13,122,1240005,,,,,,,2023-08-17,1,,,,,フロントロウレーシング,0
77,1012803003160,新規,0,2023-08-17,2023-08-17,えん合同会社,,合同会社,東京都,日野市,落川８４４番地の３,,13,212,1910034,,,,,,,2023-08-17,1,,,,,エン,0
84,1013303006760,新規,0,2023-08-17,2023-08-17,ＫＫＣ合同会社,,合同会社,東京都,豊島区,南長崎３丁目２８番１３号,,13,116,1710052,,,,,,,2023-08-17,1,,,,,ケーケーシー,0
101,1021001079970,新規,0,2023-08-17,2023-08-17,株式会社お陰様,,株式会社,神奈川県,厚木市,旭町１丁目２２－４,,14,212,2430014,,,,,,,2023-08-17,1,,,,,オカゲサマ,0
109,1030001155310,新規,0,2023-08-17,2023-08-17,株式会社センターヴィレッジ,,株式会社,埼玉県,川口市,川口２丁目１５番１号ソフィア川口ヴェルデ４０５,,11,203,3320015,,,,,,,2023-08-17,1,,,,,センターヴィレッジ,0
112,1030005021376,新規,0,2023-08-17,2023-08-17,一般社団法人日本心肺補助学会,,その他の設立登記法人,埼玉県,川口市,前川１丁目１番５１号,,11,203,3330842,,,,,,,2023-08-17,1,,,,,ニホンシンパイホジョガッカイ,0
118,1040001129718,新規,0,2023-08-17,2023-08-17,株式会社センリ,,株式会社,千葉県,千葉市稲毛区,小深町１０８番地１－Ｂ２０２,,12,103,2630003,,,,,,,2023-08-17,1,,,,,センリ,0
122,1040003023134,新規,0,2023-08-17,2023-08-17,合同会社ブロードゲート,,合同会社,千葉県,八千代市,大和田新田９４６番地２ルーチェ緑が丘Ｃ棟１０３号,,12,221,2760046,,,,,,,2023-08-17,1,,,,,ブロードゲート,0
123,1040003023142,新規,0,2023-08-17,2023-08-17,小林設備合同会社,,合同会社,千葉県,銚子市,松岸町１丁目９４番地,,12,202,2880836,,,,,,,2023-08-17,1,,,,,コバヤシセツビ,0
125,1050001053289,新規,0,2023-08-17,2023-08-17,日本土地開発株式会社,,株式会社,茨城県,土浦市,中７２０－５メゾンラピス１号棟３０１号室,,08,203,3000841,,,,,,,2023-08-17,1,,,,,ニホントチカイハツ,0
126,1050001053314,新規,0,2023-08-17,2023-08-17,Ａコンサルティング株式会社,,株式会社,茨城県,牛久市,南１丁目１０番地３４,,08,219,3001222,,,,,,,2023-08-17,1,,,,,エーコンサルティング,0
128,1050005013314,新規,0,2023-08-17,2023-08-17,一般社団法人中島竜基を支える会,,その他の設立登記法人,茨城県,土浦市,高岡２１０９番地９,,08,203,3004117,,,,,,,2023-08-17,1,,,,,ナカジマタツキヲササエルカイ,0
129,1070001040748,新規,0,2023-08-17,2023-08-17,糟川工業株式会社,,株式会社,群馬県,前橋市,下大島町６３４－３２,,10,201,3792152,,,,,,,2023-08-17,1,,,,,,0
131,1070005010160,新規,0,2023-08-17,2023-08-17,一般社団法人群馬ＤＸ推進協議会,,その他の設立登記法人,群馬県,太田市,大原町３８４番地７０,,10,205,3792304,,,,,,,2023-08-17,1,,,,,グンマディーエックススイシンキョウギカイ,0
134,1080402017212,新規,0,2023-08-17,2023-08-17,有限会社岡田書店,,有限会社,静岡県,掛川市,連雀２番地の１４,,22,213,4360093,,,,,,,2023-08-17,1,,,,,オカダショテン,0
137,1090003002364,新規,0,2023-08-17,2023-08-17,Ｊｏｙ　Ｆｏｒ　Ａｌｌ合同会社,,合同会社,山梨県,甲府市,南口町１番５０号－７０１,,19,201,4000863,,,,,,,2023-08-17,1,,,,,ジョイフォーオール,0
138,1090003002372,新規,0,2023-08-17,2023-08-17,合同会社ＴＯＵＢＡ　ＴＲＡＤＩＮＧ,,合同会社,山梨県,笛吹市,御坂町蕎麦塚６２７－３,,19,211,4060818,,,,,,,2023-08-17,1,,,,,ツーバトレーディング,0
139,1100001036692,新規,0,2023-08-17,2023-08-17,株式会社ｓｔａｙｇｏｌｄｊａｐａｎ,,株式会社,長野県,諏訪郡富士見町,富士見４６５４番地８９１,,20,362,3990211,,,,,,,2023-08-17,1,,,,,ステイゴールドジャパン,0
147,1120001257304,新規,0,2023-08-17,2023-08-17,英傑株式会社,,株式会社,大阪府,大阪市住吉区,長居２丁目１０番３－２０１号,,27,120,5580003,,,,,,,2023-08-17,1,,,,,エイケツ,0
148,1120001257345,新規,0,2023-08-17,2023-08-17,株式会社トイキャッチ,,株式会社,大阪府,大阪市淀川区,西中島１丁目１５番２号５Ｆ,,27,123,5320011,,,,,,,2023-08-17,1,,,,,トイキャッチ,0
149,1120001257353,新規,0,2023-08-17,2023-08-17,株式会社オンウィ,,株式会社,大阪府,大阪市北区,梅田１丁目２番２号大阪駅前第２ビル１２－１２,,27,127,5300001,,,,,,,2023-08-17,1,,,,,オンウィ,0
150,1120001257361,新規,0,2023-08-17,2023-08-17,株式会社夢幻大,,株式会社,大阪府,大阪市中央区,東心斎橋２丁目２番７号,,27,128,5420083,,,,,,,2023-08-17,1,,,,,ムゲンダイ,0
151,1120001257378,新規,0,2023-08-17,2023-08-17,株式会社ノジー,,株式会社,大阪府,大阪市淀川区,西宮原２丁目６番８－２５０６号,,27,123,5320004,,,,,,,2023-08-17,1,,,,,ノジー,0
152,1120003024719,新規,0,2023-08-17,2023-08-17,合同会社リリィコンバーリュ,,合同会社,大阪府,大阪市東住吉区,南田辺２丁目１３番２号,,27,121,5460033,,,,,,,2023-08-17,1,,,,,リリィコンバーリュ,0
163,1122001037280,新規,0,2023-08-17,2023-08-17,株式会社トライ１５,,株式会社,大阪府,東大阪市,衣摺５丁目１５番１９号,,27,227,5770827,,,,,,,2023-08-17,1,,,,,トライジュウゴ,0
165,1130003008910,新規,0,2023-08-17,2023-08-17,合同会社サンライズ,,合同会社,京都府,京都市中京区,六角通油小路西入越後町１９４番地３ヴィラージュハイツ３０２,,26,104,6048256,,,,,,,2023-08-17,1,,,,,サンライズ,0
171,1140003019436,新規,0,2023-08-17,2023-08-17,さん和合同会社,,合同会社,兵庫県,神戸市中央区,琴ノ緒町３丁目２番８号エステムコート三宮駅前ラ・ドゥー２１６号室,,28,110,6510094,,,,,,,2023-08-17,1,,,,,サンワ,0
182,1180001157696,新規,0,2023-08-17,2023-08-17,株式会社フジタ創建,,株式会社,愛知県,名古屋市北区,中味鋺２丁目４１２番地の２,,23,103,4620015,,,,,,,2023-08-17,1,,,,,フジタソウケン,0
188,1180005020330,新規,0,2023-08-17,2023-08-17,特定非営利活動法人地域教育ネットワーク葵,,その他の設立登記法人,愛知県,長久手市,西原山１番地１セントアース１１３号,,23,238,4801138,,,,,,,2023-08-17,1,,,,,チイキキョウイクネットワークアオイ,0
189,1190001030670,新規,0,2023-08-17,2023-08-17,株式会社リベル,,株式会社,三重県,四日市市,垂坂新町１７３番地,,24,202,5108038,,,,,,,2023-08-17,1,,,,,リベル,0
194,1200001041609,新規,0,2023-08-17,2023-08-17,Ｘ‐ＴＥＣＨ　ＦＩＥＬＤ　ＪＡＰＡＮ株式会社,,株式会社,岐阜県,各務原市,テクノプラザ１丁目１番地３階３１６,,21,213,5090109,,,,,,,2023-08-17,1,,,,,クロステックフィールドジャパン,0
204,1250001020236,新規,0,2023-08-17,2023-08-17,ドクトル株式会社,,株式会社,山口県,下関市,千鳥ケ丘町８番１８号,,35,201,7520922,,,,,,,2023-08-17,1,,,,,ドクトル,0
205,1250001020244,新規,0,2023-08-17,2023-08-17,ＴＡＫＡ板金株式会社,,株式会社,山口県,玖珂郡和木町,和木５丁目１０番１４－４号,,35,321,7400061,,,,,,,2023-08-17,1,,,,,タカバンキン,0
210,1270001008824,新規,0,2023-08-17,2023-08-17,株式会社Ｋｉｚｕｎａ,,株式会社,鳥取県,米子市,富益町６３番地１４,,31,202,6830103,,,,,,,2023-08-17,1,,,,,キズナ,0
215,1290001102682,新規,0,2023-08-17,2023-08-17,株式会社Ｍａｌｕ,,株式会社,福岡県,宗像市,くりえいと２丁目３番１７号,,40,220,8114184,,,,,,,2023-08-17,1,,,,,マル,0
216,1290001102699,新規,0,2023-08-17,2023-08-17,ＪＯＢ　ＣＲＥＡＴＯＲ　ＨＯＬＤＩＮＧＳ株式会社,,株式会社,福岡県,福岡市博多区,祇園町８番１２号,,40,132,8120038,,,,,,,2023-08-17,1,,,,,ジョブクリエーターホールディングス,0
217,1290001102724,新規,0,2023-08-17,2023-08-17,株式会社新興精機ホールディングス,,株式会社,福岡県,福岡市東区,馬出６丁目１４番１７号,,40,131,8120054,,,,,,,2023-08-17,1,,,,,シンコウセイキホールディングス,0
220,1290003014249,新規,0,2023-08-17,2023-08-17,合同会社ＴＯＴＡＬ・ＷＯＲＫＳ,,合同会社,福岡県,うきは市,浮羽町高見７１７番地１７,,40,225,8391406,,,,,,,2023-08-17,1,,,,,トータルワークス,0
222,1290005019122,新規,0,2023-08-17,2023-08-17,一般社団法人アスリートプロ,,その他の設立登記法人,福岡県,福岡市西区,下山門２丁目１９番１６－１０２号,,40,135,8190052,,,,,,,2023-08-17,1,,,,,アスリートプロ,0
231,1330001031159,新規,0,2023-08-17,2023-08-17,株式会社クラフトラボ,,株式会社,熊本県,宇城市,松橋町南豊崎１０９０番地８,,43,213,8690543,,,,,,,2023-08-17,1,,,,,クラフトラボ,0
239,1360003013169,新規,0,2023-08-17,2023-08-17,合同会社ラーテル,,合同会社,沖縄県,名護市,宇茂佐の森２丁目６－１クラールハウスＢ２０１,,47,209,9050009,,,,,,,2023-08-17,1,,,,,ラーテル,0
243,1370001050295,新規,0,2023-08-17,2023-08-17,ＦＥＮＧ株式会社,,株式会社,宮城県,仙台市太白区,中田６丁目２２番１７号,,04,104,9811104,,,,,,,2023-08-17,1,,,,,フェン,0
249,1420003002776,新規,0,2023-08-17,2023-08-17,鷹巣工業合同会社,,合同会社,青森県,三戸郡三戸町,大字川守田字冷水１１番地７,,02,441,0390141,,,,,,,2023-08-17,1,,,,,タカスコウギョウ,0
251,1430001089757,新規,0,2023-08-17,2023-08-17,株式会社渋谷ロジスティクス,,株式会社,北海道,札幌市北区,新琴似五条１６丁目６番１３号,,01,102,0010905,,,,,,,2023-08-17,1,,,,,シブヤロジスティクス,0
255,1700150119031,新規,0,2023-08-17,2023-08-17,Ｍａｉｊａｇ　Ｅｌｅｃｔｒｏｎｉｃ　Ｔｅｃｈｎｏｌｏｇｙ　Ｃｏ．Ｌｔｄ．,,外国会社等,,,,,,,,Ｒｏｏｍ　１９１４，Ｊｉａｎｇｎａｎ　Ｂｕｉｌｄｉｎｇ，Ｎｏ．１　Ｈａｉｙｕ　Ｓｏｕｔｈ　Ｒｏａｄ，Ｃｈａｎｇｓｈｕ　Ｃｉｔｙ　Ｒｏｏｍ　１９１４，Ｂｕｉｌｄｉｎｇ　１,,,,,,2023-08-17,1,,,,,マイジエゴーディエンズーコージースージョウヨウシエンゴンスー,0
270,2010001237778,新規,0,2023-08-17,2023-08-17,ＪＡＰＡＮ　ＭＵＬＴＩ　ＬＩＮＴＡＳ　ＢＵＡＮＡ　ＲＡＹＡ株式会社,,株式会社,東京都,中央区,新富２丁目２－１１富士中央ビル別館,,13,102,1040041,,,,,,,2023-08-17,1,,,,,ジャパンムルティリンタスブアナラヤ,0
273,2010003041402,新規,0,2023-08-17,2023-08-17,ＯＳＯＬＥ合同会社,,合同会社,東京都,千代田区,霞が関３丁目２番５号,,13,101,1000013,,,,,,,2023-08-17,1,,,,,オーソール,0
274,2010003041410,新規,0,2023-08-17,2023-08-17,ジャパンブルズアイキャピタル合同会社,,合同会社,東京都,文京区,本駒込６丁目１３－１９グランスイート六義園４０３,,13,105,1130021,,,,,,,2023-08-17,1,,,,,ジャパンブルズアイキャピタル,0
291,2010401176329,新規,0,2023-08-17,2023-08-17,株式会社バッキオ,,株式会社,東京都,港区,高輪３丁目１１番８号ザ・ヒルトップタワー高輪台６０７,,13,103,1080074,,,,,,,2023-08-17,1,,,,,バッキオ,0
292,2010401176337,新規,0,2023-08-17,2023-08-17,株式会社ｐｏｌｅｓｔａｒ,,株式会社,東京都,港区,赤坂４丁目１３番５号赤坂オフィスハイツビル１３５,,13,103,1070052,,,,,,,2023-08-17,1,,,,,ポールスター,0
293,2010401176361,新規,0,2023-08-17,2023-08-17,Ｂｒｉｄｇｅ株式会社,,株式会社,東京都,港区,北青山１丁目３番１号アールキューブ青山３階,,13,103,1070061,,,,,,,2023-08-17,1,,,,,ブリッジ,0
294,2010401176428,新規,0,2023-08-17,2023-08-17,株式会社イエスフィルム,,株式会社,東京都,港区,南青山５丁目１６番３号,,13,103,1070062,,,,,,,2023-08-17,1,,,,,イエスフィルム,0
295,2010401176452,新規,0,2023-08-17,2023-08-17,ａｎｄ　Ｍａｇｉｃ株式会社,,株式会社,東京都,港区,南青山１丁目１４番７号ベルメーゾン３階,,13,103,1070062,,,,,,,2023-08-17,1,,,,,アンドマジック,0
303,2010501050920,新規,0,2023-08-17,2023-08-17,株式会社Ｒｕｄｉｍｅｎｔｓ,,株式会社,東京都,台東区,蔵前１丁目３－１８ＪＰｎｏｉｅ蔵前２３０７,,13,106,1110051,,,,,,,2023-08-17,1,,,,,ルーディメンツ,0
304,2010503007126,新規,0,2023-08-17,2023-08-17,ディーセントワークス合同会社,,合同会社,東京都,台東区,上野５丁目１６番１２号サンライズ第一ビル５Ｆ,,13,106,1100005,,,,,,,2023-08-17,1,,,,,ディーセントワークス,0
306,2010601063640,新規,0,2023-08-17,2023-08-17,Ｓｔｅｐ　ｂｙ　Ｓｔｅｐ株式会社,,株式会社,東京都,墨田区,向島１丁目２３番１５号Ｅ７,,13,107,1310033,,,,,,,2023-08-17,1,,,,,ステップバイステップ,0
308,2010701044730,新規,0,2023-08-17,2023-08-17,Ｃｏｎｊｕｒｅ　Ｔｅｃｈｎｏｌｏｇｉｅｓ株式会社,,株式会社,東京都,品川区,西五反田４丁目１番１０号,,13,109,1410031,,,,,,,2023-08-17,1,,,,,コンジャーテクノロジーズ,0
310,2010803004640,新規,0,2023-08-17,2023-08-17,Ｃａｍｅｌｌｉａ合同会社,,合同会社,東京都,大田区,山王３丁目１５番２１号,,13,111,1430023,,,,,,,2023-08-17,1,,,,,カメリア,0
313,2010903008384,新規,0,2023-08-17,2023-08-17,合同会社Ｋ’ｓファブリカ,,合同会社,東京都,世田谷区,上北沢５丁目３１－１－４２６,,13,112,1560057,,,,,,,2023-08-17,1,,,,,ケイズファブリカ,0
315,2011001156126,新規,0,2023-08-17,2023-08-17,株式会社すたてら,,株式会社,東京都,渋谷区,神宮前６丁目３３番９号パークハウス神宮前５０２号,,13,113,1500001,,,,,,,2023-08-17,1,,,,,スタテラ,0
316,2011001156381,新規,0,2023-08-17,2023-08-17,Ｐａｒａｌｌｅｌ　Ｕｎｉｖｅｒｓｅ株式会社,,株式会社,東京都,渋谷区,広尾５丁目１９番１１号マリオン広尾ビル３階,,13,113,1500012,,,,,,,2023-08-17,1,,,,,パラレルユニバース,0
317,2011001156423,新規,0,2023-08-17,2023-08-17,株式会社ｍｏｌｕｔａ,,株式会社,東京都,渋谷区,神宮前６丁目２３番４号桑野ビル２階,,13,113,1500001,,,,,,,2023-08-17,1,,,,,モルウタ,0
321,2011101104042,新規,0,2023-08-17,2023-08-17,株式会社ＩＴリモートワークス,,株式会社,東京都,新宿区,西新宿３丁目３番１３号西新宿水間ビル２Ｆ,,13,104,1600023,,,,,,,2023-08-17,1,,,,,アイティーリモートワークス,0
329,2011303004874,新規,0,2023-08-17,2023-08-17,合同会社グリーンフーズ,,合同会社,東京都,杉並区,荻窪２丁目２２番８号,,13,115,1670051,,,,,,,2023-08-17,1,,,,,グリーンフーズ,0
330,2011303004882,新規,0,2023-08-17,2023-08-17,ｃＥＲＡｔｅ合同会社,,合同会社,東京都,杉並区,久我山１丁目１－３３,,13,115,1680082,,,,,,,2023-08-17,1,,,,,エラ,0
338,2011801042871,新規,0,2023-08-17,2023-08-17,愛贏株式会社,,株式会社,東京都,足立区,梅田６丁目３－８塩田荘２０４,,13,121,1230851,,,,,,,2023-08-17,1,,,,,アイエイ,0
339,2011803005785,新規,0,2023-08-17,2023-08-17,合同会社すず企画,,合同会社,東京都,足立区,綾瀬６丁目４１番２－１０１号,,13,121,1200005,,,,,,,2023-08-17,1,,,,,スズキカク,0
363,2021001079961,新規,0,2023-08-17,2023-08-17,株式会社ＯＮＯＫＥＮ,,株式会社,神奈川県,藤沢市,西富６０８番地の１０,,14,205,2510001,,,,,,,2023-08-17,1,,,,,オノケン,0
373,2021003013431,新規,0,2023-08-17,2023-08-17,ＩＲＯＤＯＲＩ合同会社,,合同会社,神奈川県,平塚市,長持１８２－１－４０１,,14,203,2591217,,,,,,,2023-08-17,1,,,,,イロドリ,0
376,2030001155375,新規,0,2023-08-17,2023-08-17,インフラサポート株式会社,,株式会社,埼玉県,さいたま市大宮区,大門町２丁目２０番地２ＴＭＯ北棟３０６号室,,11,103,3300846,,,,,,,2023-08-17,1,,,,,インフラサポート,0
383,2040001129717,新規,0,2023-08-17,2023-08-17,株式会社石井ホールディングス,,株式会社,千葉県,市川市,塩浜３丁目２７番４号,,12,203,2720127,,,,,,,2023-08-17,1,,,,,イシイホールディングス,0
384,2040001129725,新規,0,2023-08-17,2023-08-17,セールスベア株式会社,,株式会社,千葉県,八千代市,緑が丘１丁目１１０６番地５,,12,221,2760049,,,,,,,2023-08-17,1,,,,,セールスベア,0
387,2040003023141,新規,0,2023-08-17,2023-08-17,合同会社海輝工業,,合同会社,千葉県,船橋市,薬円台１丁目２２番３９号,,12,204,2740077,,,,,,,2023-08-17,1,,,,,カイキコウギョウ,0
389,2050001053313,新規,0,2023-08-17,2023-08-17,蓮美工業株式会社,,株式会社,茨城県,土浦市,並木１丁目２番７号第一光洋ビル１０３,,08,203,3000061,,,,,,,2023-08-17,1,,,,,ハスビコウギョウ,0
393,2060003004692,新規,0,2023-08-17,2023-08-17,合同会社翔和,,合同会社,栃木県,宇都宮市,桜４丁目１－１９サーパスシティ桜通り１０２,,09,201,3200043,,,,,,,2023-08-17,1,,,,,ショウワ,0
396,2090001018262,新規,0,2023-08-17,2023-08-17,株式会社Ｗｉｌｌ　Ｆｏｒｅｓ,,株式会社,山梨県,甲府市,大里町１０４９番地３鈴木ビル１階Ｂ,,19,201,4000053,,,,,,,2023-08-17,1,,,,,ウィルフォレース,0
397,2090001018270,新規,0,2023-08-17,2023-08-17,株式会社ＬＯＮＧＩＳＴ,,株式会社,山梨県,甲府市,下石田２丁目１０－１,,19,201,4000046,,,,,,,2023-08-17,1,,,,,ロンギスト,0
408,2120001257336,新規,0,2023-08-17,2023-08-17,株式会社Ａｎｎｙ,,株式会社,大阪府,大阪市北区,堂山町１３番１号フレアコート梅田１４０７,,27,127,5300027,,,,,,,2023-08-17,1,,,,,アニー,0
409,2120001257344,新規,0,2023-08-17,2023-08-17,株式会社Ｂｌｕｅｐｒｉｎｔ,,株式会社,大阪府,大阪市北区,天神橋７丁目６番１８号,,27,127,5310041,,,,,,,2023-08-17,1,,,,,ブループリント,0
412,2120101068055,新規,0,2023-08-17,2023-08-17,株式会社相続の相談窓口,,株式会社,大阪府,和泉市,一条院町１６７番地の２,,27,219,5940054,,,,,,,2023-08-17,1,,,,,ソウゾクノソウダンマドグチ,0
418,2130001075019,新規,0,2023-08-17,2023-08-17,株式会社シェリーエステート,,株式会社,京都府,京都市中京区,蛸薬師通烏丸東入一蓮社町３００番地パームビル３Ｆ,,26,104,6048146,,,,,,,2023-08-17,1,,,,,シェリーエステート,0
424,2140003019410,新規,0,2023-08-17,2023-08-17,合同会社カレッジカンパニー,,合同会社,兵庫県,神戸市中央区,磯上通４丁目１番３２号ロイヤル磯上,,28,110,6510086,,,,,,,2023-08-17,1,,,,,カレッジカンパニー,0
438,2200001041616,新規,0,2023-08-17,2023-08-17,株式会社日本ゴルフ,,株式会社,岐阜県,羽島市,正木町大浦６５８番地１セカンドＭＫハイツ２０２,,21,209,5016224,,,,,,,2023-08-17,1,,,,,ニホンゴルフ,0
441,2230003002068,新規,0,2023-08-17,2023-08-17,合同会社株坂商事,,合同会社,富山県,南砺市,松木１４７番地１,,16,210,9391623,,,,,,,2023-08-17,1,,,,,カブザカショウジ,0
446,2240001062014,新規,0,2023-08-17,2023-08-17,株式会社Ｄｏｔ　ｋｎｏｔ,,株式会社,広島県,福山市,本郷町１６５５番地１,,34,207,7290252,,,,,,,2023-08-17,1,,,,,ドットノット,0
455,2280003001759,新規,0,2023-08-17,2023-08-17,合同会社ピープルズパレット,,合同会社,島根県,安来市,東赤江町３２３番地,,32,206,6920016,,,,,,,2023-08-17,1,,,,,ピープルズパレット,0
457,2290001102698,新規,0,2023-08-17,2023-08-17,株式会社ａｓ,,株式会社,福岡県,福岡市中央区,大名２丁目２番１号ＭＩＫＩビル６階,,40,133,8100041,,,,,,,2023-08-17,1,,,,,アズ,0
458,2290001102707,新規,0,2023-08-17,2023-08-17,株式会社Ｍ・アルファクリエイト,,株式会社,福岡県,春日市,光町１丁目５３番地,,40,218,8160806,,,,,,,2023-08-17,1,,,,,エムアルファクリエイト,0
459,2290003014248,新規,0,2023-08-17,2023-08-17,合同会社オネスト,,合同会社,福岡県,福岡市中央区,薬院３丁目１１番５号,,40,133,8100022,,,,,,,2023-08-17,1,,,,,オネスト,0
460,2290003014256,新規,0,2023-08-17,2023-08-17,合同会社くろもじ,,合同会社,福岡県,糸島市,二丈田中４丁目２番１号,,40,230,8191615,,,,,,,2023-08-17,1,,,,,クロモジ,0
479,2360001032376,新規,0,2023-08-17,2023-08-17,読谷テロワール株式会社,,株式会社,沖縄県,中頭郡読谷村,字喜名３０９－１ネクスコート喜名２０１号室,,47,324,9040302,,,,,,,2023-08-17,1,,,,,ヨミタンテロワール,0
480,2360001032434,新規,0,2023-08-17,2023-08-17,株式会社０１,,株式会社,沖縄県,宜野湾市,喜友名１丁目２１－１０－２Ｆ,,47,205,9012222,,,,,,,2023-08-17,1,,,,,ゼロイチ,0
484,2370001050303,新規,0,2023-08-17,2023-08-17,株式会社クイックサポート仙台,,株式会社,宮城県,仙台市太白区,鈎取２丁目８番７号,,04,104,9820804,,,,,,,2023-08-17,1,,,,,クイックサポートセンダイ,0
485,2370003006245,新規,0,2023-08-17,2023-08-17,合資会社カサハラ,,合資会社,宮城県,大崎市,三本木桑折字源氏沢８番地１,,04,215,9896301,,,,,,,2023-08-17,1,,,,,カサハラ,0
498,2430003015355,新規,0,2023-08-17,2023-08-17,Ａｌｔｉｔｕｄｅ　Ｇｒｏｕｐ　Ｊａｐａｎ合同会社,,合同会社,北海道,虻田郡ニセコ町,字ニセコ４８２番地１,,01,395,0481511,,,,,,,2023-08-17,1,,,,,アルテチュードグループジャパン,0
503,2470005006522,新規,0,2023-08-17,2023-08-17,一般社団法人五名里山を守る会,,その他の設立登記法人,香川県,東かがわ市,五名１８５０番地,,37,207,7692715,,,,,,,2023-08-17,1,,,,,ゴミョウサトヤマヲマモルカイ,0
508,3010001237694,新規,0,2023-08-17,2023-08-17,株式会社ＫＳＶ　ＪＡＰＡＮ,,株式会社,東京都,千代田区,神田猿楽町２丁目５番８号,,13,101,1010064,,,,,,,2023-08-17,1,,,,,ケーエスヴイジャパン,0
510,3010003041228,新規,0,2023-08-17,2023-08-17,ＧＷＳ合同会社,,合同会社,東京都,中央区,築地４丁目４番１５号東銀座ロイアルハイツ,,13,102,1040045,,,,,,,2023-08-17,1,,,,,ジーダブリュエス,0
518,3010401176179,新規,0,2023-08-17,2023-08-17,エイベックス・ミュージック・クリエイティヴ株式会社,,株式会社,東京都,港区,三田１丁目４番１号,,13,103,1080073,,,,,,,2023-08-17,1,,,,,エイベックスミュージッククリエイティヴ,0
519,3010401176336,新規,0,2023-08-17,2023-08-17,株式会社Ｓｅｉｒｉｏｓ,,株式会社,東京都,港区,赤坂４丁目１３番５号赤坂オフィスハイツビル１３５,,13,103,1070052,,,,,,,2023-08-17,1,,,,,シリウス,0
520,3010401176419,新規,0,2023-08-17,2023-08-17,ＥＲ２８株式会社,,株式会社,東京都,港区,六本木１丁目６番１号,,13,103,1060032,,,,,,,2023-08-17,1,,,,,イーアールトゥエンティーエイト,0
521,3010401176468,新規,0,2023-08-17,2023-08-17,株式会社ラベンダー,,株式会社,東京都,港区,南青山３丁目１－３６,,13,103,1070062,,,,,,,2023-08-17,1,,,,,ラベンダー,0
522,3010401176476,新規,0,2023-08-17,2023-08-17,日本信銘株式会社,,株式会社,東京都,港区,赤坂２丁目８番１４－５０４号,,13,103,1070052,,,,,,,2023-08-17,1,,,,,ニホンシンメイ,0
527,3010501050878,新規,0,2023-08-17,2023-08-17,株式会社吉神,,株式会社,東京都,台東区,台東２丁目３２番４号セントレイ御徒町２０１,,13,106,1100016,,,,,,,2023-08-17,1,,,,,ヨシカミ,0
530,3010603010318,新規,0,2023-08-17,2023-08-17,合同会社デュンケル,,合同会社,東京都,江東区,塩浜１丁目５番３４－５０３号,,13,108,1350043,,,,,,,2023-08-17,1,,,,,デュンケル,0
532,3010801034250,新規,0,2023-08-17,2023-08-17,ＤＳＤＳ株式会社,,株式会社,東京都,大田区,中央５丁目５番５号,,13,111,1430024,,,,,,,2023-08-17,1,,,,,ディーエスディーエス,0
533,3010801034259,新規,0,2023-08-17,2023-08-17,株式会社内藤機工,,株式会社,東京都,大田区,大森南１丁目２０番１１－２０２号,,13,111,1430013,,,,,,,2023-08-17,1,,,,,ナイトウキコウ,0
538,3010901053613,新規,0,2023-08-17,2023-08-17,ＬＥ．ＮＡＮ株式会社,,株式会社,東京都,世田谷区,池尻２丁目３１番１５－１００１号,,13,112,1540001,,,,,,,2023-08-17,1,,,,,ルナン,0
540,3011001156273,新規,0,2023-08-17,2023-08-17,株式会社サイファーム,,株式会社,東京都,渋谷区,恵比寿南２丁目１９番７号ＶＯＲＴ恵比寿Ｄｕａｌ′ｓ２０９号,,13,113,1500022,,,,,,,2023-08-17,1,,,,,サイファーム,0
541,3011001156298,新規,0,2023-08-17,2023-08-17,株式会社マイクロウェーブクリエイティブ,,株式会社,東京都,渋谷区,渋谷１丁目１５番２１号,,13,113,1500002,,,,,,,2023-08-17,1,,,,,マイクロウェーブクリエイティブ,0
542,3011001156315,新規,0,2023-08-17,2023-08-17,株式会社ｒａｄｉＦｉ,,株式会社,東京都,渋谷区,宇田川町１番１２号,,13,113,1500042,,,,,,,2023-08-17,1,,,,,ラディファイ,0
543,3011001156397,新規,0,2023-08-17,2023-08-17,株式会社クロスブライツ,,株式会社,東京都,渋谷区,渋谷２丁目１９番１５号,,13,113,1500002,,,,,,,2023-08-17,1,,,,,クロスブライツ,0
544,3011001156414,新規,0,2023-08-17,2023-08-17,クレイズ株式会社,,株式会社,東京都,目黒区,祐天寺１丁目１９番７号,,13,110,1530052,,,,,,,2023-08-17,1,,,,,クレイズ,0
551,3011301028940,新規,0,2023-08-17,2023-08-17,ＣＢＳ株式会社,,株式会社,東京都,杉並区,成田西３丁目１７番１３号,,13,115,1660016,,,,,,,2023-08-17,1,,,,,シービーエス,0
552,3011303004873,新規,0,2023-08-17,2023-08-17,ＧＡＩ合同会社,,合同会社,東京都,杉並区,上井草１丁目２６番１９－２０１号,,13,115,1670023,,,,,,,2023-08-17,1,,,,,,0
563,3011803005784,新規,0,2023-08-17,2023-08-17,ひかり合同会社,,合同会社,東京都,足立区,西伊興１丁目１－２３メゾンモァトォール３３－２０５,,13,121,1210824,,,,,,,2023-08-17,1,,,,,,0
568,3013301051220,新規,0,2023-08-17,2023-08-17,株式会社エムズ,,株式会社,東京都,豊島区,池袋本町２丁目１３番８号,,13,116,1700011,,,,,,,2023-08-17,1,,,,,エムズ,0
579,3021001079928,新規,0,2023-08-17,2023-08-17,株式会社Ｌａ　Ｍｉｅｌ　Ｍａｒｋｅｔ,,株式会社,神奈川県,愛甲郡愛川町,中津１０２９番地の１９,,14,401,2430303,,,,,,,2023-08-17,1,,,,,ラミエルマーケット,0
580,3021001079960,新規,0,2023-08-17,2023-08-17,株式会社バンブーフィールド,,株式会社,神奈川県,相模原市南区,松が枝町２５番２７号ＨＲＴビル２Ｆ,,14,153,2520313,,,,,,,2023-08-17,1,,,,,バンブーフィールド,0
587,3030001155507,新規,0,2023-08-17,2023-08-17,株式会社山口,,株式会社,埼玉県,さいたま市大宮区,大成町１丁目１０１番地,,11,103,3300852,,,,,,,2023-08-17,1,,,,,ヤマグチ,0
591,3030003022408,新規,0,2023-08-17,2023-08-17,ＨａｋｏＢｏｏ合同会社,,合同会社,埼玉県,ふじみ野市,駒西２丁目１―１パークハイム氷川１０１,,11,245,3560029,,,,,,,2023-08-17,1,,,,,ハコブー,0
595,3040001129716,新規,0,2023-08-17,2023-08-17,株式会社クリーチャースタジオ,,株式会社,千葉県,印西市,原２丁目１番地レイディアントシティＦ３１３,,12,231,2701335,,,,,,,2023-08-17,1,,,,,クリーチャースタジオ,0
596,3040001129732,新規,0,2023-08-17,2023-08-17,コレクトオート株式会社,,株式会社,千葉県,木更津市,金田東５丁目１０番地１６,,12,206,2920009,,,,,,,2023-08-17,1,,,,,コレクトオート,0
597,3040001129740,新規,0,2023-08-17,2023-08-17,ＮＡＢＡＥＩＬ株式会社,,株式会社,千葉県,佐倉市,上志津１８２５－１８－２０２,,12,212,2850846,,,,,,,2023-08-17,1,,,,,ナバイール,0
598,3040001129757,新規,0,2023-08-17,2023-08-17,株式会社子育て１１０番,,株式会社,千葉県,千葉市若葉区,大宮町１０３０番地１６,,12,104,2640016,,,,,,,2023-08-17,1,,,,,コソダテヒャクトウバン,0
603,3050005013312,新規,0,2023-08-17,2023-08-17,一般社団法人エイト・カンパニー,,その他の設立登記法人,茨城県,水戸市,梅香２丁目３番３８号,,08,201,3100022,,,,,,,2023-08-17,1,,,,,エイトカンパニー,0
605,3060001036258,新規,0,2023-08-17,2023-08-17,株式会社ＭＳＫ総合企画,,株式会社,栃木県,宇都宮市,岩曽町７０番地,,09,201,3210973,,,,,,,2023-08-17,1,,,,,エムエスケーソウゴウキカク,0
608,3070001040770,新規,0,2023-08-17,2023-08-17,メノキ書房株式会社,,株式会社,群馬県,前橋市,古市町１丁目２８番地１０,,10,201,3710844,,,,,,,2023-08-17,1,,,,,メノキショボウ,0
614,3090001018261,新規,0,2023-08-17,2023-08-17,株式会社ＡＰＰＯ,,株式会社,山梨県,甲府市,中央４丁目８番８号,,19,201,4000032,,,,,,,2023-08-17,1,,,,,アッポー,0
615,3090001018278,新規,0,2023-08-17,2023-08-17,株式会社万事屋,,株式会社,山梨県,南アルプス市,下今諏訪３４１番地,,19,208,4000212,,,,,,,2023-08-17,1,,,,,ヨロズヤ,0
616,3090001018286,新規,0,2023-08-17,2023-08-17,田中建築設計株式会社,,株式会社,山梨県,富士吉田市,上吉田東１丁目５番１３号,,19,202,4030032,,,,,,,2023-08-17,1,,,,,タナカケンチクセッケイ,0
617,3090003002370,新規,0,2023-08-17,2023-08-17,ヒルズ合同会社,,合同会社,山梨県,甲府市,元紺屋町１５番地,,19,201,4000022,,,,,,,2023-08-17,1,,,,,ヒルズ,0
622,3110001037779,新規,0,2023-08-17,2023-08-17,株式会社Ｄｉｓｈ,,株式会社,新潟県,長岡市,四郎丸２丁目５番２３号,,15,202,9400046,,,,,,,2023-08-17,1,,,,,ディッシュ,0
633,3120001257327,新規,0,2023-08-17,2023-08-17,株式会社Ｎ‐Ｃｏｎｎｅｃｔ,,株式会社,大阪府,大阪市北区,東天満２丁目２番１７号東天満パークビル３０２号,,27,127,5300044,,,,,,,2023-08-17,1,,,,,エヌコネクト,0
634,3120001257335,新規,0,2023-08-17,2023-08-17,Ｃ　Ｇｒｏｕｐ株式会社,,株式会社,大阪府,大阪市浪速区,戎本町２丁目４番１１号,,27,111,5560013,,,,,,,2023-08-17,1,,,,,シーグループ,0
635,3120001257475,新規,0,2023-08-17,2023-08-17,株式会社トイパレット,,株式会社,大阪府,大阪市住吉区,杉本２丁目２５番５号,,27,120,5580022,,,,,,,2023-08-17,1,,,,,トイパレット,0
639,3120003024683,新規,0,2023-08-17,2023-08-17,合同会社ｎｉｃｏ,,合同会社,大阪府,大阪市北区,西天満１丁目１０番１６号ＫＳビル別館３階,,27,127,5300047,,,,,,,2023-08-17,1,,,,,ニコ,0
640,3120003024717,新規,0,2023-08-17,2023-08-17,合同会社シグナルムーン,,合同会社,大阪府,大阪市東淀川区,淡路３丁目３番１７号,,27,114,5330032,,,,,,,2023-08-17,1,,,,,シグナルムーン,0
642,3120101068079,新規,0,2023-08-17,2023-08-17,ｆｅｒｒｅｔ　ｇｌｏｂａｌ　ｗｏｒｋｓ株式会社,,株式会社,大阪府,松原市,河合１丁目１３番２７号,,27,217,5800022,,,,,,,2023-08-17,1,,,,,フェレットグローバルワークス,0
646,3130001074985,新規,0,2023-08-17,2023-08-17,株式会社ｕｎｓｅｐｔｈｕｉｔ,,株式会社,京都府,船井郡京丹波町,坂原ヒヤケ田２番地１,,26,407,6291131,,,,,,,2023-08-17,1,,,,,アンセットユイット,0
650,3140001131273,新規,0,2023-08-17,2023-08-17,株式会社ＵＰＰＥＲ　ＡＣＥ,,株式会社,兵庫県,伊丹市,北伊丹２丁目３０－１７,,28,207,6640831,,,,,,,2023-08-17,1,,,,,アッパーエース,0
667,3190001030677,新規,0,2023-08-17,2023-08-17,株式会社ＪＵＭＰ,,株式会社,三重県,伊勢市,中村町４３５番地１２,,24,203,5160028,,,,,,,2023-08-17,1,,,,,ジャンプ,0
688,3270001008830,新規,0,2023-08-17,2023-08-17,株式会社ナカショー,,株式会社,鳥取県,鳥取市,秋里７５６番地１８,,31,201,6800902,,,,,,,2023-08-17,1,,,,,ナカショー,0
692,3290001102648,新規,0,2023-08-17,2023-08-17,株式会社グリーンランド,,株式会社,福岡県,福岡市博多区,比恵町１３番９－９０１号クリオラベルヴィ博多,,40,132,8120014,,,,,,,2023-08-17,1,,,,,グリーンランド,0
693,3290003014255,新規,0,2023-08-17,2023-08-17,合同会社Ｓａｉａｚｕ,,合同会社,福岡県,福岡市博多区,麦野４丁目６番１３－２０１号,,40,132,8120882,,,,,,,2023-08-17,1,,,,,サイアーズ,0
695,3290005019112,新規,0,2023-08-17,2023-08-17,社会保険労務士法人石井事務所,,その他の設立登記法人,福岡県,福岡市東区,西戸崎５丁目１７番３５号,,40,131,8110321,,,,,,,2023-08-17,1,,,,,,0
716,3360001032433,新規,0,2023-08-17,2023-08-17,株式会社沖縄グローバル学園,,株式会社,沖縄県,那覇市,字安里３６１番地３４託一ビル６階,,47,201,9020067,,,,,,,2023-08-17,1,,,,,オキナワグローバルガクエン,0
717,3360003013209,新規,0,2023-08-17,2023-08-17,合同会社Ｈ．Ｍ．企画,,合同会社,沖縄県,うるま市,石川８６２番地９,,47,213,9041106,,,,,,,2023-08-17,1,,,,,エイチエムキカク,0
718,3370001050302,新規,0,2023-08-17,2023-08-17,株式会社マークスワン,,株式会社,宮城県,仙台市泉区,南光台５丁目２３番３２号,,04,105,9818003,,,,,,,2023-08-17,1,,,,,マークスワン,0
719,3370001050310,新規,0,2023-08-17,2023-08-17,オッジパートナーズ株式会社,,株式会社,宮城県,仙台市宮城野区,宮千代３丁目２番１５号ストーリッジ宮千代Ａ,,04,102,9830044,,,,,,,2023-08-17,1,,,,,オッジパートナーズ,0
732,3420001018368,新規,0,2023-08-17,2023-08-17,株式会社超抜,,株式会社,青森県,上北郡東北町,字上笹橋３番地１０,,02,408,0392661,,,,,,,2023-08-17,1,,,,,チョウバツ,0
736,3430001089697,新規,0,2023-08-17,2023-08-17,株式会社スマイリード,,株式会社,北海道,札幌市手稲区,新発寒五条６丁目１１番１１号,,01,109,0060805,,,,,,,2023-08-17,1,,,,,スマイリード,0
737,3430001089747,新規,0,2023-08-17,2023-08-17,株式会社北海道みらい計画,,株式会社,北海道,札幌市北区,北十四条西３丁目１番２５号,,01,102,0010014,,,,,,,2023-08-17,1,,,,,ホッカイドウミライケイカク,0
752,4010003041409,新規,0,2023-08-17,2023-08-17,合同会社Ｓｏｐｏｒｔｅ　ｐａｒａ　ｊｕｇａｒ,,合同会社,東京都,中央区,銀座７丁目１３－２０銀座ＴＨビル９階,,13,102,1040061,,,,,,,2023-08-17,1,,,,,スポルテパラフガール,0
753,4010003041417,新規,0,2023-08-17,2023-08-17,合同会社ｎｏｍｅ,,合同会社,東京都,中央区,月島２丁目５－７,,13,102,1040052,,,,,,,2023-08-17,1,,,,,ノーメ,0
757,4010401176418,新規,0,2023-08-17,2023-08-17,ＥＲ２７株式会社,,株式会社,東京都,港区,六本木１丁目６番１号,,13,103,1060032,,,,,,,2023-08-17,1,,,,,イーアールトゥエンティーセブン,0
758,4010401176426,新規,0,2023-08-17,2023-08-17,株式会社七福,,株式会社,東京都,港区,南麻布４丁目１１番１０－５０１号,,13,103,1060047,,,,,,,2023-08-17,1,,,,,ナナフク,0
763,4010601063639,新規,0,2023-08-17,2023-08-17,株式会社Ｒｉｎｇ,,株式会社,東京都,墨田区,業平５丁目１４番９号,,13,107,1300002,,,,,,,2023-08-17,1,,,,,リング,0
764,4010603010317,新規,0,2023-08-17,2023-08-17,ＤＫ　ＴＥＣＨＮＯＬＯＧＹ合同会社,,合同会社,東京都,江東区,亀戸７丁目３９番２２号,,13,108,1360071,,,,,,,2023-08-17,1,,,,,ディケーテクノロジー,0
767,4010701044729,新規,0,2023-08-17,2023-08-17,ジェイナビ株式会社,,株式会社,東京都,品川区,上大崎２丁目１５－１９ＭＧ目黒駅前ビル,,13,109,1410021,,,,,,,2023-08-17,1,,,,,ジェイナビ,0
771,4010901053653,新規,0,2023-08-17,2023-08-17,株式会社ＧＡＬＡＮ,,株式会社,東京都,世田谷区,玉川台２丁目３５番３－１０７号,,13,112,1580096,,,,,,,2023-08-17,1,,,,,ガラン,0
779,4011001156223,新規,0,2023-08-17,2023-08-17,株式会社Ｃｏｍｅ　Ｂａｃｋ　Ｊａｐａｎ,,株式会社,東京都,渋谷区,千駄ヶ谷３丁目３－２３東高原宿ペアシティ５０６,,13,113,1510051,,,,,,,2023-08-17,1,,,,,カムバックジャパン,0
780,4011001156297,新規,0,2023-08-17,2023-08-17,株式会社ミオライズ,,株式会社,東京都,渋谷区,広尾２丁目２番２０号ヴェラハイツ広尾５０２号,,13,113,1500012,,,,,,,2023-08-17,1,,,,,ミオライズ,0
781,4011001156314,新規,0,2023-08-17,2023-08-17,Ｙ　Ｋｉｋｉ株式会社,,株式会社,東京都,渋谷区,広尾１丁目１番２２－２０５号,,13,113,1500012,,,,,,,2023-08-17,1,,,,,ワイキキ,0
782,4011001156330,新規,0,2023-08-17,2023-08-17,株式会社ｍａｎｄｏ,,株式会社,東京都,渋谷区,渋谷３丁目１８－４渋谷３丁目ビル９階,,13,113,1500002,,,,,,,2023-08-17,1,,,,,マンド,0
783,4011001156405,新規,0,2023-08-17,2023-08-17,ＭＤＳＲコンサルティング株式会社,,株式会社,東京都,渋谷区,恵比寿西１丁目３３番６号,,13,113,1500021,,,,,,,2023-08-17,1,,,,,エムディーエスアール,0
784,4011001156438,新規,0,2023-08-17,2023-08-17,株式会社Ｆｌａｐｐｙ,,株式会社,東京都,渋谷区,恵比寿１丁目２０番２２号三富ビル４階,,13,113,1500013,,,,,,,2023-08-17,1,,,,,フラッピー,0
785,4011003017373,新規,0,2023-08-17,2023-08-17,合同会社花南,,合同会社,東京都,渋谷区,千駄ヶ谷３丁目８番１１－３０３号,,13,113,1510051,,,,,,,2023-08-17,1,,,,,カナン,0
790,4011103013339,新規,0,2023-08-17,2023-08-17,合同会社ＡＯＩＩ,,合同会社,東京都,新宿区,西新宿３丁目３番１３号西新宿水間ビル２Ｆ,,13,104,1600023,,,,,,,2023-08-17,1,,,,,アオニ,0
791,4011201024857,新規,0,2023-08-17,2023-08-17,株式会社マーケティングコミット,,株式会社,東京都,中野区,本町５丁目２９番７号Ｂｒａｎｃｈｅ中野本町１０３,,13,114,1640012,,,,,,,2023-08-17,1,,,,,マーケティングコミット,0
795,4011303004872,新規,0,2023-08-17,2023-08-17,合同会社Ｒｏｓｅｔｔａ,,合同会社,東京都,杉並区,荻窪５丁目３０－１２グローリア荻窪７１３,,13,115,1670051,,,,,,,2023-08-17,1,,,,,ロゼッタ,0
797,4011405002254,新規,0,2023-08-17,2023-08-17,一般社団法人タイムライン防災推進機構,,その他の設立登記法人,東京都,板橋区,板橋４丁目４９番２４号,,13,119,1730004,,,,,,,2023-08-17,1,,,,,タイムラインボウサイスイシンキコウ,0
798,4011703003565,新規,0,2023-08-17,2023-08-17,合同会社ＲＣＳ,,合同会社,東京都,江戸川区,瑞江２丁目３１－７クレンミル１０４－４０１,,13,123,1320011,,,,,,,2023-08-17,1,,,,,アールシーエス,0
801,4011803005791,新規,0,2023-08-17,2023-08-17,合同会社エデュプレ,,合同会社,東京都,葛飾区,亀有３丁目１２－５グリーンパーク亀有１０３,,13,122,1250061,,,,,,,2023-08-17,1,,,,,エデュプレ,0
812,4020001152982,新規,0,2023-08-17,2023-08-17,イノピスホールディングス株式会社,,株式会社,神奈川県,横浜市神奈川区,西神奈川１丁目８番地１３山崎ビル２階,,14,102,2210822,,,,,,,2023-08-17,1,,,,,イノピスホールディングス,0
813,4020001153072,新規,0,2023-08-17,2023-08-17,株式会社ＺＥＫＥ,,株式会社,神奈川県,横浜市戸塚区,柏尾町１４２１番地１０５,,14,110,2440812,,,,,,,2023-08-17,1,,,,,ジーク,0
816,4021001079935,新規,0,2023-08-17,2023-08-17,株式会社グローバルＩＭＣ,,株式会社,神奈川県,平塚市,田村５丁目２７番１号,,14,203,2540013,,,,,,,2023-08-17,1,,,,,グローバルアイエムシー,0
817,4021001079943,新規,0,2023-08-17,2023-08-17,株式会社保工業,,株式会社,神奈川県,厚木市,船子１１９２番地１０緑風館１０５,,14,212,2430034,,,,,,,2023-08-17,1,,,,,タモツコウギョウ,0
828,4030001155308,新規,0,2023-08-17,2023-08-17,株式会社サンライズ,,株式会社,埼玉県,川口市,栄町３丁目２番１５－３０７号川口ファミリーマンション,,11,203,3320017,,,,,,,2023-08-17,1,,,,,サンライズ,0
829,4030001155415,新規,0,2023-08-17,2023-08-17,株式会社ＦＬＥＵＲ　ＤＥ　ＬＩＳ　ＢＬＡＮＣ,,株式会社,埼玉県,さいたま市北区,奈良町９８番地１２,,11,102,3310822,,,,,,,2023-08-17,1,,,,,フルールリブラン,0
841,4040001129715,新規,0,2023-08-17,2023-08-17,株式会社カツ,,株式会社,千葉県,千葉市稲毛区,小深町１０８番地１－Ｂ２０３,,12,103,2630003,,,,,,,2023-08-17,1,,,,,カツ,0
842,4040001129731,新規,0,2023-08-17,2023-08-17,吉利株式会社,,株式会社,千葉県,東金市,堀之内５２７番地５－２０１,,12,213,2830027,,,,,,,2023-08-17,1,,,,,キツリ,0
844,4040003023131,新規,0,2023-08-17,2023-08-17,合同会社Ｎａｍｉｋｉ　Ａｒｔ,,合同会社,千葉県,市川市,南大野１丁目３０番２７号（フラワーハイツ南大野Ａ棟１０２）,,12,203,2720804,,,,,,,2023-08-17,1,,,,,ナミキアート,0
846,4040005022098,新規,0,2023-08-17,2023-08-17,一般社団法人ＵＡＶファンクラブ,,その他の設立登記法人,千葉県,浦安市,東野２丁目１番１－１３０６号クレストフォルム新浦安グランデッツァ,,12,227,2790042,,,,,,,2023-08-17,1,,,,,ユーエーブイファンクラブ,0
854,4050001053311,新規,0,2023-08-17,2023-08-17,株式会社エーエム商事,,株式会社,茨城県,筑西市,関本下２４５６番地１,,08,227,3080127,,,,,,,2023-08-17,1,,,,,エーエムショウジ,0
855,4050005013311,新規,0,2023-08-17,2023-08-17,一般社団法人Ｂｉｇ　Ｓｔｏｎｅ　Ｃｏｍｐａｎｙ,,その他の設立登記法人,茨城県,水戸市,吉沢町７６６番地１５,,08,201,3100845,,,,,,,2023-08-17,1,,,,,ビッグストーンカンパニー,0
858,4060003004690,新規,0,2023-08-17,2023-08-17,ＮＡＷＡＧＩＲＩ　ＬＡＮＫＡ合同会社,,合同会社,栃木県,足利市,鹿島町４００番地６ドーム２１－２０６号室,,09,202,3260844,,,,,,,2023-08-17,1,,,,,ナワギリランカ,0
860,4070001040753,新規,0,2023-08-17,2023-08-17,株式会社ムゲンポケッツ,,株式会社,群馬県,前橋市,千代田町４丁目８番７号ＡＺビル２Ｆ,,10,201,3710022,,,,,,,2023-08-17,1,,,,,ムゲンポケッツ,0
861,4070001040778,新規,0,2023-08-17,2023-08-17,株式会社アセットコネクト,,株式会社,群馬県,高崎市,吉井町吉井８５６番地１,,10,202,3702132,,,,,,,2023-08-17,1,,,,,アセットコネクト,0
863,4080101024176,新規,0,2023-08-17,2023-08-17,株式会社幸大,,株式会社,静岡県,沼津市,根古屋５８１番地の２,,22,203,4100309,,,,,,,2023-08-17,1,,,,,コウダイ,0
867,4090001018277,新規,0,2023-08-17,2023-08-17,オモトグローバル株式会社,,株式会社,山梨県,南都留郡山中湖村,平野５０６番地の１４,,19,425,4010502,,,,,,,2023-08-17,1,,,,,オモトグローバル,0
868,4100001036698,新規,0,2023-08-17,2023-08-17,株式会社アウル,,株式会社,長野県,小諸市,甲１２４７番地１０,,20,208,3840801,,,,,,,2023-08-17,1,,,,,アウル,0
883,4120001257276,新規,0,2023-08-17,2023-08-17,株式会社ユーズジェム,,株式会社,大阪府,大阪市中央区,南船場１丁目１１－９,,27,128,5420081,,,,,,,2023-08-17,1,,,,,ユーズジェム,0
884,4120001257318,新規,0,2023-08-17,2023-08-17,株式会社ＭＳＡ,,株式会社,大阪府,大阪市西区,立売堀３丁目１番１号,,27,106,5500012,,,,,,,2023-08-17,1,,,,,エムエスエー,0
885,4120001257326,新規,0,2023-08-17,2023-08-17,株式会社エイド,,株式会社,大阪府,大阪市都島区,友渕町３丁目７番５－１２０４号,,27,102,5340016,,,,,,,2023-08-17,1,,,,,エイド,0
886,4120001257334,新規,0,2023-08-17,2023-08-17,Ａｌｉｖｅ株式会社,,株式会社,大阪府,大阪市住之江区,浜口東２丁目３番１６号,,27,125,5590002,,,,,,,2023-08-17,1,,,,,アライブ,0
887,4120001257350,新規,0,2023-08-17,2023-08-17,ＭＡ　ＳＥＮＧ株式会社,,株式会社,大阪府,大阪市東住吉区,照ケ丘矢田２丁目７番２号淘金ビルＥ号室,,27,121,5460021,,,,,,,2023-08-17,1,,,,,マーセン,0
888,4120001257359,新規,0,2023-08-17,2023-08-17,株式会社ＢＡＬＫ,,株式会社,大阪府,大阪市浪速区,桜川４丁目３番６－８０３号,,27,111,5560022,,,,,,,2023-08-17,1,,,,,バルク,0
889,4120001257367,新規,0,2023-08-17,2023-08-17,株式会社スミタスタジオ,,株式会社,大阪府,守口市,大久保町５丁目２０－４－１１５,,27,209,5700012,,,,,,,2023-08-17,1,,,,,スミタスタジオ,0
894,4120101068078,新規,0,2023-08-17,2023-08-17,株式会社オルジバ,,株式会社,大阪府,堺市堺区,栄橋町１丁４番１３号ＰＩＮＵＳ栄橋,,27,141,5900971,,,,,,,2023-08-17,1,,,,,オルジバ,0
896,4120103005392,新規,0,2023-08-17,2023-08-17,Ｂｒｏｓ合同会社,,合同会社,大阪府,泉大津市,楠町東２－３３,,27,206,5950039,,,,,,,2023-08-17,1,,,,,ブロス,0
904,4130001074976,新規,0,2023-08-17,2023-08-17,マランカラン株式会社,,株式会社,京都府,京都市南区,吉祥院中島町３９番地,,26,107,6018313,,,,,,,2023-08-17,1,,,,,マランカラン,0
914,4140005026709,新規,0,2023-08-17,2023-08-17,社会保険労務士法人ななほし労務,,その他の設立登記法人,兵庫県,豊岡市,立野町１９番２６号,,28,209,6680046,,,,,,,2023-08-17,1,,,,,ナナホシロウム,0
916,4150001026645,新規,0,2023-08-17,2023-08-17,株式会社ＩＭＡＩ　ＩＮＶＥＳＴＭＥＮＴ,,株式会社,奈良県,奈良市,肘塚町２２３番地,,29,201,6308142,,,,,,,2023-08-17,1,,,,,イマイインベストメント,0
918,4160001025274,新規,0,2023-08-17,2023-08-17,株式会社ＬＩＮＫ,,株式会社,滋賀県,守山市,播磨田町１０３４番地５－２０２号,,25,207,5240012,,,,,,,2023-08-17,1,,,,,リンク,0
925,4180001157603,新規,0,2023-08-17,2023-08-17,株式会社ダズル,,株式会社,愛知県,名古屋市中区,栄３丁目３２番２３号青木ビル西館５階北室,,23,106,4600008,,,,,,,2023-08-17,1,,,,,ダズル,0
926,4180001157685,新規,0,2023-08-17,2023-08-17,株式会社Ａｒｔ‐ｉｓｔ,,株式会社,愛知県,名古屋市中区,千代田２丁目２１番１０号プレサンス鶴舞パーク＆ステーション９０５,,23,106,4600012,,,,,,,2023-08-17,1,,,,,アーチスト,0
931,4180003025642,新規,0,2023-08-17,2023-08-17,合同会社ｔｏ‐ｒｉ,,合同会社,愛知県,北名古屋市,鹿田廻間１１０,,23,234,4810004,,,,,,,2023-08-17,1,,,,,トーリ,0
939,4200001041614,新規,0,2023-08-17,2023-08-17,株式会社ヒトイキ,,株式会社,岐阜県,羽島市,小熊町島５丁目２３番地１,,21,209,5016264,,,,,,,2023-08-17,1,,,,,ヒトイキ,0
940,4220001025557,新規,0,2023-08-17,2023-08-17,株式会社川崎,00131558,株式会社,石川県,小松市,下粟津町ア１１６番地４４,,17,203,9230304,,,,,,,2023-08-17,1,,,,,カワサキ,0
957,4290001102481,新規,0,2023-08-17,2023-08-17,株式会社エフシーホールディングス,,株式会社,福岡県,福岡市東区,多の津４丁目１２番１６号,,40,131,8130034,,,,,,,2023-08-17,1,,,,,エフシーホールディングス,0
964,4310001018568,新規,0,2023-08-17,2023-08-17,株式会社エイド,,株式会社,長崎県,長崎市,界２丁目９－１７－９０１号,,42,201,8510122,,,,,,,2023-08-17,1,,,,,エイド,0
966,4330001031156,新規,0,2023-08-17,2023-08-17,株式会社ＥＡＲＴＨ,,株式会社,熊本県,合志市,豊岡２２１７番地３８,,43,216,8611115,,,,,,,2023-08-17,1,,,,,アース,0
968,4340001025834,新規,0,2023-08-17,2023-08-17,株式会社興梠,,株式会社,鹿児島県,霧島市,国分清水３丁目２６番９－６号,,46,218,8994304,,,,,,,2023-08-17,1,,,,,コウロギ,0
972,4360001032432,新規,0,2023-08-17,2023-08-17,株式会社ポーラベア,,株式会社,沖縄県,中頭郡西原町,字与那城３１６番地２,,47,329,9030111,,,,,,,2023-08-17,1,,,,,ポーラベア,0
974,4360003013190,新規,0,2023-08-17,2023-08-17,合同会社Ｋ‐ＢＲＯ．,,合同会社,沖縄県,うるま市,字宇堅４６１番地,,47,213,9042211,,,,,,,2023-08-17,1,,,,,ケイブロ,0
977,4420001018367,新規,0,2023-08-17,2023-08-17,株式会社セイトコンノ,,株式会社,青森県,むつ市,中央１丁目７番２８号,,02,208,0350073,,,,,,,2023-08-17,1,,,,,セイトコンノ,0
980,4430001089770,新規,0,2023-08-17,2023-08-17,株式会社ＬＩＱＵＡ　Ｃｏｍｐａｎｙ,,株式会社,北海道,石狩郡当別町,太美町１４７７番地４１,,01,303,0613776,,,,,,,2023-08-17,1,,,,,リクアカンパニー,0
981,4430001089779,新規,0,2023-08-17,2023-08-17,株式会社もるらんの子,,株式会社,北海道,室蘭市,入江町１番地１１５,,01,205,0510023,,,,,,,2023-08-17,1,,,,,モルランノコ,0
982,4430001089787,新規,0,2023-08-17,2023-08-17,株式会社ノヴァーリス,,株式会社,北海道,札幌市北区,屯田二条２丁目７番６号,,01,102,0020852,,,,,,,2023-08-17,1,,,,,ノヴァーリス,0
983,4430001089795,新規,0,2023-08-17,2023-08-17,北海セーブ株式会社,,株式会社,北海道,札幌市北区,屯田八条２丁目９番２２号Ｓ・Ｃｕｏｒｅ　Ｗａｎ－Ａ１号,,01,102,0020858,,,,,,,2023-08-17,1,,,,,ホッカイセーブ,0
986,4440003001534,新規,0,2023-08-17,2023-08-17,合同会社オーンジュ,,合同会社,北海道,茅部郡森町,字森川町２４８－１２,,01,345,0492313,,,,,,,2023-08-17,1,,,,,,0
987,4470001019740,新規,0,2023-08-17,2023-08-17,株式会社総和工業,,株式会社,香川県,観音寺市,植田町１８８４番地９,,37,205,7680012,,,,,,,2023-08-17,1,,,,,ソウワコウギョウ,0
1011,5010005037123,新規,0,2023-08-17,2023-08-17,一般社団法人清九郎,,その他の設立登記法人,東京都,中央区,新川１丁目３０番７号,,13,102,1040033,,,,,,,2023-08-17,1,,,,,セイクロウ,0
1017,5010401176417,新規,0,2023-08-17,2023-08-17,ＥＲ２６株式会社,,株式会社,東京都,港区,六本木１丁目６番１号,,13,103,1060032,,,,,,,2023-08-17,1,,,,,イーアールトゥエンティーシックス,0
1018,5010401176425,新規,0,2023-08-17,2023-08-17,株式会社Ｎｅｘｕｓ　Ｒｅｎｅｗａｂｌｅ　Ｅｎｅｒｇｙ,,株式会社,東京都,港区,六本木７丁目１２番２号Ｒ７ビルディング,,13,103,1060032,,,,,,,2023-08-17,1,,,,,ネクサスリニューアブルエナジー,0
1020,5010403030720,新規,0,2023-08-17,2023-08-17,合同会社ソーラーパーク３５号,,合同会社,東京都,港区,六本木３丁目２番１号,,13,103,1060032,,,,,,,2023-08-17,1,,,,,ソーラーパーサンジュウゴゴウ,0
1026,5010901053652,新規,0,2023-08-17,2023-08-17,株式会社茶梵,,株式会社,東京都,世田谷区,代沢３丁目１３番地２号,,13,112,1550032,,,,,,,2023-08-17,1,,,,,サボン,0
1027,5010901053660,新規,0,2023-08-17,2023-08-17,株式会社スリーレター,,株式会社,東京都,世田谷区,等々力１丁目２７番４号,,13,112,1580082,,,,,,,2023-08-17,1,,,,,スリーレター,0
1032,5011001156214,新規,0,2023-08-17,2023-08-17,株式会社３ｒｄ　Ｅｃｏｎｏｍｙ,,株式会社,東京都,渋谷区,恵比寿４丁目２０番３号恵比寿ガーデンプレイスタワー８階,,13,113,1500013,,,,,,,2023-08-17,1,,,,,サードエコノミー,0
1033,5011001156305,新規,0,2023-08-17,2023-08-17,株式会社ロータス,,株式会社,東京都,渋谷区,神宮前６丁目２３番４号桑野ビル２階,,13,113,1500001,,,,,,,2023-08-17,1,,,,,ロータス,0
1034,5011001156346,新規,0,2023-08-17,2023-08-17,株式会社Ｓｔａｒｓ　ｏｎ　Ｅａｒｔｈ,,株式会社,東京都,目黒区,下目黒４丁目６番５号,,13,110,1530064,,,,,,,2023-08-17,1,,,,,スターズオンアース,0
1035,5011001156379,新規,0,2023-08-17,2023-08-17,Ｓｅｒａ株式会社,,株式会社,東京都,渋谷区,神宮前６丁目２３番４号桑野ビル２階,,13,113,1500001,,,,,,,2023-08-17,1,,,,,セラ,0
1036,5011001156412,新規,0,2023-08-17,2023-08-17,株式会社ＫＫ,,株式会社,東京都,渋谷区,猿楽町２４番７号４０３,,13,113,1500033,,,,,,,2023-08-17,1,,,,,ケーケー,0
1039,5011003017281,新規,0,2023-08-17,2023-08-17,ｕｒｕ．Ｉｎｃ合同会社,,合同会社,東京都,目黒区,駒場３丁目５－１ビバーン駒場３０６,,13,110,1530041,,,,,,,2023-08-17,1,,,,,ウルインク,0
1040,5011003017364,新規,0,2023-08-17,2023-08-17,合同会社フラッシュフォワード,,合同会社,東京都,目黒区,八雲５丁目１９－２１アーデン駒沢パークフロント２０３,,13,110,1520023,,,,,,,2023-08-17,1,,,,,フラッシュフォワード,0
1043,5011101103999,新規,0,2023-08-17,2023-08-17,株式会社Ｓｕｚｕｋｉ　Ｉｎｎｏｖａｔｉｏｎ　Ｆｕｎｄ,,株式会社,東京都,新宿区,市谷加賀町２丁目３番２号エミネンス加賀４０２,,13,104,1620062,,,,,,,2023-08-17,1,,,,,スズキイノベーションファンド,0
1045,5011201024856,新規,0,2023-08-17,2023-08-17,株式会社Ｗｅｓｔ　Ｓｈｏｕｌｄｅｒ,,株式会社,東京都,中野区,中央４丁目１９－８アルトゥーラ中野１０２,,13,114,1640011,,,,,,,2023-08-17,1,,,,,ウェストショルダー,0
1046,5011301028947,新規,0,2023-08-17,2023-08-17,天元株式会社,,株式会社,東京都,杉並区,高円寺南５丁目２１番３号,,13,115,1660003,,,,,,,2023-08-17,1,,,,,テンゲン,0
1047,5011303004863,新規,0,2023-08-17,2023-08-17,Ａｎｇｅｌａ合同会社,,合同会社,東京都,杉並区,和田１丁目２９番９号,,13,115,1660012,,,,,,,2023-08-17,1,,,,,アンジェラ,0
1048,5011303004871,新規,0,2023-08-17,2023-08-17,合同会社Ｒ．Ｏ．Ｅ,,合同会社,東京都,杉並区,高円寺南４丁目２４番１１号１０３,,13,115,1660003,,,,,,,2023-08-17,1,,,,,アールオーイー,0
1050,5011803005790,新規,0,2023-08-17,2023-08-17,エレスチャル合同会社,,合同会社,東京都,足立区,梅田６丁目２２番３－６０４号,,13,121,1230851,,,,,,,2023-08-17,1,,,,,エレスチャル,0
1076,5021003013429,新規,0,2023-08-17,2023-08-17,合同会社Ｍプラス,,合同会社,神奈川県,相模原市南区,新磯野１丁目２９番１０号,,14,153,2520325,,,,,,,2023-08-17,1,,,,,エムプラス,0
1084,5030001155488,新規,0,2023-08-17,2023-08-17,株式会社ホシケン,,株式会社,埼玉県,南埼玉郡宮代町,字宮東８５０番地１,,11,442,3450803,,,,,,,2023-08-17,1,,,,,ホシケン,0
1088,5030003022406,新規,0,2023-08-17,2023-08-17,ＷＡ合同会社,,合同会社,埼玉県,白岡市,白岡１４８４―２―１１０７,,11,246,3490218,,,,,,,2023-08-17,1,,,,,ダブルエー,0
1098,5040001129714,新規,0,2023-08-17,2023-08-17,新田メディカル株式会社,,株式会社,千葉県,印西市,大塚３丁目４３番地５,,12,231,2701352,,,,,,,2023-08-17,1,,,,,シンデンメディカル,0
1099,5040001129722,新規,0,2023-08-17,2023-08-17,株式会社エナジークリーン,,株式会社,千葉県,成田市,囲護台１２１７番地,,12,211,2860035,,,,,,,2023-08-17,1,,,,,エナジークリーン,0
1100,5040001129730,新規,0,2023-08-17,2023-08-17,株式会社共和工務店,,株式会社,千葉県,千葉市美浜区,中瀬１丁目３番地幕張テクノガーデンＣＢ棟３階,,12,106,2610023,,,,,,,2023-08-17,1,,,,,キョウワコウムテン,0
1103,5040003023130,新規,0,2023-08-17,2023-08-17,合同会社山悠海陸,,合同会社,千葉県,船橋市,馬込町８９５番地１６,,12,204,2730851,,,,,,,2023-08-17,1,,,,,サンユウカイリク,0
1104,5050001053236,新規,0,2023-08-17,2023-08-17,株式会社ビジネス・サーチ,,株式会社,茨城県,つくば市,二の宮４丁目６番地３ライオンズマンション研究学園都市６１２号,,08,220,3050051,,,,,,,2023-08-17,1,,,,,ビジネスサーチ,0
1105,5050001053277,新規,0,2023-08-17,2023-08-17,ホームナーシング株式会社,,株式会社,茨城県,つくば市,吾妻１丁目１４番地１,,08,220,3050031,,,,,,,2023-08-17,1,,,,,ホームナーシング,0
1118,5080005007557,新規,0,2023-08-17,2023-08-17,一般社団法人大井川ボーイズ,,その他の設立登記法人,静岡県,島田市,元島田９３２１番地の１３,,22,209,4270057,,,,,,,2023-08-17,1,,,,,オオイガワボーイズ,0
1119,5090001018276,新規,0,2023-08-17,2023-08-17,株式会社えがお,,株式会社,山梨県,山梨市,上神内川１１８９番地メゾン・ド・タカノ２０１,,19,205,4050018,,,,,,,2023-08-17,1,,,,,エガオ,0
1120,5090001018284,新規,0,2023-08-17,2023-08-17,株式会社庵,,株式会社,山梨県,甲斐市,篠原１８９９番地３,,19,210,4000115,,,,,,,2023-08-17,1,,,,,イオリ,0
1122,5100001036697,新規,0,2023-08-17,2023-08-17,ベルフラワー株式会社,,株式会社,長野県,東御市,滋野乙２５１９番地１９,,20,219,3890512,,,,,,,2023-08-17,1,,,,,ベルフラワー,0
1132,5120001256871,新規,0,2023-08-17,2023-08-17,Ｈ＆Ｐビジネス株式会社,,株式会社,大阪府,大阪市浪速区,浪速東２丁目１１番５号,,27,111,5560025,,,,,,,2023-08-17,1,,,,,エイチアンドピービジネス,0
1133,5120001257309,新規,0,2023-08-17,2023-08-17,伯大尼文化伝媒株式会社,,株式会社,大阪府,大阪市淀川区,三国本町１丁目１６番１１号司マンション４０１,,27,123,5320005,,,,,,,2023-08-17,1,,,,,ブォダイニブンカデンバイ,0
1134,5120001257317,新規,0,2023-08-17,2023-08-17,株式会社Ｍｅｉｋｙｏ,,株式会社,大阪府,大阪市西区,立売堀１丁目５番２号立売堀ビルディング４Ｆ５７号室,,27,106,5500012,,,,,,,2023-08-17,1,,,,,メイキョウ,0
1135,5120001257333,新規,0,2023-08-17,2023-08-17,庭鎮投資株式会社,,株式会社,大阪府,大阪市西成区,北津守２丁目５番５－１７号,,27,122,5570061,,,,,,,2023-08-17,1,,,,,ニワチントウシ,0
1136,5120001257358,新規,0,2023-08-17,2023-08-17,株式会社ＲＯ,,株式会社,大阪府,大阪市中央区,松屋町３番１６号,,27,128,5420067,,,,,,,2023-08-17,1,,,,,アールオー,0
1137,5120001257374,新規,0,2023-08-17,2023-08-17,株式会社ワークショップ,,株式会社,大阪府,大阪市東淀川区,小松４丁目１１番９号,,27,114,5330004,,,,,,,2023-08-17,1,,,,,ワークショップ,0
1139,5120003024715,新規,0,2023-08-17,2023-08-17,合同会社ＫＡＬ,,合同会社,大阪府,枚方市,池之宮２丁目１３番２１号,,27,210,5730005,,,,,,,2023-08-17,1,,,,,カエル,0
1140,5120003024723,新規,0,2023-08-17,2023-08-17,合同会社ラウレア,,合同会社,大阪府,大阪市住之江区,西住之江１丁目１１番１０－１０１号,,27,125,5590005,,,,,,,2023-08-17,1,,,,,ラウレア,0
1141,5120005023830,新規,0,2023-08-17,2023-08-17,一般社団法人明日への扉,,その他の設立登記法人,大阪府,大阪市港区,田中２丁目８番２７号,,27,107,5520005,,,,,,,2023-08-17,1,,,,,アスヘノトビラ,0
1145,5122001037277,新規,0,2023-08-17,2023-08-17,株式会社ｅｓ,,株式会社,大阪府,東大阪市,菱江５丁目２番３２号,,27,227,5780984,,,,,,,2023-08-17,1,,,,,エス,0
1154,5130001074991,新規,0,2023-08-17,2023-08-17,株式会社Ｂｏｄｙ　ｓｏｉｌ,,株式会社,京都府,京都市下京区,善長寺町１３９ＡＭＩ四条烏丸２０３,,26,106,6008431,,,,,,,2023-08-17,1,,,,,ボディソイル,0
1167,5150001026652,新規,0,2023-08-17,2023-08-17,株式会社ワタビー,,株式会社,奈良県,奈良市,三碓５丁目９番３０号,,29,201,6310061,,,,,,,2023-08-17,1,,,,,ワタビー,0
1173,5180001157651,新規,0,2023-08-17,2023-08-17,株式会社ロント設計,,株式会社,愛知県,名古屋市中区,丸の内２丁目１９番３２号,,23,106,4600002,,,,,,,2023-08-17,1,,,,,ロントセッケイ,0
1176,5190001030667,新規,0,2023-08-17,2023-08-17,ＲＯＳＥ株式会社,,株式会社,三重県,志摩市,阿児町鵜方２６３７番地２１,,24,215,5170501,,,,,,,2023-08-17,1,,,,,ローズ,0
1182,5200001041613,新規,0,2023-08-17,2023-08-17,株式会社Ｐ‐ａｃｔ,,株式会社,岐阜県,高山市,松之木町１５４１番地８,,21,203,5060802,,,,,,,2023-08-17,1,,,,,ピーアクト,0
1190,5290001102704,新規,0,2023-08-17,2023-08-17,株式会社ＧＥＮＣＯ　Ｔｒａｄｉｎｇ,,株式会社,福岡県,福岡市中央区,舞鶴２丁目８番１３号１Ｆ,,40,133,8100073,,,,,,,2023-08-17,1,,,,,ゲンコトレーディング,0
1194,5290003014195,新規,0,2023-08-17,2023-08-17,合同会社Ｍａｌｌｙ,,合同会社,福岡県,福岡市中央区,天神２丁目２番１２号Ｔ＆Ｊビルディング７Ｆ,,40,133,8100001,,,,,,,2023-08-17,1,,,,,マリー,0
1195,5290003014253,新規,0,2023-08-17,2023-08-17,五徳合同会社,,合同会社,福岡県,福岡市西区,愛宕浜２丁目３番９－３２０３号マリナタウンリベーラガーデンマリナタワー,,40,135,8190013,,,,,,,2023-08-17,1,,,,,ゴトク,0
1204,5330005010683,新規,0,2023-08-17,2023-08-17,一般社団法人コア・ハピネス,,その他の設立登記法人,熊本県,天草市,有明町下津浦７１９番地２,,43,215,8617312,,,,,,,2023-08-17,1,,,,,コアハピネス,0
1214,5370005010671,新規,0,2023-08-17,2023-08-17,一般社団法人海と山と人のみらい,,その他の設立登記法人,宮城県,仙台市青葉区,貝ケ森４丁目８番１２号,,04,101,9810942,,,,,,,2023-08-17,1,,,,,ウミトヤマトヒトノミライ,0
1217,5380001033931,新規,0,2023-08-17,2023-08-17,Ｌ７株式会社,,株式会社,福島県,双葉郡富岡町,大字仏浜字釜田３３２,,07,543,9791121,,,,,,,2023-08-17,1,,,,,エルセブン,0
1229,5430001089786,新規,0,2023-08-17,2023-08-17,株式会社とよかわケアプランセンター,,株式会社,北海道,小樽市,豊川町１７番６号,,01,203,0470043,,,,,,,2023-08-17,1,,,,,トヨカワケアプランセンター,0
1231,5460101007422,新規,0,2023-08-17,2023-08-17,株式会社Ｋカンパニー,,株式会社,北海道,河東郡音更町,木野大通東９丁目４番地１１,,01,631,0800111,,,,,,,2023-08-17,1,,,,,ケーカンパニー,0
1242,6010001237634,新規,0,2023-08-17,2023-08-17,株式会社Ｔｉｍｅ　Ｆｉｅｌｄ,,株式会社,東京都,千代田区,紀尾井町３番１２号紀尾井町ビル３階,,13,101,1020094,,,,,,,2023-08-17,1,,,,,タイムフィールド,0
1243,6010001237758,新規,0,2023-08-17,2023-08-17,株式会社和信,,株式会社,東京都,千代田区,飯田橋４丁目４－８朝日ビル６Ｆ,,13,101,1020072,,,,,,,2023-08-17,1,,,,,ワシン,0
1244,6010001237766,新規,0,2023-08-17,2023-08-17,ＰＬＨ　ｄｉｓｐｌａｙ株式会社,,株式会社,東京都,千代田区,神田須田町１丁目７番１号,,13,101,1010041,,,,,,,2023-08-17,1,,,,,ピーエルエイチディスプレイ,0
1245,6010001237782,新規,0,2023-08-17,2023-08-17,株式会社ｅＮＫ　Ｔｈｅｒａｐｅｕｔｉｃｓ,,株式会社,東京都,千代田区,有楽町１丁目１番２号,,13,101,1000006,,,,,,,2023-08-17,1,,,,,イーエヌケイセラピューティクス,0
1246,6010001237799,新規,0,2023-08-17,2023-08-17,株式会社ＲｅＳＴＯＲＥ,,株式会社,東京都,中央区,築地７丁目９番１５号,,13,102,1040045,,,,,,,2023-08-17,1,,,,,レストア,0
1252,6010003041423,新規,0,2023-08-17,2023-08-17,合同会社Ｈｏｒｌｏｇｅｒｉｅ　Ｈｉｒｏｔｏ,,合同会社,東京都,中央区,日本橋本町４丁目１３番６－２０３号,,13,102,1030023,,,,,,,2023-08-17,1,,,,,オルロジュリーヒロト,0
1253,6010005037122,新規,0,2023-08-17,2023-08-17,一般社団法人中小企業振興支援協会,,その他の設立登記法人,東京都,千代田区,神田和泉町１番地１３の１１和泉町中央ビル６Ｆ,,13,101,1010024,,,,,,,2023-08-17,1,,,,,チュウショウキギョウシンコウシエンキョウカイ,0
1255,6010103002192,新規,0,2023-08-17,2023-08-17,アルバザズホールディングスＪＰ合同会社,,合同会社,東京都,八王子市,明神町１丁目１２２番地３,,13,201,1920046,,,,,,,2023-08-17,1,,,,,,0
1259,6010401176184,新規,0,2023-08-17,2023-08-17,エイベックス・マネジメント・エージェンシー株式会社,,株式会社,東京都,港区,三田１丁目４番１号,,13,103,1080073,,,,,,,2023-08-17,1,,,,,エイベックスマネジメントエージェンシー,0
1260,6010401176333,新規,0,2023-08-17,2023-08-17,エピクロノス株式会社,,株式会社,東京都,港区,虎ノ門１丁目１７番１号,,13,103,1050001,,,,,,,2023-08-17,1,,,,,エピクロノス,0
1261,6010401176440,新規,0,2023-08-17,2023-08-17,株式会社富岳西南プランニング,,株式会社,東京都,港区,南青山２丁目２番１５号,,13,103,1070062,,,,,,,2023-08-17,1,,,,,フガクセイナンプランニング,0
1262,6010401176473,新規,0,2023-08-17,2023-08-17,株式会社ＴＩＴＩＹ,,株式会社,東京都,港区,南青山２丁目２番１５号ウィン青山９４２,,13,103,1070062,,,,,,,2023-08-17,1,,,,,ティティ,0
1263,6010403030703,新規,0,2023-08-17,2023-08-17,羽田ＥＸＯ‐ＣＰＦ合同会社,,合同会社,東京都,港区,浜松町２丁目５番３号,,13,103,1050013,,,,,,,2023-08-17,1,,,,,ハネダエクソシーピーエフ,0
1265,6010503007122,新規,0,2023-08-17,2023-08-17,アソビセンス合同会社,,合同会社,東京都,台東区,小島２丁目２０－１１ＬＩＧビル,,13,106,1110056,,,,,,,2023-08-17,1,,,,,アソビセンス,0
1267,6010701044727,新規,0,2023-08-17,2023-08-17,株式会社悦嘉,,株式会社,東京都,品川区,大崎３丁目１－５ルミネ五反田第２－２０２号室,,13,109,1410032,,,,,,,2023-08-17,1,,,,,エツカ,0
1275,6010901053602,新規,0,2023-08-17,2023-08-17,株式会社ａｐｔ．ｔｏｋｙｏ,,株式会社,東京都,世田谷区,代沢１丁目２２－６コーパスクリスティ代沢２０４,,13,112,1550032,,,,,,,2023-08-17,1,,,,,アプトトウキョウ,0
1281,6011001156221,新規,0,2023-08-17,2023-08-17,株式会社ｙｕｅ,,株式会社,東京都,渋谷区,神宮前６丁目２３番４号桑野ビル２階,,13,113,1500001,,,,,,,2023-08-17,1,,,,,ユエ,0
1282,6011001156287,新規,0,2023-08-17,2023-08-17,ＳＴＵＤＩＯ　ＴＡＣＴ株式会社,,株式会社,東京都,渋谷区,渋谷３丁目１７番５号鈴屋ビル３階,,13,113,1500002,,,,,,,2023-08-17,1,,,,,スタジオタクト,0
1283,6011001156312,新規,0,2023-08-17,2023-08-17,株式会社エミクラス,,株式会社,東京都,渋谷区,道玄坂２丁目１５－１,,13,113,1500043,,,,,,,2023-08-17,1,,,,,エミクラス,0
1284,6011001156403,新規,0,2023-08-17,2023-08-17,株式会社オドピリ,,株式会社,東京都,目黒区,下目黒１丁目３番１７号アーバイル目黒エピキュア４０４,,13,110,1530064,,,,,,,2023-08-17,1,,,,,オドピリ,0
1285,6011001156411,新規,0,2023-08-17,2023-08-17,株式会社ペパー,,株式会社,東京都,渋谷区,幡ヶ谷３丁目３１番１０－２１０号,,13,113,1510072,,,,,,,2023-08-17,1,,,,,ペパー,0
1288,6011003017371,新規,0,2023-08-17,2023-08-17,合同会社プログレス,,合同会社,東京都,渋谷区,代々木２丁目１番１号新宿マインズタワー６階,,13,113,1510053,,,,,,,2023-08-17,1,,,,,プログレス,0
1301,6011701026525,新規,0,2023-08-17,2023-08-17,株式会社興和,,株式会社,東京都,江戸川区,西一之江４丁目７番１５号,,13,123,1320023,,,,,,,2023-08-17,1,,,,,コウワ,0
1302,6011801042892,新規,0,2023-08-17,2023-08-17,株式会社ＮＮＬ電気,,株式会社,東京都,足立区,谷在家１丁目２番１５号,,13,121,1230863,,,,,,,2023-08-17,1,,,,,エヌエヌエルデンキ,0
1305,6012703002778,新規,0,2023-08-17,2023-08-17,ＭＯＫＡＹＡ合同会社,,合同会社,東京都,東久留米市,野火止２丁目１２番３５号,,13,222,2030041,,,,,,,2023-08-17,1,,,,,モカヤ,0
1308,6012801022579,新規,0,2023-08-17,2023-08-17,株式会社ウィンズメディカル,,株式会社,東京都,国分寺市,本町２丁目２番１号シティタワー国分寺ザ・ツインイーストＥ１３０９,,13,214,1850012,,,,,,,2023-08-17,1,,,,,ウィンズメディカル,0
1339,6020003024427,新規,0,2023-08-17,2023-08-17,合同会社ＴＭＣ,,合同会社,神奈川県,横浜市神奈川区,菅田町１６００番地菅田スカイヴィレッジ２０１号,,14,102,2210864,,,,,,,2023-08-17,1,,,,,ティーエムシー,0
1340,6021001079933,新規,0,2023-08-17,2023-08-17,株式会社ＩＣ,,株式会社,神奈川県,藤沢市,柄沢１丁目３１‐１１,,14,205,2510003,,,,,,,2023-08-17,1,,,,,アイシー,0
1341,6021001079941,新規,0,2023-08-17,2023-08-17,株式会社Ｍ　Ｇｒａｃｅ,,株式会社,神奈川県,南足柄市,関本９９番地１,,14,217,2500105,,,,,,,2023-08-17,1,,,,,エムグレース,0
1349,6021003013403,新規,0,2023-08-17,2023-08-17,合同会社龍公亭,,合同会社,神奈川県,平塚市,夕陽ケ丘４４番３号,,14,203,2540806,,,,,,,2023-08-17,1,,,,,リュウコウテイ,0
1350,6021003013460,新規,0,2023-08-17,2023-08-17,合同会社菊池一級建築士事務所,,合同会社,神奈川県,足柄上郡大井町,上大井１２番地１２,,14,362,2580016,,,,,,,2023-08-17,1,,,,,キクチイッキュウケンチクシジムショ,0
1355,6030001155306,新規,0,2023-08-17,2023-08-17,アイリンク株式会社,,株式会社,埼玉県,川口市,青木３丁目８番３０号,,11,203,3320031,,,,,,,2023-08-17,1,,,,,アイリンク,0
1356,6030001155314,新規,0,2023-08-17,2023-08-17,株式会社庭夢創ファベルガーデン,,株式会社,埼玉県,富士見市,鶴馬２丁目２２番１９号メゾンみずほ３０２号,,11,235,3540021,,,,,,,2023-08-17,1,,,,,ニワムソウファベルガーデン,0
1363,6030003022330,新規,0,2023-08-17,2023-08-17,合同会社Ｐｉｇ　Ｓｌｅｅｐ,,合同会社,埼玉県,朝霞市,宮戸４丁目２番４７号,,11,227,3510031,,,,,,,2023-08-17,1,,,,,ピッグスリープ,0
1373,6040001129705,新規,0,2023-08-17,2023-08-17,株式会社グリーンアート,,株式会社,千葉県,茂原市,早野２６８６番地９（トリアフォスＩＩ１０３）,00131557,12,210,2970037,,,,,,,2023-08-17,1,,,,,グリーンアート,0
1374,6040001129721,新規,0,2023-08-17,2023-08-17,株式会社小河設備,,株式会社,千葉県,流山市,三輪野山２丁目８番地の２０,,12,220,2700175,,,,,,,2023-08-17,1,,,,,オガワセツビ,0
1378,6040003023138,新規,0,2023-08-17,2023-08-17,アーチ合同会社,,合同会社,千葉県,印旛郡酒々井町,中川３０番地ハピネスＩ・Ｃ棟１０１号室,00131567,12,322,2850921,,,,,,,2023-08-17,1,,,,,アーチ,0
1381,6050001053318,新規,0,2023-08-17,2023-08-17,株式会社ジーテックホールディングス,,株式会社,茨城県,行方市,小貫２７９４－５,,08,233,3111724,,,,,,,2023-08-17,1,,,,,ジーテックホールディングス,0
1384,6050003007734,新規,0,2023-08-17,2023-08-17,合同会社ワイズベスト,,合同会社,茨城県,つくば市,吾妻１丁目５－７ダイワロイネットホテルつくばビル２Ｆ,,08,220,3050031,,,,,,,2023-08-17,1,,,,,ワイズベスト,0
1386,6060001036263,新規,0,2023-08-17,2023-08-17,株式会社ワフ建築設計室,,株式会社,栃木県,栃木市,日ノ出町１番１８号,,09,203,3280031,,,,,,,2023-08-17,1,,,,,ワフケンチクセッケイシツ,0
1387,6060001036271,新規,0,2023-08-17,2023-08-17,株式会社アドバンス,,株式会社,栃木県,鹿沼市,天神町１８５５番地１７号,,09,205,3220067,,,,,,,2023-08-17,1,,,,,アドバンス,0
1389,6060005010124,新規,0,2023-08-17,2023-08-17,ポレスター佐野新都市管理組合法人,,その他の設立登記法人,栃木県,佐野市,高萩町１３３７番地１,,09,204,3270821,,,,,,,2023-08-17,1,,,,,ポレスターサノシントシ,0
1407,6090001018275,新規,0,2023-08-17,2023-08-17,Ｂｅｌｌｅ　ｅｔ　Ｓｉｎｇｅ株式会社,,株式会社,山梨県,富士吉田市,松山１４４０番地の３,,19,202,4030016,,,,,,,2023-08-17,1,,,,,ベルエサンジュ,0
1415,6100003007150,新規,0,2023-08-17,2023-08-17,ゆずりは合同会社,,合同会社,長野県,長野市,三輪８丁目２５番１０号,,20,201,3800803,,,,,,,2023-08-17,1,,,,,ユズリハ,0
1429,6120001256953,新規,0,2023-08-17,2023-08-17,株式会社煌誠コンサルティング,,株式会社,大阪府,大阪市平野区,平野本町５丁目１０番１０号－１０２,,27,126,5470044,,,,,,,2023-08-17,1,,,,,コウセイコンサルティング,0
1430,6120001257290,新規,0,2023-08-17,2023-08-17,株式会社ＢＬＢ,,株式会社,大阪府,大阪市浪速区,恵美須西１丁目４番１０号アンペルシュ６０１号,,27,111,5560003,,,,,,,2023-08-17,1,,,,,ビーエルビー,0
1431,6120001257299,新規,0,2023-08-17,2023-08-17,株式会社テリオスホーム,,株式会社,大阪府,大阪市阿倍野区,王子町１丁目４番１５号ロイヤルハイツ阿倍野２０２号室,,27,119,5450023,,,,,,,2023-08-17,1,,,,,テリオスホーム,0
1432,6120001257332,新規,0,2023-08-17,2023-08-17,ＰＲ株式会社,,株式会社,大阪府,大阪市北区,中津２丁目８番Ａ－３１８号,,27,127,5310071,,,,,,,2023-08-17,1,,,,,ピアル,0
1433,6120001257349,新規,0,2023-08-17,2023-08-17,株式会社葵建設,,株式会社,大阪府,大阪市東成区,神路２丁目７番２０号フェリーチェ深江橋１号館１１０６号,,27,115,5370003,,,,,,,2023-08-17,1,,,,,アオイケンセツ,0
1434,6120001257472,新規,0,2023-08-17,2023-08-17,株式会社カタボウ,,株式会社,大阪府,寝屋川市,春日町２７番２１号,,27,215,5720063,,,,,,,2023-08-17,1,,,,,カタボウ,0
1435,6120003024714,新規,0,2023-08-17,2023-08-17,メタファースト合同会社,,合同会社,大阪府,大阪市浪速区,恵美須東２丁目５番９－７０６号,,27,111,5560002,,,,,,,2023-08-17,1,,,,,メタファースト,0
1445,6130003008897,新規,0,2023-08-17,2023-08-17,合同会社ＡＹＡＫＯ,,合同会社,京都府,城陽市,寺田南中芝２３番地の４５,,26,207,6100121,,,,,,,2023-08-17,1,,,,,アヤコ,0
1448,6140001131213,新規,0,2023-08-17,2023-08-17,株式会社ゼブラホーム,,株式会社,兵庫県,神戸市長田区,細田町４丁目１－７－１Ｆ,,28,106,6530835,,,,,,,2023-08-17,1,,,,,ゼブラホーム,0
1449,6140001131262,新規,0,2023-08-17,2023-08-17,株式会社ＲＥＧＵＡ,,株式会社,兵庫県,神戸市中央区,元町通３丁目６番１号,,28,110,6500022,,,,,,,2023-08-17,1,,,,,レグア,0
1451,6140003019415,新規,0,2023-08-17,2023-08-17,合同会社ＢＲ,,合同会社,兵庫県,西宮市,上甲子園４丁目８番９号,,28,204,6638114,,,,,,,2023-08-17,1,,,,,ビーアール,0
1463,6190003004412,新規,0,2023-08-17,2023-08-17,グリシーヌ合同会社,,合同会社,三重県,桑名市,松並町１丁目５５番地２,,24,205,5110814,,,,,,,2023-08-17,1,,,,,グリシーヌ,0
1464,6200001041620,新規,0,2023-08-17,2023-08-17,株式会社ＳＨＯＨＥＩ,,株式会社,岐阜県,各務原市,那加浜見町２丁目１６６番地,,21,213,5040034,,,,,,,2023-08-17,1,,,,,ショーヘイ,0
1466,6200003006051,新規,0,2023-08-17,2023-08-17,合同会社オールトレーズ,,合同会社,岐阜県,岐阜市,領下６丁目５３番地,,21,201,5008241,,,,,,,2023-08-17,1,,,,,オールトレーズ,0
1476,6270001008828,新規,0,2023-08-17,2023-08-17,株式会社８６,,株式会社,鳥取県,東伯郡北栄町,大谷１４６５番地,,31,372,6892223,,,,,,,2023-08-17,1,,,,,ハチロク,0
1479,6290001102703,新規,0,2023-08-17,2023-08-17,株式会社Ｗｉｔｈ　ＵＳ,,株式会社,福岡県,福岡市南区,長丘４丁目６番３８号,,40,134,8150075,,,,,,,2023-08-17,1,,,,,ウイザス,0
1484,6340003004215,新規,0,2023-08-17,2023-08-17,合同会社アンビシャス,,合同会社,鹿児島県,鹿児島市,魚見町１３４番地１７サン・ヴィラ魚見２０３号,,46,201,8910112,,,,,,,2023-08-17,1,,,,,アンビシャス,0
1487,6350001018521,新規,0,2023-08-17,2023-08-17,株式会社大藤,,株式会社,宮崎県,延岡市,土々呂町４丁目４２３７番地,,45,203,8890513,,,,,,,2023-08-17,1,,,,,オオフジ,0
1537,7010001237609,新規,0,2023-08-17,2023-08-17,株式会社ＡＫＡＲＩ,,株式会社,東京都,中央区,明石町１番７－９１０号,,13,102,1040044,,,,,,,2023-08-17,1,,,,,アカリ,0
1541,7010003041380,新規,0,2023-08-17,2023-08-17,合同会社シャイニーサン,,合同会社,東京都,千代田区,平河町１丁目３番１３号平河町フロントビル７階株式会社シリウス・アドバイザリー内,,13,101,1020093,,,,,,,2023-08-17,1,,,,,シャイニーサン,0
1542,7010003041414,新規,0,2023-08-17,2023-08-17,合同会社竹橋書店,,合同会社,東京都,千代田区,神田錦町１丁目１４番地１１,,13,101,1010054,,,,,,,2023-08-17,1,,,,,タケバシショテン,0
1556,7010401176175,新規,0,2023-08-17,2023-08-17,エイベックス・ライヴ・クリエイティヴ株式会社,,株式会社,東京都,港区,三田１丁目４番１号,,13,103,1080073,,,,,,,2023-08-17,1,,,,,エイベックスライヴクリエイティヴ,0
1557,7010401176183,新規,0,2023-08-17,2023-08-17,エイベックス・クラン株式会社,,株式会社,東京都,港区,三田１丁目４番１号,,13,103,1080073,,,,,,,2023-08-17,1,,,,,エイベックスクラン,0
1558,7010401176448,新規,0,2023-08-17,2023-08-17,株式会社ａｓｄ,,株式会社,東京都,港区,赤坂３丁目１１番７号ソシアル赤坂ビル地下２階Ａ号室,,13,103,1070052,,,,,,,2023-08-17,1,,,,,エーエスディー,0
1559,7010401176456,新規,0,2023-08-17,2023-08-17,株式会社グロバリ,,株式会社,東京都,港区,浜松町２丁目２番１５号浜松町ダイヤビル２Ｆ,,13,103,1050013,,,,,,,2023-08-17,1,,,,,グロバリ,0
1560,7010401176472,新規,0,2023-08-17,2023-08-17,リエゾン株式会社,,株式会社,東京都,港区,新橋６丁目２０番６号,,13,103,1050004,,,,,,,2023-08-17,1,,,,,リエゾン,0
1561,7010403030710,新規,0,2023-08-17,2023-08-17,ＳＥＩ保証サービス合同会社,,合同会社,東京都,港区,新橋３丁目７番３号ステージ新橋１Ｆ,,13,103,1050004,,,,,,,2023-08-17,1,,,,,エスイーアイホショウサービス,0
1562,7010403030719,新規,0,2023-08-17,2023-08-17,合同会社ソーラーパーク３４号,,合同会社,東京都,港区,六本木３丁目２番１号,,13,103,1060032,,,,,,,2023-08-17,1,,,,,ソーラーパーサンジュウヨンゴウ,0
1563,7010603010306,新規,0,2023-08-17,2023-08-17,合同会社ホイール,,合同会社,東京都,江東区,亀戸７丁目６４－６－４０２,,13,108,1360071,,,,,,,2023-08-17,1,,,,,ホイール,0
1570,7011001156286,新規,0,2023-08-17,2023-08-17,技工士ドットコム株式会社,,株式会社,東京都,渋谷区,渋谷３丁目６番２号エクラート渋谷ビル２階,,13,113,1500002,,,,,,,2023-08-17,1,,,,,ギコウシドットコム,0
1571,7011001156311,新規,0,2023-08-17,2023-08-17,株式会社カルマリオン,,株式会社,東京都,渋谷区,渋谷２丁目１９－１５宮益坂ビルディング６０９,,13,113,1500002,,,,,,,2023-08-17,1,,,,,カルマリオン,0
1572,7011001156377,新規,0,2023-08-17,2023-08-17,株式会社Ｓｈａｐｅ　Ｅｉｎｓ,,株式会社,東京都,渋谷区,恵比寿４丁目３－１クイズ恵比寿５１０,,13,113,1500013,,,,,,,2023-08-17,1,,,,,シェイプアインス,0
1573,7011001156402,新規,0,2023-08-17,2023-08-17,株式会社モビック,,株式会社,東京都,渋谷区,神宮前６丁目２３番４号桑野ビル２階,,13,113,1500001,,,,,,,2023-08-17,1,,,,,モビック,0
1574,7011001156410,新規,0,2023-08-17,2023-08-17,ＲｅｎＴｓｕ株式会社,,株式会社,東京都,渋谷区,渋谷２丁目３番４号青山ＴＮビル５階,,13,113,1500002,,,,,,,2023-08-17,1,,,,,レンツ,0
1575,7011001156427,新規,0,2023-08-17,2023-08-17,株式会社ＲＢＣ,,株式会社,東京都,渋谷区,桜丘町２６－１セルリアンタワー１５階,,13,113,1500031,,,,,,,2023-08-17,1,,,,,アールビーシー,0
1576,7011003017354,新規,0,2023-08-17,2023-08-17,合同会社ワンドア,,合同会社,東京都,渋谷区,代々木２丁目４５番４号ＣＯＭＰＯＳＩＴＥＹＯＹＯＧＩ２０１,,13,113,1510053,,,,,,,2023-08-17,1,,,,,ワンドア,0
1586,7011101104013,新規,0,2023-08-17,2023-08-17,日本久川睛匠株式会社,00131559,株式会社,東京都,新宿区,西新宿７丁目５番５号ｐｌａｚａ西新宿ＵＣＦ４０６,,13,104,1600023,,,,,,,2023-08-17,1,,,,,ニホンヒサカワセイショウ,0
1587,7011101104038,新規,0,2023-08-17,2023-08-17,ＷＨＤＣロジテック株式会社,,株式会社,東京都,新宿区,愛住町２２番地,,13,104,1600005,,,,,,,2023-08-17,1,,,,,ダブリュエイチディシーロジテック,0
1589,7011801042900,新規,0,2023-08-17,2023-08-17,株式会社メイクウィル,,株式会社,東京都,葛飾区,青戸３丁目３７－１５京成青戸ビル,,13,122,1250062,,,,,,,2023-08-17,1,,,,,メイクウィル,0
1590,7011803005789,新規,0,2023-08-17,2023-08-17,ＹＫ合同会社,,合同会社,東京都,足立区,西伊興３丁目６－２５,,13,121,1210824,,,,,,,2023-08-17,1,,,,,ワイケイ,0
1594,7012803003155,新規,0,2023-08-17,2023-08-17,合同会社インプルヴ,,合同会社,東京都,武蔵村山市,三ツ藤１丁目１０７－４,,13,223,2080021,,,,,,,2023-08-17,1,,,,,インプルヴ,0
1596,7013301051209,新規,0,2023-08-17,2023-08-17,株式会社通遠国際,,株式会社,東京都,豊島区,池袋３丁目６４番１０号１０３号室,,13,116,1710014,,,,,,,2023-08-17,1,,,,,ツウエンコクサイ,0
1597,7013301051217,新規,0,2023-08-17,2023-08-17,株式会社ＤＣ５,,株式会社,東京都,豊島区,南大塚２丁目３８番１号リードシー大塚ビル３階,,13,116,1700005,,,,,,,2023-08-17,1,,,,,ディーシーファイブ,0
1598,7013301051225,新規,0,2023-08-17,2023-08-17,投資日本株式会社,,株式会社,東京都,豊島区,東池袋１丁目３５番１０号藤田ビル５階,,13,116,1700013,,,,,,,2023-08-17,1,,,,,トウシニッポン,0
1603,7020001153078,新規,0,2023-08-17,2023-08-17,ＣＭＲ株式会社,,株式会社,神奈川県,横浜市緑区,北八朔町８５番地１０,,14,113,2260021,,,,,,,2023-08-17,1,,,,,シーエムアール,0
1604,7020001153094,新規,0,2023-08-17,2023-08-17,パルホールディングス株式会社,,株式会社,神奈川県,横浜市中区,長者町８丁目１３４番地,,14,104,2310033,,,,,,,2023-08-17,1,,,,,パルホールディングス,0
1607,7020003024368,新規,0,2023-08-17,2023-08-17,Ｚａｎｓｈｉｎ　Ｇａｍｅｓ合同会社,,合同会社,神奈川県,川崎市中原区,今井西町８番２７号,,14,133,2110066,,,,,,,2023-08-17,1,,,,,,0
1610,7021001079949,新規,0,2023-08-17,2023-08-17,株式会社Ｓｈｉｌｒｅ,,株式会社,神奈川県,中郡大磯町,月京２３－３１－１０６,,14,341,2590114,,,,,,,2023-08-17,1,,,,,シルレ,0
1620,7030001155305,新規,0,2023-08-17,2023-08-17,株式会社中山建具,,株式会社,埼玉県,草加市,栄町２丁目４番２５号,,11,221,3400011,,,,,,,2023-08-17,1,,,,,ナカヤマタテグ,0
1621,7030001155602,新規,0,2023-08-17,2023-08-17,株式会社ＹＵＫＡＵ,,株式会社,埼玉県,蕨市,北町４丁目４番２９号,,11,223,3350001,,,,,,,2023-08-17,1,,,,,ユカウ,0
1623,7030005021346,新規,0,2023-08-17,2023-08-17,特定非営利活動法人ハンズボイス,,その他の設立登記法人,埼玉県,所沢市,南住吉２３番１５号エクセレンス南住吉１０２,,11,208,3591125,,,,,,,2023-08-17,1,,,,,ハンズボイス,0
1626,7040001129712,新規,0,2023-08-17,2023-08-17,億源株式会社,,株式会社,千葉県,四街道市,和良比３１３番地９２パティオ・ｙ２０４号室,,12,228,2840044,,,,,,,2023-08-17,1,,,,,オクゲン,0
1627,7040001129729,新規,0,2023-08-17,2023-08-17,株式会社ＫＥＡＲ　Ｇｌｏｂａｌ　Ｈｏｌｄｉｎｇｓ,,株式会社,千葉県,八千代市,大学町４丁目１番１３号,,12,221,2760003,,,,,,,2023-08-17,1,,,,,キアグローバルホールディングス,0
1628,7040001129745,新規,0,2023-08-17,2023-08-17,株式会社令天,,株式会社,千葉県,野田市,尾崎８４８番地の９,,12,208,2700235,,,,,,,2023-08-17,1,,,,,レイテン,0
1639,7060001036270,新規,0,2023-08-17,2023-08-17,株式会社ＩＩＫ．ｃｏｎｎｅｃｔ,,株式会社,栃木県,宇都宮市,今泉３丁目１番１号菅又ハイツＩ棟３０７号室,00131560,09,201,3210966,,,,,,,2023-08-17,1,,,,,アイアイケイドットコネクト,0
1648,7090001018282,新規,0,2023-08-17,2023-08-17,株式会社Ｖｉｎｇｅ,,株式会社,山梨県,甲府市,貢川１丁目５番６２号,,19,201,4000065,,,,,,,2023-08-17,1,,,,,ビング,0
1649,7090002015774,新規,0,2023-08-17,2023-08-17,有限会社小倉家具店,,有限会社,山梨県,甲府市,中央３丁目１０番３３号,,19,201,4000032,,,,,,,2023-08-17,1,,,,,,0
1650,7090003002367,新規,0,2023-08-17,2023-08-17,合同会社コイズミ建築工房,,合同会社,山梨県,笛吹市,石和町八田３０２センチュリー石和５０８,,19,211,4060023,,,,,,,2023-08-17,1,,,,,コイズミケンチクコウボウ,0
1664,7120001256779,新規,0,2023-08-17,2023-08-17,株式会社ＲＥＹＯＮＡ,,株式会社,大阪府,大阪市中央区,難波４丁目１番１５号近鉄難波ビル１．２．３Ｆ,,27,128,5420076,,,,,,,2023-08-17,1,,,,,レヨナ,0
1665,7120001257182,新規,0,2023-08-17,2023-08-17,エルプラスティ株式会社,,株式会社,大阪府,大阪市東淀川区,東中島２丁目８番８－７０１号室,,27,114,5330033,,,,,,,2023-08-17,1,,,,,エルプラスティ,0
1666,7120001257199,新規,0,2023-08-17,2023-08-17,株式会社ここからはじまる,,株式会社,大阪府,大阪市中央区,内久宝寺町４丁目４番７‐４０４号,,27,128,5400013,,,,,,,2023-08-17,1,,,,,ココカラハジマル,0
1667,7120001257323,新規,0,2023-08-17,2023-08-17,株式会社扇町タイヤ,,株式会社,大阪府,大阪市北区,東天満２丁目１番１５号,,27,127,5300044,,,,,,,2023-08-17,1,,,,,オウギマチタイヤ,0
1668,7120001257364,新規,0,2023-08-17,2023-08-17,遠拓株式会社,,株式会社,大阪府,大阪市中央区,南船場４丁目９－１２朝日プラザ心斎橋北７０７号室,,27,128,5420081,,,,,,,2023-08-17,1,,,,,エンタク,0
1669,7120001257372,新規,0,2023-08-17,2023-08-17,株式会社Ｍｅｄｉｙｅｌｌ,,株式会社,大阪府,大阪市北区,豊崎３丁目１６番１６－１１１５号,,27,127,5310072,,,,,,,2023-08-17,1,,,,,メディエール,0
1670,7120001257439,新規,0,2023-08-17,2023-08-17,株式会社プラテクノ,,株式会社,大阪府,大阪市平野区,加美北１丁目１９番４号,,27,126,5470001,,,,,,,2023-08-17,1,,,,,プラテクノ,0
1675,7120101068075,新規,0,2023-08-17,2023-08-17,株式会社ＲＢジャパン,,株式会社,大阪府,岸和田市,別所町２丁目２１番９号,,27,202,5960045,,,,,,,2023-08-17,1,,,,,アールビージャパン,0
1676,7120105009752,新規,0,2023-08-17,2023-08-17,一般社団法人チョイサポなんよこ,,その他の設立登記法人,大阪府,和泉市,父鬼町１３６８番地,,27,219,5941132,,,,,,,2023-08-17,1,,,,,チョイサポナンヨコ,0
1685,7130003008921,新規,0,2023-08-17,2023-08-17,合同会社グローバルチワワン,,合同会社,京都府,京都市東山区,毘沙門町４５－１－７０１,,26,105,6050812,,,,,,,2023-08-17,1,,,,,グローバルチワワン,0
1687,7140001131220,新規,0,2023-08-17,2023-08-17,株式会社リンクフォース,,株式会社,兵庫県,神戸市中央区,磯上通４丁目１番３２号ロイヤル磯上,,28,110,6510086,,,,,,,2023-08-17,1,,,,,リンクフォース,0
1689,7150001026650,新規,0,2023-08-17,2023-08-17,奈良みらいフォレストリー株式会社,,株式会社,奈良県,奈良市,橋本町１６番地,,29,201,6308217,,,,,,,2023-08-17,1,,,,,ナラミライフォレストリー,0
1700,7190001030673,新規,0,2023-08-17,2023-08-17,株式会社アビリティワークス,,株式会社,三重県,松阪市,大口町１１１番地１フレンズシャトウ１０４,,24,204,5150001,,,,,,,2023-08-17,1,,,,,アビリティワークス,0
1706,7200003006050,新規,0,2023-08-17,2023-08-17,合同会社カウンビート,,合同会社,岐阜県,岐阜市,金町６丁目２１番地岐阜ステーションビル３０４,,21,201,5008842,,,,,,,2023-08-17,1,,,,,カウンビート,0
1725,7290001102693,新規,0,2023-08-17,2023-08-17,株式会社Ｎ＆Ｔ海苔ノたかむく,,株式会社,福岡県,柳川市,大和町中島２３２６番地３,,40,207,8390254,,,,,,,2023-08-17,1,,,,,エヌアンドティーノリノタカムク,0
1726,7290001102702,新規,0,2023-08-17,2023-08-17,すず建築株式会社,,株式会社,福岡県,福岡市博多区,西月隈５丁目８番１－１０１号リブレア西月隈,,40,132,8120857,,,,,,,2023-08-17,1,,,,,スズケンチク,0
1728,7300003002015,新規,0,2023-08-17,2023-08-17,合同会社キッズコミュ,,合同会社,佐賀県,佐賀市,本庄町大字本庄４０１番地１５,,41,201,8400027,,,,,,,2023-08-17,1,,,,,キッズコミュ,0
1734,7330003009940,新規,0,2023-08-17,2023-08-17,ＫＵＬＡベンチャー合同会社,,合同会社,熊本県,熊本市中央区,神水本町１７番３号ガーデンヴュー神水１０１号,,43,101,8620955,,,,,,,2023-08-17,1,,,,,,0
1740,7370001050315,新規,0,2023-08-17,2023-08-17,株式会社Ｓｏｉｒｅｅ,,株式会社,宮城県,仙台市泉区,本田町１５番４３号ヘルツ・アス１０５号室,,04,105,9813107,,,,,,,2023-08-17,1,,,,,ソワレ,0
1750,7410001013572,新規,0,2023-08-17,2023-08-17,株式会社Ｎｅｘｔ,,株式会社,秋田県,能代市,浜通町１番４５号,,05,202,0160801,,,,,,,2023-08-17,1,,,,,ネクスト,0
1761,7500001025146,新規,0,2023-08-17,2023-08-17,株式会社シスコ,,株式会社,愛媛県,伊予市,灘町２６番地シスコ灘町キャッスル２階,00131566,38,210,7993114,,,,,,,2023-08-17,1,,,,,シスコ,0
1762,7700150110595,新規,0,2023-08-17,2022-06-30,ＩＣＢＡ　ＪＡＰＡＮ　ＰＲＯＪＥＣＴ,,その他,福岡県,福岡市早良区,原８丁目３６－３１,,40,137,8140022,,,,,,,2022-06-30,1,,,,,アイシービーエージヤパンプロジエクト,0
1770,8010001237582,新規,0,2023-08-17,2023-08-17,イーエスジーファシリティーズ株式会社,,株式会社,東京都,中央区,日本橋茅場町１丁目４番６号木村実業第二ビル２階,,13,102,1030025,,,,,,,2023-08-17,1,,,,,イーエスジーファシリティーズ,0
1771,8010001237698,新規,0,2023-08-17,2023-08-17,インターアークコンサルティング株式会社,,株式会社,東京都,中央区,日本橋箱崎町２９番１－５０３号,,13,102,1030015,,,,,,,2023-08-17,1,,,,,インターアークコンサルティング,0
1772,8010001237756,新規,0,2023-08-17,2023-08-17,ＶＱＰ２０２３株式会社,,株式会社,東京都,千代田区,神田須田町１丁目１４番地ヒューリック神田須田町ビル３Ｆ,,13,101,1010041,,,,,,,2023-08-17,1,,,,,ブイキューピーニセンニジュウサン,0
1773,8010001237780,新規,0,2023-08-17,2023-08-17,株式会社ジェイソーラー,,株式会社,東京都,中央区,銀座６丁目１５番１号,,13,102,1040061,,,,,,,2023-08-17,1,,,,,ジェイソーラー,0
1779,8010101015780,新規,0,2023-08-17,2023-08-17,株式会社アイデフト,,株式会社,東京都,八王子市,新町２番５号コスモリード八王子１階・２階,,13,201,1920065,,,,,,,2023-08-17,1,,,,,アイデフト,0
1783,8010401176422,新規,0,2023-08-17,2023-08-17,サンタ・マリア・ノヴェッラ・ジャパン株式会社,,株式会社,東京都,港区,虎ノ門４丁目３番２０号神谷町ＭＴビル１４階,,13,103,1050001,,,,,,,2023-08-17,1,,,,,サンタマリアノヴェッラジャパン,0
1784,8010401176488,新規,0,2023-08-17,2023-08-17,株式会社中央綜合創建,,株式会社,東京都,港区,南青山３丁目１番３６号青山丸竹ビル６Ｆ,,13,103,1070062,,,,,,,2023-08-17,1,,,,,チュウオウソウゴウソウケン,0
1788,8010403030718,新規,0,2023-08-17,2023-08-17,合同会社ソーラーパーク３３号,,合同会社,東京都,港区,六本木３丁目２番１号,,13,103,1060032,,,,,,,2023-08-17,1,,,,,ソーラーパーサンジュウサンゴウ,0
1789,8010403030734,新規,0,2023-08-17,2023-08-17,サンライズ合同会社,,合同会社,東京都,港区,南青山２丁目１４番１９号,,13,103,1070062,,,,,,,2023-08-17,1,,,,,サンライズ,0
1795,8010801034262,新規,0,2023-08-17,2023-08-17,株式会社イチブトゼンブ,,株式会社,東京都,大田区,上池台１丁目２８番１８号,,13,111,1450064,,,,,,,2023-08-17,1,,,,,イチブトゼンブ,0
1796,8010803004643,新規,0,2023-08-17,2023-08-17,Ｌ＆Ｓ合同会社,,合同会社,東京都,大田区,中央８丁目５番１２－１０２号,,13,111,1430024,,,,,,,2023-08-17,1,,,,,エルアンドエス,0
1808,8011001156228,新規,0,2023-08-17,2023-08-17,株式会社ｅｖｅＲ　ｌｉｎｋ,,株式会社,東京都,渋谷区,渋谷２丁目１９－１５宮益坂ビルディング６０９,,13,113,1500002,,,,,,,2023-08-17,1,,,,,エバーリンク,0
1809,8011001156285,新規,0,2023-08-17,2023-08-17,株式会社ＳｍａｒｔＴＣ,,株式会社,東京都,渋谷区,渋谷３丁目６番２号エクラート渋谷ビル２階,,13,113,1500002,,,,,,,2023-08-17,1,,,,,スマートティーシー,0
1817,8011201024853,新規,0,2023-08-17,2023-08-17,七源商会株式会社,,株式会社,東京都,中野区,弥生町３丁目５－１０,,13,114,1640013,,,,,,,2023-08-17,1,,,,,ナナゲンショウカイ,0
1820,8011303004869,新規,0,2023-08-17,2023-08-17,合同会社ＲＧＳ,,合同会社,東京都,杉並区,成田東３丁目２１番８号,,13,115,1660015,,,,,,,2023-08-17,1,,,,,アールジーエス,0
1833,8012403006128,新規,0,2023-08-17,2023-08-17,合同会社ＢＭ,,合同会社,東京都,府中市,本町４丁目２１－１６府中かえで通りライオンズマンション２０１,,13,206,1830027,,,,,,,2023-08-17,1,,,,,ビーエム,0
1834,8012803003162,新規,0,2023-08-17,2023-08-17,合同会社ＨＯＰＥ,,合同会社,東京都,立川市,柴崎町３丁目５番１０号４階,,13,202,1900023,,,,,,,2023-08-17,1,,,,,ホープ,0
1842,8013301051216,新規,0,2023-08-17,2023-08-17,済世堂株式会社,,株式会社,東京都,豊島区,南池袋１丁目１６番１５号ダイヤゲート池袋５Ｆ,,13,116,1710022,,,,,,,2023-08-17,1,,,,,サイセイドウ,0
1843,8013301051224,新規,0,2023-08-17,2023-08-17,ＴｅｃｈｉｅＣＶ株式会社,,株式会社,東京都,豊島区,池袋２丁目５７番６号,,13,116,1710014,,,,,,,2023-08-17,1,,,,,テキーシーブイ,0
1861,8021001079948,新規,0,2023-08-17,2023-08-17,株式会社ビグテ,,株式会社,神奈川県,小田原市,栄町２丁目１３番１０号タカナシビル２階,,14,206,2500011,,,,,,,2023-08-17,1,,,,,ビグテ,0
1866,8021003013459,新規,0,2023-08-17,2023-08-17,合同会社６３０,,合同会社,神奈川県,藤沢市,辻堂東海岸４丁目１５番１７－２０１号,,14,205,2510045,,,,,,,2023-08-17,1,,,,,ロクサンゼロ,0
1887,8040001129694,新規,0,2023-08-17,2023-08-17,株式会社筋本シール,,株式会社,千葉県,柏市,南逆井６丁目２番１６号,,12,217,2770043,,,,,,,2023-08-17,1,,,,,スジモトシール,0
1888,8040001129711,新規,0,2023-08-17,2023-08-17,株式会社ＡＩＴ日本語学校,,株式会社,千葉県,山武市,富田ト７７２番地２,,12,237,2891321,,,,,,,2023-08-17,1,,,,,エーアイティーニホンゴガッコウ,0
1889,8040001129728,新規,0,2023-08-17,2023-08-17,株式会社ＲＥＬＩＥＲ,,株式会社,千葉県,船橋市,本町１丁目１７番６－１００３号,,12,204,2730005,,,,,,,2023-08-17,1,,,,,ルリエ,0
1894,8040003023136,新規,0,2023-08-17,2023-08-17,ＫＨ建築コンサルタント合同会社,,合同会社,千葉県,柏市,永楽台３丁目１１番１６号,,12,217,2770086,,,,,,,2023-08-17,1,,,,,ケーエイチケンチクコンサルタント,0
1895,8040005022094,新規,0,2023-08-17,2023-08-17,特定非営利活動法人さんわの丘会,,その他の設立登記法人,千葉県,市原市,新堀６３４番地１,,12,219,2900206,,,,,,,2023-08-17,1,,,,,サンワノオカカイ,0
1897,8050001053308,新規,0,2023-08-17,2023-08-17,株式会社寿澄,,株式会社,茨城県,つくば市,吉瀬１７７３番地２,,08,220,3050022,,,,,,,2023-08-17,1,,,,,トシスミ,0
1898,8050001053316,新規,0,2023-08-17,2023-08-17,潮来エンジニアリング株式会社,,株式会社,茨城県,潮来市,あやめ２丁目１８番地２,,08,223,3112425,,,,,,,2023-08-17,1,,,,,イタコエンジニアリング,0
1899,8060001001109,新規,0,2023-08-17,2023-08-17,関東技術建設株式会社,00131415,株式会社,栃木県,宇都宮市,栄町６番１６号,,09,201,3200024,,,,,,,2023-08-17,1,,,,,カントウギジュツケンセツ,0
1902,8060001036261,新規,0,2023-08-17,2023-08-17,株式会社ＪＡＰＡＮ　ＳＥＥＤ,,株式会社,栃木県,宇都宮市,平松本町２８１番地９,,09,201,3210932,,,,,,,2023-08-17,1,,,,,ジャパンシード,0
1912,8090001018265,新規,0,2023-08-17,2023-08-17,株式会社ＥＮＡ　Ｃｒｅａｔｅ,,株式会社,山梨県,甲府市,上石田３丁目２０番５号ＧＬＡＮＺ２,,19,201,4000041,,,,,,,2023-08-17,1,,,,,エナクリエイト,0
1913,8090001018273,新規,0,2023-08-17,2023-08-17,株式会社Ｑｕｉｅｒｏ,,株式会社,山梨県,甲斐市,万才２８０番地８ロゼコートＦ５０５,,19,210,4000114,,,,,,,2023-08-17,1,,,,,クエロ,0
1914,8090003002374,新規,0,2023-08-17,2023-08-17,合同会社ＰＥＮＴＯ,,合同会社,山梨県,甲府市,緑が丘１丁目１４番４号,,19,201,4000008,,,,,,,2023-08-17,1,,,,,ペント,0
1925,8120001257306,新規,0,2023-08-17,2023-08-17,株式会社ＭＣＡ,,株式会社,大阪府,大阪市天王寺区,勝山４丁目１１番１６－７０２号,,27,109,5430043,,,,,,,2023-08-17,1,,,,,エムシーエー,0
1926,8120001257314,新規,0,2023-08-17,2023-08-17,ＲＲＫ　ＷＯＲＫＳ株式会社,,株式会社,大阪府,大阪市北区,中崎３丁目３番２５－１００１号,,27,127,5300016,,,,,,,2023-08-17,1,,,,,ダブルアールケーワークス,0
1927,8120001257322,新規,0,2023-08-17,2023-08-17,株式会社ライフプランジャパン,,株式会社,大阪府,大阪市西成区,南津守６丁目６番２２号,,27,122,5570063,,,,,,,2023-08-17,1,,,,,ライフプランジャパン,0
1928,8120001257363,新規,0,2023-08-17,2023-08-17,沃若株式会社,,株式会社,大阪府,大阪市中央区,高津３丁目８－１９スター・レジデンス黒門６０１号室,,27,128,5420072,,,,,,,2023-08-17,1,,,,,ヨクジャク,0
1929,8120001257470,新規,0,2023-08-17,2023-08-17,Ｎｉｓｓｉ株式会社,,株式会社,大阪府,大阪市中央区,船越町１丁目５番８－４１４号,,27,128,5400036,,,,,,,2023-08-17,1,,,,,ニシ,0
1932,8120003024695,新規,0,2023-08-17,2023-08-17,ぺぱにか合同会社,,合同会社,大阪府,大阪市西区,九条１丁目２８－１シャンティ九条１０３,,27,106,5500027,,,,,,,2023-08-17,1,,,,,ペパニカ,0
1933,8120003024720,新規,0,2023-08-17,2023-08-17,Ｍａｙａ　ｇｒｏｕｐ合同会社,,合同会社,大阪府,大阪市西淀川区,花川２丁目１９番８－８０３号,,27,113,5550023,,,,,,,2023-08-17,1,,,,,マヤグループ,0
1940,8130001074980,新規,0,2023-08-17,2023-08-17,ソイル株式会社,,株式会社,京都府,宮津市,字須津２３番地の５５,,26,205,6292251,,,,,,,2023-08-17,1,,,,,ソイル,0
1974,8230001019975,新規,0,2023-08-17,2023-08-17,株式会社吉久インターナショナル,,株式会社,富山県,高岡市,吉久３丁目７番７号,,16,202,9330002,,,,,,,2023-08-17,1,,,,,ヨシヒサインターナショナル,0
1981,8260001038238,新規,0,2023-08-17,2023-08-17,株式会社歩実,,株式会社,岡山県,倉敷市,連島町矢柄５８９８番地３,,33,202,7128015,,,,,,,2023-08-17,1,,,,,アユミ,0
1987,8290001102692,新規,0,2023-08-17,2023-08-17,ｓ．Ｅｌｅｍｅｎｔｓ株式会社,,株式会社,福岡県,福岡市中央区,鳥飼１丁目１番５－４０１号アルテマインド大濠公園,,40,133,8100053,,,,,,,2023-08-17,1,,,,,エスエレメンツ,0
1988,8290001102701,新規,0,2023-08-17,2023-08-17,ｏｎｅ　ｆｏｒ　ａｌｌ株式会社,,株式会社,福岡県,福岡市早良区,西入部２丁目７番２６号,,40,137,8111121,,,,,,,2023-08-17,1,,,,,ワンフォーオール,0
1989,8290001102718,新規,0,2023-08-17,2023-08-17,株式会社Ｊ．Ｏ．ＭＡＧＩＣ,,株式会社,福岡県,久留米市,六ツ門町１７番地２３,,40,203,8300031,,,,,,,2023-08-17,1,,,,,ジェイオーマジック,0
1990,8290001102726,新規,0,2023-08-17,2023-08-17,株式会社早良建装,,株式会社,福岡県,福岡市早良区,田村７丁目１３番５３－２０１号バーシア幸成ＩＩ,00131565,40,137,8140175,,,,,,,2023-08-17,1,,,,,サワラケンソウ,0
1992,8290003014234,新規,0,2023-08-17,2023-08-17,合同会社ＢｒａｎｄＮｅｗ,,合同会社,福岡県,福岡市東区,香住ヶ丘２丁目３０番１５－１０５号Ｄ－ｒｏｏｍ香住ヶ丘,,40,131,8130003,,,,,,,2023-08-17,1,,,,,,0
2000,8310001018564,新規,0,2023-08-17,2023-08-17,株式会社ユナイテッドハウジング,,株式会社,長崎県,佐世保市,大和町９５２番地８,,42,202,8571165,,,,,,,2023-08-17,1,,,,,ユナイテッドハウジング,0
2004,8340001025822,新規,0,2023-08-17,2023-08-17,株式会社アイジェンカン,,株式会社,鹿児島県,鹿児島市,小松原２丁目２４番１３号,,46,201,8910114,,,,,,,2023-08-17,1,,,,,アイジェンカン,0
2010,8370001050314,新規,0,2023-08-17,2023-08-17,松島サンケイ株式会社,,株式会社,宮城県,宮城郡松島町,根廻字音無２５番地の４,,04,401,9810203,,,,,,,2023-08-17,1,,,,,マツシマサンケイ,0
2021,8430001089783,新規,0,2023-08-17,2023-08-17,株式会社マネジメントパートナー,,株式会社,北海道,札幌市南区,澄川三条５丁目２番１号,,01,106,0050003,,,,,,,2023-08-17,1,,,,,マネジメントパートナー,0
2022,8430003015333,新規,0,2023-08-17,2023-08-17,合同会社リビング札幌,,合同会社,北海道,札幌市北区,西茨戸五条１丁目５番２０号,,01,102,0028035,,,,,,,2023-08-17,1,,,,,リビングサッポロ,0
2023,8430003015341,新規,0,2023-08-17,2023-08-17,合同会社Ｌａｉｎｉ,,合同会社,北海道,千歳市,春日町１丁目１番１６号Ｃａｓａ　Ｍｉｌａ１,,01,224,0660065,,,,,,,2023-08-17,1,,,,,ライニ,0
2027,8440005002758,新規,0,2023-08-17,2023-08-17,一般社団法人ココホル,,その他の設立登記法人,北海道,北斗市,久根別４丁目２７番１６号,,01,236,0490121,,,,,,,2023-08-17,1,,,,,ココホル,0
2035,8490003001807,新規,0,2023-08-17,2023-08-17,合同会社大原アカウントサービス,,合同会社,高知県,高知市,朝倉己８６９番地,,39,201,7808066,,,,,,,2023-08-17,1,,,,,,0
2036,8500001025145,新規,0,2023-08-17,2023-08-17,株式会社ＳＥＭＯＮ,,株式会社,愛媛県,松山市,朝生田町４丁目４番３２号第一自動車教習所テナントビル１階,,38,201,7900952,,,,,,,2023-08-17,1,,,,,セモン,0
2037,8700150118811,新規,0,2023-08-17,2023-08-07,藤枝市サッカー協会グループ,,その他,静岡県,藤枝市,原１００番地,,22,214,4260086,,,,,,,2023-08-07,1,,,,,フジエダシサツカーキヨウカイグループ,0
2052,9010003041379,新規,0,2023-08-17,2023-08-17,合同会社ひかり,,合同会社,東京都,千代田区,平河町１丁目３番１３号平河町フロントビル７階株式会社シリウス・アドバイザリー内,,13,101,1020093,,,,,,,2023-08-17,1,,,,,ヒカリ,0
2055,9010401176421,新規,0,2023-08-17,2023-08-17,ＥＲ３０株式会社,,株式会社,東京都,港区,六本木１丁目６番１号,,13,103,1060032,,,,,,,2023-08-17,1,,,,,イーアールサーティー,0
2056,9010401176454,新規,0,2023-08-17,2023-08-17,株式会社エスプラス,,株式会社,東京都,港区,三田１丁目３番４０号,,13,103,1080073,,,,,,,2023-08-17,1,,,,,エスプラス,0
2057,9010401176652,新規,0,2023-08-17,2023-08-17,株式会社Ｍ＆Ｈ,,株式会社,東京都,港区,赤坂２丁目１４番１１－２Ｆ,,13,103,1070052,,,,,,,2023-08-17,1,,,,,エムアンドエイチ,0
2060,9010403030700,新規,0,2023-08-17,2023-08-17,ＡｉＭ　ＰＩＳＴＡ合同会社,,合同会社,東京都,港区,港南４丁目７－５５－３５０９,,13,103,1080075,,,,,,,2023-08-17,1,,,,,エイムピスタ,0
2061,9010403030717,新規,0,2023-08-17,2023-08-17,合同会社ソーラーパーク３２号,,合同会社,東京都,港区,六本木３丁目２番１号,,13,103,1060032,,,,,,,2023-08-17,1,,,,,ソーラーパーサンジュウニゴウ,0
2073,9010801034261,新規,0,2023-08-17,2023-08-17,株式会社サンアンドサンホールディングス,,株式会社,東京都,大田区,蒲田５丁目２９番６号,,13,111,1440052,,,,,,,2023-08-17,1,,,,,サンアンドサンホールディングス,0
2075,9010803004642,新規,0,2023-08-17,2023-08-17,合同会社木下インベスティング,,合同会社,東京都,大田区,鵜の木１丁目６番１６号,,13,111,1460091,,,,,,,2023-08-17,1,,,,,キノシタインベスティング,0
2077,9010901053657,新規,0,2023-08-17,2023-08-17,ヴェスタホールディングス株式会社,,株式会社,東京都,世田谷区,松原４丁目２番４号,,13,112,1560043,,,,,,,2023-08-17,1,,,,,ヴェスタホールディングス,0
2080,9010903008378,新規,0,2023-08-17,2023-08-17,合同会社ディスコプロダクション,,合同会社,東京都,世田谷区,代田６丁目４番２１号カーサ・マスミＡ棟１０７,,13,112,1550033,,,,,,,2023-08-17,1,,,,,ディスコプロダクション,0
2085,9011001156227,新規,0,2023-08-17,2023-08-17,株式会社ＦＵＫＵＲＯＮ,,株式会社,東京都,渋谷区,神宮前１丁目１５－１ＶＩＡ原宿２０１,,13,113,1500001,,,,,,,2023-08-17,1,,,,,フクロン,0
2086,9011001156391,新規,0,2023-08-17,2023-08-17,株式会社Ａｌｗａｙｓ　ｄｒｅａｍ,,株式会社,東京都,渋谷区,恵比寿南２丁目１０番１－５０３号,,13,113,1500022,,,,,,,2023-08-17,1,,,,,オールウェイズドリーム,0
2091,9011003017369,新規,0,2023-08-17,2023-08-17,合同会社から騒ぎ,,合同会社,東京都,渋谷区,神宮前６丁目２３番４号桑野ビル２階,,13,113,1500001,,,,,,,2023-08-17,1,,,,,カラサワギ,0
2092,9011101104011,新規,0,2023-08-17,2023-08-17,みらい米市場株式会社,,株式会社,東京都,新宿区,市谷左内町５番地,,13,104,1620846,,,,,,,2023-08-17,1,,,,,ミライコメイチバ,0
2098,9012701017800,新規,0,2023-08-17,2023-08-17,株式会社ＬＵＣＫＢＡＳＥ,,株式会社,東京都,小平市,仲町１７６番地の８６,,13,211,1870042,,,,,,,2023-08-17,1,,,,,ラックベース,0
2103,9013301051215,新規,0,2023-08-17,2023-08-17,株式会社クロト,,株式会社,東京都,豊島区,西池袋２丁目３０番２０号,,13,116,1710021,,,,,,,2023-08-17,1,,,,,クロト,0
2108,9020001153068,新規,0,2023-08-17,2023-08-17,株式会社プレシャスワン,,株式会社,神奈川県,横浜市西区,北幸１丁目１１番１号水信ビル７階,,14,103,2200004,,,,,,,2023-08-17,1,,,,,プレシャスワン,0
2109,9020001153118,新規,0,2023-08-17,2023-08-17,Ｐａｒａｒｅａｌ　Ｔｈｅａｔｅｒ株式会社,,株式会社,神奈川県,川崎市宮前区,宮前平２丁目５番地３７,,14,136,2160006,,,,,,,2023-08-17,1,,,,,パラリアルシアター,0
2114,9021001079930,新規,0,2023-08-17,2023-08-17,株式会社ＭＤＨ,,株式会社,神奈川県,平塚市,札場町３９番１号,,14,203,2540802,,,,,,,2023-08-17,1,,,,,エムディーエイチ,0
2115,9021001079939,新規,0,2023-08-17,2023-08-17,ＣＯＮＮＥＣＴ　ＨＥＡＲＴＳ株式会社,,株式会社,神奈川県,厚木市,下依知２丁目１１番６号,,14,212,2430806,,,,,,,2023-08-17,1,,,,,コネクトハーツ,0
2116,9021003013458,新規,0,2023-08-17,2023-08-17,心と身体の健康合同会社,,合同会社,神奈川県,大和市,上和田２８６３番地２アンプルール小川１０３,,14,213,2420014,,,,,,,2023-08-17,1,,,,,ココロトカラダノケンコウ,0
2132,9040001129611,新規,0,2023-08-17,2023-08-17,株式会社アテナ,,株式会社,千葉県,千葉市中央区,村田町４３番地,,12,101,2600825,,,,,,,2023-08-17,1,,,,,アテナ,0
2133,9040001129702,新規,0,2023-08-17,2023-08-17,株式会社ｐｏ‐ｒｕｍ,,株式会社,千葉県,浦安市,当代島１丁目１６番１６－７０５号,,12,227,2790001,,,,,,,2023-08-17,1,,,,,ポーラム,0
2134,9040001129735,新規,0,2023-08-17,2023-08-17,ライズ株式会社,,株式会社,千葉県,流山市,加３丁目６－１－３－２０１,,12,220,2700176,,,,,,,2023-08-17,1,,,,,ライズ,0
2141,9050001053315,新規,0,2023-08-17,2023-08-17,ＳＩＡＬ　ＥＮＴＥＲＰＲＩＳＥＳ株式会社,,株式会社,茨城県,下妻市,南原１２６番地１,,08,210,3040075,,,,,,,2023-08-17,1,,,,,シアルエンタープライズ,0
2142,9060001036252,新規,0,2023-08-17,2023-08-17,やまざきエクステリア株式会社,,株式会社,栃木県,宇都宮市,御田長島町２２０番地,,09,201,3210125,,,,,,,2023-08-17,1,,,,,ヤマザキエクステリア,0
2143,9060001036269,新規,0,2023-08-17,2023-08-17,株式会社ＯＷＥＹＯＵ,,株式会社,栃木県,小山市,駅東通り２丁目４０番２７号,,09,208,3230022,,,,,,,2023-08-17,1,,,,,オーユー,0
2150,9090001018280,新規,0,2023-08-17,2023-08-17,株式会社ＰＡＮＤＡ,,株式会社,山梨県,甲府市,中央４丁目８番２号ウエスギビル４Ｆ,,19,201,4000032,,,,,,,2023-08-17,1,,,,,パンダ,0
2152,9090003002365,新規,0,2023-08-17,2023-08-17,オリンパス合同会社,,合同会社,山梨県,北杜市,武川町牧原１３３２番地１,,19,209,4080302,,,,,,,2023-08-17,1,,,,,オリンパス,0
2156,9100003007148,新規,0,2023-08-17,2023-08-17,合同会社大町みらいクリエイト,,合同会社,長野県,大町市,平６４２６番地１,,20,212,3980001,,,,,,,2023-08-17,1,,,,,オオマチミライクリエイト,0
2157,9110001037773,新規,0,2023-08-17,2023-08-17,株式会社伊藤産業,,株式会社,新潟県,佐渡市,水渡田６５７番地１,,15,224,9521205,,,,,,,2023-08-17,1,,,,,イトウサンギョウ,0
2165,9120001257230,新規,0,2023-08-17,2023-08-17,Ｇｌｏｂａｌ　Ｃｒａｙｆｉｓｈ　Ｊａｐａｎ株式会社,,株式会社,大阪府,大阪市淀川区,新高５丁目１４－２４フジパレス新高１０５号室,,27,123,5320033,,,,,,,2023-08-17,1,,,,,グローバルクレイフィッシュジャパン,0
2166,9120001257338,新規,0,2023-08-17,2023-08-17,株式会社リバナフ,,株式会社,大阪府,大阪市東淀川区,下新庄３丁目４番２７－１００６号,,27,114,5330021,,,,,,,2023-08-17,1,,,,,リバナフ,0
2167,9120001257362,新規,0,2023-08-17,2023-08-17,通玄株式会社,,株式会社,大阪府,大阪市住吉区,長居東４丁目１５－２１－１０３,,27,120,5580004,,,,,,,2023-08-17,1,,,,,ツウゲン,0
2168,9120001257370,新規,0,2023-08-17,2023-08-17,株式会社Ｃｈａｒｍ,,株式会社,大阪府,大阪市北区,南扇町３番２５－２０２号,,27,127,5300052,,,,,,,2023-08-17,1,,,,,チャーム,0
2169,9120001257461,新規,0,2023-08-17,2023-08-17,株式会社アルテラート,,株式会社,大阪府,大阪市中央区,上汐２丁目４番６号上六センタ－ビル２１０号,,27,128,5420064,,,,,,,2023-08-17,1,,,,,アルテラート,0
2171,9120003024752,新規,0,2023-08-17,2023-08-17,合同会社マッドハッター,,合同会社,大阪府,大阪市北区,梅田１丁目２番２号大阪駅前第２ビル１２－１２,,27,127,5300001,,,,,,,2023-08-17,1,,,,,マッドハッター,0
2172,9120005023827,新規,0,2023-08-17,2023-08-17,一般社団法人日本認知症資産相談士協会,,その他の設立登記法人,大阪府,大阪市北区,西天満３丁目１０番３号ＡＲＫ西天満ビル１階,,27,127,5300047,,,,,,,2023-08-17,1,,,,,ニホンニンチショウシサンソウダンシキョウカイ,0
2173,9120101068065,新規,0,2023-08-17,2023-08-17,株式会社Ｋ．Ｍ,,株式会社,大阪府,和泉市,いぶき野４丁目２番２４号,,27,219,5940041,,,,,,,2023-08-17,1,,,,,ケイエム,0
2174,9120101068081,新規,0,2023-08-17,2023-08-17,株式会社ｓｈｏｆｕｋｕ,,株式会社,大阪府,河内長野市,上田町１６番地の１－２Ｆ,,27,216,5860034,,,,,,,2023-08-17,1,,,,,ショウフク,0
2184,9140003019437,新規,0,2023-08-17,2023-08-17,ＣＨＩＬＤ　ＣＡＲＥ合同会社,,合同会社,兵庫県,神戸市中央区,橘通１丁目１番１０－２０５号,,28,110,6500016,,,,,,,2023-08-17,1,,,,,チャイルドケア,0
2203,9200005013514,新規,0,2023-08-17,2023-08-17,一般社団法人岐阜エンターテインメント協会,,その他の設立登記法人,岐阜県,瑞穂市,牛牧５０７番地２,,21,216,5010234,,,,,,,2023-08-17,1,,,,,ギフエンターテインメントキョウカイ,0
2216,9290001102667,新規,0,2023-08-17,2023-08-17,健禾株式会社,,株式会社,福岡県,福岡市西区,豊浜２丁目２３番７－１号,,40,135,8190014,,,,,,,2023-08-17,1,,,,,ケンワ,0
2217,9290001102683,新規,0,2023-08-17,2023-08-17,株式会社Ｕｌｕ,,株式会社,福岡県,宗像市,くりえいと２丁目３番１７号,,40,220,8114184,,,,,,,2023-08-17,1,,,,,ウル,0
2218,9290001102709,新規,0,2023-08-17,2023-08-17,株式会社セブンスター,,株式会社,福岡県,福岡市中央区,天神３丁目６－２４スコーレ第２天神４０６,,40,133,8100001,,,,,,,2023-08-17,1,,,,,セブンスター,0
2219,9290001102717,新規,0,2023-08-17,2023-08-17,ひのひかり株式会社,,株式会社,福岡県,福岡市城南区,別府１丁目２番１号３階,,40,136,8140104,,,,,,,2023-08-17,1,,,,,ヒノヒカリ,0
2225,9360003013203,新規,0,2023-08-17,2023-08-17,合同会社Ｓ＆Ｃ,,合同会社,沖縄県,沖縄市,高原３丁目４番６－１号,,47,211,9042171,,,,,,,2023-08-17,1,,,,,エスアンドシー,0
2227,9370001050305,新規,0,2023-08-17,2023-08-17,株式会社エスアイエイチティー,,株式会社,宮城県,大崎市,古川師山字柳町２３番地１２,,04,215,9896125,,,,,,,2023-08-17,1,,,,,エスアイエイチティー,0
2228,9370001050313,新規,0,2023-08-17,2023-08-17,株式会社司建設,,株式会社,宮城県,登米市,南方町大袋浦４６６番地５,,04,212,9870426,,,,,,,2023-08-17,1,,,,,ツカサケンセツ,0
2237,9430003015365,新規,0,2023-08-17,2023-08-17,合同会社Ｃ．Ａ．Ｅ．Ｉｎｔｅｒｎａｔｉｏｎａｌ,,合同会社,北海道,札幌市中央区,北六条西１１丁目２６番地,,01,101,0600006,,,,,,,2023-08-17,1,,,,,シーエーイーインターナショナル,0
2240,9470005006524,新規,0,2023-08-17,2023-08-17,医療法人社団伊東歯科矯正歯科医院,,その他の設立登記法人,香川県,高松市,浜ノ町９番９号,,37,201,7600011,,,,,,,2023-08-17,1,,,,,イトウシカキョウセイシカイイン,0
