sequenceNumber,corporateNumber,process,correct,updateDate,changeDate,name,nameImageId,kind,prefectureName,cityName,streetNumber,addressImageId,prefectureCode,cityCode,postCode,addressOutside,addressOutsideImageId,closeDate,closeCause,successorCorporateNumber,changeCause,assignmentDate,latest,enName,enPrefectureName,enCityName,enAddressOutside,furigana,hihyoji
5,1010001225247,新規,0,2022-03-17,2022-03-17,株式会社ＨＵＧ,,株式会社,東京都,中央区,日本橋３丁目３番３号八重洲山川ビル２階,,13,102,1030027,,,,,,,2022-03-17,1,,,,,ハグ,0
8,1010003037269,新規,0,2022-03-17,2022-03-17,合同会社Ｒｉｂｅｒｔｅ,,合同会社,東京都,中央区,銀座１丁目１２番地Ｎ＆ＥＢＬＤ．７階,,13,102,1040061,,,,,,,2022-03-17,1,,,,,リベルテ,0
15,1010401166207,新規,0,2022-03-17,2022-03-17,株式会社９９華聯メタバースＣｉｔｙ,,株式会社,東京都,港区,台場２丁目２－４ザ・タワーズ台場イーストクリニックモール３階３０８号,,13,103,1350091,,,,,,,2022-03-17,1,,,,,キュウキュウファーレンメタバースシティー,0
16,1010401166215,新規,0,2022-03-17,2022-03-17,ＮＸＴ株式会社,,株式会社,東京都,港区,南青山２丁目２番１５号ウィン青山９４２,,13,103,1070062,,,,,,,2022-03-17,1,,,,,エヌエックスティー,0
17,1010401166248,新規,0,2022-03-17,2022-03-17,株式会社ハラハチブンメ,,株式会社,東京都,港区,三田１丁目３番４４号,,13,103,1080073,,,,,,,2022-03-17,1,,,,,ハラハチブンメ,0
20,1010403027290,新規,0,2022-03-17,2022-03-17,ＳＱＰ　Ｊａｐａｎ合同会社,,合同会社,東京都,港区,南麻布３丁目１９番２３号オーク南麻布ビル２階,,13,103,1060047,,,,,,,2022-03-17,1,,,,,エスキューピージャパン,0
23,1010601060837,新規,0,2022-03-17,2022-03-17,株式会社ｍｏｒｅ　ｓｋｉｅｓ,,株式会社,東京都,江東区,南砂５丁目１９番２号,,13,108,1360076,,,,,,,2022-03-17,1,,,,,モアスカイズ,0
24,1010601060853,新規,0,2022-03-17,2022-03-17,株式会社ライブジェミニ,,株式会社,東京都,江東区,木場５丁目２－７,,13,108,1350042,,,,,,,2022-03-17,1,,,,,ライブジェミニ,0
30,1010901050538,新規,0,2022-03-17,2022-03-17,株式会社ＷＡＲＩＤＯＲＩ,,株式会社,東京都,世田谷区,弦巻２丁目３－１,,13,112,1540016,,,,,,,2022-03-17,1,,,,,ワリドリ,0
36,1011001146292,新規,0,2022-03-17,2022-03-17,Ｆｉｔｏｎｅ株式会社,,株式会社,東京都,渋谷区,神宮前６丁目２３番４号桑野ビル２階,,13,113,1500001,,,,,,,2022-03-17,1,,,,,フィットワン,0
37,1011001146334,新規,0,2022-03-17,2022-03-17,デズモンド株式会社,,株式会社,東京都,渋谷区,富ヶ谷１丁目１４－１４スタンフォードアネックスビル４階,,13,113,1510063,,,,,,,2022-03-17,1,,,,,デズモンド,0
38,1011001146367,新規,0,2022-03-17,2022-03-17,ニューリジェンセキュリティ株式会社,,株式会社,東京都,渋谷区,神宮前６丁目１２番１８号,,13,113,1500001,,,,,,,2022-03-17,1,,,,,ニューリジェンセキュリティ,0
39,1011001146383,新規,0,2022-03-17,2022-03-17,株式会社ｅｌｅｃｔｒｏｎｉｃ,,株式会社,東京都,渋谷区,宇田川町２０番１７号ＮＭＦ渋谷公園通りビル８Ｆ,,13,113,1500042,,,,,,,2022-03-17,1,,,,,エレクトロニック,0
40,1011001146441,新規,0,2022-03-17,2022-03-17,株式会社Ｔ．Ｃｏ．,,株式会社,東京都,渋谷区,渋谷３丁目１９番１号,,13,113,1500002,,,,,,,2022-03-17,1,,,,,ティードットコー,0
50,1011301027630,新規,0,2022-03-17,2022-03-17,株式会社ＧＡＴＴＡＣＡ,,株式会社,東京都,杉並区,高円寺北３丁目１０番８号,,13,115,1660002,,,,,,,2022-03-17,1,,,,,ガタカ,0
61,1012403005284,新規,0,2022-03-17,2022-03-17,合同会社Ｕ　Ｓｐａｃｅ　Ｗｏｒｋ,,合同会社,東京都,府中市,西原町４丁目２１－１７,,13,206,1830046,,,,,,,2022-03-17,1,,,,,ユースペースワーク,0
62,1012405004714,新規,0,2022-03-17,2022-03-17,医療法人社団Ｋ,,その他の設立登記法人,東京都,調布市,布田１丁目４１番地１菊屋ビル３階３０１号,,13,208,1820024,,,,,,,2022-03-17,1,,,,,ケイ,0
65,1013301048788,新規,0,2022-03-17,2022-03-17,株式会社永泉,,株式会社,東京都,豊島区,目白５丁目１６番１８号,,13,116,1710031,,,,,,,2022-03-17,1,,,,,エイセン,0
66,1013303006083,新規,0,2022-03-17,2022-03-17,合同会社テラ,,合同会社,東京都,豊島区,巣鴨１丁目１１番２－２１６号,,13,116,1700002,,,,,,,2022-03-17,1,,,,,テラ,0
72,1020001145650,新規,0,2022-03-17,2022-03-17,株式会社スタート,,株式会社,神奈川県,川崎市多摩区,登戸３１４－４ドリームハウス登戸第５、３０３号室,,14,135,2140014,,,,,,,2022-03-17,1,,,,,スタート,0
73,1020001145675,新規,0,2022-03-17,2022-03-17,株式会社塙製作所,,株式会社,神奈川県,川崎市高津区,宇奈根７４１番地,,14,134,2130031,,,,,,,2022-03-17,1,,,,,ハニワセイサクショ,0
74,1020001145683,新規,0,2022-03-17,2022-03-17,株式会社Ｔｒｕｓｔ,,株式会社,神奈川県,川崎市多摩区,登戸新町１２５番地４,,14,135,2140013,,,,,,,2022-03-17,1,,,,,トラスト,0
79,1021003011493,新規,0,2022-03-17,2022-03-17,合同会社グラン,,合同会社,神奈川県,厚木市,飯山３０７９番地５,,14,212,2430213,,,,,,,2022-03-17,1,,,,,グラン,0
80,1030001016041,新規,0,2022-03-17,2022-03-17,株式会社ユニファイ,,株式会社,埼玉県,さいたま市浦和区,高砂３丁目１２番２４号,,11,107,3300063,,,,,,,2022-03-17,1,,,,,ユニファイ,0
85,1030001147274,新規,0,2022-03-17,2022-03-17,ＴＡＫＡコーポレーション株式会社,,株式会社,埼玉県,坂戸市,大字北大塚５１８番地１,,11,239,3500253,,,,,,,2022-03-17,1,,,,,タカコーポレーション,0
86,1030001147282,新規,0,2022-03-17,2022-03-17,株式会社ＲＳＤ,,株式会社,埼玉県,和光市,中央２丁目６番２２号,,11,229,3510113,,,,,,,2022-03-17,1,,,,,アールエスディー,0
87,1030001147299,新規,0,2022-03-17,2022-03-17,Ｔｈｅ　ＴＲＵＳＴ株式会社,,株式会社,埼玉県,川越市,大字北田島５５番地,,11,201,3500842,,,,,,,2022-03-17,1,,,,,トラスト,0
96,1040001122598,新規,0,2022-03-17,2022-03-17,株式会社ホクサイ,,株式会社,千葉県,習志野市,大久保１丁目９番１４号,,12,216,2750011,,,,,,,2022-03-17,1,,,,,ホクサイ,0
97,1040001122623,新規,0,2022-03-17,2022-03-17,株式会社マジコ,,株式会社,千葉県,千葉市中央区,蘇我３丁目４３番５号,,12,101,2600822,,,,,,,2022-03-17,1,,,,,マジコ,0
98,1040001122656,新規,0,2022-03-17,2022-03-17,株式会社ａｃｅｒｅｂｒｏ,,株式会社,千葉県,松戸市,平賀２２４－１０,,12,207,2700002,,,,,,,2022-03-17,1,,,,,エスレブロ,0
104,1050003006435,新規,0,2022-03-17,2022-03-17,合同会社ＡＢＥ　ＭＯＴＯＲＳ,,合同会社,茨城県,笠間市,押辺２０２３番地３２,,08,216,3190205,,,,,,,2022-03-17,1,,,,,アベモータース,0
108,1070001039055,新規,0,2022-03-17,2022-03-17,株式会社ジーシーシーアグリテック,,株式会社,群馬県,前橋市,上大島町９６番地,,10,201,3792153,,,,,,,2022-03-17,1,,,,,ジーシーシーアグリテック,0
112,1080105006231,新規,0,2022-03-17,2022-03-17,一般社団法人蓮の森,,その他の設立登記法人,静岡県,沼津市,五月町１０番１５号メゾンドエトワール２０３,,22,203,4100044,,,,,,,2022-03-17,1,,,,,ハスノモリ,0
132,1120001244533,新規,0,2022-03-17,2022-03-17,レッドブライト株式会社,,株式会社,大阪府,大阪市天王寺区,玉造本町１３番１３－１１０３号,,27,109,5430013,,,,,,,2022-03-17,1,,,,,レッドブライト,0
133,1120001244566,新規,0,2022-03-17,2022-03-17,株式会社ＦＣホールディングス,,株式会社,大阪府,大阪市中央区,南船場４丁目３番２号,,27,128,5420081,,,,,,,2022-03-17,1,,,,,エフシーホールディングス,0
137,1120903004068,新規,0,2022-03-17,2022-03-17,アイオライト合同会社,,合同会社,大阪府,高槻市,浦堂２丁目２番２号Ｖｅｒｄｉｒ１０３号,,27,207,5691027,,,,,,,2022-03-17,1,,,,,アイオライト,0
139,1130001071349,新規,0,2022-03-17,2022-03-17,株式会社コメウプロパティ,,株式会社,京都府,京都市中京区,夷川通富小路西入俵屋町２９６－６０１,,26,104,6040966,,,,,,,2022-03-17,1,,,,,コメウプロパティ,0
140,1130001071357,新規,0,2022-03-17,2022-03-17,Ｏｚ　ｆｉｎａｎｃｉａｌ株式会社,,株式会社,京都府,京都市中京区,高倉通三条下る丸屋町１７０番地プリオーレ京都三条高倉２０７号室,,26,104,6048132,,,,,,,2022-03-17,1,,,,,オズフィナンシャル,0
145,1140001125260,新規,0,2022-03-17,2022-03-17,株式会社ＩＣ,,株式会社,兵庫県,姫路市,上大野６丁目５番１３号,,28,201,6700896,,,,,,,2022-03-17,1,,,,,アイシー,0
146,1140001125269,新規,0,2022-03-17,2022-03-17,株式会社Ｔｆｒｅｅｃ,,株式会社,兵庫県,姫路市,飾磨区野田町６２番地１,,28,201,6728040,,,,,,,2022-03-17,1,,,,,ティフリーク,0
149,1140003017456,新規,0,2022-03-17,2022-03-17,合同会社ｌｉｖｅｌｙ,,合同会社,兵庫県,神戸市北区,菖蒲が丘２丁目２番地の６,,28,109,6511306,,,,,,,2022-03-17,1,,,,,ライブリー,0
150,1140003017464,新規,0,2022-03-17,2022-03-17,合同会社ＷａＳａＢｉ,,合同会社,兵庫県,赤穂郡上郡町,尾長谷１９６,,28,481,6781203,,,,,,,2022-03-17,1,,,,,ワサビ,0
152,1140005026075,新規,0,2022-03-17,2022-03-17,淡路市地域づくり事業協同組合,,その他の設立登記法人,兵庫県,淡路市,久留麻２２０４番地１,,28,226,6562311,,,,,,,2022-03-17,1,,,,,アワジシチイキヅクリ,0
154,1150003002639,新規,0,2022-03-17,2022-03-17,Ｔ＆Ｂ合同会社,,合同会社,奈良県,奈良市,大宮町２丁目３番１０号東急ドエル奈良パークビレッジ１０棟１０５号,,29,201,6308115,,,,,,,2022-03-17,1,,,,,ティーアンドビー,0
159,1180001150420,新規,0,2022-03-17,2022-03-17,株式会社ＰＬＡＹ　ＷＯＲＫ,,株式会社,愛知県,稲沢市,松下２丁目２２番１９号,,23,220,4928208,,,,,,,2022-03-17,1,,,,,プレイワーク,0
160,1180001150437,新規,0,2022-03-17,2022-03-17,株式会社ＨＡＳＳＡＮ　ＭＯＴＯＲ,,株式会社,愛知県,名古屋市守山区,瀬古東２丁目８３０番地内山コーポ３階,,23,113,4630090,,,,,,,2022-03-17,1,,,,,ハサンモーター,0
161,1180001150445,新規,0,2022-03-17,2022-03-17,株式会社ＢＬＵＥ　ＳＡＫＵＲＡ,,株式会社,愛知県,愛西市,西保町西川原１７７番地３４,,23,232,4960911,,,,,,,2022-03-17,1,,,,,ブルーサクラ,0
165,1180303005280,新規,0,2022-03-17,2022-03-17,エヌケー電設合同会社,,合同会社,愛知県,豊田市,上丘町八ツ田２９番地１,,23,211,4730931,,,,,,,2022-03-17,1,,,,,エヌケーデンセツ,0
167,1190001029234,新規,0,2022-03-17,2022-03-17,株式会社鈴木総業,,株式会社,三重県,四日市市,午起２丁目３番２４号,,24,202,5100023,,,,,,,2022-03-17,1,,,,,スズキソウギョウ,0
172,1210001018845,新規,0,2022-03-17,2022-03-17,株式会社ジャパンアルミ,,株式会社,福井県,南条郡南越前町,河野第３０号１番地１,,18,404,9151111,,,,,,,2022-03-17,1,,,,,ジャパンアルミ,0
175,1220003003241,新規,0,2022-03-17,2022-03-17,デパチャ合同会社,,合同会社,石川県,金沢市,泉本町７丁目３番地１,,17,201,9218042,,,,,,,2022-03-17,1,,,,,デパチャ,0
180,1230003001822,新規,0,2022-03-17,2022-03-17,合同会社ＭＥＰ,,合同会社,富山県,富山市,堀川本郷６０番地６６,,16,201,9398049,,,,,,,2022-03-17,1,,,,,エムイーピイ,0
182,1260005011049,新規,0,2022-03-17,2022-03-17,社会保険労務士法人ヒューマンアセット,,その他の設立登記法人,岡山県,岡山市北区,西古松２丁目２６番２２号,,33,101,7000927,,,,,,,2022-03-17,1,,,,,ヒューマンアセット,0
183,1270001008477,新規,0,2022-03-17,2022-03-17,株式会社ＡＮＤＭＯＲＥ　ＪＡＰＡＮ,,株式会社,鳥取県,鳥取市,富安２丁目２５番地２,,31,201,6800845,,,,,,,2022-03-17,1,,,,,アンドモアジャパン,0
184,1280003001594,新規,0,2022-03-17,2022-03-17,三協林業合同会社,,合同会社,島根県,大田市,仁摩町大国４２３,,32,205,6992303,,,,,,,2022-03-17,1,,,,,サンキョウリンギョウ,0
187,1290001096842,新規,0,2022-03-17,2022-03-17,株式会社ＴＡＣＫ,,株式会社,福岡県,福岡市南区,曰佐４丁目３４番１号,,40,134,8111313,,,,,,,2022-03-17,1,,,,,タック,0
188,1290001096850,新規,0,2022-03-17,2022-03-17,株式会社大聖産業,,株式会社,福岡県,太宰府市,五条４丁目１５番６－１０２号,,40,221,8180125,,,,,,,2022-03-17,1,,,,,タイセイサンギョウ,0
189,1290003012293,新規,0,2022-03-17,2022-03-17,合同会社マゼリンク,,合同会社,福岡県,福岡市博多区,美野島２丁目２６－３１－１,,40,132,8120017,,,,,,,2022-03-17,1,,,,,マゼリンク,0
195,1330005010480,新規,0,2022-03-17,2022-03-17,ＮＰＯ法人川尻スポーツクラブ,,その他の設立登記法人,熊本県,熊本市南区,野田２丁目２４番２８号,,43,104,8614114,,,,,,,2022-03-17,1,,,,,カワシリスポーツクラブ,0
220,1430003013723,新規,0,2022-03-17,2022-03-17,合同会社アドバンスマネジメント,,合同会社,北海道,札幌市南区,石山二条９丁目１番７号,,01,106,0050842,,,,,,,2022-03-17,1,,,,,アドバンスマネジメント,0
234,2010001225262,新規,0,2022-03-17,2022-03-17,ラクリア株式会社,,株式会社,東京都,中央区,八重洲２丁目１１番２号,,13,102,1040028,,,,,,,2022-03-17,1,,,,,ラクリア,0
235,2010001225279,新規,0,2022-03-17,2022-03-17,エヌビービーマラガリース株式会社,,株式会社,東京都,中央区,日本橋浜町３丁目３番２号,,13,102,1030007,,,,,,,2022-03-17,1,,,,,エヌビービーマラガリース,0
238,2010003037268,新規,0,2022-03-17,2022-03-17,Ｍｕｓｉｃ　ｔｈｅｒａｐｙ合同会社,,合同会社,東京都,中央区,銀座１丁目２２番１１号銀座大竹ビジデンス２階,,13,102,1040061,,,,,,,2022-03-17,1,,,,,ミュージックセラピー,0
239,2010105002153,新規,0,2022-03-17,2022-03-17,一般社団法人ＣＨＵＯ　ＢＡＳＫＥＴＢＡＬＬ　ＣＬＵＢ,,その他の設立登記法人,東京都,八王子市,別所１丁目６４番地９,,13,201,1920363,,,,,,,2022-03-17,1,,,,,チュウオウバスケットボールクラブ,0
245,2010401166197,新規,0,2022-03-17,2022-03-17,株式会社５１０,,株式会社,東京都,港区,三田１－３－４０天翔オフィス麻布十番５０３,,13,103,1050000,,,,,,,2022-03-17,1,,,,,ファイブテン,0
246,2010401166214,新規,0,2022-03-17,2022-03-17,ワイヤードジャパン株式会社,,株式会社,東京都,港区,白金台５丁目１１番３号,,13,103,1080071,,,,,,,2022-03-17,1,,,,,ワイヤードジャパン,0
247,2010401166247,新規,0,2022-03-17,2022-03-17,株式会社加速,,株式会社,東京都,港区,麻布十番２丁目２０番２号,,13,103,1060045,,,,,,,2022-03-17,1,,,,,カソク,0
248,2010401166255,新規,0,2022-03-17,2022-03-17,株式会社スターリニア,,株式会社,東京都,港区,六本木７丁目７番７号トライセブンロッポンギ８階,,13,103,1060032,,,,,,,2022-03-17,1,,,,,スターリニア,0
249,2010401166271,新規,0,2022-03-17,2022-03-17,株式会社コーラルテック,,株式会社,東京都,港区,南青山２丁目２番１５号ウィン青山９４２,,13,103,1070062,,,,,,,2022-03-17,1,,,,,コーラルテック,0
251,2010405020813,新規,0,2022-03-17,2022-03-17,一般社団法人橘麗会,,その他の設立登記法人,東京都,港区,麻布十番１丁目６番５号ラミュウーズビル５Ｆ,,13,103,1060045,,,,,,,2022-03-17,1,,,,,キツレイカイ,0
255,2010601060836,新規,0,2022-03-17,2022-03-17,株式会社ＳＯＲＡ,,株式会社,東京都,江東区,永代２丁目７番６号,,13,108,1350034,,,,,,,2022-03-17,1,,,,,ソラ,0
259,2010801032809,新規,0,2022-03-17,2022-03-17,株式会社Ｄ．Ａ．Ｃ,,株式会社,東京都,大田区,石川町２丁目７番１９号,,13,111,1450061,,,,,,,2022-03-17,1,,,,,ディーエーシー,0
263,2010901050520,新規,0,2022-03-17,2022-03-17,ポルトガル株式会社,,株式会社,東京都,世田谷区,北沢１丁目６番１８号,,13,112,1550031,,,,,,,2022-03-17,1,,,,,ポルトガル,0
265,2011001146168,新規,0,2022-03-17,2022-03-17,株式会社パパゲーノ,,株式会社,東京都,渋谷区,神宮前６丁目２３番４号桑野ビル２階,,13,113,1500001,,,,,,,2022-03-17,1,,,,,パパゲーノ,0
266,2011001146300,新規,0,2022-03-17,2022-03-17,株式会社ＹＭＣＹ,,株式会社,東京都,目黒区,緑が丘３丁目５番５号,,13,110,1520034,,,,,,,2022-03-17,1,,,,,ワイエムシーワイ,0
267,2011001146317,新規,0,2022-03-17,2022-03-17,株式会社ＡｒｉｚｅＲｅａｌｉｚｅ,,株式会社,東京都,渋谷区,神宮前６丁目２３番４号桑野ビル２階,,13,113,1500001,,,,,,,2022-03-17,1,,,,,アライズリアライズ,0
268,2011001146325,新規,0,2022-03-17,2022-03-17,騰盈商事株式会社,,株式会社,東京都,渋谷区,本町１丁目６０番３号ＫＢＤタックビル００５号室,,13,113,1510071,,,,,,,2022-03-17,1,,,,,トウエイショウジ,0
270,2011003014348,新規,0,2022-03-17,2022-03-17,合同会社ティーピーホールディングス,,合同会社,東京都,渋谷区,上原３丁目６番１１―２０６号,,13,113,1510064,,,,,,,2022-03-17,1,,,,,ティーピーホールディングス,0
271,2011003014356,新規,0,2022-03-17,2022-03-17,合同会社バズーカバズーカ,,合同会社,東京都,渋谷区,道玄坂１丁目１０－８渋谷道玄坂東急ビル２Ｆ－Ｃ,,13,113,1500043,,,,,,,2022-03-17,1,,,,,バズーカバズーカ,0
273,2011101098193,新規,0,2022-03-17,2022-03-17,ＺＩＨＥＮ株式会社,,株式会社,東京都,新宿区,西新宿６丁目１５番１号セントラルパークタワー・ラ・トゥール新宿７０１号室,,13,104,1600023,,,,,,,2022-03-17,1,,,,,ジヘン,0
275,2011303004338,新規,0,2022-03-17,2022-03-17,Ａ＆Ａ　ＢＲＯＴＨＥＲＳ合同会社,,合同会社,東京都,杉並区,天沼１丁目１６番１－１０１号,,13,115,1670032,,,,,,,2022-03-17,1,,,,,エーアンドエーブラザーズ,0
276,2011501027842,新規,0,2022-03-17,2022-03-17,Ｙ・Ｔ株式会社,,株式会社,東京都,北区,西が丘１丁目３２番１－１０１号プラーナハイツ,,13,117,1150056,,,,,,,2022-03-17,1,,,,,ワイティー,0
277,2011603003551,新規,0,2022-03-17,2022-03-17,山河合同会社,,合同会社,東京都,練馬区,高野台２丁目２７番１２号,,13,120,1770033,,,,,,,2022-03-17,1,,,,,サンガ,0
278,2011701025134,新規,0,2022-03-17,2022-03-17,株式会社ディービーブイ,,株式会社,東京都,江戸川区,中葛西３丁目３５番地１４号３０２号ハイライズ吉野,,13,123,1340083,,,,,,,2022-03-17,1,,,,,ディービーブイ,0
295,2020003021460,新規,0,2022-03-17,2022-03-17,鷺山商事合同会社,,合同会社,神奈川県,横浜市中区,鷺山２９番地,,14,104,2310848,,,,,,,2022-03-17,1,,,,,サギヤマショウジ,0
306,2030001147307,新規,0,2022-03-17,2022-03-17,株式会社ＲＫ,,株式会社,埼玉県,羽生市,大字藤井上組７４７番地１５,,11,216,3480064,,,,,,,2022-03-17,1,,,,,アールケイ,0
311,2030003019025,新規,0,2022-03-17,2022-03-17,ノームスコア合同会社,,合同会社,埼玉県,草加市,長栄３丁目３６番地２１,,11,221,3400051,,,,,,,2022-03-17,1,,,,,ノームスコア,0
312,2030003019041,新規,0,2022-03-17,2022-03-17,ＣＴ‐Ｌｉｆｅ合同会社,,合同会社,埼玉県,志木市,本町１丁目６番１１－１０１号,,11,228,3530004,,,,,,,2022-03-17,1,,,,,シーティーライフ,0
318,2040001122589,新規,0,2022-03-17,2022-03-17,株式会社Ｍ・Ａ・Ｂ・Ｌ,,株式会社,千葉県,松戸市,二十世紀が丘美野里町２３２番地セレ東美野１０２号,,12,207,2710081,,,,,,,2022-03-17,1,,,,,エムエービーエル,0
319,2040001122655,新規,0,2022-03-17,2022-03-17,株式会社ＣＵＣＵＲＯプリモ,,株式会社,千葉県,柏市,大室２丁目１６番地３０グランルーチェＩＩ－２０１号,00125995,12,217,2770813,,,,,,,2022-03-17,1,,,,,ククロプリモ,0
321,2040003019619,新規,0,2022-03-17,2022-03-17,合同会社オリーブ,,合同会社,千葉県,山武郡九十九里町,片貝１６１３,,12,403,2830104,,,,,,,2022-03-17,1,,,,,オリーブ,0
322,2040003019692,新規,0,2022-03-17,2022-03-17,曼翔文窯合同会社,,合同会社,千葉県,船橋市,西船４丁目１４番１２号,,12,204,2730031,,,,,,,2022-03-17,1,,,,,マンシャンブンヨウ,0
323,2050001050806,新規,0,2022-03-17,2022-03-17,株式会社アークエンジ,,株式会社,茨城県,日立市,十王町伊師３８９１番地６,,08,202,3191301,,,,,,,2022-03-17,1,,,,,アークエンジ,0
327,2060001034667,新規,0,2022-03-17,2022-03-17,颯建築工房株式会社,,株式会社,栃木県,宇都宮市,横田新町２４番１１号,,09,201,3210105,,,,,,,2022-03-17,1,,,,,ハヤテケンチクコウボウ,0
339,2100003006461,新規,0,2022-03-17,2022-03-17,アイコニックジャパン合同会社,,合同会社,長野県,飯田市,座光寺４５８０番地１－Ｃ号,,20,205,3950001,,,,,,,2022-03-17,1,,,,,アイコニックジャパン,0
352,2120001244490,新規,0,2022-03-17,2022-03-17,株式会社バンク・オブ・ワールド,,株式会社,大阪府,大阪市東淀川区,菅原７丁目７番３号,,27,114,5330022,,,,,,,2022-03-17,1,,,,,バンクオブワールド,0
353,2120001244516,新規,0,2022-03-17,2022-03-17,株式会社ＬＥＧＡＭＩ,,株式会社,大阪府,大阪市西区,西本町１丁目４番１号オリックス本町ビル４階,,27,106,5500005,,,,,,,2022-03-17,1,,,,,レガーミ,0
354,2120001244524,新規,0,2022-03-17,2022-03-17,株式会社ＴＲＪ,,株式会社,大阪府,大阪市生野区,桃谷２丁目２１番２５号,,27,116,5440034,,,,,,,2022-03-17,1,,,,,ティーアールジェイ,0
361,2120101065234,新規,0,2022-03-17,2022-03-17,株式会社Ｉｚｕｍｉ,,株式会社,大阪府,岸和田市,下松町９６８番地の１,,27,202,5960823,,,,,,,2022-03-17,1,,,,,イズミ,0
362,2120101065250,新規,0,2022-03-17,2022-03-17,株式会社ＩＷＡＳＡＫＩ,,株式会社,大阪府,堺市堺区,御陵通１番２８号,,27,141,5900057,,,,,,,2022-03-17,1,,,,,イワサキ,0
364,2120903004067,新規,0,2022-03-17,2022-03-17,合同会社Ｒａｉｎｂｏｗ,,合同会社,大阪府,吹田市,藤が丘町１９番４４号,,27,205,5640081,,,,,,,2022-03-17,1,,,,,レインボー,0
365,2122003002298,新規,0,2022-03-17,2022-03-17,みやこ合同会社,,合同会社,大阪府,東大阪市,稲田本町１丁目３番４８号,,27,227,5770007,,,,,,,2022-03-17,1,,,,,ミヤコ,0
370,2130003007812,新規,0,2022-03-17,2022-03-17,ＣＰ＆Ｂマネジメントパートナー合同会社,,合同会社,京都府,京都市下京区,烏丸通仏光寺下る大政所町６８０番地１第八長谷ビル２階２０５,,26,106,6008413,,,,,,,2022-03-17,1,,,,,シーピーアンドビーマネジメントパートナー,0
376,2140001125268,新規,0,2022-03-17,2022-03-17,姫東株式会社,,株式会社,兵庫県,姫路市,安田４丁目３０番地１０,,28,201,6700955,,,,,,,2022-03-17,1,,,,,キトウ,0
377,2140001125284,新規,0,2022-03-17,2022-03-17,株式会社八幡造園,,株式会社,兵庫県,揖保郡太子町,山田１５６番地,,28,464,6711501,,,,,,,2022-03-17,1,,,,,ヤハタゾウエン,0
378,2140001125292,新規,0,2022-03-17,2022-03-17,株式会社Ｌｕｃｅ　ｐｒｏｐｅｒｔｙ,,株式会社,兵庫県,神戸市中央区,北長狭通２丁目６番６号,,28,110,6500012,,,,,,,2022-03-17,1,,,,,ルーチェプロパティ,0
380,2140003017463,新規,0,2022-03-17,2022-03-17,コマドリメディカルドリーム合同会社,,合同会社,兵庫県,西宮市,丸橋町１番２３号,,28,204,6620831,,,,,,,2022-03-17,1,,,,,コマドリメディカルドリーム,0
382,2140005026074,新規,0,2022-03-17,2022-03-17,医療法人社団はこぎ歯科,,その他の設立登記法人,兵庫県,洲本市,上物部１丁目７番２５号,,28,205,6560053,,,,,,,2022-03-17,1,,,,,ハコギシカ,0
392,2180001150428,新規,0,2022-03-17,2022-03-17,東海共栄株式会社,,株式会社,愛知県,名古屋市中村区,栄生町１６番３１号,,23,105,4530033,,,,,,,2022-03-17,1,,,,,トウカイキョウエイ,0
393,2180001150452,新規,0,2022-03-17,2022-03-17,シャイン・ビューティー株式会社,,株式会社,愛知県,名古屋市中村区,中村町２丁目７１番地,,23,105,4530053,,,,,,,2022-03-17,1,,,,,シャインビューティー,0
398,2180005019685,新規,0,2022-03-17,2022-03-17,一般社団法人愛知県中学校テニス連盟,,その他の設立登記法人,愛知県,瀬戸市,せいれい町２番地（聖霊中学校）,,23,204,4890863,,,,,,,2022-03-17,1,,,,,アイチケンチュウガッコウテニスレンメイ,0
414,2240001059464,新規,0,2022-03-17,2022-03-17,株式会社エッジパイオニア,,株式会社,広島県,広島市西区,高須台１丁目１番２５号,,34,104,7330876,,,,,,,2022-03-17,1,,,,,エッジパイオニア,0
422,2290001096800,新規,0,2022-03-17,2022-03-17,株式会社ＷＨＩＴＥ　ＡＩＲ　ｔｏｔａｌ　ｂｅａｕｔｙ,,株式会社,福岡県,福岡市博多区,住吉２丁目４番７号レジデンス博多９階,,40,132,8120018,,,,,,,2022-03-17,1,,,,,ホワイトエアトータルビューティー,0
423,2290001096841,新規,0,2022-03-17,2022-03-17,マーケティングジャパン株式会社,,株式会社,福岡県,福岡市博多区,博多駅東１丁目９番１１号大成博多駅東ビル３階,,40,132,8120013,,,,,,,2022-03-17,1,,,,,マーケティングジャパン,0
425,2300001012838,新規,0,2022-03-17,2022-03-17,株式会社瞬ｓｈｕｎ,,株式会社,佐賀県,多久市,北多久町大字小侍１８７２番地８,,41,204,8460002,,,,,,,2022-03-17,1,,,,,シュン,0
428,2320001018965,新規,0,2022-03-17,2022-03-17,株式会社大義,,株式会社,大分県,別府市,浜町４番５号シーサイドビルＢ３５１号,,44,202,8740945,,,,,,,2022-03-17,1,,,,,タイギ,0
436,2340001024573,新規,0,2022-03-17,2022-03-17,Ｆｏｒ　Ａｌｌ　Ｄｏｇｓ株式会社,,株式会社,鹿児島県,鹿児島市,田上台３丁目６８番１号,,46,201,8900036,,,,,,,2022-03-17,1,,,,,フォーオールドッグス,0
440,2370001048322,新規,0,2022-03-17,2022-03-17,株式会社ｓａｃ　Ｆｅｌｉｃｅ,,株式会社,宮城県,仙台市青葉区,上杉３丁目１番４４号パントリー上杉１０７号,,04,101,9800011,,,,,,,2022-03-17,1,,,,,サックフェリーチェ,0
441,2370001048330,新規,0,2022-03-17,2022-03-17,株式会社オートスタイル,,株式会社,宮城県,大崎市,古川飯川字十文字３４番地１,,04,215,9896203,,,,,,,2022-03-17,1,,,,,オートスタイル,0
445,2380001032655,新規,0,2022-03-17,2022-03-17,株式会社和幸,,株式会社,福島県,耶麻郡磐梯町,大字磐梯字金上壇２６１２番地３,,07,407,9693301,,,,,,,2022-03-17,1,,,,,ワコウ,0
453,2420005007797,新規,0,2022-03-17,2022-03-17,一般社団法人ねぶた屋,,その他の設立登記法人,青森県,青森市,安方１丁目５番６号,,02,201,0300803,,,,,,,2022-03-17,1,,,,,ネブタヤ,0
456,2430003013714,新規,0,2022-03-17,2022-03-17,札幌ホームメンテナンス合同会社,,合同会社,北海道,札幌市北区,屯田八条１０丁目３番９号,,01,102,0020858,,,,,,,2022-03-17,1,,,,,サッポロホームメンテナンス,0
457,2430003013722,新規,0,2022-03-17,2022-03-17,合同会社ＥＮｉ,,合同会社,北海道,札幌市清田区,美しが丘二条７丁目３番８号,,01,110,0040812,,,,,,,2022-03-17,1,,,,,エニ,0
461,2470003002151,新規,0,2022-03-17,2022-03-17,合同会社ＹＳ,,合同会社,香川県,仲多度郡多度津町,大字三井４０１番地８,,37,404,7640032,,,,,,,2022-03-17,1,,,,,ワイズ,0
471,3010001225328,新規,0,2022-03-17,2022-03-17,株式会社押木商事,,株式会社,東京都,千代田区,二番町７番地８－２０５号,,13,101,1020084,,,,,,,2022-03-17,1,,,,,オシキショウジ,0
479,3010005034741,新規,0,2022-03-17,2022-03-17,一般社団法人ＪＢＣ,,その他の設立登記法人,東京都,文京区,後楽１丁目３番６１号,,13,105,1120004,,,,,,,2022-03-17,1,,,,,ジェイビーシー,0
480,3010101015109,新規,0,2022-03-17,2022-03-17,株式会社アルベロフェリーチェ,,株式会社,東京都,八王子市,下柚木２丁目１８番地１６,,13,201,1920372,,,,,,,2022-03-17,1,,,,,アルベロフェリーチェ,0
490,3010401166221,新規,0,2022-03-17,2022-03-17,日本コンサルティング株式会社,,株式会社,東京都,港区,東新橋１丁目５番２号,,13,103,1050021,,,,,,,2022-03-17,1,,,,,ニホンコンサルティング,0
491,3010401166238,新規,0,2022-03-17,2022-03-17,株式会社ｃｈａｒｍ　ｓｏｎｉｃ,,株式会社,東京都,港区,赤坂２丁目１７番５０号,,13,103,1070052,,,,,,,2022-03-17,1,,,,,チャームソニック,0
492,3010403027306,新規,0,2022-03-17,2022-03-17,合同会社リバーベイリーシング,,合同会社,東京都,港区,六本木６丁目１０番１号六本木ヒルズ森タワー,,13,103,1060032,,,,,,,2022-03-17,1,,,,,リバーベイリーシング,0
494,3010405020820,新規,0,2022-03-17,2022-03-17,特定目的会社リバーベイプロパティーズ,,その他の設立登記法人,東京都,港区,六本木６丁目１０番１号六本木ヒルズ森タワー,,13,103,1060032,,,,,,,2022-03-17,1,,,,,リバーベイプロパティーズ,0
497,3010601060827,新規,0,2022-03-17,2022-03-17,株式会社サイトウ,,株式会社,東京都,江東区,亀戸６丁目３１番１－２２１１号,,13,108,1360071,,,,,,,2022-03-17,1,,,,,サイトウ,0
498,3010601060835,新規,0,2022-03-17,2022-03-17,株式会社ＳＴＲＯＢＯＬＩＧＨＴＳ,,株式会社,東京都,江東区,亀戸３丁目４５番１８号亀戸三丁目ビル１階,,13,108,1360071,,,,,,,2022-03-17,1,,,,,ストロボライツ,0
505,3010801032808,新規,0,2022-03-17,2022-03-17,株式会社ＬＥＡＦ　ＦＡＣＴＯＲＹ　ＴＯＫＹＯ,,株式会社,東京都,大田区,羽田２丁目１０番１２号,,13,111,1440043,,,,,,,2022-03-17,1,,,,,リーフファクトリートウキョウ,0
512,3010903007237,新規,0,2022-03-17,2022-03-17,Ｒ　ｐｒｏｄｕｃｔｉｏｎ合同会社,,合同会社,東京都,世田谷区,岡本１丁目１番１７－３０５号,,13,112,1570076,,,,,,,2022-03-17,1,,,,,アールプロダクション,0
522,3011001146365,新規,0,2022-03-17,2022-03-17,株式会社ＫＯＮ‐ＲＵＳＨ,,株式会社,東京都,目黒区,碑文谷１丁目１７番５号,,13,110,1520003,,,,,,,2022-03-17,1,,,,,コンラッシュ,0
523,3011005009477,新規,0,2022-03-17,2022-03-17,医療法人社団ＡＮＧ,,その他の設立登記法人,東京都,渋谷区,渋谷１丁目２３番１６号Ｃｏｃｏｔｉ３階,,13,113,1500002,,,,,,,2022-03-17,1,,,,,アンジー,0
524,3011101098143,新規,0,2022-03-17,2022-03-17,株式会社インターワーク,,株式会社,東京都,新宿区,四谷２丁目１１番地大村ビル７階,,13,104,1600004,,,,,,,2022-03-17,1,,,,,インターワーク,0
525,3011101098192,新規,0,2022-03-17,2022-03-17,株式会社Ｂｅｅ３,,株式会社,東京都,新宿区,歌舞伎町２丁目３０番１３号,,13,104,1600021,,,,,,,2022-03-17,1,,,,,ビースリー,0
526,3011301027612,新規,0,2022-03-17,2022-03-17,エンデンビースト株式会社,,株式会社,東京都,杉並区,上高井戸３丁目１－１６－２０３,,13,115,1680074,,,,,,,2022-03-17,1,,,,,エンデンビースト,0
527,3011301027629,新規,0,2022-03-17,2022-03-17,株式会社ナカムラ,,株式会社,東京都,杉並区,西荻南３丁目８－８ＣＯＣＯＳＰＡＣＥ２０２,,13,115,1670053,,,,,,,2022-03-17,1,,,,,ナカムラ,0
528,3011301027637,新規,0,2022-03-17,2022-03-17,株式会社クロコ,,株式会社,東京都,杉並区,成田東５丁目２６番１１号マナメゾン南阿佐ヶ谷２０１,,13,115,1660015,,,,,,,2022-03-17,1,,,,,クロコ,0
529,3011501027841,新規,0,2022-03-17,2022-03-17,株式会社瑛哉会,,株式会社,東京都,荒川区,西日暮里１丁目１１番７号,,13,118,1160013,,,,,,,2022-03-17,1,,,,,エイサイカイ,0
535,3011801040461,新規,0,2022-03-17,2022-03-17,Ｏｖｅｒ　Ｚ　Ｔｏｐ株式会社,,株式会社,東京都,足立区,西新井栄町２丁目７番１０－６０２号,,13,121,1230843,,,,,,,2022-03-17,1,,,,,オーバーザトップ,0
537,3012401038961,新規,0,2022-03-17,2022-03-17,今日イングリッシュ株式会社,,株式会社,東京都,狛江市,猪方３丁目１３番１－７号,,13,219,2010015,,,,,,,2022-03-17,1,,,,,キョウイングリッシュ,0
540,3012703002426,新規,0,2022-03-17,2022-03-17,インテグリティコンサルティング合同会社,,合同会社,東京都,西東京市,東町６丁目３番１０号,,13,229,2020012,,,,,,,2022-03-17,1,,,,,インテグリティコンサルティング,0
548,3020001145665,新規,0,2022-03-17,2022-03-17,株式会社ＤＡＮＫ,,株式会社,神奈川県,横浜市都筑区,大棚町３４２番地１,,14,118,2240027,,,,,,,2022-03-17,1,,,,,ダンク,0
549,3020001145673,新規,0,2022-03-17,2022-03-17,株式会社山八,,株式会社,神奈川県,横浜市港北区,箕輪町３丁目８番１３号,,14,109,2230051,,,,,,,2022-03-17,1,,,,,ヤマハチ,0
552,3020005015419,新規,0,2022-03-17,2022-03-17,一般社団法人ＹＳＹボールルームダンス研究機構,,その他の設立登記法人,神奈川県,横浜市中区,住吉町５丁目５７番地,,14,104,2310013,,,,,,,2022-03-17,1,,,,,ワイエスワイボールルームダンスケンキュウキコウ,0
562,3030003019040,新規,0,2022-03-17,2022-03-17,合同会社１１‐１２,,合同会社,埼玉県,さいたま市大宮区,三橋３丁目２０１番地ホワイトフラットＥ,,11,103,3300856,,,,,,,2022-03-17,1,,,,,イレブントゥエルヴ,0
565,3040001122646,新規,0,2022-03-17,2022-03-17,キューデバイステクノロジー株式会社,,株式会社,千葉県,市原市,山田６１４,,12,219,2900205,,,,,,,2022-03-17,1,,,,,キューデバイステクノロジー,0
566,3040001122654,新規,0,2022-03-17,2022-03-17,株式会社ＰＬＵＳ　ＯＮＥ,,株式会社,千葉県,船橋市,海神町南１丁目１６４１番地カンタベリーベル３０４号,,12,204,2730024,,,,,,,2022-03-17,1,,,,,プラスワン,0
571,3050001050805,新規,0,2022-03-17,2022-03-17,株式会社ＧＦＳ,,株式会社,茨城県,つくば市,吾妻１丁目５番７号ダイワロイネットホテル１Ｆ,,08,220,3050031,,,,,,,2022-03-17,1,,,,,ジーエフエス,0
573,3050003006441,新規,0,2022-03-17,2022-03-17,合同会社ロイヤルオート,,合同会社,茨城県,那珂市,豊喰１４１番地７,,08,226,3110117,,,,,,,2022-03-17,1,,,,,ロイヤルオート,0
578,3060003003982,新規,0,2022-03-17,2022-03-17,合同会社Ｓ．ｂｒａｎｄｉｎｇ,,合同会社,栃木県,栃木市,大平町新９８４番地５,,09,203,3294425,,,,,,,2022-03-17,1,,,,,エスブランディング,0
581,3070003004427,新規,0,2022-03-17,2022-03-17,合同会社ｆ’ソリューション,,合同会社,群馬県,北群馬郡榛東村,大字新井２６５３番地６,,10,344,3703503,,,,,,,2022-03-17,1,,,,,エフソリューション,0
586,3100003006460,新規,0,2022-03-17,2022-03-17,ＳＮＯＷ合同会社,,合同会社,長野県,大町市,平２１７７１番地ロ号１１,,20,212,3980001,,,,,,,2022-03-17,1,,,,,スノウ,0
597,3120001244481,新規,0,2022-03-17,2022-03-17,株式会社サンジャック,,株式会社,大阪府,大阪市東成区,東小橋２丁目２番７号,,27,115,5370024,,,,,,,2022-03-17,1,,,,,サンジャック,0
603,3120003021292,新規,0,2022-03-17,2022-03-17,合同会社Ｄ・Ｃ,,合同会社,大阪府,大阪市中央区,淡路町２丁目１番１０号,,27,128,5410047,,,,,,,2022-03-17,1,,,,,ディーシー,0
608,3120005022850,新規,0,2022-03-17,2022-03-17,一般社団法人日本アスリートライフサポート協会,,その他の設立登記法人,大阪府,大阪市天王寺区,南河堀町８番１３－３０４号,,27,109,5430054,,,,,,,2022-03-17,1,,,,,ニホンアスリートライフサポートキョウカイ,0
611,3120101065241,新規,0,2022-03-17,2022-03-17,株式会社Ｇｏ,,株式会社,大阪府,堺市堺区,中瓦町２丁３番２２号,,27,141,5900077,,,,,,,2022-03-17,1,,,,,ゴー,0
614,3120901045723,新規,0,2022-03-17,2022-03-17,株式会社Ｃｈｕｍ,,株式会社,大阪府,吹田市,千里丘下２０番１６号,,27,205,5650813,,,,,,,2022-03-17,1,,,,,チャム,0
615,3120901045731,新規,0,2022-03-17,2022-03-17,株式会社大樹ルーフ,,株式会社,大阪府,豊中市,大黒町３丁目１３番１１号,,27,203,5610827,,,,,,,2022-03-17,1,,,,,ダイジュルーフ,0
617,3122001035679,新規,0,2022-03-17,2022-03-17,株式会社はぐくみ,,株式会社,大阪府,東大阪市,俊徳町４丁目１番１４号,,27,227,5770831,,,,,,,2022-03-17,1,,,,,ハグクミ,0
618,3130001071371,新規,0,2022-03-17,2022-03-17,キョウ株式会社,,株式会社,京都府,京都市東山区,祇園町北側円山公園官有地,,26,105,6050073,,,,,,,2022-03-17,1,,,,,キョウ,0
628,3140001125184,新規,0,2022-03-17,2022-03-17,株式会社山陽商会,,株式会社,兵庫県,伊丹市,東有岡２丁目９番地３,,28,207,6640845,,,,,,,2022-03-17,1,,,,,サンヨウショウカイ,0
629,3140001125259,新規,0,2022-03-17,2022-03-17,ファインビバレッジ株式会社,,株式会社,兵庫県,多可郡多可町,中区安楽田５０５番地４,,28,365,6791102,,,,,,,2022-03-17,1,,,,,ファインビバレッジ,0
630,3140001125275,新規,0,2022-03-17,2022-03-17,株式会社Ｗｉｓｅコーポレーション,,株式会社,兵庫県,芦屋市,船戸町５番１８－５０４号,,28,206,6590093,,,,,,,2022-03-17,1,,,,,ワイズコーポレーション,0
631,3140001125300,新規,0,2022-03-17,2022-03-17,株式会社夙川不動産鑑定,,株式会社,兵庫県,西宮市,和上町５番２９－７０２号,,28,204,6620971,,,,,,,2022-03-17,1,,,,,シュクガワフドウサンカンテイ,0
638,3170001017016,新規,0,2022-03-17,2022-03-17,株式会社モジケン,,株式会社,和歌山県,有田郡有田川町,大字中野３１３番地,,30,366,6430143,,,,,,,2022-03-17,1,,,,,モジケン,0
639,3170003001703,新規,0,2022-03-17,2022-03-17,合同会社Ｆｉｅｌｄ,,合同会社,和歌山県,和歌山市,湊４丁目８－３４グランディールＭＫ１階,,30,201,6408404,,,,,,,2022-03-17,1,,,,,フィールド,0
646,3180001150402,新規,0,2022-03-17,2022-03-17,株式会社Ａ＆Ｋ,,株式会社,愛知県,名古屋市東区,東桜１丁目１０番４号,,23,102,4610005,,,,,,,2022-03-17,1,,,,,エーアンドケー,0
647,3180001150419,新規,0,2022-03-17,2022-03-17,株式会社ナカムラ開発,,株式会社,愛知県,一宮市,千秋町浅野羽根字羽々矢２７１９番地,,23,203,4910816,,,,,,,2022-03-17,1,,,,,ナカムラカイハツ,0
648,3180001150427,新規,0,2022-03-17,2022-03-17,雅エンジニアリング株式会社,,株式会社,愛知県,名古屋市港区,大西３丁目５０番地の２,,23,111,4550861,,,,,,,2022-03-17,1,,,,,ミヤビエンジニアリング,0
649,3180001150435,新規,0,2022-03-17,2022-03-17,ＫＯＫＵＡ株式会社,,株式会社,愛知県,名古屋市中村区,名駅３丁目２８－１２大名古屋ビルヂング１１階,,23,105,4500002,,,,,,,2022-03-17,1,,,,,コクア,0
650,3180001150451,新規,0,2022-03-17,2022-03-17,株式会社ＡＩＪＹＵ,,株式会社,愛知県,豊明市,沓掛町井ノ上６０番地１１,,23,229,4701101,,,,,,,2022-03-17,1,,,,,アイジュ,0
653,3180003023622,新規,0,2022-03-17,2022-03-17,合同会社大門ホーム,,合同会社,愛知県,西春日井郡豊山町,大字豊場字新栄１０５番地,,23,342,4800202,,,,,,,2022-03-17,1,,,,,ダイモンホーム,0
657,3190001029232,新規,0,2022-03-17,2022-03-17,株式会社七福,,株式会社,三重県,四日市市,西新地６番７号スギタニビル４階,,24,202,5100087,,,,,,,2022-03-17,1,,,,,シチフク,0
663,3200001039857,新規,0,2022-03-17,2022-03-17,株式会社ハンドマン,,株式会社,岐阜県,加茂郡坂祝町,酒倉４１３番地４,,21,501,5050074,,,,,,,2022-03-17,1,,,,,ハンドマン,0
671,3250003003022,新規,0,2022-03-17,2022-03-17,合同会社Ｈａｔｆｅｅ,,合同会社,山口県,山口市,湯田温泉１丁目９番地２０号ＦｅｅＨａｔ２Ｆ,,35,203,7530056,,,,,,,2022-03-17,1,,,,,ハットフィー,0
678,3290001096840,新規,0,2022-03-17,2022-03-17,株式会社山王キッチン,,株式会社,福岡県,古賀市,今の庄３丁目１６番１３号コンフォートＩＩＩ２０１号,00125997,40,223,8113117,,,,,,,2022-03-17,1,,,,,サンノウキッチン,0
679,3290001096849,新規,0,2022-03-17,2022-03-17,株式会社ＴＲＥＮ,,株式会社,福岡県,春日市,須玖北３丁目２３番地ウエルス春日５０３号,,40,218,8160864,,,,,,,2022-03-17,1,,,,,トレン,0
680,3300001012845,新規,0,2022-03-17,2022-03-17,株式会社末武工業,,株式会社,佐賀県,唐津市,鏡２９１５番地４,,41,202,8470022,,,,,,,2022-03-17,1,,,,,スエタケコウギョウ,0
684,3330001029548,新規,0,2022-03-17,2022-03-17,株式会社プライド,,株式会社,熊本県,熊本市東区,江津１丁目３番３４号,,43,102,8620942,,,,,,,2022-03-17,1,,,,,プライド,0
688,3330003009291,新規,0,2022-03-17,2022-03-17,合同会社慎和建設,,合同会社,熊本県,菊池市,七城町岡田８７５番地３,,43,210,8611368,,,,,,,2022-03-17,1,,,,,シンワケンセツ,0
701,3360003011872,新規,0,2022-03-17,2022-03-17,名輝の風合同会社,,合同会社,沖縄県,浦添市,経塚１丁目９番２号２Ｆ,,47,208,9012111,,,,,,,2022-03-17,1,,,,,メイテルノカゼ,0
724,3430001086199,新規,0,2022-03-17,2022-03-17,株式会社オダ,,株式会社,北海道,札幌市中央区,南二条西２７丁目１－２０－２０６,,01,101,0640802,,,,,,,2022-03-17,1,,,,,オダ,0
731,3470001019007,新規,0,2022-03-17,2022-03-17,株式会社気分屋,,株式会社,香川県,善通寺市,下吉田町８５４番地１,,37,204,7650021,,,,,,,2022-03-17,1,,,,,キブンヤ,0
733,3480003001804,新規,0,2022-03-17,2022-03-17,合同会社パーソナリティ研究所,,合同会社,徳島県,阿南市,羽ノ浦町春日野１番地７０９,,36,204,7791103,,,,,,,2022-03-17,1,,,,,パーソナリティケンキュウジョ,0
742,4010001225087,新規,0,2022-03-17,2022-03-17,久留里建具株式会社,,株式会社,東京都,千代田区,神田佐久間町３丁目３７番地,,13,101,1010025,,,,,,,2022-03-17,1,,,,,クルリタテグ,0
743,4010001225161,新規,0,2022-03-17,2022-03-17,株式会社シースリーソリューションズ,,株式会社,東京都,中央区,築地２丁目１番１６号５階,,13,102,1040045,,,,,,,2022-03-17,1,,,,,シースリーソリューションズ,0
745,4010003037241,新規,0,2022-03-17,2022-03-17,ＤＳＡ　Ｉ合同会社,,合同会社,東京都,千代田区,丸の内３丁目１番１号東京共同会計事務所内,,13,101,1000005,,,,,,,2022-03-17,1,,,,,ディーエスエーワン,0
754,4010401166220,新規,0,2022-03-17,2022-03-17,ＭＡＩＳＯＮ　ＣＩＮＱ株式会社,,株式会社,東京都,港区,南麻布５丁目５番９号,,13,103,1060047,,,,,,,2022-03-17,1,,,,,メゾンサンク,0
755,4010401166253,新規,0,2022-03-17,2022-03-17,株式会社アヨモットホールディングス,,株式会社,東京都,港区,南青山５丁目４番４３号,,13,103,1070062,,,,,,,2022-03-17,1,,,,,アヨモットホールディングス,0
756,4010403027305,新規,0,2022-03-17,2022-03-17,合同会社レジリーシング,,合同会社,東京都,港区,六本木６丁目１０番１号六本木ヒルズ森タワー,,13,103,1060032,,,,,,,2022-03-17,1,,,,,レジリーシング,0
758,4010501048590,新規,0,2022-03-17,2022-03-17,株式会社クオンマーケティング,,株式会社,東京都,台東区,松が谷２丁目２－７－１１０１,,13,106,1110036,,,,,,,2022-03-17,1,,,,,クオンマーケティング,0
759,4010601060834,新規,0,2022-03-17,2022-03-17,彩睿株式会社,,株式会社,東京都,墨田区,向島４丁目２０番４号,,13,107,1310033,,,,,,,2022-03-17,1,,,,,サイエイ,0
760,4010601060842,新規,0,2022-03-17,2022-03-17,冠和株式会社,,株式会社,東京都,墨田区,文花１丁目３４番１１－１０６号,,13,107,1310044,,,,,,,2022-03-17,1,,,,,カンワ,0
761,4010601060850,新規,0,2022-03-17,2022-03-17,株式会社グローリーアセット,,株式会社,東京都,墨田区,江東橋４丁目２９番１３号,,13,107,1300022,,,,,,,2022-03-17,1,,,,,グローリーアセット,0
762,4010603009425,新規,0,2022-03-17,2022-03-17,ａｌｌｇｏｏｄ合同会社,,合同会社,東京都,墨田区,八広１丁目１９－８,,13,107,1310041,,,,,,,2022-03-17,1,,,,,オールグッド,0
763,4010703006157,新規,0,2022-03-17,2022-03-17,ＡＴＨＬＥＴＥＢＡＮＫ合同会社,,合同会社,東京都,品川区,南品川２丁目６番８号,,13,109,1400004,,,,,,,2022-03-17,1,,,,,アスリートバンク,0
770,4010901050519,新規,0,2022-03-17,2022-03-17,株式会社ティーエム・コネクト,,株式会社,東京都,世田谷区,砧６丁目１番１４号,,13,112,1570073,,,,,,,2022-03-17,1,,,,,,0
773,4010903007236,新規,0,2022-03-17,2022-03-17,Ｔｅｒｒａ　ｅ　ｃｉｅｌｏ合同会社,,合同会社,東京都,世田谷区,北沢２丁目１３－７セガワビル地下一階,,13,112,1550031,,,,,,,2022-03-17,1,,,,,テッラエチェーロ,0
774,4010905004280,新規,0,2022-03-17,2022-03-17,医療法人社団亘誠会,,その他の設立登記法人,東京都,世田谷区,野沢２丁目３４番７号セントリア駒沢１階,,13,112,1540003,,,,,,,2022-03-17,1,,,,,コウセイカイ,0
780,4011001146298,新規,0,2022-03-17,2022-03-17,株式会社Ｎｅｗｋａ,,株式会社,東京都,渋谷区,神宮前６丁目２３番４号桑野ビル２階,,13,113,1500001,,,,,,,2022-03-17,1,,,,,ニューカ,0
781,4011001146307,新規,0,2022-03-17,2022-03-17,株式会社セカンドコムラード,,株式会社,東京都,渋谷区,渋谷２丁目１９－１５宮益坂ビルディング６０９,,13,113,1500002,,,,,,,2022-03-17,1,,,,,セカンドコムラード,0
782,4011001146315,新規,0,2022-03-17,2022-03-17,株式会社Ｉｂｅｅ,,株式会社,東京都,渋谷区,恵比寿４丁目３番８号,,13,113,1500013,,,,,,,2022-03-17,1,,,,,アイビー,0
783,4011001146406,新規,0,2022-03-17,2022-03-17,株式会社ＡｎＪ,,株式会社,東京都,渋谷区,代々木１丁目３７番１号,,13,113,1510053,,,,,,,2022-03-17,1,,,,,アンジェ,0
784,4011003014354,新規,0,2022-03-17,2022-03-17,Ｎｏｅｔｉｃ　Ｄｉｇｉｔａｌ合同会社,,合同会社,東京都,渋谷区,道玄坂１丁目１０番８号渋谷道玄坂東急ビル２Ｆ－Ｃ,,13,113,1500043,,,,,,,2022-03-17,1,,,,,ノエティックデジタル,0
787,4011101098175,新規,0,2022-03-17,2022-03-17,株式会社ＥｖａｎｇＬｉｎｋ,,株式会社,東京都,新宿区,西新宿３丁目３番１３号西新宿水間ビル６階,,13,104,1600023,,,,,,,2022-03-17,1,,,,,エバンリンク,0
788,4011101098183,新規,0,2022-03-17,2022-03-17,株式会社Ｄｏｔ　Ｔｈｒｅｅ,,株式会社,東京都,新宿区,四谷４丁目６番１０号,,13,104,1600004,,,,,,,2022-03-17,1,,,,,ドットスリー,0
791,4011301027628,新規,0,2022-03-17,2022-03-17,株式会社Ｌｉｅｎ,,株式会社,東京都,杉並区,下高井戸３丁目３２番１６号,,13,115,1680073,,,,,,,2022-03-17,1,,,,,リアン,0
793,4011303004344,新規,0,2022-03-17,2022-03-17,合同会社運気アップカルトナージュＬｕｘｅＴｉｍｅ,,合同会社,東京都,杉並区,善福寺４丁目１３番５号,,13,115,1670041,,,,,,,2022-03-17,1,,,,,ウンキアップカルトナージュリュクスタイム,0
794,4011401024104,新規,0,2022-03-17,2022-03-17,株式会社ＶＲ制作所,,株式会社,東京都,板橋区,蓮根２丁目１１－６,,13,119,1740046,,,,,,,2022-03-17,1,,,,,ブイアールセイサクジョ,0
797,4011503005101,新規,0,2022-03-17,2022-03-17,合同会社きゅうり,,合同会社,東京都,北区,王子本町２丁目２２－９－１０１,,13,117,1140022,,,,,,,2022-03-17,1,,,,,キュウリ,0
798,4011701025132,新規,0,2022-03-17,2022-03-17,シニアコーチング株式会社,,株式会社,東京都,江戸川区,東葛西５丁目１２番６号カワマンビル,,13,123,1340084,,,,,,,2022-03-17,1,,,,,シニアコーチング,0
806,4012401038977,新規,0,2022-03-17,2022-03-17,シールドワークス株式会社,,株式会社,東京都,多摩市,永山６丁目１８番地の８,,13,224,2060025,,,,,,,2022-03-17,1,,,,,シールドワークス,0
809,4012801021450,新規,0,2022-03-17,2022-03-17,ＤＨＮ株式会社,,株式会社,東京都,日野市,程久保３丁目２０番７号,,13,212,1910042,,,,,,,2022-03-17,1,,,,,,0
810,4013101008865,新規,0,2022-03-17,2022-03-17,Ｒｉｓｅ株式会社,,株式会社,東京都,青梅市,末広町２丁目３番地３－２Ｆ,,13,205,1980025,,,,,,,2022-03-17,1,,,,,ライズ,0
811,4013103001117,新規,0,2022-03-17,2022-03-17,合同会社リアン,,合同会社,東京都,羽村市,双葉町２丁目３番３１号,,13,227,2050022,,,,,,,2022-03-17,1,,,,,リアン,0
816,4013301048645,新規,0,2022-03-17,2022-03-17,株式会社Ｇｉｖｅ＆ｂｅ　Ｇｉｖｅｎ,,株式会社,東京都,豊島区,東池袋４丁目６番１２号,,13,116,1700013,,,,,,,2022-03-17,1,,,,,ギブアンドビーギブン,0
817,4013301048819,新規,0,2022-03-17,2022-03-17,株式会社ＢＬＵＥ　ＦＩＣＴＩＯＮ,,株式会社,東京都,豊島区,池袋１丁目１６番２０号２０１,,13,116,1700014,,,,,,,2022-03-17,1,,,,,ブルーフィクション,0
819,4013303006089,新規,0,2022-03-17,2022-03-17,合同会社ＴＭＧ,,合同会社,東京都,豊島区,南大塚３丁目５１番５号,,13,116,1700005,,,,,,,2022-03-17,1,,,,,ティーエムジー,0
820,4013305003324,新規,0,2022-03-17,2022-03-17,一般社団法人グローバル建築職人支援協会,,その他の設立登記法人,東京都,豊島区,南長崎４丁目１５番１号,,13,116,1710052,,,,,,,2022-03-17,1,,,,,グローバルケンチクショクニンシエンキョウカイ,0
825,4020001145680,新規,0,2022-03-17,2022-03-17,株式会社かんないエステート,,株式会社,神奈川県,横浜市中区,蓬莱町２丁目６番地３ＫＯＹＯ関内ビル２０３号室,,14,104,2310048,,,,,,,2022-03-17,1,,,,,カンナイエステート,0
831,4020003021467,新規,0,2022-03-17,2022-03-17,合同会社貴州,,合同会社,神奈川県,横浜市保土ケ谷区,常盤台３番１１号,,14,106,2400067,,,,,,,2022-03-17,1,,,,,キシュウ,0
837,4021001075447,新規,0,2022-03-17,2022-03-17,株式会社Ｍｅｅ’ｓ　ｃｏｍｐａｎｙ,,株式会社,神奈川県,平塚市,達上ケ丘１番４０号,,14,203,2540064,,,,,,,2022-03-17,1,,,,,ミーズカンパニー,0
838,4021003011490,新規,0,2022-03-17,2022-03-17,合同会社Ｆｅｌｉｎｋ,,合同会社,神奈川県,茅ヶ崎市,南湖２丁目３番５号,,14,207,2530061,,,,,,,2022-03-17,1,,,,,フェリンク,0
839,4021003011499,新規,0,2022-03-17,2022-03-17,ＴＹＴ合同会社,,合同会社,神奈川県,南足柄市,塚原２５５８番地,,14,217,2500117,,,,,,,2022-03-17,1,,,,,ティーワイティー,0
841,4030001147288,新規,0,2022-03-17,2022-03-17,株式会社ゴールドシップ,,株式会社,埼玉県,幸手市,西１丁目１５番３１号,,11,240,3400116,,,,,,,2022-03-17,1,,,,,ゴールドシップ,0
845,4030003019048,新規,0,2022-03-17,2022-03-17,ＳＡＹＥＤ合同会社,,合同会社,埼玉県,川口市,末広１丁目２８－１６森ハイツ１０３号室,,11,203,3320006,,,,,,,2022-03-17,1,,,,,サイード,0
847,4040001122645,新規,0,2022-03-17,2022-03-17,株式会社みのる,,株式会社,千葉県,流山市,松ケ丘５丁目６８４番地の３,,12,220,2700141,,,,,,,2022-03-17,1,,,,,ミノル,0
848,4040003019690,新規,0,2022-03-17,2022-03-17,合同会社Ａ＆Ｎ,,合同会社,千葉県,東金市,田間８７番地４Ａ－２０６,,12,213,2830005,,,,,,,2022-03-17,1,,,,,エーアンドエヌ,0
849,4040003019699,新規,0,2022-03-17,2022-03-17,ワイドクリエイト合同会社,,合同会社,千葉県,船橋市,大穴北８丁目１１番１１号,,12,204,2740068,,,,,,,2022-03-17,1,,,,,ワイドクリエイト,0
850,4050001050795,新規,0,2022-03-17,2022-03-17,株式会社広佳グループ,,株式会社,茨城県,鉾田市,上沢１３６０番地１,,08,234,3112111,,,,,,,2022-03-17,1,,,,,ヒロヨシグループ,0
851,4050001050804,新規,0,2022-03-17,2022-03-17,株式会社慈恩,,株式会社,茨城県,神栖市,神栖４丁目１０－３３,,08,232,3140143,,,,,,,2022-03-17,1,,,,,ジオン,0
852,4050001050812,新規,0,2022-03-17,2022-03-17,株式会社工務店ウィズ,,株式会社,茨城県,那珂市,津田２５２１番地３７,,08,226,3110112,,,,,,,2022-03-17,1,,,,,コウムテンウィズ,0
853,4050003006440,新規,0,2022-03-17,2022-03-17,合同会社Ｏｆｆｉｃｉａｌ３３３,,合同会社,茨城県,ひたちなか市,大字高野４５４－２,,08,221,3120002,,,,,,,2022-03-17,1,,,,,オフィシャルサンサンサン,0
865,4070003004426,新規,0,2022-03-17,2022-03-17,藤桂合同会社,,合同会社,群馬県,利根郡昭和村,大字糸井２３５１番地,,10,448,3791203,,,,,,,2022-03-17,1,,,,,フジケイ,0
871,4080101023161,新規,0,2022-03-17,2022-03-17,株式会社リアライズ・エステート,,株式会社,静岡県,熱海市,田原本町９番１号３０２,,22,205,4130011,,,,,,,2022-03-17,1,,,,,リアライズエステート,0
872,4080103002551,新規,0,2022-03-17,2022-03-17,ＺＨ．ＴＲＡＤＩＮＧ合同会社,,合同会社,静岡県,沼津市,足高３７３番地の３,,22,203,4100001,,,,,,,2022-03-17,1,,,,,ゼットエイチトレーディング,0
876,4110001036508,新規,0,2022-03-17,2022-03-17,トリップス株式会社,,株式会社,新潟県,新潟市東区,卸新町１丁目８４２番地１４,,15,102,9500863,,,,,,,2022-03-17,1,,,,,トリップス,0
891,4120001244489,新規,0,2022-03-17,2022-03-17,株式会社ＵＮＣＨＡＩＮ,,株式会社,大阪府,大阪市中央区,南久宝寺町３丁目２－７－９Ｆ,,27,128,5410058,,,,,,,2022-03-17,1,,,,,アンチェイン,0
892,4120001244497,新規,0,2022-03-17,2022-03-17,株式会社スーパーエッジ,,株式会社,大阪府,大阪市北区,天満２丁目２番２号,,27,127,5300043,,,,,,,2022-03-17,1,,,,,スーパーエッジ,0
893,4120001244506,新規,0,2022-03-17,2022-03-17,ＭＩＺＡＯ株式会社,,株式会社,大阪府,大阪市東淀川区,大桐４丁目２番３９号,,27,114,5330011,,,,,,,2022-03-17,1,,,,,ミザオ,0
894,4120001244522,新規,0,2022-03-17,2022-03-17,株式会社ミクロコスモス,,株式会社,大阪府,大阪市西区,靱本町１丁目１６番８号,,27,106,5500004,,,,,,,2022-03-17,1,,,,,ミクロコスモス,0
895,4120001244530,新規,0,2022-03-17,2022-03-17,Ｂｅｌｌｐｅｐｐｅｒ株式会社,,株式会社,大阪府,大阪市西成区,玉出西１丁目６番７号玉出プラザ２－５Ａ,,27,122,5570045,,,,,,,2022-03-17,1,,,,,ベルペッパー,0
898,4120003021291,新規,0,2022-03-17,2022-03-17,合同会社Ｆｕ．,,合同会社,大阪府,大阪市西淀川区,大野１丁目３－３２,,27,113,5550043,,,,,,,2022-03-17,1,,,,,フード,0
899,4120003021300,新規,0,2022-03-17,2022-03-17,合同会社５０４,,合同会社,大阪府,大阪市福島区,福島３丁目１番５５－５０４号,,27,103,5530003,,,,,,,2022-03-17,1,,,,,ゴーマルヨン,0
909,4120105009532,新規,0,2022-03-17,2022-03-17,一般社団法人堺フェニックスロータリークラブ,,その他の設立登記法人,大阪府,堺市堺区,北三国ヶ丘町１丁１番１６号Ｃ－１７,,27,141,5900021,,,,,,,2022-03-17,1,,,,,サカイフェニックスロータリークラブ,0
911,4120901045730,新規,0,2022-03-17,2022-03-17,Ｒ２Ｋ　ＣＬＡＮ株式会社,,株式会社,大阪府,高槻市,上土室１丁目２番１８号大和ビル３０２,,27,207,5691044,,,,,,,2022-03-17,1,,,,,アールツーケークラン,0
912,4120901045739,新規,0,2022-03-17,2022-03-17,株式会社ディーピージェー,,株式会社,大阪府,茨木市,橋の内２丁目８番６１２号,,27,211,5670805,,,,,,,2022-03-17,1,,,,,ディーピージェー,0
915,4122003002296,新規,0,2022-03-17,2022-03-17,Ｋ‐ＲＹＵ合同会社,,合同会社,大阪府,柏原市,田辺２丁目９番６２号,,27,221,5820024,,,,,,,2022-03-17,1,,,,,ケーリュウ,0
919,4130001071370,新規,0,2022-03-17,2022-03-17,株式会社フジハウス,,株式会社,京都府,京都市伏見区,横大路貴船１７番地３４,,26,109,6128297,,,,,,,2022-03-17,1,,,,,フジハウス,0
927,4160001024053,新規,0,2022-03-17,2022-03-17,栗田産業株式会社,,株式会社,滋賀県,東近江市,聖和町１１番５号,,25,213,5270036,,,,,,,2022-03-17,1,,,,,クリタサンギョウ,0
934,4180001150418,新規,0,2022-03-17,2022-03-17,株式会社Ｌｉｂｅｒ,,株式会社,愛知県,一宮市,奥町字宮東５８番地７,,23,203,4910201,,,,,,,2022-03-17,1,,,,,リベル,0
935,4180001150426,新規,0,2022-03-17,2022-03-17,株式会社ポネル,,株式会社,愛知県,名古屋市千種区,田代本通３丁目１５番地の１水野ビル１Ｆ,,23,101,4640827,,,,,,,2022-03-17,1,,,,,ポネル,0
936,4180001150434,新規,0,2022-03-17,2022-03-17,株式会社ＭＯＭＯ,,株式会社,愛知県,名古屋市千種区,内山２丁目７番２４号,,23,101,4640075,,,,,,,2022-03-17,1,,,,,モモ,0
940,4180301036028,新規,0,2022-03-17,2022-03-17,善バリディパ株式会社,,株式会社,愛知県,碧南市,幸町５丁目５１番地,,23,209,4470043,,,,,,,2022-03-17,1,,,,,ゼンバリディパ,0
945,4190005011680,新規,0,2022-03-17,2022-03-17,医療法人むねゆき,,その他の設立登記法人,三重県,桑名市,大字赤尾２０３２番地１,,24,205,5110934,,,,,,,2022-03-17,1,,,,,ムネユキ,0
948,4200003005492,新規,0,2022-03-17,2022-03-17,合同会社ジェイフロウリッシュ,,合同会社,岐阜県,郡上市,大和町大間見２２番地,,21,219,5014601,,,,,,,2022-03-17,1,,,,,ジェイフロウリッシュ,0
957,4250003003021,新規,0,2022-03-17,2022-03-17,ＮＥＷ　ＮＥＸＴ　ＰＬＡＮＴ合同会社,,合同会社,山口県,岩国市,由宇町北４丁目１０－１４,,35,208,7401455,,,,,,,2022-03-17,1,,,,,ニューネクストプラント,0
960,4270005005501,新規,0,2022-03-17,2022-03-17,境港環境衛生事業協同組合,,その他の設立登記法人,鳥取県,境港市,中野町１８００番地１,,31,204,6840041,,,,,,,2022-03-17,1,,,,,サカイミナトカンキョウエイセイ,0
962,4290001096856,新規,0,2022-03-17,2022-03-17,株式会社Ｇ．Ｆ．Ｒ,,株式会社,福岡県,大牟田市,大字草木１１４４番地４,,40,202,8370917,,,,,,,2022-03-17,1,,,,,ジーエフアール,0
964,4290003012266,新規,0,2022-03-17,2022-03-17,合同会社ＡＴＧＷ,,合同会社,福岡県,福岡市城南区,松山１丁目１０－２２イトーピア七隈マンション４０６号,,40,136,8140131,,,,,,,2022-03-17,1,,,,,エーティージーダブリュー,0
967,4300001012844,新規,0,2022-03-17,2022-03-17,株式会社松栄ホーム,,株式会社,佐賀県,鳥栖市,養父町４３５番地,,41,203,8410055,,,,,,,2022-03-17,1,,,,,ショウエイホーム,0
975,4360001030130,新規,0,2022-03-17,2022-03-17,農業生産法人五風株式会社,,株式会社,沖縄県,八重山郡竹富町,字南風見２０１番地の６６,,47,381,9071434,,,,,,,2022-03-17,1,,,,,ノウギョウセイサンホウジンゴフウ,0
1019,5010001225219,新規,0,2022-03-17,2022-03-17,株式会社アルビ,,株式会社,東京都,中央区,銀座５丁目１番先,,13,102,1040061,,,,,,,2022-03-17,1,,,,,アルビ,0
1020,5010001225276,新規,0,2022-03-17,2022-03-17,アイフォレスト株式会社,,株式会社,東京都,中央区,八重洲１丁目２－１６,,13,102,1030028,,,,,,,2022-03-17,1,,,,,アイフォレスト,0
1021,5010001225284,新規,0,2022-03-17,2022-03-17,株式会社ツタワル,,株式会社,東京都,中央区,日本橋２丁目１番１７号丹生ビル２Ｆ,,13,102,1030027,,,,,,,2022-03-17,1,,,,,ツタワル,0
1022,5010003037240,新規,0,2022-03-17,2022-03-17,合同会社ロードスプランニング,,合同会社,東京都,中央区,日本橋堀留町１丁目３－１６－１１０３,,13,102,1030012,,,,,,,2022-03-17,1,,,,,ロードスプランニング,0
1027,5010401166211,新規,0,2022-03-17,2022-03-17,株式会社鉄希会,,株式会社,東京都,港区,六本木３丁目３番８号,,13,103,1060032,,,,,,,2022-03-17,1,,,,,テッキカイ,0
1028,5010401166244,新規,0,2022-03-17,2022-03-17,株式会社ａｙｍ,,株式会社,東京都,港区,西麻布４丁目９番２号,,13,103,1060031,,,,,,,2022-03-17,1,,,,,エイム,0
1029,5010401166252,新規,0,2022-03-17,2022-03-17,株式会社ＣＡＮＶＡＳ,,株式会社,東京都,港区,六本木６丁目２－３１六本木ヒルズノースタワー１７階,,13,103,1060032,,,,,,,2022-03-17,1,,,,,キャンバス,0
1031,5010403027295,新規,0,2022-03-17,2022-03-17,合同会社５３,,合同会社,東京都,港区,東麻布２丁目３５－１ＫＣビル６Ｆ,,13,103,1060044,,,,,,,2022-03-17,1,,,,,ツナグ,0
1037,5010601060833,新規,0,2022-03-17,2022-03-17,株式会社１９７７,,株式会社,東京都,江東区,富岡１丁目５番１－３０２号,,13,108,1350047,,,,,,,2022-03-17,1,,,,,イチキュウナナナナ,0
1038,5010601060841,新規,0,2022-03-17,2022-03-17,株式会社Ｂ．ｃｏａｓｔ,,株式会社,東京都,江東区,亀戸２丁目４４番６－１０１号ヴェラハイツ亀戸参番館,,13,108,1360071,,,,,,,2022-03-17,1,,,,,ビーコースト,0
1039,5010701042392,新規,0,2022-03-17,2022-03-17,株式会社エンタメ転職,,株式会社,東京都,品川区,西五反田７丁目１番１０号Ｕ’ｓ－１ビル３階,,13,109,1410031,,,,,,,2022-03-17,1,,,,,エンタメテンショク,0
1043,5010801032806,新規,0,2022-03-17,2022-03-17,株式会社メディクロコ,,株式会社,東京都,大田区,西糀谷３丁目２１番７号第１野口ビル３０１,,13,111,1440034,,,,,,,2022-03-17,1,,,,,メディクロコ,0
1046,5010901050484,新規,0,2022-03-17,2022-03-17,株式会社ＩＴ’ｓ　ＭＹ　ＳＴＹＬＥ．,,株式会社,東京都,世田谷区,太子堂２丁目９番２５号リヒト・ガルベ三軒茶屋１０３,,13,112,1540004,,,,,,,2022-03-17,1,,,,,イッツマイスタイル,0
1047,5010901050526,新規,0,2022-03-17,2022-03-17,株式会社チタノタ企画,,株式会社,東京都,世田谷区,深沢５丁目３番４号,,13,112,1580081,,,,,,,2022-03-17,1,,,,,チタノタキカク,0
1048,5010903007227,新規,0,2022-03-17,2022-03-17,紅安キャピタル合同会社,,合同会社,東京都,世田谷区,上野毛１丁目９番６号,,13,112,1580093,,,,,,,2022-03-17,1,,,,,ホンアンキャピタル,0
1049,5010903007235,新規,0,2022-03-17,2022-03-17,Ｆｅｌ＆Ａｌｅｘａｎｄｅｒ合同会社,,合同会社,東京都,世田谷区,上野毛４丁目３１番１４号ミハス上野毛３０２,,13,112,1580093,,,,,,,2022-03-17,1,,,,,フェルアンドアレキサンダー,0
1053,5011001146314,新規,0,2022-03-17,2022-03-17,ＥｂｉｓｕＲｅａｌｔｙ株式会社,,株式会社,東京都,渋谷区,恵比寿１丁目２５番３－３０１号,,13,113,1500013,,,,,,,2022-03-17,1,,,,,エビスリアルティ,0
1057,5011101098174,新規,0,2022-03-17,2022-03-17,株式会社プレミアムヘルスジャパン,,株式会社,東京都,新宿区,大久保２丁目３－９ヴァリエ戸山１００１,,13,104,1690072,,,,,,,2022-03-17,1,,,,,プレミアムヘルスジャパン,0
1058,5011101098182,新規,0,2022-03-17,2022-03-17,株式会社ロンパートナーズ,,株式会社,東京都,新宿区,新小川町６番３９号ニックハイム飯田橋２Ｆ,,13,104,1620814,,,,,,,2022-03-17,1,,,,,ロンパートナーズ,0
1059,5011101098190,新規,0,2022-03-17,2022-03-17,株式会社ＳＫＭ,,株式会社,東京都,新宿区,西新宿７丁目５－５－３０９,,13,104,1600023,,,,,,,2022-03-17,1,,,,,エスケーエム,0
1061,5011105010192,新規,0,2022-03-17,2022-03-17,一般社団法人東京メディカルクリニック,,その他の設立登記法人,東京都,新宿区,神楽坂３丁目２番地６０コリーヌ神楽坂２階,,13,104,1620825,,,,,,,2022-03-17,1,,,,,トウキョウメディカルクリニック,0
1062,5011203003767,新規,0,2022-03-17,2022-03-17,合同会社迷日,,合同会社,東京都,中野区,白鷺２丁目３８番５号ハイツフォーレスト２－２０２,,13,114,1650035,,,,,,,2022-03-17,1,,,,,メイジツ,0
1063,5011303004343,新規,0,2022-03-17,2022-03-17,こいけワンダーランド合同会社,,合同会社,東京都,杉並区,方南２丁目１５番２－２０５号,,13,115,1680062,,,,,,,2022-03-17,1,,,,,コイケワンダーランド,0
1065,5011401024103,新規,0,2022-03-17,2022-03-17,株式会社モリ・タイムズ,,株式会社,東京都,板橋区,坂下１丁目２８番２号,,13,119,1740043,,,,,,,2022-03-17,1,,,,,モリタイムズ,0
1073,5011803005007,新規,0,2022-03-17,2022-03-17,合同会社ｆａｍｉｌｌｅ,,合同会社,東京都,足立区,弘道１丁目１９－２,,13,121,1200013,,,,,,,2022-03-17,1,,,,,ファミーユ,0
1080,5012701016987,新規,0,2022-03-17,2022-03-17,株式会社Ｈｉｓｅｎｓｅ,,株式会社,東京都,西東京市,泉町２丁目６番２－９号,,13,229,2020011,,,,,,,2022-03-17,1,,,,,ハイセンス,0
1082,5012801021458,新規,0,2022-03-17,2022-03-17,株式会社ふしみラボ,,株式会社,東京都,国立市,東２丁目１７番地２０号,,13,215,1860002,,,,,,,2022-03-17,1,,,,,フシミラボ,0
1086,5013305003323,新規,0,2022-03-17,2022-03-17,社会保険労務士法人コネクト,,その他の設立登記法人,東京都,豊島区,池袋２丁目３１番１６号,,13,116,1710014,,,,,,,2022-03-17,1,,,,,コネクト,0
1092,5020005015417,新規,0,2022-03-17,2022-03-17,一般社団法人人間科学研究協会,,その他の設立登記法人,神奈川県,川崎市宮前区,土橋４丁目８番地３－Ａ－５０３号,,14,136,2160005,,,,,,,2022-03-17,1,,,,,ニンゲンカガクケンキュウキョウカイ,0
1096,5021003011498,新規,0,2022-03-17,2022-03-17,合同会社Ｇ＆Ｇ,,合同会社,神奈川県,藤沢市,辻堂神台２丁目２－１アイクロス湘南５階Ｅ号室,,14,205,2510041,,,,,,,2022-03-17,1,,,,,ジーアンドジー,0
1098,5030001147295,新規,0,2022-03-17,2022-03-17,株式会社田島屋,,株式会社,埼玉県,新座市,片山３丁目９番１３号,,11,230,3520025,,,,,,,2022-03-17,1,,,,,タジマヤ,0
1099,5030001147304,新規,0,2022-03-17,2022-03-17,株式会社ドラゴン・ハットトリック,,株式会社,埼玉県,川口市,大字安行原２２７６番地の７,,11,203,3340057,,,,,,,2022-03-17,1,,,,,ドラゴンハットトリック,0
1102,5030003019039,新規,0,2022-03-17,2022-03-17,合同会社Ｍ．Ｔ．,,合同会社,埼玉県,加須市,花崎５丁目２４番地,,11,210,3470032,,,,,,,2022-03-17,1,,,,,エムティー,0
1107,5050001050811,新規,0,2022-03-17,2022-03-17,株式会社ＡＮＥＬＡ．ｌｄｈ,,株式会社,茨城県,水戸市,堀町１２６５番地の１,,08,201,3100903,,,,,,,2022-03-17,1,,,,,アネラエルディーエイチ,0
1134,5120001244083,新規,0,2022-03-17,2022-03-17,株式会社ＯＣＨＥＲ,,株式会社,大阪府,大阪市淀川区,十八条１丁目１３－３４,,27,123,5320001,,,,,,,2022-03-17,1,,,,,オーカー,0
1135,5120001244455,新規,0,2022-03-17,2022-03-17,株式会社ミライエ,,株式会社,大阪府,大阪市浪速区,日本橋東１丁目１０番１４号,,27,111,5560006,,,,,,,2022-03-17,1,,,,,ミライエ,0
1136,5120001244513,新規,0,2022-03-17,2022-03-17,株式会社ＭＲセキュリティ,,株式会社,大阪府,大阪市淀川区,西中島４丁目９－２２新大阪弘栄ビル２０１号,,27,123,5320011,,,,,,,2022-03-17,1,,,,,エムアールセキュリティ,0
1137,5120001244570,新規,0,2022-03-17,2022-03-17,株式会社園田商事,,株式会社,大阪府,交野市,幾野３丁目４番１８号,,27,230,5760054,,,,,,,2022-03-17,1,,,,,ソノダショウジ,0
1143,5120101065231,新規,0,2022-03-17,2022-03-17,株式会社セカンド,,株式会社,大阪府,和泉市,いぶき野４丁目３番１号,,27,219,5940041,,,,,,,2022-03-17,1,,,,,セカンド,0
1144,5120101065248,新規,0,2022-03-17,2022-03-17,株式会社互寿会ホールディングス,,株式会社,大阪府,羽曳野市,島泉５丁目４番９号,,27,222,5830881,,,,,,,2022-03-17,1,,,,,ゴジュカイホールディングス,0
1150,5130005016412,新規,0,2022-03-17,2022-03-17,天悠社会保険労務士法人,,その他の設立登記法人,京都府,京都市下京区,五条通烏丸西入醍醐町２９０番地烏丸五条ビル２階,,26,106,6008106,,,,,,,2022-03-17,1,,,,,テンユウ,0
1152,5140001125281,新規,0,2022-03-17,2022-03-17,ライクブルー株式会社,,株式会社,兵庫県,神戸市東灘区,森南町１丁目１７番６号,,28,101,6580011,,,,,,,2022-03-17,1,,,,,ライクブルー,0
1153,5140001125298,新規,0,2022-03-17,2022-03-17,株式会社計画プロダクト,,株式会社,兵庫県,尼崎市,上ノ島町２丁目１５番２号,,28,202,6610014,,,,,,,2022-03-17,1,,,,,ケイカクプロダクト,0
1165,5180001150433,新規,0,2022-03-17,2022-03-17,創ホーム企画株式会社,,株式会社,愛知県,日進市,竹の山４丁目８１１番地岩崎御苑１階,,23,230,4700136,,,,,,,2022-03-17,1,,,,,ソウホームキカク,0
1166,5180001150466,新規,0,2022-03-17,2022-03-17,敬建築企画株式会社,,株式会社,愛知県,名古屋市瑞穂区,彌富町字清水ケ岡２８番地グランドメゾン清水ケ岡２０３号,,23,108,4670038,,,,,,,2022-03-17,1,,,,,ケイケンチクキカク,0
1171,5180003023620,新規,0,2022-03-17,2022-03-17,Ｏｒａｃｌｅ　Ｃｏｓｍｅｔｉｃ　Ｊａｐａｎ合同会社,,合同会社,愛知県,名古屋市千種区,春岡１丁目１４番２１号,,23,101,4640848,,,,,,,2022-03-17,1,,,,,オラクルコスメティックジャパン,0
1173,5180005019682,新規,0,2022-03-17,2022-03-17,医療法人一路,,その他の設立登記法人,愛知県,名古屋市東区,矢田２丁目９番１０号,,23,102,4610040,,,,,,,2022-03-17,1,,,,,イチロ,0
1175,5180305009318,新規,0,2022-03-17,2022-03-17,一般社団法人日本アダプテーショントレーニング協会,,その他の設立登記法人,愛知県,安城市,桜井町森田５６番地１,,23,212,4441154,,,,,,,2022-03-17,1,,,,,アダプテーショントレーニングキョウカイ,0
1179,5200003005500,新規,0,2022-03-17,2022-03-17,合同会社ＫＴ,,合同会社,岐阜県,加茂郡白川町,切井９３０番地５,,21,506,5091111,,,,,,,2022-03-17,1,,,,,ケーティー,0
1181,5210003001473,新規,0,2022-03-17,2022-03-17,合同会社七星,,合同会社,福井県,大飯郡高浜町,和田第１０４番地５号１３,,18,481,9192201,,,,,,,2022-03-17,1,,,,,ナナホシ,0
1186,5250003003020,新規,0,2022-03-17,2022-03-17,ＤＯＧ１イワゴーヒル合同会社,,合同会社,山口県,美祢市,伊佐町奥万倉２１５９番地,,35,213,7592223,,,,,,,2022-03-17,1,,,,,ドッグワンイワゴーヒル,0
1188,5260001036632,新規,0,2022-03-17,2022-03-17,株式会社三司馬産業,,株式会社,岡山県,倉敷市,玉島勇崎１０９７番地６・２階,,33,202,7138125,,,,,,,2022-03-17,1,,,,,ミシバサンギョウ,0
1198,5290001096830,新規,0,2022-03-17,2022-03-17,株式会社Ｇｏ　ＢＥＹＯＮＤ　ＳＥＬＦ,,株式会社,福岡県,福岡市中央区,黒門５番１２号,,40,133,8100055,,,,,,,2022-03-17,1,,,,,ゴービヨンドセルフ,0
1199,5290001096839,新規,0,2022-03-17,2022-03-17,ＮＤＴＥＣ株式会社,,株式会社,福岡県,福岡市博多区,東比恵３丁目２６番１０号,,40,132,8120007,,,,,,,2022-03-17,1,,,,,エヌディテック,0
1200,5290001096847,新規,0,2022-03-17,2022-03-17,株式会社ＪＴＳ,,株式会社,福岡県,福岡市博多区,博多駅前３丁目１９番２３号,,40,132,8120011,,,,,,,2022-03-17,1,,,,,ジェイティエス,0
1201,5290001096855,新規,0,2022-03-17,2022-03-17,株式会社草香江不動産,,株式会社,福岡県,福岡市中央区,草香江２丁目６番１４号,,40,133,8100045,,,,,,,2022-03-17,1,,,,,クサガエフドウサン,0
1204,5290003012281,新規,0,2022-03-17,2022-03-17,合同会社ｔｓｕｊｉ　ｐｌａｎ,,合同会社,福岡県,福岡市中央区,渡辺通１丁目８番３１号,,40,133,8100004,,,,,,,2022-03-17,1,,,,,ツジプラン,0
1205,5310005008597,新規,0,2022-03-17,2022-03-17,大和商工協同組合,,その他の設立登記法人,長崎県,長崎市,栄町４番１５号２階,,42,201,8500875,,,,,,,2022-03-17,1,,,,,ヤマトショウコウ,0
1206,5320001018962,新規,0,2022-03-17,2022-03-17,株式会社高一,00126005,株式会社,大分県,中津市,大字上宮永１２６９番地１,,44,203,8710027,,,,,,,2022-03-17,1,,,,,タカイチ,0
1209,5340003003738,新規,0,2022-03-17,2022-03-17,合同会社リベラル,,合同会社,鹿児島県,霧島市,隼人町真孝１１９３番地１１,,46,218,8995102,,,,,,,2022-03-17,1,,,,,リベラル,0
1211,5360001030138,新規,0,2022-03-17,2022-03-17,株式会社すごいや,,株式会社,沖縄県,那覇市,牧志３丁目３番１号水上店舗,,47,201,9000013,,,,,,,2022-03-17,1,,,,,スゴイヤ,0
1215,5370001048336,新規,0,2022-03-17,2022-03-17,株式会社明官,,株式会社,宮城県,栗原市,高清水明官１８番地,,04,213,9872034,,,,,,,2022-03-17,1,,,,,ミョウカン,0
1231,5490001010135,新規,0,2022-03-17,2022-03-17,株式会社裕希産業,,株式会社,高知県,南国市,元町１丁目８―２,,39,204,7830014,,,,,,,2022-03-17,1,,,,,ユウキサンギョウ,0
1232,5500001024067,新規,0,2022-03-17,2022-03-17,株式会社マイベッツ,,株式会社,愛媛県,今治市,広紹寺町２丁目６番８号,,38,202,7940805,,,,,,,2022-03-17,1,,,,,マイベッツ,0
1234,5700150107429,新規,0,2022-03-17,2022-03-17,自治会法人　林間自治会,,その他,神奈川県,相模原市南区,東林間７丁目２７番６号,,14,153,2520311,,,,,,,2022-03-17,1,,,,,ジチカイホウジンリンカンジチカイ,0
1243,6010001225259,新規,0,2022-03-17,2022-03-17,株式会社ＮＦ＆Ｓ,,株式会社,東京都,千代田区,神田平河町１番地第３東ビル６Ｆ,,13,101,1010027,,,,,,,2022-03-17,1,,,,,エヌエフアンドエス,0
1244,6010001225275,新規,0,2022-03-17,2022-03-17,ホワイトリボンニューヨーク株式会社,,株式会社,東京都,千代田区,丸の内１丁目８番２号鉄鋼ビルディング４階,,13,101,1000005,,,,,,,2022-03-17,1,,,,,ホワイトリボンニューヨーク,0
1245,6010001225300,新規,0,2022-03-17,2022-03-17,株式会社ＬＯＲＥＴＴＡ　ＭＡＲＴＩＮ,,株式会社,東京都,千代田区,平河町１丁目６番１５号ＵＳビル８０２号室,,13,101,1020093,,,,,,,2022-03-17,1,,,,,ロレッタマーティン,0
1252,6010003037264,新規,0,2022-03-17,2022-03-17,合同会社ネクスト・ブレイン・パートナーズ,,合同会社,東京都,中央区,東日本橋２丁目２８番４号日本橋ＣＥＴビル２階,,13,102,1030004,,,,,,,2022-03-17,1,,,,,ネクストブレインパートナーズ,0
1254,6010101015106,新規,0,2022-03-17,2022-03-17,良縁株式会社,,株式会社,東京都,八王子市,元八王子町２丁目１１５６番地８,,13,201,1930826,,,,,,,2022-03-17,1,,,,,リョウエン,0
1256,6010401166202,新規,0,2022-03-17,2022-03-17,株式会社ワールド,,株式会社,東京都,港区,六本木７丁目３番１４号東海ホワイトビル５階,,13,103,1060032,,,,,,,2022-03-17,1,,,,,ワールド,0
1257,6010401166227,新規,0,2022-03-17,2022-03-17,アンドロボコアブレイド株式会社,,株式会社,東京都,港区,赤坂３丁目１３番３号赤坂セントラルビル３Ｆ,,13,103,1070052,,,,,,,2022-03-17,1,,,,,アンドロボコアブレイド,0
1258,6010401166235,新規,0,2022-03-17,2022-03-17,株式会社Ｒｉｂｂｏｎ,,株式会社,東京都,港区,芝浦４丁目２０番２号,,13,103,1080023,,,,,,,2022-03-17,1,,,,,リボン,0
1259,6010401166243,新規,0,2022-03-17,2022-03-17,株式会社Ａ＆Ｆリノベーション,,株式会社,東京都,港区,高輪４丁目３番８号,,13,103,1080074,,,,,,,2022-03-17,1,,,,,エーアンドエフリノベーション,0
1260,6010403027286,新規,0,2022-03-17,2022-03-17,合同会社ＬＡＮＤｓ　ＴＯＫＹＯ,,合同会社,東京都,港区,芝浦４丁目１６番３１－６０１号,,13,103,1080023,,,,,,,2022-03-17,1,,,,,ランズトウキョウ,0
1263,6010501048597,新規,0,2022-03-17,2022-03-17,株式会社Ｍ‐ＴＨＲＥＥ,,株式会社,東京都,台東区,上野２丁目２番３号,,13,106,1100005,,,,,,,2022-03-17,1,,,,,エムスリー,0
1265,6010601060832,新規,0,2022-03-17,2022-03-17,粋堂株式会社,,株式会社,東京都,江東区,新砂２丁目２番１１号佐川東京ロジスティクスセンター５Ｆ,,13,108,1360075,,,,,,,2022-03-17,1,,,,,スイドウ,0
1266,6010601060840,新規,0,2022-03-17,2022-03-17,株式会社Ｐｒｅｍｉｅｒｅ,,株式会社,東京都,墨田区,江東橋４丁目１８番５号錦糸町イスズビル９階,,13,107,1300022,,,,,,,2022-03-17,1,,,,,プルミエール,0
1271,6010701042391,新規,0,2022-03-17,2022-03-17,Ｆｌｕｘｅｒ　Ｅｎｔｅｒｔａｉｎｍｅｎｔ株式会社,,株式会社,東京都,品川区,西五反田２丁目９番７号ドルミ五反田４０７号,,13,109,1410031,,,,,,,2022-03-17,1,,,,,フラクサーエンターテイメント,0
1276,6010803004100,新規,0,2022-03-17,2022-03-17,Ａ合同会社,,合同会社,東京都,大田区,山王３丁目７番３号,,13,111,1430023,,,,,,,2022-03-17,1,,,,,エース,0
1281,6010903007234,新規,0,2022-03-17,2022-03-17,合同会社Ｐ．Ｏ．Ｍ,,合同会社,東京都,世田谷区,桜丘３丁目２４番２号第一山ビル１Ｆ,,13,112,1560054,,,,,,,2022-03-17,1,,,,,ピーオーエム,0
1286,6011001146296,新規,0,2022-03-17,2022-03-17,株式会社ＰＯＲＴＡＭＥＮＴ,,株式会社,東京都,渋谷区,渋谷１丁目１５番１２号ＬＡＩＤＯＵＴＳＨＩＢＵＹＡ２０４,,13,113,1500002,,,,,,,2022-03-17,1,,,,,ポルタメント,0
1287,6011001146305,新規,0,2022-03-17,2022-03-17,Ｄａｔａｉｋｕ　Ｊａｐａｎ株式会社,,株式会社,東京都,渋谷区,渋谷２丁目２４番１２号,,13,113,1500002,,,,,,,2022-03-17,1,,,,,データイクジャパン,0
1288,6011001146437,新規,0,2022-03-17,2022-03-17,株式会社ｎａｎａｔｅｃｈ,,株式会社,東京都,渋谷区,渋谷３丁目１９番１号,,13,113,1500002,,,,,,,2022-03-17,1,,,,,ナナテク,0
1291,6011005009490,新規,0,2022-03-17,2022-03-17,一般社団法人Ｗｏｍｅｎ’ｓ　Ｓｔａｒｔｕｐ　Ｌａｂ　Ｉｍｐａｃｔ　Ｆｏｕｎｄａｔｉｏｎ　Ｊａｐａｎ,,その他の設立登記法人,東京都,渋谷区,神宮前６丁目２３番４号,,13,113,1500001,,,,,,,2022-03-17,1,,,,,ウィメンズスタートアップラボインパクトファウンデーションジャパン,0
1297,6011403003599,新規,0,2022-03-17,2022-03-17,合同会社Ｆ　ｃｏｍｐａｎｙ,,合同会社,東京都,板橋区,前野町５丁目２４番７－３０４号ダイアパレス前野台,,13,119,1740063,,,,,,,2022-03-17,1,,,,,エフカンパニー,0
1299,6011501027847,新規,0,2022-03-17,2022-03-17,株式会社萩原,,株式会社,東京都,荒川区,西日暮里３丁目１１番８号,,13,118,1160013,,,,,,,2022-03-17,1,,,,,ハギワラ,0
1312,6012305001996,新規,0,2022-03-17,2022-03-17,医療法人社団草童会,,その他の設立登記法人,東京都,町田市,鶴間３丁目２番地３ＭＱプラザ南町田１階,,13,209,1940004,,,,,,,2022-03-17,1,,,,,シャダンソウドウカイ,0
1320,6013301048825,新規,0,2022-03-17,2022-03-17,株式会社ＤＣ,,株式会社,東京都,豊島区,西池袋１丁目１７番１０号新光ビル３Ｆ,,13,116,1710021,,,,,,,2022-03-17,1,,,,,ディーシー,0
1329,6020001145670,新規,0,2022-03-17,2022-03-17,株式会社Ｓ＆Ｋ,,株式会社,神奈川県,横浜市鶴見区,大東町１番地２０,,14,101,2300032,,,,,,,2022-03-17,1,,,,,エスアンドケー,0
1332,6020005015416,新規,0,2022-03-17,2022-03-17,一般社団法人復曲能を観る会,,その他の設立登記法人,神奈川県,横浜市神奈川区,神大寺４丁目２４番１６号,,14,102,2210801,,,,,,,2022-03-17,1,,,,,フッキョクノウヲミルカイ,0
1336,6021003011489,新規,0,2022-03-17,2022-03-17,Ｔ‐ＢＲＩＤＧＥ合同会社,,合同会社,神奈川県,相模原市南区,相模大野６丁目２３－１５プラザシティ相模大野２０２,,14,153,2520303,,,,,,,2022-03-17,1,,,,,ティーブリッジ,0
1340,6030001147294,新規,0,2022-03-17,2022-03-17,株式会社Ｍａｇｉｃａｌ,,株式会社,埼玉県,ふじみ野市,亀久保３丁目５番２３号,,11,245,3560051,,,,,,,2022-03-17,1,,,,,マジカル,0
1341,6030001147303,新規,0,2022-03-17,2022-03-17,株式会社セイコム,,株式会社,埼玉県,日高市,大字原宿６７８番地１,,11,242,3501205,,,,,,,2022-03-17,1,,,,,セイコム,0
1346,6030003019054,新規,0,2022-03-17,2022-03-17,合同会社ＳＣＤ,,合同会社,埼玉県,川口市,本町２丁目１１－１７－１００５,,11,203,3320012,,,,,,,2022-03-17,1,,,,,エスシーディ,0
1351,6040001122593,新規,0,2022-03-17,2022-03-17,株式会社海技,,株式会社,千葉県,柏市,若白毛８４番地４,,12,217,2701444,,,,,,,2022-03-17,1,,,,,カイギ,0
1352,6040001122619,新規,0,2022-03-17,2022-03-17,株式会社ＳＡＫＩＭＯＲＩ,,株式会社,千葉県,千葉市稲毛区,園生町１３４０番地１,,12,103,2630051,,,,,,,2022-03-17,1,,,,,サキモリ,0
1353,6040001122651,新規,0,2022-03-17,2022-03-17,株式会社オトポート,,株式会社,千葉県,柏市,若柴１７８番地４柏の葉キャンパス１４８街区２ショップ＆オフィス棟６Ｆ,,12,217,2770871,,,,,,,2022-03-17,1,,,,,オトポート,0
1354,6040003019656,新規,0,2022-03-17,2022-03-17,リホプロインターナショナル合同会社,,合同会社,千葉県,松戸市,金ケ作３５４番地の１２,,12,207,2702251,,,,,,,2022-03-17,1,,,,,リホプロインターナショナル,0
1360,6050001050810,新規,0,2022-03-17,2022-03-17,ＹＢＴホールディングス株式会社,,株式会社,茨城県,鉾田市,大和田１４１０番地,,08,234,3111536,,,,,,,2022-03-17,1,,,,,ワイビーティーホールディングス,0
1362,6050003006439,新規,0,2022-03-17,2022-03-17,合同会社ＫＡＮＡＤＥＡ,,合同会社,茨城県,土浦市,西真鍋町７－１,,08,203,3000054,,,,,,,2022-03-17,1,,,,,カナディア,0
1365,6060005009959,新規,0,2022-03-17,2022-03-17,一般社団法人ＰＡＬＥＴＴＥ,,その他の設立登記法人,栃木県,宇都宮市,下岡本町４５５１番地３,,09,201,3291104,,,,,,,2022-03-17,1,,,,,パレット,0
1378,6080401025657,新規,0,2022-03-17,2022-03-17,株式会社Ｂｅｌｌｅ’ｂｅ,,株式会社,静岡県,湖西市,利木４８２番地,,22,221,4310402,,,,,,,2022-03-17,1,,,,,ベルビー,0
1379,6100003006466,新規,0,2022-03-17,2022-03-17,合同会社増屋,,合同会社,長野県,駒ヶ根市,上穂北１７番１０号,,20,210,3994116,,,,,,,2022-03-17,1,,,,,マスヤ,0
1390,6120001244454,新規,0,2022-03-17,2022-03-17,株式会社ＬＯＣＩプラス一級建築士事務所,,株式会社,大阪府,大阪市浪速区,幸町１丁目２番９－５０４,,27,111,5560021,,,,,,,2022-03-17,1,,,,,ロキプラスイッキュウケンチクシジムショ,0
1391,6120001244512,新規,0,2022-03-17,2022-03-17,株式会社ラリーコムレイド,,株式会社,大阪府,大阪市鶴見区,緑３丁目２番２７号,,27,124,5380054,,,,,,,2022-03-17,1,,,,,ラリーコムレイド,0
1394,6120003021273,新規,0,2022-03-17,2022-03-17,合同会社ｐａｎｄａ　ｈｏｌｄｉｎｇｓ,,合同会社,大阪府,大阪市中央区,日本橋２丁目７番１３号福永ビル２０３号室,,27,128,5420073,,,,,,,2022-03-17,1,,,,,パンダホールディングス,0
1395,6120003021298,新規,0,2022-03-17,2022-03-17,合同会社ＴＫグループ,,合同会社,大阪府,大阪市福島区,吉野２丁目９番１０－９１０号,,27,103,5530006,,,,,,,2022-03-17,1,,,,,ティーケーグループ,0
1397,6120101065247,新規,0,2022-03-17,2022-03-17,株式会社ＣＲＯＳＳ　ＬＩＮＥ,,株式会社,大阪府,岸和田市,春木北浜町５－１,,27,202,5960037,,,,,,,2022-03-17,1,,,,,クロスライン,0
1403,6122001035684,新規,0,2022-03-17,2022-03-17,株式会社鯉のぼり,,株式会社,大阪府,東大阪市,稲田上町１丁目２０番１７号メゾンドゥＴ２ＷＯ２０３号室,,27,227,5770002,,,,,,,2022-03-17,1,,,,,コイノボリ,0
1421,6180001150424,新規,0,2022-03-17,2022-03-17,株式会社Ｔｕｒｑｕｏｉｓｅ,,株式会社,愛知県,名古屋市守山区,町北１４番２０号,,23,113,4630074,,,,,,,2022-03-17,1,,,,,ターコイズ,0
1435,6250001019455,新規,0,2022-03-17,2022-03-17,株式会社ＯＲＩＧＩＮ,,株式会社,山口県,宇部市,大字瓜生野５２７－１,,35,202,7590135,,,,,,,2022-03-17,1,,,,,オリジン,0
1438,6280001008661,新規,0,2022-03-17,2022-03-17,株式会社Ａ．Ｃ．Ｐ,,株式会社,島根県,松江市,栄町４２番地７,,32,201,6900042,,,,,,,2022-03-17,1,,,,,エーシーピー,0
1443,6290001096854,新規,0,2022-03-17,2022-03-17,株式会社エステート六本松,,株式会社,福岡県,福岡市中央区,草香江２丁目６番１４号,,40,133,8100045,,,,,,,2022-03-17,1,,,,,エステートロッポンマツ,0
1445,6290003012272,新規,0,2022-03-17,2022-03-17,合同会社フィルムプラス,,合同会社,福岡県,福岡市中央区,今泉２丁目５－２４権藤ビル３０３,,40,133,8100021,,,,,,,2022-03-17,1,,,,,フィルムプラス,0
1452,6310001017766,新規,0,2022-03-17,2022-03-17,株式会社みどり建装,,株式会社,長崎県,長崎市,矢上町１９番１０号青田ビル,,42,201,8510133,,,,,,,2022-03-17,1,,,,,ミドリケンソウ,0
1454,6340001024578,新規,0,2022-03-17,2022-03-17,株式会社ＫＣＣＳ,,株式会社,鹿児島県,姶良市,加治木町港町１５番地,,46,225,8995221,,,,,,,2022-03-17,1,,,,,ケーシーシーエス,0
1456,6350001017639,新規,0,2022-03-17,2022-03-17,株式会社伍鉱塗装,,株式会社,宮崎県,宮崎市,清武町木原４８６番地,,45,201,8891601,,,,,,,2022-03-17,1,,,,,ゴコウトソウ,0
1457,6350003004049,新規,0,2022-03-17,2022-03-17,合同会社リーテンブル,,合同会社,宮崎県,宮崎市,吉村町下り松甲２４９６,,45,201,8800841,,,,,,,2022-03-17,1,,,,,リーテンブル,0
1458,6360001030129,新規,0,2022-03-17,2022-03-17,株式会社ＯｎｅＳｐｉｒｉｔ,,株式会社,沖縄県,那覇市,首里末吉町４丁目５番地の１５,,47,201,9030801,,,,,,,2022-03-17,1,,,,,ワンスピリット,0
1461,6380003005127,新規,0,2022-03-17,2022-03-17,合同会社ココカラ企画,,合同会社,福島県,伊達郡桑折町,大字万正寺字大国水７番地の１７,,07,301,9691651,,,,,,,2022-03-17,1,,,,,ココカラキカク,0
1464,6390001016827,新規,0,2022-03-17,2022-03-17,株式会社創互保証,,株式会社,山形県,山形市,七日町２丁目７番４６－５０７号,,06,201,9900042,,,,,,,2022-03-17,1,,,,,ソウゴホショウ,0
1467,6420003002482,新規,0,2022-03-17,2022-03-17,陸奥湾洋上風力発電合同会社,,合同会社,青森県,青森市,長島２丁目１０番５号パークフロント青い森ビル４階,,02,201,0300861,,,,,,,2022-03-17,1,,,,,ムツワンヨウジョウフウリョクハツデン,0
1470,6430001086196,新規,0,2022-03-17,2022-03-17,株式会社ＭＡＮＡ,,株式会社,北海道,虻田郡倶知安町,字岩尾別４４番地１２,,01,400,0440082,,,,,,,2022-03-17,1,,,,,マナ,0
1474,6480005006889,新規,0,2022-03-17,2022-03-17,特定非営利活動法人まちの食農教育,,その他の設立登記法人,徳島県,名西郡神山町,神領字本上角１０１の１,,36,342,7713310,,,,,,,2022-03-17,1,,,,,マチノショクノウキョウイク,0
1493,7010001225266,新規,0,2022-03-17,2022-03-17,株式会社ファイブスターファクトリー,,株式会社,東京都,千代田区,内神田３丁目１２番４号４０６,,13,101,1010047,,,,,,,2022-03-17,1,,,,,ファイブスターファクトリー,0
1494,7010001225332,新規,0,2022-03-17,2022-03-17,株式会社カチグミ,,株式会社,東京都,千代田区,岩本町３丁目８番８号,,13,101,1010032,,,,,,,2022-03-17,1,,,,,カチグミ,0
1503,7010401166242,新規,0,2022-03-17,2022-03-17,Ｌｏｉｎ株式会社,,株式会社,東京都,港区,南青山３丁目１５番６号,,13,103,1070062,,,,,,,2022-03-17,1,,,,,ロアン,0
1505,7010403027302,新規,0,2022-03-17,2022-03-17,小山物流開発合同会社,,合同会社,東京都,港区,六本木１丁目６番１号泉ガーデンタワー,,13,103,1060032,,,,,,,2022-03-17,1,,,,,オヤマブツリュウカイハツ,0
1510,7010601060831,新規,0,2022-03-17,2022-03-17,Ａｍａｚｉｎｇ　Ｗａｔｅｒ株式会社,,株式会社,東京都,墨田区,吾妻橋３丁目１番７号,,13,107,1300001,,,,,,,2022-03-17,1,,,,,アメイジングウオーター,0
1511,7010601060848,新規,0,2022-03-17,2022-03-17,ウマク株式会社,,株式会社,東京都,江東区,白河２丁目２２番１パークハウス清澄白河リバーサイド４２１,,13,108,1350021,,,,,,,2022-03-17,1,,,,,ウマク,0
1528,7011001146262,新規,0,2022-03-17,2022-03-17,株式会社ｉｎｔｈｅｏｓ,,株式会社,東京都,渋谷区,神宮前６丁目２３番４号桑野ビル２階,,13,113,1500001,,,,,,,2022-03-17,1,,,,,インテオス,0
1532,7011101098156,新規,0,2022-03-17,2022-03-17,株式会社エミアブルシステム,,株式会社,東京都,新宿区,歌舞伎町２丁目２番２０号－４０１,,13,104,1600021,,,,,,,2022-03-17,1,,,,,エミアブルシステム,0
1533,7011101098189,新規,0,2022-03-17,2022-03-17,株式会社ＴＨＡＮＨ　ＢＩＮＨ,,株式会社,東京都,新宿区,大久保２丁目２８－４博和マンション３０２号,,13,104,1690072,,,,,,,2022-03-17,1,,,,,タインビン,0
1537,7011403003598,新規,0,2022-03-17,2022-03-17,合同会社ケボラ,,合同会社,東京都,板橋区,蓮根３丁目１２番２７－７１０号,,13,119,1740046,,,,,,,2022-03-17,1,,,,,ケボラ,0
1538,7011501027846,新規,0,2022-03-17,2022-03-17,株式会社尚美,,株式会社,東京都,荒川区,西日暮里３丁目１１番８号,,13,118,1160013,,,,,,,2022-03-17,1,,,,,ショウビ,0
1539,7011503005107,新規,0,2022-03-17,2022-03-17,ミナスム合同会社,,合同会社,東京都,荒川区,東尾久３丁目１７番１２号,,13,118,1160012,,,,,,,2022-03-17,1,,,,,ミナスム,0
1548,7013301048824,新規,0,2022-03-17,2022-03-17,源商事株式会社,,株式会社,東京都,豊島区,東池袋１丁目３０番１４－７０１号,,13,116,1700013,,,,,,,2022-03-17,1,,,,,ゲンショウジ,0
1559,7020001145686,新規,0,2022-03-17,2022-03-17,株式会社マップロジ,,株式会社,神奈川県,横浜市金沢区,福浦２丁目１１番２号,,14,108,2360004,,,,,,,2022-03-17,1,,,,,マップロジ,0
1568,7030001147277,新規,0,2022-03-17,2022-03-17,株式会社桜子,,株式会社,埼玉県,川口市,大字東内野４１０番地１２,,11,203,3330821,,,,,,,2022-03-17,1,,,,,サクラコ,0
1569,7030001147293,新規,0,2022-03-17,2022-03-17,株式会社オールアンドリアル,,株式会社,埼玉県,さいたま市見沼区,大字御蔵１４２６番地１１,,11,104,3370033,,,,,,,2022-03-17,1,,,,,オールアンドリアル,0
1570,7030001147302,新規,0,2022-03-17,2022-03-17,ハイビスカス株式会社,,株式会社,埼玉県,さいたま市大宮区,大成町１丁目８６番地,,11,103,3300852,,,,,,,2022-03-17,1,,,,,ハイビスカス,0
1571,7030001147310,新規,0,2022-03-17,2022-03-17,株式会社ＲＥＶＩＶＥ,,株式会社,埼玉県,志木市,中宗岡３丁目２１番７－３０２号,,11,228,3530002,,,,,,,2022-03-17,1,,,,,リバイブ,0
1576,7030003019045,新規,0,2022-03-17,2022-03-17,合同会社ＲＥ．ＢＥＬ,,合同会社,埼玉県,所沢市,西所沢１丁目９－１８第２鹿島屋ビル５階,,11,208,3591144,,,,,,,2022-03-17,1,,,,,リベル,0
1577,7040001122618,新規,0,2022-03-17,2022-03-17,株式会社ｕｎｔｉｔｌｅｄ,,株式会社,千葉県,千葉市美浜区,中瀬１丁目６番地エム・ベイポイント幕張７階,,12,106,2610023,,,,,,,2022-03-17,1,,,,,アンタイトル,0
1578,7040001122626,新規,0,2022-03-17,2022-03-17,株式会社Ｒｅ’ｎｅ,,株式会社,千葉県,成田市,はなのき台３丁目２７番地２９,,12,211,2860007,,,,,,,2022-03-17,1,,,,,ルネ,0
1581,7060003003987,新規,0,2022-03-17,2022-03-17,ＪＭ　ＴＲＡＤＩＮＧ合同会社,,合同会社,栃木県,栃木市,岩舟町畳岡３１９番地１,,09,203,3294309,,,,,,,2022-03-17,1,,,,,ジェーエムトレーディング,0
1590,7100003006457,新規,0,2022-03-17,2022-03-17,合同会社アーツ・アンド・クラフツ,,合同会社,長野県,北佐久郡御代田町,大字御代田４１０８－１９０４,,20,323,3890206,,,,,,,2022-03-17,1,,,,,アーツアンドクラフツ,0
1591,7100003006465,新規,0,2022-03-17,2022-03-17,合同会社ｆａｒｍＺＥＲＱ,,合同会社,長野県,中野市,大字西条８９５番地７,,20,211,3830042,,,,,,,2022-03-17,1,,,,,ファームゼルク,0
1607,7120001244544,新規,0,2022-03-17,2022-03-17,株式会社キタムラ都市開発,,株式会社,大阪府,大阪市中央区,博労町４丁目４番１号,,27,128,5410059,,,,,,,2022-03-17,1,,,,,キタムラトシカイハツ,0
1611,7120101065238,新規,0,2022-03-17,2022-03-17,ＲＯＯＴＳ株式会社,,株式会社,大阪府,大阪狭山市,東野西１丁目９９０番地（１０３号）,,27,231,5890001,,,,,,,2022-03-17,1,,,,,ルーツ,0
1612,7120101065254,新規,0,2022-03-17,2022-03-17,エイメイ株式会社,,株式会社,大阪府,堺市中区,土師町１丁４番１５号,,27,142,5998238,,,,,,,2022-03-17,1,,,,,エイメイ,0
1614,7120103004607,新規,0,2022-03-17,2022-03-17,合同会社天照,,合同会社,大阪府,堺市北区,金岡町７０４－２エバーグリーン金岡１号棟４０４号室,,27,146,5918022,,,,,,,2022-03-17,1,,,,,アマテラス,0
1618,7120901045728,新規,0,2022-03-17,2022-03-17,株式会社ＫＯＫＯＰＩＸ,,株式会社,大阪府,池田市,栄本町８番１０－１０１号,,27,204,5630058,,,,,,,2022-03-17,1,,,,,ココピクス,0
1620,7122001035683,新規,0,2022-03-17,2022-03-17,株式会社ホープル,,株式会社,大阪府,東大阪市,西鴻池町２丁目１番４０号,,27,227,5780976,,,,,,,2022-03-17,1,,,,,ホープル,0
1625,7130001071368,新規,0,2022-03-17,2022-03-17,株式会社エス・エスコンサルティング,,株式会社,京都府,京都市伏見区,深草下川原町１０９番地６,,26,109,6128401,,,,,,,2022-03-17,1,,,,,エスエスコンサルティング,0
1629,7140001125255,新規,0,2022-03-17,2022-03-17,Ｖｉｔａｌｉｚｅ株式会社,,株式会社,兵庫県,姫路市,町坪３９２番地５,,28,201,6700984,,,,,,,2022-03-17,1,,,,,ビタライズ,0
1630,7140001125263,新規,0,2022-03-17,2022-03-17,Ｇランドユース株式会社,,株式会社,兵庫県,丹波篠山市,北新町５６番地１,,28,221,6692332,,,,,,,2022-03-17,1,,,,,ジーランドユース,0
1631,7140001125271,新規,0,2022-03-17,2022-03-17,月羽エレック株式会社,,株式会社,兵庫県,尼崎市,田能３丁目２番２６号,,28,202,6610951,,,,,,,2022-03-17,1,,,,,ツキハエレック,0
1633,7140003017459,新規,0,2022-03-17,2022-03-17,ｑｕｕ合同会社,,合同会社,兵庫県,神戸市中央区,磯上通８丁目１番２９号カサベラビルＣ＆Ｍ４０３号室,,28,110,6510086,,,,,,,2022-03-17,1,,,,,クー,0
1636,7160001024050,新規,0,2022-03-17,2022-03-17,株式会社ＲＹＵＳＥＮ,,株式会社,滋賀県,彦根市,高宮町３１３３番地１１,,25,202,5220201,,,,,,,2022-03-17,1,,,,,リュウセン,0
1638,7170003001699,新規,0,2022-03-17,2022-03-17,新たな合同会社の試み,,合同会社,和歌山県,和歌山市,和歌浦南２丁目４番２５号,,30,201,6410022,,,,,,,2022-03-17,1,,,,,アラタナノココロミ,0
1647,7180001150373,新規,0,2022-03-17,2022-03-17,株式会社ＡＴＭ,,株式会社,愛知県,名古屋市北区,平安２丁目２４番８６号,,23,103,4620819,,,,,,,2022-03-17,1,,,,,エイティエム,0
1648,7180001150415,新規,0,2022-03-17,2022-03-17,ｌｏｔｕｓ株式会社,,株式会社,愛知県,名古屋市瑞穂区,師長町１３番地の１,,23,108,4670061,,,,,,,2022-03-17,1,,,,,ロータス,0
1649,7180001150423,新規,0,2022-03-17,2022-03-17,株式会社Ｗａｓｃ,,株式会社,愛知県,名古屋市中区,栄３丁目７番４号トーシンサクラビル１０Ｆ,,23,106,4600008,,,,,,,2022-03-17,1,,,,,ワスク,0
1650,7180001150431,新規,0,2022-03-17,2022-03-17,仲本工務店株式会社,,株式会社,愛知県,知多市,朝倉町１７６番地,,23,224,4780051,,,,,,,2022-03-17,1,,,,,ナカモトコウムテン,0
1651,7180005019672,新規,0,2022-03-17,2022-03-17,一般社団法人春信会,,その他の設立登記法人,愛知県,名古屋市中区,大須３丁目３０番６０号大須３０１ビル４階４号,,23,106,4600011,,,,,,,2022-03-17,1,,,,,シュンシンカイ,0
1652,7180301036033,新規,0,2022-03-17,2022-03-17,株式会社Ｈｅｒｏレーシング,,株式会社,愛知県,西尾市,平坂町北新町７２番地,,23,213,4440305,,,,,,,2022-03-17,1,,,,,ヒーローレーシング,0
1655,7190001029229,新規,0,2022-03-17,2022-03-17,株式会社Ｓｕｎ　ｎｅｘｔ,,株式会社,三重県,四日市市,生桑町８１４番地３,,24,202,5120911,,,,,,,2022-03-17,1,,,,,サンネクスト,0
1656,7190003003925,新規,0,2022-03-17,2022-03-17,ざっきーべい合同会社,,合同会社,三重県,四日市市,清水町１番４５号,,24,202,5100814,,,,,,,2022-03-17,1,,,,,ザッキーベイ,0
1658,7210001018848,新規,0,2022-03-17,2022-03-17,株式会社環境リテック,,株式会社,福井県,福井市,開発２丁目３０６ブルーハイツＶＩＩ１Ｆ北,00125993,18,201,9100842,,,,,,,2022-03-17,1,,,,,カンキョウリテック,0
1661,7220003003244,新規,0,2022-03-17,2022-03-17,合同会社ひまり,,合同会社,石川県,野々市市,清金２丁目１番地３４平野様方,,17,212,9218837,,,,,,,2022-03-17,1,,,,,ヒマリ,0
1672,7290001096820,新規,0,2022-03-17,2022-03-17,株式会社東昇テクニカ,,株式会社,福岡県,春日市,春日原北町４丁目１８番地２－１２０１号,,40,218,8160802,,,,,,,2022-03-17,1,,,,,トウショウテクニカ,0
1673,7290001096845,新規,0,2022-03-17,2022-03-17,株式会社３１５ＪＡＰＡＮ,,株式会社,福岡県,福岡市中央区,渡辺通５丁目２４番３７号天神ＪＯＥビル３０６号室,,40,133,8100004,,,,,,,2022-03-17,1,,,,,サイコージャパン,0
1674,7290001096853,新規,0,2022-03-17,2022-03-17,株式会社エテルナ,,株式会社,福岡県,福岡市中央区,清川２丁目３番２５,,40,133,8100005,,,,,,,2022-03-17,1,,,,,エテルナ,0
1676,7290003012296,新規,0,2022-03-17,2022-03-17,合同会社オフィスＫＯ,,合同会社,福岡県,糸島市,前原駅南３丁目１３番２３号,,40,230,8191138,,,,,,,2022-03-17,1,,,,,オフィスケーオー,0
1686,7360001030128,新規,0,2022-03-17,2022-03-17,株式会社平田設計,,株式会社,沖縄県,国頭郡宜野座村,字惣慶１８２９番地の２,,47,313,9041303,,,,,,,2022-03-17,1,,,,,ヒラタセッケイ,0
1687,7360003011877,新規,0,2022-03-17,2022-03-17,ＹＬ合同会社,,合同会社,沖縄県,宜野湾市,大山６丁目８番１号エヌエイチオフィスビル３Ｆ夢空間Ａ－０１室,,47,205,9012223,,,,,,,2022-03-17,1,,,,,ワイエル,0
1700,7380003005126,新規,0,2022-03-17,2022-03-17,鯨屋ソリューション合同会社,,合同会社,福島県,白河市,新白河３丁目１９７番地,,07,205,9610856,,,,,,,2022-03-17,1,,,,,クジラヤソリューション,0
1706,7420003002481,新規,0,2022-03-17,2022-03-17,津軽半島沖洋上風力発電合同会社,,合同会社,青森県,青森市,長島２丁目１０番５号パークフロント青い森ビル４階,,02,201,0300861,,,,,,,2022-03-17,1,,,,,ツガルハントウオキヨウジョウフウリョクハツデン,0
1714,7460101007164,新規,0,2022-03-17,2022-03-17,株式会社フジイファーム,,株式会社,北海道,中川郡幕別町,字中里２７７番地の４,,01,643,0890782,,,,,,,2022-03-17,1,,,,,フジイファーム,0
1721,8010001225281,新規,0,2022-03-17,2022-03-17,エヌビービーサラゴサリース株式会社,,株式会社,東京都,中央区,日本橋浜町３丁目３番２号,,13,102,1030007,,,,,,,2022-03-17,1,,,,,エヌビービーサラゴサリース,0
1723,8010003037262,新規,0,2022-03-17,2022-03-17,スタートレーラー合同会社,,合同会社,東京都,中央区,晴海３丁目１３番１号,,13,102,1040053,,,,,,,2022-03-17,1,,,,,スタートレーラー,0
1725,8010005034729,新規,0,2022-03-17,2022-03-17,一般社団法人日本在宅療養支援病院連絡協議会,,その他の設立登記法人,東京都,千代田区,神田猿楽町２丁目８番８号,,13,101,1010064,,,,,,,2022-03-17,1,,,,,ニホンザイタクリョウヨウシエンビョウインレンラクキョウギカイ,0
1735,8010401166209,新規,0,2022-03-17,2022-03-17,株式会社ＫＥＮＳ　ＴＲＡＤＩＮＧ,,株式会社,東京都,港区,虎ノ門１丁目１７番１号,,13,103,1050001,,,,,,,2022-03-17,1,,,,,ケンズトレーディング,0
1736,8010401166217,新規,0,2022-03-17,2022-03-17,ＵＦＢＣ株式会社,,株式会社,東京都,港区,六本木３丁目１８番１２号,,13,103,1060032,,,,,,,2022-03-17,1,,,,,ユーエフビーシー,0
1737,8010401166266,新規,0,2022-03-17,2022-03-17,株式会社ロイヤルエクスペリエンス,,株式会社,東京都,港区,芝２丁目１２－９波ビル３階,,13,103,1050014,,,,,,,2022-03-17,1,,,,,ロイヤルエクスペリエンス,0
1741,8010405020816,新規,0,2022-03-17,2022-03-17,鳥栖開発特定目的会社,,その他の設立登記法人,東京都,港区,虎ノ門３丁目２２番１０－２０１号,,13,103,1050001,,,,,,,2022-03-17,1,,,,,トスカイハツ,0
1744,8010501048587,新規,0,2022-03-17,2022-03-17,ノビー株式会社,,株式会社,東京都,台東区,蔵前３丁目１５番１号,,13,106,1110051,,,,,,,2022-03-17,1,,,,,ノビー,0
1747,8010601060830,新規,0,2022-03-17,2022-03-17,株式会社ＵＮＩＴＥ,,株式会社,東京都,墨田区,両国１丁目５番４号,,13,107,1300026,,,,,,,2022-03-17,1,,,,,ユナイト,0
1748,8010601060839,新規,0,2022-03-17,2022-03-17,株式会社セキド,,株式会社,東京都,墨田区,立花１丁目４番１９－３０９号,,13,107,1310043,,,,,,,2022-03-17,1,,,,,セキド,0
1749,8010601060847,新規,0,2022-03-17,2022-03-17,株式会社Ｈａｌｏｖｅｒｓｅ,,株式会社,東京都,江東区,大島１丁目２－２サンセットタワー１４０３,,13,108,1360072,,,,,,,2022-03-17,1,,,,,ハロヴァース,0
1750,8010603009446,新規,0,2022-03-17,2022-03-17,Ｗｉｓｈｉｎｇ　Ｔｒｅｅ合同会社,,合同会社,東京都,江東区,越中島３丁目１番３号ルネ・ベイグランデ１２０３,,13,108,1350044,,,,,,,2022-03-17,1,,,,,ウィッシングツリー,0
1751,8010701042381,新規,0,2022-03-17,2022-03-17,株式会社グレイスフィールド,,株式会社,東京都,品川区,上大崎３丁目１番３０－３００２号,,13,109,1410021,,,,,,,2022-03-17,1,,,,,グレイスフィールド,0
1753,8010703006153,新規,0,2022-03-17,2022-03-17,Ｔｅｓｈｉｇｏｔｏ合同会社,,合同会社,東京都,品川区,西五反田４丁目３１番１８号,,13,109,1410031,,,,,,,2022-03-17,1,,,,,テシゴト,0
1754,8010801032811,新規,0,2022-03-17,2022-03-17,株式会社ＭＩＲＡ　ＩＮＮＯＶＡＴＩＯＮ,,株式会社,東京都,大田区,山王４丁目１６－１７－４０３,,13,111,1430023,,,,,,,2022-03-17,1,,,,,ミライノベーション,0
1757,8010901050523,新規,0,2022-03-17,2022-03-17,株式会社Ｎ‐ＴＲＵＳＴ,,株式会社,東京都,世田谷区,三軒茶屋２丁目５１番２５号,,13,112,1540024,,,,,,,2022-03-17,1,,,,,エヌトラスト,0
1758,8010903007232,新規,0,2022-03-17,2022-03-17,合同会社ラーニングアジリティ,,合同会社,東京都,世田谷区,若林４丁目１１番５‐２０９号,,13,112,1540023,,,,,,,2022-03-17,1,,,,,ラーニングアジリティ,0
1759,8010903007240,新規,0,2022-03-17,2022-03-17,合同会社セルビッグ,,合同会社,東京都,世田谷区,大原２丁目３－７,,13,112,1560041,,,,,,,2022-03-17,1,,,,,セルビッグ,0
1760,8010905004285,新規,0,2022-03-17,2022-03-17,医療法人社団昭友会,,その他の設立登記法人,東京都,世田谷区,梅丘１丁目２６番５号第一小山ビル２階・３階,,13,112,1540022,,,,,,,2022-03-17,1,,,,,ショウユウカイ,0
1763,8011001146311,新規,0,2022-03-17,2022-03-17,株式会社真名井,,株式会社,東京都,目黒区,自由が丘３丁目５番３号,,13,110,1520035,,,,,,,2022-03-17,1,,,,,マナイ,0
1764,8011001146336,新規,0,2022-03-17,2022-03-17,Ｉｍｐｅｒｉｕｍ　Ｄｒｅａｍｓ株式会社,,株式会社,東京都,渋谷区,富ヶ谷１丁目１４－１４スタンフォードアネックスビル３階,,13,113,1510063,,,,,,,2022-03-17,1,,,,,インペリアムドリムズ,0
1765,8011001146352,新規,0,2022-03-17,2022-03-17,株式会社ＳＩＣ,,株式会社,東京都,渋谷区,神宮前３丁目１－２４－３０６,,13,113,1500001,,,,,,,2022-03-17,1,,,,,エスアイシー,0
1766,8011001146369,新規,0,2022-03-17,2022-03-17,株式会社ＳＯＷ　ＬＩＦＥ,,株式会社,東京都,渋谷区,千駄ヶ谷２丁目３７番８号１Ｆ,,13,113,1510051,,,,,,,2022-03-17,1,,,,,ソウライフ,0
1767,8011001146385,新規,0,2022-03-17,2022-03-17,株式会社クオーツ,,株式会社,東京都,渋谷区,代々木５丁目１２－１３ラドスト代々木公園３０２,,13,113,1510053,,,,,,,2022-03-17,1,,,,,クオーツ,0
1772,8011103011561,新規,0,2022-03-17,2022-03-17,合同会社金木犀,,合同会社,東京都,新宿区,西新宿３丁目３番１３号西新宿水間ビル６階,,13,104,1600023,,,,,,,2022-03-17,1,,,,,キンモクセイ,0
1773,8011103011578,新規,0,2022-03-17,2022-03-17,合同会社Ａｔｔａｃｋ５５,,合同会社,東京都,新宿区,矢来町１２０番地１ＫＤＸレジデンス神楽坂通１００４,,13,104,1620805,,,,,,,2022-03-17,1,,,,,アタックゴーゴー,0
1775,8011301027632,新規,0,2022-03-17,2022-03-17,株式会社ＷＢコンサルティング,,株式会社,東京都,杉並区,荻窪３丁目３２番２号,,13,115,1670051,,,,,,,2022-03-17,1,,,,,ダブリュービーコンサルティング,0
1776,8011303004340,新規,0,2022-03-17,2022-03-17,合同会社長野ＢＢＳ,,合同会社,東京都,杉並区,本天沼１丁目８番１３号,,13,115,1670031,,,,,,,2022-03-17,1,,,,,ナガノビービーエス,0
1777,8011401024100,新規,0,2022-03-17,2022-03-17,ＳａｔｏＳ　Ｃａｐｉｔａｌ　Ｍａｎａｇｅｍｅｎｔ株式会社,,株式会社,東京都,板橋区,蓮根１丁目３－６,,13,119,1740046,,,,,,,2022-03-17,1,,,,,サトスキャピタルマネジメント,0
1778,8011403003597,新規,0,2022-03-17,2022-03-17,合同会社ソル,,合同会社,東京都,板橋区,氷川町６番１１－８０４号,,13,119,1730013,,,,,,,2022-03-17,1,,,,,ソル,0
1779,8011701025129,新規,0,2022-03-17,2022-03-17,ジャパンスマイル株式会社,,株式会社,東京都,江戸川区,南葛西５丁目３番６－１０３号,,13,123,1340085,,,,,,,2022-03-17,1,,,,,ジャパンスマイル,0
1783,8011801040457,新規,0,2022-03-17,2022-03-17,株式会社ＶＤＣマネージメント,,株式会社,東京都,葛飾区,東新小岩８丁目１４番２０号,,13,122,1240023,,,,,,,2022-03-17,1,,,,,ブイディーシーマネージメント,0
1785,8012401038965,新規,0,2022-03-17,2022-03-17,株式会社長崎コーポレーション,,株式会社,東京都,多摩市,聖ヶ丘１丁目１番地の８,,13,224,2060022,,,,,,,2022-03-17,1,,,,,ナガサキコーポレーション,0
1789,8012403005286,新規,0,2022-03-17,2022-03-17,ネコソダテ合同会社,,合同会社,東京都,武蔵野市,吉祥寺東町４丁目１３番１３号,,13,203,1800002,,,,,,,2022-03-17,1,,,,,ネコソダテ,0
1794,8013301048823,新規,0,2022-03-17,2022-03-17,株式会社ＮＥＷ　ＷＥＡＬＴＨ,,株式会社,東京都,豊島区,池袋２丁目３６番６号,,13,116,1710014,,,,,,,2022-03-17,1,,,,,ニューウェルス,0
1795,8013303006060,新規,0,2022-03-17,2022-03-17,ＰｌａｙＭｉｎｅｄ合同会社,,合同会社,東京都,豊島区,南池袋１丁目１３－１ステージファースト池袋２０５,,13,116,1710022,,,,,,,2022-03-17,1,,,,,プレイマインド,0
1796,8013303006077,新規,0,2022-03-17,2022-03-17,ＴＲＡＮ　ＶＵ合同会社,,合同会社,東京都,豊島区,池袋本町４丁目３４番４号ＳＴ池袋本町２０３号,,13,116,1700011,,,,,,,2022-03-17,1,,,,,チャンブー,0
1797,8013303006085,新規,0,2022-03-17,2022-03-17,合同会社ＳＴＹ,,合同会社,東京都,豊島区,池袋２丁目４２番９号中川ビルＢ１,,13,116,1710014,,,,,,,2022-03-17,1,,,,,エスティー,0
1805,8020001145693,新規,0,2022-03-17,2022-03-17,株式会社Ｇｌｏｂａｌｌｅｎｇｅ,,株式会社,神奈川県,横浜市神奈川区,反町１丁目１１番地４－９０３号,,14,102,2210825,,,,,,,2022-03-17,1,,,,,グローバレンジ,0
1821,8040001122641,新規,0,2022-03-17,2022-03-17,ちびぷろ株式会社,,株式会社,千葉県,浦安市,明海４丁目２番８－２６０７号,,12,227,2790014,,,,,,,2022-03-17,1,,,,,チビプロ,0
1822,8040001122658,新規,0,2022-03-17,2022-03-17,株式会社Ｃｈａｐ．５,,株式会社,千葉県,袖ケ浦市,蔵波台４丁目８番地８,,12,229,2990245,,,,,,,2022-03-17,1,,,,,チャプターファイブ,0
1827,8060001034661,新規,0,2022-03-17,2022-03-17,ブライト・ファム株式会社,,株式会社,栃木県,足利市,葉鹿町７８３番地１０,,09,202,3260143,,,,,,,2022-03-17,1,,,,,ブライトファム,0
1833,8070005009964,新規,0,2022-03-17,2022-03-17,一般社団法人群馬・パキスタン協会ＳＡＨＡＲＡ,,その他の設立登記法人,群馬県,前橋市,上小出町３丁目１０番地６,,10,201,3710037,,,,,,,2022-03-17,1,,,,,グンマパキスタンキョウカイサハラ,0
1837,8080401025688,新規,0,2022-03-17,2022-03-17,ｗｉｌｌｉｎｇｗｏｒｋ株式会社,,株式会社,静岡県,浜松市中区,元城町２２２番地２５アルスビル３階,,22,131,4300946,,,,,,,2022-03-17,1,,,,,ウィリングワーク,0
1841,8110001036512,新規,0,2022-03-17,2022-03-17,ケイエスプラン株式会社,,株式会社,新潟県,五泉市,北五泉駅前２番４４号,,15,218,9591814,,,,,,,2022-03-17,1,,,,,ケイエスプラン,0
1853,8120001244403,新規,0,2022-03-17,2022-03-17,株式会社Ｓｍａｒｔ　Ｉｎｄｕｓｔｒｙ　Ｌａｂ,,株式会社,大阪府,大阪市北区,芝田２丁目８－１１共栄ビル３階,,27,127,5300012,,,,,,,2022-03-17,1,,,,,スマートインダストリーラボ,0
1854,8120001244485,新規,0,2022-03-17,2022-03-17,シャトン株式会社,,株式会社,大阪府,大阪市淀川区,十三東１丁目１１番１９－４０６号,,27,123,5320023,,,,,,,2022-03-17,1,,,,,シャトン,0
1855,8120001244493,新規,0,2022-03-17,2022-03-17,日升株式会社,,株式会社,大阪府,大阪市中央区,船場中央２丁目１番４号船場センタービル４号館地下一階Ｂ１０８ＲＯＹＡＬＯＦＦＩＣＥ内,,27,128,5410055,,,,,,,2022-03-17,1,,,,,ヒノボリ,0
1856,8120001244535,新規,0,2022-03-17,2022-03-17,株式会社ラジカル,,株式会社,大阪府,大阪市中央区,南船場４丁目２番１８号佐野屋橋ビル３０６号,,27,128,5420081,,,,,,,2022-03-17,1,,,,,ラジカル,0
1857,8120001244543,新規,0,2022-03-17,2022-03-17,株式会社ブリッジバード,,株式会社,大阪府,大阪市港区,波除２丁目４番１３－６０１号,,27,107,5520001,,,,,,,2022-03-17,1,,,,,ブリッジバード,0
1862,8120003021288,新規,0,2022-03-17,2022-03-17,Ｓｈｉｂｕｋａｗａ　Ｍａｒｉｎｅ　Ｖｉｌｌａｇｅ合同会社,,合同会社,大阪府,大阪市北区,堂島１丁目６番２０号堂島アバンザ８階,,27,127,5300003,,,,,,,2022-03-17,1,,,,,シブカワマリンヴィレッジ,0
1863,8120003021296,新規,0,2022-03-17,2022-03-17,合同会社いきものがたり,,合同会社,大阪府,枚方市,藤阪東町４丁目１番２７号,,27,210,5730153,,,,,,,2022-03-17,1,,,,,イキモノガタリ,0
1864,8120003021305,新規,0,2022-03-17,2022-03-17,８８合同会社,,合同会社,大阪府,大阪市生野区,中川西２丁目１６番９号,,27,116,5440032,,,,,,,2022-03-17,1,,,,,ハチハチ,0
1866,8120005022846,新規,0,2022-03-17,2022-03-17,社会福祉法人湊夢創造館,,その他の設立登記法人,大阪府,大阪市住之江区,南港中５丁目３番３７号,,27,125,5590033,,,,,,,2022-03-17,1,,,,,ソウムソウゾウカン,0
1868,8120101065237,新規,0,2022-03-17,2022-03-17,株式会社ＪＳＫＲ,,株式会社,大阪府,堺市西区,津久野町１丁８番６号セントポリア津久野１０１,,27,144,5938322,,,,,,,2022-03-17,1,,,,,ジェイエスケイアール,0
1869,8120101065253,新規,0,2022-03-17,2022-03-17,株式会社呑むら家,,株式会社,大阪府,和泉市,いぶき野２丁目１３番５号,,27,219,5940041,,,,,,,2022-03-17,1,,,,,ノムラケ,0
1875,8120103004606,新規,0,2022-03-17,2022-03-17,トランス合同会社,,合同会社,大阪府,羽曳野市,飛鳥１２０１－１,,27,222,5830842,,,,,,,2022-03-17,1,,,,,トランス,0
1877,8120901045727,新規,0,2022-03-17,2022-03-17,Ｋａｔｓｕｙａｍａ　Ｐｈａｒｍａｃｅｕｔｉｃａｌｓ株式会社,,株式会社,大阪府,吹田市,泉町１丁目２２番３３号,,27,205,5640041,,,,,,,2022-03-17,1,,,,,カツヤマファーマスーティカルズ,0
1879,8122001035682,新規,0,2022-03-17,2022-03-17,株式会社ニモ,,株式会社,大阪府,八尾市,竹渕西４丁目５４番地,,27,212,5810051,,,,,,,2022-03-17,1,,,,,ニモ,0
1880,8122005003611,新規,0,2022-03-17,2022-03-17,一般社団法人ＴＥＡＭ‐Ｉ,,その他の設立登記法人,大阪府,東大阪市,岸田堂北町１０番７号,,27,227,5770846,,,,,,,2022-03-17,1,,,,,チームアイ,0
1881,8130001071350,新規,0,2022-03-17,2022-03-17,株式会社ＵＮＤＯＯ＆Ｃｏ,,株式会社,京都府,京都市伏見区,向島中島町８６番地１０,,26,109,6128113,,,,,,,2022-03-17,1,,,,,アンドゥアンドシーオー,0
1882,8130001071367,新規,0,2022-03-17,2022-03-17,小動物株式会社,,株式会社,京都府,京都市東山区,上梅屋町１６２番地,,26,105,6050876,,,,,,,2022-03-17,1,,,,,ショウドウブツ,0
1895,8140003017458,新規,0,2022-03-17,2022-03-17,合同会社ｂ’ｓ,,合同会社,兵庫県,高砂市,阿弥陀町南池３４１番地１１,,28,216,6760824,,,,,,,2022-03-17,1,,,,,ビーズ,0
1896,8140003017466,新規,0,2022-03-17,2022-03-17,椿合同会社,,合同会社,兵庫県,神戸市兵庫区,湊町２丁目２番７号,,28,105,6520812,,,,,,,2022-03-17,1,,,,,ツバキ,0
1899,8160001024058,新規,0,2022-03-17,2022-03-17,株式会社ナナリン,,株式会社,滋賀県,湖南市,柑子袋７２番地３,,25,211,5203233,,,,,,,2022-03-17,1,,,,,ナナリン,0
1908,8180001150422,新規,0,2022-03-17,2022-03-17,株式会社プログリット,,株式会社,愛知県,一宮市,木曽川町黒田八ノ通り１３番地１,,23,203,4930001,,,,,,,2022-03-17,1,,,,,プログリット,0
1909,8180001150430,新規,0,2022-03-17,2022-03-17,株式会社デイワン,,株式会社,愛知県,名古屋市天白区,植田山４丁目９０１番地,,23,116,4680001,,,,,,,2022-03-17,1,,,,,デイワン,0
1910,8180001150439,新規,0,2022-03-17,2022-03-17,Ｌａ　ｆａｃｔｏｒｙ株式会社,,株式会社,愛知県,名古屋市中区,千代田３丁目３４番１５号グランカーサ上前津１００３号,,23,106,4600012,,,,,,,2022-03-17,1,,,,,ラファクトリー,0
1913,8180003023618,新規,0,2022-03-17,2022-03-17,合同会社善学,,合同会社,愛知県,名古屋市緑区,姥子山１丁目５０７番地,,23,114,4580830,,,,,,,2022-03-17,1,,,,,ゼンガク,0
1914,8180003023626,新規,0,2022-03-17,2022-03-17,合同会社Ｓ,,合同会社,愛知県,名古屋市西区,那古野２丁目２４番２号エステムコート名古屋駅前ＣＯＲＥ１００２号,00126002,23,104,4510042,,,,,,,2022-03-17,1,,,,,エス,0
1916,8180303005282,新規,0,2022-03-17,2022-03-17,合同会社山本商事,,合同会社,愛知県,岡崎市,上地町字上明寺１４番地,,23,202,4440824,,,,,,,2022-03-17,1,,,,,ヤマモトショウジ,0
1917,8220003003243,新規,0,2022-03-17,2022-03-17,つみき合同会社,,合同会社,石川県,白山市,美川中町イ１６番地８６,,17,210,9290224,,,,,,,2022-03-17,1,,,,,ツミキ,0
1920,8240001059475,新規,0,2022-03-17,2022-03-17,株式会社エフ企画,,株式会社,広島県,東広島市,西条町助実１８３２番地１ルピナスマンション６０３,,34,212,7390021,,,,,,,2022-03-17,1,,,,,エフキカク,0
1923,8250001019461,新規,0,2022-03-17,2022-03-17,ＫａＫａ　Ｐｌｕｓ株式会社,,株式会社,山口県,下関市,彦島西山町３丁目６番２２号,,35,201,7500093,,,,,,,2022-03-17,1,,,,,カカプラス,0
1930,8290001096844,新規,0,2022-03-17,2022-03-17,ＴＦＣ株式会社,,株式会社,福岡県,柳川市,三橋町蒲船津２２番地２,,40,207,8320827,,,,,,,2022-03-17,1,,,,,ティーエフシー,0
1931,8290003012295,新規,0,2022-03-17,2022-03-17,合同会社ＴＧ,,合同会社,福岡県,福岡市早良区,野芥５丁目１２番１４号,,40,137,8140171,,,,,,,2022-03-17,1,,,,,ティージー,0
1933,8300001012840,新規,0,2022-03-17,2022-03-17,株式会社ＩＳＩＳＵ,,株式会社,佐賀県,唐津市,畑島５３６５番地,,41,202,8470833,,,,,,,2022-03-17,1,,,,,アイシス,0
1936,8310003004307,新規,0,2022-03-17,2022-03-17,合同会社巧,,合同会社,長崎県,島原市,有明町大三東戊６３９番地３,,42,203,8591415,,,,,,,2022-03-17,1,,,,,タクミ,0
1939,8330001029543,新規,0,2022-03-17,2022-03-17,株式会社Ｌｉｋｅ　Ｕｓ,,株式会社,熊本県,菊池郡大津町,大字杉水１１４４番地５,,43,403,8691236,,,,,,,2022-03-17,1,,,,,ライクアス,0
1941,8340002028667,新規,0,2022-03-17,2022-03-17,有限会社紙屋建設,,有限会社,鹿児島県,霧島市,隼人町姫城１１６５番地,,46,218,8995111,,,,,,,2022-03-17,1,,,,,カミヤケンセツ,0
1943,8350003004047,新規,0,2022-03-17,2022-03-17,合同会社Ｅｅｅ・Ｌｉｆｅ,,合同会社,宮崎県,西都市,大字下三財１６０３番地２,,45,208,8810113,,,,,,,2022-03-17,1,,,,,イーライフ,0
1945,8360001030127,新規,0,2022-03-17,2022-03-17,ＹＯＬＯ株式会社,,株式会社,沖縄県,八重山郡竹富町,字南風見２０１番地の２７パームハウス１０３,,47,381,9071434,,,,,,,2022-03-17,1,,,,,ヨーロ,0
1946,8360001030135,新規,0,2022-03-17,2022-03-17,株式会社山城建設,,株式会社,沖縄県,那覇市,首里末吉町２丁目１８９番地６,,47,201,9030801,,,,,,,2022-03-17,1,,,,,ヤマシロケンセツ,0
1947,8360003011876,新規,0,2022-03-17,2022-03-17,合同会社家族支援ゆんたく,,合同会社,沖縄県,南城市,玉城字船越５４番地２,,47,215,9010618,,,,,,,2022-03-17,1,,,,,カゾクシエンユンタク,0
1949,8370001048333,新規,0,2022-03-17,2022-03-17,株式会社キズナ建設,,株式会社,宮城県,仙台市青葉区,愛子東３丁目１２番３３号サンパティークＣ１０１,,04,101,9893127,,,,,,,2022-03-17,1,,,,,キズナケンセツ,0
1956,8380001032658,新規,0,2022-03-17,2022-03-17,エクステンド株式会社,,株式会社,福島県,郡山市,大槻町字普門寺坦北２５番地の６,,07,203,9630201,,,,,,,2022-03-17,1,,,,,エクステンド,0
1958,8380003005125,新規,0,2022-03-17,2022-03-17,ＸＣＥＬ　Ｊａｐａｎ合同会社,,合同会社,福島県,南相馬市,原町区桜井町１丁目２７８,,07,212,9750032,,,,,,,2022-03-17,1,,,,,エクセルジャパン,0
1961,8400003002912,新規,0,2022-03-17,2022-03-17,合同会社西仁,,合同会社,岩手県,岩手郡雫石町,長山堤６４－７,,03,301,0200585,,,,,,,2022-03-17,1,,,,,ニシジン,0
1970,8430001086211,新規,0,2022-03-17,2022-03-17,株式会社Ｔ‐ＭＷＫ,,株式会社,北海道,札幌市中央区,南三条西３丁目５番地都ビル４階,,01,101,0600063,,,,,,,2022-03-17,1,,,,,ティーエムダヴルケー,0
1979,9010001225272,新規,0,2022-03-17,2022-03-17,株式会社Ｐｒｏｇｒｅｓｓ,,株式会社,東京都,中央区,日本橋蛎殻町１丁目３番８－８０６号,,13,102,1030014,,,,,,,2022-03-17,1,,,,,プログレス,0
1982,9010005034678,新規,0,2022-03-17,2022-03-17,一般社団法人ジェイファム球団,,その他の設立登記法人,東京都,中央区,銀座６丁目１４番２０号香蘭社ビル３階,,13,102,1040061,,,,,,,2022-03-17,1,,,,,ジェイファムキュウダン,0
1984,9010103001877,新規,0,2022-03-17,2022-03-17,ｆｏｒｌｏｏｐ合同会社,,合同会社,東京都,八王子市,本町３３番９号,,13,201,1920066,,,,,,,2022-03-17,1,,,,,フォーループ,0
1995,9010401166249,新規,0,2022-03-17,2022-03-17,株式会社ＳＳＳ,,株式会社,東京都,港区,西新橋３丁目１７－７,,13,103,1050003,,,,,,,2022-03-17,1,,,,,エスエスエス,0
1996,9010401166265,新規,0,2022-03-17,2022-03-17,イデオンズ株式会社,,株式会社,東京都,港区,麻布十番１丁目４番８号,,13,103,1060045,,,,,,,2022-03-17,1,,,,,イデオンズ,0
1998,9010405020798,新規,0,2022-03-17,2022-03-17,一般社団法人ワクチンハラスメント救済センター,,その他の設立登記法人,東京都,港区,麻布台２丁目２番１２号三貴ビル３階,,13,103,1060041,,,,,,,2022-03-17,1,,,,,ワクチンハラスメントキュウサイセンター,0
2002,9010601060838,新規,0,2022-03-17,2022-03-17,株式会社ブルーム,,株式会社,東京都,江東区,亀戸６丁目５５番１８－９０２号,,13,108,1360071,,,,,,,2022-03-17,1,,,,,ブルーム,0
2007,9010901050522,新規,0,2022-03-17,2022-03-17,株式会社ウィンクルム,,株式会社,東京都,世田谷区,代田４丁目１０番１７号,,13,112,1550033,,,,,,,2022-03-17,1,,,,,ウィンクルム,0
2011,9011001146236,新規,0,2022-03-17,2022-03-17,株式会社Ｋ．Ｋ,,株式会社,東京都,渋谷区,南平台町６－１８ＮａｍｐｅｉｄａｉｈｉｌｌＴｏｐＨｏｕｓｅ３０１,,13,113,1500036,,,,,,,2022-03-17,1,,,,,ドットケー,0
2012,9011001146277,新規,0,2022-03-17,2022-03-17,株式会社シープラネット,,株式会社,東京都,渋谷区,道玄坂１丁目１０－８渋谷道玄坂東急ビル２Ｆ－Ｃ,,13,113,1500043,,,,,,,2022-03-17,1,,,,,シープラネット,0
2013,9011001146327,新規,0,2022-03-17,2022-03-17,ＹＯＵＲＳ株式会社,,株式会社,東京都,渋谷区,松濤２丁目７－１０－４０５,,13,113,1500046,,,,,,,2022-03-17,1,,,,,ユアーズ,0
2014,9011001146335,新規,0,2022-03-17,2022-03-17,ＨＯＫＳＩ株式会社,,株式会社,東京都,渋谷区,富ヶ谷１丁目１４－１４スタンフォードアネックスビル３階,,13,113,1510063,,,,,,,2022-03-17,1,,,,,ホシュウ,0
2015,9011001146351,新規,0,2022-03-17,2022-03-17,株式会社Ｃａｓｔｅｅ,,株式会社,東京都,渋谷区,神宮前２丁目１８番１９号,,13,113,1500001,,,,,,,2022-03-17,1,,,,,キャスティ,0
2016,9011003014358,新規,0,2022-03-17,2022-03-17,合同会社渋谷神南,,合同会社,東京都,渋谷区,神南１丁目５番４号,,13,113,1500041,,,,,,,2022-03-17,1,,,,,シブヤジンナン,0
2022,9011103011569,新規,0,2022-03-17,2022-03-17,合同会社Ａｎｄａｎｔｅ,,合同会社,東京都,新宿区,左門町２番地４マイネシュロッス四ツ谷１３０１,,13,104,1600017,,,,,,,2022-03-17,1,,,,,アンダンテ,0
2023,9011103011577,新規,0,2022-03-17,2022-03-17,合同会社リーバー,,合同会社,東京都,新宿区,西新宿３丁目３番１３号西新宿水間ビル６階,,13,104,1600023,,,,,,,2022-03-17,1,,,,,リーバー,0
2033,9011301027631,新規,0,2022-03-17,2022-03-17,株式会社ラーニングクエスト,,株式会社,東京都,杉並区,高円寺南４丁目２－８サンユースビル４Ｆ－Ｂ,,13,115,1660003,,,,,,,2022-03-17,1,,,,,ラーニングクエスト,0
2034,9011403003596,新規,0,2022-03-17,2022-03-17,合同会社ＧＲＡＮＤ　ＬＥＡＦ,,合同会社,東京都,板橋区,大山町３０番１５号,,13,119,1730023,,,,,,,2022-03-17,1,,,,,グランドリーフ,0
2037,9011601025806,新規,0,2022-03-17,2022-03-17,株式会社ユニバーサルコンサルタント,,株式会社,東京都,練馬区,光が丘３丁目３番２－２１２号,,13,120,1790072,,,,,,,2022-03-17,1,,,,,ユニバーサルコンサルタント,0
2043,9011801040448,新規,0,2022-03-17,2022-03-17,株式会社イーエステート,,株式会社,東京都,足立区,中川２丁目１３番２号１０４,,13,121,1200002,,,,,,,2022-03-17,1,,,,,イーエステート,0
2053,9013301048830,新規,0,2022-03-17,2022-03-17,第一東京エステート株式会社,,株式会社,東京都,豊島区,北大塚１丁目１９番１２号,00125996,13,116,1700004,,,,,,,2022-03-17,1,,,,,ダイイチトウキョウエステート,0
2064,9020001145684,新規,0,2022-03-17,2022-03-17,株式会社３Ｈ,,株式会社,神奈川県,川崎市多摩区,登戸新町３５－４,,14,135,2140013,,,,,,,2022-03-17,1,,,,,サンエイチ,0
2072,9030001147275,新規,0,2022-03-17,2022-03-17,株式会社久屋,,株式会社,埼玉県,飯能市,大字下赤工１２６番地１,,11,209,3570126,,,,,,,2022-03-17,1,,,,,ヒサヤ,0
2073,9030001147300,新規,0,2022-03-17,2022-03-17,株式会社エネクル,,株式会社,埼玉県,草加市,住吉１丁目１３番１０号,,11,221,3400014,,,,,,,2022-03-17,1,,,,,エネクル,0
2076,9030003019027,新規,0,2022-03-17,2022-03-17,合同会社ノードグロー,,合同会社,埼玉県,和光市,白子３丁目１２番５－７０７号クリオ西高島平弐番館,,11,229,3510101,,,,,,,2022-03-17,1,,,,,ノードグロー,0
2079,9040001122608,新規,0,2022-03-17,2022-03-17,株式会社ガモウフーズ,,株式会社,千葉県,千葉市若葉区,小倉台１丁目７番５号,,12,104,2640006,,,,,,,2022-03-17,1,,,,,ガモウフーズ,0
2080,9040001122649,新規,0,2022-03-17,2022-03-17,株式会社明和,,株式会社,千葉県,市川市,妙典６丁目１１番２３号,,12,203,2720111,,,,,,,2022-03-17,1,,,,,メイワ,0
2081,9040001122657,新規,0,2022-03-17,2022-03-17,株式会社キョウセイ,,株式会社,千葉県,大網白里市,養安寺３３４番地２,,12,239,2993254,,,,,,,2022-03-17,1,,,,,キョウセイ,0
2082,9040001122681,新規,0,2022-03-17,2022-03-17,株式会社コネクトベース,,株式会社,千葉県,千葉市花見川区,幕張本郷４丁目１６番９号,,12,102,2620033,,,,,,,2022-03-17,1,,,,,コネクトベース,0
2086,9040003019686,新規,0,2022-03-17,2022-03-17,合同会社ＴＩＫメソッド,,合同会社,千葉県,市川市,南行徳１丁目５番１７－１０３号（アルビオーレ南行徳）,,12,203,2720138,,,,,,,2022-03-17,1,,,,,ティックメソッド,0
2087,9040003019694,新規,0,2022-03-17,2022-03-17,合同会社シードポータル,,合同会社,千葉県,鎌ケ谷市,鎌ケ谷９丁目３番２２号サクラガーデン１０２号室,,12,224,2730105,,,,,,,2022-03-17,1,,,,,シードポータル,0
2093,9050003006436,新規,0,2022-03-17,2022-03-17,合同会社天赦日,,合同会社,茨城県,潮来市,日の出６丁目１８番地１１,,08,223,3112423,,,,,,,2022-03-17,1,,,,,テンシャビ,0
2097,9070001039056,新規,0,2022-03-17,2022-03-17,株式会社ブリーズ,,株式会社,群馬県,伊勢崎市,粕川町１６３１番地４,,10,204,3720023,,,,,,,2022-03-17,1,,,,,ブリーズ,0
2101,9080101023157,新規,0,2022-03-17,2022-03-17,株式会社ファイブ,,株式会社,静岡県,三島市,南本町１３‐４１,,22,206,4110841,,,,,,,2022-03-17,1,,,,,ファイブ,0
2103,9080103002547,新規,0,2022-03-17,2022-03-17,合同会社Ｂｕｄｄｙ,,合同会社,静岡県,沼津市,東沢田３８３‐７ローズガーデン長塚Ｉ‐１０２,00126004,22,203,4100002,,,,,,,2022-03-17,1,,,,,バディ,0
2106,9110001036511,新規,0,2022-03-17,2022-03-17,若草企画株式会社,,株式会社,新潟県,新潟市東区,秋葉１丁目５番２６号,,15,102,9500054,,,,,,,2022-03-17,1,,,,,ワカクサキカク,0
2118,9120001244484,新規,0,2022-03-17,2022-03-17,株式会社テイン,,株式会社,大阪府,大阪市浪速区,大国２丁目６－１５ラ・プルミエール５０１号,,27,111,5560014,,,,,,,2022-03-17,1,,,,,テイン,0
2119,9120001244492,新規,0,2022-03-17,2022-03-17,Ａｔｏｒｉａ株式会社,,株式会社,大阪府,大阪市東住吉区,南田辺１丁目９－７コーポ水都１Ｆ１０３号,,27,121,5460033,,,,,,,2022-03-17,1,,,,,アトリア,0
2120,9120001244501,新規,0,2022-03-17,2022-03-17,株式会社チームレオ,,株式会社,大阪府,大阪市天王寺区,勝山２丁目１３番３号,,27,109,5430043,,,,,,,2022-03-17,1,,,,,チームレオ,0
2121,9120001244518,新規,0,2022-03-17,2022-03-17,株式会社システムプランニング,,株式会社,大阪府,大阪市中央区,南船場３丁目２－２８ＮＩＰＰＯタイヨービル５１１号,,27,128,5420081,,,,,,,2022-03-17,1,,,,,システムプランニング,0
2122,9120001244526,新規,0,2022-03-17,2022-03-17,あくも株式会社,,株式会社,大阪府,大阪市城東区,今福東３丁目１７番１３－３０４号,,27,118,5360002,,,,,,,2022-03-17,1,,,,,アクモ,0
2123,9120001244534,新規,0,2022-03-17,2022-03-17,株式会社ワープ総合建築,,株式会社,大阪府,門真市,御堂町１０－７,,27,223,5710064,,,,,,,2022-03-17,1,,,,,ワープソウゴウケンチク,0
2124,9120001244559,新規,0,2022-03-17,2022-03-17,株式会社球児先生,,株式会社,大阪府,大阪市北区,芝田２丁目３番２３号メイプルビル芝田５０２号,,27,127,5300012,,,,,,,2022-03-17,1,,,,,キュウジセンセイ,0
2128,9120003021295,新規,0,2022-03-17,2022-03-17,合同会社ＡＢＣリビング,,合同会社,大阪府,大阪市浪速区,日本橋３丁目３番８号,,27,111,5560005,,,,,,,2022-03-17,1,,,,,エービーシーリビング,0
2132,9120101065236,新規,0,2022-03-17,2022-03-17,株式会社ＢＪ　ＪＡＰＡＮ,,株式会社,大阪府,松原市,岡１丁目１２５番地の１,,27,217,5800014,,,,,,,2022-03-17,1,,,,,ビージェイジャパン,0
2133,9120101065252,新規,0,2022-03-17,2022-03-17,株式会社西岡電設,,株式会社,大阪府,和泉市,池田下町１４０２番地の１１,,27,219,5940032,,,,,,,2022-03-17,1,,,,,ニシオカデンセツ,0
2136,9120903004069,新規,0,2022-03-17,2022-03-17,合同会社本多コーポレーション,,合同会社,大阪府,吹田市,青葉丘南１２番２７－７０２号,,27,205,5650802,,,,,,,2022-03-17,1,,,,,ホンダコーポレーション,0
2137,9122001035681,新規,0,2022-03-17,2022-03-17,株式会社パッソリンクス,,株式会社,大阪府,八尾市,跡部本町４丁目２番４５号,,27,212,5810064,,,,,,,2022-03-17,1,,,,,パッソリンクス,0
2143,9130001071358,新規,0,2022-03-17,2022-03-17,津々美株式会社,,株式会社,京都府,京都市伏見区,羽束師菱川町２３１番地２,,26,109,6128487,,,,,,,2022-03-17,1,,,,,ツツミ,0
2148,9140001125261,新規,0,2022-03-17,2022-03-17,株式会社スピードマリン,,株式会社,兵庫県,明石市,立石２丁目１番３４号－１１,,28,203,6730032,,,,,,,2022-03-17,1,,,,,スピードマリン,0
2149,9140001125278,新規,0,2022-03-17,2022-03-17,株式会社平川創設,,株式会社,兵庫県,揖保郡太子町,東南１０５番地２,,28,464,6711523,,,,,,,2022-03-17,1,,,,,ヒラカワソウセツ,0
2157,9140003017465,新規,0,2022-03-17,2022-03-17,合同会社小福,,合同会社,兵庫県,宍粟市,山崎町杉ケ瀬１５６番地,,28,227,6712522,,,,,,,2022-03-17,1,,,,,コフク,0
2158,9140005026076,新規,0,2022-03-17,2022-03-17,一般社団法人医療と教育促進協会,,その他の設立登記法人,兵庫県,神戸市中央区,栄町通１丁目３番１７号,,28,110,6500023,,,,,,,2022-03-17,1,,,,,イリョウトキョウイクソクシンキョウカイ,0
2159,9150001025411,新規,0,2022-03-17,2022-03-17,株式会社ＵＮＤＥＲ　ＦＩＥＬＤ,,株式会社,奈良県,奈良市,西大寺北町３丁目４番２３－１０１号,,29,201,6310817,,,,,,,2022-03-17,1,,,,,アンダーフィールド,0
2161,9160001024049,新規,0,2022-03-17,2022-03-17,株式会社ＦｏｏｄＦｕｌ,,株式会社,滋賀県,草津市,野路東１丁目１－１立命館大学ＢＫＣインキュベーター１０８,,25,206,5250058,,,,,,,2022-03-17,1,,,,,フードフル,0
2167,9180001150405,新規,0,2022-03-17,2022-03-17,株式会社ＫＡＮＥＴＡＫＡ,,株式会社,愛知県,名古屋市中村区,太閤通３丁目２５番地の１アロームドゥジョア９０８号,,23,105,4530811,,,,,,,2022-03-17,1,,,,,カネタカ,0
2168,9180001150438,新規,0,2022-03-17,2022-03-17,ＭＭＰ株式会社,,株式会社,愛知県,名古屋市西区,牛島町６番１号名古屋ルーセントタワー４０階,,23,104,4510046,,,,,,,2022-03-17,1,,,,,エムエムピー,0
2173,9180301036031,新規,0,2022-03-17,2022-03-17,悟空ジャパン株式会社,,株式会社,愛知県,田原市,赤石１丁目５番地,,23,231,4413422,,,,,,,2022-03-17,1,,,,,ゴクウジャパン,0
2181,9220001024744,新規,0,2022-03-17,2022-03-17,株式会社ｙｅｅｚｙ　ｐｌｕｓ,,株式会社,石川県,金沢市,片町２丁目２３番１２号ＢＦ１,,17,201,9200981,,,,,,,2022-03-17,1,,,,,イージープラス,0
2202,9290001096819,新規,0,2022-03-17,2022-03-17,株式会社ふくしのまちづくり,,株式会社,福岡県,嘉麻市,下山田３６６,,40,227,8210011,,,,,,,2022-03-17,1,,,,,フクシノマチヅクリ,0
2203,9290001096827,新規,0,2022-03-17,2022-03-17,株式会社Ｒｅ．ｏｎ,,株式会社,福岡県,糟屋郡篠栗町,大字尾仲３４１番地１２,,40,342,8112413,,,,,,,2022-03-17,1,,,,,リオン,0
2205,9290003012294,新規,0,2022-03-17,2022-03-17,合同会社がじゅまるの木,,合同会社,福岡県,福岡市東区,箱崎４丁目５－１９－３０３げんきビル３０３,,40,131,8120053,,,,,,,2022-03-17,1,,,,,ガジュマルノキ,0
2210,9330003009286,新規,0,2022-03-17,2022-03-17,合同会社ＴＩＭ,,合同会社,熊本県,八代市,田中北町１６－９－１,,43,202,8660877,,,,,,,2022-03-17,1,,,,,ティーアイエム,0
2211,9330005010481,新規,0,2022-03-17,2022-03-17,一般社団法人絆,,その他の設立登記法人,熊本県,球磨郡錦町,大字木上北１９３５番地１,,43,501,8680301,,,,,,,2022-03-17,1,,,,,キズナ,0
2212,9360001030134,新規,0,2022-03-17,2022-03-17,株式会社ウルラわんぷらす,,株式会社,沖縄県,沖縄市,高原１丁目７番３９号,,47,211,9042171,,,,,,,2022-03-17,1,,,,,ウルラワンプラス,0
2213,9360003011875,新規,0,2022-03-17,2022-03-17,合同会社ＣＯＣＯＨＡＮＡ,,合同会社,沖縄県,那覇市,首里金城町４丁目１７番地２,,47,201,9030815,,,,,,,2022-03-17,1,,,,,ココハナ,0
2230,9460103001436,新規,0,2022-03-17,2022-03-17,合同会社涌井住設,,合同会社,北海道,中川郡本別町,南４丁目１６６番地４,,01,646,0893314,,,,,,,2022-03-17,1,,,,,ワクイジュウセツ,0
