sequenceNumber,corporateNumber,process,correct,updateDate,changeDate,name,nameImageId,kind,prefectureName,cityName,streetNumber,addressImageId,prefectureCode,cityCode,postCode,addressOutside,addressOutsideImageId,closeDate,closeCause,successorCorporateNumber,changeCause,assignmentDate,latest,enName,enPrefectureName,enCityName,enAddressOutside,furigana,hihyoji
9,1010001248306,新規,0,2024-09-18,2024-09-18,株式会社ウィラン,,株式会社,東京都,中央区,銀座１丁目１２番４号Ｎ＆ＥＢＬＤ．６Ｆ,,13,102,1040061,,,,,,,2024-09-18,1,,,,,ウィラン,0
10,1010001248363,新規,0,2024-09-18,2024-09-18,０９６株式会社,,株式会社,東京都,中央区,銀座１丁目２２番１１号銀座大竹ビジデンス２階,,13,102,1040061,,,,,,,2024-09-18,1,,,,,ゼロキューロク,0
11,1010003044926,新規,0,2024-09-18,2024-09-18,Ｌｕｕｐ車両管理４号合同会社,,合同会社,東京都,千代田区,神田佐久間町３丁目２１番地２４ＡＫＩＨＡＢＡＲＡＣＥＮＴＲＡＬＳＱＵＡＲＥ４階,,13,101,1010025,,,,,,,2024-09-18,1,,,,,ループシャリョウカンリヨンゴウ,0
12,1010005038843,新規,0,2024-09-18,2024-09-18,一般社団法人ＫＬＦ,,その他の設立登記法人,東京都,千代田区,丸の内１丁目４番１号東京共同会計事務所内,,13,101,1000005,,,,,,,2024-09-18,1,,,,,ケイエルエフ,0
14,1010401185165,新規,0,2024-09-18,2024-09-18,株式会社ＣＯＮＴＲＫＴ,,株式会社,東京都,港区,南青山１丁目１番１号新青山ビル東館７Ｆ,,13,103,1070062,,,,,,,2024-09-18,1,,,,,コントラクト,0
15,1010401185173,新規,0,2024-09-18,2024-09-18,株式会社エル麻布,,株式会社,東京都,港区,麻布十番２丁目８番８号,,13,103,1060045,,,,,,,2024-09-18,1,,,,,エルアザブ,0
16,1010401185198,新規,0,2024-09-18,2024-09-18,Ａｌｐｈａ　Ａｄｖｉｓｏｒｙ株式会社,,株式会社,東京都,港区,赤坂２丁目１２番８号４階,,13,103,1070052,,,,,,,2024-09-18,1,,,,,アルファアドバイザリー,0
18,1010503007572,新規,0,2024-09-18,2024-09-18,合同会社チャーハン,,合同会社,東京都,台東区,谷中３丁目１９番５‐４０４号,,13,106,1100001,,,,,,,2024-09-18,1,,,,,チャーハン,0
19,1010601065919,新規,0,2024-09-18,2024-09-18,株式会社８Ｃｏｍｆｙ＆ｇｅｍ,,株式会社,東京都,墨田区,東駒形１丁目１３－６クオリタス浅草６０２,,13,107,1300005,,,,,,,2024-09-18,1,,,,,コンフィーアンドジェム,0
20,1010601065935,新規,0,2024-09-18,2024-09-18,株式会社ＮＥＸＴ　ＯＮＥ,,株式会社,東京都,墨田区,両国３丁目１６番５－６０３号,,13,107,1300026,,,,,,,2024-09-18,1,,,,,ネクストワン,0
23,1010701046554,新規,0,2024-09-18,2024-09-18,シンメイプランニング株式会社,,株式会社,東京都,品川区,上大崎３丁目１４－１４－２０１,,13,109,1410021,,,,,,,2024-09-18,1,,,,,シンメイプランニング,0
27,1011001164732,新規,0,2024-09-18,2024-09-18,株式会社ＳＡＫＵＲＡＧＡＯＫＡ,,株式会社,東京都,渋谷区,神泉町９－７野本ビル４Ｆ,,13,113,1500045,,,,,,,2024-09-18,1,,,,,サクラガオカ,0
28,1011003019991,新規,0,2024-09-18,2024-09-18,合同会社Ｄｏｖｅ,,合同会社,東京都,渋谷区,渋谷２丁目１９－１５宮益坂ビルディング６０９,,13,113,1500002,,,,,,,2024-09-18,1,,,,,ドーヴ,0
29,1011003020041,新規,0,2024-09-18,2024-09-18,Ｅａｓｔ　Ｇａｔｅ　Ｉｎｖｅｓｔｍｅｎｔ　Ｉ合同会社,,合同会社,東京都,渋谷区,神宮前５丁目３３番１号クレアホームズ神宮前４０２,,13,113,1500001,,,,,,,2024-09-18,1,,,,,イーストゲートインベストメントワン,0
31,1011101108779,新規,0,2024-09-18,2024-09-18,９Ｍ二期管理株式会社,,株式会社,東京都,新宿区,西早稲田２丁目１８番２３号スカイエスタ９０１,,13,104,1690051,,,,,,,2024-09-18,1,,,,,キュウエムニキカンリ,0
32,1011101108787,新規,0,2024-09-18,2024-09-18,株式会社ＨＡＲＣＹ,,株式会社,東京都,新宿区,新宿１丁目３６番２号新宿第七葉山ビル３Ｆ,,13,104,1600022,,,,,,,2024-09-18,1,,,,,ハーシー,0
33,1011101108804,新規,0,2024-09-18,2024-09-18,株式会社アメスト,,株式会社,東京都,新宿区,新宿２丁目１２番１３号新宿アントレサロンビル２階,,13,104,1600022,,,,,,,2024-09-18,1,,,,,アメスト,0
35,1011103014950,新規,0,2024-09-18,2024-09-18,Ｓｅｎｓｅ　ｏｆ　ｌｉｆｅ合同会社,,合同会社,東京都,新宿区,西新宿６丁目５－１新宿アイランドタワー２階,,13,104,1600023,,,,,,,2024-09-18,1,,,,,センスオブライフ,0
46,1012705002426,新規,0,2024-09-18,2024-09-18,労働者協同組合ワーカーズ・コレクティブまどか,,その他の設立登記法人,東京都,西東京市,泉町３丁目１２番２５号パスレル保谷１Ｆ,,13,229,2020011,,,,,,,2024-09-18,1,,,,,ワーカーズコレクティブマドカ,0
55,1020001159246,新規,0,2024-09-18,2024-09-18,株式会社オーシーアンドコー,,株式会社,神奈川県,横浜市金沢区,瀬戸５番１－２１７号,,14,108,2360027,,,,,,,2024-09-18,1,,,,,オアーシーアンドコー,0
56,1020001159254,新規,0,2024-09-18,2024-09-18,株式会社幸成,,株式会社,神奈川県,横浜市中区,山元町４丁目１７７番地,,14,104,2310851,,,,,,,2024-09-18,1,,,,,コウセイ,0
72,1021003014975,新規,0,2024-09-18,2024-09-18,スマファ合同会社,,合同会社,神奈川県,相模原市中央区,矢部３丁目６番７－４０９号,,14,152,2520232,,,,,,,2024-09-18,1,,,,,スマファ,0
73,1021005013182,新規,0,2024-09-18,2024-09-18,一般社団法人真鶴町観光推進機構,,その他の設立登記法人,神奈川県,足柄下郡真鶴町,真鶴４５１番地１０シェアオフィス月光堂内,,14,383,2590201,,,,,,,2024-09-18,1,,,,,マナヅルマチカンコウスイシンキコウ,0
77,1030001162546,新規,0,2024-09-18,2024-09-18,株式会社ワンハートワークス,,株式会社,埼玉県,三郷市,谷口９１９－１５,,11,237,3410042,,,,,,,2024-09-18,1,,,,,ワンハートワークス,0
79,1040001135451,新規,0,2024-09-18,2024-09-18,株式会社くじら訪問介護,,株式会社,千葉県,千葉市花見川区,宮野木台４丁目１番１８号,,12,102,2620015,,,,,,,2024-09-18,1,,,,,クジラカイゴ,0
82,1040003025808,新規,0,2024-09-18,2024-09-18,ＩＴＩ通商合同会社,,合同会社,千葉県,千葉市若葉区,みつわ台２丁目４６番３棟５０３号,,12,104,2640032,,,,,,,2024-09-18,1,,,,,アイティーアイツウショウ,0
85,1050003008679,新規,0,2024-09-18,2024-09-18,合同会社Ｃｌｅａｒ,,合同会社,茨城県,高萩市,大字下手綱８０９番地,,08,214,3180003,,,,,,,2024-09-18,1,,,,,クリア,0
98,1110003005521,新規,0,2024-09-18,2024-09-18,合同会社ＬＥＡＰ,,合同会社,新潟県,三条市,直江町４丁目１４番４７－１号,,15,204,9550832,,,,,,,2024-09-18,1,,,,,リープ,0
106,1120001268524,新規,0,2024-09-18,2024-09-18,株式会社Ｔ‐ｕｐ,,株式会社,大阪府,大阪市城東区,放出西２丁目８番１８号,,27,118,5360011,,,,,,,2024-09-18,1,,,,,ティーアップ,0
107,1120001268581,新規,0,2024-09-18,2024-09-18,タンポポ株式会社,,株式会社,大阪府,大阪市淀川区,西三国１丁目１７番１５号シャトー西三国２階２０４号室,,27,123,5320006,,,,,,,2024-09-18,1,,,,,タンポポ,0
108,1120001268598,新規,0,2024-09-18,2024-09-18,株式会社花見,,株式会社,大阪府,大阪市中央区,北浜１丁目９番１５号ＥＭ北浜ビル５階,,27,128,5410041,,,,,,,2024-09-18,1,,,,,ハナミ,0
109,1120001268623,新規,0,2024-09-18,2024-09-18,浪速住建株式会社,,株式会社,大阪府,大阪市浪速区,敷津西２丁目２－２１－４０６号,,27,111,5560015,,,,,,,2024-09-18,1,,,,,ナニワジュウケン,0
110,1120001268664,新規,0,2024-09-18,2024-09-18,Ｙｏｕｒ　Ｄｅｖｉｃｅ株式会社,,株式会社,大阪府,大阪市中央区,北浜２丁目１番１７号,,27,128,5410041,,,,,,,2024-09-18,1,,,,,ユアデバイス,0
119,1120901049775,新規,0,2024-09-18,2024-09-18,株式会社ＳＣＩＬＬＡ,,株式会社,大阪府,豊中市,待兼山町１５番１６号,,27,203,5600043,,,,,,,2024-09-18,1,,,,,スキラ,0
120,1120901049783,新規,0,2024-09-18,2024-09-18,株式会社Ａ＆Ｒ,,株式会社,大阪府,吹田市,昭和町１３番１１号,,27,205,5640028,,,,,,,2024-09-18,1,,,,,エーアンドアール,0
121,1120903005347,新規,0,2024-09-18,2024-09-18,合同会社ＡＩＲ　ＴＲＡＤＩＮＧ,,合同会社,大阪府,吹田市,千里丘上１０－９,,27,205,5650811,,,,,,,2024-09-18,1,,,,,エアートレーディング,0
122,1122001038452,新規,0,2024-09-18,2024-09-18,株式会社Ｇ‐ＣＯＭＭＵＮＩＣＡＴＩＯＮ　ＫＨ２,,株式会社,大阪府,四條畷市,蔀屋本町１５番１３号１０１,,27,229,5750042,,,,,,,2024-09-18,1,,,,,ジーコミュニケーションケーエイチツー,0
124,1130001077949,新規,0,2024-09-18,2024-09-18,雲水閣株式会社,,株式会社,京都府,京都市上京区,河原町通広小路下る東桜町２５－３ローレルコート京都御所東２０５,,26,102,6020858,,,,,,,2024-09-18,1,,,,,ウンスイカク,0
126,1130003009867,新規,0,2024-09-18,2024-09-18,合同会社ＳＡＫＡＳＹＯ,,合同会社,京都府,舞鶴市,字新３１,,26,202,6240933,,,,,,,2024-09-18,1,,,,,サカショウ,0
132,1140001135805,新規,0,2024-09-18,2024-09-18,株式会社ＳＨＯＴＥＣ,,株式会社,兵庫県,明石市,二見町西二見６１０番地の１８,,28,203,6740094,,,,,,,2024-09-18,1,,,,,ショーテック,0
133,1140003021086,新規,0,2024-09-18,2024-09-18,ＳＴＵＤＩＯ　ＹＥＮＩＳＨＩ合同会社,,合同会社,兵庫県,神戸市中央区,磯辺通１丁目１番１８号カサベラ国際プラザビル７０７号室,,28,110,6510084,,,,,,,2024-09-18,1,,,,,スタジオエニシ,0
136,1150001027571,新規,0,2024-09-18,2024-09-18,株式会社ＣＨＵＢＢＹ,,株式会社,奈良県,奈良市,菅原町７５９番地の５５,,29,201,6310842,,,,,,,2024-09-18,1,,,,,チャビィ,0
137,1150003003372,新規,0,2024-09-18,2024-09-18,合同会社ホライズン,,合同会社,奈良県,北葛城郡王寺町,久度１丁目１３番６号,,29,425,6360003,,,,,,,2024-09-18,1,,,,,ホライズン,0
140,1160001026218,新規,0,2024-09-18,2024-09-18,株式会社いっぽ,,株式会社,滋賀県,草津市,野路町６４５－４,,25,206,5250055,,,,,,,2024-09-18,1,,,,,イッポ,0
141,1170001018313,新規,0,2024-09-18,2024-09-18,今井設備株式会社,,株式会社,和歌山県,岩出市,森２４－１１,,30,209,6496205,,,,,,,2024-09-18,1,,,,,イマイセツビ,0
146,1180001163273,新規,0,2024-09-18,2024-09-18,株式会社尾張旭警備,,株式会社,愛知県,尾張旭市,北原山町平池浦１８５６番地１,,23,226,4880062,,,,,,,2024-09-18,1,,,,,オワリアサヒケイビ,0
147,1180001163281,新規,0,2024-09-18,2024-09-18,株式会社ＳＨＯＨＥＩ,,株式会社,愛知県,名古屋市中区,丸の内３丁目５番３４号セントラルコーポ１１０２号室,,23,106,4600002,,,,,,,2024-09-18,1,,,,,ショーヘイ,0
152,1180005020776,新規,0,2024-09-18,2024-09-18,医療法人福果会,,その他の設立登記法人,愛知県,尾張旭市,南栄町旭ケ丘６４番地１,,23,226,4880046,,,,,,,2024-09-18,1,,,,,フッカカイ,0
157,1200003006510,新規,0,2024-09-18,2024-09-18,合同会社ＰＢ,,合同会社,岐阜県,各務原市,鵜沼各務原町１丁目２１３番地,,21,213,5090141,,,,,,,2024-09-18,1,,,,,ピービー,0
170,1250001020814,新規,0,2024-09-18,2024-09-18,株式会社幸明,,株式会社,山口県,宇部市,大字妻崎開作２４６番地７,,35,202,7590204,,,,,,,2024-09-18,1,,,,,コウメイ,0
179,1290001107269,新規,0,2024-09-18,2024-09-18,株式会社ココロ,,株式会社,福岡県,福岡市博多区,中洲５丁目４番６号,,40,132,8100801,,,,,,,2024-09-18,1,,,,,,0
182,1290803004845,新規,0,2024-09-18,2024-09-18,合同会社佐久間興業,,合同会社,福岡県,田川市,大字奈良２１８番地１１,,40,206,8260043,,,,,,,2024-09-18,1,,,,,サクマコウギョウ,0
187,1330003010565,新規,0,2024-09-18,2024-09-18,ＴＯＭＯグローバル合同会社,,合同会社,熊本県,熊本市北区,楠４丁目１０番５号,,43,105,8618003,,,,,,,2024-09-18,1,,,,,トモグローバル,0
188,1340001026785,新規,0,2024-09-18,2024-09-18,株式会社Ｊ＆Ｊキャピタル,,株式会社,鹿児島県,霧島市,国分野口西５６７,,46,218,8994343,,,,,,,2024-09-18,1,,,,,ジェイアンドジェイキャピタル,0
189,1340001026802,新規,0,2024-09-18,2024-09-18,株式会社ジーコネクト,,株式会社,鹿児島県,鹿児島市,西千石町１１－２１鹿児島ＭＳビル,,46,201,8920847,,,,,,,2024-09-18,1,,,,,ジーコネクト,0
191,1340003004608,新規,0,2024-09-18,2024-09-18,合同会社米田八,,合同会社,鹿児島県,鹿児島市,花尾町４７５４－２,,46,201,8911101,,,,,,,2024-09-18,1,,,,,メタヤ,0
195,1360003014299,新規,0,2024-09-18,2024-09-18,合同会社Ｈａｍｏｎ,,合同会社,沖縄県,那覇市,牧志２丁目１７番２７－４０１号,,47,201,9000013,,,,,,,2024-09-18,1,,,,,ハモン,0
198,1410003003981,新規,0,2024-09-18,2024-09-18,合同会社ＭＩＣＨＩＫＯ,,合同会社,秋田県,由利本荘市,岩城亀田愛宕町字徒士町２０番地,,05,210,0181216,,,,,,,2024-09-18,1,,,,,,0
211,1500001025878,新規,0,2024-09-18,2024-09-18,株式会社エイト総合建設,,株式会社,愛媛県,伊予郡砥部町,高尾田８９９番地,,38,402,7912101,,,,,,,2024-09-18,1,,,,,エイトソウゴウケンセツ,0
218,2010001248222,新規,0,2024-09-18,2024-09-18,風橋株式会社,,株式会社,東京都,中央区,晴海５丁目５－１,,13,102,1040053,,,,,,,2024-09-18,1,,,,,フウバシ,0
219,2010001248271,新規,0,2024-09-18,2024-09-18,株式会社スケールメイト,,株式会社,東京都,千代田区,神田淡路町２丁目３淡路町トーセイビル４Ｆ,,13,101,1010063,,,,,,,2024-09-18,1,,,,,スケールメイト,0
220,2010001248338,新規,0,2024-09-18,2024-09-18,株式会社ちよに,,株式会社,東京都,中央区,八丁堀２丁目１９番９－８０４号,,13,102,1040032,,,,,,,2024-09-18,1,,,,,チヨニ,0
221,2010001248362,新規,0,2024-09-18,2024-09-18,株式会社ＧＳ　ＷＩＮＤ,,株式会社,東京都,千代田区,飯田橋１丁目１２番６号昭和ビル４Ｆ,,13,101,1020072,,,,,,,2024-09-18,1,,,,,ジーエスウィンド,0
222,2010003044900,新規,0,2024-09-18,2024-09-18,浜松蓄電合同会社,,合同会社,東京都,千代田区,霞が関３丁目２番５号,,13,101,1000013,,,,,,,2024-09-18,1,,,,,ハママツチクデン,0
223,2010003044925,新規,0,2024-09-18,2024-09-18,Ｌｕｕｐ車両管理３号合同会社,,合同会社,東京都,千代田区,神田佐久間町３丁目２１番地２４ＡＫＩＨＡＢＡＲＡＣＥＮＴＲＡＬＳＱＵＡＲＥ４階,,13,101,1010025,,,,,,,2024-09-18,1,,,,,ループシャリョウカンリサンゴウ,0
224,2010003044958,新規,0,2024-09-18,2024-09-18,合同会社ＫＬＦ,,合同会社,東京都,千代田区,丸の内１丁目４番１号東京共同会計事務所内,,13,101,1000005,,,,,,,2024-09-18,1,,,,,ケイエルエフ,0
227,2010005038826,新規,0,2024-09-18,2024-09-18,Ｔａｉｌｏｒ２特定目的会社,,その他の設立登記法人,東京都,千代田区,丸の内１丁目４番１号東京共同会計事務所内,,13,101,1000005,,,,,,,2024-09-18,1,,,,,テイラーツー,0
228,2010005038842,新規,0,2024-09-18,2024-09-18,ジーアイエナジーストレージ３号一般社団法人,,その他の設立登記法人,東京都,千代田区,丸の内１丁目４番１号東京共同会計事務所内,,13,101,1000005,,,,,,,2024-09-18,1,,,,,ジーアイエナジーストレージサンゴウ,0
234,2010401184942,新規,0,2024-09-18,2024-09-18,３１２５株式会社,,株式会社,東京都,港区,南青山３丁目１－３６青山丸竹ビル６Ｆ,,13,103,1070062,,,,,,,2024-09-18,1,,,,,サンイチニゴ,0
235,2010403033081,新規,0,2024-09-18,2024-09-18,合同会社Ｕ２,,合同会社,東京都,港区,南青山２丁目７番７号Ｂｅｌｌ南青山１０４,,13,103,1070062,,,,,,,2024-09-18,1,,,,,ユーツー,0
236,2010403033437,新規,0,2024-09-18,2024-09-18,Ｗａｎｄｅｒｌｕｓｔｌｅ合同会社,,合同会社,東京都,港区,南青山３丁目１番３６号青山丸竹ビル６Ｆ,,13,103,1070062,,,,,,,2024-09-18,1,,,,,ワンダーラストル,0
237,2010403033445,新規,0,2024-09-18,2024-09-18,ＬＳ‐ＡＦＲ第１１号合同会社,,合同会社,東京都,港区,六本木１丁目６番１号,,13,103,1060032,,,,,,,2024-09-18,1,,,,,エルエスエーエフアールダイジュウイチゴウ,0
238,2010403033453,新規,0,2024-09-18,2024-09-18,合同会社ＴＳＭ１６５,,合同会社,東京都,港区,元赤坂１丁目１番７号,,13,103,1070051,,,,,,,2024-09-18,1,,,,,ティーエスエムヒャクロクジュウゴ,0
243,2010701046561,新規,0,2024-09-18,2024-09-18,ととのい生活株式会社,,株式会社,東京都,品川区,大崎２丁目９番１－１３０４号,,13,109,1410032,,,,,,,2024-09-18,1,,,,,トトノイセイカツ,0
245,2010801035407,新規,0,2024-09-18,2024-09-18,トーテラホールディングス株式会社,,株式会社,東京都,大田区,東糀谷４丁目８番１０号,,13,111,1440033,,,,,,,2024-09-18,1,,,,,トーテラホールディングス,0
248,2010901055998,新規,0,2024-09-18,2024-09-18,エーディーシーシステム株式会社,,株式会社,東京都,世田谷区,祖師谷５丁目２７番１４号,,13,112,1570072,,,,,,,2024-09-18,1,,,,,エーディーシーシステム,0
251,2010903009366,新規,0,2024-09-18,2024-09-18,合同会社オオモリ,,合同会社,東京都,世田谷区,祖師谷６丁目４－３３,,13,112,1570072,,,,,,,2024-09-18,1,,,,,オオモリ,0
260,2011001164657,新規,0,2024-09-18,2024-09-18,Ｎｅｘｔ　Ｓｔａｇｅ株式会社,,株式会社,東京都,渋谷区,恵比寿西２丁目４番８号ウィンド恵比寿ビル８Ｆ,,13,113,1500021,,,,,,,2024-09-18,1,,,,,ネクストステージ,0
261,2011001164707,新規,0,2024-09-18,2024-09-18,ヴィヴァルディ・インク株式会社,,株式会社,東京都,渋谷区,道玄坂１丁目２２番７号,,13,113,1500043,,,,,,,2024-09-18,1,,,,,ヴィヴァルディインク,0
262,2011001164715,新規,0,2024-09-18,2024-09-18,株式会社Ｋｐｉｌｉｎａ,,株式会社,東京都,渋谷区,代々木１丁目２１番３号,,13,113,1510053,,,,,,,2024-09-18,1,,,,,ケイピリナ,0
263,2011003019999,新規,0,2024-09-18,2024-09-18,ハルワーク合同会社,,合同会社,東京都,渋谷区,神泉町１０番１５号アネックス神泉３０１,,13,113,1500045,,,,,,,2024-09-18,1,,,,,ハルワーク,0
264,2011003020016,新規,0,2024-09-18,2024-09-18,ＡＺ　Ａｓｉａ合同会社,,合同会社,東京都,渋谷区,道玄坂１丁目１０番８号渋谷道玄坂東急ビル２Ｆ－Ｃ,,13,113,1500043,,,,,,,2024-09-18,1,,,,,エーゼットアジア,0
265,2011003020032,新規,0,2024-09-18,2024-09-18,合同会社グッドスタッフ,,合同会社,東京都,渋谷区,神宮前６丁目２３番４号桑野ビル２階,,13,113,1500001,,,,,,,2024-09-18,1,,,,,グッドスタッフ,0
277,2011601028055,新規,0,2024-09-18,2024-09-18,株式会社１ｔａｐ,,株式会社,東京都,練馬区,春日町３丁目１５番１１号グラード練馬春日町２０２号室,,13,120,1790074,,,,,,,2024-09-18,1,,,,,ワンタップ,0
279,2011603004459,新規,0,2024-09-18,2024-09-18,合同会社Ｆｕｔｕｒｅ　ｅＸｃｅｌｌｅｎｔ,,合同会社,東京都,練馬区,北町３丁目６番１０－４０３号,,13,120,1790081,,,,,,,2024-09-18,1,,,,,フューチャーエクセレント,0
283,2012403006752,新規,0,2024-09-18,2024-09-18,合同会社Ｅｎ,,合同会社,東京都,三鷹市,新川６丁目２６番３号グランドール３０３,,13,204,1810004,,,,,,,2024-09-18,1,,,,,エン,0
287,2012703003094,新規,0,2024-09-18,2024-09-18,合同会社ＦＷパートナー,,合同会社,東京都,西東京市,下保谷４丁目１６番９号,,13,229,2020004,,,,,,,2024-09-18,1,,,,,エフダブリューパートナー,0
288,2012705002425,新規,0,2024-09-18,2024-09-18,一般社団法人ＦＥＡ農研,,その他の設立登記法人,東京都,小平市,上水新町３丁目１９－１２・１号室,,13,211,1870023,,,,,,,2024-09-18,1,,,,,エフイーエーノウケン,0
290,2013303007312,新規,0,2024-09-18,2024-09-18,富士法務合同会社,,合同会社,東京都,豊島区,池袋２丁目２２－１豊島マンション７０１,,13,116,1710014,,,,,,,2024-09-18,1,,,,,フジホウム,0
295,2020001159162,新規,0,2024-09-18,2024-09-18,株式会社枇杷阪新聞販売,,株式会社,神奈川県,横浜市緑区,鴨居２丁目７－９,,14,113,2260003,,,,,,,2024-09-18,1,,,,,ビワサカシンブンハンバイ,0
309,2021003015023,新規,0,2024-09-18,2024-09-18,合同会社オフィス９６,,合同会社,神奈川県,座間市,東原５丁目１番１３－３０３号さがみ野さくら,,14,216,2520004,,,,,,,2024-09-18,1,,,,,オフィスキュウロク,0
316,2030001162512,新規,0,2024-09-18,2024-09-18,株式会社マツオカスタジオ,,株式会社,埼玉県,戸田市,中町２丁目３番１４号,,11,224,3350012,,,,,,,2024-09-18,1,,,,,マツオカスタジオ,0
322,2030003025139,新規,0,2024-09-18,2024-09-18,合同会社Ｍａｒｕ,,合同会社,埼玉県,和光市,下新倉３丁目２０番２１号,,11,229,3510111,,,,,,,2024-09-18,1,,,,,マル,0
324,2030005021846,新規,0,2024-09-18,2024-09-18,一般社団法人くまがや助産師会,,その他の設立登記法人,埼玉県,熊谷市,大麻生４２２番地１,,11,202,3600835,,,,,,,2024-09-18,1,,,,,クマガヤジョサンシカイ,0
329,2040001135434,新規,0,2024-09-18,2024-09-18,株式会社家事プロ,,株式会社,千葉県,八千代市,八千代台北１７丁目１４番７号,,12,221,2760031,,,,,,,2024-09-18,1,,,,,カジプロ,0
330,2040001135450,新規,0,2024-09-18,2024-09-18,株式会社ア・プロ,,株式会社,千葉県,船橋市,浜町３丁目２番３号オリエンタル急行ロジスティックセンター３Ｆ,,12,204,2730012,,,,,,,2024-09-18,1,,,,,アプロ,0
333,2040003025807,新規,0,2024-09-18,2024-09-18,ＡＹ’ｓ企画合同会社,,合同会社,千葉県,八千代市,緑が丘１丁目２番地２,,12,221,2760049,,,,,,,2024-09-18,1,,,,,アイスキカク,0
334,2040003025823,新規,0,2024-09-18,2024-09-18,合同会社ペストコントロール,,合同会社,千葉県,流山市,おおたかの森南２丁目１４番地の１３グランテージ２０５,,12,220,2700139,,,,,,,2024-09-18,1,,,,,ペストコントロール,0
336,2060003005253,新規,0,2024-09-18,2024-09-18,ＲＲ合同会社,,合同会社,栃木県,宇都宮市,越戸３丁目１５番２号ＵＴハイツ４０２,,09,201,3210951,,,,,,,2024-09-18,1,,,,,アールアール,0
338,2080001026489,新規,0,2024-09-18,2024-09-18,株式会社ヴェルミオン,,株式会社,静岡県,静岡市清水区,谷田１６番２２号,,22,103,4240887,,,,,,,2024-09-18,1,,,,,ヴェルミオン,0
351,2110003005520,新規,0,2024-09-18,2024-09-18,合同会社ＮＩリンク,,合同会社,新潟県,新潟市中央区,南笹口１丁目１－３８コープオリンピア８０８,,15,103,9500912,,,,,,,2024-09-18,1,,,,,エヌアイリンク,0
358,2120001268597,新規,0,2024-09-18,2024-09-18,Ｈａｙａｍａ株式会社,,株式会社,大阪府,大阪市天王寺区,舟橋町９番２２号プリオール舟橋３０２号,,27,109,5430024,,,,,,,2024-09-18,1,,,,,ハヤマ,0
359,2120001268614,新規,0,2024-09-18,2024-09-18,天承株式会社,,株式会社,大阪府,大阪市西成区,長橋３丁目６番１９号長橋ハイツ２０３号室,,27,122,5570025,,,,,,,2024-09-18,1,,,,,テンショウ,0
360,2120001268622,新規,0,2024-09-18,2024-09-18,株式会社藤椛建設,,株式会社,大阪府,大阪市東成区,玉津２丁目９番１６号,,27,115,5370023,,,,,,,2024-09-18,1,,,,,トウカケンセツ,0
361,2120001268647,新規,0,2024-09-18,2024-09-18,正代株式会社,,株式会社,大阪府,大阪市旭区,赤川２丁目２－８,,27,117,5350005,,,,,,,2024-09-18,1,,,,,ショウダイ,0
366,2120101070300,新規,0,2024-09-18,2024-09-18,ＣＬＡＳＳＩＣ　ＥＮＴＥＲＰＲＩＳＥ株式会社,,株式会社,大阪府,岸和田市,尾井町１７１９番地の１,,27,202,5960000,,,,,,,2024-09-18,1,,,,,クラシックエンタープライス,0
369,2120105009906,新規,0,2024-09-18,2024-09-18,特定非営利活動法人四神,,その他の設立登記法人,大阪府,南河内郡太子町,大字春日１１９８番１６号,,27,381,5830991,,,,,,,2024-09-18,1,,,,,シシン,0
370,2120901049774,新規,0,2024-09-18,2024-09-18,株式会社ＲＹＵ,,株式会社,大阪府,豊中市,待兼山町１５番１６号,,27,203,5600043,,,,,,,2024-09-18,1,,,,,リュウ,0
372,2130001077956,新規,0,2024-09-18,2024-09-18,Ｅ‐ＳＡＶＥ技研株式会社,,株式会社,京都府,向日市,寺戸町東田中瀬１０－３,,26,208,6170002,,,,,,,2024-09-18,1,,,,,イーセイブギケン,0
380,2140001135804,新規,0,2024-09-18,2024-09-18,リュウチャオジャパン株式会社,,株式会社,兵庫県,神戸市西区,竹の台６丁目３番地１２３号,,28,111,6512274,,,,,,,2024-09-18,1,,,,,リュウチャオジャパン,0
381,2140001135812,新規,0,2024-09-18,2024-09-18,株式会社アイズダイニング,,株式会社,兵庫県,芦屋市,東芦屋町１－２０－２０１,00136335,28,206,6590095,,,,,,,2024-09-18,1,,,,,アイズダイニング,0
382,2140001135820,新規,0,2024-09-18,2024-09-18,柏松株式会社,,株式会社,兵庫県,神戸市灘区,岸地通５丁目１－４真幸ビル,,28,102,6570832,,,,,,,2024-09-18,1,,,,,ハクマツ,0
383,2140005027205,新規,0,2024-09-18,2024-09-18,一般社団法人ライフハーモニー研究所,,その他の設立登記法人,兵庫県,神戸市灘区,岩屋北町１丁目５－２０－１０１,,28,102,6570846,,,,,,,2024-09-18,1,,,,,ライフハーモニーケンキュウショ,0
388,2160001026217,新規,0,2024-09-18,2024-09-18,株式会社エクサイトストアジャパン,,株式会社,滋賀県,大津市,大萱１丁目１９－１９シルバーハイツ瀬田３０８号室,,25,201,5202144,,,,,,,2024-09-18,1,,,,,エクサイトストアジャパン,0
391,2180001163280,新規,0,2024-09-18,2024-09-18,ＲＯＯＴＳ株式会社,,株式会社,愛知県,半田市,浜田町２丁目１番地の５６,,23,205,4750805,,,,,,,2024-09-18,1,,,,,ルーツ,0
392,2180001163289,新規,0,2024-09-18,2024-09-18,株式会社アババイホールディングス,,株式会社,愛知県,名古屋市名東区,上社４丁目８９番地,,23,115,4650025,,,,,,,2024-09-18,1,,,,,アババイホールディングス,0
393,2180001163306,新規,0,2024-09-18,2024-09-18,株式会社まぁるい,,株式会社,愛知県,半田市,花園町１丁目１番地の７,,23,205,4750833,,,,,,,2024-09-18,1,,,,,マァルイ,0
395,2180003027376,新規,0,2024-09-18,2024-09-18,ＪＡＣＫ合同会社,,合同会社,愛知県,名古屋市千種区,南ケ丘１丁目２－１３,,23,101,4640042,,,,,,,2024-09-18,1,,,,,ジャック,0
399,2200001042936,新規,0,2024-09-18,2024-09-18,株式会社スタープラス,,株式会社,岐阜県,大垣市,上石津町三ツ里４７７番地,,21,202,5031624,,,,,,,2024-09-18,1,,,,,スタープラス,0
400,2200001042944,新規,0,2024-09-18,2024-09-18,株式会社エニシャル,,株式会社,岐阜県,揖斐郡揖斐川町,日坂１１７８,,21,401,5010707,,,,,,,2024-09-18,1,,,,,エニシャル,0
402,2210001019917,新規,0,2024-09-18,2024-09-18,株式会社ネオグラッド,,株式会社,福井県,南条郡南越前町,牧谷第２７号２番地の８,,18,404,9190203,,,,,,,2024-09-18,1,,,,,ネオグラッド,0
403,2220005008881,新規,0,2024-09-18,2024-09-18,一般社団法人能登復興ネットワーク,,その他の設立登記法人,石川県,七尾市,生駒町３番地３,,17,202,9260804,,,,,,,2024-09-18,1,,,,,ノトフッコウネットワーク,0
411,2250001020821,新規,0,2024-09-18,2024-09-18,株式会社ｉｄ．,,株式会社,山口県,山口市,小郡下郷３４１３番地２３（オーヴィジョン新山口駅西１００１号）,,35,203,7540002,,,,,,,2024-09-18,1,,,,,イド,0
422,2290001107301,新規,0,2024-09-18,2024-09-18,株式会社大栄スタッフィング,,株式会社,福岡県,福岡市博多区,博多駅前３丁目２３番２０号ウェルブライト博多ステーション２０９号,,40,132,8120011,,,,,,,2024-09-18,1,,,,,ダイエイスタッフィング,0
425,2290003015808,新規,0,2024-09-18,2024-09-18,合同会社モア,,合同会社,福岡県,福岡市中央区,六本松３丁目１１番３９－３０５号,,40,133,8100044,,,,,,,2024-09-18,1,,,,,モア,0
426,2290003015816,新規,0,2024-09-18,2024-09-18,合同会社百花,,合同会社,福岡県,福岡市中央区,渡辺通５丁目２５番１３号２階,,40,133,8100004,,,,,,,2024-09-18,1,,,,,ヒャッカ,0
436,2330003010564,新規,0,2024-09-18,2024-09-18,合同会社岡崎電工,00136326,合同会社,熊本県,人吉市,蓑野町２７１番地１,,43,203,8680061,,,,,,,2024-09-18,1,,,,,オカザキデンコウ,0
439,2340003004607,新規,0,2024-09-18,2024-09-18,合同会社Ｋｕｗａｙａｍａ,,合同会社,鹿児島県,鹿児島市,城西２丁目９番２０号,,46,201,8900041,,,,,,,2024-09-18,1,,,,,クワヤマ,0
440,2360001034199,新規,0,2024-09-18,2024-09-18,株式会社ともしび,,株式会社,沖縄県,宮古島市,平良字西里１９２きざいざ家３Ｆ,,47,214,9060012,,,,,,,2024-09-18,1,,,,,トモシビ,0
445,2370001051722,新規,0,2024-09-18,2024-09-18,株式会社ｚｉｇｔｈｅｅ,,株式会社,宮城県,仙台市若林区,なないろの里２丁目１９番地の２ＴｏｐＲａｎｇｅＡＲＡＩＶ－１０３,00136336,04,103,9840017,,,,,,,2024-09-18,1,,,,,ジグシー,0
446,2370003006749,新規,0,2024-09-18,2024-09-18,合同会社麻雀ＴＲＡＩＮ,,合同会社,宮城県,仙台市青葉区,一番町３丁目１０番２５号,,04,101,9800811,,,,,,,2024-09-18,1,,,,,マージャントレイン,0
463,2450001014407,新規,0,2024-09-18,2024-09-18,株式会社岩井土木設計,,株式会社,北海道,紋別郡興部町,字興部１１８番地の１,,01,561,0981600,,,,,,,2024-09-18,1,,,,,イワイドボクセッケイ,0
464,2450005004420,新規,0,2024-09-18,2024-09-18,医療法人社団大田内科クリニック,,その他の設立登記法人,北海道,旭川市,東旭川南一条１丁目２番７号,,01,204,0788261,,,,,,,2024-09-18,1,,,,,オオタナイカクリニック,0
468,2700150006575,新規,0,2024-09-18,2015-10-09,六本木アートナイト実行委員会,,その他,東京都,港区,六本木６丁目１０－１六本木ヒルズ森タワー　森ビル株式会社　内,,13,103,1060032,,,,,,,2015-10-09,1,,,,,ロツポンギアートナイトジツコウイインカイ,0
477,3010001248411,新規,0,2024-09-18,2024-09-18,株式会社Ｊ　ＶＡＬＵＥ,,株式会社,東京都,中央区,銀座１丁目１２番４号Ｎ＆ＥＢＬＤ．６Ｆ,,13,102,1040061,,,,,,,2024-09-18,1,,,,,ジェイバリュー,0
480,3010003044924,新規,0,2024-09-18,2024-09-18,Ｌｕｕｐ車両管理２号合同会社,,合同会社,東京都,千代田区,神田佐久間町３丁目２１番地２４ＡＫＩＨＡＢＡＲＡＣＥＮＴＲＡＬＳＱＵＡＲＥ４階,,13,101,1010025,,,,,,,2024-09-18,1,,,,,ループシャリョウカンリニゴウ,0
481,3010003044957,新規,0,2024-09-18,2024-09-18,ジーアイエナジーストレージ３号合同会社,,合同会社,東京都,千代田区,丸の内１丁目４番１号東京共同会計事務所内,,13,101,1000005,,,,,,,2024-09-18,1,,,,,ジーアイエナジーストレージサンゴウ,0
483,3010005038841,新規,0,2024-09-18,2024-09-18,ジーアイエナジーストレージ２号一般社団法人,,その他の設立登記法人,東京都,千代田区,丸の内１丁目４番１号東京共同会計事務所内,,13,101,1000005,,,,,,,2024-09-18,1,,,,,ジーアイエナジーストレージニゴウ,0
486,3010401185139,新規,0,2024-09-18,2024-09-18,株式会社ＡｓｗａｙＨｏｌｄｉｎｇｓ,,株式会社,東京都,港区,芝２丁目５番１０号,,13,103,1050014,,,,,,,2024-09-18,1,,,,,アズウェイホールディングス,0
487,3010401185147,新規,0,2024-09-18,2024-09-18,株式会社ＡｓｗａｙＩｎｖｅｓｔｍｅｎｔ,,株式会社,東京都,港区,芝２丁目５番１０号,,13,103,1050014,,,,,,,2024-09-18,1,,,,,アズウェイインベストメント,0
488,3010401185188,新規,0,2024-09-18,2024-09-18,芝浦株式会社,,株式会社,東京都,港区,三田２丁目１０番２号４階,,13,103,1080073,,,,,,,2024-09-18,1,,,,,シバウラ,0
492,3010403033444,新規,0,2024-09-18,2024-09-18,ＬＳ‐ＡＦＲ第１０号合同会社,,合同会社,東京都,港区,六本木１丁目６番１号,,13,103,1060032,,,,,,,2024-09-18,1,,,,,エルエスエーエフアールダイジュウゴウ,0
501,3010701046552,新規,0,2024-09-18,2024-09-18,株式会社ＢｅＩｎｆｉｎｉｔｙ,,株式会社,東京都,品川区,西五反田８丁目１－２第２平森ビル１階,,13,109,1410031,,,,,,,2024-09-18,1,,,,,ビーインフィニティー,0
505,3010801035406,新規,0,2024-09-18,2024-09-18,株式会社ステラワン,,株式会社,東京都,大田区,蒲田５丁目４６番１１号蒲燃ビル３階,,13,111,1440052,,,,,,,2024-09-18,1,,,,,ステラワン,0
506,3010901055972,新規,0,2024-09-18,2024-09-18,アクア住設株式会社,,株式会社,東京都,世田谷区,上祖師谷２丁目１６番１５号,,13,112,1570065,,,,,,,2024-09-18,1,,,,,アクアジュウセツ,0
512,3011001164689,新規,0,2024-09-18,2024-09-18,株式会社ユーダイモニア,,株式会社,東京都,渋谷区,道玄坂１丁目１０番８号渋谷道玄坂東急ビル２Ｆ－Ｃ,,13,113,1500043,,,,,,,2024-09-18,1,,,,,ユーダイモニア,0
513,3011001164722,新規,0,2024-09-18,2024-09-18,株式会社ファインドソリューション,,株式会社,東京都,渋谷区,代々木１丁目４番３－２０４号レグノ・コラージュ,,13,113,1510053,,,,,,,2024-09-18,1,,,,,ファインドソリューション,0
518,3011203004486,新規,0,2024-09-18,2024-09-18,合同会社シヲクムプランニング,,合同会社,東京都,中野区,上鷺宮２丁目３‐１３‐４,,13,114,1650031,,,,,,,2024-09-18,1,,,,,シヲクムプランニング,0
521,3011401026398,新規,0,2024-09-18,2024-09-18,株式会社東信,,株式会社,東京都,板橋区,大山東町３２－１８ルイ・ステージ大山２０２,,13,119,1730014,,,,,,,2024-09-18,1,,,,,トウシン,0
524,3011601028062,新規,0,2024-09-18,2024-09-18,ブルーバレーテクノロジー株式会社,,株式会社,東京都,練馬区,桜台１丁目７番７－４１３号室,,13,120,1760002,,,,,,,2024-09-18,1,,,,,ブルーバレーテクノロジー,0
528,3011801044850,新規,0,2024-09-18,2024-09-18,株式会社Ｔ‐ＢＲＩＧＨＴ,,株式会社,東京都,足立区,足立３丁目２４番７号Ｊｅｌｌｙ’ｓＨｏｕｓｅＡ棟,,13,121,1200015,,,,,,,2024-09-18,1,,,,,ティーブライト,0
531,3012401042286,新規,0,2024-09-18,2024-09-18,株式会社ＴＯＰ　Ｒｕｎｎｅｒ,,株式会社,東京都,稲城市,矢野口３８６番地の１,,13,225,2060812,,,,,,,2024-09-18,1,,,,,トップランナー,0
538,3013101009518,新規,0,2024-09-18,2024-09-18,株式会社ｃｏｒｅ‐ｚ,,株式会社,東京都,あきる野市,伊奈２６４番地１,,13,228,1900142,,,,,,,2024-09-18,1,,,,,,0
553,3030001162503,新規,0,2024-09-18,2024-09-18,Ｒｅｐｒｏｄｕｃｔｉｏｎ株式会社,,株式会社,埼玉県,さいたま市緑区,原山４丁目２７０番地４,,11,109,3360931,,,,,,,2024-09-18,1,,,,,リプロダクション,0
554,3030003025138,新規,0,2024-09-18,2024-09-18,華騰合同会社,,合同会社,埼玉県,川口市,本町３丁目１２番６号ロイヤルメゾン１０１号,,11,203,3320012,,,,,,,2024-09-18,1,,,,,,0
559,3040003025814,新規,0,2024-09-18,2024-09-18,合同会社りあん,,合同会社,千葉県,千葉市中央区,星久喜町１１９１番地２８,,12,101,2600808,,,,,,,2024-09-18,1,,,,,リアン,0
567,3080103003138,新規,0,2024-09-18,2024-09-18,合同会社Ｄｅｓａ　Ｌｅｇａｌ,,合同会社,静岡県,富士市,森島２６０番地の１９,,22,210,4160948,,,,,,,2024-09-18,1,,,,,デザリーガル,0
568,3080403005098,新規,0,2024-09-18,2024-09-18,合同会社Ｔ７,,合同会社,静岡県,袋井市,堀越１丁目２番地の９,,22,216,4370065,,,,,,,2024-09-18,1,,,,,ティーセブン,0
570,3090003002635,新規,0,2024-09-18,2024-09-18,合同会社ＳｈｏｗａＤＳカンパニー,,合同会社,山梨県,中巨摩郡昭和町,西条２１９７番地１３,,19,384,4093866,,,,,,,2024-09-18,1,,,,,ショウワディエスカンパニー,0
578,3120001268605,新規,0,2024-09-18,2024-09-18,株式会社スタイルエフ,,株式会社,大阪府,大阪市平野区,平野宮町１丁目６番２－１１０４号,,27,126,5470046,,,,,,,2024-09-18,1,,,,,スタイルエフ,0
579,3120001268613,新規,0,2024-09-18,2024-09-18,Ｃ．Ｅ．Ｃｏｎｓｕｌｔｉｎｇ株式会社,,株式会社,大阪府,大阪市北区,梅田１丁目２番２号大阪駅前第２ビル１２－１２,,27,127,5300001,,,,,,,2024-09-18,1,,,,,シーイーコンサルティング,0
580,3120001268621,新規,0,2024-09-18,2024-09-18,株式会社Ｇｉｆｔｙ,,株式会社,大阪府,大阪市西区,西本町２丁目５番１０号コンフィデンス西本町４０７号室,,27,106,5500005,,,,,,,2024-09-18,1,,,,,ギフティ,0
581,3120001268638,新規,0,2024-09-18,2024-09-18,北濱ＥＮＥＲＧＹ株式会社,,株式会社,大阪府,大阪市中央区,北浜２丁目１番１７号,,27,128,5410041,,,,,,,2024-09-18,1,,,,,キタハマエナジー,0
582,3120001268654,新規,0,2024-09-18,2024-09-18,株式会社Ｙコーポレーション,,株式会社,大阪府,大阪市中央区,淡路町４丁目３番５号,,27,128,5410047,,,,,,,2024-09-18,1,,,,,ワイコーポレーション,0
583,3120001268670,新規,0,2024-09-18,2024-09-18,Ｄ．ｐｒｏｊｅｃｔ株式会社,,株式会社,大阪府,大阪市浪速区,大国２丁目６番２０号レバンガＡＰ難波カラーズ２０２号,,27,111,5560014,,,,,,,2024-09-18,1,,,,,ディープロジェクト,0
584,3120001268679,新規,0,2024-09-18,2024-09-18,矢野電機システム株式会社,,株式会社,大阪府,大阪市平野区,加美鞍作２丁目４番１３号,,27,126,5470004,,,,,,,2024-09-18,1,,,,,ヤノデンキシステム,0
585,3120003027562,新規,0,2024-09-18,2024-09-18,合同会社コモド・アソシエイト,,合同会社,大阪府,大阪市旭区,千林１丁目９番１８号サクセスＩＩＩ３０２,00136329,27,117,5350012,,,,,,,2024-09-18,1,,,,,コモドアソシエイト,0
589,3120903005345,新規,0,2024-09-18,2024-09-18,合同会社ＰＲＯＳＯＬ,,合同会社,大阪府,吹田市,山手町３丁目２９－３０－３０２,,27,205,5640073,,,,,,,2024-09-18,1,,,,,プロッソル,0
592,3130001077922,新規,0,2024-09-18,2024-09-18,株式会社ａｎｎｅ,,株式会社,京都府,向日市,寺戸町西田中瀬１番地の１,,26,208,6170002,,,,,,,2024-09-18,1,,,,,アンヌ,0
593,3130001077955,新規,0,2024-09-18,2024-09-18,株式会社Ｂ・Ｐｏｓｉｔｉｖｅ,,株式会社,京都府,京都市北区,紫野今宮町８９番地１,,26,101,6038243,,,,,,,2024-09-18,1,,,,,ビーポジティブ,0
594,3130001077963,新規,0,2024-09-18,2024-09-18,株式会社Ｔｈｏｕｇｈｔｆｕｌ,,株式会社,京都府,京都市下京区,中堂寺坊城町２番地ＢＥＡＵＴＹＢＬＤＧＴＡＮＢＡＧＵＣＨＩ５Ｆ,,26,106,6008811,,,,,,,2024-09-18,1,,,,,ソートフル,0
595,3130005017180,新規,0,2024-09-18,2024-09-18,一般社団法人上桂ひまわり福祉会,,その他の設立登記法人,京都府,京都市西京区,松尾鈴川町８７番地の１４,,26,111,6158216,,,,,,,2024-09-18,1,,,,,カミカツラヒマワリフクシカイ,0
599,3140001135803,新規,0,2024-09-18,2024-09-18,新川翔株式会社,,株式会社,兵庫県,加東市,上久米１７６３番地の７４,,28,228,6731414,,,,,,,2024-09-18,1,,,,,シンセンショウ,0
600,3140003021092,新規,0,2024-09-18,2024-09-18,合同会社ＫＴＨ,,合同会社,兵庫県,神戸市東灘区,岡本１丁目２番１８－１００５号,,28,101,6580072,,,,,,,2024-09-18,1,,,,,ケイティエイチ,0
611,3180001163271,新規,0,2024-09-18,2024-09-18,鮮恒株式会社,,株式会社,愛知県,名古屋市東区,東桜２丁目３番７号,,23,102,4610005,,,,,,,2024-09-18,1,,,,,センコウ,0
613,3180003027359,新規,0,2024-09-18,2024-09-18,合同会社愛弘,,合同会社,愛知県,瀬戸市,瘤木町２４番地４,,23,204,4890879,,,,,,,2024-09-18,1,,,,,アイコウ,0
614,3180003027375,新規,0,2024-09-18,2024-09-18,合同会社ＣａｆｅＢｉｓｔｒｏ４１,,合同会社,愛知県,小牧市,大字村中１３６８－１ＡＷＢ　ＴｏｗｅｒＩＶ，２Ｆ，Ｒ１２，ＣａｆｅＢｉｓｔｒｏ４１,,23,219,4850082,,,,,,,2024-09-18,1,,,,,キャフェビストロフォーティーワン,0
616,3180301039056,新規,0,2024-09-18,2024-09-18,株式会社ハチワレのくうさんち,,株式会社,愛知県,豊川市,伊奈町縫殿２６番地３７６,,23,207,4410105,,,,,,,2024-09-18,1,,,,,ハチワレノクウサンチ,0
623,3220005008880,新規,0,2024-09-18,2024-09-18,北陸防水改修工事協同組合,,その他の設立登記法人,石川県,金沢市,駅西本町１丁目１４番２９号,,17,201,9200025,,,,,,,2024-09-18,1,,,,,ホクリクボウスイカイシュウコウジ,0
625,3230001020525,新規,0,2024-09-18,2024-09-18,株式会社ＹＫシステム,,株式会社,富山県,魚津市,立石８５番地５,,16,204,9370016,,,,,,,2024-09-18,1,,,,,ワイケーシステム,0
631,3240001063829,新規,0,2024-09-18,2024-09-18,株式会社コンパス,,株式会社,広島県,広島市佐伯区,河内南２丁目３０番１２号,,34,108,7315153,,,,,,,2024-09-18,1,,,,,コンパス,0
642,3290001107250,新規,0,2024-09-18,2024-09-18,株式会社三成サービス,,株式会社,福岡県,福岡市博多区,東光寺町１丁目１４番１４号,,40,132,8120896,,,,,,,2024-09-18,1,,,,,サンセイサービス,0
643,3290001107267,新規,0,2024-09-18,2024-09-18,株式会社ＧｏｏｄＴｉｍｅｓ,,株式会社,福岡県,福岡市博多区,博多駅前１丁目２３番２号ＰａｒｋＦｒｏｎｔ１丁目５Ｆ－Ｂ,,40,132,8120011,,,,,,,2024-09-18,1,,,,,グッドタイムズ,0
647,3290003015807,新規,0,2024-09-18,2024-09-18,ｔｏｔｔ合同会社,,合同会社,福岡県,福岡市中央区,天神４丁目６－２８天神ファーストビル７階,,40,133,8100001,,,,,,,2024-09-18,1,,,,,トット,0
648,3290003015815,新規,0,2024-09-18,2024-09-18,合同会社蘇生,,合同会社,福岡県,福岡市中央区,渡辺通５丁目２５番１３号,,40,133,8100004,,,,,,,2024-09-18,1,,,,,ソセイ,0
653,3320001020714,新規,0,2024-09-18,2024-09-18,株式会社ＮＵＭＢＥＲ　ＯＮＥ,,株式会社,大分県,別府市,元町１番２５号Ｇパレスビル５Ｆ,,44,202,8740944,,,,,,,2024-09-18,1,,,,,ナンバーワン,0
654,3330001032469,新規,0,2024-09-18,2024-09-18,ミタカトライブ株式会社,,株式会社,熊本県,八代市,宮地町１５７７番地１,,43,202,8660805,,,,,,,2024-09-18,1,,,,,ミタカトライブ,0
655,3340003004606,新規,0,2024-09-18,2024-09-18,ルキオン合同会社,,合同会社,鹿児島県,伊佐市,大口大田４５,,46,224,8952507,,,,,,,2024-09-18,1,,,,,ルキオン,0
676,3700150126950,新規,0,2024-09-18,2024-09-03,宝達志水町ポイントカード会,,その他,石川県,羽咋郡宝達志水町,河原ト１２０番地,,17,386,9291303,,,,,,,2024-09-03,1,,,,,ホウダツシミズチヨウポイントカードカイ,0
679,4010001248311,新規,0,2024-09-18,2024-09-18,株式会社ａｉｌｌｉｏ,,株式会社,東京都,文京区,弥生２丁目１３番１号４０２号室,,13,105,1130032,,,,,,,2024-09-18,1,,,,,エイリオ,0
680,4010001248344,新規,0,2024-09-18,2024-09-18,霜花国際医療株式会社,,株式会社,東京都,文京区,大塚４丁目４８－５,00136334,13,105,1120012,,,,,,,2024-09-18,1,,,,,ソウカコクサイイリョウ,0
681,4010001248360,新規,0,2024-09-18,2024-09-18,Ｐホールディングス株式会社,,株式会社,東京都,千代田区,丸の内３丁目１－１国際ビル,,13,101,1000005,,,,,,,2024-09-18,1,,,,,ピーホールディングス,0
682,4010001248402,新規,0,2024-09-18,2024-09-18,日本プロフェトＡＩ株式会社,,株式会社,東京都,千代田区,有楽町１丁目１３－２第一生命日比谷ファースト１２階,,13,101,1000006,,,,,,,2024-09-18,1,,,,,ニホンプロフェトエーアイ,0
684,4010003044915,新規,0,2024-09-18,2024-09-18,メディカルトラスト合同会社,,合同会社,東京都,千代田区,外神田４丁目１４番２号,,13,101,1010021,,,,,,,2024-09-18,1,,,,,メディカルトラスト,0
685,4010003044956,新規,0,2024-09-18,2024-09-18,ジーアイエナジーストレージ２号合同会社,,合同会社,東京都,千代田区,丸の内１丁目４番１号東京共同会計事務所内,,13,101,1000005,,,,,,,2024-09-18,1,,,,,ジーアイエナジーストレージニゴウ,0
687,4010005038808,新規,0,2024-09-18,2024-09-18,一般社団法人ＥＴＯＴ,,その他の設立登記法人,東京都,中央区,銀座２丁目８番地１８グランベル銀座ビル８階,,13,102,1040061,,,,,,,2024-09-18,1,,,,,イートット,0
688,4010005038840,新規,0,2024-09-18,2024-09-18,ジーアイエナジーストレージ１号一般社団法人,,その他の設立登記法人,東京都,千代田区,丸の内１丁目４番１号東京共同会計事務所内,,13,101,1000005,,,,,,,2024-09-18,1,,,,,ジーアイエナジーストレージイチゴウ,0
692,4010401185162,新規,0,2024-09-18,2024-09-18,株式会社Ｓｕｎｃｔ,,株式会社,東京都,港区,港南１丁目９番３６号アレア品川１３階エキスパートオフィス品川８０１号室,,13,103,1080075,,,,,,,2024-09-18,1,,,,,サンクト,0
697,4010405023599,新規,0,2024-09-18,2024-09-18,一般社団法人ＴＳＭ１６５,,その他の設立登記法人,東京都,港区,元赤坂１丁目１番７号,,13,103,1070051,,,,,,,2024-09-18,1,,,,,ティーエスエムヒャクロクジュウゴ,0
699,4010601065916,新規,0,2024-09-18,2024-09-18,株式会社アンド・ワイバーン,,株式会社,東京都,江東区,有明３丁目７番２６号有明フロンティアビルＢ棟９階,,13,108,1350063,,,,,,,2024-09-18,1,,,,,アンドワイバーン,0
700,4010601065932,新規,0,2024-09-18,2024-09-18,株式会社Ｐｉｃｔｏ　Ｃａｒｅ,,株式会社,東京都,江東区,大島８丁目３９番２２－６２２号,,13,108,1360072,,,,,,,2024-09-18,1,,,,,ピクトケア,0
702,4010801035405,新規,0,2024-09-18,2024-09-18,株式会社運送社長支援,,株式会社,東京都,大田区,上池台１丁目２０番２３号第８岡崎ビル２階,,13,111,1450064,,,,,,,2024-09-18,1,,,,,ウンソウシャチョウシエン,0
707,4011001164093,新規,0,2024-09-18,2024-09-18,ＭｅｔａＣｒａｆｔ株式会社,,株式会社,東京都,渋谷区,道玄坂１丁目１０番８号渋谷道玄坂東急ビル２Ｆ－Ｃ,,13,113,1500043,,,,,,,2024-09-18,1,,,,,メタクラフト,0
708,4011001164746,新規,0,2024-09-18,2024-09-18,株式会社ＧＥＮＥＲＡＬ,,株式会社,東京都,目黒区,下目黒１丁目１‐１４コノトラビル７Ｆ,,13,110,1530064,,,,,,,2024-09-18,1,,,,,ジェネラル,0
710,4011003020030,新規,0,2024-09-18,2024-09-18,合同会社ＬＩＢＥＲ,,合同会社,東京都,目黒区,緑が丘２丁目１７番２０号１０５,,13,110,1520034,,,,,,,2024-09-18,1,,,,,リベル,0
712,4011101108751,新規,0,2024-09-18,2024-09-18,ノースオン株式会社,,株式会社,東京都,新宿区,西新宿１丁目４－１１全研プラザＳＰＡＣＥＳ新宿,,13,104,1600023,,,,,,,2024-09-18,1,,,,,ノースオン,0
713,4011101108801,新規,0,2024-09-18,2024-09-18,Ｖｉｓｕｐｐｌｙ株式会社,,株式会社,東京都,新宿区,東五軒町１番９号ＳＢＳ・Ｂ－５,,13,104,1620813,,,,,,,2024-09-18,1,,,,,ヴィサプライ,0
718,4011203004485,新規,0,2024-09-18,2024-09-18,合同会社キズナ,,合同会社,東京都,中野区,野方１丁目３２番３号,,13,114,1650027,,,,,,,2024-09-18,1,,,,,キズナ,0
722,4011501031157,新規,0,2024-09-18,2024-09-18,誠医株式会社,,株式会社,東京都,北区,栄町３８番１４号,,13,117,1140005,,,,,,,2024-09-18,1,,,,,セイイ,0
723,4011601028061,新規,0,2024-09-18,2024-09-18,順天株式会社,,株式会社,東京都,練馬区,旭丘１丁目５６番５号ノースビレッヂ２０２,,13,120,1760005,,,,,,,2024-09-18,1,,,,,ジュンテン,0
731,4012705002423,新規,0,2024-09-18,2024-09-18,労働者協同組合ワーカーズ・コレクティブ凛,,その他の設立登記法人,東京都,東村山市,久米川町３丁目３２番地４４,,13,213,1890003,,,,,,,2024-09-18,1,,,,,ワーカーズコレクティブリン,0
734,4013303007310,新規,0,2024-09-18,2024-09-18,Ｐ‐ｔｒｕｓｔ合同会社,,合同会社,東京都,豊島区,南大塚２丁目４６番１号南大塚ＫＭビル６０１号室,,13,116,1700005,,,,,,,2024-09-18,1,,,,,ピートラスト,0
752,4030001162493,新規,0,2024-09-18,2024-09-18,株式会社アヴェスプランニング,,株式会社,埼玉県,さいたま市浦和区,大東３丁目３８番１６号,,11,107,3300043,,,,,,,2024-09-18,1,,,,,アヴェスプランニング,0
754,4030003025120,新規,0,2024-09-18,2024-09-18,合同会社アキ,,合同会社,埼玉県,さいたま市南区,根岸１丁目１番１０号,,11,108,3360024,,,,,,,2024-09-18,1,,,,,アキ,0
755,4030003025137,新規,0,2024-09-18,2024-09-18,合同会社けいとくん,,合同会社,埼玉県,さいたま市見沼区,大字中川７６１番地４６,,11,104,3370043,,,,,,,2024-09-18,1,,,,,ケイトクン,0
759,4040001135432,新規,0,2024-09-18,2024-09-18,株式会社ＷａｌｋＯｎ,,株式会社,千葉県,船橋市,飯山満町３丁目１６１７番地５,,12,204,2740822,,,,,,,2024-09-18,1,,,,,ウォークオン,0
760,4040003025813,新規,0,2024-09-18,2024-09-18,Ｋｅｉｓｈｏ合同会社,,合同会社,千葉県,船橋市,海神４丁目８番６号,,12,204,2730021,,,,,,,2024-09-18,1,,,,,ケイショー,0
762,4050001055407,新規,0,2024-09-18,2024-09-18,株式会社タナカエンタープライズ,,株式会社,茨城県,龍ケ崎市,２７３５番地１ガーデンハウス１０５号室,,08,208,3010000,,,,,,,2024-09-18,1,,,,,タナカエンタープライズ,0
763,4050001055415,新規,0,2024-09-18,2024-09-18,ＳＡＬＭＡＮ　ＴＲＡＤＩＮＧ株式会社,,株式会社,茨城県,坂東市,岩井３１９３番地３,,08,228,3060631,,,,,,,2024-09-18,1,,,,,サルマントレーディング,0
770,4060001037486,新規,0,2024-09-18,2024-09-18,株式会社ナスノナス,,株式会社,栃木県,那須郡那須町,大字豊原丙４８１５,,09,407,3293225,,,,,,,2024-09-18,1,,,,,ナスノナス,0
775,4070001042188,新規,0,2024-09-18,2024-09-18,株式会社トマの耳,,株式会社,群馬県,利根郡みなかみ町,月夜野４２０番地２,,10,449,3791313,,,,,,,2024-09-18,1,,,,,トマノミミ,0
789,4120001268430,新規,0,2024-09-18,2024-09-18,Ｋ．Ｋ．Ｓｈｉｎｙ　Ｐｅｎｃｉｌ株式会社,,株式会社,大阪府,大阪市北区,西天満２丁目６番８号堂島ビルヂング６Ｆ新東京国際リーガル内,,27,127,5300047,,,,,,,2024-09-18,1,,,,,ケーケーシャイニーペンシル,0
790,4120001268587,新規,0,2024-09-18,2024-09-18,株式会社ＷＩＮ　ＳＴＡＲ,,株式会社,大阪府,大阪市西成区,松１丁目１０－２９－１０６号室,,27,122,5570034,,,,,,,2024-09-18,1,,,,,ウィンスター,0
791,4120001268595,新規,0,2024-09-18,2024-09-18,Ｈａｉｈａｉ株式会社,,株式会社,大阪府,大阪市東成区,東小橋１丁目１７番３１－７１１号室,,27,115,5370024,,,,,,,2024-09-18,1,,,,,ハイハイ,0
792,4120001268612,新規,0,2024-09-18,2024-09-18,リッツゼロ株式会社,,株式会社,大阪府,大阪市中央区,徳井町１丁目１番７号,,27,128,5400025,,,,,,,2024-09-18,1,,,,,リッツゼロ,0
793,4120001268629,新規,0,2024-09-18,2024-09-18,シュンズ株式会社,,株式会社,大阪府,大阪市北区,西天満６丁目３番１１－２１４号,,27,127,5300047,,,,,,,2024-09-18,1,,,,,シュンズ,0
794,4120001268637,新規,0,2024-09-18,2024-09-18,株式会社Ａ・ＤＡＹ,,株式会社,大阪府,大阪市中央区,平野町１丁目５番９号６Ｄ,,27,128,5410046,,,,,,,2024-09-18,1,,,,,アデイ,0
795,4120003027561,新規,0,2024-09-18,2024-09-18,合同会社ＫＩＺＵＫＵ,,合同会社,大阪府,大阪市天王寺区,勝山４丁目８番８号１２０４号室,,27,109,5430043,,,,,,,2024-09-18,1,,,,,キズク,0
803,4130001077946,新規,0,2024-09-18,2024-09-18,京ベジライフ株式会社,,株式会社,京都府,京都市伏見区,久我東町２番地６３,,26,109,6128494,,,,,,,2024-09-18,1,,,,,キョウベジライフ,0
810,4140003021083,新規,0,2024-09-18,2024-09-18,合同会社ＭｏＣｏ,,合同会社,兵庫県,姫路市,継４３２番地１０,,28,201,6728004,,,,,,,2024-09-18,1,,,,,モコ,0
814,4180001163279,新規,0,2024-09-18,2024-09-18,ＨＡＮＤＬＡＢＯ株式会社,,株式会社,愛知県,東海市,大田町天尾崎１００２番地,,23,222,4770031,,,,,,,2024-09-18,1,,,,,ハンドラボ,0
815,4180001163287,新規,0,2024-09-18,2024-09-18,株式会社ＭｏＣｏＰａ,,株式会社,愛知県,小牧市,中央５丁目１８番地エムズシティ小牧７１１,,23,219,4850029,,,,,,,2024-09-18,1,,,,,モコパ,0
816,4180001163304,新規,0,2024-09-18,2024-09-18,株式会社ＢＢＨ　ＰＡＲＴＮＥＲＳ,,株式会社,愛知県,名古屋市千種区,池下２丁目２番地１７,,23,101,4640067,,,,,,,2024-09-18,1,,,,,ビービーエイチパートナーズ,0
817,4180003027358,新規,0,2024-09-18,2024-09-18,合同会社ＬＩＳＨ,,合同会社,愛知県,知多市,新知東町３丁目３２番地の１４,,23,224,4780065,,,,,,,2024-09-18,1,,,,,リッシュ,0
821,4180303006268,新規,0,2024-09-18,2024-09-18,合同会社Ｇ‐Ｂｌｕｅ,,合同会社,愛知県,豊橋市,神野新田町字水神下２０６番地２,,23,201,4418077,,,,,,,2024-09-18,1,,,,,ジーブルー,0
824,4200001042934,新規,0,2024-09-18,2024-09-18,株式会社イトウ建商,,株式会社,岐阜県,羽島郡笠松町,長池１６５４番地の４,,21,303,5016063,,,,,,,2024-09-18,1,,,,,イトウケンショウ,0
829,4260001039462,新規,0,2024-09-18,2024-09-18,株式会社ｒｏｕｎｄ　ｍｉｍｅａ,,株式会社,岡山県,倉敷市,連島町鶴新田２５９４番地１Ｂ２０３,,33,202,7128006,,,,,,,2024-09-18,1,,,,,ラウンドミメア,0
833,4290001107274,新規,0,2024-09-18,2024-09-18,熊本細工資産株式会社,,株式会社,福岡県,福岡市東区,香椎１丁目１０－５メゾン・ド・香椎参道２０５号室,,40,131,8130011,,,,,,,2024-09-18,1,,,,,クマモトサイクシサン,0
834,4290001107299,新規,0,2024-09-18,2024-09-18,株式会社Ｄｕｆｆｙ＆Ｃｏｃｏ,,株式会社,福岡県,福岡市中央区,薬院４丁目１５番１０－２０２号,,40,133,8100022,,,,,,,2024-09-18,1,,,,,ダッフィーアンドココ,0
835,4290001107324,新規,0,2024-09-18,2024-09-18,ｓｙｕ．ｈａ．ｒｉ　ｌａｂｏ株式会社,,株式会社,福岡県,小郡市,祇園１丁目１０－１７土方ビル２０１,,40,216,8380144,,,,,,,2024-09-18,1,,,,,シュハリラボ,0
836,4290001107332,新規,0,2024-09-18,2024-09-18,株式会社ガンバル,,株式会社,福岡県,糟屋郡宇美町,大字井野２２１番地１－２Ｆ,,40,341,8112104,,,,,,,2024-09-18,1,,,,,ガンバル,0
839,4290003015830,新規,0,2024-09-18,2024-09-18,エバーグリーン日本貿易合同会社,,合同会社,福岡県,福岡市中央区,荒戸３丁目４番３－７０１号,,40,133,8100062,,,,,,,2024-09-18,1,,,,,エバーグリーンニホンボウエキ,0
846,4330001032468,新規,0,2024-09-18,2024-09-18,株式会社ＭＯＴＯＨＩＲＯ,,株式会社,熊本県,熊本市北区,大窪４丁目３番３号ＳＫＩＩ３０１,00136341,43,105,8600083,,,,,,,2024-09-18,1,,,,,モトヒロ,0
856,4370001051720,新規,0,2024-09-18,2024-09-18,株式会社ファーステストオークションジャパン,,株式会社,宮城県,角田市,梶賀字高畑北１５３番地,,04,208,9811523,,,,,,,2024-09-18,1,,,,,ファーステストオークションジャパン,0
870,4440001009496,新規,0,2024-09-18,2024-09-18,Ｆ＆Ｐｉｅｃｅ株式会社,,株式会社,北海道,函館市,中道２丁目３９番１号,,01,202,0410853,,,,,,,2024-09-18,1,,,,,エフアンドピース,0
873,4500001025883,新規,0,2024-09-18,2024-09-18,株式会社ツープランニング,,株式会社,愛媛県,松山市,千舟町４丁目３番７号青野ビル１Ｆ,,38,201,7900011,,,,,,,2024-09-18,1,,,,,ツープランニング,0
874,4700150127171,新規,0,2024-09-18,2024-09-18,ＡＲＢＯＬＥＡＦ（ＨＫ）ＴＥＣＨＮＯＬＯＧＹ　ＬＩＭＩＴＥＤ,,外国会社等,,,,,,,,ＳＱＵＡＲＥ　ＴＯＷＥＲ　１，９　ＳＨＥＵＮＧ　ＹＵＥＴ　ＵＮＩＴ　１１０１　１１／Ｆ　ＥＮＴＥＲＰＲＩＳＥ　ＲＤ　ＫＯＷＬＯＯＮ　ＢＡＹ　ＫＬＮ　ＨＯＮＧＫＯＮＧ　９９９０７７　ＨＫ,,,,,,2024-09-18,1,,,,,アーボラフェホンコンテクノロジーリミテッド,0
883,5010001248310,新規,0,2024-09-18,2024-09-18,株式会社弁天不動産,,株式会社,東京都,中央区,日本橋富沢町１１番１９－５０１,,13,102,1030006,,,,,,,2024-09-18,1,,,,,ベンテンフドウサン,0
884,5010001248384,新規,0,2024-09-18,2024-09-18,株式会社ライフビジョン,,株式会社,東京都,中央区,日本橋浜町２丁目１６－６ハウスジェントウル２０３,,13,102,1030007,,,,,,,2024-09-18,1,,,,,ライフビジョン,0
886,5010003044872,新規,0,2024-09-18,2024-09-18,徳吉合同会社,,合同会社,東京都,中央区,銀座１丁目１２番４号Ｎ＆ＥＢＬＤ．６Ｆ,,13,102,1040061,,,,,,,2024-09-18,1,,,,,トクヨシ,0
887,5010003044955,新規,0,2024-09-18,2024-09-18,ジーアイエナジーストレージ１号合同会社,,合同会社,東京都,千代田区,丸の内１丁目４番１号東京共同会計事務所内,,13,101,1000005,,,,,,,2024-09-18,1,,,,,ジーアイエナジーストレージイチゴウ,0
888,5010005038831,新規,0,2024-09-18,2024-09-18,一般社団法人Ｓｉｌｖｅｒ　Ｒｏｃｋ,,その他の設立登記法人,東京都,千代田区,霞が関３丁目２番５号,,13,101,1000013,,,,,,,2024-09-18,1,,,,,シルバーロック,0
898,5010401185161,新規,0,2024-09-18,2024-09-18,株式会社ＰＢＢ,,株式会社,東京都,港区,新橋６丁目４番３号,,13,103,1050004,,,,,,,2024-09-18,1,,,,,ピービービー,0
899,5010403033450,新規,0,2024-09-18,2024-09-18,テックリレーション合同会社,,合同会社,東京都,港区,南青山２丁目２番１５号,,13,103,1070062,,,,,,,2024-09-18,1,,,,,テックリレーション,0
902,5010603011099,新規,0,2024-09-18,2024-09-18,由櫂合同会社,,合同会社,東京都,江東区,辰巳１丁目５番６ー１１０５号,,13,108,1350053,,,,,,,2024-09-18,1,,,,,ユカイ,0
903,5010701046550,新規,0,2024-09-18,2024-09-18,イベントス株式会社,,株式会社,東京都,品川区,東品川４丁目１２番８号品川シーサイドイーストタワー１５階,,13,109,1400002,,,,,,,2024-09-18,1,,,,,イベントス,0
904,5010703007352,新規,0,2024-09-18,2024-09-18,合同会社エレベートダイナミクス,,合同会社,東京都,品川区,西五反田１丁目２６番２号五反田サンハイツビル２階,,13,109,1410031,,,,,,,2024-09-18,1,,,,,エレベートダイナミクス,0
906,5010801035404,新規,0,2024-09-18,2024-09-18,株式会社Ｋｉｒａｕｎｉｘ,,株式会社,東京都,大田区,南六郷３丁目１０番１６号六郷ＢＡＳＥ,,13,111,1440045,,,,,,,2024-09-18,1,,,,,キラユニクス,0
911,5011001164670,新規,0,2024-09-18,2024-09-18,株式会社ナカミチ,,株式会社,東京都,渋谷区,渋谷２丁目１９－１５宮益坂ビルディング６０９,,13,113,1500002,,,,,,,2024-09-18,1,,,,,ナカミチ,0
912,5011001164704,新規,0,2024-09-18,2024-09-18,株式会社ＩＳＢ,,株式会社,東京都,目黒区,目黒１丁目２４番９－１５０５号ＭＦＰＲ目黒タワー,,13,110,1530063,,,,,,,2024-09-18,1,,,,,アイエスビー,0
915,5011003020021,新規,0,2024-09-18,2024-09-18,日向青葉合同会社,,合同会社,東京都,渋谷区,道玄坂１丁目１０番８号渋谷道玄坂東急ビル２Ｆ－Ｃ,,13,113,1500043,,,,,,,2024-09-18,1,,,,,ヒュウガアオバ,0
916,5011003020054,新規,0,2024-09-18,2024-09-18,ネクスト合同会社,,合同会社,東京都,渋谷区,恵比寿西２丁目４番８号ウィンド恵比寿ビル８Ｆ,,13,113,1500021,,,,,,,2024-09-18,1,,,,,ネクスト,0
922,5011101108791,新規,0,2024-09-18,2024-09-18,株式会社アドバンス,,株式会社,東京都,新宿区,西新宿３丁目３番１３号西新宿水間ビル２Ｆ,,13,104,1600023,,,,,,,2024-09-18,1,,,,,アドバンス,0
927,5011701027623,新規,0,2024-09-18,2024-09-18,異次元東京株式会社,,株式会社,東京都,江戸川区,江戸川４丁目１９カーサ茜Ｎｏ．２－１０６号,,13,123,1340013,,,,,,,2024-09-18,1,,,,,イジゲントウキョウ,0
929,5011801044840,新規,0,2024-09-18,2024-09-18,優道貿易株式会社,,株式会社,東京都,葛飾区,金町１丁目２３番６号,,13,122,1250042,,,,,,,2024-09-18,1,,,,,ユウドウボウエキ,0
930,5011801044857,新規,0,2024-09-18,2024-09-18,株式会社しあわせの味,,株式会社,東京都,足立区,江北２丁目１０－３ＳＢメゾン江北１０１,,13,121,1230872,,,,,,,2024-09-18,1,,,,,シアワセノアジ,0
939,5020001159168,新規,0,2024-09-18,2024-09-18,株式会社ＬＵＡＳＩＳ,,株式会社,神奈川県,横浜市保土ケ谷区,和田１丁目１番１２号,,14,106,2400065,,,,,,,2024-09-18,1,,,,,ルアシス,0
961,5030001162377,新規,0,2024-09-18,2024-09-18,株式会社ＷＦＳ,,株式会社,埼玉県,川口市,川口５丁目６番１６号,,11,203,3320015,,,,,,,2024-09-18,1,,,,,ダブリューエフエス,0
962,5030001162468,新規,0,2024-09-18,2024-09-18,ベジゴー株式会社,,株式会社,埼玉県,さいたま市北区,吉野町１丁目４４３番地５,,11,102,3310811,,,,,,,2024-09-18,1,,,,,ベジゴー,0
963,5030001162501,新規,0,2024-09-18,2024-09-18,株式会社四葉,,株式会社,埼玉県,入間市,大字南峯１０４８番地７,,11,225,3580046,,,,,,,2024-09-18,1,,,,,ヨツバ,0
964,5030001162518,新規,0,2024-09-18,2024-09-18,株式会社イッキコーポレーション,,株式会社,埼玉県,さいたま市南区,内谷３丁目１０番６号,,11,108,3360034,,,,,,,2024-09-18,1,,,,,イッキコーポレーション,0
971,5030003025078,新規,0,2024-09-18,2024-09-18,Ｏｖｅｒｔａｋｅ合同会社,,合同会社,埼玉県,川口市,飯塚３丁目５番３７号フォーラム川口１０１,,11,203,3320023,,,,,,,2024-09-18,1,,,,,オーバーテイク,0
972,5030003025111,新規,0,2024-09-18,2024-09-18,合同会社ＩＴＡＬＯ,,合同会社,埼玉県,戸田市,喜沢１丁目１５－４８,,11,224,3350013,,,,,,,2024-09-18,1,,,,,イタロ,0
973,5030003025136,新規,0,2024-09-18,2024-09-18,合同会社ＥＳＯＲＡ,,合同会社,埼玉県,鶴ヶ島市,大字太田ヶ谷９６８番地１,,11,241,3502214,,,,,,,2024-09-18,1,,,,,エソラ,0
977,5040001135448,新規,0,2024-09-18,2024-09-18,株式会社美路倶,00136333,株式会社,千葉県,富里市,十倉２６１１－１９,,12,233,2860212,,,,,,,2024-09-18,1,,,,,ミロク,0
979,5040003025829,新規,0,2024-09-18,2024-09-18,楽々ガーデン合同会社,,合同会社,千葉県,千葉市緑区,高田町１０１８番地１３,,12,105,2660003,,,,,,,2024-09-18,1,,,,,ラクラクガーデン,0
984,5060003005250,新規,0,2024-09-18,2024-09-18,合同会社永夢,,合同会社,栃木県,宇都宮市,河原町７番５号フェニックス瑞雲２０１,,09,201,3200822,,,,,,,2024-09-18,1,,,,,エイム,0
990,5080401027448,新規,0,2024-09-18,2024-09-18,株式会社Ｏｎｅｎｅｓｓ,,株式会社,静岡県,浜松市中央区,幸３丁目１７－１４メッセ幸４０６,,22,138,4338123,,,,,,,2024-09-18,1,,,,,ワンネス,0
994,5100003007762,新規,0,2024-09-18,2024-09-18,山河産業合同会社,,合同会社,長野県,長野市,若里２丁目１２番１７－３０３号コーポスズキＢ,,20,201,3800928,,,,,,,2024-09-18,1,,,,,ヤマガワサンギョウ,0
1007,5120001268371,新規,0,2024-09-18,2024-09-18,ＯＳＡＫＡＢＹＴＥＳ株式会社,,株式会社,大阪府,大阪市都島区,都島本通３丁目２４番６－２０９号,,27,102,5340021,,,,,,,2024-09-18,1,,,,,オオサカバイツ,0
1008,5120001268545,新規,0,2024-09-18,2024-09-18,株式会社リンクパートナー,,株式会社,大阪府,大阪市中央区,西心斎橋２丁目１番１２号アートプラザ０１ビル２階,,27,128,5420086,,,,,,,2024-09-18,1,,,,,リンクパートナー,0
1009,5120001268611,新規,0,2024-09-18,2024-09-18,林外株式会社,,株式会社,大阪府,大阪市都島区,東野田町４丁目５番２－４０８号室,,27,102,5340024,,,,,,,2024-09-18,1,,,,,リンガイ,0
1010,5120001268628,新規,0,2024-09-18,2024-09-18,株式会社Ｌｉｐｏ,,株式会社,大阪府,大阪市都島区,内代町４丁目１－２７－２０１,,27,102,5340013,,,,,,,2024-09-18,1,,,,,リポ,0
1011,5120001268636,新規,0,2024-09-18,2024-09-18,ＹｉＹｉ株式会社,,株式会社,大阪府,大阪市西淀川区,姫島５丁目１１番２７号,,27,113,5550033,,,,,,,2024-09-18,1,,,,,イーイー,0
1012,5120001268652,新規,0,2024-09-18,2024-09-18,株式会社柴田,,株式会社,大阪府,大阪市平野区,瓜破５丁目４番２６号,,27,126,5470024,,,,,,,2024-09-18,1,,,,,シバタ,0
1015,5120003027478,新規,0,2024-09-18,2024-09-18,千森合同会社,,合同会社,大阪府,大阪市西成区,橘３丁目１７－１０－１０３室,,27,122,5570051,,,,,,,2024-09-18,1,,,,,チモリ,0
1016,5120003027544,新規,0,2024-09-18,2024-09-18,Ｐａｎ　Ｐａｃｉｆｉｃ　Ａｅｒｏ　Ｉｎｖｅｓｔｍｅｎｔｓ合同会社,,合同会社,大阪府,大阪市北区,梅田１丁目１－３大阪駅前第３ビル２９階１－１－１号室,,27,127,5300001,,,,,,,2024-09-18,1,,,,,パンパシフィックエアロインベストメンツ,0
1022,5120903005343,新規,0,2024-09-18,2024-09-18,合同会社Ｌｙｌａ,,合同会社,大阪府,高槻市,日吉台七番町２５番２０号,,27,207,5691022,,,,,,,2024-09-18,1,,,,,ライラ,0
1028,5130003009863,新規,0,2024-09-18,2024-09-18,合同会社剛華,,合同会社,京都府,京都市右京区,太秦樋ノ内町７番地の２６,,26,108,6168142,,,,,,,2024-09-18,1,,,,,ゴウカ,0
1029,5130005017179,新規,0,2024-09-18,2024-09-18,アンヴィル行政書士法人,,その他の設立登記法人,京都府,城陽市,富野北垣内９７番地,,26,207,6100111,,,,,,,2024-09-18,1,,,,,アンヴィル,0
1035,5140001135801,新規,0,2024-09-18,2024-09-18,株式会社令和地所,,株式会社,兵庫県,西宮市,今津曙町２番１８号,,28,204,6638214,,,,,,,2024-09-18,1,,,,,レイワジショ,0
1036,5150003003369,新規,0,2024-09-18,2024-09-18,合同会社Ｄ,,合同会社,奈良県,大和郡山市,矢田町６４２０－１７岡田テナント２号,,29,203,6391058,,,,,,,2024-09-18,1,,,,,ディー,0
1037,5160003003285,新規,0,2024-09-18,2024-09-18,合同会社ハートレイク,,合同会社,滋賀県,近江八幡市,宮内町１６９番地１３,,25,204,5230828,,,,,,,2024-09-18,1,,,,,,0
1042,5180001163039,新規,0,2024-09-18,2024-09-18,Ｌｉｎｋｓ　Ｉｎｎｏｖａｔｉｏｎ株式会社,,株式会社,愛知県,津島市,大字津島字北新開７５－１ソフィア北新開１０２,,23,208,4960027,,,,,,,2024-09-18,1,,,,,リンクスイノベーション,0
1043,5180001163278,新規,0,2024-09-18,2024-09-18,平岡設備株式会社,,株式会社,愛知県,豊明市,沓掛町山田１２番地２,,23,229,4701101,,,,,,,2024-09-18,1,,,,,ヒラオカセツビ,0
1044,5180001163286,新規,0,2024-09-18,2024-09-18,株式会社キッズべべ,,株式会社,愛知県,名古屋市南区,前浜通７丁目２５番地の２,,23,112,4570058,,,,,,,2024-09-18,1,,,,,キッズベベ,0
1045,5180001163294,新規,0,2024-09-18,2024-09-18,株式会社クリエックス,,株式会社,愛知県,一宮市,栄３丁目１番２号尾張一宮駅前ビル６階一宮市ビジネス支援センター内Ｇ室,,23,203,4910858,,,,,,,2024-09-18,1,,,,,クリエックス,0
1048,5180003027357,新規,0,2024-09-18,2024-09-18,合同会社あまね,,合同会社,愛知県,常滑市,大野町２丁目９０番地,,23,216,4790866,,,,,,,2024-09-18,1,,,,,アマネ,0
1049,5180003027373,新規,0,2024-09-18,2024-09-18,合同会社ハートフル,,合同会社,愛知県,名古屋市東区,泉１丁目３－２８アモンフォンテーヌ２０１,,23,102,4610001,,,,,,,2024-09-18,1,,,,,ハートフル,0
1052,5180005020772,新規,0,2024-09-18,2024-09-18,一般社団法人プレジャー・フォー・チルドレン,,その他の設立登記法人,愛知県,知多郡武豊町,字下山ノ田６４番地４６,,23,447,4702305,,,,,,,2024-09-18,1,,,,,プレジャーフォーチルドレン,0
1054,5180301039062,新規,0,2024-09-18,2024-09-18,株式会社サン・ファミリア,,株式会社,愛知県,豊橋市,平川町２１－１ロイヤル駒田１－Ｂ,,23,201,4400037,,,,,,,2024-09-18,1,,,,,サンファミリア,0
1076,5310001019210,新規,0,2024-09-18,2024-09-18,株式会社Ｍｅｄｉｃａｌ　Ｌｉｎｋ　Ｉｎｔｅｒｎａｔｉｏｎａｌ,,株式会社,長崎県,長崎市,恵美須町４番２号,,42,201,8500056,,,,,,,2024-09-18,1,,,,,メディカルリンクインターナショナル,0
1077,5320001020712,新規,0,2024-09-18,2024-09-18,株式会社Ｂｅ．Ｃｒｅｗ,,株式会社,大分県,大分市,国分新町９－２,,44,201,8700869,,,,,,,2024-09-18,1,,,,,ビークルー,0
1081,5340003004604,新規,0,2024-09-18,2024-09-18,合同会社かえるすたいる,,合同会社,鹿児島県,垂水市,高城９２８番地,,46,214,8912113,,,,,,,2024-09-18,1,,,,,カエルスタイル,0
1085,5360003014304,新規,0,2024-09-18,2024-09-18,合同会社Ａｍｐｈｉｂｉａｎｓ,,合同会社,沖縄県,那覇市,泊１丁目１６番地４コンフォート泊４０８,,47,201,9000012,,,,,,,2024-09-18,1,,,,,アンフィビアンズ,0
1086,5380001034797,新規,0,2024-09-18,2024-09-18,株式会社ＯＮＥ　ＦＬＡＴ,,株式会社,福島県,郡山市,緑町９－１２,,07,203,9638023,,,,,,,2024-09-18,1,,,,,ワンフラット,0
1087,5390001017743,新規,0,2024-09-18,2024-09-18,株式会社ＴＳ重量,,株式会社,山形県,山形市,飯塚町２１１０番地２０,,06,201,9900845,,,,,,,2024-09-18,1,,,,,ティーエスジュウリョウ,0
1091,5470001020383,新規,0,2024-09-18,2024-09-18,株式会社ＱＵＥＳＴ,,株式会社,香川県,高松市,天神前１０番５号,,37,201,7600018,,,,,,,2024-09-18,1,,,,,クエスト,0
1099,6010001248375,新規,0,2024-09-18,2024-09-18,株式会社エスディグループ,,株式会社,東京都,千代田区,麹町３丁目４番地,,13,101,1020083,,,,,,,2024-09-18,1,,,,,エスディグループ,0
1100,6010001248400,新規,0,2024-09-18,2024-09-18,ＢＯＸＳ　Ｊａｐａｎ株式会社,,株式会社,東京都,千代田区,霞が関３丁目２番６号東京倶楽部ビルディング１１階,,13,101,1000013,,,,,,,2024-09-18,1,,,,,ボックスジャパン,0
1101,6010003044640,新規,0,2024-09-18,2024-09-18,合同会社ジェベル,,合同会社,東京都,中央区,日本橋室町１丁目１１番１２号日本橋水野ビル７階,,13,102,1030022,,,,,,,2024-09-18,1,,,,,ジェベル,0
1102,6010003044905,新規,0,2024-09-18,2024-09-18,ＦｏｃｕｓＬａｂ合同会社,,合同会社,東京都,文京区,本郷３丁目４３－３パークハウス本郷三丁目２０２号室,,13,105,1130033,,,,,,,2024-09-18,1,,,,,フォーカスラボ,0
1109,6010401185177,新規,0,2024-09-18,2024-09-18,株式会社Ｒｕｃｏｌａ,,株式会社,東京都,港区,南青山３丁目１番３６号青山丸竹ビル６Ｆ,,13,103,1070062,,,,,,,2024-09-18,1,,,,,ルコラ,0
1110,6010403033409,新規,0,2024-09-18,2024-09-18,ボーダーレス合同会社,,合同会社,東京都,港区,南青山３丁目１番３６号青山丸竹ビル６Ｆ,,13,103,1070062,,,,,,,2024-09-18,1,,,,,,0
1115,6010601065930,新規,0,2024-09-18,2024-09-18,スマートエナジー株式会社,,株式会社,東京都,江東区,大島７丁目２番５号,,13,108,1360072,,,,,,,2024-09-18,1,,,,,スマートエナジー,0
1127,6011001164678,新規,0,2024-09-18,2024-09-18,株式会社Ｉｎｔｅｒｎａｔｉｏｎａｌ　Ｓａｋｅ　Ｃｏｍｐａｎｙ,,株式会社,東京都,渋谷区,神宮前２丁目３３－１８－２０５,,13,113,1500001,,,,,,,2024-09-18,1,,,,,インターナショナルサケカンパニー,0
1128,6011001164703,新規,0,2024-09-18,2024-09-18,ｉｋｉｇＡＩ株式会社,,株式会社,東京都,渋谷区,神泉町１０番１５号アネックス神泉３０１,,13,113,1500045,,,,,,,2024-09-18,1,,,,,イキガイ,0
1129,6011001164711,新規,0,2024-09-18,2024-09-18,株式会社ＵＥＲＩＴＡＳ,,株式会社,東京都,目黒区,目黒１丁目２３番１４号,,13,110,1530063,,,,,,,2024-09-18,1,,,,,ウェリタス,0
1132,6011003020012,新規,0,2024-09-18,2024-09-18,合同会社戎,,合同会社,東京都,渋谷区,恵比寿西２丁目８番４号ＥＸ恵比寿西ビル５階,,13,113,1500021,,,,,,,2024-09-18,1,,,,,エビス,0
1143,6011603004455,新規,0,2024-09-18,2024-09-18,合同会社ＡＩサロンスタジオ,,合同会社,東京都,練馬区,旭町３丁目２２番１９号,,13,120,1790071,,,,,,,2024-09-18,1,,,,,エーアイサロンスタジオ,0
1153,6012403006749,新規,0,2024-09-18,2024-09-18,合同会社ＴＨＲＥＥ　ＧＬＯＢＡＬ,,合同会社,東京都,多摩市,百草１１２６番地の１４,,13,224,2060004,,,,,,,2024-09-18,1,,,,,スリーグローバル,0
1155,6013101009515,新規,0,2024-09-18,2024-09-18,株式会社ＲＥＭＪ,,株式会社,東京都,青梅市,勝沼２丁目３１９番地,,13,205,1980041,,,,,,,2024-09-18,1,,,,,,0
1156,6013301053107,新規,0,2024-09-18,2024-09-18,株式会社シュパース,,株式会社,東京都,豊島区,千川１丁目１０番１１号,,13,116,1710041,,,,,,,2024-09-18,1,,,,,,0
1157,6013303007309,新規,0,2024-09-18,2024-09-18,合同会社新高,,合同会社,東京都,豊島区,南大塚２丁目４１番４号南大塚ビル３階,,13,116,1700005,,,,,,,2024-09-18,1,,,,,シンタカ,0
1160,6020001159019,新規,0,2024-09-18,2024-09-18,ＳＨＩＢＡ株式会社,,株式会社,神奈川県,横浜市港北区,菊名７丁目９２７番２,,14,109,2220011,,,,,,,2024-09-18,1,,,,,シバ,0
1161,6020001159274,新規,0,2024-09-18,2024-09-18,株式会社楠比,,株式会社,神奈川県,川崎市中原区,井田中ノ町８番８－２０６号,,14,133,2110034,,,,,,,2024-09-18,1,,,,,ナンピ,0
1173,6021001083258,新規,0,2024-09-18,2024-09-18,株式会社ユーアーホーム,,株式会社,神奈川県,相模原市中央区,上溝１９４２番地１８,,14,152,2520243,,,,,,,2024-09-18,1,,,,,ユーアーホーム,0
1188,6030003025052,新規,0,2024-09-18,2024-09-18,合同会社田代工業ホームメンテナンス,,合同会社,埼玉県,さいたま市中央区,上峰１丁目２２番６－２号,,11,105,3380014,,,,,,,2024-09-18,1,,,,,タシロコウギョウホームメンテナンス,0
1194,6040003025803,新規,0,2024-09-18,2024-09-18,合同会社ＨＳ,,合同会社,千葉県,市川市,妙典３丁目１５番２号カリンヴェイル１０９号,,12,203,2720111,,,,,,,2024-09-18,1,,,,,エイチエス,0
1206,6080101025008,新規,0,2024-09-18,2024-09-18,株式会社ＺＥＲＯ‐ＯＮＥ・０１,,株式会社,静岡県,駿東郡長泉町,下長窪３番地の１５,,22,342,4110934,,,,,,,2024-09-18,1,,,,,ゼロワン,0
1208,6080403005087,新規,0,2024-09-18,2024-09-18,ション神楽合同会社,,合同会社,静岡県,浜松市浜名区,中条５９３番地の１アイリスＥ２０２,,22,139,4340043,,,,,,,2024-09-18,1,,,,,ションカグラ,0
1209,6090001018886,新規,0,2024-09-18,2024-09-18,株式会社富士北麓フーズ,,株式会社,山梨県,南都留郡富士河口湖町,船津２１８０番地２,,19,430,4010301,,,,,,,2024-09-18,1,,,,,フジホクロクフーズ,0
1214,6110001038709,新規,0,2024-09-18,2024-09-18,株式会社ＯＮＥ　ＴＨＩＲＤ,,株式会社,新潟県,新潟市中央区,日の出１丁目１０－１８,,15,103,9500073,,,,,,,2024-09-18,1,,,,,ワンサード,0
1221,6120001268494,新規,0,2024-09-18,2024-09-18,Ｆｅｌｉｇｉｏ　Ｊａｐａｎ株式会社,,株式会社,大阪府,大阪市北区,長柄中３丁目２番９号,,27,127,5310062,,,,,,,2024-09-18,1,,,,,フェリジオジャパン,0
1222,6120001268593,新規,0,2024-09-18,2024-09-18,株式会社ｎｏａ,,株式会社,大阪府,大阪市生野区,田島２丁目６番３号,,27,116,5440011,,,,,,,2024-09-18,1,,,,,ノア,0
1223,6120001268619,新規,0,2024-09-18,2024-09-18,浪漫起点株式会社,,株式会社,大阪府,大阪市中央区,博労町１丁目６番１３－３０５号,,27,128,5410059,,,,,,,2024-09-18,1,,,,,ロウマンキテン,0
1224,6120003027551,新規,0,2024-09-18,2024-09-18,川美合同会社,,合同会社,大阪府,大阪市生野区,新今里３丁目５番１８号ＳＥＩＫＡビル５０３号室,,27,116,5440001,,,,,,,2024-09-18,1,,,,,センビ,0
1235,6120901049779,新規,0,2024-09-18,2024-09-18,株式会社梅ＤＥＮ,,株式会社,大阪府,茨木市,宇野辺１丁目２番６０６号,,27,211,5670042,,,,,,,2024-09-18,1,,,,,ウメデン,0
1239,6130001077944,新規,0,2024-09-18,2024-09-18,Ｖｉｔａｌ　Ｇｒｏｗｔｈ株式会社,,株式会社,京都府,京都市左京区,高野蓼原町１４番地１,,26,103,6068101,,,,,,,2024-09-18,1,,,,,バイタルグロース,0
1240,6130001077952,新規,0,2024-09-18,2024-09-18,株式会社Ｆａｃｉｌｉｃ,,株式会社,京都府,京都市南区,吉祥院前田町２２番地１１,,26,107,6018341,,,,,,,2024-09-18,1,,,,,ファシリック,0
1243,6130003009870,新規,0,2024-09-18,2024-09-18,合同会社クレドリンク,,合同会社,京都府,京都市西京区,大原野上里南ノ町５４１番地６,,26,111,6101123,,,,,,,2024-09-18,1,,,,,クレドリンク,0
1244,6130005017178,新規,0,2024-09-18,2024-09-18,一般財団法人鷹司誓玉財団,,その他の設立登記法人,京都府,京都市山科区,安朱東海道町２番地,,26,110,6078008,,,,,,,2024-09-18,1,,,,,タカツカサセイギョクザイダン,0
1252,6140001135833,新規,0,2024-09-18,2024-09-18,佑友住宅株式会社,,株式会社,兵庫県,神戸市西区,伊川谷町有瀬８０４－９３,,28,111,6512113,,,,,,,2024-09-18,1,,,,,ユウユウジュウタク,0
1254,6150001027567,新規,0,2024-09-18,2024-09-18,ｊ‐ＳＴＥＰ　ＴＲＡＤＩＮＧ株式会社,,株式会社,奈良県,橿原市,醍醐町１０４番地の１,,29,205,6340072,,,,,,,2024-09-18,1,,,,,ジェイステップトレーディング,0
1256,6170003002104,新規,0,2024-09-18,2024-09-18,きみの青果合同会社,,合同会社,和歌山県,海草郡紀美野町,福田３０番地８,,30,304,6401244,,,,,,,2024-09-18,1,,,,,キミノセイカ,0
1258,6180001163277,新規,0,2024-09-18,2024-09-18,ＭＥＬＬＯＷ株式会社,,株式会社,愛知県,名古屋市中区,丸の内２丁目１７－１３ＮＫ丸の内ビル５１１,,23,106,4600002,,,,,,,2024-09-18,1,,,,,メロウ,0
1259,6180001163285,新規,0,2024-09-18,2024-09-18,株式会社ＭＳＹ,,株式会社,愛知県,日進市,五色園４丁目５０５番地,,23,230,4700105,,,,,,,2024-09-18,1,,,,,エムエスワイ,0
1260,6180001163302,新規,0,2024-09-18,2024-09-18,株式会社ＴＭＴ,,株式会社,愛知県,名古屋市中村区,名駅３丁目４－１０アルティメイト名駅１ｓｔ２階,,23,105,4500002,,,,,,,2024-09-18,1,,,,,ティーエムティー,0
1268,6200003006506,新規,0,2024-09-18,2024-09-18,岐阜カーコンシェルジュ合同会社,,合同会社,岐阜県,岐阜市,日野南７丁目１４番１１号,,21,201,5008212,,,,,,,2024-09-18,1,,,,,ギフカーコンシェルジュ,0
1271,6230001020530,新規,0,2024-09-18,2024-09-18,株式会社中部コンサルタント,,株式会社,富山県,高岡市,清水町３丁目５番４５号,,16,202,9330866,,,,,,,2024-09-18,1,,,,,チュウブコンサルタント,0
1277,6240001063826,新規,0,2024-09-18,2024-09-18,株式会社ビバライフ,,株式会社,広島県,尾道市,平原３丁目１番１５号,,34,205,7220018,,,,,,,2024-09-18,1,,,,,ビバライフ,0
1289,6290001107272,新規,0,2024-09-18,2024-09-18,株式会社ＫＥＬＵＫＥ,,株式会社,福岡県,福岡市中央区,白金１丁目１７番１８号井上コーポ４０２号室,,40,133,8100012,,,,,,,2024-09-18,1,,,,,ケルケ,0
1325,6460305002020,新規,0,2024-09-18,2024-09-18,特定非営利活動法人ぐっど,,その他の設立登記法人,北海道,常呂郡訓子府町,字日出２４３番地２,,01,549,0991401,,,,,,,2024-09-18,1,,,,,グッド,0
1332,6700150126948,新規,0,2024-09-18,2024-09-03,第二児童クラブなかよし,,その他,大分県,宇佐市,大字江須賀２４３９－３－１,,44,211,8720032,,,,,,,2024-09-03,1,,,,,ダイニジドウクラブナカヨシ,0
1344,7010001248341,新規,0,2024-09-18,2024-09-18,マーブルテクノロジー株式会社,,株式会社,東京都,中央区,日本橋室町１丁目１１番１２号日本橋水野ビル７階,,13,102,1030022,,,,,,,2024-09-18,1,,,,,マーブルテクノロジー,0
1345,7010003044920,新規,0,2024-09-18,2024-09-18,合同会社フラウパートナー,,合同会社,東京都,中央区,晴海２丁目３番２号４５１３,,13,102,1040053,,,,,,,2024-09-18,1,,,,,フラウパートナー,0
1348,7010401185218,新規,0,2024-09-18,2024-09-18,株式会社Ｆｌａｇｌｉｎｅ,,株式会社,東京都,港区,東新橋２丁目７－３昭和アステック１号館,,13,103,1050021,,,,,,,2024-09-18,1,,,,,フラグライン,0
1350,7010403033424,新規,0,2024-09-18,2024-09-18,合同会社大学不動産,,合同会社,東京都,港区,南青山３丁目１番３６号青山丸竹ビル６Ｆ,,13,103,1070062,,,,,,,2024-09-18,1,,,,,ダイガクフドウサン,0
1352,7010501052929,新規,0,2024-09-18,2024-09-18,ＡＳＴＥＲ株式会社,,株式会社,東京都,台東区,寿１丁目２１番１１号プレール・ドゥーク浅草ＩＩＩ１１０１,00136328,13,106,1110042,,,,,,,2024-09-18,1,,,,,アステル,0
1355,7010701046557,新規,0,2024-09-18,2024-09-18,株式会社ｌｉｆｅ　ｂｒｉｄｇｅ,,株式会社,東京都,品川区,東五反田５丁目２２－３３,,13,109,1410022,,,,,,,2024-09-18,1,,,,,ライフブリッジ,0
1356,7010703007350,新規,0,2024-09-18,2024-09-18,ＥＬ　ＳＰＯＲＴＳ　Ｘ　ＶＥＮＴＵＲＥＳ合同会社,,合同会社,東京都,品川区,西五反田８丁目１０－１４イトーピア五反田２０９,,13,109,1410031,,,,,,,2024-09-18,1,,,,,エルスポーツエックスベンチャーズ,0
1357,7010801035402,新規,0,2024-09-18,2024-09-18,回潭株式会社,,株式会社,東京都,大田区,東海３丁目７番３号東海ビル,,13,111,1430001,,,,,,,2024-09-18,1,,,,,カイタン,0
1365,7011101108807,新規,0,2024-09-18,2024-09-18,キャリコ株式会社,,株式会社,東京都,新宿区,西新宿３丁目３番１３号西新宿水間ビル２Ｆ,,13,104,1600023,,,,,,,2024-09-18,1,,,,,キャリコ,0
1367,7011201025786,新規,0,2024-09-18,2024-09-18,ＦｏｕｒＣａｒｄ株式会社,,株式会社,東京都,中野区,沼袋３丁目８－７サンライズ中野２０３,,13,114,1650025,,,,,,,2024-09-18,1,,,,,フォーカード,0
1369,7011501031154,新規,0,2024-09-18,2024-09-18,株式会社アイホ・エム,,株式会社,東京都,北区,中十条３丁目１７番５号,,13,117,1140032,,,,,,,2024-09-18,1,,,,,アイホエム,0
1376,7013105001855,新規,0,2024-09-18,2024-09-18,弁理士法人ＫＸ特許事務所,,その他の設立登記法人,東京都,あきる野市,引田６２６,,13,228,1970834,,,,,,,2024-09-18,1,,,,,,0
1379,7013301053114,新規,0,2024-09-18,2024-09-18,株式会社つばめイノベーション,,株式会社,東京都,豊島区,東池袋３丁目１３番１２号,,13,116,1700013,,,,,,,2024-09-18,1,,,,,,0
1385,7020001159174,新規,0,2024-09-18,2024-09-18,株式会社ライトピア,,株式会社,神奈川県,川崎市宮前区,鷺沼４丁目１５番地１０ローレルコート鷺沼４１０,,14,136,2160004,,,,,,,2024-09-18,1,,,,,ライトピア,0
1403,7030001162490,新規,0,2024-09-18,2024-09-18,株式会社信諾貿易,,株式会社,埼玉県,新座市,本多１丁目１０番２０号,,11,230,3520022,,,,,,,2024-09-18,1,,,,,シンダクボウエキ,0
1404,7030001162499,新規,0,2024-09-18,2024-09-18,株式会社ＳＹＳ,,株式会社,埼玉県,深谷市,高畑１７３番地,,11,218,3660832,,,,,,,2024-09-18,1,,,,,エスワイエス,0
1415,7040003025810,新規,0,2024-09-18,2024-09-18,ＴＮＴ合同会社,,合同会社,千葉県,千葉市中央区,神明町１番地２０コーポ勝田３０２号,,12,101,2600022,,,,,,,2024-09-18,1,,,,,テイーエヌテイー,0
1416,7050001055370,新規,0,2024-09-18,2024-09-18,ＲＫ商事株式会社,,株式会社,茨城県,稲敷郡美浦村,大字土屋３１２６番地６２０,,08,442,3000426,,,,,,,2024-09-18,1,,,,,アルケイショウジ,0
1417,7050001055387,新規,0,2024-09-18,2024-09-18,株式会社Ｒｅｍａｋｅ,,株式会社,茨城県,つくばみらい市,狸穴１０６８番地５０,,08,235,3002302,,,,,,,2024-09-18,1,,,,,リメイク,0
1426,7080001026492,新規,0,2024-09-18,2024-09-18,株式会社とんき,,株式会社,静岡県,静岡市駿河区,森下町１番３６号,,22,102,4228061,,,,,,,2024-09-18,1,,,,,トンキ,0
1450,7120001268618,新規,0,2024-09-18,2024-09-18,株式会社Ｂｉｇ　Ｓｍｉｌｅ,,株式会社,大阪府,大阪市生野区,田島２丁目２番２６号,,27,116,5440011,,,,,,,2024-09-18,1,,,,,ビッグスマイル,0
1451,7120001268626,新規,0,2024-09-18,2024-09-18,株式会社ミレニアム,,株式会社,大阪府,大阪市都島区,片町２丁目１１番２４号,,27,102,5340025,,,,,,,2024-09-18,1,,,,,ミレニアム,0
1452,7120001268675,新規,0,2024-09-18,2024-09-18,株式会社オールージュ,,株式会社,大阪府,大阪市北区,天神橋１丁目１２番１５号,,27,127,5300041,,,,,,,2024-09-18,1,,,,,オールージュ,0
1453,7120001268683,新規,0,2024-09-18,2024-09-18,株式会社エフケイティ,,株式会社,大阪府,大阪市西淀川区,大野３丁目１番４号３Ｆ,,27,113,5550043,,,,,,,2024-09-18,1,,,,,エフケイティ,0
1457,7120003027492,新規,0,2024-09-18,2024-09-18,ＴＲＡＮＧ　ＮＧＵＹＥＮ合同会社,,合同会社,大阪府,大阪市東淀川区,上新庄３丁目１０－２５,,27,114,5330006,,,,,,,2024-09-18,1,,,,,チャングエン,0
1458,7120003027542,新規,0,2024-09-18,2024-09-18,関西電力サイラスワンＯＳＫ１リース合同会社,,合同会社,大阪府,大阪市北区,中之島３丁目６番１６号,,27,127,5300005,,,,,,,2024-09-18,1,,,,,カンサイデンリョクサイラスワンオーエスケーワンリース,0
1459,7120003027559,新規,0,2024-09-18,2024-09-18,合同会社Ｓ．Ｎ,,合同会社,大阪府,大阪市北区,大淀中５丁目３番１８号,,27,127,5310076,,,,,,,2024-09-18,1,,,,,エスエヌ,0
1460,7120003027567,新規,0,2024-09-18,2024-09-18,合同会社アニマ・マキナ,,合同会社,大阪府,大阪市北区,梅田１丁目１－３大阪駅前第３ビル２９階１－１－１号室,,27,127,5300001,,,,,,,2024-09-18,1,,,,,アニママキナ,0
1465,7120901049778,新規,0,2024-09-18,2024-09-18,デンカイワークス株式会社,,株式会社,大阪府,豊中市,穂積２丁目１５番１１号,,27,203,5610856,,,,,,,2024-09-18,1,,,,,デンカイワークス,0
1466,7122003002995,新規,0,2024-09-18,2024-09-18,ＨＡＳＥＧＡＷＡ国際人材合同会社,,合同会社,大阪府,八尾市,安中町８丁目５番４号,,27,212,5810085,,,,,,,2024-09-18,1,,,,,ハセガワコクサイジンザイ,0
1473,7140001135808,新規,0,2024-09-18,2024-09-18,昊啓株式会社,,株式会社,兵庫県,神戸市中央区,雲井通３丁目３番１号,,28,110,6510096,,,,,,,2024-09-18,1,,,,,コウケイ,0
1474,7140001135816,新規,0,2024-09-18,2024-09-18,株式会社コールエーアイ,,株式会社,兵庫県,西宮市,鳴尾町２丁目５－８－１０３,,28,204,6638184,,,,,,,2024-09-18,1,,,,,コールエーアイ,0
1492,7180001163251,新規,0,2024-09-18,2024-09-18,株式会社有光,,株式会社,愛知県,名古屋市名東区,社台２丁目１７７番地の１,,23,115,4650092,,,,,,,2024-09-18,1,,,,,ユウコウ,0
1493,7180001163276,新規,0,2024-09-18,2024-09-18,サンライズパシフィックジャパン株式会社,,株式会社,愛知県,春日井市,大留町５丁目１５番地１１,,23,206,4870024,,,,,,,2024-09-18,1,,,,,サンライズパシフィックジャパン,0
1494,7180001163292,新規,0,2024-09-18,2024-09-18,株式会社らんまる,,株式会社,愛知県,江南市,東野町神上１２９番地パークシティ江南４番街１２０８号,,23,217,4838422,,,,,,,2024-09-18,1,,,,,ランマル,0
1495,7180001163301,新規,0,2024-09-18,2024-09-18,株式会社Ｒｅｙｓｏｌ,,株式会社,愛知県,名古屋市中村区,名駅５丁目２番１７号フロンティア名駅８階,,23,105,4500002,,,,,,,2024-09-18,1,,,,,レイソル,0
1506,7220001026206,新規,0,2024-09-18,2024-09-18,日本製炭株式会社,,株式会社,石川県,鳳珠郡能登町,字宇出津タ字２１番地４,,17,463,9270433,,,,,,,2024-09-18,1,,,,,ニホンセイタン,0
1515,7260001039468,新規,0,2024-09-18,2024-09-18,株式会社ＣＣＰ‐３,,株式会社,岡山県,岡山市北区,丸の内１丁目１５番２０号ちゅうぎん本店ビル９階,,33,101,7000823,,,,,,,2024-09-18,1,,,,,シーシーピースリー,0
1524,7290001107296,新規,0,2024-09-18,2024-09-18,株式会社ベルオロール,,株式会社,福岡県,福岡市南区,大池１丁目１８番１２号,,40,134,8150073,,,,,,,2024-09-18,1,,,,,ベルオロール,0
1525,7290001107321,新規,0,2024-09-18,2024-09-18,株式会社Ｎ２コミュニケーションズ,,株式会社,福岡県,福岡市博多区,比恵町４－１７日高ビル２－Ｃ,,40,132,8120014,,,,,,,2024-09-18,1,,,,,エヌツーコミュニケーションズ,0
1526,7290003015786,新規,0,2024-09-18,2024-09-18,合同会社ハートランド,,合同会社,福岡県,福岡市中央区,天神４丁目６番３８号天神ファーストビル７Ｆ,,40,133,8100001,,,,,,,2024-09-18,1,,,,,ハートランド,0
1531,7290805009770,新規,0,2024-09-18,2024-09-18,一般社団法人山とめぐり,,その他の設立登記法人,福岡県,田川郡添田町,大字落合１１９９番地,,40,602,8240722,,,,,,,2024-09-18,1,,,,,ヤマトメグリ,0
1540,7350001019188,新規,0,2024-09-18,2024-09-18,株式会社７,,株式会社,宮崎県,宮崎市,橘通東１丁目４－１６リヴィエールトピカピュア８０１,,45,201,8800805,,,,,,,2024-09-18,1,,,,,セブン,0
1543,7360003014302,新規,0,2024-09-18,2024-09-18,石垣川平グループ合同会社,,合同会社,沖縄県,石垣市,字川平６８０番地８,,47,207,9070453,,,,,,,2024-09-18,1,,,,,イシガキカビラグループ,0
1545,7360005007097,新規,0,2024-09-18,2024-09-18,一般社団法人清天会,,その他の設立登記法人,沖縄県,那覇市,首里石嶺町３丁目２９４番１,,47,201,9030804,,,,,,,2024-09-18,1,,,,,セイテンカイ,0
1546,7370001051726,新規,0,2024-09-18,2024-09-18,株式会社ティー・アート・クルー,,株式会社,宮城県,仙台市青葉区,二日町２番１号,,04,101,9800802,,,,,,,2024-09-18,1,,,,,ティーアートクルー,0
1549,7370003006752,新規,0,2024-09-18,2024-09-18,合同会社ＴＫＧ,,合同会社,宮城県,仙台市宮城野区,蒲生字南城道田１－２３,,04,102,9830002,,,,,,,2024-09-18,1,,,,,ティーケージー,0
1551,7390001017741,新規,0,2024-09-18,2024-09-18,株式会社Ｐ‐ＳＹＳ,,株式会社,山形県,鶴岡市,淀川町１１番３４号,,06,203,9970838,,,,,,,2024-09-18,1,,,,,ピーシス,0
1554,7400003003325,新規,0,2024-09-18,2024-09-18,合同会社経済力向上委員会,,合同会社,岩手県,盛岡市,東安庭字舘１２番地,,03,201,0200824,,,,,,,2024-09-18,1,,,,,ケイザイリョクコウジョウイインカイ,0
1570,7490001010868,新規,0,2024-09-18,2024-09-18,株式会社ＢｉｌｌＺ,,株式会社,高知県,高知市,寿町７－１０,,39,201,7800043,,,,,,,2024-09-18,1,,,,,ビルズ,0
1581,8010001248340,新規,0,2024-09-18,2024-09-18,ＨＩＬＯ株式会社,,株式会社,東京都,千代田区,神田神保町１丁目１３番地１,,13,101,1010051,,,,,,,2024-09-18,1,,,,,ヒロ,0
1583,8010003044795,新規,0,2024-09-18,2024-09-18,合同会社白群,,合同会社,東京都,中央区,日本橋室町１丁目１１番１２号日本橋水野ビル７階,,13,102,1030022,,,,,,,2024-09-18,1,,,,,ビャクグン,0
1587,8010005038829,新規,0,2024-09-18,2024-09-18,社会保険労務士法人プロティオス,,その他の設立登記法人,東京都,中央区,銀座１丁目２２番１１号銀座大竹ビジデンス２Ｆ,,13,102,1040061,,,,,,,2024-09-18,1,,,,,プロティオス,0
1596,8010401185191,新規,0,2024-09-18,2024-09-18,株式会社ＭＧＳ,,株式会社,東京都,港区,浜松町２丁目７番１７号,,13,103,1050013,,,,,,,2024-09-18,1,,,,,エムジーエス,0
1597,8010401185200,新規,0,2024-09-18,2024-09-18,株式会社Ｃｏ‐ＭＥ,,株式会社,東京都,港区,芝浦４丁目１５番１号,,13,103,1080023,,,,,,,2024-09-18,1,,,,,コーミー,0
1599,8010603011105,新規,0,2024-09-18,2024-09-18,合同会社山梨,,合同会社,東京都,墨田区,本所１丁目７番１－８０８号,,13,107,1300004,,,,,,,2024-09-18,1,,,,,ヤマナシ,0
1601,8010701046548,新規,0,2024-09-18,2024-09-18,株式会社のれん,,株式会社,東京都,品川区,東品川５丁目９番６－２００２号,,13,109,1400002,,,,,,,2024-09-18,1,,,,,ノレン,0
1605,8010903009360,新規,0,2024-09-18,2024-09-18,アポロアドバイザリー合同会社,,合同会社,東京都,世田谷区,代田３丁目７番２６－１０５号,,13,112,1550033,,,,,,,2024-09-18,1,,,,,アポロアドバイザリー,0
1609,8011001164668,新規,0,2024-09-18,2024-09-18,株式会社ＡＩ　Ｓｏｌｕｔｉｏｎｓ　Ｌａｂ,,株式会社,東京都,渋谷区,渋谷２丁目１９－１５宮益坂ビルディング６０９,,13,113,1500002,,,,,,,2024-09-18,1,,,,,エーアイソリューションズラボ,0
1610,8011001164684,新規,0,2024-09-18,2024-09-18,株式会社ｈｏｆ,,株式会社,東京都,渋谷区,渋谷２丁目１９－１５宮益坂ビルディング６０９,,13,113,1500002,,,,,,,2024-09-18,1,,,,,ホーフ,0
1611,8011001164718,新規,0,2024-09-18,2024-09-18,株式会社日本エナジー,,株式会社,東京都,渋谷区,道玄坂１丁目２１番１号ビジネスエアポート渋谷南平台３階,,13,113,1500043,,,,,,,2024-09-18,1,,,,,ニホンエナジー,0
1612,8011001164726,新規,0,2024-09-18,2024-09-18,株式会社フィリーズプロ,,株式会社,東京都,渋谷区,神宮前６丁目２３番４号桑野ビル２階,,13,113,1500001,,,,,,,2024-09-18,1,,,,,フィリーズプロ,0
1615,8011003020027,新規,0,2024-09-18,2024-09-18,Ｔｅｃｈ　Ｋｎｉｇｈｔ合同会社,,合同会社,東京都,渋谷区,神宮前６丁目２３番４号桑野ビル２階,,13,113,1500001,,,,,,,2024-09-18,1,,,,,テックナイト,0
1620,8011101108789,新規,0,2024-09-18,2024-09-18,株式会社ｒｏｎｄｏ,,株式会社,東京都,新宿区,西早稲田１丁目２２番３号,,13,104,1690051,,,,,,,2024-09-18,1,,,,,ロンド,0
1621,8011101108814,新規,0,2024-09-18,2024-09-18,株式会社ＢＡＮＪＡＫＵ,,株式会社,東京都,新宿区,新宿２丁目１５番２号,,13,104,1600022,,,,,,,2024-09-18,1,,,,,バンジャク,0
1623,8011103014952,新規,0,2024-09-18,2024-09-18,合同会社オフトレイラーズ,,合同会社,東京都,新宿区,西新宿３丁目３番１３号西新宿水間ビル２Ｆ,,13,104,1600023,,,,,,,2024-09-18,1,,,,,オフトレイラーズ,0
1637,8012805003292,新規,0,2024-09-18,2024-09-18,労働者協同組合ワーカーズ・コレクティブぶるぅべりぃ,,その他の設立登記法人,東京都,国分寺市,泉町３丁目３３番２号,,13,214,1850024,,,,,,,2024-09-18,1,,,,,ワーカーズコレクティブブルゥベリィ,0
1638,8013101009513,新規,0,2024-09-18,2024-09-18,株式会社ポリフォニアコンサルティング,,株式会社,東京都,あきる野市,草花３６７０―２８５,,13,228,1970802,,,,,,,2024-09-18,1,,,,,ポリフォニアコンサルティング,0
1640,8013301053113,新規,0,2024-09-18,2024-09-18,ＦｕｎＧｌｏｗ株式会社,,株式会社,東京都,豊島区,池袋１丁目１８番１号池袋三品ビル７階,,13,116,1700014,,,,,,,2024-09-18,1,,,,,ファングロー,0
1642,8020001159140,新規,0,2024-09-18,2024-09-18,株式会社Ｙ．Ｋ．Ｍ,,株式会社,神奈川県,横浜市中区,長者町５丁目７１番地２ＫｙＭａｘビル５０３号室,,14,104,2310033,,,,,,,2024-09-18,1,,,,,ワイケイエム,0
1643,8020001159149,新規,0,2024-09-18,2024-09-18,株式会社フェローボンド,,株式会社,神奈川県,横浜市港北区,新横浜３丁目１６番１５号新横浜磯栄ビル９階Ａ号室,,14,109,2220033,,,,,,,2024-09-18,1,,,,,フェローボンド,0
1644,8020001159248,新規,0,2024-09-18,2024-09-18,株式会社阿部商店,,株式会社,神奈川県,横浜市青葉区,奈良町１０９１番地,,14,117,2270036,,,,,,,2024-09-18,1,,,,,アベショウテン,0
1662,8030001162168,新規,0,2024-09-18,2024-09-18,紅海株式会社,,株式会社,埼玉県,川口市,西川口５丁目１５－１９グランディール西川口６０２号室,,11,203,3320021,,,,,,,2024-09-18,1,,,,,コウカイ,0
1663,8030001162498,新規,0,2024-09-18,2024-09-18,株式会社ナナシワーカーズ,,株式会社,埼玉県,吉川市,上笹塚３丁目２０５番地,,11,243,3420017,,,,,,,2024-09-18,1,,,,,ナナシワーカーズ,0
1664,8030001162507,新規,0,2024-09-18,2024-09-18,ティーエスロック株式会社,,株式会社,埼玉県,羽生市,南６丁目１６番地９号ＥＩＴＡ－ＫＯＴＡビル２階,,11,216,3480053,,,,,,,2024-09-18,1,,,,,ティーエスロック,0
1665,8030001162523,新規,0,2024-09-18,2024-09-18,ＣＡＫＩＲ株式会社,,株式会社,埼玉県,川口市,安行出羽１丁目４番４号エクセル２０１号,,11,203,3340052,,,,,,,2024-09-18,1,,,,,チャクラー,0
1672,8040001135313,新規,0,2024-09-18,2024-09-18,株式会社Ｃｕｒｖｉｎｇ　Ｇｈｕｍ　Ｔｒａｄｉｎｇ,,株式会社,千葉県,柏市,戸張１２９５番地７,,12,217,2770008,,,,,,,2024-09-18,1,,,,,カービングガムトレーディング,0
1673,8040001135445,新規,0,2024-09-18,2024-09-18,株式会社ＡＳＫ,,株式会社,千葉県,茂原市,六ツ野３７９３番地１５,,12,210,2970012,,,,,,,2024-09-18,1,,,,,アスク,0
1679,8060005010246,新規,0,2024-09-18,2024-09-18,ＮＰＯ法人そらいろのたね,,その他の設立登記法人,栃木県,栃木市,大平町新４１３番地,,09,203,3294425,,,,,,,2024-09-18,1,,,,,ソライロノタネ,0
1683,8080001026491,新規,0,2024-09-18,2024-09-18,株式会社エノモト,,株式会社,静岡県,静岡市葵区,福田ケ谷１５番地の６,,22,101,4212109,,,,,,,2024-09-18,1,,,,,エノモト,0
1688,8080401027445,新規,0,2024-09-18,2024-09-18,株式会社ピタゴラ,,株式会社,静岡県,浜松市浜名区,染地台３丁目３３番１５号,,22,139,4340046,,,,,,,2024-09-18,1,,,,,ピタゴラ,0
1689,8080405007666,新規,0,2024-09-18,2024-09-18,農事組合法人岡ファーム,,その他の設立登記法人,静岡県,浜松市中央区,泉２丁目１３番１４号シャイニーハイツＩＩ１０２,00136332,22,138,4338124,,,,,,,2024-09-18,1,,,,,オカファーム,0
1699,8120001268625,新規,0,2024-09-18,2024-09-18,株式会社００７,,株式会社,大阪府,門真市,常盤町５番２３号,,27,223,5710078,,,,,,,2024-09-18,1,,,,,ゼロゼロセブン,0
1709,8130001077950,新規,0,2024-09-18,2024-09-18,株式会社丸十ホールディングス,,株式会社,京都府,京都市下京区,油小路通仏光寺下る太子山町６０３番地,,26,106,6008469,,,,,,,2024-09-18,1,,,,,マルジュウホールディングス,0
1710,8130001077959,新規,0,2024-09-18,2024-09-18,京都福田洛南株式会社,00136331,株式会社,京都府,城陽市,奈島上小路１２番地１,,26,207,6100116,,,,,,,2024-09-18,1,,,,,キョウトフクダラクナン,0
1711,8130001077967,新規,0,2024-09-18,2024-09-18,株式会社ＢＲＡＶＯ,,株式会社,京都府,京都市伏見区,下鳥羽広長町１７４,,26,109,6128473,,,,,,,2024-09-18,1,,,,,ブラーボ,0
1712,8130003009869,新規,0,2024-09-18,2024-09-18,ＨＡＳＥＥＢ　ＩＮＴＥＲＮＡＴＩＯＮＡＬ合同会社,,合同会社,京都府,京都市山科区,四ノ宮小金塚１番地２７９,,26,110,6078022,,,,,,,2024-09-18,1,,,,,ハシーブインターナショナル,0
1716,8140003020949,新規,0,2024-09-18,2024-09-18,日商工務店工房合同会社,,合同会社,兵庫県,神戸市兵庫区,東山町３丁目１－１,,28,105,6520042,,,,,,,2024-09-18,1,,,,,ニッショウコウムテンコウボウ,0
1718,8140003021088,新規,0,2024-09-18,2024-09-18,合同会社ゼンキ,,合同会社,兵庫県,神戸市灘区,篠原本町１丁目６番３号,,28,102,6570067,,,,,,,2024-09-18,1,,,,,ゼンキ,0
1719,8150003003366,新規,0,2024-09-18,2024-09-18,合同会社Ｗｅｌｌｎｅｓｓ　Ｌａｂ,,合同会社,奈良県,生駒市,小明町５６０－３,,29,209,6300201,,,,,,,2024-09-18,1,,,,,ウェルネスラボ,0
1720,8150003003374,新規,0,2024-09-18,2024-09-18,合同会社ＥＶＥＲＴＯＮＥ　ＰＲＯＪＥＣＴ,,合同会社,奈良県,奈良市,法蓮町３５７－９,,29,201,6308113,,,,,,,2024-09-18,1,,,,,エバートーンプロジェクト,0
1727,8180001163275,新規,0,2024-09-18,2024-09-18,春風科技株式会社,,株式会社,愛知県,名古屋市中区,三の丸１丁目１４番７号本丸ビル３０２号室,,23,106,4600001,,,,,,,2024-09-18,1,,,,,シュンプウカギ,0
1729,8180003027346,新規,0,2024-09-18,2024-09-18,合同会社ビビット,,合同会社,愛知県,北名古屋市,西之保宮前７番地,,23,234,4810033,,,,,,,2024-09-18,1,,,,,ビビット,0
1737,8200001042939,新規,0,2024-09-18,2024-09-18,株式会社メゾンメルヴェイユーズ,,株式会社,岐阜県,岐阜市,河渡３丁目１３６番地１,,21,201,5010105,,,,,,,2024-09-18,1,,,,,メゾンメルヴェイユーズ,0
1738,8200003006504,新規,0,2024-09-18,2024-09-18,合同会社ＹＭＮ,,合同会社,岐阜県,羽島市,江吉良町１１３０番地１,,21,209,5016236,,,,,,,2024-09-18,1,,,,,ワイエムエヌ,0
1741,8220001026213,新規,0,2024-09-18,2024-09-18,株式会社中島瓦,,株式会社,石川県,七尾市,中島町中島２部１２番地,,17,202,9292222,,,,,,,2024-09-18,1,,,,,ナカジマカワラ,0
1742,8230001020529,新規,0,2024-09-18,2024-09-18,株式会社ゼクストフィンテック,,株式会社,富山県,富山市,千石町５丁目６番２号,,16,201,9300066,,,,,,,2024-09-18,1,,,,,ゼクストフィンテック,0
1743,8230003002293,新規,0,2024-09-18,2024-09-18,ＡｆｏｒＵ合同会社,,合同会社,富山県,射水市,一条４番７,,16,211,9390333,,,,,,,2024-09-18,1,,,,,エーフォアユー,0
1747,8280001009261,新規,0,2024-09-18,2024-09-18,株式会社ＫＯＹＯ　ＤＡＦ　ｓｐｏｒｔｓ,,株式会社,島根県,松江市,浜乃木７丁目３番３号,,32,201,6900044,,,,,,,2024-09-18,1,,,,,コーヨーディーエーエフスポーツ,0
1750,8290001107246,新規,0,2024-09-18,2024-09-18,株式会社福泉,,株式会社,福岡県,福岡市博多区,博多駅前４丁目３３－７ロマネスク博多駅前１３１０号室,,40,132,8120011,,,,,,,2024-09-18,1,,,,,フクセン,0
1751,8290001107295,新規,0,2024-09-18,2024-09-18,Ｎｅｘｔ　ｕｐ株式会社,,株式会社,福岡県,福岡市博多区,吉塚３丁目３１番６５号岩吉ビル２号,,40,132,8120041,,,,,,,2024-09-18,1,,,,,ネクストアップ,0
1752,8290001107304,新規,0,2024-09-18,2024-09-18,株式会社亀や水産,,株式会社,福岡県,福岡市東区,松島１丁目１６番１３－６０２号,,40,131,8120062,,,,,,,2024-09-18,1,,,,,カメヤスイサン,0
1758,8290801030886,新規,0,2024-09-18,2024-09-18,株式会社ＰＡＯＮ,,株式会社,福岡県,北九州市小倉南区,長行西２丁目１４番２０号,,40,107,8030272,,,,,,,2024-09-18,1,,,,,パオン,0
1763,8320001020718,新規,0,2024-09-18,2024-09-18,株式会社ｏｎｅ＆ｅｌｆ,,株式会社,大分県,大分市,大字上宗方１９８９番地の１,,44,201,8701152,,,,,,,2024-09-18,1,,,,,ワンアンドエルフ,0
1771,8370003006751,新規,0,2024-09-18,2024-09-18,合同会社Ｌ＆Ｐ,,合同会社,宮城県,仙台市青葉区,本町１丁目５番２８号カーニープレイス仙台駅前通６０３号室,,04,101,9800014,,,,,,,2024-09-18,1,,,,,エルアンドピー,0
1776,8390001017740,新規,0,2024-09-18,2024-09-18,株式会社ＦＬＩＣＫ,,株式会社,山形県,鶴岡市,山王町３番１４号２Ｆ,,06,203,9970028,,,,,,,2024-09-18,1,,,,,フリック,0
1782,8430001092696,新規,0,2024-09-18,2024-09-18,駿昇興業株式会社,,株式会社,北海道,札幌市豊平区,西岡三条９丁目２番８－３０１号,,01,105,0620033,,,,,,,2024-09-18,1,,,,,シュンショウコウギョウ,0
1787,8470001020380,新規,0,2024-09-18,2024-09-18,株式会社Ｒｃ,,株式会社,香川県,丸亀市,土居町１丁目２番１０号,,37,202,7630012,,,,,,,2024-09-18,1,,,,,アールシー,0
1794,9010001248307,新規,0,2024-09-18,2024-09-18,ＩＥＭ株式会社,,株式会社,東京都,中央区,銀座１丁目１２番４号Ｎ＆ＥＢＬＤ．６Ｆ,,13,102,1040061,,,,,,,2024-09-18,1,,,,,アイイーエム,0
1795,9010001248315,新規,0,2024-09-18,2024-09-18,シタデルファイナンシャルアドバイザリー株式会社,,株式会社,東京都,中央区,銀座１丁目１２－３Ｎ＆ＥＢＬＤ．７階,,13,102,1040061,,,,,,,2024-09-18,1,,,,,シタデルファイナンシャルアドバイザリー,0
1796,9010001248331,新規,0,2024-09-18,2024-09-18,イクシーズ株式会社,,株式会社,東京都,千代田区,内神田１丁目２番４号,,13,101,1010047,,,,,,,2024-09-18,1,,,,,イクシーズ,0
1797,9010001248364,新規,0,2024-09-18,2024-09-18,ＥＲＴトレーニングセンター株式会社,,株式会社,東京都,中央区,日本橋馬喰町１丁目３番１１号ＴＳビル３Ｆ,,13,102,1030002,,,,,,,2024-09-18,1,,,,,イーアールティートレーニングセンター,0
1800,9010003044885,新規,0,2024-09-18,2024-09-18,Ｍａｃｒａｙｚ合同会社,,合同会社,東京都,中央区,銀座１丁目２２―１１銀座大竹ビジデンス２Ｆ,,13,102,1040061,,,,,,,2024-09-18,1,,,,,マクレイズ,0
1806,9010401185166,新規,0,2024-09-18,2024-09-18,株式会社ＤＵＲＡ,,株式会社,東京都,港区,赤坂３丁目１４番９号赤坂清水ビル５階,,13,103,1070052,,,,,,,2024-09-18,1,,,,,デュラ,0
1807,9010401185199,新規,0,2024-09-18,2024-09-18,株式会社ドリームドゥイットエンターテインメントジャパン,,株式会社,東京都,港区,新橋２丁目５号２号,,13,103,1050004,,,,,,,2024-09-18,1,,,,,ドリームドゥイットエンターテインメントジャパン,0
1809,9010403033422,新規,0,2024-09-18,2024-09-18,合同会社ヴィエプラス,,合同会社,東京都,港区,白金１丁目２番１,,13,103,1080072,,,,,,,2024-09-18,1,,,,,ヴィエプラス,0
1810,9010403033455,新規,0,2024-09-18,2024-09-18,トライアドネット合同会社,,合同会社,東京都,港区,芝浦２丁目９番１－１２０１号,,13,103,1080023,,,,,,,2024-09-18,1,,,,,トライアドネット,0
1812,9010503007573,新規,0,2024-09-18,2024-09-18,合同会社ＹＯ,,合同会社,東京都,台東区,池之端１丁目４番３３－３３０６号,,13,106,1100008,,,,,,,2024-09-18,1,,,,,ヨウ,0
1828,9011001164700,新規,0,2024-09-18,2024-09-18,株式会社ｓｍｏｍｏ,,株式会社,東京都,渋谷区,渋谷２丁目１９番１５号宮益坂ビルディング６０９,,13,113,1500002,,,,,,,2024-09-18,1,,,,,スモモ,0
1830,9011005010669,新規,0,2024-09-18,2024-09-18,一般社団法人駒場ＡＩ研究会,,その他の設立登記法人,東京都,渋谷区,神宮前６丁目２３番４号桑野ビル２階,,13,113,1500001,,,,,,,2024-09-18,1,,,,,コマバエーアイケンキュウカイ,0
1831,9011101108805,新規,0,2024-09-18,2024-09-18,順和株式会社,,株式会社,東京都,新宿区,高田馬場３丁目２１番９緒方荘２－２号,,13,104,1690075,,,,,,,2024-09-18,1,,,,,ジュンワ,0
1834,9011401026442,新規,0,2024-09-18,2024-09-18,恒雅株式会社,,株式会社,東京都,板橋区,加賀１丁目２１－１プラウドシティ加賀学園通り１００３,,13,119,1730003,,,,,,,2024-09-18,1,,,,,コウヤ,0
1838,9011801044853,新規,0,2024-09-18,2024-09-18,株式会社東晟,,株式会社,東京都,足立区,千住緑町２丁目２１番９号,,13,121,1200044,,,,,,,2024-09-18,1,,,,,トウセイ,0
1840,9011803006447,新規,0,2024-09-18,2024-09-18,合同会社ＭＥＧＵＭＩ,,合同会社,東京都,葛飾区,東水元４丁目２－１０,,13,122,1250033,,,,,,,2024-09-18,1,,,,,メグミ,0
1843,9013303007306,新規,0,2024-09-18,2024-09-18,ゲッコーワークス合同会社,,合同会社,東京都,豊島区,南大塚３丁目４番２号ＲＣビル３階,,13,116,1700005,,,,,,,2024-09-18,1,,,,,ゲッコーワークス,0
1846,9020001159247,新規,0,2024-09-18,2024-09-18,株式会社べるがもっと,,株式会社,神奈川県,川崎市川崎区,駅前本町１０－１ＭＥＦＵＬＬ川崎９階,,14,131,2100007,,,,,,,2024-09-18,1,,,,,ベルガモット,0
1849,9020003026924,新規,0,2024-09-18,2024-09-18,エディション合同会社,,合同会社,神奈川県,横浜市西区,みなとみらい４丁目４番２号横浜ブルーアベニュー１２階,,14,103,2200012,,,,,,,2024-09-18,1,,,,,エディション,0
1857,9021003015009,新規,0,2024-09-18,2024-09-18,ＡＬＦＲＥＤ　ＣＲＥＡＴＩＯＮＳ合同会社,,合同会社,神奈川県,小田原市,曽我別所８０９－１２,,14,206,2500205,,,,,,,2024-09-18,1,,,,,アルフレッドクリエイションズ,0
1863,9030001162497,新規,0,2024-09-18,2024-09-18,飄堂クリエイティブス株式会社,,株式会社,埼玉県,狭山市,大字水野１３０６番地の２４,,11,215,3501317,,,,,,,2024-09-18,1,,,,,,0
1864,9030001162514,新規,0,2024-09-18,2024-09-18,株式会社いわもと紙業,,株式会社,埼玉県,朝霞市,栄町２丁目１０番４５－７０１号,,11,227,3510012,,,,,,,2024-09-18,1,,,,,イワモトシギョウ,0
1865,9030001162522,新規,0,2024-09-18,2024-09-18,株式会社Ｒｅｌｙ,,株式会社,埼玉県,鴻巣市,袋１７４９番地９,,11,217,3690131,,,,,,,2024-09-18,1,,,,,リライ,0
1870,9030003025041,新規,0,2024-09-18,2024-09-18,合同会社パークシティ,,合同会社,埼玉県,川口市,朝日６丁目１６－２－４０６ベルヴィーユタナカ,,11,203,3320001,,,,,,,2024-09-18,1,,,,,パークシティ,0
1871,9030003025140,新規,0,2024-09-18,2024-09-18,合同会社ＴＲＩＢａｓｅ,,合同会社,埼玉県,川口市,大字里９３７番地の１,,11,203,3340005,,,,,,,2024-09-18,1,,,,,トライベース,0
1874,9040001135444,新規,0,2024-09-18,2024-09-18,栄棹工業株式会社,,株式会社,千葉県,茂原市,北塚４０７番地,,12,210,2970009,,,,,,,2024-09-18,1,,,,,エサオコウギョウ,0
1875,9040001135469,新規,0,2024-09-18,2024-09-18,株式会社励和トレーディング,,株式会社,千葉県,印西市,武西学園台３丁目６番地２,,12,231,2701355,,,,,,,2024-09-18,1,,,,,レイワトレーディング,0
1880,9040003025809,新規,0,2024-09-18,2024-09-18,ＧＧＡ合同会社,,合同会社,千葉県,習志野市,藤崎６丁目４番１８号,,12,216,2750017,,,,,,,2024-09-18,1,,,,,ジージーエー,0
1893,9080001026490,新規,0,2024-09-18,2024-09-18,株式会社ゆりいか,,株式会社,静岡県,藤枝市,高洲２２番地の６,,22,214,4260046,,,,,,,2024-09-18,1,,,,,,0
1900,9080405007665,新規,0,2024-09-18,2024-09-18,農事組合法人兵子ファーム,,その他の設立登記法人,静岡県,浜松市中央区,植松町２６８番地の１ビレッタ第２浜松５１３号,,22,138,4300803,,,,,,,2024-09-18,1,,,,,,0
1912,9120001268467,新規,0,2024-09-18,2024-09-18,Ｍｒ．株式会社,,株式会社,大阪府,大阪市淀川区,十八条１丁目１番３２－４１０号,,27,123,5320001,,,,,,,2024-09-18,1,,,,,ミスター,0
1913,9120001268616,新規,0,2024-09-18,2024-09-18,株式会社エニシー,,株式会社,大阪府,大阪市住吉区,山之内１丁目４番１２号ファンシェイプ１号館６０３号,,27,120,5580023,,,,,,,2024-09-18,1,,,,,エニシー,0
1914,9120001268681,新規,0,2024-09-18,2024-09-18,サニー・トラスト株式会社,,株式会社,大阪府,大阪市城東区,今福南２丁目１番２０号,,27,118,5360003,,,,,,,2024-09-18,1,,,,,サニートラスト,0
1915,9120003027549,新規,0,2024-09-18,2024-09-18,合同会社フロンティア,,合同会社,大阪府,大阪市淀川区,十三東２丁目６－３９－Ｄ,,27,123,5320023,,,,,,,2024-09-18,1,,,,,フロンティア,0
1919,9120901049784,新規,0,2024-09-18,2024-09-18,株式会社エスト・ルミエール,,株式会社,大阪府,吹田市,豊津町９番１号,,27,205,5640051,,,,,,,2024-09-18,1,,,,,エストルミエール,0
1921,9120903005331,新規,0,2024-09-18,2024-09-18,合同会社ロッカン,,合同会社,大阪府,吹田市,千里山西２丁目４番１８号,,27,205,5650851,,,,,,,2024-09-18,1,,,,,ロッカン,0
1928,9130001077958,新規,0,2024-09-18,2024-09-18,株式会社Ｅｎｅｒｇｙ　Ｔｉｇａ,,株式会社,京都府,京都市下京区,大政所町６８０－１,,26,106,6008413,,,,,,,2024-09-18,1,,,,,エナジーティガ,0
1935,9140001135822,新規,0,2024-09-18,2024-09-18,島内電工株式会社,,株式会社,兵庫県,明石市,大久保町松陰２３０番地の１７,,28,203,6740053,,,,,,,2024-09-18,1,,,,,シマノウチデンコウ,0
1940,9150001027572,新規,0,2024-09-18,2024-09-18,株式会社Ｇａｌｌｅｒｙ　Ｔａｉｍｅｉ,,株式会社,奈良県,奈良市,西登美ヶ丘３丁目１０番３２－１号,,29,201,6310006,,,,,,,2024-09-18,1,,,,,ギャラリータイメイ,0
1941,9160001026219,新規,0,2024-09-18,2024-09-18,株式会社エムズ,,株式会社,滋賀県,長浜市,神照町６９６番地,,25,203,5260015,,,,,,,2024-09-18,1,,,,,エムズ,0
1945,9180001163274,新規,0,2024-09-18,2024-09-18,鯤山投資株式会社,,株式会社,愛知県,名古屋市中区,三の丸１丁目１４番７号本丸ビル３０１号室,,23,106,4600001,,,,,,,2024-09-18,1,,,,,コンザントウシ,0
1948,9190001031637,新規,0,2024-09-18,2024-09-18,株式会社ＴＡＴＳＵＨＩＲＯ,,株式会社,三重県,桑名市,福島新町８８番地,,24,205,5110027,,,,,,,2024-09-18,1,,,,,タツヒロ,0
1949,9200001042938,新規,0,2024-09-18,2024-09-18,株式会社佐藤商店,,株式会社,岐阜県,高山市,石浦町２丁目３５２番地,,21,203,5060825,,,,,,,2024-09-18,1,,,,,サトウショウテン,0
1952,9220001026212,新規,0,2024-09-18,2024-09-18,株式会社ＫｍＹ石川,,株式会社,石川県,鳳珠郡能登町,字宇出津新３６番地１,,17,463,9270432,,,,,,,2024-09-18,1,,,,,ケイエムワイイシカワ,0
1955,9220005008883,新規,0,2024-09-18,2024-09-18,一般社団法人子育て支援協会,,その他の設立登記法人,石川県,金沢市,尾張町１丁目２番３２号,,17,201,9200902,,,,,,,2024-09-18,1,,,,,コソダテシエンキョウカイ,0
1959,9240001063815,新規,0,2024-09-18,2024-09-18,株式会社エール警備保障,,株式会社,広島県,広島市東区,東蟹屋町１６番３４号,,34,102,7320055,,,,,,,2024-09-18,1,,,,,エールケイビホショウ,0
1961,9240003006854,新規,0,2024-09-18,2024-09-18,ＮＩＫＫＯ　ＳＯＬＡＲ　ＰＬＡＮＴ５合同会社,,合同会社,広島県,広島市安佐北区,落合２丁目３０番１８号,,34,106,7391731,,,,,,,2024-09-18,1,,,,,ニッコウソーラープラントファイブ,0
1962,9250001020815,新規,0,2024-09-18,2024-09-18,株式会社玲明,,株式会社,山口県,下関市,熊野町２丁目１７番２３号,,35,201,7510852,,,,,,,2024-09-18,1,,,,,レイメイ,0
1963,9270001009055,新規,0,2024-09-18,2024-09-18,株式会社ＯＣ‐ｆｒｏｎｔｉｅｒ,,株式会社,鳥取県,米子市,両三柳５０３７番地（シエスタヨナゴ８０５）,,31,202,6830853,,,,,,,2024-09-18,1,,,,,オーシーフロンティア,0
1971,9290001107261,新規,0,2024-09-18,2024-09-18,株式会社シティハウス,,株式会社,福岡県,福岡市中央区,六本松２丁目５－９,,40,133,8100044,,,,,,,2024-09-18,1,,,,,シティハウス,0
1972,9290001107278,新規,0,2024-09-18,2024-09-18,株式会社ＴＯＯＬ　ＢＯＸ,,株式会社,福岡県,糟屋郡須惠町,大字旅石２３３番地２オフィスパレア須恵Ｉ‐Ｂ１号室,00136330,40,344,8112221,,,,,,,2024-09-18,1,,,,,ツールボックス,0
1973,9290003015818,新規,0,2024-09-18,2024-09-18,合同会社トミーキューブ,,合同会社,福岡県,福岡市中央区,天神２丁目２番１２号Ｔ＆Ｊビルディング７Ｆ,,40,133,8100001,,,,,,,2024-09-18,1,,,,,トミーキューブ,0
1983,9360001034201,新規,0,2024-09-18,2024-09-18,株式会社善心,,株式会社,沖縄県,中頭郡北中城村,字島袋２１３番地,,47,327,9012301,,,,,,,2024-09-18,1,,,,,ゼンシン,0
1984,9370003006750,新規,0,2024-09-18,2024-09-18,Ｂｒｉｎｇ　Ｂｅｅｒ　Ｓｔｕｄｉｏ合同会社,,合同会社,宮城県,仙台市泉区,住吉台東３丁目６番地の５,,04,105,9813222,,,,,,,2024-09-18,1,,,,,ブリングビアスタジオ,0
1995,9450001014409,新規,0,2024-09-18,2024-09-18,株式会社エンジョイ道北,,株式会社,北海道,上川郡剣淵町,西町２５番７号,,01,465,0980331,,,,,,,2024-09-18,1,,,,,エンジョイドウホク,0
2000,9500001025879,新規,0,2024-09-18,2024-09-18,株式会社マツ設計事務所,,株式会社,愛媛県,松山市,志津川町２０番地８,,38,201,7918003,,,,,,,2024-09-18,1,,,,,マツセッケイジムショ,0
2002,9700150123587,新規,0,2024-09-18,2024-09-18,ｘｉａｍｅｎｊｉｍａｉｄｏｕｋｅｊｉｙｏｕｘｉａｎｇｏｎｇｓｉ,,外国会社等,,,,,,,,Ｒｏｏｍ　１２０９，Ｎｏ．５　Ｌｏｎｇｈｅ　Ｅｒｌｉ，Ｊｉｍｅｉ　Ｄｉｓｔｒｉｃｔｘｉａｍｅｎ　ｆｕｊｉａｎ,,,,,,2024-09-18,1,,,,,シヤーメンジーマイドウコージーヨウシエンゴンスー,0
