sequenceNumber,corporateNumber,process,correct,updateDate,changeDate,name,nameImageId,kind,prefectureName,cityName,streetNumber,addressImageId,prefectureCode,cityCode,postCode,addressOutside,addressOutsideImageId,closeDate,closeCause,successorCorporateNumber,changeCause,assignmentDate,latest,enName,enPrefectureName,enCityName,enAddressOutside,furigana,hihyoji
8,1010001255616,新規,0,2025-06-09,2025-06-09,株式会社Ｂｒｉｇｈｔ　Ｓｍａｒｔ,,株式会社,東京都,千代田区,神田須田町２丁目３番１２号１２ＫＡＮＤＡ,,13,101,1010041,,,,,,,2025-06-09,1,,,,,ブライトスマート,0
9,1010001255649,新規,0,2025-06-09,2025-06-09,株式会社ブースターズプラス,,株式会社,東京都,中央区,銀座１丁目２２番１１号銀座大竹ビジデンス２Ｆ,,13,102,1040061,,,,,,,2025-06-09,1,,,,,ブースターズプラス,0
10,1010001255780,新規,0,2025-06-09,2025-06-09,株式会社ＣｉｒＣｉｎｏ,,株式会社,東京都,中央区,日本橋室町１丁目１１番１２号日本橋水野ビル７階,,13,102,1030022,,,,,,,2025-06-09,1,,,,,シラシノ,0
11,1010001255789,新規,0,2025-06-09,2025-06-09,Ｌｕｍｉｔａｓ　Ｃａｐｉｔａｌ　Ｐａｒｔｎｅｒｓ株式会社,,株式会社,東京都,中央区,銀座１丁目１９番１４号銀座ＯＮＥビル６階,,13,102,1040061,,,,,,,2025-06-09,1,,,,,ルミタスキャピタルパートナーズ,0
12,1010005040171,新規,0,2025-06-09,2025-06-09,ＰＡＴＲＩＺＩＡ　ＭＦ４特定目的会社,,その他の設立登記法人,東京都,千代田区,丸の内１丁目４番１号東京共同会計事務所内,,13,101,1000005,,,,,,,2025-06-09,1,,,,,パトリシアエムエフフォー,0
20,1010401190743,新規,0,2025-06-09,2025-06-09,Ｔｒｉｐｌｅｃｏｍｍａ株式会社,,株式会社,東京都,港区,虎ノ門２丁目３－１７虎ノ門２丁目タワー１９階,,13,103,1050001,,,,,,,2025-06-09,1,,,,,トリプルコンマ,0
21,1010401190867,新規,0,2025-06-09,2025-06-09,Ｔｏｏｌｓ．ａｉ株式会社,,株式会社,東京都,港区,赤坂８丁目１１番２６号,,13,103,1070052,,,,,,,2025-06-09,1,,,,,ツールズエーアイ,0
22,1010401190900,新規,0,2025-06-09,2025-06-09,株式会社Ｒｏｓｔｅｎ＆Ｂ,,株式会社,東京都,港区,芝２丁目１７番７号第二鈴木ビル１階,,13,103,1050014,,,,,,,2025-06-09,1,,,,,ロステンアンドビー,0
23,1010403035211,新規,0,2025-06-09,2025-06-09,クロスボーダービジネス合同会社,,合同会社,東京都,港区,麻布十番１丁目８－１１,,13,103,1060045,,,,,,,2025-06-09,1,,,,,クロスボーダービジネス,0
27,1010701047809,新規,0,2025-06-09,2025-06-09,株式会社ＬＯＶＥＲ,,株式会社,東京都,品川区,西五反田５丁目９番１８号,,13,109,1410031,,,,,,,2025-06-09,1,,,,,ラヴァ,0
33,1011001169896,新規,0,2025-06-09,2025-06-09,ＨＴＸ株式会社,,株式会社,東京都,渋谷区,円山町５番３号ＭＩＥＵＸ渋谷ビル８階,,13,113,1500044,,,,,,,2025-06-09,1,,,,,エイチティーエックス,0
34,1011001170012,新規,0,2025-06-09,2025-06-09,株式会社ルシアージュ,,株式会社,東京都,渋谷区,東３丁目１７番１１号ヴェラハイツ恵比寿東２０１,,13,113,1500011,,,,,,,2025-06-09,1,,,,,ルシアージュ,0
35,1011001170152,新規,0,2025-06-09,2025-06-09,Ｓｔｅｌｌａ　Ｐａｒｔｎｅｒｓ＆Ｃｏ．株式会社,,株式会社,東京都,渋谷区,神南１丁目１１番４号ＦＰＧリンクス神南５階,,13,113,1500041,,,,,,,2025-06-09,1,,,,,ステラパートナーズアンドコー,0
40,1011101111997,新規,0,2025-06-09,2025-06-09,Ｃｈａｎｅｎｎ　Ｔｅｃｈｎｏｌｏｇｙ　Ｊａｐａｎ株式会社,,株式会社,東京都,新宿区,西新宿４丁目３１番３号１１０４室,,13,104,1600023,,,,,,,2025-06-09,1,,,,,チャンエンテクノロジージャパン,0
42,1011103015981,新規,0,2025-06-09,2025-06-09,合同会社ＧＲＯＷ　ＢＲＩＤＧＥ,,合同会社,東京都,新宿区,西新宿６丁目１１番３号Ｄマークス西新宿タワー２６０５,,13,104,1600023,,,,,,,2025-06-09,1,,,,,グロウブリッジ,0
44,1011203004728,新規,0,2025-06-09,2025-06-09,Ｕｎｉｔｅｄ　Ｌｙｏｎ合同会社,,合同会社,東京都,中野区,中野６丁目２７－１６、１階,,13,114,1640001,,,,,,,2025-06-09,1,,,,,ユナイテッドリヨン,0
46,1011303005584,新規,0,2025-06-09,2025-06-09,フロム合同会社,,合同会社,東京都,杉並区,西荻北４丁目２４番１号,,13,115,1670042,,,,,,,2025-06-09,1,,,,,フロム,0
48,1011401027150,新規,0,2025-06-09,2025-06-09,株式会社村貴,,株式会社,東京都,板橋区,坂下２丁目３１番５号,,13,119,1740043,,,,,,,2025-06-09,1,,,,,ムラタカ,0
49,1011501032182,新規,0,2025-06-09,2025-06-09,グロースラインパートナーズ株式会社,,株式会社,東京都,荒川区,荒川７丁目４６番１号,,13,118,1160002,,,,,,,2025-06-09,1,,,,,グロースラインパートナーズ,0
50,1011601028709,新規,0,2025-06-09,2025-06-09,啓友物産株式会社,,株式会社,東京都,練馬区,大泉町１丁目１９番３８号,,13,120,1780062,,,,,,,2025-06-09,1,,,,,ケイユウブッサン,0
53,1011803006900,新規,0,2025-06-09,2025-06-09,ＴＭＣ合同会社,,合同会社,東京都,葛飾区,四つ木５丁目１３番８号－３０４号室,,13,122,1240011,,,,,,,2025-06-09,1,,,,,ティーエムシー,0
54,1012801024019,新規,0,2025-06-09,2025-06-09,株式会社ワククロ,,株式会社,東京都,立川市,西砂町６丁目１８番地の３８,,13,202,1900034,,,,,,,2025-06-09,1,,,,,ワククロ,0
55,1012803003763,新規,0,2025-06-09,2025-06-09,８０８３Ｃｏｍｍｏｎｓ合同会社,,合同会社,東京都,国分寺市,西町１丁目３０番地１２メビウスエアキューブ２－Ｂ,,13,214,1850035,,,,,,,2025-06-09,1,,,,,ハチマルハチサンコモンズ,0
60,1020001163297,新規,0,2025-06-09,2025-06-09,株式会社西ヶ谷グループ,,株式会社,神奈川県,横浜市港南区,大久保１丁目１－５－２０７,,14,111,2330007,,,,,,,2025-06-09,1,,,,,ニシガヤグループ,0
64,1020003028606,新規,0,2025-06-09,2025-06-09,合同会社ＨＳ,,合同会社,神奈川県,川崎市中原区,上丸子山王町２丁目１２０３－１７,,14,133,2110002,,,,,,,2025-06-09,1,,,,,エイチエス,0
65,1020003028663,新規,0,2025-06-09,2025-06-09,はちろ合同会社,,合同会社,神奈川県,横浜市青葉区,つつじが丘２３番地１１－１０１,,14,117,2270055,,,,,,,2025-06-09,1,,,,,ハチロ,0
66,1020005016897,新規,0,2025-06-09,2025-06-09,社会保険労務士法人ｍａｒＢｅｅ,,その他の設立登記法人,神奈川県,川崎市高津区,二子３丁目２５番６号,,14,134,2130002,,,,,,,2025-06-09,1,,,,,マルビー,0
68,1021001085408,新規,0,2025-06-09,2025-06-09,株式会社眞田ファミリーランド,,株式会社,神奈川県,藤沢市,片瀬海岸１丁目７番１～６０３号,,14,205,2510035,,,,,,,2025-06-09,1,,,,,サナダファミリーランド,0
69,1021001085432,新規,0,2025-06-09,2025-06-09,株式会社Ｍエステート,,株式会社,神奈川県,鎌倉市,由比ガ浜２丁目１６番９号,,14,204,2480014,,,,,,,2025-06-09,1,,,,,エムエステート,0
81,1030001167000,新規,0,2025-06-09,2025-06-09,ＢＯＮＵＭパートナーズ株式会社,,株式会社,埼玉県,川口市,末広１丁目２６番１０号,,11,203,3320006,,,,,,,2025-06-09,1,,,,,ボナムパートナーズ,0
86,1030003026939,新規,0,2025-06-09,2025-06-09,ＨＲＩＴ　ＭＡＲＴ合同会社,,合同会社,埼玉県,八潮市,大字大瀬１４６１－６,,11,234,3400822,,,,,,,2025-06-09,1,,,,,ハリトマート,0
91,1040001139147,新規,0,2025-06-09,2025-06-09,株式会社Ａｕｒａｎｔｉｕｍ　Ｔｅｃｈｎｏｌｏｇｙ,,株式会社,千葉県,船橋市,習志野台５丁目２３番５号,,12,204,2740063,,,,,,,2025-06-09,1,,,,,オーランティウムテクノロジー,0
92,1040001139155,新規,0,2025-06-09,2025-06-09,株式会社ウェルバトン,,株式会社,千葉県,千葉市中央区,新千葉２丁目３番３号グラディス千葉駅前１２０５号,,12,101,2600031,,,,,,,2025-06-09,1,,,,,ウェルバトン,0
93,1040001139188,新規,0,2025-06-09,2025-06-09,万福住建株式会社,,株式会社,千葉県,山武市,白幡２２７６番地２,,12,237,2891306,,,,,,,2025-06-09,1,,,,,マンプクジュウケン,0
94,1040001139205,新規,0,2025-06-09,2025-06-09,株式会社ＰｏｎｏＬａｂ,,株式会社,千葉県,千葉市美浜区,真砂２丁目１５番１棟１３０１号,,12,106,2610011,,,,,,,2025-06-09,1,,,,,ポノラボ,0
95,1040003027746,新規,0,2025-06-09,2025-06-09,ＩｎｆｉｎＩＴ合同会社,,合同会社,千葉県,印西市,草深１１００－３９,,12,231,2701337,,,,,,,2025-06-09,1,,,,,インフィニット,0
96,1040003027770,新規,0,2025-06-09,2025-06-09,合同会社学習塾アトラス千葉塾,,合同会社,千葉県,流山市,大字西深井２３８番地の４,,12,220,2700107,,,,,,,2025-06-09,1,,,,,ガクシュウジュクアトラスチバジュク,0
98,1050001056779,新規,0,2025-06-09,2025-06-09,株式会社Ｍ・Ａ農産,,株式会社,茨城県,古河市,上大野１４９６番地１,,08,204,3060201,,,,,,,2025-06-09,1,,,,,エムエイノウサン,0
101,1060001038256,新規,0,2025-06-09,2025-06-09,日本いちご株式会社,,株式会社,栃木県,さくら市,喜連川５０３－６フィオーレＩＩ２０２,00139495,09,214,3291412,,,,,,,2025-06-09,1,,,,,ニホンイチゴ,0
102,1060001038280,新規,0,2025-06-09,2025-06-09,株式会社Ｚｅｎ,,株式会社,栃木県,宇都宮市,東谷町４８４－１,,09,201,3210123,,,,,,,2025-06-09,1,,,,,ゼン,0
106,1060003005592,新規,0,2025-06-09,2025-06-09,合同会社クロフト,,合同会社,栃木県,足利市,寿町１５番地１０,,09,202,3260025,,,,,,,2025-06-09,1,,,,,クロフト,0
111,1080101025549,新規,0,2025-06-09,2025-06-09,株式会社Ｓｈｉｎ　Ｐａｒｔｎｅｒｓ,,株式会社,静岡県,沼津市,高島町１５番５号ぬましんＣＯＭＰＡＳＳ２階,,22,203,4100056,,,,,,,2025-06-09,1,,,,,シンパートナーズ,0
115,1110001039315,新規,0,2025-06-09,2025-06-09,株式会社Ｊ‐ＳＴＹＬＥ,,株式会社,新潟県,南魚沼市,東泉田２８８番地１,,15,226,9496612,,,,,,,2025-06-09,1,,,,,ジェイスタイル,0
116,1110001039323,新規,0,2025-06-09,2025-06-09,美徳塗装株式会社,,株式会社,新潟県,新潟市西区,神山１４３番地８,,15,107,9502255,,,,,,,2025-06-09,1,,,,,ビトクトソウ,0
121,1110003005785,新規,0,2025-06-09,2025-06-09,合同会社ｃｈａｒｉｏｔ　ｓｔｒｅｎｇｔｈ,,合同会社,新潟県,長岡市,青葉台５丁目２０－８,,15,202,9402145,,,,,,,2025-06-09,1,,,,,チャリオットストレングス,0
149,1120001276452,新規,0,2025-06-09,2025-06-09,株式会社ＢａｃｋＡＩ,,株式会社,大阪府,大阪市天王寺区,玉造本町１番２４－１１０１号,,27,109,5430013,,,,,,,2025-06-09,1,,,,,バックアイ,0
150,1120001276626,新規,0,2025-06-09,2025-06-09,株式会社トリプルエイチ,,株式会社,大阪府,大阪市西区,立売堀４丁目４番３号藤和阿波座コープ１０３号,,27,106,5500012,,,,,,,2025-06-09,1,,,,,トリプルエイチ,0
151,1120001276634,新規,0,2025-06-09,2025-06-09,医智未来株式会社,,株式会社,大阪府,大阪市生野区,桃谷３丁目２０番２５号桃谷ハイツ１０６号室,,27,116,5440034,,,,,,,2025-06-09,1,,,,,イチミライ,0
152,1120001276650,新規,0,2025-06-09,2025-06-09,株式会社Ｘｅｌｏｒｉａ,,株式会社,大阪府,大阪市北区,梅田２丁目５番１３号桜橋第一ビル３０４号,,27,127,5300001,,,,,,,2025-06-09,1,,,,,ゼロリア,0
153,1120001276667,新規,0,2025-06-09,2025-06-09,株式会社ＵＮＩＶＥＲＳＥ　ＨＤ,,株式会社,大阪府,大阪市中央区,宗右衛門町３番１１号マーキュリーアリマ３階,,27,128,5420084,,,,,,,2025-06-09,1,,,,,ユニバースホールディングス,0
154,1120001276691,新規,0,2025-06-09,2025-06-09,不閑株式会社,,株式会社,大阪府,大阪市中央区,西心斎橋２丁目３番１６号ＥＰＩＣＢＵＩＬＤＩＮＧ６Ａ,,27,128,5420086,,,,,,,2025-06-09,1,,,,,フカン,0
160,1120003029701,新規,0,2025-06-09,2025-06-09,合同会社ＫＴＨ　Ｃｏ．,,合同会社,大阪府,大阪市西成区,千本北２丁目９－１２タカオカマンション４０１号,,27,122,5570053,,,,,,,2025-06-09,1,,,,,ケーティーエイチコー,0
161,1120003029718,新規,0,2025-06-09,2025-06-09,ＡＵＲＯＲＡ国際貿易合同会社,,合同会社,大阪府,大阪市都島区,内代町４丁目３番３７－３０６号,,27,102,5340013,,,,,,,2025-06-09,1,,,,,オーロラコクサイボウエキ,0
162,1120005024980,新規,0,2025-06-09,2025-06-09,社会保険労務士法人ひとあんど,,その他の設立登記法人,大阪府,守口市,金田町１丁目７１番１６号,,27,209,5700011,,,,,,,2025-06-09,1,,,,,ヒトアンド,0
164,1120901051013,新規,0,2025-06-09,2025-06-09,株式会社Ｗａｖｅ　ＩＯＴ　Ｓｏｌｕｔｉｏｎｓ,,株式会社,大阪府,吹田市,豊津町１３番２４号,,27,205,5640051,,,,,,,2025-06-09,1,,,,,ウェーブアイオーティソリューションズ,0
165,1120901051021,新規,0,2025-06-09,2025-06-09,株式会社志電工,,株式会社,大阪府,高槻市,宮野町１１－４Ｂ１０３,,27,207,5690081,,,,,,,2025-06-09,1,,,,,シデンコウ,0
176,1140001138799,新規,0,2025-06-09,2025-06-09,Ｓｐｅｒｏ株式会社,,株式会社,兵庫県,神戸市中央区,国香通６丁目１番５－１４０１号,,28,110,6510066,,,,,,,2025-06-09,1,,,,,スペロ,0
177,1140001138808,新規,0,2025-06-09,2025-06-09,ＹＭＲオート株式会社,,株式会社,兵庫県,尼崎市,築地２丁目１０番７号,,28,202,6600858,,,,,,,2025-06-09,1,,,,,ワイエムアールオート,0
178,1140001138849,新規,0,2025-06-09,2025-06-09,株式会社モトマ,,株式会社,兵庫県,加古郡稲美町,六分一１３５４番地の１８,,28,381,6751112,,,,,,,2025-06-09,1,,,,,モトマ,0
181,1140003022167,新規,0,2025-06-09,2025-06-09,合同会社Ｏｐｅｒａ,,合同会社,兵庫県,神戸市長田区,大道通４丁目２－４,,28,106,6530833,,,,,,,2025-06-09,1,,,,,オペラ,0
183,1150001028181,新規,0,2025-06-09,2025-06-09,タビオファクトリー株式会社,,株式会社,奈良県,北葛城郡広陵町,大字百済１５６２番地,,29,426,6350813,,,,,,,2025-06-09,1,,,,,タビオファクトリー,0
195,1180001167200,新規,0,2025-06-09,2025-06-09,株式会社Ｒｅ＆Ｒｅ,,株式会社,愛知県,名古屋市東区,東桜２丁目３番７号,,23,102,4610005,,,,,,,2025-06-09,1,,,,,リアンドリ,0
199,1180301039883,新規,0,2025-06-09,2025-06-09,株式会社ＤＥＦＥＮＤＥＲ,,株式会社,愛知県,豊田市,中町中前３３番地１７,,23,211,4730904,,,,,,,2025-06-09,1,,,,,ディフェンダー,0
209,1240001064993,新規,0,2025-06-09,2025-06-09,株式会社山方工業,,株式会社,広島県,呉市,押込３丁目４番７号,,34,202,7370915,,,,,,,2025-06-09,1,,,,,ヤマガタコウギョウ,0
210,1240001065059,新規,0,2025-06-09,2025-06-09,株式会社ＲＡＮＫ,,株式会社,広島県,安芸郡海田町,三迫１丁目９－１０－２,,34,304,7360014,,,,,,,2025-06-09,1,,,,,ランク,0
211,1240005015951,新規,0,2025-06-09,2025-06-09,特定非営利活動法人アラブの子どものための母語教育協会,,その他の設立登記法人,広島県,広島市中区,河原町４番３号シャンボール河原町２０７号室,,34,101,7300856,,,,,,,2025-06-09,1,,,,,アラブノコドモノタメノボゴキョウイクキョウカイ,0
215,1290001110256,新規,0,2025-06-09,2025-06-09,ＹＴＳ株式会社,,株式会社,福岡県,福津市,一丁目１番９号,,40,224,8113213,,,,,,,2025-06-09,1,,,,,ワイティーエス,0
216,1290001110280,新規,0,2025-06-09,2025-06-09,株式会社Ｌａ　ｍｏｏｎ,,株式会社,福岡県,福岡市中央区,草香江２丁目１番５号５Ｂ,,40,133,8100045,,,,,,,2025-06-09,1,,,,,ラムーン,0
217,1290001110289,新規,0,2025-06-09,2025-06-09,株式会社益田屋農園,,株式会社,福岡県,柳川市,中町１５番地３,,40,207,8320012,,,,,,,2025-06-09,1,,,,,マスダヤノウエン,0
218,1290001110306,新規,0,2025-06-09,2025-06-09,株式会社曲る屋,,株式会社,福岡県,福岡市博多区,博多駅前１丁目２３番２号ＰａｒｋＦｒｏｎｔ博多駅前１丁目５Ｆ－Ｂ,,40,132,8120011,,,,,,,2025-06-09,1,,,,,マガルヤ,0
219,1290001110314,新規,0,2025-06-09,2025-06-09,ソフィア株式会社,,株式会社,福岡県,福岡市博多区,東光２丁目８番２６－２０１プチ・ネージュ,,40,132,8120008,,,,,,,2025-06-09,1,,,,,ソフィア,0
220,1290001110330,新規,0,2025-06-09,2025-06-09,株式会社ロイター,,株式会社,福岡県,福岡市中央区,今泉２丁目１番１０号第二明則ビル１０２,,40,133,8100021,,,,,,,2025-06-09,1,,,,,ロイター,0
223,1290003016889,新規,0,2025-06-09,2025-06-09,合同会社クラフトワーク,,合同会社,福岡県,福岡市中央区,清川３丁目２５番１８号２０２号,,40,133,8100005,,,,,,,2025-06-09,1,,,,,クラフトワーク,0
224,1290003016955,新規,0,2025-06-09,2025-06-09,合同会社ＯＬＡ,,合同会社,福岡県,福岡市博多区,博多駅前１丁目２３番２号ＰａｒｋＦｒｏｎｔ博多駅前１丁目５Ｆ－Ｂ,,40,132,8120011,,,,,,,2025-06-09,1,,,,,オラ,0
225,1290003016963,新規,0,2025-06-09,2025-06-09,合同会社Ｅｕｐｈｏｒｉａ,,合同会社,福岡県,福岡市中央区,港１丁目４番１６－３０２号,,40,133,8100075,,,,,,,2025-06-09,1,,,,,ユーフォリア,0
232,1330001033270,新規,0,2025-06-09,2025-06-09,グロース株式会社,,株式会社,熊本県,熊本市東区,健軍１丁目３１番３号ウェアハウス健軍１０２,,43,102,8620911,,,,,,,2025-06-09,1,,,,,グロース,0
233,1330001033279,新規,0,2025-06-09,2025-06-09,成真工業株式会社,,株式会社,熊本県,球磨郡水上村,大字岩野２５６２番地,,43,507,8680701,,,,,,,2025-06-09,1,,,,,セイシンコウギョウ,0
237,1330003011051,新規,0,2025-06-09,2025-06-09,合同会社Ｊｉａｎｏｖａｔｅ　Ｌａｂ,,合同会社,熊本県,熊本市中央区,子飼本町３番２３号,,43,101,8600851,,,,,,,2025-06-09,1,,,,,ジアノベートラボ,0
241,1370001052647,新規,0,2025-06-09,2025-06-09,株式会社パインツリー,,株式会社,宮城県,多賀城市,高橋４丁目１９番１２－２０２号,,04,209,9850853,,,,,,,2025-06-09,1,,,,,パインツリー,0
247,1380003006063,新規,0,2025-06-09,2025-06-09,合同会社大谷,,合同会社,福島県,郡山市,片平町字新蟻塚９２番地の１０,,07,203,9630211,,,,,,,2025-06-09,1,,,,,オオタニ,0
248,1390001018010,新規,0,2025-06-09,2025-06-09,株式会社高橋地質,00139501,株式会社,山形県,飽海郡遊佐町,野沢字宅田４４番地,,06,461,9998303,,,,,,,2025-06-09,1,,,,,タカハシチシツ,0
252,1430001094609,新規,0,2025-06-09,2025-06-09,株式会社ノースサイクル,,株式会社,北海道,札幌市白石区,川下５８９番地７４,,01,104,0030869,,,,,,,2025-06-09,1,,,,,ノースサイクル,0
253,1430001094625,新規,0,2025-06-09,2025-06-09,株式会社ｉｐｓｅｒａ,,株式会社,北海道,札幌市中央区,大通西１８丁目１番地１４,,01,101,0600042,,,,,,,2025-06-09,1,,,,,イプセラ,0
254,1430001094633,新規,0,2025-06-09,2025-06-09,株式会社ＯＨＬエンジニアリング,,株式会社,北海道,札幌市西区,発寒十条１４丁目１０６８番地６,,01,107,0630830,,,,,,,2025-06-09,1,,,,,オーエイチエルエンジニアリング,0
256,1440001009623,新規,0,2025-06-09,2025-06-09,株式会社悠蔵,,株式会社,北海道,函館市,日吉町３丁目３番２号,,01,202,0410841,,,,,,,2025-06-09,1,,,,,ハルゾウ,0
257,1440003001693,新規,0,2025-06-09,2025-06-09,合同会社ラポール,,合同会社,北海道,亀田郡七飯町,本町２丁目２９番１号,,01,337,0411111,,,,,,,2025-06-09,1,,,,,ラポール,0
258,1450003002674,新規,0,2025-06-09,2025-06-09,ＮＮＮ合同会社,,合同会社,北海道,中川郡中川町,字中川４４４番地５,,01,471,0982802,,,,,,,2025-06-09,1,,,,,エヌエヌエヌ,0
260,1700150130954,新規,0,2025-06-09,2025-06-09,Ｎｏｒｔｈｅｒｎ　Ｖｅｎｔｕｒｅｓ　ＰＴＥ．　ＬＴＤ．,,外国会社等,,,,,,,,１６０　ＲＯＢＩＮＳＯＮ　ＲＯＡＤ　＃１４－０４　ＳＩＮＧＡＰＯＲＥ,,,,,,2025-06-09,1,,,,,ノーザンベンチヤーズ,0
275,2010001255648,新規,0,2025-06-09,2025-06-09,株式会社Ｂ＆ＳＯＬ,,株式会社,東京都,文京区,本郷２丁目１５番１２号Ｔｓビル６階,,13,105,1130033,,,,,,,2025-06-09,1,,,,,ビーアンドソル,0
276,2010001255689,新規,0,2025-06-09,2025-06-09,株式会社ＮＵＯＶＡ　ＶＩＴＡ,,株式会社,東京都,文京区,湯島２丁目３１番２１号３階,,13,105,1130034,,,,,,,2025-06-09,1,,,,,ヌオヴァヴィータ,0
277,2010001255730,新規,0,2025-06-09,2025-06-09,Ｍ．Ｇ．ＩＩホールディングス株式会社,,株式会社,東京都,千代田区,霞が関３丁目２番５号,,13,101,1000013,,,,,,,2025-06-09,1,,,,,エムジーツーホールディングス,0
280,2010003047589,新規,0,2025-06-09,2025-06-09,Ｓｕｍｉｒｅ　Ｈｏｌｄｉｎｇｓ合同会社,,合同会社,東京都,千代田区,神田小川町３丁目１１番Ｅ／Ｆｒｏｎｔビル６階,,13,101,1010052,,,,,,,2025-06-09,1,,,,,スミレホールディングス,0
281,2010003047622,新規,0,2025-06-09,2025-06-09,Ｄｅｅｐ　Ｒｅｓｏｕｒｃｅ合同会社,,合同会社,東京都,千代田区,神田佐久間町２丁目１８番地１,,13,101,1010025,,,,,,,2025-06-09,1,,,,,ディープリソース,0
282,2010003047630,新規,0,2025-06-09,2025-06-09,ＶＡＬＴＡＳ合同会社,,合同会社,東京都,中央区,銀座１丁目１２番４号Ｎ＆ＥＢＬＤ．６Ｆ,,13,102,1040061,,,,,,,2025-06-09,1,,,,,ヴァルタス,0
286,2010401190882,新規,0,2025-06-09,2025-06-09,アクティブ不動産株式会社,,株式会社,東京都,港区,新橋３丁目２番６号,,13,103,1050004,,,,,,,2025-06-09,1,,,,,アクティブフドウサン,0
287,2010401190890,新規,0,2025-06-09,2025-06-09,株式会社Ｐ＆Ｃ,,株式会社,東京都,港区,六本木５丁目１６番５号インペリアル六本木１号館１Ｆ,,13,103,1060032,,,,,,,2025-06-09,1,,,,,ピーアンドシー,0
297,2010701047808,新規,0,2025-06-09,2025-06-09,株式会社ＦａｓｔＷｏｒｋｓ,,株式会社,東京都,品川区,東五反田５丁目１０番１８号,,13,109,1410022,,,,,,,2025-06-09,1,,,,,ファストワークス,0
299,2010703007743,新規,0,2025-06-09,2025-06-09,合同会社ベイダー,,合同会社,東京都,品川区,荏原５丁目１５番１２号,,13,109,1420063,,,,,,,2025-06-09,1,,,,,ベイダー,0
301,2010903009985,新規,0,2025-06-09,2025-06-09,ＨＯＬＩＤＡＹ合同会社,,合同会社,東京都,世田谷区,玉堤２丁目６番１９－２０８号,,13,112,1580087,,,,,,,2025-06-09,1,,,,,ホリデイ,0
308,2011001170036,新規,0,2025-06-09,2025-06-09,株式会社Ａｒｔｙ　Ｉｎｔｅｌｌｉｇｅｎｃｅ　Ｌａｂ．,,株式会社,東京都,目黒区,上目黒３丁目３４番１２－３０５号,,13,110,1530051,,,,,,,2025-06-09,1,,,,,アーティインテリジェンスラボ,0
309,2011001170143,新規,0,2025-06-09,2025-06-09,株式会社ＫＩＭＡＭＡ,,株式会社,東京都,目黒区,目黒３丁目４番２７号,,13,110,1530063,,,,,,,2025-06-09,1,,,,,キママ,0
310,2011001170390,新規,0,2025-06-09,2025-06-09,リマインダ株式会社,,株式会社,東京都,渋谷区,本町５丁目２８番３号,,13,113,1510071,,,,,,,2025-06-09,1,,,,,リマインダ,0
312,2011003021781,新規,0,2025-06-09,2025-06-09,ＡＳＴＯＲＩＡ　ＴＯＫＹＯ合同会社,,合同会社,東京都,目黒区,青葉台３丁目１５番１７号ＦＡＲＯ中目黒１階,,13,110,1530042,,,,,,,2025-06-09,1,,,,,アストリアトウキョウ,0
313,2011003021823,新規,0,2025-06-09,2025-06-09,合同会社ｊｖｇｔ７ｘ,,合同会社,東京都,渋谷区,道玄坂１丁目１０番８号渋谷道玄坂東急ビル２Ｆ－Ｃ,,13,113,1500043,,,,,,,2025-06-09,1,,,,,ジェイブイジーティーナナエックス,0
315,2011101111971,新規,0,2025-06-09,2025-06-09,有山株式会社,,株式会社,東京都,新宿区,富久町３２－３東新富久町ビル３０３号室,,13,104,1620067,,,,,,,2025-06-09,1,,,,,アリヤマ,0
318,2011201026418,新規,0,2025-06-09,2025-06-09,株式会社ＳｐａｒｋＲｉｓｅ,,株式会社,東京都,中野区,東中野３丁目１８番７－１０１号,,13,114,1640003,,,,,,,2025-06-09,1,,,,,スパークライズ,0
319,2011203004727,新規,0,2025-06-09,2025-06-09,ポリートレード合同会社,,合同会社,東京都,中野区,上鷺宮４丁目１６番１８号,,13,114,1650031,,,,,,,2025-06-09,1,,,,,ポリートレード,0
321,2011301030641,新規,0,2025-06-09,2025-06-09,株式会社ＥｎＤｅｓｉｇｎ,,株式会社,東京都,杉並区,西荻北２丁目３番９号,,13,115,1670042,,,,,,,2025-06-09,1,,,,,エンデザイン,0
331,2013101009717,新規,0,2025-06-09,2025-06-09,株式会社ＭＳｅｅｍ,,株式会社,東京都,青梅市,今井１丁目３３４番地の３,,13,205,1980023,,,,,,,2025-06-09,1,,,,,エムシーム,0
336,2013301054414,新規,0,2025-06-09,2025-06-09,株式会社つむぐ,,株式会社,東京都,豊島区,南池袋４丁目２３番９号アレーズ南池袋９０１,,13,116,1710022,,,,,,,2025-06-09,1,,,,,ツムグ,0
341,2020001163288,新規,0,2025-06-09,2025-06-09,ナードアウト株式会社,,株式会社,神奈川県,川崎市中原区,小杉御殿町２丁目８６番地２３,,14,133,2110068,,,,,,,2025-06-09,1,,,,,ナードアウト,0
342,2020003028638,新規,0,2025-06-09,2025-06-09,合同会社カーボンニュートラルグーン２,,合同会社,神奈川県,横浜市金沢区,鳥浜町１７番地３,,14,108,2360002,,,,,,,2025-06-09,1,,,,,カーボンニュートラルグーンツー,0
345,2020005016896,新規,0,2025-06-09,2025-06-09,社会保険労務士法人トラストワーシー,,その他の設立登記法人,神奈川県,横浜市中区,本町３丁目２４番地１,,14,104,2310005,,,,,,,2025-06-09,1,,,,,トラストワーシー,0
352,2030001166843,新規,0,2025-06-09,2025-06-09,株式会社ＳａｌｅｓＳｈｉｆｔ,,株式会社,埼玉県,春日部市,樋籠５０６－１,,11,214,3440002,,,,,,,2025-06-09,1,,,,,セールスシフト,0
355,2030003026938,新規,0,2025-06-09,2025-06-09,合同会社インテリア大矢,,合同会社,埼玉県,三郷市,戸ケ崎１丁目１０７番地１１,,11,237,3410044,,,,,,,2025-06-09,1,,,,,インテリアオオヤ,0
356,2030003026946,新規,0,2025-06-09,2025-06-09,ＳＡＫＵＲＡ合同会社,,合同会社,埼玉県,狭山市,大字東三ツ木９３番地の４,,11,215,3501302,,,,,,,2025-06-09,1,,,,,サクラ,0
361,2040001139113,新規,0,2025-06-09,2025-06-09,株式会社Ｋｏｓａｉ‐Ｉｎｄｕｓｔｒｙ‐Ｇ,,株式会社,千葉県,市原市,中高根１４３１番地５,,12,219,2900242,,,,,,,2025-06-09,1,,,,,コサイインダストリージー,0
362,2040001139121,新規,0,2025-06-09,2025-06-09,株式会社清幸堂,,株式会社,千葉県,船橋市,高根台７丁目２９番１４号１Ｆ,,12,204,2740065,,,,,,,2025-06-09,1,,,,,セイコウドウ,0
363,2040001139138,新規,0,2025-06-09,2025-06-09,Ｅｒｉｍｏ株式会社,,株式会社,千葉県,千葉市美浜区,磯辺５丁目１番２号ザ・レジデンス検見川浜ガーデンズ６４０号,,12,106,2610012,,,,,,,2025-06-09,1,,,,,エリモ,0
364,2040001139146,新規,0,2025-06-09,2025-06-09,ＴｏｅＮｅｔ株式会社,,株式会社,千葉県,松戸市,二ツ木１２６９番地の７,,12,207,2700027,,,,,,,2025-06-09,1,,,,,トエネット,0
365,2040001139179,新規,0,2025-06-09,2025-06-09,株式会社ＯＬＴＩＮＡ　ＳＯＬＵＴＩＯＮＳ,,株式会社,千葉県,柏市,若柴１７８番地４柏の葉キャンパス１４８街区１Ｗ－３６０７,,12,217,2770871,,,,,,,2025-06-09,1,,,,,オルティナソリューションズ,0
370,2050003009338,新規,0,2025-06-09,2025-06-09,百合国際合同会社,,合同会社,茨城県,つくば市,二の宮４丁目３番地１０,,08,220,3050051,,,,,,,2025-06-09,1,,,,,ユリコクサイ,0
377,2070001043015,新規,0,2025-06-09,2025-06-09,いとぱーく株式会社,,株式会社,群馬県,富岡市,妙義町諸戸９６９番地１１,,10,210,3790209,,,,,,,2025-06-09,1,,,,,イトパーク,0
383,2110001039330,新規,0,2025-06-09,2025-06-09,株式会社ヤマヨ,,株式会社,新潟県,新潟市南区,大郷２４６０番地子,,15,106,9501404,,,,,,,2025-06-09,1,,,,,ヤマヨ,0
384,2110001039339,新規,0,2025-06-09,2025-06-09,株式会社ダイナスティーアーチェリー,,株式会社,新潟県,三条市,林町１丁目１８－１７エクセレンス林２０３,,15,204,9550061,,,,,,,2025-06-09,1,,,,,ダイナスティーアーチェリー,0
408,2120001276468,新規,0,2025-06-09,2025-06-09,株式会社サポエスト,,株式会社,大阪府,大阪市阿倍野区,播磨町１丁目２２番１８号,,27,119,5450022,,,,,,,2025-06-09,1,,,,,サポエスト,0
409,2120001276600,新規,0,2025-06-09,2025-06-09,大阪トップトレード株式会社,,株式会社,大阪府,大阪市淀川区,西中島７丁目１番３－３０８番,,27,123,5320011,,,,,,,2025-06-09,1,,,,,オオサカトップトレード,0
410,2120001276625,新規,0,2025-06-09,2025-06-09,株式会社ｍｕｎｅ‐ｍｅｅｔｓ,,株式会社,大阪府,大阪市西区,西本町１丁目１０番２２号ＡＸＩＳ西本町ビル,,27,106,5500005,,,,,,,2025-06-09,1,,,,,ムネミーツ,0
411,2120001276633,新規,0,2025-06-09,2025-06-09,金洲株式会社,,株式会社,大阪府,大阪市浪速区,下寺３丁目１９番３号海越ビル５０１,,27,111,5560001,,,,,,,2025-06-09,1,,,,,キンシュウ,0
412,2120001276674,新規,0,2025-06-09,2025-06-09,福阪株式会社,,株式会社,大阪府,大阪市住之江区,御崎１丁目１１－１９－４０３,,27,125,5590013,,,,,,,2025-06-09,1,,,,,フクハン,0
413,2120001276716,新規,0,2025-06-09,2025-06-09,株式会社ｃｏｅｕｒ　ｆｏｒｔ,,株式会社,大阪府,大阪市北区,梅田１丁目２番２号大阪駅前第２ビル１２－１２,,27,127,5300001,,,,,,,2025-06-09,1,,,,,クールフォール,0
420,2120101071851,新規,0,2025-06-09,2025-06-09,株式会社ｖｅｎｇａ,,株式会社,大阪府,岸和田市,西大路町２１－１０第二都ビル２０２,,27,202,5960802,,,,,,,2025-06-09,1,,,,,ベンガ,0
421,2120901051012,新規,0,2025-06-09,2025-06-09,株式会社リーズメディカル,,株式会社,大阪府,吹田市,藤が丘町１０番１１号,,27,205,5640081,,,,,,,2025-06-09,1,,,,,リーズメディカル,0
422,2120901051045,新規,0,2025-06-09,2025-06-09,フロネックス株式会社,,株式会社,大阪府,池田市,石橋１丁目２０―２０,,27,204,5630032,,,,,,,2025-06-09,1,,,,,フロネックス,0
428,2130001079812,新規,0,2025-06-09,2025-06-09,Ｋａｅｎ株式会社,,株式会社,京都府,京都市伏見区,深草枯木町４３番地２３,,26,109,6120875,,,,,,,2025-06-09,1,,,,,カエン,0
429,2130003010527,新規,0,2025-06-09,2025-06-09,Ｌｏｃａｌ　Ｒｅｃｓ合同会社,,合同会社,京都府,京都市北区,紫竹下本町４,,26,101,6038115,,,,,,,2025-06-09,1,,,,,ローカルレックス,0
433,2140001138807,新規,0,2025-06-09,2025-06-09,ＳＨＩＮＷＡ‐ＴＥＣ株式会社,,株式会社,兵庫県,宝塚市,安倉北３丁目５番３０号,,28,214,6650821,,,,,,,2025-06-09,1,,,,,シンワテック,0
434,2140001138815,新規,0,2025-06-09,2025-06-09,株式会社ＳＯＬＥＡＤＯ,,株式会社,兵庫県,西宮市,浜甲子園４丁目１番２４－９１４号,,28,204,6638154,,,,,,,2025-06-09,1,,,,,ソレアード,0
435,2140001138823,新規,0,2025-06-09,2025-06-09,株式会社ＢＡＢＩ,,株式会社,兵庫県,芦屋市,山芦屋町１１番６－３０５号,00139502,28,206,6590082,,,,,,,2025-06-09,1,,,,,バビ,0
436,2140001138831,新規,0,2025-06-09,2025-06-09,株式会社ＵｎｉｔｅＯｎｅ,,株式会社,兵庫県,西宮市,上甲子園５丁目８番７号,,28,204,6638114,,,,,,,2025-06-09,1,,,,,ユナイトワン,0
437,2140001138848,新規,0,2025-06-09,2025-06-09,株式会社ミズイファーム,,株式会社,兵庫県,南あわじ市,松帆北方１３０番地,,28,224,6560301,,,,,,,2025-06-09,1,,,,,ミズイファーム,0
438,2140001138880,新規,0,2025-06-09,2025-06-09,モトマネジメント株式会社,,株式会社,兵庫県,神戸市垂水区,舞子台８丁目４番１号,,28,108,6550046,,,,,,,2025-06-09,1,,,,,モトマネジメント,0
439,2140005027535,新規,0,2025-06-09,2025-06-09,一般社団法人日本へアケア＆コンパッション協会,,その他の設立登記法人,兵庫県,神戸市中央区,琴ノ緒町５丁目７番４号２０２号室,,28,110,6510094,,,,,,,2025-06-09,1,,,,,ニホンヘアケアアンドコンパッションキョウカイ,0
440,2150001028189,新規,0,2025-06-09,2025-06-09,株式会社Ｎｏｒｔｈｅｒｎ,,株式会社,奈良県,奈良市,神殿町４６３－２メゾンドカルム２－２０１,,29,201,6308441,,,,,,,2025-06-09,1,,,,,ノーザン,0
446,2170001018650,新規,0,2025-06-09,2025-06-09,株式会社はなぶさ商店,,株式会社,和歌山県,新宮市,緑ケ丘１丁目１番３４号,,30,207,6470043,,,,,,,2025-06-09,1,,,,,ハナブサショウテン,0
457,2180001167059,新規,0,2025-06-09,2025-06-09,株式会社Ｊａｄｅ,,株式会社,愛知県,名古屋市中村区,名駅４丁目２４番５号第２森ビル４０１,,23,105,4500002,,,,,,,2025-06-09,1,,,,,ジェイド,0
458,2180001167125,新規,0,2025-06-09,2025-06-09,株式会社ネバータップ,,株式会社,愛知県,名古屋市中区,千代田５丁目２０番６号,,23,106,4600012,,,,,,,2025-06-09,1,,,,,ネバータップ,0
459,2180001167199,新規,0,2025-06-09,2025-06-09,株式会社ミライのメダリスト,,株式会社,愛知県,大府市,東新町１丁目２３７番地,,23,223,4740073,,,,,,,2025-06-09,1,,,,,ミライノメダリスト,0
462,2180003028589,新規,0,2025-06-09,2025-06-09,合同会社ブライトリー,,合同会社,愛知県,尾張旭市,旭ケ丘町旭ケ丘５６２４－１,,23,226,4880083,,,,,,,2025-06-09,1,,,,,ブライトリー,0
464,2180301039890,新規,0,2025-06-09,2025-06-09,株式会社設楽ＢＡＳＥ,,株式会社,愛知県,北設楽郡設楽町,津具字上古町２８番地２,,23,561,4412601,,,,,,,2025-06-09,1,,,,,シタラベース,0
465,2180303006600,新規,0,2025-06-09,2025-06-09,Ｎ＆Ｍ合同会社,,合同会社,愛知県,岡崎市,板田町字沢渡り７番地２,,23,202,4443171,,,,,,,2025-06-09,1,,,,,エヌアンドエム,0
474,2200001043876,新規,0,2025-06-09,2025-06-09,株式会社クワイエット・プラン,,株式会社,岐阜県,岐阜市,寿町６丁目２５番地,,21,201,5008325,,,,,,,2025-06-09,1,,,,,クワイエットプラン,0
483,2210001020206,新規,0,2025-06-09,2025-06-09,ＣＲａＺＹ　Ｃｏ．株式会社,,株式会社,福井県,坂井市,春江町江留上昭和１３８番地,,18,210,9190463,,,,,,,2025-06-09,1,,,,,クレイジーコー,0
488,2240001065058,新規,0,2025-06-09,2025-06-09,株式会社ユーアンドビー,,株式会社,広島県,広島市東区,戸坂千足２丁目３番２９－４号,,34,102,7320009,,,,,,,2025-06-09,1,,,,,ユーアンドビー,0
491,2240003007248,新規,0,2025-06-09,2025-06-09,合同会社Ｒｅｆａ,,合同会社,広島県,広島市安佐南区,長束西５丁目３－２９,,34,105,7310136,,,,,,,2025-06-09,1,,,,,リファ,0
492,2250001021175,新規,0,2025-06-09,2025-06-09,株式会社星電業ホールディングス,,株式会社,山口県,山口市,深溝２６１番地１,,35,203,7540895,,,,,,,2025-06-09,1,,,,,ホシデンギョウホールディングス,0
495,2260001040265,新規,0,2025-06-09,2025-06-09,株式会社エフィカリンク,,株式会社,岡山県,岡山市北区,門前３６５番地８,,33,101,7011351,,,,,,,2025-06-09,1,,,,,エフィカリンク,0
496,2260001040273,新規,0,2025-06-09,2025-06-09,株式会社ＴＥＥＲＡ,,株式会社,岡山県,倉敷市,中庄２２３０番地９（５０１）,,33,202,7100016,,,,,,,2025-06-09,1,,,,,テラ,0
498,2280001009440,新規,0,2025-06-09,2025-06-09,株式会社カレント,,株式会社,島根県,出雲市,知井宮町５０１番地１,,32,203,6930033,,,,,,,2025-06-09,1,,,,,カレント,0
500,2290001110230,新規,0,2025-06-09,2025-06-09,乾昇株式会社,,株式会社,福岡県,福岡市中央区,白金２丁目１４－２６カーサ・プラティーノＢ棟,,40,133,8100012,,,,,,,2025-06-09,1,,,,,カンショウ,0
501,2290001110288,新規,0,2025-06-09,2025-06-09,株式会社サンビーム２,,株式会社,福岡県,宗像市,東郷２丁目１番２５号,,40,220,8113436,,,,,,,2025-06-09,1,,,,,サンビームツー,0
502,2290001110296,新規,0,2025-06-09,2025-06-09,ＥＳＢＯＸ株式会社,,株式会社,福岡県,三井郡大刀洗町,大字上高橋１１１５番地,,40,503,8301222,,,,,,,2025-06-09,1,,,,,イーエスボックス,0
503,2290001110313,新規,0,2025-06-09,2025-06-09,株式会社コンボイエクスプレス,,株式会社,福岡県,みやま市,高田町竹飯１０５３番地,,40,229,8350135,,,,,,,2025-06-09,1,,,,,コンボイエクスプレス,0
504,2290001110321,新規,0,2025-06-09,2025-06-09,シン・ギコウヤ株式会社,,株式会社,福岡県,福岡市南区,三宅１丁目２番１３号,,40,134,8111344,,,,,,,2025-06-09,1,,,,,シンギコウヤ,0
505,2290001110338,新規,0,2025-06-09,2025-06-09,株式会社創極,,株式会社,福岡県,太宰府市,向佐野４丁目４番１－１０２号,,40,221,8180135,,,,,,,2025-06-09,1,,,,,ソウゴク,0
506,2290001110346,新規,0,2025-06-09,2025-06-09,愛＿普順株式会社,00139503,株式会社,福岡県,福岡市博多区,奈良屋町四丁目１０－２０２号,,40,132,8120023,,,,,,,2025-06-09,1,,,,,アイゲンフジュン,0
507,2290001110354,新規,0,2025-06-09,2025-06-09,株式会社ＣＯＤＥＣＫ,,株式会社,福岡県,福岡市早良区,野芥２丁目６番７号,,40,137,8140171,,,,,,,2025-06-09,1,,,,,コーデック,0
511,2290003016954,新規,0,2025-06-09,2025-06-09,合同会社リンベース,,合同会社,福岡県,福岡市東区,千早５丁目９番８－１７０８号ＭＪＲ千早ミッドスクエア,,40,131,8130044,,,,,,,2025-06-09,1,,,,,リンベース,0
512,2290003016962,新規,0,2025-06-09,2025-06-09,合同会社Ａｓｃｅｎｄ,,合同会社,福岡県,福岡市早良区,星の原団地４８番３０６号,,40,137,8140162,,,,,,,2025-06-09,1,,,,,アセンド,0
516,2310003005021,新規,0,2025-06-09,2025-06-09,合同会社ｃｌｏｃｈｅｔｔｅ,,合同会社,長崎県,長崎市,今博多町１７古賀ビル１階,,42,201,8500025,,,,,,,2025-06-09,1,,,,,クロシェット,0
521,2330001033278,新規,0,2025-06-09,2025-06-09,田畑土木工業株式会社,,株式会社,熊本県,熊本市西区,花園７丁目１３番１３号,,43,103,8600072,,,,,,,2025-06-09,1,,,,,タバタドボクコウギョウ,0
522,2330001033286,新規,0,2025-06-09,2025-06-09,株式会社Ｉｗａｔａｎｉ,,株式会社,熊本県,宇土市,新開町１８９５番地３０,,43,211,8690403,,,,,,,2025-06-09,1,,,,,イワタニ,0
526,2330003011050,新規,0,2025-06-09,2025-06-09,合同会社ＢＡＮＩ　ＪＡＰＡＮ,,合同会社,熊本県,阿蘇市,乙姫２０９３番地５,,43,214,8692226,,,,,,,2025-06-09,1,,,,,バニジャパン,0
527,2340001027411,新規,0,2025-06-09,2025-06-09,株式会社ブルームネクスト,,株式会社,鹿児島県,鹿児島市,東谷山５丁目５番３号,,46,201,8910113,,,,,,,2025-06-09,1,,,,,ブルームネクスト,0
553,2460105002315,新規,0,2025-06-09,2025-06-09,Ｆｏｒ　ｙｏｕ協同組合,,その他の設立登記法人,北海道,帯広市,東二条南６丁目２番地８,,01,207,0800802,,,,,,,2025-06-09,1,,,,,フォーユー,0
556,2480001012853,新規,0,2025-06-09,2025-06-09,株式会社ニシテックホールディングス,,株式会社,徳島県,徳島市,津田海岸町５番５１号,,36,201,7708001,,,,,,,2025-06-09,1,,,,,ニシテックホールディングス,0
561,2500003003534,新規,0,2025-06-09,2025-06-09,合同会社ろくなな,,合同会社,愛媛県,伊予郡砥部町,宮内３３３番地,,38,402,7912120,,,,,,,2025-06-09,1,,,,,ロクナナ,0
574,3010001255738,新規,0,2025-06-09,2025-06-09,株式会社Ｅ．Ｍ．Ｉ,,株式会社,東京都,千代田区,丸の内２丁目３番２号郵船ビルディング,,13,101,1000005,,,,,,,2025-06-09,1,,,,,イーエムアイ,0
575,3010001255762,新規,0,2025-06-09,2025-06-09,株式会社ノーブスラボ,,株式会社,東京都,文京区,湯島１丁目１番２号ＡＴＭビル２Ｆ,,13,105,1130034,,,,,,,2025-06-09,1,,,,,ノーブスラボ,0
576,3010001255804,新規,0,2025-06-09,2025-06-09,株式会社ヒサックス,,株式会社,東京都,中央区,銀座６丁目３番１５号長谷第二ビル３階,,13,102,1040061,,,,,,,2025-06-09,1,,,,,ヒサックス,0
579,3010003047217,新規,0,2025-06-09,2025-06-09,Ｓａｒｅｅ’ｓ合同会社,,合同会社,東京都,中央区,銀座１丁目１２－４Ｎ＆ＥＢＬＤ．７階,,13,102,1040061,,,,,,,2025-06-09,1,,,,,サリーズ,0
580,3010003047605,新規,0,2025-06-09,2025-06-09,Ｏｒｉｅｎｔａｌ　ｅｓｔａｔｅ合同会社,,合同会社,東京都,文京区,本駒込５丁目７０番２－１２０６号,,13,105,1130021,,,,,,,2025-06-09,1,,,,,オリエンタルエステート,0
581,3010005040095,新規,0,2025-06-09,2025-06-09,一般財団法人ＫＵＲＯＫＩ　ＦＯＵＮＤＡＴＩＯＮ,,その他の設立登記法人,東京都,文京区,本郷５丁目３２番９号,,13,105,1130033,,,,,,,2025-06-09,1,,,,,クロキファンデーション,0
591,3010401190790,新規,0,2025-06-09,2025-06-09,株式会社Ｇｒｏｗｔｅｃｈ,,株式会社,東京都,港区,南青山３丁目１－３６,,13,103,1070062,,,,,,,2025-06-09,1,,,,,グロウテック,0
592,3010401190898,新規,0,2025-06-09,2025-06-09,誉田商業株式会社,,株式会社,東京都,港区,新橋４丁目３１番３号第３名和ビル５０４号室,,13,103,1050004,,,,,,,2025-06-09,1,,,,,ホメタショウギョウ,0
593,3010401190915,新規,0,2025-06-09,2025-06-09,Ｆｏｃｕｓｒｉｔｅ　Ｇｒｏｕｐ　Ｊａｐａｎ株式会社,,株式会社,東京都,港区,虎ノ門４丁目３番１号城山トラストタワー東京赤坂法律事務所内,,13,103,1050001,,,,,,,2025-06-09,1,,,,,フォーカスライトグループジャパン,0
598,3010601067426,新規,0,2025-06-09,2025-06-09,株式会社本多地所,,株式会社,東京都,江東区,亀戸５丁目３０番９－８０６号,,13,108,1360071,,,,,,,2025-06-09,1,,,,,ホンダジショ,0
610,3010901057498,新規,0,2025-06-09,2025-06-09,株式会社Ａ‐ＴｓｕＮａｇｉ,,株式会社,東京都,世田谷区,成城３丁目１２番１３号,,13,112,1570066,,,,,,,2025-06-09,1,,,,,エーツナギ,0
611,3010901057515,新規,0,2025-06-09,2025-06-09,株式会社Ｇｒｏｕｔｈ　Ｗａｙ,,株式会社,東京都,世田谷区,駒沢１丁目１３番１２号,,13,112,1540012,,,,,,,2025-06-09,1,,,,,グロースウェイ,0
615,3011001169878,新規,0,2025-06-09,2025-06-09,株式会社Ｔｒａｎｓｃｅｎｄｅｎｃｅ,,株式会社,東京都,目黒区,自由が丘３丁目５番３号,,13,110,1520035,,,,,,,2025-06-09,1,,,,,トランスセンデンス,0
616,3011001169993,新規,0,2025-06-09,2025-06-09,株式会社ＴＨＥ　ＢＬＡＣＫ　ＪＰ,,株式会社,東京都,渋谷区,神宮前５丁目５０番６号サクセス青山ビル６Ｆ,,13,113,1500001,,,,,,,2025-06-09,1,,,,,ザブラックジェーピー,0
617,3011001170010,新規,0,2025-06-09,2025-06-09,株式会社離都離音,,株式会社,東京都,目黒区,上目黒１丁目５番１３号,,13,110,1530051,,,,,,,2025-06-09,1,,,,,リトリート,0
618,3011001170316,新規,0,2025-06-09,2025-06-09,株式会社アスピレテックコンサルティング,,株式会社,東京都,渋谷区,渋谷２丁目２２－３渋谷東口ビル６Ｆ,,13,113,1500002,,,,,,,2025-06-09,1,,,,,アスピレテックコンサルティング,0
623,3011101111979,新規,0,2025-06-09,2025-06-09,株式会社ＫＲ　Ｂｒｏｔｈｅｒｓ,,株式会社,東京都,新宿区,西新宿３丁目３番１３号西新宿水間ビル６階,,13,104,1600023,,,,,,,2025-06-09,1,,,,,ケーアールブラザーズ,0
626,3011203004718,新規,0,2025-06-09,2025-06-09,合同会社しるくりあん,,合同会社,東京都,中野区,中野１丁目２３番７号,,13,114,1640001,,,,,,,2025-06-09,1,,,,,シルクリアン,0
627,3011403004724,新規,0,2025-06-09,2025-06-09,合同会社未来展界,,合同会社,東京都,板橋区,南町３６番６号,,13,119,1730027,,,,,,,2025-06-09,1,,,,,ミライテンカイ,0
630,3011503006570,新規,0,2025-06-09,2025-06-09,合同会社笑む,,合同会社,東京都,北区,神谷２丁目１４番１２号,,13,117,1150043,,,,,,,2025-06-09,1,,,,,エム,0
631,3011601028707,新規,0,2025-06-09,2025-06-09,Ｅｌｅ‐ｔｉｏｎ株式会社,,株式会社,東京都,練馬区,土支田４丁目６番１０号ＨＩビレッジＣ－１,,13,120,1790076,,,,,,,2025-06-09,1,,,,,エレーション,0
637,3012801024017,新規,0,2025-06-09,2025-06-09,株式会社ＴｉｇｅｒＷｏｒｋｓ,,株式会社,東京都,昭島市,福島町９０８番地３３,,13,207,1960031,,,,,,,2025-06-09,1,,,,,タイガーワークス,0
651,3020001163262,新規,0,2025-06-09,2025-06-09,株式会社リステート,,株式会社,神奈川県,横浜市南区,八幡町２番地１グリーンテラスＢ－１,,14,105,2320037,,,,,,,2025-06-09,1,,,,,リステート,0
654,3020003028629,新規,0,2025-06-09,2025-06-09,ライフアート合同会社,,合同会社,神奈川県,川崎市宮前区,菅生２丁目１６－１５,,14,136,2160015,,,,,,,2025-06-09,1,,,,,ライフアート,0
655,3020003028637,新規,0,2025-06-09,2025-06-09,合同会社カーボンニュートラルグーン１,,合同会社,神奈川県,横浜市金沢区,鳥浜町１７番地３,,14,108,2360002,,,,,,,2025-06-09,1,,,,,カーボンニュートラルグーンワン,0
656,3020005016895,新規,0,2025-06-09,2025-06-09,一般社団法人ビジネス傾聴協会,,その他の設立登記法人,神奈川県,横浜市港北区,日吉５丁目１２－２１－４０１,,14,109,2230061,,,,,,,2025-06-09,1,,,,,ビジネスケイチョウキョウカイ,0
657,3021001085430,新規,0,2025-06-09,2025-06-09,株式会社バディ不動産,,株式会社,神奈川県,座間市,相武台３丁目２７番４６号,,14,216,2520011,,,,,,,2025-06-09,1,,,,,バディフドウサン,0
667,3030001166974,新規,0,2025-06-09,2025-06-09,株式会社Ｇｒｏｗ,,株式会社,埼玉県,草加市,弁天２丁目３１番２３号,,11,221,3400004,,,,,,,2025-06-09,1,,,,,グロウ,0
668,3030001166990,新規,0,2025-06-09,2025-06-09,株式会社ＴＵＭＩＫＩ,,株式会社,埼玉県,さいたま市西区,大字内野本郷３７９－７,,11,101,3310045,,,,,,,2025-06-09,1,,,,,ツミキ,0
676,3040001139087,新規,0,2025-06-09,2025-06-09,株式会社ムビトル,,株式会社,千葉県,松戸市,本町１７－１１芦澤ビル６Ｆ,,12,207,2710091,,,,,,,2025-06-09,1,,,,,ムビトル,0
677,3040001139112,新規,0,2025-06-09,2025-06-09,株式会社部原ベース,,株式会社,千葉県,勝浦市,部原１９２８番地５８ロイヤルヴァンベール勝浦ビーチ１２１０号,,12,218,2995223,,,,,,,2025-06-09,1,,,,,ヘバラベース,0
678,3040001139137,新規,0,2025-06-09,2025-06-09,株式会社Ｃ‐ＴＥＣＳ,,株式会社,千葉県,八千代市,大和田５５２番地５,,12,221,2760045,,,,,,,2025-06-09,1,,,,,シーテックス,0
682,3040003027777,新規,0,2025-06-09,2025-06-09,Ｂｒｉｇｈｔ　Ｓｏｕｎｄ合同会社,,合同会社,千葉県,船橋市,本町６丁目１８－１９第３山中ビル４０１号室,,12,204,2730005,,,,,,,2025-06-09,1,,,,,ブライトサウンド,0
683,3050001056760,新規,0,2025-06-09,2025-06-09,株式会社エムウォール,,株式会社,茨城県,古河市,女沼１０００番地４,,08,204,3060226,,,,,,,2025-06-09,1,,,,,エムウォール,0
684,3050001056785,新規,0,2025-06-09,2025-06-09,株式会社山建,,株式会社,茨城県,常総市,兵町８８番地２,,08,211,3030014,,,,,,,2025-06-09,1,,,,,ヤマケン,0
687,3050003009329,新規,0,2025-06-09,2025-06-09,合同会社ＮＥＸＡ,,合同会社,茨城県,笠間市,鯉淵６２４９番地１９,,08,216,3091703,,,,,,,2025-06-09,1,,,,,ネクサ,0
696,3080001014187,新規,0,2025-06-09,2025-06-09,株式会社大池木材工業所,,株式会社,静岡県,島田市,２３２１番地,,22,209,4270000,,,,,,,2025-06-09,1,,,,,オオイケモクザイコウギョウショ,0
699,3100001038679,新規,0,2025-06-09,2025-06-09,株式会社やまと造園,,株式会社,長野県,大町市,大町５０８８番地１,,20,212,3980002,,,,,,,2025-06-09,1,,,,,ヤマトゾウエン,0
701,3100003008226,新規,0,2025-06-09,2025-06-09,合同会社Ｇｌｏｂａｌ　ａｔ　Ｈｅａｒｔ,,合同会社,長野県,岡谷市,神明町４丁目２０番２号,,20,204,3940004,,,,,,,2025-06-09,1,,,,,グローバルアットハート,0
717,3120001276649,新規,0,2025-06-09,2025-06-09,株式会社ＴＩＰ　Ｂａｓｅ　Ｗｏｒｋｓ,,株式会社,大阪府,大阪市浪速区,日本橋西２丁目８番３号伸和ビル４０５号室,,27,111,5560004,,,,,,,2025-06-09,1,,,,,ティーアイピーベースワークス,0
718,3120001276657,新規,0,2025-06-09,2025-06-09,赤松株式会社,,株式会社,大阪府,大阪市中央区,森ノ宮中央１丁目１８番２２号エスリード森ノ宮中央６０３号,,27,128,5400003,,,,,,,2025-06-09,1,,,,,アカマツ,0
719,3120001276665,新規,0,2025-06-09,2025-06-09,Ｃａｒｂｏｎ　Ｒｉｖｅｒ　Ｔｅｃｈ株式会社,,株式会社,大阪府,大阪市住吉区,山之内３丁目１２番１３号エイコーマンションＡ棟２３号,,27,120,5580023,,,,,,,2025-06-09,1,,,,,カーボンリバーテック,0
720,3120001276673,新規,0,2025-06-09,2025-06-09,株式会社Ｌ‐ｍｉｏ,,株式会社,大阪府,大阪市中央区,高麗橋２丁目５番１０号オーバンビル９Ｆ,,27,128,5410043,,,,,,,2025-06-09,1,,,,,エルミオ,0
721,3120001276707,新規,0,2025-06-09,2025-06-09,株式会社ｗｉｎ　ｃｏｍｐａｎｙ,,株式会社,大阪府,大阪市東住吉区,住道矢田９丁目９番３２号,,27,121,5460022,,,,,,,2025-06-09,1,,,,,ウィンカンパニー,0
722,3120001276715,新規,0,2025-06-09,2025-06-09,株式会社五階百貨店,,株式会社,大阪府,大阪市浪速区,日本橋東１丁目３番８号,,27,111,5560006,,,,,,,2025-06-09,1,,,,,ゴカイヒャッカテン,0
723,3120001276756,新規,0,2025-06-09,2025-06-09,日本地所めぐみ株式会社,,株式会社,大阪府,大阪市中央区,平野町１丁目７番３号,,27,128,5410046,,,,,,,2025-06-09,1,,,,,ニホンジショメグミ,0
727,3120003029699,新規,0,2025-06-09,2025-06-09,ＡＲＲＯＷ　ＭＯＴＯＲ　ＨＯＭＥ合同会社,,合同会社,大阪府,大阪市生野区,小路３丁目５番１６号三井アパート２１２,,27,116,5440002,,,,,,,2025-06-09,1,,,,,アローモーターホーム,0
736,3120901051011,新規,0,2025-06-09,2025-06-09,株式会社エンリンク,,株式会社,大阪府,吹田市,桃山台５丁目４番２－９０６号,,27,205,5650854,,,,,,,2025-06-09,1,,,,,エンリンク,0
756,3140001138806,新規,0,2025-06-09,2025-06-09,藤井電工株式会社,,株式会社,兵庫県,高砂市,竜山１丁目１１番１０号,,28,216,6760811,,,,,,,2025-06-09,1,,,,,フジイデンコウ,0
757,3140001138814,新規,0,2025-06-09,2025-06-09,株式会社ＲＩＳＩＮＧリクルートメント,,株式会社,兵庫県,神戸市中央区,海岸通３丁目１番１号４Ｆ,,28,110,6500024,,,,,,,2025-06-09,1,,,,,ライジングリクルートメント,0
758,3140001138830,新規,0,2025-06-09,2025-06-09,株式会社ＳＩＤＥ７,,株式会社,兵庫県,神戸市北区,藤原台北町５丁目２番２－１０４号,,28,109,6511301,,,,,,,2025-06-09,1,,,,,サイドセブン,0
759,3140001138855,新規,0,2025-06-09,2025-06-09,株式会社ＡＲＸ,,株式会社,兵庫県,西宮市,甲子園口３丁目２５番９－３号２階,,28,204,6638113,,,,,,,2025-06-09,1,,,,,アークス,0
761,3140003022157,新規,0,2025-06-09,2025-06-09,とどりーむ合同会社,,合同会社,兵庫県,南あわじ市,八木鳥井３１２番地２,,28,224,6560433,,,,,,,2025-06-09,1,,,,,トドリーム,0
762,3140003022181,新規,0,2025-06-09,2025-06-09,合同会社脈脈,,合同会社,兵庫県,宝塚市,仁川団地５番８－４０１号,,28,214,6650066,,,,,,,2025-06-09,1,,,,,ミャクミャク,0
766,3160001026819,新規,0,2025-06-09,2025-06-09,株式会社小川硝子建材,,株式会社,滋賀県,近江八幡市,加茂町６３７番地６,,25,204,5230058,,,,,,,2025-06-09,1,,,,,オガワガラスケンザイ,0
768,3160003003502,新規,0,2025-06-09,2025-06-09,エンゼルトランプホールディング合同会社,,合同会社,滋賀県,東近江市,青野町４６００番地,,25,213,5270232,,,,,,,2025-06-09,1,,,,,エンゼルトランプホールディング,0
774,3180001167116,新規,0,2025-06-09,2025-06-09,株式会社ＩＨＧ,,株式会社,愛知県,名古屋市中村区,名駅４丁目２４番５号第２森ビル４０１,,23,105,4500002,,,,,,,2025-06-09,1,,,,,アイエイチジー,0
775,3180001167157,新規,0,2025-06-09,2025-06-09,ＫｅｅＰｅｒエージェンシー株式会社,,株式会社,愛知県,大府市,吉川町４丁目１７番地,,23,223,4740046,,,,,,,2025-06-09,1,,,,,キーパーエージェンシー,0
776,3180001167198,新規,0,2025-06-09,2025-06-09,株式会社Ｐｉｃｔｏ,,株式会社,愛知県,名古屋市南区,寺部通２丁目９番地の１,,23,112,4570072,,,,,,,2025-06-09,1,,,,,ピクト,0
777,3180001167207,新規,0,2025-06-09,2025-06-09,積勝株式会社,,株式会社,愛知県,北名古屋市,六ツ師北屋敷２４１９番地,,23,234,4810001,,,,,,,2025-06-09,1,,,,,セキショウ,0
782,3180003028563,新規,0,2025-06-09,2025-06-09,ＡＲ　ＴＲＡＤＩＮＧ合同会社,,合同会社,愛知県,名古屋市中村区,亀島２丁目１７番２３号カルム亀島７０６号,,23,105,4530013,,,,,,,2025-06-09,1,,,,,エーアールトレーディング,0
783,3180005021095,新規,0,2025-06-09,2025-06-09,特定非営利活動法人名古屋高齢者支援の輪,,その他の設立登記法人,愛知県,名古屋市西区,名西１丁目２４番１５号上良ビル２Ｆ,,23,104,4510064,,,,,,,2025-06-09,1,,,,,ナゴヤコウレイシャシエンノワ,0
793,3200003006871,新規,0,2025-06-09,2025-06-09,合同会社ＳＪ,,合同会社,岐阜県,岐阜市,玉姓町３丁目２７番地７－７０１号室,,21,201,5008846,,,,,,,2025-06-09,1,,,,,エスジェイ,0
799,3230001020946,新規,0,2025-06-09,2025-06-09,ＡＰＪ株式会社,,株式会社,富山県,高岡市,井口本江４４７番地１,,16,202,9330807,,,,,,,2025-06-09,1,,,,,エーピージェー,0
800,3240001065057,新規,0,2025-06-09,2025-06-09,株式会社オフィスガイド,,株式会社,広島県,広島市安芸区,畑賀３丁目３１番４０号,,34,107,7360088,,,,,,,2025-06-09,1,,,,,オフィスガイド,0
809,3260001040248,新規,0,2025-06-09,2025-06-09,株式会社ＳＳＭ,,株式会社,岡山県,岡山市南区,新保９６７番地１,,33,104,7000945,,,,,,,2025-06-09,1,,,,,エスエスエム,0
810,3260001040264,新規,0,2025-06-09,2025-06-09,株式会社スカイフィールド,,株式会社,岡山県,浅口郡里庄町,大字新庄５３４１番地１,,33,445,7190302,,,,,,,2025-06-09,1,,,,,スカイフィールド,0
811,3260003005208,新規,0,2025-06-09,2025-06-09,合同会社ボルドー,,合同会社,岡山県,岡山市中区,海吉２２３６番地１０,,33,102,7038261,,,,,,,2025-06-09,1,,,,,ボルドー,0
814,3290001110304,新規,0,2025-06-09,2025-06-09,株式会社愛菜野,,株式会社,福岡県,大野城市,南ケ丘２丁目１番１号,,40,219,8160964,,,,,,,2025-06-09,1,,,,,アイサイヤ,0
815,3290001110329,新規,0,2025-06-09,2025-06-09,株式会社Ｓｔａｃｋ　Ｖｉｒｔｕｅ,,株式会社,福岡県,福岡市東区,青葉６丁目２０番１号,,40,131,8130025,,,,,,,2025-06-09,1,,,,,スタックバーチュ,0
816,3290001110345,新規,0,2025-06-09,2025-06-09,株式会社クレイン,,株式会社,福岡県,福岡市早良区,原５丁目２番２号ライフピア原６階,,40,137,8140022,,,,,,,2025-06-09,1,,,,,クレイン,0
817,3290001110353,新規,0,2025-06-09,2025-06-09,クリーンゼット株式会社,,株式会社,福岡県,福岡市早良区,南庄１丁目１５番４号,,40,137,8140031,,,,,,,2025-06-09,1,,,,,クリーンゼット,0
819,3290003016846,新規,0,2025-06-09,2025-06-09,百千鳥合同会社,,合同会社,福岡県,福岡市中央区,地行４丁目８番１１号２０２,,40,133,8100064,,,,,,,2025-06-09,1,,,,,モモチドリ,0
820,3290003016945,新規,0,2025-06-09,2025-06-09,合同会社Ａｓｓｉｓｔ,,合同会社,福岡県,福岡市城南区,堤２丁目２９番１２号,,40,136,8140151,,,,,,,2025-06-09,1,,,,,アシスト,0
821,3290003016953,新規,0,2025-06-09,2025-06-09,合同会社ブーケ,,合同会社,福岡県,飯塚市,楽市５０９番１,,40,205,8200074,,,,,,,2025-06-09,1,,,,,ブーケ,0
822,3290003016961,新規,0,2025-06-09,2025-06-09,合同会社ＢＢＴ,,合同会社,福岡県,春日市,上白水７丁目１０６番地３ＤｒｅａｍＳｔａｇｅ博多南Ｃｌｅｍｅｎｔ１０１号,,40,218,8160844,,,,,,,2025-06-09,1,,,,,ビービーティー,0
825,3290801031609,新規,0,2025-06-09,2025-06-09,株式会社ＣＯＮＤＯＲ,,株式会社,福岡県,北九州市小倉北区,室町２丁目１０番４号,,40,106,8030812,,,,,,,2025-06-09,1,,,,,コンドル,0
826,3290801031617,新規,0,2025-06-09,2025-06-09,株式会社ドレミ,,株式会社,福岡県,北九州市八幡西区,幸神３丁目３番３号,,40,109,8060055,,,,,,,2025-06-09,1,,,,,ドレミ,0
832,3340001027393,新規,0,2025-06-09,2025-06-09,株式会社ナノシロキサン,,株式会社,鹿児島県,鹿児島市,郡元１丁目２１－４０鹿児島大学郡元キャンパス化学生命工学棟１Ｆオープンラボ１－１,,46,201,8900065,,,,,,,2025-06-09,1,,,,,ナノシロキサン,0
839,3370001052686,新規,0,2025-06-09,2025-06-09,株式会社北部物産,,株式会社,宮城県,仙台市若林区,六丁の目中町２１番１２号,,04,103,9840012,,,,,,,2025-06-09,1,,,,,ホクブブッサン,0
843,3370003007127,新規,0,2025-06-09,2025-06-09,たけうちーむ合同会社,,合同会社,宮城県,東松島市,赤井字川前二１９５番地１６,,04,214,9810501,,,,,,,2025-06-09,1,,,,,タケウチーム,0
859,3430001094581,新規,0,2025-06-09,2025-06-09,ＮＨＣ北海道株式会社,,株式会社,北海道,札幌市北区,北七条西４丁目１番地１トーカン札幌第一キャステール６０７,,01,102,0600807,,,,,,,2025-06-09,1,,,,,エヌエイチシーホッカイドウ,0
865,3430003017763,新規,0,2025-06-09,2025-06-09,合同会社ｅｎｃｉｒｃｌｅ,,合同会社,北海道,磯谷郡蘭越町,字湯里１６２－７６,,01,394,0481321,,,,,,,2025-06-09,1,,,,,エンサークル,0
869,3450003002672,新規,0,2025-06-09,2025-06-09,合同会社ＭＹＴＨＩＣ　ＬＡＢ,,合同会社,北海道,旭川市,四条通７丁目アスクウッドビル１階,,01,204,0700034,,,,,,,2025-06-09,1,,,,,ミシックラボ,0
874,3470003002893,新規,0,2025-06-09,2025-06-09,合同会社ｈａｎａ,,合同会社,香川県,高松市,牟礼町大町５８０番地６,,37,201,7610122,,,,,,,2025-06-09,1,,,,,ハナ,0
884,4010001255613,新規,0,2025-06-09,2025-06-09,株式会社ＦＬＡＴ,,株式会社,東京都,文京区,本郷４丁目１２番１６－７０６号,,13,105,1130033,,,,,,,2025-06-09,1,,,,,フラット,0
885,4010001255695,新規,0,2025-06-09,2025-06-09,株式会社雅海ブリッジ,,株式会社,東京都,千代田区,大手町１丁目５番１号大手町ファーストスクエアイーストタワー,,13,101,1000004,,,,,,,2025-06-09,1,,,,,マサミブリッジ,0
886,4010001255786,新規,0,2025-06-09,2025-06-09,株式会社ＭＥＡ音楽事務所,,株式会社,東京都,中央区,銀座６丁目３番５号第二ソワレドビル３階,,13,102,1040061,,,,,,,2025-06-09,1,,,,,エムイーエーオンガクジムショ,0
890,4010003047587,新規,0,2025-06-09,2025-06-09,合同会社Ｔ＆Ｔ,,合同会社,東京都,中央区,日本橋室町１丁目１１番１２号日本橋水野ビル７階,,13,102,1030022,,,,,,,2025-06-09,1,,,,,ティアンドティ,0
891,4010005040160,新規,0,2025-06-09,2025-06-09,弁護士法人相生綜合法律事務所,,その他の設立登記法人,東京都,中央区,銀座８丁目１７－５,,13,102,1040061,,,,,,,2025-06-09,1,,,,,,0
895,4010103002599,新規,0,2025-06-09,2025-06-09,Ｍｏｕｎｔａｉｎｆｏｌｄ合同会社,,合同会社,東京都,八王子市,下恩方町２１１０―１,,13,201,1920154,,,,,,,2025-06-09,1,,,,,マウンテンフォールド,0
909,4010401190807,新規,0,2025-06-09,2025-06-09,株式会社ママズライク,,株式会社,東京都,港区,三田１丁目３番３５号,,13,103,1080073,,,,,,,2025-06-09,1,,,,,ママズライク,0
910,4010401190823,新規,0,2025-06-09,2025-06-09,株式会社ビオメンズ,,株式会社,東京都,港区,南青山２丁目２２番１９号アドバンテック南青山ビル５Ｆ,,13,103,1070062,,,,,,,2025-06-09,1,,,,,ビオメンズ,0
911,4010401190889,新規,0,2025-06-09,2025-06-09,ホーヴ株式会社,,株式会社,東京都,港区,芝５丁目２７番３号ＭＢＣ・Ａ－１３,,13,103,1080014,,,,,,,2025-06-09,1,,,,,ホーヴ,0
912,4010401190906,新規,0,2025-06-09,2025-06-09,株式会社ＷａｎｎａＢｅ,,株式会社,東京都,港区,西新橋３丁目１７番７号,,13,103,1050003,,,,,,,2025-06-09,1,,,,,ワナビー,0
914,4010403035299,新規,0,2025-06-09,2025-06-09,合同会社ガレリア,,合同会社,東京都,港区,南青山２丁目２番１５号,,13,103,1070062,,,,,,,2025-06-09,1,,,,,ガレリア,0
915,4010403035324,新規,0,2025-06-09,2025-06-09,合同会社ＺＵＳＨＯ,,合同会社,東京都,港区,東麻布３丁目７番１号２０３,,13,103,1060044,,,,,,,2025-06-09,1,,,,,ズショ,0
919,4010601067441,新規,0,2025-06-09,2025-06-09,ＰＩＣ株式会社,,株式会社,東京都,江東区,豊洲６丁目２－２９－３００８,,13,108,1350061,,,,,,,2025-06-09,1,,,,,ピーアイシー,0
923,4010701047822,新規,0,2025-06-09,2025-06-09,勝栄警備保障株式会社,,株式会社,東京都,品川区,東品川１丁目２７番６号３０１,,13,109,1400002,,,,,,,2025-06-09,1,,,,,ショウエイケイビホショウ,0
937,4011001169729,新規,0,2025-06-09,2025-06-09,株式会社アローフライト,,株式会社,東京都,渋谷区,道玄坂１丁目１０番８号渋谷道玄坂東急ビル２Ｆ－Ｃ,,13,113,1500043,,,,,,,2025-06-09,1,,,,,アローフライト,0
938,4011001169910,新規,0,2025-06-09,2025-06-09,株式会社ＰＣＫＬ　Ｓｔｕｄｉｏ,,株式会社,東京都,渋谷区,広尾５丁目１４番２号,,13,113,1500012,,,,,,,2025-06-09,1,,,,,ピーシーケーエルスタジオ,0
939,4011001170109,新規,0,2025-06-09,2025-06-09,株式会社ｇｈｅｅ,,株式会社,東京都,渋谷区,道玄坂１丁目１０番８号渋谷道玄坂東急ビル２Ｆ－Ｃ,,13,113,1500043,,,,,,,2025-06-09,1,,,,,ギー,0
946,4011101111895,新規,0,2025-06-09,2025-06-09,ＴＨＥ　ＰＯＴ株式会社,,株式会社,東京都,新宿区,新宿４丁目１番６号ＪＲ新宿ミライナタワー２０階,,13,104,1600022,,,,,,,2025-06-09,1,,,,,ザポット,0
947,4011101111986,新規,0,2025-06-09,2025-06-09,株式会社ハイエルトン,,株式会社,東京都,新宿区,四谷４丁目２８番２０－４０１号,,13,104,1600004,,,,,,,2025-06-09,1,,,,,ハイエルトン,0
948,4011101112002,新規,0,2025-06-09,2025-06-09,Ｘ‐Ｐｅｏｐｌｅ株式会社,,株式会社,東京都,新宿区,西新宿３丁目３番１３号西新宿水間ビル２Ｆ,,13,104,1600023,,,,,,,2025-06-09,1,,,,,クロスピープル,0
953,4011401027156,新規,0,2025-06-09,2025-06-09,株式会社ＢＩＭＡＬ,,株式会社,東京都,板橋区,大山東町５９番８号ドルメン大山３０２号室,,13,119,1730014,,,,,,,2025-06-09,1,,,,,ビマル,0
956,4011601028714,新規,0,2025-06-09,2025-06-09,株式会社ＢＯＮＤ,,株式会社,東京都,練馬区,向山１丁目１８番１８－９０３号,,13,120,1760022,,,,,,,2025-06-09,1,,,,,ボンド,0
962,4012703003290,新規,0,2025-06-09,2025-06-09,まちのね合同会社,,合同会社,東京都,小平市,上水新町１丁目１７－１８,,13,211,1870023,,,,,,,2025-06-09,1,,,,,マチノネ,0
963,4012805003346,新規,0,2025-06-09,2025-06-09,一般社団法人ネオおば,,その他の設立登記法人,東京都,国立市,富士見台１丁目４７番地の３,,13,215,1860003,,,,,,,2025-06-09,1,,,,,ネオオバ,0
970,4013305003720,新規,0,2025-06-09,2025-06-09,一般社団法人早産児神経発達学会,,その他の設立登記法人,東京都,豊島区,東池袋２丁目６２番１０号池袋５ｔｈビル４Ｆ,,13,116,1700013,,,,,,,2025-06-09,1,,,,,ソウサンジシンケイハッタツガッカイ,0
972,4020001163237,新規,0,2025-06-09,2025-06-09,スミタコンサルティング株式会社,,株式会社,神奈川県,川崎市麻生区,百合丘３丁目１２番地１パークシティ新百合ヶ丘ＣＥ４０１,,14,137,2150011,,,,,,,2025-06-09,1,,,,,スミタコンサルティング,0
973,4020001163261,新規,0,2025-06-09,2025-06-09,株式会社やまＲｅ住,,株式会社,神奈川県,横浜市磯子区,岡村４丁目１２番３５－１号,,14,107,2350021,,,,,,,2025-06-09,1,,,,,ヤマリズム,0
974,4020001163311,新規,0,2025-06-09,2025-06-09,コーズデンキ株式会社,,株式会社,神奈川県,川崎市川崎区,伊勢町１３番５－１０４号,,14,131,2100805,,,,,,,2025-06-09,1,,,,,コーズデンキ,0
977,4020003028652,新規,0,2025-06-09,2025-06-09,合同会社飯塚商店ドットコム,,合同会社,神奈川県,川崎市川崎区,下並木７６番地リレント並木１０２,,14,131,2100025,,,,,,,2025-06-09,1,,,,,イイヅカショウテンドットコム,0
979,4020005016886,新規,0,2025-06-09,2025-06-09,一般社団法人Ｒプロダクト,,その他の設立登記法人,神奈川県,横浜市青葉区,松風台４０－１２,,14,117,2270067,,,,,,,2025-06-09,1,,,,,アールプロダクト,0
981,4021001085421,新規,0,2025-06-09,2025-06-09,株式会社Ｒａｐｐｏｒｔ,,株式会社,神奈川県,横須賀市,野比１丁目４番５－２号,,14,201,2390841,,,,,,,2025-06-09,1,,,,,ラポート,0
998,4040001139169,新規,0,2025-06-09,2025-06-09,ノザキ建工ファシリティーズ株式会社,,株式会社,千葉県,千葉市美浜区,新港２２３番地３,,12,106,2610002,,,,,,,2025-06-09,1,,,,,ノザキケンコウファシリティーズ,0
999,4040001139177,新規,0,2025-06-09,2025-06-09,トナリア株式会社,,株式会社,千葉県,旭市,入野１４５４,,12,215,2890515,,,,,,,2025-06-09,1,,,,,トナリア,0
1000,4040001139185,新規,0,2025-06-09,2025-06-09,株式会社八桜興業,,株式会社,千葉県,柏市,緑ケ丘６番２９号,,12,217,2770082,,,,,,,2025-06-09,1,,,,,ヤザクラコウギョウ,0
1003,4040003027702,新規,0,2025-06-09,2025-06-09,合同会社Ｎｅｗ　ｓｐａｃｅ,,合同会社,千葉県,習志野市,津田沼７丁目７番１０号,,12,216,2750016,,,,,,,2025-06-09,1,,,,,ニュースペース,0
1004,4040003027784,新規,0,2025-06-09,2025-06-09,エスウェル合同会社,,合同会社,千葉県,千葉市花見川区,武石町１丁目２７７番地２,,12,102,2620031,,,,,,,2025-06-09,1,,,,,エスウェル,0
1006,4050001056751,新規,0,2025-06-09,2025-06-09,ＹＵＲＩ株式会社,,株式会社,茨城県,石岡市,国府４丁目２番３３号,,08,205,3150014,,,,,,,2025-06-09,1,,,,,ユリ,0
1007,4050003009328,新規,0,2025-06-09,2025-06-09,合同会社ＢＵＤＤＹ,,合同会社,茨城県,取手市,桜が丘３丁目１番９号,,08,217,3001525,,,,,,,2025-06-09,1,,,,,バディ,0
1019,4080401027969,新規,0,2025-06-09,2025-06-09,ｊａｄｅ株式会社,,株式会社,静岡県,浜松市中央区,板屋町６６０番地広小路ビル１Ｆ,,22,138,4300928,,,,,,,2025-06-09,1,,,,,ジェイド,0
1025,4100001038678,新規,0,2025-06-09,2025-06-09,株式会社ＭＫＴＯＫＥＮ,,株式会社,長野県,松本市,大字笹賀３２６４－７,,20,202,3990033,,,,,,,2025-06-09,1,,,,,エムケートケン,0
1026,4110001039337,新規,0,2025-06-09,2025-06-09,株式会社Ｋｕｂｉｋｉ．Ｓｈｏｋａｉ,,株式会社,新潟県,上越市,頸城区下神原４００番地１,,15,222,9420134,,,,,,,2025-06-09,1,,,,,クビキショウカイ,0
1027,4110001039345,新規,0,2025-06-09,2025-06-09,ＨＫ７ｃｒｅａｔｅ株式会社,,株式会社,新潟県,新潟市南区,和泉１１１－９,,15,106,9501471,,,,,,,2025-06-09,1,,,,,エイチケークリエイト,0
1029,4110003005782,新規,0,2025-06-09,2025-06-09,Ｕ‐Ｃｏｎｎｅｃｔ合同会社,,合同会社,新潟県,新潟市中央区,女池４丁目９番３９号１,,15,103,9500941,,,,,,,2025-06-09,1,,,,,ユーコネクト,0
1045,4120001276474,新規,0,2025-06-09,2025-06-09,株式会社イマニ,,株式会社,大阪府,大阪市淀川区,三津屋中３丁目２番３５号,,27,123,5320036,,,,,,,2025-06-09,1,,,,,イマニ,0
1046,4120001276615,新規,0,2025-06-09,2025-06-09,ＭＫ　ＨＯＵＳＥ株式会社,,株式会社,大阪府,大阪市西区,千代崎２丁目２２－４ＬＢアパ一トメント５Ａ号室,,27,106,5500023,,,,,,,2025-06-09,1,,,,,エムケーハウス,0
1047,4120001276623,新規,0,2025-06-09,2025-06-09,貴洋株式会社,,株式会社,大阪府,大阪市大正区,三軒家西３丁目４番１６号中山ビル１０３８,,27,108,5510001,,,,,,,2025-06-09,1,,,,,キヨウ,0
1048,4120001276648,新規,0,2025-06-09,2025-06-09,株式会社ｇｏｍｏｏｆｆｉｃｅ,,株式会社,大阪府,大阪市此花区,春日出北２丁目１８番６号,,27,104,5540021,,,,,,,2025-06-09,1,,,,,ゴモオフィス,0
1049,4120001276656,新規,0,2025-06-09,2025-06-09,株式会社ＡＩＵ,,株式会社,大阪府,大阪市東住吉区,北田辺４丁目２０番１５号－３０６,,27,121,5460044,,,,,,,2025-06-09,1,,,,,エーアイユー,0
1050,4120001276680,新規,0,2025-06-09,2025-06-09,株式会社Ｐｉｎｏプランニング,,株式会社,大阪府,大阪市中央区,内本町１丁目２番１５号５階４,,27,128,5400026,,,,,,,2025-06-09,1,,,,,ピノプランニング,0
1061,4120101071866,新規,0,2025-06-09,2025-06-09,株式会社あやはな,,株式会社,大阪府,堺市堺区,中瓦町１－４－２２大阪信用金庫堺東ビル２Ｆ,,27,141,5900000,,,,,,,2025-06-09,1,,,,,アヤハナ,0
1063,4120901051027,新規,0,2025-06-09,2025-06-09,廣野シールドトンネル技術株式会社,00139491,株式会社,大阪府,茨木市,元町７番１４号,,27,211,5670882,,,,,,,2025-06-09,1,,,,,ヒロノシールドトンネルギジュツ,0
1067,4130001079884,新規,0,2025-06-09,2025-06-09,株式会社Ｃａｐｉｔａｌ　Ａｎｃｈｏｒｓ,,株式会社,京都府,京都市左京区,田中飛鳥井町４５番地３ミリオスポット２０３,,26,103,6068226,,,,,,,2025-06-09,1,,,,,キャピタルアンカーズ,0
1081,4140001138805,新規,0,2025-06-09,2025-06-09,株式会社Ｓｅｅｋｉｄ,,株式会社,兵庫県,神戸市東灘区,森南町１丁目６－２Ｆ・甲南山手ビル３０１,,28,101,6580011,,,,,,,2025-06-09,1,,,,,シーキッド,0
1082,4140001138821,新規,0,2025-06-09,2025-06-09,株式会社リバース,,株式会社,兵庫県,相生市,那波野２７３番地５,,28,208,6780011,,,,,,,2025-06-09,1,,,,,リバース,0
1083,4140001138879,新規,0,2025-06-09,2025-06-09,ＫＤＩＨＤ株式会社,,株式会社,兵庫県,尼崎市,水堂町４丁目２番２２号,,28,202,6610026,,,,,,,2025-06-09,1,,,,,ケーディーアイエイチディー,0
1090,4160001026818,新規,0,2025-06-09,2025-06-09,啓山株式会社,,株式会社,滋賀県,守山市,笠原町９５３番地２,,25,207,5240004,,,,,,,2025-06-09,1,,,,,ケイザン,0
1106,4180001167107,新規,0,2025-06-09,2025-06-09,株式会社あすたび,,株式会社,愛知県,名古屋市中川区,東起町４丁目１１０番地,,23,110,4540935,,,,,,,2025-06-09,1,,,,,アスタビ,0
1107,4180001167131,新規,0,2025-06-09,2025-06-09,株式会社ＢＣＤ,,株式会社,愛知県,丹羽郡大口町,高橋１丁目１１３番地,,23,361,4800131,,,,,,,2025-06-09,1,,,,,ビーシーディー,0
1108,4180001167214,新規,0,2025-06-09,2025-06-09,スタリオン・エステート株式会社,,株式会社,愛知県,東海市,東海町３丁目１番６号,,23,222,4760015,,,,,,,2025-06-09,1,,,,,スタリオンエステート,0
1109,4180001167222,新規,0,2025-06-09,2025-06-09,株式会社ケーアイ名古屋,,株式会社,愛知県,名古屋市西区,山木１丁目５３番地,,23,104,4520833,,,,,,,2025-06-09,1,,,,,ケーアイナゴヤ,0
1114,4180003028562,新規,0,2025-06-09,2025-06-09,合同会社ピーエム安藤,,合同会社,愛知県,名古屋市北区,如意２丁目７０番地,,23,103,4620007,,,,,,,2025-06-09,1,,,,,ピーエムアンドウ,0
1115,4180003028579,新規,0,2025-06-09,2025-06-09,ｏｒ８合同会社,,合同会社,愛知県,名古屋市中村区,名駅４丁目２４番５号第２森ビル４０１,,23,105,4500002,,,,,,,2025-06-09,1,,,,,オアエイト,0
1116,4180003028587,新規,0,2025-06-09,2025-06-09,合同会社ふっかる,,合同会社,愛知県,あま市,蜂須賀南本郷８５７番地４,,23,237,4901225,,,,,,,2025-06-09,1,,,,,フッカル,0
1117,4180003028595,新規,0,2025-06-09,2025-06-09,合同会社コーポ村武,,合同会社,愛知県,名古屋市西区,名西２丁目１番１２号コーポ村武２０１号,,23,104,4510064,,,,,,,2025-06-09,1,,,,,コーポムラブ,0
1118,4180301018694,新規,0,2025-06-09,2025-06-09,月山商事株式会社,,株式会社,愛知県,豊田市,四郷町山畑９２番地,,23,211,4700373,,,,,,,2025-06-09,1,,,,,ツキヤマショウジ,0
1123,4210001020204,新規,0,2025-06-09,2025-06-09,株式会社ＡＫＳＨ,,株式会社,福井県,福井市,文京２丁目３番７号,,18,201,9100017,,,,,,,2025-06-09,1,,,,,アクシュ,0
1131,4240001065064,新規,0,2025-06-09,2025-06-09,株式会社マシェルプラス,,株式会社,広島県,広島市安佐南区,伴東８丁目７０番１５号,,34,105,7313164,,,,,,,2025-06-09,1,,,,,マシェルプラス,0
1136,4280001009439,新規,0,2025-06-09,2025-06-09,さとやま株式会社,,株式会社,島根県,邑智郡川本町,大字川下１２２２番地,,32,441,6960004,,,,,,,2025-06-09,1,,,,,サトヤマキカク,0
1143,4290001110245,新規,0,2025-06-09,2025-06-09,ＣＯＵＮＴＲＹ　ＬＩＦＥ株式会社,,株式会社,福岡県,朝倉市,堤９６９－３,,40,228,8380062,,,,,,,2025-06-09,1,,,,,カントリーライフ,0
1144,4290001110294,新規,0,2025-06-09,2025-06-09,株式会社サーベイ・ワン,,株式会社,福岡県,糟屋郡宇美町,貴船１丁目１８番３０号,,40,341,8112131,,,,,,,2025-06-09,1,,,,,サーベイワン,0
1145,4290001110344,新規,0,2025-06-09,2025-06-09,株式会社Ｃｒｅａｔｉｏｎ,,株式会社,福岡県,大牟田市,大字橘１１４７番地７,,40,202,8370911,,,,,,,2025-06-09,1,,,,,クリエーション,0
1146,4290001110360,新規,0,2025-06-09,2025-06-09,Ｇｏ　Ｊａｐａｎ　Ｐｌｕｓ株式会社,,株式会社,福岡県,糸島市,高田１丁目８番２号,,40,230,8191102,,,,,,,2025-06-09,1,,,,,ゴジャパンプラス,0
1152,4290003016952,新規,0,2025-06-09,2025-06-09,合同会社成華グローバル,,合同会社,福岡県,福岡市博多区,博多駅前４丁目７番５－６０１号ムーブル博多,,40,132,8120011,,,,,,,2025-06-09,1,,,,,セイカグローバル,0
1153,4290003016960,新規,0,2025-06-09,2025-06-09,合同会社ＣＬＯＶＥＲ　ＰＬＡＮ,,合同会社,福岡県,福岡市中央区,薬院１丁目１２番１０－５０４号,,40,133,8100022,,,,,,,2025-06-09,1,,,,,クローバープラン,0
1154,4290003016977,新規,0,2025-06-09,2025-06-09,合同会社ＴＫマネジメント,,合同会社,福岡県,福岡市早良区,西新５丁目１５－５４－６０４,,40,137,8140002,,,,,,,2025-06-09,1,,,,,ティーケーマネジメント,0
1156,4290005019771,新規,0,2025-06-09,2025-06-09,一般社団法人福祉の社会化研究所,,その他の設立登記法人,福岡県,筑紫野市,大字筑紫５０８番地９,,40,217,8180025,,,,,,,2025-06-09,1,,,,,フクシノシャカイカケンキュウショ,0
1158,4290801031608,新規,0,2025-06-09,2025-06-09,株式会社松崎組,,株式会社,福岡県,北九州市小倉南区,八幡町２２番１０号（２０１）,,40,107,8020805,,,,,,,2025-06-09,1,,,,,マツザキグミ,0
1168,4350001019562,新規,0,2025-06-09,2025-06-09,株式会社アスシード,,株式会社,宮崎県,北諸県郡三股町,大字樺山４３５０番地,,45,341,8891901,,,,,,,2025-06-09,1,,,,,アスシード,0
1169,4350001019587,新規,0,2025-06-09,2025-06-09,株式会社奏和,,株式会社,宮崎県,都城市,都北町６２４４番地３,,45,202,8850004,,,,,,,2025-06-09,1,,,,,ソウワ,0
1170,4370001052660,新規,0,2025-06-09,2025-06-09,株式会社鳥羽ホールディングス,,株式会社,宮城県,仙台市宮城野区,二十人町３０２番地の１１,,04,102,9830862,,,,,,,2025-06-09,1,,,,,トバホールディングス,0
1177,4380005012981,新規,0,2025-06-09,2025-06-09,神野・古谷税理士法人,,その他の設立登記法人,福島県,福島市,丸子字富塚３４番地の６,,07,201,9600111,,,,,,,2025-06-09,1,,,,,カミノフルヤ,0
1181,4400001017057,新規,0,2025-06-09,2025-06-09,株式会社鞠撫,,株式会社,岩手県,下閉伊郡山田町,山田第１６地割２７番地１０,,03,482,0281321,,,,,,,2025-06-09,1,,,,,マリモ,0
1187,4440001001429,新規,0,2025-06-09,2025-06-09,トモエ信用企業株式会社,,株式会社,北海道,函館市,八幡町４番３４号,,01,202,0400083,,,,,,,2025-06-09,1,,,,,トモエシンヨウキギョウ,0
1201,5010005040176,新規,0,2025-06-09,2025-06-09,一般社団法人副業詐欺被害回復センター,,その他の設立登記法人,東京都,千代田区,九段南２丁目２番３号,,13,101,1020074,,,,,,,2025-06-09,1,,,,,フクギョウサギヒガイカイフクセンター,0
1206,5010401190847,新規,0,2025-06-09,2025-06-09,株式会社オルガマインズ,,株式会社,東京都,港区,北青山１丁目３－３三橋ビル３階,,13,103,1070061,,,,,,,2025-06-09,1,,,,,オルガマインズ,0
1207,5010401190913,新規,0,2025-06-09,2025-06-09,株式会社ＰＥＡＣＥ‐ＭＡＮ．ｉｎｃ,,株式会社,東京都,港区,西麻布４丁目８番２－２０２号,,13,103,1060031,,,,,,,2025-06-09,1,,,,,ピースマンインク,0
1215,5010601067432,新規,0,2025-06-09,2025-06-09,株式会社アザレアリーフ,,株式会社,東京都,江東区,有明３丁目７番２６号,,13,108,1350063,,,,,,,2025-06-09,1,,,,,アザレアリーフ,0
1216,5010601067440,新規,0,2025-06-09,2025-06-09,原点商事株式会社,,株式会社,東京都,墨田区,文花２丁目２番１７－５０３号,,13,107,1310044,,,,,,,2025-06-09,1,,,,,ゲンテンショウジ,0
1219,5010701047805,新規,0,2025-06-09,2025-06-09,株式会社Ｌａｚａｒｕｓ,,株式会社,東京都,品川区,大井２丁目８番７号,,13,109,1400014,,,,,,,2025-06-09,1,,,,,ラザロ,0
1220,5010701047821,新規,0,2025-06-09,2025-06-09,株式会社ｔａｍａｔｅｂａｋｏ,,株式会社,東京都,品川区,大崎３丁目１番５号ルミネ五反田第２・２０２号室,,13,109,1410032,,,,,,,2025-06-09,1,,,,,タマテバコ,0
1223,5010901057521,新規,0,2025-06-09,2025-06-09,Ｓｕｎ　Ｂｉｒｔｈ株式会社,,株式会社,東京都,世田谷区,奥沢７丁目４０番６号―１,,13,112,1580083,,,,,,,2025-06-09,1,,,,,サンバース,0
1226,5010903009999,新規,0,2025-06-09,2025-06-09,合同会社ＥＮＧＲＡＶＥ,,合同会社,東京都,世田谷区,宮坂１丁目２５番２号ＡｔｅｌｉｅｒＴ１Ｆ,,13,112,1560051,,,,,,,2025-06-09,1,,,,,エングレイブ,0
1228,5011001169918,新規,0,2025-06-09,2025-06-09,株式会社アセントライズ,,株式会社,東京都,渋谷区,神宮前６丁目２３番４号桑野ビル２階,,13,113,1500001,,,,,,,2025-06-09,1,,,,,アセントライズ,0
1230,5011003021770,新規,0,2025-06-09,2025-06-09,ワイエス合同会社,,合同会社,東京都,渋谷区,道玄坂１丁目１０番８号渋谷道玄坂東急ビル２Ｆ－Ｃ,,13,113,1500043,,,,,,,2025-06-09,1,,,,,ワイエス,0
1231,5011003021787,新規,0,2025-06-09,2025-06-09,合同会社ＬＩＲＡＮ,,合同会社,東京都,目黒区,下目黒１丁目１番１４号コノトラビル７Ｆ,,13,110,1530064,,,,,,,2025-06-09,1,,,,,リラン,0
1236,5011103016002,新規,0,2025-06-09,2025-06-09,合同会社ｅｓ,,合同会社,東京都,新宿区,新宿６丁目２番４－６１７号,,13,104,1600022,,,,,,,2025-06-09,1,,,,,エス,0
1237,5011201026415,新規,0,2025-06-09,2025-06-09,株式会社オクテットラボ,,株式会社,東京都,中野区,中央２丁目４１番７号,,13,114,1640011,,,,,,,2025-06-09,1,,,,,オクテットラボ,0
1238,5011303005589,新規,0,2025-06-09,2025-06-09,合同会社ピンホール,,合同会社,東京都,杉並区,清水１丁目３６番１４号,,13,115,1670033,,,,,,,2025-06-09,1,,,,,ピンホール,0
1240,5011501032187,新規,0,2025-06-09,2025-06-09,生活宣言株式会社,,株式会社,東京都,北区,浮間１丁目７－２３兆豊浮間ビル５０２号室,,13,117,1150051,,,,,,,2025-06-09,1,,,,,セイカツセンゲン,0
1241,5011601028713,新規,0,2025-06-09,2025-06-09,株式会社リードオンエバー,,株式会社,東京都,練馬区,高松６丁目２９番１５号,,13,120,1790075,,,,,,,2025-06-09,1,,,,,リードオンエバー,0
1246,5012705002463,新規,0,2025-06-09,2025-06-09,一般社団法人明治学院大学愛好会プレイングテニスアソシエイション同窓会,,その他の設立登記法人,東京都,小平市,花小金井１丁目１７番１３号,,13,211,1870002,,,,,,,2025-06-09,1,,,,,メイジガクインダイガクアイコウカイプレイングテニスアソシエイションドウソウカイ,0
1251,5013301054361,新規,0,2025-06-09,2025-06-09,株式会社Ａｎｄ　Ｇｒｅｅｎ　Ｃｏｍｐａｎｙ,,株式会社,東京都,豊島区,北大塚２丁目１２－１８岡ビル３６号室,,13,116,1700004,,,,,,,2025-06-09,1,,,,,アンドグリーンカンパニー,0
1252,5013301054411,新規,0,2025-06-09,2025-06-09,ＳＫＹＢＯＮＤ株式会社,,株式会社,東京都,豊島区,西池袋１丁目９番１１－５０１号,,13,116,1710021,,,,,,,2025-06-09,1,,,,,スカイボンド,0
1261,5020001163269,新規,0,2025-06-09,2025-06-09,ａｓ株式会社,,株式会社,神奈川県,川崎市多摩区,登戸１２６４番地１プライムエフ向ヶ丘遊園３０８,,14,135,2140014,,,,,,,2025-06-09,1,,,,,アズ,0
1262,5020001163293,新規,0,2025-06-09,2025-06-09,株式会社ＥＮＬＡＶＩＥ,,株式会社,神奈川県,横浜市戸塚区,平戸２丁目１３－８,,14,110,2440802,,,,,,,2025-06-09,1,,,,,エンラヴィ,0
1266,5021001085420,新規,0,2025-06-09,2025-06-09,Ａｖｅｉｌｅ　Ｓｔａｎｌｅｙ株式会社,,株式会社,神奈川県,厚木市,温水１９６５番地,,14,212,2430033,,,,,,,2025-06-09,1,,,,,アヴェールスタンレー,0
1267,5021001085429,新規,0,2025-06-09,2025-06-09,株式会社ＧＯＡＴ,,株式会社,神奈川県,相模原市中央区,淵野辺本町５丁目１５番３号,,14,152,2520202,,,,,,,2025-06-09,1,,,,,ゴート,0
1268,5021001085461,新規,0,2025-06-09,2025-06-09,株式会社アセットエージェント,,株式会社,神奈川県,藤沢市,川名１丁目１１番３０号,,14,205,2510015,,,,,,,2025-06-09,1,,,,,アセットエージェント,0
1269,5021003016101,新規,0,2025-06-09,2025-06-09,合同会社くるま二郎,,合同会社,神奈川県,藤沢市,辻堂神台２丁目９番１８～７０５号,,14,205,2510041,,,,,,,2025-06-09,1,,,,,クルマジロウ,0
1279,5030003026951,新規,0,2025-06-09,2025-06-09,合同会社ＫａｎａＢａｓｅ,,合同会社,埼玉県,さいたま市大宮区,三橋１丁目６８１番地４,,11,103,3300856,,,,,,,2025-06-09,1,,,,,カナベース,0
1285,5040001139069,新規,0,2025-06-09,2025-06-09,株式会社ＨＩＭＡＬＡＹＡＮ　ＹＡＫＫ,,株式会社,千葉県,船橋市,宮本６丁目１０番１９号ＫＦハウス内,,12,204,2730003,,,,,,,2025-06-09,1,,,,,ヒマラヤンヤック,0
1286,5040001139077,新規,0,2025-06-09,2025-06-09,プラメリーＨＤ株式会社,,株式会社,千葉県,柏市,若柴６番地６０,,12,217,2770871,,,,,,,2025-06-09,1,,,,,プラメリーホールディング,0
1287,5040001139102,新規,0,2025-06-09,2025-06-09,株式会社ユニークコネクト,,株式会社,千葉県,千葉市中央区,中央２丁目５－１千葉中央ツインビル２号館７階,,12,101,2600013,,,,,,,2025-06-09,1,,,,,ユニークコネクト,0
1288,5040001139110,新規,0,2025-06-09,2025-06-09,株式会社ＭＩＹＡＵＴＹ,,株式会社,千葉県,千葉市緑区,大椎町１２２９番地２１,,12,105,2670065,,,,,,,2025-06-09,1,,,,,ミヤウティ,0
1289,5040001139127,新規,0,2025-06-09,2025-06-09,グリーン未来株式会社,,株式会社,千葉県,白井市,河原子３２４番地４,,12,232,2701403,,,,,,,2025-06-09,1,,,,,グリーンミライ,0
1290,5040001139184,新規,0,2025-06-09,2025-06-09,株式会社ＲＡＤＩＸ,,株式会社,千葉県,市川市,千鳥町１６番地３－２Ｆ,,12,203,2720126,,,,,,,2025-06-09,1,,,,,ラディックス,0
1294,5040003027701,新規,0,2025-06-09,2025-06-09,合同会社弥勒,,合同会社,千葉県,千葉市中央区,新宿２丁目３番６号エステート秀７０１号,,12,101,2600021,,,,,,,2025-06-09,1,,,,,ミロク,0
1295,5040003027742,新規,0,2025-06-09,2025-06-09,合同会社ＲｉＦＳ,,合同会社,千葉県,柏市,高柳１５６１番地１５号,,12,217,2770941,,,,,,,2025-06-09,1,,,,,リフス,0
1296,5040003027775,新規,0,2025-06-09,2025-06-09,合同会社冨楽商会,,合同会社,千葉県,市川市,鬼高３丁目３２番２１ー１２０３号,,12,203,2720015,,,,,,,2025-06-09,1,,,,,トミラクショウカイ,0
1297,5050001056750,新規,0,2025-06-09,2025-06-09,株式会社アヴァンセ管理,,株式会社,茨城県,常総市,鴻野山４４４番地１,,08,211,3002746,,,,,,,2025-06-09,1,,,,,アヴァンセカンリ,0
1299,5050003009343,新規,0,2025-06-09,2025-06-09,合同会社ｃｈｅｒｅｎ　ｃｕｒｅ,,合同会社,茨城県,取手市,新町１丁目９－１、５０１区画,,08,217,3020024,,,,,,,2025-06-09,1,,,,,チェレンキュア,0
1306,5090001019308,新規,0,2025-06-09,2025-06-09,株式会社アクアプロ,,株式会社,山梨県,韮崎市,本町１丁目１７番３７号,,19,207,4070024,,,,,,,2025-06-09,1,,,,,,0
1328,5120001276507,新規,0,2025-06-09,2025-06-09,株式会社ＬＥＸ,,株式会社,大阪府,大阪市都島区,高倉町２丁目６－８ＪＬビル都島３０１号室,,27,102,5340011,,,,,,,2025-06-09,1,,,,,レックス,0
1329,5120001276622,新規,0,2025-06-09,2025-06-09,優衣尚株式会社,,株式会社,大阪府,大阪市東成区,深江北３丁目４番２１号エクラ深江橋２１５Ｃ,,27,115,5370001,,,,,,,2025-06-09,1,,,,,ユウイショウ,0
1330,5120001276630,新規,0,2025-06-09,2025-06-09,株式会社Ｅａｇｌｅ　Ａｒｃ,,株式会社,大阪府,大阪市北区,梅田１丁目１－３,,27,127,5300001,,,,,,,2025-06-09,1,,,,,イーグルアーク,0
1331,5120001276671,新規,0,2025-06-09,2025-06-09,株式会社ほっとテック,,株式会社,大阪府,大阪市淀川区,西宮原１丁目６番６０号（３２０号室）,,27,123,5320004,,,,,,,2025-06-09,1,,,,,ホットテック,0
1341,5130001079826,新規,0,2025-06-09,2025-06-09,株式会社ライフワーク,,株式会社,京都府,京都市伏見区,深草泓ノ壺町２８番地６ワタルハイツ２階,,26,109,6128435,,,,,,,2025-06-09,1,,,,,ライフワーク,0
1342,5130001079842,新規,0,2025-06-09,2025-06-09,株式会社和,,株式会社,京都府,宇治市,槇島町十八２６番地,,26,204,6110041,,,,,,,2025-06-09,1,,,,,ナゴミ,0
1346,5140001138820,新規,0,2025-06-09,2025-06-09,株式会社ｍｅｄｉｔａｌｋ,,株式会社,兵庫県,神戸市東灘区,御影郡家１丁目３２番１９－２０２号,,28,101,6580048,,,,,,,2025-06-09,1,,,,,メディトーク,0
1347,5140001138861,新規,0,2025-06-09,2025-06-09,１３５７ＧＴ株式会社,,株式会社,兵庫県,赤穂市,北野中３２４番地１,,28,212,6780175,,,,,,,2025-06-09,1,,,,,イチサンゴーナナジーティー,0
1349,5140003022163,新規,0,2025-06-09,2025-06-09,合同会社ＡＦＦＥＣＴＥＲ,,合同会社,兵庫県,西宮市,鳴尾町１丁目１番１９号,,28,204,6638184,,,,,,,2025-06-09,1,,,,,アフェクター,0
1356,5170001018664,新規,0,2025-06-09,2025-06-09,株式会社花みつ,,株式会社,和歌山県,日高郡みなべ町,北道２３６番地１,,30,391,6450006,,,,,,,2025-06-09,1,,,,,ハナミツ,0
1367,5180001167089,新規,0,2025-06-09,2025-06-09,株式会社岩城商会,,株式会社,愛知県,名古屋市天白区,横町２０１番地,,23,116,4680054,,,,,,,2025-06-09,1,,,,,イワキショウカイ,0
1368,5180001167147,新規,0,2025-06-09,2025-06-09,株式会社Ｋｉｃｋ　Ｏｆｆ,,株式会社,愛知県,知多市,朝倉町１７１番地,,23,224,4780051,,,,,,,2025-06-09,1,,,,,キックオフ,0
1369,5180001167155,新規,0,2025-06-09,2025-06-09,株式会社Ｔｒｅｓｓｎａ,,株式会社,愛知県,海部郡蟹江町,富吉１丁目５６２,,23,425,4970058,,,,,,,2025-06-09,1,,,,,トレスナ,0
1370,5180001167221,新規,0,2025-06-09,2025-06-09,株式会社プロジェクト,,株式会社,愛知県,名古屋市瑞穂区,川澄町３丁目２４番地の５,,23,108,4670002,,,,,,,2025-06-09,1,,,,,プロジェクト,0
1373,5180003028603,新規,0,2025-06-09,2025-06-09,合同会社こえとえ,,合同会社,愛知県,名古屋市名東区,西山本通３丁目７番１　ウェリス星ヶ丘６０６,,23,115,4650085,,,,,,,2025-06-09,1,,,,,コエトエ,0
1382,5220003004054,新規,0,2025-06-09,2025-06-09,合同会社ベルクラフトジャパン,,合同会社,石川県,野々市市,粟田６丁目４５４番地,,17,212,9218823,,,,,,,2025-06-09,1,,,,,ベルクラフトジャパン,0
1385,5240005015948,新規,0,2025-06-09,2025-06-09,一般社団法人福山あんしん生活協議会,,その他の設立登記法人,広島県,福山市,草戸町２丁目１－１９（１０２号室）,,34,207,7200831,,,,,,,2025-06-09,1,,,,,フクヤマアンシンセイカツキョウギカイ,0
1388,5260001040246,新規,0,2025-06-09,2025-06-09,株式会社オノ・設備工業,,株式会社,岡山県,高梁市,津川町今津４７９－５,,33,209,7160002,,,,,,,2025-06-09,1,,,,,オノセツビコウギョウ,0
1389,5260001040270,新規,0,2025-06-09,2025-06-09,株式会社Ｅ‐ＲＥＶＯ,,株式会社,岡山県,岡山市北区,西古松３２１番地１０９（２階）,,33,101,7000927,,,,,,,2025-06-09,1,,,,,イーレボ,0
1391,5260005011490,新規,0,2025-06-09,2025-06-09,ＫＳＴ協同組合,,その他の設立登記法人,岡山県,瀬戸内市,邑久町本庄１８１９番地,,33,212,7014214,,,,,,,2025-06-09,1,,,,,ケーエスティー,0
1392,5280005007660,新規,0,2025-06-09,2025-06-09,一般財団法人あままる基金,,その他の設立登記法人,島根県,隠岐郡海士町,大字海士１４７３番地６,,32,525,6840403,,,,,,,2025-06-09,1,,,,,アママルキキン,0
1395,5290001110269,新規,0,2025-06-09,2025-06-09,株式会社ミスターグリーン,,株式会社,福岡県,春日市,春日原北町５丁目１１４ジェミニ春日原２０３,,40,218,8160802,,,,,,,2025-06-09,1,,,,,ミスターグリーン,0
1396,5290001110319,新規,0,2025-06-09,2025-06-09,株式会社ＰＳＳ,,株式会社,福岡県,福岡市博多区,博多駅東１丁目１０番３５号ＣＬＵＢ博多駅東ビル４０２,,40,132,8120013,,,,,,,2025-06-09,1,,,,,ピーエスエス,0
1397,5290001110327,新規,0,2025-06-09,2025-06-09,株式会社ゼロクエストホールディングス,,株式会社,福岡県,福岡市中央区,渡辺通２丁目９－１６－３０２,,40,133,8100004,,,,,,,2025-06-09,1,,,,,ゼロクエストホールディングス,0
1398,5290001110335,新規,0,2025-06-09,2025-06-09,株式会社城南照,,株式会社,福岡県,福岡市城南区,樋井川２丁目２番２９号,,40,136,8140153,,,,,,,2025-06-09,1,,,,,ジョウナンテラス,0
1399,5290001110343,新規,0,2025-06-09,2025-06-09,株式会社アロンノインターリンク,,株式会社,福岡県,糸島市,波多江６０２番地４,,40,230,8191104,,,,,,,2025-06-09,1,,,,,アロンノインターリンク,0
1400,5290003016935,新規,0,2025-06-09,2025-06-09,合同会社ＳＩＴ,,合同会社,福岡県,福岡市南区,塩原３丁目３番１３－６０４号,,40,134,8150032,,,,,,,2025-06-09,1,,,,,シット,0
1401,5290003016943,新規,0,2025-06-09,2025-06-09,Ｓ‐ＥＮ合同会社,,合同会社,福岡県,福岡市中央区,赤坂３丁目１３番３号,,40,133,8100042,,,,,,,2025-06-09,1,,,,,エスエン,0
1402,5290005019770,新規,0,2025-06-09,2025-06-09,一般社団法人ルアナ,,その他の設立登記法人,福岡県,筑後市,大字西牟田６０８０－１ソラーナ２０５,,40,211,8330053,,,,,,,2025-06-09,1,,,,,ルアナ,0
1404,5290801031607,新規,0,2025-06-09,2025-06-09,四心ホールディングス株式会社,,株式会社,福岡県,直方市,新町２丁目６番４７号,,40,204,8220015,,,,,,,2025-06-09,1,,,,,シシンホールディングス,0
1405,5300003002297,新規,0,2025-06-09,2025-06-09,合同会社みずまち,,合同会社,佐賀県,小城市,小城町２８３－１,,41,208,8450001,,,,,,,2025-06-09,1,,,,,ミズマチ,0
1408,5320001021140,新規,0,2025-06-09,2025-06-09,株式会社アウトソーシング,,株式会社,大分県,宇佐市,大字四日市１０１５番地の２,,44,211,8790471,,,,,,,2025-06-09,1,,,,,アウトソーシング,0
1410,5320003004688,新規,0,2025-06-09,2025-06-09,合同会社Ａｋａｉｋｅ．,,合同会社,大分県,大分市,大字丹川３１７９番地の１,,44,201,8700317,,,,,,,2025-06-09,1,,,,,アカイケ,0
1423,5370003007125,新規,0,2025-06-09,2025-06-09,合同会社森田設計グループ,,合同会社,宮城県,亘理郡亘理町,吉田字大谷地７７番地３７,,04,361,9892331,,,,,,,2025-06-09,1,,,,,モリタセッケイグループ,0
1440,5450003002670,新規,0,2025-06-09,2025-06-09,コアプラス合同会社,,合同会社,北海道,旭川市,神居六条７丁目１番７号,,01,204,0708016,,,,,,,2025-06-09,1,,,,,コアプラス,0
1443,5490001011075,新規,0,2025-06-09,2025-06-09,株式会社孝建,,株式会社,高知県,安芸市,井ノ口甲２３１４,,39,203,7840051,,,,,,,2025-06-09,1,,,,,コウケン,0
1461,6010003047610,新規,0,2025-06-09,2025-06-09,合同会社ＮＡＴＵＳＭＩ,,合同会社,東京都,千代田区,内神田３丁目１３番１０号地下１階,,13,101,1010047,,,,,,,2025-06-09,1,,,,,ナツミ,0
1463,6010005040175,新規,0,2025-06-09,2025-06-09,Ｓｐｒｉｎｔ　Ａｓｓｅｔ特定目的会社,,その他の設立登記法人,東京都,千代田区,霞が関３丁目２番５号,,13,101,1000013,,,,,,,2025-06-09,1,,,,,スプリントアセット,0
1467,6010401190846,新規,0,2025-06-09,2025-06-09,Ｌｅｈｕａ株式会社,,株式会社,東京都,港区,東麻布１丁目１２番１１号１階,,13,103,1060044,,,,,,,2025-06-09,1,,,,,レフア,0
1468,6010401190879,新規,0,2025-06-09,2025-06-09,株式会社ｎｅｏ　ｃｏｎｎｅｃｔｉｏｎ,,株式会社,東京都,港区,南青山３丁目１番３６号青山丸竹ビル６Ｆ,,13,103,1070062,,,,,,,2025-06-09,1,,,,,ネオコネクション,0
1469,6010401190887,新規,0,2025-06-09,2025-06-09,株式会社ｍｎｍｌｓ,,株式会社,東京都,港区,新橋４丁目１４番１号新橋ＡＵＮＢＬＤＧ．４階,,13,103,1050004,,,,,,,2025-06-09,1,,,,,ミニマルス,0
1472,6010403035330,新規,0,2025-06-09,2025-06-09,センダ・エステイト合同会社,,合同会社,東京都,港区,六本木１丁目５番３－６０９号,,13,103,1060032,,,,,,,2025-06-09,1,,,,,センダエステイト,0
1481,6010601067431,新規,0,2025-06-09,2025-06-09,株式会社中村技建,,株式会社,東京都,墨田区,東向島４丁目４１番１２号,,13,107,1310032,,,,,,,2025-06-09,1,,,,,ナカムラギケン,0
1483,6010603011619,新規,0,2025-06-09,2025-06-09,合同会社すみだケアーズ,,合同会社,東京都,墨田区,両国２丁目６番１０－１０１号,,13,107,1300026,,,,,,,2025-06-09,1,,,,,スミダケアーズ,0
1486,6010701047804,新規,0,2025-06-09,2025-06-09,株式会社ｎ’ｔｏｒｙ,,株式会社,東京都,品川区,南品川５丁目１６番７号１Ｆ,,13,109,1400004,,,,,,,2025-06-09,1,,,,,エントリィ,0
1487,6010701047812,新規,0,2025-06-09,2025-06-09,株式会社三ツ星ＨＡＩＭＵＲＵ,,株式会社,東京都,品川区,戸越６丁目１８番４号,,13,109,1420041,,,,,,,2025-06-09,1,,,,,ミツボシハイムル,0
1494,6011001169917,新規,0,2025-06-09,2025-06-09,株式会社ＣＲＥＡＳＳ,,株式会社,東京都,渋谷区,神南１丁目１１番４号ＦＰＧリンクス神南５階,,13,113,1500041,,,,,,,2025-06-09,1,,,,,クレアス,0
1495,6011001170057,新規,0,2025-06-09,2025-06-09,株式会社マエムキ,,株式会社,東京都,渋谷区,道玄坂１丁目１０番８号渋谷道玄坂東急ビル２Ｆ－Ｃ,,13,113,1500043,,,,,,,2025-06-09,1,,,,,マエムキ,0
1496,6011001170387,新規,0,2025-06-09,2025-06-09,Ｒｅｖｉｖｉｘ株式会社,,株式会社,東京都,渋谷区,富ヶ谷１丁目４９－２１－７０５,,13,113,1510063,,,,,,,2025-06-09,1,,,,,リバイビックス,0
1497,6011001170429,新規,0,2025-06-09,2025-06-09,株式会社ミライＣＲＭ,,株式会社,東京都,渋谷区,神南１丁目１１番３号ＰＯＲＴＡＬＰＯＩＮＴＳＨＩＢＵＹＡ（ＦＤ－３１）,,13,113,1500041,,,,,,,2025-06-09,1,,,,,ミライシーアールエム,0
1501,6011003021745,新規,0,2025-06-09,2025-06-09,Ｌｕｍｉｎｎａ合同会社,,合同会社,東京都,目黒区,上目黒４丁目３３番９号Ｄｏｒｆ上目黒１０１,,13,110,1530051,,,,,,,2025-06-09,1,,,,,,0
1502,6011003021844,新規,0,2025-06-09,2025-06-09,合同会社Ｒｉｐｍｏ,,合同会社,東京都,渋谷区,道玄坂１丁目１０番８号渋谷道玄坂東急ビル２Ｆ－Ｃ,,13,113,1500043,,,,,,,2025-06-09,1,,,,,リプモ,0
1503,6011003021852,新規,0,2025-06-09,2025-06-09,合同会社Ｐｏｗｅｒｅｄ　ｂｙ　Ｐｏｗｅｒ,,合同会社,東京都,渋谷区,道玄坂１丁目１０－８渋谷道玄坂東急ビル２Ｆ－Ｃ,,13,113,1500043,,,,,,,2025-06-09,1,,,,,パワードバイパワー,0
1509,6011101111992,新規,0,2025-06-09,2025-06-09,株式会社ＲｅＳｋｉｌｌｉｎｇ,,株式会社,東京都,新宿区,１－１９－１０ＹＫＢ東ビル３Ｆ,,13,104,1600000,,,,,,,2025-06-09,1,,,,,リスキリング,0
1510,6011103016001,新規,0,2025-06-09,2025-06-09,ＷＫＨａｃｋ合同会社,,合同会社,東京都,新宿区,西新宿３丁目３番１３号西新宿水間ビル２Ｆ,,13,104,1600023,,,,,,,2025-06-09,1,,,,,ワクハック,0
1511,6011301030638,新規,0,2025-06-09,2025-06-09,株式会社きっとファーマシー,,株式会社,東京都,杉並区,上高井戸１丁目１番１０号,,13,115,1680074,,,,,,,2025-06-09,1,,,,,キットファーマシー,0
1515,6011501032178,新規,0,2025-06-09,2025-06-09,株式会社ｆｌａｉｒ,,株式会社,東京都,荒川区,西日暮里２丁目２２番３号,,13,118,1160013,,,,,,,2025-06-09,1,,,,,フレア,0
1521,6011801046274,新規,0,2025-06-09,2025-06-09,株式会社ＵＮＩＰＬＡＣＥ,,株式会社,東京都,足立区,西綾瀬２丁目２３番３６号サンアレイ１０２,,13,121,1200014,,,,,,,2025-06-09,1,,,,,ユニプレイス,0
1530,6020001163185,新規,0,2025-06-09,2025-06-09,ＳＵＢＪＥＣＴ　ＷＯＲＫＳ株式会社,,株式会社,神奈川県,横浜市神奈川区,金港町５番地１４クアドリフォリオ８階,,14,102,2210056,,,,,,,2025-06-09,1,,,,,サブジェクトワークス,0
1531,6020001163292,新規,0,2025-06-09,2025-06-09,アスノエンタープライズ株式会社,,株式会社,神奈川県,横浜市港北区,新横浜３丁目２－３,,14,109,2220033,,,,,,,2025-06-09,1,,,,,アスノエンタープライズ,0
1532,6020001163342,新規,0,2025-06-09,2025-06-09,株式会社キミトモ,,株式会社,神奈川県,横浜市港北区,篠原町１０４番地１ブレストヒルズ篠原２０５号室,,14,109,2220026,,,,,,,2025-06-09,1,,,,,キミトモ,0
1538,6020003028650,新規,0,2025-06-09,2025-06-09,ＲＥＤ　ＬＩＮＥ合同会社,,合同会社,神奈川県,川崎市川崎区,東田町１－１大西ビル２Ｆ,,14,131,2100005,,,,,,,2025-06-09,1,,,,,レッドライン,0
1544,6021001085411,新規,0,2025-06-09,2025-06-09,株式会社ＩＩＬＺ,,株式会社,神奈川県,茅ヶ崎市,赤松町５番２７号１－Ｂ,,14,207,2530013,,,,,,,2025-06-09,1,,,,,イールズ,0
1545,6021001085428,新規,0,2025-06-09,2025-06-09,株式会社イマタグループ横浜事業所,,株式会社,神奈川県,藤沢市,鵠沼松が岡１丁目５番１８号,,14,205,2510038,,,,,,,2025-06-09,1,,,,,イマタグループヨコハマジギョウショ,0
1546,6021001085444,新規,0,2025-06-09,2025-06-09,株式会社ＳＨＯコーポレーション,,株式会社,神奈川県,相模原市緑区,三ケ木２４７番地,,14,151,2520159,,,,,,,2025-06-09,1,,,,,エスエイチオーコーポレーション,0
1547,6021001085452,新規,0,2025-06-09,2025-06-09,株式会社鎌倉ＰＲＯＴＥ,,株式会社,神奈川県,鎌倉市,関谷１７１８番地,,14,204,2470075,,,,,,,2025-06-09,1,,,,,カマクラプロテ,0
1553,6040003027741,新規,0,2025-06-09,2025-06-09,ＬＵＢＡＮＺＡ　ＡＵＴＯ　ＣＯＭＰＡＮＹ合同会社,,合同会社,千葉県,千葉市花見川区,幕張本郷１丁目７－２４,,12,102,2620033,,,,,,,2025-06-09,1,,,,,ルバンザオートカンパニー,0
1554,6040003027758,新規,0,2025-06-09,2025-06-09,Ａｕｒｏｒａ合同会社,,合同会社,千葉県,船橋市,金杉台１丁目２－２－５０１室,,12,204,2730852,,,,,,,2025-06-09,1,,,,,オーロラ,0
1555,6040003027816,新規,0,2025-06-09,2025-06-09,合同会社Ｒｕｍｉｎｏ,,合同会社,千葉県,船橋市,浜町２丁目３番３２―７０５号,,12,204,2730012,,,,,,,2025-06-09,1,,,,,ルミノ,0
1558,6050003009334,新規,0,2025-06-09,2025-06-09,合同会社Ｋｅｙｓｔｏｎｅ　Ｐｌａｎｎｉｎｇ,,合同会社,茨城県,龍ケ崎市,若柴町４１７番地５,,08,208,3010041,,,,,,,2025-06-09,1,,,,,キーストーンプランニング,0
1569,6080101025544,新規,0,2025-06-09,2025-06-09,株式会社ＧＯＬＬＩＲＡ,,株式会社,静岡県,伊東市,宇佐美１６５９番地の１５,,22,208,4140001,,,,,,,2025-06-09,1,,,,,ゴリラ,0
1570,6090001019307,新規,0,2025-06-09,2025-06-09,Ｃｏｗ　ｈａｐｐｙ　ｈｏｏｆ　ｃａｒｅ株式会社,,株式会社,山梨県,北杜市,高根町浅川２７５番地１５９,,19,209,4070302,,,,,,,2025-06-09,1,,,,,カウハッピーホフケア,0
1572,6100003008223,新規,0,2025-06-09,2025-06-09,合同会社飯島舞台,,合同会社,長野県,上伊那郡箕輪町,大字中箕輪１０２８６番地１,,20,383,3994601,,,,,,,2025-06-09,1,,,,,イイジマブタイ,0
1573,6110001039319,新規,0,2025-06-09,2025-06-09,株式会社ＭＡＲＵＬＥ,,株式会社,新潟県,南魚沼市,塩沢６０６番地８,,15,226,9496408,,,,,,,2025-06-09,1,,,,,マルレ,0
1574,6110001039327,新規,0,2025-06-09,2025-06-09,株式会社北村工業,,株式会社,新潟県,妙高市,高柳１丁目８番２１号,,15,217,9440013,,,,,,,2025-06-09,1,,,,,キタムラコウギョウ,0
1576,6110003005780,新規,0,2025-06-09,2025-06-09,合同会社中越機器サービス,,合同会社,新潟県,長岡市,川崎６丁目１３５２番地,,15,202,9400864,,,,,,,2025-06-09,1,,,,,チュウエツキキサービス,0
1577,6110005017238,新規,0,2025-06-09,2025-06-09,一般社団法人ＳＡＩＫＡＣＨＩ,,その他の設立登記法人,新潟県,南蒲原郡田上町,大字羽生田乙５１７番地,,15,361,9591512,,,,,,,2025-06-09,1,,,,,サイカチ,0
1595,6120001276456,新規,0,2025-06-09,2025-06-09,ダブルエステート株式会社,,株式会社,大阪府,大阪市西区,北堀江１丁目２２番２,,27,106,5500014,,,,,,,2025-06-09,1,,,,,ダブルエステート,0
1596,6120001276621,新規,0,2025-06-09,2025-06-09,長寿園株式会社,,株式会社,大阪府,大阪市大正区,三軒家西３丁目４番１６号中山ビル４０２Ａ,,27,108,5510001,,,,,,,2025-06-09,1,,,,,チョウジュエン,0
1597,6120001276638,新規,0,2025-06-09,2025-06-09,ＴＯＫＵＲＩ株式会社,,株式会社,大阪府,大阪市北区,梅田１丁目２番２号大阪駅前第２ビル１２－１２,,27,127,5300001,,,,,,,2025-06-09,1,,,,,トクリ,0
1598,6120001276654,新規,0,2025-06-09,2025-06-09,雅想社株式会社,,株式会社,大阪府,大阪市浪速区,芦原１丁目１番２４号グランパシフィック桜川南３０１号,,27,111,5560029,,,,,,,2025-06-09,1,,,,,ガソウシャ,0
1599,6120001276662,新規,0,2025-06-09,2025-06-09,株式会社ＭＯＮＡＭＩ,,株式会社,大阪府,大阪市北区,天神橋５丁目７番２２号,,27,127,5300041,,,,,,,2025-06-09,1,,,,,モナミ,0
1600,6120001276712,新規,0,2025-06-09,2025-06-09,元騰株式会社,,株式会社,大阪府,大阪市西成区,萩之茶屋２丁目６－４ニューかめや４階１８６号室,,27,122,5570004,,,,,,,2025-06-09,1,,,,,ゲントウ,0
1601,6120001276720,新規,0,2025-06-09,2025-06-09,株式会社アガベリー,,株式会社,大阪府,大阪市北区,梅田１丁目１‐３大阪駅前第３ビル２９階１‐１‐１号室,,27,127,5300001,,,,,,,2025-06-09,1,,,,,アガベリー,0
1606,6120003029705,新規,0,2025-06-09,2025-06-09,芳＿合同会社,00139505,合同会社,大阪府,大阪市住之江区,安立２丁目７番２号宝楽トレジャー４０３号室,,27,125,5590003,,,,,,,2025-06-09,1,,,,,ホウキン,0
1617,6120901051025,新規,0,2025-06-09,2025-06-09,株式会社ドリーミースカイ,,株式会社,大阪府,吹田市,豊津町１０－７アカツキハイツ７０７,,27,205,5640051,,,,,,,2025-06-09,1,,,,,ドリーミースカイ,0
1621,6130001079833,新規,0,2025-06-09,2025-06-09,ここ不動産株式会社,,株式会社,京都府,京都市伏見区,西大黒町１０４３番地１,,26,109,6128337,,,,,,,2025-06-09,1,,,,,ココフドウサン,0
1622,6130001079866,新規,0,2025-06-09,2025-06-09,吉祥株式会社,,株式会社,京都府,京都市南区,東九条宇賀辺町７９番地３－３０２,,26,107,6018021,,,,,,,2025-06-09,1,,,,,キッショウ,0
1634,6140001138803,新規,0,2025-06-09,2025-06-09,株式会社吉田相続遺言サポート,,株式会社,兵庫県,加古川市,平岡町新在家３丁目２８５番地の１１,,28,210,6750101,,,,,,,2025-06-09,1,,,,,ヨシダソウゾクイゴンサポート,0
1635,6140001138844,新規,0,2025-06-09,2025-06-09,長谷川電機株式会社,,株式会社,兵庫県,加古川市,尾上町養田１５２４番地の１巴ビル２Ｆ－Ｃ,,28,210,6750025,,,,,,,2025-06-09,1,,,,,ハセガワデンキ,0
1636,6140001138877,新規,0,2025-06-09,2025-06-09,株式会社ＣＡＲ　ＣＲＡＦＴ　ＫＡＺ,,株式会社,兵庫県,川西市,けやき坂４丁目９番地の３,,28,217,6660145,,,,,,,2025-06-09,1,,,,,カークラフトカズ,0
1654,6180001167096,新規,0,2025-06-09,2025-06-09,株式会社あさひ,,株式会社,愛知県,瀬戸市,八幡台１丁目４１番地,,23,204,4890861,,,,,,,2025-06-09,1,,,,,アサヒ,0
1655,6180001167121,新規,0,2025-06-09,2025-06-09,ｗｉｔｈ　ＡＩ株式会社,,株式会社,愛知県,名古屋市天白区,八事石坂４０１番地の１プラウド八事石坂１０４号,,23,116,4680076,,,,,,,2025-06-09,1,,,,,ウィズアーアイ,0
1656,6180001167138,新規,0,2025-06-09,2025-06-09,ハプロリンクス株式会社,,株式会社,愛知県,小牧市,桃ケ丘１丁目３７番地６７,,23,219,4850813,,,,,,,2025-06-09,1,,,,,ハプロリンクス,0
1657,6180001167154,新規,0,2025-06-09,2025-06-09,エレファント株式会社,,株式会社,愛知県,名古屋市中区,千代田３丁目３１番３２号ドルフ千代田１０３,,23,106,4600012,,,,,,,2025-06-09,1,,,,,エレファント,0
1658,6180001167195,新規,0,2025-06-09,2025-06-09,株式会社ハンドアウト社,,株式会社,愛知県,名古屋市中区,丸の内２丁目７番１９号,,23,106,4600002,,,,,,,2025-06-09,1,,,,,ハンドアウトシャ,0
1659,6180001167204,新規,0,2025-06-09,2025-06-09,金子貿易株式会社,,株式会社,愛知県,春日井市,坂下町７丁目１７３番地１,,23,206,4800305,,,,,,,2025-06-09,1,,,,,カネコボウエキ,0
1660,6180001167212,新規,0,2025-06-09,2025-06-09,株式会社Ｓフードサポート,,株式会社,愛知県,清須市,春日宮重町１２２番地,,23,233,4520961,,,,,,,2025-06-09,1,,,,,エスフードサポート,0
1661,6180001167220,新規,0,2025-06-09,2025-06-09,株式会社ｏｆｆｉｃｅ．Ｋ,,株式会社,愛知県,名古屋市中村区,名駅３丁目４－１０アルティメイト名駅１ｓｔ２階,,23,105,4500002,,,,,,,2025-06-09,1,,,,,オフィスケイ,0
1662,6180001167237,新規,0,2025-06-09,2025-06-09,株式会社ＯＮＥＷＯＲＬＤ,,株式会社,愛知県,名古屋市天白区,植田西２丁目１４１４番地塩釜ハイツラハイナ２０５号室,,23,116,4680058,,,,,,,2025-06-09,1,,,,,ワンワールド,0
1682,6230001020951,新規,0,2025-06-09,2025-06-09,Ｐｒｏｓｐｅｒｉｔｉａ株式会社,,株式会社,富山県,射水市,庄川本町４番２号,,16,211,9340003,,,,,,,2025-06-09,1,,,,,プロスペリティア,0
1684,6240001065054,新規,0,2025-06-09,2025-06-09,Ｗａｃｒｏｓｓ　Ｊａｐａｎ株式会社,,株式会社,広島県,三次市,三良坂町岡田５２２番地４,,34,209,7294306,,,,,,,2025-06-09,1,,,,,ワクロスジャパン,0
1691,6260003005213,新規,0,2025-06-09,2025-06-09,合同会社ひとしお,,合同会社,岡山県,岡山市北区,中仙道２丁目３３番地１０９－２,,33,101,7000964,,,,,,,2025-06-09,1,,,,,ヒトシオ,0
1694,6290001110276,新規,0,2025-06-09,2025-06-09,株式会社Ｈ＆Ａサポートパートナーズ,,株式会社,福岡県,春日市,泉３丁目４６番地,,40,218,8160853,,,,,,,2025-06-09,1,,,,,エイチアンドエーサポートパートナーズ,0
1695,6290001110284,新規,0,2025-06-09,2025-06-09,株式会社日企設計,,株式会社,福岡県,福岡市博多区,博多駅東１丁目１４番２０号,,40,132,8120013,,,,,,,2025-06-09,1,,,,,ニッキセッケイ,0
1696,6290001110292,新規,0,2025-06-09,2025-06-09,株式会社常挑機設,,株式会社,福岡県,福岡市東区,下原３丁目７番２９－１０３号,,40,131,8130002,,,,,,,2025-06-09,1,,,,,ジョウトウキセツ,0
1697,6290001110318,新規,0,2025-06-09,2025-06-09,株式会社ＫＳＫ,,株式会社,福岡県,筑紫野市,むさしヶ丘３丁目１７番７号,,40,217,8180043,,,,,,,2025-06-09,1,,,,,ケイエスケイ,0
1698,6290001110326,新規,0,2025-06-09,2025-06-09,株式会社リバイバルクリーン,,株式会社,福岡県,福岡市博多区,博多駅前１丁目２３番２号ＰａｒｋＦｒｏｎｔ博多駅前１丁目５Ｆ－Ｂ,,40,132,8120011,,,,,,,2025-06-09,1,,,,,リバイバルクリーン,0
1699,6290001110334,新規,0,2025-06-09,2025-06-09,株式会社ＨＹ３,,株式会社,福岡県,福岡市中央区,今泉２丁目４番２４－９０５号,,40,133,8100021,,,,,,,2025-06-09,1,,,,,エイチワイスリー,0
1700,6290001110350,新規,0,2025-06-09,2025-06-09,株式会社Ｗａｖｌｅ,,株式会社,福岡県,福岡市東区,松島４丁目６番２６－３０５号,,40,131,8130062,,,,,,,2025-06-09,1,,,,,ウェイブル,0
1703,6290003016950,新規,0,2025-06-09,2025-06-09,合同会社グレイトサクセス,,合同会社,福岡県,福岡市南区,筑紫丘１丁目１４番１８－２０５号スカイハイツ大橋３１,,40,134,8150036,,,,,,,2025-06-09,1,,,,,グレイトサクセス,0
1706,6290801031614,新規,0,2025-06-09,2025-06-09,株式会社コノジ,,株式会社,福岡県,豊前市,大字八屋１３０３番地１,,40,214,8280021,,,,,,,2025-06-09,1,,,,,コノジ,0
1717,6330001033290,新規,0,2025-06-09,2025-06-09,株式会社アポロ,,株式会社,熊本県,八代市,郡築九番町８１番地,,43,202,8660004,,,,,,,2025-06-09,1,,,,,アポロ,0
1728,6360002017249,新規,0,2025-06-09,2025-06-09,有限会社三河屋,,有限会社,沖縄県,浦添市,港川２丁目２２番１号,,47,208,9012134,,,,,,,2025-06-09,1,,,,,,0
1733,6370001052691,新規,0,2025-06-09,2025-06-09,株式会社快晴建築設計事務所,,株式会社,宮城県,岩沼市,土ケ崎１丁目５番６号,,04,211,9892451,,,,,,,2025-06-09,1,,,,,カイセイケンチクセッケイジムショ,0
1736,6380001035365,新規,0,2025-06-09,2025-06-09,株式会社リンウッド,,株式会社,福島県,耶麻郡猪苗代町,字芦原６９番地３,00139506,07,408,9693121,,,,,,,2025-06-09,1,,,,,リンウッド,0
1739,6390001018014,新規,0,2025-06-09,2025-06-09,株式会社富士商事,,株式会社,山形県,新庄市,大字福田字福田山７１１番地の１８２,,06,205,9960053,,,,,,,2025-06-09,1,,,,,フジショウジ,0
1740,6400001017063,新規,0,2025-06-09,2025-06-09,株式会社一心,,株式会社,岩手県,盛岡市,小鳥沢２丁目２５番２号,,03,201,0200104,,,,,,,2025-06-09,1,,,,,イッシン,0
1744,6420003003126,新規,0,2025-06-09,2025-06-09,合同会社アルオルン,,合同会社,青森県,三戸郡階上町,大字赤保内字道仏道添１７番地１７,,02,446,0391202,,,,,,,2025-06-09,1,,,,,アルオルン,0
1749,6430003017752,新規,0,2025-06-09,2025-06-09,ＢＬＵＥ　ＧＲＥＥＮ合同会社,,合同会社,北海道,札幌市北区,北七条西４丁目１番地１トーカン札幌第一キャステール６０７,,01,102,0600807,,,,,,,2025-06-09,1,,,,,ブルーグリーン,0
1750,6430003017760,新規,0,2025-06-09,2025-06-09,合同会社ヴァルクス,,合同会社,北海道,札幌市東区,北二十五条東１丁目４－２８コーポ華英１０２,,01,103,0650025,,,,,,,2025-06-09,1,,,,,ヴァルクス,0
1752,6430005015250,新規,0,2025-06-09,2025-06-09,一般社団法人オハナ信託・相続サポート,,その他の設立登記法人,北海道,札幌市北区,北十条西１丁目１０番地１ＭＣビル６階,,01,102,0010010,,,,,,,2025-06-09,1,,,,,オハナシンタクソウゾクサポート,0
1753,6470001020754,新規,0,2025-06-09,2025-06-09,株式会社琥ノ葉,,株式会社,香川県,高松市,木太町６２８番地１４,,37,201,7600080,,,,,,,2025-06-09,1,,,,,コノハ,0
1771,7010001255503,新規,0,2025-06-09,2025-06-09,デジタルクラフト株式会社,,株式会社,東京都,中央区,日本橋富沢町４番地１０京成日本橋富沢町ビル,,13,102,1030006,,,,,,,2025-06-09,1,,,,,デジタルクラフト,0
1772,7010001255841,新規,0,2025-06-09,2025-06-09,株式会社Ｒｕｓｋｏ,,株式会社,東京都,中央区,銀座１丁目１２－４Ｎ＆ＥＢＬＤ．７階,,13,102,1040061,,,,,,,2025-06-09,1,,,,,ルスコ,0
1774,7010003047097,新規,0,2025-06-09,2025-06-09,合同会社ＳＥＮＴＥ,,合同会社,東京都,千代田区,神田多町２丁目９－４,,13,101,1010046,,,,,,,2025-06-09,1,,,,,センテ,0
1775,7010003047618,新規,0,2025-06-09,2025-06-09,合同会社ＩＤＡＩＬ,,合同会社,東京都,中央区,銀座１丁目２２－１１銀座大竹ビジデンス２Ｆ,,13,102,1040061,,,,,,,2025-06-09,1,,,,,イダイル,0
1785,7010601067406,新規,0,2025-06-09,2025-06-09,株式会社Ｃｏｃｏａ,,株式会社,東京都,江東区,常盤１丁目１１番１０号榛名ビル５Ｂ号室,,13,108,1350006,,,,,,,2025-06-09,1,,,,,ココア,0
1787,7010701047803,新規,0,2025-06-09,2025-06-09,株式会社Ｄ‐Ｃｅｎｔ,,株式会社,東京都,品川区,荏原５丁目５番３号,,13,109,1420063,,,,,,,2025-06-09,1,,,,,ディセント,0
1788,7010701047811,新規,0,2025-06-09,2025-06-09,株式会社タートルハウス,,株式会社,東京都,品川区,東五反田４丁目６番１０号オープンレジデンシア高輪台５０２,,13,109,1410022,,,,,,,2025-06-09,1,,,,,タートルハウス,0
1791,7010805003181,新規,0,2025-06-09,2025-06-09,一般社団法人ホツマツタヱ普及協会,,その他の設立登記法人,東京都,大田区,南千束１丁目８番１号,,13,111,1450063,,,,,,,2025-06-09,1,,,,,ホツマツタヱフキュウキョウカイ,0
1796,7010901057536,新規,0,2025-06-09,2025-06-09,株式会社Ｎ＆Ｔ,,株式会社,東京都,世田谷区,等々力２丁目１５番７号,,13,112,1580082,,,,,,,2025-06-09,1,,,,,エヌアンドティー,0
1804,7011001170015,新規,0,2025-06-09,2025-06-09,株式会社ユーギ,,株式会社,東京都,渋谷区,渋谷２丁目１９番１５号宮益坂ビルディング６０９,,13,113,1500002,,,,,,,2025-06-09,1,,,,,ユーギ,0
1805,7011001170270,新規,0,2025-06-09,2025-06-09,株式会社Ｎｅｏ　Ｅｄｇｅ,,株式会社,東京都,渋谷区,神南１丁目１１番４号ＦＰＧリンクス神南５階,,13,113,1500041,,,,,,,2025-06-09,1,,,,,ネオエッジ,0
1806,7011001170436,新規,0,2025-06-09,2025-06-09,日本エネルギーキャピタル株式会社,,株式会社,東京都,渋谷区,道玄坂１丁目１０番８号渋谷道玄坂東急ビル２Ｆ－Ｃ,,13,113,1500043,,,,,,,2025-06-09,1,,,,,ニホンエネルギーキャピタル,0
1815,7011101112008,新規,0,2025-06-09,2025-06-09,大夢ホールディングス株式会社,,株式会社,東京都,新宿区,歌舞伎町１丁目１１番５号長谷川ビル１階,,13,104,1600021,,,,,,,2025-06-09,1,,,,,ダイムホールディングス,0
1817,7011103015984,新規,0,2025-06-09,2025-06-09,Ｂｌｕｅ　Ｓｋｙ　Ｌａｂ合同会社,,合同会社,東京都,新宿区,北新宿３丁目２２番１０－４２１号,,13,104,1690074,,,,,,,2025-06-09,1,,,,,ブルースカイラボ,0
1819,7011203004730,新規,0,2025-06-09,2025-06-09,幸山堂合同会社,,合同会社,東京都,中野区,南台２丁目３６番１１号,,13,114,1640014,,,,,,,2025-06-09,1,,,,,コウサンドウ,0
1823,7011301030637,新規,0,2025-06-09,2025-06-09,ＲｅＰＬＩＣＡＴＯＲＳ株式会社,,株式会社,東京都,杉並区,宮前２丁目１９番１４号,,13,115,1680081,,,,,,,2025-06-09,1,,,,,,0
1824,7011303005570,新規,0,2025-06-09,2025-06-09,Ｗｅｌｃｏｍｅ　ｔｏ　Ｊａｐａｎ合同会社,,合同会社,東京都,杉並区,高円寺北４丁目１７番１２号,,13,115,1660002,,,,,,,2025-06-09,1,,,,,ウェルカムトゥジャパン,0
1833,7011501032185,新規,0,2025-06-09,2025-06-09,ＥＣＪ株式会社,,株式会社,東京都,北区,東田端２丁目９番１７号２１３号室,,13,117,1140013,,,,,,,2025-06-09,1,,,,,イーシージェイ,0
1835,7011601028711,新規,0,2025-06-09,2025-06-09,株式会社藤崎工業,00139492,株式会社,東京都,練馬区,土支田３丁目２２番８－１０６号,,13,120,1790076,,,,,,,2025-06-09,1,,,,,フジサキコウギョウ,0
1842,7012801024005,新規,0,2025-06-09,2025-06-09,態度株式会社,,株式会社,東京都,国立市,西２丁目３１番地の６、１０１室,,13,215,1860005,,,,,,,2025-06-09,1,,,,,タイド,0
1853,7020001163300,新規,0,2025-06-09,2025-06-09,株式会社カネダ・アンド・パートナーズ,,株式会社,神奈川県,川崎市宮前区,神木１丁目６番地４１,,14,136,2160032,,,,,,,2025-06-09,1,,,,,カネダアンドパートナーズ,0
1854,7020001163309,新規,0,2025-06-09,2025-06-09,株式会社毛利ノ厨房,,株式会社,神奈川県,横浜市西区,北幸２丁目１０番４８むつみビル３階,,14,103,2200004,,,,,,,2025-06-09,1,,,,,モウリノチュウボウ,0
1857,7020005016891,新規,0,2025-06-09,2025-06-09,一般社団法人たまきはる,,その他の設立登記法人,神奈川県,横浜市中区,太田町２丁目２３番地横浜メディア・ビジネスセンター６階,,14,104,2310011,,,,,,,2025-06-09,1,,,,,タマキハル,0
1858,7021001085419,新規,0,2025-06-09,2025-06-09,株式会社おかずもち,,株式会社,神奈川県,藤沢市,本鵠沼１丁目７番３７－１号,00139494,14,205,2510028,,,,,,,2025-06-09,1,,,,,オカズモチ,0
1859,7021001085435,新規,0,2025-06-09,2025-06-09,株式会社相模原大樹農産,,株式会社,神奈川県,相模原市緑区,大島３５２３番地１,,14,151,2520135,,,,,,,2025-06-09,1,,,,,サガミハラタイジュノウサン,0
1860,7021001085451,新規,0,2025-06-09,2025-06-09,株式会社エスワイド,,株式会社,神奈川県,大和市,南林間６丁目４番８－６号,,14,213,2420006,,,,,,,2025-06-09,1,,,,,エスワイド,0
1861,7021003016090,新規,0,2025-06-09,2025-06-09,合同会社どっと舎,,合同会社,神奈川県,海老名市,上今泉３丁目７番３２号,,14,215,2430431,,,,,,,2025-06-09,1,,,,,ドットシャ,0
1870,7030001166995,新規,0,2025-06-09,2025-06-09,株式会社リンカメ,,株式会社,埼玉県,さいたま市見沼区,深作３丁目１２番地１０,,11,104,3370003,,,,,,,2025-06-09,1,,,,,リンカメ,0
1883,7040001139083,新規,0,2025-06-09,2025-06-09,株式会社ＳＡｕｎｄ　Ｌａｂ,,株式会社,千葉県,船橋市,西船３丁目１番３－１号,,12,204,2730031,,,,,,,2025-06-09,1,,,,,サウンドラボ,0
1884,7040001139091,新規,0,2025-06-09,2025-06-09,株式会社中央学院サービス１２５,,株式会社,千葉県,我孫子市,久寺家４５１番地,,12,222,2701163,,,,,,,2025-06-09,1,,,,,チュウオウガクインサービスイチニゴ,0
1885,7040001139158,新規,0,2025-06-09,2025-06-09,ライフコミュニケーションズ株式会社,,株式会社,千葉県,千葉市美浜区,磯辺１丁目３１番１０－２号,,12,106,2610012,,,,,,,2025-06-09,1,,,,,ライフコミュニケーションズ,0
1886,7040001139166,新規,0,2025-06-09,2025-06-09,株式会社薬丸商会,,株式会社,千葉県,松戸市,古ケ崎１９２番地の６,,12,207,2710068,,,,,,,2025-06-09,1,,,,,ヤクマルショウカイ,0
1888,7040003027773,新規,0,2025-06-09,2025-06-09,合同会社ＹＡ‐ＴＯ,,合同会社,千葉県,市川市,若宮３丁目１１番５－１０１号（若宮マンションＢ棟）,,12,203,2720812,,,,,,,2025-06-09,1,,,,,ヤト,0
1889,7050003009325,新規,0,2025-06-09,2025-06-09,合同会社コアテック,,合同会社,茨城県,高萩市,大字上手綱３９８８番地８,,08,214,3180004,,,,,,,2025-06-09,1,,,,,コアテック,0
1902,7080103003349,新規,0,2025-06-09,2025-06-09,合同会社ＨＥＬＰＦＵＬ,,合同会社,静岡県,富士市,水戸島１丁目４番２３号,,22,210,4160921,,,,,,,2025-06-09,1,,,,,ヘルプフル,0
1913,7110001039318,新規,0,2025-06-09,2025-06-09,株式会社ＢＥＣＣ,,株式会社,新潟県,十日町市,下条２丁目２３０番地５,,15,210,9498603,,,,,,,2025-06-09,1,,,,,ベック,0
1914,7110001039326,新規,0,2025-06-09,2025-06-09,株式会社田村屋,,株式会社,新潟県,長岡市,学校町２丁目６番１８号,,15,202,9400041,,,,,,,2025-06-09,1,,,,,タムラヤ,0
1915,7110001039334,新規,0,2025-06-09,2025-06-09,ＭＩＹＡＢＩ　ＴＲＡＤＥ株式会社,,株式会社,新潟県,新潟市西区,小針１丁目１４番１０号オレンジハウス２０１号,,15,107,9502022,,,,,,,2025-06-09,1,,,,,ミヤビトレード,0
1924,7120001276496,新規,0,2025-06-09,2025-06-09,株式会社ノヴァライト,,株式会社,大阪府,大阪市淀川区,西中島６丁目７番１１号小谷第一ビル８Ｆ,,27,123,5320011,,,,,,,2025-06-09,1,,,,,ノヴァライト,0
1925,7120001276587,新規,0,2025-06-09,2025-06-09,株式会社大伸エステート,,株式会社,大阪府,大阪市平野区,背戸口４丁目２番９号５０１号室,,27,126,5470034,,,,,,,2025-06-09,1,,,,,ダイシンエステート,0
1926,7120001276620,新規,0,2025-06-09,2025-06-09,株式会社桜華,,株式会社,大阪府,大阪市東成区,大今里３丁目１５番６号ＩｍａｚａｔｏＴｏｗｅｒ２０２Ｄ,,27,115,5370012,,,,,,,2025-06-09,1,,,,,オウカ,0
1927,7120001276678,新規,0,2025-06-09,2025-06-09,株式会社ＨＡＲＩＭＯＴＯ,,株式会社,大阪府,大阪市平野区,加美正覚寺３丁目８番２８号,,27,126,5470006,,,,,,,2025-06-09,1,,,,,ハリモト,0
1928,7120001276711,新規,0,2025-06-09,2025-06-09,チューリップ株式会社,,株式会社,大阪府,大阪市中央区,島之内２丁目１０番１２号７１４号室,,27,128,5420082,,,,,,,2025-06-09,1,,,,,チューリップ,0
1929,7120001276736,新規,0,2025-06-09,2025-06-09,株式会社蟹華,,株式会社,大阪府,大阪市北区,豊崎３丁目１０番２号Ｉ＆Ｆ梅田８０４号室,,27,127,5310072,,,,,,,2025-06-09,1,,,,,カニハナ,0
1936,7120101071855,新規,0,2025-06-09,2025-06-09,株式会社ＡＹＧＲＯＵＰ,,株式会社,大阪府,堺市東区,南野田３６６番地４１,,27,143,5998124,,,,,,,2025-06-09,1,,,,,エーワイグループ,0
1938,7120901051016,新規,0,2025-06-09,2025-06-09,株式会社ｍｕｓｔ,,株式会社,大阪府,豊中市,庄内宝町１丁目３番３０号,,27,203,5610836,,,,,,,2025-06-09,1,,,,,マスト,0
1939,7120901051024,新規,0,2025-06-09,2025-06-09,Ｙｕｋｉｋａ　Ｐｒｏ．株式会社,,株式会社,大阪府,豊中市,新千里東町２丁目５番３－１４０６号,,27,203,5600082,,,,,,,2025-06-09,1,,,,,ユキカプロ,0
1947,7130001079857,新規,0,2025-06-09,2025-06-09,株式会社ＯｈＭｙＦａｍｉｌｙ,,株式会社,京都府,京都市東山区,泉涌寺東林町８番－２０１号,,26,105,6050976,,,,,,,2025-06-09,1,,,,,オーマイファミリー,0
1948,7130003010514,新規,0,2025-06-09,2025-06-09,合同会社Ａｒｔｉｓｈｉｏｎ,,合同会社,京都府,京都市上京区,室町通今出川下る北小路室町３９８番地１－６０２,,26,102,6020901,,,,,,,2025-06-09,1,,,,,アーティション,0
1955,7140001138802,新規,0,2025-06-09,2025-06-09,株式会社ＡｕｆＬｕｍｅｎ,,株式会社,兵庫県,姫路市,広畑区西蒲田２０番地２コンシェル姫路西２０１号室,,28,201,6711107,,,,,,,2025-06-09,1,,,,,アウフルーメン,0
1956,7140001138810,新規,0,2025-06-09,2025-06-09,株式会社藤村工業,,株式会社,兵庫県,加古川市,加古川町稲屋７９０番地の１,,28,210,6750034,,,,,,,2025-06-09,1,,,,,フジムラコウギョウ,0
1957,7140001138819,新規,0,2025-06-09,2025-06-09,株式会社三ツ星不動産流通,,株式会社,兵庫県,姫路市,佃町８２番地,,28,201,6728049,,,,,,,2025-06-09,1,,,,,ミツボシフドウサンリュウツウ,0
1958,7140001138835,新規,0,2025-06-09,2025-06-09,株式会社如水,,株式会社,兵庫県,川西市,萩原１丁目１７番１０号,,28,217,6660004,,,,,,,2025-06-09,1,,,,,ジョスイ,0
1959,7140003022145,新規,0,2025-06-09,2025-06-09,合同会社ＰｉｕＲｅ,,合同会社,兵庫県,神戸市長田区,松野通２丁目２番３４号,,28,106,6530841,,,,,,,2025-06-09,1,,,,,ピウル,0
1966,7180001167087,新規,0,2025-06-09,2025-06-09,株式会社ブルーモーメント,,株式会社,愛知県,名古屋市中川区,昭和橋通６丁目４１番地の１,,23,110,4540852,,,,,,,2025-06-09,1,,,,,ブルーモーメント,0
1967,7180001167186,新規,0,2025-06-09,2025-06-09,株式会社Ａｕｂｅ,,株式会社,愛知県,名古屋市千種区,小松町６丁目１１番地の３,,23,101,4640853,,,,,,,2025-06-09,1,,,,,オーブ,0
1968,7180001167211,新規,0,2025-06-09,2025-06-09,ＧＴ　ＪＡＰＡＮ株式会社,,株式会社,愛知県,名古屋市東区,泉３丁目１７番１０号泉ビル２０１号,,23,102,4610001,,,,,,,2025-06-09,1,,,,,ジーティージャパン,0
1969,7180001167228,新規,0,2025-06-09,2025-06-09,株式会社ＧＲＯＯＶＥ,,株式会社,愛知県,名古屋市中村区,名駅３丁目４－１０アルティメイト名駅１ｓｔ２階,,23,105,4500002,,,,,,,2025-06-09,1,,,,,グルーヴ,0
1970,7180001167252,新規,0,2025-06-09,2025-06-09,ＫＬＸ　ＤＩＧＩＴＡＬ株式会社,,株式会社,愛知県,名古屋市中村区,名駅４丁目２４番５号第２森ビル４０１,,23,105,4500002,,,,,,,2025-06-09,1,,,,,ケーエールエックスデジタル,0
1976,7180301039886,新規,0,2025-06-09,2025-06-09,株式会社勇雅プラントシステム,,株式会社,愛知県,蒲郡市,水竹町西清水川７番地１号,,23,214,4430005,,,,,,,2025-06-09,1,,,,,ユウガプラントシステム,0
1980,7190003005070,新規,0,2025-06-09,2025-06-09,合同会社きりん,,合同会社,三重県,伊賀市,上林８００番地,,24,216,5180112,,,,,,,2025-06-09,1,,,,,キリン,0
1982,7200003006868,新規,0,2025-06-09,2025-06-09,合同会社藍舎,,合同会社,岐阜県,安八郡安八町,芝原東結１５６１番地,,21,383,5030100,,,,,,,2025-06-09,1,,,,,アイシャ,0
1991,7240001065053,新規,0,2025-06-09,2025-06-09,株式会社日吉屋,,株式会社,広島県,福山市,内海町イ１３００番地,,34,207,7222631,,,,,,,2025-06-09,1,,,,,ヒヨシヤ,0
1994,7260003005212,新規,0,2025-06-09,2025-06-09,ＲｅＢＯＵＮＤ合同会社,,合同会社,岡山県,倉敷市,西中新田２５９番地１,,33,202,7100833,,,,,,,2025-06-09,1,,,,,リバウンド,0
1998,7270003001755,新規,0,2025-06-09,2025-06-09,合同会社グッドマルカンパニー,,合同会社,鳥取県,西伯郡大山町,押平１６７番地１,,31,386,6893225,,,,,,,2025-06-09,1,,,,,グッドマルカンパニー,0
2003,7290001110283,新規,0,2025-06-09,2025-06-09,チエファーム株式会社,,株式会社,福岡県,久留米市,安武町武島８００番地７,,40,203,8300071,,,,,,,2025-06-09,1,,,,,チエファーム,0
2004,7290001110300,新規,0,2025-06-09,2025-06-09,アルシーズ株式会社,,株式会社,福岡県,小郡市,大崎３番地６,,40,216,8380127,,,,,,,2025-06-09,1,,,,,アルシーズ,0
2005,7290001110325,新規,0,2025-06-09,2025-06-09,株式会社縁ゲート,,株式会社,福岡県,大野城市,白木原３丁目４－１５リベラルマンション１０１号,,40,219,8160943,,,,,,,2025-06-09,1,,,,,エンゲート,0
2006,7290001110333,新規,0,2025-06-09,2025-06-09,株式会社大建設,,株式会社,福岡県,福岡市西区,愛宕浜２丁目１番１４号クレアコースト４番館８０３,,40,135,8190013,,,,,,,2025-06-09,1,,,,,ダイケンセツ,0
2011,7290003016941,新規,0,2025-06-09,2025-06-09,合同会社ツカモト,,合同会社,福岡県,太宰府市,都府楼南５丁目１３番１号,,40,221,8180105,,,,,,,2025-06-09,1,,,,,ツカモト,0
2012,7290003016974,新規,0,2025-06-09,2025-06-09,合同会社エスストア,,合同会社,福岡県,福岡市早良区,西新２丁目８番１２－３０２号,,40,137,8140002,,,,,,,2025-06-09,1,,,,,エスストア,0
2016,7320003004686,新規,0,2025-06-09,2025-06-09,まるあ美合同会社,,合同会社,大分県,大分市,富士見が丘西２丁目１３番１３号,,44,201,8701177,,,,,,,2025-06-09,1,,,,,マルアビ,0
2017,7320005010245,新規,0,2025-06-09,2025-06-09,医療法人猪野歯科クリニック,,その他の設立登記法人,大分県,大分市,大字猪野１２４１番地の５,,44,201,8700134,,,,,,,2025-06-09,1,,,,,イノシカクリニック,0
2018,7330001033273,新規,0,2025-06-09,2025-06-09,株式会社ウラックス,,株式会社,熊本県,熊本市中央区,帯山４丁目４４番５号帯山ビル３０１,,43,101,8620924,,,,,,,2025-06-09,1,,,,,ウラックス,0
2024,7360001035317,新規,0,2025-06-09,2025-06-09,株式会社２０２５,,株式会社,沖縄県,豊見城市,字渡嘉敷２４９番地３,,47,212,9010215,,,,,,,2025-06-09,1,,,,,ニィマルニィゴ,0
2034,7400001017054,新規,0,2025-06-09,2025-06-09,株式会社ｓｔａｒｔ　ｕｐ,,株式会社,岩手県,盛岡市,八幡町１２－１べレオ盛岡八幡２０１号,,03,201,0200872,,,,,,,2025-06-09,1,,,,,スタートアップ,0
2036,7420001019164,新規,0,2025-06-09,2025-06-09,株式会社Ｕｗｅｉｇｈｔ,,株式会社,青森県,弘前市,大字百石町３８番１号株式会社コンシス１階,,02,202,0368035,,,,,,,2025-06-09,1,,,,,ウエイト,0
2037,7420001019172,新規,0,2025-06-09,2025-06-09,株式会社小笠原興業,,株式会社,青森県,八戸市,大字尻内町字尻内５９番地６,,02,203,0391101,,,,,,,2025-06-09,1,,,,,オガサワラコウギョウ,0
2040,7430001094636,新規,0,2025-06-09,2025-06-09,創生符号株式会社,,株式会社,北海道,札幌市中央区,南一条西１３丁目４－５５岩渕ビル２階Ｍ室,,01,101,0600061,,,,,,,2025-06-09,1,,,,,ソウセイフゴウ,0
2046,7470001020753,新規,0,2025-06-09,2025-06-09,株式会社ＪＡＭ　ＦＡＣＴＯＲＹ,,株式会社,香川県,高松市,東植田町２０１４番地２,,37,201,7610446,,,,,,,2025-06-09,1,,,,,ジャムファクトリー,0
2048,7470003002898,新規,0,2025-06-09,2025-06-09,合同会社オンリーワン,,合同会社,香川県,丸亀市,土器町東３丁目５６１番地１２,,37,202,7630082,,,,,,,2025-06-09,1,,,,,オンリーワン,0
2054,7500005008799,新規,0,2025-06-09,2025-06-09,ＮＰＯ法人愛媛県セーリング連盟,,その他の設立登記法人,愛媛県,松山市,松ノ木１丁目７番３５号,,38,201,7918071,,,,,,,2025-06-09,1,,,,,エヒメケンセーリングレンメイ,0
2061,8010001255460,新規,0,2025-06-09,2025-06-09,ルミプロス株式会社,,株式会社,東京都,千代田区,九段南１丁目５番６号,,13,101,1020074,,,,,,,2025-06-09,1,,,,,ルミプロス,0
2062,8010001255766,新規,0,2025-06-09,2025-06-09,ｎａｌｌｙ株式会社,,株式会社,東京都,千代田区,九段北４丁目３番２６号５階,,13,101,1020073,,,,,,,2025-06-09,1,,,,,ナリー,0
2063,8010001255865,新規,0,2025-06-09,2025-06-09,株式会社ＫＨホールディングス,,株式会社,東京都,千代田区,神田神保町３丁目１２－３神保町スリービル８階,,13,101,1010051,,,,,,,2025-06-09,1,,,,,ケーエイチホールディングス,0
2075,8010401190786,新規,0,2025-06-09,2025-06-09,株式会社ＯＮ　Ａ　ＲＯＬＬ,,株式会社,東京都,港区,南青山２丁目２番１５号ウィン青山９４２,,13,103,1070062,,,,,,,2025-06-09,1,,,,,オンアロール,0
2076,8010401190902,新規,0,2025-06-09,2025-06-09,ＥｍｏｔｉｏｎＸ株式会社,,株式会社,東京都,港区,芝浦３丁目１番２１号田町ステーションタワーＳ,,13,103,1080023,,,,,,,2025-06-09,1,,,,,エモーションエックス,0
2077,8010403035246,新規,0,2025-06-09,2025-06-09,合同会社Ｆｉｒｓｔ,,合同会社,東京都,港区,港南４丁目６－３－３２０５号,,13,103,1080075,,,,,,,2025-06-09,1,,,,,ファースト,0
2078,8010403035345,新規,0,2025-06-09,2025-06-09,フロモント合同会社,,合同会社,東京都,港区,浜松町２丁目２番１５号浜松町ダイヤビル２Ｆ,,13,103,1050013,,,,,,,2025-06-09,1,,,,,フロモント,0
2081,8010601067421,新規,0,2025-06-09,2025-06-09,株式会社ＢＪ,,株式会社,東京都,墨田区,江東橋３丁目６番１２号ペンシルビル地下１階,,13,107,1300022,,,,,,,2025-06-09,1,,,,,ビージェイ,0
2086,8010701047802,新規,0,2025-06-09,2025-06-09,サファル株式会社,,株式会社,東京都,品川区,西中延２丁目８番７号,,13,109,1420054,,,,,,,2025-06-09,1,,,,,サファル,0
2087,8010703007738,新規,0,2025-06-09,2025-06-09,Ｈｅｍｅ．合同会社,,合同会社,東京都,品川区,荏原６丁目５－１、２０５,,13,109,1420063,,,,,,,2025-06-09,1,,,,,エメ,0
2091,8010803005435,新規,0,2025-06-09,2025-06-09,合同会社エスアイワン,,合同会社,東京都,大田区,多摩川１丁目３６番２０―５０１号,,13,111,1460095,,,,,,,2025-06-09,1,,,,,エスアイワン,0
2106,8011001169907,新規,0,2025-06-09,2025-06-09,株式会社Ａｗａｖｅ,,株式会社,東京都,渋谷区,恵比寿西１丁目３０番３号キーファー代官山３０２,,13,113,1500021,,,,,,,2025-06-09,1,,,,,アウェイヴ,0
2107,8011001170055,新規,0,2025-06-09,2025-06-09,エマノン株式会社,,株式会社,東京都,渋谷区,宇田川町１番１２－３６０２号,,13,113,1500042,,,,,,,2025-06-09,1,,,,,エマノン,0
2108,8011001170443,新規,0,2025-06-09,2025-06-09,株式会社レガシーシェアーズ,,株式会社,東京都,渋谷区,道玄坂１丁目１０番８号渋谷道玄坂東急ビル２Ｆ－Ｃ,,13,113,1500043,,,,,,,2025-06-09,1,,,,,レガシーシェアーズ,0
2109,8011003021743,新規,0,2025-06-09,2025-06-09,うちキャリ合同会社,,合同会社,東京都,渋谷区,神南１丁目１１番４号ＦＰＧリンクス神南５階,,13,113,1500041,,,,,,,2025-06-09,1,,,,,ウチキャリ,0
2110,8011003021842,新規,0,2025-06-09,2025-06-09,ＳＧｉ　Ｐｉｎｅａｐｐｌｅｓ合同会社,,合同会社,東京都,目黒区,駒場３丁目１番７号,,13,110,1530041,,,,,,,2025-06-09,1,,,,,エスジーアイパイナップルズ,0
2114,8011105011469,新規,0,2025-06-09,2025-06-09,一般社団法人日本プロモーション戦略協会,,その他の設立登記法人,東京都,新宿区,西新宿６丁目１２番４－８０１号,,13,104,1600023,,,,,,,2025-06-09,1,,,,,ニホンプロモーションセンリャクキョウカイ,0
2125,8011601028710,新規,0,2025-06-09,2025-06-09,株式会社８ｄｅｓｉｇｎ,,株式会社,東京都,練馬区,下石神井２丁目９番１０号,,13,120,1770042,,,,,,,2025-06-09,1,,,,,ハチデザイン,0
2129,8012403007175,新規,0,2025-06-09,2025-06-09,合同会社ｃａｔｎａｐ,,合同会社,東京都,三鷹市,下連雀４丁目１６－３,,13,204,1810013,,,,,,,2025-06-09,1,,,,,キャットナップ,0
2130,8012701018907,新規,0,2025-06-09,2025-06-09,株式会社たつのじ書房,,株式会社,東京都,西東京市,田無町３丁目３番２５－２０３号,,13,229,1880011,,,,,,,2025-06-09,1,,,,,タツノジショボウ,0
2134,8013303007678,新規,0,2025-06-09,2025-06-09,マコレックス合同会社,,合同会社,東京都,豊島区,東池袋３丁目１－１サンシャインシティ緑エリア,,13,116,1700013,,,,,,,2025-06-09,1,,,,,マコレックス,0
2140,8020001163217,新規,0,2025-06-09,2025-06-09,株式会社ＢＳアクアプロジェクト,,株式会社,神奈川県,横浜市金沢区,鳥浜町１２番地３１,,14,108,2360002,,,,,,,2025-06-09,1,,,,,ビーエスアクアプロジェクト,0
2141,8020001163274,新規,0,2025-06-09,2025-06-09,株式会社ｅｓｏｌａ,,株式会社,神奈川県,横浜市旭区,鶴ケ峰２丁目２１番１３号,,14,112,2410022,,,,,,,2025-06-09,1,,,,,エソラ,0
2142,8020001163324,新規,0,2025-06-09,2025-06-09,株式会社嘉信,,株式会社,神奈川県,横浜市金沢区,平潟町３１番１－６１２,,14,108,2360023,,,,,,,2025-06-09,1,,,,,カシン,0
2147,8020003028665,新規,0,2025-06-09,2025-06-09,スミヨシクラブ合同会社,,合同会社,神奈川県,川崎市中原区,木月１丁目２９－１８,,14,133,2110025,,,,,,,2025-06-09,1,,,,,スミヨシクラブ,0
2148,8020003028681,新規,0,2025-06-09,2025-06-09,合同会社ＣＲＥＤＯ,,合同会社,神奈川県,横浜市西区,浅間町１丁目４番地３ウィザードビル４０２,,14,103,2200072,,,,,,,2025-06-09,1,,,,,クレード,0
2149,8021001085434,新規,0,2025-06-09,2025-06-09,重洋帆走株式会社,,株式会社,神奈川県,茅ヶ崎市,本宿町１２番１１号,,14,207,2530014,,,,,,,2025-06-09,1,,,,,シゲヒロハンソウ,0
2150,8021001085467,新規,0,2025-06-09,2025-06-09,株式会社ヤマ総,,株式会社,神奈川県,足柄上郡開成町,延沢５５４番地６,,14,366,2580026,,,,,,,2025-06-09,1,,,,,,0
2152,8030001166879,新規,0,2025-06-09,2025-06-09,株式会社ＴＡＵＫ,,株式会社,埼玉県,川口市,大字長蔵新田２８１番地ＦＩＥＳＴＡＤＥＩＮＯＵＥＩＶ－２０１,00139493,11,203,3330808,,,,,,,2025-06-09,1,,,,,トーク,0
2153,8030001166978,新規,0,2025-06-09,2025-06-09,株式会社ＢＵＮＲＩ,,株式会社,埼玉県,戸田市,笹目５丁目１５番地の４７,,11,224,3350034,,,,,,,2025-06-09,1,,,,,ブンリ,0
2166,8040003027814,新規,0,2025-06-09,2025-06-09,合同会社アグロペリア,,合同会社,千葉県,船橋市,飯山満町１丁目２７６―１１,,12,204,2740822,,,,,,,2025-06-09,1,,,,,アグロペリア,0
2172,8050001056780,新規,0,2025-06-09,2025-06-09,株式会社トライリンク,,株式会社,茨城県,つくば市,梅園２丁目７番地１,,08,220,3050045,,,,,,,2025-06-09,1,,,,,トライリンク,0
2173,8050001056789,新規,0,2025-06-09,2025-06-09,株式会社ビッグウェーブ,,株式会社,茨城県,稲敷市,阿波崎４５７７番地,,08,229,3000602,,,,,,,2025-06-09,1,,,,,ビッグウェーブ,0
2174,8050001056797,新規,0,2025-06-09,2025-06-09,尚武株式会社,,株式会社,茨城県,常総市,大生郷町２６６７番地１,,08,211,3002521,,,,,,,2025-06-09,1,,,,,,0
2175,8050003009340,新規,0,2025-06-09,2025-06-09,合同会社ＯＩＬ,,合同会社,茨城県,守谷市,松並青葉１丁目１番地５レーベン守谷ＴＨＥＢＲＩＤＧＥ１１２,,08,224,3020132,,,,,,,2025-06-09,1,,,,,,0
2178,8070001043001,新規,0,2025-06-09,2025-06-09,株式会社リョーチホールディングス,,株式会社,群馬県,高崎市,小八木町２０３９番地１,,10,202,3700071,,,,,,,2025-06-09,1,,,,,リョーチホールディングス,0
2184,8080001026979,新規,0,2025-06-09,2025-06-09,株式会社大坪設備,,株式会社,静岡県,静岡市駿河区,向敷地４丁目１５番２３号,,22,102,4210101,,,,,,,2025-06-09,1,,,,,オオツボセツビ,0
2187,8080101025542,新規,0,2025-06-09,2025-06-09,若林建築株式会社,,株式会社,静岡県,富士市,松岡２０１番地の１,,22,210,4160909,,,,,,,2025-06-09,1,,,,,ワカバヤシケンチク,0
2192,8090003002837,新規,0,2025-06-09,2025-06-09,合同会社ロファクト,,合同会社,山梨県,甲州市,塩山上井尻１４８８番地６,,19,213,4040046,,,,,,,2025-06-09,1,,,,,ロファクト,0
2197,8100003008221,新規,0,2025-06-09,2025-06-09,Ｆｌｙｉｎｇ　Ｆｒｏｇ合同会社,,合同会社,長野県,上水内郡信濃町,大字野尻４３６－９,,20,583,3891303,,,,,,,2025-06-09,1,,,,,フライングフロッグ,0
2199,8110001039317,新規,0,2025-06-09,2025-06-09,株式会社りぜん農産,,株式会社,新潟県,南魚沼市,雷土４７３番地１,,15,226,9497228,,,,,,,2025-06-09,1,,,,,リゼンノウサン,0
2200,8110001039325,新規,0,2025-06-09,2025-06-09,遠大株式会社,,株式会社,新潟県,妙高市,大字二俣１５２６番地３６３,,15,217,9492101,,,,,,,2025-06-09,1,,,,,エンダイ,0
2201,8110001039333,新規,0,2025-06-09,2025-06-09,Ｎエステート株式会社,,株式会社,新潟県,新潟市中央区,南万代町１１番１３号,,15,103,9500902,,,,,,,2025-06-09,1,,,,,エヌエステート,0
2202,8110001039341,新規,0,2025-06-09,2025-06-09,株式会社アルプスリージョナルパートナーズ,,株式会社,新潟県,南魚沼市,坂戸１番地１２,,15,226,9496611,,,,,,,2025-06-09,1,,,,,アルプスリージョナルパートナーズ,0
2223,8120001276644,新規,0,2025-06-09,2025-06-09,ＴＹＴＸ株式会社,,株式会社,大阪府,大阪市生野区,田島６丁目２番２８－３０５号,,27,116,5440011,,,,,,,2025-06-09,1,,,,,ティーワイティーエックス,0
2224,8120001276669,新規,0,2025-06-09,2025-06-09,株式会社Ｐｌｕｓ　Ｏｎｅ,,株式会社,大阪府,大阪市生野区,小路東１丁目５番２４号,,27,116,5440003,,,,,,,2025-06-09,1,,,,,プラスワン,0
2225,8120001276677,新規,0,2025-06-09,2025-06-09,レイファーストアドバイザリー株式会社,,株式会社,大阪府,大阪市中央区,南船場２丁目３番４号日宝長堀ビル４０５,,27,128,5420081,,,,,,,2025-06-09,1,,,,,レイファーストアドバイザリー,0
2226,8120001276710,新規,0,2025-06-09,2025-06-09,芯株式会社,,株式会社,大阪府,大阪市中央区,島之内２丁目１０番１２号７１３号室,,27,128,5420082,,,,,,,2025-06-09,1,,,,,シン,0
2227,8120001276719,新規,0,2025-06-09,2025-06-09,東和建設株式会社,,株式会社,大阪府,大阪市中央区,島之内１丁目４番３２号,,27,128,5420082,,,,,,,2025-06-09,1,,,,,トウワケンセツ,0
2228,8120001276727,新規,0,2025-06-09,2025-06-09,ＰＵＢＬＩＣ　ＧＥＮＥＲＡＬ　ＴＲＡＤＩＮＧ株式会社,,株式会社,大阪府,枚方市,氷室台１丁目３７番７号,,27,210,5730115,,,,,,,2025-06-09,1,,,,,パブリックジェネラルトレーディング,0
2231,8120003029645,新規,0,2025-06-09,2025-06-09,合同会社ｕｔａｓｉａ,,合同会社,大阪府,大阪市北区,梅田１丁目２－２大阪駅前第２ビル１２－１２,,27,127,5300001,,,,,,,2025-06-09,1,,,,,ウタシア,0
2232,8120003029694,新規,0,2025-06-09,2025-06-09,Ａ＆Ｓ合同会社,,合同会社,大阪府,大阪市中央区,北浜２丁目２番地２１－２４０１号,,27,128,5410041,,,,,,,2025-06-09,1,,,,,エーアンドエス,0
2233,8120003029703,新規,0,2025-06-09,2025-06-09,合同会社ＥＬＳ,,合同会社,大阪府,大阪市北区,大淀南１丁目７番１８－９０６号,,27,127,5310075,,,,,,,2025-06-09,1,,,,,イーエルエス,0
2237,8120903005712,新規,0,2025-06-09,2025-06-09,合同会社Ｎｅｏｔｅｃ,,合同会社,大阪府,豊中市,曽根西町３丁目１５番１１の４号,,27,203,5610801,,,,,,,2025-06-09,1,,,,,ネオテック,0
2245,8140001138801,新規,0,2025-06-09,2025-06-09,絆ファースト株式会社,,株式会社,兵庫県,姫路市,書写３８５番地２４,,28,201,6712201,,,,,,,2025-06-09,1,,,,,キズナファースト,0
2246,8140001138834,新規,0,2025-06-09,2025-06-09,野本興業株式会社,,株式会社,兵庫県,伊丹市,鴻池２丁目５番３号,,28,207,6640006,,,,,,,2025-06-09,1,,,,,ノモトコウギョウ,0
2247,8140001138867,新規,0,2025-06-09,2025-06-09,吉田株式会社,,株式会社,兵庫県,神戸市兵庫区,上三条町１番２３号－３０３号,,28,105,6520013,,,,,,,2025-06-09,1,,,,,ヨシタ,0
2248,8140003022169,新規,0,2025-06-09,2025-06-09,合同会社ファースト,,合同会社,兵庫県,姫路市,白浜町乙５４７番地５,,28,201,6728023,,,,,,,2025-06-09,1,,,,,ファースト,0
2249,8150001028183,新規,0,2025-06-09,2025-06-09,株式会社ＺＥＢ　ＴＲＡＤＩＮＧ,,株式会社,奈良県,奈良市,南庄町２９７番１,,29,201,6301112,,,,,,,2025-06-09,1,,,,,ゼブトレーディング,0
2258,8170001018653,新規,0,2025-06-09,2025-06-09,株式会社肉よし,,株式会社,和歌山県,橋本市,隅田町河瀬２２９番地の１－２０６,,30,203,6480015,,,,,,,2025-06-09,1,,,,,ニクヨシ,0
2269,8180001167144,新規,0,2025-06-09,2025-06-09,株式会社クロスケイ,,株式会社,愛知県,名古屋市緑区,藤塚３丁目１４０８番地の７,,23,114,4580813,,,,,,,2025-06-09,1,,,,,クロスケイ,0
2270,8180001167210,新規,0,2025-06-09,2025-06-09,株式会社オケエイ住設,,株式会社,愛知県,名古屋市港区,東茶屋１丁目３５番地,,23,111,4550851,,,,,,,2025-06-09,1,,,,,オケエイジュウセツ,0
2279,8180301039893,新規,0,2025-06-09,2025-06-09,株式会社ブリジアント,,株式会社,愛知県,西尾市,桜町２丁目２１番地２,,23,213,4450803,,,,,,,2025-06-09,1,,,,,ブリジアント,0
2289,8240001065060,新規,0,2025-06-09,2025-06-09,株式会社ｇｏ‐ｔｏ,,株式会社,広島県,広島市西区,三篠町３丁目２４番２８－１０３号,,34,104,7330003,,,,,,,2025-06-09,1,,,,,ゴートゥ,0
2295,8240003007250,新規,0,2025-06-09,2025-06-09,合同会社カンフリエヘアー,,合同会社,広島県,広島市安佐南区,伴東７丁目５４番６－４号,,34,105,7313164,,,,,,,2025-06-09,1,,,,,カンフリエヘアー,0
2299,8250003003744,新規,0,2025-06-09,2025-06-09,合同会社ａｍｐ．,,合同会社,山口県,防府市,駅南町５番１１－１４０１号,,35,206,7470801,,,,,,,2025-06-09,1,,,,,アンプ,0
2300,8260003005203,新規,0,2025-06-09,2025-06-09,合同会社ＦＲＳＭＧ,,合同会社,岡山県,倉敷市,本町１７番１２号,,33,202,7100054,,,,,,,2025-06-09,1,,,,,エフアールエスエムジー,0
2301,8260003005211,新規,0,2025-06-09,2025-06-09,岡崎機構設計合同会社,00139500,合同会社,岡山県,岡山市東区,神崎町２２２５番地２,,33,103,7048138,,,,,,,2025-06-09,1,,,,,オカザキキコウセッケイ,0
2302,8260005011488,新規,0,2025-06-09,2025-06-09,なないろ行政書士法人,,その他の設立登記法人,岡山県,岡山市北区,東古松１丁目５番１８号,,33,101,7000921,,,,,,,2025-06-09,1,,,,,ナナイロ,0
2303,8270003001754,新規,0,2025-06-09,2025-06-09,合同会社ＡＸＬ,,合同会社,鳥取県,米子市,夜見町３０７４番地１２,,31,202,6830851,,,,,,,2025-06-09,1,,,,,アクセル,0
2313,8290001110274,新規,0,2025-06-09,2025-06-09,ＳＫ　Ｆ＆Ｂ株式会社,,株式会社,福岡県,久留米市,日吉町５－９,,40,203,8300017,,,,,,,2025-06-09,1,,,,,エスケーエフアンドビー,0
2314,8290001110299,新規,0,2025-06-09,2025-06-09,株式会社ＳＢＬ　ＷＯＲＬＤ,,株式会社,福岡県,小郡市,干潟２１４５－１,,40,216,8380112,,,,,,,2025-06-09,1,,,,,,0
2315,8290001110308,新規,0,2025-06-09,2025-06-09,株式会社薫風,,株式会社,福岡県,福岡市東区,香椎照葉７丁目８番３－３０３号照葉オーシャンステージＷＥＳＴ棟,,40,131,8130017,,,,,,,2025-06-09,1,,,,,クンプウ,0
2316,8290001110316,新規,0,2025-06-09,2025-06-09,Ｔｒｕｓｔ　Ａｃｅ株式会社,,株式会社,福岡県,福岡市博多区,博多駅前１丁目２３番２号ＰａｒｋＦｒｏｎｔ博多駅前１丁目５Ｆ－Ｂ,,40,132,8120011,,,,,,,2025-06-09,1,,,,,トラストエース,0
2317,8290001110332,新規,0,2025-06-09,2025-06-09,株式会社グラヴィオ,,株式会社,福岡県,筑紫野市,大字永岡１０２１番地２－５０１号,,40,217,8180066,,,,,,,2025-06-09,1,,,,,グラヴィオ,0
2318,8290001110357,新規,0,2025-06-09,2025-06-09,株式会社Ｇｒｏｗｔｈ　Ｖｉｓｉｏｎ,,株式会社,福岡県,福岡市中央区,大手門３丁目１０－９,,40,133,8100074,,,,,,,2025-06-09,1,,,,,グロースビジョン,0
2321,8290003016899,新規,0,2025-06-09,2025-06-09,合同会社ＣＡＣＨＥ‐ＣＡＣＨＥ,,合同会社,福岡県,筑紫野市,むさしヶ丘３丁目２番２１号,,40,217,8180043,,,,,,,2025-06-09,1,,,,,カシュカシュ,0
2322,8290003016940,新規,0,2025-06-09,2025-06-09,ＣＯＣＯＦＵＫＵ合同会社,,合同会社,福岡県,福岡市早良区,西新５丁目２番３０号,,40,137,8140002,,,,,,,2025-06-09,1,,,,,ココフク,0
2323,8290005019768,新規,0,2025-06-09,2025-06-09,一般社団法人海いく福岡,,その他の設立登記法人,福岡県,福岡市西区,今宿駅前１丁目１０番３０号,,40,135,8190168,,,,,,,2025-06-09,1,,,,,ウミイクフクオカ,0
2327,8290801031604,新規,0,2025-06-09,2025-06-09,株式会社サンフジ,,株式会社,福岡県,豊前市,大字三毛門３３９番地５,,40,214,8280031,,,,,,,2025-06-09,1,,,,,サンフジ,0
2330,8310001019645,新規,0,2025-06-09,2025-06-09,オルタナクリエイト株式会社,,株式会社,長崎県,諫早市,高来町三部壱３８１番地,,42,204,8590132,,,,,,,2025-06-09,1,,,,,オルタナクリエイト,0
2332,8310005008859,新規,0,2025-06-09,2025-06-09,一般社団法人全中連サポートセンター,,その他の設立登記法人,長崎県,長崎市,中町２番２０号,,42,201,8500055,,,,,,,2025-06-09,1,,,,,ゼンチュウレンサポートセンター,0
2333,8320001021154,新規,0,2025-06-09,2025-06-09,株式会社ミナト設備,,株式会社,大分県,中津市,大字福島２１４４,,44,203,8790112,,,,,,,2025-06-09,1,,,,,ミナトセツビ,0
2334,8330001033272,新規,0,2025-06-09,2025-06-09,株式会社岩崎工建,00139496,株式会社,熊本県,葦北郡津奈木町,大字福浜２４７５番地１,,43,484,8695605,,,,,,,2025-06-09,1,,,,,イワサキコウケン,0
2335,8330001033280,新規,0,2025-06-09,2025-06-09,株式会社ヴィンク,,株式会社,熊本県,熊本市中央区,新市街７番２０号ヴィレラ辛島５０２号,,43,101,8600803,,,,,,,2025-06-09,1,,,,,ヴィンク,0
2336,8330001033289,新規,0,2025-06-09,2025-06-09,高匠株式会社,00139504,株式会社,熊本県,八代市,井揚町２６５０番地３,,43,202,8660011,,,,,,,2025-06-09,1,,,,,タカショウ,0
2343,8370001052673,新規,0,2025-06-09,2025-06-09,建設佐藤株式会社,,株式会社,宮城県,宮城郡七ヶ浜町,遠山２丁目６番２７号,,04,404,9850823,,,,,,,2025-06-09,1,,,,,ケンセツサトウ,0
2344,8370005010974,新規,0,2025-06-09,2025-06-09,医療法人ＫＧＷ,,その他の設立登記法人,宮城県,仙台市泉区,桂１丁目１番地１,,04,105,9813134,,,,,,,2025-06-09,1,,,,,ケージーダブリュー,0
2347,8380001035371,新規,0,2025-06-09,2025-06-09,株式会社エール,,株式会社,福島県,郡山市,桑野１丁目５番１７号深谷ビルＢ棟２０２号,,07,203,9638025,,,,,,,2025-06-09,1,,,,,エール,0
2356,8420001019171,新規,0,2025-06-09,2025-06-09,株式会社建豊,,株式会社,青森県,青森市,浪打１丁目６番３号,,02,201,0300961,,,,,,,2025-06-09,1,,,,,ケンブ,0
2362,8450001014640,新規,0,2025-06-09,2025-06-09,ＡＬＬ株式会社,,株式会社,北海道,上川郡当麻町,五条東４丁目９番１０号,,01,454,0781315,,,,,,,2025-06-09,1,,,,,オール,0
2368,8470001020736,新規,0,2025-06-09,2025-06-09,株式会社身の丈商店街,,株式会社,香川県,三豊市,仁尾町仁尾丁２３０番地１,,37,208,7691407,,,,,,,2025-06-09,1,,,,,ミノタケショウテンガイ,0
2372,8700150130956,新規,0,2025-06-09,2025-06-09,ＨＥＴＥＲＯ　ＬＡＢＳ　ＬＩＭＩＴＥＤ,,外国会社等,東京都,千代田区,有楽町２丁目７－１　有楽町イトシアビル１２Ｆ,,13,101,1000006,インド共和国・テランガーナ州・ハイデラバード市・バラナガー区・サナスナガー工業団地・サナスナガーロード・インダストリアル・エステート７－２－Ａ２号,,,,,,2025-06-09,1,,,,,ヘテロラボズリミテツド,0
2384,9010001255757,新規,0,2025-06-09,2025-06-09,ＭＩＲＡ株式会社,,株式会社,東京都,中央区,銀座８丁目５番６号中島商事ビル４階,,13,102,1040061,,,,,,,2025-06-09,1,,,,,ミラ,0
2385,9010001255864,新規,0,2025-06-09,2025-06-09,株式会社ＫＨグループ,,株式会社,東京都,千代田区,神田神保町３丁目１２－３神保町スリービル８階,,13,101,1010051,,,,,,,2025-06-09,1,,,,,ケーエイチグループ,0
2390,9010005040172,新規,0,2025-06-09,2025-06-09,京都東山一般社団法人,,その他の設立登記法人,東京都,千代田区,丸の内１丁目４番１号東京共同会計事務所内,,13,101,1000005,,,,,,,2025-06-09,1,,,,,キョウトヒガシヤマ,0
2404,9010401190645,新規,0,2025-06-09,2025-06-09,ｂＬｏｏＭｉｎｇ株式会社,,株式会社,東京都,港区,南青山２丁目２番１５号ウィン青山９４２,,13,103,1070062,,,,,,,2025-06-09,1,,,,,ブルーミング,0
2405,9010401190793,新規,0,2025-06-09,2025-06-09,株式会社Ｃｌａｓｓｙ　Ｌｉｆｅ,,株式会社,東京都,港区,北青山１丁目３－１アールキューブ青山３Ｆ,,13,103,1070061,,,,,,,2025-06-09,1,,,,,クラッシーライフ,0
2406,9010401190868,新規,0,2025-06-09,2025-06-09,株式会社麻布リマーニ,,株式会社,東京都,港区,麻布十番１丁目９番１２号ダイアパレス麻布十番９０２号,,13,103,1060045,,,,,,,2025-06-09,1,,,,,アザブリマーニ,0
2407,9010401190950,新規,0,2025-06-09,2025-06-09,ＡＤＶパートナーズ株式会社,,株式会社,東京都,港区,芝浦３丁目４番２号２１０１,,13,103,1080023,,,,,,,2025-06-09,1,,,,,エーディーヴィーパートナーズ,0
2411,9010403035336,新規,0,2025-06-09,2025-06-09,合同会社ＫＭＴ内視鏡サポート,,合同会社,東京都,港区,白金台３丁目１３‐１５‐５０５,,13,103,1080071,,,,,,,2025-06-09,1,,,,,ケイエムティナイシキョウサポート,0
2416,9010602008902,新規,0,2025-06-09,2025-06-09,有限会社オガワ,,有限会社,東京都,墨田区,業平４丁目１１番１０号,,13,107,1300002,,,,,,,2025-06-09,1,,,,,,0
2420,9010603011616,新規,0,2025-06-09,2025-06-09,合同会社結和堂,,合同会社,東京都,墨田区,本所４丁目４番１１－６０１号,,13,107,1300004,,,,,,,2025-06-09,1,,,,,ユウワドウ,0
2422,9010701047801,新規,0,2025-06-09,2025-06-09,株式会社つきひ,,株式会社,東京都,品川区,荏原６丁目１１番５号,,13,109,1420063,,,,,,,2025-06-09,1,,,,,ツキヒ,0
2423,9010703007745,新規,0,2025-06-09,2025-06-09,合同会社Ｅｖｏｌｙ,,合同会社,東京都,品川区,西品川１丁目２９番１２号ＣＳＲ品川,,13,109,1410033,,,,,,,2025-06-09,1,,,,,エヴォリー,0
2435,9011001169897,新規,0,2025-06-09,2025-06-09,株式会社Ｆｒｅｅｋｅ,,株式会社,東京都,渋谷区,円山町５番３号ＭＩＥＵＸ渋谷ビル８階,,13,113,1500044,,,,,,,2025-06-09,1,,,,,フリーク,0
2436,9011001170145,新規,0,2025-06-09,2025-06-09,株式会社ガル,,株式会社,東京都,渋谷区,神宮前４丁目１１番１４号カメリアコート２０１,,13,113,1500001,,,,,,,2025-06-09,1,,,,,ガル,0
2437,9011003021767,新規,0,2025-06-09,2025-06-09,合同会社Ｒｕｌｅｒ,,合同会社,東京都,渋谷区,幡ヶ谷１丁目８番６－２０１号ジェノヴィア幡ヶ谷,,13,113,1510072,,,,,,,2025-06-09,1,,,,,ルーラー,0
2438,9011003021783,新規,0,2025-06-09,2025-06-09,合同会社ＧＯＡＴ　ＢＡＲＢＥＲ,,合同会社,東京都,目黒区,自由が丘１丁目８番３号大橋ビル３０１,,13,110,1520035,,,,,,,2025-06-09,1,,,,,ゴートバーバー,0
2442,9011101111924,新規,0,2025-06-09,2025-06-09,株式会社トリート,,株式会社,東京都,新宿区,下落合４丁目２３番１６号,,13,104,1610033,,,,,,,2025-06-09,1,,,,,トリート,0
2443,9011103015999,新規,0,2025-06-09,2025-06-09,Ｅｑｕｉｓｔ八丁堀ホテル合同会社,,合同会社,東京都,新宿区,四谷２丁目９番地１５東京ユナイテッド綜合事務所内,,13,104,1600004,,,,,,,2025-06-09,1,,,,,エクイストハッチョウボリホテル,0
2444,9011105011476,新規,0,2025-06-09,2025-06-09,Ｅｑｕｉｓｔ八丁堀ホテル一般社団法人,,その他の設立登記法人,東京都,新宿区,四谷２丁目９番地１５東京ユナイテッド綜合事務所内,,13,104,1600004,,,,,,,2025-06-09,1,,,,,エクイストハッチョウボリホテル,0
2454,9011603004733,新規,0,2025-06-09,2025-06-09,合同会社ａｉｄｅｒ,,合同会社,東京都,練馬区,谷原６丁目５－１２,,13,120,1770032,,,,,,,2025-06-09,1,,,,,エデ,0
2456,9011701028403,新規,0,2025-06-09,2025-06-09,菱幸ホールディングス株式会社,,株式会社,東京都,江戸川区,臨海町４丁目２番２号,,13,123,1340086,,,,,,,2025-06-09,1,,,,,リョウコウホールディングス,0
2465,9013303007702,新規,0,2025-06-09,2025-06-09,合同会社椿エステート,,合同会社,東京都,豊島区,池袋２丁目６８番５号ハイツオーエド４０３号,,13,116,1710014,,,,,,,2025-06-09,1,,,,,ツバキエステート,0
2473,9020001163199,新規,0,2025-06-09,2025-06-09,株式会社しえん,,株式会社,神奈川県,横浜市神奈川区,台町９―１３ルックハイツ横浜台町２０５号室,,14,102,2210834,,,,,,,2025-06-09,1,,,,,シエン,0
2474,9020001163232,新規,0,2025-06-09,2025-06-09,株式会社Ｓａｎｐｏ‐Ｗｏｒｋｓ,,株式会社,神奈川県,横浜市南区,大岡１丁目２６番２９号,,14,105,2320061,,,,,,,2025-06-09,1,,,,,サンポワークス,0
2476,9020003028672,新規,0,2025-06-09,2025-06-09,ＮＳコンサルティング合同会社,,合同会社,神奈川県,横浜市戸塚区,品濃町９５３番地６号,,14,110,2440801,,,,,,,2025-06-09,1,,,,,エヌエスコンサルティング,0
2477,9021001085474,新規,0,2025-06-09,2025-06-09,株式会社ブックオフ北海道,,株式会社,神奈川県,相模原市南区,古淵２丁目１４番２０号,,14,153,2520344,,,,,,,2025-06-09,1,,,,,ブックオフホッカイドウ,0
2481,9021005013381,新規,0,2025-06-09,2025-06-09,一般社団法人ｙｏｒｉｓｏｉ,,その他の設立登記法人,神奈川県,綾瀬市,深谷中２丁目２０番１０号,,14,218,2521107,,,,,,,2025-06-09,1,,,,,ヨリソイ,0
2483,9030001166993,新規,0,2025-06-09,2025-06-09,株式会社ｉｃｈｉ　ｄｅｓｉｇｎ,,株式会社,埼玉県,熊谷市,大原１丁目５番５０号サン・コーポラス２０３,,11,202,3600812,,,,,,,2025-06-09,1,,,,,イチデザイン,0
2486,9030003026972,新規,0,2025-06-09,2025-06-09,合同会社ＳｔｒａｔＥｄｇｅ,,合同会社,埼玉県,久喜市,下早見７０４番地１,,11,232,3460022,,,,,,,2025-06-09,1,,,,,ストラテッジ,0
2499,9040001139172,新規,0,2025-06-09,2025-06-09,株式会社Ａ．Ｐ．Ｕ．,,株式会社,千葉県,木更津市,東中央３丁目１番１４－１２０２号,,12,206,2920057,,,,,,,2025-06-09,1,,,,,エーピーユー,0
2500,9040001139180,新規,0,2025-06-09,2025-06-09,株式会社Ｈｙｂｒｉｄ　Ｗｏｒｋｓ,,株式会社,千葉県,長生郡一宮町,一宮３９７番地３号１Ｆ,,12,421,2994301,,,,,,,2025-06-09,1,,,,,ハイブリッドワークス,0
2503,9040003027672,新規,0,2025-06-09,2025-06-09,ＬＩＦＥ　ＬＩＮＫ和合同会社,,合同会社,千葉県,松戸市,馬橋３１４０番地１,,12,207,2710051,,,,,,,2025-06-09,1,,,,,ライフリンクナゴミ,0
2504,9040003027796,新規,0,2025-06-09,2025-06-09,Ｗｏｒｌｄ　Ｗｉｄｅ　Ａｖｅｎｕｅ合同会社,,合同会社,千葉県,千葉市花見川区,浪花町２番地１４,,12,102,2620024,,,,,,,2025-06-09,1,,,,,ワールドワイドアベニュー,0
2505,9050001056747,新規,0,2025-06-09,2025-06-09,和み建材コンクリート株式会社,,株式会社,茨城県,鉾田市,滝浜字向山２３６－２,,08,234,3111423,,,,,,,2025-06-09,1,,,,,ナゴミケンザイコンクリート,0
2506,9050001056755,新規,0,2025-06-09,2025-06-09,株式会社プライムクロス,,株式会社,茨城県,ひたちなか市,大字津田１９７７番地の２,,08,221,3120032,,,,,,,2025-06-09,1,,,,,プライムクロス,0
2507,9050001056788,新規,0,2025-06-09,2025-06-09,株式会社ウチダ美装,,株式会社,茨城県,神栖市,日川１８０１番地８,,08,232,3140114,,,,,,,2025-06-09,1,,,,,ウチダビソウ,0
2508,9050003009323,新規,0,2025-06-09,2025-06-09,ＤＰ　ＭＯＴＯＲＳ合同会社,,合同会社,茨城県,筑西市,幸町２丁目１４－１３ニュータウンハイツ２階２０３号室,,08,227,3080848,,,,,,,2025-06-09,1,,,,,ディーピーモーターズ,0
2509,9050003009331,新規,0,2025-06-09,2025-06-09,合同会社Ｐｏｍ,,合同会社,茨城県,神栖市,大野原中央５丁目１番３８号ソシアルコート・アインス１０３,,08,232,3140128,,,,,,,2025-06-09,1,,,,,ポム,0
2511,9060001038281,新規,0,2025-06-09,2025-06-09,ＭＵＨＡＭＭＡＤ　ＴＲＡＤＩＮＧ株式会社,,株式会社,栃木県,栃木市,日ノ出町６番１１号日ノ出町戸建て,,09,203,3280031,,,,,,,2025-06-09,1,,,,,ムハンマドトレーディング,0
2522,9100001038673,新規,0,2025-06-09,2025-06-09,株式会社Ａ．Ｓ．Ｅ．,,株式会社,長野県,松本市,村井町西１丁目１３番６８号,,20,202,3990037,,,,,,,2025-06-09,1,,,,,エース,0
2524,9110001039332,新規,0,2025-06-09,2025-06-09,アシストガード株式会社,,株式会社,新潟県,南魚沼市,茗荷沢１４７３－８０,,15,226,9497231,,,,,,,2025-06-09,1,,,,,アシストガード,0
2525,9110001039340,新規,0,2025-06-09,2025-06-09,株式会社ＳＰＳ,,株式会社,新潟県,柏崎市,半田１丁目３番２３号,,15,205,9450812,,,,,,,2025-06-09,1,,,,,エスピーエス,0
2526,9110003005786,新規,0,2025-06-09,2025-06-09,合同会社大凛,,合同会社,新潟県,柏崎市,四谷３丁目１番３６号,,15,205,9450046,,,,,,,2025-06-09,1,,,,,ダイリン,0
2546,9120001276461,新規,0,2025-06-09,2025-06-09,悦楽商貿株式会社,,株式会社,大阪府,大阪市住之江区,御崎１丁目１１－１９－１０８,,27,125,5590013,,,,,,,2025-06-09,1,,,,,エツラクショウボウ,0
2547,9120001276619,新規,0,2025-06-09,2025-06-09,拓海聯貿株式会社,,株式会社,大阪府,大阪市浪速区,大国１丁目９番１４号５０２－Ｂ号室,,27,111,5560014,,,,,,,2025-06-09,1,,,,,タクカイレンボウ,0
2548,9120001276627,新規,0,2025-06-09,2025-06-09,ＵＰＢＯＯＳＴ株式会社,,株式会社,大阪府,大阪市中央区,南本町２丁目６番５－３０１号,,27,128,5410054,,,,,,,2025-06-09,1,,,,,アップブースト,0
2549,9120001276651,新規,0,2025-06-09,2025-06-09,株式会社ｓａｌｏｎ　ｄｅ　Ｋ．,,株式会社,大阪府,大阪市北区,中崎１丁目４番８－１００４号,,27,127,5300016,,,,,,,2025-06-09,1,,,,,サロンドケー,0
2550,9120001276684,新規,0,2025-06-09,2025-06-09,玉昇株式会社,,株式会社,大阪府,大阪市浪速区,戎本町２丁目６番１７号,,27,111,5560013,,,,,,,2025-06-09,1,,,,,ギョクショウ,0
2555,9120003029702,新規,0,2025-06-09,2025-06-09,興楽達貿易合同会社,,合同会社,大阪府,大阪市住吉区,沢之町１丁目１－２６、４Ｂ,,27,120,5580031,,,,,,,2025-06-09,1,,,,,コウラクタツボウエキ,0
2556,9120101071820,新規,0,2025-06-09,2025-06-09,株式会社Ｍ‐ｓｙｓｔｅｍ,,株式会社,大阪府,羽曳野市,はびきの４丁目２０番１号,,27,222,5830872,,,,,,,2025-06-09,1,,,,,エムシステム,0
2557,9120101071845,新規,0,2025-06-09,2025-06-09,株式会社ＲＫ仮設,,株式会社,大阪府,泉大津市,宮町８番５号,,27,206,5950013,,,,,,,2025-06-09,1,,,,,アールケーカセツ,0
2558,9120103006510,新規,0,2025-06-09,2025-06-09,合同会社こむぎ,,合同会社,大阪府,堺市北区,南花田町４４－２,,27,146,5918011,,,,,,,2025-06-09,1,,,,,コムギ,0
2559,9120105010015,新規,0,2025-06-09,2025-06-09,一般社団法人ネイリスト実務育成協会,,その他の設立登記法人,大阪府,堺市北区,東浅香山町２丁４第２萬晃ビル２０３,,27,146,5918008,,,,,,,2025-06-09,1,,,,,ネイリストジツムイクセイキョウカイ,0
2561,9120901051022,新規,0,2025-06-09,2025-06-09,株式会社Ｄａｔｃｈ,,株式会社,大阪府,茨木市,宮元町５番１号,,27,211,5670810,,,,,,,2025-06-09,1,,,,,ダッチ,0
2572,9140001138800,新規,0,2025-06-09,2025-06-09,株式会社Ｎキャリア,,株式会社,兵庫県,姫路市,野里慶雲寺前町８番２７号,,28,201,6700813,,,,,,,2025-06-09,1,,,,,エヌキャリア,0
2573,9140001138809,新規,0,2025-06-09,2025-06-09,株式会社ナカオデンキ,,株式会社,兵庫県,宍粟市,一宮町東市場４１８番地,,28,227,6714132,,,,,,,2025-06-09,1,,,,,ナカオデンキ,0
2574,9140001138817,新規,0,2025-06-09,2025-06-09,株式会社涼月,,株式会社,兵庫県,宝塚市,御所の前町１４番９号,,28,214,6650041,,,,,,,2025-06-09,1,,,,,スズツキ,0
2577,9150001028182,新規,0,2025-06-09,2025-06-09,株式会社フェイスファミリー,,株式会社,奈良県,生駒市,俵口町１８７９番地５１ライオンズマンション５０９,,29,209,6300243,,,,,,,2025-06-09,1,,,,,フェイスファミリー,0
2583,9180001167102,新規,0,2025-06-09,2025-06-09,株式会社ＤＡＩＣＥ　ＦＡＣＴＯＲＹ,,株式会社,愛知県,名古屋市守山区,西新６番２７号（モアグレース守山ステーションフロント８０１号）,,23,113,4630055,,,,,,,2025-06-09,1,,,,,ダイスファクトリー,0
2584,9180001167127,新規,0,2025-06-09,2025-06-09,株式会社Ｈｕｅマネジメント,,株式会社,愛知県,海部郡蟹江町,大字新千秋字後東１２番地４,,23,425,4970043,,,,,,,2025-06-09,1,,,,,ヒューマネジメント,0
2585,9180001167135,新規,0,2025-06-09,2025-06-09,株式会社ＳＴＦ,,株式会社,愛知県,名古屋市昭和区,川原通４丁目９番地,,23,107,4660853,,,,,,,2025-06-09,1,,,,,エスティーエフ,0
2586,9180001167143,新規,0,2025-06-09,2025-06-09,株式会社Ｗｉｎｇ,,株式会社,愛知県,名古屋市名東区,神里２丁目１８番地,,23,115,4650082,,,,,,,2025-06-09,1,,,,,ウイング,0
2587,9180001167201,新規,0,2025-06-09,2025-06-09,ＭＥ　ＮＥＸＴ株式会社,,株式会社,愛知県,名古屋市中区,栄１丁目１２番１３号－１８０５号,,23,106,4600008,,,,,,,2025-06-09,1,,,,,エムイーネクスト,0
2588,9180001167226,新規,0,2025-06-09,2025-06-09,おさんぽフォト株式会社,,株式会社,愛知県,瀬戸市,八王子町３０番地９,,23,204,4890024,,,,,,,2025-06-09,1,,,,,オサンポフォト,0
2596,9180003028582,新規,0,2025-06-09,2025-06-09,合同会社ＡＧコーポレーション,,合同会社,愛知県,春日井市,下屋敷町字下屋敷６８番地４,,23,206,4860906,,,,,,,2025-06-09,1,,,,,エージーコーポレーション,0
2600,9180301039868,新規,0,2025-06-09,2025-06-09,株式会社さくらスマイル,,株式会社,愛知県,蒲郡市,大塚町柴垣４６番地１,,23,214,4430013,,,,,,,2025-06-09,1,,,,,サクラスマイル,0
2602,9180303006602,新規,0,2025-06-09,2025-06-09,合同会社カムサ,,合同会社,愛知県,刈谷市,一ツ木町８丁目１４－１アーバンヒルズ一ツ木４０１,,23,210,4480003,,,,,,,2025-06-09,1,,,,,カムサ,0
2605,9180305009693,新規,0,2025-06-09,2025-06-09,一般社団法人おかだ農園,,その他の設立登記法人,愛知県,豊田市,畝部西町蓮台１２３番地,,23,211,4701219,,,,,,,2025-06-09,1,,,,,オカダノウエン,0
2608,9200003006866,新規,0,2025-06-09,2025-06-09,合同会社Ｎアシスト,,合同会社,岐阜県,恵那市,大井町２７１４番地１８ウエストテール１０２,,21,210,5097201,,,,,,,2025-06-09,1,,,,,エヌアシスト,0
2609,9210001020190,新規,0,2025-06-09,2025-06-09,株式会社ＬＩＦＥＢＲＩＤＧＥ,,株式会社,福井県,三方上中郡若狭町,鳥浜第４８号１０番地の２,,18,501,9191331,,,,,,,2025-06-09,1,,,,,ライフブリッジ,0
2618,9250001021169,新規,0,2025-06-09,2025-06-09,天龍リサイクル株式会社,,株式会社,山口県,下関市,壇之浦町１番１５号,,35,201,7510814,,,,,,,2025-06-09,1,,,,,テンリュウリサイクル,0
2619,9260001040259,新規,0,2025-06-09,2025-06-09,株式会社ティエラ,,株式会社,岡山県,岡山市南区,下中野１０番地,,33,104,7000973,,,,,,,2025-06-09,1,,,,,ティエラ,0
2620,9260003005202,新規,0,2025-06-09,2025-06-09,合同会社Ｔ,,合同会社,岡山県,美作市,原８６４番地１０,,33,215,7094235,,,,,,,2025-06-09,1,,,,,ティー,0
2623,9270003001753,新規,0,2025-06-09,2025-06-09,イーガービーバー合同会社,,合同会社,鳥取県,倉吉市,清谷町２丁目９８番２号１０８号室,,31,203,6820017,,,,,,,2025-06-09,1,,,,,イーガービーバー,0
2635,9290001110265,新規,0,2025-06-09,2025-06-09,鬼丸ホーム福岡南株式会社,,株式会社,福岡県,糟屋郡粕屋町,仲原３丁目１９番３号,,40,349,8112304,,,,,,,2025-06-09,1,,,,,オニマルホームフクオカミナミ,0
2636,9290001110273,新規,0,2025-06-09,2025-06-09,ＳＳＤシステム株式会社,,株式会社,福岡県,糟屋郡須惠町,大字佐谷４６８番地２,,40,344,8112115,,,,,,,2025-06-09,1,,,,,エスエスディーシステム,0
2637,9290001110281,新規,0,2025-06-09,2025-06-09,株式会社イマムラ・スマイル,,株式会社,福岡県,久留米市,荒木町白口１９６７番地５,,40,203,8300062,,,,,,,2025-06-09,1,,,,,イマムラスマイル,0
2638,9290001110298,新規,0,2025-06-09,2025-06-09,株式会社想ホーム,,株式会社,福岡県,春日市,平田台４丁目４５番地２モンテクレーセＢ１０１号,,40,218,8160812,,,,,,,2025-06-09,1,,,,,オモイホーム,0
2639,9290001110315,新規,0,2025-06-09,2025-06-09,株式会社コミカルジャパン,,株式会社,福岡県,糟屋郡粕屋町,大字仲原２７６１番地１,,40,349,8112304,,,,,,,2025-06-09,1,,,,,コミカルジャパン,0
2640,9290001110331,新規,0,2025-06-09,2025-06-09,株式会社ｉｎｃ．,,株式会社,福岡県,福岡市博多区,住吉２丁目１６番１－２１０号,,40,132,8120018,,,,,,,2025-06-09,1,,,,,インクドット,0
2644,9290003016956,新規,0,2025-06-09,2025-06-09,尚瀛国際合同会社,,合同会社,福岡県,福岡市博多区,吉塚１丁目１６番７号ステーションサイド吉塚５０３号,,40,132,8120041,,,,,,,2025-06-09,1,,,,,ショウエイコクサイ,0
2647,9290803005068,新規,0,2025-06-09,2025-06-09,合同会社上昇,,合同会社,福岡県,北九州市小倉北区,霧ケ丘２丁目１０番３号,,40,106,8020052,,,,,,,2025-06-09,1,,,,,ジョウショウ,0
2650,9310003005023,新規,0,2025-06-09,2025-06-09,市原企画合同会社,,合同会社,長崎県,長崎市,滑石３丁目４１番７号,,42,201,8528061,,,,,,,2025-06-09,1,,,,,イチハラキカク,0
2651,9310005008858,新規,0,2025-06-09,2025-06-09,特定非営利活動法人オルタナティブスクールにじの木,,その他の設立登記法人,長崎県,東彼杵郡東彼杵町,平似田郷７４０番地３,,42,321,8593928,,,,,,,2025-06-09,1,,,,,オルタナティブスクールニジノキ,0
2654,9320001021153,新規,0,2025-06-09,2025-06-09,株式会社吉水,,株式会社,大分県,速見郡日出町,大字川崎４３３９番地８,,44,341,8791505,,,,,,,2025-06-09,1,,,,,ヨシミズ,0
2655,9320003004684,新規,0,2025-06-09,2025-06-09,合同会社山みどり,,合同会社,大分県,日田市,清水町８１９－１,,44,204,8770000,,,,,,,2025-06-09,1,,,,,ヤマミドリ,0
2659,9340001027413,新規,0,2025-06-09,2025-06-09,株式会社ウェルビー鹿屋,,株式会社,鹿児島県,鹿児島市,加治屋町９－１６－３－６０３,,46,201,8920846,,,,,,,2025-06-09,1,,,,,ウェルビーカノヤ,0
2669,9370001052689,新規,0,2025-06-09,2025-06-09,株式会社ＳＵＺＵＫＩ　ＡＩＣ,,株式会社,宮城県,白石市,福岡八宮字川原子上７６番地,,04,206,9890733,,,,,,,2025-06-09,1,,,,,スズキエーアイシー,0
2676,9420001019179,新規,0,2025-06-09,2025-06-09,株式会社ＤｏＢＡＳＥ,,株式会社,青森県,上北郡おいらせ町,豊原１丁目６９７番地,,02,412,0392154,,,,,,,2025-06-09,1,,,,,ドゥベース,0
2681,9430001094601,新規,0,2025-06-09,2025-06-09,株式会社べべるい,,株式会社,北海道,北広島市,中央２丁目１番地２,,01,234,0611121,,,,,,,2025-06-09,1,,,,,ベベルイ,0
2683,9450003002675,新規,0,2025-06-09,2025-06-09,デリカテッシ合同会社,,合同会社,北海道,中川郡中川町,字中川４４４番地５,,01,471,0982802,,,,,,,2025-06-09,1,,,,,デリカテッシ,0
2684,9460003001057,新規,0,2025-06-09,2025-06-09,合同会社せかいとハグするカンパニー,,合同会社,北海道,阿寒郡鶴居村,字雪裡４９６番地４,,01,667,0851200,,,,,,,2025-06-09,1,,,,,セカイトハグスルカンパニー,0
2690,9700150130955,新規,0,2025-06-09,2025-06-09,和田区自治会,,その他,愛知県,新城市,作手保永字エマツ５番地２,,23,221,4411536,,,,,,,2025-06-09,1,,,,,ワダクジチカイ,0
