sequenceNumber,corporateNumber,process,correct,updateDate,changeDate,name,nameImageId,kind,prefectureName,cityName,streetNumber,addressImageId,prefectureCode,cityCode,postCode,addressOutside,addressOutsideImageId,closeDate,closeCause,successorCorporateNumber,changeCause,assignmentDate,latest,enName,enPrefectureName,enCityName,enAddressOutside,furigana,hihyoji
6,1010001258809,新規,0,2025-09-26,2025-09-26,株式会社ＡＭＩ,,株式会社,東京都,千代田区,麹町６丁目２番地６,,13,101,1020083,,,,,,,2025-09-26,1,,,,,エーエムアイ,0
9,1010003048836,新規,0,2025-09-26,2025-09-26,日光Ｐｌｕｓ２４ホールディング合同会社,,合同会社,東京都,千代田区,丸の内１丁目４番１号東京共同会計事務所内,,13,101,1000005,,,,,,,2025-09-26,1,,,,,ニッコウプラストゥエンティフォーホールディング,0
21,1010401193300,新規,0,2025-09-26,2025-09-26,ケンホールディングス株式会社,,株式会社,東京都,港区,西麻布２丁目１０番２号,,13,103,1060031,,,,,,,2025-09-26,1,,,,,ケンホールディングス,0
22,1010403036052,新規,0,2025-09-26,2025-09-26,グローバルオートソリューション合同会社,,合同会社,東京都,港区,六本木７丁目７－７Ｔｒｉ－ＳｅｖｅｎＲｏｐｐｏｎｇｉ８階,,13,103,1060032,,,,,,,2025-09-26,1,,,,,グローバルオートソリューション,0
23,1010403036069,新規,0,2025-09-26,2025-09-26,合同会社磐石,,合同会社,東京都,港区,浜松町２丁目２番１５号浜松町ダイヤビル２Ｆ,,13,103,1050013,,,,,,,2025-09-26,1,,,,,バンジャク,0
24,1010403036119,新規,0,2025-09-26,2025-09-26,ＲＡＫＵＴＥＮ　ＢＥＳＳ‐７７合同会社,,合同会社,東京都,港区,新橋３丁目９番１０号天翔新橋ビル７０１号室,,13,103,1050004,,,,,,,2025-09-26,1,,,,,ラクテンベスナナジュウナナ,0
26,1010405024708,新規,0,2025-09-26,2025-09-26,医療法人社団愛宕会,,その他の設立登記法人,東京都,港区,虎ノ門４丁目１番１号神谷町トラストタワー２Ｆ,,13,103,1050001,,,,,,,2025-09-26,1,,,,,アタゴカイ,0
27,1010501054708,新規,0,2025-09-26,2025-09-26,株式会社テックブリッジ,,株式会社,東京都,台東区,松が谷４丁目２７－１,,13,106,1110036,,,,,,,2025-09-26,1,,,,,テックブリッジ,0
28,1010501054757,新規,0,2025-09-26,2025-09-26,株式会社Ｌｕｙｏ,,株式会社,東京都,台東区,入谷１丁目２１－４入谷センチュリープラザ２１－９０６,,13,106,1100013,,,,,,,2025-09-26,1,,,,,ルヨ,0
32,1010901058119,新規,0,2025-09-26,2025-09-26,株式会社ｒｕｒｕ,,株式会社,東京都,世田谷区,下馬１丁目１９－１７,,13,112,1540002,,,,,,,2025-09-26,1,,,,,ルル,0
33,1010903010275,新規,0,2025-09-26,2025-09-26,合同会社ＭＤＨＤｅｓｉｇｎ,,合同会社,東京都,世田谷区,梅丘２丁目２４番１２－１０４号,,13,112,1540022,,,,,,,2025-09-26,1,,,,,エムディエイチデザイン,0
38,1011001172000,新規,0,2025-09-26,2025-09-26,株式会社Ｓｏｌｖｉａ,,株式会社,東京都,渋谷区,神宮前４丁目３０番４号表参道４３０ビル６階,,13,113,1500001,,,,,,,2025-09-26,1,,,,,ソルビア,0
39,1011001172207,新規,0,2025-09-26,2025-09-26,株式会社ＲＢ,,株式会社,東京都,目黒区,青葉台２丁目２１番地９号,,13,110,1530042,,,,,,,2025-09-26,1,,,,,アールビー,0
40,1011001172231,新規,0,2025-09-26,2025-09-26,株式会社めくる,,株式会社,東京都,目黒区,洗足２丁目８番２号,,13,110,1520012,,,,,,,2025-09-26,1,,,,,メクル,0
49,1011501032595,新規,0,2025-09-26,2025-09-26,株式会社ミラエコー,,株式会社,東京都,北区,田端３丁目４番２号,,13,117,1140014,,,,,,,2025-09-26,1,,,,,ミラエコー,0
50,1011501032612,新規,0,2025-09-26,2025-09-26,ＡＬＬＹ　ＬＯＧＩＳＴＩＣ　ＰＲＯＰＥＲＴＹ　ＪＡＰＡＮ株式会社,,株式会社,東京都,荒川区,町屋２丁目５番１７号フィオーレ１０１,,13,118,1160001,,,,,,,2025-09-26,1,,,,,アイリロジスティックプロパティジャパン,0
51,1011601028972,新規,0,2025-09-26,2025-09-26,ＡｕｒｏｒａＰｒｏ株式会社,,株式会社,東京都,練馬区,石神井台８丁目９番１０号,,13,120,1770045,,,,,,,2025-09-26,1,,,,,オーロラプロ,0
52,1011601028997,新規,0,2025-09-26,2025-09-26,千禾株式会社,,株式会社,東京都,練馬区,春日町６丁目１６番１１号フォーチュン光が丘２９５号,,13,120,1790074,,,,,,,2025-09-26,1,,,,,チカ,0
56,1011803007097,新規,0,2025-09-26,2025-09-26,Ｄｉｇｉｔａ合同会社,,合同会社,東京都,葛飾区,四つ木４丁目１６番４号アイエムコーポラス２０２号,,13,122,1240011,,,,,,,2025-09-26,1,,,,,ディジタ,0
58,1012703003376,新規,0,2025-09-26,2025-09-26,合同会社コジー,,合同会社,東京都,清瀬市,上清戸２丁目２番２０号けやきコーポ１０１号,,13,221,2040013,,,,,,,2025-09-26,1,,,,,コジー,0
59,1012801024266,新規,0,2025-09-26,2025-09-26,株式会社Ｌａｎｔ,,株式会社,東京都,昭島市,中神町１１７１番地９３,,13,207,1960022,,,,,,,2025-09-26,1,,,,,ラント,0
66,1020001164799,新規,0,2025-09-26,2025-09-26,ＡＩＳＴＡＲ株式会社,,株式会社,神奈川県,横浜市鶴見区,向井町４丁目８９番３号アオキガーデンヒル向井町１０１号,,14,101,2300037,,,,,,,2025-09-26,1,,,,,アイスター,0
67,1020001165005,新規,0,2025-09-26,2025-09-26,オーケードゥ株式会社,,株式会社,神奈川県,横浜市西区,宮ケ谷５５番地１２藤和三ツ沢コープ３０２号,,14,103,2200006,,,,,,,2025-09-26,1,,,,,オーケードゥ,0
68,1020001165013,新規,0,2025-09-26,2025-09-26,株式会社本田,,株式会社,神奈川県,横浜市神奈川区,片倉２丁目１７番３号,,14,102,2210865,,,,,,,2025-09-26,1,,,,,ホンダ,0
71,1021003016591,新規,0,2025-09-26,2025-09-26,ＪＳ　ＭＯＴＯＲＳ合同会社,,合同会社,神奈川県,座間市,座間１丁目３１８７－３宝アパート７号,,14,216,2520027,,,,,,,2025-09-26,1,,,,,ジェーエスモーターズ,0
72,1021003016633,新規,0,2025-09-26,2025-09-26,合同会社Ｔ‐ＮＥＸＴ,,合同会社,神奈川県,大和市,深見西６丁目４―１４,,14,213,2420018,,,,,,,2025-09-26,1,,,,,ティーネクスト,0
77,1030001168790,新規,0,2025-09-26,2025-09-26,株式会社コナヴィアソリューションズ,,株式会社,埼玉県,所沢市,小手指町１丁目２５番地の１ヴィルセゾン小手指Ｂ－２０９,,11,208,3591141,,,,,,,2025-09-26,1,,,,,コナヴィアソリューションズ,0
78,1030001168816,新規,0,2025-09-26,2025-09-26,ＨＳソフト株式会社,,株式会社,埼玉県,川口市,中青木５丁目１番２６－２号,,11,203,3320032,,,,,,,2025-09-26,1,,,,,エッチエスソフト,0
79,1030001168824,新規,0,2025-09-26,2025-09-26,株式会社ＦＩＲＳＴ　ＷＩＬＬ,,株式会社,埼玉県,春日部市,下柳１６９６番地１,,11,214,3440122,,,,,,,2025-09-26,1,,,,,ファーストウィル,0
80,1030003027672,新規,0,2025-09-26,2025-09-26,合同会社ＫＩＶ商会館狭山,,合同会社,埼玉県,狭山市,大字北入曽６９４番地の２３,,11,215,3501315,,,,,,,2025-09-26,1,,,,,ケーアイブイショウカイカンサヤマ,0
89,1040001140633,新規,0,2025-09-26,2025-09-26,株式会社ＡｘＬ,,株式会社,千葉県,柏市,篠籠田１４９１番地１グリーンコートＢ,,12,217,2770862,,,,,,,2025-09-26,1,,,,,アクセル,0
91,1040003028570,新規,0,2025-09-26,2025-09-26,ＭＡＩＳＡＭ合同会社,,合同会社,千葉県,四街道市,栗山２６６－３４ハイツ中村１０２,,12,228,2840027,,,,,,,2025-09-26,1,,,,,マイサム,0
92,1040003028579,新規,0,2025-09-26,2025-09-26,ＫＴＩアセット合同会社,,合同会社,千葉県,船橋市,行田１丁目５０番２１号,,12,204,2730044,,,,,,,2025-09-26,1,,,,,ケーティーアイアセット,0
95,1050005013693,新規,0,2025-09-26,2025-09-26,特定非営利活動法人ニーシュの会,,その他の設立登記法人,茨城県,ひたちなか市,平磯町５１９１番地２,,08,221,3111203,,,,,,,2025-09-26,1,,,,,ニーシュノカイ,0
97,1060001038603,新規,0,2025-09-26,2025-09-26,信頼グローバル株式会社,,株式会社,栃木県,下都賀郡野木町,大字南赤塚字山中２５３番１,,09,364,3290112,,,,,,,2025-09-26,1,,,,,シンライグローバル,0
99,1060003005766,新規,0,2025-09-26,2025-09-26,合同会社栄和,,合同会社,栃木県,大田原市,中央２丁目１番１２号ＮＯ１,,09,210,3240056,,,,,,,2025-09-26,1,,,,,エイワ,0
101,1070003006111,新規,0,2025-09-26,2025-09-26,合同会社ＢＩＧ　ＤＲＥＡＭＳ　ＡＵＴＯ,,合同会社,群馬県,伊勢崎市,境２０６－３－２Ｆ１－２号室,,10,204,3700124,,,,,,,2025-09-26,1,,,,,ビッグドリームズオート,0
107,1090003002901,新規,0,2025-09-26,2025-09-26,ＮＵＨＡ　ＭＯＴＯＲＳ合同会社,,合同会社,山梨県,富士吉田市,下吉田３丁目３７－１７ＳＴＹＬＥＨＯＵＳＥＴＯＷＥＲ－Ａ１０６号室,,19,202,4030004,,,,,,,2025-09-26,1,,,,,ヌハモーターズ,0
110,1100003008401,新規,0,2025-09-26,2025-09-26,合同会社パンダ農商,,合同会社,長野県,上田市,諏訪形１１４８－１,,20,203,3860032,,,,,,,2025-09-26,1,,,,,パンダノウショウ,0
113,1110001039587,新規,0,2025-09-26,2025-09-26,ＳＮＯＷＬＩＮＥ株式会社,,株式会社,新潟県,南魚沼郡湯沢町,大字三国３９番地,,15,461,9496212,,,,,,,2025-09-26,1,,,,,スノーライン,0
129,1120001279934,新規,0,2025-09-26,2025-09-26,株式会社Ａｄｍｉｓｓｉｏｎ　Ｂｏｏｓｔｅｒ　Ｚ,,株式会社,大阪府,大阪市港区,築港２丁目１番１９号,,27,107,5520021,,,,,,,2025-09-26,1,,,,,アドミッションブースターゼット,0
130,1120001279959,新規,0,2025-09-26,2025-09-26,株式会社モディファイ,,株式会社,大阪府,大阪市西区,新町４丁目１７番７－２０２号,,27,106,5500013,,,,,,,2025-09-26,1,,,,,モディファイ,0
131,1120001279975,新規,0,2025-09-26,2025-09-26,万福株式会社,,株式会社,大阪府,大阪市中央区,徳井町２丁目２番１４号日宝徳井ビル４Ｆ２号室,,27,128,5400025,,,,,,,2025-09-26,1,,,,,マンフク,0
132,1120001279983,新規,0,2025-09-26,2025-09-26,Ｉｎｏｖｉｘ株式会社,,株式会社,大阪府,大阪市大正区,小林西２丁目１５－３春日大正ビル２１２号室,,27,108,5510013,,,,,,,2025-09-26,1,,,,,イノビックス,0
133,1120001279991,新規,0,2025-09-26,2025-09-26,ＮＶＮＧ株式会社,,株式会社,大阪府,大阪市中央区,南船場３丁目１１－１０Ｂ１Ｆ,,27,128,5420081,,,,,,,2025-09-26,1,,,,,エヌブイエヌジー,0
134,1120001280082,新規,0,2025-09-26,2025-09-26,明創株式会社,,株式会社,大阪府,大阪市西成区,聖天下１丁目４番２９号３０１号室,,27,122,5570012,,,,,,,2025-09-26,1,,,,,メイソウ,0
135,1120001280231,新規,0,2025-09-26,2025-09-26,ＭＳ株式会社,,株式会社,大阪府,大阪市北区,芝田２丁目１番１８号西阪急ビル１Ｆ・１０５号室,,27,127,5300012,,,,,,,2025-09-26,1,,,,,エムエス,0
139,1120003030634,新規,0,2025-09-26,2025-09-26,Ｈｉｋａｒｉ　Ｌｉｎｋ合同会社,,合同会社,大阪府,大阪市西成区,萩之茶屋２丁目６番４号ニューかめや２３３号室,,27,122,5570004,,,,,,,2025-09-26,1,,,,,ヒカリリンク,0
140,1120003030717,新規,0,2025-09-26,2025-09-26,ＴＶＱ大阪リフォーム合同会社,,合同会社,大阪府,大阪市旭区,高殿４丁目１８番２４号,,27,117,5350031,,,,,,,2025-09-26,1,,,,,ティーブイキューオオサカリフォーム,0
145,1120101072495,新規,0,2025-09-26,2025-09-26,玄水株式会社,,株式会社,大阪府,堺市堺区,甲斐町西３丁２－３４,,27,141,5900950,,,,,,,2025-09-26,1,,,,,ゲンスイ,0
148,1120103006740,新規,0,2025-09-26,2025-09-26,合同会社結び,,合同会社,大阪府,南河内郡河南町,大字寺田４１３番地１,,27,382,5850011,,,,,,,2025-09-26,1,,,,,ムスビ,0
153,1122003003322,新規,0,2025-09-26,2025-09-26,合同会社Ｊｒｉｎｘ,,合同会社,大阪府,東大阪市,足代１丁目１１番１２号ビューティーセゾン華６０５号,,27,227,5770841,,,,,,,2025-09-26,1,,,,,ジェイリンクス,0
156,1130001080572,新規,0,2025-09-26,2025-09-26,株式会社クリエイトコンサルティング,,株式会社,京都府,京都市中京区,一之船入町５３７番２０号ＦＩＳ御池ビル９階,,26,104,6040924,,,,,,,2025-09-26,1,,,,,クリエイトコンサルティング,0
157,1130001080630,新規,0,2025-09-26,2025-09-26,光運送株式会社,,株式会社,京都府,京都市伏見区,竹田七瀬川町４７番地,,26,109,6128422,,,,,,,2025-09-26,1,,,,,ヒカリウンソウ,0
159,1130003010800,新規,0,2025-09-26,2025-09-26,合同会社クオリアム,,合同会社,京都府,京都市中京区,西洞院通押小路下る押西洞院町６２４番地ベラジオ二条城前４０２,,26,104,6040042,,,,,,,2025-09-26,1,,,,,クオリアム,0
161,1140001140078,新規,0,2025-09-26,2025-09-26,フーセイ産業株式会社,,株式会社,兵庫県,姫路市,四郷町本郷３１６番地２,,28,201,6710243,,,,,,,2025-09-26,1,,,,,フーセイサンギョウ,0
163,1140003022605,新規,0,2025-09-26,2025-09-26,ＳＣＯＵＴ合同会社,,合同会社,兵庫県,神戸市長田区,大丸町１丁目１９番１２号,,28,106,6530806,,,,,,,2025-09-26,1,,,,,スカウト,0
169,1180001168751,新規,0,2025-09-26,2025-09-26,ＭＦ　Ｈｏｌｄｉｎｇｓ株式会社,,株式会社,愛知県,名古屋市中村区,名駅３丁目４番１０号アルティメイト名駅１ｓｔ２階,,23,105,4500002,,,,,,,2025-09-26,1,,,,,エムエフホールディングス,0
171,1180003029126,新規,0,2025-09-26,2025-09-26,Ｒｅｂｒａｉｎ合同会社,,合同会社,愛知県,長久手市,井堀１１０１番地県営長久手住宅８棟３０６号,,23,238,4801143,,,,,,,2025-09-26,1,,,,,リブレイン,0
177,1180303006725,新規,0,2025-09-26,2025-09-26,七根第二発電所合同会社,,合同会社,愛知県,豊橋市,曙町字測点１０３番地の１,00140810,23,201,4418151,,,,,,,2025-09-26,1,,,,,ナナネダイニハツデンショ,0
178,1200003007054,新規,0,2025-09-26,2025-09-26,ＲＥＨＭＡＮＩ　ＴＲＡＤＩＮＧ合同会社,,合同会社,岐阜県,羽島市,小熊町島３丁目６９番地ニューシティシンＮｏ．２、２０２号室,,21,209,5016264,,,,,,,2025-09-26,1,,,,,レヘマニトレーディング,0
185,1240001065546,新規,0,2025-09-26,2025-09-26,マルタカ水産株式会社,,株式会社,広島県,安芸郡坂町,平成ヶ浜４丁目５番１９号,,34,309,7314312,,,,,,,2025-09-26,1,,,,,マルタカスイサン,0
186,1250001021341,新規,0,2025-09-26,2025-09-26,株式会社佐々木工業,,株式会社,山口県,周南市,大字徳山１０１５番地の３１,,35,215,7450851,,,,,,,2025-09-26,1,,,,,ササキコウギョウ,0
187,1250003003817,新規,0,2025-09-26,2025-09-26,仁恵合同会社,,合同会社,山口県,下関市,垢田町１丁目１６番３号,,35,201,7510841,,,,,,,2025-09-26,1,,,,,サトエ,0
196,1290003017433,新規,0,2025-09-26,2025-09-26,合同会社ＤＲＳ,,合同会社,福岡県,福津市,上西郷１１５０番地１５,,40,224,8113207,,,,,,,2025-09-26,1,,,,,ディーアールエス,0
197,1290005019840,新規,0,2025-09-26,2025-09-26,ＮＰＯ法人セシグローバルサポート,,その他の設立登記法人,福岡県,福岡市西区,豊浜１丁目６番１９－２号,,40,135,8190014,,,,,,,2025-09-26,1,,,,,セシグローバルサポート,0
218,1360003015272,新規,0,2025-09-26,2025-09-26,合同会社安室,,合同会社,沖縄県,宮古島市,平良字西仲宗根１５３５番地３７,,47,214,9060006,,,,,,,2025-09-26,1,,,,,アムロ,0
219,1370001053075,新規,0,2025-09-26,2025-09-26,株式会社アーチアライブ,,株式会社,宮城県,仙台市太白区,富沢西５丁目３番地の８,,04,104,9820037,,,,,,,2025-09-26,1,,,,,アーチアライブ,0
225,1410001014279,新規,0,2025-09-26,2025-09-26,ライトグリーン株式会社,,株式会社,秋田県,秋田市,下新城青崎字雷田１３１番地,,05,201,0100142,,,,,,,2025-09-26,1,,,,,ライトグリーン,0
229,1430001095292,新規,0,2025-09-26,2025-09-26,景華株式会社,,株式会社,北海道,虻田郡洞爺湖町,高砂町７－７Ｂ棟,,01,584,0495605,,,,,,,2025-09-26,1,,,,,ケイカ,0
230,1430001095342,新規,0,2025-09-26,2025-09-26,エフアセット株式会社,,株式会社,北海道,札幌市東区,北二十五条東１８丁目３番１０号フタバスクエア元町１階,,01,103,0650025,,,,,,,2025-09-26,1,,,,,エフアセット,0
245,2010001258592,新規,0,2025-09-26,2025-09-26,Ｐｌｅｒｏｍａ株式会社,,株式会社,東京都,文京区,水道２丁目９番８江戸川ハイツ２０５号室,,13,105,1120005,,,,,,,2025-09-26,1,,,,,プレロマ,0
246,2010001258709,新規,0,2025-09-26,2025-09-26,株式会社ＧＥＮＡＩ,,株式会社,東京都,千代田区,神田三崎町２丁目２１番６号ＧａｉａＦｏｒｃｅＢｕｉｌｄｉｎｇ４階,,13,101,1010061,,,,,,,2025-09-26,1,,,,,ジェナイ,0
247,2010001258808,新規,0,2025-09-26,2025-09-26,赤陽株式会社,,株式会社,東京都,千代田区,神田三崎町２丁目１０番１１号Ｐｅｇビル５Ｂ－１,,13,101,1010061,,,,,,,2025-09-26,1,,,,,セキヨウ,0
248,2010001258840,新規,0,2025-09-26,2025-09-26,株式会社ＫＡＢＥＵＣＨＩ,,株式会社,東京都,中央区,銀座１丁目１２番４号Ｎ＆ＥＢＬＤ．７階,,13,102,1040061,,,,,,,2025-09-26,1,,,,,カベウチ,0
259,2010401193217,新規,0,2025-09-26,2025-09-26,ＴＡＧＬＩＡＴＯＲＥ　ＪＡＰＡＮ株式会社,,株式会社,東京都,港区,赤坂７丁目９番７号,,13,103,1070052,,,,,,,2025-09-26,1,,,,,タリアトーレジャパン,0
267,2010603011812,新規,0,2025-09-26,2025-09-26,Ｓ．Ｔ．Ｃ合同会社,,合同会社,東京都,墨田区,押上３丁目２２番１７号,,13,107,1310045,,,,,,,2025-09-26,1,,,,,エスティーシー,0
268,2010701048310,新規,0,2025-09-26,2025-09-26,株式会社Ｐｒｏｓｐｅｃｔ　Ｂａｓｅ,,株式会社,東京都,品川区,西五反田２丁目２５番７号ＩＳビル２０１,,13,109,1410031,,,,,,,2025-09-26,1,,,,,プロスペクトベース,0
274,2010901058126,新規,0,2025-09-26,2025-09-26,株式会社ＶＩＬＬＡ　ＧＬＯＢＡＬ,,株式会社,東京都,世田谷区,上馬４丁目１７番２２号,,13,112,1540011,,,,,,,2025-09-26,1,,,,,ビラグローバル,0
285,2011303005724,新規,0,2025-09-26,2025-09-26,合同会社Ｔｉ’ｎｏａ．,,合同会社,東京都,杉並区,方南２丁目１番２３号マホロハイム１０７,,13,115,1680062,,,,,,,2025-09-26,1,,,,,ティノア,0
287,2011501032611,新規,0,2025-09-26,2025-09-26,暁彬株式会社,,株式会社,東京都,北区,東十条２丁目１４番４号佐藤ビルマンション２０３,,13,117,1140001,,,,,,,2025-09-26,1,,,,,ショウリン,0
293,2011801046807,新規,0,2025-09-26,2025-09-26,株式会社ＨＯ　ＪＵＮＯ,,株式会社,東京都,足立区,入谷１丁目２２番１１号,,13,121,1210836,,,,,,,2025-09-26,1,,,,,ホジュノ,0
297,2012301014543,新規,0,2025-09-26,2025-09-26,株式会社Ｉｎｃｒｅｖｉａ,,株式会社,東京都,町田市,東玉川学園２丁目１８番３号,,13,209,1940042,,,,,,,2025-09-26,1,,,,,インクレビア,0
298,2012403007338,新規,0,2025-09-26,2025-09-26,合同会社シーエヌシー,,合同会社,東京都,多摩市,豊ヶ丘１丁目３番１９号,,13,224,2060031,,,,,,,2025-09-26,1,,,,,シーエヌシー,0
302,2013303007898,新規,0,2025-09-26,2025-09-26,合同会社ＥｘＳｅｒｉａｌ,,合同会社,東京都,豊島区,東池袋２丁目６２番８号ＢＩＧオフィスプラザ池袋１２０６,,13,116,1700013,,,,,,,2025-09-26,1,,,,,エクシリアル,0
312,2021001086355,新規,0,2025-09-26,2025-09-26,株式会社ＭＳ工業,,株式会社,神奈川県,相模原市緑区,原宿南１丁目１６番地３,,14,151,2520103,,,,,,,2025-09-26,1,,,,,エムエスコウギョウ,0
314,2021003016574,新規,0,2025-09-26,2025-09-26,合同会社コロドラマ,,合同会社,神奈川県,相模原市中央区,中央３丁目１１番４－７０１号,,14,152,2520239,,,,,,,2025-09-26,1,,,,,コロドラマ,0
315,2021005013438,新規,0,2025-09-26,2025-09-26,一般社団法人Ｉａｍ,,その他の設立登記法人,神奈川県,鎌倉市,大町１丁目６番１７号,,14,204,2480007,,,,,,,2025-09-26,1,,,,,アイアム,0
318,2030001168773,新規,0,2025-09-26,2025-09-26,株式会社アオゾラ,,株式会社,埼玉県,戸田市,美女木２丁目３２－２－２０１,,11,224,3350031,,,,,,,2025-09-26,1,,,,,アオゾラ,0
319,2030001168781,新規,0,2025-09-26,2025-09-26,中部種苗株式会社,,株式会社,埼玉県,さいたま市岩槻区,大字掛６９０－１,,11,110,3390078,,,,,,,2025-09-26,1,,,,,チュウブシュビョウ,0
322,2040001140574,新規,0,2025-09-26,2025-09-26,株式会社エフ・ナンバー,,株式会社,千葉県,市原市,中高根３７５番地１,,12,219,2900242,,,,,,,2025-09-26,1,,,,,エフナンバー,0
323,2040001140681,新規,0,2025-09-26,2025-09-26,メディカルアンブレラ株式会社,,株式会社,千葉県,船橋市,三山９丁目１９番１１号Ｔ－ＣＵＢＥ－２０２号,,12,204,2740072,,,,,,,2025-09-26,1,,,,,メディカルアンブレラ,0
324,2040001140715,新規,0,2025-09-26,2025-09-26,株式会社ｅ‐ＥＰＯＣＨ,,株式会社,千葉県,千葉市花見川区,宮野木台４丁目１番１２号,,12,102,2620015,,,,,,,2025-09-26,1,,,,,イーエポック,0
326,2040003028529,新規,0,2025-09-26,2025-09-26,合同会社山猫軒,,合同会社,千葉県,香取市,虫幡７９６－４,,12,236,2890341,,,,,,,2025-09-26,1,,,,,ヤマネコケン,0
330,2060003005765,新規,0,2025-09-26,2025-09-26,山竹合同会社,,合同会社,栃木県,佐野市,豊代町４７５番,,09,204,3270512,,,,,,,2025-09-26,1,,,,,ヤマタケ,0
332,2070003006110,新規,0,2025-09-26,2025-09-26,ＪＩＷＡ　ＣＯＲＰＯＲＡＴＩＯＮ合同会社,,合同会社,群馬県,邑楽郡大泉町,坂田５丁目９番１号,,10,524,3700532,,,,,,,2025-09-26,1,,,,,ジワコーポレーション,0
348,2120001279974,新規,0,2025-09-26,2025-09-26,株式会社ＤＲＥＡＭＳ,,株式会社,大阪府,大阪市淀川区,西中島７丁目８番２１号,,27,123,5320011,,,,,,,2025-09-26,1,,,,,ドリームズ,0
349,2120001279982,新規,0,2025-09-26,2025-09-26,スワンラックス株式会社,,株式会社,大阪府,大阪市城東区,中浜１丁目１７－１４ルネッサンスシャレード３Ｇ号室,,27,118,5360024,,,,,,,2025-09-26,1,,,,,スワンラックス,0
350,2120001279990,新規,0,2025-09-26,2025-09-26,株式会社セラス,,株式会社,大阪府,大阪市西成区,千本南１丁目１１－１４－５０６,,27,122,5570055,,,,,,,2025-09-26,1,,,,,セラス,0
351,2120001280049,新規,0,2025-09-26,2025-09-26,ＪＵＷＥＹ日能株式会社,,株式会社,大阪府,大阪市阿倍野区,丸山通１丁目５－２－３０５,,27,119,5450042,,,,,,,2025-09-26,1,,,,,ジュウェイニチノウ,0
352,2120001280081,新規,0,2025-09-26,2025-09-26,瑞欧株式会社,,株式会社,大阪府,大阪市城東区,今福西１丁目９番２２号今福西ビル１０１,,27,118,5360004,,,,,,,2025-09-26,1,,,,,ズイオウ,0
353,2120001280131,新規,0,2025-09-26,2025-09-26,趙三孃飲食株式会社,,株式会社,大阪府,交野市,私市８丁目１９番１号,,27,230,5760033,,,,,,,2025-09-26,1,,,,,チョウサンニャンインショク,0
354,2120001280346,新規,0,2025-09-26,2025-09-26,晴亭株式会社,,株式会社,大阪府,大阪市東住吉区,中野４丁目１番１６号リベラルオリエンテ中野４１０Ｂ,,27,121,5460012,,,,,,,2025-09-26,1,,,,,セイテイ,0
361,2120003030609,新規,0,2025-09-26,2025-09-26,合同会社太陽ＴＲＡＤＥ,,合同会社,大阪府,大阪市東住吉区,住道矢田１丁目２７番１１号レオパレスＳＡＳＡ２０４,,27,121,5460022,,,,,,,2025-09-26,1,,,,,タイヨウトレード,0
362,2120003030617,新規,0,2025-09-26,2025-09-26,啓元合同会社,,合同会社,大阪府,大阪市西区,西本町２丁目５番１１号創建ビル７０１－Ａ室,,27,106,5500005,,,,,,,2025-09-26,1,,,,,ケイゲン,0
363,2120003030690,新規,0,2025-09-26,2025-09-26,合同会社ＴＨＩ’ｎＫ,,合同会社,大阪府,大阪市鶴見区,安田２丁目２番１３号,,27,124,5380032,,,,,,,2025-09-26,1,,,,,シンク,0
366,2120101072494,新規,0,2025-09-26,2025-09-26,天火株式会社,,株式会社,大阪府,堺市堺区,甲斐町西３丁２－３４,,27,141,5900950,,,,,,,2025-09-26,1,,,,,テンカ,0
367,2120101072503,新規,0,2025-09-26,2025-09-26,株式会社アントレ,,株式会社,大阪府,富田林市,美山台７番４－１１５号,,27,214,5840039,,,,,,,2025-09-26,1,,,,,アントレ,0
368,2120901051540,新規,0,2025-09-26,2025-09-26,株式会社Ｈ．Ｕ．Ｍ．Ｐ,,株式会社,大阪府,高槻市,芝生町１丁目５８番１－１０５号,,27,207,5690823,,,,,,,2025-09-26,1,,,,,ハンプ,0
372,2130001080596,新規,0,2025-09-26,2025-09-26,もみじ株式会社,,株式会社,京都府,京都市伏見区,東菱屋町４２０－１４,,26,109,6128355,,,,,,,2025-09-26,1,,,,,モミジ,0
379,2140003022612,新規,0,2025-09-26,2025-09-26,ＨＳ　ＴＲＡＤＥＲＳ合同会社,,合同会社,兵庫県,神戸市長田区,苅藻通３丁目２－１２,,28,106,6530032,,,,,,,2025-09-26,1,,,,,エイチエストレーダース,0
380,2140003022620,新規,0,2025-09-26,2025-09-26,合同会社ＯＣＥＡＮＳ　ＧＡＴＥ,,合同会社,兵庫県,神戸市中央区,磯辺通１丁目１番１８号カサベラ国際プラザビル７０７号室,,28,110,6510084,,,,,,,2025-09-26,1,,,,,オーシャンズゲート,0
384,2160001027066,新規,0,2025-09-26,2025-09-26,株式会社ビジョンオブクリエイターズ,,株式会社,滋賀県,近江八幡市,堀上町１０３番地５,,25,204,5230031,,,,,,,2025-09-26,1,,,,,ビジョンオブクリエイターズ,0
385,2170001018799,新規,0,2025-09-26,2025-09-26,株式会社Ｉｎｑｕｅｓｓ,,株式会社,和歌山県,和歌山市,十二番丁９リヴァージュ十二番丁３０２,,30,201,6408158,,,,,,,2025-09-26,1,,,,,インクエス,0
393,2180001168750,新規,0,2025-09-26,2025-09-26,株式会社中通,,株式会社,愛知県,小牧市,大字南外山字屋敷２５５番１,,23,219,4850024,,,,,,,2025-09-26,1,,,,,ナカツウ,0
397,2180003029091,新規,0,2025-09-26,2025-09-26,合同会社ＡＡＡ,,合同会社,愛知県,稲沢市,日下部東町１丁目７０番,,23,220,4928177,,,,,,,2025-09-26,1,,,,,トリプルエー,0
402,2180301040238,新規,0,2025-09-26,2025-09-26,株式会社ｎｉｋｏ,,株式会社,愛知県,西尾市,寄住町上田２２番地１,,23,213,4450073,,,,,,,2025-09-26,1,,,,,ニコー,0
404,2180303006740,新規,0,2025-09-26,2025-09-26,合同会社まるみ,,合同会社,愛知県,岡崎市,北野町字大訳４２番地１,,23,202,4440951,,,,,,,2025-09-26,1,,,,,マルミ,0
405,2180303006749,新規,0,2025-09-26,2025-09-26,合同会社ふたつと,,合同会社,愛知県,西尾市,高畠町４丁目５６番地１,,23,213,4450064,,,,,,,2025-09-26,1,,,,,,0
408,2190001032559,新規,0,2025-09-26,2025-09-26,ＡＬＬＹ株式会社,,株式会社,三重県,伊賀市,波敷野７５８番地,,24,216,5181318,,,,,,,2025-09-26,1,,,,,アリー,0
412,2200003007053,新規,0,2025-09-26,2025-09-26,クロノスデザイン合同会社,,合同会社,岐阜県,岐阜市,日野南３丁目１番１４号,,21,201,5008212,,,,,,,2025-09-26,1,,,,,クロノスデザイン,0
413,2200003007061,新規,0,2025-09-26,2025-09-26,合同会社鈴木商店,,合同会社,岐阜県,高山市,奥飛騨温泉郷神坂４４０番地１,,21,203,5061421,,,,,,,2025-09-26,1,,,,,スズキショウテン,0
418,2240003007388,新規,0,2025-09-26,2025-09-26,合同会社エンソーシャル,,合同会社,広島県,広島市安佐北区,安佐町大字飯室３５２８－３,,34,106,7311142,,,,,,,2025-09-26,1,,,,,エンソーシャル,0
422,2250001021340,新規,0,2025-09-26,2025-09-26,株式会社グーシグナル,,株式会社,山口県,下関市,彦島江の浦町５丁目５－１２,,35,201,7500075,,,,,,,2025-09-26,1,,,,,グーシグナル,0
430,2290001111501,新規,0,2025-09-26,2025-09-26,株式会社ＮＯＯＲＩグループ,,株式会社,福岡県,古賀市,青柳５４６番地１,,40,223,8113134,,,,,,,2025-09-26,1,,,,,ノーリグループ,0
431,2300001014355,新規,0,2025-09-26,2025-09-26,株式会社良華,,株式会社,佐賀県,小城市,牛津町乙柳６５７番地６,,41,208,8490301,,,,,,,2025-09-26,1,,,,,リョウカ,0
443,2360003015255,新規,0,2025-09-26,2025-09-26,ＭｏＭｏ合同会社,,合同会社,沖縄県,中頭郡読谷村,字高志保１２４７番地１プリージングあい２０１,,47,324,9040323,,,,,,,2025-09-26,1,,,,,モモ,0
444,2360003015271,新規,0,2025-09-26,2025-09-26,合同会社うむいリボーン,,合同会社,沖縄県,中頭郡読谷村,字高志保４３０－３,,47,324,9040323,,,,,,,2025-09-26,1,,,,,ウムイリボーン,0
450,2400003003536,新規,0,2025-09-26,2025-09-26,合同会社ＨＡＰＰＹ　ＤＡＹＳ,,合同会社,岩手県,一関市,中里字沢田１７２番地３,,03,209,0210005,,,,,,,2025-09-26,1,,,,,ハッピーデイズ,0
453,2420001019284,新規,0,2025-09-26,2025-09-26,その除雪代適正ですか株式会社,,株式会社,青森県,青森市,長島３丁目１９番２号,,02,201,0300861,,,,,,,2025-09-26,1,,,,,ソノジョセツダイテキセイデスカ,0
464,2430001095259,新規,0,2025-09-26,2025-09-26,株式会社Ｓｏｌｒｏｓ,,株式会社,北海道,札幌市豊平区,平岸一条７丁目３番２５号,,01,105,0620931,,,,,,,2025-09-26,1,,,,,ソルロス,0
466,2430003018127,新規,0,2025-09-26,2025-09-26,合同会社フラグメント,,合同会社,北海道,沙流郡日高町,字幾千世１５８番地の２,,01,601,0592123,,,,,,,2025-09-26,1,,,,,フラグメント,0
475,3010001258708,新規,0,2025-09-26,2025-09-26,ＡｇｅＳｈｉｆｔ　Ｐａｒｔｎｅｒｓ株式会社,,株式会社,東京都,中央区,銀座１丁目２２番１１号銀座大竹ビジデンス２階,,13,102,1040061,,,,,,,2025-09-26,1,,,,,エイジシフトパートナーズ,0
484,3010401193298,新規,0,2025-09-26,2025-09-26,信成建設株式会社,,株式会社,東京都,港区,麻布十番３丁目３－１３Ｍ２ＫＳＴＡＧＥＩＩＩ９０２,00140813,13,103,1060045,,,,,,,2025-09-26,1,,,,,シンセイケンセツ,0
485,3010401193372,新規,0,2025-09-26,2025-09-26,株式会社ライブエンターテイメント,,株式会社,東京都,港区,六本木３丁目１６番１２号六本木ＫＳビル５Ｆ,,13,103,1060032,,,,,,,2025-09-26,1,,,,,ライブエンターテイメント,0
489,3010403036042,新規,0,2025-09-26,2025-09-26,合同会社アールエコパワー,,合同会社,東京都,港区,西新橋１丁目３番１号西新橋スクエア,,13,103,1050003,,,,,,,2025-09-26,1,,,,,アールエコパワー,0
490,3010403036133,新規,0,2025-09-26,2025-09-26,合同会社リブレラボ,,合同会社,東京都,港区,南青山３丁目１番３６号青山丸竹ビル６階,,13,103,1070062,,,,,,,2025-09-26,1,,,,,リブレラボ,0
491,3010405024813,新規,0,2025-09-26,2025-09-26,一般社団法人ジーイレブン,,その他の設立登記法人,東京都,港区,虎ノ門３丁目２２番１０－２０１号,,13,103,1050001,,,,,,,2025-09-26,1,,,,,ジーイレブン,0
494,3010503007991,新規,0,2025-09-26,2025-09-26,タッコウ合同会社,,合同会社,東京都,台東区,浅草５丁目３番１号,,13,106,1110032,,,,,,,2025-09-26,1,,,,,タッコウ,0
495,3010503008008,新規,0,2025-09-26,2025-09-26,觀禅縁合同会社,,合同会社,東京都,台東区,三ノ輪１丁目２５番７－３０２号朝日シティパリオ三ノ輪,,13,106,1100011,,,,,,,2025-09-26,1,,,,,カンゼンエン,0
496,3010603011811,新規,0,2025-09-26,2025-09-26,合同会社ＳＳＴ,,合同会社,東京都,江東区,有明１丁目４番２０－１９１２号,,13,108,1350063,,,,,,,2025-09-26,1,,,,,エスエスティー,0
502,3010901058117,新規,0,2025-09-26,2025-09-26,株式会社アクトレックス,,株式会社,東京都,世田谷区,若林１丁目２５番１５号,,13,112,1540023,,,,,,,2025-09-26,1,,,,,アクトレックス,0
503,3010901058125,新規,0,2025-09-26,2025-09-26,株式会社アデリー,,株式会社,東京都,世田谷区,南烏山１丁目１０番２５号グランディオール芦花２０８,00140814,13,112,1570062,,,,,,,2025-09-26,1,,,,,アデリー,0
507,3011001172246,新規,0,2025-09-26,2025-09-26,株式会社ジェイワン,,株式会社,東京都,渋谷区,渋谷２丁目１９番１９号ワコー宮益坂ビル,,13,113,1500002,,,,,,,2025-09-26,1,,,,,ジェイワン,0
508,3011003022465,新規,0,2025-09-26,2025-09-26,合同会社ｔｏｒｃｈ,,合同会社,東京都,渋谷区,神泉町１０番１５号アネックス神泉３０１,,13,113,1500045,,,,,,,2025-09-26,1,,,,,トーチ,0
509,3011003022589,新規,0,2025-09-26,2025-09-26,合同会社Ｊａｐａｎ　Ｈｅａｌｔｈ,,合同会社,東京都,渋谷区,円山町５番３号ＭＩＥＵＸ渋谷ビル８階,,13,113,1500044,,,,,,,2025-09-26,1,,,,,ジャパンヘルス,0
517,3011201026664,新規,0,2025-09-26,2025-09-26,株式会社Ｂｌｏｏｍ　Ｏｎｅ,,株式会社,東京都,中野区,東中野１丁目３６番４－２０３号,,13,114,1640003,,,,,,,2025-09-26,1,,,,,ブルームワン,0
520,3011303005731,新規,0,2025-09-26,2025-09-26,伝広合同会社,,合同会社,東京都,杉並区,阿佐谷北４丁目４番８号ＨＡＲＵ阿佐ヶ谷２０５,,13,115,1660001,,,,,,,2025-09-26,1,,,,,デンコウ,0
532,3011501032619,新規,0,2025-09-26,2025-09-26,Ｓｕｎｓｈｉｎｅ貿易株式会社,,株式会社,東京都,北区,中里１丁目２１番２号中里ビル１Ｆ,,13,117,1140015,,,,,,,2025-09-26,1,,,,,サンシャインボウエキ,0
536,3011701028755,新規,0,2025-09-26,2025-09-26,コウウントレード株式会社,,株式会社,東京都,江戸川区,東小岩５丁目３７番１２号楽新ビル２０８号,,13,123,1330052,,,,,,,2025-09-26,1,,,,,コウウントレード,0
553,3020003029263,新規,0,2025-09-26,2025-09-26,合同会社Ｓｅｅｐ．ｓ,,合同会社,神奈川県,川崎市幸区,北加瀬１丁目２３番３号あえーる２０１号室,,14,132,2120057,,,,,,,2025-09-26,1,,,,,,0
555,3021001086354,新規,0,2025-09-26,2025-09-26,株式会社Ｍｉｔｓｕｋｉ,,株式会社,神奈川県,小田原市,酒匂２丁目３４番１７－７号,,14,206,2560816,,,,,,,2025-09-26,1,,,,,ミツキ,0
561,3030001168723,新規,0,2025-09-26,2025-09-26,株式会社ＨＩＲＯエンタープライス,,株式会社,埼玉県,川口市,東領家３丁目１７番１６号,,11,203,3320003,,,,,,,2025-09-26,1,,,,,ヒロエンタープライス,0
562,3030001168806,新規,0,2025-09-26,2025-09-26,株式会社Ｂ‐ＭＡＸモビリティ,,株式会社,埼玉県,狭山市,大字上赤坂４９１－２８,,11,215,3501313,,,,,,,2025-09-26,1,,,,,ビーマックスモビリティ,0
563,3030001168830,新規,0,2025-09-26,2025-09-26,株式会社ランド,,株式会社,埼玉県,和光市,中央２丁目６番６１号,,11,229,3510113,,,,,,,2025-09-26,1,,,,,ランド,0
567,3030003027662,新規,0,2025-09-26,2025-09-26,ＤＥＶＩＳ　ＩＮＴＥＲＮＡＴＩＯＮＡＬ合同会社,,合同会社,埼玉県,春日部市,中央１丁目８－１５春日部セントラル１Ｆ・２Ｆ,,11,214,3440067,,,,,,,2025-09-26,1,,,,,デバイスインターナショナル,0
569,3040001140549,新規,0,2025-09-26,2025-09-26,株式会社ＨＡＷＫ　ＰＡＲＴＮＥＲＳ,,株式会社,千葉県,八千代市,村上１１１３番地１、１街区６棟１０３号,,12,221,2760028,,,,,,,2025-09-26,1,,,,,ホークパートナーズ,0
570,3040001140615,新規,0,2025-09-26,2025-09-26,株式会社繋Ｇｏｏｄ,,株式会社,千葉県,浦安市,北栄１丁目１番３号,,12,227,2790002,,,,,,,2025-09-26,1,,,,,ツナグッド,0
584,3070001043369,新規,0,2025-09-26,2025-09-26,株式会社ＮＯＨＥＡ,,株式会社,群馬県,安中市,原市１６７５番地１,,10,211,3790133,,,,,,,2025-09-26,1,,,,,ノヘア,0
586,3080001027156,新規,0,2025-09-26,2025-09-26,株式会社静岡ファクトリー,,株式会社,静岡県,静岡市葵区,栄町２番地５アークビルディング５０２,,22,101,4200859,,,,,,,2025-09-26,1,,,,,シズオカファクトリー,0
587,3080005007724,新規,0,2025-09-26,2025-09-26,一般社団法人暮らしえん,,その他の設立登記法人,静岡県,焼津市,本町２丁目３番１５号,,22,212,4250022,,,,,,,2025-09-26,1,,,,,クラシエン,0
604,3120001279932,新規,0,2025-09-26,2025-09-26,株式会社ひなた不動産,,株式会社,大阪府,大阪市西淀川区,姫里１丁目１８番２０号,,27,113,5550025,,,,,,,2025-09-26,1,,,,,ヒナタフドウサン,0
605,3120001279981,新規,0,2025-09-26,2025-09-26,金＿株式会社,00140815,株式会社,大阪府,大阪市大正区,小林西２丁目１５－３春日大正ビル２０１号室,,27,108,5510013,,,,,,,2025-09-26,1,,,,,キンシン,0
606,3120001280089,新規,0,2025-09-26,2025-09-26,国盛株式会社,,株式会社,大阪府,大阪市城東区,今福西１丁目９番２２号今福西ビル１０２,,27,118,5360004,,,,,,,2025-09-26,1,,,,,クニモリ,0
607,3120001280130,新規,0,2025-09-26,2025-09-26,湯臣世家株式会社,,株式会社,大阪府,大阪市西成区,萩之茶屋２丁目６番４－２７６号,,27,122,5570004,,,,,,,2025-09-26,1,,,,,ユオミセイケ,0
608,3120001280345,新規,0,2025-09-26,2025-09-26,入微株式会社,,株式会社,大阪府,大阪市城東区,蒲生３丁目１５番１２号セザンヌ藤２０３Ｂ,,27,118,5360016,,,,,,,2025-09-26,1,,,,,ニュウビ,0
614,3120003030698,新規,0,2025-09-26,2025-09-26,合同会社ＥＤｗｅｌｌ,,合同会社,大阪府,寝屋川市,東神田町３５－１５,,27,215,5720045,,,,,,,2025-09-26,1,,,,,エドウェル,0
615,3120003030707,新規,0,2025-09-26,2025-09-26,日葵合同会社,,合同会社,大阪府,大阪市淀川区,西中島５丁目７－１４大京ビルマンション２０２号室,,27,123,5320011,,,,,,,2025-09-26,1,,,,,ヒマリ,0
617,3120101072502,新規,0,2025-09-26,2025-09-26,株式会社ＤＳ,,株式会社,大阪府,河内長野市,南花台１丁目３１番１７号,,27,216,5860077,,,,,,,2025-09-26,1,,,,,ディーエス,0
622,3122001039639,新規,0,2025-09-26,2025-09-26,株式会社Ｔ‐Ｃｏｎｎｅｃｔ,,株式会社,大阪府,大東市,諸福６丁目１－７第１福徳荘２階２０６号室,,27,218,5740044,,,,,,,2025-09-26,1,,,,,ティーコネクト,0
624,3122003003320,新規,0,2025-09-26,2025-09-26,Ｂｏｎｓａｉ　ＪＰ合同会社,,合同会社,大阪府,八尾市,志紀町３丁目２６番地コーエイパレス志紀４階４０６号,,27,212,5810031,,,,,,,2025-09-26,1,,,,,ボンサイジェイピー,0
633,3140001140101,新規,0,2025-09-26,2025-09-26,株式会社Ｋ・Ｉグループ,,株式会社,兵庫県,赤穂郡上郡町,高山１２２８番地９５２,,28,481,6781254,,,,,,,2025-09-26,1,,,,,ケイアイグループ,0
645,3180001168774,新規,0,2025-09-26,2025-09-26,ＮＡＤＩ　ＪＡＰＡＮ株式会社,,株式会社,愛知県,名古屋市千種区,振甫町３丁目３１番地の１７,,23,101,4640072,,,,,,,2025-09-26,1,,,,,ナディジャパン,0
649,3180003029108,新規,0,2025-09-26,2025-09-26,フイオス合同会社,,合同会社,愛知県,半田市,白山町３丁目５５番地４１３,,23,205,4750912,,,,,,,2025-09-26,1,,,,,フイオス,0
651,3180301040237,新規,0,2025-09-26,2025-09-26,株式会社ミライノハレ,,株式会社,愛知県,刈谷市,小垣江町北諸峻２６番地４,,23,210,4480813,,,,,,,2025-09-26,1,,,,,ミライノハレ,0
652,3180303006748,新規,0,2025-09-26,2025-09-26,合同会社Ｓｈｉｎｉｎｇ　Ｊａｐａｎ　Ｔｒａｄｉｎｇ,,合同会社,愛知県,豊川市,大木新町通３丁目５８番地,,23,207,4411207,,,,,,,2025-09-26,1,,,,,シャイニングジャパントレーディング,0
654,3180305009732,新規,0,2025-09-26,2025-09-26,一般社団法人金融リテラシー教育会議,,その他の設立登記法人,愛知県,額田郡幸田町,大字相見字相見３８番地アルバックス幸田相駅前４０３,,23,501,4440117,,,,,,,2025-09-26,1,,,,,キンユウリテラシーキョウイクカイギ,0
661,3230003002505,新規,0,2025-09-26,2025-09-26,合同会社五十鈴,,合同会社,富山県,氷見市,島尾１５５３番地,,16,205,9350032,,,,,,,2025-09-26,1,,,,,イスズ,0
662,3240003007412,新規,0,2025-09-26,2025-09-26,瀬戸ジャパン合同会社,,合同会社,広島県,尾道市,長江２丁目６－１２,,34,205,7220046,,,,,,,2025-09-26,1,,,,,セトジャパン,0
663,3240003007420,新規,0,2025-09-26,2025-09-26,合同会社元鶴商事,,合同会社,広島県,東広島市,西条町郷曽１０３６３－３ハムレットコミューンＪ棟３０４号室,,34,212,7390035,,,,,,,2025-09-26,1,,,,,ゲンカクショウジ,0
664,3260001040578,新規,0,2025-09-26,2025-09-26,株式会社ヒシャーマトレーディングカンパニー,,株式会社,岡山県,赤磐市,草生９３７番地１,,33,213,7012502,,,,,,,2025-09-26,1,,,,,ヒシャーマトレーディングカンパニー,0
672,3300001014354,新規,0,2025-09-26,2025-09-26,福祉メディカルケアグループ株式会社,,株式会社,佐賀県,三養基郡みやき町,大字市武１４４５番地１０,,41,346,8401106,,,,,,,2025-09-26,1,,,,,フクシメディカルケアグループ,0
674,3320001021357,新規,0,2025-09-26,2025-09-26,株式会社奥豊後,,株式会社,大分県,豊後大野市,朝地町上尾塚２０５９番地,,44,212,8796213,,,,,,,2025-09-26,1,,,,,オクブンゴ,0
678,3340001027666,新規,0,2025-09-26,2025-09-26,チャレンジパートナーズ株式会社,,株式会社,鹿児島県,奄美市,名瀬長浜町２５番１７号（１Ｆ）,,46,222,8940036,,,,,,,2025-09-26,1,,,,,チャレンジパートナーズ,0
679,3340001027674,新規,0,2025-09-26,2025-09-26,株式会社Ｋ＆Ｋ,,株式会社,鹿児島県,鹿児島市,西伊敷４丁目２番６号,,46,201,8900002,,,,,,,2025-09-26,1,,,,,ケーアンドケー,0
684,3360003015270,新規,0,2025-09-26,2025-09-26,合同会社ＭＩＮＨ　ＭＡＲＴ,,合同会社,沖縄県,沖縄市,園田３丁目４－２７ウエスタンビル２０６号,,47,211,9040022,,,,,,,2025-09-26,1,,,,,ミンマート,0
685,3360005007290,新規,0,2025-09-26,2025-09-26,一般社団法人富士協会,,その他の設立登記法人,沖縄県,那覇市,山下町１－１７－２Ｆ・３Ｆ,,47,201,9000027,,,,,,,2025-09-26,1,,,,,フジキョウカイ,0
697,3430001095299,新規,0,2025-09-26,2025-09-26,Ｂ＆Ｐ　Ｓｙｓｔｅｍ株式会社,,株式会社,北海道,沙流郡平取町,字小平２７番地３,,01,602,0550102,,,,,,,2025-09-26,1,,,,,ビーアンドピーシステム,0
698,3430003018150,新規,0,2025-09-26,2025-09-26,合同会社創森,,合同会社,北海道,札幌市豊平区,西岡四条２丁目７番１２―２０１号,,01,105,0620034,,,,,,,2025-09-26,1,,,,,ソウシン,0
700,3460103001747,新規,0,2025-09-26,2025-09-26,ドゥーガル合同会社,,合同会社,北海道,河西郡更別村,字更別南三線９５番地６８,,01,639,0891542,,,,,,,2025-09-26,1,,,,,,0
704,3500001026528,新規,0,2025-09-26,2025-09-26,株式会社イナソー,,株式会社,愛媛県,宇和島市,三間町是能１４７７番地９５,,38,203,7981105,,,,,,,2025-09-26,1,,,,,イナソー,0
709,4010001258715,新規,0,2025-09-26,2025-09-26,株式会社プラスハイ,,株式会社,東京都,中央区,日本橋兜町１７番１号,,13,102,1030026,,,,,,,2025-09-26,1,,,,,プラスハイ,0
710,4010001258772,新規,0,2025-09-26,2025-09-26,株式会社ＭＩＮＤＳ,,株式会社,東京都,千代田区,丸の内２丁目３番１号,,13,101,1000005,,,,,,,2025-09-26,1,,,,,マインズ,0
719,4010103002657,新規,0,2025-09-26,2025-09-26,ＳＭＲＩＴＩ合同会社,,合同会社,東京都,八王子市,長沼町１３４番地３３４八王子長沼店舗２号室,,13,201,1920907,,,,,,,2025-09-26,1,,,,,スミリティ,0
726,4010401193306,新規,0,2025-09-26,2025-09-26,ＳＧＫ株式会社,,株式会社,東京都,港区,芝３丁目３番１０号,,13,103,1050014,,,,,,,2025-09-26,1,,,,,エスジーケー,0
727,4010403036108,新規,0,2025-09-26,2025-09-26,合同会社宙美,,合同会社,東京都,港区,新橋６丁目１１番１３－２４０１号,,13,103,1050004,,,,,,,2025-09-26,1,,,,,ソラミ,0
728,4010403036124,新規,0,2025-09-26,2025-09-26,ＡＣＬ　ＪＡＰＡＮ合同会社,,合同会社,東京都,港区,元赤坂１丁目２番７号,,13,103,1070051,,,,,,,2025-09-26,1,,,,,エーシーエルジャパン,0
729,4010403036132,新規,0,2025-09-26,2025-09-26,ジェイエルワン合同会社,,合同会社,東京都,港区,元赤坂１丁目１番７－１２０９号株式会社赤坂国際会計内,,13,103,1070051,,,,,,,2025-09-26,1,,,,,ジェイエルワン,0
730,4010403036140,新規,0,2025-09-26,2025-09-26,ＥＳＧセキュリティトークン開発事業合同会社,,合同会社,東京都,港区,赤坂６丁目１９番２３号プレステージ赤坂氷川町５０６,,13,103,1070052,,,,,,,2025-09-26,1,,,,,イーエスジーセキュリティトークンカイハツジギョウ,0
735,4010501054762,新規,0,2025-09-26,2025-09-26,株式会社Ｌ３ＩＴ　ＦＵＮＣＴＩＯＮ　ＴＥＣＨＮＯＬＯＧＹ,,株式会社,東京都,台東区,柳橋１丁目２－１２－５階・ＡＢＳ－Ｃ－９号,,13,106,1110052,,,,,,,2025-09-26,1,,,,,エルスリーアイティーファンクションテクノロジー,0
736,4010501054779,新規,0,2025-09-26,2025-09-26,株式会社Ｂａｍｉ,,株式会社,東京都,台東区,今戸１丁目２番１３－１１０４号東京マンション,,13,106,1110024,,,,,,,2025-09-26,1,,,,,バミー,0
737,4010701048358,新規,0,2025-09-26,2025-09-26,株式会社Ｓｐａｒｋｕｒｅ,,株式会社,東京都,品川区,南大井６丁目１６番２０号品川水神ビル６階,,13,109,1400013,,,,,,,2025-09-26,1,,,,,スパーキュア,0
738,4010703007931,新規,0,2025-09-26,2025-09-26,エクセリアコンサルティング合同会社,,合同会社,東京都,品川区,南大井６丁目２５－１０大森ハイツ２０７,,13,109,1400013,,,,,,,2025-09-26,1,,,,,エクセリアコンサルティング,0
739,4010705003805,新規,0,2025-09-26,2025-09-26,一般社団法人ハヤブササカイ,,その他の設立登記法人,東京都,品川区,上大崎３丁目１番１号目黒セントラルスクエア１５階,,13,109,1410021,,,,,,,2025-09-26,1,,,,,ハヤブササカイ,0
746,4010901058108,新規,0,2025-09-26,2025-09-26,ＴｒｉｃｅｒａＴｅｃｈ株式会社,,株式会社,東京都,世田谷区,池尻２丁目２６－９第五玉川ビル４０１号室,,13,112,1540001,,,,,,,2025-09-26,1,,,,,トリケラテック,0
747,4010903010272,新規,0,2025-09-26,2025-09-26,ＤＭ　Ｉｎｔｅｒｎａｔｉｏｎａｌ合同会社,,合同会社,東京都,世田谷区,喜多見９丁目４－７みのわグレース３０７,,13,112,1570067,,,,,,,2025-09-26,1,,,,,ディーエムインターナショナル,0
748,4010905004842,新規,0,2025-09-26,2025-09-26,一般社団法人日本オリジナーレ・ピンサ・ロマーナ協会,,その他の設立登記法人,東京都,世田谷区,下馬４丁目４番１１号,,13,112,1540002,,,,,,,2025-09-26,1,,,,,ニホンオリジナーレピンサロマーナキョウカイ,0
764,4011305003071,新規,0,2025-09-26,2025-09-26,労働者協同組合ワーカーズ・コレクティブふくふく,,その他の設立登記法人,東京都,杉並区,和泉３丁目７番１号,,13,115,1680063,,,,,,,2025-09-26,1,,,,,ワーカーズコレクティブフクフク,0
770,4011701028754,新規,0,2025-09-26,2025-09-26,めぐみサポート株式会社,,株式会社,東京都,江戸川区,東瑞江２丁目２５番１８号,,13,123,1320014,,,,,,,2025-09-26,1,,,,,メグミサポート,0
771,4011701028762,新規,0,2025-09-26,2025-09-26,和通株式会社,,株式会社,東京都,江戸川区,平井５丁目４４番６－４１０号,,13,123,1320035,,,,,,,2025-09-26,1,,,,,ワノツウ,0
772,4011701028770,新規,0,2025-09-26,2025-09-26,株式会社衆＿,00140825,株式会社,東京都,江戸川区,一之江３丁目１８－７コーポ百合ＩＩ１Ｆ,00140826,13,123,1320024,,,,,,,2025-09-26,1,,,,,シュウエイ,0
776,4011803007103,新規,0,2025-09-26,2025-09-26,合同会社サイオン,,合同会社,東京都,足立区,千住旭町１９番１０号,,13,121,1200026,,,,,,,2025-09-26,1,,,,,サイオン,0
780,4012405005156,新規,0,2025-09-26,2025-09-26,一般社団法人きっかけ総合研究所,,その他の設立登記法人,東京都,小金井市,緑町５丁目６番１７号,,13,210,1840003,,,,,,,2025-09-26,1,,,,,キッカケソウゴウケンキュウジョ,0
781,4012801024239,新規,0,2025-09-26,2025-09-26,株式会社仲岡Ｃ＆Ｍ,,株式会社,東京都,東大和市,狭山４丁目１５２４番地の１９,,13,220,2070003,,,,,,,2025-09-26,1,,,,,ナカオカシーアンドエム,0
782,4012801024271,新規,0,2025-09-26,2025-09-26,ＫＣＲ株式会社,,株式会社,東京都,武蔵村山市,中原３丁目８－１８,,13,223,2080035,,,,,,,2025-09-26,1,,,,,ケーシーアール,0
783,4013101009806,新規,0,2025-09-26,2025-09-26,株式会社壮志電工,,株式会社,東京都,青梅市,長淵１丁目１００６番地の１,,13,205,1980052,,,,,,,2025-09-26,1,,,,,ソウシデンコウ,0
789,4020001164895,新規,0,2025-09-26,2025-09-26,株式会社ワンホース,,株式会社,神奈川県,横浜市西区,浅間町３丁目２０７－５オガワビレッジ３０３号,,14,103,2200072,,,,,,,2025-09-26,1,,,,,ワンホース,0
790,4020001165002,新規,0,2025-09-26,2025-09-26,株式会社占部建築設計事務所,,株式会社,神奈川県,横浜市鶴見区,獅子ケ谷２丁目２４番１２号,,14,101,2300073,,,,,,,2025-09-26,1,,,,,ウラベケンチクセッケイジムショ,0
799,4021003016580,新規,0,2025-09-26,2025-09-26,Ｗｉｎｔｅｒｓ＆Ａｓｓｏｃｉａｔｅｓ合同会社,,合同会社,神奈川県,三浦郡葉山町,下山口１８２８番地,,14,301,2400116,,,,,,,2025-09-26,1,,,,,ウィンタースアンドアソシエイツ,0
803,4030001168722,新規,0,2025-09-26,2025-09-26,ドンアン通商株式会社,,株式会社,埼玉県,飯能市,大字平戸２７４番地８,,11,209,3570211,,,,,,,2025-09-26,1,,,,,ドンアンツウショウ,0
804,4030001168730,新規,0,2025-09-26,2025-09-26,日和物産株式会社,,株式会社,埼玉県,ふじみ野市,大井武蔵野１３４９－７－３０２,,11,245,3560054,,,,,,,2025-09-26,1,,,,,ヒヨリブッサン,0
805,4030001168763,新規,0,2025-09-26,2025-09-26,Ｅｙｅｎｅｒｄ株式会社,,株式会社,埼玉県,さいたま市南区,南浦和１丁目１０番１３－４０２号,,11,108,3360017,,,,,,,2025-09-26,1,,,,,アイナード,0
806,4030001168796,新規,0,2025-09-26,2025-09-26,武蔵創建株式会社,,株式会社,埼玉県,久喜市,久喜中央１丁目６番３号南井ビル３Ｆ,,11,232,3460003,,,,,,,2025-09-26,1,,,,,ムサシソウケン,0
807,4030001168821,新規,0,2025-09-26,2025-09-26,品創設計株式会社,,株式会社,埼玉県,越谷市,南町３丁目１０－２ピアコート越谷４０３－２号室,,11,222,3430832,,,,,,,2025-09-26,1,,,,,ヒンソウセッケイ,0
809,4030003027736,新規,0,2025-09-26,2025-09-26,三上商事合同会社,,合同会社,埼玉県,さいたま市北区,宮原町３丁目３５９番,,11,102,3310812,,,,,,,2025-09-26,1,,,,,ミカミショウジ,0
811,4040003028551,新規,0,2025-09-26,2025-09-26,ＡｔｏＺ合同会社,,合同会社,千葉県,千葉市美浜区,高洲２丁目８番９棟３０７号,,12,106,2610004,,,,,,,2025-09-26,1,,,,,エートゥーゼット,0
812,4040003028667,新規,0,2025-09-26,2025-09-26,ＣＲＯＷＮＬＩＮＥ合同会社,,合同会社,千葉県,長生郡白子町,五井１３４５番地５９,,12,424,2994211,,,,,,,2025-09-26,1,,,,,クラウンライン,0
813,4040005022882,新規,0,2025-09-26,2025-09-26,一般社団法人大和松濤館,,その他の設立登記法人,千葉県,木更津市,清見台南１丁目１９番１０号,,12,206,2920042,,,,,,,2025-09-26,1,,,,,ヤマトショウトウカン,0
819,4060001038575,新規,0,2025-09-26,2025-09-26,株式会社ＡＹＡＴ貿易,,株式会社,栃木県,栃木市,皆川城内町７７２番地３,,09,203,3280067,,,,,,,2025-09-26,1,,,,,,0
822,4060003005771,新規,0,2025-09-26,2025-09-26,ＡＬＯＨＡ　ＪＡＰＡＮ合同会社,,合同会社,栃木県,宇都宮市,平出町２０８８番地５,,09,201,3210901,,,,,,,2025-09-26,1,,,,,アロハジャパン,0
849,4120001279733,新規,0,2025-09-26,2025-09-26,エマージパフォーマンス株式会社,,株式会社,大阪府,大阪市生野区,生野西２丁目１番３３－２０５号,,27,116,5440024,,,,,,,2025-09-26,1,,,,,エマージパフォーマンス,0
850,4120001279873,新規,0,2025-09-26,2025-09-26,メタテクト株式会社,,株式会社,大阪府,大阪市中央区,南船場３丁目２番２２号おおきに南船場ビル２０５,,27,128,5420081,,,,,,,2025-09-26,1,,,,,メタテクト,0
851,4120001279956,新規,0,2025-09-26,2025-09-26,青雲工業株式会社,,株式会社,大阪府,大阪市淀川区,西宮原２丁目６－１６－４２９号室,,27,123,5320004,,,,,,,2025-09-26,1,,,,,セイウンコウギョウ,0
852,4120001280088,新規,0,2025-09-26,2025-09-26,布丁株式会社,,株式会社,大阪府,大阪市城東区,野江３丁目１３番２３号キメラフラット野江５０１号,,27,118,5360006,,,,,,,2025-09-26,1,,,,,ブテイ,0
853,4120001280146,新規,0,2025-09-26,2025-09-26,株式会社傑ＳＵＧＵＲＵ産業医事務所,,株式会社,大阪府,大阪市北区,鶴野町３番９－５０６号,,27,127,5300014,,,,,,,2025-09-26,1,,,,,スグルスグルサンギョウイジムショ,0
854,4120001280328,新規,0,2025-09-26,2025-09-26,モーンド・デンタル株式会社,,株式会社,大阪府,大阪市住之江区,粉浜１丁目３番２５号－１０３号,,27,125,5590001,,,,,,,2025-09-26,1,,,,,モーンドデンタル,0
855,4120001280344,新規,0,2025-09-26,2025-09-26,源智株式会社,,株式会社,大阪府,大阪市東住吉区,中野４丁目１番１６号リベラルオリエンテ中野４１１Ａ,,27,121,5460012,,,,,,,2025-09-26,1,,,,,ゲンチ,0
856,4120001280360,新規,0,2025-09-26,2025-09-26,ＰＨＯＮＧ　ＨＵＮＧ　ＧＲＯＵＰ株式会社,,株式会社,大阪府,大阪市生野区,巽北２丁目５番３４号マック北巽別棟４Ｆ,00140824,27,116,5440004,,,,,,,2025-09-26,1,,,,,フォンフングループ,0
858,4120003030706,新規,0,2025-09-26,2025-09-26,ヘルプユー合同会社,,合同会社,大阪府,大阪市住吉区,帝塚山東１丁目３番２２号,,27,120,5580054,,,,,,,2025-09-26,1,,,,,ヘルプユー,0
870,4130001080594,新規,0,2025-09-26,2025-09-26,京都華＿コンサルティング株式会社,00140809,株式会社,京都府,京都市中京区,天神山町２８０番地石勘ビル,,26,104,6048221,,,,,,,2025-09-26,1,,,,,キョウトハナイクコンサルティング,0
871,4130001080628,新規,0,2025-09-26,2025-09-26,千鶴株式会社,,株式会社,京都府,京都市北区,大北山原谷乾町１０１番地ＤｅａｒＣｏｕｒｔ３０８号,,26,101,6038487,,,,,,,2025-09-26,1,,,,,チヅル,0
875,4140001140117,新規,0,2025-09-26,2025-09-26,株式会社ＴＯ‐ＷＡ,,株式会社,兵庫県,尼崎市,南武庫之荘１１丁目８番１９－０１３号,,28,202,6610033,,,,,,,2025-09-26,1,,,,,トーワ,0
877,4140003022643,新規,0,2025-09-26,2025-09-26,合同会社ＣＬＡＳＩＫＡ,,合同会社,兵庫県,姫路市,南町７６城陽ビル４Ｆコワーキングスペースｍｏｃｃｏ姫路内,,28,201,6700912,,,,,,,2025-09-26,1,,,,,クラシカ,0
886,4180001168724,新規,0,2025-09-26,2025-09-26,ＥｘＶａ株式会社,,株式会社,愛知県,名古屋市中村区,名駅４丁目２４番５号第２森ビル４０１,,23,105,4500002,,,,,,,2025-09-26,1,,,,,エクシバ,0
888,4180005021235,新規,0,2025-09-26,2025-09-26,一般社団法人誠耀会,,その他の設立登記法人,愛知県,名古屋市中区,丸の内２丁目１８番５号サン・マルノウチビル１１０３,,23,106,4600002,,,,,,,2025-09-26,1,,,,,セイヨウカイ,0
889,4180005021243,新規,0,2025-09-26,2025-09-26,医療法人けいあい,,その他の設立登記法人,愛知県,名古屋市東区,矢田南１丁目１番１６号ライオンズ徳川園新出来ルクロス１５０３号,,23,102,4610048,,,,,,,2025-09-26,1,,,,,ケイアイ,0
890,4180301040236,新規,0,2025-09-26,2025-09-26,株式会社萬屋信吉,,株式会社,愛知県,西尾市,上矢田町東出２９番地２グランチェスタ２０１号室,,23,213,4440313,,,,,,,2025-09-26,1,,,,,ヨロヅヤシンキチ,0
891,4180303006739,新規,0,2025-09-26,2025-09-26,合同会社正寿,,合同会社,愛知県,安城市,根崎町西根１６０番地５,,23,212,4441211,,,,,,,2025-09-26,1,,,,,セイジュ,0
892,4180303006747,新規,0,2025-09-26,2025-09-26,合同会社Ｂｅｒｇ　ＤＲＯＮＥ,,合同会社,愛知県,刈谷市,今川町山ノ端１９番地１,,23,210,4480005,,,,,,,2025-09-26,1,,,,,ベルクドローン,0
893,4180305009731,新規,0,2025-09-26,2025-09-26,医療法人龍誠会,,その他の設立登記法人,愛知県,岡崎市,城北町９番地８,,23,202,4440064,,,,,,,2025-09-26,1,,,,,リュウセイカイ,0
894,4190001032557,新規,0,2025-09-26,2025-09-26,株式会社Ｊ　ＦＡＣＴＯＲＹ,,株式会社,三重県,桑名市,大字大福字中野５１１番地１,,24,205,5110834,,,,,,,2025-09-26,1,,,,,ジェイファクトリー,0
907,4250001021339,新規,0,2025-09-26,2025-09-26,株式会社上條事務所,,株式会社,山口県,宇部市,昭和町４丁目８番２号,,35,202,7550011,,,,,,,2025-09-26,1,,,,,ウエジョウジムショ,0
911,4250003003814,新規,0,2025-09-26,2025-09-26,合同会社貴和,,合同会社,山口県,宇部市,大字西岐波６１５６番地,,35,202,7550151,,,,,,,2025-09-26,1,,,,,キワ,0
915,4290001111581,新規,0,2025-09-26,2025-09-26,イーコリバイオ技術株式会社,,株式会社,福岡県,福岡市博多区,博多駅東３丁目９番７－４０３号博多ニッコーハイツアネックス,,40,132,8120013,,,,,,,2025-09-26,1,,,,,イーコリバイオギジュツ,0
916,4290001111598,新規,0,2025-09-26,2025-09-26,株式会社ＵＺＡＩＲ　ＴＲＡＤＩＮＧ,,株式会社,福岡県,朝倉市,杷木若市字光明寺３０４４番地１,,40,228,8381515,,,,,,,2025-09-26,1,,,,,オゼールトレーディング,0
917,4290001111607,新規,0,2025-09-26,2025-09-26,株式会社ＪＰ・ウェディング,,株式会社,福岡県,福岡市早良区,田隈３丁目２６番５１号,,40,137,8140174,,,,,,,2025-09-26,1,,,,,ジェーピーウェディング,0
928,4340001027632,新規,0,2025-09-26,2025-09-26,株式会社ユナイティア,,株式会社,鹿児島県,鹿児島市,草牟田１丁目５番１号,,46,201,8900014,,,,,,,2025-09-26,1,,,,,ユナイティア,0
929,4360001035815,新規,0,2025-09-26,2025-09-26,株式会社ＴＯＲＩＯＮ,,株式会社,沖縄県,宜野湾市,大山１丁目１０番２７号２－Ａ,,47,205,9012223,,,,,,,2025-09-26,1,,,,,トリオン,0
930,4360001035831,新規,0,2025-09-26,2025-09-26,株式会社グランディップ,,株式会社,沖縄県,島尻郡南風原町,字新川９８番地１金城アパート２階２０１号室,,47,350,9011105,,,,,,,2025-09-26,1,,,,,グランディップ,0
946,4420001019282,新規,0,2025-09-26,2025-09-26,株式会社るりはた不動産,,株式会社,青森県,八戸市,大字大久保字浜長根１２番地６,,02,203,0310833,,,,,,,2025-09-26,1,,,,,ルリハタフドウサン,0
951,4430001095257,新規,0,2025-09-26,2025-09-26,ｂｌａｎｃｏ株式会社,,株式会社,北海道,札幌市中央区,南五条西１５丁目２－３－５０３,,01,101,0640805,,,,,,,2025-09-26,1,,,,,ブランコ,0
956,4460005001596,新規,0,2025-09-26,2025-09-26,一般社団法人大地医学研究所,,その他の設立登記法人,北海道,釧路市,音別町朝日３丁目６７番地２,,01,206,0880117,,,,,,,2025-09-26,1,,,,,ダイチイガクケンキュウショ,0
959,4470003002983,新規,0,2025-09-26,2025-09-26,合同会社ｍｅｎｔ,,合同会社,香川県,高松市,木太町３００７番地１ウッドネスト木太ＩＩ－３０３,00140807,37,201,7600080,,,,,,,2025-09-26,1,,,,,,0
973,5010001258598,新規,0,2025-09-26,2025-09-26,盛和国際株式会社,,株式会社,東京都,千代田区,外神田３丁目６－５外神田永谷タウンプラザ３０７,,13,101,1010021,,,,,,,2025-09-26,1,,,,,セイワコクサイ,0
975,5010003048849,新規,0,2025-09-26,2025-09-26,合同会社ＳＴ２７,,合同会社,東京都,中央区,銀座１丁目１２番４号Ｎ＆ＥＢＬＤ．７階,,13,102,1040061,,,,,,,2025-09-26,1,,,,,エスティーニナナ,0
982,5010401193049,新規,0,2025-09-26,2025-09-26,株式会社グロノバ,,株式会社,東京都,港区,北青山３丁目６－７青山パラシオタワー１１階,,13,103,1070061,,,,,,,2025-09-26,1,,,,,グロノバ,0
983,5010401193296,新規,0,2025-09-26,2025-09-26,株式会社ＷＣ,,株式会社,東京都,港区,赤坂８丁目５番４０号ＰＥＧＡＳＵＳＡＯＹＡＭＡ５１２,,13,103,1070052,,,,,,,2025-09-26,1,,,,,ダブルシー,0
984,5010403036016,新規,0,2025-09-26,2025-09-26,合同会社ＳＳＫ,,合同会社,東京都,港区,六本木７丁目７－７－８Ｆ,,13,103,1060032,,,,,,,2025-09-26,1,,,,,エスエスケー,0
985,5010403036040,新規,0,2025-09-26,2025-09-26,合同会社Ｒｉａｍ,,合同会社,東京都,港区,北青山１丁目３番１号アールキューブ青山３階,,13,103,1070061,,,,,,,2025-09-26,1,,,,,リアム,0
986,5010403036107,新規,0,2025-09-26,2025-09-26,ＥＤＤＩＥ　ＴＯ　ＧＯ合同会社,,合同会社,東京都,港区,南麻布２丁目７番３０号,,13,103,1060047,,,,,,,2025-09-26,1,,,,,エディトゥーゴー,0
990,5010503008006,新規,0,2025-09-26,2025-09-26,丘山合同会社,,合同会社,東京都,台東区,浅草橋１丁目２５－７,,13,106,1110053,,,,,,,2025-09-26,1,,,,,オカヤマ,0
995,5010701048365,新規,0,2025-09-26,2025-09-26,株式会社ＡｖｅＬｉｎＸ,,株式会社,東京都,品川区,西五反田３丁目１０番１８－２５０７号,,13,109,1410031,,,,,,,2025-09-26,1,,,,,アヴェリンクス,0
1000,5010903010271,新規,0,2025-09-26,2025-09-26,合同会社Ｒｅｃｏｖｅｒｉｓ,,合同会社,東京都,世田谷区,砧８丁目２－２３成城パークサイド２０２,,13,112,1570073,,,,,,,2025-09-26,1,,,,,リカバリス,0
1008,5011105011604,新規,0,2025-09-26,2025-09-26,一般社団法人日本Ｘ線ＣＴ医学会,,その他の設立登記法人,東京都,新宿区,信濃町３５番地,,13,104,1600016,,,,,,,2025-09-26,1,,,,,ニホンエックスセンシーティーイガクカイ,0
1014,5011401027428,新規,0,2025-09-26,2025-09-26,ＢｒａｎｄＳｔａｃｋ株式会社,,株式会社,東京都,板橋区,板橋１丁目１３番９号板橋Ｘｅ４０１,,13,119,1730004,,,,,,,2025-09-26,1,,,,,ブランドスタック,0
1016,5011501032617,新規,0,2025-09-26,2025-09-26,多比財富株式会社,,株式会社,東京都,荒川区,町屋３丁目２番１号Ｂ１Ｆ,,13,118,1160001,,,,,,,2025-09-26,1,,,,,タヒザイフ,0
1019,5011603004852,新規,0,2025-09-26,2025-09-26,合同会社丸丈商会,,合同会社,東京都,練馬区,南田中１丁目７番１号,,13,120,1770035,,,,,,,2025-09-26,1,,,,,マルジョウショウカイ,0
1023,5011701028761,新規,0,2025-09-26,2025-09-26,エーキューグローバル株式会社,,株式会社,東京都,江戸川区,西葛西２丁目１６番１２号,,13,123,1340088,,,,,,,2025-09-26,1,,,,,エーキューグローバル,0
1024,5011701028794,新規,0,2025-09-26,2025-09-26,ＬＩＮ　ＴＨＵＲＡ　ＭＡＵＮＧ株式会社,,株式会社,東京都,江戸川区,東小岩６丁目３３番１８号ＺＫＹビル１０８号室,,13,123,1330052,,,,,,,2025-09-26,1,,,,,リントゥラマウン,0
1034,5013101009805,新規,0,2025-09-26,2025-09-26,株式会社Ｋ９‐Ｂａｓｅ,,株式会社,東京都,羽村市,栄町２丁目２１番地１５,,13,227,2050002,,,,,,,2025-09-26,1,,,,,ケーナインベース,0
1038,5020001164886,新規,0,2025-09-26,2025-09-26,ティーディービー株式会社,,株式会社,神奈川県,川崎市多摩区,西生田５丁目１１－１７Ｎ０３,,14,135,2140037,,,,,,,2025-09-26,1,,,,,ティーディービー,0
1039,5020001164936,新規,0,2025-09-26,2025-09-26,株式会社Ｏ‐ＶＬ,,株式会社,神奈川県,横浜市港南区,港南６丁目１９番７－１０３号,,14,111,2330003,,,,,,,2025-09-26,1,,,,,オーブル,0
1043,5020003029443,新規,0,2025-09-26,2025-09-26,合同会社レノア横浜,,合同会社,神奈川県,横浜市戸塚区,汲沢２丁目１３番１号,,14,110,2450061,,,,,,,2025-09-26,1,,,,,レノアヨコハマ,0
1044,5020003029468,新規,0,2025-09-26,2025-09-26,合同会社ケイスリー,,合同会社,神奈川県,川崎市川崎区,東田町１０番地８ＪＳビル１階,,14,131,2100005,,,,,,,2025-09-26,1,,,,,ケイスリー,0
1045,5020005016992,新規,0,2025-09-26,2025-09-26,一般社団法人ロータスラボ,,その他の設立登記法人,神奈川県,横浜市神奈川区,西神奈川２丁目５番１８号東白楽若林ビル６０１,,14,102,2210822,,,,,,,2025-09-26,1,,,,,ロータスラボ,0
1049,5021001086385,新規,0,2025-09-26,2025-09-26,株式会社ＫＡＴＡＫＵＲＡ,,株式会社,神奈川県,秦野市,堀川５７０番地,,14,211,2591305,,,,,,,2025-09-26,1,,,,,カタクラ,0
1057,5030001168721,新規,0,2025-09-26,2025-09-26,株式会社ミラリンク,,株式会社,埼玉県,東松山市,高坂２丁目１２番地１５,,11,212,3550047,,,,,,,2025-09-26,1,,,,,ミラリンク,0
1058,5030001168804,新規,0,2025-09-26,2025-09-26,林原商事株式会社,,株式会社,埼玉県,さいたま市西区,大字飯田新田５０９番地１号２０２室,,11,101,3310068,,,,,,,2025-09-26,1,,,,,リンゲンショウジ,0
1067,5040001140464,新規,0,2025-09-26,2025-09-26,株式会社ＹＲＳ,,株式会社,千葉県,千葉市中央区,塩田町５７２番地,,12,101,2600823,,,,,,,2025-09-26,1,,,,,ワイアールエス,0
1068,5040001140571,新規,0,2025-09-26,2025-09-26,株式会社遊愛,,株式会社,千葉県,我孫子市,湖北台１丁目１７番１７号,,12,222,2701132,,,,,,,2025-09-26,1,,,,,ユア,0
1071,5040003028591,新規,0,2025-09-26,2025-09-26,合同会社エディー,,合同会社,千葉県,柏市,旭町４丁目７番５号,,12,217,2770852,,,,,,,2025-09-26,1,,,,,エディー,0
1073,5040005022873,新規,0,2025-09-26,2025-09-26,一般社団法人あんしんらいふ協会,,その他の設立登記法人,千葉県,浦安市,入船１丁目５番２号プライムタワー新浦安５Ｆ,,12,227,2790012,,,,,,,2025-09-26,1,,,,,アンシンライフキョウカイ,0
1079,5060001038608,新規,0,2025-09-26,2025-09-26,株式会社おむすび那須,,株式会社,栃木県,那須郡那須町,大字高久乙字遅山３３７５番地,,09,407,3250303,,,,,,,2025-09-26,1,,,,,オムスビナス,0
1084,5080401028173,新規,0,2025-09-26,2025-09-26,株式会社スマイル・エナジー・ラボ,,株式会社,静岡県,浜松市中央区,村櫛町４６６６番地の７７,,22,138,4311207,,,,,,,2025-09-26,1,,,,,スマイルエナジーラボ,0
1085,5080401028181,新規,0,2025-09-26,2025-09-26,株式会社Ｕ＆ｃｏ,,株式会社,静岡県,浜松市浜名区,内野８０９番地の１,,22,139,4340044,,,,,,,2025-09-26,1,,,,,ユウアンドコー,0
1086,5090001019522,新規,0,2025-09-26,2025-09-26,依玲株式会社,,株式会社,山梨県,甲府市,塚原町７６７,,19,201,4000003,,,,,,,2025-09-26,1,,,,,イレイ,0
1087,5100001038982,新規,0,2025-09-26,2025-09-26,ＬＩＮＫＳ株式会社,,株式会社,長野県,上田市,真田町本原２９２４番２号地,,20,203,3862202,,,,,,,2025-09-26,1,,,,,リンクス,0
1102,5120001279732,新規,0,2025-09-26,2025-09-26,光智創研株式会社,,株式会社,大阪府,大阪市都島区,都島本通３丁目１８番４号２階２０８－１４号室,,27,102,5340021,,,,,,,2025-09-26,1,,,,,ヒカリチソウケン,0
1103,5120001279807,新規,0,2025-09-26,2025-09-26,株式会社ＴＫ,,株式会社,大阪府,大阪市住之江区,北加賀屋１丁目２番１５号,,27,125,5590011,,,,,,,2025-09-26,1,,,,,ティケイ,0
1104,5120001279872,新規,0,2025-09-26,2025-09-26,楽意株式会社,,株式会社,大阪府,大阪市西区,江之子島１丁目８番２０号,,27,106,5500006,,,,,,,2025-09-26,1,,,,,ラクイ,0
1105,5120001279922,新規,0,2025-09-26,2025-09-26,ＮＯＫＯ株式会社,,株式会社,大阪府,大阪市港区,港晴４丁目１４－５港晴パールシティビル３０３,,27,107,5520023,,,,,,,2025-09-26,1,,,,,ノコ,0
1106,5120001279939,新規,0,2025-09-26,2025-09-26,株式会社プレイフルズ,,株式会社,大阪府,大阪市西区,南堀江１丁目２４番２１－１４０４号,,27,106,5500015,,,,,,,2025-09-26,1,,,,,プレイフルズ,0
1107,5120001279963,新規,0,2025-09-26,2025-09-26,三富株式会社,,株式会社,大阪府,大阪市西成区,岸里２丁目１０番２号,,27,122,5570041,,,,,,,2025-09-26,1,,,,,ミトミ,0
1108,5120001279988,新規,0,2025-09-26,2025-09-26,株式会社ＭＵＴＯ,,株式会社,大阪府,大阪市中央区,本町橋６番２１号シャンボール内本町３１２号,,27,128,5400029,,,,,,,2025-09-26,1,,,,,ミュート,0
1109,5120001280079,新規,0,2025-09-26,2025-09-26,新晴株式会社,,株式会社,大阪府,大阪市淀川区,加島４丁目４番３８号アイビーハイム加島３Ｃ,,27,123,5320031,,,,,,,2025-09-26,1,,,,,シンセイ,0
1110,5120001280087,新規,0,2025-09-26,2025-09-26,七皓株式会社,,株式会社,大阪府,大阪市阿倍野区,天王寺町南２丁目２２番３号ＮＡＧＡＩメゾン天王寺南４０５,,27,119,5450002,,,,,,,2025-09-26,1,,,,,シチコウ,0
1111,5120001280104,新規,0,2025-09-26,2025-09-26,利東株式会社,,株式会社,大阪府,大阪市港区,弁天４丁目１０番２１号オーシャンハイツ弁天４０３,,27,107,5520007,,,,,,,2025-09-26,1,,,,,リトウ,0
1112,5120001280112,新規,0,2025-09-26,2025-09-26,株式会社Ｍ＆Ａフリーク,,株式会社,大阪府,大阪市淀川区,西中島５丁目８番２１号マイルド新大阪レジデンス１階１０８号室,,27,123,5320011,,,,,,,2025-09-26,1,,,,,エムアンドエーフリーク,0
1113,5120001280269,新規,0,2025-09-26,2025-09-26,Ｎａｌｕ株式会社,,株式会社,大阪府,大阪市北区,大深町３番１号グランフロント大阪タワーＢ３５階ＭＥＧＡオフィス,,27,127,5300011,,,,,,,2025-09-26,1,,,,,ナル,0
1119,5120003030597,新規,0,2025-09-26,2025-09-26,合同会社はくび,,合同会社,大阪府,大阪市北区,梅田１丁目２番２号大阪駅前第２ビル１２－１２,,27,127,5300001,,,,,,,2025-09-26,1,,,,,ハクビ,0
1120,5120003030622,新規,0,2025-09-26,2025-09-26,リトルベイビー合同会社,,合同会社,大阪府,大阪市西成区,玉出西２丁目１０－２２コスモハイツ玉出７０６室,,27,122,5570045,,,,,,,2025-09-26,1,,,,,リトルベイビー,0
1121,5120003030696,新規,0,2025-09-26,2025-09-26,合同会社ライフスタイル,,合同会社,大阪府,大阪市中央区,島之内２丁目５－４,,27,128,5420082,,,,,,,2025-09-26,1,,,,,ライフスタイル,0
1122,5120003030705,新規,0,2025-09-26,2025-09-26,合同会社ＭＩＮＧＡＬＡＲ　ＦＵＳＩＯＮ,,合同会社,大阪府,大阪市西成区,千本北２丁目１６－３－１０１号,,27,122,5570053,,,,,,,2025-09-26,1,,,,,ミンガラーフューション,0
1123,5120003030812,新規,0,2025-09-26,2025-09-26,徳信合同会社,,合同会社,大阪府,大阪市東住吉区,西今川３丁目１５番６号マル仲第一ビル３－Ｂ,,27,121,5460042,,,,,,,2025-09-26,1,,,,,トクシン,0
1124,5120003030837,新規,0,2025-09-26,2025-09-26,合同会社勝電,,合同会社,大阪府,交野市,向井田１丁目１４番１１号,,27,230,5760065,,,,,,,2025-09-26,1,,,,,ショウデン,0
1127,5120103006737,新規,0,2025-09-26,2025-09-26,水島商店合同会社,,合同会社,大阪府,泉佐野市,長滝４５８番地,,27,213,5980034,,,,,,,2025-09-26,1,,,,,ミズシマショウテン,0
1131,5120901051554,新規,0,2025-09-26,2025-09-26,パートナーズリンク株式会社,,株式会社,大阪府,豊中市,曽根南町３丁目２０番２５号２Ｆ,,27,203,5610804,,,,,,,2025-09-26,1,,,,,パートナーズリンク,0
1132,5120903005871,新規,0,2025-09-26,2025-09-26,合同会社ヨシタケ,,合同会社,大阪府,池田市,五月丘４丁目１番１４号,,27,204,5630029,,,,,,,2025-09-26,1,,,,,ヨシタケ,0
1134,5130001080593,新規,0,2025-09-26,2025-09-26,株式会社ウィステリアサービス,,株式会社,京都府,京都市右京区,西院東貝川町７７－３０６,,26,108,6150057,,,,,,,2025-09-26,1,,,,,ウィステリアサービス,0
1135,5130001080602,新規,0,2025-09-26,2025-09-26,ＫＯＳＨＩＢＡ　ＩＮＴＥＲＮＡＴＩＯＮＡＬ株式会社,,株式会社,京都府,船井郡京丹波町,上野中野２２番地２,,26,407,6220211,,,,,,,2025-09-26,1,,,,,コシバインターナショナル,0
1136,5130001080627,新規,0,2025-09-26,2025-09-26,迦南株式会社,,株式会社,京都府,京都市北区,大北山原谷乾町１０１番地ＤｅａｒＣｏｕｒｔ３１１号,,26,101,6038487,,,,,,,2025-09-26,1,,,,,カナン,0
1149,5140003022601,新規,0,2025-09-26,2025-09-26,ＡＮＨ　ＤＵＯＮＧ合同会社,,合同会社,兵庫県,姫路市,花田町一本松４０１－２１号,,28,201,6710253,,,,,,,2025-09-26,1,,,,,アインズォン,0
1150,5140003022618,新規,0,2025-09-26,2025-09-26,グランウィロー合同会社,,合同会社,兵庫県,西宮市,鳴尾町５丁目７番２１号ナルオポスト３０２,,28,204,6638184,,,,,,,2025-09-26,1,,,,,グランウィロー,0
1151,5140003022626,新規,0,2025-09-26,2025-09-26,合同会社北谷開発,,合同会社,兵庫県,三田市,南が丘１丁目５４番９－１０６,,28,219,6691535,,,,,,,2025-09-26,1,,,,,キタタニカイハツ,0
1152,5140005027631,新規,0,2025-09-26,2025-09-26,特定非営利活動法人ｃｏｃｏｒｏ　ｍｏ　Ｅｒｕ,,その他の設立登記法人,兵庫県,明石市,二見町東二見８９７－２－Ａ,,28,203,6740092,,,,,,,2025-09-26,1,,,,,ココロモエル,0
1165,5180001168715,新規,0,2025-09-26,2025-09-26,株式会社Ｃｏａｒｉｓ　Ｃｒｅｄｅｎｃｅ,,株式会社,愛知県,名古屋市中区,新栄１丁目２番５号６階,,23,106,4600007,,,,,,,2025-09-26,1,,,,,コアリスクレデンス,0
1166,5180001168756,新規,0,2025-09-26,2025-09-26,株式会社Ｆｕｚｉワーク奏,,株式会社,愛知県,名古屋市北区,東味鋺３丁目３０１番地,,23,103,4620013,,,,,,,2025-09-26,1,,,,,フジワークカナデ,0
1167,5180001168764,新規,0,2025-09-26,2025-09-26,湘南陶器株式会社,,株式会社,愛知県,名古屋市東区,白壁３丁目３番３０号ラ・モヴェール白壁鈴木４０２号室,,23,102,4610011,,,,,,,2025-09-26,1,,,,,ショウナントウキ,0
1172,5180003029106,新規,0,2025-09-26,2025-09-26,サハラオートトレーディング合同会社,,合同会社,愛知県,弥富市,亀ケ地１丁目２５番地２,,23,235,4901424,,,,,,,2025-09-26,1,,,,,サハラオートトレーディング,0
1175,5180301040235,新規,0,2025-09-26,2025-09-26,株式会社ＳＵＺＵＫＥＮ,,株式会社,愛知県,西尾市,戸ケ崎４丁目５番地２,,23,213,4450075,,,,,,,2025-09-26,1,,,,,スズケン,0
1177,5180305009730,新規,0,2025-09-26,2025-09-26,一般社団法人未来工房,,その他の設立登記法人,愛知県,豊橋市,杉山町字上殿村６８番地,,23,201,4413302,,,,,,,2025-09-26,1,,,,,,0
1185,5230001021100,新規,0,2025-09-26,2025-09-26,ＭＯＨＩＢ　ＣＯＲＰＯＲＡＴＩＯＮ株式会社,,株式会社,富山県,射水市,堀岡新明神１８９番地,,16,211,9330221,,,,,,,2025-09-26,1,,,,,モヒブコーポレーション,0
1187,5240001065534,新規,0,2025-09-26,2025-09-26,夢達産業株式会社,,株式会社,広島県,世羅郡世羅町,大字川尻字友広１３６番地１,,34,462,7293302,,,,,,,2025-09-26,1,,,,,モンダーサンギョウ,0
1193,5250005009024,新規,0,2025-09-26,2025-09-26,一般社団法人阿東津和野まるまるプロジェクト,,その他の設立登記法人,山口県,山口市,阿東徳佐上３６５６番地１,,35,203,7591511,,,,,,,2025-09-26,1,,,,,アトウツワノマルマルプロジェクト,0
1194,5250005009032,新規,0,2025-09-26,2025-09-26,医療法人社団明慶会,,その他の設立登記法人,山口県,宇部市,大字東須恵１１２２番地１,,35,202,7590206,,,,,,,2025-09-26,1,,,,,メイケイカイ,0
1195,5260001040568,新規,0,2025-09-26,2025-09-26,エラン株式会社,,株式会社,岡山県,倉敷市,児島駅前１丁目５４番地３,,33,202,7110921,,,,,,,2025-09-26,1,,,,,エラン,0
1196,5260003005354,新規,0,2025-09-26,2025-09-26,ＵＮｉＣＡＲＥ合同会社,,合同会社,岡山県,岡山市南区,妹尾１５２０－２,,33,104,7010205,,,,,,,2025-09-26,1,,,,,ユニケア,0
1210,5320001021355,新規,0,2025-09-26,2025-09-26,株式会社湯布院らんぷの宿,,株式会社,大分県,由布市,湯布院町川上３６３９番地１,,44,213,8795102,,,,,,,2025-09-26,1,,,,,ユフインランプノヤド,0
1213,5330005010956,新規,0,2025-09-26,2025-09-26,一般社団法人有明沿岸市民アライアンス,,その他の設立登記法人,熊本県,荒尾市,大島８５番地２,,43,204,8640057,,,,,,,2025-09-26,1,,,,,アリアケエンガンシミンアライアンス,0
1222,5360003015269,新規,0,2025-09-26,2025-09-26,合同会社ＲＩＭＵ,,合同会社,沖縄県,国頭郡大宜味村,字上原８６１,,47,302,9051308,,,,,,,2025-09-26,1,,,,,リム,0
1228,5370003007298,新規,0,2025-09-26,2025-09-26,合同会社ＡＴＴＡ　ＴＲＡＤＩＮＧ,,合同会社,宮城県,大崎市,鹿島台木間塚字柿ノ木平２７－１０,,04,215,9894102,,,,,,,2025-09-26,1,,,,,アタトレーディング,0
1234,5450003002720,新規,0,2025-09-26,2025-09-26,合同会社ミケハコビ,,合同会社,北海道,旭川市,緑が丘東一条３丁目１番６号,,01,204,0788801,,,,,,,2025-09-26,1,,,,,ミケハコビ,0
1235,5460101007760,新規,0,2025-09-26,2025-09-26,株式会社ＣＫパートナーズ,,株式会社,北海道,帯広市,西十九条南３丁目９番１号,,01,207,0802469,,,,,,,2025-09-26,1,,,,,シーケーパートナーズ,0
1240,5700150132377,新規,0,2025-09-26,2025-09-26,Ｂｉｓｍｉ　Ｍｏｔｏｒｓ,,外国会社等,茨城県,ひたちなか市,平磯町３５２９番地３オフィス１,,08,221,3111203,スリランカ民主社会主義共和国、キャンディ、アクラナ、デルガステンナＮｏ．２１７／２,,,,,,2025-09-26,1,,,,,ビスミモータース,0
1247,6010001258606,新規,0,2025-09-26,2025-09-26,株式会社トリプルダブル,,株式会社,東京都,千代田区,神田須田町２丁目２３番１号,,13,101,1010041,,,,,,,2025-09-26,1,,,,,トリプルダブル,0
1249,6010003048831,新規,0,2025-09-26,2025-09-26,合同会社ＳＧファンド,,合同会社,東京都,文京区,後楽２丁目６番１号,,13,105,1120004,,,,,,,2025-09-26,1,,,,,エスジーファンド,0
1250,6010003048848,新規,0,2025-09-26,2025-09-26,合同会社モナ,,合同会社,東京都,中央区,勝どき４丁目６－２パークタワー勝どきミッド１６２３,,13,102,1040054,,,,,,,2025-09-26,1,,,,,モナ,0
1255,6010401193188,新規,0,2025-09-26,2025-09-26,株式会社ＭＥ　Ｗｉｌｌ,,株式会社,東京都,港区,虎ノ門１丁目１番２１号新虎ノ門実業会館５階５１４号室,,13,103,1050001,,,,,,,2025-09-26,1,,,,,ミーウィル,0
1256,6010401193345,新規,0,2025-09-26,2025-09-26,ビットコインジャパン株式会社,,株式会社,東京都,港区,六本木６丁目１０番１号,,13,103,1060032,,,,,,,2025-09-26,1,,,,,ビットコインジャパン,0
1257,6010401193353,新規,0,2025-09-26,2025-09-26,株式会社Ｊａｐａｎ　Ｐｒｏｐｅｒｔｙ,,株式会社,東京都,港区,芝４丁目５番９―８０６号,,13,103,1080014,,,,,,,2025-09-26,1,,,,,ジャパンプロパティー,0
1259,6010403036048,新規,0,2025-09-26,2025-09-26,ＴｅｎｇＹｕ　Ｃａｐｉｔａｌ合同会社,,合同会社,東京都,港区,西麻布３丁目１９番２２号,,13,103,1060031,,,,,,,2025-09-26,1,,,,,テンユキャピタル,0
1260,6010403036106,新規,0,2025-09-26,2025-09-26,合同会社ｄｄｄ,,合同会社,東京都,港区,南青山７丁目１０－１７キャビンアリーナ南青山１２０３,,13,103,1070062,,,,,,,2025-09-26,1,,,,,ディーディーディー,0
1263,6010503008005,新規,0,2025-09-26,2025-09-26,ＭＣ商事合同会社,,合同会社,東京都,台東区,浅草橋１丁目２５－７,,13,106,1110053,,,,,,,2025-09-26,1,,,,,エムシーショウジ,0
1268,6010901058139,新規,0,2025-09-26,2025-09-26,ＴＯＭＯＤＡＣＨＩ株式会社,,株式会社,東京都,世田谷区,下馬２丁目２１―２７―５０６室,,13,112,1540002,,,,,,,2025-09-26,1,,,,,トモダチ,0
1277,6011001172243,新規,0,2025-09-26,2025-09-26,株式会社ＴＯＭＯＮＩ,,株式会社,東京都,渋谷区,恵比寿南１丁目４番２号紀伊國屋ビル４階,,13,113,1500022,,,,,,,2025-09-26,1,,,,,トモニ,0
1280,6011301030919,新規,0,2025-09-26,2025-09-26,株式会社明光未来,,株式会社,東京都,杉並区,天沼１丁目３４番１号,,13,115,1670032,,,,,,,2025-09-26,1,,,,,メイコウミライ,0
1283,6011701028752,新規,0,2025-09-26,2025-09-26,明正国際株式会社,,株式会社,東京都,江戸川区,松島３丁目３６番８号松島ビル４０１室,,13,123,1320031,,,,,,,2025-09-26,1,,,,,メイセイコクサイ,0
1284,6011701028793,新規,0,2025-09-26,2025-09-26,ＫＨＡＮＴ　ＭＩＮ株式会社,,株式会社,東京都,江戸川区,東小岩６丁目３３番１８号ＺＫＹビル３０４号室,,13,123,1330052,,,,,,,2025-09-26,1,,,,,カンッミン,0
1290,6012701019097,新規,0,2025-09-26,2025-09-26,株式会社エフ・ジー・エル,,株式会社,東京都,西東京市,谷戸町３丁目１４番９号三友ハイツ第２、１０３,,13,229,1880001,,,,,,,2025-09-26,1,,,,,エフジーエル,0
1300,6020001164927,新規,0,2025-09-26,2025-09-26,株式会社京浜タイヤメンテナンス,,株式会社,神奈川県,川崎市高津区,千年３１３番地１,,14,134,2130022,,,,,,,2025-09-26,1,,,,,ケイヒンタイヤメンテナンス,0
1301,6020001164935,新規,0,2025-09-26,2025-09-26,株式会社ｆｒｅｅ,,株式会社,神奈川県,横浜市西区,北幸２丁目１０番４８号むつみビル３階,,14,103,2200004,,,,,,,2025-09-26,1,,,,,フリー,0
1302,6020001164984,新規,0,2025-09-26,2025-09-26,株式会社由貴建設,,株式会社,神奈川県,横浜市鶴見区,平安町１丁目３８番地１０,,14,101,2300031,,,,,,,2025-09-26,1,,,,,ユキケンセツ,0
1304,6020003029467,新規,0,2025-09-26,2025-09-26,合同会社静瀾旅行企画,,合同会社,神奈川県,横浜市中区,曙町１丁目３番地藤和伊勢佐木ハイタウン３２３号室,,14,104,2310057,,,,,,,2025-09-26,1,,,,,セイランリョコウキカク,0
1305,6021001086335,新規,0,2025-09-26,2025-09-26,株式会社エコノード,,株式会社,神奈川県,大和市,深見台４丁目７番１１号コーポ岸１０１号,,14,213,2420013,,,,,,,2025-09-26,1,,,,,エコノード,0
1315,6030001168695,新規,0,2025-09-26,2025-09-26,友愛商事株式会社,,株式会社,埼玉県,狭山市,祇園２－４狭山ニューシティビル４３２号室,,11,215,3501307,,,,,,,2025-09-26,1,,,,,ユウアイショウジ,0
1316,6030001168778,新規,0,2025-09-26,2025-09-26,株式会社ＪＡＹ,,株式会社,埼玉県,志木市,本町５丁目１９－９－２０１,,11,228,3530004,,,,,,,2025-09-26,1,,,,,ジェイ,0
1329,6040003028582,新規,0,2025-09-26,2025-09-26,楽享和品合同会社,,合同会社,千葉県,柏市,篠籠田７４４番地１７ＫＵＲＡＫＩＣＨＩ・２０６号室,,12,217,2770862,,,,,,,2025-09-26,1,,,,,ラクキョウワヒン,0
1330,6040005022880,新規,0,2025-09-26,2025-09-26,一般社団法人日本ペットヤギ協会,,その他の設立登記法人,千葉県,木更津市,下郡１８５７番地１,,12,206,2920205,,,,,,,2025-09-26,1,,,,,ニホンペットヤギキョウカイ,0
1335,6050005013706,新規,0,2025-09-26,2025-09-26,医療法人彌榮,,その他の設立登記法人,茨城県,下妻市,半谷４９１番地８４,,08,210,3040005,,,,,,,2025-09-26,1,,,,,イヤサカ,0
1339,6060001038607,新規,0,2025-09-26,2025-09-26,株式会社ｍｉｓｏｎｉ,,株式会社,栃木県,宇都宮市,東宿郷４丁目３番１７号ナイスシティアリーナ駅東公園５０３,,09,201,3210953,,,,,,,2025-09-26,1,,,,,ミソニ,0
1341,6060003005778,新規,0,2025-09-26,2025-09-26,ＡＬＩ　ＳＨＯＫＡＩ合同会社,,合同会社,栃木県,栃木市,箱森町１３番２７号,,09,203,3280075,,,,,,,2025-09-26,1,,,,,アリショウカイ,0
1343,6070001043374,新規,0,2025-09-26,2025-09-26,株式会社トラスト,,株式会社,群馬県,邑楽郡大泉町,朝日１丁目４番５号,,10,524,3700514,,,,,,,2025-09-26,1,,,,,トラスト,0
1359,6120001279954,新規,0,2025-09-26,2025-09-26,錦賢国際株式会社,,株式会社,大阪府,大阪市西成区,天下茶屋２丁目２０番１６号２０４号室,,27,122,5570014,,,,,,,2025-09-26,1,,,,,キンケンコクサイ,0
1360,6120001279987,新規,0,2025-09-26,2025-09-26,ＯＭＩ株式会社,,株式会社,大阪府,大阪市旭区,高殿６丁目８－２４シャルマンハイツＫ２０２号室,,27,117,5350031,,,,,,,2025-09-26,1,,,,,オーエムアイ,0
1361,6120001280037,新規,0,2025-09-26,2025-09-26,棠潮株式会社,,株式会社,大阪府,大阪市西成区,南津守６丁目３番７１－２０４号,,27,122,5570063,,,,,,,2025-09-26,1,,,,,トウチョウ,0
1362,6120001280061,新規,0,2025-09-26,2025-09-26,アントジャパン株式会社,,株式会社,大阪府,大阪市東住吉区,公園南矢田２丁目８番２９号,,27,121,5460024,,,,,,,2025-09-26,1,,,,,アントジャパン,0
1363,6120001280086,新規,0,2025-09-26,2025-09-26,長弓資訊株式会社,,株式会社,大阪府,大阪市港区,夕凪１丁目１６番２１号第４三先ハウス５０２号,,27,107,5520004,,,,,,,2025-09-26,1,,,,,チョウキュウジョウホウ,0
1364,6120001280111,新規,0,2025-09-26,2025-09-26,アールクラウド株式会社,,株式会社,大阪府,大阪市西成区,橘１丁目１１番２８号オフィスポート橘５０８号室,,27,122,5570051,,,,,,,2025-09-26,1,,,,,アールクラウド,0
1369,6120003030497,新規,0,2025-09-26,2025-09-26,合同会社Ｊ,,合同会社,大阪府,大阪市北区,梅田１丁目１－３大阪駅前第３ビル２３０７,,27,127,5300001,,,,,,,2025-09-26,1,,,,,ジェイ,0
1370,6120003030670,新規,0,2025-09-26,2025-09-26,ＪＯＳＨＵＡ　Ｇｌｏｂａｌ合同会社,,合同会社,大阪府,大阪市西成区,萩之茶屋２丁目６番４号ニューかめや１３３号室,,27,122,5570004,,,,,,,2025-09-26,1,,,,,ジョシュアグローバル,0
1373,6120101072499,新規,0,2025-09-26,2025-09-26,オクマ建装株式会社,,株式会社,大阪府,堺市南区,深阪南２１７番地２,,27,145,5900103,,,,,,,2025-09-26,1,,,,,オクマケンソウ,0
1374,6120103006728,新規,0,2025-09-26,2025-09-26,鹿吉合同会社,,合同会社,大阪府,堺市堺区,北瓦町１丁２番１５号ポピービル３０３号室,,27,141,5900076,,,,,,,2025-09-26,1,,,,,シカヨシ,0
1375,6120103006744,新規,0,2025-09-26,2025-09-26,ＡＫ１０ＴＲＡＤＩＮＧ合同会社,,合同会社,大阪府,富田林市,宮甲田町２番３５号堂柿文化２Ｆ手前,,27,214,5840037,,,,,,,2025-09-26,1,,,,,エーケーテントレーディング,0
1376,6120901051529,新規,0,2025-09-26,2025-09-26,シカル未来株式会社,,株式会社,大阪府,豊中市,豊南町西３丁目１３番１０号,,27,203,5610816,,,,,,,2025-09-26,1,,,,,シカルミライ,0
1377,6120901051553,新規,0,2025-09-26,2025-09-26,ライフアドバイザー株式会社,,株式会社,大阪府,豊中市,曽根南町３丁目２０番２５号２Ｆ,,27,203,5610804,,,,,,,2025-09-26,1,,,,,ライフアドバイザー,0
1378,6122003003318,新規,0,2025-09-26,2025-09-26,植村ナレッジパートナーズ合同会社,,合同会社,大阪府,大東市,北条５丁目８番５４号,,27,218,5740011,,,,,,,2025-09-26,1,,,,,ウエムラナレッジパートナーズ,0
1382,6130001080601,新規,0,2025-09-26,2025-09-26,ＺＯＲＲＯ株式会社,,株式会社,京都府,船井郡京丹波町,和田丸戸４５番地１,,26,407,6220311,,,,,,,2025-09-26,1,,,,,ゾロ,0
1383,6130001080618,新規,0,2025-09-26,2025-09-26,Ｅｖｅ株式会社,,株式会社,京都府,京都市伏見区,桃山町正宗４４－１６,,26,109,6120856,,,,,,,2025-09-26,1,,,,,エヴ,0
1384,6130003010804,新規,0,2025-09-26,2025-09-26,恒泰合同会社,,合同会社,京都府,京都市下京区,中堂寺北町３３番地４７－３０１号,,26,106,6008812,,,,,,,2025-09-26,1,,,,,コウタイ,0
1387,6140003022625,新規,0,2025-09-26,2025-09-26,合同会社ともの輪,,合同会社,兵庫県,神戸市西区,神出町紫合７４番地５,,28,111,6512334,,,,,,,2025-09-26,1,,,,,トモノワ,0
1389,6150003003707,新規,0,2025-09-26,2025-09-26,Ｆｉｖｅ　Ｇｒｅｅｎ　Ｓｅｅｄｓ合同会社,,合同会社,奈良県,生駒郡平群町,若葉台３丁目１８－１１,,29,342,6360938,,,,,,,2025-09-26,1,,,,,ファイブグリーンシード,0
1392,6160001027070,新規,0,2025-09-26,2025-09-26,ＰＲＯＰＴＩＡ株式会社,,株式会社,滋賀県,長浜市,八幡東町２０２番地１ＳＳ－ＡＲＫ９・４０６号室,,25,203,5260031,,,,,,,2025-09-26,1,,,,,プロプティア,0
1393,6170001018804,新規,0,2025-09-26,2025-09-26,株式会社結妃,,株式会社,和歌山県,岩出市,山４９８番地の８,,30,209,6496258,,,,,,,2025-09-26,1,,,,,ユウヒ,0
1398,6180001168755,新規,0,2025-09-26,2025-09-26,株式会社ＯＺＥＫＥＮ,,株式会社,愛知県,春日井市,坂下町７丁目７６０番地１２３８,,23,206,4800305,,,,,,,2025-09-26,1,,,,,オゼケン,0
1399,6180003029096,新規,0,2025-09-26,2025-09-26,合同会社インヴェストメント,,合同会社,愛知県,名古屋市中区,丸の内２丁目１１番５号,,23,106,4600002,,,,,,,2025-09-26,1,,,,,インヴェストメント,0
1402,6180301040242,新規,0,2025-09-26,2025-09-26,株式会社エフェクト,,株式会社,愛知県,豊橋市,西幸町字浜池３３３番地の９豊橋サイエンスコア２０３号室,,23,201,4418113,,,,,,,2025-09-26,1,,,,,エフェクト,0
1405,6180303006745,新規,0,2025-09-26,2025-09-26,合同会社ライズパートナーズ,,合同会社,愛知県,豊橋市,石巻町字馬場２００番地３,,23,201,4411112,,,,,,,2025-09-26,1,,,,,ライズパートナーズ,0
1407,6190001032547,新規,0,2025-09-26,2025-09-26,池原カンパニー株式会社,,株式会社,三重県,桑名市,星見ヶ丘６丁目９２１番地ヴィラ星見１０２号,,24,205,5110912,,,,,,,2025-09-26,1,,,,,イケハラカンパニー,0
1410,6200001044268,新規,0,2025-09-26,2025-09-26,株式会社カネ彦,,株式会社,岐阜県,土岐市,泉町定林寺２９４番地の２,,21,212,5095102,,,,,,,2025-09-26,1,,,,,カネヒコ,0
1412,6200003007058,新規,0,2025-09-26,2025-09-26,Ｓｕｌｔａｎトレーディング合同会社,,合同会社,岐阜県,大垣市,興福地町１丁目６６番地７,,21,202,5032203,,,,,,,2025-09-26,1,,,,,スルタントレーディング,0
1416,6230001021099,新規,0,2025-09-26,2025-09-26,ＮＩＡＺＩ　ＭＯＴＯＲ’Ｓ株式会社,,株式会社,富山県,射水市,堀岡古明神２５２番地１ＶＩＬＬＡ・ＨＩＬＡＬ２０３,,16,211,9330224,,,,,,,2025-09-26,1,,,,,ニヤズィモータース,0
1417,6240001065533,新規,0,2025-09-26,2025-09-26,株式会社リュクスクリエーションプラス,,株式会社,広島県,福山市,宝町３番２０－１１０２号,,34,207,7200045,,,,,,,2025-09-26,1,,,,,リュクスクリエーションプラス,0
1418,6240003007418,新規,0,2025-09-26,2025-09-26,合同会社ポリマ,,合同会社,広島県,広島市中区,大手町４丁目５番２－６０５号,,34,101,7300051,,,,,,,2025-09-26,1,,,,,ポリマ,0
1420,6260001040575,新規,0,2025-09-26,2025-09-26,株式会社サノシップ,,株式会社,岡山県,倉敷市,児島塩生２７６７番地２１,,33,202,7110934,,,,,,,2025-09-26,1,,,,,サノシップ,0
1421,6260003005287,新規,0,2025-09-26,2025-09-26,合同会社逓信サービス,,合同会社,岡山県,真庭市,西原２８９番地１,,33,214,7193105,,,,,,,2025-09-26,1,,,,,テイシンサービス,0
1432,6290801031878,新規,0,2025-09-26,2025-09-26,株式会社ＡＭ,,株式会社,福岡県,北九州市小倉北区,浅野２丁目１８番３‐９０９号,,40,106,8020001,,,,,,,2025-09-26,1,,,,,アム,0
1437,6310003005091,新規,0,2025-09-26,2025-09-26,合同会社世主,,合同会社,長崎県,対馬市,厳原町小浦１８番地２４,,42,209,8170001,,,,,,,2025-09-26,1,,,,,,0
1453,6360003015268,新規,0,2025-09-26,2025-09-26,合同会社弥栄,,合同会社,沖縄県,那覇市,久米２丁目３番１４号セゾン久米ビル１階,,47,201,9000033,,,,,,,2025-09-26,1,,,,,ヤサカ,0
1462,6430005015300,新規,0,2025-09-26,2025-09-26,一般社団法人ＴｙＮｉ,,その他の設立登記法人,北海道,浦河郡浦河町,字絵笛３６４番地の７,,01,607,0570036,,,,,,,2025-09-26,1,,,,,タイニー,0
1465,6470003002981,新規,0,2025-09-26,2025-09-26,合同会社ＣＲＥＳＴ,,合同会社,香川県,丸亀市,西平山町１２９番地２,,37,202,7630041,,,,,,,2025-09-26,1,,,,,クレスト,0
1467,6490001011165,新規,0,2025-09-26,2025-09-26,株式会社ＯＴＴホームズ,,株式会社,高知県,香美市,土佐山田町宝町１丁目１番１７号,,39,212,7820034,,,,,,,2025-09-26,1,,,,,オウティーティーホームズ,0
1469,6500001026533,新規,0,2025-09-26,2025-09-26,株式会社ＨＯＰ　ＨＯＬＩＣ　ＢＲＥＷＩＮＧ,,株式会社,愛媛県,松山市,立花２丁目６番３１号,,38,201,7900966,,,,,,,2025-09-26,1,,,,,ホップホリックブリューイング,0
1470,6700150132376,新規,0,2025-09-26,2025-09-26,ＡＵＴＯＮＯＶＡ　ＣＯＲＰＯＲＡＴＩＯＮ,,外国会社等,千葉県,八街市,八街ほ１１３番地４３ドミール桃園１０３,,12,230,2891115,スリランカ民主社会主義共和国、キャンディ、アラワトゥゴダ、マワトゥポラ、Ｎｏ．８０／Ｂ,,,,,,2025-09-26,1,,,,,オートノバコーポレーシヨン,0
1473,7010003048772,新規,0,2025-09-26,2025-09-26,合同会社Ｇｅｍｉｎｉ,,合同会社,東京都,千代田区,永田町２丁目１７番１０号９Ｆ,,13,101,1000014,,,,,,,2025-09-26,1,,,,,ジェミニ,0
1474,7010003048822,新規,0,2025-09-26,2025-09-26,ＪＪ　ＬＩＶＩＮＧ合同会社,,合同会社,東京都,中央区,銀座１丁目１２番４号Ｎ＆ＥＢＬＤ．６Ｆ,,13,102,1040061,,,,,,,2025-09-26,1,,,,,ジェイジェイリビング,0
1481,7010401193105,新規,0,2025-09-26,2025-09-26,株式会社焼肉尾崎,00140821,株式会社,東京都,港区,白金台３丁目１９番６号白金台ビル４階アイアルマーズ株式会社内,,13,103,1080071,,,,,,,2025-09-26,1,,,,,ヤキニクオザキ,0
1482,7010401193294,新規,0,2025-09-26,2025-09-26,ＳＴＹＬＥ　ＨＥＡＲＴＳ株式会社,,株式会社,東京都,港区,西麻布１丁目１１－６－８０５,,13,103,1060031,,,,,,,2025-09-26,1,,,,,スタイルハーツ,0
1483,7010401193328,新規,0,2025-09-26,2025-09-26,Ｒｏｙａｌ　ＷＩＮ株式会社,,株式会社,東京都,港区,高輪２丁目１６番４２号高輪マンション３１２,,13,103,1080074,,,,,,,2025-09-26,1,,,,,ロイヤルウィン,0
1484,7010401193344,新規,0,2025-09-26,2025-09-26,エスアイジャパン株式会社,,株式会社,東京都,港区,虎ノ門２丁目２番３号虎ノ門アルセアタワー３階ＷＡＷ虎ノ門,,13,103,1050001,,,,,,,2025-09-26,1,,,,,エスアイジャパン,0
1488,7010405024702,新規,0,2025-09-26,2025-09-26,一般社団法人青山まちづくり協議会,,その他の設立登記法人,東京都,港区,南青山５丁目１番１８号ボヌール青山４Ｂ,,13,103,1070062,,,,,,,2025-09-26,1,,,,,アオヤママチヅクリキョウギカイ,0
1489,7010503008004,新規,0,2025-09-26,2025-09-26,Ｍｉｒａｉ合同会社,,合同会社,東京都,台東区,柳橋１丁目２－１２－５Ｆ－ＡＢＳ－Ｄ－１号,,13,106,1110052,,,,,,,2025-09-26,1,,,,,ミライ,0
1490,7010601067843,新規,0,2025-09-26,2025-09-26,株式会社ヴィエスティジャパン,,株式会社,東京都,江東区,大島２丁目２６番１４号,,13,108,1360072,,,,,,,2025-09-26,1,,,,,ヴィエスティジャパン,0
1498,7011003022445,新規,0,2025-09-26,2025-09-26,ブルートラフィック合同会社,,合同会社,東京都,渋谷区,恵比寿西２丁目４番８号ウィンド恵比寿ビル８Ｆ,,13,113,1500021,,,,,,,2025-09-26,1,,,,,ブルートラフィック,0
1499,7011003022494,新規,0,2025-09-26,2025-09-26,合同会社ＭｉｓｃｈｉｅｆＷｏｒｋｓ,,合同会社,東京都,渋谷区,道玄坂１丁目１６番６号二葉ビル８ｂ,,13,113,1500043,,,,,,,2025-09-26,1,,,,,ミスチーフワークス,0
1509,7011405002409,新規,0,2025-09-26,2025-09-26,一般社団法人ころばぬさきのつえ,,その他の設立登記法人,東京都,板橋区,高島平２丁目３２番１―１０２号,,13,119,1750082,,,,,,,2025-09-26,1,,,,,コロバヌサキノツエ,0
1510,7011501032615,新規,0,2025-09-26,2025-09-26,津川株式会社,,株式会社,東京都,荒川区,西尾久６丁目２４番３－１１０号,,13,118,1160011,,,,,,,2025-09-26,1,,,,,シンガワ,0
1511,7011503006690,新規,0,2025-09-26,2025-09-26,易彬合同会社,,合同会社,東京都,北区,豊島２丁目１０番６号３０３室,,13,117,1140003,,,,,,,2025-09-26,1,,,,,,0
1512,7011603004842,新規,0,2025-09-26,2025-09-26,合同会社ＦＵＴＵＲＥ　ＢＲＩＧＨＴ,,合同会社,東京都,練馬区,北町１丁目１１－２３タイムメゾン４０２号室,,13,120,1790081,,,,,,,2025-09-26,1,,,,,フューチャーブライト,0
1514,7011701028792,新規,0,2025-09-26,2025-09-26,株式会社ＡＫ　ＧＬＯＢＡＬ,,株式会社,東京都,江戸川区,東小岩６丁目３３番１８号ＺＫＹビル４０３号室,,13,123,1330052,,,,,,,2025-09-26,1,,,,,エーケーグローバル,0
1526,7013301054970,新規,0,2025-09-26,2025-09-26,株式会社ＮＴＶ,,株式会社,東京都,豊島区,巣鴨１丁目３４－９たてかわビル５Ｆ,,13,116,1700002,,,,,,,2025-09-26,1,,,,,エヌティヴィ,0
1527,7013305003767,新規,0,2025-09-26,2025-09-26,一般財団法人ＳｅｃｏｎｄＢｉｒｔｈｄａｙ,,その他の設立登記法人,東京都,豊島区,東池袋４丁目２１番１号アウルタワーオフィス６Ｆ,,13,116,1700013,,,,,,,2025-09-26,1,,,,,セカンドバースデー,0
1536,7021001086318,新規,0,2025-09-26,2025-09-26,株式会社ＡＭＵＲＩＥ．ｊｐ,,株式会社,神奈川県,座間市,栗原中央５丁目４番４０号,,14,216,2520014,,,,,,,2025-09-26,1,,,,,アミュリィドットジェーピー,0
1537,7021001086350,新規,0,2025-09-26,2025-09-26,康正株式会社,,株式会社,神奈川県,秦野市,南矢名２２２３番地の４東海ビル１０１Ｂ,,14,211,2570003,,,,,,,2025-09-26,1,,,,,コウショウ,0
1538,7021003016578,新規,0,2025-09-26,2025-09-26,合同会社東栄,,合同会社,神奈川県,相模原市南区,相模大野７丁目３８－１２パーク相模大野７２０３,,14,153,2520303,,,,,,,2025-09-26,1,,,,,トウエイ,0
1540,7030001168769,新規,0,2025-09-26,2025-09-26,株式会社Ｓｈｉｎｍｅｉ　Ｇｒｏｕｐ,,株式会社,埼玉県,川口市,大字安行慈林８３２番地の１９川口ビジネスセンター２Ａ号,,11,203,3340071,,,,,,,2025-09-26,1,,,,,シンメイグループ,0
1541,7030001168851,新規,0,2025-09-26,2025-09-26,ライセン・グローバル株式会社,,株式会社,埼玉県,坂戸市,泉町７－４,,11,239,3500231,,,,,,,2025-09-26,1,,,,,ライセングローバル,0
1545,7040001140504,新規,0,2025-09-26,2025-09-26,Ｃｅ．Ｈ株式会社,,株式会社,千葉県,浦安市,東野２丁目２９－１１－２,,12,227,2790042,,,,,,,2025-09-26,1,,,,,シーイーエイチ,0
1546,7040001140594,新規,0,2025-09-26,2025-09-26,株式会社ＣＲＯＳＳ　ＭＯＡＴ,,株式会社,千葉県,市川市,福栄２丁目１６番３号,,12,203,2720137,,,,,,,2025-09-26,1,,,,,クロスモウト,0
1547,7040001140628,新規,0,2025-09-26,2025-09-26,ＯＶＥＲＴＨＲＯＷ株式会社,,株式会社,千葉県,松戸市,根本４４７番地の１,,12,207,2710077,,,,,,,2025-09-26,1,,,,,オーバースロウ,0
1548,7040001140636,新規,0,2025-09-26,2025-09-26,株式会社ｃａｂａｃｏ,,株式会社,千葉県,船橋市,藤原７丁目２番２号ラズ船橋１Ｆ,,12,204,2730047,,,,,,,2025-09-26,1,,,,,カバコ,0
1551,7040003028581,新規,0,2025-09-26,2025-09-26,合同会社ＳＩＭＳＩＭ農園,,合同会社,千葉県,安房郡鋸南町,大帷子１０２７番地１,,12,463,2991903,,,,,,,2025-09-26,1,,,,,シムシムノウエン,0
1558,7060001038606,新規,0,2025-09-26,2025-09-26,株式会社Ｋ’ｃｒａｆｔ,,株式会社,栃木県,宇都宮市,田野町６２４番地２９,,09,201,3210344,,,,,,,2025-09-26,1,,,,,ケークラフト,0
1559,7060003005769,新規,0,2025-09-26,2025-09-26,合同会社阿尾ＩＴ事務所,,合同会社,栃木県,小山市,神鳥谷６丁目６番３２号,,09,208,3230034,,,,,,,2025-09-26,1,,,,,アオアイティージムショ,0
1561,7070001043373,新規,0,2025-09-26,2025-09-26,Ｍｕｓｈｔａｑ　Ｍｏｔｏｒ株式会社,,株式会社,群馬県,太田市,新田上中町４５９番地２３,,10,205,3700353,,,,,,,2025-09-26,1,,,,,ムシュタクモーター,0
1567,7090001019520,新規,0,2025-09-26,2025-09-26,小林株式会社,,株式会社,山梨県,甲府市,西田町４－１６,,19,201,4000004,,,,,,,2025-09-26,1,,,,,コバヤシ,0
1583,7120001279870,新規,0,2025-09-26,2025-09-26,株式会社寧和,,株式会社,大阪府,大阪市西成区,玉出西２丁目８－９－４０２号室,,27,122,5570045,,,,,,,2025-09-26,1,,,,,ネイワ,0
1584,7120001279953,新規,0,2025-09-26,2025-09-26,磐石株式会社,,株式会社,大阪府,大阪市西区,本田３丁目１番１９－４０３号,,27,106,5500022,,,,,,,2025-09-26,1,,,,,バンジャク,0
1585,7120001279986,新規,0,2025-09-26,2025-09-26,浅黛春山株式会社,,株式会社,大阪府,大阪市北区,梅田１丁目２番２号大阪駅前第２ビル１２－１２,,27,127,5300001,,,,,,,2025-09-26,1,,,,,センタイシュンザン,0
1586,7120001280003,新規,0,2025-09-26,2025-09-26,源祥株式会社,,株式会社,大阪府,大阪市阿倍野区,昭和町１丁目５番３号クリスタル昭和２０１号,,27,119,5450011,,,,,,,2025-09-26,1,,,,,ゲンショウ,0
1587,7120001280036,新規,0,2025-09-26,2025-09-26,七星株式会社,,株式会社,大阪府,大阪市西成区,南津守６丁目３番７１－１０２号,,27,122,5570063,,,,,,,2025-09-26,1,,,,,シチセイ,0
1588,7120001280085,新規,0,2025-09-26,2025-09-26,綺麗東方株式会社,,株式会社,大阪府,大阪市阿倍野区,天王寺町南２丁目２２番３号ＮＡＧＡＩメゾン天王寺南４０３,,27,119,5450002,,,,,,,2025-09-26,1,,,,,キレイトウホウ,0
1589,7120001280110,新規,0,2025-09-26,2025-09-26,不二商事株式会社,,株式会社,大阪府,大阪市中央区,高津２丁目４番２１号おおきに道頓堀ビル７０５号室,,27,128,5420072,,,,,,,2025-09-26,1,,,,,フジショウジ,0
1590,7120001280333,新規,0,2025-09-26,2025-09-26,株式会社和光エステート,,株式会社,大阪府,大阪市天王寺区,南河堀町２番９－１１０５号,,27,109,5430054,,,,,,,2025-09-26,1,,,,,ワコウエステート,0
1592,7120003030653,新規,0,2025-09-26,2025-09-26,合同会社うさぎ,,合同会社,大阪府,大阪市生野区,田島５丁目１３－１０－３０４号,,27,116,5440011,,,,,,,2025-09-26,1,,,,,ウサギ,0
1593,7120003030711,新規,0,2025-09-26,2025-09-26,合同会社３Ｒｉｓｅ,,合同会社,大阪府,大阪市旭区,今市１丁目１番１５号,,27,117,5350011,,,,,,,2025-09-26,1,,,,,サンライズ,0
1594,7120003030802,新規,0,2025-09-26,2025-09-26,ムーゲンゲーム合同会社,,合同会社,大阪府,大阪市浪速区,日本橋５丁目１２番３号恵美須町ビル６階,,27,111,5560005,,,,,,,2025-09-26,1,,,,,ムーゲンゲーム,0
1601,7120103006735,新規,0,2025-09-26,2025-09-26,駿風社合同会社,,合同会社,大阪府,松原市,天美南３丁目１０番２５号ＵＩＩＴＩＶ番館２０３号室,00140808,27,217,5800033,,,,,,,2025-09-26,1,,,,,シュンプウシャ,0
1602,7120103006743,新規,0,2025-09-26,2025-09-26,Ｍ・Ｈ総合サービス合同会社,,合同会社,大阪府,羽曳野市,郡戸３３４－９２,,27,222,5830874,,,,,,,2025-09-26,1,,,,,エムエイチソウゴウサービス,0
1605,7120901051503,新規,0,2025-09-26,2025-09-26,株式会社ＺＥＲＯ　Ｆｉｅｌｄ,,株式会社,大阪府,吹田市,山田西２丁目９番Ａ２－１０８号,,27,205,5650824,,,,,,,2025-09-26,1,,,,,ゼロフィールド,0
1606,7120901051552,新規,0,2025-09-26,2025-09-26,キャリアパートナー株式会社,,株式会社,大阪府,豊中市,曽根南町３丁目２０番２５号２Ｆ,,27,203,5610804,,,,,,,2025-09-26,1,,,,,キャリアパートナー,0
1616,7140001140155,新規,0,2025-09-26,2025-09-26,株式会社ＳＲｗｉｌｌ,,株式会社,兵庫県,神戸市長田区,野田町４丁目２番５号,,28,106,6530051,,,,,,,2025-09-26,1,,,,,エスアールウィル,0
1624,7170001018794,新規,0,2025-09-26,2025-09-26,株式会社メディアグ,,株式会社,和歌山県,和歌山市,元寺町４丁目５・３０３号室,,30,201,6408024,,,,,,,2025-09-26,1,,,,,メディアグ,0
1625,7170001018803,新規,0,2025-09-26,2025-09-26,株式会社ケーエヌエー,,株式会社,和歌山県,紀の川市,名手市場４１６番地,,30,208,6496631,,,,,,,2025-09-26,1,,,,,ケーエヌエー,0
1637,7180303006744,新規,0,2025-09-26,2025-09-26,合同会社ＩＧＮＩＳ,,合同会社,愛知県,みよし市,園原１丁目１６－６,,23,236,4700227,,,,,,,2025-09-26,1,,,,,イグニス,0
1646,7230001021098,新規,0,2025-09-26,2025-09-26,ＨＡＳＨＩＭ　ＣＯＲＰＯＲＡＴＩＯＮ株式会社,,株式会社,富山県,射水市,中央町２０番８号,,16,211,9340012,,,,,,,2025-09-26,1,,,,,ハシムコーポレーション,0
1650,7240001065549,新規,0,2025-09-26,2025-09-26,株式会社小田空調設備,,株式会社,広島県,広島市安佐南区,山本新町４丁目２０－２４,,34,105,7310139,,,,,,,2025-09-26,1,,,,,オダクウチョウセツビ,0
1666,7290001111488,新規,0,2025-09-26,2025-09-26,株式会社ｃａｎｖａｓ,,株式会社,福岡県,糸島市,前原西１丁目８番２７号,,40,230,8191117,,,,,,,2025-09-26,1,,,,,キャンバス,0
1671,7330001033604,新規,0,2025-09-26,2025-09-26,株式会社ＳＣＵＤＥＲＩＡ,,株式会社,熊本県,熊本市南区,田迎３丁目１２－５－２Ｆ,,43,104,8620962,,,,,,,2025-09-26,1,,,,,スクーデリア,0
1672,7330001033620,新規,0,2025-09-26,2025-09-26,株式会社ＥＲＭＫ,,株式会社,熊本県,熊本市中央区,花畑町１３－３ジャスマック熊本館４０８,,43,101,8600806,,,,,,,2025-09-26,1,,,,,エリマキ,0
1691,7410003004157,新規,0,2025-09-26,2025-09-26,合同会社エコリナ,,合同会社,秋田県,男鹿市,船川港台島字野竹８番地３０,,05,206,0100531,,,,,,,2025-09-26,1,,,,,エコリナ,0
1695,7430003018139,新規,0,2025-09-26,2025-09-26,合同会社トータルサポートラボ,,合同会社,北海道,札幌市西区,発寒十五条１丁目６番７５号,,01,107,0630835,,,,,,,2025-09-26,1,,,,,トータルサポートラボ,0
1696,7480001012956,新規,0,2025-09-26,2025-09-26,株式会社ＮＩＰＰＯＮ　ＧＲＯＵＰ,,株式会社,徳島県,阿波市,阿波町平川原北５９番地３,,36,206,7711701,,,,,,,2025-09-26,1,,,,,ニッポングループ,0
1703,8010001258678,新規,0,2025-09-26,2025-09-26,株式会社ＰＥＧＡＳＵＳ,,株式会社,東京都,千代田区,外神田３丁目６番４号第一勧業信用組合秋葉原ビル５階,,13,101,1010021,,,,,,,2025-09-26,1,,,,,ペガサス,0
1704,8010101016878,新規,0,2025-09-26,2025-09-26,株式会社ブレイキンファクトリー,,株式会社,東京都,八王子市,本町２４番８号ＫＲＡＦＴＢＬＤＩＩＩ１Ｆ,00140812,13,201,1920066,,,,,,,2025-09-26,1,,,,,ブレイキンファクトリー,0
1707,8010401193070,新規,0,2025-09-26,2025-09-26,デコボコワークス株式会社,,株式会社,東京都,港区,芝浦４丁目１２－３１ＶＯＲＴ芝浦ＷａｔｅｒＦｒｏｎｔ６Ｆ,,13,103,1080023,,,,,,,2025-09-26,1,,,,,デコボコワークス,0
1708,8010401193376,新規,0,2025-09-26,2025-09-26,株式会社ＶｉｓｉｏｎＣａｒａｔ,,株式会社,東京都,港区,北青山１丁目３―３三橋ビル３階,,13,103,1070061,,,,,,,2025-09-26,1,,,,,ビジョンキャラット,0
1716,8010405024817,新規,0,2025-09-26,2025-09-26,ジェイエルワン一般社団法人,,その他の設立登記法人,東京都,港区,元赤坂１丁目１番７－１２０９号株式会社赤坂国際会計内,,13,103,1070051,,,,,,,2025-09-26,1,,,,,ジェイエルワン,0
1717,8010501054775,新規,0,2025-09-26,2025-09-26,浄念寺管財株式会社,,株式会社,東京都,台東区,上野６丁目１６－１７早津ビル４階,,13,106,1100005,,,,,,,2025-09-26,1,,,,,ジョウネンジカンザイ,0
1719,8010503008003,新規,0,2025-09-26,2025-09-26,合同会社日暮里プロジェクト,,合同会社,東京都,台東区,東上野６丁目１８番１９号,,13,106,1100015,,,,,,,2025-09-26,1,,,,,ニッポリプロジェクト,0
1722,8010703007928,新規,0,2025-09-26,2025-09-26,ハヤブササカイ合同会社,,合同会社,東京都,品川区,上大崎３丁目１番１号目黒セントラルスクエア１５階,,13,109,1410021,,,,,,,2025-09-26,1,,,,,ハヤブササカイ,0
1724,8010901058145,新規,0,2025-09-26,2025-09-26,株式会社ケーエムカンパニー,,株式会社,東京都,世田谷区,用賀２丁目１番２２号ヴィラ用賀１Ｂ,,13,112,1580097,,,,,,,2025-09-26,1,,,,,ケーエムカンパニー,0
1726,8010903010277,新規,0,2025-09-26,2025-09-26,合同会社アフダル,,合同会社,東京都,世田谷区,松原５丁目３５－５,,13,112,1560043,,,,,,,2025-09-26,1,,,,,アフダル,0
1729,8011003022452,新規,0,2025-09-26,2025-09-26,Ｂｌｕｅ　Ｈｏｒｉｚｏｎ　Ａｃａｄｅｍｙ合同会社,,合同会社,東京都,渋谷区,渋谷２丁目１９番１９号ワコー宮益坂ビル５階,,13,113,1500002,,,,,,,2025-09-26,1,,,,,ブルーホライゾンアカデミー,0
1738,8011403004851,新規,0,2025-09-26,2025-09-26,ＬＵＮＯＶＩＡ合同会社,,合同会社,東京都,板橋区,小豆沢１丁目４番１号,,13,119,1740051,,,,,,,2025-09-26,1,,,,,ルノヴィア,0
1741,8011603004858,新規,0,2025-09-26,2025-09-26,合同会社エス企画,,合同会社,東京都,練馬区,光が丘３丁目９番１－２３１０号,,13,120,1790072,,,,,,,2025-09-26,1,,,,,エスキカク,0
1744,8011701028800,新規,0,2025-09-26,2025-09-26,株式会社ＨＥＲＯＥＳ　ＲＥＶＩＶＡＬ,,株式会社,東京都,江戸川区,西葛西３丁目２２小島町二丁目団地６号棟１０４号室,,13,123,1340088,,,,,,,2025-09-26,1,,,,,ヒーローズリバイバル,0
1751,8012801024268,新規,0,2025-09-26,2025-09-26,株式会社富貴和,,株式会社,東京都,日野市,高幡５２８番地１レヂオンス高幡不動３０６,,13,212,1910031,,,,,,,2025-09-26,1,,,,,フキワ,0
1763,8020003029449,新規,0,2025-09-26,2025-09-26,合同会社Ｙｕｍｉｋｏ,,合同会社,神奈川県,横浜市金沢区,釜利谷東２丁目１５番１３号,,14,108,2360042,,,,,,,2025-09-26,1,,,,,ユミコ,0
1765,8021001086366,新規,0,2025-09-26,2025-09-26,株式会社トロワ,,株式会社,神奈川県,大和市,西鶴間２丁目１５番６号,,14,213,2420005,,,,,,,2025-09-26,1,,,,,トロワ,0
1770,8030001168751,新規,0,2025-09-26,2025-09-26,株式会社良建,,株式会社,埼玉県,熊谷市,筑波２丁目２０番地木村ビル,,11,202,3600037,,,,,,,2025-09-26,1,,,,,リョウケン,0
1771,8030001168784,新規,0,2025-09-26,2025-09-26,ＭＡＲＵ　ＬＵＬＵ株式会社,,株式会社,埼玉県,蕨市,北町２丁目８番５号Ｈｙｕ－ｇａグランドビル蕨ＩＩ号,00140811,11,223,3350001,,,,,,,2025-09-26,1,,,,,マルルル,0
1777,8040001140684,新規,0,2025-09-26,2025-09-26,ＵＳエナジー株式会社,,株式会社,千葉県,千葉市中央区,中央３丁目８番８号,,12,101,2600013,,,,,,,2025-09-26,1,,,,,ユーエスエナジー,0
1779,8040003028449,新規,0,2025-09-26,2025-09-26,合同会社ＫＩＺＵＮＡ　ＪＡＰＡＮ,,合同会社,千葉県,柏市,西柏台１丁目３番１３号,,12,217,2770886,,,,,,,2025-09-26,1,,,,,キズナジャパン,0
1780,8040003028572,新規,0,2025-09-26,2025-09-26,合同会社アンアン,,合同会社,千葉県,柏市,旭町８丁目４番１０－３号,,12,217,2770852,,,,,,,2025-09-26,1,,,,,アンアン,0
1781,8040003028589,新規,0,2025-09-26,2025-09-26,合同会社Ｃｈｌｏｅ,,合同会社,千葉県,市川市,須和田２丁目２９番１２号,,12,203,2720825,,,,,,,2025-09-26,1,,,,,クロエ,0
1782,8040003028614,新規,0,2025-09-26,2025-09-26,万物生日本合同会社,,合同会社,千葉県,我孫子市,布佐酉町６７番２－２０２号,,12,222,2701103,,,,,,,2025-09-26,1,,,,,マンブツセイニッポン,0
1783,8040005022895,新規,0,2025-09-26,2025-09-26,医療法人社団サニー会,,その他の設立登記法人,千葉県,千葉市花見川区,幕張町４丁目５４３番地２タクトテラス１階,,12,102,2620032,,,,,,,2025-09-26,1,,,,,サニーカイ,0
1789,8060001038605,新規,0,2025-09-26,2025-09-26,株式会社真防水,,株式会社,栃木県,宇都宮市,若草３丁目１８番１５号ヴィラアレストＣ－２０３,,09,201,3200072,,,,,,,2025-09-26,1,,,,,シンボウスイ,0
1790,8060003005768,新規,0,2025-09-26,2025-09-26,富士貿易合同会社,,合同会社,栃木県,小山市,東城南１丁目３２番地８サニープレイス３０３,,09,208,3230829,,,,,,,2025-09-26,1,,,,,フジボウエキ,0
1799,8100001038988,新規,0,2025-09-26,2025-09-26,株式会社ＣＯＮＶＩＶＩＡＬ,,株式会社,長野県,安曇野市,穂高北穂高２２６４番地４３,,20,220,3998302,,,,,,,2025-09-26,1,,,,,コンヴィヴィアル,0
1810,8120001279886,新規,0,2025-09-26,2025-09-26,博大建業株式会社,,株式会社,大阪府,大阪市旭区,生江３丁目４番２２号Ｃｏｌｌｅｃｔｉｏｎ城北Ｉ１階１Ｄ号室,00140816,27,117,5350004,,,,,,,2025-09-26,1,,,,,ハクダイケンギョウ,0
1811,8120001280035,新規,0,2025-09-26,2025-09-26,ＮＯＲＩＭＣ株式会社,,株式会社,大阪府,大阪市中央区,本町３丁目３－９－９Ｆ,,27,128,5410053,,,,,,,2025-09-26,1,,,,,ノリエムシー,0
1812,8120001280043,新規,0,2025-09-26,2025-09-26,ＬＣ株式会社,,株式会社,大阪府,大阪市東住吉区,照ケ丘矢田４丁目７番１５号,,27,121,5460021,,,,,,,2025-09-26,1,,,,,エルシー,0
1813,8120001280084,新規,0,2025-09-26,2025-09-26,臻銘株式会社,,株式会社,大阪府,大阪市西成区,聖天下１丁目４番２９号３０５号室,,27,122,5570012,,,,,,,2025-09-26,1,,,,,シンメイ,0
1814,8120001280142,新規,0,2025-09-26,2025-09-26,アイコニックエアイテック株式会社,,株式会社,大阪府,大阪市港区,港晴１丁目１番２７号,,27,107,5520023,,,,,,,2025-09-26,1,,,,,アイコニックエアイテック,0
1815,8120001280191,新規,0,2025-09-26,2025-09-26,株式会社大豊堂,,株式会社,大阪府,大阪市天王寺区,逢阪２丁目３－２３クローバーハイツ四天王寺８０５号室,00140822,27,109,5430062,,,,,,,2025-09-26,1,,,,,ダイホウドウ,0
1816,8120001280200,新規,0,2025-09-26,2025-09-26,Ｓｏｌｍａｒｅ株式会社,,株式会社,大阪府,大阪市中央区,瓦町４丁目３番１４号御堂アーバンライフ４１５号室,,27,128,5410048,,,,,,,2025-09-26,1,,,,,ソルマーレ,0
1819,8120003030652,新規,0,2025-09-26,2025-09-26,潤田合同会社,,合同会社,大阪府,大阪市西成区,萩之茶屋２丁目６番４号ニューかめや２５６号室,,27,122,5570004,,,,,,,2025-09-26,1,,,,,ジュンダ,0
1820,8120003030776,新規,0,2025-09-26,2025-09-26,ＳＴＵＮＴＥＤ　ＧＲＯＷＴＨ合同会社,,合同会社,大阪府,大阪市北区,長柄東１丁目４番２４－６０６号,,27,127,5310063,,,,,,,2025-09-26,1,,,,,スタンテッドグロース,0
1831,8120103006734,新規,0,2025-09-26,2025-09-26,ＲＩＮＡ　ＧＲＯＵＰ合同会社,,合同会社,大阪府,貝塚市,近木町７－２－１Ｆ,,27,208,5970001,,,,,,,2025-09-26,1,,,,,リナグループ,0
1832,8120103006742,新規,0,2025-09-26,2025-09-26,合同会社清心会,,合同会社,大阪府,和泉市,室堂町５番地の１（７－１１３）,,27,219,5941101,,,,,,,2025-09-26,1,,,,,セイシンカイ,0
1833,8120105010065,新規,0,2025-09-26,2025-09-26,一般社団法人岸和田市観光振興協会,,その他の設立登記法人,大阪府,岸和田市,本町１１番２３号,,27,202,5960074,,,,,,,2025-09-26,1,,,,,キシワダシカンコウシンコウキョウカイ,0
1835,8122001039650,新規,0,2025-09-26,2025-09-26,株式会社ストームジェット,,株式会社,大阪府,大東市,明美の里町２１番１８号３階３０３号室,,27,218,5740003,,,,,,,2025-09-26,1,,,,,ストームジェット,0
1840,8130001080590,新規,0,2025-09-26,2025-09-26,株式会社ｔｏｐｋｎｏｔ,,株式会社,京都府,京都市中京区,下御霊前町６３３青山ビル４Ｆ,,26,104,6040995,,,,,,,2025-09-26,1,,,,,トップノット,0
1841,8130001080632,新規,0,2025-09-26,2025-09-26,株式会社ｒａｓｉｋｕ,,株式会社,京都府,京都市中京区,三条通猪熊西入御供町３０７番地みやび小路１０２,,26,104,6048331,,,,,,,2025-09-26,1,,,,,ラシク,0
1844,8140003022623,新規,0,2025-09-26,2025-09-26,合同会社オーフィールド,,合同会社,兵庫県,宝塚市,武庫山２丁目４番３３－７０５号,,28,214,6650005,,,,,,,2025-09-26,1,,,,,オーフィールド,0
1851,8190001032553,新規,0,2025-09-26,2025-09-26,Ｍｏｒｖｏ　Ｊａｐａｎ株式会社,,株式会社,三重県,三重郡川越町,大字豊田７３番地１アネックス富洲原３０１号,,24,344,5108122,,,,,,,2025-09-26,1,,,,,モロボジャパン,0
1856,8200001044266,新規,0,2025-09-26,2025-09-26,株式会社ミハマモータース,,株式会社,岐阜県,羽島市,足近町市場字須賀北７７９番地１,,21,209,5016202,,,,,,,2025-09-26,1,,,,,ミハマモータース,0
1857,8200003007064,新規,0,2025-09-26,2025-09-26,合同会社ＣＨＡＮ　ＴＲＡＤＩＮＧ,,合同会社,岐阜県,岐阜市,黒野南４丁目１０５番地１カーサ・ミーア２０３号室,,21,201,5011136,,,,,,,2025-09-26,1,,,,,チャントレーディング,0
1866,8270003001795,新規,0,2025-09-26,2025-09-26,合同会社ゼロスタネクスト,,合同会社,鳥取県,倉吉市,山根５８６番地の２,,31,203,6820023,,,,,,,2025-09-26,1,,,,,ゼロスタネクスト,0
1872,8290003017518,新規,0,2025-09-26,2025-09-26,合同会社成蹊建機,,合同会社,福岡県,福岡市西区,北原１丁目９番２０－２０７号,,40,135,8190379,,,,,,,2025-09-26,1,,,,,セイケイケンキ,0
1873,8290801031868,新規,0,2025-09-26,2025-09-26,株式会社スプラウトワーク,,株式会社,福岡県,北九州市小倉南区,横代北町３丁目２－２２Ａ１０２,,40,107,8020821,,,,,,,2025-09-26,1,,,,,スプラウトワーク,0
1888,8360003015282,新規,0,2025-09-26,2025-09-26,合同会社さともく,,合同会社,沖縄県,宜野湾市,喜友名２丁目２１－７,,47,205,9012222,,,,,,,2025-09-26,1,,,,,サトモク,0
1891,8380001035594,新規,0,2025-09-26,2025-09-26,株式会社ＦＲＯＮＴ　ＬＩＮＥ,,株式会社,福島県,喜多方市,慶徳町新宮字新宮２３２４番地,,07,208,9660923,,,,,,,2025-09-26,1,,,,,フロントライン,0
1894,8410001014280,新規,0,2025-09-26,2025-09-26,株式会社ＡＵＴＯＳ,,株式会社,秋田県,秋田市,添川字境内川原１４７番地２７,,05,201,0100822,,,,,,,2025-09-26,1,,,,,オータス,0
1903,8440003001712,新規,0,2025-09-26,2025-09-26,合同会社ａｎｄ　ａｎ,,合同会社,北海道,函館市,宝来町９番９号,,01,202,0400043,,,,,,,2025-09-26,1,,,,,アンドアン,0
1904,8450003002718,新規,0,2025-09-26,2025-09-26,合同会社ＡＵＴＯ　ＮＥＸＵＳ,,合同会社,北海道,上川郡剣淵町,東町１３５６番地Ｂ,,01,465,0980341,,,,,,,2025-09-26,1,,,,,オートネクサス,0
1908,8500001026531,新規,0,2025-09-26,2025-09-26,Ｒｅ．１でんち株式会社,,株式会社,愛媛県,松山市,萱町６丁目２０番地８,,38,201,7900813,,,,,,,2025-09-26,1,,,,,アールイーワンデンチ,0
1919,9010001258594,新規,0,2025-09-26,2025-09-26,Ｋａｉｒｏｓ株式会社,,株式会社,東京都,文京区,湯島３丁目４２番４号４Ｆ,,13,105,1130034,,,,,,,2025-09-26,1,,,,,カイロス,0
1920,9010001258743,新規,0,2025-09-26,2025-09-26,万笙株式会社,,株式会社,東京都,文京区,千石４丁目２６番２号ＳＡＮＳＡＮ千石第一ビル５０３号室,,13,105,1120011,,,,,,,2025-09-26,1,,,,,マンショウ,0
1925,9010401193094,新規,0,2025-09-26,2025-09-26,株式会社ＵＮＲＯＵＴＥ,,株式会社,東京都,港区,南青山３丁目１－３６青山丸竹ビル６Ｆ,,13,103,1070062,,,,,,,2025-09-26,1,,,,,アンルート,0
1926,9010401193301,新規,0,2025-09-26,2025-09-26,ＦｏｕｎｄｅｒｓＮａｔｉｏｎ株式会社,,株式会社,東京都,港区,赤坂２丁目１３番３－１００４号,,13,103,1070052,,,,,,,2025-09-26,1,,,,,ファウンダーズネーション,0
1927,9010401193318,新規,0,2025-09-26,2025-09-26,衍衡株式会社,,株式会社,東京都,港区,南青山７丁目１番２７号南青山テラス常盤松フォレスト７０４号室,,13,103,1070062,,,,,,,2025-09-26,1,,,,,エンコウ,0
1928,9010401193342,新規,0,2025-09-26,2025-09-26,株式会社ＵＭＡＮＩＸ,,株式会社,東京都,港区,新橋５丁目３１番８号ル・グラシエルＢＬＤＧ．３２－７０３,,13,103,1050004,,,,,,,2025-09-26,1,,,,,ウマニクス,0
1931,9010403036037,新規,0,2025-09-26,2025-09-26,合同会社ユニットグロウ,,合同会社,東京都,港区,六本木７丁目１９番地１六本木コーヨーハイツ４０１,,13,103,1060032,,,,,,,2025-09-26,1,,,,,ユニットグロウ,0
1932,9010403036103,新規,0,2025-09-26,2025-09-26,合同会社ジーイレブン・ジャパン,,合同会社,東京都,港区,虎ノ門３丁目２２番１０－２０１号,,13,103,1050001,,,,,,,2025-09-26,1,,,,,ジーイレブンジャパン,0
1936,9010501054741,新規,0,2025-09-26,2025-09-26,株式会社ギアス,,株式会社,東京都,台東区,台東１丁目２９番３号イースタンクロスアキバ８０１号室,,13,106,1100016,,,,,,,2025-09-26,1,,,,,ギアス,0
1937,9010601067998,新規,0,2025-09-26,2025-09-26,港岳発展株式会社,,株式会社,東京都,墨田区,江東橋４丁目１６番１０号１０２号室,,13,107,1300022,,,,,,,2025-09-26,1,,,,,コウタケハッテン,0
1942,9010703007927,新規,0,2025-09-26,2025-09-26,カイアセッツ合同会社,,合同会社,東京都,品川区,東五反田４丁目１０番２２号パークアクシス池田山１１０９,,13,109,1410022,,,,,,,2025-09-26,1,,,,,カイアセッツ,0
1943,9010901058061,新規,0,2025-09-26,2025-09-26,Ｂｏｕｒｄａｎｃｅ株式会社,,株式会社,東京都,世田谷区,砧２丁目１６番１ガーデニール砧ウェスト３１３号,,13,112,1570073,,,,,,,2025-09-26,1,,,,,ブルダンス,0
1950,9011001172488,新規,0,2025-09-26,2025-09-26,株式会社ＥＶＥ,,株式会社,東京都,渋谷区,代々木２丁目２３番１号ニューステイトメナー３３４号,,13,113,1510053,,,,,,,2025-09-26,1,,,,,イーブイイー,0
1951,9011005011171,新規,0,2025-09-26,2025-09-26,一般財団法人ＨＵＧ,,その他の設立登記法人,東京都,渋谷区,恵比寿西２丁目８番４号ＥＸ恵比寿西ビル５階,,13,113,1500021,,,,,,,2025-09-26,1,,,,,ハグ,0
1954,9011201026667,新規,0,2025-09-26,2025-09-26,株式会社ＭＡＲＣＨ,,株式会社,東京都,中野区,南台４丁目５２番１０号,,13,114,1640014,,,,,,,2025-09-26,1,,,,,マーチ,0
1956,9011403004875,新規,0,2025-09-26,2025-09-26,ＹＩＫＯＭ合同会社,,合同会社,東京都,板橋区,成増２丁目１７番２０号,,13,119,1750094,,,,,,,2025-09-26,1,,,,,ワイコム,0
1966,9011701028758,新規,0,2025-09-26,2025-09-26,株式会社ブライトＭＫ,,株式会社,東京都,江戸川区,中葛西１丁目１１番２号三和ビル２０４,,13,123,1340083,,,,,,,2025-09-26,1,,,,,ブライトエムケイ,0
1968,9011801046775,新規,0,2025-09-26,2025-09-26,ＸＸ暄株式会社,,株式会社,東京都,足立区,千住橋戸町６２－２天宏ビル３０２号室,,13,121,1200038,,,,,,,2025-09-26,1,,,,,エックスエックスケン,0
1969,9011801046791,新規,0,2025-09-26,2025-09-26,優盛株式会社,,株式会社,東京都,足立区,西新井２丁目４番６号ＡｎｄＰｌｕｓ西新井ビル２０８号,,13,121,1230841,,,,,,,2025-09-26,1,,,,,ユウセイ,0
1975,9012701019094,新規,0,2025-09-26,2025-09-26,俊峰株式会社,,株式会社,東京都,東村山市,美住町１丁目１－５４ホワイトレヂオンス久米川１０３,,13,213,1890023,,,,,,,2025-09-26,1,,,,,,0
1976,9012703003377,新規,0,2025-09-26,2025-09-26,ＧＯＳＡＩ合同会社,,合同会社,東京都,西東京市,中町５丁目９－１５中町店舗,,13,229,2020013,,,,,,,2025-09-26,1,,,,,ゴサイ,0
1989,9020003029398,新規,0,2025-09-26,2025-09-26,合同会社モグネコ,,合同会社,神奈川県,横浜市中区,弁天通４３番地１サングレイス関内Ｂ１,,14,104,2310000,,,,,,,2025-09-26,1,,,,,モグネコ,0
1992,9021001086316,新規,0,2025-09-26,2025-09-26,ＳＧグループ株式会社,,株式会社,神奈川県,相模原市中央区,横山２丁目１０－８－２Ｆ,,14,152,2520242,,,,,,,2025-09-26,1,,,,,エスジーグループ,0
1994,9030001168692,新規,0,2025-09-26,2025-09-26,株式会社明輝産業,,株式会社,埼玉県,川口市,上青木１丁目１０－７永瀬ビル５０１号室,,11,203,3330844,,,,,,,2025-09-26,1,,,,,メイキサンギョウ,0
1995,9030001168726,新規,0,2025-09-26,2025-09-26,ＬＴＧｒｏｕｐ株式会社,,株式会社,埼玉県,川口市,桜町３丁目１７番２１号さくら会館１Ａ,,11,203,3340001,,,,,,,2025-09-26,1,,,,,エルティーグループ,0
1996,9030001168800,新規,0,2025-09-26,2025-09-26,株式会社翔栄建装,,株式会社,埼玉県,川口市,大字安行原１２３番地の１,,11,203,3340057,,,,,,,2025-09-26,1,,,,,ショウエイケンソウ,0
2005,9040001140642,新規,0,2025-09-26,2025-09-26,株式会社アースユニティー,,株式会社,千葉県,松戸市,東松戸２丁目３番地の５スラジュマン４０２号,,12,207,2702225,,,,,,,2025-09-26,1,,,,,アースユニティー,0
2006,9040003028571,新規,0,2025-09-26,2025-09-26,ＪＡＲＦ合同会社,,合同会社,千葉県,佐倉市,王子台５丁目１３番地１マリーナＢ棟１０３,,12,212,2850837,,,,,,,2025-09-26,1,,,,,ジャルフ,0
2013,9060003005767,新規,0,2025-09-26,2025-09-26,合同会社関田興業,,合同会社,栃木県,大田原市,中央２丁目１番１２号ＮＯ１,,09,210,3240056,,,,,,,2025-09-26,1,,,,,セキタコウギョウ,0
2014,9060003005775,新規,0,2025-09-26,2025-09-26,ＨＡＤＩ　ＴＲＡＤＩＮＧ合同会社,,合同会社,栃木県,小山市,駅南町４丁目２５－１ハイグレード望光２０１号,,09,208,3230822,,,,,,,2025-09-26,1,,,,,ハディトレーディング,0
2022,9090001019519,新規,0,2025-09-26,2025-09-26,株式会社こはくプランニング,,株式会社,山梨県,笛吹市,石和町唐柏９９７番地１,,19,211,4060034,,,,,,,2025-09-26,1,,,,,コハクプランニング,0
2026,9100003008402,新規,0,2025-09-26,2025-09-26,合同会社ｃｏ‐ｃｏｏｎ,,合同会社,長野県,上田市,長瀬２７６６－５,,20,203,3860407,,,,,,,2025-09-26,1,,,,,コクーン,0
2041,9120001279761,新規,0,2025-09-26,2025-09-26,株式会社テラ・インヴェストメント,,株式会社,大阪府,大阪市住吉区,遠里小野６丁目１番２９号,,27,120,5580032,,,,,,,2025-09-26,1,,,,,テラインヴェストメント,0
2042,9120001279885,新規,0,2025-09-26,2025-09-26,ブルームメディカル株式会社,,株式会社,大阪府,大阪市鶴見区,浜３丁目１１番５号,,27,124,5380035,,,,,,,2025-09-26,1,,,,,ブルームメディカル,0
2043,9120001279927,新規,0,2025-09-26,2025-09-26,三木生禾株式会社,,株式会社,大阪府,大阪市浪速区,浪速西２丁目１０番９－１階,,27,111,5560026,,,,,,,2025-09-26,1,,,,,サンボクセイカ,0
2044,9120001279992,新規,0,2025-09-26,2025-09-26,株式会社シールド,,株式会社,大阪府,枚方市,黄金野２丁目５番８８号,,27,210,5731145,,,,,,,2025-09-26,1,,,,,シールド,0
2045,9120001280001,新規,0,2025-09-26,2025-09-26,啓迪株式会社,,株式会社,大阪府,大阪市中央区,森ノ宮中央２丁目１１番６号シュライン森ノ宮４０７号室,,27,128,5400003,,,,,,,2025-09-26,1,,,,,ケイテキ,0
2046,9120001280059,新規,0,2025-09-26,2025-09-26,和順興株式会社,,株式会社,大阪府,大阪市浪速区,敷津東３丁目３番２１－３０２号室,,27,111,5560012,,,,,,,2025-09-26,1,,,,,ワジュンコウ,0
2047,9120001280208,新規,0,2025-09-26,2025-09-26,株式会社Ｈｅｌｌｏ　Ｌａｂ,,株式会社,大阪府,大阪市平野区,長吉川辺３丁目１４番２１号,,27,126,5470014,,,,,,,2025-09-26,1,,,,,ハローラボ,0
2050,9120003030775,新規,0,2025-09-26,2025-09-26,合同会社舞鶴,,合同会社,大阪府,大阪市西成区,萩之茶屋２丁目６番４号ニューかめや１２０号室,,27,122,5570004,,,,,,,2025-09-26,1,,,,,マイヅル,0
2053,9120103006741,新規,0,2025-09-26,2025-09-26,合同会社晴縁,,合同会社,大阪府,富田林市,若松町西２丁目１７０２番地７,,27,214,5840025,,,,,,,2025-09-26,1,,,,,セイエン,0
2057,9120901051476,新規,0,2025-09-26,2025-09-26,株式会社ＧＯＥＮ,,株式会社,大阪府,摂津市,三島３丁目１０番４号,,27,224,5660022,,,,,,,2025-09-26,1,,,,,ゴエン,0
2058,9120901051518,新規,0,2025-09-26,2025-09-26,株式会社Ｂｅｌｌａｃｉａ　Ｗｅｌｌｎｅｓｓ,,株式会社,大阪府,豊中市,浜３丁目１９番１８－３０５号,,27,203,5610817,,,,,,,2025-09-26,1,,,,,,0
2061,9120903005851,新規,0,2025-09-26,2025-09-26,ｍａｒｃｏ合同会社,,合同会社,大阪府,豊中市,新千里西町２丁目２４番３０－１１０２号,,27,203,5600083,,,,,,,2025-09-26,1,,,,,,0
2068,9130001080615,新規,0,2025-09-26,2025-09-26,株式会社いつでも,,株式会社,京都府,京都市下京区,玉津島町２９４－５Ｆ,,26,106,6008427,,,,,,,2025-09-26,1,,,,,イツデモ,0
2071,9130005017464,新規,0,2025-09-26,2025-09-26,一般社団法人京都岩倉明徳会,,その他の設立登記法人,京都府,京都市左京区,岩倉西河原町６４７,,26,103,6060014,,,,,,,2025-09-26,1,,,,,キョウトイワクラメイトクカイ,0
2076,9140001140079,新規,0,2025-09-26,2025-09-26,株式会社ＹＳホールディングス,,株式会社,兵庫県,伊丹市,緑ケ丘６丁目４３番地４,,28,207,6640012,,,,,,,2025-09-26,1,,,,,ワイエスホールディングス,0
2078,9140003022622,新規,0,2025-09-26,2025-09-26,ＫＭＫ　ＷＯＲＫＳ合同会社,,合同会社,兵庫県,尼崎市,元浜町１丁目２５－１９,,28,202,6600085,,,,,,,2025-09-26,1,,,,,ケイエムケーワークス,0
2082,9160001027068,新規,0,2025-09-26,2025-09-26,株式会社ＥｎＳｅｅｄ,,株式会社,滋賀県,長浜市,細江町８６４番地４,,25,203,5260105,,,,,,,2025-09-26,1,,,,,エンシード,0
2084,9170003002308,新規,0,2025-09-26,2025-09-26,ＱＫ合同会社,,合同会社,和歌山県,伊都郡かつらぎ町,大字丁ノ町３９４番地の１亀田ハイツ１３号室,,30,341,6497121,,,,,,,2025-09-26,1,,,,,キューケー,0
2085,9180001168711,新規,0,2025-09-26,2025-09-26,株式会社スケスケくん,,株式会社,愛知県,名古屋市中区,錦２丁目１２番３４号,,23,106,4600003,,,,,,,2025-09-26,1,,,,,スケスケクン,0
2086,9180001168785,新規,0,2025-09-26,2025-09-26,株式会社丸万管理サービス,,株式会社,愛知県,名古屋市中川区,万町１２１２番地,,23,110,4540872,,,,,,,2025-09-26,1,,,,,マルマンカンリサービス,0
2094,9180301040231,新規,0,2025-09-26,2025-09-26,株式会社Ｍ＆Ｎリバース,,株式会社,愛知県,岡崎市,上三ツ木町字北稗田６番地,,23,202,4440246,,,,,,,2025-09-26,1,,,,,エムアンドエヌリバース,0
2100,9200003007063,新規,0,2025-09-26,2025-09-26,ＮＩＨＯＮ　ＬＩＮＫ合同会社,,合同会社,岐阜県,大垣市,上笠１丁目４５番１,,21,202,5030964,,,,,,,2025-09-26,1,,,,,ニホンリンク,0
2106,9230001021088,新規,0,2025-09-26,2025-09-26,株式会社Ｌｅｇａｃｙ　Ｈｏｌｄｉｎｇｓ,,株式会社,富山県,小矢部市,岡３１５番地,,16,209,9320031,,,,,,,2025-09-26,1,,,,,レガシーホールディングス,0
2113,9260001040572,新規,0,2025-09-26,2025-09-26,株式会社アンビシャス,,株式会社,岡山県,岡山市北区,富原６５２番地コーポひとみ１０２,,33,101,7011153,,,,,,,2025-09-26,1,,,,,アンビシャス,0
2114,9260003005350,新規,0,2025-09-26,2025-09-26,合同会社エスコーポレーション,,合同会社,岡山県,小田郡矢掛町,本堀１５３１番地１,,33,461,7141224,,,,,,,2025-09-26,1,,,,,エスコーポレーション,0
2116,9270003001794,新規,0,2025-09-26,2025-09-26,合同会社末岡造林,,合同会社,鳥取県,米子市,淀江町淀江６８７番地９,,31,202,6893402,,,,,,,2025-09-26,1,,,,,スエオカゾウリン,0
2127,9300003002343,新規,0,2025-09-26,2025-09-26,Ｊａｍ　Ｔｒａｄｉｎｇ合同会社,,合同会社,佐賀県,佐賀市,金立町大字金立２２０３番地,,41,201,8490906,,,,,,,2025-09-26,1,,,,,ジャムトレーディング,0
2129,9310001019792,新規,0,2025-09-26,2025-09-26,リバーピースエンジニアリング株式会社,,株式会社,長崎県,長崎市,さくらの里２丁目２５番６号,,42,201,8512207,,,,,,,2025-09-26,1,,,,,リバーピースエンジニアリング,0
2139,9340003004955,新規,0,2025-09-26,2025-09-26,合同会社ｓｂｙ,,合同会社,鹿児島県,いちき串木野市,東島平町２０７,,46,219,8960031,,,,,,,2025-09-26,1,,,,,エスビーワイ,0
2141,9360001035810,新規,0,2025-09-26,2025-09-26,株式会社Ｕ‐ｎｅｘｕｓ,,株式会社,沖縄県,名護市,宮里４丁目１５番４４号,,47,209,9050011,,,,,,,2025-09-26,1,,,,,ユーネクサス,0
2142,9360001035819,新規,0,2025-09-26,2025-09-26,株式会社大新工業,,株式会社,沖縄県,島尻郡与那原町,字東浜７８番地５０ＬｕｌｕＯＨＡＮＡ１０２,,47,348,9011304,,,,,,,2025-09-26,1,,,,,ダイシンコウギョウ,0
2148,9390003002450,新規,0,2025-09-26,2025-09-26,楽点合同会社,,合同会社,山形県,山形市,大野目１丁目１１－６５－３レピュートタケダ・Ｂ２０２号室,,06,201,9900073,,,,,,,2025-09-26,1,,,,,ラクテン,0
2158,9430001095335,新規,0,2025-09-26,2025-09-26,株式会社ＳＩＶＡＮＮＡ,,株式会社,北海道,小樽市,桂岡町２９番１０号,,01,203,0470264,,,,,,,2025-09-26,1,,,,,シウェイナ,0
2159,9430001095343,新規,0,2025-09-26,2025-09-26,エフキャピタル株式会社,,株式会社,北海道,札幌市東区,北二十五条東１８丁目３番１０号フタバスクエア元町１階,,01,103,0650025,,,,,,,2025-09-26,1,,,,,エフキャピタル,0
2162,9450001014739,新規,0,2025-09-26,2025-09-26,株式会社ＪＵＮ,,株式会社,北海道,旭川市,春光三条８丁目１０番７号,,01,204,0700873,,,,,,,2025-09-26,1,,,,,ジュン,0
2166,9500001026530,新規,0,2025-09-26,2025-09-26,株式会社白心,,株式会社,愛媛県,松山市,久万ノ台１１８２番地,,38,201,7918016,,,,,,,2025-09-26,1,,,,,ハクシン,0
2167,9700150132357,新規,0,2025-09-26,2025-09-26,ＳｍａｒｔＱ　Ｉｎｃ．,,外国会社等,,,,,,,,４２１７　ＣＨＥＳＴＮＵＴ　ＳＴ　ＵＮＩＴ　２０５　ＰＨＩＬＡＤＥＬＰＨＩＡ　ＰＡ　１９１０４－３７５０　ＵＳ,,,,,,2025-09-26,1,,,,,エスエムアーアーティーキューアイエンシー,0
