sequenceNumber,corporateNumber,process,correct,updateDate,changeDate,name,nameImageId,kind,prefectureName,cityName,streetNumber,addressImageId,prefectureCode,cityCode,postCode,addressOutside,addressOutsideImageId,closeDate,closeCause,successorCorporateNumber,changeCause,assignmentDate,latest,enName,enPrefectureName,enCityName,enAddressOutside,furigana,hihyoji
7,1010001259955,新規,0,2025-11-05,2025-11-05,ＭＯＶＥ　ＯＮ株式会社,,株式会社,東京都,中央区,日本橋兜町１７番１－７０６号日本橋ロイヤルプラザ,,13,102,1030026,,,,,,,2025-11-05,1,,,,,ムーブオン,0
8,1010001259963,新規,0,2025-11-05,2025-11-05,Ｓ＆Ｓサービシーズ株式会社,,株式会社,東京都,千代田区,丸の内３丁目４番１号新国際ビル,,13,101,1000005,,,,,,,2025-11-05,1,,,,,エスアンドエスサービシーズ,0
10,1010003048729,新規,0,2025-11-05,2025-11-05,合同会社テクノア,,合同会社,東京都,中央区,銀座１丁目２２－１１,,13,102,1040061,,,,,,,2025-11-05,1,,,,,,0
11,1010003049116,新規,0,2025-11-05,2025-11-05,合同会社ソリナス,,合同会社,東京都,中央区,銀座１丁目２２－１１,,13,102,1040061,,,,,,,2025-11-05,1,,,,,ソリナス,0
21,1010403036498,新規,0,2025-11-05,2025-11-05,合同会社Ｎｅｒｏ,,合同会社,東京都,港区,六本木４丁目９番５号ＩＳＯ六本木ビル８階,,13,103,1060032,,,,,,,2025-11-05,1,,,,,ネロ,0
22,1010403036515,新規,0,2025-11-05,2025-11-05,ＧＳＳＧ　Ｃｈｉｋｕｄｅｎ　ＢＥＳＳ３４合同会社,,合同会社,東京都,港区,高輪１丁目３番１３号ＮＢＦ高輪ビル７階,,13,103,1080074,,,,,,,2025-11-05,1,,,,,ジーエスエスジーチクデンビーイーエスエスサーティフォー,0
23,1010403036523,新規,0,2025-11-05,2025-11-05,ＧＳＳＧ　Ｃｈｉｋｕｄｅｎ　ＢＥＳＳ４２合同会社,,合同会社,東京都,港区,高輪１丁目３番１３号ＮＢＦ高輪ビル７階,,13,103,1080074,,,,,,,2025-11-05,1,,,,,ジーエスエスジーチクデンビーイーエスエスフォーティツー,0
24,1010405024906,新規,0,2025-11-05,2025-11-05,一般社団法人日本食事療法推進協会,,その他の設立登記法人,東京都,港区,東新橋１丁目１０番１号東京ツインパークスＬ３００２,,13,103,1050021,,,,,,,2025-11-05,1,,,,,ニホンショクジリョウホウスイシンキョウカイ,0
25,1010405024914,新規,0,2025-11-05,2025-11-05,弁理士法人セリオ国際特許事務所,,その他の設立登記法人,東京都,港区,赤坂１丁目１２番３２号アーク森ビル１９階,,13,103,1070052,,,,,,,2025-11-05,1,,,,,セリオコクサイトッキョジムショ,0
26,1010405024963,新規,0,2025-11-05,2025-11-05,ＧＳＳＧ　Ｃｈｉｋｕｄｅｎ　ＢＥＳＳ３７一般社団法人,,その他の設立登記法人,東京都,港区,赤坂１丁目１１番４４号赤坂インターシティ５階Ｆｏｒｖｉｓ・Ｍａｚａｒｓ・Ｊａｐａｎ株式会社内,,13,103,1070052,,,,,,,2025-11-05,1,,,,,ジーエスエスジーチクデンビーイーエスエスサーティセブン,0
27,1010405024971,新規,0,2025-11-05,2025-11-05,ＧＳＳＧ　Ｃｈｉｋｕｄｅｎ　ＢＥＳＳ４５一般社団法人,,その他の設立登記法人,東京都,港区,赤坂１丁目１１番４４号赤坂インターシティ５階Ｆｏｒｖｉｓ・Ｍａｚａｒｓ・Ｊａｐａｎ株式会社内,,13,103,1070052,,,,,,,2025-11-05,1,,,,,ジーエスエスジーチクデンビーイーエスエスフォーティファイブ,0
33,1010701048518,新規,0,2025-11-05,2025-11-05,株式会社Ｒｅｓｉｌａ,,株式会社,東京都,品川区,東中延２丁目５番５号ハウス・ブルンネン８０２,,13,109,1420052,,,,,,,2025-11-05,1,,,,,レシラ,0
34,1010701048567,新規,0,2025-11-05,2025-11-05,株式会社ＣａｒｒｙＡｓｓｉｓｔ,,株式会社,東京都,品川区,旗の台３丁目１５番１号ツバセスパート９旗の台３３３号室,,13,109,1420064,,,,,,,2025-11-05,1,,,,,キャリーアシスト,0
35,1010703007991,新規,0,2025-11-05,2025-11-05,ＥｖｏＬｕｘ合同会社,,合同会社,東京都,品川区,豊町３丁目４番１０号,,13,109,1420042,,,,,,,2025-11-05,1,,,,,エボラックス,0
36,1010803005598,新規,0,2025-11-05,2025-11-05,ＢＯＸ　ＭＯＵＮＴＡＩＮ合同会社,,合同会社,東京都,大田区,大森西５丁目１６番２２号,,13,111,1430015,,,,,,,2025-11-05,1,,,,,ボックスマウンテン,0
37,1010901058399,新規,0,2025-11-05,2025-11-05,株式会社ヤマト建築管理,,株式会社,東京都,世田谷区,岡本２丁目２２番５号静幸荘２号室,,13,112,1570076,,,,,,,2025-11-05,1,,,,,ヤマトケンチクカンリ,0
38,1010903010382,新規,0,2025-11-05,2025-11-05,合同会社ＫＡＲＤＩＡ,,合同会社,東京都,世田谷区,粕谷１丁目１２－１６ガーデンヴィラ芦花公園１０１号室,,13,112,1570063,,,,,,,2025-11-05,1,,,,,カルディア,0
39,1010905004861,新規,0,2025-11-05,2025-11-05,タナダヲ企業組合,,その他の設立登記法人,東京都,世田谷区,代沢３丁目１６番２４号,,13,112,1550032,,,,,,,2025-11-05,1,,,,,タナダヲ,0
42,1011001173279,新規,0,2025-11-05,2025-11-05,株式会社Ｅｍｉｔｒａ,,株式会社,東京都,渋谷区,神宮前３丁目３２番１号神宮前ＳＵＮＷＩＳＥ２Ｆ,,13,113,1500001,,,,,,,2025-11-05,1,,,,,エミトラ,0
43,1011001173295,新規,0,2025-11-05,2025-11-05,株式会社Ｓｔｉｃｋ　Ｊａｐａｎ,,株式会社,東京都,目黒区,鷹番３丁目１５番１７号,,13,110,1520004,,,,,,,2025-11-05,1,,,,,スティックジャパン,0
44,1011001173304,新規,0,2025-11-05,2025-11-05,ＧＡＬＡＬＩ株式会社,,株式会社,東京都,渋谷区,千駄ヶ谷２丁目６番４号,,13,113,1510051,,,,,,,2025-11-05,1,,,,,ガラリ,0
60,1011405002414,新規,0,2025-11-05,2025-11-05,一般社団法人アイディアル・アサイン,,その他の設立登記法人,東京都,板橋区,蓮根２丁目２７－１２古谷野ビル２Ｆ－３,,13,119,1740046,,,,,,,2025-11-05,1,,,,,,0
62,1011801047021,新規,0,2025-11-05,2025-11-05,Ｔｉｍｏｒａ株式会社,,株式会社,東京都,葛飾区,立石４丁目３番５号,,13,122,1240012,,,,,,,2025-11-05,1,,,,,ティモラ,0
66,1012803003920,新規,0,2025-11-05,2025-11-05,合同会社アセットプラスデザイン,,合同会社,東京都,日野市,百草９１４番地の４４,,13,212,1910033,,,,,,,2025-11-05,1,,,,,アセットプラスデザイン,0
80,1020001165624,新規,0,2025-11-05,2025-11-05,株式会社良縁,,株式会社,神奈川県,川崎市高津区,子母口１００６―４,,14,134,2130023,,,,,,,2025-11-05,1,,,,,リョウエン,0
81,1020001165649,新規,0,2025-11-05,2025-11-05,株式会社ＺＥＲＯ,,株式会社,神奈川県,川崎市宮前区,鷺沼４丁目１６番地３,,14,136,2160004,,,,,,,2025-11-05,1,,,,,ゼロ,0
86,1020003029703,新規,0,2025-11-05,2025-11-05,灯環合同会社,,合同会社,神奈川県,横浜市港北区,菊名４丁目１０番２６号,,14,109,2220011,,,,,,,2025-11-05,1,,,,,トワ,0
87,1020003029711,新規,0,2025-11-05,2025-11-05,合同会社ＬＵＭＩＥＲＡ,,合同会社,神奈川県,川崎市幸区,堀川町６６－２０川崎市産業振興会館２Ｆ,,14,132,2120013,,,,,,,2025-11-05,1,,,,,ルミエラ,0
91,1021001086711,新規,0,2025-11-05,2025-11-05,堀籠建築株式会社,,株式会社,神奈川県,愛甲郡愛川町,半原２２５３番地,,14,401,2430307,,,,,,,2025-11-05,1,,,,,ホリゴメケンチク,0
103,1030001169509,新規,0,2025-11-05,2025-11-05,株式会社ＲＯＹＡＬ　ＢＡＳＥ,,株式会社,埼玉県,狭山市,沢４番２号,,11,215,3501303,,,,,,,2025-11-05,1,,,,,ロイヤルベース,0
105,1030003027994,新規,0,2025-11-05,2025-11-05,合同会社テンプラン,,合同会社,埼玉県,所沢市,西所沢２丁目１１番２８号,,11,208,3591144,,,,,,,2025-11-05,1,,,,,テンプラン,0
106,1030003028002,新規,0,2025-11-05,2025-11-05,合同会社池原工業,,合同会社,埼玉県,さいたま市岩槻区,大字表慈恩寺６１９番地１ヴィヴァレ東岩槻３０９号室,,11,110,3390008,,,,,,,2025-11-05,1,,,,,,0
107,1040001141235,新規,0,2025-11-05,2025-11-05,株式会社エヌコーポレーション,,株式会社,千葉県,船橋市,市場３丁目１２番２５－５０２号,,12,204,2730001,,,,,,,2025-11-05,1,,,,,エヌコーポレーション,0
110,1060003005832,新規,0,2025-11-05,2025-11-05,合同会社ＨＥＹ,,合同会社,栃木県,宇都宮市,不動前４丁目１番１号,,09,201,3200833,,,,,,,2025-11-05,1,,,,,エイチイーワイ,0
114,1080003003594,新規,0,2025-11-05,2025-11-05,合同会社ＳＴＡＲＲ,,合同会社,静岡県,静岡市葵区,栄町２番地５アークビルディング５０２,,22,101,4200859,,,,,,,2025-11-05,1,,,,,スター,0
133,1120001281683,新規,0,2025-11-05,2025-11-05,株式会社佐藤組,,株式会社,大阪府,大阪市平野区,流町３丁目５番２１号,,27,126,5470032,,,,,,,2025-11-05,1,,,,,サトウグミ,0
134,1120001281691,新規,0,2025-11-05,2025-11-05,株式会社漢城,,株式会社,大阪府,大阪市住之江区,南港中３丁目９－２６サンコーポラス１０５号室,,27,125,5590033,,,,,,,2025-11-05,1,,,,,カンジョウ,0
141,1120003030907,新規,0,2025-11-05,2025-11-05,合同会社Ｌｕｃｅ,,合同会社,大阪府,大阪市浪速区,下寺３丁目１０－１５,,27,111,5560001,,,,,,,2025-11-05,1,,,,,ルーチェ,0
142,1120003031194,新規,0,2025-11-05,2025-11-05,合同会社ＳＩＮＣＥＲＩＯ,,合同会社,大阪府,大阪市都島区,御幸町２丁目１４番６号,,27,102,5340012,,,,,,,2025-11-05,1,,,,,シンセリオ,0
147,1122001039839,新規,0,2025-11-05,2025-11-05,株式会社ＭＪ企画,,株式会社,大阪府,東大阪市,高井田元町２丁目８番１８－３０３号,,27,227,5770054,,,,,,,2025-11-05,1,,,,,エムジェイキカク,0
152,1130001080928,新規,0,2025-11-05,2025-11-05,アール・アセット株式会社,,株式会社,京都府,京都市山科区,東野中井ノ上町９番地５０,,26,110,6078142,,,,,,,2025-11-05,1,,,,,アールアセット,0
153,1130001080936,新規,0,2025-11-05,2025-11-05,株式会社Ｇ‐ＳＴＥＰ,,株式会社,京都府,城陽市,久世下大谷１０９番地の１０,,26,207,6100102,,,,,,,2025-11-05,1,,,,,ジーステップ,0
158,1140001140623,新規,0,2025-11-05,2025-11-05,株式会社シモヤマデンキ,,株式会社,兵庫県,神戸市中央区,八雲通２丁目１番１２号,,28,110,6510078,,,,,,,2025-11-05,1,,,,,シモヤマデンキ,0
173,1180303006799,新規,0,2025-11-05,2025-11-05,合同会社Ｈａｕｐｔ,,合同会社,愛知県,豊橋市,西高師町字津森１２０番地の１,,23,201,4418154,,,,,,,2025-11-05,1,,,,,,0
179,1220001027003,新規,0,2025-11-05,2025-11-05,ＭＯＭＯ株式会社,,株式会社,石川県,金沢市,小坂町東１７番地,,17,201,9200811,,,,,,,2025-11-05,1,,,,,モモ,0
193,1260003005408,新規,0,2025-11-05,2025-11-05,合同会社福本,,合同会社,岡山県,玉野市,和田５丁目９番２１号,,33,204,7060021,,,,,,,2025-11-05,1,,,,,フクモト,0
202,1290001111980,新規,0,2025-11-05,2025-11-05,株式会社ａｉｒ　ｃｈａｉｒ会計労務,,株式会社,福岡県,福岡市博多区,上川端町３－６－７０１,,40,132,8120026,,,,,,,2025-11-05,1,,,,,エアチェアーカイケイロウム,0
203,1290001112013,新規,0,2025-11-05,2025-11-05,株式会社ＦＬＩＰ,,株式会社,福岡県,福岡市中央区,大名２丁目１１番２１号,,40,133,8100041,,,,,,,2025-11-05,1,,,,,フリップ,0
204,1290001112046,新規,0,2025-11-05,2025-11-05,株式会社ＵｎｆｏｌＣｒｅａｔｅ,,株式会社,福岡県,福岡市博多区,諸岡３丁目１０－２０,,40,132,8120894,,,,,,,2025-11-05,1,,,,,アンフォールクリエイト,0
208,1290003017664,新規,0,2025-11-05,2025-11-05,ＨＲサッハ合同会社,,合同会社,福岡県,福岡市城南区,梅林１丁目１７番７号,,40,136,8140144,,,,,,,2025-11-05,1,,,,,エイチアールサッハ,0
213,1290801032014,新規,0,2025-11-05,2025-11-05,株式会社モリタトラスト,,株式会社,福岡県,北九州市若松区,赤崎町１４番２１号,,40,103,8080003,,,,,,,2025-11-05,1,,,,,モリタトラスト,0
216,1310001019841,新規,0,2025-11-05,2025-11-05,株式会社ＳＨＩＢＡ　ＨＯＵＳＥ,,株式会社,長崎県,長崎市,鍛冶屋町１番１８号光影舎ビル１Ｆ,,42,201,8500831,,,,,,,2025-11-05,1,,,,,シバハウス,0
217,1310003005121,新規,0,2025-11-05,2025-11-05,合同会社シーエッジ,,合同会社,長崎県,西彼杵郡長与町,高田郷１９５２番地５,,42,307,8512127,,,,,,,2025-11-05,1,,,,,シーエッジ,0
225,1370001053199,新規,0,2025-11-05,2025-11-05,株式会社Ｅｓｓｅｎｔｒｉｘ,,株式会社,宮城県,仙台市宮城野区,榴岡４丁目１番８号パルシティ仙台４Ｆ,,04,102,9830852,,,,,,,2025-11-05,1,,,,,エッセントリクス,0
231,1380005013025,新規,0,2025-11-05,2025-11-05,一般社団法人天空のさとやま,,その他の設立登記法人,福島県,いわき市,四倉町上柳生字城ノ腰２１８番地,,07,204,9790226,,,,,,,2025-11-05,1,,,,,テンクウノサトヤマ,0
239,1430001095581,新規,0,2025-11-05,2025-11-05,株式会社ＫＯＮＢＵ　ｍａｎｉａ,,株式会社,北海道,札幌市中央区,南十三条西１１丁目２－２５セ・ザンヌＩＩ１０１号室,00141382,01,101,0640913,,,,,,,2025-11-05,1,,,,,コンブマニア,0
241,1430003018284,新規,0,2025-11-05,2025-11-05,合同会社ＨＡＬ,,合同会社,北海道,札幌市中央区,南二十四条西１２丁目５番２４号,,01,101,0640924,,,,,,,2025-11-05,1,,,,,エイチエーエル,0
242,1430003018301,新規,0,2025-11-05,2025-11-05,合同会社Ｆｉｎｄ　Ｗｅａｔｈｅｒ,,合同会社,北海道,札幌市豊平区,月寒東二条５丁目１番１８－４０２号,,01,105,0620052,,,,,,,2025-11-05,1,,,,,ファインドウェザー,0
250,2010001260029,新規,0,2025-11-05,2025-11-05,株式会社Ｆｌｏｗｃｉａｌ,,株式会社,東京都,千代田区,神田須田町１丁目７番８号,,13,101,1010041,,,,,,,2025-11-05,1,,,,,フローシャル,0
251,2010001260045,新規,0,2025-11-05,2025-11-05,株式会社Ｒｏｌｉｆｅ　Ｊａｐａｎ,,株式会社,東京都,中央区,晴海１丁目８番１０号,,13,102,1040053,,,,,,,2025-11-05,1,,,,,ローライフジャパン,0
255,2010003049255,新規,0,2025-11-05,2025-11-05,合同会社ボイスウィル,,合同会社,東京都,文京区,大塚３丁目１８番９号,,13,105,1120012,,,,,,,2025-11-05,1,,,,,ボイスウィル,0
257,2010103002691,新規,0,2025-11-05,2025-11-05,合同会社ＣＡＮＶＡＳ,,合同会社,東京都,八王子市,大和田町５丁目２０番８号アネックスＮ５０２,,13,201,1920045,,,,,,,2025-11-05,1,,,,,キャンバス,0
263,2010401194314,新規,0,2025-11-05,2025-11-05,ＸＸ株式会社,,株式会社,東京都,港区,麻布台２丁目３番２２号一乗寺ビル２階,,13,103,1060041,,,,,,,2025-11-05,1,,,,,エックスエックス,0
265,2010403036514,新規,0,2025-11-05,2025-11-05,ＧＳＳＧ　Ｃｈｉｋｕｄｅｎ　ＢＥＳＳ３３合同会社,,合同会社,東京都,港区,高輪１丁目３番１３号ＮＢＦ高輪ビル７階,,13,103,1080074,,,,,,,2025-11-05,1,,,,,ジーエスエスジーチクデンビーイーエスエスサーティスリー,0
266,2010403036522,新規,0,2025-11-05,2025-11-05,ＧＳＳＧ　Ｃｈｉｋｕｄｅｎ　ＢＥＳＳ４１合同会社,,合同会社,東京都,港区,高輪１丁目３番１３号ＮＢＦ高輪ビル７階,,13,103,1080074,,,,,,,2025-11-05,1,,,,,ジーエスエスジーチクデンビーイーエスエスフォーティワン,0
269,2010405024962,新規,0,2025-11-05,2025-11-05,ＧＳＳＧ　Ｃｈｉｋｕｄｅｎ　ＢＥＳＳ３６一般社団法人,,その他の設立登記法人,東京都,港区,赤坂１丁目１１番４４号赤坂インターシティ５階Ｆｏｒｖｉｓ・Ｍａｚａｒｓ・Ｊａｐａｎ株式会社内,,13,103,1070052,,,,,,,2025-11-05,1,,,,,ジーエスエスジーチクデンビーイーエスエスサーティシックス,0
270,2010405024970,新規,0,2025-11-05,2025-11-05,ＧＳＳＧ　Ｃｈｉｋｕｄｅｎ　ＢＥＳＳ４４一般社団法人,,その他の設立登記法人,東京都,港区,赤坂１丁目１１番４４号赤坂インターシティ５階Ｆｏｒｖｉｓ・Ｍａｚａｒｓ・Ｊａｐａｎ株式会社内,,13,103,1070052,,,,,,,2025-11-05,1,,,,,ジーエスエスジーチクデンビーイーエスエスフォーティフォー,0
279,2010703007990,新規,0,2025-11-05,2025-11-05,Ｒｅｆ　Ｗｏｒｌｄ合同会社,,合同会社,東京都,品川区,西五反田３丁目６番３８－２４０３号,,13,109,1410031,,,,,,,2025-11-05,1,,,,,アールイーエフワールド,0
287,2010901058381,新規,0,2025-11-05,2025-11-05,株式会社ワーキングバッワーズ,,株式会社,東京都,世田谷区,東玉川２丁目３５番１０号風香田園調布２０１,,13,112,1580084,,,,,,,2025-11-05,1,,,,,ワーキングバッワーズ,0
290,2011001173278,新規,0,2025-11-05,2025-11-05,株式会社ＷｉｔｈＣｏ,,株式会社,東京都,渋谷区,円山町５番３号ＭＩＥＵＸ渋谷ビル８階,,13,113,1500044,,,,,,,2025-11-05,1,,,,,ウィズコ,0
291,2011001173286,新規,0,2025-11-05,2025-11-05,株式会社ｉｎｓｔｉｌｌ,,株式会社,東京都,目黒区,下目黒１丁目８番３９－１－１０２号,,13,110,1530064,,,,,,,2025-11-05,1,,,,,インスティル,0
292,2011001173393,新規,0,2025-11-05,2025-11-05,株式会社ベイシスジャパン,,株式会社,東京都,渋谷区,恵比寿南１丁目７番８－８０５号,,13,113,1500022,,,,,,,2025-11-05,1,,,,,ベイシスジャパン,0
293,2011003022796,新規,0,2025-11-05,2025-11-05,合同会社ハレ,,合同会社,東京都,渋谷区,渋谷３丁目１番９号ＹＡＺＡＷＡビル３階,,13,113,1500002,,,,,,,2025-11-05,1,,,,,ハレ,0
294,2011003022805,新規,0,2025-11-05,2025-11-05,合同会社トゥートゥー,,合同会社,東京都,渋谷区,道玄坂１丁目１０番８号渋谷道玄坂東急ビル２Ｆ－Ｃ,,13,113,1500043,,,,,,,2025-11-05,1,,,,,トゥートゥー,0
298,2011101113745,新規,0,2025-11-05,2025-11-05,株式会社イシミネＤＡＴＡ,,株式会社,東京都,新宿区,西新宿３丁目３番１３号西新宿水間ビル２Ｆ,,13,104,1600023,,,,,,,2025-11-05,1,,,,,イシミネデータ,0
316,2012401043780,新規,0,2025-11-05,2025-11-05,株式会社Ｃａｍｅｒ,,株式会社,東京都,府中市,分梅町２丁目３０番地の１９,,13,206,1830033,,,,,,,2025-11-05,1,,,,,カメール,0
317,2012403007437,新規,0,2025-11-05,2025-11-05,合同会社カマクラデザイン,,合同会社,東京都,三鷹市,新川３丁目５番１５号,,13,204,1810004,,,,,,,2025-11-05,1,,,,,カマクラデザイン,0
327,2020001165631,新規,0,2025-11-05,2025-11-05,株式会社ＲＤＶ,,株式会社,神奈川県,横浜市瀬谷区,阿久和南４丁目９－３,,14,114,2460026,,,,,,,2025-11-05,1,,,,,アールディーブイ,0
330,2020005017036,新規,0,2025-11-05,2025-11-05,フィルミック・ヴィンヤード・ミニストリーズ一般社団法人,,その他の設立登記法人,神奈川県,横浜市磯子区,磯子３丁目７番２２－２０１号,,14,107,2350016,,,,,,,2025-11-05,1,,,,,フィルミックヴィンヤードミニストリーズ,0
331,2021001086702,新規,0,2025-11-05,2025-11-05,株式会社ｔａｓｕｇｏ,,株式会社,神奈川県,相模原市緑区,小倉８５３－２,,14,151,2520115,,,,,,,2025-11-05,1,,,,,タスゴ,0
332,2021001086727,新規,0,2025-11-05,2025-11-05,株式会社ＢＲＡＩＮ,,株式会社,神奈川県,鎌倉市,大町２丁目１１番１３号,,14,204,2480007,,,,,,,2025-11-05,1,,,,,ブレイン,0
341,2030001169499,新規,0,2025-11-05,2025-11-05,半田建築測量株式会社,,株式会社,埼玉県,深谷市,小前田２５１９番地１,,11,218,3691246,,,,,,,2025-11-05,1,,,,,ハンダケンチクソクリョウ,0
345,2030003027911,新規,0,2025-11-05,2025-11-05,合同会社Ｋ　Ｍ　Ｊ　ＨＯＬＤＩＮＧＳ,,合同会社,埼玉県,行田市,大字馬見塚３６１,,11,206,3610082,,,,,,,2025-11-05,1,,,,,ケーエムジェイホールディングス,0
346,2030003028001,新規,0,2025-11-05,2025-11-05,合同会社ウインストン,,合同会社,埼玉県,所沢市,こぶし町３番３７号,,11,208,3590033,,,,,,,2025-11-05,1,,,,,ウインストン,0
348,2030005022266,新規,0,2025-11-05,2025-11-05,一般社団法人終活あんしんの窓口,,その他の設立登記法人,埼玉県,越谷市,北越谷２丁目３番５号,,11,222,3430026,,,,,,,2025-11-05,1,,,,,シュウカツアンシンノマドグチ,0
359,2050003009734,新規,0,2025-11-05,2025-11-05,ＳｈｕＴｏｋｕ合同会社,,合同会社,茨城県,笠間市,下郷４５３２番地１,,08,216,3190202,,,,,,,2025-11-05,1,,,,,シュウトク,0
362,2060001038726,新規,0,2025-11-05,2025-11-05,株式会社アツイリフォーム,,株式会社,栃木県,宇都宮市,石井町２９１７番地１８,,09,201,3210912,,,,,,,2025-11-05,1,,,,,アツイリフォーム,0
370,2100001039091,新規,0,2025-11-05,2025-11-05,Ｂｅ　Ｖｉｌｌａｇｅ株式会社,,株式会社,長野県,北安曇郡小谷村,大字千国乙１２８５６番地１２５,,20,486,3999422,,,,,,,2025-11-05,1,,,,,ビビレッジ,0
371,2100005013415,新規,0,2025-11-05,2025-11-05,農事組合法人綿半農場,,その他の設立登記法人,長野県,東筑摩郡筑北村,坂井５７２６番地６,,20,452,3997711,,,,,,,2025-11-05,1,,,,,ワタハンノウジョウ,0
372,2110001039685,新規,0,2025-11-05,2025-11-05,株式会社Ｌｉｆｅ　Ｄｅｓｉｇｎ　Ｆｏｏｄｓ,,株式会社,新潟県,長岡市,宮関２丁目２番２号サニーコート宮関１－Ａ号室,,15,202,9402021,,,,,,,2025-11-05,1,,,,,ライフデザインフーズ,0
385,2120001281583,新規,0,2025-11-05,2025-11-05,株式会社ＰＡＳＥＴ,,株式会社,大阪府,交野市,星田北６丁目２０－６,,27,230,5760017,,,,,,,2025-11-05,1,,,,,パセット,0
386,2120001281674,新規,0,2025-11-05,2025-11-05,ＭＥＧＡＳＰＥＥＤ　ＩＮＴＥＲＮＡＴＩＯＮＡＬ株式会社,,株式会社,大阪府,大阪市北区,芝田２丁目１番１８号西阪急ビル１Ｆオープンオフィス西阪急梅田,,27,127,5300012,,,,,,,2025-11-05,1,,,,,メガスピードインターナショナル,0
387,2120003031160,新規,0,2025-11-05,2025-11-05,合同会社ケアサポートまつり,,合同会社,大阪府,大阪市鶴見区,安田３丁目５番５号,,27,124,5380032,,,,,,,2025-11-05,1,,,,,ケアサポートマツリ,0
408,2170003002330,新規,0,2025-11-05,2025-11-05,きのくにＰｎＣ合同会社,,合同会社,和歌山県,東牟婁郡串本町,西向１１３２番地１,,30,428,6494122,,,,,,,2025-11-05,1,,,,,キノクニピーエヌシー,0
416,2180003029331,新規,0,2025-11-05,2025-11-05,５Ｄ合同会社,,合同会社,愛知県,名古屋市西区,香呑町２丁目１９番地の１,,23,104,4510015,,,,,,,2025-11-05,1,,,,,ファイブディー,0
421,2180301040378,新規,0,2025-11-05,2025-11-05,株式会社ＡＬＯＨＡ　ＺＥＳＴ,,株式会社,愛知県,岡崎市,大平町字西上野１０７番地,,23,202,4440007,,,,,,,2025-11-05,1,,,,,アロハゼスト,0
423,2180303006798,新規,0,2025-11-05,2025-11-05,合同会社オレンジプードル,,合同会社,愛知県,額田郡幸田町,大字野場字下沢渡１２番地４,,23,501,4440128,,,,,,,2025-11-05,1,,,,,オレンジプードル,0
427,2190001032658,新規,0,2025-11-05,2025-11-05,株式会社マルモホールディングス,,株式会社,三重県,鈴鹿市,神戸１丁目１２番３０号,,24,207,5130801,,,,,,,2025-11-05,1,,,,,マルモホールディングス,0
435,2230001021169,新規,0,2025-11-05,2025-11-05,辻建物管理株式会社,00141394,株式会社,富山県,富山市,千石町２丁目１番１６号,,16,201,9300066,,,,,,,2025-11-05,1,,,,,ツジタテモノカンリ,0
441,2240001065719,新規,0,2025-11-05,2025-11-05,株式会社Ｌｉｅｎ,,株式会社,広島県,広島市西区,古江西町１７番１７－１号,,34,104,7330874,,,,,,,2025-11-05,1,,,,,リアン,0
442,2240001065743,新規,0,2025-11-05,2025-11-05,株式会社やむちゃ,,株式会社,広島県,広島市中区,薬研堀７番１６号ファイブビル２階,,34,101,7300027,,,,,,,2025-11-05,1,,,,,ヤムチャ,0
447,2240003007470,新規,0,2025-11-05,2025-11-05,合同会社サウスヒル,,合同会社,広島県,東広島市,黒瀬町楢原６３７－４ティンカーベル１０１,,34,212,7392613,,,,,,,2025-11-05,1,,,,,サウスヒル,0
449,2260001040703,新規,0,2025-11-05,2025-11-05,株式会社めぐみ,,株式会社,岡山県,岡山市南区,福富中２丁目１２－１４,,33,104,7028032,,,,,,,2025-11-05,1,,,,,メグミ,0
461,2290001111988,新規,0,2025-11-05,2025-11-05,株式会社ＦＢＰ,,株式会社,福岡県,福岡市博多区,住吉２丁目１６番３６号ａｎｄｒｏｏｔｓＦＯＲＥＳＴＳＱＵＡＲＥ,,40,132,8120018,,,,,,,2025-11-05,1,,,,,,0
462,2290001112012,新規,0,2025-11-05,2025-11-05,株式会社エイトワン,,株式会社,福岡県,八女市,前古賀３０３番地１,,40,210,8340054,,,,,,,2025-11-05,1,,,,,エイトワン,0
463,2290001112029,新規,0,2025-11-05,2025-11-05,株式会社ジャムズアセット,,株式会社,福岡県,福岡市中央区,今泉１丁目２－３０天神プレイスＥａｓｔ棟５Ｆ,,40,133,8100021,,,,,,,2025-11-05,1,,,,,ジャムズアセット,0
471,2290003017647,新規,0,2025-11-05,2025-11-05,合同会社クリーンマスター,,合同会社,福岡県,三潴郡大木町,大字笹渕１０４３－１９グランメゾン希１－１０８号,,40,522,8300401,,,,,,,2025-11-05,1,,,,,,0
478,2320001021424,新規,0,2025-11-05,2025-11-05,ＳＥＩＳＨＯ株式会社,,株式会社,大分県,速見郡日出町,大字川崎１００３番地４,,44,341,8791505,,,,,,,2025-11-05,1,,,,,セイショウ,0
490,2360003015338,新規,0,2025-11-05,2025-11-05,ＴｉＯ合同会社,,合同会社,沖縄県,沖縄市,字松本９９１－３福美３０５号,,47,211,9042151,,,,,,,2025-11-05,1,,,,,ティオ,0
497,2380005013024,新規,0,2025-11-05,2025-11-05,特定非営利活動法人ともす舎,,その他の設立登記法人,福島県,郡山市,香久池１丁目１７番７号,,07,203,9638833,,,,,,,2025-11-05,1,,,,,トモスシャ,0
520,3010001259524,新規,0,2025-11-05,2025-11-05,日本彭祖学院株式会社,,株式会社,東京都,中央区,銀座１丁目１２番４号Ｎ＆ＥＢＬＤ．７階,,13,102,1040061,,,,,,,2025-11-05,1,,,,,ニホンホウソガクイン,0
521,3010001259846,新規,0,2025-11-05,2025-11-05,株式会社ＩＭＩＫＡＣＨＩ,,株式会社,東京都,千代田区,鍛冶町１丁目３－８,,13,101,1010044,,,,,,,2025-11-05,1,,,,,イミカチ,0
522,3010001259887,新規,0,2025-11-05,2025-11-05,株式会社Ｎｏｄｉａｃｔ,,株式会社,東京都,中央区,銀座１丁目１２番４号Ｎ＆ＥＢＬＤ．６Ｆ,,13,102,1040061,,,,,,,2025-11-05,1,,,,,ノーディアクト,0
523,3010001259986,新規,0,2025-11-05,2025-11-05,株式会社Ｊａｐａｎ　Ｓｎｏｗ　Ｍｏｕｎｔａｉｎ　Ｃｏｎｓｕｌｔｉｎｇ,,株式会社,東京都,中央区,八重洲２丁目１番１号ＹＡＮＭＡＲＴＯＫＹＯ１２階,,13,102,1040028,,,,,,,2025-11-05,1,,,,,ジャパンスノーマウンテンコンサルティング,0
526,3010003049254,新規,0,2025-11-05,2025-11-05,合同会社コアリンク・マネジメント,,合同会社,東京都,中央区,東日本橋２丁目２８番４号日本橋ＣＥＴビル２階,,13,102,1030004,,,,,,,2025-11-05,1,,,,,コアリンクマネジメント,0
534,3010403036430,新規,0,2025-11-05,2025-11-05,Ｔｏｋｙｏ　Ｇａｔｅｗａｙ＆Ｐａｒｔｎｅｒｓ合同会社,,合同会社,東京都,港区,北青山１丁目３番１号アールキューブ青山３階,,13,103,1070061,,,,,,,2025-11-05,1,,,,,トウキョウゲートウェイアンドパートナーズ,0
535,3010403036513,新規,0,2025-11-05,2025-11-05,ＧＳＳＧ　Ｃｈｉｋｕｄｅｎ　ＢＥＳＳ３２合同会社,,合同会社,東京都,港区,高輪１丁目３番１３号ＮＢＦ高輪ビル７階,,13,103,1080074,,,,,,,2025-11-05,1,,,,,ジーエスエスジーチクデンビーイーエスエスサーティツー,0
536,3010403036521,新規,0,2025-11-05,2025-11-05,ＧＳＳＧ　Ｃｈｉｋｕｄｅｎ　ＢＥＳＳ４０合同会社,,合同会社,東京都,港区,高輪１丁目３番１３号ＮＢＦ高輪ビル７階,,13,103,1080074,,,,,,,2025-11-05,1,,,,,ジーエスエスジーチクデンビーイーエスエスフォーティ,0
538,3010405024961,新規,0,2025-11-05,2025-11-05,ＧＳＳＧ　Ｃｈｉｋｕｄｅｎ　ＢＥＳＳ３５一般社団法人,,その他の設立登記法人,東京都,港区,赤坂１丁目１１番４４号赤坂インターシティ５階Ｆｏｒｖｉｓ・Ｍａｚａｒｓ・Ｊａｐａｎ株式会社内,,13,103,1070052,,,,,,,2025-11-05,1,,,,,ジーエスエスジーチクデンビーイーエスエスサーティファイブ,0
546,3010901058380,新規,0,2025-11-05,2025-11-05,株式会社ＫＰ‐ＮＥＸＴフーズ,,株式会社,東京都,世田谷区,下馬１丁目４５番６号ウィスタリアプラザ２Ｆ,,13,112,1540002,,,,,,,2025-11-05,1,,,,,ケーピーネクストフーズ,0
552,3011001173285,新規,0,2025-11-05,2025-11-05,株式会社ｆｕｌｌ　ｏｆ　ｌｉｆｅ,,株式会社,東京都,渋谷区,笹塚１丁目４７－１－１４０３,,13,113,1510073,,,,,,,2025-11-05,1,,,,,フルオブライフ,0
553,3011001173302,新規,0,2025-11-05,2025-11-05,株式会社ｙｕｒｅｒｕ,,株式会社,東京都,渋谷区,道玄坂１丁目１０番８号渋谷道玄坂東急ビル２Ｆ－Ｃ,,13,113,1500043,,,,,,,2025-11-05,1,,,,,ユレル,0
555,3011003022795,新規,0,2025-11-05,2025-11-05,合同会社ライブルーム,,合同会社,東京都,渋谷区,神泉町１０番１５号アネックス神泉３０１,,13,113,1500045,,,,,,,2025-11-05,1,,,,,ライブルーム,0
558,3011101113843,新規,0,2025-11-05,2025-11-05,株式会社Ｒｅｓａｌｕｓ,,株式会社,東京都,新宿区,四谷１丁目２２番地５,,13,104,1600004,,,,,,,2025-11-05,1,,,,,リザラス,0
559,3011101113851,新規,0,2025-11-05,2025-11-05,ＡＩ創研株式会社,,株式会社,東京都,新宿区,西落合４丁目９―８,,13,104,1610031,,,,,,,2025-11-05,1,,,,,エーアイソウケン,0
579,3011401027529,新規,0,2025-11-05,2025-11-05,株式会社トキツカゼ,,株式会社,東京都,板橋区,東新町２丁目５７－６Ｌａｌｉｎｏ３０１,,13,119,1740074,,,,,,,2025-11-05,1,,,,,トキツカゼ,0
588,3011801047028,新規,0,2025-11-05,2025-11-05,株式会社六善,,株式会社,東京都,葛飾区,青戸７丁目１１番４－５０２号ライオンズマンション青戸第三,,13,122,1250062,,,,,,,2025-11-05,1,,,,,ロクゼン,0
594,3012401043771,新規,0,2025-11-05,2025-11-05,日本高級茶輸出推進機構株式会社,,株式会社,東京都,武蔵野市,関前３丁目１０番７号,,13,203,1800014,,,,,,,2025-11-05,1,,,,,ニホンコウキュウチャユシュツスイシンキコウ,0
597,3012403007444,新規,0,2025-11-05,2025-11-05,合同会社ＪＩＮ,,合同会社,東京都,武蔵野市,吉祥寺本町１丁目２４番５号吉祥寺ライトビル６階Ｂ,,13,203,1800004,,,,,,,2025-11-05,1,,,,,,0
612,3020001165498,新規,0,2025-11-05,2025-11-05,ＮＹ株式会社,,株式会社,神奈川県,川崎市幸区,南加瀬２丁目２０番１号南加瀬ビル１０１号室,,14,132,2120055,,,,,,,2025-11-05,1,,,,,エヌワイ,0
613,3020001165630,新規,0,2025-11-05,2025-11-05,Ａｙｔｈｉｎｋ株式会社,,株式会社,神奈川県,横浜市西区,浅間町１丁目４番地３ウィザードビル４０２,,14,103,2200072,,,,,,,2025-11-05,1,,,,,エイシンク,0
617,3021001086718,新規,0,2025-11-05,2025-11-05,株式会社ティー・ベース,,株式会社,神奈川県,綾瀬市,早川２０１４番地の１,,14,218,2521123,,,,,,,2025-11-05,1,,,,,ティーベース,0
618,3021001086726,新規,0,2025-11-05,2025-11-05,株式会社郷里,,株式会社,神奈川県,足柄下郡箱根町,湯本４６８番地の１０,,14,382,2500311,,,,,,,2025-11-05,1,,,,,キョウリ,0
621,3021003016763,新規,0,2025-11-05,2025-11-05,ＤＡＳＨＩ合同会社,,合同会社,神奈川県,平塚市,河内１丁目１３番９号,,14,203,2540903,,,,,,,2025-11-05,1,,,,,ダシ,0
637,3030003028000,新規,0,2025-11-05,2025-11-05,合同会社ＭＹＢ,,合同会社,埼玉県,さいたま市緑区,大字中尾９８番地８の２,,11,109,3360932,,,,,,,2025-11-05,1,,,,,エムワイビー,0
646,3060001038725,新規,0,2025-11-05,2025-11-05,株式会社ＳＴｅｋｋｉ,,株式会社,栃木県,大田原市,浅香３丁目３５７８番地１１４３,,09,210,3240043,,,,,,,2025-11-05,1,,,,,ステッキ,0
651,3080001027247,新規,0,2025-11-05,2025-11-05,株式会社エイチケー,,株式会社,静岡県,静岡市葵区,古庄５丁目１８番６３号,,22,101,4200812,,,,,,,2025-11-05,1,,,,,エイチケー,0
653,3080101025877,新規,0,2025-11-05,2025-11-05,株式会社ＭＪ,,株式会社,静岡県,沼津市,本字松下七反田９０２番地の９,,22,203,4100867,,,,,,,2025-11-05,1,,,,,エムジェイ,0
656,3100003008457,新規,0,2025-11-05,2025-11-05,ＨＡＫＵＢＡ　ＲＥＮＴＡＬ合同会社,,合同会社,長野県,北安曇郡白馬村,大字北城３０２０－８１８,,20,485,3999301,,,,,,,2025-11-05,1,,,,,ハクバレンタル,0
657,3100005013414,新規,0,2025-11-05,2025-11-05,一般社団法人日本足圧健美心協会,,その他の設立登記法人,長野県,松本市,大字稲倉１３７－１,,20,202,3900301,,,,,,,2025-11-05,1,,,,,ニホンソクアツケンビシンキョウカイ,0
667,3120001281442,新規,0,2025-11-05,2025-11-05,株式会社ＴＳＵＮＡＧＩ,,株式会社,大阪府,大阪市北区,中津６丁目４－１０－３０１,,27,127,5310071,,,,,,,2025-11-05,1,,,,,ツナギ,0
668,3120001281566,新規,0,2025-11-05,2025-11-05,株式会社ウイングルーム,,株式会社,大阪府,大阪市浪速区,湊町２丁目２－５－ｃ－２４０４,,27,111,5560017,,,,,,,2025-11-05,1,,,,,ウイングルーム,0
669,3120001281748,新規,0,2025-11-05,2025-11-05,株式会社ＮＡＲＡＳＥ,,株式会社,大阪府,大阪市天王寺区,堀越町１２番５号うを新ビル１階,,27,109,5430056,,,,,,,2025-11-05,1,,,,,ナラセ,0
673,3120003031069,新規,0,2025-11-05,2025-11-05,合同会社未来ネットシステム,,合同会社,大阪府,枚方市,中宮東之町１３番３号,,27,210,5731195,,,,,,,2025-11-05,1,,,,,ミライネットシステム,0
674,3120003031119,新規,0,2025-11-05,2025-11-05,壹肆漆日本金融投資管理合同会社,00141396,合同会社,大阪府,大阪市天王寺区,味原町１３－９サンエイ下味原第二ビルＢＩＺｃｏｍｆｏｒｔ鶴橋３Ｆ－０９号室,,27,109,5430023,,,,,,,2025-11-05,1,,,,,イースーチーニホンキンユウトウシカンリ,0
693,3140001140654,新規,0,2025-11-05,2025-11-05,株式会社Ｐｉｎｅｌｍａ,,株式会社,兵庫県,尼崎市,水堂町１丁目３０番地４１－４号,,28,202,6610026,,,,,,,2025-11-05,1,,,,,ピネルマ,0
694,3150001028519,新規,0,2025-11-05,2025-11-05,アユミナス株式会社,,株式会社,奈良県,大和郡山市,高田町９６番地７ローレルコート郡山９０１号,,29,203,6391132,,,,,,,2025-11-05,1,,,,,アユミナス,0
696,3160001027197,新規,0,2025-11-05,2025-11-05,Ｓ．Ｄテック株式会社,,株式会社,滋賀県,高島市,拝戸８３５番地,,25,212,5201132,,,,,,,2025-11-05,1,,,,,エスディーテック,0
700,3170001018856,新規,0,2025-11-05,2025-11-05,勝福株式会社,,株式会社,和歌山県,東牟婁郡那智勝浦町,大字築地４丁目３番地１,,30,421,6495335,,,,,,,2025-11-05,1,,,,,カツフク,0
705,3180001169335,新規,0,2025-11-05,2025-11-05,株式会社ＪＫウィスナ,,株式会社,愛知県,半田市,乙川殿町２２番地,,23,205,4750045,,,,,,,2025-11-05,1,,,,,ジェーキェーウィスナ,0
706,3180001169376,新規,0,2025-11-05,2025-11-05,ビルディングラボ株式会社,,株式会社,愛知県,名古屋市中区,栄４丁目１番８号栄サンシティービル１２階,,23,106,4600008,,,,,,,2025-11-05,1,,,,,ビルディングラボ,0
707,3180001169442,新規,0,2025-11-05,2025-11-05,ＢＡＧＵＳ株式会社,,株式会社,愛知県,春日井市,気噴町北２丁目１１３番地,,23,206,4870015,,,,,,,2025-11-05,1,,,,,バグース,0
712,3180003029248,新規,0,2025-11-05,2025-11-05,合同会社ＳＴ‐Ｐｒｏｍｏｔｉｏｎ,,合同会社,愛知県,名古屋市中区,橘１丁目１６‐４５プレサンスジ　ェネ上前津７０１,,23,106,4600016,,,,,,,2025-11-05,1,,,,,,0
713,3180003029306,新規,0,2025-11-05,2025-11-05,合同会社カワハツ水産,,合同会社,愛知県,名古屋市北区,若葉通４丁目１７‐２‐７０１,,23,103,4620854,,,,,,,2025-11-05,1,,,,,カワハツスイサン,0
718,3180303006797,新規,0,2025-11-05,2025-11-05,合同会社セカンドステラ,,合同会社,愛知県,豊橋市,富久縞町字西ノ坪１２７番地,,23,201,4418005,,,,,,,2025-11-05,1,,,,,,0
730,3260001040693,新規,0,2025-11-05,2025-11-05,株式会社さいさい,,株式会社,岡山県,倉敷市,児島味野城２丁目２０５９－３,,33,202,7110914,,,,,,,2025-11-05,1,,,,,サイサイ,0
731,3260001040710,新規,0,2025-11-05,2025-11-05,株式会社とよくに薬局,,株式会社,岡山県,美作市,豊国原３０７番地１,,33,215,7070015,,,,,,,2025-11-05,1,,,,,トヨクニヤッキョク,0
732,3260003005397,新規,0,2025-11-05,2025-11-05,合同会社Ｒａｙ,,合同会社,岡山県,岡山市北区,田町２丁目８－２４アルファステイツ西川緑道公園３０３,,33,101,7000825,,,,,,,2025-11-05,1,,,,,レイ,0
738,3290001112028,新規,0,2025-11-05,2025-11-05,株式会社ＳＵＦＵ,,株式会社,福岡県,福岡市博多区,博多駅前４丁目１８番１９号,,40,132,8120011,,,,,,,2025-11-05,1,,,,,スフ,0
739,3290001112077,新規,0,2025-11-05,2025-11-05,株式会社ＹＳ,,株式会社,福岡県,福岡市南区,井尻１丁目３８番２４号４０３号,,40,134,8111302,,,,,,,2025-11-05,1,,,,,ワイエス,0
741,3290003017638,新規,0,2025-11-05,2025-11-05,合同会社ＭＯＧＡＯ,,合同会社,福岡県,福岡市早良区,早良７丁目３２－２,,40,137,8111122,,,,,,,2025-11-05,1,,,,,モゴウ,0
742,3290003017654,新規,0,2025-11-05,2025-11-05,あおい合同会社,,合同会社,福岡県,久留米市,善導寺町飯田９０８番地２,,40,203,8390824,,,,,,,2025-11-05,1,,,,,アオイ,0
743,3290003017670,新規,0,2025-11-05,2025-11-05,合同会社オートサービス谷口,,合同会社,福岡県,宗像市,自由ヶ丘南２丁目４番地１４,,40,220,8114156,,,,,,,2025-11-05,1,,,,,オートサービスタニグチ,0
750,3290801031996,新規,0,2025-11-05,2025-11-05,株式会社ＡＬＬ,,株式会社,福岡県,北九州市小倉北区,大田町２番１４号,,40,106,8020015,,,,,,,2025-11-05,1,,,,,オール,0
751,3300001014404,新規,0,2025-11-05,2025-11-05,エステートルミナス株式会社,,株式会社,佐賀県,佐賀市,光１丁目７番３１号,,41,201,8400033,,,,,,,2025-11-05,1,,,,,エステートルミナス,0
762,3340001027749,新規,0,2025-11-05,2025-11-05,株式会社Ｎｏｍｏｔｏ　ＨＤ,,株式会社,鹿児島県,鹿児島市,泉町４番６号,,46,201,8920822,,,,,,,2025-11-05,1,,,,,ノモトホールディングス,0
763,3340003005001,新規,0,2025-11-05,2025-11-05,合同会社グリーンネイチャー,,合同会社,鹿児島県,薩摩郡さつま町,柏原２８３２－１,,46,392,8952104,,,,,,,2025-11-05,1,,,,,グリーンネイチャー,0
766,3370001053197,新規,0,2025-11-05,2025-11-05,株式会社フェルテック,,株式会社,宮城県,仙台市青葉区,大町２丁目１０番１４号,,04,101,9800804,,,,,,,2025-11-05,1,,,,,フェルテック,0
772,3390001018149,新規,0,2025-11-05,2025-11-05,株式会社ボーカル２ｎｄシーズン,,株式会社,山形県,東置賜郡川西町,大字小松８５０番地１,,06,382,9990133,,,,,,,2025-11-05,1,,,,,ボーカルセカンドシーズン,0
781,3430003018290,新規,0,2025-11-05,2025-11-05,合同会社ＴＥＲＵ,,合同会社,北海道,江別市,東野幌本町３番地１０陶管ビル２０２号室,,01,217,0690824,,,,,,,2025-11-05,1,,,,,テル,0
783,3450001014777,新規,0,2025-11-05,2025-11-05,株式会社ＩＭＯベーション,,株式会社,北海道,旭川市,永山一条２４丁目２－４,,01,204,0798411,,,,,,,2025-11-05,1,,,,,イモベーション,0
796,4010001259886,新規,0,2025-11-05,2025-11-05,オーシーズパートナー株式会社,,株式会社,東京都,千代田区,神田須田町１丁目７番８号ＶＯＲＴ秋葉原ＩＶ２Ｆ,00141389,13,101,1010041,,,,,,,2025-11-05,1,,,,,オーシーズパートナー,0
797,4010001259903,新規,0,2025-11-05,2025-11-05,丸基株式会社,,株式会社,東京都,中央区,新川２丁目１０番１－２６１１号,,13,102,1040033,,,,,,,2025-11-05,1,,,,,マルキ,0
798,4010001259944,新規,0,2025-11-05,2025-11-05,株式会社ｇｌｏｗ　ｃｒｙｓｔａｌ,,株式会社,東京都,中央区,銀座１丁目１２番４号Ｎ＆ＥＢＬＤ．６Ｆ,,13,102,1040061,,,,,,,2025-11-05,1,,,,,グロークリスタル,0
799,4010001259960,新規,0,2025-11-05,2025-11-05,株式会社Ｐｅｎｇｕｉｎ　Ｓｅｃｕｒｉｔｉｅｓ　Ｓｏｌｕｔｉｏｎｓ,,株式会社,東京都,中央区,日本橋兜町６番５号,,13,102,1030026,,,,,,,2025-11-05,1,,,,,ペンギンセキュリティーズソリューションズ,0
800,4010001260010,新規,0,2025-11-05,2025-11-05,ＪＡＰＡＮ　ＳＥＡＳＯＮＳ株式会社,,株式会社,東京都,中央区,銀座６丁目１４－８,,13,102,1040061,,,,,,,2025-11-05,1,,,,,ジャパンシーズンズ,0
801,4010001260051,新規,0,2025-11-05,2025-11-05,株式会社プロテクトスタンスパートナーズ,,株式会社,東京都,千代田区,有楽町２丁目１０番１号東京交通会館５階,,13,101,1000006,,,,,,,2025-11-05,1,,,,,プロテクトスタンスパートナーズ,0
803,4010003049253,新規,0,2025-11-05,2025-11-05,ラフテル合同会社,,合同会社,東京都,文京区,本駒込６丁目２１－２カスタリア本駒込４０２,,13,105,1130021,,,,,,,2025-11-05,1,,,,,ラフテル,0
805,4010005040895,新規,0,2025-11-05,2025-11-05,一般社団法人デケンベル,,その他の設立登記法人,東京都,千代田区,丸の内１丁目４番１号東京共同会計事務所内,,13,101,1000005,,,,,,,2025-11-05,1,,,,,デケンベル,0
819,4010403036512,新規,0,2025-11-05,2025-11-05,ＧＳＳＧ　Ｃｈｉｋｕｄｅｎ　ＢＥＳＳ３１合同会社,,合同会社,東京都,港区,高輪１丁目３番１３号ＮＢＦ高輪ビル７階,,13,103,1080074,,,,,,,2025-11-05,1,,,,,ジーエスエスジーチクデンビーイーエスエスサーティワン,0
820,4010403036520,新規,0,2025-11-05,2025-11-05,ＧＳＳＧ　Ｃｈｉｋｕｄｅｎ　ＢＥＳＳ３９合同会社,,合同会社,東京都,港区,高輪１丁目３番１３号ＮＢＦ高輪ビル７階,,13,103,1080074,,,,,,,2025-11-05,1,,,,,ジーエスエスジーチクデンビーイーエスエスサーティナイン,0
821,4010405024960,新規,0,2025-11-05,2025-11-05,ＧＳＳＧ　Ｃｈｉｋｕｄｅｎ　ＢＥＳＳ３４一般社団法人,,その他の設立登記法人,東京都,港区,赤坂１丁目１１番４４号赤坂インターシティ５階Ｆｏｒｖｉｓ・Ｍａｚａｒｓ・Ｊａｐａｎ株式会社内,,13,103,1070052,,,,,,,2025-11-05,1,,,,,ジーエスエスジーチクデンビーイーエスエスサーティフォー,0
822,4010405024969,新規,0,2025-11-05,2025-11-05,ＧＳＳＧ　Ｃｈｉｋｕｄｅｎ　ＢＥＳＳ４３一般社団法人,,その他の設立登記法人,東京都,港区,赤坂１丁目１１番４４号赤坂インターシティ５階Ｆｏｒｖｉｓ・Ｍａｚａｒｓ・Ｊａｐａｎ株式会社内,,13,103,1070052,,,,,,,2025-11-05,1,,,,,ジーエスエスジーチクデンビーイーエスエスフォーティスリー,0
825,4010501054960,新規,0,2025-11-05,2025-11-05,Ｃｒｙｐｔｏ　Ｌａｂ　Ｉｎｓｉｇｈｔ株式会社,,株式会社,東京都,台東区,三筋２丁目２０番６号ＴＲＵＳＴＳｈｉｎ－ｏｋａｃｈｉｍａｃｈｉ８０１,,13,106,1110055,,,,,,,2025-11-05,1,,,,,クリプトラボインサイト,0
836,4010901058396,新規,0,2025-11-05,2025-11-05,株式会社晴日屋,,株式会社,東京都,世田谷区,世田谷３丁目１２番１０号チェリーコート４０１,,13,112,1540017,,,,,,,2025-11-05,1,,,,,ハルヒヤ,0
841,4011001173425,新規,0,2025-11-05,2025-11-05,株式会社Ｓ＆Ｙ,,株式会社,東京都,渋谷区,道玄坂１丁目１０番８号渋谷道玄坂東急ビル２Ｆ－Ｃ,,13,113,1500043,,,,,,,2025-11-05,1,,,,,エスアンドワイ,0
844,4011005011242,新規,0,2025-11-05,2025-11-05,一般社団法人医療創進会,,その他の設立登記法人,東京都,渋谷区,恵比寿南２丁目９－４安島ビルＩＩ２Ｆ,00141383,13,113,1500022,,,,,,,2025-11-05,1,,,,,イリョウソウシンカイ,0
849,4011101112877,新規,0,2025-11-05,2025-11-05,株式会社サマチョコ,,株式会社,東京都,新宿区,西新宿３丁目３番１３号西新宿水間ビル６階,,13,104,1600023,,,,,,,2025-11-05,1,,,,,サマチョコ,0
857,4011303005763,新規,0,2025-11-05,2025-11-05,ＭＡＰＬＥ　ＧＡＬＬＥＲＹ合同会社,,合同会社,東京都,杉並区,大宮１丁目１番８号ＮＯＡビル１Ｆ,,13,115,1680061,,,,,,,2025-11-05,1,,,,,メープルギャラリー,0
859,4011603004911,新規,0,2025-11-05,2025-11-05,思言国際合同会社,,合同会社,東京都,練馬区,南大泉５丁目１６番３号,,13,120,1780064,,,,,,,2025-11-05,1,,,,,シゲンコクサイ,0
874,4020001165547,新規,0,2025-11-05,2025-11-05,Ａｃｔｉｖｅ　ｒｅｕｓｅ株式会社,,株式会社,神奈川県,横浜市港北区,篠原北２丁目１番１７号第三松葉ビル１Ｆ,,14,109,2220021,,,,,,,2025-11-05,1,,,,,アクティブリユース,0
875,4020001165646,新規,0,2025-11-05,2025-11-05,Ｔｓ株式会社,,株式会社,神奈川県,横浜市中区,野毛町１丁目３５番地５‐３Ｆ,,14,104,2310064,,,,,,,2025-11-05,1,,,,,ティーズ,0
880,4020003029709,新規,0,2025-11-05,2025-11-05,合同会社ＫＯＭＯＲＩ,,合同会社,神奈川県,横浜市青葉区,元石川町３７１３番地２２たつみハイツ２０１,,14,117,2250004,,,,,,,2025-11-05,1,,,,,コモリ,0
884,4021001086741,新規,0,2025-11-05,2025-11-05,株式会社ＨＴ工業,,株式会社,神奈川県,茅ヶ崎市,菱沼２丁目１６－６レオパレス菱沼１１５,,14,207,2530011,,,,,,,2025-11-05,1,,,,,エイチティコウギョウ,0
886,4021003016770,新規,0,2025-11-05,2025-11-05,合同会社ＭＭ　Ｗｏｒｋｓ,,合同会社,神奈川県,鎌倉市,御成町１１－２ヤノヤビル２Ｆ,,14,204,2480012,,,,,,,2025-11-05,1,,,,,エムエムワークス,0
893,4030001169480,新規,0,2025-11-05,2025-11-05,エクシア株式会社,,株式会社,埼玉県,川口市,大字東本郷１５８７番地の１１峯松ハイツＩＩＩ１号,00141381,11,203,3340063,,,,,,,2025-11-05,1,,,,,エクシア,0
894,4030001169530,新規,0,2025-11-05,2025-11-05,株式会社Ｎｅｏｔｏｕｃｈ,,株式会社,埼玉県,川口市,安行出羽４丁目３番６号,,11,203,3340052,,,,,,,2025-11-05,1,,,,,ネオタッチ,0
901,4030005022322,新規,0,2025-11-05,2025-11-05,一般社団法人ルーチェ,,その他の設立登記法人,埼玉県,さいたま市見沼区,大字南中丸字台５８６番６,,11,104,3370041,,,,,,,2025-11-05,1,,,,,ルーチェ,0
913,4070001043517,新規,0,2025-11-05,2025-11-05,株式会社Ｂｅｌｌｅｒｏａｒ,,株式会社,群馬県,高崎市,通町３３番地２Ｆ－Ｄ,,10,202,3700053,,,,,,,2025-11-05,1,,,,,ベルロア,0
919,4080001027246,新規,0,2025-11-05,2025-11-05,株式会社あおい出版,,株式会社,静岡県,静岡市葵区,追手町２番２０号ヤマムラビル追手町９階,,22,101,4200853,,,,,,,2025-11-05,1,,,,,アオイシュッパン,0
921,4080101025876,新規,0,2025-11-05,2025-11-05,株式会社スズキメカニカル,,株式会社,静岡県,富士宮市,富士見ケ丘５４６番地の２,,22,207,4180014,,,,,,,2025-11-05,1,,,,,スズキメカニカル,0
922,4090001019597,新規,0,2025-11-05,2025-11-05,株式会社フリーダム,,株式会社,山梨県,甲府市,大里町４４９２番地マイタウン向山Ｃ,,19,201,4000053,,,,,,,2025-11-05,1,,,,,フリーダム,0
935,4120001281763,新規,0,2025-11-05,2025-11-05,株式会社チャーターリンク,,株式会社,大阪府,大阪市北区,梅田２丁目２番２号ヒルトンプラザウエスト１８階,,27,127,5300001,,,,,,,2025-11-05,1,,,,,チャーターリンク,0
938,4120003031076,新規,0,2025-11-05,2025-11-05,合同会社ＭＡＤＤＥＲ,,合同会社,大阪府,大阪市中央区,東平２丁目５－５盛川ビル４階,,27,128,5420063,,,,,,,2025-11-05,1,,,,,マダー,0
939,4120003031134,新規,0,2025-11-05,2025-11-05,ＪＡＰＡＮ　ＨＯＬＩＤＡＹ合同会社,,合同会社,大阪府,大阪市生野区,巽南２丁目１－３６,00141385,27,116,5440015,,,,,,,2025-11-05,1,,,,,ジャパンホリデー,0
954,4130005017510,新規,0,2025-11-05,2025-11-05,一般社団法人里山ギルド,,その他の設立登記法人,京都府,福知山市,字三俣４５４番地,,26,201,6200821,,,,,,,2025-11-05,1,,,,,サトヤマギルド,0
955,4140001140620,新規,0,2025-11-05,2025-11-05,株式会社ホムラボ,,株式会社,兵庫県,姫路市,飾磨区玉地１丁目７番地メゾンサカタ１Ｆ,,28,201,6728052,,,,,,,2025-11-05,1,,,,,ホムラボ,0
963,4180001169409,新規,0,2025-11-05,2025-11-05,株式会社Ｄｏｗｙｌｏ,,株式会社,愛知県,名古屋市天白区,平針１丁目２１０番地の３,,23,116,4680011,,,,,,,2025-11-05,1,,,,,ダウィロ,0
967,4180303006788,新規,0,2025-11-05,2025-11-05,合同会社Ａｍａｎｔａ,,合同会社,愛知県,知立市,谷田町本林２丁目８－３,,23,225,4720015,,,,,,,2025-11-05,1,,,,,,0
969,4200003007126,新規,0,2025-11-05,2025-11-05,合同会社ハウスプロ,,合同会社,岐阜県,可児市,瀬田１９５番地１,,21,214,5090213,,,,,,,2025-11-05,1,,,,,ハウスプロ,0
970,4210001020369,新規,0,2025-11-05,2025-11-05,株式会社ＵＮＡＣＸＳ,,株式会社,福井県,敦賀市,白銀町５番２６号,,18,202,9140054,,,,,,,2025-11-05,1,,,,,ウナシス,0
972,4220001027000,新規,0,2025-11-05,2025-11-05,株式会社ａｒｃｅ,,株式会社,石川県,金沢市,片町１丁目１番２９号香林坊ファーストビル２Ｆ,,17,201,9200981,,,,,,,2025-11-05,1,,,,,アルセ,0
973,4220005001273,新規,0,2025-11-05,2025-11-05,石川県開拓農業協同組合,,その他の設立登記法人,石川県,金沢市,広坂１丁目７番１号,,17,201,9200962,,,,,,,2025-11-05,1,,,,,イシカワケンカイタク,0
987,4270001009324,新規,0,2025-11-05,2025-11-05,株式会社トリインフィニティ,,株式会社,鳥取県,東伯郡湯梨浜町,はわい長瀬１８５０番地１６,,31,370,6820722,,,,,,,2025-11-05,1,,,,,トリインフィニティ,0
991,4290001111920,新規,0,2025-11-05,2025-11-05,ＬＩＮＸ　Ｂ株式会社,,株式会社,福岡県,福岡市城南区,田島４丁目１４番２４－２０４号,,40,136,8140113,,,,,,,2025-11-05,1,,,,,リンクス,0
992,4290001112010,新規,0,2025-11-05,2025-11-05,Ｔ＆Ｔ不動産開発株式会社,,株式会社,福岡県,福岡市東区,箱崎７丁目２番２３号,,40,131,8120053,,,,,,,2025-11-05,1,,,,,ティーアンドティーフドウサンカイハツ,0
993,4290001112019,新規,0,2025-11-05,2025-11-05,株式会社にじいろのたね,,株式会社,福岡県,福岡市中央区,薬院２丁目１８番１０－１０１号,,40,133,8100022,,,,,,,2025-11-05,1,,,,,ニジイロノタネ,0
994,4290001112027,新規,0,2025-11-05,2025-11-05,株式会社福志,,株式会社,福岡県,福岡市中央区,清川３丁目９－１５－３０８,,40,133,8100005,,,,,,,2025-11-05,1,,,,,フクシ,0
995,4290001112051,新規,0,2025-11-05,2025-11-05,株式会社こうはく,,株式会社,福岡県,朝倉市,比良松４３９番地１,,40,228,8381303,,,,,,,2025-11-05,1,,,,,コウハク,0
996,4290001112076,新規,0,2025-11-05,2025-11-05,ＲｅＦｉｎａｎｃｅ　Ｊａｐａｎ株式会社,,株式会社,福岡県,福岡市博多区,千代４丁目１０番２４号,,40,132,8120044,,,,,,,2025-11-05,1,,,,,リファイナンスジャパン,0
1000,4290003017629,新規,0,2025-11-05,2025-11-05,合同会社笑顔の結,,合同会社,福岡県,宗像市,田島１７４８番地６,,40,220,8113505,,,,,,,2025-11-05,1,,,,,エガオノユイ,0
1001,4290003017637,新規,0,2025-11-05,2025-11-05,合同会社浅井クリエイト企画,,合同会社,福岡県,うきは市,吉井町７０７－４,,40,225,8391321,,,,,,,2025-11-05,1,,,,,アサイクリエイトキカク,0
1002,4290003017645,新規,0,2025-11-05,2025-11-05,合同会社ユニオン,,合同会社,福岡県,宗像市,鐘崎２１９番地６,,40,220,8113512,,,,,,,2025-11-05,1,,,,,,0
1003,4290003017653,新規,0,2025-11-05,2025-11-05,合同会社セントラルパーク,,合同会社,福岡県,福岡市西区,石丸３丁目７番２２号,,40,135,8190025,,,,,,,2025-11-05,1,,,,,セントラルパーク,0
1004,4290003017661,新規,0,2025-11-05,2025-11-05,合同会社ｏｗｎ　ｌｉｆｅ．,,合同会社,福岡県,糸島市,篠原東１丁目２４番１７号,,40,230,8191128,,,,,,,2025-11-05,1,,,,,オウンライフ,0
1006,4290801031979,新規,0,2025-11-05,2025-11-05,株式会社龍徳,00141379,株式会社,福岡県,直方市,大字赤地４３６番地１４３,,40,204,8220012,,,,,,,2025-11-05,1,,,,,リュウトク,0
1007,4290801031995,新規,0,2025-11-05,2025-11-05,株式会社いずく,,株式会社,福岡県,北九州市小倉北区,竪町２丁目４番３号ギャラン竪町ネオ２０２１号室,,40,106,8030818,,,,,,,2025-11-05,1,,,,,イズク,0
1008,4290801032011,新規,0,2025-11-05,2025-11-05,ＫＹＳアセット株式会社,,株式会社,福岡県,北九州市小倉北区,馬借１丁目１１番６号,,40,106,8020077,,,,,,,2025-11-05,1,,,,,ケイワイエスアセット,0
1011,4330003011288,新規,0,2025-11-05,2025-11-05,合同会社ＦＬＡＲＥ　ｎｅｘｔ,,合同会社,熊本県,熊本市中央区,内坪井町６－２０オークスコーポ１０７,,43,101,8600077,,,,,,,2025-11-05,1,,,,,フレアネクスト,0
1012,4330005010965,新規,0,2025-11-05,2025-11-05,一般社団法人地域活性化研究所,,その他の設立登記法人,熊本県,菊池市,隈府２９５番地,,43,210,8611331,,,,,,,2025-11-05,1,,,,,チイキカッセイカケンキュウショ,0
1020,4390001018148,新規,0,2025-11-05,2025-11-05,株式会社太心堂,,株式会社,山形県,天童市,南町２丁目７番５号,,06,210,9940049,,,,,,,2025-11-05,1,,,,,タイシンドウ,0
1034,4450001014776,新規,0,2025-11-05,2025-11-05,株式会社Ｒ’ｓ,,株式会社,北海道,旭川市,豊岡九条７丁目８番１１号,,01,204,0788239,,,,,,,2025-11-05,1,,,,,アールズ,0
1038,4480003002347,新規,0,2025-11-05,2025-11-05,佐々木保険サービス合同会社,,合同会社,徳島県,阿南市,那賀川町島尻１２５２番地,,36,204,7791117,,,,,,,2025-11-05,1,,,,,ササキホケンサービス,0
1041,4700150132849,新規,0,2025-11-05,2025-11-05,新長浜団地マンション敷地売却組合,,その他,福岡県,福岡市中央区,天神５丁目３番１号　福岡県住宅供給公社建設事業部内,,40,133,8100001,,,,,,,2025-11-05,1,,,,,シンナガハマダンチマンシヨンシキチバイキヤククミアイ,0
1061,5010403036528,新規,0,2025-11-05,2025-11-05,ＧＳＳＧ　Ｓｏｌａｒ　Ｊａｐａｎ　Ｈｏｌｄｉｎｇｓ１０‐４ＢＥＳＳ合同会社,,合同会社,東京都,港区,高輪１丁目３番１３号ＮＢＦ高輪ビル７階,,13,103,1080074,,,,,,,2025-11-05,1,,,,,ジーエスエスジーソーラージャパンホールディングステンフォービーイーエスエス,0
1062,5010405024968,新規,0,2025-11-05,2025-11-05,ＧＳＳＧ　Ｃｈｉｋｕｄｅｎ　ＢＥＳＳ４２一般社団法人,,その他の設立登記法人,東京都,港区,赤坂１丁目１１番４４号赤坂インターシティ５階Ｆｏｒｖｉｓ・Ｍａｚａｒｓ・Ｊａｐａｎ株式会社内,,13,103,1070052,,,,,,,2025-11-05,1,,,,,ジーエスエスジーチクデンビーイーエスエスフォーティツー,0
1064,5010501054968,新規,0,2025-11-05,2025-11-05,株式会社ＮＯＲＩＴＯ,,株式会社,東京都,台東区,浅草３丁目３２番３号Ｔ’Ｓマンション３０２,,13,106,1110032,,,,,,,2025-11-05,1,,,,,ノリト,0
1065,5010505003657,新規,0,2025-11-05,2025-11-05,一般社団法人亜洲太平洋生態連盟,,その他の設立登記法人,東京都,台東区,北上野２丁目１１番１４号小松上野ビル,,13,106,1100014,,,,,,,2025-11-05,1,,,,,アジアタイヘイヨウセイタイレンメイ,0
1070,5010803005594,新規,0,2025-11-05,2025-11-05,ＳＴＥＰ　ｏｎｅ合同会社,,合同会社,東京都,大田区,上池台２丁目３３－３ロイヤルパレス洗足池２０５号室,,13,111,1450064,,,,,,,2025-11-05,1,,,,,ステップワン,0
1071,5010901058370,新規,0,2025-11-05,2025-11-05,株式会社さくら移動サポート,,株式会社,東京都,世田谷区,赤堤５丁目３５番５号,,13,112,1560044,,,,,,,2025-11-05,1,,,,,サクライドウサポート,0
1078,5011001173283,新規,0,2025-11-05,2025-11-05,株式会社Ｌａｙｔｉｅｒ,,株式会社,東京都,渋谷区,神南１丁目１１番４号ＦＰＧリンクス神南５階,,13,113,1500041,,,,,,,2025-11-05,1,,,,,レイティア,0
1079,5011001173300,新規,0,2025-11-05,2025-11-05,株式会社ＰＯＰＧＡＴＥ,,株式会社,東京都,渋谷区,道玄坂１丁目１０番８号渋谷道玄坂東急ビル２Ｆ－Ｃ,,13,113,1500043,,,,,,,2025-11-05,1,,,,,ポップゲート,0
1080,5011001173309,新規,0,2025-11-05,2025-11-05,株式会社ｉｎｎｏｃｅｎｔ,,株式会社,東京都,渋谷区,神山町３番４号ビオトープ１０１,,13,113,1500047,,,,,,,2025-11-05,1,,,,,イノセント,0
1081,5011003022793,新規,0,2025-11-05,2025-11-05,合同会社Ｕ．Ｃ．Ｇ．,,合同会社,東京都,渋谷区,神南１丁目１１－４ＦＰＧリンクス神南５階,,13,113,1500041,,,,,,,2025-11-05,1,,,,,ユーシージー,0
1082,5011003022802,新規,0,2025-11-05,2025-11-05,合同会社美芯,,合同会社,東京都,渋谷区,東３丁目２６－４－５Ｆ,,13,113,1500011,,,,,,,2025-11-05,1,,,,,ビシン,0
1083,5011003022892,新規,0,2025-11-05,2025-11-05,Ｓｈｉｚｕｋｕ　ＡＩ　ＪＡＰＡＮ合同会社,,合同会社,東京都,渋谷区,円山町５番３号,,13,113,1500044,,,,,,,2025-11-05,1,,,,,シズクエーアイジャパン,0
1092,5011101113825,新規,0,2025-11-05,2025-11-05,株式会社Ｗｅｂ幹事,,株式会社,東京都,新宿区,新宿１丁目３４番５号ＶｅｒｄｅＶｉｓｔａ新宿御苑２階,,13,104,1600022,,,,,,,2025-11-05,1,,,,,ウェブカンジ,0
1093,5011103016670,新規,0,2025-11-05,2025-11-05,合同会社ひたち野うしくプロジェクト,,合同会社,東京都,新宿区,四谷２丁目９番地１５東京ユナイテッド綜合事務所内,,13,104,1600004,,,,,,,2025-11-05,1,,,,,ヒタチノウシクプロジェクト,0
1105,5011801047001,新規,0,2025-11-05,2025-11-05,株式会社ａｎｎ,,株式会社,東京都,足立区,平野３丁目１４番１９号,,13,121,1210076,,,,,,,2025-11-05,1,,,,,アン,0
1106,5011803007168,新規,0,2025-11-05,2025-11-05,合同会社Ｂｌｕｅ　Ｄｅｓｉｇｎ,,合同会社,東京都,足立区,青井６丁目２４－１９,,13,121,1210012,,,,,,,2025-11-05,1,,,,,ブルーデザイン,0
1126,5020001165554,新規,0,2025-11-05,2025-11-05,株式会社モールジョブ,,株式会社,神奈川県,横浜市港北区,新横浜２丁目５－１９,,14,109,2220033,,,,,,,2025-11-05,1,,,,,モールジョブ,0
1127,5020001165612,新規,0,2025-11-05,2025-11-05,株式会社ｉｎｆｉｎｉ,,株式会社,神奈川県,川崎市高津区,久本３丁目４番３－６０７号,,14,134,2130011,,,,,,,2025-11-05,1,,,,,アンフィニ,0
1128,5020001165645,新規,0,2025-11-05,2025-11-05,広燦株式会社,,株式会社,神奈川県,横浜市南区,中村町３丁目２０３－１０,,14,105,2320033,,,,,,,2025-11-05,1,,,,,コウサン,0
1129,5020001165661,新規,0,2025-11-05,2025-11-05,株式会社ＴＳＵＮＡＧＵ,,株式会社,神奈川県,横浜市青葉区,美しが丘５丁目１番地６７,,14,117,2250002,,,,,,,2025-11-05,1,,,,,ツナグ,0
1132,5020003029583,新規,0,2025-11-05,2025-11-05,合同会社ＦｅＬｉｃｅ,,合同会社,神奈川県,横浜市西区,北幸２丁目１０－４８むつみビル３Ｆ,,14,103,2200004,,,,,,,2025-11-05,1,,,,,フェリーチェ,0
1133,5020005017017,新規,0,2025-11-05,2025-11-05,一般社団法人ＬＩＮＫ　ＦＯＯＤ,,その他の設立登記法人,神奈川県,横浜市保土ケ谷区,星川３丁目８－１和田町駅前ビル４Ｅ,,14,106,2400006,,,,,,,2025-11-05,1,,,,,リンクフード,0
1144,5030001169397,新規,0,2025-11-05,2025-11-05,六ッ來株式会社,,株式会社,埼玉県,越谷市,大字下間久里８２９番地１０,,11,222,3430045,,,,,,,2025-11-05,1,,,,,ムック,0
1145,5030001169488,新規,0,2025-11-05,2025-11-05,株式会社ベジぐり,,株式会社,埼玉県,八潮市,八潮７丁目８番地７,,11,234,3400815,,,,,,,2025-11-05,1,,,,,ベジグリ,0
1146,5030001169496,新規,0,2025-11-05,2025-11-05,株式会社羽香,,株式会社,埼玉県,蕨市,北町１丁目２５番１２－１０８号,,11,223,3350001,,,,,,,2025-11-05,1,,,,,ウカ,0
1147,5030001169505,新規,0,2025-11-05,2025-11-05,株式会社ミラス工業,,株式会社,埼玉県,川越市,旭町３丁目１７－６７,,11,201,3501126,,,,,,,2025-11-05,1,,,,,ミラスコウギョウ,0
1148,5030001169513,新規,0,2025-11-05,2025-11-05,まるい株式会社,,株式会社,埼玉県,さいたま市中央区,下落合６丁目１２番２０号ＡＬＶＥＡＲＥ,,11,105,3380002,,,,,,,2025-11-05,1,,,,,マルイ,0
1149,5030001169521,新規,0,2025-11-05,2025-11-05,医療事務ホメロス株式会社,,株式会社,埼玉県,蕨市,南町３丁目１５番１４号,,11,223,3350003,,,,,,,2025-11-05,1,,,,,イリョウジムホメロス,0
1152,5030003027900,新規,0,2025-11-05,2025-11-05,合同会社フロイデ吉川,,合同会社,埼玉県,吉川市,美南２丁目２８番１シティテラス吉川美南７０７号,,11,243,3420038,,,,,,,2025-11-05,1,,,,,フロイデヨシカワ,0
1161,5050003009723,新規,0,2025-11-05,2025-11-05,マスダハレ合同会社,,合同会社,茨城県,土浦市,東都和１番地４,,08,203,3000067,,,,,,,2025-11-05,1,,,,,マスダハレ,0
1162,5050003009731,新規,0,2025-11-05,2025-11-05,ＦＬＥＸＣＥＥＤ　ＷＯＲＫＳ合同会社,,合同会社,茨城県,那珂市,戸６７０７番地１,,08,226,3110122,,,,,,,2025-11-05,1,,,,,フレクシードワークス,0
1167,5070001043508,新規,0,2025-11-05,2025-11-05,株式会社絆,,株式会社,群馬県,高崎市,新町７０２番地８,,10,202,3701301,,,,,,,2025-11-05,1,,,,,キズナ,0
1170,5080001027245,新規,0,2025-11-05,2025-11-05,ヤマサ農園株式会社,,株式会社,静岡県,静岡市葵区,慈悲尾３４５番地,,22,101,4211211,,,,,,,2025-11-05,1,,,,,ヤマサノウエン,0
1178,5110001039690,新規,0,2025-11-05,2025-11-05,だいふくキャリアサポート株式会社,,株式会社,新潟県,上越市,藤巻９番５号,,15,222,9430817,,,,,,,2025-11-05,1,,,,,ダイフクキャリアサポート,0
1185,5120001281580,新規,0,2025-11-05,2025-11-05,ＤＳＬ　ＲＥＡＬＴＹ株式会社,,株式会社,大阪府,大阪市北区,西天満２丁目６番８号堂島ビルヂング６Ｆ新東京国際リーガル内,,27,127,5300047,,,,,,,2025-11-05,1,,,,,ディーエスエルリアルティ,0
1186,5120001281721,新規,0,2025-11-05,2025-11-05,株式会社エプロンポッケ,,株式会社,大阪府,大阪市北区,豊崎３丁目１６番１６号ブランズタワー梅田Ｎｏｒｔｈ４２０４,,27,127,5310072,,,,,,,2025-11-05,1,,,,,エプロンポッケ,0
1187,5120001281770,新規,0,2025-11-05,2025-11-05,株式会社大阪ブルテオン,,株式会社,大阪府,大阪市北区,末広町２番４０号ＰａｎａｓｏｎｉｃＸＣＯＳＡＫＡ,,27,127,5300053,,,,,,,2025-11-05,1,,,,,オオサカブルテオン,0
1205,5122001039892,新規,0,2025-11-05,2025-11-05,株式会社上野建築構造,,株式会社,大阪府,八尾市,東山本町４丁目２番８－３０４号,,27,212,5810847,,,,,,,2025-11-05,1,,,,,ウエノケンチクコウゾウ,0
1215,5150001028509,新規,0,2025-11-05,2025-11-05,ＺｏｏＭ　ＡｌｌｉＡｎｃｅ株式会社,,株式会社,奈良県,北葛城郡上牧町,大字上牧３７２４－２北２－１３号,,29,424,6390214,,,,,,,2025-11-05,1,,,,,ズームアライアンス,0
1218,5170001018862,新規,0,2025-11-05,2025-11-05,わくわくＬＡＢ株式会社,,株式会社,和歌山県,和歌山市,黒田１８５－３,,30,201,6408341,,,,,,,2025-11-05,1,,,,,ワクワクラボ,0
1231,5180303006795,新規,0,2025-11-05,2025-11-05,合同会社フューチャーワークス,,合同会社,愛知県,刈谷市,小垣江町荒畑２１番地２,,23,210,4480813,,,,,,,2025-11-05,1,,,,,,0
1237,5200001044392,新規,0,2025-11-05,2025-11-05,株式会社ＴＢファーム,,株式会社,岐阜県,郡上市,八幡町吉野１４５７番地１,,21,219,5014206,,,,,,,2025-11-05,1,,,,,ティービーファーム,0
1250,5270001009323,新規,0,2025-11-05,2025-11-05,株式会社いこい,,株式会社,鳥取県,鳥取市,福部町湯山１０５番地,,31,201,6890105,,,,,,,2025-11-05,1,,,,,イコイ,0
1261,5290003017628,新規,0,2025-11-05,2025-11-05,合同会社おもち,,合同会社,福岡県,福岡市中央区,天神２丁目２－１２Ｔ＆Ｊビルディング７Ｆ,,40,133,8100001,,,,,,,2025-11-05,1,,,,,オモチ,0
1262,5290003017660,新規,0,2025-11-05,2025-11-05,ＴＳ企画合同会社,,合同会社,福岡県,那珂川市,仲１丁目１３４番地（フレグランス那珂川Ｃ棟１０２号）,,40,231,8111253,,,,,,,2025-11-05,1,,,,,,0
1263,5290003017669,新規,0,2025-11-05,2025-11-05,合同会社ｓａｋｕｒａプランニング,,合同会社,福岡県,宗像市,自由ヶ丘８丁目９番地２,,40,220,8114163,,,,,,,2025-11-05,1,,,,,サクラプランニング,0
1265,5290801032002,新規,0,2025-11-05,2025-11-05,株式会社ＭＦＪ,,株式会社,福岡県,北九州市戸畑区,浅生２丁目１０番１１号,,40,105,8040062,,,,,,,2025-11-05,1,,,,,エムエフジェー,0
1266,5300001014402,新規,0,2025-11-05,2025-11-05,株式会社かねこ,,株式会社,佐賀県,小城市,三日月町金田１１５６番地９,,41,208,8450032,,,,,,,2025-11-05,1,,,,,カネコ,0
1271,5310001019838,新規,0,2025-11-05,2025-11-05,株式会社田浦商店,,株式会社,長崎県,島原市,上新丁３丁目４１０２番地,,42,203,8550067,,,,,,,2025-11-05,1,,,,,タウラショウテン,0
1277,5340001027747,新規,0,2025-11-05,2025-11-05,株式会社ＷＥＳＴ,,株式会社,鹿児島県,鹿児島市,玉里団地３丁目５番１９号１Ｆ,,46,201,8920811,,,,,,,2025-11-05,1,,,,,ウエスト,0
1281,5370001053204,新規,0,2025-11-05,2025-11-05,株式会社大耀工務店,,株式会社,宮城県,仙台市太白区,山田上ノ台町８番３０号,,04,104,9820815,,,,,,,2025-11-05,1,,,,,ダイヨウコウムテン,0
1287,5410001014317,新規,0,2025-11-05,2025-11-05,ＦＤＣＧＲＯＵＰ株式会社,,株式会社,秋田県,秋田市,外旭川字三後田２５１番地,,05,201,0100802,,,,,,,2025-11-05,1,,,,,エフディシーグループ,0
1298,5430003018289,新規,0,2025-11-05,2025-11-05,デジタルコタン合同会社,,合同会社,北海道,札幌市中央区,南五条西１５丁目２－３－５０３,,01,101,0640805,,,,,,,2025-11-05,1,,,,,デジタルコタン,0
1301,5460301005317,新規,0,2025-11-05,2025-11-05,株式会社らふりーど,,株式会社,北海道,北見市,田端町３５番地２８,,01,208,0900802,,,,,,,2025-11-05,1,,,,,ラフリード,0
1303,5500001026609,新規,0,2025-11-05,2025-11-05,株式会社ｍ‐ｌｉｎｅ,,株式会社,愛媛県,松山市,来住町１３７２番地１２,,38,201,7911102,,,,,,,2025-11-05,1,,,,,エムライン,0
1306,5700150132848,新規,0,2025-11-05,2025-11-05,桑名市播磨西部土地区画整理組合,,その他,三重県,桑名市,中央町２丁目３６番地,,24,205,5110068,,,,,,,2025-11-05,1,,,,,クワナシハリマセイブトチクカクセイリクミアイ,0
1319,6010001259983,新規,0,2025-11-05,2025-11-05,グロップ＆えびのやフーズ株式会社,,株式会社,東京都,中央区,銀座１丁目３番９号,,13,102,1040061,,,,,,,2025-11-05,1,,,,,グロップアンドエビノヤフーズ,0
1332,6010403036519,新規,0,2025-11-05,2025-11-05,ＧＳＳＧ　Ｃｈｉｋｕｄｅｎ　ＢＥＳＳ３８合同会社,,合同会社,東京都,港区,高輪１丁目３番１３号ＮＢＦ高輪ビル７階,,13,103,1080074,,,,,,,2025-11-05,1,,,,,ジーエスエスジーチクデンビーイーエスエスサーティエイト,0
1333,6010403036527,新規,0,2025-11-05,2025-11-05,ＧＳＳＧ　Ｓｏｌａｒ　Ｊａｐａｎ　Ｈｏｌｄｉｎｇｓ１０‐３ＢＥＳＳ合同会社,,合同会社,東京都,港区,高輪１丁目３番１３号ＮＢＦ高輪ビル７階,,13,103,1080074,,,,,,,2025-11-05,1,,,,,ジーエスエスジーソーラージャパンホールディングステンスリービーイーエスエス,0
1334,6010405024959,新規,0,2025-11-05,2025-11-05,ＧＳＳＧ　Ｃｈｉｋｕｄｅｎ　ＢＥＳＳ３３一般社団法人,,その他の設立登記法人,東京都,港区,赤坂１丁目１１番４４号赤坂インターシティ５階Ｆｏｒｖｉｓ・Ｍａｚａｒｓ・Ｊａｐａｎ株式会社内,,13,103,1070052,,,,,,,2025-11-05,1,,,,,ジーエスエスジーチクデンビーイーエスエスサーティスリー,0
1335,6010405024967,新規,0,2025-11-05,2025-11-05,ＧＳＳＧ　Ｃｈｉｋｕｄｅｎ　ＢＥＳＳ４１一般社団法人,,その他の設立登記法人,東京都,港区,赤坂１丁目１１番４４号赤坂インターシティ５階Ｆｏｒｖｉｓ・Ｍａｚａｒｓ・Ｊａｐａｎ株式会社内,,13,103,1070052,,,,,,,2025-11-05,1,,,,,ジーエスエスジーチクデンビーイーエスエスフォーティワン,0
1357,6011001172788,新規,0,2025-11-05,2025-11-05,株式会社Ｐ．Ｂプロダクト,,株式会社,東京都,渋谷区,渋谷３丁目６番１８号第四矢木ビル５階,,13,113,1500002,,,,,,,2025-11-05,1,,,,,ピービープロダクト,0
1358,6011001173274,新規,0,2025-11-05,2025-11-05,アシスタパートナーズ株式会社,,株式会社,東京都,渋谷区,道玄坂１丁目１０番８号渋谷道玄坂東急ビル２Ｆ－Ｃ,,13,113,1500043,,,,,,,2025-11-05,1,,,,,アシスタパートナーズ,0
1359,6011001173290,新規,0,2025-11-05,2025-11-05,株式会社Ｓｅｌｆｉｔ　Ｊａｐａｎ,,株式会社,東京都,渋谷区,桜丘町１５番１４号フジビル４０－７Ｆ,,13,113,1500031,,,,,,,2025-11-05,1,,,,,セルフィットジャパン,0
1360,6011001173299,新規,0,2025-11-05,2025-11-05,株式会社日本プレミアムナース協会,,株式会社,東京都,渋谷区,道玄坂１丁目１６－６,,13,113,1500043,,,,,,,2025-11-05,1,,,,,ニホンプレミアムナースキョウカイ,0
1361,6011001173555,新規,0,2025-11-05,2025-11-05,株式会社ＢＵＳＩＮＥＳＳ　ＡＴＨＬＥＴＥ,,株式会社,東京都,渋谷区,広尾４丁目１－４広尾ガーデンヒルズＣ棟２０４,,13,113,1500012,,,,,,,2025-11-05,1,,,,,ビジネスアスリート,0
1362,6011003022900,新規,0,2025-11-05,2025-11-05,ＡｉｒＴｒｕｎｋ　ＯＳＫ２合同会社,,合同会社,東京都,渋谷区,円山町３番６号Ｅ・スペースタワー,,13,113,1500044,,,,,,,2025-11-05,1,,,,,エアトランクオーエスケーツー,0
1364,6011101113790,新規,0,2025-11-05,2025-11-05,株式会社禊月堂,,株式会社,東京都,新宿区,西新宿３丁目３番１３号西新宿水間ビル２Ｆ,,13,104,1600023,,,,,,,2025-11-05,1,,,,,ケイゲツドウ,0
1375,6011501032789,新規,0,2025-11-05,2025-11-05,ＴｒａｎｓＬｉｎｋ株式会社,,株式会社,東京都,北区,王子３丁目１番１６号,,13,117,1140002,,,,,,,2025-11-05,1,,,,,トランスリンク,0
1379,6011703004454,新規,0,2025-11-05,2025-11-05,合同会社ＢＷＣ,,合同会社,東京都,江戸川区,一之江４丁目１１番１号,,13,123,1320024,,,,,,,2025-11-05,1,,,,,ビーダブリューシー,0
1382,6011801047009,新規,0,2025-11-05,2025-11-05,株式会社ｑｕａｌｉｔｙ,,株式会社,東京都,足立区,千住１丁目４番１号東京芸術センター１０階イービジネスセンター１４号室,,13,121,1200034,,,,,,,2025-11-05,1,,,,,クオリティ,0
1384,6012401043769,新規,0,2025-11-05,2025-11-05,日本プレミアム交易推進機構株式会社,,株式会社,東京都,武蔵野市,関前３丁目１０番７号,,13,203,1800014,,,,,,,2025-11-05,1,,,,,ニホンプレミアムコウエキスイシンキコウ,0
1385,6012703003405,新規,0,2025-11-05,2025-11-05,合同会社ＡｉＬｉｎｋ,,合同会社,東京都,西東京市,住吉町２丁目６－１９セイガステージひばりが丘３０１,,13,229,2020005,,,,,,,2025-11-05,1,,,,,アイリンク,0
1398,6020001165644,新規,0,2025-11-05,2025-11-05,株式会社ダヤン商事,,株式会社,神奈川県,横浜市都筑区,加賀原１丁目２４番６－４０６号,,14,118,2240055,,,,,,,2025-11-05,1,,,,,ダヤンショウジ,0
1399,6020001165719,新規,0,2025-11-05,2025-11-05,株式会社小林,,株式会社,神奈川県,横浜市鶴見区,豊岡町２１番５―５０４号,,14,101,2300062,,,,,,,2025-11-05,1,,,,,コバヤシ,0
1402,6020003029698,新規,0,2025-11-05,2025-11-05,合同会社はこぶＷＯＲＫＳ,,合同会社,神奈川県,横浜市緑区,長津田３丁目３２番２０－３０９号,,14,113,2260027,,,,,,,2025-11-05,1,,,,,ハコブワークス,0
1405,6021005013450,新規,0,2025-11-05,2025-11-05,一般社団法人Ｎａｔｕｒａｌ　Ｄｏｇ　Ｌａｗｓ,,その他の設立登記法人,神奈川県,鎌倉市,笛田５丁目２３番５号,,14,204,2480027,,,,,,,2025-11-05,1,,,,,ナチュラルドッグロウズ,0
1413,6030001169421,新規,0,2025-11-05,2025-11-05,株式会社グローブリンク,,株式会社,埼玉県,越谷市,弥栄町１丁目１０５番地２１,,11,222,3430046,,,,,,,2025-11-05,1,,,,,グローブリンク,0
1414,6030001169487,新規,0,2025-11-05,2025-11-05,希翔建工株式会社,,株式会社,埼玉県,本庄市,寿１丁目２９番２０号,,11,211,3670023,,,,,,,2025-11-05,1,,,,,キショウケンコウ,0
1415,6030001169512,新規,0,2025-11-05,2025-11-05,与野総研株式会社,,株式会社,埼玉県,さいたま市中央区,下落合６丁目１２番２０号ＡＬＶＥＡＲＥ,,11,105,3380002,,,,,,,2025-11-05,1,,,,,ヨノソウケン,0
1418,6030003027998,新規,0,2025-11-05,2025-11-05,合同会社エスワイエーエー,,合同会社,埼玉県,所沢市,大字山口１１３２－８リヨンドール１Ｆ,,11,208,3591145,,,,,,,2025-11-05,1,,,,,エスワイエーエー,0
1433,6070001043523,新規,0,2025-11-05,2025-11-05,株式会社ＳｔａｒＴｅｃｈ,,株式会社,群馬県,高崎市,南大類町９０２－２,,10,202,3700036,,,,,,,2025-11-05,1,,,,,,0
1443,6080401028247,新規,0,2025-11-05,2025-11-05,株式会社すず庭,,株式会社,静岡県,浜松市中央区,野口町２１７番地の４,,22,138,4300919,,,,,,,2025-11-05,1,,,,,スズニワ,0
1445,6100001039088,新規,0,2025-11-05,2025-11-05,株式会社リクレイムメタル,,株式会社,長野県,岡谷市,大栄町１丁目１０番６号,,20,204,3940025,,,,,,,2025-11-05,1,,,,,リクレイムメタル,0
1465,6120001281662,新規,0,2025-11-05,2025-11-05,株式会社ＥＡＴＯ．,,株式会社,大阪府,大阪市天王寺区,大道４丁目１０－１３,,27,109,5430052,,,,,,,2025-11-05,1,,,,,イート,0
1466,6120001281670,新規,0,2025-11-05,2025-11-05,株式会社Ａ＆Ｓ　ＹＯＤＯＲＡＬ　Ｃｒｅａｔｉｏｎ,,株式会社,大阪府,大阪市淀川区,木川東４丁目１１番９号３Ｆ,,27,123,5320012,,,,,,,2025-11-05,1,,,,,エイアンドエスヨドラルクリエイション,0
1467,6120001281687,新規,0,2025-11-05,2025-11-05,株式会社Ｉ．ＲＡＳ,,株式会社,大阪府,大阪市淀川区,十三東４丁目７番２号,,27,123,5320023,,,,,,,2025-11-05,1,,,,,アイラス,0
1472,6120003031140,新規,0,2025-11-05,2025-11-05,合同会社ダブルフェイス,,合同会社,大阪府,大阪市此花区,伝法５丁目４－２１,,27,104,5540002,,,,,,,2025-11-05,1,,,,,ダブルフェイス,0
1473,6120003031173,新規,0,2025-11-05,2025-11-05,Ｂ‐Ｃｒａｆｔ合同会社,,合同会社,大阪府,枚方市,星丘３丁目２番１３号,,27,210,5730013,,,,,,,2025-11-05,1,,,,,ビークラフト,0
1482,6122003003375,新規,0,2025-11-05,2025-11-05,合同会社ほたる,,合同会社,大阪府,柏原市,上市２丁目５番５号,,27,221,5820007,,,,,,,2025-11-05,1,,,,,ホタル,0
1487,6140001140635,新規,0,2025-11-05,2025-11-05,株式会社Ｏｅ　Ｆｅｌｉｃｅ,,株式会社,兵庫県,芦屋市,東芦屋町２０番５－２０５号,00141380,28,206,6590095,,,,,,,2025-11-05,1,,,,,オーイーフェリーチェ,0
1490,6170001018861,新規,0,2025-11-05,2025-11-05,株式会社ＣＬＵ,,株式会社,和歌山県,海南市,大野中５００番地,,30,202,6420022,,,,,,,2025-11-05,1,,,,,シーエルユー,0
1500,6180001169407,新規,0,2025-11-05,2025-11-05,株式会社ＰＥＡＣＥ,,株式会社,愛知県,名古屋市中区,新栄１丁目１６番２号,,23,106,4600007,,,,,,,2025-11-05,1,,,,,ピース,0
1501,6180001169415,新規,0,2025-11-05,2025-11-05,あかりや電工株式会社,,株式会社,愛知県,名古屋市西区,こも原町４３番地フィレールＡ号,,23,104,4520824,,,,,,,2025-11-05,1,,,,,アカリヤデンコウ,0
1503,6180005021290,新規,0,2025-11-05,2025-11-05,一般社団法人エールめいほくホールディングス,,その他の設立登記法人,愛知県,名古屋市中村区,太閤３丁目１番１８号名古屋ＫＳビル６階,,23,105,4530801,,,,,,,2025-11-05,1,,,,,エールメイホクホールディングス,0
1506,6180303006794,新規,0,2025-11-05,2025-11-05,野田企画合同会社,,合同会社,愛知県,岡崎市,宮地町字北浦３０番地７,,23,202,4440202,,,,,,,2025-11-05,1,,,,,ノダキカク,0
1512,6200001044391,新規,0,2025-11-05,2025-11-05,株式会社シェビーモータース,,株式会社,岐阜県,岐阜市,西河渡３丁目７７番地２,,21,201,5010106,,,,,,,2025-11-05,1,,,,,シェビーモータース,0
1513,6200003007124,新規,0,2025-11-05,2025-11-05,Ｏｐｔｉｏｒｙ合同会社,,合同会社,岐阜県,岐阜市,加納朝日町１丁目９番地,,21,201,5008452,,,,,,,2025-11-05,1,,,,,オプティオリー,0
1515,6220001026999,新規,0,2025-11-05,2025-11-05,株式会社ｋａｎａｄｅａ,,株式会社,石川県,金沢市,堀川新町５番１号,,17,201,9200849,,,,,,,2025-11-05,1,,,,,カナデア,0
1516,6220003004152,新規,0,2025-11-05,2025-11-05,アストラ合同会社,,合同会社,石川県,金沢市,元町１丁目４番１５号,,17,201,9200842,,,,,,,2025-11-05,1,,,,,アストラ,0
1518,6230001021165,新規,0,2025-11-05,2025-11-05,株式会社新工テクノ,,株式会社,富山県,富山市,牛島新町３番７－３０６号レジデンス牛島,,16,201,9300856,,,,,,,2025-11-05,1,,,,,シンコウテクノ,0
1520,6240001065723,新規,0,2025-11-05,2025-11-05,株式会社弐,,株式会社,広島県,呉市,音戸町波多見１丁目１番３７号,,34,202,7371207,,,,,,,2025-11-05,1,,,,,セカンド,0
1535,6290001111984,新規,0,2025-11-05,2025-11-05,株式会社アディクト,,株式会社,福岡県,福岡市博多区,博多駅前１丁目２３番２号ＰａｒｋＦｒｏｎｔ博多駅前一丁目５Ｆ－Ｂ,,40,132,8120011,,,,,,,2025-11-05,1,,,,,アディクト,0
1536,6290001111992,新規,0,2025-11-05,2025-11-05,株式会社都グリーンパートナーズ,,株式会社,福岡県,飯塚市,吉原町６番１６号エバーライフリバーサイド飯塚壱番館２０６,,40,205,8200040,,,,,,,2025-11-05,1,,,,,ミヤコグリーンパートナーズ,0
1537,6290001112025,新規,0,2025-11-05,2025-11-05,株式会社２２４,,株式会社,福岡県,福岡市博多区,板付１丁目６番８号,,40,132,8120888,,,,,,,2025-11-05,1,,,,,ニーニーヨン,0
1538,6290001112058,新規,0,2025-11-05,2025-11-05,５０５０ｍａｉｎｔｅｎａｎｃｅ株式会社,,株式会社,福岡県,福岡市東区,筥松３丁目６番１１－１０２号,,40,131,8120061,,,,,,,2025-11-05,1,,,,,ゴーマルゴーマルメンテナンス,0
1539,6290003017230,新規,0,2025-11-05,2025-11-05,合同会社いろどり,,合同会社,福岡県,福岡市中央区,春吉３丁目２５－２５ジェンティーレ天神Ｉ３０３,00141395,40,133,8100003,,,,,,,2025-11-05,1,,,,,イロドリ,0
1540,6290003017643,新規,0,2025-11-05,2025-11-05,合同会社ワイズカンパニー,,合同会社,福岡県,福岡市東区,雁の巣２丁目３番４号,,40,131,8110206,,,,,,,2025-11-05,1,,,,,ワイズカンパニー,0
1542,6290005019877,新規,0,2025-11-05,2025-11-05,一般社団法人スマート電気保安協会,,その他の設立登記法人,福岡県,福岡市博多区,東那珂１丁目９番４９号,,40,132,8120892,,,,,,,2025-11-05,1,,,,,スマートデンキホアンキョウカイ,0
1543,6290801032001,新規,0,2025-11-05,2025-11-05,株式会社まるせい農園,,株式会社,福岡県,鞍手郡鞍手町,大字新延７４２番地２,,40,402,8071305,,,,,,,2025-11-05,1,,,,,マルセイノウエン,0
1544,6290803005203,新規,0,2025-11-05,2025-11-05,ＮＡＷＡＺ　ＩＮＴＥＲＮＡＴＩＯＮＡＬ合同会社,,合同会社,福岡県,北九州市若松区,古前２丁目６番３２号,,40,103,8080062,,,,,,,2025-11-05,1,,,,,ナワズインターナショナル,0
1546,6300001014401,新規,0,2025-11-05,2025-11-05,株式会社ケイディーホールディングス,,株式会社,佐賀県,佐賀市,大和町大字川上１５８番地１,,41,201,8400214,,,,,,,2025-11-05,1,,,,,ケイディーホールディングス,0
1547,6300003002370,新規,0,2025-11-05,2025-11-05,合同会社Ｍファーマ,,合同会社,佐賀県,佐賀市,北川副町光法１５９８―１,,41,201,8400012,,,,,,,2025-11-05,1,,,,,エムファーマ,0
1551,6310001019837,新規,0,2025-11-05,2025-11-05,株式会社スマイルトラスト,,株式会社,長崎県,西彼杵郡長与町,吉無田郷４３番地３,,42,307,8512126,,,,,,,2025-11-05,1,,,,,スマイルトラスト,0
1556,6320003004811,新規,0,2025-11-05,2025-11-05,合同会社アイワ電機,,合同会社,大分県,大分市,田尻南２丁目１番７号,,44,201,8701145,,,,,,,2025-11-05,1,,,,,アイワデンキ,0
1561,6330003011286,新規,0,2025-11-05,2025-11-05,Ｋｉｎｇ　Ｙａｎｇ合同会社,,合同会社,熊本県,菊池郡大津町,大字引水９４５番地２趨勢ビル,,43,403,8691234,,,,,,,2025-11-05,1,,,,,キングヤン,0
1563,6340001027746,新規,0,2025-11-05,2025-11-05,株式会社未来幸創,,株式会社,鹿児島県,伊佐市,大口針持字永峯２８９２番地４０,,46,224,8952442,,,,,,,2025-11-05,1,,,,,ミライコウソウ,0
1572,6360001035978,新規,0,2025-11-05,2025-11-05,ラテラム株式会社,,株式会社,沖縄県,中頭郡北谷町,伊平１丁目１５番１６号トクレア北谷６０４,,47,326,9040102,,,,,,,2025-11-05,1,,,,,ラテラム,0
1573,6360003015375,新規,0,2025-11-05,2025-11-05,合同会社シワニ,,合同会社,沖縄県,うるま市,石川東恩納５９７番地１,,47,213,9041111,,,,,,,2025-11-05,1,,,,,シワニ,0
1574,6370001053194,新規,0,2025-11-05,2025-11-05,株式会社ｉｎｄｅｘ,,株式会社,宮城県,宮城郡利府町,花園２丁目２２番地１４,,04,406,9810132,,,,,,,2025-11-05,1,,,,,インデックス,0
1575,6370001053203,新規,0,2025-11-05,2025-11-05,株式会社Ｌｕｎａｆｙ,,株式会社,宮城県,仙台市宮城野区,福室４丁目２番４５号,,04,102,9830005,,,,,,,2025-11-05,1,,,,,ルナフィ,0
1577,6370002037287,新規,0,2025-11-05,2025-11-05,有限会社千葉設備,,有限会社,宮城県,登米市,迫町森字平柳２５４番地の１,,04,212,9870512,,,,,,,2025-11-05,1,,,,,チバセツビ,0
1579,6370005011017,新規,0,2025-11-05,2025-11-05,一般社団法人水素科学技術連携研究会,,その他の設立登記法人,宮城県,仙台市青葉区,片平２丁目１番１号東北大学材料科学高等研究所内,,04,101,9800812,,,,,,,2025-11-05,1,,,,,スイソカガクギジュツレンケイケンキュウカイ,0
1581,6390003002461,新規,0,2025-11-05,2025-11-05,合同会社Ｋａｏｒｉｎ,,合同会社,山形県,東田川郡庄内町,余目新田字東町５９,,06,428,9997714,,,,,,,2025-11-05,1,,,,,カオリン,0
1583,6410003004174,新規,0,2025-11-05,2025-11-05,合同会社ＡＱＵＡ,,合同会社,秋田県,横手市,大雄字三村３９４,,05,203,0130466,,,,,,,2025-11-05,1,,,,,アクア,0
1592,6470001020960,新規,0,2025-11-05,2025-11-05,株式会社レガシーパートナーズ,,株式会社,香川県,高松市,浜ノ町５３番２４－８０６号,,37,201,7600011,,,,,,,2025-11-05,1,,,,,レガシーハートナーズ,0
1593,6480001012998,新規,0,2025-11-05,2025-11-05,株式会社Ｉ＆Ｙ,,株式会社,徳島県,板野郡藍住町,徳命字元村１２２番地５,,36,403,7711211,,,,,,,2025-11-05,1,,,,,アイアンドワイ,0
1596,6500001026608,新規,0,2025-11-05,2025-11-05,株式会社横山自動車,,株式会社,愛媛県,松山市,夏目甲５７０番地４,,38,201,7992437,,,,,,,2025-11-05,1,,,,,ヨコヤマジドウシャ,0
1614,7010001259891,新規,0,2025-11-05,2025-11-05,株式会社李暁七フードサービス,,株式会社,東京都,中央区,銀座６丁目１３番５号東武銀座第２ビル５階,,13,102,1040061,,,,,,,2025-11-05,1,,,,,リショウチフードサービス,0
1615,7010001260032,新規,0,2025-11-05,2025-11-05,株式会社青火舎,,株式会社,東京都,千代田区,神田和泉町１番地６－１６ヤマトビル４０５,,13,101,1010024,,,,,,,2025-11-05,1,,,,,セイカシャ,0
1620,7010003049234,新規,0,2025-11-05,2025-11-05,合同会社ＭＡＴＳＵＲＩＣＯ,,合同会社,東京都,千代田区,富士見１丁目３－１１富士見デュープレックスＢ’ｓ４Ｆ,,13,101,1020071,,,,,,,2025-11-05,1,,,,,マツリコ,0
1621,7010003049309,新規,0,2025-11-05,2025-11-05,合同会社豊聖,,合同会社,東京都,千代田区,神田神保町１丁目６番地１,,13,101,1010051,,,,,,,2025-11-05,1,,,,,ホウセイ,0
1625,7010005040876,新規,0,2025-11-05,2025-11-05,一般社団法人妙高ホテルＣ,,その他の設立登記法人,東京都,中央区,銀座１丁目６番１１号土志田ビルディング３Ｆ,,13,102,1040061,,,,,,,2025-11-05,1,,,,,ミョウコウホテルシー,0
1626,7010005040884,新規,0,2025-11-05,2025-11-05,ＣＡＮＶＡＳＳ１一般社団法人,,その他の設立登記法人,東京都,千代田区,霞が関３丁目２番５号,,13,101,1000013,,,,,,,2025-11-05,1,,,,,キャンバスワン,0
1628,7010401193889,新規,0,2025-11-05,2025-11-05,株式会社シャスールジャポン,,株式会社,東京都,港区,六本木７丁目７番地７号,,13,103,1060032,,,,,,,2025-11-05,1,,,,,シャスールジャポン,0
1629,7010401194334,新規,0,2025-11-05,2025-11-05,ヤナセＥＶスクエア株式会社,,株式会社,東京都,港区,芝浦１丁目６番３８号,,13,103,1050023,,,,,,,2025-11-05,1,,,,,ヤナセイーブイスクエア,0
1630,7010403036518,新規,0,2025-11-05,2025-11-05,ＧＳＳＧ　Ｃｈｉｋｕｄｅｎ　ＢＥＳＳ３７合同会社,,合同会社,東京都,港区,高輪１丁目３番１３号ＮＢＦ高輪ビル７階,,13,103,1080074,,,,,,,2025-11-05,1,,,,,ジーエスエスジーチクデンビーイーエスエスサーティセブン,0
1631,7010403036526,新規,0,2025-11-05,2025-11-05,ＧＳＳＧ　Ｃｈｉｋｕｄｅｎ　ＢＥＳＳ４５合同会社,,合同会社,東京都,港区,高輪１丁目３番１３号ＮＢＦ高輪ビル７階,,13,103,1080074,,,,,,,2025-11-05,1,,,,,ジーエスエスジーチクデンビーイーエスエスフォーティファイブ,0
1632,7010405024958,新規,0,2025-11-05,2025-11-05,ＧＳＳＧ　Ｃｈｉｋｕｄｅｎ　ＢＥＳＳ３２一般社団法人,,その他の設立登記法人,東京都,港区,赤坂１丁目１１番４４号赤坂インターシティ５階Ｆｏｒｖｉｓ・Ｍａｚａｒｓ・Ｊａｐａｎ株式会社内,,13,103,1070052,,,,,,,2025-11-05,1,,,,,ジーエスエスジーチクデンビーイーエスエスサーティツー,0
1633,7010405024966,新規,0,2025-11-05,2025-11-05,ＧＳＳＧ　Ｃｈｉｋｕｄｅｎ　ＢＥＳＳ４０一般社団法人,,その他の設立登記法人,東京都,港区,赤坂１丁目１１番４４号赤坂インターシティ５階Ｆｏｒｖｉｓ・Ｍａｚａｒｓ・Ｊａｐａｎ株式会社内,,13,103,1070052,,,,,,,2025-11-05,1,,,,,ジーエスエスジーチクデンビーイーエスエスフォーティ,0
1645,7010703007994,新規,0,2025-11-05,2025-11-05,Ｅｓｏｒａ合同会社,,合同会社,東京都,品川区,荏原１丁目１０番２号メインステージ不動前ＩＩ４０５,00141392,13,109,1420063,,,,,,,2025-11-05,1,,,,,エソラ,0
1649,7010901058385,新規,0,2025-11-05,2025-11-05,株式会社Ｖａｒｕｎａ,,株式会社,東京都,世田谷区,船橋５丁目３２番２号,,13,112,1560055,,,,,,,2025-11-05,1,,,,,ワルナ,0
1650,7010901058393,新規,0,2025-11-05,2025-11-05,ＴＯＫＹＯ‐ＩＮＤＩＡ　ＴＥＣＨ株式会社,,株式会社,東京都,世田谷区,経堂２丁目１７番１６－２０１号,,13,112,1560052,,,,,,,2025-11-05,1,,,,,トーキョーインディアテック,0
1653,7010903010385,新規,0,2025-11-05,2025-11-05,合同会社ヒロコーポレーション,,合同会社,東京都,世田谷区,下馬５丁目１２番１２号,,13,112,1540002,,,,,,,2025-11-05,1,,,,,ヒロコーポレーション,0
1655,7011001173281,新規,0,2025-11-05,2025-11-05,株式会社Ａｒｃｓｐｉｒｅ,,株式会社,東京都,渋谷区,道玄坂１丁目１０番８号渋谷道玄坂東急ビル２Ｆ－Ｃ,,13,113,1500043,,,,,,,2025-11-05,1,,,,,アークスパイア,0
1656,7011001173298,新規,0,2025-11-05,2025-11-05,株式会社Ｓｏｐｈｉａｎｎｅ,,株式会社,東京都,渋谷区,恵比寿西２丁目４番８号ウィンド恵比寿ビル８Ｆ,,13,113,1500021,,,,,,,2025-11-05,1,,,,,ソフィアンヌ,0
1659,7011003022734,新規,0,2025-11-05,2025-11-05,ａＭａｄｉａ　ｐｒｏｄｕｃｔｉｏｎ合同会社,,合同会社,東京都,渋谷区,恵比寿西２丁目４番８号ウィンド恵比寿ビル８Ｆ,,13,113,1500021,,,,,,,2025-11-05,1,,,,,アマディアプロダクション,0
1660,7011003022767,新規,0,2025-11-05,2025-11-05,ＢＲＸ合同会社,,合同会社,東京都,渋谷区,桜丘町２３－１７シティーコート桜丘４０４号,,13,113,1500031,,,,,,,2025-11-05,1,,,,,ビーアールエックス,0
1661,7011003022800,新規,0,2025-11-05,2025-11-05,Ｆｉｃｔｉｏｎｓ合同会社,,合同会社,東京都,渋谷区,代官山町８番７号Ｄａｉｗａ代官山ビル１階,,13,113,1500034,,,,,,,2025-11-05,1,,,,,フィクションズ,0
1668,7011503006765,新規,0,2025-11-05,2025-11-05,合同会社マルジン建窓,,合同会社,東京都,北区,赤羽台３丁目１４番２３号,,13,117,1150053,,,,,,,2025-11-05,1,,,,,マルジンケンソウ,0
1672,7011801046991,新規,0,2025-11-05,2025-11-05,株式会社グローズ,,株式会社,東京都,葛飾区,東金町３丁目１７番１０号ＫＢＳＤ－２,,13,122,1250041,,,,,,,2025-11-05,1,,,,,グローズ,0
1674,7011803007174,新規,0,2025-11-05,2025-11-05,合同会社ＣｕｒｅＴｈｅｒｍｏ,,合同会社,東京都,葛飾区,新宿６丁目３番１号,,13,122,1250051,,,,,,,2025-11-05,1,,,,,キュアサーモ,0
1683,7012701019162,新規,0,2025-11-05,2025-11-05,株式会社ルナ企画,,株式会社,東京都,西東京市,保谷町３丁目２番７号,,13,229,2020015,,,,,,,2025-11-05,1,,,,,ルナキカク,0
1684,7012801024335,新規,0,2025-11-05,2025-11-05,株式会社佐藤興業,,株式会社,東京都,武蔵村山市,残堀５丁目８０番地の２３,,13,223,2080034,,,,,,,2025-11-05,1,,,,,サトウコウギョウ,0
1685,7012803003915,新規,0,2025-11-05,2025-11-05,合同会社シンプル,,合同会社,東京都,立川市,錦町２丁目１番３１号ＳＴビル２階,,13,202,1900022,,,,,,,2025-11-05,1,,,,,シンプル,0
1694,7020003029714,新規,0,2025-11-05,2025-11-05,スノーステラ合同会社,,合同会社,神奈川県,川崎市多摩区,登戸２７７７Ｎ１００ビル３０２,,14,135,2140014,,,,,,,2025-11-05,1,,,,,スノーステラ,0
1698,7021001086739,新規,0,2025-11-05,2025-11-05,株式会社ティエラファクトリー,,株式会社,神奈川県,大和市,つきみ野１丁目１番地８デュオヒルズ中央林間７０９号,,14,213,2420002,,,,,,,2025-11-05,1,,,,,ティエラファクトリー,0
1699,7021001086763,新規,0,2025-11-05,2025-11-05,株式会社Ｋ’ｓタックスエステート,,株式会社,神奈川県,海老名市,下今泉１丁目６番１－６０５号,,14,215,2430435,,,,,,,2025-11-05,1,,,,,ケーズタックスエステート,0
1715,7030001169486,新規,0,2025-11-05,2025-11-05,株式会社ミラクルワーク,,株式会社,埼玉県,川口市,大字安行領根岸５番地,,11,203,3330834,,,,,,,2025-11-05,1,,,,,ミラクルワーク,0
1725,7030003027980,新規,0,2025-11-05,2025-11-05,ＭＫ合同会社,,合同会社,埼玉県,さいたま市岩槻区,西原台１丁目３－９８サンハイツ川崎２０２,,11,110,3390082,,,,,,,2025-11-05,1,,,,,エムケー,0
1726,7030003028005,新規,0,2025-11-05,2025-11-05,合同会社森井,,合同会社,埼玉県,さいたま市大宮区,三橋３丁目１６番地２号クレイノオリーブハウスネオＩＩ３０４号,00141386,11,103,3300856,,,,,,,2025-11-05,1,,,,,モリイ,0
1728,7030005022328,新規,0,2025-11-05,2025-11-05,一般社団法人明和里,,その他の設立登記法人,埼玉県,飯能市,大字双柳７８７番地７４,,11,209,3570021,,,,,,,2025-11-05,1,,,,,アイワサト,0
1743,7060003005827,新規,0,2025-11-05,2025-11-05,２４Ｍ　Ｔｅｃｈｎｏｌｏｇｉｅｓ　Ｊａｐａｎ合同会社,,合同会社,栃木県,宇都宮市,大通り４丁目１番１８号,,09,201,3200811,,,,,,,2025-11-05,1,,,,,トゥエンティフォーエムテクノロジーズジャパン,0
1747,7080001027243,新規,0,2025-11-05,2025-11-05,Ｒｏｌｙ‐ｐｏｌｙ　Ｏｒｇａｎｉｃｓ株式会社,,株式会社,静岡県,静岡市駿河区,石部４５番２０号,,22,102,4210123,,,,,,,2025-11-05,1,,,,,ローリーポーリーオーガニクス,0
1748,7080401028246,新規,0,2025-11-05,2025-11-05,株式会社紫電会,,株式会社,静岡県,湖西市,新居町新居１１５番地,,22,221,4310302,,,,,,,2025-11-05,1,,,,,シデンカイ,0
1749,7080403005383,新規,0,2025-11-05,2025-11-05,合同会社和田工業,,合同会社,静岡県,浜松市中央区,佐藤１丁目３３番１９号,,22,138,4300807,,,,,,,2025-11-05,1,,,,,ワダコウギョウ,0
1751,7100001039087,新規,0,2025-11-05,2025-11-05,株式会社Ｎｅｓｔｉａ,,株式会社,長野県,佐久市,根岸２９６９番地１,,20,217,3850062,,,,,,,2025-11-05,1,,,,,ネスティア,0
1764,7120001281100,新規,0,2025-11-05,2025-11-05,ＴＲＵＥ　ＢＬＵＥ株式会社,,株式会社,大阪府,大阪市北区,西天満２丁目１０番２号幸田ビル５階,,27,127,5300047,,,,,,,2025-11-05,1,,,,,トゥルーブルー,0
1765,7120001281769,新規,0,2025-11-05,2025-11-05,株式会社アスリード,,株式会社,大阪府,大阪市中央区,南本町２丁目４番１０号丸忠第二ビル,,27,128,5410054,,,,,,,2025-11-05,1,,,,,アスリード,0
1768,7120003031123,新規,0,2025-11-05,2025-11-05,合同会社結心,,合同会社,大阪府,大阪市港区,南市岡３丁目６番５９－２７０８号,,27,107,5520011,,,,,,,2025-11-05,1,,,,,ユイシン,0
1772,7120005025230,新規,0,2025-11-05,2025-11-05,一般社団法人みやこプロジェクト,,その他の設立登記法人,大阪府,大阪市北区,長柄中１丁目４番３号ディアコートミキ天神橋１０３号室,,27,127,5310062,,,,,,,2025-11-05,1,,,,,ミヤコプロジェクト,0
1778,7120903005928,新規,0,2025-11-05,2025-11-05,合同会社ＴＲＧ,,合同会社,大阪府,箕面市,桜井２丁目２番２５号,,27,220,5620043,,,,,,,2025-11-05,1,,,,,ティーアールジー,0
1780,7122001039841,新規,0,2025-11-05,2025-11-05,株式会社ＤＬ,,株式会社,大阪府,東大阪市,花園本町２丁目４番１４号,,27,227,5780937,,,,,,,2025-11-05,1,,,,,ディーエル,0
1781,7122003003374,新規,0,2025-11-05,2025-11-05,合同会社リルリンク,,合同会社,大阪府,東大阪市,岩田町５丁目９－５－１０１,,27,227,5780941,,,,,,,2025-11-05,1,,,,,リルリンク,0
1784,7130001080930,新規,0,2025-11-05,2025-11-05,株式会社ｉｄｅｎｔｉｔｙ,,株式会社,京都府,京丹後市,網野町木津２５５番地,,26,212,6293241,,,,,,,2025-11-05,1,,,,,アイデンティティ,0
1785,7130003010794,新規,0,2025-11-05,2025-11-05,ＳＡＫＵＲＡ合同会社,,合同会社,京都府,南丹市,日吉町木住犬飼１８番地,,26,213,6290332,,,,,,,2025-11-05,1,,,,,サクラ,0
1786,7130003010910,新規,0,2025-11-05,2025-11-05,合同会社Ｓｉ,,合同会社,京都府,京都市伏見区,納所星柳６番地１０,,26,109,6128274,,,,,,,2025-11-05,1,,,,,エスアイ,0
1791,7150001028523,新規,0,2025-11-05,2025-11-05,株式会社Ｃｌａｒｉｔｙ,,株式会社,奈良県,奈良市,西木辻町４５－２シャーメゾンネクサス２０１,,29,201,6308325,,,,,,,2025-11-05,1,,,,,クラリティ,0
1793,7160001027202,新規,0,2025-11-05,2025-11-05,株式会社スワロウ,,株式会社,滋賀県,大津市,坂本３丁目１３番７号,,25,201,5200113,,,,,,,2025-11-05,1,,,,,スワロウ,0
1801,7180001169372,新規,0,2025-11-05,2025-11-05,アマノインベストメンツ株式会社,,株式会社,愛知県,名古屋市東区,葵１丁目３番１５号,,23,102,4610004,,,,,,,2025-11-05,1,,,,,アマノインベストメンツ,0
1802,7180001169414,新規,0,2025-11-05,2025-11-05,株式会社奏唯,,株式会社,愛知県,名古屋市西区,平中町８９番地の３,,23,104,4520843,,,,,,,2025-11-05,1,,,,,ソウユウ,0
1804,7180301040373,新規,0,2025-11-05,2025-11-05,株式会社おくら,,株式会社,愛知県,碧南市,塩浜町７丁目９３番地,,23,209,4470841,,,,,,,2025-11-05,1,,,,,オクラ,0
1807,7180305009745,新規,0,2025-11-05,2025-11-05,一般社団法人日本聊城商会,,その他の設立登記法人,愛知県,蒲郡市,鹿島町西郷５番,,23,214,4430037,,,,,,,2025-11-05,1,,,,,,0
1819,7240001065722,新規,0,2025-11-05,2025-11-05,株式会社ＭＩＲＩＳＥ,,株式会社,広島県,福山市,川口町１丁目４番１７号,,34,207,7200822,,,,,,,2025-11-05,1,,,,,ミライズ,0
1822,7250001021410,新規,0,2025-11-05,2025-11-05,株式会社レイワ・グローバル,,株式会社,山口県,宇部市,大字東岐波１２９番地３,,35,202,7550241,,,,,,,2025-11-05,1,,,,,レイワグローバル,0
1831,7290001111959,新規,0,2025-11-05,2025-11-05,株式会社オーナーズ・Ｉｎｖｅｓｔ,,株式会社,福岡県,久留米市,諏訪野町２７０５番地２,,40,203,8300037,,,,,,,2025-11-05,1,,,,,オーナーズインベスト,0
1832,7290001112016,新規,0,2025-11-05,2025-11-05,Ｔ‐２ＰＬＡＮＮＩＮＧ株式会社,,株式会社,福岡県,福岡市東区,香椎駅前２丁目１９番２５－１３１０号,,40,131,8130013,,,,,,,2025-11-05,1,,,,,ティーツープランニング,0
1833,7290001112032,新規,0,2025-11-05,2025-11-05,株式会社Ｌａｕｇｈｔｅｒ,,株式会社,福岡県,福岡市中央区,渡辺通５丁目２４番３０号,,40,133,8100004,,,,,,,2025-11-05,1,,,,,ラフター,0
1834,7290001112049,新規,0,2025-11-05,2025-11-05,三船株式会社,,株式会社,福岡県,福岡市博多区,春町１丁目２番２８号３階,,40,132,8120872,,,,,,,2025-11-05,1,,,,,ミフネ,0
1835,7290001112057,新規,0,2025-11-05,2025-11-05,株式会社ＷＯＫＥ‐ＵＰ,,株式会社,福岡県,福岡市西区,姪の浜２丁目２４番１５号,,40,135,8190002,,,,,,,2025-11-05,1,,,,,ウォークアップ,0
1836,7290001112081,新規,0,2025-11-05,2025-11-05,Ａｔｅｒｒａ　Ｈｏｌｄｉｎｇｓ株式会社,,株式会社,福岡県,福岡市博多区,博多駅前１丁目２３番２号ＰａｒｋＦｒｏｎｔ博多駅前一丁目５Ｆ－Ｂ,,40,132,8120011,,,,,,,2025-11-05,1,,,,,アテラホールディングス,0
1837,7290001112098,新規,0,2025-11-05,2025-11-05,株式会社くるみ,,株式会社,福岡県,福岡市中央区,唐人町３丁目１１番５７号,,40,133,8100063,,,,,,,2025-11-05,1,,,,,クルミ,0
1839,7290003017634,新規,0,2025-11-05,2025-11-05,合同会社Ｃａｔｅｎａ,,合同会社,福岡県,福岡市博多区,諸岡３丁目２７番４５－１０４号,,40,132,8120894,,,,,,,2025-11-05,1,,,,,カテナ,0
1840,7290003017642,新規,0,2025-11-05,2025-11-05,合同会社Ｂｏｉｓ　ｄｅ　ｈｏｕｘ,,合同会社,福岡県,久留米市,荒木町荒木４８６－１,,40,203,8300063,,,,,,,2025-11-05,1,,,,,ボワドゥオー,0
1841,7290801032009,新規,0,2025-11-05,2025-11-05,株式会社Ｓｅｒａｆｉｍｕ,,株式会社,福岡県,北九州市八幡西区,鷹見台２丁目１４－１１,,40,109,8070853,,,,,,,2025-11-05,1,,,,,セラフィム,0
1844,7310001019836,新規,0,2025-11-05,2025-11-05,緑月株式会社,,株式会社,長崎県,対馬市,厳原町田渕８１６番地３,,42,209,8170023,,,,,,,2025-11-05,1,,,,,ミツキ,0
1849,7330003011293,新規,0,2025-11-05,2025-11-05,合同会社まほろのね,,合同会社,熊本県,八代市,古閑下町１７８３番地８,,43,202,8660892,,,,,,,2025-11-05,1,,,,,マホロノネ,0
1850,7350003005062,新規,0,2025-11-05,2025-11-05,合同会社ｔｕｔｕｍｕ,,合同会社,宮崎県,宮崎市,大坪東２丁目２５番４号,,45,201,8800934,,,,,,,2025-11-05,1,,,,,ツツム,0
1853,7360001035969,新規,0,2025-11-05,2025-11-05,亜立株式会社,,株式会社,沖縄県,浦添市,仲西１丁目１０番９－７０２号トーマス仲西,,47,208,9012125,,,,,,,2025-11-05,1,,,,,アダチ,0
1854,7360001035977,新規,0,2025-11-05,2025-11-05,農業生産法人株式会社パーム沖縄,,株式会社,沖縄県,宮古島市,平良字松原５４８番地８,,47,214,9060014,,,,,,,2025-11-05,1,,,,,ノウギョウセイサンホウジンパームオキナワ,0
1855,7360003015374,新規,0,2025-11-05,2025-11-05,合同会社Ｆａｄｅｉｎ,,合同会社,沖縄県,那覇市,前島１丁目１８番１２号ダイナスティマンション３０１,,47,201,9000016,,,,,,,2025-11-05,1,,,,,フェードイン,0
1856,7370001053202,新規,0,2025-11-05,2025-11-05,伊達株式会社,,株式会社,宮城県,名取市,増田８丁目２番５３号,,04,207,9811224,,,,,,,2025-11-05,1,,,,,ダテ,0
1857,7370005011016,新規,0,2025-11-05,2025-11-05,気仙沼第一聖書バプテスト教会,,その他の設立登記法人,宮城県,気仙沼市,岩月宝ヶ沢６７番地３,,04,205,9880207,,,,,,,2025-11-05,1,,,,,ケセンヌマダイイチセイショバプテストキョウカイ,0
1858,7370005011024,新規,0,2025-11-05,2025-11-05,一般社団法人城西会,,その他の設立登記法人,宮城県,仙台市泉区,泉中央４丁目６－１レジデンシャル泉中央３０１,,04,105,9813133,,,,,,,2025-11-05,1,,,,,ジョウセイカイ,0
1867,7400003003556,新規,0,2025-11-05,2025-11-05,合同会社希塗装,,合同会社,岩手県,紫波郡矢巾町,大字室岡第１２地割１３番地１,,03,322,0283625,,,,,,,2025-11-05,1,,,,,ノゾミトソウ,0
1876,7430005015349,新規,0,2025-11-05,2025-11-05,一般社団法人日本空手伝承会,,その他の設立登記法人,北海道,札幌市中央区,双子山１丁目９番１－２０３号,,01,101,0640946,,,,,,,2025-11-05,1,,,,,ニホンカラテデンショウカイ,0
1888,8010001259981,新規,0,2025-11-05,2025-11-05,株式会社９６,,株式会社,東京都,中央区,銀座１丁目１２番４号Ｎ＆ＥＢＬＤ．６Ｆ,,13,102,1040061,,,,,,,2025-11-05,1,,,,,クロ,0
1889,8010001260031,新規,0,2025-11-05,2025-11-05,株式会社東京アボカ堂,,株式会社,東京都,大島町,差木地２番地,,13,361,1000211,,,,,,,2025-11-05,1,,,,,トウキョウアボカドウ,0
1893,8010003048730,新規,0,2025-11-05,2025-11-05,合同会社タカラ,,合同会社,東京都,中央区,銀座１丁目２２－１１,,13,102,1040061,,,,,,,2025-11-05,1,,,,,,0
1896,8010005040875,新規,0,2025-11-05,2025-11-05,一般社団法人妙高ホテルＡ,,その他の設立登記法人,東京都,中央区,銀座１丁目６番１１号土志田ビルディング３Ｆ,,13,102,1040061,,,,,,,2025-11-05,1,,,,,ミョウコウホテルエー,0
1900,8010401194317,新規,0,2025-11-05,2025-11-05,株式会社シードット,,株式会社,東京都,港区,虎ノ門４丁目１番２０－５０７号,,13,103,1050001,,,,,,,2025-11-05,1,,,,,シードット,0
1902,8010403036517,新規,0,2025-11-05,2025-11-05,ＧＳＳＧ　Ｃｈｉｋｕｄｅｎ　ＢＥＳＳ３６合同会社,,合同会社,東京都,港区,高輪１丁目３番１３号ＮＢＦ高輪ビル７階,,13,103,1080074,,,,,,,2025-11-05,1,,,,,ジーエスエスジーチクデンビーイーエスエスサーティシックス,0
1903,8010403036525,新規,0,2025-11-05,2025-11-05,ＧＳＳＧ　Ｃｈｉｋｕｄｅｎ　ＢＥＳＳ４４合同会社,,合同会社,東京都,港区,高輪１丁目３番１３号ＮＢＦ高輪ビル７階,,13,103,1080074,,,,,,,2025-11-05,1,,,,,ジーエスエスジーチクデンビーイーエスエスフォーティフォー,0
1904,8010403036533,新規,0,2025-11-05,2025-11-05,堀内総合経営合同会社,,合同会社,東京都,港区,北青山１丁目３－３三橋ビル３階,,13,103,1070061,,,,,,,2025-11-05,1,,,,,ホリウチソウゴウケイエイ,0
1906,8010405024957,新規,0,2025-11-05,2025-11-05,ＧＳＳＧ　Ｃｈｉｋｕｄｅｎ　ＢＥＳＳ３１一般社団法人,,その他の設立登記法人,東京都,港区,赤坂１丁目１１番４４号赤坂インターシティ５階Ｆｏｒｖｉｓ・Ｍａｚａｒｓ・Ｊａｐａｎ株式会社内,,13,103,1070052,,,,,,,2025-11-05,1,,,,,ジーエスエスジーチクデンビーイーエスエスサーティワン,0
1907,8010405024965,新規,0,2025-11-05,2025-11-05,ＧＳＳＧ　Ｃｈｉｋｕｄｅｎ　ＢＥＳＳ３９一般社団法人,,その他の設立登記法人,東京都,港区,赤坂１丁目１１番４４号赤坂インターシティ５階Ｆｏｒｖｉｓ・Ｍａｚａｒｓ・Ｊａｐａｎ株式会社内,,13,103,1070052,,,,,,,2025-11-05,1,,,,,ジーエスエスジーチクデンビーイーエスエスサーティナイン,0
1908,8010405024973,新規,0,2025-11-05,2025-11-05,ＧＳＳＧ　Ｓｏｌａｒ　Ｊａｐａｎ　Ｈｏｌｄｉｎｇｓ１０‐４ＢＥＳＳ一般社団法人,,その他の設立登記法人,東京都,港区,赤坂１丁目１１番４４号赤坂インターシティ５階Ｆｏｒｖｉｓ・Ｍａｚａｒｓ・Ｊａｐａｎ株式会社内,,13,103,1070052,,,,,,,2025-11-05,1,,,,,ジーエスエスジーソーラージャパンホールディングステンフォービーイーエスエス,0
1917,8010901058384,新規,0,2025-11-05,2025-11-05,株式会社ｍｉｒＡＩ,,株式会社,東京都,世田谷区,喜多見９丁目２１番２７号,,13,112,1570067,,,,,,,2025-11-05,1,,,,,ミライ,0
1920,8010903010384,新規,0,2025-11-05,2025-11-05,合同会社神谷マネジメント,,合同会社,東京都,世田谷区,上馬３丁目１５番８－７０４号,,13,112,1540011,,,,,,,2025-11-05,1,,,,,カミヤマネジメント,0
1924,8011005011189,新規,0,2025-11-05,2025-11-05,一般社団法人Ｅｍｐａｃｔ,,その他の設立登記法人,東京都,渋谷区,円山町５番３号ＭＩＥＵＸ渋谷ビル８階,,13,113,1500044,,,,,,,2025-11-05,1,,,,,エンパクト,0
1934,8011201026750,新規,0,2025-11-05,2025-11-05,株式会社ＣＹＡＮ,,株式会社,東京都,中野区,本町４丁目３８―１７―５０３,,13,114,1640012,,,,,,,2025-11-05,1,,,,,シアン,0
1935,8011503006756,新規,0,2025-11-05,2025-11-05,合同会社Ｍｉｒａ　Ｖｉｔａ,,合同会社,東京都,北区,田端４丁目１９－３遠藤ビル１０１号室,,13,117,1140014,,,,,,,2025-11-05,1,,,,,,0
1939,8011801046999,新規,0,2025-11-05,2025-11-05,株式会社Ｆｕｓｉｏｎ,,株式会社,東京都,足立区,東伊興１丁目１６番２２号,,13,121,1210801,,,,,,,2025-11-05,1,,,,,フュージョン,0
1940,8011803007157,新規,0,2025-11-05,2025-11-05,合同会社ＢｉｚＴ,,合同会社,東京都,葛飾区,堀切４丁目４９番１号アイビーハウス堀切Ｎ棟２０２,,13,122,1240006,,,,,,,2025-11-05,1,,,,,ビズティー,0
1955,8020001165634,新規,0,2025-11-05,2025-11-05,株式会社Ｙ,,株式会社,神奈川県,横浜市港北区,新横浜２丁目１８番地１９ドメス新横浜１４０５,,14,109,2220033,,,,,,,2025-11-05,1,,,,,ワイ,0
1964,8020005017022,新規,0,2025-11-05,2025-11-05,ＤｏｃｋＵｎｉｏｎ事業協同組合,,その他の設立登記法人,神奈川県,横浜市中区,石川町１丁目１８番５ル・ボヌール・エル・プレジーヌ１Ｆ,,14,104,2310868,,,,,,,2025-11-05,1,,,,,ドックユニオン,0
1971,8021001086696,新規,0,2025-11-05,2025-11-05,株式会社ドラゴン,,株式会社,神奈川県,茅ヶ崎市,浜須賀６番３８号,,14,207,2530035,,,,,,,2025-11-05,1,,,,,ドラゴン,0
1972,8021001086721,新規,0,2025-11-05,2025-11-05,株式会社ＭｏｌｔＦｒｅｅ,,株式会社,神奈川県,三浦郡葉山町,一色５５９番地の１１,,14,301,2400111,,,,,,,2025-11-05,1,,,,,,0
1982,8030001169485,新規,0,2025-11-05,2025-11-05,Ｍ＆Ｃ株式会社,,株式会社,埼玉県,越谷市,南町２丁目１８番１４－２号,,11,222,3430832,,,,,,,2025-11-05,1,,,,,エムアンドシー,0
1987,8030003028004,新規,0,2025-11-05,2025-11-05,あかつき合同会社,,合同会社,埼玉県,富士見市,鶴馬３丁目５番１５号,,11,235,3540021,,,,,,,2025-11-05,1,,,,,アカツキ,0
1989,8040001141162,新規,0,2025-11-05,2025-11-05,株式会社和エステート,,株式会社,千葉県,千葉市稲毛区,稲毛１丁目１７－１０,,12,103,2630034,,,,,,,2025-11-05,1,,,,,カズエステート,0
1990,8040001141253,新規,0,2025-11-05,2025-11-05,株式会社オフィスエムズ,,株式会社,千葉県,南房総市,市部８１番地６,,12,234,2992226,,,,,,,2025-11-05,1,,,,,オフィスエムズ,0
2007,8070001043513,新規,0,2025-11-05,2025-11-05,ＳＢＳプロダクツ株式会社,,株式会社,群馬県,太田市,吉沢町１０５８番地５太田市産業支援センター第１０９開放研究室,,10,205,3730019,,,,,,,2025-11-05,1,,,,,エスビーエスプロダクツ,0
2011,8070003006179,新規,0,2025-11-05,2025-11-05,合同会社清水フィールドベース,,合同会社,群馬県,太田市,大久保町４７０番地４,,10,205,3792306,,,,,,,2025-11-05,1,,,,,,0
2014,8080101025880,新規,0,2025-11-05,2025-11-05,株式会社ＣｏＬｉｎｋ,,株式会社,静岡県,駿東郡長泉町,下土狩３４２番地の１４,,22,342,4110943,,,,,,,2025-11-05,1,,,,,コリンク,0
2016,8080401028245,新規,0,2025-11-05,2025-11-05,株式会社ラル,,株式会社,静岡県,浜松市中央区,高林５丁目１０番１５号Ｑビル１Ｆ,,22,138,4300907,,,,,,,2025-11-05,1,,,,,ラル,0
2019,8100003008452,新規,0,2025-11-05,2025-11-05,ＭＡＣＣＯＬＬ合同会社,,合同会社,長野県,北安曇郡小谷村,大字千国乙１２８５６番地１２３,,20,486,3999422,,,,,,,2025-11-05,1,,,,,マコール,0
2020,8110003005952,新規,0,2025-11-05,2025-11-05,雪遊合同会社,,合同会社,新潟県,南魚沼郡湯沢町,湯沢２丁目１番地１４－４２１号越後湯沢サマリーナ,,15,461,9496101,,,,,,,2025-11-05,1,,,,,ユキアソビ,0
2030,8120001281792,新規,0,2025-11-05,2025-11-05,株式会社ＲＩＺＥ,,株式会社,大阪府,大阪市北区,中津２丁目４番２７号サンハイム中津２０９号室,,27,127,5310071,,,,,,,2025-11-05,1,,,,,ライズ,0
2046,8130001080921,新規,0,2025-11-05,2025-11-05,株式会社福鶴．ＩＭＧ,,株式会社,京都府,京丹後市,峰山町丹波１３２０番地,,26,212,6270011,,,,,,,2025-11-05,1,,,,,フクツルアイエムジー,0
2047,8130001080946,新規,0,2025-11-05,2025-11-05,タイムバイオ株式会社,,株式会社,京都府,京都市左京区,吉田下阿達町４６－２９京都大学医薬系総合研究棟３０９,,26,103,6068304,,,,,,,2025-11-05,1,,,,,タイムバイオ,0
2050,8130005017498,新規,0,2025-11-05,2025-11-05,一般社団法人おくむら信託,,その他の設立登記法人,京都府,京都市左京区,岩倉東宮田町５６番地６,,26,103,6060012,,,,,,,2025-11-05,1,,,,,オクムラシンタク,0
2051,8140001140369,新規,0,2025-11-05,2025-11-05,ＬＵＸＥＮ　ＳＯＬＡＲ　ＪＡＰＡＮ株式会社,,株式会社,兵庫県,姫路市,東夢前台３丁目６２番地,,28,201,6700064,,,,,,,2025-11-05,1,,,,,ラクセンソーラージャパン,0
2052,8140001140625,新規,0,2025-11-05,2025-11-05,株式会社四季彩々,,株式会社,兵庫県,佐用郡佐用町,平福４７０－１,,28,501,6795331,,,,,,,2025-11-05,1,,,,,シキサイサイ,0
2055,8150001028522,新規,0,2025-11-05,2025-11-05,人材ニュースキャリアラボ株式会社,,株式会社,奈良県,橿原市,中曽司町３５１番地の２,,29,205,6340845,,,,,,,2025-11-05,1,,,,,ジンザイニュースキャリアラボ,0
2059,8180001169371,新規,0,2025-11-05,2025-11-05,株式会社小谷工業,,株式会社,愛知県,名古屋市中村区,中村町４丁目３番地の３,,23,105,4530053,,,,,,,2025-11-05,1,,,,,コタニコウギョウ,0
2060,8180001169405,新規,0,2025-11-05,2025-11-05,株式会社いしわら商店,,株式会社,愛知県,名古屋市守山区,森孝東１丁目７０７番地（第２森下マンション５０２号）,,23,113,4630033,,,,,,,2025-11-05,1,,,,,イシワラショウテン,0
2061,8180001169446,新規,0,2025-11-05,2025-11-05,株式会社大建設,,株式会社,愛知県,津島市,江東町２丁目８０番地イーストプラザＢ２０５号,,23,208,4960855,,,,,,,2025-11-05,1,,,,,ダイケンセツ,0
2062,8180003029301,新規,0,2025-11-05,2025-11-05,合同会社ＣＨＩＫＡ,,合同会社,愛知県,海部郡大治町,大字北間島字藤田１１０番地６,,23,424,4901132,,,,,,,2025-11-05,1,,,,,チカ,0
2064,8210001020373,新規,0,2025-11-05,2025-11-05,株式会社田中教作商店,,株式会社,福井県,鯖江市,神中町２丁目９番５号,,18,207,9160016,,,,,,,2025-11-05,1,,,,,タナカキョウサクショウテン,0
2066,8230001021163,新規,0,2025-11-05,2025-11-05,株式会社Ａｌｍａ,,株式会社,富山県,高岡市,木津１３６１番地１,,16,202,9330857,,,,,,,2025-11-05,1,,,,,アルマ,0
2077,8240003007457,新規,0,2025-11-05,2025-11-05,合同会社Ｎｅｘｖｏ,,合同会社,広島県,広島市西区,庚午北４丁目３－３,,34,104,7330821,,,,,,,2025-11-05,1,,,,,ネクスヴォ,0
2078,8240003007465,新規,0,2025-11-05,2025-11-05,合同会社花コーポレーション,,合同会社,広島県,広島市安芸区,阿戸町４２４９番地１０,,34,107,7314231,,,,,,,2025-11-05,1,,,,,ハナコーポレーション,0
2083,8260001040697,新規,0,2025-11-05,2025-11-05,株式会社Ｎ’ｐｌａｎ,,株式会社,岡山県,井原市,上出部町１６５２番地２,,33,207,7150021,,,,,,,2025-11-05,1,,,,,エヌプラン,0
2090,8290001111974,新規,0,2025-11-05,2025-11-05,Ｄａｉｋｏｋｕ　Ｇｌｏｂａｌ株式会社,,株式会社,福岡県,福岡市中央区,小笹１丁目２１番３４号,,40,133,8100033,,,,,,,2025-11-05,1,,,,,ダイコクグローバル,0
2091,8290001112007,新規,0,2025-11-05,2025-11-05,株式会社レンケイ,,株式会社,福岡県,福岡市東区,香椎浜２丁目５番３－８０３号ふよう香椎浜ハイツ,,40,131,8130016,,,,,,,2025-11-05,1,,,,,レンケイ,0
2092,8290001112031,新規,0,2025-11-05,2025-11-05,株式会社Ｉｎｇｒｏｕｐ,,株式会社,福岡県,福岡市早良区,百道浜１丁目３番１３－２０１号,,40,137,8140001,,,,,,,2025-11-05,1,,,,,イングループ,0
2095,8290003017666,新規,0,2025-11-05,2025-11-05,合同会社Ａｍｕｌｅｔ,,合同会社,福岡県,糟屋郡粕屋町,大字柚須１９番地１,,40,349,8112305,,,,,,,2025-11-05,1,,,,,アミュレット,0
2100,8290801032008,新規,0,2025-11-05,2025-11-05,株式会社フードリンクス,,株式会社,福岡県,北九州市小倉北区,赤坂海岸５番１７号,,40,106,8020031,,,,,,,2025-11-05,1,,,,,フードリンクス,0
2107,8340003005005,新規,0,2025-11-05,2025-11-05,一心優楽合同会社,,合同会社,鹿児島県,鹿屋市,笠之原町８番２７－１号,,46,203,8930023,,,,,,,2025-11-05,1,,,,,イッシンユウラク,0
2110,8350003005061,新規,0,2025-11-05,2025-11-05,合同会社栞商会,,合同会社,宮崎県,北諸県郡三股町,大字宮村１２０１番地１８,,45,341,8891912,,,,,,,2025-11-05,1,,,,,シオリショウカイ,0
2111,8360003015373,新規,0,2025-11-05,2025-11-05,合同会社ｋｏｔｏｒｉｎｏ,,合同会社,沖縄県,中頭郡読谷村,字長浜１４６８番地２,,47,324,9040324,,,,,,,2025-11-05,1,,,,,コトリノ,0
2141,9010001259980,新規,0,2025-11-05,2025-11-05,株式会社グランノート,,株式会社,東京都,千代田区,霞が関３丁目２番１号,,13,101,1000013,,,,,,,2025-11-05,1,,,,,グランノート,0
2149,9010401194258,新規,0,2025-11-05,2025-11-05,株式会社Ｃｒａｆｔ　Ｌｉｎｋ,,株式会社,東京都,港区,南麻布３丁目７番８号ＫｅｉＨｏｕｓｅ１０１,,13,103,1060047,,,,,,,2025-11-05,1,,,,,クラフトリンク,0
2150,9010403036516,新規,0,2025-11-05,2025-11-05,ＧＳＳＧ　Ｃｈｉｋｕｄｅｎ　ＢＥＳＳ３５合同会社,,合同会社,東京都,港区,高輪１丁目３番１３号ＮＢＦ高輪ビル７階,,13,103,1080074,,,,,,,2025-11-05,1,,,,,ジーエスエスジーチクデンビーイーエスエスサーティファイブ,0
2151,9010403036524,新規,0,2025-11-05,2025-11-05,ＧＳＳＧ　Ｃｈｉｋｕｄｅｎ　ＢＥＳＳ４３合同会社,,合同会社,東京都,港区,高輪１丁目３番１３号ＮＢＦ高輪ビル７階,,13,103,1080074,,,,,,,2025-11-05,1,,,,,ジーエスエスジーチクデンビーイーエスエスフォーティスリー,0
2152,9010405024964,新規,0,2025-11-05,2025-11-05,ＧＳＳＧ　Ｃｈｉｋｕｄｅｎ　ＢＥＳＳ３８一般社団法人,,その他の設立登記法人,東京都,港区,赤坂１丁目１１番４４号赤坂インターシティ５階Ｆｏｒｖｉｓ・Ｍａｚａｒｓ・Ｊａｐａｎ株式会社内,,13,103,1070052,,,,,,,2025-11-05,1,,,,,ジーエスエスジーチクデンビーイーエスエスサーティエイト,0
2153,9010405024972,新規,0,2025-11-05,2025-11-05,ＧＳＳＧ　Ｓｏｌａｒ　Ｊａｐａｎ　Ｈｏｌｄｉｎｇｓ１０‐３ＢＥＳＳ一般社団法人,,その他の設立登記法人,東京都,港区,赤坂１丁目１１番４４号赤坂インターシティ５階Ｆｏｒｖｉｓ・Ｍａｚａｒｓ・Ｊａｐａｎ株式会社内,,13,103,1070052,,,,,,,2025-11-05,1,,,,,ジーエスエスジーソーラージャパンホールディングステンスリービーイーエスエス,0
2169,9010903010383,新規,0,2025-11-05,2025-11-05,合同会社ウエダ,,合同会社,東京都,世田谷区,上祖師谷３丁目１５番２１号,,13,112,1570065,,,,,,,2025-11-05,1,,,,,ウエダ,0
2170,9011003022749,新規,0,2025-11-05,2025-11-05,合同会社ＴＡＷＡＲＡ,,合同会社,東京都,渋谷区,猿楽町５－８－２Ｆ,,13,113,1500033,,,,,,,2025-11-05,1,,,,,タワラ,0
2171,9011003022798,新規,0,2025-11-05,2025-11-05,合同会社ソロモンシステムズ,,合同会社,東京都,渋谷区,広尾１丁目２番地１号ヒカリビル４階,,13,113,1500012,,,,,,,2025-11-05,1,,,,,ソロモンシステムズ,0
2172,9011003022914,新規,0,2025-11-05,2025-11-05,ゆみねこの教科書教育メディア合同会社,,合同会社,東京都,渋谷区,神泉町１０番１５号アネックス神泉３０１,,13,113,1500045,,,,,,,2025-11-05,1,,,,,ユミネコノキョウカショキョウイクメディア,0
2182,9011403004925,新規,0,2025-11-05,2025-11-05,合同会社ＴＯＥＮ,,合同会社,東京都,板橋区,大和町１－３－８０１,,13,119,1730012,,,,,,,2025-11-05,1,,,,,トウエン,0
2190,9011803007164,新規,0,2025-11-05,2025-11-05,ルーセンハフ合同会社,,合同会社,東京都,足立区,鹿浜１丁目５番１５－９０２号,,13,121,1230864,,,,,,,2025-11-05,1,,,,,ルーセンハフ,0
2193,9012805003374,新規,0,2025-11-05,2025-11-05,ジャパンＩＴワーカーズコレクティブ労働者協同組合,,その他の設立登記法人,東京都,立川市,富士見町６丁目富士見町団地１８号棟５０９号室,,13,202,1900013,,,,,,,2025-11-05,1,,,,,ジャパンアイティーワーカーズコレクティブ,0
2203,9020001165666,新規,0,2025-11-05,2025-11-05,ＨＩＤＥＮ株式会社,,株式会社,神奈川県,横浜市西区,浅間台８９－２４,,14,103,2200071,,,,,,,2025-11-05,1,,,,,ヒデン,0
2209,9020003029704,新規,0,2025-11-05,2025-11-05,合同会社Ｅｎｃｈａｎｔｅ,,合同会社,神奈川県,横浜市青葉区,美しが丘西３丁目６１番地２６,,14,117,2250001,,,,,,,2025-11-05,1,,,,,アンシャンテ,0
2210,9020003029720,新規,0,2025-11-05,2025-11-05,Ｈａｔｓｕ合同会社,,合同会社,神奈川県,横浜市鶴見区,北寺尾２丁目１０番２４号,,14,101,2300074,,,,,,,2025-11-05,1,,,,,ハツ,0
2214,9021001086704,新規,0,2025-11-05,2025-11-05,アシュアゲート株式会社,,株式会社,神奈川県,平塚市,明石町２７－２相湘明石町ビル６－７階,,14,203,2540042,,,,,,,2025-11-05,1,,,,,アシュアゲート,0
2215,9021001086720,新規,0,2025-11-05,2025-11-05,株式会社天真,,株式会社,神奈川県,鎌倉市,大船１丁目９番１２号ツインズビル２－Ｃ号室,,14,204,2470056,,,,,,,2025-11-05,1,,,,,テンシン,0
2218,9021003016766,新規,0,2025-11-05,2025-11-05,Ｍケアパートナー合同会社,,合同会社,神奈川県,相模原市中央区,陽光台３丁目７番１７号,,14,152,2520226,,,,,,,2025-11-05,1,,,,,エムケアパートナー,0
2231,9030001169476,新規,0,2025-11-05,2025-11-05,株式会社ＡＳＫＩＭ,,株式会社,埼玉県,川越市,幸町４番地１りそなコエドテラス３階,,11,201,3500063,,,,,,,2025-11-05,1,,,,,アスキム,0
2232,9030001169484,新規,0,2025-11-05,2025-11-05,アイエヌジーホールディングス株式会社,,株式会社,埼玉県,さいたま市大宮区,桜木町１丁目１３,,11,103,3300854,,,,,,,2025-11-05,1,,,,,アイエヌジーホールディングス,0
2233,9030001169492,新規,0,2025-11-05,2025-11-05,株式会社ＳＭＩＬＥ,,株式会社,埼玉県,川口市,並木１丁目２７番６号１階,,11,203,3320034,,,,,,,2025-11-05,1,,,,,スマイル,0
2234,9030001169501,新規,0,2025-11-05,2025-11-05,株式会社ナガモリダイスケ,,株式会社,埼玉県,朝霞市,本町２丁目５番１２－１０１号,,11,227,3510011,,,,,,,2025-11-05,1,,,,,ナガモリダイスケ,0
2235,9030001169534,新規,0,2025-11-05,2025-11-05,株式会社スズサポ,,株式会社,埼玉県,川口市,鳩ヶ谷本町２丁目９番１２－２０２号,,11,203,3340002,,,,,,,2025-11-05,1,,,,,スズサポ,0
2239,9030003028003,新規,0,2025-11-05,2025-11-05,合同会社善,,合同会社,埼玉県,川越市,中台３丁目１番地２８,,11,201,3501159,,,,,,,2025-11-05,1,,,,,ゼン,0
2247,9050001057522,新規,0,2025-11-05,2025-11-05,株式会社鈴木電気商会,,株式会社,茨城県,水戸市,飯富町８０７番地,,08,201,3114206,,,,,,,2025-11-05,1,,,,,スズキデンキショウカイ,0
2252,9060001038728,新規,0,2025-11-05,2025-11-05,株式会社Ｉｒｉｓ,,株式会社,栃木県,宇都宮市,東宿郷４丁目６番５号舘野コーポ１０２,,09,201,3210953,,,,,,,2025-11-05,1,,,,,イリス,0
2253,9060003005825,新規,0,2025-11-05,2025-11-05,合同会社ＮａＮａＬａ,,合同会社,栃木県,佐野市,植野町１９８２－３,,09,204,3270837,,,,,,,2025-11-05,1,,,,,ナナラ,0
2254,9060003005833,新規,0,2025-11-05,2025-11-05,合同会社ジュテーム,,合同会社,栃木県,佐野市,富岡町１６９４－２,,09,204,3270844,,,,,,,2025-11-05,1,,,,,ジュテーム,0
2259,9080001027241,新規,0,2025-11-05,2025-11-05,株式会社テロワールフランカ,,株式会社,静岡県,静岡市駿河区,中田１丁目１４番２０－３０３号,,22,102,4228041,,,,,,,2025-11-05,1,,,,,テロワールフランカ,0
2261,9080401028244,新規,0,2025-11-05,2025-11-05,スリーＡ警備保障株式会社,,株式会社,静岡県,浜松市中央区,早出町２２５‐４セジュールソフィエ１０２,,22,138,4350054,,,,,,,2025-11-05,1,,,,,スリーエーケイビホショウ,0
2267,9110001039687,新規,0,2025-11-05,2025-11-05,株式会社アドリファーム,,株式会社,新潟県,長岡市,三和３丁目６番地６,,15,202,9401151,,,,,,,2025-11-05,1,,,,,アドリファーム,0
2268,9110001039695,新規,0,2025-11-05,2025-11-05,ＢＯＤＹ　ＳＨＯＰ　ＫＡＩＴＳＵ株式会社,,株式会社,新潟県,新潟市北区,木崎８７０番地１,,15,101,9503304,,,,,,,2025-11-05,1,,,,,ボディーショップカイツ,0
2286,9120001281734,新規,0,2025-11-05,2025-11-05,株式会社オフィスみやざき,,株式会社,大阪府,大阪市北区,梅田２丁目５番１３号桜橋第一ビル３０４号,,27,127,5300001,,,,,,,2025-11-05,1,,,,,オフィスミヤザキ,0
2292,9120003031195,新規,0,2025-11-05,2025-11-05,合同会社ＲＩＯＳ,,合同会社,大阪府,大阪市住之江区,住之江３丁目１０番１７号,,27,125,5590004,,,,,,,2025-11-05,1,,,,,リオス,0
2296,9120901051708,新規,0,2025-11-05,2025-11-05,株式会社ポレン,,株式会社,大阪府,吹田市,春日１丁目１番６－３０１号,,27,205,5650853,,,,,,,2025-11-05,1,,,,,ポレン,0
2300,9130001080929,新規,0,2025-11-05,2025-11-05,株式会社ＴＲＡＤ,,株式会社,京都府,京都市下京区,小稲荷町８５－２Ｇｒａｎｄ－Ｋ京都駅前ビル２０１,,26,106,6008208,,,,,,,2025-11-05,1,,,,,トラッド,0
2304,9140001140624,新規,0,2025-11-05,2025-11-05,株式会社一輝,,株式会社,兵庫県,明石市,大久保町江井島１６４７番地の４（４０５号）,,28,203,6740064,,,,,,,2025-11-05,1,,,,,イチキ,0
2308,9170003002332,新規,0,2025-11-05,2025-11-05,和紀マネジメント合同会社,,合同会社,和歌山県,和歌山市,狐島３４１,,30,201,6408412,,,,,,,2025-11-05,1,,,,,ワキマネジメント,0
2316,9180001169296,新規,0,2025-11-05,2025-11-05,株式会社Ｍａｉｓｏｎ　ＤＯＮＵＴ,,株式会社,愛知県,名古屋市中区,丸の内１丁目２番４号,,23,106,4600002,,,,,,,2025-11-05,1,,,,,メゾンドーナツ,0
2319,9180003029300,新規,0,2025-11-05,2025-11-05,カイルア合同会社,,合同会社,愛知県,名古屋市中区,錦２丁目７番７号,,23,106,4600003,,,,,,,2025-11-05,1,,,,,,0
2321,9180303006791,新規,0,2025-11-05,2025-11-05,Ｓａｔｅｔｓｕ　Ｌａｂｓ合同会社,,合同会社,愛知県,碧南市,丸山町２丁目５５番地アーバン丸山１０２号,,23,209,4470066,,,,,,,2025-11-05,1,,,,,サテツラボ,0
2325,9210001020372,新規,0,2025-11-05,2025-11-05,ワッショイ株式会社,,株式会社,福井県,福井市,中央１丁目１４－４コノジナガヤシンサカエオフィス,,18,201,9100006,,,,,,,2025-11-05,1,,,,,ワッショイ,0
2326,9220001027004,新規,0,2025-11-05,2025-11-05,株式会社イレブンファイブ,,株式会社,石川県,河北郡内灘町,字千鳥台２丁目１９０番地,,17,365,9200277,,,,,,,2025-11-05,1,,,,,イレブンファイブ,0
2332,9240001065729,新規,0,2025-11-05,2025-11-05,株式会社東和,,株式会社,広島県,福山市,木之庄町１丁目５番１９‐１０６号,,34,207,7200082,,,,,,,2025-11-05,1,,,,,トウワ,0
2335,9250005009037,新規,0,2025-11-05,2025-11-05,一般社団法人笠佐島を守る会,,その他の設立登記法人,山口県,大島郡周防大島町,大字笠佐島１１１番地,,35,305,7422108,,,,,,,2025-11-05,1,,,,,カササジマヲマモルカイ,0
2338,9260003005409,新規,0,2025-11-05,2025-11-05,合同会社Ｍａｇｉｃ　Ｌａｎｔｅｒｎ,,合同会社,岡山県,岡山市北区,芳賀５１１４番地２１,,33,101,7011221,,,,,,,2025-11-05,1,,,,,マジックランタン,0
2340,9280001009541,新規,0,2025-11-05,2025-11-05,株式会社斐川かんぴ薬局,,株式会社,島根県,松江市,浜乃木６丁目２６番１９号,,32,201,6900044,,,,,,,2025-11-05,1,,,,,ヒカワカンピヤッキョク,0
2352,9290001112014,新規,0,2025-11-05,2025-11-05,株式会社ステラマリス,,株式会社,福岡県,福岡市中央区,荒戸１丁目６番１７号,,40,133,8100062,,,,,,,2025-11-05,1,,,,,ステラマリス,0
2353,9290001112039,新規,0,2025-11-05,2025-11-05,株式会社コスパ九州,,株式会社,福岡県,福岡市博多区,博多駅前１丁目２３番２号ＰａｒｋＦｒｏｎｔ博多駅前一丁目５Ｆ－Ｂ,,40,132,8120011,,,,,,,2025-11-05,1,,,,,コスパキュウシュウ,0
2360,9290005019874,新規,0,2025-11-05,2025-11-05,一般社団法人ほろん,,その他の設立登記法人,福岡県,福岡市東区,八田３丁目１３番９号八田倉地アパート１０５号室,,40,131,8130031,,,,,,,2025-11-05,1,,,,,ホロン,0
2367,9360003015380,新規,0,2025-11-05,2025-11-05,合同会社Ｓｅａｉｃｉｎｇ,,合同会社,沖縄県,宮古島市,下地字上地６２３－１３－１－１－Ｃ,,47,214,9060304,,,,,,,2025-11-05,1,,,,,シーアイシング,0
2370,9370001053200,新規,0,2025-11-05,2025-11-05,ラーテルエネルギー株式会社,,株式会社,宮城県,仙台市泉区,根白石字花輪裏２５番地１,,04,105,9813221,,,,,,,2025-11-05,1,,,,,ラーテルエネルギー,0
2386,9490005007009,新規,0,2025-11-05,2025-11-05,一般社団法人オンラインデイサービス協会,,その他の設立登記法人,高知県,長岡郡本山町,吉野３４７番地１,,39,341,7813618,,,,,,,2025-11-05,1,,,,,オンラインデイサービスキョウカイ,0
