sequenceNumber,corporateNumber,process,correct,updateDate,changeDate,name,nameImageId,kind,prefectureName,cityName,streetNumber,addressImageId,prefectureCode,cityCode,postCode,addressOutside,addressOutsideImageId,closeDate,closeCause,successorCorporateNumber,changeCause,assignmentDate,latest,enName,enPrefectureName,enCityName,enAddressOutside,furigana,hihyoji
2,1000020339202,登記記録の閉鎖等,0,2024-06-07,2024-03-31,岡山県西部地区養護老人ホーム組合,,地方公共団体,岡山県,笠岡市,神島外浦１－１,,33,205,7140034,,,2024-03-31,その他の清算の結了等,,,2015-10-05,1,West Okayama Prefecture Intensive Care Homes for the Elderly Association,Okayama,"1-1,Kounoshimasotoura, Kasaoka-shi",,オカヤマケンセイブチクヨウゴロウジンホームクミアイ,0
3,1010001036553,登記記録の閉鎖等,0,2024-06-07,2024-06-05,足柄森林都市株式会社,,株式会社,東京都,中央区,銀座１丁目８番１７号,,13,102,1040061,,,2024-06-05,清算の結了等,,,2015-10-05,1,,,,,アシガラシンリントシ,0
4,1010001056089,登記記録の閉鎖等,0,2024-06-07,2024-06-03,フジライトカーペット株式会社,,株式会社,東京都,足立区,西伊興４丁目９番１０号,,13,121,1210824,,,2024-06-03,清算の結了等,,,2015-10-05,1,,,,,フジライトカーペット,0
5,1010001121941,登記記録の閉鎖等,0,2024-06-07,2024-06-04,株式会社サンネットワーク,,株式会社,神奈川県,茅ヶ崎市,南湖２丁目９番７号,,14,207,2530061,,,2024-06-04,清算の結了等,,,2015-10-05,1,,,,,サンネットワーク,0
12,1010003027286,登記記録の閉鎖等,0,2024-06-07,2024-04-30,合同会社トータル安心サポート,,合同会社,東京都,千代田区,外神田４丁目７番２号小林ビル５階,,13,101,1010021,,,2024-04-30,清算の結了等,,,2018-04-13,1,,,,,トータルアンシンサポート,0
16,1010005027359,登記記録の閉鎖等,0,2024-06-07,2024-06-04,ＳＫＹ一般社団法人,,その他の設立登記法人,東京都,千代田区,丸の内３丁目１番１号東京共同会計事務所内,,13,101,1000005,,,2024-06-04,清算の結了等,,,2017-08-28,1,,,,,スカイ,0
27,1010501049162,登記記録の閉鎖等,0,2024-06-07,2024-06-04,株式会社ＹＮ警備,,株式会社,東京都,台東区,蔵前４丁目３７番４－２０１号,,13,106,1110051,,,2024-06-04,清算の結了等,,,2022-07-26,1,,,,,ワイエヌケイビ,0
34,1010702013834,登記記録の閉鎖等,0,2024-06-07,2024-05-27,有限会社Ｋ．Ｔエンタープライズ,,有限会社,東京都,港区,三田３丁目４番１１号,,13,103,1080073,,,2024-05-27,清算の結了等,,,2015-10-05,1,,,,,ケーティーエンタープライズ,0
70,1012401023338,登記記録の閉鎖等,0,2024-06-07,2024-06-05,株式会社軍鶏,,株式会社,東京都,台東区,上野６丁目８番２２号２階,,13,106,1100005,,,2024-06-05,清算の結了等,,,2015-10-05,1,,,,,シャモ,0
75,1020001018848,登記記録の閉鎖等,0,2024-06-07,2024-05-31,株式会社増田鉄工所,,株式会社,神奈川県,横浜市鶴見区,駒岡５丁目１７番１号,,14,101,2300071,,,2024-05-31,清算の結了等,,,2015-10-05,1,,,,,マスダテッコウジョ,0
80,1020003019464,登記記録の閉鎖等,0,2024-06-07,2024-05-09,合同会社Ｚｉｎｇｅｒ,,合同会社,神奈川県,横浜市神奈川区,新子安１丁目１８－１－９２４,,14,102,2210013,,,2024-05-09,清算の結了等,,,2021-03-30,1,,,,,ジンジャー,0
92,1030001058505,登記記録の閉鎖等,0,2024-06-07,2024-06-03,吉田タオル株式会社,,株式会社,埼玉県,入間郡三芳町,大字藤久保３８３８番地２６,,11,324,3540041,,,2024-06-03,清算の結了等,,,2015-10-05,1,,,,,ヨシダタオル,0
105,1030002104984,登記記録の閉鎖等,0,2024-06-07,2024-06-03,有限会社辻村工芸,00017753,有限会社,埼玉県,川口市,大字安行慈林１１３１番地の１２,,11,203,3340071,,,2024-06-03,清算の結了等,,,2015-10-05,1,,,,,ツジムラコウゲイ,0
119,1040005006483,登記記録の閉鎖等,0,2024-06-07,2024-05-30,医療法人社団健和明生会,,その他の設立登記法人,千葉県,印西市,木下６７８番地１５,,12,231,2701326,,,2024-05-30,清算の結了等,,,2015-10-05,1,,,,,ケンワメイセイカイ,0
129,1060001008374,登記記録の閉鎖等,0,2024-06-07,2024-05-31,エムイー・ラボシステム株式会社,,株式会社,栃木県,日光市,木和田島１５７１番地３４０,,09,206,3212345,,,2024-05-31,清算の結了等,,,2015-10-05,1,,,,,エムイーラボシステム,0
186,1120102010669,登記記録の閉鎖等,0,2024-06-07,2024-05-23,有限会社イーグルコーヒー,,有限会社,大阪府,堺市西区,浜寺昭和町５丁６２２番地２２,,27,144,5928345,,,2024-05-23,清算の結了等,,,2015-10-05,1,,,,,イーグルコーヒー,0
202,1130002000133,登記記録の閉鎖等,0,2024-06-07,2024-06-03,有限会社井澤,,有限会社,京都府,京都市右京区,西院西淳和院町２０番地,,26,108,6150016,,,2024-06-03,清算の結了等,,,2015-10-05,1,,,,,イザワ,0
210,1140002001592,登記記録の閉鎖等,0,2024-06-07,2024-06-03,有限会社三惠興産,,有限会社,兵庫県,神戸市東灘区,御影本町４丁目１２番２８号,,28,101,6580046,,,2024-06-03,清算の結了等,,,2015-10-05,1,,,,,サンケイコウサン,0
218,1150002008744,登記記録の閉鎖等,0,2024-06-07,2024-06-05,有限会社エイコウライフ,,有限会社,奈良県,北葛城郡王寺町,久度２丁目１１番１号,,29,425,6360003,,,2024-06-05,清算の結了等,,,2015-10-05,1,,,,,エイコウライフ,0
229,1170002001292,登記記録の閉鎖等,0,2024-06-07,2024-06-04,有限会社熊谷商店,,有限会社,和歌山県,和歌山市,津秦１５７番地の５,,30,201,6408315,,,2024-06-04,清算の結了等,,,2015-10-05,1,,,,,クマガイショウテン,0
237,1180001114061,登記記録の閉鎖等,0,2024-06-07,2024-05-29,株式会社パワーテック,,株式会社,愛知県,名古屋市港区,明正１丁目１４３番地,,23,111,4550806,,,2024-05-29,清算の結了等,,,2015-10-05,1,,,,,パワーテック,0
250,1200001037870,登記記録の閉鎖等,0,2024-06-07,2024-06-03,森の国から電力株式会社,,株式会社,岐阜県,恵那市,飯地町２８９７番地,,21,210,5098232,,,2024-06-03,合併による解散等,6200001023833,令和６年６月１日岐阜県恵那市大井町２０８７番地の５２１株式会社あったか森の国から（6200001023833）に合併し解散,2020-10-12,1,,,,,モリノクニカラデンリョク,0
252,1200005013513,登記記録の閉鎖等,0,2024-06-07,2024-06-03,特定非営利活動法人はるライフサポート,,その他の設立登記法人,岐阜県,岐阜市,菅生７丁目１番２４号,,21,201,5020914,,,2024-06-03,清算の結了等,,,2023-08-09,1,,,,,ハルライフサポート,0
258,1260001037056,登記記録の閉鎖等,0,2024-06-07,2024-06-05,株式会社八咫,,株式会社,岡山県,岡山市北区,本町８番１５号本町プラザ２階,,33,101,7000901,,,2024-06-05,合併による解散等,2470001005825,令和６年５月３０日香川県高松市中野町２９番２号高松パークビル１１Ｆ１－２株式会社森蔵（2470001005825）に合併し解散,2022-07-21,1,,,,,ヤタ,0
259,1260003004112,登記記録の閉鎖等,0,2024-06-07,2024-06-03,合同会社フォレスト６号,,合同会社,岡山県,岡山市北区,西古松５３番地１（８０２）,,33,101,7000927,,,2024-06-03,清算の結了等,,,2022-11-25,1,,,,,フォレストロクゴウ,0
289,1370502000807,登記記録の閉鎖等,0,2024-06-07,2024-06-03,有限会社ベスト,,有限会社,宮城県,気仙沼市,下八瀬３６１番地,,04,205,9880851,,,2024-06-03,清算の結了等,,,2015-10-05,1,,,,,ベスト,0
302,1410001010674,登記記録の閉鎖等,0,2024-06-07,2024-05-31,株式会社グレイスコール,,株式会社,秋田県,秋田市,飯島道東２丁目１２番４５号,,05,201,0110917,,,2024-05-31,清算の結了等,,,2015-10-05,1,,,,,グレイスコール,0
308,1430001045479,登記記録の閉鎖等,0,2024-06-07,2024-06-03,北新物流株式会社,,株式会社,北海道,札幌市南区,石山東１丁目２番２１号,,01,106,0050850,,,2024-06-03,清算の結了等,,,2015-10-05,1,,,,,ホクシンブツリュウ,0
321,1480002010287,登記記録の閉鎖等,0,2024-06-07,2024-06-05,上田食品有限会社,,有限会社,徳島県,鳴門市,撫養町斎田字浜端西９３番地,,36,202,7720002,,,2024-06-05,清算の結了等,,,2015-10-05,1,,,,,ウエタショクヒン,0
330,2010001080773,登記記録の閉鎖等,0,2024-06-07,2024-05-29,チャイナホテルシステム株式会社,,株式会社,東京都,中央区,日本橋室町４丁目４番３号５階,,13,102,1030022,,,2024-05-29,清算の結了等,,,2015-10-05,1,,,,,チャイナホテルシステム,0
339,2010005031104,登記記録の閉鎖等,0,2024-06-07,2024-05-31,一般社団法人日本ウォールナット協会,,その他の設立登記法人,岡山県,浅口郡里庄町,大字新庄１５５０番地,,33,445,7190302,,,2024-05-31,清算の結了等,,,2019-11-25,1,,,,,ニホンウォールナットキョウカイ,0
344,2010401122456,登記記録の閉鎖等,0,2024-06-07,2024-06-03,オープンアソシエイツ株式会社,,株式会社,東京都,港区,虎ノ門１丁目２３番１号,,13,103,1050001,,,2024-06-03,合併による解散等,9010401106592,令和６年６月１日東京都港区虎ノ門一丁目２３番１号オープン株式会社（9010401106592）に合併し解散,2016-01-15,1,,,,,オープンアソシエイツ,0
383,2011101091041,登記記録の閉鎖等,0,2024-06-07,2024-05-31,株式会社ＳＴＡＮＯＶＡ,,株式会社,東京都,千代田区,九段南１丁目５番６号りそな九段ビル５階ＫＳフロア,,13,101,1020074,,,2024-05-31,清算の結了等,,,2020-04-22,1,,,,,スタノバ,0
400,2012401031793,登記記録の閉鎖等,0,2024-06-07,2024-05-27,株式会社ミゾウ,,株式会社,東京都,渋谷区,道玄坂１丁目１０番８号渋谷道玄坂東急ビル２Ｆ－Ｃ,,13,113,1500043,,,2024-05-27,清算の結了等,,,2016-08-29,1,,,,,ミゾウ,0
420,2021001038521,登記記録の閉鎖等,0,2024-06-07,2024-06-05,株式会社エスケープランニング,,株式会社,神奈川県,茅ヶ崎市,中島１２０７番地３,,14,207,2530073,,,2024-06-05,清算の結了等,,,2015-10-05,1,,,,,エスケープランニング,0
428,2030001059485,登記記録の閉鎖等,0,2024-06-07,2024-06-04,三光工業株式会社,,株式会社,埼玉県,入間郡三芳町,大字北永井６７９番地２１,,11,324,3540044,,,2024-06-04,清算の結了等,,,2015-10-05,1,,,,,サンコウコウギョウ,0
472,2120001000209,登記記録の閉鎖等,0,2024-06-07,2024-06-06,小川建設株式会社,,株式会社,大阪府,大阪市旭区,高殿７丁目１８番６号,,27,117,5350031,,,2024-06-06,清算の結了等,,,2015-10-05,1,,,,,オガワケンセツ,0
497,2130001025411,登記記録の閉鎖等,0,2024-06-07,2024-06-03,株式会社若松電業社,,株式会社,京都府,京都市南区,久世東土川町２００番６７,,26,107,6018204,,,2024-06-03,合併による解散等,8130001041898,令和６年６月１日京都府福知山市土師宮町二丁目１００番地株式会社若松電業社（8130001041898）に合併し解散,2015-10-05,1,,,,,ワカマツデンギョウシャ,0
502,2130005014674,登記記録の閉鎖等,0,2024-06-07,2024-06-05,一般財団法人角谷建耀知財団,00107597,その他の設立登記法人,京都府,京都市下京区,四条通烏丸東入長刀鉾町２２番地,,26,106,6008008,,,2024-06-05,清算の結了等,,,2016-08-19,1,,,,,カクタニケンイチザイダン,0
521,2180002049818,登記記録の閉鎖等,0,2024-06-07,2024-06-03,有限会社コンサルテック,,有限会社,愛知県,名古屋市昭和区,福江２丁目５番５－８０２号,,23,107,4660059,,,2024-06-03,清算の結了等,,,2015-10-05,1,,,,,コンサルテック,0
530,2200002006980,登記記録の閉鎖等,0,2024-06-07,2024-06-04,有限会社イド,,有限会社,岐阜県,各務原市,鵜沼東町３丁目１７５番地の１,,21,213,5090126,,,2024-06-04,清算の結了等,,,2015-10-05,1,,,,,イド,0
532,2210002002186,登記記録の閉鎖等,0,2024-06-07,2024-06-05,有限会社たこや食品,,有限会社,福井県,福井市,御幸１丁目１３番１７号,,18,201,9100854,,,2024-06-05,清算の結了等,,,2015-10-05,1,,,,,タコヤショクヒン,0
534,2230003001557,登記記録の閉鎖等,0,2024-06-07,2024-06-04,Ｔ．Ｒテクノ合同会社,,合同会社,富山県,射水市,三ケ１５１０番地,,16,211,9390341,,,2024-06-04,清算の結了等,,,2020-10-28,1,,,,,ティーアールテクノ,0
544,2250001005566,登記記録の閉鎖等,0,2024-06-07,2024-06-03,新下関観光株式会社,,株式会社,山口県,下関市,一の宮卸本町４番５号,,35,201,7510817,,,2024-06-03,合併による解散等,8250001005180,令和６年６月１日山口県下関市一の宮卸本町４番５号オーエス観光興業株式会社（8250001005180）に合併し解散,2015-10-05,1,,,,,シンシモノセキカンコウ,0
553,2290001066514,登記記録の閉鎖等,0,2024-06-07,2024-05-16,株式会社久野保険事務所,,株式会社,福岡県,春日市,天神山２丁目１番地,,40,218,8160855,,,2024-05-16,清算の結了等,,,2015-10-05,1,,,,,ヒサノホケンジムショ,0
569,2340001006514,登記記録の閉鎖等,0,2024-06-07,2024-06-06,株式会社ナンワ工業,,株式会社,鹿児島県,鹿児島市,東開町３番地１６６,,46,201,8910115,,,2024-06-06,合併による解散等,5340001003186,令和６年６月１日鹿児島市東開町３番地１６６株式会社ナンワ（5340001003186）に合併し解散,2015-10-05,1,,,,,ナンワコウギョウ,0
570,2340001016983,登記記録の閉鎖等,0,2024-06-07,2024-06-06,株式会社ナンワエナジー,,株式会社,鹿児島県,鹿児島市,東開町３番地１６６,,46,201,8910115,,,2024-06-06,合併による解散等,5340001003186,令和６年６月１日鹿児島市東開町３番地１６６株式会社ナンワ（5340001003186）に合併し解散,2015-10-05,1,,,,,ナンワエナジー,0
577,2360001023400,登記記録の閉鎖等,0,2024-06-07,2024-06-04,株式会社章工務,,株式会社,沖縄県,石垣市,字真栄里４番地,,47,207,9070002,,,2024-06-04,清算の結了等,,,2018-01-17,1,,,,,アキラコウム,0
598,2420002012949,登記記録の閉鎖等,0,2024-06-07,2024-06-03,有限会社尾崎設備設計事務所,,有限会社,青森県,弘前市,大字外崎２丁目１番地２２,,02,202,0368094,,,2024-06-03,清算の結了等,,,2015-10-05,1,,,,,オザキセツビセッケイジムショ,0
613,2480001000750,登記記録の閉鎖等,0,2024-06-07,2024-06-05,三光電機株式会社,,株式会社,徳島県,徳島市,佐古二番町５番７号,,36,201,7700022,,,2024-06-05,清算の結了等,,,2015-10-05,1,,,,,サンコウデンキ,0
634,3010003022566,登記記録の閉鎖等,0,2024-06-07,2024-05-29,合同会社難波３丁目開発事業,,合同会社,東京都,千代田区,丸の内３丁目１番１号東京共同会計事務所内,,13,101,1000005,,,2024-05-29,清算の結了等,,,2015-10-22,1,,,,,ナンバサンチョウメカイハツジギョウ,0
644,3010401116192,登記記録の閉鎖等,0,2024-06-07,2024-05-29,株式会社フェアリーコーポレーション,,株式会社,千葉県,柏市,旭町６丁目４番６３号,,12,217,2770852,,,2024-05-29,清算の結了等,,,2015-10-05,1,,,,,フェアリーコーポレーション,0
645,3010401120426,登記記録の閉鎖等,0,2024-06-07,2024-05-27,株式会社ｅＮＦＣ,,株式会社,東京都,港区,南麻布１丁目２６番１０－２０５号,,13,103,1060047,,,2024-05-27,清算の結了等,,,2015-10-05,1,,,,,イーエヌエフシー,0
684,3011101071843,登記記録の閉鎖等,0,2024-06-07,2024-05-31,株式会社廣商,,株式会社,東京都,新宿区,弁天町２番地１６サウスライトＶ７階,00124980,13,104,1620851,,,2024-05-31,清算の結了等,,,2015-10-05,1,,,,,ヒロショウ,0
700,3012402018599,登記記録の閉鎖等,0,2024-06-07,2024-06-05,有限会社キィーズ・テック,,有限会社,東京都,小平市,花小金井南町１丁目１１番１７号,,13,211,1870003,,,2024-06-05,清算の結了等,,,2015-10-05,1,,,,,キィーズテック,0
717,3020003011907,登記記録の閉鎖等,0,2024-06-07,2024-05-31,合同会社ＦＥＲＲＥＴ,,合同会社,神奈川県,川崎市宮前区,南野川３丁目３４番１３号,,14,136,2160042,,,2024-05-31,清算の結了等,,,2016-10-17,1,,,,,フェレット,0
727,3030001083344,登記記録の閉鎖等,0,2024-06-07,2024-06-03,株式会社ガーデナ,,株式会社,埼玉県,川口市,大字安行吉岡１３３８番－１０５号,,11,203,3340072,,,2024-06-03,清算の結了等,,,2015-10-05,1,,,,,ガーデナ,0
729,3030001099101,登記記録の閉鎖等,0,2024-06-07,2024-06-05,ラウンドクルー株式会社,,株式会社,東京都,台東区,上野２丁目１２番地１８,,13,106,1100005,,,2024-06-05,清算の結了等,,,2015-10-05,1,,,,,ラウンドクルー,0
755,3040002008381,登記記録の閉鎖等,0,2024-06-07,2024-05-27,有限会社友野工務店,,有限会社,千葉県,千葉市花見川区,検見川町５丁目２７７番地,,12,102,2620023,,,2024-05-27,清算の結了等,,,2015-10-05,1,,,,,トモノコウムテン,0
773,3070002016290,登記記録の閉鎖等,0,2024-06-07,2024-06-03,有限会社新洋亭,,有限会社,群馬県,富岡市,富岡１４１２番地,,10,210,3702316,,,2024-06-03,清算の結了等,,,2015-10-05,1,,,,,シンヨウテイ,0
777,3080402020668,登記記録の閉鎖等,0,2024-06-07,2024-06-04,有限会社ピジョン,,有限会社,静岡県,磐田市,東平松６８３番地の１,,22,211,4380211,,,2024-06-04,清算の結了等,,,2015-10-05,1,,,,,ピジョン,0
784,3110001027053,登記記録の閉鎖等,0,2024-06-07,2024-06-03,株式会社山六,,株式会社,新潟県,南魚沼市,六日町４７７番地５,,15,226,9496680,,,2024-06-03,清算の結了等,,,2015-10-05,1,,,,,ヤマロク,0
787,3120001211762,登記記録の閉鎖等,0,2024-06-07,2024-06-03,株式会社レガシー,,株式会社,大阪府,大阪市中央区,瓦町４丁目８番５号ＮＫビル,,27,128,5410048,,,2024-06-03,清算の結了等,,,2018-03-05,1,,,,,レガシー,0
804,3140001029138,登記記録の閉鎖等,0,2024-06-07,2024-06-04,株式会社光生創,,株式会社,兵庫県,神戸市兵庫区,菊水町１０丁目３９番１８－３－１３０２号,,28,105,6520058,,,2024-06-04,清算の結了等,,,2015-10-05,1,,,,,コウソウ,0
808,3140001099750,登記記録の閉鎖等,0,2024-06-07,2024-06-03,株式会社すみれホームズ,,株式会社,兵庫県,宝塚市,栄町３丁目１番１７,,28,214,6650845,,,2024-06-03,清算の結了等,,,2015-10-22,1,,,,,スミレホームズ,0
818,3180001084154,登記記録の閉鎖等,0,2024-06-07,2024-05-31,岩光株式会社,,株式会社,愛知県,一宮市,小信中島字南平口２６番地,,23,203,4940007,,,2024-05-31,清算の結了等,,,2015-10-05,1,,,,,イワミツ,0
833,3180301026590,登記記録の閉鎖等,0,2024-06-07,2024-05-31,株式会社チーム姫,,株式会社,愛知県,豊田市,堤町平松２９番地,,23,211,4730932,,,2024-05-31,清算の結了等,,,2015-10-05,1,,,,,チームヒメ,0
869,3290001080695,登記記録の閉鎖等,0,2024-06-07,2024-05-27,幸福のいずみ株式会社,,株式会社,東京都,港区,白金台１丁目１番１６－５０１号,,13,103,1080071,,,2024-05-27,清算の結了等,,,2018-03-05,1,,,,,コウフクノイズミ,0
908,3430001074047,登記記録の閉鎖等,0,2024-06-07,2024-06-04,株式会社小樽スロゥスタイル,,株式会社,北海道,小樽市,望洋台３丁目２番３号,,01,203,0470155,,,2024-06-04,清算の結了等,,,2017-05-19,1,,,,,オタルスロゥスタイル,0
918,3430002057091,登記記録の閉鎖等,0,2024-06-07,2024-06-04,都市環境管理有限会社,,有限会社,北海道,磯谷郡蘭越町,蘭越町５５９番地,,01,394,0481301,,,2024-06-04,清算の結了等,,,2015-10-05,1,,,,,トシカンキョウカンリ,0
923,3470002004362,登記記録の閉鎖等,0,2024-06-07,2024-06-03,有限会社高田タクシー,,有限会社,香川県,高松市,亀田町３８４番地,,37,201,7610323,,,2024-06-03,合併による解散等,3470001006021,令和６年６月１日香川県高松市城東町一丁目１番４９号株式会社せとうちタクシー（3470001006021）に合併し解散,2015-10-05,1,,,,,タカダタクシー,0
957,4010403026216,登記記録の閉鎖等,0,2024-06-07,2024-05-28,合同会社赤坂檜町建物,,合同会社,東京都,港区,赤坂９丁目１番２号,,13,103,1070052,,,2024-05-28,清算の結了等,,,2021-10-01,1,,,,,アカサカヒノキチョウタテモノ,0
959,4010501049119,登記記録の閉鎖等,0,2024-06-07,2024-06-03,ＸＹ　Ｐｒｏ　Ｇｌｏｂａｌ株式会社,,株式会社,東京都,台東区,上野３丁目１１番５号５Ｆ,,13,106,1100005,,,2024-06-03,清算の結了等,,,2022-07-14,1,,,,,エクスワイプログローバル,0
997,4011202001665,登記記録の閉鎖等,0,2024-06-07,2024-06-05,有限会社キーテックインベストメンツ,,有限会社,東京都,中野区,白鷺２丁目１３番１－１０８号,,13,114,1650035,,,2024-06-05,清算の結了等,,,2015-10-05,1,,,,,,0
998,4011402005409,登記記録の閉鎖等,0,2024-06-07,2024-05-31,有限会社タイチ,,有限会社,東京都,板橋区,宮本町２番１０号リファインＭ１０１,,13,119,1740054,,,2024-05-31,清算の結了等,,,2015-10-05,1,,,,,タイチ,0
999,4011501008931,登記記録の閉鎖等,0,2024-06-07,2024-05-27,皆川美術印刷株式会社,,株式会社,東京都,港区,芝浦４丁目５番４号,,13,103,1080023,,,2024-05-27,清算の結了等,,,2015-10-05,1,,,,,ミナガワビジュツインサツ,0
1004,4012401000301,登記記録の閉鎖等,0,2024-06-07,2024-05-31,株式会社大森不動産鑑定事務所,,株式会社,東京都,武蔵野市,西久保３丁目２番１号,,13,203,1800013,,,2024-05-31,清算の結了等,,,2015-10-05,1,,,,,オオモリフドウサンカンテイジムショ,0
1012,4020001055491,登記記録の閉鎖等,0,2024-06-07,2024-05-28,株式会社アイ・グレード,,株式会社,東京都,中央区,晴海１丁目６番１号,,13,102,1040053,,,2024-05-28,清算の結了等,,,2015-10-05,1,,,,,アイグレード,0
1013,4020001080795,登記記録の閉鎖等,0,2024-06-07,2024-06-03,株式会社ＧＳＦ,,株式会社,神奈川県,川崎市高津区,久本３丁目６番４－１２０２号,,14,134,2130011,,,2024-06-03,清算の結了等,,,2015-10-05,1,,,,,ジーエスエフ,0
1023,4021002015427,登記記録の閉鎖等,0,2024-06-07,2024-06-05,有限会社ビー・ウインズ,,有限会社,神奈川県,鎌倉市,常盤６４１番地１,,14,204,2480022,,,2024-06-05,清算の結了等,,,2015-10-05,1,,,,,ビーウインズ,0
1027,4030001119072,登記記録の閉鎖等,0,2024-06-07,2024-06-05,株式会社ＹＳＪ,,株式会社,埼玉県,越谷市,大間野町４丁目２０１番地１０,,11,222,3430844,,,2024-06-05,清算の結了等,,,2017-03-03,1,,,,,ワイエスジェイ,0
1032,4030002018240,登記記録の閉鎖等,0,2024-06-07,2024-06-04,有限会社村田ハウジング,,有限会社,埼玉県,さいたま市北区,土呂町２丁目２１番地２５,,11,102,3310804,,,2024-06-04,清算の結了等,,,2015-10-05,1,,,,,ムラタハウジング,0
1033,4030002021921,登記記録の閉鎖等,0,2024-06-07,2024-06-03,有限会社ヤマヤス,,有限会社,埼玉県,さいたま市岩槻区,本町１丁目１７番１０号,,11,110,3390057,,,2024-06-03,清算の結了等,,,2015-10-05,1,,,,,ヤマヤス,0
1050,4050001005262,登記記録の閉鎖等,0,2024-06-07,2024-06-04,株式会社広栄コーポレーション,,株式会社,茨城県,東茨城郡城里町,大字北方１６０８番地の１,,08,310,3114325,,,2024-06-04,清算の結了等,,,2015-10-05,1,,,,,コウエイコーポレーション,0
1054,4060002022396,登記記録の閉鎖等,0,2024-06-07,2024-05-31,有限会社タケウチハウス,,有限会社,栃木県,那須塩原市,青木１４５８番地,,09,213,3250103,,,2024-05-31,清算の結了等,,,2015-10-05,1,,,,,タケウチハウス,0
1061,4080002010779,登記記録の閉鎖等,0,2024-06-07,2024-06-03,有限会社戸塚鋼材,00067506,有限会社,静岡県,静岡市清水区,七ツ新屋５２０番地,,22,103,4240066,,,2024-06-03,清算の結了等,,,2015-10-05,1,,,,,トツカコウザイ,0
1073,4120001142817,登記記録の閉鎖等,0,2024-06-07,2024-06-05,株式会社ネオアシスト,,株式会社,大阪府,大阪市淀川区,西中島６丁目２番３号,,27,123,5320011,,,2024-06-05,清算の結了等,,,2015-10-05,1,,,,,ネオアシスト,0
1078,4120001175552,登記記録の閉鎖等,0,2024-06-07,2024-06-04,株式会社ＳＥＨＩＲＯ,,株式会社,大阪府,門真市,下馬伏町２番２８号,,27,223,5710009,,,2024-06-04,清算の結了等,,,2015-10-05,1,,,,,,0
1099,4122001015795,登記記録の閉鎖等,0,2024-06-07,2024-06-03,株式会社ノムラ,,株式会社,大阪府,大東市,深野５丁目１２番４号,,27,218,5740072,,,2024-06-03,清算の結了等,,,2015-10-05,1,,,,,ノムラ,0
1105,4140001006383,登記記録の閉鎖等,0,2024-06-07,2024-06-03,株式会社エード・ドラツグ,,株式会社,兵庫県,神戸市中央区,相生町４丁目７番１３号,,28,110,6500025,,,2024-06-03,清算の結了等,,,2015-10-05,1,,,,,エードドラツグ,0
1107,4140002006176,登記記録の閉鎖等,0,2024-06-07,2024-06-04,有限会社相信,,有限会社,兵庫県,明石市,二見町東二見２０７番地,,28,203,6740092,,,2024-06-04,清算の結了等,,,2015-10-05,1,,,,,ソウシン,0
1141,4200005009624,登記記録の閉鎖等,0,2024-06-07,2024-06-03,特定非営利活動法人ふれんどりー,,その他の設立登記法人,岐阜県,恵那市,東野８５９番地１,,21,210,5097202,,,2024-06-03,清算の結了等,,,2015-10-05,1,,,,,フレンドリー,0
1185,4390001005303,登記記録の閉鎖等,0,2024-06-07,2024-05-30,株式会社エースプランニング,,株式会社,山形県,山形市,長町３丁目１番８０号,,06,201,9900811,,,2024-05-30,清算の結了等,,,2015-10-05,1,,,,,エースプランニング,0
1192,4410002002098,登記記録の閉鎖等,0,2024-06-07,2024-06-03,有限会社スカイ電気企画,,有限会社,秋田県,秋田市,御野場３丁目１番２号,,05,201,0101424,,,2024-06-03,清算の結了等,,,2015-10-05,1,,,,,スカイデンキキカク,0
1200,4460301003305,登記記録の閉鎖等,0,2024-06-07,2024-06-06,株式会社華北,,株式会社,北海道,網走郡大空町,女満別東陽１丁目１番２号,,01,564,0992305,,,2024-06-06,清算の結了等,,,2015-10-05,1,,,,,,0
1218,5010005030648,登記記録の閉鎖等,0,2024-06-07,2024-06-04,横浜戸塚施設開発特定目的会社,00117524,その他の設立登記法人,東京都,千代田区,飯田橋４丁目７番１号結和税理士法人内,,13,101,1020072,,,2024-06-04,清算の結了等,,,2019-08-27,1,,,,,ヨコハマトツカシセツカイハツ,0
1221,5010401136296,登記記録の閉鎖等,0,2024-06-07,2024-05-31,ＫＬＢ　Ｃｏｎｓｕｌｔｉｎｇ株式会社,,株式会社,東京都,新宿区,中落合３丁目１５番２２－３０１号,,13,104,1610032,,,2024-05-31,合併による解散等,4011101089199,令和６年５月３１日東京都新宿区中落合三丁目１５番２２－３０１号カルプレス研究所株式会社（4011101089199）に合併し解散,2018-01-30,1,,,,,ケーエルビーコンサルティング,0
1238,5010701027526,登記記録の閉鎖等,0,2024-06-07,2024-05-31,株式会社トップマネジメント,,株式会社,東京都,新宿区,四谷４丁目３１番地四谷ＴＳビル４階,,13,104,1600004,,,2024-05-31,清算の結了等,,,2015-10-05,1,,,,,トップマネジメント,0
1257,5011101085445,登記記録の閉鎖等,0,2024-06-07,2024-05-31,株式会社一幻六本木,,株式会社,東京都,新宿区,西新宿７丁目８番２号,,13,104,1600023,,,2024-05-31,清算の結了等,,,2018-09-21,1,,,,,イチゲンロッポンギ,0
1270,5011701003062,登記記録の閉鎖等,0,2024-06-07,2024-06-03,小林産業株式会社,,株式会社,東京都,江戸川区,東葛西８丁目３７番７号,,13,123,1340084,,,2024-06-03,清算の結了等,,,2015-10-05,1,,,,,コバヤシサンギョウ,0
1280,5012401000523,登記記録の閉鎖等,0,2024-06-07,2024-06-03,株式会社小勝商事,,株式会社,東京都,府中市,押立町１丁目３２番地５,,13,206,1830012,,,2024-06-03,合併による解散等,8012401000132,令和６年６月１日東京都府中市押立町一丁目３２番地の５株式会社うちでの小勝（8012401000132）に合併し解散,2015-10-05,1,,,,,オカツショウジ,0
1324,5040001085263,登記記録の閉鎖等,0,2024-06-07,2024-05-30,株式会社肉の米久,,株式会社,千葉県,市川市,真間５丁目１３番１２号,,12,203,2720826,,,2024-05-30,清算の結了等,,,2015-10-05,1,,,,,ニクノヨネキュウ,0
1336,5050001004775,登記記録の閉鎖等,0,2024-06-07,2024-06-03,株式会社メディックス,,株式会社,茨城県,水戸市,米沢町４１５番地の１,,08,201,3100847,,,2024-06-03,合併による解散等,9050001002899,令和６年６月１日茨城県水戸市米沢町４１５番地の１株式会社美鈴（9050001002899）に合併し解散,2015-10-05,1,,,,,メディックス,0
1347,5070001035769,登記記録の閉鎖等,0,2024-06-07,2024-06-04,株式会社ルーデンスヴィータ,,株式会社,群馬県,太田市,飯塚町８０１番地,,10,205,3730817,,,2024-06-04,清算の結了等,,,2019-05-28,1,,,,,ルーデンスヴィータ,0
1349,5070002016850,登記記録の閉鎖等,0,2024-06-07,2024-06-03,有限会社しもにた園芸,,有限会社,群馬県,甘楽郡下仁田町,大字西野牧１３４７９番地,,10,382,3702627,,,2024-06-03,清算の結了等,,,2015-10-05,1,,,,,シモニタエンゲイ,0
1356,5080101011561,登記記録の閉鎖等,0,2024-06-07,2024-06-05,株式会社太陽,,株式会社,静岡県,富士宮市,大宮町５番２１号,,22,207,4180066,,,2024-06-05,清算の結了等,,,2015-10-05,1,,,,,タイヨウ,0
1385,5130001067153,登記記録の閉鎖等,0,2024-06-07,2024-06-03,株式会社アクティブ,,株式会社,京都府,京都市伏見区,深草善導寺町３０番地８,,26,109,6128433,,,2024-06-03,清算の結了等,,,2020-06-30,1,,,,,アクティブ,0
1396,5140003007627,登記記録の閉鎖等,0,2024-06-07,2024-05-27,株式会社甲子園商会,,株式会社,東京都,港区,芝浦４丁目５番４号,,13,103,1080023,,,2024-05-27,清算の結了等,,,2015-10-05,1,,,,,コウシエンショウカイ,0
1415,5180301009866,登記記録の閉鎖等,0,2024-06-07,2024-05-30,株式会社サンエクス,,株式会社,愛知県,豊川市,市田町河尻４１番地の５,,23,207,4420862,,,2024-05-30,清算の結了等,,,2015-10-05,1,,,,,サンエクス,0
1426,5250002005835,登記記録の閉鎖等,0,2024-06-07,2024-06-05,有限会社メイト電装,,有限会社,山口県,宇部市,東琴芝１丁目１番１４－５号,,35,202,7550034,,,2024-06-05,清算の結了等,,,2015-10-05,1,,,,,メイトデンソウ,0
1434,5280003000650,登記記録の閉鎖等,0,2024-06-07,2024-06-03,合同会社杏,,合同会社,島根県,浜田市,長沢町３１３１番地１,,32,202,6970023,,,2024-06-03,清算の結了等,,,2015-10-05,1,,,,,アンズ,0
1447,5350001014018,登記記録の閉鎖等,0,2024-06-07,2024-06-04,株式会社ｌｉｍｉｓｔｅｐ,,株式会社,宮崎県,宮崎市,佐土原町西上那珂２５０番地１２,,45,201,8800302,,,2024-06-04,清算の結了等,,,2016-05-02,1,,,,,,0
1454,5370001023248,登記記録の閉鎖等,0,2024-06-07,2024-05-31,ＡＣサーベ株式会社,,株式会社,愛知県,岡崎市,真伝吉祥１丁目１２番地２０,,23,202,4443176,,,2024-05-31,清算の結了等,,,2015-10-05,1,,,,,エーシーサーベ,0
1462,5390002008147,登記記録の閉鎖等,0,2024-06-07,2024-05-30,有限会社和光ライフサービス,,有限会社,山形県,酒田市,日の出町２丁目４３番地の１０,,06,204,9980863,,,2024-05-30,清算の結了等,,,2015-10-05,1,,,,,ワコウライフサービス,0
1466,5430001012252,登記記録の閉鎖等,0,2024-06-07,2024-06-03,長山食糧工業株式会社,,株式会社,北海道,札幌市北区,北十六条西４丁目２番２６号,,01,102,0010016,,,2024-06-03,合併による解散等,5430002001898,令和６年６月１日札幌市北区北十六条西四丁目２番２６号株式会社一条食品（5430002001898）に合併し解散,2015-10-05,1,,,,,ナガヤマショクリョウコウギョウ,0
1467,5430001020610,登記記録の閉鎖等,0,2024-06-07,2024-06-03,中央測量設計株式会社,,株式会社,北海道,札幌市豊平区,平岸六条１４丁目２番４０号,,01,105,0620936,,,2024-06-03,清算の結了等,,,2015-10-05,1,,,,,チュウオウソクリョウセッケイ,0
1481,5480005002757,登記記録の閉鎖等,0,2024-06-07,2024-06-04,特定非営利活動法人音の和企画すだち塾,,その他の設立登記法人,徳島県,徳島市,中常三島町２丁目３番地の２,,36,201,7700813,,,2024-06-04,清算の結了等,,,2015-10-05,1,,,,,オトノワキカクスダチジュク,0
1483,5500001009794,登記記録の閉鎖等,0,2024-06-07,2024-05-31,株式会社ジャパレン愛媛,,株式会社,愛媛県,新居浜市,坂井町２丁目４番２３号,,38,205,7920812,,,2024-05-31,清算の結了等,,,2015-10-05,1,,,,,ジャパレンエヒメ,0
1501,6010003028230,登記記録の閉鎖等,0,2024-06-07,2024-05-31,セントラルパーツ合同会社,,合同会社,東京都,大田区,西蒲田７丁目２２番８号,,13,111,1440051,,,2024-05-31,清算の結了等,,,2018-09-10,1,,,,,セントラルパーツ,0
1503,6010005026455,登記記録の閉鎖等,0,2024-06-07,2024-05-31,一般社団法人ＦＫＤ＆Ｓ,,その他の設立登記法人,東京都,千代田区,紀尾井町４番３,,13,101,1020094,,,2024-05-31,清算の結了等,,,2017-02-21,1,,,,,エフケーディーアンドエス,0
1506,6010401098809,登記記録の閉鎖等,0,2024-06-07,2024-06-03,株式会社セグメント,,株式会社,東京都,港区,虎ノ門１丁目２３番１号,,13,103,1050001,,,2024-06-03,合併による解散等,9010401106592,令和６年６月１日東京都港区虎ノ門一丁目２３番１号オープン株式会社（9010401106592）に合併し解散,2015-10-05,1,,,,,セグメント,0
1507,6010401117428,登記記録の閉鎖等,0,2024-06-07,2024-05-27,株式会社ルコントワ,,株式会社,東京都,港区,西新橋１丁目１７番８号,,13,103,1050003,,,2024-05-27,清算の結了等,,,2015-10-05,1,,,,,ルコントワ,0
1508,6010401150305,登記記録の閉鎖等,0,2024-06-07,2024-05-28,ＥＮＭＩＲＩＳＥ株式会社,,株式会社,東京都,港区,浜松町２丁目２番１５号,,13,103,1050013,,,2024-05-28,清算の結了等,,,2020-01-09,1,,,,,エンミライズ,0
1514,6010405014902,登記記録の閉鎖等,0,2024-06-07,2024-05-24,一般社団法人がん予防サポートセンター,,その他の設立登記法人,東京都,港区,芝公園２丁目３番３号寺田ビル７階,,13,103,1050011,,,2024-05-24,清算の結了等,,,2016-06-23,1,,,,,,0
1540,6011601018531,登記記録の閉鎖等,0,2024-06-07,2024-05-31,株式会社カタリベ,,株式会社,東京都,新宿区,新宿５丁目１５番１４号,,13,104,1600022,,,2024-05-31,清算の結了等,,,2015-10-05,1,,,,,カタリベ,0
1546,6012702006648,登記記録の閉鎖等,0,2024-06-07,2024-06-05,有限会社三協ビーエム,,有限会社,東京都,東久留米市,東本町１４番２１号セルリアン・シティ４０３号,,13,222,2030014,,,2024-06-05,清算の結了等,,,2015-10-05,1,,,,,,0
1548,6013301013861,登記記録の閉鎖等,0,2024-06-07,2024-06-03,株式会社ターク,,株式会社,東京都,豊島区,西池袋１丁目９番８号,,13,116,1710021,,,2024-06-03,清算の結了等,,,2015-10-05,1,,,,,ターク,0
1557,6021001075783,登記記録の閉鎖等,0,2024-06-07,2024-06-05,株式会社Ｒｉｒｉｙ,,株式会社,神奈川県,相模原市中央区,淵野辺本町２丁目６番６－３号,,14,152,2520202,,,2024-06-05,清算の結了等,,,2022-04-25,1,,,,,リリー,0
1561,6021002046536,登記記録の閉鎖等,0,2024-06-07,2024-06-04,有限会社大光化成,,有限会社,神奈川県,綾瀬市,上土棚中３丁目１１番１２号,,14,218,2521113,,,2024-06-04,清算の結了等,,,2015-10-05,1,,,,,ダイコウカセイ,0
1578,6040001046132,登記記録の閉鎖等,0,2024-06-07,2024-05-31,株式会社メリディアン・ジャパン,,株式会社,千葉県,印西市,木刈６丁目１５番地７,,12,231,2701359,,,2024-05-31,清算の結了等,,,2015-10-05,1,,,,,メリディアンジャパン,0
1595,6070001005110,登記記録の閉鎖等,0,2024-06-07,2024-06-04,イリタ運輸株式会社,,株式会社,群馬県,前橋市,青柳町４３６番地２１,,10,201,3710056,,,2024-06-04,清算の結了等,,,2015-10-05,1,,,,,イリタウンユ,0
1596,6070001011901,登記記録の閉鎖等,0,2024-06-07,2024-06-04,ハートヘルス株式会社,,株式会社,群馬県,富岡市,南蛇井５１番地１,,10,210,3702464,,,2024-06-04,清算の結了等,,,2015-10-05,1,,,,,ハートヘルス,0
1615,6110003002299,登記記録の閉鎖等,0,2024-06-07,2024-06-03,木村屋製パン店合資会社,,合資会社,新潟県,魚沼市,十日町１５２番地１,,15,225,9460035,,,2024-06-03,清算の結了等,,,2015-10-05,1,,,,,キムラヤセイパンテン,0
1654,6130001063754,登記記録の閉鎖等,0,2024-06-07,2024-06-05,磐石草堂株式会社,,株式会社,京都府,京都市左京区,丸太町通川端東入東丸太町３２番地２－４Ｆ,,26,103,6068395,,,2024-06-05,清算の結了等,,,2019-01-22,1,,,,,バンセキソウドウ,0
1662,6150001002925,登記記録の閉鎖等,0,2024-06-07,2024-06-03,株式会社ノブレス,,株式会社,奈良県,奈良市,東紀寺町２丁目１０番１号,,29,201,6308305,,,2024-06-03,合併による解散等,7150001005638,令和６年６月１日奈良県大和郡山市美濃庄町４３６番地新日本輸送株式会社（7150001005638）に合併し解散,2015-10-05,1,,,,,ノブレス,0
1664,6150002002206,登記記録の閉鎖等,0,2024-06-07,2024-06-05,有限会社ダイゴシステムズ,,有限会社,奈良県,奈良市,西登美ヶ丘４丁目９番３号,,29,201,6310006,,,2024-06-05,清算の結了等,,,2015-10-05,1,,,,,ダイゴシステムズ,0
1681,6180005014880,登記記録の閉鎖等,0,2024-06-07,2024-06-03,一般社団法人愛知アグリコラボ,,その他の設立登記法人,愛知県,稲沢市,稲葉５丁目６番１７号,,23,220,4928219,,,2024-06-03,清算の結了等,,,2015-10-05,1,,,,,アイチアグリコラボ,0
1699,6240003004497,登記記録の閉鎖等,0,2024-06-07,2024-06-05,希望人株式会社,,株式会社,広島県,廿日市市,大野６７９番地,,34,213,7390488,,,2024-06-05,清算の結了等,,,2019-12-16,1,,,,,キボウジン,0
1721,6300001004526,登記記録の閉鎖等,0,2024-06-07,2024-06-03,株式会社アルタフーズ,,株式会社,佐賀県,佐賀市,開成３丁目６番１６号,,41,201,8490934,,,2024-06-03,合併による解散等,6300005000397,令和６年６月１日佐賀市開成三丁目６番１６号株式会社アルタ（6300005000397）に合併し解散,2015-10-05,1,,,,,アルタフーズ,0
1738,6370001041307,登記記録の閉鎖等,0,2024-06-07,2024-06-03,伊澤事務所株式会社,,株式会社,宮城県,仙台市青葉区,本町３丁目６番１８号勾当台イーストビル５階,,04,101,9800014,,,2024-06-03,清算の結了等,,,2017-04-17,1,,,,,イザワジムショ,0
1741,6370001042189,登記記録の閉鎖等,0,2024-06-07,2024-06-03,株式会社ＬＵＬＵＸ,,株式会社,宮城県,仙台市青葉区,本町１丁目５番２８号カーニープレイス８０１,,04,101,9800014,,,2024-06-03,清算の結了等,,,2017-10-18,1,,,,,,0
1751,6390002008807,登記記録の閉鎖等,0,2024-06-07,2024-05-29,有限会社アク・サン余目,,有限会社,山形県,東田川郡庄内町,余目字滑石５０番地１,,06,428,9997781,,,2024-05-29,清算の結了等,,,2015-10-05,1,,,,,アクサンアマルメ,0
1782,7010001009173,登記記録の閉鎖等,0,2024-06-07,2024-05-29,梓川不動産株式会社,,株式会社,東京都,千代田区,神田錦町１丁目６番地,,13,101,1010054,,,2024-05-29,清算の結了等,,,2015-10-05,1,,,,,アズサガワフドウサン,0
1796,7010003038914,登記記録の閉鎖等,0,2024-06-07,2024-05-29,コンパド合同会社,,合同会社,東京都,中央区,日本橋３丁目９番１号日本橋三丁目スクエア１１階,,13,102,1030027,,,2024-05-29,清算の結了等,,,2022-10-26,1,,,,,コンパド,0
1801,7010005027758,登記記録の閉鎖等,0,2024-06-07,2024-05-31,ＹＭＧ一般社団法人,,その他の設立登記法人,東京都,千代田区,六番町２番地８番町Ｍビル３階,,13,101,1020085,,,2024-05-31,清算の結了等,,,2017-11-20,1,,,,,ワイエムジー,0
1829,7010901033132,登記記録の閉鎖等,0,2024-06-07,2024-06-05,カラーズプロモーション株式会社,,株式会社,東京都,世田谷区,世田谷２丁目２４番１号,,13,112,1540017,,,2024-06-05,清算の結了等,,,2015-10-05,1,,,,,,0
1843,7011101077515,登記記録の閉鎖等,0,2024-06-07,2024-05-31,株式会社一幻新宿,,株式会社,東京都,新宿区,西新宿７丁目８番２号,,13,104,1600023,,,2024-05-31,清算の結了等,,,2016-07-06,1,,,,,イチゲンシンジュク,0
1854,7011405001229,登記記録の閉鎖等,0,2024-06-07,2024-05-27,特定非営利活動法人日本障害者スキー連盟,,その他の設立登記法人,東京都,港区,赤坂１丁目２番２号,,13,103,1070052,,,2024-05-27,清算の結了等,,,2015-10-05,1,Japan Para-Ski Federation,Tokyo,"1-2-2, Akasaka, Minato ku",,ニホンショウガイシャスキーレンメイ,0
1857,7011801005907,登記記録の閉鎖等,0,2024-06-07,2024-06-03,株式会社イガラシ,,株式会社,東京都,足立区,東保木間２丁目９番５号,,13,121,1210063,,,2024-06-03,清算の結了等,,,2015-10-05,1,,,,,イガラシ,0
1858,7011801012184,登記記録の閉鎖等,0,2024-06-07,2024-06-04,株式会社丸正,,株式会社,東京都,足立区,千住仲町２３番１号,,13,121,1200036,,,2024-06-04,清算の結了等,,,2015-10-05,1,,,,,マルショウ,0
1859,7011801013125,登記記録の閉鎖等,0,2024-06-07,2024-06-03,渡部興業株式会社,,株式会社,東京都,足立区,綾瀬７丁目１１番７号,,13,121,1200005,,,2024-06-03,清算の結了等,,,2015-10-05,1,,,,,ワタベコウギョウ,0
1865,7012301010307,登記記録の閉鎖等,0,2024-06-07,2024-06-06,株式会社ＳＫｉ,,株式会社,東京都,町田市,南成瀬５丁目２５番地２３,,13,209,1940045,,,2024-06-06,清算の結了等,,,2015-11-05,1,,,,,エスケーアイ,0
1881,7021001073869,登記記録の閉鎖等,0,2024-06-07,2024-06-05,株式会社ディガーライフ工業,,株式会社,神奈川県,平塚市,岡崎３２０５番地の１,,14,203,2591212,,,2024-06-05,清算の結了等,,,2021-09-07,1,,,,,ディガーライフコウギョウ,0
1895,7030002003405,登記記録の閉鎖等,0,2024-06-07,2024-06-03,有限会社金木書店,,有限会社,埼玉県,さいたま市見沼区,東大宮７丁目２４番地１４,,11,104,3370051,,,2024-06-03,清算の結了等,,,2015-10-05,1,,,,,カネキショテン,0
1906,7040002000533,登記記録の閉鎖等,0,2024-06-07,2024-05-30,有限会社安藤商事,,有限会社,千葉県,千葉市中央区,今井１丁目１３番１７号,,12,101,2600834,,,2024-05-30,清算の結了等,,,2015-10-05,1,,,,,アンドウショウジ,0
1948,7120002077365,登記記録の閉鎖等,0,2024-06-07,2024-06-03,有限会社ルイス・エレクトリック,,有限会社,大阪府,交野市,星田北４丁目３２番１０号,,27,230,5760017,,,2024-06-03,合併による解散等,1120001167230,令和６年６月１日大阪府枚方市山之上西町２９番２１号株式会社ワールドテクニカルサービス（1120001167230）に合併し解散,2015-10-05,1,,,,,ルイスエレクトリック,0
1949,7120003014697,登記記録の閉鎖等,0,2024-06-07,2024-06-03,合同会社Ｗｅ　Ｔｒｅｅ,,合同会社,大阪府,大阪市住吉区,長居東２丁目３番１９号,,27,120,5580004,,,2024-06-03,清算の結了等,,,2018-09-11,1,,,,,ウィーツリー,0
1998,7230001002560,登記記録の閉鎖等,0,2024-06-07,2024-06-04,針原紙工株式会社,,株式会社,富山県,富山市,金泉寺２１２番地５,,16,201,9300906,,,2024-06-04,清算の結了等,,,2015-10-05,1,,,,,ハリハラシコウ,0
2011,7260003003141,登記記録の閉鎖等,0,2024-06-07,2024-05-31,合同会社Ｚｅｒｏ,,合同会社,岡山県,倉敷市,水江１１７６－４,,33,202,7100802,,,2024-05-31,清算の結了等,,,2020-03-25,1,,,,,ゼロ,0
2014,7270002004899,登記記録の閉鎖等,0,2024-06-07,2024-06-05,有限会社長谷川石油,,有限会社,鳥取県,鳥取市,青谷町青谷４３０７番地５,,31,201,6890501,,,2024-06-05,清算の結了等,,,2015-10-05,1,,,,,ハセガワセキユ,0
2025,7310002017822,登記記録の閉鎖等,0,2024-06-07,2024-06-03,有限会社ファミリーオート中山,,有限会社,長崎県,諫早市,多良見町市布２３２０番地１７４,,42,204,8590403,,,2024-06-03,清算の結了等,,,2015-10-05,1,,,,,ファミリーオートナカヤマ,0
2032,7340001003184,登記記録の閉鎖等,0,2024-06-07,2024-06-06,株式会社南和,,株式会社,鹿児島県,鹿児島市,東開町３番地１６６,,46,201,8910115,,,2024-06-06,合併による解散等,5340001003186,令和６年６月１日鹿児島市東開町３番地１６６株式会社ナンワ（5340001003186）に合併し解散,2015-10-05,1,,,,,ナンワ,0
2034,7360003007974,登記記録の閉鎖等,0,2024-06-07,2024-06-05,ＣＥＬＴＩＣ　ＣＯＮＳＵＬＴＩＮＧ合同会社,,合同会社,沖縄県,国頭郡本部町,字具志堅１９０６番地,,47,308,9050201,,,2024-06-05,清算の結了等,,,2017-01-13,1,,,,,セルティックコンサルティング,0
2040,7370005001181,登記記録の閉鎖等,0,2024-06-07,2024-05-31,医療法人社団尾形小児科クリニック,,その他の設立登記法人,宮城県,仙台市太白区,袋原字台３１番地１,,04,104,9811102,,,2024-05-31,清算の結了等,,,2015-10-05,1,,,,,オガタショウニカクリニック,0
2046,7410002000090,登記記録の閉鎖等,0,2024-06-07,2024-05-31,青葉不動産有限会社,,有限会社,秋田県,秋田市,八橋本町５丁目６番５号,,05,201,0100973,,,2024-05-31,清算の結了等,,,2015-10-05,1,,,,,アオバフドウサン,0
2050,7430001013240,登記記録の閉鎖等,0,2024-06-07,2024-06-05,株式会社パーソナルシステム,,株式会社,北海道,札幌市白石区,米里五条１丁目６番５号,,01,104,0030875,,,2024-06-05,清算の結了等,,,2015-10-05,1,,,,,パーソナルシステム,0
2056,7430002028329,登記記録の閉鎖等,0,2024-06-07,2024-06-03,有限会社レーザ・プロ,,有限会社,北海道,札幌市厚別区,大谷地東４丁目２番２２号,,01,108,0040041,,,2024-06-03,清算の結了等,,,2015-10-05,1,,,,,レーザプロ,0
2081,8010005035652,登記記録の閉鎖等,0,2024-06-07,2024-06-03,一般社団法人フォルモサ太陽光,,その他の設立登記法人,東京都,千代田区,内幸町１丁目３番３号内幸町ダイビル,,13,101,1000011,,,2024-06-03,清算の結了等,,,2022-10-12,1,,,,,フォルモサタイヨウコウ,0
2084,8010401050230,登記記録の閉鎖等,0,2024-06-07,2024-05-21,株式会社ユーコンサルタンツアンドデザイン,,株式会社,東京都,港区,南青山４丁目１７番４号,,13,103,1070062,,,2024-05-21,清算の結了等,,,2015-10-05,1,,,,,ユーコンサルタンツアンドデザイン,0
2093,8010401171530,登記記録の閉鎖等,0,2024-06-07,2024-05-02,ＭＤＸ株式会社,,株式会社,東京都,港区,北青山３丁目６番７号青山パラシオタワー１１階,,13,103,1070061,,,2024-05-02,清算の結了等,,,2023-01-10,1,,,,,エムディーエックス,0
2103,8010405018307,登記記録の閉鎖等,0,2024-06-07,2024-05-28,六甲レジデンス一般社団法人,,その他の設立登記法人,東京都,港区,愛宕２丁目５番１号,,13,103,1050002,,,2024-05-28,清算の結了等,,,2019-12-05,1,,,,,ロッコウレジデンス,0
2138,8011801031299,登記記録の閉鎖等,0,2024-06-07,2024-06-03,Ｓｕｎｎｙ　Ｓｍｉｌｅ株式会社,,株式会社,埼玉県,さいたま市緑区,道祖土１丁目１９－１３サイドガーデン西館１０２,,11,109,3360907,,,2024-06-03,合併による解散等,5030001114816,令和６年６月１日埼玉県さいたま市緑区道祖土一丁目１９－１３サイドガーデン西館１０２株式会社ＡＬＴＡ（5030001114816）に合併し解散,2016-01-21,1,,,,,サニースマイル,0
2160,8020001105714,登記記録の閉鎖等,0,2024-06-07,2024-05-31,株式会社シミズライン,,株式会社,神奈川県,横浜市泉区,和泉町５６２７番地５,,14,116,2450016,,,2024-05-31,清算の結了等,,,2015-10-05,1,,,,,シミズライン,0
2163,8020001138739,登記記録の閉鎖等,0,2024-06-07,2024-06-03,株式会社ラキクマ,,株式会社,神奈川県,横浜市栄区,飯島町１５６３－４,,14,115,2440842,,,2024-06-03,清算の結了等,,,2020-12-03,1,,,,,ラキクマ,0
2166,8020002016951,登記記録の閉鎖等,0,2024-06-07,2024-06-03,有限会社高橋工業,00010462,有限会社,神奈川県,横浜市戸塚区,原宿５丁目７番２号,,14,110,2450063,,,2024-06-03,清算の結了等,,,2015-10-05,1,,,,,タカハシコウギョウ,0
2177,8030001067375,登記記録の閉鎖等,0,2024-06-07,2024-06-03,株式会社桜,,株式会社,埼玉県,北葛飾郡松伏町,大字松伏５３８番地３,,11,465,3430111,,,2024-06-03,清算の結了等,,,2015-10-05,1,,,,,サクラ,0
2181,8030001105705,登記記録の閉鎖等,0,2024-06-07,2024-06-05,株式会社Ｆｅｅｌ　Ｆｉｎｅ,,株式会社,埼玉県,所沢市,大字下安松２５９番地の５,,11,208,3590024,,,2024-06-05,清算の結了等,,,2015-10-05,1,,,,,フィールファイン,0
2194,8030003004442,登記記録の閉鎖等,0,2024-06-07,2024-06-05,合同会社ケアこうのす,,合同会社,埼玉県,鴻巣市,東１丁目２番２４号,,11,217,3650039,,,2024-06-05,清算の結了等,,,2015-10-05,1,,,,,ケアコウノス,0
2210,8040002088725,登記記録の閉鎖等,0,2024-06-07,2024-05-31,有限会社聖宝,,有限会社,千葉県,柏市,逆井２丁目２１番３２号,,12,217,2770042,,,2024-05-31,清算の結了等,,,2015-10-05,1,,,,,セイホウ,0
2217,8050001016173,登記記録の閉鎖等,0,2024-06-07,2024-06-03,株式会社男女川,,株式会社,茨城県,つくば市,沼田１４８５番地,,08,220,3004353,,,2024-06-03,清算の結了等,,,2015-10-05,1,,,,,ミナノガワ,0
2230,8080001019058,登記記録の閉鎖等,0,2024-06-07,2024-05-27,株式会社ＫＤソルジア・イノベーション,,株式会社,東京都,港区,三田２丁目１０番６号,,13,103,1080073,,,2024-05-27,清算の結了等,,,2015-10-05,1,,,,,ケイディーソルジアイノベーション,0
2239,8100002031117,登記記録の閉鎖等,0,2024-06-07,2024-05-30,有限会社川口精機,,有限会社,長野県,岡谷市,長地柴宮３丁目２１番３３号,,20,204,3940083,,,2024-05-30,清算の結了等,,,2015-10-05,1,,,,,カワグチセイキ,0
2243,8110002033434,登記記録の閉鎖等,0,2024-06-07,2024-06-03,有限会社吉澤板金,,有限会社,新潟県,南魚沼市,長崎２７４９番地１,,15,226,9496545,,,2024-06-03,清算の結了等,,,2015-10-05,1,,,,,ヨシザワバンキン,0
2248,8120001163066,登記記録の閉鎖等,0,2024-06-07,2024-06-03,株式会社リードエイジ,,株式会社,大阪府,大阪市西区,新町２丁目４番２号,,27,106,5500013,,,2024-06-03,合併による解散等,4120001131142,令和６年６月１日大阪市中央区南久宝寺町四丁目１番２号御堂筋ダイビル６Ｆ株式会社ネオグラフィック（4120001131142）に合併し解散,2015-10-05,1,,,,,リードエイジ,0
2249,8120001185333,登記記録の閉鎖等,0,2024-06-07,2024-06-04,株式会社ＫＡＮＳＯＨ,,株式会社,大阪府,大阪市天王寺区,勝山２丁目１４番２６号,,27,109,5430043,,,2024-06-04,清算の結了等,,,2015-10-05,1,,,,,カンソー,0
2268,8120102013863,登記記録の閉鎖等,0,2024-06-07,2024-05-31,アーイーカンパニー有限会社,,有限会社,大阪府,松原市,天美北２丁目２１番１９号,,27,217,5800031,,,2024-05-31,清算の結了等,,,2015-10-05,1,,,,,アーイーカンパニー,0
2272,8120903004879,登記記録の閉鎖等,0,2024-06-07,2024-06-03,合同会社Ｋｅｎｏｓｕｋｅ,,合同会社,大阪府,豊中市,新千里西町１丁目１番１０号ディーグラフォート千里中央３０１,,27,203,5600083,,,2024-06-03,清算の結了等,,,2023-10-17,1,,,,,ケノスケ,0
2304,8180301007322,登記記録の閉鎖等,0,2024-06-07,2024-05-30,株式会社宮本,,株式会社,愛知県,豊橋市,東田町字西脇１４８番地２７,,23,201,4400062,,,2024-05-30,清算の結了等,,,2015-10-05,1,,,,,ミヤモト,0
2314,8210001003758,登記記録の閉鎖等,0,2024-06-07,2024-06-03,株式会社大西リアルエステート,,株式会社,福井県,福井市,開発５丁目１０１１番地,,18,201,9100842,,,2024-06-03,合併による解散等,3210001009652,令和６年６月１日福井市開発五丁目１０１１番地株式会社大西土地建物（3210001009652）に合併し解散,2015-10-05,1,,,,,オオニシリアルエステート,0
2316,8220001011017,登記記録の閉鎖等,0,2024-06-07,2024-06-04,木村産業株式会社,,株式会社,石川県,金沢市,石引２丁目７番５号,,17,201,9200935,,,2024-06-04,清算の結了等,,,2015-10-05,1,,,,,キムラサンギョウ,0
2322,8240001019834,登記記録の閉鎖等,0,2024-06-07,2024-05-27,株式会社エムツーサッシ,,株式会社,広島県,広島市佐伯区,河内南１丁目３６番１２号,,34,108,7315153,,,2024-05-27,清算の結了等,,,2015-10-05,1,,,,,エムツーサッシ,0
2323,8240001022474,登記記録の閉鎖等,0,2024-06-07,2024-06-05,株式会社コジマヤ,,株式会社,広島県,東広島市,西条朝日町８番２８号,,34,212,7390012,,,2024-06-05,清算の結了等,,,2015-10-05,1,,,,,コジマヤ,0
2327,8240002034634,登記記録の閉鎖等,0,2024-06-07,2024-06-05,有限会社安芸鉄工所,,有限会社,広島県,呉市,音戸町藤脇３丁目４番１号,,34,202,7371214,,,2024-06-05,清算の結了等,,,2015-10-05,1,,,,,アキテッコウショ,0
2338,8260003002101,登記記録の閉鎖等,0,2024-06-07,2024-05-31,合同会社ビスコ,,合同会社,岡山県,岡山市中区,東川原２５０番地４２,,33,102,7038255,,,2024-05-31,清算の結了等,,,2016-10-28,1,,,,,ビスコ,0
2368,8360003006661,登記記録の閉鎖等,0,2024-06-07,2024-06-04,合同会社シュガーソルトグループ,,合同会社,沖縄県,那覇市,西１丁目１１番１２号アンピール西町１０２,,47,201,9000036,,,2024-06-04,清算の結了等,,,2015-10-05,1,,,,,シュガーソルトグループ,0
2370,8370001004708,登記記録の閉鎖等,0,2024-06-07,2024-06-03,梅原建設工業株式会社,,株式会社,宮城県,仙台市宮城野区,燕沢東２丁目６番８号,,04,102,9830822,,,2024-06-03,清算の結了等,,,2015-10-05,1,,,,,ウメハラケンセツコウギョウ,0
2384,8400001001874,登記記録の閉鎖等,0,2024-06-07,2024-06-03,株式会社モリサン,,株式会社,岩手県,滝沢市,大石渡１６１２番地１,,03,216,0200613,,,2024-06-03,合併による解散等,8400001006675,令和６年６月１日岩手県遠野市松崎町白岩１５地割１３番地５株式会社遠野レミコン（8400001006675）に合併し解散,2015-10-05,1,,,,,モリサン,0
2386,8400001008878,登記記録の閉鎖等,0,2024-06-07,2024-05-31,株式会社テルコーポレーション,,株式会社,岩手県,下閉伊郡山田町,船越第６地割１４８番地１,,03,482,0281371,,,2024-05-31,合併による解散等,3400001015375,令和６年５月３１日岩手県盛岡市渋民字岩鼻２０番地１５株式会社カガヤプラス（3400001015375）に合併し解散,2015-10-05,1,,,,,テルコーポレーション,0
2389,8400502001159,登記記録の閉鎖等,0,2024-06-07,2024-05-29,有限会社ポム・ポムフェルムいわて藤沢,,有限会社,岩手県,一関市,藤沢町黄海字山谷１１９番地,,03,209,0293311,,,2024-05-29,清算の結了等,,,2015-10-05,1,,,,,ポムポムフェルムイワテフジサワ,0
2395,8430001082417,登記記録の閉鎖等,0,2024-06-07,2024-05-31,株式会社アイラボ,,株式会社,北海道,千歳市,富丘２丁目１番８号,,01,224,0660034,,,2024-05-31,合併による解散等,1430001070584,令和６年５月３１日北海道千歳市富丘二丁目１番８号株式会社リート（1430001070584）に合併し解散,2020-09-29,1,,,,,アイラボ,0
2402,8440001005987,登記記録の閉鎖等,0,2024-06-07,2024-06-04,株式会社さいとう商事,,株式会社,北海道,山越郡長万部町,字静狩３番地の３３,,01,347,0495141,,,2024-06-04,清算の結了等,,,2015-10-05,1,,,,,サイトウショウジ,0
2408,8470002018168,登記記録の閉鎖等,0,2024-06-07,2024-06-03,ワイエムスチール有限会社,,有限会社,香川県,さぬき市,志度１２９８番地７,,37,206,7692101,,,2024-06-03,清算の結了等,,,2015-10-05,1,,,,,ワイエムスチール,0
2409,8490002000933,登記記録の閉鎖等,0,2024-06-07,2024-06-05,包芳青果有限会社,,有限会社,高知県,高知市,弘化台１２番１２号,,39,201,7800811,,,2024-06-05,清算の結了等,,,2015-10-05,1,,,,,カネヨシセイカ,0
2417,9010001203071,登記記録の閉鎖等,0,2024-06-07,2024-05-29,株式会社ＥＪＮ　ＪＡＰＡＮ,,株式会社,東京都,中央区,京橋２丁目２番１号京橋エドグラン２６階,,13,102,1040031,,,2024-05-29,清算の結了等,,,2019-08-13,1,,,,,イージェイエヌジャパン,0
2460,9010901030276,登記記録の閉鎖等,0,2024-06-07,2024-05-16,株式会社ＭＩＣＡＮ,,株式会社,東京都,渋谷区,千駄ヶ谷３丁目１７番４号,,13,113,1510051,,,2024-05-16,合併による解散等,5013301022434,令和６年５月１６日東京都渋谷区千駄ヶ谷三丁目１７番４号株式会社ルイーズ（5013301022434）に合併し解散,2015-10-05,1,,,,,ミーキャン,0
2474,9011101075491,登記記録の閉鎖等,0,2024-06-07,2024-05-31,株式会社一幻東京,,株式会社,東京都,新宿区,西新宿７丁目８番２号,,13,104,1600023,,,2024-05-31,清算の結了等,,,2015-12-24,1,,,,,イチゲントウキョウ,0
2492,9011801003009,登記記録の閉鎖等,0,2024-06-07,2024-06-03,株式会社ＴＩＪ東京日本語研修所,,株式会社,東京都,葛飾区,西新小岩３丁目５番１号,,13,122,1240025,,,2024-06-03,合併による解散等,3011801002610,令和６年６月１日東京都葛飾区西新小岩三丁目５番１号大成ホールディングス株式会社（3011801002610）に合併し解散,2015-10-05,1,,,,,ティーアイジェイトウキョウニホンゴケンシュウショ,0
2497,9012302000750,登記記録の閉鎖等,0,2024-06-07,2024-06-04,有限会社エフ・エフ・イー,,有限会社,東京都,町田市,森野３丁目１１番３号ソレイユ森野１０２,,13,209,1940022,,,2024-06-04,清算の結了等,,,2015-10-05,1,,,,,エフエフイー,0
2520,9030001096943,登記記録の閉鎖等,0,2024-06-07,2024-06-04,株式会社吉本工業,00015688,株式会社,埼玉県,日高市,大字野々宮８６番地７,,11,242,3501244,,,2024-06-04,清算の結了等,,,2015-10-05,1,,,,,ヨシモトコウギョウ,0
2545,9050002038744,登記記録の閉鎖等,0,2024-06-07,2024-05-31,有限会社極東電気計装,,有限会社,茨城県,取手市,井野７７８番地２,,08,217,3020011,,,2024-05-31,清算の結了等,,,2015-10-05,1,,,,,キョクトウデンキケイソウ,0
2550,9060002021204,登記記録の閉鎖等,0,2024-06-07,2024-05-31,有限会社亀田製作所,,有限会社,栃木県,鹿沼市,上永野６１７番地２,,09,205,3280211,,,2024-05-31,清算の結了等,,,2015-10-05,1,,,,,カメダセイサクショ,0
2551,9070002005222,登記記録の閉鎖等,0,2024-06-07,2024-06-04,有限会社三都屋商店,,有限会社,群馬県,前橋市,南町３丁目６５番地の１６,,10,201,3710805,,,2024-06-04,清算の結了等,,,2015-10-05,1,,,,,ミトヤショウテン,0
2557,9110002002669,登記記録の閉鎖等,0,2024-06-07,2024-06-03,有限会社さかい,,有限会社,新潟県,新潟市東区,東明６丁目３番地１２,,15,102,9500853,,,2024-06-03,清算の結了等,,,2015-10-05,1,,,,,サカイ,0
2636,9240002001253,登記記録の閉鎖等,0,2024-06-07,2024-06-05,有限会社イシモト写植,,有限会社,広島県,広島市西区,西観音町１番６－１０２号,,34,104,7330037,,,2024-06-05,清算の結了等,,,2015-10-05,1,,,,,イシモトシャショク,0
2658,9320001006063,登記記録の閉鎖等,0,2024-06-07,2024-06-03,株式会社怪物,,株式会社,大分県,大分市,高崎２丁目６番１４号,,44,201,8700872,,,2024-06-03,合併による解散等,7320001005265,令和６年６月１日大分市高崎二丁目６番１４号株式会社わ（7320001005265）に合併し解散,2015-10-05,1,,,,,カイブツ,0
2666,9340001004841,登記記録の閉鎖等,0,2024-06-07,2024-06-06,株式会社南和クリエイト,,株式会社,鹿児島県,鹿児島市,東開町３番地１６６,,46,201,8910115,,,2024-06-06,合併による解散等,5340001003186,令和６年６月１日鹿児島市東開町３番地１６６株式会社ナンワ（5340001003186）に合併し解散,2015-10-05,1,,,,,ナンワクリエイト,0
2671,9360001008205,登記記録の閉鎖等,0,2024-06-07,2024-05-31,株式会社アトラス,,株式会社,沖縄県,沖縄市,南桃原３丁目１番２号,,47,211,9040035,,,2024-05-31,合併による解散等,3360001015883,令和６年５月３１日沖縄県沖縄市海邦町３番地１８株式会社トーマス商事（3360001015883）に合併し解散,2015-10-05,1,,,,,アトラス,0
2685,9430001007208,登記記録の閉鎖等,0,2024-06-07,2024-06-03,株式会社ジーワイズ,,株式会社,北海道,札幌市白石区,北郷２４０４番地２４,,01,104,0030849,,,2024-06-03,合併による解散等,6430001005750,令和６年６月１日札幌市白石区北郷２４０４番地２４株式会社巧匠（6430001005750）に合併し解散,2015-10-05,1,,,,,ジーワイズ,0
2686,9430001043302,登記記録の閉鎖等,0,2024-06-07,2024-06-05,株式会社マルヨシ興栄建設,,株式会社,北海道,江別市,元江別８８８番地の７,,01,217,0670032,,,2024-06-05,清算の結了等,,,2015-10-05,1,,,,,マルヨシコウエイケンセツ,0
2690,9430002014632,登記記録の閉鎖等,0,2024-06-07,2024-06-03,長山不動産賃貸有限会社,,有限会社,北海道,札幌市北区,北十六条西４丁目２番２６号,,01,102,0010016,,,2024-06-03,合併による解散等,5430002001898,令和６年６月１日札幌市北区北十六条西四丁目２番２６号株式会社一条食品（5430002001898）に合併し解散,2015-10-05,1,,,,,ナガヤマフドウサンチンタイ,0
2696,9470001002675,登記記録の閉鎖等,0,2024-06-07,2024-05-31,高橋木材株式会社,,株式会社,香川県,高松市,高松町２５０２番地,,37,201,7610104,,,2024-05-31,清算の結了等,,,2015-10-05,1,,,,,タカハシモクザイ,0
