sequenceNumber,corporateNumber,process,correct,updateDate,changeDate,name,nameImageId,kind,prefectureName,cityName,streetNumber,addressImageId,prefectureCode,cityCode,postCode,addressOutside,addressOutsideImageId,closeDate,closeCause,successorCorporateNumber,changeCause,assignmentDate,latest,enName,enPrefectureName,enCityName,enAddressOutside,furigana,hihyoji
6,1010003034662,登記記録の閉鎖等,0,2024-10-18,2024-09-24,ハローフレッシュ・ジャパン合同会社,,合同会社,東京都,港区,赤坂１丁目１１番４４号赤坂インターシティ５階ＭａｚａｒｓＪａｐａｎ株式会社内,,13,103,1070052,,,2024-09-24,清算の結了等,,,2021-04-16,1,,,,,ハローフレッシュジャパン,0
25,1010402012938,登記記録の閉鎖等,0,2024-10-18,2024-10-09,有限会社本沢製作所,,有限会社,東京都,港区,南麻布４丁目２番２２号,,13,103,1060047,,,2024-10-09,清算の結了等,,,2015-10-05,1,,,,,ホンザワセイサクジョ,0
26,1010402029858,登記記録の閉鎖等,0,2024-10-18,2024-09-30,有限会社トランスレーションサービス西川,,有限会社,東京都,港区,港南４丁目６番８号,,13,103,1080075,,,2024-09-30,清算の結了等,,,2015-10-05,1,,,,,トランスレーションサービスニシカワ,0
86,1012803002947,登記記録の閉鎖等,0,2024-10-18,2024-10-08,合同会社ａｍｅｎｏｃｈｉｈａｒｅ,,合同会社,東京都,立川市,上砂町５丁目５７番地の２アーバンヒルズ武蔵砂川４０１号,,13,202,1900032,,,2024-10-08,清算の結了等,,,2022-12-16,1,,,,,アメノチハレ,0
105,1020002004426,登記記録の閉鎖等,0,2024-10-18,2024-10-02,有限会社鈴木エンジニアリング,,有限会社,神奈川県,横浜市緑区,長津田町２１９１番地,,14,113,2260026,,,2024-10-02,清算の結了等,,,2015-10-05,1,,,,,スズキエンジニアリング,0
106,1020002005754,登記記録の閉鎖等,0,2024-10-18,2024-10-02,有限会社近藤商会,,有限会社,神奈川県,横浜市都筑区,東方町６１番地,,14,118,2240045,,,2024-10-02,清算の結了等,,,2015-10-05,1,,,,,コンドウショウカイ,0
112,1021001039388,登記記録の閉鎖等,0,2024-10-18,2024-10-17,株式会社ポイントレーベル,,株式会社,神奈川県,中郡大磯町,国府本郷９３７番地１,,14,341,2590111,,,2024-10-17,清算の結了等,,,2015-10-05,1,,,,,,0
132,1030003020495,登記記録の閉鎖等,0,2024-10-18,2024-10-09,鹿沼粟野太陽光合同会社,,合同会社,埼玉県,蕨市,中央２丁目１３番３２号プラウド蕨１０１,,11,223,3350004,,,2024-10-09,清算の結了等,,,2022-11-02,1,,,,,カヌマアワノタイヨウコウ,0
140,1040002069574,登記記録の閉鎖等,0,2024-10-18,2024-10-09,有限会社イングコーポレーション,,有限会社,千葉県,君津市,西坂田１丁目２番２０号,,12,225,2991145,,,2024-10-09,清算の結了等,,,2015-10-05,1,,,,,イングコーポレーション,0
157,1090001006813,登記記録の閉鎖等,0,2024-10-18,2024-10-01,株式会社ＣＬＡＹ,,株式会社,山梨県,甲府市,下石田２丁目１０番４号,,19,201,4000046,,,2024-10-01,合併による解散等,6090001015231,令和６年１０月１日山梨県甲府市下石田二丁目１０番４号株式会社クレイプラス（6090001015231）に合併し解散,2015-10-05,1,,,,,クレイ,0
161,1110002013995,登記記録の閉鎖等,0,2024-10-18,2024-10-09,有限会社近藤菓子店,,有限会社,新潟県,五泉市,村松甲１６８９番地,,15,218,9591704,,,2024-10-09,清算の結了等,,,2015-10-05,1,,,,,コンドウカシテン,0
179,1120003014042,登記記録の閉鎖等,0,2024-10-18,2024-10-09,合同会社賃貸不動産,,合同会社,大阪府,大阪市中央区,南船場４丁目１０番５号,,27,128,5420081,,,2024-10-09,清算の結了等,,,2018-03-08,1,,,,,チンタイフドウサン,0
188,1120902019793,登記記録の閉鎖等,0,2024-10-18,2024-10-10,有限会社ますみビル,,有限会社,大阪府,豊中市,永楽荘２丁目４番４６号,,27,203,5600051,,,2024-10-10,清算の結了等,,,2015-10-05,1,,,,,マスミビル,0
199,1140001053809,登記記録の閉鎖等,0,2024-10-18,2024-10-15,株式会社ケイズプランニング,,株式会社,兵庫県,尼崎市,竹谷町２丁目７２番地,,28,202,6600876,,,2024-10-15,清算の結了等,,,2015-10-05,1,,,,,ケイズプランニング,0
201,1140001106574,登記記録の閉鎖等,0,2024-10-18,2024-10-15,株式会社弘興業,,株式会社,兵庫県,姫路市,大黒壱丁町９４番地,,28,201,6700853,,,2024-10-15,清算の結了等,,,2017-06-14,1,,,,,ヒロコウギョウ,0
207,1160001013661,登記記録の閉鎖等,0,2024-10-18,2024-10-15,株式会社三平,,株式会社,滋賀県,彦根市,小泉町１４８番地,,25,202,5220043,,,2024-10-15,清算の結了等,,,2015-10-05,1,,,,,サンペイ,0
219,1180302012831,登記記録の閉鎖等,0,2024-10-18,2024-10-09,石黒運送有限会社,,有限会社,愛知県,豊川市,御津町御馬西６１番地,,23,207,4410311,,,2024-10-09,清算の結了等,,,2015-10-05,1,,,,,イシグロウンソウ,0
222,1210002003697,登記記録の閉鎖等,0,2024-10-18,2024-10-16,有限会社山正断熱工業所,,有限会社,福井県,福井市,城東３丁目１５番１５号,,18,201,9100853,,,2024-10-16,清算の結了等,,,2015-10-05,1,,,,,ヤマショウダンネツコウギョウショ,0
235,1260002003346,登記記録の閉鎖等,0,2024-10-18,2024-10-11,有限会社黒住地所,,有限会社,岡山県,岡山市北区,中仙道１丁目１４番９号,,33,101,7000964,,,2024-10-11,清算の結了等,,,2015-10-05,1,,,,,クロズミジショ,0
256,1310001005296,登記記録の閉鎖等,0,2024-10-18,2024-10-08,株式会社木村通商,,株式会社,長崎県,佐世保市,松川町１０番１４号,,42,202,8570804,,,2024-10-08,清算の結了等,,,2015-10-05,1,,,,,キムラツウショウ,0
262,1310005005978,登記記録の閉鎖等,0,2024-10-18,2024-10-08,特定非営利活動法人長崎海洋環境研究会,,その他の設立登記法人,長崎県,諫早市,飯盛町佐田３３８番地１,,42,204,8541122,,,2024-10-08,清算の結了等,,,2015-10-05,1,,,,,ナガサキカイヨウカンキョウケンキュウカイ,0
263,1330001008157,登記記録の閉鎖等,0,2024-10-18,2024-10-09,株式会社テクノフィールド,,株式会社,熊本県,熊本市東区,桜木４丁目１９番７３号,,43,102,8612101,,,2024-10-09,清算の結了等,,,2015-10-05,1,,,,,テクノフィールド,0
267,1330005009226,登記記録の閉鎖等,0,2024-10-18,2024-10-08,特定非営利活動法人らいと,,その他の設立登記法人,熊本県,天草郡苓北町,志岐３０番地７,,43,531,8632503,,,2024-10-08,清算の結了等,,,2015-10-05,1,,,,,ライト,0
275,1370002009588,登記記録の閉鎖等,0,2024-10-18,2024-10-04,有限会社いこい荘,,有限会社,宮城県,仙台市青葉区,木町通１丁目８番３１号,,04,101,9800801,,,2024-10-04,清算の結了等,,,2015-10-05,1,,,,,イコイソウ,0
278,1380002024066,登記記録の閉鎖等,0,2024-10-18,2024-10-01,有限会社四條鉄筋,,有限会社,福島県,いわき市,久之浜町末続字漆原６番地の３,,07,204,9790331,,,2024-10-01,清算の結了等,,,2015-10-05,1,,,,,シジョウテッキン,0
279,1380005003190,登記記録の閉鎖等,0,2024-10-18,2024-09-30,株式会社七海牧場,,株式会社,福島県,郡山市,中田町駒板字表２３５番地,,07,203,9630837,,,2024-09-30,清算の結了等,,,2015-10-05,1,,,,,ナナウミボクジョウ,0
283,1420005002502,登記記録の閉鎖等,0,2024-10-18,2024-10-01,八戸市営魚市場加工仲買協同組合,,その他の設立登記法人,青森県,八戸市,築港街１丁目３番地９,,02,203,0310831,,,2024-10-01,合併による解散等,9420005002577,令和６年１０月１日青森県八戸市大字鮫町字日ノ出町４番地八戸水産仲買人協同組合（9420005002577）に合併し解散,2015-10-05,1,,,,,ハチノヘシエイギョシジョウカコウナカガイ,0
288,1470001009918,登記記録の閉鎖等,0,2024-10-18,2024-10-10,佐川食品株式会社,,株式会社,香川県,観音寺市,植田町１３３０番地の１,,37,205,7680012,,,2024-10-10,清算の結了等,,,2015-10-05,1,,,,,サガワショクヒン,0
290,1470002004018,登記記録の閉鎖等,0,2024-10-18,2024-10-10,有限会社泉保材木店,,有限会社,香川県,高松市,鬼無町佐料７４番地４,,37,201,7618022,,,2024-10-10,清算の結了等,,,2015-10-05,1,,,,,センボザイモクテン,0
305,2010001084122,登記記録の閉鎖等,0,2024-10-18,2024-09-13,株式会社クリップワークス,,株式会社,東京都,渋谷区,神宮前６丁目２３番４号,,13,113,1500001,,,2024-09-13,清算の結了等,,,2015-10-05,1,,,,,クリップワークス,0
321,2010003035338,登記記録の閉鎖等,0,2024-10-18,2024-10-03,日光Ｐｌｕｓ１９合同会社１,,合同会社,東京都,千代田区,丸の内３丁目１番１号東京共同会計事務所内,,13,101,1000005,,,2024-10-03,清算の結了等,,,2021-07-16,1,,,,,ニッコウプラスナインティーンイチ,0
332,2010401156306,登記記録の閉鎖等,0,2024-10-18,2024-09-25,株式会社ＣＡＩＣＡデジタルパートナーズ,,株式会社,東京都,港区,南青山５丁目１１番９号,,13,103,1070062,,,2024-09-25,清算の結了等,,,2020-11-05,1,,,,,カイカデジタルパートナーズ,0
353,2010601053105,登記記録の閉鎖等,0,2024-10-18,2024-10-16,株式会社ロジメック,,株式会社,東京都,江東区,有明１丁目３番５号,,13,108,1350063,,,2024-10-16,合併による解散等,2010001065881,令和６年１０月１日東京都文京区本郷四丁目２４番８号株式会社ジェイピーエル（2010001065881）に合併し解散,2018-04-06,1,,,,,ロジメック,0
356,2010702003413,登記記録の閉鎖等,0,2024-10-18,2024-10-10,有限会社さくら,,有限会社,東京都,品川区,中延６丁目１－２０ドルチェＹＡＮＯＩＩＩ１０１,00127299,13,109,1420053,,,2024-10-10,清算の結了等,,,2015-10-05,1,,,,,サクラ,0
382,2011305002364,登記記録の閉鎖等,0,2024-10-18,2024-10-08,税理士法人日下会計事務所,,その他の設立登記法人,東京都,杉並区,荻窪４丁目２８番１１号ツインビル中田３階,,13,115,1670051,,,2024-10-08,清算の結了等,,,2017-01-17,1,,,,,クサカカイケイジムショ,0
407,2020001043639,登記記録の閉鎖等,0,2024-10-18,2024-10-02,株式会社シニアパワー研究所,,株式会社,神奈川県,横浜市戸塚区,上倉田町４１３番地,,14,110,2440816,,,2024-10-02,清算の結了等,,,2015-10-05,1,,,,,シニアパワーケンキュウジョ,0
417,2021001008276,登記記録の閉鎖等,0,2024-10-18,2024-10-17,株式会社システム,,株式会社,神奈川県,藤沢市,城南４丁目１０番２１号,,14,205,2510057,,,2024-10-17,清算の結了等,,,2015-10-05,1,,,,,システム,0
420,2021001012179,登記記録の閉鎖等,0,2024-10-18,2024-10-16,相模新栄運送株式会社,,株式会社,神奈川県,相模原市中央区,上溝４０８３番地,,14,152,2520243,,,2024-10-16,合併による解散等,9020001023915,令和６年１０月１日横浜市神奈川区栄町２番地の９東部ネットワーク株式会社（9020001023915）に合併し解散,2015-10-05,1,,,,,,0
435,2040003022275,登記記録の閉鎖等,0,2024-10-18,2024-10-08,ＴｒｉｐｌｅＷｉｎ合同会社,,合同会社,千葉県,千葉市美浜区,若葉３丁目１－１８幕張ベイパーククロスレジデンスＳ２－１,,12,106,2610014,,,2024-10-08,清算の結了等,,,2023-03-31,1,,,,,トリプルウィン,0
444,2050001024702,登記記録の閉鎖等,0,2024-10-18,2024-10-09,株式会社スリーエスエンジニアリング,,株式会社,茨城県,日立市,千石町２丁目４番１９号,,08,202,3160013,,,2024-10-09,清算の結了等,,,2015-10-05,1,,,,,スリーエスエンジニアリング,0
446,2050003007779,登記記録の閉鎖等,0,2024-10-18,2024-10-10,合同会社給与計算代行社,,合同会社,茨城県,水戸市,柳町２丁目３番７号,,08,201,3100817,,,2024-10-10,清算の結了等,,,2023-09-08,1,,,,,キュウヨケイサンダイコウシャ,0
454,2080401010869,登記記録の閉鎖等,0,2024-10-18,2024-10-10,Ｆｌｅｕｖｅ株式会社,,株式会社,静岡県,浜松市中央区,大島町７８８番地,,22,138,4313112,,,2024-10-10,清算の結了等,,,2015-10-05,1,,,,,フルーヴ,0
462,2120001193036,登記記録の閉鎖等,0,2024-10-18,2024-10-15,株式会社デザリオ,,株式会社,大阪府,大阪市西区,土佐堀２丁目１番８号,,27,106,5500001,,,2024-10-15,清算の結了等,,,2015-10-05,1,,,,,デザリオ,0
480,2120901017260,登記記録の閉鎖等,0,2024-10-18,2024-10-11,株式会社トミーセレクト,,株式会社,大阪府,茨木市,島３丁目５番１８号,,27,211,5670854,,,2024-10-11,清算の結了等,,,2015-10-05,1,,,,,トミーセレクト,0
495,2140001075372,登記記録の閉鎖等,0,2024-10-18,2024-10-15,小沢製織株式会社,,株式会社,兵庫県,西脇市,大垣内３２３番地,,28,213,6770038,,,2024-10-15,清算の結了等,,,2015-10-05,1,,,,,オザワセイショク,0
503,2140005011332,登記記録の閉鎖等,0,2024-10-18,2024-10-15,興法寺,,その他の設立登記法人,兵庫県,尼崎市,今福２丁目９番２号,,28,202,6600812,,,2024-10-15,清算の結了等,,,2015-10-05,1,,,,,コウホウジ,0
505,2160001008487,登記記録の閉鎖等,0,2024-10-18,2024-10-15,中央写真株式会社,,株式会社,滋賀県,彦根市,平田町６７番地の５,,25,202,5220041,,,2024-10-15,清算の結了等,,,2015-10-05,1,,,,,チュウオウシャシン,0
507,2170002008452,登記記録の閉鎖等,0,2024-10-18,2024-10-17,有限会社大平通商,,有限会社,和歌山県,紀の川市,上野７５番地の１,,30,208,6496416,,,2024-10-17,清算の結了等,,,2015-10-05,1,,,,,,0
520,2180301002246,登記記録の閉鎖等,0,2024-10-18,2024-10-08,臨海産業株式会社,,株式会社,愛知県,岡崎市,下青野町字花ノ木８２番地５,,23,202,4440244,,,2024-10-08,清算の結了等,,,2015-10-05,1,,,,,リンカイサンギョウ,0
521,2180301006635,登記記録の閉鎖等,0,2024-10-18,2024-10-09,豊橋林業株式会社,,株式会社,愛知県,豊橋市,北島町字北島２３８番地の３,,23,201,4400071,,,2024-10-09,清算の結了等,,,2015-10-05,1,,,,,トヨハシリンギョウ,0
523,2180302027556,登記記録の閉鎖等,0,2024-10-18,2024-10-08,愛ガードサービス有限会社,,有限会社,愛知県,新城市,川田字本宮道１８４番地の２,,23,221,4411347,,,2024-10-08,清算の結了等,,,2015-10-05,1,,,,,アイガードサービス,0
530,2220002010155,登記記録の閉鎖等,0,2024-10-18,2024-10-10,有限会社ブレクセル,,有限会社,石川県,金沢市,本多町２丁目１２番１８号,,17,201,9200964,,,2024-10-10,清算の結了等,,,2015-10-05,1,,,,,ブレクセル,0
539,2240003003981,登記記録の閉鎖等,0,2024-10-18,2024-10-11,合同会社元,,合同会社,広島県,広島市西区,三篠町２丁目４番２号,,34,104,7330003,,,2024-10-11,清算の結了等,,,2018-08-09,1,,,,,ハジメ,0
551,2290001017401,登記記録の閉鎖等,0,2024-10-18,2024-09-09,株式会社ランドスケープ,,株式会社,福岡県,福岡市東区,下原１丁目２５番１号,,40,131,8130002,,,2024-09-09,清算の結了等,,,2015-10-05,1,,,,,ランドスケープ,0
554,2290001052175,登記記録の閉鎖等,0,2024-10-18,2024-09-30,株式会社アクロス・アドサービス,,株式会社,福岡県,糟屋郡宇美町,障子岳南５丁目５番８号,,40,341,8112126,,,2024-09-30,合併による解散等,8290001035604,令和６年９月３０日福岡市博多区新和町二丁目１番３５号株式会社アクロス広告社（8290001035604）に合併し解散,2015-10-05,1,,,,,アクロスアドサービス,0
555,2290001071142,登記記録の閉鎖等,0,2024-10-18,2024-09-11,株式会社松永,,株式会社,福岡県,福岡市早良区,弥生１丁目２番１３－７０２号,,40,137,8140014,,,2024-09-11,清算の結了等,,,2015-10-05,1,,,,,,0
565,2290801022419,登記記録の閉鎖等,0,2024-10-18,2024-10-11,アネックス九州株式会社,,株式会社,福岡県,田川市,大字夏吉５７０番地,,40,206,8250004,,,2024-10-11,合併による解散等,2050001010966,令和６年９月３０日茨城県土浦市桜ケ丘町１４番３０号株式会社アネックス（2050001010966）に合併し解散,2016-04-13,1,,,,,アネックスキュウシュウ,0
569,2310002013231,登記記録の閉鎖等,0,2024-10-18,2024-10-09,有限会社西風会,,有限会社,長崎県,北松浦郡佐々町,松瀬免９３番地１２,,42,391,8570322,,,2024-10-09,清算の結了等,,,2015-10-05,1,,,,,セイフウカイ,0
570,2340001009310,登記記録の閉鎖等,0,2024-10-18,2024-10-15,南国青雲ヒューマンサポート株式会社,,株式会社,鹿児島県,姶良市,平松２８７８番地１,,46,225,8995652,,,2024-10-15,合併による解散等,3010701020722,令和６年１０月１日東京都品川区西五反田二丁目１１番８号株式会社学研ココファン（3010701020722）に合併し解散,2015-10-05,1,,,,,ナンゴクセイウンヒューマンサポート,0
584,2430002061086,登記記録の閉鎖等,0,2024-10-18,2024-10-10,有限会社サン・ファーム,,有限会社,北海道,勇払郡むかわ町,二宮９２番地,,01,586,0540005,,,2024-10-10,清算の結了等,,,2015-10-05,1,,,,,サンファーム,0
600,3010001020051,登記記録の閉鎖等,0,2024-10-18,2024-10-02,株式会社シリコンテクノロジー,,株式会社,東京都,中央区,京橋１丁目１７番１０号,,13,102,1040031,,,2024-10-02,合併による解散等,6010001156165,令和６年１０月１日東京都中央区京橋一丁目１７番１０号株式会社カーリット（6010001156165）に合併し解散,2015-10-05,1,,,,,シリコンテクノロジー,0
601,3010001136822,登記記録の閉鎖等,0,2024-10-18,2024-10-02,株式会社アクアＲＩＭＣＯ,,株式会社,東京都,文京区,本郷２丁目４０番１７号,,13,105,1130033,,,2024-10-02,清算の結了等,,,2015-10-05,1,,,,,アクアリムコ,0
612,3010003021015,登記記録の閉鎖等,0,2024-10-18,2024-10-03,日光１８７グラン中島合同会社,,合同会社,東京都,千代田区,丸の内３丁目１番１号東京共同会計事務所内,,13,101,1000005,,,2024-10-03,清算の結了等,,,2015-10-05,1,,,,,ニッコウワンハンドレッドエイティーセブングランナカシマ,0
613,3010003021130,登記記録の閉鎖等,0,2024-10-18,2024-10-03,日光７４レックス宮前平合同会社,,合同会社,東京都,千代田区,丸の内３丁目１番１号東京共同会計事務所内,,13,101,1000005,,,2024-10-03,清算の結了等,,,2015-10-05,1,,,,,ニッコウセブンティーフォーレックスミヤマエダイラ,0
628,3010402011863,登記記録の閉鎖等,0,2024-10-18,2024-09-27,保科クリーニング有限会社,,有限会社,東京都,港区,麻布台２丁目４番２号,,13,103,1060041,,,2024-09-27,清算の結了等,,,2015-10-05,1,,,,,ホシナクリーニング,0
630,3010403023503,登記記録の閉鎖等,0,2024-10-18,2024-09-25,ＳＣＧ６０合同会社,,合同会社,東京都,港区,虎ノ門２丁目６番１号,,13,103,1050001,,,2024-09-25,清算の結了等,,,2020-08-17,1,,,,,エスシージーシックスティ,0
637,3010602019038,登記記録の閉鎖等,0,2024-10-18,2024-10-10,有限会社十光プレス,,有限会社,東京都,江東区,亀戸３丁目４１番１８号,,13,108,1360071,,,2024-10-10,清算の結了等,,,2015-10-05,1,,,,,ジュッコウプレス,0
641,3010901002124,登記記録の閉鎖等,0,2024-10-18,2024-10-08,エル・ジャポン株式会社,,株式会社,東京都,世田谷区,桜新町２丁目１０番４号,,13,112,1540015,,,2024-10-08,清算の結了等,,,2015-10-05,1,,,,,エルジャポン,0
674,3012702009463,登記記録の閉鎖等,0,2024-10-18,2024-10-03,有限会社楓ファーマシー,,有限会社,東京都,小平市,小川西町４丁目１２番８号,,13,211,1870035,,,2024-10-03,清算の結了等,,,2015-10-05,1,,,,,カエデファーマシー,0
676,3013102002397,登記記録の閉鎖等,0,2024-10-18,2024-10-11,有限会社丸山製作所,,有限会社,東京都,あきる野市,雨間１０４０番地,,13,228,1970825,,,2024-10-11,清算の結了等,,,2015-10-05,1,,,,,マルヤマセイサクジョ,0
704,3030001044437,登記記録の閉鎖等,0,2024-10-18,2024-10-09,株式会社クラウドワン,,株式会社,埼玉県,草加市,八幡町２０１番地,,11,221,3400006,,,2024-10-09,清算の結了等,,,2015-10-05,1,,,,,クラウドワン,0
712,3030003022300,登記記録の閉鎖等,0,2024-10-18,2024-10-08,合同会社Ｒａｄｅｅ,,合同会社,埼玉県,志木市,下宗岡２丁目１６番９号,,11,228,3530003,,,2024-10-08,清算の結了等,,,2023-08-23,1,,,,,ラディー,0
715,3040001056919,登記記録の閉鎖等,0,2024-10-18,2024-10-10,三弘株式会社,,株式会社,東京都,大田区,西六郷２丁目４０番３号,,13,111,1440056,,,2024-10-10,清算の結了等,,,2015-10-05,1,,,,,,0
727,3050001028207,登記記録の閉鎖等,0,2024-10-18,2024-10-07,伊奈印刷株式会社,,株式会社,茨城県,つくばみらい市,下平柳５２０番地,,08,235,3002333,,,2024-10-07,清算の結了等,,,2015-10-05,1,,,,,イナインサツ,0
730,3060001017241,登記記録の閉鎖等,0,2024-10-18,2024-10-16,城東商事株式会社,,株式会社,栃木県,下都賀郡壬生町,中央町１３番１５号,,09,361,3210226,,,2024-10-16,清算の結了等,,,2015-10-05,1,,,,,ジョウトウショウジ,0
735,3070002022999,登記記録の閉鎖等,0,2024-10-18,2024-10-11,有限会社小内縫製,,有限会社,群馬県,みどり市,笠懸町鹿３６８８番地,,10,212,3792313,,,2024-10-11,清算の結了等,,,2015-10-05,1,,,,,オナイホウセイ,0
743,3100001021627,登記記録の閉鎖等,0,2024-10-18,2024-10-01,株式会社赤坂ホンダ,,株式会社,長野県,上伊那郡辰野町,大字辰野１７２６番地,,20,382,3990421,,,2024-10-01,合併による解散等,7100001016474,令和６年１０月１日長野県松本市出川二丁目１９番３号株式会社アルプス（7100001016474）に合併し解散,2015-10-05,1,,,,,アカサカホンダ,0
746,3100002038298,登記記録の閉鎖等,0,2024-10-18,2024-10-01,有限会社ナカロク自動車販売,,有限会社,長野県,下伊那郡松川町,元大島１５１０番地１,,20,402,3993303,,,2024-10-01,合併による解散等,7100001016474,令和６年１０月１日長野県松本市出川二丁目１９番３号株式会社アルプス（7100001016474）に合併し解散,2015-10-05,1,,,,,ナカロクジドウシャハンバイ,0
747,3110001032887,登記記録の閉鎖等,0,2024-10-18,2024-10-08,株式会社コンシリウス,,株式会社,新潟県,新潟市中央区,川端町３丁目１５番地１,,15,103,9518053,,,2024-10-08,清算の結了等,,,2017-12-18,1,,,,,コンシリウス,0
755,3120001122951,登記記録の閉鎖等,0,2024-10-18,2024-10-09,ＯＴＮ建設株式会社,,株式会社,大阪府,大阪市城東区,諏訪４丁目７番１０号,,27,118,5360021,,,2024-10-09,清算の結了等,,,2015-10-05,1,,,,,オーティーエヌケンセツ,0
757,3120001197052,登記記録の閉鎖等,0,2024-10-18,2024-10-11,株式会社ディープラストレーディング,,株式会社,大阪府,吹田市,千里山東４丁目４０番４６－１１１号,,27,205,5650842,,,2024-10-11,清算の結了等,,,2016-03-24,1,,,,,ディープラストレーディング,0
759,3120001217025,登記記録の閉鎖等,0,2024-10-18,2024-10-15,株式会社Ｍａｓｓｅ,,株式会社,大阪府,大阪市住之江区,泉２丁目１番７７号,,27,125,5590023,,,2024-10-15,清算の結了等,,,2018-11-07,1,,,,,マッセ,0
767,3120101006278,登記記録の閉鎖等,0,2024-10-18,2024-10-15,株式会社ファステック,,株式会社,大阪府,堺市東区,大美野７５番地の５,,27,143,5998126,,,2024-10-15,清算の結了等,,,2015-10-05,1,,,,,ファステック,0
790,3140002041224,登記記録の閉鎖等,0,2024-10-18,2024-10-15,有限会社シヨーブ,,有限会社,兵庫県,尼崎市,昭和通１丁目１番２７号,,28,202,6600881,,,2024-10-15,清算の結了等,,,2015-10-05,1,,,,,,0
792,3150001006078,登記記録の閉鎖等,0,2024-10-18,2024-10-16,株式会社ブティック・ケリアン,,株式会社,奈良県,大和郡山市,南井町７５番地の２,,29,203,6391024,,,2024-10-16,清算の結了等,,,2015-10-05,1,,,,,ブティックケリアン,0
797,3180002015769,登記記録の閉鎖等,0,2024-10-18,2024-10-15,國枝コーポ有限会社,,有限会社,愛知県,名古屋市東区,黒門町８５番地,,23,102,4610035,,,2024-10-15,清算の結了等,,,2015-10-05,1,,,,,クニエダコーポ,0
806,3240001004048,登記記録の閉鎖等,0,2024-10-18,2024-10-10,株式会社三久商会,,株式会社,広島県,広島市西区,商工センター５丁目１１番６号,,34,104,7330833,,,2024-10-10,清算の結了等,,,2015-10-05,1,,,,,サンキュウショウカイ,0
812,3250002008781,登記記録の閉鎖等,0,2024-10-18,2024-10-15,有限会社共立,,有限会社,山口県,下関市,山の田南町１番５号,,35,201,7510835,,,2024-10-15,清算の結了等,,,2015-10-05,1,,,,,キョウリツ,0
848,3440002004357,登記記録の閉鎖等,0,2024-10-18,2024-10-16,有限会社丸池池田商店,,有限会社,北海道,函館市,庵原町１５番地,,01,202,0420904,,,2024-10-16,清算の結了等,,,2015-10-05,1,,,,,マルイケイカダショウテン,0
852,3500001022114,登記記録の閉鎖等,0,2024-10-18,2024-10-10,株式会社シンエイ四国,,株式会社,愛媛県,四国中央市,妻鳥町１８５番地１,,38,213,7990113,,,2024-10-10,合併による解散等,9260001023619,令和６年１０月１日岡山県倉敷市玉島上成５２９番地２株式会社シンエイ西日本（9260001023619）に合併し解散,2019-07-11,1,,,,,シンエイシコク,0
857,4010001134189,登記記録の閉鎖等,0,2024-10-18,2024-10-15,株式会社テクノ・セブン,,株式会社,東京都,世田谷区,池尻３丁目１番３号,,13,112,1540001,,,2024-10-15,合併による解散等,2010001095739,令和６年１０月１日東京都中央区日本橋本町四丁目８番１４号株式会社マーブル（2010001095739）に合併し解散,2015-10-05,1,,,,,テクノセブン,0
867,4010003021088,登記記録の閉鎖等,0,2024-10-18,2024-10-03,日光１３６レスカール星ヶ丘合同会社,,合同会社,東京都,千代田区,丸の内３丁目１番１号東京共同会計事務所内,,13,101,1000005,,,2024-10-03,清算の結了等,,,2015-10-05,1,,,,,ニッコウワンハンドレッドサーティーシックスレスカールホシガオカ,0
873,4010401137196,登記記録の閉鎖等,0,2024-10-18,2024-09-30,株式会社ＢｅｅＥｄｇｅ,,株式会社,東京都,港区,浜松町１丁目１７番１４号,,13,103,1050013,,,2024-09-30,清算の結了等,,,2018-03-16,1,,,,,ビーエッジ,0
882,4010403007455,登記記録の閉鎖等,0,2024-10-18,2024-09-30,合同会社アロークロスペクト５,,合同会社,東京都,港区,西新橋１丁目１５番５号株式会社アイピービー内,,13,103,1050003,,,2024-09-30,清算の結了等,,,2015-10-05,1,,,,,アロークロスペクトファイブ,0
891,4010405014904,登記記録の閉鎖等,0,2024-10-18,2024-09-30,ＮＰＯ法人悠遊会,,その他の設立登記法人,東京都,港区,高輪３丁目２５番２７－１４０７号,,13,103,1080074,,,2024-09-30,清算の結了等,,,2016-07-08,1,,,,,ユウユウカイ,0
913,4011003014866,登記記録の閉鎖等,0,2024-10-18,2024-09-25,合同会社サパン,,合同会社,東京都,渋谷区,渋谷２丁目１９番１５号宮益坂ビルディング６０９,,13,113,1500002,,,2024-09-25,清算の結了等,,,2022-06-16,1,,,,,サパン,0
942,4013303006312,登記記録の閉鎖等,0,2024-10-18,2024-10-09,合同会社星華,,合同会社,東京都,豊島区,東池袋４丁目７－６、６０３号,,13,116,1700013,,,2024-10-09,清算の結了等,,,2022-10-04,1,,,,,セイカ,0
944,4020001060574,登記記録の閉鎖等,0,2024-10-18,2024-10-02,アベニールウィンテック株式会社,,株式会社,神奈川県,横浜市都筑区,あゆみが丘８番１０号,,14,118,2240016,,,2024-10-02,清算の結了等,,,2015-10-05,1,,,,,アベニールウィンテック,0
953,4020003007953,登記記録の閉鎖等,0,2024-10-18,2024-10-01,合同会社シニアライフパートナーズ,,合同会社,神奈川県,座間市,立野台２丁目１６番２４号,,14,216,2520023,,,2024-10-01,清算の結了等,,,2015-10-05,1,,,,,シニアライフパートナーズ,0
988,4040002075173,登記記録の閉鎖等,0,2024-10-18,2024-10-10,有限会社松本海苔店,,有限会社,千葉県,市原市,八幡１３３５番地,,12,219,2900062,,,2024-10-10,清算の結了等,,,2015-10-05,1,,,,,マツモトノリテン,0
990,4050001047610,登記記録の閉鎖等,0,2024-10-18,2024-10-08,株式会社コネクト,,株式会社,茨城県,神栖市,息栖３０７９番地７１２,,08,232,3140133,,,2024-10-08,清算の結了等,,,2020-06-04,1,,,,,コネクト,0
1007,4080002011455,登記記録の閉鎖等,0,2024-10-18,2024-10-11,有限会社望月タイル商会,,有限会社,静岡県,静岡市清水区,万世町１丁目６番２０号,,22,103,4240826,,,2024-10-11,清算の結了等,,,2015-10-05,1,,,,,モチヅキタイルショウカイ,0
1019,4120001039006,登記記録の閉鎖等,0,2024-10-18,2024-10-10,株式会社忠佐,,株式会社,大阪府,大阪市浪速区,敷津東２丁目２番８号,,27,111,5560012,,,2024-10-10,清算の結了等,,,2015-10-05,1,,,,,チュウサ,0
1027,4120002012713,登記記録の閉鎖等,0,2024-10-18,2024-10-09,有限会社オフィスアイエム,,有限会社,大阪府,箕面市,箕面７丁目６番１６号,,27,220,5620001,,,2024-10-09,清算の結了等,,,2015-10-05,1,,,,,オフィスアイエム,0
1036,4120902002334,登記記録の閉鎖等,0,2024-10-18,2024-10-11,有限会社ティー・エス・シーテクニコ,,有限会社,大阪府,茨木市,橋の内２丁目２番１９号,,27,211,5670805,,,2024-10-11,清算の結了等,,,2015-10-05,1,,,,,ティーエスシーテクニコ,0
1037,4122001019623,登記記録の閉鎖等,0,2024-10-18,2024-10-10,日進グラビア株式会社,,株式会社,大阪府,八尾市,太田新町１丁目２２２番地,,27,212,5810039,,,2024-10-10,清算の結了等,,,2015-10-05,1,,,,,ニッシングラビア,0
1040,4130001005205,登記記録の閉鎖等,0,2024-10-18,2024-10-16,中木染色株式会社,,株式会社,京都府,京都市北区,紫野西藤ノ森町１番地の２４,,26,101,6038224,,,2024-10-16,清算の結了等,,,2015-10-05,1,,,,,ナカギセンショク,0
1047,4130005015241,登記記録の閉鎖等,0,2024-10-18,2024-10-15,一般社団法人日本三七人参協会,,その他の設立登記法人,京都府,京都市中京区,油小路通二条上る薬屋町５９３番地,,26,104,6040066,,,2024-10-15,清算の結了等,,,2018-03-08,1,,,,,ニホンサンシチニンジンキョウカイ,0
1049,4140001032586,登記記録の閉鎖等,0,2024-10-18,2024-10-15,株式会社四川麺本舗,00039414,株式会社,兵庫県,神戸市長田区,苅藻通１丁目１番１７号,,28,106,6530032,,,2024-10-15,清算の結了等,,,2015-10-05,1,,,,,シセンメンホンポ,0
1050,4140001101894,登記記録の閉鎖等,0,2024-10-18,2024-10-11,株式会社美間工飾,,株式会社,大阪府,池田市,栄町４番６－１０１号,,27,204,5630056,,,2024-10-11,清算の結了等,,,2016-05-02,1,,,,,ミマコウショク,0
1057,4140002001573,登記記録の閉鎖等,0,2024-10-18,2024-10-02,有限会社紺屋実業,,有限会社,東京都,中央区,佃１丁目１１番９－１０１３号,,13,102,1040051,,,2024-10-02,清算の結了等,,,2015-10-05,1,,,,,コウヤジツギョウ,0
1071,4180002063536,登記記録の閉鎖等,0,2024-10-18,2024-10-04,有限会社エムケイエム,,有限会社,愛知県,長久手市,久保山２０１１番地２,,23,238,4801151,,,2024-10-04,清算の結了等,,,2015-10-05,1,,,,,エムケイエム,0
1072,4180005004140,登記記録の閉鎖等,0,2024-10-18,2024-10-15,愛知県個人タクシー協同組合,,その他の設立登記法人,愛知県,名古屋市熱田区,伝馬３丁目５番７号２Ｆ,,23,109,4560034,,,2024-10-15,清算の結了等,,,2015-10-05,1,,,,,アイチケンコジンタクシー,0
1073,4180305000772,登記記録の閉鎖等,0,2024-10-18,2024-10-09,医療法人川部歯科医院,,その他の設立登記法人,愛知県,岡崎市,庄司田１丁目１３番地１１,,23,202,4440821,,,2024-10-09,清算の結了等,,,2015-10-05,1,,,,,カワベシカイイン,0
1075,4200001006708,登記記録の閉鎖等,0,2024-10-18,2024-10-15,株式会社レオクラン東海,,株式会社,岐阜県,岐阜市,日野南４丁目１７番１３号,,21,201,5008212,,,2024-10-15,合併による解散等,1120901010233,令和６年１０月１日大阪府摂津市千里丘二丁目４番２６号株式会社レオクラン（1120901010233）に合併し解散,2015-10-05,1,,,,,レオクラントウカイ,0
1084,4240001048275,登記記録の閉鎖等,0,2024-10-18,2024-10-10,株式会社モッケン,,株式会社,広島県,東広島市,鏡山３丁目１２番２６号,,34,212,7390046,,,2024-10-10,清算の結了等,,,2015-10-05,1,,,,,モッケン,0
1089,4260001012155,登記記録の閉鎖等,0,2024-10-18,2024-10-15,オムロンスイッチアンドデバイス株式会社,,株式会社,鳥取県,倉吉市,巌城１００５番地,,31,203,6820801,,,2024-10-15,合併による解散等,5330001010225,令和６年１０月１日熊本県山鹿市杉１１１０番地オムロンリレーアンドデバイス株式会社（5330001010225）に合併し解散,2015-10-05,1,,,,,オムロンスイッチアンドデバイス,0
1092,4260002014902,登記記録の閉鎖等,0,2024-10-18,2024-10-11,有限会社谷本商運,,有限会社,岡山県,赤磐市,桜が丘東６丁目６番地の３５２,,33,213,7090721,,,2024-10-11,清算の結了等,,,2015-10-05,1,,,,,タニモトショウウン,0
1094,4260003004431,登記記録の閉鎖等,0,2024-10-18,2024-10-15,合同会社ＵＪＣ,,合同会社,岡山県,津山市,神戸１０５番地４,,33,203,7080015,,,2024-10-15,清算の結了等,,,2023-09-15,1,,,,,ユージェイシー,0
1107,4310002005978,登記記録の閉鎖等,0,2024-10-18,2024-10-03,有限会社吉岡工業,,有限会社,長崎県,長崎市,深堀町５丁目３１２番地１,,42,201,8510301,,,2024-10-03,清算の結了等,,,2015-10-05,1,,,,,ヨシオカコウギョウ,0
1109,4320002010630,登記記録の閉鎖等,0,2024-10-18,2024-10-17,有限会社コータカンパニー,,有限会社,大分県,大分市,大字政所２１５１番地１,,44,201,8700268,,,2024-10-17,清算の結了等,,,2015-10-05,1,,,,,,0
1111,4330001028615,登記記録の閉鎖等,0,2024-10-18,2024-10-09,株式会社雄心産業,,株式会社,熊本県,熊本市東区,戸島１丁目８番７７号,,43,102,8618041,,,2024-10-09,清算の結了等,,,2021-05-27,1,,,,,ユウシンサンギョウ,0
1116,4350002017292,登記記録の閉鎖等,0,2024-10-18,2024-10-10,有限会社圓ブロイラー,,有限会社,宮崎県,日南市,大字板敷３５４番地３,,45,204,8892532,,,2024-10-10,清算の結了等,,,2015-10-05,1,,,,,マロヤカブロイラー,0
1127,4420003000686,登記記録の閉鎖等,0,2024-10-18,2024-10-09,合資会社ラ・ミント,,合資会社,青森県,五所川原市,大字漆川字鍋懸７０番地８,,02,205,0370017,,,2024-10-09,清算の結了等,,,2015-10-05,1,,,,,ラミント,0
1139,4470002013552,登記記録の閉鎖等,0,2024-10-18,2024-10-01,有限会社三希建設,,有限会社,香川県,仲多度郡まんのう町,造田７０番地１,,37,406,7660201,,,2024-10-01,清算の結了等,,,2015-10-05,1,,,,,サンキケンセツ,0
1140,4490002010853,登記記録の閉鎖等,0,2024-10-18,2024-10-15,有限会社三榮商会,,有限会社,高知県,高岡郡四万十町,平串３０８番地１,,39,412,7860026,,,2024-10-15,清算の結了等,,,2015-10-05,1,,,,,サンエイショウカイ,0
1145,5010001126664,登記記録の閉鎖等,0,2024-10-18,2024-10-15,株式会社アイレックス,,株式会社,東京都,世田谷区,池尻３丁目１番３号,,13,112,1540001,,,2024-10-15,合併による解散等,2010001095739,令和６年１０月１日東京都中央区日本橋本町四丁目８番１４号株式会社マーブル（2010001095739）に合併し解散,2015-10-05,1,,,,,アイレックス,0
1146,5010001161298,登記記録の閉鎖等,0,2024-10-18,2024-10-02,日本健康素材株式会社,,株式会社,東京都,文京区,本郷２丁目４０番１４号,,13,105,1130033,,,2024-10-02,清算の結了等,,,2015-10-05,1,,,,,ニホンケンコウソザイ,0
1156,5010003023190,登記記録の閉鎖等,0,2024-10-18,2024-10-03,日光ＩＶ合同会社５,,合同会社,東京都,千代田区,丸の内３丁目１番１号東京共同会計事務所内,,13,101,1000005,,,2024-10-03,清算の結了等,,,2016-03-08,1,,,,,ニッコウフォーゴ,0
1164,5010401068779,登記記録の閉鎖等,0,2024-10-18,2024-10-15,株式会社デアトレ,,株式会社,東京都,港区,南青山６丁目１３番２５号,,13,103,1070062,,,2024-10-15,清算の結了等,,,2015-10-05,1,,,,,デアトレ,0
1165,5010401075346,登記記録の閉鎖等,0,2024-10-18,2024-09-30,株式会社マスヤスズキ,,株式会社,東京都,港区,芝大門２丁目１３番２号,,13,103,1050012,,,2024-09-30,清算の結了等,,,2015-10-05,1,,,,,マスヤスズキ,0
1166,5010401097431,登記記録の閉鎖等,0,2024-10-18,2024-10-16,株式会社鎌田ホールディングス,,株式会社,東京都,港区,白金２丁目５－５１白金ハウスＢ,,13,103,1080072,,,2024-10-16,合併による解散等,8011101054892,令和６年１０月４日東京都新宿区四谷一丁目１８番地株式会社早慶道場（8011101054892）に合併し解散,2015-10-05,1,,,,,,0
1176,5010403028178,登記記録の閉鎖等,0,2024-10-18,2024-09-30,ＥＳＲ３４合同会社,,合同会社,東京都,港区,浜松町１丁目２０番１０号ライオネス浜松町５０６号室,,13,103,1050013,,,2024-09-30,清算の結了等,,,2022-08-02,1,,,,,イーエスアールサンジュウヨン,0
1188,5010902005842,登記記録の閉鎖等,0,2024-10-18,2024-10-11,有限会社コウリュー商事,,有限会社,東京都,世田谷区,上野毛１丁目２８番１５号,,13,112,1580093,,,2024-10-11,清算の結了等,,,2015-10-05,1,,,,,,0
1190,5011001012739,登記記録の閉鎖等,0,2024-10-18,2024-09-25,株式会社双建設計,,株式会社,東京都,渋谷区,道玄坂２丁目１５番１号,,13,113,1500043,,,2024-09-25,清算の結了等,,,2015-10-05,1,,,,,ソウケンセッケイ,0
1202,5011101102902,登記記録の閉鎖等,0,2024-10-18,2024-10-07,株式会社Ｉ‐ＦＲＥＥＫ　ＧＡＭＥＳ,,株式会社,東京都,新宿区,新宿２丁目１番１１号,,13,104,1600022,,,2024-10-07,合併による解散等,2290001021923,令和６年１０月１日東京都新宿区新宿二丁目１番１１号株式会社アイフリークモバイル（2290001021923）に合併し解散,2023-05-19,1,,,,,アイフリークゲームズ,0
1224,5011801027944,登記記録の閉鎖等,0,2024-10-18,2024-10-09,プーデンジャパン株式会社,,株式会社,千葉県,千葉市中央区,汐見丘町９番１２号,,12,101,2600034,,,2024-10-09,清算の結了等,,,2015-10-05,1,,,,,プーデンジャパン,0
1236,5013402006716,登記記録の閉鎖等,0,2024-10-18,2024-10-15,有限会社美舞,,有限会社,東京都,多摩市,関戸２丁目３７番地３,,13,224,2060011,,,2024-10-15,合併による解散等,9010001126487,令和６年９月３０日東京都文京区本郷三丁目２３番３号株式会社クオーレ（9010001126487）に合併し解散,2015-10-05,1,,,,,ビマイ,0
1261,5030003021201,登記記録の閉鎖等,0,2024-10-18,2024-10-04,合同会社７ａｍ,,合同会社,埼玉県,川越市,大字小仙波１０４９番地１,,11,201,3500031,,,2024-10-04,清算の結了等,,,2023-02-20,1,,,,,セブンエイエム,0
1264,5030005011349,登記記録の閉鎖等,0,2024-10-18,2024-10-08,物流ネットワーク埼玉中央協同組合,,その他の設立登記法人,埼玉県,東松山市,大字新郷８８番地７３,,11,212,3550071,,,2024-10-08,清算の結了等,,,2015-10-05,1,,,,,ブツリュウネットワークサイタマチュウオウ,0
1305,5110002019997,登記記録の閉鎖等,0,2024-10-18,2024-10-09,北陸自販有限会社,,有限会社,新潟県,燕市,蔵関字道上３２７番１号,,15,213,9591271,,,2024-10-09,清算の結了等,,,2015-10-05,1,,,,,ホクリクジハン,0
1307,5120001031291,登記記録の閉鎖等,0,2024-10-18,2024-10-09,東洋タクシー株式会社,,株式会社,大阪府,大阪市西成区,岸里東１丁目２２番１６号,,27,122,5570042,,,2024-10-09,清算の結了等,,,2015-10-05,1,,,,,トウヨウタクシー,0
1310,5120001096161,登記記録の閉鎖等,0,2024-10-18,2024-10-15,株式会社林光園,,株式会社,大阪府,池田市,伏尾台１丁目６８７番地の２４,,27,204,5630017,,,2024-10-15,清算の結了等,,,2015-10-05,1,,,,,リンコウエン,0
1332,5120901029575,登記記録の閉鎖等,0,2024-10-18,2024-10-10,ＭＳＰトランスフォーメーション株式会社,,株式会社,京都府,宇治市,槇島町一町田１番地２,,26,204,6110041,,,2024-10-10,清算の結了等,,,2015-10-05,1,,,,,エムエスピートランスフォーメーション,0
1341,5130002011861,登記記録の閉鎖等,0,2024-10-18,2024-10-09,有限会社アンジー,,有限会社,京都府,京都市山科区,西野大手先町５番地の１,,26,110,6078344,,,2024-10-09,清算の結了等,,,2015-10-05,1,,,,,アンジー,0
1351,5140005004721,登記記録の閉鎖等,0,2024-10-18,2024-10-09,特定非営利活動法人ハート＆ラブ,,その他の設立登記法人,兵庫県,神戸市長田区,戸崎通３丁目９番１２号,,28,106,6530845,,,2024-10-09,清算の結了等,,,2015-10-05,1,,,,,ハートアンドラブ,0
1354,5160001007965,登記記録の閉鎖等,0,2024-10-18,2024-10-16,株式会社すし慶,,株式会社,滋賀県,長浜市,木之本町木之本９８８番地,,25,203,5290425,,,2024-10-16,清算の結了等,,,2015-10-05,1,,,,,スシケイ,0
1368,5190001026962,登記記録の閉鎖等,0,2024-10-18,2024-10-15,カズキ産業株式会社,,株式会社,三重県,津市,観音寺町７４１番地３,,24,201,5140062,,,2024-10-15,清算の結了等,,,2019-12-20,1,,,,,カズキサンギョウ,0
1378,5240001058281,登記記録の閉鎖等,0,2024-10-18,2024-10-10,株式会社Ｐｒｏｇｒｅｓｓ　Ｇｒｏｕｐ,,株式会社,広島県,広島市中区,平野町３番３９号第１ＳＫビル３０１,,34,101,7300047,,,2024-10-10,清算の結了等,,,2021-07-13,1,,,,,プログレスグループ,0
1380,5240002024010,登記記録の閉鎖等,0,2024-10-18,2024-10-10,有限会社土井通信工業,,有限会社,広島県,広島市中区,千田町３丁目７番７３－８０６号,,34,101,7300052,,,2024-10-10,清算の結了等,,,2015-10-05,1,,,,,ドイツウシンコウギョウ,0
1386,5260002011386,登記記録の閉鎖等,0,2024-10-18,2024-10-11,岡本運送有限会社,,有限会社,岡山県,赤磐市,坂辺３９１番地の１,,33,213,7012202,,,2024-10-11,清算の結了等,,,2015-10-05,1,,,,,オカモトウンソウ,0
1389,5290001016730,登記記録の閉鎖等,0,2024-10-18,2024-09-09,株式会社丸冨士,,株式会社,福岡県,福岡市東区,下原１丁目２５番１号,,40,131,8130002,,,2024-09-09,清算の結了等,,,2015-10-05,1,,,,,マルフジ,0
1407,5330001028936,登記記録の閉鎖等,0,2024-10-18,2024-09-25,株式会社ｗｉＺ,,株式会社,東京都,渋谷区,円山町５番５号Ｎａｖｉ渋谷Ｖ３階,,13,113,1500044,,,2024-09-25,清算の結了等,,,2021-08-25,1,,,,,ウィズ,0
1410,5330003008143,登記記録の閉鎖等,0,2024-10-18,2024-10-09,合同会社エーフィット,,合同会社,熊本県,天草市,佐伊津町６０番地５４,,43,215,8632171,,,2024-10-09,清算の結了等,,,2019-11-07,1,,,,,エーフィット,0
1423,5370001038907,登記記録の閉鎖等,0,2024-10-18,2024-10-03,株式会社リジョイス,,株式会社,宮城県,仙台市泉区,松陵５丁目４番地の４,,04,105,9813108,,,2024-10-03,清算の結了等,,,2015-12-08,1,,,,,,0
1424,5370002017307,登記記録の閉鎖等,0,2024-10-18,2024-10-03,有限会社ＮＡＤ測量・設計,,有限会社,宮城県,仙台市若林区,南小泉字八軒小路８番地アメニティゾーン河原町ＩＶ１０３号,00119992,04,103,9840827,,,2024-10-03,清算の結了等,,,2015-10-05,1,,,,,,0
1430,5400002004276,登記記録の閉鎖等,0,2024-10-18,2024-10-03,有限会社坂本建設,,有限会社,岩手県,盛岡市,下田字陣場３９の５２,,03,201,0284134,,,2024-10-03,清算の結了等,,,2015-10-05,1,,,,,サカモトケンセツ,0
1433,5410002005232,登記記録の閉鎖等,0,2024-10-18,2024-10-15,有限会社メタルクリエーション,,有限会社,秋田県,秋田市,東通１丁目１９番２７号コーポサンコウ３号,,05,201,0100003,,,2024-10-15,清算の結了等,,,2015-10-05,1,,,,,メタルクリエーション,0
1455,6010001088689,登記記録の閉鎖等,0,2024-10-18,2024-10-15,アンドール株式会社,,株式会社,東京都,世田谷区,池尻３丁目１番３号,,13,112,1540001,,,2024-10-15,合併による解散等,2010001095739,令和６年１０月１日東京都中央区日本橋本町四丁目８番１４号株式会社マーブル（2010001095739）に合併し解散,2015-10-05,1,,,,,アンドール,0
1459,6010001236223,登記記録の閉鎖等,0,2024-10-18,2024-10-03,株式会社２０００,,株式会社,東京都,中央区,銀座１丁目１２番４号Ｎ＆ＥＢＬＤ．６Ｆ,,13,102,1040061,,,2024-10-03,清算の結了等,,,2023-06-16,1,,,,,ニセン,0
1470,6010101002987,登記記録の閉鎖等,0,2024-10-18,2024-10-11,株式会社日進住販,,株式会社,東京都,八王子市,子安町４丁目２０番地８号,,13,201,1920904,,,2024-10-11,清算の結了等,,,2015-10-05,1,,,,,ニッシンジュウハン,0
1477,6010401112775,登記記録の閉鎖等,0,2024-10-18,2024-10-09,株式会社レディーバード,,株式会社,東京都,中央区,銀座６丁目１３番１６号銀座ＷａｌｌビルＵＣＦ５階,,13,102,1040061,,,2024-10-09,合併による解散等,2180001160518,令和６年９月２５日名古屋市中区錦一丁目５番１１号株式会社レディーバード（2180001160518）に合併し解散,2015-10-05,1,,,,,レディーバード,0
1484,6010402007140,登記記録の閉鎖等,0,2024-10-18,2024-09-26,有限会社スタジオ・アプト,,有限会社,東京都,港区,高輪２丁目１番２２号,,13,103,1080074,,,2024-09-26,清算の結了等,,,2015-10-05,1,,,,,スタジオアプト,0
1485,6010402031066,登記記録の閉鎖等,0,2024-10-18,2024-09-26,株式会社テルコーポレイション,,株式会社,東京都,港区,西新橋２丁目９番７号５－Ｄ,,13,103,1050003,,,2024-09-26,清算の結了等,,,2015-10-05,1,,,,,テルコーポレイション,0
1486,6010403015431,登記記録の閉鎖等,0,2024-10-18,2024-09-24,Ｈｏｋｋａｉｄｏ　Ａｌｐｉｎｅ　Ｒｅｓｏｒｔｓ合同会社,,合同会社,東京都,港区,虎ノ門３丁目２２番１０‐２０１号,,13,103,1050001,,,2024-09-24,清算の結了等,,,2016-10-03,1,,,,,,0
1492,6010501033905,登記記録の閉鎖等,0,2024-10-18,2024-10-07,鶴谷プロデュース株式会社,,株式会社,東京都,台東区,上野２丁目１２番地１８,,13,106,1100005,,,2024-10-07,清算の結了等,,,2015-10-05,1,,,,,ツルヤプロデュース,0
1498,6010801015677,登記記録の閉鎖等,0,2024-10-18,2024-10-10,株式会社パリティ,,株式会社,東京都,大田区,北馬込２丁目８番４号,,13,111,1430021,,,2024-10-10,清算の結了等,,,2015-10-05,1,,,,,パリティ,0
1500,6010802002666,登記記録の閉鎖等,0,2024-10-18,2024-10-10,有限会社大市不動産,,有限会社,東京都,大田区,中央７丁目１７番７号,,13,111,1430024,,,2024-10-10,清算の結了等,,,2015-10-05,1,,,,,オオイチフドウサン,0
1501,6010803004629,登記記録の閉鎖等,0,2024-10-18,2024-10-11,合同会社ミチノベ,,合同会社,東京都,大田区,大森北２丁目１９番５号グレイスコート大森海岸７１０,,13,111,1430016,,,2024-10-11,清算の結了等,,,2023-08-08,1,,,,,ミチノベ,0
1519,6011101038609,登記記録の閉鎖等,0,2024-10-18,2024-10-07,株式会社テクノボー,,株式会社,東京都,板橋区,徳丸１丁目６０番９号,,13,119,1750083,,,2024-10-07,清算の結了等,,,2015-10-05,1,,,,,テクノボー,0
1531,6011502011040,登記記録の閉鎖等,0,2024-10-18,2024-10-11,有限会社ホリコシ,,有限会社,東京都,荒川区,荒川５丁目１２番１１号,,13,118,1160002,,,2024-10-11,清算の結了等,,,2015-10-05,1,,,,,ホリコシ,0
1536,6011701003086,登記記録の閉鎖等,0,2024-10-18,2024-10-02,株式会社小松川プラスチックス,,株式会社,東京都,千代田区,神田和泉町１番地１３の１３鈴木ビル２Ｆ,,13,101,1010024,,,2024-10-02,清算の結了等,,,2015-10-05,1,,,,,コマツガワプラスチックス,0
1541,6012401019934,登記記録の閉鎖等,0,2024-10-18,2024-10-10,株式会社オフィスホボ,,株式会社,東京都,世田谷区,深沢８丁目１５番５号,,13,112,1580081,,,2024-10-10,清算の結了等,,,2015-10-05,1,,,,,,0
1542,6012402016410,登記記録の閉鎖等,0,2024-10-18,2024-10-16,おおなりビル有限会社,,有限会社,東京都,武蔵野市,吉祥寺本町４丁目２６番２７号クレール吉祥寺１０２,,13,203,1800004,,,2024-10-16,清算の結了等,,,2015-10-05,1,,,,,オオナリビル,0
1545,6013305001152,登記記録の閉鎖等,0,2024-10-18,2024-10-09,特定非営利活動法人世界＆日本のエネルギー労働者と連帯する会,,その他の設立登記法人,東京都,豊島区,南大塚２丁目３３番地１０号東京労働会館１階国際人権活動日本委員会気付,,13,116,1700005,,,2024-10-09,清算の結了等,,,2015-10-05,1,,,,,セカイアンドニホンノエネルギーロウドウシャトレンタイスルカイ,0
1551,6020002021128,登記記録の閉鎖等,0,2024-10-18,2024-10-16,有限会社クボ技建,,有限会社,神奈川県,大和市,深見３５４５番地５,,14,213,2420011,,,2024-10-16,清算の結了等,,,2015-10-05,1,,,,,クボギケン,0
1556,6021001075478,登記記録の閉鎖等,0,2024-10-18,2024-10-15,ＥＮＧＩＸ株式会社,,株式会社,神奈川県,相模原市中央区,横山１丁目３番１７号,,14,152,2520242,,,2024-10-15,清算の結了等,,,2022-03-25,1,,,,,エンギックス,0
1563,6030001005782,登記記録の閉鎖等,0,2024-10-18,2024-10-09,株式会社東陽都市計画,,株式会社,埼玉県,さいたま市桜区,大字上大久保３６７番地３,,11,106,3380824,,,2024-10-09,清算の結了等,,,2015-10-05,1,,,,,トウヨウトシケイカク,0
1589,6040005004004,登記記録の閉鎖等,0,2024-10-18,2024-10-10,医療法人社団信道会,,その他の設立登記法人,千葉県,市川市,塩焼２丁目２番４７号,,12,203,2720114,,,2024-10-10,清算の結了等,,,2015-10-05,1,,,,,シンドウカイ,0
1595,6060002035289,登記記録の閉鎖等,0,2024-10-18,2024-10-15,有限会社阿部穀店,,有限会社,栃木県,足利市,田中町９５５番地１,,09,202,3260822,,,2024-10-15,清算の結了等,,,2015-10-05,1,,,,,アベコクテン,0
1602,6080102000447,登記記録の閉鎖等,0,2024-10-18,2024-10-11,有限会社魚広水産,,有限会社,静岡県,沼津市,蓼原町３０番地の１,,22,203,4100843,,,2024-10-11,清算の結了等,,,2015-10-05,1,,,,,,0
1605,6090002014942,登記記録の閉鎖等,0,2024-10-18,2024-10-10,有限会社立川ポンプサービス,,有限会社,山梨県,西八代郡市川三郷町,市川大門１３９０番地１,,19,346,4093601,,,2024-10-10,清算の結了等,,,2015-10-05,1,,,,,タチカワポンプサービス,0
1607,6100001014124,登記記録の閉鎖等,0,2024-10-18,2024-10-01,松本ホンダ販売株式会社,,株式会社,長野県,松本市,渚２丁目７番２７号,,20,202,3900841,,,2024-10-01,合併による解散等,7100001016474,令和６年１０月１日長野県松本市出川二丁目１９番３号株式会社アルプス（7100001016474）に合併し解散,2015-10-05,1,,,,,マツモトホンダハンバイ,0
1616,6120001149182,登記記録の閉鎖等,0,2024-10-18,2024-10-09,近江産業株式会社,,株式会社,大阪府,枚方市,楠葉並木２丁目６番１１号,,27,210,5731118,,,2024-10-09,清算の結了等,,,2015-10-05,1,,,,,オウミサンギョウ,0
1634,6120101046825,登記記録の閉鎖等,0,2024-10-18,2024-10-15,株式会社トレーディングテック,,株式会社,大阪府,阪南市,桃の木台６丁目８番地の５,,27,232,5990236,,,2024-10-15,清算の結了等,,,2015-10-05,1,,,,,トレーディングテック,0
1685,6230001017015,登記記録の閉鎖等,0,2024-10-18,2024-10-17,株式会社ノアズグループ,,株式会社,富山県,富山市,新庄町１８０番地１,,16,201,9300992,,,2024-10-17,清算の結了等,,,2017-06-26,1,,,,,ノアズグループ,0
1686,6230001017246,登記記録の閉鎖等,0,2024-10-18,2024-10-17,株式会社エージコーポレーション,,株式会社,富山県,富山市,婦中町分田１７５番地３,,16,201,9392718,,,2024-10-17,清算の結了等,,,2017-12-28,1,,,,,エージコーポレーション,0
1696,6270001000033,登記記録の閉鎖等,0,2024-10-18,2024-09-18,株式会社秋山組,,株式会社,鳥取県,鳥取市,国安２３８番地,,31,201,6801132,,,2024-09-18,清算の結了等,,,2015-10-05,1,,,,,アキヤマグミ,0
1697,6280002011202,登記記録の閉鎖等,0,2024-10-18,2024-10-16,有限会社今岡工務店,,有限会社,島根県,雲南市,加茂町東谷４３番地１,,32,209,6991113,,,2024-10-16,清算の結了等,,,2015-10-05,1,,,,,イマオカコウムテン,0
1719,6330002002360,登記記録の閉鎖等,0,2024-10-18,2024-10-09,有限会社河添鮮魚,,有限会社,熊本県,熊本市南区,近見８丁目５番７０号,,43,104,8614101,,,2024-10-09,清算の結了等,,,2015-10-05,1,,,,,カワゾエセンギョ,0
1743,6500001010867,登記記録の閉鎖等,0,2024-10-18,2024-10-11,株式会社烏谷信義商店,,株式会社,愛媛県,西条市,禎瑞３６０番地１,,38,206,7930061,,,2024-10-11,清算の結了等,,,2015-10-05,1,,,,,カラスダニノブヨシショウテン,0
1751,7010001002095,登記記録の閉鎖等,0,2024-10-18,2024-10-02,共栄紙工業株式会社,,株式会社,東京都,文京区,小石川１丁目１６番６号,,13,105,1120002,,,2024-10-02,清算の結了等,,,2015-10-05,1,,,,,キョウエイシコウギョウ,0
1752,7010001033000,登記記録の閉鎖等,0,2024-10-18,2024-10-02,日本カーリット株式会社,,株式会社,東京都,中央区,京橋１丁目１７番１０号,,13,102,1040031,,,2024-10-02,合併による解散等,6010001156165,令和６年１０月１日東京都中央区京橋一丁目１７番１０号株式会社カーリット（6010001156165）に合併し解散,2015-10-05,1,,,,,ニホンカーリット,0
1756,7010001151033,登記記録の閉鎖等,0,2024-10-18,2024-09-27,ベリマトリックス株式会社,,株式会社,東京都,港区,港南２丁目１５番１号品川インターシティＡ棟２８階,,13,103,1080075,,,2024-09-27,清算の結了等,,,2015-10-05,1,,,,,ベリマトリックス,0
1766,7010003021127,登記記録の閉鎖等,0,2024-10-18,2024-10-03,日光７１ベルピア吹上合同会社,,合同会社,東京都,千代田区,丸の内３丁目１番１号東京共同会計事務所内,,13,101,1000005,,,2024-10-03,清算の結了等,,,2015-10-05,1,,,,,ニッコウセブンティーワンベルピアフキアゲ,0
1793,7010701000670,登記記録の閉鎖等,0,2024-10-18,2024-10-11,株式会社天野製作所,,株式会社,東京都,大田区,久が原２丁目１１番１０号,,13,111,1460085,,,2024-10-11,清算の結了等,,,2015-10-05,1,,,,,アマノセイサクショ,0
1797,7010802017127,登記記録の閉鎖等,0,2024-10-18,2024-10-10,有限会社岸田ビル,,有限会社,東京都,品川区,小山３丁目１５番２－４０１号,,13,109,1420062,,,2024-10-10,清算の結了等,,,2015-10-05,1,,,,,キシダビル,0
1806,7011001034946,登記記録の閉鎖等,0,2024-10-18,2024-10-15,株式会社テストマテリアルズ,,株式会社,埼玉県,川口市,南鳩ヶ谷３丁目１９番３号,,11,203,3340013,,,2024-10-15,合併による解散等,8010001098620,令和６年１０月１日東京都千代田区神田錦町二丁目１１番地三洋テクノス株式会社（8010001098620）に合併し解散,2015-10-05,1,,,,,テストマテリアルズ,0
1828,7011103010770,登記記録の閉鎖等,0,2024-10-18,2024-10-17,合同会社ＭＡＬＥ,,合同会社,東京都,中野区,新井５丁目５－１７－２０２号,,13,114,1650026,,,2024-10-17,清算の結了等,,,2021-06-17,1,,,,,マール,0
1839,7011701026004,登記記録の閉鎖等,0,2024-10-18,2024-09-24,オリソン株式会社,,株式会社,東京都,目黒区,目黒１丁目５－１８中銀目黒タワービル９０４,,13,110,1530063,,,2024-09-24,清算の結了等,,,2023-02-10,1,,,,,オリソン,0
1855,7020003019946,登記記録の閉鎖等,0,2024-10-18,2024-10-02,合同会社フォーピース,,合同会社,神奈川県,横浜市港北区,菊名４丁目９番６号,,14,109,2220011,,,2024-10-02,清算の結了等,,,2021-06-09,1,,,,,フォーピース,0
1860,7021005008284,登記記録の閉鎖等,0,2024-10-18,2024-10-11,特定非営利活動法人国際文化交流会猿島,,その他の設立登記法人,神奈川県,横須賀市,公郷町６丁目２０番地２３４,,14,201,2380022,,,2024-10-11,清算の結了等,,,2015-10-05,1,,,,,コクサイブンカコウリュウカイサルシマ,0
1896,7120001007991,登記記録の閉鎖等,0,2024-10-18,2024-10-09,大和シエル株式会社,,株式会社,大阪府,大阪市城東区,新喜多２丁目２番４３号,,27,118,5360015,,,2024-10-09,清算の結了等,,,2015-10-05,1,,,,,ダイワシエル,0
1897,7120001015516,登記記録の閉鎖等,0,2024-10-18,2024-10-09,田阪工業株式会社,,株式会社,大阪府,大阪市城東区,今福西２丁目８番２号,,27,118,5360004,,,2024-10-09,清算の結了等,,,2015-10-05,1,,,,,タサカコウギョウ,0
1898,7120001019070,登記記録の閉鎖等,0,2024-10-18,2024-10-17,森下燃料株式会社,,株式会社,大阪府,大阪市生野区,林寺１丁目５番１６号,,27,116,5440023,,,2024-10-17,清算の結了等,,,2015-10-05,1,,,,,モリシタネンリョウ,0
1923,7120905003467,登記記録の閉鎖等,0,2024-10-18,2024-10-15,医療法人つちたにこどもくりにっく,,その他の設立登記法人,大阪府,箕面市,粟生外院１丁目１１番１９号,,27,220,5620025,,,2024-10-15,清算の結了等,,,2015-10-05,1,,,,,ツチタニコドモクリニック,0
1949,7180002011500,登記記録の閉鎖等,0,2024-10-18,2024-10-07,有限会社佐々堂商店,,有限会社,愛知県,名古屋市北区,清水５丁目２２番１７号,,23,103,4620844,,,2024-10-07,清算の結了等,,,2015-10-05,1,,,,,ササドウショウテン,0
1958,7200002024103,登記記録の閉鎖等,0,2024-10-18,2024-10-15,有限会社嶋田屋製材所,,有限会社,岐阜県,中津川市,加子母３２９４番地の２,,21,206,5080421,,,2024-10-15,清算の結了等,,,2015-10-05,1,,,,,シマダヤセイザイショ,0
1968,7220001024192,登記記録の閉鎖等,0,2024-10-18,2024-10-11,株式会社ミルキーライン,,株式会社,石川県,金沢市,片町１丁目１番１号（プレミスト香林坊）,,17,201,9200981,,,2024-10-11,清算の結了等,,,2021-05-25,1,,,,,ミルキーライン,0
1975,7250001014216,登記記録の閉鎖等,0,2024-10-18,2024-10-15,大日テクノサービス株式会社,,株式会社,山口県,防府市,大字浜方１００番地の１,,35,206,7470833,,,2024-10-15,清算の結了等,,,2015-10-05,1,,,,,ダイニチテクノサービス,0
2001,7290802016472,登記記録の閉鎖等,0,2024-10-18,2024-10-15,有限会社白石青果,,有限会社,福岡県,遠賀郡芦屋町,大字芦屋１１８９番地４,,40,381,8070133,,,2024-10-15,清算の結了等,,,2015-10-05,1,,,,,シライシセイカ,0
2002,7300002004912,登記記録の閉鎖等,0,2024-10-18,2024-10-16,有限会社睦和福祉会,,有限会社,佐賀県,佐賀市,川副町大字鹿江１４１３番地８,,41,201,8402213,,,2024-10-16,合併による解散等,9290001022824,令和６年９月１日福岡市東区筥松新町３番地３メディカル・ケア・サービス九州株式会社（9290001022824）に合併し解散,2015-10-05,1,,,,,ムツワフクシカイ,0
2018,7430001061512,登記記録の閉鎖等,0,2024-10-18,2024-10-10,野村商事株式会社,,株式会社,北海道,札幌市北区,屯田六条１０丁目１番８号,,01,102,0020856,,,2024-10-10,清算の結了等,,,2015-10-05,1,,,,,ノムラショウジ,0
2022,7430002016052,登記記録の閉鎖等,0,2024-10-18,2024-10-03,有限会社ハヤシ設計事務所,,有限会社,北海道,札幌市南区,澄川六条１０丁目１番３７号,,01,106,0050006,,,2024-10-03,清算の結了等,,,2015-10-05,1,,,,,ハヤシセッケイジムショ,0
2025,7450005002353,登記記録の閉鎖等,0,2024-10-18,2024-10-11,風連町商工業協同組合,,その他の設立登記法人,北海道,名寄市,風連町本町６３番地,,01,221,0980504,,,2024-10-11,清算の結了等,,,2015-10-05,1,,,,,フウレンチョウショウコウギョウ,0
2028,7480002002667,登記記録の閉鎖等,0,2024-10-18,2024-10-17,有限会社大洋商事,,有限会社,徳島県,徳島市,新浜本町１丁目５番２５号第１１春木マンション３０５号,,36,201,7708007,,,2024-10-17,清算の結了等,,,2015-10-05,1,,,,,タイヨウショウジ,0
2033,8010001094900,登記記録の閉鎖等,0,2024-10-18,2024-10-02,株式会社ワイ・エム・シー,,株式会社,東京都,千代田区,神田須田町１丁目２４番地３,,13,101,1010041,,,2024-10-02,清算の結了等,,,2015-10-05,1,,,,,ワイエムシー,0
2048,8010401073909,登記記録の閉鎖等,0,2024-10-18,2024-09-24,株式会社エムシーエムコーポレーション,,株式会社,東京都,港区,浜松町１丁目２５番１０－５０３号,,13,103,1050013,,,2024-09-24,清算の結了等,,,2015-10-05,1,,,,,エムシーエムコーポレーション,0
2075,8010902008479,登記記録の閉鎖等,0,2024-10-18,2024-10-09,有限会社星加電装,,有限会社,東京都,世田谷区,喜多見２丁目６番２０号,,13,112,1570067,,,2024-10-09,清算の結了等,,,2015-10-05,1,,,,,ホシカデンソウ,0
2096,8011301019489,登記記録の閉鎖等,0,2024-10-18,2024-09-24,株式会社トラスト,,株式会社,東京都,港区,浜松町１丁目２５番１０－５０３号,,13,103,1050013,,,2024-09-24,清算の結了等,,,2015-10-05,1,,,,,トラスト,0
2120,8020002060289,登記記録の閉鎖等,0,2024-10-18,2024-10-16,有限会社あっとティーブイ,,有限会社,神奈川県,横浜市旭区,善部町３３番地の１１,,14,112,2410823,,,2024-10-16,清算の結了等,,,2015-10-05,1,,,,,アットティーブイ,0
2162,8050002017451,登記記録の閉鎖等,0,2024-10-18,2024-10-08,有限会社古澤建設,,有限会社,茨城県,結城郡八千代町,大字貝谷２８８番地の１,,08,521,3003526,,,2024-10-08,清算の結了等,,,2015-10-05,1,,,,,フルサワケンセツ,0
2172,8100002009880,登記記録の閉鎖等,0,2024-10-18,2024-10-01,有限会社ユーピーエム,,有限会社,長野県,千曲市,大字内川６２２番地１,,20,218,3890802,,,2024-10-01,合併による解散等,6100001006369,令和６年１０月１日長野県千曲市大字内川６２２番地１株式会社ユニオンプレート（6100001006369）に合併し解散,2015-10-05,1,,,,,ユーピーエム,0
2190,8120002063521,登記記録の閉鎖等,0,2024-10-18,2024-10-15,有限会社Ｈｉｋａｒｕ　Ｃｒｅａｔｅ,,有限会社,大阪府,大阪市西淀川区,野里３丁目３番３８－５０９号,,27,113,5550024,,,2024-10-15,清算の結了等,,,2015-10-05,1,,,,,,0
2191,8120003005266,登記記録の閉鎖等,0,2024-10-18,2024-10-11,合名会社司法書士試験塾アイシス,,合名会社,大阪府,岸和田市,小松里町５１４番地の１２,,27,202,5960821,,,2024-10-11,清算の結了等,,,2015-10-05,1,,,,,シホウショシシケンジュクアイシス,0
2202,8130005016764,登記記録の閉鎖等,0,2024-10-18,2024-10-11,一般社団法人Ｗｅｌｌ‐ｂｅｉｎｇ　ＫＹＯＴＯ,,その他の設立登記法人,京都府,京都市右京区,嵯峨天龍寺芒ノ馬場町３４番地,,26,108,6168385,,,2024-10-11,清算の結了等,,,2023-04-27,1,,,,,ウェルビーイングキョウト,0
2203,8140001020265,登記記録の閉鎖等,0,2024-10-18,2024-10-08,株式会社アイメック,,株式会社,兵庫県,神戸市中央区,江戸町９８番地の１,,28,110,6500033,,,2024-10-08,清算の結了等,,,2015-10-05,1,,,,,アイメック,0
2206,8140001121220,登記記録の閉鎖等,0,2024-10-18,2024-10-10,Ｔｏｋｅｎ株式会社,,株式会社,兵庫県,宝塚市,野上３丁目５番３６号フォンテーヌ逆瀬川１０３,,28,214,6650022,,,2024-10-10,清算の結了等,,,2021-04-16,1,,,,,トークン,0
2212,8140005007242,登記記録の閉鎖等,0,2024-10-18,2024-10-16,中井生産森林組合,,その他の設立登記法人,兵庫県,宍粟市,山崎町中井２６７番地の１,,28,227,6712545,,,2024-10-16,清算の結了等,,,2015-10-05,1,,,,,ナカイセイサンシンリン,0
2216,8160001025246,登記記録の閉鎖等,0,2024-10-18,2024-10-15,株式会社サンライズ物流システム,,株式会社,滋賀県,湖南市,吉永３３番地５,,25,211,5203222,,,2024-10-15,清算の結了等,,,2023-08-08,1,,,,,サンライズブツリュウシステム,0
2228,8240001041061,登記記録の閉鎖等,0,2024-10-18,2024-10-09,エル・キュービック株式会社,,株式会社,広島県,広島市佐伯区,五日市駅前１丁目１０番１３号,,34,108,7315125,,,2024-10-09,清算の結了等,,,2015-10-05,1,,,,,エルキュービック,0
2231,8240002011815,登記記録の閉鎖等,0,2024-10-18,2024-10-10,フリープラン有限会社,,有限会社,広島県,広島市西区,中広町１丁目１９番２０号,,34,104,7330012,,,2024-10-10,清算の結了等,,,2015-10-05,1,,,,,,0
2232,8240002014487,登記記録の閉鎖等,0,2024-10-18,2024-10-15,有限会社藤田商事,,有限会社,広島県,広島市南区,上東雲町２２番３０号,,34,103,7340021,,,2024-10-15,清算の結了等,,,2015-10-05,1,,,,,フジタショウジ,0
2240,8250002001740,登記記録の閉鎖等,0,2024-10-18,2024-10-15,有限会社友月堂,,有限会社,山口県,山口市,小郡大正町１４番１号,,35,203,7540044,,,2024-10-15,清算の結了等,,,2015-10-05,1,,,,,ユウゲツドウ,0
2241,8250002015006,登記記録の閉鎖等,0,2024-10-18,2024-10-15,有限会社テクノ周南,,有限会社,山口県,周南市,桜木３丁目５番１５号,,35,215,7450806,,,2024-10-15,清算の結了等,,,2015-10-05,1,,,,,テクノシュウナン,0
2250,8290001066376,登記記録の閉鎖等,0,2024-10-18,2024-09-06,盛泉実業株式会社,,株式会社,福岡県,福岡市東区,蒲田３丁目１１番３号,,40,131,8130023,,,2024-09-06,清算の結了等,,,2015-10-05,1,,,,,ジョウセンジツギョウ,0
2271,8310002009991,登記記録の閉鎖等,0,2024-10-18,2024-10-08,有限会社小廻事業部,,有限会社,長崎県,佐世保市,干尽町１番２０号,,42,202,8570852,,,2024-10-08,清算の結了等,,,2015-10-05,1,,,,,コマワリジギョウブ,0
2279,8340002013132,登記記録の閉鎖等,0,2024-10-18,2024-10-16,有限会社ベーカーズ,,有限会社,鹿児島県,鹿児島市,千年２丁目１４番３号,,46,201,8900001,,,2024-10-16,清算の結了等,,,2015-10-05,1,,,,,,0
2289,8390002007864,登記記録の閉鎖等,0,2024-10-18,2024-10-04,有限会社フラワーセンター根上,,有限会社,山形県,酒田市,宮野浦１丁目４番７号,,06,204,9980054,,,2024-10-04,清算の結了等,,,2015-10-05,1,,,,,フラワーセンターネアガリ,0
2299,8460001005647,登記記録の閉鎖等,0,2024-10-18,2024-10-17,株式会社クレアティオ,,株式会社,北海道,釧路市,松浦町１２番２０号,,01,206,0850005,,,2024-10-17,清算の結了等,,,2022-01-27,1,,,,,クレアティオ,0
2302,8470005006013,登記記録の閉鎖等,0,2024-10-18,2024-10-10,一般社団法人血管力研究所,,その他の設立登記法人,香川県,丸亀市,飯山町下法軍寺５４６番地３,,37,202,7620083,,,2024-10-10,清算の結了等,,,2017-06-06,1,,,,,ケッカンリョクケンキュウショ,0
2319,9010003023187,登記記録の閉鎖等,0,2024-10-18,2024-10-03,日光ＩＶ合同会社２,,合同会社,東京都,千代田区,丸の内３丁目１番１号東京共同会計事務所内,,13,101,1000005,,,2024-10-03,清算の結了等,,,2016-03-07,1,,,,,ニッコウフォーニ,0
2356,9010801022092,登記記録の閉鎖等,0,2024-10-18,2024-10-10,株式会社鈴木工機,,株式会社,東京都,大田区,仲池上１丁目１７番１３号,,13,111,1460081,,,2024-10-10,清算の結了等,,,2015-10-05,1,,,,,スズキコウキ,0
2377,9011402002731,登記記録の閉鎖等,0,2024-10-18,2024-10-09,有限会社協信塗装,,有限会社,東京都,板橋区,徳丸６丁目１０番１３号,,13,119,1750083,,,2024-10-09,清算の結了等,,,2015-10-05,1,,,,,キョウシントソウ,0
2412,9020002022437,登記記録の閉鎖等,0,2024-10-18,2024-10-16,有限会社増田店装,,有限会社,神奈川県,相模原市南区,磯部１６６９番地１,,14,153,2520327,,,2024-10-16,清算の結了等,,,2015-10-05,1,,,,,マスダテンソウ,0
2417,9021001041510,登記記録の閉鎖等,0,2024-10-18,2024-10-15,小林建設株式会社,,株式会社,神奈川県,逗子市,池子３丁目２０番９号,,14,208,2490003,,,2024-10-15,清算の結了等,,,2015-10-05,1,,,,,コバヤシケンセツ,0
2422,9030001023385,登記記録の閉鎖等,0,2024-10-18,2024-10-10,株式会社介護情報支援センター,,株式会社,埼玉県,さいたま市見沼区,島町３９番地２３,,11,104,3370006,,,2024-10-10,清算の結了等,,,2015-10-05,1,,,,,カイゴジョウホウシエンセンター,0
2433,9030002120314,登記記録の閉鎖等,0,2024-10-18,2024-10-10,有限会社大成食品,,有限会社,埼玉県,日高市,大字高萩６９３番地の７,,11,242,3501213,,,2024-10-10,清算の結了等,,,2015-10-05,1,,,,,タイセイショクヒン,0
2438,9040001033508,登記記録の閉鎖等,0,2024-10-18,2024-10-09,株式会社龍馬クリストフ・クラフト,,株式会社,千葉県,市川市,新田５丁目６番２２インペリアルハウス４０２号,,12,203,2720035,,,2024-10-09,清算の結了等,,,2015-10-05,1,,,,,リョウマクリストフクラフト,0
2439,9040001043630,登記記録の閉鎖等,0,2024-10-18,2024-10-09,株式会社木下モーター,,株式会社,千葉県,印西市,武西１２６３番地５,,12,231,2701354,,,2024-10-09,合併による解散等,1040001017303,令和６年１０月１日千葉県船橋市小室町３００６番地株式会社コスモスバス（1040001017303）に合併し解散,2015-10-05,1,,,,,キオロシモーター,0
2448,9050001023466,登記記録の閉鎖等,0,2024-10-18,2024-10-11,中嶋メディカルサプライ株式会社,,株式会社,茨城県,日立市,助川町１丁目１７番１９号,,08,202,3170065,,,2024-10-11,合併による解散等,8010901009619,令和６年１０月１日東京都世田谷区宮坂三丁目１２番１７号株式会社ハートライフ（8010901009619）に合併し解散,2015-10-05,1,,,,,ナカジマメディカルサプライ,0
2455,9080001009396,登記記録の閉鎖等,0,2024-10-18,2024-10-11,株式会社ライフライト,,株式会社,静岡県,静岡市清水区,長崎南町４番６４号,,22,103,4240068,,,2024-10-11,清算の結了等,,,2015-10-05,1,,,,,ライフライト,0
2464,9090001014866,登記記録の閉鎖等,0,2024-10-18,2024-10-10,株式会社大江戸屋,,株式会社,山梨県,甲府市,朝日１丁目９番１２号,,19,201,4000025,,,2024-10-10,清算の結了等,,,2016-11-28,1,,,,,,0
2471,9110001033888,登記記録の閉鎖等,0,2024-10-18,2024-10-09,ＮｅｘｔＧｅｎｏｖａｔｉｏｎ株式会社,,株式会社,新潟県,長岡市,前田２丁目８番２３号,,15,202,9400042,,,2024-10-09,清算の結了等,,,2019-03-28,1,,,,,ネクストジェノベイション,0
2473,9110005011881,登記記録の閉鎖等,0,2024-10-18,2024-10-08,慶宗寺,,その他の設立登記法人,新潟県,長岡市,与板町与板５８番地の乙,,15,202,9402402,,,2024-10-08,清算の結了等,,,2015-10-05,1,,,,,キョウソウジ,0
2480,9120001158362,登記記録の閉鎖等,0,2024-10-18,2024-10-10,読賣京阪販売株式会社,,株式会社,大阪府,門真市,野里町４番１２号,,27,223,5710079,,,2024-10-10,清算の結了等,,,2015-10-05,1,,,,,ヨミウリケイハンハンバイ,0
2483,9120001201015,登記記録の閉鎖等,0,2024-10-18,2024-10-10,チエノマ株式会社,,株式会社,大阪府,大阪市都島区,都島南通１丁目６番５号,,27,102,5340023,,,2024-10-10,清算の結了等,,,2016-10-03,1,,,,,チエノマ,0
2505,9130001029331,登記記録の閉鎖等,0,2024-10-18,2024-10-11,株式会社環境サービス,,株式会社,京都府,京都市中京区,西ノ京車坂町９番地,,26,104,6048405,,,2024-10-11,合併による解散等,5130002018551,令和６年９月３０日京都市中京区西ノ京車坂町７番地４株式会社ファシリティケア（5130002018551）に合併し解散,2015-10-05,1,,,,,カンキョウサービス,0
2521,9140003012978,登記記録の閉鎖等,0,2024-10-18,2024-10-15,合同会社Ｋａｔａｊｉ,,合同会社,兵庫県,尼崎市,立花町１丁目１０番１９号１Ｆ,,28,202,6610025,,,2024-10-15,清算の結了等,,,2018-05-07,1,,,,,カタジ,0
2529,9180001132923,登記記録の閉鎖等,0,2024-10-18,2024-10-02,株式会社タイザン,,株式会社,愛知県,名古屋市中区,新栄１丁目３番２６号（東新町サンダイマンション５０６号）,,23,106,4600007,,,2024-10-02,清算の結了等,,,2018-07-06,1,,,,,タイザン,0
2536,9180302008756,登記記録の閉鎖等,0,2024-10-18,2024-10-11,有限会社鳥山看板,,有限会社,愛知県,豊橋市,天伯町字東天伯５１番地の３,,23,201,4418122,,,2024-10-11,清算の結了等,,,2015-10-05,1,,,,,トリヤマカンバン,0
2542,9230001019743,登記記録の閉鎖等,0,2024-10-18,2024-10-16,ＣＢＤ　Ｐｈａｒｍａ　Ｊａｐａｎ株式会社,,株式会社,富山県,富山市,根塚町４丁目２－２０,00135247,16,201,9398204,,,2024-10-16,清算の結了等,,,2023-03-10,1,,,,,シービーディーファーマジャパン,0
2543,9240001024379,登記記録の閉鎖等,0,2024-10-18,2024-10-08,石原コンサルタンツ株式会社,,株式会社,広島県,広島市安芸区,船越２丁目３８番４号,,34,107,7360081,,,2024-10-08,清算の結了等,,,2015-10-05,1,,,,,イシハラコンサルタンツ,0
2549,9250001017200,登記記録の閉鎖等,0,2024-10-18,2024-10-15,エスポワール不動産株式会社,,株式会社,山口県,宇部市,大字妻崎開作８６番地５,,35,202,7590204,,,2024-10-15,清算の結了等,,,2018-06-22,1,,,,,エスポワールフドウサン,0
2574,9340001007613,登記記録の閉鎖等,0,2024-10-18,2024-10-16,株式会社文寿,,株式会社,鹿児島県,鹿児島市,西田３丁目９番２号,,46,201,8900046,,,2024-10-16,合併による解散等,3290001006642,令和６年１０月１日福岡市博多区博多駅前三丁目９番１号株式会社大賀薬局（3290001006642）に合併し解散,2015-10-05,1,,,,,ブンジュ,0
2577,9360003012196,登記記録の閉鎖等,0,2024-10-18,2024-10-16,合同会社オールブルー,,合同会社,沖縄県,那覇市,字真地３４５番地１ティダ・コートＢ－２０１,,47,201,9020072,,,2024-10-16,清算の結了等,,,2022-08-02,1,,,,,オールブルー,0
2588,9410002010377,登記記録の閉鎖等,0,2024-10-18,2024-10-16,有限会社塚本機械,,有限会社,秋田県,能代市,万町９番２１号,,05,202,0160804,,,2024-10-16,清算の結了等,,,2015-10-05,1,,,,,ツカモトキカイ,0
2592,9430002045693,登記記録の閉鎖等,0,2024-10-18,2024-10-07,有限会社ジェイグレース,,有限会社,北海道,江別市,大麻４８０番地,,01,217,0690845,,,2024-10-07,清算の結了等,,,2015-10-05,1,,,,,ジェイグレース,0
