sequenceNumber,corporateNumber,process,correct,updateDate,changeDate,name,nameImageId,kind,prefectureName,cityName,streetNumber,addressImageId,prefectureCode,cityCode,postCode,addressOutside,addressOutsideImageId,closeDate,closeCause,successorCorporateNumber,changeCause,assignmentDate,latest,enName,enPrefectureName,enCityName,enAddressOutside,furigana,hihyoji
13,1010003039109,新規,0,2022-11-22,2022-11-22,ＤＡＮＤＹ　ＥＮＴＥＲＰＲＩＳＥＳ合同会社,,合同会社,東京都,中央区,日本橋本町２丁目６－１日本橋本町プラザビル３Ｆ,,13,102,1030023,,,,,,,2022-11-22,1,,,,,ダンディーエンタープライズ,0
17,1010101015424,新規,0,2022-11-22,2022-11-22,株式会社一力,,株式会社,東京都,八王子市,石川町３２７４番地４,,13,201,1920032,,,,,,,2022-11-22,1,,,,,イチリキ,0
19,1010401170935,新規,0,2022-11-22,2022-11-22,株式会社メゾンノーブル,,株式会社,東京都,港区,元赤坂１丁目２番７号赤坂Ｋタワー４階,,13,103,1070051,,,,,,,2022-11-22,1,,,,,メゾンノーブル,0
20,1010401170984,新規,0,2022-11-22,2022-11-22,エムズワン株式会社,,株式会社,東京都,港区,浜松町２丁目２－１５浜松町ダイヤビル２Ｆ,,13,103,1050013,,,,,,,2022-11-22,1,,,,,エムズワン,0
23,1010405021606,新規,0,2022-11-22,2022-11-22,弁護士法人吉川法律事務所,,その他の設立登記法人,東京都,港区,六本木６丁目１０番１号六本木ヒルズ森タワー１６階,,13,103,1060032,,,,,,,2022-11-22,1,,,,,ヨシカワホウリツジムショ,0
26,1010601062197,新規,0,2022-11-22,2022-11-22,株式会社ａｔａｒａｙｏ,,株式会社,東京都,江東区,佐賀２丁目３－１５アークマーク水天宮前２（６０１）,,13,108,1350031,,,,,,,2022-11-22,1,,,,,アタラヨ,0
30,1010705003452,新規,0,2022-11-22,2022-11-22,一般社団法人医療支援機構,,その他の設立登記法人,東京都,品川区,大崎２丁目９番２－３２０１号,,13,109,1410032,,,,,,,2022-11-22,1,,,,,イリョウシエンキコウ,0
31,1010801033452,新規,0,2022-11-22,2022-11-22,株式会社ＤＴｉａｓ,,株式会社,東京都,大田区,蒲田５丁目７番８－６０４号,,13,111,1440052,,,,,,,2022-11-22,1,,,,,デーティアス,0
36,1010905004399,新規,0,2022-11-22,2022-11-22,ＮＰＯ法人パパズパラディ,,その他の設立登記法人,東京都,世田谷区,用賀４丁目１４番１号栄喜堂ビル２０１,,13,112,1580097,,,,,,,2022-11-22,1,,,,,,0
42,1011001151053,新規,0,2022-11-22,2022-11-22,株式会社トップリンクス,,株式会社,東京都,渋谷区,神宮前６丁目２３番４号桑野ビル２階,,13,113,1500001,,,,,,,2022-11-22,1,,,,,トップリンクス,0
43,1011001151086,新規,0,2022-11-22,2022-11-22,株式会社ＭＡＭＡＮＯ,,株式会社,東京都,目黒区,碑文谷５丁目２番５号Ｔ＆Ａビル５階,,13,110,1520003,,,,,,,2022-11-22,1,,,,,ママノ,0
50,1011105010477,新規,0,2022-11-22,2022-11-22,一般社団法人ジェイ・エイチ・アイ,,その他の設立登記法人,東京都,新宿区,下宮比町１番４号,,13,104,1620822,,,,,,,2022-11-22,1,,,,,ジェイエイチアイ,0
56,1011805003227,新規,0,2022-11-22,2022-11-22,一般社団法人日本臨床発達心理士会,,その他の設立登記法人,東京都,葛飾区,高砂３丁目１４番９号,,13,122,1250054,,,,,,,2022-11-22,1,,,,,ニホンリンショウハッタツシンリシカイ,0
57,1012401039895,新規,0,2022-11-22,2022-11-22,株式会社Ｍ．ハウス企画,,株式会社,東京都,稲城市,矢野口９７３番地ラ・フィーネ稲城２０５,,13,225,2060812,,,,,,,2022-11-22,1,,,,,エムハウスキカク,0
75,1020001149065,新規,0,2022-11-22,2022-11-22,アトリエ・オルフェ株式会社,,株式会社,神奈川県,横浜市西区,北幸１丁目１１番１号水信ビル７階,,14,103,2200004,,,,,,,2022-11-22,1,,,,,アトリエオルフェ,0
76,1020001149081,新規,0,2022-11-22,2022-11-22,株式会社小野不動産,,株式会社,神奈川県,横浜市港北区,新横浜２丁目１４番地８オフィス新横浜６０９,,14,109,2220033,,,,,,,2022-11-22,1,,,,,オノフドウサン,0
77,1020001149107,新規,0,2022-11-22,2022-11-22,株式会社ＬＰメンターズ,,株式会社,神奈川県,横浜市旭区,南本宿町１０１番地５Ａ２０９,,14,112,2410833,,,,,,,2022-11-22,1,,,,,エルピーメンターズ,0
81,1020003022773,新規,0,2022-11-22,2022-11-22,合同会社レナトゥス,,合同会社,神奈川県,横浜市鶴見区,矢向３丁目２番２－４号,,14,101,2300001,,,,,,,2022-11-22,1,,,,,レナトゥス,0
87,1021001077520,新規,0,2022-11-22,2022-11-22,株式会社ＮＲ１５,,株式会社,神奈川県,相模原市南区,古淵６丁目２９－１アソルティ古淵２０４,,14,153,2520344,,,,,,,2022-11-22,1,,,,,エヌアールジュウゴ,0
91,1021003012401,新規,0,2022-11-22,2022-11-22,合同会社ＨＯＰＥ,,合同会社,神奈川県,平塚市,中原１丁目７番１１－２０３号グランパルク,,14,203,2540075,,,,,,,2022-11-22,1,,,,,ホープ,0
99,1030001151160,新規,0,2022-11-22,2022-11-22,ＬＩＦＥ・ＲＥＢＯＲＮ株式会社,,株式会社,埼玉県,さいたま市南区,別所５丁目１５番２号,,11,108,3360021,,,,,,,2022-11-22,1,,,,,ライフリボーン,0
100,1030001151169,新規,0,2022-11-22,2022-11-22,株式会社Ｇａｋｕ,,株式会社,埼玉県,川越市,大字小堤５４５－５,,11,201,3500811,,,,,,,2022-11-22,1,,,,,ガク,0
117,1040003021328,新規,0,2022-11-22,2022-11-22,合同会社Ｍｃａｒｔ,,合同会社,千葉県,習志野市,藤崎４丁目６－３１ロジュマンＮＳＢ棟１０２号室,,12,216,2750017,,,,,,,2022-11-22,1,,,,,エムシーアート,0
122,1050003007020,新規,0,2022-11-22,2022-11-22,合同会社ＬｉｓＭ,,合同会社,茨城県,つくばみらい市,上長沼１４９７番地４,,08,235,3002453,,,,,,,2022-11-22,1,,,,,リズム,0
123,1050005013173,新規,0,2022-11-22,2022-11-22,ブリージアみどりのノースエリア団地管理組合法人,,その他の設立登記法人,茨城県,つくば市,みどりの２丁目２番地６,,08,220,3050881,,,,,,,2022-11-22,1,,,,,ブリージアミドリノノースエリア,0
127,1070001039856,新規,0,2022-11-22,2022-11-22,株式会社富岡産業,,株式会社,群馬県,藤岡市,小林６７９番地１,,10,209,3750021,,,,,,,2022-11-22,1,,,,,トミオカサンギョウ,0
135,1100003006784,新規,0,2022-11-22,2022-11-22,合同会社ＢＯＳＳ　ＤＥＬＩＧＨＴ　ＭＡＮＰＯＷＥＲ,,合同会社,長野県,塩尻市,大門七番町４番１６号,,20,215,3990738,,,,,,,2022-11-22,1,,,,,ボスディライトマンパワー,0
143,1120001250341,新規,0,2022-11-22,2022-11-22,翔縦株式会社,,株式会社,大阪府,大阪市中央区,南久宝寺町３丁目４番１５号加藤ビル南館４０１室,,27,128,5410058,,,,,,,2022-11-22,1,,,,,ショウジュウ,0
144,1120001250399,新規,0,2022-11-22,2022-11-22,株式会社エブリーワークス,,株式会社,大阪府,大阪市浪速区,日本橋東１丁目１０番７号,,27,111,5560006,,,,,,,2022-11-22,1,,,,,エブリーワークス,0
145,1120001250416,新規,0,2022-11-22,2022-11-22,丸福株式会社,,株式会社,大阪府,大阪市中央区,松屋町９番２０号ローレルステート松屋町５０６Ａ,,27,128,5420067,,,,,,,2022-11-22,1,,,,,マルフク,0
146,1120001250440,新規,0,2022-11-22,2022-11-22,株式会社ヤイト,,株式会社,大阪府,守口市,藤田町１丁目３０番８号エスパシオ古川橋Ｉ１０２号室,00128543,27,209,5700014,,,,,,,2022-11-22,1,,,,,ヤイト,0
147,1120001250457,新規,0,2022-11-22,2022-11-22,株式会社ＭＯＲＥ,,株式会社,大阪府,大阪市福島区,海老江７丁目２番４１号,,27,103,5530001,,,,,,,2022-11-22,1,,,,,モア,0
148,1120001250473,新規,0,2022-11-22,2022-11-22,株式会社ＦＯＲＭＥ,,株式会社,大阪府,大阪市中央区,久太郎町３丁目１番６号伊藤佑ビル大阪本町８階,,27,128,5410056,,,,,,,2022-11-22,1,,,,,フォルム,0
149,1120001250498,新規,0,2022-11-22,2022-11-22,ＲｅＮｅｗＳｔｙｌｅ株式会社,,株式会社,大阪府,大阪市西区,靱本町１丁目６－１４田渕本町ビル２階,,27,106,5500004,,,,,,,2022-11-22,1,,,,,リニュースタイル,0
150,1120003022904,新規,0,2022-11-22,2022-11-22,合同会社Ｔｉｄｙサポート,,合同会社,大阪府,大阪市北区,梅田１丁目２番２号大阪駅前第２ビル２階５－６,,27,127,5300001,,,,,,,2022-11-22,1,,,,,タイディサポート,0
151,1120003022912,新規,0,2022-11-22,2022-11-22,合同会社あすな,,合同会社,大阪府,大阪市淀川区,新高５丁目４番３６号,,27,123,5320033,,,,,,,2022-11-22,1,,,,,アスナ,0
167,1140001028934,新規,0,2022-11-22,2022-11-22,株式会社ＢＥ,,株式会社,兵庫県,神戸市須磨区,弥栄台３丁目１番２号,,28,107,6540161,,,,,,,2022-11-22,1,,,,,ビーイー,0
172,1140003018388,新規,0,2022-11-22,2022-11-22,オフィス金澤合同会社,,合同会社,兵庫県,神戸市中央区,中山手通１丁目９番７号矢原ビル４階,,28,110,6500004,,,,,,,2022-11-22,1,,,,,オフィスカナザワ,0
173,1140003018396,新規,0,2022-11-22,2022-11-22,合同会社メディアアプローチ,,合同会社,兵庫県,神戸市東灘区,青木２丁目３番１７－３０２号,,28,101,6580027,,,,,,,2022-11-22,1,,,,,メディアアプローチ,0
175,1160001024659,新規,0,2022-11-22,2022-11-22,株式会社ビワコマリーナフリオ,,株式会社,滋賀県,大津市,苗鹿３丁目１９番地１９,,25,201,5200102,,,,,,,2022-11-22,1,,,,,ビワコマリーナフリオ,0
179,1180001153927,新規,0,2022-11-22,2022-11-22,Ａｏ　ｉｎｔｅｒｉｏｒ株式会社,,株式会社,愛知県,名古屋市天白区,植田南１丁目３０１番地アルバックス植田南８０２号,,23,116,4680053,,,,,,,2022-11-22,1,,,,,アオインテリア,0
184,1180003024523,新規,0,2022-11-22,2022-11-22,Ｒｒ．ｖｉｅｗ合同会社,,合同会社,愛知県,名古屋市西区,大野木４丁目５４１,,23,104,4520803,,,,,,,2022-11-22,1,,,,,アールビュー,0
186,1180005020009,新規,0,2022-11-22,2022-11-22,愛知県労働組合総連合,,その他の設立登記法人,愛知県,名古屋市熱田区,沢下町９番７号労働会館東館３Ｆ,,23,109,4560006,,,,,,,2022-11-22,1,,,,,アイチケンソウレンゴウ,0
192,1200005013414,新規,0,2022-11-22,2022-11-22,特定非営利活動法人奥村医学生基金,,その他の設立登記法人,岐阜県,高山市,名田町５丁目７１番地１,,21,203,5060021,,,,,,,2022-11-22,1,,,,,オクムライガクセイキキン,0
203,1250001019856,新規,0,2022-11-22,2022-11-22,株式会社グリーンキャスト,,株式会社,山口県,下関市,細江新町１番１号下関海運ビル１５号室,,35,201,7500017,,,,,,,2022-11-22,1,,,,,グリーンキャスト,0
215,1290001099655,新規,0,2022-11-22,2022-11-22,株式会社ＲＥＧＡ　ＳＰＡＲＬＩＳ,,株式会社,福岡県,福岡市博多区,博多駅東２丁目５－１９サンライフ第３ビル６階,,40,132,8120013,,,,,,,2022-11-22,1,,,,,レガスパーリス,0
216,1290001099663,新規,0,2022-11-22,2022-11-22,株式会社ＦＪＳエージェント,,株式会社,福岡県,福岡市城南区,七隈７丁目１５－１４ウイング七隈１０１,,40,136,8140133,,,,,,,2022-11-22,1,,,,,エフジェイエスエージェント,0
222,1290005018859,新規,0,2022-11-22,2022-11-22,一般社団法人相続承継支援機構,,その他の設立登記法人,福岡県,福岡市博多区,博多駅中央街８番１号,,40,132,8120012,,,,,,,2022-11-22,1,,,,,ソウゾクショウケイシエンキコウ,0
226,1300003001906,新規,0,2022-11-22,2022-11-22,合同会社ＬＩＦＥ　ＰＩＡ,,合同会社,佐賀県,鳥栖市,前田町２２６６番地４３,,41,203,8410065,,,,,,,2022-11-22,1,,,,,ライフピア,0
228,1330003009599,新規,0,2022-11-22,2022-11-22,的場コンサルティング合同会社,,合同会社,熊本県,熊本市東区,錦ケ丘２３番５号,,43,102,8620912,,,,,,,2022-11-22,1,,,,,マトバコンサルティング,0
232,1350001018047,新規,0,2022-11-22,2022-11-22,株式会社湯地家電サービス,,株式会社,宮崎県,宮崎市,清武町船引２２８７番地５４,,45,201,8891604,,,,,,,2022-11-22,1,,,,,ユジカデンサービス,0
234,1360001031222,新規,0,2022-11-22,2022-11-22,株式会社ｓｏｕｌａｉｄ,,株式会社,沖縄県,国頭郡恩納村,字山田５９０－１ＣａｓａＮ２Ｄ号室,,47,311,9040416,,,,,,,2022-11-22,1,,,,,ソウルエイド,0
235,1360005006749,新規,0,2022-11-22,2022-11-22,医療法人博祐堂,,その他の設立登記法人,沖縄県,宜野湾市,宜野湾２丁目５番１３号,,47,205,9012211,,,,,,,2022-11-22,1,,,,,ハクユウドウ,0
241,1370001049288,新規,0,2022-11-22,2022-11-22,株式会社ＭＥＴＡＬ・ＯＨ,,株式会社,宮城県,多賀城市,伝上山１丁目１３番８２－２０３号,,04,209,9850872,,,,,,,2022-11-22,1,,,,,メタルオー,0
248,1380001033274,新規,0,2022-11-22,2022-11-22,株式会社Ｎｏｃｎｕｍ,,株式会社,福島県,南相馬市,小高区本町１丁目８７小高パイオニアビレッジ,,07,212,9792124,,,,,,,2022-11-22,1,,,,,ノックナム,0
254,1430001087918,新規,0,2022-11-22,2022-11-22,株式会社ＫＣ,,株式会社,北海道,札幌市中央区,南七条西１２丁目４番２６－１０２号,,01,101,0640807,,,,,,,2022-11-22,1,,,,,ケーシー,0
261,1470001019347,新規,0,2022-11-22,2022-11-22,株式会社Ｓｐａｉｖｅ,,株式会社,香川県,さぬき市,志度２２００番地９,,37,206,7692101,,,,,,,2022-11-22,1,,,,,スペイブ,0
264,1480003001896,新規,0,2022-11-22,2022-11-22,合同会社心恵,,合同会社,徳島県,板野郡北島町,中村字牛飼原１番地の１,,36,402,7710203,,,,,,,2022-11-22,1,,,,,ココエ,0
269,1700150110650,新規,0,2022-11-22,2022-07-01,ＲＡＩＮＢＯＷ　ＣＯＮＮＥＣＴＩＯＮ,,その他,東京都,渋谷区,渋谷１丁目２３－２１渋谷キャストアパートメント１３１６,,13,113,1500002,,,,,,,2022-07-01,1,,,,,レインボーコネクシヨン,0
275,2010001230980,新規,0,2022-11-22,2022-11-22,ＢＩＥＮＥＳＴＡＲ　ＪＡＰＡＮ株式会社,,株式会社,東京都,中央区,八丁堀４丁目１２番２０号第１ＳＳビル９Ｂ,,13,102,1040032,,,,,,,2022-11-22,1,,,,,ビエネスタジャパン,0
276,2010001231005,新規,0,2022-11-22,2022-11-22,株式会社ｂｅｌｌｅ,,株式会社,東京都,中央区,銀座１丁目１２番４号Ｎ＆ＥＢＬＤ．６Ｆ,,13,102,1040061,,,,,,,2022-11-22,1,,,,,ベル,0
277,2010001231038,新規,0,2022-11-22,2022-11-22,株式会社ＤＯＧ,,株式会社,東京都,千代田区,神田錦町２丁目９番９号,,13,101,1010054,,,,,,,2022-11-22,1,,,,,ディーオージー,0
278,2010001231054,新規,0,2022-11-22,2022-11-22,ファンネット株式会社,,株式会社,東京都,中央区,新富１丁目１５－１１マキプラザ３０３,,13,102,1040041,,,,,,,2022-11-22,1,,,,,ファンネット,0
281,2010003039149,新規,0,2022-11-22,2022-11-22,ｕｋ　ａｓｓｅｔ合同会社,,合同会社,東京都,中央区,銀座１丁目１２番４号Ｎ＆ＥＢＬＤ．６Ｆ,,13,102,1040061,,,,,,,2022-11-22,1,,,,,ユーケーアセット,0
284,2010005035815,新規,0,2022-11-22,2022-11-22,一般社団法人ＡＷＧ環境,,その他の設立登記法人,東京都,千代田区,内幸町２丁目２番３号日比谷国際ビルＢ１３６,,13,101,1000011,,,,,,,2022-11-22,1,,,,,エーダブルジーカンキョウ,0
285,2010103002023,新規,0,2022-11-22,2022-11-22,合同会社森パートナーズ,,合同会社,東京都,八王子市,久保山町２丁目３９番地１０,,13,201,1920023,,,,,,,2022-11-22,1,,,,,モリパートナーズ,0
286,2010103002031,新規,0,2022-11-22,2022-11-22,銀河合同会社,,合同会社,東京都,八王子市,東浅川町５２９－１メゾンエイコーン高尾４０６,,13,201,1930834,,,,,,,2022-11-22,1,,,,,ギンガ,0
300,2010401170926,新規,0,2022-11-22,2022-11-22,アライア・インターナショナル株式会社,,株式会社,東京都,港区,南青山２丁目１１番１４号イチーズビル８Ｆ,,13,103,1070062,,,,,,,2022-11-22,1,,,,,アライアインターナショナル,0
301,2010401170959,新規,0,2022-11-22,2022-11-22,株式会社Ｆｉｂｏｎａｃｃｉ,,株式会社,東京都,港区,南青山３丁目１番３６号青山丸竹ビル６Ｆ,,13,103,1070062,,,,,,,2022-11-22,1,,,,,フィボナッチ,0
302,2010401170975,新規,0,2022-11-22,2022-11-22,Ｂｒｉｄｅｓｍａｉｄ　Ｔｏｋｙｏ株式会社,,株式会社,東京都,港区,北青山２丁目１２番４号ＶＯＲＴ青山Ｌｅａｐ３０１,,13,103,1070061,,,,,,,2022-11-22,1,,,,,ブライズメイドトーキョー,0
303,2010501049649,新規,0,2022-11-22,2022-11-22,Ｔｒａｎｓ　Ｅｎｇｉｎｅｅｒｉｎｇ　Ｃｈｉｎａ　Ｊａｐａｎ株式会社,,株式会社,東京都,台東区,台東１丁目２４番９号ブライト秋葉原２Ｆ,,13,106,1100016,,,,,,,2022-11-22,1,,,,,トランスエンジニアリングチャイナジャパン,0
314,2010903007799,新規,0,2022-11-22,2022-11-22,合同会社ｆｌａｔｔｅｎ,,合同会社,東京都,世田谷区,北沢５丁目２３番１６号,,13,112,1550031,,,,,,,2022-11-22,1,,,,,フラッテン,0
320,2011001151077,新規,0,2022-11-22,2022-11-22,株式会社ＰＥＲＳＯＮＡＬ　ＰＲＯＭＯＴＩＯＮ,,株式会社,東京都,渋谷区,代々木１丁目３０番１５号天翔代々木ビル,,13,113,1510053,,,,,,,2022-11-22,1,,,,,パーソナルプロモーション,0
325,2011003015742,新規,0,2022-11-22,2022-11-22,合同会社ｍｕｕ,,合同会社,東京都,渋谷区,恵比寿南１丁目１１番１６号,,13,113,1500022,,,,,,,2022-11-22,1,,,,,ムゥ,0
326,2011003015783,新規,0,2022-11-22,2022-11-22,ＪＩＹ合同会社,,合同会社,東京都,渋谷区,神宮前６丁目２３番４号桑野ビル２Ｆ,,13,113,1500001,,,,,,,2022-11-22,1,,,,,ジェイアイワイ,0
332,2011101100850,新規,0,2022-11-22,2022-11-22,双宇貿易株式会社,,株式会社,東京都,新宿区,大久保２丁目１２番１２号大久保杉ハイム１０４,,13,104,1690072,,,,,,,2022-11-22,1,,,,,ソウウボウエキ,0
333,2011101100859,新規,0,2022-11-22,2022-11-22,株式会社Ｃ‐Ｃｕｂｅ,,株式会社,東京都,新宿区,赤城元町１番１０－４０２号,,13,104,1620817,,,,,,,2022-11-22,1,,,,,シーキューブ,0
334,2011101100933,新規,0,2022-11-22,2022-11-22,ＱＧジャパン株式会社,,株式会社,東京都,新宿区,愛住町１７番地,,13,104,1600005,,,,,,,2022-11-22,1,,,,,キュージージャパン,0
335,2011103012409,新規,0,2022-11-22,2022-11-22,合同会社ジェイ・イー・シー,,合同会社,東京都,新宿区,下宮比町１番４号,,13,104,1620822,,,,,,,2022-11-22,1,,,,,ジェイイーシー,0
338,2011501028691,新規,0,2022-11-22,2022-11-22,株式会社ＫＣＦ,,株式会社,東京都,北区,赤羽１丁目７番９号赤羽第１葉山ビル４Ｆ,,13,117,1150045,,,,,,,2022-11-22,1,,,,,ケーシーエフ,0
341,2011503005367,新規,0,2022-11-22,2022-11-22,Ｊ・Ｓ　ＳＯＮＩＡ　ＥＮＴＥＲＰＲＩＳＥ合同会社,,合同会社,東京都,荒川区,荒川３丁目３６番２号,,13,118,1160002,,,,,,,2022-11-22,1,,,,,ジェイエスソニアエンタープライズ,0
346,2011701025803,新規,0,2022-11-22,2022-11-22,株式会社アイジェイアイ,,株式会社,東京都,江戸川区,船堀３丁目８番１号,,13,123,1340091,,,,,,,2022-11-22,1,,,,,アイジェイアイ,0
348,2011801041469,新規,0,2022-11-22,2022-11-22,株式会社ＲＥＬＩＶＩＥ,,株式会社,東京都,葛飾区,西新小岩５丁目１７－２７,,13,122,1240025,,,,,,,2022-11-22,1,,,,,リリヴィー,0
349,2011801041519,新規,0,2022-11-22,2022-11-22,株式会社ＬＩＮＫ,,株式会社,東京都,足立区,大谷田４丁目１２番８号ユタカマンション３０２号室,,13,121,1200001,,,,,,,2022-11-22,1,,,,,リンク,0
350,2011801041584,新規,0,2022-11-22,2022-11-22,株式会社ソワニエ・ワン,,株式会社,東京都,足立区,宮城２丁目６番５号,,13,121,1200047,,,,,,,2022-11-22,1,,,,,ソワニエワン,0
354,2012401039894,新規,0,2022-11-22,2022-11-22,株式会社コーチャーズ,,株式会社,東京都,府中市,若松町４丁目１４－１ラヴィドール府中の森１０８,,13,206,1830005,,,,,,,2022-11-22,1,,,,,コーチャーズ,0
355,2012403005696,新規,0,2022-11-22,2022-11-22,合同会社Ｍｉｔａｗｅｌｌ,,合同会社,東京都,多摩市,諏訪１丁目６８番地の１オーベル多摩永山エンブレムヒルズ３０３,,13,224,2060024,,,,,,,2022-11-22,1,,,,,ミタウェル,0
357,2012701017360,新規,0,2022-11-22,2022-11-22,株式会社瓦正,,株式会社,東京都,西東京市,向台町６丁目５番１４号,,13,229,1880013,,,,,,,2022-11-22,1,,,,,カワラマサ,0
358,2012703002583,新規,0,2022-11-22,2022-11-22,合同会社クラフタ,,合同会社,東京都,西東京市,田無町７丁目２番６号ミ・アネーロ２０１,,13,229,1880011,,,,,,,2022-11-22,1,,,,,クラフタ,0
385,2021003012400,新規,0,2022-11-22,2022-11-22,相紀合同会社,,合同会社,神奈川県,海老名市,中央３丁目３番１０－１２０３号,,14,215,2430432,,,,,,,2022-11-22,1,,,,,ソウキ,0
387,2021005012670,新規,0,2022-11-22,2022-11-22,一般社団法人愛犬と豊かな暮らし協会,,その他の設立登記法人,神奈川県,大和市,深見東３丁目６番地２０号,,14,213,2420012,,,,,,,2022-11-22,1,,,,,アイケントユタカナクラシキョウカイ,0
395,2030003020569,新規,0,2022-11-22,2022-11-22,合同会社Ｅｃｃｅｎｔｒｉｃ,,合同会社,埼玉県,さいたま市見沼区,風渡野２丁目６番地５号ヴェルディアカーサＡ１０２,,11,104,3370017,,,,,,,2022-11-22,1,,,,,エキセントリック,0
405,2040001125889,新規,0,2022-11-22,2022-11-22,株式会社ＭＯＢ,,株式会社,千葉県,流山市,南流山３丁目３番地１１,,12,220,2700163,,,,,,,2022-11-22,1,,,,,エムオービー,0
406,2040001125922,新規,0,2022-11-22,2022-11-22,株式会社ＯＸＹＧＥＮ,,株式会社,千葉県,市川市,南行徳１丁目５番地１８号ポートタウントコタツヤ１０３号室,,12,203,2720138,,,,,,,2022-11-22,1,,,,,オキシゲン,0
407,2040001125955,新規,0,2022-11-22,2022-11-22,株式会社Ｍ・Ｋカンパニー,,株式会社,千葉県,千葉市若葉区,西都賀１丁目１６番９号,,12,104,2640026,,,,,,,2022-11-22,1,,,,,エムケイカンパニー,0
413,2050001052001,新規,0,2022-11-22,2022-11-22,ＹＮＩコンサルティング株式会社,,株式会社,茨城県,つくば市,みどりの南５０番地１６,,08,220,3050884,,,,,,,2022-11-22,1,,,,,ワイエヌアイコンサルティング,0
415,2050005013172,新規,0,2022-11-22,2022-11-22,一般社団法人つくばのまちづくりを考える会,,その他の設立登記法人,茨城県,つくば市,上境３９７番地,,08,220,3050011,,,,,,,2022-11-22,1,,,,,ツクバノマチヅクリヲカンガエルカイ,0
425,2090001017859,新規,0,2022-11-22,2022-11-22,マイセンド株式会社,,株式会社,山梨県,甲府市,丸の内２丁目２－１ＣＲＯＳＳ５００、１Ｆ,,19,201,4000031,,,,,,,2022-11-22,1,,,,,マイセンド,0
441,2120001250456,新規,0,2022-11-22,2022-11-22,嘉盛株式会社,,株式会社,大阪府,大阪市阿倍野区,旭町３丁目４番６－１００４号,,27,119,5450051,,,,,,,2022-11-22,1,,,,,カセイ,0
442,2120001250472,新規,0,2022-11-22,2022-11-22,株式会社ＧＲＯＯＺＩＡ,,株式会社,大阪府,大阪市浪速区,塩草３丁目３番８号アンビション難波ＷＥＳＴ８０１号,,27,111,5560024,,,,,,,2022-11-22,1,,,,,グルージア,0
443,2120001250480,新規,0,2022-11-22,2022-11-22,ＹＳ株式会社,,株式会社,大阪府,大阪市中央区,久太郎町１丁目５－３１－６０２,,27,128,5410056,,,,,,,2022-11-22,1,,,,,ワイエス,0
444,2120001250489,新規,0,2022-11-22,2022-11-22,株式会社キュアメモリー,,株式会社,大阪府,大阪市旭区,中宮２丁目２５－１３,,27,117,5350003,,,,,,,2022-11-22,1,,,,,キュアメモリー,0
445,2120001250497,新規,0,2022-11-22,2022-11-22,株式会社Ｓｉｒａ,,株式会社,大阪府,大阪市西区,北堀江１丁目５番８号５０１,,27,106,5500014,,,,,,,2022-11-22,1,,,,,シラ,0
452,2120903004380,新規,0,2022-11-22,2022-11-22,合同会社ポーラス・コーポレーション,,合同会社,大阪府,池田市,東山町５５３番地の１リベルテ東山７号,,27,204,5630012,,,,,,,2022-11-22,1,,,,,ポーラスコーポレーション,0
459,2140001128015,新規,0,2022-11-22,2022-11-22,ミキト＆パートナーズ株式会社,,株式会社,兵庫県,姫路市,網干区坂上５９番地１０,,28,201,6711223,,,,,,,2022-11-22,1,,,,,ミキトアンドパートナーズ,0
460,2140001128147,新規,0,2022-11-22,2022-11-22,株式会社ｏｆｆｉｃｅはーとぼいす,,株式会社,兵庫県,多可郡多可町,中区間子４７７番地１,,28,365,6791112,,,,,,,2022-11-22,1,,,,,オフィスハートボイス,0
461,2140003018395,新規,0,2022-11-22,2022-11-22,ＬｕｃｉｌｌｅＲｅｃｏｒｄｓＷｏｒｋｓ合同会社,,合同会社,兵庫県,神戸市灘区,千旦通３丁目１番２０号,,28,102,6570056,,,,,,,2022-11-22,1,,,,,ルシールレコーズワークス,0
464,2160001024658,新規,0,2022-11-22,2022-11-22,株式会社アクロゴルフ,,株式会社,滋賀県,草津市,追分南２丁目１０番２号,,25,206,5250048,,,,,,,2022-11-22,1,,,,,アクロゴルフ,0
470,2180003024522,新規,0,2022-11-22,2022-11-22,合同会社ＷＬＭ,,合同会社,愛知県,名古屋市中区,新栄２丁目４６番３１号ＧＲＡＮＤＵＫＥ新栄ｌｕｎｏ１３０４号,,23,106,4600007,,,,,,,2022-11-22,1,,,,,ダブリューエルエム,0
475,2190003004151,新規,0,2022-11-22,2022-11-22,合同会社Ｙ．ＭＡＳＡＯＭＩ,,合同会社,三重県,伊賀市,中友田８９０,,24,216,5181304,,,,,,,2022-11-22,1,,,,,ワイマサオミ,0
481,2220001025138,新規,0,2022-11-22,2022-11-22,株式会社リリカルミュージック,,株式会社,石川県,金沢市,末町５字８８番地４,,17,201,9201302,,,,,,,2022-11-22,1,,,,,リリカルミュージック,0
501,2290001099654,新規,0,2022-11-22,2022-11-22,アジア技術開発株式会社,,株式会社,福岡県,福岡市博多区,千代１丁目１番６３－１００２号,,40,132,8120044,,,,,,,2022-11-22,1,,,,,アジアギジュツカイハツ,0
502,2290001099662,新規,0,2022-11-22,2022-11-22,株式会社Ｖｅｙｏｎｄ,,株式会社,福岡県,福岡市中央区,大名２丁目６－１１ＦｕｋｕｏｋａＧｒｏｗｔｈＮｅｘｔ,,40,133,8100041,,,,,,,2022-11-22,1,,,,,ビヨンド,0
503,2290003013225,新規,0,2022-11-22,2022-11-22,合同会社ＬＬＣ糖鎖,,合同会社,福岡県,福岡市南区,柳河内２丁目８番５－２０１号,,40,134,8150063,,,,,,,2022-11-22,1,,,,,エルエルシートウサ,0
508,2320001019435,新規,0,2022-11-22,2022-11-22,鈴木自動車株式会社,,株式会社,大分県,大分市,羽屋２丁目４番５８号,,44,201,8700854,,,,,,,2022-11-22,1,,,,,スズキジドウシャ,0
517,2330001030325,新規,0,2022-11-22,2022-11-22,株式会社ＩＳＴＬ,,株式会社,熊本県,上益城郡益城町,大字惣領１１０４番地１６,,43,443,8612233,,,,,,,2022-11-22,1,,,,,アイエスティーエル,0
519,2340001025183,新規,0,2022-11-22,2022-11-22,株式会社ベネフィシア,,株式会社,鹿児島県,熊毛郡屋久島町,尾之間１３６番地１１,,46,505,8914404,,,,,,,2022-11-22,1,,,,,ベネフィシア,0
527,2350001018046,新規,0,2022-11-22,2022-11-22,株式会社調査新撰組,,株式会社,宮崎県,日南市,吾田西１丁目１０番６号,,45,204,8892536,,,,,,,2022-11-22,1,,,,,チョウサシンセングミ,0
529,2370001049287,新規,0,2022-11-22,2022-11-22,株式会社たびのホテルズ,,株式会社,宮城県,仙台市太白区,あすと長町１丁目４番５０号,,04,104,9820007,,,,,,,2022-11-22,1,,,,,タビノホテルズ,0
543,2430001087909,新規,0,2022-11-22,2022-11-22,株式会社エスコネクト,,株式会社,北海道,札幌市清田区,里塚四条３丁目４番２０号,,01,110,0040804,,,,,,,2022-11-22,1,,,,,エスコネクト,0
544,2430001087917,新規,0,2022-11-22,2022-11-22,株式会社ボイラーマート,,株式会社,北海道,札幌市中央区,南三条東２丁目４番地二条ＧＣビル６０２号,,01,101,0600053,,,,,,,2022-11-22,1,,,,,ボイラーマート,0
549,2430003014480,新規,0,2022-11-22,2022-11-22,合同会社ワイス,,合同会社,北海道,苫小牧市,見山町３丁目１番１４号,,01,213,0530855,,,,,,,2022-11-22,1,,,,,ワイス,0
550,2430003014489,新規,0,2022-11-22,2022-11-22,タカテック合同会社,,合同会社,北海道,札幌市北区,新琴似九条１２丁目５番５号,,01,102,0010909,,,,,,,2022-11-22,1,,,,,タカテック,0
555,2500001024607,新規,0,2022-11-22,2022-11-22,株式会社ｍｉｚｕｍｏ,,株式会社,愛媛県,伊予郡砥部町,宮内５６番地２,,38,402,7912120,,,,,,,2022-11-22,1,,,,,ミズモ,0
556,2700150067270,新規,0,2022-11-22,2015-11-25,近鉄学園前駅南地区再開発ビル管理組合,,その他,奈良県,奈良市,学園南３丁目１－５,,29,201,6310034,,,,,,,2015-11-25,1,,,,,キンテツガクエンマエエキミナミチクサイカイハツビルカンリクミアイ,0
562,3010001231004,新規,0,2022-11-22,2022-11-22,株式会社ＦＯＲＴＵＮＡ,,株式会社,東京都,中央区,東日本橋２丁目２８番４号日本橋ＣＥＴビル２階,,13,102,1030004,,,,,,,2022-11-22,1,,,,,フォルトゥナ,0
579,3010401170719,新規,0,2022-11-22,2022-11-22,株式会社ｓｕｐｕｎｉ,,株式会社,東京都,港区,北青山２丁目７－２０猪瀬ビル２Ｆ,,13,103,1070061,,,,,,,2022-11-22,1,,,,,スプニ,0
580,3010401170974,新規,0,2022-11-22,2022-11-22,株式会社シープラス,,株式会社,東京都,港区,南青山３丁目８番４０号青山センタービル２Ｆ,,13,103,1070062,,,,,,,2022-11-22,1,,,,,シープラス,0
584,3010403028956,新規,0,2022-11-22,2022-11-22,ミレニアル・アイデンティティ合同会社,,合同会社,東京都,港区,元赤坂１丁目１番８号株式会社赤坂国際会計内,,13,103,1070051,,,,,,,2022-11-22,1,,,,,ミレニアルアイデンティティ,0
586,3010405021579,新規,0,2022-11-22,2022-11-22,一般社団法人ユニットケア推進会,,その他の設立登記法人,東京都,港区,西新橋１丁目１８番６号クロスオフィス内幸町３０８,,13,103,1050003,,,,,,,2022-11-22,1,,,,,ユニットケアスイシンカイ,0
587,3010405021612,新規,0,2022-11-22,2022-11-22,一般社団法人虎ノ門スリー,,その他の設立登記法人,東京都,港区,虎ノ門３丁目２２番１０－２０１号,,13,103,1050001,,,,,,,2022-11-22,1,,,,,トラノモンスリー,0
594,3010701043509,新規,0,2022-11-22,2022-11-22,株式会社Ｌｉｆｅ　Ｄｅｓｉｇｎ　Ｐａｒｔｎｅｒｓ,,株式会社,東京都,品川区,東五反田１丁目４番１１－７０３号,,13,109,1410022,,,,,,,2022-11-22,1,,,,,ライフデザインパートナーズ,0
605,3011001150862,新規,0,2022-11-22,2022-11-22,株式会社ＶＥＡＴＭ,,株式会社,東京都,渋谷区,神宮前３丁目４番７号,,13,113,1500001,,,,,,,2022-11-22,1,,,,,ビートム,0
606,3011001151051,新規,0,2022-11-22,2022-11-22,株式会社ヒット,,株式会社,東京都,渋谷区,幡ヶ谷３丁目１４番地１１号,,13,113,1510072,,,,,,,2022-11-22,1,,,,,ヒット,0
607,3011001151068,新規,0,2022-11-22,2022-11-22,株式会社ＣＬＯＵＤ　ＷＩＮ,,株式会社,東京都,渋谷区,神宮前６丁目２３番４号桑野ビル２階,,13,113,1500001,,,,,,,2022-11-22,1,,,,,クラウドウィン,0
608,3011001151118,新規,0,2022-11-22,2022-11-22,株式会社グローバルゲート,,株式会社,東京都,渋谷区,代官山町１３番８号キャッスルマンション代官山５１３,,13,113,1500034,,,,,,,2022-11-22,1,,,,,グローバルゲート,0
612,3011003015758,新規,0,2022-11-22,2022-11-22,アテメ合同会社,,合同会社,東京都,渋谷区,神宮前６丁目２３番４号桑野ビル２階,,13,113,1500001,,,,,,,2022-11-22,1,,,,,アテメ,0
616,3011101100916,新規,0,2022-11-22,2022-11-22,株式会社ＯＰＳＥＡ,,株式会社,東京都,新宿区,富久町１５番１－４８１９号,,13,104,1620067,,,,,,,2022-11-22,1,,,,,オプシー,0
617,3011101100924,新規,0,2022-11-22,2022-11-22,株式会社Ｒａｉｓｅ　Ｆａｃｔｏｒｙ,,株式会社,東京都,新宿区,北新宿１丁目１番２０号プリオール三信ビル８階,,13,104,1690074,,,,,,,2022-11-22,1,,,,,ライズファクトリー,0
619,3011103012408,新規,0,2022-11-22,2022-11-22,合同会社ジェイ・イー・ビー,,合同会社,東京都,新宿区,下宮比町１番４号,,13,104,1620822,,,,,,,2022-11-22,1,,,,,ジェイイービー,0
621,3011201024247,新規,0,2022-11-22,2022-11-22,株式会社Ｋｌｅａｒ,,株式会社,東京都,中野区,中野４丁目１０番３－４０２号,,13,114,1640001,,,,,,,2022-11-22,1,,,,,クリア,0
622,3011203003950,新規,0,2022-11-22,2022-11-22,ダイナマイトアマゾネス合同会社,,合同会社,東京都,中野区,弥生町２丁目１３番地９号,,13,114,1640013,,,,,,,2022-11-22,1,,,,,ダイナマイトアマゾネス,0
628,3011601026388,新規,0,2022-11-22,2022-11-22,株式会社ＳＥＧＯＯＦ,,株式会社,東京都,練馬区,春日町３丁目３３－１６,,13,120,1790074,,,,,,,2022-11-22,1,,,,,セグーフ,0
629,3011703003310,新規,0,2022-11-22,2022-11-22,ＣｏｚｙＳｐａｃｅインテリア合同会社,,合同会社,東京都,江戸川区,南小岩３丁目２１－２０,,13,123,1330056,,,,,,,2022-11-22,1,,,,,,0
643,3020001149088,新規,0,2022-11-22,2022-11-22,株式会社ｆｒｅｅｌｙ,,株式会社,神奈川県,川崎市高津区,二子３丁目１５番４号２区画,,14,134,2130002,,,,,,,2022-11-22,1,,,,,フリーリー,0
644,3020001149096,新規,0,2022-11-22,2022-11-22,株式会社ＮＯＫＡＳＯＦＴ　ＪＡＰＡＮ,,株式会社,神奈川県,川崎市川崎区,中島３丁目１８番９号,,14,131,2100806,,,,,,,2022-11-22,1,,,,,ノカソフトジャパン,0
660,3021003012408,新規,0,2022-11-22,2022-11-22,合同会社ＲＯＮＤＳ,,合同会社,神奈川県,相模原市緑区,太井３０４－５,,14,151,2520152,,,,,,,2022-11-22,1,,,,,ロンズ,0
670,3030001151101,新規,0,2022-11-22,2022-11-22,株式会社改良園,,株式会社,埼玉県,川口市,大字安行９４４番地,,11,203,3340059,,,,,,,2022-11-22,1,,,,,カイリョウエン,0
674,3030003020626,新規,0,2022-11-22,2022-11-22,合同会社ｈａｚｙ　ｌａｂｏ,,合同会社,埼玉県,さいたま市西区,大字指扇３１９４番地３,,11,101,3310047,,,,,,,2022-11-22,1,,,,,ヘイジーラボ,0
682,3040001125913,新規,0,2022-11-22,2022-11-22,株式会社Ｔｈｒｅｅ　Ｉｒｏｎ,,株式会社,千葉県,八千代市,村上８３５番地４,,12,221,2760028,,,,,,,2022-11-22,1,,,,,スリーアイアン,0
683,3040001125970,新規,0,2022-11-22,2022-11-22,利明商事株式会社,,株式会社,千葉県,印西市,戸神台１丁目３番地１０,,12,231,2701349,,,,,,,2022-11-22,1,,,,,トシアキショウジ,0
706,3070001039854,新規,0,2022-11-22,2022-11-22,株式会社具志建,,株式会社,群馬県,桐生市,新里町新川３９１７番地２２,,10,203,3760121,,,,,,,2022-11-22,1,,,,,グシケン,0
708,3070003004724,新規,0,2022-11-22,2022-11-22,合同会社Ｈｉｄｅ’ｓ　Ａｒｋ,,合同会社,群馬県,前橋市,＿島町１６０－２,00128542,10,201,3710817,,,,,,,2022-11-22,1,,,,,ヒデズアーク,0
710,3080001025309,新規,0,2022-11-22,2022-11-22,株式会社ＧＴ‐ＡＸＥＬ,,株式会社,静岡県,静岡市駿河区,広野６丁目１６番１６号,,22,102,4210121,,,,,,,2022-11-22,1,,,,,ジーティーアクセル,0
733,3120001250414,新規,0,2022-11-22,2022-11-22,博广株式会社,,株式会社,大阪府,大阪市中央区,松屋町９番２０号ローレルステート松屋町５０６Ｂ,,27,128,5420067,,,,,,,2022-11-22,1,,,,,ハクゲン,0
734,3120001250513,新規,0,2022-11-22,2022-11-22,株式会社圓縁,,株式会社,大阪府,大阪市淀川区,宮原１丁目１９番２３－９１０号,,27,123,5320003,,,,,,,2022-11-22,1,,,,,エンエン,0
737,3120003022893,新規,0,2022-11-22,2022-11-22,Ｅｎｍ合同会社,,合同会社,大阪府,大阪市北区,梅田１丁目２番２号大阪駅前第２ビル１２－１２,,27,127,5300001,,,,,,,2022-11-22,1,,,,,イーエヌエム,0
738,3120003022902,新規,0,2022-11-22,2022-11-22,ＫＪ合同会社,,合同会社,大阪府,大阪市東成区,東今里１丁目７番１８号３階,,27,115,5370011,,,,,,,2022-11-22,1,,,,,ケイジェイ,0
739,3120003022910,新規,0,2022-11-22,2022-11-22,合同会社ナカタサイン,,合同会社,大阪府,大阪市生野区,小路２丁目２８－１１,,27,116,5440002,,,,,,,2022-11-22,1,,,,,ナカタサイン,0
740,3120003022927,新規,0,2022-11-22,2022-11-22,ＷＯＬＧ合同会社,,合同会社,大阪府,大阪市北区,梅田１丁目２番２号大阪駅前第２ビル１２―１２,,27,127,5300001,,,,,,,2022-11-22,1,,,,,ウォルグ,0
741,3120103004932,新規,0,2022-11-22,2022-11-22,合同会社プライムエス企画,,合同会社,大阪府,堺市西区,鳳中町４丁１２１番地１５,,27,144,5938327,,,,,,,2022-11-22,1,,,,,プライムエスキカク,0
760,3140003018394,新規,0,2022-11-22,2022-11-22,合同会社ＹＵＳ,,合同会社,兵庫県,三木市,志染町青山１丁目１４番地の３,,28,215,6730521,,,,,,,2022-11-22,1,,,,,ワイユーエス,0
764,3180001153909,新規,0,2022-11-22,2022-11-22,株式会社マイグレース,,株式会社,愛知県,名古屋市中村区,下中村町１丁目３３番地の２,,23,105,4530827,,,,,,,2022-11-22,1,,,,,マイグレース,0
777,3190003004150,新規,0,2022-11-22,2022-11-22,合同会社Ｂｏ　Ｚ,,合同会社,三重県,桑名市,星見ヶ丘２丁目１００１番地,,24,205,5110912,,,,,,,2022-11-22,1,,,,,ビーオーゼット,0
792,3240001060685,新規,0,2022-11-22,2022-11-22,株式会社プチパポット,,株式会社,広島県,広島市西区,三滝本町１丁目３９番１０号,,34,104,7330802,,,,,,,2022-11-22,1,,,,,プチパポット,0
800,3290001099653,新規,0,2022-11-22,2022-11-22,株式会社万路,,株式会社,福岡県,みやま市,山川町尾野６０８番地１,,40,229,8350102,,,,,,,2022-11-22,1,,,,,マミ,0
801,3290001099661,新規,0,2022-11-22,2022-11-22,株式会社ヒョウタン,,株式会社,福岡県,福岡市東区,若宮２丁目１２番２９号,,40,131,8130036,,,,,,,2022-11-22,1,,,,,ヒョウタン,0
804,3290801029066,新規,0,2022-11-22,2022-11-22,株式会社Ｉｎｄｉｖｉｓｉｏｎ,,株式会社,福岡県,北九州市小倉北区,中津口１丁目１０番２７号大下ビル６Ｆ,,40,106,8020018,,,,,,,2022-11-22,1,,,,,インディビジョン,0
805,3290801029074,新規,0,2022-11-22,2022-11-22,株式会社ＳＵＮＷＥＳＴ福岡,,株式会社,福岡県,北九州市小倉南区,長野本町１丁目６番４５号,,40,107,8000241,,,,,,,2022-11-22,1,,,,,サンウェストフクオカ,0
807,3300003001904,新規,0,2022-11-22,2022-11-22,合同会社はれの樹,,合同会社,佐賀県,佐賀市,天神１丁目４番５１－６０２号,,41,201,8400815,,,,,,,2022-11-22,1,,,,,ハレノキ,0
808,3300005007115,新規,0,2022-11-22,2022-11-22,一般社団法人吉田祐彦記念館,,その他の設立登記法人,佐賀県,鹿島市,大字中村２１９３番地２８,,41,207,8491304,,,,,,,2022-11-22,1,,,,,ヨシダスケヒコキネンカン,0
830,3380001033280,新規,0,2022-11-22,2022-11-22,株式会社Ｒｅ・Ｂｏｏｔ,,株式会社,福島県,郡山市,大槻町字原田１９－２０,,07,203,9630201,,,,,,,2022-11-22,1,,,,,,0
831,3380003005328,新規,0,2022-11-22,2022-11-22,金源合同会社,,合同会社,福島県,石川郡石川町,大字南山形字堂平１８８番地３,,07,501,9637812,,,,,,,2022-11-22,1,,,,,キンゲン,0
832,3390001017076,新規,0,2022-11-22,2022-11-22,株式会社大山タクシー,,株式会社,山形県,鶴岡市,大山２丁目２２番３３号,,06,203,9971124,,,,,,,2022-11-22,1,,,,,オオヤマタクシー,0
839,3430001087908,新規,0,2022-11-22,2022-11-22,株式会社Ａｙ,,株式会社,北海道,札幌市豊平区,豊平四条３丁目３番１７号,,01,105,0620904,,,,,,,2022-11-22,1,,,,,アイ,0
848,3700150028040,新規,0,2022-11-22,2015-10-09,親和女子高等学校親和中学校汲温会,,その他,兵庫県,神戸市灘区,土山町６－１,,28,102,6570022,,,,,,,2015-10-09,1,,,,,シンワジヨシコウトウガツコウシンワチユウガツコウキユウオンカイ,0
850,3700150113008,新規,0,2022-11-22,2022-11-22,善光寺川中島平土地改良区連合,,その他,長野県,長野市,七瀬２５番３号,,20,201,3800922,,,,,,,2022-11-22,1,,,,,ゼンコウジカワナカジマダイラトチカイリヨウクレンゴウ,0
860,4010001230913,新規,0,2022-11-22,2022-11-22,株式会社ＭＥＲＹ,,株式会社,東京都,千代田区,神田神保町３丁目３番７号,,13,101,1010051,,,,,,,2022-11-22,1,,,,,メリー,0
861,4010001230979,新規,0,2022-11-22,2022-11-22,ＲＩＳＥ・ＫＹＯＳＥＩ株式会社,,株式会社,東京都,中央区,銀座５丁目１０番２号ＧＩＮＺＡＭＩＳＳＰＡＲＩＳ８階,,13,102,1040061,,,,,,,2022-11-22,1,,,,,ライズキョウセイ,0
862,4010001231003,新規,0,2022-11-22,2022-11-22,株式会社亜速ソフト,,株式会社,東京都,中央区,銀座４丁目１３番８号岩藤ビル５階,,13,102,1040061,,,,,,,2022-11-22,1,,,,,アソクソフト,0
870,4010401170924,新規,0,2022-11-22,2022-11-22,株式会社ＯＮＥ　ＯＣＥＡＮ,,株式会社,東京都,港区,新橋６丁目１１番４号,,13,103,1050004,,,,,,,2022-11-22,1,,,,,ワンオーシャン,0
872,4010403028947,新規,0,2022-11-22,2022-11-22,太都投資合同会社,,合同会社,東京都,港区,元麻布３丁目６番２６号ＭＡＪＥ　Ｓ元麻布Ｄ２０５,,13,103,1060046,,,,,,,2022-11-22,1,,,,,タイトトウシ,0
873,4010403028955,新規,0,2022-11-22,2022-11-22,ジェネレーションＮ合同会社,,合同会社,東京都,港区,元赤坂１丁目１番８号株式会社赤坂国際会計内,,13,103,1070051,,,,,,,2022-11-22,1,,,,,ジェネレーションエヌ,0
885,4010603009854,新規,0,2022-11-22,2022-11-22,合同会社ＭＩＹＵＲＩ,,合同会社,東京都,墨田区,石原３丁目６番３－３０２号,,13,107,1300011,,,,,,,2022-11-22,1,,,,,ミユリ,0
888,4010701043508,新規,0,2022-11-22,2022-11-22,ＨＯＭＥキャディ株式会社,,株式会社,東京都,品川区,東五反田２丁目１９番２号第１２東都ビル７階,,13,109,1410022,,,,,,,2022-11-22,1,,,,,ホームキャディ,0
890,4010703006479,新規,0,2022-11-22,2022-11-22,ＨＩＫＥ合同会社,,合同会社,東京都,品川区,上大崎４丁目６番１２号,,13,109,1410021,,,,,,,2022-11-22,1,,,,,ハイク,0
900,4011005009831,新規,0,2022-11-22,2022-11-22,一般社団法人出張看護協会,,その他の設立登記法人,東京都,渋谷区,渋谷２丁目１９番１５号宮益坂ビルディング６０９,,13,113,1500002,,,,,,,2022-11-22,1,,,,,シュッチョウカンゴキョウカイ,0
902,4011101100923,新規,0,2022-11-22,2022-11-22,Ｆ‐ＲＥＮＴＥＣ株式会社,,株式会社,東京都,新宿区,高田馬場１丁目３１番８号,,13,104,1690075,,,,,,,2022-11-22,1,,,,,エフレンテック,0
903,4011101100931,新規,0,2022-11-22,2022-11-22,株式会社ＴＨＥ　ＴＥＲＲＡＣＥ８１,,株式会社,東京都,新宿区,新宿５丁目１４－１２－６０６,,13,104,1600022,,,,,,,2022-11-22,1,,,,,ザテラスエイティワン,0
904,4011103012407,新規,0,2022-11-22,2022-11-22,合同会社ジェイ・イー・エー,,合同会社,東京都,新宿区,下宮比町１番４号,,13,104,1620822,,,,,,,2022-11-22,1,,,,,ジェイイーエー,0
908,4011301028270,新規,0,2022-11-22,2022-11-22,七星株式会社,,株式会社,東京都,杉並区,梅里２丁目２５番１３号高円寺プラザ２１１号‐Ｄ室,,13,115,1660011,,,,,,,2022-11-22,1,,,,,シチセイ,0
910,4011401024715,新規,0,2022-11-22,2022-11-22,株式会社宗建,,株式会社,東京都,板橋区,南町４０番６号,,13,119,1730027,,,,,,,2022-11-22,1,,,,,ソウケン,0
911,4011501028698,新規,0,2022-11-22,2022-11-22,株式会社ＭＯＮＯＲＩ,,株式会社,東京都,荒川区,荒川１丁目１４番３号,,13,118,1160002,,,,,,,2022-11-22,1,,,,,モノリ,0
917,4011701025801,新規,0,2022-11-22,2022-11-22,株式会社グローバルＴＲＳ,,株式会社,東京都,江戸川区,南小岩８丁目１７番１１号－２０３,,13,123,1330056,,,,,,,2022-11-22,1,,,,,グローバルティーアールエス,0
925,4013301049973,新規,0,2022-11-22,2022-11-22,株式会社ＫＡＤＩＫＯＹ,,株式会社,東京都,豊島区,池袋本町２丁目２７番８号泉コーポ１０１号,,13,116,1700011,,,,,,,2022-11-22,1,,,,,カディコイ,0
932,4020001149087,新規,0,2022-11-22,2022-11-22,株式会社ＦＵＲＵ‐ＳＡＴＯ,,株式会社,神奈川県,横浜市港北区,綱島西５丁目４番５－５２６号,,14,109,2230053,,,,,,,2022-11-22,1,,,,,フルサト,0
933,4020001149095,新規,0,2022-11-22,2022-11-22,株式会社ルネスランド,,株式会社,神奈川県,川崎市麻生区,高石５丁目２７番２３号,,14,137,2150003,,,,,,,2022-11-22,1,,,,,ルネスランド,0
937,4020003022770,新規,0,2022-11-22,2022-11-22,高橋家合同会社,,合同会社,神奈川県,横浜市神奈川区,片倉２丁目１４番１６号,,14,102,2210865,,,,,,,2022-11-22,1,,,,,タカハシケ,0
939,4021001077518,新規,0,2022-11-22,2022-11-22,株式会社エーシュライン,,株式会社,神奈川県,相模原市南区,大野台２丁目１２番２－３０６号,,14,153,2520331,,,,,,,2022-11-22,1,,,,,エーシュライン,0
952,4030003020617,新規,0,2022-11-22,2022-11-22,合同会社ＳＨＩＫＩＯＲＩＯＲＩ,,合同会社,埼玉県,北葛飾郡松伏町,大字松伏２３４０－２,,11,465,3430111,,,,,,,2022-11-22,1,,,,,シキオリオリ,0
961,4040001125953,新規,0,2022-11-22,2022-11-22,株式会社Ｒａｎｓ,,株式会社,千葉県,千葉市若葉区,若松台３丁目４番７号,,12,104,2640027,,,,,,,2022-11-22,1,,,,,ランズ,0
982,4120003022918,新規,0,2022-11-22,2022-11-22,ＶＴＮ合同会社,,合同会社,大阪府,大阪市浪速区,恵美須西２丁目８番１９号１Ｆ,,27,111,5560003,,,,,,,2022-11-22,1,,,,,ブイティーエヌ,0
984,4120105004054,新規,0,2022-11-22,2022-11-22,財団法人阪南医療福祉センター,,その他の設立登記法人,大阪府,松原市,南新町３丁目３番２８号,,27,217,5800023,,,,,,,2022-11-22,1,,,,,,0
1001,4170001017386,新規,0,2022-11-22,2022-11-22,株式会社職人連合,,株式会社,和歌山県,和歌山市,加太２２０１番地９９,,30,201,6400103,,,,,,,2022-11-22,1,,,,,ショクニンレンゴウ,0
1010,4180001153899,新規,0,2022-11-22,2022-11-22,ＰＭＹ株式会社,,株式会社,愛知県,愛知郡東郷町,涼松１丁目３番地１２,,23,302,4700163,,,,,,,2022-11-22,1,,,,,ピーエムワイ,0
1025,4240001060676,新規,0,2022-11-22,2022-11-22,株式会社ＡＬサービス,,株式会社,広島県,東広島市,黒瀬町乃美尾３２０２番地,,34,212,7392622,,,,,,,2022-11-22,1,,,,,エーエルサービス,0
1034,4290001099652,新規,0,2022-11-22,2022-11-22,ＡＶＡＬＡＮＣＨＥ株式会社,,株式会社,福岡県,福岡市早良区,原３丁目１５番２６号－２０４号室,,40,137,8140022,,,,,,,2022-11-22,1,,,,,アバランチ,0
1037,4300005007114,新規,0,2022-11-22,2022-11-22,医療法人紫陽会,,その他の設立登記法人,佐賀県,佐賀市,駅前中央１丁目４－１７コムボックス佐賀駅前２Ｆ,,41,201,8400801,,,,,,,2022-11-22,1,,,,,シヨウカイ,0
1053,4360003012481,新規,0,2022-11-22,2022-11-22,合同会社Ａ＆Ｔ,,合同会社,沖縄県,島尻郡八重瀬町,字後原１１９４番地,,47,362,9010504,,,,,,,2022-11-22,1,,,,,エーアンドティー,0
1055,4370001049285,新規,0,2022-11-22,2022-11-22,株式会社Ｎｅｘｕｓリアルティ＆サービシズ,,株式会社,宮城県,仙台市青葉区,小松島４丁目１６番５－４０２号,,04,101,9810905,,,,,,,2022-11-22,1,,,,,ネクサスリアルティアンドサービシズ,0
1067,4380005012651,新規,0,2022-11-22,2022-11-22,福島県コワーキングスペース協同組合,,その他の設立登記法人,福島県,福島市,三河南町１番２０号,,07,201,9608053,,,,,,,2022-11-22,1,,,,,フクシマケンコワーキングスペース,0
1073,4430001087915,新規,0,2022-11-22,2022-11-22,株式会社北海道ＰＲＩＤＥ,,株式会社,北海道,北広島市,大曲緑ヶ丘２丁目１２番地９,,01,234,0611276,,,,,,,2022-11-22,1,,,,,ホッカイドウプライド,0
1074,4430001087931,新規,0,2022-11-22,2022-11-22,株式会社李牧,,株式会社,北海道,岩見沢市,志文町９９８番地４,,01,210,0680833,,,,,,,2022-11-22,1,,,,,リボク,0
1089,5010101015420,新規,0,2022-11-22,2022-11-22,株式会社ＪＢｏｎｕｓ,,株式会社,東京都,八王子市,南大沢３丁目１６番地２－１－２０６,,13,201,1920364,,,,,,,2022-11-22,1,,,,,ジェイボーナス,0
1097,5010403028946,新規,0,2022-11-22,2022-11-22,Ｚｅｉｋｉｍ合同会社,,合同会社,東京都,港区,虎ノ門１丁目１６番６号虎ノ門ＲＡＰＯ－ＴＯビルＵＣＦ７階,,13,103,1050001,,,,,,,2022-11-22,1,,,,,ゼイキム,0
1098,5010403028954,新規,0,2022-11-22,2022-11-22,ヴィジュアル・ソリューション合同会社,,合同会社,東京都,港区,元赤坂１丁目１番８号株式会社赤坂国際会計内,,13,103,1070051,,,,,,,2022-11-22,1,,,,,ヴィジュアルソリューション,0
1100,5010405021585,新規,0,2022-11-22,2022-11-22,一般社団法人楽習楽歴,,その他の設立登記法人,東京都,港区,西麻布３丁目８番１１－１１０１号西麻布コンド,,13,103,1060031,,,,,,,2022-11-22,1,,,,,ガクシュウガクレキ,0
1108,5010701043498,新規,0,2022-11-22,2022-11-22,ジープラス株式会社,,株式会社,東京都,品川区,西五反田３丁目７番６号レジディアタワー目黒不動前１０１０,,13,109,1410031,,,,,,,2022-11-22,1,,,,,ジープラス,0
1117,5010901051986,新規,0,2022-11-22,2022-11-22,株式会社ノーカラー,,株式会社,東京都,世田谷区,等々力７丁目２４番２１号リムテラス世田谷等々力１０５,,13,112,1580082,,,,,,,2022-11-22,1,,,,,,0
1118,5010901052010,新規,0,2022-11-22,2022-11-22,株式会社ＵＲＡＭＵＮＥ　ＳＴＵＤＩＯ,,株式会社,東京都,世田谷区,羽根木１丁目１６番１５号,,13,112,1560042,,,,,,,2022-11-22,1,,,,,ウラムネスタジオ,0
1124,5011001151033,新規,0,2022-11-22,2022-11-22,株式会社ＰＲＥＷＡＮ,,株式会社,東京都,渋谷区,桜丘町２６番１号セルリアンタワー１５階,,13,113,1500031,,,,,,,2022-11-22,1,,,,,プレワン,0
1125,5011001151041,新規,0,2022-11-22,2022-11-22,株式会社Ｐａｙｍｅｎｔ　Ｂｕｓｉｎｅｓｓ　Ｅｘｐｅｒｔｓ,,株式会社,東京都,渋谷区,代々木１丁目２５番５号,,13,113,1510053,,,,,,,2022-11-22,1,,,,,ペイメントビジネスエクスパーツ,0
1126,5011001151082,新規,0,2022-11-22,2022-11-22,サークル株式会社,,株式会社,東京都,渋谷区,本町５丁目１８番１４号,,13,113,1510071,,,,,,,2022-11-22,1,,,,,サークル,0
1129,5011005009822,新規,0,2022-11-22,2022-11-22,税理士法人久能税務会計,,その他の設立登記法人,東京都,目黒区,鷹番３丁目４番１８号,,13,110,1520004,,,,,,,2022-11-22,1,,,,,クノウゼイムカイケイ,0
1136,5011103012397,新規,0,2022-11-22,2022-11-22,合同会社ｉデスク,,合同会社,東京都,新宿区,北新宿４丁目１１番１８号リバーパーク２０２号室,,13,104,1690074,,,,,,,2022-11-22,1,,,,,アイデスク,0
1137,5011103012406,新規,0,2022-11-22,2022-11-22,一軒家ホテル合同会社,,合同会社,東京都,新宿区,西新宿３丁目３番１３号西新宿水間ビル２Ｆ,,13,104,1600023,,,,,,,2022-11-22,1,,,,,イッケンヤホテル,0
1138,5011103012414,新規,0,2022-11-22,2022-11-22,合同会社ＳＲ　ｗｏｒｋｓ,,合同会社,東京都,新宿区,高田馬場４丁目２６－８佐野ビル１Ｆ,,13,104,1690075,,,,,,,2022-11-22,1,,,,,エスアールワークス,0
1141,5011501028697,新規,0,2022-11-22,2022-11-22,株式会社ｍｉｎｏａｋａ,,株式会社,東京都,北区,田端２丁目１０番１２号,,13,117,1140014,,,,,,,2022-11-22,1,,,,,ミノアカ,0
1144,5011503005364,新規,0,2022-11-22,2022-11-22,合同会社ラダラ,,合同会社,東京都,北区,昭和町２丁目１３番１４－２０５号ライオンズマンション尾久第１,,13,117,1140011,,,,,,,2022-11-22,1,,,,,ラダラ,0
1145,5011503005372,新規,0,2022-11-22,2022-11-22,合同会社スターズ,,合同会社,東京都,荒川区,西尾久８丁目３０－１－１２１０,,13,118,1160011,,,,,,,2022-11-22,1,,,,,スターズ,0
1147,5011701025791,新規,0,2022-11-22,2022-11-22,Ｂａｇｌｏｇｉｃａｌ株式会社,,株式会社,東京都,江戸川区,東葛西５丁目２３－１９竹内ビル３０５,,13,123,1340084,,,,,,,2022-11-22,1,,,,,バッグロジカル,0
1156,5012803002927,新規,0,2022-11-22,2022-11-22,ＳＫＭ合同会社,,合同会社,東京都,武蔵村山市,中藤２丁目６２番２号,,13,223,2080001,,,,,,,2022-11-22,1,,,,,エスケイエム,0
1161,5013301049972,新規,0,2022-11-22,2022-11-22,株式会社トートレジャパン,,株式会社,東京都,豊島区,上池袋１丁目１０番５号コスモ上池袋８０４,,13,116,1700012,,,,,,,2022-11-22,1,,,,,トートレジャパン,0
1168,5020001149078,新規,0,2022-11-22,2022-11-22,サクシード株式会社,,株式会社,神奈川県,横浜市西区,岡野町１－１３－１１小倉ビル１Ｆ,,14,103,2200000,,,,,,,2022-11-22,1,,,,,サクシード,0
1171,5020003022778,新規,0,2022-11-22,2022-11-22,ＡＮＨ　ＫＩＭ　ＧＲＯＵＰ合同会社,,合同会社,神奈川県,横浜市鶴見区,矢向３丁目２０番１－２０１号,,14,101,2300001,,,,,,,2022-11-22,1,,,,,アインキムグループ,0
1173,5021001077517,新規,0,2022-11-22,2022-11-22,株式会社テンプルエステート,,株式会社,神奈川県,大和市,西鶴間１丁目６番１１号カーサフェリース南林間１０４,,14,213,2420005,,,,,,,2022-11-22,1,,,,,テンプルエステート,0
1181,5030001151165,新規,0,2022-11-22,2022-11-22,仲信株式会社,,株式会社,埼玉県,蕨市,塚越７丁目３２番１号,,11,223,3350002,,,,,,,2022-11-22,1,,,,,ナカノブ,0
1184,5030003020608,新規,0,2022-11-22,2022-11-22,木樺林合同会社,,合同会社,埼玉県,熊谷市,本石１丁目７７－２－３０２,,11,202,3600815,,,,,,,2022-11-22,1,,,,,モクカリン,0
1190,5040001125952,新規,0,2022-11-22,2022-11-22,株式会社ＷＥ,,株式会社,千葉県,市川市,南行徳２丁目１１番６号,,12,203,2720138,,,,,,,2022-11-22,1,,,,,ウイー,0
1195,5050003007033,新規,0,2022-11-22,2022-11-22,合同会社グローリアライフ,,合同会社,茨城県,稲敷郡阿見町,本郷３丁目１０番地１１,,08,443,3001159,,,,,,,2022-11-22,1,,,,,グローリアライフ,0
1197,5060001035464,新規,0,2022-11-22,2022-11-22,三和ファスナー部品株式会社,,株式会社,栃木県,栃木市,岩舟町古江８０８番地,,09,203,3294311,,,,,,,2022-11-22,1,,,,,サンワファスナーブヒン,0
1206,5070001039852,新規,0,2022-11-22,2022-11-22,ＡＯＹ株式会社,,株式会社,群馬県,沼田市,下川田町７６５番地１小泉テナント２Ｆ,,10,206,3780024,,,,,,,2022-11-22,1,,,,,エーオーワイ,0
1225,5120001250338,新規,0,2022-11-22,2022-11-22,清豊和株式会社,,株式会社,大阪府,大阪市中央区,南船場２丁目１１番４－３０６号,,27,128,5420081,,,,,,,2022-11-22,1,,,,,シンホウワ,0
1226,5120001250362,新規,0,2022-11-22,2022-11-22,株式会社ラフニカ,,株式会社,大阪府,大阪市天王寺区,堂ケ芝１丁目１１－１８,,27,109,5430033,,,,,,,2022-11-22,1,,,,,ラフニカ,0
1227,5120001250445,新規,0,2022-11-22,2022-11-22,Ｓｅｋｋｅ　Ｍｉｒａｉ株式会社,,株式会社,大阪府,大阪市淀川区,西宮原２丁目６番１６号新大阪コーポビアネーズ７３０号室,,27,123,5320004,,,,,,,2022-11-22,1,,,,,セッケミライ,0
1228,5120001250494,新規,0,2022-11-22,2022-11-22,株式会社ｅｉｇｈｔ‐ｈｏｓｐｉｔａｌｉｔｙ,,株式会社,大阪府,大阪市平野区,西脇１丁目１番２５号マンション山下４０７,,27,126,5470035,,,,,,,2022-11-22,1,,,,,エイトホスピタリティ,0
1229,5120001250536,新規,0,2022-11-22,2022-11-22,株式会社コロンボジャパン,,株式会社,大阪府,大阪市中央区,南船場１丁目１６番１０号大阪岡本ビル５階,,27,128,5420081,,,,,,,2022-11-22,1,,,,,コロンボジャパン,0
1235,5120003022909,新規,0,2022-11-22,2022-11-22,ＶＩＰ　ＬＩＮＥ合同会社,,合同会社,大阪府,大阪市住吉区,上住吉１丁目７番３２号,,27,120,5580046,,,,,,,2022-11-22,1,,,,,ビップライン,0
1244,5130001072946,新規,0,2022-11-22,2022-11-22,株式会社Ｇｒｏｗｔｈ＆Ｃｏｍｐａｎｙ,,株式会社,京都府,長岡京市,開田３丁目１０番３号,,26,209,6170826,,,,,,,2022-11-22,1,,,,,グロウスアンドカンパニー,0
1245,5130003008329,新規,0,2022-11-22,2022-11-22,合同会社あいつら,,合同会社,京都府,舞鶴市,字別所５３９番地,,26,202,6240805,,,,,,,2022-11-22,1,,,,,アイツラ,0
1248,5140001128111,新規,0,2022-11-22,2022-11-22,株式会社ＲＭＢ,,株式会社,兵庫県,姫路市,飾磨区矢倉町２丁目１９番地１,,28,201,6728093,,,,,,,2022-11-22,1,,,,,アールエムビー,0
1252,5150001025968,新規,0,2022-11-22,2022-11-22,ＬｕｐｉｎｕｓＳｔａｇｅ７株式会社,,株式会社,奈良県,桜井市,大字外山９５０番地の１,,29,206,6330007,,,,,,,2022-11-22,1,,,,,ルピナスステージナナ,0
1260,5180001153907,新規,0,2022-11-22,2022-11-22,株式会社まちナビ,,株式会社,愛知県,長久手市,平池３０２番地藤ヶ丘レジデンス２０３,,23,238,4801155,,,,,,,2022-11-22,1,,,,,マチナビ,0
1271,5180303005517,新規,0,2022-11-22,2022-11-22,合同会社ＦＡＩＴＨ　ＣＯＮＳＵＬＴＩＮＧ,,合同会社,愛知県,碧南市,宮町１丁目２２－２０２,,23,209,4470835,,,,,,,2022-11-22,1,,,,,フェースコンサルティング,0
1283,5230001019607,新規,0,2022-11-22,2022-11-22,ＡＰＥＸ　ＬＡＢＯ株式会社,,株式会社,富山県,富山市,上飯野５番地８,,16,201,9300827,,,,,,,2022-11-22,1,,,,,アペックスラボ,0
1298,5290801029072,新規,0,2022-11-22,2022-11-22,株式会社アールイーアイ,,株式会社,福岡県,北九州市八幡西区,星ケ丘５丁目４番４号,,40,109,8071264,,,,,,,2022-11-22,1,,,,,アールイーアイ,0
1304,5330001030314,新規,0,2022-11-22,2022-11-22,株式会社スカイドローン,,株式会社,熊本県,上益城郡甲佐町,大字西寒野２７９番地,,43,444,8614609,,,,,,,2022-11-22,1,,,,,スカイドローン,0
1314,5360001031243,新規,0,2022-11-22,2022-11-22,株式会社南西諸島ファーム,,株式会社,沖縄県,石垣市,字大浜５２０番地,,47,207,9070001,,,,,,,2022-11-22,1,,,,,ナンセイショトウファーム,0
1316,5370001049284,新規,0,2022-11-22,2022-11-22,株式会社ＨＢフランチャイズシステム,,株式会社,宮城県,仙台市青葉区,本町２丁目６番１６号,,04,101,9800014,,,,,,,2022-11-22,1,,,,,エイチビーフランチャイズシステム,0
1323,5380005012650,新規,0,2022-11-22,2022-11-22,あぶくま資源開発協同組合,,その他の設立登記法人,福島県,相馬市,中村字桜ケ丘８４番地,,07,209,9760042,,,,,,,2022-11-22,1,,,,,アブクマシゲンカイハツ,0
1326,5400001016066,新規,0,2022-11-22,2022-11-22,株式会社ＮＡＬＵ,,株式会社,岩手県,奥州市,水沢字桜屋敷４４０番地,,03,215,0230865,,,,,,,2022-11-22,1,,,,,エヌエーエルユー,0
1337,5450001013843,新規,0,2022-11-22,2022-11-22,株式会社みかみ,,株式会社,北海道,雨竜郡北竜町,字美葉牛１１番地１,,01,437,0782501,,,,,,,2022-11-22,1,,,,,ミカミ,0
1343,5480001011927,新規,0,2022-11-22,2022-11-22,海陽グリーン株式会社,,株式会社,徳島県,海部郡海陽町,鞆浦字那佐３３－１６,,36,388,7750301,,,,,,,2022-11-22,1,,,,,カイヨウグリーン,0
1345,5700150051445,新規,0,2022-11-22,2015-10-09,広島県中小企業家同友会,,その他,広島県,広島市中区,中町８－１８ヒロシマクリスタルプラザ８Ｆ,,34,101,7300037,,,,,,,2015-10-09,1,,,,,ヒロシマケンチユウシヨウキギヨウカドウユウカイ,0
1351,6010001230977,新規,0,2022-11-22,2022-11-22,株式会社オフィスＲＫ,,株式会社,東京都,千代田区,丸の内１丁目８番３号丸の内トラストタワー本館２０階,,13,101,1000005,,,,,,,2022-11-22,1,,,,,オフィスアールケー,0
1355,6010003039145,新規,0,2022-11-22,2022-11-22,ながよし合同会社,,合同会社,東京都,中央区,月島３丁目７番６号－１Ｆ,,13,102,1040052,,,,,,,2022-11-22,1,,,,,ナガヨシ,0
1356,6010005035745,新規,0,2022-11-22,2022-11-22,一般社団法人Ｇｏｖｔｅｃｈ協会,,その他の設立登記法人,東京都,千代田区,平河町２丁目５－３ＮａｇａｔａｃｈｏＧＲｉｄ２Ｆ,,13,101,1020093,,,,,,,2022-11-22,1,,,,,ガバテックキョウカイ,0
1357,6010101015428,新規,0,2022-11-22,2022-11-22,ＧＯ株式会社,,株式会社,東京都,八王子市,中町３－１２三田ビル２階,,13,201,1920085,,,,,,,2022-11-22,1,,,,,ジーオー,0
1364,6010401170963,新規,0,2022-11-22,2022-11-22,株式会社エドワークス,,株式会社,東京都,港区,麻布台２丁目２番１２号三貴ビル３階,,13,103,1060041,,,,,,,2022-11-22,1,,,,,エドワークス,0
1365,6010401170988,新規,0,2022-11-22,2022-11-22,ＭＯＵＮ２株式会社,,株式会社,東京都,港区,北青山２丁目９－１６ＡＡビル１Ｆオリエギャラリー内,,13,103,1070061,,,,,,,2022-11-22,1,,,,,マウンツ,0
1377,6010701043497,新規,0,2022-11-22,2022-11-22,株式会社采女ファーム東京,,株式会社,東京都,品川区,戸越６丁目１６番１３号,,13,109,1420041,,,,,,,2022-11-22,1,,,,,ウネメファームトウキョウ,0
1398,6011001151057,新規,0,2022-11-22,2022-11-22,株式会社ＤＥＳＯＵＬ,,株式会社,東京都,渋谷区,道玄坂１丁目１０番８号渋谷道玄坂東急ビル２Ｆ－Ｃ,,13,113,1500043,,,,,,,2022-11-22,1,,,,,ディーソウル,0
1399,6011003015755,新規,0,2022-11-22,2022-11-22,合同会社ＴＴＹコンサルティング,,合同会社,東京都,渋谷区,神宮前６丁目２３番４号桑野ビル２階,,13,113,1500001,,,,,,,2022-11-22,1,,,,,ティーティーワイコンサルティング,0
1402,6011103012413,新規,0,2022-11-22,2022-11-22,合同会社Ｏｃｅａｎ,,合同会社,東京都,新宿区,新宿６丁目２８番１０号,,13,104,1600022,,,,,,,2022-11-22,1,,,,,オーシャン,0
1407,6011401024713,新規,0,2022-11-22,2022-11-22,嘉澤株式会社,,株式会社,東京都,板橋区,大和町６－１２－４０２号,,13,119,1730012,,,,,,,2022-11-22,1,,,,,カタク,0
1408,6011503005363,新規,0,2022-11-22,2022-11-22,バブ企画合同会社,,合同会社,東京都,北区,田端新町１丁目７－１４ビズフィールド西日暮里４０２,,13,117,1140012,,,,,,,2022-11-22,1,,,,,バブキカク,0
1409,6011503005371,新規,0,2022-11-22,2022-11-22,ＤＥＦＩＮＩＴＹ合同会社,,合同会社,東京都,荒川区,南千住８丁目６番３－５１６号,,13,118,1160003,,,,,,,2022-11-22,1,,,,,デフィニティ,0
1410,6011505002516,新規,0,2022-11-22,2022-11-22,一般社団法人こすもす,,その他の設立登記法人,東京都,北区,昭和町１丁目３－６－５０１,,13,117,1140011,,,,,,,2022-11-22,1,,,,,コスモス,0
1411,6011801041564,新規,0,2022-11-22,2022-11-22,株式会社エリオント,,株式会社,東京都,足立区,西新井栄町１丁目１９番３９－１６０４号,,13,121,1230843,,,,,,,2022-11-22,1,,,,,エリオント,0
1412,6011801041572,新規,0,2022-11-22,2022-11-22,株式会社ブレイキング,,株式会社,東京都,足立区,舎人６丁目９番１６－２０５号,,13,121,1210831,,,,,,,2022-11-22,1,,,,,ブレイキング,0
1413,6011803005393,新規,0,2022-11-22,2022-11-22,宇宙星合同会社,,合同会社,東京都,足立区,栗原３丁目２６番１号２Ｆ,,13,121,1230842,,,,,,,2022-11-22,1,,,,,ウチュウセイ,0
1415,6012301013203,新規,0,2022-11-22,2022-11-22,ＴＳ株式会社,,株式会社,東京都,町田市,大蔵町１５８番地４サンパトラ鶴川２０１,,13,209,1950062,,,,,,,2022-11-22,1,,,,,ティーエス,0
1416,6012301013211,新規,0,2022-11-22,2022-11-22,株式会社ＹＭＲ,,株式会社,東京都,町田市,小山町１７４７番地６,,13,209,1940212,,,,,,,2022-11-22,1,,,,,ワイエムアール,0
1438,6020001149052,新規,0,2022-11-22,2022-11-22,株式会社数強塾,,株式会社,神奈川県,横浜市中区,石川町２丁目６６番地林ビル２０１号室,,14,104,2310868,,,,,,,2022-11-22,1,,,,,スウキョウジュク,0
1439,6020001149077,新規,0,2022-11-22,2022-11-22,葵総業株式会社,,株式会社,神奈川県,横浜市保土ケ谷区,狩場町３０９番地１４,,14,106,2400025,,,,,,,2022-11-22,1,,,,,アオイソウギョウ,0
1440,6020001149085,新規,0,2022-11-22,2022-11-22,株式会社ＳＫＳ,,株式会社,神奈川県,横浜市緑区,青砥町１０５７番地コーポ園青砥１０５,,14,113,2260022,,,,,,,2022-11-22,1,,,,,エスケーエス,0
1441,6020001149093,新規,0,2022-11-22,2022-11-22,株式会社アポロメディカルサービス,,株式会社,神奈川県,横浜市都筑区,東山田町３５１番地１,,14,118,2240024,,,,,,,2022-11-22,1,,,,,アポロメディカルサービス,0
1442,6020001149102,新規,0,2022-11-22,2022-11-22,ＨＲＫ株式会社,,株式会社,神奈川県,横浜市中区,相生町１丁目１８光南ビル４Ｆ－Ｂ号室,,14,104,2310012,,,,,,,2022-11-22,1,,,,,エイチアールケー,0
1446,6020003022769,新規,0,2022-11-22,2022-11-22,合同会社チョコレートトニー,,合同会社,神奈川県,横浜市神奈川区,三ツ沢南町７番７号パールハイツ三ツ沢公園１０５号,,14,102,2210854,,,,,,,2022-11-22,1,,,,,チョコレートトニー,0
1456,6021005012659,新規,0,2022-11-22,2022-11-22,一般社団法人家庭療育サポート普及協会なないろスマイル,,その他の設立登記法人,神奈川県,鎌倉市,台１丁目１１番１０号,,14,204,2470061,,,,,,,2022-11-22,1,,,,,,0
1467,6030001151049,新規,0,2022-11-22,2022-11-22,株式会社ＪＣ,,株式会社,埼玉県,草加市,松原２丁目３番５－８１８号,,11,221,3400041,,,,,,,2022-11-22,1,,,,,ジェーシー,0
1476,6030003020524,新規,0,2022-11-22,2022-11-22,合同会社ＥＵＦＯＲＩＡ,,合同会社,埼玉県,本庄市,早稲田の杜３丁目１番４１号レジデンス早稲田３０５,,11,211,3670030,,,,,,,2022-11-22,1,,,,,ユーフォリア,0
1477,6030003020615,新規,0,2022-11-22,2022-11-22,合同会社ＪＡＣＫ,,合同会社,埼玉県,本庄市,銀座２丁目１－３,,11,211,3670052,,,,,,,2022-11-22,1,,,,,ジャック,0
1487,6040003021298,新規,0,2022-11-22,2022-11-22,合同会社ＥＶＩ　ＩＮＴＥＲＮＡＴＩＯＮＡＬ,,合同会社,千葉県,山武市,松尾町八田２４５６－１Ｂ,,12,237,2891512,,,,,,,2022-11-22,1,,,,,エヴィインターナショナル,0
1491,6050001051998,新規,0,2022-11-22,2022-11-22,ＯＳＡＴＯ株式会社,,株式会社,茨城県,神栖市,賀２１０８番地２５１,,08,232,3140134,,,,,,,2022-11-22,1,,,,,オオサト,0
1493,6050003007040,新規,0,2022-11-22,2022-11-22,合同会社１ｓｔＰｌａｎｎｉｎｇ,,合同会社,茨城県,水戸市,渡里町３２９８番地の２,,08,201,3100902,,,,,,,2022-11-22,1,,,,,ファーストプランニング,0
1507,6070003004713,新規,0,2022-11-22,2022-11-22,合同会社Ｊ’ｓ,,合同会社,群馬県,高崎市,若松町５番地１８,,10,202,3700836,,,,,,,2022-11-22,1,,,,,,0
1512,6110001037124,新規,0,2022-11-22,2022-11-22,株式会社我逢人,,株式会社,新潟県,三条市,井栗１丁目３６番２３号,,15,204,9550013,,,,,,,2022-11-22,1,,,,,ガホウジン,0
1514,6120001016399,新規,0,2022-11-22,2022-11-22,明和住研株式会社,,株式会社,大阪府,大阪市城東区,今福東２丁目９番２６号,,27,118,5360002,,,,,,,2022-11-22,1,,,,,メイワジュウケン,0
1520,6120001250493,新規,0,2022-11-22,2022-11-22,株式会社ＭＡＳＡＣ,,株式会社,大阪府,大阪市此花区,西九条１丁目３５番２３号４０５号,,27,104,5540012,,,,,,,2022-11-22,1,,,,,マサック,0
1521,6120001250510,新規,0,2022-11-22,2022-11-22,株式会社岡歩電工,,株式会社,大阪府,守口市,南寺方東通１丁目３番２９号,,27,209,5700043,,,,,,,2022-11-22,1,,,,,オカホデンコウ,0
1526,6120903004377,新規,0,2022-11-22,2022-11-22,合同会社Ｔｈｒｅｅ　Ｓｔａｒ,,合同会社,大阪府,箕面市,船場東３丁目３－１１コムザシティ箕面４０２,,27,220,5620035,,,,,,,2022-11-22,1,,,,,スリースター,0
1529,6130001073134,新規,0,2022-11-22,2022-11-22,株式会社京宣工業,,株式会社,京都府,宇治市,菟道出口１７番地の１５,00128550,26,204,6110000,,,,,,,2022-11-22,1,,,,,キョウセンコウギョウ,0
1539,6140001128143,新規,0,2022-11-22,2022-11-22,株式会社ゼロイチ,,株式会社,兵庫県,姫路市,塩町１９３番地アチーブ英真２０１,,28,201,6700904,,,,,,,2022-11-22,1,,,,,ゼロイチ,0
1545,6150001025967,新規,0,2022-11-22,2022-11-22,株式会社リットパル,,株式会社,奈良県,北葛城郡王寺町,南元町３丁目４番２９号,,29,425,6360015,,,,,,,2022-11-22,1,,,,,リットパル,0
1561,6180303005516,新規,0,2022-11-22,2022-11-22,合同会社ＳｅｋａｉＯｎ,,合同会社,愛知県,碧南市,松本町３８番地２,,23,209,4470878,,,,,,,2022-11-22,1,,,,,セカイオン,0
1593,6310005008646,新規,0,2022-11-22,2022-11-22,一般社団法人共感結社モルタル,,その他の設立登記法人,長崎県,佐世保市,江上町４７１９,,42,202,8593244,,,,,,,2022-11-22,1,,,,,キョウカンケッシャモルタル,0
1594,6320001019431,新規,0,2022-11-22,2022-11-22,ＫＣＭ株式会社,,株式会社,大分県,大分市,三佐２丁目３番１０号,,44,201,8700108,,,,,,,2022-11-22,1,,,,,ケイシイエム,0
1604,6350005006118,新規,0,2022-11-22,2022-11-22,一般社団法人修学塾,,その他の設立登記法人,宮崎県,宮崎市,鶴島２丁目１１番２７号,,45,201,8800014,,,,,,,2022-11-22,1,,,,,シュウガクジュク,0
1605,6360001031234,新規,0,2022-11-22,2022-11-22,株式会社ミズホエンジ,,株式会社,沖縄県,名護市,字辺野古１０１０番地４４やぐらビル辺野古２－Ｃ,,47,209,9052171,,,,,,,2022-11-22,1,,,,,ミズホエンジ,0
1628,6470003002288,新規,0,2022-11-22,2022-11-22,合同会社ｔｅａｃｈ,,合同会社,香川県,高松市,塩上町１丁目４番１２号,,37,201,7600062,,,,,,,2022-11-22,1,,,,,ティーチ,0
1632,6480002009060,新規,0,2022-11-22,2022-11-22,有限会社川島電子,,有限会社,徳島県,吉野川市,川島町児島字呉島６１番地１,,36,205,7793305,,,,,,,2022-11-22,1,,,,,カワシマデンシ,0
1640,6500005008536,新規,0,2022-11-22,2022-11-22,一般社団法人てとて,,その他の設立登記法人,愛媛県,新居浜市,宇高町１丁目７番３５号,,38,205,7920866,,,,,,,2022-11-22,1,,,,,テトテ,0
1641,6700150112262,新規,0,2022-11-22,2022-10-26,沢鏡会,,その他,石川県,金沢市,北安江３丁目８番１号,,17,201,9200022,,,,,,,2022-10-26,1,,,,,タクキヨウカイ,0
1650,7010001230976,新規,0,2022-11-22,2022-11-22,日本Ｌ‐１０５擁壁販売株式会社,,株式会社,東京都,千代田区,大手町１丁目７－２東京サンケイビル２７階,,13,101,1000004,,,,,,,2022-11-22,1,,,,,ニホンエルイチマルゴヨウヘキハンバイ,0
1651,7010001230992,新規,0,2022-11-22,2022-11-22,株式会社ＢＯＵＮＤＳ,,株式会社,東京都,中央区,銀座１丁目１２番４号Ｎ＆Ｅ・ＢＬＤ．６Ｆ,,13,102,1040061,,,,,,,2022-11-22,1,,,,,バウンズ,0
1652,7010003039144,新規,0,2022-11-22,2022-11-22,合同会社ＮＡＳＵ,,合同会社,東京都,千代田区,神田三崎町３丁目１０－４千代田ビル１階,,13,101,1010061,,,,,,,2022-11-22,1,,,,,ナス,0
1653,7010005035819,新規,0,2022-11-22,2022-11-22,ＭＥＣ舞浜ホテル開発一般社団法人,,その他の設立登記法人,東京都,中央区,日本橋１丁目４番１号日本橋一丁目ビルディング,,13,102,1030027,,,,,,,2022-11-22,1,,,,,メックマイハマホテルカイハツ,0
1658,7010401170970,新規,0,2022-11-22,2022-11-22,株式会社Ｙｂコンサル,,株式会社,東京都,港区,港南３丁目９－３３,,13,103,1080075,,,,,,,2022-11-22,1,,,,,ワイビーコンサル,0
1664,7010403028928,新規,0,2022-11-22,2022-11-22,イスタナワークス合同会社,,合同会社,東京都,港区,南青山２丁目２番１５号,,13,103,1070062,,,,,,,2022-11-22,1,,,,,イスタナワークス,0
1680,7011001151056,新規,0,2022-11-22,2022-11-22,株式会社アドバンス,,株式会社,東京都,渋谷区,宇田川町１－１２パークコート渋谷ザタワー１９０５,,13,113,1500042,,,,,,,2022-11-22,1,,,,,アドバンス,0
1682,7011101100929,新規,0,2022-11-22,2022-11-22,株式会社ＭＥＤＩＳＩＴＥ,,株式会社,東京都,新宿区,新宿５丁目１４－１２天翔オフィス新宿三丁目７１０,,13,104,1600022,,,,,,,2022-11-22,1,,,,,メディサイト,0
1683,7011103012412,新規,0,2022-11-22,2022-11-22,合同会社ＳＭＡＲＴ　ＳＴＥＰＳ,,合同会社,東京都,新宿区,天神町８１番地７,,13,104,1620808,,,,,,,2022-11-22,1,,,,,スマートステップス,0
1684,7011401024712,新規,0,2022-11-22,2022-11-22,サンタメディカル株式会社,,株式会社,東京都,板橋区,南常盤台１丁目１１番７号ＭＴビル３０２,,13,119,1740072,,,,,,,2022-11-22,1,,,,,サンタメディカル,0
1685,7011501028679,新規,0,2022-11-22,2022-11-22,ＶＪ　ＴＲＡＤＥ　ＣＯＮＮＥＣＴ株式会社,,株式会社,東京都,荒川区,西日暮里１丁目２番１号大一物産ビル６０１,,13,118,1160013,,,,,,,2022-11-22,1,,,,,ヴィジェイトレードコネクト,0
1690,7011601026384,新規,0,2022-11-22,2022-11-22,Ｙｏｓｈｉコーポレーション株式会社,,株式会社,東京都,練馬区,土支田４丁目１８番２－２０９号,,13,120,1790076,,,,,,,2022-11-22,1,,,,,ヨシコーポレーション,0
1705,7020001149092,新規,0,2022-11-22,2022-11-22,株式会社ＰＯＬＩＴＥ,,株式会社,神奈川県,横浜市港北区,師岡町８７２番地１,,14,109,2220002,,,,,,,2022-11-22,1,,,,,ポライト,0
1708,7020003022768,新規,0,2022-11-22,2022-11-22,Ｃａｓａ‐Ｍ合同会社,,合同会社,神奈川県,川崎市宮前区,小台１丁目１５番地２１,,14,136,2160007,,,,,,,2022-11-22,1,,,,,カーサエム,0
1709,7020003022776,新規,0,2022-11-22,2022-11-22,合同会社Ａオフィス,,合同会社,神奈川県,川崎市川崎区,南町２０－２,,14,131,2100015,,,,,,,2022-11-22,1,,,,,エーオフィス,0
1711,7021003012412,新規,0,2022-11-22,2022-11-22,合同会社Ｇｒａｃｅ,,合同会社,神奈川県,秦野市,鶴巻南２丁目９番１０号角王ハイツ２Ｂ号,,14,211,2570002,,,,,,,2022-11-22,1,,,,,グレース,0
1720,7030001151163,新規,0,2022-11-22,2022-11-22,株式会社山ピコ,,株式会社,埼玉県,北葛飾郡杉戸町,杉戸２丁目１５番２０号ミッドタウンハウス１０５,,11,464,3450036,,,,,,,2022-11-22,1,,,,,ヤマピコ,0
1726,7030003020606,新規,0,2022-11-22,2022-11-22,ＤＧ　ＧＲＯＵＤ合同会社,,合同会社,埼玉県,さいたま市見沼区,東大宮５丁目６番１号第２Ｓビル１０１号室,,11,104,3370051,,,,,,,2022-11-22,1,,,,,ディージーグラウド,0
1727,7030003020614,新規,0,2022-11-22,2022-11-22,合同会社インベストホーム,,合同会社,埼玉県,鶴ヶ島市,大字藤金３８２番地２,,11,241,3502206,,,,,,,2022-11-22,1,,,,,インベストホーム,0
1734,7040001125901,新規,0,2022-11-22,2022-11-22,株式会社ＴＳＵＢＯＭＩ,,株式会社,千葉県,柏市,若柴１３３－１－７１２,,12,217,2770871,,,,,,,2022-11-22,1,,,,,ツボミ,0
1735,7050001051997,新規,0,2022-11-22,2022-11-22,株式会社ドルフィンストリート,,株式会社,茨城県,水戸市,双葉台１丁目１７７５番地の２６,,08,201,3114145,,,,,,,2022-11-22,1,,,,,ドルフィンストリート,0
1743,7080103002689,新規,0,2022-11-22,2022-11-22,Ｏｃｅａｎ　Ｖｉｂｅｓ　Ｃｌｕｂ合同会社,,合同会社,静岡県,下田市,吉佐美２１９７番地の２,,22,219,4150028,,,,,,,2022-11-22,1,,,,,オーシャンバイブズクラブ,0
1745,7080401026167,新規,0,2022-11-22,2022-11-22,ユーフォテック株式会社,,株式会社,静岡県,浜松市中区,高林１丁目８－４３,,22,131,4300907,,,,,,,2022-11-22,1,,,,,ユーフォテック,0
1760,7120003022915,新規,0,2022-11-22,2022-11-22,合同会社Ｓ‐ｃｏＲＴ技研,,合同会社,大阪府,寝屋川市,初町１８番８号,,27,215,5720833,,,,,,,2022-11-22,1,,,,,エスコートギケン,0
1761,7120003022923,新規,0,2022-11-22,2022-11-22,合同会社ＨＴ,,合同会社,大阪府,大阪市生野区,新今里３丁目８番１７－６０３号,,27,116,5440001,,,,,,,2022-11-22,1,,,,,エイチティー,0
1765,7120901046767,新規,0,2022-11-22,2022-11-22,株式会社クラシイロ,,株式会社,大阪府,茨木市,双葉町１０番１号茨木東阪急ビル４階,,27,211,5670829,,,,,,,2022-11-22,1,,,,,クラシイロ,0
1769,7130003008327,新規,0,2022-11-22,2022-11-22,合同会社ｈｅａｌｔｈ＆ｅｄｕｃａｔｉｏｎ　ｍａｎａｇｅｍｅｎｔ,,合同会社,京都府,京都市右京区,西京極橋詰町１２－１３グロリアス八条テナント,,26,108,6150833,,,,,,,2022-11-22,1,,,,,ヘルスアンドエデュケーションマネジメント,0
1770,7130003008335,新規,0,2022-11-22,2022-11-22,合同会社ｆｅｌｉｃｅ,,合同会社,京都府,京都市西京区,大枝中山町１番地３１８,,26,111,6101104,,,,,,,2022-11-22,1,,,,,フェリーチェ,0
1778,7140005026383,新規,0,2022-11-22,2022-11-22,一般社団法人関西個人事業主相互支援協会,,その他の設立登記法人,兵庫県,神戸市中央区,元町通４丁目２番１４号５０５,,28,110,6500022,,,,,,,2022-11-22,1,,,,,,0
1785,7180001153839,新規,0,2022-11-22,2022-11-22,株式会社深川,,株式会社,愛知県,瀬戸市,岩屋町６７番地,,23,204,4801215,,,,,,,2022-11-22,1,,,,,フカガワ,0
1786,7180001153905,新規,0,2022-11-22,2022-11-22,株式会社ＪＨＡホールディングス,,株式会社,愛知県,一宮市,明地字東下城８８番地１,,23,203,4940012,,,,,,,2022-11-22,1,,,,,ジェイエイチエーホールディングス,0
1811,7240005015491,新規,0,2022-11-22,2022-11-22,弁護士法人安村法律事務所,,その他の設立登記法人,広島県,広島市中区,東白島町１３番１０号,,34,101,7300004,,,,,,,2022-11-22,1,,,,,ヤスムラホウリツジムショ,0
1822,7280005007519,新規,0,2022-11-22,2022-11-22,一般社団法人島根県臨床心理士・公認心理師協会,,その他の設立登記法人,島根県,松江市,西嫁島２丁目７番地７Ｍオフィス,,32,201,6900048,,,,,,,2022-11-22,1,,,,,シマネケンリンショウシンリシコウニンシンリシキョウカイ,0
1824,7290001099658,新規,0,2022-11-22,2022-11-22,株式会社朝倉Ｂａｓｅ,,株式会社,福岡県,朝倉市,山見３７２番地,,40,228,8380014,,,,,,,2022-11-22,1,,,,,アサクラベース,0
1844,7360001031241,新規,0,2022-11-22,2022-11-22,株式会社Ｓ．Ｓ　ＡＵＴＯ,,株式会社,沖縄県,那覇市,首里汀良町３丁目５７番地２－２階,,47,201,9030806,,,,,,,2022-11-22,1,,,,,エスエスオート,0
1845,7370001049274,新規,0,2022-11-22,2022-11-22,株式会社Ｄｅｌｉｇｈｔ　ｌｉｇｈｔ,,株式会社,宮城県,仙台市泉区,市名坂字萩清水１００番地の６,,04,105,9813117,,,,,,,2022-11-22,1,,,,,ディライトライト,0
1846,7370001049282,新規,0,2022-11-22,2022-11-22,リザレクション株式会社,,株式会社,宮城県,栗原市,若柳字川南道伝前５０番地３,,04,213,9895502,,,,,,,2022-11-22,1,,,,,リザレクション,0
1850,7380001033277,新規,0,2022-11-22,2022-11-22,株式会社謙誠プラント,,株式会社,福島県,いわき市,平赤井字浅口７３番地,,07,204,9793131,,,,,,,2022-11-22,1,,,,,ケンセイプラント,0
1856,7400001016064,新規,0,2022-11-22,2022-11-22,陽子商事株式会社,,株式会社,岩手県,花巻市,鍛冶町２－１－２階,,03,205,0250000,,,,,,,2022-11-22,1,,,,,,0
1860,7430001087887,新規,0,2022-11-22,2022-11-22,株式会社オートアテンド,,株式会社,北海道,札幌市北区,新琴似十二条１６丁目１番２２号,,01,102,0010912,,,,,,,2022-11-22,1,,,,,オートアテンド,0
1863,7430003014468,新規,0,2022-11-22,2022-11-22,合同会社オートスタック,,合同会社,北海道,石狩市,花川北六条４丁目１５４番地,,01,235,0613216,,,,,,,2022-11-22,1,,,,,オートスタック,0
1873,8010002019996,新規,0,2022-11-22,2022-11-22,有限会社古津己,,有限会社,東京都,中央区,築地６丁目３番２号,,13,102,1040045,,,,,,,2022-11-22,1,,,,,コツコ,0
1878,8010005035818,新規,0,2022-11-22,2022-11-22,一般社団法人ファンドドゥ１２号,,その他の設立登記法人,東京都,千代田区,霞が関３丁目２番５号,,13,101,1000013,,,,,,,2022-11-22,1,,,,,ファンドドゥジュウニゴウ,0
1887,8010401170945,新規,0,2022-11-22,2022-11-22,株式会社ＭＷＪ,,株式会社,東京都,港区,三田１丁目７番１－２１１１号,,13,103,1080073,,,,,,,2022-11-22,1,,,,,エムダブリュージェイ,0
1913,8011001151063,新規,0,2022-11-22,2022-11-22,株式会社Ｄｉｇｉｔａｌｌｏｖｅ,,株式会社,東京都,目黒区,大岡山１丁目１１番２号,,13,110,1520033,,,,,,,2022-11-22,1,,,,,デジタルラブ,0
1916,8011003015745,新規,0,2022-11-22,2022-11-22,合同会社カラフル,,合同会社,東京都,渋谷区,南平台町１２番１３－４１５号,,13,113,1500036,,,,,,,2022-11-22,1,,,,,カラフル,0
1917,8011005009836,新規,0,2022-11-22,2022-11-22,一般社団法人日本メディカルＮＬＰ＆コーチング協会,,その他の設立登記法人,東京都,渋谷区,渋谷２丁目１９－１５宮益坂ビルディング６０９,,13,113,1500002,,,,,,,2022-11-22,1,,,,,ニホンメディカルエヌエルピーアンドコーチングキョウカイ,0
1921,8011103012411,新規,0,2022-11-22,2022-11-22,合同会社ジェイ・イー・イー,,合同会社,東京都,新宿区,下宮比町１番４号,,13,104,1620822,,,,,,,2022-11-22,1,,,,,ジェイイーイー,0
1922,8011105010479,新規,0,2022-11-22,2022-11-22,一般社団法人ジェイ・エイチ・ケイ,,その他の設立登記法人,東京都,新宿区,下宮比町１番４号,,13,104,1620822,,,,,,,2022-11-22,1,,,,,ジェイエイチケイ,0
1924,8011201024192,新規,0,2022-11-22,2022-11-22,株式会社スマイルピリカ,,株式会社,東京都,中野区,東中野１丁目５１番１３号大島ビル第一別館１０２号室,,13,114,1640003,,,,,,,2022-11-22,1,,,,,スマイルピリカ,0
1936,8013303006382,新規,0,2022-11-22,2022-11-22,合同会社ｍｉｎｉ,,合同会社,東京都,豊島区,上池袋３丁目２９番６号Ｎ．Ｙハイム１０３号,,13,116,1700012,,,,,,,2022-11-22,1,,,,,ミニ,0
1938,8020001149050,新規,0,2022-11-22,2022-11-22,株式会社英塗,,株式会社,神奈川県,横浜市青葉区,もえぎ野１７番地７スカーラもえぎ野２０２,,14,117,2270044,,,,,,,2022-11-22,1,,,,,エイト,0
1939,8020001149067,新規,0,2022-11-22,2022-11-22,株式会社Ｇｒａｎｄｉｒ,,株式会社,神奈川県,横浜市西区,南幸１丁目５－２９チェガーズ西口ビル４Ｆ,,14,103,2200005,,,,,,,2022-11-22,1,,,,,グランディール,0
1940,8020001149083,新規,0,2022-11-22,2022-11-22,株式会社ミックテック,,株式会社,神奈川県,川崎市多摩区,三田２丁目６番地１スターロワイヤル生田ヒルサイドテラス３０３,,14,135,2140034,,,,,,,2022-11-22,1,,,,,ミックテック,0
1942,8020003022775,新規,0,2022-11-22,2022-11-22,合同会社そいるーふ,,合同会社,神奈川県,横浜市西区,浅間町１丁目４番３号ウィザードビル４０２,,14,103,2200072,,,,,,,2022-11-22,1,,,,,ソイルーフ,0
1955,8030003020621,新規,0,2022-11-22,2022-11-22,合同会社ウィレッジ,,合同会社,埼玉県,草加市,新里町７７１番地１４,,11,221,3400031,,,,,,,2022-11-22,1,,,,,ウィレッジ,0
1980,8090003002201,新規,0,2022-11-22,2022-11-22,合同会社メディアブレインアグリエール,,合同会社,山梨県,甲府市,下石田２丁目１４番８号,,19,201,4000046,,,,,,,2022-11-22,1,,,,,メディアブレインアグリエール,0
1997,8120001250483,新規,0,2022-11-22,2022-11-22,一丁目一番地株式会社,,株式会社,大阪府,大阪市北区,中津１丁目１２番１１－８０４号,,27,127,5310071,,,,,,,2022-11-22,1,,,,,イッチョウメイチバンチ,0
1998,8120001250491,新規,0,2022-11-22,2022-11-22,Ｊ‐Ｔ藍天株式会社,,株式会社,大阪府,大阪市淀川区,新高４丁目３－１９小林マンション１０２,,27,123,5320033,,,,,,,2022-11-22,1,,,,,ジェイティースカイ,0
1999,8120001250509,新規,0,2022-11-22,2022-11-22,ＢＩＲＴＨ株式会社,,株式会社,大阪府,大阪市平野区,平野本町２丁目１０番６号,,27,126,5470044,,,,,,,2022-11-22,1,,,,,バース,0
2001,8120003022914,新規,0,2022-11-22,2022-11-22,合同会社Ａｎｅｈｏ,,合同会社,大阪府,大阪市北区,堂島１丁目４番８号広ビル１階１号,,27,127,5300003,,,,,,,2022-11-22,1,,,,,アネホ,0
2002,8120003022922,新規,0,2022-11-22,2022-11-22,合同会社ＭＫＪ,,合同会社,大阪府,大阪市天王寺区,東高津町６番１９－３０６号,,27,109,5430021,,,,,,,2022-11-22,1,,,,,エムケイジェイ,0
2012,8130003008334,新規,0,2022-11-22,2022-11-22,合同会社マルギナータ商会,,合同会社,京都府,京都市上京区,千本通一条上る泰童片原町６６３番地１‐１号４０１,,26,102,6028455,,,,,,,2022-11-22,1,,,,,マルギナータショウカイ,0
2019,8140001128141,新規,0,2022-11-22,2022-11-22,株式会社ＯＮＥ　ＤＲＥＡＭ,,株式会社,兵庫県,神戸市中央区,琴ノ緒町１丁目８番１号,,28,110,6510094,,,,,,,2022-11-22,1,,,,,ワンドリーム,0
2027,8150003002814,新規,0,2022-11-22,2022-11-22,合同会社放課後等デイサービスにじ,,合同会社,奈良県,橿原市,中曽司町２１６番２３号,,29,205,6340845,,,,,,,2022-11-22,1,,,,,ホウカゴトウデイサービスニジ,0
2029,8160003002739,新規,0,2022-11-22,2022-11-22,合同会社テラステート,,合同会社,滋賀県,甲賀市,水口町宇田４８０,,25,209,5280053,,,,,,,2022-11-22,1,,,,,テラステート,0
2035,8180001153904,新規,0,2022-11-22,2022-11-22,株式会社アレリエ,,株式会社,愛知県,大府市,若草町３丁目３４４番地の１,,23,223,4740022,,,,,,,2022-11-22,1,,,,,アレリエ,0
2036,8180001153912,新規,0,2022-11-22,2022-11-22,株式会社ｗｅｌｔｅｃｈ,,株式会社,愛知県,一宮市,三条字田畑５番地３,,23,203,4940003,,,,,,,2022-11-22,1,,,,,ウェルテック,0
2037,8180001153920,新規,0,2022-11-22,2022-11-22,ＬＬＤマネジメント株式会社,,株式会社,愛知県,名古屋市千種区,月見坂町２丁目１１番地ヒルサイドホール１Ｂ,,23,101,4640056,,,,,,,2022-11-22,1,,,,,エルエルディーマネジメント,0
2040,8180003024509,新規,0,2022-11-22,2022-11-22,合同会社やまぶどう,,合同会社,愛知県,名古屋市名東区,社口２丁目１０２番地の１エスポア社口１２０１,,23,115,4650013,,,,,,,2022-11-22,1,,,,,ヤマブドウ,0
2041,8180003024517,新規,0,2022-11-22,2022-11-22,合同会社ＺＲＢ,,合同会社,愛知県,名古屋市東区,泉２丁目１３番２７号,,23,102,4610001,,,,,,,2022-11-22,1,,,,,ゼットアールビー,0
2053,8200001040694,新規,0,2022-11-22,2022-11-22,Ｎｅｏ　Ｐｏｗｅｒ株式会社,,株式会社,岐阜県,岐阜市,鏡島２９０９番地２,,21,201,5010111,,,,,,,2022-11-22,1,,,,,ネオパワー,0
2054,8200003005745,新規,0,2022-11-22,2022-11-22,Ｔｏａ合同会社,,合同会社,岐阜県,岐阜市,神室町１丁目１番プレサンスロジェ岐阜長良橋通り１４０１,,21,201,5008878,,,,,,,2022-11-22,1,,,,,トア,0
2061,8240005015490,新規,0,2022-11-22,2022-11-22,司法書士法人広島北部司法事務所,,その他の設立登記法人,広島県,庄原市,中本町１丁目８番１６号,,34,210,7270012,,,,,,,2022-11-22,1,,,,,ヒロシマホクブシホウジムショ,0
2068,8290001099657,新規,0,2022-11-22,2022-11-22,株式会社入江漢方薬局,,株式会社,福岡県,福岡市早良区,荒江３丁目１７番６号,,40,137,8140021,,,,,,,2022-11-22,1,,,,,イリエカンポウヤッキョク,0
2069,8290003013228,新規,0,2022-11-22,2022-11-22,あひひ合同会社,,合同会社,福岡県,福岡市博多区,博多駅前３丁目１０番３０号河野ビル２Ｆ,,40,132,8120011,,,,,,,2022-11-22,1,,,,,アヒヒ,0
2071,8290005018860,新規,0,2022-11-22,2022-11-22,ＮＰＯ法人こどもスマイルコネクションズ,,その他の設立登記法人,福岡県,大野城市,平野台２丁目２１番地１号,,40,219,8160972,,,,,,,2022-11-22,1,,,,,コドモスマイルコネクションズ,0
2079,8330003009592,新規,0,2022-11-22,2022-11-22,合同会社箱,,合同会社,熊本県,熊本市中央区,坪井１丁目１－７ＬＩＢＴＨ坪井１１０３号,,43,101,8600863,,,,,,,2022-11-22,1,,,,,ハコ,0
2082,8340005009524,新規,0,2022-11-22,2022-11-22,東カングランドマンション第２南林寺シーサイド管理組合法人,,その他の設立登記法人,鹿児島県,鹿児島市,城南町７番４７号,,46,201,8920835,,,,,,,2022-11-22,1,,,,,トウカングランドマンションダイニナンリンジシーサイド,0
2083,8350005006116,新規,0,2022-11-22,2022-11-22,一般社団法人リアライズ,,その他の設立登記法人,宮崎県,延岡市,平原町１丁目８３９番地７,,45,203,8820866,,,,,,,2022-11-22,1,,,,,リアライズ,0
2084,8360003012437,新規,0,2022-11-22,2022-11-22,Ｌａ　ｖｒａｉｅ　ｂｅａｕｔｅ合同会社,,合同会社,沖縄県,浦添市,前田１丁目４２－１ソレイユじんぐすく４０１,,47,208,9012102,,,,,,,2022-11-22,1,,,,,ラヴレボーテ,0
2085,8360003012478,新規,0,2022-11-22,2022-11-22,合同会社ＭＯＴＯＢＵ,,合同会社,沖縄県,国頭郡本部町,字渡久地１４０番,,47,308,9050214,,,,,,,2022-11-22,1,,,,,モトブ,0
2093,8380001033276,新規,0,2022-11-22,2022-11-22,株式会社ＲＥＰＡＩＮＴ・ＨＯＭＥ,,株式会社,福島県,郡山市,不動前１丁目７０番地ハーベストフィールド・ＨＡ１０５号,,07,203,9638042,,,,,,,2022-11-22,1,,,,,リペイントホーム,0
2099,8430001087911,新規,0,2022-11-22,2022-11-22,株式会社ハヤシ,,株式会社,北海道,札幌市北区,新川西五条４丁目１０番１号,,01,102,0010935,,,,,,,2022-11-22,1,,,,,ハヤシ,0
2100,8430001087928,新規,0,2022-11-22,2022-11-22,株式会社オブロードキャリー,,株式会社,北海道,江別市,新栄台８１番地の９,,01,217,0690806,,,,,,,2022-11-22,1,,,,,オブロードキャリー,0
2121,8490003001716,新規,0,2022-11-22,2022-11-22,つばき合同会社,,合同会社,高知県,香南市,野市町西野１０７１番地１１,,39,211,7815232,,,,,,,2022-11-22,1,,,,,ツバキ,0
2123,8700150043695,新規,0,2022-11-22,2015-10-09,西三河腰マンガ協会,,その他,愛知県,西尾市,一色町一色東塩浜１７－２,,23,213,4440423,,,,,,,2015-10-09,1,,,,,ニシミカワコシマンガキヨウカイ,0
2124,8700150109083,新規,0,2022-11-22,2022-05-27,鹿児島ジャズフェスティバル実行委員会,,その他,鹿児島県,鹿児島市,松原町２－７メイヒルズＢ１Ｆ　ＳＴＵＤＩＯ　ＩＮＶＥＮＴＩＯＮ内,,46,201,8920833,,,,,,,2022-05-27,1,,,,,カゴシマジヤズフエステイバルジツコウイインカイ,0
2125,8700150110339,新規,0,2022-11-22,2022-06-23,ヘドロットングループ,,その他,東京都,渋谷区,本町２丁目３５－２渋谷本町マンション３０４,,13,113,1510071,,,,,,,2022-06-23,1,,,,,ヘドロツトングループ,0
2135,9010001230933,新規,0,2022-11-22,2022-11-22,株式会社ｍｉｃｈｉｔｅｋｕ,,株式会社,東京都,中央区,日本橋本町４丁目９番１１号,,13,102,1030023,,,,,,,2022-11-22,1,,,,,ミチテク,0
2136,9010001230990,新規,0,2022-11-22,2022-11-22,ＡＭＩＳジャパン株式会社,,株式会社,東京都,千代田区,飯田橋１丁目７番１０号,,13,101,1020072,,,,,,,2022-11-22,1,,,,,アミスジャパン,0
2137,9010001230999,新規,0,2022-11-22,2022-11-22,株式会社エレクポス,,株式会社,東京都,中央区,日本橋浜町３丁目３０番７号,,13,102,1030007,,,,,,,2022-11-22,1,,,,,エレクポス,0
2138,9010001231007,新規,0,2022-11-22,2022-11-22,株式会社Ｔｕｓｔｙｌｅ,,株式会社,東京都,千代田区,神田神保町１丁目４２番４号,,13,101,1010051,,,,,,,2022-11-22,1,,,,,トゥースタイル,0
2144,9010003039150,新規,0,2022-11-22,2022-11-22,ＳＴＫ合同会社,,合同会社,東京都,中央区,銀座１丁目２０番２号２Ｆ,,13,102,1040061,,,,,,,2022-11-22,1,,,,,エスティーケー,0
2147,9010103002033,新規,0,2022-11-22,2022-11-22,合同会社カナエル,,合同会社,東京都,八王子市,大和田町３丁目１１－２８－１１１２,,13,201,1920045,,,,,,,2022-11-22,1,,,,,カナエル,0
2155,9010401170853,新規,0,2022-11-22,2022-11-22,ＦＩＳＨＴＡＩＬ株式会社,,株式会社,東京都,港区,南青山２丁目１５番５号,,13,103,1070062,,,,,,,2022-11-22,1,,,,,フィッシュテイル,0
2156,9010401170894,新規,0,2022-11-22,2022-11-22,株式会社ハク,,株式会社,東京都,港区,南青山２丁目２番１５号ＷｉｎＡｏｙａｍａビルＵＣＦ６階,,13,103,1070062,,,,,,,2022-11-22,1,,,,,ハク,0
2160,9010405021581,新規,0,2022-11-22,2022-11-22,一般社団法人ＳＭ理論協会,,その他の設立登記法人,東京都,港区,南青山２丁目２番１５号,,13,103,1070062,,,,,,,2022-11-22,1,,,,,エスエムリロンキョウカイ,0
2161,9010501049650,新規,0,2022-11-22,2022-11-22,アイトステック株式会社,,株式会社,東京都,台東区,浅草橋４丁目１９番７号,,13,106,1110053,,,,,,,2022-11-22,1,,,,,アイトステック,0
2163,9010601062198,新規,0,2022-11-22,2022-11-22,ＧＯＬＤ　ＢＡＣＫ株式会社,,株式会社,東京都,江東区,豊洲５丁目５番１号豊洲シエルタワー３８１２,,13,108,1350061,,,,,,,2022-11-22,1,,,,,ゴールドバック,0
2165,9010701043494,新規,0,2022-11-22,2022-11-22,株式会社ＴＷ２,,株式会社,東京都,品川区,東品川４丁目１２番１１号,,13,109,1400002,,,,,,,2022-11-22,1,,,,,ティーダブリューツー,0
2174,9011001151046,新規,0,2022-11-22,2022-11-22,ポップコーンホールディングス株式会社,,株式会社,東京都,渋谷区,恵比寿西２丁目１４番７号パークアクシス代官山１００３,,13,113,1500021,,,,,,,2022-11-22,1,,,,,ポップコーンホールディングス,0
2175,9011001151070,新規,0,2022-11-22,2022-11-22,ｔｈｅ　ＢＲＯＡＤＥＮ株式会社,,株式会社,東京都,渋谷区,円山町５番５号Ｎａｖｉ渋谷Ｖ３階,,13,113,1500044,,,,,,,2022-11-22,1,,,,,ザブローデン,0
2179,9011103012410,新規,0,2022-11-22,2022-11-22,合同会社ジェイ・イー・ディー,,合同会社,東京都,新宿区,下宮比町１番４号,,13,104,1620822,,,,,,,2022-11-22,1,,,,,ジェイイーディー,0
2180,9011105010478,新規,0,2022-11-22,2022-11-22,一般社団法人ジェイ・エイチ・ジェイ,,その他の設立登記法人,東京都,新宿区,下宮比町１番４号,,13,104,1620822,,,,,,,2022-11-22,1,,,,,ジェイエイチジェイ,0
2187,9011501028685,新規,0,2022-11-22,2022-11-22,十一株式会社,,株式会社,東京都,荒川区,町屋３丁目８番２１,,13,118,1160001,,,,,,,2022-11-22,1,,,,,ジュウイチ,0
2190,9011801041586,新規,0,2022-11-22,2022-11-22,万家株式会社,,株式会社,東京都,足立区,西新井１丁目３６－９－１Ｆ,,13,121,1230841,,,,,,,2022-11-22,1,,,,,マンカ,0
2198,9012703002585,新規,0,2022-11-22,2022-11-22,ＬＩＴＡステップ合同会社,,合同会社,東京都,東久留米市,前沢２丁目１番１号,,13,222,2030032,,,,,,,2022-11-22,1,,,,,リタステップ,0
2211,9020001149074,新規,0,2022-11-22,2022-11-22,株式会社ＩＰＰＯＮ商事,,株式会社,神奈川県,横浜市青葉区,松風台２４番地４８,,14,117,2270067,,,,,,,2022-11-22,1,,,,,イッポンショウジ,0
2212,9020001149099,新規,0,2022-11-22,2022-11-22,株式会社ＺＩＡ,,株式会社,神奈川県,横浜市中区,寺久保３４番地１クリオレミントンハウス横濱山手ロワイヤル２１７号室,,14,104,2310855,,,,,,,2022-11-22,1,,,,,ジア,0
2218,9021001077521,新規,0,2022-11-22,2022-11-22,株式会社河野商事,,株式会社,神奈川県,横須賀市,根岸町４丁目７番９－１０１号,,14,201,2390807,,,,,,,2022-11-22,1,,,,,,0
2242,9040003021312,新規,0,2022-11-22,2022-11-22,合同会社スケカク,,合同会社,千葉県,松戸市,本町５番地の７Ｓ－ＲＥＳＩＤＥＮＣＥ松戸１４０１号,,12,207,2710091,,,,,,,2022-11-22,1,,,,,スケカク,0
2243,9040003021320,新規,0,2022-11-22,2022-11-22,青草地合同会社,,合同会社,千葉県,銚子市,幸町１丁目２６番地２,,12,202,2880073,,,,,,,2022-11-22,1,,,,,アオソウチ,0
2244,9040003021329,新規,0,2022-11-22,2022-11-22,合同会社ハグムー,,合同会社,千葉県,市川市,新田１丁目１４番１１号,,12,203,2720035,,,,,,,2022-11-22,1,,,,,ハグムー,0
2247,9050005013174,新規,0,2022-11-22,2022-11-22,特定非営利活動法人ｉｎｔｅｒｎａｔｉｏｎａｌ　ｐｅｒｓｏｎａｌ　ｄｅｖｅｌｏｐｍｅｎｔ,,その他の設立登記法人,茨城県,石岡市,上曽７７４番地１,,08,205,3150157,,,,,,,2022-11-22,1,,,,,インターナショナルパーソナルデベロップメント,0
2249,9060003004315,新規,0,2022-11-22,2022-11-22,合同会社マディーナ,,合同会社,栃木県,下都賀郡壬生町,落合２丁目１５番１５号,,09,361,3210218,,,,,,,2022-11-22,1,,,,,マディーナ,0
2259,9100003006785,新規,0,2022-11-22,2022-11-22,Ｋ．Ｐ．Ｔ．ＪＡＰＡＮ合同会社,,合同会社,長野県,佐久市,前山４４２番地４,,20,217,3850046,,,,,,,2022-11-22,1,,,,,ケーピーティージャパン,0
2271,9120001250482,新規,0,2022-11-22,2022-11-22,株式会社日本再生電子,,株式会社,大阪府,大阪市東住吉区,杭全２丁目７番１４号,,27,121,5460002,,,,,,,2022-11-22,1,,,,,ニホンサイセイデンシ,0
2277,9120003022913,新規,0,2022-11-22,2022-11-22,Ｓｉｌｅｎｔ　Ｃｈｉｌｌ合同会社,,合同会社,大阪府,大阪市北区,梅田１丁目２番２号大阪駅前第２ビル１２－１２,,27,127,5300001,,,,,,,2022-11-22,1,,,,,サイレントチル,0
2289,9130001073107,新規,0,2022-11-22,2022-11-22,株式会社Ｆｏｏｄｏｔ　ｕｎｄｅｒｂａｒ,,株式会社,京都府,京都市中京区,元竹田町６４４,,26,104,6048145,,,,,,,2022-11-22,1,,,,,フードットアンダーバー,0
2292,9140001128099,新規,0,2022-11-22,2022-11-22,株式会社ＦＨＣ,,株式会社,兵庫県,神戸市中央区,琴ノ緒町５丁目６番３－８０１号,,28,110,6510094,,,,,,,2022-11-22,1,,,,,エフエイチシー,0
2293,9140001128132,新規,0,2022-11-22,2022-11-22,エスエフティーアール株式会社,,株式会社,兵庫県,西宮市,中屋町１０番１７号,,28,204,6620868,,,,,,,2022-11-22,1,,,,,エスエフティーアール,0
2294,9150001025972,新規,0,2022-11-22,2022-11-22,株式会社ＫＭＴ,,株式会社,奈良県,奈良市,あやめ池北３丁目１４番１５号,,29,201,6310032,,,,,,,2022-11-22,1,,,,,ケイエムティー,0
2295,9160001024651,新規,0,2022-11-22,2022-11-22,株式会社イルクレア,,株式会社,滋賀県,守山市,焔魔堂町１２１番１,,25,207,5240042,,,,,,,2022-11-22,1,,,,,イルクレア,0
2300,9180001153886,新規,0,2022-11-22,2022-11-22,株式会社磁石の力,,株式会社,愛知県,名古屋市昭和区,白金１丁目１番４号プレザント白金７０１号,,23,107,4660058,,,,,,,2022-11-22,1,,,,,ジシャクノチカラ,0
2301,9180001153903,新規,0,2022-11-22,2022-11-22,株式会社アルファ,,株式会社,愛知県,大府市,江端町５丁目９１番地,,23,223,4740035,,,,,,,2022-11-22,1,,,,,アルファ,0
2311,9190001029945,新規,0,2022-11-22,2022-11-22,ほしあかり株式会社,,株式会社,三重県,四日市市,久保田２丁目３－１８プリンセスマンション１Ａ,,24,202,5100821,,,,,,,2022-11-22,1,,,,,ホシアカリ,0
2318,9200003005744,新規,0,2022-11-22,2022-11-22,合同会社Ｓ．Ｓ　ＭＵＴＴＯ　ＴＲＡＤＩＮＧ,,合同会社,岐阜県,岐阜市,東鶉７丁目６番（グローブＩＩ２０９号）,00128548,21,201,5008281,,,,,,,2022-11-22,1,,,,,エスエスムットトレーディング,0
2323,9230003001930,新規,0,2022-11-22,2022-11-22,合同会社ｈｉｇｈｅｓｔ　ｐｏｉｎｔ　ｅｙｅ,,合同会社,富山県,富山市,秋吉１５３番地１４,,16,201,9300953,,,,,,,2022-11-22,1,,,,,ハイエストポイントアイ,0
2340,9290001099656,新規,0,2022-11-22,2022-11-22,クラウディア不動産株式会社,,株式会社,福岡県,福岡市中央区,大名１丁目９番４５号藤和大名コープ４１２,,40,133,8100041,,,,,,,2022-11-22,1,,,,,クラウディアフドウサン,0
2343,9290803004268,新規,0,2022-11-22,2022-11-22,合同会社１００ＦＵＫＵ,,合同会社,福岡県,北九州市小倉北区,黒住町５番２７号,,40,106,8020056,,,,,,,2022-11-22,1,,,,,ヒャクフク,0
2349,9340001025185,新規,0,2022-11-22,2022-11-22,株式会社総建,,株式会社,鹿児島県,大島郡徳之島町,亀津５７３７番地１,,46,530,8917101,,,,,,,2022-11-22,1,,,,,ソウケン,0
2359,9370001049280,新規,0,2022-11-22,2022-11-22,株式会社小笠原工業,,株式会社,宮城県,白石市,字外川原４１番地１４,,04,206,9890261,,,,,,,2022-11-22,1,,,,,オガサワラコウギョウ,0
2367,9430001087910,新規,0,2022-11-22,2022-11-22,ＴＡＣサービス株式会社,,株式会社,北海道,札幌市東区,北四十六条東１丁目１番１号,,01,103,0070846,,,,,,,2022-11-22,1,,,,,ティーエーシーサービス,0
2368,9430003014482,新規,0,2022-11-22,2022-11-22,合同会社Ａ不動産,,合同会社,北海道,札幌市北区,新琴似五条７丁目１番１３号,,01,102,0010905,,,,,,,2022-11-22,1,,,,,エーフドウサン,0
2378,9500001024609,新規,0,2022-11-22,2022-11-22,株式会社２１ＬＡＪ,,株式会社,愛媛県,松山市,祇園町６番１１号,,38,201,7900965,,,,,,,2022-11-22,1,,,,,ニイチエルエージェー,0
2379,9700150110635,新規,0,2022-11-22,2022-07-08,あべのルシアス管理組合,,その他,大阪府,大阪市阿倍野区,阿倍野筋１丁目５番１号,,27,119,5450052,,,,,,,2022-07-08,1,,,,,アベノルシアスカンリクミアイ,0
2380,9700150111922,新規,0,2022-11-22,2022-09-28,Ｐｒｏｊｅｃｔ　零,,その他,東京都,大田区,西蒲田４丁目６－５－６０３,,13,111,1440051,,,,,,,2022-09-28,1,,,,,プロジエクトゼロ,0
2381,9700150112697,新規,0,2022-11-22,2022-11-10,北九州楽友協会,,その他,福岡県,北九州市八幡西区,黒崎城石３－６,,40,109,8060004,,,,,,,2022-11-10,1,,,,,キタキユウシユウガクユウキヨウカイ,0
