sequenceNumber,corporateNumber,process,correct,updateDate,changeDate,name,nameImageId,kind,prefectureName,cityName,streetNumber,addressImageId,prefectureCode,cityCode,postCode,addressOutside,addressOutsideImageId,closeDate,closeCause,successorCorporateNumber,changeCause,assignmentDate,latest,enName,enPrefectureName,enCityName,enAddressOutside,furigana,hihyoji
4,1010001236681,新規,0,2023-07-06,2023-07-06,株式会社ＡＴＡＲＵ　ＰＲ,,株式会社,東京都,中央区,銀座１丁目１２番４号Ｎ＆ＥＢＬＤ．６Ｆ,,13,102,1040061,,,,,,,2023-07-06,1,,,,,アタルピーアール,0
5,1010001236731,新規,0,2023-07-06,2023-07-06,株式会社ＧＸ,,株式会社,東京都,中央区,銀座１丁目１２番４号Ｎ＆Ｅ・ＢＬＤ．６Ｆ,,13,102,1040061,,,,,,,2023-07-06,1,,,,,ジーエックス,0
7,1010005036896,新規,0,2023-07-06,2023-07-06,中区海岸通デベロップメント特定目的会社,,その他の設立登記法人,東京都,中央区,日本橋１丁目４番１号日本橋一丁目ビルディング,,13,102,1030027,,,,,,,2023-07-06,1,,,,,ナカクカイガンドオリデベロップメント,0
12,1010401175422,新規,0,2023-07-06,2023-07-06,サカエ工業株式会社,,株式会社,東京都,港区,西新橋２丁目１３番１６号,,13,103,1050003,,,,,,,2023-07-06,1,,,,,サカエコウギョウ,0
13,1010401175430,新規,0,2023-07-06,2023-07-06,楽市楽座キャピタル株式会社,,株式会社,東京都,港区,芝浦３丁目１７番１１号,,13,103,1080023,,,,,,,2023-07-06,1,,,,,ラクイチラクザキャピタル,0
14,1010401175471,新規,0,2023-07-06,2023-07-06,株式会社アルゴ,,株式会社,東京都,港区,南青山２丁目１４番１４号南青山ＫＦＫビル３階,,13,103,1070062,,,,,,,2023-07-06,1,,,,,アルゴ,0
22,1010603010220,新規,0,2023-07-06,2023-07-06,合同会社アクロスザリバー,,合同会社,東京都,江東区,東雲１丁目６－１５ブランズ東雲７０４,,13,108,1350062,,,,,,,2023-07-06,1,,,,,アクロスザリバー,0
23,1010801034120,新規,0,2023-07-06,2023-07-06,株式会社ティーエー設備,,株式会社,東京都,大田区,田園調布２丁目１１番１５号,,13,111,1450071,,,,,,,2023-07-06,1,,,,,ティーエーセツビ,0
31,1010901053359,新規,0,2023-07-06,2023-07-06,株式会社ｆ・ａ・ｅ,,株式会社,東京都,世田谷区,北沢２丁目３９番１４号,,13,112,1550031,,,,,,,2023-07-06,1,,,,,エフエーイー,0
32,1010901053367,新規,0,2023-07-06,2023-07-06,株式会社２ｎｄ　Ｌｉｎｅ,,株式会社,東京都,世田谷区,太子堂４丁目２０番５号エクレール２０２,,13,112,1540004,,,,,,,2023-07-06,1,,,,,セカンドライン,0
33,1010901053375,新規,0,2023-07-06,2023-07-06,株式会社エムトロワ,,株式会社,東京都,世田谷区,玉川３丁目９番３号,,13,112,1580094,,,,,,,2023-07-06,1,,,,,エムトロワ,0
36,1011001155426,新規,0,2023-07-06,2023-07-06,株式会社フォーツリー,,株式会社,東京都,渋谷区,桜丘町２３番１７号シティコート桜丘４０８,,13,113,1500031,,,,,,,2023-07-06,1,,,,,フォーツリー,0
37,1011001155459,新規,0,2023-07-06,2023-07-06,株式会社アンナ,,株式会社,東京都,渋谷区,代々木５丁目２５番１７号,,13,113,1510053,,,,,,,2023-07-06,1,,,,,アンナ,0
38,1011003017112,新規,0,2023-07-06,2023-07-06,合同会社Ｙ＆Ｔ,,合同会社,東京都,目黒区,八雲４丁目５番１３号八雲レーベル１０６,,13,110,1520023,,,,,,,2023-07-06,1,,,,,ワイアンドティー,0
39,1011003017120,新規,0,2023-07-06,2023-07-06,ルミナ合同会社,,合同会社,東京都,渋谷区,渋谷２丁目１９番１５号宮益坂ビルディング６０９,,13,113,1500002,,,,,,,2023-07-06,1,,,,,ルミナ,0
47,1011105010717,新規,0,2023-07-06,2023-07-06,一般財団法人東京２０２５世界陸上財団,,その他の設立登記法人,東京都,新宿区,霞ヶ丘町４番２号,,13,104,1600013,,,,,,,2023-07-06,1,,,,,トウキョウニーゼロニーゴーセカイリクジョウザイダン,0
55,1011401025245,新規,0,2023-07-06,2023-07-06,株式会社齋藤型枠,,株式会社,東京都,板橋区,高島平１丁目２８番１０－３０５号,,13,119,1750082,,,,,,,2023-07-06,1,,,,,サイトウカタワク,0
56,1011501029484,新規,0,2023-07-06,2023-07-06,株式会社エスシーリテール,,株式会社,東京都,荒川区,西日暮里１丁目２７番３号,,13,118,1160013,,,,,,,2023-07-06,1,,,,,エスシーリテール,0
57,1011501029492,新規,0,2023-07-06,2023-07-06,エンフリー株式会社,,株式会社,東京都,荒川区,東尾久６丁目１６番８号,,13,118,1160012,,,,,,,2023-07-06,1,,,,,エンフリー,0
58,1011503005673,新規,0,2023-07-06,2023-07-06,合同会社経営情報サービス,,合同会社,東京都,北区,東十条３丁目１０－２東十条サンハイツ２０５号,,13,117,1140001,,,,,,,2023-07-06,1,,,,,ケイエイジョウホウサービス,0
59,1011601026943,新規,0,2023-07-06,2023-07-06,株式会社ＧＬＡＳＳ,,株式会社,東京都,練馬区,下石神井２丁目３３番２４号,,13,120,1770042,,,,,,,2023-07-06,1,,,,,グラス,0
60,1011601026951,新規,0,2023-07-06,2023-07-06,株式会社オトモリ,,株式会社,東京都,練馬区,桜台５丁目３９番４号,,13,120,1760002,,,,,,,2023-07-06,1,,,,,オトモリ,0
62,1011603003981,新規,0,2023-07-06,2023-07-06,合同会社マーチャンエイト,,合同会社,東京都,練馬区,北町１丁目３８番１号,,13,120,1790081,,,,,,,2023-07-06,1,,,,,マーチャンエイト,0
63,1011701026397,新規,0,2023-07-06,2023-07-06,株式会社レバンタ,,株式会社,東京都,江戸川区,西小松川町１６番３号,,13,123,1320032,,,,,,,2023-07-06,1,,,,,レバンタ,0
67,1011803005720,新規,0,2023-07-06,2023-07-06,ＫＦカンパニー合同会社,,合同会社,東京都,葛飾区,立石５丁目５番２２号－３０３,,13,122,1240012,,,,,,,2023-07-06,1,,,,,,0
81,1020003024159,新規,0,2023-07-06,2023-07-06,合同会社ＭＳＲ,,合同会社,神奈川県,横浜市神奈川区,金港町８番地８,,14,102,2210056,,,,,,,2023-07-06,1,,,,,エムエスアール,0
84,1021001079475,新規,0,2023-07-06,2023-07-06,株式会社明興業,,株式会社,神奈川県,平塚市,出縄１３２番地の１４,,14,203,2540915,,,,,,,2023-07-06,1,,,,,アキラコウギョウ,0
90,1030001154774,新規,0,2023-07-06,2023-07-06,株式会社大樹工業,,株式会社,埼玉県,日高市,大字駒寺野新田４番地１５,,11,242,3501202,,,,,,,2023-07-06,1,,,,,タイジュコウギョウ,0
91,1030001154782,新規,0,2023-07-06,2023-07-06,株式会社凌駕,,株式会社,埼玉県,春日部市,東中野１１６８－７,,11,214,3440114,,,,,,,2023-07-06,1,,,,,リョウガ,0
102,1040001129057,新規,0,2023-07-06,2023-07-06,株式会社誉,,株式会社,千葉県,市川市,真間２丁目１３番１３号,,12,203,2720826,,,,,,,2023-07-06,1,,,,,ホマレ,0
103,1040001129081,新規,0,2023-07-06,2023-07-06,株式会社ネクストライフ,,株式会社,千葉県,船橋市,西船１丁目２４番１５号西船パークハイム２０１,,12,204,2730031,,,,,,,2023-07-06,1,,,,,ネクストライフ,0
106,1040003022904,新規,0,2023-07-06,2023-07-06,合同会社ＫＤＳ,,合同会社,千葉県,千葉市稲毛区,六方町２４番７号,,12,103,2630004,,,,,,,2023-07-06,1,,,,,ケーディーエス,0
108,1050001053082,新規,0,2023-07-06,2023-07-06,株式会社ＴＨｒａｂｂｉｔ,,株式会社,茨城県,水戸市,石川２丁目４１９２番地２、２階,,08,201,3100905,,,,,,,2023-07-06,1,,,,,ティーエイチラビット,0
112,1070001040599,新規,0,2023-07-06,2023-07-06,株式会社シンシアエステート,,株式会社,群馬県,高崎市,江木町１５８７,,10,202,3700046,,,,,,,2023-07-06,1,,,,,,0
113,1080001025707,新規,0,2023-07-06,2023-07-06,ＡＯＩサポート株式会社,,株式会社,静岡県,静岡市清水区,真砂町６番５－１４０２号,,22,103,4240816,,,,,,,2023-07-06,1,,,,,アオイサポート,0
115,1080101024105,新規,0,2023-07-06,2023-07-06,株式会社ＯＮ,,株式会社,静岡県,三島市,末広町２番４号,,22,206,4110032,,,,,,,2023-07-06,1,,,,,オン,0
118,1100001036552,新規,0,2023-07-06,2023-07-06,株式会社トランセンド・ホテルマネジメント,,株式会社,長野県,飯山市,大字飯山２６５２番地３,,20,213,3892253,,,,,,,2023-07-06,1,,,,,トランセンドホテルマネジメント,0
120,1100003007089,新規,0,2023-07-06,2023-07-06,合同会社山の恵み,,合同会社,長野県,松本市,大字岡田下岡田７７４番１,,20,202,3900313,,,,,,,2023-07-06,1,,,,,ヤマノメグミ,0
122,1110001037673,新規,0,2023-07-06,2023-07-06,株式会社ニーノコーポレーション,,株式会社,新潟県,阿賀野市,北本町１０番１４号,,15,223,9592015,,,,,,,2023-07-06,1,,,,,ニーノコーポレーション,0
126,1120001256256,新規,0,2023-07-06,2023-07-06,株式会社ＨＡＲＵ＆ＤＡＩ,,株式会社,大阪府,大阪市天王寺区,悲田院町１番３８－１４１８号,,27,109,5430055,,,,,,,2023-07-06,1,,,,,ハルダイ,0
127,1120001256272,新規,0,2023-07-06,2023-07-06,株式会社Ａ＆Ｍ工房,,株式会社,大阪府,寝屋川市,黒原新町１０番１４７号,,27,215,5720059,,,,,,,2023-07-06,1,,,,,エーアンドエムコウボウ,0
128,1120001256297,新規,0,2023-07-06,2023-07-06,株式会社ＫＭＳＳ,,株式会社,大阪府,大阪市東淀川区,下新庄３丁目１１番１１－１６号,,27,114,5330021,,,,,,,2023-07-06,1,,,,,ケーエムエスエス,0
129,1120001256339,新規,0,2023-07-06,2023-07-06,睿源株式会社,,株式会社,大阪府,大阪市西成区,花園北２丁目７番１１－２０３号,,27,122,5570016,,,,,,,2023-07-06,1,,,,,エイゲン,0
130,1120003024421,新規,0,2023-07-06,2023-07-06,合同会社ｋｙｏｓｉｎ,,合同会社,大阪府,大阪市城東区,野江２丁目５番９号巽ビル１階,,27,118,5360006,,,,,,,2023-07-06,1,,,,,キョウシン,0
131,1120003024462,新規,0,2023-07-06,2023-07-06,ＭＴジェコブ合同会社,,合同会社,大阪府,大阪市住吉区,清水丘１丁目１‐１４,,27,120,5580033,,,,,,,2023-07-06,1,,,,,エムティージェコブ,0
132,1120005023710,新規,0,2023-07-06,2023-07-06,一般社団法人ゴリラマネジメント協会,,その他の設立登記法人,大阪府,大阪市中央区,安土町２丁目３番１３号大阪国際ビルディング５階,,27,128,5410052,,,,,,,2023-07-06,1,,,,,ゴリラマネジメントキョウカイ,0
133,1120101067834,新規,0,2023-07-06,2023-07-06,ＳＴＯ株式会社,,株式会社,大阪府,大阪狭山市,狭山５丁目２３３６番地の５,,27,231,5890005,,,,,,,2023-07-06,1,,,,,ソト,0
135,1120901047738,新規,0,2023-07-06,2023-07-06,株式会社ＳＡＷＡ,,株式会社,大阪府,吹田市,円山町２８番２３号,,27,205,5640061,,,,,,,2023-07-06,1,,,,,サワ,0
138,1130001074649,新規,0,2023-07-06,2023-07-06,株式会社ＢＩＧ　Ｌａｕｇｈ,,株式会社,京都府,京都市山科区,東野中井ノ上町１０番地４４,,26,110,6078142,,,,,,,2023-07-06,1,,,,,ビッグラフ,0
142,1140001130723,新規,0,2023-07-06,2023-07-06,近畿タノシー株式会社,,株式会社,兵庫県,神戸市長田区,上池田５丁目５番１８号,,28,106,6530827,,,,,,,2023-07-06,1,,,,,キンキタノシー,0
143,1140001130731,新規,0,2023-07-06,2023-07-06,株式会社日本の古酒蔵,,株式会社,兵庫県,加古川市,野口町良野１０２１番地,,28,210,6750017,,,,,,,2023-07-06,1,,,,,ニホンノコシュクラ,0
144,1140001130748,新規,0,2023-07-06,2023-07-06,株式会社ニフエル,,株式会社,兵庫県,神戸市須磨区,菅の台２丁目１－１４－１０７,,28,107,6540143,,,,,,,2023-07-06,1,,,,,ニフエル,0
145,1140001130772,新規,0,2023-07-06,2023-07-06,芦屋よふき不動産株式会社,,株式会社,兵庫県,芦屋市,西山町４番４－１０１号,,28,206,6590083,,,,,,,2023-07-06,1,,,,,アシヤヨウキフドウサン,0
146,1140001130797,新規,0,2023-07-06,2023-07-06,富恵商事株式会社,,株式会社,兵庫県,小野市,樫山町１４５６番地の３０８,,28,218,6751325,,,,,,,2023-07-06,1,,,,,トミエショウジ,0
148,1140003019254,新規,0,2023-07-06,2023-07-06,合同会社カミオ１３,,合同会社,兵庫県,川辺郡猪名川町,白金３丁目１１番地１０,,28,301,6660257,,,,,,,2023-07-06,1,,,,,カミオサーティーン,0
150,1150001026524,新規,0,2023-07-06,2023-07-06,株式会社アトラクトパートナーズ,,株式会社,奈良県,奈良市,二条町２丁目２－７武田ビル４０２号,,29,201,6308002,,,,,,,2023-07-06,1,,,,,アトラクトパートナーズ,0
152,1160003002919,新規,0,2023-07-06,2023-07-06,合同会社中森Ｗｅｂ開発,,合同会社,滋賀県,米原市,菅江５００番地,,25,214,5210216,,,,,,,2023-07-06,1,,,,,ナカモリウエブカイハツ,0
157,1180001156954,新規,0,2023-07-06,2023-07-06,株式会社村上開発,,株式会社,愛知県,犬山市,大字羽黒字赤坂２８番地１,,23,215,4840894,,,,,,,2023-07-06,1,,,,,ムラカミカイハツ,0
159,1180301037532,新規,0,2023-07-06,2023-07-06,株式会社Ｍ‐ｓｕｐｐｏｒｔ,,株式会社,愛知県,岡崎市,桑谷町字西平地３４番地１０,,23,202,4443515,,,,,,,2023-07-06,1,,,,,エムサポート,0
160,1180301037540,新規,0,2023-07-06,2023-07-06,徳発株式会社,,株式会社,愛知県,豊田市,西岡町石畑７２－１,,23,211,4730936,,,,,,,2023-07-06,1,,,,,,0
162,1190001030547,新規,0,2023-07-06,2023-07-06,株式会社和田龍石材,,株式会社,三重県,伊勢市,倭町３７番地３,,24,203,5160032,,,,,,,2023-07-06,1,,,,,ワダリュウセキザイ,0
167,1210001019372,新規,0,2023-07-06,2023-07-06,Ａ街区共有床株式会社,,株式会社,福井県,福井市,大手３丁目１２番２０号,,18,201,9100005,,,,,,,2023-07-06,1,,,,,エーガイクキョウユウショウ,0
169,1220001025493,新規,0,2023-07-06,2023-07-06,株式会社ＯＭ技建,,株式会社,石川県,かほく市,学園台３丁目５１番地,,17,209,9291210,,,,,,,2023-07-06,1,,,,,オーエムギケン,0
170,1220003003547,新規,0,2023-07-06,2023-07-06,ＭＯＴＯ・建築デザイン合同会社,,合同会社,石川県,金沢市,窪１丁目１６３番地,,17,201,9218151,,,,,,,2023-07-06,1,,,,,モトケンチクデザイン,0
179,1240001061751,新規,0,2023-07-06,2023-07-06,株式会社サンライン,,株式会社,広島県,府中市,中須町１５５９－４,,34,208,7260012,,,,,,,2023-07-06,1,,,,,サンライン,0
181,1290001102162,新規,0,2023-07-06,2023-07-06,ＴＮＴ株式会社,,株式会社,福岡県,福岡市博多区,中洲５丁目６番１０号ＬＡ博多２Ｆ,,40,132,8100801,,,,,,,2023-07-06,1,,,,,ティーエヌティー,0
182,1290001102187,新規,0,2023-07-06,2023-07-06,あんころ株式会社,,株式会社,福岡県,福岡市中央区,赤坂１丁目１１番１３号,,40,133,8100042,,,,,,,2023-07-06,1,,,,,アンコロ,0
186,1290003014100,新規,0,2023-07-06,2023-07-06,Ｎｉｓｍ合同会社,,合同会社,福岡県,福岡市東区,箱崎ふ頭３丁目３番２１号,,40,131,8120051,,,,,,,2023-07-06,1,,,,,エヌイズム,0
188,1290801029662,新規,0,2023-07-06,2023-07-06,ジェイピーネクスト九州株式会社,,株式会社,福岡県,北九州市小倉南区,徳力新町２丁目１５番１０号,,40,107,8020979,,,,,,,2023-07-06,1,,,,,ジェイピーネクストキュウシュウ,0
189,1290801029670,新規,0,2023-07-06,2023-07-06,株式会社ＨＩＫＡＲＩ,,株式会社,福岡県,北九州市小倉南区,守恒本町２丁目６番３９号,,40,107,8020971,,,,,,,2023-07-06,1,,,,,ヒカリ,0
190,1290801029679,新規,0,2023-07-06,2023-07-06,株式会社クレアリティ,,株式会社,福岡県,北九州市戸畑区,北鳥旗町４番１号,,40,105,8040075,,,,,,,2023-07-06,1,,,,,クレアリティ,0
191,1300001013341,新規,0,2023-07-06,2023-07-06,株式会社みゆき,,株式会社,佐賀県,嬉野市,嬉野町大字下宿乙９１８番地１,,41,209,8430301,,,,,,,2023-07-06,1,,,,,ミユキ,0
193,1310001018496,新規,0,2023-07-06,2023-07-06,株式会社森工業,,株式会社,長崎県,大村市,黒丸町１４９番地マーレ・インテルノＶ２０３,,42,205,8560808,,,,,,,2023-07-06,1,,,,,モリコウギョウ,0
194,1310005008691,新規,0,2023-07-06,2023-07-06,税理士法人ＮｉＰ,,その他の設立登記法人,長崎県,諫早市,永昌東町１６番１８号,,42,204,8540071,,,,,,,2023-07-06,1,,,,,エヌアイピー,0
197,1320001019865,新規,0,2023-07-06,2023-07-06,株式会社ウィーブ,,株式会社,大分県,由布市,挾間町下市１０２番地８,,44,213,8795504,,,,,,,2023-07-06,1,,,,,ウィーブ,0
198,1320003004122,新規,0,2023-07-06,2023-07-06,合同会社タカハシ,,合同会社,大分県,中津市,大字東浜７３９番地１０,,44,203,8710006,,,,,,,2023-07-06,1,,,,,タカハシ,0
200,1350001018427,新規,0,2023-07-06,2023-07-06,株式会社絆引越し運送,,株式会社,宮崎県,宮崎市,江南４丁目２０番１号,,45,201,8800944,,,,,,,2023-07-06,1,,,,,キズナヒッコシウンソウ,0
202,1370001050130,新規,0,2023-07-06,2023-07-06,株式会社エリート,,株式会社,宮城県,仙台市太白区,西中田１丁目１９番７号千葉コーポレーション１０２,,04,104,9811105,,,,,,,2023-07-06,1,,,,,エリート,0
204,1410001013529,新規,0,2023-07-06,2023-07-06,男鹿サケ蒸留所株式会社,,株式会社,秋田県,男鹿市,船川港船川字新浜町１番２１,,05,206,0100511,,,,,,,2023-07-06,1,,,,,オガサケジョウリュウジョ,0
206,1410003003817,新規,0,2023-07-06,2023-07-06,ＫＡＷＡＢＥグループ合同会社,,合同会社,秋田県,秋田市,広面字広面１６０番地,,05,201,0100041,,,,,,,2023-07-06,1,,,,,カワベグループ,0
208,1420001018329,新規,0,2023-07-06,2023-07-06,シユコム株式会社,,株式会社,青森県,むつ市,大平町３１番１０号,,02,208,0350083,,,,,,,2023-07-06,1,,,,,シユコム,0
212,1440001009284,新規,0,2023-07-06,2023-07-06,株式会社タカヤマ設備工業,,株式会社,北海道,函館市,東山２丁目５７番１０号,,01,202,0410835,,,,,,,2023-07-06,1,,,,,タカヤマセツビコウギョウ,0
213,1450001014044,新規,0,2023-07-06,2023-07-06,株式会社一進,,株式会社,北海道,旭川市,大雪通１丁目９７８番地の２７８レジデンス２０２,,01,204,0700010,,,,,,,2023-07-06,1,,,,,イッシン,0
218,1480001012136,新規,0,2023-07-06,2023-07-06,株式会社ナカリン,,株式会社,徳島県,那賀郡那賀町,延野字樫王５６番地１,,36,368,7715406,,,,,,,2023-07-06,1,,,,,ナカリン,0
219,1490001010519,新規,0,2023-07-06,2023-07-06,株式会社ＣｏＮＥｘＴ,,株式会社,高知県,香南市,野市町東野２３７番地１７,,39,211,7815213,,,,,,,2023-07-06,1,,,,,コネクト,0
237,2010001236508,新規,0,2023-07-06,2023-07-06,株式会社ヴァルハラ東京,,株式会社,東京都,千代田区,東神田２丁目４番８－１１０１号,,13,101,1010031,,,,,,,2023-07-06,1,,,,,ヴァルハラトウキョウ,0
238,2010001236581,新規,0,2023-07-06,2023-07-06,株式会社ＰＬＡＴＩＮ‐ＺＥＮＴＨ,,株式会社,東京都,中央区,佃２丁目１９番１－１８０９号,,13,102,1040051,,,,,,,2023-07-06,1,,,,,プラティーンゼンス,0
239,2010001236648,新規,0,2023-07-06,2023-07-06,ＭＩＮＡＭＩ　ＧＯＬＦ株式会社,,株式会社,東京都,中央区,築地６丁目１０番３号,,13,102,1040045,,,,,,,2023-07-06,1,,,,,ミナミゴルフ,0
241,2010003041014,新規,0,2023-07-06,2023-07-06,地域創生未来支援合同会社,,合同会社,東京都,中央区,日本橋茅場町２丁目１７－３－９０２,,13,102,1030025,,,,,,,2023-07-06,1,,,,,チイキソウセイミライシエン,0
242,2010003041047,新規,0,2023-07-06,2023-07-06,合同会社ＩＰ,,合同会社,東京都,中央区,日本橋室町１丁目１１番１２号日本橋水野ビル７階,,13,102,1030022,,,,,,,2023-07-06,1,,,,,アイピー,0
243,2010003041055,新規,0,2023-07-06,2023-07-06,合同会社ハーキュリーズ,,合同会社,東京都,中央区,日本橋兜町１７番２号兜町第６葉山ビル４階,,13,102,1030026,,,,,,,2023-07-06,1,,,,,ハーキュリーズ,0
256,2010401175405,新規,0,2023-07-06,2023-07-06,株式会社Ｓｉｇｎａｌ　Ｈｏｌｄｉｎｇ,,株式会社,東京都,港区,麻布十番２丁目１７番８号,,13,103,1060045,,,,,,,2023-07-06,1,,,,,シグナルホールディング,0
262,2010603010236,新規,0,2023-07-06,2023-07-06,ラウナロア合同会社,,合同会社,東京都,江東区,新大橋２丁目１４番８号,,13,108,1350007,,,,,,,2023-07-06,1,,,,,ラウナロア,0
265,2010901053358,新規,0,2023-07-06,2023-07-06,株式会社エー・パートナーズ,,株式会社,東京都,世田谷区,下馬６丁目１番１４号,,13,112,1540002,,,,,,,2023-07-06,1,,,,,エーパートナーズ,0
266,2010901053366,新規,0,2023-07-06,2023-07-06,ＴＢＸ　Ｊａｐａｎ株式会社,,株式会社,東京都,世田谷区,桜丘１丁目２番２０－６０３号,,13,112,1560054,,,,,,,2023-07-06,1,,,,,ティービーエックスジャパン,0
274,2011001155458,新規,0,2023-07-06,2023-07-06,仲良しジャパン株式会社,,株式会社,東京都,渋谷区,円山町５番５号３階,,13,113,1500044,,,,,,,2023-07-06,1,,,,,ナカヨシジャパン,0
275,2011001155490,新規,0,2023-07-06,2023-07-06,株式会社間築一級建築設計事務所,,株式会社,東京都,渋谷区,猿楽町１２番地１－１４０８号,,13,113,1500033,,,,,,,2023-07-06,1,,,,,カンチクイッキュウケンチクセッケイジムショ,0
276,2011003017004,新規,0,2023-07-06,2023-07-06,合同会社Ｓｔｅｌｌａ　Ａｒｔｗｏｒｋ,,合同会社,東京都,渋谷区,本町４丁目４９番１０号,,13,113,1510071,,,,,,,2023-07-06,1,,,,,ステラアートワーク,0
277,2011005010130,新規,0,2023-07-06,2023-07-06,特定非営利活動法人ＣＯＲＵＮＵＭ,,その他の設立登記法人,東京都,渋谷区,神宮前６丁目２３番４号桑野ビル２階,,13,113,1500001,,,,,,,2023-07-06,1,,,,,コルナム,0
282,2011101103457,新規,0,2023-07-06,2023-07-06,株式会社ラクスＨＲテック,,株式会社,東京都,新宿区,西新宿６丁目２２番１号,,13,104,1600023,,,,,,,2023-07-06,1,,,,,ラクスエイチアールテック,0
285,2011105010716,新規,0,2023-07-06,2023-07-06,ＡＴ‐Ｌ社会保険労務士法人,,その他の設立登記法人,東京都,新宿区,西早稲田２丁目１８番２３号,,13,104,1690051,,,,,,,2023-07-06,1,,,,,エーティーエル,0
291,2011301028842,新規,0,2023-07-06,2023-07-06,株式会社パイオニア,,株式会社,東京都,杉並区,久我山５丁目１５番１８号,,13,115,1680082,,,,,,,2023-07-06,1,,,,,パイオニア,0
292,2011401025244,新規,0,2023-07-06,2023-07-06,株式会社ＩＮＢＡＳＥ,,株式会社,東京都,板橋区,志村１丁目１３番１４－２Ｆ,,13,119,1740056,,,,,,,2023-07-06,1,,,,,インベース,0
293,2011501029475,新規,0,2023-07-06,2023-07-06,兆凱株式会社,,株式会社,東京都,荒川区,西日暮里６丁目５２番５号西日暮里ＳＥＡビル５０１,,13,118,1160013,,,,,,,2023-07-06,1,,,,,チョウガイ,0
294,2011501029483,新規,0,2023-07-06,2023-07-06,ポリティファミリアグループ株式会社,,株式会社,東京都,北区,赤羽２丁目４番２号,,13,117,1150045,,,,,,,2023-07-06,1,,,,,ポリティファミリアグループ,0
295,2011501029509,新規,0,2023-07-06,2023-07-06,株式会社青星,,株式会社,東京都,北区,赤羽北１丁目１２－１４－１Ｆ,,13,117,1150052,,,,,,,2023-07-06,1,,,,,,0
298,2011605002535,新規,0,2023-07-06,2023-07-06,弁理士法人有朋国際特許事務所,,その他の設立登記法人,東京都,練馬区,関町北４丁目２１番６５号,,13,120,1770051,,,,,,,2023-07-06,1,,,,,ユウホウコクサイトッキョジムショ,0
303,2011801042657,新規,0,2023-07-06,2023-07-06,株式会社橋渡し,,株式会社,東京都,葛飾区,青戸８丁目８番８号,,13,122,1250062,,,,,,,2023-07-06,1,,,,,ハシワタシ,0
305,2011805003283,新規,0,2023-07-06,2023-07-06,特定非営利活動法人地方創生機構,,その他の設立登記法人,東京都,葛飾区,東金町１丁目４４－１金町ＴＶビル２階,,13,122,1250041,,,,,,,2023-07-06,1,,,,,チホウソウセイキコウ,0
310,2012401040695,新規,0,2023-07-06,2023-07-06,株式会社谷内電気,,株式会社,東京都,調布市,深大寺東町７丁目４４番地２６フェローネ深大寺２０６,,13,208,1820012,,,,,,,2023-07-06,1,,,,,タニウチデンキ,0
311,2012401040704,新規,0,2023-07-06,2023-07-06,株式会社ＲＯＯＴＳ,,株式会社,東京都,調布市,西つつじケ丘４丁目２１番地１４,,13,208,1820006,,,,,,,2023-07-06,1,,,,,ルーツ,0
322,2020001152316,新規,0,2023-07-06,2023-07-06,株式会社ポラリスアカウンティング横浜,,株式会社,神奈川県,横浜市中区,山下町１９４番地,,14,104,2310023,,,,,,,2023-07-06,1,,,,,ポラリスアカウンティングヨコハマ,0
323,2020003024182,新規,0,2023-07-06,2023-07-06,合同会社ファーイーストカフェ,,合同会社,神奈川県,川崎市高津区,新作６丁目７－３９,,14,134,2130014,,,,,,,2023-07-06,1,,,,,ファーイーストカフェ,0
324,2020005016054,新規,0,2023-07-06,2023-07-06,税理士法人Ｔａｘ　Ｌａｂ,,その他の設立登記法人,神奈川県,川崎市川崎区,砂子１丁目２番地１６メゾンミール砂子３０２,,14,131,2100006,,,,,,,2023-07-06,1,,,,,タックスラボ,0
326,2021001079458,新規,0,2023-07-06,2023-07-06,株式会社Ｇｙｐｓｏ　Ｉ,,株式会社,神奈川県,足柄上郡山北町,山北２５５番地６,,14,364,2580113,,,,,,,2023-07-06,1,,,,,ジプソアイ,0
327,2021001079482,新規,0,2023-07-06,2023-07-06,株式会社ｍｉｃｏ,,株式会社,神奈川県,相模原市緑区,橋本１丁目２１番６号イルソーレ１階,,14,151,2520143,,,,,,,2023-07-06,1,,,,,ミコ,0
328,2021001079499,新規,0,2023-07-06,2023-07-06,株式会社テンダーズ,,株式会社,神奈川県,鎌倉市,大船１丁目１２番４号大地ビル２Ｆ,,14,204,2470056,,,,,,,2023-07-06,1,,,,,テンダーズ,0
331,2030001154609,新規,0,2023-07-06,2023-07-06,金中悦株式会社,,株式会社,埼玉県,北葛飾郡杉戸町,大字下高野３１３－７１,,11,464,3450043,,,,,,,2023-07-06,1,,,,,カネナカエツ,0
332,2030001154724,新規,0,2023-07-06,2023-07-06,株式会社Ｇ‐ｔｒｕｓｔ,,株式会社,埼玉県,新座市,石神５丁目４番２２号,,11,230,3520033,,,,,,,2023-07-06,1,,,,,ジートラスト,0
333,2030001154757,新規,0,2023-07-06,2023-07-06,株式会社龍飛建設,,株式会社,埼玉県,狭山市,入間川４丁目１０番１６号,,11,215,3501305,,,,,,,2023-07-06,1,,,,,リュウビケンセツ,0
334,2030003022078,新規,0,2023-07-06,2023-07-06,Ｓｉｍｐｌｅ　Ａｃｔｉｏｎ合同会社,,合同会社,埼玉県,さいたま市中央区,大戸５丁目６―１１ラポールシェノン１０２,,11,105,3380012,,,,,,,2023-07-06,1,,,,,シンプルアクション,0
339,2040001129031,新規,0,2023-07-06,2023-07-06,株式会社ＮＩ,,株式会社,千葉県,浦安市,猫実３丁目１７番７号ゴールドコースト１０５号室,,12,227,2790004,,,,,,,2023-07-06,1,,,,,エヌアイ,0
340,2040001129056,新規,0,2023-07-06,2023-07-06,株式会社Ｔ‐ＬＩＦＥ,,株式会社,千葉県,松戸市,八ケ崎３丁目３１番地３２,,12,207,2700023,,,,,,,2023-07-06,1,,,,,ティーライフ,0
341,2040001129064,新規,0,2023-07-06,2023-07-06,株式会社ツンテック,,株式会社,千葉県,千葉市花見川区,長作町２９４１番地３,,12,102,2620044,,,,,,,2023-07-06,1,,,,,ツンテック,0
342,2040001129080,新規,0,2023-07-06,2023-07-06,株式会社ネクストヴィンテージ,,株式会社,千葉県,船橋市,西船１丁目２４番１５号西船パークハイム２０１,,12,204,2730031,,,,,,,2023-07-06,1,,,,,ネクストヴィンテージ,0
343,2040001129114,新規,0,2023-07-06,2023-07-06,株式会社エヌズサイン,,株式会社,千葉県,佐倉市,稲荷台２丁目６番地３サンヒルズ稲荷台１０２号,,12,212,2850864,,,,,,,2023-07-06,1,,,,,エヌズサイン,0
344,2040001129122,新規,0,2023-07-06,2023-07-06,株式会社三芳家,,株式会社,千葉県,成田市,仲町３８６－２,,12,211,2860027,,,,,,,2023-07-06,1,,,,,ミヨシヤ,0
346,2040003022886,新規,0,2023-07-06,2023-07-06,合同会社大洋新社,,合同会社,千葉県,長生郡睦沢町,上市場３２０番地３３,,12,422,2994403,,,,,,,2023-07-06,1,,,,,タイヨウシンシャ,0
349,2070001040598,新規,0,2023-07-06,2023-07-06,株式会社白根コーポレーション,,株式会社,群馬県,太田市,高林東町１７８９番地２,,10,205,3730825,,,,,,,2023-07-06,1,,,,,シラネコーポレーション,0
355,2080001025706,新規,0,2023-07-06,2023-07-06,笠原経営マネジメント株式会社,,株式会社,静岡県,藤枝市,藤岡５丁目１５番２０号,,22,214,4260006,,,,,,,2023-07-06,1,,,,,カサハラケイエイマネジメント,0
356,2080001025714,新規,0,2023-07-06,2023-07-06,Ａｓｔｌｏｃａｌ株式会社,,株式会社,静岡県,静岡市葵区,東鷹匠町３番４３－４０７号,,22,101,4200833,,,,,,,2023-07-06,1,,,,,アストローカル,0
359,2080003003008,新規,0,2023-07-06,2023-07-06,ＡＳＵＰＡＲＡ合同会社,,合同会社,静岡県,榛原郡吉田町,片岡４８２番地の１,,22,424,4210303,,,,,,,2023-07-06,1,,,,,アスパラ,0
371,2110005016961,新規,0,2023-07-06,2023-07-06,農事組合法人えちご黒条農産,,その他の設立登記法人,新潟県,長岡市,黒津町１９２７番地,,15,202,9400007,,,,,,,2023-07-06,1,,,,,エチゴクロジョウノウサン,0
373,2120001256230,新規,0,2023-07-06,2023-07-06,株式会社西田,,株式会社,大阪府,門真市,向島町３番３５号,,27,223,5710051,,,,,,,2023-07-06,1,,,,,ニシダ,0
378,2120101067825,新規,0,2023-07-06,2023-07-06,レジブル株式会社,,株式会社,大阪府,和泉市,いぶき野３丁目６番１－８０５号,,27,219,5940041,,,,,,,2023-07-06,1,,,,,レジブル,0
379,2120101067833,新規,0,2023-07-06,2023-07-06,Ｓねっとわーく株式会社,,株式会社,大阪府,阪南市,尾崎町５丁目３６番３２号,,27,232,5990201,,,,,,,2023-07-06,1,,,,,エスネットワーク,0
381,2120901047737,新規,0,2023-07-06,2023-07-06,株式会社プログレスワン,,株式会社,大阪府,茨木市,大池１丁目１０番３５号,,27,211,5670826,,,,,,,2023-07-06,1,,,,,プログレスワン,0
385,2122001037148,新規,0,2023-07-06,2023-07-06,株式会社アンドグローイング,,株式会社,大阪府,東大阪市,小若江３丁目７番６号,,27,227,5770818,,,,,,,2023-07-06,1,,,,,アンドグローイング,0
388,2130003008835,新規,0,2023-07-06,2023-07-06,Ｓｏｎｏｒｉｔｅ合同会社,,合同会社,京都府,長岡京市,光風台１６番地１４,,26,209,6170851,,,,,,,2023-07-06,1,,,,,ソノリテ,0
391,2140001130722,新規,0,2023-07-06,2023-07-06,株式会社ＰＫｃｏｍｐａｎｙ,,株式会社,兵庫県,伊丹市,森本２丁目５６番地の２０,,28,207,6640842,,,,,,,2023-07-06,1,,,,,ピーケーカンパニー,0
392,2140001130730,新規,0,2023-07-06,2023-07-06,ヒノエライフ株式会社,,株式会社,兵庫県,三木市,平田１２０番地の１,,28,215,6730405,,,,,,,2023-07-06,1,,,,,ヒノエライフ,0
393,2140001130771,新規,0,2023-07-06,2023-07-06,株式会社みづの惑星,,株式会社,兵庫県,洲本市,栄町２丁目３番２２号八田ビル２階,,28,205,6560026,,,,,,,2023-07-06,1,,,,,ミヅノワクセイ,0
394,2140001130796,新規,0,2023-07-06,2023-07-06,ヒトツバ株式会社,,株式会社,兵庫県,丹波篠山市,宇土６２３番地,,28,221,6692455,,,,,,,2023-07-06,1,,,,,ヒトツバ,0
398,2150001026515,新規,0,2023-07-06,2023-07-06,株式会社ＲＯＯＴＳ　ＳＥＣＯＮＤ,,株式会社,奈良県,橿原市,醍醐町２１９番地３,,29,205,6340072,,,,,,,2023-07-06,1,,,,,ルーツセコンド,0
405,2180001156937,新規,0,2023-07-06,2023-07-06,株式会社ブルーベリー,,株式会社,愛知県,長久手市,戸田谷２０２番地,,23,238,4801124,,,,,,,2023-07-06,1,,,,,ブルーベリー,0
410,2180303005759,新規,0,2023-07-06,2023-07-06,合同会社レムナントエンターテインメント,,合同会社,愛知県,知立市,谷田町北屋下８８番地１０,,23,225,4720013,,,,,,,2023-07-06,1,,,,,レムナントエンターテイメント,0
418,2200003006006,新規,0,2023-07-06,2023-07-06,合同会社柳扇堂,,合同会社,岐阜県,高山市,上川原町１６８番地１フラットロビン２０３号室,,21,203,5060024,,,,,,,2023-07-06,1,,,,,リュウオウドウ,0
422,2210001019371,新規,0,2023-07-06,2023-07-06,ＴＭＥ株式会社,,株式会社,福井県,福井市,問屋町２丁目２２番地,,18,201,9188231,,,,,,,2023-07-06,1,,,,,ティーエムイー,0
423,2220003003546,新規,0,2023-07-06,2023-07-06,たけだ経営サポート合同会社,,合同会社,石川県,金沢市,北安江３丁目５‐１２,,17,201,9200022,,,,,,,2023-07-06,1,,,,,タケダケイエイサポート,0
426,2240001061742,新規,0,2023-07-06,2023-07-06,アイム株式会社,,株式会社,広島県,呉市,広文化町１２番５号大島屋ビル１階,,34,202,7370114,,,,,,,2023-07-06,1,,,,,アイム,0
427,2240001061775,新規,0,2023-07-06,2023-07-06,株式会社山崎会計,00131091,株式会社,広島県,広島市南区,皆実町５丁目２０番６号センチュリー皆実１０１号,,34,103,7340007,,,,,,,2023-07-06,1,,,,,ヤマサキカイケイ,0
435,2270001008807,新規,0,2023-07-06,2023-07-06,株式会社ウチダレックマネジメント,,株式会社,鳥取県,米子市,新開６丁目３番９号,,31,202,6830801,,,,,,,2023-07-06,1,,,,,ウチダレックマネジメント,0
438,2290001102112,新規,0,2023-07-06,2023-07-06,株式会社ソユーアホーム,,株式会社,福岡県,福岡市早良区,荒江３丁目１１番１５－１００３号ざ・荒江,,40,137,8140021,,,,,,,2023-07-06,1,,,,,ソユーアホーム,0
439,2290001102129,新規,0,2023-07-06,2023-07-06,株式会社カイエボ,,株式会社,福岡県,福岡市中央区,天神４丁目６－２８天神ファーストビル７階,,40,133,8100001,,,,,,,2023-07-06,1,,,,,カイエボ,0
440,2290001102161,新規,0,2023-07-06,2023-07-06,ベースプラン株式会社,,株式会社,福岡県,福岡市西区,今津１４３番地,,40,135,8190165,,,,,,,2023-07-06,1,,,,,ベースプラン,0
441,2290001102178,新規,0,2023-07-06,2023-07-06,アンティシペーター株式会社,,株式会社,福岡県,福岡市西区,今宿駅前１丁目１５番１８号,,40,135,8190168,,,,,,,2023-07-06,1,,,,,アンティシペーター,0
442,2290003014108,新規,0,2023-07-06,2023-07-06,合同会社オールライト,,合同会社,福岡県,那珂川市,片縄東１丁目２３番１３号,,40,231,8111204,,,,,,,2023-07-06,1,,,,,オールライト,0
443,2290003014116,新規,0,2023-07-06,2023-07-06,合同会社ＮｅｏＳ,,合同会社,福岡県,福岡市博多区,博多駅前１丁目２３番２号５Ｆ－Ｂ,,40,132,8120011,,,,,,,2023-07-06,1,,,,,ネオス,0
445,2290801029653,新規,0,2023-07-06,2023-07-06,株式会社ＡＩＣ,,株式会社,福岡県,北九州市八幡東区,西本町１丁目１２番１３号,,40,108,8050061,,,,,,,2023-07-06,1,,,,,アイク,0
446,2290801029661,新規,0,2023-07-06,2023-07-06,株式会社渡邉設備工業,,株式会社,福岡県,北九州市小倉南区,舞ケ丘５丁目１２番８号,,40,107,8020823,,,,,,,2023-07-06,1,,,,,ワタナベセツビコウギョウ,0
447,2290801029678,新規,0,2023-07-06,2023-07-06,ジェイドットリンク株式会社,,株式会社,福岡県,北九州市八幡西区,折尾２丁目１番１０－５０４号,,40,109,8070825,,,,,,,2023-07-06,1,,,,,ジェイドットリンク,0
448,2290803004448,新規,0,2023-07-06,2023-07-06,合同会社ＮＥＸＴ‐ＣＲＯＳＳ,,合同会社,福岡県,行橋市,南泉２丁目９―３,,40,213,8240036,,,,,,,2023-07-06,1,,,,,ネクストクロス,0
450,2310001018495,新規,0,2023-07-06,2023-07-06,株式会社創志エンジニアリング,,株式会社,長崎県,佐世保市,横尾町１６００番地３,,42,202,8570018,,,,,,,2023-07-06,1,,,,,ソウシエンジニアリング,0
452,2320001019864,新規,0,2023-07-06,2023-07-06,株式会社孝洋商事,,株式会社,大分県,大分市,椿が丘２丁目４番７号,,44,201,8701166,,,,,,,2023-07-06,1,,,,,コウヨウショウジ,0
458,2330003009895,新規,0,2023-07-06,2023-07-06,合同会社ＯＮＥ　ＨＥＡＲＴ,,合同会社,熊本県,宇土市,走潟町２０３４番地２ピースフル・コア２０１,,43,211,8690404,,,,,,,2023-07-06,1,,,,,,0
464,2370001050105,新規,0,2023-07-06,2023-07-06,株式会社タガラ,,株式会社,宮城県,気仙沼市,所沢５１番地,,04,205,9880057,,,,,,,2023-07-06,1,,,,,タガラ,0
473,2430001089434,新規,0,2023-07-06,2023-07-06,株式会社Ｈｏｎｅｓｔ,,株式会社,北海道,札幌市豊平区,月寒東三条１９丁目１４番７号,,01,105,0620053,,,,,,,2023-07-06,1,,,,,オネスト,0
475,2450001014043,新規,0,2023-07-06,2023-07-06,株式会社クレバー,,株式会社,北海道,上川郡東川町,西７号北１９番地,,01,458,0711407,,,,,,,2023-07-06,1,,,,,クレバー,0
481,2500001025043,新規,0,2023-07-06,2023-07-06,株式会社坂の上の猫,,株式会社,愛媛県,松山市,樽味４丁目１４番９号,,38,201,7900905,,,,,,,2023-07-06,1,,,,,サカノウエノネコ,0
488,3010001236589,新規,0,2023-07-06,2023-07-06,株式会社らくらく生活雑貨,,株式会社,東京都,文京区,大塚５丁目１８番２３－５０２号,,13,105,1120012,,,,,,,2023-07-06,1,,,,,ラクラクセイカツザッカ,0
489,3010001236639,新規,0,2023-07-06,2023-07-06,フーバー・インベストメント株式会社,,株式会社,東京都,千代田区,紀尾井町４番１号ニューオータニガーデンコート２２階,,13,101,1020094,,,,,,,2023-07-06,1,,,,,フーバーインベストメント,0
490,3010001236647,新規,0,2023-07-06,2023-07-06,日本観光サービス株式会社,,株式会社,東京都,中央区,銀座８丁目１０番８号,,13,102,1040061,,,,,,,2023-07-06,1,,,,,ニホンカンコウサービス,0
491,3010001236671,新規,0,2023-07-06,2023-07-06,ＣＰ＆Ｘ株式会社,,株式会社,東京都,千代田区,大手町１丁目５番１号,,13,101,1000004,,,,,,,2023-07-06,1,,,,,シーピーアンドエックス,0
492,3010001236688,新規,0,2023-07-06,2023-07-06,これからの株式会社,,株式会社,東京都,中央区,銀座４丁目１０番１６号シグマ銀座ファースト５階,,13,102,1040061,,,,,,,2023-07-06,1,,,,,コレカラノ,0
493,3010003041054,新規,0,2023-07-06,2023-07-06,合同会社レスマリーヌ,,合同会社,東京都,中央区,銀座６丁目１３番１６号銀座ＷａｌｌビルＵＣＦ５階,,13,102,1040061,,,,,,,2023-07-06,1,,,,,レスマリーヌ,0
501,3010401175313,新規,0,2023-07-06,2023-07-06,株式会社Ｙｇｇｒａ,,株式会社,東京都,港区,高輪２丁目１２番１３号,,13,103,1080074,,,,,,,2023-07-06,1,,,,,ユグラ,0
502,3010401175412,新規,0,2023-07-06,2023-07-06,株式会社大宝,,株式会社,東京都,港区,高輪３丁目１０番１５－４０３号,,13,103,1080074,,,,,,,2023-07-06,1,,,,,タイホウ,0
503,3010401175420,新規,0,2023-07-06,2023-07-06,トーセイ・アール株式会社,,株式会社,東京都,港区,芝浦４丁目５番４号,,13,103,1080023,,,,,,,2023-07-06,1,,,,,トーセイアール,0
504,3010401175429,新規,0,2023-07-06,2023-07-06,Ｓａｐｈｉｒ　Ｇｅｍｓ　Ｔｒａｄｉｎｇ株式会社,,株式会社,東京都,港区,北青山１丁目３番１号アールキューブ青山３階,,13,103,1070061,,,,,,,2023-07-06,1,,,,,サフィールジェムズトレーディング,0
505,3010401175445,新規,0,2023-07-06,2023-07-06,ＡＩＮ開発株式会社,,株式会社,東京都,港区,浜松町１丁目２番１７号,,13,103,1050013,,,,,,,2023-07-06,1,,,,,エイアインヌカイハツ,0
506,3010401175453,新規,0,2023-07-06,2023-07-06,株式会社ｕｎｌｏｃｋ．ｌｙ４号,,株式会社,東京都,港区,芝浦４丁目２２番１－２９１０号,,13,103,1080023,,,,,,,2023-07-06,1,,,,,アンロックリーヨンゴウ,0
507,3010401175461,新規,0,2023-07-06,2023-07-06,株式会社Ｄｉｆｆｉｃｕｌｔｕｒｅ,,株式会社,東京都,港区,赤坂６丁目１９番４５号コートモデリア六本木２０２,,13,103,1070052,,,,,,,2023-07-06,1,,,,,ディフィカルチャー,0
508,3010403030417,新規,0,2023-07-06,2023-07-06,グローバルブリッジファンド合同会社,,合同会社,東京都,港区,西新橋３丁目２５番３１号愛宕山ＰＲＥＸ７階,,13,103,1050003,,,,,,,2023-07-06,1,,,,,グローバルブリッジファンド,0
509,3010403030425,新規,0,2023-07-06,2023-07-06,合同会社アリガト,,合同会社,東京都,港区,赤坂９丁目６番３９－５０４号,,13,103,1070052,,,,,,,2023-07-06,1,,,,,アリガト,0
513,3010501050671,新規,0,2023-07-06,2023-07-06,ＳＵＮ株式会社,,株式会社,東京都,台東区,台東１丁目２４番９号ブライト秋葉原Ｂ１Ｆ,,13,106,1100016,,,,,,,2023-07-06,1,,,,,サン,0
516,3010601063367,新規,0,2023-07-06,2023-07-06,株式会社スリーブックス,,株式会社,東京都,墨田区,東向島２丁目４６番３号,,13,107,1310032,,,,,,,2023-07-06,1,,,,,スリーブックス,0
518,3010603010235,新規,0,2023-07-06,2023-07-06,合同会社Ｌｕｄｉｑｕｅ,,合同会社,東京都,江東区,豊洲５丁目１番１３－２８１４号,,13,108,1350061,,,,,,,2023-07-06,1,,,,,リュディック,0
520,3010703006752,新規,0,2023-07-06,2023-07-06,合同会社ＩＴｏｎＡ,,合同会社,東京都,品川区,東品川３丁目２４番２０－３０５号,,13,109,1400002,,,,,,,2023-07-06,1,,,,,イトナ,0
528,3011001155424,新規,0,2023-07-06,2023-07-06,株式会社フェノムジャパン,,株式会社,東京都,渋谷区,代々木２丁目２３番１号,,13,113,1510053,,,,,,,2023-07-06,1,,,,,フェノムジャパン,0
529,3011001155465,新規,0,2023-07-06,2023-07-06,株式会社ＯＫＰＳ,,株式会社,東京都,目黒区,五本木２丁目１３番１号アーバンフェニックス１Ｆ,,13,110,1530053,,,,,,,2023-07-06,1,,,,,オーケーピーエス,0
530,3011001155473,新規,0,2023-07-06,2023-07-06,株式会社Ｆｌｏｗ,,株式会社,東京都,渋谷区,桜丘町１５番１４号フジビル４０・７Ｆ,,13,113,1500031,,,,,,,2023-07-06,1,,,,,フロー,0
531,3011001155481,新規,0,2023-07-06,2023-07-06,株式会社ｉｃｒｅｅｎｃｉａ,,株式会社,東京都,渋谷区,神宮前６丁目２３番４号,,13,113,1500001,,,,,,,2023-07-06,1,,,,,アイクレンシア,0
532,3011001155498,新規,0,2023-07-06,2023-07-06,株式会社ＮＥＲＯ,,株式会社,東京都,渋谷区,富ヶ谷１丁目１４番１４号スタンフォードアネックスビル３Ｆ,,13,113,1510063,,,,,,,2023-07-06,1,,,,,ネロ,0
537,3011101103472,新規,0,2023-07-06,2023-07-06,株式会社ＧＣコーポレーション,,株式会社,東京都,新宿区,歌舞伎町２丁目１０番７号地下１階,,13,104,1600021,,,,,,,2023-07-06,1,,,,,ジーシーコーポレーション,0
541,3011103013224,新規,0,2023-07-06,2023-07-06,合同会社ＣｏｍｏｄｏＣｒｅａｔｅ,,合同会社,東京都,新宿区,新宿７丁目２７番１２－４１１号,,13,104,1600022,,,,,,,2023-07-06,1,,,,,コモドクリエイト,0
543,3011105010715,新規,0,2023-07-06,2023-07-06,弁理士法人橘国際特許事務所,,その他の設立登記法人,東京都,新宿区,四谷４丁目２８番４号ＹＫＢエンサインビル３階,,13,104,1600004,,,,,,,2023-07-06,1,,,,,タチバナコクサイトッキョジムショ,0
550,3011301028833,新規,0,2023-07-06,2023-07-06,株式会社ｏｔｏＫｏ,,株式会社,東京都,杉並区,高円寺北２丁目２２－２ＢＢＢｋｏｅｎｊｉ４Ｆ,,13,115,1660002,,,,,,,2023-07-06,1,,,,,オトコ,0
554,3011501029482,新規,0,2023-07-06,2023-07-06,株式会社ケイテック,,株式会社,東京都,荒川区,東尾久２丁目４５番８－６０２号,,13,118,1160012,,,,,,,2023-07-06,1,,,,,ケイテック,0
555,3011501029499,新規,0,2023-07-06,2023-07-06,株式会社ｍｉｃａｓａ,,株式会社,東京都,北区,赤羽１丁目４４－７ブルームステージ赤羽３０１,,13,117,1150045,,,,,,,2023-07-06,1,,,,,ミカサ,0
560,3011801042656,新規,0,2023-07-06,2023-07-06,大雄建設株式会社,,株式会社,東京都,足立区,保塚町８－３,,13,121,1210072,,,,,,,2023-07-06,1,,,,,タイユウケンセツ,0
562,3011803005719,新規,0,2023-07-06,2023-07-06,文祖合同会社,,合同会社,東京都,足立区,梅島３丁目３４番６－２０３号,,13,121,1210816,,,,,,,2023-07-06,1,,,,,ブンソ,0
563,3012401040694,新規,0,2023-07-06,2023-07-06,株式会社東京オートラボ,,株式会社,東京都,多摩市,永山６丁目１番１８号,,13,224,2060025,,,,,,,2023-07-06,1,,,,,トウキョウオートラボ,0
566,3012701017731,新規,0,2023-07-06,2023-07-06,株式会社高瀬設備,00131084,株式会社,東京都,西東京市,新町３丁目１１番２４号,,13,229,2020023,,,,,,,2023-07-06,1,,,,,タカセセツビ,0
567,3012801022441,新規,0,2023-07-06,2023-07-06,株式会社トップヒル,,株式会社,東京都,立川市,錦町２丁目１２番２４号メゾン石橋１０１号,,13,202,1900022,,,,,,,2023-07-06,1,,,,,トップヒル,0
577,3021001079465,新規,0,2023-07-06,2023-07-06,株式会社イーズ,,株式会社,神奈川県,厚木市,妻田西３丁目１番２５号－１０１,,14,212,2430815,,,,,,,2023-07-06,1,,,,,イーズ,0
579,3021003013059,新規,0,2023-07-06,2023-07-06,トラストグレイス合同会社,,合同会社,神奈川県,相模原市中央区,南橋本２丁目５－１９コートダジュール４０２号,,14,152,2520253,,,,,,,2023-07-06,1,,,,,トラストグレイス,0
580,3021003013281,新規,0,2023-07-06,2023-07-06,合同会社ｅｎＲｉｃｈ,,合同会社,神奈川県,小田原市,鴨宮８２５番地の７,,14,206,2500874,,,,,,,2023-07-06,1,,,,,エンリッチ,0
583,3030001154715,新規,0,2023-07-06,2023-07-06,株式会社リズムワークス,,株式会社,埼玉県,川口市,大字木曽呂７７８番地４,,11,203,3330831,,,,,,,2023-07-06,1,,,,,リズムワークス,0
584,3030001154723,新規,0,2023-07-06,2023-07-06,東洋建設ホーム株式会社,,株式会社,埼玉県,入間市,大字仏子１５８５－２Ａ棟１Ｆ,,11,225,3580053,,,,,,,2023-07-06,1,,,,,トウヨウケンセツホーム,0
585,3030001154764,新規,0,2023-07-06,2023-07-06,大和株式会社,,株式会社,埼玉県,鴻巣市,赤見台３丁目１３－２５,,11,217,3650064,,,,,,,2023-07-06,1,,,,,ヤマト,0
588,3030003022085,新規,0,2023-07-06,2023-07-06,合同会社ウル,,合同会社,埼玉県,新座市,東北２丁目２２番６号,,11,230,3520001,,,,,,,2023-07-06,1,,,,,ウル,0
589,3030005021317,新規,0,2023-07-06,2023-07-06,一般社団法人さいたまジュニアアメリカンフットボールクラブ,,その他の設立登記法人,埼玉県,熊谷市,万平町１丁目１４３番,,11,202,3600034,,,,,,,2023-07-06,1,,,,,サイタマジュニアアメリカンフットボールクラブ,0
590,3030005021325,新規,0,2023-07-06,2023-07-06,一般社団法人日本健康相談活動学会,,その他の設立登記法人,埼玉県,坂戸市,千代田３丁目９番２１号,,11,239,3500214,,,,,,,2023-07-06,1,,,,,ニホンケンコウソウダンカツドウガッカイ,0
596,3040001129071,新規,0,2023-07-06,2023-07-06,株式会社ＵＮＩＴＥ,,株式会社,千葉県,船橋市,習志野台２丁目３２番１号習志野台二丁目ビル２０２,,12,204,2740063,,,,,,,2023-07-06,1,,,,,ユナイト,0
604,3070003005012,新規,0,2023-07-06,2023-07-06,合同会社七色,,合同会社,群馬県,渋川市,渋川１９６８番地１,,10,208,3770008,,,,,,,2023-07-06,1,,,,,,0
606,3080001025713,新規,0,2023-07-06,2023-07-06,株式会社ＳＩＢＡＮ,,株式会社,静岡県,牧之原市,静谷１０６１番地２,,22,226,4210404,,,,,,,2023-07-06,1,,,,,シバン,0
608,3100001036550,新規,0,2023-07-06,2023-07-06,株式会社フリーティア,,株式会社,長野県,松本市,野溝木工２丁目９第二協立厚生会館Ｃ棟２１４号室,,20,202,3990005,,,,,,,2023-07-06,1,,,,,フリーティア,0
610,3110003005107,新規,0,2023-07-06,2023-07-06,オオタ合同会社,,合同会社,新潟県,新潟市中央区,学校町通３番町５３２２番地８５ダイアパレス水道町通り５０４号,,15,103,9518126,,,,,,,2023-07-06,1,,,,,オオタ,0
614,3120001256205,新規,0,2023-07-06,2023-07-06,宮里住宅株式会社,,株式会社,大阪府,枚方市,村野東町２７番３８号,,27,210,5730015,,,,,,,2023-07-06,1,,,,,ミヤザトジュウタク,0
615,3120001256221,新規,0,2023-07-06,2023-07-06,ＥＷＳ自動車工業株式会社,,株式会社,大阪府,大阪市西成区,鶴見橋１丁目７－２６ＦＯＲＥＳＴＡＩＶ１階１０１号室,,27,122,5570031,,,,,,,2023-07-06,1,,,,,イーダブリュエスジドウシャコウギョウ,0
618,3120101067824,新規,0,2023-07-06,2023-07-06,テクノＪＸ株式会社,,株式会社,大阪府,和泉市,テクノステージ３丁目１番１１号,,27,219,5941144,,,,,,,2023-07-06,1,,,,,テクノジェイエックス,0
619,3120101067832,新規,0,2023-07-06,2023-07-06,株式会社ＯＮＥ‐ＥＩＧＨＴ,,株式会社,大阪府,堺市中区,辻之１１８９番地１７７,00131083,27,142,5998245,,,,,,,2023-07-06,1,,,,,ワンエイト,0
620,3120103005311,新規,0,2023-07-06,2023-07-06,合同会社Ａｃｅ　Ｓｐａｃｅ,,合同会社,大阪府,堺市東区,西野３５５番地３,,27,143,5998125,,,,,,,2023-07-06,1,,,,,,0
621,3120901047744,新規,0,2023-07-06,2023-07-06,株式会社ＡＳＵＮ,,株式会社,大阪府,高槻市,天川新町１６番３号,,27,207,5690027,,,,,,,2023-07-06,1,,,,,アスン,0
622,3120903004719,新規,0,2023-07-06,2023-07-06,合同会社とまり木,,合同会社,大阪府,高槻市,宮之川原３丁目１８番６号,,27,207,5691032,,,,,,,2023-07-06,1,,,,,トマリギ,0
623,3122001037130,新規,0,2023-07-06,2023-07-06,オリオンホーム株式会社,,株式会社,大阪府,東大阪市,長堂１丁目１１番３１号,,27,227,5770056,,,,,,,2023-07-06,1,,,,,オリオンホーム,0
624,3122001037147,新規,0,2023-07-06,2023-07-06,大友機械株式会社,,株式会社,大阪府,東大阪市,新家１丁目２番４０号,,27,227,5770025,,,,,,,2023-07-06,1,,,,,オオトモキカイ,0
627,3130001074639,新規,0,2023-07-06,2023-07-06,ＥＭＢＡアルムナイ京都株式会社,,株式会社,京都府,京都市左京区,吉田本町３６番地１,,26,103,6068317,,,,,,,2023-07-06,1,,,,,イーエムビーエーアルムナイキョウト,0
631,3140001130721,新規,0,2023-07-06,2023-07-06,オールエステート株式会社,,株式会社,兵庫県,加古郡稲美町,加古４７９１番地,,28,381,6751105,,,,,,,2023-07-06,1,,,,,オールエステート,0
632,3140001130770,新規,0,2023-07-06,2023-07-06,株式会社じょうもんの麓,,株式会社,兵庫県,洲本市,栄町２丁目３番２２号八田ビル２階,,28,205,6560026,,,,,,,2023-07-06,1,,,,,ジョウモンノフモト,0
633,3140001130795,新規,0,2023-07-06,2023-07-06,株式会社ＮＭＫトランスポート,,株式会社,兵庫県,たつの市,龍野町中村２１２－３９,,28,229,6794126,,,,,,,2023-07-06,1,,,,,エヌエムケートランスポート,0
635,3140003019269,新規,0,2023-07-06,2023-07-06,合同会社エスエスワン,,合同会社,兵庫県,神戸市中央区,相生町４丁目２番２８号神戸駅前千代田ビル６階,,28,110,6500025,,,,,,,2023-07-06,1,,,,,エスエスワン,0
636,3150001026522,新規,0,2023-07-06,2023-07-06,株式会社Ｈ．Ｍ．,,株式会社,奈良県,大和郡山市,本庄町２６,,29,203,6391136,,,,,,,2023-07-06,1,,,,,エイチエム,0
638,3160003002917,新規,0,2023-07-06,2023-07-06,ＫＡＥＤＥ合同会社,,合同会社,滋賀県,高島市,新旭町針江３番地１５,,25,212,5201502,,,,,,,2023-07-06,1,,,,,カエデ,0
647,3180301037530,新規,0,2023-07-06,2023-07-06,うなぎ日本料理正楽株式会社,,株式会社,愛知県,豊川市,中央通４丁目３８番地,,23,207,4420051,,,,,,,2023-07-06,1,,,,,ウナギニホンリョウリショウラク,0
648,3180301037539,新規,0,2023-07-06,2023-07-06,株式会社サシュウ,,株式会社,愛知県,刈谷市,一ツ木町４丁目３７番地１４,,23,210,4480003,,,,,,,2023-07-06,1,,,,,サシュウ,0
650,3180303005758,新規,0,2023-07-06,2023-07-06,合同会社Ｇｕｙｇｅｅｎ,,合同会社,愛知県,安城市,大東町１８番４号,,23,212,4460065,,,,,,,2023-07-06,1,,,,,ガイジーン,0
652,3190001030553,新規,0,2023-07-06,2023-07-06,日本味王インターナショナル株式会社,,株式会社,三重県,熊野市,井戸町５４８番地１０,,24,212,5194324,,,,,,,2023-07-06,1,,,,,ニホンアジオウインターナショナル,0
653,3200003006005,新規,0,2023-07-06,2023-07-06,合同会社Ｆプランナーズ,,合同会社,岐阜県,美濃加茂市,下米田町小山１０５７番地１,,21,211,5050017,,,,,,,2023-07-06,1,,,,,エフプランナーズ,0
654,3210001019370,新規,0,2023-07-06,2023-07-06,株式会社黒田,,株式会社,福井県,鯖江市,神中町２丁目６番８号,,18,207,9160016,,,,,,,2023-07-06,1,,,,,クロダ,0
655,3220001025483,新規,0,2023-07-06,2023-07-06,株式会社レエイバックモード,,株式会社,石川県,加賀市,大聖寺上福田町１８番地の３,,17,206,9220004,,,,,,,2023-07-06,1,,,,,レエイバックモード,0
656,3220001025491,新規,0,2023-07-06,2023-07-06,株式会社Ｃｈａｉｎｏｎ,,株式会社,石川県,金沢市,片町２丁目２４番１１号（オリンピアサンロード・５０２号）,,17,201,9200981,,,,,,,2023-07-06,1,,,,,シェノン,0
659,3230003002042,新規,0,2023-07-06,2023-07-06,合同会社Ｋ’ｓプロジェクト,,合同会社,富山県,砺波市,豊町１丁目４番６号,,16,208,9391364,,,,,,,2023-07-06,1,,,,,ケイズプロジェクト,0
663,3240001061758,新規,0,2023-07-06,2023-07-06,株式会社ＷＩＮＧ,,株式会社,広島県,呉市,広多賀谷１丁目８－２０－２０２,,34,202,7370134,,,,,,,2023-07-06,1,,,,,ウイング,0
664,3240001061774,新規,0,2023-07-06,2023-07-06,株式会社神＆結,,株式会社,広島県,福山市,新市町大字常１６７６番地３,,34,207,7293107,,,,,,,2023-07-06,1,,,,,ジントム,0
668,3260001038093,新規,0,2023-07-06,2023-07-06,株式会社吉備マシンサポート,,株式会社,岡山県,倉敷市,真備町市場１０９０番地,,33,202,7101305,,,,,,,2023-07-06,1,,,,,キビマシンサポート,0
672,3270003001536,新規,0,2023-07-06,2023-07-06,合同会社Ｓ・サポート,,合同会社,鳥取県,米子市,新開７丁目１３番４５号,,31,202,6830801,,,,,,,2023-07-06,1,,,,,エスサポート,0
673,3280001008978,新規,0,2023-07-06,2023-07-06,株式会社Ｃｏｐｅｌ　ｄｉｒｅｃｔｉｏｎ,,株式会社,島根県,松江市,嫁島町３番３３号,,32,201,6900047,,,,,,,2023-07-06,1,,,,,コペルディレクション,0
676,3290001102144,新規,0,2023-07-06,2023-07-06,慶博興業株式会社,,株式会社,福岡県,福岡市博多区,金の隈２丁目３番３号ＡＲＫ、ＢＡＳＥ、ＨＡＫＡＴＡ、Ｂ‐０６,,40,132,8120863,,,,,,,2023-07-06,1,,,,,ケイハクコウギョウ,0
677,3290001102160,新規,0,2023-07-06,2023-07-06,株式会社松藤管工,,株式会社,福岡県,柳川市,大和町中島１６３７番地１,,40,207,8390254,,,,,,,2023-07-06,1,,,,,マツフジカンコウ,0
678,3290001102177,新規,0,2023-07-06,2023-07-06,株式会社咲蘭工業,,株式会社,福岡県,福岡市南区,野多目１丁目１４番１－３０１号,,40,134,8111347,,,,,,,2023-07-06,1,,,,,サクラコウギョウ,0
679,3290001102185,新規,0,2023-07-06,2023-07-06,株式会社イリス,,株式会社,福岡県,糟屋郡新宮町,下府６丁目５番１２号,,40,345,8110112,,,,,,,2023-07-06,1,,,,,イリス,0
680,3290003014098,新規,0,2023-07-06,2023-07-06,合同会社ＰＬＡＹＦＵＬ,,合同会社,福岡県,大牟田市,中町２丁目７番地７ライフステージ中町１階,,40,202,8360013,,,,,,,2023-07-06,1,,,,,プレイフル,0
681,3290003014107,新規,0,2023-07-06,2023-07-06,合同会社盈心,,合同会社,福岡県,福岡市博多区,堅粕５丁目１番８号ＦＡＣＥビル２Ｆ,,40,132,8120043,,,,,,,2023-07-06,1,,,,,エイシン,0
682,3290003014115,新規,0,2023-07-06,2023-07-06,合同会社アクティブプラス,,合同会社,福岡県,飯塚市,伊岐須３０９－１０チェルシー１０５,,40,205,8200053,,,,,,,2023-07-06,1,,,,,アクティブプラス,0
685,3290801029669,新規,0,2023-07-06,2023-07-06,株式会社昇電,,株式会社,福岡県,北九州市八幡東区,西丸山町１２番２０号,,40,108,8050052,,,,,,,2023-07-06,1,,,,,ショウデン,0
689,3310001018494,新規,0,2023-07-06,2023-07-06,株式会社実勇建設,,株式会社,長崎県,平戸市,宝亀町１２６０番地４,,42,207,8595366,,,,,,,2023-07-06,1,,,,,ジツユウケンセツ,0
690,3310001018503,新規,0,2023-07-06,2023-07-06,株式会社ＣＮＳ,,株式会社,長崎県,西彼杵郡長与町,高田郷２４９３番地５,,42,307,8512127,,,,,,,2023-07-06,1,,,,,,0
702,3340005009628,新規,0,2023-07-06,2023-07-06,一般社団法人鹿児島県公認心理師・臨床心理士協会,,その他の設立登記法人,鹿児島県,鹿児島市,山之口町１番１０号鹿児島中央ビル１階,,46,201,8920844,,,,,,,2023-07-06,1,,,,,カゴシマケンコウニンシンリシリンショウシンリシキョウカイ,0
703,3350001018425,新規,0,2023-07-06,2023-07-06,株式会社ワタナベ電気通信,,株式会社,宮崎県,延岡市,緑ケ丘２丁目６番１０号,,45,203,8820863,,,,,,,2023-07-06,1,,,,,ワタナベデンキツウシン,0
710,3390001017299,新規,0,2023-07-06,2023-07-06,株式会社リンクス,,株式会社,山形県,新庄市,五日町１０８１番地の２６,,06,205,9960001,,,,,,,2023-07-06,1,,,,,リンクス,0
715,3430001089466,新規,0,2023-07-06,2023-07-06,株式会社グランベル北海道,,株式会社,北海道,札幌市南区,定山渓温泉東２丁目１１１番２,,01,106,0612302,,,,,,,2023-07-06,1,,,,,グランベルホッカイドウ,0
716,3430001089516,新規,0,2023-07-06,2023-07-06,北海道クレステージ株式会社,,株式会社,北海道,札幌市中央区,北一条西９丁目３番２７号,,01,101,0600001,,,,,,,2023-07-06,1,,,,,ホッカイドウクレステージ,0
718,3470003002448,新規,0,2023-07-06,2023-07-06,ニュー・シス・エッジ合同会社,,合同会社,香川県,高松市,西内町６番１２号,,37,201,7600022,,,,,,,2023-07-06,1,,,,,,0
734,4010001236563,新規,0,2023-07-06,2023-07-06,ＴＲＥ‐Ｓ株式会社,,株式会社,東京都,千代田区,三番町３０番地２－７０２号,,13,101,1020075,,,,,,,2023-07-06,1,,,,,トレース,0
735,4010001236605,新規,0,2023-07-06,2023-07-06,株式会社ＳＨＩＮＫ　ＨＤ,,株式会社,東京都,中央区,月島１丁目１５番１０－１２０６号,,13,102,1040052,,,,,,,2023-07-06,1,,,,,シンクエイチディー,0
736,4010001236613,新規,0,2023-07-06,2023-07-06,株式会社オメガドライブ,,株式会社,東京都,千代田区,外神田２丁目２番１９号,,13,101,1010021,,,,,,,2023-07-06,1,,,,,オメガドライブ,0
737,4010001236638,新規,0,2023-07-06,2023-07-06,株式会社島崎ビル,,株式会社,東京都,中央区,日本橋３丁目８番１０号,,13,102,1030027,,,,,,,2023-07-06,1,,,,,シマザキビル,0
738,4010001236646,新規,0,2023-07-06,2023-07-06,株式会社Ｃｏｎｎｅｃｔｉｏｎ　Ｆｉｎｅ,,株式会社,東京都,中央区,日本橋浜町３丁目４０番３－７０１号,,13,102,1030007,,,,,,,2023-07-06,1,,,,,コネクションファイン,0
739,4010001236687,新規,0,2023-07-06,2023-07-06,株式会社ＰＩＮＫ　ＤＩＡＭＯＮＤ,,株式会社,東京都,中央区,勝どき５丁目３番１－４９１１号,,13,102,1040054,,,,,,,2023-07-06,1,,,,,ピンクダイヤモンド,0
742,4010003041020,新規,0,2023-07-06,2023-07-06,合同会社ＣＳ　Ｋａｍｉｙａ,,合同会社,東京都,中央区,日本橋茅場町１丁目３番７号千代田ビル５階,,13,102,1030025,,,,,,,2023-07-06,1,,,,,シーエスカミヤ,0
747,4010401175436,新規,0,2023-07-06,2023-07-06,株式会社ＰＯＮ,,株式会社,東京都,港区,芝浦４丁目４－２７－１１０３,,13,103,1080023,,,,,,,2023-07-06,1,,,,,ポン,0
748,4010401175444,新規,0,2023-07-06,2023-07-06,ＢＬＵ　ＳＣＵＲＯ株式会社,,株式会社,東京都,港区,北青山３丁目６番７号青山パラシオタワー１１階,,13,103,1070061,,,,,,,2023-07-06,1,,,,,ブルースクーロ,0
749,4010401175477,新規,0,2023-07-06,2023-07-06,株式会社Ｍａｔｃｈ　Ｐｏｍｐ,,株式会社,東京都,港区,赤坂２丁目２０番４号ＤＡＭ赤坂ビル２Ｆ,,13,103,1070052,,,,,,,2023-07-06,1,,,,,マッチポンプ,0
756,4010601063382,新規,0,2023-07-06,2023-07-06,株式会社ＯＯＫＩ,,株式会社,東京都,江東区,東砂７丁目１０－７Ｓ１ファーム３Ｆ,,13,108,1360074,,,,,,,2023-07-06,1,,,,,オオキ,0
768,4010901053356,新規,0,2023-07-06,2023-07-06,株式会社ｆｆｆ,,株式会社,東京都,世田谷区,船橋４丁目１番９号,,13,112,1560055,,,,,,,2023-07-06,1,,,,,フフフ,0
769,4010901053364,新規,0,2023-07-06,2023-07-06,株式会社ＪＫ　Ｐｌａｎｎｉｎｇ,,株式会社,東京都,世田谷区,代田２丁目７番１９号,,13,112,1550033,,,,,,,2023-07-06,1,,,,,ジェイケイプランニング,0
772,4010903008291,新規,0,2023-07-06,2023-07-06,合同会社モアエヌ,,合同会社,東京都,世田谷区,世田谷１丁目２３番２１号,,13,112,1540017,,,,,,,2023-07-06,1,,,,,モアエヌ,0
773,4011001155480,新規,0,2023-07-06,2023-07-06,Ｖｉｖｉ　Ｍａｒｔ株式会社,,株式会社,東京都,目黒区,五本木１丁目２７番１３号五本木パレット１０３,,13,110,1530053,,,,,,,2023-07-06,1,,,,,ビビマート,0
774,4011001155497,新規,0,2023-07-06,2023-07-06,株式会社ディーワイグローバル,,株式会社,東京都,渋谷区,千駄ヶ谷４丁目１６番７号北参道ＤＴビル６Ｆ,,13,113,1510051,,,,,,,2023-07-06,1,,,,,ディーワイグローバル,0
775,4011003017118,新規,0,2023-07-06,2023-07-06,合同会社昭昭,,合同会社,東京都,渋谷区,本町３丁目５３番２号コーポすまや１００１,,13,113,1510071,,,,,,,2023-07-06,1,,,,,ショウショウ,0
781,4011105010714,新規,0,2023-07-06,2023-07-06,一般社団法人Ｌｕｘ　Ｂｅａｕｔｙ＆Ｍｅｄｉｃａｌ,,その他の設立登記法人,東京都,新宿区,新宿２丁目１２番８号ＡＣＮ新宿ビル６階,,13,104,1600022,,,,,,,2023-07-06,1,,,,,ルクスビューティアンドメディカル,0
783,4011201024758,新規,0,2023-07-06,2023-07-06,株式会社ＭＫＴ,,株式会社,東京都,中野区,弥生町１丁目４４番２号,,13,114,1640013,,,,,,,2023-07-06,1,,,,,エムケーティー,0
788,4011401025242,新規,0,2023-07-06,2023-07-06,株式会社ナチュラルアフロレコード,,株式会社,東京都,板橋区,大山西町３１番１１号,,13,119,1730033,,,,,,,2023-07-06,1,,,,,ナチュラルアフロレコード,0
794,4011803005718,新規,0,2023-07-06,2023-07-06,ＪＭＩ合同会社,,合同会社,東京都,足立区,興野１丁目１０番３号,,13,121,1230844,,,,,,,2023-07-06,1,,,,,ジェイミ,0
796,4012401040702,新規,0,2023-07-06,2023-07-06,株式会社Ｓ‐ＦＬＡＴ,,株式会社,東京都,多摩市,和田２０００番地１５,,13,224,2060001,,,,,,,2023-07-06,1,,,,,エスフラット,0
797,4012401040710,新規,0,2023-07-06,2023-07-06,株式会社ＢＢ,,株式会社,東京都,調布市,入間町１丁目３０番地１２ＧｒａｃｅＣｏｕｒｔＳｅｉｊｏ４０１,,13,208,1820004,,,,,,,2023-07-06,1,,,,,ビービー,0
801,4020001152314,新規,0,2023-07-06,2023-07-06,株式会社Ｕ,,株式会社,神奈川県,横浜市磯子区,杉田１丁目２２番５号,,14,107,2350033,,,,,,,2023-07-06,1,,,,,ユー,0
808,4020003024148,新規,0,2023-07-06,2023-07-06,合同会社Ｈ１,,合同会社,神奈川県,川崎市多摩区,登戸１９０１番地５,,14,135,2140014,,,,,,,2023-07-06,1,,,,,エイチワン,0
812,4021001079448,新規,0,2023-07-06,2023-07-06,株式会社ＳＹＮＲＩＤＥ,,株式会社,神奈川県,逗子市,逗子７丁目１番５１号ナニワビル３Ｆ,,14,208,2490006,,,,,,,2023-07-06,1,,,,,シンライド,0
813,4021001079464,新規,0,2023-07-06,2023-07-06,株式会社フジミライフ,,株式会社,神奈川県,平塚市,大神１６２５番地,,14,203,2540012,,,,,,,2023-07-06,1,,,,,フジミライフ,0
814,4021001079472,新規,0,2023-07-06,2023-07-06,株式会社ＳＩＮ‐ＫＥＮ,,株式会社,神奈川県,横須賀市,大矢部４丁目１０番１６号,,14,201,2380024,,,,,,,2023-07-06,1,,,,,シンケン,0
815,4021001079514,新規,0,2023-07-06,2023-07-06,株式会社イッコー,,株式会社,神奈川県,海老名市,国分南４丁目２２番３４－５号,,14,215,2430405,,,,,,,2023-07-06,1,,,,,イッコー,0
816,4021003013280,新規,0,2023-07-06,2023-07-06,合同会社Ｌｉｔａ,,合同会社,神奈川県,座間市,相武台２丁目１１番１－４０６号,,14,216,2520011,,,,,,,2023-07-06,1,,,,,リタ,0
820,4030001154755,新規,0,2023-07-06,2023-07-06,天麒株式会社,,株式会社,埼玉県,吉川市,中曽根２丁目６番地３３,,11,243,3420033,,,,,,,2023-07-06,1,,,,,テンキ,0
821,4030001154862,新規,0,2023-07-06,2023-07-06,株式会社フラップコンサルティング,,株式会社,埼玉県,さいたま市大宮区,上小町３７３番地５,,11,103,3300855,,,,,,,2023-07-06,1,,,,,フラップコンサルティング,0
834,4040001129062,新規,0,2023-07-06,2023-07-06,ＡＩＤＣＴ株式会社,,株式会社,千葉県,印西市,木下南２丁目２番地９,,12,231,2701328,,,,,,,2023-07-06,1,,,,,アイデクト,0
835,4040001129070,新規,0,2023-07-06,2023-07-06,Ｆｏｓｓｅｔｔｅ　ｔ．ｖ．ａｇｅｎｔ　ｊａｐａｎ株式会社,,株式会社,千葉県,船橋市,習志野台５丁目２３番４１号,,12,204,2740063,,,,,,,2023-07-06,1,,,,,フォセットティーブイエージェントジャパン,0
836,4040001129079,新規,0,2023-07-06,2023-07-06,株式会社ＷＯＲＫＳ,,株式会社,千葉県,船橋市,藤原２丁目１２番２４号クリスタルタウンＡ－５号,,12,204,2730047,,,,,,,2023-07-06,1,,,,,ワークス,0
837,4040001129087,新規,0,2023-07-06,2023-07-06,株式会社ルシェル,,株式会社,千葉県,船橋市,習志野台２丁目４９番１５号,,12,204,2740063,,,,,,,2023-07-06,1,,,,,ルシェル,0
838,4040001129137,新規,0,2023-07-06,2023-07-06,株式会社アイザー,,株式会社,千葉県,八千代市,保品１９３２番地８,,12,221,2760013,,,,,,,2023-07-06,1,,,,,アイザー,0
841,4050001053088,新規,0,2023-07-06,2023-07-06,株式会社田崎ＡＵＴＯサービス,00131088,株式会社,茨城県,鉾田市,鹿田８２８番地,,08,234,3111416,,,,,,,2023-07-06,1,,,,,タサキオートサービス,0
842,4060001036125,新規,0,2023-07-06,2023-07-06,株式会社ＰＲＯＧＲＥＳＳ,,株式会社,栃木県,那須郡那珂川町,馬頭２２３３番地１,,09,411,3240613,,,,,,,2023-07-06,1,,,,,プログレス,0
843,4060001036133,新規,0,2023-07-06,2023-07-06,株式会社ケンコー建設,,株式会社,栃木県,鹿沼市,栄町３丁目２７番地４,,09,205,3220028,,,,,,,2023-07-06,1,,,,,ケンコーケンセツ,0
844,4060003004633,新規,0,2023-07-06,2023-07-06,ＶＥＥＲＵ合同会社,,合同会社,栃木県,栃木市,岩舟町新里１３０４番地６０号室,,09,203,3294316,,,,,,,2023-07-06,1,,,,,ビール,0
846,4070001040596,新規,0,2023-07-06,2023-07-06,株式会社栗原ウェルディング,,株式会社,群馬県,みどり市,笠懸町久宮５７番地１,,10,212,3792312,,,,,,,2023-07-06,1,,,,,,0
858,4100001036558,新規,0,2023-07-06,2023-07-06,株式会社内商,,株式会社,長野県,長野市,大字北尾張部５４８番地１７,,20,201,3810014,,,,,,,2023-07-06,1,,,,,ウチショウ,0
861,4110003005106,新規,0,2023-07-06,2023-07-06,合同会社ＳＥＣＯＮＤ　ＳＴＡＧＥ,,合同会社,新潟県,三条市,猪子場新田９１２番地９,,15,204,9591151,,,,,,,2023-07-06,1,,,,,セカンドステージ,0
864,4120001256187,新規,0,2023-07-06,2023-07-06,株式会社Ｈ．Ｋ．Ｓ,,株式会社,大阪府,大阪市東住吉区,中野３丁目６番１０号,,27,121,5460012,,,,,,,2023-07-06,1,,,,,エイチケイエス,0
865,4120001256204,新規,0,2023-07-06,2023-07-06,株式会社京橋うどん,,株式会社,大阪府,大阪市北区,堂島１丁目２番２号,,27,127,5300003,,,,,,,2023-07-06,1,,,,,キョウバシウドン,0
866,4120001256237,新規,0,2023-07-06,2023-07-06,大阪民泊運営代行株式会社,,株式会社,大阪府,大阪市西成区,玉出西２丁目１３番２７号,,27,122,5570045,,,,,,,2023-07-06,1,,,,,オオサカミンパクウンエイダイコウ,0
873,4120103005310,新規,0,2023-07-06,2023-07-06,合同会社ナカジマトレーディング,,合同会社,大阪府,松原市,松ケ丘３丁目６１０番地の１,,27,217,5800042,,,,,,,2023-07-06,1,,,,,ナカジマトレーディング,0
874,4120903004718,新規,0,2023-07-06,2023-07-06,合資会社オーベルフェルト,,合資会社,大阪府,高槻市,京口町４番１６号,,27,207,5690072,,,,,,,2023-07-06,1,,,,,オーベルフェルト,0
877,4122001037146,新規,0,2023-07-06,2023-07-06,株式会社ミヤハラ電気,,株式会社,大阪府,東大阪市,東石切町１丁目７番１２号,,27,227,5798011,,,,,,,2023-07-06,1,,,,,ミヤハラデンキ,0
881,4130001074613,新規,0,2023-07-06,2023-07-06,株式会社茶寮哲心,,株式会社,京都府,京都市中京区,真如堂町３２１番２号,,26,104,6040853,,,,,,,2023-07-06,1,,,,,サリョウテッシン,0
882,4130001074670,新規,0,2023-07-06,2023-07-06,インテグリティ株式会社,,株式会社,京都府,福知山市,字長田小字上松２６８３番５,,26,201,6200000,,,,,,,2023-07-06,1,,,,,インテグリティ,0
887,4140001130729,新規,0,2023-07-06,2023-07-06,アカエ建設工業株式会社,,株式会社,兵庫県,西宮市,門戸荘１８番６８号１Ｆ,,28,204,6620825,,,,,,,2023-07-06,1,,,,,アカエケンセツコウギョウ,0
888,4140001130745,新規,0,2023-07-06,2023-07-06,株式会社エコシス,,株式会社,兵庫県,たつの市,龍野町日山２２番地２２,,28,229,6794161,,,,,,,2023-07-06,1,,,,,エコシス,0
891,4150001026521,新規,0,2023-07-06,2023-07-06,株式会社豊真,,株式会社,奈良県,橿原市,城殿町３９９番地の３,,29,205,6340033,,,,,,,2023-07-06,1,,,,,トヨシン,0
893,4150003002999,新規,0,2023-07-06,2023-07-06,Ｇ　ＴＲＵＳＴ合同会社,,合同会社,奈良県,磯城郡田原本町,大字十六面５番地の７,,29,363,6360304,,,,,,,2023-07-06,1,,,,,ジートラスト,0
894,4170001017675,新規,0,2023-07-06,2023-07-06,株式会社エース販売,,株式会社,和歌山県,紀の川市,桃山町元４３９番地,,30,208,6496122,,,,,,,2023-07-06,1,,,,,エースハンバイ,0
903,4180003025452,新規,0,2023-07-06,2023-07-06,合同会社ビジネスアシストＴａｍ,,合同会社,愛知県,春日井市,押沢台７丁目２番地６,,23,206,4870005,,,,,,,2023-07-06,1,,,,,ビジネスアシストタム,0
906,4180303005757,新規,0,2023-07-06,2023-07-06,合同会社Ｋ．Ｉ．Ｋ．Ｓ,,合同会社,愛知県,豊田市,野見山町２丁目３２番地１６２,,23,211,4710813,,,,,,,2023-07-06,1,,,,,キクス,0
907,4190001030544,新規,0,2023-07-06,2023-07-06,伊勢志摩文化開発株式会社,,株式会社,三重県,志摩市,阿児町鵜方４０６８番地２,,24,215,5170501,,,,,,,2023-07-06,1,,,,,イセシマブンカカイハツ,0
908,4190001030552,新規,0,2023-07-06,2023-07-06,株式会社山一水産,,株式会社,三重県,尾鷲市,梶賀町１３８番地,,24,209,5193923,,,,,,,2023-07-06,1,,,,,ヤマイチスイサン,0
909,4190001030560,新規,0,2023-07-06,2023-07-06,株式会社オフィス松永,,株式会社,三重県,いなべ市,大安町大井田２３００番地２アンシャンテ２０３号室,,24,214,5110274,,,,,,,2023-07-06,1,,,,,オフィスマツナガ,0
910,4190005011838,新規,0,2023-07-06,2023-07-06,一般社団法人三重県臨床心理士会,,その他の設立登記法人,三重県,鈴鹿市,郡山町６６３番地の２２２,,24,207,5100263,,,,,,,2023-07-06,1,,,,,ミエケンリンショウシンリシカイ,0
917,4240001061757,新規,0,2023-07-06,2023-07-06,株式会社あさふじ,,株式会社,広島県,廿日市市,対厳山３丁目８番４３号,,34,213,7390402,,,,,,,2023-07-06,1,,,,,アサフジ,0
918,4240001061773,新規,0,2023-07-06,2023-07-06,株式会社沖原工業,,株式会社,広島県,広島市安佐南区,相田３丁目６２番１０－１号,,34,105,7310141,,,,,,,2023-07-06,1,,,,,オキハラコウギョウ,0
922,4260003004357,新規,0,2023-07-06,2023-07-06,アマテラスジャパン合同会社,,合同会社,岡山県,岡山市北区,福谷５７２番地,,33,101,7011225,,,,,,,2023-07-06,1,,,,,アマテラスジャパン,0
929,4290001102176,新規,0,2023-07-06,2023-07-06,株式会社フード・フロンティア,,株式会社,福岡県,福津市,津屋崎１丁目８番１５号,,40,224,8113304,,,,,,,2023-07-06,1,,,,,フードフロンティア,0
931,4290003014097,新規,0,2023-07-06,2023-07-06,ＡＩＮＯＡ合同会社,,合同会社,福岡県,福岡市中央区,薬院３丁目１６番２６号西鉄薬院ビル５階,,40,133,8100022,,,,,,,2023-07-06,1,,,,,アイノア,0
933,4290801029651,新規,0,2023-07-06,2023-07-06,ＫＯＣ株式会社,,株式会社,福岡県,北九州市戸畑区,千防３丁目１番８号,,40,105,8040081,,,,,,,2023-07-06,1,,,,,ケイオーシー,0
934,4290801029668,新規,0,2023-07-06,2023-07-06,株式会社誠里建設,,株式会社,福岡県,行橋市,大字下崎１３７０番地,,40,213,8240076,,,,,,,2023-07-06,1,,,,,セイリケンセツ,0
942,4340001025677,新規,0,2023-07-06,2023-07-06,株式会社ＷＩＴＨ　ＨＯＭＥ,,株式会社,鹿児島県,鹿児島市,原良３丁目２番２０号,,46,201,8900026,,,,,,,2023-07-06,1,,,,,ウィズホーム,0
943,4340005009627,新規,0,2023-07-06,2023-07-06,特定非営利活動法人絆ぐ,,その他の設立登記法人,鹿児島県,鹿児島市,下田町１７７３番地,,46,201,8920873,,,,,,,2023-07-06,1,,,,,ツナグ,0
944,4370001050136,新規,0,2023-07-06,2023-07-06,伊藤商会株式会社,,株式会社,宮城県,岩沼市,土ケ崎４丁目５番１１号,,04,211,9892451,,,,,,,2023-07-06,1,,,,,イトウショウカイ,0
946,4390003002117,新規,0,2023-07-06,2023-07-06,合同会社ＳＡ・ＫＵ・ＲＡ,,合同会社,山形県,山形市,長町７１８番地の１６,,06,201,9900811,,,,,,,2023-07-06,1,,,,,サクラ,0
947,4410003003814,新規,0,2023-07-06,2023-07-06,合同会社メラ,,合同会社,秋田県,潟上市,天王字上北野１４１－８シャディーＢ５,,05,211,0100101,,,,,,,2023-07-06,1,,,,,メラ,0
948,4410005006526,新規,0,2023-07-06,2023-07-06,さくらスカイ農事組合法人,,その他の設立登記法人,秋田県,南秋田郡井川町,北川尻字上村宅地６８番地,,05,366,0181512,,,,,,,2023-07-06,1,,,,,,0
954,4430001089432,新規,0,2023-07-06,2023-07-06,小野商事株式会社,,株式会社,北海道,札幌市手稲区,前田一条６丁目２番８号,,01,109,0060811,,,,,,,2023-07-06,1,,,,,オノショウジ,0
955,4430001089440,新規,0,2023-07-06,2023-07-06,株式会社福祉経営サポート,,株式会社,北海道,札幌市中央区,北二条東８丁目５番地１０ライオンズ札幌通り８０５号,,01,101,0600032,,,,,,,2023-07-06,1,,,,,フクシケイエイサポート,0
964,4490001010524,新規,0,2023-07-06,2023-07-06,株式会社北岡商店,,株式会社,高知県,香南市,赤岡町２８番地１,,39,211,7815310,,,,,,,2023-07-06,1,,,,,キタオカショウテン,0
977,5010001236331,新規,0,2023-07-06,2023-07-06,株式会社Ｒｏｕｎｄ　ｒｏｂｉｎ,,株式会社,東京都,中央区,銀座１丁目１２－４Ｎ＆ＥＢＬＤ．７階,,13,102,1040061,,,,,,,2023-07-06,1,,,,,ラウンドロビン,0
978,5010001236620,新規,0,2023-07-06,2023-07-06,ＬＡＢ株式会社,,株式会社,東京都,千代田区,神田淡路町１丁目９番地ＹＫビル５階,,13,101,1010063,,,,,,,2023-07-06,1,,,,,ラブ,0
979,5010001236637,新規,0,2023-07-06,2023-07-06,ＧＣシステム株式会社,,株式会社,東京都,千代田区,一番町１０番地９－６０１号,,13,101,1020082,,,,,,,2023-07-06,1,,,,,ジーシーシステム,0
980,5010001236653,新規,0,2023-07-06,2023-07-06,たてつパートナーズ株式会社,,株式会社,東京都,文京区,小石川４丁目１番９号,,13,105,1120002,,,,,,,2023-07-06,1,,,,,タテツパートナーズ,0
981,5010001236661,新規,0,2023-07-06,2023-07-06,株式会社東京ベイアドバイザリー,,株式会社,東京都,中央区,銀座１丁目１２－４Ｎ＆ＥＢＬＤ．７階,,13,102,1040061,,,,,,,2023-07-06,1,,,,,トウキョウベイアドバイザリー,0
982,5010001236686,新規,0,2023-07-06,2023-07-06,株式会社笑波,,株式会社,東京都,中央区,銀座７丁目１３番２０号,,13,102,1040061,,,,,,,2023-07-06,1,,,,,エナミ,0
983,5010001236711,新規,0,2023-07-06,2023-07-06,シロタＮＥＸ株式会社,,株式会社,東京都,中央区,日本橋室町１丁目１１番１２号日本橋水野ビル７階,,13,102,1030022,,,,,,,2023-07-06,1,,,,,シロタネックス,0
989,5010401175352,新規,0,2023-07-06,2023-07-06,株式会社ヨンパチ,,株式会社,東京都,港区,六本木７丁目８番１１号六本木ＤＡフロントビル４階,,13,103,1060032,,,,,,,2023-07-06,1,,,,,ヨンパチ,0
990,5010401175468,新規,0,2023-07-06,2023-07-06,株式会社ＦＬＯＷ,,株式会社,東京都,港区,南青山３丁目１番３６号青山丸竹ビル６階,,13,103,1070062,,,,,,,2023-07-06,1,,,,,フロー,0
991,5010401175542,新規,0,2023-07-06,2023-07-06,株式会社ＷＡＢＯ,,株式会社,東京都,港区,新橋２丁目５番２号,,13,103,1050004,,,,,,,2023-07-06,1,,,,,ワボ,0
995,5010403030423,新規,0,2023-07-06,2023-07-06,合同会社Ｔｉｅｎｉ,,合同会社,東京都,港区,南青山３丁目１番３６号青山丸竹ビル６Ｆ,,13,103,1070062,,,,,,,2023-07-06,1,,,,,ティエニ,0
996,5010405022303,新規,0,2023-07-06,2023-07-06,一般財団法人いのうえ生命の財団,,その他の設立登記法人,東京都,港区,南青山２丁目２９番６－４０８号,,13,103,1070062,,,,,,,2023-07-06,1,,,,,イノウエイノチノザイダン,0
1002,5010603010233,新規,0,2023-07-06,2023-07-06,ジャパン・アグリフード・ライトハウス合同会社,,合同会社,東京都,江東区,豊洲６丁目２番３１－１９１７号,,13,108,1350061,,,,,,,2023-07-06,1,,,,,ジャパンアグリフードライトハウス,0
1003,5010603010241,新規,0,2023-07-06,2023-07-06,原馳化工合同会社,,合同会社,東京都,墨田区,横川３丁目６番７号３－Ｒ室,,13,107,1300003,,,,,,,2023-07-06,1,,,,,ゲンチカコウ,0
1004,5010701044521,新規,0,2023-07-06,2023-07-06,株式会社Ｐｉｅｃｅ　Ｉｎ,,株式会社,東京都,品川区,上大崎２丁目１７番３号,,13,109,1410021,,,,,,,2023-07-06,1,,,,,ピースイン,0
1006,5010901053347,新規,0,2023-07-06,2023-07-06,株式会社エスファミリー,,株式会社,東京都,世田谷区,下馬１丁目２３番４－４０１号,,13,112,1540002,,,,,,,2023-07-06,1,,,,,エスファミリー,0
1007,5010901053363,新規,0,2023-07-06,2023-07-06,株式会社ｅｘｐ,,株式会社,東京都,世田谷区,駒沢２丁目２４番１３号フォンタナ駒沢第６－１０１,,13,112,1540012,,,,,,,2023-07-06,1,,,,,イーエックスピー,0
1012,5011001155447,新規,0,2023-07-06,2023-07-06,株式会社ＧＲＡＹＳＣＡＬＥ　ＳＴＵＤＩＯ,,株式会社,東京都,渋谷区,桜丘町４－１４ＶＯＲＴ渋谷桜丘６Ｆ,,13,113,1500031,,,,,,,2023-07-06,1,,,,,グレースケールスタジオ,0
1013,5011001155463,新規,0,2023-07-06,2023-07-06,空舟株式会社,,株式会社,東京都,目黒区,青葉台３丁目６番１３－２０３号,,13,110,1530042,,,,,,,2023-07-06,1,,,,,ソラフネ,0
1014,5011001155471,新規,0,2023-07-06,2023-07-06,株式会社フジエステート,,株式会社,東京都,渋谷区,代々木５丁目７番１２号ＴＨＥ・ＴＷＩＳＴ・２００,,13,113,1510053,,,,,,,2023-07-06,1,,,,,フジエステート,0
1015,5011001155488,新規,0,2023-07-06,2023-07-06,株式会社ＩＴＥＭ,,株式会社,東京都,渋谷区,桜丘町３０－１５ビバリーヒルズ１０２,,13,113,1500031,,,,,,,2023-07-06,1,,,,,アイテム,0
1016,5011001155505,新規,0,2023-07-06,2023-07-06,東興住宅株式会社,,株式会社,東京都,目黒区,下目黒２丁目２０番８号,,13,110,1530064,,,,,,,2023-07-06,1,,,,,トウコウジュウタク,0
1017,5011003017117,新規,0,2023-07-06,2023-07-06,ＮＡＴ　ＪＡＰＡＮ合同会社,,合同会社,東京都,目黒区,平町２丁目５－１７－１０３,,13,110,1520032,,,,,,,2023-07-06,1,,,,,ナットジャパン,0
1026,5011201024757,新規,0,2023-07-06,2023-07-06,ＥＸＬＩＦＥ株式会社,,株式会社,東京都,中野区,弥生町１丁目１９番５号,,13,114,1640013,,,,,,,2023-07-06,1,,,,,エクスライフ,0
1028,5011205002560,新規,0,2023-07-06,2023-07-06,一般社団法人梅若実文庫,,その他の設立登記法人,東京都,中野区,東中野２丁目６番１４号,,13,114,1640003,,,,,,,2023-07-06,1,,,,,ウメワカミノルブンコ,0
1032,5011501029489,新規,0,2023-07-06,2023-07-06,株式会社ｃａｆｏｏｔ,,株式会社,東京都,北区,田端４丁目１９番１３号,,13,117,1140014,,,,,,,2023-07-06,1,,,,,カフート,0
1039,5011801042654,新規,0,2023-07-06,2023-07-06,株式会社ＨＨ商会,,株式会社,東京都,葛飾区,奥戸２丁目２８番２号コーポヒロ１０２,,13,122,1240022,,,,,,,2023-07-06,1,,,,,エイチエイチショウカイ,0
1040,5011801042670,新規,0,2023-07-06,2023-07-06,早川株式会社,,株式会社,東京都,足立区,竹の塚１丁目１２番２号,,13,121,1210813,,,,,,,2023-07-06,1,,,,,ハヤカワ,0
1044,5011803005717,新規,0,2023-07-06,2023-07-06,合同会社ＤＲＥＡＭ　ＳＴＡＲ,,合同会社,東京都,足立区,花畑３丁目１３番１２号ブルーメアライ１１８－２０２号室,,13,121,1210061,,,,,,,2023-07-06,1,,,,,ドリームスター,0
1049,5020001152296,新規,0,2023-07-06,2023-07-06,高通開発株式会社,,株式会社,神奈川県,横浜市西区,花咲町４丁目１１７番地,,14,103,2200022,,,,,,,2023-07-06,1,,,,,タカツウカイハツ,0
1050,5020001152321,新規,0,2023-07-06,2023-07-06,株式会社阿部企画,,株式会社,神奈川県,横浜市栄区,上郷町１１５１番地１２７港南台コートハウス１号棟２０６号,,14,115,2470013,,,,,,,2023-07-06,1,,,,,アベキカク,0
1051,5020001152379,新規,0,2023-07-06,2023-07-06,株式会社乃月,,株式会社,神奈川県,横浜市中区,弁天通２丁目３４－２－２階,,14,104,2310007,,,,,,,2023-07-06,1,,,,,ノヅキ,0
1053,5021001079471,新規,0,2023-07-06,2023-07-06,蒼株式会社,,株式会社,神奈川県,足柄上郡中井町,井ノ口１８１７番地５,,14,361,2590151,,,,,,,2023-07-06,1,,,,,アオ,0
1056,5030001154671,新規,0,2023-07-06,2023-07-06,株式会社ＷｉＺ,,株式会社,埼玉県,北葛飾郡松伏町,大字松伏３３９４－６,,11,465,3430111,,,,,,,2023-07-06,1,,,,,ウィズ,0
1057,5030001154696,新規,0,2023-07-06,2023-07-06,株式会社モトデント,,株式会社,埼玉県,さいたま市見沼区,大字山２４番地３０,,11,104,3370025,,,,,,,2023-07-06,1,,,,,モトデント,0
1058,5030001154705,新規,0,2023-07-06,2023-07-06,株式会社Ｇｌｏｂａｌ　Ｍａｔｃｈ,,株式会社,埼玉県,川口市,江戸１丁目１５－２０,,11,203,3340074,,,,,,,2023-07-06,1,,,,,グローバルマッチ,0
1059,5030001154754,新規,0,2023-07-06,2023-07-06,株式会社日本虎,,株式会社,埼玉県,蕨市,南町１丁目３３番３２号ライオンズマンション蕨南町１０１号,,11,223,3350003,,,,,,,2023-07-06,1,,,,,ニッポントラ,0
1060,5030001154762,新規,0,2023-07-06,2023-07-06,アクアリアルティ株式会社,,株式会社,埼玉県,上尾市,壱丁目東２８番地２,,11,219,3620082,,,,,,,2023-07-06,1,,,,,アクアリアルティ,0
1062,5030003022067,新規,0,2023-07-06,2023-07-06,合同会社ＴａｋｅＭｏｒｅＲｅｓｔ,,合同会社,埼玉県,さいたま市浦和区,常盤１丁目６番２１－５０６号,,11,107,3300061,,,,,,,2023-07-06,1,,,,,テイクモアレスト,0
1065,5040001129061,新規,0,2023-07-06,2023-07-06,竜商株式会社,,株式会社,千葉県,千葉市若葉区,愛生町５４番地３,,12,104,2640031,,,,,,,2023-07-06,1,,,,,リュウショウ,0
1066,5040001129078,新規,0,2023-07-06,2023-07-06,株式会社ＶＩＳＩＯＮ,,株式会社,千葉県,船橋市,藤原２丁目１２番２４号クリスタルタウンＡ－５号,,12,204,2730047,,,,,,,2023-07-06,1,,,,,ヴィジョン,0
1067,5040001129103,新規,0,2023-07-06,2023-07-06,株式会社ＮＥＸＵＭ,,株式会社,千葉県,船橋市,滝台１丁目７番２－１号,,12,204,2740074,,,,,,,2023-07-06,1,,,,,ネクサム,0
1068,5040001129111,新規,0,2023-07-06,2023-07-06,株式会社グッドクリーン,,株式会社,千葉県,千葉市花見川区,検見川町２丁目５８８番地３８,,12,102,2620023,,,,,,,2023-07-06,1,,,,,グッドクリーン,0
1074,5060001036124,新規,0,2023-07-06,2023-07-06,株式会社ＩＲＧ,,株式会社,栃木県,宇都宮市,一番町２番１６号,,09,201,3200812,,,,,,,2023-07-06,1,,,,,アイアールジー,0
1085,5080101024101,新規,0,2023-07-06,2023-07-06,千竜株式会社,,株式会社,静岡県,沼津市,戸田５８番地の１,,22,203,4103402,,,,,,,2023-07-06,1,,,,,センリュウ,0
1087,5080401026573,新規,0,2023-07-06,2023-07-06,株式会社木下技研,,株式会社,静岡県,浜松市東区,中野町２８０３番地の１,,22,132,4350004,,,,,,,2023-07-06,1,,,,,キシタギケン,0
1091,5110001037661,新規,0,2023-07-06,2023-07-06,株式会社恭成,,株式会社,新潟県,長岡市,川口牛ケ島６５６番地１,,15,202,9497505,,,,,,,2023-07-06,1,,,,,タイセイ,0
1099,5120001256203,新規,0,2023-07-06,2023-07-06,株式会社セットアップ,,株式会社,大阪府,大阪市東淀川区,下新庄６丁目１８番７号,,27,114,5330021,,,,,,,2023-07-06,1,,,,,セットアップ,0
1100,5120001256244,新規,0,2023-07-06,2023-07-06,株式会社Ｍｏｘｉｉ,,株式会社,大阪府,大阪市住之江区,安立１丁目１４－９,,27,125,5590003,,,,,,,2023-07-06,1,,,,,モクシー,0
1101,5120001256310,新規,0,2023-07-06,2023-07-06,株式会社アミカルフーズ,,株式会社,大阪府,大阪市北区,中崎西２丁目２番１号東梅田八千代ビル６階Ａ号室,,27,127,5300015,,,,,,,2023-07-06,1,,,,,アミカルフーズ,0
1102,5120001256343,新規,0,2023-07-06,2023-07-06,ランドアセット株式会社,,株式会社,大阪府,大阪市淀川区,西宮原１丁目８番１４号,,27,123,5320004,,,,,,,2023-07-06,1,,,,,ランドアセット,0
1107,5120005023715,新規,0,2023-07-06,2023-07-06,税理士法人上町会計,,その他の設立登記法人,大阪府,大阪市天王寺区,生玉前町１番１８号,,27,109,5430072,,,,,,,2023-07-06,1,,,,,ウエマチカイケイ,0
1110,5120101067822,新規,0,2023-07-06,2023-07-06,株式会社ＡＯＲＴＡ,,株式会社,大阪府,堺市西区,浜寺元町６丁８７０番地３,,27,144,5928343,,,,,,,2023-07-06,1,,,,,エイオータ,0
1111,5120101067839,新規,0,2023-07-06,2023-07-06,株式会社トータスサポート,,株式会社,大阪府,堺市西区,家原寺町１丁１６番８号,,27,144,5938304,,,,,,,2023-07-06,1,,,,,トータスサポート,0
1113,5120901047750,新規,0,2023-07-06,2023-07-06,株式会社リタコネクト,,株式会社,大阪府,茨木市,双葉町８番８号,,27,211,5670829,,,,,,,2023-07-06,1,,,,,リタコネクト,0
1114,5122001037137,新規,0,2023-07-06,2023-07-06,株式会社水谷工業所,,株式会社,大阪府,東大阪市,衣摺６丁目７番１号,,27,227,5770827,,,,,,,2023-07-06,1,,,,,ミズタニコウギョウショ,0
1115,5122001037145,新規,0,2023-07-06,2023-07-06,株式会社乾製作所,,株式会社,大阪府,東大阪市,川俣１丁目９番２４号,,27,227,5770063,,,,,,,2023-07-06,1,,,,,イヌイセイサクショ,0
1118,5130001074653,新規,0,2023-07-06,2023-07-06,株式会社Ｌｉｎｋ　Ｌｉｆｅ,,株式会社,京都府,綾部市,味方町薬師谷１５０番地の２,,26,203,6230031,,,,,,,2023-07-06,1,,,,,リンクライフ,0
1121,5130003008832,新規,0,2023-07-06,2023-07-06,合同会社Ｒ建築,,合同会社,京都府,京都市西京区,大原野上里北ノ町８４７番地,,26,111,6101121,,,,,,,2023-07-06,1,,,,,アールケンチク,0
1126,5140001130769,新規,0,2023-07-06,2023-07-06,ケイタスコンサルティング株式会社,,株式会社,兵庫県,神戸市中央区,磯上通８丁目１番２９号カサベラビルＣ＆Ｍ４０３号室,,28,110,6510086,,,,,,,2023-07-06,1,,,,,ケイタスコンルティング,0
1129,5140003019267,新規,0,2023-07-06,2023-07-06,７合同会社,,合同会社,兵庫県,尼崎市,大庄中通３丁目９０番地,,28,202,6600075,,,,,,,2023-07-06,1,,,,,ナナ,0
1130,5140005026674,新規,0,2023-07-06,2023-07-06,特定非営利活動法人交通事故サポート,,その他の設立登記法人,兵庫県,伊丹市,昆陽東４丁目１３番地の１札場ノ辻ハイツ２０８号,,28,207,6640886,,,,,,,2023-07-06,1,,,,,コウツウジコサポート,0
1132,5150001026512,新規,0,2023-07-06,2023-07-06,株式会社かえでホールディングス,,株式会社,奈良県,奈良市,朱雀３丁目１－７,,29,201,6310806,,,,,,,2023-07-06,1,,,,,カエデホールディングス,0
1135,5170001017674,新規,0,2023-07-06,2023-07-06,株式会社ＭＪＣ,,株式会社,和歌山県,橋本市,恋野２４６８番地の３,,30,203,6480021,,,,,,,2023-07-06,1,,,,,エムジェーシー,0
1142,5180301037529,新規,0,2023-07-06,2023-07-06,ナガシマ技創工業株式会社,,株式会社,愛知県,豊田市,瑞穂町１丁目２７番地３,,23,211,4710863,,,,,,,2023-07-06,1,,,,,ナガシマギソウコウギョウ,0
1143,5180301037537,新規,0,2023-07-06,2023-07-06,株式会社資産パートナーズ,,株式会社,愛知県,豊橋市,東松山町１８番地,,23,201,4400874,,,,,,,2023-07-06,1,,,,,シサンパートナーズ,0
1146,5190001030543,新規,0,2023-07-06,2023-07-06,株式会社ｎｕｉ,,株式会社,三重県,四日市市,堀木１丁目４番５号文化ハイツ１Ｃ,,24,202,5100076,,,,,,,2023-07-06,1,,,,,ヌイ,0
1147,5190001030551,新規,0,2023-07-06,2023-07-06,株式会社ワイズ,,株式会社,三重県,志摩市,阿児町鵜方１２２６番地８,,24,215,5170501,,,,,,,2023-07-06,1,,,,,ワイズ,0
1148,5200001041456,新規,0,2023-07-06,2023-07-06,株式会社飛翔,,株式会社,岐阜県,羽島市,竹鼻町１１９９番地９,,21,209,5016241,,,,,,,2023-07-06,1,,,,,ヒショウ,0
1149,5200001041464,新規,0,2023-07-06,2023-07-06,株式会社Ｌａｎａ　ｐｒｏｊｅｃｔ,,株式会社,岐阜県,飛騨市,古川町杉崎４６番地６,,21,217,5094215,,,,,,,2023-07-06,1,,,,,ラナプロジェクト,0
1152,5200003006003,新規,0,2023-07-06,2023-07-06,合同会社Ｇ‐Ｓｔａｔｉｏｎ,,合同会社,岐阜県,高山市,奥飛騨温泉郷一重ヶ根３６５番地１,,21,203,5061432,,,,,,,2023-07-06,1,,,,,ジーステーション,0
1154,5210001019369,新規,0,2023-07-06,2023-07-06,株式会社クロダホールディングス,,株式会社,福井県,鯖江市,神中町２丁目６番８号,,18,207,9160016,,,,,,,2023-07-06,1,,,,,クロダホールディングス,0
1156,5210003001663,新規,0,2023-07-06,2023-07-06,ＩＭテクノ合同会社,,合同会社,福井県,小浜市,和久里第１７号４番地の６,,18,204,9170024,,,,,,,2023-07-06,1,,,,,アイエムテクノ,0
1159,5230003002049,新規,0,2023-07-06,2023-07-06,合同会社土谷,,合同会社,富山県,富山市,水橋辻ヶ堂６１０－８,,16,201,9393515,,,,,,,2023-07-06,1,,,,,ツチタニ,0
1160,5240001061772,新規,0,2023-07-06,2023-07-06,株式会社サンウェイ不動産,,株式会社,広島県,東広島市,西条西本町１１番９－１０３号,,34,212,7390043,,,,,,,2023-07-06,1,,,,,サンウェイフドウサン,0
1162,5240003006206,新規,0,2023-07-06,2023-07-06,合同会社ａＭＭｏｎ６９,,合同会社,広島県,広島市中区,本川町２丁目６番３－４０１号,,34,101,7300802,,,,,,,2023-07-06,1,,,,,アモンロクジュウキュウ,0
1163,5240003006214,新規,0,2023-07-06,2023-07-06,合同会社ＭＡＲＳ,,合同会社,広島県,広島市安佐北区,口田南９丁目１４番１５号,,34,106,7391733,,,,,,,2023-07-06,1,,,,,マーズ,0
1173,5290001102118,新規,0,2023-07-06,2023-07-06,株式会社八媛工舎,,株式会社,福岡県,八女市,稲富１０９番地,,40,210,8340047,,,,,,,2023-07-06,1,,,,,ヤヒメコウシャ,0
1174,5290001102175,新規,0,2023-07-06,2023-07-06,株式会社ＹＧＴ,,株式会社,福岡県,福岡市博多区,板付５丁目９番２－４０２号プロスペール板付,,40,132,8120888,,,,,,,2023-07-06,1,,,,,ワイジーティー,0
1175,5290001102183,新規,0,2023-07-06,2023-07-06,ＳＡＮＷＡ　ＪＡＰＡＮ株式会社,,株式会社,福岡県,福岡市東区,香住ヶ丘６丁目２３番２号,,40,131,8130003,,,,,,,2023-07-06,1,,,,,サンワジャパン,0
1181,5290801029650,新規,0,2023-07-06,2023-07-06,株式会社Ａｒｔ‐Ｌａｂ,,株式会社,福岡県,北九州市八幡西区,黒崎４丁目１番６号エンタープライズビル５Ｆ,,40,109,8060021,,,,,,,2023-07-06,1,,,,,アートラボ,0
1182,5290801029659,新規,0,2023-07-06,2023-07-06,株式会社ｈａｒｅ．ｋｕｋｕｎａ,,株式会社,福岡県,北九州市小倉北区,赤坂３丁目６番３号,,40,106,8020032,,,,,,,2023-07-06,1,,,,,ハレククナ,0
1183,5290801029667,新規,0,2023-07-06,2023-07-06,株式会社九州総建,,株式会社,福岡県,京都郡苅田町,富久町２丁目９番地５,,40,621,8000352,,,,,,,2023-07-06,1,,,,,キュウシュウソウケン,0
1184,5290801029675,新規,0,2023-07-06,2023-07-06,株式会社ＫＵＲＯＺＵＭＩ,,株式会社,福岡県,北九州市若松区,本町２丁目１０－１７　９０２号室,,40,103,8080034,,,,,,,2023-07-06,1,,,,,クロズミ,0
1186,5290803004453,新規,0,2023-07-06,2023-07-06,合同会社金星,,合同会社,福岡県,北九州市八幡西区,永犬丸東町３丁目７番３３号,,40,109,8070842,,,,,,,2023-07-06,1,,,,,キンボシ,0
1192,5340001025676,新規,0,2023-07-06,2023-07-06,ヨロンアイランドビーフ株式会社,,株式会社,鹿児島県,大島郡与論町,大字茶花２１０番地１,,46,535,8919301,,,,,,,2023-07-06,1,,,,,ヨロンアイランドビーフ,0
1196,5370001050127,新規,0,2023-07-06,2023-07-06,株式会社小池,,株式会社,宮城県,仙台市太白区,富沢南２丁目５番地の３,,04,104,9820036,,,,,,,2023-07-06,1,,,,,コイケ,0
1197,5370001050143,新規,0,2023-07-06,2023-07-06,株式会社ＭＯＮＯＬＩＴＨ,,株式会社,宮城県,仙台市若林区,伊在３丁目３番地の３ネオハイツ六丁の目南４０７,,04,103,9840038,,,,,,,2023-07-06,1,,,,,モノリス,0
1205,5390001017306,新規,0,2023-07-06,2023-07-06,株式会社アース・ウイング建築工房一級建築士事務所,,株式会社,山形県,山形市,下条町４丁目３番３２号２０３号,,06,201,9900823,,,,,,,2023-07-06,1,,,,,アースウイングケンチクコウボウイッキュウケンチクシジムショ,0
1211,5430001089423,新規,0,2023-07-06,2023-07-06,株式会社エンスポーツ,,株式会社,北海道,札幌市中央区,大通西１８丁目２番地７,,01,101,0600042,,,,,,,2023-07-06,1,,,,,エンスポーツ,0
1216,5462501000956,新規,0,2023-07-06,2023-07-06,べつかいスイーツ工房株式会社,,株式会社,北海道,野付郡別海町,別海宮舞町５１番地の４,,01,691,0860201,,,,,,,2023-07-06,1,,,,,ベツカイスイーツコウボウ,0
1223,5500001025040,新規,0,2023-07-06,2023-07-06,株式会社金盛商事,,株式会社,愛媛県,宇和島市,三間町曽根９５６番地２８,,38,203,7981104,,,,,,,2023-07-06,1,,,,,カナモリショウジ,0
1244,6010001236611,新規,0,2023-07-06,2023-07-06,ミリ・デザイン株式会社,,株式会社,東京都,中央区,八重洲２丁目１－１ＹＡＮＭＡＲ・ＴＯＫＹＯ１２階,,13,102,1040028,,,,,,,2023-07-06,1,,,,,ミリデザイン,0
1245,6010001236685,新規,0,2023-07-06,2023-07-06,ＩＤ＆Ｅホールディングス株式会社,,株式会社,東京都,千代田区,麹町５丁目４番地,,13,101,1020083,,,,,,,2023-07-06,1,,,,,アイディーアンドイーホールディングス,0
1246,6010001236693,新規,0,2023-07-06,2023-07-06,株式会社ＬＯＧ．ＷＯＲＫＳ,,株式会社,東京都,千代田区,神田三崎町２丁目１１番１２号アイロン三崎町３Ｆ,,13,101,1010061,,,,,,,2023-07-06,1,,,,,ログワークス,0
1247,6010001236702,新規,0,2023-07-06,2023-07-06,株式会社ＬＩＴＯＬＡ,,株式会社,東京都,中央区,銀座１丁目２２番１１号銀座大竹ビジデンス２階,,13,102,1040061,,,,,,,2023-07-06,1,,,,,リトラ,0
1249,6010003041035,新規,0,2023-07-06,2023-07-06,合同会社ケイジェイエス,,合同会社,東京都,千代田区,神田東松下町３７番２号,,13,101,1010042,,,,,,,2023-07-06,1,,,,,ケイジェイエス,0
1250,6010401175384,新規,0,2023-07-06,2023-07-06,株式会社ＢｌｕｓｅＴｅｃｈ,,株式会社,東京都,港区,赤坂９丁目７番１号ミッドタウン・タワー３５Ｆ,,13,103,1070052,,,,,,,2023-07-06,1,,,,,ブルーステック,0
1251,6010401175459,新規,0,2023-07-06,2023-07-06,株式会社Ｌａ　ｐｉｌａｔｅｓ,,株式会社,東京都,港区,南青山２丁目４番８号ＬＡＰｉＳ青山ＩＩ４０２号室,00131087,13,103,1070062,,,,,,,2023-07-06,1,,,,,ラピラティス,0
1252,6010401175475,新規,0,2023-07-06,2023-07-06,ＳＢＩスマートエナジー株式会社,,株式会社,東京都,港区,六本木１丁目６番１号,,13,103,1060032,,,,,,,2023-07-06,1,,,,,エスビーアイスマートエナジー,0
1257,6010501050710,新規,0,2023-07-06,2023-07-06,黒鉄精機株式会社,,株式会社,東京都,台東区,上野３丁目１６－２－９１０,,13,106,1100005,,,,,,,2023-07-06,1,,,,,クロガネセイキ,0
1258,6010601063364,新規,0,2023-07-06,2023-07-06,株式会社プロセスアーツ,,株式会社,東京都,墨田区,両国３丁目１８番４号,,13,107,1300026,,,,,,,2023-07-06,1,,,,,プロセスアーツ,0
1259,6010601063389,新規,0,2023-07-06,2023-07-06,エビッシュ株式会社,,株式会社,東京都,墨田区,向島５丁目２３番６号１Ｆ,,13,107,1310033,,,,,,,2023-07-06,1,,,,,エビッシュ,0
1260,6010603010232,新規,0,2023-07-06,2023-07-06,合同会社ＦＸ,,合同会社,東京都,江東区,深川１丁目３－４－５０６,,13,108,1350033,,,,,,,2023-07-06,1,,,,,エフエックス,0
1261,6010603010240,新規,0,2023-07-06,2023-07-06,ＤＫ　Ｈｏｌｄｉｎｇｓ合同会社,,合同会社,東京都,江東区,青海１丁目１番２０号７階,,13,108,1350064,,,,,,,2023-07-06,1,,,,,ディーケイホールディングス,0
1263,6010701044537,新規,0,2023-07-06,2023-07-06,ＯＥＤＯ　Ｄｙｎａｍｉｃｓ株式会社,,株式会社,東京都,品川区,八潮５丁目１２－６９ビレッジハウス品川八潮１号棟０２１３号,,13,109,1400003,,,,,,,2023-07-06,1,,,,,オオエドダイナミクス,0
1269,6010901053362,新規,0,2023-07-06,2023-07-06,株式会社Ｏｎｅ　Ｆｌｏｗｅｒ,,株式会社,東京都,世田谷区,上用賀２丁目５番２号,,13,112,1580098,,,,,,,2023-07-06,1,,,,,ワンフラワー,0
1270,6010901053370,新規,0,2023-07-06,2023-07-06,株式会社ｎｏｔｅ,,株式会社,東京都,世田谷区,砧４丁目２８番４号,,13,112,1570073,,,,,,,2023-07-06,1,,,,,ノート,0
1280,6011001155462,新規,0,2023-07-06,2023-07-06,株式会社Ｗａｔａｇａｓｈｉ,,株式会社,東京都,渋谷区,恵比寿２丁目１３番１０号レンブラント広尾１０１,,13,113,1500013,,,,,,,2023-07-06,1,,,,,ワタガシ,0
1281,6011001155470,新規,0,2023-07-06,2023-07-06,株式会社ロイヤルボード,,株式会社,東京都,目黒区,駒場１丁目３１番５号,,13,110,1530041,,,,,,,2023-07-06,1,,,,,ロイヤルボード,0
1282,6011001155479,新規,0,2023-07-06,2023-07-06,株式会社ＺＩＯＮ,,株式会社,東京都,渋谷区,恵比寿４丁目２０番３号恵比寿ガーデンプレイスタワー１８Ｆ,,13,113,1500013,,,,,,,2023-07-06,1,,,,,ザイオン,0
1283,6011001155487,新規,0,2023-07-06,2023-07-06,ディージェイカッパ株式会社,,株式会社,東京都,目黒区,柿の木坂２丁目２９番７号,,13,110,1520022,,,,,,,2023-07-06,1,,,,,ディージェイカッパ,0
1285,6011003017090,新規,0,2023-07-06,2023-07-06,ＩＳＬＩＮＧＴＯＮ合同会社,,合同会社,東京都,渋谷区,神宮前６丁目２３番４号桑野ビル２階,,13,113,1500001,,,,,,,2023-07-06,1,,,,,イズリントン,0
1295,6011301028839,新規,0,2023-07-06,2023-07-06,株式会社ＦＡＩＮＤＲＥＡＭＳ,,株式会社,東京都,杉並区,高円寺北１丁目１８－７久保井ビル２階,,13,115,1660002,,,,,,,2023-07-06,1,,,,,ファインドリームス,0
1299,6011401025249,新規,0,2023-07-06,2023-07-06,株式会社フロンティア,,株式会社,東京都,板橋区,中丸町１３番１－５０２号ゲオ・タワー池袋,,13,119,1730026,,,,,,,2023-07-06,1,,,,,フロンティア,0
1301,6011501029488,新規,0,2023-07-06,2023-07-06,株式会社ＡＰＩＴＯＲ　ＪＡＰＡＮ,,株式会社,東京都,荒川区,西尾久７丁目６－１０須田ビル１Ｆ,,13,118,1160011,,,,,,,2023-07-06,1,,,,,アピタージャパン,0
1302,6011501029496,新規,0,2023-07-06,2023-07-06,美桜株式会社,,株式会社,東京都,北区,中里１丁目２１番２号中里ビル１Ｆ,,13,117,1140015,,,,,,,2023-07-06,1,,,,,ビオウ,0
1303,6011601026947,新規,0,2023-07-06,2023-07-06,Ｆａｍｉｌｙ　Ｒｅｓｔａｕｒａｎｔ　Ｉｎｎｏｖａｔｉｏｎ株式会社,,株式会社,東京都,練馬区,大泉町２丁目１２番２号,,13,120,1780062,,,,,,,2023-07-06,1,,,,,ファミリーレストランイノベーション,0
1304,6011601026955,新規,0,2023-07-06,2023-07-06,株式会社Ｍ＆Ｌ,,株式会社,東京都,練馬区,桜台５丁目４５番２４号,,13,120,1760002,,,,,,,2023-07-06,1,,,,,エムアンドエル,0
1308,6012301013509,新規,0,2023-07-06,2023-07-06,株式会社ＡＣＷ,,株式会社,東京都,町田市,図師町１３３２番地４８,,13,209,1940203,,,,,,,2023-07-06,1,,,,,エーシーダブリュー,0
1311,6012401040700,新規,0,2023-07-06,2023-07-06,Ｃｅｎｔｗｅｌｌ　Ｈｏｌｄｉｎｇｓ株式会社,,株式会社,東京都,武蔵野市,境３丁目１４番６号,,13,203,1800022,,,,,,,2023-07-06,1,,,,,セントウェルホールディングス,0
1312,6012401040709,新規,0,2023-07-06,2023-07-06,ＹＳＩｃｏｍｍｕｎｉｃａｔｉｏｎ株式会社,,株式会社,東京都,武蔵野市,吉祥寺本町１丁目２０番１号吉祥寺永谷シティプラザ１００２,,13,203,1800004,,,,,,,2023-07-06,1,,,,,ワイエスアイコミュニケーション,0
1317,6012701017729,新規,0,2023-07-06,2023-07-06,リペイント多摩株式会社,,株式会社,東京都,東久留米市,神宝町１丁目８番１２号,,13,222,2030002,,,,,,,2023-07-06,1,,,,,リペイントタマ,0
1318,6013101009201,新規,0,2023-07-06,2023-07-06,株式会社ワークスオブリユース,,株式会社,東京都,青梅市,東青梅５丁目１５番地６,,13,205,1980042,,,,,,,2023-07-06,1,,,,,ワークスオブリユース,0
1323,6020001152320,新規,0,2023-07-06,2023-07-06,株式会社ＬＳＲ,,株式会社,神奈川県,横浜市中区,曙町１丁目１番４号エクシール伊勢佐木２－７,,14,104,2310057,,,,,,,2023-07-06,1,,,,,エルエスアール,0
1324,6020001152353,新規,0,2023-07-06,2023-07-06,株式会社アスプラ,,株式会社,神奈川県,横浜市中区,日ノ出町１丁目３６番地アクロス９０４号室,,14,104,2310066,,,,,,,2023-07-06,1,,,,,アスプラ,0
1325,6020001152361,新規,0,2023-07-06,2023-07-06,株式会社イソダ設計コンサルタント,,株式会社,神奈川県,横浜市西区,平沼１丁目４０番９－１０１５号,,14,103,2200023,,,,,,,2023-07-06,1,,,,,イソダセッケイコンサルタント,0
1331,6020003024138,新規,0,2023-07-06,2023-07-06,ＢＨＵＳＡＲＵ合同会社,,合同会社,神奈川県,横浜市神奈川区,東神奈川１丁目１２－５リーデンスフォート２０５,,14,102,2210044,,,,,,,2023-07-06,1,,,,,ブサル,0
1334,6021001079462,新規,0,2023-07-06,2023-07-06,株式会社ナチュレ,,株式会社,神奈川県,平塚市,山下１丁目１８番９号,,14,203,2540911,,,,,,,2023-07-06,1,,,,,ナチュレ,0
1335,6021001079479,新規,0,2023-07-06,2023-07-06,株式会社ｃａｒｅ　ｐｒｏ,,株式会社,神奈川県,綾瀬市,綾西３丁目１３番１６号,,14,218,2521126,,,,,,,2023-07-06,1,,,,,ケアプロ,0
1336,6021003013270,新規,0,2023-07-06,2023-07-06,ＷａｙＴｏＧｏ合同会社,,合同会社,神奈川県,逗子市,逗子６丁目９―３２,,14,208,2490006,,,,,,,2023-07-06,1,,,,,ウェイトゥーゴー,0
1347,6030001154729,新規,0,2023-07-06,2023-07-06,小林設備株式会社,,株式会社,埼玉県,川口市,西青木３丁目１３番２－２号,,11,203,3320035,,,,,,,2023-07-06,1,,,,,コバヤシセツビ,0
1358,6040001129069,新規,0,2023-07-06,2023-07-06,株式会社Ｓｈａｐｅ,,株式会社,千葉県,八千代市,緑が丘西２丁目１番地１コリーヌリーブル緑が丘１０１号,,12,221,2760040,,,,,,,2023-07-06,1,,,,,シェイプ,0
1366,6040003022833,新規,0,2023-07-06,2023-07-06,合同会社ＣｏＢｒｅｗｓ,,合同会社,千葉県,千葉市緑区,平川町２０３７―２,,12,105,2660004,,,,,,,2023-07-06,1,,,,,コブリューズ,0
1367,6040003022908,新規,0,2023-07-06,2023-07-06,合同会社学び舎五つ星,,合同会社,千葉県,八千代市,八千代台西４丁目７番地１２,,12,221,2760034,,,,,,,2023-07-06,1,,,,,マナビヤイツツボシ,0
1371,6070001040594,新規,0,2023-07-06,2023-07-06,株式会社多満井,,株式会社,群馬県,桐生市,錦町１丁目６番４０号小西ビル１Ｆ,,10,203,3760023,,,,,,,2023-07-06,1,,,,,タマイ,0
1376,6080401026580,新規,0,2023-07-06,2023-07-06,株式会社ゼルコヴァコンサルティングオフィス,,株式会社,静岡県,浜松市中区,田町２２３番地の２１ビオラ田町３Ｆ,,22,131,4300944,,,,,,,2023-07-06,1,,,,,ゼルコヴァコンサルティングオフィス,0
1385,6100001036548,新規,0,2023-07-06,2023-07-06,株式会社あづみ野アースアンドベジタブル,,株式会社,長野県,安曇野市,堀金三田３２４４番地２,,20,220,3998212,,,,,,,2023-07-06,1,,,,,アヅミノアースアンドベジタブル,0
1387,6110001037669,新規,0,2023-07-06,2023-07-06,株式会社Ｆ‐ｔｅｃｈ,,株式会社,新潟県,阿賀野市,小河原４７２番地,,15,223,9592134,,,,,,,2023-07-06,1,,,,,エフテック,0
1394,6120001256177,新規,0,2023-07-06,2023-07-06,クムケア訪問看護株式会社,,株式会社,大阪府,大阪市北区,曾根崎新地１丁目３－１６,,27,127,5300002,,,,,,,2023-07-06,1,,,,,クムケアホウモンカンゴ,0
1395,6120001256219,新規,0,2023-07-06,2023-07-06,株式会社サンクス,,株式会社,大阪府,大阪市東住吉区,湯里３丁目２番４－５０１号,,27,121,5460013,,,,,,,2023-07-06,1,,,,,サンクス,0
1396,6120001256227,新規,0,2023-07-06,2023-07-06,株式会社ぞうさん,,株式会社,大阪府,大阪市北区,長柄東２丁目９番７７－１３０６号,,27,127,5310063,,,,,,,2023-07-06,1,,,,,ゾウサン,0
1397,6120001256235,新規,0,2023-07-06,2023-07-06,ｉＱＴ株式会社,,株式会社,大阪府,大阪市西区,本田３丁目１番１９号,,27,106,5500022,,,,,,,2023-07-06,1,,,,,アイキューティー,0
1398,6120003024417,新規,0,2023-07-06,2023-07-06,合同会社ＳｍａｒｔｙＥｄ,,合同会社,大阪府,大阪市天王寺区,烏ケ辻１丁目２番２２号,,27,109,5430042,,,,,,,2023-07-06,1,,,,,スマーティエッド,0
1402,6120005023714,新規,0,2023-07-06,2023-07-06,税理士法人フタモ,,その他の設立登記法人,大阪府,大阪市城東区,鴫野西１丁目１２番７号,,27,118,5360014,,,,,,,2023-07-06,1,,,,,フタモ,0
1403,6120101067821,新規,0,2023-07-06,2023-07-06,株式会社クリフ,,株式会社,大阪府,富田林市,桜ケ丘町４番６号,,27,214,5840084,,,,,,,2023-07-06,1,,,,,クリフ,0
1406,6120901047733,新規,0,2023-07-06,2023-07-06,株式会社エアフォルク,,株式会社,大阪府,箕面市,百楽荘２丁目６番１１号,,27,220,5620042,,,,,,,2023-07-06,1,,,,,エアフォルク,0
1408,6130001074594,新規,0,2023-07-06,2023-07-06,株式会社ことね,,株式会社,京都府,京都市上京区,今小路通御前通西入紙屋川町８５４番地３階３５号室,,26,102,6028384,,,,,,,2023-07-06,1,,,,,コトネ,0
1409,6130001074636,新規,0,2023-07-06,2023-07-06,ＣＯＳＮＯＵＳ株式会社,,株式会社,京都府,京都市下京区,石井筒町５１９番地６０５号,,26,106,6008496,,,,,,,2023-07-06,1,,,,,コスノス,0
1410,6140001130727,新規,0,2023-07-06,2023-07-06,株式会社冨士屋,,株式会社,兵庫県,神戸市北区,道場町日下部１６０１番地,,28,109,6511505,,,,,,,2023-07-06,1,,,,,フジヤ,0
1411,6140001130735,新規,0,2023-07-06,2023-07-06,株式会社唯咲,,株式会社,兵庫県,神戸市中央区,脇浜海岸通４丁目３番８－１５０９号,,28,110,6510073,,,,,,,2023-07-06,1,,,,,イサキ,0
1416,6170001017673,新規,0,2023-07-06,2023-07-06,平岡林業株式会社,,株式会社,和歌山県,田辺市,龍神村龍神２３０番地の１,,30,206,6450525,,,,,,,2023-07-06,1,,,,,ヒラオカリンギョウ,0
1420,6180001156909,新規,0,2023-07-06,2023-07-06,ふつき株式会社,,株式会社,愛知県,名古屋市緑区,太子２丁目１３２番地ヴェルネッツ有松１０１,,23,114,4580823,,,,,,,2023-07-06,1,,,,,フツキ,0
1422,6180003025442,新規,0,2023-07-06,2023-07-06,東海管財合同会社,,合同会社,愛知県,名古屋市中区,東桜２丁目１９番９号明治第１１ビル６０２号,,23,106,4600005,,,,,,,2023-07-06,1,,,,,トウカイカンザイ,0
1424,6180301037528,新規,0,2023-07-06,2023-07-06,株式会社ナカムラエクステリア,,株式会社,愛知県,豊田市,青木町１丁目６９番地１２,,23,211,4700335,,,,,,,2023-07-06,1,,,,,ナカムラエクステリア,0
1425,6180303005755,新規,0,2023-07-06,2023-07-06,合同会社ＮＫマネジメント,,合同会社,愛知県,豊橋市,西松山町１０番地,,23,201,4400876,,,,,,,2023-07-06,1,,,,,エヌケーマネジメント,0
1426,6190001030550,新規,0,2023-07-06,2023-07-06,棚田観光牧場株式会社,,株式会社,三重県,松阪市,飯南町深野１９０３番地,,24,204,5151301,,,,,,,2023-07-06,1,,,,,タナダカンコウボクジョウ,0
1428,6200001041471,新規,0,2023-07-06,2023-07-06,高橋組株式会社,00131089,株式会社,岐阜県,恵那市,大井町２７１４番地３９４,,21,210,5097201,,,,,,,2023-07-06,1,,,,,タカハシグミ,0
1429,6210001019376,新規,0,2023-07-06,2023-07-06,株式会社木村外構,,株式会社,福井県,福井市,高柳町第６号５番地１０,,18,201,9100803,,,,,,,2023-07-06,1,,,,,キムラガイコウ,0
1435,6240001061747,新規,0,2023-07-06,2023-07-06,ＣＴＧ株式会社,,株式会社,広島県,広島市東区,光町１丁目７番１５－２０１号,,34,102,7320052,,,,,,,2023-07-06,1,,,,,シーティージー,0
1436,6240001061771,新規,0,2023-07-06,2023-07-06,株式会社コウケン,,株式会社,広島県,広島市安佐南区,相田３丁目３４番２３号,,34,105,7310141,,,,,,,2023-07-06,1,,,,,コウケン,0
1438,6240003006213,新規,0,2023-07-06,2023-07-06,合同会社Ｋ．Ｒ．Ｓ,,合同会社,広島県,広島市安芸区,矢野東７丁目８番１号,,34,107,7360083,,,,,,,2023-07-06,1,,,,,ケーアールエス,0
1442,6260001038082,新規,0,2023-07-06,2023-07-06,アサヒロードサービス株式会社,,株式会社,岡山県,倉敷市,水島北瑞穂町１１番９号,,33,202,7128027,,,,,,,2023-07-06,1,,,,,アサヒロードサービス,0
1443,6260003004355,新規,0,2023-07-06,2023-07-06,合同会社スギハラ,,合同会社,岡山県,勝田郡勝央町,勝間田３９３番地,,33,622,7094316,,,,,,,2023-07-06,1,,,,,スギハラ,0
1445,6290001102182,新規,0,2023-07-06,2023-07-06,株式会社魚希,,株式会社,福岡県,福岡市中央区,輝国２丁目５番２２－２０４号,,40,133,8100032,,,,,,,2023-07-06,1,,,,,ウキ,0
1449,6290801029666,新規,0,2023-07-06,2023-07-06,株式会社グリーンテック,,株式会社,福岡県,北九州市八幡西区,黒崎５丁目５番４１号,,40,109,8060021,,,,,,,2023-07-06,1,,,,,グリーンテック,0
1450,6290801029674,新規,0,2023-07-06,2023-07-06,株式会社徳力,,株式会社,福岡県,北九州市小倉南区,徳力５丁目１０番１２号,,40,107,8020974,,,,,,,2023-07-06,1,,,,,トクリキ,0
1452,6310001018500,新規,0,2023-07-06,2023-07-06,江川株式会社,,株式会社,長崎県,南島原市,深江町丙１０５２番地,,42,214,8591503,,,,,,,2023-07-06,1,,,,,エガワ,0
1456,6320001019869,新規,0,2023-07-06,2023-07-06,株式会社富士見リース,,株式会社,大分県,大分市,大字横瀬１０１７番地,,44,201,8701173,,,,,,,2023-07-06,1,,,,,フジミリース,0
1458,6350001018430,新規,0,2023-07-06,2023-07-06,株式会社永山工業,,株式会社,宮崎県,都城市,野々美谷町２９６０番地３,,45,202,8851104,,,,,,,2023-07-06,1,,,,,ナガヤマコウギョウ,0
1460,6350003004395,新規,0,2023-07-06,2023-07-06,合同会社カーネリアン,,合同会社,宮崎県,宮崎市,清武町木原６３０４番地２,,45,201,8891601,,,,,,,2023-07-06,1,,,,,カーネリアン,0
1463,6370003006191,新規,0,2023-07-06,2023-07-06,ＮＣＳ合同会社,,合同会社,宮城県,角田市,角田字幸町７９番１０１号,,04,208,9811505,,,,,,,2023-07-06,1,,,,,エヌシーエス,0
1469,6390001017305,新規,0,2023-07-06,2023-07-06,ＹＰＣ株式会社,,株式会社,山形県,山形市,流通センター３丁目９番地の３,,06,201,9900071,,,,,,,2023-07-06,1,,,,,ワイピーシー,0
1475,6430003015211,新規,0,2023-07-06,2023-07-06,合同会社Ｖｉｔａ,,合同会社,北海道,小樽市,富岡２丁目３３番２９号,,01,203,0470033,,,,,,,2023-07-06,1,,,,,ヴィータ,0
1476,6430003015252,新規,0,2023-07-06,2023-07-06,合同会社ｈｏｕｎｄ,,合同会社,北海道,札幌市南区,常盤二条１丁目８‐５,,01,106,0050852,,,,,,,2023-07-06,1,,,,,ハウンド,0
1484,6500001025048,新規,0,2023-07-06,2023-07-06,ＹＡＭＡＴＯ株式会社,,株式会社,愛媛県,松山市,久保３９４番地４,,38,201,7992462,,,,,,,2023-07-06,1,,,,,ヤマト,0
1506,7010001236552,新規,0,2023-07-06,2023-07-06,株式会社ベストパートナー,,株式会社,東京都,中央区,八丁堀４丁目１２番７号,,13,102,1040032,,,,,,,2023-07-06,1,,,,,ベストパートナー,0
1507,7010001236627,新規,0,2023-07-06,2023-07-06,株式会社ＣＳＡメディカルサービス,,株式会社,東京都,中央区,日本橋兜町１７番１号日本橋ロイヤルプラザ７０６,,13,102,1030026,,,,,,,2023-07-06,1,,,,,シーエスエーメディカルサービス,0
1508,7010001236643,新規,0,2023-07-06,2023-07-06,株式会社ＣＵＲＩＯＲＩ,,株式会社,東京都,千代田区,九段南１丁目５番６号りそな九段ビル７階,,13,101,1020074,,,,,,,2023-07-06,1,,,,,キュリオリ,0
1509,7010001236692,新規,0,2023-07-06,2023-07-06,ＡＳアセットマネジメント株式会社,,株式会社,東京都,千代田区,富士見１丁目５番１－２０３号,,13,101,1020071,,,,,,,2023-07-06,1,,,,,エーエスアセットマネジメント,0
1511,7010003041050,新規,0,2023-07-06,2023-07-06,合同会社ライトハウス・リサーチ＆テクノロジーズ,,合同会社,東京都,中央区,日本橋蛎殻町１丁目１１番３号中銀日本橋マンシオン５０８,,13,102,1030014,,,,,,,2023-07-06,1,,,,,ライトハウスリサーチアンドテクノロジーズ,0
1514,7010401175417,新規,0,2023-07-06,2023-07-06,株式会社ＳＹアセットマネジメント,,株式会社,東京都,港区,愛宕２丁目５番１号愛宕グリーンヒルズＭＯＲＩタワー２４階,,13,103,1050002,,,,,,,2023-07-06,1,,,,,エスワイアセットマネジメント,0
1515,7010401175425,新規,0,2023-07-06,2023-07-06,株式会社ＤＵＳＴ　ＡＮＧＥＬ,,株式会社,東京都,港区,六本木６丁目８番１０号,,13,103,1060032,,,,,,,2023-07-06,1,,,,,ダストエンジェル,0
1516,7010401175474,新規,0,2023-07-06,2023-07-06,株式会社ｂｙ．ｎ,,株式会社,東京都,港区,北青山２丁目１２番８号ＢＩＺＳＭＡＲＴ青山,,13,103,1070061,,,,,,,2023-07-06,1,,,,,バイエヌ,0
1526,7010801034123,新規,0,2023-07-06,2023-07-06,株式会社ＹＬＳ,,株式会社,東京都,大田区,中央６丁目２９番３号,,13,111,1430024,,,,,,,2023-07-06,1,,,,,ワイエルエス,0
1528,7010901053361,新規,0,2023-07-06,2023-07-06,イーグルアセット株式会社,,株式会社,東京都,世田谷区,上用賀２丁目５番２号,,13,112,1580098,,,,,,,2023-07-06,1,,,,,イーグルアセット,0
1529,7010901053378,新規,0,2023-07-06,2023-07-06,株式会社ダイズハウス,,株式会社,東京都,世田谷区,駒沢２丁目１１番１号駒沢フォーラムガーデン７０２,,13,112,1540012,,,,,,,2023-07-06,1,,,,,ダイズハウス,0
1532,7010903008297,新規,0,2023-07-06,2023-07-06,合同会社グランドタック,,合同会社,東京都,世田谷区,北沢２丁目２７―９,,13,112,1550031,,,,,,,2023-07-06,1,,,,,グランドタック,0
1536,7011001155453,新規,0,2023-07-06,2023-07-06,株式会社アンジュドボヌール,,株式会社,東京都,目黒区,緑が丘２丁目１４番１６－７０７号自由が丘アーバンライフ,,13,110,1520034,,,,,,,2023-07-06,1,,,,,アンジュドボヌール,0
1537,7011001155461,新規,0,2023-07-06,2023-07-06,株式会社ＫＡＩＳＥ,,株式会社,東京都,渋谷区,猿楽町１２番１－１４０２号,,13,113,1500033,,,,,,,2023-07-06,1,,,,,カイセ,0
1538,7011001155486,新規,0,2023-07-06,2023-07-06,株式会社Ｈｙｐｅｒｎｏｖａ,,株式会社,東京都,渋谷区,渋谷２丁目１９－１５宮益坂ビルディング６０９,,13,113,1500002,,,,,,,2023-07-06,1,,,,,ハイパーノヴァ,0
1540,7011003017107,新規,0,2023-07-06,2023-07-06,合同会社ＳＯＵ,,合同会社,東京都,目黒区,青葉台１丁目２６番１－１００７号青葉台フラワーマンション,,13,110,1530042,,,,,,,2023-07-06,1,,,,,エスオーユー,0
1547,7011403004043,新規,0,2023-07-06,2023-07-06,合同会社ｔｈｒｅｅ　ｂａｓｅ,,合同会社,東京都,板橋区,板橋１丁目５番１２－２０１号,,13,119,1730004,,,,,,,2023-07-06,1,,,,,スリーベイス,0
1548,7011501029487,新規,0,2023-07-06,2023-07-06,株式会社Ｔ＆Ｍ,,株式会社,東京都,北区,赤羽西１丁目３１番５－２０７号,,13,117,1150055,,,,,,,2023-07-06,1,,,,,ティーアンドエム,0
1549,7011601026954,新規,0,2023-07-06,2023-07-06,株式会社エムアンコール,,株式会社,東京都,練馬区,東大泉３丁目７番８号,,13,120,1780063,,,,,,,2023-07-06,1,,,,,エムアンコール,0
1550,7011703003521,新規,0,2023-07-06,2023-07-06,Ｗ＆Ｍ合同会社,,合同会社,東京都,江戸川区,平井６丁目５番１５号３０２室,,13,123,1320035,,,,,,,2023-07-06,1,,,,,ダブリューアンドエム,0
1551,7011801042652,新規,0,2023-07-06,2023-07-06,株式会社佐藤興業,,株式会社,東京都,足立区,千住旭町２７番１１号,,13,121,1200026,,,,,,,2023-07-06,1,,,,,サトウコウギョウ,0
1552,7012401040699,新規,0,2023-07-06,2023-07-06,株式会社ＫＤＧ,,株式会社,東京都,小金井市,本町５丁目２３番３号グランシャリオ２０１,,13,210,1840004,,,,,,,2023-07-06,1,,,,,ケーディージー,0
1553,7012401040708,新規,0,2023-07-06,2023-07-06,株式会社ＧＬＯＲＩＡ,,株式会社,東京都,多摩市,唐木田１丁目６番地の４,,13,224,2060035,,,,,,,2023-07-06,1,,,,,グローリア,0
1557,7012701017728,新規,0,2023-07-06,2023-07-06,株式会社ＫＥＥＰ　ＩＴ　ＢＬＡＺＩＮＧ,,株式会社,東京都,東久留米市,南沢５丁目３番４号フィーラ南沢１Ｆ,,13,222,2030023,,,,,,,2023-07-06,1,,,,,キープイットブレイジング,0
1570,7020001152336,新規,0,2023-07-06,2023-07-06,株式会社ヒロエステート,,株式会社,神奈川県,横浜市泉区,岡津町６７３番地,,14,116,2450003,,,,,,,2023-07-06,1,,,,,ヒロエステート,0
1571,7020003024129,新規,0,2023-07-06,2023-07-06,合同会社ＰｏＬｉＣｏ,,合同会社,神奈川県,横浜市港北区,仲手原２丁目３８番３６号,,14,109,2220023,,,,,,,2023-07-06,1,,,,,ポリコ,0
1574,7021001079461,新規,0,2023-07-06,2023-07-06,株式会社ＴＡＯ　Ｂｒｏｓ．,,株式会社,神奈川県,鎌倉市,岡本１１３７番地２Ｅｓｐａｃｅ．ｎａｔｕｒｅｌ．ｋａｍａｋｕｒａ４０１,,14,204,2470072,,,,,,,2023-07-06,1,,,,,タオブロス,0
1577,7021003013278,新規,0,2023-07-06,2023-07-06,合同会社シーアール企画,,合同会社,神奈川県,厚木市,温水西１丁目１１番１０号,,14,212,2430039,,,,,,,2023-07-06,1,,,,,シーアールキカク,0
1585,7030001154752,新規,0,2023-07-06,2023-07-06,株式会社アラカイ,,株式会社,埼玉県,朝霞市,栄町１丁目５番７４－６０５号,,11,227,3510012,,,,,,,2023-07-06,1,,,,,アラカイ,0
1586,7030001154785,新規,0,2023-07-06,2023-07-06,株式会社ててり,,株式会社,埼玉県,さいたま市大宮区,大門町３丁目５９－２第２小沢ビル２階,,11,103,3300846,,,,,,,2023-07-06,1,,,,,テテリ,0
1588,7030003022049,新規,0,2023-07-06,2023-07-06,日本ペットシッターサービス草加越谷合同会社,,合同会社,埼玉県,川口市,大字安行領家６４４－５,,11,203,3340058,,,,,,,2023-07-06,1,,,,,ニホンペットシッターサービスソウカコシガヤ,0
1592,7040001129051,新規,0,2023-07-06,2023-07-06,Ｏａｔｍｅａｌ株式会社,,株式会社,千葉県,船橋市,印内２丁目３番１５号ＴＯＰ西船橋第一１０６,,12,204,2730039,,,,,,,2023-07-06,1,,,,,オートミール,0
1593,7040001129118,新規,0,2023-07-06,2023-07-06,株式会社リアトリス,,株式会社,千葉県,八千代市,村上南３丁目７番地２２,,12,221,2760029,,,,,,,2023-07-06,1,,,,,リアトリス,0
1596,7040003022898,新規,0,2023-07-06,2023-07-06,合同会社Ｒｕｎｗａｙ,,合同会社,千葉県,千葉市中央区,本千葉町３番７号メゾン・ド・ヴィレ千葉中央６０４号,,12,101,2600014,,,,,,,2023-07-06,1,,,,,ランウェイ,0
1600,7050001053077,新規,0,2023-07-06,2023-07-06,株式会社Ｋ＆Ｋ,,株式会社,茨城県,水戸市,平須町１８２８番地１９２,,08,201,3100853,,,,,,,2023-07-06,1,,,,,ケイアンドケイ,0
1601,7050001053085,新規,0,2023-07-06,2023-07-06,株式会社張山,,株式会社,茨城県,つくば市,観音台１丁目３４－１４アイビィーハウス観音台２０１,,08,220,3050856,,,,,,,2023-07-06,1,,,,,ハリヤマ,0
1602,7050003007618,新規,0,2023-07-06,2023-07-06,ｐｉｏｎｅｒｏ．ｊａｐａｎ合同会社,,合同会社,茨城県,神栖市,波崎９４６１番地９,,08,232,3140408,,,,,,,2023-07-06,1,,,,,ピオネロジャパン,0
1606,7070001040602,新規,0,2023-07-06,2023-07-06,ＳＩＮＡＮ　ＴＲＡＤＩＮＧ株式会社,,株式会社,群馬県,太田市,藤久良町６４番地９ドリームハウス藤久良Ａ－１０１,,10,205,3730035,,,,,,,2023-07-06,1,,,,,,0
1612,7080001025701,新規,0,2023-07-06,2023-07-06,株式会社Ｅｎｓｅｍｂｌｅｐｌｕｓ,,株式会社,静岡県,焼津市,大住６２２番地の２,,22,212,4250072,,,,,,,2023-07-06,1,,,,,アンサンブルプラス,0
1615,7080101024099,新規,0,2023-07-06,2023-07-06,株式会社ｉｚａｎａｇｉ,,株式会社,静岡県,伊東市,赤沢２８ー２,,22,208,4130233,,,,,,,2023-07-06,1,,,,,イザナギ,0
1621,7100001036547,新規,0,2023-07-06,2023-07-06,株式会社ＣＯＤＯ,,株式会社,長野県,松本市,安曇４３０６番地,,20,202,3901520,,,,,,,2023-07-06,1,,,,,コードー,0
1624,7110001037668,新規,0,2023-07-06,2023-07-06,株式会社ａｃｃｏｓ,,株式会社,新潟県,南魚沼市,一村尾１８４０番地２,,15,226,9497316,,,,,,,2023-07-06,1,,,,,アッコス,0
1628,7120001256143,新規,0,2023-07-06,2023-07-06,株式会社ビッグマウンテン,,株式会社,大阪府,大阪市北区,堂山町８－２１石本ビル３０１,,27,127,5300027,,,,,,,2023-07-06,1,,,,,ビッグマウンテン,0
1629,7120001256218,新規,0,2023-07-06,2023-07-06,久賀株式会社,,株式会社,大阪府,大阪市北区,梅田１丁目２番２号大阪駅前第２ビル１２－１２,,27,127,5300001,,,,,,,2023-07-06,1,,,,,クカ,0
1630,7120001256226,新規,0,2023-07-06,2023-07-06,株式会社三和,,株式会社,大阪府,大阪市浪速区,元町３丁目７番１－５０１号,,27,111,5560016,,,,,,,2023-07-06,1,,,,,ミワ,0
1631,7120001256234,新規,0,2023-07-06,2023-07-06,ダイシン株式会社,,株式会社,大阪府,大阪市旭区,新森５丁目１６番２８号,,27,117,5350022,,,,,,,2023-07-06,1,,,,,ダイシン,0
1633,7120005023713,新規,0,2023-07-06,2023-07-06,よあけ監査法人,,その他の設立登記法人,大阪府,大阪市北区,東天満２丁目９－３,,27,127,5300044,,,,,,,2023-07-06,1,,,,,ヨアケ,0
1638,7120101067820,新規,0,2023-07-06,2023-07-06,なつ電気設備株式会社,,株式会社,大阪府,羽曳野市,野４８３番地の２,,27,222,5830884,,,,,,,2023-07-06,1,,,,,ナツデンキセツビ,0
1639,7120101067829,新規,0,2023-07-06,2023-07-06,株式会社ＮＨホールディングス,,株式会社,大阪府,南河内郡千早赤阪村,大字森屋２５番地の１,,27,383,5850044,,,,,,,2023-07-06,1,,,,,エヌエイチホールディングス,0
1640,7120103005308,新規,0,2023-07-06,2023-07-06,合同会社ソトウチ,,合同会社,大阪府,羽曳野市,はびきの５丁目１番３７号,,27,222,5830872,,,,,,,2023-07-06,1,,,,,ソトウチ,0
1641,7120901047749,新規,0,2023-07-06,2023-07-06,宮地アセットマネジメント株式会社,,株式会社,大阪府,豊中市,南桜塚１丁目２２番２２号,,27,203,5610882,,,,,,,2023-07-06,1,,,,,ミヤジアセットマネジメント,0
1644,7122003002624,新規,0,2023-07-06,2023-07-06,合同会社エクシア,,合同会社,大阪府,八尾市,都塚南２丁目１０４番地,00131095,27,212,5810030,,,,,,,2023-07-06,1,,,,,エクシア,0
1652,7140001130718,新規,0,2023-07-06,2023-07-06,株式会社ＤＵＲＯ１１,,株式会社,兵庫県,姫路市,神屋町３丁目１５番地クリーンピア神屋町２０６号,,28,201,6700836,,,,,,,2023-07-06,1,,,,,ドゥーロオンセ,0
1653,7140001130750,新規,0,2023-07-06,2023-07-06,株式会社ウル設備,,株式会社,兵庫県,神戸市長田区,片山町１丁目１５番１６－２号,,28,106,6530805,,,,,,,2023-07-06,1,,,,,ウルセツビ,0
1657,7150001026519,新規,0,2023-07-06,2023-07-06,家をつくるしごと株式会社,,株式会社,奈良県,香芝市,五位堂４丁目２９０番地８,,29,210,6390226,,,,,,,2023-07-06,1,,,,,イエヲツクルシゴト,0
1667,7180003025441,新規,0,2023-07-06,2023-07-06,ｍｏｎｏｓａｓｉ合同会社,,合同会社,愛知県,名古屋市千種区,星が丘元町１２－２１,,23,101,4640802,,,,,,,2023-07-06,1,,,,,モノサシ,0
1668,7180301037527,新規,0,2023-07-06,2023-07-06,株式会社萬圓堂,,株式会社,愛知県,岡崎市,牧御堂町字郷前２番地,,23,202,4440205,,,,,,,2023-07-06,1,,,,,マンマルドウ,0
1669,7180301037535,新規,0,2023-07-06,2023-07-06,乃泉株式会社,,株式会社,愛知県,蒲郡市,三谷北通１丁目７９番地２,,23,214,4430022,,,,,,,2023-07-06,1,,,,,ノセン,0
1670,7180303005754,新規,0,2023-07-06,2023-07-06,合同会社ｍｉｃｏｓ,,合同会社,愛知県,岡崎市,梅園町字２丁目１１番地６,,23,202,4440031,,,,,,,2023-07-06,1,,,,,ミコス,0
1671,7190001030558,新規,0,2023-07-06,2023-07-06,株式会社グローファイブ,,株式会社,三重県,三重郡菰野町,大字大強原３７８９番地１,,24,341,5101222,,,,,,,2023-07-06,1,,,,,グローファイブ,0
1675,7210001019367,新規,0,2023-07-06,2023-07-06,株式会社和玄,,株式会社,福井県,鯖江市,つつじケ丘町３番２号,,18,207,9160011,,,,,,,2023-07-06,1,,,,,ワゲン,0
1676,7210001019375,新規,0,2023-07-06,2023-07-06,株式会社美濃コンストラクション,,株式会社,福井県,越前市,小野谷町第２号３２番地の１１,,18,209,9150054,,,,,,,2023-07-06,1,,,,,ミノウコンストラクション,0
1678,7230001019902,新規,0,2023-07-06,2023-07-06,Ｍｉｍｏｓａ株式会社,,株式会社,富山県,南砺市,やかた２１３番地ＦＣＣハイムＩＩ３０２号室,00131092,16,210,9391576,,,,,,,2023-07-06,1,,,,,ミモザ,0
1684,7240001061762,新規,0,2023-07-06,2023-07-06,ＨＡＲＵ株式会社,,株式会社,広島県,広島市西区,大芝３丁目１７－１５フェニックス保田１０８号,,34,104,7330001,,,,,,,2023-07-06,1,,,,,ハル,0
1688,7270001008802,新規,0,2023-07-06,2023-07-06,株式会社ＧＴ,,株式会社,鳥取県,米子市,加茂町１丁目１６番地（６０４号）,,31,202,6830823,,,,,,,2023-07-06,1,,,,,ジーティー,0
1692,7290001102140,新規,0,2023-07-06,2023-07-06,株式会社シエテックスジャパン,,株式会社,福岡県,福岡市中央区,天神１丁目１３番２１号天神商栄ビル６階,,40,133,8100001,,,,,,,2023-07-06,1,,,,,シエテックスジャパン,0
1693,7290001102181,新規,0,2023-07-06,2023-07-06,株式会社ＦＷＳ,,株式会社,福岡県,古賀市,舞の里５丁目３番１８号,,40,223,8113114,,,,,,,2023-07-06,1,,,,,エフダブルエス,0
1695,7290003014094,新規,0,2023-07-06,2023-07-06,ファーストフォレスト合同会社,,合同会社,福岡県,福岡市博多区,博多駅前１丁目２３番２号ＰａｒｋＦｒｏｎｔ博多駅前１丁目５Ｆ－Ｂ,,40,132,8120011,,,,,,,2023-07-06,1,,,,,ファーストフォレスト,0
1696,7290003014103,新規,0,2023-07-06,2023-07-06,合同会社Ｌｏｏｐ,,合同会社,福岡県,福岡市博多区,堅粕５丁目１番８号,,40,132,8120043,,,,,,,2023-07-06,1,,,,,ループ,0
1697,7290801029657,新規,0,2023-07-06,2023-07-06,株式会社藏田企画,,株式会社,福岡県,京都郡苅田町,大字新津７０３番地１,,40,621,8000344,,,,,,,2023-07-06,1,,,,,クラタキカク,0
1698,7290801029681,新規,0,2023-07-06,2023-07-06,結産業株式会社,,株式会社,福岡県,遠賀郡岡垣町,吉木東１丁目２６番１号,,40,383,8114241,,,,,,,2023-07-06,1,,,,,ユイサンギョウ,0
1701,7310001018499,新規,0,2023-07-06,2023-07-06,和光建設株式会社,,株式会社,長崎県,島原市,柏野町２８０６番地２,,42,203,8550064,,,,,,,2023-07-06,1,,,,,ワコウケンセツ,0
1705,7350003004394,新規,0,2023-07-06,2023-07-06,合同会社ヒライ,,合同会社,宮崎県,日向市,大字塩見１４５６７番地２０９,,45,206,8830033,,,,,,,2023-07-06,1,,,,,ヒライ,0
1707,7370003006190,新規,0,2023-07-06,2023-07-06,合同会社江刺,,合同会社,宮城県,大崎市,古川荒谷字新町東４７－１,,04,215,9896252,,,,,,,2023-07-06,1,,,,,エサシ,0
1711,7380001033830,新規,0,2023-07-06,2023-07-06,株式会社旭パートナーズ,,株式会社,福島県,双葉郡富岡町,大字大菅字大平１９４番地,,07,543,9791171,,,,,,,2023-07-06,1,,,,,アサヒパートナーズ,0
1712,7430001089462,新規,0,2023-07-06,2023-07-06,株式会社イレブンホーム,,株式会社,北海道,札幌市西区,二十四軒四条５丁目１番８号ＳＡＫＵＲＡ－ＫＯＴＯＮＩ,,01,107,0630804,,,,,,,2023-07-06,1,,,,,イレブンホーム,0
1715,7440001009287,新規,0,2023-07-06,2023-07-06,株式会社エフ・ツー,,株式会社,北海道,北斗市,市渡７８９－４,,01,236,0411242,,,,,,,2023-07-06,1,,,,,エフツー,0
1719,7470001019696,新規,0,2023-07-06,2023-07-06,株式会社ファースト,,株式会社,香川県,高松市,西植田町１３２９番地２,,37,201,7610445,,,,,,,2023-07-06,1,,,,,ファースト,0
1723,7480001012139,新規,0,2023-07-06,2023-07-06,株式会社澤,,株式会社,徳島県,徳島市,南二軒屋町石井利１３５２番地の１２,,36,201,7708063,,,,,,,2023-07-06,1,,,,,サワ,0
1724,7480003001998,新規,0,2023-07-06,2023-07-06,合同会社松陰徳島,,合同会社,徳島県,徳島市,安宅２丁目５番５号城東マンション１０２号,,36,201,7700863,,,,,,,2023-07-06,1,,,,,ショウイントクシマ,0
1740,8010001236634,新規,0,2023-07-06,2023-07-06,ＳＥＮＳ　ＪＡＰＡＮ株式会社,,株式会社,東京都,中央区,銀座１丁目１２番４号Ｎ＆ＥＢＬＤ．６階,,13,102,1040061,,,,,,,2023-07-06,1,,,,,センスジャパン,0
1741,8010001236642,新規,0,2023-07-06,2023-07-06,株式会社ハイローズ,,株式会社,東京都,千代田区,岩本町２丁目１６番１１－８０２号,,13,101,1010032,,,,,,,2023-07-06,1,,,,,ハイローズ,0
1742,8010001236675,新規,0,2023-07-06,2023-07-06,株式会社マーキュリアアドバイザリー,,株式会社,東京都,千代田区,内幸町１丁目３番３号内幸町ダイビル,,13,101,1000011,,,,,,,2023-07-06,1,,,,,マーキュリアアドバイザリー,0
1748,8010401175432,新規,0,2023-07-06,2023-07-06,株式会社エアトリップ,,株式会社,東京都,港区,東麻布２丁目２８番４号ヤナギサワマンション３０５号,,13,103,1060044,,,,,,,2023-07-06,1,,,,,エアトリップ,0
1752,8010601063379,新規,0,2023-07-06,2023-07-06,株式会社アイスターズ,,株式会社,東京都,江東区,東砂３丁目７番１７号,,13,108,1360074,,,,,,,2023-07-06,1,,,,,アイスターズ,0
1758,8010703006764,新規,0,2023-07-06,2023-07-06,合同会社ＣＲＥＡＴＩＶＥ　ＢｌｕｅＫ,,合同会社,東京都,品川区,北品川５丁目３番１－７１４号,,13,109,1410001,,,,,,,2023-07-06,1,,,,,クリエイティブブルーケー,0
1760,8010801034130,新規,0,2023-07-06,2023-07-06,株式会社ＡＳＡＫＵＲＡ,,株式会社,東京都,大田区,山王２丁目１１番３号ホルツ山王１０１,,13,111,1430023,,,,,,,2023-07-06,1,,,,,アサクラ,0
1761,8010901053369,新規,0,2023-07-06,2023-07-06,大和商事株式会社,,株式会社,東京都,世田谷区,奥沢６丁目９番１号,,13,112,1580083,,,,,,,2023-07-06,1,,,,,ダイワショウジ,0
1764,8011001155436,新規,0,2023-07-06,2023-07-06,音楽クラウド株式会社,,株式会社,東京都,渋谷区,神宮前３丁目２５－６神宮前ウィンテルビル３Ｆ,,13,113,1500001,,,,,,,2023-07-06,1,,,,,オンガククラウド,0
1765,8011001155460,新規,0,2023-07-06,2023-07-06,株式会社ＴＨＥ　ＭＯＬＴＳ,,株式会社,東京都,目黒区,平町２丁目１３番５号,,13,110,1520032,,,,,,,2023-07-06,1,,,,,ザモルツ,0
1766,8011001155469,新規,0,2023-07-06,2023-07-06,株式会社ワーカーズ,,株式会社,東京都,渋谷区,松濤１丁目２９番２１号サンビューハイツ松濤７０２,,13,113,1500046,,,,,,,2023-07-06,1,,,,,ワーカーズ,0
1767,8011001155485,新規,0,2023-07-06,2023-07-06,株式会社Ｃｅｒｅｂｒｏ,,株式会社,東京都,目黒区,原町２丁目５番１８号,,13,110,1520011,,,,,,,2023-07-06,1,,,,,セレブロ,0
1768,8011001155502,新規,0,2023-07-06,2023-07-06,株式会社ＦＡＮＤＯＭ,,株式会社,東京都,渋谷区,元代々木町２１番９号シルエット３０４,,13,113,1510062,,,,,,,2023-07-06,1,,,,,ファンダム,0
1770,8011003017114,新規,0,2023-07-06,2023-07-06,合同会社省エネ支援センター,,合同会社,東京都,目黒区,自由が丘２丁目１８番２５号,,13,110,1520035,,,,,,,2023-07-06,1,,,,,ショウエネシエンセンター,0
1771,8011003017122,新規,0,2023-07-06,2023-07-06,合同会社匠のあそび,,合同会社,東京都,目黒区,自由が丘２丁目１５番２３号香梅居０５号室,,13,110,1520035,,,,,,,2023-07-06,1,,,,,タクミノアソビ,0
1781,8011201024754,新規,0,2023-07-06,2023-07-06,株式会社カクブツ,,株式会社,東京都,中野区,本町６丁目２０番１２号,,13,114,1640012,,,,,,,2023-07-06,1,,,,,カクブツ,0
1782,8011203004119,新規,0,2023-07-06,2023-07-06,合同会社オグーマ,,合同会社,東京都,中野区,弥生町１丁目１４－５－１０５,,13,114,1640013,,,,,,,2023-07-06,1,,,,,オグーマ,0
1783,8011301028837,新規,0,2023-07-06,2023-07-06,株式会社ＹＣＹ,,株式会社,東京都,杉並区,下井草４丁目１７番２４号,,13,115,1670022,,,,,,,2023-07-06,1,,,,,ワイシーワイ,0
1784,8011301028845,新規,0,2023-07-06,2023-07-06,株式会社スターエンターテインメント,,株式会社,東京都,杉並区,和泉４丁目４４番１２号,,13,115,1680063,,,,,,,2023-07-06,1,,,,,スターエンターテインメント,0
1789,8011403004042,新規,0,2023-07-06,2023-07-06,合同会社ＭｅｔＡＩ,,合同会社,東京都,板橋区,東坂下２丁目２２番２６－９０４号,,13,119,1740042,,,,,,,2023-07-06,1,,,,,メットエイアイ,0
1794,8011601026945,新規,0,2023-07-06,2023-07-06,株式会社リファイン,,株式会社,東京都,練馬区,中村南２丁目１０番１３号コーズ・カトレア１Ａ,,13,120,1760025,,,,,,,2023-07-06,1,,,,,リファイン,0
1800,8011801042651,新規,0,2023-07-06,2023-07-06,株式会社永幸プランニング,,株式会社,東京都,足立区,千住東１丁目１５番５号,,13,121,1200025,,,,,,,2023-07-06,1,,,,,エイコウプランニング,0
1801,8011801042668,新規,0,2023-07-06,2023-07-06,久野株式会社,,株式会社,東京都,足立区,綾瀬２丁目２９番１号,,13,121,1200005,,,,,,,2023-07-06,1,,,,,ヒサノ,0
1806,8012401040698,新規,0,2023-07-06,2023-07-06,株式会社ｇｌａｄ,,株式会社,東京都,多摩市,一ノ宮４丁目１番地の１Ｎビル５Ｆ,,13,224,2060002,,,,,,,2023-07-06,1,,,,,グラッド,0
1807,8012703002743,新規,0,2023-07-06,2023-07-06,ＡＴＡＵ　Ｄｉｇｉｔａｌ　Ｄｅｓｉｇｎ合同会社,,合同会社,東京都,東村山市,秋津町４丁目２３－５８,,13,213,1890001,,,,,,,2023-07-06,1,,,,,アタウデジタルデザイン,0
1808,8012801022494,新規,0,2023-07-06,2023-07-06,Ｉ’Ｓ　ＮＥＴ株式会社,,株式会社,東京都,立川市,上砂町５丁目３６番地の１ＭＡＣ武蔵砂川コート２０３号,,13,202,1900032,,,,,,,2023-07-06,1,,,,,アイズネット,0
1819,8020001152368,新規,0,2023-07-06,2023-07-06,ＴＥＳ株式会社,,株式会社,神奈川県,横浜市保土ケ谷区,桜ケ丘２丁目４３番１－４３５号,,14,106,2400011,,,,,,,2023-07-06,1,,,,,テス,0
1820,8020001152376,新規,0,2023-07-06,2023-07-06,株式会社ＦＵＬＦＩＬ,,株式会社,神奈川県,横浜市南区,井土ケ谷下町２３番地５,,14,105,2320053,,,,,,,2023-07-06,1,,,,,フルフィル,0
1821,8020003024152,新規,0,2023-07-06,2023-07-06,合同会社井上建物ライフ,,合同会社,神奈川県,横浜市戸塚区,上倉田町１９１０番地１２,,14,110,2440816,,,,,,,2023-07-06,1,,,,,イノウエタテモノライフ,0
1824,8021001079460,新規,0,2023-07-06,2023-07-06,株式会社ピンクドッグス,,株式会社,神奈川県,綾瀬市,深谷中７丁目１６番３号,,14,218,2521107,,,,,,,2023-07-06,1,,,,,ピンクドッグス,0
1825,8021001079477,新規,0,2023-07-06,2023-07-06,オイアルク株式会社,,株式会社,神奈川県,逗子市,小坪２丁目１２－８,,14,208,2490008,,,,,,,2023-07-06,1,,,,,オイアルク,0
1827,8021003013260,新規,0,2023-07-06,2023-07-06,アクアリフォーム合同会社,,合同会社,神奈川県,横須賀市,阿部倉２７－１５,,14,201,2380033,,,,,,,2023-07-06,1,,,,,アクアリフォーム,0
1828,8021003013277,新規,0,2023-07-06,2023-07-06,合同会社正和,,合同会社,神奈川県,相模原市中央区,横山４丁目２３番３－１０１号,,14,152,2520242,,,,,,,2023-07-06,1,,,,,ショウワ,0
1834,8030001154719,新規,0,2023-07-06,2023-07-06,株式会社Ｎｅｖｅｒｔｙ,,株式会社,埼玉県,新座市,野火止８丁目１６番９号カーサパトリス４０７,,11,230,3520011,,,,,,,2023-07-06,1,,,,,ネバティ,0
1835,8030001154727,新規,0,2023-07-06,2023-07-06,株式会社トータルハウス,,株式会社,埼玉県,川口市,戸塚４丁目２番２号,,11,203,3330811,,,,,,,2023-07-06,1,,,,,トータルハウス,0
1836,8030001154784,新規,0,2023-07-06,2023-07-06,株式会社ＶＩＳＴＡ,,株式会社,埼玉県,川口市,戸塚南２丁目２７番１号,,11,203,3330817,,,,,,,2023-07-06,1,,,,,ビスタ,0
1837,8030001154850,新規,0,2023-07-06,2023-07-06,ハイスマ不動産株式会社,,株式会社,埼玉県,上尾市,大字瓦葺１４７３番地８,,11,219,3620022,,,,,,,2023-07-06,1,,,,,ハイスマフドウサン,0
1841,8030005021320,新規,0,2023-07-06,2023-07-06,一般社団法人片付・清掃家事代行サービスクローバー会,,その他の設立登記法人,埼玉県,坂戸市,大字石井２７７１番地１,,11,239,3500212,,,,,,,2023-07-06,1,,,,,カタヅケセイソウカジダイコウサービスクローバーカイ,0
1844,8040001129059,新規,0,2023-07-06,2023-07-06,株式会社結う,,株式会社,千葉県,我孫子市,湖北台３丁目４番２６号,,12,222,2701132,,,,,,,2023-07-06,1,,,,,ユウ,0
1845,8040001129075,新規,0,2023-07-06,2023-07-06,株式会社エムツーハウジング,,株式会社,千葉県,柏市,柏２丁目１０番２－９０５号,,12,217,2770005,,,,,,,2023-07-06,1,,,,,エムツーハウジング,0
1846,8040001129091,新規,0,2023-07-06,2023-07-06,井手塗装株式会社,,株式会社,千葉県,習志野市,新栄１丁目３番２５号,,12,216,2750005,,,,,,,2023-07-06,1,,,,,イデトソウ,0
1847,8040003022897,新規,0,2023-07-06,2023-07-06,合同会社Ｒａｎｋａ,,合同会社,千葉県,千葉市中央区,寒川町３丁目１７７番地グランフェリシア１０１号,,12,101,2600832,,,,,,,2023-07-06,1,,,,,ランカ,0
1848,8040003022914,新規,0,2023-07-06,2023-07-06,朗らかケア合同会社,,合同会社,千葉県,松戸市,新松戸３丁目３２８番地新松戸南パークハウスＡ－１０１号,,12,207,2700034,,,,,,,2023-07-06,1,,,,,ホガラカケア,0
1859,8080101024107,新規,0,2023-07-06,2023-07-06,株式会社リアライズ,,株式会社,静岡県,富士市,本町７番２１号ＵＦＣビル１階,,22,210,4160914,,,,,,,2023-07-06,1,,,,,リアライズ,0
1865,8100003007090,新規,0,2023-07-06,2023-07-06,合同会社ナショナルトラスト,,合同会社,長野県,松本市,開智２丁目２番３２号サンパレス開智３Ｆ,,20,202,3900876,,,,,,,2023-07-06,1,,,,,ナショナルトラスト,0
1866,8100003007099,新規,0,2023-07-06,2023-07-06,合同会社Ｈａｎｄ,,合同会社,長野県,諏訪市,大手１丁目５番５号,,20,206,3920026,,,,,,,2023-07-06,1,,,,,ハンド,0
1868,8110001037675,新規,0,2023-07-06,2023-07-06,株式会社楓那堂,00131086,株式会社,新潟県,柏崎市,豊町３番６５－１５号,,15,205,9450045,,,,,,,2023-07-06,1,,,,,フウナドウ,0
1875,8120001256209,新規,0,2023-07-06,2023-07-06,株式会社ｒｉｎｇＲ,,株式会社,大阪府,大阪市住吉区,南住吉１丁目１７番３０号,,27,120,5580041,,,,,,,2023-07-06,1,,,,,リングアール,0
1876,8120001256217,新規,0,2023-07-06,2023-07-06,円築株式会社,,株式会社,大阪府,大阪市西成区,旭１丁目４番２６号Ｒレジデンス難波南Ｉ１０１,,27,122,5570032,,,,,,,2023-07-06,1,,,,,エンチク,0
1877,8120001256225,新規,0,2023-07-06,2023-07-06,株式会社三好不動産,,株式会社,大阪府,大阪市中央区,瓦町２丁目３番１４号日宝瓦町ビル６階１０号室,,27,128,5410048,,,,,,,2023-07-06,1,,,,,ミヨシフドウサン,0
1878,8120001256258,新規,0,2023-07-06,2023-07-06,株式会社佐野工機,,株式会社,大阪府,大阪市東住吉区,杭全１丁目１番６号,,27,121,5460002,,,,,,,2023-07-06,1,,,,,サノコウキ,0
1879,8120001256340,新規,0,2023-07-06,2023-07-06,ヴィクトル株式会社,,株式会社,大阪府,大阪市西成区,花園北２丁目７番１１－１０１号,,27,122,5570016,,,,,,,2023-07-06,1,,,,,ヴィクトル,0
1881,8120003024431,新規,0,2023-07-06,2023-07-06,ＭＫ　Ｆａｍｉｌｙ合同会社,,合同会社,大阪府,大阪市北区,西天満３丁目４番５号西天満ワークビル,,27,127,5300047,,,,,,,2023-07-06,1,,,,,エムケーファミリー,0
1884,8120005023712,新規,0,2023-07-06,2023-07-06,一般社団法人ＥＳＰスポーツクラブ,,その他の設立登記法人,大阪府,大阪市生野区,小路２丁目４番３号,,27,116,5440002,,,,,,,2023-07-06,1,,,,,イーエスピースポーツクラブ,0
1888,8120901047748,新規,0,2023-07-06,2023-07-06,株式会社水貴,,株式会社,大阪府,吹田市,山手町４丁目１０番６号,,27,205,5640073,,,,,,,2023-07-06,1,,,,,ミズキ,0
1889,8120903004722,新規,0,2023-07-06,2023-07-06,アイビー合同会社,,合同会社,大阪府,豊中市,豊南町南４丁目７番１９号,,27,203,5610815,,,,,,,2023-07-06,1,,,,,アイビー,0
1893,8122001037134,新規,0,2023-07-06,2023-07-06,イーウエスト不動産株式会社,,株式会社,大阪府,東大阪市,岩田町６丁目５番３５号,,27,227,5780941,,,,,,,2023-07-06,1,,,,,イーウエストフドウサン,0
1895,8130001074642,新規,0,2023-07-06,2023-07-06,株式会社むらぎしｅｃｏｌｏｇｙ,,株式会社,京都府,京都市伏見区,深草谷口町５１－２１コミュニティ藤森１０１,,26,109,6120829,,,,,,,2023-07-06,1,,,,,ムラギシエコロジー,0
1896,8140001130717,新規,0,2023-07-06,2023-07-06,株式会社輝翔,,株式会社,兵庫県,姫路市,北平野南の町３番４５号,,28,201,6700887,,,,,,,2023-07-06,1,,,,,キショウ,0
1897,8140001130774,新規,0,2023-07-06,2023-07-06,株式会社ワイズライン,,株式会社,兵庫県,神戸市中央区,加納町２丁目７番１４－７０８号,,28,110,6500001,,,,,,,2023-07-06,1,,,,,ワイズライン,0
1900,8140003019256,新規,0,2023-07-06,2023-07-06,合同会社ＬＵＭＥＲＩＥ,,合同会社,兵庫県,神戸市西区,美賀多台２丁目３番地の６１,,28,111,6512277,,,,,,,2023-07-06,1,,,,,ルメリエ,0
1904,8150001026518,新規,0,2023-07-06,2023-07-06,株式会社西本自動車工業,,株式会社,奈良県,吉野郡吉野町,大字丹治５１番地,,29,441,6393114,,,,,,,2023-07-06,1,,,,,ニシモトジドウシャコウギョウ,0
1916,8180301037542,新規,0,2023-07-06,2023-07-06,株式会社アロハケア,,株式会社,愛知県,岡崎市,東明大寺町１１番地２,,23,202,4440863,,,,,,,2023-07-06,1,,,,,アロハケア,0
1917,8190001030557,新規,0,2023-07-06,2023-07-06,株式会社中島鋼建,,株式会社,三重県,鈴鹿市,庄野羽山３丁目４番３号,,24,207,5130834,,,,,,,2023-07-06,1,,,,,ナカジマコウケン,0
1918,8200003006009,新規,0,2023-07-06,2023-07-06,合同会社３Ｍ・ＲＲ　ＣＯＭＰＡＮＹ,,合同会社,岐阜県,美濃加茂市,加茂野町稲辺８１５－３,,21,211,5050055,,,,,,,2023-07-06,1,,,,,スリーエムアールアールコンパニー,0
1919,8210001019374,新規,0,2023-07-06,2023-07-06,株式会社小西農園,,株式会社,福井県,福井市,高屋町第４０号１０６番地,,18,201,9100107,,,,,,,2023-07-06,1,,,,,コニシノウエン,0
1926,8290001102164,新規,0,2023-07-06,2023-07-06,株式会社ロウタスカンパニー,,株式会社,福岡県,久留米市,東櫛原町１１６９番地,00131093,40,203,8300003,,,,,,,2023-07-06,1,,,,,ロウタスカンパニー,0
1927,8290001102172,新規,0,2023-07-06,2023-07-06,株式会社エターナリス,,株式会社,福岡県,福岡市博多区,博多駅東２丁目５番１９号サンライフ第３ビル６階,,40,132,8120013,,,,,,,2023-07-06,1,,,,,エターナリス,0
1928,8290001102180,新規,0,2023-07-06,2023-07-06,株式会社翼武道具,,株式会社,福岡県,福岡市博多区,博多駅前１丁目２３番２号,,40,132,8120011,,,,,,,2023-07-06,1,,,,,ツバサブドウグ,0
1929,8290801029672,新規,0,2023-07-06,2023-07-06,株式会社ＨａａＣ,,株式会社,福岡県,北九州市小倉北区,浅野２丁目１４番３号あるあるＣｉｔｙ２号館３階,,40,106,8020001,,,,,,,2023-07-06,1,,,,,ハック,0
1932,8330001031037,新規,0,2023-07-06,2023-07-06,ＲＧインターナショナル株式会社,,株式会社,熊本県,熊本市東区,沼山津１丁目１０番２３号,,43,102,8612102,,,,,,,2023-07-06,1,,,,,アールジーインターナショナル,0
1935,8340001025698,新規,0,2023-07-06,2023-07-06,株式会社ＭｅｉＫｉ,,株式会社,鹿児島県,鹿屋市,吾平町上名１１５８番地２,,46,203,8931101,,,,,,,2023-07-06,1,,,,,メイキ,0
1936,8340003004171,新規,0,2023-07-06,2023-07-06,Ａｃｏｍｐａｎｙ合同会社,,合同会社,鹿児島県,鹿児島市,郡元１丁目２番１１号ＲＪＲプレシア郡元３１０号,,46,201,8900065,,,,,,,2023-07-06,1,,,,,アカンパニー,0
1937,8350001018429,新規,0,2023-07-06,2023-07-06,株式会社Ｓ．Ｋ．Ｈ,,株式会社,宮崎県,宮崎市,高千穂通２丁目６番２３号サーパス宮崎駅前３０３号,,45,201,8800812,,,,,,,2023-07-06,1,,,,,エスケイエイチ,0
1938,8350003004393,新規,0,2023-07-06,2023-07-06,合同会社雅,,合同会社,宮崎県,都城市,都原町８２２３番地１２,,45,202,8850094,,,,,,,2023-07-06,1,,,,,ミヤビ,0
1939,8370001050140,新規,0,2023-07-06,2023-07-06,株式会社三和鋼産,,株式会社,宮城県,宮城郡七ヶ浜町,遠山１丁目８番３４号,,04,404,9850823,,,,,,,2023-07-06,1,,,,,ミツワコウサン,0
1947,8440001009286,新規,0,2023-07-06,2023-07-06,株式会社なりた新聞販売所,,株式会社,北海道,松前郡福島町,字福島２７１番地７３,,01,332,0491312,,,,,,,2023-07-06,1,,,,,ナリタシンブンハンバイショ,0
1948,8450001014038,新規,0,2023-07-06,2023-07-06,株式会社ＳＵＮＳＥＥＤ,,株式会社,北海道,名寄市,西三条南７丁目１番地５,,01,221,0960013,,,,,,,2023-07-06,1,,,,,サンシード,0
1950,8480001012138,新規,0,2023-07-06,2023-07-06,ジャパンテクニカルサポート株式会社,,株式会社,徳島県,板野郡松茂町,長岸２８８番地２,,36,401,7710211,,,,,,,2023-07-06,1,,,,,ジャパンテクニカルサポート,0
1951,8480003001997,新規,0,2023-07-06,2023-07-06,合同会社メイカブル,,合同会社,徳島県,徳島市,八万町下福万１１４番地の６,,36,201,7708074,,,,,,,2023-07-06,1,,,,,メイカブル,0
1952,8490001010520,新規,0,2023-07-06,2023-07-06,株式会社侑弦商事,,株式会社,高知県,安芸郡安田町,大字安田１５８９番地８,,39,304,7816421,,,,,,,2023-07-06,1,,,,,ウイトショウジ,0
1954,8500001025054,新規,0,2023-07-06,2023-07-06,ｓｕｍｕｔｏ株式会社,,株式会社,愛媛県,松山市,春美町３４２３番地４,,38,201,7918087,,,,,,,2023-07-06,1,,,,,スムト,0
1966,9010001235536,新規,0,2023-07-06,2023-07-06,カナウ株式会社,,株式会社,東京都,中央区,日本橋室町１丁目２－６日本橋大栄ビル７階,,13,102,1030022,,,,,,,2023-07-06,1,,,,,カナウ,0
1967,9010001236550,新規,0,2023-07-06,2023-07-06,株式会社雅芳堂,,株式会社,東京都,千代田区,一番町３番地８,,13,101,1020082,,,,,,,2023-07-06,1,,,,,ガホウドウ,0
1968,9010001236625,新規,0,2023-07-06,2023-07-06,採用デザインコンサルティング株式会社,,株式会社,東京都,中央区,京橋２丁目２番１号京橋エドグラン１９階,,13,102,1040031,,,,,,,2023-07-06,1,,,,,サイヨウデザインコンサルティング,0
1969,9010001236641,新規,0,2023-07-06,2023-07-06,ＣＸＯ株式会社,,株式会社,東京都,千代田区,神田神保町３丁目１０番地宝栄ビル３０１,,13,101,1010051,,,,,,,2023-07-06,1,,,,,シーエックスオー,0
1970,9010001236658,新規,0,2023-07-06,2023-07-06,株式会社ウェルスマート,,株式会社,東京都,千代田区,神田和泉町１番地６－１６ヤマトビル４０５,,13,101,1010024,,,,,,,2023-07-06,1,,,,,ウェルスマート,0
1971,9010001236732,新規,0,2023-07-06,2023-07-06,株式会社Ｍ＆Ａテレコール,,株式会社,東京都,中央区,日本橋兜町９－１４－３０２,,13,102,1030026,,,,,,,2023-07-06,1,,,,,エムアンドエーテレコール,0
1972,9010003041032,新規,0,2023-07-06,2023-07-06,合同会社Ｐｈｏｓｐｈｒ,,合同会社,東京都,中央区,日本橋室町１丁目１１－１２日本橋水野ビル７階,,13,102,1030022,,,,,,,2023-07-06,1,,,,,フォスファー,0
1973,9010003041065,新規,0,2023-07-06,2023-07-06,合同会社アジア乾杯企画,,合同会社,東京都,中央区,銀座１丁目１２番４号Ｎ＆ＥＢＬＤ．６Ｆ,,13,102,1040061,,,,,,,2023-07-06,1,,,,,アジアカンパイキカク,0
1985,9010401175448,新規,0,2023-07-06,2023-07-06,株式会社Ｏｆｆｉｃｅ　ＡＢ,,株式会社,東京都,港区,南青山２丁目２番１５号ウィン青山１２１３,,13,103,1070062,,,,,,,2023-07-06,1,,,,,オフィスエービー,0
1986,9010401175456,新規,0,2023-07-06,2023-07-06,株式会社ラニスター,,株式会社,東京都,港区,芝２丁目２８番１１号ＬｉｎｋＳｐａｃｅ芝５０１,,13,103,1050014,,,,,,,2023-07-06,1,,,,,ラニスター,0
1988,9010403030444,新規,0,2023-07-06,2023-07-06,ＴＸ４号合同会社,,合同会社,東京都,港区,浜松町２丁目２番１５号浜松町ダイヤビル２Ｆ,,13,103,1050013,,,,,,,2023-07-06,1,,,,,ティーエックスヨンゴウ,0
1989,9010403030460,新規,0,2023-07-06,2023-07-06,ドドド合同会社,,合同会社,東京都,港区,北青山１丁目３番１号アールキューブ青山３階,,13,103,1070061,,,,,,,2023-07-06,1,,,,,ドドド,0
1991,9010501050724,新規,0,2023-07-06,2023-07-06,毅京文化交流事業株式会社,,株式会社,東京都,台東区,柳橋１丁目１６番５号ジャコワ柳橋６０３号室,,13,106,1110052,,,,,,,2023-07-06,1,,,,,キキョウブンカコウリュウジギョウ,0
1995,9010601063378,新規,0,2023-07-06,2023-07-06,株式会社ＪＲ東日本スマートロジスティクス,,株式会社,東京都,墨田区,錦糸３丁目２番１号,,13,107,1300013,,,,,,,2023-07-06,1,,,,,ジェイアールヒガシニホンスマートロジスティクス,0
2000,9010701044526,新規,0,2023-07-06,2023-07-06,株式会社ＩＭ‐Ｋ,,株式会社,東京都,品川区,平塚２丁目１３番９号グランメール３０３,,13,109,1420051,,,,,,,2023-07-06,1,,,,,アイエムケイ,0
2002,9010801034121,新規,0,2023-07-06,2023-07-06,株式会社高間アソシエイツ,,株式会社,東京都,大田区,雪谷大塚町２２番８号,,13,111,1450067,,,,,,,2023-07-06,1,,,,,タカマアソシエイツ,0
2004,9010901053368,新規,0,2023-07-06,2023-07-06,株式会社フラッグマン,,株式会社,東京都,世田谷区,若林４丁目１９番４号,,13,112,1540023,,,,,,,2023-07-06,1,,,,,フラッグマン,0
2008,9011001155435,新規,0,2023-07-06,2023-07-06,Ｅ＆Ｔ　Ｐａｒｔｎｅｒｓ株式会社,,株式会社,東京都,渋谷区,神宮前３丁目２５－６神宮前ウィンテルビル３Ｆ,,13,113,1500001,,,,,,,2023-07-06,1,,,,,イーアンドティーパートナーズ,0
2009,9011001155443,新規,0,2023-07-06,2023-07-06,ａｌｌｖｉ株式会社,,株式会社,東京都,渋谷区,道玄坂１丁目１９－１１寿道玄坂ビル１０Ｆ,,13,113,1500043,,,,,,,2023-07-06,1,,,,,オルビー,0
2010,9011001155476,新規,0,2023-07-06,2023-07-06,株式会社グラフィカ,,株式会社,東京都,渋谷区,渋谷２丁目１９－１５宮益坂ビルディング６０９,,13,113,1500002,,,,,,,2023-07-06,1,,,,,グラフィカ,0
2016,9011201024745,新規,0,2023-07-06,2023-07-06,株式会社ボックス,,株式会社,東京都,中野区,大和町１丁目４番１５号,,13,114,1650034,,,,,,,2023-07-06,1,,,,,ボックス,0
2017,9011301028844,新規,0,2023-07-06,2023-07-06,株式会社Ｋ＆Ｓ,,株式会社,東京都,杉並区,西荻北４丁目１８番１２号,,13,115,1670042,,,,,,,2023-07-06,1,,,,,ケイアンドエス,0
2018,9011401025246,新規,0,2023-07-06,2023-07-06,株式会社ワールド・インシュア,,株式会社,東京都,板橋区,仲町２２番１１号光邦ビル２階,,13,119,1730022,,,,,,,2023-07-06,1,,,,,ワールドインシュア,0
2020,9011501029493,新規,0,2023-07-06,2023-07-06,ねこの手オート株式会社,,株式会社,東京都,北区,王子４丁目２１番１号,,13,117,1140002,,,,,,,2023-07-06,1,,,,,ネコノテオート,0
2021,9011501029502,新規,0,2023-07-06,2023-07-06,株式会社ハラモリ,,株式会社,東京都,荒川区,東日暮里４丁目１３番１５マンチェスターＩＩ１Ｆ,00131096,13,118,1160014,,,,,,,2023-07-06,1,,,,,ハラモリ,0
2022,9011505002562,新規,0,2023-07-06,2023-07-06,学校法人丸和学園,,その他の設立登記法人,東京都,北区,浮間３丁目１９番２１号,,13,117,1150051,,,,,,,2023-07-06,1,,,,,マルワガクエン,0
2023,9011601026952,新規,0,2023-07-06,2023-07-06,株式会社レム・コンサルティング,,株式会社,東京都,練馬区,東大泉４丁目２２番１３号,,13,120,1780063,,,,,,,2023-07-06,1,,,,,レムコンサルティング,0
2024,9011603003982,新規,0,2023-07-06,2023-07-06,合同会社ＴＳＥＣ,,合同会社,東京都,練馬区,石神井台１丁目１１番１－３０２号,,13,120,1770045,,,,,,,2023-07-06,1,,,,,ティーエスイーシー,0
2025,9011801042650,新規,0,2023-07-06,2023-07-06,大勝商事株式会社,,株式会社,東京都,足立区,新田１丁目８番６号,,13,121,1230865,,,,,,,2023-07-06,1,,,,,タイショウショウジ,0
2026,9011801042659,新規,0,2023-07-06,2023-07-06,株式会社愛善,,株式会社,東京都,葛飾区,東新小岩８丁目３番３号,,13,122,1240023,,,,,,,2023-07-06,1,,,,,アイゼン,0
2027,9011803005721,新規,0,2023-07-06,2023-07-06,合同会社実践商学研究所,,合同会社,東京都,葛飾区,青戸５丁目３１番１７号金線００３３,,13,122,1250062,,,,,,,2023-07-06,1,,,,,ジッセンショウガクケンキュウジョ,0
2028,9012401040697,新規,0,2023-07-06,2023-07-06,北海道びらとり農場株式会社,,株式会社,東京都,武蔵野市,吉祥寺南町３丁目１７番５号,,13,203,1800003,,,,,,,2023-07-06,1,,,,,ホッカイドウビラトリノウジョウ,0
2029,9012401040706,新規,0,2023-07-06,2023-07-06,株式会社マリオスター,,株式会社,東京都,調布市,仙川町１丁目１６番地７,,13,208,1820002,,,,,,,2023-07-06,1,,,,,マリオスター,0
2030,9012403006060,新規,0,2023-07-06,2023-07-06,Ｈｅｕｒｅｕｓｅ合同会社,,合同会社,東京都,府中市,四谷４丁目５３－７８,,13,206,1830035,,,,,,,2023-07-06,1,,,,,ウールーズ,0
2031,9012801022493,新規,0,2023-07-06,2023-07-06,株式会社プロステクノ,,株式会社,東京都,昭島市,東町３丁目６番１号産業サポートスクエア・ＴＡＭＡ経営サポート館３０５号室,,13,207,1960033,,,,,,,2023-07-06,1,,,,,プロステクノ,0
2032,9013103001244,新規,0,2023-07-06,2023-07-06,ＫＥＩＣＡバックオフィス合同会社,,合同会社,東京都,あきる野市,入野１８４－７,,13,228,1900161,,,,,,,2023-07-06,1,,,,,ケイカバックオフィス,0
2034,9013301051009,新規,0,2023-07-06,2023-07-06,株式会社プランタン,,株式会社,東京都,豊島区,池袋４丁目３番６号オークヒルズ３０３,,13,116,1710014,,,,,,,2023-07-06,1,,,,,プランタン,0
2039,9030001154692,新規,0,2023-07-06,2023-07-06,株式会社Ｐチーム,,株式会社,埼玉県,さいたま市西区,大字指扇１５１４番地１,,11,101,3310047,,,,,,,2023-07-06,1,,,,,ピーチーム,0
2040,9030001154734,新規,0,2023-07-06,2023-07-06,モグ株式会社,,株式会社,埼玉県,所沢市,大字北秋津９６番地の１リーベスト所沢３０８,,11,208,3590038,,,,,,,2023-07-06,1,,,,,モグ,0
2041,9030001154783,新規,0,2023-07-06,2023-07-06,株式会社ＧＩＳメディア,,株式会社,埼玉県,さいたま市大宮区,桜木町１丁目２６６番地３シンワＫＩビル２Ｆ,00131094,11,103,3300854,,,,,,,2023-07-06,1,,,,,ジーアイエスメディア,0
2048,9040001129082,新規,0,2023-07-06,2023-07-06,株式会社嘉誠建設,,株式会社,千葉県,船橋市,金杉８丁目５番２号,,12,204,2730853,,,,,,,2023-07-06,1,,,,,カセイケンセツ,0
2049,9040001129116,新規,0,2023-07-06,2023-07-06,株式会社成電業,,株式会社,千葉県,木更津市,請西南２丁目１８番地７クロシェット５－１０２,,12,206,2920807,,,,,,,2023-07-06,1,,,,,ナリデンギョウ,0
2050,9040001129132,新規,0,2023-07-06,2023-07-06,日吉通株式会社,,株式会社,千葉県,富里市,日吉台３丁目２３番地１１,,12,233,2860201,,,,,,,2023-07-06,1,,,,,ヒヨシツウ,0
2055,9040003022905,新規,0,2023-07-06,2023-07-06,鯉渕電子合同会社,,合同会社,千葉県,松戸市,六高台５丁目５５番地の１アンビシャス松戸六高台３０４号,,12,207,2702203,,,,,,,2023-07-06,1,,,,,コイブチデンシ,0
2056,9040005022060,新規,0,2023-07-06,2023-07-06,ＩＰＵＪ日本ユナイテッドペンテコスタル教会,,その他の設立登記法人,千葉県,千葉市中央区,南町３丁目５番８号,,12,101,2600842,,,,,,,2023-07-06,1,,,,,アイピーユージェイニホンユナイテッドペンテコスタルキョウカイ,0
2057,9060001036137,新規,0,2023-07-06,2023-07-06,株式会社８Ｔｒｅｅ,,株式会社,栃木県,芳賀郡芳賀町,大字八ツ木８２番地５９,,09,345,3213306,,,,,,,2023-07-06,1,,,,,エイトツリー,0
2061,9080101010923,新規,0,2023-07-06,2023-07-06,株式会社エー・エー・ジェイ,,株式会社,静岡県,富士市,北松野８８０番地,,22,210,4213301,,,,,,,2023-07-06,1,,,,,エーエージェイ,0
2071,9100001036553,新規,0,2023-07-06,2023-07-06,株式会社アレックスプロデュース,,株式会社,長野県,佐久市,岩村田１１０９番地４,,20,217,3850022,,,,,,,2023-07-06,1,,,,,アレックスプロデュース,0
2077,9120001256133,新規,0,2023-07-06,2023-07-06,株式会社クリニクト,,株式会社,大阪府,大阪市西区,靱本町１丁目１０－４井出ビル９０３,,27,106,5500004,,,,,,,2023-07-06,1,,,,,クリニクト,0
2078,9120001256208,新規,0,2023-07-06,2023-07-06,株式会社ディヴァース,,株式会社,大阪府,大阪市中央区,南船場４丁目４番１０号,,27,128,5420081,,,,,,,2023-07-06,1,,,,,ディヴァース,0
2079,9120001256216,新規,0,2023-07-06,2023-07-06,ＰＲシステム株式会社,,株式会社,大阪府,大阪市東淀川区,東中島２丁目９番１５号６Ｆ,,27,114,5330033,,,,,,,2023-07-06,1,,,,,ピーアールシステム,0
2082,9120003024447,新規,0,2023-07-06,2023-07-06,合同会社ｔｗｅｎｔｙ‐ｅｉｇｈｔ,,合同会社,大阪府,大阪市北区,中崎西２丁目１番２－１４０２号,,27,127,5300015,,,,,,,2023-07-06,1,,,,,トゥエンティーエイト,0
2087,9120901047747,新規,0,2023-07-06,2023-07-06,株式会社アローズ,,株式会社,大阪府,箕面市,小野原西３丁目８番７号,,27,220,5620032,,,,,,,2023-07-06,1,,,,,アローズ,0
2090,9130001074591,新規,0,2023-07-06,2023-07-06,Ｒａｌｌｌｙ株式会社,,株式会社,京都府,京都市中京区,富小路通三条下る朝倉町５３４番地バウハウス富小路三条４０１号室,,26,104,6048074,,,,,,,2023-07-06,1,,,,,ラリー,0
2091,9130001074641,新規,0,2023-07-06,2023-07-06,株式会社Ｓｉｏｍｅ,,株式会社,京都府,宮津市,字川向１４１９番地,,26,205,6260004,,,,,,,2023-07-06,1,,,,,シオメ,0
2092,9130001074658,新規,0,2023-07-06,2023-07-06,株式会社ホプテラス,,株式会社,京都府,京都市中京区,清明町６７４－３クオン二条富小路６０２,,26,104,6040000,,,,,,,2023-07-06,1,,,,,ホプテラス,0
2093,9130005016813,新規,0,2023-07-06,2023-07-06,一般社団法人ノーベル平和賞受賞者世界サミット,,その他の設立登記法人,京都府,京都市東山区,泉涌寺山内町２５番地１８,,26,105,6050977,,,,,,,2023-07-06,1,,,,,ノーベルヘイワショウジュショウシャセカイサミット,0
2097,9140001130732,新規,0,2023-07-06,2023-07-06,株式会社ＣＲＯＳＳ,,株式会社,兵庫県,神戸市北区,西大池２丁目２番４号,,28,109,6511201,,,,,,,2023-07-06,1,,,,,クロス,0
2098,9140001130773,新規,0,2023-07-06,2023-07-06,株式会社エイコウサービス,,株式会社,兵庫県,神戸市西区,伊川谷町有瀬１５５５番地の６、５１２号,,28,111,6512113,,,,,,,2023-07-06,1,,,,,エイコウサービス,0
2099,9140001130798,新規,0,2023-07-06,2023-07-06,住友情報システム株式会社,,株式会社,兵庫県,神戸市中央区,加納町６丁目３番１－５０３号,,28,110,6500001,,,,,,,2023-07-06,1,,,,,スミトモジョウホウシステム,0
2100,9150001026517,新規,0,2023-07-06,2023-07-06,株式会社リープシード,,株式会社,奈良県,桜井市,大字三輪６１７番地の６,,29,206,6330001,,,,,,,2023-07-06,1,,,,,リープシード,0
2104,9160001025146,新規,0,2023-07-06,2023-07-06,株式会社高藤電設工業,,株式会社,滋賀県,栗東市,安養寺２丁目５番２０号,,25,208,5203015,,,,,,,2023-07-06,1,,,,,タカフジデンセツコウギョウ,0
2110,9180301037533,新規,0,2023-07-06,2023-07-06,株式会社ＴＹＭ２,,株式会社,愛知県,岡崎市,稲熊町字後田２２番地１０,,23,202,4440071,,,,,,,2023-07-06,1,,,,,ティーワイエムツー,0
2111,9180303005760,新規,0,2023-07-06,2023-07-06,合同会社ＴＧＦ,,合同会社,愛知県,豊橋市,草間町字東山２８番地,,23,201,4418141,,,,,,,2023-07-06,1,,,,,,0
2112,9190001030548,新規,0,2023-07-06,2023-07-06,株式会社ラズリメタル,,株式会社,三重県,四日市市,曙２丁目２番１７号サンエイト２０２,,24,202,5100053,,,,,,,2023-07-06,1,,,,,ラズリメタル,0
2115,9200001041444,新規,0,2023-07-06,2023-07-06,Ｓｈａｌｏｍ　Ｊａｐａｎ株式会社,,株式会社,岐阜県,加茂郡八百津町,八百津４２１６番地２,,21,505,5050301,,,,,,,2023-07-06,1,,,,,シャロームジャパン,0
2116,9200001041469,新規,0,2023-07-06,2023-07-06,株式会社ティエラ,,株式会社,岐阜県,岐阜市,東鶉２丁目６４番地４,,21,201,5008281,,,,,,,2023-07-06,1,,,,,ティエラ,0
2123,9210001019373,新規,0,2023-07-06,2023-07-06,株式会社ＵＰ　Ｓｔａｒｔ,,株式会社,福井県,福井市,米松２丁目２３番２号,,18,201,9100851,,,,,,,2023-07-06,1,,,,,アップスタート,0
2124,9220001025486,新規,0,2023-07-06,2023-07-06,株式会社ＨＴＰ,,株式会社,石川県,白山市,河内町福岡月７７番地,,17,210,9202303,,,,,,,2023-07-06,1,,,,,エイチティーピー,0
2127,9230001019900,新規,0,2023-07-06,2023-07-06,アークス株式会社,,株式会社,富山県,富山市,坂本２８２７番地１２,,16,201,9392206,,,,,,,2023-07-06,1,,,,,アークス,0
2130,9240001061769,新規,0,2023-07-06,2023-07-06,株式会社瀧川コンサルタント事務所,,株式会社,広島県,広島市中区,大手町５丁目１９番５号,,34,101,7300051,,,,,,,2023-07-06,1,,,,,タキガワコンサルタントジムショ,0
2131,9240001061777,新規,0,2023-07-06,2023-07-06,株式会社安田事務所,,株式会社,広島県,広島市中区,白島北町３番１４号,,34,101,7300001,,,,,,,2023-07-06,1,,,,,ヤスダジムショ,0
2137,9260001038088,新規,0,2023-07-06,2023-07-06,株式会社カナドリ,,株式会社,岡山県,岡山市中区,赤坂本町６番１３号,,33,102,7038288,,,,,,,2023-07-06,1,,,,,カナドリ,0
2143,9290001102139,新規,0,2023-07-06,2023-07-06,株式会社ＮＡＧＡ,,株式会社,福岡県,福岡市東区,筥松２丁目２１番１８号,,40,131,8120061,,,,,,,2023-07-06,1,,,,,ナガ,0
2144,9290001102163,新規,0,2023-07-06,2023-07-06,株式会社Ｋｉｄｓ　Ｓｐｏｒｔｓ　Ａｃｔｒｙ,,株式会社,福岡県,糟屋郡宇美町,宇美３丁目１３番７号,,40,341,8112101,,,,,,,2023-07-06,1,,,,,キッズスポーツアクトリー,0
2148,9290801029663,新規,0,2023-07-06,2023-07-06,株式会社モトヤス,,株式会社,福岡県,北九州市戸畑区,天神２丁目８番３３号,,40,105,8040094,,,,,,,2023-07-06,1,,,,,モトヤス,0
2149,9290801029671,新規,0,2023-07-06,2023-07-06,雄テック株式会社,,株式会社,福岡県,北九州市八幡東区,槻田１丁目１５番２－３０１号,,40,108,8050031,,,,,,,2023-07-06,1,,,,,ユウテック,0
2153,9310001018489,新規,0,2023-07-06,2023-07-06,株式会社サン商事,,株式会社,長崎県,佐世保市,松瀬町７８８番地,,42,202,8570102,,,,,,,2023-07-06,1,,,,,サンショウジ,0
2154,9320001019866,新規,0,2023-07-06,2023-07-06,株式会社アーツ,,株式会社,大分県,大分市,大字家島９８９番地の１,,44,201,8700113,,,,,,,2023-07-06,1,,,,,アーツ,0
2156,9340001025680,新規,0,2023-07-06,2023-07-06,株式会社くぼやま,,株式会社,鹿児島県,姶良市,西餅田２０５２番地５,,46,225,8995431,,,,,,,2023-07-06,1,,,,,クボヤマ,0
2157,9340001025697,新規,0,2023-07-06,2023-07-06,株式会社Ｅｎｄｌｅｓｓ,,株式会社,鹿児島県,鹿児島市,山之口町３番６－１００２号,,46,201,8920844,,,,,,,2023-07-06,1,,,,,エンドレス,0
2164,9380001033829,新規,0,2023-07-06,2023-07-06,株式会社ＡｕｔｏｓｈｏｐＭ．Ｉ．Ｇ,,株式会社,福島県,須賀川市,稲荷町２番地１,,07,207,9620024,,,,,,,2023-07-06,1,,,,,オートショップエムアイジー,0
2171,9400001016302,新規,0,2023-07-06,2023-07-06,ダイハツ福岡販売株式会社,,株式会社,岩手県,二戸市,福岡字八幡下４４番地,,03,213,0286101,,,,,,,2023-07-06,1,,,,,ダイハツフクオカハンバイ,0
2174,9410003003818,新規,0,2023-07-06,2023-07-06,合同会社ファイアフライ,,合同会社,秋田県,男鹿市,五里合琴川字船折沢１０番地１,,05,206,0100352,,,,,,,2023-07-06,1,,,,,ファイアフライ,0
2177,9430001089436,新規,0,2023-07-06,2023-07-06,株式会社小澤事務所,,株式会社,北海道,札幌市中央区,南五条西１５丁目２－３リズム医大前５０３号室,,01,101,0640805,,,,,,,2023-07-06,1,,,,,オザワジムショ,0
2178,9450001014045,新規,0,2023-07-06,2023-07-06,株式会社ＤＲＥＡＭＳワイズ,,株式会社,北海道,旭川市,旭町一条５丁目８４１番地の９８,,01,204,0700831,,,,,,,2023-07-06,1,,,,,ドリームワイズ,0
2180,9480001012137,新規,0,2023-07-06,2023-07-06,株式会社ねっこ農園,,株式会社,徳島県,吉野川市,鴨島町牛島１１６６番地１,,36,205,7760001,,,,,,,2023-07-06,1,,,,,ネッコノウエン,0
2181,9480003001996,新規,0,2023-07-06,2023-07-06,合同会社梶川整骨院,,合同会社,徳島県,徳島市,論田町小論田１５番地の４,,36,201,7708011,,,,,,,2023-07-06,1,,,,,カジカワセイコツイン,0
