sequenceNumber,corporateNumber,process,correct,updateDate,changeDate,name,nameImageId,kind,prefectureName,cityName,streetNumber,addressImageId,prefectureCode,cityCode,postCode,addressOutside,addressOutsideImageId,closeDate,closeCause,successorCorporateNumber,changeCause,assignmentDate,latest,enName,enPrefectureName,enCityName,enAddressOutside,furigana,hihyoji
5,1010001063077,登記記録の閉鎖等,0,2021-10-06,2021-10-01,光宏産株式会社,,株式会社,東京都,中央区,銀座７丁目４番１４号,,13,102,1040061,,,2021-10-01,合併による解散等,3010001054909,令和３年１０月１日東京都中央区銀座七丁目４番１４号光商工株式会社（3010001054909）に合併し解散,2015-10-05,1,,,,,ヒカリコウサン,0
30,1010501009463,登記記録の閉鎖等,0,2021-10-06,2021-09-29,株式会社東京白ゆり會,,株式会社,東京都,台東区,根岸３丁目７番７号,,13,106,1100003,,,2021-09-29,清算の結了等,,,2015-10-05,1,,,,,トウキョウシラユリカイ,0
36,1010702011193,登記記録の閉鎖等,0,2021-10-06,2021-10-05,有限会社マイティ製作所,,有限会社,東京都,品川区,北品川５丁目９番４３－３０８号,,13,109,1410001,,,2021-10-05,清算の結了等,,,2015-10-05,1,,,,,マイティセイサクショ,0
76,1011501021697,登記記録の閉鎖等,0,2021-10-06,2021-10-01,株式会社なつめ,,株式会社,東京都,荒川区,西尾久２丁目１５番３号,,13,118,1160011,,,2021-10-01,清算の結了等,,,2016-06-22,1,,,,,,0
93,1013301045216,登記記録の閉鎖等,0,2021-10-06,2021-09-30,株式会社ＢＬＯＣＫＷＡＲＥ　ＪＡＰＡＮ,,株式会社,東京都,豊島区,東池袋３丁目１番１号サンシャイン６０－４５階,,13,116,1700013,,,2021-09-30,清算の結了等,,,2020-02-17,1,,,,,ブロックウェアジャパン,0
113,1030001042830,登記記録の閉鎖等,0,2021-10-06,2021-09-22,株式会社エス・ゼット・ケイ,,株式会社,埼玉県,上尾市,大字領家１４番地の３,,11,219,3620066,,,2021-09-22,清算の結了等,,,2021-09-06,1,,,,,エスゼットケイ,0
157,1050002009348,登記記録の閉鎖等,0,2021-10-06,2021-09-30,有限会社山岸石材工業,,有限会社,茨城県,東茨城郡大洗町,大貫町５５３番地,,08,309,3111311,,,2021-09-30,清算の結了等,,,2015-10-05,1,,,,,ヤマギシセキザイコウギョウ,0
161,1060001031987,登記記録の閉鎖等,0,2021-10-06,2021-09-29,株式会社フローグロー,,株式会社,栃木県,宇都宮市,新里町丁５３３番地７,,09,201,3212118,,,2021-09-29,清算の結了等,,,2019-10-09,1,,,,,フローグロー,0
168,1070001024965,登記記録の閉鎖等,0,2021-10-06,2021-09-30,ＭＫエレクトロニクス株式会社,,株式会社,群馬県,高崎市,上里見町１２４２番地１,,10,202,3703345,,,2021-09-30,清算の結了等,,,2015-10-05,1,,,,,エムケイエレクトロニクス,0
181,1090003001465,登記記録の閉鎖等,0,2021-10-06,2021-09-27,合同会社アイディール,,合同会社,山梨県,北杜市,高根町東井出４９８６番地２６１,,19,209,4080003,,,2021-09-27,清算の結了等,,,2018-12-13,1,,,,,アイディール,0
182,1100001008816,登記記録の閉鎖等,0,2021-10-06,2021-10-01,笹沢建設株式会社,,株式会社,長野県,北佐久郡軽井沢町,大字長倉３７３２番地６,,20,321,3890111,,,2021-10-01,合併による解散等,7010001212041,令和３年１０月１日長野県北佐久郡軽井沢町大字長倉３７３２番地６笹沢建設株式会社（7010001212041）に合併し解散,2015-10-05,1,,,,,ササザワケンセツ,0
183,1100001020762,登記記録の閉鎖等,0,2021-10-06,2021-10-01,西部ルビコン株式会社,,株式会社,長野県,伊那市,ますみヶ丘６９８２番地１,,20,209,3960027,,,2021-10-01,合併による解散等,6100001020948,令和３年１０月１日長野県伊那市西箕輪１９３８番地１ルビコン株式会社（6100001020948）に合併し解散,2015-10-05,1,,,,,セイブルビコン,0
194,1120001057506,登記記録の閉鎖等,0,2021-10-06,2021-10-01,株式会社ＮＴＳ,,株式会社,大阪府,大阪市淀川区,東三国４丁目１番１６号,,27,123,5320002,,,2021-10-01,合併による解散等,8120001099475,令和３年１０月１日大阪市淀川区東三国四丁目３番１号株式会社ジャパンクリエイト（8120001099475）に合併し解散,2015-10-05,1,,,,,エヌティーエス,0
213,1120002007831,登記記録の閉鎖等,0,2021-10-06,2021-10-01,有限会社オリエント,,有限会社,大阪府,大阪市城東区,東中浜５丁目８番１６号,,27,118,5360023,,,2021-10-01,合併による解散等,3120001015370,令和３年１０月１日大阪市城東区東中浜五丁目８番１６号株式会社ダイショウ（3120001015370）に合併し解散,2015-10-05,1,,,,,オリエント,0
248,1160001017794,登記記録の閉鎖等,0,2021-10-06,2021-09-30,株式会社エナジーデザイン,,株式会社,滋賀県,長浜市,末広町２番２６号,,25,203,5260063,,,2021-09-30,合併による解散等,1160001006748,令和３年９月３０日滋賀県長浜市末広町２番２６号株式会社セルツホールディングス（1160001006748）に合併し解散,2015-10-05,1,,,,,エナジーデザイン,0
260,1180001126676,登記記録の閉鎖等,0,2021-10-06,2021-09-30,株式会社ヤマゴ,,株式会社,愛知県,知多郡美浜町,大字野間字狸山１番地６２,,23,446,4703235,,,2021-09-30,清算の結了等,,,2017-03-24,1,,,,,ヤマゴ,0
269,1180002010565,登記記録の閉鎖等,0,2021-10-06,2021-09-30,有限会社アイ・エヌ・ジィ建材,,有限会社,愛知県,名古屋市西区,児玉２丁目１７番３６号,,23,104,4510066,,,2021-09-30,清算の結了等,,,2015-10-05,1,,,,,アイエヌジィケンザイ,0
293,1200002017723,登記記録の閉鎖等,0,2021-10-06,2021-10-01,有限会社松栄ライン,,有限会社,岐阜県,可児市,羽生ケ丘１丁目７２番地,,21,214,5090223,,,2021-10-01,清算の結了等,,,2015-10-05,1,,,,,ショウエイライン,0
295,1200005002730,登記記録の閉鎖等,0,2021-10-06,2021-10-04,特定非営利活動法人ＮＰＯライフセキュリティ,,その他の設立登記法人,岐阜県,岐阜市,旦島１丁目４番１５号エステート１０５号室,,21,201,5020926,,,2021-10-04,清算の結了等,,,2015-10-05,1,,,,,エヌピーオーライフセキュリティ,0
303,1220001021922,登記記録の閉鎖等,0,2021-10-06,2021-10-01,株式会社ヒトタス,,株式会社,石川県,金沢市,新保本４丁目６５番地１６,,17,201,9218062,,,2021-10-01,合併による解散等,3220001018883,令和３年１０月１日石川県金沢市新保本四丁目６５番地１６ソレスト株式会社（3220001018883）に合併し解散,2017-10-26,1,,,,,ヒトタス,0
317,1260002016281,登記記録の閉鎖等,0,2021-10-06,2021-10-04,有限会社アド・オフィス,,有限会社,岡山県,倉敷市,酒津２２０１番地の１,,33,202,7100801,,,2021-10-04,清算の結了等,,,2015-10-05,1,,,,,アドオフィス,0
332,1290801026536,登記記録の閉鎖等,0,2021-10-06,2021-09-28,株式会社ワークウィズ,,株式会社,福岡県,築上郡上毛町,大字下唐原７５１番地２,,40,646,8710923,,,2021-09-28,清算の結了等,,,2020-06-01,1,,,,,ワークウィズ,0
336,1320001002409,登記記録の閉鎖等,0,2021-10-06,2021-10-04,株式会社フジサワフアーマシー,,株式会社,大分県,大分市,中鶴崎２丁目５番１６号,,44,201,8700101,,,2021-10-04,清算の結了等,,,2015-10-05,1,,,,,フジサワフアーマシー,0
349,1370001017443,登記記録の閉鎖等,0,2021-10-06,2021-10-01,株式会社ＴＣＡ,,株式会社,宮城県,仙台市太白区,富田字上野西３７番地の５,,04,104,9820033,,,2021-10-01,合併による解散等,7370001001557,令和３年１０月１日仙台市太白区富田字上野西３７番地の１株式会社クリエイティブ・コネクト・エキスパート（7370001001557）に合併し解散,2015-10-05,1,,,,,ティーシーエー,0
371,1430001015606,登記記録の閉鎖等,0,2021-10-06,2021-10-01,北稜コンサルタント株式会社,,株式会社,北海道,札幌市北区,屯田五条１２丁目９番１６号,,01,102,0020855,,,2021-10-01,合併による解散等,2430001039348,令和３年１０月１日札幌市豊平区美園二条七丁目１番２３号株式会社ソイルラボ北海道（2430001039348）に合併し解散,2015-10-05,1,,,,,ホクリョウコンサルタント,0
380,1460101001965,登記記録の閉鎖等,0,2021-10-06,2021-10-01,六花亭総業株式会社,,株式会社,北海道,帯広市,西二十四条北１丁目３番１９号,,01,207,0802464,,,2021-10-01,合併による解散等,7460101001968,令和３年１０月１日北海道帯広市西二十四条北一丁目３番１９号株式会社ふきのとう（7460101001968）に合併し解散,2015-10-05,1,,,,,ロッカテイソウギョウ,0
382,1460401001228,登記記録の閉鎖等,0,2021-10-06,2021-10-01,株式会社北海マルナカ,,株式会社,北海道,根室市,花咲港２８８番地５,,01,223,0870032,,,2021-10-01,合併による解散等,7460401000125,令和３年１０月１日北海道根室市花咲港２８８番地５株式会社杉山水産（7460401000125）に合併し解散,2021-07-02,1,,,,,ホッカイマルナカ,0
383,1470001002526,登記記録の閉鎖等,0,2021-10-06,2021-09-28,株式会社大協,,株式会社,香川県,高松市,常磐町１丁目５番地８,,37,201,7600054,,,2021-09-28,清算の結了等,,,2015-10-05,1,,,,,ダイキョウ,0
386,1470002014297,登記記録の閉鎖等,0,2021-10-06,2021-10-04,吉田被服有限会社,,有限会社,香川県,丸亀市,飯山町下法軍寺１３０２番地,,37,202,7620083,,,2021-10-04,清算の結了等,,,2015-10-05,1,,,,,ヨシダヒフク,0
395,1500002018427,登記記録の閉鎖等,0,2021-10-06,2021-10-01,有限会社四国園芸研究所,,有限会社,愛媛県,今治市,郷桜井３丁目９番３号,,38,202,7991523,,,2021-10-01,清算の結了等,,,2015-10-05,1,,,,,シコクエンゲイケンキュウショ,0
401,2010001160303,登記記録の閉鎖等,0,2021-10-06,2021-10-01,株式会社三友,,株式会社,東京都,中央区,日本橋小網町４番９号,,13,102,1030016,,,2021-10-01,清算の結了等,,,2015-10-05,1,,,,,サントモ,0
443,2010701037263,登記記録の閉鎖等,0,2021-10-06,2021-10-05,ｉ－Ｐｒｉｍｅ株式会社,,株式会社,東京都,品川区,大井３丁目３番７号,,13,109,1400014,,,2021-10-05,清算の結了等,,,2019-03-12,1,,,,,アイプライム,0
463,2011101013276,登記記録の閉鎖等,0,2021-10-06,2021-09-28,株式会社ディオス,,株式会社,東京都,新宿区,高田馬場１丁目３０番１３号,,13,104,1690075,,,2021-09-28,清算の結了等,,,2015-10-05,1,,,,,ディオス,0
495,2013301041627,登記記録の閉鎖等,0,2021-10-06,2021-10-04,株式会社リブセンスコネクト,,株式会社,東京都,品川区,上大崎２丁目２５番２号,,13,109,1410021,,,2021-10-04,清算の結了等,,,2018-01-12,1,,,,,リブセンスコネクト,0
501,2020001113053,登記記録の閉鎖等,0,2021-10-06,2021-09-28,株式会社まる喜,,株式会社,東京都,大田区,南六郷３丁目２４番９号ブランシエラ大田多摩川８０１,,13,111,1440045,,,2021-09-28,清算の結了等,,,2015-10-05,1,,,,,マルキ,0
502,2020001117426,登記記録の閉鎖等,0,2021-10-06,2021-10-01,株式会社ドッツワークス,,株式会社,神奈川県,川崎市中原区,木月１丁目３２番３号,,14,133,2110025,,,2021-10-01,清算の結了等,,,2016-08-09,1,,,,,ドッツワークス,0
511,2020002062258,登記記録の閉鎖等,0,2021-10-06,2021-09-30,有限会社Ｄｈ－ＨＡＬ,,有限会社,神奈川県,横浜市金沢区,泥亀２丁目１番１０号,,14,108,2360021,,,2021-09-30,合併による解散等,8020001003777,令和３年９月３０日横浜市港南区上大岡西二丁目２番１５号株式会社キャビン商事（8020001003777）に合併し解散,2015-10-05,1,,,,,ディーエッチハル,0
520,2021002006287,登記記録の閉鎖等,0,2021-10-06,2021-10-01,有限会社りさいくるらんど,,有限会社,神奈川県,藤沢市,鵠沼神明４丁目２番１８号,,14,205,2510021,,,2021-10-01,清算の結了等,,,2015-10-05,1,,,,,リサイクルランド,0
523,2030001046392,登記記録の閉鎖等,0,2021-10-06,2021-09-24,株式会社橘工業,,株式会社,埼玉県,富士見市,大字水子９９４番地,,11,235,3540011,,,2021-09-24,清算の結了等,,,2015-10-05,1,,,,,タチバナコウギョウ,0
565,2070002021192,登記記録の閉鎖等,0,2021-10-06,2021-10-01,有限会社東和自動車,,有限会社,群馬県,伊勢崎市,三室町４５６１番地,,10,204,3792235,,,2021-10-01,清算の結了等,,,2015-10-05,1,,,,,トウワジドウシャ,0
567,2080001013842,登記記録の閉鎖等,0,2021-10-06,2021-10-01,大東産業株式会社,,株式会社,静岡県,島田市,金谷東１丁目１２４２番地の１,,22,209,4280013,,,2021-10-01,清算の結了等,,,2015-10-05,1,,,,,ダイトウサンギョウ,0
606,2120002008606,登記記録の閉鎖等,0,2021-10-06,2021-10-01,平尾硝子有限会社,,有限会社,大阪府,大阪市城東区,今福南３丁目２番４号,,27,118,5360003,,,2021-10-01,合併による解散等,9120001207557,令和３年１０月１日大阪市城東区新喜多一丁目４番４９号ハイムシギタ２Ａ株式会社ジュエルマネージメント（9120001207557）に合併し解散,2015-10-05,1,,,,,ヒラオガラス,0
622,2130001036771,登記記録の閉鎖等,0,2021-10-06,2021-10-01,株式会社セイファー二十一,,株式会社,京都府,木津川市,加茂町駅東２丁目５番地３－１５１２,,26,214,6191154,,,2021-10-01,清算の結了等,,,2015-10-05,1,,,,,セイファーニジュウイチ,0
651,2140005021513,登記記録の閉鎖等,0,2021-10-06,2021-09-30,特定非営利活動法人いろえんぴつ,,その他の設立登記法人,兵庫県,神戸市須磨区,一ノ谷町１丁目１番１－２０６号,,28,107,6540076,,,2021-09-30,清算の結了等,,,2015-10-05,1,,,,,イロエンピツ,0
668,2180001033789,登記記録の閉鎖等,0,2021-10-06,2021-10-01,旭興業株式会社,,株式会社,愛知県,名古屋市昭和区,吹上町２丁目９番地９,,23,107,4660002,,,2021-10-01,合併による解散等,4180001038803,令和３年１０月１日名古屋市昭和区吹上町二丁目９番地９遠山産業株式会社（4180001038803）に合併し解散,2015-10-05,1,,,,,アサヒコウギョウ,0
669,2180001046056,登記記録の閉鎖等,0,2021-10-06,2021-10-01,株式会社山西流通,,株式会社,愛知県,北名古屋市,徳重米野３０番地,,23,234,4810038,,,2021-10-01,合併による解散等,7180001041630,令和３年１０月１日名古屋市中区千代田二丁目１番１３号株式会社山西（7180001041630）に合併し解散,2015-10-05,1,,,,,ヤマニシリュウツウ,0
687,2180305006739,登記記録の閉鎖等,0,2021-10-06,2021-08-30,大乗教一色教会,,その他の設立登記法人,愛知県,西尾市,一色町一色下乾地１３５番地,,23,213,4440423,,,2021-08-30,合併による解散等,5180305006918,令和３年８月３０日愛知県西尾市中町６７番地大乗教西尾教会（5180305006918）に合併し解散,2015-10-05,1,,,,,ダイジョウキョウイシキキョウカイ,0
697,2200001030965,登記記録の閉鎖等,0,2021-10-06,2021-10-04,エヌティーリンクス株式会社,,株式会社,岐阜県,山県市,青波２９４番地,,21,215,5012256,,,2021-10-04,清算の結了等,,,2015-10-05,1,,,,,エヌティーリンクス,0
704,2200005008578,登記記録の閉鎖等,0,2021-10-06,2021-08-25,天理教神箟分教会,,その他の設立登記法人,岐阜県,瑞浪市,土岐町２２６９番地の２,,21,208,5096101,,,2021-08-25,合併による解散等,4200005008576,令和３年８月２５日岐阜県瑞浪市土岐町４８３番地の１天理教明世分教会（4200005008576）に合併し解散,2015-10-05,1,,,,,テンリキョウコウノブンキョウカイ,0
706,2210001002641,登記記録の閉鎖等,0,2021-10-06,2021-10-01,日本バーウイツク株式会社,,株式会社,福井県,福井市,志比口２丁目１番１５号,,18,201,9100845,,,2021-10-01,合併による解散等,2210001000843,令和３年１０月１日福井市志比口二丁目１番１５号川崎リボン工業株式会社（2210001000843）に合併し解散,2015-10-05,1,,,,,ニホンバーウィック,0
713,2220001014561,登記記録の閉鎖等,0,2021-10-06,2021-10-01,株式会社ライフイノベーション,,株式会社,石川県,金沢市,新保本４丁目６５番地１６,,17,201,9218062,,,2021-10-01,合併による解散等,2220001008431,令和３年１０月１日石川県金沢市新保本四丁目６５番地１６株式会社ライフライン（2220001008431）に合併し解散,2015-10-05,1,,,,,ライフイノベーション,0
720,2240003003750,登記記録の閉鎖等,0,2021-10-06,2021-10-01,合同会社ＴＹＭＥ,,合同会社,広島県,福山市,東手城町１丁目８番２７号,,34,207,7210962,,,2021-10-01,合併による解散等,2240002040126,令和３年１０月１日広島県福山市東手城町一丁目１４番３６号株式会社カルク・アシスト（2240002040126）に合併し解散,2017-12-18,1,,,,,タイム,0
734,2260001035323,登記記録の閉鎖等,0,2021-10-06,2021-10-01,岡山中山精工株式会社,,株式会社,岡山県,美作市,豊野３８０番地の１,,33,215,7094224,,,2021-10-01,清算の結了等,,,2021-04-02,1,,,,,オカヤマナカヤマセイコウ,0
737,2260002030298,登記記録の閉鎖等,0,2021-10-06,2021-10-04,有限会社粟井設計,,有限会社,岡山県,美作市,北山９０７番地,,33,215,7070014,,,2021-10-04,清算の結了等,,,2015-10-05,1,,,,,アワイセッケイ,0
751,2290801016420,登記記録の閉鎖等,0,2021-10-06,2021-09-27,株式会社つる設計,,株式会社,福岡県,田川市,栄町１番２号,,40,206,8250011,,,2021-09-27,清算の結了等,,,2015-10-05,1,,,,,ツルセッケイ,0
776,2350001004442,登記記録の閉鎖等,0,2021-10-06,2021-10-01,株式会社ユーライズ,,株式会社,宮崎県,宮崎市,神宮東３丁目２番３９号,,45,201,8800056,,,2021-10-01,合併による解散等,5350002004240,令和３年１０月１日宮崎市神宮東三丁目２番３９号株式会社ホワイト急便（5350002004240）に合併し解散,2015-10-05,1,,,,,ユーライズ,0
793,2370002020123,登記記録の閉鎖等,0,2021-10-06,2021-09-27,有限会社鈴木建装,,有限会社,宮城県,富谷市,日吉台３丁目２番１０号,,04,216,9813362,,,2021-09-27,清算の結了等,,,2015-10-05,1,,,,,スズキケンソウ,0
794,2370105001573,登記記録の閉鎖等,0,2021-10-06,2021-09-27,特定非営利活動法人小十郎の郷,,その他の設立登記法人,宮城県,白石市,福岡深谷字御所内１０４,,04,206,9890731,,,2021-09-27,清算の結了等,,,2015-10-05,1,,,,,コジュウロウノサト,0
796,2380002025047,登記記録の閉鎖等,0,2021-10-06,2021-09-30,有限会社トール空調設備,,有限会社,福島県,いわき市,平北白土字木ノ下２０番地,,07,204,9708024,,,2021-09-30,清算の結了等,,,2015-10-05,1,,,,,,0
807,2430001051286,登記記録の閉鎖等,0,2021-10-06,2021-10-04,株式会社ＪＡＰＡＮ　ＧＬＯＢＡＬ　ＴＲＡＤＩＮＧ,,株式会社,北海道,小樽市,新光５丁目３番７号,,01,203,0470152,,,2021-10-04,清算の結了等,,,2015-10-05,1,,,,,,0
813,2430002059601,登記記録の閉鎖等,0,2021-10-06,2021-10-04,有限会社ハイブリッヂ綜合開発,,有限会社,北海道,苫小牧市,明野新町１丁目１８番１７号,,01,213,0530054,,,2021-10-04,清算の結了等,,,2015-10-05,1,,,,,ハイブリッジソウゴウカイハツ,0
820,2460102003365,登記記録の閉鎖等,0,2021-10-06,2021-10-04,有限会社マルシン,,有限会社,北海道,河東郡音更町,雄飛が丘仲区１番地２,,01,631,0800332,,,2021-10-04,清算の結了等,,,2015-10-05,1,,,,,マルシン,0
827,2470002015121,登記記録の閉鎖等,0,2021-10-06,2021-09-24,有限会社ペタシステム,,有限会社,福岡県,遠賀郡遠賀町,浅木３丁目９０３－２５,,40,384,8114312,,,2021-09-24,清算の結了等,,,2015-10-05,1,,,,,ペタシステム,0
843,3010002010407,登記記録の閉鎖等,0,2021-10-06,2021-09-30,有限会社斎木建装,,有限会社,東京都,千代田区,神田紺屋町３７番地,,13,101,1010035,,,2021-09-30,清算の結了等,,,2015-10-05,1,,,,,サイキケンソウ,0
852,3010401136802,登記記録の閉鎖等,0,2021-10-06,2021-10-01,ＴＫＧ株式会社,,株式会社,神奈川県,横浜市中区,尾上町４丁目５７番地,,14,104,2310015,,,2021-10-01,清算の結了等,,,2018-02-23,1,,,,,ティーケージー,0
854,3010401155587,登記記録の閉鎖等,0,2021-10-06,2021-09-22,株式会社モリエント,,株式会社,東京都,港区,赤坂６丁目１９番５３号,,13,103,1070052,,,2021-09-22,清算の結了等,,,2020-10-09,1,,,,,モリエント,0
866,3010502014436,登記記録の閉鎖等,0,2021-10-06,2021-09-29,有限会社黒門会館,,有限会社,東京都,台東区,上野１丁目２番１１号,,13,106,1100005,,,2021-09-29,清算の結了等,,,2015-10-05,1,,,,,クロモンカイカン,0
876,3010802009838,登記記録の閉鎖等,0,2021-10-06,2021-09-28,有限会社テレモ商事,,有限会社,東京都,大田区,池上４丁目１７番６号,,13,111,1460082,,,2021-09-28,清算の結了等,,,2015-10-05,1,,,,,,0
904,3011101072734,登記記録の閉鎖等,0,2021-10-06,2021-10-01,コネクトＢｔｏＢ株式会社,,株式会社,東京都,品川区,平塚１丁目１２番６号ネオス戸越１００２号室,,13,109,1420051,,,2021-10-01,清算の結了等,,,2015-10-05,1,,,,,コネクトビートゥービー,0
949,3021002042711,登記記録の閉鎖等,0,2021-10-06,2021-10-01,有限会社大和車輌サービス,,有限会社,神奈川県,綾瀬市,本蓼川４７８番地１,,14,218,2521102,,,2021-10-01,清算の結了等,,,2015-10-05,1,,,,,,0
999,3080001016233,登記記録の閉鎖等,0,2021-10-06,2021-10-01,株式会社青木電機,,株式会社,静岡県,藤枝市,藤枝２丁目６番１８号,,22,214,4260025,,,2021-10-01,清算の結了等,,,2015-10-05,1,,,,,,0
1010,3100001018037,登記記録の閉鎖等,0,2021-10-06,2021-10-01,株式会社地建,,株式会社,長野県,北佐久郡軽井沢町,大字長倉３７３２番地６,,20,321,3890111,,,2021-10-01,合併による解散等,7010001212041,令和３年１０月１日長野県北佐久郡軽井沢町大字長倉３７３２番地６笹沢建設株式会社（7010001212041）に合併し解散,2015-10-05,1,,,,,チケン,0
1013,3100002002849,登記記録の閉鎖等,0,2021-10-06,2021-10-01,有限会社大洋ホンダ,,有限会社,長野県,長野市,宮沖３５８０番地５,,20,201,3800952,,,2021-10-01,清算の結了等,,,2015-10-05,1,,,,,タイヨウホンダ,0
1014,3100002008301,登記記録の閉鎖等,0,2021-10-06,2021-10-01,有限会社太田興産,,有限会社,長野県,須坂市,大字幸高２４６番地,,20,207,3820000,,,2021-10-01,合併による解散等,4100003000470,令和３年１０月１日長野県須坂市大字幸高２４６番地共栄精機製作所株式会社（4100003000470）に合併し解散,2015-10-05,1,,,,,,0
1047,3120105003536,登記記録の閉鎖等,0,2021-10-06,2021-10-01,特定非営利活動法人人権啓発情報センター,,その他の設立登記法人,大阪府,堺市堺区,宿屋町西１丁１番２２号,,27,141,5900937,,,2021-10-01,清算の結了等,,,2015-10-05,1,,,,,ジンケンケイハツジョウホウセンター,0
1054,3122001024913,登記記録の閉鎖等,0,2021-10-06,2021-10-04,株式会社Ｋ’ｓ　Ｄｒｅａｍ,,株式会社,大阪府,東大阪市,長堂１丁目１０番２号,,27,227,5770056,,,2021-10-04,清算の結了等,,,2015-10-05,1,,,,,ケイズドリーム,0
1061,3130003004742,登記記録の閉鎖等,0,2021-10-06,2021-10-04,合同会社金魚,,合同会社,京都府,京都市東山区,三条通大橋東入大橋町１０３高樹会館４０５号,,26,105,6050009,,,2021-10-04,清算の結了等,,,2016-08-09,1,,,,,キンギョ,0
1078,3170005002534,登記記録の閉鎖等,0,2021-10-06,2021-10-01,紀南酒造組合,,その他の設立登記法人,和歌山県,有田郡有田川町,大字小川１４６５番地,,30,366,6430142,,,2021-10-01,合併による解散等,7170005001053,令和３年１０月１日和歌山市雑賀屋町１６番地和歌山酒造組合（7170005001053）に合併し解散,2015-10-05,1,,,,,キナン,0
1088,3180002019332,登記記録の閉鎖等,0,2021-10-06,2021-09-30,マエナミ工業有限会社,,有限会社,愛知県,名古屋市中川区,清船町４丁目１番地１１地先,,23,110,4540832,,,2021-09-30,清算の結了等,,,2015-10-05,1,,,,,マエナミコウギョウ,0
1089,3180002085837,登記記録の閉鎖等,0,2021-10-06,2021-09-30,有限会社中部ティーアール,,有限会社,愛知県,知多郡美浜町,美浜緑苑１丁目１４番地の８,,23,446,4703232,,,2021-09-30,清算の結了等,,,2015-10-05,1,,,,,チュウブティーアール,0
1096,3180302006071,登記記録の閉鎖等,0,2021-10-06,2021-10-01,有限会社愛協自動車,,有限会社,愛知県,豊橋市,西幸町字幸１番地の８,,23,201,4418113,,,2021-10-01,清算の結了等,,,2015-10-05,1,,,,,アイキョウジドウシャ,0
1175,3400001005987,登記記録の閉鎖等,0,2021-10-06,2021-10-01,株式会社エネシス北上,,株式会社,岩手県,北上市,村崎野２０地割８０番地,,03,206,0240004,,,2021-10-01,合併による解散等,6400001006248,令和３年１０月１日岩手県北上市村崎野２０地割８０番地株式会社丸片ガス（6400001006248）に合併し解散,2015-10-05,1,,,,,エネシスキタカミ,0
1180,3410002003493,登記記録の閉鎖等,0,2021-10-06,2021-10-01,有限会社豆の木調剤薬局,,有限会社,秋田県,秋田市,将軍野東１丁目５番１８号,,05,201,0110931,,,2021-10-01,合併による解散等,1410002002183,令和３年１０月１日秋田市将軍野東一丁目４番３８号株式会社スマイルファーマシーＨＡＮＤＡ（1410002002183）に合併し解散,2015-10-05,1,,,,,マメノキチョウザイヤッキョク,0
1185,3420005003861,登記記録の閉鎖等,0,2021-10-06,2021-08-30,天理教道分教会,,その他の設立登記法人,青森県,つがる市,富萢町去来見４８番地１,00088084,02,209,0383301,,,2021-08-30,合併による解散等,6420005003652,令和３年８月３０日青森県五所川原市字田町１１６番地天理教五所川原分教会（6420005003652）に合併し解散,2015-10-05,1,,,,,,0
1186,3430001013789,登記記録の閉鎖等,0,2021-10-06,2021-10-05,株式会社ビーユー電研,,株式会社,北海道,札幌市豊平区,福住二条９丁目１４番３０号,,01,105,0620042,,,2021-10-05,清算の結了等,,,2015-10-05,1,,,,,ビーユーデンケン,0
1202,3450002010692,登記記録の閉鎖等,0,2021-10-06,2021-10-01,有限会社マルナカ野村,,有限会社,北海道,枝幸郡中頓別町,字中頓別１６１番地３,,01,513,0985551,,,2021-10-01,合併による解散等,2450001008441,令和３年１０月１日北海道宗谷郡猿払村浜鬼志別１３８９番地株式会社野村商店（2450001008441）に合併し解散,2015-10-05,1,,,,,マルナカノムラ,0
1209,3480002003330,登記記録の閉鎖等,0,2021-10-06,2021-09-30,有限会社徳島軽運送,,有限会社,徳島県,徳島市,末広５丁目４番２９号,,36,201,7700866,,,2021-09-30,清算の結了等,,,2015-10-05,1,,,,,,0
1222,4010001149749,登記記録の閉鎖等,0,2021-10-06,2021-10-01,株式会社オルトレ,,株式会社,東京都,千代田区,神田錦町３丁目２３メットライフ神田錦町ビル４階,,13,101,1010054,,,2021-10-01,合併による解散等,1010401052118,令和３年１０月１日東京都千代田区神田錦町３－２３メットライフ神田錦町ビル４階株式会社ピーク・ワン（1010401052118）に合併し解散,2015-10-05,1,,,,,オルトレ,0
1226,4010001171224,登記記録の閉鎖等,0,2021-10-06,2021-09-29,出光ベトナム南西石油開発株式会社,,株式会社,東京都,千代田区,大手町１丁目２番１号,,13,101,1000004,,,2021-09-29,清算の結了等,,,2015-10-28,1,,,,,イデミツベトナムナンセイセキユカイハツ,0
1252,4010605002477,登記記録の閉鎖等,0,2021-10-06,2021-09-22,特定非営利活動法人すみだの江戸検定委員会,,その他の設立登記法人,東京都,墨田区,緑２丁目５番６号株式会社盛栄堂印刷所,,13,107,1300021,,,2021-09-22,清算の結了等,,,2015-10-05,1,,,,,スミダノエドケンテイイインカイ,0
1298,4012402019349,登記記録の閉鎖等,0,2021-10-06,2021-09-29,有限会社トパーズ,,有限会社,東京都,三鷹市,下連雀６丁目６番５０号,,13,204,1810013,,,2021-09-29,清算の結了等,,,2015-10-05,1,,,,,トパーズ,0
1389,4080001018534,登記記録の閉鎖等,0,2021-10-06,2021-10-04,株式会社ヘプタ,,株式会社,静岡県,静岡市清水区,馬走９７４番地の１３,,22,103,4240875,,,2021-10-04,清算の結了等,,,2015-10-05,1,,,,,ヘプタ,0
1392,4080002001324,登記記録の閉鎖等,0,2021-10-06,2021-10-01,有限会社オフィスナカオ,,有限会社,静岡県,静岡市駿河区,下川原２丁目３０番１０号,,22,102,4210113,,,2021-10-01,清算の結了等,,,2015-10-05,1,,,,,オフィスナカオ,0
1405,4110002030600,登記記録の閉鎖等,0,2021-10-06,2021-09-27,有限会社小島建築設計事務所,,有限会社,新潟県,長岡市,小国町法坂６９８番地３,,15,202,9495213,,,2021-09-27,清算の結了等,,,2015-10-05,1,,,,,コジマケンチクセッケイジムショ,0
1411,4120001111276,登記記録の閉鎖等,0,2021-10-06,2021-09-28,株式会社ＷＩＮドラッグ,,株式会社,東京都,千代田区,神田司町２丁目４番地２,,13,101,1010048,,,2021-09-28,清算の結了等,,,2015-10-05,1,,,,,ウインドラッグ,0
1412,4120001150274,登記記録の閉鎖等,0,2021-10-06,2021-09-24,株式会社西森建設,,株式会社,大阪府,枚方市,星丘２丁目３７番８号,,27,210,5730013,,,2021-09-24,清算の結了等,,,2015-10-05,1,,,,,ニシモリケンセツ,0
1413,4120001157047,登記記録の閉鎖等,0,2021-10-06,2021-10-01,株式会社アード,,株式会社,大阪府,門真市,四宮２丁目２番８号,,27,223,5710017,,,2021-10-01,合併による解散等,4120001069861,令和３年１０月１日大阪市北区南森町一丁目２番２８号株式会社フジプラス（4120001069861）に合併し解散,2015-10-05,1,,,,,アード,0
1414,4120001162328,登記記録の閉鎖等,0,2021-10-06,2021-10-01,株式会社二楽,,株式会社,大阪府,大阪市中央区,難波４丁目３番２０号,,27,128,5420076,,,2021-10-01,合併による解散等,4120001080372,令和３年１０月１日大阪市浪速区湊町一丁目２番１７－３００７号三雅商事株式会社（4120001080372）に合併し解散,2015-10-05,1,,,,,ニラク,0
1422,4120002071965,登記記録の閉鎖等,0,2021-10-06,2021-09-30,有限会社大阪相愛ケアサービスセンター,,有限会社,大阪府,寝屋川市,木田町９番３４号,,27,215,5720836,,,2021-09-30,清算の結了等,,,2015-10-05,1,,,,,オオサカソウアイケアサービスセンター,0
1472,4180001070368,登記記録の閉鎖等,0,2021-10-06,2021-09-30,株式会社プラスライフ,,株式会社,愛知県,名古屋市緑区,鳴海町字姥子山２０番地の２,,23,114,4580828,,,2021-09-30,清算の結了等,,,2015-10-05,1,,,,,プラスライフ,0
1476,4180001121443,登記記録の閉鎖等,0,2021-10-06,2021-10-01,株式会社アウル,,株式会社,愛知県,名古屋市中区,栄３丁目１３番３１号プリンセスガーデンホテルＢ１,,23,106,4600008,,,2021-10-01,清算の結了等,,,2015-12-18,1,,,,,アウル,0
1491,4180002085324,登記記録の閉鎖等,0,2021-10-06,2021-09-27,有限会社金森商会,,有限会社,愛知県,知多郡東浦町,大字森岡字前田１番地の１５,,23,442,4702101,,,2021-09-27,清算の結了等,,,2015-10-05,1,,,,,カナモリショウカイ,0
1504,4200002016846,登記記録の閉鎖等,0,2021-10-06,2021-10-01,有限会社うな好,,有限会社,岐阜県,可児市,土田２５４５番地の１３８,,21,214,5090206,,,2021-10-01,清算の結了等,,,2015-10-05,1,,,,,,0
1506,4200005009244,登記記録の閉鎖等,0,2021-10-06,2021-10-01,恵那中央通り商店街振興組合,,その他の設立登記法人,岐阜県,恵那市,大井町２６９番地の４,,21,210,5097201,,,2021-10-01,清算の結了等,,,2015-10-05,1,,,,,エナチュウオウドオリ,0
1509,4210001017183,登記記録の閉鎖等,0,2021-10-06,2021-10-01,株式会社顔茹堂,,株式会社,福井県,福井市,大町１丁目５１２番地３,,18,201,9188116,,,2021-10-01,清算の結了等,,,2018-06-15,1,,,,,ガンニョドウ,0
1515,4220001015863,登記記録の閉鎖等,0,2021-10-06,2021-10-01,株式会社エイ・エム・シィ,,株式会社,石川県,羽咋郡志賀町,若葉台１７番地,,17,384,9250375,,,2021-10-01,合併による解散等,1220001015874,令和３年１０月１日石川県羽咋郡志賀町若葉台２６番地株式会社ノトアロイ（1220001015874）に合併し解散,2015-10-05,1,,,,,エイエムシィ,0
1517,4220001016911,登記記録の閉鎖等,0,2021-10-06,2021-10-01,スズ生コン共販株式会社,,株式会社,石川県,珠洲市,若山町広栗２３部１番地１,,17,205,9271232,,,2021-10-01,清算の結了等,,,2015-10-05,1,,,,,スズナマコンキョウハン,0
1536,4280001002534,登記記録の閉鎖等,0,2021-10-06,2021-10-04,株式会社ホンダ,,株式会社,島根県,安来市,伯太町安田８６３番地６,,32,206,6920206,,,2021-10-04,清算の結了等,,,2015-10-05,1,,,,,ホンダ,0
1545,4290002049292,登記記録の閉鎖等,0,2021-10-06,2021-09-14,有限会社世和建設,,有限会社,福岡県,久留米市,本山１丁目５番１０号,,40,203,8300056,,,2021-09-14,清算の結了等,,,2015-10-05,1,,,,,,0
1547,4290003011086,登記記録の閉鎖等,0,2021-10-06,2021-09-16,ＫＭファーム合同会社,,合同会社,福岡県,福岡市城南区,別府５丁目２番５号藤和別府コープ２０２号,,40,136,8140104,,,2021-09-16,清算の結了等,,,2021-04-14,1,,,,,ケーエムファーム,0
1579,4370001009033,登記記録の閉鎖等,0,2021-10-06,2021-09-28,株式会社宝万頭本舖,,株式会社,宮城県,仙台市青葉区,上杉２丁目４番４０号,,04,101,9800011,,,2021-09-28,清算の結了等,,,2015-10-05,1,,,,,タカラマンジュウホンポ,0
1592,4380002030516,登記記録の閉鎖等,0,2021-10-06,2021-09-30,有限会社ヤマモト,,有限会社,福島県,双葉郡富岡町,大字上手岡字大石原２９番地,,07,543,9791141,,,2021-09-30,清算の結了等,,,2015-10-05,1,,,,,ヤマモト,0
1596,4390002012554,登記記録の閉鎖等,0,2021-10-06,2021-09-22,有限会社相田,,有限会社,山形県,米沢市,塩井町塩野３８３９番地の３,,06,202,9920042,,,2021-09-22,清算の結了等,,,2015-10-05,1,,,,,アイタ,0
1622,4460002002903,登記記録の閉鎖等,0,2021-10-06,2021-09-30,有限会社丸凾内田製凾,,有限会社,北海道,釧路市,大楽毛１０番地の１９,,01,206,0840917,,,2021-09-30,清算の結了等,,,2015-10-05,1,,,,,マルカンウチダセイカン,0
1625,4460102005822,登記記録の閉鎖等,0,2021-10-06,2021-10-01,有限会社篠原時計店,,有限会社,北海道,上川郡清水町,南一条２丁目１９番地,,01,636,0890137,,,2021-10-01,清算の結了等,,,2015-10-05,1,,,,,シノハラトケイテン,0
1639,5010001014860,登記記録の閉鎖等,0,2021-10-06,2021-09-29,株式会社きゃめる,,株式会社,東京都,千代田区,飯田橋１丁目７番４号,,13,101,1020072,,,2021-09-29,清算の結了等,,,2015-10-05,1,,,,,キャメル,0
1643,5010001160655,登記記録の閉鎖等,0,2021-10-06,2021-09-28,株式会社Ｂａｎｇｉｔ　Ｆｌｏｒ,,株式会社,東京都,千代田区,隼町２－１２藤和半蔵門コープ９０２号室,,13,101,1020092,,,2021-09-28,清算の結了等,,,2015-10-05,1,,,,,バンジットフロール,0
1652,5010005031530,登記記録の閉鎖等,0,2021-10-06,2021-10-01,一般社団法人センス,,その他の設立登記法人,東京都,千代田区,丸の内３丁目１番１号東京共同会計事務所内,,13,101,1000005,,,2021-10-01,清算の結了等,,,2020-03-04,1,,,,,センス,0
1659,5010401122800,登記記録の閉鎖等,0,2021-10-06,2021-10-01,ＳＢクラウド株式会社,,株式会社,東京都,港区,海岸１丁目７番１号,,13,103,1050022,,,2021-10-01,合併による解散等,9010401052465,令和３年１０月１日東京都港区海岸一丁目７番１号ソフトバンク株式会社（9010401052465）に合併し解散,2016-01-28,1,,,,,エスビークラウド,0
1684,5011001115624,登記記録の閉鎖等,0,2021-10-06,2021-09-28,ＭｏｒｎｉｎｇＴｅｃ　Ｊａｐａｎ株式会社,,株式会社,東京都,中央区,日本橋２丁目２番３号,,13,102,1030027,,,2021-09-28,清算の結了等,,,2017-04-05,1,,,,,モーニングテックジャパン,0
1709,5011701013945,登記記録の閉鎖等,0,2021-10-06,2021-09-29,株式会社となりの,,株式会社,東京都,江戸川区,東葛西３丁目１３番１７号,,13,123,1340084,,,2021-09-29,清算の結了等,,,2015-10-05,1,,,,,,0
1712,5011801021757,登記記録の閉鎖等,0,2021-10-06,2021-10-04,株式会社ＴＳ企画,,株式会社,東京都,足立区,加賀２丁目１０番９号,,13,121,1230861,,,2021-10-04,清算の結了等,,,2015-10-05,1,,,,,,0
1745,5021002061965,登記記録の閉鎖等,0,2021-10-06,2021-09-30,有限会社清水空調湘南,,有限会社,神奈川県,平塚市,馬入２２６８番地９,,14,203,2540023,,,2021-09-30,清算の結了等,,,2015-10-05,1,,,,,シミズクウチョウショウナン,0
1746,5021002063557,登記記録の閉鎖等,0,2021-10-06,2021-09-29,有限会社勝美食堂,,有限会社,神奈川県,横須賀市,久里浜４丁目５番４号,,14,201,2390831,,,2021-09-29,清算の結了等,,,2015-10-05,1,,,,,カツミショクドウ,0
1778,5040002032438,登記記録の閉鎖等,0,2021-10-06,2021-09-21,有限会社インクライン,,有限会社,千葉県,市川市,曽谷６丁目４番６号,,12,203,2720832,,,2021-09-21,清算の結了等,,,2015-10-05,1,,,,,インクライン,0
1779,5040002087903,登記記録の閉鎖等,0,2021-10-06,2021-09-29,有限会社江畑工務店,,有限会社,千葉県,香取郡東庄町,新宿２２６８番地の１,,12,349,2890611,,,2021-09-29,清算の結了等,,,2015-10-05,1,,,,,エバタコウムテン,0
1781,5050001040325,登記記録の閉鎖等,0,2021-10-06,2021-09-30,株式会社アグクリ,,株式会社,茨城県,鉾田市,造谷９０１番地２０２,,08,234,3111415,,,2021-09-30,清算の結了等,,,2016-01-06,1,,,,,アグクリ,0
1800,5080001008138,登記記録の閉鎖等,0,2021-10-06,2021-10-01,清水銀キャリアップ株式会社,,株式会社,静岡県,静岡市清水区,富士見町２番１号,,22,103,4240941,,,2021-10-01,清算の結了等,,,2015-10-05,1,,,,,シミズギンキャリアップ,0
1804,5080401020592,登記記録の閉鎖等,0,2021-10-06,2021-10-01,株式会社Ｍ＆Ｍ,,株式会社,静岡県,磐田市,国府台１１番地５,,22,211,4380077,,,2021-10-01,合併による解散等,9080401020507,令和３年１０月１日静岡県磐田市国府台１１番地５株式会社健悠（9080401020507）に合併し解散,2015-10-05,1,,,,,エムアンドエム,0
1814,5100001026797,登記記録の閉鎖等,0,2021-10-06,2021-10-01,ミックスドシグナル・アプリケーション・センター株式会社,,株式会社,長野県,上田市,常田１丁目１０番３号,,20,203,3860018,,,2021-10-01,合併による解散等,7100001011310,令和３年１０月１日長野県上田市常田一丁目１０番３号笠原工業株式会社（7100001011310）に合併し解散,2015-10-05,1,,,,,ミックスドシグナルアプリケーションセンター,0
1856,5122001007362,登記記録の閉鎖等,0,2021-10-06,2021-10-04,株式会社宮地鉄工,,株式会社,大阪府,東大阪市,御厨６丁目２番３４号,,27,227,5770032,,,2021-10-04,清算の結了等,,,2015-10-05,1,,,,,ミヤジテッコウ,0
1898,5180003012755,登記記録の閉鎖等,0,2021-10-06,2021-10-01,株式会社ケーツー,,株式会社,愛知県,半田市,有楽町８丁目２６番地の２,,23,205,4750837,,,2021-10-01,合併による解散等,6180001091734,令和３年１０月１日愛知県半田市有楽町八丁目２６番地の２株式会社ＣＡＣ（6180001091734）に合併し解散,2015-10-05,1,,,,,ケーツー,0
1915,5200005009243,登記記録の閉鎖等,0,2021-10-06,2021-10-01,恵那銀座商店街振興組合,,その他の設立登記法人,岐阜県,恵那市,大井町２３１番地６,,21,210,5097201,,,2021-10-01,清算の結了等,,,2015-10-05,1,,,,,エナギンザ,0
1920,5220002013799,登記記録の閉鎖等,0,2021-10-06,2021-10-01,有限会社澤井電機商会,,有限会社,石川県,七尾市,小島町大開地１番地の２２,,17,202,9260852,,,2021-10-01,清算の結了等,,,2015-10-05,1,,,,,サワイデンキショウカイ,0
1934,5260001024249,登記記録の閉鎖等,0,2021-10-06,2021-10-01,株式会社アール・エステートサービス,,株式会社,岡山県,岡山市北区,蕃山町３番７号,,33,101,7000818,,,2021-10-01,合併による解散等,7260001007086,令和３年１０月１日岡山市東区西大寺上一丁目１番５０号両備ホールディングス株式会社（7260001007086）に合併し解散,2015-10-05,1,,,,,アールエステートサービス,0
1938,5260002033793,登記記録の閉鎖等,0,2021-10-06,2021-10-04,有限会社落合タイヤ,,有限会社,岡山県,真庭市,上市瀬１６２番地,,33,214,7193141,,,2021-10-04,清算の結了等,,,2015-10-05,1,,,,,オチアイタイヤ,0
1949,5290002037627,登記記録の閉鎖等,0,2021-10-06,2021-09-17,有限会社平田自動車,,有限会社,福岡県,糟屋郡篠栗町,大字和田９４０番地３６,,40,342,8112414,,,2021-09-17,清算の結了等,,,2015-10-05,1,,,,,ヒラタジドウシャ,0
1955,5290802019205,登記記録の閉鎖等,0,2021-10-06,2021-09-28,有限会社田建,,有限会社,福岡県,北九州市若松区,東二島１丁目１３番１６号,,40,103,8080102,,,2021-09-28,清算の結了等,,,2015-10-05,1,,,,,デンケン,0
1956,5300001007075,登記記録の閉鎖等,0,2021-10-06,2021-10-01,株式会社ミヤキ,,株式会社,佐賀県,鳥栖市,桜町１１０６番地,,41,203,8410014,,,2021-10-01,清算の結了等,,,2015-10-05,1,,,,,ミヤキ,0
1959,5300005003005,登記記録の閉鎖等,0,2021-10-06,2021-09-30,特定非営利活動法人ともしび,,その他の設立登記法人,佐賀県,佐賀市,鍋島町大字森田２０７５番地１,,41,201,8490936,,,2021-09-30,清算の結了等,,,2015-10-05,1,,,,,トモシビ,0
1963,5340002018885,登記記録の閉鎖等,0,2021-10-06,2021-09-30,川畑水産有限会社,,有限会社,鹿児島県,指宿市,山川成川字塩干形７４６６番地,,46,210,8910516,,,2021-09-30,清算の結了等,,,2015-10-05,1,,,,,カワバタスイサン,0
1981,5380005006900,登記記録の閉鎖等,0,2021-10-06,2021-09-30,医療法人平田小児科医院,,その他の設立登記法人,福島県,南相馬市,原町区錦町２丁目５５番地,,07,212,9750031,,,2021-09-30,清算の結了等,,,2015-10-05,1,,,,,ヒラタショウニカイイン,0
2002,5460001004040,登記記録の閉鎖等,0,2021-10-06,2021-10-04,株式会社誠建工業,,株式会社,北海道,釧路市,緑ケ岡２丁目３９番５号,,01,206,0850814,,,2021-10-04,清算の結了等,,,2015-10-05,1,,,,,セイケンコウギョウ,0
2009,5490002001240,登記記録の閉鎖等,0,2021-10-06,2021-10-05,有限会社クチュール舞,,有限会社,高知県,高知市,はりまや町１丁目９番４号,,39,201,7800822,,,2021-10-05,清算の結了等,,,2015-10-05,1,,,,,クチュールマイ,0
2016,6010001103679,登記記録の閉鎖等,0,2021-10-06,2021-10-01,日生総合サービス株式会社,,株式会社,東京都,中央区,日本橋人形町３丁目６番７号,,13,102,1030013,,,2021-10-01,合併による解散等,4010001053224,令和３年１０月１日東京都中央区日本橋人形町三丁目６番７号日生株式会社（4010001053224）に合併し解散,2015-10-05,1,,,,,ニッセイソウゴウサービス,0
2073,6010901024529,登記記録の閉鎖等,0,2021-10-06,2021-10-01,株式会社ＴＹ　Ｋｉｔｃｈｅｎ,,株式会社,東京都,品川区,東品川２丁目６番１０号,,13,109,1400002,,,2021-10-01,清算の結了等,,,2015-10-05,1,,,,,ティーワイキッチン,0
2078,6010902012557,登記記録の閉鎖等,0,2021-10-06,2021-09-30,有限会社日の出園,,有限会社,東京都,世田谷区,上馬２丁目３０番１６号,,13,112,1540011,,,2021-09-30,清算の結了等,,,2015-10-05,1,,,,,ヒノデエン,0
2097,6011103008766,登記記録の閉鎖等,0,2021-10-06,2021-09-27,合同会社サウス,,合同会社,東京都,新宿区,四谷１丁目４番地あると綜合事務所内,,13,104,1600004,,,2021-09-27,清算の結了等,,,2019-04-24,1,,,,,サウス,0
2132,6021002046478,登記記録の閉鎖等,0,2021-10-06,2021-10-01,有限会社伸和金型製作所,,有限会社,神奈川県,綾瀬市,上土棚中４丁目８番５２号,,14,218,2521113,,,2021-10-01,清算の結了等,,,2015-10-05,1,,,,,シンワカナガタセイサクジョ,0
2150,6030002021523,登記記録の閉鎖等,0,2021-10-06,2021-09-22,有限会社なりたや,,有限会社,埼玉県,さいたま市岩槻区,加倉５丁目７番１０号,,11,110,3390056,,,2021-09-22,清算の結了等,,,2015-10-05,1,,,,,ナリタヤ,0
2192,6090003001329,登記記録の閉鎖等,0,2021-10-06,2021-09-30,レイスリー合同会社,,合同会社,山梨県,北杜市,高根町清里３５４５番地１,,19,209,4070301,,,2021-09-30,清算の結了等,,,2017-08-14,1,,,,,レイスリー,0
2193,6100001020188,登記記録の閉鎖等,0,2021-10-06,2021-09-27,株式会社ＴＨＤ,,株式会社,長野県,上伊那郡箕輪町,大字中箕輪１０３２０番地９,,20,383,3994601,,,2021-09-27,清算の結了等,,,2015-10-05,1,,,,,ティーエイチディー,0
2214,6120001206347,登記記録の閉鎖等,0,2021-10-06,2021-10-01,シャダツ株式会社,,株式会社,大阪府,大阪市西区,江戸堀１丁目２３番１４号新坂ビル１０３,,27,106,5500002,,,2021-10-01,清算の結了等,,,2017-06-09,1,,,,,シャダツ,0
2281,6190002019510,登記記録の閉鎖等,0,2021-10-06,2021-10-04,オー・ケー・アール・ジー有限会社,,有限会社,三重県,四日市市,山分町６５番地,,24,202,5128041,,,2021-10-04,清算の結了等,,,2015-10-05,1,,,,,オーケーアールジー,0
2282,6190003002242,登記記録の閉鎖等,0,2021-10-06,2021-10-04,合同会社エレマンの気まぐれ商店,,合同会社,三重県,志摩市,大王町波切９２８番地８,,24,215,5170603,,,2021-10-04,清算の結了等,,,2015-10-05,1,,,,,エレマンノキマグレショウテン,0
2314,6260005000625,登記記録の閉鎖等,0,2021-10-06,2021-08-30,天理教岡富分教会,,その他の設立登記法人,岡山県,岡山市南区,藤田６４９番地６６,,33,104,7010221,,,2021-08-30,合併による解散等,1260005004176,令和３年８月３０日岡山県倉敷市玉島爪崎２４５番地天理教乙島分教会（1260005004176）に合併し解散,2015-10-05,1,,,,,テンリキョウオカトミブンキョウカイ,0
2317,6280001008067,登記記録の閉鎖等,0,2021-10-06,2021-10-01,株式会社勇興業,,株式会社,島根県,益田市,乙吉町イ３４４番地１６,,32,204,6980003,,,2021-10-01,清算の結了等,,,2019-10-04,1,,,,,ユウコウギョウ,0
2318,6280002006862,登記記録の閉鎖等,0,2021-10-06,2021-10-01,有限会社あるぱ,,有限会社,島根県,出雲市,小山町３０７番地１ポレスター出雲１２０３,,32,203,6930051,,,2021-10-01,清算の結了等,,,2015-10-05,1,,,,,アルパ,0
2340,6290802018767,登記記録の閉鎖等,0,2021-10-06,2021-09-27,有限会社うらた,,有限会社,福岡県,北九州市若松区,本町１丁目４番１７号,,40,103,8080034,,,2021-09-27,清算の結了等,,,2015-10-05,1,,,,,ウラタ,0
2362,6340005006382,登記記録の閉鎖等,0,2021-10-06,2021-09-30,特定非営利活動法人鹿児島ＡＳＣ,,その他の設立登記法人,鹿児島県,鹿児島市,坂之上２丁目１４番２８号,,46,201,8910150,,,2021-09-30,清算の結了等,,,2015-10-05,1,,,,,カゴシマエーエスシー,0
2363,6350002014016,登記記録の閉鎖等,0,2021-10-06,2021-10-01,有限会社ギャラリー二一二,,有限会社,宮崎県,都城市,天神町２街区１２号,,45,202,8850031,,,2021-10-01,清算の結了等,,,2015-10-05,1,,,,,ギャラリーニイチニ,0
2382,6400001006181,登記記録の閉鎖等,0,2021-10-06,2021-10-04,株式会社東北地質センター,,株式会社,岩手県,北上市,村崎野１５地割２０７番２０,,03,206,0240004,,,2021-10-04,合併による解散等,9400001000537,令和３年１０月１日岩手県盛岡市川目第１１地割４番地の２株式会社共同地質センター（9400001000537）に合併し解散,2015-10-05,1,,,,,トウホクチシツセンター,0
2400,6430002032975,登記記録の閉鎖等,0,2021-10-06,2021-09-30,有限会社三恵プロジェクト,,有限会社,北海道,北広島市,美沢２丁目２番地３,,01,234,0611131,,,2021-09-30,清算の結了等,,,2015-10-05,1,,,,,サンケイプロジェクト,0
2405,6450002003355,登記記録の閉鎖等,0,2021-10-06,2021-10-05,有限会社武野餅菓子専問店,00090699,有限会社,北海道,旭川市,常盤通２丁目,,01,204,0700043,,,2021-10-05,清算の結了等,,,2015-10-05,1,,,,,タケノモチカシセンモンテン,0
2406,6450002008833,登記記録の閉鎖等,0,2021-10-06,2021-10-04,有限会社神田商事,,有限会社,北海道,旭川市,三条通８丁目８４２番地２,,01,204,0700033,,,2021-10-04,清算の結了等,,,2015-10-05,1,,,,,カンダショウジ,0
2414,6480005002260,登記記録の閉鎖等,0,2021-10-06,2021-09-28,特定非営利活動法人まごころサービス徳島センター,,その他の設立登記法人,徳島県,徳島市,大道３丁目２２番１号,,36,201,7700923,,,2021-09-28,清算の結了等,,,2015-10-05,1,,,,,マゴコロサービストクシマセンター,0
2448,7010403011470,登記記録の閉鎖等,0,2021-10-06,2021-09-29,トータルエナジージャパン合同会社,,合同会社,東京都,台東区,台東２丁目７番８号,,13,106,1100016,,,2021-09-29,清算の結了等,,,2015-10-05,1,,,,,,0
2475,7011003006480,登記記録の閉鎖等,0,2021-10-06,2021-09-28,株式会社ＲＯＢ,,株式会社,東京都,新宿区,西新宿１丁目２６番２号新宿野村ビル３２階,,13,104,1600023,,,2021-09-28,清算の結了等,,,2016-01-07,1,,,,,ロブ,0
2479,7011101052781,登記記録の閉鎖等,0,2021-10-06,2021-09-29,株式会社黒門アカデミー,,株式会社,東京都,新宿区,西新宿７丁目７番２６号,,13,104,1600023,,,2021-09-29,清算の結了等,,,2015-10-05,1,,,,,コクモンアカデミー,0
2481,7011101059190,登記記録の閉鎖等,0,2021-10-06,2021-09-29,中央総研株式会社,,株式会社,東京都,中央区,東日本橋１丁目１番３号１５０２,,13,102,1030004,,,2021-09-29,清算の結了等,,,2015-10-05,1,,,,,チュウオウソウケン,0
2518,7020002054036,登記記録の閉鎖等,0,2021-10-06,2021-10-01,有限会社ナカムラ設備,,有限会社,神奈川県,横浜市港北区,新吉田東１丁目２４番１６号,,14,109,2230058,,,2021-10-01,清算の結了等,,,2015-10-05,1,,,,,ナカムラセツビ,0
2527,7030001128500,登記記録の閉鎖等,0,2021-10-06,2021-09-22,東欣株式会社,,株式会社,埼玉県,富士見市,東みずほ台４丁目１２番７号,,11,235,3540015,,,2021-09-22,清算の結了等,,,2018-12-03,1,,,,,トウキン,0
2571,7070001002503,登記記録の閉鎖等,0,2021-10-06,2021-09-30,株式会社ニッパンレンタル,,株式会社,群馬県,前橋市,西片貝町４丁目５番地１５,,10,201,3710013,,,2021-09-30,合併による解散等,8070001037639,令和３年９月３０日群馬県前橋市大手町二丁目９番１４－２０２号株式会社赤城（8070001037639）に合併し解散,2015-10-05,1,,,,,ニッパンレンタル,0
2576,7080002015494,登記記録の閉鎖等,0,2021-10-06,2021-10-04,有限会社アイ・シイ・ピイ,,有限会社,静岡県,焼津市,駅北４丁目４番２２号,,22,212,4250028,,,2021-10-04,清算の結了等,,,2015-10-05,1,,,,,アイシイピイ,0
2585,7090001006592,登記記録の閉鎖等,0,2021-10-06,2021-09-21,クルーク株式会社,,株式会社,山梨県,南アルプス市,西南湖３４１番地２,,19,208,4000411,,,2021-09-21,清算の結了等,,,2015-10-05,1,,,,,クルーク,0
2643,7140002029158,登記記録の閉鎖等,0,2021-10-06,2021-10-05,有限会社多賀畳店,,有限会社,兵庫県,明石市,大久保町西島１０６８番地の２,,28,203,6740065,,,2021-10-05,清算の結了等,,,2015-10-05,1,,,,,タガタタミテン,0
2653,7180001103595,登記記録の閉鎖等,0,2021-10-06,2021-09-30,レイトラスト株式会社,,株式会社,愛知県,名古屋市南区,東又兵ヱ町３丁目４番地の１２,,23,112,4570833,,,2021-09-30,清算の結了等,,,2015-10-05,1,,,,,レイトラスト,0
2674,7200001010079,登記記録の閉鎖等,0,2021-10-06,2021-10-01,東伸建設株式会社,,株式会社,岐阜県,瑞穂市,田之上９０７番地,,21,216,5010304,,,2021-10-01,清算の結了等,,,2015-10-05,1,,,,,トウシンケンセツ,0
2689,7220005007714,登記記録の閉鎖等,0,2021-10-06,2021-09-21,ワングリーン特定目的会社,,その他の設立登記法人,石川県,金沢市,北安江３丁目１４番１２号,,17,201,9200022,,,2021-09-21,清算の結了等,,,2015-10-05,1,,,,,ワングリーン,0
2708,7270005000747,登記記録の閉鎖等,0,2021-10-06,2021-08-27,天理教賀露分教会,,その他の設立登記法人,鳥取県,鳥取市,賀露町南６丁目２０番５号,,31,201,6800909,,,2021-08-27,合併による解散等,5270005000749,令和３年８月２７日鳥取市吉方町二丁目５５２番地天理教岩美分教会（5270005000749）に合併し解散,2015-10-05,1,,,,,,0
2723,7310001002569,登記記録の閉鎖等,0,2021-10-06,2021-10-04,株式会社長崎高島水産センター,,株式会社,長崎県,長崎市,高島町２７０６番地,,42,201,8511315,,,2021-10-04,清算の結了等,,,2015-10-05,1,,,,,ナガサキタカシマスイサンセンター,0
2739,7350001009924,登記記録の閉鎖等,0,2021-10-06,2021-10-04,株式会社佐々木衣料百貨店,,株式会社,宮崎県,西諸県郡高原町,大字西麓９３８番地,,45,361,8894412,,,2021-10-04,清算の結了等,,,2015-10-05,1,,,,,ササキイリョウヒャッカテン,0
2740,7350001012003,登記記録の閉鎖等,0,2021-10-06,2021-10-04,株式会社三光商事,,株式会社,宮崎県,えびの市,大字岡松１３３３番地１,,45,209,8894161,,,2021-10-04,清算の結了等,,,2015-10-05,1,,,,,サンコウショウジ,0
2754,7370405000122,登記記録の閉鎖等,0,2021-10-06,2021-09-27,協同組合ツヤマボード,,その他の設立登記法人,宮城県,登米市,津山町柳津字小麻９１番地,,04,212,9860401,,,2021-09-27,清算の結了等,,,2015-10-05,1,,,,,ツヤマボード,0
2777,7460102003897,登記記録の閉鎖等,0,2021-10-06,2021-10-01,有限会社オー・エス・エー,,有限会社,北海道,中川郡幕別町,札内暁町２５２番地２００,,01,643,0890531,,,2021-10-01,清算の結了等,,,2015-10-05,1,,,,,オーエスエー,0
2783,7470002007122,登記記録の閉鎖等,0,2021-10-06,2021-10-05,有限会社山崎運送,,有限会社,香川県,高松市,鶴市町２０４８番地８,,37,201,7618032,,,2021-10-05,清算の結了等,,,2015-10-05,1,,,,,ヤマサキウンソウ,0
2785,7480002003509,登記記録の閉鎖等,0,2021-10-06,2021-09-28,有限会社日新商会,,有限会社,徳島県,徳島市,春日１丁目６番４２号,,36,201,7700002,,,2021-09-28,清算の結了等,,,2015-10-05,1,,,,,ニッシンショウカイ,0
2807,8010003024351,登記記録の閉鎖等,0,2021-10-06,2021-09-29,合同会社クローバー２０１７,,合同会社,東京都,千代田区,丸の内３丁目１番１号東京共同会計事務所内,,13,101,1000005,,,2021-09-29,清算の結了等,,,2016-11-09,1,,,,,クローバーニセンジュウナナ,0
2823,8010605000452,登記記録の閉鎖等,0,2021-10-06,2021-08-30,天理教橋嬬分教会,,その他の設立登記法人,東京都,墨田区,押上３丁目２５番４号,,13,107,1310045,,,2021-08-30,合併による解散等,4030005007604,令和３年８月１２日埼玉県春日部市備後東一丁目１５番１９号天理教扇橋分教会（4030005007604）に合併し解散,2015-10-05,1,,,,,テンリキョウハシヅマブンキョウカイ,0
2826,8010701031434,登記記録の閉鎖等,0,2021-10-06,2021-09-16,株式会社フレンドリー,,株式会社,東京都,渋谷区,渋谷１丁目７番５号青山セブンハイツ８０４号室,,13,113,1500002,,,2021-09-16,清算の結了等,,,2015-10-05,1,,,,,フレンドリー,0
2866,8011701018652,登記記録の閉鎖等,0,2021-10-06,2021-09-29,株式会社ユリカイインターナショナル,,株式会社,東京都,江戸川区,鹿骨２丁目２４番１６号,,13,123,1330073,,,2021-09-29,清算の結了等,,,2015-10-05,1,,,,,ユリカイインターナショナル,0
2868,8011801023866,登記記録の閉鎖等,0,2021-10-06,2021-10-04,シナリーグッド株式会社,,株式会社,東京都,葛飾区,西新小岩１丁目１番２－４２０号,,13,122,1240025,,,2021-10-04,清算の結了等,,,2015-10-05,1,,,,,シナリーグッド,0
2881,8020001094271,登記記録の閉鎖等,0,2021-10-06,2021-10-01,アーバンスタイル株式会社,,株式会社,神奈川県,横浜市青葉区,市ケ尾町１１６２番地９日神パレステージ市ヶ尾ＩＩ－３０３号,00009931,14,117,2250024,,,2021-10-01,清算の結了等,,,2015-10-05,1,,,,,アーバンスタイル,0
2911,8030002080451,登記記録の閉鎖等,0,2021-10-06,2021-09-22,和泉水産有限会社,,有限会社,埼玉県,本庄市,栗崎１１９８番地１９,,11,211,3670032,,,2021-09-22,清算の結了等,,,2015-10-05,1,,,,,イズミスイサン,0
2941,8060001001521,登記記録の閉鎖等,0,2021-10-06,2021-09-30,倉橋木材株式会社,,株式会社,栃木県,宇都宮市,宮の内２丁目８１４番地,,09,201,3210131,,,2021-09-30,清算の結了等,,,2015-10-05,1,,,,,クラハシモクザイ,0
2961,8120001048093,登記記録の閉鎖等,0,2021-10-06,2021-10-01,山田産商株式会社,,株式会社,大阪府,枚方市,山之上西町１５番３号,,27,210,5730048,,,2021-10-01,清算の結了等,,,2015-10-05,1,,,,,ヤマダサンショウ,0
2999,8140001066440,登記記録の閉鎖等,0,2021-10-06,2021-09-24,株式会社関山組,,株式会社,兵庫県,三田市,長坂６２３番地の２１,,28,219,6691355,,,2021-09-24,清算の結了等,,,2015-10-05,1,,,,,セキヤマグミ,0
3019,8170005001969,登記記録の閉鎖等,0,2021-10-06,2021-10-01,海南酒造組合,,その他の設立登記法人,和歌山県,海南市,藤白７５８番地の４５中野ＢＣ株式会社内,,30,202,6420034,,,2021-10-01,合併による解散等,7170005001053,令和３年１０月１日和歌山市雑賀屋町１６番地和歌山酒造組合（7170005001053）に合併し解散,2015-10-05,1,,,,,カイナン,0
3038,8190001008958,登記記録の閉鎖等,0,2021-10-06,2021-10-01,株式会社ホンダカーズ伊賀北,,株式会社,三重県,伊賀市,印代２４８番地の１,,24,216,5180008,,,2021-10-01,合併による解散等,6190001008010,令和３年１０月１日三重県志摩市阿児町鵜方２８８４番地１９株式会社ホンダカーズ三重南（6190001008010）に合併し解散,2015-10-05,1,,,,,ホンダカーズイガキタ,0
3054,8220001016841,登記記録の閉鎖等,0,2021-10-06,2021-10-01,株式会社山一,,株式会社,石川県,鳳珠郡穴水町,字川島ヲ１番地,,17,461,9270027,,,2021-10-01,清算の結了等,,,2015-10-05,1,,,,,ヤマイチ,0
3060,8230005002052,登記記録の閉鎖等,0,2021-10-06,2021-10-04,淨林寺,,その他の設立登記法人,富山県,富山市,打出９１３番地,,16,201,9302237,,,2021-10-04,清算の結了等,,,2015-10-05,1,,,,,,0
3092,8290002047202,登記記録の閉鎖等,0,2021-10-06,2021-09-16,有限会社サンテックエンジニアリング,,有限会社,福岡県,八女市,立花町北山２４６８番地の１,,40,210,8340085,,,2021-09-16,清算の結了等,,,2015-10-05,1,,,,,サンテックエンジニアリング,0
3100,8330003005328,登記記録の閉鎖等,0,2021-10-06,2021-10-01,合同会社橋本ユースＫ,,合同会社,熊本県,熊本市北区,植木町伊知坊８５番地,,43,105,8610113,,,2021-10-01,合併による解散等,2330003003824,令和３年１０月１日熊本市北区植木町伊知坊８５番地アパレント橋本合同会社（2330003003824）に合併し解散,2015-10-05,1,,,,,ハシモトユースケイ,0
3117,8370202003608,登記記録の閉鎖等,0,2021-10-06,2021-09-27,有限会社横山工務店,,有限会社,宮城県,遠田郡美里町,練牛字十二号３０番地の１,,04,505,9894203,,,2021-09-27,清算の結了等,,,2015-10-05,1,,,,,ヨコヤマコウムテン,0
3138,8430002058102,登記記録の閉鎖等,0,2021-10-06,2021-09-30,有限会社上原電気工事,,有限会社,北海道,苫小牧市,白金町２丁目１２番５号,,01,213,0530801,,,2021-09-30,清算の結了等,,,2015-10-05,1,,,,,ウエハラデンキコウジ,0
3140,8450003002040,登記記録の閉鎖等,0,2021-10-06,2021-10-01,Ｄ１合同会社,,合同会社,北海道,名寄市,西七条南６丁目６番地１,,01,221,0960017,,,2021-10-01,合併による解散等,7450002009748,令和３年１０月１日北海道名寄市字徳田２４８番地１８岩守産業株式会社（7450002009748）に合併し解散,2021-02-04,1,,,,,ディーワン,0
3175,9010002009419,登記記録の閉鎖等,0,2021-10-06,2021-09-29,有限会社クレイン,,有限会社,東京都,千代田区,東神田２丁目８番７号兵井ビル２階,,13,101,1010031,,,2021-09-29,清算の結了等,,,2015-10-05,1,,,,,クレイン,0
3184,9010401048554,登記記録の閉鎖等,0,2021-10-06,2021-09-24,株式会社栄壽産業,,株式会社,東京都,港区,台場１丁目１番１号,,13,103,1350091,,,2021-09-24,清算の結了等,,,2021-08-12,1,,,,,エイジュサンギョウ,0
3203,9010701032836,登記記録の閉鎖等,0,2021-10-06,2021-10-01,株式会社エフト,,株式会社,愛知県,名古屋市南区,薬師通２丁目２１番地,,23,112,4570041,,,2021-10-01,清算の結了等,,,2016-08-08,1,,,,,エフト,0
3226,9011101080120,登記記録の閉鎖等,0,2021-10-06,2021-09-28,エスクノ株式会社,,株式会社,東京都,新宿区,新宿７丁目２６番４０－５１６号,,13,104,1600022,,,2021-09-28,清算の結了等,,,2017-04-07,1,,,,,エスクノ,0
3234,9011103010620,登記記録の閉鎖等,0,2021-10-06,2021-09-22,ＲＥ　Ｉｎｖｅｓｔｍｅｎｔｓ合同会社,,合同会社,東京都,新宿区,西落合２丁目１６番１号,,13,104,1610031,,,2021-09-22,清算の結了等,,,2021-04-22,1,,,,,リインベストメンツ,0
3243,9011701014205,登記記録の閉鎖等,0,2021-10-06,2021-09-29,株式会社ペガサス,,株式会社,東京都,江戸川区,南小岩２丁目６番１５号,,13,123,1330056,,,2021-09-29,清算の結了等,,,2015-10-05,1,,,,,,0
3252,9011801037816,登記記録の閉鎖等,0,2021-10-06,2021-10-01,富士管財株式会社,,株式会社,東京都,葛飾区,金町５丁目２６番１０号,,13,122,1250042,,,2021-10-01,合併による解散等,2011801004120,令和３年１０月１日東京都葛飾区金町五丁目２６番１０号フジテック株式会社（2011801004120）に合併し解散,2020-07-06,1,,,,,フジカンザイ,0
3262,9012702005283,登記記録の閉鎖等,0,2021-10-06,2021-10-04,有限会社エム・エー・シー,,有限会社,東京都,西東京市,田無町２丁目２２番１０－２０１号,,13,229,1880011,,,2021-10-04,清算の結了等,,,2015-10-05,1,,,,,エムエーシー,0
3273,9020001063804,登記記録の閉鎖等,0,2021-10-06,2021-09-21,井出物産株式会社,,株式会社,神奈川県,川崎市多摩区,登戸１８６６番地,,14,135,2140014,,,2021-09-21,清算の結了等,,,2019-02-26,1,,,,,イデブッサン,0
3291,9030001075492,登記記録の閉鎖等,0,2021-10-06,2021-09-22,株式会社ジュネス,,株式会社,埼玉県,川口市,中青木１丁目１番２５号,,11,203,3320032,,,2021-09-22,清算の結了等,,,2015-10-05,1,,,,,ジュネス,0
3317,9050001019472,登記記録の閉鎖等,0,2021-10-06,2021-09-22,株式会社兼商陸運,,株式会社,茨城県,古河市,山田６６６番地６,,08,204,3060114,,,2021-09-22,清算の結了等,,,2015-10-05,1,,,,,カネショウリクウン,0
3327,9070001018308,登記記録の閉鎖等,0,2021-10-06,2021-10-01,株式会社グリーンファーム赤城たちばな,,株式会社,群馬県,渋川市,北橘町真壁１７７９番地の３,,10,208,3770062,,,2021-10-01,清算の結了等,,,2015-10-05,1,,,,,グリーンファームアカギタチバナ,0
3340,9090001015765,登記記録の閉鎖等,0,2021-10-06,2021-09-29,山梨中央製薬株式会社,,株式会社,山梨県,山梨市,上神内川１１２６の２白緑ビル,,19,205,4050018,,,2021-09-29,清算の結了等,,,2018-10-09,1,,,,,ヤマナシチュウオウセイヤク,0
3350,9120001078924,登記記録の閉鎖等,0,2021-10-06,2021-10-01,研彩館インターナショナル株式会社,,株式会社,大阪府,大阪市中央区,北久宝寺町１丁目５番６－６０５号,,27,128,5410057,,,2021-10-01,清算の結了等,,,2015-10-05,1,,,,,ケンサイカンインターナショナル,0
3409,9140001068997,登記記録の閉鎖等,0,2021-10-06,2021-10-01,志垣商事株式会社,,株式会社,兵庫県,西宮市,名次町４番１７－３０１号,,28,204,6620024,,,2021-10-01,清算の結了等,,,2015-10-05,1,,,,,シガキショウジ,0
3422,9160001004785,登記記録の閉鎖等,0,2021-10-06,2021-10-01,株式会社グロー・ガステック,,株式会社,滋賀県,湖南市,石部北１丁目６番２号,,25,211,5203113,,,2021-10-01,合併による解散等,2160001009691,令和３年１０月１日滋賀県長浜市加納町６６０番８株式会社ウェルビー滋賀（2160001009691）に合併し解散,2015-10-05,1,,,,,グローガステック,0
3439,9180003020449,登記記録の閉鎖等,0,2021-10-06,2021-10-01,合同会社ケイエナジー,,合同会社,愛知県,名古屋市中村区,烏森町８丁目７０１番地,,23,105,4530855,,,2021-10-01,合併による解散等,2180001055346,令和３年１０月１日名古屋市瑞穂区田辺通五丁目１番地の２株式会社ケアドゥ（2180001055346）に合併し解散,2019-10-21,1,,,,,ケイエナジー,0
3451,9180302020728,登記記録の閉鎖等,0,2021-10-06,2021-10-01,有限会社サワペン,,有限会社,愛知県,碧南市,弥生町３丁目１２７番地,,23,209,4470814,,,2021-10-01,清算の結了等,,,2015-10-05,1,,,,,サワペン,0
3455,9180305007243,登記記録の閉鎖等,0,2021-10-06,2021-08-30,大乘教横須賀教会,,その他の設立登記法人,愛知県,西尾市,吉良町上横須賀蔵屋敷８１番地,,23,213,4440521,,,2021-08-30,合併による解散等,5180305006918,令和３年８月３０日愛知県西尾市中町６７番地大乗教西尾教会（5180305006918）に合併し解散,2015-10-05,1,,,,,ダイジョウキョウヨコスカキョウカイ,0
3457,9190001004865,登記記録の閉鎖等,0,2021-10-06,2021-10-04,株式会社エスティコ,,株式会社,三重県,鈴鹿市,白子町３３２２番地の１,,24,207,5100244,,,2021-10-04,清算の結了等,,,2015-10-05,1,,,,,,0
3477,9240001010255,登記記録の閉鎖等,0,2021-10-06,2021-10-01,株式会社福建,,株式会社,広島県,広島市安芸区,矢野西４丁目１３番７号,,34,107,7360085,,,2021-10-01,合併による解散等,6240002048818,令和３年１０月１日広島市安芸区矢野西四丁目１３番７号株式会社ＴＡＭＹ（6240002048818）に合併し解散,2015-10-05,1,,,,,フッケン,0
3504,9310001013028,登記記録の閉鎖等,0,2021-10-06,2021-10-04,株式会社大石,,株式会社,長崎県,長崎市,樫山町１６１３番地イ,,42,201,8512202,,,2021-10-04,清算の結了等,,,2015-10-05,1,,,,,オオイシ,0
3547,9450003001818,登記記録の閉鎖等,0,2021-10-06,2021-10-01,合同会社いずみ屋,,合同会社,北海道,深川市,五条１５番５号,,01,228,0740005,,,2021-10-01,清算の結了等,,,2019-04-03,1,,,,,イズミヤ,0
3548,9460002003582,登記記録の閉鎖等,0,2021-10-06,2021-10-01,有限会社クリニクス,,有限会社,北海道,札幌市中央区,北十条西２４丁目３番地,,01,101,0600010,,,2021-10-01,合併による解散等,1430001005219,令和３年１０月１日札幌市中央区北十条西二十四丁目３番地株式会社なの花北海道（1430001005219）に合併し解散,2015-10-05,1,,,,,クリニクス,0
