sequenceNumber,corporateNumber,process,correct,updateDate,changeDate,name,nameImageId,kind,prefectureName,cityName,streetNumber,addressImageId,prefectureCode,cityCode,postCode,addressOutside,addressOutsideImageId,closeDate,closeCause,successorCorporateNumber,changeCause,assignmentDate,latest,enName,enPrefectureName,enCityName,enAddressOutside,furigana,hihyoji
5,1010002053515,登記記録の閉鎖等,0,2022-11-24,2022-11-16,有限会社創プランニング匠屋,,有限会社,東京都,荒川区,西尾久７丁目１３番４号ダイアパレス尾久駅前１０３号室,,13,118,1160011,,,2022-11-16,清算の結了等,,,2015-10-05,1,,,,,,0
6,1010003034638,登記記録の閉鎖等,0,2022-11-24,2022-11-17,合同会社メディカル・インベストメント６号,,合同会社,東京都,中央区,日本橋兜町３番１１号三田証券株式会社内,,13,102,1030026,,,2022-11-17,清算の結了等,,,2021-04-13,1,,,,,メディカルインベストメントロクゴウ,0
21,1010502022688,登記記録の閉鎖等,0,2022-11-24,2022-11-22,有限会社プランニングサービス,,有限会社,東京都,台東区,台東１丁目２９番３号,,13,106,1100016,,,2022-11-22,清算の結了等,,,2015-10-05,1,,,,,プランニングサービス,0
25,1010703002241,登記記録の閉鎖等,0,2022-11-24,2022-11-21,合同会社一陽樂舎,,合同会社,神奈川県,川崎市宮前区,南野川３丁目６番８－４０３号県営住宅,,14,136,2160042,,,2022-11-21,清算の結了等,,,2015-10-05,1,,,,,イチヨウラクシャ,0
27,1010801008768,登記記録の閉鎖等,0,2022-11-24,2022-11-16,株式会社中谷機械製作所,,株式会社,東京都,大田区,仲六郷２丁目３７番８号,,13,111,1440055,,,2022-11-16,清算の結了等,,,2015-10-05,1,,,,,ナカタニキカイセイサクショ,0
34,1011001023541,登記記録の閉鎖等,0,2022-11-24,2022-11-21,株式会社山江装美,,株式会社,東京都,渋谷区,恵比寿１丁目１６番２８号,,13,113,1500013,,,2022-11-21,清算の結了等,,,2015-10-05,1,,,,,ヤマエソウビ,0
47,1011102013920,登記記録の閉鎖等,0,2022-11-24,2022-11-22,有限会社渡辺商会,,有限会社,東京都,新宿区,戸山２丁目１０番１１２号,,13,104,1620052,,,2022-11-22,清算の結了等,,,2015-10-05,1,,,,,ワタナベショウカイ,0
50,1011302003705,登記記録の閉鎖等,0,2022-11-24,2022-11-15,有限会社小西酒店,,有限会社,東京都,杉並区,堀ノ内３丁目４９番２号,,13,115,1660013,,,2022-11-15,清算の結了等,,,2022-10-04,1,,,,,コニシサケテン,0
56,1012401011276,登記記録の閉鎖等,0,2022-11-24,2022-11-22,株式会社新ユニオン技研,,株式会社,東京都,武蔵野市,吉祥寺南町２丁目１３番１３号,,13,203,1800003,,,2022-11-22,清算の結了等,,,2015-10-05,1,,,,,シンユニオンギケン,0
78,1021002011445,登記記録の閉鎖等,0,2022-11-24,2022-11-21,有限会社田中与四郎商店,,有限会社,神奈川県,茅ヶ崎市,新栄町６番２２号,,14,207,2530044,,,2022-11-21,清算の結了等,,,2015-10-05,1,,,,,タナカヨシロウショウテン,0
89,1040001069369,登記記録の閉鎖等,0,2022-11-24,2022-11-15,株式会社シンシア,,株式会社,千葉県,柏市,みどり台３丁目２５番６号,,12,217,2770884,,,2022-11-15,清算の結了等,,,2015-10-05,1,,,,,シンシア,0
90,1040001089490,登記記録の閉鎖等,0,2022-11-24,2022-11-18,株式会社ケミカルゲート,,株式会社,愛知県,名古屋市千種区,千種２丁目２２番８号,,23,101,4640858,,,2022-11-18,清算の結了等,,,2015-10-05,1,,,,,ケミカルゲート,0
103,1080001000189,登記記録の閉鎖等,0,2022-11-24,2022-11-22,株式会社旭工業所,,株式会社,静岡県,静岡市駿河区,泉町５番２６号,,22,102,4228066,,,2022-11-22,清算の結了等,,,2015-10-05,1,,,,,アサヒコウギョウショ,0
109,1080102010483,登記記録の閉鎖等,0,2022-11-24,2022-11-21,有限会社庄司設計事務所,,有限会社,静岡県,三島市,東本町１丁目６番５号,,22,206,4110831,,,2022-11-21,清算の結了等,,,2015-10-05,1,,,,,ショウジセッケイジムショ,0
120,1120001115313,登記記録の閉鎖等,0,2022-11-24,2022-11-22,株式会社クレア,,株式会社,大阪府,大阪市城東区,中央２丁目１４番Ｄ－３４０２号,,27,118,5360005,,,2022-11-22,清算の結了等,,,2015-10-05,1,,,,,クレア,0
150,1130002035773,登記記録の閉鎖等,0,2022-11-24,2022-11-17,有限会社エフ,,有限会社,京都府,京都市東山区,大黒町通五条上る２丁目大黒町３０２番地,,26,105,6050832,,,2022-11-17,清算の結了等,,,2022-08-03,1,,,,,エフ,0
164,1180001113658,登記記録の閉鎖等,0,2022-11-24,2022-11-17,株式会社誠美,,株式会社,愛知県,名古屋市中区,上前津２丁目１番２７号,,23,106,4600013,,,2022-11-17,清算の結了等,,,2015-10-05,1,,,,,セイビ,0
182,1290001049206,登記記録の閉鎖等,0,2022-11-24,2022-11-17,株式会社津留崎工務店,,株式会社,福岡県,久留米市,大善寺町宮本４１５番地,,40,203,8300073,,,2022-11-17,清算の結了等,,,2015-10-05,1,,,,,ツルサキコウムテン,0
191,1290802025181,登記記録の閉鎖等,0,2022-11-24,2022-11-21,有限会社木戸組,,有限会社,福岡県,田川郡福智町,伊方２９１２番地,,40,610,8221211,,,2022-11-21,清算の結了等,,,2015-10-05,1,,,,,キドグミ,0
192,1300001006709,登記記録の閉鎖等,0,2022-11-24,2022-11-17,株式会社潮,,株式会社,佐賀県,三養基郡上峰町,大字坊所１５５０番地３１,00095144,41,345,8490123,,,2022-11-17,清算の結了等,,,2015-10-05,1,,,,,シオ,0
202,1370001044388,登記記録の閉鎖等,0,2022-11-24,2022-11-16,株式会社ＳＭＣ,,株式会社,宮城県,仙台市宮城野区,扇町３丁目４番２３号,,04,102,9830034,,,2022-11-16,清算の結了等,,,2019-05-16,1,,,,,エスエムシー,0
205,1370005003860,登記記録の閉鎖等,0,2022-11-24,2022-11-16,特定非営利活動法人ＬＡＳＥＬＶＡＲＯＩ,,その他の設立登記法人,宮城県,仙台市青葉区,北根３丁目１８番１－２０３号,,04,101,9810902,,,2022-11-16,清算の結了等,,,2015-10-05,1,,,,,ラセルバロイ,0
210,1380005012308,登記記録の閉鎖等,0,2022-11-24,2022-11-15,ＮＰＯ法人乳幼児の遊びと学びを考える会かたつ夢里,,その他の設立登記法人,福島県,西白河郡西郷村,大字小田倉字小田倉原９番地２,,07,461,9618061,,,2022-11-15,清算の結了等,,,2020-06-01,1,,,,,ニュウヨウジノアソビトマナビヲカンガエルカイカタツムリ,0
212,1410003003494,登記記録の閉鎖等,0,2022-11-24,2022-11-15,こまち合同会社,,合同会社,秋田県,秋田市,将軍野東２丁目２２番３４号,,05,201,0110931,,,2022-11-15,清算の結了等,,,2021-02-22,1,,,,,コマチ,0
223,1460102003812,登記記録の閉鎖等,0,2022-11-24,2022-11-21,有限会社ワイズ,,有限会社,北海道,帯広市,西一条南４丁目１６番地１,,01,207,0800011,,,2022-11-21,清算の結了等,,,2015-10-05,1,,,,,,0
239,2010003034637,登記記録の閉鎖等,0,2022-11-24,2022-11-17,合同会社メディカル・インベストメント５号,,合同会社,東京都,中央区,日本橋兜町３番１１号三田証券株式会社内,,13,102,1030026,,,2022-11-17,清算の結了等,,,2021-04-13,1,,,,,メディカルインベストメントゴゴウ,0
258,2010703003759,登記記録の閉鎖等,0,2022-11-24,2022-11-18,トゥエンティセブン合同会社,,合同会社,東京都,品川区,北品川１丁目９番７号トップルーム品川１０１５号,,13,109,1400001,,,2022-11-18,清算の結了等,,,2017-08-03,1,,,,,トゥエンティセブン,0
269,2011101093087,登記記録の閉鎖等,0,2022-11-24,2022-11-21,東京総合調査株式会社,,株式会社,東京都,新宿区,西新宿１丁目２６番２号,,13,104,1600023,,,2022-11-21,清算の結了等,,,2020-11-09,1,,,,,トウキョウソウゴウチョウサ,0
272,2011301003531,登記記録の閉鎖等,0,2022-11-24,2022-11-16,株式会社城西無線,,株式会社,東京都,杉並区,阿佐谷南１丁目１７番１９号,,13,115,1660004,,,2022-11-16,清算の結了等,,,2015-10-05,1,,,,,ジョウサイムセン,0
280,2011701022569,登記記録の閉鎖等,0,2022-11-24,2022-11-21,株式会社協和,,株式会社,東京都,江戸川区,西葛西８丁目１番１８号,,13,123,1340088,,,2022-11-21,清算の結了等,,,2019-04-09,1,,,,,キョウワ,0
284,2013103001102,登記記録の閉鎖等,0,2022-11-24,2022-11-18,合同会社みちびき,,合同会社,東京都,あきる野市,小中野３７２番地,,13,228,1900165,,,2022-11-18,清算の結了等,,,2022-01-17,1,,,,,ミチビキ,0
289,2020001113169,登記記録の閉鎖等,0,2022-11-24,2022-11-21,株式会社安藤建物,,株式会社,神奈川県,川崎市中原区,下新城１丁目１３番９号,,14,133,2110042,,,2022-11-21,清算の結了等,,,2015-10-16,1,,,,,アンドウタテモノ,0
297,2020002067380,登記記録の閉鎖等,0,2022-11-24,2022-11-18,メガテン有限会社,,有限会社,神奈川県,横浜市緑区,霧が丘６丁目１番地１霧が丘グリーンタウン１１棟５０４号,,14,113,2260016,,,2022-11-18,清算の結了等,,,2015-10-05,1,,,,,メガテン,0
316,2030003005108,登記記録の閉鎖等,0,2022-11-24,2022-11-16,合同会社ケアマネージメントセンターかわたや,,合同会社,埼玉県,桶川市,大字川田谷２７３０番地の１１７,,11,231,3630027,,,2022-11-16,清算の結了等,,,2015-10-05,1,,,,,ケアマネージメントセンターカワタヤ,0
318,2030005001880,登記記録の閉鎖等,0,2022-11-24,2022-11-16,特定非営利活動法人彩まちづくり協会,,その他の設立登記法人,埼玉県,さいたま市浦和区,高砂３丁目１２番２４号小峰ビル５階,,11,107,3300063,,,2022-11-16,清算の結了等,,,2015-10-05,1,,,,,アヤマチヅクリキョウカイ,0
322,2040001052324,登記記録の閉鎖等,0,2022-11-24,2022-11-16,株式会社ＲＤ,,株式会社,千葉県,木更津市,清見台南２丁目２番９号,,12,206,2920042,,,2022-11-16,清算の結了等,,,2015-10-05,1,,,,,アールディー,0
330,2040002030691,登記記録の閉鎖等,0,2022-11-24,2022-11-14,有限会社モリタ,,有限会社,千葉県,八千代市,大和田新田９２９番地３６,,12,221,2760046,,,2022-11-14,清算の結了等,,,2015-10-05,1,,,,,モリタ,0
337,2050001043751,登記記録の閉鎖等,0,2022-11-24,2022-11-17,真琳商事株式会社,,株式会社,茨城県,取手市,白山６丁目４番４－５０４号,,08,217,3020023,,,2022-11-17,清算の結了等,,,2017-12-08,1,,,,,シンリンショウジ,0
367,2120001164326,登記記録の閉鎖等,0,2022-11-24,2022-11-21,株式会社Ｋａｗａｃｈｉ航測,,株式会社,大阪府,大阪市天王寺区,石ケ辻町３番１０号宝栄ビル２Ｆ,00029564,27,109,5430031,,,2022-11-21,清算の結了等,,,2015-10-05,1,,,,,,0
460,2290802018119,登記記録の閉鎖等,0,2022-11-24,2022-11-22,有限会社八幡工業,,有限会社,福岡県,北九州市八幡東区,白川町７番２２号,,40,108,8050007,,,2022-11-22,清算の結了等,,,2015-10-05,1,,,,,ヤハタコウギョウ,0
483,2400002002456,登記記録の閉鎖等,0,2022-11-24,2022-11-18,有限会社西田屋食堂,,有限会社,岩手県,盛岡市,南仙北１丁目１７番７号,,03,201,0200863,,,2022-11-18,清算の結了等,,,2015-10-05,1,,,,,ニシダヤショクドウ,0
491,2430002031667,登記記録の閉鎖等,0,2022-11-24,2022-11-21,宥和工業有限会社,,有限会社,北海道,札幌市南区,澄川四条６丁目７番２号,,01,106,0050004,,,2022-11-21,清算の結了等,,,2015-10-05,1,,,,,,0
508,3010005006336,登記記録の閉鎖等,0,2022-11-24,2022-11-22,特定目的会社ＴＸ,,その他の設立登記法人,東京都,千代田区,神田神保町１丁目１１番地さくら綜合事務所内,,13,101,1010051,,,2022-11-22,清算の結了等,,,2015-10-05,1,,,,,ティーエックス,0
529,3010801016513,登記記録の閉鎖等,0,2022-11-24,2022-11-16,株式会社三慶,,株式会社,東京都,大田区,多摩川２丁目５番１１号鈴木ビル１階,,13,111,1460095,,,2022-11-16,清算の結了等,,,2015-10-05,1,,,,,サンケイ,0
538,3011003012251,登記記録の閉鎖等,0,2022-11-24,2022-11-14,合同会社ＳＧＯ　Ｖｅｎｔｕｒｅｓ,,合同会社,東京都,渋谷区,神宮前６丁目２３番４号桑野ビル２階,,13,113,1500001,,,2022-11-14,清算の結了等,,,2021-02-08,1,,,,,エスジーオーベンチャーズ,0
548,3011102030187,登記記録の閉鎖等,0,2022-11-24,2022-11-21,有限会社浅沼商事,,有限会社,東京都,渋谷区,神宮前２丁目１６番１８号,,13,113,1500001,,,2022-11-21,清算の結了等,,,2015-10-05,1,,,,,アサヌマショウジ,0
559,3011502008691,登記記録の閉鎖等,0,2022-11-24,2022-11-15,有限会社佐々木建設,,有限会社,東京都,荒川区,東尾久３丁目２４番１１号,,13,118,1160012,,,2022-11-15,清算の結了等,,,2015-10-05,1,,,,,ササキケンセツ,0
571,3012801019347,登記記録の閉鎖等,0,2022-11-24,2022-11-16,株式会社Ｇ－Ｎｅｘｕｓ,,株式会社,東京都,国分寺市,東元町１丁目３８番３８号,,13,214,1850022,,,2022-11-16,清算の結了等,,,2019-04-11,1,,,,,ジーネクサス,0
573,3013201003593,登記記録の閉鎖等,0,2022-11-24,2022-11-14,株式会社ダブル・ダブリュー・ビー・ジャパン,,株式会社,東京都,目黒区,三田２丁目７番１０－１０２号,,13,110,1530062,,,2022-11-14,清算の結了等,,,2015-10-05,1,,,,,ダブルダブリュービージャパン,0
580,3020001073172,登記記録の閉鎖等,0,2022-11-24,2022-11-16,昭和精機株式会社,,株式会社,東京都,杉並区,西荻北４丁目１１番５号,,13,115,1670042,,,2022-11-16,清算の結了等,,,2015-10-05,1,,,,,ショウワセイキ,0
596,3030002066257,登記記録の閉鎖等,0,2022-11-24,2022-11-16,有限会社オダジマ・カンパニィー,,有限会社,埼玉県,新座市,栗原６丁目６番２４号,,11,230,3520035,,,2022-11-16,清算の結了等,,,2015-10-05,1,,,,,オダジマカンパニィー,0
640,3120101047537,登記記録の閉鎖等,0,2022-11-24,2022-11-21,株式会社ステップアップＩＮＣ．,,株式会社,大阪府,岸和田市,小松里町１０６２番地の４,,27,202,5960821,,,2022-11-21,清算の結了等,,,2015-10-05,1,,,,,ステップアップインク,0
657,3130002029996,登記記録の閉鎖等,0,2022-11-24,2022-11-16,有限会社アップル・ワイズ,,有限会社,京都府,木津川市,南加茂台１２丁目１６番地２,,26,214,6191127,,,2022-11-16,清算の結了等,,,2015-10-05,1,,,,,アップルワイズ,0
671,3200001000109,登記記録の閉鎖等,0,2022-11-24,2022-11-22,浅井工業株式会社,,株式会社,岐阜県,岐阜市,南鶉３丁目３９番地,,21,201,5008285,,,2022-11-22,清算の結了等,,,2015-10-05,1,,,,,アサイコウギョウ,0
681,3250002012809,登記記録の閉鎖等,0,2022-11-24,2022-11-21,有限会社蒼蒼．,,有限会社,山口県,下関市,幡生町２丁目２１番１２号,,35,201,7510828,,,2022-11-21,清算の結了等,,,2015-10-05,1,,,,,ソウソウ,0
686,3270002001818,登記記録の閉鎖等,0,2022-11-24,2022-11-18,有限会社岩戸フィッシングセンター,,有限会社,鳥取県,鳥取市,福部町岩戸３６７番地,,31,201,6890101,,,2022-11-18,清算の結了等,,,2015-10-05,1,,,,,イワドフィッシングセンター,0
690,3290001003524,登記記録の閉鎖等,0,2022-11-24,2022-11-17,株式会社ディア設計事務所,,株式会社,福岡県,福岡市東区,千早２丁目３５番１０号,,40,131,8130044,,,2022-11-17,清算の結了等,,,2015-10-05,1,,,,,ディアセッケイジムショ,0
698,3290802009356,登記記録の閉鎖等,0,2022-11-24,2022-11-21,ケイ・アイ商事有限会社,,有限会社,福岡県,北九州市門司区,大字畑３３８番地の２,,40,101,8000112,,,2022-11-21,清算の結了等,,,2015-10-05,1,,,,,ケイアイショウジ,0
721,3470002016606,登記記録の閉鎖等,0,2022-11-24,2022-11-18,有限会社白川衣料品店,,有限会社,香川県,三豊市,豊中町本山甲１１７５番地の４,,37,208,7691506,,,2022-11-18,清算の結了等,,,2015-10-05,1,,,,,シラカワイリョウヒンテン,0
752,4010403010194,登記記録の閉鎖等,0,2022-11-24,2022-11-09,合同会社Ｂｌｕｅ　Ｐｏｗｅｒ松山,,合同会社,東京都,港区,赤坂２丁目１６番８号,,13,103,1070052,,,2022-11-09,清算の結了等,,,2015-10-05,1,,,,,ブルーパワーマツヤマ,0
771,4010802010398,登記記録の閉鎖等,0,2022-11-24,2022-11-14,有限会社富栄精工,,有限会社,東京都,大田区,多摩川２丁目２１番２０号,,13,111,1460095,,,2022-11-14,清算の結了等,,,2015-10-05,1,,,,,トミエイセイコウ,0
803,4012401017766,登記記録の閉鎖等,0,2022-11-24,2022-11-18,株式会社キューベック,,株式会社,神奈川県,横浜市中区,不老町１丁目２番地１,,14,104,2310032,,,2022-11-18,清算の結了等,,,2015-10-05,1,,,,,キューベック,0
819,4020002054360,登記記録の閉鎖等,0,2022-11-24,2022-11-21,株式会社服部エンジニアリング,,株式会社,神奈川県,横浜市南区,永田東２丁目３６番５号,,14,105,2320072,,,2022-11-21,清算の結了等,,,2015-10-05,1,,,,,ハットリエンジニアリング,0
828,4030001082122,登記記録の閉鎖等,0,2022-11-24,2022-11-16,株式会社みどり,,株式会社,埼玉県,川口市,西川口１丁目２３番７号,,11,203,3320021,,,2022-11-16,清算の結了等,,,2015-10-05,1,,,,,ミドリ,0
841,4040001096154,登記記録の閉鎖等,0,2022-11-24,2022-11-15,株式会社マクシム,,株式会社,千葉県,鎌ケ谷市,東道野辺２丁目７番２９－５号,,12,224,2730115,,,2022-11-15,清算の結了等,,,2016-07-19,1,,,,,マクシム,0
853,4080005004456,登記記録の閉鎖等,0,2022-11-24,2022-11-21,落合茶農業協同組合,,その他の設立登記法人,静岡県,島田市,落合４１４番地の１,,22,209,4270008,,,2022-11-21,清算の結了等,,,2015-10-05,1,,,,,オチアイチャ,0
893,4140005005101,登記記録の閉鎖等,0,2022-11-24,2022-11-21,税理士法人三光会計社,,その他の設立登記法人,兵庫県,神戸市中央区,相生町１丁目１番１６号６Ｆ,,28,110,6500025,,,2022-11-21,清算の結了等,,,2015-10-05,1,,,,,サンコウカイケイシャ,0
894,4170003001438,登記記録の閉鎖等,0,2022-11-24,2022-11-18,ブレスレットハワイ合同会社,,合同会社,和歌山県,岩出市,大町９１番地の２,,30,209,6496228,,,2022-11-18,清算の結了等,,,2020-04-15,1,,,,,ブレスレットハワイ,0
904,4190005006177,登記記録の閉鎖等,0,2022-11-24,2022-11-21,特定非営利活動法人伊賀・島ヶ原おかみさんの会,,その他の設立登記法人,三重県,伊賀市,島ヶ原５８４４番地,,24,216,5191711,,,2022-11-21,清算の結了等,,,2015-10-05,1,,,,,イガシマガハラオカミサンノカイ,0
912,4240002053349,登記記録の閉鎖等,0,2022-11-24,2022-11-21,有限会社田治損保センター,,有限会社,広島県,三原市,沼田東町末広３５０番地の５,,34,204,7230144,,,2022-11-21,清算の結了等,,,2015-10-05,1,,,,,タジソンポセンター,0
922,4280001005677,登記記録の閉鎖等,0,2022-11-24,2022-11-22,島根化成工業株式会社,,株式会社,島根県,飯石郡飯南町,頓原２３３１番地１,,32,386,6903207,,,2022-11-22,清算の結了等,,,2015-10-05,1,,,,,シマネカセイコウギョウ,0
952,4410002007923,登記記録の閉鎖等,0,2022-11-24,2022-11-17,有限会社アリハラ,,有限会社,秋田県,雄勝郡羽後町,田代字上菅生１１０番地２,,05,463,0121241,,,2022-11-17,清算の結了等,,,2015-10-05,1,,,,,アリハラ,0
963,4500001000928,登記記録の閉鎖等,0,2022-11-24,2022-11-22,株式会社エクセレント・インターナショナルカンパニー,,株式会社,愛媛県,松山市,道後湯之町１２番１９号,,38,201,7900842,,,2022-11-22,清算の結了等,,,2015-10-05,1,,,,,エクセレントインターナショナルカンパニー,0
975,5010003028108,登記記録の閉鎖等,0,2022-11-24,2022-11-18,合同会社あさやけ,,合同会社,東京都,中央区,日本橋１丁目４番１号日本橋一丁目ビルディング,,13,102,1030027,,,2022-11-18,清算の結了等,,,2018-08-15,1,,,,,アサヤケ,0
1006,5011602002031,登記記録の閉鎖等,0,2022-11-24,2022-11-17,有限会社太田商店,,有限会社,東京都,練馬区,平和台２丁目１９番２号,,13,120,1790083,,,2022-11-17,清算の結了等,,,2015-10-05,1,,,,,オオタショウテン,0
1037,5020005011250,登記記録の閉鎖等,0,2022-11-24,2022-11-17,特定非営利活動法人横浜悠藍睦会,,その他の設立登記法人,神奈川県,横浜市港北区,北新横浜１丁目３番１０号,,14,109,2230059,,,2022-11-17,清算の結了等,,,2015-10-05,1,,,,,,0
1075,5100001000232,登記記録の閉鎖等,0,2022-11-24,2022-11-21,株式会社石田フルーツ,,株式会社,長野県,長野市,市場３番地１２,,20,201,3812202,,,2022-11-21,清算の結了等,,,2015-10-05,1,,,,,イシダフルーツ,0
1079,5120001092937,登記記録の閉鎖等,0,2022-11-24,2022-11-21,大阪土地株式会社,,株式会社,大阪府,大阪市中央区,島町１丁目２番３号三和ビル内,,27,128,5400034,,,2022-11-21,清算の結了等,,,2015-10-05,1,,,,,オオサカトチ,0
1080,5120001172301,登記記録の閉鎖等,0,2022-11-24,2022-11-14,株式会社ｇｏｏｄｇｏ９９,,株式会社,東京都,港区,浜松町２丁目７番１５号７Ｆ,,13,103,1050013,,,2022-11-14,清算の結了等,,,2015-10-05,1,,,,,,0
1083,5120002074249,登記記録の閉鎖等,0,2022-11-24,2022-11-18,有限会社三信電業,,有限会社,大阪府,枚方市,片鉾本町２６番３１号,,27,210,5731157,,,2022-11-18,清算の結了等,,,2015-10-05,1,,,,,サンシンデンギョウ,0
1092,5120902017224,登記記録の閉鎖等,0,2022-11-24,2022-11-18,有限会社Ｍ建築工房,,有限会社,大阪府,堺市堺区,中三国ヶ丘町１丁２番３６号,,27,141,5900022,,,2022-11-18,清算の結了等,,,2015-10-05,1,,,,,エムケンチクコウボウ,0
1097,5140001039829,登記記録の閉鎖等,0,2022-11-24,2022-11-21,株式会社ハトヤ,,株式会社,兵庫県,赤穂市,加里屋中洲６丁目１番地１,,28,212,6780233,,,2022-11-21,清算の結了等,,,2015-10-05,1,,,,,ハトヤ,0
1109,5180001097055,登記記録の閉鎖等,0,2022-11-24,2022-11-18,美津和屋株式会社,,株式会社,愛知県,弥富市,鯏浦町上六１２５番地の３,,23,235,4980023,,,2022-11-18,清算の結了等,,,2015-10-05,1,,,,,ミツワヤ,0
1111,5180001131508,登記記録の閉鎖等,0,2022-11-24,2022-11-16,株式会社ＷＲＥＮ,,株式会社,愛知県,半田市,花園町３丁目１０番地の１４,,23,205,4750833,,,2022-11-16,清算の結了等,,,2018-03-12,1,,,,,レン,0
1112,5180002007748,登記記録の閉鎖等,0,2022-11-24,2022-11-21,有限会社大橋,,有限会社,愛知県,名古屋市昭和区,萩原町３丁目２７番地の１,,23,107,4660852,,,2022-11-21,清算の結了等,,,2015-10-05,1,,,,,オオハシ,0
1118,5180005016936,登記記録の閉鎖等,0,2022-11-24,2022-11-18,一般社団法人ＴＡＲＫＨＭ,,その他の設立登記法人,愛知県,名古屋市北区,清水４丁目２番２１号,,23,103,4620844,,,2022-11-18,清算の結了等,,,2016-09-12,1,,,,,ターコム,0
1119,5180301013208,登記記録の閉鎖等,0,2022-11-24,2022-11-21,株式会社日本瓦ユニオン,,株式会社,愛知県,安城市,和泉町大海古２番地９,,23,212,4441222,,,2022-11-21,清算の結了等,,,2015-10-05,1,,,,,ニホンカワラユニオン,0
1126,5200002000378,登記記録の閉鎖等,0,2022-11-24,2022-11-17,有限会社板津コンタクトレンズ研究所,,有限会社,岐阜県,岐阜市,加納大手町１０番地の３,,21,201,5008482,,,2022-11-17,清算の結了等,,,2015-10-05,1,,,,,イタヅコンタクトレンズケンキュウショ,0
1141,5290003009947,登記記録の閉鎖等,0,2022-11-24,2022-11-18,合同会社２０２０,,合同会社,福岡県,福岡市中央区,大濠公園２番３５号ＴＨＥ　ＡＰＡＲＴＭＥＮＴ２Ｆ,,40,133,8100051,,,2022-11-18,清算の結了等,,,2020-05-15,1,,,,,ニーゼロニーゼロ,0
1143,5310003003410,登記記録の閉鎖等,0,2022-11-24,2022-11-22,合同会社織田工業,,合同会社,長崎県,長崎市,錦３丁目４番１２号,,42,201,8528045,,,2022-11-22,清算の結了等,,,2018-01-11,1,,,,,オダコウギョウ,0
1148,5330002013433,登記記録の閉鎖等,0,2022-11-24,2022-11-18,有限会社ワールドカフェ,,有限会社,熊本県,熊本市中央区,新町２丁目１０番３５号,,43,101,8600004,,,2022-11-18,清算の結了等,,,2015-10-05,1,,,,,ワールドカフェ,0
1160,5370001047313,登記記録の閉鎖等,0,2022-11-24,2022-11-16,株式会社Ｙ’ｓ,,株式会社,宮城県,仙台市青葉区,本町１丁目５番２８号カーニープレイス仙台駅前通６０３号室,,04,101,9800014,,,2022-11-16,清算の結了等,,,2021-07-07,1,,,,,ワイズ,0
1167,5380002027651,登記記録の閉鎖等,0,2022-11-24,2022-11-16,有限会社西水コーポレーション,,有限会社,福島県,いわき市,平中平窪字古館２３番地,,07,204,9708002,,,2022-11-16,清算の結了等,,,2015-10-05,1,,,,,セイスイコーポレーション,0
1175,5400002001513,登記記録の閉鎖等,0,2022-11-24,2022-11-18,有限会社サワムラビジネス,,有限会社,岩手県,盛岡市,津志田中央３丁目２１番３５号,,03,201,0200838,,,2022-11-18,清算の結了等,,,2015-10-05,1,,,,,サワムラビジネス,0
1184,5490001005184,登記記録の閉鎖等,0,2022-11-24,2022-11-22,丸屋本店株式会社,,株式会社,高知県,宿毛市,中央１丁目１番１９号,,39,208,7880001,,,2022-11-22,清算の結了等,,,2015-10-05,1,,,,,マルヤホンテン,0
1212,6010701022138,登記記録の閉鎖等,0,2022-11-24,2022-11-16,株式会社ストーンフィールド,,株式会社,東京都,大田区,南千束１丁目２３番１５号,,13,111,1450063,,,2022-11-16,清算の結了等,,,2015-10-05,1,,,,,ストーンフィールド,0
1215,6010802000455,登記記録の閉鎖等,0,2022-11-24,2022-11-16,有限会社アサ,,有限会社,東京都,大田区,大森北６丁目９番６号,,13,111,1430016,,,2022-11-16,清算の結了等,,,2015-10-05,1,,,,,アサ,0
1216,6010802003631,登記記録の閉鎖等,0,2022-11-24,2022-11-16,有限会社叶,,有限会社,東京都,大田区,北馬込１丁目１６番７－９０２号,,13,111,1430021,,,2022-11-16,清算の結了等,,,2015-10-05,1,,,,,,0
1217,6011001104700,登記記録の閉鎖等,0,2022-11-24,2022-11-22,株式会社仁誠会,,株式会社,東京都,渋谷区,代々木２丁目２９番１４号,,13,113,1510053,,,2022-11-22,清算の結了等,,,2015-10-05,1,,,,,,0
1234,6011501025446,登記記録の閉鎖等,0,2022-11-24,2022-11-15,アドヴァンスド・ハイドロ・エネルギー株式会社,,株式会社,東京都,北区,西ケ原１丁目４８番３号,,13,117,1140024,,,2022-11-15,清算の結了等,,,2019-12-26,1,,,,,アドヴァンスドハイドロエネルギー,0
1245,6012401025024,登記記録の閉鎖等,0,2022-11-24,2022-11-17,株式会社ＧＰＰ,,株式会社,東京都,調布市,深大寺元町３丁目３８番地１,,13,208,1820017,,,2022-11-17,清算の結了等,,,2015-10-05,1,,,,,ジーピーピー,0
1258,6020001104239,登記記録の閉鎖等,0,2022-11-24,2022-11-21,株式会社アルファチャンネル,,株式会社,神奈川県,川崎市川崎区,榎町１－１川崎センタービル５Ｆ,,14,131,2100002,,,2022-11-21,清算の結了等,,,2015-10-05,1,,,,,アルファチャンネル,0
1262,6020002060373,登記記録の閉鎖等,0,2022-11-24,2022-11-21,有限会社蒲野工務店,,有限会社,神奈川県,横浜市旭区,鶴ケ峰１丁目８０番地２０,,14,112,2410022,,,2022-11-21,清算の結了等,,,2015-10-05,1,,,,,ガマノコウムテン,0
1263,6020005004253,登記記録の閉鎖等,0,2022-11-24,2022-11-21,特定非営利活動法人エヌピーオー緑の街,,その他の設立登記法人,神奈川県,横浜市都筑区,荏田南５丁目７番９号,,14,118,2240007,,,2022-11-21,清算の結了等,,,2015-10-05,1,,,,,エヌピーオーミドリノマチ,0
1272,6030002064225,登記記録の閉鎖等,0,2022-11-24,2022-11-16,有限会社松栄,,有限会社,埼玉県,和光市,白子２丁目２１番１０号,,11,229,3510101,,,2022-11-16,清算の結了等,,,2015-10-05,1,,,,,ショウエイ,0
1278,6040001112272,登記記録の閉鎖等,0,2022-11-24,2022-11-16,株式会社彩創,,株式会社,千葉県,松戸市,西馬橋５丁目２４７番地,,12,207,2710044,,,2022-11-16,清算の結了等,,,2020-01-23,1,,,,,サイソー,0
1282,6040002093099,登記記録の閉鎖等,0,2022-11-24,2022-11-15,有限会社丸山青果,,有限会社,千葉県,我孫子市,天王台６丁目３番１０号,,12,222,2701143,,,2022-11-15,清算の結了等,,,2015-10-05,1,,,,,マルヤマセイカ,0
1291,6080001014390,登記記録の閉鎖等,0,2022-11-24,2022-11-21,株式会社アルファ,,株式会社,静岡県,榛原郡吉田町,川尻６６０番地の４,,22,424,4210302,,,2022-11-21,清算の結了等,,,2015-10-05,1,,,,,アルファ,0
1293,6090002006304,登記記録の閉鎖等,0,2022-11-24,2022-11-18,有限会社ダイドー商事,,有限会社,山梨県,甲府市,太田町１２番１０号,,19,201,4000865,,,2022-11-18,清算の結了等,,,2015-10-05,1,,,,,ダイドーショウジ,0
1294,6090002010859,登記記録の閉鎖等,0,2022-11-24,2022-11-16,有限会社日川タクシー,,有限会社,山梨県,山梨市,下栗原１１３９番地,,19,205,4050023,,,2022-11-16,清算の結了等,,,2015-10-05,1,,,,,ヒカワタクシー,0
1306,6120001057765,登記記録の閉鎖等,0,2022-11-24,2022-11-18,株式会社ハーツ不動産,,株式会社,大阪府,大阪市淀川区,東三国４丁目３番１０号,,27,123,5320002,,,2022-11-18,清算の結了等,,,2015-10-05,1,,,,,,0
1314,6120001182480,登記記録の閉鎖等,0,2022-11-24,2022-11-21,阪南広告株式会社,,株式会社,大阪府,大阪市阿倍野区,西田辺町１丁目１２番７－２０１号,,27,119,5450014,,,2022-11-21,清算の結了等,,,2015-10-05,1,,,,,ハンナンコウコク,0
1334,6130005004011,登記記録の閉鎖等,0,2022-11-24,2022-11-21,医療法人みね医院,,その他の設立登記法人,京都府,京都市上京区,堀川通一条上る晴明町８１１番地,,26,102,6028222,,,2022-11-21,清算の結了等,,,2015-10-05,1,,,,,ミネイイン,0
1342,6140001084469,登記記録の閉鎖等,0,2022-11-24,2022-11-21,ディアホーム株式会社,,株式会社,兵庫県,宝塚市,仁川月見ガ丘８番７号,,28,214,6650067,,,2022-11-21,清算の結了等,,,2015-10-05,1,,,,,ディアホーム,0
1343,6140001102503,登記記録の閉鎖等,0,2022-11-24,2022-11-21,株式会社タクミ,,株式会社,兵庫県,神戸市東灘区,住吉台２８番１３号,,28,101,6580062,,,2022-11-21,清算の結了等,,,2016-07-04,1,,,,,タクミ,0
1357,6180002045425,登記記録の閉鎖等,0,2022-11-24,2022-11-21,有限会社愛知トラスト,,有限会社,愛知県,名古屋市中区,千代田２丁目１９番１６号,,23,106,4600012,,,2022-11-21,清算の結了等,,,2015-10-05,1,,,,,アイチトラスト,0
1392,6290002038401,登記記録の閉鎖等,0,2022-11-24,2022-11-16,有限会社協和管理,,有限会社,福岡県,糟屋郡久山町,大字山田１６８１番地,,40,348,8112502,,,2022-11-16,清算の結了等,,,2015-10-05,1,,,,,キョウワカンリ,0
1402,6330001017863,登記記録の閉鎖等,0,2022-11-24,2022-11-18,株式会社ＭＭＭ,,株式会社,熊本県,山鹿市,鹿本町高橋３０７番７,,43,208,8610303,,,2022-11-18,清算の結了等,,,2015-10-05,1,,,,,,0
1434,7010001043296,登記記録の閉鎖等,0,2022-11-24,2022-11-17,小谷商事株式会社,,株式会社,東京都,中央区,日本橋大伝馬町１７番６号,,13,102,1030011,,,2022-11-17,清算の結了等,,,2015-10-05,1,,,,,コタニショウジ,0
1465,7010901039724,登記記録の閉鎖等,0,2022-11-24,2022-11-21,株式会社ウエストアイル,,株式会社,神奈川県,川崎市高津区,二子２丁目８－１－２０９,,14,134,2130002,,,2022-11-21,清算の結了等,,,2017-03-17,1,,,,,ウエストアイル,0
1482,7011101087126,登記記録の閉鎖等,0,2022-11-24,2022-11-22,金澤商事株式会社,,株式会社,東京都,新宿区,築地町１６－１－１０３,,13,104,1620818,,,2022-11-22,清算の結了等,,,2019-03-14,1,,,,,カナザワショウジ,0
1490,7011301018582,登記記録の閉鎖等,0,2022-11-24,2022-11-15,株式会社スタイルアセットマネジメント,,株式会社,東京都,杉並区,成田東５丁目１５－２２,,13,115,1660015,,,2022-11-15,清算の結了等,,,2015-10-05,1,,,,,スタイルアセットマネジメント,0
1516,7020003017933,登記記録の閉鎖等,0,2022-11-24,2022-11-18,合同会社ＭｉｙａＢｅｅ,,合同会社,神奈川県,横浜市港北区,篠原町１２５７－３２,,14,109,2220026,,,2022-11-18,清算の結了等,,,2020-06-02,1,,,,,ミヤビィー,0
1522,7021002045198,登記記録の閉鎖等,0,2022-11-24,2022-11-21,有限会社スプリント,,有限会社,神奈川県,海老名市,下今泉４丁目４番４号,,14,215,2430435,,,2022-11-21,清算の結了等,,,2015-10-05,1,,,,,スプリント,0
1533,7030002060545,登記記録の閉鎖等,0,2022-11-24,2022-11-08,アクティブ有限会社,,有限会社,埼玉県,新座市,本多１丁目１１番１０号,,11,230,3520022,,,2022-11-08,清算の結了等,,,2015-10-05,1,,,,,アクティブ,0
1542,7040001090468,登記記録の閉鎖等,0,2022-11-24,2022-11-17,株式会社ＺＯＵ,,株式会社,千葉県,松戸市,常盤平５丁目２３番１,,12,207,2702261,,,2022-11-17,合併による解散等,2340002026255,令和４年１０月３１日鹿児島県鹿屋市白崎町５番１１号株式会社ビジネスホテルしらさぎ（2340002026255）に合併し解散,2015-10-05,1,,,,,,0
1568,7120001215454,登記記録の閉鎖等,0,2022-11-24,2022-11-18,株式会社ヒーローパートナー,,株式会社,大阪府,大阪市西淀川区,御幣島２丁目１２番２２号フジハイムアスヒ１０１号室,,27,113,5550012,,,2022-11-18,清算の結了等,,,2018-08-23,1,,,,,,0
1584,7130001018369,登記記録の閉鎖等,0,2022-11-24,2022-11-18,株式会社瑞穂,,株式会社,京都府,京都市下京区,万寿寺通室町西入長刀切町２１７番地,,26,106,6008438,,,2022-11-18,清算の結了等,,,2015-10-05,1,,,,,ミズホ,0
1593,7130003005349,登記記録の閉鎖等,0,2022-11-24,2022-11-18,合同会社明観,,合同会社,京都府,京都市中京区,三条通新町西入ル釜座町２２ストークビル三条烏丸５０６,,26,104,6040000,,,2022-11-18,清算の結了等,,,2018-01-12,1,,,,,ミョウカン,0
1601,7180001077484,登記記録の閉鎖等,0,2022-11-24,2022-11-14,株式会社江口,,株式会社,愛知県,小牧市,小牧３丁目１６２番地,,23,219,4850041,,,2022-11-14,清算の結了等,,,2015-10-05,1,,,,,エグチ,0
1611,7180302015738,登記記録の閉鎖等,0,2022-11-24,2022-11-21,有限会社日栄リース,,有限会社,愛知県,蒲郡市,大塚町平原８４番地１,00075050,23,214,4430013,,,2022-11-21,清算の結了等,,,2015-10-05,1,,,,,ニチエイリース,0
1614,7220001023509,登記記録の閉鎖等,0,2022-11-24,2022-11-21,株式会社翔和,,株式会社,石川県,七尾市,鵜浦町６９部１６番地甲,,17,202,9260001,,,2022-11-21,清算の結了等,,,2020-04-22,1,,,,,ショウワ,0
1617,7230002012278,登記記録の閉鎖等,0,2022-11-24,2022-11-21,有限会社吉田電業,,有限会社,富山県,高岡市,太田４８４０番地,,16,202,9330133,,,2022-11-21,清算の結了等,,,2015-10-05,1,,,,,ヨシダデンギョウ,0
1625,7250002013522,登記記録の閉鎖等,0,2022-11-24,2022-11-21,山下燃料有限会社,,有限会社,山口県,萩市,大字椿東３１００番地,,35,204,7580011,,,2022-11-21,清算の結了等,,,2015-10-05,1,,,,,ヤマシタネンリョウ,0
1629,7260001025204,登記記録の閉鎖等,0,2022-11-24,2022-11-22,株式会社Ｈ＆Ｈ　ｃｏｒｐｏｒａｔｉｏｎ,,株式会社,静岡県,浜松市西区,西鴨江町２９０１－５,,22,133,4328067,,,2022-11-22,清算の結了等,,,2015-10-05,1,,,,,エイチアンドエイチコーポレーショ,0
1633,7260002018553,登記記録の閉鎖等,0,2022-11-24,2022-11-21,丸宮織物有限会社,,有限会社,岡山県,倉敷市,児島唐琴３丁目１番１７号,,33,202,7110904,,,2022-11-21,清算の結了等,,,2015-10-05,1,,,,,マルミヤオリモノ,0
1635,7270005004244,登記記録の閉鎖等,0,2022-11-24,2022-11-17,医療法人社団伊藤医院,,その他の設立登記法人,鳥取県,倉吉市,駄経寺町２４５番地,,31,203,6820816,,,2022-11-17,清算の結了等,,,2015-10-05,1,,,,,イトウイイン,0
1654,7330002000504,登記記録の閉鎖等,0,2022-11-24,2022-11-14,有限会社歩教材,,有限会社,熊本県,熊本市東区,戸島西６丁目１２番２号,,43,102,8618043,,,2022-11-14,清算の結了等,,,2015-10-05,1,,,,,アユムキョウザイ,0
1656,7360001026869,登記記録の閉鎖等,0,2022-11-24,2022-11-16,株式会社ハーモニー,,株式会社,沖縄県,浦添市,城間３丁目２４番２－１号,,47,208,9012133,,,2022-11-16,清算の結了等,,,2020-03-05,1,,,,,ハーモニー,0
1664,7400002002690,登記記録の閉鎖等,0,2022-11-24,2022-11-18,有限会社評価テクニカルセンター,,有限会社,岩手県,盛岡市,西青山３丁目６番３８号,,03,201,0200132,,,2022-11-18,清算の結了等,,,2015-10-05,1,,,,,,0
1666,7430001019080,登記記録の閉鎖等,0,2022-11-24,2022-11-17,三興食品株式会社,,株式会社,北海道,札幌市豊平区,平岸四条１４丁目４番７－１０２号,,01,105,0620934,,,2022-11-17,清算の結了等,,,2015-10-05,1,,,,,サンコウショクヒン,0
1671,7460101006406,登記記録の閉鎖等,0,2022-11-24,2022-11-21,株式会社船戸重機,,株式会社,北海道,河東郡音更町,新通１２丁目１１番地４,,01,631,0800104,,,2022-11-21,清算の結了等,,,2018-07-06,1,,,,,,0
1690,8010401017485,登記記録の閉鎖等,0,2022-11-24,2022-11-17,第一パーキング工業株式会社,,株式会社,東京都,中央区,日本橋箱崎町２０番３号箱崎公園ビル,,13,102,1030015,,,2022-11-17,清算の結了等,,,2015-10-05,1,,,,,ダイイチパーキングコウギョウ,0
1696,8010401130040,登記記録の閉鎖等,0,2022-11-24,2022-11-15,株式会社青山インベストメント・パートナーズ１号,,株式会社,東京都,港区,赤坂８丁目４番１４号,,13,103,1070052,,,2022-11-15,清算の結了等,,,2017-03-06,1,,,,,アオヤマインベストメントパートナーズイチゴウ,0
1716,8010801019882,登記記録の閉鎖等,0,2022-11-24,2022-11-16,柳沢設備株式会社,,株式会社,東京都,大田区,西蒲田６丁目３６番３号伸和ハイツ１０２号,,13,111,1440051,,,2022-11-16,清算の結了等,,,2015-10-05,1,,,,,ヤナギサワセツビ,0
1743,8013301029666,登記記録の閉鎖等,0,2022-11-24,2022-11-17,株式会社ｋｉｚｕｎａ,,株式会社,東京都,豊島区,南大塚３丁目５５番１号,,13,116,1700005,,,2022-11-17,清算の結了等,,,2015-10-05,1,,,,,キズナ,0
1754,8020001093249,登記記録の閉鎖等,0,2022-11-24,2022-11-21,株式会社ザクト,,株式会社,神奈川県,川崎市川崎区,榎町一丁目１番地,,14,131,2100002,,,2022-11-21,清算の結了等,,,2015-10-05,1,,,,,ザクト,0
1764,8021001055321,登記記録の閉鎖等,0,2022-11-24,2022-11-21,株式会社Ｒｉｎｋｓ,,株式会社,神奈川県,小田原市,南鴨宮１丁目１１番１３号小川ビル１０２,,14,206,2500875,,,2022-11-21,清算の結了等,,,2015-10-05,1,,,,,,0
1766,8021002017106,登記記録の閉鎖等,0,2022-11-24,2022-11-18,有限会社カルテクノ,,有限会社,神奈川県,鎌倉市,西御門１丁目２３－１２,,14,204,2480004,,,2022-11-18,清算の結了等,,,2015-10-05,1,,,,,カルテクノ,0
1793,8080001013093,登記記録の閉鎖等,0,2022-11-24,2022-11-21,株式会社信和工業,,株式会社,静岡県,島田市,横井４丁目１７番３１号,,22,209,4270024,,,2022-11-21,清算の結了等,,,2015-10-05,1,,,,,シンワコウギョウ,0
1799,8080402022429,登記記録の閉鎖等,0,2022-11-24,2022-11-22,有限会社山里,,有限会社,静岡県,袋井市,下山梨１６０２番地の１,,22,216,4370123,,,2022-11-22,清算の結了等,,,2015-10-05,1,,,,,ヤマザト,0
1806,8120001041271,登記記録の閉鎖等,0,2022-11-24,2022-11-21,石長株式会社,,株式会社,大阪府,大阪市西区,江戸堀１丁目２５番３１号,,27,106,5500002,,,2022-11-21,清算の結了等,,,2015-10-05,1,,,,,イシチョウ,0
1826,8122001002419,登記記録の閉鎖等,0,2022-11-24,2022-11-18,株式会社クボタ,,株式会社,大阪府,東大阪市,高井田本通２丁目６番２号,,27,227,5770066,,,2022-11-18,清算の結了等,,,2015-10-05,1,,,,,クボタ,0
1837,8140001041550,登記記録の閉鎖等,0,2022-11-24,2022-11-18,ホルベイン画布株式会社,,株式会社,兵庫県,丹波市,春日町国領４２８番地,,28,223,6694273,,,2022-11-18,清算の結了等,,,2015-10-05,1,,,,,ホルベインガフ,0
1853,8180001131777,登記記録の閉鎖等,0,2022-11-24,2022-11-18,Ｊ－ＴＥＣ株式会社,,株式会社,愛知県,一宮市,春明字西柳原６４番地,,23,203,4910003,,,2022-11-18,清算の結了等,,,2018-04-06,1,,,,,ジェイテック,0
1854,8180003015722,登記記録の閉鎖等,0,2022-11-24,2022-11-21,Ｂｌｕｅ　Ｏｃｅａｎ合同会社,,合同会社,愛知県,名古屋市北区,米が瀬町６４番地,,23,103,4620031,,,2022-11-21,清算の結了等,,,2015-10-05,1,,,,,ブルーオーシャン,0
1865,8210002009498,登記記録の閉鎖等,0,2022-11-24,2022-11-21,有限会社杉本興業,,有限会社,福井県,大野市,中野３２号２０番地,,18,205,9120021,,,2022-11-21,清算の結了等,,,2015-10-05,1,,,,,スギモトコウギョウ,0
1873,8260002004461,登記記録の閉鎖等,0,2022-11-24,2022-11-24,有限会社サトウエステート,,有限会社,岡山県,岡山市中区,原尾島３丁目１５番３１号,,33,102,7038235,,,2022-11-24,清算の結了等,,,2015-10-05,1,,,,,サトウエステート,0
1875,8280002001465,登記記録の閉鎖等,0,2022-11-24,2022-11-17,有限会社ツクバ技建,,有限会社,島根県,松江市,東出雲町春日５４５番地１,,32,201,6990106,,,2022-11-17,清算の結了等,,,2015-10-05,1,,,,,ツクバギケン,0
1881,8290001054827,登記記録の閉鎖等,0,2022-11-24,2022-11-17,株式会社エグゼライフ,,株式会社,福岡県,三潴郡大木町,大字侍島１００４番地１,,40,522,8300412,,,2022-11-17,清算の結了等,,,2015-10-05,1,,,,,エグゼライフ,0
1888,8290003001785,登記記録の閉鎖等,0,2022-11-24,2022-11-17,ＭＯＳＴ合同会社,,合同会社,福岡県,糟屋郡宇美町,とびたけ１丁目１９番１１号,,40,341,8112107,,,2022-11-17,清算の結了等,,,2015-10-05,1,,,,,モスト,0
1909,8380002008252,登記記録の閉鎖等,0,2022-11-24,2022-11-16,有限会社エムケイ,,有限会社,福島県,郡山市,菜根５丁目２番１６号,,07,203,9638862,,,2022-11-16,清算の結了等,,,2015-10-05,1,,,,,エムケイ,0
1923,8460101005324,登記記録の閉鎖等,0,2022-11-24,2022-11-21,株式会社スマート,,株式会社,北海道,帯広市,西二十条北２丁目２３番地１２,,01,207,0802460,,,2022-11-21,清算の結了等,,,2015-10-05,1,,,,,スマート,0
1952,9010401138487,登記記録の閉鎖等,0,2022-11-24,2022-11-14,Ｇｒｅａｔ　Ｆｉｅｌｄｓ株式会社,,株式会社,東京都,港区,南麻布４丁目１１番１７－３４３号,,13,103,1060047,,,2022-11-14,清算の結了等,,,2018-05-22,1,,,,,グレイトフィールズ,0
2009,9020002002868,登記記録の閉鎖等,0,2022-11-24,2022-11-18,有限会社シンコー電気設備,,有限会社,神奈川県,横浜市泉区,上飯田町９９４番地４,,14,116,2450018,,,2022-11-18,清算の結了等,,,2015-10-05,1,,,,,シンコーデンキセツビ,0
2012,9020002042303,登記記録の閉鎖等,0,2022-11-24,2022-11-17,久里浜鉄工有限会社,,有限会社,神奈川県,横浜市中区,本町１丁目５番地２,,14,104,2310005,,,2022-11-17,清算の結了等,,,2015-10-05,1,,,,,クリハマテッコウ,0
2013,9020002066681,登記記録の閉鎖等,0,2022-11-24,2022-11-09,有限会社シーズ・ボックス研究所,,有限会社,神奈川県,横浜市港北区,大倉山４丁目５番１－２１１号,,14,109,2220037,,,2022-11-09,清算の結了等,,,2015-10-05,1,,,,,シーズボックスケンキュウジョ,0
2015,9020003016751,登記記録の閉鎖等,0,2022-11-24,2022-11-18,ｐ０ｐ０ｂａｌｌｏｏｎ　Ｅｎｔｅｒｔａｉｎｍｅｎｔ合同会社,,合同会社,神奈川県,横浜市南区,永田南２丁目１８番１１号,,14,105,2320073,,,2022-11-18,清算の結了等,,,2019-10-08,1,,,,,ポポバルーンエンターテインメント,0
2021,9021002071416,登記記録の閉鎖等,0,2022-11-24,2022-11-21,有限会社海生水産,,有限会社,神奈川県,三浦市,岬陽町１８番１３号,,14,210,2380222,,,2022-11-21,清算の結了等,,,2015-10-05,1,,,,,カイセイスイサン,0
2029,9030002106164,登記記録の閉鎖等,0,2022-11-24,2022-11-16,有限会社ハヤカワテクノス,,有限会社,埼玉県,川口市,上青木西３丁目１番９号,,11,203,3330845,,,2022-11-16,清算の結了等,,,2015-10-05,1,,,,,ハヤカワテクノス,0
2040,9040002048141,登記記録の閉鎖等,0,2022-11-24,2022-11-15,有限会社日野,,有限会社,千葉県,松戸市,松戸１２８７番地,,12,207,2710092,,,2022-11-15,清算の結了等,,,2015-10-05,1,,,,,ヒノ,0
2062,9120001088469,登記記録の閉鎖等,0,2022-11-24,2022-11-21,藤井善株式会社,,株式会社,大阪府,大阪市中央区,平野町３丁目４番５号,,27,128,5410046,,,2022-11-21,清算の結了等,,,2015-10-05,1,,,,,フジイゼン,0
2071,9120001099499,登記記録の閉鎖等,0,2022-11-24,2022-11-17,株式会社ロイヤルホリデー,,株式会社,福岡県,福岡市中央区,舞鶴３丁目２番３５号,,40,133,8100073,,,2022-11-17,清算の結了等,,,2015-10-05,1,,,,,,0
2078,9120001209644,登記記録の閉鎖等,0,2022-11-24,2022-11-18,株式会社パスレル,,株式会社,大阪府,大阪市淀川区,加島１丁目２３番９号,,27,123,5320031,,,2022-11-18,清算の結了等,,,2017-11-22,1,,,,,パスレル,0
2087,9120002037219,登記記録の閉鎖等,0,2022-11-24,2022-11-21,有限会社テージーオプチカル,,有限会社,大阪府,大阪市中央区,谷町７丁目６番８号,,27,128,5420012,,,2022-11-21,清算の結了等,,,2015-10-05,1,,,,,テージーオプチカル,0
2106,9130001044025,登記記録の閉鎖等,0,2022-11-24,2022-11-16,株式会社スターシップ,,株式会社,京都府,舞鶴市,字吉田２１０番地,,26,202,6240943,,,2022-11-16,清算の結了等,,,2015-10-05,1,,,,,スターシップ,0
2107,9140001034173,登記記録の閉鎖等,0,2022-11-24,2022-11-17,株式会社ＱｕｏＲｅａ,,株式会社,兵庫県,神戸市中央区,御幸通８丁目１番６号神戸国際会館２２階,,28,110,6510087,,,2022-11-17,清算の結了等,,,2015-10-05,1,,,,,クオリア,0
2110,9140003010809,登記記録の閉鎖等,0,2022-11-24,2022-11-21,合同会社宏学社,,合同会社,兵庫県,淡路市,志筑２３２５番地２０,,28,226,6562131,,,2022-11-21,清算の結了等,,,2015-10-05,1,,,,,,0
2113,9150002004694,登記記録の閉鎖等,0,2022-11-24,2022-11-21,有限会社ＴＹＫネットワークＩ,,有限会社,奈良県,奈良市,西大寺国見町２丁目３３３番地の５,,29,201,6310823,,,2022-11-21,清算の結了等,,,2015-10-05,1,,,,,ティーワイケーネットワークワン,0
2114,9170001002813,登記記録の閉鎖等,0,2022-11-24,2022-11-21,株式会社ヒラマツ,,株式会社,和歌山県,和歌山市,新中通６丁目１５番地,,30,201,6408376,,,2022-11-21,合併による解散等,2170001002092,令和４年１１月２１日和歌山市中島１８５番地の３株式会社オークワ（2170001002092）に合併し解散,2015-10-05,1,,,,,ヒラマツ,0
2117,9180001090691,登記記録の閉鎖等,0,2022-11-24,2022-11-21,株式会社グリーンローズ,,株式会社,愛知県,名古屋市港区,港陽１丁目５番１６号,,23,111,4550013,,,2022-11-21,清算の結了等,,,2015-10-05,1,,,,,グリーンローズ,0
2127,9180305008662,登記記録の閉鎖等,0,2022-11-24,2022-11-16,特定非営利活動法人ゴスペルエイド,,その他の設立登記法人,愛知県,岡崎市,細川町字窪地７７－２０７,,23,202,4442149,,,2022-11-16,清算の結了等,,,2017-06-02,1,,,,,ゴスペルエイド,0
2150,9320002005898,登記記録の閉鎖等,0,2022-11-24,2022-11-21,有限会社藤田組,,有限会社,大分県,大分市,大字金谷迫１５５４番地の２,,44,201,8700879,,,2022-11-21,清算の結了等,,,2015-10-05,1,,,,,フジタグミ,0
