sequenceNumber,corporateNumber,process,correct,updateDate,changeDate,name,nameImageId,kind,prefectureName,cityName,streetNumber,addressImageId,prefectureCode,cityCode,postCode,addressOutside,addressOutsideImageId,closeDate,closeCause,successorCorporateNumber,changeCause,assignmentDate,latest,enName,enPrefectureName,enCityName,enAddressOutside,furigana,hihyoji
26,1010701044806,登記記録の閉鎖等,0,2025-06-09,2025-05-21,キャセイモアジャパン株式会社,,株式会社,東京都,品川区,西五反田２丁目１１番１５－６０３室,,13,109,1410031,,,2025-05-21,清算の結了等,,,2023-09-11,1,,,,,キャセイモアジャパン,0
28,1010801010591,登記記録の閉鎖等,0,2025-06-09,2025-06-02,三栄プロキャスト株式会社,,株式会社,愛知県,名古屋市東区,東桜２丁目１７番２号,,23,102,4610005,,,2025-06-02,合併による解散等,2180001016694,令和７年６月１日名古屋市東区東桜二丁目１７番６号三栄商事株式会社（2180001016694）に合併し解散,2015-10-05,1,,,,,サンエイプロキャスト,0
89,1040001036518,登記記録の閉鎖等,0,2025-06-09,2025-05-21,日東技研工業株式会社,,株式会社,千葉県,松戸市,稔台６丁目９番地１１,,12,207,2702231,,,2025-05-21,清算の結了等,,,2015-10-05,1,,,,,ニットウギケンコウギョウ,0
110,1080101009007,登記記録の閉鎖等,0,2025-06-09,2025-06-02,株式会社竹村ビル,,株式会社,静岡県,富士市,吉原１丁目８番２１号,,22,210,4170051,,,2025-06-02,清算の結了等,,,2015-10-05,1,,,,,タケムラビル,0
114,1110001035578,登記記録の閉鎖等,0,2025-06-09,2025-05-29,株式会社一八菜,,株式会社,新潟県,上越市,大学前１３１番地,,15,222,9430810,,,2025-05-29,清算の結了等,,,2021-03-05,1,,,,,ヒトハナ,0
119,1110002024225,登記記録の閉鎖等,0,2025-06-09,2025-05-30,有限会社平田総業,,有限会社,新潟県,上越市,藤新田２丁目４番１９号,,15,222,9430816,,,2025-05-30,清算の結了等,,,2015-10-05,1,,,,,ヒラタソウギョウ,0
127,1120001126418,登記記録の閉鎖等,0,2025-06-09,2025-06-04,株式会社ＳＭＣ,,株式会社,大阪府,大阪市北区,中之島６丁目１番３８－３８０６号,,27,127,5300005,,,2025-06-04,清算の結了等,,,2015-10-05,1,,,,,エスエムシー,0
133,1120001188813,登記記録の閉鎖等,0,2025-06-09,2025-06-04,株式会社ガカシア,,株式会社,大阪府,大阪市北区,天神橋７丁目７番８号,,27,127,5310041,,,2025-06-04,清算の結了等,,,2015-10-05,1,,,,,ガカシア,0
159,1120003023217,登記記録の閉鎖等,0,2025-06-09,2025-06-02,キャリア＆ラーニング・デザイン合同会社,,合同会社,大阪府,大阪市北区,梅田１丁目２番２号大阪駅前第２ビル,,27,127,5300001,,,2025-06-02,清算の結了等,,,2023-01-13,1,,,,,キャリアアンドラーニングデザイン,0
180,1140002056117,登記記録の閉鎖等,0,2025-06-09,2025-06-02,有限会社兼政金物店,,有限会社,兵庫県,西宮市,甲風園１丁目８番１３号,,28,204,6620832,,,2025-06-02,合併による解散等,5140001068241,令和７年６月１日兵庫県西宮市今津久寿川町３番３号株式会社オカベ（5140001068241）に合併し解散,2015-10-05,1,,,,,カネマサカナモノテン,0
194,1180001156302,登記記録の閉鎖等,0,2025-06-09,2025-06-03,Ａｘｉａ株式会社,,株式会社,愛知県,稲沢市,平和町那古良１１６番地,,23,220,4901323,,,2025-06-03,清算の結了等,,,2023-05-25,1,,,,,アクシア,0
198,1180301025066,登記記録の閉鎖等,0,2025-06-09,2025-06-05,株式会社ナイス,,株式会社,愛知県,豊橋市,草間町字東山２７番地の１,,23,201,4418141,,,2025-06-05,清算の結了等,,,2015-10-05,1,,,,,,0
206,1220003003753,登記記録の閉鎖等,0,2025-06-09,2025-06-02,株式会社馬場ホールディングス,,株式会社,石川県,白山市,旭丘１丁目１番地,,17,210,9240004,,,2025-06-02,合併による解散等,8220001009341,令和７年６月１日石川県白山市旭丘一丁目１番地株式会社馬場鐵工所（8220001009341）に合併し解散,2024-05-17,1,,,,,ババホールディングス,0
245,1370605000340,登記記録の閉鎖等,0,2025-06-09,2025-05-30,医療法人社団八穂会遠藤医院,,その他の設立登記法人,宮城県,塩竈市,赤坂１番１－３０１号エクレール赤坂ヒルズ,,04,203,9850055,,,2025-05-30,清算の結了等,,,2015-10-05,1,,,,,ハチホカイエンドウイイン,0
255,1430002024564,登記記録の閉鎖等,0,2025-06-09,2025-06-02,有限会社北海道テレコム,,有限会社,北海道,札幌市西区,西野四条２丁目３番１号,,01,107,0630034,,,2025-06-02,清算の結了等,,,2015-10-05,1,,,,,ホッカイドウテレコム,0
278,2010003035478,登記記録の閉鎖等,0,2025-06-09,2025-06-02,大分杉原土地合同会社,,合同会社,東京都,中央区,八丁堀４丁目２番１０号ＡＯＪ税理士法人内,,13,102,1040032,,,2025-06-02,合併による解散等,6010003034105,令和７年６月１日東京都中央区八丁堀四丁目２番１０号ＡＯＪ税理士法人内大分杉原太陽光発電所合同会社（6010003034105）に合併し解散,2021-08-03,1,,,,,オオイタスギバルトチ,0
320,2011301028776,登記記録の閉鎖等,0,2025-06-09,2025-06-02,株式会社Ｎｏｒｔｈ　Ｗｅａｌｔｈ,,株式会社,東京都,杉並区,上荻４丁目１２番１７号,,13,115,1670043,,,2025-06-02,清算の結了等,,,2023-06-14,1,,,,,ノースウェルス,0
326,2011802005902,登記記録の閉鎖等,0,2025-06-09,2025-06-03,有限会社日本システム音響,,有限会社,東京都,葛飾区,西水元１丁目２４番１号,,13,122,1250031,,,2025-06-03,清算の結了等,,,2015-10-05,1,,,,,ニホンシステムオンキョウ,0
332,2013102002043,登記記録の閉鎖等,0,2025-06-09,2025-06-03,有限会社シマダワークス,,有限会社,東京都,あきる野市,草花２８６５番地４,,13,228,1970802,,,2025-06-03,清算の結了等,,,2015-10-05,1,,,,,シマダワークス,0
344,2020005010767,登記記録の閉鎖等,0,2025-06-09,2025-06-02,ＮＰＯ法人中日友好小金橋談心会,,その他の設立登記法人,神奈川県,横浜市泉区,桂坂５番地２,,14,116,2450007,,,2025-06-02,清算の結了等,,,2015-10-05,1,,,,,チュウニチユウコウコガネバシダンシンカイ,0
354,2030002069392,登記記録の閉鎖等,0,2025-06-09,2025-06-02,有限会社ミヤマ建設,,有限会社,埼玉県,春日部市,藤塚１１１１番地７,,11,214,3440011,,,2025-06-02,清算の結了等,,,2015-10-05,1,,,,,,0
375,2070001018322,登記記録の閉鎖等,0,2025-06-09,2025-06-03,株式会社うめざわ板金店,,株式会社,群馬県,北群馬郡榛東村,大字新井３１３４番地３６,,10,344,3703503,,,2025-06-03,清算の結了等,,,2015-10-05,1,,,,,ウメザワバンキンテン,0
386,2110005008208,登記記録の閉鎖等,0,2025-06-09,2025-05-28,上越青果小売商業協同組合,,その他の設立登記法人,新潟県,上越市,藤巻６番１２号,,15,222,9430817,,,2025-05-28,清算の結了等,,,2015-10-05,1,,,,,ジョウエツセイカコウリショウギョウ,0
387,2110005017010,登記記録の閉鎖等,0,2025-06-09,2025-06-02,ＮＰＯ法人ひかりホーム,,その他の設立登記法人,新潟県,新潟市東区,藤見町２丁目１７番１０号,,15,102,9500025,,,2025-06-02,清算の結了等,,,2023-10-13,1,,,,,ヒカリホーム,0
388,2120001001842,登記記録の閉鎖等,0,2025-06-09,2025-06-02,株式会社コーセツ放出,,株式会社,大阪府,東大阪市,東豊浦町３番２０号,,27,227,5798032,,,2025-06-02,清算の結了等,,,2015-10-05,1,,,,,コーセツハナテン,0
391,2120001058833,登記記録の閉鎖等,0,2025-06-09,2025-06-04,株式会社モンク,,株式会社,大阪府,大阪市淀川区,塚本４丁目１番２５号,,27,123,5320026,,,2025-06-04,清算の結了等,,,2015-10-05,1,,,,,モンク,0
397,2120001146101,登記記録の閉鎖等,0,2025-06-09,2025-06-02,テクノ防振株式会社,,株式会社,大阪府,大阪市北区,天満橋３丁目３番５号,,27,127,5300042,,,2025-06-02,清算の結了等,,,2015-10-05,1,,,,,テクノボウシン,0
398,2120001154517,登記記録の閉鎖等,0,2025-06-09,2025-06-02,株式会社アルファテクノ,,株式会社,大阪府,大阪市此花区,伝法４丁目２－８,,27,104,5540002,,,2025-06-02,清算の結了等,,,2015-10-05,1,,,,,アルファテクノ,0
431,2140001082930,登記記録の閉鎖等,0,2025-06-09,2025-05-30,株式会社Ｓカンパニー,,株式会社,兵庫県,宝塚市,栄町２丁目１１番１号,,28,214,6650845,,,2025-05-30,清算の結了等,,,2015-10-05,1,,,,,エスカンパニー,0
432,2140001112992,登記記録の閉鎖等,0,2025-06-09,2025-06-03,株式会社ＡＬＣＡＭＯＮＥ,,株式会社,兵庫県,宝塚市,雲雀丘２丁目６番３２号,,28,214,6650805,,,2025-06-03,清算の結了等,,,2019-03-12,1,,,,,アルカモネ,0
447,2170002007578,登記記録の閉鎖等,0,2025-06-09,2025-06-05,有限会社アクア,,有限会社,和歌山県,岩出市,新田広芝１１１番地の９,,30,209,6496212,,,2025-06-05,清算の結了等,,,2015-10-05,1,,,,,アクア,0
461,2180002026032,登記記録の閉鎖等,0,2025-06-09,2025-06-03,有限会社タケダ工務店,,有限会社,愛知県,名古屋市緑区,桶狭間神明３７０４番地,,23,114,4580919,,,2025-06-03,清算の結了等,,,2015-10-05,1,,,,,タケダコウムテン,0
470,2190003003211,登記記録の閉鎖等,0,2025-06-09,2025-06-02,合同会社ネクストアクセス,,合同会社,三重県,四日市市,天カ須賀３丁目４番４５－１号,,24,202,5108001,,,2025-06-02,清算の結了等,,,2019-09-25,1,,,,,ネクストアクセス,0
472,2200001024637,登記記録の閉鎖等,0,2025-06-09,2025-06-02,株式会社真塾という名の学習塾,,株式会社,岐阜県,岐阜市,古市場１８９番地５,,21,201,5011121,,,2025-06-02,清算の結了等,,,2015-10-05,1,,,,,シンジュクトイウナノガクシュウジュク,0
490,2240002014261,登記記録の閉鎖等,0,2025-06-09,2025-06-04,株式会社ファボール,,株式会社,兵庫県,神戸市東灘区,向洋町中５丁目１５番地６２１号,,28,101,6580032,,,2025-06-04,合併による解散等,8240002018612,令和７年６月１日広島市中区本通２番１０号メガネの田中ホールディングス株式会社（8240002018612）に合併し解散,2015-10-05,1,,,,,ファボール,0
497,2260003004895,登記記録の閉鎖等,0,2025-06-09,2025-05-30,合同会社トータルコーディネート,,合同会社,岡山県,岡山市北区,御津国ケ原２５７－１ヴィラナリー国ケ原２号棟３０２号室,,33,101,7092112,,,2025-05-30,清算の結了等,,,2024-09-19,1,,,,,トータルコーディネート,0
499,2290001067578,登記記録の閉鎖等,0,2025-06-09,2025-05-30,株式会社ヤマト,,株式会社,福岡県,福岡市博多区,千代３丁目４２番１－１０７号,,40,132,8120044,,,2025-05-30,清算の結了等,,,2015-10-05,1,,,,,ヤマト,0
517,2310005001217,登記記録の閉鎖等,0,2025-06-09,2025-06-06,医療法人社団健正会,,その他の設立登記法人,長崎県,長崎市,古町６番地,,42,201,8500026,,,2025-06-06,清算の結了等,,,2015-10-05,1,,,,,ケンセイカイ,0
524,2330002000987,登記記録の閉鎖等,0,2025-06-09,2025-06-02,有限会社岩田工務店,,有限会社,熊本県,熊本市東区,戸島西４丁目２番６３号,,43,102,8618043,,,2025-06-02,清算の結了等,,,2015-10-05,1,,,,,イワタコウムテン,0
537,2400002007678,登記記録の閉鎖等,0,2025-06-09,2025-05-23,有限会社角舘養蜂場,,有限会社,岩手県,八幡平市,姥子石３１５番地,,03,214,0287606,,,2025-05-23,清算の結了等,,,2015-10-05,1,,,,,カクダテヨウホウジョウ,0
539,2410002000582,登記記録の閉鎖等,0,2025-06-09,2025-06-02,有限会社五十嵐板金工業,,有限会社,秋田県,秋田市,河辺北野田高屋字上前田表７３番地５,,05,201,0192625,,,2025-06-02,清算の結了等,,,2015-10-05,1,,,,,イガラシバンキン,0
541,2420002002306,登記記録の閉鎖等,0,2025-06-09,2025-05-29,有限会社ハナダ,,有限会社,青森県,青森市,長島３丁目１０番５号,,02,201,0300861,,,2025-05-29,清算の結了等,,,2015-10-05,1,,,,,,0
542,2430001014771,登記記録の閉鎖等,0,2025-06-09,2025-06-02,株式会社北診印刷,,株式会社,北海道,札幌市豊平区,豊平六条３丁目６番２２号,,01,105,0620906,,,2025-06-02,合併による解散等,3430001015174,令和７年６月１日札幌市東区伏古八条二丁目２番２１号北陽ビジネスフォーム株式会社（3430001015174）に合併し解散,2015-10-05,1,,,,,,0
545,2430001077026,登記記録の閉鎖等,0,2025-06-09,2025-06-02,株式会社チョモランマ,,株式会社,北海道,札幌市中央区,北五条西９丁目５ＢＹＹＡＲＤ　Ｎ５Ｗ９　３階,,01,101,0600005,,,2025-06-02,合併による解散等,6430001085545,令和７年６月１日札幌市中央区北一条西二十六丁目３－２９ノースハイム円山公園２０２号室株式会社ＮＩＮＡＩＴＥ（6430001085545）に合併し解散,2018-07-23,1,,,,,チョモランマ,0
559,2500001017404,登記記録の閉鎖等,0,2025-06-09,2025-06-02,株式会社コラボネット,,株式会社,愛媛県,松山市,束本１丁目６番１０号,,38,201,7900916,,,2025-06-02,合併による解散等,4010001243980,令和７年６月１日愛媛県松山市北井門二丁目１２番５号株式会社コラボハウス（4010001243980）に合併し解散,2015-10-05,1,,,,,コラボネット,0
585,3010101006586,登記記録の閉鎖等,0,2025-06-09,2025-06-04,株式会社三立電子,,株式会社,東京都,八王子市,初沢町１２２７番地の４Ａ－３１７号,,13,201,1930845,,,2025-06-04,清算の結了等,,,2015-10-05,1,,,,,,0
586,3010102006305,登記記録の閉鎖等,0,2025-06-09,2025-06-04,有限会社本間管工,,有限会社,東京都,八王子市,松が谷１８番地,,13,201,1920354,,,2025-06-04,清算の結了等,,,2015-10-05,1,,,,,ホンマカンコウ,0
619,3011002004489,登記記録の閉鎖等,0,2025-06-09,2025-05-12,有限会社経済企画商事,,有限会社,東京都,渋谷区,円山町３番６号,,13,113,1500044,,,2025-05-12,清算の結了等,,,2015-10-05,1,,,,,ケイザイキカクショウジ,0
632,3011701014276,登記記録の閉鎖等,0,2025-06-09,2025-06-02,株式会社スィーク・エイム,,株式会社,東京都,江戸川区,船堀１丁目８番２２－４０４号,,13,123,1340091,,,2025-06-02,清算の結了等,,,2015-10-05,1,,,,,スィークエイム,0
634,3012702013630,登記記録の閉鎖等,0,2025-06-09,2025-06-02,有限会社サンブロス,,有限会社,東京都,東村山市,富士見町２丁目１７番地８,,13,213,1890024,,,2025-06-02,清算の結了等,,,2015-10-05,1,,,,,サンブロス,0
659,3030001035907,登記記録の閉鎖等,0,2025-06-09,2025-06-03,株式会社小原製作所,,株式会社,埼玉県,八潮市,大字西袋１２１６番地,,11,234,3400833,,,2025-06-03,清算の結了等,,,2015-10-05,1,,,,,オバラセイサクショ,0
666,3030001115361,登記記録の閉鎖等,0,2025-06-09,2025-06-03,株式会社アノードラボ,,株式会社,埼玉県,草加市,青柳２丁目２番５号,,11,221,3400002,,,2025-06-03,清算の結了等,,,2016-07-08,1,,,,,アノードラボ,0
670,3040001017053,登記記録の閉鎖等,0,2025-06-09,2025-05-26,金子商事株式会社,,株式会社,千葉県,船橋市,滝台２丁目６番３５号,,12,204,2740074,,,2025-05-26,清算の結了等,,,2015-10-05,1,,,,,カネコショウジ,0
680,3040002004455,登記記録の閉鎖等,0,2025-06-09,2025-05-23,有限会社小宮マーク製作所,,有限会社,千葉県,千葉市若葉区,小倉台３丁目１９番６号,,12,104,2640006,,,2025-05-23,清算の結了等,,,2015-10-05,1,,,,,コミヤマークセイサクショ,0
690,3070001024360,登記記録の閉鎖等,0,2025-06-09,2025-06-03,株式会社キャピタルクリエート,,株式会社,群馬県,高崎市,江木町１５３５番地,,10,202,3700046,,,2025-06-03,清算の結了等,,,2015-10-05,1,,,,,キャピタルクリエート,0
705,3110003004380,登記記録の閉鎖等,0,2025-06-09,2025-05-29,奥羽越合同会社,,合同会社,新潟県,新潟市東区,東明７丁目２－１１,,15,102,9500853,,,2025-05-29,清算の結了等,,,2021-02-02,1,,,,,オウウエツ,0
708,3120001065754,登記記録の閉鎖等,0,2025-06-09,2025-06-02,新東宝映画株式会社,,株式会社,大阪府,大阪市住吉区,大領４丁目１２番８号,,27,120,5580001,,,2025-06-02,清算の結了等,,,2015-10-05,1,,,,,シントウホウエイガ,0
714,3120001183201,登記記録の閉鎖等,0,2025-06-09,2025-06-02,株式会社ジュン,,株式会社,大阪府,大阪市浪速区,元町１丁目１１番１０－２０１号,,27,111,5560016,,,2025-06-02,合併による解散等,9120002069682,令和７年６月１日大阪市浪速区元町一丁目１１番１０－２０１号株式会社平山興産（9120002069682）に合併し解散,2015-10-05,1,,,,,ジュン,0
725,3120002076222,登記記録の閉鎖等,0,2025-06-09,2025-06-02,有限会社大友産業,,有限会社,大阪府,枚方市,藤阪中町６番１６号,,27,210,5730152,,,2025-06-02,清算の結了等,,,2015-10-05,1,,,,,ダイユウサンギョウ,0
732,3120102015880,登記記録の閉鎖等,0,2025-06-09,2025-06-03,有限会社松福,,有限会社,大阪府,松原市,上田７丁目５番１９号,,27,217,5800016,,,2025-06-03,清算の結了等,,,2015-10-05,1,,,,,ショウフク,0
737,3120902018620,登記記録の閉鎖等,0,2025-06-09,2025-06-02,有限会社シンドウ,,有限会社,大阪府,豊中市,東豊中町４丁目１番２１号,,27,203,5600003,,,2025-06-02,清算の結了等,,,2015-10-05,1,,,,,シンドウ,0
748,3140001069200,登記記録の閉鎖等,0,2025-06-09,2025-06-02,株式会社清隆建設,,株式会社,兵庫県,西宮市,芦原町３番３３－１０１号,,28,204,6620842,,,2025-06-02,清算の結了等,,,2015-10-05,1,,,,,セイリュウケンセツ,0
750,3140001086567,登記記録の閉鎖等,0,2025-06-09,2025-05-30,株式会社ｕｓｅ　ｐｌａｎｎｉｎｇ九頭竜,,株式会社,兵庫県,尼崎市,塚口町３丁目１０番地の２８,00048203,28,202,6610002,,,2025-05-30,清算の結了等,,,2015-10-05,1,,,,,ユーズプランニングクズリュウ,0
772,3180001150930,登記記録の閉鎖等,0,2025-06-09,2025-06-03,株式会社エッセンシャル,,株式会社,愛知県,名古屋市千種区,今池３丁目１２番１３号,,23,101,4640850,,,2025-06-03,清算の結了等,,,2022-04-14,1,,,,,エッセンシャル,0
779,3180002091967,登記記録の閉鎖等,0,2025-06-09,2025-06-03,有限会社かめや瓦建材店,,有限会社,愛知県,海部郡大治町,大字砂子字中割２２９３番地,,23,424,4901143,,,2025-06-03,清算の結了等,,,2015-10-05,1,,,,,カメヤカワラケンザイテン,0
780,3180002092321,登記記録の閉鎖等,0,2025-06-09,2025-06-03,有限会社七宝工芸製作所,,有限会社,三重県,桑名市,長島町葭ケ須７１４番地５９,,24,205,5111124,,,2025-06-03,清算の結了等,,,2015-10-05,1,,,,,シッポウコウゲイセイサクショ,0
805,3250001010441,登記記録の閉鎖等,0,2025-06-09,2025-05-29,佐島工業株式会社,,株式会社,山口県,下松市,大字西豊井１３４０番地の５,,35,207,7440011,,,2025-05-29,清算の結了等,,,2015-10-05,1,,,,,,0
808,3260001017799,登記記録の閉鎖等,0,2025-06-09,2025-06-05,株式会社田之上建設,,株式会社,岡山県,笠岡市,入江４３番地,,33,205,7140041,,,2025-06-05,清算の結了等,,,2015-10-05,1,,,,,タノウエケンセツ,0
812,3270001007683,登記記録の閉鎖等,0,2025-06-09,2025-06-05,株式会社山陰ファーム,,株式会社,鳥取県,境港市,中海干拓地１９０番地,,31,204,6840073,,,2025-06-05,清算の結了等,,,2019-01-17,1,,,,,サンインファーム,0
827,3310002006440,登記記録の閉鎖等,0,2025-06-09,2025-06-06,有限会社スタック,,有限会社,長崎県,長崎市,古町４４番地,,42,201,8500026,,,2025-06-06,清算の結了等,,,2015-10-05,1,,,,,スタック,0
837,3350005002326,登記記録の閉鎖等,0,2025-06-09,2025-06-02,ＮＰＯ法人ふるさと元気ネット,,その他の設立登記法人,宮崎県,児湯郡新富町,大字新田１６４０８番地２,,45,402,8891406,,,2025-06-02,清算の結了等,,,2015-10-05,1,,,,,フルサトゲンキネット,0
845,3380001024346,登記記録の閉鎖等,0,2025-06-09,2025-05-27,株式会社志賀プランニング,,株式会社,福島県,いわき市,平下神谷字北一里塚６－５,,07,204,9700101,,,2025-05-27,清算の結了等,,,2015-10-05,1,,,,,シガプランニング,0
866,3430005015237,登記記録の閉鎖等,0,2025-06-09,2025-05-30,道央信用組合,,その他の設立登記法人,北海道,滝川市,栄町２丁目３番２１号,,01,225,0730031,,,2025-05-30,清算の結了等,,,2025-05-22,1,,,,,ドウオウ,0
881,4010001205816,登記記録の閉鎖等,0,2025-06-09,2025-05-22,株式会社Ｎｅｘｔｒｉｇｇｅｒ,,株式会社,東京都,千代田区,丸の内１丁目１１番１号,,13,101,1000005,,,2025-05-22,清算の結了等,,,2019-12-04,1,,,,,ネクストリガー,0
917,4010601050488,登記記録の閉鎖等,0,2025-06-09,2025-05-21,株式会社ホープマスター,,株式会社,埼玉県,ふじみ野市,苗間１丁目１５番３号カーサアリエッタ２階,,11,245,3560052,,,2025-05-21,清算の結了等,,,2016-10-12,1,,,,,ホープマスター,0
945,4011101094232,登記記録の閉鎖等,0,2025-06-09,2025-06-03,株式会社ヒトノワ,,株式会社,長野県,安曇野市,豊科高家５８４２番地２,,20,220,3998204,,,2025-06-03,清算の結了等,,,2021-03-02,1,,,,,ヒトノワ,0
949,4011103003959,登記記録の閉鎖等,0,2025-06-09,2025-05-20,合同会社Ｋ＆Ｙ　Ｉｎｃ,,合同会社,東京都,品川区,西五反田３丁目１５番６号リードシー目黒不動前ビル７－８,,13,109,1410031,,,2025-05-20,清算の結了等,,,2015-10-05,1,,,,,ケイアンドワイインク,0
964,4013101001845,登記記録の閉鎖等,0,2025-06-09,2025-06-02,株式会社ジェイアールシー,,株式会社,東京都,あきる野市,瀬戸岡３４２番地５,,13,228,1970803,,,2025-06-02,清算の結了等,,,2015-10-05,1,,,,,ジェイアールシー,0
971,4020001010991,登記記録の閉鎖等,0,2025-06-09,2025-06-03,株式会社エーエスシー,,株式会社,神奈川県,横浜市保土ケ谷区,川島町８５２番地,,14,106,2400045,,,2025-06-03,清算の結了等,,,2015-10-05,1,,,,,エーエスシー,0
978,4020005008941,登記記録の閉鎖等,0,2025-06-09,2025-06-04,一般社団法人日本サービスサイエンス協会,,その他の設立登記法人,神奈川県,川崎市高津区,坂戸３丁目２番１号株式会社シーエスデー内,,14,134,2130012,,,2025-06-04,清算の結了等,,,2015-10-05,1,,,,,ニホンサービスサイエンスキョウカイ,0
993,4030003014049,登記記録の閉鎖等,0,2025-06-09,2025-06-03,合同会社ジーニー,,合同会社,埼玉県,川口市,戸塚東３丁目２６番７号,,11,203,3330802,,,2025-06-03,清算の結了等,,,2019-09-06,1,,,,,ジーニー,0
997,4040001095775,登記記録の閉鎖等,0,2025-06-09,2025-06-02,株式会社ＪＲＦ,,株式会社,千葉県,香取市,桐谷字向原４２番１,,12,236,2890422,,,2025-06-02,合併による解散等,3030001082115,令和７年５月１日埼玉県川口市大字新井宿２１６番地１株式会社リバー・グリーン（3030001082115）に合併し解散,2016-06-15,1,,,,,,0
1001,4040002012259,登記記録の閉鎖等,0,2025-06-09,2025-05-23,有限会社芳梅,,有限会社,千葉県,千葉市中央区,栄町３番１０号,,12,101,2600016,,,2025-05-23,清算の結了等,,,2015-10-05,1,,,,,ヨシウメ,0
1011,4070003001927,登記記録の閉鎖等,0,2025-06-09,2025-06-03,合同会社オハナサポート,,合同会社,群馬県,太田市,亀岡町９０番地１,,10,205,3700411,,,2025-06-03,清算の結了等,,,2015-10-05,1,,,,,オハナサポート,0
1028,4110002008043,登記記録の閉鎖等,0,2025-06-09,2025-05-29,有限会社古泉観賞魚,,有限会社,新潟県,新潟市江南区,元町１丁目１番８号,,15,104,9500143,,,2025-05-29,清算の結了等,,,2015-10-05,1,,,,,コイズミカンショウギョ,0
1054,4120002071528,登記記録の閉鎖等,0,2025-06-09,2025-05-29,小野田地所有限会社,,有限会社,大阪府,交野市,私部６丁目２０番１０号,,27,230,5760052,,,2025-05-29,清算の結了等,,,2015-10-05,1,,,,,,0
1057,4120005018096,登記記録の閉鎖等,0,2025-06-09,2025-06-06,ＮＰＯ法人南大阪電脳支援集団,,その他の設立登記法人,大阪府,大阪市住吉区,山之内５丁目３番９４号,,27,120,5580023,,,2025-06-06,清算の結了等,,,2015-10-05,1,,,,,ミナミオオサカデンノウシエンシュウダン,0
1070,4140001024988,登記記録の閉鎖等,0,2025-06-09,2025-06-03,株式会社美幸商会,,株式会社,兵庫県,神戸市西区,玉津町西河原４５番地の３,,28,111,6512127,,,2025-06-03,清算の結了等,,,2015-10-05,1,,,,,ミユキショウカイ,0
1085,4140002009484,登記記録の閉鎖等,0,2025-06-09,2025-06-02,有限会社ラ・ポール,,有限会社,兵庫県,神戸市長田区,駒栄町４丁目３番７号,,28,106,6530034,,,2025-06-02,清算の結了等,,,2015-10-05,1,,,,,ラポール,0
1087,4140002064835,登記記録の閉鎖等,0,2025-06-09,2025-06-02,有限会社松浦,,有限会社,兵庫県,川西市,水明台２丁目６番地の５８,,28,217,6660116,,,2025-06-02,清算の結了等,,,2015-10-05,1,,,,,マツウラ,0
1124,4220005006628,登記記録の閉鎖等,0,2025-06-09,2025-06-04,特定非営利活動法人クリエイト,,その他の設立登記法人,石川県,珠洲市,熊谷町ホ部３７番地,,17,205,9271212,,,2025-06-04,清算の結了等,,,2015-10-05,1,,,,,クリエイト,0
1128,4240001005747,登記記録の閉鎖等,0,2025-06-09,2025-06-04,株式会社第一合同,,株式会社,広島県,広島市中区,八丁堀１３番１５号,,34,101,7300013,,,2025-06-04,清算の結了等,,,2015-10-05,1,,,,,ダイイチゴウドウ,0
1130,4240001018138,登記記録の閉鎖等,0,2025-06-09,2025-06-02,株式会社コンドル,,株式会社,広島県,広島市安佐南区,緑井５丁目４番６２号,,34,105,7310103,,,2025-06-02,清算の結了等,,,2015-10-05,1,,,,,コンドル,0
1135,4260005010568,登記記録の閉鎖等,0,2025-06-09,2025-06-02,一般社団法人ＤＡＫＫＯ,,その他の設立登記法人,岡山県,倉敷市,幸町９番４５－２０７号,,33,202,7100051,,,2025-06-02,清算の結了等,,,2019-03-14,1,,,,,ダッコ,0
1157,4290801009042,登記記録の閉鎖等,0,2025-06-09,2025-06-05,株式会社井上製作所,,株式会社,福岡県,北九州市八幡西区,浅川学園台２丁目２０番１６号,,40,109,8070871,,,2025-06-05,清算の結了等,,,2025-02-17,1,,,,,イノウエセイサクショ,0
1172,4380001024808,登記記録の閉鎖等,0,2025-06-09,2025-06-02,株式会社イイコウ産業,,株式会社,福島県,会津若松市,飯寺北１丁目４番２０号,,07,202,9650848,,,2025-06-02,清算の結了等,,,2015-10-05,1,,,,,,0
1173,4380002007902,登記記録の閉鎖等,0,2025-06-09,2025-06-02,有限会社一輝製作所,,有限会社,福島県,郡山市,日和田町字大山田２０番地の３,,07,203,9630534,,,2025-06-02,清算の結了等,,,2015-10-05,1,,,,,イッキセイサクショ,0
1180,4400001013816,登記記録の閉鎖等,0,2025-06-09,2025-06-02,株式会社Ｎスタジオ,,株式会社,岩手県,北上市,藤沢２２地割１５番地４,,03,206,0240013,,,2025-06-02,合併による解散等,2400001009452,令和７年６月１日岩手県北上市村崎野１９地割２９４番地１０株式会社アスリンク（2400001009452）に合併し解散,2017-08-10,1,,,,,エヌスタジオ,0
1182,4430001013929,登記記録の閉鎖等,0,2025-06-09,2025-06-03,株式会社久基,,株式会社,北海道,札幌市清田区,清田四条４丁目２３４番地４,,01,110,0040844,,,2025-06-03,清算の結了等,,,2015-10-05,1,,,,,ヒサモト,0
1224,5010902004935,登記記録の閉鎖等,0,2025-06-09,2025-06-05,有限会社久美商事,,有限会社,東京都,世田谷区,赤堤３丁目１８番３号,,13,112,1560044,,,2025-06-05,清算の結了等,,,2015-10-05,1,,,,,クミショウジ,0
1245,5012701014009,登記記録の閉鎖等,0,2025-06-09,2025-06-02,株式会社ＫＭ　ｉｎｔｅｒｎａｔｉｏｎａｌ,,株式会社,東京都,清瀬市,下宿３丁目１０８６番地パープルハイツ２０２号,,13,221,2040001,,,2025-06-02,清算の結了等,,,2016-11-25,1,,,,,ケイエムインターナショナル,0
1259,5020001119007,登記記録の閉鎖等,0,2025-06-09,2025-06-03,株式会社ミックオプチカル,,株式会社,神奈川県,横浜市緑区,東本郷１丁目５番２８号,,14,113,2260002,,,2025-06-03,清算の結了等,,,2016-12-08,1,,,,,ミックオプチカル,0
1263,5020002053907,登記記録の閉鎖等,0,2025-06-09,2025-05-30,有限会社ナチュラス,,有限会社,神奈川県,横浜市泉区,緑園６丁目５１番地の１２,,14,116,2450002,,,2025-05-30,清算の結了等,,,2015-10-05,1,,,,,ナチュラス,0
1277,5030002084232,登記記録の閉鎖等,0,2025-06-09,2025-06-02,有限会社ＭＢＰ　ＪＡＰＡＮ,,有限会社,埼玉県,鴻巣市,吹上本町２丁目６番１２号,,11,217,3690115,,,2025-06-02,清算の結了等,,,2015-10-05,1,,,,,エムビーピージャパン,0
1278,5030003017868,登記記録の閉鎖等,0,2025-06-09,2025-06-03,合同会社ｔｏｔａｌ　ｂｅａｕｔｙ　ｓａｌｏｎ　ＣＬＯＶＥＲ,,合同会社,埼玉県,所沢市,東住吉１５番３２号Ｓｔｏｒｋｐｏｎｄ所沢３Ｆ,,11,208,3591124,,,2025-06-03,清算の結了等,,,2021-09-01,1,,,,,トータルビューティーサロンクローバー,0
1291,5040002031191,登記記録の閉鎖等,0,2025-06-09,2025-05-23,有限会社錦江建装,,有限会社,千葉県,船橋市,旭町１丁目１１番６号,,12,204,2730041,,,2025-05-23,清算の結了等,,,2015-10-05,1,,,,,キンコウケンソウ,0
1298,5050002009369,登記記録の閉鎖等,0,2025-06-09,2025-06-04,有限会社リベラ,,有限会社,茨城県,東茨城郡大洗町,磯浜町３９７番地,,08,309,3111301,,,2025-06-04,清算の結了等,,,2015-10-05,1,,,,,リベラ,0
1302,5070001011316,登記記録の閉鎖等,0,2025-06-09,2025-06-02,株式会社アンサー,,株式会社,群馬県,高崎市,並榎町３６６番地７,,10,202,3700802,,,2025-06-02,清算の結了等,,,2015-10-05,1,,,,,アンサー,0
1307,5090005003084,登記記録の閉鎖等,0,2025-06-09,2025-06-04,宗教法人大葉教会,,その他の設立登記法人,山梨県,上野原市,大曽根８５番地,,19,212,4090131,,,2025-06-04,清算の結了等,,,2015-10-05,1,,,,,オオバ,0
1351,5140005027268,登記記録の閉鎖等,0,2025-06-09,2025-05-22,ぼくらのキャンバス社会保険労務士法人,,その他の設立登記法人,兵庫県,神戸市中央区,海岸通４丁目３－１７清和ビル３８号,,28,110,6500024,,,2025-05-22,清算の結了等,,,2024-11-12,1,,,,,ボクラノキャンバス,0
1357,5180001073527,登記記録の閉鎖等,0,2025-06-09,2025-06-02,第一ホームテック株式会社,,株式会社,愛知県,名古屋市東区,泉３丁目２３番９号,,23,102,4610001,,,2025-06-02,合併による解散等,2180001057037,令和７年６月１日名古屋市東区泉三丁目２３番８号株式会社第一建装（2180001057037）に合併し解散,2015-10-05,1,,,,,ダイイチホームテック,0
1358,5180001075754,登記記録の閉鎖等,0,2025-06-09,2025-06-03,株式会社ケイ・アンド・ケイ,,株式会社,愛知県,小牧市,中央２丁目２１３番地,,23,219,4850029,,,2025-06-03,清算の結了等,,,2015-10-05,1,,,,,ケイアンドケイ,0
1362,5180001144996,登記記録の閉鎖等,0,2025-06-09,2025-06-03,株式会社オーパス,,株式会社,愛知県,豊明市,前後町三ツ谷１２７５番地１３２,,23,229,4701153,,,2025-06-03,清算の結了等,,,2021-03-04,1,,,,,オーパス,0
1380,5200003000220,登記記録の閉鎖等,0,2025-06-09,2025-06-02,合同会社石崎商店,,合同会社,岐阜県,岐阜市,早田東町３丁目１番地,,21,201,5020843,,,2025-06-02,合併による解散等,5200002001203,令和７年６月１日岐阜市早田東町三丁目２番地株式会社ギフストラ（5200002001203）に合併し解散,2015-10-05,1,,,,,イシザキショウテン,0
1386,5250001008640,登記記録の閉鎖等,0,2025-06-09,2025-06-03,株式会社ＬＥＡＤ,,株式会社,山口県,宇部市,西梶返２丁目２１番５０号,,35,202,7550037,,,2025-06-03,清算の結了等,,,2015-10-05,1,,,,,リード,0
1394,5290001041431,登記記録の閉鎖等,0,2025-06-09,2025-06-02,コーワコーポレーション株式会社,,株式会社,福岡県,春日市,小倉６丁目１７８番地,,40,218,8160824,,,2025-06-02,清算の結了等,,,2015-10-05,1,,,,,コーワコーポレーション,0
1406,5300005007030,登記記録の閉鎖等,0,2025-06-09,2025-05-26,一般社団法人チョイス,,その他の設立登記法人,佐賀県,佐賀市,北川副町江上町分５１４番地５,,41,201,8490000,,,2025-05-26,清算の結了等,,,2021-09-08,1,,,,,チョイス,0
1421,5370001047635,登記記録の閉鎖等,0,2025-06-09,2025-05-23,抗体検査センター株式会社,,株式会社,宮城県,塩竈市,松陽台１丁目３番５号,,04,203,9850071,,,2025-05-23,清算の結了等,,,2021-10-01,1,,,,,コウタイケンサセンター,0
1429,5380002021811,登記記録の閉鎖等,0,2025-06-09,2025-06-02,有限会社ユーロアシスト,,有限会社,福島県,岩瀬郡鏡石町,蒲之沢町１３０番地,,07,342,9690401,,,2025-06-02,清算の結了等,,,2015-10-05,1,,,,,ユーロアシスト,0
1448,6010001019264,登記記録の閉鎖等,0,2025-06-09,2025-06-02,株式会社シーアールシー・ジャパン,,株式会社,東京都,千代田区,内神田１丁目４番１３号,,13,101,1010047,,,2025-06-02,合併による解散等,9010001063953,令和７年６月１日東京都千代田区有楽町一丁目２番２号サンフロンティア不動産株式会社（9010001063953）に合併し解散,2015-10-05,1,,,,,シーアールシージャパン,0
1449,6010001075349,登記記録の閉鎖等,0,2025-06-09,2025-05-22,株式会社親和ホームズ,,株式会社,東京都,中央区,築地３丁目１３番５号プライムステイ築地９０１号,,13,102,1040045,,,2025-05-22,清算の結了等,,,2025-02-20,1,,,,,シンワホームズ,0
1462,6010005036909,登記記録の閉鎖等,0,2025-06-09,2025-06-05,一般財団法人山田ゼミナール,,その他の設立登記法人,東京都,千代田区,丸の内１丁目８番１号丸の内トラストタワーＮ館,,13,101,1000005,,,2025-06-05,清算の結了等,,,2023-07-07,1,,,,,ヤマダゼミナール,0
1473,6010405020751,登記記録の閉鎖等,0,2025-06-09,2025-05-14,一般社団法人ＨＤＧ３３,,その他の設立登記法人,東京都,港区,虎ノ門３丁目２２番１０－２０１号,,13,103,1050001,,,2025-05-14,清算の結了等,,,2022-02-28,1,,,,,エイチディージースリースリー,0
1479,6010601045734,登記記録の閉鎖等,0,2025-06-09,2025-06-02,株式会社エンパワーメント,,株式会社,東京都,江東区,東陽５丁目２５番１４号,,13,108,1350016,,,2025-06-02,清算の結了等,,,2015-10-05,1,,,,,エンパワーメント,0
1508,6011101083150,登記記録の閉鎖等,0,2025-06-09,2025-05-13,株式会社Ａｅｒｉａｌ　Ｗｅａｌｔｈ　Ｍａｎａｇｅｍｅｎｔ,,株式会社,東京都,港区,六本木５丁目２番１号,,13,103,1060032,,,2025-05-13,清算の結了等,,,2018-02-13,1,,,,,エアリアルウェルスマネジメント,0
1522,6011802018553,登記記録の閉鎖等,0,2025-06-09,2025-06-04,有限会社前沼調剤薬局,,有限会社,東京都,足立区,西竹の塚２丁目１５番３１号,,13,121,1210822,,,2025-06-04,清算の結了等,,,2015-10-05,1,,,,,マエヌマチョウザイヤッキョク,0
1578,6120001001467,登記記録の閉鎖等,0,2025-06-09,2025-06-02,泉倉作業株式会社,,株式会社,大阪府,大阪市住之江区,南港東４丁目１１番５０号,,27,125,5590031,,,2025-06-02,合併による解散等,3120001029610,令和７年６月１日大阪市港区海岸通二丁目６番１５号株式会社住友倉庫内住倉ロジスティクス株式会社（3120001029610）に合併し解散,2015-10-05,1,,,,,センソウサギョウ,0
1579,6120001004750,登記記録の閉鎖等,0,2025-06-09,2025-06-02,株式会社いせや商店,,株式会社,大阪府,大阪市阿倍野区,王子町１丁目１０番１２号,,27,119,5450023,,,2025-06-02,清算の結了等,,,2015-10-05,1,,,,,イセヤショウテン,0
1581,6120001027264,登記記録の閉鎖等,0,2025-06-09,2025-06-03,株式会社鍵谷建築設計事務所,,株式会社,大阪府,大阪市大正区,泉尾１丁目４番５号,,27,108,5510031,,,2025-06-03,清算の結了等,,,2015-10-05,1,,,,,カギタニケンチクセッケイジムショ,0
1582,6120001066543,登記記録の閉鎖等,0,2025-06-09,2025-06-02,大誠硝子株式会社,,株式会社,大阪府,大阪市北区,長柄西１丁目２番２５号,,27,127,5310061,,,2025-06-02,合併による解散等,2120001072561,令和７年６月１日大阪市北区長柄西一丁目２番２５号日本精工硝子株式会社（2120001072561）に合併し解散,2015-10-05,1,,,,,タイセイガラス,0
1591,6120001232327,登記記録の閉鎖等,0,2025-06-09,2025-06-03,株式会社通宝,,株式会社,大阪府,大阪市生野区,巽北１丁目１番１号３Ｆ－Ｂ,,27,116,5440004,,,2025-06-03,清算の結了等,,,2020-10-09,1,,,,,ツウホウ,0
1605,6120003025596,登記記録の閉鎖等,0,2025-06-09,2025-06-02,ドリーム合同会社,,合同会社,大阪府,大阪市大正区,鶴町１丁目６番２号,,27,108,5510023,,,2025-06-02,清算の結了等,,,2023-12-27,1,,,,,ドリーム,0
1611,6120102011877,登記記録の閉鎖等,0,2025-06-09,2025-06-02,有限会社ＫＰＭオフィス,,有限会社,大阪府,堺市中区,土師町３丁１１番４８号,,27,142,5998238,,,2025-06-02,清算の結了等,,,2025-05-12,1,,,,,ケーピーエムオフィス,0
1627,6140001045776,登記記録の閉鎖等,0,2025-06-09,2025-06-02,株式会社サイエンスホーム,,株式会社,兵庫県,加古川市,加古川町木村５９１番地の１９,,28,210,6750038,,,2025-06-02,清算の結了等,,,2015-10-05,1,,,,,サイエンスホーム,0
1640,6140005017862,登記記録の閉鎖等,0,2025-06-09,2025-06-03,特定非営利活動法人まちづくり北条,,その他の設立登記法人,兵庫県,加西市,北条町北条２８－１アスティア加西３Ｆ,,28,220,6752312,,,2025-06-03,清算の結了等,,,2015-10-05,1,,,,,マチヅクリホウジョウ,0
1663,6180002037034,登記記録の閉鎖等,0,2025-06-09,2025-06-03,有限会社中須会計センター,,有限会社,愛知県,名古屋市中川区,高畑２丁目２１７番地,,23,110,4540911,,,2025-06-03,清算の結了等,,,2015-10-05,1,,,,,ナカスカイケイセンター,0
1669,6180002082253,登記記録の閉鎖等,0,2025-06-09,2025-06-02,山庄建設有限会社,,有限会社,愛知県,江南市,今市場町高根７４番地１,,23,217,4838183,,,2025-06-02,合併による解散等,7180003025953,令和７年６月１日愛知県江南市今市場町高根７４番地１グランドソリューション合同会社（7180003025953）に合併し解散,2015-10-05,1,,,,,ヤマショウケンセツ,0
1677,6200001011284,登記記録の閉鎖等,0,2025-06-09,2025-06-02,東洋開発株式会社,,株式会社,岐阜県,羽島郡岐南町,上印食１丁目２１５番地,,21,302,5016001,,,2025-06-02,合併による解散等,8200001011051,令和７年６月１日岐阜県羽島郡岐南町上印食一丁目２１５番地三共株式会社（8200001011051）に合併し解散,2015-10-05,1,,,,,トウヨウカイハツ,0
1678,6200001027173,登記記録の閉鎖等,0,2025-06-09,2025-06-02,株式会社グリーンフーズマツ,,株式会社,岐阜県,岐阜市,御望３丁目６６番地２,,21,201,5011171,,,2025-06-02,清算の結了等,,,2015-10-05,1,,,,,グリーンフーズマツ,0
1689,6260001018126,登記記録の閉鎖等,0,2025-06-09,2025-05-30,株式会社矢掛青果市場,,株式会社,岡山県,小田郡矢掛町,東川面７４９番地,,33,461,7141223,,,2025-05-30,清算の結了等,,,2015-10-05,1,,,,,ヤカゲセイカイチバ,0
1690,6260001023068,登記記録の閉鎖等,0,2025-06-09,2025-05-30,遠藤工業株式会社,,株式会社,岡山県,真庭市,蒜山富山根５２１番地１１０,,33,214,7170503,,,2025-05-30,清算の結了等,,,2015-10-05,1,,,,,エンドウコウギョウ,0
1708,6290805003510,登記記録の閉鎖等,0,2025-06-09,2025-06-03,特定非営利活動法人ＧＧＰ（ジェンダー・地球市民企画）,,その他の設立登記法人,福岡県,北九州市小倉北区,中島１丁目１７番２６号河村方,,40,106,8020076,,,2025-06-03,清算の結了等,,,2015-10-05,1,,,,,ジージーピージェンダーチキュウシミンキカク,0
1729,6370001023081,登記記録の閉鎖等,0,2025-06-09,2025-06-02,株式会社ビクトリアホーム,,株式会社,兵庫県,川西市,東畦野４丁目３番８号,,28,217,6660117,,,2025-06-02,清算の結了等,,,2015-10-05,1,,,,,ビクトリアホーム,0
1734,6370003003817,登記記録の閉鎖等,0,2025-06-09,2025-06-02,合同会社伊丹ボーリング,,合同会社,宮城県,宮城郡七ヶ浜町,汐見台５丁目１番地の５４,,04,404,9850821,,,2025-06-02,清算の結了等,,,2017-05-23,1,,,,,イタミボーリング,0
1742,6410001009101,登記記録の閉鎖等,0,2025-06-09,2025-06-02,株式会社サユウ,,株式会社,秋田県,横手市,柳田字新藤１６６番地７,,05,203,0130054,,,2025-06-02,清算の結了等,,,2015-10-05,1,,,,,サユウ,0
1754,6470002000160,登記記録の閉鎖等,0,2025-06-09,2025-06-04,有限会社東邦商会,,有限会社,香川県,高松市,庵治町１２０番地の第１,,37,201,7610130,,,2025-06-04,清算の結了等,,,2015-10-05,1,,,,,トウホウショウカイ,0
1782,7010601027839,登記記録の閉鎖等,0,2025-06-09,2025-06-02,株式会社メークイン・ナカムラ,,株式会社,東京都,江東区,大島４丁目１７番４号,,13,108,1360072,,,2025-06-02,清算の結了等,,,2015-10-05,1,,,,,メークインナカムラ,0
1801,7011001135744,登記記録の閉鎖等,0,2025-06-09,2025-06-05,ＣＡＭＯ’Ｎ株式会社,,株式会社,東京都,渋谷区,代々木５丁目２番５号,,13,113,1510053,,,2025-06-05,合併による解散等,9011501017498,令和７年５月３１日東京都北区中里二丁目２３番４号リュウチョス株式会社（9011501017498）に合併し解散,2020-09-09,1,,,,,カモン,0
1837,7012301000679,登記記録の閉鎖等,0,2025-06-09,2025-06-03,株式会社北島工業,,株式会社,東京都,町田市,成瀬５丁目１７番２０号,,13,209,1940044,,,2025-06-03,清算の結了等,,,2015-10-05,1,,,,,キタジマコウギョウ,0
1838,7012302007459,登記記録の閉鎖等,0,2025-06-09,2025-06-03,有限会社あさひプランナー,,有限会社,東京都,町田市,上小山田町２８７９番地９,,13,209,1940201,,,2025-06-03,清算の結了等,,,2015-10-05,1,,,,,アサヒプランナー,0
1855,7020002072120,登記記録の閉鎖等,0,2025-06-09,2025-06-05,有限会社イデール,,有限会社,神奈川県,横浜市旭区,市沢町５８６番５２,,14,112,2410014,,,2025-06-05,合併による解散等,7290001008379,令和７年６月１日福岡市中央区大名二丁目９番２３号総合メディカル株式会社（7290001008379）に合併し解散,2015-10-05,1,,,,,イデール,0
1873,7030002076062,登記記録の閉鎖等,0,2025-06-09,2025-06-03,有限会社彫刻サロン二十一,,有限会社,埼玉県,ふじみ野市,元福岡３丁目１番１号,,11,245,3560008,,,2025-06-03,清算の結了等,,,2015-10-05,1,,,,,チョウコクサロンニジュウイチ,0
1896,7080001022665,登記記録の閉鎖等,0,2025-06-09,2025-06-02,株式会社リブレント,,株式会社,静岡県,静岡市葵区,呉服町２丁目５番地の２１リブロＢＬＤＧ．ｇｏｆｕｋｕｃｈｏ,,22,101,4200031,,,2025-06-02,合併による解散等,8080002000990,令和７年５月３１日静岡市葵区呉服町二丁目５番地の２１リブロＢＬＤＧ．ｇｏｆｕｋｕｃｈｏリブロ・アセット株式会社（8080002000990）に合併し解散,2019-01-30,1,,,,,リブレント,0
1898,7080002009620,登記記録の閉鎖等,0,2025-06-09,2025-06-02,有限会社カネキ深澤組,,有限会社,静岡県,静岡市清水区,駒越中２丁目３番３号,,22,103,4240904,,,2025-06-02,清算の結了等,,,2015-10-05,1,,,,,カネキフカザワグミ,0
1899,7080102006229,登記記録の閉鎖等,0,2025-06-09,2025-06-04,有限会社ふぁいん,,有限会社,静岡県,沼津市,原町中２丁目７－１１,,22,203,4100311,,,2025-06-04,清算の結了等,,,2015-10-05,1,,,,,ファイン,0
1903,7090002006906,登記記録の閉鎖等,0,2025-06-09,2025-06-02,有限会社ブライト,,有限会社,山梨県,中巨摩郡昭和町,西条５１５７番地,,19,384,4093866,,,2025-06-02,合併による解散等,8090001005338,令和７年５月３１日山梨県中巨摩郡昭和町西条５１５７番地株式会社トーヨーハウジング（8090001005338）に合併し解散,2015-10-05,1,,,,,ブライト,0
1916,7110002031604,登記記録の閉鎖等,0,2025-06-09,2025-05-29,有限会社小宮山建築工業,,有限会社,新潟県,見附市,本所１丁目２４番２２号,,15,211,9540051,,,2025-05-29,清算の結了等,,,2015-10-05,1,,,,,コミヤマケンチクコウギョウ,0
1919,7120001163109,登記記録の閉鎖等,0,2025-06-09,2025-06-04,株式会社北側理化商会,,株式会社,大阪府,大阪市東淀川区,大道南２丁目１８番１７号,,27,114,5330012,,,2025-06-04,清算の結了等,,,2015-10-05,1,,,,,キタガワリカショウカイ,0
1930,7120002051329,登記記録の閉鎖等,0,2025-06-09,2025-06-03,有限会社田中康商店,,有限会社,大阪府,大阪市住吉区,苅田２丁目１番１３号,,27,120,5580011,,,2025-06-03,清算の結了等,,,2015-10-05,1,,,,,タナカヤスショウテン,0
1934,7120101052351,登記記録の閉鎖等,0,2025-06-09,2025-06-05,株式会社南海酒販,,株式会社,大阪府,堺市堺区,南安井町６丁２番１９号,,27,141,5900064,,,2025-06-05,合併による解散等,6130001020185,令和７年６月１日京都市中京区河原町通三条下る二丁目山崎町２３３番地の２株式会社奥田商店（6130001020185）に合併し解散,2015-10-05,1,,,,,ナンカイシュハン,0
1940,7120902020077,登記記録の閉鎖等,0,2025-06-09,2025-06-03,有限会社大和鉄工所,,有限会社,大阪府,豊中市,新千里南町３丁目１番１９号,,27,203,5600084,,,2025-06-03,清算の結了等,,,2015-10-05,1,,,,,ヤマトテッコウショ,0
1942,7120905005273,登記記録の閉鎖等,0,2025-06-09,2025-06-02,一般社団法人夢保育園,,その他の設立登記法人,大阪府,高槻市,北柳川町１６番２２号,,27,207,5690852,,,2025-06-02,清算の結了等,,,2015-10-05,1,,,,,ユメホイクエン,0
1960,7150001021197,登記記録の閉鎖等,0,2025-06-09,2025-05-29,株式会社ＡＺ－ＷＯＲＫＳ,,株式会社,奈良県,御所市,大字櫛羅２１９２番地の２,,29,208,6392312,,,2025-05-29,清算の結了等,,,2016-12-27,1,,,,,アズワークス,0
1964,7180001065175,登記記録の閉鎖等,0,2025-06-09,2025-06-03,株式会社文理,,株式会社,愛知県,名古屋市南区,中江１丁目６番１４号,,23,112,4570004,,,2025-06-03,清算の結了等,,,2015-10-05,1,,,,,ブンリ,0
1974,7180003017843,登記記録の閉鎖等,0,2025-06-09,2025-06-03,あんしんメンテナンス合同会社,,合同会社,愛知県,名古屋市守山区,守牧町１０１番地の３,,23,113,4630073,,,2025-06-03,清算の結了等,,,2017-04-07,1,,,,,アンシンメンテナンス,0
1977,7190001013843,登記記録の閉鎖等,0,2025-06-09,2025-06-05,株式会社魚佐太,,株式会社,三重県,いなべ市,北勢町阿下喜１０１２番地３,,24,214,5110428,,,2025-06-05,清算の結了等,,,2015-10-05,1,,,,,ウオサタ,0
1981,7200001024509,登記記録の閉鎖等,0,2025-06-09,2025-06-03,株式会社バックアップ,,株式会社,岐阜県,中津川市,中津川３３９６番地の１,,21,206,5080001,,,2025-06-03,清算の結了等,,,2015-10-05,1,,,,,バックアップ,0
1996,7260005010532,登記記録の閉鎖等,0,2025-06-09,2025-06-03,一般社団法人ジャパンホースグラウンドワーク協会,,その他の設立登記法人,岡山県,加賀郡吉備中央町,上田西２３９３番地１１,,33,681,7092413,,,2025-06-03,清算の結了等,,,2019-01-07,1,,,,,ジャパンホースグラウンドワークキョウカイ,0
2002,7290001091425,登記記録の閉鎖等,0,2025-06-09,2025-05-30,ＤＯＫＯＪＡＰＡＮ株式会社,,株式会社,福岡県,福岡市中央区,赤坂１丁目１１番１３号赤坂塚田ビル６Ｆ,,40,133,8100042,,,2025-05-30,清算の結了等,,,2020-12-25,1,,,,,ドコジャパン,0
2020,7340002013604,登記記録の閉鎖等,0,2025-06-09,2025-06-02,有限会社隈元製菓,,有限会社,鹿児島県,霧島市,国分中央３丁目４番１号,,46,218,8994332,,,2025-06-02,清算の結了等,,,2015-10-05,1,,,,,クマモトセイカ,0
2025,7360003006357,登記記録の閉鎖等,0,2025-06-09,2025-06-03,合同会社そらにわ,,合同会社,沖縄県,宮古島市,伊良部字伊良部７２１番地１,,47,214,9060503,,,2025-06-03,合併による解散等,6360001033321,令和７年６月１日沖縄県宮古島市伊良部字伊良部７２１番地１株式会社ソラニワ（6360001033321）に合併し解散,2015-10-05,1,,,,,ソラニワ,0
2026,7370002008733,登記記録の閉鎖等,0,2025-06-09,2025-06-02,有限会社マロン洋菓子店,,有限会社,宮城県,仙台市宮城野区,幸町５丁目１番１３号,,04,102,9830836,,,2025-06-02,清算の結了等,,,2015-10-05,1,,,,,マロンヨウガシテン,0
2031,7380002017551,登記記録の閉鎖等,0,2025-06-09,2025-06-02,有限会社エール創建,,有限会社,福島県,西白河郡西郷村,大字熊倉字折口原１８３番地２,,07,461,9618091,,,2025-06-02,清算の結了等,,,2015-10-05,1,,,,,エールソウケン,0
2032,7380002033929,登記記録の閉鎖等,0,2025-06-09,2025-06-02,有限会社ＡＩＺＵ　ＮＯＴＥ,,有限会社,福島県,会津若松市,七日町２番３９号,,07,202,9650044,,,2025-06-02,清算の結了等,,,2015-10-05,1,,,,,アイヅノート,0
2041,7430003012752,登記記録の閉鎖等,0,2025-06-09,2025-06-02,ウィルダカイサ合同会社,,合同会社,北海道,岩内郡岩内町,字高台８３番地３,,01,402,0450013,,,2025-06-02,清算の結了等,,,2021-05-25,1,,,,,ウィルダカイサ,0
2044,7460001004492,登記記録の閉鎖等,0,2025-06-09,2025-06-05,株式会社クイックカットＢＢ道東,,株式会社,北海道,釧路市,星が浦大通１丁目７番１１号,,01,206,0840912,,,2025-06-05,清算の結了等,,,2015-10-05,1,,,,,,0
2050,7500001006823,登記記録の閉鎖等,0,2025-06-09,2025-06-02,株式会社コラボハウス,,株式会社,愛媛県,松山市,北井門２丁目１２番５号,,38,201,7911105,,,2025-06-02,合併による解散等,4010001243980,令和７年６月１日愛媛県松山市北井門二丁目１２番５号株式会社コラボハウス（4010001243980）に合併し解散,2015-10-05,1,,,,,コラボハウス,0
2051,7500001017374,登記記録の閉鎖等,0,2025-06-09,2025-06-04,株式会社村上パーキング,,株式会社,愛媛県,松山市,千舟町７丁目５番地８,,38,201,7900011,,,2025-06-04,清算の結了等,,,2015-10-05,1,,,,,ムラカミパーキング,0
2053,7500005008394,登記記録の閉鎖等,0,2025-06-09,2025-06-02,一般社団法人愛媛県任意売却支援協会,,その他の設立登記法人,愛媛県,松山市,東石井６丁目６番４４号,,38,201,7900932,,,2025-06-02,清算の結了等,,,2021-05-14,1,,,,,エヒメケンニンイバイキャクシエンキョウカイ,0
2068,8010005030380,登記記録の閉鎖等,0,2025-06-09,2025-06-05,一般社団法人悠洛,,その他の設立登記法人,東京都,千代田区,霞が関３丁目２番５号,,13,101,1000013,,,2025-06-05,清算の結了等,,,2019-06-28,1,,,,,ユラ,0
2117,8011301008888,登記記録の閉鎖等,0,2025-06-09,2025-06-02,株式会社国光興業,,株式会社,東京都,杉並区,下井草１丁目３１番４号,,13,115,1670022,,,2025-06-02,清算の結了等,,,2015-10-05,1,,,,,クニミツコウギョウ,0
2119,8011301028770,登記記録の閉鎖等,0,2025-06-09,2025-06-05,株式会社アンリーシュド,,株式会社,東京都,渋谷区,桜丘町２３番１７号シティコート桜丘４０８,,13,113,1500031,,,2025-06-05,合併による解散等,8011301025058,令和７年４月３０日東京都杉並区和泉二丁目１７番２７号株式会社ゲーム感覚（8011301025058）に合併し解散,2023-06-12,1,,,,,アンリーシュド,0
2126,8011702001277,登記記録の閉鎖等,0,2025-06-09,2025-06-02,有限会社いまいく,,有限会社,東京都,江戸川区,東瑞江２丁目１０番４号,,13,123,1320014,,,2025-06-02,清算の結了等,,,2015-10-05,1,,,,,イマイク,0
2135,8020001050646,登記記録の閉鎖等,0,2025-06-09,2025-06-02,株式会社シーソー,,株式会社,神奈川県,横浜市鶴見区,菅沢町８番９－２号,,14,101,2300027,,,2025-06-02,清算の結了等,,,2015-10-05,1,,,,,シーソー,0
2137,8020001068168,登記記録の閉鎖等,0,2025-06-09,2025-06-04,十和田電機産業株式会社,,株式会社,神奈川県,川崎市宮前区,菅生４丁目１０番３０号,,14,136,2160015,,,2025-06-04,清算の結了等,,,2015-10-05,1,,,,,トワダデンキサンギョウ,0
2157,8030002107452,登記記録の閉鎖等,0,2025-06-09,2025-06-02,有限会社みどり野住研,,有限会社,埼玉県,川口市,大字安行北谷５５８番地３,,11,203,3340054,,,2025-06-02,合併による解散等,5030001161726,令和７年６月１日埼玉県川口市大字安行北谷５６４番地の２株式会社タイセイ（5030001161726）に合併し解散,2015-10-05,1,,,,,ミドリノジュウケン,0
2170,8050001043226,登記記録の閉鎖等,0,2025-06-09,2025-06-02,株式会社ＨＯＮＤＡ基礎,,株式会社,茨城県,神栖市,息栖２８２２番地１０,,08,232,3140133,,,2025-06-02,清算の結了等,,,2017-08-10,1,,,,,ホンダキソコウジ,0
2171,8050001045841,登記記録の閉鎖等,0,2025-06-09,2025-06-02,株式会社ＫＴコーポレーション,,株式会社,茨城県,土浦市,神立町７７７番地４,,08,203,3000013,,,2025-06-02,清算の結了等,,,2019-04-15,1,,,,,ケイティコーポレーション,0
2182,8080001012723,登記記録の閉鎖等,0,2025-06-09,2025-06-02,ＩＴＳ技研株式会社,,株式会社,静岡県,静岡市清水区,山切２５番地の３３,,22,103,4240105,,,2025-06-02,合併による解散等,7080001008326,令和７年６月１日静岡市清水区大坪一丁目５番１７号昭和工機株式会社（7080001008326）に合併し解散,2015-10-05,1,,,,,アイティーエスギケン,0
2186,8080101009256,登記記録の閉鎖等,0,2025-06-09,2025-06-03,ニュートランスポート株式会社,,株式会社,静岡県,富士市,伝法４５８番地の１,,22,210,4170061,,,2025-06-03,合併による解散等,2011501003521,令和７年４月１日埼玉県草加市青柳二丁目２番３０号日本製紙物流株式会社（2011501003521）に合併し解散,2015-10-05,1,,,,,ニュートランスポート,0
2193,8100001006094,登記記録の閉鎖等,0,2025-06-09,2025-06-02,稲荷山温泉株式会社,,株式会社,長野県,千曲市,大字稲荷山５７１番地１,,20,218,3870021,,,2025-06-02,清算の結了等,,,2015-10-05,1,,,,,イナリヤマオンセン,0
2207,8120001122724,登記記録の閉鎖等,0,2025-06-09,2025-06-02,株式会社ＮＦＬ,,株式会社,大阪府,大阪市中央区,大手通２丁目１番７号,,27,128,5400021,,,2025-06-02,合併による解散等,4120001213436,令和７年５月３０日大阪市中央区大手通２－１－７ニュー大手ビル２Ｆ株式会社パーシヴァル（4120001213436）に合併し解散,2015-10-05,1,,,,,エヌエフエル,0
2261,8180001079281,登記記録の閉鎖等,0,2025-06-09,2025-06-02,丸美瀬戸燃料株式会社,,株式会社,愛知県,瀬戸市,川北町１丁目１番地,,23,204,4890927,,,2025-06-02,合併による解散等,8180001078911,令和７年６月１日愛知県瀬戸市弁天町７２番地鈴一物産株式会社（8180001078911）に合併し解散,2015-10-05,1,,,,,マルミセトネンリョウ,0
2271,8180002059893,登記記録の閉鎖等,0,2025-06-09,2025-06-03,有限会社ティーユー,,有限会社,愛知県,名古屋市中区,栄５丁目２６番３９号,,23,106,4600008,,,2025-06-03,清算の結了等,,,2015-10-05,1,,,,,ティーユー,0
2273,8180002089569,登記記録の閉鎖等,0,2025-06-09,2025-06-03,有限会社いかい商店,,有限会社,愛知県,弥富市,竹田３丁目１８６－１,,23,235,4901428,,,2025-06-03,清算の結了等,,,2015-10-05,1,,,,,イカイショウテン,0
2275,8180301007553,登記記録の閉鎖等,0,2025-06-09,2025-06-03,横田設備株式会社,,株式会社,愛知県,豊橋市,藤並町字藤並６５番地の１,,23,201,4418114,,,2025-06-03,清算の結了等,,,2015-10-05,1,,,,,ヨコタセツビ,0
2280,8200001009302,登記記録の閉鎖等,0,2025-06-09,2025-06-02,株式会社雅斗工業,,株式会社,岐阜県,岐阜市,日野南９丁目２番６号,,21,201,5008212,,,2025-06-02,清算の結了等,,,2015-10-05,1,,,,,マサトコウギョウ,0
2282,8220001005489,登記記録の閉鎖等,0,2025-06-09,2025-06-03,株式会社美創,,株式会社,石川県,金沢市,八日市２丁目２８２番地１０,,17,201,9218064,,,2025-06-03,清算の結了等,,,2015-10-05,1,,,,,ビソウ,0
2290,8240002006848,登記記録の閉鎖等,0,2025-06-09,2025-06-03,有限会社山菜木村,,有限会社,広島県,広島市西区,観音町１番９号,,34,104,7330031,,,2025-06-03,清算の結了等,,,2015-10-05,1,,,,,サンサイキムラ,0
2291,8240002009693,登記記録の閉鎖等,0,2025-06-09,2025-06-04,有限会社高野内装,,有限会社,広島県,広島市佐伯区,美の里１丁目１１番４８－２６号,,34,108,7315137,,,2025-06-04,清算の結了等,,,2015-10-05,1,,,,,タカノナイソウ,0
2293,8240002024668,登記記録の閉鎖等,0,2025-06-09,2025-06-05,有限会社工匠,,有限会社,広島県,広島市安佐南区,長楽寺１丁目４５番７号,,34,105,7310143,,,2025-06-05,清算の結了等,,,2015-10-05,1,,,,,コウショウ,0
2306,8290001059207,登記記録の閉鎖等,0,2025-06-09,2025-06-02,株式会社タチバナ,,株式会社,福岡県,朝倉市,菩提寺７１１番地６,,40,228,8380061,,,2025-06-02,清算の結了等,,,2015-10-05,1,,,,,タチバナ,0
2337,8340002022843,登記記録の閉鎖等,0,2025-06-09,2025-06-02,有限会社司工業,,有限会社,鹿児島県,出水市,知識町７１４番地,,46,208,8990211,,,2025-06-02,清算の結了等,,,2015-10-05,1,,,,,,0
2348,8380002000481,登記記録の閉鎖等,0,2025-06-09,2025-06-03,内山土地企画有限会社,,有限会社,福島県,福島市,天神町８番２２号,,07,201,9608001,,,2025-06-03,清算の結了等,,,2015-10-05,1,,,,,ウチヤマトチキカク,0
2359,8430001029194,登記記録の閉鎖等,0,2025-06-09,2025-06-02,財務コンサルタント株式会社,,株式会社,北海道,札幌市中央区,南三条西１３丁目３２０番地１３,,01,101,0600063,,,2025-06-02,合併による解散等,7430001000965,令和７年６月１日札幌市東区北十三条東一丁目１番７号株式会社アムコーポレーション（7430001000965）に合併し解散,2015-10-05,1,,,,,ザイムコンサルタント,0
2366,8460001004491,登記記録の閉鎖等,0,2025-06-09,2025-06-05,株式会社理容のディスカウント釧路,,株式会社,北海道,釧路市,星が浦大通１丁目７番１１号,,01,206,0840912,,,2025-06-05,清算の結了等,,,2015-10-05,1,,,,,,0
2402,9010401143842,登記記録の閉鎖等,0,2025-06-09,2025-05-13,日本エコリーン株式会社,,株式会社,東京都,港区,六本木１丁目１０番３－９０１号,,13,103,1060032,,,2025-05-13,清算の結了等,,,2019-02-19,1,,,,,ニホンエコリーン,0
2412,9010405020749,登記記録の閉鎖等,0,2025-06-09,2025-05-14,一般社団法人ＨＤＧ３１,,その他の設立登記法人,東京都,港区,虎ノ門３丁目２２番１０－２０１号,,13,103,1050001,,,2025-05-14,清算の結了等,,,2022-02-28,1,,,,,エイチディージースリーワン,0
2430,9011001125859,登記記録の閉鎖等,0,2025-06-09,2025-05-14,株式会社イレブンイコール,,株式会社,東京都,渋谷区,渋谷２丁目１０番６号,,13,113,1500002,,,2025-05-14,清算の結了等,,,2018-12-28,1,,,,,イレブンイコール,0
2446,9011201024539,登記記録の閉鎖等,0,2025-06-09,2025-06-04,ＴＭＫスピンアウト株式会社,,株式会社,東京都,中野区,弥生町４丁目３４番８号,,13,114,1640013,,,2025-06-04,清算の結了等,,,2023-04-05,1,,,,,ティーエムケースピンアウト,0
2480,9021003004358,登記記録の閉鎖等,0,2025-06-09,2025-05-30,合同会社ｎｅｘｔ　ｗｉｎｄ,,合同会社,神奈川県,藤沢市,藤が岡２丁目１３番１号,,14,205,2510004,,,2025-05-30,清算の結了等,,,2015-10-05,1,,,,,ネクストウィンド,0
2521,9100001022215,登記記録の閉鎖等,0,2025-06-09,2025-06-05,株式会社アコーズマイクロテック,,株式会社,長野県,飯田市,鼎切石４３７６番地４,,20,205,3950807,,,2025-06-05,清算の結了等,,,2015-10-05,1,,,,,アコーズマイクロテック,0
2543,9120001263170,登記記録の閉鎖等,0,2025-06-09,2025-06-02,株式会社エスプロ,,株式会社,大阪府,大阪市北区,中崎３丁目４番２２－１００５号,,27,127,5300016,,,2025-06-02,清算の結了等,,,2024-03-18,1,,,,,エスプロ,0
2564,9130001032938,登記記録の閉鎖等,0,2025-06-09,2025-06-03,株式会社西澤,,株式会社,京都府,宇治市,伊勢田町大谷１９番地の３６,,26,204,6110043,,,2025-06-03,清算の結了等,,,2015-10-05,1,,,,,ニシザワ,0
2567,9130001075219,登記記録の閉鎖等,0,2025-06-09,2025-06-04,株式会社サンガード,,株式会社,京都府,城陽市,寺田樋尻４８－４７坂本ビル２Ｆ,,26,207,6100121,,,2025-06-04,清算の結了等,,,2023-09-15,1,,,,,サンガード,0
2575,9140002053016,登記記録の閉鎖等,0,2025-06-09,2025-06-02,有限会社岸田土木,,有限会社,兵庫県,神崎郡神河町,根宇野９３５番地の１,,28,446,6792411,,,2025-06-02,清算の結了等,,,2015-10-05,1,,,,,キシダドボク,0
2589,9180002045918,登記記録の閉鎖等,0,2025-06-09,2025-06-02,有限会社ショーワコンフォート,,有限会社,愛知県,大府市,北崎町井田１３２番地,,23,223,4740001,,,2025-06-02,合併による解散等,4180001092379,令和７年６月１日愛知県大府市北崎町井田１３２番地株式会社富士（4180001092379）に合併し解散,2015-10-05,1,,,,,ショーワコンフォート,0
2592,9180002088446,登記記録の閉鎖等,0,2025-06-09,2025-05-30,有限会社メゾン三友,,有限会社,愛知県,知多市,新知字西屋敷１３番地,,23,224,4780017,,,2025-05-30,清算の結了等,,,2015-10-05,1,,,,,メゾンサンユウ,0
2594,9180003015077,登記記録の閉鎖等,0,2025-06-09,2025-06-02,Ｋ．フィット合同会社,,合同会社,愛知県,名古屋市港区,当知２丁目２０１番地,,23,111,4550804,,,2025-06-02,清算の結了等,,,2015-10-05,1,,,,,,0
2598,9180301011389,登記記録の閉鎖等,0,2025-06-09,2025-06-04,三河精麦株式会社,,株式会社,愛知県,蒲郡市,港町１３番１８号蒲郡マリン・イーストＣ,,23,214,4430034,,,2025-06-04,合併による解散等,6180301011441,令和７年６月１日愛知県蒲郡市宝町３番１２号山八商事株式会社（6180301011441）に合併し解散,2015-10-05,1,,,,,ミカワセイバク,0
2599,9180301027377,登記記録の閉鎖等,0,2025-06-09,2025-06-05,株式会社佐藤製作所,,株式会社,愛知県,豊川市,土筒町上薮下１６番地４,,23,207,4420813,,,2025-06-05,清算の結了等,,,2015-10-05,1,,,,,,0
2656,9330001009800,登記記録の閉鎖等,0,2025-06-09,2025-05-21,株式会社ピルツ製薬,,株式会社,熊本県,菊池市,泗水町田島５９３番地３,,43,210,8611214,,,2025-05-21,清算の結了等,,,2015-10-05,1,,,,,ピルツセイヤク,0
2675,9380002034875,登記記録の閉鎖等,0,2025-06-09,2025-06-02,有限会社佐藤屋,,有限会社,福島県,喜多方市,字長内７８２０番地,,07,208,9660845,,,2025-06-02,清算の結了等,,,2015-10-05,1,,,,,,0
2687,9500001013462,登記記録の閉鎖等,0,2025-06-09,2025-06-05,株式会社酒の大型スーパージン朝生田店,,株式会社,愛媛県,松山市,朝生田町３丁目９番２３号,,38,201,7900952,,,2025-06-05,清算の結了等,,,2015-10-05,1,,,,,サケノオオガタスーパージンアソウダテン,0
