sequenceNumber,corporateNumber,process,correct,updateDate,changeDate,name,nameImageId,kind,prefectureName,cityName,streetNumber,addressImageId,prefectureCode,cityCode,postCode,addressOutside,addressOutsideImageId,closeDate,closeCause,successorCorporateNumber,changeCause,assignmentDate,latest,enName,enPrefectureName,enCityName,enAddressOutside,furigana,hihyoji
11,1010001246722,新規,0,2024-07-23,2024-07-23,３Ｇ株式会社,,株式会社,東京都,千代田区,神田小川町２丁目４番地,,13,101,1010052,,,,,,,2024-07-23,1,,,,,サンジー,0
12,1010001246739,新規,0,2024-07-23,2024-07-23,エンフォワード株式会社,,株式会社,東京都,文京区,湯島３丁目６番１号全国家電会館３階,,13,105,1130034,,,,,,,2024-07-23,1,,,,,エンフォワード,0
13,1010001246747,新規,0,2024-07-23,2024-07-23,ｓｅｖｅｎＸ株式会社,,株式会社,東京都,文京区,白山１丁目６番４－２１１号,,13,105,1130001,,,,,,,2024-07-23,1,,,,,セブンエックス,0
14,1010001246755,新規,0,2024-07-23,2024-07-23,株式会社メディハオ,,株式会社,東京都,中央区,銀座１丁目１２番４号Ｎ＆ＥＢＬＤ．７階,,13,102,1040061,,,,,,,2024-07-23,1,,,,,メディハオ,0
15,1010001246763,新規,0,2024-07-23,2024-07-23,株式会社満月,,株式会社,東京都,千代田区,内神田１丁目１５－１６松本ビル５階,,13,101,1010047,,,,,,,2024-07-23,1,,,,,マンゲツ,0
18,1010005038587,新規,0,2024-07-23,2024-07-23,一般社団法人オルカ,,その他の設立登記法人,東京都,千代田区,丸の内３丁目１番１号東京共同会計事務所内,,13,101,1000005,,,,,,,2024-07-23,1,,,,,オルカ,0
21,1010401183937,新規,0,2024-07-23,2024-07-23,株式会社仍孫,,株式会社,東京都,港区,南青山２丁目４番１２号,,13,103,1070062,,,,,,,2024-07-23,1,,,,,ジョウソン,0
22,1010401183961,新規,0,2024-07-23,2024-07-23,株式会社ｅｌｓｏｌ,,株式会社,東京都,港区,六本木７丁目１４番２号,,13,103,1060032,,,,,,,2024-07-23,1,,,,,エルソル,0
33,1010805003121,新規,0,2024-07-23,2024-07-23,一般社団法人下丸子シューターズサッカークラブ,,その他の設立登記法人,東京都,大田区,矢口２丁目２０番１６号,,13,111,1460093,,,,,,,2024-07-23,1,,,,,シモマルコシューターズサッカークラブ,0
40,1011001163486,新規,0,2024-07-23,2024-07-23,株式会社アトリエ大豆,,株式会社,東京都,渋谷区,神宮前６丁目１９番１６号,,13,113,1500001,,,,,,,2024-07-23,1,,,,,アトリエダイズ,0
41,1011005010593,新規,0,2024-07-23,2024-07-23,一般社団法人日本マッチング支援協会,,その他の設立登記法人,東京都,渋谷区,神泉町１０番１５号アネックス神泉３０１,,13,113,1500045,,,,,,,2024-07-23,1,,,,,ニホンマッチングシエンキョウカイ,0
48,1011105011104,新規,0,2024-07-23,2024-07-23,茨木ロジ一般社団法人,,その他の設立登記法人,東京都,新宿区,四谷２丁目９番地１５東京ユナイテッド綜合事務所内,,13,104,1600004,,,,,,,2024-07-23,1,,,,,イバラキロジ,0
50,1011501030962,新規,0,2024-07-23,2024-07-23,ＳｔａｒＧｒｏｕｐ　Ｊａｐａｎ株式会社,,株式会社,東京都,北区,浮間１丁目１番１４号リムジンビル１０６,,13,117,1150051,,,,,,,2024-07-23,1,,,,,スターグループジャパン,0
52,1011603004393,新規,0,2024-07-23,2024-07-23,合同会社近江プロダクション,,合同会社,東京都,練馬区,練馬１丁目４１－１６豊コーポ６号室,,13,120,1760001,,,,,,,2024-07-23,1,,,,,オウミプロダクション,0
53,1011701027453,新規,0,2024-07-23,2024-07-23,東光運輸株式会社東京,,株式会社,東京都,江戸川区,本一色２丁目１２番１２号,,13,123,1330044,,,,,,,2024-07-23,1,,,,,トウコウウンユトウキョウ,0
56,1011801044563,新規,0,2024-07-23,2024-07-23,株式会社ＳＯＬＡＣＩＡ,,株式会社,東京都,葛飾区,奥戸３丁目１１番５号,,13,122,1240022,,,,,,,2024-07-23,1,,,,,ソラシア,0
59,1011803006347,新規,0,2024-07-23,2024-07-23,合同会社羽田,,合同会社,東京都,足立区,千住緑町２丁目２９番１２号,,13,121,1200044,,,,,,,2024-07-23,1,,,,,ハネダ,0
63,1012403006679,新規,0,2024-07-23,2024-07-23,ＳＵＭＩ合同会社,,合同会社,東京都,武蔵野市,御殿山２丁目２番１８号,,13,203,1800005,,,,,,,2024-07-23,1,,,,,スミ,0
65,1012701018368,新規,0,2024-07-23,2024-07-23,ホワイトナイト株式会社,,株式会社,東京都,小平市,天神町１丁目５番１７号,,13,211,1870004,,,,,,,2024-07-23,1,,,,,ホワイトナイト,0
66,1012801023342,新規,0,2024-07-23,2024-07-23,Ｒｅｊｕｖｅｎａｉｌ　Ｔｏｔａｌ　Ｐｒｏｄｕｃｅ株式会社,,株式会社,東京都,立川市,高松町２丁目９番２１号ヴィラージュ立川中２階号室,,13,202,1900011,,,,,,,2024-07-23,1,,,,,リジュビネイルトータルプロデュース,0
67,1012801023350,新規,0,2024-07-23,2024-07-23,株式会社ＭＳＣ,,株式会社,東京都,昭島市,つつじが丘２丁目５番１７－１００６号,,13,207,1960012,,,,,,,2024-07-23,1,,,,,エムエスシー,0
72,1013303007230,新規,0,2024-07-23,2024-07-23,ｗａｒａ　ｗａｒａ合同会社,,合同会社,東京都,豊島区,東池袋３丁目１３番１２号グランメール池袋７０７,,13,116,1700013,,,,,,,2024-07-23,1,,,,,ワラワラ,0
82,1020003026527,新規,0,2024-07-23,2024-07-23,ＫＯＪＰ合同会社,,合同会社,神奈川県,横浜市鶴見区,矢向４丁目２３番２号,,14,101,2300001,,,,,,,2024-07-23,1,,,,,ケーオージェーピー,0
87,1021001082792,新規,0,2024-07-23,2024-07-23,株式会社バディ,,株式会社,神奈川県,厚木市,関口２３６番地の１,,14,212,2430804,,,,,,,2024-07-23,1,,,,,バディ,0
99,1030001161374,新規,0,2024-07-23,2024-07-23,埼玉住宅管理株式会社,,株式会社,埼玉県,川口市,大字東本郷１０１７シンセリティーＡＯ１０１,,11,203,3340063,,,,,,,2024-07-23,1,,,,,サイタマジュウタクカンリ,0
100,1030001161548,新規,0,2024-07-23,2024-07-23,株式会社英祥舎,,株式会社,埼玉県,さいたま市南区,鹿手袋２丁目１２番７号２Ｆ,,11,108,3360031,,,,,,,2024-07-23,1,,,,,エイショウシャ,0
101,1030001161556,新規,0,2024-07-23,2024-07-23,株式会社スナイデル,,株式会社,埼玉県,戸田市,本町４丁目４－６ＴＢＣ,,11,224,3350023,,,,,,,2024-07-23,1,,,,,スナイデル,0
102,1030001161572,新規,0,2024-07-23,2024-07-23,ＶＡＮＧＵＡＲＤ　ＨＯＬＤＩＮＧＳ株式会社,,株式会社,埼玉県,所沢市,大字日比田９５番地１,,11,208,3590015,,,,,,,2024-07-23,1,,,,,バンガードホールディングス,0
103,1030001161580,新規,0,2024-07-23,2024-07-23,株式会社すどう,,株式会社,埼玉県,川越市,諏訪町１１番地２５,,11,201,3501147,,,,,,,2024-07-23,1,,,,,スドウ,0
108,1030003024736,新規,0,2024-07-23,2024-07-23,合同会社ＧＲＡＮＤＳＬＡＭ,,合同会社,埼玉県,新座市,野火止５丁目２番１０号ＣＫスクエア新座７階,,11,230,3520011,,,,,,,2024-07-23,1,,,,,グランドスラム,0
109,1030003024760,新規,0,2024-07-23,2024-07-23,アレス＆コンサルティング合同会社,,合同会社,埼玉県,戸田市,美女木北３丁目１５番地の１,,11,224,3350038,,,,,,,2024-07-23,1,,,,,アレスアンドコンサルティング,0
113,1040001134610,新規,0,2024-07-23,2024-07-23,株式会社一発勝負,,株式会社,千葉県,柏市,大井１７８３番地１ブローテ大井Ａ－２０１号,,12,217,2770902,,,,,,,2024-07-23,1,,,,,イッパツショウブ,0
114,1040001134619,新規,0,2024-07-23,2024-07-23,株式会社リベラ,,株式会社,千葉県,野田市,七光台４９番地の３,,12,208,2780051,,,,,,,2024-07-23,1,,,,,リベラ,0
116,1040003025436,新規,0,2024-07-23,2024-07-23,ＣＲＯＰ　ＢＡＳＥ合同会社,,合同会社,千葉県,千葉市花見川区,幕張町３丁目１６４１番地４,,12,102,2620032,,,,,,,2024-07-23,1,,,,,クロップベース,0
120,1050001055112,新規,0,2024-07-23,2024-07-23,三徳物産株式会社,00135605,株式会社,茨城県,ひたちなか市,大字足崎３１７番地,,08,221,3120003,,,,,,,2024-07-23,1,,,,,サントクブッサン,0
124,1070001042001,新規,0,2024-07-23,2024-07-23,株式会社ＤｅｃｅｎｔＬｉｆｅ,,株式会社,群馬県,伊勢崎市,境平塚１１７９,,10,204,3700132,,,,,,,2024-07-23,1,,,,,ディッセントライフ,0
127,1080001026390,新規,0,2024-07-23,2024-07-23,株式会社ＬＩＢＥＲＴＹ,,株式会社,静岡県,静岡市駿河区,中島２８６２番地の２中島団地Ｓ３４棟４０２,,22,102,4228046,,,,,,,2024-07-23,1,,,,,リバティ,0
138,1110001038589,新規,0,2024-07-23,2024-07-23,株式会社幸めぐる,,株式会社,新潟県,新潟市中央区,幸町４番６号,,15,103,9500907,,,,,,,2024-07-23,1,,,,,シアワセメグル,0
150,1120001266973,新規,0,2024-07-23,2024-07-23,ＴＩＫＲＵＭ株式会社,,株式会社,大阪府,大阪市西区,千代崎２丁目１６番６号,,27,106,5500023,,,,,,,2024-07-23,1,,,,,ティクラム,0
151,1120001267030,新規,0,2024-07-23,2024-07-23,株式会社Ｔ‐ｒｏａｄ,,株式会社,大阪府,大阪市北区,曾根崎新地１丁目１番２８号ひし好ビル４階,,27,127,5300002,,,,,,,2024-07-23,1,,,,,ティーロード,0
153,1120003027011,新規,0,2024-07-23,2024-07-23,合同会社ＳＯＲＡ,,合同会社,大阪府,大阪市生野区,新今里６丁目１６番４号,,27,116,5440001,,,,,,,2024-07-23,1,,,,,ソラ,0
154,1120003027093,新規,0,2024-07-23,2024-07-23,合同会社ＭＥＲＣＵＲＹ,,合同会社,大阪府,大阪市西区,立売堀５丁目４番３８－９０２号,,27,106,5500012,,,,,,,2024-07-23,1,,,,,マーキュリー,0
155,1120101070020,新規,0,2024-07-23,2024-07-23,アクティブインベストメント株式会社,,株式会社,大阪府,堺市東区,西野１１１番地２５,,27,143,5998125,,,,,,,2024-07-23,1,,,,,アクティブインベストメント,0
164,1130001077486,新規,0,2024-07-23,2024-07-23,株式会社青丘フーズ,,株式会社,京都府,亀岡市,篠町浄法寺中村３５番地５,,26,206,6210835,,,,,,,2024-07-23,1,,,,,セイキュウフーズ,0
165,1130001077511,新規,0,2024-07-23,2024-07-23,株式会社ＢａＢ,,株式会社,京都府,京都市中京区,三条通河原町東入中島町９２番地ＴＩＭＥ’Ｓ,,26,104,6048004,,,,,,,2024-07-23,1,,,,,バブ,0
166,1130001077544,新規,0,2024-07-23,2024-07-23,株式会社紅花園,,株式会社,京都府,京都市西京区,川島玉頭町４０番１４,,26,111,6158193,,,,,,,2024-07-23,1,,,,,コウカエン,0
173,1140001135144,新規,0,2024-07-23,2024-07-23,株式会社ブラザーホーム,,株式会社,兵庫県,神戸市西区,持子３丁目３７番地の２,,28,111,6512131,,,,,,,2024-07-23,1,,,,,ブラザーホーム,0
174,1140001135210,新規,0,2024-07-23,2024-07-23,株式会社竹真総合,,株式会社,兵庫県,尼崎市,西本町３丁目１０１番地,,28,202,6600874,,,,,,,2024-07-23,1,,,,,タケシンソウゴウ,0
175,1140001135219,新規,0,2024-07-23,2024-07-23,株式会社スロースカンパニー,,株式会社,兵庫県,宝塚市,小林４丁目７番５８号ホームクリエイトビル１、３０３号室,,28,214,6650034,,,,,,,2024-07-23,1,,,,,スロースカンパニー,0
199,1190001031504,新規,0,2024-07-23,2024-07-23,株式会社風土大山田,,株式会社,三重県,伊賀市,平田３５７番地の１,,24,216,5181422,,,,,,,2024-07-23,1,,,,,フウドオオヤマダ,0
204,1200005013645,新規,0,2024-07-23,2024-07-23,農事組合法人杁ノ戸営農,,その他の設立登記法人,岐阜県,安八郡安八町,北今ケ渕１４６１番地１,,21,383,5030113,,,,,,,2024-07-23,1,,,,,イリノトエイノウ,0
214,1260001039283,新規,0,2024-07-23,2024-07-23,株式会社嘉誠,,株式会社,岡山県,岡山市南区,浜野２丁目６番１０号レインボー２１Ａ棟２０１号室,,33,104,7000845,,,,,,,2024-07-23,1,,,,,カセイ,0
221,1290001106460,新規,0,2024-07-23,2024-07-23,株式会社ＭＫ,,株式会社,福岡県,大牟田市,大字三池１１４０番地５,,40,202,8370921,,,,,,,2024-07-23,1,,,,,エムケイ,0
222,1290001106485,新規,0,2024-07-23,2024-07-23,みなと投資株式会社,,株式会社,福岡県,福岡市中央区,大名２丁目６番１１号ＦｕｋｕｏｋａＧｒｏｗｔｈＮｅｘｔ,,40,133,8100041,,,,,,,2024-07-23,1,,,,,ミナトトウシ,0
225,1290003015544,新規,0,2024-07-23,2024-07-23,合同会社ｆｌｏｗ．ｙ．ｃｏｍｐａｎｙ,,合同会社,福岡県,福岡市中央区,警固２丁目１３－７警固ランドマークタワー１－４０１号,,40,133,8100023,,,,,,,2024-07-23,1,,,,,フローワイカンパニー,0
226,1290003015552,新規,0,2024-07-23,2024-07-23,合同会社與八,,合同会社,福岡県,大野城市,筒井２丁目９番３号,,40,219,8160931,,,,,,,2024-07-23,1,,,,,ヨハチ,0
233,1310001019115,新規,0,2024-07-23,2024-07-23,株式会社豊姫水産,,株式会社,長崎県,西海市,崎戸町平島７７４番地,,42,212,8573311,,,,,,,2024-07-23,1,,,,,トヨヒメスイサン,0
243,1330003010482,新規,0,2024-07-23,2024-07-23,合同会社ＨＲＭヒロメタル,,合同会社,熊本県,熊本市北区,梶尾町１７８１番地２１,,43,105,8615512,,,,,,,2024-07-23,1,,,,,ヒロメタル,0
248,1370001051533,新規,0,2024-07-23,2024-07-23,株式会社リブアセット不動産,,株式会社,宮城県,仙台市青葉区,旭ケ丘３丁目４番１号,,04,101,9810904,,,,,,,2024-07-23,1,,,,,リブアセットフドウサン,0
249,1370001051541,新規,0,2024-07-23,2024-07-23,株式会社心愛会,,株式会社,宮城県,気仙沼市,西八幡町７８番地フェリオ１０３,,04,205,9880817,,,,,,,2024-07-23,1,,,,,シンアイカイ,0
250,1370003006683,新規,0,2024-07-23,2024-07-23,合同会社東雲商事,,合同会社,宮城県,仙台市青葉区,春日町４－２８ＳＵＵＴ３０３,,04,101,9800821,,,,,,,2024-07-23,1,,,,,シノノメショウジ,0
265,1400005008427,新規,0,2024-07-23,2024-07-23,一般社団法人クジマチ,,その他の設立登記法人,岩手県,久慈市,夏井町鳥谷第５地割６５番地２,,03,207,0280001,,,,,,,2024-07-23,1,,,,,クジマチ,0
273,1430001092298,新規,0,2024-07-23,2024-07-23,株式会社望羊荘,,株式会社,北海道,虻田郡倶知安町,南一条東３丁目２番地,,01,400,0440011,,,,,,,2024-07-23,1,,,,,ボウヨウソウ,0
276,1700150126531,新規,0,2024-07-23,2024-07-23,ｊｉａｘｉｎｇ　ｊｅｈｏｎｎ　ｃｌｅａｎｉｎｇ　ｐｒｏｄｕｃｔｓ　ｃｏ．，　ｌｔｄ,,外国会社等,,,,,,,,Ｎｏ．８９２，Ｘｉｕｘｉｎ　Ｒｏａｄ　Ｘｉｕｚｈｏｕ　Ｄｉｓｔｒｉｃｔ　Ｊｉａｘｉｎｇ，３１４０３１　ＣＮ,,,,,,2024-07-23,1,,,,,ジャシンジエオンクリーニングプロダクツカンパニーリミテッド,0
282,2010001246746,新規,0,2024-07-23,2024-07-23,株式会社Ｊａｐａｎ　Ｐｏｋｅｒ　Ｐｒｏｍｏｔｉｏｎ,,株式会社,東京都,文京区,後楽２丁目１８－４クラウンビル１Ｆ,,13,105,1120004,,,,,,,2024-07-23,1,,,,,ジャパンポーカープロモーション,0
283,2010001246770,新規,0,2024-07-23,2024-07-23,株式会社ＬＮＣ,,株式会社,東京都,千代田区,神田小川町２丁目４－１４フィールドクレストビル８Ｆ,,13,101,1010052,,,,,,,2024-07-23,1,,,,,エルエヌシー,0
284,2010001246795,新規,0,2024-07-23,2024-07-23,ナチュレ株式会社,,株式会社,東京都,中央区,東日本橋２丁目２８番４号日本橋ＣＥＴビル２階,,13,102,1030004,,,,,,,2024-07-23,1,,,,,ナチュレ,0
287,2010003044207,新規,0,2024-07-23,2024-07-23,平河町合同会社,,合同会社,東京都,千代田区,神田小川町３丁目２６番８号神田小川町三丁目ビル６階,,13,101,1010052,,,,,,,2024-07-23,1,,,,,ヒラカワチョウ,0
311,2010803005028,新規,0,2024-07-23,2024-07-23,合同会社ダイナモ,,合同会社,東京都,大田区,南雪谷５丁目１４番４号,,13,111,1450066,,,,,,,2024-07-23,1,,,,,ダイナモ,0
312,2010805003120,新規,0,2024-07-23,2024-07-23,特定非営利活動法人ロータス,,その他の設立登記法人,東京都,大田区,久が原５丁目１６番２２－２０８号,,13,111,1460085,,,,,,,2024-07-23,1,,,,,ロータス,0
313,2010901055684,新規,0,2024-07-23,2024-07-23,株式会社ＨＣコンサルティング＆アドバイザリー,,株式会社,東京都,世田谷区,代沢４丁目１５－２,,13,112,1550032,,,,,,,2024-07-23,1,,,,,エイチシーコンサルティングアンドアドバイザリー,0
318,2011001162727,新規,0,2024-07-23,2024-07-23,株式会社ＳＣベンチャーキャピタル,,株式会社,東京都,渋谷区,渋谷２丁目１９‐１５宮益坂ビルディング６０９,,13,113,1500002,,,,,,,2024-07-23,1,,,,,エスシーベンチャーキャピタル,0
319,2011001163386,新規,0,2024-07-23,2024-07-23,二次三番株式会社,,株式会社,東京都,渋谷区,神宮前５丁目２３番６号ベーレン神宮前２Ａ,,13,113,1500001,,,,,,,2024-07-23,1,,,,,ニジサンバン,0
327,2011101108150,新規,0,2024-07-23,2024-07-23,株式会社Ｍａｃｋｅｒｅｌ　Ｇｒａｎｄ,,株式会社,東京都,新宿区,西新宿７丁目２２番３１号,,13,104,1600023,,,,,,,2024-07-23,1,,,,,マカレルグランド,0
329,2011203004438,新規,0,2024-07-23,2024-07-23,ディネロ合同会社,,合同会社,東京都,中野区,南台４丁目３１－３,,13,114,1640014,,,,,,,2024-07-23,1,,,,,ディネロ,0
333,2011501030961,新規,0,2024-07-23,2024-07-23,ＦＹＬｍｏｂｉｘ株式会社,,株式会社,東京都,荒川区,西日暮里４丁目１６－３（１０１）ファミールカワセ,,13,118,1160013,,,,,,,2024-07-23,1,,,,,エフワィエルモビックス,0
335,2011603004392,新規,0,2024-07-23,2024-07-23,ＳＨＩＺＵＫＵ合同会社,,合同会社,東京都,練馬区,関町南４丁目１８番２－１０７号,,13,120,1770053,,,,,,,2024-07-23,1,,,,,シズク,0
339,2011703003897,新規,0,2024-07-23,2024-07-23,Ｊｉｄｏｋａ　Ｐｉｘｅｌｓ合同会社,,合同会社,東京都,江戸川区,小松川１丁目５－１０－２５０７,,13,123,1320034,,,,,,,2024-07-23,1,,,,,ジドカピクセル,0
341,2011801044562,新規,0,2024-07-23,2024-07-23,株式会社洋工メンテナンス,,株式会社,東京都,足立区,西新井６丁目３３番５号ケンコーハウスＢ－３,,13,121,1230841,,,,,,,2024-07-23,1,,,,,ヨウコウメンテナンス,0
344,2012401042114,新規,0,2024-07-23,2024-07-23,株式会社ＹＬＳ,,株式会社,東京都,稲城市,矢野口２６００番地コートダジュールＢ１０１,,13,225,2060812,,,,,,,2024-07-23,1,,,,,ワイエルエス,0
350,2020001158148,新規,0,2024-07-23,2024-07-23,株式会社フアクトＨＤ,,株式会社,神奈川県,横浜市神奈川区,西神奈川１丁目１番地３,,14,102,2210822,,,,,,,2024-07-23,1,,,,,フアクトホールディングス,0
351,2020001158172,新規,0,2024-07-23,2024-07-23,株式会社Ｔｏｒｕｓ,,株式会社,神奈川県,川崎市多摩区,中野島２丁目６番４２号,,14,135,2140012,,,,,,,2024-07-23,1,,,,,トーラス,0
353,2020003026518,新規,0,2024-07-23,2024-07-23,合同会社Ａｖａｎｃｅｒ,,合同会社,神奈川県,横浜市港北区,新羽町３７５６番地１Ｃ棟,,14,109,2230057,,,,,,,2024-07-23,1,,,,,アヴァンセ,0
354,2020003026526,新規,0,2024-07-23,2024-07-23,合同会社友藤企画,,合同会社,神奈川県,横浜市西区,浅間町１丁目４番３号ウィザードビル４０２,,14,103,2200072,,,,,,,2024-07-23,1,,,,,トモフジキカク,0
359,2021001082759,新規,0,2024-07-23,2024-07-23,株式会社アクセット,,株式会社,神奈川県,茅ヶ崎市,香川３丁目１６番６号,,14,207,2530082,,,,,,,2024-07-23,1,,,,,アクセット,0
372,2030001161539,新規,0,2024-07-23,2024-07-23,株式会社Ｈａｌｅｌｅａ,,株式会社,埼玉県,さいたま市中央区,新中里４丁目１３番４号シエリア与野中央公園１１２,,11,105,3380011,,,,,,,2024-07-23,1,,,,,ハレレア,0
373,2030001161555,新規,0,2024-07-23,2024-07-23,株式会社Ｌｉｆｅｗｏｎｄｅｒ,,株式会社,埼玉県,三郷市,谷口２４８番地１ルーデンスみさと３０８号,,11,237,3410042,,,,,,,2024-07-23,1,,,,,ライフワンダー,0
374,2030001161571,新規,0,2024-07-23,2024-07-23,株式会社秋野グループ,,株式会社,埼玉県,春日部市,内牧３１１９番地１,,11,214,3440051,,,,,,,2024-07-23,1,,,,,アキノグループ,0
377,2030003024768,新規,0,2024-07-23,2024-07-23,景志合同会社,,合同会社,埼玉県,入間郡三芳町,大字竹間沢４５０－１７－２０３号,,11,324,3540043,,,,,,,2024-07-23,1,,,,,ケイシ,0
378,2030003024776,新規,0,2024-07-23,2024-07-23,合同会社日全,,合同会社,埼玉県,川口市,坂下町２丁目１５番１９号,,11,203,3340003,,,,,,,2024-07-23,1,,,,,ニチゼン,0
383,2040001134675,新規,0,2024-07-23,2024-07-23,株式会社ＳＶＯＬＴＡコンサルティング,,株式会社,千葉県,浦安市,東野３丁目５－３－１１４レクセルマンション舞浜第二,,12,227,2790042,,,,,,,2024-07-23,1,,,,,ズヴォルタコンサルティング,0
388,2050001055103,新規,0,2024-07-23,2024-07-23,ＷＡＹＡＭＢＡ　ＩＮＴＥＲＮＡＴＩＯＮＡＬ株式会社,,株式会社,茨城県,結城市,大字田間１５８７番地２１,,08,207,3070044,,,,,,,2024-07-23,1,,,,,ワヤンバインターナショナル,0
389,2050001055111,新規,0,2024-07-23,2024-07-23,株式会社南方商会グループ,,株式会社,茨城県,つくばみらい市,板橋２５０９番地,,08,235,3002307,,,,,,,2024-07-23,1,,,,,ナンポウショウカイグループ,0
390,2050003008554,新規,0,2024-07-23,2024-07-23,合同会社ミライズ,,合同会社,茨城県,土浦市,蓮河原新町９番１３号,,08,203,3000821,,,,,,,2024-07-23,1,,,,,ミライズ,0
392,2060003005162,新規,0,2024-07-23,2024-07-23,合同会社ＳＵＮ,,合同会社,栃木県,宇都宮市,西川田本町４丁目２３番３号,,09,201,3210158,,,,,,,2024-07-23,1,,,,,サン,0
394,2070001041992,新規,0,2024-07-23,2024-07-23,株式会社Ｄｒｅａｍ　Ｕｐ　Ｔｒｕｓｔ,,株式会社,群馬県,太田市,東長岡町１８３番地サントリナ２０５,,10,205,3730812,,,,,,,2024-07-23,1,,,,,ドリームアップトラスト,0
400,2100001037681,新規,0,2024-07-23,2024-07-23,熱雪見晴株式会社,,株式会社,長野県,北安曇郡白馬村,大字神城２４４１３番地,,20,485,3999211,,,,,,,2024-07-23,1,,,,,ネッセツミハラシ,0
406,2110003005454,新規,0,2024-07-23,2024-07-23,合同会社トリックスター,,合同会社,新潟県,上越市,浦川原区今熊９０１番地１,,15,222,9420335,,,,,,,2024-07-23,1,,,,,トリックスター,0
412,2120001266931,新規,0,2024-07-23,2024-07-23,株式会社快適空間,,株式会社,大阪府,大阪市淀川区,塚本６丁目９番１３号,,27,123,5320026,,,,,,,2024-07-23,1,,,,,カイテキクウカン,0
413,2120001266972,新規,0,2024-07-23,2024-07-23,株式会社Ｋ’ＦＥＳＴＡ,,株式会社,大阪府,大阪市生野区,桃谷３丁目９番２７号,,27,116,5440034,,,,,,,2024-07-23,1,,,,,ケーフェスタ,0
414,2120001266980,新規,0,2024-07-23,2024-07-23,ＬＩＮＣＯＬＮ　ＩＮＴＥＲＮＡＴＩＯＮＡＬ株式会社,,株式会社,大阪府,大阪市生野区,巽北１丁目２１番２９号生野ハイツ３１４Ｂ,00135663,27,116,5440004,,,,,,,2024-07-23,1,,,,,リンカーンインターナショナル,0
415,2120001267038,新規,0,2024-07-23,2024-07-23,ヘルスキー株式会社,,株式会社,大阪府,大阪市中央区,内平野町２丁目１番１号,,27,128,5400037,,,,,,,2024-07-23,1,,,,,ヘルスキー,0
422,2120003026929,新規,0,2024-07-23,2024-07-23,合同会社明寿屋,,合同会社,大阪府,大阪市港区,弁天４丁目５－２８,,27,107,5520007,,,,,,,2024-07-23,1,,,,,メイジュヤ,0
423,2120003027092,新規,0,2024-07-23,2024-07-23,ＥＭＩ合同会社,,合同会社,大阪府,大阪市生野区,新今里６丁目３－２７,,27,116,5440001,,,,,,,2024-07-23,1,,,,,エミ,0
424,2120005024443,新規,0,2024-07-23,2024-07-23,一般財団法人福盛財団,,その他の設立登記法人,大阪府,大阪市北区,東天満１丁目１０番１２号,,27,127,5300044,,,,,,,2024-07-23,1,,,,,フクモリザイダン,0
428,2120901049493,新規,0,2024-07-23,2024-07-23,株式会社ＴＥＮ‐ＳＨＯ,,株式会社,大阪府,豊中市,箕輪２丁目４番３０－１０１号,,27,203,5600035,,,,,,,2024-07-23,1,,,,,テンショウ,0
433,2130005017149,新規,0,2024-07-23,2024-07-23,一般社団法人Ｆｉｒｅｌｉｇｈｔ,,その他の設立登記法人,京都府,京都市下京区,櫛笥通丹波口下る裏片町２１２番地,,26,106,6008822,,,,,,,2024-07-23,1,,,,,ファイアーライト,0
439,2140001135184,新規,0,2024-07-23,2024-07-23,株式会社かがやき,,株式会社,兵庫県,神戸市東灘区,鴨子ヶ原３丁目５番１１号,,28,101,6580064,,,,,,,2024-07-23,1,,,,,カガヤキ,0
440,2140001135192,新規,0,2024-07-23,2024-07-23,雅株式会社,,株式会社,兵庫県,神戸市垂水区,塩屋町２丁目２番３０号,,28,108,6550872,,,,,,,2024-07-23,1,,,,,ミヤビ,0
442,2140003020847,新規,0,2024-07-23,2024-07-23,ケージーワイ合同会社,,合同会社,兵庫県,神戸市中央区,海岸通６丁目１－１３神戸ハーバータワー３５０６号,,28,110,6500024,,,,,,,2024-07-23,1,,,,,ケージーワイ,0
448,2160001026084,新規,0,2024-07-23,2024-07-23,丸平食品株式会社,,株式会社,滋賀県,米原市,米原５６２番地,,25,214,5210012,,,,,,,2024-07-23,1,,,,,マルヘイショクヒン,0
457,2180003027021,新規,0,2024-07-23,2024-07-23,合同会社真如,,合同会社,愛知県,名古屋市中村区,名駅南２丁目７番８号－７０６号,,23,105,4500003,,,,,,,2024-07-23,1,,,,,シンニョ,0
458,2180303006195,新規,0,2024-07-23,2024-07-23,合同会社中村正價堂,,合同会社,愛知県,豊橋市,南島町２丁目９番地の１,,23,201,4400077,,,,,,,2024-07-23,1,,,,,ナカムラショウカドウ,0
461,2190001031494,新規,0,2024-07-23,2024-07-23,ｓｅｎｏｌ株式会社,,株式会社,三重県,桑名市,大字能部５６４番地２,,24,205,5110931,,,,,,,2024-07-23,1,,,,,セノル,0
467,2220003003793,新規,0,2024-07-23,2024-07-23,合同会社憩の泉,,合同会社,石川県,加賀市,黒瀬町イ１０９番地１,,17,206,9220823,,,,,,,2024-07-23,1,,,,,イコイノイズミ,0
478,2260001039274,新規,0,2024-07-23,2024-07-23,株式会社ＰＬＡＴＩＮＵＭＲＩＳＥ,,株式会社,岡山県,新見市,草間１２４６番地,,33,210,7192641,,,,,,,2024-07-23,1,,,,,プラチナムライズ,0
479,2260003004821,新規,0,2024-07-23,2024-07-23,延東誠志合同会社,,合同会社,岡山県,津山市,北園町２５番地９,,33,203,7080003,,,,,,,2024-07-23,1,,,,,エントウマサシ,0
480,2260005011378,新規,0,2024-07-23,2024-07-23,一般財団法人アミパラ財団,,その他の設立登記法人,岡山県,岡山市南区,泉田５丁目３番８号,,33,104,7000944,,,,,,,2024-07-23,1,,,,,アミパラザイダン,0
487,2290001106352,新規,0,2024-07-23,2024-07-23,株式会社ホーン,,株式会社,福岡県,福岡市博多区,住吉３丁目９番１６－１００１号レジデンシャルヒルズヴィラスタイル,,40,132,8120018,,,,,,,2024-07-23,1,,,,,ホーン,0
488,2290001106468,新規,0,2024-07-23,2024-07-23,株式会社Ｓｅａｒｉｖｅｒ,,株式会社,福岡県,福岡市東区,名島２丁目２７番３５号,,40,131,8130043,,,,,,,2024-07-23,1,,,,,シーリバー,0
491,2290003015543,新規,0,2024-07-23,2024-07-23,クリアーアップ合同会社,,合同会社,福岡県,筑紫野市,二日市北８丁目６番２０号,,40,217,8180056,,,,,,,2024-07-23,1,,,,,クリアーアップ,0
492,2290003015551,新規,0,2024-07-23,2024-07-23,フラワースタジオ・エス合同会社,,合同会社,福岡県,福岡市博多区,博多駅前１丁目２３番２号ＰａｒｋＦｒｏｎｔ博多駅前１丁目５Ｆ－Ｂ,,40,132,8120011,,,,,,,2024-07-23,1,,,,,フラワースタジオエス,0
498,2310001019114,新規,0,2024-07-23,2024-07-23,株式会社煌建,,株式会社,長崎県,北松浦郡佐々町,羽須和免５０５番地,,42,391,8570341,,,,,,,2024-07-23,1,,,,,コウケン,0
500,2330001032255,新規,0,2024-07-23,2024-07-23,株式会社恭栄堂山口万十店,,株式会社,熊本県,上益城郡御船町,大字滝川７６番地１,,43,441,8613205,,,,,,,2024-07-23,1,,,,,キョウエイドウヤマグチマンジュウテン,0
501,2330001032271,新規,0,2024-07-23,2024-07-23,株式会社ＶｅｇｅＲｉｓｅ,,株式会社,熊本県,玉名市,横島町横島８７５０番地４,,43,206,8650072,,,,,,,2024-07-23,1,,,,,ベジライズ,0
503,2330003010481,新規,0,2024-07-23,2024-07-23,合同会社ＨＥＲＢＩＲＤ,,合同会社,熊本県,上益城郡嘉島町,大字上島２００１－１－１０３,,43,442,8613106,,,,,,,2024-07-23,1,,,,,ハーバード,0
505,2350001019093,新規,0,2024-07-23,2024-07-23,ＳＯホールディングス株式会社,,株式会社,宮崎県,都城市,鷹尾３丁目４街区６号,,45,202,8850081,,,,,,,2024-07-23,1,,,,,エスオーホールディングス,0
511,2370001051524,新規,0,2024-07-23,2024-07-23,株式会社ヨシノプランニングルーム,,株式会社,宮城県,仙台市泉区,泉中央１丁目１５番地の１ナイスシティアリーナ泉中央３０２,,04,105,9813133,,,,,,,2024-07-23,1,,,,,ヨシノプランニングルーム,0
512,2370001051532,新規,0,2024-07-23,2024-07-23,株式会社ディーノ,,株式会社,宮城県,仙台市若林区,蒲町東２番地の１カーサクッチョロ６０１,,04,103,9840016,,,,,,,2024-07-23,1,,,,,ディーノ,0
529,2440003001610,新規,0,2024-07-23,2024-07-23,ＪＰＣ合同会社,,合同会社,北海道,函館市,住吉町３番４号,,01,202,0400045,,,,,,,2024-07-23,1,,,,,ジェイピーシー,0
537,2700150119575,新規,0,2024-07-23,2024-07-23,ＧｕａｎｇＺｈｏｕ　ＬｉｎｇＺｈｉ　ＤｉａｎＺｉＳｈａｎｇＷｕ　ＹｏｕＸｉａｎＧｏｎｇＳｉ,,外国会社等,,,,,,,,ＴｉａｎＨｅＱｕ　ＨｕａＱｉａｎｇＬｕ　２ｈａｏ　２１２７ｆａｎｇ　ＺｉＢｉａｎ　０３ｆａｎｇ　ＧｕａｎｇＺｈｏｕ　ＧｕａｎｇＤｏｎｇ　ＣＮ,,,,,,2024-07-23,1,,,,,コウシュウリンチデンシショウムユウゲンコウシ,0
545,3010001246712,新規,0,2024-07-23,2024-07-23,ＮＫ株式会社,,株式会社,東京都,中央区,銀座１丁目１２番４号Ｎ＆ＥＢＬＤ．７階,,13,102,1040061,,,,,,,2024-07-23,1,,,,,エヌケー,0
546,3010001246737,新規,0,2024-07-23,2024-07-23,アークリー株式会社,,株式会社,東京都,中央区,八丁堀３丁目１１番１２号,,13,102,1040032,,,,,,,2024-07-23,1,,,,,アークリー,0
547,3010001246745,新規,0,2024-07-23,2024-07-23,Ｏｃｅａｎ　Ａｄｖａｎｃｅｄ　Ｃｏｎｔｒｏｌ＆Ｉｎｔｅｇｒａｔｅｄ　Ｓｙｓｔｅｍｓ株式会社,,株式会社,東京都,千代田区,一番町２番地２一番町第二ＴＧビル,,13,101,1020082,,,,,,,2024-07-23,1,,,,,オーシャンアドバンスドコントロールアンドインテグレイテッドシステムズ,0
548,3010001246786,新規,0,2024-07-23,2024-07-23,株式会社Ｍ’ｓ　Ｍａｎａｇｅｍｅｎｔ,,株式会社,東京都,中央区,日本橋３丁目９－１,,13,102,1030027,,,,,,,2024-07-23,1,,,,,エムズマネジメント,0
549,3010003044370,新規,0,2024-07-23,2024-07-23,合同会社ＫＯＤ,,合同会社,東京都,文京区,本駒込４丁目４６番７－１号,,13,105,1130021,,,,,,,2024-07-23,1,,,,,ケーオーディー,0
558,3010403033089,新規,0,2024-07-23,2024-07-23,Ｂ＆Ｂ日本サービス合同会社,,合同会社,東京都,港区,六本木６丁目２番３１号六本木ヒルズノースタワー１７階,,13,103,1060032,,,,,,,2024-07-23,1,,,,,ビーアンドビーニホンサービス,0
560,3010501052635,新規,0,2024-07-23,2024-07-23,株式会社ＳＡＫＡＥ　ＰＬＡＮＮＩＮＧ　ＯＦＦＩＣＥ,,株式会社,東京都,台東区,浅草３丁目１６番１－２０３号,,13,106,1110032,,,,,,,2024-07-23,1,,,,,サカエプランニングオフィス,0
565,3010601065553,新規,0,2024-07-23,2024-07-23,エイム株式会社,,株式会社,東京都,江東区,平野２丁目２番３９号,,13,108,1350023,,,,,,,2024-07-23,1,,,,,エイム,0
566,3010601065594,新規,0,2024-07-23,2024-07-23,芯興株式会社,,株式会社,東京都,江東区,豊洲６丁目２番３１－３３０８号,,13,108,1350061,,,,,,,2024-07-23,1,,,,,シンコウ,0
567,3010601065603,新規,0,2024-07-23,2024-07-23,株式会社京果,,株式会社,東京都,江東区,富岡１丁目２５番４－６０２号,,13,108,1350047,,,,,,,2024-07-23,1,,,,,キョウカ,0
568,3010601065611,新規,0,2024-07-23,2024-07-23,株式会社オーブ,,株式会社,東京都,江東区,北砂３丁目２－１大須賀ビル２０１,,13,108,1360073,,,,,,,2024-07-23,1,,,,,オーブ,0
577,3010803005027,新規,0,2024-07-23,2024-07-23,ＵＣ＆Ａｓｓｏｃｉａｔｅｓ合同会社,,合同会社,東京都,大田区,久が原４丁目５番７号,,13,111,1460085,,,,,,,2024-07-23,1,,,,,ユウシイアンドアソシエイツ,0
588,3011001163402,新規,0,2024-07-23,2024-07-23,株式会社Ｃｈａ‐ｖｉｅ．,,株式会社,東京都,目黒区,祐天寺２丁目３－３－３０２,,13,110,1530052,,,,,,,2024-07-23,1,,,,,チャビー,0
589,3011001163468,新規,0,2024-07-23,2024-07-23,株式会社５Ｒｕｌｅｓ．,,株式会社,東京都,渋谷区,渋谷２丁目１９－１５宮益坂ビルディング６０９,,13,113,1500002,,,,,,,2024-07-23,1,,,,,ファイブルールズ,0
591,3011101107952,新規,0,2024-07-23,2024-07-23,宮田空調サービス株式会社,,株式会社,東京都,新宿区,西新宿３丁目３－１３西新宿水間ビル２Ｆ,,13,104,1600023,,,,,,,2024-07-23,1,,,,,ミヤタクウチョウサービス,0
592,3011101108125,新規,0,2024-07-23,2024-07-23,株式会社ＳＴＡＮＤＯＵＴ,,株式会社,東京都,新宿区,西新宿１丁目４番１１号全研プラザＳＰＡＣＥＳ新宿,,13,104,1600023,,,,,,,2024-07-23,1,,,,,スタンドアウト,0
593,3011101108141,新規,0,2024-07-23,2024-07-23,八島ビルメンテナンス株式会社,,株式会社,東京都,新宿区,歌舞伎町１丁目１８番６号,,13,104,1600021,,,,,,,2024-07-23,1,,,,,ヤシマビルメンテナンス,0
602,3011205002612,新規,0,2024-07-23,2024-07-23,一般社団法人日本中医鍼灸研究会,,その他の設立登記法人,東京都,中野区,中野３丁目３４番４号,,13,114,1640001,,,,,,,2024-07-23,1,,,,,ニホンチュウイシンキュウケンキュウカイ,0
628,3020003026509,新規,0,2024-07-23,2024-07-23,アプレンティス合同会社,,合同会社,神奈川県,川崎市多摩区,宿河原１丁目１－１７－２０２,,14,135,2140021,,,,,,,2024-07-23,1,,,,,アプレンティス,0
633,3021001082790,新規,0,2024-07-23,2024-07-23,株式会社Ｋａｓｉ　Ｊａｐａｎ,,株式会社,神奈川県,藤沢市,辻堂神台１丁目６―１，１１１,,14,205,2510041,,,,,,,2024-07-23,1,,,,,カシジャパン,0
635,3021003014800,新規,0,2024-07-23,2024-07-23,合同会社ＧＩＦＴ,,合同会社,神奈川県,秦野市,堀川１２８番地の３９,,14,211,2591305,,,,,,,2024-07-23,1,,,,,ギフト,0
642,3030001161538,新規,0,2024-07-23,2024-07-23,株式会社ダブルスプリット,,株式会社,埼玉県,新座市,東北２丁目２６－４第参みずほ館Ｂ１階,,11,230,3520001,,,,,,,2024-07-23,1,,,,,ダブルスプリット,0
643,3030001161554,新規,0,2024-07-23,2024-07-23,株式会社富士見建築,,株式会社,埼玉県,富士見市,関沢２丁目２１番５７号,,11,235,3540025,,,,,,,2024-07-23,1,,,,,フジミケンチク,0
644,3030001161570,新規,0,2024-07-23,2024-07-23,榮合株式会社,,株式会社,埼玉県,越谷市,流通団地３丁目１－５－２０１号,,11,222,3430824,,,,,,,2024-07-23,1,,,,,エイアイ,0
648,3030003024775,新規,0,2024-07-23,2024-07-23,合同会社長青,,合同会社,埼玉県,蕨市,中央２丁目１番１７号１階,,11,223,3350004,,,,,,,2024-07-23,1,,,,,チョウセイ,0
650,3040001134212,新規,0,2024-07-23,2024-07-23,株式会社ＣＬＥＨＡＲ,,株式会社,千葉県,袖ケ浦市,蔵波２６番地３メゾンドノバ１０５号,,12,229,2990243,,,,,,,2024-07-23,1,,,,,クレハ,0
651,3040001134583,新規,0,2024-07-23,2024-07-23,株式会社ジャパンプライム,,株式会社,千葉県,千葉市緑区,大高町４１番地,,12,105,2670054,,,,,,,2024-07-23,1,,,,,ジャパンプライム,0
652,3040001134658,新規,0,2024-07-23,2024-07-23,株式会社ローザトレーディング,,株式会社,千葉県,長生郡白子町,牛込字北魚屋３９２９番地１,,12,424,2994202,,,,,,,2024-07-23,1,,,,,ローザトレーディング,0
659,3050001055119,新規,0,2024-07-23,2024-07-23,株式会社東京アスレティッククラブ北関東,,株式会社,茨城県,つくば市,並木４丁目１番２号,,08,220,3050044,,,,,,,2024-07-23,1,,,,,トウキョウアスレティッククラブキタカントウ,0
663,3050003008553,新規,0,2024-07-23,2024-07-23,空円合同会社,,合同会社,茨城県,桜川市,加茂部２４８－１,,08,231,3091452,,,,,,,2024-07-23,1,,,,,コマド,0
669,3070001041991,新規,0,2024-07-23,2024-07-23,株式会社ＴＥＲＵコミュニケーションステージ,,株式会社,群馬県,前橋市,富士見町時沢１１６８番地１３,,10,201,3710104,,,,,,,2024-07-23,1,,,,,テルコミュニケーションステージ,0
672,3070003005499,新規,0,2024-07-23,2024-07-23,合同会社ポラリスラボ,,合同会社,群馬県,前橋市,山王町１丁目８－６,,10,201,3792123,,,,,,,2024-07-23,1,,,,,,0
697,3120001266939,新規,0,2024-07-23,2024-07-23,株式会社至心舎,,株式会社,大阪府,枚方市,渚東町２０番６号,,27,210,5731176,,,,,,,2024-07-23,1,,,,,シシンシャ,0
698,3120001266971,新規,0,2024-07-23,2024-07-23,株式会社マスホーム,,株式会社,大阪府,大阪市鶴見区,今津中３丁目６番２７号シャトー三愛６１１号,,27,124,5380042,,,,,,,2024-07-23,1,,,,,マスホーム,0
699,3120001266996,新規,0,2024-07-23,2024-07-23,株式会社マジバス,,株式会社,大阪府,大阪市中央区,谷町１丁目３－１９大手前エストビル２階,,27,128,5400012,,,,,,,2024-07-23,1,,,,,マジバス,0
700,3120001267020,新規,0,2024-07-23,2024-07-23,豊倉株式会社,,株式会社,大阪府,大阪市生野区,生野西２丁目７番８号,,27,116,5440024,,,,,,,2024-07-23,1,,,,,トヨクラ,0
701,3120001267037,新規,0,2024-07-23,2024-07-23,舞姫ミュージック株式会社,,株式会社,大阪府,大阪市北区,梅田１丁目１－３大阪駅前第３ビル２９階１－１－１号室,,27,127,5300001,,,,,,,2024-07-23,1,,,,,マイヒメミュージック,0
704,3120003027067,新規,0,2024-07-23,2024-07-23,合同会社ＪＣ３Ｕｎｉｏｎ,,合同会社,大阪府,大阪市天王寺区,上本町４丁目１－１６－３０３,,27,109,5430001,,,,,,,2024-07-23,1,,,,,ジェイシィサンユニオン,0
705,3120003027075,新規,0,2024-07-23,2024-07-23,合同会社ヒラトチ,,合同会社,大阪府,枚方市,三矢町２番４号,,27,210,5730051,,,,,,,2024-07-23,1,,,,,ヒラトチ,0
706,3120003027091,新規,0,2024-07-23,2024-07-23,合同会社ＳＵＮ,,合同会社,大阪府,大阪市浪速区,桜川４丁目１２番８－１０１号,,27,111,5560022,,,,,,,2024-07-23,1,,,,,サン,0
709,3120101070019,新規,0,2024-07-23,2024-07-23,ＤＧＡ株式会社,,株式会社,大阪府,富田林市,昭和町１丁目４番５２号,,27,214,5840092,,,,,,,2024-07-23,1,,,,,ディジーエー,0
712,3122001038293,新規,0,2024-07-23,2024-07-23,株式会社Ｔ‐ｒｕｏｏｔｈ,,株式会社,大阪府,四條畷市,岡山東２丁目１番１１号忍ヶ丘ショッパーズビル２号館２Ｆ,,27,229,5750003,,,,,,,2024-07-23,1,,,,,トゥルース,0
720,3130005017148,新規,0,2024-07-23,2024-07-23,一般社団法人桂川月守講,,その他の設立登記法人,京都府,京都市右京区,嵯峨天龍寺芒ノ馬場町５番地１,,26,108,6168385,,,,,,,2024-07-23,1,,,,,カツラガワツキモリコウ,0
727,3140001135183,新規,0,2024-07-23,2024-07-23,ＭＴＳ株式会社,,株式会社,兵庫県,尼崎市,南塚口町８丁目５９番１－４０２号,,28,202,6610012,,,,,,,2024-07-23,1,,,,,エムティーエス,0
728,3140001135209,新規,0,2024-07-23,2024-07-23,株式会社ユーアイ,,株式会社,兵庫県,宝塚市,平井山荘２２番３３号,,28,214,6650817,,,,,,,2024-07-23,1,,,,,ユーアイ,0
729,3140001135217,新規,0,2024-07-23,2024-07-23,株式会社まな,,株式会社,兵庫県,神戸市須磨区,禅昌寺町１丁目１８番２２号,,28,107,6540001,,,,,,,2024-07-23,1,,,,,マナ,0
732,3160002002174,新規,0,2024-07-23,2024-07-23,有限会社和邇自動車整備工場,,有限会社,滋賀県,大津市,小野平野３１８番地の３,,25,201,5200525,,,,,,,2024-07-23,1,,,,,ワニジドウシャセイビコウジョウ,0
738,3180001162513,新規,0,2024-07-23,2024-07-23,株式会社ハーバルメディカル,,株式会社,愛知県,江南市,古知野町瑞穂３４,,23,217,4838212,,,,,,,2024-07-23,1,,,,,ハーバルメディカル,0
741,3180301038867,新規,0,2024-07-23,2024-07-23,株式会社Ｎｅｏｎ,,株式会社,愛知県,豊川市,蔵子７丁目１４番地３,,23,207,4420842,,,,,,,2024-07-23,1,,,,,ネオン,0
746,3220001026110,新規,0,2024-07-23,2024-07-23,株式会社ほっとプレイス７２,,株式会社,石川県,七尾市,後畠町チ部１７番地４,,17,202,9260027,,,,,,,2024-07-23,1,,,,,ホットプレイスナナジュウニ,0
756,3270003001643,新規,0,2024-07-23,2024-07-23,合同会社共栄サービス,,合同会社,鳥取県,鳥取市,賀露町西３丁目１３３,,31,201,6800908,,,,,,,2024-07-23,1,,,,,キョウエイサービス,0
760,3280003001865,新規,0,2024-07-23,2024-07-23,合同会社Ａｖａｌｏｎ,,合同会社,島根県,松江市,上乃木８丁目１３番１５－２０２号リバティＩＭＡＩ,,32,201,6900015,,,,,,,2024-07-23,1,,,,,,0
763,3290001106467,新規,0,2024-07-23,2024-07-23,株式会社Ｌｉｔ,,株式会社,福岡県,飯塚市,下三緒２４３番地４,,40,205,8200012,,,,,,,2024-07-23,1,,,,,リット,0
764,3290001106475,新規,0,2024-07-23,2024-07-23,株式会社Ｋクラフト,,株式会社,福岡県,福岡市西区,石丸１丁目２５番９－１０１号,,40,135,8190025,,,,,,,2024-07-23,1,,,,,ケイクラフト,0
769,3290803004785,新規,0,2024-07-23,2024-07-23,ＴＴＡＰコンサルティング合同会社,,合同会社,福岡県,北九州市八幡東区,西本町１丁目１２番１２号２Ｆ,,40,108,8050061,,,,,,,2024-07-23,1,,,,,ティーティーエーピーコンサルティング,0
771,3300005007206,新規,0,2024-07-23,2024-07-23,一般社団法人ありたｄｅつなぐ,,その他の設立登記法人,佐賀県,西松浦郡有田町,幸平２丁目２－２３,,41,401,8440005,,,,,,,2024-07-23,1,,,,,アリタデツナグ,0
773,3310003004823,新規,0,2024-07-23,2024-07-23,合同会社プラスワン,,合同会社,長崎県,長崎市,興善町４番６号田都ビル５０２,,42,201,8500032,,,,,,,2024-07-23,1,,,,,プラスワン,0
777,3330003010472,新規,0,2024-07-23,2024-07-23,レハマンＣＯＲＰＯＲＡＴＩＯＮ合同会社,,合同会社,熊本県,阿蘇郡南阿蘇村,大字一関１２２１番１－１０１号,,43,433,8691504,,,,,,,2024-07-23,1,,,,,レハマンコーポレーション,0
794,3400001016737,新規,0,2024-07-23,2024-07-23,高梨商事株式会社,,株式会社,岩手県,滝沢市,黒沢２４番地４２,,03,216,0200646,,,,,,,2024-07-23,1,,,,,タカナシショウジ,0
798,3430001092271,新規,0,2024-07-23,2024-07-23,株式会社Ｆａｒｍ丸チャン,,株式会社,北海道,北広島市,輪厚３０２番地,,01,234,0611264,,,,,,,2024-07-23,1,,,,,ファームマルチャン,0
803,3470001020303,新規,0,2024-07-23,2024-07-23,株式会社ｅｄｇｅ　ｆｏｒｗａｒｄ,,株式会社,香川県,高松市,藤塚町１丁目６番９号,,37,201,7600071,,,,,,,2024-07-23,1,,,,,エッジフォワード,0
807,3700150126513,新規,0,2024-07-23,2024-07-23,Ｇｕａｎｇｚｈｏｕｙｕｎｄｉｎｇｗｅｎｈｕａｃｈｕａｎｂｏｙｏｕｘｉａｎｇｏｎｇｓｉ,,外国会社等,,,,,,,,Ｈｕａｎｇｐｕｑｕｇｕａｎｇｘｉｎｌｕ６８０ｈａｏ１０２ｆａｎｇｚｈｉＡ０５１３ＧｕａｎｇｚｈｏｕｓｈｉＧｕａｎｇｄｏｎｇｓｈｅｎｇ,,,,,,2024-07-23,1,,,,,グワンジョウインディンウェンフワーチュワンボーヨウシエンゴンスー,0
821,4010001246728,新規,0,2024-07-23,2024-07-23,株式会社Ｏｆｆｉｃｅ　ｌａｂ　Ｇｒｏｕｐ,,株式会社,東京都,中央区,日本橋本町３丁目３－６ワカ末ビル９階,,13,102,1030023,,,,,,,2024-07-23,1,,,,,オフィスラボグループ,0
822,4010001246744,新規,0,2024-07-23,2024-07-23,株式会社コモレビ,,株式会社,東京都,中央区,銀座１丁目１２番４号Ｎ＆ＥＢＬＤ．６Ｆ,,13,102,1040061,,,,,,,2024-07-23,1,,,,,コモレビ,0
823,4010001246760,新規,0,2024-07-23,2024-07-23,株式会社Ｎｅｅｄｆｕｌ,,株式会社,東京都,千代田区,神田淡路町１丁目４番地３,,13,101,1010063,,,,,,,2024-07-23,1,,,,,ニードフル,0
827,4010005038527,新規,0,2024-07-23,2024-07-23,シルバー３特定目的会社,,その他の設立登記法人,東京都,千代田区,麹町５丁目１番地ＮＫ真和ビル９階,,13,101,1020083,,,,,,,2024-07-23,1,,,,,シルバースリー,0
828,4010005038535,新規,0,2024-07-23,2024-07-23,一般社団法人日本美容医師会,,その他の設立登記法人,東京都,中央区,銀座２丁目１１番８号ラウンドクロス銀座二丁目３階,,13,102,1040061,,,,,,,2024-07-23,1,,,,,ニホンビヨウイシカイ,0
829,4010103002392,新規,0,2024-07-23,2024-07-23,合同会社ＫＩＹＯＨＡＲＵ清治,,合同会社,東京都,八王子市,上柚木３丁目１２番地９－１０１,,13,201,1920373,,,,,,,2024-07-23,1,,,,,,0
835,4010401183760,新規,0,2024-07-23,2024-07-23,株式会社Ｔｉｔａｎｉａ,,株式会社,東京都,港区,六本木２丁目２－２,,13,103,1060032,,,,,,,2024-07-23,1,,,,,チタニア,0
836,4010401183918,新規,0,2024-07-23,2024-07-23,株式会社グランツエステート,,株式会社,東京都,港区,新橋５丁目６番４号トゥシェ新橋９０２,,13,103,1050004,,,,,,,2024-07-23,1,,,,,グランツエステート,0
837,4010403033088,新規,0,2024-07-23,2024-07-23,ＬＳ‐ＤＡＬ第１６号合同会社,,合同会社,東京都,港区,六本木１丁目６番１号,,13,103,1060032,,,,,,,2024-07-23,1,,,,,エルエスディーエーエルダイジュウロクゴウ,0
846,4010801035248,新規,0,2024-07-23,2024-07-23,株式会社ＦＵＪＩＨＯＰＥ,,株式会社,東京都,大田区,北千束２丁目１９番４－２０４号,,13,111,1450062,,,,,,,2024-07-23,1,,,,,フジホープ,0
848,4010901055674,新規,0,2024-07-23,2024-07-23,笑顔遊戯株式会社,,株式会社,東京都,世田谷区,世田谷１丁目４１番２号,,13,112,1540017,,,,,,,2024-07-23,1,,,,,エガオゲーム,0
855,4011001163434,新規,0,2024-07-23,2024-07-23,株式会社ＣＯＣＯＯＮ,,株式会社,東京都,渋谷区,恵比寿１丁目２４番１１号,,13,113,1500013,,,,,,,2024-07-23,1,,,,,コクーン,0
856,4011001163442,新規,0,2024-07-23,2024-07-23,株式会社トラストプラス,,株式会社,東京都,目黒区,中目黒２丁目８番２号－３０２号室,,13,110,1530061,,,,,,,2024-07-23,1,,,,,トラストプラス,0
865,4011101108149,新規,0,2024-07-23,2024-07-23,Ｇｒｅａｔ　Ｍｅｄｉｃａｌ株式会社,,株式会社,東京都,新宿区,西新宿８丁目１７番２－２１０２号,,13,104,1600023,,,,,,,2024-07-23,1,,,,,グレートメディカル,0
873,4011401026273,新規,0,2024-07-23,2024-07-23,株式会社竹刀,,株式会社,東京都,板橋区,板橋１丁目５３番１５号,,13,119,1730004,,,,,,,2024-07-23,1,,,,,シナイ,0
877,4011501030935,新規,0,2024-07-23,2024-07-23,Ｅ‐ＴＥＮ株式会社,,株式会社,東京都,北区,志茂５丁目３４－７,,13,117,1150042,,,,,,,2024-07-23,1,,,,,イーテン,0
878,4011501030943,新規,0,2024-07-23,2024-07-23,株式会社Ｄｏｇｓｔａｒ,,株式会社,東京都,荒川区,南千住５丁目２７番３号,,13,118,1160003,,,,,,,2024-07-23,1,,,,,ドックスター,0
879,4011501030951,新規,0,2024-07-23,2024-07-23,日本尼賽機自動車用部品株式会社,,株式会社,東京都,荒川区,南千住３丁目２７－２浅草ビル５０８,,13,118,1160003,,,,,,,2024-07-23,1,,,,,ニホンニサイキジドウシャヨウブヒン,0
883,4011701027450,新規,0,2024-07-23,2024-07-23,株式会社ＢＨＣ,,株式会社,東京都,江戸川区,西葛西２丁目２２番４５－１１１８号,,13,123,1340088,,,,,,,2024-07-23,1,,,,,ビーエイチシー,0
884,4011703003912,新規,0,2024-07-23,2024-07-23,何和合同会社,,合同会社,東京都,江戸川区,松江２丁目１番１３－３０４,,13,123,1320025,,,,,,,2024-07-23,1,,,,,ニワ,0
886,4011801044560,新規,0,2024-07-23,2024-07-23,株式会社ＴＳＵＢＡＫＩ,,株式会社,東京都,足立区,江北４丁目１１番６－４０６号,,13,121,1230872,,,,,,,2024-07-23,1,,,,,ツバキ,0
890,4012401042112,新規,0,2024-07-23,2024-07-23,株式会社ＬＨ,,株式会社,東京都,武蔵野市,中町３丁目２５番２－１０１号メゾン・ド・マニエール,,13,203,1800006,,,,,,,2024-07-23,1,,,,,エルエイチ,0
894,4012701018365,新規,0,2024-07-23,2024-07-23,株式会社ミナト,,株式会社,東京都,西東京市,緑町３丁目７－１４－１０２,,13,229,1880002,,,,,,,2024-07-23,1,,,,,ミナト,0
895,4012701018373,新規,0,2024-07-23,2024-07-23,株式会社ＷＩＳＥ,,株式会社,東京都,西東京市,泉町１丁目５番１４号,,13,229,2020011,,,,,,,2024-07-23,1,,,,,ワイズ,0
896,4012703003051,新規,0,2024-07-23,2024-07-23,合同会社Ｍ‐Ｒｅｐｏｗｅｒコーポレーション,,合同会社,東京都,東村山市,富士見町１丁目１４番地４－１０３,,13,213,1890024,,,,,,,2024-07-23,1,,,,,エムリパワーコーポレーション,0
897,4012801023348,新規,0,2024-07-23,2024-07-23,株式会社ノムテック,,株式会社,東京都,昭島市,上川原町３丁目１１番１８号,,13,207,1960011,,,,,,,2024-07-23,1,,,,,ノムテック,0
901,4020003026458,新規,0,2024-07-23,2024-07-23,合同会社南建設,,合同会社,神奈川県,川崎市宮前区,宮崎２丁目９－１５アーバンコート宮崎４０４,,14,136,2160033,,,,,,,2024-07-23,1,,,,,ミナミケンセツ,0
903,4021001082773,新規,0,2024-07-23,2024-07-23,株式会社ＯＳＴＹ,,株式会社,神奈川県,鎌倉市,大船２丁目１－２０,,14,204,2470056,,,,,,,2024-07-23,1,,,,,オスティ,0
906,4021003014782,新規,0,2024-07-23,2024-07-23,合同会社８ＢＥＥＳ,,合同会社,神奈川県,相模原市中央区,緑が丘１丁目２５－１６,,14,152,2520225,,,,,,,2024-07-23,1,,,,,エイトビーズ,0
907,4021003014790,新規,0,2024-07-23,2024-07-23,ｍｏｍｏｐｉ合同会社,,合同会社,神奈川県,厚木市,中町３丁目３番２０号ビクトリアビル２０１,,14,212,2430018,,,,,,,2024-07-23,1,,,,,モモピ,0
911,4030001161140,新規,0,2024-07-23,2024-07-23,Ｍａｓ　Ｃｏｒｐｏｒａｔｉｏｎ株式会社,,株式会社,埼玉県,行田市,大字小敷田５２番地１,,11,206,3610065,,,,,,,2024-07-23,1,,,,,マスコーポレーション,0
912,4030001161537,新規,0,2024-07-23,2024-07-23,株式会社片柳,,株式会社,埼玉県,さいたま市見沼区,大字山２３番地４,,11,104,3370025,,,,,,,2024-07-23,1,,,,,カタヤナギ,0
913,4030001161553,新規,0,2024-07-23,2024-07-23,株式会社エイムパートナーズ,,株式会社,埼玉県,さいたま市緑区,原山４丁目３３番３５号,,11,109,3360931,,,,,,,2024-07-23,1,,,,,エイムパートナーズ,0
914,4030001161561,新規,0,2024-07-23,2024-07-23,株式会社ＥＮＥＳＩＡ,,株式会社,埼玉県,鴻巣市,松原４丁目４番３７号,,11,217,3650042,,,,,,,2024-07-23,1,,,,,エネシア,0
915,4030001161578,新規,0,2024-07-23,2024-07-23,ＤＩＷＡ工業株式会社,,株式会社,埼玉県,川口市,戸塚３丁目３２番２４号,,11,203,3330811,,,,,,,2024-07-23,1,,,,,ディワコウギョウ,0
916,4030001161586,新規,0,2024-07-23,2024-07-23,株式会社祥豊商事,,株式会社,埼玉県,三郷市,彦成４丁目１番２０－７１７号,,11,237,3410003,,,,,,,2024-07-23,1,,,,,ショウホウショウジ,0
919,4030003024766,新規,0,2024-07-23,2024-07-23,ＺＣＧ合同会社,,合同会社,埼玉県,草加市,花栗４丁目１７番２５号,,11,221,3400044,,,,,,,2024-07-23,1,,,,,ゼットシージー,0
920,4040001134616,新規,0,2024-07-23,2024-07-23,株式会社ききょう,,株式会社,千葉県,館山市,上真倉２３９６番地の３,,12,205,2940038,,,,,,,2024-07-23,1,,,,,キキョウ,0
921,4040003025400,新規,0,2024-07-23,2024-07-23,合同会社リペアプロ,,合同会社,千葉県,鎌ケ谷市,丸山１丁目４番３３号,,12,224,2730103,,,,,,,2024-07-23,1,,,,,リペアプロ,0
922,4040003025433,新規,0,2024-07-23,2024-07-23,パワーボックス合同会社,,合同会社,千葉県,浦安市,入船４丁目１８番１８号,,12,227,2790012,,,,,,,2024-07-23,1,,,,,パワーボックス,0
923,4040003025441,新規,0,2024-07-23,2024-07-23,オモテウラ合同会社,,合同会社,千葉県,旭市,清和乙７３９番地,,12,215,2890501,,,,,,,2024-07-23,1,,,,,オモテウラ,0
924,4040003025466,新規,0,2024-07-23,2024-07-23,合同会社青山中央特許商標企画,,合同会社,千葉県,松戸市,幸谷７６４－８－１０３,,12,207,2700017,,,,,,,2024-07-23,1,,,,,アオヤマチュウオウトッキョショウヒョウキカク,0
925,4040005022453,新規,0,2024-07-23,2024-07-23,一般社団法人布施陶芸会,,その他の設立登記法人,千葉県,柏市,布施１４３２番地,,12,217,2770825,,,,,,,2024-07-23,1,,,,,,0
927,4050003008552,新規,0,2024-07-23,2024-07-23,合同会社ＧＬＯＲＩＡ,,合同会社,茨城県,つくば市,みどりの南９５ー６Ｂｅｌｌｅ．Ｐｏｒｔｅー２０６,,08,220,3050884,,,,,,,2024-07-23,1,,,,,グローリア,0
930,4070001041999,新規,0,2024-07-23,2024-07-23,タマサービス株式会社,,株式会社,群馬県,伊勢崎市,稲荷町６１７番地１,,10,204,3720804,,,,,,,2024-07-23,1,,,,,タマサービス,0
935,4100005013198,新規,0,2024-07-23,2024-07-23,ＮＰＯ法人ＤＤＮＣ,,その他の設立登記法人,長野県,安曇野市,穂高有明７７８２番地１８,,20,220,3998301,,,,,,,2024-07-23,1,,,,,ディーディーエヌシィー,0
942,4120001266946,新規,0,2024-07-23,2024-07-23,株式会社ＯＫ４ＵＴｒａｎｓｐｏｒｔ,,株式会社,大阪府,大阪市大正区,南恩加島６丁目１０番８号,,27,108,5510021,,,,,,,2024-07-23,1,,,,,オーケーフォーユートランスポート,0
943,4120001266954,新規,0,2024-07-23,2024-07-23,ＭＡＣＲ株式会社,,株式会社,大阪府,大阪市旭区,生江３丁目４番２０号ミンティア城北公園３階３Ｂ号室,,27,117,5350004,,,,,,,2024-07-23,1,,,,,エムエーシーアール,0
944,4120001266970,新規,0,2024-07-23,2024-07-23,株式会社玉や,,株式会社,大阪府,大阪市住之江区,南港中５丁目１番１１－２１０号,,27,125,5590033,,,,,,,2024-07-23,1,,,,,タマヤ,0
945,4120001266979,新規,0,2024-07-23,2024-07-23,欧風株式会社,,株式会社,大阪府,大阪市住吉区,万代東１丁目３番２２号メゾン東和１０８号室,,27,120,5580056,,,,,,,2024-07-23,1,,,,,オウフウ,0
946,4120001267028,新規,0,2024-07-23,2024-07-23,株式会社タートルワン,,株式会社,大阪府,大阪市港区,弁天５丁目１番１７－６０１号,,27,107,5520007,,,,,,,2024-07-23,1,,,,,タートルワン,0
948,4120003027090,新規,0,2024-07-23,2024-07-23,合同会社ＲＯＢＵＳＴ,,合同会社,大阪府,大阪市浪速区,元町３丁目１１番２１号ＣＯＺＹ９０１号,,27,111,5560016,,,,,,,2024-07-23,1,,,,,ロバスト,0
952,4120905006638,新規,0,2024-07-23,2024-07-23,医療法人雄愛会,,その他の設立登記法人,大阪府,吹田市,江坂町１丁目６番１４号セレジェイラ江坂２階,,27,205,5640063,,,,,,,2024-07-23,1,,,,,ユウアイカイ,0
953,4122001038292,新規,0,2024-07-23,2024-07-23,遂達株式会社,,株式会社,大阪府,東大阪市,西堤本通西３丁目３番５号,,27,227,5770046,,,,,,,2024-07-23,1,,,,,スイタツ,0
966,4140001135158,新規,0,2024-07-23,2024-07-23,株式会社バローズ,,株式会社,兵庫県,神戸市東灘区,田中町１丁目９－１０,,28,101,6580081,,,,,,,2024-07-23,1,,,,,バローズ,0
967,4140001135166,新規,0,2024-07-23,2024-07-23,株式会社ＪＡＶＩ,,株式会社,兵庫県,神戸市中央区,加納町４丁目６番地３北野坂都ビル４０２号室,,28,110,6500001,,,,,,,2024-07-23,1,,,,,ジャヴィ,0
968,4140001135199,新規,0,2024-07-23,2024-07-23,株式会社ｉｖｙ,,株式会社,兵庫県,三田市,すずかけ台１丁目３１番地７,,28,219,6691322,,,,,,,2024-07-23,1,,,,,アイビー,0
969,4140003020845,新規,0,2024-07-23,2024-07-23,欧亜商事合同会社,,合同会社,兵庫県,神戸市兵庫区,氷室町２丁目１３番７号,,28,105,6520054,,,,,,,2024-07-23,1,,,,,オウアショウジ,0
970,4150005009613,新規,0,2024-07-23,2024-07-23,一般社団法人まいろ,,その他の設立登記法人,奈良県,葛城市,木戸８４番地１１,,29,211,6392161,,,,,,,2024-07-23,1,,,,,マイロ,0
977,4160005011320,新規,0,2024-07-23,2024-07-23,一般社団法人大裕会,,その他の設立登記法人,滋賀県,守山市,守山４丁目６番６号,,25,207,5240022,,,,,,,2024-07-23,1,,,,,ダイユウカイ,0
987,4180301038858,新規,0,2024-07-23,2024-07-23,恵比寿計画株式会社,,株式会社,愛知県,刈谷市,若松町３丁目９番地ＹＦＢＬＤＧ３階,,23,210,4480858,,,,,,,2024-07-23,1,,,,,エビスケイカク,0
988,4180301038866,新規,0,2024-07-23,2024-07-23,ＲｏｃｋＭｏｏｎ株式会社,,株式会社,愛知県,安城市,今本町１丁目４番２５号,,23,212,4460008,,,,,,,2024-07-23,1,,,,,ロックムーン,0
1014,4280001009216,新規,0,2024-07-23,2024-07-23,株式会社フライングバロン,,株式会社,島根県,邑智郡美郷町,都賀本郷４５０‐２,,32,448,6960704,,,,,,,2024-07-23,1,,,,,フライングバロン,0
1018,4290001106474,新規,0,2024-07-23,2024-07-23,株式会社カツノ,,株式会社,福岡県,福岡市中央区,白金１丁目１０番３０号,,40,133,8100012,,,,,,,2024-07-23,1,,,,,カツノ,0
1019,4290001106499,新規,0,2024-07-23,2024-07-23,株式会社ＣＯＯＬ　ＲＵＮＮＩＮＧＳ,,株式会社,福岡県,小郡市,小郡４１８－１パークタウンマンションＥ４０２,,40,216,8380141,,,,,,,2024-07-23,1,,,,,クールランニングス,0
1035,4310001019120,新規,0,2024-07-23,2024-07-23,株式会社ｅｌ,,株式会社,長崎県,大村市,富の原２丁目３５５－４,,42,205,8560806,,,,,,,2024-07-23,1,,,,,エル,0
1037,4310003004822,新規,0,2024-07-23,2024-07-23,也合同会社,,合同会社,長崎県,諫早市,高来町峰４６８番地２７,,42,204,8590117,,,,,,,2024-07-23,1,,,,,ナリ,0
1039,4330001032278,新規,0,2024-07-23,2024-07-23,株式会社Ｓ,,株式会社,熊本県,熊本市南区,城南町宮地１００２番地の１,,43,104,8614202,,,,,,,2024-07-23,1,,,,,エス,0
1049,4360005007075,新規,0,2024-07-23,2024-07-23,一般社団法人プレジャートレジャー,,その他の設立登記法人,沖縄県,那覇市,宇栄原３丁目２１番６号,,47,201,9010153,,,,,,,2024-07-23,1,,,,,プレジャートレジャー,0
1066,4390001017686,新規,0,2024-07-23,2024-07-23,株式会社にしだＡ＆Ｐ,,株式会社,山形県,新庄市,十日町５７８番地の１,,06,205,9960091,,,,,,,2024-07-23,1,,,,,ニシダエイアンドピー,0
1070,4420001018805,新規,0,2024-07-23,2024-07-23,あおもり森林エネルギー株式会社,,株式会社,青森県,平川市,岩舘長田９７番地１,,02,210,0360100,,,,,,,2024-07-23,1,,,,,アオモリシンリンエネルギー,0
1076,4700150126512,新規,0,2024-07-23,2024-07-23,ｇｕａｎｇｚｈｏｕｑｉａｎｚｈａｎｚｈｉｙｅｆａｚｈａｎｙｏｕｘｉａｎｇｏｎｇｓｉ,,外国会社等,,,,,,,,Ｓｈｏｐ　Ｎｏ．１３，Ｂｕｉｌｄｉｎｇ　Ａ，Ｂ，Ｎｏ．９　Ｓｈｕｇｕａｎｇ　Ｒｏａｄ，Ｘｉｎｈｕａ　Ｓｔｒｅｅｔ，Ｈｕａｄｕ　Ｄｉｓｔｒｉｃｔ，Ｇｕａｎｇｚｈｏｕ,,,,,,2024-07-23,1,,,,,グワンジョウチエンジャンジーイエファージャンヨウシエンゴンスー,0
1087,5010001246743,新規,0,2024-07-23,2024-07-23,ゼネラホールディングス株式会社,,株式会社,東京都,中央区,日本橋茅場町２丁目１３番１１号,,13,102,1030025,,,,,,,2024-07-23,1,,,,,ゼネラホールディングス,0
1088,5010001246776,新規,0,2024-07-23,2024-07-23,株式会社ＳｏｃｉＡＤｅｓｉｇｎ,,株式会社,東京都,千代田区,丸の内１丁目１番３号日本生命丸の内ガーデンタワー３Ｆ,,13,101,1000005,,,,,,,2024-07-23,1,,,,,ソシアデザイン,0
1089,5010001246801,新規,0,2024-07-23,2024-07-23,株式会社クエーサー,,株式会社,東京都,千代田区,神田須田町２丁目２３番４号小田ビル,,13,101,1010041,,,,,,,2024-07-23,1,,,,,クエーサー,0
1092,5010003044369,新規,0,2024-07-23,2024-07-23,合同会社パディアン,,合同会社,東京都,文京区,小日向３丁目１７番１－２号,,13,105,1120006,,,,,,,2024-07-23,1,,,,,パディアン,0
1095,5010005038534,新規,0,2024-07-23,2024-07-23,一般社団法人中落合プロパティ,,その他の設立登記法人,東京都,千代田区,内幸町２丁目１番６号,,13,101,1000011,,,,,,,2024-07-23,1,,,,,ナカオチアイプロパティ,0
1103,5010601065601,新規,0,2024-07-23,2024-07-23,グローバル株式会社,,株式会社,東京都,江東区,石島１４番地１,,13,108,1350014,,,,,,,2024-07-23,1,,,,,グローバル,0
1106,5010801035247,新規,0,2024-07-23,2024-07-23,株式会社ゼログラヴィティ,,株式会社,東京都,大田区,池上６丁目１２番１３号,,13,111,1460082,,,,,,,2024-07-23,1,,,,,ゼログラヴィティ,0
1108,5010901055673,新規,0,2024-07-23,2024-07-23,株式会社Ｂｏｎ　ｂｅｌｌ．,,株式会社,東京都,世田谷区,下馬６丁目４４番２２号,,13,112,1540002,,,,,,,2024-07-23,1,,,,,ボンベル,0
1113,5011001163441,新規,0,2024-07-23,2024-07-23,株式会社クロスロード,,株式会社,東京都,渋谷区,代々木２丁目２３番１－１１３８号,,13,113,1510053,,,,,,,2024-07-23,1,,,,,クロスロード,0
1117,5011101108123,新規,0,2024-07-23,2024-07-23,カサデフロル株式会社,,株式会社,東京都,新宿区,西五軒町２番４号,,13,104,1620812,,,,,,,2024-07-23,1,,,,,カサデフロル,0
1121,5011201025648,新規,0,2024-07-23,2024-07-23,株式会社ダンツ,,株式会社,東京都,中野区,沼袋３丁目１５番６号,,13,114,1650025,,,,,,,2024-07-23,1,,,,,ダンツ,0
1127,5011501030942,新規,0,2024-07-23,2024-07-23,サステナフルハピネス株式会社,,株式会社,東京都,北区,中十条１丁目１５番４号,,13,117,1140032,,,,,,,2024-07-23,1,,,,,サステナフルハピネス,0
1128,5011501030950,新規,0,2024-07-23,2024-07-23,株式会社Ｃｏｍｏｒｅｂｉキャピタル,,株式会社,東京都,荒川区,東日暮里２丁目３０番６－２階,,13,118,1160014,,,,,,,2024-07-23,1,,,,,コモレビキャピタル,0
1133,5011701027458,新規,0,2024-07-23,2024-07-23,ＥＶ　ＦＯＲＣＥ株式会社,,株式会社,東京都,江戸川区,春江町５丁目５番１３号益友第３ビル,,13,123,1340003,,,,,,,2024-07-23,1,,,,,イーブイフォース,0
1136,5012305002095,新規,0,2024-07-23,2024-07-23,一般社団法人ＳＫテクノアシスト,,その他の設立登記法人,東京都,町田市,薬師台２丁目３５番地４,,13,209,1950073,,,,,,,2024-07-23,1,,,,,エスケーテクノアシスト,0
1137,5012403006675,新規,0,2024-07-23,2024-07-23,合同会社Ｇｒｅｅｎ　Ｏｒａｎｇｅ　Ｅｄｕｃａｔｉｏｎ,,合同会社,東京都,三鷹市,上連雀３丁目１番１７－２０６号,,13,204,1810012,,,,,,,2024-07-23,1,,,,,グリーンオレンジエデュケーション,0
1138,5012701018364,新規,0,2024-07-23,2024-07-23,義利株式会社,,株式会社,東京都,西東京市,谷戸町２丁目１６－１０ルミエールひばりが丘５０１号室,,13,229,1880001,,,,,,,2024-07-23,1,,,,,ギリ,0
1142,5013301052844,新規,0,2024-07-23,2024-07-23,カナメ株式会社,,株式会社,東京都,豊島区,高松１丁目１３番７号ストークマンション高松１０３号,,13,116,1710042,,,,,,,2024-07-23,1,,,,,カナメ,0
1148,5020001158211,新規,0,2024-07-23,2024-07-23,株式会社ホーヨウ,,株式会社,神奈川県,川崎市宮前区,宮崎１０８番地４１,,14,136,2160033,,,,,,,2024-07-23,1,,,,,ホーヨウ,0
1149,5020003026523,新規,0,2024-07-23,2024-07-23,合同会社Ｈ　ｃｏｒｐｏｒａｔｉｏｎ,,合同会社,神奈川県,川崎市川崎区,堀之内町４－１,,14,131,2100003,,,,,,,2024-07-23,1,,,,,,0
1150,5020005016480,新規,0,2024-07-23,2024-07-23,税理士法人白井会計事務所,,その他の設立登記法人,神奈川県,横浜市神奈川区,新子安１丁目１４番２１号プリムス１階,,14,102,2210013,,,,,,,2024-07-23,1,,,,,シライカイケイジムショ,0
1153,5021001082772,新規,0,2024-07-23,2024-07-23,株式会社高梨,00135662,株式会社,神奈川県,秦野市,菩提１２７４番地,,14,211,2591302,,,,,,,2024-07-23,1,,,,,タカナシ,0
1154,5021001082780,新規,0,2024-07-23,2024-07-23,株式会社ＦＯＯＤ　ＵＰＰＥＲ　ＧＲＯＵＰ,,株式会社,神奈川県,小田原市,南鴨宮２丁目３７番１９号,,14,206,2500875,,,,,,,2024-07-23,1,,,,,フードアッパーグループ,0
1168,5030001161528,新規,0,2024-07-23,2024-07-23,ブリア・インターナショナル株式会社,,株式会社,埼玉県,朝霞市,大字上内間木５１５番地１,,11,227,3510001,,,,,,,2024-07-23,1,,,,,ブリアインターナショナル,0
1169,5030001161569,新規,0,2024-07-23,2024-07-23,株式会社シェノン,,株式会社,埼玉県,朝霞市,膝折町４丁目８番１－４０２号,,11,227,3510014,,,,,,,2024-07-23,1,,,,,シェノン,0
1171,5030003024749,新規,0,2024-07-23,2024-07-23,合同会社翔舗装,,合同会社,埼玉県,上尾市,仲町２丁目１０－１０グランレーヴ２０２,,11,219,3620035,,,,,,,2024-07-23,1,,,,,カケルホソウ,0
1172,5030003024757,新規,0,2024-07-23,2024-07-23,ＸＵＹ　ＸＵＹ合同会社,,合同会社,埼玉県,坂戸市,伊豆の山町２１番地３９ＫＩＶオフィス伊豆の山２号棟Ｂ号室,,11,239,3500275,,,,,,,2024-07-23,1,,,,,シュイシュイ,0
1177,5040001134607,新規,0,2024-07-23,2024-07-23,大実株式会社,,株式会社,千葉県,香取市,片野７２１番地１ビジョン１,,12,236,2870044,,,,,,,2024-07-23,1,,,,,ダイジツ,0
1178,5040001134615,新規,0,2024-07-23,2024-07-23,株式会社ＫＡＩＥＮ,,株式会社,千葉県,市川市,大洲３丁目１５番２０号トゥフレ市川Ｂ棟－１０２号,,12,203,2720032,,,,,,,2024-07-23,1,,,,,カイエン,0
1179,5040001134656,新規,0,2024-07-23,2024-07-23,株式会社星見商事,,株式会社,千葉県,柏市,豊四季３５２番地１０,,12,217,2770863,,,,,,,2024-07-23,1,,,,,ホシミショウジ,0
1181,5040003025440,新規,0,2024-07-23,2024-07-23,合同会社ＷＩＮＢＥ,,合同会社,千葉県,千葉市中央区,弁天１丁目１５番３号リードシー千葉駅前ビルＢ１Ｆ,,12,101,2600045,,,,,,,2024-07-23,1,,,,,ウィンビー,0
1190,5060001037287,新規,0,2024-07-23,2024-07-23,株式会社Ｐｏｅｔｉｃ　Ｊｕｓｔｉｃｅ,,株式会社,栃木県,小山市,大字千駄塚１０７番地７,,09,208,3290202,,,,,,,2024-07-23,1,,,,,ポエティックジャスティス,0
1191,5060005010232,新規,0,2024-07-23,2024-07-23,一般社団法人福りゅう,,その他の設立登記法人,栃木県,那須塩原市,鍋掛１０８５番地１０７１,,09,213,3250013,,,,,,,2024-07-23,1,,,,,フクリュウ,0
1192,5070001041998,新規,0,2024-07-23,2024-07-23,株式会社安田インターナショナルトレーディング,,株式会社,群馬県,伊勢崎市,堀口町６１８番地１,,10,204,3720834,,,,,,,2024-07-23,1,,,,,ヤスダインターナショナルトレーディング,0
1195,5080001026387,新規,0,2024-07-23,2024-07-23,株式会社ネクステ,,株式会社,静岡県,静岡市葵区,両替町２丁目５－２１ウィッシュビル４Ｆ,,22,101,4200032,,,,,,,2024-07-23,1,,,,,,0
1200,5080401027316,新規,0,2024-07-23,2024-07-23,株式会社ミックスルーム,,株式会社,静岡県,浜松市中央区,布橋２丁目４番１０６号カレッジタウンウイング,,22,138,4328012,,,,,,,2024-07-23,1,,,,,ミックスルーム,0
1211,5120001266953,新規,0,2024-07-23,2024-07-23,匠味株式会社,,株式会社,大阪府,大阪市北区,曾根崎新地１丁目７番６号新日本新地ビル東館Ｂ１,,27,127,5300002,,,,,,,2024-07-23,1,,,,,タクミ,0
1212,5120001266978,新規,0,2024-07-23,2024-07-23,ＦＦＴＴ株式会社,,株式会社,大阪府,大阪市城東区,東中浜９丁目８番２６号１０２号室,,27,118,5360023,,,,,,,2024-07-23,1,,,,,エフエフティティ,0
1213,5120001267010,新規,0,2024-07-23,2024-07-23,株式会社ＮＨＴ,,株式会社,大阪府,大阪市此花区,西九条１丁目２番１６号,,27,104,5540012,,,,,,,2024-07-23,1,,,,,エヌエイチティー,0
1214,5120001267019,新規,0,2024-07-23,2024-07-23,株式会社バース,,株式会社,大阪府,大阪市中央区,島之内２丁目５番２６－９０６号,,27,128,5420082,,,,,,,2024-07-23,1,,,,,バース,0
1215,5120001267035,新規,0,2024-07-23,2024-07-23,Ｂｒａｖｅ　Ｙａｎｇ株式会社,,株式会社,大阪府,大阪市西区,本田３丁目１番１９－４０１号,,27,106,5500022,,,,,,,2024-07-23,1,,,,,ブレーブヤング,0
1221,5120003027081,新規,0,2024-07-23,2024-07-23,合同会社あたらよ,,合同会社,大阪府,寝屋川市,成美町２２番１８号,,27,215,5720046,,,,,,,2024-07-23,1,,,,,アタラヨ,0
1222,5120003027098,新規,0,2024-07-23,2024-07-23,書建商事合同会社,,合同会社,大阪府,大阪市中央区,常盤町１丁目１－９－６０５,,27,128,5400028,,,,,,,2024-07-23,1,,,,,ショケンショウジ,0
1233,5130001077490,新規,0,2024-07-23,2024-07-23,株式会社三丹ハウジングサービス,,株式会社,京都府,与謝郡与謝野町,字金屋２３５１番地１,,26,465,6292421,,,,,,,2024-07-23,1,,,,,サンタンハウジングサービス,0
1234,5130001077516,新規,0,2024-07-23,2024-07-23,株式会社Ｏｕｓｉａ,,株式会社,京都府,京都市上京区,丹波屋町３４８－１－７０３,,26,102,6028287,,,,,,,2024-07-23,1,,,,,ウーシア,0
1235,5130001077549,新規,0,2024-07-23,2024-07-23,三青株式会社,,株式会社,京都府,京都市伏見区,深草飯食町８３７番地朝日プラザ深草５０７号,,26,109,6120028,,,,,,,2024-07-23,1,,,,,サンセイ,0
1239,5130003009715,新規,0,2024-07-23,2024-07-23,Ｓｈａｈｒｏｚ　Ｔｒａｄｉｎｇ合同会社,,合同会社,京都府,京都市伏見区,深草東軸町８番地,,26,109,6120823,,,,,,,2024-07-23,1,,,,,シャーロズトレーディング,0
1244,5140003020852,新規,0,2024-07-23,2024-07-23,合同会社ＯＡＫＴＲＥＥ,,合同会社,兵庫県,三木市,大塚２丁目１－１１,,28,215,6730413,,,,,,,2024-07-23,1,,,,,オークツリー,0
1245,5140005027160,新規,0,2024-07-23,2024-07-23,特定非営利活動法人日本パラファンク協会,,その他の設立登記法人,兵庫県,加西市,中富町４１４－２,,28,220,6752442,,,,,,,2024-07-23,1,,,,,ニホンパラファンクキョウカイ,0
1248,5170005007093,新規,0,2024-07-23,2024-07-23,一般社団法人千成会,,その他の設立登記法人,和歌山県,和歌山市,朝日３７８番地,,30,201,6400344,,,,,,,2024-07-23,1,,,,,センナリカイ,0
1255,5180301038857,新規,0,2024-07-23,2024-07-23,株式会社松福堂,,株式会社,愛知県,みよし市,福田町中屋敷４３番地１,,23,236,4700225,,,,,,,2024-07-23,1,,,,,ショウフクドウ,0
1256,5180301038865,新規,0,2024-07-23,2024-07-23,株式会社Ａｉｍｅ　Ｂｅａｕｔｅ,,株式会社,愛知県,岡崎市,錦町８番地１５,,23,202,4440067,,,,,,,2024-07-23,1,,,,,アイミーボーテ,0
1257,5180303006192,新規,0,2024-07-23,2024-07-23,合同会社エス三,,合同会社,愛知県,高浜市,神明町８丁目２０番地１Ｔぽーと２Ｆ,,23,227,4441305,,,,,,,2024-07-23,1,,,,,エスゾウ,0
1258,5190003004751,新規,0,2024-07-23,2024-07-23,合同会社たなばた,,合同会社,三重県,四日市市,諏訪栄町６―２５プレミスト四日市駅前１５０２,,24,202,5100086,,,,,,,2024-07-23,1,,,,,タナバタ,0
1265,5220001026100,新規,0,2024-07-23,2024-07-23,株式会社ＡＣＥ,,株式会社,石川県,金沢市,南四十万１丁目１９５番地,,17,201,9218134,,,,,,,2024-07-23,1,,,,,エース,0
1266,5220001026109,新規,0,2024-07-23,2024-07-23,株式会社Ｔ．ｉ．Ｍ,,株式会社,石川県,金沢市,畝田東２丁目５５７番地（Ｇ‐ｓｋｙ・１０２号）,,17,201,9200344,,,,,,,2024-07-23,1,,,,,ティーアイエム,0
1269,5240001063570,新規,0,2024-07-23,2024-07-23,株式会社ＫＳサービス,,株式会社,広島県,府中市,鵜飼町８００番地の８,,34,208,7260002,,,,,,,2024-07-23,1,,,,,ケーエスサービス,0
1284,5290001106465,新規,0,2024-07-23,2024-07-23,株式会社Ａｓｓｉｇｎ,,株式会社,福岡県,福岡市中央区,春吉１丁目１４番２１－５１５号,,40,133,8100003,,,,,,,2024-07-23,1,,,,,アサイン,0
1285,5290001106473,新規,0,2024-07-23,2024-07-23,株式会社ＳＣＰＰ５号,,株式会社,福岡県,福岡市中央区,舞鶴２丁目２－７第２赤坂門ビル２階,,40,133,8100073,,,,,,,2024-07-23,1,,,,,エスシーピーピーゴゴウ,0
1287,5290003015549,新規,0,2024-07-23,2024-07-23,合同会社ＴＡＫＥ９,,合同会社,福岡県,久留米市,六ツ門町７番地５２久留米ザ・ミッドタワー１８０１号,,40,203,8300031,,,,,,,2024-07-23,1,,,,,テイクナイン,0
1290,5290005019449,新規,0,2024-07-23,2024-07-23,一般社団法人メディア４,,その他の設立登記法人,福岡県,福岡市城南区,鳥飼５丁目２０番１１号,,40,136,8140103,,,,,,,2024-07-23,1,,,,,メディアフォー,0
1305,5360001033966,新規,0,2024-07-23,2024-07-23,株式会社大城工業,,株式会社,沖縄県,宜野湾市,大謝名４丁目１番５号徳嶺アパート２０１号室,,47,205,9012225,,,,,,,2024-07-23,1,,,,,オオシロコウギョウ,0
1314,5400001016735,新規,0,2024-07-23,2024-07-23,株式会社色香,,株式会社,岩手県,盛岡市,下田字陣場５４番地１１４,,03,201,0284134,,,,,,,2024-07-23,1,,,,,イロカ,0
1317,5430001092294,新規,0,2024-07-23,2024-07-23,株式会社Ｓｕｎ　Ｐｉｅｃｅ,,株式会社,北海道,苫小牧市,木場町１丁目５番６号,,01,213,0530033,,,,,,,2024-07-23,1,,,,,サンピース,0
1318,5430001092303,新規,0,2024-07-23,2024-07-23,株式会社札幌銅リサイクル,,株式会社,北海道,札幌市東区,丘珠町８８８番地１２,,01,103,0070880,,,,,,,2024-07-23,1,,,,,サッポロドウリサイクル,0
1322,5470001020292,新規,0,2024-07-23,2024-07-23,株式会社ｕｗａｂａｍｉ．,,株式会社,香川県,高松市,天神前１０番５号高松セントラルスカイビルディング３Ｆ　ｓｏｕｔｈ,,37,201,7600018,,,,,,,2024-07-23,1,,,,,ウワバミ,0
1323,5470001020301,新規,0,2024-07-23,2024-07-23,紡実株式会社,,株式会社,香川県,善通寺市,下吉田町６２０番地２,,37,204,7650021,,,,,,,2024-07-23,1,,,,,ツグミ,0
1331,5700150126511,新規,0,2024-07-23,2024-07-23,深セン皓酷網絡科技有限公司,,外国会社等,,,,,,,,中国深セン市福田区沙頭街道天安社区深南大道６０３３号金運世紀大厦６Ｃ,,,,,,2024-07-23,1,,,,,シンセンコウコクモウラクカギユウゲンコウシ,0
1340,6010001246718,新規,0,2024-07-23,2024-07-23,アコマホールディングス株式会社,,株式会社,東京都,文京区,本郷２丁目１４番１４号,,13,105,1130033,,,,,,,2024-07-23,1,,,,,アコマホールディングス,0
1341,6010001246726,新規,0,2024-07-23,2024-07-23,株式会社ＪＥＴＳ,,株式会社,東京都,中央区,晴海５丁目１番１７－１３１４号,,13,102,1040053,,,,,,,2024-07-23,1,,,,,ジェッツ,0
1342,6010001246750,新規,0,2024-07-23,2024-07-23,株式会社ウェルトラスト,,株式会社,東京都,中央区,晴海３丁目１３番１－５２２２号,,13,102,1040053,,,,,,,2024-07-23,1,,,,,ウェルトラスト,0
1343,6010001246775,新規,0,2024-07-23,2024-07-23,株式会社ルーズリーフ,,株式会社,東京都,千代田区,東神田２丁目１０番１５号ジェノヴィア東神田グリーンヴェール７０５,,13,101,1010031,,,,,,,2024-07-23,1,,,,,ルーズリーフ,0
1345,6010003044376,新規,0,2024-07-23,2024-07-23,合同会社ＩＳＥＫＡＩ　Ｆｒｏｎｔｉｅｒ　Ｉｎｖｅｓｔｍｅｎｔｓ,,合同会社,東京都,千代田区,外神田３丁目６番１号第一協和ビル３階,,13,101,1010021,,,,,,,2024-07-23,1,,,,,イセカイフロンティアインベストメンツ,0
1349,6010401183957,新規,0,2024-07-23,2024-07-23,冷凍食品ＰＲ連盟株式会社,,株式会社,東京都,港区,浜松町２丁目２番１５号浜松町ダイヤビル２Ｆ,,13,103,1050013,,,,,,,2024-07-23,1,,,,,レイトウショクヒンピーアールレンメイ,0
1351,6010403033086,新規,0,2024-07-23,2024-07-23,７６合同会社,,合同会社,東京都,港区,港南４丁目２－７－４０２,,13,103,1080075,,,,,,,2024-07-23,1,,,,,ナナロク,0
1358,6010601065600,新規,0,2024-07-23,2024-07-23,勝Ｇｌｏｂａｌ株式会社,,株式会社,東京都,墨田区,東駒形２－２－１３東駒形二丁目ビル３０７号室,,13,107,1300000,,,,,,,2024-07-23,1,,,,,カツグローバル,0
1361,6010801035246,新規,0,2024-07-23,2024-07-23,株式会社ＣＯＡＳＴ,,株式会社,東京都,大田区,西蒲田７丁目２１番１０－２０２号,,13,111,1440051,,,,,,,2024-07-23,1,,,,,コースト,0
1375,6011001163498,新規,0,2024-07-23,2024-07-23,株式会社エーアシ,,株式会社,東京都,渋谷区,道玄坂１丁目１０番８号渋谷道玄坂東急ビル２Ｆ－Ｃ,,13,113,1500043,,,,,,,2024-07-23,1,,,,,エーアシ,0
1383,6011101108147,新規,0,2024-07-23,2024-07-23,Ａｃｈｉｅｖｅ　Ｌｉｎｋ株式会社,,株式会社,東京都,新宿区,西新宿３丁目３番１３号西新宿水間ビル２Ｆ,,13,104,1600023,,,,,,,2024-07-23,1,,,,,アチーブリンク,0
1393,6011403004457,新規,0,2024-07-23,2024-07-23,アフェクテック合同会社,,合同会社,東京都,板橋区,志村１丁目１２番２２号熊岡方,,13,119,1740056,,,,,,,2024-07-23,1,,,,,アフェクテック,0
1396,6011601027912,新規,0,2024-07-23,2024-07-23,株式会社藤,,株式会社,東京都,練馬区,東大泉５丁目２６番５号大泉グリーンハイツ２０１,,13,120,1780063,,,,,,,2024-07-23,1,,,,,フジ,0
1399,6011701027457,新規,0,2024-07-23,2024-07-23,株式会社セコンド,,株式会社,東京都,江戸川区,大杉５丁目６番６号,,13,123,1320022,,,,,,,2024-07-23,1,,,,,セコンド,0
1400,6011703003910,新規,0,2024-07-23,2024-07-23,合同会社八雲,,合同会社,東京都,江戸川区,平井３丁目１６番１１号,,13,123,1320035,,,,,,,2024-07-23,1,,,,,ヤクモ,0
1401,6011801044567,新規,0,2024-07-23,2024-07-23,盛達株式会社,,株式会社,東京都,足立区,本木１丁目２６番４－３０２号,,13,121,1230853,,,,,,,2024-07-23,1,,,,,セイタツ,0
1404,6011803006350,新規,0,2024-07-23,2024-07-23,合同会社ロックファクトリー葛飾,,合同会社,東京都,葛飾区,東金町３丁目６番２０－２０３号ベルシャトゥ金町,,13,122,1250041,,,,,,,2024-07-23,1,,,,,ロックファクトリーカツシカ,0
1410,6012801023346,新規,0,2024-07-23,2024-07-23,株式会社ＩＳＹ,,株式会社,東京都,立川市,一番町１丁目６０番地の６,,13,202,1900033,,,,,,,2024-07-23,1,,,,,アイエスワイ,0
1418,6020003026431,新規,0,2024-07-23,2024-07-23,合同会社ＫＯＧＵＭＩ,,合同会社,神奈川県,横浜市南区,新川町５丁目３０－２－４０２,,14,105,2320027,,,,,,,2024-07-23,1,,,,,コグミ,0
1423,6021001082771,新規,0,2024-07-23,2024-07-23,株式会社オリエンタルＫＯＹＡＭＡ,,株式会社,神奈川県,海老名市,国分北１丁目８番２０号,,14,215,2430406,,,,,,,2024-07-23,1,,,,,オリエンタルコヤマ,0
1427,6021003014806,新規,0,2024-07-23,2024-07-23,ＡＹＡＮＡ商会合同会社,,合同会社,神奈川県,愛甲郡愛川町,田代９７３－１－Ａ,,14,401,2430306,,,,,,,2024-07-23,1,,,,,アヤナショウカイ,0
1432,6030001161551,新規,0,2024-07-23,2024-07-23,ベルパイン株式会社,,株式会社,埼玉県,朝霞市,田島１丁目１９番１号,,11,227,3510032,,,,,,,2024-07-23,1,,,,,ベルパイン,0
1435,6030003024756,新規,0,2024-07-23,2024-07-23,合同会社Ｌｕｃｋｙ　ｏｎｅ,,合同会社,埼玉県,鶴ヶ島市,大字五味ヶ谷２７－９,,11,241,3502202,,,,,,,2024-07-23,1,,,,,ラッキーワン,0
1436,6030003024764,新規,0,2024-07-23,2024-07-23,カクト合同会社,,合同会社,埼玉県,川口市,上青木１丁目１３番１０号,,11,203,3330844,,,,,,,2024-07-23,1,,,,,カクト,0
1437,6030003024772,新規,0,2024-07-23,2024-07-23,ＳＥＶＥＮＴＨ　ＨＥＡＶＥＮ合同会社,,合同会社,埼玉県,秩父郡東秩父村,大字坂本１８４９番地６,,11,369,3550372,,,,,,,2024-07-23,1,,,,,セブンスヘブン,0
1442,6040001134597,新規,0,2024-07-23,2024-07-23,株式会社ｅｔｅｌ,,株式会社,千葉県,旭市,萬歳２６３０番地１,,12,215,2890505,,,,,,,2024-07-23,1,,,,,エーテル,0
1443,6040001134647,新規,0,2024-07-23,2024-07-23,株式会社３ｏｎｅ,,株式会社,千葉県,船橋市,高根台４丁目８番３４４棟２０４号,,12,204,2740065,,,,,,,2024-07-23,1,,,,,スリーワン,0
1452,6050002009104,新規,0,2024-07-23,2024-07-23,有限会社読売新聞那珂湊専売所,00135629,有限会社,茨城県,ひたちなか市,湊泉町１番３０号,,08,221,3111216,,,,,,,2024-07-23,1,,,,,ヨミウリシンブンナカミナトセンバイショ,0
1453,6050003008559,新規,0,2024-07-23,2024-07-23,合同会社Ｍ．Ｐ．Ｊ．ＩＮＴＥＲＮＡＴＩＯＮＡＬ,,合同会社,茨城県,筑西市,海老ヶ島１０７１番地２,,08,227,3004517,,,,,,,2024-07-23,1,,,,,エムピージェイインターナショナル,0
1454,6060005010231,新規,0,2024-07-23,2024-07-23,特定非営利活動法人アユターレ,,その他の設立登記法人,栃木県,宇都宮市,下栗町２２７８番地２フレールシャポー泉Ｂ２０６,,09,201,3210923,,,,,,,2024-07-23,1,,,,,アユターレ,0
1455,6070001041989,新規,0,2024-07-23,2024-07-23,株式会社騰達,,株式会社,群馬県,前橋市,駒形町１０８３番地７,,10,201,3792122,,,,,,,2024-07-23,1,,,,,トウタツ,0
1456,6070001041997,新規,0,2024-07-23,2024-07-23,株式会社ＲＡＤ,,株式会社,群馬県,前橋市,田口町３７７,,10,201,3710048,,,,,,,2024-07-23,1,,,,,ラッド,0
1458,6070003005505,新規,0,2024-07-23,2024-07-23,ＭＡプラン合同会社,,合同会社,群馬県,利根郡みなかみ町,湯原９３７,,10,449,3791617,,,,,,,2024-07-23,1,,,,,エムエープラン,0
1460,6080001026386,新規,0,2024-07-23,2024-07-23,株式会社ドローイングアーツ,,株式会社,静岡県,焼津市,中里１６６－１,,22,212,4250014,,,,,,,2024-07-23,1,,,,,,0
1461,6080101024901,新規,0,2024-07-23,2024-07-23,株式会社建南,,株式会社,静岡県,沼津市,新沢田町１１番１３号９０８号,,22,203,4100003,,,,,,,2024-07-23,1,,,,,ケンナン,0
1464,6080403005062,新規,0,2024-07-23,2024-07-23,合同会社Ｅｚｕ,,合同会社,静岡県,磐田市,笠梅１５２４番地１４,,22,211,4380011,,,,,,,2024-07-23,1,,,,,イーゼットユー,0
1468,6090001018820,新規,0,2024-07-23,2024-07-23,株式会社ＣＨＥＥＲＦＵＬ　ＷＯＭＡＮ,,株式会社,山梨県,南都留郡富士河口湖町,船津２７７３番地５,,19,430,4010301,,,,,,,2024-07-23,1,,,,,チェアフルウーマン,0
1477,6110005017114,新規,0,2024-07-23,2024-07-23,一般社団法人サンフォード・ゴールドステインメモリアルＴＡＮＫＡミュージアム,,その他の設立登記法人,新潟県,新発田市,板山１００番地４,,15,206,9570344,,,,,,,2024-07-23,1,,,,,サンフォードゴールドステインメモリアルタンカミュージアム,0
1485,6120001267026,新規,0,2024-07-23,2024-07-23,株式会社Ｂｓ＆Ｃｏ．,,株式会社,大阪府,大阪市北区,西天満３丁目２番４号３０２,,27,127,5300047,,,,,,,2024-07-23,1,,,,,ビズアンドコー,0
1489,6120003027089,新規,0,2024-07-23,2024-07-23,合同会社８９８２凪,,合同会社,大阪府,大阪市東淀川区,淡路４丁目５－７,,27,114,5330032,,,,,,,2024-07-23,1,,,,,バクハツナギ,0
1490,6120005024448,新規,0,2024-07-23,2024-07-23,司法書士法人和奏法務事務所,,その他の設立登記法人,大阪府,大阪市中央区,北浜１丁目９番１０号,,27,128,5410041,,,,,,,2024-07-23,1,,,,,ワカナホウムジムショ,0
1496,6120103005960,新規,0,2024-07-23,2024-07-23,合同会社ｃｈｏｕｃｈｏｕ,,合同会社,大阪府,堺市北区,金岡町１１８２番地２８,,27,146,5918022,,,,,,,2024-07-23,1,,,,,シュシュ,0
1500,6120901049507,新規,0,2024-07-23,2024-07-23,株式会社コエックスエナジージャパン,,株式会社,大阪府,吹田市,江坂町２丁目１３番１３号池上ビル,,27,205,5640063,,,,,,,2024-07-23,1,,,,,コエックスエナジージャパン,0
1503,6122001038290,新規,0,2024-07-23,2024-07-23,株式会社ＩＣＨＩＢＡＮ,,株式会社,大阪府,八尾市,植松町７丁目６番１４号,,27,212,5810084,,,,,,,2024-07-23,1,,,,,イチバン,0
1511,6130001077515,新規,0,2024-07-23,2024-07-23,株式会社Ｌｕｉｄａｃｏｏｋ,,株式会社,京都府,京都市右京区,西院高山寺町１２番地１４,,26,108,6160000,,,,,,,2024-07-23,1,,,,,ルイーダクック,0
1553,6220001026108,新規,0,2024-07-23,2024-07-23,株式会社マイズパートナーズ,,株式会社,石川県,金沢市,此花町５番６号ライフ金沢第１ビル６０１Ａ,,17,201,9200852,,,,,,,2024-07-23,1,,,,,マイズパートナーズ,0
1570,6290001106472,新規,0,2024-07-23,2024-07-23,株式会社ＳＣＰＰ４号,,株式会社,福岡県,福岡市中央区,舞鶴２丁目２－７第２赤坂門ビル２階,,40,133,8100073,,,,,,,2024-07-23,1,,,,,エスシーピーピーヨンゴウ,0
1571,6290001106480,新規,0,2024-07-23,2024-07-23,株式会社ペントホーム,,株式会社,福岡県,福岡市東区,松島３丁目７番８－６０１号,,40,131,8130062,,,,,,,2024-07-23,1,,,,,ペントホーム,0
1572,6290001106522,新規,0,2024-07-23,2024-07-23,アッシュアーキテクトスタジオ株式会社,,株式会社,福岡県,福岡市中央区,大手門２丁目４番１８－１０２号,,40,133,8100074,,,,,,,2024-07-23,1,,,,,アッシュアーキテクトスタジオ,0
1586,6360001033965,新規,0,2024-07-23,2024-07-23,株式会社ＧＹＫ,,株式会社,沖縄県,那覇市,辻２丁目８－２１,00135671,47,201,9000037,,,,,,,2024-07-23,1,,,,,ジーワイケー,0
1610,6430001092285,新規,0,2024-07-23,2024-07-23,株式会社Ｐｕｋａｏ,,株式会社,北海道,札幌市豊平区,平岸二条８丁目４番１－７０２号,,01,105,0620932,,,,,,,2024-07-23,1,,,,,プカオ,0
1611,6430001092302,新規,0,2024-07-23,2024-07-23,株式会社ジョブボックス,,株式会社,北海道,札幌市北区,新琴似四条１６丁目２番１７号,,01,102,0010904,,,,,,,2024-07-23,1,,,,,ジョブボックス,0
1616,6470001020300,新規,0,2024-07-23,2024-07-23,株式会社讃香製作,,株式会社,香川県,高松市,香西南町４００番地１１,,37,201,7618014,,,,,,,2024-07-23,1,,,,,サンコウセイサク,0
1626,7010001246642,新規,0,2024-07-23,2024-07-23,永源株式会社,,株式会社,東京都,文京区,白山１丁目６－４同栄マンション２階文京ＶＥＮＴＵＲＥＢＡＳＥ２０４号室,,13,105,1130001,,,,,,,2024-07-23,1,,,,,エイゲン,0
1627,7010001246717,新規,0,2024-07-23,2024-07-23,株式会社ナトリパン,,株式会社,東京都,中央区,入船１丁目７番８号,,13,102,1040042,,,,,,,2024-07-23,1,,,,,ナトリパン,0
1628,7010001246725,新規,0,2024-07-23,2024-07-23,株式会社ＲｉＬａｎ　Ｃａｐｉｔａｌ　Ｐａｒｔｎｅｒｓ,,株式会社,東京都,中央区,佃２丁目１番１－２３１０号,,13,102,1040051,,,,,,,2024-07-23,1,,,,,リランキャピタルパートナーズ,0
1629,7010001246741,新規,0,2024-07-23,2024-07-23,株式会社山元リテールサービス,,株式会社,東京都,中央区,日本橋本石町１丁目１番４号,,13,102,1030021,,,,,,,2024-07-23,1,,,,,ヤマゲンリテールサービス,0
1630,7010001246774,新規,0,2024-07-23,2024-07-23,株式会社英知,,株式会社,東京都,文京区,本駒込４丁目３２番２号,,13,105,1130021,,,,,,,2024-07-23,1,,,,,エイチ,0
1641,7010401183964,新規,0,2024-07-23,2024-07-23,ＧＣＪＩ２１株式会社,,株式会社,東京都,港区,元赤坂１丁目１番８号株式会社赤坂国際会計内,,13,103,1070051,,,,,,,2024-07-23,1,,,,,ジーシージェイアイトゥエンティーワン,0
1644,7010403033085,新規,0,2024-07-23,2024-07-23,合同会社バロンピエスポーツマネジメント,,合同会社,東京都,港区,浜松町２丁目２番１５号浜松町ダイヤビル２Ｆ,,13,103,1050013,,,,,,,2024-07-23,1,,,,,バロンピエスポーツマネジメント,0
1645,7010403033093,新規,0,2024-07-23,2024-07-23,合同会社鈴楽,,合同会社,東京都,港区,白金台３丁目１５－１－６０２,,13,103,1080071,,,,,,,2024-07-23,1,,,,,レイラク,0
1647,7010601065599,新規,0,2024-07-23,2024-07-23,Ｉｎｓｉｇｈｔ株式会社,,株式会社,東京都,墨田区,千歳３丁目６番５号３０２室プロス森下,,13,107,1300025,,,,,,,2024-07-23,1,,,,,インサイト,0
1650,7010901055639,新規,0,2024-07-23,2024-07-23,祥龍国際株式会社,,株式会社,東京都,世田谷区,太子堂５丁目１７番１号メゾン・ド・ミロール３０２,,13,112,1540004,,,,,,,2024-07-23,1,,,,,ショウリュウコクサイ,0
1651,7010901055663,新規,0,2024-07-23,2024-07-23,株式会社はい,,株式会社,東京都,世田谷区,瀬田５丁目１番１６－６０１号,,13,112,1580095,,,,,,,2024-07-23,1,,,,,ハイ,0
1657,7011201025646,新規,0,2024-07-23,2024-07-23,観典株式会社,,株式会社,東京都,中野区,若宮１丁目５０－１３ラルブル若宮２０２室,,13,114,1650033,,,,,,,2024-07-23,1,,,,,カンテン,0
1660,7011601027911,新規,0,2024-07-23,2024-07-23,博智山麗株式会社,,株式会社,東京都,練馬区,旭町１丁目８番１号－４１９号,,13,120,1790071,,,,,,,2024-07-23,1,,,,,ハクチザンレイ,0
1663,7011703003901,新規,0,2024-07-23,2024-07-23,合同会社おきどき,,合同会社,東京都,江戸川区,北葛西５丁目２４番１６号,,13,123,1340081,,,,,,,2024-07-23,1,,,,,オキドキ,0
1671,7020001158192,新規,0,2024-07-23,2024-07-23,株式会社ａ　ｂｉｅｎｔｏｔ,,株式会社,神奈川県,横浜市旭区,善部町２５,,14,112,2410823,,,,,,,2024-07-23,1,,,,,アビアント,0
1672,7020001158218,新規,0,2024-07-23,2024-07-23,文山文具株式会社,,株式会社,神奈川県,川崎市中原区,小杉御殿町２丁目９７番地２,,14,133,2110068,,,,,,,2024-07-23,1,,,,,ブンサンブング,0
1676,7020003026513,新規,0,2024-07-23,2024-07-23,ＣｕｒｉｏＱｕｅｓｔ合同会社,,合同会社,神奈川県,横浜市西区,浅間町１丁目４番３号ウィザードビル４０２,,14,103,2200072,,,,,,,2024-07-23,1,,,,,キュリオクエスト,0
1678,7021001082779,新規,0,2024-07-23,2024-07-23,株式会社悠研,,株式会社,神奈川県,平塚市,徳延４７２番地の１,,14,203,2540902,,,,,,,2024-07-23,1,,,,,ユウケン,0
1680,7021003014656,新規,0,2024-07-23,2024-07-23,ＦｏｕｒＱｕａｄｓ合同会社,,合同会社,神奈川県,藤沢市,西富４１８－２３,,14,205,2510001,,,,,,,2024-07-23,1,,,,,フォークアッズ,0
1684,7030001161550,新規,0,2024-07-23,2024-07-23,株式会社シリウス,,株式会社,埼玉県,川口市,川口１丁目１番３－１３０１号,,11,203,3320015,,,,,,,2024-07-23,1,,,,,シリウス,0
1685,7030001161567,新規,0,2024-07-23,2024-07-23,吉倉関東株式会社,,株式会社,埼玉県,狭山市,新狭山１丁目１３番３ＬＯＧＩＢＡＳＥ新狭山３０１,,11,215,3501331,,,,,,,2024-07-23,1,,,,,ヨシクラカントウ,0
1690,7030003024755,新規,0,2024-07-23,2024-07-23,合同会社カノン,,合同会社,埼玉県,朝霞市,膝折町１丁目４－２６－３０１,,11,227,3510014,,,,,,,2024-07-23,1,,,,,カノン,0
1694,7040001134613,新規,0,2024-07-23,2024-07-23,株式会社フナミサービス,,株式会社,千葉県,市川市,大野町２丁目１１３番地第三石井ビル１Ｆ,,12,203,2720805,,,,,,,2024-07-23,1,,,,,フナミサービス,0
1697,7040003025439,新規,0,2024-07-23,2024-07-23,冨田商事合同会社,,合同会社,千葉県,鎌ケ谷市,南初富５丁目９番６６号,,12,224,2730123,,,,,,,2024-07-23,1,,,,,トミタショウジ,0
1699,7050003008574,新規,0,2024-07-23,2024-07-23,オプティマハート合同会社,,合同会社,茨城県,取手市,戸頭７丁目２番１２号,,08,217,3020034,,,,,,,2024-07-23,1,,,,,オプティマハート,0
1702,7060001037327,新規,0,2024-07-23,2024-07-23,株式会社ＯＫＩＨＩ’ＳＨＡ,,株式会社,栃木県,大田原市,本町１丁目２７０１番地２７－２Ｆ,,09,210,3240041,,,,,,,2024-07-23,1,,,,,オキヒシャ,0
1703,7070001041996,新規,0,2024-07-23,2024-07-23,株式会社アハメドコーポレーション,,株式会社,群馬県,太田市,東矢島町１１７１番地１,,10,205,3730816,,,,,,,2024-07-23,1,,,,,アハメドコーポレーション,0
1721,7110001038583,新規,0,2024-07-23,2024-07-23,株式会社ＲＯＯＫ,,株式会社,新潟県,新潟市西区,みずき野４丁目５番２１号,,15,107,9502264,,,,,,,2024-07-23,1,,,,,ルーク,0
1722,7110001038591,新規,0,2024-07-23,2024-07-23,Ｎｉｂａｎ株式会社,,株式会社,新潟県,妙高市,大字関川６３４番地７,,15,217,9492112,,,,,,,2024-07-23,1,,,,,ニバン,0
1727,7120001266968,新規,0,2024-07-23,2024-07-23,株式会社Ｈａｏ,,株式会社,大阪府,大阪市中央区,常盤町２丁目１番１３号アドバンスビル本町６Ｆ,,27,128,5400028,,,,,,,2024-07-23,1,,,,,ハオ,0
1728,7120001267017,新規,0,2024-07-23,2024-07-23,ＺＺ株式会社,,株式会社,大阪府,大阪市生野区,新今里３丁目８番１６号啓源ビル３０２室,,27,116,5440001,,,,,,,2024-07-23,1,,,,,ゼットゼット,0
1729,7120001267041,新規,0,2024-07-23,2024-07-23,株式会社天丸製薬,,株式会社,大阪府,大阪市大正区,小林西２丁目１４番１０号,,27,108,5510013,,,,,,,2024-07-23,1,,,,,テンマルセイヤク,0
1735,7120003027071,新規,0,2024-07-23,2024-07-23,合同会社祐希,,合同会社,大阪府,大阪市阿倍野区,王子町４丁目１－４８ブランズシティあべの王子町１２０号,,27,119,5450023,,,,,,,2024-07-23,1,,,,,ユウキ,0
1741,7120101070015,新規,0,2024-07-23,2024-07-23,株式会社Ｄ’ｓ　Ｍｏｎｅｙ　Ｋｎｏｗｌｅｄｇｅ,,株式会社,大阪府,泉南郡熊取町,大久保北３丁目３３２番地の２３,,27,361,5900402,,,,,,,2024-07-23,1,,,,,ディーズマネーナレッジ,0
1752,7130001077547,新規,0,2024-07-23,2024-07-23,漢和国際文化観光産業株式会社,,株式会社,京都府,南丹市,日吉町保野田狭間５番地２,,26,213,6290301,,,,,,,2024-07-23,1,,,,,カンワコクサイブンカカンコウサンギョウ,0
1755,7130005017144,新規,0,2024-07-23,2024-07-23,一般社団法人あしたの仕事力研究所,,その他の設立登記法人,京都府,京都市北区,衣笠大祓町１５番地１イーグルコート衣笠平野道６０２号,00135664,26,101,6038351,,,,,,,2024-07-23,1,,,,,アシタノシゴトリョクケンキュウジョ,0
1763,7140001135196,新規,0,2024-07-23,2024-07-23,株式会社Ｓｈｉｎｎ,,株式会社,兵庫県,神戸市北区,鈴蘭台西町５丁目１６番１－８０６号,,28,109,6511114,,,,,,,2024-07-23,1,,,,,シン,0
1768,7160001026088,新規,0,2024-07-23,2024-07-23,株式会社ハルエリ,,株式会社,滋賀県,大津市,衣川２丁目１９番１号,,25,201,5200244,,,,,,,2024-07-23,1,,,,,ハルエリ,0
1783,7180301038863,新規,0,2024-07-23,2024-07-23,株式会社ケアメディカル・エデュケーション,,株式会社,愛知県,豊田市,幸穂台４丁目３番地５,,23,211,4442226,,,,,,,2024-07-23,1,,,,,ケアメディカルエデュケーション,0
1784,7180301038871,新規,0,2024-07-23,2024-07-23,株式会社木南,,株式会社,愛知県,岡崎市,康生通東２丁目４１番地昴ビル２階,,23,202,4440045,,,,,,,2024-07-23,1,,,,,コナン,0
1793,7200005013648,新規,0,2024-07-23,2024-07-23,一般社団法人ケイ・メディカル,,その他の設立登記法人,岐阜県,関市,小瀬９９１番地１３,,21,205,5013265,,,,,,,2024-07-23,1,,,,,ケイメディカル,0
1806,7290001106471,新規,0,2024-07-23,2024-07-23,株式会社ＳＣＰＰ３号,,株式会社,福岡県,福岡市中央区,舞鶴２丁目２－７第２赤坂門ビル２階,,40,133,8100073,,,,,,,2024-07-23,1,,,,,エスシーピーピーサンゴウ,0
1807,7290003015555,新規,0,2024-07-23,2024-07-23,合同会社Ｓｕｒｐａｓｓ,,合同会社,福岡県,福岡市南区,若久６丁目６７番２号,,40,134,8150042,,,,,,,2024-07-23,1,,,,,サーパス,0
1817,7370001051544,新規,0,2024-07-23,2024-07-23,株式会社あけぼの,,株式会社,宮城県,仙台市青葉区,あけぼの町１－１４,,04,101,9810963,,,,,,,2024-07-23,1,,,,,アケボノ,0
1818,7370003006678,新規,0,2024-07-23,2024-07-23,インセプティア合同会社,,合同会社,宮城県,仙台市青葉区,梅田町６番６号Ａｘｉｓ５０５,,04,101,9800005,,,,,,,2024-07-23,1,,,,,インセプティア,0
1829,7410001013886,新規,0,2024-07-23,2024-07-23,株式会社北浦興産,,株式会社,秋田県,仙北市,田沢湖生保内字街道ノ上３２番地５,,05,215,0141201,,,,,,,2024-07-23,1,,,,,キタウラコウサン,0
1835,7430001092292,新規,0,2024-07-23,2024-07-23,ＣＯＲＥ　ＶＩＳＩＯＮ株式会社,,株式会社,北海道,小樽市,住吉町１２番１８号,,01,203,0470015,,,,,,,2024-07-23,1,,,,,コアビジョン,0
1836,7430003016555,新規,0,2024-07-23,2024-07-23,合同会社エムケー,,合同会社,北海道,札幌市清田区,清田九条３丁目１０番１８号,,01,110,0040849,,,,,,,2024-07-23,1,,,,,エムケー,0
1840,7470001020299,新規,0,2024-07-23,2024-07-23,株式会社サン企画,,株式会社,香川県,善通寺市,中村町１４１９番地１,,37,204,7650073,,,,,,,2024-07-23,1,,,,,サンキカク,0
1841,7470005006575,新規,0,2024-07-23,2024-07-23,一般社団法人女木島を豊かにする会,,その他の設立登記法人,香川県,高松市,女木町４１番地,,37,201,7600092,,,,,,,2024-07-23,1,,,,,,0
1844,7500001025757,新規,0,2024-07-23,2024-07-23,株式会社Ｔ＆Ｓ,,株式会社,愛媛県,松山市,神田町３番４３号,,38,201,7918063,,,,,,,2024-07-23,1,,,,,ティーアンドエス,0
1845,7700150011273,新規,0,2024-07-23,2015-10-09,町田民主商工会,,その他,東京都,町田市,金井ヶ丘２丁目１４番１０号エステート宮澤ＰＡＲＴ２－１０１,,13,209,1950076,,,,,,,2015-10-09,1,,,,,マチダミンシユシヨウコウカイ,0
1856,8010001246468,新規,0,2024-07-23,2024-07-23,Ａｉｄｉｔｅ　Ｊａｐａｎ株式会社,,株式会社,東京都,千代田区,神田錦町２丁目２番１号Ｋａｎｄａ・Ｓｑｕａｒｅ,,13,101,1010054,,,,,,,2024-07-23,1,,,,,アイダイトジャパン,0
1857,8010001246757,新規,0,2024-07-23,2024-07-23,株式会社ホンダ,,株式会社,東京都,中央区,銀座１丁目１２－４Ｎ＆ＥＢＬＤ．７階,,13,102,1040061,,,,,,,2024-07-23,1,,,,,ホンダ,0
1859,8010003044374,新規,0,2024-07-23,2024-07-23,Ｄｏ‐Ｍ合同会社,,合同会社,東京都,中央区,日本橋３丁目２番１４号新槇町ビル別館第一１階,,13,102,1030027,,,,,,,2024-07-23,1,,,,,ドゥーエム,0
1873,8010401183963,新規,0,2024-07-23,2024-07-23,ＧＣＪＧ４１株式会社,,株式会社,東京都,港区,元赤坂１丁目１番８号株式会社赤坂国際会計内,,13,103,1070051,,,,,,,2024-07-23,1,,,,,ジーシージェイジーフォーティワン,0
1876,8010503007525,新規,0,2024-07-23,2024-07-23,ＰＦＧ合同会社,,合同会社,東京都,台東区,上野５丁目２２番１２号増井ビル４０２,,13,106,1100005,,,,,,,2024-07-23,1,,,,,ピーエフジー,0
1878,8010601065607,新規,0,2024-07-23,2024-07-23,静和株式会社,,株式会社,東京都,墨田区,京島１丁目４３番２号２－Ｂ室,,13,107,1310046,,,,,,,2024-07-23,1,,,,,セイワ,0
1883,8010801035244,新規,0,2024-07-23,2024-07-23,タートルアーク株式会社,,株式会社,東京都,大田区,羽田５丁目３番１号スカイプラザオフィス１０階,,13,111,1440043,,,,,,,2024-07-23,1,,,,,タートルアーク,0
1884,8010801035252,新規,0,2024-07-23,2024-07-23,株式会社Ｌｕａｎａ,,株式会社,東京都,大田区,大森北１丁目１０番１１号,,13,111,1430016,,,,,,,2024-07-23,1,,,,,ルアナ,0
1890,8010901055621,新規,0,2024-07-23,2024-07-23,ＡＬＰＨＡ一級設計事務所株式会社,,株式会社,東京都,世田谷区,羽根木１丁目１９番３号,,13,112,1560042,,,,,,,2024-07-23,1,,,,,アルファイッキュウセッケイジムショ,0
1891,8010901055679,新規,0,2024-07-23,2024-07-23,株式会社ｅｌｅｍｅｎｔ　ｔｈｒｅｅ,,株式会社,東京都,世田谷区,成城３丁目１０番３４号,,13,112,1570066,,,,,,,2024-07-23,1,,,,,エレメントスリー,0
1905,8011101108120,新規,0,2024-07-23,2024-07-23,株式会社ＳｕｍａＤｏｒｏ,,株式会社,東京都,新宿区,西新宿３丁目３番１３号西新宿水間ビル２Ｆ,,13,104,1600023,,,,,,,2024-07-23,1,,,,,スマドロ,0
1906,8011103014705,新規,0,2024-07-23,2024-07-23,合同会社トゥルージョン,,合同会社,東京都,新宿区,西新宿３丁目３番１３号西新宿水間ビル６階,,13,104,1600023,,,,,,,2024-07-23,1,,,,,トゥルージョン,0
1910,8011403004455,新規,0,2024-07-23,2024-07-23,Ｂｏｎｓａｉ　Ｊａｐａｎ合同会社,,合同会社,東京都,板橋区,大山東町２０番８－１０１号,,13,119,1730014,,,,,,,2024-07-23,1,,,,,ボンサイジャパン,0
1911,8011501030948,新規,0,2024-07-23,2024-07-23,株式会社ＤＡＩＤＯ,,株式会社,東京都,荒川区,南千住６丁目２１－１１,,13,118,1160003,,,,,,,2024-07-23,1,,,,,ダイドー,0
1912,8011501030956,新規,0,2024-07-23,2024-07-23,アシタ設計株式会社,,株式会社,東京都,北区,赤羽南１丁目１９番７号Ｋ・Ｃｕｂｉｋ２０７,,13,117,1150044,,,,,,,2024-07-23,1,,,,,アシタセッケイ,0
1913,8011701027439,新規,0,2024-07-23,2024-07-23,山水印象株式会社,,株式会社,東京都,江戸川区,本一色２丁目１８－２,,13,123,1330044,,,,,,,2024-07-23,1,,,,,サンスイインショウ,0
1914,8011701027463,新規,0,2024-07-23,2024-07-23,株式会社スターレイ,,株式会社,東京都,江戸川区,江戸川６丁目４０－１４－１０５,,13,123,1340013,,,,,,,2024-07-23,1,,,,,スターレイ,0
1916,8011703003909,新規,0,2024-07-23,2024-07-23,合同会社フジＫＣｃｏｍｐａｎｙ,,合同会社,東京都,江戸川区,江戸川２丁目２９番１－４１５号,,13,123,1320013,,,,,,,2024-07-23,1,,,,,フジケーシーカンパニー,0
1918,8011801044565,新規,0,2024-07-23,2024-07-23,株式会社ただいま,,株式会社,東京都,足立区,足立２丁目１５番４号,,13,121,1200015,,,,,,,2024-07-23,1,,,,,タダイマ,0
1939,8021001082778,新規,0,2024-07-23,2024-07-23,株式会社ＲＳＫアート,,株式会社,神奈川県,藤沢市,鵠沼神明５丁目１３番１３号,,14,205,2510021,,,,,,,2024-07-23,1,,,,,アールエスケーアート,0
1944,8021003014787,新規,0,2024-07-23,2024-07-23,合同会社オールドアイランド,,合同会社,神奈川県,茅ヶ崎市,東海岸南２丁目４－３４,,14,207,2530054,,,,,,,2024-07-23,1,,,,,オールドアイランド,0
1945,8021003014795,新規,0,2024-07-23,2024-07-23,ＳＡ　ＭＯＴＯＲＳ合同会社,,合同会社,神奈川県,愛甲郡愛川町,三増３９６番地２,,14,401,2430308,,,,,,,2024-07-23,1,,,,,エスエーモータース,0
1946,8021005013135,新規,0,2024-07-23,2024-07-23,一般社団法人ＹＲＶＣ協会,,その他の設立登記法人,神奈川県,綾瀬市,落合南２丁目１７番３７号,,14,218,2521115,,,,,,,2024-07-23,1,,,,,ワイアールヴイシーキョウカイ,0
1954,8030001161541,新規,0,2024-07-23,2024-07-23,株式会社パグシンキング,,株式会社,埼玉県,所沢市,くすのき台１丁目１０番地の７肥沼ビル３Ｆ,,11,208,3590037,,,,,,,2024-07-23,1,,,,,パグシンキング,0
1955,8030001161566,新規,0,2024-07-23,2024-07-23,株式会社１０ｙａｒｄ,,株式会社,埼玉県,越谷市,神明町１丁目１１９番地１０,,11,222,3430805,,,,,,,2024-07-23,1,,,,,テンヤード,0
1964,8040001134612,新規,0,2024-07-23,2024-07-23,３６９ＤＲＯＮＥ株式会社,,株式会社,千葉県,八千代市,ゆりのき台２丁目１２番地３－１０１,,12,221,2760042,,,,,,,2024-07-23,1,,,,,ミロクドローン,0
1965,8040003025454,新規,0,2024-07-23,2024-07-23,ＩＣＨＩＨＡＲＡ　Ｃｏｍｐａｎｙ合同会社,,合同会社,千葉県,市原市,五井６３６８－１１,,12,219,2900056,,,,,,,2024-07-23,1,,,,,イチハラカンパニー,0
1967,8050001055122,新規,0,2024-07-23,2024-07-23,株式会社不動産ＪＰＮ,,株式会社,茨城県,坂東市,鵠戸４３４番地３５,,08,228,3060641,,,,,,,2024-07-23,1,,,,,フドウサンジェーピーエヌ,0
1975,8070001041987,新規,0,2024-07-23,2024-07-23,株式会社Ｒ＆Ｅ,,株式会社,群馬県,太田市,新田村田町４４６番地４,,10,205,3700312,,,,,,,2024-07-23,1,,,,,アールアンドイー,0
1976,8070001041995,新規,0,2024-07-23,2024-07-23,株式会社ハッピープラザ,,株式会社,群馬県,みどり市,笠懸町阿左美１２５９番地１,,10,212,3792311,,,,,,,2024-07-23,1,,,,,ハッピープラザ,0
1980,8080001026392,新規,0,2024-07-23,2024-07-23,ＳＣ企画株式会社,,株式会社,静岡県,静岡市駿河区,南町９番１－３０２号,,22,102,4228067,,,,,,,2024-07-23,1,,,,,エスシーキカク,0
1985,8090003002606,新規,0,2024-07-23,2024-07-23,合同会社Ｋｆａｍｉｌｙ,,合同会社,山梨県,富士吉田市,新西原２丁目２４番５号,,19,202,4030017,,,,,,,2024-07-23,1,,,,,ケイファミリー,0
1998,8120001266918,新規,0,2024-07-23,2024-07-23,有竹古美術株式会社,,株式会社,大阪府,大阪市生野区,巽南２丁目４－６,00135659,27,116,5440015,,,,,,,2024-07-23,1,,,,,アリタケコビジュツ,0
1999,8120001266934,新規,0,2024-07-23,2024-07-23,株式会社ＲＰＦ,,株式会社,大阪府,大阪市中央区,平野町１丁目５番１１号エルギャラン平野町ビル６階,,27,128,5410046,,,,,,,2024-07-23,1,,,,,アールピーエフ,0
2000,8120001266959,新規,0,2024-07-23,2024-07-23,株式会社セトグチ,,株式会社,大阪府,大阪市平野区,背戸口４丁目２番５号,,27,126,5470034,,,,,,,2024-07-23,1,,,,,セトグチ,0
2001,8120001266967,新規,0,2024-07-23,2024-07-23,ＰＥＰＰＹ株式会社,,株式会社,大阪府,大阪市東成区,中道３丁目８番１１号,,27,115,5370025,,,,,,,2024-07-23,1,,,,,ペピイ,0
2002,8120001267016,新規,0,2024-07-23,2024-07-23,株式会社なる住建,,株式会社,大阪府,守口市,馬場町３丁目１４－６,,27,209,5700062,,,,,,,2024-07-23,1,,,,,ナルジュウケン,0
2003,8120001267049,新規,0,2024-07-23,2024-07-23,株式会社キャスタル,,株式会社,大阪府,大阪市旭区,太子橋３丁目８－１８,,27,117,5350001,,,,,,,2024-07-23,1,,,,,キャスタル,0
2004,8120003027095,新規,0,2024-07-23,2024-07-23,合同会社恩,,合同会社,大阪府,大阪市中央区,島之内２丁目１０番３３－６０２号,,27,128,5420082,,,,,,,2024-07-23,1,,,,,オン,0
2006,8120103005959,新規,0,2024-07-23,2024-07-23,あゆみ合同会社,,合同会社,大阪府,富田林市,梅の里３丁目３１番７号,,27,214,5840001,,,,,,,2024-07-23,1,,,,,アユミ,0
2007,8120901049505,新規,0,2024-07-23,2024-07-23,株式会社鴨川技研,,株式会社,大阪府,吹田市,佐井寺１丁目１番２３－４０３号,,27,205,5650836,,,,,,,2024-07-23,1,,,,,カモガワギケン,0
2012,8130001077496,新規,0,2024-07-23,2024-07-23,アスカ製薬ウェルネス株式会社,,株式会社,京都府,京都市下京区,七条通油小路東入大黒町２２７番地第２キョートビル４Ｆ,,26,106,6008223,,,,,,,2024-07-23,1,,,,,アスカセイヤクウェルネス,0
2018,8140001135195,新規,0,2024-07-23,2024-07-23,ハシモテック株式会社,,株式会社,兵庫県,神戸市西区,平野町常本２６５番地,,28,111,6512263,,,,,,,2024-07-23,1,,,,,ハシモテック,0
2019,8140001135204,新規,0,2024-07-23,2024-07-23,株式会社ＲＯＳＥ,,株式会社,兵庫県,芦屋市,奥池南町５１番２８号,,28,206,6590004,,,,,,,2024-07-23,1,,,,,ローズ,0
2025,8180001162483,新規,0,2024-07-23,2024-07-23,株式会社ＮＡＴＹ,,株式会社,愛知県,名古屋市中川区,中島新町４丁目１４１１番地,,23,110,4540932,,,,,,,2024-07-23,1,,,,,ナティー,0
2039,8200003006438,新規,0,2024-07-23,2024-07-23,三井プレジャーパートナーズ合同会社,,合同会社,岐阜県,各務原市,蘇原大島町５丁目５０番地,,21,213,5040847,,,,,,,2024-07-23,1,,,,,ミツイプレジャーパートナーズ,0
2040,8200005013647,新規,0,2024-07-23,2024-07-23,一般社団法人えんを紡ぐ,,その他の設立登記法人,岐阜県,岐阜市,西鶉５丁目１５番地エステート１５　２０２号室,,21,201,5008286,,,,,,,2024-07-23,1,,,,,エンヲツムグ,0
2042,8210001019837,新規,0,2024-07-23,2024-07-23,株式会社サザンライン,,株式会社,福井県,福井市,南居町第８９号４８番地,,18,201,9188034,,,,,,,2024-07-23,1,,,,,サザンライン,0
2044,8220001026106,新規,0,2024-07-23,2024-07-23,株式会社ＨＯＭＥ,,株式会社,石川県,金沢市,糸田２丁目１８３番地２,,17,201,9218014,,,,,,,2024-07-23,1,,,,,ホーム,0
2048,8240003006772,新規,0,2024-07-23,2024-07-23,合同会社ＩｎｔｅｒＬｉｎｋｓ,,合同会社,広島県,福山市,曙町２丁目２４－１２－２０３,,34,207,7210952,,,,,,,2024-07-23,1,,,,,インターリンクス,0
2066,8290801030713,新規,0,2024-07-23,2024-07-23,株式会社ＯＳＨＩＵＭＩ,,株式会社,福岡県,直方市,大字感田９５８番地１,,40,204,8220001,,,,,,,2024-07-23,1,,,,,オシウミ,0
2068,8310001019117,新規,0,2024-07-23,2024-07-23,株式会社大和農林,,株式会社,長崎県,諫早市,目代町１９９２番地,,42,204,8540007,,,,,,,2024-07-23,1,,,,,ヤマトノーリン,0
2071,8330001032274,新規,0,2024-07-23,2024-07-23,株式会社松尾塗工,,株式会社,熊本県,八代市,鏡町塩浜１４３番地１,,43,202,8694224,,,,,,,2024-07-23,1,,,,,マツオトコウ,0
2072,8340003004551,新規,0,2024-07-23,2024-07-23,合同会社ケアアシスト,,合同会社,鹿児島県,出水郡長島町,平尾１３８６番地３,,46,404,8991302,,,,,,,2024-07-23,1,,,,,ケアアシスト,0
2079,8360001033798,新規,0,2024-07-23,2024-07-23,株式会社ＡＭＧｃｏｎｎｅｃｔ,,株式会社,沖縄県,国頭郡今帰仁村,字湧川１９３１番地,,47,306,9050412,,,,,,,2024-07-23,1,,,,,エーエムジーコネクト,0
2080,8370001051527,新規,0,2024-07-23,2024-07-23,株式会社Ｍｉｙａｓｅ,,株式会社,宮城県,仙台市青葉区,国分町２丁目１２番２０号都ビル３０２,,04,101,9800803,,,,,,,2024-07-23,1,,,,,ミヤセ,0
2085,8380001034679,新規,0,2024-07-23,2024-07-23,さくらプラントオフィス株式会社,,株式会社,福島県,双葉郡富岡町,大字小浜字大膳町２０１番地１,,07,543,9791111,,,,,,,2024-07-23,1,,,,,サクラプラントオフィス,0
2093,8430001092275,新規,0,2024-07-23,2024-07-23,株式会社ＦＯＲＫＩＤ,,株式会社,北海道,札幌市東区,苗穂町３丁目４番３１号,,01,103,0650043,,,,,,,2024-07-23,1,,,,,フォーキッド,0
2094,8430001092300,新規,0,2024-07-23,2024-07-23,株式会社ＴＡＫＵＭＩ,,株式会社,北海道,札幌市中央区,南四条西４丁目２番地４－２階,,01,101,0640804,,,,,,,2024-07-23,1,,,,,タクミ,0
2097,8440005002782,新規,0,2024-07-23,2024-07-23,一般社団法人たちばな地所,,その他の設立登記法人,北海道,函館市,大森町２１番１２－５０４号,,01,202,0400034,,,,,,,2024-07-23,1,,,,,タチバナジショ,0
2104,8700150126509,新規,0,2024-07-23,2024-07-23,ＴＯＫＹＯ　ＬＩＧＨＴＳ　２０２４　実行委員会,,その他,東京都,新宿区,西新宿２丁目８番１号,,13,104,1600023,,,,,,,2024-07-23,1,,,,,トウキョウライツニゼロニヨンジッコウイインカイ,0
2105,8700150126533,新規,0,2024-07-23,2024-07-23,Ｙｉｗｕｓｈｉ　Ｓｈｉｙｕｅ　Ｔｒａｄｉｎｇ　Ｃｏ．，Ｌｔｄ．,,外国会社等,,,,,,,,Ｎｏ．９３６，Ｄａｎｘｉ　Ｎｏｒｔｈ　Ｒｏａｄ，Ｂｅｉｙｕａｎ　Ｓｔｒｅｅｔ，Ｙｉｗｕ　Ｃｉｔｙ　Ｒｏｏｍ　４１５，Ｑｉｙｕｅ　Ｂｕｉｌｄｉｎｇ　Ｚｈｅｊｉａｎｇ　Ｐｒｏｖｉｎｃｅ，３２２０００　ＣＮ,,,,,,2024-07-23,1,,,,,イーウシシユエトゥレイディングカンパニーリミテッド,0
2117,9010001246715,新規,0,2024-07-23,2024-07-23,ブリッジ株式会社,,株式会社,東京都,千代田区,神田駿河台３丁目４番地龍名館本店ビル１０Ｆ,,13,101,1010062,,,,,,,2024-07-23,1,,,,,ブリッジ,0
2118,9010001246772,新規,0,2024-07-23,2024-07-23,株式会社あおぼし,,株式会社,東京都,中央区,銀座１丁目１２－４Ｎ＆ＥＢＬＤ．７階,,13,102,1040061,,,,,,,2024-07-23,1,,,,,アオボシ,0
2119,9010003044381,新規,0,2024-07-23,2024-07-23,Ｌｅ‐Ｖｅｌ　Ｂｒａｎｄｓ　Ｊａｐａｎ合同会社,,合同会社,東京都,千代田区,神田神保町１丁目４１番地神保町ＳＦ１,,13,101,1010051,,,,,,,2024-07-23,1,,,,,ルベルブランズジャパン,0
2133,9010401183962,新規,0,2024-07-23,2024-07-23,株式会社旭,,株式会社,東京都,港区,六本木４丁目８番７号六本木嶋田ビル７階,,13,103,1060032,,,,,,,2024-07-23,1,,,,,アサヒ,0
2134,9010401183987,新規,0,2024-07-23,2024-07-23,エンラブジャパン株式会社,,株式会社,東京都,港区,東麻布１丁目２３番５号ＰＭＣビル４Ｆ,,13,103,1060044,,,,,,,2024-07-23,1,,,,,エンラブジャパン,0
2135,9010403033075,新規,0,2024-07-23,2024-07-23,３ＭＷ合同会社,,合同会社,東京都,港区,赤坂２丁目２３番１号アークヒルズ・フロントタワーＩｎＣｏｎｔｒｏｌ内,,13,103,1070052,,,,,,,2024-07-23,1,,,,,スリーマインドウェーブ,0
2136,9010405023388,新規,0,2024-07-23,2024-07-23,一般社団法人オリーブ,,その他の設立登記法人,東京都,港区,赤坂６丁目１０番６－２１３号,,13,103,1070052,,,,,,,2024-07-23,1,,,,,オリーブ,0
2144,9010601065606,新規,0,2024-07-23,2024-07-23,＿未来株式会社,00135661,株式会社,東京都,江東区,大島２丁目２３番１５号,,13,108,1360072,,,,,,,2024-07-23,1,,,,,ヨクミライ,0
2145,9010603010972,新規,0,2024-07-23,2024-07-23,合同会社クリリアラルルー,,合同会社,東京都,江東区,豊洲５丁目１番１３―４４０５号,,13,108,1350061,,,,,,,2024-07-23,1,,,,,クリリアラルルー,0
2149,9010801035251,新規,0,2024-07-23,2024-07-23,勇輝株式会社,,株式会社,東京都,大田区,東雪谷１丁目１３番１５号,,13,111,1450065,,,,,,,2024-07-23,1,,,,,ユウキ,0
2157,9010901055678,新規,0,2024-07-23,2024-07-23,株式会社瑞白,,株式会社,東京都,世田谷区,成城３丁目１０番３４号,,13,112,1570066,,,,,,,2024-07-23,1,,,,,ズイハク,0
2165,9011201025644,新規,0,2024-07-23,2024-07-23,株式会社ミラ食堂,,株式会社,東京都,中野区,鷺宮４丁目１５番９号ソフィアバード１０５,,13,114,1650032,,,,,,,2024-07-23,1,,,,,ミラショクドウ,0
2170,9011703003899,新規,0,2024-07-23,2024-07-23,合同会社ｓｉｎｇｌｅ　ｌｉｎｅ,,合同会社,東京都,江戸川区,西一之江３丁目２９番３－１０１号,,13,123,1320023,,,,,,,2024-07-23,1,,,,,シングルライン,0
2172,9012701018369,新規,0,2024-07-23,2024-07-23,株式会社老舗ホールディングス,,株式会社,東京都,清瀬市,中里５丁目１８番地,,13,221,2040003,,,,,,,2024-07-23,1,,,,,シニセホールディングス,0
2174,9012801023343,新規,0,2024-07-23,2024-07-23,株式会社ＢＩＧ　ＦＩＥＬＤ,,株式会社,東京都,立川市,錦町１丁目７番１９号ｔｅｒｒａｃｅｓｅｖｅｎ７階,,13,202,1900022,,,,,,,2024-07-23,1,,,,,ビッグフィールド,0
2175,9012801023351,新規,0,2024-07-23,2024-07-23,株式会社Ｓｔｅｌｌａ,,株式会社,東京都,国分寺市,西元町３丁目１８番地７号,,13,214,1850023,,,,,,,2024-07-23,1,,,,,ステラ,0
2191,9021003014729,新規,0,2024-07-23,2024-07-23,合同会社空花,,合同会社,神奈川県,三浦市,三崎３丁目１２番９号,,14,210,2380243,,,,,,,2024-07-23,1,,,,,クウゲ,0
2203,9030001161524,新規,0,2024-07-23,2024-07-23,株式会社デジタルドリーム,,株式会社,埼玉県,さいたま市浦和区,岸町１丁目１１－７内田荘２０１,,11,107,3300064,,,,,,,2024-07-23,1,,,,,デジタルドリーム,0
2204,9030001161557,新規,0,2024-07-23,2024-07-23,株式会社１９ＡｕｔｏＤｅｓｉｇｎ,,株式会社,埼玉県,南埼玉郡宮代町,大字須賀１３０９番地３,,11,442,3450831,,,,,,,2024-07-23,1,,,,,イッキュウオートデザイン,0
2205,9030001161565,新規,0,2024-07-23,2024-07-23,株式会社小川物産,,株式会社,埼玉県,越谷市,大成町７丁目１６４４番地の１柳沼ビル大成町マンション１０２号室,,11,222,3430825,,,,,,,2024-07-23,1,,,,,オガワブッサン,0
2211,9030005021773,新規,0,2024-07-23,2024-07-23,特定非営利活動法人Ｔｒｙ,,その他の設立登記法人,埼玉県,本庄市,寿１丁目２２番９号,,11,211,3670023,,,,,,,2024-07-23,1,,,,,トライ,0
2213,9040001134652,新規,0,2024-07-23,2024-07-23,ＡＬＰＨＡ　ＣＯＮＳＵＬＴＩＮＧ株式会社,,株式会社,千葉県,千葉市中央区,新宿２丁目２－５藤ビル６階,,12,101,2600021,,,,,,,2024-07-23,1,,,,,アルファコンサルティング,0
2216,9040003025445,新規,0,2024-07-23,2024-07-23,Ｃｉｒｃｕｌｏｓ合同会社,,合同会社,千葉県,船橋市,栄町１丁目１９番３２号,,12,204,2730018,,,,,,,2024-07-23,1,,,,,シルクロス,0
2219,9050001055105,新規,0,2024-07-23,2024-07-23,株式会社ＤＲＡＷ　ＤＯＷＮ　ＩＮＶＥＳＴＭＥＮＴ,,株式会社,茨城県,東茨城郡城里町,大字塩子３４７３番地,,08,310,3114401,,,,,,,2024-07-23,1,,,,,ドローダウンインベストメント,0
2220,9050001055121,新規,0,2024-07-23,2024-07-23,株式会社３５８,,株式会社,茨城県,結城市,大字結城５７８番地,,08,207,3070001,,,,,,,2024-07-23,1,,,,,サンゴーハチ,0
2223,9050003008556,新規,0,2024-07-23,2024-07-23,Ｒａｎｄｉｌｕ　Ｉｎｔｅｒｎａｔｉｏｎａｌ合同会社,,合同会社,茨城県,小美玉市,先後３２２番１,,08,236,3190108,,,,,,,2024-07-23,1,,,,,ランディルインターナショナル,0
2226,9070003005510,新規,0,2024-07-23,2024-07-23,モデルカプラー合同会社,,合同会社,群馬県,安中市,松井田町入山７１５番地１,,10,211,3790305,,,,,,,2024-07-23,1,,,,,モデルカプラー,0
2229,9080001026391,新規,0,2024-07-23,2024-07-23,株式会社ＢＵ,,株式会社,静岡県,静岡市葵区,両替町２丁目６番地の３・１Ｆ,,22,101,4200032,,,,,,,2024-07-23,1,,,,,ビーユー,0
2242,9120001266933,新規,0,2024-07-23,2024-07-23,株式会社Ｇｏｏｄ　Ｌｕｃｋ,,株式会社,大阪府,大阪市北区,梅田１丁目２番２号大阪駅前第２ビル１２－１２,,27,127,5300001,,,,,,,2024-07-23,1,,,,,グッドラック,0
2243,9120001266974,新規,0,2024-07-23,2024-07-23,旭辰株式会社,,株式会社,大阪府,大阪市港区,市岡元町２丁目６番１１－３０６号室,,27,107,5520002,,,,,,,2024-07-23,1,,,,,キョクシン,0
2244,9120001266982,新規,0,2024-07-23,2024-07-23,株式会社ＦＯＲＣＥ　ＷＩＮ,,株式会社,大阪府,大阪市東淀川区,豊里７丁目２６番２－１０５号,,27,114,5330013,,,,,,,2024-07-23,1,,,,,フォースウィン,0
2245,9120001267023,新規,0,2024-07-23,2024-07-23,株式会社ＥＣＡ,,株式会社,大阪府,大阪市北区,梅田１丁目１番３号大阪駅前第３ビル２９階１－１－１号室,,27,127,5300001,,,,,,,2024-07-23,1,,,,,イーシーエー,0
2246,9120001267031,新規,0,2024-07-23,2024-07-23,株式会社Ｄ‐ＡＧＥ,,株式会社,大阪府,大阪市中央区,平野町１丁目４－１－７０１,,27,128,5410046,,,,,,,2024-07-23,1,,,,,ディーエイジ,0
2252,9120003027053,新規,0,2024-07-23,2024-07-23,ＤＡＩＤＯＤＯ合同会社,,合同会社,大阪府,大阪市中央区,上本町西３丁目３－２,,27,128,5420062,,,,,,,2024-07-23,1,,,,,ダイドド,0
2257,9120901049504,新規,0,2024-07-23,2024-07-23,株式会社和コーポレーション,,株式会社,大阪府,豊中市,南桜塚２丁目７番１号ユニハイム桜塚７１０号,00135660,27,203,5610882,,,,,,,2024-07-23,1,,,,,カズコーポレーション,0
2266,9130001077495,新規,0,2024-07-23,2024-07-23,株式会社サーラ,,株式会社,京都府,八幡市,八幡盛戸２３番地１７,,26,210,6148042,,,,,,,2024-07-23,1,,,,,サーラ,0
2267,9130001077512,新規,0,2024-07-23,2024-07-23,株式会社ＴＨＣグロース,,株式会社,京都府,京都市左京区,吉田河原町１番地６エーデルハイム鴨川４０１,,26,103,6068305,,,,,,,2024-07-23,1,,,,,ティエイチシーグロース,0
2269,9140001135203,新規,0,2024-07-23,2024-07-23,ラフィーネアセットマネジメント株式会社,,株式会社,兵庫県,西宮市,甲子園口北町１６－６－１０１,,28,204,6638112,,,,,,,2024-07-23,1,,,,,ラフィーネアセットマネジメント,0
2270,9140001135211,新規,0,2024-07-23,2024-07-23,株式会社ＲＥＶＥ．Ｒ,,株式会社,兵庫県,神戸市長田区,片山町１丁目２３番４号,,28,106,6530805,,,,,,,2024-07-23,1,,,,,レーブ,0
2281,9160005011324,新規,0,2024-07-23,2024-07-23,一般社団法人ｃｏ．ｓｈｉｇａ,,その他の設立登記法人,滋賀県,守山市,梅田町８５－７,,25,207,5240037,,,,,,,2024-07-23,1,,,,,コードットシガ,0
2297,9180301038861,新規,0,2024-07-23,2024-07-23,株式会社ＷＩＮホールディングス,,株式会社,愛知県,西尾市,花ノ木町１丁目２０番地７０２号,,23,213,4450852,,,,,,,2024-07-23,1,,,,,ウィンホールディングス,0
2300,9180305009594,新規,0,2024-07-23,2024-07-23,一般社団法人Ａｍｅｎｉｚｉｎｇ,,その他の設立登記法人,愛知県,豊田市,明和町４丁目２番地１４,,23,211,4710825,,,,,,,2024-07-23,1,,,,,アメニジング,0
2301,9190001031505,新規,0,2024-07-23,2024-07-23,華陽株式会社,,株式会社,三重県,鈴鹿市,桜島町７丁目１７番地の１６,,24,207,5130817,,,,,,,2024-07-23,1,,,,,カヨウ,0
2307,9200003006437,新規,0,2024-07-23,2024-07-23,ココロワデザイン合同会社,,合同会社,岐阜県,関市,市平賀６１０－１,,21,205,5013822,,,,,,,2024-07-23,1,,,,,ココロワデザイン,0
2308,9200005013646,新規,0,2024-07-23,2024-07-23,一般社団法人日本発泡スチロール建設資材工業会,,その他の設立登記法人,岐阜県,岐阜市,萱場東町３丁目２４番地２４－３０１号,,21,201,5020935,,,,,,,2024-07-23,1,,,,,ニホンハッポウスチロールケンセツシザイコウギョウカイ,0
2322,9260003004823,新規,0,2024-07-23,2024-07-23,合同会社やこす,,合同会社,岡山県,都窪郡早島町,早島４５２２番地９,,33,423,7010304,,,,,,,2024-07-23,1,,,,,,0
2328,9290003015594,新規,0,2024-07-23,2024-07-23,合同会社ライズ,,合同会社,福岡県,福岡市中央区,赤坂１丁目８番２３号,,40,133,8100042,,,,,,,2024-07-23,1,,,,,ライズ,0
2333,9300003002153,新規,0,2024-07-23,2024-07-23,合同会社木こり舎,,合同会社,佐賀県,杵島郡白石町,大字堤３０３５番地,,41,425,8491104,,,,,,,2024-07-23,1,,,,,キコリシャ,0
2338,9320003004429,新規,0,2024-07-23,2024-07-23,イソフラ・コーポレーション合同会社,,合同会社,大分県,大分市,東原３丁目３番１号スカイヒルズ明野５０１,,44,201,8700150,,,,,,,2024-07-23,1,,,,,イソフラコーポレーション,0
2339,9330001032249,新規,0,2024-07-23,2024-07-23,エタールス株式会社,,株式会社,熊本県,熊本市中央区,花畑町１番１４号Ａ＆ＭＨＡＮＡＢＡＴＡ３０１号,,43,101,8600806,,,,,,,2024-07-23,1,,,,,エタールス,0
2340,9330001032273,新規,0,2024-07-23,2024-07-23,株式会社小左衛門,,株式会社,熊本県,熊本市北区,楠１丁目１２番５８号,,43,105,8618003,,,,,,,2024-07-23,1,,,,,コザエモン,0
2349,9360003014168,新規,0,2024-07-23,2024-07-23,合同会社プレジャートレジャー,,合同会社,沖縄県,那覇市,宇栄原３丁目２１番６号,,47,201,9010153,,,,,,,2024-07-23,1,,,,,プレジャートレジャー,0
2356,9380001034678,新規,0,2024-07-23,2024-07-23,株式会社ＫＩＮＫＩ,,株式会社,福島県,伊達市,川原田１４番地６,,07,213,9600422,,,,,,,2024-07-23,1,,,,,キンキ,0
2358,9380005012853,新規,0,2024-07-23,2024-07-23,一般社団法人慶美会,,その他の設立登記法人,福島県,福島市,置賜町７番３号,,07,201,9608034,,,,,,,2024-07-23,1,,,,,ケイビカイ,0
2361,9410001013884,新規,0,2024-07-23,2024-07-23,株式会社山谷自動車工業,,株式会社,秋田県,雄勝郡東成瀬村,田子内字大塚８６番地１,,05,464,0190801,,,,,,,2024-07-23,1,,,,,ヤマヤジドウシャコウギョウ,0
2367,9430001092299,新規,0,2024-07-23,2024-07-23,株式会社クラフトリペア,,株式会社,北海道,札幌市北区,百合が原５丁目１番１６号,,01,102,0028081,,,,,,,2024-07-23,1,,,,,クラフトリペア,0
2368,9430001092308,新規,0,2024-07-23,2024-07-23,株式会社Ａ．Ｓ．Ａ,,株式会社,北海道,札幌市白石区,東米里２１９７番地６８,,01,104,0030876,,,,,,,2024-07-23,1,,,,,エードットエスドットエー,0
2372,9440005002781,新規,0,2024-07-23,2024-07-23,一般社団法人レイヴェールスポーツクラブ,,その他の設立登記法人,北海道,函館市,神山３丁目８番１６号,,01,202,0410832,,,,,,,2024-07-23,1,,,,,レイヴェールスポーツクラブ,0
2382,9700150126532,新規,0,2024-07-23,2024-07-23,ＳｈｅｎＺｈｅｎ　Ｊｕｓｏｎ　Ｔｅｃｈｎｏｌｏｇｙ　Ｃｏ．，　Ｌｉｍｉｔｅｄ,,外国会社等,,,,,,,,２０２０，Ｂｕｉｌｄｉｎｇ　１，Ｗａｎｘｉａｎｇ　Ｔｉａｎｃｈｅｎｇ，Ｎｏ．２　Ｓｈｅｎｇｌｏｎｇ　Ｒｏａｄ，Ｓｈｅｎｇｐｉｎｇ　Ｃｏｍｍｕｎｉｔｙ，Ｌｏｎｇｃｈｅｎｇ　Ｓｔｒｅｅｔ　Ｌｏｎｇｇａｎｇ　Ｓｈｅｎｚｈｅｎ　ＣＮ　５１８１１６,,,,,,2024-07-23,1,,,,,シンセンジュセンテクノロジーカンパニーリミテッド,0
