sequenceNumber,corporateNumber,process,correct,updateDate,changeDate,name,nameImageId,kind,prefectureName,cityName,streetNumber,addressImageId,prefectureCode,cityCode,postCode,addressOutside,addressOutsideImageId,closeDate,closeCause,successorCorporateNumber,changeCause,assignmentDate,latest,enName,enPrefectureName,enCityName,enAddressOutside,furigana,hihyoji
4,1010001178164,登記記録の閉鎖等,0,2024-02-14,2024-02-07,ケービックス東京株式会社,,株式会社,東京都,中央区,晴海１丁目８番１２号晴海アイランドトリトンスクエアオフィスタワーＺ（２２階）,,13,102,1040053,,,2024-02-07,合併による解散等,8180001043114,令和６年２月１日名古屋市中村区名駅四丁目２６番２２号ビー・マックス株式会社（8180001043114）に合併し解散,2016-09-08,1,,,,,ケービックストウキョウ,0
17,1010401157354,登記記録の閉鎖等,0,2024-02-14,2024-02-07,株式会社オルスマｐｒｏ,,株式会社,東京都,港区,芝大門２丁目３－９柘上ビル３階,,13,103,1050012,,,2024-02-07,清算の結了等,,,2021-01-04,1,,,,,オルスマプロ,0
37,1011001130593,登記記録の閉鎖等,0,2024-02-14,2024-01-15,ＯＭＯＴＥＮＡＳＨＩ株式会社,,株式会社,東京都,港区,北青山２丁目１４番４号,,13,103,1070061,,,2024-01-15,合併による解散等,1011001072266,令和６年１月１日東京都港区北青山二丁目１４番４号スターフェスティバル株式会社（1011001072266）に合併し解散,2019-10-30,1,,,,,オモテナシ,0
51,1011802009185,登記記録の閉鎖等,0,2024-02-14,2024-02-08,有限会社安藤商店,,有限会社,東京都,足立区,関原２丁目６番１７号,,13,121,1230852,,,2024-02-08,清算の結了等,,,2015-10-05,1,,,,,アンドウショウテン,0
60,1013405000876,登記記録の閉鎖等,0,2024-02-14,2024-02-06,一般社団法人星空宇宙天文検定協会,,その他の設立登記法人,東京都,多摩市,落合２丁目３２番地オーベルグランディオ多摩中央公園１８１９,,13,224,2060033,,,2024-02-06,清算の結了等,,,2015-10-05,1,,,,,ホシゾラウチュウテンモンケンテイキョウカイ,0
84,1040001004499,登記記録の閉鎖等,0,2024-02-14,2024-02-07,株式会社千代田企画,,株式会社,千葉県,千葉市中央区,亥鼻１丁目１番５号,,12,101,2600856,,,2024-02-07,清算の結了等,,,2015-10-05,1,,,,,チヨダキカク,0
91,1040002044420,登記記録の閉鎖等,0,2024-02-14,2024-02-06,有限会社岩下塗建,,有限会社,千葉県,松戸市,松飛台２４番地１１,,12,207,2702214,,,2024-02-06,清算の結了等,,,2015-10-05,1,,,,,イワシタトケン,0
109,1080402022154,登記記録の閉鎖等,0,2024-02-14,2024-02-13,有限会社フジエ,,有限会社,静岡県,周智郡森町,飯田３２８１番地の２４,,22,461,4370222,,,2024-02-13,清算の結了等,,,2015-10-05,1,,,,,,0
113,1110001032253,登記記録の閉鎖等,0,2024-02-14,2024-02-07,株式会社シーエスリレーションズ,,株式会社,新潟県,新潟市中央区,本町通３番町２０２番地２,,15,103,9518067,,,2024-02-07,清算の結了等,,,2017-03-22,1,,,,,シーエスリレーションズ,0
116,1120001206302,登記記録の閉鎖等,0,2024-02-14,2024-02-09,株式会社アップフェイズ,,株式会社,大阪府,大阪市西成区,潮路１丁目９番１９号久津和ビル南館,,27,122,5570052,,,2024-02-09,清算の結了等,,,2017-06-09,1,,,,,アップフェイズ,0
154,1180002071343,登記記録の閉鎖等,0,2024-02-14,2024-02-06,有限会社トモダ,,有限会社,愛知県,春日井市,御幸町２丁目３番地１０,,23,206,4860953,,,2024-02-06,清算の結了等,,,2015-10-05,1,,,,,トモダ,0
166,1210001019364,登記記録の閉鎖等,0,2024-02-14,2024-01-17,株式会社小澤眼鏡,,株式会社,福井県,鯖江市,神明町３丁目９番６号,,18,207,9160017,,,2024-01-17,清算の結了等,,,2023-07-05,1,,,,,オザワガンキョウ,0
169,1230001014041,登記記録の閉鎖等,0,2024-02-14,2024-02-09,株式会社日医工医業経営研究所,,株式会社,富山県,富山市,総曲輪１丁目６番２１,,16,201,9300083,,,2024-02-09,清算の結了等,,,2015-10-05,1,,,,,ニチイコウイギョウケイエイケンキュウジョ,0
188,1290801028672,登記記録の閉鎖等,0,2024-02-14,2024-02-01,ＳＰＥＥＤＫＥＮ株式会社,,株式会社,福岡県,北九州市小倉南区,田原新町１丁目１３番２号,,40,107,8000226,,,2024-02-01,合併による解散等,4290801006460,令和６年２月１日北九州市小倉南区田原新町一丁目１３番２号スピードネットワーク株式会社（4290801006460）に合併し解散,2022-06-29,1,,,,,スピードケン,0
215,1430001080567,登記記録の閉鎖等,0,2024-02-14,2024-02-05,株式会社ＥＺＯＴＥＣ,,株式会社,北海道,札幌市中央区,北四条西４丁目１番地伊藤・加藤ビル６階,,01,101,0600004,,,2024-02-05,合併による解散等,8430001008396,令和６年１月１９日札幌市中央区北四条西四丁目１番地株式会社鈴木商会（8430001008396）に合併し解散,2020-01-09,1,,,,,エゾテック,0
224,1490001010642,登記記録の閉鎖等,0,2024-02-14,2024-01-15,国際不動産株式会社,,株式会社,高知県,高知市,大川筋１丁目６番２８号,,39,201,7800052,,,2024-01-15,清算の結了等,,,2023-12-01,1,,,,,,0
226,1500001022405,登記記録の閉鎖等,0,2024-02-14,2024-02-13,株式会社四国コンスト,,株式会社,愛媛県,松山市,保免西３丁目９番２６号,,38,201,7900043,,,2024-02-13,清算の結了等,,,2019-12-05,1,,,,,シコクコンスト,0
264,2011001143108,登記記録の閉鎖等,0,2024-02-14,2024-02-09,株式会社ＣＯＮＮＥＣＴ,,株式会社,東京都,渋谷区,南平台町１６番２８号Ｄａｉｗａ渋谷スクエア６階,,13,113,1500036,,,2024-02-09,清算の結了等,,,2021-10-01,1,,,,,コネクト,0
279,2011701002851,登記記録の閉鎖等,0,2024-02-14,2024-02-07,コートー防災株式会社,,株式会社,東京都,江東区,深川２丁目２１番２号,,13,108,1350033,,,2024-02-07,清算の結了等,,,2015-10-05,1,,,,,コートーボウサイ,0
287,2012802004547,登記記録の閉鎖等,0,2024-02-14,2024-02-06,有限会社昭和プロパンガス,,有限会社,東京都,武蔵村山市,残堀４丁目１３９番地１,,13,223,2080034,,,2024-02-06,清算の結了等,,,2015-10-05,1,,,,,ショウワプロパンガス,0
309,2030001142423,登記記録の閉鎖等,0,2024-02-14,2024-02-08,安然株式会社,,株式会社,埼玉県,さいたま市北区,日進町２丁目１１２５－４９オークツリー・ハウス１０２号室,,11,102,3310823,,,2024-02-08,清算の結了等,,,2021-05-28,1,,,,,アンネン,0
316,2030002094242,登記記録の閉鎖等,0,2024-02-14,2024-01-11,有限会社マックス,,有限会社,埼玉県,入間郡毛呂山町,前久保南３丁目２２番地６,,11,326,3500463,,,2024-01-11,清算の結了等,,,2015-10-05,1,,,,,マックス,0
318,2030003013894,登記記録の閉鎖等,0,2024-02-14,2024-02-06,合同会社メイカムサービス,,合同会社,埼玉県,南埼玉郡宮代町,大字西粂原５２８番地８,,11,442,3450833,,,2024-02-06,清算の結了等,,,2019-08-02,1,,,,,メイカムサービス,0
333,2050001038033,登記記録の閉鎖等,0,2024-02-14,2024-02-08,株式会社フォーユー,,株式会社,茨城県,笠間市,鯉淵６２４１番地８０,,08,216,3091703,,,2024-02-08,清算の結了等,,,2015-10-05,1,,,,,フォーユー,0
334,2050001043594,登記記録の閉鎖等,0,2024-02-14,2024-02-07,株式会社キャピタルマリーナ,,株式会社,千葉県,野田市,小山３０８９番地,,12,208,2700231,,,2024-02-07,清算の結了等,,,2017-11-08,1,,,,,キャピタルマリーナ,0
342,2080401026725,登記記録の閉鎖等,0,2024-02-14,2024-02-09,株式会社掛川銀行,,株式会社,静岡県,掛川市,掛川４７６番地,,22,213,4360079,,,2024-02-09,清算の結了等,,,2023-09-19,1,,,,,カケガワギンコウ,0
363,2120002049880,登記記録の閉鎖等,0,2024-02-14,2024-02-07,有限会社ベネフィット,,有限会社,大阪府,大阪市北区,本庄東２丁目２番２８－７０１号,,27,127,5310074,,,2024-02-07,清算の結了等,,,2015-10-05,1,,,,,ベネフィット,0
380,2160001007984,登記記録の閉鎖等,0,2024-02-14,2024-02-09,株式会社Ｆ－ＷＯＯＤウェブファクトリー,,株式会社,滋賀県,長浜市,東主計町１３７番地,,25,203,5260226,,,2024-02-09,清算の結了等,,,2015-10-05,1,,,,,エフウッドウェブファクトリー,0
392,2180305009048,登記記録の閉鎖等,0,2024-02-14,2024-02-06,一般社団法人さんさんサポート,,その他の設立登記法人,愛知県,みよし市,三好町大坪２３番地久野ビル２Ｄ,,23,236,4700224,,,2024-02-06,清算の結了等,,,2020-04-15,1,,,,,サンサンサポート,0
398,2230002000650,登記記録の閉鎖等,0,2024-02-14,2024-02-13,有限会社オーエスサービス,,有限会社,富山県,富山市,太田２３２番地,,16,201,9398048,,,2024-02-13,清算の結了等,,,2015-10-05,1,,,,,オーエスサービス,0
400,2240001062245,登記記録の閉鎖等,0,2024-02-14,2024-01-09,サン・テキスタイル株式会社,,株式会社,広島県,福山市,卸町１２番１号,,34,207,7210954,,,2024-01-09,清算の結了等,,,2023-10-23,1,,,,,サンテキスタイル,0
402,2240002041834,登記記録の閉鎖等,0,2024-02-14,2024-02-06,有限会社手城不動産,,有限会社,広島県,福山市,南手城町１丁目２番３１号,,34,207,7210963,,,2024-02-06,清算の結了等,,,2015-10-05,1,,,,,テシロフドウサン,0
410,2280001006223,登記記録の閉鎖等,0,2024-02-14,2024-01-22,株式会社暉祥,,株式会社,島根県,松江市,鹿島町古浦９番地１,,32,201,6900333,,,2024-01-22,清算の結了等,,,2015-10-05,1,,,,,キショウ,0
433,2350002013574,登記記録の閉鎖等,0,2024-02-14,2024-02-07,有限会社朝日冷設,,有限会社,宮崎県,延岡市,土々呂町５丁目２８８７番地１,,45,203,8890513,,,2024-02-07,清算の結了等,,,2015-10-05,1,,,,,アサヒレイセツ,0
449,2430002064592,登記記録の閉鎖等,0,2024-02-14,2024-01-25,有限会社なか川商事,,有限会社,北海道,室蘭市,中央町１丁目１番１７号ギンヤデパート内,,01,205,0510011,,,2024-01-25,清算の結了等,,,2015-10-05,1,,,,,ナカガワショウジ,0
463,3010005010156,登記記録の閉鎖等,0,2024-02-14,2024-02-08,博英税理士法人,,その他の設立登記法人,東京都,中央区,銀座２丁目１１番１５号,,13,102,1040061,,,2024-02-08,清算の結了等,,,2015-10-05,1,,,,,ハクエイ,0
467,3010401126407,登記記録の閉鎖等,0,2024-02-14,2024-01-26,株式会社ソフトフロントＤｅｖｅｌｏｐｍｅｎｔ　Ｓｅｒｖｉｃｅ,,株式会社,東京都,港区,芝公園１丁目７番６号,,13,103,1050011,,,2024-01-26,清算の結了等,,,2016-08-09,1,,,,,ソフトフロントデベロップメントサービス,0
476,3010602021448,登記記録の閉鎖等,0,2024-02-14,2024-02-08,有限会社タテバヤシ,,有限会社,東京都,江東区,東陽２丁目３番６ー１２３号,,13,108,1350016,,,2024-02-08,清算の結了等,,,2015-10-05,1,,,,,タテバヤシ,0
504,3011601003783,登記記録の閉鎖等,0,2024-02-14,2024-02-02,大和ツーリスト株式会社,,株式会社,東京都,練馬区,土支田２丁目１６番６号,,13,120,1790076,,,2024-02-02,清算の結了等,,,2015-10-05,1,,,,,ダイワツーリスト,0
544,3040001056118,登記記録の閉鎖等,0,2024-02-14,2024-02-06,ユーテック株式会社,,株式会社,千葉県,市原市,ちはら台西３丁目７番地３,,12,219,2900143,,,2024-02-06,清算の結了等,,,2015-10-05,1,,,,,ユーテック,0
551,3040002020064,登記記録の閉鎖等,0,2024-02-14,2024-02-06,有限会社アイ・ディ・アイ,,有限会社,千葉県,船橋市,大穴北３丁目７番１２号,,12,204,2740068,,,2024-02-06,清算の結了等,,,2015-10-05,1,,,,,アイディアイ,0
553,3040002102291,登記記録の閉鎖等,0,2024-02-14,2024-02-06,有限会社スズキニット,,有限会社,千葉県,勝浦市,串浜１２９８番地の４８,,12,218,2995226,,,2024-02-06,清算の結了等,,,2015-10-05,1,,,,,スズキニット,0
568,3090002005523,登記記録の閉鎖等,0,2024-02-14,2024-02-13,有限会社光琳,,有限会社,山梨県,甲府市,元紺屋町１１２番地の２,,19,201,4000022,,,2024-02-13,清算の結了等,,,2015-10-05,1,,,,,コウリン,0
579,3120001184001,登記記録の閉鎖等,0,2024-02-14,2024-02-07,株式会社ファーストグローバル,,株式会社,大阪府,大阪市北区,梅田２丁目２番２号,,27,127,5300001,,,2024-02-07,清算の結了等,,,2015-10-05,1,,,,,,0
580,3120001190453,登記記録の閉鎖等,0,2024-02-14,2024-02-07,株式会社ＤＩ　Ｓｅｃｕｒｉｔｙ,,株式会社,大阪府,大阪市東淀川区,淡路３丁目２０番１６号,,27,114,5330032,,,2024-02-07,清算の結了等,,,2015-10-05,1,,,,,ディーアイセキュリティ,0
612,3180002014762,登記記録の閉鎖等,0,2024-02-14,2024-02-07,有限会社牧野電気,,有限会社,愛知県,名古屋市南区,西又兵ヱ町３丁目４６番地,,23,112,4570835,,,2024-02-07,清算の結了等,,,2015-10-05,1,,,,,マキノデンキ,0
673,3360003009181,登記記録の閉鎖等,0,2024-02-14,2024-02-08,合同会社Ｍａｇｎｅｔ,,合同会社,沖縄県,うるま市,安慶名３丁目２７番６号サニーマンション安慶名６０７,,47,213,9042214,,,2024-02-08,清算の結了等,,,2018-11-20,1,,,,,マグネット,0
688,3470002011284,登記記録の閉鎖等,0,2024-02-14,2024-02-09,有限会社麻谷設備,,有限会社,香川県,丸亀市,川西町北字土井ノ内５４１番地４,,37,202,7630091,,,2024-02-09,清算の結了等,,,2015-10-05,1,,,,,アサタニセツビ,0
705,4010003015825,登記記録の閉鎖等,0,2024-02-14,2024-02-07,合同会社ＧＧＢ,,合同会社,東京都,千代田区,丸の内３丁目１番１号東京共同会計事務所内,,13,101,1000005,,,2024-02-07,清算の結了等,,,2015-10-05,1,,,,,ジージービー,0
743,4011103009519,登記記録の閉鎖等,0,2024-02-14,2024-02-09,ラムノミクス合同会社,,合同会社,東京都,新宿区,新宿１丁目３６番２号第七葉山ビル３階,,13,104,1600022,,,2024-02-09,清算の結了等,,,2020-03-05,1,,,,,ラムノミクス,0
755,4011801036640,登記記録の閉鎖等,0,2024-02-14,2024-02-07,株式会社ＫＪＫ,,株式会社,熊本県,熊本市中央区,九品寺１丁目１番３号ラ・シック九品寺２０５,,43,101,8620976,,,2024-02-07,清算の結了等,,,2019-09-20,1,,,,,ケージェイケー,0
770,4021002044384,登記記録の閉鎖等,0,2024-02-14,2024-02-09,有限会社ゆう工房,,有限会社,神奈川県,座間市,相模が丘５丁目９番３４号,,14,216,2520001,,,2024-02-09,清算の結了等,,,2015-10-05,1,,,,,ユウコウボウ,0
790,4030002021624,登記記録の閉鎖等,0,2024-02-14,2024-02-07,有限会社日の出商事,,有限会社,埼玉県,さいたま市岩槻区,大字笹久保新田１１３３番地,,11,110,3390035,,,2024-02-07,清算の結了等,,,2015-10-05,1,,,,,ヒノデショウジ,0
797,4040001082674,登記記録の閉鎖等,0,2024-02-14,2024-02-07,株式会社ＫＤネクスト,,株式会社,千葉県,八千代市,大和田１００９－５ＫＩＤＡビル５０２号,,12,221,2760045,,,2024-02-07,清算の結了等,,,2015-10-05,1,,,,,ケーディーネクスト,0
803,4040002100724,登記記録の閉鎖等,0,2024-02-14,2024-02-09,有限会社大足袋屋,,有限会社,千葉県,鴨川市,前原１８４番地,,12,223,2960002,,,2024-02-09,清算の結了等,,,2015-10-05,1,,,,,オオタビヤ,0
805,4040003014056,登記記録の閉鎖等,0,2024-02-14,2024-02-06,合同会社ロングライフ,,合同会社,千葉県,八千代市,上高野１２３８番地６４,,12,221,2760022,,,2024-02-06,清算の結了等,,,2019-09-24,1,,,,,ロングライフ,0
817,4070002014129,登記記録の閉鎖等,0,2024-02-14,2024-02-09,有限会社佐藤米穀物産,,有限会社,群馬県,高崎市,箕郷町西明屋３２７番地,,10,202,3703105,,,2024-02-09,清算の結了等,,,2015-10-05,1,,,,,サトウベイコクブッサン,0
818,4070002029449,登記記録の閉鎖等,0,2024-02-14,2024-01-16,新栄商事有限会社,,有限会社,群馬県,太田市,下浜田町４７４番地６１,,10,205,3730821,,,2024-01-16,清算の結了等,,,2015-10-05,1,,,,,シンエイショウジ,0
819,4070003002553,登記記録の閉鎖等,0,2024-02-14,2024-02-08,合同会社エース,,合同会社,群馬県,佐波郡玉村町,大字上新田１０８２番地３,,10,464,3701133,,,2024-02-08,清算の結了等,,,2016-01-06,1,,,,,エース,0
824,4080103000902,登記記録の閉鎖等,0,2024-02-14,2024-02-09,合名会社アイダ,,合名会社,静岡県,熱海市,桃山町１５番１８号,,22,205,4130006,,,2024-02-09,清算の結了等,,,2015-10-05,1,,,,,アイダ,0
827,4080405004196,登記記録の閉鎖等,0,2024-02-14,2024-02-08,特定非営利活動法人浜松市障害者スポーツ協会,,その他の設立登記法人,静岡県,浜松市中央区,西浅田１丁目５番１５号アルコＩＩ１００７号,00133232,22,138,4328045,,,2024-02-08,清算の結了等,,,2015-10-05,1,,,,,ハママツシショウガイシャスポーツキョウカイ,0
842,4120102016333,登記記録の閉鎖等,0,2024-02-14,2024-02-13,有限会社戎総合開発,,有限会社,大阪府,松原市,天美北７丁目８番１３号,,27,217,5800031,,,2024-02-13,清算の結了等,,,2015-10-05,1,,,,,,0
867,4180001116419,登記記録の閉鎖等,0,2024-02-14,2024-02-06,株式会社ルアーナ,,株式会社,愛知県,春日井市,気噴町北２丁目１６番地,,23,206,4870015,,,2024-02-06,清算の結了等,,,2015-10-05,1,,,,,ルアーナ,0
888,4230002002901,登記記録の閉鎖等,0,2024-02-14,2024-02-13,有限会社弘企産業,,有限会社,富山県,富山市,新金代２丁目９７番地,,16,201,9300924,,,2024-02-13,清算の結了等,,,2015-10-05,1,,,,,ヒロキサンギョウ,0
893,4250002013665,登記記録の閉鎖等,0,2024-02-14,2024-02-07,有限会社自由館,,有限会社,山口県,萩市,大字下田万２８４９番地１,,35,204,7593112,,,2024-02-07,清算の結了等,,,2015-10-05,1,,,,,ジユウカン,0
906,4340005005790,登記記録の閉鎖等,0,2024-02-14,2024-02-08,医療法人崎山内科クリニック,00100339,その他の設立登記法人,鹿児島県,南さつま市,加世田唐仁原５３２３番地１,,46,220,8971121,,,2024-02-08,清算の結了等,,,2015-10-05,1,,,,,サキヤマナイカクリニック,0
907,4350001013086,登記記録の閉鎖等,0,2024-02-14,2024-01-31,株式会社ハナビヤ・ラボ,,株式会社,宮崎県,宮崎市,橘通東４丁目１８４番地,,45,201,8800805,,,2024-01-31,合併による解散等,3350001011388,令和６年１月３１日宮崎市橘通東五丁目２番２８号株式会社ハナビヤ（3350001011388）に合併し解散,2015-10-05,1,,,,,ハナビヤラボ,0
921,4430001039478,登記記録の閉鎖等,0,2024-02-14,2024-02-02,株式会社伊藤建物,,株式会社,北海道,札幌市豊平区,西岡四条６丁目１番１号,,01,105,0620034,,,2024-02-02,合併による解散等,6430001027902,令和６年２月１日札幌市豊平区西岡四条六丁目１番１号株式会社西岡ホーム（6430001027902）に合併し解散,2015-10-05,1,,,,,,0
924,4430002064310,登記記録の閉鎖等,0,2024-02-14,2024-02-07,有限会社嶋見重機,,有限会社,北海道,室蘭市,白鳥台４丁目２１番１８号,,01,205,0500054,,,2024-02-07,清算の結了等,,,2015-10-05,1,,,,,シマミジュウキ,0
926,4450001013282,登記記録の閉鎖等,0,2024-02-14,2024-02-13,株式会社旭川ＦＰ総合事務所,,株式会社,北海道,旭川市,神楽五条１０丁目１番１７号,,01,204,0708005,,,2024-02-13,清算の結了等,,,2021-04-02,1,,,,,アサヒカワエフピーソウゴウジムショ,0
940,5010001090927,登記記録の閉鎖等,0,2024-02-14,2024-02-09,セレナ・デベロップメンツ株式会社,,株式会社,東京都,千代田区,内神田１丁目４番２号,,13,101,1010047,,,2024-02-09,合併による解散等,5011701004671,令和６年２月１日東京都江戸川区西葛西三丁目１６番１２号大生プロパティーズ株式会社（5011701004671）に合併し解散,2015-10-05,1,,,,,セレナデベロップメンツ,0
948,5010003022333,登記記録の閉鎖等,0,2024-02-14,2024-02-07,合同会社ＯＫセラー,,合同会社,千葉県,千葉市花見川区,検見川町３丁目３２８番１５号プロルート丸光マンション３０５号室,,12,102,2620023,,,2024-02-07,清算の結了等,,,2015-10-05,1,,,,,オーケーセラー,0
956,5010401049168,登記記録の閉鎖等,0,2024-02-14,2024-02-06,株式会社ウイッチズ・コーポレーション,,株式会社,東京都,港区,南青山４丁目１８番８号,,13,103,1070062,,,2024-02-06,清算の結了等,,,2015-10-05,1,,,,,ウイッチズコーポレーション,0
964,5010403026693,登記記録の閉鎖等,0,2024-02-14,2024-02-07,合同会社百狐,,合同会社,東京都,港区,赤坂８丁目１１番１９号,,13,103,1070052,,,2024-02-07,清算の結了等,,,2021-12-15,1,,,,,ビャッコ,0
978,5010901053710,登記記録の閉鎖等,0,2024-02-14,2024-02-09,株式会社Ｖａｌｕａｂｌｅ　Ｓｅｒｖｉｃｅ,,株式会社,東京都,世田谷区,玉川３丁目１５－６フェリス玉川５０１,,13,112,1580094,,,2024-02-09,清算の結了等,,,2023-08-31,1,,,,,バリュアブルサービス,0
982,5011001063385,登記記録の閉鎖等,0,2024-02-14,2024-02-09,株式会社ＣＰＡパートナーズ,,株式会社,東京都,渋谷区,広尾４丁目１番２６－６０４号,,13,113,1500012,,,2024-02-09,清算の結了等,,,2015-10-05,1,,,,,シーピーエーパートナーズ,0
1042,5030002052726,登記記録の閉鎖等,0,2024-02-14,2024-02-02,有限会社ジャスト・フィット,,有限会社,埼玉県,草加市,苗塚町３２８番地３１,,11,221,3400036,,,2024-02-02,清算の結了等,,,2015-10-05,1,,,,,ジャストフィット,0
1053,5040002088554,登記記録の閉鎖等,0,2024-02-14,2024-02-08,有限会社アイエス測量設計事務所,,有限会社,千葉県,柏市,つくしが丘３丁目７番７号,,12,217,2770072,,,2024-02-08,清算の結了等,,,2015-10-05,1,,,,,アイエスソクリョウセッケイジムショ,0
1054,5040002097175,登記記録の閉鎖等,0,2024-02-14,2024-02-08,有限会社セイワ精工,,有限会社,千葉県,野田市,三ツ堀８２７番地,,12,208,2780011,,,2024-02-08,清算の結了等,,,2015-10-05,1,,,,,セイワセイコウ,0
1055,5040003014880,登記記録の閉鎖等,0,2024-02-14,2024-02-07,合同会社リアリズム,,合同会社,千葉県,八千代市,八千代台西８丁目１２番５－３１号八千代台西オーガスタ,,12,221,2760034,,,2024-02-07,清算の結了等,,,2020-02-18,1,,,,,リアリズム,0
1059,5050001005765,登記記録の閉鎖等,0,2024-02-14,2024-02-09,株式会社くの杢,,株式会社,茨城県,水戸市,見川町２５６３番地の６７４,,08,201,3100913,,,2024-02-09,清算の結了等,,,2015-10-05,1,,,,,クノモク,0
1061,5050002010260,登記記録の閉鎖等,0,2024-02-14,2024-02-09,有限会社大黒堂,,有限会社,茨城県,笠間市,下市毛３５８番地,,08,216,3091626,,,2024-02-09,清算の結了等,,,2015-10-05,1,,,,,ダイコクドウ,0
1063,5050003002538,登記記録の閉鎖等,0,2024-02-14,2024-02-07,合同会社龍成コーポレーション,,合同会社,茨城県,つくば市,上横場２４７番地３,,08,220,3050854,,,2024-02-07,清算の結了等,,,2015-10-05,1,,,,,リュウセイコーポレーション,0
1091,5120102018312,登記記録の閉鎖等,0,2024-02-14,2024-02-09,有限会社ブックス・イチダ,,有限会社,大阪府,羽曳野市,恵我之荘２丁目２番６号,,27,222,5830886,,,2024-02-09,清算の結了等,,,2015-10-05,1,,,,,ブックスイチダ,0
1094,5120901019188,登記記録の閉鎖等,0,2024-02-14,2024-02-13,株式会社川口青果,,株式会社,大阪府,茨木市,宮島１丁目１番１号,,27,211,5670853,,,2024-02-13,清算の結了等,,,2015-10-05,1,,,,,カワグチセイカ,0
1115,5180001061507,登記記録の閉鎖等,0,2024-02-14,2024-02-02,株式会社アドバンス,,株式会社,愛知県,名古屋市昭和区,川名町２丁目６５番地の７,,23,107,4660856,,,2024-02-02,清算の結了等,,,2015-10-05,1,,,,,アドバンス,0
1117,5180001072669,登記記録の閉鎖等,0,2024-02-14,2024-02-08,株式会社ブレイクスルー,,株式会社,埼玉県,川口市,飯塚２丁目２番１０号,,11,203,3320023,,,2024-02-08,清算の結了等,,,2015-10-05,1,,,,,ブレイクスルー,0
1125,5180002076280,登記記録の閉鎖等,0,2024-02-14,2024-02-07,有限会社建築いわき,,有限会社,愛知県,一宮市,時之島字八竜６番地２１,,23,203,4910002,,,2024-02-07,清算の結了等,,,2015-10-05,1,,,,,ケンチクイワキ,0
1127,5190001010834,登記記録の閉鎖等,0,2024-02-14,2024-02-08,神宮薬品株式会社,,株式会社,三重県,多気郡明和町,大字金剛坂７７３番地８,,24,442,5150324,,,2024-02-08,合併による解散等,1180001017009,令和６年２月１日名古屋市東区東片端町８番地株式会社スズケン（1180001017009）に合併し解散,2015-10-05,1,,,,,ジングウヤクヒン,0
1131,5200002025929,登記記録の閉鎖等,0,2024-02-14,2024-02-08,有限会社ホテル古都,,有限会社,岐阜県,高山市,花里町６丁目１１番地,,21,203,5060026,,,2024-02-08,合併による解散等,9360001005276,令和６年２月１日沖縄県糸満市字兼城４５３番地の１アール・ケイ・アミューズメント株式会社（9360001005276）に合併し解散,2015-10-05,1,,,,,ホテルコト,0
1137,5230001017949,登記記録の閉鎖等,0,2024-02-14,2024-02-09,ナイガイファーマ株式会社,,株式会社,富山県,富山市,総曲輪１丁目６番２１,,16,201,9300083,,,2024-02-09,清算の結了等,,,2019-08-01,1,,,,,ナイガイファーマ,0
1145,5270002011170,登記記録の閉鎖等,0,2024-02-14,2024-02-13,有限会社魚雅,,有限会社,鳥取県,東伯郡琴浦町,大字徳万４２５番地２,,31,371,6892303,,,2024-02-13,清算の結了等,,,2015-10-05,1,,,,,,0
1183,5430001036862,登記記録の閉鎖等,0,2024-02-14,2024-02-06,木谷電装株式会社,,株式会社,北海道,札幌市北区,新川三条１５丁目１０番２２号,,01,102,0010923,,,2024-02-06,清算の結了等,,,2015-10-05,1,,,,,キヤデンソウ,0
1208,6010103001491,登記記録の閉鎖等,0,2024-02-14,2024-02-13,マージナリア合同会社,,合同会社,東京都,八王子市,七国４丁目２０番１７号,,13,201,1920919,,,2024-02-13,清算の結了等,,,2020-01-16,1,,,,,マージナリア,0
1215,6010402036148,登記記録の閉鎖等,0,2024-02-14,2024-01-31,有限会社プラムクリークス,,有限会社,神奈川県,横浜市西区,平沼２丁目１４番１３－７０５号,,14,103,2200023,,,2024-01-31,清算の結了等,,,2015-10-05,1,,,,,プラムクリークス,0
1232,6011001123626,登記記録の閉鎖等,0,2024-02-14,2024-02-08,株式会社ＥｙＬ,,株式会社,東京都,品川区,北品川１丁目９番７号トップルーム品川１０１５号室,,13,109,1400001,,,2024-02-08,合併による解散等,2010701037932,令和６年２月１日福岡市中央区天神二丁目１１－１福岡ＰＡＲＣＯ新館５Ｆ株式会社ＭｉｒａＡｒｃ（2010701037932）に合併し解散,2018-08-07,1,,,,,イール,0
1250,6011302008039,登記記録の閉鎖等,0,2024-02-14,2024-02-06,有限会社フローラル,,有限会社,東京都,杉並区,浜田山４丁目２７番４号,,13,115,1680065,,,2024-02-06,清算の結了等,,,2015-10-05,1,,,,,,0
1256,6011703000809,登記記録の閉鎖等,0,2024-02-14,2024-02-08,合同会社アヴァンセ,,合同会社,東京都,江戸川区,東小岩３丁目７番１８号,,13,123,1330052,,,2024-02-08,清算の結了等,,,2015-10-05,1,,,,,アヴァンセ,0
1257,6011801033958,登記記録の閉鎖等,0,2024-02-14,2024-02-07,株式会社ＳＨ,,株式会社,東京都,葛飾区,金町３丁目３４番１０－５０２号,,13,122,1250042,,,2024-02-07,清算の結了等,,,2017-10-11,1,,,,,エスエイチ,0
1279,6021002072144,登記記録の閉鎖等,0,2024-02-14,2024-02-09,有限会社三和重機,,有限会社,神奈川県,三浦市,初声町下宮田４９番地２６,,14,210,2380111,,,2024-02-09,清算の結了等,,,2015-10-05,1,,,,,サンワジュウキ,0
1334,6120001121967,登記記録の閉鎖等,0,2024-02-14,2024-02-07,株式会社エグゼ,,株式会社,大阪府,大阪市北区,西天満６丁目６番４号タブチビルディング５Ｆ,,27,127,5300047,,,2024-02-07,清算の結了等,,,2015-10-05,1,,,,,エグゼ,0
1346,6120901008768,登記記録の閉鎖等,0,2024-02-14,2024-02-09,株式会社ラースポーツ,,株式会社,大阪府,吹田市,江坂町４丁目１０番１号,,27,205,5640063,,,2024-02-09,清算の結了等,,,2015-10-05,1,,,,,ラースポーツ,0
1349,6120902022553,登記記録の閉鎖等,0,2024-02-14,2024-02-13,有限会社メディカルライフ,,有限会社,大阪府,大阪市中央区,南久宝寺町４丁目４番１３号,,27,128,5410058,,,2024-02-13,清算の結了等,,,2015-10-05,1,,,,,メディカルライフ,0
1350,6122002012352,登記記録の閉鎖等,0,2024-02-14,2024-02-09,有限会社オフィスマキ大阪,,有限会社,大阪府,四條畷市,西中野３丁目２番１８号,,27,229,5750055,,,2024-02-09,清算の結了等,,,2015-10-05,1,,,,,オフィスマキオオサカ,0
1380,6200002019434,登記記録の閉鎖等,0,2024-02-14,2024-02-09,有限会社ピーエヌプラスイーシステムズ,,有限会社,岐阜県,美濃市,極楽寺５４１番地８,,21,207,5013763,,,2024-02-09,清算の結了等,,,2015-10-05,1,,,,,ピーエヌプラスイーシステムズ,0
1386,6240003003334,登記記録の閉鎖等,0,2024-02-14,2024-02-07,合同会社ＡＬ企画,,合同会社,広島県,呉市,西中央２丁目２番１２号,,34,202,7370811,,,2024-02-07,清算の結了等,,,2016-07-26,1,,,,,エイエルキカク,0
1388,6250002015478,登記記録の閉鎖等,0,2024-02-14,2024-02-01,有限会社吉原ビル,,有限会社,山口県,周南市,大字徳山６６７６番地の１,,35,215,7450851,,,2024-02-01,合併による解散等,2250001008775,令和６年２月１日山口県周南市大字徳山６６７６番地の１株式会社ギャラリー三匹の猫（2250001008775）に合併し解散,2015-10-05,1,,,,,ヨシハラビル,0
1389,6250003002467,登記記録の閉鎖等,0,2024-02-14,2024-02-06,合同会社ＷＥＳＴ　ＤＥＳＩＧＮ,,合同会社,山口県,岩国市,黒磯町２丁目２５番５号,,35,208,7400041,,,2024-02-06,清算の結了等,,,2019-07-02,1,,,,,ウエストデザイン,0
1396,6300001003619,登記記録の閉鎖等,0,2024-02-14,2024-02-09,ホンダセントラル佐賀販売株式会社,,株式会社,佐賀県,多久市,多久町２４９９番地,,41,204,8460031,,,2024-02-09,清算の結了等,,,2015-10-05,1,,,,,ホンダセントラルサガハンバイ,0
1413,6380002009632,登記記録の閉鎖等,0,2024-02-14,2024-02-08,有限会社桜商会,,有限会社,福島県,郡山市,富久山町久保田字田池２２番地１５,,07,203,9638071,,,2024-02-08,清算の結了等,,,2015-10-05,1,,,,,サクラショウカイ,0
1422,6420002017267,登記記録の閉鎖等,0,2024-02-14,2024-01-15,有限会社えびすや,,有限会社,青森県,十和田市,大字奥瀬字十和田湖畔休屋４８６番地,,02,206,0185501,,,2024-01-15,清算の結了等,,,2015-10-05,1,,,,,エビスヤ,0
1429,6430002044863,登記記録の閉鎖等,0,2024-02-14,2024-02-07,有限会社前建設,,有限会社,北海道,北広島市,大曲光４丁目１０番地７,,01,234,0611277,,,2024-02-07,清算の結了等,,,2015-10-05,1,,,,,マエケンセツ,0
1440,7010001092616,登記記録の閉鎖等,0,2024-02-14,2024-02-08,株式会社オランネット,,株式会社,東京都,千代田区,六番町１番地,,13,101,1020085,,,2024-02-08,清算の結了等,,,2015-10-05,1,,,,,オランネット,0
1443,7010001115814,登記記録の閉鎖等,0,2024-02-14,2024-02-09,フリントグループジャパン株式会社,,株式会社,東京都,千代田区,紀尾井町３－２８アドミラル紀尾井町ビル１階,,13,101,1020094,,,2024-02-09,清算の結了等,,,2015-10-05,1,,,,,フリントグループジャパン,0
1528,7013301007763,登記記録の閉鎖等,0,2024-02-14,2024-02-01,テクノ・サイエンスシステム株式会社,,株式会社,東京都,豊島区,東池袋３丁目２３番１４号,,13,116,1700013,,,2024-02-01,合併による解散等,2013301007768,令和６年２月１日東京都豊島区東池袋三丁目２３番１４号テクノ・ソフトウエアサービス株式会社（2013301007768）に合併し解散,2015-10-05,1,,,,,テクノサイエンスシステム,0
1551,7030002029177,登記記録の閉鎖等,0,2024-02-14,2024-02-07,有限会社肥沼工業所,,有限会社,埼玉県,所沢市,大字久米５１３番地,,11,208,3591131,,,2024-02-07,清算の結了等,,,2015-10-05,1,,,,,コイヌマコウギョウショ,0
1555,7040001051214,登記記録の閉鎖等,0,2024-02-14,2024-02-08,株式会社三鈴商事,,株式会社,千葉県,袖ケ浦市,上宮田２２番地２,,12,229,2990222,,,2024-02-08,清算の結了等,,,2015-10-05,1,,,,,ミスズショウジ,0
1557,7040001113006,登記記録の閉鎖等,0,2024-02-14,2024-02-07,株式会社ｇｌｏｂｅ,,株式会社,千葉県,松戸市,本町１７番地の１１芹澤ビル６Ｆ,,12,207,2710091,,,2024-02-07,清算の結了等,,,2020-03-25,1,,,,,グローブ,0
1561,7050001017701,登記記録の閉鎖等,0,2024-02-14,2024-02-01,株式会社根本リバランス,,株式会社,茨城県,稲敷市,古渡８２１番地２,,08,229,3000638,,,2024-02-01,清算の結了等,,,2015-10-05,1,,,,,ネモトリバランス,0
1574,7100001011855,登記記録の閉鎖等,0,2024-02-14,2024-02-07,株式会社ダイヤグラス,,株式会社,長野県,飯山市,大字旭字須田２５７番５,,20,213,3892251,,,2024-02-07,清算の結了等,,,2015-10-05,1,,,,,ダイヤグラス,0
1577,7120001112445,登記記録の閉鎖等,0,2024-02-14,2024-01-18,株式会社大手前住宅,,株式会社,大阪府,大阪市中央区,大手前１丁目３番５９号,,27,128,5400008,,,2024-01-18,清算の結了等,,,2023-11-01,1,,,,,,0
1580,7120001212063,登記記録の閉鎖等,0,2024-02-14,2024-02-07,株式会社喜多乃家,,株式会社,大阪府,門真市,四宮５丁目７番８号,,27,223,5710017,,,2024-02-07,合併による解散等,6120001214390,令和６年１月３１日大阪府門真市四宮五丁目７番８号株式会社キタノクレア（6120001214390）に合併し解散,2018-03-19,1,,,,,キタノヤ,0
1582,7120001246920,登記記録の閉鎖等,0,2024-02-14,2024-02-13,Ｅｖｅｒ　Ｒｉｖｅｒ株式会社,,株式会社,大阪府,大阪市中央区,北久宝寺町２丁目６番１０－２０３号室,,27,128,5410057,,,2024-02-13,清算の結了等,,,2022-06-24,1,,,,,エバーリバー,0
1616,7140002041518,登記記録の閉鎖等,0,2024-02-14,2024-02-06,有限会社ダイヤコールド大阪,,有限会社,兵庫県,尼崎市,若王寺３丁目３０番２１号,,28,202,6610974,,,2024-02-06,清算の結了等,,,2015-10-05,1,,,,,ダイヤコールドオオサカ,0
1620,7150001023598,登記記録の閉鎖等,0,2024-02-14,2024-02-09,サンヨウ建設株式会社,,株式会社,奈良県,生駒市,北田原町２１４８番地,,29,209,6300142,,,2024-02-09,清算の結了等,,,2020-03-10,1,,,,,サンヨウケンセツ,0
1641,7250001017870,登記記録の閉鎖等,0,2024-02-14,2024-02-13,株式会社インテリア工房内山,,株式会社,山口県,山口市,小郡大正町１番３号,,35,203,7540044,,,2024-02-13,清算の結了等,,,2019-09-03,1,,,,,,0
1657,7300001006884,登記記録の閉鎖等,0,2024-02-14,2024-02-08,廃油リサイクル株式会社,,株式会社,佐賀県,鳥栖市,東町１丁目１０６３番地,,41,203,8410035,,,2024-02-08,清算の結了等,,,2015-10-05,1,,,,,ハイユリサイクル,0
1683,7420002003646,登記記録の閉鎖等,0,2024-02-14,2024-02-13,有限会社青森ハウス商会,,有限会社,青森県,青森市,大字野尻字野田３８番地４,,02,201,0300122,,,2024-02-13,清算の結了等,,,2015-10-05,1,,,,,アオモリハウスショウカイ,0
1685,7430001010733,登記記録の閉鎖等,0,2024-02-14,2024-02-08,株式会社ディーシービー,,株式会社,北海道,札幌市中央区,南五条西２０丁目１番３２,,01,101,0640805,,,2024-02-08,清算の結了等,,,2015-10-05,1,,,,,ディーシービー,0
1704,8010001192324,登記記録の閉鎖等,0,2024-02-14,2024-02-05,Ｃ５ＳＰ株式会社,,株式会社,東京都,千代田区,神田駿河台４丁目３番地,,13,101,1010062,,,2024-02-05,合併による解散等,4010001098525,令和６年２月１日東京都千代田区神田駿河台四丁目３番地カルチュア・エクスペリエンス株式会社（4010001098525）に合併し解散,2018-06-05,1,,,,,シーファイブエスピー,0
1734,8010902015327,登記記録の閉鎖等,0,2024-02-14,2024-02-08,有限会社モナロマ,,有限会社,東京都,世田谷区,太子堂３丁目３０番３号,,13,112,1540004,,,2024-02-08,清算の結了等,,,2015-10-05,1,,,,,モナロマ,0
1760,8011101102395,登記記録の閉鎖等,0,2024-02-14,2024-02-05,株式会社ココナラエージェント,,株式会社,東京都,渋谷区,桜丘町１２番１０号,,13,113,1500031,,,2024-02-05,合併による解散等,9010701026061,令和６年２月１日東京都渋谷区桜丘町２０番１号株式会社ココナラ（9010701026061）に合併し解散,2023-04-07,1,,,,,ココナラエージェント,0
1765,8011301023284,登記記録の閉鎖等,0,2024-02-14,2024-02-13,株式会社ファイブカラー,,株式会社,東京都,新宿区,下落合４丁目５番２号コージーテラス・サイトウ２０１,,13,104,1610033,,,2024-02-13,清算の結了等,,,2017-06-22,1,,,,,ファイブカラー,0
1788,8020001078423,登記記録の閉鎖等,0,2024-02-14,2024-01-12,株式会社パシフイック・コースト・インダストリー,,株式会社,神奈川県,川崎市川崎区,大島５丁目１５番５－５０４号,,14,131,2100834,,,2024-01-12,清算の結了等,,,2015-10-05,1,,,,,パシフイックコーストインダストリー,0
1789,8020001109418,登記記録の閉鎖等,0,2024-02-14,2024-02-09,株式会社青朗,,株式会社,神奈川県,川崎市中原区,新丸子東１丁目８２６番地１,,14,133,2110004,,,2024-02-09,清算の結了等,,,2015-10-05,1,,,,,,0
1796,8020002057153,登記記録の閉鎖等,0,2024-02-14,2024-02-08,有限会社グローバルフュージョン,,有限会社,神奈川県,横浜市金沢区,能見台通８番２号,,14,108,2360053,,,2024-02-08,清算の結了等,,,2015-10-05,1,,,,,グローバルフュージョン,0
1812,8040001063019,登記記録の閉鎖等,0,2024-02-14,2024-02-08,株式会社ＳＴコーポレーション,,株式会社,東京都,豊島区,南池袋２丁目２７番２号,,13,116,1710022,,,2024-02-08,合併による解散等,2010001012074,令和６年２月１日東京都文京区西片一丁目１５番１５号株式会社トモズ（2010001012074）に合併し解散,2015-10-05,1,,,,,エスティーコーポレーション,0
1823,8040002091233,登記記録の閉鎖等,0,2024-02-14,2024-02-08,有限会社原田電機商会,,有限会社,千葉県,柏市,ひばりが丘５番１２号,,12,217,2770088,,,2024-02-08,清算の結了等,,,2015-10-05,1,,,,,,0
1833,8070001002130,登記記録の閉鎖等,0,2024-02-14,2024-02-08,株式会社角田時計店,,株式会社,群馬県,前橋市,千代田町２丁目９番１号,,10,201,3710022,,,2024-02-08,清算の結了等,,,2015-10-05,1,,,,,ツノダトケイテン,0
1843,8110002026487,登記記録の閉鎖等,0,2024-02-14,2024-02-08,有限会社陸川道路施設,,有限会社,新潟県,糸魚川市,大字能生７１３９番地１,,15,216,9491352,,,2024-02-08,清算の結了等,,,2015-10-05,1,,,,,リクカワドウロシセツ,0
1844,8120001048754,登記記録の閉鎖等,0,2024-02-14,2024-02-09,株式会社日本ニーズ,,株式会社,大阪府,大阪市西区,江戸堀１丁目２０番１１号,,27,106,5500002,,,2024-02-09,清算の結了等,,,2015-10-05,1,,,,,ニホンニーズ,0
1850,8120001214422,登記記録の閉鎖等,0,2024-02-14,2024-02-08,株式会社ミナト総合企画,,株式会社,大阪府,大阪市大正区,南恩加島２丁目１０番２１号,,27,108,5510021,,,2024-02-08,清算の結了等,,,2018-07-04,1,,,,,ミナトソウゴウキカク,0
1855,8120002067984,登記記録の閉鎖等,0,2024-02-14,2024-02-07,有限会社アイ・エム・エス,,有限会社,大阪府,大阪市阿倍野区,松崎町２丁目１０番２２号,,27,119,5450053,,,2024-02-07,清算の結了等,,,2015-10-05,1,,,,,アイエムエス,0
1878,8150001007682,登記記録の閉鎖等,0,2024-02-14,2024-02-09,株式会社ソワン,,株式会社,奈良県,生駒市,小瀬町７２０番地７０,,29,209,6300223,,,2024-02-09,清算の結了等,,,2015-10-05,1,,,,,ソワン,0
1879,8150001010653,登記記録の閉鎖等,0,2024-02-14,2024-02-09,株式会社竹本材木店,,株式会社,奈良県,橿原市,南八木町１丁目７番２５号,,29,205,6340077,,,2024-02-09,清算の結了等,,,2015-10-05,1,,,,,タケモトザイモクテン,0
1889,8180001132684,登記記録の閉鎖等,0,2024-02-14,2024-02-07,合同会社ワイズワン大分萩原,,合同会社,愛知県,名古屋市中区,栄２丁目３番１号名古屋広小路ビルヂング１７階,,23,106,4600008,,,2024-02-07,清算の結了等,,,2018-06-15,1,,,,,ワイズワンオオイタハギワラ,0
1910,8240001046622,登記記録の閉鎖等,0,2024-02-14,2024-02-07,株式会社関西ビルサービス,,株式会社,広島県,広島市南区,東雲本町１丁目９番１９号,,34,103,7340023,,,2024-02-07,清算の結了等,,,2015-10-05,1,,,,,カンサイビルサービス,0
1913,8240002040715,登記記録の閉鎖等,0,2024-02-14,2024-02-08,サカモトデンキ有限会社,,有限会社,広島県,福山市,日吉台３丁目１０番９号,,34,207,7210972,,,2024-02-08,清算の結了等,,,2015-10-05,1,,,,,サカモトデンキ,0
1927,8290802017032,登記記録の閉鎖等,0,2024-02-14,2024-02-09,有限会社伸誠,,有限会社,福岡県,遠賀郡水巻町,頃末北２丁目８番１６号,,40,382,8070022,,,2024-02-09,清算の結了等,,,2015-10-05,1,,,,,,0
1932,8320003003266,登記記録の閉鎖等,0,2024-02-14,2024-02-06,合同会社ＳＯＷＡＫＡ,,合同会社,大分県,中津市,大字上宮永６４番地１,,44,203,8710027,,,2024-02-06,清算の結了等,,,2020-06-15,1,,,,,ソワカ,0
1948,8370802001408,登記記録の閉鎖等,0,2024-02-14,2024-02-13,有限会社宮昇工作所,,有限会社,宮城県,亘理郡亘理町,逢隈中泉字本木８番地の１,00082221,04,361,9892301,,,2024-02-13,清算の結了等,,,2015-10-05,1,,,,,ミヤショウコウサクショ,0
1952,8390005006987,登記記録の閉鎖等,0,2024-02-14,2024-02-13,寺泉生産森林組合,,その他の設立登記法人,山形県,長井市,寺泉９５７番地,,06,209,9930061,,,2024-02-13,清算の結了等,,,2015-10-05,1,,,,,テライズミセイサン,0
1966,9010001033543,登記記録の閉鎖等,0,2024-02-14,2024-02-06,ノリット・ジャパン株式会社,,株式会社,千葉県,市原市,姉崎海岸９５番地,,12,219,2990107,,,2024-02-06,清算の結了等,,,2015-10-05,1,,,,,ノリットジャパン,0
1974,9010001224745,登記記録の閉鎖等,0,2024-02-14,2024-02-09,株式会社中島コンサルタント,,株式会社,東京都,中央区,月島２丁目１０番１－２７０９号,,13,102,1040052,,,2024-02-09,清算の結了等,,,2022-02-28,1,,,,,ナカジマコンサルタント,0
2005,9011003002544,登記記録の閉鎖等,0,2024-02-14,2024-02-08,合同会社ＶＴＦＡアグード,,合同会社,東京都,渋谷区,代官山町２０番９号,,13,113,1500034,,,2024-02-08,清算の結了等,,,2015-10-05,1,,,,,ヴイティーエフエーアグード,0
2025,9011702000162,登記記録の閉鎖等,0,2024-02-14,2024-02-07,有限会社アエパ,,有限会社,東京都,江戸川区,篠崎町１丁目４２番６号,,13,123,1330061,,,2024-02-07,清算の結了等,,,2015-10-05,1,,,,,アエパ,0
2056,9021001027897,登記記録の閉鎖等,0,2024-02-14,2024-02-08,株式会社イーセクター,,株式会社,神奈川県,座間市,東原５丁目１番１１号,,14,216,2520004,,,2024-02-08,合併による解散等,3021001047372,令和６年２月１日神奈川県座間市東原五丁目１番１１号株式会社シーイーシーカスタマサービス（3021001047372）に合併し解散,2015-10-05,1,,,,,イーセクター,0
2088,9040001063868,登記記録の閉鎖等,0,2024-02-14,2024-02-06,株式会社マルエス,,株式会社,千葉県,香取市,小見川１２６８－１１,,12,236,2890313,,,2024-02-06,清算の結了等,,,2015-10-05,1,,,,,マルエス,0
2094,9040002042441,登記記録の閉鎖等,0,2024-02-14,2024-02-09,有限会社タティアン,,有限会社,千葉県,浦安市,美浜５丁目１番４１４号,,12,227,2790011,,,2024-02-09,清算の結了等,,,2015-10-05,1,,,,,タティアン,0
2110,9100001029730,登記記録の閉鎖等,0,2024-02-14,2024-02-06,３．１４株式会社,,株式会社,長野県,上田市,常田３丁目１５番１号信州大学繊維学部内ＡＲＥＣ,,20,203,3860018,,,2024-02-06,合併による解散等,6010001177459,令和６年２月１日東京都中央区銀座六丁目６番１号トラスティ・パートナーズ株式会社（6010001177459）に合併し解散,2016-10-27,1,,,,,サンテンイチヨン,0
2117,9120001161804,登記記録の閉鎖等,0,2024-02-14,2024-02-07,株式会社シューギャラリー,,株式会社,大阪府,大阪市浪速区,日本橋５丁目１０－５,,27,111,5560005,,,2024-02-07,清算の結了等,,,2015-10-05,1,,,,,シューギャラリー,0
2132,9120902000382,登記記録の閉鎖等,0,2024-02-14,2024-02-13,有限会社大武工芸社,,有限会社,大阪府,茨木市,上中条１丁目５番３号,,27,211,5670881,,,2024-02-13,清算の結了等,,,2015-10-05,1,,,,,ダイブコウゲイシャ,0
2135,9130001044280,登記記録の閉鎖等,0,2024-02-14,2024-02-05,株式会社エイチツークリエイション,,株式会社,京都府,京都市山科区,西野山桜ノ馬場町４９－４,,26,110,6078308,,,2024-02-05,清算の結了等,,,2015-10-05,1,,,,,エイチツークリエイション,0
2144,9140002035154,登記記録の閉鎖等,0,2024-02-14,2024-01-19,有限会社シェ・ポワ,,有限会社,兵庫県,丹波篠山市,今田町黒石４４番地,,28,221,6692162,,,2024-01-19,清算の結了等,,,2015-10-05,1,,,,,シェポワ,0
2151,9180001088034,登記記録の閉鎖等,0,2024-02-14,2024-02-05,株式会社ホワイトベアー,,株式会社,愛知県,江南市,飛高町栄３５番地の３,,23,217,4838339,,,2024-02-05,清算の結了等,,,2015-10-05,1,,,,,ホワイトベアー,0
2156,9180003002430,登記記録の閉鎖等,0,2024-02-14,2024-02-07,合資会社萬佐商店,,合資会社,愛知県,名古屋市東区,徳川２丁目２１番１６号,,23,102,4610025,,,2024-02-07,清算の結了等,,,2015-10-05,1,,,,,マンサショウテン,0
2161,9190001021068,登記記録の閉鎖等,0,2024-02-14,2024-02-08,株式会社ナチュラル鈴鹿,,株式会社,三重県,鈴鹿市,河田町２２８番地２,,24,207,5130023,,,2024-02-08,清算の結了等,,,2015-10-05,1,,,,,ナチュラルスズカ,0
2164,9200002027599,登記記録の閉鎖等,0,2024-02-14,2024-02-09,有限会社岡本屋板金,,有限会社,岐阜県,下呂市,金山町田島２４５１番地５,,21,220,5091615,,,2024-02-09,清算の結了等,,,2015-10-05,1,,,,,オカモトヤバンキン,0
2177,9270005000200,登記記録の閉鎖等,0,2024-02-14,2024-02-09,鳥取県運動用具商協同組合,,その他の設立登記法人,鳥取県,倉吉市,上井２１３番地,,31,203,6820021,,,2024-02-09,清算の結了等,,,2015-10-05,1,,,,,トットリケンウンドウヨウグショウ,0
2182,9290801010210,登記記録の閉鎖等,0,2024-02-14,2024-02-13,泰広株式会社,,株式会社,福岡県,北九州市八幡西区,永犬丸２丁目１０番１６号,,40,109,8070851,,,2024-02-13,清算の結了等,,,2015-10-05,1,,,,,タイコウ,0
2189,9330001021276,登記記録の閉鎖等,0,2024-02-14,2024-02-06,株式会社ＵＭＴ,,株式会社,熊本県,熊本市中央区,城東町２番６号,,43,101,8600846,,,2024-02-06,清算の結了等,,,2015-10-05,1,,,,,ユーエムティー,0
2199,9370302002293,登記記録の閉鎖等,0,2024-02-14,2024-02-08,有限会社マルタカ商事,,有限会社,宮城県,石巻市,桃生町中津山字八木１７３番地の２,,04,202,9860313,,,2024-02-08,清算の結了等,,,2015-10-05,1,,,,,マルタカショウジ,0
2200,9380001014184,登記記録の閉鎖等,0,2024-02-14,2024-01-17,株式会社ティーエスシー,,株式会社,福島県,いわき市,平上荒川字長尾７４番地の８,,07,204,9708034,,,2024-01-17,清算の結了等,,,2023-11-07,1,,,,,ティーエスシー,0
2202,9410001000809,登記記録の閉鎖等,0,2024-02-14,2024-02-05,株式会社岡崎,,株式会社,秋田県,秋田市,楢山登町４番２９号,,05,201,0100021,,,2024-02-05,清算の結了等,,,2015-10-05,1,,,,,オカザキ,0
2204,9420002010054,登記記録の閉鎖等,0,2024-02-14,2024-02-08,有限会社稲垣タクシー,,有限会社,青森県,三戸郡田子町,大字田子字田子６４番地１７号,,02,443,0390201,,,2024-02-08,清算の結了等,,,2015-10-05,1,,,,,イナガキタクシー,0
2224,9480002003845,登記記録の閉鎖等,0,2024-02-14,2024-02-13,福洋海運有限会社,,有限会社,徳島県,徳島市,津田町３丁目５番５５号,,36,201,7708002,,,2024-02-13,清算の結了等,,,2015-10-05,1,,,,,フクヨウカイウン,0
2225,9480002005338,登記記録の閉鎖等,0,2024-02-14,2024-02-13,有限会社吉井建設,,有限会社,徳島県,徳島市,応神町吉成字轟６７番地１１,,36,201,7711153,,,2024-02-13,清算の結了等,,,2015-10-05,1,,,,,ヨシイケンセツ,0
