sequenceNumber,corporateNumber,process,correct,updateDate,changeDate,name,nameImageId,kind,prefectureName,cityName,streetNumber,addressImageId,prefectureCode,cityCode,postCode,addressOutside,addressOutsideImageId,closeDate,closeCause,successorCorporateNumber,changeCause,assignmentDate,latest,enName,enPrefectureName,enCityName,enAddressOutside,furigana,hihyoji
12,1010001215165,登記記録の閉鎖等,0,2025-04-18,2025-04-02,エムキャップ八号株式会社,,株式会社,東京都,千代田区,丸の内２丁目７番２号,,13,101,1000005,,,2025-04-02,清算の結了等,,,2021-01-15,1,,,,,エムキャップハチゴウ,0
21,1010101004542,登記記録の閉鎖等,0,2025-04-18,2025-04-14,株式会社栄鋳造所,,株式会社,東京都,八王子市,下恩方町３５０番地,,13,201,1920154,,,2025-04-14,清算の結了等,,,2015-10-05,1,,,,,,0
29,1010401162791,登記記録の閉鎖等,0,2025-04-18,2025-04-16,ＭＯＶＥ株式会社,,株式会社,東京都,墨田区,向島２丁目２２－６ダイアパレス隅田公園１０３,,13,107,1310033,,,2025-04-16,合併による解散等,2011001163907,令和７年４月１日東京都渋谷区道玄坂一丁目１２番１号渋谷マークシティウエスト２０階株式会社ＷｉｎＣ（2011001163907）に合併し解散,2021-09-22,1,,,,,ムーブ,0
34,1010405015533,登記記録の閉鎖等,0,2025-04-18,2025-03-31,一般社団法人Ｐｕｒｐｌｅ,,その他の設立登記法人,東京都,港区,虎ノ門５丁目１番４号,,13,103,1050001,,,2025-03-31,清算の結了等,,,2017-02-27,1,,,,,パープル,0
36,1010602018883,登記記録の閉鎖等,0,2025-04-18,2025-04-04,有限会社千葉製本所,,有限会社,東京都,墨田区,本所３丁目６番１２号,,13,107,1300004,,,2025-04-04,清算の結了等,,,2015-10-05,1,,,,,チバセイホンショ,0
45,1010802002778,登記記録の閉鎖等,0,2025-04-18,2025-04-04,有限会社オオタエンジニアリング,,有限会社,東京都,大田区,蒲田１丁目６番１８－１１８号,,13,111,1440052,,,2025-04-04,清算の結了等,,,2015-10-05,1,,,,,オオタエンジニアリング,0
111,1020002086126,登記記録の閉鎖等,0,2025-04-18,2025-04-09,有限会社尾島建設,,有限会社,神奈川県,川崎市宮前区,東有馬２丁目３３番２２号,,14,136,2160002,,,2025-04-09,清算の結了等,,,2015-10-05,1,,,,,オジマケンセツ,0
112,1021001064378,登記記録の閉鎖等,0,2025-04-18,2025-04-09,株式会社三の丸ビル管理,,株式会社,神奈川県,小田原市,本町１丁目７番２０号,,14,206,2500012,,,2025-04-09,清算の結了等,,,2018-03-23,1,,,,,サンノマルビルカンリ,0
126,1030002074880,登記記録の閉鎖等,0,2025-04-18,2025-04-10,有限会社藤田特殊ミシン商会,,有限会社,埼玉県,川越市,脇田新町１９番地１５,,11,201,3501121,,,2025-04-10,清算の結了等,,,2015-10-05,1,,,,,フジタトクシュミシンショウカイ,0
189,1130001071183,登記記録の閉鎖等,0,2025-04-18,2025-04-14,栄正恒株式会社,,株式会社,京都府,京都市東山区,本町６丁目１４コーポセブン４０２号室,,26,105,6050981,,,2025-04-14,清算の結了等,,,2022-02-21,1,,,,,エイセイコウ,0
211,1180301006941,登記記録の閉鎖等,0,2025-04-18,2025-04-17,フジキ産業株式会社,,株式会社,愛知県,豊橋市,三ノ輪町字本興寺６番地の１,,23,201,4400837,,,2025-04-17,清算の結了等,,,2015-10-05,1,,,,,フジキサンギョウ,0
218,1200001016585,登記記録の閉鎖等,0,2025-04-18,2025-04-09,株式会社スリーユー,,株式会社,岐阜県,大垣市,島里１丁目１番地３,,21,202,5030935,,,2025-04-09,清算の結了等,,,2015-10-05,1,,,,,スリーユー,0
233,1240002037206,登記記録の閉鎖等,0,2025-04-18,2025-04-11,有限会社輝防水工業,,有限会社,広島県,廿日市市,桜尾３丁目６番４号,,34,213,7380004,,,2025-04-11,清算の結了等,,,2015-10-05,1,,,,,ヒカルボウスイコウギョウ,0
242,1260002003404,登記記録の閉鎖等,0,2025-04-18,2025-04-14,有限会社栗原不動産研究所,,有限会社,岡山県,岡山市北区,三手４４７番地６,,33,101,7011353,,,2025-04-14,清算の結了等,,,2015-10-05,1,,,,,クリハラフドウサンケンキュウショ,0
251,1300001011279,登記記録の閉鎖等,0,2025-04-18,2025-04-09,株式会社リリーフ,,株式会社,長崎県,佐世保市,藤原町１８番２０号,,42,202,8570832,,,2025-04-09,清算の結了等,,,2018-05-09,1,,,,,リリーフ,0
252,1310001005172,登記記録の閉鎖等,0,2025-04-18,2025-04-14,永代ハウス株式会社,,株式会社,長崎県,佐世保市,松浦町４番１７号,,42,202,8570052,,,2025-04-14,合併による解散等,5290001016425,令和７年４月１日福岡市博多区博多駅南五丁目１５番９号株式会社オーリック建設（5290001016425）に合併し解散,2015-10-05,1,,,,,エイダイハウス,0
293,2010001171176,登記記録の閉鎖等,0,2025-04-18,2025-04-03,株式会社マリナデルレイ,,株式会社,東京都,中央区,銀座８丁目４番２号,,13,102,1040061,,,2025-04-03,清算の結了等,,,2015-10-23,1,,,,,マリナデルレイ,0
301,2010002006307,登記記録の閉鎖等,0,2025-04-18,2025-04-01,有限会社ユーティー商事,,有限会社,東京都,文京区,本郷３丁目１３番１０号,,13,105,1130033,,,2025-04-01,合併による解散等,9010001063953,令和７年４月１日東京都千代田区有楽町一丁目２番２号サンフロンティア不動産株式会社（9010001063953）に合併し解散,2015-10-05,1,,,,,ユーティーショウジ,0
305,2010102004334,登記記録の閉鎖等,0,2025-04-18,2025-04-15,有限会社田所商店,,有限会社,東京都,八王子市,大横町５番６号,,13,201,1920062,,,2025-04-15,清算の結了等,,,2015-10-05,1,,,,,タドコロショウテン,0
306,2010401089357,登記記録の閉鎖等,0,2025-04-18,2025-04-03,株式会社マチルダ,,株式会社,東京都,千代田区,一番町１０番地８,,13,101,1020082,,,2025-04-03,清算の結了等,,,2015-10-05,1,,,,,マチルダ,0
319,2010903004433,登記記録の閉鎖等,0,2025-04-18,2025-04-15,エイチ・アイ・グループ合同会社,,合同会社,東京都,世田谷区,北沢２丁目６番８号,,13,112,1550031,,,2025-04-15,清算の結了等,,,2018-07-25,1,,,,,エイチアイグループ,0
329,2011003014810,登記記録の閉鎖等,0,2025-04-18,2025-03-24,合同会社Ｄｉｏｎｏａ,,合同会社,東京都,渋谷区,恵比寿南２丁目２４－９恵比寿南ヒルズ２０３,,13,113,1500022,,,2025-03-24,清算の結了等,,,2022-06-07,1,,,,,ディオノア,0
341,2011601002811,登記記録の閉鎖等,0,2025-04-18,2025-04-04,三立鋼建株式会社,,株式会社,東京都,練馬区,北町８丁目８番１６号,,13,120,1790081,,,2025-04-04,清算の結了等,,,2015-10-05,1,,,,,サンリツコウケン,0
345,2012401039498,登記記録の閉鎖等,0,2025-04-18,2025-04-14,株式会社一路,,株式会社,東京都,武蔵野市,吉祥寺本町２丁目８番４号ｉ－ｏｆｆｉｃｅ吉祥寺,,13,203,1800004,,,2025-04-14,合併による解散等,3010401049764,令和７年４月１日東京都港区赤坂六丁目６番２９号株式会社いとう屋（3010401049764）に合併し解散,2022-08-04,1,,,,,イチロ,0
353,2013303006545,登記記録の閉鎖等,0,2025-04-18,2025-04-02,合同会社Ｆｒｅｅ,,合同会社,東京都,豊島区,南大塚１丁目６０番２０号天翔大塚駅前ビル７０８号室,,13,116,1700005,,,2025-04-02,清算の結了等,,,2023-03-23,1,,,,,フリー,0
356,2020001072225,登記記録の閉鎖等,0,2025-04-18,2025-04-09,株式会社小田木型製作所,,株式会社,神奈川県,川崎市川崎区,浅野町１番１１号,,14,131,2100854,,,2025-04-09,清算の結了等,,,2015-10-05,1,,,,,オダキガタセイサクジョ,0
369,2030001090614,登記記録の閉鎖等,0,2025-04-18,2025-04-15,株式会社ＡＤｍｅｎｔ,,株式会社,埼玉県,飯能市,新町２２番５号,,11,209,3570004,,,2025-04-15,清算の結了等,,,2015-10-05,1,,,,,アドメント,0
380,2030002078914,登記記録の閉鎖等,0,2025-04-18,2025-04-15,有限会社オオタケ,,有限会社,埼玉県,川越市,大字久下戸３３０１番地１,,11,201,3500011,,,2025-04-15,清算の結了等,,,2015-10-05,1,,,,,オオタケ,0
385,2040001098227,登記記録の閉鎖等,0,2025-04-18,2025-04-02,株式会社オーロラジャパン,,株式会社,千葉県,千葉市若葉区,高根町９１５番地６５,,12,104,2650061,,,2025-04-02,清算の結了等,,,2016-12-28,1,,,,,オーロラジャパン,0
401,2050003002755,登記記録の閉鎖等,0,2025-04-18,2025-04-07,合同会社つくばエコーコアラボ,,合同会社,茨城県,つくば市,東新井１６番地２,,08,220,3050033,,,2025-04-07,清算の結了等,,,2015-10-05,1,,,,,ツクバエコーコアラボ,0
403,2060005009640,登記記録の閉鎖等,0,2025-04-18,2025-03-18,特定非営利活動法人栃木県吹奏楽団,,その他の設立登記法人,栃木県,宇都宮市,陽東４丁目１５番１０号,,09,201,3210904,,,2025-03-18,清算の結了等,,,2019-07-29,1,,,,,トチギケンスイソウガクダン,0
415,2100002034926,登記記録の閉鎖等,0,2025-04-18,2025-04-08,有限会社西川設計,,有限会社,長野県,上伊那郡箕輪町,大字中箕輪１５８７６番地１,,20,383,3994601,,,2025-04-08,清算の結了等,,,2015-10-05,1,,,,,ニシカワセッケイ,0
420,2120001034116,登記記録の閉鎖等,0,2025-04-18,2025-04-16,株式会社アオノ,,株式会社,大阪府,大阪市福島区,福島６丁目１１番１３－２０６号,,27,103,5530003,,,2025-04-16,清算の結了等,,,2015-10-05,1,,,,,アオノ,0
441,2120102001923,登記記録の閉鎖等,0,2025-04-18,2025-04-11,椢原商事有限会社,,有限会社,大阪府,堺市西区,浜寺石津町西１丁１番９号,,27,144,5928333,,,2025-04-11,清算の結了等,,,2015-10-05,1,,,,,クニハラショウジ,0
442,2120901016477,登記記録の閉鎖等,0,2025-04-18,2025-04-09,株式会社エムティーサービス,,株式会社,大阪府,摂津市,鳥飼西４丁目２６番７号,,27,224,5660072,,,2025-04-09,清算の結了等,,,2015-10-05,1,,,,,エムティーサービス,0
453,2130003006665,登記記録の閉鎖等,0,2025-04-18,2025-04-02,合同会社サクラマス商店,,合同会社,東京都,中央区,日本橋室町３丁目４番４号,,13,102,1030022,,,2025-04-02,清算の結了等,,,2020-07-21,1,,,,,サクラマスショウテン,0
476,2180003015918,登記記録の閉鎖等,0,2025-04-18,2025-03-31,合同会社ＫＮＴアセットマネージメント,,合同会社,東京都,港区,赤坂４丁目２－２５－３０３,,13,103,1070052,,,2025-03-31,清算の結了等,,,2015-10-05,1,,,,,ケイエヌティアセットマネージメント,0
502,2240002036826,登記記録の閉鎖等,0,2025-04-18,2025-04-14,有限会社パルハウジング,,有限会社,広島県,廿日市市,宮内１０３１番地,,34,213,7380034,,,2025-04-14,清算の結了等,,,2015-10-05,1,,,,,パルハウジング,0
506,2270002006388,登記記録の閉鎖等,0,2025-04-18,2025-04-15,有限会社タムラ,,有限会社,鳥取県,境港市,三軒屋町４４５９番地,,31,204,6840064,,,2025-04-15,清算の結了等,,,2015-10-05,1,,,,,タムラ,0
515,2350002016040,登記記録の閉鎖等,0,2025-04-18,2025-04-08,有限会社森下金物店,,有限会社,宮崎県,都城市,高城町高城２８３６番地,,45,202,8851201,,,2025-04-08,清算の結了等,,,2015-10-05,1,,,,,モリシタカナモノテン,0
522,2370001008400,登記記録の閉鎖等,0,2025-04-18,2025-04-07,株式会社新東設備工業,,株式会社,宮城県,仙台市青葉区,台原３丁目１１番８号,,04,101,9810911,,,2025-04-07,清算の結了等,,,2015-10-05,1,,,,,シントウセツビコウギョウ,0
527,2380001020668,登記記録の閉鎖等,0,2025-04-18,2025-04-02,株式会社とさわ,,株式会社,福島県,田村市,船引町船引字臂曲４０番地,,07,211,9634312,,,2025-04-02,清算の結了等,,,2015-10-05,1,,,,,トサワ,0
530,2400002006639,登記記録の閉鎖等,0,2025-04-18,2025-04-11,有限会社サトミ工業,,有限会社,岩手県,岩手郡雫石町,西根上葛根田５６番地４,,03,301,0200584,,,2025-04-11,清算の結了等,,,2015-10-05,1,,,,,サトミコウギョウ,0
531,2410001000369,登記記録の閉鎖等,0,2025-04-18,2025-04-09,秋田スバル自動車株式会社,,株式会社,秋田県,秋田市,寺内字三千刈３１５番地の１,,05,201,0110901,,,2025-04-09,合併による解散等,3370001006543,令和７年４月１日仙台市宮城野区日の出町一丁目５番２６号スバル東北株式会社（3370001006543）に合併し解散,2015-10-05,1,,,,,アキタスバルジドウシャ,0
533,2430001063918,登記記録の閉鎖等,0,2025-04-18,2025-04-08,株式会社工建,,株式会社,北海道,札幌市北区,篠路三条３丁目１番４号吹田ビルＢ－１０５号,,01,102,0028023,,,2025-04-08,清算の結了等,,,2015-10-05,1,,,,,コウケン,0
541,2430002015570,登記記録の閉鎖等,0,2025-04-18,2025-04-07,有限会社ハイホー,,有限会社,北海道,札幌市北区,北二十六条西５丁目２番１号,,01,102,0010026,,,2025-04-07,清算の結了等,,,2015-10-05,1,,,,,ハイホー,0
550,2470001002673,登記記録の閉鎖等,0,2025-04-18,2025-04-10,株式会社高橋水道,,株式会社,香川県,高松市,飯田町１２０９番地４,,37,201,7618033,,,2025-04-10,清算の結了等,,,2015-10-05,1,,,,,タカハシスイドウ,0
552,2470002011319,登記記録の閉鎖等,0,2025-04-18,2025-04-11,有限会社池田不動産,,有限会社,香川県,丸亀市,西平山町２６３番地の２,,37,202,7630041,,,2025-04-11,清算の結了等,,,2015-10-05,1,,,,,イケダフドウサン,0
570,3010005022614,登記記録の閉鎖等,0,2025-04-18,2025-04-11,弁護士法人山田勝一郎法律事務所,,その他の設立登記法人,東京都,中央区,築地７丁目１１番１１号,,13,102,1040045,,,2025-04-11,清算の結了等,,,2015-10-05,1,,,,,ヤマダショウイチロウホウリツジムショ,0
611,3011301008199,登記記録の閉鎖等,0,2025-04-18,2025-04-04,株式会社西荻コンタクトレンズセンター,,株式会社,東京都,杉並区,西荻北３丁目２３番１４号,,13,115,1670042,,,2025-04-04,清算の結了等,,,2015-10-05,1,,,,,ニシオギコンタクトレンズセンター,0
620,3011802014596,登記記録の閉鎖等,0,2025-04-18,2025-04-15,有限会社精工樹脂化工所,,有限会社,東京都,足立区,青井１丁目５番１８号,,13,121,1200012,,,2025-04-15,清算の結了等,,,2015-10-05,1,,,,,セイコウジュシカコウショ,0
626,3012803001534,登記記録の閉鎖等,0,2025-04-18,2025-04-02,グリーンエネルギーパートナー合同会社,,合同会社,東京都,立川市,曙町３丁目２６番９号－２０８号,00108666,13,202,1900012,,,2025-04-02,清算の結了等,,,2016-12-09,1,,,,,,0
627,3013202005663,登記記録の閉鎖等,0,2025-04-18,2025-03-21,有限会社古谷硝子店,,有限会社,東京都,目黒区,祐天寺２丁目１７番７号,,13,110,1530052,,,2025-03-21,清算の結了等,,,2015-10-05,1,,,,,フルヤガラステン,0
637,3020002010661,登記記録の閉鎖等,0,2025-04-18,2025-04-09,有限会社堀金商店,,有限会社,神奈川県,横浜市磯子区,岡村５丁目１４番２３号,,14,107,2350021,,,2025-04-09,清算の結了等,,,2015-10-05,1,,,,,ホリガネショウテン,0
648,3021005008395,登記記録の閉鎖等,0,2025-04-18,2025-04-09,特定非営利活動法人コアラ横須賀,,その他の設立登記法人,神奈川県,横須賀市,湘南鷹取１丁目２番１０号,,14,201,2370066,,,2025-04-09,清算の結了等,,,2015-10-05,1,,,,,コアラヨコスカ,0
669,3050002031300,登記記録の閉鎖等,0,2025-04-18,2025-04-01,有限会社広瀬工務店,,有限会社,茨城県,日立市,城南町１丁目１０番１６号,,08,202,3170077,,,2025-04-01,合併による解散等,1050002031161,令和７年４月１日茨城県日立市城南町一丁目１０番１６号沼田クリーン株式会社（1050002031161）に合併し解散,2015-10-05,1,,,,,ヒロセコウムテン,0
673,3060002012506,登記記録の閉鎖等,0,2025-04-18,2025-04-09,有限会社遠藤鉄工,,有限会社,栃木県,さくら市,きぬの里３丁目１４番地１,,09,214,3291317,,,2025-04-09,清算の結了等,,,2015-10-05,1,,,,,エンドウテッコウ,0
679,3070002001210,登記記録の閉鎖等,0,2025-04-18,2025-04-11,有限会社小野関畳店,,有限会社,群馬県,前橋市,元総社町８４０番地の３,,10,201,3710846,,,2025-04-11,清算の結了等,,,2015-10-05,1,,,,,オノゼキタタミテン,0
680,3070002011688,登記記録の閉鎖等,0,2025-04-18,2025-04-11,有限会社久実工機,,有限会社,群馬県,高崎市,正観寺町５７６番地,,10,202,3700008,,,2025-04-11,清算の結了等,,,2015-10-05,1,,,,,クミコウキ,0
688,3100001026659,登記記録の閉鎖等,0,2025-04-18,2025-04-11,アクアアンドエアー長野株式会社,,株式会社,長野県,長野市,大字南堀３０番地５,,20,201,3810016,,,2025-04-11,清算の結了等,,,2015-10-05,1,,,,,アクアアンドエアーナガノ,0
716,3130001030534,登記記録の閉鎖等,0,2025-04-18,2025-04-15,洛菱テクニカ株式会社,,株式会社,京都府,長岡京市,馬場図所１番地,,26,209,6170828,,,2025-04-15,合併による解散等,2170001003685,令和７年４月１日和歌山市手平六丁目５番６６号三菱電機冷熱応用システム株式会社（2170001003685）に合併し解散,2015-10-05,1,,,,,ラクリョウテクニカ,0
721,3140001036217,登記記録の閉鎖等,0,2025-04-18,2025-04-10,株式会社近畿中央交通,,株式会社,兵庫県,三木市,別所町東這田７２１番地の２０１,,28,215,6730444,,,2025-04-10,清算の結了等,,,2015-10-05,1,,,,,キンキチュウオウコウツウ,0
732,3160002008205,登記記録の閉鎖等,0,2025-04-18,2025-04-14,有限会社滋賀典礼社,,有限会社,滋賀県,彦根市,高宮町９６番地１,,25,202,5220201,,,2025-04-14,清算の結了等,,,2015-10-05,1,,,,,シガテンレイシャ,0
736,3180001119967,登記記録の閉鎖等,0,2025-04-18,2025-04-03,株式会社Ｇホールディングス,,株式会社,愛知県,名古屋市千種区,上野２丁目１４番４号,,23,101,4640082,,,2025-04-03,合併による解散等,9180001005856,令和７年４月３日名古屋市千種区上野二丁目１４番４号株式会社柳風水野商店（9180001005856）に合併し解散,2015-10-05,1,,,,,ジーホールディングス,0
740,3180002075796,登記記録の閉鎖等,0,2025-04-18,2025-04-07,有限会社イオンほんだ,,有限会社,愛知県,一宮市,新生２丁目１９番１０号,,23,203,4910912,,,2025-04-07,清算の結了等,,,2015-10-05,1,,,,,イオンホンダ,0
742,3180003007476,登記記録の閉鎖等,0,2025-04-18,2025-04-08,數寄屋殖産合名会社,,合名会社,愛知県,名古屋市西区,浄心２丁目１４番１号,,23,104,4510061,,,2025-04-08,清算の結了等,,,2015-10-05,1,,,,,スキヤショクサン,0
750,3180302000297,登記記録の閉鎖等,0,2025-04-18,2025-04-08,アイ・チューン有限会社,,有限会社,北海道,札幌市中央区,南一条西１６丁目１番地３２３春野ビル３階,,01,101,0600061,,,2025-04-08,清算の結了等,,,2015-10-05,1,,,,,アイチューン,0
752,3180302020485,登記記録の閉鎖等,0,2025-04-18,2025-04-11,有限会社嶋製作所,,有限会社,愛知県,高浜市,豊田町１丁目８番地２０,,23,227,4441304,,,2025-04-11,清算の結了等,,,2015-10-05,1,,,,,シマセイサクショ,0
755,3200001004927,登記記録の閉鎖等,0,2025-04-18,2025-04-14,株式会社マルコ,,株式会社,岐阜県,岐阜市,鏡島１６６９番地の４,,21,201,5010111,,,2025-04-14,清算の結了等,,,2015-10-05,1,,,,,マルコ,0
760,3230001003372,登記記録の閉鎖等,0,2025-04-18,2025-04-14,株式会社山田木材,,株式会社,富山県,富山市,上飯野１５番地,,16,201,9300827,,,2025-04-14,合併による解散等,5010601031594,令和７年４月１日東京都江東区新木場一丁目７番２２号ジャパン建材株式会社（5010601031594）に合併し解散,2015-10-05,1,,,,,ヤマダモクザイ,0
761,3230001013264,登記記録の閉鎖等,0,2025-04-18,2025-04-15,株式会社北陸プロ人材,,株式会社,富山県,射水市,善光寺２９番２０号,,16,211,9340005,,,2025-04-15,清算の結了等,,,2015-10-05,1,,,,,ホクリクプロジンザイ,0
771,3240005010562,登記記録の閉鎖等,0,2025-04-18,2025-04-16,特定非営利活動法人かいじ,,その他の設立登記法人,広島県,三次市,江田川之内町６４４番地８,,34,209,7296215,,,2025-04-16,清算の結了等,,,2015-10-05,1,,,,,カイジ,0
779,3290001064236,登記記録の閉鎖等,0,2025-04-18,2025-04-11,株式会社ホームスターク,,株式会社,福岡県,福岡市西区,姪浜駅南１丁目７番２２号,,40,135,8190006,,,2025-04-11,合併による解散等,8330001016616,令和７年４月１日熊本市中央区水前寺二丁目１６番１１号株式会社ホームステージ（8330001016616）に合併し解散,2015-10-05,1,,,,,,0
784,3290003006525,登記記録の閉鎖等,0,2025-04-18,2025-03-31,合同会社ジェイ企画,,合同会社,福岡県,大牟田市,小浜町９０番地,,40,202,8360034,,,2025-03-31,清算の結了等,,,2016-06-14,1,,,,,ジェイキカク,0
787,3320001002010,登記記録の閉鎖等,0,2025-04-18,2025-04-10,株式会社永冨調剤薬局,,株式会社,大分県,大分市,下郡北１丁目４番４５号,,44,201,8700952,,,2025-04-10,合併による解散等,3290001036375,令和７年４月１日福岡県糟屋郡新宮町緑ケ浜四丁目１７番２２号株式会社なの花九州（3290001036375）に合併し解散,2015-10-05,1,,,,,ナガトミチョウザイヤッキョク,0
801,3370001043405,登記記録の閉鎖等,0,2025-04-18,2025-04-14,株式会社ビルワークキャピタル,,株式会社,宮城県,仙台市太白区,富沢西４丁目９番地の９,,04,104,9820037,,,2025-04-14,合併による解散等,4370001050409,令和７年４月１日宮城県仙台市太白区富沢西四丁目９番地の９株式会社Ｎプラス（4370001050409）に合併し解散,2018-08-14,1,,,,,ビルワークキャピタル,0
827,3460101004149,登記記録の閉鎖等,0,2025-04-18,2025-04-01,三協ロジスティクス株式会社,,株式会社,北海道,河西郡芽室町,東芽室北１線１８番地,,01,637,0820004,,,2025-04-01,合併による解散等,3460101000602,令和７年４月１日北海道河西郡芽室町東芽室北一線１８番地三協物流荷役株式会社（3460101000602）に合併し解散,2015-10-05,1,,,,,サンキョウロジスティクス,0
843,4010005032141,登記記録の閉鎖等,0,2025-04-18,2025-04-11,一般社団法人ヒラフ,,その他の設立登記法人,東京都,千代田区,霞が関３丁目２番５号,,13,101,1000013,,,2025-04-11,清算の結了等,,,2020-08-19,1,,,,,ヒラフ,0
881,4011302009360,登記記録の閉鎖等,0,2025-04-18,2025-04-04,有限会社森下コンサルタンツ,,有限会社,東京都,杉並区,荻窪１丁目１９番８号,,13,115,1670051,,,2025-04-04,清算の結了等,,,2015-10-05,1,,,,,モリシタコンサルタンツ,0
897,4020001012278,登記記録の閉鎖等,0,2025-04-18,2025-04-09,株式会社ライフ・タムラ,,株式会社,神奈川県,横浜市青葉区,市ケ尾町１１７９番地２,,14,117,2250024,,,2025-04-09,清算の結了等,,,2015-10-05,1,,,,,ライフタムラ,0
899,4020001035873,登記記録の閉鎖等,0,2025-04-18,2025-04-03,日本システムコンストラクション株式会社,,株式会社,神奈川県,横浜市都筑区,池辺町４４８３番地１飛鳥ビル１Ｆ,,14,118,2240053,,,2025-04-03,清算の結了等,,,2015-10-05,1,,,,,ニホンシステムコンストラクション,0
904,4020002030205,登記記録の閉鎖等,0,2025-04-18,2025-04-09,有限会社シオバラアート,,有限会社,神奈川県,横浜市南区,別所５丁目１２番６号,,14,105,2320064,,,2025-04-09,清算の結了等,,,2015-10-05,1,,,,,シオバラアート,0
905,4020002084192,登記記録の閉鎖等,0,2025-04-18,2025-04-10,有限会社田代計画設計工房,,有限会社,神奈川県,川崎市中原区,新丸子町７４９番地,,14,133,2110005,,,2025-04-10,清算の結了等,,,2015-10-05,1,,,,,タシロケイカクセッケイコウボウ,0
914,4021005010193,登記記録の閉鎖等,0,2025-04-18,2025-04-16,ＮＰＯ法人つばさ福祉送迎,,その他の設立登記法人,神奈川県,横須賀市,三春町３丁目２２番地,,14,201,2380014,,,2025-04-16,清算の結了等,,,2015-10-05,1,,,,,ツバサフクシソウゲイ,0
935,4040003003050,登記記録の閉鎖等,0,2025-04-18,2025-04-03,合同会社ＭＧメディア,,合同会社,千葉県,千葉市中央区,蘇我５丁目３９番１６号,,12,101,2600822,,,2025-04-03,清算の結了等,,,2015-10-05,1,,,,,エムジーメディア,0
944,4060002036504,登記記録の閉鎖等,0,2025-04-18,2025-04-10,有限会社ステップ商事,,有限会社,栃木県,足利市,上渋垂町２４８番地２,,09,202,3260335,,,2025-04-10,清算の結了等,,,2015-10-05,1,,,,,ステップショウジ,0
951,4080001015589,登記記録の閉鎖等,0,2025-04-18,2025-04-14,株式会社ラブ・アップル,,株式会社,静岡県,焼津市,吉永字上田中９２０番地,,22,212,4210211,,,2025-04-14,清算の結了等,,,2015-10-05,1,,,,,ラブアップル,0
952,4080001025695,登記記録の閉鎖等,0,2025-04-18,2025-04-11,株式会社静居寺セレモニー,,株式会社,静岡県,島田市,野田１１３２番地の１,,22,209,4270007,,,2025-04-11,合併による解散等,6120901021465,令和７年４月１日東京都杉並区今川三丁目１４番３号ハラダ協同サービス株式会社（6120901021465）に合併し解散,2023-07-04,1,,,,,ジョウゴジセレモニー,0
955,4080401023522,登記記録の閉鎖等,0,2025-04-18,2025-04-09,株式会社森路社,,株式会社,静岡県,浜松市中央区,卸本町９７番地,,22,138,4328055,,,2025-04-09,清算の結了等,,,2019-03-13,1,,,,,モリミチシャ,0
957,4080402002269,登記記録の閉鎖等,0,2025-04-18,2025-04-10,有限会社川上マネージメント,,有限会社,静岡県,浜松市中央区,卸本町３４番地,,22,138,4328055,,,2025-04-10,清算の結了等,,,2015-10-05,1,,,,,カワカミマネージメント,0
958,4080402017812,登記記録の閉鎖等,0,2025-04-18,2025-04-08,有限会社ライスセンター石野,,有限会社,静岡県,掛川市,掛川１１６６番地,,22,213,4360079,,,2025-04-08,清算の結了等,,,2015-10-05,1,,,,,ライスセンターイシノ,0
980,4120102002291,登記記録の閉鎖等,0,2025-04-18,2025-04-09,有限会社新興不動産,,有限会社,大阪府,堺市堺区,北瓦町１丁４番１６－１５０６号,,27,141,5900076,,,2025-04-09,清算の結了等,,,2015-10-05,1,,,,,シンコウフドウサン,0
985,4130001005171,登記記録の閉鎖等,0,2025-04-18,2025-04-10,株式会社東洋設備,,株式会社,京都府,京都市北区,紫竹下緑町９５番地の７,,26,101,6038425,,,2025-04-10,清算の結了等,,,2015-10-05,1,,,,,トウヨウセツビ,0
999,4180001133538,登記記録の閉鎖等,0,2025-04-18,2025-04-08,イーエイチアイ株式会社,,株式会社,愛知県,名古屋市東区,東桜２丁目３番７号東カン名古屋キャステール９３１,,23,102,4610005,,,2025-04-08,清算の結了等,,,2018-08-29,1,,,,,イーエイチアイ,0
1003,4180002092238,登記記録の閉鎖等,0,2025-04-18,2025-04-07,有限会社アイチ保険センター,,有限会社,愛知県,あま市,七宝町桂三田２３番地,,23,237,4970004,,,2025-04-07,清算の結了等,,,2015-10-05,1,,,,,アイチホケンセンター,0
1005,4180302013471,登記記録の閉鎖等,0,2025-04-18,2025-04-16,有限会社サンクグラン,,有限会社,愛知県,豊川市,新桜町通２丁目６番地の１,,23,207,4420835,,,2025-04-16,清算の結了等,,,2015-10-05,1,,,,,,0
1017,4240002053745,登記記録の閉鎖等,0,2025-04-18,2025-04-14,三原トヨタ商事有限会社,,有限会社,広島県,三原市,宮浦３丁目２５番２５号,,34,204,7230051,,,2025-04-14,清算の結了等,,,2015-10-05,1,,,,,ミハラトヨタショウジ,0
1018,4250001009284,登記記録の閉鎖等,0,2025-04-18,2025-04-10,丸二水道工業株式会社,,株式会社,山口県,周南市,大字徳山４２０１番地,,35,215,7450851,,,2025-04-10,清算の結了等,,,2015-10-05,1,,,,,マルニスイドウコウギョウ,0
1021,4290001046159,登記記録の閉鎖等,0,2025-04-18,2025-04-02,株式会社パッケージングコア,,株式会社,福岡県,嘉麻市,漆生１１１１番地１０,,40,227,8200201,,,2025-04-02,清算の結了等,,,2015-10-05,1,,,,,パッケージングコア,0
1036,4340001016544,登記記録の閉鎖等,0,2025-04-18,2025-04-14,株式会社南晃クリエイティヴ,,株式会社,鹿児島県,出水市,黄金町５１４番地,,46,208,8990125,,,2025-04-14,清算の結了等,,,2015-10-05,1,,,,,ナンコウクリエイティヴ,0
1039,4350002005586,登記記録の閉鎖等,0,2025-04-18,2025-04-10,有限会社セフコン九州,,有限会社,宮崎県,宮崎市,東大宮３丁目９番１７号,,45,201,8800825,,,2025-04-10,清算の結了等,,,2015-10-05,1,,,,,セフコンキュウシュウ,0
1061,4390002007959,登記記録の閉鎖等,0,2025-04-18,2025-04-07,有限会社マルイ電気商会,,有限会社,山形県,酒田市,本町１丁目１番２８号,,06,204,9980043,,,2025-04-07,清算の結了等,,,2015-10-05,1,,,,,マルイデンキショウカイ,0
1065,4420005005824,登記記録の閉鎖等,0,2025-04-18,2025-04-07,天理教古間木分教会,,その他の設立登記法人,青森県,三沢市,字古間木山１４０番地６７３,,02,207,0330044,,,2025-04-07,合併による解散等,5420005005848,令和７年４月７日青森県上北郡野辺地町字赤坂５８番地天理教野辺地分教会（5420005005848）に合併し解散,2015-10-05,1,,,,,テンリキョウコマキブンキョウカイ,0
1066,4430001017855,登記記録の閉鎖等,0,2025-04-18,2025-04-08,株式会社横田店舗デザイン,,株式会社,北海道,札幌市清田区,里塚二条６丁目２１番１４号,,01,110,0040802,,,2025-04-08,清算の結了等,,,2015-10-05,1,,,,,ヨコタテンポデザイン,0
1070,4430002022458,登記記録の閉鎖等,0,2025-04-18,2025-04-14,有限会社サンエーロビン,,有限会社,北海道,札幌市北区,篠路一条７丁目３番１号,,01,102,0028021,,,2025-04-14,清算の結了等,,,2015-10-05,1,,,,,,0
1072,4430003004001,登記記録の閉鎖等,0,2025-04-18,2025-04-07,ニセコ造園合同会社,,合同会社,北海道,虻田郡ニセコ町,字本通６６番地１,,01,395,0481502,,,2025-04-07,清算の結了等,,,2015-10-05,1,,,,,ニセコゾウエン,0
1074,4460001000726,登記記録の閉鎖等,0,2025-04-18,2025-04-16,シーキユーハムセンター株式会社,,株式会社,北海道,釧路市,愛国東３丁目１番３号,,01,206,0850058,,,2025-04-16,清算の結了等,,,2015-10-05,1,,,,,シーキユーハムセンター,0
1093,5010002030568,登記記録の閉鎖等,0,2025-04-18,2025-04-01,フリーランスソフト有限会社,,有限会社,東京都,千代田区,神田佐久間町３丁目２１番地コートスクエア秋葉原４０２号,,13,101,1010025,,,2025-04-01,清算の結了等,,,2015-10-05,1,,,,,フリーランスソフト,0
1102,5010102002871,登記記録の閉鎖等,0,2025-04-18,2025-04-11,有限会社サンケン化成,,有限会社,東京都,八王子市,台町３丁目２６番９号,,13,201,1930931,,,2025-04-11,清算の結了等,,,2015-10-05,1,,,,,,0
1103,5010102003481,登記記録の閉鎖等,0,2025-04-18,2025-04-10,有限会社杉原プロファイル,,有限会社,東京都,八王子市,中野山王１丁目１４番１０号,,13,201,1920042,,,2025-04-10,清算の結了等,,,2015-10-05,1,,,,,スギハラプロファイル,0
1155,5011701018820,登記記録の閉鎖等,0,2025-04-18,2025-04-10,金瑞国際株式会社,,株式会社,東京都,江戸川区,船堀１丁目７－１７－３０１号,,13,123,1340091,,,2025-04-10,清算の結了等,,,2015-10-05,1,,,,,キンズイコクサイ,0
1160,5011802008200,登記記録の閉鎖等,0,2025-04-18,2025-04-14,有限会社ユーキインテリア,,有限会社,東京都,葛飾区,堀切６丁目３１番６号,,13,122,1240006,,,2025-04-14,清算の結了等,,,2015-10-05,1,,,,,ユーキインテリア,0
1163,5012401005134,登記記録の閉鎖等,0,2025-04-18,2025-04-14,株式会社タカキホーム,,株式会社,東京都,小金井市,本町１丁目１２番６号,,13,210,1840004,,,2025-04-14,合併による解散等,6012801003496,令和７年３月３１日東京都東大和市中央一丁目１番地５株式会社タカキ（6012801003496）に合併し解散,2015-10-05,1,,,,,タカキホーム,0
1169,5013301050484,登記記録の閉鎖等,0,2025-04-18,2025-04-02,株式会社仕,,株式会社,東京都,豊島区,南大塚１丁目６０番２０号天翔大塚駅前ビル８１０号室,,13,116,1700005,,,2025-04-02,清算の結了等,,,2023-03-20,1,,,,,,0
1193,5030001055093,登記記録の閉鎖等,0,2025-04-18,2025-04-14,ダイワホーム株式会社,,株式会社,埼玉県,川越市,小仙波町２丁目２５番地２,,11,201,3500036,,,2025-04-14,清算の結了等,,,2015-10-05,1,,,,,ダイワホーム,0
1196,5030002017134,登記記録の閉鎖等,0,2025-04-18,2025-04-08,丸三工業有限会社,,有限会社,埼玉県,さいたま市南区,四谷３丁目１４番１３号,,11,108,3360032,,,2025-04-08,清算の結了等,,,2015-10-05,1,,,,,マルサンコウギョウ,0
1204,5040001109625,登記記録の閉鎖等,0,2025-04-18,2025-04-02,成田水産荷役株式会社,,株式会社,千葉県,成田市,吉岡１６２５番地１６,,12,211,2870225,,,2025-04-02,清算の結了等,,,2019-06-18,1,,,,,ナリタスイサンニヤク,0
1214,5050001000923,登記記録の閉鎖等,0,2025-04-18,2025-04-08,株式会社コアー建築事務所,,株式会社,茨城県,水戸市,元吉田町１４８４番地１８,,08,201,3100836,,,2025-04-08,清算の結了等,,,2015-10-05,1,,,,,コアーケンチクジムショ,0
1239,5080405000070,登記記録の閉鎖等,0,2025-04-18,2025-04-02,浜松市中央柳通り商店街振興組合,,その他の設立登記法人,静岡県,浜松市中央区,千歳町３８番地,,22,138,4300934,,,2025-04-02,清算の結了等,,,2015-10-05,1,,,,,ハママツシチュウオウナヤギトオリ,0
1249,5120001028156,登記記録の閉鎖等,0,2025-04-18,2025-04-15,株式会社松下板金所,,株式会社,大阪府,大阪市大正区,南恩加島６丁目１０番１７号,,27,108,5510021,,,2025-04-15,清算の結了等,,,2015-10-05,1,,,,,マツシタバンキンショ,0
1276,5120901014445,登記記録の閉鎖等,0,2025-04-18,2025-04-11,グリーンファーマシー株式会社,,株式会社,大阪府,吹田市,春日３丁目２０番８号,,27,205,5650853,,,2025-04-11,合併による解散等,4370001013217,令和７年４月１日仙台市泉区泉中央一丁目７番地の１シップヘルスケアファーマシー株式会社（4370001013217）に合併し解散,2015-10-05,1,,,,,,0
1293,5180001038562,登記記録の閉鎖等,0,2025-04-18,2025-04-07,株式会社東海仏具,,株式会社,愛知県,名古屋市中区,門前町５番１２号,,23,106,4600018,,,2025-04-07,清算の結了等,,,2015-10-05,1,,,,,トウカイブツグ,0
1302,5180302000097,登記記録の閉鎖等,0,2025-04-18,2025-04-04,有限会社アーセット,,有限会社,愛知県,岡崎市,大和町字西之坊２８番地４,,23,202,4440931,,,2025-04-04,清算の結了等,,,2015-10-05,1,,,,,アーセット,0
1305,5180302023602,登記記録の閉鎖等,0,2025-04-18,2025-04-07,有限会社ミスギ製本,,有限会社,愛知県,豊田市,上原町西山５５０番地,,23,211,4700341,,,2025-04-07,清算の結了等,,,2015-10-05,1,,,,,ミスギセイホン,0
1308,5200001016012,登記記録の閉鎖等,0,2025-04-18,2025-04-14,高橋建設株式会社,,株式会社,岐阜県,揖斐郡揖斐川町,脛永１０５５番地,00080946,21,401,5010622,,,2025-04-14,清算の結了等,,,2015-10-05,1,,,,,,0
1318,5230002004203,登記記録の閉鎖等,0,2025-04-18,2025-04-15,有限会社しゅっぽっぽ,,有限会社,富山県,富山市,吉作４６９番地の１,,16,201,9300142,,,2025-04-15,清算の結了等,,,2015-10-05,1,,,,,シュッポッポ,0
1320,5240001017056,登記記録の閉鎖等,0,2025-04-18,2025-04-14,コスモコーポレーション株式会社,,株式会社,広島県,広島市安芸区,矢野西３丁目４１番２０号,,34,107,7360085,,,2025-04-14,清算の結了等,,,2015-10-05,1,,,,,コスモコーポレーション,0
1357,5390005008243,登記記録の閉鎖等,0,2025-04-18,2025-04-07,特定非営利活動法人上山＿面研究開発,00085314,その他の設立登記法人,山形県,上山市,金生西１丁目１番１６号,,06,207,9993126,,,2025-04-07,清算の結了等,,,2015-10-05,1,,,,,カミノヤマユウメンケンキュウカイハツ,0
1359,5410002010728,登記記録の閉鎖等,0,2025-04-18,2025-04-11,有限会社小笠原工作所,,有限会社,秋田県,山本郡八峰町,八森字中浜１０３番地の１１,,05,349,0182641,,,2025-04-11,清算の結了等,,,2015-10-05,1,,,,,オガサワラコウサクショ,0
1370,5460101005839,登記記録の閉鎖等,0,2025-04-18,2025-04-15,株式会社ドリームジャパン,,株式会社,北海道,帯広市,東二条南３丁目９番地,,01,207,0800802,,,2025-04-15,清算の結了等,,,2015-12-09,1,,,,,ドリームジャパン,0
1381,5500002013878,登記記録の閉鎖等,0,2025-04-18,2025-04-15,有限会社越智電気,,有限会社,愛媛県,西条市,桑村３５９番地の５,,38,206,7991323,,,2025-04-15,清算の結了等,,,2015-10-05,1,,,,,オチデンキ,0
1383,6010001021303,登記記録の閉鎖等,0,2025-04-18,2025-04-01,ソニテック株式会社,,株式会社,東京都,中央区,日本橋本町３丁目９番４号,,13,102,1030023,,,2025-04-01,合併による解散等,4010001239467,令和７年４月１日東京都中央区日本橋本町三丁目９番４号ソニテック株式会社（4010001239467）に合併し解散,2015-10-05,1,,,,,ソニテック,0
1396,6010103001863,登記記録の閉鎖等,0,2025-04-18,2025-04-11,ＬＵＣＫＮＥＥ合同会社,,合同会社,東京都,八王子市,下恩方町２２１７番地１２,,13,201,1920154,,,2025-04-11,清算の結了等,,,2022-02-16,1,,,,,,0
1398,6010401020417,登記記録の閉鎖等,0,2025-04-18,2025-03-31,株式会社トーキヨーヴイジョン,,株式会社,東京都,港区,新橋４丁目３０番６号京急中はらビル３階,,13,103,1050004,,,2025-03-31,合併による解散等,1250001020822,令和７年３月３１日東京都港区新橋四丁目３０番６号京急中はらビル３階株式会社トーキョーヴィジョン（1250001020822）に合併し解散,2015-10-05,1,,,,,トーキヨーヴイジョン,0
1399,6010401064793,登記記録の閉鎖等,0,2025-04-18,2025-03-31,亜細亜証券印刷株式会社,,株式会社,東京都,港区,海岸１丁目２番２０号,,13,103,1050022,,,2025-03-31,清算の結了等,,,2015-10-05,1,,,,,アジアショウケンインサツ,0
1400,6010401104558,登記記録の閉鎖等,0,2025-04-18,2025-03-31,株式会社エーピーアセットマネジメント,,株式会社,東京都,港区,高輪３丁目２５番２３号京急第２ビル１Ｆ,,13,103,1080074,,,2025-03-31,清算の結了等,,,2015-10-05,1,,,,,エーピーアセットマネジメント,0
1403,6010402036362,登記記録の閉鎖等,0,2025-04-18,2025-03-31,アムステルダムトレーダー・リーシング有限会社,,有限会社,東京都,港区,虎ノ門１丁目２番６号,,13,103,1050001,,,2025-03-31,清算の結了等,,,2015-10-05,1,,,,,アムステルダムトレーダーリーシング,0
1406,6010405021824,登記記録の閉鎖等,0,2025-04-18,2025-03-31,司法書士法人アンサンブル,,その他の設立登記法人,東京都,港区,北青山３丁目１２番７号,,13,103,1070061,,,2025-03-31,清算の結了等,,,2023-02-24,1,,,,,アンサンブル,0
1407,6010601017634,登記記録の閉鎖等,0,2025-04-18,2025-04-07,株式会社モップス,,株式会社,東京都,江東区,東砂３丁目１９番２４号,,13,108,1360074,,,2025-04-07,清算の結了等,,,2015-10-05,1,,,,,,0
1417,6011001139424,登記記録の閉鎖等,0,2025-04-18,2025-04-14,株式会社エモンワークス,,株式会社,山口県,山口市,湯田温泉４丁目２－２５－２０５号,,35,203,7530056,,,2025-04-14,清算の結了等,,,2021-03-29,1,,,,,エモンワークス,0
1418,6011001162541,登記記録の閉鎖等,0,2025-04-18,2025-03-18,株式会社Ｉｃｈｉｋａｋｅ,,株式会社,東京都,渋谷区,恵比寿西１丁目１０番１４号ランドコム恵比寿代官山１１０４,,13,113,1500021,,,2025-03-18,清算の結了等,,,2024-06-18,1,,,,,イチカケ,0
1437,6011701025956,登記記録の閉鎖等,0,2025-04-18,2025-04-10,Ｓａｌｔ＆Ｐｅｐｐｅｒ株式会社,,株式会社,東京都,江戸川区,篠崎町８丁目１１番１６号,,13,123,1330061,,,2025-04-10,清算の結了等,,,2023-01-16,1,,,,,ソルトアンドペッパー,0
1438,6011702003548,登記記録の閉鎖等,0,2025-04-18,2025-04-10,有限会社クボタ,,有限会社,東京都,江戸川区,中葛西３丁目２８番１号,,13,123,1340083,,,2025-04-10,清算の結了等,,,2015-10-05,1,,,,,クボタ,0
1451,6020003022067,登記記録の閉鎖等,0,2025-04-18,2025-04-04,合同会社ｇａｒｄｅｎｓ,,合同会社,神奈川県,川崎市川崎区,駅前本町１１番地２川崎フロンティアビル４階,,14,131,2100007,,,2025-04-04,清算の結了等,,,2022-07-08,1,,,,,ガーデンズ,0
1455,6021001045670,登記記録の閉鎖等,0,2025-04-18,2025-04-17,アストリー株式会社,,株式会社,神奈川県,大和市,南林間６丁目２３番１６号,,14,213,2420006,,,2025-04-17,清算の結了等,,,2015-10-05,1,,,,,,0
1472,6030002103924,登記記録の閉鎖等,0,2025-04-18,2025-04-15,有限会社須賀シェル工業所,,有限会社,埼玉県,川口市,大字西立野３５５番地,,11,203,3330813,,,2025-04-15,清算の結了等,,,2015-10-05,1,,,,,スガシェルコウギョウショ,0
1531,6140001059009,登記記録の閉鎖等,0,2025-04-18,2025-04-04,三光建設工業株式会社,,株式会社,兵庫県,姫路市,勝原区宮田５１９番地の５,,28,201,6711213,,,2025-04-04,清算の結了等,,,2015-10-05,1,,,,,サンコウケンセツコウギョウ,0
1552,6200001016432,登記記録の閉鎖等,0,2025-04-18,2025-04-14,株式会社Ｓｃｅｎｅｓ　ｏｆ　ｇａｒｄｅｎまきむら,,株式会社,岐阜県,揖斐郡揖斐川町,三輪２７７番地１,,21,401,5010619,,,2025-04-14,清算の結了等,,,2015-10-05,1,,,,,,0
1556,6220002003691,登記記録の閉鎖等,0,2025-04-18,2025-04-14,有限会社タカヤマ商事,,有限会社,石川県,金沢市,涌波３丁目５番１２号,,17,201,9200953,,,2025-04-14,清算の結了等,,,2015-10-05,1,,,,,タカヤマショウジ,0
1574,6270001005230,登記記録の閉鎖等,0,2025-04-18,2025-04-15,ジーダブルテクノロジー株式会社,,株式会社,東京都,豊島区,南大塚３丁目１７番２－１２０３号,,13,116,1700005,,,2025-04-15,合併による解散等,2010001101455,令和７年４月１日東京都千代田区外神田一丁目１６番８号ネイチャーインサイト株式会社（2010001101455）に合併し解散,2015-10-05,1,,,,,ジーダブルテクノロジー,0
1575,6280005004830,登記記録の閉鎖等,0,2025-04-18,2025-04-16,願成寺,,その他の設立登記法人,島根県,邑智郡邑南町,日和３４１４番地,,32,449,6960104,,,2025-04-16,清算の結了等,,,2015-10-05,1,,,,,ガンジョウジ,0
1578,6290002027701,登記記録の閉鎖等,0,2025-04-18,2025-04-14,有限会社エビス調剤薬局,,有限会社,福岡県,福岡市中央区,天神１丁目６番８号,,40,133,8100001,,,2025-04-14,合併による解散等,7430001069398,令和７年４月１日札幌市白石区東札幌五条二丁目４番３０号株式会社アインファーマシーズ（7430001069398）に合併し解散,2015-10-05,1,,,,,エビスチョウザイヤッキョク,0
1581,6290805007899,登記記録の閉鎖等,0,2025-04-18,2025-04-08,ＮＰＯ法人まごころ,,その他の設立登記法人,福岡県,田川市,大字伊田４８６２番７,,40,206,8250002,,,2025-04-08,清算の結了等,,,2015-10-05,1,,,,,,0
1600,6370001020194,登記記録の閉鎖等,0,2025-04-18,2025-04-04,株式会社マイスター仙台,,株式会社,宮城県,仙台市若林区,大和町４丁目２２番１０号,,04,103,9840042,,,2025-04-04,清算の結了等,,,2015-10-05,1,,,,,マイスターセンダイ,0
1609,6390001017585,登記記録の閉鎖等,0,2025-04-18,2025-04-08,株式会社ＢＵＬＬＥＴ,,株式会社,山形県,山形市,小立２丁目１番１０号,,06,201,9902402,,,2025-04-08,清算の結了等,,,2024-04-17,1,,,,,バレット,0
1611,6420001012624,登記記録の閉鎖等,0,2025-04-18,2025-04-09,アックス・グリーン・サービス株式会社,,株式会社,青森県,むつ市,柳町１丁目６番３２号,,02,208,0350031,,,2025-04-09,清算の結了等,,,2015-10-05,1,,,,,アックスグリーンサービス,0
1643,7010005025522,登記記録の閉鎖等,0,2025-04-18,2025-04-10,ＳＴＡＲ税理士法人,,その他の設立登記法人,東京都,中央区,日本橋富沢町４番１０－２Ｆ－０１号室,,13,102,1030006,,,2025-04-10,清算の結了等,,,2016-07-07,1,,,,,スター,0
1700,7012403003241,登記記録の閉鎖等,0,2025-04-18,2025-04-07,とまとの芽合同会社,,合同会社,東京都,府中市,住吉町２丁目３０番地の４１ライオンズ府中中河原マークスフォート７０７,,13,206,1830034,,,2025-04-07,清算の結了等,,,2017-10-26,1,,,,,トマトノメ,0
1705,7013301046258,登記記録の閉鎖等,0,2025-04-18,2025-04-02,近未来設計株式会社,,株式会社,東京都,豊島区,東池袋１丁目５番６号,,13,116,1700013,,,2025-04-02,合併による解散等,9013301032693,令和７年４月１日東京都豊島区東池袋一丁目５番６号ＩＴ　ｔｏｗｅｒ　ＴＯＫＹＯ合同会社（9013301032693）に合併し解散,2020-09-25,1,,,,,キンミライセッケイ,0
1710,7020001024171,登記記録の閉鎖等,0,2025-04-18,2025-04-01,株式会社相鉄リナプス,,株式会社,神奈川県,横浜市西区,北幸２丁目９番１４号,,14,103,2200004,,,2025-04-01,合併による解散等,7020001023033,令和７年４月１日横浜市西区北幸二丁目９番１４号相鉄不動産販売株式会社（7020001023033）に合併し解散,2015-10-05,1,,,,,ソウテツリナプス,0
1720,7021002056113,登記記録の閉鎖等,0,2025-04-18,2025-04-09,有限会社ケンテクニカルサーブ,,有限会社,神奈川県,足柄下郡湯河原町,吉浜６４４番地の１６,,14,384,2590312,,,2025-04-09,清算の結了等,,,2015-10-05,1,,,,,ケンテクニカルサーブ,0
1721,7030001000329,登記記録の閉鎖等,0,2025-04-18,2025-04-04,アイエンタープライズ株式会社,,株式会社,埼玉県,さいたま市大宮区,上小町１５４番地１７,,11,103,3300855,,,2025-04-04,合併による解散等,5030001018281,令和７年４月１日埼玉県さいたま市岩槻区南辻２５番地２株式会社ヤマト（5030001018281）に合併し解散,2015-10-05,1,,,,,アイエンタープライズ,0
1738,7040005018746,登記記録の閉鎖等,0,2025-04-18,2025-03-31,特定非営利活動法人やまとなでしこ,,その他の設立登記法人,千葉県,船橋市,本町６丁目２番６号,,12,204,2730005,,,2025-03-31,清算の結了等,,,2015-10-05,1,,,,,ヤマトナデシコ,0
1742,7050001024169,登記記録の閉鎖等,0,2025-04-18,2025-04-08,国分プレシジョン株式会社,,株式会社,茨城県,北茨城市,華川町下相田字上ノ台５２１番地５,,08,215,3191537,,,2025-04-08,合併による解散等,1050001023572,令和７年４月１日茨城県日立市滑川町一丁目９番１０号株式会社日昌製作所（1050001023572）に合併し解散,2015-10-05,1,,,,,コクブンプレシジョン,0
1744,7050005002187,登記記録の閉鎖等,0,2025-04-18,2025-04-08,勝田都市商業開発協同組合,,その他の設立登記法人,茨城県,ひたちなか市,大字馬渡字西谷津２５２５番１８８,,08,221,3120012,,,2025-04-08,清算の結了等,,,2015-10-05,1,,,,,カツタトシショウギョウカイハツ,0
1747,7060002034117,登記記録の閉鎖等,0,2025-04-18,2025-04-09,有限会社安納吹付工業,,有限会社,栃木県,下都賀郡壬生町,大字福和田９３５番地７,,09,361,3210219,,,2025-04-09,清算の結了等,,,2015-10-05,1,,,,,アンノウフキツケコウギョウ,0
1751,7070001013723,登記記録の閉鎖等,0,2025-04-18,2025-04-09,豊和工業株式会社,,株式会社,群馬県,伊勢崎市,北千木町１５５９番地１,,10,204,3720032,,,2025-04-09,清算の結了等,,,2015-10-05,1,,,,,ホウワコウギョウ,0
1757,7080001002031,登記記録の閉鎖等,0,2025-04-18,2025-04-08,株式会社シティエフエム静岡,,株式会社,静岡県,静岡市葵区,七間町８番地の２０,,22,101,4200035,,,2025-04-08,合併による解散等,2080001007704,令和７年４月１日静岡市葵区七間町８番地の２０株式会社エフエムしみず静岡（2080001007704）に合併し解散,2015-10-05,1,,,,,シティエフエムシズオカ,0
1775,7110002026868,登記記録の閉鎖等,0,2025-04-18,2025-04-07,有限会社今町屋商店,,有限会社,新潟県,長岡市,千手２丁目１１番２号,,15,202,9400087,,,2025-04-07,清算の結了等,,,2015-10-05,1,,,,,イママチヤショウテン,0
1801,7120902013097,登記記録の閉鎖等,0,2025-04-18,2025-04-11,有限会社スターシップ,,有限会社,大阪府,吹田市,春日３丁目２０番８号,,27,205,5650853,,,2025-04-11,合併による解散等,4370001013217,令和７年４月１日仙台市泉区泉中央一丁目７番地の１シップヘルスケアファーマシー株式会社（4370001013217）に合併し解散,2015-10-05,1,,,,,,0
1823,7140001130569,登記記録の閉鎖等,0,2025-04-18,2025-04-14,株式会社モアベル,,株式会社,兵庫県,尼崎市,尾浜町３丁目２９番１７号１Ｆ,,28,202,6610022,,,2025-04-14,清算の結了等,,,2023-06-19,1,,,,,モアベル,0
1840,7180001064276,登記記録の閉鎖等,0,2025-04-18,2025-04-07,株式会社コンドル,,株式会社,愛知県,名古屋市港区,正保町８丁目４３番地１,,23,111,4550074,,,2025-04-07,清算の結了等,,,2015-10-05,1,,,,,コンドル,0
1845,7180002086435,登記記録の閉鎖等,0,2025-04-18,2025-04-08,有限会社古川石材,,有限会社,愛知県,常滑市,苅屋町１丁目６２番地,,23,216,4790819,,,2025-04-08,清算の結了等,,,2015-10-05,1,,,,,フルカワセキザイ,0
1848,7180302024549,登記記録の閉鎖等,0,2025-04-18,2025-04-11,有限会社松井鉄工,,有限会社,愛知県,豊田市,新盛町小守岩７番地,,23,211,4442505,,,2025-04-11,清算の結了等,,,2015-10-05,1,,,,,マツイテッコウ,0
1849,7180302027221,登記記録の閉鎖等,0,2025-04-18,2025-04-09,高橋化成有限会社,,有限会社,愛知県,西尾市,寄近町堂本１９番地,,23,213,4450061,,,2025-04-09,清算の結了等,,,2015-10-05,1,,,,,タカハシカセイ,0
1850,7180303004582,登記記録の閉鎖等,0,2025-04-18,2025-04-08,ＳＵＮＲＩＳＥ合同会社,,合同会社,愛知県,豊田市,扶桑町２丁目１７７番地５,,23,211,4710009,,,2025-04-08,清算の結了等,,,2020-03-16,1,,,,,サンライズ,0
1862,7240001060178,登記記録の閉鎖等,0,2025-04-18,2025-04-14,株式会社ココピアワークス広島,,株式会社,広島県,広島市中区,大手町１丁目１番２０号相生橋ビル７階,,34,101,7300051,,,2025-04-14,清算の結了等,,,2022-08-05,1,,,,,ココピアワークスヒロシマ,0
1863,7250001003350,登記記録の閉鎖等,0,2025-04-18,2025-04-03,西部曳船株式会社,,株式会社,山口県,山陽小野田市,大字西沖５番地,,35,216,7560885,,,2025-04-03,合併による解散等,8010001067484,令和７年４月１日山口県山陽小野田市西沖５番地西部石油株式会社（8010001067484）に合併し解散,2015-10-05,1,,,,,セイブエイセン,0
1869,7260005004906,登記記録の閉鎖等,0,2025-04-18,2025-03-31,特定非営利活動法人桃の里,,その他の設立登記法人,岡山県,倉敷市,玉島阿賀崎２丁目７番３１号,,33,202,7138121,,,2025-03-31,清算の結了等,,,2015-10-05,1,,,,,モモノサト,0
1870,7280003001548,登記記録の閉鎖等,0,2025-04-18,2025-04-16,合同会社るり,,合同会社,島根県,出雲市,斐川町阿宮２１４番地１,,32,203,6990611,,,2025-04-16,清算の結了等,,,2021-11-02,1,,,,,ルリ,0
1871,7290001019302,登記記録の閉鎖等,0,2025-04-18,2025-04-11,西部樹脂株式会社,,株式会社,福岡県,福岡市東区,二又瀬新町８番４０号,,40,131,8120065,,,2025-04-11,合併による解散等,7122001004060,令和７年４月１日大阪府東大阪市長田中一丁目４番３７号株式会社ソフテック（7122001004060）に合併し解散,2015-10-05,1,,,,,セイブジュシ,0
1872,7290002017783,登記記録の閉鎖等,0,2025-04-18,2025-04-14,有限会社ミツワ調剤薬局,,有限会社,福岡県,福岡市博多区,南本町２丁目１番９号,,40,132,8120883,,,2025-04-14,合併による解散等,7430001069398,令和４年４月１日札幌市白石区東札幌五条二丁目４番３０号株式会社アインファーマシーズ（7430001069398）に合併し解散,2015-10-05,1,,,,,ミツワチョウザイヤッキョク,0
1873,7290005018597,登記記録の閉鎖等,0,2025-04-18,2025-04-09,一般社団法人学びにＳＰＡＲＫを,,その他の設立登記法人,福岡県,福岡市南区,高宮１丁目１９番８号,,40,134,8150083,,,2025-04-09,清算の結了等,,,2022-03-22,1,,,,,マナビニスパークヲ,0
1879,7320205000525,登記記録の閉鎖等,0,2025-04-18,2025-04-08,特定非営利活動法人ピースワークつくみ,,その他の設立登記法人,大分県,津久見市,岩屋町１１番３号,,44,207,8792411,,,2025-04-08,清算の結了等,,,2015-10-05,1,,,,,,0
1885,7340005003908,登記記録の閉鎖等,0,2025-04-18,2025-04-07,虎居町事業協同組合,,その他の設立登記法人,鹿児島県,薩摩郡さつま町,西新町１１番地１,,46,392,8951815,,,2025-04-07,清算の結了等,,,2015-10-05,1,,,,,トライマチ,0
1887,7350005005093,登記記録の閉鎖等,0,2025-04-18,2025-04-15,特定非営利活動法人ザンビアの辺地医療を支援する会,,その他の設立登記法人,宮崎県,宮崎市,生目台西４丁目７番地７,,45,201,8800943,,,2025-04-15,清算の結了等,,,2015-10-05,1,,,,,ザンビアノヘンチイリョウヲシエンスルカイ,0
1890,7370001039028,登記記録の閉鎖等,0,2025-04-18,2025-04-07,株式会社ツキタ,,株式会社,宮城県,仙台市青葉区,台原３丁目１７番６－７０３号,,04,101,9810911,,,2025-04-07,清算の結了等,,,2016-01-12,1,,,,,ツキタ,0
1897,7390003001850,登記記録の閉鎖等,0,2025-04-18,2025-04-08,合同会社憩縁,,合同会社,山形県,米沢市,大字上新田２３００－１,,06,202,9920118,,,2025-04-08,清算の結了等,,,2021-07-20,1,,,,,ケイエン,0
1900,7410002006765,登記記録の閉鎖等,0,2025-04-18,2025-04-14,有限会社電子サービス本荘,,有限会社,秋田県,由利本荘市,水林２６番地１,,05,210,0150885,,,2025-04-14,清算の結了等,,,2015-10-05,1,,,,,デンシサービスホンジョウ,0
1906,7430003011399,登記記録の閉鎖等,0,2025-04-18,2025-04-14,Ｆａｍ合同会社,,合同会社,北海道,札幌市南区,藤野五条１丁目６番６号,,01,106,0612285,,,2025-04-14,清算の結了等,,,2020-03-24,1,,,,,ファム,0
1907,7460001004591,登記記録の閉鎖等,0,2025-04-18,2025-04-15,株式会社ヤムヤム,,株式会社,北海道,釧路市,海運１丁目１番１１号,,01,206,0850023,,,2025-04-15,清算の結了等,,,2015-10-05,1,,,,,ヤムヤム,0
1912,7490001009159,登記記録の閉鎖等,0,2025-04-18,2025-04-16,株式会社ジョイハーモニー,,株式会社,高知県,高知市,福井町１５６８番地３９,,39,201,7800965,,,2025-04-16,清算の結了等,,,2019-01-08,1,,,,,ジョイハーモニー,0
1928,8010005017147,登記記録の閉鎖等,0,2025-04-18,2025-04-11,一般社団法人明治安田生命基金流動化ファンディング,,その他の設立登記法人,東京都,千代田区,丸の内１丁目４番１号東京共同会計事務所内,,13,101,1000005,,,2025-04-11,清算の結了等,,,2015-10-05,1,,,,,メイジヤスダセイメイキキンリュウドウカファンディング,0
1930,8010101016044,登記記録の閉鎖等,0,2025-04-18,2025-04-11,Ｅ‐ＴＲＡＤＥ株式会社,,株式会社,東京都,八王子市,大谷町４１３番地１５,,13,201,1920034,,,2025-04-11,清算の結了等,,,2024-03-12,1,,,,,イートレード,0
1938,8010601000530,登記記録の閉鎖等,0,2025-04-18,2025-04-08,株式会社ウエルストン,,株式会社,東京都,江東区,亀戸９丁目２８番４号,,13,108,1360071,,,2025-04-08,清算の結了等,,,2015-10-05,1,,,,,,0
1939,8010601017723,登記記録の閉鎖等,0,2025-04-18,2025-04-07,株式会社アルス,,株式会社,東京都,墨田区,押上２丁目１２番７号,,13,107,1310045,,,2025-04-07,清算の結了等,,,2015-10-05,1,,,,,アルス,0
1953,8011001107362,登記記録の閉鎖等,0,2025-04-18,2025-03-25,株式会社オフィス麻布,,株式会社,東京都,渋谷区,広尾４丁目１番１０－４０６号,,13,113,1500012,,,2025-03-25,清算の結了等,,,2015-10-05,1,,,,,オフィスアザブ,0
1960,8011101093189,登記記録の閉鎖等,0,2025-04-18,2025-04-15,株式会社店舗開発ジャパン,,株式会社,東京都,新宿区,西新宿１丁目２４番１号,,13,104,1600023,,,2025-04-15,合併による解散等,4120001143889,令和７年４月１日大阪市中央区久太郎町三丁目３番９号ビズキューブ・コンサルティング株式会社（4120001143889）に合併し解散,2020-11-17,1,,,,,テンポカイハツジャパン,0
1965,8011303002955,登記記録の閉鎖等,0,2025-04-18,2025-04-04,合同会社ＨＭＢ,,合同会社,東京都,杉並区,井草２丁目１１番９号,,13,115,1670021,,,2025-04-04,清算の結了等,,,2018-03-23,1,,,,,エイチエムビー,0
1968,8011402003169,登記記録の閉鎖等,0,2025-04-18,2025-04-07,有限会社康亜オリジネイト,,有限会社,東京都,練馬区,北町１丁目１１番１２－５０８号,,13,120,1790081,,,2025-04-07,清算の結了等,,,2015-10-05,1,,,,,コウアオリジネイト,0
1984,8013303006374,登記記録の閉鎖等,0,2025-04-18,2025-04-16,合同会社新月,,合同会社,東京都,豊島区,西巣鴨３丁目６番７号,,13,116,1700001,,,2025-04-16,合併による解散等,9013301045159,令和７年４月１日東京都千代田区九段南一丁目５番６号りそな九段ビル５階株式会社名月（9013301045159）に合併し解散,2022-11-16,1,,,,,シンゲツ,0
1987,8013402002679,登記記録の閉鎖等,0,2025-04-18,2025-04-04,有限会社永山鈑金,,有限会社,東京都,多摩市,永山３丁目２１番地７,,13,224,2060025,,,2025-04-04,清算の結了等,,,2015-10-05,1,,,,,,0
1994,8020001111836,登記記録の閉鎖等,0,2025-04-18,2025-04-08,株式会社ボクノワタシノ,,株式会社,愛知県,蒲郡市,水竹町下青山３８番地３,,23,214,4430005,,,2025-04-08,清算の結了等,,,2015-10-05,1,,,,,,0
2001,8020002050645,登記記録の閉鎖等,0,2025-04-18,2025-04-10,有限会社タムラメタル,,有限会社,神奈川県,横浜市南区,浦舟町５丁目７３番地,,14,105,2320024,,,2025-04-10,清算の結了等,,,2015-10-05,1,,,,,タムラメタル,0
2004,8020005009903,登記記録の閉鎖等,0,2025-04-18,2025-04-04,特定非営利活動法人こころｔｈｅ士業,,その他の設立登記法人,神奈川県,横浜市磯子区,岡村８丁目１番２４－６０１号,,14,107,2350021,,,2025-04-04,清算の結了等,,,2015-10-05,1,,,,,ココロザシギョウ,0
2006,8021001002281,登記記録の閉鎖等,0,2025-04-18,2025-03-24,株式会社矢部自動車,,株式会社,神奈川県,藤沢市,石川６丁目１番地の１,,14,205,2520815,,,2025-03-24,合併による解散等,4021001019197,令和７年３月１日神奈川県藤沢市石川六丁目１番地の１株式会社ヤベ自動車工業（4021001019197）に合併し解散,2015-10-05,1,,,,,ヤベジドウシャ,0
2011,8030001009245,登記記録の閉鎖等,0,2025-04-18,2025-04-14,メディカルトラスト株式会社,,株式会社,埼玉県,さいたま市浦和区,高砂３丁目１０番４号,,11,107,3300063,,,2025-04-14,清算の結了等,,,2015-10-05,1,,,,,メディカルトラスト,0
2013,8030001112560,登記記録の閉鎖等,0,2025-04-18,2025-04-14,晃永株式会社,,株式会社,埼玉県,上尾市,緑丘１丁目５番２２号,,11,219,3620015,,,2025-04-14,清算の結了等,,,2016-01-29,1,,,,,コウエイ,0
2023,8030002085839,登記記録の閉鎖等,0,2025-04-18,2025-04-15,有限会社ケイ・アンド・エム,,有限会社,埼玉県,越谷市,大成町６丁目４番地２,,11,222,3430825,,,2025-04-15,清算の結了等,,,2015-10-05,1,,,,,ケイアンドエム,0
2053,8080402006373,登記記録の閉鎖等,0,2025-04-18,2025-04-09,有限会社はなわや,,有限会社,静岡県,浜松市中央区,早出町１２２１番地の６,,22,138,4350054,,,2025-04-09,清算の結了等,,,2015-10-05,1,,,,,ハナワヤ,0
2059,8120001118937,登記記録の閉鎖等,0,2025-04-18,2025-04-15,株式会社あゆみ,,株式会社,大阪府,大阪市城東区,中浜３丁目１６番２２号,,27,118,5360024,,,2025-04-15,清算の結了等,,,2015-10-05,1,,,,,アユミ,0
2061,8120001158058,登記記録の閉鎖等,0,2025-04-18,2025-04-07,株式会社ヒルステック,,株式会社,大阪府,門真市,桑才新町３３番１１号,,27,223,5710043,,,2025-04-07,清算の結了等,,,2015-10-05,1,,,,,ヒルステック,0
2077,8120901016991,登記記録の閉鎖等,0,2025-04-18,2025-04-14,株式会社ＳＩＣデジタル,,株式会社,大阪府,吹田市,広芝町１２番２５号,,27,205,5640052,,,2025-04-14,合併による解散等,3010001003551,令和７年４月１日東京都港区浜松町二丁目４番１号株式会社ＳＩ＆Ｃ（3010001003551）に合併し解散,2015-10-05,1,,,,,,0
2078,8120901029374,登記記録の閉鎖等,0,2025-04-18,2025-04-09,株式会社織田スキル,,株式会社,大阪府,箕面市,小野原西２丁目９番４４号,,27,220,5620032,,,2025-04-09,清算の結了等,,,2015-10-05,1,,,,,オダスキル,0
2081,8122001003235,登記記録の閉鎖等,0,2025-04-18,2025-04-14,株式会社ジンコーポレーション,,株式会社,大阪府,東大阪市,吉田７丁目１番１９号,,27,227,5780924,,,2025-04-14,清算の結了等,,,2015-10-05,1,,,,,ジンコーポレーション,0
2114,8180003014567,登記記録の閉鎖等,0,2025-04-18,2025-04-07,Ｇ１合同会社,,合同会社,愛知県,名古屋市緑区,若田２丁目３０８番地,,23,114,4580034,,,2025-04-07,清算の結了等,,,2015-10-05,1,,,,,ジーワン,0
2126,8240001038124,登記記録の閉鎖等,0,2025-04-18,2025-04-11,株式会社さざなみ不動産,,株式会社,広島県,尾道市,新浜２丁目２番２１号,,34,205,7220014,,,2025-04-11,清算の結了等,,,2015-10-05,1,,,,,サザナミフドウサン,0
2136,8310001009539,登記記録の閉鎖等,0,2025-04-18,2025-04-14,株式会社ｋｏｂａ,,株式会社,長崎県,大村市,大川田町４４２番地１２,,42,205,8560804,,,2025-04-14,清算の結了等,,,2015-10-05,1,,,,,コバ,0
2148,8340002022496,登記記録の閉鎖等,0,2025-04-18,2025-04-14,有限会社尻無勘太郎商店,,有限会社,鹿児島県,阿久根市,大川５００番地,,46,206,8991741,,,2025-04-14,清算の結了等,,,2015-10-05,1,,,,,シリナシカンタロウショウテン,0
2149,8350003000640,登記記録の閉鎖等,0,2025-04-18,2025-04-09,合同会社わかば総合企画,,合同会社,宮崎県,宮崎市,大字島之内２２７２番地１,,45,201,8800121,,,2025-04-09,清算の結了等,,,2015-10-05,1,,,,,ワカバソウゴウキカク,0
2150,8360001023799,登記記録の閉鎖等,0,2025-04-18,2025-04-01,株式会社優伸,,株式会社,沖縄県,名護市,大南４丁目８番３１号,,47,209,9050015,,,2025-04-01,合併による解散等,6360001015798,令和７年４月１日沖縄県中頭郡北中城村字仲順２３１番地１株式会社宙伸（6360001015798）に合併し解散,2018-04-10,1,,,,,ユウシン,0
2166,8430001035663,登記記録の閉鎖等,0,2025-04-18,2025-04-03,松本建装株式会社,,株式会社,北海道,札幌市南区,藤野二条８丁目１８番１号,,01,106,0612282,,,2025-04-03,清算の結了等,,,2015-10-05,1,,,,,マツモトケンソウ,0
2189,9010001099931,登記記録の閉鎖等,0,2025-04-18,2025-04-03,株式会社サンコーパテントリサーチ,,株式会社,東京都,千代田区,九段南１丁目５番６号りそな九段ビル５階,,13,101,1020074,,,2025-04-03,清算の結了等,,,2015-10-05,1,,,,,サンコーパテントリサーチ,0
2190,9010001136817,登記記録の閉鎖等,0,2025-04-18,2025-04-14,オンキヨーマーケティング株式会社,,株式会社,大阪府,東大阪市,川俣１丁目１番４１号,,27,227,5770063,,,2025-04-14,清算の結了等,,,2015-10-05,1,,,,,オンキヨーマーケティング,0
2192,9010001219704,登記記録の閉鎖等,0,2025-04-18,2025-04-01,Ｕｐｃｙｃｌｅ　Ｊａｐａｎ株式会社,,株式会社,東京都,中央区,築地７丁目３－１０－９０９,,13,102,1040045,,,2025-04-01,清算の結了等,,,2021-07-13,1,,,,,アップサイクルジャパン,0
2198,9010103000680,登記記録の閉鎖等,0,2025-04-18,2025-04-14,ネオフォトニクス・セミコンダクタ合同会社,,合同会社,東京都,八王子市,東浅川町５５０番地１０,,13,201,1930834,,,2025-04-14,合併による解散等,2020001038176,令和７年３月３０日神奈川県相模原市中央区小山四丁目１番５５号日本ルメンタム株式会社（2020001038176）に合併し解散,2015-10-05,1,,,,,,0
2200,9010401046558,登記記録の閉鎖等,0,2025-04-18,2025-04-01,株式会社スポーツ・クリエイション,,株式会社,東京都,港区,赤坂１丁目１番１号,,13,103,1070052,,,2025-04-01,清算の結了等,,,2015-10-05,1,,,,,スポーツクリエイション,0
2205,9010402024645,登記記録の閉鎖等,0,2025-04-18,2025-03-31,有限会社美の匠,,有限会社,東京都,港区,新橋５丁目９番５号,,13,103,1050004,,,2025-03-31,清算の結了等,,,2015-10-05,1,,,,,ヨシノタクミ,0
2210,9010501034875,登記記録の閉鎖等,0,2025-04-18,2025-03-31,株式会社ティージュエリー,,株式会社,東京都,台東区,東上野２丁目１０番１号第３政木ビル３Ｆ,,13,106,1100015,,,2025-03-31,合併による解散等,7010501021669,令和７年３月３１日東京都台東区東上野二丁目１０番１号第３政木ビル３Ｆ株式会社小柳（7010501021669）に合併し解散,2015-10-05,1,,,,,ティージュエリー,0
2212,9010601038000,登記記録の閉鎖等,0,2025-04-18,2025-04-07,株式会社三栄酒販,,株式会社,東京都,墨田区,江東橋４丁目１６番４号,,13,107,1300022,,,2025-04-07,清算の結了等,,,2015-10-05,1,,,,,サンエイシュハン,0
2221,9011001153455,登記記録の閉鎖等,0,2025-04-18,2025-03-21,株式会社Ｓａｒａｓｐｉ,,株式会社,東京都,渋谷区,千駄ヶ谷５丁目２３番６－７０５号,,13,113,1510051,,,2025-03-21,清算の結了等,,,2023-03-31,1,,,,,サラスピ,0
2224,9011003009250,登記記録の閉鎖等,0,2025-04-18,2025-03-24,Ｅｘｆｏｒｔ合同会社,,合同会社,東京都,渋谷区,宇田川町１６番８号,,13,113,1500042,,,2025-03-24,清算の結了等,,,2018-10-05,1,Exfort Inc.,Tokyo,"16-8, Udagawa cho, Shibuya ku",,エクスフォート,0
2242,9011801039498,登記記録の閉鎖等,0,2025-04-18,2025-03-21,株式会社ＧＲＩＴ　ＶＥＮＴＵＲＥＳ,,株式会社,東京都,渋谷区,渋谷２丁目２２番６号,,13,113,1500002,,,2025-03-21,清算の結了等,,,2021-07-27,1,,,,,グリットベンチャーズ,0
2243,9011802030274,登記記録の閉鎖等,0,2025-04-18,2025-04-09,有限会社スリートップ,,有限会社,東京都,葛飾区,立石２丁目２６番７号,,13,122,1240012,,,2025-04-09,清算の結了等,,,2015-10-05,1,,,,,スリートップ,0
2245,9012301011625,登記記録の閉鎖等,0,2025-04-18,2025-04-14,株式会社ＮＥＯ,,株式会社,東京都,町田市,原町田２丁目９番５号１０１号室,,13,209,1940013,,,2025-04-14,清算の結了等,,,2019-01-17,1,,,,,ネオ,0
2257,9013101004703,登記記録の閉鎖等,0,2025-04-18,2025-04-15,アシストプロデュース株式会社,,株式会社,東京都,青梅市,東青梅２丁目１１番地の１９ＮＴビル３階,,13,205,1980042,,,2025-04-15,清算の結了等,,,2015-10-05,1,,,,,,0
2263,9013301044425,登記記録の閉鎖等,0,2025-04-18,2025-04-07,株式会社ピルグリム,,株式会社,東京都,豊島区,南大塚３丁目３８番８号,,13,116,1700005,,,2025-04-07,清算の結了等,,,2019-09-11,1,,,,,ピルグリム,0
2274,9020002091003,登記記録の閉鎖等,0,2025-04-18,2025-04-04,有限会社山善工務店,,有限会社,神奈川県,川崎市高津区,子母口５３８番３の１,,14,134,2130023,,,2025-04-04,清算の結了等,,,2015-10-05,1,,,,,ヤマゼンコウムテン,0
2296,9030002020217,登記記録の閉鎖等,0,2025-04-18,2025-04-15,有限会社コスモプロジェクト,,有限会社,埼玉県,さいたま市大宮区,大門町２丁目２０番地２,,11,103,3300846,,,2025-04-15,清算の結了等,,,2015-10-05,1,,,,,コスモプロジェクト,0
2303,9040002074914,登記記録の閉鎖等,0,2025-04-18,2025-04-02,有限会社福田書店,,有限会社,千葉県,市原市,牛久１１９７番地,,12,219,2900225,,,2025-04-02,清算の結了等,,,2015-10-05,1,,,,,フクダショテン,0
2312,9070001010025,登記記録の閉鎖等,0,2025-04-18,2025-04-10,株式会社中島刺繍,00025209,株式会社,群馬県,安中市,原市２６１２番地４,,10,211,3790133,,,2025-04-10,清算の結了等,,,2015-10-05,1,,,,,ナカジマシシュウ,0
2320,9090001008323,登記記録の閉鎖等,0,2025-04-18,2025-04-04,桂観光開発株式会社,,株式会社,山梨県,都留市,境３６３番地,,19,204,4020033,,,2025-04-04,清算の結了等,,,2015-10-05,1,,,,,カツラカンコウカイハツ,0
2322,9100001022041,登記記録の閉鎖等,0,2025-04-18,2025-04-15,株式会社中部日本国際学院,,株式会社,愛知県,西春日井郡豊山町,大字豊場字流川２９番地,,23,342,4800202,,,2025-04-15,合併による解散等,4190001014679,令和７年３月３１日三重県四日市市生桑町３２８番地木下建設株式会社（4190001014679）に合併し解散,2015-10-05,1,,,,,チュウブニホンコクサイガクイン,0
2336,9120001261141,登記記録の閉鎖等,0,2025-04-18,2025-04-08,桜花株式会社,,株式会社,大阪府,大阪市西成区,橘１丁目１１－２８－５０５号室,,27,122,5570051,,,2025-04-08,清算の結了等,,,2024-01-12,1,,,,,オウカ,0
2342,9120002063454,登記記録の閉鎖等,0,2025-04-18,2025-04-15,有限会社ＴＡＳＵＫＵ,,有限会社,大阪府,四條畷市,中野本町１６番７号,,27,229,5750051,,,2025-04-15,清算の結了等,,,2015-10-05,1,,,,,タスク,0
2358,9140001100867,登記記録の閉鎖等,0,2025-04-18,2025-04-14,株式会社ＴＨＲＥＥ　ＳＴＡＲ,,株式会社,兵庫県,神戸市北区,長尾町上津３４１２,,28,109,6511512,,,2025-04-14,清算の結了等,,,2016-02-02,1,,,,,スリースター,0
2359,9140002048593,登記記録の閉鎖等,0,2025-04-18,2025-04-08,有限会社小松,,有限会社,兵庫県,姫路市,栗山９５番地,,28,201,6700000,,,2025-04-08,清算の結了等,,,2015-10-05,1,,,,,コマツ,1
2364,9180001039573,登記記録の閉鎖等,0,2025-04-18,2025-04-08,株式会社ニッコウアセット,,株式会社,愛知県,名古屋市中区,錦１丁目２番１８号,,23,106,4600003,,,2025-04-08,清算の結了等,,,2015-10-05,1,,,,,ニッコウアセット,0
2370,9180002049373,登記記録の閉鎖等,0,2025-04-18,2025-04-08,有限会社ディーエヌエス,,有限会社,愛知県,名古屋市中区,松原３丁目１３番８号,,23,106,4600017,,,2025-04-08,清算の結了等,,,2015-10-05,1,,,,,ディーエヌエス,0
2372,9180003019953,登記記録の閉鎖等,0,2025-04-18,2025-04-11,ｓｈｕｃｒｅ清洲合同会社,,合同会社,愛知県,清須市,新清洲１丁目５番地１,,23,233,4520943,,,2025-04-11,合併による解散等,6180303004641,令和７年３月２１日愛知県安城市花ノ木町４９番９６ｓｈｕｃｒｅ安城合同会社（6180303004641）に合併し解散,2019-05-07,1,,,,,シュクレキヨス,0
2380,9190003002009,登記記録の閉鎖等,0,2025-04-18,2025-04-08,合同会社ＫＵコンサルタント,,合同会社,三重県,四日市市,笹川１丁目１０５番地２,,24,202,5100944,,,2025-04-08,清算の結了等,,,2015-10-05,1,,,,,ケイユウコンサルタント,0
2382,9200001035322,登記記録の閉鎖等,0,2025-04-18,2025-04-14,株式会社エムズテクニカル,,株式会社,岐阜県,羽島郡岐南町,三宅１丁目２２０番地,,21,302,5016002,,,2025-04-14,清算の結了等,,,2018-07-06,1,,,,,エムズテクニカル,0
2384,9200001038069,登記記録の閉鎖等,0,2025-04-18,2025-04-07,株式会社土地崎,,株式会社,岐阜県,岐阜市,北島４丁目１番１９号,,21,201,5020911,,,2025-04-07,合併による解散等,4200001037562,令和７年４月１日大阪市中央区安土町二丁目４番５号（日本エスビーピービル２０１）株式会社宮崎（4200001037562）に合併し解散,2020-12-02,1,,,,,,0
2394,9220001010273,登記記録の閉鎖等,0,2025-04-18,2025-04-14,株式会社ＹＭＣコーポレーション,,株式会社,石川県,金沢市,直江町リ５５番地５,,17,201,9208216,,,2025-04-14,清算の結了等,,,2015-10-05,1,,,,,ワイエムシーコーポレーション,0
2396,9220002010306,登記記録の閉鎖等,0,2025-04-18,2025-04-14,有限会社エイワ工業,,有限会社,石川県,小松市,千木野町ソ７番地１０,,17,203,9230834,,,2025-04-14,清算の結了等,,,2015-10-05,1,,,,,エイワコウギョウ,0
2397,9230001009950,登記記録の閉鎖等,0,2025-04-18,2025-04-14,熊木銘木株式会社,,株式会社,富山県,高岡市,大町１５番５号,,16,202,9330916,,,2025-04-14,清算の結了等,,,2015-10-05,1,,,,,クマキメイボク,0
2398,9230001016559,登記記録の閉鎖等,0,2025-04-18,2025-04-15,株式会社新湊ゴルフガーデン,,株式会社,富山県,射水市,沖塚原１１番地１,,16,211,9340055,,,2025-04-15,清算の結了等,,,2016-07-22,1,,,,,シンミナトゴルフガーデン,0
2403,9240001047009,登記記録の閉鎖等,0,2025-04-18,2025-04-11,株式会社ＭＵＴ,,株式会社,広島県,福山市,松永町４丁目４番２１号,,34,207,7290104,,,2025-04-11,清算の結了等,,,2015-10-05,1,,,,,エムユーティー,0
2414,9280001005193,登記記録の閉鎖等,0,2025-04-18,2025-04-11,日星調剤株式会社,,株式会社,島根県,鹿足郡津和野町,枕瀬１８９番地７,,32,501,6995207,,,2025-04-11,合併による解散等,4370001013217,令和７年４月１日仙台市泉区泉中央一丁目７番地の１シップヘルスケアファーマシー株式会社（4370001013217）に合併し解散,2015-10-05,1,,,,,ニッセイチョウザイ,0
2437,9390005008017,登記記録の閉鎖等,0,2025-04-18,2025-04-07,企業組合リンクシップ,,その他の設立登記法人,山形県,山形市,白山１丁目５番１７号ラビットハウスＩＩ１‐Ｃ,00127871,06,201,9902446,,,2025-04-07,清算の結了等,,,2015-10-05,1,,,,,リンクシップ,0
2450,9480002001915,登記記録の閉鎖等,0,2025-04-18,2025-04-09,有限会社サトー,,有限会社,徳島県,徳島市,佐古五番町５番２１号,,36,201,7700025,,,2025-04-09,清算の結了等,,,2015-10-05,1,,,,,サトー,0
