sequenceNumber,corporateNumber,process,correct,updateDate,changeDate,name,nameImageId,kind,prefectureName,cityName,streetNumber,addressImageId,prefectureCode,cityCode,postCode,addressOutside,addressOutsideImageId,closeDate,closeCause,successorCorporateNumber,changeCause,assignmentDate,latest,enName,enPrefectureName,enCityName,enAddressOutside,furigana,hihyoji
4,1010001246953,新規,0,2024-08-01,2024-08-01,株式会社Ｃｈｉｌａｘ　Ｇａｍｅｓ,,株式会社,東京都,中央区,日本橋富沢町７番１６号,,13,102,1030006,,,,,,,2024-08-01,1,,,,,チラックスゲームス,0
5,1010001247002,新規,0,2024-08-01,2024-08-01,株式会社ゼロ,,株式会社,東京都,中央区,銀座８丁目１５番１０号,,13,102,1040061,,,,,,,2024-08-01,1,,,,,ゼロ,0
6,1010001247051,新規,0,2024-08-01,2024-08-01,株式会社銀座クリスタルデンタルオフィス,,株式会社,東京都,中央区,銀座３丁目２番１０号並木ビル７階,,13,102,1040061,,,,,,,2024-08-01,1,,,,,ギンザクリスタルデンタルオフィス,0
7,1010001247076,新規,0,2024-08-01,2024-08-01,株式会社ジェイ・シグマ,,株式会社,東京都,千代田区,有楽町１丁目７番１号,,13,101,1000006,,,,,,,2024-08-01,1,,,,,ジェイシグマ,0
8,1010001247084,新規,0,2024-08-01,2024-08-01,株式会社先端医療ジャパン,,株式会社,東京都,中央区,銀座７丁目１３番６号サガミビル２Ｆ,,13,102,1040061,,,,,,,2024-08-01,1,,,,,センタンイリョウジャパン,0
9,1010001247126,新規,0,2024-08-01,2024-08-01,申夢株式会社,,株式会社,東京都,中央区,銀座７丁目１３番６号サガミビル２階,,13,102,1040061,,,,,,,2024-08-01,1,,,,,シンム,0
14,1010401184126,新規,0,2024-08-01,2024-08-01,株式会社Ａｖａｎｃｅｓ,,株式会社,東京都,港区,南青山３丁目５－２南青山第一韮澤ビル３１７,,13,103,1070062,,,,,,,2024-08-01,1,,,,,アヴァンセス,0
15,1010401184159,新規,0,2024-08-01,2024-08-01,ＫＮＯＷＬＥＤＧＥ　ＢＯＮＤ株式会社,,株式会社,東京都,港区,赤坂４丁目８番１９号赤坂フロントタウン３階,,13,103,1070052,,,,,,,2024-08-01,1,,,,,ナレッジボンド,0
19,1010601065646,新規,0,2024-08-01,2024-08-01,株式会社禄寿会,,株式会社,東京都,江東区,富岡１丁目１２番２号,,13,108,1350047,,,,,,,2024-08-01,1,,,,,ロクジュカイ,0
20,1010601065654,新規,0,2024-08-01,2024-08-01,株式会社レリアン,,株式会社,東京都,墨田区,緑４丁目１２番１０号２階,,13,107,1300021,,,,,,,2024-08-01,1,,,,,レリアン,0
21,1010601065662,新規,0,2024-08-01,2024-08-01,株式会社広逸,,株式会社,東京都,墨田区,両国１丁目１２番１２号塚田ビル３階,,13,107,1300026,,,,,,,2024-08-01,1,,,,,コウイツ,0
22,1010603010996,新規,0,2024-08-01,2024-08-01,合同会社Ｇｏｎｇｄａｏ,,合同会社,東京都,墨田区,墨田１丁目９番６号,,13,107,1310031,,,,,,,2024-08-01,1,,,,,ゴンダオ,0
24,1010701046348,新規,0,2024-08-01,2024-08-01,ＭＳＴ株式会社,,株式会社,東京都,品川区,西五反田７丁目１３番６号,,13,109,1410031,,,,,,,2024-08-01,1,,,,,エムエスティー,0
25,1010701046356,新規,0,2024-08-01,2024-08-01,株式会社エボリューション１６,,株式会社,東京都,品川区,戸越１丁目２９番１０号テラス大崎４０７,,13,109,1420041,,,,,,,2024-08-01,1,,,,,エボリューションシックスティーン,0
31,1010903009251,新規,0,2024-08-01,2024-08-01,合同会社Ａｓｉｓ,,合同会社,東京都,世田谷区,駒沢３丁目６番１３号,,13,112,1540012,,,,,,,2024-08-01,1,,,,,アシス,0
37,1011003019678,新規,0,2024-08-01,2024-08-01,合同会社Ａｄａｎ　ＡＩ　Ｓｏｌｕｔｉｏｎｓ,,合同会社,東京都,渋谷区,神宮前６丁目２３番４号桑野ビル２階,,13,113,1500001,,,,,,,2024-08-01,1,,,,,アダンエーアイソリューションズ,0
38,1011005010602,新規,0,2024-08-01,2024-08-01,一般社団法人タグチ,,その他の設立登記法人,東京都,渋谷区,猿楽町１４番２６号,,13,113,1500033,,,,,,,2024-08-01,1,,,,,タグチ,0
43,1011101108250,新規,0,2024-08-01,2024-08-01,アイオラ株式会社,,株式会社,東京都,新宿区,新宿２丁目１２番１３号新宿アントレサロンビル２階,,13,104,1600022,,,,,,,2024-08-01,1,,,,,アイオラ,0
44,1011101108275,新規,0,2024-08-01,2024-08-01,ＭａｌｅＣａｒｅ株式会社,,株式会社,東京都,新宿区,新宿１丁目３１番３－２１６号,,13,104,1600022,,,,,,,2024-08-01,1,,,,,メイルケア,0
45,1011103014711,新規,0,2024-08-01,2024-08-01,ＲＡＩＯＮ　ＣＡＰＩＴＡＬ　ＪＡＰＡＮ４合同会社,,合同会社,東京都,新宿区,大久保１丁目４番２０号グロウハイム大久保３０２号室,,13,104,1690072,,,,,,,2024-08-01,1,,,,,ライオンキャピタルジャパンフォー,0
46,1011103014744,新規,0,2024-08-01,2024-08-01,ＳＯＲＡ６合同会社,,合同会社,東京都,新宿区,北新宿１丁目１３番１６－２０５号,,13,104,1690074,,,,,,,2024-08-01,1,,,,,ソラシックス,0
47,1011103014752,新規,0,2024-08-01,2024-08-01,合同会社エーワイプラン,,合同会社,東京都,新宿区,西新宿３丁目３番１３号西新宿水間ビル６階,,13,104,1600023,,,,,,,2024-08-01,1,,,,,エーワイプラン,0
52,1011301029833,新規,0,2024-08-01,2024-08-01,友治株式会社,,株式会社,東京都,杉並区,梅里２丁目２５番１３号高円寺プラザ２１１号,,13,115,1660011,,,,,,,2024-08-01,1,,,,,ユウジ,0
53,1011303005246,新規,0,2024-08-01,2024-08-01,ＩＣＭＬ合同会社,,合同会社,東京都,杉並区,久我山５丁目１１番１８号コージーコート久我山２０５,,13,115,1680082,,,,,,,2024-08-01,1,,,,,アイシーエムエル,0
58,1011501030995,新規,0,2024-08-01,2024-08-01,株式会社プレミオクリーニング,,株式会社,東京都,荒川区,町屋８丁目１２番１１号２０１号室,,13,118,1160001,,,,,,,2024-08-01,1,,,,,プレミオクリーニング,0
62,1011801044613,新規,0,2024-08-01,2024-08-01,株式会社Ｌｕｂｒｉｃａｎｔ,,株式会社,東京都,葛飾区,東金町８丁目８番８号プリンスマンション１０１,,13,122,1250041,,,,,,,2024-08-01,1,,,,,ラブリカント,0
64,1012301014016,新規,0,2024-08-01,2024-08-01,株式会社エムケイ,,株式会社,東京都,町田市,忠生１丁目２８番１号藤マンション１０１,,13,209,1940035,,,,,,,2024-08-01,1,,,,,エムケイ,0
65,1012301014024,新規,0,2024-08-01,2024-08-01,株式会社山路グループホールディングス,,株式会社,東京都,町田市,つくし野２丁目９番地６,,13,209,1940001,,,,,,,2024-08-01,1,,,,,ヤマジグループホールディングス,0
67,1012303002027,新規,0,2024-08-01,2024-08-01,合同会社グローブ０８８４,,合同会社,東京都,町田市,鶴間６丁目３５番２４号,,13,209,1940004,,,,,,,2024-08-01,1,,,,,グローブハヤシ,0
71,1012701018384,新規,0,2024-08-01,2024-08-01,株式会社樹建設,,株式会社,東京都,東村山市,栄町３丁目４番地３２,,13,213,1890013,,,,,,,2024-08-01,1,,,,,イツキケンセツ,0
79,1020001158280,新規,0,2024-08-01,2024-08-01,株式会社ｅｄｙｈ,,株式会社,神奈川県,横浜市鶴見区,尻手２丁目９番２１号,,14,101,2300003,,,,,,,2024-08-01,1,,,,,エディ,0
80,1020001158289,新規,0,2024-08-01,2024-08-01,ピース株式会社,,株式会社,神奈川県,横浜市南区,蒔田町字東谷８８８番地丸浜荘１階,,14,105,2320043,,,,,,,2024-08-01,1,,,,,ピース,0
81,1020001158306,新規,0,2024-08-01,2024-08-01,株式会社くぼゆ,,株式会社,神奈川県,川崎市多摩区,菅野戸呂１７番２７号,,14,135,2140002,,,,,,,2024-08-01,1,,,,,クボユ,0
82,1021001082842,新規,0,2024-08-01,2024-08-01,株式会社オーサムガーデン,,株式会社,神奈川県,相模原市中央区,横山台１丁目３７番２１号,,14,152,2520241,,,,,,,2024-08-01,1,,,,,オーサムガーデン,0
94,1030001161622,新規,0,2024-08-01,2024-08-01,株式会社ＧＲＥＥＤ　ＯＮＥ,,株式会社,埼玉県,さいたま市大宮区,櫛引町１丁目７５６番地３,,11,103,3300851,,,,,,,2024-08-01,1,,,,,グリードワン,0
95,1030001161655,新規,0,2024-08-01,2024-08-01,株式会社ＺＡＭＺＡＭ　ＴＲＡＤＩＮＧ,,株式会社,埼玉県,久喜市,菖蒲町新堀２３７４番地,,11,232,3460105,,,,,,,2024-08-01,1,,,,,ザムザムトレーディング,0
96,1030001161663,新規,0,2024-08-01,2024-08-01,株式会社理建,,株式会社,埼玉県,川口市,戸塚東３丁目１５番３号,,11,203,3330802,,,,,,,2024-08-01,1,,,,,リケン,0
97,1030001161671,新規,0,2024-08-01,2024-08-01,株式会社福成建設,,株式会社,埼玉県,八潮市,中央１丁目１５番地８グリーンパーク第１八潮３０３号室,,11,234,3400816,,,,,,,2024-08-01,1,,,,,フクセイケンセツ,0
98,1030001161688,新規,0,2024-08-01,2024-08-01,株式会社なべ村,,株式会社,埼玉県,三郷市,戸ケ崎３１２４番地６５,,11,237,3410044,,,,,,,2024-08-01,1,,,,,ナベムラ,0
103,1030003024827,新規,0,2024-08-01,2024-08-01,合同会社グッドコンディション,,合同会社,埼玉県,三郷市,後谷５０７番地４,,11,237,3410014,,,,,,,2024-08-01,1,,,,,グッドコンディション,0
107,1040001134775,新規,0,2024-08-01,2024-08-01,株式会社かぼちゃ,,株式会社,千葉県,船橋市,咲が丘１丁目１７－９,,12,204,2740807,,,,,,,2024-08-01,1,,,,,カボチャ,0
110,1040005022456,新規,0,2024-08-01,2024-08-01,あいまり行政書士法人,,その他の設立登記法人,千葉県,千葉市中央区,春日２丁目２１－１４第一野田マンション３０５,,12,101,2600033,,,,,,,2024-08-01,1,,,,,アイマリ,0
111,1050001055145,新規,0,2024-08-01,2024-08-01,ＭＯＰＳ　ＨＯＭＥ株式会社,,株式会社,茨城県,つくばみらい市,中平柳２５８番地４,,08,235,3002334,,,,,,,2024-08-01,1,,,,,モプスホーム,0
115,1070001042026,新規,0,2024-08-01,2024-08-01,株式会社スタイル,,株式会社,群馬県,桐生市,川内町２丁目８４－１０,,10,203,3760041,,,,,,,2024-08-01,1,,,,,,0
116,1070001042034,新規,0,2024-08-01,2024-08-01,株式会社薄井商会,,株式会社,群馬県,高崎市,吉井町小串２０７番地１３,,10,202,3702111,,,,,,,2024-08-01,1,,,,,ウスイショウカイ,0
119,1080101024906,新規,0,2024-08-01,2024-08-01,株式会社なんず,,株式会社,静岡県,賀茂郡南伊豆町,湊１０９８番地の３,,22,304,4150152,,,,,,,2024-08-01,1,,,,,ナンズ,0
120,1080401027344,新規,0,2024-08-01,2024-08-01,株式会社ＢｅｓＰａ,,株式会社,静岡県,浜松市中央区,葵西３丁目３－７３,,22,138,4338111,,,,,,,2024-08-01,1,,,,,ベスパ,0
124,1090001018825,新規,0,2024-08-01,2024-08-01,株式会社ＮＡＶＹ,,株式会社,山梨県,甲府市,伊勢２丁目９－１、３Ｆ,,19,201,4000856,,,,,,,2024-08-01,1,,,,,ネイビー,0
129,1090003002604,新規,0,2024-08-01,2024-08-01,合同会社八方杜,,合同会社,山梨県,南都留郡西桂町,倉見１２１２番地１,,19,423,4030023,,,,,,,2024-08-01,1,,,,,ヤモト,0
132,1100005013201,新規,0,2024-08-01,2024-08-01,一般社団法人あおき友の会,,その他の設立登記法人,長野県,小県郡青木村,大字田沢３２８５,,20,349,3861601,,,,,,,2024-08-01,1,,,,,アオキトモノカイ,0
133,1110001038606,新規,0,2024-08-01,2024-08-01,株式会社Ｗｉｎｇ‐Ｄ,,株式会社,新潟県,燕市,吉田法花堂１８５３番地１１,,15,213,9590214,,,,,,,2024-08-01,1,,,,,ウィンディー,0
134,1110003005471,新規,0,2024-08-01,2024-08-01,合同会社クリエイト,,合同会社,新潟県,上越市,大字富岡２３３８番地４,,15,222,9430173,,,,,,,2024-08-01,1,,,,,クリエイト,0
138,1120001267229,新規,0,2024-08-01,2024-08-01,啓信株式会社,,株式会社,大阪府,大阪市淀川区,東三国２丁目１１－３０－４０３,,27,123,5320002,,,,,,,2024-08-01,1,,,,,ケイシン,0
139,1120001267237,新規,0,2024-08-01,2024-08-01,信和不動産販売株式会社,,株式会社,大阪府,大阪市中央区,南船場１丁目１８番１１号,,27,128,5420081,,,,,,,2024-08-01,1,,,,,シンワフドウサンハンバイ,0
140,1120001267253,新規,0,2024-08-01,2024-08-01,マツダホールディングス株式会社,,株式会社,大阪府,大阪市平野区,平野南４丁目１番１６号,,27,126,5470031,,,,,,,2024-08-01,1,,,,,マツダホールディングス,0
141,1120001267261,新規,0,2024-08-01,2024-08-01,株式会社サンポウ,,株式会社,大阪府,大阪市生野区,中川西１丁目４番１８号,,27,116,5440032,,,,,,,2024-08-01,1,,,,,サンポウ,0
142,1120001267328,新規,0,2024-08-01,2024-08-01,ヤシ教育科技株式会社,,株式会社,大阪府,大阪市東成区,深江北３丁目４番２１号エクラ深江橋６１０Ｃ,,27,115,5370001,,,,,,,2024-08-01,1,,,,,ヤシキョウイクカギ,0
143,1120001267344,新規,0,2024-08-01,2024-08-01,株式会社縁,,株式会社,大阪府,門真市,上野口町１１番４号,,27,223,5710070,,,,,,,2024-08-01,1,,,,,エニシ,0
146,1120003027192,新規,0,2024-08-01,2024-08-01,合同会社ヴィオライフ,,合同会社,大阪府,大阪市淀川区,宮原１丁目１６番２号,,27,123,5320003,,,,,,,2024-08-01,1,,,,,ヴィオライフ,0
148,1120101070053,新規,0,2024-08-01,2024-08-01,株式会社Ｘ　ＵＮＩＴＥ,,株式会社,大阪府,泉佐野市,南中安松１６９８番地の１,,27,213,5980033,,,,,,,2024-08-01,1,,,,,クロスユナイト,0
149,1120101070061,新規,0,2024-08-01,2024-08-01,株式会社板東建設,,株式会社,大阪府,堺市北区,東上野芝町２丁３７９－２,,27,146,5918035,,,,,,,2024-08-01,1,,,,,バンドウケンセツ,0
150,1120101070078,新規,0,2024-08-01,2024-08-01,株式会社ＨＡＲＵＫＩ,,株式会社,大阪府,堺市堺区,翁橋町１丁２－５ＫＥＩＢＵＩＬＤＩＮＧ１階Ａ,,27,141,5900061,,,,,,,2024-08-01,1,,,,,ハルキ,0
151,1120103005965,新規,0,2024-08-01,2024-08-01,山本商事合同会社,,合同会社,大阪府,泉南市,信達市場１０４３－１－１０３,,27,228,5900504,,,,,,,2024-08-01,1,,,,,ヤマモトショウジ,0
152,1120103005973,新規,0,2024-08-01,2024-08-01,合同会社Ｍｉｄｗｉｆｅ　Ｃａｒｅｐｌｕｓ,,合同会社,大阪府,堺市中区,陶器北１１３７番地,,27,142,5998242,,,,,,,2024-08-01,1,,,,,ミッドワイフケアプラス,0
156,1120901049528,新規,0,2024-08-01,2024-08-01,株式会社ＭＵＳＩＡＬ　ＤＥＳＩＧＮ,,株式会社,大阪府,吹田市,五月が丘東２番Ｃ－７０５号,,27,205,5650831,,,,,,,2024-08-01,1,,,,,ミュージアルデザイン,0
157,1120901049536,新規,0,2024-08-01,2024-08-01,コージーコネクト株式会社,,株式会社,大阪府,豊中市,曽根東町１丁目１番３０号,,27,203,5610802,,,,,,,2024-08-01,1,,,,,コージーコネクト,0
158,1120903005289,新規,0,2024-08-01,2024-08-01,合同会社ＳＥＡＬＳ,,合同会社,大阪府,豊中市,新千里南町２丁目３番２８－３０２号,,27,203,5600084,,,,,,,2024-08-01,1,,,,,シールズ,0
162,1130001077585,新規,0,2024-08-01,2024-08-01,株式会社タクサンド,,株式会社,京都府,京都市中京区,御幸町通御池上る亀屋町３９８番地１－１０１号室,,26,104,6040941,,,,,,,2024-08-01,1,,,,,タクサンド,0
163,1130003009727,新規,0,2024-08-01,2024-08-01,Ｓｐｉｒａｌｓ合同会社,,合同会社,京都府,京都市下京区,茶磨屋町２３６番地Ａ－Ｔｅｒｒａｃｅ４Ｂ,,26,106,6008045,,,,,,,2024-08-01,1,,,,,スパイラルズ,0
166,1140001135301,新規,0,2024-08-01,2024-08-01,株式会社ＲＹＵＴＥＣ,,株式会社,兵庫県,神戸市中央区,宮本通５丁目７－３,,28,110,6510063,,,,,,,2024-08-01,1,,,,,リューテック,0
167,1140001135342,新規,0,2024-08-01,2024-08-01,株式会社コネクト,,株式会社,兵庫県,西宮市,甲陽園西山町４番５３－１号,,28,204,6620017,,,,,,,2024-08-01,1,,,,,コネクト,0
168,1140001135359,新規,0,2024-08-01,2024-08-01,株式会社ビジラボ,,株式会社,兵庫県,神戸市中央区,江戸町１０４番,,28,110,6500033,,,,,,,2024-08-01,1,,,,,,0
169,1140001135367,新規,0,2024-08-01,2024-08-01,株式会社アンダードッグ,,株式会社,兵庫県,加古川市,平岡町新在家２丁目２６８番地の１２セピアハウス１階,,28,210,6750101,,,,,,,2024-08-01,1,,,,,アンダードッグ,0
171,1140003020889,新規,0,2024-08-01,2024-08-01,合同会社エムエスマネジメント,,合同会社,兵庫県,伊丹市,東有岡２丁目２１番地,,28,207,6640845,,,,,,,2024-08-01,1,,,,,エムエスマネジメント,0
172,1140003020906,新規,0,2024-08-01,2024-08-01,ＬｉｎｋｓＡＩ合同会社,,合同会社,兵庫県,神戸市中央区,磯上通８丁目１番２９号カサベラビルＣ＆Ｍ４０３号室,,28,110,6510086,,,,,,,2024-08-01,1,,,,,リンクスエーアイ,0
174,1140005027172,新規,0,2024-08-01,2024-08-01,一般社団法人伊勢庭燎奉仕の会,,その他の設立登記法人,兵庫県,神戸市中央区,東川崎町１丁目７番４号,,28,110,6500044,,,,,,,2024-08-01,1,,,,,イセテイリョウホウシノカイ,0
177,1160003003256,新規,0,2024-08-01,2024-08-01,合同会社ｔｅｒａｉｔｅｉ,,合同会社,滋賀県,彦根市,本町１丁目１１番７号,,25,202,5220064,,,,,,,2024-08-01,1,,,,,テライテイ,0
184,1180001162548,新規,0,2024-08-01,2024-08-01,株式会社ＴＹＳ,,株式会社,愛知県,一宮市,浅野字西屋敷１３番地５,,23,203,4910871,,,,,,,2024-08-01,1,,,,,ティワイエス,0
185,1180001162597,新規,0,2024-08-01,2024-08-01,株式会社コタ,,株式会社,愛知県,小牧市,大字本庄２５８８番地１６,,23,219,4850821,,,,,,,2024-08-01,1,,,,,コタ,0
186,1180001162622,新規,0,2024-08-01,2024-08-01,株式会社Ｅｄｉｒ．,,株式会社,愛知県,名古屋市瑞穂区,彌富通１丁目４１番地,,23,108,4670064,,,,,,,2024-08-01,1,,,,,エディール,0
187,1180001162647,新規,0,2024-08-01,2024-08-01,株式会社エムエフサポート,,株式会社,愛知県,東海市,名和町池東６番地の７,,23,222,4760002,,,,,,,2024-08-01,1,,,,,エムエフサポート,0
189,1180003027138,新規,0,2024-08-01,2024-08-01,合同会社水輝アクティブライフ・パートナー,,合同会社,愛知県,春日井市,上条町１丁目１７６番地エクセル春日井２０５,,23,206,4860833,,,,,,,2024-08-01,1,,,,,ミズキアクティブライフパートナー,0
190,1180301038893,新規,0,2024-08-01,2024-08-01,株式会社Ｔ‐ｓｐａｃｅ,,株式会社,愛知県,岡崎市,稲熊町字８丁目８３番地,,23,202,4440071,,,,,,,2024-08-01,1,,,,,ティースペース,0
191,1190003004763,新規,0,2024-08-01,2024-08-01,ＨＡＹＡＢＵＳＡ合同会社,,合同会社,三重県,津市,美杉町下多気８２６番地,,24,201,5153311,,,,,,,2024-08-01,1,,,,,ハヤブサ,0
192,1200001042755,新規,0,2024-08-01,2024-08-01,株式会社ＳＳＫ,,株式会社,岐阜県,恵那市,長島町正家１２９番地５,,21,210,5097203,,,,,,,2024-08-01,1,,,,,エスエスケー,0
193,1200001042763,新規,0,2024-08-01,2024-08-01,広峯源株式会社,,株式会社,岐阜県,岐阜市,今嶺３丁目１０番２１号,,21,201,5008388,,,,,,,2024-08-01,1,,,,,コウホウゲン,0
194,1200001042771,新規,0,2024-08-01,2024-08-01,株式会社サンナチュレ,,株式会社,岐阜県,多治見市,小名田町西ケ洞１番地６４７,,21,204,5070007,,,,,,,2024-08-01,1,,,,,サンナチュレ,0
196,1210001019851,新規,0,2024-08-01,2024-08-01,株式会社成栄,,株式会社,福井県,坂井市,春江町中筋大手１１５番地１,,18,210,9190447,,,,,,,2024-08-01,1,,,,,セイエイ,0
210,1300001013853,新規,0,2024-08-01,2024-08-01,株式会社Ｆｕｓｅ　Ｏｎｅ,,株式会社,佐賀県,鳥栖市,立石町２０６６番地２,,41,203,8410075,,,,,,,2024-08-01,1,,,,,フューズワン,0
212,1310001019131,新規,0,2024-08-01,2024-08-01,株式会社ＣＨＥＥＥＮＵＴＳ,,株式会社,長崎県,東彼杵郡波佐見町,長野郷６０５番地１４,,42,323,8593725,,,,,,,2024-08-01,1,,,,,チーナッツ,0
215,1320001020617,新規,0,2024-08-01,2024-08-01,株式会社ＰＩＥＣＥ　ＦＩＬＭ,,株式会社,大分県,由布市,挾間町４７９番地１,,44,213,8795400,,,,,,,2024-08-01,1,,,,,ピースフィルム,0
216,1320003004436,新規,0,2024-08-01,2024-08-01,合同会社フロムツーコンサルティング,,合同会社,大分県,大分市,金池町２丁目４番６号九州電力大分ビル別館１階,,44,201,8700026,,,,,,,2024-08-01,1,,,,,フロムツーコンサルティング,0
222,1330003010490,新規,0,2024-08-01,2024-08-01,合同会社ラージクリーン,,合同会社,熊本県,熊本市東区,月出８丁目３‐６１ラージヒル月出１０６号,,43,102,8620920,,,,,,,2024-08-01,1,,,,,ラージクリーン,0
223,1340001026678,新規,0,2024-08-01,2024-08-01,カラルパートナーズ株式会社,,株式会社,鹿児島県,曽於郡大崎町,野方５９６０番地１,,46,468,8998313,,,,,,,2024-08-01,1,,,,,カラルパートナーズ,0
225,1360003014191,新規,0,2024-08-01,2024-08-01,後一興業合同会社,,合同会社,沖縄県,うるま市,字兼箇段１０９５番地,,47,213,9042241,,,,,,,2024-08-01,1,,,,,ゴイチコウギョウ,0
229,1370001051582,新規,0,2024-08-01,2024-08-01,株式会社瑞穂,,株式会社,宮城県,塩竈市,白菊町４番６号,,04,203,9850041,,,,,,,2024-08-01,1,,,,,ミズホ,0
230,1370003006700,新規,0,2024-08-01,2024-08-01,合同会社Ｂｒｉｌｌｅｒ,,合同会社,宮城県,仙台市青葉区,吉成１丁目３番１６号ディアコートＥｎｄｏ１０１,,04,101,9893205,,,,,,,2024-08-01,1,,,,,ブリエ,0
233,1390003002268,新規,0,2024-08-01,2024-08-01,合同会社ｇｒａｘｉ,,合同会社,山形県,天童市,南小畑５丁目２番２０号,,06,210,9940081,,,,,,,2024-08-01,1,,,,,グラシー,0
237,1410003003965,新規,0,2024-08-01,2024-08-01,合同会社ｓｏｒｅｎｅ,,合同会社,秋田県,秋田市,茨島４丁目１７―１１,,05,201,0100065,,,,,,,2024-08-01,1,,,,,ソレネ,0
241,1430001092356,新規,0,2024-08-01,2024-08-01,株式会社ＢＬＵＥ　ＳＫＹ，ｌｔｄ．,,株式会社,北海道,余市郡仁木町,西町２丁目２０番地１,,01,407,0482406,,,,,,,2024-08-01,1,,,,,ブルースカイリミテッド,0
242,1430001092364,新規,0,2024-08-01,2024-08-01,Ａｂｉ株式会社,,株式会社,北海道,苫小牧市,拓勇東町４丁目３番２２号,,01,213,0591303,,,,,,,2024-08-01,1,,,,,アビィ,0
243,1430003016619,新規,0,2024-08-01,2024-08-01,ｐｌａｎ．Ｂ合同会社,,合同会社,北海道,伊達市,鹿島町４６番地１エイエムコート市役所通館Ａ－１,,01,233,0520024,,,,,,,2024-08-01,1,,,,,,0
244,1430003016635,新規,0,2024-08-01,2024-08-01,ＧＮコネクト合同会社,,合同会社,北海道,札幌市北区,拓北八条１丁目６番１号,,01,102,0028068,,,,,,,2024-08-01,1,,,,,ジーエヌコネクト,0
246,1450001014374,新規,0,2024-08-01,2024-08-01,株式会社シリ,,株式会社,北海道,利尻郡利尻町,沓形字富士見町１３４番地,,01,518,0970401,,,,,,,2024-08-01,1,,,,,シリ,0
250,1470001020313,新規,0,2024-08-01,2024-08-01,株式会社Ｂｕｄｄｉｅｓ,,株式会社,香川県,坂出市,西庄町７１４番地－２Ｆ,,37,203,7620021,,,,,,,2024-08-01,1,,,,,バディーズ,0
251,1470003002689,新規,0,2024-08-01,2024-08-01,合同会社すこやかライフ,,合同会社,香川県,高松市,屋島西町２４８４番地１８ウエストコーストヤシマＢ－１０６,,37,201,7610113,,,,,,,2024-08-01,1,,,,,スコヤカライフ,0
253,1500001025787,新規,0,2024-08-01,2024-08-01,Ｒｅｄｇｅ株式会社,,株式会社,愛媛県,松山市,北吉田町２１０番地１メゾンＩ・１０１号,,38,201,7918041,,,,,,,2024-08-01,1,,,,,レッジ,0
254,1500005008722,新規,0,2024-08-01,2024-08-01,社会保険労務士法人木原事務所,,その他の設立登記法人,愛媛県,今治市,桜井５丁目１１番３９号,,38,202,7991522,,,,,,,2024-08-01,1,,,,,キハラジムショ,0
259,2010001247075,新規,0,2024-08-01,2024-08-01,ＮＳＴ株式会社,,株式会社,東京都,中央区,銀座１丁目１２番４号Ｎ＆ＥＢＬＤ．６Ｆ,,13,102,1040061,,,,,,,2024-08-01,1,,,,,エヌエスティー,0
260,2010001247100,新規,0,2024-08-01,2024-08-01,ブレイブフィナンシャルグループ株式会社,,株式会社,東京都,中央区,日本橋小舟町９番１８号,,13,102,1030024,,,,,,,2024-08-01,1,,,,,ブレイブフィナンシャルグループ,0
261,2010001247117,新規,0,2024-08-01,2024-08-01,モアカラ株式会社,,株式会社,東京都,中央区,日本橋室町１丁目１１番１２号日本橋水野ビル７階,,13,102,1030022,,,,,,,2024-08-01,1,,,,,モアカラ,0
262,2010001247125,新規,0,2024-08-01,2024-08-01,エキト株式会社,,株式会社,東京都,中央区,日本橋室町１丁目１１番１２号日本橋水野ビル７階,,13,102,1030022,,,,,,,2024-08-01,1,,,,,エキト,0
263,2010001247141,新規,0,2024-08-01,2024-08-01,株式会社津賀洋輔建築事務所,,株式会社,東京都,中央区,日本橋浜町２丁目１８‐５藤光ビル２Ｆ,,13,102,1030007,,,,,,,2024-08-01,1,,,,,ツガヨウスケケンチクジムショ,0
269,2010003044446,新規,0,2024-08-01,2024-08-01,合同会社ｓｍａｌｌ　ａＣｈｉＥｖｅｍｅｎｔＳ,,合同会社,東京都,中央区,八重洲２丁目１１番７号－新ビル６階,,13,102,1040028,,,,,,,2024-08-01,1,,,,,スモールアチーブメンツ,0
270,2010003044462,新規,0,2024-08-01,2024-08-01,Ａｒｃｍｉｘ合同会社,,合同会社,東京都,中央区,銀座１丁目１２番４号Ｎ＆ＥＢＬＤ．６Ｆ,,13,102,1040061,,,,,,,2024-08-01,1,,,,,アークミックス,0
271,2010003044479,新規,0,2024-08-01,2024-08-01,合同会社ブルーム・オクタゴン,,合同会社,東京都,文京区,根津１丁目１６番８－７０２号,,13,105,1130031,,,,,,,2024-08-01,1,,,,,ブルームオクタゴン,0
283,2010401184133,新規,0,2024-08-01,2024-08-01,アロア商店株式会社,,株式会社,東京都,港区,南麻布５丁目１４番４－５０２号,,13,103,1060047,,,,,,,2024-08-01,1,,,,,アロアショウテン,0
284,2010401184182,新規,0,2024-08-01,2024-08-01,株式会社グリーン・セルフメディケーション,,株式会社,東京都,港区,西麻布１丁目１１番１０号ビルマーサ２０４,,13,103,1060031,,,,,,,2024-08-01,1,,,,,グリーンセルフメディケーション,0
286,2010405023403,新規,0,2024-08-01,2024-08-01,一般社団法人全国障がい者雇用共生社会推進機構,,その他の設立登記法人,東京都,港区,六本木２丁目２番２号,,13,103,1060032,,,,,,,2024-08-01,1,,,,,ゼンコクショウガイシャコヨウキョウセイシャカイスイシンキコウ,0
290,2010601065645,新規,0,2024-08-01,2024-08-01,ＴＫＹ株式会社,,株式会社,東京都,江東区,木場５丁目６番３７号８０２,,13,108,1350042,,,,,,,2024-08-01,1,,,,,ティーケイワイ,0
295,2010701046339,新規,0,2024-08-01,2024-08-01,エクシブパートナーズ株式会社,,株式会社,東京都,品川区,東品川４丁目１０番１８－２３０２号,,13,109,1400002,,,,,,,2024-08-01,1,,,,,エクシブパートナーズ,0
297,2010705003658,新規,0,2024-08-01,2024-08-01,一般社団法人ＰＲＯＪＥＣＴ　ＫＩＲＩＬＯＬＡ　ＪＡＰＡＮ,,その他の設立登記法人,東京都,品川区,中延６丁目１番１７－３０２号,,13,109,1420053,,,,,,,2024-08-01,1,,,,,プロジェクトキリロラジャパン,0
298,2010801035282,新規,0,2024-08-01,2024-08-01,株式会社オフィス佐々喜,,株式会社,東京都,大田区,鵜の木３丁目１８番８号,,13,111,1460091,,,,,,,2024-08-01,1,,,,,オフィスササキ,0
299,2010801035290,新規,0,2024-08-01,2024-08-01,株式会社麗鈴,,株式会社,東京都,大田区,南雪谷５丁目２番１２号,,13,111,1450066,,,,,,,2024-08-01,1,,,,,レイリン,0
302,2010901055734,新規,0,2024-08-01,2024-08-01,株式会社Ｓｅｏｌｌｅ　Ｃｒｅａｔｉｖｅ,,株式会社,東京都,世田谷区,世田谷１丁目２９番１４号,,13,112,1540017,,,,,,,2024-08-01,1,,,,,ソルレクリエイティヴ,0
304,2011001163485,新規,0,2024-08-01,2024-08-01,株式会社Ｙｕｎｏｘ,,株式会社,東京都,渋谷区,円山町５番５号Ｎａｖｉ渋谷Ｖ３階,,13,113,1500044,,,,,,,2024-08-01,1,,,,,ユノックス,0
305,2011001163725,新規,0,2024-08-01,2024-08-01,Ｓｈａｒｅｈｏｌｄｅｒｓ　Ｃａｐｉｔａｌ株式会社,,株式会社,東京都,目黒区,自由が丘２丁目１６番１２号ＲＪ３,,13,110,1520035,,,,,,,2024-08-01,1,,,,,シェアホルダーズキャピタル,0
306,2011001163758,新規,0,2024-08-01,2024-08-01,株式会社大正舎,,株式会社,東京都,渋谷区,恵比寿西２丁目１２番１４号,,13,113,1500021,,,,,,,2024-08-01,1,,,,,タイセイシャ,0
307,2011001163799,新規,0,2024-08-01,2024-08-01,アセンド・クロス・パートナー株式会社,,株式会社,東京都,渋谷区,恵比寿４丁目２０番３号恵比寿ガーデンプレイスタワー１８階,,13,113,1500013,,,,,,,2024-08-01,1,,,,,アセンドクロスパートナー,0
308,2011101108266,新規,0,2024-08-01,2024-08-01,Ｔｒｅａｓｕｒｅ　Ｔｅｃｈ株式会社,,株式会社,東京都,新宿区,７－４－７イマス浜田ビル３Ｆ－Ｂ,,13,104,1600000,,,,,,,2024-08-01,1,,,,,トレジャーテック,0
311,2011201025683,新規,0,2024-08-01,2024-08-01,Ｐａｌｌａ　Ｒｅｎｏｖａ株式会社,,株式会社,東京都,中野区,東中野４丁目２０番１９号スターハイツ東中野３０２,,13,114,1640003,,,,,,,2024-08-01,1,,,,,パラリノベ,0
312,2011203004446,新規,0,2024-08-01,2024-08-01,合同会社ＹＵＵＵＵ,,合同会社,東京都,中野区,東中野５丁目７番３号ＳｏｃｉａｌＢａｓｅ東中野１０８,,13,114,1640003,,,,,,,2024-08-01,1,,,,,ユウ,0
314,2011303005245,新規,0,2024-08-01,2024-08-01,メディノーバ合同会社,,合同会社,東京都,杉並区,南荻窪１丁目４番１０‐７号,,13,115,1670052,,,,,,,2024-08-01,1,,,,,メディノーバ,0
315,2011501030986,新規,0,2024-08-01,2024-08-01,ＲｕＦ繊維株式会社,,株式会社,東京都,北区,王子５丁目１番１号－８０３,,13,117,1140002,,,,,,,2024-08-01,1,,,,,ルフセンイ,0
316,2011501030994,新規,0,2024-08-01,2024-08-01,ＧＡＵＳＳ株式会社,,株式会社,東京都,北区,田端新町１丁目７－１４ビズフィールド西日暮里１０４,,13,117,1140012,,,,,,,2024-08-01,1,,,,,ガウス,0
320,2011703003930,新規,0,2024-08-01,2024-08-01,合同会社ＫＩＦ,,合同会社,東京都,江戸川区,平井５丁目２８番３－２０１号,,13,123,1320035,,,,,,,2024-08-01,1,,,,,ケイアイエフ,0
325,2012301014031,新規,0,2024-08-01,2024-08-01,ロックウェルプロパティマネジメント株式会社,,株式会社,東京都,町田市,南成瀬３丁目９番地１,,13,209,1940045,,,,,,,2024-08-01,1,,,,,ロックウェルプロパティマネジメント,0
326,2012303002026,新規,0,2024-08-01,2024-08-01,エムケイ合同会社,,合同会社,東京都,町田市,金森２丁目３０番８号１Ｆ,,13,209,1940012,,,,,,,2024-08-01,1,,,,,エムケイ,0
329,2012801023374,新規,0,2024-08-01,2024-08-01,ＡＷＥＳＯＭｅ　ＦＵＴＵＲｅ株式会社,,株式会社,東京都,昭島市,東町１丁目１２番７号,,13,207,1960033,,,,,,,2024-08-01,1,,,,,オーサムフューチャー,0
330,2013301052921,新規,0,2024-08-01,2024-08-01,株式会社ナイトバンク,,株式会社,東京都,豊島区,南池袋１丁目１５－２３スクエアガーデン池袋３０８,,13,116,1710022,,,,,,,2024-08-01,1,,,,,ナイトバンク,0
334,2020001158288,新規,0,2024-08-01,2024-08-01,株式会社和感笑,,株式会社,神奈川県,横浜市鶴見区,平安町２丁目２８番地１ヨコハマアイランドガーデン１１１０,,14,101,2300031,,,,,,,2024-08-01,1,,,,,ワカンショウ,0
338,2020003026559,新規,0,2024-08-01,2024-08-01,合同会社ＦＵＴＵＲＥ．ＬＬＣ,,合同会社,神奈川県,横浜市神奈川区,金港町５－１４クアドリフォリオ８階,,14,102,2210056,,,,,,,2024-08-01,1,,,,,フューチャードットエルエルシー,0
340,2021001082817,新規,0,2024-08-01,2024-08-01,ＲＩＡＬＬ株式会社,,株式会社,神奈川県,伊勢原市,池端４７３番地の９,,14,214,2591144,,,,,,,2024-08-01,1,,,,,リオール,0
341,2021001082866,新規,0,2024-08-01,2024-08-01,ＦＦＡ株式会社,,株式会社,神奈川県,相模原市緑区,下九沢１４９７番地５,,14,151,2520134,,,,,,,2024-08-01,1,,,,,エフエフエー,0
346,2030001161613,新規,0,2024-08-01,2024-08-01,株式会社Ｒａｉｌｓ,,株式会社,埼玉県,朝霞市,溝沼６丁目５番１３－５０２号,00135759,11,227,3510023,,,,,,,2024-08-01,1,,,,,レイルズ,0
347,2030001161638,新規,0,2024-08-01,2024-08-01,株式会社五月女硝子製作所,,株式会社,埼玉県,新座市,新堀１丁目１４番１５－１４号,,11,230,3520032,,,,,,,2024-08-01,1,,,,,ソウトメガラスセイサクショ,0
348,2030001161646,新規,0,2024-08-01,2024-08-01,株式会社Ｂ　ＳＴＹＬＥ,,株式会社,埼玉県,川越市,大字笠幡４４５７－１ライオンズマンション川越笠幡１０９,,11,201,3501175,,,,,,,2024-08-01,1,,,,,ビースタイル,0
349,2030001161654,新規,0,2024-08-01,2024-08-01,株式会社ＩＮＳＡＡＦ,,株式会社,埼玉県,草加市,新栄４丁目１０００番地４－２－５０６,,11,221,3400056,,,,,,,2024-08-01,1,,,,,インサーフ,0
350,2030001161670,新規,0,2024-08-01,2024-08-01,Ａ‐ＴＲＹ株式会社,,株式会社,埼玉県,蓮田市,大字閏戸８４４番地６,,11,238,3490133,,,,,,,2024-08-01,1,,,,,エートライ,0
351,2030001161712,新規,0,2024-08-01,2024-08-01,株式会社フェーズアップ,,株式会社,埼玉県,桶川市,下日出谷西２丁目３番地の３－２０１号,,11,231,3630028,,,,,,,2024-08-01,1,,,,,フェーズアップ,0
352,2030001161720,新規,0,2024-08-01,2024-08-01,株式会社ココ・リフォーム,,株式会社,埼玉県,さいたま市西区,大字土屋１７４４番地１,,11,101,3310062,,,,,,,2024-08-01,1,,,,,ココリフォーム,0
353,2030001161729,新規,0,2024-08-01,2024-08-01,株式会社ＦｅＬｉＣｅ,,株式会社,埼玉県,川越市,南大塚４丁目１１番地３,,11,201,3501162,,,,,,,2024-08-01,1,,,,,フェリーチェ,0
359,2030003024784,新規,0,2024-08-01,2024-08-01,合同会社メディサイト９,,合同会社,埼玉県,さいたま市大宮区,桜木町１丁目１９５番地１,,11,103,3300854,,,,,,,2024-08-01,1,,,,,メディサイトナイン,0
360,2030003024818,新規,0,2024-08-01,2024-08-01,合同会社ＳＵＮＲＩＳＥ,,合同会社,埼玉県,越谷市,蒲生西町１丁目４番４４号ソレアードＢ２０３,,11,222,3430835,,,,,,,2024-08-01,1,,,,,サンライズ,0
361,2030003024826,新規,0,2024-08-01,2024-08-01,のん合同会社,,合同会社,埼玉県,蓮田市,東６丁目５番２１号,,11,238,3490111,,,,,,,2024-08-01,1,,,,,ノン,0
362,2030003024834,新規,0,2024-08-01,2024-08-01,Ｆｒｉｓｙｓ合同会社,,合同会社,埼玉県,上尾市,仲町１丁目７番２７号アークエイムビル７Ｆ,,11,219,3620035,,,,,,,2024-08-01,1,,,,,フリシス,0
374,2050003008579,新規,0,2024-08-01,2024-08-01,合同会社たいまつプロ,,合同会社,茨城県,つくば市,吾妻１丁目１０－１つくばセンタービル１Ｆｃｏ－ｅｎ内,,08,220,3050031,,,,,,,2024-08-01,1,,,,,タイマツプロ,0
380,2080001026407,新規,0,2024-08-01,2024-08-01,株式会社コンフィアンス,,株式会社,静岡県,静岡市葵区,東千代田３丁目８番１２‐１号,,22,101,4200801,,,,,,,2024-08-01,1,,,,,コンフィアンス,0
383,2110001038605,新規,0,2024-08-01,2024-08-01,株式会社Ｈａｒｕｎｏｈｉ,,株式会社,新潟県,刈羽郡刈羽村,大字下高町４８８番地１,,15,504,9450316,,,,,,,2024-08-01,1,,,,,ハルノヒ,0
385,2110003005470,新規,0,2024-08-01,2024-08-01,ＦＡＲＭ　ＢＬＥＳＳ合同会社,,合同会社,新潟県,南魚沼郡湯沢町,大字神立１３５６番地２ミナミハイツ５号,,15,461,9496102,,,,,,,2024-08-01,1,,,,,ファームブレス,0
392,2120001267228,新規,0,2024-08-01,2024-08-01,ワンゴウデザイン株式会社,,株式会社,大阪府,大阪市天王寺区,伶人町２－３１ＳｔａｒＯｆｆｉｃｅ大阪天王寺北８階８０８号室,,27,109,5430061,,,,,,,2024-08-01,1,,,,,ワンゴウデザイン,0
393,2120001267236,新規,0,2024-08-01,2024-08-01,株式会社Ｓ．Ｔ．Ｋ,,株式会社,大阪府,大阪市北区,豊崎５丁目７番地の１２,,27,127,5310072,,,,,,,2024-08-01,1,,,,,エスティーケー,0
394,2120001267252,新規,0,2024-08-01,2024-08-01,株式会社大福屋グループ,,株式会社,大阪府,大阪市中央区,心斎橋筋１丁目４番１２号,,27,128,5420085,,,,,,,2024-08-01,1,,,,,ダイフクヤグループ,0
395,2120001267277,新規,0,2024-08-01,2024-08-01,株式会社Ａｌｌｅ,,株式会社,大阪府,大阪市北区,神山町９－２４Ｊｙｕｍｅ神山７０６,,27,127,5300026,,,,,,,2024-08-01,1,,,,,アリー,0
396,2120001267319,新規,0,2024-08-01,2024-08-01,博納株式会社,,株式会社,大阪府,大阪市城東区,関目５丁目１９番９号関目花博公館６０６Ａ,,27,118,5360008,,,,,,,2024-08-01,1,,,,,ハクノウ,0
397,2120001267327,新規,0,2024-08-01,2024-08-01,通用工貿株式会社,,株式会社,大阪府,大阪市生野区,新今里３丁目４番１７号ＯＧビル１０３Ａ,,27,116,5440001,,,,,,,2024-08-01,1,,,,,ツウヨウコウボウ,0
398,2120001267335,新規,0,2024-08-01,2024-08-01,株式会社シー．エイチ,,株式会社,大阪府,大阪市東住吉区,矢田４丁目１２番１６号,,27,121,5460023,,,,,,,2024-08-01,1,,,,,シーエイチ,0
399,2120001267343,新規,0,2024-08-01,2024-08-01,ＤＩＭ株式会社,,株式会社,大阪府,大阪市福島区,吉野１丁目１９－２９,,27,103,5530006,,,,,,,2024-08-01,1,,,,,ディーアイエム,0
400,2120001267368,新規,0,2024-08-01,2024-08-01,株式会社川端工業,,株式会社,大阪府,門真市,大池町１４番３７－１００７号,,27,223,5710076,,,,,,,2024-08-01,1,,,,,カワバタコウギョウ,0
401,2120001267376,新規,0,2024-08-01,2024-08-01,ＰＩＡ株式会社,,株式会社,大阪府,大阪市西成区,花園南１丁目１０－５川ｈｏｕｓｅ花園南３－Ａ棟１０４室,,27,122,5570015,,,,,,,2024-08-01,1,,,,,ピーアイエー,0
404,2120003027167,新規,0,2024-08-01,2024-08-01,Ｓｏｐｈｉａ合同会社,,合同会社,大阪府,大阪市北区,本庄西３丁目１０－３－１１０８,,27,127,5310073,,,,,,,2024-08-01,1,,,,,ソフィア,0
405,2120003027175,新規,0,2024-08-01,2024-08-01,合同会社ＴＳＵＮＡＧＵ,,合同会社,大阪府,大阪市北区,曾根崎２丁目１６番１９号メッセージ梅田ビル１階ＯＮｔｈｅＵＭＥＤＡ内,,27,127,5300057,,,,,,,2024-08-01,1,,,,,ツナグ,0
406,2120003027183,新規,0,2024-08-01,2024-08-01,ＡＬＫ合同会社,,合同会社,大阪府,門真市,一番町１５番６号,,27,223,5710033,,,,,,,2024-08-01,1,,,,,アルク,0
411,2120005024451,新規,0,2024-08-01,2024-08-01,特定非営利活動法人レイ,,その他の設立登記法人,大阪府,大阪市東淀川区,豊里４丁目１２番６号,,27,114,5330013,,,,,,,2024-08-01,1,,,,,レイ,0
415,2120101070052,新規,0,2024-08-01,2024-08-01,株式会社エル・ピラーズ,,株式会社,大阪府,堺市中区,小阪２３２番地,,27,142,5998276,,,,,,,2024-08-01,1,,,,,エルピラーズ,0
416,2120101070069,新規,0,2024-08-01,2024-08-01,株式会社三晃,,株式会社,大阪府,富田林市,甲田４丁目７番１０号,,27,214,5840036,,,,,,,2024-08-01,1,,,,,サンコウ,0
419,2120901049527,新規,0,2024-08-01,2024-08-01,ＢＲＡＶＥ　ＰＡＴＨ　ＣＯＮＳＵＬＴＩＮＧ株式会社,,株式会社,大阪府,池田市,石橋３丁目８番２１号,,27,204,5630032,,,,,,,2024-08-01,1,,,,,ブレイブパスコンサルティング,0
420,2120901049535,新規,0,2024-08-01,2024-08-01,株式会社Ｎａｌｕ,,株式会社,大阪府,吹田市,西の庄町４番３８号,,27,205,5640071,,,,,,,2024-08-01,1,,,,,ナルー,0
421,2120901049543,新規,0,2024-08-01,2024-08-01,株式会社Ｖｉｍａ　Ｖｉｍａ,,株式会社,大阪府,茨木市,沢良宜東町５番１６－３０８号,,27,211,5670863,,,,,,,2024-08-01,1,,,,,ヴィマヴィマ,0
424,2122003002942,新規,0,2024-08-01,2024-08-01,合同会社Ｈ＆ＢＬ,,合同会社,大阪府,東大阪市,大蓮北２丁目１０番１５号,,27,227,5770826,,,,,,,2024-08-01,1,,,,,エイチアンドビーエル,0
425,2122005003773,新規,0,2024-08-01,2024-08-01,一般社団法人歓び,,その他の設立登記法人,大阪府,柏原市,平野１丁目７番１号,,27,221,5820019,,,,,,,2024-08-01,1,,,,,ヨロコビ,0
431,2130001077502,新規,0,2024-08-01,2024-08-01,株式会社尚,,株式会社,京都府,京都市中京区,中島町９０,,26,104,6048004,,,,,,,2024-08-01,1,,,,,ナオ,0
432,2130003009726,新規,0,2024-08-01,2024-08-01,Ｐｈａｎｔｏｍ　Ｔｒｏｕｐｅ合同会社,,合同会社,京都府,京都市下京区,茶磨屋町２３６番地Ａ－Ｔｅｒｒａｃｅ４Ｂ,,26,106,6008045,,,,,,,2024-08-01,1,,,,,ファントムトゥループ,0
435,2140001135300,新規,0,2024-08-01,2024-08-01,株式会社ＫＰ,,株式会社,兵庫県,川西市,久代１丁目２５番２７号,,28,217,6660024,,,,,,,2024-08-01,1,,,,,ケイピー,0
436,2140001135309,新規,0,2024-08-01,2024-08-01,株式会社修成建設,,株式会社,兵庫県,姫路市,広畑区長町２丁目１２３番地,,28,201,6711125,,,,,,,2024-08-01,1,,,,,シュウセイケンセツ,0
437,2140001135317,新規,0,2024-08-01,2024-08-01,蒜山オーガニックファーム株式会社,,株式会社,兵庫県,神戸市東灘区,西岡本１丁目１４番２０－３０３号,,28,101,6580073,,,,,,,2024-08-01,1,,,,,ヒルゼンオーガニックファーム,0
438,2140001135341,新規,0,2024-08-01,2024-08-01,Ｍ２Ｃ株式会社,,株式会社,兵庫県,明石市,大明石町１丁目１２番３号ヴェルビュ明石駅前１２０５号室,,28,203,6730891,,,,,,,2024-08-01,1,,,,,エムツーシー,0
439,2140001135366,新規,0,2024-08-01,2024-08-01,株式会社ブラックオーシャン,,株式会社,兵庫県,尼崎市,武庫之荘３丁目４番１８号,,28,202,6610035,,,,,,,2024-08-01,1,,,,,ブラックオーシャン,0
458,2180003027129,新規,0,2024-08-01,2024-08-01,合同会社ＩＳ＆パートナーズ,,合同会社,愛知県,名古屋市名東区,上社１丁目４１０番地サンクレーア上社駅前４０４号,,23,115,4650025,,,,,,,2024-08-01,1,,,,,アイエスアンドパートナーズ,0
460,2180301038892,新規,0,2024-08-01,2024-08-01,輪和株式会社,,株式会社,愛知県,豊橋市,牛川通１丁目１８番地７フォンテーヌ００００２,,23,201,4400011,,,,,,,2024-08-01,1,,,,,リンワ,0
461,2180301038918,新規,0,2024-08-01,2024-08-01,ＤａｉｗａＮｅｏＴｅｃｈ株式会社,,株式会社,愛知県,豊橋市,下池町字長池１７番地９,,23,201,4410000,,,,,,,2024-08-01,1,,,,,ダイワネオテック,0
465,2200001042754,新規,0,2024-08-01,2024-08-01,株式会社今橋農場,,株式会社,岐阜県,本巣市,浅木２９８番地８,,21,218,5010475,,,,,,,2024-08-01,1,,,,,イマハシノウジョウ,0
466,2200001042762,新規,0,2024-08-01,2024-08-01,株式会社ＫＲＵＮＫ,,株式会社,岐阜県,本巣郡北方町,高屋１０４番地の１８,,21,421,5010458,,,,,,,2024-08-01,1,,,,,クランク,0
467,2200001042779,新規,0,2024-08-01,2024-08-01,株式会社グシテック,,株式会社,岐阜県,可児市,清水ケ丘６丁目３７番地,,21,214,5090248,,,,,,,2024-08-01,1,,,,,グシテック,0
468,2200003006451,新規,0,2024-08-01,2024-08-01,合同会社アップメント,,合同会社,岐阜県,岐阜市,菅生７丁目１番２２－２号,,21,201,5020914,,,,,,,2024-08-01,1,,,,,アップメント,0
470,2220001026136,新規,0,2024-08-01,2024-08-01,株式会社ＢｉｇＢａｍｂｏｏＧａｒａｇｅ,,株式会社,石川県,能美郡川北町,字土室西８番地８,,17,324,9231261,,,,,,,2024-08-01,1,,,,,ビックバンブーガレージ,0
489,2290801030751,新規,0,2024-08-01,2024-08-01,明軒株式会社,,株式会社,福岡県,北九州市小倉北区,黄金町一丁目３番１５号,,40,106,8020000,,,,,,,2024-08-01,1,,,,,メイケン,0
490,2300001013852,新規,0,2024-08-01,2024-08-01,株式会社ＶＥＲＳＥ,,株式会社,佐賀県,佐賀市,大和町大字尼寺１１１２番地１,,41,201,8400201,,,,,,,2024-08-01,1,,,,,ヴァース,0
491,2310001019130,新規,0,2024-08-01,2024-08-01,株式会社ＢＬＥＮＤ,,株式会社,長崎県,西彼杵郡時津町,浜田郷８２２番地３,,42,308,8512102,,,,,,,2024-08-01,1,,,,,ブレンド,0
493,2330001032305,新規,0,2024-08-01,2024-08-01,株式会社Ｔｅｎ不動産,,株式会社,熊本県,熊本市西区,横手４丁目５番６号,,43,103,8600046,,,,,,,2024-08-01,1,,,,,,0
497,2350001019110,新規,0,2024-08-01,2024-08-01,株式会社Ｓｈｉｎ．ｔｂｃ,,株式会社,宮崎県,小林市,北西方７０８６番地１０,,45,205,8860006,,,,,,,2024-08-01,1,,,,,シンティビィシィ,0
498,2350001019119,新規,0,2024-08-01,2024-08-01,株式会社大志,,株式会社,宮崎県,都城市,蔵原町８街区４号,,45,202,8850051,,,,,,,2024-08-01,1,,,,,タイシ,0
503,2370003006699,新規,0,2024-08-01,2024-08-01,合同会社ベル・ハッピー,,合同会社,宮城県,石巻市,泉町１丁目３番１９号,,04,202,9860832,,,,,,,2024-08-01,1,,,,,ベルハッピー,0
505,2380001034692,新規,0,2024-08-01,2024-08-01,株式会社ＭＵＳＴＡＦＡ　ＥＮＴＥＲＰＲＩＳＥ,,株式会社,福島県,郡山市,熱海町熱海４丁目２１６番地,,07,203,9631309,,,,,,,2024-08-01,1,,,,,ムスタファエンタプライズ,0
506,2380001034701,新規,0,2024-08-01,2024-08-01,株式会社オネスト・ワン,,株式会社,福島県,田村市,船引町船引字宮ノ前２０番地,,07,211,9634312,,,,,,,2024-08-01,1,,,,,オネストワン,0
509,2390001017696,新規,0,2024-08-01,2024-08-01,ＭＤ株式会社,,株式会社,山形県,山形市,七日町３丁目３番４３号,,06,201,9900042,,,,,,,2024-08-01,1,,,,,エムディー,0
512,2400003003305,新規,0,2024-08-01,2024-08-01,Ａｌｌｅｚ　Ｃｒｅｗ合同会社,,合同会社,岩手県,盛岡市,大通２丁目３番３号スギエビル６階,,03,201,0200022,,,,,,,2024-08-01,1,,,,,アレクルー,0
518,2410003003964,新規,0,2024-08-01,2024-08-01,ＳＡ‐２０２４Ｓｈｏｐ合同会社,,合同会社,秋田県,由利本荘市,石脇字下長老沼１４０番地５,,05,210,0150011,,,,,,,2024-08-01,1,,,,,エスエーニゼロニヨンショップ,0
519,2420001018815,新規,0,2024-08-01,2024-08-01,株式会社天翔総建,,株式会社,青森県,上北郡七戸町,字森ケ沢２１２番地４,,02,402,0392828,,,,,,,2024-08-01,1,,,,,テンショウソウケン,0
521,2430001092339,新規,0,2024-08-01,2024-08-01,ＥＺＯＧ株式会社,,株式会社,北海道,札幌市厚別区,厚別中央三条１丁目５番１９号,,01,108,0040053,,,,,,,2024-08-01,1,,,,,エゾッグ,0
523,2430003016618,新規,0,2024-08-01,2024-08-01,合同会社ＮＹ　Ｐｌａｎｎｉｎｇ,,合同会社,北海道,札幌市北区,屯田五条８丁目１－３７プリミエールノース１０５,,01,102,0020855,,,,,,,2024-08-01,1,,,,,エヌワイプランニング,0
528,2500001025778,新規,0,2024-08-01,2024-08-01,株式会社Ｍ＆Ｆ,,株式会社,愛媛県,松山市,西石井１丁目１番１２号,,38,201,7900931,,,,,,,2024-08-01,1,,,,,エムアンドエフ,0
529,2500001025786,新規,0,2024-08-01,2024-08-01,株式会社兵頭設備,,株式会社,愛媛県,宇和島市,明倫町４丁目７番３号,,38,203,7980068,,,,,,,2024-08-01,1,,,,,ヒョウドウセツビ,0
530,2700150126638,新規,0,2024-08-01,2024-08-01,Ｔａｉｙｕａｎ　Ｗｅｉ　Ｆａｎ　Ｔｒａｄｉｎｇ　Ｃｏ．Ｌｔｄ．,,外国会社等,,,,,,,,Ｓｈａｎｘｉｓｈｅｎｇｚｏｎｇｇａｉｓｈｉｆａｎｑｕ，Ｔａｉｙｕａｎｙａｎｇｑｕｙｕａｎｑｕ，Ｘｉｎｈｅｌｕ９ｈａｏ　ＸｉｎｈｅｋｅｊｉｙｕａｎｎａｎｌｏｕＰａ２０１，Ｔａｉｙｕａｎ，Ｓｈａｎｘｉ,,,,,,2024-08-01,1,,,,,タイユエンウエイファンシャーンマオヨウシエンゴーンスー,0
538,3010001246984,新規,0,2024-08-01,2024-08-01,株式会社パンルー商事,,株式会社,東京都,中央区,築地４丁目１４番１号モンテベルデ４０３,,13,102,1040045,,,,,,,2024-08-01,1,,,,,パンルーショウジ,0
539,3010001247025,新規,0,2024-08-01,2024-08-01,株式会社ブルーイーグルビルサービス,,株式会社,東京都,文京区,千駄木２丁目４８番１６号,,13,105,1130022,,,,,,,2024-08-01,1,,,,,ブルーイーグルビルサービス,0
540,3010001247074,新規,0,2024-08-01,2024-08-01,株式会社ＤＩ　Ｐａｒｔｎｅｒｓ,,株式会社,東京都,中央区,日本橋浜町３丁目８番９－６０２号,,13,102,1030007,,,,,,,2024-08-01,1,,,,,ディーアイパートナーズ,0
548,3010401184099,新規,0,2024-08-01,2024-08-01,株式会社山崎アドバイザリー,00135764,株式会社,東京都,港区,元麻布２丁目１番１３号,,13,103,1060046,,,,,,,2024-08-01,1,,,,,ヤマザキアドバイザリー,0
550,3010403032909,新規,0,2024-08-01,2024-08-01,合同会社１０Ｘエデュケーション,,合同会社,東京都,港区,南青山７丁目４－１９、６０２プリマリード南青山,,13,103,1070062,,,,,,,2024-08-01,1,,,,,テンエックスエデュケーション,0
555,3010601065669,新規,0,2024-08-01,2024-08-01,株式会社ＦＥＲ,,株式会社,東京都,江東区,大島６丁目１５番２－１５０４号,,13,108,1360072,,,,,,,2024-08-01,1,,,,,ファー,0
556,3010701046338,新規,0,2024-08-01,2024-08-01,株式会社ワーク・キャリアＮＹ,,株式会社,東京都,品川区,南大井６丁目２４番１４号第５下川ビル,,13,109,1400013,,,,,,,2024-08-01,1,,,,,ワークキャリアエヌワイ,0
557,3010801035281,新規,0,2024-08-01,2024-08-01,株式会社ＲＥＤＥＩＣ,,株式会社,東京都,大田区,下丸子３丁目２５番５号,,13,111,1460092,,,,,,,2024-08-01,1,,,,,レディック,0
561,3010901055725,新規,0,2024-08-01,2024-08-01,株式会社ケイアールジー,,株式会社,東京都,世田谷区,砧１丁目１７番２０－１０８号,,13,112,1570073,,,,,,,2024-08-01,1,,,,,ケイアールジー,0
562,3010903009258,新規,0,2024-08-01,2024-08-01,合同会社ＫＹファイナンシャルプランナー,,合同会社,東京都,世田谷区,深沢５丁目３２－５,,13,112,1580081,,,,,,,2024-08-01,1,,,,,ケーワイファイナンシャルプランナー,0
563,3010905004645,新規,0,2024-08-01,2024-08-01,一般社団法人日本小児診療多職種学会,,その他の設立登記法人,東京都,世田谷区,玉川台２丁目１２番３号,,13,112,1580096,,,,,,,2024-08-01,1,,,,,ニホンショウニシンリョウタショクシュガッカイ,0
570,3011101108257,新規,0,2024-08-01,2024-08-01,株式会社ＫＩＹＯＭＩ　ＭＩＫＵＮＩ,,株式会社,東京都,新宿区,四谷１丁目１５番地アーバンビルディングサカス８・Ｂ－１－１,,13,104,1600004,,,,,,,2024-08-01,1,,,,,キヨミミクニ,0
571,3011103014742,新規,0,2024-08-01,2024-08-01,合同会社ＹＵＫＩＥ,,合同会社,東京都,新宿区,市谷仲之町４番４６－２０２,,13,104,1620064,,,,,,,2024-08-01,1,,,,,ユキエ,0
572,3011105011110,新規,0,2024-08-01,2024-08-01,一般社団法人臨床医学イノベーション研究会,,その他の設立登記法人,東京都,新宿区,新宿１丁目１８番１０号カテリーナ柳通り７階,,13,104,1600022,,,,,,,2024-08-01,1,,,,,リンショウイガクイノベーションケンキュウカイ,0
573,3011201025682,新規,0,2024-08-01,2024-08-01,株式会社中野エフエム,,株式会社,東京都,中野区,中野４丁目１０－２－２Ｆ,,13,114,1640001,,,,,,,2024-08-01,1,,,,,ナカノエフエム,0
575,3011301029889,新規,0,2024-08-01,2024-08-01,デジタルパスエージェンシー株式会社,,株式会社,東京都,杉並区,永福２丁目４４番１号,,13,115,1680064,,,,,,,2024-08-01,1,,,,,デジタルパスエージェンシー,0
577,3011401026308,新規,0,2024-08-01,2024-08-01,株式会社Ｒｈｏｍｂ　Ｄｅｓｉｇｎ,,株式会社,東京都,板橋区,板橋３丁目１１番１号榎本ビル１０６号室,,13,119,1730004,,,,,,,2024-08-01,1,,,,,ロムデザイン,0
579,3011503006166,新規,0,2024-08-01,2024-08-01,ＭＵＴＳＵＢＩ合同会社,,合同会社,東京都,北区,豊島２丁目２６－２０,,13,117,1140003,,,,,,,2024-08-01,1,,,,,ムルビ,0
582,3011701027501,新規,0,2024-08-01,2024-08-01,株式会社ＭＯＭＯＳＵＮ,,株式会社,東京都,江戸川区,西葛西７丁目２９－１１,,13,123,1340088,,,,,,,2024-08-01,1,,,,,モモサン,0
586,3011703003921,新規,0,2024-08-01,2024-08-01,ＭＸ合同会社,,合同会社,東京都,江戸川区,小松川２丁目１０－１さくらマンション５１５号室,,13,123,1320034,,,,,,,2024-08-01,1,,,,,エムエックス,0
589,3011801044611,新規,0,2024-08-01,2024-08-01,株式会社ＬＩＢＥＴＩＶＥ,,株式会社,東京都,足立区,竹の塚３丁目５－７,,13,121,1210813,,,,,,,2024-08-01,1,,,,,リバティブ,0
594,3012303002025,新規,0,2024-08-01,2024-08-01,合同会社青山イノベーションパートナー,,合同会社,東京都,町田市,東玉川学園２丁目２１番１３号,,13,209,1940042,,,,,,,2024-08-01,1,,,,,アオヤマイノベーションパートナー,0
595,3012305002097,新規,0,2024-08-01,2024-08-01,一般社団法人ＭＡＫＥ　ＰＲＯＧＲＥＳＳ,,その他の設立登記法人,東京都,町田市,野津田町３７１１番地３,,13,209,1950063,,,,,,,2024-08-01,1,,,,,メークプログレス,0
597,3012803003472,新規,0,2024-08-01,2024-08-01,リフレイン合同会社,,合同会社,東京都,昭島市,朝日町２丁目４番６－１３号,,13,207,1960025,,,,,,,2024-08-01,1,,,,,リフレイン,0
603,3020001158279,新規,0,2024-08-01,2024-08-01,Ａｃｒｏ株式会社,,株式会社,神奈川県,横浜市港北区,日吉本町３丁目４１番２３号シャルマン日吉２０１号室,,14,109,2230062,,,,,,,2024-08-01,1,,,,,,0
604,3020001158460,新規,0,2024-08-01,2024-08-01,株式会社パルテール,,株式会社,神奈川県,川崎市高津区,諏訪１丁目９番２３号ポールメゾンＩＩ－３０１号室,00135766,14,134,2130004,,,,,,,2024-08-01,1,,,,,パルテール,0
608,3021001022532,新規,0,2024-08-01,2024-08-01,株式会社サニー化成,,株式会社,神奈川県,秦野市,上今川町７番１４号,,14,211,2570052,,,,,,,2024-08-01,1,,,,,サニーカセイ,0
611,3021001082840,新規,0,2024-08-01,2024-08-01,株式会社山口勉,,株式会社,神奈川県,小田原市,寿町４丁目１５番２７号,,14,206,2500002,,,,,,,2024-08-01,1,,,,,ヤマグチツトム,0
612,3021001082881,新規,0,2024-08-01,2024-08-01,株式会社神崎水産,,株式会社,神奈川県,厚木市,愛名１２５７番地５,,14,212,2430038,,,,,,,2024-08-01,1,,,,,カンザキスイサン,0
613,3021003014841,新規,0,2024-08-01,2024-08-01,ＺｅｎＮｅｓｔ合同会社,,合同会社,神奈川県,藤沢市,鵠沼松が岡２丁目１８番１２号,,14,205,2510038,,,,,,,2024-08-01,1,,,,,ゼンネスト,0
615,3030001161546,新規,0,2024-08-01,2024-08-01,ベクトルホールディングス株式会社,,株式会社,埼玉県,入間市,大字上藤沢６２５番地３,,11,225,3580013,,,,,,,2024-08-01,1,,,,,ベクトルホールディングス,0
616,3030001161645,新規,0,2024-08-01,2024-08-01,株式会社ＷＡＮ　ＮＥＳＳ,,株式会社,埼玉県,上尾市,日の出３丁目７－４,,11,219,3620032,,,,,,,2024-08-01,1,,,,,ワンネス,0
617,3030001161653,新規,0,2024-08-01,2024-08-01,株式会社Ｔ＆Ｔ,,株式会社,埼玉県,川口市,芝４丁目６番１７号２階,,11,203,3330866,,,,,,,2024-08-01,1,,,,,ティーアンドティー,0
618,3030001161661,新規,0,2024-08-01,2024-08-01,Ｗｈｉｔｅ　Ｓｋｅｔｃｈ株式会社,,株式会社,埼玉県,越谷市,南越谷１丁目２８７６番地１,,11,222,3430845,,,,,,,2024-08-01,1,,,,,ホワイトスケッチ,0
619,3030001161728,新規,0,2024-08-01,2024-08-01,株式会社Ｓｐｅｒａｌｕｃｅ,,株式会社,埼玉県,越谷市,越ヶ谷３丁目３－１６－２階,,11,222,3430813,,,,,,,2024-08-01,1,,,,,スペラルーチェ,0
620,3030003024817,新規,0,2024-08-01,2024-08-01,豊禾合同会社,,合同会社,埼玉県,八潮市,大字伊草３７７番地伊草団地１５号棟５０５号室,,11,234,3400806,,,,,,,2024-08-01,1,,,,,ユタカ,0
621,3030003024833,新規,0,2024-08-01,2024-08-01,合同会社もるく,,合同会社,埼玉県,さいたま市西区,宮前町６６１－２,,11,101,3310046,,,,,,,2024-08-01,1,,,,,モルク,0
623,3040001134724,新規,0,2024-08-01,2024-08-01,誠高ペイント株式会社,00135753,株式会社,千葉県,市川市,市川１丁目１７番１０号,,12,203,2720034,,,,,,,2024-08-01,1,,,,,セイコウペイント,0
624,3040001134773,新規,0,2024-08-01,2024-08-01,エターナルファースト株式会社,,株式会社,千葉県,千葉市花見川区,幕張町４丁目８０６番地２０,,12,102,2620032,,,,,,,2024-08-01,1,,,,,エターナルファースト,0
630,3050001055168,新規,0,2024-08-01,2024-08-01,株式会社Ｌｉｅｎ,,株式会社,茨城県,結城市,大字結城１３６５１オークビル４階西側,,08,207,3070001,,,,,,,2024-08-01,1,,,,,リアン,0
635,3080003003262,新規,0,2024-08-01,2024-08-01,ＡＺ　ＣＯＭＰＡＮＹ合同会社,,合同会社,静岡県,焼津市,小柳津４３２番１号,,22,212,4250073,,,,,,,2024-08-01,1,,,,,エーゼットカンパニー,0
636,3080401027342,新規,0,2024-08-01,2024-08-01,株式会社ｓｈｅ,,株式会社,静岡県,浜松市中央区,恒武町６８６番地ベラビータ１０３号,,22,138,4313108,,,,,,,2024-08-01,1,,,,,シー,0
637,3100003007665,新規,0,2024-08-01,2024-08-01,別荘サポート合同会社,,合同会社,長野県,北佐久郡軽井沢町,大字長倉１４１５,,20,321,3890111,,,,,,,2024-08-01,1,,,,,ベッソウサポート,0
638,3110001038604,新規,0,2024-08-01,2024-08-01,ＳＴ株式会社,,株式会社,新潟県,燕市,長渡３９８番地,,15,213,9591205,,,,,,,2024-08-01,1,,,,,エスティ,0
639,3110001038612,新規,0,2024-08-01,2024-08-01,株式会社Ｋｙｕｅｎ,,株式会社,新潟県,長岡市,宝５丁目１番地６,,15,202,9400016,,,,,,,2024-08-01,1,,,,,キュウエン,0
645,3120001267243,新規,0,2024-08-01,2024-08-01,株式会社オーケイ,,株式会社,大阪府,大阪市西成区,鶴見橋３丁目８番４３号,,27,122,5570031,,,,,,,2024-08-01,1,,,,,オーケイ,0
646,3120001267268,新規,0,2024-08-01,2024-08-01,テ株式会社,,株式会社,大阪府,大阪市住之江区,北島２丁目４番４－１１１０号,,27,125,5590014,,,,,,,2024-08-01,1,,,,,テ,0
647,3120001267318,新規,0,2024-08-01,2024-08-01,嘉華国際株式会社,,株式会社,大阪府,大阪市生野区,小路東６丁目８番１７号昭和エクセルビュー東大阪１０３－Ｇ１８,,27,116,5440003,,,,,,,2024-08-01,1,,,,,カカコクサイ,0
648,3120001267326,新規,0,2024-08-01,2024-08-01,椿商事株式会社,,株式会社,大阪府,大阪市福島区,福島２丁目１０番１９－９０７号メガロコープ福島,,27,103,5530003,,,,,,,2024-08-01,1,,,,,ツバキショウジ,0
649,3120001267350,新規,0,2024-08-01,2024-08-01,株式会社リアライズ,,株式会社,大阪府,大阪市中央区,谷町９丁目１番１８号アクセス谷町ビル３階,,27,128,5420012,,,,,,,2024-08-01,1,,,,,リアライズ,0
650,3120001267359,新規,0,2024-08-01,2024-08-01,株式会社ＢＲＩＤＧＥ　ＥＳＴ,,株式会社,大阪府,守口市,金田町６丁目２１番１２号,,27,209,5700011,,,,,,,2024-08-01,1,,,,,ブリッジエスト,0
651,3120001267367,新規,0,2024-08-01,2024-08-01,スイッチ株式会社,,株式会社,大阪府,大阪市北区,西天満４丁目１０番５号,,27,127,5300047,,,,,,,2024-08-01,1,,,,,スイッチ,0
652,3120001267400,新規,0,2024-08-01,2024-08-01,株式会社ハットリ設備工房,,株式会社,大阪府,枚方市,新之栄町２８番１１号,,27,210,5731166,,,,,,,2024-08-01,1,,,,,ハットリセツビコウボウ,0
654,3120003027174,新規,0,2024-08-01,2024-08-01,合同会社誠和電工,,合同会社,大阪府,寝屋川市,池田本町１０番５号,,27,215,5720030,,,,,,,2024-08-01,1,,,,,セイワデンコウ,0
655,3120003027208,新規,0,2024-08-01,2024-08-01,合同会社ＷＡＫＡＷＡ,,合同会社,大阪府,大阪市港区,八幡屋２丁目１番地３,,27,107,5520014,,,,,,,2024-08-01,1,,,,,ワカワ,0
659,3120901049542,新規,0,2024-08-01,2024-08-01,株式会社Ｔｏｙ　ｔｏｉ　ｔｏｉ,,株式会社,大阪府,吹田市,千里山西６丁目３２－３山本ハイツ３０３,,27,205,5650851,,,,,,,2024-08-01,1,,,,,トイトイトイ,0
661,3122001038310,新規,0,2024-08-01,2024-08-01,株式会社アルク,,株式会社,大阪府,東大阪市,瓜生堂１丁目９番４３－１２５号,,27,227,5780946,,,,,,,2024-08-01,1,,,,,アルク,0
662,3130001077526,新規,0,2024-08-01,2024-08-01,株式会社ガーベラ,,株式会社,京都府,京都市伏見区,下鳥羽南柳長町３番地ポルテやました１階東,,26,109,6128490,,,,,,,2024-08-01,1,,,,,ガーベラ,0
663,3140001135290,新規,0,2024-08-01,2024-08-01,Ｇｒｏｗｖｅｒ株式会社,,株式会社,兵庫県,加西市,鶉野町４４番地,,28,220,6752103,,,,,,,2024-08-01,1,,,,,グローバー,0
664,3140001135316,新規,0,2024-08-01,2024-08-01,株式会社コネクトハーツ,,株式会社,兵庫県,姫路市,青山西２丁目２６番１４号インタービレッジ青山三番館Ｂ,,28,201,6712224,,,,,,,2024-08-01,1,,,,,コネクトハーツ,0
665,3140001135357,新規,0,2024-08-01,2024-08-01,株式会社Ｃ．ＢｒｉｌＬｅＲ,,株式会社,兵庫県,神戸市西区,井吹台北町４丁目７番地の２２,,28,111,6512244,,,,,,,2024-08-01,1,,,,,シーブリエール,0
670,3150001027462,新規,0,2024-08-01,2024-08-01,富音株式会社,,株式会社,奈良県,大和郡山市,今国府町７６０番地２５,,29,203,6391031,,,,,,,2024-08-01,1,,,,,トオン,0
671,3160001026100,新規,0,2024-08-01,2024-08-01,一銘株式会社,,株式会社,滋賀県,甲賀市,信楽町長野１３７２番地の１,,25,209,5291851,,,,,,,2024-08-01,1,,,,,イチメイ,0
674,3180001162463,新規,0,2024-08-01,2024-08-01,株式会社ＡＴＭ,,株式会社,愛知県,名古屋市千種区,東明町１丁目３１番地,,23,101,4640028,,,,,,,2024-08-01,1,,,,,エーティーエム,0
680,3180301038917,新規,0,2024-08-01,2024-08-01,株式会社丸真,,株式会社,愛知県,蒲郡市,形原町計後家２６番地３,,23,214,4430104,,,,,,,2024-08-01,1,,,,,マルシン,0
681,3180303006211,新規,0,2024-08-01,2024-08-01,合同会社Ｎｅｗ　Ｈｏｐｅ,,合同会社,愛知県,刈谷市,住吉町５丁目３番地,,23,210,4480852,,,,,,,2024-08-01,1,,,,,ニューホープ,0
683,3200001042753,新規,0,2024-08-01,2024-08-01,株式会社ＦｕｎＦａｃｔｏｒｙ,,株式会社,岐阜県,本巣市,仏生寺４６８番地１,,21,218,5010407,,,,,,,2024-08-01,1,,,,,ファンファクトリー,0
684,3200001042761,新規,0,2024-08-01,2024-08-01,株式会社ＡＩＭＨＩＧＨ,,株式会社,岐阜県,多治見市,姫町６丁目３番地の６,,21,204,5070061,,,,,,,2024-08-01,1,,,,,エイムハイ,0
685,3200001042778,新規,0,2024-08-01,2024-08-01,株式会社エイト,,株式会社,岐阜県,岐阜市,長住町８丁目２４番地アシスト第２岐阜マンション４０１,,21,201,5008175,,,,,,,2024-08-01,1,,,,,エイト,0
686,3200003006450,新規,0,2024-08-01,2024-08-01,合同会社ＮＥＯトレ,,合同会社,岐阜県,大垣市,大井３丁目５４番地１,,21,202,5030836,,,,,,,2024-08-01,1,,,,,ネオトレ,0
687,3210003001822,新規,0,2024-08-01,2024-08-01,合同会社Ｙ・Ｔ・Ｋ,,合同会社,福井県,敦賀市,元町８番２２号,,18,202,9140076,,,,,,,2024-08-01,1,,,,,ワイティーケー,0
693,3240001063622,新規,0,2024-08-01,2024-08-01,株式会社ミールフ,,株式会社,広島県,広島市中区,白島北町１０番１１号,,34,101,7300001,,,,,,,2024-08-01,1,,,,,ミールフ,0
698,3250001020754,新規,0,2024-08-01,2024-08-01,美光株式会社,,株式会社,山口県,下関市,綾羅木本町６丁目１０番２１号Ａ棟１０４Ａ,,35,201,7510849,,,,,,,2024-08-01,1,,,,,ビコウ,0
706,3310001019146,新規,0,2024-08-01,2024-08-01,株式会社ＷＯＯＤ　ＶＩＬＬＡＧＥ,,株式会社,長崎県,佐世保市,日宇町２８９９番地２,,42,202,8571151,,,,,,,2024-08-01,1,,,,,ウッドヴィレッジ,0
712,3330001032312,新規,0,2024-08-01,2024-08-01,株式会社ＴＴＴ,,株式会社,熊本県,熊本市東区,小山７丁目１０番５６号,,43,102,8618045,,,,,,,2024-08-01,1,,,,,ティーティーティー,0
714,3330003010489,新規,0,2024-08-01,2024-08-01,合同会社ＴＹＫ‐Ｍａｎａｇｅｍｅｎｔ,,合同会社,熊本県,熊本市中央区,帯山３丁目１８‐１２ラージヒル帯山２Ｆ,,43,101,8620924,,,,,,,2024-08-01,1,,,,,ティワイケイマネジメント,0
716,3340001026684,新規,0,2024-08-01,2024-08-01,株式会社トレストサービス,,株式会社,鹿児島県,出水市,米ノ津町３２番４５号,,46,208,8990121,,,,,,,2024-08-01,1,,,,,トレストサービス,0
718,3360001034009,新規,0,2024-08-01,2024-08-01,株式会社ＢＯＴＡＮ,,株式会社,沖縄県,島尻郡南風原町,字照屋８８番地,,47,350,9011116,,,,,,,2024-08-01,1,,,,,ボタン,0
720,3370003006698,新規,0,2024-08-01,2024-08-01,合同会社Ｂｏｔｉｃａ,,合同会社,宮城県,仙台市泉区,南中山３丁目１８番地の１０,,04,105,9813213,,,,,,,2024-08-01,1,,,,,ボティカ,0
721,3370003006707,新規,0,2024-08-01,2024-08-01,合同会社ゼロセンス,,合同会社,宮城県,仙台市若林区,六丁の目中町１７－４１,,04,103,9840012,,,,,,,2024-08-01,1,,,,,ゼロセンス,0
725,3380001034700,新規,0,2024-08-01,2024-08-01,株式会社イーグルフライト,,株式会社,福島県,いわき市,内郷高野町川平５０番地１,,07,204,9738406,,,,,,,2024-08-01,1,,,,,イーグルフライト,0
727,3380003005831,新規,0,2024-08-01,2024-08-01,合同会社ＹＯＬＯｓ,,合同会社,福島県,福島市,新町２－１５ガイアスビル２Ｆ,,07,201,9608036,,,,,,,2024-08-01,1,,,,,ヨロズ,0
740,3420001018814,新規,0,2024-08-01,2024-08-01,株式会社齋栄,,株式会社,青森県,弘前市,大字元寺町４０番地,,02,202,0368355,,,,,,,2024-08-01,1,,,,,サイエイ,0
743,3430001092354,新規,0,2024-08-01,2024-08-01,株式会社Ｏｔａｒｕａｒｃｈ,,株式会社,北海道,小樽市,朝里２丁目１番５号,,01,203,0470151,,,,,,,2024-08-01,1,,,,,オタルアーチ,0
744,3430001092362,新規,0,2024-08-01,2024-08-01,株式会社ＩＳ商会,,株式会社,北海道,札幌市東区,伏古四条２丁目１番１０－４０６号,,01,103,0070864,,,,,,,2024-08-01,1,,,,,アイエスショウカイ,0
745,3430001092370,新規,0,2024-08-01,2024-08-01,株式会社ｏｍｉｃｏｓｈｉ,,株式会社,北海道,札幌市西区,発寒八条７丁目７－３,,01,107,0630828,,,,,,,2024-08-01,1,,,,,オミコシ,0
748,3430003016625,新規,0,2024-08-01,2024-08-01,合同会社アムール,,合同会社,北海道,札幌市手稲区,曙五条３丁目１５番２５号曙５３－２０５Ａ,,01,109,0060835,,,,,,,2024-08-01,1,,,,,アムール,0
749,3430003016641,新規,0,2024-08-01,2024-08-01,Ｅｎｔｒａｉｄｅ合同会社,,合同会社,北海道,札幌市中央区,南四条西８丁目７番地１シティハウス資生館前９０３号,,01,101,0640804,,,,,,,2024-08-01,1,,,,,アントレド,0
750,3430005015039,新規,0,2024-08-01,2024-08-01,一般社団法人ＮＥＸｎｏｔｅ,,その他の設立登記法人,北海道,札幌市中央区,南一条西８丁目１３番２号第２スカイビル８階,,01,101,0600061,,,,,,,2024-08-01,1,,,,,ネクスノート,0
752,3440001009472,新規,0,2024-08-01,2024-08-01,太平洋スキャロップ株式会社,,株式会社,北海道,北斗市,七重浜８丁目７番１０号,,01,236,0490111,,,,,,,2024-08-01,1,,,,,タイヘイヨウスキャロップ,0
762,3500001025777,新規,0,2024-08-01,2024-08-01,株式会社源捌,,株式会社,愛媛県,松山市,北斎院町６０９番地,,38,201,7918031,,,,,,,2024-08-01,1,,,,,ゲンパチ,0
763,3500001025785,新規,0,2024-08-01,2024-08-01,Ｈｉｓａｋｉ株式会社,,株式会社,愛媛県,今治市,小泉３丁目４番２０号ロイヤルシティマンション５０５号,,38,202,7940064,,,,,,,2024-08-01,1,,,,,ヒサキ,0
764,3700150126637,新規,0,2024-08-01,2024-08-01,ｇｕａｎｇｚｈｏｕｍｅｎｇｚｈａｎｍａｏｙｉｙｏｕｘｉａｎｇｏｎｇｓｉ,,外国会社等,,,,,,,,Ｎｏ．１８－５，Ｊｉｘｉａｎ　Ｓｔｒｅｅｔ，Ｙｏｎｇｔａｉ　５０６Ａ，Ｘｉｎｈａｉ　Ｃｕｌｔｕｒａｌ　ａｎｄ　Ｃｒｅａｔｉｖｅ　Ｐａｒｋ，Ｂａｉｙｕｎ　Ｄｉｓｔｒｉｃｔ，Ｇｕａｎｇｚｈｏｕ,,,,,,2024-08-01,1,,,,,グワーンジョウムオンジャンマオイーヨウシエンゴーンスー,0
767,4010001246959,新規,0,2024-08-01,2024-08-01,青海エネルギーみらい株式会社,,株式会社,東京都,千代田区,内幸町２丁目１－１飯野ビルディング９階,,13,101,1000011,,,,,,,2024-08-01,1,,,,,アオウミエネルギーミライ,0
768,4010001247008,新規,0,2024-08-01,2024-08-01,株式会社ｎｉｌｋｌｏｐｓ,,株式会社,東京都,中央区,銀座１丁目１２番４号Ｎ＆ＥＢＬＤ．６Ｆ,,13,102,1040061,,,,,,,2024-08-01,1,,,,,ニルクロプス,0
769,4010001247057,新規,0,2024-08-01,2024-08-01,株式会社エンブリオ,,株式会社,東京都,中央区,銀座１丁目１２－４Ｎ＆ＥＢＬＤ．７階,,13,102,1040061,,,,,,,2024-08-01,1,,,,,エンブリオ,0
770,4010001247065,新規,0,2024-08-01,2024-08-01,Ｐｈｏｅｎｉｘ　ｂｏｄｙ　ｌａｂ株式会社,,株式会社,東京都,中央区,銀座２丁目１４番１４－７０８号,,13,102,1040061,,,,,,,2024-08-01,1,,,,,フェニックスボディラボ,0
773,4010003044477,新規,0,2024-08-01,2024-08-01,合同会社ＡＬＰＡＴＨＯＳ,,合同会社,東京都,中央区,銀座１丁目１６番７号銀座大栄ビル５Ｆ,,13,102,1040061,,,,,,,2024-08-01,1,,,,,アルパトス,0
774,4010003044502,新規,0,2024-08-01,2024-08-01,マキ産業医事務所合同会社,,合同会社,東京都,文京区,本駒込１丁目１５番２号,,13,105,1130021,,,,,,,2024-08-01,1,,,,,マキサンギョウイジムショ,0
775,4010103002401,新規,0,2024-08-01,2024-08-01,＿永合同会社,00135770,合同会社,東京都,八王子市,絹ケ丘１丁目４４番２－１０１号,,13,201,1920912,,,,,,,2024-08-01,1,,,,,シンヨウ,0
780,4010401184115,新規,0,2024-08-01,2024-08-01,株式会社ＹＯ０１,,株式会社,東京都,港区,赤坂１丁目１４番５号,,13,103,1070052,,,,,,,2024-08-01,1,,,,,ワイオーゼロワン,0
781,4010401184189,新規,0,2024-08-01,2024-08-01,ＷＹ保険サービス株式会社,,株式会社,東京都,港区,赤坂３丁目２番８号ＶＯＲＴ赤坂見附ＩＩ６階,00135756,13,103,1070052,,,,,,,2024-08-01,1,,,,,ダブルワイホケンサービス,0
785,4010403033154,新規,0,2024-08-01,2024-08-01,合同会社Ｓｅａｎｃｈａｓ,,合同会社,東京都,港区,六本木７丁目５番１１号カサグランデミワ６０１,,13,103,1060032,,,,,,,2024-08-01,1,,,,,シャナス,0
791,4010603011001,新規,0,2024-08-01,2024-08-01,合同会社Ｂ＆Ａ,,合同会社,東京都,江東区,冬木１７番３号,,13,108,1350041,,,,,,,2024-08-01,1,,,,,ビーアンドエー,0
793,4010703007287,新規,0,2024-08-01,2024-08-01,合同会社ユウリ,,合同会社,東京都,品川区,南大井６丁目５番１２号,,13,109,1400013,,,,,,,2024-08-01,1,,,,,ユウリ,0
794,4010801035289,新規,0,2024-08-01,2024-08-01,Ｒｏｃｋｐｉｌｅ株式会社,,株式会社,東京都,大田区,大森北１丁目１２番３号,,13,111,1430016,,,,,,,2024-08-01,1,,,,,ロックパイル,0
798,4010901055724,新規,0,2024-08-01,2024-08-01,株式会社ＲＩＳＥ,,株式会社,東京都,世田谷区,梅丘１丁目２７番５号,,13,112,1540022,,,,,,,2024-08-01,1,,,,,ライズ,0
799,4010903009257,新規,0,2024-08-01,2024-08-01,合同会社ゆいまーる,,合同会社,東京都,世田谷区,大原１丁目４６番２号松浦方３号室,,13,112,1560041,,,,,,,2024-08-01,1,,,,,ユイマール,0
806,4011001163112,新規,0,2024-08-01,2024-08-01,株式会社エベ,,株式会社,東京都,渋谷区,渋谷２丁目１９－１５宮益坂ビルディング６０９,,13,113,1500002,,,,,,,2024-08-01,1,,,,,エベ,0
807,4011001163797,新規,0,2024-08-01,2024-08-01,ｍｏｒｅパワー株式会社,,株式会社,東京都,渋谷区,千駄ヶ谷３丁目１１番８号,,13,113,1510051,,,,,,,2024-08-01,1,,,,,モアパワー,0
808,4011003019667,新規,0,2024-08-01,2024-08-01,合同会社Ｒｅｇｕｌｕｓ　Ｊａｐａｎ,,合同会社,東京都,渋谷区,神泉町１０番１５号アネックス神泉３０１,,13,113,1500045,,,,,,,2024-08-01,1,,,,,レグルスジャパン,0
812,4011103014733,新規,0,2024-08-01,2024-08-01,松山合同会社,,合同会社,東京都,新宿区,西新宿４丁目２５－１６後藤マンション２０１号室,,13,104,1600023,,,,,,,2024-08-01,1,,,,,マツヤマ,0
813,4011103014758,新規,0,2024-08-01,2024-08-01,合同会社ＩＩＯＩ,,合同会社,東京都,新宿区,西新宿３丁目３番１３号西新宿水間ビル２Ｆ,,13,104,1600023,,,,,,,2024-08-01,1,,,,,アイアイオーアイ,0
817,4011301029888,新規,0,2024-08-01,2024-08-01,株式会社ｍａｔａｋｉｓｏ,,株式会社,東京都,杉並区,高円寺南２丁目２１番１０号,,13,115,1660003,,,,,,,2024-08-01,1,,,,,マタキソウ,0
818,4011401026307,新規,0,2024-08-01,2024-08-01,ＮＩＮＥ　ＳＴＡＲ株式会社,,株式会社,東京都,板橋区,板橋１丁目１３番１０号アーバンクレスト板橋４０５,,13,119,1730004,,,,,,,2024-08-01,1,,,,,ナインスター,0
819,4011401026315,新規,0,2024-08-01,2024-08-01,株式会社ＫＲｗｏｒｋｓ,,株式会社,東京都,板橋区,双葉町２番１２号,,13,119,1730011,,,,,,,2024-08-01,1,,,,,ケーアールワークス,0
823,4011701027483,新規,0,2024-08-01,2024-08-01,其野商事株式会社,,株式会社,東京都,江戸川区,江戸川６丁目４０番１４－１２１号,,13,123,1340013,,,,,,,2024-08-01,1,,,,,ソノショウジ,0
825,4011703003929,新規,0,2024-08-01,2024-08-01,Ｃ．Ｃ合同会社,,合同会社,東京都,江戸川区,松島３丁目４３番１９号,,13,123,1320031,,,,,,,2024-08-01,1,,,,,シーシー,0
826,4011801044610,新規,0,2024-08-01,2024-08-01,株式会社Ｋ＆Ｇ,,株式会社,東京都,足立区,六町４丁目６番３２号３Ｆ,,13,121,1210073,,,,,,,2024-08-01,1,,,,,ケーアンドジー,0
828,4012301014013,新規,0,2024-08-01,2024-08-01,株式会社Ｂａｎａｔｏｍ,,株式会社,東京都,町田市,図師町１５４３番地６,,13,209,1940203,,,,,,,2024-08-01,1,,,,,バナトム,0
829,4012303002024,新規,0,2024-08-01,2024-08-01,合同会社アシスト,,合同会社,東京都,町田市,上小山田町１６２２番地１３,,13,209,1940201,,,,,,,2024-08-01,1,,,,,アシスト,0
833,4012403006692,新規,0,2024-08-01,2024-08-01,合同会社ゴールデン,,合同会社,東京都,多摩市,落合１丁目８番地１,,13,224,2060033,,,,,,,2024-08-01,1,,,,,ゴールデン,0
835,4012803003471,新規,0,2024-08-01,2024-08-01,合同会社花菜,,合同会社,東京都,国分寺市,光町３丁目２５－２２,,13,214,1850034,,,,,,,2024-08-01,1,,,,,ハナ,0
842,4020001158278,新規,0,2024-08-01,2024-08-01,株式会社２４６,,株式会社,神奈川県,横浜市緑区,長津田７丁目１８番２号,,14,113,2260027,,,,,,,2024-08-01,1,,,,,ニイヨンロク,0
848,4030001161644,新規,0,2024-08-01,2024-08-01,ＮＣＲ株式会社,,株式会社,埼玉県,さいたま市北区,吉野町１丁目４３８番地２３、１Ｆ,,11,102,3310811,,,,,,,2024-08-01,1,,,,,エヌシーアール,0
849,4030001161652,新規,0,2024-08-01,2024-08-01,ＴＤＧ株式会社,,株式会社,埼玉県,草加市,谷塚町６２８番地２,,11,221,3400023,,,,,,,2024-08-01,1,,,,,ティーディージー,0
850,4030001161677,新規,0,2024-08-01,2024-08-01,株式会社エイチワイＫＳ,,株式会社,埼玉県,さいたま市桜区,山久保２丁目１４番３－１号,,11,106,3380821,,,,,,,2024-08-01,1,,,,,エイチワイケイエス,0
851,4030001161685,新規,0,2024-08-01,2024-08-01,株式会社ｍｙｗｏｒｋｓ,,株式会社,埼玉県,さいたま市見沼区,大和田町２丁目１５５３番地１－１１３号,,11,104,3370053,,,,,,,2024-08-01,1,,,,,エムワイワークス,0
852,4030001161719,新規,0,2024-08-01,2024-08-01,ＮＯＣＫ　ＷＯＯＤ株式会社,,株式会社,埼玉県,川越市,大字安比奈新田２７９番地２７,,11,201,3501173,,,,,,,2024-08-01,1,,,,,ノックウッド,0
854,4030003024816,新規,0,2024-08-01,2024-08-01,合同会社ミナトメンテナンス,,合同会社,埼玉県,新座市,北野２丁目５番２８号,,11,230,3520003,,,,,,,2024-08-01,1,,,,,ミナトメンテナンス,0
855,4030003024840,新規,0,2024-08-01,2024-08-01,合同会社ＰＯＳＥＩＤＯＮ,,合同会社,埼玉県,戸田市,本町２丁目１３番２３－１０１号,,11,224,3350023,,,,,,,2024-08-01,1,,,,,ポセイドン,0
862,4040001134748,新規,0,2024-08-01,2024-08-01,ＹＡＶＩＮ株式会社,,株式会社,千葉県,船橋市,浜町１丁目２－６サカエビル４０２号室,,12,204,2730012,,,,,,,2024-08-01,1,,,,,ヤヴィン,0
863,4040001134764,新規,0,2024-08-01,2024-08-01,Ｈｏｕｓｅ．Ｒ株式会社,,株式会社,千葉県,千葉市花見川区,検見川町５丁目２３２６番地１０号,,12,102,2620023,,,,,,,2024-08-01,1,,,,,ハウスドットアール,0
869,4040003025508,新規,0,2024-08-01,2024-08-01,合同会社ＴＹＡＭ,,合同会社,千葉県,流山市,大字鰭ケ崎１３１３番地の１０,,12,220,2700161,,,,,,,2024-08-01,1,,,,,ティーワイエイエム,0
870,4040003025516,新規,0,2024-08-01,2024-08-01,ＤＳＦＰ合同会社,,合同会社,千葉県,船橋市,飯山満町３丁目１９１８番１０号,,12,204,2740822,,,,,,,2024-08-01,1,,,,,ディーエスエフピー,0
874,4050005001514,新規,0,2024-08-01,2024-08-01,石岡信用金庫,,その他の設立登記法人,茨城県,石岡市,国府３丁目１番２１号,,08,205,3150014,,,,,,,2024-08-01,1,,,,,イシオカ,0
875,4060001037362,新規,0,2024-08-01,2024-08-01,ナインテイルズ株式会社,,株式会社,栃木県,大田原市,薄葉１７７６番地２,,09,210,3240035,,,,,,,2024-08-01,1,,,,,ナインテイルズ,0
877,4070001042031,新規,0,2024-08-01,2024-08-01,株式会社サンロック電設,,株式会社,群馬県,伊勢崎市,宮子町３４５０番地３,,10,204,3720801,,,,,,,2024-08-01,1,,,,,サンロックデンセツ,0
882,4080403005072,新規,0,2024-08-01,2024-08-01,合同会社二藤,,合同会社,静岡県,浜松市中央区,根洗町７１３－５,,22,138,4338108,,,,,,,2024-08-01,1,,,,,フタフジ,0
897,4120001267226,新規,0,2024-08-01,2024-08-01,株式会社トータルリフォームａｔｔａ,,株式会社,大阪府,大阪市旭区,中宮３丁目１３番１７号－１２,,27,117,5350003,,,,,,,2024-08-01,1,,,,,トータルリフォームアッタ,0
898,4120001267259,新規,0,2024-08-01,2024-08-01,ＫＩＴ　Ｅｎｇｉｎｅｅｒｉｎｇ株式会社,,株式会社,大阪府,大阪市北区,曾根崎新地１丁目１３－２２Ｗｅｗｏｒｋ御堂筋フロンティア１Ｆ,,27,127,5300002,,,,,,,2024-08-01,1,,,,,ケーアイティーエンジニアリング,0
899,4120001267275,新規,0,2024-08-01,2024-08-01,株式会社信友,,株式会社,大阪府,枚方市,甲斐田東町１９番３号,,27,210,5731168,,,,,,,2024-08-01,1,,,,,シンユウ,0
900,4120001267317,新規,0,2024-08-01,2024-08-01,株式会社アールスリー,,株式会社,大阪府,大阪市中央区,本町２丁目３番４号アソルティ本町４Ｆ,,27,128,5410053,,,,,,,2024-08-01,1,,,,,アールスリー,0
901,4120001267358,新規,0,2024-08-01,2024-08-01,株式会社りんご,,株式会社,大阪府,大阪市北区,大淀南３丁目８－１６－６０１,,27,127,5310075,,,,,,,2024-08-01,1,,,,,リンゴ,0
902,4120001267374,新規,0,2024-08-01,2024-08-01,株式会社ファステートプロパティ,,株式会社,大阪府,大阪市中央区,博労町３丁目５番１号,,27,128,5410059,,,,,,,2024-08-01,1,,,,,ファステートプロパティ,0
905,4120003027140,新規,0,2024-08-01,2024-08-01,ＣＦＦ合同会社,,合同会社,大阪府,大阪市北区,梅田１丁目２番２号大阪駅前第２ビル１２‐１２,,27,127,5300001,,,,,,,2024-08-01,1,,,,,シーエフエフ,0
906,4120003027173,新規,0,2024-08-01,2024-08-01,合同会社ケアサービスアールケイ,,合同会社,大阪府,守口市,佐太中町４丁目９番７号,,27,209,5700002,,,,,,,2024-08-01,1,,,,,ケアサービスアールケイ,0
907,4120003027181,新規,0,2024-08-01,2024-08-01,合同会社くくり,,合同会社,大阪府,大阪市平野区,流町４丁目７番１号３０５号室,,27,126,5470032,,,,,,,2024-08-01,1,,,,,ククリ,0
908,4120101070042,新規,0,2024-08-01,2024-08-01,株式会社ＨＡＣＫ,,株式会社,大阪府,貝塚市,海塚１丁目１９番６号ビバ・イチヨシ４０１号室,,27,208,5970083,,,,,,,2024-08-01,1,,,,,ハック,0
909,4120101070050,新規,0,2024-08-01,2024-08-01,株式会社Ｒｏｔｔ,,株式会社,大阪府,和泉市,伏屋町３丁目１１番１０号,,27,219,5940031,,,,,,,2024-08-01,1,,,,,ロット,0
910,4120101070067,新規,0,2024-08-01,2024-08-01,株式会社ＳＫ建設,,株式会社,大阪府,松原市,天美東９丁目５番地３１号,,27,217,5800032,,,,,,,2024-08-01,1,,,,,エスケーケンセツ,0
911,4120103005979,新規,0,2024-08-01,2024-08-01,ファミリオ合同会社,,合同会社,大阪府,泉佐野市,日根野３３１０番地の１,,27,213,5980021,,,,,,,2024-08-01,1,,,,,ファミリオ,0
912,4120901049541,新規,0,2024-08-01,2024-08-01,株式会社Ａｉｒ　Ｃｏｍｆｙ　Ｎａｔｓｕｍｉ,,株式会社,大阪府,高槻市,野田３丁目９番１７号,,27,207,5690013,,,,,,,2024-08-01,1,,,,,エアーコンフィーナツミ,0
913,4120903005286,新規,0,2024-08-01,2024-08-01,ａｌｗａｙｓ　ｓｍｉｌｅ合同会社,,合同会社,大阪府,箕面市,粟生外院６丁目１番２２号２階Ｃ号室,,27,220,5620025,,,,,,,2024-08-01,1,,,,,オールウェイズスマイル,0
917,4122003002940,新規,0,2024-08-01,2024-08-01,Ｍ＆Ｋ　ＮＢソーシャルワーク合同会社,,合同会社,大阪府,東大阪市,西岩田４丁目４番４６号,,27,227,5780947,,,,,,,2024-08-01,1,,,,,エムアンドケーエヌビーソーシャルワーク,0
930,4140001135307,新規,0,2024-08-01,2024-08-01,中央電機株式会社,,株式会社,兵庫県,姫路市,三条町２丁目３番地２,,28,201,6728041,,,,,,,2024-08-01,1,,,,,チュウオウデンキ,0
935,4160001026124,新規,0,2024-08-01,2024-08-01,株式会社ＡＫＴ,,株式会社,滋賀県,大津市,三井寺町２番１２号,,25,201,5200034,,,,,,,2024-08-01,1,,,,,エーケーティ,0
941,4180001162603,新規,0,2024-08-01,2024-08-01,株式会社Ｍａｔｓｕｏｋａぷらす,,株式会社,愛知県,名古屋市中区,大須２丁目２３番３８号,,23,106,4600011,,,,,,,2024-08-01,1,,,,,マツオカプラス,0
946,4180003027135,新規,0,2024-08-01,2024-08-01,合同会社ＧｒａｃｅＺｅｒｏ,,合同会社,愛知県,海部郡大治町,大字西條字壱町田７７‐１アベニール１０３号,,23,424,4901144,,,,,,,2024-08-01,1,,,,,グレイスゼロ,0
950,4180301038908,新規,0,2024-08-01,2024-08-01,株式会社成,,株式会社,愛知県,刈谷市,桜町５丁目１１番地１,,23,210,4480028,,,,,,,2024-08-01,1,,,,,ナル,0
954,4200001042752,新規,0,2024-08-01,2024-08-01,株式会社ＭｉｔＳｕＫｉ,,株式会社,岐阜県,羽島市,竹鼻町狐穴５１２番地１フラン・ドウ・アーサー１０２,,21,209,5016232,,,,,,,2024-08-01,1,,,,,ミツキ,0
955,4200001042760,新規,0,2024-08-01,2024-08-01,株式会社さとあゆ,,株式会社,岐阜県,大垣市,河間町２丁目３５６番地１,,21,202,5030021,,,,,,,2024-08-01,1,,,,,サトアユ,0
956,4200001042777,新規,0,2024-08-01,2024-08-01,株式会社ミノブル,,株式会社,岐阜県,美濃市,もみじが丘１丁目３０番地,,21,207,5013773,,,,,,,2024-08-01,1,,,,,ミノブル,0
958,4210001019857,新規,0,2024-08-01,2024-08-01,株式会社ＡＤＲＥＡ,,株式会社,福井県,福井市,江端町第２０号１７番地７,,18,201,9188016,,,,,,,2024-08-01,1,,,,,アドリア,0
960,4220001026134,新規,0,2024-08-01,2024-08-01,株式会社有＆ｃｏｒｅ,,株式会社,石川県,金沢市,柿木畠４番１４号,,17,201,9200999,,,,,,,2024-08-01,1,,,,,アルアンドコア,0
965,4230001020466,新規,0,2024-08-01,2024-08-01,株式会社Ｑｕｅｓｔ．Ｑ,,株式会社,富山県,射水市,高木２２７番地,,16,211,9340047,,,,,,,2024-08-01,1,,,,,クエストキュー,0
971,4260001039306,新規,0,2024-08-01,2024-08-01,三洋環境サービス株式会社,,株式会社,岡山県,岡山市中区,関４１１番地,,33,102,7038232,,,,,,,2024-08-01,1,,,,,,0
974,4260003004836,新規,0,2024-08-01,2024-08-01,合同会社ＦＵＪＩＮＯＫＩ,,合同会社,岡山県,倉敷市,新田２３８５番地,,33,202,7100038,,,,,,,2024-08-01,1,,,,,,0
983,4300001013850,新規,0,2024-08-01,2024-08-01,株式会社天大,,株式会社,佐賀県,武雄市,武雄町大字昭和８２５番地,,41,206,8430023,,,,,,,2024-08-01,1,,,,,テンダイ,0
985,4300003002158,新規,0,2024-08-01,2024-08-01,合同会社コネクターズ,,合同会社,佐賀県,鳥栖市,萱方町２０６番地１２５,,41,203,8410081,,,,,,,2024-08-01,1,,,,,コネクターズ,0
986,4320001020630,新規,0,2024-08-01,2024-08-01,ユナイテッドヴィラ株式会社,,株式会社,大分県,大分市,金池町３丁目１番９６号,,44,201,8700026,,,,,,,2024-08-01,1,,,,,ユナイテッドヴィラ,0
990,4330001032303,新規,0,2024-08-01,2024-08-01,熊本金属株式会社,,株式会社,熊本県,熊本市北区,徳王２丁目２５番３号,,43,105,8615525,,,,,,,2024-08-01,1,,,,,クマモトキンゾク,0
991,4330001032311,新規,0,2024-08-01,2024-08-01,株式会社Ｒｉｄｄｉｍ,,株式会社,熊本県,熊本市中央区,帯山４丁目２４番４号,,43,101,8620924,,,,,,,2024-08-01,1,,,,,リディム,0
992,4330003010471,新規,0,2024-08-01,2024-08-01,合同会社マルチプルウインズ,,合同会社,熊本県,合志市,豊岡２５２７－５２,,43,216,8611115,,,,,,,2024-08-01,1,,,,,マルチプルウインズ,0
993,4330003010488,新規,0,2024-08-01,2024-08-01,合同会社ＴＡＣ,,合同会社,熊本県,熊本市中央区,帯山３丁目１８‐１２ラージヒル帯山１Ｆ,,43,101,8620924,,,,,,,2024-08-01,1,,,,,タック,0
995,4340001026691,新規,0,2024-08-01,2024-08-01,ＡＦＧＨＡＮ　ＴＲＡＤＩＮＧ株式会社,,株式会社,鹿児島県,霧島市,横川町下ノ字下原９７９番１,,46,218,8996302,,,,,,,2024-08-01,1,,,,,アフガントレイディング,0
997,4350001019109,新規,0,2024-08-01,2024-08-01,株式会社ＬｕａｎａＬｉｎｏ,,株式会社,宮崎県,都城市,梅北町１２４３９番地,,45,202,8850063,,,,,,,2024-08-01,1,,,,,ルアナリノ,0
998,4350001019117,新規,0,2024-08-01,2024-08-01,株式会社ＤＩＶＥＬＩＮＥ,,株式会社,宮崎県,延岡市,卸本町５－６１,,45,203,8820855,,,,,,,2024-08-01,1,,,,,ダイブライン,0
1002,4360003014180,新規,0,2024-08-01,2024-08-01,合同会社沖縄ｔｒｉｐｓ,,合同会社,沖縄県,宮古島市,平良字下里８６１番地ＳＨＥＲＲＯＤ－１Ａ,,47,214,9060013,,,,,,,2024-08-01,1,,,,,オキナワトリップス,0
1003,4360003014189,新規,0,2024-08-01,2024-08-01,合同会社雄工業,,合同会社,沖縄県,豊見城市,字高嶺３９２－６,,47,212,9010213,,,,,,,2024-08-01,1,,,,,ユウコウギョウ,0
1015,4400003003303,新規,0,2024-08-01,2024-08-01,Ｌａｕｇｈｔｅｒ合同会社,,合同会社,岩手県,盛岡市,中央通１丁目７－３５コアフィールドモリオカ１Ｆ,,03,201,0200021,,,,,,,2024-08-01,1,,,,,ラフター,0
1016,4410001013897,新規,0,2024-08-01,2024-08-01,株式会社ＦＵＫＵＲＡＳ,,株式会社,秋田県,秋田市,八橋本町４丁目３番１５号,,05,201,0100973,,,,,,,2024-08-01,1,,,,,フクラス,0
1019,4430003016632,新規,0,2024-08-01,2024-08-01,ＳＳＮＡ合同会社,,合同会社,北海道,札幌市中央区,南十四条西１８丁目５－２７－２０１,,01,101,0640914,,,,,,,2024-08-01,1,,,,,エスエスエヌエー,0
1020,4430003016640,新規,0,2024-08-01,2024-08-01,合同会社ダディクール,,合同会社,北海道,札幌市北区,新琴似二条１丁目１番５６号,,01,102,0010902,,,,,,,2024-08-01,1,,,,,ダディクール,0
1027,4490001010838,新規,0,2024-08-01,2024-08-01,株式会社ＺＥＮ,,株式会社,高知県,香南市,香我美町山北８９５,,39,211,7815453,,,,,,,2024-08-01,1,,,,,ゼン,0
1032,4490003001918,新規,0,2024-08-01,2024-08-01,フォーシャルクリエイト合同会社,,合同会社,高知県,香美市,土佐山田町３２６番地３１,,39,212,7820047,,,,,,,2024-08-01,1,,,,,フォーシャルクリエイト,0
1033,4500001025776,新規,0,2024-08-01,2024-08-01,ファインスタイル株式会社,,株式会社,愛媛県,伊予郡松前町,大字浜８６２番地７武井ビル２Ｆ,,38,401,7913110,,,,,,,2024-08-01,1,,,,,ファインスタイル,0
1034,4500001025784,新規,0,2024-08-01,2024-08-01,大国産業株式会社,,株式会社,愛媛県,松山市,八反地甲２９９番地１,,38,201,7992424,,,,,,,2024-08-01,1,,,,,ダイコクサンギョウ,0
1039,4700150126636,新規,0,2024-08-01,2024-08-01,ｓｈｅｎｚｈｅｎｓｈｉｊｕｎｔｅｎｇｌｉｎｙｉｎｄｉａｎｚｉｓｈａｎｇｗｕｙｏｕｘｉａｎｇｏｎｇｓｉ,,外国会社等,,,,,,,,ｌｏｎｇｇａｎｇｑｕｐｉｎｇｈｕｊｉｅｄａｏｈｅｈｕａｓｈｅｑｕｆｕａｎｄａｄａｏ１８ｈａｏ，ｙａｇａｎｇｇｏｎｇｍａｏｄａｌｏｕ１ｄｏｎｇ７０４Ａ１８，Ｓｈｅｎｚｈｅｎ，Ｇｕａｎｇｄｏｎｇ,,,,,,2024-08-01,1,,,,,シェンジェンシージュイントゥオンリーンイーンディエンズーシャーンウーヨウシエンゴーンスー,0
1051,5010001247015,新規,0,2024-08-01,2024-08-01,株式会社ＦＩＣＣＯ,,株式会社,東京都,中央区,月島１丁目１７番８号,,13,102,1040052,,,,,,,2024-08-01,1,,,,,フィッコ,0
1052,5010001247023,新規,0,2024-08-01,2024-08-01,株式会社ルジェンド,,株式会社,東京都,中央区,日本橋本町３丁目８番５号日本橋ライフサイエンスビルディング５－９階,,13,102,1030023,,,,,,,2024-08-01,1,,,,,ルジェンド,0
1053,5010001247080,新規,0,2024-08-01,2024-08-01,株式会社Ｒｏｂｉｎｓｏｎ,,株式会社,東京都,中央区,銀座１丁目１２番４号Ｎ＆ＥＢＬＤ．６Ｆ,,13,102,1040061,,,,,,,2024-08-01,1,,,,,ロビンソン,0
1054,5010001247139,新規,0,2024-08-01,2024-08-01,レイファームジャパン株式会社,,株式会社,東京都,中央区,日本橋茅場町２丁目１７番５号,,13,102,1030025,,,,,,,2024-08-01,1,,,,,レイファームジャパン,0
1055,5010003044468,新規,0,2024-08-01,2024-08-01,合同会社湘光,,合同会社,東京都,千代田区,飯田橋１丁目６番８号,,13,101,1020072,,,,,,,2024-08-01,1,,,,,ショウコウ,0
1056,5010005038583,新規,0,2024-08-01,2024-08-01,一般社団法人Ｔｈｅ　Ｐｅａｋ　Ｓｅｒｉｅｓ　ＩＶ,,その他の設立登記法人,東京都,千代田区,四番町４番地９新東京国際リーガル内,,13,101,1020081,,,,,,,2024-08-01,1,,,,,ザピークシリーズフォー,0
1059,5010401184064,新規,0,2024-08-01,2024-08-01,株式会社ＷＩＮＧ,,株式会社,東京都,港区,赤坂３丁目２番８号ＶＯＲＴ赤坂見附ＩＩ６階,00135755,13,103,1070052,,,,,,,2024-08-01,1,,,,,ウィング,0
1061,5010403033137,新規,0,2024-08-01,2024-08-01,ＣｏｏｌＡｕｔｏｍａｔｉｏｎ　Ｊａｐａｎ合同会社,,合同会社,東京都,港区,虎ノ門４丁目３番１号城山トラストタワー２７階,,13,103,1050001,,,,,,,2024-08-01,1,,,,,クールオートメーションジャパン,0
1062,5010403033145,新規,0,2024-08-01,2024-08-01,湾岸トレーディング２号合同会社,,合同会社,東京都,港区,港南４丁目６番５－３１０３号,,13,103,1080075,,,,,,,2024-08-01,1,,,,,ワンガントレーディングニゴウ,0
1063,5010403033153,新規,0,2024-08-01,2024-08-01,合同会社Ｈａｐｐｙ　ｒｉｐｐｌｅｓ,,合同会社,東京都,港区,北青山１丁目３番１号アールキューブ青山３階,,13,103,1070061,,,,,,,2024-08-01,1,,,,,ハッピーリプルズ,0
1073,5010603011000,新規,0,2024-08-01,2024-08-01,合同会社アース・コンパス,,合同会社,東京都,江東区,北砂１丁目１９番１６－５０５号,,13,108,1360073,,,,,,,2024-08-01,1,,,,,アースコンパス,0
1074,5010701046328,新規,0,2024-08-01,2024-08-01,株式会社レクトライト,,株式会社,東京都,品川区,西中延３丁目２番１７号５０２号室,,13,109,1420054,,,,,,,2024-08-01,1,,,,,レクトライト,0
1075,5010701046352,新規,0,2024-08-01,2024-08-01,株式会社とは,,株式会社,東京都,品川区,西五反田６丁目２４番１４号ドルメン五反田６０２,,13,109,1410031,,,,,,,2024-08-01,1,,,,,トハ,0
1076,5010703007286,新規,0,2024-08-01,2024-08-01,合同会社梵梵Ｔｅｒｒａｃｅ,,合同会社,東京都,品川区,西大井２丁目１８番６号,,13,109,1400015,,,,,,,2024-08-01,1,,,,,,0
1078,5010801035288,新規,0,2024-08-01,2024-08-01,株式会社Ｚｅｎｇａ,,株式会社,東京都,大田区,北馬込１丁目１６番７－８０９号,,13,111,1430021,,,,,,,2024-08-01,1,,,,,ゼンガ,0
1080,5010901055731,新規,0,2024-08-01,2024-08-01,ビズリユース株式会社,,株式会社,東京都,世田谷区,上祖師谷６丁目２９番４号１Ｆ,,13,112,1570065,,,,,,,2024-08-01,1,,,,,ビズリユース,0
1082,5010903009256,新規,0,2024-08-01,2024-08-01,エトワールメゾン合同会社,,合同会社,東京都,世田谷区,上用賀４丁目１３番２号,,13,112,1580098,,,,,,,2024-08-01,1,,,,,エトワールメゾン,0
1089,5011001163788,新規,0,2024-08-01,2024-08-01,株式会社ＳＬＧＳ,,株式会社,東京都,渋谷区,恵比寿１丁目３０番１２－１２０３号,,13,113,1500013,,,,,,,2024-08-01,1,,,,,エスエルジーエス,0
1091,5011003019699,新規,0,2024-08-01,2024-08-01,Ｌｉｇｈｔｅｍ　Ｕｐ合同会社,,合同会社,東京都,渋谷区,渋谷２丁目１９番１５号宮益坂ビルディング６０９,,13,113,1500002,,,,,,,2024-08-01,1,,,,,ライテムアップ,0
1096,5011101108288,新規,0,2024-08-01,2024-08-01,株式会社ＢｕｉｌｄＢａｓｅ,,株式会社,東京都,新宿区,西新宿７丁目７番２７号第一守徳ビル３Ｆ,,13,104,1600023,,,,,,,2024-08-01,1,,,,,ビルドベース,0
1100,5011401026280,新規,0,2024-08-01,2024-08-01,株式会社ＣＦＹ,,株式会社,東京都,板橋区,小茂根１丁目２６番１９号ＤＩＰＳ小竹向原１０２,,13,119,1730037,,,,,,,2024-08-01,1,,,,,シーエフワイ,0
1103,5011501030983,新規,0,2024-08-01,2024-08-01,株式会社Ｂｅｇｉｎｎｉｎｇ　ＯＶＥＲ　ＳＴＡＧＥ,,株式会社,東京都,荒川区,東日暮里５丁目５０番５号アートホテル日暮里ラングウッド３階,,13,118,1160014,,,,,,,2024-08-01,1,,,,,ビギニングオーバーステージ,0
1104,5011501030991,新規,0,2024-08-01,2024-08-01,株式会社ＣＩＡＷＥＬＬ,,株式会社,東京都,北区,赤羽２丁目７番１号ＡＮＴＨＯＮＹ・ＨＯＵＳＥ５Ｆ,,13,117,1150045,,,,,,,2024-08-01,1,,,,,シアウェル,0
1109,5011701027499,新規,0,2024-08-01,2024-08-01,株式会社ｂｅａｔ　ｈｉｔ,,株式会社,東京都,江戸川区,南葛西２丁目２３番８－５０２号エトワス南葛西,,13,123,1340085,,,,,,,2024-08-01,1,,,,,ビートヒット,0
1111,5011801044601,新規,0,2024-08-01,2024-08-01,株式会社Ｇｉａｓｕ,,株式会社,東京都,足立区,千住仲町２３番１２号,,13,121,1200036,,,,,,,2024-08-01,1,,,,,ギアス,0
1112,5011801044618,新規,0,2024-08-01,2024-08-01,株式会社ベル・プランニング,,株式会社,東京都,足立区,舎人５丁目１８番２０号シャルマンヴィラ２０５,,13,121,1210831,,,,,,,2024-08-01,1,,,,,ベルプランニング,0
1114,5012403006691,新規,0,2024-08-01,2024-08-01,ＭＩＲＡＮＳＨ合同会社,,合同会社,東京都,小金井市,東町４丁目８番１４号アクトレジデンス新小金井２０１号室,,13,210,1840011,,,,,,,2024-08-01,1,,,,,ミランス,0
1120,5013301052919,新規,0,2024-08-01,2024-08-01,株式会社婦人之友社ライフサービス,,株式会社,東京都,豊島区,西池袋２丁目２０番１６号,,13,116,1710021,,,,,,,2024-08-01,1,,,,,フジンノトモシャライフサービス,0
1127,5021001082855,新規,0,2024-08-01,2024-08-01,ｓｍａｌｌｂｉｚ株式会社,,株式会社,神奈川県,中郡大磯町,東小磯４７６－２,,14,341,2550004,,,,,,,2024-08-01,1,,,,,スモールビズ,0
1128,5021001082863,新規,0,2024-08-01,2024-08-01,株式会社マゴベイジャパン,,株式会社,神奈川県,鎌倉市,腰越３丁目２２番６号,,14,204,2480033,,,,,,,2024-08-01,1,,,,,マゴベイジャパン,0
1134,5030001161627,新規,0,2024-08-01,2024-08-01,株式会社ＣＳ,,株式会社,埼玉県,さいたま市岩槻区,美園東２丁目１６番２２号,,11,110,3390028,,,,,,,2024-08-01,1,,,,,シーエス,0
1135,5030001161643,新規,0,2024-08-01,2024-08-01,株式会社ＨＡＫＯＴＥＮ,,株式会社,埼玉県,川越市,新富町２丁目７番地１,,11,201,3500043,,,,,,,2024-08-01,1,,,,,ハコテン,0
1136,5030001161651,新規,0,2024-08-01,2024-08-01,株式会社心,,株式会社,埼玉県,川越市,豊田本４丁目１７番地１８,,11,201,3501118,,,,,,,2024-08-01,1,,,,,シン,0
1137,5030001161684,新規,0,2024-08-01,2024-08-01,株式会社ちどり木工,,株式会社,埼玉県,川越市,大字古谷上２２５８番地１,,11,201,3500001,,,,,,,2024-08-01,1,,,,,チドリモッコウ,0
1138,5030001161692,新規,0,2024-08-01,2024-08-01,株式会社エルディーケイ,,株式会社,埼玉県,さいたま市南区,関１丁目２２番,,11,108,3360038,,,,,,,2024-08-01,1,,,,,エルディーケイ,0
1139,5030001161701,新規,0,2024-08-01,2024-08-01,新生株式会社,,株式会社,埼玉県,志木市,館２丁目３番６－３０９号Ｃ室,,11,228,3530006,,,,,,,2024-08-01,1,,,,,シンセイ,0
1140,5030001161718,新規,0,2024-08-01,2024-08-01,株式会社さきたま仕事と介護の両立,,株式会社,埼玉県,行田市,門井町２丁目２２番地１コーポ・カネコＪ１０１号室,,11,206,3610044,,,,,,,2024-08-01,1,,,,,サキタマシゴトトカイゴノリョウリツ,0
1152,5040001134763,新規,0,2024-08-01,2024-08-01,０＆１システム株式会社,,株式会社,千葉県,流山市,おおたかの森南２丁目３６番地の３９,,12,220,2700139,,,,,,,2024-08-01,1,,,,,ゼロアンドワンシステム,0
1153,5040001134771,新規,0,2024-08-01,2024-08-01,株式会社ＤＥＳＥＲＴＳＴＡＲ,,株式会社,千葉県,千葉市美浜区,真砂３丁目１７番３棟４０６号,,12,106,2610011,,,,,,,2024-08-01,1,,,,,デザートスター,0
1155,5040003025531,新規,0,2024-08-01,2024-08-01,オーワン合同会社,,合同会社,千葉県,柏市,若柴１７８番地４柏の葉キャンパス１４８街区２ＫＯＩＬ６Ｆ,,12,217,2770871,,,,,,,2024-08-01,1,,,,,オーワン,0
1159,5060001037353,新規,0,2024-08-01,2024-08-01,株式会社ｅｍ．,,株式会社,栃木県,小山市,大字喜沢５６４番地１,,09,208,3230014,,,,,,,2024-08-01,1,,,,,イーエム,0
1162,5070001042014,新規,0,2024-08-01,2024-08-01,株式会社ＧＵＮＰＡＴＳＵ,,株式会社,群馬県,伊勢崎市,喜多町１２５番地２,,10,204,3720056,,,,,,,2024-08-01,1,,,,,グンパツ,0
1165,5080403005071,新規,0,2024-08-01,2024-08-01,Ｓ‐ｐｌｕｓ合同会社,,合同会社,静岡県,浜松市中央区,上石田町２４１番地の４,,22,138,4350001,,,,,,,2024-08-01,1,,,,,エスプラス,0
1166,5090001018838,新規,0,2024-08-01,2024-08-01,株式会社Ｎ・テクニカル,,株式会社,山梨県,南アルプス市,上宮地１６０９番地１,,19,208,4000312,,,,,,,2024-08-01,1,,,,,エヌテクニカル,0
1172,5120001267266,新規,0,2024-08-01,2024-08-01,ＭＥＬ株式会社,,株式会社,大阪府,大阪市西区,北堀江２丁目２番２４号ＰａｒｋＬａｎｅＨｏｒｉｅＢｌｄ８２２号,,27,106,5500014,,,,,,,2024-08-01,1,,,,,メル,0
1173,5120001267282,新規,0,2024-08-01,2024-08-01,株式会社ＵＧＸ,,株式会社,大阪府,大阪市北区,梅田１丁目２番２号大阪駅前第２ビル１２－１２,,27,127,5300001,,,,,,,2024-08-01,1,,,,,ユージーエックス,0
1174,5120001267299,新規,0,2024-08-01,2024-08-01,株式会社フィリア,,株式会社,大阪府,大阪市西成区,鶴見橋３丁目１番３０号安田ビル１階,,27,122,5570031,,,,,,,2024-08-01,1,,,,,フィリア,0
1175,5120001267316,新規,0,2024-08-01,2024-08-01,株式会社大翔機工,,株式会社,大阪府,大阪市西淀川区,御幣島６丁目３番１５号,,27,113,5550012,,,,,,,2024-08-01,1,,,,,ダイショウキコウ,0
1176,5120001267349,新規,0,2024-08-01,2024-08-01,株式会社ＤＪＤ　Ｈｏｌｄｉｎｇｓ,,株式会社,大阪府,大阪市中央区,南船場４丁目７番５号,,27,128,5420081,,,,,,,2024-08-01,1,,,,,ディージェイディーホールディングス,0
1177,5120001267381,新規,0,2024-08-01,2024-08-01,株式会社しおん,,株式会社,大阪府,大阪市平野区,流町１丁目７番１６号３０１,,27,126,5470032,,,,,,,2024-08-01,1,,,,,シオン,0
1179,5120003027180,新規,0,2024-08-01,2024-08-01,合同会社Ｐｌｕｍｅ,,合同会社,大阪府,大阪市淀川区,西中島２丁目６－３４リヴィエール淀２０４,,27,123,5320011,,,,,,,2024-08-01,1,,,,,プリューム,0
1180,5120003027206,新規,0,2024-08-01,2024-08-01,合同会社よろこび,,合同会社,大阪府,大阪市天王寺区,東高津町６－２２,,27,109,5430021,,,,,,,2024-08-01,1,,,,,ヨロコビ,0
1181,5120005024465,新規,0,2024-08-01,2024-08-01,一般社団法人資産保全ビークル,,その他の設立登記法人,大阪府,大阪市中央区,高麗橋４丁目３番７号淀屋橋総合会計内,,27,128,5410043,,,,,,,2024-08-01,1,,,,,シサンホゼンビークル,0
1183,5120101070058,新規,0,2024-08-01,2024-08-01,株式会社ｍａｃｏｃｏ,,株式会社,大阪府,堺市堺区,三宝町１丁１４番地５７,,27,141,5900906,,,,,,,2024-08-01,1,,,,,マココ,0
1186,5120901049516,新規,0,2024-08-01,2024-08-01,株式会社ＤＱＤ,,株式会社,大阪府,吹田市,千里山月が丘７番５号７１３,,27,205,5650847,,,,,,,2024-08-01,1,,,,,ディーキューディー,0
1187,5120901049532,新規,0,2024-08-01,2024-08-01,株式会社Ｂ‐ｕｐ,,株式会社,大阪府,茨木市,駅前１丁目２番１０－６０２号,,27,211,5670888,,,,,,,2024-08-01,1,,,,,ビーアップ,0
1188,5120901049540,新規,0,2024-08-01,2024-08-01,株式会社ＲＥＰＩＣＫＹ,,株式会社,大阪府,吹田市,千里山西１丁目３６番５－２０１号,,27,205,5650851,,,,,,,2024-08-01,1,,,,,リピッキー,0
1190,5120903005285,新規,0,2024-08-01,2024-08-01,合同会社ＩｎｎｏＭａｒｋ,,合同会社,大阪府,吹田市,豊津町４０番９号,,27,205,5640051,,,,,,,2024-08-01,1,,,,,イノマーク,0
1194,5130001077598,新規,0,2024-08-01,2024-08-01,株式会社ＣＬＡＳＳ,,株式会社,京都府,京都市右京区,嵯峨中又町１９,,26,108,6168347,,,,,,,2024-08-01,1,,,,,クラス,0
1196,5130003009731,新規,0,2024-08-01,2024-08-01,Ｋｙｏｊｉｎ合同会社,,合同会社,京都府,京都市下京区,茶磨屋町２３６番地Ａ－Ｔｅｒｒａｃｅ４Ｂ,,26,106,6008045,,,,,,,2024-08-01,1,,,,,キョジン,0
1199,5140001135207,新規,0,2024-08-01,2024-08-01,縁絆貿易株式会社,,株式会社,兵庫県,神戸市西区,伊川谷町別府９２－１－２０１号,,28,111,6512115,,,,,,,2024-08-01,1,,,,,エンハンボウエキ,0
1200,5140001135306,新規,0,2024-08-01,2024-08-01,株式会社グランループス,,株式会社,兵庫県,丹波市,山南町上滝１７４９－５－１０１,,28,223,6693101,,,,,,,2024-08-01,1,,,,,グランループス,0
1201,5140001135355,新規,0,2024-08-01,2024-08-01,株式会社Ｋプラス,,株式会社,兵庫県,佐用郡佐用町,佐用８５８番地２,,28,501,6795301,,,,,,,2024-08-01,1,,,,,ケイプラス,0
1210,5160001026115,新規,0,2024-08-01,2024-08-01,株式会社ＭＯＯＮ　ＰＨＡＳＥ,,株式会社,滋賀県,彦根市,後三条町６０８番地３,,25,202,5220086,,,,,,,2024-08-01,1,,,,,ムーンフェイズ,0
1217,5180001162528,新規,0,2024-08-01,2024-08-01,株式会社ホールネクスト,,株式会社,愛知県,名古屋市中村区,名駅４丁目２４番５号,,23,105,4500002,,,,,,,2024-08-01,1,,,,,ホールネクスト,0
1218,5180001162577,新規,0,2024-08-01,2024-08-01,株式会社辰友,,株式会社,愛知県,名古屋市中川区,大当郎３丁目８０１番地の６,,23,110,4540943,,,,,,,2024-08-01,1,,,,,シンユウ,0
1219,5180001162593,新規,0,2024-08-01,2024-08-01,株式会社住い構築社,,株式会社,愛知県,北名古屋市,九之坪天下地５０番地,,23,234,4810041,,,,,,,2024-08-01,1,,,,,スマイコウチクシャ,0
1220,5180001162602,新規,0,2024-08-01,2024-08-01,Ｇ’ｓ　Ｄｅｌｉｇｈｔ株式会社,,株式会社,愛知県,名古屋市南区,柵下町１丁目３２番地,,23,112,4570044,,,,,,,2024-08-01,1,,,,,ジーズディライト,0
1225,5190001031533,新規,0,2024-08-01,2024-08-01,株式会社サントクホールディングス,,株式会社,三重県,四日市市,大矢知町１９２５番地,,24,202,5108034,,,,,,,2024-08-01,1,,,,,サントクホールディングス,0
1230,5200001042768,新規,0,2024-08-01,2024-08-01,オンギフトジャパン株式会社,,株式会社,岐阜県,中津川市,苗木４７０８番地の１,,21,206,5080101,,,,,,,2024-08-01,1,,,,,オンギフトジャパン,0
1232,5200003006449,新規,0,2024-08-01,2024-08-01,合同会社Ｋａｎｏａ,,合同会社,岐阜県,本巣市,上真桑２０４９番地１,,21,218,5010461,,,,,,,2024-08-01,1,,,,,カノア,0
1234,5220003003808,新規,0,2024-08-01,2024-08-01,Ｆｒｅｅ　ｌｉｆｅ合同会社,,合同会社,石川県,金沢市,三ツ屋町イ２８番地５,,17,201,9200214,,,,,,,2024-08-01,1,,,,,フリーライフ,0
1238,5240001063612,新規,0,2024-08-01,2024-08-01,新日本マイクロ株式会社,,株式会社,広島県,広島市中区,紙屋町２丁目３番２４号,,34,101,7300031,,,,,,,2024-08-01,1,,,,,シンニッポンマイクロ,0
1241,5240003006775,新規,0,2024-08-01,2024-08-01,合同会社大吉,,合同会社,広島県,福山市,駅家町大字万能倉１２９２番地１４,,34,207,7201131,,,,,,,2024-08-01,1,,,,,ダイキチ,0
1242,5240003006783,新規,0,2024-08-01,2024-08-01,合同会社Ｌｕｘｅｍ,,合同会社,広島県,福山市,多治米町４丁目７番１３－１号,,34,207,7200824,,,,,,,2024-08-01,1,,,,,ルクセム,0
1260,5290801030740,新規,0,2024-08-01,2024-08-01,Ｚｅｒｏ株式会社,,株式会社,福岡県,北九州市門司区,大里本町２丁目３番１２号,,40,101,8000063,,,,,,,2024-08-01,1,,,,,ゼロ,0
1261,5290801030749,新規,0,2024-08-01,2024-08-01,株式会社恒成,,株式会社,福岡県,北九州市小倉北区,霧ケ丘１丁目１番１１－３０５号,,40,106,8020052,,,,,,,2024-08-01,1,,,,,ツネナリ,0
1262,5290803004791,新規,0,2024-08-01,2024-08-01,合同会社ＡＫＩＲＡ,,合同会社,福岡県,北九州市若松区,宮丸１丁目１５番１８号,,40,103,8080064,,,,,,,2024-08-01,1,,,,,アキラ,0
1263,5300001013858,新規,0,2024-08-01,2024-08-01,株式会社ＪＭＮＳ,,株式会社,佐賀県,小城市,三日月町樋口１２９２番地１０,00135761,41,208,8450033,,,,,,,2024-08-01,1,,,,,ジェイエムエヌエス,0
1265,5300003002157,新規,0,2024-08-01,2024-08-01,合同会社ＢＡＳＥ,,合同会社,佐賀県,唐津市,浜玉町浜崎７９８‐１,,41,202,8495131,,,,,,,2024-08-01,1,,,,,ベース,0
1267,5310001019136,新規,0,2024-08-01,2024-08-01,株式会社堀内鈑金工業,,株式会社,長崎県,諫早市,栗面町７７０番地３６,,42,204,8540055,,,,,,,2024-08-01,1,,,,,ホリウチバンキンコウギョウ,0
1268,5310001019144,新規,0,2024-08-01,2024-08-01,株式会社テックラボ,,株式会社,長崎県,佐世保市,松川町１５番４号,,42,202,8570804,,,,,,,2024-08-01,1,,,,,テックラボ,0
1269,5330001032293,新規,0,2024-08-01,2024-08-01,株式会社マルミフルーツ,,株式会社,熊本県,玉名郡玉東町,大字原倉９６６番地,,43,364,8690322,,,,,,,2024-08-01,1,,,,,マルミフルーツ,0
1272,5330003010495,新規,0,2024-08-01,2024-08-01,合同会社ＡＭＳ,,合同会社,熊本県,熊本市中央区,下通１丁目１１番２１号ロフティ西銀座会館ビル４Ｆ,,43,101,8600807,,,,,,,2024-08-01,1,,,,,エーエムエス,0
1273,5340001026690,新規,0,2024-08-01,2024-08-01,株式会社ＴｒａｎｓｆｏｒｍＴｒａｖｅｌ,,株式会社,鹿児島県,熊毛郡屋久島町,平内２５８番地２４,,46,505,8914406,,,,,,,2024-08-01,1,,,,,トランスフォームトラベル,0
1274,5340003004554,新規,0,2024-08-01,2024-08-01,合同会社一粒万倍,,合同会社,鹿児島県,指宿市,山川浜児ケ水４４８番地１,,46,210,8910512,,,,,,,2024-08-01,1,,,,,イチリュウマンバイ,0
1276,5350001019108,新規,0,2024-08-01,2024-08-01,株式会社農業創研,,株式会社,宮崎県,児湯郡川南町,大字平田４６０３番地１,,45,405,8891302,,,,,,,2024-08-01,1,,,,,ノウギョウソウケン,0
1278,5350003004719,新規,0,2024-08-01,2024-08-01,スターアライアンス合同会社,,合同会社,宮崎県,都城市,鷹尾３丁目１９街区１７号,,45,202,8850081,,,,,,,2024-08-01,1,,,,,スターアライアンス,0
1279,5360001033990,新規,0,2024-08-01,2024-08-01,株式会社ＷＯＯＤＢＡＳＥ・３８５,,株式会社,沖縄県,宮古島市,平良字狩俣１２９番地,,47,214,9060002,,,,,,,2024-08-01,1,,,,,ウッドベースサンハチゴ,0
1280,5360001034007,新規,0,2024-08-01,2024-08-01,株式会社ＨＡＬＯ,,株式会社,沖縄県,那覇市,前島１丁目１８－１マンション前島１階,,47,201,9000016,,,,,,,2024-08-01,1,,,,,ハロ,0
1283,5370001051562,新規,0,2024-08-01,2024-08-01,株式会社上野土建,,株式会社,宮城県,宮城郡利府町,中央３丁目４番地６ＰｅａｒＨｏｕｓｅ１０３,,04,406,9810104,,,,,,,2024-08-01,1,,,,,ウエノドケン,0
1291,5400003003302,新規,0,2024-08-01,2024-08-01,合同会社Ｊａｓｍｉｎｅ　Ｈｏｕｓｅ,,合同会社,岩手県,盛岡市,下太田榊６５番地９,,03,201,0200051,,,,,,,2024-08-01,1,,,,,ジャスミンハウス,0
1295,5410003003961,新規,0,2024-08-01,2024-08-01,合同会社Ｄ＆Ｅクリエイト,,合同会社,秋田県,秋田市,山王１丁目８番１３号,,05,201,0100951,,,,,,,2024-08-01,1,,,,,ディーアンドイークリエイト,0
1299,5430003016623,新規,0,2024-08-01,2024-08-01,ちひろ合同会社,,合同会社,北海道,札幌市南区,澄川四条８丁目１２番２１号,,01,106,0050004,,,,,,,2024-08-01,1,,,,,チヒロ,0
1300,5430003016631,新規,0,2024-08-01,2024-08-01,コールミー合同会社,,合同会社,北海道,札幌市白石区,南郷通１２丁目北１‐１５岡田ビル１Ｆ,,01,104,0030023,,,,,,,2024-08-01,1,,,,,コールミー,0
1305,5470001020318,新規,0,2024-08-01,2024-08-01,株式会社ファーム未来,,株式会社,香川県,小豆郡土庄町,甲６１４５番地３,,37,322,7614101,,,,,,,2024-08-01,1,,,,,ファームミライ,0
1308,5500001025775,新規,0,2024-08-01,2024-08-01,株式会社Ｓａｉｌｐｌｕｓ,,株式会社,愛媛県,松山市,畑寺２丁目４番５０号,,38,201,7900913,,,,,,,2024-08-01,1,,,,,セイルプラス,0
1309,5500001025783,新規,0,2024-08-01,2024-08-01,株式会社Ｌａｎｃｅ,,株式会社,愛媛県,松山市,和泉北１丁目１番３号－１０７,,38,201,7900038,,,,,,,2024-08-01,1,,,,,ランス,0
1310,5700150126635,新規,0,2024-08-01,2024-08-01,Ｓｈｅｎｚｈｅｎｓｈｉｂｏｙｅｋｅｊｉｙｏｕｘｉａｎｇｏｎｇｓｉ,,外国会社等,,,,,,,,２７０２Ａ－２，２７ｔｈ　Ｆｌｏｏｒ，Ｗｅｓｔ　Ｔｏｗｅｒ，Ｓｔａｒ　Ｒｉｖｅｒ　ＷＯＲＬＤ　Ｔｗｉｎ　Ｔｏｗｅｒｓ，Ｎｏ．８　Ｙａｘｉｎｇ　Ｒｏａｄ，Ｎａｎｋｅｎｇ　Ｃｏｍｍｕｎｉｔｙ，Ｂａｎｔｉａｎ　Ｓｔｒｅｅｔ，Ｌｏｎｇｇａｎｇ　Ｄｉｓｔｒｉｃｔ，Ｓｈｅｎｚｈｅｎ,,,,,,2024-08-01,1,,,,,シェンジェンシーボーイエコーァジーヨウシエンゴーンスー,0
1314,6010001246395,新規,0,2024-08-01,2024-08-01,株式会社やまじょう,,株式会社,東京都,中央区,日本橋小舟町４－５ＳＫ小舟町ビル５Ｆ,,13,102,1030024,,,,,,,2024-08-01,1,,,,,ヤマジョウ,0
1315,6010001246981,新規,0,2024-08-01,2024-08-01,三和株式会社,,株式会社,東京都,中央区,日本橋堀留町１丁目７番２号ＰＡＴＨ日本橋人形町８０６,,13,102,1030012,,,,,,,2024-08-01,1,,,,,ミワ,0
1316,6010001247022,新規,0,2024-08-01,2024-08-01,株式会社１０５９,,株式会社,東京都,中央区,日本橋茅場町１丁目１０番６号１階,,13,102,1030025,,,,,,,2024-08-01,1,,,,,センゴク,0
1317,6010001247039,新規,0,2024-08-01,2024-08-01,株式会社シネマリス,,株式会社,東京都,千代田区,神田須田町１丁目７番８号ＶＯＲＴ秋葉原ＩＶ２Ｆ,00135760,13,101,1010041,,,,,,,2024-08-01,1,,,,,シネマリス,0
1318,6010001247071,新規,0,2024-08-01,2024-08-01,ＭＵＫＡ株式会社,,株式会社,東京都,中央区,日本橋室町１丁目１１番１２号日本橋水野ビル７階,,13,102,1030022,,,,,,,2024-08-01,1,,,,,ムカ,0
1319,6010001247088,新規,0,2024-08-01,2024-08-01,エージェントブリッジ株式会社,,株式会社,東京都,中央区,銀座８丁目１８番３号加藤ビル２階,,13,102,1040061,,,,,,,2024-08-01,1,,,,,エージェントブリッジ,0
1321,6010003044467,新規,0,2024-08-01,2024-08-01,合同会社ＬＵＰＩＮＵＳ,,合同会社,東京都,中央区,銀座１丁目２２番１１号銀座大竹ビジデンス２階,,13,102,1040061,,,,,,,2024-08-01,1,,,,,ルピナス,0
1322,6010003044475,新規,0,2024-08-01,2024-08-01,ゆうちょ・シグマ地域活性化合同会社,,合同会社,東京都,千代田区,大手町２丁目３番１号,,13,101,1000004,,,,,,,2024-08-01,1,,,,,ユウチョシグマチイキカッセイカ,0
1323,6010003044509,新規,0,2024-08-01,2024-08-01,合同会社リーガリー,,合同会社,東京都,千代田区,神田神保町１丁目３４番１２号,,13,101,1010051,,,,,,,2024-08-01,1,,,,,リーガリー,0
1324,6010005038582,新規,0,2024-08-01,2024-08-01,一般社団法人Ｔｈｅ　Ｐｅａｋ　Ｓｅｒｉｅｓ　ＩＩＩ,,その他の設立登記法人,東京都,千代田区,四番町４番地９新東京国際リーガル内,,13,101,1020081,,,,,,,2024-08-01,1,,,,,ザピークシリーズスリー,0
1325,6010005038624,新規,0,2024-08-01,2024-08-01,千歳ヤマセミ一般社団法人,,その他の設立登記法人,東京都,千代田区,平河町１丁目６番１５号シルスフィア会計事務所内,,13,101,1020093,,,,,,,2024-08-01,1,,,,,チトセヤマセミ,0
1334,6010401184121,新規,0,2024-08-01,2024-08-01,株式会社ビューティーエデュケーションラボ,,株式会社,東京都,港区,南麻布２丁目７番３０号リバーサイド麻布５０２,,13,103,1060047,,,,,,,2024-08-01,1,,,,,ビューティーエデュケーションラボ,0
1335,6010401184170,新規,0,2024-08-01,2024-08-01,株式会社ＱＢＯ,,株式会社,東京都,港区,北青山１丁目３番１号,,13,103,1070061,,,,,,,2024-08-01,1,,,,,キュウボ,0
1336,6010401184187,新規,0,2024-08-01,2024-08-01,おーばーおーるず株式会社,,株式会社,東京都,港区,芝浦４丁目１３番３号,,13,103,1080023,,,,,,,2024-08-01,1,,,,,オーバーオールズ,0
1337,6010401184261,新規,0,2024-08-01,2024-08-01,株式会社Ｌａｋｏｒａ,,株式会社,東京都,港区,港南１丁目９番３６号アレア品川１３階８０１号室,,13,103,1080075,,,,,,,2024-08-01,1,,,,,ラコラ,0
1341,6010403033144,新規,0,2024-08-01,2024-08-01,タピルージュ合同会社,,合同会社,東京都,港区,北青山１丁目３－１アールキューブ青山３階,,13,103,1070061,,,,,,,2024-08-01,1,,,,,タピルージュ,0
1342,6010403033152,新規,0,2024-08-01,2024-08-01,合同会社Ｉｒｉｓ,,合同会社,東京都,港区,西麻布３丁目２４ー１６西麻布ＳＤビル２Ｆ,,13,103,1060031,,,,,,,2024-08-01,1,,,,,イリス,0
1351,6010703007285,新規,0,2024-08-01,2024-08-01,合同会社Ｈｉｔｙｓ,,合同会社,東京都,品川区,小山２丁目９番４号,,13,109,1420062,,,,,,,2024-08-01,1,,,,,ヒッティーズ,0
1352,6010801035279,新規,0,2024-08-01,2024-08-01,株式会社ヤマサ防災,,株式会社,東京都,大田区,西糀谷１丁目１５－２１,,13,111,1440034,,,,,,,2024-08-01,1,,,,,ヤマサボウサイ,0
1353,6010801035287,新規,0,2024-08-01,2024-08-01,フェニックスパスベンチャーズ株式会社,,株式会社,東京都,大田区,北千束３丁目３番１９号,,13,111,1450062,,,,,,,2024-08-01,1,,,,,フェニックスパスベンチャーズ,0
1357,6010901055722,新規,0,2024-08-01,2024-08-01,株式会社セレニティＨＯＵＳＥ,,株式会社,東京都,世田谷区,上馬１丁目１３番６－２０４号,,13,112,1540011,,,,,,,2024-08-01,1,,,,,セレニティハウス,0
1359,6010903009255,新規,0,2024-08-01,2024-08-01,合同会社磯野家の晩酌,,合同会社,東京都,世田谷区,桜丘４丁目１６番２４号,,13,112,1560054,,,,,,,2024-08-01,1,,,,,イソノケノバンシャク,0
1365,6011001163630,新規,0,2024-08-01,2024-08-01,株式会社Ｂｒｏｗｎ,,株式会社,東京都,渋谷区,広尾５丁目１番１５－５０１号ザ・パークハウス広尾,,13,113,1500012,,,,,,,2024-08-01,1,,,,,ブラウン,0
1366,6011001163713,新規,0,2024-08-01,2024-08-01,オフィスモンキー株式会社,,株式会社,東京都,渋谷区,渋谷２丁目１０番１５号エキスパートオフィス渋谷,,13,113,1500002,,,,,,,2024-08-01,1,,,,,オフィスモンキー,0
1367,6011001163804,新規,0,2024-08-01,2024-08-01,株式会社クリエイティブファクトリー,,株式会社,東京都,渋谷区,神宮前６丁目２３番４号桑野ビル２階,,13,113,1500001,,,,,,,2024-08-01,1,,,,,クリエイティブファクトリー,0
1375,6011101108270,新規,0,2024-08-01,2024-08-01,ドルフィン・テクノロジーズ株式会社,,株式会社,東京都,新宿区,西新宿３丁目３－１３西新宿水間ビル２Ｆ,,13,104,1600023,,,,,,,2024-08-01,1,,,,,ドルフィンテクノロジーズ,0
1376,6011101108287,新規,0,2024-08-01,2024-08-01,株式会社アシスト,,株式会社,東京都,新宿区,西新宿３丁目３番１３号西新宿水間ビル２Ｆ,,13,104,1600023,,,,,,,2024-08-01,1,,,,,アシスト,0
1379,6011301029886,新規,0,2024-08-01,2024-08-01,絵空株式会社,,株式会社,東京都,杉並区,今川２丁目５番７－５０６号,,13,115,1670035,,,,,,,2024-08-01,1,,,,,エソラ,0
1381,6011401026271,新規,0,2024-08-01,2024-08-01,株式会社Ｓｈｅｌｔｅｒ,,株式会社,東京都,板橋区,大山町４７番１号４０１,,13,119,1730023,,,,,,,2024-08-01,1,,,,,シェルター,0
1382,6011401026313,新規,0,2024-08-01,2024-08-01,株式会社ＩＫＤ,,株式会社,東京都,板橋区,大山東町５８番１号,,13,119,1730014,,,,,,,2024-08-01,1,,,,,アイケイディ,0
1384,6011501030982,新規,0,2024-08-01,2024-08-01,株式会社クララス,,株式会社,東京都,北区,西が丘２丁目１４番１２号,,13,117,1150056,,,,,,,2024-08-01,1,,,,,クララス,0
1387,6011503006163,新規,0,2024-08-01,2024-08-01,Ａｓｃｅｎｓｉｏｎ合同会社,,合同会社,東京都,荒川区,東尾久２丁目３７番５－２０５号,,13,118,1160012,,,,,,,2024-08-01,1,,,,,アセンション,0
1389,6011801044609,新規,0,2024-08-01,2024-08-01,速水工業株式会社,,株式会社,東京都,葛飾区,水元２丁目５番４号,,13,122,1250032,,,,,,,2024-08-01,1,,,,,ハヤミコウギョウ,0
1390,6011801044617,新規,0,2024-08-01,2024-08-01,株式会社ＴＥＲＡ’ｓ　ＨＯＵＳＥ,,株式会社,東京都,足立区,東綾瀬１丁目２９番９号アーデル綾瀬コージーガーデン３０４,,13,121,1200004,,,,,,,2024-08-01,1,,,,,テラズハウス,0
1392,6011803006367,新規,0,2024-08-01,2024-08-01,合同会社Ｈｏｎｕ,,合同会社,東京都,葛飾区,立石３丁目１６番１２号,,13,122,1240012,,,,,,,2024-08-01,1,,,,,ホヌ,0
1394,6012301014028,新規,0,2024-08-01,2024-08-01,株式会社アイピース,,株式会社,東京都,町田市,鶴間３丁目９番地２ライオンズステーションプラザ南町田８０１,,13,209,1940004,,,,,,,2024-08-01,1,,,,,アイピース,0
1395,6013105001848,新規,0,2024-08-01,2024-08-01,一般社団法人健康シニアｅスポーツ推進協会,,その他の設立登記法人,東京都,青梅市,東青梅２丁目１１番地の１９ＮＴビル３階,,13,205,1980042,,,,,,,2024-08-01,1,,,,,ケンコウシニアイースポーツスイシンキョウカイ,0
1400,6020001158276,新規,0,2024-08-01,2024-08-01,株式会社ファイブシーズンマネジメント,,株式会社,神奈川県,横浜市中区,長者町９丁目１４７番地２,,14,104,2310033,,,,,,,2024-08-01,1,,,,,ファイブシーズンマネジメント,0
1402,6021001082838,新規,0,2024-08-01,2024-08-01,株式会社山口,,株式会社,神奈川県,小田原市,寿町４丁目１５番２７号,,14,206,2500002,,,,,,,2024-08-01,1,,,,,ヤマグチ,0
1403,6021001082846,新規,0,2024-08-01,2024-08-01,株式会社イキルネ,,株式会社,神奈川県,小田原市,板橋７８７番地の１城山サニーハイツ２号棟５０４,,14,206,2500034,,,,,,,2024-08-01,1,,,,,イキルネ,0
1404,6021001082862,新規,0,2024-08-01,2024-08-01,株式会社ＰｏｗｅｒＢｉｚ,,株式会社,神奈川県,藤沢市,鵠沼海岸１丁目１１番３－５０３号,00135757,14,205,2510037,,,,,,,2024-08-01,1,,,,,パワービズ,0
1406,6021003014839,新規,0,2024-08-01,2024-08-01,エイムバンク合同会社,,合同会社,神奈川県,藤沢市,鵠沼海岸５丁目１１番１５号琵琶ビル３０２号室,00135763,14,205,2510037,,,,,,,2024-08-01,1,,,,,エイムバンク,0
1407,6021003014847,新規,0,2024-08-01,2024-08-01,合同会社つむぎ,,合同会社,神奈川県,相模原市南区,上鶴間７丁目３番５５号,,14,153,2520302,,,,,,,2024-08-01,1,,,,,ツムギ,0
1416,6030001161626,新規,0,2024-08-01,2024-08-01,ＱＵＡＮＴＵＭ株式会社,,株式会社,埼玉県,さいたま市北区,土呂町２丁目２１番地３－８０２,,11,102,3310804,,,,,,,2024-08-01,1,,,,,クォンタム,0
1417,6030001161642,新規,0,2024-08-01,2024-08-01,株式会社ＳＴＹコーポレーション,,株式会社,埼玉県,草加市,苗塚町３２７番地１,,11,221,3400036,,,,,,,2024-08-01,1,,,,,エスティーワイコーポレーション,0
1418,6030001161675,新規,0,2024-08-01,2024-08-01,杉本土木株式会社,,株式会社,埼玉県,所沢市,泉町９０５－２,,11,208,3591112,,,,,,,2024-08-01,1,,,,,スギモトドボク,0
1419,6030001161683,新規,0,2024-08-01,2024-08-01,株式会社ＮＥＷ　ＤＥＡＬ,,株式会社,埼玉県,上尾市,柏座３丁目７番４２号,,11,219,3620075,,,,,,,2024-08-01,1,,,,,ニューディール,0
1420,6030001161725,新規,0,2024-08-01,2024-08-01,株式会社Ｔｏｂｂｙ,,株式会社,埼玉県,さいたま市南区,辻２丁目２１番１８－２号,00135762,11,108,3360026,,,,,,,2024-08-01,1,,,,,トビー,0
1421,6030001161733,新規,0,2024-08-01,2024-08-01,すまいるライフＪＡＰＡＮ株式会社,,株式会社,埼玉県,越谷市,レイクタウン１丁目２４番地７,,11,222,3430828,,,,,,,2024-08-01,1,,,,,スマイルライフジャパン,0
1422,6030001161741,新規,0,2024-08-01,2024-08-01,株式会社ＹＡＳ,,株式会社,埼玉県,さいたま市浦和区,岸町４丁目９番３号,,11,107,3300064,,,,,,,2024-08-01,1,,,,,ワイエーエス,0
1423,6030003024789,新規,0,2024-08-01,2024-08-01,合同会社経営フィナンシャル,,合同会社,埼玉県,深谷市,東方１７６２番地１０,,11,218,3660041,,,,,,,2024-08-01,1,,,,,ケイエイフィナンシャル,0
1437,6050005013474,新規,0,2024-08-01,2024-08-01,一般社団法人ＣＲＯＳＳＯＶＥＲ,,その他の設立登記法人,茨城県,つくば市,みどりの南１０１番地３８,,08,220,3050884,,,,,,,2024-08-01,1,,,,,クロスオーバー,0
1440,6070001042038,新規,0,2024-08-01,2024-08-01,ＳＲ　ＴＲＡＤＩＮＧ株式会社,,株式会社,群馬県,前橋市,南町３丁目４１番地４アルタビル１Ｆ,,10,201,3710805,,,,,,,2024-08-01,1,,,,,エスアールトレーディング,0
1444,6080401027331,新規,0,2024-08-01,2024-08-01,ゲヒルンコンサルティング株式会社,,株式会社,静岡県,菊川市,本所１７５番地の２,,22,224,4390018,,,,,,,2024-08-01,1,,,,,ゲヒルンコンサルティング,0
1448,6090001018837,新規,0,2024-08-01,2024-08-01,株式会社あいこねくと,,株式会社,山梨県,北杜市,長坂町大井ヶ森１０４５番地８,,19,209,4080032,,,,,,,2024-08-01,1,,,,,アイコネクト,0
1449,6090005007638,新規,0,2024-08-01,2024-08-01,一般社団法人日本フィンランド国際教育交流協会,,その他の設立登記法人,山梨県,南都留郡富士河口湖町,小立５７０３番地,,19,430,4010302,,,,,,,2024-08-01,1,,,,,ニホンフィンランドコクサイキョウイクコウリュウキョウカイ,0
1455,6110001038601,新規,0,2024-08-01,2024-08-01,株式会社共優Ｅｎｇ,,株式会社,新潟県,新潟市東区,寺山１丁目８番４３号,,15,102,9500892,,,,,,,2024-08-01,1,,,,,キョウユウエンジ,0
1456,6110001038618,新規,0,2024-08-01,2024-08-01,株式会社中北車体工作所,,株式会社,新潟県,新潟市東区,榎町７０番地,,15,102,9500881,,,,,,,2024-08-01,1,,,,,ナカキタシャタイコウサクショ,0
1463,6120001267257,新規,0,2024-08-01,2024-08-01,株式会社ＲＩＮ　ｇｒｏｕｐ,,株式会社,大阪府,大阪市中央区,備後町２丁目４番６号森田ビルディング,,27,128,5410051,,,,,,,2024-08-01,1,,,,,リングループ,0
1464,6120001267281,新規,0,2024-08-01,2024-08-01,株式会社ＲＩＭＡＤＯＬＬ,,株式会社,大阪府,大阪市中央区,西心斎橋１丁目６番３３号オカビル４Ｆ・Ａ号,,27,128,5420086,,,,,,,2024-08-01,1,,,,,リマドール,0
1465,6120001267298,新規,0,2024-08-01,2024-08-01,ＺＥＮＯＶＡ株式会社,,株式会社,大阪府,大阪市北区,梅田１丁目２番２号大阪駅前第２ビル１２－１２,,27,127,5300001,,,,,,,2024-08-01,1,,,,,ゼノバ,0
1466,6120001267323,新規,0,2024-08-01,2024-08-01,都島自動車不動産管理株式会社,,株式会社,大阪府,大阪市都島区,友渕町３丁目４番１４号,,27,102,5340016,,,,,,,2024-08-01,1,,,,,ミヤコジマジドウシャフドウサンカンリ,0
1467,6120001267348,新規,0,2024-08-01,2024-08-01,Ｂ２Ｎ株式会社,,株式会社,大阪府,大阪市阿倍野区,天王寺南二丁目２２番３号ＮＡＧＡＩメゾン天王寺南４０１,,27,119,5450000,,,,,,,2024-08-01,1,,,,,ビーツーエヌ,0
1468,6120001267389,新規,0,2024-08-01,2024-08-01,株式会社ＭＹ　ｃｏｒｐｏｒａｔｉｏｎ,,株式会社,大阪府,大阪市東淀川区,小松４丁目１６番４３－２０５号,,27,114,5330004,,,,,,,2024-08-01,1,,,,,エムワイコーポレーション,0
1469,6120003027163,新規,0,2024-08-01,2024-08-01,合同会社山口地所,,合同会社,大阪府,大阪市北区,大淀南２丁目２番９－５０１号,,27,127,5310075,,,,,,,2024-08-01,1,,,,,ヤマグチチショ,0
1470,6120101070073,新規,0,2024-08-01,2024-08-01,株式会社Ｌｉｈｉ　Ｍａｉｌｅ,,株式会社,大阪府,和泉市,池田下町１２３－１,,27,219,5940032,,,,,,,2024-08-01,1,,,,,リヒマイレ,0
1471,6120901049523,新規,0,2024-08-01,2024-08-01,株式会社ブレイク,,株式会社,大阪府,摂津市,鳥飼上３丁目５番４１号,,27,224,5660062,,,,,,,2024-08-01,1,,,,,ブレイク,0
1472,6120901049531,新規,0,2024-08-01,2024-08-01,株式会社西村組,,株式会社,大阪府,池田市,神田４丁目２５番４１－３０１号,,27,204,5630043,,,,,,,2024-08-01,1,,,,,ニシムラグミ,0
1473,6120901049548,新規,0,2024-08-01,2024-08-01,株式会社Ｓｈａｒｅ,,株式会社,大阪府,箕面市,桜井３丁目１２番３３号,,27,220,5620043,,,,,,,2024-08-01,1,,,,,シェア,0
1474,6120903005284,新規,0,2024-08-01,2024-08-01,合同会社ＯＫ,,合同会社,大阪府,摂津市,鳥飼野々２丁目２番２－８０１号,,27,224,5660053,,,,,,,2024-08-01,1,,,,,オーケイ,0
1476,6122001038308,新規,0,2024-08-01,2024-08-01,樋口用樹園株式会社,00135754,株式会社,大阪府,八尾市,服部川３丁目８０番地,,27,212,5810865,,,,,,,2024-08-01,1,,,,,ヒグチヨウジュエン,0
1477,6122001038316,新規,0,2024-08-01,2024-08-01,株式会社きづな,,株式会社,大阪府,東大阪市,荒川２丁目３番４号,,27,227,5770843,,,,,,,2024-08-01,1,,,,,キヅナ,0
1478,6122003002947,新規,0,2024-08-01,2024-08-01,合同会社海,,合同会社,大阪府,大東市,氷野４丁目２番７６号,,27,218,5740062,,,,,,,2024-08-01,1,,,,,ウミ,0
1483,6130003009730,新規,0,2024-08-01,2024-08-01,Ｚｅｏｎ合同会社,,合同会社,京都府,京都市下京区,茶磨屋町２３６番地Ａ－Ｔｅｒｒａｃｅ４Ｂ,,26,106,6008045,,,,,,,2024-08-01,1,,,,,ジオン,0
1486,6140001135296,新規,0,2024-08-01,2024-08-01,株式会社ＦＵＫＵ,,株式会社,兵庫県,たつの市,新宮町井野原６９９番地７００,,28,229,6794315,,,,,,,2024-08-01,1,,,,,フク,0
1487,6140001135305,新規,0,2024-08-01,2024-08-01,株式会社ＣＲＥＥＴＥ,,株式会社,兵庫県,神戸市中央区,下山手通３丁目４－１０－２Ｆ,,28,110,6500011,,,,,,,2024-08-01,1,,,,,クリート,0
1488,6140001135313,新規,0,2024-08-01,2024-08-01,株式会社フジエコス,,株式会社,兵庫県,丹波篠山市,杉１７０番地１井上ビル２階１号室,,28,221,6692204,,,,,,,2024-08-01,1,,,,,フジエコス,0
1489,6140001135321,新規,0,2024-08-01,2024-08-01,サン・フレット株式会社,,株式会社,兵庫県,加古郡稲美町,中村７１０番地の１,,28,381,6751122,,,,,,,2024-08-01,1,,,,,サンフレット,0
1490,6140001135338,新規,0,2024-08-01,2024-08-01,株式会社Ｍｓ．ｃａｔｅｒｉｎｇ　ＬＡＢ,,株式会社,兵庫県,伊丹市,西台３丁目６番１７号,,28,207,6640858,,,,,,,2024-08-01,1,,,,,ミズケータリングラボ,0
1491,6140001135354,新規,0,2024-08-01,2024-08-01,株式会社メイエンリッチ,,株式会社,兵庫県,尼崎市,南塚口町４丁目２番１号,,28,202,6610012,,,,,,,2024-08-01,1,,,,,メイエンリッチ,0
1494,6140003020901,新規,0,2024-08-01,2024-08-01,合同会社まありな,,合同会社,兵庫県,明石市,東仲ノ町３番３３号まありお９８,,28,203,6730886,,,,,,,2024-08-01,1,,,,,マアリナ,0
1495,6160001026114,新規,0,2024-08-01,2024-08-01,株式会社ハートフルハンズ,,株式会社,滋賀県,東近江市,小川町８６４,,25,213,5211204,,,,,,,2024-08-01,1,,,,,ハートフルハンズ,0
1496,6160001026122,新規,0,2024-08-01,2024-08-01,株式会社ギフトボックス,,株式会社,滋賀県,大津市,比叡平１丁目３３番７号,,25,201,5200016,,,,,,,2024-08-01,1,,,,,ギフトボックス,0
1498,6160003003251,新規,0,2024-08-01,2024-08-01,アトラス合同会社,,合同会社,滋賀県,長浜市,内保町２７３９－１０,,25,203,5260244,,,,,,,2024-08-01,1,,,,,,0
1502,6180001162527,新規,0,2024-08-01,2024-08-01,株式会社オフィスＫ,,株式会社,愛知県,豊明市,沓掛町薬師ケ根５８番地,,23,229,4701101,,,,,,,2024-08-01,1,,,,,オフィスケー,0
1503,6180001162551,新規,0,2024-08-01,2024-08-01,ＴＯＭＭＹ株式会社,,株式会社,愛知県,日進市,梅森町上松３５１番地３,,23,230,4700132,,,,,,,2024-08-01,1,,,,,トミー,0
1504,6180001162576,新規,0,2024-08-01,2024-08-01,株式会社Ｌｏｎｇ　Ｌｉｆｅ,,株式会社,愛知県,知多郡美浜町,北方１丁目５５番地,,23,446,4702403,,,,,,,2024-08-01,1,,,,,ロングライフ,0
1505,6180001162592,新規,0,2024-08-01,2024-08-01,ＯＴＡＤＯＧ株式会社,,株式会社,愛知県,名古屋市昭和区,若柳町２丁目１９,,23,107,4660036,,,,,,,2024-08-01,1,,,,,オタドッグ,0
1506,6180001162659,新規,0,2024-08-01,2024-08-01,猿田彦パートナーズ株式会社,,株式会社,愛知県,名古屋市中村区,名駅４丁目２４第２森ビル４０１,,23,105,4500002,,,,,,,2024-08-01,1,,,,,サルタヒコパートナーズ,0
1507,6180001162709,新規,0,2024-08-01,2024-08-01,ツーエッグ株式会社,,株式会社,愛知県,一宮市,森本４丁目２３番１７号,,23,203,4910831,,,,,,,2024-08-01,1,,,,,ツーエッグ,0
1509,6180301038906,新規,0,2024-08-01,2024-08-01,ＷＫ．ホールディングス株式会社,,株式会社,愛知県,西尾市,下羽角町岩谷５６番地１,,23,213,4450012,,,,,,,2024-08-01,1,,,,,ダブリューケイホールディングス,0
1510,6180301038922,新規,0,2024-08-01,2024-08-01,株式会社ＡＬｔｅｒａ,,株式会社,愛知県,岡崎市,上地１丁目２５番地７,,23,202,4440823,,,,,,,2024-08-01,1,,,,,アルテラ,0
1512,6190001031524,新規,0,2024-08-01,2024-08-01,ＳＯホールディングス株式会社,,株式会社,三重県,伊賀市,小田町字南代１４３５番地,,24,216,5180825,,,,,,,2024-08-01,1,,,,,ソウホールディングス,0
1516,6200001042759,新規,0,2024-08-01,2024-08-01,メタルキング株式会社,,株式会社,岐阜県,加茂郡八百津町,伊岐津志２０８番地３３,,21,505,5050303,,,,,,,2024-08-01,1,,,,,メタルキング,0
1517,6200001042767,新規,0,2024-08-01,2024-08-01,株式会社ＭＡＳＵＤＡ　ＦＯＲＥＳＴ,,株式会社,岐阜県,郡上市,白鳥町大島７７９番地５,,21,219,5015124,,,,,,,2024-08-01,1,,,,,マスダフォレスト,0
1518,6210001019847,新規,0,2024-08-01,2024-08-01,株式会社かのあ,,株式会社,福井県,敦賀市,相生町２０番１９号,,18,202,9140062,,,,,,,2024-08-01,1,,,,,カノア,0
1519,6210001019855,新規,0,2024-08-01,2024-08-01,株式会社ＳＷＥＬＬ,,株式会社,福井県,三方上中郡若狭町,瓜生第３７号１１番地１５,,18,501,9191525,,,,,,,2024-08-01,1,,,,,スウェル,0
1523,6220001026132,新規,0,2024-08-01,2024-08-01,エレックジャパンイノベーティブプレイス株式会社,,株式会社,石川県,金沢市,神野町東５３番地サンパティーク神野１０２,,17,201,9200365,,,,,,,2024-08-01,1,,,,,エレックジャパンイノベーティブプレイス,0
1526,6230001020456,新規,0,2024-08-01,2024-08-01,株式会社ノビー・トイズ,,株式会社,富山県,小矢部市,浅地１番地６７,,16,209,9320122,,,,,,,2024-08-01,1,,,,,ノビートイズ,0
1537,6260001039312,新規,0,2024-08-01,2024-08-01,株式会社ＴＩＳ,,株式会社,岡山県,笠岡市,新賀４２６番地１,,33,205,7140005,,,,,,,2024-08-01,1,,,,,ティーアイエス,0
1547,6290005019448,新規,0,2024-08-01,2024-08-01,職業訓練法人プログレス九州教育訓練センター,,その他の設立登記法人,福岡県,福岡市南区,塩原４丁目１３番１０号,,40,134,8150032,,,,,,,2024-08-01,1,,,,,プログレスキュウシュウキョウイククンレンセンター,0
1548,6290005019480,新規,0,2024-08-01,2024-08-01,一般社団法人日本障子産業協会,,その他の設立登記法人,福岡県,八女市,津江１２１５番地,,40,210,8340024,,,,,,,2024-08-01,1,,,,,ニホンショウジサンギョウキョウカイ,0
1552,6300001013857,新規,0,2024-08-01,2024-08-01,株式会社アルソーレ,,株式会社,佐賀県,佐賀市,天神１丁目２番５５号,,41,201,8400815,,,,,,,2024-08-01,1,,,,,アルソーレ,0
1555,6310001019127,新規,0,2024-08-01,2024-08-01,株式会社ＣＲＡＮＫ,,株式会社,長崎県,大村市,黒丸町３９１番地２,,42,205,8560808,,,,,,,2024-08-01,1,,,,,クランク,0
1556,6310001019135,新規,0,2024-08-01,2024-08-01,株式会社川中重機,,株式会社,長崎県,松浦市,志佐町里免２４９番地１,,42,208,8594502,,,,,,,2024-08-01,1,,,,,カワナカジュウキ,0
1559,6310003004829,新規,0,2024-08-01,2024-08-01,合同会社ＢＬＯＯＭ,,合同会社,長崎県,大村市,武部町１１４番地３,,42,205,8560035,,,,,,,2024-08-01,1,,,,,ブルーム,0
1560,6330001032284,新規,0,2024-08-01,2024-08-01,日本ＷＥＧＯ株式会社,,株式会社,熊本県,菊池郡菊陽町,光の森７丁目１番地５,,43,404,8691108,,,,,,,2024-08-01,1,,,,,ニホンウィーゴー,0
1565,6370001051578,新規,0,2024-08-01,2024-08-01,Ｆａｓｃ株式会社,,株式会社,宮城県,大崎市,古川中里２丁目４番地３３,,04,215,9896143,,,,,,,2024-08-01,1,,,,,ファスク,0
1578,6420001018811,新規,0,2024-08-01,2024-08-01,株式会社カンナ一会,,株式会社,青森県,八戸市,田向１丁目４番６号,,02,203,0310011,,,,,,,2024-08-01,1,,,,,カンナイチエ,0
1579,6430001092351,新規,0,2024-08-01,2024-08-01,株式会社アクセルトラスト,,株式会社,北海道,札幌市白石区,東札幌二条５丁目８番２６号,,01,104,0030002,,,,,,,2024-08-01,1,,,,,アクセルトラスト,0
1580,6430001092368,新規,0,2024-08-01,2024-08-01,株式会社ｒｉｂｏ　ｔｏｙｓ,,株式会社,北海道,札幌市清田区,平岡公園東６丁目１番１－１０２号,,01,110,0040882,,,,,,,2024-08-01,1,,,,,リボトイズ,0
1583,6430003016614,新規,0,2024-08-01,2024-08-01,合同会社ＲＡＭＡＴ‐ＲＵ,,合同会社,北海道,札幌市豊平区,豊平七条８丁目１－１７Ｂ２０１,,01,105,0620907,,,,,,,2024-08-01,1,,,,,ラマル,0
1584,6430003016622,新規,0,2024-08-01,2024-08-01,合同会社トランスブリューイング,,合同会社,北海道,札幌市豊平区,平岸二条３丁目２番３９号,,01,105,0620932,,,,,,,2024-08-01,1,,,,,トランスブリューイング,0
1589,6490001010836,新規,0,2024-08-01,2024-08-01,カインドワーク株式会社,,株式会社,高知県,高知市,一宮しなね２丁目１１番２号,,39,201,7818131,,,,,,,2024-08-01,1,,,,,カインドワーク,0
1590,6500001025774,新規,0,2024-08-01,2024-08-01,株式会社ブル・スクーロ,,株式会社,愛媛県,松山市,市坪北２丁目３番１８号,,38,201,7900946,,,,,,,2024-08-01,1,,,,,ブルスクーロ,0
1591,6500001025782,新規,0,2024-08-01,2024-08-01,株式会社メンサルタント,,株式会社,愛媛県,松山市,空港通３丁目２番１１号,,38,201,7910054,,,,,,,2024-08-01,1,,,,,メンサルタント,0
1592,6500001025790,新規,0,2024-08-01,2024-08-01,株式会社ＲＫコネクト,,株式会社,愛媛県,今治市,石橋町２丁目３番３５号,,38,202,7940824,,,,,,,2024-08-01,1,,,,,アールケーコネクト,0
1594,6700150126634,新規,0,2024-08-01,2024-08-01,囲町西地区市街地再開発組合,,その他,東京都,中野区,中野４丁目２０番４号,,13,114,1640001,,,,,,,2024-08-01,1,,,,,カコイチヨウニシチクシガイチサイカイハツクミアイ,0
1599,7010001246989,新規,0,2024-08-01,2024-08-01,株式会社プラックス,,株式会社,東京都,中央区,銀座１丁目１２番４号Ｎ＆ＥＢＬＤ．６Ｆ,,13,102,1040061,,,,,,,2024-08-01,1,,,,,プラックス,0
1600,7010001246997,新規,0,2024-08-01,2024-08-01,株式会社Ｙ’ｓパートナーズ,,株式会社,東京都,中央区,八丁堀３丁目２６番９号,,13,102,1040032,,,,,,,2024-08-01,1,,,,,ワイズパートナーズ,0
1601,7010001247005,新規,0,2024-08-01,2024-08-01,株式会社アラタ,,株式会社,東京都,中央区,日本橋３丁目６番２号日本橋フロント１Ｆ,,13,102,1030027,,,,,,,2024-08-01,1,,,,,アラタ,0
1602,7010001247021,新規,0,2024-08-01,2024-08-01,株式会社ピクセルスタジオ,,株式会社,東京都,中央区,銀座１丁目２２番１１号,,13,102,1040061,,,,,,,2024-08-01,1,,,,,ピクセルスタジオ,0
1603,7010001247038,新規,0,2024-08-01,2024-08-01,株式会社Ｇｉｖｅ　Ｋｎｉｇｈｔ,,株式会社,東京都,千代田区,大手町１丁目５番１号大手町ファーストスクエアイーストタワー４Ｆ,,13,101,1000004,,,,,,,2024-08-01,1,,,,,ギブナイト,0
1604,7010001247046,新規,0,2024-08-01,2024-08-01,株式会社かがやき研究サロン,,株式会社,東京都,千代田区,東神田１丁目１５－９,,13,101,1010031,,,,,,,2024-08-01,1,,,,,カガヤキケンキュウサロン,0
1605,7010001247079,新規,0,2024-08-01,2024-08-01,株式会社Ｄｉｔｔｏｓ,,株式会社,東京都,千代田区,神田錦町３丁目７番地２,,13,101,1010054,,,,,,,2024-08-01,1,,,,,ディトゥズ,0
1606,7010001247120,新規,0,2024-08-01,2024-08-01,ネオジェンケミカルズジャパン株式会社,,株式会社,東京都,中央区,日本橋本町３丁目３番６号ワカ末ビル７階,,13,102,1030023,,,,,,,2024-08-01,1,,,,,ネオジェンケミカルズジャパン,0
1609,7010003044474,新規,0,2024-08-01,2024-08-01,ＴＡＫＥ　ＰＯＷＥＲ合同会社,,合同会社,東京都,中央区,日本橋横山町３番地１,,13,102,1030003,,,,,,,2024-08-01,1,,,,,テークパワー,0
1610,7010003044482,新規,0,2024-08-01,2024-08-01,合同会社希創研,,合同会社,東京都,中央区,銀座１丁目１２番４号Ｎ＆ＥＢＬＤ．６Ｆ,,13,102,1040061,,,,,,,2024-08-01,1,,,,,ノゾミソウケン,0
1611,7010003044490,新規,0,2024-08-01,2024-08-01,合同会社Ｋｏｕｂｕｔｓｕ　Ｊａｐａｎ,,合同会社,東京都,中央区,日本橋室町１丁目１１番１２号日本橋水野ビル７階,,13,102,1030022,,,,,,,2024-08-01,1,,,,,コウブツジャパン,0
1614,7010005038581,新規,0,2024-08-01,2024-08-01,一般社団法人Ｔｈｅ　Ｐｅａｋ　Ｓｅｒｉｅｓ　ＩＩ,,その他の設立登記法人,東京都,千代田区,四番町４番地９新東京国際リーガル内,,13,101,1020081,,,,,,,2024-08-01,1,,,,,ザピークシリーズツー,0
1617,7010401184161,新規,0,2024-08-01,2024-08-01,株式会社ＰＥＲＩＮＯＵＳ,,株式会社,東京都,港区,南青山２丁目２番１５号,,13,103,1070062,,,,,,,2024-08-01,1,,,,,,0
1618,7010401184186,新規,0,2024-08-01,2024-08-01,株式会社ＶＩＬＢＩＳＯＮ,,株式会社,東京都,港区,南青山２丁目２－１５ウィン青山４３８,,13,103,1070062,,,,,,,2024-08-01,1,,,,,ヴィルビゾン,0
1622,7010403033135,新規,0,2024-08-01,2024-08-01,ａｕｎ合同会社,,合同会社,東京都,港区,南青山３丁目１番３６号青山丸竹ビル６Ｆ,,13,103,1070062,,,,,,,2024-08-01,1,,,,,アウン,0
1629,7010601065673,新規,0,2024-08-01,2024-08-01,万洋通商株式会社,,株式会社,東京都,墨田区,両国４丁目３０番１６号,,13,107,1300026,,,,,,,2024-08-01,1,,,,,マンヨウツウショウ,0
1630,7010701046334,新規,0,2024-08-01,2024-08-01,やまはち株式会社,,株式会社,東京都,品川区,南品川５丁目１１番５０－２１６号,,13,109,1400004,,,,,,,2024-08-01,1,,,,,ヤマハチ,0
1631,7010701046342,新規,0,2024-08-01,2024-08-01,株式会社ｄｏｔ　ｒ,,株式会社,東京都,品川区,荏原４丁目５番７号シーズンフラッツ武蔵小山２０２,,13,109,1420063,,,,,,,2024-08-01,1,,,,,ドットアール,0
1632,7010701046359,新規,0,2024-08-01,2024-08-01,株式会社トーテツプラス,,株式会社,東京都,品川区,大崎３丁目６番１１号,,13,109,1410032,,,,,,,2024-08-01,1,,,,,トーテツプラス,0
1635,7010703007284,新規,0,2024-08-01,2024-08-01,合同会社スパークル,,合同会社,東京都,品川区,大崎１丁目１番１－２２０１号,,13,109,1410032,,,,,,,2024-08-01,1,,,,,スパークル,0
1636,7010801035278,新規,0,2024-08-01,2024-08-01,日本貿易株式会社,,株式会社,東京都,大田区,池上１丁目２３番５号,,13,111,1460082,,,,,,,2024-08-01,1,,,,,ニホンボウエキ,0
1637,7010803005031,新規,0,2024-08-01,2024-08-01,ｓｕｒ合同会社,,合同会社,東京都,大田区,鵜の木２丁目２９番６‐２０５,,13,111,1460091,,,,,,,2024-08-01,1,,,,,シュール,0
1645,7011001163712,新規,0,2024-08-01,2024-08-01,株式会社Ｌｕｚｅｎｔｅ,,株式会社,東京都,渋谷区,道玄坂１丁目１０番８号渋谷道玄坂東急ビル２Ｆ‐Ｃ,,13,113,1500043,,,,,,,2024-08-01,1,,,,,ルゼンテ,0
1646,7011001163745,新規,0,2024-08-01,2024-08-01,株式会社ｉＤｅｅｅｒ,,株式会社,東京都,渋谷区,神宮前３丁目１番３０号,,13,113,1500001,,,,,,,2024-08-01,1,,,,,アイディア,0
1647,7011001163778,新規,0,2024-08-01,2024-08-01,ＥＲ　ＰＵＰＯＮＥ株式会社,,株式会社,東京都,渋谷区,猿楽町１６番１１－２０２号,,13,113,1500033,,,,,,,2024-08-01,1,,,,,イルプヴォーネ,0
1648,7011001163811,新規,0,2024-08-01,2024-08-01,株式会社クランク,,株式会社,東京都,目黒区,碑文谷５丁目２８番１０－１０１号,,13,110,1520003,,,,,,,2024-08-01,1,,,,,クランク,0
1650,7011003019623,新規,0,2024-08-01,2024-08-01,Ｋｕｍｉｔｅｃｈ合同会社,,合同会社,東京都,渋谷区,千駄ヶ谷３丁目５１－１０,,13,113,1510051,,,,,,,2024-08-01,1,,,,,クミテック,0
1655,7011101108286,新規,0,2024-08-01,2024-08-01,株式会社ＭｉｒｒｏｒＰｌｕｓ,,株式会社,東京都,新宿区,高田馬場３丁目３６番７号イッシンジャパンビル７Ｆ,,13,104,1690075,,,,,,,2024-08-01,1,,,,,ミラープラス,0
1656,7011301029893,新規,0,2024-08-01,2024-08-01,株式会社アフレル,,株式会社,東京都,杉並区,梅里１丁目２１番２６号,,13,115,1660011,,,,,,,2024-08-01,1,,,,,アフレル,0
1657,7011401026312,新規,0,2024-08-01,2024-08-01,株式会社ビズノア,,株式会社,東京都,板橋区,清水町３８番１－１４０９号,,13,119,1740053,,,,,,,2024-08-01,1,,,,,ビズノア,0
1665,7011703003926,新規,0,2024-08-01,2024-08-01,合同会社レコナ,,合同会社,東京都,江戸川区,南篠崎町２丁目５４番５号,,13,123,1330065,,,,,,,2024-08-01,1,,,,,レコナ,0
1667,7011801044608,新規,0,2024-08-01,2024-08-01,株式会社ＫＪ,,株式会社,東京都,足立区,皿沼２丁目１５番８号,,13,121,1230862,,,,,,,2024-08-01,1,,,,,ケージェイ,0
1673,7012301014019,新規,0,2024-08-01,2024-08-01,株式会社ミツガシ幸健,,株式会社,東京都,町田市,三輪町１０７２番地２第三オモテハイツ１０２,,13,209,1950054,,,,,,,2024-08-01,1,,,,,ミツガシコウケン,0
1674,7012701018387,新規,0,2024-08-01,2024-08-01,株式会社プラスアルファ,,株式会社,東京都,小平市,鈴木町１丁目２３５番地の３,,13,211,1870011,,,,,,,2024-08-01,1,,,,,プラスアルファ,0
1677,7013101009472,新規,0,2024-08-01,2024-08-01,株式会社小室土建,,株式会社,東京都,あきる野市,山田９１５番地,,13,228,1900144,,,,,,,2024-08-01,1,,,,,コムロドケン,0
1686,7020003026562,新規,0,2024-08-01,2024-08-01,合同会社シグナルオンネキスト,,合同会社,神奈川県,横浜市都筑区,中川中央１丁目３０番１号プレミアヨコハマ３ＦＢＩＺｃｏｍｆｏｒｔ,,14,118,2240003,,,,,,,2024-08-01,1,,,,,シグナルオンネキスト,0
1689,7021001082845,新規,0,2024-08-01,2024-08-01,株式会社コンマラム,,株式会社,神奈川県,座間市,相模が丘５丁目９番２１号ラポルト３０１号,,14,216,2520001,,,,,,,2024-08-01,1,,,,,コンマラム,0
1691,7021005013160,新規,0,2024-08-01,2024-08-01,一般社団法人アート・オブ・セーリング,,その他の設立登記法人,神奈川県,逗子市,逗子６丁目１２番２号,,14,208,2490006,,,,,,,2024-08-01,1,,,,,アートオブセーリング,0
1695,7030001161641,新規,0,2024-08-01,2024-08-01,東信株式会社,,株式会社,埼玉県,川越市,大字藤間８５５番地３０トップ藤間１０２号,,11,201,3501142,,,,,,,2024-08-01,1,,,,,トウシン,0
1696,7030001161674,新規,0,2024-08-01,2024-08-01,株式会社優乃,,株式会社,埼玉県,久喜市,栗橋東２丁目１６番１号,,11,232,3491103,,,,,,,2024-08-01,1,,,,,ユウノ,0
1697,7030001161682,新規,0,2024-08-01,2024-08-01,株式会社ＴＡＰ,,株式会社,埼玉県,さいたま市中央区,大戸６丁目４番２０号,,11,105,3380012,,,,,,,2024-08-01,1,,,,,タップ,0
1698,7030001161699,新規,0,2024-08-01,2024-08-01,株式会社ＹＳＫ,,株式会社,埼玉県,草加市,西町８４８－４,,11,221,3400035,,,,,,,2024-08-01,1,,,,,ワイエスケイ,0
1699,7030001161708,新規,0,2024-08-01,2024-08-01,株式会社ＬＯＯＫＩＳＭ,,株式会社,埼玉県,熊谷市,曙町２丁目１２－３曙町第一ビル２０３,,11,202,3600033,,,,,,,2024-08-01,1,,,,,ルッキズム,0
1700,7030001161732,新規,0,2024-08-01,2024-08-01,ニコホームズ株式会社,,株式会社,埼玉県,川口市,大字芝４９６３番地の７,,11,203,3330866,,,,,,,2024-08-01,1,,,,,ニコホームズ,0
1704,7030003024813,新規,0,2024-08-01,2024-08-01,合同会社田辺クリーニング,,合同会社,埼玉県,北葛飾郡杉戸町,清地５丁目２番１３号,,11,464,3450025,,,,,,,2024-08-01,1,,,,,タナベクリーニング,0
1705,7030003024846,新規,0,2024-08-01,2024-08-01,合同会社Ｐ．Ｍ．８,,合同会社,埼玉県,吉川市,木売１丁目７－２誠第７ビル２階,,11,243,3420045,,,,,,,2024-08-01,1,,,,,ピーエムエイト,0
1708,7040001134737,新規,0,2024-08-01,2024-08-01,ＴＯＭＯ　Ｂｕｓｉｎｅｓｓ　Ａｇｅｎｃｙ株式会社,,株式会社,千葉県,船橋市,藤原１丁目２３番１８号,,12,204,2730047,,,,,,,2024-08-01,1,,,,,トモビジネスエージェンシー,0
1711,7040003025455,新規,0,2024-08-01,2024-08-01,合同会社秀功業,,合同会社,千葉県,茂原市,上林５０番地１,,12,210,2970019,,,,,,,2024-08-01,1,,,,,ヒデコウギョウ,0
1712,7040003025471,新規,0,2024-08-01,2024-08-01,合同会社ネクストヴィジョン,,合同会社,千葉県,船橋市,習志野台３丁目１５－２１－３０８,,12,204,2740063,,,,,,,2024-08-01,1,,,,,ネクストヴィジョン,0
1713,7040003025505,新規,0,2024-08-01,2024-08-01,合同会社ウェリオｒｏｏｔｓ,,合同会社,千葉県,船橋市,習志野台６丁目１１番１８号,,12,204,2740063,,,,,,,2024-08-01,1,,,,,ウェリオルーツ,0
1721,7060001037351,新規,0,2024-08-01,2024-08-01,株式会社河合商事,,株式会社,栃木県,栃木市,泉川町７８番地１,,09,203,3280062,,,,,,,2024-08-01,1,,,,,カワイショウジ,0
1725,7070001042037,新規,0,2024-08-01,2024-08-01,株式会社ＡｃｔＧｒｉｔ,,株式会社,群馬県,前橋市,大友町３丁目２４－１ホテル１－２－３前橋マーキュリー,,10,201,3710847,,,,,,,2024-08-01,1,,,,,アクトグリット,0
1726,7080101024925,新規,0,2024-08-01,2024-08-01,ノバテクノロジア株式会社,,株式会社,静岡県,沼津市,松沢町９番地の１６,,22,203,4100014,,,,,,,2024-08-01,1,,,,,ノバテクノロジア,0
1727,7080101024933,新規,0,2024-08-01,2024-08-01,Ｃｏｍｅ　Ｃｏｍｅ　Ｊａｐａｎ株式会社,,株式会社,静岡県,御殿場市,山之尻９５４番地の６,,22,215,4120018,,,,,,,2024-08-01,1,,,,,,0
1744,7120001267280,新規,0,2024-08-01,2024-08-01,Ｒ株式会社,,株式会社,大阪府,大阪市中央区,南本町１丁目５番７号ＡＣＮ堺筋本町ビル９階,,27,128,5410054,,,,,,,2024-08-01,1,,,,,アール,0
1745,7120001267289,新規,0,2024-08-01,2024-08-01,ハル商事株式会社,,株式会社,大阪府,大阪市東成区,東今里１丁目２番２７号,,27,115,5370011,,,,,,,2024-08-01,1,,,,,ハルショウジ,0
1746,7120001267297,新規,0,2024-08-01,2024-08-01,株式会社Ｗｉｎｄｌａｓｓ,,株式会社,大阪府,大阪市北区,梅田１丁目２番２号大阪駅前第２ビル１２－１２,,27,127,5300001,,,,,,,2024-08-01,1,,,,,ウィンダラス,0
1747,7120001267306,新規,0,2024-08-01,2024-08-01,株式会社関西ベストセキュリティ,,株式会社,大阪府,大阪市北区,西天満５丁目６番１０号,,27,127,5300047,,,,,,,2024-08-01,1,,,,,カンサイベストセキュリティ,0
1748,7120001267322,新規,0,2024-08-01,2024-08-01,株式会社Ｇｒａｎｄｅ　ｕｏｍｏ,,株式会社,大阪府,大阪市東住吉区,北田辺４丁目２２番６号田辺ビル４Ｆ,,27,121,5460044,,,,,,,2024-08-01,1,,,,,グランデウオモ,0
1749,7120001267330,新規,0,2024-08-01,2024-08-01,株式会社Ｍｉｎａｔｏ,,株式会社,大阪府,大阪市港区,磯路２丁目５番６号,,27,107,5520003,,,,,,,2024-08-01,1,,,,,ミナト,0
1750,7120001267339,新規,0,2024-08-01,2024-08-01,株式会社Ａ．Ａ．Ｏ,,株式会社,大阪府,大阪市西成区,中開１丁目３番３０号,,27,122,5570022,,,,,,,2024-08-01,1,,,,,エーエーオー,0
1751,7120001267355,新規,0,2024-08-01,2024-08-01,株式会社大希,,株式会社,大阪府,大阪市天王寺区,寺田町２丁目１番２２号ロッキービル２階,,27,109,5430045,,,,,,,2024-08-01,1,,,,,ダイキ,0
1753,7120003027162,新規,0,2024-08-01,2024-08-01,合同会社オフィスリアライズ,,合同会社,大阪府,大阪市北区,梅田１丁目２番２号大阪駅前第２ビル１２－１２,,27,127,5300001,,,,,,,2024-08-01,1,,,,,オフィスリアライズ,0
1754,7120003027170,新規,0,2024-08-01,2024-08-01,合同会社ＹＵＭＡ,,合同会社,大阪府,大阪市東成区,東小橋３丁目６番３号,,27,115,5370024,,,,,,,2024-08-01,1,,,,,ユウマ,0
1755,7120003027179,新規,0,2024-08-01,2024-08-01,エムフォージ合同会社,,合同会社,大阪府,大阪市北区,梅田１丁目１－３大阪駅前第３ビル２９階１－１－１号室,,27,127,5300001,,,,,,,2024-08-01,1,,,,,エムフォージ,0
1756,7120003027187,新規,0,2024-08-01,2024-08-01,合同会社スポットライト,,合同会社,大阪府,大阪市住之江区,南港北２丁目１－１０ＡＴＣビルＩＴＭ棟１０Ｆ・Ｄ－１－１０６,,27,125,5590034,,,,,,,2024-08-01,1,,,,,スポットライト,0
1757,7120003027195,新規,0,2024-08-01,2024-08-01,シンクロニシティキャピタル合同会社,,合同会社,大阪府,大阪市中央区,北浜東４番２４－１３０３号,,27,128,5400031,,,,,,,2024-08-01,1,,,,,シンクロニシティキャピタル,0
1760,7120101070056,新規,0,2024-08-01,2024-08-01,坂田製薬株式会社,,株式会社,大阪府,阪南市,尾崎町１丁目４４番１号,,27,232,5990201,,,,,,,2024-08-01,1,,,,,サカタセイヤク,0
1761,7120101070064,新規,0,2024-08-01,2024-08-01,株式会社Ｖｉｅ,,株式会社,大阪府,堺市北区,北花田町３丁１７番地２２,,27,146,5918002,,,,,,,2024-08-01,1,,,,,ヴィー,0
1762,7120101070072,新規,0,2024-08-01,2024-08-01,株式会社小川ホームテック,,株式会社,大阪府,富田林市,藤沢台６丁目２３番１３号（１０３）,,27,214,5840071,,,,,,,2024-08-01,1,,,,,オガワホームテック,0
1765,7120901049530,新規,0,2024-08-01,2024-08-01,株式会社アラインメディカル,,株式会社,大阪府,高槻市,上土室１丁目２番１８－２０２号,,27,207,5691044,,,,,,,2024-08-01,1,,,,,アラインメディカル,0
1766,7120901049539,新規,0,2024-08-01,2024-08-01,株式会社平田商事,,株式会社,大阪府,吹田市,千里丘上１５番２０号,,27,205,5650811,,,,,,,2024-08-01,1,,,,,ヒラタショウジ,0
1769,7122001038307,新規,0,2024-08-01,2024-08-01,株式会社ＬＩＴＡ,,株式会社,大阪府,東大阪市,七軒家１２番２０号,,27,227,5770005,,,,,,,2024-08-01,1,,,,,リタ,0
1774,7130005017152,新規,0,2024-08-01,2024-08-01,一般社団法人チームパッション,,その他の設立登記法人,京都府,京都市左京区,聖護院蓮華蔵町４６番地コープ鴨川Ａ棟４０５,00135765,26,103,6068357,,,,,,,2024-08-01,1,,,,,チームパッション,0
1778,7140001135295,新規,0,2024-08-01,2024-08-01,株式会社ファーストホーム,,株式会社,兵庫県,姫路市,宮上町１丁目２１６番地１,,28,201,6700823,,,,,,,2024-08-01,1,,,,,ファーストホーム,0
1779,7140001135304,新規,0,2024-08-01,2024-08-01,テクノクラートオフィス株式会社,,株式会社,兵庫県,神戸市中央区,東川崎町１丁目３番３号ハーバーランドセンタービル１４階,,28,110,6500044,,,,,,,2024-08-01,1,,,,,テクノクラートオフィス,0
1780,7140001135312,新規,0,2024-08-01,2024-08-01,株式会社ケミテック,,株式会社,兵庫県,西宮市,里中町３丁目１番４号,,28,204,6638183,,,,,,,2024-08-01,1,,,,,ケミテック,0
1781,7140001135320,新規,0,2024-08-01,2024-08-01,株式会社ＭＩＮＩＣＯ,,株式会社,兵庫県,尼崎市,塚口町６丁目６３番２２号サンユウビル１階,,28,202,6610002,,,,,,,2024-08-01,1,,,,,ミニコ,0
1782,7140001135329,新規,0,2024-08-01,2024-08-01,株式会社リバーサイド,,株式会社,兵庫県,尼崎市,稲葉荘２丁目２番２０号プレセアンス稲葉荘５号室,,28,202,6600064,,,,,,,2024-08-01,1,,,,,リバーサイド,0
1783,7140001135345,新規,0,2024-08-01,2024-08-01,株式会社安全衛生加工技術センター,,株式会社,兵庫県,高砂市,荒井町日之出町１番３号,,28,216,6760014,,,,,,,2024-08-01,1,,,,,アンゼンエイセイカコウギジュツセンター,0
1784,7140003020909,新規,0,2024-08-01,2024-08-01,合同会社Ｋｅｉ・Ｓ,,合同会社,兵庫県,たつの市,龍野町片山２２７－１,,28,229,6794123,,,,,,,2024-08-01,1,,,,,ケイエス,0
1787,7140005027175,新規,0,2024-08-01,2024-08-01,特定非営利活動法人レムリアな村づくり,,その他の設立登記法人,兵庫県,姫路市,網干区和久３４４番地１ロワイヤル網干駅前７０１号,,28,201,6711227,,,,,,,2024-08-01,1,,,,,レムリアナムラヅクリ,0
1791,7160005011326,新規,0,2024-08-01,2024-08-01,一般社団法人晴陽社,,その他の設立登記法人,滋賀県,東近江市,川南町８５２番地２,,25,213,5211203,,,,,,,2024-08-01,1,,,,,セイヨウシャ,0
1797,7180001162550,新規,0,2024-08-01,2024-08-01,ＮＹ事務所株式会社,,株式会社,愛知県,名古屋市中村区,竹橋町３７番１８号－２０２,,23,105,4530016,,,,,,,2024-08-01,1,,,,,エヌワイジムショ,0
1798,7180001162575,新規,0,2024-08-01,2024-08-01,株式会社ＡＲＩＧＡＴＯ,,株式会社,愛知県,弥富市,前ケ平３丁目５４番地,,23,235,4980003,,,,,,,2024-08-01,1,,,,,アリガト,0
1799,7180301038921,新規,0,2024-08-01,2024-08-01,株式会社ＯＳＭ,,株式会社,愛知県,刈谷市,大手町５丁目１番地,,23,210,4480857,,,,,,,2024-08-01,1,,,,,オーエスエム,0
1802,7190001031523,新規,0,2024-08-01,2024-08-01,株式会社富士クリエイティブホールディングス,,株式会社,三重県,伊賀市,炊村３１０８番地,,24,216,5181403,,,,,,,2024-08-01,1,,,,,フジクリエイティブホールディングス,0
1807,7200001042774,新規,0,2024-08-01,2024-08-01,株式会社Ｅｍｍａ　Ｊａｐａｎ,,株式会社,岐阜県,養老郡養老町,押越４４８－１,,21,341,5031316,,,,,,,2024-08-01,1,,,,,エマジャパン,0
1810,7210001019854,新規,0,2024-08-01,2024-08-01,ＲＩＤＥ＆ＣＯ株式会社,,株式会社,福井県,福井市,和田東２丁目１５０８番,,18,201,9188237,,,,,,,2024-08-01,1,,,,,ライドアンドコー,0
1822,7250001020750,新規,0,2024-08-01,2024-08-01,二四物産株式会社,,株式会社,山口県,岩国市,周東町下久原８８－５,,35,208,7420417,,,,,,,2024-08-01,1,,,,,ニヨシブッサン,0
1832,7310001019134,新規,0,2024-08-01,2024-08-01,おおむら未来企画株式会社,,株式会社,長崎県,大村市,西本町５０２番地１５西本町ベース００３号,,42,205,8560837,,,,,,,2024-08-01,1,,,,,オオムラミライキカク,0
1834,7330001032300,新規,0,2024-08-01,2024-08-01,株式会社ＴＨＥ　ＭＯＭＥＮＴ,,株式会社,熊本県,熊本市南区,流通団地１丁目４６番地,,43,104,8620967,,,,,,,2024-08-01,1,,,,,ザモーメント,0
1835,7330001032309,新規,0,2024-08-01,2024-08-01,ひまわり株式会社,,株式会社,熊本県,山鹿市,鹿本町来民１９１２－１,,43,208,8610331,,,,,,,2024-08-01,1,,,,,ヒマワリ,0
1838,7360001034005,新規,0,2024-08-01,2024-08-01,ＮＡ設備設計株式会社,,株式会社,沖縄県,豊見城市,字豊崎１番地８８０,,47,212,9010225,,,,,,,2024-08-01,1,,,,,エヌエーセツビセッケイ,0
1839,7360001034021,新規,0,2024-08-01,2024-08-01,株式会社シャンリー,,株式会社,沖縄県,宜野湾市,宇地泊１丁目１４番３号,,47,205,9012227,,,,,,,2024-08-01,1,,,,,シャンリー,0
1844,7370001051577,新規,0,2024-08-01,2024-08-01,株式会社遊然,,株式会社,宮城県,仙台市宮城野区,苦竹３丁目１番地６,,04,102,9830036,,,,,,,2024-08-01,1,,,,,ユウゼン,0
1854,7430001092350,新規,0,2024-08-01,2024-08-01,グレースフィオーレ株式会社,,株式会社,北海道,札幌市中央区,南二条西３丁目１１番地１,,01,101,0600062,,,,,,,2024-08-01,1,,,,,グレースフィオーレ,0
1855,7430001092367,新規,0,2024-08-01,2024-08-01,ロータスＲＥ株式会社,,株式会社,北海道,札幌市白石区,南郷通７丁目南２番１８号,,01,104,0030022,,,,,,,2024-08-01,1,,,,,ロータスリー,0
1858,7430003016621,新規,0,2024-08-01,2024-08-01,瑞明国際合同会社,,合同会社,北海道,札幌市西区,発寒五条６丁目１－３１,,01,107,0630825,,,,,,,2024-08-01,1,,,,,ズイメイコクサイ,0
1859,7470001020316,新規,0,2024-08-01,2024-08-01,株式会社ＡＴＭ,,株式会社,香川県,観音寺市,柞田町甲２１０９番地２,,37,205,7680040,,,,,,,2024-08-01,1,,,,,エーティエム,0
1860,7470001020324,新規,0,2024-08-01,2024-08-01,株式会社タイシュウ,,株式会社,香川県,高松市,一宮町７１７番地１－２０１,,37,201,7618084,,,,,,,2024-08-01,1,,,,,タイシュウ,0
1863,7500001025773,新規,0,2024-08-01,2024-08-01,株式会社琉染,,株式会社,愛媛県,松山市,八反地甲１６６４番地,,38,201,7992424,,,,,,,2024-08-01,1,,,,,リュウセン,0
1864,7700150126633,新規,0,2024-08-01,2024-08-01,ＰＡＲＡＭＯＵＮＴ　ＣＯＭＰＡＮＹ　ＬＩＭＩＴＥＤ,,外国会社等,東京都,大田区,西蒲田１丁目６番１５号,,13,111,1440051,ミヤンマー連邦共和国ヤンゴン市サウス・オッカラパ・タウンシップ第１３ウォード、ヤダナールメインロード６Ｂ第１２５３号,,,,,,2024-08-01,1,,,,,パラマウントカンパニーリミテツド,0
1866,8010001246955,新規,0,2024-08-01,2024-08-01,Ｅａｔ　Ｍｅ株式会社,,株式会社,東京都,中央区,銀座８丁目１８番３号銀座加藤ビル２階,,13,102,1040061,,,,,,,2024-08-01,1,,,,,イートミー,0
1867,8010001247103,新規,0,2024-08-01,2024-08-01,株式会社ＤｈｉｉｐＴｅｃｈ,,株式会社,東京都,中央区,銀座１丁目１２番４号Ｎ＆ＥＢＬＤ．６Ｆ,,13,102,1040061,,,,,,,2024-08-01,1,,,,,ディープテック,0
1868,8010001247111,新規,0,2024-08-01,2024-08-01,株式会社コルレオ,,株式会社,東京都,中央区,日本橋人形町２丁目３０番４－１０３号,,13,102,1030013,,,,,,,2024-08-01,1,,,,,コルレオ,0
1869,8010003044432,新規,0,2024-08-01,2024-08-01,合同会社ＦＬＩ　Ｅｎｔｅｒｔａｉｎｍｅｎｔ,,合同会社,東京都,中央区,日本橋堀留町１丁目１０番１号カクタビル２Ｆ,,13,102,1030012,,,,,,,2024-08-01,1,,,,,エフエルアイエンターテイメント,0
1870,8010003044481,新規,0,2024-08-01,2024-08-01,合同会社ＳＥＮｔｏｉｒｏ,,合同会社,東京都,中央区,銀座１丁目１２番４号Ｎ＆ＥＢＬＤ．６Ｆ,,13,102,1040061,,,,,,,2024-08-01,1,,,,,セントイロ,0
1872,8010005038580,新規,0,2024-08-01,2024-08-01,一般社団法人ｒｉｃｈｅｓｓｅ,,その他の設立登記法人,東京都,千代田区,一ツ橋２丁目６番３号アクシスインベストメントアドバイザーズ株式会社内,,13,101,1010003,,,,,,,2024-08-01,1,,,,,リシェス,0
1873,8010005038606,新規,0,2024-08-01,2024-08-01,一般社団法人グローバル政策研究機構,,その他の設立登記法人,東京都,千代田区,永田町２丁目９番６号十全ビルディング,,13,101,1000014,,,,,,,2024-08-01,1,,,,,グローバルセイサクケンキュウキコウ,0
1884,8010401184029,新規,0,2024-08-01,2024-08-01,株式会社ファンドスタジオ,,株式会社,東京都,港区,赤坂５丁目２－３３ＩｓａＩＡｋａｓａｋＡ８０８,,13,103,1070052,,,,,,,2024-08-01,1,,,,,ファンドスタジオ,0
1885,8010401184152,新規,0,2024-08-01,2024-08-01,株式会社Ｇ　ＬＩＮＥ　ＭＡＴＥＲＩＡＬ,,株式会社,東京都,港区,浜松町１丁目２６番４号,,13,103,1050013,,,,,,,2024-08-01,1,,,,,ジーラインマテリアル,0
1886,8010401184160,新規,0,2024-08-01,2024-08-01,株式会社Ｆｏｒｃｅｓｔｅｅｄ　Ｒｏｂｏｔｉｃｓ,,株式会社,東京都,港区,浜松町２丁目２番１５号浜松町ダイヤビル２Ｆ,,13,103,1050013,,,,,,,2024-08-01,1,,,,,フォースティードロボティクス,0
1887,8010401184177,新規,0,2024-08-01,2024-08-01,株式会社ビーエイジェンシー,,株式会社,東京都,港区,南青山２丁目２番１５号ウィン青山９４２,,13,103,1070062,,,,,,,2024-08-01,1,,,,,ビーエイジェンシー,0
1888,8010401184185,新規,0,2024-08-01,2024-08-01,株式会社ｓｉｄｅ　ｂｙ　ｓｉｄｅ,,株式会社,東京都,港区,赤坂９丁目４番１号パークコート赤坂檜町ザタワー１５０２号室,,13,103,1070052,,,,,,,2024-08-01,1,,,,,サイドバイサイド,0
1892,8010603010998,新規,0,2024-08-01,2024-08-01,合同会社フロンティア,,合同会社,東京都,江東区,豊洲１丁目３番２６号,,13,108,1350061,,,,,,,2024-08-01,1,,,,,フロンティア,0
1893,8010701046333,新規,0,2024-08-01,2024-08-01,株式会社ＷＡＲＥ,,株式会社,東京都,品川区,東五反田４丁目１０番２２号,,13,109,1410022,,,,,,,2024-08-01,1,,,,,ウェアー,0
1894,8010701046341,新規,0,2024-08-01,2024-08-01,ｅｎｏ株式会社,,株式会社,東京都,品川区,中延４丁目７番１５号,,13,109,1420053,,,,,,,2024-08-01,1,,,,,エノ,0
1896,8010703007283,新規,0,2024-08-01,2024-08-01,合同会社メイリン,,合同会社,東京都,品川区,西五反田２丁目１４－１３－４０４,,13,109,1410031,,,,,,,2024-08-01,1,,,,,メイリン,0
1898,8010801035269,新規,0,2024-08-01,2024-08-01,芳研株式会社,,株式会社,東京都,大田区,東海３丁目７番３号東海ビル,,13,111,1430001,,,,,,,2024-08-01,1,,,,,ホウケン,0
1899,8010801035277,新規,0,2024-08-01,2024-08-01,株式会社シス・マーケティング,,株式会社,東京都,大田区,羽田空港１丁目１番４号ＨＩＣｉｔｙＺｏｎｅＫ２０１号室,,13,111,1440041,,,,,,,2024-08-01,1,,,,,シスマーケティング,0
1900,8010801035285,新規,0,2024-08-01,2024-08-01,株式会社羽田理化,,株式会社,東京都,大田区,西蒲田７丁目４－４－６Ｆ,,13,111,1440051,,,,,,,2024-08-01,1,,,,,ハネダリカ,0
1909,8011001163810,新規,0,2024-08-01,2024-08-01,株式会社ＳＷＡＧ,,株式会社,東京都,渋谷区,神山町１０番７号渋谷ダイカンプラザシティ２０７号室,,13,113,1500047,,,,,,,2024-08-01,1,,,,,スワッグ,0
1914,8011101107948,新規,0,2024-08-01,2024-08-01,株式会社ＢＡＬＴＩＧＯ,,株式会社,東京都,新宿区,新小川町１丁目１６,,13,104,,,,,,,,2024-08-01,1,,,,,バルティゴ,0
1917,8011103014738,新規,0,2024-08-01,2024-08-01,ＭＯＴＯＹＡ合同会社,,合同会社,東京都,新宿区,西新宿３丁目３番１３号,,13,104,1600023,,,,,,,2024-08-01,1,,,,,モトヤ,0
1922,8011301029884,新規,0,2024-08-01,2024-08-01,株式会社ｅｍｏ,,株式会社,東京都,杉並区,和田１丁目４３番２４－３０５号サンウッド杉並和田フラッツ,,13,115,1660012,,,,,,,2024-08-01,1,,,,,イーモゥ,0
1923,8011301029892,新規,0,2024-08-01,2024-08-01,株式会社ＬＩＬＹ,,株式会社,東京都,杉並区,上高井戸１丁目８番１９号サンハイツ八幡山Ｂ棟２０７,,13,115,1680074,,,,,,,2024-08-01,1,,,,,リリー,0
1927,8011501030997,新規,0,2024-08-01,2024-08-01,株式会社晟新,,株式会社,東京都,北区,浮間５丁目１４番３号,,13,117,1150051,,,,,,,2024-08-01,1,,,,,セイシン,0
1929,8011801044607,新規,0,2024-08-01,2024-08-01,株式会社Ｒｅｇｏｌｉｔｈ,,株式会社,東京都,足立区,江北１丁目７番４号,,13,121,1230872,,,,,,,2024-08-01,1,,,,,レゴリス,0
1930,8011801044623,新規,0,2024-08-01,2024-08-01,ＶＳ　Ｉｎｎｏｖａｔｉｏｎｓ株式会社,,株式会社,東京都,足立区,堀之内１丁目１７番３号,,13,121,1230874,,,,,,,2024-08-01,1,,,,,ブイエスイノベーションズ,0
1942,8020001158274,新規,0,2024-08-01,2024-08-01,株式会社Ｙｏｕ輝,,株式会社,神奈川県,横浜市中区,元浜町３丁目２１番地２,,14,104,2310004,,,,,,,2024-08-01,1,,,,,ユウキ,0
1943,8020001158290,新規,0,2024-08-01,2024-08-01,株式会社港南電気設備,,株式会社,神奈川県,横浜市港南区,港南台９丁目１９番１－９１５号,,14,111,2340054,,,,,,,2024-08-01,1,,,,,コウナンデンキセツビ,0
1944,8020001158299,新規,0,2024-08-01,2024-08-01,ＡＳＵＭＩ　ＪＡＰＡＮ株式会社,,株式会社,神奈川県,横浜市保土ケ谷区,星川３丁目１２番１１－３０２号,,14,106,2400006,,,,,,,2024-08-01,1,,,,,アスミジャパン,0
1945,8020003026561,新規,0,2024-08-01,2024-08-01,合同会社ＳＲＳ,,合同会社,神奈川県,川崎市中原区,北谷町３８番地２川崎平間パークホームズ２０３,,14,133,2110015,,,,,,,2024-08-01,1,,,,,エスアールエス,0
1947,8021001082836,新規,0,2024-08-01,2024-08-01,株式会社生田目会計事務所,,株式会社,神奈川県,相模原市南区,相模大野３丁目１７番１８号サンハイツ相模大野第２－７０２号室,,14,153,2520303,,,,,,,2024-08-01,1,,,,,ナマタメカイケイジムショ,0
1948,8021001082844,新規,0,2024-08-01,2024-08-01,株式会社Ｆビジット,,株式会社,神奈川県,大和市,中央林間３丁目８番４号,,14,213,2420007,,,,,,,2024-08-01,1,,,,,エフビジット,0
1949,8021001082860,新規,0,2024-08-01,2024-08-01,ホーニン株式会社,,株式会社,神奈川県,相模原市南区,西大沼５丁目２番３０号,,14,153,2520332,,,,,,,2024-08-01,1,,,,,ホーニン,0
1950,8021001082877,新規,0,2024-08-01,2024-08-01,浅野工業株式会社,,株式会社,神奈川県,横須賀市,船越町６丁目５７番地１０,,14,201,2370076,,,,,,,2024-08-01,1,,,,,アサノコウギョウ,0
1954,8021003014845,新規,0,2024-08-01,2024-08-01,合同会社ＣＭｍ’ｓ,,合同会社,神奈川県,座間市,入谷東４丁目２１番２２号,,14,216,2520028,,,,,,,2024-08-01,1,,,,,シーエムエムズ,0
1957,8030001161649,新規,0,2024-08-01,2024-08-01,ＨＩＫＡＲＩ株式会社,,株式会社,埼玉県,富士見市,西みずほ台１丁目１６番２１,,11,235,3540018,,,,,,,2024-08-01,1,,,,,ヒカリ,0
1958,8030001161698,新規,0,2024-08-01,2024-08-01,株式会社大克,,株式会社,埼玉県,八潮市,大字古新田１０８８番地２,,11,234,3400823,,,,,,,2024-08-01,1,,,,,ダイカツ,0
1959,8030001161707,新規,0,2024-08-01,2024-08-01,株式会社ゲームカセット,,株式会社,埼玉県,戸田市,喜沢南１丁目４番１７－２３３号,,11,224,3350014,,,,,,,2024-08-01,1,,,,,ゲームカセット,0
1962,8030003024820,新規,0,2024-08-01,2024-08-01,合同会社ＹＳＧ,,合同会社,埼玉県,川口市,大字里１００１番地の１レオパレスステージ２０６号,,11,203,3340005,,,,,,,2024-08-01,1,,,,,ワイエスジー,0
1963,8030003024845,新規,0,2024-08-01,2024-08-01,合同会社ＴＷＩＳＴ,,合同会社,埼玉県,吉川市,木売２丁目６－５吉川センター酒井ビル３０２,,11,243,3420045,,,,,,,2024-08-01,1,,,,,ツイスト,0
1982,8080401027346,新規,0,2024-08-01,2024-08-01,株式会社２４７,,株式会社,静岡県,浜松市中央区,中郡町３１５番地,,22,138,4313111,,,,,,,2024-08-01,1,,,,,ニシナ,0
1985,8090003002614,新規,0,2024-08-01,2024-08-01,合同会社ふじびより,,合同会社,山梨県,富士吉田市,下吉田８丁目１番２号,,19,202,4030004,,,,,,,2024-08-01,1,,,,,フジビヨリ,0
1986,8110001038608,新規,0,2024-08-01,2024-08-01,株式会社ＤＥ＆Ｉ,,株式会社,新潟県,長岡市,小曽根町１３０９番地,,15,202,9400883,,,,,,,2024-08-01,1,,,,,ディーイーアンドアイ,0
1987,8110001038616,新規,0,2024-08-01,2024-08-01,株式会社ＡＩＲ,,株式会社,新潟県,新潟市中央区,本町通７番町１１５３番地新潟本町通ビル７Ｆ,,15,103,9518067,,,,,,,2024-08-01,1,,,,,エーアイアール,0
1993,8120001267263,新規,0,2024-08-01,2024-08-01,株式会社スマイル西日本,,株式会社,大阪府,大阪市北区,天神橋３丁目７番１９号,,27,127,5300041,,,,,,,2024-08-01,1,,,,,スマイルニシニホン,0
1994,8120001267271,新規,0,2024-08-01,2024-08-01,株式会社コジマ建設,,株式会社,大阪府,枚方市,伊加賀本町１２番２８号,,27,210,5730055,,,,,,,2024-08-01,1,,,,,,0
1995,8120001267354,新規,0,2024-08-01,2024-08-01,株式会社エムワイ技建,,株式会社,大阪府,大阪市鶴見区,鶴見２丁目５番２５号Ｌｉｌｏアパートメント鶴見１０２号,,27,124,5380053,,,,,,,2024-08-01,1,,,,,エムワイギケン,0
1996,8120001267362,新規,0,2024-08-01,2024-08-01,株式会社スット＆エス,,株式会社,大阪府,大阪市中央区,玉造２丁目２２番７号ヴィラサンセール２０１,,27,128,5400004,,,,,,,2024-08-01,1,,,,,スットアンドエス,0
2003,8120003027161,新規,0,2024-08-01,2024-08-01,ＣＨＩＰＥＲＡ合同会社,,合同会社,大阪府,大阪市都島区,都島本通２丁目１５番７号ラクダ屋ビル２０１号,,27,102,5340021,,,,,,,2024-08-01,1,,,,,チペラ,0
2004,8120003027178,新規,0,2024-08-01,2024-08-01,テデワオデザイン合同会社,,合同会社,大阪府,大阪市淀川区,新高６丁目１４番１４号－１０３号,,27,123,5320033,,,,,,,2024-08-01,1,,,,,テデワオデザイン,0
2005,8120003027194,新規,0,2024-08-01,2024-08-01,ＭＩＫＡ合同会社,,合同会社,大阪府,大阪市西成区,潮路１丁目９番１９号久津和ビルＢ１,,27,122,5570052,,,,,,,2024-08-01,1,,,,,ミカ,0
2006,8120003027203,新規,0,2024-08-01,2024-08-01,ＹＳＫ合同会社,,合同会社,大阪府,大阪市北区,堂山町１２－３イノセント堂山６０１,,27,127,5300027,,,,,,,2024-08-01,1,,,,,ワイエスケー,0
2007,8120005024462,新規,0,2024-08-01,2024-08-01,一般社団法人悠光会,,その他の設立登記法人,大阪府,大阪市北区,本庄西１丁目１１番５－４１２号,,27,127,5310073,,,,,,,2024-08-01,1,,,,,ユウコウカイ,0
2009,8120101070055,新規,0,2024-08-01,2024-08-01,株式会社ＰＲＯ　ＪＯＢ,,株式会社,大阪府,岸和田市,戎町１番５号,,27,202,5960022,,,,,,,2024-08-01,1,,,,,プロジョブ,0
2010,8120101070063,新規,0,2024-08-01,2024-08-01,株式会社ａｄｏｒａｂｌｅ,,株式会社,大阪府,泉大津市,池浦５１１番地の３,,27,206,5950022,,,,,,,2024-08-01,1,,,,,アドラーブル,0
2013,8120901049546,新規,0,2024-08-01,2024-08-01,株式会社ＨＡＲＥ,,株式会社,大阪府,吹田市,千里山虹が丘１０番１－７０３号,,27,205,5650846,,,,,,,2024-08-01,1,,,,,ハレ,0
2015,8122001038306,新規,0,2024-08-01,2024-08-01,株式会社イーストテールジャパン,,株式会社,大阪府,八尾市,美園町２丁目１０番地,,27,212,5810818,,,,,,,2024-08-01,1,,,,,イーストテールジャパン,0
2016,8122001038314,新規,0,2024-08-01,2024-08-01,Ｋ＆Ｇトレーディング株式会社,,株式会社,大阪府,八尾市,恩智北町２丁目８９番地の５,,27,212,5810882,,,,,,,2024-08-01,1,,,,,ケーアンドジートレーディング,0
2017,8122001038322,新規,0,2024-08-01,2024-08-01,株式会社ヤマテック,,株式会社,大阪府,東大阪市,西堤学園町１丁目５番３号,,27,227,5770044,,,,,,,2024-08-01,1,,,,,,0
2019,8130001077612,新規,0,2024-08-01,2024-08-01,株式会社薮上建設,,株式会社,京都府,京都市伏見区,淀下津町１３９番地９,,26,109,6130905,,,,,,,2024-08-01,1,,,,,ヤブガミケンセツ,0
2023,8130003009729,新規,0,2024-08-01,2024-08-01,Ａｋａｔｓｕｋｉ合同会社,,合同会社,京都府,京都市下京区,茶磨屋町２３６番地Ａ－Ｔｅｒｒａｃｅ４Ｂ,,26,106,6008045,,,,,,,2024-08-01,1,,,,,アカツキ,0
2024,8130003009745,新規,0,2024-08-01,2024-08-01,ｗｉｌｌｏｗ　ｇｒｏｕｐ合同会社,,合同会社,京都府,京都市右京区,西院六反田町２番地,,26,108,6150047,,,,,,,2024-08-01,1,,,,,ウィローグループ,0
2028,8140001135311,新規,0,2024-08-01,2024-08-01,ランドリード株式会社,,株式会社,兵庫県,姫路市,青山４丁目２２－２－３０３,,28,201,6712222,,,,,,,2024-08-01,1,,,,,ランドリード,0
2029,8140001135336,新規,0,2024-08-01,2024-08-01,株式会社ＢＬＵＥ　ＢＥＥ　ＴＯＹＯＯＫＡ,,株式会社,兵庫県,豊岡市,下鶴井１９２５番地,,28,209,6680803,,,,,,,2024-08-01,1,,,,,ブルービートヨオカ,0
2031,8140003020882,新規,0,2024-08-01,2024-08-01,合同会社松本音楽院,,合同会社,兵庫県,神戸市須磨区,白川台１丁目４番１０号,,28,107,6540103,,,,,,,2024-08-01,1,,,,,マツモトオンガクイン,0
2035,8170003002085,新規,0,2024-08-01,2024-08-01,合同会社ＨＯＬＬＯＷ,,合同会社,和歌山県,新宮市,鴻田３丁目２番２－５０２,,30,207,6470082,,,,,,,2024-08-01,1,,,,,ホロー,0
2043,8180001162533,新規,0,2024-08-01,2024-08-01,株式会社Ｏｒｏ＆Ａｒｇｅｎｔｏ,,株式会社,愛知県,名古屋市昭和区,長戸町５丁目２３番地の４,,23,107,4660848,,,,,,,2024-08-01,1,,,,,オーロアンドアルジェント,0
2044,8180001162582,新規,0,2024-08-01,2024-08-01,株式会社はな商店,,株式会社,愛知県,名古屋市中区,丸の内１丁目５番２８号伊藤忠丸の内ビル８階,,23,106,4600002,,,,,,,2024-08-01,1,,,,,ハナショウテン,0
2046,8180003027156,新規,0,2024-08-01,2024-08-01,合同会社ＯＷＬ,,合同会社,愛知県,名古屋市守山区,小幡千代田２－７千代田グランデ１Ｃ,,23,113,4630053,,,,,,,2024-08-01,1,,,,,アウル,0
2050,8180301038920,新規,0,2024-08-01,2024-08-01,株式会社ＣＯＤＥ　ＢＲＩＧＨＴ,,株式会社,愛知県,岡崎市,舞木町字桧ケ入２２番地７,,23,202,4443511,,,,,,,2024-08-01,1,,,,,コードブリッジ,0
2051,8200001042765,新規,0,2024-08-01,2024-08-01,株式会社エルアス,,株式会社,岐阜県,美濃加茂市,下米田町今７３４番地１２,,21,211,5050015,,,,,,,2024-08-01,1,,,,,エルアス,0
2052,8200001042781,新規,0,2024-08-01,2024-08-01,株式会社ＳＯＮＯ,,株式会社,岐阜県,大垣市,領家町２丁目１３２番地３,,21,202,5030014,,,,,,,2024-08-01,1,,,,,ソノ,0
2057,8220001026139,新規,0,2024-08-01,2024-08-01,４ＭＡＮＡＧＥＭＥＮＴ株式会社,,株式会社,石川県,小松市,荒木田町ホ１５番地１,,17,203,9230823,,,,,,,2024-08-01,1,,,,,フォーマネジメント,0
2063,8240001063601,新規,0,2024-08-01,2024-08-01,株式会社オベリオ,,株式会社,広島県,広島市西区,中広町３丁目４番４－８０１号,,34,104,7330012,,,,,,,2024-08-01,1,,,,,オベリオ,0
2066,8250001020758,新規,0,2024-08-01,2024-08-01,株式会社ワイルドグリル,,株式会社,山口県,下関市,形山みどり町１０－２３,,35,201,7510885,,,,,,,2024-08-01,1,,,,,ワイルドグリル,0
2068,8260001039302,新規,0,2024-08-01,2024-08-01,株式会社ブライト,,株式会社,岡山県,勝田郡勝央町,田井５１８番地,,33,622,7094333,,,,,,,2024-08-01,1,,,,,ブライト,0
2069,8260001039327,新規,0,2024-08-01,2024-08-01,株式会社ウルフ,,株式会社,岡山県,岡山市北区,平山７１９番地,,33,101,7011332,,,,,,,2024-08-01,1,,,,,ウルフ,0
2071,8260003004832,新規,0,2024-08-01,2024-08-01,合同会社Ｔｏｒｉｎｏｓ,,合同会社,岡山県,岡山市南区,福田２７９番地,,33,104,7028021,,,,,,,2024-08-01,1,,,,,トリノス,0
2072,8260005011380,新規,0,2024-08-01,2024-08-01,行政書士法人ゼロプラス,,その他の設立登記法人,岡山県,岡山市北区,駅元町３０－１２飛鳥ビル４Ｆ,,33,101,7000024,,,,,,,2024-08-01,1,,,,,ゼロプラス,0
2084,8290801030738,新規,0,2024-08-01,2024-08-01,ｍａｆ渋田株式会社,,株式会社,福岡県,北九州市小倉北区,木町３丁目２－２０－２１１,,40,106,8030851,,,,,,,2024-08-01,1,,,,,エムエーエフシブタ,0
2085,8300001013855,新規,0,2024-08-01,2024-08-01,株式会社キクガミ堂,,株式会社,佐賀県,鳥栖市,弥生が丘２丁目２９９番地,,41,203,8410005,,,,,,,2024-08-01,1,,,,,キクガミドウ,0
2086,8310001019133,新規,0,2024-08-01,2024-08-01,株式会社Ｋ‐Ｃｏｄｅ,,株式会社,長崎県,対馬市,厳原町内山２７４番地,,42,209,8170157,,,,,,,2024-08-01,1,,,,,ケイコウド,0
2091,8330001032299,新規,0,2024-08-01,2024-08-01,中尾不動産株式会社,,株式会社,熊本県,熊本市中央区,水前寺５丁目５番２１号,,43,101,8620950,,,,,,,2024-08-01,1,,,,,ナカオフドウサン,0
2097,8360005007071,新規,0,2024-08-01,2024-08-01,一般社団法人マンゴーソムリエ協会,,その他の設立登記法人,沖縄県,名護市,字世冨慶６４９６－３,,47,209,9050022,,,,,,,2024-08-01,1,,,,,マンゴーソムリエキョウカイ,0
2098,8370001051584,新規,0,2024-08-01,2024-08-01,陽だまりリゾート株式会社,,株式会社,宮城県,刈田郡蔵王町,遠刈田温泉字上ノ原１６８番地１９,,04,301,9890916,,,,,,,2024-08-01,1,,,,,ヒダマリリゾート,0
2113,8430001092358,新規,0,2024-08-01,2024-08-01,株式会社いろどる,,株式会社,北海道,札幌市白石区,東札幌一条１丁目２番２号瀬比亜館セゾンＩ－１０５号,00135758,01,104,0030001,,,,,,,2024-08-01,1,,,,,イロドル,0
2114,8430001092366,新規,0,2024-08-01,2024-08-01,株式会社Ｐａｌｅｔｔｅ,,株式会社,北海道,札幌市中央区,北二条西１９丁目１番地６ロイヤルヴィーゼ北２条９０２号,,01,101,0600002,,,,,,,2024-08-01,1,,,,,パレット,0
2115,8430003016620,新規,0,2024-08-01,2024-08-01,合同会社メジエド,,合同会社,北海道,札幌市清田区,里塚三条５丁目２番３１号,,01,110,0040803,,,,,,,2024-08-01,1,,,,,メジエド,0
2116,8430003016629,新規,0,2024-08-01,2024-08-01,合同会社ＳＰＩＮＮＡＫＥＲ,,合同会社,北海道,札幌市北区,あいの里四条６丁目１６番２６号,,01,102,0028074,,,,,,,2024-08-01,1,,,,,,0
2121,8490001010834,新規,0,2024-08-01,2024-08-01,株式会社ＭＧ,,株式会社,高知県,高知市,潮見台１丁目２４０６番地,,39,201,7815108,,,,,,,2024-08-01,1,,,,,エムジー,0
2122,8500001025789,新規,0,2024-08-01,2024-08-01,株式会社Ｈ＆Ｍ,,株式会社,愛媛県,松山市,三番町４丁目７番地１４,,38,201,7900003,,,,,,,2024-08-01,1,,,,,エイチアンドエム,0
2125,8700150126632,新規,0,2024-08-01,2024-08-01,Ｙａｒｉｓ　Ｔｒａｄｉｎｇ,,外国会社等,千葉県,大網白里市,南今泉６６７番地２オフィス１,,12,239,2993202,スリランカ民主社会主義共和国、アクラナ、ウデウェリケリヤ、Ｎｏ．４１／Ａ,,,,,,2024-08-01,1,,,,,ヤリストレーデイング,0
2135,9010001246946,新規,0,2024-08-01,2024-08-01,ＰＬＡＵＤ株式会社,,株式会社,東京都,千代田区,大手町１丁目６番１号大手町ビル１階及び２階,,13,101,1000004,,,,,,,2024-08-01,1,,,,,プラウド,0
2136,9010001246987,新規,0,2024-08-01,2024-08-01,Ａ＆Ｘ株式会社,,株式会社,東京都,千代田区,神田三崎町２丁目１０番１１号Ｐｅｇビル６Ａ－２号室,,13,101,1010061,,,,,,,2024-08-01,1,,,,,エイアンドエックス,0
2137,9010001247028,新規,0,2024-08-01,2024-08-01,ＦＩＲＳＴ　ＲＥＡＬ　ＥＳＴＡＴＥ株式会社,,株式会社,東京都,中央区,日本橋富沢町１１－１９,,13,102,1030006,,,,,,,2024-08-01,1,,,,,ファーストリアルエステート,0
2138,9010001247069,新規,0,2024-08-01,2024-08-01,株式会社ＢＲＩＤＧＥＳ,,株式会社,東京都,中央区,銀座１丁目２２番１１号銀座大竹ビジデンス２階,,13,102,1040061,,,,,,,2024-08-01,1,,,,,ブリッジズ,0
2139,9010001247077,新規,0,2024-08-01,2024-08-01,株式会社Ｐｒｏ　Ｅｔｈｉｋ,,株式会社,東京都,中央区,銀座１丁目１２番４号Ｎ＆ＥＢＬＤ．６Ｆ,,13,102,1040061,,,,,,,2024-08-01,1,,,,,プロエーティク,0
2140,9010001247085,新規,0,2024-08-01,2024-08-01,株式会社ヒットビット,,株式会社,東京都,千代田区,神田神保町１丁目８番地,,13,101,1010051,,,,,,,2024-08-01,1,,,,,ヒットビット,0
2141,9010001247110,新規,0,2024-08-01,2024-08-01,株式会社Ｏｎｌｙ　Ｐｒｉｎｃｅｓｓ,,株式会社,東京都,中央区,日本橋人形町１丁目１番２２号グランピアビル７階,,13,102,1030013,,,,,,,2024-08-01,1,,,,,オンリープリンセス,0
2152,9010003044456,新規,0,2024-08-01,2024-08-01,合同会社ＡＩ　Ｆｏｒｗａｒｄ,,合同会社,東京都,中央区,日本橋横山町７番１９号第３５イチオクビル４階,,13,102,1030003,,,,,,,2024-08-01,1,,,,,アイフォワード,0
2156,9010401184119,新規,0,2024-08-01,2024-08-01,株式会社ＤＣＯＭ,,株式会社,東京都,港区,港南４丁目６番６号,,13,103,1080075,,,,,,,2024-08-01,1,,,,,ディーコム,0
2157,9010401184184,新規,0,2024-08-01,2024-08-01,株式会社Ｄｏｃｔｏｒ　Ｇｒｏｗｔｈ,,株式会社,東京都,港区,南青山２丁目２番１５号ウィン青山９４２,,13,103,1070062,,,,,,,2024-08-01,1,,,,,ドクターグロース,0
2159,9010403033166,新規,0,2024-08-01,2024-08-01,松井商会合同会社,,合同会社,東京都,港区,赤坂２丁目５番地の８ヒューリックＪＰ赤坂ビル３Ｆ,,13,103,1070052,,,,,,,2024-08-01,1,,,,,マツイショウカイ,0
2166,9010603010997,新規,0,2024-08-01,2024-08-01,合同会社プラスイーアール,,合同会社,東京都,江東区,東陽４丁目７番３５号－４０１,,13,108,1350016,,,,,,,2024-08-01,1,,,,,プラスイーアール,0
2167,9010701046340,新規,0,2024-08-01,2024-08-01,ａｔｍａＬａｂ株式会社,,株式会社,東京都,品川区,西五反田１丁目２６番２号五反田サンハイツ９１１,,13,109,1410031,,,,,,,2024-08-01,1,,,,,アートマラボ,0
2168,9010701046349,新規,0,2024-08-01,2024-08-01,株式会社Ｅｉｋｏ　ｐｌａｎｎｉｎｇ,,株式会社,東京都,品川区,東品川３丁目８番８－４１３号,,13,109,1400002,,,,,,,2024-08-01,1,,,,,エイコプランニング,0
2170,9010801035284,新規,0,2024-08-01,2024-08-01,ＴＯＲＹＧＯ株式会社,,株式会社,東京都,大田区,千鳥１丁目１６番２号鈴木ビル３０２,,13,111,1460083,,,,,,,2024-08-01,1,,,,,トライゴ,0
2171,9010805003122,新規,0,2024-08-01,2024-08-01,和虎行政書士法人,,その他の設立登記法人,東京都,大田区,蒲田５丁目２１番１３号ペガサスステーションプラザ蒲田地下２階,,13,111,1440052,,,,,,,2024-08-01,1,,,,,カズトラ,0
2172,9010901055694,新規,0,2024-08-01,2024-08-01,Ｈｕｇｈ　Ｍｏｒｇａｎ株式会社,,株式会社,東京都,世田谷区,祖師谷３丁目１０－１３ＡＰＴ成城１階,,13,112,1570072,,,,,,,2024-08-01,1,,,,,ヒューモルガン,0
2173,9010901055736,新規,0,2024-08-01,2024-08-01,株式会社Ｃｒｅａｔｉｖｅ　Ｕ．Ｄ,,株式会社,東京都,世田谷区,経堂３丁目２１番１７号,,13,112,1560052,,,,,,,2024-08-01,1,,,,,クリエイティブユーディー,0
2174,9010903009252,新規,0,2024-08-01,2024-08-01,合同会社ハバナイ,,合同会社,東京都,世田谷区,奥沢１丁目５７番１２号シャリオ自由が丘２０１号室,,13,112,1580083,,,,,,,2024-08-01,1,,,,,ハバナイ,0
2175,9010903009260,新規,0,2024-08-01,2024-08-01,合同会社コンフルエンス,,合同会社,東京都,世田谷区,祖師谷４丁目１７番２５号,,13,112,1570072,,,,,,,2024-08-01,1,,,,,コンフルエンス,0
2180,9011001163776,新規,0,2024-08-01,2024-08-01,株式会社ＲＯＪＩ,,株式会社,東京都,目黒区,青葉台１丁目１０番４号,,13,110,1530042,,,,,,,2024-08-01,1,,,,,ロジ,0
2189,9011103014745,新規,0,2024-08-01,2024-08-01,合同会社Ｓｕｐｅｒ６ｅｓｉｇＮ,,合同会社,東京都,新宿区,大久保１丁目２番１９号ＡＸＡＳ東新宿アジールコート８０４,,13,104,1690072,,,,,,,2024-08-01,1,,,,,スーパーシックスデザイン,0
2190,9011301029883,新規,0,2024-08-01,2024-08-01,株式会社ＳＯＬＩＤ,,株式会社,東京都,杉並区,桃井１丁目５番２号,,13,115,1670034,,,,,,,2024-08-01,1,,,,,ソリッド,0
2191,9011301029891,新規,0,2024-08-01,2024-08-01,株式会社ＳＯＷ,,株式会社,東京都,杉並区,阿佐谷南１丁目１２番５－２１７号クリオレミントンハウス阿佐ヶ谷,,13,115,1660004,,,,,,,2024-08-01,1,,,,,ソウ,0
2194,9011401026310,新規,0,2024-08-01,2024-08-01,エクスカミーノ株式会社,,株式会社,東京都,板橋区,西台３丁目２７番８－Ａ１０１号,,13,119,1750045,,,,,,,2024-08-01,1,,,,,エクスカミーノ,0
2201,9011801044606,新規,0,2024-08-01,2024-08-01,アスター株式会社,,株式会社,東京都,葛飾区,東立石３丁目６番２－５０２号プレシス立石,,13,122,1240013,,,,,,,2024-08-01,1,,,,,アスター,0
2202,9011801044614,新規,0,2024-08-01,2024-08-01,株式会社Ｋｖｅｌｌ,,株式会社,東京都,足立区,舎人３丁目１番８号,,13,121,1210831,,,,,,,2024-08-01,1,,,,,クベル,0
2203,9011803006364,新規,0,2024-08-01,2024-08-01,合同会社ビヨンド,,合同会社,東京都,足立区,青井３丁目３４番３号,,13,121,1200012,,,,,,,2024-08-01,1,,,,,ビヨンド,0
2205,9012403006671,新規,0,2024-08-01,2024-08-01,合同会社ＤＯＧＳＴＡＲ,,合同会社,東京都,稲城市,若葉台１丁目２１番地Ｅ―６０３,,13,225,2060824,,,,,,,2024-08-01,1,,,,,ドッグスター,0
2210,9020001158281,新規,0,2024-08-01,2024-08-01,株式会社ＮＩグレース,,株式会社,神奈川県,川崎市麻生区,片平４丁目１１番１８号,,14,137,2150023,,,,,,,2024-08-01,1,,,,,エヌアイグレース,0
2211,9020002024045,新規,0,2024-08-01,2024-08-01,有限会社スノー乳販,,有限会社,神奈川県,横浜市保土ケ谷区,仏向町１２６０番地の３,,14,106,2400044,,,,,,,2024-08-01,1,,,,,,0
2213,9020003026560,新規,0,2024-08-01,2024-08-01,合同会社ＳＨＩＢＵＫＩ,,合同会社,神奈川県,横浜市青葉区,美しが丘１丁目１８番地たまプラーザ団地３－８棟５０２号,,14,117,2250002,,,,,,,2024-08-01,1,,,,,シブキ,0
2214,9021001082843,新規,0,2024-08-01,2024-08-01,株式会社Ｂｌｕｅｍｉｎｇ,,株式会社,神奈川県,茅ヶ崎市,柳島１５７５番地４３,,14,207,2530064,,,,,,,2024-08-01,1,,,,,ブルーミング,0
2215,9021001082884,新規,0,2024-08-01,2024-08-01,株式会社丸山建設,,株式会社,神奈川県,愛甲郡愛川町,半原１７１９番地の３,,14,401,2430307,,,,,,,2024-08-01,1,,,,,マルヤマケンセツ,0
2219,9021003014836,新規,0,2024-08-01,2024-08-01,合同会社ＮＥＩＧＨＢＯＵＲＳ,,合同会社,神奈川県,鎌倉市,腰越４丁目１２－１,,14,204,2480033,,,,,,,2024-08-01,1,,,,,ネイバーズ,0
2220,9021005013159,新規,0,2024-08-01,2024-08-01,一般社団法人日本訓練犬・家庭犬協会,,その他の設立登記法人,神奈川県,相模原市中央区,上溝６５７番地１,,14,152,2520243,,,,,,,2024-08-01,1,,,,,ニホンクンレンケンカテイケンキョウカイ,0
2225,9030001161631,新規,0,2024-08-01,2024-08-01,株式会社藤豊興業,,株式会社,埼玉県,所沢市,大字下安松４０６番地の７,,11,208,3590024,,,,,,,2024-08-01,1,,,,,フジトコウギョウ,0
2226,9030001161648,新規,0,2024-08-01,2024-08-01,紫雲堂株式会社,,株式会社,埼玉県,さいたま市桜区,大字神田６９５番地６,,11,106,3380812,,,,,,,2024-08-01,1,,,,,シウンドウ,0
2227,9030001161656,新規,0,2024-08-01,2024-08-01,株式会社ｃｏｌｏｒｓ,,株式会社,埼玉県,加須市,不動岡１２５７番地２,,11,210,3470054,,,,,,,2024-08-01,1,,,,,カラーズ,0
2228,9030001161680,新規,0,2024-08-01,2024-08-01,株式会社Ｌｅｇｉｔ　ｐｌａｃｅ,,株式会社,埼玉県,川口市,大字藤兵衛新田２０４番地,,11,203,3330803,,,,,,,2024-08-01,1,,,,,レジットプレイス,0
2229,9030001161689,新規,0,2024-08-01,2024-08-01,株式会社ＡＭＮ,,株式会社,埼玉県,さいたま市見沼区,大字小深作２３３番地２,,11,104,3370005,,,,,,,2024-08-01,1,,,,,エイエムエヌ,0
2230,9030001161706,新規,0,2024-08-01,2024-08-01,Ｂｌｕｅｇｒａｓｓ　Ｌｉｖｉｎｇ株式会社,,株式会社,埼玉県,川口市,川口２丁目１７－４８グリーンビュー第３川口２０２,,11,203,3320015,,,,,,,2024-08-01,1,,,,,ブルーグラスリビング,0
2231,9030001161714,新規,0,2024-08-01,2024-08-01,株式会社ＳＢＳトレーディング,,株式会社,埼玉県,戸田市,美女木１丁目２９番地の２５,,11,224,3350031,,,,,,,2024-08-01,1,,,,,エスビーエストレーディング,0
2232,9030001161722,新規,0,2024-08-01,2024-08-01,ＹＦＲＤ株式会社,,株式会社,埼玉県,富士見市,榎町２０番地,,11,235,3540016,,,,,,,2024-08-01,1,,,,,ワイエフアールディー,0
2236,9030003024803,新規,0,2024-08-01,2024-08-01,合同会社Ｈ２Ｏ,,合同会社,埼玉県,鴻巣市,箕田４３６番地１サンフラワー北鴻巣Ｂ棟２０１号室,,11,217,3650062,,,,,,,2024-08-01,1,,,,,エイチツーオー,0
2237,9030003024811,新規,0,2024-08-01,2024-08-01,合同会社おまめコンサルティング,,合同会社,埼玉県,北本市,西高尾１丁目２３４番地,,11,233,3640035,,,,,,,2024-08-01,1,,,,,オマメコンサルティング,0
2238,9030003024828,新規,0,2024-08-01,2024-08-01,合同会社ラッキーイエロー１８９,,合同会社,埼玉県,鶴ヶ島市,松ヶ丘４丁目２番２９－３０６号パークタウン鶴ヶ島,,11,241,3502205,,,,,,,2024-08-01,1,,,,,ラッキーイエローイチハチキュー,0
2239,9030003024844,新規,0,2024-08-01,2024-08-01,合同会社ｓｏｒａ,,合同会社,埼玉県,東松山市,美土里町５番５号ＶｉｌｌａＣｒｅｓｔ１０５号,,11,212,3550027,,,,,,,2024-08-01,1,,,,,ソラ,0
2245,9040001134751,新規,0,2024-08-01,2024-08-01,株式会社Ｍ＆Ｙ,,株式会社,千葉県,千葉市中央区,矢作町４９７番地２６,,12,101,2600851,,,,,,,2024-08-01,1,,,,,エムアンドワイ,0
2246,9040001134768,新規,0,2024-08-01,2024-08-01,株式会社みなとや,,株式会社,千葉県,千葉市稲毛区,稲毛台町３３番１３号,,12,103,2630032,,,,,,,2024-08-01,1,,,,,ミナトヤ,0
2251,9040003025511,新規,0,2024-08-01,2024-08-01,合同会社ＩＲＯＮ,,合同会社,千葉県,山武郡九十九里町,小関１８５番地,,12,403,2830102,,,,,,,2024-08-01,1,,,,,アイアン,0
2255,9050001055162,新規,0,2024-08-01,2024-08-01,株式会社ＹｏｕＰｏｒｔ,,株式会社,茨城県,つくば市,小野崎１４４２番地４,,08,220,3050034,,,,,,,2024-08-01,1,,,,,ユーポート,0
2258,9050003008572,新規,0,2024-08-01,2024-08-01,庄元国際合同会社,,合同会社,茨城県,つくば市,稲荷前１８－２１グランパ七番館２０５,,08,220,3050061,,,,,,,2024-08-01,1,,,,,ショウゲンコクサイ,0
2261,9060001037358,新規,0,2024-08-01,2024-08-01,株式会社荒川建設,,株式会社,栃木県,宇都宮市,若松原１丁目１４番３５号,,09,201,3210139,,,,,,,2024-08-01,1,,,,,アラカワケンセツ,0
2262,9060003005172,新規,0,2024-08-01,2024-08-01,合同会社ＫＩＳＥＫＩ,,合同会社,栃木県,小山市,花垣町１丁目５番３５号,,09,208,3230027,,,,,,,2024-08-01,1,,,,,キセキ,0
2270,9080401027337,新規,0,2024-08-01,2024-08-01,株式会社ケイジー,,株式会社,静岡県,掛川市,薗ケ谷３８７番地の２,,22,213,4360083,,,,,,,2024-08-01,1,,,,,ケイジー,0
2274,9090005007643,新規,0,2024-08-01,2024-08-01,一般社団法人日本サステナブルシルク協会,,その他の設立登記法人,山梨県,南巨摩郡富士川町,最勝寺２１９９番地,,19,368,4000502,,,,,,,2024-08-01,1,,,,,ニホンサステナブルシルクキョウカイ,0
2277,9110001038615,新規,0,2024-08-01,2024-08-01,Ｔｈｅ研修ハウスＷｉｔｈヤンゴン株式会社,,株式会社,新潟県,燕市,吉田西太田３７６番地１,,15,213,9590221,,,,,,,2024-08-01,1,,,,,ザケンシュウハウスウイズヤンゴン,0
2284,9120001267279,新規,0,2024-08-01,2024-08-01,株式会社又玄,,株式会社,大阪府,大阪市福島区,福島１丁目４番４０号ＪＢＳＬ梅田ビル８０１号室,,27,103,5530003,,,,,,,2024-08-01,1,,,,,ユウゲン,0
2285,9120001267312,新規,0,2024-08-01,2024-08-01,株式会社Ｊｉｎｓ,,株式会社,大阪府,大阪市北区,梅田１丁目１番３号大阪駅前第３ビル２９階１－１－１号室,,27,127,5300001,,,,,,,2024-08-01,1,,,,,ジンズ,0
2286,9120001267320,新規,0,2024-08-01,2024-08-01,嘉安株式会社,,株式会社,大阪府,大阪市城東区,関目５丁目１９番９号関目花博公館６０３Ｂ,,27,118,5360008,,,,,,,2024-08-01,1,,,,,カアン,0
2287,9120001267329,新規,0,2024-08-01,2024-08-01,株式会社ＷＡＬＫＥＲ　ＳＹＳＴＥＭ,,株式会社,大阪府,大阪市西区,西本町２丁目５番１０号コンフィデンス西本町４０８号室,,27,106,5500005,,,,,,,2024-08-01,1,,,,,ウォーカーシステム,0
2288,9120001267386,新規,0,2024-08-01,2024-08-01,株式会社ＥＪ,,株式会社,大阪府,大阪市西区,靱本町１丁目１０番７号１３０４号室,,27,106,5500004,,,,,,,2024-08-01,1,,,,,イージェイ,0
2289,9120003027169,新規,0,2024-08-01,2024-08-01,ＮＩＡＧＡＲＡ合同会社,,合同会社,大阪府,大阪市中央区,南船場３丁目２番２２号おおきに南船場ビル２０５,,27,128,5420081,,,,,,,2024-08-01,1,,,,,ナイアガラ,0
2290,9120003027185,新規,0,2024-08-01,2024-08-01,合同会社ＥＭＡＥＭＡＪＥＷＥＬ,,合同会社,大阪府,大阪市阿倍野区,相生通２丁目１５番１号,,27,119,5450033,,,,,,,2024-08-01,1,,,,,エマエマジュエル,0
2291,9120003027193,新規,0,2024-08-01,2024-08-01,合同会社ｌｉｍ,,合同会社,大阪府,大阪市淀川区,十三東２丁目１０番９号３階,,27,123,5320023,,,,,,,2024-08-01,1,,,,,リム,0
2295,9120101070046,新規,0,2024-08-01,2024-08-01,株式会社ヒロルアナ,,株式会社,大阪府,和泉市,いぶき野３丁目２番８－５０６号,,27,219,5940041,,,,,,,2024-08-01,1,,,,,ヒロルアナ,0
2296,9120101070054,新規,0,2024-08-01,2024-08-01,株式会社ＭＴＫ,,株式会社,大阪府,貝塚市,東山２丁目２番８号,,27,208,5970046,,,,,,,2024-08-01,1,,,,,エムティケー,0
2297,9120101070087,新規,0,2024-08-01,2024-08-01,株式会社丸正,,株式会社,大阪府,和泉市,伏屋町３丁目３２番２２号,,27,219,5940031,,,,,,,2024-08-01,1,,,,,マルショウ,0
2298,9120103005974,新規,0,2024-08-01,2024-08-01,合同会社泉北美彩会,,合同会社,大阪府,堺市南区,美木多上１７９番地１８,,27,145,5900136,,,,,,,2024-08-01,1,,,,,センボクミサイカイ,0
2301,9120901049529,新規,0,2024-08-01,2024-08-01,株式会社ＴＳ技建,,株式会社,大阪府,箕面市,箕面４丁目１０番５３号,,27,220,5620001,,,,,,,2024-08-01,1,,,,,ティーエスギケン,0
2302,9120901049537,新規,0,2024-08-01,2024-08-01,株式会社彩架,,株式会社,大阪府,箕面市,彩都粟生南４丁目１番２０号ジオ彩都いぶきの森８１１,,27,220,5620028,,,,,,,2024-08-01,1,,,,,サイカ,0
2306,9122001038321,新規,0,2024-08-01,2024-08-01,株式会社ＳＡＫＵＲＡ,,株式会社,大阪府,東大阪市,南荘町８－２９,,27,227,5798024,,,,,,,2024-08-01,1,,,,,サクラ,0
2311,9130003009728,新規,0,2024-08-01,2024-08-01,Ｈａｓｈｉｒａ合同会社,,合同会社,京都府,京都市下京区,茶磨屋町２３６番地Ａ－Ｔｅｒｒａｃｅ４Ｂ,,26,106,6008045,,,,,,,2024-08-01,1,,,,,ハシラ,0
2312,9130005017142,新規,0,2024-08-01,2024-08-01,特定非営利活動法人日本古典結髪・着付・化粧研究結いの会,,その他の設立登記法人,京都府,長岡京市,一文橋１丁目１８番２号ビューティサロンアロン内,,26,209,6170825,,,,,,,2024-08-01,1,,,,,ニホンコテンケッパツキツケケショウケンキュウユイノカイ,0
2317,9140001135319,新規,0,2024-08-01,2024-08-01,株式会社ＢＣアスクレック,,株式会社,兵庫県,神戸市東灘区,向洋町中６丁目９番地,,28,101,6580032,,,,,,,2024-08-01,1,,,,,ビーシーアスクレック,0
2318,9140001135327,新規,0,2024-08-01,2024-08-01,株式会社永美心,,株式会社,兵庫県,神戸市長田区,西山町４丁目４番７号,,28,106,6530862,,,,,,,2024-08-01,1,,,,,エイビシン,0
2319,9140001135343,新規,0,2024-08-01,2024-08-01,株式会社ＴＯＰ　ＣＲＡＦＴ,,株式会社,兵庫県,神戸市長田区,西丸山町３丁目７番２３号,,28,106,6530874,,,,,,,2024-08-01,1,,,,,トップクラフト,0
2322,9140005027173,新規,0,2024-08-01,2024-08-01,一般社団法人Ｆｉｒ‐Ｓｔ‐Ａｒｔ,,その他の設立登記法人,兵庫県,神戸市北区,ひよどり台南町３丁目４番地の２８,,28,109,6511125,,,,,,,2024-08-01,1,,,,,ファーストスタート,0
2326,9160001026094,新規,0,2024-08-01,2024-08-01,株式会社ＫＧ　ｐｒｏｊｅｃｔ,,株式会社,滋賀県,大津市,千町３丁目６１４－３,,25,201,5200863,,,,,,,2024-08-01,1,,,,,ケイジープロジェクト,0
2328,9160003003249,新規,0,2024-08-01,2024-08-01,合同会社ＪＵＮＴＯ,,合同会社,滋賀県,彦根市,竹ケ鼻町３０２番地１,,25,202,5220044,,,,,,,2024-08-01,1,,,,,ジャントー,0
2330,9170001018248,新規,0,2024-08-01,2024-08-01,紀州商事株式会社,,株式会社,和歌山県,和歌山市,和歌浦東２丁目４番６３号,,30,201,6410021,,,,,,,2024-08-01,1,,,,,キシュウショウジ,0
2333,9180001162557,新規,0,2024-08-01,2024-08-01,株式会社Ｒｂｉ,,株式会社,愛知県,名古屋市熱田区,二番２丁目２５番５号,,23,109,4560052,,,,,,,2024-08-01,1,,,,,アールビーアイ,0
2334,9180001162598,新規,0,2024-08-01,2024-08-01,株式会社みんなの健康管理室,,株式会社,愛知県,名古屋市西区,名駅１丁目１番１７号名駅ダイヤメイテツビル１１階,,23,104,4510045,,,,,,,2024-08-01,1,,,,,ミンナノケンコウカンリシツ,0
2335,9180001162664,新規,0,2024-08-01,2024-08-01,株式会社吉康,,株式会社,愛知県,名古屋市天白区,元植田３丁目５０３番地,,23,116,4680009,,,,,,,2024-08-01,1,,,,,キッコウ,0
2338,9190003004756,新規,0,2024-08-01,2024-08-01,合同会社西尾コーポレーション,,合同会社,三重県,志摩市,阿児町鵜方２３４番地２,,24,215,5170501,,,,,,,2024-08-01,1,,,,,ニシオコーポレーション,0
2342,9200001042772,新規,0,2024-08-01,2024-08-01,中部住建株式会社,,株式会社,岐阜県,岐阜市,境川３丁目９６番地１,,21,201,5008266,,,,,,,2024-08-01,1,,,,,チュウブジュウケン,0
2344,9200003006453,新規,0,2024-08-01,2024-08-01,ＡｒｔＮｅｓｔ合同会社,,合同会社,岐阜県,多治見市,本町５丁目６番地の１Ｒ．ｏｆｆｉｃｅ３０７,,21,204,5070033,,,,,,,2024-08-01,1,,,,,アートネスト,0
2347,9210005010155,新規,0,2024-08-01,2024-08-01,一般社団法人福井県クリエイター協会,,その他の設立登記法人,福井県,福井市,花月４丁目６番４号,,18,201,9100022,,,,,,,2024-08-01,1,,,,,フクイケンクリエイターキョウカイ,0
2348,9220001026138,新規,0,2024-08-01,2024-08-01,エターナルウェブ株式会社,,株式会社,石川県,金沢市,田上新町２９７,,17,201,9201153,,,,,,,2024-08-01,1,,,,,エターナルウェブ,0
2350,9230001020461,新規,0,2024-08-01,2024-08-01,ガレージ雅株式会社,,株式会社,富山県,南砺市,下吉江１３番地,,16,210,9391543,,,,,,,2024-08-01,1,,,,,ガレージミヤビ,0
2352,9240001063600,新規,0,2024-08-01,2024-08-01,Ｋ・Ｔ株式会社,,株式会社,広島県,広島市西区,小河内町２丁目２７番１０－２号,,34,104,7330025,,,,,,,2024-08-01,1,,,,,ケイティ,0
2353,9240001063609,新規,0,2024-08-01,2024-08-01,サンロジデザイン株式会社,,株式会社,広島県,福山市,神辺町旭丘５０番地,,34,207,7202113,,,,,,,2024-08-01,1,,,,,サンロジデザイン,0
2354,9250001020757,新規,0,2024-08-01,2024-08-01,株式会社集落屋,,株式会社,山口県,長門市,俵山５０６１－１,,35,211,7594211,,,,,,,2024-08-01,1,,,,,シュウラクヤ,0
2359,9260001039301,新規,0,2024-08-01,2024-08-01,ベルデホールディングス株式会社,,株式会社,岡山県,岡山市北区,吉備津１４０３番地３,,33,101,7011341,,,,,,,2024-08-01,1,,,,,ベルデホールディングス,0
2360,9260001039326,新規,0,2024-08-01,2024-08-01,株式会社ななカンパニー,,株式会社,岡山県,岡山市中区,竹田１２４－４－１０１,,33,102,7038251,,,,,,,2024-08-01,1,,,,,ナナカンパニー,0
2368,9290801030745,新規,0,2024-08-01,2024-08-01,田中商事株式会社,,株式会社,福岡県,北九州市小倉北区,霧ケ丘３丁目１７番６号,,40,106,8020052,,,,,,,2024-08-01,1,,,,,タナカショウジ,0
2375,9300001013854,新規,0,2024-08-01,2024-08-01,ＲＦ‐ＬＡＢ株式会社,,株式会社,佐賀県,杵島郡白石町,大字大渡２０１９番地,,41,425,8491102,,,,,,,2024-08-01,1,,,,,アールエフラボ,0
2376,9310001019132,新規,0,2024-08-01,2024-08-01,株式会社グローアップ,,株式会社,長崎県,大村市,向木場町１４４８番地１,,42,205,8560045,,,,,,,2024-08-01,1,,,,,グローアップ,0
2377,9320001020618,新規,0,2024-08-01,2024-08-01,株式会社竹尾シーリング,,株式会社,大分県,大分市,大字皆春４２７番地の２７,,44,201,8700131,,,,,,,2024-08-01,1,,,,,タケオシーリング,0
2379,9330001032298,新規,0,2024-08-01,2024-08-01,株式会社ｎｅｏ,,株式会社,熊本県,熊本市中央区,出水４丁目２３番１７号,,43,101,8620941,,,,,,,2024-08-01,1,,,,,ネオ,0
2380,9330001032307,新規,0,2024-08-01,2024-08-01,株式会社ウィズアール,,株式会社,熊本県,熊本市南区,富合町清藤３３６番地１,,43,104,8614151,,,,,,,2024-08-01,1,,,,,ウィズアール,0
2383,9360001033995,新規,0,2024-08-01,2024-08-01,ナカマコネクト株式会社,,株式会社,沖縄県,浦添市,大平２丁目９番１３号ミオビエント浦添１００３,,47,208,9012113,,,,,,,2024-08-01,1,,,,,ナカマコネクト,0
2384,9360001034011,新規,0,2024-08-01,2024-08-01,株式会社Ｓｍｉｌｅ．Ｃ,,株式会社,沖縄県,那覇市,首里石嶺町２丁目１６６番地１３,,47,201,9030804,,,,,,,2024-08-01,1,,,,,スマイルシー,0
2385,9370001051591,新規,0,2024-08-01,2024-08-01,株式会社グノート,,株式会社,宮城県,大崎市,古川塚目字石名坂２０－３,,04,215,9896225,,,,,,,2024-08-01,1,,,,,グノート,0
2386,9370003006701,新規,0,2024-08-01,2024-08-01,合同会社Ｖｅｇａ,,合同会社,宮城県,仙台市青葉区,本町１丁目５番２８号カーニープレイス仙台駅前通６０３号,,04,101,9800014,,,,,,,2024-08-01,1,,,,,ベガ,0
2398,9430001092349,新規,0,2024-08-01,2024-08-01,株式会社フォースティア,,株式会社,北海道,札幌市中央区,南五条西１５丁目２－３－５０３,,01,101,0640805,,,,,,,2024-08-01,1,,,,,フォースティア,0
2399,9430001092357,新規,0,2024-08-01,2024-08-01,株式会社ＳＹＵＵＳＡＩ,,株式会社,北海道,札幌市中央区,北三条東２丁目２番地５１コンフォリア４０５,,01,101,0600033,,,,,,,2024-08-01,1,,,,,シュウサイ,0
2400,9430001092365,新規,0,2024-08-01,2024-08-01,株式会社ＳＭＩＬＥ,,株式会社,北海道,千歳市,北斗２丁目１０－１５　１０８ビル３階,,01,224,0660073,,,,,,,2024-08-01,1,,,,,スマイル,0
2406,9460301005239,新規,0,2024-08-01,2024-08-01,株式会社あかり技研,,株式会社,北海道,斜里郡清里町,字上斜里１０５０番地３,,01,546,0994401,,,,,,,2024-08-01,1,,,,,アカリギケン,0
2407,9470001020314,新規,0,2024-08-01,2024-08-01,株式会社Ｃｒａｆｔ工房,,株式会社,香川県,坂出市,室町３丁目６番２５号,,37,203,7620007,,,,,,,2024-08-01,1,,,,,クラフトコウボウ,0
2410,9490001010833,新規,0,2024-08-01,2024-08-01,株式会社Ｓｉｎ‐Ｗａｖｅ,,株式会社,高知県,高知市,はりまや町１丁目１１番８号ＡＬＣＯ－２・７０１,,39,201,7800822,,,,,,,2024-08-01,1,,,,,シンウェーブ,0
2412,9700150126631,新規,0,2024-08-01,2024-08-01,ＭＯＴＯ　ＥＸＰＯ　ＥＮＴＥＲＰＲＩＳＥＳ,,外国会社等,千葉県,大網白里市,南今泉６６７番地２オフィス５,,12,239,2993202,スリランカ民主社会主義共和国、キャンディ、アクラナ、タラワッカラ、Ｎｏ．４６２／Ａ,,,,,,2024-08-01,1,,,,,モトエキスポエンタープライズ,0
