sequenceNumber,corporateNumber,process,correct,updateDate,changeDate,name,nameImageId,kind,prefectureName,cityName,streetNumber,addressImageId,prefectureCode,cityCode,postCode,addressOutside,addressOutsideImageId,closeDate,closeCause,successorCorporateNumber,changeCause,assignmentDate,latest,enName,enPrefectureName,enCityName,enAddressOutside,furigana,hihyoji
10,1010001222203,新規,0,2021-11-01,2021-11-01,株式会社トップリーダーズ,,株式会社,東京都,千代田区,九段南２丁目４番１１号,,13,101,1020074,,,,,,,2021-11-01,1,,,,,トップリーダーズ,0
21,1010401163402,新規,0,2021-11-01,2021-11-01,ＱＬＡＹ株式会社,,株式会社,東京都,港区,南青山３丁目１５番９号ＭＩＮＯＷＡ表参道３階,,13,103,1070062,,,,,,,2021-11-01,1,,,,,クレイ,0
22,1010401163559,新規,0,2021-11-01,2021-11-01,フロッグウェルコンサルティング株式会社,,株式会社,東京都,港区,新橋３丁目９－１０,,13,103,1050004,,,,,,,2021-11-01,1,,,,,フロッグウェルコンサルティング,0
23,1010403026409,新規,0,2021-11-01,2021-11-01,ラッザット合同会社,,合同会社,東京都,港区,六本木４丁目１番２－８０５号,,13,103,1060032,,,,,,,2021-11-01,1,,,,,ラッザット,0
26,1010405020335,新規,0,2021-11-01,2021-11-01,グッドビレッジ一般社団法人,,その他の設立登記法人,東京都,港区,元赤坂１丁目１番７号,,13,103,1070051,,,,,,,2021-11-01,1,,,,,グッドビレッジ,0
34,1010803003932,新規,0,2021-11-01,2021-11-01,合同会社ＬＥＳＹ,,合同会社,東京都,大田区,大森本町２丁目１４番１２号,,13,111,1430011,,,,,,,2021-11-01,1,,,,,レシー,0
43,1010901049704,新規,0,2021-11-01,2021-11-01,ＳＰＩＲＩＴＩＸ株式会社,,株式会社,東京都,世田谷区,北沢２丁目２７番５号森ビル３０５,,13,112,1550031,,,,,,,2021-11-01,1,,,,,スピリティクス,0
50,1011101096735,新規,0,2021-11-01,2021-11-01,株式会社オールドルーキー,,株式会社,東京都,新宿区,西新宿８丁目１７番１号,,13,104,1600023,,,,,,,2021-11-01,1,,,,,オールドルーキー,0
55,1011401023793,新規,0,2021-11-01,2021-11-01,株式会社毅鋒,,株式会社,東京都,板橋区,西台１丁目１番１４号,,13,119,1740045,,,,,,,2021-11-01,1,,,,,キホウ,0
57,1011503004956,新規,0,2021-11-01,2021-11-01,合同会社ＭＲＧ,,合同会社,東京都,北区,赤羽南１丁目５番７号,,13,117,1150044,,,,,,,2021-11-01,1,,,,,エムアールジー,0
59,1011703002982,新規,0,2021-11-01,2021-11-01,恵実総合企画合同会社,,合同会社,東京都,江戸川区,南小岩３丁目１０番１号,,13,123,1330056,,,,,,,2021-11-01,1,,,,,メグミソウゴウキカク,0
64,1012401038484,新規,0,2021-11-01,2021-11-01,株式会社ブライトハーツ,,株式会社,東京都,府中市,南町４丁目３７番地の３０モンレーヴ府中南２０９,,13,206,1830026,,,,,,,2021-11-01,1,,,,,ブライトハーツ,0
65,1012403005086,新規,0,2021-11-01,2021-11-01,合同会社ＦＰみやび,,合同会社,東京都,武蔵野市,桜堤１丁目２番１９－３０１号,,13,203,1800021,,,,,,,2021-11-01,1,,,,,エフピーミヤビ,0
79,1020001143695,新規,0,2021-11-01,2021-11-01,株式会社ＵＮＩＴＥ,,株式会社,神奈川県,横浜市中区,花咲町１丁目４８番３号ロゼ桜木町４０６号,,14,104,2310063,,,,,,,2021-11-01,1,,,,,ユナイト,0
102,1030003018242,新規,0,2021-11-01,2021-11-01,ＳＨＩＲＯｔｏＫＵＲＯ合同会社,,合同会社,埼玉県,志木市,本町５丁目２４－２１,,11,228,3530004,,,,,,,2021-11-01,1,,,,,シロトクロ,0
112,1040001120800,新規,0,2021-11-01,2021-11-01,株式会社チャクセス,,株式会社,千葉県,流山市,大字木６６７番地の６（木Ａ３０－３街区６）,,12,220,2700162,,,,,,,2021-11-01,1,,,,,チャクセス,0
113,1040001120809,新規,0,2021-11-01,2021-11-01,株式会社東葉コーポレーション,,株式会社,千葉県,八千代市,高津１０７１番地１,,12,221,2760036,,,,,,,2021-11-01,1,,,,,トウヨウコーポレーション,0
117,1040003018836,新規,0,2021-11-01,2021-11-01,合同会社インテリア鶴丸,,合同会社,千葉県,千葉市若葉区,みつわ台４丁目２２番１号ノースヒルズ１－２０３号室,,12,104,2640032,,,,,,,2021-11-01,1,,,,,インテリアツルマル,0
125,1070002037727,新規,0,2021-11-01,2021-11-01,有限会社新井不美男商店,,有限会社,群馬県,高崎市,山名町７３３番地,,10,202,3701213,,,,,,,2021-11-01,1,,,,,アライフミオショウテン,0
126,1070003004271,新規,0,2021-11-01,2021-11-01,ｙＣｏｍｐａｎｙ合同会社,,合同会社,群馬県,高崎市,貝沢町９４５番地２,,10,202,3700042,,,,,,,2021-11-01,1,,,,,ワイカンパニー,0
132,1080101022868,新規,0,2021-11-01,2021-11-01,株式会社ＵＮＩ・ＳＯＬＥＩＬ,,株式会社,静岡県,沼津市,大手町３丁目６－１０－６Ｃ,,22,203,4100801,,,,,,,2021-11-01,1,,,,,ユニソレイユ,0
139,1110001036155,新規,0,2021-11-01,2021-11-01,建物メンテ株式会社,,株式会社,新潟県,新潟市西区,五十嵐１の町７１３４番地１,,15,107,9502101,,,,,,,2021-11-01,1,,,,,タテモノメンテ,0
161,1120001241530,新規,0,2021-11-01,2021-11-01,株式会社Ｋ－ＴＥＣ,,株式会社,大阪府,大阪市平野区,喜連西３丁目１番２２－８０６号,,27,126,5470026,,,,,,,2021-11-01,1,,,,,ケーテック,0
165,1120101064559,新規,0,2021-11-01,2021-11-01,株式会社アキラ,,株式会社,大阪府,泉北郡忠岡町,馬瀬１丁目９番８号,,27,341,5950804,,,,,,,2021-11-01,1,,,,,アキラ,0
166,1120101064567,新規,0,2021-11-01,2021-11-01,株式会社ＫＳグロワール,,株式会社,大阪府,南河内郡河南町,さくら坂３丁目１２－７,,27,382,5850025,,,,,,,2021-11-01,1,,,,,ケイエスグロワール,0
176,1130001070433,新規,0,2021-11-01,2021-11-01,株式会社沐謙,,株式会社,京都府,京都市伏見区,深草大亀谷大山町６番地４－２０５,,26,109,6120847,,,,,,,2021-11-01,1,,,,,モクケン,0
184,1140001123669,新規,0,2021-11-01,2021-11-01,あき株式会社,,株式会社,兵庫県,芦屋市,大原町２３番１号,,28,206,6590092,,,,,,,2021-11-01,1,,,,,アキ,0
187,1160001023751,新規,0,2021-11-01,2021-11-01,株式会社Ｍｏｏ　Ｏｌａ,,株式会社,滋賀県,大津市,唐崎３丁目１７番２１－Ａ１１３号,,25,201,5200106,,,,,,,2021-11-01,1,,,,,モーオラ,0
200,1180003023137,新規,0,2021-11-01,2021-11-01,創合同会社,,合同会社,愛知県,小牧市,光ケ丘２丁目５９番地５,,23,219,4850811,,,,,,,2021-11-01,1,,,,,ソウ,0
213,1200001039347,新規,0,2021-11-01,2021-11-01,株式会社ゴリラ,,株式会社,岐阜県,岐阜市,八代３丁目２番１０号レークヒル小森１０８号室,,21,201,5020812,,,,,,,2021-11-01,1,,,,,ゴリラ,0
215,1220001024495,新規,0,2021-11-01,2021-11-01,ｉｅｚｏ株式会社,,株式会社,石川県,金沢市,窪１丁目１７４番地２,,17,201,9218151,,,,,,,2021-11-01,1,,,,,イエゾー,0
217,1230003001748,新規,0,2021-11-01,2021-11-01,合同会社クリマラボ,,合同会社,富山県,高岡市,石瀬７８８番地３２,,16,202,9330011,,,,,,,2021-11-01,1,,,,,クリマラボ,0
222,1250001019220,新規,0,2021-11-01,2021-11-01,株式会社関門食堂彩や,,株式会社,山口県,下関市,唐戸町６番１号カモンワーフ東棟２階Ｆ－２０２,,35,201,7500005,,,,,,,2021-11-01,1,,,,,カンモンショクドウイロドリヤ,0
230,1290001095167,新規,0,2021-11-01,2021-11-01,司冷熱九州株式会社,,株式会社,福岡県,糟屋郡志免町,片峰１丁目２番１号,,40,343,8112245,,,,,,,2021-11-01,1,,,,,ツカサレイネツキュウシュウ,0
231,1290001095209,新規,0,2021-11-01,2021-11-01,株式会社スタイラス,,株式会社,福岡県,福岡市博多区,千代２丁目２２番８号一豊ビル２０２,,40,132,8120044,,,,,,,2021-11-01,1,,,,,スタイラス,0
232,1290003011774,新規,0,2021-11-01,2021-11-01,ブルー合同会社,,合同会社,福岡県,福岡市中央区,今泉１丁目３番２３号セルクル今泉２０４号,,40,133,8100021,,,,,,,2021-11-01,1,,,,,ブルー,0
238,1300003001740,新規,0,2021-11-01,2021-11-01,ＩＰマネジメント合同会社,,合同会社,佐賀県,佐賀市,駅前中央１丁目９番３８号,,41,201,8400801,,,,,,,2021-11-01,1,,,,,アイピーマネジメント,0
247,1350001017387,新規,0,2021-11-01,2021-11-01,株式会社真和興業,,株式会社,宮崎県,日向市,平野町２丁目４番地,,45,206,8830002,,,,,,,2021-11-01,1,,,,,シンワコウギョウ,0
249,1350003003963,新規,0,2021-11-01,2021-11-01,合同会社Ｐｉｅｃｅ,,合同会社,宮崎県,宮崎市,大字跡江２８２０番地６,,45,201,8802101,,,,,,,2021-11-01,1,,,,,ピース,0
252,1360001029563,新規,0,2021-11-01,2021-11-01,フェイス株式会社,,株式会社,沖縄県,宜野湾市,我如古１丁目４７－５,,47,205,9012214,,,,,,,2021-11-01,1,,,,,フェイス,0
253,1360001029571,新規,0,2021-11-01,2021-11-01,南九州開発株式会社,,株式会社,沖縄県,那覇市,松尾１丁目１０－２４ホークシティ那覇ビル１階,,47,201,9000014,,,,,,,2021-11-01,1,,,,,ミナミキュウシュウカイハツ,0
258,1370003005446,新規,0,2021-11-01,2021-11-01,Ｇａｊａ－Ｇｏ合同会社,,合同会社,宮城県,仙台市青葉区,小田原８丁目１２番７号ブルーレース小田原Ｃ棟１,,04,101,9800003,,,,,,,2021-11-01,1,,,,,ガジャゴ,0
267,1400001015658,新規,0,2021-11-01,2021-11-01,株式会社澤村電工,,株式会社,岩手県,岩手郡岩手町,大字沼宮内第３５地割３４番地２,,03,303,0284301,,,,,,,2021-11-01,1,,,,,サワムラデンコウ,0
281,1440003001421,新規,0,2021-11-01,2021-11-01,合同会社シルトクレーテ,,合同会社,北海道,亀田郡七飯町,字上藤城１２０番地２,,01,337,0411104,,,,,,,2021-11-01,1,,,,,シルトクレーテ,0
282,1450005004314,新規,0,2021-11-01,2021-11-01,特定非営利活動法人あっきーず,,その他の設立登記法人,北海道,旭川市,豊岡十四条５丁目６番９号彩ＩＩ２０２,00124725,01,204,0788244,,,,,,,2021-11-01,1,,,,,アッキーズ,0
285,1470001018803,新規,0,2021-11-01,2021-11-01,株式会社マイフェローズ,,株式会社,香川県,高松市,花園町２丁目３番１５号,,37,201,7600072,,,,,,,2021-11-01,1,,,,,マイフェローズ,0
287,1470003002061,新規,0,2021-11-01,2021-11-01,合同会社ゑびす社中,00124719,合同会社,香川県,善通寺市,木徳町２９７－１,,37,204,7650033,,,,,,,2021-11-01,1,,,,,ヱビスシャチュウ,0
302,2010005034156,新規,0,2021-11-01,2021-11-01,一般社団法人謎解きエデュテイメント協会,,その他の設立登記法人,東京都,千代田区,神田三崎町３丁目７番１２号清話会ビル３階,,13,101,1010061,,,,,,,2021-11-01,1,,,,,ナゾトキエデュテイメントキョウカイ,0
309,2010401163459,新規,0,2021-11-01,2021-11-01,ＦＴ株式会社,,株式会社,東京都,港区,赤坂２丁目８番１４－５０４号,,13,103,1070052,,,,,,,2021-11-01,1,,,,,エフティー,0
310,2010401163525,新規,0,2021-11-01,2021-11-01,株式会社ＢＩＧＥＤＧＥ,,株式会社,東京都,港区,西麻布１丁目１１－６ホテル＆レジデンス六本木１２０９,,13,103,1060031,,,,,,,2021-11-01,1,,,,,ビッグエッジ,0
327,2010605004013,新規,0,2021-11-01,2021-11-01,特定非営利活動法人Ｃｕｅ,,その他の設立登記法人,東京都,江東区,豊洲３丁目６番５－１２１９号,,13,108,1350061,,,,,,,2021-11-01,1,,,,,キュー,0
329,2010701041711,新規,0,2021-11-01,2021-11-01,株式会社ＣＡＣＡＯ,,株式会社,東京都,品川区,東五反田１丁目２３番２号,,13,109,1410022,,,,,,,2021-11-01,1,,,,,カカオ,0
335,2011001143702,新規,0,2021-11-01,2021-11-01,Ｌｕｍｂａｒ　Ｊａｃｋｅｔ株式会社,,株式会社,東京都,目黒区,下目黒６丁目６番４号,,13,110,1530064,,,,,,,2021-11-01,1,,,,,ランバージャケット,0
336,2011001143735,新規,0,2021-11-01,2021-11-01,Ａ　ｐｌｕｓ株式会社,,株式会社,東京都,渋谷区,代々木２丁目２３番１－２６４号,,13,113,1510053,,,,,,,2021-11-01,1,,,,,エープラス,0
339,2011003013639,新規,0,2021-11-01,2021-11-01,Ｏｐｕｓ　Ｍ合同会社,,合同会社,東京都,渋谷区,神宮前６丁目２３番４号桑野ビル２階,,13,113,1500001,,,,,,,2021-11-01,1,,,,,オーパスエム,0
348,2011101096726,新規,0,2021-11-01,2021-11-01,株式会社カイザー,,株式会社,東京都,新宿区,大久保１丁目１２番２０号クラウド新大久保１Ａ号室,,13,104,1690072,,,,,,,2021-11-01,1,,,,,カイザー,0
352,2011103011121,新規,0,2021-11-01,2021-11-01,合同会社ブランク,,合同会社,東京都,新宿区,新宿５丁目３番４－１３０３号,,13,104,1600022,,,,,,,2021-11-01,1,,,,,ブランク,0
353,2011105010030,新規,0,2021-11-01,2021-11-01,一般社団法人日本マヤ暦セラピスト協会,,その他の設立登記法人,東京都,新宿区,新宿７丁目１２番１号新宿平和ビル１階,,13,104,1600022,,,,,,,2021-11-01,1,,,,,ニホンマヤレキセラピストキョウカイ,0
358,2011401023792,新規,0,2021-11-01,2021-11-01,第七制作株式会社,,株式会社,東京都,板橋区,大山金井町２０番６号,,13,119,1730024,,,,,,,2021-11-01,1,,,,,ダイナナセイサク,0
363,2011701024805,新規,0,2021-11-01,2021-11-01,株式会社エルスタ,,株式会社,東京都,江戸川区,篠崎町４丁目８番８号,,13,123,1330061,,,,,,,2021-11-01,1,,,,,エルスタ,0
368,2012403005085,新規,0,2021-11-01,2021-11-01,合同会社琥珀堂,,合同会社,東京都,三鷹市,下連雀３丁目１５番１８号エクセル三鷹３０３,,13,204,1810013,,,,,,,2021-11-01,1,,,,,コハクドウ,0
386,2020001143678,新規,0,2021-11-01,2021-11-01,株式会社Ｍ＆Ｂ,,株式会社,神奈川県,横浜市中区,日ノ出町１丁目１８番地１オーツービルＢ１Ｆ,,14,104,2310066,,,,,,,2021-11-01,1,,,,,エムアンドビー,0
396,2021001074335,新規,0,2021-11-01,2021-11-01,株式会社ＫＡＩ,,株式会社,神奈川県,横須賀市,米が浜通２丁目３第１臼井ビル４Ｆ,,14,201,2380011,,,,,,,2021-11-01,1,,,,,カイ,0
401,2021003011039,新規,0,2021-11-01,2021-11-01,カツオ商会合同会社,,合同会社,神奈川県,茅ヶ崎市,菱沼１丁目２０番３５号,,14,207,2530011,,,,,,,2021-11-01,1,,,,,カツオショウカイ,0
406,2030001145054,新規,0,2021-11-01,2021-11-01,株式会社エムエス企画,,株式会社,埼玉県,さいたま市大宮区,高鼻町１丁目１２２番地１,,11,103,3300803,,,,,,,2021-11-01,1,,,,,エムエスキカク,0
407,2030001145079,新規,0,2021-11-01,2021-11-01,ブレーヴ株式会社,,株式会社,埼玉県,さいたま市緑区,東浦和４丁目６番地１０,,11,109,3360926,,,,,,,2021-11-01,1,,,,,ブレーヴ,0
410,2030003018225,新規,0,2021-11-01,2021-11-01,合同会社Ｓｍａｒｔ　Ｂｅａ,,合同会社,埼玉県,さいたま市北区,宮原町１丁目８３番地３,,11,102,3310812,,,,,,,2021-11-01,1,,,,,スマートベア,0
411,2030003018233,新規,0,2021-11-01,2021-11-01,合同会社鍋倉,,合同会社,埼玉県,戸田市,下戸田１丁目１番２,,11,224,3350011,,,,,,,2021-11-01,1,,,,,ナベクラ,0
418,2040001120774,新規,0,2021-11-01,2021-11-01,株式会社ＩＫエンジニアリング,,株式会社,千葉県,印西市,西の原４丁目５番地４９,,12,231,2701334,,,,,,,2021-11-01,1,,,,,アイケーエンジニアリング,0
425,2050001050062,新規,0,2021-11-01,2021-11-01,株式会社飯岡農園,,株式会社,茨城県,つくば市,上野９５５,,08,220,3050002,,,,,,,2021-11-01,1,,,,,イイオカノウエン,0
429,2060001034213,新規,0,2021-11-01,2021-11-01,株式会社エージェント,,株式会社,栃木県,足利市,田中町９０２番地１５田中ハイツ３０６号,,09,202,3260822,,,,,,,2021-11-01,1,,,,,エージェント,0
432,2070003004279,新規,0,2021-11-01,2021-11-01,合同会社ＳＡＭＡＲＫＡＮＤ　ＴＲＡＤＩＮＧ,,合同会社,群馬県,館林市,野辺町８３７番地の６,,10,207,3740047,,,,,,,2021-11-01,1,,,,,サマルカンドトレーディング,0
434,2080401025454,新規,0,2021-11-01,2021-11-01,株式会社ベルファスト,,株式会社,静岡県,浜松市南区,東若林町１６２番地ソレーユ四ツ枝１０２,,22,134,4328052,,,,,,,2021-11-01,1,,,,,ベルファスト,0
437,2090001017256,新規,0,2021-11-01,2021-11-01,株式会社ＡＣＬ,,株式会社,山梨県,甲府市,上今井町１９４９番地８,,19,201,4000845,,,,,,,2021-11-01,1,,,,,エイシーエル,0
439,2100005012788,新規,0,2021-11-01,2021-11-01,浅間グローバル事業協同組合,,その他の設立登記法人,長野県,上田市,中央６丁目１５番４６号,,20,203,3860012,,,,,,,2021-11-01,1,,,,,アサマグローバル,0
455,2120001241513,新規,0,2021-11-01,2021-11-01,株式会社サンバースト,,株式会社,大阪府,大阪市西成区,天下茶屋１丁目１番９号,,27,122,5570014,,,,,,,2021-11-01,1,,,,,サンバースト,0
460,2120003020510,新規,0,2021-11-01,2021-11-01,合同会社ｂａｕｍ,,合同会社,大阪府,大阪市北区,西天満３丁目１１－４,,27,127,5300047,,,,,,,2021-11-01,1,,,,,バウム,0
461,2120005022579,新規,0,2021-11-01,2021-11-01,ＮＰＯ法人カルチオ,,その他の設立登記法人,大阪府,大阪市城東区,東中浜５丁目６番６号ジョイフル緑橋４０１,,27,118,5360023,,,,,,,2021-11-01,1,,,,,カルチオ,0
466,2120901045121,新規,0,2021-11-01,2021-11-01,株式会社華の誠,,株式会社,大阪府,茨木市,穂積台５番２４号,,27,211,5670044,,,,,,,2021-11-01,1,,,,,ハナノマコト,0
468,2120903003894,新規,0,2021-11-01,2021-11-01,合同会社アトラス,,合同会社,大阪府,豊中市,南桜塚１丁目１３番４６号,,27,203,5610882,,,,,,,2021-11-01,1,,,,,アトラス,0
476,2130003007564,新規,0,2021-11-01,2021-11-01,合同会社野村商事,,合同会社,京都府,京都市上京区,宮垣町９１番地まむあん荒神口１０２,,26,102,6020853,,,,,,,2021-11-01,1,,,,,ノムラショウジ,0
492,2140001123643,新規,0,2021-11-01,2021-11-01,株式会社Ｐｌａｃｅ　ｏｆ　Ｏｒｉｇｉｎ,,株式会社,兵庫県,尼崎市,大庄西町１丁目３３番３６－３０７号,,28,202,6600077,,,,,,,2021-11-01,1,,,,,プレイスオブオリジン,0
493,2140001123668,新規,0,2021-11-01,2021-11-01,株式会社共育忍者堂,,株式会社,兵庫県,尼崎市,昭和通２丁目６番６８号,,28,202,6600881,,,,,,,2021-11-01,1,,,,,キョウイクニンジャドウ,0
500,2160001023759,新規,0,2021-11-01,2021-11-01,株式会社サントル,,株式会社,滋賀県,大津市,際川２丁目２５番８号,,25,201,5200002,,,,,,,2021-11-01,1,,,,,サントル,0
511,2180001148488,新規,0,2021-11-01,2021-11-01,ｃｇｋ株式会社,,株式会社,愛知県,名古屋市中区,錦３丁目１７番２４号,,23,106,4600003,,,,,,,2021-11-01,1,,,,,シージーケイ,0
512,2180001148496,新規,0,2021-11-01,2021-11-01,アクロスセキュリティ株式会社,,株式会社,愛知県,名古屋市中区,栄３丁目２番３号名古屋日興證券ビル４階,,23,106,4600008,,,,,,,2021-11-01,1,,,,,アクロスセキュリティ,0
519,2190005011633,新規,0,2021-11-01,2021-11-01,一般社団法人志摩アドベンチャーコンサルタンツ,,その他の設立登記法人,三重県,志摩市,磯部町穴川１１０２番地８,,24,215,5170213,,,,,,,2021-11-01,1,,,,,シマアドベンチャーコンサルタンツ,0
523,2200001039338,新規,0,2021-11-01,2021-11-01,株式会社ともみん,,株式会社,岐阜県,岐阜市,加納御車町４６番地ルミエール加納１０１,,21,201,5008251,,,,,,,2021-11-01,1,,,,,トモミン,0
541,2290001095199,新規,0,2021-11-01,2021-11-01,ＯＮＥ　ＬＩＮＥ株式会社,,株式会社,福岡県,宗像市,石丸１丁目６番２７号,,40,220,8114147,,,,,,,2021-11-01,1,,,,,ワンライン,0
545,2290003011773,新規,0,2021-11-01,2021-11-01,合同会社日本空家管理,,合同会社,福岡県,糸島市,芥屋９２９,,40,230,8191100,,,,,,,2021-11-01,1,,,,,ニホンアキヤカンリ,0
549,2290801027946,新規,0,2021-11-01,2021-11-01,株式会社平野,,株式会社,福岡県,行橋市,大字福原３１７番地６,,40,213,8240049,,,,,,,2021-11-01,1,,,,,ヒラノ,0
553,2320001018701,新規,0,2021-11-01,2021-11-01,株式会社ＬＵＣＣＡ,,株式会社,大分県,宇佐市,大字石田２０２番地４－２Ｆ,,44,211,8790444,,,,,,,2021-11-01,1,,,,,ルッカ,0
555,2340003003617,新規,0,2021-11-01,2021-11-01,合同会社こうのとり,,合同会社,鹿児島県,鹿児島市,加治屋町１５番３号,,46,201,8920846,,,,,,,2021-11-01,1,,,,,コウノトリ,0
559,2360001029570,新規,0,2021-11-01,2021-11-01,株式会社観音堂,,株式会社,沖縄県,沖縄市,上地４丁目１３－７,,47,211,9040031,,,,,,,2021-11-01,1,,,,,カンノンドウ,0
563,2370001047753,新規,0,2021-11-01,2021-11-01,株式会社ＬＵＮＮＹ’Ｓ　ＶＥＧＧＩＥ,,株式会社,宮城県,仙台市泉区,福岡字城ノ内裏１５番地,,04,105,9813225,,,,,,,2021-11-01,1,,,,,ラニーズベジー,0
577,2500001023765,新規,0,2021-11-01,2021-11-01,株式会社海童,,株式会社,愛媛県,松山市,祝谷２丁目１３番１７号,,38,201,7900833,,,,,,,2021-11-01,1,,,,,カイドウ,0
578,2700150105575,新規,0,2021-11-01,2021-11-01,株式会社ＱＴＴ,,外国会社等,東京都,中央区,銀座７丁目１３番６号サガミビル２階,,13,102,1040061,大韓民国釜山広域市海雲台区センタム東路２６，Ｂ棟１８０２号（祐洞，ハンファクメグリーンセンタム）,,,,,,2021-11-01,1,,,,,カブシキガイシヤキユーテイテイ,0
599,3010003036137,新規,0,2021-11-01,2021-11-01,たけゆう合同会社,,合同会社,東京都,中央区,銀座１丁目２２－１１銀座大竹ビジデンス２階,,13,102,1040061,,,,,,,2021-11-01,1,,,,,タケユウ,0
600,3010005034155,新規,0,2021-11-01,2021-11-01,一般社団法人北東アジア平和協会,,その他の設立登記法人,東京都,中央区,銀座１丁目１６番７号銀座大栄ビル５階,,13,102,1040061,,,,,,,2021-11-01,1,,,,,ホクトウアジアヘイワキョウカイ,0
601,3010101014936,新規,0,2021-11-01,2021-11-01,株式会社Ｕｎｉｔｙ,,株式会社,東京都,八王子市,三崎町９番５号尾川第１店舗１０５号,,13,201,1920084,,,,,,,2021-11-01,1,,,,,ユニティー,0
604,3010401163532,新規,0,2021-11-01,2021-11-01,Ｗｅｂｕｌｌ　Ｊａｐａｎ株式会社,,株式会社,東京都,港区,元赤坂１丁目２番７号赤坂Ｋタワー１９Ｆ,,13,103,1070051,,,,,,,2021-11-01,1,,,,,ウィブルジャパン,0
606,3010403026316,新規,0,2021-11-01,2021-11-01,合同会社ＳｔｅｅｌＬｉｎｋ,,合同会社,東京都,港区,南青山２丁目２番１５号ウィン青山１３０２,,13,103,1070062,,,,,,,2021-11-01,1,,,,,スチールリンク,0
607,3010403026423,新規,0,2021-11-01,2021-11-01,合同会社ソニック,,合同会社,東京都,港区,南青山２丁目２番１５号ウィン青山９４２,,13,103,1070062,,,,,,,2021-11-01,1,,,,,ソニック,0
612,3010801032428,新規,0,2021-11-01,2021-11-01,株式会社グリーノ,,株式会社,東京都,大田区,大森西３丁目１２番３１号,,13,111,1430015,,,,,,,2021-11-01,1,,,,,グリーノ,0
614,3010803003939,新規,0,2021-11-01,2021-11-01,合同会社ＩＭＫ,,合同会社,東京都,大田区,南千束３丁目３１－７,,13,111,1450063,,,,,,,2021-11-01,1,,,,,アイエムケー,0
615,3010901049710,新規,0,2021-11-01,2021-11-01,株式会社クリエイティブアイ,,株式会社,東京都,世田谷区,羽根木１丁目３０番８号,,13,112,1560042,,,,,,,2021-11-01,1,,,,,クリエイティブアイ,0
620,3011001143684,新規,0,2021-11-01,2021-11-01,株式会社ＮＥＷＴＲＡＩＬ,,株式会社,東京都,目黒区,碑文谷５丁目２番５号Ｔ＆Ａビル５階,,13,110,1520003,,,,,,,2021-11-01,1,,,,,ニュートレイル,0
621,3011001143701,新規,0,2021-11-01,2021-11-01,株式会社ハチワン,,株式会社,東京都,渋谷区,神山町１０番２－２０６号,,13,113,1500047,,,,,,,2021-11-01,1,,,,,ハチワン,0
622,3011001143734,新規,0,2021-11-01,2021-11-01,株式会社ケー・キューブ,,株式会社,東京都,渋谷区,神宮前３丁目３７番１－２０９号,,13,113,1500001,,,,,,,2021-11-01,1,,,,,ケーキューブ,0
629,3011003013654,新規,0,2021-11-01,2021-11-01,ｃｕｏｒｅ合同会社,,合同会社,東京都,渋谷区,恵比寿２丁目１２番１７号,,13,113,1500013,,,,,,,2021-11-01,1,,,,,クオーレ,0
633,3011103011129,新規,0,2021-11-01,2021-11-01,合同会社ＲＥＬＢＯ,,合同会社,東京都,新宿区,四谷２丁目１１番地,,13,104,1600004,,,,,,,2021-11-01,1,,,,,レルボ,0
643,3011701024812,新規,0,2021-11-01,2021-11-01,株式会社ｏｓｍ,,株式会社,東京都,江戸川区,上一色１丁目４番３号,,13,123,1330041,,,,,,,2021-11-01,1,,,,,オーエスエム,0
649,3011803004852,新規,0,2021-11-01,2021-11-01,合同会社ＯＭＣ,,合同会社,東京都,葛飾区,新宿３丁目２９番２－２０７号ワコーレ高砂,,13,122,1250051,,,,,,,2021-11-01,1,,,,,オーエムシー,0
652,3012401038474,新規,0,2021-11-01,2021-11-01,株式会社総コン,,株式会社,東京都,府中市,府中町２丁目１番地の７,,13,206,1830055,,,,,,,2021-11-01,1,,,,,ソウコン,0
654,3012701016741,新規,0,2021-11-01,2021-11-01,株式会社フリーカンパニー,,株式会社,東京都,西東京市,ひばりが丘３丁目２番５１号,,13,229,2020001,,,,,,,2021-11-01,1,,,,,フリーカンパニー,0
663,3020002098730,新規,0,2021-11-01,2021-11-01,有限会社菱田製作所,,有限会社,神奈川県,川崎市川崎区,塩浜３丁目１１番２９号,,14,131,2100826,,,,,,,2021-11-01,1,,,,,ヒシダセイサクショ,0
668,3021001074367,新規,0,2021-11-01,2021-11-01,株式会社Ｓｐｉｒｉｔ　Ｗｉｎｇｓ,,株式会社,神奈川県,小田原市,東町５丁目７番４１－１０３号ライフレビュー小田原東ブライトコート,,14,206,2500003,,,,,,,2021-11-01,1,,,,,スピリットウイングス,0
669,3021001074375,新規,0,2021-11-01,2021-11-01,ＯｎｅＳｅｅ商会株式会社,,株式会社,神奈川県,茅ヶ崎市,堤５８８番地,,14,207,2530006,,,,,,,2021-11-01,1,,,,,ワンシーショウカイ,0
681,3030001145045,新規,0,2021-11-01,2021-11-01,株式会社プチボヌール,,株式会社,埼玉県,所沢市,くすのき台３丁目１８番地５,,11,208,3590037,,,,,,,2021-11-01,1,,,,,プチボヌール,0
682,3030001145078,新規,0,2021-11-01,2021-11-01,株式会社エイフルスタッフ,,株式会社,埼玉県,飯能市,仲町１２－９芳本ビル４０１,,11,209,3570038,,,,,,,2021-11-01,1,,,,,エイフルスタッフ,0
684,3030003018232,新規,0,2021-11-01,2021-11-01,ドライテック東京合同会社,,合同会社,埼玉県,新座市,片山１丁目１３番１０号,,11,230,3520025,,,,,,,2021-11-01,1,,,,,ドライテックトウキョウ,0
691,3040003018818,新規,0,2021-11-01,2021-11-01,合同会社Ｉ,,合同会社,千葉県,いすみ市,今関５３９番地１,,12,238,2980126,,,,,,,2021-11-01,1,,,,,アイ,0
692,3040003018842,新規,0,2021-11-01,2021-11-01,キープロダクション合同会社,,合同会社,千葉県,野田市,２８０番地の１２,,12,208,2780000,,,,,,,2021-11-01,1,,,,,キープロダクション,0
693,3040005021407,新規,0,2021-11-01,2021-11-01,一般社団法人ヒューマンサポート,,その他の設立登記法人,千葉県,千葉市若葉区,小倉町７５７番地１,,12,104,2640007,,,,,,,2021-11-01,1,,,,,ヒューマンサポート,0
698,3050005012958,新規,0,2021-11-01,2021-11-01,特定非営利活動法人ドローンアカデミー,,その他の設立登記法人,茨城県,日立市,若葉町３丁目１４番１２－２号,,08,202,3170063,,,,,,,2021-11-01,1,,,,,ドローンアカデミー,0
699,3060005009920,新規,0,2021-11-01,2021-11-01,一般社団法人Ａｐｐｌｅ　Ｂａｓｅ,,その他の設立登記法人,栃木県,那須塩原市,上中野４２０番地１１,,09,213,3293154,,,,,,,2021-11-01,1,,,,,アップルベース,0
701,3080001024533,新規,0,2021-11-01,2021-11-01,株式会社静岡ロボットテクノロジー,,株式会社,静岡県,焼津市,坂本４５２番地の４,,22,212,4250004,,,,,,,2021-11-01,1,,,,,シズオカロボットテクノロジー,0
706,3080103002445,新規,0,2021-11-01,2021-11-01,ＬＲＥＫ合同会社,,合同会社,静岡県,富士市,元町１７番３１号Ｋグラシア１－Ｂ号,,22,210,4160917,,,,,,,2021-11-01,1,,,,,ラーク,0
710,3090003001983,新規,0,2021-11-01,2021-11-01,笑顔の森合同会社,,合同会社,山梨県,甲府市,蓬沢町９５８番地オーフォレスト２号棟３０３号室,,19,201,4000824,,,,,,,2021-11-01,1,,,,,エガオノモリ,0
714,3100003006279,新規,0,2021-11-01,2021-11-01,サザンウィンド合同会社,,合同会社,長野県,長野市,新田町１４５８メゾンフォンテーヌ１０１,,20,201,3810000,,,,,,,2021-11-01,1,,,,,サザンウィンド,0
715,3100005012787,新規,0,2021-11-01,2021-11-01,一般社団法人日本コーヒー調合師協会,,その他の設立登記法人,長野県,北佐久郡軽井沢町,大字長倉５５４３番地４,,20,321,3890111,,,,,,,2021-11-01,1,,,,,ニホンコーヒーチョウゴウシキョウカイ,0
729,3120001241512,新規,0,2021-11-01,2021-11-01,株式会社アップローカル,,株式会社,大阪府,寝屋川市,点野６丁目５番９－１０２号,,27,215,5720077,,,,,,,2021-11-01,1,,,,,アップローカル,0
737,3120901045104,新規,0,2021-11-01,2021-11-01,イーエン株式会社,,株式会社,大阪府,高槻市,芥川町１丁目７－５,,27,207,5691123,,,,,,,2021-11-01,1,,,,,イーエン,0
738,3120903003893,新規,0,2021-11-01,2021-11-01,合同会社こころの輪,,合同会社,大阪府,豊中市,上津島２丁目１０番４３号,,27,203,5610843,,,,,,,2021-11-01,1,,,,,ココロノワ,0
753,3140003016919,新規,0,2021-11-01,2021-11-01,合同会社彩桜,,合同会社,兵庫県,三田市,あかしあ台２丁目１９番地２１,,28,219,6691323,,,,,,,2021-11-01,1,,,,,アヤザクラ,0
762,3180001148487,新規,0,2021-11-01,2021-11-01,株式会社ＦＥＬＩＺＡ　Ｄ．,,株式会社,愛知県,名古屋市中区,栄５丁目１０番５号,,23,106,4600008,,,,,,,2021-11-01,1,,,,,フェリザディー,0
764,3180301035567,新規,0,2021-11-01,2021-11-01,株式会社ピカイチ,,株式会社,愛知県,豊田市,朝日町５丁目１２番地４,,23,211,4710031,,,,,,,2021-11-01,1,,,,,ピカイチ,0
773,3210003001418,新規,0,2021-11-01,2021-11-01,ｋｈｏｍｌｏｙ合同会社,,合同会社,福井県,鯖江市,上鯖江２丁目１番１８－６号,,18,207,9160055,,,,,,,2021-11-01,1,,,,,コムロイ,0
775,3230001019055,新規,0,2021-11-01,2021-11-01,株式会社ＭＩＲＡＩ,,株式会社,富山県,富山市,掛尾町４２番地３,,16,201,9398212,,,,,,,2021-11-01,1,,,,,ミライ,0
778,3240001058829,新規,0,2021-11-01,2021-11-01,株式会社ＡＳＴＥＲＩＳ,,株式会社,広島県,広島市東区,光町２丁目８番３－２０６号,,34,102,7320052,,,,,,,2021-11-01,1,,,,,アステリス,0
782,3240003005341,新規,0,2021-11-01,2021-11-01,合同会社山本摩由子,,合同会社,広島県,江田島市,能美町鹿川３８２２番地１,,34,215,7372302,,,,,,,2021-11-01,1,,,,,ヤマモトマユコ,0
783,3250001019219,新規,0,2021-11-01,2021-11-01,ｔｈｉｒｄ．ｇｅａｒ．ｂｕｉｌｄｅｒｓ株式会社,,株式会社,山口県,山口市,赤妻町１８番８号,,35,203,7530067,,,,,,,2021-11-01,1,,,,,サードギアビルダーズ,0
785,3280001008549,新規,0,2021-11-01,2021-11-01,株式会社ペラテック,,株式会社,島根県,松江市,美保関町森山２２番地１,,32,201,6901312,,,,,,,2021-11-01,1,,,,,ペラテック,0
795,3290001095165,新規,0,2021-11-01,2021-11-01,株式会社ＧＲＯＺ,,株式会社,福岡県,宗像市,池浦４２８番地,,40,220,8113401,,,,,,,2021-11-01,1,,,,,グローズ,0
796,3290001095181,新規,0,2021-11-01,2021-11-01,株式会社タワラヤ,,株式会社,福岡県,福岡市中央区,清川３丁目２８番４号,,40,133,8100005,,,,,,,2021-11-01,1,,,,,タワラヤ,0
797,3290001095207,新規,0,2021-11-01,2021-11-01,Ｖａｔｒａ　Ｃｒｅａｔｉｖｅ株式会社,,株式会社,福岡県,福岡市中央区,天神２丁目３番１０号天神パインクレスト７１９号,,40,133,8100001,,,,,,,2021-11-01,1,,,,,バトラクリエイティブ,0
802,3290003011772,新規,0,2021-11-01,2021-11-01,ハレム合同会社,,合同会社,福岡県,福岡市城南区,長尾３丁目２１番１５－１号,,40,136,8140123,,,,,,,2021-11-01,1,,,,,ハレム,0
806,3290801027945,新規,0,2021-11-01,2021-11-01,株式会社ＲＥＨ　ＨＡＵＳ,,株式会社,福岡県,北九州市若松区,大井戸町１５番２号,,40,103,8080033,,,,,,,2021-11-01,1,,,,,リーハウス,0
808,3290803003969,新規,0,2021-11-01,2021-11-01,合同会社ＴＳＫライフ,,合同会社,福岡県,行橋市,西宮市５丁目３４番地２９号,,40,213,8240031,,,,,,,2021-11-01,1,,,,,ティーエスケーライフ,0
816,3300003001739,新規,0,2021-11-01,2021-11-01,合同会社パインテール,,合同会社,佐賀県,嬉野市,嬉野町大字岩屋川内甲３５３番地,,41,209,8430304,,,,,,,2021-11-01,1,,,,,パインテール,0
828,3350003003961,新規,0,2021-11-01,2021-11-01,合同会社ＲＩＰＰＬＥ,,合同会社,宮崎県,北諸県郡三股町,大字宮村２８８１番地１１,,45,341,8891912,,,,,,,2021-11-01,1,,,,,リップル,0
834,3370001047769,新規,0,2021-11-01,2021-11-01,株式会社ネイチャーズ,,株式会社,宮城県,仙台市太白区,秋保町湯元字太夫１４７番地,,04,104,9820241,,,,,,,2021-11-01,1,,,,,ネイチャーズ,0
839,3400001015656,新規,0,2021-11-01,2021-11-01,株式会社ジョイパートナー,,株式会社,岩手県,盛岡市,中堤町１９番１９号,,03,201,0200131,,,,,,,2021-11-01,1,,,,,ジョイパートナー,0
840,3410005006436,新規,0,2021-11-01,2021-11-01,特定非営利活動法人Ｃｙｃｌｅ,,その他の設立登記法人,秋田県,湯沢市,関口字関口３３番地１,,05,207,0120862,,,,,,,2021-11-01,1,,,,,サイクル,0
859,3470003002068,新規,0,2021-11-01,2021-11-01,合同会社どんぐりこ,,合同会社,香川県,丸亀市,原田町１６８２－２濱崎ハイツ５号,,37,202,7630074,,,,,,,2021-11-01,1,,,,,ドングリコ,0
871,4010001222142,新規,0,2021-11-01,2021-11-01,Ｄ－ＴＨＲＥＥ株式会社,,株式会社,東京都,中央区,銀座１丁目１２番４号Ｎ＆ＥＢＬＤ．７階,,13,102,1040061,,,,,,,2021-11-01,1,,,,,ディースリー,0
872,4010001222175,新規,0,2021-11-01,2021-11-01,株式会社リュウセンパートナーズ,,株式会社,東京都,千代田区,東神田１丁目１１番５号,,13,101,1010031,,,,,,,2021-11-01,1,,,,,リュウセンパートナーズ,0
874,4010003036061,新規,0,2021-11-01,2021-11-01,Ｌａｖｉ　Ｃａｐｉｔａｌ合同会社,,合同会社,東京都,千代田区,霞が関３丁目２番５号,,13,101,1000013,,,,,,,2021-11-01,1,,,,,ラビキャピタル,0
876,4010101014935,新規,0,2021-11-01,2021-11-01,株式会社Ｇｒｅｅｎ,,株式会社,東京都,八王子市,万町９７番地２ハウス平安１０１号,,13,201,1920903,,,,,,,2021-11-01,1,,,,,グリーン,0
884,4010401163119,新規,0,2021-11-01,2021-11-01,株式会社アルパカ,,株式会社,東京都,港区,浜松町２丁目２－１５浜松町ダイヤビル２階,,13,103,1050013,,,,,,,2021-11-01,1,,,,,アルパカ,0
897,4011001143428,新規,0,2021-11-01,2021-11-01,株式会社ＷＥＬ,,株式会社,東京都,渋谷区,道玄坂２丁目１７番６号,,13,113,1500043,,,,,,,2021-11-01,1,,,,,ダブルイーエル,0
898,4011001143700,新規,0,2021-11-01,2021-11-01,株式会社リンクスエステート,,株式会社,東京都,渋谷区,桜丘町１４番６号,,13,113,1500031,,,,,,,2021-11-01,1,,,,,リンクスエステート,0
899,4011001143709,新規,0,2021-11-01,2021-11-01,株式会社カルチャーテクノロジーグループアジア・ジャパン,,株式会社,東京都,渋谷区,神南１丁目６番５号,,13,113,1500041,,,,,,,2021-11-01,1,,,,,カルチャーテクノロジーグループアジアジャパン,0
900,4011001143758,新規,0,2021-11-01,2021-11-01,ＦＯＲＳＴＹ株式会社,,株式会社,東京都,渋谷区,広尾５丁目８番１３号,,13,113,1500012,,,,,,,2021-11-01,1,,,,,フォルスティー,0
901,4011003013645,新規,0,2021-11-01,2021-11-01,日本インドネシアパートナーズ合同会社,,合同会社,東京都,渋谷区,代々木４丁目９番５－５０２号,,13,113,1510053,,,,,,,2021-11-01,1,,,,,ニホンインドネシアパートナーズ,0
902,4011003013653,新規,0,2021-11-01,2021-11-01,合同会社ＳＹＬＰＨ　ＦＬＡＧＳ,,合同会社,東京都,渋谷区,渋谷２丁目１９－１５宮益坂ビルディング６０９,,13,113,1500002,,,,,,,2021-11-01,1,,,,,シルフフラッグス,0
905,4011101096757,新規,0,2021-11-01,2021-11-01,株式会社ＢＯＬＴ,,株式会社,東京都,新宿区,箪笥町２７神楽坂佐藤ビル１Ｆ,,13,104,1620833,,,,,,,2021-11-01,1,,,,,ボルト,0
909,4011103011128,新規,0,2021-11-01,2021-11-01,合同会社ｍｏｏｎｒａｙ,,合同会社,東京都,新宿区,西新宿３丁目３番地１３号６Ｆ,,13,104,1600023,,,,,,,2021-11-01,1,,,,,ムーンレイ,0
913,4011301027306,新規,0,2021-11-01,2021-11-01,株式会社凛夏,,株式会社,東京都,杉並区,和泉４丁目４４番４２号,,13,115,1680063,,,,,,,2021-11-01,1,,,,,リンカ,0
915,4011403003485,新規,0,2021-11-01,2021-11-01,合同会社ＬＩＦＥ　ＲＯＯＴＳ,,合同会社,東京都,板橋区,成増３丁目２２番２４号プレザントハウス成増１０４,,13,119,1750094,,,,,,,2021-11-01,1,,,,,ライフルーツ,0
916,4011603003426,新規,0,2021-11-01,2021-11-01,合同会社カルトシュカ,,合同会社,東京都,練馬区,高松３丁目１５番１１号,,13,120,1790075,,,,,,,2021-11-01,1,,,,,カルトシュカ,0
918,4011701024811,新規,0,2021-11-01,2021-11-01,株式会社東洋ナノテク,,株式会社,東京都,江戸川区,西葛西７丁目２１番２２号,,13,123,1340088,,,,,,,2021-11-01,1,,,,,トウヨウナノテク,0
920,4011801039908,新規,0,2021-11-01,2021-11-01,株式会社びりーぶ東京,,株式会社,東京都,足立区,神明２丁目１０番７号,,13,121,1210051,,,,,,,2021-11-01,1,,,,,ビリーブトウキョウ,0
921,4012303001604,新規,0,2021-11-01,2021-11-01,合同会社ＣＫ,,合同会社,東京都,町田市,南町田４丁目２４番１８号陽光ハイツ２０２,,13,209,1940005,,,,,,,2021-11-01,1,,,,,シーケー,0
923,4012401038481,新規,0,2021-11-01,2021-11-01,株式会社Ｐｒｏｄｕｃｅ,,株式会社,東京都,武蔵野市,吉祥寺本町２丁目６番５号保谷ビル６階,,13,203,1800004,,,,,,,2021-11-01,1,,,,,プロデュース,0
941,4020003020725,新規,0,2021-11-01,2021-11-01,ＯｎＹｕ合同会社,,合同会社,神奈川県,横浜市緑区,鴨居１丁目１０番１１－６０４号,,14,113,2260003,,,,,,,2021-11-01,1,,,,,オニュー,0
956,4030001145069,新規,0,2021-11-01,2021-11-01,株式会社デイワン,,株式会社,埼玉県,新座市,野火止１丁目１８番９号,,11,230,3520011,,,,,,,2021-11-01,1,,,,,デイワン,0
960,4030003018231,新規,0,2021-11-01,2021-11-01,合同会社小野興業,,合同会社,埼玉県,越谷市,大字大杉４３７番地,,11,222,3430005,,,,,,,2021-11-01,1,,,,,オノコウギョウ,0
973,4040005021406,新規,0,2021-11-01,2021-11-01,社会福祉法人よつかいどう福祉会,,その他の設立登記法人,千葉県,四街道市,成山４０番１,,12,228,2840031,,,,,,,2021-11-01,1,,,,,ヨツカイドウフクシカイ,0
976,4050003006168,新規,0,2021-11-01,2021-11-01,リタス合同会社,,合同会社,茨城県,ひたちなか市,西光地３丁目１３番地４,,08,221,3120058,,,,,,,2021-11-01,1,,,,,リタス,0
977,4060001034244,新規,0,2021-11-01,2021-11-01,株式会社ＮＥＸＴ,,株式会社,栃木県,宇都宮市,上桑島町１４６０番地９,,09,201,3210913,,,,,,,2021-11-01,1,,,,,ネクスト,0
987,4100003006278,新規,0,2021-11-01,2021-11-01,合同会社いちろく,,合同会社,長野県,塩尻市,大字塩尻町４５番地１,,20,215,3990712,,,,,,,2021-11-01,1,,,,,イチロク,0
1000,4120001241486,新規,0,2021-11-01,2021-11-01,株式会社Ｉｓｈｉｚａｗａｙａ,,株式会社,大阪府,大阪市西区,京町堀１丁目１２番２５号,,27,106,5500003,,,,,,,2021-11-01,1,,,,,イシザワヤ,0
1004,4120101064556,新規,0,2021-11-01,2021-11-01,株式会社岸鋼物流,,株式会社,大阪府,岸和田市,臨海町２０番地の３９,,27,202,5960013,,,,,,,2021-11-01,1,,,,,キシコウブツリュウ,0
1007,4122001035307,新規,0,2021-11-01,2021-11-01,フコク工販株式会社,,株式会社,大阪府,八尾市,南木の本３丁目１番地の５０,,27,212,5810042,,,,,,,2021-11-01,1,,,,,フコクコウハン,0
1016,4140001123666,新規,0,2021-11-01,2021-11-01,株式会社Ｎｗｏｒｋ,,株式会社,兵庫県,神戸市中央区,八幡通１丁目１番１９－１３０４号,,28,110,6510085,,,,,,,2021-11-01,1,,,,,エヌワーク,0
1017,4140001123674,新規,0,2021-11-01,2021-11-01,株式会社ＭＹＵ,,株式会社,兵庫県,神戸市垂水区,海岸通９番４３－１０１号,,28,108,6550036,,,,,,,2021-11-01,1,,,,,ミユウ,0
1022,4150001025060,新規,0,2021-11-01,2021-11-01,株式会社Ｈａｙａｉ,,株式会社,奈良県,御所市,大字東松本３６５番地の７,,29,208,6392302,,,,,,,2021-11-01,1,,,,,ハヤイ,0
1023,4150005009340,新規,0,2021-11-01,2021-11-01,一般社団法人天理婚活サポート,,その他の設立登記法人,奈良県,天理市,田部町５２５番地５新田部ビル１階,,29,204,6320017,,,,,,,2021-11-01,1,,,,,テンリコンカツサポート,0
1030,4180001148478,新規,0,2021-11-01,2021-11-01,株式会社Ｍｉｙａｂｉ　ｓｔｙｌｅ,,株式会社,愛知県,名古屋市西区,中小田井４丁目４６０番地メゾン・ベルマネンテ１０１,,23,104,4520822,,,,,,,2021-11-01,1,,,,,ミヤビスタイル,0
1032,4180003023134,新規,0,2021-11-01,2021-11-01,ＤＡＮＡＧＯ合同会社,,合同会社,愛知県,名古屋市中村区,日比津町２丁目８番７号－２,,23,105,4530061,,,,,,,2021-11-01,1,,,,,ダナゴ,0
1046,4210001018669,新規,0,2021-11-01,2021-11-01,株式会社テラックス,,株式会社,福井県,福井市,松本４丁目６番１５号,,18,201,9100003,,,,,,,2021-11-01,1,,,,,テラックス,0
1047,4210001018677,新規,0,2021-11-01,2021-11-01,せんなり企画株式会社,,株式会社,福井県,福井市,中央１丁目１２－１４,,18,201,9100006,,,,,,,2021-11-01,1,,,,,センナリキカク,0
1048,4210003001417,新規,0,2021-11-01,2021-11-01,Ｂｕｎｎｙ　Ｈｏｐ合同会社,,合同会社,福井県,大飯郡おおい町,本郷第１５６号７番地２１,,18,483,9192111,,,,,,,2021-11-01,1,,,,,バニーホップ,0
1055,4240001058828,新規,0,2021-11-01,2021-11-01,株式会社ＢＬＵＥ　ＣＵＳＴＯＭ　ＷＯＲＫＳ,,株式会社,広島県,府中市,高木町１９０３番地１,,34,208,7260013,,,,,,,2021-11-01,1,,,,,ブルーカスタムワークス,0
1060,4240003005340,新規,0,2021-11-01,2021-11-01,合同会社ルーナ,,合同会社,広島県,広島市安佐南区,山本９丁目３番１７－３０２号,,34,105,7310137,,,,,,,2021-11-01,1,,,,,ルーナ,0
1061,4250001019218,新規,0,2021-11-01,2021-11-01,スリーシックス株式会社,,株式会社,山口県,防府市,天神１丁目３番１号１Ｆ,,35,206,7470034,,,,,,,2021-11-01,1,,,,,スリーシックス,0
1064,4260001036121,新規,0,2021-11-01,2021-11-01,野村リース株式会社,,株式会社,岡山県,岡山市北区,田町１丁目１番１チサンビル内,,33,101,7000825,,,,,,,2021-11-01,1,,,,,ノムラリース,0
1065,4260001036170,新規,0,2021-11-01,2021-11-01,株式会社水正不動産,,株式会社,岡山県,岡山市中区,円山６番地３,,33,102,7038271,,,,,,,2021-11-01,1,,,,,スイセイフドウサン,0
1067,4280001008548,新規,0,2021-11-01,2021-11-01,株式会社ＮＥＸＴ　ＯＮＥ,,株式会社,島根県,出雲市,古志町９５８番地３,,32,203,6930031,,,,,,,2021-11-01,1,,,,,ネクストワン,0
1075,4290001095172,新規,0,2021-11-01,2021-11-01,ＦＡＭ株式会社,,株式会社,福岡県,小郡市,古飯７６５番地２,,40,216,8380124,,,,,,,2021-11-01,1,,,,,ファム,0
1086,4290803003968,新規,0,2021-11-01,2021-11-01,第一ドローン合同会社,,合同会社,福岡県,北九州市小倉北区,馬借３丁目３番３１号ＣＯＳビル６階,,40,106,8020077,,,,,,,2021-11-01,1,,,,,ダイイチドローン,0
1087,4290805009484,新規,0,2021-11-01,2021-11-01,一般社団法人北九州再生推進会議,,その他の設立登記法人,福岡県,北九州市戸畑区,汐井町１番６号,,40,105,8040067,,,,,,,2021-11-01,1,,,,,キタキュウシュウサイセイスイシンカイギ,0
1093,4320001018699,新規,0,2021-11-01,2021-11-01,株式会社ニューフォーチューン,,株式会社,大分県,大分市,大字森１２６９番地の２,,44,201,8700128,,,,,,,2021-11-01,1,,,,,ニューフォーチューン,0
1099,4340001024209,新規,0,2021-11-01,2021-11-01,株式会社Ｈｅａｒｔ　Ｆｉｌｔｅｒ,,株式会社,鹿児島県,奄美市,名瀬幸町７番１号,,46,222,8940025,,,,,,,2021-11-01,1,,,,,ハートフィルター,0
1100,4340001024217,新規,0,2021-11-01,2021-11-01,株式会社旺花,,株式会社,鹿児島県,鹿児島市,日之出町１１番２２号,,46,201,8900086,,,,,,,2021-11-01,1,,,,,オウカ,0
1102,4360003011533,新規,0,2021-11-01,2021-11-01,合同会社みゃーく運送,,合同会社,沖縄県,宮古島市,伊良部字池間添２０４番地２,,47,214,9060502,,,,,,,2021-11-01,1,,,,,ミャークウンソウ,0
1110,4390001016655,新規,0,2021-11-01,2021-11-01,株式会社喜竜,,株式会社,山形県,鶴岡市,大西町３３番１６号,,06,203,9970831,,,,,,,2021-11-01,1,,,,,キリュウ,0
1130,4470003002067,新規,0,2021-11-01,2021-11-01,合同会社千手ケア,,合同会社,香川県,高松市,木太町１２１４－３,,37,201,7600080,,,,,,,2021-11-01,1,,,,,センジュケア,0
1132,4480003001745,新規,0,2021-11-01,2021-11-01,Ｃｏｌｏｒ　Ｆａｔｅ合同会社,,合同会社,徳島県,板野郡藍住町,徳命字前須東１８３－５コンチネンタル藍住ｗｅｓｔ１０５号室,,36,403,7711212,,,,,,,2021-11-01,1,,,,,カラーフェイト,0
1139,5010001222174,新規,0,2021-11-01,2021-11-01,株式会社エスコート,,株式会社,東京都,中央区,銀座１丁目２２番１１号銀座大竹ビジデンス２階,,13,102,1040061,,,,,,,2021-11-01,1,,,,,エスコート,0
1140,5010003036135,新規,0,2021-11-01,2021-11-01,ヨルバンガ合同会社,,合同会社,東京都,中央区,銀座１丁目２２番１１号銀座大竹ビジデンス２Ｆ,,13,102,1040061,,,,,,,2021-11-01,1,,,,,ヨルバンガ,0
1141,5010005034153,新規,0,2021-11-01,2021-11-01,一般社団法人日本礼法道協会,,その他の設立登記法人,東京都,千代田区,九段南１丁目５－６,,13,101,1020074,,,,,,,2021-11-01,1,,,,,ニホンレイホウドウキョウカイ,0
1152,5010401163489,新規,0,2021-11-01,2021-11-01,株式会社ｓｅｃａｉｉ,,株式会社,東京都,港区,南青山２丁目２番１５号,,13,103,1070062,,,,,,,2021-11-01,1,,,,,セカイ,0
1153,5010403026396,新規,0,2021-11-01,2021-11-01,合同会社フリート,,合同会社,東京都,港区,芝浦４丁目２２番１－４７０９号,,13,103,1080023,,,,,,,2021-11-01,1,,,,,フリート,0
1159,5010803003937,新規,0,2021-11-01,2021-11-01,Ｄａｉｓｙ合同会社,,合同会社,東京都,大田区,上池台２丁目２６－７メゾン洗足池３０７,,13,111,1450064,,,,,,,2021-11-01,1,,,,,デイジー,0
1164,5010901049700,新規,0,2021-11-01,2021-11-01,株式会社ＢＮＴ＆ｃｏ,,株式会社,東京都,世田谷区,岡本２丁目１４番６－３０５号イニシアクラウド二子玉川イースト,,13,112,1570076,,,,,,,2021-11-01,1,,,,,ビーエヌティアンドコー,0
1165,5010903006906,新規,0,2021-11-01,2021-11-01,合同会社Ｔｈｅ　Ｓｈｉｆｔ,,合同会社,東京都,世田谷区,奥沢３丁目３９番１－４０２号,,13,112,1580083,,,,,,,2021-11-01,1,,,,,ザシフト,0
1167,5011001143699,新規,0,2021-11-01,2021-11-01,株式会社ＲｅＬｕ,,株式会社,東京都,目黒区,中目黒４丁目３番１号エスプラナード中目黒三番館３０１号室,,13,110,1530061,,,,,,,2021-11-01,1,,,,,レル,0
1168,5011003013628,新規,0,2021-11-01,2021-11-01,合同会社ＯＬＥＡＳ,,合同会社,東京都,目黒区,洗足１丁目２６－１－２０２,,13,110,1520012,,,,,,,2021-11-01,1,,,,,オレアス,0
1169,5011003013652,新規,0,2021-11-01,2021-11-01,合同会社水野屋,,合同会社,東京都,目黒区,目黒本町４丁目１３番１４号,,13,110,1520002,,,,,,,2021-11-01,1,,,,,ミズノヤ,0
1177,5011101096707,新規,0,2021-11-01,2021-11-01,株式会社アクシス,,株式会社,東京都,新宿区,新宿２丁目１２番１３号新宿アントレサロンビル２階,,13,104,1600022,,,,,,,2021-11-01,1,,,,,アクシス,0
1178,5011101096748,新規,0,2021-11-01,2021-11-01,株式会社ソアン企画,,株式会社,東京都,新宿区,歌舞伎町２丁目２１番１７号ソアンビル,,13,104,1600021,,,,,,,2021-11-01,1,,,,,ソアンキカク,0
1179,5011101096756,新規,0,2021-11-01,2021-11-01,株式会社ＥＳＥＳ,,株式会社,東京都,新宿区,西新宿３丁目１１番２０号,,13,104,1600023,,,,,,,2021-11-01,1,,,,,イーエス,0
1186,5011803004850,新規,0,2021-11-01,2021-11-01,合同会社共栄,,合同会社,東京都,足立区,栗原３丁目２５番１－７１６号,,13,121,1230842,,,,,,,2021-11-01,1,,,,,キョウエイ,0
1197,5012801021193,新規,0,2021-11-01,2021-11-01,株式会社コネクトプレイス,,株式会社,東京都,日野市,多摩平２丁目５番地の１ＰｌａｎＴ日野市多摩平の森産業連携センター内１０号室,,13,212,1910062,,,,,,,2021-11-01,1,,,,,コネクトプレイス,0
1210,5020001143683,新規,0,2021-11-01,2021-11-01,株式会社スモールウィン,,株式会社,神奈川県,横浜市神奈川区,松見町４丁目９４４番地２５,,14,102,2210005,,,,,,,2021-11-01,1,,,,,スモールウィン,0
1211,5020001143700,新規,0,2021-11-01,2021-11-01,Ｒヴェルフール株式会社,,株式会社,神奈川県,横浜市泉区,岡津町２５７７番地２,,14,116,2450003,,,,,,,2021-11-01,1,,,,,アールヴェルフール,0
1212,5020003020708,新規,0,2021-11-01,2021-11-01,合同会社Ｏａｎ,,合同会社,神奈川県,横浜市中区,太田町２丁目３２番１号ピラアペックス４階ＨＩ,,14,104,2310011,,,,,,,2021-11-01,1,,,,,オーエーエヌ,0
1221,5030001145043,新規,0,2021-11-01,2021-11-01,周記商事株式会社,,株式会社,埼玉県,さいたま市見沼区,大字東新井８９１番地１,,11,104,3370032,,,,,,,2021-11-01,1,,,,,シュウキショウジ,0
1222,5030001145051,新規,0,2021-11-01,2021-11-01,株式会社ギブ・コーポレーション,,株式会社,埼玉県,川口市,安行出羽２丁目８番７号,,11,203,3340052,,,,,,,2021-11-01,1,,,,,ギブコーポレーション,0
1223,5030001145068,新規,0,2021-11-01,2021-11-01,＿栄興業株式会社,00124724,株式会社,埼玉県,入間郡三芳町,大字上富２１２１番地３,,11,324,3540045,,,,,,,2021-11-01,1,,,,,キンエイコウギョウ,0
1232,5030003018206,新規,0,2021-11-01,2021-11-01,ＨＤ１９９５合同会社,,合同会社,埼玉県,富士見市,西みずほ台２丁目２番地９号ラビングみずほ台駅前ビル３０２号室,,11,235,3540018,,,,,,,2021-11-01,1,,,,,エイチディイチキュウキュウゴウ,0
1244,5040001120771,新規,0,2021-11-01,2021-11-01,株式会社ＭＰロジスティクス,,株式会社,千葉県,千葉市美浜区,幕張西１丁目１４番２２号,,12,106,2610026,,,,,,,2021-11-01,1,,,,,エムピーロジスティクス,0
1245,5040001120796,新規,0,2021-11-01,2021-11-01,株式会社高本商事,,株式会社,千葉県,千葉市中央区,院内１丁目１７番３号,,12,101,2600018,,,,,,,2021-11-01,1,,,,,コウモトショウジ,0
1247,5040003018840,新規,0,2021-11-01,2021-11-01,合同会社釉月,,合同会社,千葉県,船橋市,海神５丁目５番８号,,12,204,2730021,,,,,,,2021-11-01,1,,,,,ユヅキ,0
1250,5050003006175,新規,0,2021-11-01,2021-11-01,合同会社ＭＷＭコーポレーション,,合同会社,茨城県,神栖市,筒井１６１６－１３,,08,232,3140132,,,,,,,2021-11-01,1,,,,,エムダブリュウエムコーポレーション,0
1257,5070001038581,新規,0,2021-11-01,2021-11-01,株式会社大星レックス,,株式会社,群馬県,桐生市,東３丁目５番１４号,,10,203,3760034,,,,,,,2021-11-01,1,,,,,タイセイレックス,0
1259,5080101022880,新規,0,2021-11-01,2021-11-01,株式会社サンレイ・エンタープライズ,,株式会社,静岡県,富士市,富士岡３６７番地ルネッセ花守２０１,,22,210,4170841,,,,,,,2021-11-01,1,,,,,サンレイエンタープライズ,0
1261,5090005007440,新規,0,2021-11-01,2021-11-01,ヴィルヌーブ医大前管理組合法人,,その他の設立登記法人,山梨県,中央市,若宮４－１０,,19,214,4093803,,,,,,,2021-11-01,1,,,,,ヴィルヌーブイダイマエ,0
1262,5100001034750,新規,0,2021-11-01,2021-11-01,株式会社竹林舎,,株式会社,長野県,長野市,大字中御所１６６番地,,20,201,3800935,,,,,,,2021-11-01,1,,,,,チクリンシャ,0
1276,5120001241493,新規,0,2021-11-01,2021-11-01,大豊断熱工業株式会社,,株式会社,大阪府,枚方市,磯島茶屋町１１番１８号,,27,210,5731184,,,,,,,2021-11-01,1,,,,,タイホウダンネツコウギョウ,0
1277,5120001241519,新規,0,2021-11-01,2021-11-01,株式会社ｃｏｃｏｔｉｅｒ,,株式会社,大阪府,大阪市北区,天神橋７丁目１２番６号グレーシィ天神橋ビル２号館６０３,,27,127,5310041,,,,,,,2021-11-01,1,,,,,ココティエ,0
1278,5120001241527,新規,0,2021-11-01,2021-11-01,株式会社ＴＥＮＳＥＩ,,株式会社,大阪府,大阪市浪速区,日本橋西１丁目２番１６号リレアコマダ３０４号,,27,111,5560004,,,,,,,2021-11-01,1,,,,,テンセイ,0
1282,5120101064555,新規,0,2021-11-01,2021-11-01,株式会社岸鋼加工,,株式会社,大阪府,岸和田市,岸之浦町６番地の３,,27,202,5960016,,,,,,,2021-11-01,1,,,,,キシコウカコウ,0
1283,5120101064571,新規,0,2021-11-01,2021-11-01,株式会社満天,,株式会社,大阪府,堺市西区,原田８４番地３９,,27,144,5938317,,,,,,,2021-11-01,1,,,,,マンテン,0
1289,5120903003891,新規,0,2021-11-01,2021-11-01,Ｂ＆Ｃ合同会社,,合同会社,大阪府,茨木市,双葉町１０番１号茨木東阪急ビル４Ｆ,,27,211,5670829,,,,,,,2021-11-01,1,,,,,ビーアンドシー,0
1292,5122001035297,新規,0,2021-11-01,2021-11-01,山宝ネットワーク株式会社,,株式会社,大阪府,大東市,西楠の里町４－８,,27,218,5740005,,,,,,,2021-11-01,1,,,,,ヤマホウネットワーク,0
1302,5140001123649,新規,0,2021-11-01,2021-11-01,株式会社グッドアトラクト,,株式会社,兵庫県,明石市,材木町１０－１８、１階,,28,203,6730893,,,,,,,2021-11-01,1,,,,,グッドアトラクト,0
1303,5140001123665,新規,0,2021-11-01,2021-11-01,株式会社オキスイフーズ,,株式会社,兵庫県,西宮市,甲子園口３丁目１６番１１号小西ビル２階,,28,204,6638113,,,,,,,2021-11-01,1,,,,,オキスイフーズ,0
1304,5140001123673,新規,0,2021-11-01,2021-11-01,株式会社創電舎絆,,株式会社,兵庫県,神戸市灘区,森後町１丁目３番１９号リトルブラザーズ六甲ビル４Ｄ－１５,,28,102,6570028,,,,,,,2021-11-01,1,,,,,ソウデンシャキズナ,0
1310,5150001025051,新規,0,2021-11-01,2021-11-01,ＳＧＣ　Ｊａｐａｎ株式会社,,株式会社,奈良県,奈良市,北市町７３番３－８号室,,29,201,6308261,,,,,,,2021-11-01,1,,,,,エスジーシージャパン,0
1312,5160001023756,新規,0,2021-11-01,2021-11-01,株式会社ＧｒｅｅｎＴｅｒｒａｃｅ,,株式会社,滋賀県,東近江市,三津屋町６８番地１,,25,213,5270075,,,,,,,2021-11-01,1,,,,,グリーンテラス,0
1325,5180001148485,新規,0,2021-11-01,2021-11-01,株式会社ＳＰＡＣＥＣＲＡＦＴａｒｃｈｉｔｅｃｔ,,株式会社,愛知県,一宮市,花池３丁目５番２アトレ一宮３０１号,,23,203,4910914,,,,,,,2021-11-01,1,,,,,スペースクラフトアーキテクト,0
1329,5180003023133,新規,0,2021-11-01,2021-11-01,ＥＶＥ－Ｔｅｃｈｎｏｌｏｇｉｅｓ合同会社,,合同会社,愛知県,小牧市,大字小牧原新田７４５番地４７,,23,219,4850012,,,,,,,2021-11-01,1,,,,,イヴテクノロジーズ,0
1330,5180003023141,新規,0,2021-11-01,2021-11-01,合同会社松本メンテナンス,,合同会社,愛知県,名古屋市西区,城西５丁目２１番８号,,23,104,4510031,,,,,,,2021-11-01,1,,,,,マツモトメンテナンス,0
1334,5190001028810,新規,0,2021-11-01,2021-11-01,株式会社エスシー,,株式会社,三重県,伊勢市,小俣町湯田１０２７番地５,,24,203,5190506,,,,,,,2021-11-01,1,,,,,エスシー,0
1336,5200003005368,新規,0,2021-11-01,2021-11-01,ＵＮＯ合同会社,,合同会社,岐阜県,羽島市,小熊町島４丁目１１番地,,21,209,5016264,,,,,,,2021-11-01,1,,,,,ウノ,0
1337,5210001018676,新規,0,2021-11-01,2021-11-01,株式会社ＰＵＲ　ＦＵＫＵＩ,,株式会社,福井県,鯖江市,有定町１丁目８番１０号,,18,207,9160057,,,,,,,2021-11-01,1,,,,,ピュールフクイ,0
1341,5220001024500,新規,0,2021-11-01,2021-11-01,株式会社ｌｉｔｔｌｅ　ｇｉｆｔ,,株式会社,石川県,能美市,大長野町ニ８９番地６,,17,211,9231115,,,,,,,2021-11-01,1,,,,,リトルギフト,0
1342,5220005008607,新規,0,2021-11-01,2021-11-01,Ｌｉｔａ社会保険労務士法人,,その他の設立登記法人,石川県,金沢市,粟崎町ホ９２番地５,,17,201,9200226,,,,,,,2021-11-01,1,,,,,リタ,0
1354,5250003002930,新規,0,2021-11-01,2021-11-01,ＢＪＵ合同会社,,合同会社,山口県,宇部市,東琴芝１丁目６番２０号米田ビル１Ｆ,,35,202,7550034,,,,,,,2021-11-01,1,,,,,ビージェイユー,0
1356,5260001036153,新規,0,2021-11-01,2021-11-01,株式会社Ｉ・ＮＥＸＴ,,株式会社,岡山県,倉敷市,上富井３０１番地７,,33,202,7100846,,,,,,,2021-11-01,1,,,,,アイネクスト,0
1368,5290001095171,新規,0,2021-11-01,2021-11-01,宮商事株式会社,,株式会社,福岡県,福岡市東区,松崎１丁目１０－３,,40,131,8130035,,,,,,,2021-11-01,1,,,,,ミヤショウジ,0
1369,5290001095196,新規,0,2021-11-01,2021-11-01,株式会社Ｌａｕｇｈｔｅｒ,,株式会社,福岡県,福岡市東区,土井２丁目４番１１号,,40,131,8130032,,,,,,,2021-11-01,1,,,,,ラフター,0
1370,5290001095205,新規,0,2021-11-01,2021-11-01,株式会社満実堂,,株式会社,福岡県,太宰府市,連歌屋３丁目１番１号,,40,221,8180119,,,,,,,2021-11-01,1,,,,,ミツミドウ,0
1380,5290801027951,新規,0,2021-11-01,2021-11-01,株式会社一粒,,株式会社,福岡県,築上郡築上町,大字高塚７８２番地１８,,40,647,8290331,,,,,,,2021-11-01,1,,,,,イチリュウ,0
1382,5290803003967,新規,0,2021-11-01,2021-11-01,合同会社ほけん工事の匠,,合同会社,福岡県,北九州市小倉北区,馬借３丁目３番３１号ＣＯＳビル６階,,40,106,8020077,,,,,,,2021-11-01,1,,,,,ホケンコウジノタクミ,0
1383,5300001012678,新規,0,2021-11-01,2021-11-01,株式会社エース,,株式会社,佐賀県,佐賀市,久保田町大字徳万１９１５番地２,,41,201,8490201,,,,,,,2021-11-01,1,,,,,エース,0
1387,5320001018698,新規,0,2021-11-01,2021-11-01,株式会社ハックルベリー,,株式会社,大分県,大分市,中島中央１丁目２番１８号,,44,201,8700049,,,,,,,2021-11-01,1,,,,,ハックルベリー,0
1394,5340001024216,新規,0,2021-11-01,2021-11-01,株式会社永山,,株式会社,鹿児島県,鹿屋市,本町１３番２１号,,46,203,8930002,,,,,,,2021-11-01,1,,,,,ナガヤマ,0
1396,5350001017383,新規,0,2021-11-01,2021-11-01,株式会社ＡＥＳ電設,,株式会社,宮崎県,日向市,大字財光寺１８６番地４６,,45,206,8830021,,,,,,,2021-11-01,1,,,,,エーイーエスデンセツ,0
1398,5360003011532,新規,0,2021-11-01,2021-11-01,合同会社ａｔｏｌｌ,,合同会社,沖縄県,国頭郡金武町,字金武１２０３６番地,,47,314,9041201,,,,,,,2021-11-01,1,,,,,アトール,0
1404,5370005010374,新規,0,2021-11-01,2021-11-01,特定非営利活動法人ミューズの樹Ｔｒｅｅ　ＯＦ　Ｍｕｓｅ　Ｃｅｌｌ,,その他の設立登記法人,宮城県,仙台市青葉区,星陵町２－１国立大学法人東北大学大学院医学系研究科細胞組織学,,04,101,9800872,,,,,,,2021-11-01,1,,,,,ミューズノキツリーオブミューズセル,0
1424,5470003002066,新規,0,2021-11-01,2021-11-01,ＨＲライズ合同会社,,合同会社,香川県,高松市,太田下町１８０４番地アルファステイツ太田４０８,,37,201,7618073,,,,,,,2021-11-01,1,,,,,エイチアールライズ,0
1429,5490005006807,新規,0,2021-11-01,2021-11-01,東洋町特定地域づくり事業バツグン協同組合,,その他の設立登記法人,高知県,安芸郡東洋町,大字河内１１０２番地７,,39,301,7817412,,,,,,,2021-11-01,1,,,,,トウヨウチョウトクテイチイキヅクリジギョウバツグン,0
1434,6010001222165,新規,0,2021-11-01,2021-11-01,株式会社ＲｉｇｈｔＴｏｕｃｈ,,株式会社,東京都,中央区,銀座６丁目１０番１号ＧＩＮＺＡＳＩＸ１０階,,13,102,1040061,,,,,,,2021-11-01,1,,,,,ライトタッチ,0
1435,6010001222198,新規,0,2021-11-01,2021-11-01,株式会社Ｗｉｅｐｒｏ,,株式会社,東京都,千代田区,有楽町２丁目１０番１号東京交通会館ビル６Ｆ,,13,101,1000006,,,,,,,2021-11-01,1,,,,,ウェプロ,0
1440,6010003036142,新規,0,2021-11-01,2021-11-01,合同会社Ａｒｉａ,,合同会社,東京都,中央区,銀座７丁目１３番６号サガミビル２階,,13,102,1040061,,,,,,,2021-11-01,1,,,,,アリア,0
1449,6010401163521,新規,0,2021-11-01,2021-11-01,株式会社Ｔｒｕｍｐ　Ｔｏｋｙｏ,,株式会社,東京都,港区,新橋１丁目１２－９－９Ｆ,,13,103,1050004,,,,,,,2021-11-01,1,,,,,トランプトウキョウ,0
1457,6010703005982,新規,0,2021-11-01,2021-11-01,アシスト合同会社,,合同会社,東京都,品川区,西五反田２丁目９番地７号ドルミ五反田４０７号,,13,109,1410031,,,,,,,2021-11-01,1,,,,,アシスト,0
1460,6010901049708,新規,0,2021-11-01,2021-11-01,株式会社Ｙｓ,,株式会社,東京都,世田谷区,北沢１丁目２９番２０号ヴァルトハイム池ノ上１０３,,13,112,1550031,,,,,,,2021-11-01,1,,,,,ワイエス,0
1462,6011001143707,新規,0,2021-11-01,2021-11-01,株式会社ホワイトボックス,,株式会社,東京都,目黒区,五本木２丁目８番７号,,13,110,1530053,,,,,,,2021-11-01,1,,,,,ホワイトボックス,0
1463,6011003013643,新規,0,2021-11-01,2021-11-01,合同会社Ｃａｎｄｙ’ｓ　ｂｒｅａｔｈ,,合同会社,東京都,渋谷区,上原１丁目７番１７号オリンポス代々木公園１０３,,13,113,1510064,,,,,,,2021-11-01,1,,,,,キャンディーズブレス,0
1468,6011103011118,新規,0,2021-11-01,2021-11-01,合同会社神谷エステート,,合同会社,東京都,新宿区,新宿１丁目３０－１６－３０５,,13,104,1600022,,,,,,,2021-11-01,1,,,,,カミヤエステート,0
1473,6011301027304,新規,0,2021-11-01,2021-11-01,株式会社東京リフォームメイク,,株式会社,東京都,杉並区,今川２丁目１２番２号,,13,115,1670035,,,,,,,2021-11-01,1,,,,,トウキョウリフォームメイク,0
1474,6011401023797,新規,0,2021-11-01,2021-11-01,株式会社ＤＥＳＣＡＮＳＯ,,株式会社,東京都,板橋区,赤塚３丁目３０－７,,13,119,1750092,,,,,,,2021-11-01,1,,,,,デスカンソ,0
1479,6011601025511,新規,0,2021-11-01,2021-11-01,株式会社ＴＡＫＩＡＲＴしょこらアミューズメント,,株式会社,東京都,練馬区,中村北１丁目９番１２号,,13,120,1760023,,,,,,,2021-11-01,1,,,,,タキアートショコラアミューズメント,0
1480,6011603003424,新規,0,2021-11-01,2021-11-01,合同会社幸平企画,,合同会社,東京都,練馬区,中村北１丁目１４番４号,,13,120,1760023,,,,,,,2021-11-01,1,,,,,コウヘイキカク,0
1493,6011801039906,新規,0,2021-11-01,2021-11-01,株式会社ＢＬＵＥＳＡＮＤ,,株式会社,東京都,葛飾区,青戸５丁目１２番４－４０６Ｄ‘クラディア青戸,,13,122,1250062,,,,,,,2021-11-01,1,,,,,ブルーサンド,0
1498,6012801021192,新規,0,2021-11-01,2021-11-01,株式会社Ｃｉｔｙ　Ｍｏｔｏｒ,,株式会社,東京都,武蔵村山市,中原２丁目５０番地の１４,,13,223,2080035,,,,,,,2021-11-01,1,,,,,シティーモーター,0
1501,6020001143682,新規,0,2021-11-01,2021-11-01,株式会社ＣＵＲＩＯＣＩＴＹ,,株式会社,神奈川県,川崎市中原区,今井西町８番４１－１０５号,,14,133,2110066,,,,,,,2021-11-01,1,,,,,キュリオシティ,0
1504,6020003020723,新規,0,2021-11-01,2021-11-01,合同会社ＳＮＳ　Ｋｉｔｃｈｅｎ,,合同会社,神奈川県,横浜市緑区,長津田みなみ台６丁目１８番地２０,,14,113,2260018,,,,,,,2021-11-01,1,,,,,エスエヌエスキッチン,0
1513,6030001145042,新規,0,2021-11-01,2021-11-01,株式会社八雲,,株式会社,埼玉県,入間市,豊岡２丁目２番２２号,,11,225,3580003,,,,,,,2021-11-01,1,,,,,ヤクモ,0
1514,6030001145050,新規,0,2021-11-01,2021-11-01,株式会社Ｈｅａｒｔ　Ｔｒｕｓｔ,,株式会社,埼玉県,さいたま市緑区,原山４丁目２３番２２号,,11,109,3360931,,,,,,,2021-11-01,1,,,,,ハートトラスト,0
1515,6030001145059,新規,0,2021-11-01,2021-11-01,テックソリューション株式会社,,株式会社,埼玉県,さいたま市中央区,上落合２丁目２番１１－１３０６号,,11,105,3380001,,,,,,,2021-11-01,1,,,,,テックソリューション,0
1516,6030001145067,新規,0,2021-11-01,2021-11-01,株式会社Ｒｅｓｅａｒｃｈ,,株式会社,埼玉県,川口市,大字安行藤八３３９番地小櫃ビル３階,,11,203,3340051,,,,,,,2021-11-01,1,,,,,リサーチ,0
1528,6040001120779,新規,0,2021-11-01,2021-11-01,ＳｐｏｒｔｓＦａｃｔｏｒｙ株式会社,,株式会社,千葉県,成田市,玉造５丁目６番地３,,12,211,2860011,,,,,,,2021-11-01,1,,,,,スポーツファクトリー,0
1529,6040001120795,新規,0,2021-11-01,2021-11-01,株式会社ＮＥＸＴＦＯＲＣＥ,,株式会社,千葉県,千葉市中央区,中央３丁目５番５号ロイジェントパークス千葉中央７１２号,,12,101,2600013,,,,,,,2021-11-01,1,,,,,ネクストフォース,0
1530,6040001120812,新規,0,2021-11-01,2021-11-01,株式会社システムファイン,,株式会社,千葉県,千葉市緑区,あすみが丘２丁目３番地１２トークプラザ１０３号,,12,105,2670066,,,,,,,2021-11-01,1,,,,,システムファイン,0
1538,6050001050059,新規,0,2021-11-01,2021-11-01,ＭＩＡＮ　ＢＯＵＥＫＩ株式会社,,株式会社,茨城県,古河市,東山田１８１５番地４４８,,08,204,3060112,,,,,,,2021-11-01,1,,,,,ミアンボウエキ,0
1548,6070001038580,新規,0,2021-11-01,2021-11-01,株式会社美翔,,株式会社,群馬県,前橋市,問屋町２丁目１３－１４,,10,201,3710855,,,,,,,2021-11-01,1,,,,,ビショウ,0
1556,6090003001980,新規,0,2021-11-01,2021-11-01,合同会社Ｇｏｕｒｍｅｔ　Ｃｏｎｓｕｌｔｉｎｇ,,合同会社,山梨県,南都留郡鳴沢村,１１４００－４２,,19,429,4010320,,,,,,,2021-11-01,1,,,,,グルメコンサルティング,0
1588,6120003020498,新規,0,2021-11-01,2021-11-01,モアナ合同会社,,合同会社,大阪府,大阪市阿倍野区,松崎町２丁目２番２８号,,27,119,5450053,,,,,,,2021-11-01,1,,,,,モアナ,0
1589,6120105009472,新規,0,2021-11-01,2021-11-01,ＮＰＯ法人リリー,,その他の設立登記法人,大阪府,大阪狭山市,大野台３丁目３番１７号,,27,231,5890023,,,,,,,2021-11-01,1,,,,,リリー,0
1590,6120901045118,新規,0,2021-11-01,2021-11-01,株式会社ヒノエ,,株式会社,大阪府,茨木市,蔵垣内３丁目１５番１２号早川マンション１０５,,27,211,5670878,,,,,,,2021-11-01,1,,,,,ヒノエ,0
1591,6120903003890,新規,0,2021-11-01,2021-11-01,合同会社コールド・アンド・チルド・アンダーサービス,,合同会社,大阪府,豊中市,三和町１丁目３番２－３０７号,,27,203,5610828,,,,,,,2021-11-01,1,,,,,コールドアンドチルドアンダーサービス,0
1595,6130001070429,新規,0,2021-11-01,2021-11-01,かまんざ株式会社,,株式会社,京都府,京都市中京区,釜座通姉小路下る突抜町８０１番地３アルス京都姉小路粋匠庵６０１,,26,104,6048272,,,,,,,2021-11-01,1,,,,,カマンザ,0
1596,6130001070437,新規,0,2021-11-01,2021-11-01,株式会社Ｍ’ｓ・ＬＩＮＥ,,株式会社,京都府,久世郡久御山町,佐山東代１２番地３,,26,322,6130034,,,,,,,2021-11-01,1,,,,,エムズライン,0
1599,6130005016304,新規,0,2021-11-01,2021-11-01,一般財団法人お寺と教会の親なきあと相談室,,その他の設立登記法人,京都府,京都市下京区,猪熊通梅小路上る南夷町１７０番地,,26,106,6008243,,,,,,,2021-11-01,1,,,,,オテラトキョウカイノオヤナキアトソウダンシツ,0
1611,6140003016924,新規,0,2021-11-01,2021-11-01,合同会社ＴＫＧ,,合同会社,兵庫県,神戸市西区,樫野台５丁目３番地６－１４０４号,,28,111,6512275,,,,,,,2021-11-01,1,,,,,ティーケージー,0
1617,6160001023763,新規,0,2021-11-01,2021-11-01,株式会社湊工業,,株式会社,滋賀県,栗東市,上鈎３０１番地５,,25,208,5203022,,,,,,,2021-11-01,1,,,,,ミナトコウギョウ,0
1621,6180001148419,新規,0,2021-11-01,2021-11-01,株式会社ＮＥＯ,,株式会社,愛知県,一宮市,伝法寺８丁目５番地１Ａ棟,,23,203,4910828,,,,,,,2021-11-01,1,,,,,ネオ,0
1622,6180001148476,新規,0,2021-11-01,2021-11-01,株式会社アークエステート,,株式会社,愛知県,尾張旭市,印場元町３丁目２番地３,,23,226,4880840,,,,,,,2021-11-01,1,,,,,アークエステート,0
1623,6180001148484,新規,0,2021-11-01,2021-11-01,株式会社レモンティック,,株式会社,愛知県,知多郡武豊町,字平井４丁目２５番地,,23,447,4702380,,,,,,,2021-11-01,1,,,,,レモンティック,0
1624,6180001148492,新規,0,2021-11-01,2021-11-01,ＶＥＲＩＴＡＳ　ＤＥＳＩＧＮ株式会社,,株式会社,愛知県,一宮市,大赤見字才勝６８番地１,,23,203,4910015,,,,,,,2021-11-01,1,,,,,ヴェリタスデザイン,0
1630,6180003023132,新規,0,2021-11-01,2021-11-01,３ＫＲベンチャーズ合同会社,,合同会社,愛知県,名古屋市瑞穂区,春山町１３番地の６,,23,108,4670024,,,,,,,2021-11-01,1,,,,,スリーケイアールベンチャーズ,0
1635,6200001039342,新規,0,2021-11-01,2021-11-01,心楽遊株式会社,,株式会社,岐阜県,高山市,新宮町２１１１番地,,21,203,5060035,,,,,,,2021-11-01,1,,,,,ココラユ,0
1647,6260001036152,新規,0,2021-11-01,2021-11-01,株式会社ＮＳホールディングス,,株式会社,岡山県,岡山市中区,乙多見４６３番地,,33,102,7038228,,,,,,,2021-11-01,1,,,,,エヌエスホールディングス,0
1658,6290001095170,新規,0,2021-11-01,2021-11-01,株式会社ハルト,,株式会社,福岡県,飯塚市,中４０３番地２,,40,205,8200065,,,,,,,2021-11-01,1,,,,,ハルト,0
1662,6290003011778,新規,0,2021-11-01,2021-11-01,合同会社折口設備,,合同会社,福岡県,朝倉市,下浦２４３４番地２,,40,228,8380055,,,,,,,2021-11-01,1,,,,,オリグチセツビ,0
1664,6290803003966,新規,0,2021-11-01,2021-11-01,クチコミ削除ドットコム合同会社,,合同会社,福岡県,北九州市小倉北区,馬借３丁目３番３１号ＣＯＳビル６階,,40,106,8020077,,,,,,,2021-11-01,1,,,,,クチコミサクジョドットコム,0
1684,6390001016653,新規,0,2021-11-01,2021-11-01,株式会社ロックホールディングス,,株式会社,山形県,鶴岡市,大宝寺町３番５１号,,06,203,9970014,,,,,,,2021-11-01,1,,,,,ロックホールディングス,0
1701,6450001007241,新規,0,2021-11-01,2021-11-01,金井建材株式会社,,株式会社,北海道,名寄市,東二条北３丁目１６番地,,01,221,0960052,,,,,,,2021-11-01,1,,,,,カナイケンザイ,0
1704,6470003002065,新規,0,2021-11-01,2021-11-01,合同会社Ｃａｐｔｏｒｙ,,合同会社,香川県,仲多度郡まんのう町,炭所西１４８７番地２,,37,406,7660017,,,,,,,2021-11-01,1,,,,,キャプトリー,0
1707,6490001010027,新規,0,2021-11-01,2021-11-01,クリック不動産株式会社,,株式会社,高知県,高知市,秦南町２丁目８番１８号,,39,201,7800026,,,,,,,2021-11-01,1,,,,,クリックフドウサン,0
1715,7010001222189,新規,0,2021-11-01,2021-11-01,株式会社Ｅ３Ｍｏｂｉｌｉｔｙ,,株式会社,東京都,千代田区,神田猿楽町２丁目８番１１号,,13,101,1010064,,,,,,,2021-11-01,1,,,,,イースリーモビリティ,0
1716,7010001222197,新規,0,2021-11-01,2021-11-01,株式会社デグロム,,株式会社,東京都,中央区,佃３丁目３番９－２０５号,,13,102,1040051,,,,,,,2021-11-01,1,,,,,デグロム,0
1721,7010005034151,新規,0,2021-11-01,2021-11-01,一般社団法人護国ファミリートラスト,,その他の設立登記法人,東京都,千代田区,神田神保町２丁目１３番地新保町藤和ビル８階,,13,101,1010051,,,,,,,2021-11-01,1,,,,,モリクニファミリートラスト,0
1731,7010401163553,新規,0,2021-11-01,2021-11-01,株式会社ＳＥＮＳＩＩＳＴ,,株式会社,東京都,港区,白金台４丁目５番５－１４０１号,,13,103,1080071,,,,,,,2021-11-01,1,,,,,センシスト,0
1747,7011001143763,新規,0,2021-11-01,2021-11-01,Ｐｅｒｃｈｃａｍｐ株式会社,,株式会社,東京都,渋谷区,恵比寿１丁目２５番３－５０２号,,13,113,1500013,,,,,,,2021-11-01,1,,,,,パーチキャンプ,0
1748,7011003013626,新規,0,2021-11-01,2021-11-01,合同会社ｉｒｕ,,合同会社,東京都,渋谷区,恵比寿１丁目２９番１５－１１０３号,,13,113,1500013,,,,,,,2021-11-01,1,,,,,イル,0
1749,7011003013659,新規,0,2021-11-01,2021-11-01,賽合同会社,,合同会社,東京都,渋谷区,神宮前６丁目２３番４号桑野ビル２Ｆ,,13,113,1500001,,,,,,,2021-11-01,1,,,,,サイ,0
1752,7011103011125,新規,0,2021-11-01,2021-11-01,合同会社キート,,合同会社,東京都,新宿区,西新宿７丁目５－５Ｐｌａｚａ西新宿ＵＣＦ４０６,,13,104,1600023,,,,,,,2021-11-01,1,,,,,キート,0
1754,7011201023369,新規,0,2021-11-01,2021-11-01,株式会社大洋興業,,株式会社,東京都,中野区,沼袋１丁目４３番１０号,,13,114,1650025,,,,,,,2021-11-01,1,,,,,タイヨウコウギョウ,0
1755,7011401023788,新規,0,2021-11-01,2021-11-01,株式会社野口興業,,株式会社,東京都,板橋区,徳丸７丁目２０番１０号,,13,119,1750083,,,,,,,2021-11-01,1,,,,,ノグチコウギョウ,0
1756,7011401023796,新規,0,2021-11-01,2021-11-01,株式会社リライフ,,株式会社,東京都,板橋区,大山西町７０番３号グレースヤマザキ２０３,,13,119,1730033,,,,,,,2021-11-01,1,,,,,リライフ,0
1757,7011403003490,新規,0,2021-11-01,2021-11-01,合同会社ＲｙｕＲｙｕ,,合同会社,東京都,板橋区,若木１丁目９番１１号,,13,119,1740065,,,,,,,2021-11-01,1,,,,,リュリュー,0
1760,7011801039913,新規,0,2021-11-01,2021-11-01,株式会社ノースタウン,,株式会社,東京都,足立区,千住１丁目３９番地８号ときわビル,,13,121,1200034,,,,,,,2021-11-01,1,,,,,ノースタウン,0
1775,7020003020706,新規,0,2021-11-01,2021-11-01,合同会社ＢＬＩＮＱ　ＦＩＬＭ,,合同会社,神奈川県,川崎市中原区,井田１丁目１３番１５－３号,,14,133,2110035,,,,,,,2021-11-01,1,,,,,ブリンクフィルム,0
1778,7021001074347,新規,0,2021-11-01,2021-11-01,株式会社ＧＣＰＪ,,株式会社,神奈川県,相模原市緑区,中野１９５６番地３１,,14,151,2520157,,,,,,,2021-11-01,1,,,,,ジーシーピージェイ,0
1784,7021003011042,新規,0,2021-11-01,2021-11-01,合同会社ＧＭＭ,,合同会社,神奈川県,相模原市南区,相模台３丁目１６番１２号,,14,153,2520321,,,,,,,2021-11-01,1,,,,,ジーエムエム,0
1794,7030001145017,新規,0,2021-11-01,2021-11-01,株式会社堀工業,,株式会社,埼玉県,入間市,東藤沢７丁目１０番５号１０５,,11,225,3580012,,,,,,,2021-11-01,1,,,,,ホリコウギョウ,0
1796,7030003018229,新規,0,2021-11-01,2021-11-01,合同会社ＳＴＵＤＩＯ１５,,合同会社,埼玉県,吉川市,保１丁目２６番地１４,,11,243,3420041,,,,,,,2021-11-01,1,,,,,スタジオジュウゴ,0
1819,7080001024538,新規,0,2021-11-01,2021-11-01,株式会社オーハマエンタープライズ,,株式会社,静岡県,静岡市駿河区,登呂２丁目６番３２号,,22,102,4228033,,,,,,,2021-11-01,1,,,,,オーハマエンタープライズ,0
1820,7080003002673,新規,0,2021-11-01,2021-11-01,合同会社ペガサス,,合同会社,静岡県,藤枝市,高柳１丁目４番３０号,,22,214,4260041,,,,,,,2021-11-01,1,,,,,ペガサス,0
1838,7120001241509,新規,0,2021-11-01,2021-11-01,株式会社Ｅｓｓｅｎｃｅ,,株式会社,大阪府,寝屋川市,日之出町１番１号,,27,215,5720835,,,,,,,2021-11-01,1,,,,,エッセンス,0
1844,7120005022574,新規,0,2021-11-01,2021-11-01,一般社団法人修繕積立金マンション管理士相談室,,その他の設立登記法人,大阪府,大阪市中央区,北浜３丁目５番２２号オリックス淀屋橋ビル７０１号,,27,128,5410041,,,,,,,2021-11-01,1,,,,,シュウゼンツミタテキンマンションカンリシソウダンシツ,0
1848,7120901045109,新規,0,2021-11-01,2021-11-01,株式会社ＩＮ－Ｐｒｏｇｒｅｓｓ,,株式会社,大阪府,高槻市,芝生町１丁目１３番６号,,27,207,5690823,,,,,,,2021-11-01,1,,,,,インプログレス,0
1850,7130001070428,新規,0,2021-11-01,2021-11-01,英和電工株式会社,,株式会社,京都府,八幡市,八幡五反田４番地１１,,26,210,6148071,,,,,,,2021-11-01,1,,,,,エイワデンコウ,0
1851,7130001070436,新規,0,2021-11-01,2021-11-01,株式会社阿修羅,,株式会社,京都府,京都市左京区,岩倉幡枝町１２６２番地,,26,103,6060015,,,,,,,2021-11-01,1,,,,,アシュラ,0
1861,7160001023754,新規,0,2021-11-01,2021-11-01,株式会社Ｐｓ,,株式会社,滋賀県,彦根市,賀田山町１４１０番地４,,25,202,5291155,,,,,,,2021-11-01,1,,,,,ピース,0
1862,7160001023762,新規,0,2021-11-01,2021-11-01,株式会社樊＿榮,00124720,株式会社,滋賀県,大津市,日吉台４丁目２１番３号,,25,201,5200112,,,,,,,2021-11-01,1,,,,,ハンエイエイ,0
1874,7180001148475,新規,0,2021-11-01,2021-11-01,株式会社Ｌａｍｏ,,株式会社,愛知県,名古屋市緑区,熊の前１丁目１２１１番地,,23,114,4580851,,,,,,,2021-11-01,1,,,,,ラモ,0
1875,7180001148483,新規,0,2021-11-01,2021-11-01,レムリア株式会社,,株式会社,愛知県,名古屋市西区,中小田井５丁目２１４番地クレール小田井４Ｆ号,,23,104,4520822,,,,,,,2021-11-01,1,,,,,レムリア,0
1876,7180001148491,新規,0,2021-11-01,2021-11-01,ライフスマート不動産株式会社,,株式会社,愛知県,知多郡美浜町,大字布土字郷下５５番地,,23,446,4702401,,,,,,,2021-11-01,1,,,,,ライフスマートフドウサン,0
1887,7190001028809,新規,0,2021-11-01,2021-11-01,伊勢ワイナリー株式会社,,株式会社,三重県,伊勢市,村松町１３７５番地６,,24,203,5150507,,,,,,,2021-11-01,1,,,,,イセワイナリー,0
1892,7210001018674,新規,0,2021-11-01,2021-11-01,株式会社おはぎインターナショナル,,株式会社,福井県,福井市,手寄１丁目１１番２３号コーポ山口ＩＩ２０５号,00124718,18,201,9100858,,,,,,,2021-11-01,1,,,,,オハギインターナショナル,0
1897,7240001058858,新規,0,2021-11-01,2021-11-01,株式会社澄樹建装,,株式会社,広島県,広島市南区,元宇品町５番４号,,34,103,7340012,,,,,,,2021-11-01,1,,,,,キヨキケンソウ,0
1902,7250003002929,新規,0,2021-11-01,2021-11-01,Ｂｒｏｓ合同会社,,合同会社,山口県,岩国市,室の木町４丁目２５番２号,,35,208,7400021,,,,,,,2021-11-01,1,,,,,ブロス,0
1917,7290001095161,新規,0,2021-11-01,2021-11-01,株式会社Ｃ‐ＢＥＳ,,株式会社,福岡県,久留米市,東町３５番地３,,40,203,8300032,,,,,,,2021-11-01,1,,,,,シーベス,0
1918,7290001095178,新規,0,2021-11-01,2021-11-01,サンツリーズ株式会社,,株式会社,福岡県,福岡市西区,富士見３丁目１９番１０－３０２号,,40,135,8190387,,,,,,,2021-11-01,1,,,,,サンツリーズ,0
1919,7290001095186,新規,0,2021-11-01,2021-11-01,株式会社ＡｓＤａｉｃｈｉ,,株式会社,福岡県,福岡市博多区,博多駅前４丁目３３番７－４０７号,,40,132,8120011,,,,,,,2021-11-01,1,,,,,アスダイチ,0
1920,7290001095203,新規,0,2021-11-01,2021-11-01,株式会社４ＲＥＡＬ,,株式会社,福岡県,福岡市南区,大橋１丁目８－２１－５Ｆ,,40,134,8150033,,,,,,,2021-11-01,1,,,,,フォーリアル,0
1922,7290003011777,新規,0,2021-11-01,2021-11-01,合同会社産直フーズ,,合同会社,福岡県,春日市,日の出町４丁目３番１号,,40,218,8160873,,,,,,,2021-11-01,1,,,,,サンチョクフーズ,0
1928,7310001017550,新規,0,2021-11-01,2021-11-01,株式会社ヤングビーナスいさはや,,株式会社,長崎県,諫早市,栄田町２７番４１号北村アパート,,42,204,8540081,,,,,,,2021-11-01,1,,,,,ヤングビーナスイサハヤ,0
1934,7360001029566,新規,0,2021-11-01,2021-11-01,株式会社ｓｔｙｌｅ－ｍｉｅｍｅ,,株式会社,沖縄県,沖縄市,松本５丁目１６番５号,,47,211,9042151,,,,,,,2021-11-01,1,,,,,スタイルミーミー,0
1936,7370001047765,新規,0,2021-11-01,2021-11-01,株式会社ダザイ,,株式会社,宮城県,仙台市若林区,蒲町２９－１５、２階,,04,103,9840037,,,,,,,2021-11-01,1,,,,,ダザイ,0
1958,8010001222171,新規,0,2021-11-01,2021-11-01,株式会社Ｌｕｐｉｎｕｓ,,株式会社,東京都,中央区,銀座１丁目３番３号Ｇ１ビル７階,,13,102,1040061,,,,,,,2021-11-01,1,,,,,ルピナス,0
1961,8010003036124,新規,0,2021-11-01,2021-11-01,シーワイリンクス合同会社,,合同会社,東京都,中央区,日本橋本町３丁目３番６号,,13,102,1030023,,,,,,,2021-11-01,1,,,,,シーワイリンクス,0
1963,8010005034150,新規,0,2021-11-01,2021-11-01,行政書士法人パートナーシップスペシャリスト,,その他の設立登記法人,東京都,中央区,日本橋兜町９番５－７１７号,,13,102,1030026,,,,,,,2021-11-01,1,,,,,パートナーシップスペシャリスト,0
1969,8010403026393,新規,0,2021-11-01,2021-11-01,合同会社シグマネオ,,合同会社,東京都,港区,南青山２丁目２番１５号,,13,103,1070062,,,,,,,2021-11-01,1,,,,,シグマネオ,0
1972,8010405020337,新規,0,2021-11-01,2021-11-01,一般社団法人こどもの笑顔弁当,,その他の設立登記法人,東京都,港区,六本木７丁目１１番９号ミッドタウンＴビル２Ｆ,,13,103,1060032,,,,,,,2021-11-01,1,,,,,コドモノエガオベントウ,0
1993,8011001143705,新規,0,2021-11-01,2021-11-01,Ａｍａｔｏ株式会社,,株式会社,東京都,渋谷区,幡ヶ谷２丁目２１－１４０１号,,13,113,1510072,,,,,,,2021-11-01,1,,,,,アマト,0
1994,8011001143721,新規,0,2021-11-01,2021-11-01,バロンドール株式会社,,株式会社,東京都,目黒区,上目黒４丁目２５番８号ＫｅａｔｓＨｏｕｓｅ－Ｃ,,13,110,1530051,,,,,,,2021-11-01,1,,,,,バロンドール,0
1998,8011003013641,新規,0,2021-11-01,2021-11-01,ナガワ日通商事合同会社,,合同会社,東京都,目黒区,東山３丁目１番１９号,,13,110,1530043,,,,,,,2021-11-01,1,,,,,ナガワニッツウショウジ,0
2004,8011101096753,新規,0,2021-11-01,2021-11-01,アイナルミ株式会社,,株式会社,東京都,新宿区,市谷甲良町２番１４－１００７号,,13,104,1620856,,,,,,,2021-11-01,1,,,,,アイナルミ,0
2005,8011101096761,新規,0,2021-11-01,2021-11-01,リセットリンク株式会社,,株式会社,東京都,新宿区,大久保３丁目７番３３号,,13,104,1690072,,,,,,,2021-11-01,1,,,,,リセットリンク,0
2007,8011201023368,新規,0,2021-11-01,2021-11-01,赤偃株式会社,,株式会社,東京都,中野区,新井２丁目３０番４号,,13,114,1650026,,,,,,,2021-11-01,1,,,,,セキエン,0
2008,8011203003681,新規,0,2021-11-01,2021-11-01,合同会社なつやすみ,,合同会社,東京都,中野区,中野３丁目３４－１９,,13,114,1640001,,,,,,,2021-11-01,1,,,,,ナツヤスミ,0
2010,8011303004209,新規,0,2021-11-01,2021-11-01,合同会社グッドワン,,合同会社,東京都,杉並区,久我山５丁目３３番１号,,13,115,1680082,,,,,,,2021-11-01,1,,,,,グッドワン,0
2019,8012701016737,新規,0,2021-11-01,2021-11-01,一畝田株式会社,,株式会社,東京都,東久留米市,浅間町３丁目２番９号パレスひばりヶ丘１０５号室,,13,222,2030012,,,,,,,2021-11-01,1,,,,,ヒトセダ,0
2035,8020003020721,新規,0,2021-11-01,2021-11-01,合同会社ｃｏｔｔｏｎ,,合同会社,神奈川県,横浜市西区,平沼１丁目４０番１号,,14,103,2200023,,,,,,,2021-11-01,1,,,,,コットン,0
2041,8021001074346,新規,0,2021-11-01,2021-11-01,株式会社ｅｇｇ,,株式会社,神奈川県,相模原市中央区,淵野辺本町４丁目１９番１９号,,14,152,2520202,,,,,,,2021-11-01,1,,,,,エッグ,0
2042,8021001074354,新規,0,2021-11-01,2021-11-01,株式会社ＷＲ　ＤＥＳＩＧＮ,,株式会社,神奈川県,相模原市南区,相模台２丁目３番６－３０４号,,14,153,2520321,,,,,,,2021-11-01,1,,,,,ダブルアールデザイン,0
2047,8021003011033,新規,0,2021-11-01,2021-11-01,合同会社タキガワ,,合同会社,神奈川県,横須賀市,粟田１丁目３７番７号,,14,201,2390845,,,,,,,2021-11-01,1,,,,,タキガワ,0
2053,8030001145032,新規,0,2021-11-01,2021-11-01,Ｔａｎｇ　Ｄｒｉｖｅ株式会社,,株式会社,埼玉県,さいたま市浦和区,大東１丁目２３番８号グランエスト浦和４０７,,11,107,3300043,,,,,,,2021-11-01,1,,,,,タンドライブ,0
2054,8030001145049,新規,0,2021-11-01,2021-11-01,鴻利株式会社,,株式会社,埼玉県,所沢市,松葉町３番地８ＳＫビル２階,,11,208,3590044,,,,,,,2021-11-01,1,,,,,コウリ,0
2055,8030001145057,新規,0,2021-11-01,2021-11-01,株式会社ハイドロマシンツール,,株式会社,埼玉県,川口市,青木１丁目１２番２２号,,11,203,3320031,,,,,,,2021-11-01,1,,,,,ハイドロマシンツール,0
2059,8030003018211,新規,0,2021-11-01,2021-11-01,隆豊瑞業合同会社,,合同会社,埼玉県,桶川市,鴨川１丁目１３番地１１,,11,231,3630024,,,,,,,2021-11-01,1,,,,,リュウホウズイギョウ,0
2060,8030003018236,新規,0,2021-11-01,2021-11-01,錦秋合同会社,,合同会社,埼玉県,川口市,芝富士２丁目７番３０－４１０号シャルム蕨,,11,203,3330854,,,,,,,2021-11-01,1,,,,,キンシショウ,0
2068,8040001120752,新規,0,2021-11-01,2021-11-01,株式会社桃里,,株式会社,千葉県,館山市,館山１３８４番地３,,12,205,2940036,,,,,,,2021-11-01,1,,,,,トウリ,0
2069,8040001120777,新規,0,2021-11-01,2021-11-01,株式会社Ｒａｉｎｂｏｗ　Ｐｉｅｃｅ,,株式会社,千葉県,松戸市,小金きよしケ丘１丁目８番地の１８,,12,207,2700013,,,,,,,2021-11-01,1,,,,,レインボウピース,0
2075,8040003018838,新規,0,2021-11-01,2021-11-01,合同会社ＹＳＰ,,合同会社,千葉県,袖ケ浦市,長浦駅前２丁目１９－１１ロイヤルガーデンＶＩＩ２０１号室,00124721,12,229,2990246,,,,,,,2021-11-01,1,,,,,ワイエスピー,0
2076,8050003006172,新規,0,2021-11-01,2021-11-01,合同会社ＨＯＮＳＨＵ,,合同会社,茨城県,坂東市,矢作３１８３番地１９,,08,228,3060624,,,,,,,2021-11-01,1,,,,,ホンシュウ,0
2079,8060001034232,新規,0,2021-11-01,2021-11-01,株式会社ＭＯＮＯロジスティクス,,株式会社,栃木県,宇都宮市,上横田町８２２番地１１,,09,201,3210106,,,,,,,2021-11-01,1,,,,,モノロジスティクス,0
2080,8060001034240,新規,0,2021-11-01,2021-11-01,株式会社ＭＡＮＺＯＯＲ　ＴＲＡＤＩＮＧ,,株式会社,栃木県,栃木市,岩舟町新里１３０４番地Ａ号,,09,203,3294316,,,,,,,2021-11-01,1,,,,,マンズールトレーディング,0
2089,8090001017259,新規,0,2021-11-01,2021-11-01,株式会社プロボデー工業所,,株式会社,山梨県,南巨摩郡南部町,南部３０９１番地１,,19,366,4092212,,,,,,,2021-11-01,1,,,,,プロボデーコウギョウショ,0
2092,8100005012790,新規,0,2021-11-01,2021-11-01,一般社団法人ＡＬｉＳ,,その他の設立登記法人,長野県,松本市,大手１丁目５番９－８０１号サーパス大手イーストサイド,,20,202,3900874,,,,,,,2021-11-01,1,,,,,アリス,0
2110,8120001241532,新規,0,2021-11-01,2021-11-01,株式会社レアン,,株式会社,大阪府,大阪市住吉区,長居東３丁目１４番２２号１０２,,27,120,5580004,,,,,,,2021-11-01,1,,,,,レアン,0
2113,8120003020505,新規,0,2021-11-01,2021-11-01,合同会社ＧＲＥＥＤ,,合同会社,大阪府,大阪市淀川区,三国本町２丁目５－３－２階,,27,123,5320005,,,,,,,2021-11-01,1,,,,,グリード,0
2114,8120003020513,新規,0,2021-11-01,2021-11-01,Ｏｆｆｉｃｅ　ｔ＆Ｍ合同会社,,合同会社,大阪府,大阪市福島区,鷺洲５丁目１２－２－１９４５,,27,103,5530002,,,,,,,2021-11-01,1,,,,,オフィスティーアンドエム,0
2116,8120101064552,新規,0,2021-11-01,2021-11-01,株式会社実業之日本デジタル,,株式会社,大阪府,岸和田市,荒木町２丁目１８番１５号,,27,202,5960004,,,,,,,2021-11-01,1,,,,,ジツギョウノニホンデジタル,0
2117,8120101064569,新規,0,2021-11-01,2021-11-01,株式会社筒井瓦店,,株式会社,大阪府,岸和田市,南上町２丁目１０番２０号,,27,202,5960078,,,,,,,2021-11-01,1,,,,,ツツイカワラテン,0
2121,8120105009470,新規,0,2021-11-01,2021-11-01,一般社団法人ＨＥＡＲＴ,,その他の設立登記法人,大阪府,阪南市,自然田６３２番地の５,,27,232,5990212,,,,,,,2021-11-01,1,,,,,ハート,0
2124,8130001070435,新規,0,2021-11-01,2021-11-01,株式会社日興建総,,株式会社,京都府,宇治市,小倉町堀池９番地の５,,26,204,6110042,,,,,,,2021-11-01,1,,,,,ニッコウケンソウ,0
2130,8140001123613,新規,0,2021-11-01,2021-11-01,慶株式会社,,株式会社,兵庫県,神戸市中央区,磯上通８丁目１番２９号カサベラビルＣ＆Ｍ４０３号室,,28,110,6510086,,,,,,,2021-11-01,1,,,,,ケイ,0
2131,8140001123654,新規,0,2021-11-01,2021-11-01,株式会社雅工業,,株式会社,兵庫県,尼崎市,猪名寺３丁目２番２０－４０８号,,28,202,6610981,,,,,,,2021-11-01,1,,,,,ミヤビコウギョウ,0
2132,8140001123670,新規,0,2021-11-01,2021-11-01,株式会社ビートラスト,,株式会社,兵庫県,神戸市長田区,長田天神町５丁目７番８号,,28,106,6530882,,,,,,,2021-11-01,1,,,,,ビートラスト,0
2133,8140001123679,新規,0,2021-11-01,2021-11-01,株式会社ＹＯＲＡＫＵ,,株式会社,兵庫県,伊丹市,御願塚７丁目３番３４号,,28,207,6640855,,,,,,,2021-11-01,1,,,,,ヨラク,0
2154,8180001148499,新規,0,2021-11-01,2021-11-01,株式会社Ｅｍｉｓｘｉａ,,株式会社,愛知県,名古屋市中川区,東春田２丁目７３番地,,23,110,4540983,,,,,,,2021-11-01,1,,,,,エミシア,0
2165,8200001039349,新規,0,2021-11-01,2021-11-01,クリップ株式会社,,株式会社,岐阜県,大垣市,木戸町２６６－１３,,21,202,5030973,,,,,,,2021-11-01,1,,,,,クリップ,0
2168,8210001018673,新規,0,2021-11-01,2021-11-01,株式会社ホリタ板金,,株式会社,福井県,福井市,日光２丁目２７１０番地,,18,201,9100029,,,,,,,2021-11-01,1,,,,,ホリタバンキン,0
2172,8220001024506,新規,0,2021-11-01,2021-11-01,株式会社ＰＯＫＫＥ,,株式会社,石川県,金沢市,笠舞本町１丁目１６番３号,,17,201,9200947,,,,,,,2021-11-01,1,,,,,ポッケ,0
2186,8260001036159,新規,0,2021-11-01,2021-11-01,ケイス株式会社,,株式会社,岡山県,岡山市北区,内山下２丁目３番１２号１Ｆ,,33,101,7000824,,,,,,,2021-11-01,1,,,,,ケイス,0
2192,8290001095169,新規,0,2021-11-01,2021-11-01,株式会社ＤＡＤ,,株式会社,福岡県,福岡市中央区,赤坂１丁目１４番２２号センチュリー赤坂門ビル９階,,40,133,8100042,,,,,,,2021-11-01,1,,,,,ディーエイディー,0
2193,8290001095177,新規,0,2021-11-01,2021-11-01,株式会社Ｍｏｂｉｌｉｔｙ　Ｓｅｒｖｉｃｅ２４,,株式会社,福岡県,大川市,大字一木７２７番地１,,40,212,8310034,,,,,,,2021-11-01,1,,,,,モビリティサービスニジュウヨン,0
2194,8290001095193,新規,0,2021-11-01,2021-11-01,株式会社サン・ロータス,,株式会社,福岡県,福岡市城南区,別府４丁目３番１２－２０１号サンリヤン別府,,40,136,8140104,,,,,,,2021-11-01,1,,,,,サンロータス,0
2195,8290001095202,新規,0,2021-11-01,2021-11-01,株式会社ＲＥＤＩＴ,,株式会社,福岡県,福岡市中央区,大名１丁目９番２５－５０２号,,40,133,8100041,,,,,,,2021-11-01,1,,,,,レディット,0
2200,8290803003972,新規,0,2021-11-01,2021-11-01,みらいねＥコマース合同会社,,合同会社,福岡県,北九州市八幡西区,熊西１丁目９番５号,,40,109,8060031,,,,,,,2021-11-01,1,,,,,ミライネイーコマース,0
2204,8310003004199,新規,0,2021-11-01,2021-11-01,合同会社福まん家福田本店,,合同会社,長崎県,長崎市,平戸小屋町１６番２３号３０１,,42,201,8528006,,,,,,,2021-11-01,1,,,,,フクマンヤフクダホンテン,0
2207,8330001029122,新規,0,2021-11-01,2021-11-01,株式会社チカーノプラス,,株式会社,熊本県,熊本市中央区,本荘６丁目１１番６号クローバーハイツ１０１号,,43,101,8600811,,,,,,,2021-11-01,1,,,,,チカーノプラス,0
2218,8370003005464,新規,0,2021-11-01,2021-11-01,トランジション合同会社,,合同会社,宮城県,仙台市泉区,紫山５丁目３３番地８,,04,105,9813205,,,,,,,2021-11-01,1,,,,,トランジション,0
2222,8400003002854,新規,0,2021-11-01,2021-11-01,クロス合同会社,,合同会社,岩手県,盛岡市,津志田南１丁目９番１８号,,03,201,0200839,,,,,,,2021-11-01,1,,,,,クロス,0
2225,8430003013295,新規,0,2021-11-01,2021-11-01,合同会社勇馬,,合同会社,北海道,沙流郡日高町,富川東４丁目１０番２５号,,01,601,0550004,,,,,,,2021-11-01,1,,,,,ユウマ,0
2228,8450001013519,新規,0,2021-11-01,2021-11-01,株式会社松井興商,,株式会社,北海道,紋別市,北浜町１丁目６番１１号,,01,219,0940001,,,,,,,2021-11-01,1,,,,,マツイコウショウ,0
2230,8450003002148,新規,0,2021-11-01,2021-11-01,合同会社ケネットグループ,,合同会社,北海道,稚内市,声問２丁目３５番１２号,,01,214,0986642,,,,,,,2021-11-01,1,,,,,,0
2232,8490001010025,新規,0,2021-11-01,2021-11-01,株式会社ラプラスＡＰ,,株式会社,高知県,高知市,布師田３９９２番地３企業化支援センター研究室Ｄ,,39,201,7815101,,,,,,,2021-11-01,1,,,,,ラプラスエーピー,0
2247,9010001222154,新規,0,2021-11-01,2021-11-01,株式会社ＭＩＮＤＰＯＯＬ　ＪＡＰＡＮ,,株式会社,東京都,中央区,銀座１丁目２２番１１号２Ｆ,,13,102,1040061,,,,,,,2021-11-01,1,,,,,マインドプール,0
2248,9010001222187,新規,0,2021-11-01,2021-11-01,株式会社アップライン,,株式会社,東京都,千代田区,麹町４丁目５－２０ＫＳビル８Ｆ,,13,101,1020083,,,,,,,2021-11-01,1,,,,,アップライン,0
2249,9010003036115,新規,0,2021-11-01,2021-11-01,ティッシュマン・スパイヤー・ジャパン合同会社,,合同会社,東京都,千代田区,有楽町１丁目１番２号日比谷三井タワー１２階,,13,101,1000006,,,,,,,2021-11-01,1,,,,,ティッシュマンスパイヤージャパン,0
2255,9010101014930,新規,0,2021-11-01,2021-11-01,京西ホールディングス株式会社,,株式会社,東京都,八王子市,千人町４丁目７番１７号,,13,201,1930835,,,,,,,2021-11-01,1,,,,,キョウサイホールディングス,0
2270,9010401163576,新規,0,2021-11-01,2021-11-01,株式会社コク,,株式会社,東京都,港区,白金２丁目５－１０－１１０１,,13,103,1080072,,,,,,,2021-11-01,1,,,,,コク,0
2273,9010501048033,新規,0,2021-11-01,2021-11-01,株式会社御徒町将棋センター,,株式会社,東京都,台東区,上野３丁目２１番１０号,,13,106,1100005,,,,,,,2021-11-01,1,,,,,オカチマチショウギセンター,0
2278,9010901049696,新規,0,2021-11-01,2021-11-01,株式会社Ｌａ　Ｌｕｎａ,,株式会社,東京都,世田谷区,駒沢２丁目１１番５号ニューバリュー駒沢ビル５階,,13,112,1540012,,,,,,,2021-11-01,1,,,,,ラルーナ,0
2279,9010901049705,新規,0,2021-11-01,2021-11-01,株式会社サンライズ企画,,株式会社,東京都,世田谷区,成城３丁目２５番２３号,,13,112,1570066,,,,,,,2021-11-01,1,,,,,サンライズキカク,0
2284,9011001143704,新規,0,2021-11-01,2021-11-01,株式会社ＳＥＮＯＢＩ,,株式会社,東京都,渋谷区,恵比寿１丁目１９－１９恵比寿ビジネスタワー４Ｆ,,13,113,1500013,,,,,,,2021-11-01,1,,,,,セノビ,0
2289,9011101096736,新規,0,2021-11-01,2021-11-01,株式会社ケイコネクト,,株式会社,東京都,新宿区,西新宿８丁目１４番２７号,,13,104,1600023,,,,,,,2021-11-01,1,,,,,ケイコネクト,0
2290,9011101096760,新規,0,2021-11-01,2021-11-01,Ｔｏｋｙｏ　Ｓｕｎｒｉｓｅ株式会社,,株式会社,東京都,新宿区,西新宿７丁目１０－１７新宿ダイカンプラザＢ館４０６号,,13,104,1600023,,,,,,,2021-11-01,1,,,,,トウキョウサンライズ,0
2291,9011103011123,新規,0,2021-11-01,2021-11-01,Ｍｅｏｗ　Ｗｈｉｔｅ合同会社,,合同会社,東京都,新宿区,西新宿８丁目９番１４号Ｂａｙｂｅｒｒｙ３０２,,13,104,1600023,,,,,,,2021-11-01,1,,,,,ミャウホワイト,0
2292,9011203003680,新規,0,2021-11-01,2021-11-01,合同会社ＹＯＲＯＺＵ,,合同会社,東京都,中野区,上鷺宮３丁目６番２６号テルぺリオン２０２,,13,114,1650031,,,,,,,2021-11-01,1,,,,,ヨロズ,0
2294,9011501027448,新規,0,2021-11-01,2021-11-01,万盛株式会社,,株式会社,東京都,北区,浮間１丁目１番１４号リムジンビル３０７,,13,117,1150051,,,,,,,2021-11-01,1,,,,,マンセイ,0
2297,9011601025509,新規,0,2021-11-01,2021-11-01,株式会社Ｄ・Ｎ・Ｓ,,株式会社,東京都,練馬区,光が丘５丁目２番１－５０２号,,13,120,1790072,,,,,,,2021-11-01,1,,,,,ディーエヌエス,0
2301,9011703002983,新規,0,2021-11-01,2021-11-01,合同会社ママンホーム,,合同会社,東京都,江戸川区,北小岩２丁目１３－９,,13,123,1330051,,,,,,,2021-11-01,1,,,,,ママンホーム,0
2319,9020001143655,新規,0,2021-11-01,2021-11-01,株式会社Ｍａｒｓ,,株式会社,神奈川県,横浜市神奈川区,鶴屋町２丁目９番地２２日興パレス横浜７０９,,14,102,2210835,,,,,,,2021-11-01,1,,,,,マーズ,0
2320,9020001143671,新規,0,2021-11-01,2021-11-01,株式会社ニチリン,,株式会社,神奈川県,横浜市旭区,都岡町８９番地１４,,14,112,2410805,,,,,,,2021-11-01,1,,,,,ニチリン,0
2321,9020001143688,新規,0,2021-11-01,2021-11-01,株式会社ＴＡＫＡＭＯＴＯ,,株式会社,神奈川県,横浜市青葉区,荏田町２９２番地１コモンズあざみ野Ｂ－３０３,,14,117,2250013,,,,,,,2021-11-01,1,,,,,タカモト,0
2322,9020001143705,新規,0,2021-11-01,2021-11-01,株式会社マリエマナ,,株式会社,神奈川県,横浜市中区,太田町３丁目３９番地１ライオンズステージ関内メダリオン２０１号,,14,104,2310011,,,,,,,2021-11-01,1,,,,,マリエマナ,0
2324,9020003020720,新規,0,2021-11-01,2021-11-01,合同会社清光塗装,,合同会社,神奈川県,横浜市泉区,和泉町１０４８番地４,,14,116,2450016,,,,,,,2021-11-01,1,,,,,セイコウトソウ,0
2329,9021001074345,新規,0,2021-11-01,2021-11-01,株式会社和毅,,株式会社,神奈川県,茅ヶ崎市,芹沢１０５７番地１,,14,207,2530008,,,,,,,2021-11-01,1,,,,,ワキ,0
2330,9021001074353,新規,0,2021-11-01,2021-11-01,株式会社ヒロプランニング,,株式会社,神奈川県,藤沢市,打戻２０５８番地の１３,,14,205,2520824,,,,,,,2021-11-01,1,,,,,ヒロプランニング,0
2345,9030001145064,新規,0,2021-11-01,2021-11-01,ＹＭＤ株式会社,,株式会社,埼玉県,春日部市,増富４５４番地４,,11,214,3440041,,,,,,,2021-11-01,1,,,,,ワイエムディ,0
2350,9030003018227,新規,0,2021-11-01,2021-11-01,合同会社アベニール,,合同会社,埼玉県,上尾市,中分１丁目２５番８号,,11,219,3620067,,,,,,,2021-11-01,1,,,,,アベニール,0
2351,9030003018235,新規,0,2021-11-01,2021-11-01,合同会社旭東技研,,合同会社,埼玉県,新座市,野火止５丁目１番２２号アルテール新座１０１号室,,11,230,3520011,,,,,,,2021-11-01,1,,,,,キョクトウギケン,0
2352,9030003018243,新規,0,2021-11-01,2021-11-01,ＮＯＭＯＳＯＦＴ合同会社,,合同会社,埼玉県,加須市,騎西１２７６番地,,11,210,3470105,,,,,,,2021-11-01,1,,,,,ノモソフト,0
2360,9040001120776,新規,0,2021-11-01,2021-11-01,株式会社アザレアハウジング,,株式会社,千葉県,松戸市,栄町２丁目９１番６号,,12,207,2710062,,,,,,,2021-11-01,1,,,,,アザレアハウジング,0
2365,9050001050056,新規,0,2021-11-01,2021-11-01,青葉仮建株式会社,,株式会社,茨城県,稲敷市,稲波１８７番地,,08,229,3000503,,,,,,,2021-11-01,1,,,,,アオバカケン,0
2366,9050001050064,新規,0,2021-11-01,2021-11-01,株式会社Ｍｉｃｏｔｔ,,株式会社,茨城県,守谷市,薬師台７丁目２７番地６,,08,224,3020105,,,,,,,2021-11-01,1,,,,,ミコット,0
2373,9060001034215,新規,0,2021-11-01,2021-11-01,株式会社ＴＡＫＵＭＩ,,株式会社,栃木県,真岡市,並木町２丁目７番地４チサンマンション１０３号,,09,209,3214361,,,,,,,2021-11-01,1,,,,,タクミ,0
2378,9080101022877,新規,0,2021-11-01,2021-11-01,株式会社望月通商,,株式会社,静岡県,富士宮市,万野原新田３５０４番地の１４,,22,207,4180001,,,,,,,2021-11-01,1,,,,,モチヅキツウショウ,0
2398,9120001241531,新規,0,2021-11-01,2021-11-01,株式会社ＲＹＵＧＵ,,株式会社,大阪府,大阪市西淀川区,佃３丁目１６番１８号,,27,113,5550001,,,,,,,2021-11-01,1,,,,,リュウグウ,0
2402,9120003020512,新規,0,2021-11-01,2021-11-01,ＭＧＭＢ合同会社,,合同会社,大阪府,大阪市西成区,長橋３丁目５番２号１Ｆ,,27,122,5570025,,,,,,,2021-11-01,1,,,,,エムジエムビィ,0
2411,9120901045115,新規,0,2021-11-01,2021-11-01,株式会社ＰｉａＨｏｕｓｅ,,株式会社,大阪府,豊中市,中桜塚５丁目４番８号,,27,203,5610881,,,,,,,2021-11-01,1,,,,,ピアハウス,0
2412,9120901045123,新規,0,2021-11-01,2021-11-01,株式会社Ｐｏｎａｃ,,株式会社,大阪府,吹田市,五月が丘西１番Ｂ－４１１号,,27,205,5650833,,,,,,,2021-11-01,1,,,,,ポナック,0
2417,9130001070426,新規,0,2021-11-01,2021-11-01,株式会社木村工業,,株式会社,京都府,京都市左京区,岩倉幡枝町１１５３番地２,,26,103,6060015,,,,,,,2021-11-01,1,,,,,キムラコウギョウ,0
2427,9140001123661,新規,0,2021-11-01,2021-11-01,株式会社チキラボ,,株式会社,兵庫県,西脇市,西脇２９９番地２,,28,213,6770015,,,,,,,2021-11-01,1,,,,,チキラボ,0
2428,9140001123678,新規,0,2021-11-01,2021-11-01,株式会社楓,,株式会社,兵庫県,西宮市,段上町６丁目２番４４号,,28,204,6638006,,,,,,,2021-11-01,1,,,,,,0
2441,9180001148473,新規,0,2021-11-01,2021-11-01,株式会社光星,,株式会社,愛知県,西春日井郡豊山町,大字豊場字流川１５１番地３,,23,342,4800202,,,,,,,2021-11-01,1,,,,,コウセイ,0
2442,9180001148481,新規,0,2021-11-01,2021-11-01,株式会社奏多,,株式会社,愛知県,名古屋市中川区,前田西町１丁目１０６番地の４,,23,110,4540941,,,,,,,2021-11-01,1,,,,,カナタ,0
2452,9200001039348,新規,0,2021-11-01,2021-11-01,株式会社リーベリー,,株式会社,岐阜県,岐阜市,花月町１丁目１７番地１,,21,201,5008128,,,,,,,2021-11-01,1,,,,,リーベリー,0
2469,9240001058831,新規,0,2021-11-01,2021-11-01,Ｂ．Ｈ株式会社,,株式会社,広島県,広島市西区,中広町３丁目９番１０号,,34,104,7330012,,,,,,,2021-11-01,1,,,,,ビーエイチ,0
2474,9250001019221,新規,0,2021-11-01,2021-11-01,株式会社ときつ養蜂園,,株式会社,山口県,山口市,仁保下郷５６１番地１,,35,203,7530303,,,,,,,2021-11-01,1,,,,,トキツヨウホウエン,0
2486,9280001005631,新規,0,2021-11-01,2021-11-01,株式会社仁多産業,,株式会社,島根県,仁多郡奥出雲町,亀嵩１３７２番地,,32,343,6991701,,,,,,,2021-11-01,1,,,,,ニタサンギョウ,0
2496,9290001095201,新規,0,2021-11-01,2021-11-01,株式会社アイトライ,,株式会社,福岡県,福岡市城南区,梅林２丁目４番２０－１０３号,,40,136,8140144,,,,,,,2021-11-01,1,,,,,アイトライ,0
2499,9290003011767,新規,0,2021-11-01,2021-11-01,合同会社ＪＯＹ,,合同会社,福岡県,福岡市早良区,大字石釜３２番地４９,,40,137,8111132,,,,,,,2021-11-01,1,,,,,ジョイ,0
2500,9290003011775,新規,0,2021-11-01,2021-11-01,合同会社サンクトス,,合同会社,福岡県,福岡市東区,香椎駅前２丁目１番２５号藤本ビル３階,,40,131,8130013,,,,,,,2021-11-01,1,,,,,サンクトス,0
2501,9290005018406,新規,0,2021-11-01,2021-11-01,土地家屋調査士法人レトリック,,その他の設立登記法人,福岡県,福岡市早良区,百道浜１丁目３番７０－５５０７号（ザ・レジデンシャルスイート福岡）,,40,137,8140001,,,,,,,2021-11-01,1,,,,,レトリック,0
2505,9290803003963,新規,0,2021-11-01,2021-11-01,ＨＬＥ合同会社,,合同会社,福岡県,北九州市小倉北区,黄金２丁目１－１小倉林ビル１Ｃ,,40,106,8020071,,,,,,,2021-11-01,1,,,,,エイチエルイ,0
2518,9340001024220,新規,0,2021-11-01,2021-11-01,株式会社ＥＧアート,,株式会社,鹿児島県,霧島市,隼人町住吉５８１番地,,46,218,8995101,,,,,,,2021-11-01,1,,,,,イージーアート,0
2519,9360003011537,新規,0,2021-11-01,2021-11-01,合同会社大城エンジニア,,合同会社,沖縄県,那覇市,首里鳥堀町５丁目３１番地３,,47,201,9030805,,,,,,,2021-11-01,1,,,,,オオシロエンジニア,0
2520,9360005006543,新規,0,2021-11-01,2021-11-01,一般社団法人八重山ダイビング協会,,その他の設立登記法人,沖縄県,石垣市,字新川９６番地７,,47,207,9070024,,,,,,,2021-11-01,1,,,,,ヤエヤマダイビングキョウカイ,0
2529,9370001047755,新規,0,2021-11-01,2021-11-01,株式会社ＦＣＴ,,株式会社,宮城県,仙台市若林区,卸町２丁目１番地の３ウィザースレジデンス仙台卸町駅前１５０１,,04,103,9840015,,,,,,,2021-11-01,1,,,,,ファクト,0
2531,9400001015659,新規,0,2021-11-01,2021-11-01,株式会社よつば会計,,株式会社,岩手県,花巻市,上似内第４地割１２２番地,,03,205,0250007,,,,,,,2021-11-01,1,,,,,ヨツバカイケイ,0
