sequenceNumber,corporateNumber,process,correct,updateDate,changeDate,name,nameImageId,kind,prefectureName,cityName,streetNumber,addressImageId,prefectureCode,cityCode,postCode,addressOutside,addressOutsideImageId,closeDate,closeCause,successorCorporateNumber,changeCause,assignmentDate,latest,enName,enPrefectureName,enCityName,enAddressOutside,furigana,hihyoji
11,1010005031732,登記記録の閉鎖等,0,2022-01-04,2021-12-24,一般社団法人ニセコ,,その他の設立登記法人,東京都,千代田区,霞が関３丁目２番５号,,13,101,1000013,,,2021-12-24,清算の結了等,,,2020-04-17,1,,,,,ニセコ,0
15,1010401098796,登記記録の閉鎖等,0,2022-01-04,2021-12-24,株式会社ロングウィンコンサルティング,,株式会社,神奈川県,川崎市麻生区,千代ケ丘９丁目１４番１４号,,14,137,2150005,,,2021-12-24,清算の結了等,,,2015-10-05,1,,,,,ロングウィンコンサルティング,0
26,1010701021672,登記記録の閉鎖等,0,2022-01-04,2021-12-20,タナカホールディング株式会社,,株式会社,東京都,品川区,西大井４丁目１７番１２号,,13,109,1400015,,,2021-12-20,清算の結了等,,,2015-10-05,1,,,,,タナカホールディング,0
34,1010902006910,登記記録の閉鎖等,0,2022-01-04,2021-12-27,有限会社山樂,,有限会社,東京都,世田谷区,上野毛２丁目１１番８号,,13,112,1580093,,,2021-12-27,清算の結了等,,,2015-10-05,1,,,,,サンラク,0
39,1011002001513,登記記録の閉鎖等,0,2022-01-04,2021-12-28,有限会社エヌワイネットワーキング,,有限会社,東京都,渋谷区,代々木１丁目１３番９号,,13,113,1510053,,,2021-12-28,清算の結了等,,,2015-10-05,1,,,,,エヌワイネットワーキング,0
63,1013201019154,登記記録の閉鎖等,0,2022-01-04,2021-12-14,株式会社ジャパンエンハンス,,株式会社,東京都,渋谷区,広尾１丁目３番１５号,,13,113,1500012,,,2021-12-14,清算の結了等,,,2015-10-05,1,,,,,ジャパンエンハンス,0
77,1021002055351,登記記録の閉鎖等,0,2022-01-04,2021-12-13,有限会社強羅電設,,有限会社,神奈川県,足柄下郡箱根町,強羅１３００番地,,14,382,2500408,,,2021-12-13,清算の結了等,,,2021-04-16,1,,,,,ゴウラデンセツ,0
81,1030001071697,登記記録の閉鎖等,0,2022-01-04,2021-12-27,株式会社Ｋいしいゆみこ,,株式会社,埼玉県,比企郡ときがわ町,大字五明字田中１１２４番地,,11,349,3550343,,,2021-12-27,清算の結了等,,,2015-10-05,1,,,,,ケイイシイユミコ,0
109,1040002058560,登記記録の閉鎖等,0,2022-01-04,2021-12-22,有限会社コスモス,,有限会社,千葉県,富里市,七栄９０番地の５６,,12,233,2860221,,,2021-12-22,清算の結了等,,,2015-10-05,1,,,,,コスモス,0
126,1070001032084,登記記録の閉鎖等,0,2022-01-04,2021-12-27,株式会社アールエスエス,,株式会社,群馬県,高崎市,箕郷町上芝７９８番地４,,10,202,3703104,,,2021-12-27,清算の結了等,,,2016-04-21,1,,,,,アールエスエス,0
135,1080402001380,登記記録の閉鎖等,0,2022-01-04,2021-12-24,有限会社大浜名,,有限会社,静岡県,浜松市中区,塩町６８番地の１０,,22,131,4328034,,,2021-12-24,清算の結了等,,,2015-10-05,1,,,,,オオハマナ,0
136,1080402021998,登記記録の閉鎖等,0,2022-01-04,2021-12-24,プログレス有限会社,,有限会社,福岡県,糸島市,前原南１丁目４番地２０号,,40,230,8191139,,,2021-12-24,清算の結了等,,,2015-10-05,1,,,,,プロフグレス,0
165,1120002074806,登記記録の閉鎖等,0,2022-01-04,2021-12-23,有限会社ビジネステクノ,,有限会社,大阪府,枚方市,東香里３丁目２７番１６号,,27,210,5730075,,,2021-12-23,清算の結了等,,,2015-10-05,1,,,,,ビジネステクノ,0
167,1120101004523,登記記録の閉鎖等,0,2022-01-04,2021-12-27,左海金物産業株式会社,,株式会社,奈良県,宇陀市,榛原ひのき坂３丁目６番地の１１,,29,212,6330251,,,2021-12-27,清算の結了等,,,2015-10-05,1,,,,,サカイカナモノサンギョウ,0
171,1130001006189,登記記録の閉鎖等,0,2022-01-04,2021-12-24,株式会社北川,,株式会社,京都府,京都市左京区,岩倉南池田町１０６番地の３,,26,103,6060005,,,2021-12-24,清算の結了等,,,2015-10-05,1,,,,,キタガワ,0
176,1130003004315,登記記録の閉鎖等,0,2022-01-04,2021-12-27,合同会社ＵＲＵ’Ｓ,,合同会社,京都府,京都市南区,吉祥院中河原里西町３３番地,,26,107,6018393,,,2021-12-27,清算の結了等,,,2015-10-05,1,,,,,ウルズ,0
185,1150002010601,登記記録の閉鎖等,0,2022-01-04,2021-12-27,有限会社パンテオン,,有限会社,奈良県,大和高田市,永和町９番３７号,,29,202,6350083,,,2021-12-27,清算の結了等,,,2015-10-05,1,,,,,パンテオン,0
191,1180001061188,登記記録の閉鎖等,0,2022-01-04,2021-12-27,株式会社Ｃｒｅｄｏ,,株式会社,愛知県,名古屋市港区,七反野１丁目１０２３番地,,23,111,4550884,,,2021-12-27,清算の結了等,,,2015-10-05,1,,,,,クレド,0
197,1180002014038,登記記録の閉鎖等,0,2022-01-04,2021-12-20,有限会社青峰工業所,,有限会社,愛知県,名古屋市南区,岩戸町１番５号,,23,112,4570015,,,2021-12-20,清算の結了等,,,2015-10-05,1,,,,,アオミネコウギョウショ,0
201,1180302006965,登記記録の閉鎖等,0,2022-01-04,2021-12-27,有限会社カトウ木型,,有限会社,愛知県,豊橋市,向山町字伝馬３１番地の２,,23,201,4400864,,,2021-12-27,清算の結了等,,,2015-10-05,1,,,,,カトウキガタ,0
207,1200002028258,登記記録の閉鎖等,0,2022-01-04,2021-12-27,有限会社機電サービス,,有限会社,岐阜県,加茂郡八百津町,八百津３９５６番地の１,,21,505,5050301,,,2021-12-27,清算の結了等,,,2015-10-05,1,,,,,キデンサービス,0
226,1260001014303,登記記録の閉鎖等,0,2022-01-04,2021-12-28,株式会社名村＿工所,00003178,株式会社,岡山県,倉敷市,連島町連島１１０番地の１０,,33,202,7128011,,,2021-12-28,清算の結了等,,,2015-10-05,1,,,,,ナムラテッコウショ,0
236,1290805004075,登記記録の閉鎖等,0,2022-01-04,2021-12-24,医療法人川上産婦人科内科医院,,その他の設立登記法人,福岡県,北九州市八幡東区,中央２丁目１０番３号,,40,108,8050019,,,2021-12-24,清算の結了等,,,2015-10-05,1,,,,,カワカミサンフジンカナイカイイン,0
252,1350001011992,登記記録の閉鎖等,0,2022-01-04,2021-12-28,株式会社北田建装,,株式会社,宮崎県,宮崎市,高岡町下倉永１２００番地２１６,,45,201,8802212,,,2021-12-28,清算の結了等,,,2015-10-05,1,,,,,キタダケンソウ,0
270,1430002052598,登記記録の閉鎖等,0,2022-01-04,2021-12-24,有限会社高橋電設,,有限会社,北海道,砂川市,西三条北１５丁目２８番地２８,,01,226,0730163,,,2021-12-24,清算の結了等,,,2015-10-05,1,,,,,タカハシデンセツ,0
272,1430002064395,登記記録の閉鎖等,0,2022-01-04,2021-12-21,有限会社総合サービス,,有限会社,北海道,室蘭市,高砂町１丁目１６番１１号,,01,205,0500072,,,2021-12-21,清算の結了等,,,2015-10-05,1,,,,,ソウゴウサービス,0
278,1480001001205,登記記録の閉鎖等,0,2022-01-04,2021-12-24,鈴江産業株式会社,,株式会社,徳島県,徳島市,国府町井戸字高輪地２０番地の１,,36,201,7793118,,,2021-12-24,清算の結了等,,,2015-10-05,1,,,,,,0
302,2010401063403,登記記録の閉鎖等,0,2022-01-04,2021-12-22,スタートップ会計株式会社,,株式会社,東京都,港区,北青山２丁目１２番３３号,,13,103,1070061,,,2021-12-22,合併による解散等,2010401101022,令和３年１２月２２日東京都港区北青山二丁目１２番３３号株式会社ビジネスバンク（2010401101022）に合併し解散,2015-10-05,1,,,,,スタートップカイケイ,0
315,2010602017686,登記記録の閉鎖等,0,2022-01-04,2021-12-23,有限会社日信製版,,有限会社,東京都,江東区,森下４丁目１９番１２号,,13,108,1350004,,,2021-12-23,清算の結了等,,,2015-10-05,1,,,,,ニッシンセイハン,0
317,2010703005598,登記記録の閉鎖等,0,2022-01-04,2021-12-24,合同会社イニシアル,,合同会社,東京都,品川区,大崎２丁目１１番２－１２０６,,13,109,1410032,,,2021-12-24,清算の結了等,,,2021-01-26,1,,,,,イニシアル,0
329,2011402005674,登記記録の閉鎖等,0,2022-01-04,2021-12-27,有限会社高松商会,,有限会社,東京都,板橋区,大山東町５９番１０号,,13,119,1730014,,,2021-12-27,清算の結了等,,,2015-10-05,1,,,,,タカマツショウカイ,0
331,2011501009064,登記記録の閉鎖等,0,2022-01-04,2021-12-22,株式会社守正食品,,株式会社,東京都,荒川区,西日暮里１丁目２２番５号,,13,118,1160013,,,2021-12-22,清算の結了等,,,2015-10-05,1,,,,,モリショウショクヒン,0
334,2011501024146,登記記録の閉鎖等,0,2022-01-04,2021-12-23,株式会社フジタ,,株式会社,東京都,北区,滝野川４丁目９番１３号,,13,117,1140023,,,2021-12-23,清算の結了等,,,2018-10-16,1,,,,,フジタ,0
335,2011502010681,登記記録の閉鎖等,0,2022-01-04,2021-12-23,有限会社広沢紙器製作所,,有限会社,東京都,荒川区,荒川４丁目２７番１８号,,13,118,1160002,,,2021-12-23,清算の結了等,,,2015-10-05,1,,,,,ヒロサワシキセイサクジョ,0
342,2012801009596,登記記録の閉鎖等,0,2022-01-04,2021-12-24,株式会社生鮮流通研究所,,株式会社,東京都,昭島市,中神町１３６７番地９,,13,207,1960022,,,2021-12-24,清算の結了等,,,2015-10-05,1,,,,,セイセンリュウツウケンキュウショ,0
344,2013301023641,登記記録の閉鎖等,0,2022-01-04,2021-12-23,株式会社ＳＨＶコンサルティング・グループ,,株式会社,東京都,豊島区,西巣鴨３丁目２６番１－１３０８号,,13,116,1700001,,,2021-12-23,清算の結了等,,,2015-10-05,1,,,,,エスエイチブイコンサルティンググループ,0
346,2020001078338,登記記録の閉鎖等,0,2022-01-04,2021-12-24,アーテレック株式会社,,株式会社,神奈川県,川崎市中原区,新丸子東１丁目８４０番地,,14,133,2110004,,,2021-12-24,清算の結了等,,,2015-10-05,1,,,,,アーテレック,0
349,2020001123481,登記記録の閉鎖等,0,2022-01-04,2021-12-24,株式会社ケーワン設備,,株式会社,神奈川県,横浜市旭区,白根１丁目６番６号,,14,112,2410005,,,2021-12-24,清算の結了等,,,2017-10-23,1,,,,,ケーワンセツビ,0
362,2021002042753,登記記録の閉鎖等,0,2022-01-04,2021-12-27,有限会社保田興産,,有限会社,神奈川県,大和市,代官４丁目３番地の１,,14,213,2420025,,,2021-12-27,清算の結了等,,,2015-10-05,1,,,,,ヤスダコウサン,0
388,2080101011176,登記記録の閉鎖等,0,2022-01-04,2021-12-28,株式会社コロンボ,,株式会社,静岡県,富士市,厚原８番地の３,,22,210,4190201,,,2021-12-28,清算の結了等,,,2015-10-05,1,,,,,コロンボ,0
390,2080102012280,登記記録の閉鎖等,0,2022-01-04,2021-12-27,有限会社ケイシステム,,有限会社,静岡県,田方郡函南町,間宮４５７番地の１,,22,325,4190123,,,2021-12-27,清算の結了等,,,2015-10-05,1,,,,,ケイシステム,0
392,2080401024076,登記記録の閉鎖等,0,2022-01-04,2021-12-24,株式会社シャインパス,,株式会社,静岡県,浜松市西区,神原町７５７番地,,22,133,4328007,,,2021-12-24,清算の結了等,,,2020-01-10,1,,,,,シャインパス,0
395,2090001009542,登記記録の閉鎖等,0,2022-01-04,2021-12-24,株式会社アイザック,,株式会社,山梨県,富士吉田市,向原３丁目９番１０号,,19,202,4030018,,,2021-12-24,清算の結了等,,,2015-10-05,1,,,,,アイザック,0
400,2110001009580,登記記録の閉鎖等,0,2022-01-04,2021-12-27,株式会社高優運送,00070242,株式会社,新潟県,新潟市北区,新崎３７２番地１１,,15,101,9503134,,,2021-12-27,清算の結了等,,,2015-10-05,1,,,,,コウユウウンソウ,0
418,2120901013961,登記記録の閉鎖等,0,2022-01-04,2021-12-28,株式会社タバタ,,株式会社,大阪府,茨木市,山手台新町１丁目８番１８号,,27,211,5670010,,,2021-12-28,清算の結了等,,,2015-10-05,1,,,,,タバタ,0
443,2180002043250,登記記録の閉鎖等,0,2022-01-04,2021-12-24,有限会社アドメイクス,,有限会社,愛知県,名古屋市熱田区,四番２丁目１１番２５号,,23,109,4560051,,,2021-12-24,清算の結了等,,,2015-10-05,1,,,,,アドメイクス,0
455,2180303004769,登記記録の閉鎖等,0,2022-01-04,2021-12-28,Ｏｒｉｅｎｔａｌ　Ｂｅａｕｔｙ　Ｓｐａ合同会社,,合同会社,愛知県,豊橋市,大山町字西大山２番地１,,23,201,4418071,,,2021-12-28,清算の結了等,,,2020-10-08,1,,,,,オリエンタルビューティースパ,0
457,2200001013409,登記記録の閉鎖等,0,2022-01-04,2021-12-28,大垣ニチゴーサービス株式会社,,株式会社,岐阜県,大垣市,木戸町６３２番地の１,,21,202,5030973,,,2021-12-28,清算の結了等,,,2015-10-05,1,,,,,オオガキニチゴーサービス,0
462,2200001030379,登記記録の閉鎖等,0,2022-01-04,2021-12-27,株式会社さかうちの郷,,株式会社,岐阜県,揖斐郡揖斐川町,坂内広瀬４２２番地,,21,401,5010902,,,2021-12-27,清算の結了等,,,2015-10-05,1,,,,,サカウチノサト,0
509,2390002000073,登記記録の閉鎖等,0,2022-01-04,2021-12-27,有限会社安食経営管理事務所,,有限会社,山形県,山形市,城南町２丁目１番２５号,,06,201,9900827,,,2021-12-27,清算の結了等,,,2015-10-05,1,,,,,アジキケイエイカンリジムショ,0
548,3010602000732,登記記録の閉鎖等,0,2022-01-04,2021-12-23,有限会社大島精機製作所,,有限会社,東京都,江東区,大島３丁目３０番９号,,13,108,1360072,,,2021-12-23,清算の結了等,,,2015-10-05,1,,,,,オオシマセイキセイサクショ,0
552,3010801030150,登記記録の閉鎖等,0,2022-01-04,2021-12-23,ＵＢＩＫ株式会社,,株式会社,東京都,大田区,大森北４丁目１４番２６－２０３号,,13,111,1430016,,,2021-12-23,清算の結了等,,,2019-09-02,1,,,,,ユービック,0
554,3010805001957,登記記録の閉鎖等,0,2022-01-04,2021-12-23,一般財団法人洗濯科学協会,,その他の設立登記法人,東京都,大田区,下丸子２丁目１１番８号,,13,111,1460092,,,2021-12-23,清算の結了等,,,2015-10-05,1,,,,,センタクカガクキョウカイ,0
573,3011601012462,登記記録の閉鎖等,0,2022-01-04,2021-12-15,株式会社カスタマーパブリッシングジャパン,,株式会社,東京都,渋谷区,広尾１丁目７番２０号,,13,113,1500012,,,2021-12-15,清算の結了等,,,2015-10-05,1,,,,,カスタマーパブリッシングジャパン,0
575,3012402020150,登記記録の閉鎖等,0,2022-01-04,2021-12-24,有限会社オフィス・アイ,,有限会社,東京都,三鷹市,上連雀６丁目６番２０号,,13,204,1810012,,,2021-12-24,清算の結了等,,,2015-10-05,1,,,,,オフィスアイ,0
578,3013303005100,登記記録の閉鎖等,0,2022-01-04,2021-12-23,Ａｔｅｌｉｅｒ　Ｎｉｉｎａ合同会社,,合同会社,東京都,豊島区,東池袋１丁目１７番１１号パークハイツ池袋１１０５号,,13,116,1700013,,,2021-12-23,清算の結了等,,,2020-05-08,1,,,,,アトリエニイナ,0
591,3021002044666,登記記録の閉鎖等,0,2022-01-04,2021-12-27,有限会社エスエイチ総研,,有限会社,神奈川県,海老名市,社家３丁目９番５号,,14,215,2430424,,,2021-12-27,清算の結了等,,,2015-10-05,1,,,,,エスエイチソウケン,0
592,3021002048485,登記記録の閉鎖等,0,2022-01-04,2021-12-24,有限会社高座産業,,有限会社,神奈川県,座間市,座間１丁目３３９４番地の３１,,14,216,2520027,,,2021-12-24,清算の結了等,,,2015-10-05,1,,,,,コウザサンギョウ,0
624,3060002031290,登記記録の閉鎖等,0,2022-01-04,2021-12-24,有限会社徳山トータルサービス,,有限会社,栃木県,小山市,城東１丁目５番１５号,,09,208,3230807,,,2021-12-24,清算の結了等,,,2015-10-05,1,,,,,トクヤマトータルサービス,0
625,3060002037263,登記記録の閉鎖等,0,2022-01-04,2021-12-24,有限会社ぶるーむ,,有限会社,栃木県,足利市,通２丁目２７４８番地,,09,202,3260814,,,2021-12-24,清算の結了等,,,2015-10-05,1,,,,,ブルーム,0
630,3080001018808,登記記録の閉鎖等,0,2022-01-04,2021-12-24,株式会社ＧＰＣコーポレーション,,株式会社,静岡県,藤枝市,藤枝４丁目９番３４号,,22,214,4260025,,,2021-12-24,清算の結了等,,,2015-10-05,1,,,,,ジーピーシーコーポレーション,0
633,3080101018047,登記記録の閉鎖等,0,2022-01-04,2021-12-27,函南パサディナ管理株式会社,,株式会社,静岡県,田方郡函南町,大竹８７番地の３,,22,325,4190121,,,2021-12-27,清算の結了等,,,2015-10-05,1,,,,,カンナミパサディナカンリ,0
635,3080102014929,登記記録の閉鎖等,0,2022-01-04,2021-12-24,有限会社富士特殊自動車,,有限会社,静岡県,富士市,厚原５９２番地の１,,22,210,4190201,,,2021-12-24,清算の結了等,,,2015-10-05,1,,,,,フジトクシュジドウシャ,0
636,3080401004572,登記記録の閉鎖等,0,2022-01-04,2021-12-23,株式会社平野建鉄,,株式会社,静岡県,浜松市東区,西ケ崎町２３４番地,,22,132,4313115,,,2021-12-23,清算の結了等,,,2015-10-05,1,,,,,ヒラノケンテツ,0
663,3120001224954,登記記録の閉鎖等,0,2022-01-04,2021-12-22,Ｇ　ＳＴＹＬＥ株式会社,,株式会社,大阪府,大阪市西区,江之子島１丁目７番３－１５０８号,,27,106,5500006,,,2021-12-22,清算の結了等,,,2019-11-06,1,,,,,ジースタイル,0
674,3120902002161,登記記録の閉鎖等,0,2022-01-04,2021-12-27,有限会社テクノ・最上,,有限会社,大阪府,茨木市,真砂１丁目２８番８号,,27,211,5670851,,,2021-12-27,清算の結了等,,,2015-10-05,1,,,,,,0
686,3140001057733,登記記録の閉鎖等,0,2022-01-04,2021-12-24,イシイ産業株式会社,,株式会社,兵庫県,姫路市,夢前町宮置５４３番地３,,28,201,6712121,,,2021-12-24,清算の結了等,,,2015-10-05,1,,,,,,0
729,3240001028889,登記記録の閉鎖等,0,2022-01-04,2021-12-28,株式会社バギー,,株式会社,広島県,廿日市市,桜尾２丁目９番３号,,34,213,7380004,,,2021-12-28,清算の結了等,,,2015-10-05,1,,,,,バギー,0
760,3360001019083,登記記録の閉鎖等,0,2022-01-04,2021-12-24,太陽不動産株式会社,,株式会社,沖縄県,石垣市,字大川２８０番地７東,,47,207,9070022,,,2021-12-24,清算の結了等,,,2015-10-05,1,,,,,タイヨウフドウサン,0
777,3430002002394,登記記録の閉鎖等,0,2022-01-04,2021-12-24,有限会社上田総合設備防災,,有限会社,北海道,札幌市白石区,北郷九条３丁目１１番２号,,01,104,0030839,,,2021-12-24,清算の結了等,,,2015-10-05,1,,,,,ウエダソウゴウセツビボウサイ,0
781,3480002015029,登記記録の閉鎖等,0,2022-01-04,2021-12-27,細川建設有限会社,,有限会社,徳島県,美馬市,美馬町字切久保２２７番地,,36,207,7712101,,,2021-12-27,清算の結了等,,,2015-10-05,1,,,,,ホソカワケンセツ,0
785,3500002006636,登記記録の閉鎖等,0,2022-01-04,2021-12-28,有限会社港屋,,有限会社,愛媛県,松山市,堀江町甲３２７番地１６,,38,201,7992651,,,2021-12-28,清算の結了等,,,2015-10-05,1,,,,,ミナトヤ,0
808,4010501042206,登記記録の閉鎖等,0,2022-01-04,2021-12-27,株式会社ジャパンジュエリーオークション,,株式会社,東京都,台東区,台東３丁目１３番５号,,13,106,1100016,,,2021-12-27,清算の結了等,,,2018-02-20,1,,,,,,0
822,4011101074440,登記記録の閉鎖等,0,2022-01-04,2021-12-27,株式会社ＵｎｉｑｕｅＷａｖｅ,,株式会社,東京都,練馬区,高松４丁目２２番１０号モン・シェリ高松３０３号室,,13,120,1790075,,,2021-12-27,清算の結了等,,,2015-10-05,1,,,,,ユニークウェーブ,0
823,4011101092715,登記記録の閉鎖等,0,2022-01-04,2021-12-23,株式会社エムオー,,株式会社,神奈川県,横浜市港北区,新横浜２丁目１５番１２号,,14,109,2220033,,,2021-12-23,清算の結了等,,,2020-10-07,1,,,,,エムオー,0
850,4020002050987,登記記録の閉鎖等,0,2022-01-04,2021-12-24,有限会社小泉だるま薬局,,有限会社,神奈川県,横浜市保土ケ谷区,宮田町１丁目１番地の１,,14,106,2400002,,,2021-12-24,清算の結了等,,,2015-10-05,1,,,,,コイズミダルマヤッキョク,0
861,4021005006621,登記記録の閉鎖等,0,2022-01-04,2021-12-13,特定非営利活動法人貴有意の郷,,その他の設立登記法人,神奈川県,伊勢原市,池端１８１番地,,14,214,2591144,,,2021-12-13,清算の結了等,,,2015-10-05,1,,,,,キウイノサト,0
870,4040001005305,登記記録の閉鎖等,0,2022-01-04,2021-12-24,東日工業株式会社,,株式会社,千葉県,千葉市若葉区,中田町２３７８番地の２,,12,104,2650043,,,2021-12-24,清算の結了等,,,2015-10-05,1,,,,,トウニチコウギョウ,0
873,4040001059499,登記記録の閉鎖等,0,2022-01-04,2021-12-23,株式会社大和屋旅館,,株式会社,千葉県,茂原市,茂原５１９番地,,12,210,2970026,,,2021-12-23,清算の結了等,,,2015-10-05,1,,,,,ヤマトヤリョカン,0
881,4040002032439,登記記録の閉鎖等,0,2022-01-04,2021-12-23,有限会社猪狩工務店,,有限会社,千葉県,市川市,南八幡２丁目１１番５号,,12,203,2720023,,,2021-12-23,清算の結了等,,,2015-10-05,1,,,,,イガリコウムテン,0
897,4080001017461,登記記録の閉鎖等,0,2022-01-04,2021-12-27,株式会社タイヤコールサービス,,株式会社,静岡県,牧之原市,地頭方５７４番地４,,22,226,4210532,,,2021-12-27,清算の結了等,,,2015-10-05,1,,,,,タイヤコールサービス,0
901,4080405006671,登記記録の閉鎖等,0,2022-01-04,2021-12-22,一般社団法人ローカフェイン緑茶推進協会,,その他の設立登記法人,静岡県,御前崎市,門屋１９５０番地の２,,22,223,4371615,,,2021-12-22,清算の結了等,,,2015-10-05,1,,,,,ローカフェインリョクチャスイシンキョウカイ,0
902,4100001012492,登記記録の閉鎖等,0,2022-01-04,2021-12-24,株式会社リゾートコンサル,,株式会社,長野県,下高井郡山ノ内町,大字夜間瀬字大沢１２３７７番１７,,20,561,3810405,,,2021-12-24,清算の結了等,,,2015-10-05,1,,,,,リゾートコンサル,0
905,4110001027878,登記記録の閉鎖等,0,2022-01-04,2021-12-27,株式会社湯元館,,株式会社,新潟県,魚沼市,上折立４４９番地１,,15,225,9460087,,,2021-12-27,清算の結了等,,,2015-10-05,1,,,,,ユモトカン,0
951,4160001005680,登記記録の閉鎖等,0,2022-01-04,2021-12-27,オフィスケアー株式会社,,株式会社,滋賀県,湖南市,岩根２２４２番地,,25,211,5203252,,,2021-12-27,清算の結了等,,,2015-10-05,1,,,,,オフィスケアー,0
964,4180301008695,登記記録の閉鎖等,0,2022-01-04,2021-12-27,株式会社シーアンドティー,,株式会社,愛知県,豊橋市,下地町字若宮６６番地,,23,201,4400083,,,2021-12-27,清算の結了等,,,2015-10-05,1,,,,,シーアンドティー,0
973,4200001011542,登記記録の閉鎖等,0,2022-01-04,2021-12-28,マルヒコ株式会社,,株式会社,岐阜県,羽島市,足近町市場１２番地,,21,209,5016202,,,2021-12-28,清算の結了等,,,2015-10-05,1,,,,,,0
986,4240001007776,登記記録の閉鎖等,0,2022-01-04,2021-12-27,内外商事株式会社,,株式会社,広島県,広島市安佐南区,東野２丁目２１番８号,,34,105,7310111,,,2021-12-27,清算の結了等,,,2015-10-05,1,,,,,ナイガイショウジ,0
989,4260001036121,登記記録の閉鎖等,0,2022-01-04,2021-12-14,野村リース株式会社,,株式会社,岡山県,岡山市北区,田町１丁目１番１チサンビル内,,33,101,7000825,,,2021-12-14,清算の結了等,,,2021-11-01,1,,,,,ノムラリース,0
991,4260003003020,登記記録の閉鎖等,0,2022-01-04,2021-12-28,スリーエーシステムズ合同会社,,合同会社,岡山県,岡山市中区,山崎１８３番地１４,,33,102,7038267,,,2021-12-28,清算の結了等,,,2019-12-03,1,,,,,スリーエーシステムズ,0
994,4290001084885,登記記録の閉鎖等,0,2022-01-04,2021-12-23,ユーキャリ株式会社,,株式会社,福岡県,福岡市中央区,天神１丁目６番８号,,40,133,8100001,,,2021-12-23,清算の結了等,,,2019-04-17,1,,,,,ユーキャリ,0
999,4290801009629,登記記録の閉鎖等,0,2022-01-04,2021-12-27,井上商事株式会社,,株式会社,福岡県,北九州市八幡西区,陣原４丁目６番５号,,40,109,8070821,,,2021-12-27,清算の結了等,,,2015-10-05,1,,,,,イノウエショウジ,0
1001,4290802017597,登記記録の閉鎖等,0,2022-01-04,2021-12-24,有限会社フジ産業,,有限会社,福岡県,中間市,岩瀬４丁目１０番２号,,40,215,8090011,,,2021-12-24,清算の結了等,,,2015-10-05,1,,,,,フジサンギョウ,0
1004,4310002004451,登記記録の閉鎖等,0,2022-01-04,2021-12-28,有限会社林田タクシー,,有限会社,長崎県,長崎市,弥生町７番３７号,,42,201,8500823,,,2021-12-28,清算の結了等,,,2015-10-05,1,,,,,ハヤシダタクシー,0
1014,4340001014911,登記記録の閉鎖等,0,2022-01-04,2021-12-22,株式会社あすぱる大崎,,株式会社,鹿児島県,曽於郡大崎町,神領２４１９番地,,46,468,8997302,,,2021-12-22,清算の結了等,,,2015-10-05,1,,,,,アスパルオオサキ,0
1029,4370602001058,登記記録の閉鎖等,0,2022-01-04,2021-12-28,有限会社清野物産店,,有限会社,宮城県,宮城郡松島町,松島字町内６７番地,,04,401,9810213,,,2021-12-28,清算の結了等,,,2015-10-05,1,,,,,セイノブッサンテン,0
1057,4490005005396,登記記録の閉鎖等,0,2022-01-04,2021-12-24,高知県東箱協同組合,,その他の設立登記法人,高知県,安芸郡安田町,大字安田１３１番地,,39,304,7816421,,,2021-12-24,清算の結了等,,,2015-10-05,1,,,,,コウチケントウバコ,0
1062,5010001169366,登記記録の閉鎖等,0,2022-01-04,2021-12-23,中央トレーディング株式会社,,株式会社,東京都,江東区,豊洲６丁目６番２号,,13,108,1350061,,,2021-12-23,清算の結了等,,,2015-10-05,1,,,,,チュウオウトレーディング,0
1063,5010001204833,登記記録の閉鎖等,0,2022-01-04,2021-12-23,株式会社ＬＩＢ,,株式会社,東京都,千代田区,鍛冶町２丁目１－２,,13,101,1010044,,,2021-12-23,清算の結了等,,,2019-10-25,1,,,,,エルアイビー,0
1111,5012401036443,登記記録の閉鎖等,0,2022-01-04,2021-12-24,株式会社ＡＣＥ,,株式会社,東京都,三鷹市,下連雀３丁目１２番５号ライオンズマンション三鷹さくら通り４０４号室,,13,204,1810013,,,2021-12-24,清算の結了等,,,2020-04-08,1,,,,,エース,0
1114,5013202013103,登記記録の閉鎖等,0,2022-01-04,2021-12-16,有限会社ＡＭＩＧＯ,,有限会社,東京都,目黒区,自由が丘１丁目１３番１０号,,13,110,1520035,,,2021-12-16,清算の結了等,,,2015-10-05,1,,,,,アミーゴ,0
1129,5021001000437,登記記録の閉鎖等,0,2022-01-04,2021-12-24,一友不動産株式会社,,株式会社,神奈川県,藤沢市,本町２丁目５番２２号,,14,205,2510053,,,2021-12-24,清算の結了等,,,2015-10-05,1,,,,,イチトモフドウサン,0
1138,5030001061331,登記記録の閉鎖等,0,2022-01-04,2021-12-10,株式会社ソール,,株式会社,埼玉県,本庄市,児玉町金屋１３６番地５,,11,211,3670216,,,2021-12-10,清算の結了等,,,2015-10-05,1,,,,,ソール,0
1154,5050001011994,登記記録の閉鎖等,0,2022-01-04,2021-12-23,株式会社ル・ロア,,株式会社,茨城県,石岡市,南台２丁目９番１号,,08,205,3150035,,,2021-12-23,清算の結了等,,,2015-10-05,1,,,,,ルロア,0
1186,5120001206604,登記記録の閉鎖等,0,2022-01-04,2021-12-22,Ａｃｃｏｕｎｔｉｎｇ　Ｆｏｒｃｅ株式会社,,株式会社,大阪府,大阪市北区,西天満６丁目７番２号,,27,127,5300047,,,2021-12-22,合併による解散等,9120101047861,令和３年１２月２２日大阪市北区曽根崎二丁目３番５号株式会社ＦＯＲＣＥ（9120101047861）に合併し解散,2017-06-29,1,,,,,アカウンティングフォーシー,0
1208,5140001027528,登記記録の閉鎖等,0,2022-01-04,2021-12-28,大栄環境エンジニアリング株式会社,,株式会社,兵庫県,神戸市東灘区,向洋町中２丁目９番地１神戸ファッションプラザ,,28,101,6580032,,,2021-12-28,清算の結了等,,,2015-10-05,1,,,,,ダイエイカンキョウエンジニアリング,0
1211,5140005013276,登記記録の閉鎖等,0,2022-01-04,2021-12-24,姫路ロジネット協同組合,,その他の設立登記法人,兵庫県,姫路市,城東町清水６番地,,28,201,6700843,,,2021-12-24,清算の結了等,,,2015-10-05,1,,,,,ヒメジロジネット,0
1218,5170002010091,登記記録の閉鎖等,0,2022-01-04,2021-12-24,有限会社伊奈雑穀店,,有限会社,和歌山県,御坊市,御坊２００番地,,30,205,6440001,,,2021-12-24,清算の結了等,,,2015-10-05,1,,,,,イナザッコクテン,0
1221,5180001118950,登記記録の閉鎖等,0,2022-01-04,2021-12-24,株式会社Ｎ・Ｎカンパニー,,株式会社,愛知県,名古屋市西区,比良１丁目１８９番地,,23,104,4520802,,,2021-12-24,清算の結了等,,,2015-10-05,1,,,,,エヌエヌカンパニー,0
1224,5180001129304,登記記録の閉鎖等,0,2022-01-04,2021-12-24,株式会社ＩＳＡバリエーション,,株式会社,愛知県,名古屋市中村区,荒輪井町２丁目１８,,23,105,4530848,,,2021-12-24,清算の結了等,,,2017-09-08,1,,,,,イサバリエーション,0
1232,5200002006549,登記記録の閉鎖等,0,2022-01-04,2021-12-28,有限会社長谷川,,有限会社,岐阜県,山県市,高木６７７番地３２,,21,215,5012113,,,2021-12-28,清算の結了等,,,2015-10-05,1,,,,,ハセガワ,0
1233,5200002012233,登記記録の閉鎖等,0,2022-01-04,2021-12-27,有限会社浅野鉄工所,,有限会社,岐阜県,大垣市,浅中３丁目２５番地,,21,202,5030946,,,2021-12-27,清算の結了等,,,2015-10-05,1,,,,,アサノテッコウショ,0
1239,5230001018749,登記記録の閉鎖等,0,2022-01-04,2021-12-24,株式会社甲乃風,,株式会社,富山県,射水市,桜町１０番１１号,,16,211,9340015,,,2021-12-24,清算の結了等,,,2021-04-05,1,,,,,コウノカゼ,0
1263,5290002056362,登記記録の閉鎖等,0,2022-01-04,2021-12-22,有限会社ユニオン設計,,有限会社,福岡県,大牟田市,四山町８０番地４２,,40,202,8360067,,,2021-12-22,清算の結了等,,,2015-10-05,1,,,,,ユニオンセッケイ,0
1269,5290802019543,登記記録の閉鎖等,0,2022-01-04,2021-12-27,有限会社友昇汽船,,有限会社,福岡県,北九州市若松区,上原町１１番４号,,40,103,8080015,,,2021-12-27,清算の結了等,,,2015-10-05,1,,,,,ユウショウキセン,0
1290,5370802001039,登記記録の閉鎖等,0,2022-01-04,2021-12-28,有限会社野地電気サービス,,有限会社,宮城県,岩沼市,中央３丁目６番８号,,04,211,9892432,,,2021-12-28,清算の結了等,,,2015-10-05,1,,,,,ノヂデンキサービス,0
1299,5390001006795,登記記録の閉鎖等,0,2022-01-04,2021-12-22,株式会社ヤマシン,,株式会社,山形県,酒田市,竹田字猿田１５番地の１,,06,204,9996848,,,2021-12-22,合併による解散等,7390001006760,令和３年１２月２２日山形県酒田市楯山字村前１７１番地阿蘇食品株式会社（7390001006760）に合併し解散,2015-10-05,1,,,,,ヤマシン,0
1305,5430002017234,登記記録の閉鎖等,0,2022-01-04,2021-12-17,株式会社プライムフィールド,,株式会社,北海道,札幌市中央区,南十条西２０丁目１番１－４０１号,,01,101,0640810,,,2021-12-17,清算の結了等,,,2015-10-05,1,,,,,プライムフィールド,0
1329,6010001215730,登記記録の閉鎖等,0,2022-01-04,2021-12-24,株式会社ライト・ワン,,株式会社,東京都,千代田区,大手町１丁目５番１号大手町ファーストスクエアイーストタワー４Ｆ,,13,101,1000004,,,2021-12-24,清算の結了等,,,2021-02-15,1,,,,,ライトワン,0
1341,6010403020464,登記記録の閉鎖等,0,2022-01-04,2021-12-22,ＳＤＰ合同会社,,合同会社,東京都,港区,赤坂７丁目６番３８号,,13,103,1070052,,,2021-12-22,清算の結了等,,,2019-04-01,1,,,,,エスディピー,0
1348,6010505002311,登記記録の閉鎖等,0,2022-01-04,2021-12-28,特定非営利活動法人Ｗｉｎｄｓ　Ｆｏｒｍｕｌａ　Ａｓｓｏｃｉａｔｉｏｎ,,その他の設立登記法人,東京都,台東区,根岸３丁目６番２３－２号,,13,106,1100003,,,2021-12-28,清算の結了等,,,2015-10-05,1,,,,,ウインズフォーミュラアソシエーション,0
1370,6011202010796,登記記録の閉鎖等,0,2022-01-04,2021-12-24,有限会社ワールドワン・ユアーズ,,有限会社,東京都,中野区,中野４丁目３番１号,,13,114,1640001,,,2021-12-24,清算の結了等,,,2015-10-05,1,,,,,ワールドワンユアーズ,0
1373,6011402007568,登記記録の閉鎖等,0,2022-01-04,2021-12-27,有限会社平田ビジネスセンター,,有限会社,東京都,板橋区,大山町１４番１号,,13,119,1730023,,,2021-12-27,清算の結了等,,,2015-10-05,1,,,,,ヒラタビジネスセンター,0
1383,6013301012797,登記記録の閉鎖等,0,2022-01-04,2021-12-24,丸建産業株式会社,,株式会社,東京都,府中市,是政４丁目２番７０号メゾン・ド・リブレ１０３,,13,206,1830014,,,2021-12-24,清算の結了等,,,2015-10-05,1,,,,,マルケンサンギョウ,0
1387,6020001072139,登記記録の閉鎖等,0,2022-01-04,2021-12-24,株式会社エンドウ,,株式会社,神奈川県,川崎市中原区,今井上町１０番１－７３６号,,14,133,2110067,,,2021-12-24,清算の結了等,,,2015-10-05,1,,,,,エンドウ,0
1401,6021001060141,登記記録の閉鎖等,0,2022-01-04,2021-12-24,Ｂｏｎｈｅｕｒ株式会社,,株式会社,神奈川県,海老名市,今里３丁目１４番７号,,14,215,2430423,,,2021-12-24,清算の結了等,,,2016-08-30,1,,,,,ボヌール,0
1405,6021005011215,登記記録の閉鎖等,0,2022-01-04,2021-11-29,ＮＰＯ法人心の居場所,,その他の設立登記法人,神奈川県,足柄下郡箱根町,宮城野６３２番地９,,14,382,2500401,,,2021-11-29,清算の結了等,,,2018-02-05,1,,,,,ココロノイバショ,0
1423,6050001044127,登記記録の閉鎖等,0,2022-01-04,2021-12-23,株式会社ガーデンポーターズ,,株式会社,茨城県,常総市,内守谷町きぬの里３丁目５番地１４,,08,211,3030046,,,2021-12-23,清算の結了等,,,2018-03-12,1,,,,,ガーデンポーターズ,0
1425,6060001020572,登記記録の閉鎖等,0,2022-01-04,2021-12-23,株式会社ニューズ,,株式会社,栃木県,佐野市,若松町字城山北４０９番５,,09,204,3270846,,,2021-12-23,清算の結了等,,,2015-10-05,1,,,,,ニューズ,0
1438,6100002003340,登記記録の閉鎖等,0,2022-01-04,2021-12-27,有限会社東信シューズ,,有限会社,長野県,長野市,中御所４丁目８番４号,,20,201,3800935,,,2021-12-27,清算の結了等,,,2015-10-05,1,,,,,トウシンシューズ,0
1441,6110002015260,登記記録の閉鎖等,0,2022-01-04,2021-12-27,有限会社大徳商事,,有限会社,新潟県,胎内市,本町２番３２号,,15,227,9592645,,,2021-12-27,清算の結了等,,,2015-10-05,1,,,,,ダイトクショウジ,0
1447,6120001062179,登記記録の閉鎖等,0,2022-01-04,2021-12-24,株式会社カガミ,,株式会社,大阪府,大阪市福島区,福島２丁目４番３号,,27,103,5530003,,,2021-12-24,清算の結了等,,,2015-10-05,1,,,,,カガミ,0
1457,6120002042411,登記記録の閉鎖等,0,2022-01-04,2021-12-24,有限会社関東ユニオン,,有限会社,大阪府,大阪市中央区,日本橋２丁目１４番１３号,,27,128,5420073,,,2021-12-24,清算の結了等,,,2015-10-05,1,,,,,カントウユニオン,0
1470,6130001036669,登記記録の閉鎖等,0,2022-01-04,2021-12-24,株式会社京南グリーン,,株式会社,京都府,相楽郡和束町,大字門前小字寺垣内４番地の２,,26,365,6191204,,,2021-12-24,清算の結了等,,,2015-10-05,1,,,,,,0
1475,6140001044076,登記記録の閉鎖等,0,2022-01-04,2021-12-24,高砂タクシー株式会社,,株式会社,兵庫県,高砂市,荒井町日之出町４番１１号,,28,216,6760014,,,2021-12-24,清算の結了等,,,2015-10-05,1,,,,,,0
1480,6140002046146,登記記録の閉鎖等,0,2022-01-04,2021-12-23,有限会社吉井洋品店,,有限会社,兵庫県,豊岡市,中央町１２番２２号,,28,209,6680033,,,2021-12-23,清算の結了等,,,2015-10-05,1,,,,,ヨシイヨウヒンテン,0
1491,6180001117431,登記記録の閉鎖等,0,2022-01-04,2021-12-24,株式会社ディファーヌ,,株式会社,愛知県,名古屋市昭和区,八事富士見１６０４番地,,23,107,4660812,,,2021-12-24,清算の結了等,,,2015-10-05,1,,,,,ディファーヌ,0
1499,6180302024806,登記記録の閉鎖等,0,2022-01-04,2021-12-27,有限会社ケイ・オー・エイチ,,有限会社,愛知県,豊田市,黒田町西乳母ケ入４５番地１２,,23,211,4412524,,,2021-12-27,清算の結了等,,,2015-10-05,1,,,,,ケイオーエイチ,0
1518,6270001003878,登記記録の閉鎖等,0,2022-01-04,2021-12-27,株式会社石橋,,株式会社,鳥取県,西伯郡伯耆町,吉長５１番地１,,31,390,6894133,,,2021-12-27,清算の結了等,,,2015-10-05,1,,,,,イシバシ,0
1543,6360002022579,登記記録の閉鎖等,0,2022-01-04,2021-12-24,有限会社三友商事,,有限会社,沖縄県,宮古島市,平良字下里５６９番地,,47,214,9060013,,,2021-12-24,清算の結了等,,,2015-10-05,1,,,,,サンユウショウジ,0
1545,6360005000524,登記記録の閉鎖等,0,2022-01-04,2021-12-23,沖縄県卸売酒販組合連合会,,その他の設立登記法人,沖縄県,那覇市,前島３丁目４番１６号（有）喜屋武商店内,,47,201,9000016,,,2021-12-23,清算の結了等,,,2015-10-05,1,,,,,オキナワケンオロシウリ,0
1546,6370001007266,登記記録の閉鎖等,0,2022-01-04,2021-12-27,株式会社エスリゾーム,,株式会社,宮城県,仙台市青葉区,本町２丁目１番８号,,04,101,9800014,,,2021-12-27,清算の結了等,,,2015-10-05,1,,,,,エスリゾーム,0
1549,6370001039103,登記記録の閉鎖等,0,2022-01-04,2021-12-24,株式会社菊池フーズ,,株式会社,宮城県,仙台市太白区,柳生１丁目６番１号,,04,104,9811106,,,2021-12-24,清算の結了等,,,2016-01-21,1,,,,,,0
1552,6370202004657,登記記録の閉鎖等,0,2022-01-04,2021-12-28,有限会社若柳第一自動車学校,,有限会社,宮城県,栗原市,若柳字川北東若柳１０７番地,,04,213,9895501,,,2021-12-28,清算の結了等,,,2015-10-05,1,,,,,ワカヤナギダイイチジドウシャガッコウ,0
1559,6390002005820,登記記録の閉鎖等,0,2022-01-04,2021-12-27,有限会社茂木商店,,有限会社,山形県,天童市,大字寺津２０４番地,,06,210,9940073,,,2021-12-27,清算の結了等,,,2015-10-05,1,,,,,モギショウテン,0
1564,6410001010810,登記記録の閉鎖等,0,2022-01-04,2021-12-22,株式会社ａｃｔ４ｃ,,株式会社,秋田県,秋田市,桜１丁目５番１４号,,05,201,0100042,,,2021-12-22,清算の結了等,,,2015-10-05,1,,,,,アクトフォーシー,0
1586,7010001198090,登記記録の閉鎖等,0,2022-01-04,2021-12-22,株式会社ＳｍａｒｔＨＲ　Ｉｎｓｕｒａｎｃｅ,,株式会社,東京都,港区,六本木３丁目２－１住友不動産六本木グランドタワー,,13,103,1060032,,,2021-12-22,清算の結了等,,,2019-01-28,1,,,,,スマートエイチアールインシュアランス,0
1587,7010001199064,登記記録の閉鎖等,0,2022-01-04,2021-12-13,帝都三信大森交通株式会社,,株式会社,東京都,中央区,日本橋１丁目２１番５号,,13,102,1030027,,,2021-12-13,合併による解散等,8010001199063,令和３年１２月１３日東京都中央区日本橋一丁目２１番５号帝都三信交通株式会社（8010001199063）に合併し解散,2019-03-06,1,,,,,テイトサンシンオオモリコウツウ,0
1593,7010002035367,登記記録の閉鎖等,0,2022-01-04,2021-12-24,有限会社宣晃社,,有限会社,東京都,三鷹市,上連雀７丁目２８番２号,,13,204,1810012,,,2021-12-24,清算の結了等,,,2015-10-05,1,,,,,センコウシャ,0
1610,7010602004300,登記記録の閉鎖等,0,2022-01-04,2021-12-22,大都精機有限会社,,有限会社,東京都,江東区,大島７丁目４１番１７号,,13,108,1360072,,,2021-12-22,清算の結了等,,,2015-10-05,1,,,,,ダイトセイキ,0
1615,7010705001244,登記記録の閉鎖等,0,2022-01-04,2021-12-24,特定非営利活動法人グループＥＶＡＨ,,その他の設立登記法人,東京都,品川区,南大井３丁目２０番１４号大森ヒラノビル１０２,,13,109,1400013,,,2021-12-24,清算の結了等,,,2015-10-05,1,,,,,グループエヴァ,0
1655,7020003018808,登記記録の閉鎖等,0,2022-01-04,2021-12-24,ビッグレッドマシン合同会社,,合同会社,神奈川県,横浜市西区,みなとみらい４丁目４番２号横浜ブルーアベニュー１２Ｆ,,14,103,2200012,,,2021-12-24,清算の結了等,,,2020-11-18,1,,,,,ビッグレッドマシン,0
1657,7021001019756,登記記録の閉鎖等,0,2022-01-04,2021-12-24,株式会社シーエフ,,株式会社,神奈川県,愛甲郡愛川町,中津４０１７番地２,,14,401,2430303,,,2021-12-24,清算の結了等,,,2015-10-05,1,,,,,シーエフ,0
1664,7021002013972,登記記録の閉鎖等,0,2022-01-04,2021-12-27,有限会社石田電機,,有限会社,神奈川県,鎌倉市,腰越３丁目２０番６号,,14,204,2480033,,,2021-12-27,清算の結了等,,,2015-10-05,1,,,,,イシダデンキ,0
1665,7021002061468,登記記録の閉鎖等,0,2022-01-04,2021-12-27,有限会社エーデルワイス,,有限会社,神奈川県,中郡二宮町,山西７４７番地の６,,14,342,2590124,,,2021-12-27,清算の結了等,,,2015-10-05,1,,,,,エーデルワイス,0
1680,7040002093775,登記記録の閉鎖等,0,2022-01-04,2021-12-23,有限会社ワイ・デント,,有限会社,千葉県,柏市,大津ケ丘４丁目２６番７,,12,217,2770921,,,2021-12-23,清算の結了等,,,2015-10-05,1,,,,,ワイデント,0
1701,7110001031258,登記記録の閉鎖等,0,2022-01-04,2021-12-27,総合ハウス株式会社,,株式会社,新潟県,上越市,稲田１丁目１番１０号,,15,222,9430154,,,2021-12-27,清算の結了等,,,2016-02-05,1,,,,,ソウゴウハウス,0
1702,7110002007109,登記記録の閉鎖等,0,2022-01-04,2021-12-27,有限会社わかすぎ,,有限会社,新潟県,新潟市西区,五十嵐３の町北９番１７号,,15,107,9502176,,,2021-12-27,清算の結了等,,,2015-10-05,1,,,,,ワカスギ,0
1724,7120901005418,登記記録の閉鎖等,0,2022-01-04,2021-12-27,井吉賀住設株式会社,,株式会社,大阪府,吹田市,津雲台７丁目１番Ｄ－１１３号,,27,205,5650862,,,2021-12-27,清算の結了等,,,2015-10-05,1,,,,,イヨシガジュウセツ,0
1731,7122003002038,登記記録の閉鎖等,0,2022-01-04,2021-12-28,日興商店合同会社,,合同会社,大阪府,東大阪市,友井２丁目１１番８号,,27,227,5770816,,,2021-12-28,清算の結了等,,,2021-03-01,1,,,,,ニッコウショウテン,0
1734,7130002001126,登記記録の閉鎖等,0,2022-01-04,2021-12-24,有限会社東陵会,,有限会社,京都府,京都市右京区,御室小松野町１８番地,,26,108,6168094,,,2021-12-24,清算の結了等,,,2015-10-05,1,,,,,トウリョウカイ,0
1743,7140003014068,登記記録の閉鎖等,0,2022-01-04,2021-12-24,ＭＦＣ　ＪＡＰＡＮ合同会社,,合同会社,兵庫県,芦屋市,茶屋之町８番１３号,,28,206,6590067,,,2021-12-24,清算の結了等,,,2019-07-03,1,,,,,エムエフシージャパン,0
1751,7170001016831,登記記録の閉鎖等,0,2022-01-04,2021-12-27,株式会社車川繊維,,株式会社,和歌山県,橋本市,高野口町名倉８４８番地,,30,203,6497205,,,2021-12-27,清算の結了等,,,2021-10-21,1,,,,,クルマカワセンイ,0
1757,7180001108173,登記記録の閉鎖等,0,2022-01-04,2021-12-17,ＲＹ－Ｒ株式会社,,株式会社,愛知県,一宮市,北浦町１４番地１,,23,203,4910901,,,2021-12-17,清算の結了等,,,2015-10-05,1,,,,,アールワイアール,0
1762,7180002047627,登記記録の閉鎖等,0,2022-01-04,2021-12-24,三弥土木有限会社,,有限会社,愛知県,名古屋市名東区,上社３丁目１９０５番地,,23,115,4650025,,,2021-12-24,清算の結了等,,,2015-10-05,1,,,,,サンヤドボク,0
1770,7180305007377,登記記録の閉鎖等,0,2022-01-04,2021-12-27,一般財団法人高須福祉財団,,その他の設立登記法人,愛知県,西尾市,一色町赤羽上郷中１２４番地１,,23,213,4440427,,,2021-12-27,清算の結了等,,,2015-10-05,1,,,,,タカスフクシザイダン,0
1781,7240002014356,登記記録の閉鎖等,0,2022-01-04,2021-12-28,有限会社福永電気,,有限会社,広島県,広島市南区,日宇那町８番２号,,34,103,7340031,,,2021-12-28,清算の結了等,,,2015-10-05,1,,,,,フクナガデンキ,0
1790,7290001059174,登記記録の閉鎖等,0,2022-01-04,2021-12-24,株式会社Ａｓａｕ＆ＰＡＲＴＮＥＲＳ,,株式会社,福岡県,福岡市早良区,百道浜１丁目３番７０号,,40,137,8140001,,,2021-12-24,清算の結了等,,,2015-10-05,1,,,,,,0
1806,7320002019702,登記記録の閉鎖等,0,2022-01-04,2021-12-27,有限会社天領産業,,有限会社,大分県,日田市,天瀬町塚田７４１番地,,44,204,8770113,,,2021-12-27,清算の結了等,,,2015-10-05,1,,,,,テンリョウサンギョウ,0
1807,7330001007203,登記記録の閉鎖等,0,2022-01-04,2021-12-27,株式会社Ｋ＆Ｒ,,株式会社,熊本県,熊本市中央区,花畑町１３番４９号第３リキビル４Ｆ,,43,101,8600806,,,2021-12-27,清算の結了等,,,2015-10-05,1,,,,,ケーアンドアール,0
1812,7340002021227,登記記録の閉鎖等,0,2022-01-04,2021-12-24,有限会社久井商事,,有限会社,鹿児島県,奄美市,名瀬久里町１番８号,,46,222,8940022,,,2021-12-24,清算の結了等,,,2015-10-05,1,,,,,ヒサイショウジ,0
1822,7390002008260,登記記録の閉鎖等,0,2022-01-04,2021-12-24,有限会社まるご,,有限会社,山形県,飽海郡遊佐町,菅里字菅野２番地の７３,,06,461,9998531,,,2021-12-24,清算の結了等,,,2015-10-05,1,,,,,マルゴ,0
1823,7410001012426,登記記録の閉鎖等,0,2022-01-04,2021-12-23,株式会社カンパネルラ,,株式会社,秋田県,横手市,安田字八王寺１０６番地２,,05,203,0130043,,,2021-12-23,清算の結了等,,,2020-03-04,1,,,,,カンパネルラ,0
1828,7430002053153,登記記録の閉鎖等,0,2022-01-04,2021-12-24,有限会社みつや野田呉服店,,有限会社,北海道,滝川市,江部乙町西１１丁目１３番４２号,,01,225,0790462,,,2021-12-24,清算の結了等,,,2015-10-05,1,,,,,ミツヤノダゴフクテン,0
1831,7460002000144,登記記録の閉鎖等,0,2022-01-04,2021-12-28,有限会社アリス保険サービス,,有限会社,北海道,釧路市,若竹町１２番１２１号クレインビル２Ｆ,,01,206,0850036,,,2021-12-28,清算の結了等,,,2015-10-05,1,,,,,アリスホケンサービス,0
1834,7470001010903,登記記録の閉鎖等,0,2022-01-04,2021-12-28,株式会社ＧＯＯＤＴＩＭＥ　ＣＲＥＡＴＥ,,株式会社,香川県,観音寺市,栄町２丁目７番１号,,37,205,7680072,,,2021-12-28,清算の結了等,,,2015-10-05,1,,,,,,0
1835,7480002015710,登記記録の閉鎖等,0,2022-01-04,2021-12-27,有限会社ナイスギフトパル,,有限会社,徳島県,三好郡東みよし町,加茂２５７６番地の５,,36,489,7794701,,,2021-12-27,清算の結了等,,,2015-10-05,1,,,,,ナイスギフトパル,0
1847,8010001168209,登記記録の閉鎖等,0,2022-01-04,2021-12-23,ＦＷＤ　Ｄｅｖｅｌｏｐｍｅｎｔｓ　Ｊａｐａｎ株式会社,,株式会社,東京都,中央区,日本橋本町２丁目２番５号,,13,102,1030023,,,2021-12-23,清算の結了等,,,2015-10-05,1,,,,,エフダブリュディーデヴェロップメンツジャパン,0
1859,8010005015431,登記記録の閉鎖等,0,2022-01-04,2021-12-24,一般財団法人反社会的勢力対策研究センター,,その他の設立登記法人,東京都,千代田区,紀尾井町３番１２号紀尾井町ビル,,13,101,1020094,,,2021-12-24,清算の結了等,,,2015-10-05,1,,,,,ハンシャカイテキセイリョクタイサクケンキュウセンター,0
1870,8010402024803,登記記録の閉鎖等,0,2022-01-04,2021-12-22,有限会社ビー・ビー・キャピタル,,有限会社,東京都,港区,北青山２丁目１２番３３号,,13,103,1070061,,,2021-12-22,合併による解散等,2010401101022,令和３年１２月２２日東京都港区北青山二丁目１２番３３号株式会社ビジネスバンク（2010401101022）に合併し解散,2015-10-05,1,,,,,ビービーキャピタル,0
1879,8010602010685,登記記録の閉鎖等,0,2022-01-04,2021-12-22,有限会社小池精機製作所,,有限会社,東京都,墨田区,本所４丁目１５番６号,,13,107,1300004,,,2021-12-22,清算の結了等,,,2015-10-05,1,,,,,コイケセイキセイサクショ,0
1880,8010701006394,登記記録の閉鎖等,0,2022-01-04,2021-12-27,株式会社寺尾商会,,株式会社,東京都,品川区,東大井３丁目２番３号,,13,109,1400011,,,2021-12-27,清算の結了等,,,2015-10-05,1,,,,,テラオショウカイ,0
1889,8011001119952,登記記録の閉鎖等,0,2022-01-04,2021-12-23,株式会社Ａ．Ｆ．ｏｎｅ,,株式会社,東京都,千代田区,鍛冶町２丁目１－２,,13,101,1010044,,,2021-12-23,清算の結了等,,,2018-01-05,1,,,,,エーエフワン,0
1898,8011801003182,登記記録の閉鎖等,0,2022-01-04,2021-12-27,東京麺類食堂株式会社,,株式会社,東京都,葛飾区,青戸１丁目６番９号,,13,122,1250062,,,2021-12-27,清算の結了等,,,2015-10-05,1,,,,,トウキョウメンルイショクドウ,0
1899,8012402011038,登記記録の閉鎖等,0,2022-01-04,2021-12-24,有限会社ココプランニング,,有限会社,東京都,調布市,布田５丁目４２番地１５,,13,208,1820024,,,2021-12-24,清算の結了等,,,2015-10-05,1,,,,,ココプランニング,0
1926,8021005002253,登記記録の閉鎖等,0,2022-01-04,2021-12-24,税理士法人大船パートナーズオフィス,,その他の設立登記法人,神奈川県,鎌倉市,大船２丁目１８番８号,,14,204,2470056,,,2021-12-24,清算の結了等,,,2015-10-05,1,,,,,オオフナパートナーズオフィス,0
1943,8040003007898,登記記録の閉鎖等,0,2022-01-04,2021-12-23,合同会社ＳＥＷＡ　ＮＥＴ　ＳＯＬＵＴＩＯＮＳ,,合同会社,千葉県,松戸市,松戸新田２８２番地の７０,,12,207,2702241,,,2021-12-23,清算の結了等,,,2015-11-11,1,,,,,,0
1956,8070002026979,登記記録の閉鎖等,0,2022-01-04,2021-12-23,有限会社ヤハタ総業,,有限会社,群馬県,渋川市,石原１０９３番地の２,,10,208,3770007,,,2021-12-23,清算の結了等,,,2015-10-05,1,,,,,ヤハタソウギョウ,0
1959,8080101014264,登記記録の閉鎖等,0,2022-01-04,2021-12-27,越野プロデュース株式会社,,株式会社,静岡県,伊東市,湯川３丁目１１番２号,,22,208,4140002,,,2021-12-27,清算の結了等,,,2015-10-05,1,,,,,,0
1962,8080102019799,登記記録の閉鎖等,0,2022-01-04,2021-12-24,有限会社興和建設,,有限会社,静岡県,伊東市,川奈１２５４番地の３４２,,22,208,4140044,,,2021-12-24,清算の結了等,,,2015-10-05,1,,,,,,0
1977,8120002028945,登記記録の閉鎖等,0,2022-01-04,2021-12-22,有限会社あこや楽器店,,有限会社,大阪府,大阪市北区,天神橋４丁目４番８号,,27,127,5300041,,,2021-12-22,清算の結了等,,,2015-10-05,1,,,,,アコヤガッキテン,0
1985,8120901000748,登記記録の閉鎖等,0,2022-01-04,2021-12-28,京阪株式会社,,株式会社,大阪府,茨木市,高田町２３番１６号,,27,211,5670011,,,2021-12-28,清算の結了等,,,2015-10-05,1,,,,,ケイハン,0
1988,8122003001063,登記記録の閉鎖等,0,2022-01-04,2021-12-27,合同会社アーリーズ,,合同会社,大阪府,東大阪市,中石切町２丁目２番３３号,,27,227,5798014,,,2021-12-27,清算の結了等,,,2015-10-05,1,,,,,アーリーズ,0
2000,8170001000487,登記記録の閉鎖等,0,2022-01-04,2021-12-23,株式会社エンドレス,,株式会社,和歌山県,和歌山市,雑賀町５７番地の１,,30,201,6408108,,,2021-12-23,清算の結了等,,,2015-10-05,1,,,,,エンドレス,0
2001,8170001008638,登記記録の閉鎖等,0,2022-01-04,2021-12-24,株式会社紀芳園,,株式会社,和歌山県,田辺市,中芳養１０９４番地の１,,30,206,6460057,,,2021-12-24,清算の結了等,,,2015-10-05,1,,,,,キホウエン,0
2014,8190002000518,登記記録の閉鎖等,0,2022-01-04,2021-12-27,有限会社ケイケイ・デンタルサービス,,有限会社,三重県,津市,新町２丁目５番５２号,,24,201,5140042,,,2021-12-27,清算の結了等,,,2015-10-05,1,,,,,ケイケイデンタルサービス,0
2016,8200001020127,登記記録の閉鎖等,0,2022-01-04,2021-12-28,株式会社ハウスバンク,,株式会社,岐阜県,関市,西田原大千前６１番地１,,21,205,5013928,,,2021-12-28,清算の結了等,,,2015-10-05,1,,,,,ハウスバンク,0
2019,8220002012591,登記記録の閉鎖等,0,2022-01-04,2021-12-27,有限会社中栄商事,,有限会社,石川県,加賀市,山代温泉桔梗丘２丁目８６番地,,17,206,9220257,,,2021-12-27,清算の結了等,,,2015-10-05,1,,,,,チュウエイショウジ,0
2035,8290001072052,登記記録の閉鎖等,0,2022-01-04,2021-12-23,アチーブ株式会社,,株式会社,福岡県,福岡市博多区,博多駅南４丁目４番１７号第５博多ＩＲ　ＢＬＤ・７０３号,,40,132,8120016,,,2021-12-23,清算の結了等,,,2015-11-25,1,,,,,アチーブ,0
2044,8320002019874,登記記録の閉鎖等,0,2022-01-04,2021-12-28,有限会社九重水道,,有限会社,大分県,玖珠郡九重町,大字松木１３８９番地の１,,44,461,8794632,,,2021-12-28,清算の結了等,,,2015-10-05,1,,,,,ココノエスイドウ,0
2050,8340001018082,登記記録の閉鎖等,0,2022-01-04,2021-12-27,株式会社島本,,株式会社,鹿児島県,薩摩川内市,大小路町９－１８番地,,46,215,8950076,,,2021-12-27,清算の結了等,,,2015-10-05,1,,,,,シマモト,0
2062,8370001044035,登記記録の閉鎖等,0,2022-01-04,2021-12-27,妻鹿貨物株式会社,,株式会社,宮城県,多賀城市,八幡４丁目６番９－２号,,04,209,9850874,,,2021-12-27,清算の結了等,,,2019-02-21,1,,,,,メガカモツ,0
2069,8390002001256,登記記録の閉鎖等,0,2022-01-04,2021-12-27,三共住宅有限会社,,有限会社,山形県,天童市,大字干布３４０番地５,,06,210,9940056,,,2021-12-27,清算の結了等,,,2015-10-05,1,,,,,サンキョウジュウタク,0
2070,8400005004691,登記記録の閉鎖等,0,2022-01-04,2021-12-27,医療法人陽和会,,その他の設立登記法人,岩手県,二戸市,石切所字枋ノ木１０番地１７,,03,213,0286103,,,2021-12-27,清算の結了等,,,2015-10-05,1,,,,,ヨウワカイ,0
2071,8400605000074,登記記録の閉鎖等,0,2022-01-04,2021-12-28,岩手県南建設業協同組合,,その他の設立登記法人,岩手県,奥州市,水沢字西田１１２番地１,,03,215,0230885,,,2021-12-28,清算の結了等,,,2015-10-05,1,,,,,イワテケンナンケンセツギョウ,0
2076,8470002003855,登記記録の閉鎖等,0,2022-01-04,2021-12-28,有限会社砂川動物病院,,有限会社,香川県,高松市,林町１９５６番地１,,37,201,7610301,,,2021-12-28,清算の結了等,,,2015-10-05,1,,,,,スナガワドウブツビョウイン,0
2087,9010001074257,登記記録の閉鎖等,0,2022-01-04,2021-12-24,株式会社栗田電機システム,,株式会社,東京都,中央区,銀座１丁目３番１号,,13,102,1040061,,,2021-12-24,清算の結了等,,,2015-10-05,1,,,,,クリタデンキシステム,0
2105,9010401122004,登記記録の閉鎖等,0,2022-01-04,2021-12-22,Ｒ２Ａ株式会社,,株式会社,東京都,港区,赤坂１丁目１４番５号アークヒルズ・エクゼクティブタワーＳ４０２,,13,103,1070052,,,2021-12-22,合併による解散等,2010401077072,令和３年１２月２２日東京都港区赤坂一丁目１２番３２号アーク森ビル１２階ｒｅｖ－ａ　ｇｒｏｕｐ株式会社（2010401077072）に合併し解散,2015-12-10,1,,,,,アールツーエー,0
2118,9010701033818,登記記録の閉鎖等,0,2022-01-04,2021-12-24,株式会社ｙｕｍｂｕｙ,,株式会社,東京都,品川区,荏原４丁目１６番８号,,13,109,1420063,,,2021-12-24,清算の結了等,,,2017-03-02,1,,,,,ヤンバイ,0
2126,9010901008999,登記記録の閉鎖等,0,2022-01-04,2021-12-27,株式会社日本精光研究所,,株式会社,東京都,世田谷区,野沢２丁目１１番１０号,,13,112,1540003,,,2021-12-27,清算の結了等,,,2015-10-05,1,,,,,ニホンセイコウケンキュウジョ,0
2129,9010902018428,登記記録の閉鎖等,0,2022-01-04,2021-12-27,有限会社明星企画,,有限会社,東京都,世田谷区,下馬２丁目３９番８－５０６号,,13,112,1540002,,,2021-12-27,清算の結了等,,,2015-10-05,1,,,,,メイセイキカク,0
2159,9012803002428,登記記録の閉鎖等,0,2022-01-04,2021-12-02,合同会社グティックム,,合同会社,東京都,立川市,錦町１丁目９－１５ザ・パークハウス立川テラス４０３,,13,202,1900022,,,2021-12-02,清算の結了等,,,2021-02-01,1,,,,,グティックム,0
2168,9020002011349,登記記録の閉鎖等,0,2022-01-04,2021-12-24,有限会社エムズ,,有限会社,神奈川県,横浜市戸塚区,平戸３丁目２８番３０号,,14,110,2440802,,,2021-12-24,清算の結了等,,,2015-10-05,1,,,,,エムズ,0
2172,9020002054323,登記記録の閉鎖等,0,2022-01-04,2021-12-23,有限会社オクマ企画,,有限会社,神奈川県,横浜市旭区,白根６丁目６番１２号,,14,112,2410005,,,2021-12-23,清算の結了等,,,2015-10-05,1,,,,,オクマキカク,0
2173,9020002069577,登記記録の閉鎖等,0,2022-01-04,2021-12-22,有限会社共和企画,,有限会社,神奈川県,横浜市神奈川区,菅田町４１９番地の６,,14,102,2210864,,,2021-12-22,清算の結了等,,,2015-10-05,1,,,,,,0
2184,9030001051188,登記記録の閉鎖等,0,2022-01-04,2021-12-24,株式会社大興土建,,株式会社,埼玉県,春日部市,増富７５４番地,,11,214,3440041,,,2021-12-24,清算の結了等,,,2015-10-05,1,,,,,ダイコウドケン,0
2185,9030001053787,登記記録の閉鎖等,0,2022-01-04,2021-12-27,Ｍ．Ｈ．コミュニケーションズ株式会社,,株式会社,埼玉県,春日部市,備後東２丁目１４番１０号,,11,214,3440032,,,2021-12-27,清算の結了等,,,2015-10-05,1,,,,,エムエイチコミュニケーションズ,0
2187,9030001074008,登記記録の閉鎖等,0,2022-01-04,2021-12-24,株式会社オーエム企画,,株式会社,埼玉県,川口市,朝日４丁目７番４号,,11,203,3320001,,,2021-12-24,清算の結了等,,,2015-10-05,1,,,,,オーエムキカク,0
2198,9040002026114,登記記録の閉鎖等,0,2022-01-04,2021-12-23,有限会社祐信,,有限会社,千葉県,船橋市,市場４丁目２番５号,,12,204,2730001,,,2021-12-23,清算の結了等,,,2015-10-05,1,,,,,ユウシン,0
2199,9040002071762,登記記録の閉鎖等,0,2022-01-04,2021-12-22,有限会社日章,,有限会社,千葉県,木更津市,江川４４０番地２,,12,206,2920063,,,2021-12-22,清算の結了等,,,2015-10-05,1,,,,,ニッショウ,0
2209,9060001025032,登記記録の閉鎖等,0,2022-01-04,2021-12-23,株式会社とちぎネットワークパートナーズ,,株式会社,栃木県,宇都宮市,大通り４丁目１番２０号宇都宮けやき通りビル４Ｆ,,09,201,3200811,,,2021-12-23,清算の結了等,,,2015-10-05,1,,,,,トチギネットワークパートナーズ,0
2211,9080001000181,登記記録の閉鎖等,0,2022-01-04,2021-12-27,株式会社アセットホームズ,,株式会社,静岡県,静岡市葵区,牧ケ谷２０９１番地の１,,22,101,4211221,,,2021-12-27,清算の結了等,,,2015-10-05,1,,,,,,0
2219,9100001017446,登記記録の閉鎖等,0,2022-01-04,2021-12-27,株式会社山田工務店,,株式会社,長野県,北安曇郡白馬村,大字北城１２８１５番地８,,20,485,3999301,,,2021-12-27,清算の結了等,,,2015-10-05,1,,,,,ヤマダコウムテン,0
2225,9110002033697,登記記録の閉鎖等,0,2022-01-04,2021-12-24,有限会社角屋建材,,有限会社,新潟県,魚沼市,小平尾７０番地１２,,15,225,9460101,,,2021-12-24,清算の結了等,,,2015-10-05,1,,,,,カドヤケンザイ,0
2227,9120001130098,登記記録の閉鎖等,0,2022-01-04,2021-12-24,株式会社湘南情報大阪,,株式会社,大阪府,大阪市西区,江戸堀１丁目１９番２号,,27,106,5500002,,,2021-12-24,清算の結了等,,,2015-10-05,1,,,,,ショウナンジョウホウオオサカ,0
2228,9120001135799,登記記録の閉鎖等,0,2022-01-04,2021-12-24,株式会社レイフォレスト,,株式会社,大阪府,大阪市中央区,南船場３丁目５番１１号りそな心斎橋ビル,,27,128,5420081,,,2021-12-24,清算の結了等,,,2015-10-05,1,,,,,レイフォレスト,0
2257,9140001049171,登記記録の閉鎖等,0,2022-01-04,2021-12-23,新泉精機株式会社,,株式会社,兵庫県,尼崎市,東向島東之町１番地,,28,202,6600835,,,2021-12-23,清算の結了等,,,2015-10-05,1,,,,,シンセンセイキ,0
2266,9180001103115,登記記録の閉鎖等,0,2022-01-04,2021-12-24,株式会社ビレイク,,株式会社,愛知県,名古屋市中村区,名駅４丁目２番２５号,,23,105,4500002,,,2021-12-24,清算の結了等,,,2015-10-05,1,,,,,ビレイク,0
2281,9190005004052,登記記録の閉鎖等,0,2022-01-04,2021-12-27,医療法人平井医院,,その他の設立登記法人,三重県,鈴鹿市,算所５丁目３番３号,,24,207,5130806,,,2021-12-27,清算の結了等,,,2015-10-05,1,,,,,ヒライイイン,0
2288,9240005002125,登記記録の閉鎖等,0,2022-01-04,2021-12-27,カージャンボ広島協同組合,,その他の設立登記法人,広島県,広島市佐伯区,石内南１丁目４番１号,,34,108,7315108,,,2021-12-27,清算の結了等,,,2015-10-05,1,,,,,カージャンボヒロシマ,0
2289,9260001022125,登記記録の閉鎖等,0,2022-01-04,2021-12-28,株式会社オフィスレンタル,,株式会社,岡山県,玉野市,築港１丁目１４番７号,,33,204,7060002,,,2021-12-28,清算の結了等,,,2015-10-05,1,,,,,オフィスレンタル,0
2300,9290001072299,登記記録の閉鎖等,0,2022-01-04,2021-12-24,ワールドビジネスマネジメント株式会社,,株式会社,福岡県,福岡市博多区,綱場町６番９号,,40,132,8120024,,,2021-12-24,清算の結了等,,,2015-12-16,1,,,,,ワールドビジネスマネジメント,0
2316,9330003007637,登記記録の閉鎖等,0,2022-01-04,2021-12-27,合同会社３０３コンサル,,合同会社,熊本県,熊本市東区,長嶺東１丁目４番７７－３号,,43,102,8618038,,,2021-12-27,清算の結了等,,,2018-09-13,1,,,,,サンマルサンコンサル,0
2318,9340005000127,登記記録の閉鎖等,0,2022-01-04,2021-12-27,農事組合法人六ケ所茶生産組合,,その他の設立登記法人,鹿児島県,鹿児島市,石谷町５０２２番地,,46,201,8992701,,,2021-12-27,清算の結了等,,,2015-10-05,1,,,,,ロッカショチャセイサンクミアイ,0
2324,9370003003814,登記記録の閉鎖等,0,2022-01-04,2021-12-28,合同会社海渡,,合同会社,宮城県,仙台市青葉区,台原５丁目２番２－４０８号,,04,101,9810911,,,2021-12-28,清算の結了等,,,2017-05-18,1,,,,,カイト,0
2330,9430001020185,登記記録の閉鎖等,0,2022-01-04,2021-12-24,札幌中央テント株式会社,,株式会社,北海道,札幌市東区,北二十八条東１４丁目２番８号,,01,103,0650028,,,2021-12-24,清算の結了等,,,2015-10-05,1,,,,,サッポロチュウオウテント,0
