sequenceNumber,corporateNumber,process,correct,updateDate,changeDate,name,nameImageId,kind,prefectureName,cityName,streetNumber,addressImageId,prefectureCode,cityCode,postCode,addressOutside,addressOutsideImageId,closeDate,closeCause,successorCorporateNumber,changeCause,assignmentDate,latest,enName,enPrefectureName,enCityName,enAddressOutside,furigana,hihyoji
31,1010401141481,登記記録の閉鎖等,0,2023-05-12,2023-05-01,株式会社八重山ホテル＆リゾート,,株式会社,沖縄県,八重山郡竹富町,字上原２番地の２,,47,381,9071541,,,2023-05-01,合併による解散等,6080101016023,令和５年５月１日沖縄県八重山郡竹富町字竹富１９５５番地株式会社星野リゾート・マネジメント（6080101016023）に合併し解散,2018-10-17,1,,,,,ヤエヤマホテルアンドリゾート,0
45,1010601053717,登記記録の閉鎖等,0,2023-05-12,2023-05-08,株式会社ダンス,,株式会社,東京都,墨田区,東向島４丁目２５番２１号,,13,107,1310032,,,2023-05-08,清算の結了等,,,2018-08-06,1,,,,,ダンス,0
64,1011001099359,登記記録の閉鎖等,0,2023-05-12,2023-05-11,株式会社ｆｅｅｍｏ,,株式会社,東京都,新宿区,新宿６丁目２４番２０号,,13,104,1600022,,,2023-05-11,清算の結了等,,,2015-10-05,1,,,,,フィーモ,0
72,1011101007717,登記記録の閉鎖等,0,2023-05-12,2023-05-10,サクラアーバンネット株式会社,,株式会社,東京都,新宿区,大久保２丁目４番１２号,,13,104,1690072,,,2023-05-10,清算の結了等,,,2015-10-05,1,,,,,,0
88,1011301016179,登記記録の閉鎖等,0,2023-05-12,2023-05-02,株式会社第一アップキープ,,株式会社,東京都,杉並区,成田東４丁目３８番１７号,,13,115,1660015,,,2023-05-02,清算の結了等,,,2015-10-05,1,,,,,ダイイチアップキープ,0
93,1011602023766,登記記録の閉鎖等,0,2023-05-12,2023-05-08,有限会社アッセンブル,,有限会社,東京都,練馬区,豊玉北５丁目５番８号,,13,120,1760012,,,2023-05-08,清算の結了等,,,2015-10-05,1,,,,,アッセンブル,0
99,1011801003123,登記記録の閉鎖等,0,2023-05-12,2023-05-10,東京辛子粉株式会社,,株式会社,東京都,葛飾区,西亀有３丁目２３番１４号,,13,122,1250002,,,2023-05-10,清算の結了等,,,2015-10-05,1,,,,,トウキョウカラシコ,0
107,1012702001232,登記記録の閉鎖等,0,2023-05-12,2023-05-09,有限会社ティ・アアル・ケイ,,有限会社,東京都,小平市,上水南町３丁目４番２０号,,13,211,1870021,,,2023-05-09,清算の結了等,,,2015-10-05,1,,,,,ティアアルケイ,0
129,1030001071136,登記記録の閉鎖等,0,2023-05-12,2023-04-21,三栄商事株式会社,,株式会社,埼玉県,比企郡吉見町,東野４丁目２２番地６,,11,347,3550110,,,2023-04-21,清算の結了等,,,2015-10-05,1,,,,,サンエイショウジ,0
159,1060002033891,登記記録の閉鎖等,0,2023-05-12,2023-04-27,有限会社山井製作所,,有限会社,栃木県,栃木市,都賀町平川１６１番地１,,09,203,3280112,,,2023-04-27,清算の結了等,,,2015-10-05,1,,,,,ヤマイセイサクジョ,0
162,1070001034535,登記記録の閉鎖等,0,2023-05-12,2023-05-08,株式会社ＡＭＹ,,株式会社,群馬県,太田市,由良町１８７４番地２,,10,205,3730036,,,2023-05-08,清算の結了等,,,2018-04-02,1,,,,,アミ,0
182,1120001021965,登記記録の閉鎖等,0,2023-05-12,2023-05-10,山田鋲螺株式会社,,株式会社,大阪府,大阪市平野区,西脇１丁目１０番１６号,,27,126,5470035,,,2023-05-10,清算の結了等,,,2015-10-05,1,,,,,ヤマダビョウラ,0
186,1120001160301,登記記録の閉鎖等,0,2023-05-12,2023-05-10,総合美研株式会社,,株式会社,大阪府,門真市,四宮６丁目６番４号,,27,223,5710017,,,2023-05-10,清算の結了等,,,2015-10-05,1,,,,,ソウゴウビケン,0
227,1170002011102,登記記録の閉鎖等,0,2023-05-12,2023-05-09,有限会社オーマエ,,有限会社,和歌山県,新宮市,大橋通２丁目３番地の４,,30,207,6470004,,,2023-05-09,清算の結了等,,,2015-10-05,1,,,,,オーマエ,0
230,1180002005037,登記記録の閉鎖等,0,2023-05-12,2023-05-08,有限会社原田事務所,,有限会社,愛知県,名古屋市千種区,自由ケ丘１丁目１５番地１２,,23,101,4640044,,,2023-05-08,清算の結了等,,,2015-10-05,1,,,,,ハラダジムショ,0
238,1190001000780,登記記録の閉鎖等,0,2023-05-12,2023-05-01,株式会社七尾,,株式会社,三重県,津市,南中央２番１８号,,24,201,5140832,,,2023-05-01,合併による解散等,9190001000781,令和５年５月１日三重県津市南中央２番１８号七尾商事株式会社（9190001000781）に合併し解散,2015-10-05,1,,,,,ナナオ,0
316,1430002004657,登記記録の閉鎖等,0,2023-05-12,2023-04-25,有限会社カキザキ工業,,有限会社,北海道,札幌市東区,東苗穂五条３丁目７番３０－９０５号,,01,103,0070805,,,2023-04-25,清算の結了等,,,2015-10-05,1,,,,,カキザキコウギョウ,0
336,2010001033987,登記記録の閉鎖等,0,2023-05-12,2023-05-02,東京アンテーシヨン株式会社,,株式会社,東京都,世田谷区,北烏山９丁目１２番９号,,13,112,1570061,,,2023-05-02,清算の結了等,,,2015-10-05,1,,,,,トウキョウアンテーシヨン,0
340,2010001157927,登記記録の閉鎖等,0,2023-05-12,2023-05-01,株式会社ＴＴＳキャリア,,株式会社,福岡県,飯塚市,有安１０３９番地１,,40,205,8200111,,,2023-05-01,合併による解散等,8290001045958,令和５年５月１日福岡県飯塚市有井３３４番地１０株式会社ティーティーエス企画（8290001045958）に合併し解散,2015-10-05,1,,,,,ティーティーエスキャリア,0
364,2010405018213,登記記録の閉鎖等,0,2023-05-12,2023-05-01,一般社団法人川崎ベイ不販,,その他の設立登記法人,東京都,港区,元赤坂１丁目１番７号,,13,103,1070051,,,2023-05-01,清算の結了等,,,2019-10-30,1,,,,,カワサキベイフハン,0
365,2010405020367,登記記録の閉鎖等,0,2023-05-12,2023-05-11,特定非営利活動法人東京のＣＯ２削減で都内観光を推進する会,,その他の設立登記法人,東京都,中央区,銀座１丁目２２番１１号銀座大竹ビジデンス２階,,13,102,1040061,,,2023-05-11,清算の結了等,,,2021-11-04,1,,,,,トウキョウノシーオーツーサクゲンデトナイカンコウヲスイシンスルカイ,0
378,2010901038359,登記記録の閉鎖等,0,2023-05-12,2023-04-26,株式会社吉竹徹デザイン＆アソシエイツ,,株式会社,東京都,渋谷区,代官山町９番１０号ＳｏｄａＣＣｏ４Ｆ,,13,113,1500034,,,2023-04-26,清算の結了等,,,2016-06-28,1,,,,,ヨシタケトオルデザインアンドアソシエイツ,0
404,2011703002809,登記記録の閉鎖等,0,2023-05-12,2023-05-09,アルザス合同会社,,合同会社,東京都,江戸川区,東小岩３丁目７番１８号,,13,123,1330052,,,2023-05-09,清算の結了等,,,2021-04-01,1,,,,,アルザス,0
417,2020001008393,登記記録の閉鎖等,0,2023-05-12,2023-04-28,株式会社オリエントサービス,,株式会社,神奈川県,横浜市都筑区,牛久保西２丁目２６番３６号,,14,118,2240015,,,2023-04-28,合併による解散等,6020001030914,令和５年４月１日横浜市中区山下町２３番地横浜ビルシステム株式会社（6020001030914）に合併し解散,2015-10-05,1,,,,,オリエントサービス,0
429,2020003008433,登記記録の閉鎖等,0,2023-05-12,2023-05-01,合同会社テントメーカーズ,,合同会社,神奈川県,川崎市中原区,小杉陣屋町１丁目２２番５３号,,14,133,2110062,,,2023-05-01,清算の結了等,,,2015-10-05,1,,,,,テントメーカーズ,0
462,2060001003952,登記記録の閉鎖等,0,2023-05-12,2023-04-28,株式会社プロジェクトセンター,,株式会社,栃木県,宇都宮市,新町１丁目２番７号,,09,201,3200831,,,2023-04-28,清算の結了等,,,2015-10-05,1,,,,,プロジェクトセンター,0
464,2060001032365,登記記録の閉鎖等,0,2023-05-12,2023-04-27,株式会社令和,,株式会社,栃木県,大田原市,美原２丁目３１８０番地１ミハラ・ビル１０２,,09,210,3240047,,,2023-04-27,清算の結了等,,,2020-03-06,1,,,,,レイワ,0
466,2060002027884,登記記録の閉鎖等,0,2023-05-12,2023-04-28,有限会社上原鉄鋼,,有限会社,栃木県,小山市,大字間々田１３０４番地,,09,208,3290205,,,2023-04-28,清算の結了等,,,2015-10-05,1,,,,,ウエハラテッコウ,0
472,2080102016892,登記記録の閉鎖等,0,2023-05-12,2023-05-10,有限会社しろやまケミサプライ,,有限会社,静岡県,富士宮市,光町１番１９号,,22,207,4180054,,,2023-05-10,清算の結了等,,,2015-10-05,1,,,,,シロヤマケミサプライ,0
474,2090001007042,登記記録の閉鎖等,0,2023-05-12,2023-05-08,株式会社甲府水研,,株式会社,山梨県,甲府市,飯田２丁目１４番１５号,,19,201,4000035,,,2023-05-08,清算の結了等,,,2015-10-05,1,,,,,コウフスイケン,0
481,2110002031583,登記記録の閉鎖等,0,2023-05-12,2023-05-08,有限会社栗林鉄夫織物,,有限会社,新潟県,見附市,本町３丁目１１番４１号,,15,211,9540053,,,2023-05-08,清算の結了等,,,2015-10-05,1,,,,,クリバヤシテツオオリモノ,0
528,2170001004824,登記記録の閉鎖等,0,2023-05-12,2023-05-11,和興運送株式会社,,株式会社,和歌山県,和歌山市,西田井４３２－２,,30,201,6496335,,,2023-05-11,清算の結了等,,,2015-10-05,1,,,,,ワコウウンソウ,0
560,2240002043368,登記記録の閉鎖等,0,2023-05-12,2023-05-09,有限会社村上製パン所,,有限会社,広島県,福山市,鞆町後地１４３７番地,00001474,34,207,7200202,,,2023-05-09,清算の結了等,,,2015-10-05,1,,,,,ムラカミセイパンショ,0
570,2290001049915,登記記録の閉鎖等,0,2023-05-12,2023-04-28,株式会社コムレックス,,株式会社,福岡県,久留米市,東櫛原町２６３３番地１,00092598,40,203,8300003,,,2023-04-28,清算の結了等,,,2015-10-05,1,,,,,コムレックス,0
571,2290001055129,登記記録の閉鎖等,0,2023-05-12,2023-05-01,浮羽ボーリング設備株式会社,,株式会社,福岡県,うきは市,浮羽町東隈上３１０番地の１０,,40,225,8391403,,,2023-05-01,合併による解散等,4290001055275,令和５年５月１日福岡県うきは市浮羽町東隈上３１０番地の１０株式会社浮羽商会（4290001055275）に合併し解散,2015-10-05,1,,,,,ウキハボーリングセツビ,0
572,2290001058370,登記記録の閉鎖等,0,2023-05-12,2023-04-28,株式会社ＮＥＸＴ－ＮＥＯ,,株式会社,福岡県,筑紫野市,原田４丁目１４番地５,,40,217,8180024,,,2023-04-28,清算の結了等,,,2015-10-05,1,,,,,ネクストネオ,0
604,2380001029552,登記記録の閉鎖等,0,2023-05-12,2023-05-08,株式会社東白川ファーム,,株式会社,福島県,東白川郡矢祭町,大字上関河内字馬渡戸４１番地９,,07,482,9635115,,,2023-05-08,合併による解散等,3200002026342,令和５年５月１日岐阜県高山市丹生川町折敷地字鍋トコ１０６８番地株式会社ロッセ農場（3200002026342）に合併し解散,2018-11-07,1,,,,,ヒガシシラカワファーム,0
609,2380002030352,登記記録の閉鎖等,0,2023-05-12,2023-05-09,有限会社光建設,,有限会社,福島県,双葉郡富岡町,大字上手岡字杉内７１番地,,07,543,9791141,,,2023-05-09,合併による解散等,7380001016711,令和５年５月１日福島県双葉郡富岡町大字上郡山字関名古１４４番地６株式会社丸東（7380001016711）に合併し解散,2015-10-05,1,,,,,ヒカリケンセツ,0
629,2430001078247,登記記録の閉鎖等,0,2023-05-12,2023-05-01,三共水産株式会社,,株式会社,北海道,札幌市中央区,北十四条西１８丁目１番１８号ＳＳＦ５７ビル,,01,101,0600014,,,2023-05-01,合併による解散等,4430001019942,令和５年５月１日札幌市中央区北十四条西十八丁目１番１８号ＳＳＦ５７ビル札幌シーフーズ株式会社（4430001019942）に合併し解散,2019-02-06,1,,,,,サンキョウスイサン,0
638,2460001001305,登記記録の閉鎖等,0,2023-05-12,2023-05-10,日通釧路運輸株式会社,,株式会社,北海道,釧路市,西港１丁目１００番地３２,,01,206,0840914,,,2023-05-10,清算の結了等,,,2015-10-05,1,,,,,ニッツウクシロウンユ,0
661,3010001205065,登記記録の閉鎖等,0,2023-05-12,2023-05-02,株式会社ＹＡＮＮ,,株式会社,東京都,千代田区,神田淡路町１丁目９番地７岡本ビル５階,,13,101,1010063,,,2023-05-02,清算の結了等,,,2019-11-06,1,,,,,ヤン,0
685,3010602012562,登記記録の閉鎖等,0,2023-05-12,2023-05-09,有限会社東伍商会,,有限会社,東京都,墨田区,太平２丁目１２番１０号,,13,107,1300012,,,2023-05-09,清算の結了等,,,2015-10-05,1,,,,,トウゴショウカイ,0
692,3010802000912,登記記録の閉鎖等,0,2023-05-12,2023-04-28,有限会社アルプス工機,,有限会社,東京都,大田区,北馬込１丁目１０番９号,,13,111,1430021,,,2023-04-28,清算の結了等,,,2015-10-05,1,,,,,,0
707,3011001094399,登記記録の閉鎖等,0,2023-05-12,2023-04-17,株式会社Ｐｒｏｊｅｃｔｒｅｅ,,株式会社,東京都,港区,東麻布２丁目２１番７号,,13,103,1060044,,,2023-04-17,清算の結了等,,,2015-10-05,1,,,,,プロジェクトリー,0
732,3011801021858,登記記録の閉鎖等,0,2023-05-12,2023-05-08,株式会社リルバジャパン,,株式会社,東京都,足立区,西伊興３丁目２番４号,,13,121,1210824,,,2023-05-08,清算の結了等,,,2015-10-05,1,,,,,リルバジャパン,0
735,3012301008313,登記記録の閉鎖等,0,2023-05-12,2023-05-01,株式会社マネジメント・サポート,,株式会社,東京都,町田市,能ヶ谷２丁目１８番７号,,13,209,1950053,,,2023-05-01,清算の結了等,,,2015-10-05,1,,,,,マネジメントサポート,0
741,3013101005335,登記記録の閉鎖等,0,2023-05-12,2023-05-10,株式会社アイディーフォックス,,株式会社,東京都,福生市,武蔵野台２丁目３４番地３８ＭＡＣ武蔵野台コート４０３号室,,13,218,1970013,,,2023-05-10,清算の結了等,,,2015-10-05,1,,,,,,0
742,3013301002933,登記記録の閉鎖等,0,2023-05-12,2023-05-08,株式会社グロワール,,株式会社,東京都,豊島区,南長崎２丁目３番１４号,,13,116,1710052,,,2023-05-08,清算の結了等,,,2015-10-05,1,,,,,グロワール,0
747,3020001118068,登記記録の閉鎖等,0,2023-05-12,2023-05-01,株式会社アイザワ,,株式会社,神奈川県,横浜市神奈川区,斎藤分町２６番１８号シティハイムシーガル１０１号室,,14,102,2210811,,,2023-05-01,清算の結了等,,,2016-10-05,1,,,,,アイザワ,0
755,3021001037258,登記記録の閉鎖等,0,2023-05-12,2023-05-08,株式会社平形工務店,,株式会社,神奈川県,平塚市,豊原町２１番８号,,14,203,2540051,,,2023-05-08,清算の結了等,,,2015-10-05,1,,,,,ヒラカタコウムテン,0
774,3030002053503,登記記録の閉鎖等,0,2023-05-12,2023-04-21,有限会社勝崎計装,00016758,有限会社,埼玉県,上尾市,柏座１丁目１０番３－１２号,,11,219,3620075,,,2023-04-21,清算の結了等,,,2015-10-05,1,,,,,カツサキケイソウ,0
776,3030003008357,登記記録の閉鎖等,0,2023-05-12,2023-04-14,合同会社ＹＵ－ＬＡＴ,,合同会社,埼玉県,草加市,瀬崎７丁目２５番１号,,11,221,3400022,,,2023-04-14,清算の結了等,,,2016-01-25,1,,,,,ユーラット,0
781,3040001023084,登記記録の閉鎖等,0,2023-05-12,2023-04-21,株式会社オレンジ,,株式会社,千葉県,八千代市,米本２２０８番地７５－２街区１２６号,,12,221,2760015,,,2023-04-21,清算の結了等,,,2015-10-05,1,,,,,オレンジ,0
782,3040001083979,登記記録の閉鎖等,0,2023-05-12,2023-04-20,株式会社ＨＳＫ,,株式会社,千葉県,市原市,姉崎西２丁目５番地２ハイブリット藤幸２０２号,,12,219,2990119,,,2023-04-20,清算の結了等,,,2015-10-05,1,,,,,エイチエスケイ,0
799,3070001007794,登記記録の閉鎖等,0,2023-05-12,2023-05-09,東昇商事株式会社,,株式会社,群馬県,高崎市,片岡町３丁目２２１７番地,,10,202,3700862,,,2023-05-09,清算の結了等,,,2015-10-05,1,,,,,トウショウショウジ,0
806,3080401012336,登記記録の閉鎖等,0,2023-05-12,2023-05-10,株式会社クレアシオン,,株式会社,静岡県,浜松市中区,元城町２１９番地の１６,,22,131,4300946,,,2023-05-10,清算の結了等,,,2015-10-05,1,,,,,クレアシオン,0
814,3120001102730,登記記録の閉鎖等,0,2023-05-12,2023-05-10,株式会社桑原産業,,株式会社,大阪府,大阪市平野区,加美北９丁目６番１号,,27,126,5470001,,,2023-05-10,清算の結了等,,,2015-10-05,1,,,,,クワハラサンギョウ,0
816,3120001163046,登記記録の閉鎖等,0,2023-05-12,2023-05-09,株式会社ＫＥＮＺ,,株式会社,兵庫県,西宮市,甲陽園目神山町１７番４７号,,28,204,6620011,,,2023-05-09,合併による解散等,6120001175113,令和５年５月１日兵庫県芦屋市六麓荘町１７番２２号株式会社Ｔ．Ｔ（6120001175113）に合併し解散,2015-10-05,1,,,,,ケンズ,0
832,3120902019486,登記記録の閉鎖等,0,2023-05-12,2023-05-08,有限会社東豊中ローズハイツ,,有限会社,大阪府,豊中市,東豊中町５丁目９番５号,,27,203,5600003,,,2023-05-08,清算の結了等,,,2015-10-05,1,,,,,ヒガシトヨナカローズハイツ,0
860,3180001149709,登記記録の閉鎖等,0,2023-05-12,2023-05-09,サンクエスト株式会社,,株式会社,愛知県,清須市,東須ケ口３２番地,,23,233,4520904,,,2023-05-09,清算の結了等,,,2022-01-24,1,,,,,サンクエスト,0
864,3180002085770,登記記録の閉鎖等,0,2023-05-12,2023-05-08,有限会社岩橋畜産,,有限会社,愛知県,知多郡武豊町,字緑台６丁目５６番地,,23,447,4702386,,,2023-05-08,清算の結了等,,,2015-10-05,1,,,,,イワハシチクサン,0
866,3180003017525,登記記録の閉鎖等,0,2023-05-12,2023-05-09,合同会社アドテック,,合同会社,愛知県,津島市,百島町字献上１１番地２アネックス津島２０１号,,23,208,4960019,,,2023-05-09,清算の結了等,,,2016-11-22,1,,,,,アドテック,0
889,3220005008419,登記記録の閉鎖等,0,2023-05-12,2023-05-10,特定非営利活動法人実践人金澤つくよみ塾,,その他の設立登記法人,石川県,河北郡津幡町,字潟端４１５番地９,,17,361,9290346,,,2023-05-10,清算の結了等,,,2019-11-27,1,,,,,ジッセンジンカナザワツクヨミジュク,0
916,3330002001811,登記記録の閉鎖等,0,2023-05-12,2023-05-08,有限会社織方電設,,有限会社,熊本県,熊本市南区,御幸木部３丁目１８番６号,,43,104,8614173,,,2023-05-08,清算の結了等,,,2015-10-05,1,,,,,,0
917,3330003008062,登記記録の閉鎖等,0,2023-05-12,2023-05-02,合同会社平成エム,,合同会社,熊本県,熊本市中央区,本山３丁目１番２５号３Ｆ,,43,101,8600821,,,2023-05-02,清算の結了等,,,2019-09-04,1,,,,,ヘイセイエム,0
929,3370001047166,登記記録の閉鎖等,0,2023-05-12,2023-05-08,株式会社宮城,,株式会社,宮城県,名取市,愛の杜１丁目９番地の１０,,04,207,9811230,,,2023-05-08,清算の結了等,,,2021-06-02,1,,,,,ミヤギ,0
932,3370002002070,登記記録の閉鎖等,0,2023-05-12,2023-05-01,有限会社日泉コーポレーション,,有限会社,宮城県,仙台市泉区,泉中央３丁目２７番地３,,04,105,9813133,,,2023-05-01,合併による解散等,7370002000748,令和５年５月１日仙台市泉区泉中央三丁目２７番地３株式会社弘商（7370002000748）に合併し解散,2015-10-05,1,,,,,ニッセンコーポレーション,0
960,4010001133331,登記記録の閉鎖等,0,2023-05-12,2023-05-01,トムカモアソシエーツ株式会社,,株式会社,東京都,文京区,千駄木３丁目１番１５号,,13,105,1130022,,,2023-05-01,清算の結了等,,,2015-10-05,1,,,,,トムカモアソシエーツ,0
961,4010001146052,登記記録の閉鎖等,0,2023-05-12,2023-05-10,株式会社ＩＦＴＥＣ,,株式会社,大阪府,大阪市浪速区,湊町２丁目１番５７号,,27,111,5560017,,,2023-05-10,清算の結了等,,,2015-10-05,1,,,,,イフテック,0
965,4010001155730,登記記録の閉鎖等,0,2023-05-12,2023-05-01,Ｗａｌｕｃｋｓ株式会社,,株式会社,東京都,千代田区,丸の内１丁目８番３号丸の内トラストタワー本館２０階,,13,101,1000005,,,2023-05-01,清算の結了等,,,2015-10-05,1,,,,,,0
969,4010001193086,登記記録の閉鎖等,0,2023-05-12,2023-05-01,カフベンテック株式会社,,株式会社,東京都,文京区,本郷３丁目４２番５号,,13,105,1130033,,,2023-05-01,合併による解散等,2011001097353,令和５年５月１日東京都文京区湯島三丁目３１番１号中川ビル４０１号室エム・エフコンサルタント株式会社（2011001097353）に合併し解散,2018-07-04,1,,,,,カフベンテック,0
995,4010401162616,登記記録の閉鎖等,0,2023-05-12,2023-04-28,株式会社ＵＭＵ,,株式会社,東京都,江戸川区,新堀２丁目３０番１２号,,13,123,1320001,,,2023-04-28,合併による解散等,6290001059662,令和５年４月２８日東京都江戸川区新堀二丁目３０番１２号株式会社ウーミスト（6290001059662）に合併し解散,2021-09-09,1,,,,,ウーム,0
1035,4011401020433,登記記録の閉鎖等,0,2023-05-12,2023-05-10,株式会社ライフワーク,,株式会社,東京都,板橋区,赤塚６丁目３６番１８号,,13,119,1750092,,,2023-05-10,清算の結了等,,,2017-07-27,1,,,,,,0
1037,4011703000810,登記記録の閉鎖等,0,2023-05-12,2023-05-09,合同会社ヴァロール,,合同会社,東京都,江戸川区,東小岩３丁目７番１８号,,13,123,1330052,,,2023-05-09,清算の結了等,,,2015-10-05,1,,,,,ヴァロール,0
1047,4013102006595,登記記録の閉鎖等,0,2023-05-12,2023-05-10,有限会社バイテック,,有限会社,東京都,青梅市,今井１丁目２４２番地,,13,205,1980023,,,2023-05-10,清算の結了等,,,2015-10-05,1,,,,,バイテック,0
1065,4030001050327,登記記録の閉鎖等,0,2023-05-12,2023-05-10,株式会社なります,,株式会社,埼玉県,朝霞市,膝折町４丁目１５番４９号,,11,227,3510014,,,2023-05-10,合併による解散等,7011401005308,令和５年５月１日東京都板橋区成増一丁目１６番１２号林屋コンクリート工業株式会社（7011401005308）に合併し解散,2015-10-05,1,,,,,ナリマス,0
1068,4030001096618,登記記録の閉鎖等,0,2023-05-12,2023-04-21,株式会社アライコーポレーション,,株式会社,埼玉県,富士見市,関沢２丁目２６番５１号,,11,235,3540025,,,2023-04-21,清算の結了等,,,2015-10-05,1,,,,,アライコーポレーション,0
1076,4040001043478,登記記録の閉鎖等,0,2023-05-12,2023-04-19,ポストテクノロジー株式会社,,株式会社,千葉県,富里市,日吉台６丁目２６番地１６,,12,233,2860201,,,2023-04-19,清算の結了等,,,2015-10-05,1,,,,,ポストテクノロジー,0
1091,4070001007298,登記記録の閉鎖等,0,2023-05-12,2023-05-10,伸和工業株式会社,,株式会社,群馬県,高崎市,剣崎町３５番地の２,,10,202,3700883,,,2023-05-10,清算の結了等,,,2015-10-05,1,,,,,シンワコウギョウ,0
1093,4070002019193,登記記録の閉鎖等,0,2023-05-12,2023-05-02,有限会社諏訪製作所,,有限会社,群馬県,伊勢崎市,上植木本町２２９９番地２,,10,204,3720013,,,2023-05-02,清算の結了等,,,2015-10-05,1,,,,,スワセイサクジョ,0
1095,4080001025373,登記記録の閉鎖等,0,2023-05-12,2023-05-08,新静岡開発株式会社,,株式会社,静岡県,静岡市葵区,御幸町１０番地の１,,22,101,4200857,,,2023-05-08,清算の結了等,,,2023-01-11,1,,,,,シンシズオカカイハツ,0
1107,4110002012045,登記記録の閉鎖等,0,2023-05-12,2023-05-09,有限会社エフ・コトー,,有限会社,新潟県,新潟市江南区,天野１丁目１番１８号,,15,104,9501134,,,2023-05-09,清算の結了等,,,2015-10-05,1,,,,,エフコトー,0
1150,4150001012380,登記記録の閉鎖等,0,2023-05-12,2023-05-09,イワキ木材株式会社,,株式会社,奈良県,葛城市,竹内１８５番地,,29,211,6392155,,,2023-05-09,清算の結了等,,,2015-10-05,1,,,,,イワキモクザイ,0
1164,4180003022755,登記記録の閉鎖等,0,2023-05-12,2023-05-08,合同会社ＳＯＲＡ,,合同会社,愛知県,名古屋市天白区,梅が丘２丁目６３８番地,,23,116,4680004,,,2023-05-08,清算の結了等,,,2021-07-20,1,,,,,ソラ,0
1172,4190001014019,登記記録の閉鎖等,0,2023-05-12,2023-05-08,株式会社ひさ代ファーム,,株式会社,三重県,いなべ市,北勢町北中津原９０番地,,24,214,5110422,,,2023-05-08,清算の結了等,,,2015-10-05,1,,,,,ヒサヨファーム,0
1173,4190001020149,登記記録の閉鎖等,0,2023-05-12,2023-05-01,株式会社村田建築,,株式会社,三重県,桑名市,大字立田町１４３番地,,24,205,5110842,,,2023-05-01,清算の結了等,,,2015-10-05,1,,,,,ムラタケンチク,0
1180,4220001017109,登記記録の閉鎖等,0,2023-05-12,2023-05-08,とり農園株式会社,,株式会社,石川県,かほく市,高松乙２番地９６,,17,209,9291215,,,2023-05-08,清算の結了等,,,2015-10-05,1,,,,,トリノウエン,0
1215,4350003000933,登記記録の閉鎖等,0,2023-05-12,2023-04-20,合資会社金丸水産,,合資会社,宮崎県,東臼杵郡門川町,中須５丁目１６番地,,45,421,8890612,,,2023-04-20,清算の結了等,,,2015-10-05,1,,,,,カネマルスイサン,0
1264,5010001028282,登記記録の閉鎖等,0,2023-05-12,2023-05-01,株式会社三源社,,株式会社,東京都,千代田区,神田神保町１丁目１２番地,,13,101,1010051,,,2023-05-01,清算の結了等,,,2015-10-05,1,,,,,サンゲンシャ,0
1265,5010001039593,登記記録の閉鎖等,0,2023-05-12,2023-05-01,株式会社オフィス・ウーノ,,株式会社,東京都,中央区,銀座５丁目５番１７号,,13,102,1040061,,,2023-05-01,清算の結了等,,,2015-10-05,1,,,,,オフィスウーノ,0
1312,5010901008755,登記記録の閉鎖等,0,2023-05-12,2023-05-09,株式会社中島運送,,株式会社,東京都,世田谷区,上用賀３丁目１番１９号,,13,112,1580098,,,2023-05-09,合併による解散等,7040001023072,令和５年４月１日東京都中央区日本橋一丁目１番１号国分ロジスティクス株式会社（7040001023072）に合併し解散,2015-10-05,1,,,,,ナカジマウンソウ,0
1333,5011102011292,登記記録の閉鎖等,0,2023-05-12,2023-05-10,有限会社プランニングオフィス,,有限会社,東京都,新宿区,新宿１丁目２９番７号＿瀬ビル２０１号室,00054009,13,104,1600022,,,2023-05-10,清算の結了等,,,2015-10-05,1,,,,,プランニングオフィス,0
1340,5011501006216,登記記録の閉鎖等,0,2023-05-12,2023-04-21,株式会社クリスエンジニアリング,,株式会社,埼玉県,川口市,西青木５丁目１番４２－７０３号,,11,203,3320035,,,2023-04-21,清算の結了等,,,2015-10-05,1,,,,,クリスエンジニアリング,0
1343,5011602003211,登記記録の閉鎖等,0,2023-05-12,2023-05-08,有限会社クリエイト,,有限会社,東京都,練馬区,西大泉４丁目７番７号,,13,120,1780065,,,2023-05-08,清算の結了等,,,2015-10-05,1,,,,,,0
1344,5011701006379,登記記録の閉鎖等,0,2023-05-12,2023-05-09,株式会社ハイス工芸,,株式会社,東京都,江戸川区,松江７丁目２７番２４号,,13,123,1320025,,,2023-05-09,清算の結了等,,,2015-10-05,1,,,,,ハイスコウゲイ,0
1347,5011702004869,登記記録の閉鎖等,0,2023-05-12,2023-05-09,有限会社三進運輸機工,,有限会社,東京都,江戸川区,東小岩１丁目１６番２号,,13,123,1330052,,,2023-05-09,清算の結了等,,,2015-10-05,1,,,,,サンシンウンユキコウ,0
1358,5013101000292,登記記録の閉鎖等,0,2023-05-12,2023-05-11,株式会社ニツトー,,株式会社,東京都,福生市,大字熊川１４１４番地５９,,13,218,1970003,,,2023-05-11,清算の結了等,,,2015-10-05,1,,,,,,0
1394,5030003010105,登記記録の閉鎖等,0,2023-05-12,2023-04-18,合同会社あかり,,合同会社,埼玉県,加須市,中ノ目４９８番地,,11,210,3470124,,,2023-04-18,清算の結了等,,,2017-03-28,1,,,,,アカリ,0
1414,5060001015714,登記記録の閉鎖等,0,2023-05-12,2023-04-28,日本エルシス株式会社,,株式会社,栃木県,小山市,東間々田２丁目１８番３５号,,09,208,3290206,,,2023-04-28,清算の結了等,,,2015-10-05,1,,,,,ニホンエルシス,0
1420,5080005004315,登記記録の閉鎖等,0,2023-05-12,2023-05-10,一般社団法人ＪＳＭ日本セラピスト養成リンパ検定協会,,その他の設立登記法人,静岡県,静岡市清水区,由比阿僧３６７番地の１,,22,103,4213107,,,2023-05-10,清算の結了等,,,2015-10-05,1,,,,,ジェイエスエムニホンセラピストヨウセイリンパケンテイキョウカイ,0
1440,5120001236246,登記記録の閉鎖等,0,2023-05-12,2023-05-08,邦宝株式会社,,株式会社,東京都,世田谷区,上北沢４丁目９番１号松原荘２－Ｅ,,13,112,1560057,,,2023-05-08,清算の結了等,,,2021-03-26,1,,,,,ホウボウ,0
1445,5120002000725,登記記録の閉鎖等,0,2023-05-12,2023-05-10,有限会社宮崎酒店,,有限会社,大阪府,大阪市旭区,新森２丁目４番２２号,,27,117,5350022,,,2023-05-10,清算の結了等,,,2015-10-05,1,,,,,ミヤザキサケテン,0
1451,5122001019052,登記記録の閉鎖等,0,2023-05-12,2023-05-02,株式会社橘紙工所,,株式会社,大阪府,八尾市,恩智中町２丁目１８７番地,,27,212,5810883,,,2023-05-02,清算の結了等,,,2015-10-05,1,,,,,タチバナシコウショ,0
1459,5130002003446,登記記録の閉鎖等,0,2023-05-12,2023-05-08,有限会社エレク,,有限会社,京都府,京都市右京区,太秦垣内町３番地９３,,26,108,6168121,,,2023-05-08,清算の結了等,,,2015-10-05,1,,,,,エレク,0
1471,5150001025290,登記記録の閉鎖等,0,2023-05-12,2023-05-08,株式会社ＧＥＯＣＯＲＥ,,株式会社,奈良県,奈良市,京終地方東側町４番地の７ローレルコート奈良南６０６号,,29,201,6308323,,,2023-05-08,清算の結了等,,,2022-01-28,1,,,,,ジーイーオーコア,0
1505,5240002005464,登記記録の閉鎖等,0,2023-05-12,2023-05-09,有限会社池田建設,,有限会社,広島県,広島市南区,宇品東２丁目６番１４号,,34,103,7340003,,,2023-05-09,清算の結了等,,,2015-10-05,1,,,,,イケダケンセツ,0
1586,6010001150738,登記記録の閉鎖等,0,2023-05-12,2023-05-09,株式会社ムーブマインドコーポレーション,,株式会社,東京都,豊島区,高田１丁目３４番１２号,,13,116,1710033,,,2023-05-09,清算の結了等,,,2015-10-05,1,,,,,ムーブマインドコーポレーション,0
1590,6010001228559,登記記録の閉鎖等,0,2023-05-12,2023-05-08,株式会社コアオプトテクノロジー,,株式会社,福島県,郡山市,駅前２丁目３番７号,,07,203,9638002,,,2023-05-08,清算の結了等,,,2022-08-03,1,,,,,コアオプトテクノロジー,0
1600,6010401013726,登記記録の閉鎖等,0,2023-05-12,2023-04-19,シュウコーエンジニアリング株式会社,,株式会社,千葉県,千葉市緑区,あすみが丘東２丁目１８０９番地３０,,12,105,2670067,,,2023-04-19,清算の結了等,,,2015-10-05,1,,,,,シュウコーエンジニアリング,0
1606,6010401129720,登記記録の閉鎖等,0,2023-05-12,2023-05-01,株式会社イシン・シンサイバシ・オペレーションズ,,株式会社,東京都,中央区,銀座１丁目２番３号,,13,102,1040061,,,2023-05-01,清算の結了等,,,2017-02-16,1,,,,,イシンシンサイバシオペレーションズ,0
1620,6010701037367,登記記録の閉鎖等,0,2023-05-12,2023-04-26,株式会社ＦＰＶ　ＳＴＵＤＩＯ,,株式会社,東京都,品川区,西五反田１丁目２９番５号,,13,109,1410031,,,2023-04-26,清算の結了等,,,2019-04-05,1,,,,,エフピーヴィースタジオ,0
1621,6010705001014,登記記録の閉鎖等,0,2023-05-12,2023-04-25,特定非営利活動法人日本エコツーリズム協会,,その他の設立登記法人,東京都,品川区,上大崎２丁目２４－９,,13,109,1410021,,,2023-04-25,清算の結了等,,,2015-10-05,1,,,,,ニホンエコツーリズムキョウカイ,0
1648,6011302000292,登記記録の閉鎖等,0,2023-05-12,2023-05-02,有限会社アールエンジニアリング,,有限会社,東京都,杉並区,下井草２丁目１８番１号,,13,115,1670022,,,2023-05-02,清算の結了等,,,2015-10-05,1,,,,,アールエンジニアリング,0
1663,6012801020509,登記記録の閉鎖等,0,2023-05-12,2023-05-10,株式会社谷造,,株式会社,東京都,国立市,西２丁目１２番地の１３－３０１,,13,215,1860005,,,2023-05-10,清算の結了等,,,2020-12-04,1,,,,,タニゾウ,0
1671,6020001118445,登記記録の閉鎖等,0,2023-05-12,2023-05-08,ＪＴクラウドシステム株式会社,,株式会社,神奈川県,横浜市港北区,新横浜２丁目６番地３,,14,109,2220033,,,2023-05-08,合併による解散等,4020001116450,令和５年５月１日神奈川県横浜市青葉区つつじが丘１１番地２株式会社無芸塾（4020001116450）に合併し解散,2016-11-01,1,,,,,ジェイティークラウドシステム,0
1747,6120002055165,登記記録の閉鎖等,0,2023-05-12,2023-05-09,有限会社エルムグリーン,,有限会社,大阪府,大阪市北区,鶴野町４番Ａ－３２６号,,27,127,5300014,,,2023-05-09,清算の結了等,,,2015-10-05,1,,,,,エルムグリーン,0
1759,6120902012892,登記記録の閉鎖等,0,2023-05-12,2023-05-02,有限会社ビーエステクノ,,有限会社,京都府,京都市左京区,岡崎法勝寺町７２－５,,26,103,6068333,,,2023-05-02,清算の結了等,,,2015-10-05,1,,,,,ビーエステクノ,0
1760,6120905000267,登記記録の閉鎖等,0,2023-05-12,2023-05-09,医療法人中島クリニック,,その他の設立登記法人,大阪府,高槻市,塚原１丁目１２番１－６０３号,,27,207,5691046,,,2023-05-09,清算の結了等,,,2015-10-05,1,,,,,ナカシマクリニック,0
1763,6130001032073,登記記録の閉鎖等,0,2023-05-12,2023-05-09,Ｔ．Ｎ．Ｇ．テクノロジーズ株式会社,,株式会社,京都府,京都市下京区,西中筋通六条下る住吉町５０番地井筒左女牛ビル,,26,106,6008468,,,2023-05-09,清算の結了等,,,2015-10-05,1,,,,,ティエヌジィテクノロジーズ,0
1764,6130001051180,登記記録の閉鎖等,0,2023-05-12,2023-05-02,トーシマ建設株式会社,,株式会社,京都府,八幡市,西山足立７番地３,,26,210,6148351,,,2023-05-02,清算の結了等,,,2015-10-05,1,,,,,トーシマケンセツ,0
1789,6180001121953,登記記録の閉鎖等,0,2023-05-12,2023-05-01,株式会社ティーケージープレシジョン,,株式会社,愛知県,名古屋市中区,錦３丁目７番１９号,,23,106,4600003,,,2023-05-01,合併による解散等,9180001037742,令和５年５月１日名古屋市中区錦三丁目７番１９号株式会社タカギスチール（9180001037742）に合併し解散,2016-02-01,1,,,,,ティーケージープレシジョン,0
1799,6180005007050,登記記録の閉鎖等,0,2023-05-12,2023-05-10,特定非営利活動法人下小田井地区防犯協会,,その他の設立登記法人,愛知県,清須市,西枇杷島町小田井２丁目９番地１１,,23,233,4520021,,,2023-05-10,清算の結了等,,,2015-10-05,1,,,,,シモオタイチクボウハンキョウカイ,0
1805,6180301030243,登記記録の閉鎖等,0,2023-05-12,2023-05-02,株式会社ＭＡ　Ｊｏｌｉｅ,,株式会社,愛知県,豊橋市,前田南町１丁目１番地の３タワーレジデンスアネックスＩ１－Ｃ,00116065,23,201,4400851,,,2023-05-02,清算の結了等,,,2017-04-19,1,,,,,マジョリー,0
1814,6190005011241,登記記録の閉鎖等,0,2023-05-12,2023-05-08,上野市新居農業會,,その他の設立登記法人,三重県,伊賀市,西高倉３７８３番地,,24,216,5180025,,,2023-05-08,清算の結了等,,,2018-11-05,1,,,,,ウエノシニイノウギョウカイ,0
1832,6240002032152,登記記録の閉鎖等,0,2023-05-12,2023-05-09,有限会社井川コンピュータ会計,,有限会社,広島県,呉市,和庄登町１９番６号,,34,202,7370043,,,2023-05-09,清算の結了等,,,2015-10-05,1,,,,,イガワコンピュータカイケイ,0
1835,6260001010520,登記記録の閉鎖等,0,2023-05-12,2023-05-10,株式会社ＨＫＳ企画,,株式会社,岡山県,岡山市北区,大供１丁目２番２３号,,33,101,7000913,,,2023-05-10,清算の結了等,,,2015-10-05,1,,,,,エイチケイエスキカク,0
1875,6410005004610,登記記録の閉鎖等,0,2023-05-12,2023-05-08,農事組合法人上淀川近代化施設利用組合,,その他の設立登記法人,秋田県,大仙市,協和上淀川字上淀川３５番地,,05,212,0192413,,,2023-05-08,清算の結了等,,,2015-10-05,1,,,,,,0
1912,7010001137635,登記記録の閉鎖等,0,2023-05-12,2023-04-28,株式会社ハニーエンタープライズ,,株式会社,東京都,千代田区,神田須田町１丁目３番地１須田町ビル７階,,13,101,1010041,,,2023-04-28,合併による解散等,7010001116151,令和５年４月２８日東京都千代田区神田須田町一丁目３番地１須田町ビル７階株式会社Ｓ．Ｐ．Ａ（7010001116151）に合併し解散,2015-10-05,1,,,,,ハニーエンタープライズ,0
1916,7010001192589,登記記録の閉鎖等,0,2023-05-12,2023-05-01,株式会社ＴＢジャパン,,株式会社,東京都,中央区,日本橋蛎殻町１丁目５番６号,,13,102,1030014,,,2023-05-01,合併による解散等,2010401066843,令和５年５月１日東京都中央区日本橋蛎殻町一丁目５番６号株式会社ＪＦＬＡホールディングス（2010401066843）に合併し解散,2018-06-15,1,,,,,ティービージャパン,0
1921,7010002012192,登記記録の閉鎖等,0,2023-05-12,2023-05-11,有限会社滝沢流通システム開発,,有限会社,東京都,江戸川区,西小岩２丁目１３番２０号,,13,123,1330057,,,2023-05-11,清算の結了等,,,2015-10-05,1,,,,,,0
1941,7010701038686,登記記録の閉鎖等,0,2023-05-12,2023-04-26,株式会社Ｆｉｎａｌｉｔｙ　Ｔｅｃｈｎｏｌｏｇｉｅｓ,,株式会社,東京都,品川区,西五反田１丁目２９番５号,,13,109,1410031,,,2023-04-26,清算の結了等,,,2019-12-25,1,,,,,ファイナリティテクノロジーズ,0
1944,7010901047660,登記記録の閉鎖等,0,2023-05-12,2023-04-28,ＮＴＣアセット株式会社,,株式会社,東京都,中央区,日本橋兜町５番１号兜町第１平和ビル７階レコルテ内,,13,102,1030026,,,2023-04-28,清算の結了等,,,2020-12-18,1,,,,,エヌティーシーアセット,0
1962,7011101094444,登記記録の閉鎖等,0,2023-05-12,2023-05-10,株式会社理想社欧友社,,株式会社,東京都,新宿区,北町４１番地,,13,104,1620834,,,2023-05-10,合併による解散等,4011103010815,令和５年５月１０日東京都新宿区新小川町９番２１号合同会社関越理想社（4011103010815）に合併し解散,2021-03-19,1,,,,,リソウシャオウユウシャ,0
1981,7012801018015,登記記録の閉鎖等,0,2023-05-12,2023-04-28,株式会社ホリタナ,,株式会社,東京都,中央区,築地７丁目３番地の１０パークホームズ築地グリーンサイド２０１号室,,13,102,1040045,,,2023-04-28,清算の結了等,,,2017-05-19,1,,,,,ホリタナ,0
1983,7013101005208,登記記録の閉鎖等,0,2023-05-12,2023-05-01,株式会社ヤマテック,,株式会社,東京都,西多摩郡瑞穂町,箱根ケ崎東松原６番地８,,13,303,1901222,,,2023-05-01,合併による解散等,4013101007719,令和５年５月１日東京都西多摩郡瑞穂町箱根ケ崎東松原６番地８株式会社ＫＡＩテック（4013101007719）に合併し解散,2015-10-05,1,,,,,ヤマテック,0
1984,7013301043511,登記記録の閉鎖等,0,2023-05-12,2023-05-08,サンキュー株式会社,,株式会社,東京都,豊島区,池袋２丁目６８番１０号池袋ダイカンプラザ７０９号室,,13,116,1710014,,,2023-05-08,清算の結了等,,,2019-02-26,1,,,,,サンキュー,0
2012,7030002061601,登記記録の閉鎖等,0,2023-05-12,2023-04-21,有限会社スドウ,,有限会社,埼玉県,新座市,石神３丁目４番１７号,,11,230,3520033,,,2023-04-21,清算の結了等,,,2015-10-05,1,,,,,スドウ,0
2062,7120001062021,登記記録の閉鎖等,0,2023-05-12,2023-05-11,小田縫製株式会社,,株式会社,大阪府,大阪市北区,本庄東２丁目１２番３号,,27,127,5310074,,,2023-05-11,清算の結了等,,,2015-10-05,1,,,,,オダホウセイ,0
2069,7120001147193,登記記録の閉鎖等,0,2023-05-12,2023-05-08,株式会社藤工務店,,株式会社,大阪府,交野市,郡津５丁目２番２号,,27,230,5760053,,,2023-05-08,清算の結了等,,,2022-12-16,1,,,,,フジコウムテン,0
2115,7180001104049,登記記録の閉鎖等,0,2023-05-12,2023-05-08,株式会社オオハシ,,株式会社,愛知県,名古屋市南区,松池町２丁目１２番地の３,,23,112,4570046,,,2023-05-08,清算の結了等,,,2015-10-05,1,,,,,オオハシ,0
2129,7190002018981,登記記録の閉鎖等,0,2023-05-12,2023-05-02,有限会社アイルコンサルタンツ,,有限会社,三重県,四日市市,羽津中２丁目４番６号,,24,202,5100002,,,2023-05-02,清算の結了等,,,2015-10-05,1,,,,,,0
2173,7410001009331,登記記録の閉鎖等,0,2023-05-12,2023-05-01,株式会社畠山,,株式会社,秋田県,横手市,金沢本町字荒町４７番地,,05,203,0130812,,,2023-05-01,清算の結了等,,,2015-10-05,1,,,,,ハタケヤマ,0
2182,7430003010095,登記記録の閉鎖等,0,2023-05-12,2023-04-25,合同会社Ｈアンド・Ｓ,,合同会社,北海道,札幌市豊平区,中の島一条５丁目６番２５－４０１号,,01,105,0620921,,,2023-04-25,清算の結了等,,,2019-01-24,1,,,,,エイチアンドエス,0
2188,7460101004582,登記記録の閉鎖等,0,2023-05-12,2023-04-25,株式会社リフレール,,株式会社,北海道,中川郡幕別町,札内西町３０番地の１,,01,643,0890536,,,2023-04-25,清算の結了等,,,2015-10-05,1,,,,,リフレール,0
2229,8010601007939,登記記録の閉鎖等,0,2023-05-12,2023-05-02,株式会社山上電人社,,株式会社,東京都,江東区,東砂６丁目２０番１０号,,13,108,1360074,,,2023-05-02,清算の結了等,,,2015-10-05,1,,,,,ヤマカミデントシャ,0
2248,8011001109870,登記記録の閉鎖等,0,2023-05-12,2023-05-09,株式会社ｌｉｖｅｂａｓｅ,,株式会社,東京都,目黒区,中目黒３丁目６番２号中目黒ＦＳビル３階,,13,110,1530061,,,2023-05-09,合併による解散等,7120901022181,令和５年５月１日大阪市福島区福島一丁目４番４０号株式会社サムシングファン（7120901022181）に合併し解散,2016-03-10,1,,,,,ライブベース,0
2278,8011801033576,登記記録の閉鎖等,0,2023-05-12,2023-05-02,ウエストフィールド株式会社,,株式会社,東京都,墨田区,本所１丁目７番８－４０７号,,13,107,1300004,,,2023-05-02,清算の結了等,,,2017-07-11,1,,,,,ウエストフィールド,0
2285,8013102001790,登記記録の閉鎖等,0,2023-05-12,2023-05-10,有限会社ＴＣＭ,,有限会社,東京都,あきる野市,下代継１８１番地１０,,13,228,1970831,,,2023-05-10,清算の結了等,,,2015-10-05,1,,,,,ティーシーエム,0
2288,8013202000222,登記記録の閉鎖等,0,2023-05-12,2023-04-27,アール・アイ・シー有限会社,,有限会社,東京都,目黒区,中央町２丁目３７番１０号,,13,110,1520001,,,2023-04-27,清算の結了等,,,2015-10-05,1,,,,,アールアイシー,0
2297,8020002068588,登記記録の閉鎖等,0,2023-05-12,2023-05-01,有限会社アクト・プランニング,,有限会社,神奈川県,横浜市青葉区,藤が丘２丁目３６番地６５,,14,117,2270043,,,2023-05-01,清算の結了等,,,2015-10-05,1,,,,,アクトプランニング,0
2304,8021002060964,登記記録の閉鎖等,0,2023-05-12,2023-05-10,有限会社森酒店,,有限会社,神奈川県,中郡二宮町,山西９４番地,,14,342,2590124,,,2023-05-10,清算の結了等,,,2015-10-05,1,,,,,モリサケテン,0
2321,8030002053127,登記記録の閉鎖等,0,2023-05-12,2023-04-21,有限会社飯倉,,有限会社,埼玉県,上尾市,壱丁目北２２番地１,,11,219,3620081,,,2023-04-21,清算の結了等,,,2015-10-05,1,,,,,イイクラ,0
2349,8110002014120,登記記録の閉鎖等,0,2023-05-12,2023-05-09,有限会社やまじまや,,有限会社,新潟県,五泉市,村松甲１９２９番地,,15,218,9591704,,,2023-05-09,清算の結了等,,,2015-10-05,1,,,,,ヤマジマヤ,0
2371,8140001092593,登記記録の閉鎖等,0,2023-05-12,2023-05-08,株式会社テラ・テック,,株式会社,石川県,羽咋郡宝達志水町,北川尻ム１２６番地,,17,386,9291332,,,2023-05-08,合併による解散等,3140001034996,令和５年５月１日兵庫県明石市二見町南二見５信和工業株式会社（3140001034996）に合併し解散,2015-10-05,1,,,,,テラテック,0
2381,8180001011657,登記記録の閉鎖等,0,2023-05-12,2023-05-09,株式会社植健,,株式会社,愛知県,名古屋市北区,大曽根１丁目１２番３号,,23,103,4620825,,,2023-05-09,清算の結了等,,,2015-10-05,1,,,,,ウエケン,0
2382,8180001034724,登記記録の閉鎖等,0,2023-05-12,2023-05-08,株式会社エムアールエス,,株式会社,愛知県,名古屋市千種区,千代が丘１番１１２－４０２号,,23,101,4640005,,,2023-05-08,清算の結了等,,,2015-10-05,1,,,,,エムアールエス,0
2386,8180001152955,登記記録の閉鎖等,0,2023-05-12,2023-05-09,株式会社トランクイフ,,株式会社,愛知県,名古屋市中区,新栄２丁目１番２５号ＮＲ新栄９０１,,23,106,4600007,,,2023-05-09,清算の結了等,,,2022-09-07,1,,,,,トランクイフ,0
2393,8180301028228,登記記録の閉鎖等,0,2023-05-12,2023-05-08,エス・エス・イー株式会社,,株式会社,愛知県,豊田市,豊栄町４丁目１５８番地,,23,211,4701201,,,2023-05-08,清算の結了等,,,2015-10-05,1,,,,,エスエスイー,0
2397,8190001009790,登記記録の閉鎖等,0,2023-05-12,2023-05-08,株式会社アサヒ産業,,株式会社,三重県,伊賀市,西明寺２７５６番地の１６７,,24,216,5180809,,,2023-05-08,清算の結了等,,,2015-10-05,1,,,,,アサヒサンギョウ,0
2400,8190002000567,登記記録の閉鎖等,0,2023-05-12,2023-05-08,有限会社近藤電気商会,,有限会社,三重県,津市,戸木町４１６５番地５２,,24,201,5141138,,,2023-05-08,清算の結了等,,,2015-10-05,1,,,,,コンドウデンキショウカイ,0
2419,8260002009709,登記記録の閉鎖等,0,2023-05-12,2023-05-10,有限会社光延総合経営,,有限会社,岡山県,岡山市北区,大供１丁目２番２３号,,33,101,7000913,,,2023-05-10,清算の結了等,,,2015-10-05,1,,,,,ミツノブソウゴウケイエイ,0
2434,8310005007027,登記記録の閉鎖等,0,2023-05-12,2023-05-09,増田生産森林組合,,その他の設立登記法人,長崎県,五島市,増田町３９６番地,,42,211,8530027,,,2023-05-09,清算の結了等,,,2015-10-05,1,,,,,マスダ,0
2440,8330005010441,登記記録の閉鎖等,0,2023-05-12,2023-05-01,一般社団法人西日本災害調査機構,,その他の設立登記法人,熊本県,玉名市,築地１１５８番地５,,43,206,8650065,,,2023-05-01,清算の結了等,,,2021-12-09,1,,,,,ニシニホンサイガイチョウサキコウ,0
2449,8370001019887,登記記録の閉鎖等,0,2023-05-12,2023-05-02,株式会社ＮＯＡプランニング,,株式会社,宮城県,仙台市青葉区,上杉４丁目５番２５号阿部コーポ１０２号,,04,101,9800011,,,2023-05-02,清算の結了等,,,2015-10-05,1,,,,,ノアプランニング,0
2464,8430002062500,登記記録の閉鎖等,0,2023-05-12,2023-04-21,有限会社日高昆布海産,,有限会社,北海道,様似郡様似町,字鵜苫２７３番地,,01,608,0580033,,,2023-04-21,清算の結了等,,,2015-10-05,1,,,,,ヒダカコンブカイサン,0
2467,8460401000041,登記記録の閉鎖等,0,2023-05-12,2023-05-09,大沢水産株式会社,,株式会社,北海道,根室市,岬町１丁目１７番地,,01,223,0870046,,,2023-05-09,清算の結了等,,,2015-10-05,1,,,,,オオサワスイサン,0
2493,9010003025134,登記記録の閉鎖等,0,2023-05-12,2023-05-01,ネットワンコネクト合同会社,,合同会社,東京都,千代田区,丸の内２丁目７番２号ＪＰタワー,,13,101,1000005,,,2023-05-01,清算の結了等,,,2017-04-07,1,,,,,ネットワンコネクト,0
2543,9012401000172,登記記録の閉鎖等,0,2023-05-12,2023-05-11,株式会社伊佐設備工業,,株式会社,東京都,府中市,若松町４丁目４８番地１７,,13,206,1830005,,,2023-05-11,清算の結了等,,,2015-10-05,1,,,,,イサセツビコウギョウ,0
2550,9020001044804,登記記録の閉鎖等,0,2023-05-12,2023-05-01,前田商店株式会社,,株式会社,神奈川県,横浜市旭区,西川島町１２０番地の１５,,14,112,2410012,,,2023-05-01,清算の結了等,,,2015-10-05,1,,,,,マエダショウテン,0
2556,9020001105358,登記記録の閉鎖等,0,2023-05-12,2023-05-01,Ｗａｏｎ　Ｅｎｔｅｒｔａｉｎｍｅｎｔ株式会社,,株式会社,東京都,千代田区,富士見１丁目３番１１号４Ｆ,,13,101,1020071,,,2023-05-01,合併による解散等,6020002068895,令和５年４月３０日東京都千代田区飯田橋四丁目８番４号第二プレシーザビル４０１号株式会社オフィスオノ（6020002068895）に合併し解散,2015-10-05,1,,,,,ワオンエンターテインメント,0
2572,9021001030901,登記記録の閉鎖等,0,2023-05-12,2023-05-09,株式会社セタ貿易,,株式会社,神奈川県,茅ヶ崎市,本村５丁目２番３３号,,14,207,2530042,,,2023-05-09,清算の結了等,,,2015-10-05,1,,,,,セタボウエキ,0
2624,9080001023356,登記記録の閉鎖等,0,2023-05-12,2023-05-11,株式会社洛勝,,株式会社,静岡県,静岡市葵区,常磐町１丁目７番地の４チュリス常磐町３０１,,22,101,4200034,,,2023-05-11,清算の結了等,,,2020-01-28,1,,,,,ラクショウ,0
2631,9100001013916,登記記録の閉鎖等,0,2023-05-12,2023-05-08,ひらの屋折協株式会社,,株式会社,長野県,松本市,本庄２丁目１０番２号,,20,202,3900814,,,2023-05-08,清算の結了等,,,2015-10-05,1,,,,,ヒラノヤオリキョウ,0
2636,9110001012479,登記記録の閉鎖等,0,2023-05-12,2023-05-08,株式会社一九蒲鉾店,,株式会社,新潟県,新発田市,大手町１丁目１番１６号,,15,206,9570052,,,2023-05-08,清算の結了等,,,2015-10-05,1,,,,,イチクカマボコテン,0
2674,9140001041228,登記記録の閉鎖等,0,2023-05-12,2023-05-10,日通氷上運輸株式会社,,株式会社,兵庫県,丹波市,春日町黒井５５６番地,,28,223,6694141,,,2023-05-10,清算の結了等,,,2015-10-05,1,,,,,ニッツウヒカミウンユ,0
2702,9180301008922,登記記録の閉鎖等,0,2023-05-12,2023-05-08,株式会社フレア,,株式会社,愛知県,豊橋市,弥生町字西豊和５番地の７,,23,201,4418106,,,2023-05-08,清算の結了等,,,2015-10-05,1,,,,,フレア,0
2714,9200002010035,登記記録の閉鎖等,0,2023-05-12,2023-05-10,有限会社ケイアイ,,有限会社,岐阜県,本巣郡北方町,柱本南２丁目１６０番地の２,,21,421,5010445,,,2023-05-10,清算の結了等,,,2015-10-05,1,,,,,ケイアイ,0
2746,9290002045080,登記記録の閉鎖等,0,2023-05-12,2023-03-30,タイキ有限会社,,有限会社,福岡県,飯塚市,南尾１０７番地５,,40,205,8200072,,,2023-03-30,清算の結了等,,,2015-10-05,1,,,,,タイキ,0
2786,9380002021997,登記記録の閉鎖等,0,2023-05-12,2023-05-09,有限会社東電設,,有限会社,福島県,いわき市,東田町金子平７６番地,,07,204,9748212,,,2023-05-09,清算の結了等,,,2023-04-18,1,,,,,アズマデンセツ,0
