sequenceNumber,corporateNumber,process,correct,updateDate,changeDate,name,nameImageId,kind,prefectureName,cityName,streetNumber,addressImageId,prefectureCode,cityCode,postCode,addressOutside,addressOutsideImageId,closeDate,closeCause,successorCorporateNumber,changeCause,assignmentDate,latest,enName,enPrefectureName,enCityName,enAddressOutside,furigana,hihyoji
8,1010001203038,登記記録の閉鎖等,0,2022-08-15,2022-07-29,アサヒプリテックメディカルサポート株式会社,,株式会社,東京都,千代田区,丸の内１丁目７番１２号,,13,101,1000005,,,2022-07-29,清算の結了等,,,2019-08-06,1,,,,,アサヒプリテックメディカルサポート,0
15,1010005027202,登記記録の閉鎖等,0,2022-08-15,2022-08-04,一般社団法人第二十六発電,,その他の設立登記法人,東京都,文京区,本郷４丁目９番２２号,,13,105,1130033,,,2022-08-04,清算の結了等,,,2017-07-27,1,,,,,ダイニジュウロクハツデン,0
46,1011001110884,登記記録の閉鎖等,0,2022-08-15,2022-07-26,株式会社カーリス,,株式会社,東京都,渋谷区,神宮前３丁目１３番２３号,,13,113,1500001,,,2022-07-26,清算の結了等,,,2016-05-17,1,,,,,カーリス,0
60,1011401021178,登記記録の閉鎖等,0,2022-08-15,2022-08-09,株式会社Ｂ．Ｇｒｅｅｄ,,株式会社,東京都,板橋区,板橋４丁目２８番１０号ＡＸＡＳ新板橋２０９号室,,13,119,1730004,,,2022-08-09,清算の結了等,,,2018-07-11,1,,,,,ビーグリード,0
64,1011801024623,登記記録の閉鎖等,0,2022-08-15,2022-08-09,株式会社村田建設,,株式会社,東京都,足立区,加平３丁目１６番２号,,13,121,1210055,,,2022-08-09,清算の結了等,,,2015-10-05,1,,,,,ムラタケンセツ,0
85,1020002081267,登記記録の閉鎖等,0,2022-08-15,2022-08-01,有限会社鈴功,,有限会社,神奈川県,川崎市幸区,下平間２５５番地,,14,132,2120053,,,2022-08-01,清算の結了等,,,2015-10-05,1,,,,,スズコウ,0
99,1030002033390,登記記録の閉鎖等,0,2022-08-15,2022-08-02,有限会社岡村リ・ホーム,,有限会社,埼玉県,狭山市,狭山台２丁目２１番地の１２,,11,215,3501304,,,2022-08-02,清算の結了等,,,2015-10-05,1,,,,,オカムラリホーム,0
103,1030003014010,登記記録の閉鎖等,0,2022-08-15,2022-08-02,合同会社第五企画,,合同会社,埼玉県,ふじみ野市,鶴ケ舞１丁目１８番３号鶴ヶ舞ハイツ２０５,,11,245,3560041,,,2022-08-02,清算の結了等,,,2019-09-03,1,,,,,ダイゴキカク,0
107,1040001047498,登記記録の閉鎖等,0,2022-08-15,2022-08-03,株式会社ナカムラテクニカ,,株式会社,千葉県,印旛郡酒々井町,下岩橋２６４番地５,,12,322,2850907,,,2022-08-03,清算の結了等,,,2015-10-05,1,,,,,ナカムラテクニカ,0
116,1040002036095,登記記録の閉鎖等,0,2022-08-15,2022-08-01,有限会社日高工業,,有限会社,千葉県,市川市,末広１丁目１６番１号３０１,,12,203,2720121,,,2022-08-01,清算の結了等,,,2015-10-05,1,,,,,ヒダカコウギョウ,0
118,1040002045988,登記記録の閉鎖等,0,2022-08-15,2022-08-01,有限会社桜木建設興業,,有限会社,千葉県,松戸市,金ケ作３４３番地,,12,207,2702251,,,2022-08-01,合併による解散等,1040001050312,令和４年８月１日千葉県松戸市金ケ作３４４番地の３３株式会社ケイスタイルプランニング（1040001050312）に合併し解散,2015-10-05,1,,,,,サクラギケンセツコウギョウ,0
126,1050001002626,登記記録の閉鎖等,0,2022-08-15,2022-08-08,株式会社湊屋酒店,,株式会社,茨城県,水戸市,南町１丁目４番２４号,,08,201,3100021,,,2022-08-08,清算の結了等,,,2015-10-05,1,,,,,ミナトヤサケテン,0
129,1050003003960,登記記録の閉鎖等,0,2022-08-15,2022-08-04,合同会社枠千葉,,合同会社,茨城県,常総市,豊田１５４１番地６,,08,211,3002705,,,2022-08-04,清算の結了等,,,2017-11-07,1,,,,,ワクチバ,0
136,1070001032027,登記記録の閉鎖等,0,2022-08-15,2022-08-03,株式会社菜の花プランニング,,株式会社,群馬県,伊勢崎市,境上武士６１３番地２,,10,204,3700127,,,2022-08-03,清算の結了等,,,2016-04-06,1,,,,,ナノハナプランニング,0
137,1070002015071,登記記録の閉鎖等,0,2022-08-15,2022-08-04,有限会社フジ美装,,有限会社,群馬県,安中市,簗瀬２１１番地,,10,211,3790134,,,2022-08-04,清算の結了等,,,2015-10-05,1,,,,,フジビソウ,0
141,1080001020815,登記記録の閉鎖等,0,2022-08-15,2022-08-09,株式会社富士ロジテック・ユニファイドサービス,,株式会社,静岡県,静岡市清水区,清開２丁目２番１２号,,22,103,4240924,,,2022-08-09,合併による解散等,2080001004503,令和４年８月１日静岡市清水区清開二丁目２番１２号株式会社富士ロジテックホールディングス（2080001004503）に合併し解散,2016-03-16,1,,,,,フジロジテックユニファイドサービス,0
150,1110002004490,登記記録の閉鎖等,0,2022-08-15,2022-08-10,有限会社鳥屋野倉田久孝米店,,有限会社,新潟県,新潟市中央区,和合町３丁目６番７号,,15,103,9500985,,,2022-08-10,清算の結了等,,,2015-10-05,1,,,,,トヤノクラタヒサタカコメテン,0
152,1120001008715,登記記録の閉鎖等,0,2022-08-15,2022-08-08,みかさ工業株式会社,,株式会社,大阪府,大阪市都島区,片町１丁目９番３３号,,27,102,5340025,,,2022-08-08,清算の結了等,,,2015-10-05,1,,,,,ミカサコウギョウ,0
159,1120001220757,登記記録の閉鎖等,0,2022-08-15,2022-08-09,株式会社メディアコネクト,,株式会社,大阪府,大阪市西区,北堀江２丁目１７番１５号,,27,106,5500014,,,2022-08-09,清算の結了等,,,2019-05-13,1,,,,,メディアコネクト,0
197,1180001066030,登記記録の閉鎖等,0,2022-08-15,2022-08-09,株式会社アグレ,,株式会社,愛知県,名古屋市中区,新栄３丁目１７番７号,,23,106,4600007,,,2022-08-09,清算の結了等,,,2015-10-05,1,,,,,アグレ,0
215,1210002014067,登記記録の閉鎖等,0,2022-08-15,2022-08-08,有限会社北村電気工事,,有限会社,福井県,大飯郡高浜町,紫水ケ丘１丁目１番地８２,,18,481,9192223,,,2022-08-08,清算の結了等,,,2015-10-05,1,,,,,,0
219,1240001024188,登記記録の閉鎖等,0,2022-08-15,2022-08-10,株式会社アイオ企画,,株式会社,広島県,広島市西区,高須１丁目７番３２号,,34,104,7330871,,,2022-08-10,清算の結了等,,,2015-10-05,1,,,,,アイオキカク,0
228,1260002000351,登記記録の閉鎖等,0,2022-08-15,2022-08-12,有限会社芦田コーポレーション,00003387,有限会社,岡山県,岡山市東区,豊田１５７番地７,,33,103,7048162,,,2022-08-12,清算の結了等,,,2015-10-05,1,,,,,アシダコーポレーション,0
235,1290801008204,登記記録の閉鎖等,0,2022-08-15,2022-08-09,株式会社キュウシン企画,,株式会社,福岡県,北九州市小倉北区,中井２丁目１６番３号,,40,106,8030836,,,2022-08-09,清算の結了等,,,2015-10-05,1,,,,,キュウシンキカク,0
251,1370001025405,登記記録の閉鎖等,0,2022-08-15,2022-08-05,株式会社オフィス・ウチダ,,株式会社,宮城県,仙台市青葉区,川平２丁目２２番１６号,,04,101,9810954,,,2022-08-05,清算の結了等,,,2015-10-05,1,,,,,オフィスウチダ,0
254,1370002006858,登記記録の閉鎖等,0,2022-08-15,2022-08-08,有限会社エヌケー・コーポレイション,,有限会社,宮城県,仙台市宮城野区,銀杏町２８番３４号,,04,102,9830047,,,2022-08-08,清算の結了等,,,2015-10-05,1,,,,,エヌケーコーポレイション,0
262,1430001034564,登記記録の閉鎖等,0,2022-08-15,2022-08-01,株式会社エムジーエムジャパン,,株式会社,北海道,札幌市中央区,南九条西４丁目３番１－２４０２号,,01,101,0640809,,,2022-08-01,清算の結了等,,,2015-10-05,1,,,,,エムジーエムジャパン,0
263,1430001045306,登記記録の閉鎖等,0,2022-08-15,2022-08-01,株式会社ホクザイ,,株式会社,北海道,北広島市,大曲８２３番地,,01,234,0611270,,,2022-08-01,合併による解散等,7430001021508,令和４年８月１日札幌市厚別区厚別中央一条六丁目３番１号北海スターチツク株式会社（7430001021508）に合併し解散,2015-10-05,1,,,,,ホクザイ,0
306,2010401113884,登記記録の閉鎖等,0,2022-08-15,2022-08-02,山本＆アソシエイツ株式会社,,株式会社,東京都,港区,東新橋１丁目１０番１－１４１５号,,13,103,1050021,,,2022-08-02,清算の結了等,,,2015-10-05,1,,,,,ヤマモトアンドアソシエイツ,0
312,2010405018774,登記記録の閉鎖等,0,2022-08-15,2022-07-21,一般社団法人エスエイチ１３,,その他の設立登記法人,東京都,港区,元赤坂１丁目１番８号株式会社赤坂国際会計内,,13,103,1070051,,,2022-07-21,清算の結了等,,,2020-05-25,1,,,,,エスエイチジュウサン,0
323,2010805002460,登記記録の閉鎖等,0,2022-08-15,2022-08-05,一般社団法人ケアソリューションサポート,,その他の設立登記法人,東京都,大田区,西蒲田７丁目４番３号,,13,111,1440051,,,2022-08-05,清算の結了等,,,2017-06-06,1,,,,,ケアソリューションサポート,0
344,2012402011778,登記記録の閉鎖等,0,2022-08-15,2022-08-10,有限会社中央グローブ,,有限会社,東京都,調布市,染地３丁目７番地の１,,13,208,1820023,,,2022-08-10,清算の結了等,,,2015-10-05,1,,,,,チュウオウグローブ,0
358,2020002031213,登記記録の閉鎖等,0,2022-08-15,2022-08-05,有限会社ビッグジャパンテレホン,,有限会社,神奈川県,横浜市南区,堀ノ内町２丁目１３６番地２１,,14,105,2320042,,,2022-08-05,清算の結了等,,,2015-10-05,1,,,,,ビッグジャパンテレホン,0
364,2021001017194,登記記録の閉鎖等,0,2022-08-15,2022-08-08,株式会社幸久,,株式会社,神奈川県,相模原市中央区,田名塩田３丁目５番３号,,14,152,2520245,,,2022-08-08,清算の結了等,,,2015-10-05,1,,,,,コウキュウ,0
368,2030001034785,登記記録の閉鎖等,0,2022-08-15,2022-08-01,株式会社押田染工場,,株式会社,埼玉県,草加市,柳島町５６４番地,,11,221,3400033,,,2022-08-01,清算の結了等,,,2015-10-05,1,,,,,オシダセンコウジョウ,0
402,2060002032521,登記記録の閉鎖等,0,2022-08-15,2022-08-05,有限会社日向野解体,,有限会社,栃木県,栃木市,大町２９番３号,,09,203,3280071,,,2022-08-05,清算の結了等,,,2015-10-05,1,,,,,ヒガノカイタイ,0
405,2080002011267,登記記録の閉鎖等,0,2022-08-15,2022-08-10,有限会社松永製作所,,有限会社,静岡県,静岡市清水区,袖師町５２２番地,,22,103,4240037,,,2022-08-10,清算の結了等,,,2015-10-05,1,,,,,マツナガセイサクジョ,0
410,2080402001990,登記記録の閉鎖等,0,2022-08-15,2022-08-04,有限会社春日技研,,有限会社,愛知県,安城市,箕輪町東山１３７番地,,23,212,4460051,,,2022-08-04,清算の結了等,,,2015-10-05,1,,,,,カスガギケン,0
413,2090003000400,登記記録の閉鎖等,0,2022-08-15,2022-08-10,合同会社ゆい,,合同会社,山梨県,甲府市,湯村３丁目９番１号,,19,201,4000073,,,2022-08-10,清算の結了等,,,2015-10-05,1,,,,,ユイ,0
422,2120001184027,登記記録の閉鎖等,0,2022-08-15,2022-08-08,株式会社ＨＴエコロジー,,株式会社,大阪府,大阪市中央区,淡路町２丁目６番１１号４階,,27,128,5410047,,,2022-08-08,清算の結了等,,,2015-10-05,1,,,,,エッチティーエコロジー,0
434,2120005000056,登記記録の閉鎖等,0,2022-08-15,2022-07-29,天理教梅淀分教会,,その他の設立登記法人,大阪府,大阪市西淀川区,野里１丁目１７番３６号,,27,113,5550024,,,2022-07-29,合併による解散等,7430005005977,令和４年７月１９日北海道千歳市祝梅５９８番地の４天理教祝梅分教会（7430005005977）に合併し解散,2015-10-05,1,,,,,テンリキョウウメヨドブンキョウカイ,0
439,2120102022721,登記記録の閉鎖等,0,2022-08-15,2022-08-09,有限会社のぞみ,,有限会社,大阪府,岸和田市,北町１６番２８号,,27,202,5960056,,,2022-08-09,清算の結了等,,,2015-10-05,1,,,,,ノゾミ,0
458,2150001025475,登記記録の閉鎖等,0,2022-08-15,2022-08-04,近畿住宅販売株式会社,,株式会社,奈良県,橿原市,内膳町１丁目３の８,,29,205,6340804,,,2022-08-04,清算の結了等,,,2022-04-21,1,,,,,キンキジュウタクハンバイ,0
481,2220001006138,登記記録の閉鎖等,0,2022-08-15,2022-07-21,株式会社ホツカツ,,株式会社,石川県,金沢市,玉鉾４丁目１６５番地,,17,201,9218002,,,2022-07-21,合併による解散等,3210001017242,令和４年７月２１日石川県金沢市玉鉾四丁目１６５番地株式会社シンクグロー（3210001017242）に合併し解散,2015-10-05,1,,,,,ホッカツ,0
488,2240001040936,登記記録の閉鎖等,0,2022-08-15,2022-08-10,圓光寺建築設計株式会社,,株式会社,広島県,広島市安芸区,中野２丁目１８番１９－７号,,34,107,7390321,,,2022-08-10,清算の結了等,,,2015-10-05,1,,,,,エンコウジケンチクセッケイ,0
489,2250001009897,登記記録の閉鎖等,0,2022-08-15,2022-08-02,岐陽機械株式会社,,株式会社,山口県,周南市,福川南町１番３３号,,35,215,7460042,,,2022-08-02,合併による解散等,8250001014149,令和４年８月１日山口県周南市大字鹿野中字田原８３０番地１株式会社巧健（8250001014149）に合併し解散,2015-10-05,1,,,,,キヨウキカイ,0
491,2250002009839,登記記録の閉鎖等,0,2022-08-15,2022-07-21,有限会社宅の店,,有限会社,山口県,下関市,丸山町３丁目２番１号,,35,201,7500019,,,2022-07-21,清算の結了等,,,2015-10-05,1,,,,,タクノミセ,0
496,2260005003375,登記記録の閉鎖等,0,2022-08-15,2022-08-10,協同組合倉敷建築設計センター,,その他の設立登記法人,岡山県,倉敷市,阿知１丁目７番２－６０９号,,33,202,7100055,,,2022-08-10,清算の結了等,,,2015-10-05,1,,,,,クラシキケンチクセッケイセンター,0
506,2290002000934,登記記録の閉鎖等,0,2022-08-15,2022-08-02,有限会社不易,,有限会社,福岡県,福岡市西区,姪浜駅南３丁目１０番３号,,40,135,8190006,,,2022-08-02,清算の結了等,,,2015-10-05,1,,,,,フエキ,0
517,2340002009557,登記記録の閉鎖等,0,2022-08-15,2022-08-12,有限会社南日本新聞南坂之上販売所,,有限会社,鹿児島県,鹿児島市,光山２丁目３番４５号,,46,201,8910151,,,2022-08-12,清算の結了等,,,2015-10-05,1,,,,,ミナミニホンシンブンミナミサカノウエハンバイショ,0
541,2430002020760,登記記録の閉鎖等,0,2022-08-15,2022-08-03,有限会社ヤマヒラ商会,,有限会社,北海道,札幌市白石区,東札幌五条３丁目２番３２号,,01,104,0030005,,,2022-08-03,清算の結了等,,,2015-10-05,1,,,,,ヤマヒラショウカイ,0
545,2430005008621,登記記録の閉鎖等,0,2022-08-15,2022-07-19,天理教岩内港分教会,,その他の設立登記法人,北海道,岩内郡岩内町,字栄１４７番地,,01,402,0450011,,,2022-07-19,合併による解散等,6430005008485,令和４年７月１９日北海道虻田郡京極町字京極５１８番地天理教北神分教会（6430005008485）に合併し解散,2015-10-05,1,,,,,テンリキョウイワナイコウブンキョウカイ,0
548,2460002004991,登記記録の閉鎖等,0,2022-08-15,2022-08-09,有限会社摩周美装,,有限会社,北海道,川上郡弟子屈町,摩周３丁目３番１号,,01,665,0883201,,,2022-08-09,清算の結了等,,,2015-10-05,1,,,,,マシュウビソウ,0
550,2490005005340,登記記録の閉鎖等,0,2022-08-15,2022-08-08,特定非営利活動法人いたみ医学研究情報センター,,その他の設立登記法人,愛知県,長久手市,岩作雁又１－１愛知医科大学学際的痛みセンター内,,23,238,4801103,,,2022-08-08,清算の結了等,,,2015-10-05,1,,,,,イタミイガクケンキュウジョウホウセンター,0
563,3010003025189,登記記録の閉鎖等,0,2022-08-15,2022-07-29,合同会社札幌ＮＫ開発,,合同会社,東京都,千代田区,丸の内３丁目１番１号東京共同会計事務所内,,13,101,1000005,,,2022-07-29,清算の結了等,,,2017-04-24,1,,,,,サッポロエヌケーカイハツ,0
566,3010005022977,登記記録の閉鎖等,0,2022-08-15,2022-08-03,一般社団法人債権投資事業研究会,,その他の設立登記法人,東京都,千代田区,有楽町２丁目１０番１号株式会社アセットソリューション内,,13,101,1000006,,,2022-08-03,清算の結了等,,,2015-10-05,1,,,,,サイケントウシジギョウケンキュウカイ,0
570,3010401013695,登記記録の閉鎖等,0,2022-08-15,2022-07-14,秀栄製版株式会社,,株式会社,東京都,港区,芝浦３丁目１２番２号,,13,103,1080023,,,2022-07-14,清算の結了等,,,2022-04-22,1,,,,,シュウエイセイハン,0
584,3010802013245,登記記録の閉鎖等,0,2022-08-15,2022-08-04,有限会社前田梱包運輸,00052476,有限会社,東京都,大田区,東馬込１丁目４６番３号,,13,111,1430022,,,2022-08-04,清算の結了等,,,2015-10-05,1,,,,,マエダコンポウウンユ,0
609,3011801002742,登記記録の閉鎖等,0,2022-08-15,2022-08-09,株式会社タカダ,,株式会社,東京都,葛飾区,亀有４丁目１７番１１号,,13,122,1250061,,,2022-08-09,清算の結了等,,,2015-10-05,1,,,,,タカダ,0
618,3013202002933,登記記録の閉鎖等,0,2022-08-15,2022-07-22,山王殖産有限会社,,有限会社,東京都,目黒区,八雲３丁目６番３号,,13,110,1520023,,,2022-07-22,清算の結了等,,,2015-10-05,1,,,,,サンノウショクサン,0
634,3021005002290,登記記録の閉鎖等,0,2022-08-15,2022-08-09,特定非営利活動法人グルメ・アルヘンティーノ,,その他の設立登記法人,神奈川県,鎌倉市,七里ガ浜東３丁目２５番３号,,14,204,2480025,,,2022-08-09,清算の結了等,,,2015-10-05,1,,,,,グルメアルヘンティーノ,0
660,3050002042875,登記記録の閉鎖等,0,2022-08-15,2022-08-04,有限会社飯島組,,有限会社,茨城県,筑西市,蓬田６３６番地の１,00023254,08,227,3091102,,,2022-08-04,清算の結了等,,,2015-10-05,1,,,,,イイジマグミ,0
662,3060001015773,登記記録の閉鎖等,0,2022-08-15,2022-08-04,株式会社グランドシティー,,株式会社,栃木県,小山市,城山町３丁目５番２０号,,09,208,3230025,,,2022-08-04,清算の結了等,,,2015-10-05,1,,,,,,0
665,3070003003569,登記記録の閉鎖等,0,2022-08-15,2022-07-25,ＦＴ２合同会社,,合同会社,群馬県,安中市,松井田町新堀９番地,,10,211,3790221,,,2022-07-25,清算の結了等,,,2019-09-27,1,,,,,エフティーツー,0
670,3090002001893,登記記録の閉鎖等,0,2022-08-15,2022-08-09,有限会社太陽,,有限会社,山梨県,甲府市,住吉３丁目４番２４号,,19,201,4000851,,,2022-08-09,清算の結了等,,,2015-10-05,1,,,,,,0
686,3120001172385,登記記録の閉鎖等,0,2022-08-15,2022-08-01,株式会社Ｔ，ｓ　ｓｅｌｅｃｔフードシステムズ,,株式会社,大阪府,大阪市北区,天神橋３丁目１１番７号,,27,127,5300041,,,2022-08-01,合併による解散等,7120001199367,令和４年８月１日大阪市北区天神橋三丁目１１番７号株式会社ＩＣＨＩ（7120001199367）に合併し解散,2015-10-05,1,,,,,ティーズセレクトフードシステムズ,0
687,3120001195411,登記記録の閉鎖等,0,2022-08-15,2022-08-10,株式会社ＤＲ　ＰＬＡＮＮＩＮＧ,,株式会社,大阪府,大阪市淀川区,西中島１丁目１１番１６号新大阪ＣＳＰビル本館３階,,27,123,5320011,,,2022-08-10,清算の結了等,,,2016-01-05,1,,,,,ディーアールプランニング,0
705,3120101010049,登記記録の閉鎖等,0,2022-08-15,2022-08-09,株式会社黄色いリボン,,株式会社,大阪府,堺市西区,原田３１６番地の１４,,27,144,5938317,,,2022-08-09,清算の結了等,,,2015-10-05,1,,,,,キロイリボン,0
711,3120901036053,登記記録の閉鎖等,0,2022-08-15,2022-08-10,玉利商事株式会社,,株式会社,大阪府,池田市,住吉２丁目１４番２１号,,27,204,5630033,,,2022-08-10,清算の結了等,,,2015-10-26,1,,,,,タマリショウジ,0
714,3122001016241,登記記録の閉鎖等,0,2022-08-15,2022-08-09,伊達金属株式会社,,株式会社,大阪府,寝屋川市,成田東町４０番１４号,,27,215,5720001,,,2022-08-09,清算の結了等,,,2015-10-05,1,,,,,ダテキンゾク,0
733,3140005004079,登記記録の閉鎖等,0,2022-08-15,2022-08-08,医療法人社団よしかわ内科・神経内科クリニック,,その他の設立登記法人,兵庫県,神戸市兵庫区,駅南通１丁目２番３号兵庫駅南ビル３階,,28,105,6520897,,,2022-08-08,清算の結了等,,,2015-10-05,1,,,,,ヨシカワナイカシンケイナイカクリニック,0
742,3180001141475,登記記録の閉鎖等,0,2022-08-15,2022-08-08,株式会社伊津味,,株式会社,愛知県,名古屋市南区,鳥山町２丁目１０番地の４,,23,112,4570057,,,2022-08-08,清算の結了等,,,2020-06-05,1,,,,,イヅミ,0
746,3180002061706,登記記録の閉鎖等,0,2022-08-15,2022-08-04,有限会社愛知油圧サービス,,有限会社,愛知県,みよし市,三好町東山１９３番地２,,23,236,4700224,,,2022-08-04,清算の結了等,,,2015-10-05,1,,,,,アイチユアツサービス,0
751,3180302012838,登記記録の閉鎖等,0,2022-08-15,2022-08-05,有限会社植島鉄工所,,有限会社,愛知県,豊川市,新豊町１丁目６７番地,,23,207,4420012,,,2022-08-05,清算の結了等,,,2015-10-05,1,,,,,ウエシマテッコウジョ,0
762,3200005012851,登記記録の閉鎖等,0,2022-08-15,2022-08-12,特定非営利活動法人Ｍｅｎｔａｌ　Ｈｅａｌｔｈ　Ａｃｔｉｏｎ　Ｔｒｕｓｔ,,その他の設立登記法人,岐阜県,岐阜市,野一色２丁目５番１５号,,21,201,5008226,,,2022-08-12,清算の結了等,,,2018-09-14,1,,,,,メンタルヘルスアクショントラスト,0
772,3290001024108,登記記録の閉鎖等,0,2022-08-15,2022-08-02,株式会社ハッピー・タイム,,株式会社,福岡県,福岡市西区,生の松原４丁目３７番８号,,40,135,8190055,,,2022-08-02,清算の結了等,,,2015-10-05,1,,,,,ハッピータイム,0
774,3290001062090,登記記録の閉鎖等,0,2022-08-15,2022-08-02,株式会社クオッカ,,株式会社,福岡県,福岡市中央区,荒戸２丁目２番１１－１３０５号,,40,133,8100062,,,2022-08-02,清算の結了等,,,2015-10-05,1,,,,,クオッカ,0
783,3320202000671,登記記録の閉鎖等,0,2022-08-15,2022-08-09,有限会社津久見浄化槽,,有限会社,大分県,津久見市,大字千怒５４２番地の１,,44,207,8792401,,,2022-08-09,清算の結了等,,,2015-10-05,1,,,,,,0
786,3340001017972,登記記録の閉鎖等,0,2022-08-15,2022-08-12,ＭＡＸ九州綜合警備保障株式会社,,株式会社,鹿児島県,霧島市,隼人町西光寺５３９番地１,,46,218,8995114,,,2022-08-12,清算の結了等,,,2015-10-05,1,,,,,,0
798,3370005010351,登記記録の閉鎖等,0,2022-08-15,2022-08-08,ハルランカ事業協同組合,,その他の設立登記法人,宮城県,角田市,藤田字六郎田４３番地４,,04,208,9811501,,,2022-08-08,清算の結了等,,,2021-09-21,1,,,,,ハルランカ,0
801,3400002010920,登記記録の閉鎖等,0,2022-08-15,2022-08-08,有限会社宮古ボデー,,有限会社,岩手県,宮古市,長根２丁目５番１７号,,03,202,0270055,,,2022-08-08,清算の結了等,,,2015-10-05,1,,,,,ミヤコボデー,0
822,4010001103160,登記記録の閉鎖等,0,2022-08-15,2022-07-15,株式会社ブランキー,,株式会社,東京都,千代田区,九段南１丁目５番６号,,13,101,1020074,,,2022-07-15,合併による解散等,3010001027435,令和４年７月１日東京都千代田区九段南一丁目５番６号株式会社ビー・ブレーブ（3010001027435）に合併し解散,2015-10-05,1,,,,,ブランキー,0
832,4010005018792,登記記録の閉鎖等,0,2022-08-15,2022-08-03,一般社団法人東京都私立短期大学協会,,その他の設立登記法人,東京都,千代田区,九段北１丁目９番５号朝日九段マンション５１７,,13,101,1020073,,,2022-08-03,清算の結了等,,,2015-10-05,1,,,,,トウキョウトシリツタンキダイガクキョウカイ,0
855,4010602033905,登記記録の閉鎖等,0,2022-08-15,2022-08-08,株式会社千葉オーシャンフーズ,,株式会社,東京都,江東区,深川１丁目１１番５－４０５号,,13,108,1350033,,,2022-08-08,清算の結了等,,,2015-10-05,1,,,,,チバオーシャンフーズ,0
872,4011402019755,登記記録の閉鎖等,0,2022-08-15,2022-08-08,有限会社プライム・ワン,,有限会社,東京都,板橋区,板橋４丁目３１番１３号,,13,119,1730004,,,2022-08-08,清算の結了等,,,2015-10-05,1,,,,,プライムワン,0
879,4012402012849,登記記録の閉鎖等,0,2022-08-15,2022-08-09,有限会社ワイ・エス・マネジメント,,有限会社,東京都,三鷹市,下連雀４丁目１７番６号,,13,204,1810013,,,2022-08-09,清算の結了等,,,2015-10-05,1,,,,,ワイエスマネジメント,0
887,4020001127605,登記記録の閉鎖等,0,2022-08-15,2022-08-04,株式会社ＭＫＩ,,株式会社,神奈川県,横浜市南区,共進町１丁目９番地ＯＨマンション１０１号,,14,105,2320015,,,2022-08-04,清算の結了等,,,2018-08-16,1,,,,,エムケイアイ,0
894,4021001057404,登記記録の閉鎖等,0,2022-08-15,2022-08-10,株式会社Ａｌｕｆｃａｄ,,株式会社,神奈川県,横須賀市,大滝町２丁目１０番地,,14,201,2380008,,,2022-08-10,合併による解散等,1010801024154,令和４年８月１日東京都大田区西蒲田五丁目２７番１３号ＫＳビル４Ｆ株式会社Ａｌｕ　Ｗｅｌｔ（1010801024154）に合併し解散,2015-10-05,1,,,,,アルフキャド,0
896,4030001134121,登記記録の閉鎖等,0,2022-08-15,2022-08-05,ＳＥＫＡＩＥ株式会社,,株式会社,群馬県,太田市,西本町１６番１１アルペンローザ１号室,,10,205,3730033,,,2022-08-05,清算の結了等,,,2019-12-06,1,,,,,セカイエ,0
918,4080001012371,登記記録の閉鎖等,0,2022-08-15,2022-08-10,真成建設株式会社,,株式会社,静岡県,静岡市葵区,瀬名川２丁目３５番３５－１号,,22,101,4200913,,,2022-08-10,清算の結了等,,,2015-10-05,1,,,,,シンセイケンセツ,0
919,4080001019565,登記記録の閉鎖等,0,2022-08-15,2022-08-09,株式会社富士ロジテック・ネクスト,,株式会社,静岡県,静岡市清水区,清開２丁目２番１２号,,22,103,4240924,,,2022-08-09,合併による解散等,2080001004503,令和４年８月１日静岡市清水区清開二丁目２番１２号株式会社富士ロジテックホールディングス（2080001004503）に合併し解散,2015-10-05,1,,,,,フジロジテックネクスト,0
924,4080401020081,登記記録の閉鎖等,0,2022-08-15,2022-08-09,株式会社ヒーリングハート,,株式会社,静岡県,浜松市中区,船越町４０番１８号,,22,131,4300913,,,2022-08-09,合併による解散等,4140001047147,令和４年８月１日神戸市東灘区向洋町中六丁目９番地ＫＦＭ内１０Ｅ－０７株式会社Ｋｉｄｓ　Ｄｅｖｅｌｏｐｅｒ（4140001047147）に合併し解散,2015-10-05,1,,,,,ヒーリングハート,0
929,4100001011445,登記記録の閉鎖等,0,2022-08-15,2022-08-04,株式会社サンダイカスト,,株式会社,長野県,上田市,前山７７０番地１,,20,203,3861436,,,2022-08-04,清算の結了等,,,2015-10-05,1,,,,,サンダイカスト,0
931,4100002021798,登記記録の閉鎖等,0,2022-08-15,2022-08-05,有限会社宮沢写真館,,有限会社,長野県,松本市,中央２丁目９番２０号,,20,202,3900811,,,2022-08-05,清算の結了等,,,2015-10-05,1,,,,,ミヤザワシャシンカン,0
937,4120001073715,登記記録の閉鎖等,0,2022-08-15,2022-08-09,株式会社あづま染織商事,,株式会社,大阪府,大阪市中央区,船場中央３丁目２番８－２３５号,,27,128,5410055,,,2022-08-09,清算の結了等,,,2015-10-05,1,,,,,アヅマセンショク,0
979,4140003010111,登記記録の閉鎖等,0,2022-08-15,2022-08-08,五三六ソーラー発電合同会社,,合同会社,大阪府,大阪市中央区,淡路町２丁目６番１１号４階,,27,128,5410047,,,2022-08-08,清算の結了等,,,2015-10-05,1,,,,,ゴサンロクソーラーハツデン,0
982,4150001007364,登記記録の閉鎖等,0,2022-08-15,2022-08-09,株式会社タニモト興業,,株式会社,奈良県,大和郡山市,小泉町８６番地１,,29,203,6391042,,,2022-08-09,清算の結了等,,,2015-10-05,1,,,,,タニモトコウギョウ,0
983,4150001016877,登記記録の閉鎖等,0,2022-08-15,2022-08-08,株式会社みやこ屋,,株式会社,奈良県,橿原市,地黄町３２４番地の１６新崎住宅西３,00126642,29,205,6340805,,,2022-08-08,清算の結了等,,,2015-10-05,1,,,,,ミヤコヤ,0
985,4160002004426,登記記録の閉鎖等,0,2022-08-15,2022-08-12,有限会社ｉ－ＣＵＢＥ,,有限会社,滋賀県,大津市,本堅田４丁目５番８号,,25,201,5200242,,,2022-08-12,清算の結了等,,,2015-10-05,1,,,,,,0
998,4180002086875,登記記録の閉鎖等,0,2022-08-15,2022-08-09,有限会社ビー・エイチ・エフ,,有限会社,愛知県,知多郡武豊町,字桜ケ丘３丁目４８番地２,,23,447,4702359,,,2022-08-09,清算の結了等,,,2015-10-05,1,,,,,ビーエイチエフ,0
1008,4180303002325,登記記録の閉鎖等,0,2022-08-15,2022-08-08,Ｌａｂサービス合同会社,,合同会社,愛知県,安城市,高棚町申畑５番地１４,,23,212,4460053,,,2022-08-08,清算の結了等,,,2015-10-05,1,,,,,ラボサービス,0
1014,4200002023727,登記記録の閉鎖等,0,2022-08-15,2022-08-08,有限会社恵那屋商店,00077073,有限会社,岐阜県,恵那市,大井町２４５番地の８,,21,210,5097201,,,2022-08-08,清算の結了等,,,2015-10-05,1,,,,,エナヤショウテン,0
1021,4260002024991,登記記録の閉鎖等,0,2022-08-15,2022-08-10,有限会社公栄建設,,有限会社,岡山県,浅口郡里庄町,大字里見４３１８番地の３,,33,445,7190301,,,2022-08-10,清算の結了等,,,2015-10-05,1,,,,,コウエイケンセツ,0
1024,4280002000719,登記記録の閉鎖等,0,2022-08-15,2022-08-10,有限会社クリーンアップサービス,,有限会社,島根県,松江市,古志原２丁目１１番５号,,32,201,6900012,,,2022-08-10,清算の結了等,,,2015-10-05,1,,,,,クリーンアップサービス,0
1040,4340002027136,登記記録の閉鎖等,0,2022-08-15,2022-08-05,有限会社松沢養豚,,有限会社,鹿児島県,鹿屋市,串良町有里４６１３番地１,,46,203,8931602,,,2022-08-05,清算の結了等,,,2015-10-05,1,,,,,マツザワヨウトン,0
1055,4430001034198,登記記録の閉鎖等,0,2022-08-15,2022-08-01,株式会社サンアース,,株式会社,北海道,札幌市東区,北三十四条東１４丁目２番１号,,01,103,0070834,,,2022-08-01,清算の結了等,,,2015-10-05,1,,,,,サンアース,0
1092,5010401091979,登記記録の閉鎖等,0,2022-08-15,2022-08-08,株式会社中部ＰＳシステム,,株式会社,兵庫県,神戸市西区,大津和２丁目４番地の７６,,28,111,6512112,,,2022-08-08,清算の結了等,,,2015-10-05,1,,,,,チュウブピーエスシステム,0
1104,5010701011232,登記記録の閉鎖等,0,2022-08-15,2022-08-01,株式会社オリコム,,株式会社,埼玉県,狭山市,入間川１丁目７番２号,,11,215,3501305,,,2022-08-01,清算の結了等,,,2015-10-05,1,,,,,オリコム,0
1108,5010802009423,登記記録の閉鎖等,0,2022-08-15,2022-08-04,対洲配送有限会社,,有限会社,東京都,大田区,中央３丁目１８番１１号,,13,111,1430024,,,2022-08-04,清算の結了等,,,2015-10-05,1,,,,,タイシュウハイソウ,0
1138,5020001132141,登記記録の閉鎖等,0,2022-08-15,2022-08-05,株式会社Ｅｖｏｌｕｔｉｏｎ,,株式会社,神奈川県,川崎市多摩区,南生田２丁目１９番４号,,14,135,2140036,,,2022-08-05,清算の結了等,,,2019-07-25,1,,,,,エボリューション,0
1171,5080001020183,登記記録の閉鎖等,0,2022-08-15,2022-08-09,株式会社富士ロジテック静岡,,株式会社,静岡県,静岡市清水区,清開２丁目２番１２号,,22,103,4240924,,,2022-08-09,合併による解散等,2080001004503,令和４年８月１日静岡市清水区清開二丁目２番１２号株式会社富士ロジテックホールディングス（2080001004503）に合併し解散,2015-10-05,1,,,,,フジロジテックシズオカ,0
1186,5100002015163,登記記録の閉鎖等,0,2022-08-15,2022-08-04,有限会社竹村自動車,,有限会社,長野県,上田市,真田町傍陽５１９４番地１,,20,203,3862203,,,2022-08-04,清算の結了等,,,2015-10-05,1,,,,,,0
1211,5120005003857,登記記録の閉鎖等,0,2022-08-15,2022-08-10,一般財団法人大阪から肺がんをなくす会,,その他の設立登記法人,大阪府,大阪市中央区,道修町４丁目６番５号,,27,128,5410045,,,2022-08-10,清算の結了等,,,2015-10-05,1,,,,,オオサカカラハイガンヲナクスカイ,0
1222,5130001010567,登記記録の閉鎖等,0,2022-08-15,2022-08-01,光徳織物加工株式会社,,株式会社,京都府,京都市西京区,上桂森下町５０番地の６,,26,111,6158225,,,2022-08-01,清算の結了等,,,2015-10-05,1,,,,,コウトクオリモノカコウ,0
1227,5130001064167,登記記録の閉鎖等,0,2022-08-15,2022-08-01,株式会社海月,,株式会社,京都府,京都市北区,上賀茂北ノ原町３番地１１,,26,101,6038006,,,2022-08-01,清算の結了等,,,2019-03-27,1,,,,,カイゲツ,0
1234,5140001060834,登記記録の閉鎖等,0,2022-08-15,2022-08-09,株式会社播磨広告社,,株式会社,兵庫県,姫路市,八代東光寺町１６番３２号,,28,201,6700873,,,2022-08-09,清算の結了等,,,2015-10-05,1,,,,,ハリマコウコクシャ,0
1241,5140002061088,登記記録の閉鎖等,0,2022-08-15,2022-08-08,有限会社エムスリー,,有限会社,兵庫県,加東市,社２２０番地の２,,28,228,6731431,,,2022-08-08,清算の結了等,,,2015-10-05,1,,,,,エムスリー,0
1258,5180003010536,登記記録の閉鎖等,0,2022-08-15,2022-08-09,合資会社加藤幸一製陶所,,合資会社,愛知県,瀬戸市,南山町２丁目１２８番地の２,,23,204,4890986,,,2022-08-09,清算の結了等,,,2015-10-05,1,,,,,カトウコウイチセイトウショ,0
1263,5180302027090,登記記録の閉鎖等,0,2022-08-15,2022-08-04,有限会社日東設計事務所,,有限会社,愛知県,西尾市,高畠町４丁目４７番地,,23,213,4450064,,,2022-08-04,清算の結了等,,,2015-10-05,1,,,,,ニットウセッケイジムショ,0
1264,5190002000504,登記記録の閉鎖等,0,2022-08-15,2022-08-09,有限会社倉田製作所,,有限会社,三重県,津市,柳山津興３７１番地,,24,201,5140803,,,2022-08-09,清算の結了等,,,2015-10-05,1,,,,,クラタセイサクショ,0
1267,5190002016632,登記記録の閉鎖等,0,2022-08-15,2022-08-09,有限会社里美写真,,有限会社,三重県,桑名市,大字和泉７１７番地,,24,205,5110838,,,2022-08-09,清算の結了等,,,2015-10-05,1,,,,,サトミシャシン,0
1287,5270005004535,登記記録の閉鎖等,0,2022-08-15,2022-08-09,中部漁業協同組合,,その他の設立登記法人,鳥取県,東伯郡北栄町,弓原３３４番地,,31,372,6892104,,,2022-08-09,清算の結了等,,,2015-10-05,1,,,,,チュウブ,0
1294,5310001011175,登記記録の閉鎖等,0,2022-08-15,2022-08-10,株式会社立神長寿研,,株式会社,長崎県,長崎市,東立神町１６番２２号,,42,201,8500073,,,2022-08-10,清算の結了等,,,2015-10-05,1,,,,,タテガミチョウジュケン,0
1308,5370002008982,登記記録の閉鎖等,0,2022-08-15,2022-08-08,有限会社ライライ,,有限会社,宮城県,仙台市宮城野区,苦竹１丁目７番２５,,04,102,9830036,,,2022-08-08,合併による解散等,8370001015069,令和４年８月１日仙台市宮城野区鉄砲町東３番地の６足利ビル２０２号センワ実業株式会社（8370001015069）に合併し解散,2015-10-05,1,,,,,ライライ,0
1315,5400001009854,登記記録の閉鎖等,0,2022-08-15,2022-08-10,伊東建設株式会社,,株式会社,岩手県,宮古市,花輪第１７地割９番地２,,03,202,0270035,,,2022-08-10,清算の結了等,,,2015-10-05,1,,,,,,0
1316,5400002001703,登記記録の閉鎖等,0,2022-08-15,2022-08-09,有限会社鈴木商事,,有限会社,岩手県,盛岡市,城西町１３番６３号,,03,201,0200044,,,2022-08-09,清算の結了等,,,2015-10-05,1,,,,,スズキショウジ,0
1317,5400602000567,登記記録の閉鎖等,0,2022-08-15,2022-08-08,有限会社濱竹製作所,,有限会社,岩手県,奥州市,水沢字横町２２７番地,,03,215,0230801,,,2022-08-08,清算の結了等,,,2015-10-05,1,,,,,ハマタケセイサクショ,0
1332,5460001004073,登記記録の閉鎖等,0,2022-08-15,2022-08-01,北海道日東株式会社,,株式会社,北海道,札幌市厚別区,厚別中央一条６丁目３番１号ホクノー新札幌ビル４０８,,01,108,0040051,,,2022-08-01,合併による解散等,7430001021508,令和４年８月１日札幌市厚別区厚別中央一条六丁目３番１号北海スターチツク株式会社（7430001021508）に合併し解散,2015-10-05,1,,,,,ホッカイドウニットウ,0
1334,5470005002667,登記記録の閉鎖等,0,2022-08-15,2022-07-27,天理教讃亀分教会,,その他の設立登記法人,香川県,丸亀市,御供所町１丁目６番２９号,,37,202,7630014,,,2022-07-27,合併による解散等,6150005000495,令和４年７月２０日奈良県奈良市矢田原町乙１４６番地天理教田原分教会（6150005000495）に合併し解散,2015-10-05,1,,,,,テンリキョウサンキブンキョウカイ,0
1349,6010003023454,登記記録の閉鎖等,0,2022-08-15,2022-07-25,大崎町ソーラー合同会社,,合同会社,東京都,中央区,八重洲２丁目７番２号,,13,102,1040028,,,2022-07-25,清算の結了等,,,2016-04-21,1,,,,,オオサキチョウソーラー,0
1362,6010401085526,登記記録の閉鎖等,0,2022-08-15,2022-07-22,株式会社イノベーション・センター,,株式会社,東京都,港区,赤坂７丁目６番６６号の２０６,,13,103,1070052,,,2022-07-22,清算の結了等,,,2015-10-05,1,,,,,イノベーションセンター,0
1367,6010403015935,登記記録の閉鎖等,0,2022-08-15,2022-07-25,合同会社Ｌｉｆｅ　Ａｓｓｅｔ　Ｍａｎａｇｅｍｅｎｔ,,合同会社,東京都,港区,三田１丁目６番３－１８０８号,,13,103,1080073,,,2022-07-25,清算の結了等,,,2017-01-16,1,,,,,ライフアセットマネジメント,0
1381,6010903006830,登記記録の閉鎖等,0,2022-08-15,2022-07-28,合同会社ＣｏｓｍｏＲｉｄｅ,,合同会社,東京都,世田谷区,南烏山６丁目２５番１１号セラグリオ烏山５０８,,13,112,1570062,,,2022-07-28,清算の結了等,,,2021-10-01,1,,,,,コスモライド,0
1409,6013301005033,登記記録の閉鎖等,0,2022-08-15,2022-08-08,株式会社サノアソシエイツ,,株式会社,東京都,豊島区,千早２丁目２５番４号,,13,116,1710044,,,2022-08-08,清算の結了等,,,2015-10-05,1,,,,,サノアソシエイツ,0
1414,6013305001136,登記記録の閉鎖等,0,2022-08-15,2022-08-05,特定非営利活動法人介護環境改善指導協会,,その他の設立登記法人,東京都,豊島区,西巣鴨２丁目９番２号,,13,116,1700001,,,2022-08-05,清算の結了等,,,2015-10-05,1,,,,,カイゴカンキョウカイゼンシドウキョウカイ,0
1418,6020003008561,登記記録の閉鎖等,0,2022-08-15,2022-07-27,合同会社ＳＵＮＲＩＳＥ８ＳＩＮＪＩＧＥＮ,,合同会社,神奈川県,横浜市神奈川区,金港町１番地１１－３８０６号,,14,102,2210056,,,2022-07-27,清算の結了等,,,2015-10-05,1,,,,,サンライズエイトシンジゲン,0
1423,6030001012606,登記記録の閉鎖等,0,2022-08-15,2022-08-01,株式会社ＳＩＡ,,株式会社,埼玉県,さいたま市見沼区,東大宮４丁目６３番地２０,,11,104,3370051,,,2022-08-01,清算の結了等,,,2015-10-05,1,,,,,エスアイエー,0
1426,6030001063491,登記記録の閉鎖等,0,2022-08-15,2022-08-01,株式会社赤山商事,,株式会社,埼玉県,越谷市,越ヶ谷２丁目５番２０号,,11,222,3430813,,,2022-08-01,合併による解散等,2030001066770,令和４年７月３１日埼玉県越谷市宮本町一丁目９１番地株式会社リアルブレッセ（2030001066770）に合併し解散,2015-10-05,1,,,,,アカヤマショウジ,0
1443,6050002019615,登記記録の閉鎖等,0,2022-08-15,2022-08-04,有限会社匠商事,,有限会社,茨城県,下妻市,高道祖６０番地６,,08,210,3040031,,,2022-08-04,清算の結了等,,,2015-10-05,1,,,,,タクミショウジ,0
1444,6050002027329,登記記録の閉鎖等,0,2022-08-15,2022-08-05,有限会社東国開発,,有限会社,茨城県,神栖市,息栖９８０番地１,,08,232,3140133,,,2022-08-05,清算の結了等,,,2015-10-05,1,,,,,トウゴクカイハツ,0
1449,6080001020182,登記記録の閉鎖等,0,2022-08-15,2022-08-09,株式会社富士ロジテック浜松,,株式会社,静岡県,静岡市清水区,清開２丁目２番１２号,,22,103,4240924,,,2022-08-09,合併による解散等,2080001004503,令和４年８月１日静岡市清水区清開二丁目２番１２号株式会社富士ロジテックホールディングス（2080001004503）に合併し解散,2015-10-05,1,,,,,フジロジテックハママツ,0
1452,6090002007343,登記記録の閉鎖等,0,2022-08-15,2022-08-08,有限会社三双建設,,有限会社,山梨県,南アルプス市,加賀美１９０７番地１０,,19,208,4000335,,,2022-08-08,清算の結了等,,,2015-10-05,1,,,,,サンソウケンセツ,0
1463,6120001204367,登記記録の閉鎖等,0,2022-08-15,2022-08-01,ＭＡＲＣＳトラスト株式会社,,株式会社,大阪府,大阪市北区,梅田１丁目１１番４号大阪駅前第４ビル２０階,,27,127,5300001,,,2022-08-01,合併による解散等,5122001027831,令和４年８月１日大阪市北区梅田１－１１－４大阪駅前第４ビル２０階株式会社Ｈ＆Ｔ（5122001027831）に合併し解散,2017-03-15,1,,,,,マークストラスト,0
1481,6122001020604,登記記録の閉鎖等,0,2022-08-15,2022-08-05,株式会社ラッキー産業,,株式会社,大阪府,八尾市,北木の本４丁目６６番地,,27,212,5810041,,,2022-08-05,清算の結了等,,,2015-10-05,1,,,,,ラッキーサンギョウ,0
1521,6180003013744,登記記録の閉鎖等,0,2022-08-15,2022-08-08,合資会社ＫＦＳ,,合資会社,愛知県,愛西市,西保町堤外新田３５３６番地,,23,232,4960911,,,2022-08-08,清算の結了等,,,2015-10-05,1,,,,,ケイエフエス,0
1529,6180302010418,登記記録の閉鎖等,0,2022-08-15,2022-08-04,有限会社雪印牛乳ナガサカ,,有限会社,愛知県,豊橋市,平川南町１３８番地の４,,23,201,4400035,,,2022-08-04,清算の結了等,,,2015-10-05,1,,,,,ユキジルシギュウニュウナガサカ,0
1532,6190002015492,登記記録の閉鎖等,0,2022-08-15,2022-08-10,有限会社三立技研,,有限会社,三重県,松阪市,大津町１１０１番地４,,24,204,5150031,,,2022-08-10,清算の結了等,,,2015-10-05,1,,,,,サンリツギケン,0
1538,6210002012784,登記記録の閉鎖等,0,2022-08-15,2022-08-08,有限会社飯田眞三商店,,有限会社,福井県,鯖江市,宮前２丁目２番１９号,,18,207,9160045,,,2022-08-08,清算の結了等,,,2015-10-05,1,,,,,イイダシンゾウショウテン,0
1541,6220001007867,登記記録の閉鎖等,0,2022-08-15,2022-08-09,株式会社アクア設計,,株式会社,石川県,金沢市,吉原町ハ６２番地７,,17,201,9203114,,,2022-08-09,清算の結了等,,,2015-10-05,1,,,,,アクアセッケイ,0
1548,6240002008631,登記記録の閉鎖等,0,2022-08-15,2022-08-09,有限会社正幸産業,,有限会社,広島県,広島市東区,戸坂新町２丁目１５番１８号,,34,102,7320012,,,2022-08-09,清算の結了等,,,2015-10-05,1,,,,,セイコウサンギョウ,0
1550,6250001010868,登記記録の閉鎖等,0,2022-08-15,2022-08-08,株式会社山田工務店,,株式会社,山口県,周南市,大字下上２０９８番地の１,,35,215,7460082,,,2022-08-08,清算の結了等,,,2015-10-05,1,,,,,ヤマダコウムテン,0
1559,6290002013701,登記記録の閉鎖等,0,2022-08-15,2022-08-02,有限会社素位,,有限会社,福岡県,福岡市西区,姪浜駅南３丁目１０番３号,,40,135,8190006,,,2022-08-02,清算の結了等,,,2015-10-05,1,,,,,ソイ,0
1577,6370205001180,登記記録の閉鎖等,0,2022-08-15,2022-07-08,天理教宮柳分教会,00082749,その他の設立登記法人,宮城県,遠田郡美里町,大柳字後藤渕６番地,,04,505,9894204,,,2022-07-08,合併による解散等,8370205000172,令和４年７月８日宮城県大崎市三本木伊場野字舘崎９６番地天理教宮城大崎分教会（8370205000172）に合併し解散,2015-10-05,1,,,,,テンリキョウミヤナギブンキョウカイ,0
1583,6390002015803,登記記録の閉鎖等,0,2022-08-15,2022-08-05,有限会社宮林左官工業,,有限会社,山形県,寒河江市,大字寒河江字仲田１４８番地の１,,06,206,9910041,,,2022-08-05,清算の結了等,,,2015-10-05,1,,,,,ミヤバヤシサカンコウギョウ,0
1593,6430001065893,登記記録の閉鎖等,0,2022-08-15,2022-08-01,株式会社エヌアイシー,,株式会社,北海道,岩見沢市,北五条西８丁目２番１２号,,01,210,0680045,,,2022-08-01,合併による解散等,2430001046030,令和４年８月１日北海道江別市東野幌本町７番５号株式会社３ｅｅｅ（2430001046030）に合併し解散,2015-10-05,1,,,,,エヌアイシー,0
1601,6430003011986,登記記録の閉鎖等,0,2022-08-15,2022-08-12,合同会社アステップ,,合同会社,北海道,札幌市中央区,南七条西８丁目１番地１１ローレル７・８ビル１階,,01,101,0640807,,,2022-08-12,清算の結了等,,,2020-09-29,1,,,,,アステップ,0
1645,7010602002007,登記記録の閉鎖等,0,2022-08-15,2022-08-08,金太楼実業有限会社,,有限会社,東京都,江東区,南砂３丁目４番６号第２クローバーハウス５０２２,,13,108,1360076,,,2022-08-08,清算の結了等,,,2015-10-05,1,,,,,キンタロウジツギョウ,0
1646,7010602016320,登記記録の閉鎖等,0,2022-08-15,2022-08-05,有限会社渡商店,,有限会社,東京都,墨田区,八広４丁目４３番１１号,,13,107,1310041,,,2022-08-05,清算の結了等,,,2015-10-05,1,,,,,,0
1660,7011002009906,登記記録の閉鎖等,0,2022-08-15,2022-07-27,有限会社セフティ機工,,有限会社,東京都,渋谷区,東２丁目２０番６号,,13,113,1500011,,,2022-07-27,清算の結了等,,,2015-10-05,1,,,,,,0
1679,7011802019220,登記記録の閉鎖等,0,2022-08-15,2022-08-09,有限会社三橋商店,,有限会社,東京都,足立区,千住橋戸町５０番地,,13,121,1200038,,,2022-08-09,清算の結了等,,,2015-10-05,1,,,,,ミハシショウテン,0
1694,7020001027991,登記記録の閉鎖等,0,2022-08-15,2022-08-02,株式会社トレンタコーポレーション,,株式会社,神奈川県,横浜市中区,山下町２７６番地５ル・グラン元町６０４号,,14,104,2310023,,,2022-08-02,清算の結了等,,,2015-10-05,1,,,,,トレンタコーポレーション,0
1703,7021001049852,登記記録の閉鎖等,0,2022-08-15,2022-08-09,株式会社Ｓｈ３５,,株式会社,神奈川県,厚木市,戸室１丁目５番５号,,14,212,2430031,,,2022-08-09,清算の結了等,,,2015-10-05,1,,,,,スエヒロサンゴー,0
1706,7030001016663,登記記録の閉鎖等,0,2022-08-15,2022-08-01,ホットハートケア株式会社,,株式会社,埼玉県,さいたま市見沼区,大字新堤８番地１シャルマンコーポ２１９,,11,104,3370013,,,2022-08-01,清算の結了等,,,2015-10-05,1,,,,,ホットハートケア,0
1718,7040002004278,登記記録の閉鎖等,0,2022-08-15,2022-08-03,有限会社コジマ,,有限会社,千葉県,千葉市美浜区,幸町２丁目８番３棟５０８号,,12,106,2610001,,,2022-08-03,清算の結了等,,,2015-10-05,1,,,,,コジマ,0
1719,7040002023732,登記記録の閉鎖等,0,2022-08-15,2022-08-02,有限会社ツダヌマエステート,,有限会社,千葉県,船橋市,前原西２丁目７番３号,,12,204,2740825,,,2022-08-02,清算の結了等,,,2015-10-05,1,,,,,ツダヌマエステート,0
1723,7050001012231,登記記録の閉鎖等,0,2022-08-15,2022-08-02,株式会社高千穂商会,,株式会社,茨城県,石岡市,東石岡４丁目１１番２７号,,08,205,3150037,,,2022-08-02,清算の結了等,,,2015-10-05,1,,,,,タカチホショウカイ,0
1735,7080401023107,登記記録の閉鎖等,0,2022-08-15,2022-08-09,ピュアホールディングス株式会社,,株式会社,静岡県,浜松市中区,細島町３８４番地の２３,,22,131,4350045,,,2022-08-09,合併による解散等,4140001047147,令和４年８月１日神戸市東灘区向洋町中六丁目９番地ＫＦＭ内１０Ｅ－０７株式会社Ｋｉｄｓ　Ｄｅｖｅｌｏｐｅｒ（4140001047147）に合併し解散,2018-08-09,1,,,,,ピュアホールディングス,0
1743,7100002029748,登記記録の閉鎖等,0,2022-08-15,2022-08-05,有限会社栄和興業,,有限会社,長野県,茅野市,金沢４２８番地,,20,214,3910012,,,2022-08-05,清算の結了等,,,2015-10-05,1,,,,,エイワコウギョウ,0
1774,7130001058019,登記記録の閉鎖等,0,2022-08-15,2022-08-03,ＴＫ－ＲＯＡＤテック株式会社,,株式会社,京都府,京都市伏見区,羽束師古川町３３０番地サングリーンビル東側１Ｆ,,26,109,6128486,,,2022-08-03,清算の結了等,,,2016-08-05,1,,,,,ティケイロードテック,0
1790,7140002063644,登記記録の閉鎖等,0,2022-08-15,2022-08-09,新和美工有限会社,,有限会社,兵庫県,伊丹市,荒牧５丁目１９－３－４０８号,,28,207,6640001,,,2022-08-09,清算の結了等,,,2015-10-05,1,,,,,シンワビコウ,0
1803,7180001091642,登記記録の閉鎖等,0,2022-08-15,2022-08-09,株式会社協川会,,株式会社,愛知県,半田市,旭町３丁目４７番地の１,,23,205,4750838,,,2022-08-09,清算の結了等,,,2015-10-05,1,,,,,キョウセンカイ,0
1809,7180002004883,登記記録の閉鎖等,0,2022-08-15,2022-08-08,有限会社トムサイン,,有限会社,愛知県,名古屋市千種区,小松町７丁目３８番地,,23,101,4640853,,,2022-08-08,清算の結了等,,,2015-10-05,1,,,,,トムサイン,0
1825,7210003000309,登記記録の閉鎖等,0,2022-08-15,2022-08-03,合名会社開花亭,,合名会社,福井県,あわら市,温泉５丁目２０１番地,,18,208,9104104,,,2022-08-03,清算の結了等,,,2022-06-24,1,,,,,カイカテイ,0
1837,7260005009582,登記記録の閉鎖等,0,2022-08-15,2022-08-01,くらしき中央税理士法人,,その他の設立登記法人,岡山県,倉敷市,沖新町７９番地７,,33,202,7100837,,,2022-08-01,合併による解散等,1260005002519,令和４年８月１日岡山市北区西古松二丁目２４番５号ワイエムビル内税理士法人おかやま創研（1260005002519）に合併し解散,2015-10-05,1,,,,,クラシキチュウオウ,0
1849,7290802010491,登記記録の閉鎖等,0,2022-08-15,2022-08-10,有限会社らぶ・ふぁみりぃ,,有限会社,福岡県,北九州市小倉北区,大畠３丁目３番５５号,,40,106,8020026,,,2022-08-10,清算の結了等,,,2015-10-05,1,,,,,ラブファミリイ,0
1862,7370001012843,登記記録の閉鎖等,0,2022-08-15,2022-08-09,東北国際貿易株式会社,,株式会社,宮城県,仙台市若林区,古城１丁目５番３－１３０３号,,04,103,9840825,,,2022-08-09,清算の結了等,,,2015-10-05,1,,,,,トウホクコクサイボウエキ,0
1869,7400001015628,登記記録の閉鎖等,0,2022-08-15,2022-08-10,株式会社ＨＦＮ,,株式会社,岩手県,盛岡市,みたけ３丁目２３番３号スペースＭＹＡＩＩ２Ｆ,00124428,03,201,0200122,,,2022-08-10,清算の結了等,,,2021-10-04,1,,,,,エイチエフエヌ,0
1873,7430001034765,登記記録の閉鎖等,0,2022-08-15,2022-08-01,株式会社佐藤企画,,株式会社,北海道,札幌市中央区,円山西町５丁目４番６２号,,01,101,0640944,,,2022-08-01,清算の結了等,,,2015-10-05,1,,,,,,0
1879,7460302003482,登記記録の閉鎖等,0,2022-08-15,2022-08-08,有限会社大野林協,,有限会社,北海道,網走郡美幌町,字仲町１丁目３０番地,,01,543,0920004,,,2022-08-08,清算の結了等,,,2015-10-05,1,,,,,オオノリンキョウ,0
1882,7480002013549,登記記録の閉鎖等,0,2022-08-15,2022-08-10,広瀬海運有限会社,,有限会社,徳島県,阿南市,橘町西浜１２２番地,,36,204,7740023,,,2022-08-10,清算の結了等,,,2015-10-05,1,,,,,ヒロセカイウン,0
1890,8010001209838,登記記録の閉鎖等,0,2022-08-15,2022-07-29,株式会社ＲＡＭＰＳ,,株式会社,東京都,文京区,本郷７丁目３番１号,,13,105,1130033,,,2022-07-29,清算の結了等,,,2020-06-01,1,,,,,ランプス,0
1896,8010005028160,登記記録の閉鎖等,0,2022-08-15,2022-08-03,一般社団法人ＴＲＹレジデンス１,,その他の設立登記法人,東京都,千代田区,丸の内３丁目１番１号東京共同会計事務所内,,13,101,1000005,,,2022-08-03,清算の結了等,,,2018-02-26,1,,,,,ティーアールワイレジデンスワン,0
1947,8011705001539,登記記録の閉鎖等,0,2022-08-15,2022-08-10,一般社団法人自宅ネイル向上委員会,,その他の設立登記法人,東京都,江戸川区,西葛西５丁目１番３号第６山秀ビル８０２,,13,123,1340088,,,2022-08-10,清算の結了等,,,2018-12-06,1,,,,,ジタクネイルコウジョウイインカイ,0
1968,8021001026371,登記記録の閉鎖等,0,2022-08-15,2022-08-09,信和化工株式会社,,株式会社,神奈川県,座間市,小松原２丁目２９番１１号,,14,216,2520002,,,2022-08-09,清算の結了等,,,2015-10-05,1,,,,,シンワカコウ,0
1977,8030002061105,登記記録の閉鎖等,0,2022-08-15,2022-08-02,加正工務店有限会社,,有限会社,埼玉県,新座市,畑中２丁目１番２４号,,11,230,3520012,,,2022-08-02,清算の結了等,,,2015-10-05,1,,,,,カショウコウムテン,0
2002,8080402004823,登記記録の閉鎖等,0,2022-08-15,2022-08-10,有限会社タケムラ工芸,,有限会社,静岡県,浜松市東区,丸塚町５３１番地の５,00079945,22,132,4350046,,,2022-08-10,清算の結了等,,,2015-10-05,1,,,,,タケムラコウゲイ,0
2003,8080405001495,登記記録の閉鎖等,0,2022-08-15,2022-08-10,特定非営利活動法人エヌ・ピー・オーライフケア浜松,,その他の設立登記法人,静岡県,浜松市南区,恩地町２６３番地,,22,134,4300814,,,2022-08-10,清算の結了等,,,2015-10-05,1,,,,,エヌピーオーライフケアハママツ,0
2010,8120001138448,登記記録の閉鎖等,0,2022-08-15,2022-08-08,多賀多株式会社,,株式会社,大阪府,大阪市西区,西本町２丁目１番３０号,,27,106,5500005,,,2022-08-08,清算の結了等,,,2015-10-05,1,,,,,タカタ,0
2025,8120002038176,登記記録の閉鎖等,0,2022-08-15,2022-08-09,有限会社ファット,,有限会社,大阪府,大阪市大正区,三軒家東５丁目１５番４号,,27,108,5510002,,,2022-08-09,清算の結了等,,,2015-10-05,1,,,,,ファット,0
2049,8140001080854,登記記録の閉鎖等,0,2022-08-15,2022-08-09,大阪金属産業株式会社,,株式会社,兵庫県,川西市,清和台東３丁目２番地の６０,,28,217,6660142,,,2022-08-09,清算の結了等,,,2015-10-05,1,,,,,オオサカキンゾクサンギョウ,0
2071,8180003019657,登記記録の閉鎖等,0,2022-08-15,2022-08-08,合同会社Ａｄｍｉｔ,,合同会社,愛知県,津島市,南門前町３丁目１５番地７,,23,208,4960857,,,2022-08-08,清算の結了等,,,2019-02-04,1,,,,,アドミット,0
2086,8210002003575,登記記録の閉鎖等,0,2022-08-15,2022-08-09,有限会社丸和建築設計事務所,,有限会社,福井県,坂井市,春江町江留上昭和７番地１３,,18,210,9190463,,,2022-08-09,清算の結了等,,,2015-10-05,1,,,,,マルワケンチクセッケイジムショ,0
2109,8310001014547,登記記録の閉鎖等,0,2022-08-15,2022-08-08,株式会社新栄商会,,株式会社,山口県,下関市,菊川町大字上岡枝８４６番３,,35,201,7500321,,,2022-08-08,清算の結了等,,,2016-11-10,1,,,,,シンエイショウカイ,0
2132,8380001023574,登記記録の閉鎖等,0,2022-08-15,2022-08-09,株式会社エフエス栄,,株式会社,福島県,南相馬市,原町区大木戸字南東方３４番地１,,07,212,9750061,,,2022-08-09,合併による解散等,7400002008176,令和４年８月１日岩手県花巻市東宮野目第１１地割２４番地株式会社栄ロジテック（7400002008176）に合併し解散,2015-10-05,1,,,,,エフエスサカエ,0
2144,8410002002648,登記記録の閉鎖等,0,2022-08-15,2022-08-04,有限会社デンタルビル,,有限会社,秋田県,秋田市,大町４丁目３番１４号,,05,201,0100921,,,2022-08-04,清算の結了等,,,2015-10-05,1,,,,,デンタルビル,0
2149,8430001048070,登記記録の閉鎖等,0,2022-08-15,2022-08-01,株式会社ＩＴＭ介護システム,,株式会社,北海道,岩見沢市,北五条西８丁目２番１２号,,01,210,0680045,,,2022-08-01,合併による解散等,2430001046030,令和４年８月１日北海道江別市東野幌本町７番５号株式会社３ｅｅｅ（2430001046030）に合併し解散,2015-10-05,1,,,,,アイティーエムカイゴシステム,0
2154,8430002000872,登記記録の閉鎖等,0,2022-08-15,2022-08-01,有限会社味禄,,有限会社,北海道,札幌市東区,東苗穂十二条２丁目７番３２号,,01,103,0070812,,,2022-08-01,清算の結了等,,,2015-10-05,1,,,,,アジロク,0
2156,8430002065627,登記記録の閉鎖等,0,2022-08-15,2022-08-01,有限会社マルタ高野水産,00089867,有限会社,北海道,登別市,富浦町１丁目１６番地６,,01,230,0590462,,,2022-08-01,清算の結了等,,,2015-10-05,1,,,,,マルタタカノスイサン,0
2160,8430005006495,登記記録の閉鎖等,0,2022-08-15,2022-07-19,天理教文道分教会,,その他の設立登記法人,北海道,岩見沢市,六条東１１丁目３２番地,,01,210,0680006,,,2022-07-19,合併による解散等,6430005006489,令和４年７月１９日北海道岩見沢市四条西十四丁目８番地天理教志文分教会（6430005006489）に合併し解散,2015-10-05,1,,,,,テンリキョウブンドウブンキョウカイ,0
2170,9010001086038,登記記録の閉鎖等,0,2022-08-15,2022-08-01,株式会社エル・エス・ファクトリー,,株式会社,東京都,中央区,日本橋堀留町２丁目６番６号,,13,102,1030012,,,2022-08-01,合併による解散等,1010001012760,令和４年８月１日東京都中央区日本橋堀留町二丁目６番６号株式会社エル・エス管財（1010001012760）に合併し解散,2015-10-05,1,,,,,エルエスファクトリー,0
2190,9010403013787,登記記録の閉鎖等,0,2022-08-15,2022-08-01,水郷地所株式会社,,株式会社,千葉県,香取市,北２丁目６番３,,12,236,2870002,,,2022-08-01,清算の結了等,,,2015-10-05,1,,,,,スイゴウジショ,0
2207,9010801013389,登記記録の閉鎖等,0,2022-08-15,2022-08-10,トゥモローライフ株式会社,,株式会社,東京都,大田区,大森南２丁目８番１２号,,13,111,1430013,,,2022-08-10,合併による解散等,9011001042724,令和４年７月３１日東京都渋谷区恵比寿西一丁目１２番１４号株式会社エイビス（9011001042724）に合併し解散,2015-10-05,1,,,,,トゥモローライフ,0
2212,9010802010105,登記記録の閉鎖等,0,2022-08-15,2022-08-05,有限会社東信工業所,,有限会社,東京都,大田区,西六郷４丁目１５番１４号,,13,111,1440056,,,2022-08-05,清算の結了等,,,2015-10-05,1,,,,,,0
2255,9020005014539,登記記録の閉鎖等,0,2022-08-15,2022-08-03,一般社団法人せきせい,,その他の設立登記法人,神奈川県,横浜市保土ケ谷区,川島町５５２番地,,14,106,2400045,,,2022-08-03,清算の結了等,,,2020-02-10,1,,,,,セキセイ,0
2321,9130001033481,登記記録の閉鎖等,0,2022-08-15,2022-08-03,大洋土質株式会社,,株式会社,京都府,久世郡久御山町,市田新珠城１５４の１番地,,26,322,6130022,,,2022-08-03,清算の結了等,,,2015-10-05,1,,,,,タイヨウドシツ,0
2332,9140001099126,登記記録の閉鎖等,0,2022-08-15,2022-08-08,村田商事株式会社,,株式会社,兵庫県,西宮市,新甲陽町１０番１６号,,28,204,6620013,,,2022-08-08,清算の結了等,,,2015-10-05,1,,,,,ムラタショウジ,0
2336,9140005001145,登記記録の閉鎖等,0,2022-08-15,2022-07-27,天理教梅乃実分教会,,その他の設立登記法人,兵庫県,神戸市西区,桜が丘西町１丁目２番地の１７,,28,111,6512227,,,2022-07-27,合併による解散等,3140005001357,令和４年７月２７日神戸市長田区駒ヶ林町二丁目６番４号天理教細川分教會（3140005001357）に合併し解散,2015-10-05,1,,,,,テンリキョウウメノミブンキョウカイ,0
2343,9180001044648,登記記録の閉鎖等,0,2022-08-15,2022-08-08,株式会社ケイ・アイ・エスインターナショナル,,株式会社,愛知県,名古屋市中区,錦２丁目１６番２１号,,23,106,4600003,,,2022-08-08,清算の結了等,,,2015-10-05,1,,,,,ケイアイエスインターナショナル,0
2344,9180001049408,登記記録の閉鎖等,0,2022-08-15,2022-08-10,株式会社東海住機システム,,株式会社,愛知県,名古屋市南区,忠次１丁目２番５号,,23,112,4570843,,,2022-08-10,清算の結了等,,,2015-10-05,1,,,,,トウカイジュウキシステム,0
2360,9190002021876,登記記録の閉鎖等,0,2022-08-15,2022-08-08,有限会社ヘアーアトリエパートワン,,有限会社,三重県,四日市市,朝明町２５２７番地１０,,24,202,5128054,,,2022-08-08,清算の結了等,,,2015-10-05,1,,,,,ヘアーアトリエパートワン,0
2366,9210005007416,登記記録の閉鎖等,0,2022-08-15,2022-07-20,天理教福府分教会,,その他の設立登記法人,福井県,越前市,深草１丁目１番１３号,,18,209,9150815,,,2022-07-20,合併による解散等,6210005006370,令和４年７月２０日福井県三方郡美浜町郷市第１７号３番地天理教木山分教会（6210005006370）に合併し解散,2015-10-05,1,,,,,テンリキョウフクフブンキョウカイ,0
2371,9250002010253,登記記録の閉鎖等,0,2022-08-15,2022-08-08,有限会社中村コンタクトレンズ,,有限会社,山口県,下関市,長府土居の内町１番２号,,35,201,7520974,,,2022-08-08,清算の結了等,,,2015-10-05,1,,,,,ナカムラコンタクトレンズ,0
2390,9340001013454,登記記録の閉鎖等,0,2022-08-15,2022-08-10,株式会社ヴィーナスソフト,,株式会社,鹿児島県,出水郡長島町,平尾５７９５番地,,46,404,8991302,,,2022-08-10,清算の結了等,,,2015-10-05,1,,,,,ヴィーナスソフト,0
2391,9340001015401,登記記録の閉鎖等,0,2022-08-15,2022-08-08,株式会社ＫＥＳ,,株式会社,鹿児島県,曽於郡大崎町,永吉７６７番地１,,46,468,8997306,,,2022-08-08,合併による解散等,4340001015356,令和４年８月８日鹿児島県曽於郡大崎町益丸１１２１番地１株式会社斉藤商店（4340001015356）に合併し解散,2015-10-05,1,,,,,ケーイーエス,0
2399,9370001020002,登記記録の閉鎖等,0,2022-08-15,2022-08-05,リブライト株式会社,,株式会社,宮城県,仙台市青葉区,国分町１丁目７番１８号,,04,101,9800803,,,2022-08-05,合併による解散等,7370001009526,令和４年８月１日仙台市青葉区国分町一丁目７番１８号東洋ワーク株式会社（7370001009526）に合併し解散,2015-10-05,1,,,,,リブライト,0
2404,9380002002873,登記記録の閉鎖等,0,2022-08-15,2022-08-03,有限会社美術教材社,,有限会社,福島県,福島市,飯坂町平野字堂ノ前１６番地,,07,201,9600231,,,2022-08-03,清算の結了等,,,2015-10-05,1,,,,,ビジュツキョウザイシャ,0
2405,9380002010620,登記記録の閉鎖等,0,2022-08-15,2022-08-04,有限会社地福屋,,有限会社,福島県,郡山市,熱海町熱海１丁目９４番地の１,,07,203,9631309,,,2022-08-04,清算の結了等,,,2015-10-05,1,,,,,,0
2406,9380002020306,登記記録の閉鎖等,0,2022-08-15,2022-08-03,有限会社明光,,有限会社,福島県,須賀川市,塩田字東西ノ内１０３番地１,,07,207,9620711,,,2022-08-03,清算の結了等,,,2015-10-05,1,,,,,メイコウ,0
2409,9400002000651,登記記録の閉鎖等,0,2022-08-15,2022-08-10,有限会社奥州熱絶縁興業,,有限会社,岩手県,盛岡市,三本柳１２地割１８番地２３,,03,201,0200831,,,2022-08-10,清算の結了等,,,2015-10-05,1,,,,,オウシュウネツゼツエンコウギョウ,0
2418,9430001041941,登記記録の閉鎖等,0,2022-08-15,2022-08-01,株式会社北栄,,株式会社,北海道,札幌市中央区,南九条西４丁目３番１－２４０２号,,01,101,0640809,,,2022-08-01,清算の結了等,,,2015-10-05,1,,,,,ホクエイ,0
2429,9470002018852,登記記録の閉鎖等,0,2022-08-15,2022-08-08,上野商事有限会社,,有限会社,香川県,小豆郡土庄町,大部甲９７０番地,,37,322,7614145,,,2022-08-08,清算の結了等,,,2015-10-05,1,,,,,ウエノショウジ,0
2430,9490001001147,登記記録の閉鎖等,0,2022-08-15,2022-08-09,株式会社高須医薬,,株式会社,高知県,高知市,大津乙２７０５番地１,,39,201,7815103,,,2022-08-09,清算の結了等,,,2015-10-05,1,,,,,タカスイヤク,0
2431,9490005000021,登記記録の閉鎖等,0,2022-08-15,2022-08-09,東洋電化事業協同組合,,その他の設立登記法人,高知県,高知市,萩町２丁目２番２５号,,39,201,7808006,,,2022-08-09,清算の結了等,,,2015-10-05,1,,,,,トウヨウデンカ,0
2432,9500002016373,登記記録の閉鎖等,0,2022-08-15,2022-08-10,有限会社光和技研,,有限会社,愛媛県,新居浜市,本郷１丁目１２番７号,,38,205,7920042,,,2022-08-10,清算の結了等,,,2015-10-05,1,,,,,コウワギケン,0
