sequenceNumber,corporateNumber,process,correct,updateDate,changeDate,name,nameImageId,kind,prefectureName,cityName,streetNumber,addressImageId,prefectureCode,cityCode,postCode,addressOutside,addressOutsideImageId,closeDate,closeCause,successorCorporateNumber,changeCause,assignmentDate,latest,enName,enPrefectureName,enCityName,enAddressOutside,furigana,hihyoji
3,1010001239354,新規,0,2023-10-23,2023-10-23,株式会社ＬＣＡエキスパートセンター,,株式会社,東京都,千代田区,内神田１丁目１４番８号,,13,101,1010047,,,,,,,2023-10-23,1,,,,,エルシーエーエキスパートセンター,0
4,1010001239420,新規,0,2023-10-23,2023-10-23,株式会社Ｐｅｏｎｙ,,株式会社,東京都,文京区,千石２丁目３２番６－４０２号,,13,105,1120011,,,,,,,2023-10-23,1,,,,,ピオニー,0
5,1010001239461,新規,0,2023-10-23,2023-10-23,Ｋｉｓｈｉ　Ｔｅｃｈｎｏｌｏｇｉｅｓ株式会社,,株式会社,東京都,中央区,銀座１丁目１２－４Ｎ＆Ｅ・ＢＬＤ．７階,,13,102,1040061,,,,,,,2023-10-23,1,,,,,キシテクノロジーズ,0
6,1010003041980,新規,0,2023-10-23,2023-10-23,合同会社ＤＬＫｏｄａｔｅ,,合同会社,東京都,千代田区,内幸町２丁目１番６号,,13,101,1000011,,,,,,,2023-10-23,1,,,,,ディーエルコダテ,0
8,1010005037382,新規,0,2023-10-23,2023-10-23,メゾン・ド・アルドゥール管理組合法人,,その他の設立登記法人,東京都,中央区,京橋１丁目１番５号,,13,102,1040031,,,,,,,2023-10-23,1,,,,,メゾンドアルドゥール,0
9,1010005037408,新規,0,2023-10-23,2023-10-23,一般社団法人ＲｅＭ　ｍｅｄｉｃａｌ,,その他の設立登記法人,東京都,中央区,銀座５丁目１０番２号ＧＩＮＺＡＭＩＳＳＰＡＲＩＳ２階,,13,102,1040061,,,,,,,2023-10-23,1,,,,,レムメディカル,0
16,1010401178004,新規,0,2023-10-23,2023-10-23,株式会社Ｔｈｒｅｅ　Ｒｏｏｔｓ,,株式会社,東京都,港区,高輪４丁目２３番６号ハイホーム高輪７０８,,13,103,1080074,,,,,,,2023-10-23,1,,,,,スリールーツ,0
26,1010601063988,新規,0,2023-10-23,2023-10-23,株式会社Ｒｅｉ　Ｈ＆Ｂコーポレーション,,株式会社,東京都,墨田区,江東橋４丁目２９－１６プラザ錦糸町ビル３Ｓ,,13,107,1300022,,,,,,,2023-10-23,1,,,,,レイビューティコーポレーション,0
43,1011001157802,新規,0,2023-10-23,2023-10-23,株式会社２ＬＩＮＥ,,株式会社,東京都,渋谷区,恵比寿南３丁目４番１６号,,13,113,1500022,,,,,,,2023-10-23,1,,,,,ツーライン,0
48,1011101104885,新規,0,2023-10-23,2023-10-23,株式会社ＳＩＯＫ,,株式会社,東京都,新宿区,西新宿３丁目３番１３号西新宿水間ビル６階,,13,104,1600023,,,,,,,2023-10-23,1,,,,,エスアイオーケー,0
50,1011201024991,新規,0,2023-10-23,2023-10-23,株式会社ａｓ．ａｓ．ａｓ　ｗｅｂ,,株式会社,東京都,中野区,江古田４丁目２５番１１号,,13,114,1650022,,,,,,,2023-10-23,1,,,,,アズアズアズウェブ,0
55,1011503005814,新規,0,2023-10-23,2023-10-23,合同会社黒,,合同会社,東京都,荒川区,東日暮里６丁目６０番９号日暮里駅前ビル４Ｆ,,13,118,1160014,,,,,,,2023-10-23,1,,,,,クロ,0
56,1011601027215,新規,0,2023-10-23,2023-10-23,株式会社ＨＩＲＡＣ,,株式会社,東京都,練馬区,東大泉４丁目１６番２号,,13,120,1780063,,,,,,,2023-10-23,1,,,,,ヒラク,0
60,1011701026686,新規,0,2023-10-23,2023-10-23,Ｒａｙ’ｓ株式会社,,株式会社,東京都,江戸川区,平井２丁目１２番１７号,,13,123,1320035,,,,,,,2023-10-23,1,,,,,レイズ,0
61,1011801043193,新規,0,2023-10-23,2023-10-23,株式会社ＳｕｎｄａｙＨｕｔ,,株式会社,東京都,葛飾区,柴又２丁目１３番８－８０１号,,13,122,1250052,,,,,,,2023-10-23,1,,,,,サンデーハット,0
62,1011801043202,新規,0,2023-10-23,2023-10-23,いろは株式会社,,株式会社,東京都,葛飾区,奥戸５丁目８番９－１０３号,,13,122,1240022,,,,,,,2023-10-23,1,,,,,イロハ,0
68,1020001154107,新規,0,2023-10-23,2023-10-23,株式会社ｃｏｒｄａ,,株式会社,神奈川県,横浜市保土ケ谷区,常盤台４０番１－Ｄ３０８号,,14,106,2400067,,,,,,,2023-10-23,1,,,,,コルダ,0
73,1020003024828,新規,0,2023-10-23,2023-10-23,星月堂合同会社,,合同会社,神奈川県,横浜市中区,山下町９１番地リシェ横浜山下公園８０３号室,,14,104,2310023,,,,,,,2023-10-23,1,,,,,ホシツキドウ,0
85,1030001156754,新規,0,2023-10-23,2023-10-23,株式会社Ｃｌｅｌｉａ,,株式会社,埼玉県,八潮市,中央２丁目２５番地１３,,11,234,3400816,,,,,,,2023-10-23,1,,,,,クレリア,0
86,1030001156787,新規,0,2023-10-23,2023-10-23,株式会社サトプラス,,株式会社,埼玉県,草加市,金明町１１１７番地,,11,221,3400052,,,,,,,2023-10-23,1,,,,,サトプラス,0
87,1030001156795,新規,0,2023-10-23,2023-10-23,株式会社ユメツナグ,,株式会社,埼玉県,戸田市,川岸１丁目３番２５－３０３号,,11,224,3350015,,,,,,,2023-10-23,1,,,,,ユメツナグ,0
99,1030003022814,新規,0,2023-10-23,2023-10-23,Ｓ１ＤＤ合同会社,,合同会社,埼玉県,さいたま市岩槻区,城南５丁目６－１８－５,,11,110,3390043,,,,,,,2023-10-23,1,,,,,エスワンディーディー,0
104,1040001130592,新規,0,2023-10-23,2023-10-23,株式会社ビースタイル,,株式会社,千葉県,富里市,七栄６４６番地６１４,,12,233,2860221,,,,,,,2023-10-23,1,,,,,ビースタイル,0
105,1040001130618,新規,0,2023-10-23,2023-10-23,株式会社山貴Ｇｒｏｕｐ,,株式会社,千葉県,市川市,鬼高４丁目１０番８－８０５号,,12,203,2720015,,,,,,,2023-10-23,1,,,,,ヤマキグループ,0
106,1040001130634,新規,0,2023-10-23,2023-10-23,賽不動産株式会社,,株式会社,千葉県,浦安市,美浜３丁目２９番４号,,12,227,2790011,,,,,,,2023-10-23,1,,,,,サイフドウサン,0
112,1040005022167,新規,0,2023-10-23,2023-10-23,医療法人社団高志会,,その他の設立登記法人,千葉県,船橋市,本町５丁目４番５号プラウドタワー船橋北棟２階Ｎ－２区画,,12,204,2730005,,,,,,,2023-10-23,1,,,,,コウシカイ,0
113,1050001053685,新規,0,2023-10-23,2023-10-23,株式会社スチールワークシステム,,株式会社,茨城県,取手市,台宿２丁目２７番２８－８０８号,,08,217,3020013,,,,,,,2023-10-23,1,,,,,スチールワークシステム,0
115,1060001036458,新規,0,2023-10-23,2023-10-23,株式会社ＫＴＭ,,株式会社,栃木県,宇都宮市,大寛１丁目１番２１号,,09,201,3200867,,,,,,,2023-10-23,1,,,,,ケーティーエム,0
116,1060001036466,新規,0,2023-10-23,2023-10-23,エル・プロジェクト株式会社,,株式会社,栃木県,宇都宮市,鶴田町３３１４番地３４グランマールＣ,,09,201,3200851,,,,,,,2023-10-23,1,,,,,エルプロジェクト,0
117,1060001036474,新規,0,2023-10-23,2023-10-23,株式会社フォレストリゾートラボ,,株式会社,栃木県,那須郡那須町,大字高久乙１８８０番地,,09,407,3250303,,,,,,,2023-10-23,1,,,,,フォレストリゾートラボ,0
123,1070001040995,新規,0,2023-10-23,2023-10-23,株式会社ＰｌｕｓＯｎｅ,,株式会社,群馬県,邑楽郡大泉町,大字吉田２０６９番地２,,10,524,3700523,,,,,,,2023-10-23,1,,,,,プラスワン,0
133,1100001036899,新規,0,2023-10-23,2023-10-23,Ｎｏｚａｗａ　Ｈｏｍｅｓ株式会社,,株式会社,長野県,下高井郡野沢温泉村,大字豊郷７８７５－３,,20,563,3892502,,,,,,,2023-10-23,1,,,,,ノザワホームズ,0
143,1120001259011,新規,0,2023-10-23,2023-10-23,雄星株式会社,,株式会社,大阪府,大阪市大正区,三軒家西３丁目４番１６号中山ビル１０３４,,27,108,5510001,,,,,,,2023-10-23,1,,,,,ユウセイ,0
144,1120001259028,新規,0,2023-10-23,2023-10-23,株式会社ＣＨＡＹＡ,,株式会社,大阪府,大阪市城東区,野江２丁目２０－１－４０１室,,27,118,5360006,,,,,,,2023-10-23,1,,,,,チャヤ,0
145,1120001259044,新規,0,2023-10-23,2023-10-23,聚星株式会社,,株式会社,大阪府,大阪市大正区,三軒家西３丁目４番１６号中山ビル１０３９,,27,108,5510001,,,,,,,2023-10-23,1,,,,,シュウセイ,0
146,1120001259093,新規,0,2023-10-23,2023-10-23,株式会社ユーキ企画,,株式会社,大阪府,大阪市港区,磯路２丁目１２番１－９１９号,,27,107,5520003,,,,,,,2023-10-23,1,,,,,ユーキキカク,0
147,1120001259127,新規,0,2023-10-23,2023-10-23,株式会社Ｍ＆Ｋ,,株式会社,大阪府,大阪市西淀川区,竹島３丁目１１番２４号,,27,113,5550011,,,,,,,2023-10-23,1,,,,,エムアンドケー,0
149,1120103005503,新規,0,2023-10-23,2023-10-23,ＮＡＳＡ合同会社,,合同会社,大阪府,藤井寺市,御舟町３番４号,,27,226,5830021,,,,,,,2023-10-23,1,,,,,ナサ,0
151,1120901048240,新規,0,2023-10-23,2023-10-23,株式会社Ｔｈｅ　Ｃｒｅａｔｉｖｅ　Ｐｉａｎｏ　Ｓｔｕｄｉｏ,,株式会社,大阪府,箕面市,小野原西１丁目３番２４号,,27,220,5620032,,,,,,,2023-10-23,1,,,,,ザクリエイティブピアノスタジオ,0
152,1120901048257,新規,0,2023-10-23,2023-10-23,ＦＲＥＥＤＯＭ株式会社,,株式会社,大阪府,高槻市,天王町３２番１６号,,27,207,5690088,,,,,,,2023-10-23,1,,,,,フリーダム,0
153,1120903004885,新規,0,2023-10-23,2023-10-23,合同会社ａｎｄ‐ａｒ‐ｄｅｓｉｇｎ,,合同会社,大阪府,吹田市,山田西４丁目１４－１－１１０１,,27,205,5650824,,,,,,,2023-10-23,1,,,,,アンダールデザイン,0
154,1122001037495,新規,0,2023-10-23,2023-10-23,株式会社ケンシンワークス,,株式会社,大阪府,東大阪市,南鴻池町２丁目１３番３２号,,27,227,5780961,,,,,,,2023-10-23,1,,,,,ケンシンワークス,0
155,1122003002704,新規,0,2023-10-23,2023-10-23,合同会社小池さぁーん,,合同会社,大阪府,八尾市,松山町２丁目３番２０号,,27,212,5810088,,,,,,,2023-10-23,1,,,,,コイケサァーン,0
161,1130003009090,新規,0,2023-10-23,2023-10-23,合同会社Ｌｕｂｈ,,合同会社,京都府,京都市下京区,朱雀宝蔵町４４番地協栄ビル２階京都朱雀スタジオ,,26,106,6008846,,,,,,,2023-10-23,1,,,,,ローバ,0
168,1140001132050,新規,0,2023-10-23,2023-10-23,ニクノ株式会社,,株式会社,兵庫県,加古川市,志方町志方町１５３８番地の１,,28,210,6750321,,,,,,,2023-10-23,1,,,,,,0
169,1140001132067,新規,0,2023-10-23,2023-10-23,株式会社ｈｕｐｏｄｅａ,,株式会社,兵庫県,神戸市東灘区,向洋町中６丁目９神戸ファッションマート８Ｎ－１０,,28,101,6580032,,,,,,,2023-10-23,1,,,,,ヒューポディア,0
170,1140001132075,新規,0,2023-10-23,2023-10-23,株式会社Ｔ・Ｔ・Ｍ,,株式会社,兵庫県,西宮市,平木町８番１１号,,28,204,6620835,,,,,,,2023-10-23,1,,,,,ティーティーエム,0
171,1140001132083,新規,0,2023-10-23,2023-10-23,キャピタル株式会社,,株式会社,兵庫県,神戸市垂水区,多聞台５丁目５番２４号,,28,108,6550007,,,,,,,2023-10-23,1,,,,,キャピタル,0
175,1140003019709,新規,0,2023-10-23,2023-10-23,ＡＢＳ農研開発合同会社,,合同会社,兵庫県,姫路市,二階町８０番地,,28,201,6700922,,,,,,,2023-10-23,1,,,,,エービーエスノウケンカイハツ,0
176,1140003019725,新規,0,2023-10-23,2023-10-23,合同会社Ｈｙｎ,,合同会社,兵庫県,芦屋市,山手町１７番９－１号,,28,206,6590096,,,,,,,2023-10-23,1,,,,,アイン,0
178,1140005026777,新規,0,2023-10-23,2023-10-23,一般社団法人日本パーソナルインベスト協会,,その他の設立登記法人,兵庫県,西宮市,津門綾羽町３番１６号,,28,204,6638244,,,,,,,2023-10-23,1,,,,,ニホンパーソナルインベストキョウカイ,0
182,1180001158554,新規,0,2023-10-23,2023-10-23,株式会社イキル,,株式会社,愛知県,名古屋市中村区,名駅４丁目２番１０号名駅日進ビル２階,,23,105,4500002,,,,,,,2023-10-23,1,,,,,イキル,0
183,1180001158579,新規,0,2023-10-23,2023-10-23,株式会社浄心ネーム,,株式会社,愛知県,名古屋市西区,城西５丁目２０番１９号,,23,104,4510031,,,,,,,2023-10-23,1,,,,,ジョウシンネーム,0
184,1180001158587,新規,0,2023-10-23,2023-10-23,ネオクリエイトＨＤ株式会社,,株式会社,愛知県,名古屋市中区,丸の内３丁目１６番１９号,,23,106,4600002,,,,,,,2023-10-23,1,,,,,ネオクリエイトホールディングス,0
190,1180003025777,新規,0,2023-10-23,2023-10-23,合同会社Ｂｌｕｅ　Ｏｒｉｇｉｎ,,合同会社,愛知県,名古屋市緑区,東神の倉３丁目２２１３番地の１・２０６号,,23,114,4580808,,,,,,,2023-10-23,1,,,,,ブルーオリジン,0
201,1220001025650,新規,0,2023-10-23,2023-10-23,Ｎオリーブ株式会社,,株式会社,石川県,野々市市,長池２９番地,,17,212,9218808,,,,,,,2023-10-23,1,,,,,エヌオリーブ,0
202,1230001020072,新規,0,2023-10-23,2023-10-23,ＵＳ株式会社,,株式会社,富山県,小矢部市,小神１４４番地,,16,209,9320817,,,,,,,2023-10-23,1,,,,,ユエス,0
203,1240001062287,新規,0,2023-10-23,2023-10-23,株式会社ミナサカ,,株式会社,広島県,広島市佐伯区,皆賀３丁目８番１１号,,34,108,7315124,,,,,,,2023-10-23,1,,,,,ミナサカ,0
207,1250003003370,新規,0,2023-10-23,2023-10-23,合同会社Ｏｎｅらいふ,,合同会社,山口県,柳井市,新庄２６６７番地２,,35,212,7420033,,,,,,,2023-10-23,1,,,,,ワンライフ,0
208,1260001038434,新規,0,2023-10-23,2023-10-23,株式会社リレーションシップ,,株式会社,岡山県,岡山市南区,藤田６５１番地１８－１Ａ１０２,,33,104,7010221,,,,,,,2023-10-23,1,,,,,リレーションシップ,0
209,1270003001570,新規,0,2023-10-23,2023-10-23,合同会社ＴＲＩＣＯ,,合同会社,鳥取県,鳥取市,鹿野町鹿野３００５番地１４,,31,201,6890405,,,,,,,2023-10-23,1,,,,,トリコ,0
210,1280001009053,新規,0,2023-10-23,2023-10-23,Ａｎｄ　Ｔｒｕｓｔ株式会社,,株式会社,島根県,松江市,南田町３２番地１３,,32,201,6900884,,,,,,,2023-10-23,1,,,,,アンドトラスト,0
211,1280003001784,新規,0,2023-10-23,2023-10-23,アステラス合同会社,,合同会社,島根県,雲南市,大東町養賀９０２－５,,32,209,6991245,,,,,,,2023-10-23,1,,,,,アステラス,0
216,1290001103490,新規,0,2023-10-23,2023-10-23,株式会社こと葉,,株式会社,福岡県,福岡市博多区,博多駅東２丁目５番１９号サンライフ第３ビル６階,,40,132,8120013,,,,,,,2023-10-23,1,,,,,コトハ,0
220,1290003014513,新規,0,2023-10-23,2023-10-23,合同会社Ａｒｃｔｕｒｕｓ,,合同会社,福岡県,福岡市中央区,清川３丁目１－２１リヴァージュ清川１０３号室,,40,133,8100005,,,,,,,2023-10-23,1,,,,,アルクトゥルス,0
221,1300001013507,新規,0,2023-10-23,2023-10-23,ジー・テックホールディングス株式会社,,株式会社,佐賀県,佐賀市,鍋島２丁目５番２１号,,41,201,8490937,,,,,,,2023-10-23,1,,,,,ジーテックホールディングス,0
224,1320003004213,新規,0,2023-10-23,2023-10-23,ＲＯＤＤ合同会社,,合同会社,大分県,別府市,弓ケ浜町５番２０号大分合同新聞社別府総局２階,,44,202,8740927,,,,,,,2023-10-23,1,,,,,ロッド,0
227,1330003010029,新規,0,2023-10-23,2023-10-23,合同会社ＩＧＭ,,合同会社,熊本県,合志市,豊岡２２１７－７１,,43,216,8611115,,,,,,,2023-10-23,1,,,,,,0
230,1350001018633,新規,0,2023-10-23,2023-10-23,株式会社おし乃,,株式会社,宮崎県,宮崎市,阿波岐原町前浜４２７６－８６８,,45,201,8800835,,,,,,,2023-10-23,1,,,,,オシノ,0
234,1360001032724,新規,0,2023-10-23,2023-10-23,株式会社インスパイア琉球,,株式会社,沖縄県,浦添市,城間２丁目１２番５号２０５号室,,47,208,9012133,,,,,,,2023-10-23,1,,,,,インスパイアリュウキュウ,0
235,1360003013400,新規,0,2023-10-23,2023-10-23,エルシエロ合同会社,,合同会社,沖縄県,名護市,宮里１丁目２７－７,,47,209,9050011,,,,,,,2023-10-23,1,,,,,エルシエロ,0
242,1380001034082,新規,0,2023-10-23,2023-10-23,株式会社大工の上野,,株式会社,福島県,喜多方市,関柴町三津井字唐八２３００番地１,,07,208,9660017,,,,,,,2023-10-23,1,,,,,ダイクノウエノ,0
247,1380003005593,新規,0,2023-10-23,2023-10-23,合同会社ひまわり,,合同会社,福島県,田村市,船引町船引字砂子田１４６番地３,,07,211,9634312,,,,,,,2023-10-23,1,,,,,ヒマワリ,0
253,1420003002818,新規,0,2023-10-23,2023-10-23,合同会社ａｓｂｅｅｆｒｅｅ,,合同会社,青森県,弘前市,大字代官町５６番地三ツ矢代官町ビル２－１,,02,202,0368001,,,,,,,2023-10-23,1,,,,,アズビィフリィ,0
256,1430001090236,新規,0,2023-10-23,2023-10-23,株式会社ＡＰＰＥｎＥ,,株式会社,北海道,樺戸郡月形町,字赤川２０９番地,,01,430,0610518,,,,,,,2023-10-23,1,,,,,アッペネ,0
257,1430001090244,新規,0,2023-10-23,2023-10-23,一新興業株式会社,,株式会社,北海道,札幌市手稲区,西宮の沢一条２丁目３番７号,,01,109,0060001,,,,,,,2023-10-23,1,,,,,イッシンコウギョウ,0
263,1470001019859,新規,0,2023-10-23,2023-10-23,彩雲株式会社,,株式会社,香川県,高松市,木太町５０４６番地４,,37,201,7600080,,,,,,,2023-10-23,1,,,,,サイウン,0
266,1700150121318,新規,0,2023-10-23,2023-10-23,Ｚｈｏｕｓｈａｎｓｈｉ　Ｚｈｏｎｇｘｉａｎｇ　Ｓｉｈｕａ　ｅｃｏｍｍｅｒｃｅ　Ｃｏ．，Ｌｔｄ,,外国会社等,,,,,,,,Ａｎｔａｉｊｉａｙｕａｎ６２０６，Ｓｈａｚｕｉｗａｎ　Ｒｏ　Ｎｏ．６０１Ｄｏｎｇｇａｎｇ　Ｓｔｒｅｅｔ，Ｐｕｔｕｏ　ＤｉｓｔｒｉｃｔＺｈｏｕｓｈａｎＺｈｅｊｉａｎｇ３１６１００ＣＮ,,,,,,2023-10-23,1,,,,,ジョウシャンシージョンシャンスーフワーディエンズーシャンウーヨウシエンゴンスー,0
267,2010001239378,新規,0,2023-10-23,2023-10-23,株式会社Ｓ．Ｋ．Ｇａｌｌｅｒｙ,,株式会社,東京都,中央区,日本橋箱崎町１６番１号,,13,102,1030015,,,,,,,2023-10-23,1,,,,,エスケーギャラリー,0
268,2010001239394,新規,0,2023-10-23,2023-10-23,ＢｅａｃｈＵＰ株式会社,,株式会社,東京都,中央区,日本橋堀留町１丁目１０番１号,,13,102,1030012,,,,,,,2023-10-23,1,,,,,ビーチアップ,0
270,2010003041996,新規,0,2023-10-23,2023-10-23,八賃貸保証合同会社,,合同会社,東京都,中央区,日本橋茅場町２丁目１７－３ブルーハイツ茅場町２階,,13,102,1030025,,,,,,,2023-10-23,1,,,,,ワカツチンタイホショウ,0
272,2010005037381,新規,0,2023-10-23,2023-10-23,メゾン・ド・シャトー管理組合法人,,その他の設立登記法人,東京都,中央区,京橋１丁目１番５号,,13,102,1040031,,,,,,,2023-10-23,1,,,,,メゾンドシャトー,0
279,2010401177888,新規,0,2023-10-23,2023-10-23,株式会社Ｍｉｌｓ　ｗｈｉｔｅ,,株式会社,東京都,港区,南青山３丁目１番３６号青山丸竹ビル６Ｆ,,13,103,1070062,,,,,,,2023-10-23,1,,,,,ミルスホワイト,0
280,2010401177995,新規,0,2023-10-23,2023-10-23,Ｐｅｔｓ　Ｔｏｋｙｏ株式会社,,株式会社,東京都,港区,赤坂４丁目４－８ＶＯＲＴ赤坂ＩＩ８Ｆ,00132350,13,103,1070052,,,,,,,2023-10-23,1,,,,,ペッツトウキョウ,0
284,2010403031218,新規,0,2023-10-23,2023-10-23,ＡｎＴｒｅｅ　ｔｏｋｙｏ合同会社,,合同会社,東京都,港区,芝２丁目５－１９ＩＴＯビル５Ｆ,,13,103,1050014,,,,,,,2023-10-23,1,,,,,アントゥリートウキョウ,0
285,2010601064003,新規,0,2023-10-23,2023-10-23,ＧＯＬＤＥＮ　ＬＡＮＤ株式会社,,株式会社,東京都,墨田区,東墨田２丁目３番２８号,,13,107,1310042,,,,,,,2023-10-23,1,,,,,ゴールデンランド,0
294,2010901054059,新規,0,2023-10-23,2023-10-23,株式会社ＫＳ企画,,株式会社,東京都,世田谷区,宮坂３丁目４２番１４号,,13,112,1560051,,,,,,,2023-10-23,1,,,,,ケイエスキカク,0
303,2011001157537,新規,0,2023-10-23,2023-10-23,株式会社ＴｅｎｐｏＨｕｂ,,株式会社,東京都,渋谷区,道玄坂１丁目１０番８号渋谷道玄坂東急ビル２Ｆ－Ｃ,,13,113,1500043,,,,,,,2023-10-23,1,,,,,テンポハブ,0
304,2011001157693,新規,0,2023-10-23,2023-10-23,齋藤信勝株式会社,,株式会社,東京都,渋谷区,桜丘町１３番３号,,13,113,1500031,,,,,,,2023-10-23,1,,,,,サイトウノブカツ,0
305,2011001157702,新規,0,2023-10-23,2023-10-23,株式会社フラッシュベル,,株式会社,東京都,渋谷区,道玄坂１丁目１０番８号渋谷道玄坂東急ビル２Ｆ－Ｃ,,13,113,1500043,,,,,,,2023-10-23,1,,,,,フラッシュベル,0
306,2011001157784,新規,0,2023-10-23,2023-10-23,株式会社横浜山下町オペレーションズ,,株式会社,東京都,渋谷区,恵比寿４丁目１番１８号恵比寿ネオナート,,13,113,1500013,,,,,,,2023-10-23,1,,,,,ヨコハマヤマシタチョウオペレーションズ,0
307,2011001157792,新規,0,2023-10-23,2023-10-23,株式会社ＫｏｔａＧｕｓｈｉｋｅｎ,,株式会社,東京都,渋谷区,東１丁目３番１－３０８号,,13,113,1500011,,,,,,,2023-10-23,1,,,,,コウタグシケン,0
308,2011001157826,新規,0,2023-10-23,2023-10-23,Ｏｒｇａｎｏｎ株式会社,,株式会社,東京都,渋谷区,渋谷２丁目１９番１５号宮益坂ビルディング６０９,,13,113,1500002,,,,,,,2023-10-23,1,,,,,オルガノン,0
318,2011101104819,新規,0,2023-10-23,2023-10-23,株式会社ＡＬＡＤＤＩＮ,,株式会社,東京都,新宿区,中落合３丁目２４番１１号,,13,104,1610032,,,,,,,2023-10-23,1,,,,,アラジン,0
319,2011101104851,新規,0,2023-10-23,2023-10-23,株式会社ＷＨＡＴ,,株式会社,東京都,新宿区,西新宿３丁目３番１３号西新宿水間ビル６階,,13,104,1600023,,,,,,,2023-10-23,1,,,,,ワット,0
320,2011101104876,新規,0,2023-10-23,2023-10-23,株式会社サンセットモーション,,株式会社,東京都,新宿区,新宿２丁目１２番１３号,,13,104,1600022,,,,,,,2023-10-23,1,,,,,,0
325,2011301029114,新規,0,2023-10-23,2023-10-23,株式会社パルタジェ,,株式会社,東京都,杉並区,永福３丁目１５番９号,,13,115,1680064,,,,,,,2023-10-23,1,,,,,パルタジェ,0
327,2011501029896,新規,0,2023-10-23,2023-10-23,笙華商事株式会社,,株式会社,東京都,北区,赤羽２丁目４７－８大黒ビル３０３号室,,13,117,1150045,,,,,,,2023-10-23,1,,,,,ショウカショウジ,0
329,2011503005813,新規,0,2023-10-23,2023-10-23,合同会社ハンドアクト,,合同会社,東京都,北区,浮間３丁目１９－４グランシティリバーステージ赤羽１０４,,13,117,1150051,,,,,,,2023-10-23,1,,,,,ハンドアクト,0
334,2011701026685,新規,0,2023-10-23,2023-10-23,株式会社トライサイト,,株式会社,東京都,江戸川区,篠崎町３丁目９番２２号,,13,123,1330061,,,,,,,2023-10-23,1,,,,,トライサイト,0
335,2011801043201,新規,0,2023-10-23,2023-10-23,城北興産株式会社,,株式会社,東京都,足立区,南花畑４丁目１４番５号,,13,121,1210062,,,,,,,2023-10-23,1,,,,,ジョウホクコウサン,0
339,2013301051519,新規,0,2023-10-23,2023-10-23,株式会社ＹＳＦ,,株式会社,東京都,豊島区,要町１丁目６－１－４０１,,13,116,1710043,,,,,,,2023-10-23,1,,,,,ワイエスエフ,0
340,2013303006826,新規,0,2023-10-23,2023-10-23,合同会社ＴＳＵＤＯＩ,,合同会社,東京都,豊島区,高田３丁目１０－２４第２大島ビル４０３,,13,116,1710033,,,,,,,2023-10-23,1,,,,,ツドイ,0
347,2020001154056,新規,0,2023-10-23,2023-10-23,株式会社ＭＡＵＶＥ’Ｓ,,株式会社,神奈川県,横浜市中区,常盤町３丁目３４番２－２０１号,,14,104,2310014,,,,,,,2023-10-23,1,,,,,モーヴ,0
348,2020001154064,新規,0,2023-10-23,2023-10-23,ショクルワンズ株式会社,,株式会社,神奈川県,川崎市高津区,下作延１丁目１１番７号,,14,134,2130033,,,,,,,2023-10-23,1,,,,,ショクルワンズ,0
350,2020003024810,新規,0,2023-10-23,2023-10-23,合同会社山下ロックサービス,,合同会社,神奈川県,川崎市中原区,丸子通２丁目６８２番地４８,,14,133,2110006,,,,,,,2023-10-23,1,,,,,ヤマシタロックサービス,0
351,2020003024819,新規,0,2023-10-23,2023-10-23,合同会社かえる,,合同会社,神奈川県,横浜市鶴見区,鶴見中央１丁目２１番地６号コンフォート・ネスト７０５,,14,101,2300051,,,,,,,2023-10-23,1,,,,,カエル,0
352,2020003024827,新規,0,2023-10-23,2023-10-23,合同会社ネクストナビ,,合同会社,神奈川県,川崎市中原区,下新城１丁目１１番１７－１０１号ケイハウス新城,,14,133,2110042,,,,,,,2023-10-23,1,,,,,ネクストナビ,0
371,2030001156753,新規,0,2023-10-23,2023-10-23,株式会社モナミ工業,,株式会社,埼玉県,八潮市,八潮６丁目２１番地５,,11,234,3400815,,,,,,,2023-10-23,1,,,,,モナミコウギョウ,0
372,2030001156761,新規,0,2023-10-23,2023-10-23,株式会社イーエス,,株式会社,埼玉県,上尾市,緑丘３丁目１番２７号ヴェラヴィータ上尾３０４,,11,219,3620015,,,,,,,2023-10-23,1,,,,,イーエス,0
373,2030001156786,新規,0,2023-10-23,2023-10-23,Ｔ‐ｗｉｎｇ’ｓ株式会社,,株式会社,埼玉県,春日部市,樋堀３４９番地７グランハイムコア１０２号,00132366,11,214,3440005,,,,,,,2023-10-23,1,,,,,ティーウィングス,0
374,2030001156794,新規,0,2023-10-23,2023-10-23,株式会社ＯｎｅＬｉｋｅ,,株式会社,埼玉県,深谷市,西大沼３８８－７,,11,218,3660829,,,,,,,2023-10-23,1,,,,,ワンライク,0
375,2030001156811,新規,0,2023-10-23,2023-10-23,株式会社ＡＫ．Ｒｅｓｏｕｒｃｅ,,株式会社,埼玉県,さいたま市緑区,大字三室２６２１番地３,,11,109,3360911,,,,,,,2023-10-23,1,,,,,エイケイリソース,0
385,2030003022821,新規,0,2023-10-23,2023-10-23,合同会社晴歩,,合同会社,埼玉県,三郷市,中央１丁目２番地１ザ・ライオンズ三郷中央１３０５号,,11,237,3410038,,,,,,,2023-10-23,1,,,,,ハルホ,0
387,2030005021425,新規,0,2023-10-23,2023-10-23,一般社団法人日本未来経済学協会,,その他の設立登記法人,埼玉県,さいたま市大宮区,桜木町２丁目３番地大宮マルイ７階,,11,103,3300854,,,,,,,2023-10-23,1,,,,,ニホンミライケイザイガクキョウカイ,0
391,2040001130542,新規,0,2023-10-23,2023-10-23,株式会社クリーンタオル,,株式会社,千葉県,匝瑳市,平木１０３４番地の１,,12,235,2892113,,,,,,,2023-10-23,1,,,,,クリーンタオル,0
392,2040001130575,新規,0,2023-10-23,2023-10-23,株式会社ヤマユー,,株式会社,千葉県,成田市,郷部１４２８番地２,,12,211,2860014,,,,,,,2023-10-23,1,,,,,ヤマユー,0
393,2040001130600,新規,0,2023-10-23,2023-10-23,株式会社パイプライン,,株式会社,千葉県,千葉市美浜区,幸町２丁目１０番５棟３１０号,,12,106,2610001,,,,,,,2023-10-23,1,,,,,パイプライン,0
398,2040003023587,新規,0,2023-10-23,2023-10-23,Ｔメディック合同会社,,合同会社,千葉県,香取市,分郷１２７番地１,,12,236,2890305,,,,,,,2023-10-23,1,,,,,ティーメディック,0
399,2040003023595,新規,0,2023-10-23,2023-10-23,合同会社ブランドロン千葉,,合同会社,千葉県,松戸市,松戸１３０７番地の１松戸ビル１３階,,12,207,2710092,,,,,,,2023-10-23,1,,,,,ブランドロンチバ,0
401,2040005022166,新規,0,2023-10-23,2023-10-23,医療法人社団桜樹会,,その他の設立登記法人,千葉県,千葉市美浜区,中瀬１丁目３番地幕張テクノガーデンＣＢ棟３Ｆ幕張ビジネスポート,,12,106,2610023,,,,,,,2023-10-23,1,,,,,オウジュカイ,0
402,2050001053676,新規,0,2023-10-23,2023-10-23,ＥＡＳＴ　ＢＲＩＤＧＥ株式会社,,株式会社,茨城県,石岡市,東大橋２０７０番地１５,,08,205,3150031,,,,,,,2023-10-23,1,,,,,イーストブリッジ,0
405,2070003005145,新規,0,2023-10-23,2023-10-23,合同会社ゼロワングループ,,合同会社,群馬県,伊勢崎市,宮前町１５０番地１サルート宮前ビル２０１号室,,10,204,3720026,,,,,,,2023-10-23,1,,,,,ゼロワングループ,0
417,2120001259027,新規,0,2023-10-23,2023-10-23,千翠株式会社,,株式会社,大阪府,大阪市淀川区,宮原５丁目４番２号２Ｆ,,27,123,5320003,,,,,,,2023-10-23,1,,,,,センスイ,0
418,2120001259043,新規,0,2023-10-23,2023-10-23,株式会社Ａｄｄｒｅｓｓ,,株式会社,大阪府,大阪市北区,茶屋町４番１３号,,27,127,5300013,,,,,,,2023-10-23,1,,,,,アドレス,0
419,2120001259051,新規,0,2023-10-23,2023-10-23,＿道株式会社,00132353,株式会社,大阪府,大阪市生野区,桃谷３丁目９番１７号,,27,116,5440034,,,,,,,2023-10-23,1,,,,,ジンドウ,0
422,2120003025154,新規,0,2023-10-23,2023-10-23,合同会社ＬＩＭ,,合同会社,大阪府,大阪市天王寺区,上本町５丁目４番１１－１２０９号,,27,109,5430001,,,,,,,2023-10-23,1,,,,,リム,0
423,2120003025162,新規,0,2023-10-23,2023-10-23,西平合同会社,,合同会社,大阪府,大阪市大正区,北村２丁目５番１４号,,27,108,5510032,,,,,,,2023-10-23,1,,,,,ニシヒラ,0
425,2120101068419,新規,0,2023-10-23,2023-10-23,Ｔａｃｏｏ株式会社,,株式会社,大阪府,松原市,阿保３丁目６番２－５０６号,,27,217,5800043,,,,,,,2023-10-23,1,,,,,タコー,0
426,2120101068427,新規,0,2023-10-23,2023-10-23,ホーム建窓株式会社,,株式会社,大阪府,松原市,天美西１丁目１番５４４号,,27,217,5800034,,,,,,,2023-10-23,1,,,,,ホームケンソウ,0
428,2120901048248,新規,0,2023-10-23,2023-10-23,エグゼブル株式会社,,株式会社,大阪府,吹田市,片山町１丁目１番２７０１号,,27,205,5640082,,,,,,,2023-10-23,1,,,,,エグゼブル,0
431,2122001037503,新規,0,2023-10-23,2023-10-23,パッケージ・プロダクション株式会社,,株式会社,大阪府,大東市,朋来１丁目３０番３２号,,27,218,5740034,,,,,,,2023-10-23,1,,,,,パッケージプロダクション,0
432,2122003002703,新規,0,2023-10-23,2023-10-23,合同会社ＭｅｔａＬａｂ,,合同会社,大阪府,東大阪市,荒本新町１番９－３０１号,,27,227,5770022,,,,,,,2023-10-23,1,,,,,メタラボ,0
439,2130001075480,新規,0,2023-10-23,2023-10-23,敏光建築工房株式会社,,株式会社,京都府,京都市中京区,西ノ京車坂町２番地１３,,26,104,6048405,,,,,,,2023-10-23,1,,,,,トシミツケンチクコウボウ,0
444,2140001132017,新規,0,2023-10-23,2023-10-23,株式会社ＳＡＮＴＯ　ＴＲＤ,,株式会社,兵庫県,神戸市長田区,菅原通７丁目３９番地の３,,28,106,6530015,,,,,,,2023-10-23,1,,,,,サントティーアールディー,0
445,2140001132058,新規,0,2023-10-23,2023-10-23,株式会社アールエム,,株式会社,兵庫県,姫路市,書写２２１６番地４,,28,201,6712201,,,,,,,2023-10-23,1,,,,,アールエム,0
446,2140001132066,新規,0,2023-10-23,2023-10-23,株式会社ティエムエス,,株式会社,兵庫県,伊丹市,荒牧１丁目５番１４号,,28,207,6640001,,,,,,,2023-10-23,1,,,,,ティエムエス,0
447,2140001132074,新規,0,2023-10-23,2023-10-23,株式会社はない,,株式会社,兵庫県,明石市,大久保町西島１０５４番地の７,,28,203,6740065,,,,,,,2023-10-23,1,,,,,ハナイ,0
448,2140001132082,新規,0,2023-10-23,2023-10-23,株式会社田中遠画読影センター,,株式会社,兵庫県,芦屋市,東芦屋町１７番２３－４０３号,00132370,28,206,6590095,,,,,,,2023-10-23,1,,,,,タナカエンカクドクエイセンター,0
449,2140001132090,新規,0,2023-10-23,2023-10-23,株式会社柏木工業,,株式会社,兵庫県,神戸市東灘区,御影３丁目１１番２０－６０２号,,28,101,6580047,,,,,,,2023-10-23,1,,,,,カシワギコウギョウ,0
455,2140003019708,新規,0,2023-10-23,2023-10-23,Ｇｏｅｎ合同会社,,合同会社,兵庫県,宝塚市,伊孑志３丁目２番４２号１０７号室,,28,214,6650033,,,,,,,2023-10-23,1,,,,,ゴエン,0
457,2170001017850,新規,0,2023-10-23,2023-10-23,株式会社ＳＡＫＡＩ重機工業,,株式会社,和歌山県,海草郡紀美野町,動木５５５番地６,,30,304,6401131,,,,,,,2023-10-23,1,,,,,サカイジュウキコウギョウ,0
458,2170003001935,新規,0,2023-10-23,2023-10-23,合同会社Ｎｉｃｏｒｉ,,合同会社,和歌山県,有田郡有田川町,大字庄４５６番地,,30,366,6430811,,,,,,,2023-10-23,1,,,,,ニコリ,0
460,2180001158520,新規,0,2023-10-23,2023-10-23,株式会社ｃｏｍｅｎｏｉ,,株式会社,愛知県,海部郡大治町,大字東條字砂島４５番地の３,,23,424,4901134,,,,,,,2023-10-23,1,,,,,カムノイ,0
461,2180001158586,新規,0,2023-10-23,2023-10-23,株式会社中部ホームサービスアイチ,,株式会社,愛知県,名古屋市昭和区,長戸町４丁目２２番地の７,,23,107,4660848,,,,,,,2023-10-23,1,,,,,チュウブホームサービスアイチ,0
462,2180001158603,新規,0,2023-10-23,2023-10-23,株式会社ＦＵＬ,,株式会社,愛知県,名古屋市北区,辻町４丁目４０－４０,,23,103,4620032,,,,,,,2023-10-23,1,,,,,エフル,0
463,2180001158628,新規,0,2023-10-23,2023-10-23,株式会社カネヒコプラン,,株式会社,愛知県,名古屋市中川区,東春田３丁目１４９番地,,23,110,4540983,,,,,,,2023-10-23,1,,,,,,0
469,2180003025891,新規,0,2023-10-23,2023-10-23,合同会社マルチクラフター,,合同会社,愛知県,名古屋市中川区,大当郎３丁目１０１番地アビタシオンＲ１０２号,,23,110,4540943,,,,,,,2023-10-23,1,,,,,マルチクラフター,0
474,2180305009527,新規,0,2023-10-23,2023-10-23,一般社団法人技科大テックブリッジ,,その他の設立登記法人,愛知県,豊橋市,天伯町字雲雀ケ丘１番１,,23,201,4418122,,,,,,,2023-10-23,1,,,,,ギカダイテックブリッジ,0
476,2190001030835,新規,0,2023-10-23,2023-10-23,株式会社ＭＥＬＯＮ,,株式会社,三重県,鈴鹿市,地子町８２９番地の４,,24,207,5130821,,,,,,,2023-10-23,1,,,,,メロン,0
480,2200001041847,新規,0,2023-10-23,2023-10-23,株式会社サンクフルデイズ,,株式会社,岐阜県,加茂郡七宗町,神渕１３１８７,,21,504,5090511,,,,,,,2023-10-23,1,,,,,サンクフルデイズ,0
490,2240001062245,新規,0,2023-10-23,2023-10-23,サン・テキスタイル株式会社,,株式会社,広島県,福山市,卸町１２番１号,,34,207,7210954,,,,,,,2023-10-23,1,,,,,サンテキスタイル,0
500,2260005011287,新規,0,2023-10-23,2023-10-23,一般社団法人サポートネットまどか,,その他の設立登記法人,岡山県,井原市,芳井町吉井２０３５番地１,,33,207,7142111,,,,,,,2023-10-23,1,,,,,サポートネットマドカ,0
501,2290003014529,新規,0,2023-10-23,2023-10-23,Ａｒａｔｏ合同会社,,合同会社,福岡県,筑紫野市,大字永岡２４７番地１エバーライフ・リオ筑紫野２－５０６号,,40,217,8180066,,,,,,,2023-10-23,1,,,,,,0
504,2290803004530,新規,0,2023-10-23,2023-10-23,合同会社ＦＢＷ,,合同会社,福岡県,田川郡福智町,伊方４５００番地２９,,40,610,8221211,,,,,,,2023-10-23,1,,,,,エフビーダブリュー,0
505,2300003002036,新規,0,2023-10-23,2023-10-23,合同会社カモン,,合同会社,佐賀県,神埼市,神埼町城原１４５９番地２城原ハイツ２０５,,41,210,8420122,,,,,,,2023-10-23,1,,,,,カモン,0
507,2320003004212,新規,0,2023-10-23,2023-10-23,合同会社テリーズ,,合同会社,大分県,豊後大野市,緒方町天神１６０１番地２,,44,212,8796622,,,,,,,2023-10-23,1,,,,,テリーズ,0
508,2330001031389,新規,0,2023-10-23,2023-10-23,株式会社センク,,株式会社,熊本県,熊本市北区,八景水谷２丁目１３番５号,,43,105,8618064,,,,,,,2023-10-23,1,,,,,センク,0
509,2330001031397,新規,0,2023-10-23,2023-10-23,公陽テック株式会社,,株式会社,熊本県,菊池郡大津町,大字杉水３５４５番地２０,,43,403,8691236,,,,,,,2023-10-23,1,,,,,コウヨウテック,0
514,2350001018624,新規,0,2023-10-23,2023-10-23,株式会社アグリ龍源,,株式会社,宮崎県,西都市,大字南方３８７６番地,,45,208,8810027,,,,,,,2023-10-23,1,,,,,アグリリュウゲン,0
516,2360001032731,新規,0,2023-10-23,2023-10-23,株式会社沖縄安田造船所,,株式会社,沖縄県,浦添市,内間１丁目２番１６号,,47,208,9012121,,,,,,,2023-10-23,1,,,,,オキナワヤスダゾウセンショ,0
517,2360003013382,新規,0,2023-10-23,2023-10-23,合同会社ＧＧメンテナンス,,合同会社,沖縄県,名護市,字大川６９番地,,47,209,9052268,,,,,,,2023-10-23,1,,,,,ジージーメンテナンス,0
524,2380001034057,新規,0,2023-10-23,2023-10-23,株式会社ｏｏｃａ,,株式会社,福島県,双葉郡大熊町,大字下野上字清水２３０,,07,545,9791308,,,,,,,2023-10-23,1,,,,,オオカ,0
525,2380001034081,新規,0,2023-10-23,2023-10-23,共榮木巧株式会社,,株式会社,福島県,会津若松市,神指町大字南四合字幕内西３５１番地３,,07,202,9650858,,,,,,,2023-10-23,1,,,,,キョウエイモッコウ,0
529,2410001013627,新規,0,2023-10-23,2023-10-23,株式会社３ｒｄ　Ｂｌｏｃｋ,,株式会社,秋田県,仙北郡美郷町,黒沢字西野１８７番地２,,05,434,0191511,,,,,,,2023-10-23,1,,,,,サードブロック,0
530,2410003003857,新規,0,2023-10-23,2023-10-23,合同会社アスクリエイト,,合同会社,秋田県,男鹿市,払戸字渡部３９番地５,,05,206,0100431,,,,,,,2023-10-23,1,,,,,アスクリエイト,0
536,2430003015545,新規,0,2023-10-23,2023-10-23,合同会社１１,,合同会社,北海道,北広島市,中央１丁目１－２,,01,234,0611121,,,,,,,2023-10-23,1,,,,,イレブン,0
537,2450001014118,新規,0,2023-10-23,2023-10-23,Ｇｏｏｄ　Ｓｅａｓｏｎｓ株式会社,,株式会社,北海道,上川郡美瑛町,栄町１丁目２番２２号,,01,459,0710205,,,,,,,2023-10-23,1,,,,,グッドシーズンズ,0
542,2490003001829,新規,0,2023-10-23,2023-10-23,合同会社城北地質,,合同会社,高知県,高知市,小津町３番３５号,,39,201,7800915,,,,,,,2023-10-23,1,,,,,ジョウホクチシツ,0
544,2700150121309,新規,0,2023-10-23,2023-10-23,ＨＯＮＧＫＯＮＧ　ＰＩＴＡＫＡ　ＣＯ．，ＬＩＭＩＴＥＤ,,外国会社等,,,,,,,,ＵＮＩＴ　１６０４　３８２　ＬＯＣＫＨＡＲＴ　ＲＯＡＤ　ＷＡＮＣＨＡＩ　ＨＫ,,,,,,2023-10-23,1,,,,,シャンガンピーターヨウシエンゴンスー,0
545,2700150121317,新規,0,2023-10-23,2023-10-23,Ｓｈｅｎｚｈｅｎｓｈｉｇｅｙｉｌｉｎｇｍａｏｙｉｙｏｕｘｉａｎｇｏｎｇｓｉ,,外国会社等,,,,,,,,Ｇｕａｎｇｄｏｎｇ　Ｓｈｅｎｚｈｅｎｓｈｉ　Ｂａｏａｎｑｕ　Ｘｉｎａｎｊｉｅｄａｏ　Ｈａｉｆｕｓｈｅｑｕ４５ｑｕ　Ｆａｎｓｈｅｎｌｕ　Ｆｕｙｕａｎｇｏｎｇｙｅｑｕ３ｄｏｎｇ　ＪｉａｙｉｄａｓｈａＧ１２１６,,,,,,2023-10-23,1,,,,,シェンジェンシーゴーイーリンマオイーヨウシエンゴンスー,0
546,2700150121333,新規,0,2023-10-23,2023-10-23,Ｙ．Ｃ．ＹＯＵＳＵＦ　ＣＯＲＰＯＲＡＴＩＯＮ,,外国会社等,栃木県,下都賀郡壬生町,大字安塚１１６８番９号アビアハイツ１０２,,09,361,3210201,バングラディシュ人民共和国ダッカ管区ダッカ県ダッカ市シムソン通り３,,,,,,2023-10-23,1,,,,,ワイシーユーサフコーポレーシヨン,0
553,3010001239377,新規,0,2023-10-23,2023-10-23,株式会社Ｌｉｔｅｒａｃｅ,,株式会社,東京都,中央区,銀座６丁目１３番１６号銀座ＷａｌｌビルＵＣＦ５階,,13,102,1040061,,,,,,,2023-10-23,1,,,,,リテラス,0
563,3010401177838,新規,0,2023-10-23,2023-10-23,株式会社ＣＯＭＥＴＳ,,株式会社,東京都,港区,芝大門１丁目４番１０号,,13,103,1050012,,,,,,,2023-10-23,1,,,,,コメッツ,0
564,3010401177961,新規,0,2023-10-23,2023-10-23,株式会社ＮＥＸＴＶＡＬＵＥ,,株式会社,東京都,港区,南青山３丁目８番４０号青山センタービル２３９,,13,103,1070062,,,,,,,2023-10-23,1,,,,,ネクストバリュー,0
565,3010401178027,新規,0,2023-10-23,2023-10-23,株式会社中外．Ｙ．コーポレーション,,株式会社,東京都,港区,南麻布５丁目１２番１８号,,13,103,1060047,,,,,,,2023-10-23,1,,,,,チュウガイワイコーポレーション,0
566,3010403031183,新規,0,2023-10-23,2023-10-23,ＹＤＤ合同会社,,合同会社,東京都,港区,南青山３丁目１番３６号青山丸竹ビル６Ｆ,,13,103,1070062,,,,,,,2023-10-23,1,,,,,ワイディーディー,0
567,3010403031209,新規,0,2023-10-23,2023-10-23,フレッシュエナジー合同会社,,合同会社,東京都,港区,西新橋２丁目２０番１号４階,,13,103,1050003,,,,,,,2023-10-23,1,,,,,フレッシュエナジー,0
569,3010405022602,新規,0,2023-10-23,2023-10-23,一般社団法人Ｗｅｌｌ‐ｂｅｉｎｇ　ｉｎ　Ｎａｔｕｒｅ,,その他の設立登記法人,東京都,港区,虎ノ門１丁目１７番１号虎ノ門ヒルズビジネスタワー１５階,,13,103,1050001,,,,,,,2023-10-23,1,,,,,ウェルビーイングインネーチャー,0
583,3010801034416,新規,0,2023-10-23,2023-10-23,株式会社ＢｏｎａｎｚａＩｎｔｅｒｎａｔｉｏｎａｌ,,株式会社,東京都,大田区,中央５丁目２８－１５－２０１,,13,111,1430024,,,,,,,2023-10-23,1,,,,,ボナンザインターナショナル,0
594,3011001157684,新規,0,2023-10-23,2023-10-23,株式会社ＳＣエージェンシー,,株式会社,東京都,渋谷区,代々木１丁目３０番１５号天翔代々木ビルＳ－４０２－Ｅ,,13,113,1510053,,,,,,,2023-10-23,1,,,,,エスシーエージェンシー,0
595,3011001157718,新規,0,2023-10-23,2023-10-23,株式会社ｉｅｎ,,株式会社,東京都,目黒区,中目黒１丁目１－１７－２－７０３,,13,110,1530061,,,,,,,2023-10-23,1,,,,,イエン,0
598,3011003017754,新規,0,2023-10-23,2023-10-23,合同会社豊,,合同会社,東京都,目黒区,東山３丁目２番６－５０３号,,13,110,1530043,,,,,,,2023-10-23,1,,,,,トヨ,0
599,3011003017770,新規,0,2023-10-23,2023-10-23,合同会社ｓｏｃｉａｌｙ,,合同会社,東京都,渋谷区,広尾４丁目１番２５－７０３号,,13,113,1500012,,,,,,,2023-10-23,1,,,,,ソーシャリー,0
605,3011101104850,新規,0,2023-10-23,2023-10-23,株式会社Ｂｅｌｔ　ａｎｄ　Ｒｏａｄ,,株式会社,東京都,新宿区,大久保２丁目６番１７－４０５号,,13,104,1690072,,,,,,,2023-10-23,1,,,,,ベルトアンドロード,0
609,3011201024981,新規,0,2023-10-23,2023-10-23,株式会社アイエムネットワーク,,株式会社,東京都,中野区,中野３丁目３４番４号,,13,114,1640001,,,,,,,2023-10-23,1,,,,,アイエムネットワーク,0
611,3011401025549,新規,0,2023-10-23,2023-10-23,株式会社ＡＫＩＲＡ,,株式会社,東京都,板橋区,大山金井町５２－１４,,13,119,1730024,,,,,,,2023-10-23,1,,,,,アキラ,0
612,3011501029887,新規,0,2023-10-23,2023-10-23,株式会社番匠,,株式会社,東京都,北区,浮間１丁目７－２３兆豊浮間ビル５０２号室,,13,117,1150051,,,,,,,2023-10-23,1,,,,,バンジョウ,0
615,3011701026684,新規,0,2023-10-23,2023-10-23,株式会社ＣＲＯＳＳ‐ＰＯＴ,,株式会社,東京都,江戸川区,江戸川６丁目３５番地２,,13,123,1340013,,,,,,,2023-10-23,1,,,,,クロスポット,0
616,3011703003632,新規,0,2023-10-23,2023-10-23,合同会社ＴＨＥ　ＡＲＴＩＳＴ,,合同会社,東京都,江戸川区,本一色２丁目２３番６号,,13,123,1330044,,,,,,,2023-10-23,1,,,,,ザアーティスト,0
617,3011801043200,新規,0,2023-10-23,2023-10-23,譯豆貿易株式会社,,株式会社,東京都,足立区,弘道２丁目２６番５号,,13,121,1200013,,,,,,,2023-10-23,1,,,,,ヤクズボウエキ,0
618,3011801043217,新規,0,2023-10-23,2023-10-23,株式会社ＢＬＡＮＣ　ＣＯＣＯ,,株式会社,東京都,葛飾区,東水元４丁目５番３号,,13,122,1250033,,,,,,,2023-10-23,1,,,,,ブランココ,0
619,3011805003308,新規,0,2023-10-23,2023-10-23,一般社団法人キックボクシングライセンス協会,,その他の設立登記法人,東京都,足立区,谷在家２丁目１番１３号,,13,121,1230863,,,,,,,2023-10-23,1,,,,,キックボクシングライセンスキョウカイ,0
620,3012801022714,新規,0,2023-10-23,2023-10-23,株式会社ＦＵＫＵ,,株式会社,東京都,国分寺市,戸倉２丁目１２番地８０,,13,214,1850003,,,,,,,2023-10-23,1,,,,,フク,0
627,3013301051526,新規,0,2023-10-23,2023-10-23,泰揚株式会社,,株式会社,東京都,豊島区,北大塚２丁目２４番２０－１１０８号,,13,116,1700004,,,,,,,2023-10-23,1,,,,,タイヨウ,0
637,3020001154030,新規,0,2023-10-23,2023-10-23,株式会社リベラルノ,,株式会社,神奈川県,横浜市西区,北幸２丁目１０番地４８むつみビル３Ｆ,,14,103,2200004,,,,,,,2023-10-23,1,,,,,リベラルノ,0
638,3020001154039,新規,0,2023-10-23,2023-10-23,ＫＩＲＡＲＩ　Ｐｈａｒｍａｃｙ株式会社,,株式会社,神奈川県,横浜市青葉区,美しが丘西２丁目２５番地１５,,14,117,2250001,,,,,,,2023-10-23,1,,,,,キラリファーマシー,0
639,3020001154063,新規,0,2023-10-23,2023-10-23,株式会社ＡＰＥＲＩＯ,,株式会社,神奈川県,横浜市西区,北幸２丁目１０番地４８むつみビル３Ｆ,,14,103,2200004,,,,,,,2023-10-23,1,,,,,アペリオ,0
640,3020001154105,新規,0,2023-10-23,2023-10-23,株式会社ｍｏｄｅｓｔｏ,,株式会社,神奈川県,横浜市神奈川区,西寺尾３丁目２８番８－３１３号,,14,102,2210001,,,,,,,2023-10-23,1,,,,,モデスト,0
641,3020001154113,新規,0,2023-10-23,2023-10-23,興盛株式会社,,株式会社,神奈川県,横浜市中区,翁町２丁目８番地２ロワール横濱関内６０３,,14,104,2310028,,,,,,,2023-10-23,1,,,,,コウセイ,0
644,3020003024818,新規,0,2023-10-23,2023-10-23,合同会社Ａ．Ｍ．Ｏ．Ｉｎｔｅｒｎａｔｉｏｎａｌ,,合同会社,神奈川県,横浜市中区,本牧町２丁目３００番地,,14,104,2310806,,,,,,,2023-10-23,1,,,,,エーエムオーインターナショナル,0
645,3020003024842,新規,0,2023-10-23,2023-10-23,合同会社ＯＭＯホーム,,合同会社,神奈川県,川崎市宮前区,鷺沼１丁目１７番地７,,14,136,2160004,,,,,,,2023-10-23,1,,,,,,0
655,3030001156661,新規,0,2023-10-23,2023-10-23,株式会社鈴工,,株式会社,埼玉県,川越市,脇田本町１０番地２２アンファージュ川越ファースト８０３,,11,201,3501123,,,,,,,2023-10-23,1,,,,,スズコウ,0
656,3030001156769,新規,0,2023-10-23,2023-10-23,株式会社ＢＥＴＥＮＳＨ,,株式会社,埼玉県,川口市,芝西１丁目２４番２－２号,,11,203,3330855,,,,,,,2023-10-23,1,,,,,ベテンス,0
657,3030001156777,新規,0,2023-10-23,2023-10-23,ゆうかり株式会社,,株式会社,埼玉県,蕨市,錦町４丁目４番１３号,,11,223,3350005,,,,,,,2023-10-23,1,,,,,ユウカリ,0
658,3030001156793,新規,0,2023-10-23,2023-10-23,株式会社ｔｅｎ,,株式会社,埼玉県,秩父市,大宮５８０９番地,,11,207,3680023,,,,,,,2023-10-23,1,,,,,テン,0
663,3030003022820,新規,0,2023-10-23,2023-10-23,ＤａＮｕ　Ｉｎｔｅｒｎａｔｉｏｎａｌ合同会社,,合同会社,埼玉県,比企郡小川町,大字木部２４４－５,,11,343,3550335,,,,,,,2023-10-23,1,,,,,ダヌインターナショナル,0
664,3030003022829,新規,0,2023-10-23,2023-10-23,合同会社渡辺テント,,合同会社,埼玉県,上尾市,大字原市１１７７番地３,,11,219,3620021,,,,,,,2023-10-23,1,,,,,ワタナベテント,0
665,3030003022845,新規,0,2023-10-23,2023-10-23,合同会社ＨＡＲＶＥＳＴ,,合同会社,埼玉県,加須市,久下４丁目４６番地８,,11,210,3470063,,,,,,,2023-10-23,1,,,,,ハーベスト,0
666,3030005021440,新規,0,2023-10-23,2023-10-23,医療法人医灯会,,その他の設立登記法人,埼玉県,さいたま市中央区,上落合９丁目１１番１２号,,11,105,3380001,,,,,,,2023-10-23,1,,,,,イトウカイ,0
670,3040001130590,新規,0,2023-10-23,2023-10-23,株式会社ＹｕｉＮａｓ,,株式会社,千葉県,東金市,粟生飛地２４１３番地１４,,12,213,2830035,,,,,,,2023-10-23,1,,,,,ユイナス,0
671,3040001130599,新規,0,2023-10-23,2023-10-23,Ａｉｎａ株式会社,,株式会社,千葉県,松戸市,中矢切５３１番地の９,,12,207,2710095,,,,,,,2023-10-23,1,,,,,アイナ,0
672,3040001130616,新規,0,2023-10-23,2023-10-23,０心株式会社,,株式会社,千葉県,袖ケ浦市,久保田２８４８番地２４４,,12,229,2990242,,,,,,,2023-10-23,1,,,,,マルシン,0
673,3040001130624,新規,0,2023-10-23,2023-10-23,株式会社浩遠,,株式会社,千葉県,松戸市,松戸１２３９番地１セキネビル４０２,,12,207,2710092,,,,,,,2023-10-23,1,,,,,コウエン,0
677,3040003023594,新規,0,2023-10-23,2023-10-23,合同会社ＳＣＲ,,合同会社,千葉県,船橋市,三山８丁目１９番２－３０３号,,12,204,2740072,,,,,,,2023-10-23,1,,,,,エスシーアール,0
678,3040005022165,新規,0,2023-10-23,2023-10-23,一般社団法人センチュリー国際学院,,その他の設立登記法人,千葉県,市原市,白金町４丁目３３番１号,,12,219,2900059,,,,,,,2023-10-23,1,,,,,センチュリーコクサイガクイン,0
679,3050001053675,新規,0,2023-10-23,2023-10-23,株式会社シンパシー,,株式会社,茨城県,龍ケ崎市,南中島町６１番地６,,08,208,3010047,,,,,,,2023-10-23,1,,,,,シンパシー,0
686,3070001040985,新規,0,2023-10-23,2023-10-23,ＩＧＡ　Ｐａｒｔｎｅｒｓ株式会社,,株式会社,群馬県,高崎市,筑縄町５２番地７梅山第一ビル２Ｆ２０３,,10,202,3700075,,,,,,,2023-10-23,1,,,,,アイジーエーパートナーズ,0
689,3080101024284,新規,0,2023-10-23,2023-10-23,駿河武蔵株式会社,,株式会社,静岡県,裾野市,御宿１４００番地御宿台社宅Ｄ１－５１２,,22,220,4101107,,,,,,,2023-10-23,1,,,,,スルガムサシ,0
699,3100001036897,新規,0,2023-10-23,2023-10-23,株式会社ナッツ,,株式会社,長野県,長野市,大字高田３３９番地２長野中央ビル１０２,,20,201,3810034,,,,,,,2023-10-23,1,,,,,ナッツ,0
707,3120001258944,新規,0,2023-10-23,2023-10-23,株式会社ＹＯＵ　ＦＩＲＳＴ,,株式会社,大阪府,大阪市淀川区,十三東３丁目７－４第一マンションアサヒ３０５号室,,27,123,5320023,,,,,,,2023-10-23,1,,,,,ユーファースト,0
708,3120001258985,新規,0,2023-10-23,2023-10-23,株式会社正陽,,株式会社,大阪府,大阪市西成区,千本北２丁目１５番２号,,27,122,5570053,,,,,,,2023-10-23,1,,,,,セイヨウ,0
709,3120001259199,新規,0,2023-10-23,2023-10-23,株式会社コネクトワーク,,株式会社,大阪府,大阪市浪速区,元町２丁目１１－１４ＭＡビル３階,,27,111,5560016,,,,,,,2023-10-23,1,,,,,コネクトワーク,0
710,3120003025145,新規,0,2023-10-23,2023-10-23,興達合同会社,,合同会社,大阪府,大阪市住吉区,万代６丁目６番１６－４０３号,,27,120,5580055,,,,,,,2023-10-23,1,,,,,コウタツ,0
711,3120003025161,新規,0,2023-10-23,2023-10-23,レイズ合同会社,,合同会社,大阪府,大阪市浪速区,難波中２丁目１０－５２ザ・なんばタワー２４０７,,27,111,5560011,,,,,,,2023-10-23,1,,,,,レイズ,0
716,3120901048239,新規,0,2023-10-23,2023-10-23,株式会社羅心盤,,株式会社,大阪府,高槻市,天王町１７番６号,,27,207,5690088,,,,,,,2023-10-23,1,,,,,ラシンバン,0
717,3120901048255,新規,0,2023-10-23,2023-10-23,ポテンシア株式会社,,株式会社,大阪府,高槻市,宮野町１２番２４号,,27,207,5690081,,,,,,,2023-10-23,1,,,,,ポテンシア,0
718,3120901048263,新規,0,2023-10-23,2023-10-23,Ｓｔｒａｔｅｇｙ　Ｗｏｒｋｓ株式会社,,株式会社,大阪府,吹田市,広芝町１０－８,,27,205,5640052,,,,,,,2023-10-23,1,,,,,ストラテジーワークス,0
719,3122001037477,新規,0,2023-10-23,2023-10-23,豊和産業株式会社,,株式会社,大阪府,大東市,深野５丁目１８－５,,27,218,5740072,,,,,,,2023-10-23,1,,,,,ホウワサンギョウ,0
720,3122001037493,新規,0,2023-10-23,2023-10-23,株式会社リアライズ,,株式会社,大阪府,東大阪市,友井１丁目４番１７号,,27,227,5770816,,,,,,,2023-10-23,1,,,,,リアライズ,0
721,3122001037502,新規,0,2023-10-23,2023-10-23,株式会社ティーフェイスフル,,株式会社,大阪府,八尾市,跡部北の町２丁目４番３８－４０２号,,27,212,5810068,,,,,,,2023-10-23,1,,,,,ティーフェイスフル,0
723,3122003002702,新規,0,2023-10-23,2023-10-23,合同会社ＣＫ＆Ｉ,,合同会社,大阪府,八尾市,大字山畑１０９番地,,27,212,5810864,,,,,,,2023-10-23,1,,,,,シーケーアンドアイ,0
734,3140001132049,新規,0,2023-10-23,2023-10-23,株式会社アンシー,,株式会社,兵庫県,西宮市,石在町１７番５号,,28,204,6620928,,,,,,,2023-10-23,1,,,,,アンシー,0
735,3140001132057,新規,0,2023-10-23,2023-10-23,株式会社小那覇商店,,株式会社,兵庫県,加古郡稲美町,加古３２４５－４,,28,381,6751105,,,,,,,2023-10-23,1,,,,,コナハショウテン,0
736,3140001132081,新規,0,2023-10-23,2023-10-23,株式会社アミー・ロイヤル,,株式会社,兵庫県,伊丹市,荻野４丁目３２,,28,207,6640002,,,,,,,2023-10-23,1,,,,,アミーロイヤル,0
739,3140003019715,新規,0,2023-10-23,2023-10-23,クロスジョア合同会社,,合同会社,兵庫県,三田市,三田町３０番１－１００６号,,28,219,6691533,,,,,,,2023-10-23,1,,,,,クロスジョア,0
743,3180001158528,新規,0,2023-10-23,2023-10-23,ミクロＡＩ株式会社,,株式会社,愛知県,一宮市,三ツ井８丁目５番２２号グレース三ツ井１０１,,23,203,4910827,,,,,,,2023-10-23,1,,,,,ミクロエイアイ,0
744,3180001158544,新規,0,2023-10-23,2023-10-23,株式会社ＡＯＫＩＭＡ,,株式会社,愛知県,名古屋市天白区,野並２丁目４０５番地の１,,23,116,4680045,,,,,,,2023-10-23,1,,,,,アオキマ,0
745,3180001158585,新規,0,2023-10-23,2023-10-23,株式会社カンパニュラ,,株式会社,愛知県,一宮市,小信中島字郷浦３０番地４,,23,203,4940007,,,,,,,2023-10-23,1,,,,,カンパニュラ,0
746,3180001158627,新規,0,2023-10-23,2023-10-23,株式会社ＣＲＡＦＩＴ,,株式会社,愛知県,名古屋市中区,金山３丁目１５番２０号佐藤マンション７０１号室,,23,106,4600022,,,,,,,2023-10-23,1,,,,,クラフィット,0
753,3200003006120,新規,0,2023-10-23,2023-10-23,合同会社万壽会,,合同会社,岐阜県,瑞穂市,美江寺５３１番地２,,21,216,5010312,,,,,,,2023-10-23,1,,,,,マンジュカイ,0
760,3220001025649,新規,0,2023-10-23,2023-10-23,株式会社細田商会,,株式会社,石川県,金沢市,竪町２４番地,,17,201,9200997,,,,,,,2023-10-23,1,,,,,ホソダショウカイ,0
765,3240001062293,新規,0,2023-10-23,2023-10-23,中山不動産株式会社,,株式会社,広島県,福山市,駅家町大字倉光４９５番地１０,,34,207,7201132,,,,,,,2023-10-23,1,,,,,ナカヤマフドウサン,0
766,3240005015669,新規,0,2023-10-23,2023-10-23,一般社団法人全国地域活性イノベーション協会,,その他の設立登記法人,広島県,広島市中区,大手町１丁目７番２１－３０５号,,34,101,7300051,,,,,,,2023-10-23,1,,,,,ゼンコクチイキカッセイイノベーションキョウカイ,0
771,3270003001569,新規,0,2023-10-23,2023-10-23,合同会社楠木,,合同会社,鳥取県,米子市,夜見町３０７０－２６,,31,202,6830851,,,,,,,2023-10-23,1,,,,,クスノキ,0
772,3280003001782,新規,0,2023-10-23,2023-10-23,合同会社あいらいふ,,合同会社,島根県,浜田市,浅井町１０２番地１８,,32,202,6970022,,,,,,,2023-10-23,1,,,,,アイライフ,0
778,3290003014503,新規,0,2023-10-23,2023-10-23,合同会社フジマサ交易社,,合同会社,福岡県,太宰府市,吉松２丁目７番７－Ｓ１１６号,,40,221,8180138,,,,,,,2023-10-23,1,,,,,フジマサコウエキシャ,0
788,3330001031371,新規,0,2023-10-23,2023-10-23,株式会社久保田工業,,株式会社,熊本県,合志市,豊岡２０００番地１０９ブリーゼ豊岡Ａ棟１０１号,,43,216,8611115,,,,,,,2023-10-23,1,,,,,クボタコウギョウ,0
793,3360001032730,新規,0,2023-10-23,2023-10-23,株式会社丸宮建設,,株式会社,沖縄県,那覇市,繁多川１丁目１２番３３号コーポラスタイラＢ－３０１,,47,201,9020071,,,,,,,2023-10-23,1,,,,,マルミヤケンセツ,0
796,3370001050558,新規,0,2023-10-23,2023-10-23,株式会社鴨打内装,,株式会社,宮城県,仙台市太白区,山田上ノ台町１４番２３号,,04,104,9820815,,,,,,,2023-10-23,1,,,,,カモウチナイソウ,0
798,3380001034072,新規,0,2023-10-23,2023-10-23,ＦＰメディカルパートナー株式会社,,株式会社,福島県,郡山市,字賀庄５２番地の１１,,07,203,9638844,,,,,,,2023-10-23,1,,,,,エフピーメディカルパートナー,0
801,3400003003163,新規,0,2023-10-23,2023-10-23,田老発電合同会社,,合同会社,岩手県,宮古市,新町４番３０号,,03,202,0270086,,,,,,,2023-10-23,1,,,,,タロウハツデン,0
815,3430005014817,新規,0,2023-10-23,2023-10-23,一般社団法人フレンデリア協会,,その他の設立登記法人,北海道,札幌市中央区,南六条西３丁目１０番地,,01,101,0640806,,,,,,,2023-10-23,1,,,,,フレンデリアキョウカイ,0
816,3450001014117,新規,0,2023-10-23,2023-10-23,ラベンダーフォレスト北海道株式会社,,株式会社,北海道,上川郡美瑛町,栄町１丁目２番２２号,,01,459,0710205,,,,,,,2023-10-23,1,,,,,ラベンダーフォレストホッカイドウ,0
817,3450001014125,新規,0,2023-10-23,2023-10-23,株式会社グランレーヴ,,株式会社,北海道,旭川市,南五条通２２丁目１９７５番地の７３,,01,204,0788335,,,,,,,2023-10-23,1,,,,,グランレーヴ,0
823,3700150121316,新規,0,2023-10-23,2023-10-23,Ｘｉａｍｅｎ　Ｙｕｎｈｕ　Ｓｏｆｔｗａｒｅ　Ｄｅｖｅｌｏｐｍｅｎｔ　Ｃｏ．，Ｌｔｄ,,外国会社等,,,,,,,,Ｒｏｏｍ　５０３，Ｎｏ．８８，２ｎｄ　ｌａｎｅ　ｏｆ　ｊｉｎｈｕ，Ｈｕｌｉ　ＤｉｓｔｒｉｃｔＸｉａｍｅｎ　ＣｉｔｙＦｕｊｉａｎ　Ｐｒｏｖｉｎｃｅ３６１００９ＣＮ,,,,,,2023-10-23,1,,,,,シャーメンインフールワンジエンカイファーヨウシエンゴンスー,0
839,4010401177985,新規,0,2023-10-23,2023-10-23,株式会社ｈａｒｒｒｔｏ,,株式会社,東京都,港区,高輪１丁目３番２０号,,13,103,1080074,,,,,,,2023-10-23,1,,,,,ハルト,0
840,4010401177993,新規,0,2023-10-23,2023-10-23,株式会社シグマ・アソシエイツ,,株式会社,東京都,港区,港南１丁目９番３６号アレア品川１３階,,13,103,1080075,,,,,,,2023-10-23,1,,,,,シグマアソシエイツ,0
841,4010401178001,新規,0,2023-10-23,2023-10-23,株式会社ＲＯＬＬＯ　ＣＯＭＰＡＮＹ,,株式会社,東京都,港区,南青山３丁目１番３６号青山丸竹ビル６Ｆ,,13,103,1070062,,,,,,,2023-10-23,1,,,,,ロロカンパニー,0
842,4010401178026,新規,0,2023-10-23,2023-10-23,株式会社中外．Ｋ．コーポレーション,,株式会社,東京都,港区,南麻布５丁目１２番１８号,,13,103,1060047,,,,,,,2023-10-23,1,,,,,チュウガイケーコーポレーション,0
845,4010403031208,新規,0,2023-10-23,2023-10-23,ルビーエナジー合同会社,,合同会社,東京都,港区,西新橋２丁目２０番１号４階,,13,103,1050003,,,,,,,2023-10-23,1,,,,,ルビーエナジー,0
853,4010701045017,新規,0,2023-10-23,2023-10-23,株式会社りね,,株式会社,東京都,品川区,上大崎２丁目１５－１９,,13,109,1410021,,,,,,,2023-10-23,1,,,,,リネ,0
857,4010801034448,新規,0,2023-10-23,2023-10-23,株式会社雅,,株式会社,東京都,大田区,池上７丁目１５番４－１０１号,,13,111,1460082,,,,,,,2023-10-23,1,,,,,ミヤビ,0
859,4010901053975,新規,0,2023-10-23,2023-10-23,株式会社ｉＤａｔｅｎｇｏ,,株式会社,東京都,世田谷区,奥沢１丁目４７番９号,,13,112,1580083,,,,,,,2023-10-23,1,,,,,イダテンゴ,0
862,4011001157626,新規,0,2023-10-23,2023-10-23,株式会社ｃｕｐ　ｏｆ　ｔｅａ,,株式会社,東京都,渋谷区,神宮前５丁目２７－８ＬｏｓＧａｔｏｓ３Ｆ,,13,113,1500001,,,,,,,2023-10-23,1,,,,,カップオブティー,0
863,4011001157675,新規,0,2023-10-23,2023-10-23,株式会社未来サポート,,株式会社,東京都,渋谷区,神南１丁目１２番１４号渋谷宮田ビル６Ｆ,,13,113,1500041,,,,,,,2023-10-23,1,,,,,ミライサポート,0
864,4011001157766,新規,0,2023-10-23,2023-10-23,ＮＡＯＴＯ　ＤＥＳＩＧＮ株式会社,,株式会社,東京都,渋谷区,幡ヶ谷２丁目２０番８－５１５号,,13,113,1510072,,,,,,,2023-10-23,1,,,,,ナオトデザイン,0
866,4011003017753,新規,0,2023-10-23,2023-10-23,合同会社ブルーブレイン,,合同会社,東京都,渋谷区,道玄坂１丁目１０番８号渋谷道玄坂東急ビル２Ｆ－Ｃ,,13,113,1500043,,,,,,,2023-10-23,1,,,,,ブルーブレイン,0
869,4011101104866,新規,0,2023-10-23,2023-10-23,株式会社三浦,,株式会社,東京都,新宿区,若葉１丁目６番１－２１３号,,13,104,1600011,,,,,,,2023-10-23,1,,,,,ミウラ,0
871,4011103013644,新規,0,2023-10-23,2023-10-23,合同会社ＫＮＹ,,合同会社,東京都,新宿区,北新宿１丁目２７番１５号Ａｒｔｅ柏木２０２,,13,104,1690074,,,,,,,2023-10-23,1,,,,,ケーエヌワイ,0
874,4011403004153,新規,0,2023-10-23,2023-10-23,合同会社Ｎｅｘｔ　Ｒｕｎ,,合同会社,東京都,板橋区,西台１丁目３７番１３号ヒルトップガーデン２０２,,13,119,1740045,,,,,,,2023-10-23,1,,,,,ネクストラン,0
876,4011601027212,新規,0,2023-10-23,2023-10-23,株式会社ネオプラスター,,株式会社,東京都,練馬区,貫井１丁目７番６号,,13,120,1760021,,,,,,,2023-10-23,1,,,,,ネオプラスター,0
877,4011601027220,新規,0,2023-10-23,2023-10-23,株式会社阿南,,株式会社,東京都,練馬区,豊玉南１丁目２０番５－３０３号,,13,120,1760014,,,,,,,2023-10-23,1,,,,,アナン,0
879,4011603004102,新規,0,2023-10-23,2023-10-23,ＩＮＦＩＮＩＴＹ合同会社,,合同会社,東京都,練馬区,豊玉北４丁目１４番８－３０４号,,13,120,1760012,,,,,,,2023-10-23,1,,,,,インフィニティ,0
881,4011701026691,新規,0,2023-10-23,2023-10-23,三鍵客株式会社,,株式会社,東京都,江戸川区,中央４丁目１１－５－２０１号,,13,123,1320021,,,,,,,2023-10-23,1,,,,,サンジアンケ,0
882,4011703003631,新規,0,2023-10-23,2023-10-23,アジリティアンドアセット合同会社,,合同会社,東京都,江戸川区,西葛西３丁目２２－１０ジャストオフィス西葛西５０１Ａ,,13,123,1340088,,,,,,,2023-10-23,1,,,,,アジリティアンドアセット,0
884,4011801043199,新規,0,2023-10-23,2023-10-23,株式会社だいふく,,株式会社,東京都,葛飾区,西水元３丁目１番１２号,,13,122,1250031,,,,,,,2023-10-23,1,,,,,ダイフク,0
885,4011801043216,新規,0,2023-10-23,2023-10-23,株式会社アナザーファクトリー,,株式会社,東京都,足立区,本木西町１１番２号,,13,121,1230856,,,,,,,2023-10-23,1,,,,,アナザーファクトリー,0
886,4012801022721,新規,0,2023-10-23,2023-10-23,ネスト株式会社,,株式会社,東京都,国立市,東２丁目２３－９,,13,215,1860002,,,,,,,2023-10-23,1,,,,,ネスト,0
890,4013301051517,新規,0,2023-10-23,2023-10-23,株式会社ＹＡＭＡＤＡ不動産,,株式会社,東京都,豊島区,高松２丁目９番２０号,,13,116,1710042,,,,,,,2023-10-23,1,,,,,ヤマダフドウサン,0
891,4013301051525,新規,0,2023-10-23,2023-10-23,株式会社ｋｏｍｏｒｅｂｉ,,株式会社,東京都,豊島区,東池袋１丁目４２番１４号７Ｆ,,13,116,1700013,,,,,,,2023-10-23,1,,,,,コモレビ,0
899,4020001154038,新規,0,2023-10-23,2023-10-23,ＭＡＲＫ‐Ｇ株式会社,,株式会社,神奈川県,横浜市保土ケ谷区,岩井町４５６番地５,,14,106,2400023,,,,,,,2023-10-23,1,,,,,マークジー,0
900,4020001154062,新規,0,2023-10-23,2023-10-23,ＫＯＭＡＫＵＳＡコンサルティング株式会社,,株式会社,神奈川県,横浜市西区,みなとみらい６丁目３番４－１３１２号,,14,103,2200012,,,,,,,2023-10-23,1,,,,,コマクサコンサルティング,0
901,4020001154070,新規,0,2023-10-23,2023-10-23,株式会社Ｍ３テック,,株式会社,神奈川県,横浜市緑区,長津田１丁目２１番４号,,14,113,2260027,,,,,,,2023-10-23,1,,,,,エムサンテック,0
902,4020001154095,新規,0,2023-10-23,2023-10-23,住プラン不動産株式会社,,株式会社,神奈川県,川崎市宮前区,鷺沼１丁目１２番１４号３１２,,14,136,2160004,,,,,,,2023-10-23,1,,,,,ジュウプランフドウサン,0
908,4020003024809,新規,0,2023-10-23,2023-10-23,ジコチュー合同会社,,合同会社,神奈川県,横浜市港北区,日吉５丁目１１－１３ペルセウス日吉１０３,,14,109,2230061,,,,,,,2023-10-23,1,,,,,ジコチュー,0
909,4020003024841,新規,0,2023-10-23,2023-10-23,合同会社りぷろ,,合同会社,神奈川県,横浜市緑区,霧が丘６丁目８番地４,,14,113,2260016,,,,,,,2023-10-23,1,,,,,リプロ,0
911,4021001080505,新規,0,2023-10-23,2023-10-23,株式会社ＭＡＴＡＲＯ,,株式会社,神奈川県,藤沢市,渡内２丁目８番２０号,,14,205,2510011,,,,,,,2023-10-23,1,,,,,マタロー,0
916,4021003013693,新規,0,2023-10-23,2023-10-23,合同会社ＴＰＡＳ,,合同会社,神奈川県,伊勢原市,沼目３丁目３２番３号,,14,214,2591126,,,,,,,2023-10-23,1,,,,,ティーパス,0
928,4030001156743,新規,0,2023-10-23,2023-10-23,株式会社耀光,,株式会社,埼玉県,さいたま市見沼区,大字蓮沼１７０１番地２,,11,104,3370015,,,,,,,2023-10-23,1,,,,,ヨウコウ,0
929,4030001156768,新規,0,2023-10-23,2023-10-23,株式会社ＲｅＬＩＦＥ,,株式会社,埼玉県,朝霞市,溝沼４丁目８番２０号サンプレンティＩＩ１０２,00132364,11,227,3510023,,,,,,,2023-10-23,1,,,,,リライフ,0
938,4030003022811,新規,0,2023-10-23,2023-10-23,合同会社テスタデザイン,,合同会社,埼玉県,さいたま市中央区,鈴谷２丁目５７７番地１５サザンシティ南与野駅前５０７号,,11,105,3380013,,,,,,,2023-10-23,1,,,,,テスタデザイン,0
939,4030003022828,新規,0,2023-10-23,2023-10-23,ＤＥＲＯＮ合同会社,,合同会社,埼玉県,桶川市,大字坂田１５５８番地の２１,,11,231,3630008,,,,,,,2023-10-23,1,,,,,デロン,0
940,4030003022836,新規,0,2023-10-23,2023-10-23,トリップスタイル合同会社,,合同会社,埼玉県,吉川市,大字土場３４５－２,,11,243,3420026,,,,,,,2023-10-23,1,,,,,トリップスタイル,0
941,4030003022844,新規,0,2023-10-23,2023-10-23,合同会社ａｍａｚｉｎｇ・ｃｌ,,合同会社,埼玉県,越谷市,越ヶ谷２７３０番地２ＬＥＯＮ１０２,,11,222,3430024,,,,,,,2023-10-23,1,,,,,アメージングクリーン,0
946,4040001130581,新規,0,2023-10-23,2023-10-23,ＡＭＩＮ株式会社,,株式会社,千葉県,四街道市,大日２００番地１、２階２０２号室,,12,228,2840001,,,,,,,2023-10-23,1,,,,,アミン,0
947,4040001130607,新規,0,2023-10-23,2023-10-23,株式会社Ｓ‐ＬＩＦＥ,,株式会社,千葉県,船橋市,新高根３丁目２２番３３号,,12,204,2740814,,,,,,,2023-10-23,1,,,,,エスライフ,0
953,4050001053674,新規,0,2023-10-23,2023-10-23,ＡＤＡＭ株式会社,,株式会社,茨城県,つくば市,春日４丁目２３番地１６ハイツアムール１号棟１０１号室,,08,220,3050821,,,,,,,2023-10-23,1,,,,,アダム,0
954,4050003007884,新規,0,2023-10-23,2023-10-23,Ｐｈ．ＤＷ合同会社,,合同会社,茨城県,坂東市,莚打４１５番地５,,08,228,3060625,,,,,,,2023-10-23,1,,,,,ピーエイチディーダブリュー,0
956,4050005013344,新規,0,2023-10-23,2023-10-23,特定非営利活動法人青年海外協力隊の２世代参加を促進する会,,その他の設立登記法人,茨城県,水戸市,双葉台５丁目４番地の３,,08,201,3114145,,,,,,,2023-10-23,1,,,,,セイネンカイガイキョウリョクタイノニセダイサンカヲソクシンスルカイ,0
958,4060001036471,新規,0,2023-10-23,2023-10-23,株式会社ＳＡＮＫＡＫＵ,,株式会社,栃木県,下都賀郡野木町,大字丸林３９８－１１大友ビル３Ｆ,,09,364,3290111,,,,,,,2023-10-23,1,,,,,サンカク,0
962,4070003005143,新規,0,2023-10-23,2023-10-23,合同会社プロワーム,,合同会社,群馬県,高崎市,上小鳥町３３４番地４,,10,202,3700078,,,,,,,2023-10-23,1,,,,,プロワーム,0
968,4110001037935,新規,0,2023-10-23,2023-10-23,株式会社Ｂｏｊｉｔｅｔｅ,,株式会社,新潟県,新潟市西区,寺尾上３丁目１－１９エタンセルテール２０５,,15,107,9502055,,,,,,,2023-10-23,1,,,,,ボジテテ,0
974,4120001259000,新規,0,2023-10-23,2023-10-23,リロン商事株式会社,,株式会社,大阪府,大阪市中央区,瓦町３丁目４番１０号日宝御堂ビル４Ｆ８号室,,27,128,5410048,,,,,,,2023-10-23,1,,,,,リロンショウジ,0
975,4120001259017,新規,0,2023-10-23,2023-10-23,ＡＵＲＯＲＡ株式会社,,株式会社,大阪府,大阪市浪速区,浪速西３丁目５－１３,,27,111,5560026,,,,,,,2023-10-23,1,,,,,オーロラ,0
976,4120001259025,新規,0,2023-10-23,2023-10-23,Ａｍｂｉｔｉｏｎ株式会社,,株式会社,大阪府,大阪市西区,新町４丁目１１番１８号,,27,106,5500013,,,,,,,2023-10-23,1,,,,,アンビション,0
977,4120001259033,新規,0,2023-10-23,2023-10-23,細胞健康リサーチ株式会社,,株式会社,大阪府,大阪市北区,梅田１丁目２番２号大阪駅前第２ビル１２－１２,,27,127,5300001,,,,,,,2023-10-23,1,,,,,サイボウケンコウリサーチ,0
978,4120001259090,新規,0,2023-10-23,2023-10-23,株式会社井上工務店,,株式会社,大阪府,大阪市城東区,関目４丁目２番１７号,,27,118,5360008,,,,,,,2023-10-23,1,,,,,イノウエコウムテン,0
979,4120001259132,新規,0,2023-10-23,2023-10-23,株式会社梅木設備,,株式会社,大阪府,大阪市淀川区,三国本町２丁目１３番４９号,,27,123,5320005,,,,,,,2023-10-23,1,,,,,ウメキセツビ,0
980,4120001259181,新規,0,2023-10-23,2023-10-23,株式会社ウィステリアリブ,,株式会社,大阪府,大阪市福島区,福島７丁目１６番８－１００１号,,27,103,5530003,,,,,,,2023-10-23,1,,,,,ウィステリアリブ,0
985,4120903004890,新規,0,2023-10-23,2023-10-23,ＳＡＮＡＳ合同会社,,合同会社,大阪府,茨木市,南春日丘３丁目１５－６－４,,27,211,5670046,,,,,,,2023-10-23,1,,,,,サナズ,0
987,4122001037476,新規,0,2023-10-23,2023-10-23,新阪商事株式会社,,株式会社,大阪府,柏原市,旭ケ丘１丁目１７番１２号,,27,221,5820026,,,,,,,2023-10-23,1,,,,,シンバンショウジ,0
988,4122001037501,新規,0,2023-10-23,2023-10-23,株式会社スリーステップ,,株式会社,大阪府,東大阪市,喜里川町８－３２－２０１,,27,227,5798041,,,,,,,2023-10-23,1,,,,,スリーステップ,0
990,4130001075487,新規,0,2023-10-23,2023-10-23,株式会社シェアパートナーズ,,株式会社,京都府,京都市右京区,西京極徳大寺団子田町３８番地グラン・コート西京極ＩＩ６０３号,00132369,26,108,6150846,,,,,,,2023-10-23,1,,,,,シェアパートナーズ,0
992,4130003008981,新規,0,2023-10-23,2023-10-23,合同会社Ｓ．ｓｃｈｏｏｌ,,合同会社,京都府,京都市左京区,北白川西瀬ノ内町４－１グラニール茂平２０８号室,,26,103,6068255,,,,,,,2023-10-23,1,,,,,エススクール,0
1005,4140001132048,新規,0,2023-10-23,2023-10-23,株式会社Ｎ．Ｌｉｎｋ,,株式会社,兵庫県,姫路市,博労町１２７番地朝日プラザ船場１０１号,,28,201,6700906,,,,,,,2023-10-23,1,,,,,エヌリンク,0
1006,4140001132056,新規,0,2023-10-23,2023-10-23,株式会社ＶＥＫＴＯＲ　ＭＡＮＡＧＥＭＥＮＴ．ＨＤ,,株式会社,兵庫県,姫路市,飯田３丁目２１９－１,,28,201,6700974,,,,,,,2023-10-23,1,,,,,ベクトルマネージメントホールディングス,0
1007,4140001132080,新規,0,2023-10-23,2023-10-23,ＰＡＲＡＭＯＵＮＴ　ＷＥＤＤＩＮＧ株式会社,,株式会社,兵庫県,神戸市東灘区,本山北町６丁目６番３３号,,28,101,6580003,,,,,,,2023-10-23,1,,,,,パラマウントウェディング,0
1008,4140001132089,新規,0,2023-10-23,2023-10-23,株式会社ラブ・オールウェイズ,,株式会社,兵庫県,伊丹市,梅ノ木４丁目３番４１号,,28,207,6640856,,,,,,,2023-10-23,1,,,,,ラブオールウェイズ,0
1009,4140001132097,新規,0,2023-10-23,2023-10-23,株式会社もりかな,,株式会社,兵庫県,伊丹市,東野１丁目３０番地７,,28,207,6640004,,,,,,,2023-10-23,1,,,,,,0
1012,4140003019689,新規,0,2023-10-23,2023-10-23,合同会社グリーンフィールド,,合同会社,兵庫県,西宮市,雲井町３番４０号,,28,204,6620064,,,,,,,2023-10-23,1,,,,,グリーンフィールド,0
1014,4150001026827,新規,0,2023-10-23,2023-10-23,株式会社セントライフ,,株式会社,奈良県,大和郡山市,小泉町１７９３番地１４,,29,203,6391042,,,,,,,2023-10-23,1,,,,,セントライフ,0
1021,4180001158551,新規,0,2023-10-23,2023-10-23,株式会社エフネット,,株式会社,愛知県,海部郡大治町,大字三本木字村部２１番地の１,,23,424,4901142,,,,,,,2023-10-23,1,,,,,エフネット,0
1022,4180001158568,新規,0,2023-10-23,2023-10-23,ＪＳＧ株式会社,,株式会社,愛知県,津島市,埋田町５丁目１２２番地,,23,208,4960031,,,,,,,2023-10-23,1,,,,,ジェイエスジー,0
1023,4180001158584,新規,0,2023-10-23,2023-10-23,株式会社ファンタベース,,株式会社,愛知県,名古屋市中村区,森末町２丁目２５番地,,23,105,4530052,,,,,,,2023-10-23,1,,,,,ファンタベース,0
1024,4180001158601,新規,0,2023-10-23,2023-10-23,株式会社環境技建,,株式会社,愛知県,名古屋市南区,赤坪町３番地,,23,112,4570024,,,,,,,2023-10-23,1,,,,,カンキョウギケン,0
1025,4180001158618,新規,0,2023-10-23,2023-10-23,天王機械株式会社,,株式会社,愛知県,津島市,大縄町８丁目１５８番地１,,23,208,4960876,,,,,,,2023-10-23,1,,,,,テンノウキカイ,0
1026,4180001158626,新規,0,2023-10-23,2023-10-23,株式会社ＳＡＩ,,株式会社,愛知県,名古屋市中区,金山３丁目１５番２０号佐藤マンション７０１号室,,23,106,4600022,,,,,,,2023-10-23,1,,,,,サイ,0
1029,4180003025881,新規,0,2023-10-23,2023-10-23,合同会社りんくす,,合同会社,愛知県,知多郡武豊町,字祠峯２丁目５０番地,,23,447,4702303,,,,,,,2023-10-23,1,,,,,リンクス,0
1046,4220002017405,新規,0,2023-10-23,2023-10-23,有限会社ひらき染房,,有限会社,石川県,白山市,馬場１丁目８６番,,17,210,9240864,,,,,,,2023-10-23,1,,,,,,0
1047,4230003002099,新規,0,2023-10-23,2023-10-23,合同会社ＣＥＯＮＭＥＲＩＡ,,合同会社,富山県,氷見市,島尾９４２番地１,,16,205,9350032,,,,,,,2023-10-23,1,,,,,セオンメリア,0
1048,4250001020349,新規,0,2023-10-23,2023-10-23,株式会社Ｓｔａｒ　Ｆｅｓｔｉｖａｌ,,株式会社,山口県,山口市,三和町９番３２号,,35,203,7530052,,,,,,,2023-10-23,1,,,,,スターフェスティバル,0
1049,4250003003368,新規,0,2023-10-23,2023-10-23,合同会社アット・クリーン,,合同会社,山口県,岩国市,御庄５丁目１０５番地９,,35,208,7410083,,,,,,,2023-10-23,1,,,,,アットクリーン,0
1054,4260003004472,新規,0,2023-10-23,2023-10-23,合同会社ＭＯＣＡ,,合同会社,岡山県,倉敷市,玉島上成５０４番地１ＭＯＣＡ５０１号,,33,202,7138101,,,,,,,2023-10-23,1,,,,,モカ,0
1062,4320001020102,新規,0,2023-10-23,2023-10-23,株式会社新・建築設計事務所,,株式会社,大分県,大分市,府内町２丁目３番２０号天神ビル３０１号,,44,201,8700021,,,,,,,2023-10-23,1,,,,,シンケンチクセッケイジムショ,0
1065,4330001031370,新規,0,2023-10-23,2023-10-23,株式会社ＥＭＭＡ宇城,,株式会社,熊本県,宇土市,栄町１３４－１　２Ｆ,,43,211,8690453,,,,,,,2023-10-23,1,,,,,エマウキ,0
1077,4360001032721,新規,0,2023-10-23,2023-10-23,ＩＴ‐ＳＥＡマリンコンサル株式会社,,株式会社,沖縄県,石垣市,字平久保２３４番地の２７３,,47,207,9070331,,,,,,,2023-10-23,1,,,,,アイティーシーマリンコンサル,0
1081,4370001050540,新規,0,2023-10-23,2023-10-23,株式会社茂泉商事,,株式会社,宮城県,大崎市,古川馬寄字南田２９番地５,,04,215,9896112,,,,,,,2023-10-23,1,,,,,モイズミショウジ,0
1082,4370001050549,新規,0,2023-10-23,2023-10-23,ＥＧＡＯホールディングス株式会社,,株式会社,宮城県,仙台市青葉区,国分町３丁目４－５,,04,101,9800803,,,,,,,2023-10-23,1,,,,,エガオホールディングス,0
1083,4370001050557,新規,0,2023-10-23,2023-10-23,株式会社大相,,株式会社,宮城県,仙台市若林区,二木字水神３１,,04,103,9840845,,,,,,,2023-10-23,1,,,,,ダイソウ,0
1088,4380001034071,新規,0,2023-10-23,2023-10-23,株式会社Ｔａｎａｋａ　ｗｏｒｋｓ,,株式会社,福島県,いわき市,小名浜大原字芳原１０１番地の８,,07,204,9718111,,,,,,,2023-10-23,1,,,,,タナカワークス,0
1089,4390005009036,新規,0,2023-10-23,2023-10-23,医療法人社団かわぞえ嶋北泌尿器科内科クリニック,,その他の設立登記法人,山形県,山形市,嶋北３丁目１０番１号,,06,201,9900885,,,,,,,2023-10-23,1,,,,,カワゾエシマキタヒニョウキカナイカクリニック,0
1096,4430001090241,新規,0,2023-10-23,2023-10-23,株式会社ＡＬＧＯＮＡ,,株式会社,北海道,札幌市中央区,南一条西１６丁目１番地３２３－３階,,01,101,0600061,,,,,,,2023-10-23,1,,,,,アルゴナ,0
1097,4430003015543,新規,0,2023-10-23,2023-10-23,Ｓａｌｕｑ　ｈｏｍｅ合同会社,,合同会社,北海道,札幌市東区,東苗穂十四条３丁目１番４６号こまくさハイツ１０１号,,01,103,0070814,,,,,,,2023-10-23,1,,,,,サルクホーム,0
1099,4700150121075,新規,0,2023-10-23,2023-10-05,ひょうご豊かな海づくり県民会議,,その他,兵庫県,神戸市中央区,下山手通５丁目１０番１号,,28,110,6500011,,,,,,,2023-10-05,1,,,,,ヒヨウゴユタカナウミヅクリケンミンカイギ,0
1100,4700150121307,新規,0,2023-10-23,2023-10-23,Ｈｙｐｅｒｆｉｎｅ２０２３組織委員会,,その他,大阪府,豊中市,待兼山町１－１大阪大学理学研究科Ｈ棟４１７号室,,27,203,5600043,,,,,,,2023-10-23,1,,,,,ハイパーファインニセンニジュウサンソシキイインカイ,0
1101,4700150121315,新規,0,2023-10-23,2023-10-23,ｄｏｎｇｇｕａｎｓｈｉｘｉｎｈｏｎｇｙｉｌｉａｏｂａｏｊｉａｎｋｅｊｉｙｏｕｘｉａｎｇｏｎｇｓｉ,,外国会社等,,,,,,,,Ｄａｌａｎｇ　ＴｏｗｎＮｏｍ．７１　Ｆｕｍｉｎ　Ｓｏｕｔｈ　ＲｏａｄＲｏｏｍ　９０１，Ｂｕｉｌｄｉｎｇ　　６Ｄｏｎｇｇｕａｎ　ＣｉｔｙＧｕａｎｇｄｏｎｇ　Ｐｒｏｖｉｎｃｅ５２３７７０ＣＮ,,,,,,2023-10-23,1,,,,,ドングワンシーシンホンイーリャオバオジエンコージーヨウシエンゴンスー,0
1105,5010001239391,新規,0,2023-10-23,2023-10-23,日本フルードシステム販売株式会社,,株式会社,東京都,中央区,日本橋室町４丁目３番１３号三建室町ビル９階,,13,102,1030022,,,,,,,2023-10-23,1,,,,,ニホンフルードシステムハンバイ,0
1109,5010003042026,新規,0,2023-10-23,2023-10-23,合同会社大川不動産,,合同会社,東京都,千代田区,神田小川町３丁目７番地アーデン神保町７０６号,,13,101,1010052,,,,,,,2023-10-23,1,,,,,オオカワフドウサン,0
1111,5010005037404,新規,0,2023-10-23,2023-10-23,一般社団法人Ｊｏｙ　ｏｆ　Ｌｉｖｉｎｇ,,その他の設立登記法人,東京都,中央区,日本橋室町１丁目１１番１２号日本橋水野ビル７階,,13,102,1030022,,,,,,,2023-10-23,1,,,,,ジョイオブリビング,0
1119,5010403031223,新規,0,2023-10-23,2023-10-23,Ｄｅ　Ｃａｐｉｔａｌ合同会社,,合同会社,東京都,港区,六本木７丁目１５番７号,,13,103,1060032,,,,,,,2023-10-23,1,,,,,ディーキャピタル,0
1122,5010405022559,新規,0,2023-10-23,2023-10-23,一般社団法人日本ファンビジネス協会,,その他の設立登記法人,東京都,港区,新橋２丁目１６番１号,,13,103,1050004,,,,,,,2023-10-23,1,,,,,ニホンファンビジネスキョウカイ,0
1126,5010601064009,新規,0,2023-10-23,2023-10-23,株式会社ＩＡＣ,,株式会社,東京都,江東区,豊洲３丁目４番２号,,13,108,1350061,,,,,,,2023-10-23,1,,,,,アイエーシー,0
1132,5010801034455,新規,0,2023-10-23,2023-10-23,ＫＡＭＣホーム＆ディベロップメントカンパニー株式会社,,株式会社,東京都,大田区,東矢口３丁目２番１号さんろーどダイヤモンドマンション１１８号室,,13,111,1460094,,,,,,,2023-10-23,1,,,,,ケイエイエムシーホームアンドディベロップメントカンパニー,0
1135,5010901054064,新規,0,2023-10-23,2023-10-23,株式会社となりの,,株式会社,東京都,世田谷区,深沢６丁目７番９号グランド駒沢公園６０４,,13,112,1580081,,,,,,,2023-10-23,1,,,,,トナリノ,0
1138,5011001157526,新規,0,2023-10-23,2023-10-23,株式会社ＳＦプロトタイピング,,株式会社,東京都,渋谷区,上原１丁目４番２－２０１号,,13,113,1510064,,,,,,,2023-10-23,1,,,,,エスエフプロトタイピング,0
1139,5011001157559,新規,0,2023-10-23,2023-10-23,株式会社ＢＥＬＶＩ,,株式会社,東京都,渋谷区,渋谷１丁目２１－１２パシフィック青山１０２,,13,113,1500002,,,,,,,2023-10-23,1,,,,,ヴェルビー,0
1140,5011001157690,新規,0,2023-10-23,2023-10-23,株式会社Ｄリテールクリエイションズ,,株式会社,東京都,渋谷区,富ヶ谷１丁目３５番２３号,,13,113,1510063,,,,,,,2023-10-23,1,,,,,ディーリテールクリエイションズ,0
1141,5011001157716,新規,0,2023-10-23,2023-10-23,株式会社ａｒｕｔｏｒｕ,,株式会社,東京都,渋谷区,道玄坂２丁目１５番１号,,13,113,1500043,,,,,,,2023-10-23,1,,,,,アルトル,0
1142,5011001157781,新規,0,2023-10-23,2023-10-23,株式会社バイポッド,,株式会社,東京都,渋谷区,猿楽町１２番３６号,,13,113,1500033,,,,,,,2023-10-23,1,,,,,バイポッド,0
1145,5011003017736,新規,0,2023-10-23,2023-10-23,Ｙ７　Ｔｅｃｈｎｏｌｏｇｙ合同会社,,合同会社,東京都,渋谷区,道玄坂１丁目１０番８号渋谷道玄坂東急ビル２Ｆ－Ｃ,,13,113,1500043,,,,,,,2023-10-23,1,,,,,ワイセブンテクノロジー,0
1155,5011501029902,新規,0,2023-10-23,2023-10-23,株式会社Ｏｎｔｏｌｏｇｉｓｔ,,株式会社,東京都,北区,東十条２丁目４－２,,13,117,1140001,,,,,,,2023-10-23,1,,,,,オントロジスト,0
1163,5011701026674,新規,0,2023-10-23,2023-10-23,アイシーエス株式会社,,株式会社,東京都,江戸川区,西一之江２丁目３０番１１‐１０１号,,13,123,1320023,,,,,,,2023-10-23,1,,,,,アイシーエス,0
1164,5011701026682,新規,0,2023-10-23,2023-10-23,株式会社ＯＰＴＹ,,株式会社,東京都,江戸川区,一之江４丁目２－２７,,13,123,1320024,,,,,,,2023-10-23,1,,,,,オプティ,0
1165,5011701026690,新規,0,2023-10-23,2023-10-23,株式会社Ｂｅ．Ｎｅｘｔ,,株式会社,東京都,江戸川区,北小岩７丁目１４番１９号,,13,123,1330051,,,,,,,2023-10-23,1,,,,,ビィネクスト,0
1167,5011703003630,新規,0,2023-10-23,2023-10-23,ｅｓ　ｃｒａｆｔ合同会社,,合同会社,東京都,江戸川区,平井６丁目２１－３坂口ビル２Ｆ,,13,123,1320035,,,,,,,2023-10-23,1,,,,,エスクラフト,0
1168,5011801043198,新規,0,2023-10-23,2023-10-23,小鳩株式会社,,株式会社,東京都,足立区,梅田７丁目１４番２－１０１号,,13,121,1230851,,,,,,,2023-10-23,1,,,,,コパト,0
1169,5011801043207,新規,0,2023-10-23,2023-10-23,日本伝統株式会社,,株式会社,東京都,足立区,青井５丁目１番１２号,,13,121,1210012,,,,,,,2023-10-23,1,,,,,ニホンデントウ,0
1170,5011801043215,新規,0,2023-10-23,2023-10-23,株式会社ＳＫＹリムジン,,株式会社,東京都,葛飾区,南水元３丁目６番１－１１３２号,,13,122,1250035,,,,,,,2023-10-23,1,,,,,スカイリムジン,0
1173,5012801022720,新規,0,2023-10-23,2023-10-23,Ｍｏｎｏ　Ｗｏｒｋｓ株式会社,,株式会社,東京都,昭島市,中神町１１４９－１エコス昭島店１階,,13,207,1960022,,,,,,,2023-10-23,1,,,,,モノワークス,0
1174,5012803003215,新規,0,2023-10-23,2023-10-23,順楊合同会社,,合同会社,東京都,東大和市,向原４丁目３３番地の８レヂオンス東大和３０１,,13,220,2070013,,,,,,,2023-10-23,1,,,,,ジュンヨウ,0
1175,5012805003238,新規,0,2023-10-23,2023-10-23,一般社団法人多摩同友会,,その他の設立登記法人,東京都,立川市,曙町２丁目３４番６号コクーンビル６Ｆ,00132368,13,202,1900012,,,,,,,2023-10-23,1,,,,,タマドウユウカイ,0
1176,5013101009268,新規,0,2023-10-23,2023-10-23,株式会社よしの,,株式会社,東京都,西多摩郡檜原村,４７２番地,,13,307,1900200,,,,,,,2023-10-23,1,,,,,,0
1185,5020001154037,新規,0,2023-10-23,2023-10-23,株式会社甦和火,,株式会社,神奈川県,横浜市鶴見区,市場西中町６－１０,,14,101,2300023,,,,,,,2023-10-23,1,,,,,ソワカ,0
1186,5020001154053,新規,0,2023-10-23,2023-10-23,株式会社ツーエスプラン,,株式会社,神奈川県,横浜市西区,みなとみらい６丁目３番４－２１１０号,,14,103,2200012,,,,,,,2023-10-23,1,,,,,ツーエスプラン,0
1187,5020001154094,新規,0,2023-10-23,2023-10-23,星輝株式会社,,株式会社,神奈川県,横浜市鶴見区,矢向１丁目７番３６－１０５号,,14,101,2300001,,,,,,,2023-10-23,1,,,,,セイキ,0
1191,5020003024790,新規,0,2023-10-23,2023-10-23,合同会社やまねこ福祉相談所,,合同会社,神奈川県,川崎市多摩区,中野島１丁目２０番地１号,,14,135,2140012,,,,,,,2023-10-23,1,,,,,ヤマネコフクシソウダンショ,0
1192,5020003024808,新規,0,2023-10-23,2023-10-23,合同会社ＳＲＮ,,合同会社,神奈川県,横浜市南区,若宮町２丁目２８番地５,,14,105,2320057,,,,,,,2023-10-23,1,,,,,エスアールエヌ,0
1193,5020003024816,新規,0,2023-10-23,2023-10-23,和デザイン合同会社,,合同会社,神奈川県,横浜市金沢区,富岡東１丁目１０番７－２号,,14,108,2360051,,,,,,,2023-10-23,1,,,,,ナゴミデザイン,0
1198,5021001080529,新規,0,2023-10-23,2023-10-23,株式会社龍縁,,株式会社,神奈川県,相模原市南区,相模台２丁目１４－６さがみスクエアー２０２,,14,153,2520321,,,,,,,2023-10-23,1,,,,,リュウエン,0
1207,5030001156759,新規,0,2023-10-23,2023-10-23,株式会社ｐｓｅ,,株式会社,埼玉県,上尾市,中分１丁目９番地４,,11,219,3620067,,,,,,,2023-10-23,1,,,,,ピーエスイー,0
1208,5030001156767,新規,0,2023-10-23,2023-10-23,株式会社さくら建設,,株式会社,埼玉県,川越市,豊田町２丁目１９番地３２,,11,201,3501110,,,,,,,2023-10-23,1,,,,,サクラケンセツ,0
1209,5030001156783,新規,0,2023-10-23,2023-10-23,株式会社啓,,株式会社,埼玉県,戸田市,笹目２丁目２３番地の２１,,11,224,3350034,,,,,,,2023-10-23,1,,,,,ケイ,0
1210,5030001156800,新規,0,2023-10-23,2023-10-23,株式会社ＳＵＮＴＯＷＮ,,株式会社,埼玉県,さいたま市浦和区,仲町２丁目１番３号ウィズビルディング１階,,11,107,3300062,,,,,,,2023-10-23,1,,,,,サンタウン,0
1225,5030003022835,新規,0,2023-10-23,2023-10-23,百順合同会社,,合同会社,埼玉県,熊谷市,鎌倉町７４番地セブンビル４０１,,11,202,3600046,,,,,,,2023-10-23,1,,,,,ヒャクジュン,0
1226,5030003022851,新規,0,2023-10-23,2023-10-23,Ｊａｐａｎ　Ｐｒｏｐｅｒｔｙ　ａｎｄ　Ｆｏｏｄ　Ｔｒａｄｉｎｇ合同会社,,合同会社,埼玉県,比企郡小川町,大字腰越１３４６番地,,11,343,3550327,,,,,,,2023-10-23,1,,,,,ジャパンプロパティアンドフードトレーディング,0
1233,5040001130589,新規,0,2023-10-23,2023-10-23,株式会社大和,,株式会社,千葉県,八街市,榎戸４０８番地３,,12,230,2891106,,,,,,,2023-10-23,1,,,,,オオワ,0
1239,5040003023576,新規,0,2023-10-23,2023-10-23,合同会社美羽,,合同会社,千葉県,佐倉市,上志津１７６６番地７,,12,212,2850846,,,,,,,2023-10-23,1,,,,,ミウ,0
1240,5040003023584,新規,0,2023-10-23,2023-10-23,合同会社ＬＵＮＡ　ＬＥＡ,,合同会社,千葉県,流山市,東初石３丁目１１１番地の２８オーチャードハウス４０５,,12,220,2700114,,,,,,,2023-10-23,1,,,,,ルナレア,0
1241,5040003023592,新規,0,2023-10-23,2023-10-23,Ｓｅａ　Ｂｌｏｏｍ合同会社,,合同会社,千葉県,船橋市,上山町１丁目２３６番地１ザ・ガーデンプレミアム２０６号,,12,204,2730046,,,,,,,2023-10-23,1,,,,,シーブルーム,0
1243,5050003007875,新規,0,2023-10-23,2023-10-23,合同会社ｏｌｉｏｌｉ,,合同会社,茨城県,水戸市,酒門町１２４７－１サンパーク酒門２０２,,08,201,3100841,,,,,,,2023-10-23,1,,,,,オリオリ,0
1251,5070001040991,新規,0,2023-10-23,2023-10-23,アイティーエムエナジーソリューション株式会社,,株式会社,群馬県,佐波郡玉村町,大字下新田６５９番地２,,10,464,3701132,,,,,,,2023-10-23,1,,,,,アイティーエムエナジーソリューション,0
1252,5070003005142,新規,0,2023-10-23,2023-10-23,合同会社小島商事サービスセンター,,合同会社,群馬県,太田市,下田島町１２４３番地３２８,,10,205,3730844,,,,,,,2023-10-23,1,,,,,コジマショウジサービスセンター,0
1255,5080001025934,新規,0,2023-10-23,2023-10-23,エム電株式会社,,株式会社,静岡県,静岡市清水区,上２丁目８番２０号,,22,103,4240827,,,,,,,2023-10-23,1,,,,,エムデン,0
1270,5110001037934,新規,0,2023-10-23,2023-10-23,株式会社ＳＡＴ,,株式会社,新潟県,新潟市秋葉区,福島１６７－２,,15,105,9560014,,,,,,,2023-10-23,1,,,,,エスエーティー,0
1279,5120001258975,新規,0,2023-10-23,2023-10-23,恵敏株式会社,,株式会社,大阪府,大阪市北区,天満２丁目９－１７天満双葉ビル５０２号,,27,127,5300043,,,,,,,2023-10-23,1,,,,,ケイビン,0
1280,5120001259008,新規,0,2023-10-23,2023-10-23,株式会社Ｍ＆Ｓ,,株式会社,大阪府,大阪市中央区,内淡路町２丁目４番１１－６０２号,,27,128,5400038,,,,,,,2023-10-23,1,,,,,エムアンドエス,0
1281,5120001259016,新規,0,2023-10-23,2023-10-23,致誠株式会社,,株式会社,大阪府,大阪市阿倍野区,阿倍野元町１４－５パシフィックアベノ４０２号室,,27,119,5450034,,,,,,,2023-10-23,1,,,,,チセイ,0
1282,5120001259040,新規,0,2023-10-23,2023-10-23,株式会社Ｒｅ,,株式会社,大阪府,大阪市中央区,平野町１丁目５番９号,,27,128,5410046,,,,,,,2023-10-23,1,,,,,アールイー,0
1283,5120001259057,新規,0,2023-10-23,2023-10-23,ＲｅｄＡｒｒｏｗ　Ｔｅｃｈ株式会社,,株式会社,大阪府,大阪市住吉区,長居２丁目１０番３－２０５号,,27,120,5580003,,,,,,,2023-10-23,1,,,,,レッドアローテック,0
1284,5120001259148,新規,0,2023-10-23,2023-10-23,シーエスインプルーブ株式会社,,株式会社,大阪府,大阪市中央区,石町１丁目１番１号天満橋千代田ビル２号館８階Ｍ号,,27,128,5400033,,,,,,,2023-10-23,1,,,,,シーエスインプルーブ,0
1285,5120001259156,新規,0,2023-10-23,2023-10-23,桜輝株式会社,,株式会社,大阪府,大阪市住吉区,墨江２丁目３番５６号２階,,27,120,5580043,,,,,,,2023-10-23,1,,,,,オウキ,0
1291,5120101068424,新規,0,2023-10-23,2023-10-23,株式会社マイン,,株式会社,大阪府,堺市中区,土師町４丁２２番１号,,27,142,5998238,,,,,,,2023-10-23,1,,,,,マイン,0
1292,5120103005499,新規,0,2023-10-23,2023-10-23,合同会社三羽の小鳥,,合同会社,大阪府,高石市,加茂４丁目１１番１８号,,27,225,5920011,,,,,,,2023-10-23,1,,,,,サンワノコトリ,0
1294,5120105009779,新規,0,2023-10-23,2023-10-23,社会福祉法人歓喜会,,その他の設立登記法人,大阪府,堺市北区,中村町３６７番地３,,27,146,5918012,,,,,,,2023-10-23,1,,,,,カンキカイ,0
1296,5120901048245,新規,0,2023-10-23,2023-10-23,株式会社物部建装,,株式会社,大阪府,吹田市,岸部北２丁目２０番３３号,,27,205,5640001,,,,,,,2023-10-23,1,,,,,モノベケンソウ,0
1297,5120901048261,新規,0,2023-10-23,2023-10-23,株式会社Ｌａｕｇｈ,,株式会社,大阪府,茨木市,郡４丁目５番１号,,27,211,5670072,,,,,,,2023-10-23,1,,,,,ラフ,0
1298,5122001037483,新規,0,2023-10-23,2023-10-23,株式会社ＴＧ・ファーム,,株式会社,大阪府,大東市,赤井２丁目２番３０号,,27,218,5740046,,,,,,,2023-10-23,1,,,,,ティージーファーム,0
1299,5122001037500,新規,0,2023-10-23,2023-10-23,株式会社エスケー,,株式会社,大阪府,東大阪市,新庄１丁目１１－２９,,27,227,5780963,,,,,,,2023-10-23,1,,,,,エスケー,0
1302,5130001075486,新規,0,2023-10-23,2023-10-23,株式会社ＮＥＸＴＩＮＮＯＶＡＴＩＯＮ,,株式会社,京都府,京都市北区,紫野西泉堂町６２番地,,26,101,6038246,,,,,,,2023-10-23,1,,,,,ネクストイノベーション,0
1312,5140001132014,新規,0,2023-10-23,2023-10-23,株式会社神戸第二学校給食サービス,,株式会社,兵庫県,神戸市兵庫区,水木通４丁目１番１号,,28,105,6520802,,,,,,,2023-10-23,1,,,,,コウベダイニガッコウキュウショクサービス,0
1313,5140001132030,新規,0,2023-10-23,2023-10-23,株式会社ＫＡＭＩ‐ＤＥＮ,,株式会社,兵庫県,神戸市灘区,大石東町５丁目４－４コスモ灘公園通りＢ棟４１３号,,28,102,6570043,,,,,,,2023-10-23,1,,,,,カミデン,0
1314,5140001132055,新規,0,2023-10-23,2023-10-23,ＬＩＣ株式会社,,株式会社,兵庫県,神戸市中央区,八幡通４丁目２番９号フラワーロードビル５０２号,,28,110,6510085,,,,,,,2023-10-23,1,,,,,エルアイシー,0
1315,5140001132063,新規,0,2023-10-23,2023-10-23,株式会社Ａｕｂｅ,,株式会社,兵庫県,神戸市北区,青葉台３１番１４－２号,,28,109,6511231,,,,,,,2023-10-23,1,,,,,オーブ,0
1316,5140001132071,新規,0,2023-10-23,2023-10-23,株式会社Ｍ＆Ｒ,,株式会社,兵庫県,尼崎市,西川２丁目９番１７号ルナハイム３０２号,,28,202,6610966,,,,,,,2023-10-23,1,,,,,,0
1317,5140001132088,新規,0,2023-10-23,2023-10-23,株式会社訪問看護ステーションタケモン,,株式会社,兵庫県,神戸市中央区,中山手通２丁目１０番１７号木村ハイツ北側１階,,28,110,6500004,,,,,,,2023-10-23,1,,,,,ホウモンカンゴステーションタケモン,0
1318,5140001132096,新規,0,2023-10-23,2023-10-23,株式会社ピース,,株式会社,兵庫県,川西市,東畦野２丁目５－１０ダイワビル１０番館４０２,,28,217,6660117,,,,,,,2023-10-23,1,,,,,,0
1322,5140003019721,新規,0,2023-10-23,2023-10-23,集美科技合同会社,,合同会社,兵庫県,神戸市中央区,北野町３丁目７番１号グランディア北野異人館通り４０１号室,,28,110,6500002,,,,,,,2023-10-23,1,,,,,シュウビカギ,0
1324,5150005009513,新規,0,2023-10-23,2023-10-23,一般社団法人アントレッド,,その他の設立登記法人,奈良県,生駒郡平群町,大字下垣内１番地３フロレスタ１０２号,,29,342,6360933,,,,,,,2023-10-23,1,,,,,アントレッド,0
1325,5180001040923,新規,0,2023-10-23,2023-10-23,株式会社マツダレンタリース愛知,,株式会社,愛知県,名古屋市中川区,八田町３００１番地,,23,110,4540877,,,,,,,2023-10-23,1,,,,,マツダレンタリースアイチ,0
1329,5180001158443,新規,0,2023-10-23,2023-10-23,Ｍｅｉｓｔｅｒ株式会社,,株式会社,愛知県,名古屋市西区,那古野２丁目１４－１なごのキャンパス,,23,104,4510042,,,,,,,2023-10-23,1,,,,,マイスター,0
1330,5180001158542,新規,0,2023-10-23,2023-10-23,株式会社Ａｉ,,株式会社,愛知県,名古屋市瑞穂区,萩山町２丁目８番地の１,,23,108,4670011,,,,,,,2023-10-23,1,,,,,アイ,0
1331,5180001158550,新規,0,2023-10-23,2023-10-23,株式会社愛恵電設工業,,株式会社,愛知県,北名古屋市,熊之庄登り戸１２番地,,23,234,4810006,,,,,,,2023-10-23,1,,,,,イトエデンセツコウギョウ,0
1332,5180001158559,新規,0,2023-10-23,2023-10-23,ＹＲ　ｓｔｒｅａｍｅｒｏｆｆｉｃｅ株式会社,,株式会社,愛知県,名古屋市東区,筒井３丁目３４番１８号,,23,102,4610003,,,,,,,2023-10-23,1,,,,,ワイアールストリーマーオフィス,0
1333,5180001158575,新規,0,2023-10-23,2023-10-23,株式会社シークスホールディングス,,株式会社,愛知県,名古屋市中区,栄３丁目１３番２０号,,23,106,4600008,,,,,,,2023-10-23,1,,,,,シークスホールディングス,0
1334,5180001158600,新規,0,2023-10-23,2023-10-23,株式会社ＦＵＬＬＭＩＮＤ,,株式会社,愛知県,名古屋市中区,錦３丁目２４番２７号大野屋フラッシュタワービル３階,,23,106,4600003,,,,,,,2023-10-23,1,,,,,フルマインド,0
1337,5180003025880,新規,0,2023-10-23,2023-10-23,サンクスエンジニアリング合同会社,,合同会社,愛知県,大府市,共西町１丁目３２９番地,,23,223,4740062,,,,,,,2023-10-23,1,,,,,サンクスエンジニアリング,0
1338,5180003025889,新規,0,2023-10-23,2023-10-23,ＭＹＰＣ合同会社,,合同会社,愛知県,北名古屋市,二子２２０番地,,23,234,4810013,,,,,,,2023-10-23,1,,,,,マイピーシー,0
1339,5180003025906,新規,0,2023-10-23,2023-10-23,合同会社ビガウスワタナベ,,合同会社,愛知県,春日井市,町屋町３８９９番地２,,23,206,4860809,,,,,,,2023-10-23,1,,,,,ビガウスワタナベ,0
1340,5190001030824,新規,0,2023-10-23,2023-10-23,株式会社ｎｉｋｏ,,株式会社,三重県,津市,桜橋３丁目４４６番地２５ロイヤルマンション津桜橋１００３,,24,201,5140003,,,,,,,2023-10-23,1,,,,,ニコ,0
1341,5190001030832,新規,0,2023-10-23,2023-10-23,株式会社ＡＲＩＥＬ,,株式会社,三重県,志摩市,阿児町鵜方９７番地８,,24,215,5170501,,,,,,,2023-10-23,1,,,,,アリエール,0
1352,5210005010118,新規,0,2023-10-23,2023-10-23,一般社団法人ふくい健康省エネ住宅推進協議会,,その他の設立登記法人,福井県,福井市,開発５丁目３１５番地,,18,201,9100842,,,,,,,2023-10-23,1,,,,,フクイケンコウショウエネジュウタクスイシンキョウギカイ,0
1359,5230003002098,新規,0,2023-10-23,2023-10-23,合同会社遊ふぁーむ,,合同会社,富山県,南砺市,遊部１８０番地,,16,210,9391701,,,,,,,2023-10-23,1,,,,,ユウファーム,0
1365,5240001062283,新規,0,2023-10-23,2023-10-23,株式会社フラッグシップ,,株式会社,広島県,呉市,阿賀北５丁目１番１６号,,34,202,7370001,,,,,,,2023-10-23,1,,,,,フラッグシップ,0
1366,5240001062300,新規,0,2023-10-23,2023-10-23,江草建設株式会社,,株式会社,広島県,福山市,加茂町字中野２丁目６７番地１,,34,207,7202418,,,,,,,2023-10-23,1,,,,,エグサケンセツ,0
1378,5290001103479,新規,0,2023-10-23,2023-10-23,株式会社ＧＡＡ,,株式会社,福岡県,福岡市博多区,比恵町１－１８－１００２,,40,132,8120014,,,,,,,2023-10-23,1,,,,,ジーエィエィ,0
1379,5290001103487,新規,0,2023-10-23,2023-10-23,光ホールディングス株式会社,,株式会社,福岡県,福岡市中央区,大名２丁目６番３１号,,40,133,8100041,,,,,,,2023-10-23,1,,,,,アカリホールディングス,0
1385,5290003014526,新規,0,2023-10-23,2023-10-23,合同会社ａｄｏｎｅ,,合同会社,福岡県,福岡市中央区,高砂１丁目１６番１７－９０１号エスペランサ天神南,,40,133,8100011,,,,,,,2023-10-23,1,,,,,アドーネ,0
1391,5310005008721,新規,0,2023-10-23,2023-10-23,一般社団法人ココロディア,,その他の設立登記法人,長崎県,諫早市,多良見町化屋７４１番地１２喜々津ビル２０２,,42,204,8590401,,,,,,,2023-10-23,1,,,,,ココロディア,0
1393,5320001020101,新規,0,2023-10-23,2023-10-23,ＨＴＳ技研株式会社,,株式会社,大分県,大分市,大字片島４０１番地の５,,44,201,8700943,,,,,,,2023-10-23,1,,,,,エイチティエスギケン,0
1394,5330001031378,新規,0,2023-10-23,2023-10-23,株式会社フィフス,,株式会社,熊本県,熊本市中央区,坪井１丁目１－１０,,43,101,8600863,,,,,,,2023-10-23,1,,,,,フィフス,0
1395,5340001025998,新規,0,2023-10-23,2023-10-23,株式会社桐鶴,,株式会社,鹿児島県,出水市,高尾野町江内３２４２番地１,,46,208,8990407,,,,,,,2023-10-23,1,,,,,トウカク,0
1400,5350003004454,新規,0,2023-10-23,2023-10-23,合同会社ＫｏｔａＬｉｎｏ,,合同会社,宮崎県,西諸県郡高原町,大字蒲牟田７２４８番地２,,45,361,8894414,,,,,,,2023-10-23,1,,,,,コタリーノ,0
1401,5350003004470,新規,0,2023-10-23,2023-10-23,ＫＳ　ＷＯＲＫＳ合同会社,,合同会社,宮崎県,宮崎市,青島西１丁目８番３号,,45,201,8892163,,,,,,,2023-10-23,1,,,,,ケーズワークス,0
1402,5360001032729,新規,0,2023-10-23,2023-10-23,株式会社光不動産,,株式会社,沖縄県,南城市,玉城字垣花３０７番地,,47,215,9010601,,,,,,,2023-10-23,1,,,,,ヒカリフドウサン,0
1408,5380001034070,新規,0,2023-10-23,2023-10-23,株式会社永熱保温,,株式会社,福島県,いわき市,小名浜字中原４番地の１５,,07,204,9718101,,,,,,,2023-10-23,1,,,,,エイネツホオン,0
1410,5400001016438,新規,0,2023-10-23,2023-10-23,株式会社Ｇｒａｎｄ　Ｗｏｒｋｓ,,株式会社,岩手県,盛岡市,湯沢３地割８８－６,,03,201,0200842,,,,,,,2023-10-23,1,,,,,グランドワークス,0
1418,5430001090174,新規,0,2023-10-23,2023-10-23,株式会社Ｔｅａｍ．Ｋ,,株式会社,北海道,札幌市白石区,中央二条２丁目１‐４４　２Ｆ,,01,104,0030012,,,,,,,2023-10-23,1,,,,,チームケー,0
1421,5430003015542,新規,0,2023-10-23,2023-10-23,Ｔｓｅｎｓｅ．合同会社,,合同会社,北海道,札幌市中央区,北三条西２４丁目１－１０－６０３号室,,01,101,0640823,,,,,,,2023-10-23,1,,,,,ティーセンス,0
1426,5460101007455,新規,0,2023-10-23,2023-10-23,株式会社鳥せい西北店,,株式会社,北海道,帯広市,西十二条北１丁目１８番地３バップバーレンＮ館１０１号室,,01,207,0800042,,,,,,,2023-10-23,1,,,,,トリセイセイホクテン,0
1428,5470001019863,新規,0,2023-10-23,2023-10-23,株式会社Ｋ‐ＩＮＮＯＶＡＴＩＯＮ,,株式会社,香川県,高松市,上福岡町９２０番地１,,37,201,7600077,,,,,,,2023-10-23,1,,,,,ケイイノベーション,0
1429,5700150121314,新規,0,2023-10-23,2023-10-23,Ｓｈｅｎｚｈｅｎ　Ｊｉｎ　Ｃｈｅｎｇ　Ｓｈｕ　Ｍａ　Ｋｅｊｉ　Ｙｏｕｘｉａｎ　Ｇｏｎｇｓｉ,,外国会社等,,,,,,,,Ｌｏｎｇｇａｎｇｑｕ　Ｂａｎｔｉａｎｊｉｅｄａｏ　Ｂａｎｔｉａｎｘｉｃｕｎ　Ｓｈｉｘｉａｎｇ　７ｈａｏ　３０１ＳｈｅｎＺｈｅｎＧｕａｎｇＤｏｎｇ５１８０００ＣＮ,,,,,,2023-10-23,1,,,,,シェンジェンシージンチョンシューマーコージーヨウシエンゴンスー,0
1430,6010001239358,新規,0,2023-10-23,2023-10-23,株式会社エナジックジャパン,,株式会社,東京都,中央区,京橋１丁目１番６号越前屋ビル７Ｆ,,13,102,1040031,,,,,,,2023-10-23,1,,,,,エナジックジャパン,0
1431,6010001239440,新規,0,2023-10-23,2023-10-23,株式会社Ｇｏｌｄｅｎ　Ｈａｒｖｅｓｔ,,株式会社,東京都,千代田区,五番町１２番地７－２号棟０５５,,13,101,1020076,,,,,,,2023-10-23,1,,,,,ゴールデンハーベスト,0
1432,6010003041984,新規,0,2023-10-23,2023-10-23,ヒルトップキャピタルパートナーズ合同会社,,合同会社,東京都,千代田区,永田町２丁目１１番１号,,13,101,1000014,,,,,,,2023-10-23,1,,,,,ヒルトップキャピタルパートナーズ,0
1433,6010003041992,新規,0,2023-10-23,2023-10-23,合同会社ＫＯＤＡＲＵＭＡ,,合同会社,東京都,中央区,日本橋兜町１７番２号兜町第６葉山ビル４Ｆ,,13,102,1030026,,,,,,,2023-10-23,1,,,,,コダルマ,0
1438,6010005037394,新規,0,2023-10-23,2023-10-23,一般財団法人渡辺和代キッズカップ財団,,その他の設立登記法人,東京都,千代田区,四番町８番地９ルクセンブルグハウス２０３号,,13,101,1020081,,,,,,,2023-10-23,1,,,,,ワタナベカズヨキッズカップザイダン,0
1450,6010401177975,新規,0,2023-10-23,2023-10-23,ショーリ・アドバイザリー＆インベストメント株式会社,,株式会社,東京都,港区,元赤坂１丁目２番７号赤坂Ｋタワー,,13,103,1070051,,,,,,,2023-10-23,1,,,,,ショーリアドバイザリーアンドインベストメント,0
1451,6010401178008,新規,0,2023-10-23,2023-10-23,株式会社４３５８,,株式会社,東京都,港区,東麻布１丁目２９番１５号東麻布２９６ビル２階,,13,103,1060044,,,,,,,2023-10-23,1,,,,,シーサンゴーヤー,0
1455,6010403031197,新規,0,2023-10-23,2023-10-23,合同会社ＷＯＮＤＥＲＦＵＬ,,合同会社,東京都,港区,南青山３丁目１番３６号青山丸竹ビル６Ｆ,,13,103,1070062,,,,,,,2023-10-23,1,,,,,ワンダフル,0
1456,6010403031206,新規,0,2023-10-23,2023-10-23,合同会社ＧＲＡＮＤＨＥＡＬＩＮＧ,,合同会社,東京都,港区,南青山２丁目２番１５号ＷｉｎＡｏｙａｍａビルＵＣＦ６３５,,13,103,1070062,,,,,,,2023-10-23,1,,,,,グランドヒーリング,0
1457,6010403031230,新規,0,2023-10-23,2023-10-23,ＳＣＧ　ＶＩＩＩ合同会社,,合同会社,東京都,港区,虎ノ門４丁目１番２８号,,13,103,1050001,,,,,,,2023-10-23,1,,,,,エスシージーエイト,0
1462,6010901054055,新規,0,2023-10-23,2023-10-23,株式会社ユー・ビルディング,,株式会社,東京都,世田谷区,新町１丁目２４番１７号,,13,112,1540014,,,,,,,2023-10-23,1,,,,,ユービルディング,0
1463,6010903008488,新規,0,2023-10-23,2023-10-23,Ｔｒｅｍｏｌｏ　Ｍｕｓｉｃ合同会社,,合同会社,東京都,世田谷区,三宿１丁目８番２０－３０１号,,13,112,1540005,,,,,,,2023-10-23,1,,,,,トレモロミュージック,0
1470,6011001157731,新規,0,2023-10-23,2023-10-23,Ｐｅｒｆｕｍｅｒ　Ｈ　Ｊａｐａｎ株式会社,,株式会社,東京都,渋谷区,神宮前６丁目２３番４号２階,,13,113,1500001,,,,,,,2023-10-23,1,,,,,パフューマーエイチジャパン,0
1471,6011001157764,新規,0,2023-10-23,2023-10-23,株式会社Ｓｔｒｉｄｅ　Ｓｏｌｕｔｉｏｎｓ,,株式会社,東京都,渋谷区,渋谷２丁目１９－１５宮益坂ビルディング６０９,,13,113,1500002,,,,,,,2023-10-23,1,,,,,ストライドソリューションズ,0
1472,6011003017727,新規,0,2023-10-23,2023-10-23,Ｗ合同会社,,合同会社,東京都,目黒区,八雲４丁目４番３－２０５号ブランズ八雲,,13,110,1520023,,,,,,,2023-10-23,1,,,,,ダブリュー,0
1473,6011003017776,新規,0,2023-10-23,2023-10-23,ＴＭＴレコーディングスタジオ合同会社,,合同会社,東京都,渋谷区,元代々木町１２番８号佐竹ビル３Ｆ,,13,113,1510062,,,,,,,2023-10-23,1,,,,,ティーエムティーレコーディングスタジオ,0
1477,6011103013642,新規,0,2023-10-23,2023-10-23,合同会社ジェイ・イー・オー,,合同会社,東京都,新宿区,下宮比町１番４号,,13,104,1620822,,,,,,,2023-10-23,1,,,,,ジェイイーオー,0
1483,6011301029110,新規,0,2023-10-23,2023-10-23,株式会社組建野郎,,株式会社,東京都,杉並区,善福寺４丁目１８番１３号野田マンション１０１,,13,115,1670041,,,,,,,2023-10-23,1,,,,,クミタテヤロウ,0
1488,6011605002548,新規,0,2023-10-23,2023-10-23,特定非営利活動法人武蔵野教育研究会,,その他の設立登記法人,東京都,練馬区,関町南４丁目２５番８号グリーンハイツ１０３号室,,13,120,1770053,,,,,,,2023-10-23,1,,,,,ムサシノキョウイクケンキュウカイ,0
1489,6011701026681,新規,0,2023-10-23,2023-10-23,株式会社ＲＵＮＹＵＡＮ,,株式会社,東京都,江戸川区,瑞江２丁目３０－１,,13,123,1320011,,,,,,,2023-10-23,1,,,,,ルンユエン,0
1492,6011801043197,新規,0,2023-10-23,2023-10-23,ＦＯＲ　ＪＡＰＡＮ株式会社,,株式会社,東京都,足立区,舎人６丁目２番２０号,,13,121,1210831,,,,,,,2023-10-23,1,,,,,フォージャパン,0
1493,6011801043206,新規,0,2023-10-23,2023-10-23,株式会社アバントデザイン,,株式会社,東京都,足立区,綾瀬４丁目２５番１３号,,13,121,1200005,,,,,,,2023-10-23,1,,,,,アバントデザイン,0
1494,6011801043214,新規,0,2023-10-23,2023-10-23,株式会社タカノリ,,株式会社,東京都,足立区,千住中居町２番１３号,,13,121,1200035,,,,,,,2023-10-23,1,,,,,タカノリ,0
1495,6011803005897,新規,0,2023-10-23,2023-10-23,合同会社カワラオフィス,,合同会社,東京都,葛飾区,西新小岩４丁目２６番７号,,13,122,1240025,,,,,,,2023-10-23,1,,,,,カワラオフィス,0
1497,6012401041145,新規,0,2023-10-23,2023-10-23,株式会社リリーブ,,株式会社,東京都,三鷹市,下連雀５丁目１番１－１５８号,,13,204,1810013,,,,,,,2023-10-23,1,,,,,リリーブ,0
1500,6012801022711,新規,0,2023-10-23,2023-10-23,ペットスマイルズ株式会社,,株式会社,東京都,武蔵村山市,大南３丁目２８番地の２グリーンハイツ大南１階,,13,223,2080013,,,,,,,2023-10-23,1,,,,,ペットスマイルズ,0
1501,6013103001271,新規,0,2023-10-23,2023-10-23,合同会社Ａｃｈｉ,,合同会社,東京都,青梅市,駒木町３丁目５８４番地の６,,13,205,1980053,,,,,,,2023-10-23,1,,,,,,0
1504,6013301051515,新規,0,2023-10-23,2023-10-23,株式会社ハートリッツ,,株式会社,東京都,豊島区,巣鴨３丁目１０番１９号,,13,116,1700002,,,,,,,2023-10-23,1,,,,,ハートリッツ,0
1509,6020001153938,新規,0,2023-10-23,2023-10-23,株式会社動楽縁,,株式会社,神奈川県,横浜市中区,本牧原１５番６号グロブナースクエア３Ｆ－Ｃ,,14,104,2310821,,,,,,,2023-10-23,1,,,,,ドウラクエン,0
1510,6020001154028,新規,0,2023-10-23,2023-10-23,株式会社イギー,,株式会社,神奈川県,川崎市高津区,北見方２丁目３番８号,,14,134,2130005,,,,,,,2023-10-23,1,,,,,イギー,0
1511,6020001154044,新規,0,2023-10-23,2023-10-23,株式会社ヴェーダ・シーイー,,株式会社,神奈川県,川崎市中原区,下小田中２丁目１２番８号武蔵中原ビル５階,,14,133,2110041,,,,,,,2023-10-23,1,,,,,ヴェーダシーイー,0
1512,6020001154060,新規,0,2023-10-23,2023-10-23,リンクイノベーションズ株式会社,,株式会社,神奈川県,横浜市中区,山下町７０－１３,,14,104,2310023,,,,,,,2023-10-23,1,,,,,リンクイノベーションズ,0
1513,6020001154069,新規,0,2023-10-23,2023-10-23,株式会社アダワス,,株式会社,神奈川県,川崎市幸区,新塚越２０１番地ルリエ新川崎６０６,,14,132,2120027,,,,,,,2023-10-23,1,,,,,アダワス,0
1514,6020001154085,新規,0,2023-10-23,2023-10-23,株式会社ＺＵＭＩ,,株式会社,神奈川県,川崎市中原区,宮内１丁目４番２２－１号,,14,133,2110051,,,,,,,2023-10-23,1,,,,,ズミ,0
1515,6020001154093,新規,0,2023-10-23,2023-10-23,株式会社ＰＯＲＣＯ,,株式会社,神奈川県,横浜市神奈川区,子安通１丁目４７番地２,,14,102,2210021,,,,,,,2023-10-23,1,,,,,ポルコ,0
1520,6020003024807,新規,0,2023-10-23,2023-10-23,合同会社ＳＴＵＤＩＯ　ｃａｒａｔ,,合同会社,神奈川県,横浜市神奈川区,大口通１６－７グリーンビル１０２,,14,102,2210002,,,,,,,2023-10-23,1,,,,,スタジオカラット,0
1521,6020003024815,新規,0,2023-10-23,2023-10-23,合同会社Ｃａｃｔｉ＆ｃｏ．,,合同会社,神奈川県,横浜市金沢区,富岡東５丁目１７番５号丸十ビル２０２号室,,14,108,2360051,,,,,,,2023-10-23,1,,,,,カクテイアンドコー,0
1522,6020003024831,新規,0,2023-10-23,2023-10-23,スタジオ・イフ合同会社,,合同会社,神奈川県,横浜市中区,根岸町３丁目１８６番地１,,14,104,2310836,,,,,,,2023-10-23,1,,,,,スタジオイフ,0
1524,6020005016158,新規,0,2023-10-23,2023-10-23,一般社団法人ママスタイル,,その他の設立登記法人,神奈川県,横浜市港北区,大倉山３丁目１５番２１号,,14,109,2220037,,,,,,,2023-10-23,1,,,,,ママスタイル,0
1541,6030001156758,新規,0,2023-10-23,2023-10-23,株式会社ＭＲアセット,,株式会社,埼玉県,熊谷市,石原１０２３番地１,,11,202,3600816,,,,,,,2023-10-23,1,,,,,エムアールアセット,0
1542,6030001156782,新規,0,2023-10-23,2023-10-23,株式会社ＳＨＩＮＥ,,株式会社,埼玉県,蕨市,錦町６丁目９番２２号ロマリンダローズ１０２,,11,223,3350005,,,,,,,2023-10-23,1,,,,,シン,0
1543,6030001156799,新規,0,2023-10-23,2023-10-23,株式会社Ｇｏｏｄ‐ｗｉｎ,,株式会社,埼玉県,鴻巣市,下忍３３９５番地４,,11,217,3690113,,,,,,,2023-10-23,1,,,,,グッドウィン,0
1544,6030001156808,新規,0,2023-10-23,2023-10-23,ブループリント株式会社,,株式会社,埼玉県,志木市,幸町１丁目６番１１号,,11,228,3530005,,,,,,,2023-10-23,1,,,,,ブループリント,0
1545,6030001156816,新規,0,2023-10-23,2023-10-23,ＴＫＮ貿易株式会社,,株式会社,埼玉県,川口市,西川口３丁目２９番１３号奥ノ木ハイツ５０２号室,,11,203,3320021,,,,,,,2023-10-23,1,,,,,ティーケーエヌボウエキ,0
1549,6030003022826,新規,0,2023-10-23,2023-10-23,合同会社ｋｕｕ,,合同会社,埼玉県,さいたま市大宮区,桜木町１丁目１２番地２,,11,103,3300854,,,,,,,2023-10-23,1,,,,,クー,0
1550,6030003022834,新規,0,2023-10-23,2023-10-23,合同会社ＳＡＭＵ,,合同会社,埼玉県,蕨市,塚越２丁目７番２１号プレステージ富士５０５号,,11,223,3350002,,,,,,,2023-10-23,1,,,,,サム,0
1551,6030003022842,新規,0,2023-10-23,2023-10-23,合同会社ＥＮＡＢＬＥ,,合同会社,埼玉県,さいたま市浦和区,木崎５丁目６番１５号,,11,107,3300042,,,,,,,2023-10-23,1,,,,,エネイブル,0
1553,6030005021438,新規,0,2023-10-23,2023-10-23,医療法人社団グッドスマイル,,その他の設立登記法人,埼玉県,新座市,野火止５丁目２番５８号１階,,11,230,3520011,,,,,,,2023-10-23,1,,,,,グッドスマイル,0
1559,6040001130571,新規,0,2023-10-23,2023-10-23,株式会社エクスエンジニアリング,,株式会社,千葉県,千葉市若葉区,愛生町１３５番地５ボナールコートＫＥＮ１０２,,12,104,2640031,,,,,,,2023-10-23,1,,,,,エクスエンジニアリング,0
1564,6040005022170,新規,0,2023-10-23,2023-10-23,医療法人社団仁歯会,,その他の設立登記法人,千葉県,八街市,八街ほ３８２番３,,12,230,2891115,,,,,,,2023-10-23,1,,,,,ジンシカイ,0
1565,6050001053672,新規,0,2023-10-23,2023-10-23,株式会社ＭＧＮ,,株式会社,茨城県,つくば市,梅園２丁目１－１５スプリングテックつくばビル４０１,,08,220,3050045,,,,,,,2023-10-23,1,,,,,エムジーエヌ,0
1567,6050005013342,新規,0,2023-10-23,2023-10-23,一般社団法人地域創活協会,,その他の設立登記法人,茨城県,牛久市,ひたち野西３丁目２５番地５,,08,219,3001206,,,,,,,2023-10-23,1,,,,,チイキソウカツキョウカイ,0
1572,6080401026804,新規,0,2023-10-23,2023-10-23,株式会社プリーム,,株式会社,静岡県,浜松市東区,上石田町１８８１番,,22,132,4350001,,,,,,,2023-10-23,1,,,,,プリーム,0
1582,6120001258990,新規,0,2023-10-23,2023-10-23,Ｋｅｉｄａｉ株式会社,,株式会社,大阪府,大阪市東成区,東今里３丁目１５－４,,27,115,5370011,,,,,,,2023-10-23,1,,,,,ケイダイ,0
1583,6120001259015,新規,0,2023-10-23,2023-10-23,ＩＣＨＩＴＡＩＳＥＩ株式会社,,株式会社,大阪府,大阪市生野区,生野東２丁目９番１８号遊泊寺田町２０２号室,,27,116,5440025,,,,,,,2023-10-23,1,,,,,イチタイセイ,0
1584,6120001259023,新規,0,2023-10-23,2023-10-23,福生株式会社,,株式会社,大阪府,大阪市港区,市岡元町２丁目６番１１－４０１号,,27,107,5520002,,,,,,,2023-10-23,1,,,,,フクセイ,0
1585,6120001259031,新規,0,2023-10-23,2023-10-23,Ｄ’ｓ　ｄｅｓｉｇｎ株式会社,,株式会社,大阪府,大阪市中央区,島之内１丁目７番１７号Ｌ－ＬＯＦＴ長堀４０２号,,27,128,5420082,,,,,,,2023-10-23,1,,,,,ディーズデザイン,0
1586,6120001259064,新規,0,2023-10-23,2023-10-23,ドラキート株式会社,,株式会社,大阪府,大阪市生野区,田島５丁目１８番４号２０１号室,,27,116,5440011,,,,,,,2023-10-23,1,,,,,ドラキート,0
1587,6120001259072,新規,0,2023-10-23,2023-10-23,ネクストパートナー株式会社,,株式会社,大阪府,大阪市中央区,宗右衛門町１番２１号ベイステージ宗右衛門町３０７,,27,128,5420084,,,,,,,2023-10-23,1,,,,,ネクストパートナー,0
1589,6120003025159,新規,0,2023-10-23,2023-10-23,韋侘美堂合同会社,,合同会社,大阪府,大阪市北区,天神橋２丁目北２番２６号マルサンビル６０３号,,27,127,5300041,,,,,,,2023-10-23,1,,,,,イタミドウ,0
1593,6120103005498,新規,0,2023-10-23,2023-10-23,合同会社ベーシック,,合同会社,大阪府,高石市,綾園４丁目１番１５号,,27,225,5920014,,,,,,,2023-10-23,1,,,,,ベーシック,0
1594,6120105009778,新規,0,2023-10-23,2023-10-23,ＮＰＯ法人Ｓｕｐｅｒａ　ｆａｍｉｌｙ,,その他の設立登記法人,大阪府,松原市,北新町３丁目９番４号,,27,217,5800025,,,,,,,2023-10-23,1,,,,,スペラファミリー,0
1596,6120901048236,新規,0,2023-10-23,2023-10-23,勇気ホーム株式会社,,株式会社,大阪府,吹田市,山手町３丁目３２番１２号,,27,205,5640073,,,,,,,2023-10-23,1,,,,,ユウキホーム,0
1597,6120901048244,新規,0,2023-10-23,2023-10-23,株式会社コーラルエイト,,株式会社,大阪府,池田市,畑２丁目５番２０号,,27,204,5630021,,,,,,,2023-10-23,1,,,,,コーラルエイト,0
1598,6120901048269,新規,0,2023-10-23,2023-10-23,吹田屋内運動場空調株式会社,,株式会社,大阪府,吹田市,江坂町１丁目１７番２６号,,27,205,5640063,,,,,,,2023-10-23,1,,,,,スイタオクナイウンドウジョウクウチョウ,0
1599,6122001037499,新規,0,2023-10-23,2023-10-23,株式会社ＮＪＳ,,株式会社,大阪府,八尾市,神宮寺５丁目９番地,,27,212,5810885,,,,,,,2023-10-23,1,,,,,エヌジェイエス,0
1606,6140001132062,新規,0,2023-10-23,2023-10-23,桜ｇｒｏｕｐ株式会社,,株式会社,兵庫県,明石市,魚住町清水２１１番地の２,,28,203,6740074,,,,,,,2023-10-23,1,,,,,,0
1607,6140001132079,新規,0,2023-10-23,2023-10-23,株式会社メリーカンパニー,,株式会社,兵庫県,西宮市,西平町５番１４号,,28,204,6620093,,,,,,,2023-10-23,1,,,,,メリーカンパニー,0
1608,6140001132087,新規,0,2023-10-23,2023-10-23,株式会社Ｋ　ｔｒｉｐ　ｆａｃｔｏｒｙ,,株式会社,兵庫県,神戸市中央区,中山手通３丁目２番１－６０２号,,28,110,6500004,,,,,,,2023-10-23,1,,,,,ケートリップファクトリー,0
1609,6140001132095,新規,0,2023-10-23,2023-10-23,協和精密製作所株式会社,,株式会社,兵庫県,神戸市西区,室谷２丁目２番地７,,28,111,6512241,,,,,,,2023-10-23,1,,,,,キョウワセイミツセイサクショ,0
1618,6140003019704,新規,0,2023-10-23,2023-10-23,合同会社サンヨウＳＫ,,合同会社,兵庫県,宍粟市,山崎町庄能２２２－１,,28,227,6712572,,,,,,,2023-10-23,1,,,,,サンヨウエスケー,0
1619,6140003019712,新規,0,2023-10-23,2023-10-23,合同会社Ｎａａｕ　ａｌａｋａｉ,,合同会社,兵庫県,姫路市,北条口２丁目８５番地ポレスター姫路ザ・レジデンス２０２号室,,28,201,6700935,,,,,,,2023-10-23,1,,,,,ナーウアラカーイ,0
1620,6150003003104,新規,0,2023-10-23,2023-10-23,合同会社ＵＡ,,合同会社,奈良県,生駒郡斑鳩町,龍田南６丁目３番６号（１０２）,00132359,29,344,6360153,,,,,,,2023-10-23,1,,,,,ユーエー,0
1623,6160003003020,新規,0,2023-10-23,2023-10-23,合同会社アン,,合同会社,滋賀県,栗東市,霊仙寺２丁目６５８番地,,25,208,5203035,,,,,,,2023-10-23,1,,,,,アン,0
1628,6180001158574,新規,0,2023-10-23,2023-10-23,河村ホールディングス株式会社,,株式会社,愛知県,春日井市,若草通３丁目４１番地の１,,23,206,4860914,,,,,,,2023-10-23,1,,,,,カワムラホールディングス,0
1629,6180001158608,新規,0,2023-10-23,2023-10-23,株式会社エイ・アール・エス,,株式会社,愛知県,春日井市,下条町７５２番地,,23,206,4860923,,,,,,,2023-10-23,1,,,,,エイアールエス,0
1633,6180003025888,新規,0,2023-10-23,2023-10-23,Ｄｕａｌ　Ｃｏｒｅ合同会社,,合同会社,愛知県,名古屋市中村区,本陣通６丁目１８番地の２（ウィステリア１０２号）,,23,105,4530041,,,,,,,2023-10-23,1,,,,,デュアルコア,0
1634,6180003025896,新規,0,2023-10-23,2023-10-23,合同会社ＵＥＴ,,合同会社,愛知県,一宮市,木曽川町黒田字古城１３番地ハイツ古城４１３号,,23,203,4930001,,,,,,,2023-10-23,1,,,,,ユーイーティー,0
1639,6190001030823,新規,0,2023-10-23,2023-10-23,株式会社中山工業,,株式会社,三重県,四日市市,大字末永１０５９番地１,,24,202,5100813,,,,,,,2023-10-23,1,,,,,ナカヤマコウギョウ,0
1652,6250001020355,新規,0,2023-10-23,2023-10-23,株式会社翔栄,,株式会社,山口県,山口市,朝田７０５番地４,,35,203,7530871,,,,,,,2023-10-23,1,,,,,ショウエイ,0
1653,6250001020363,新規,0,2023-10-23,2023-10-23,株式会社澄川ホールディングス,,株式会社,山口県,下松市,葉山２丁目９０４番地１４,,35,207,7440000,,,,,,,2023-10-23,1,,,,,スミカワホールディングス,0
1662,6290003014525,新規,0,2023-10-23,2023-10-23,Ｎｉｈｏｎ　Ｅｓｓｅｎｔｉａｌｓ　Ｈｕｂ合同会社,,合同会社,福岡県,福岡市博多区,冷泉町２－９クレアランドマーク３０５,,40,132,8120039,,,,,,,2023-10-23,1,,,,,ニホンエッセンシャルズハブ,0
1666,6320001020100,新規,0,2023-10-23,2023-10-23,シトラスジャパン株式会社,,株式会社,大分県,大分市,大字森１２５７番地１エスポワールさとう４０３号,,44,201,8700128,,,,,,,2023-10-23,1,,,,,シトラスジャパン,0
1668,6330003010032,新規,0,2023-10-23,2023-10-23,合同会社オズ,,合同会社,熊本県,熊本市中央区,九品寺１丁目１９番５―８０９号,,43,101,8620976,,,,,,,2023-10-23,1,,,,,オズ,0
1672,6350001018629,新規,0,2023-10-23,2023-10-23,株式会社トップクラス,,株式会社,宮崎県,宮崎市,大字熊野７０８６番地１,,45,201,8892151,,,,,,,2023-10-23,1,,,,,トップクラス,0
1677,6360001032728,新規,0,2023-10-23,2023-10-23,株式会社タカ商事,,株式会社,沖縄県,中頭郡北谷町,字桑江４３２北谷スポーツセンター内ボウリング場２Ｆ,,47,326,9040103,,,,,,,2023-10-23,1,,,,,タカショウジ,0
1682,6380001034078,新規,0,2023-10-23,2023-10-23,株式会社ＳＬＯＷ,,株式会社,福島県,郡山市,大槻町字原ノ町１０番地の７,,07,203,9630201,,,,,,,2023-10-23,1,,,,,スロウ,0
1688,6400001016437,新規,0,2023-10-23,2023-10-23,株式会社ＫＹＯＳＨＩＮ,,株式会社,岩手県,滝沢市,柳沢１４６５番地１,,03,216,0200612,,,,,,,2023-10-23,1,,,,,キョーシン,0
1697,6460101007454,新規,0,2023-10-23,2023-10-23,株式会社ＪＭコネクト,,株式会社,北海道,帯広市,西十五条南１１丁目１番地３８,,01,207,0800025,,,,,,,2023-10-23,1,,,,,ジェイエムコネクト,0
1699,6470001019862,新規,0,2023-10-23,2023-10-23,株式会社Ｆ．Ｃ．Ｃ,,株式会社,香川県,高松市,多肥下町３２７番地１,,37,201,7618075,,,,,,,2023-10-23,1,,,,,エフシーシー,0
1702,6700150120240,新規,0,2023-10-23,2023-09-14,浦添市医師会認知症ネットワーク,,その他,沖縄県,浦添市,伊祖３丁目３番１号－１０１（一般社団法人浦添市医師会　事務局内）,,47,208,9012132,,,,,,,2023-09-14,1,,,,,ウラソエシイシカイニンチシヨウネツトワーク,0
1703,6700150121313,新規,0,2023-10-23,2023-10-23,ＳｈｅｎＺｈｅｎ　Ｄａｌｕｔｏｎｇ　Ｔｅｃｈｎｏｌｏｇｙ　Ｃｏ．，Ｌｔｄ,,外国会社等,,,,,,,,Ｃ２０１，２Ｆ，ＴｉａｎＨｕｉＤａＳｈａ，ＤｏｎｇＨｕａｎＹｉ　Ｒｏａｄ，ＦｕＫａｎｇＳｈｅＱｕ，ＬｏｎｇＨｕａ　Ｓｔｒｅｅｔ，ＬｏｎｇＨｕａ　ＤｉｓｔｒｉｃｔＳｈｅｎＺｈｅｎＧｕａｎｇＤｏｎｇ５１８０００ＣＮ,,,,,,2023-10-23,1,,,,,シェンジェンシーダールートンコージーヨウシエンゴンスー,0
1713,7010001239349,新規,0,2023-10-23,2023-10-23,株式会社ＶＥＮＴＵＲＩＱ,,株式会社,東京都,中央区,銀座３丁目７－６,,13,102,1040061,,,,,,,2023-10-23,1,,,,,ヴェンチュリック,0
1714,7010001239415,新規,0,2023-10-23,2023-10-23,株式会社ＤＲＨ,,株式会社,東京都,中央区,銀座７丁目１３番２０号銀座ＴＨビル９階,,13,102,1040061,,,,,,,2023-10-23,1,,,,,ディーアールエイチ,0
1716,7010005037410,新規,0,2023-10-23,2023-10-23,行政書士法人ユア・エース,,その他の設立登記法人,東京都,中央区,日本橋堀留町２丁目３番１４号堀留ＴＨビル２階,,13,102,1030012,,,,,,,2023-10-23,1,,,,,ユアエース,0
1726,7010401177990,新規,0,2023-10-23,2023-10-23,株式会社Ｋ‐Ｉｍａｉ,,株式会社,東京都,港区,白金台３丁目１番１－６０１号,,13,103,1080071,,,,,,,2023-10-23,1,,,,,ケイイマイ,0
1727,7010401178007,新規,0,2023-10-23,2023-10-23,株式会社あなた,,株式会社,東京都,港区,東麻布１丁目２９番１５号東麻布２９６ビル２階,,13,103,1060044,,,,,,,2023-10-23,1,,,,,アナタ,0
1729,7010403031188,新規,0,2023-10-23,2023-10-23,Ｒｅｎｎｙ＆Ｐａｌｓ合同会社,,合同会社,東京都,港区,南麻布４丁目１１－３５インペリアル広尾４２２室,,13,103,1060047,,,,,,,2023-10-23,1,,,,,レニーアンドパルス,0
1732,7010503007187,新規,0,2023-10-23,2023-10-23,Ｖｊｃ　Ｒｅｃｙｃｌｉｎｇ合同会社,,合同会社,東京都,台東区,台東４丁目３１番１号ＡＬビル１階１０６,,13,106,1100016,,,,,,,2023-10-23,1,,,,,ブイジェイシーリサイクリング,0
1735,7010601064007,新規,0,2023-10-23,2023-10-23,株式会社Ｈｕｍｂｏｌ,,株式会社,東京都,墨田区,横川２丁目８番６号ＣＡＳＡＧ２０５,,13,107,1300003,,,,,,,2023-10-23,1,,,,,ハンボル,0
1739,7010901054054,新規,0,2023-10-23,2023-10-23,株式会社エインセルテクノロジー,,株式会社,東京都,世田谷区,上馬３丁目１７番１号,,13,112,1540011,,,,,,,2023-10-23,1,,,,,エインセルテクノロジー,0
1741,7011001157689,新規,0,2023-10-23,2023-10-23,株式会社美と健康とご褒美,,株式会社,東京都,渋谷区,富ヶ谷１丁目３５番２３号,,13,113,1510063,,,,,,,2023-10-23,1,,,,,ビトケンコウトゴホウビ,0
1742,7011001157706,新規,0,2023-10-23,2023-10-23,ＢＲＥＡＤ＆ＢＵＴＴＥＲ株式会社,,株式会社,東京都,目黒区,上目黒２丁目９番１７号ＮａｋａｍｅｇｕｒｏＣｒｏｓｓｏｖｅｒ３０１,,13,110,1530051,,,,,,,2023-10-23,1,,,,,ブレッドアンドバター,0
1743,7011001157730,新規,0,2023-10-23,2023-10-23,株式会社ＳＴＡＲＴ,,株式会社,東京都,渋谷区,西原１丁目２４番３号ヒルズＪ．Ｓ．Ｔ１０１,,13,113,1510066,,,,,,,2023-10-23,1,,,,,スタート,0
1744,7011001157771,新規,0,2023-10-23,2023-10-23,株式会社Ｓｔ’ｅｍ,,株式会社,東京都,渋谷区,恵比寿３丁目４番３号第３東ビルＢ１Ｆ,,13,113,1500013,,,,,,,2023-10-23,1,,,,,ステム,0
1749,7011103013641,新規,0,2023-10-23,2023-10-23,合同会社ジェイ・イー・ピー,,合同会社,東京都,新宿区,下宮比町１番４号,,13,104,1620822,,,,,,,2023-10-23,1,,,,,ジェイイーピー,0
1751,7011105010819,新規,0,2023-10-23,2023-10-23,一般社団法人ＯＤＧ,,その他の設立登記法人,東京都,新宿区,高田馬場１丁目２７番３号ニュー竹宝ビル２階,,13,104,1690075,,,,,,,2023-10-23,1,,,,,オーディージー,0
1753,7011303004944,新規,0,2023-10-23,2023-10-23,合同会社ＮＯＺＲＡ,,合同会社,東京都,杉並区,永福３丁目２０番３号,,13,115,1680064,,,,,,,2023-10-23,1,,,,,ノヅラ,0
1754,7011401025553,新規,0,2023-10-23,2023-10-23,株式会社コウキデザイン,,株式会社,東京都,板橋区,中丸町８番５－１５０３号,,13,119,1730026,,,,,,,2023-10-23,1,,,,,コウキデザイン,0
1755,7011501029900,新規,0,2023-10-23,2023-10-23,株式会社Ｗｅｌｌｓｉｄｅランドリー,,株式会社,東京都,北区,豊島６丁目２番２１号,,13,117,1140003,,,,,,,2023-10-23,1,,,,,ウェルサイドランドリー,0
1763,7011701026680,新規,0,2023-10-23,2023-10-23,東京観潮株式会社,,株式会社,東京都,江戸川区,松江２丁目１－１３－３０４号室,,13,123,1320025,,,,,,,2023-10-23,1,,,,,トウキョウカンチョウ,0
1764,7011701026689,新規,0,2023-10-23,2023-10-23,株式会社雅物流,,株式会社,東京都,江戸川区,西瑞江４丁目２５－１４－４０１,,13,123,1340015,,,,,,,2023-10-23,1,,,,,ミヤビブツリュウ,0
1765,7011801043213,新規,0,2023-10-23,2023-10-23,株式会社Ａｒｔ,,株式会社,東京都,足立区,梅田７丁目２３番１１－３０４号,,13,121,1230851,,,,,,,2023-10-23,1,,,,,アート,0
1767,7012401041136,新規,0,2023-10-23,2023-10-23,株式会社泉メディカル商事,,株式会社,東京都,府中市,宮町３丁目３番地の１２,,13,206,1830023,,,,,,,2023-10-23,1,,,,,イズミメディカルショウジ,0
1769,7012801022719,新規,0,2023-10-23,2023-10-23,ミトモ株式会社,,株式会社,東京都,東大和市,新堀２丁目１４５３番地の７０,,13,220,2070012,,,,,,,2023-10-23,1,,,,,ミトモ,0
1771,7013103001270,新規,0,2023-10-23,2023-10-23,合同会社ＴＭＹ,,合同会社,東京都,青梅市,勝沼１丁目４１番地の２,,13,205,1980041,,,,,,,2023-10-23,1,,,,,ティーエムワイ,0
1772,7013303006846,新規,0,2023-10-23,2023-10-23,エプロン合同会社,,合同会社,東京都,豊島区,東池袋２丁目２１－６朝日プラザ東池袋１００８,,13,116,1700013,,,,,,,2023-10-23,1,,,,,エプロン,0
1779,7020001154068,新規,0,2023-10-23,2023-10-23,株式会社アイクビューティアンドテクノロジー,,株式会社,神奈川県,横浜市港北区,師岡町３００番地７－３０１号,,14,109,2220002,,,,,,,2023-10-23,1,,,,,アイクビューティアンドテクノロジー,0
1780,7020001154084,新規,0,2023-10-23,2023-10-23,株式会社ｋｉｋｉｕｃｈｉ‐ｒｅｓｅｔ,,株式会社,神奈川県,横浜市都筑区,北山田６丁目４９番７号,,14,118,2240021,,,,,,,2023-10-23,1,,,,,キキウチリセット,0
1781,7020001154101,新規,0,2023-10-23,2023-10-23,アグリエンスシステムズ株式会社,,株式会社,神奈川県,川崎市中原区,苅宿２３番３７号,,14,133,2110022,,,,,,,2023-10-23,1,,,,,アグリエンスシステムズ,0
1782,7020001154150,新規,0,2023-10-23,2023-10-23,株式会社ＣＯＣＯＦＲＥＥ,,株式会社,神奈川県,横浜市中区,桜木町１丁目１０１番地１クロスゲート７階,,14,104,2310062,,,,,,,2023-10-23,1,,,,,ココフリー,0
1784,7020003024806,新規,0,2023-10-23,2023-10-23,合同会社星海,,合同会社,神奈川県,横浜市保土ケ谷区,仏向町３６０番地１,,14,106,2400044,,,,,,,2023-10-23,1,,,,,ホシナ,0
1785,7020003024830,新規,0,2023-10-23,2023-10-23,イーワイエステート合同会社,,合同会社,神奈川県,横浜市西区,浅間町４丁目３４０番地８リブリ・ＭＹＴ５０２号,,14,103,2200072,,,,,,,2023-10-23,1,,,,,イーワイエステート,0
1786,7020003024855,新規,0,2023-10-23,2023-10-23,合同会社クイーンズコーポレーション,,合同会社,神奈川県,横浜市中区,滝之上１４９番地８,,14,104,2310837,,,,,,,2023-10-23,1,,,,,クイーンズコーポレーション,0
1804,7030001156666,新規,0,2023-10-23,2023-10-23,株式会社ＲＳＫ　ＳＡＫＡＭＯＴＯ,,株式会社,埼玉県,本庄市,四季の里２丁目２番２号,,11,211,3670039,,,,,,,2023-10-23,1,,,,,アールエスケイサカモト,0
1805,7030001156749,新規,0,2023-10-23,2023-10-23,Ｖｉｎ　Ａｍｉｓ株式会社,,株式会社,埼玉県,ふじみ野市,清見１丁目６－３３,,11,245,3560002,,,,,,,2023-10-23,1,,,,,ヴァンアミ,0
1806,7030001156757,新規,0,2023-10-23,2023-10-23,株式会社アラマサ工業,,株式会社,埼玉県,鶴ヶ島市,羽折町４番地６,,11,241,3502221,,,,,,,2023-10-23,1,,,,,アラマサコウギョウ,0
1807,7030001156765,新規,0,2023-10-23,2023-10-23,株式会社ティーワイエム,,株式会社,埼玉県,和光市,新倉２丁目３２番３５－５０５号,,11,229,3510115,,,,,,,2023-10-23,1,,,,,ティーワイエム,0
1808,7030001156773,新規,0,2023-10-23,2023-10-23,よのトラベルサービス株式会社,,株式会社,埼玉県,さいたま市中央区,八王子３丁目３２番１０号,,11,105,3380006,,,,,,,2023-10-23,1,,,,,ヨノトラベルサービス,0
1809,7030001156781,新規,0,2023-10-23,2023-10-23,ＫＭコンサル株式会社,,株式会社,埼玉県,草加市,北谷３丁目４番１号,,11,221,3400046,,,,,,,2023-10-23,1,,,,,ケーエムコンサル,0
1810,7030001156798,新規,0,2023-10-23,2023-10-23,株式会社ＳＰＬＡＳＨ８,,株式会社,埼玉県,八潮市,大字新町９８番地ハイツ斉藤１０１,,11,234,3400807,,,,,,,2023-10-23,1,,,,,スプラッシュエイト,0
1811,7030001156807,新規,0,2023-10-23,2023-10-23,株式会社ムラヤマ,,株式会社,埼玉県,越谷市,東大沢２丁目３２番地６,,11,222,3430022,,,,,,,2023-10-23,1,,,,,ムラヤマ,0
1812,7030001156815,新規,0,2023-10-23,2023-10-23,株式会社武流,,株式会社,埼玉県,坂戸市,にっさい花みず木２丁目１５番地４プリマ・クラッセＩ－２０１号室,00132365,11,239,3500269,,,,,,,2023-10-23,1,,,,,ブリュウ,0
1822,7030003022742,新規,0,2023-10-23,2023-10-23,ＳＣＴＣ合同会社,,合同会社,埼玉県,さいたま市見沼区,大字南中丸９９９－４,,11,104,3370041,,,,,,,2023-10-23,1,,,,,エスシーティーシー,0
1823,7030003022817,新規,0,2023-10-23,2023-10-23,ＴＡＳＫＡＬＬ合同会社,,合同会社,埼玉県,さいたま市南区,沼影１丁目１３番１ー５０４号,,11,108,3360027,,,,,,,2023-10-23,1,,,,,タスカル,0
1824,7030003022833,新規,0,2023-10-23,2023-10-23,ランドラック合同会社,,合同会社,埼玉県,熊谷市,佐谷田３９８１番地２７,,11,202,3600023,,,,,,,2023-10-23,1,,,,,ランドラック,0
1825,7030003022841,新規,0,2023-10-23,2023-10-23,たべものがかり合同会社,,合同会社,埼玉県,入間市,豊岡４丁目１番８号,,11,225,3580003,,,,,,,2023-10-23,1,,,,,タベモノガカリ,0
1827,7040001130604,新規,0,2023-10-23,2023-10-23,株式会社大心建装,,株式会社,千葉県,千葉市花見川区,天戸町１４６４番地３八千代台ハイツ２０２号,,12,102,2620043,,,,,,,2023-10-23,1,,,,,ダイシンケンソウ,0
1833,7040003023582,新規,0,2023-10-23,2023-10-23,ファーストリッチ合同会社,,合同会社,千葉県,いすみ市,岬町嘉谷２８３番地１,,12,238,2994625,,,,,,,2023-10-23,1,,,,,ファーストリッチ,0
1841,7080001025932,新規,0,2023-10-23,2023-10-23,株式会社ＦＵＴＡＢＡ,,株式会社,静岡県,静岡市葵区,下１１０８番地の８,,22,101,4212108,,,,,,,2023-10-23,1,,,,,フタバ,0
1842,7080003003077,新規,0,2023-10-23,2023-10-23,勝谷設計合同会社,,合同会社,静岡県,静岡市駿河区,丸子４丁目２番５３号,,22,102,4210103,,,,,,,2023-10-23,1,,,,,カツタニセッケイ,0
1863,7120001259022,新規,0,2023-10-23,2023-10-23,＿度株式会社,00132367,株式会社,大阪府,大阪市港区,市岡元町２丁目６番１１－３０６号,,27,107,5520002,,,,,,,2023-10-23,1,,,,,シンド,0
1864,7120001259071,新規,0,2023-10-23,2023-10-23,ライフパートナー株式会社,,株式会社,大阪府,大阪市中央区,宗右衛門町１番２１号ベイステージ宗右衛門町３０７,,27,128,5420084,,,,,,,2023-10-23,1,,,,,ライフパートナー,0
1865,7120001259088,新規,0,2023-10-23,2023-10-23,株式会社ｔｈｒｏｂ,,株式会社,大阪府,大阪市東成区,深江北２丁目１番４号,,27,115,5370001,,,,,,,2023-10-23,1,,,,,スロブ,0
1866,7120001259138,新規,0,2023-10-23,2023-10-23,株式会社やま吟,,株式会社,大阪府,大阪市中央区,道修町２丁目５番９号,,27,128,5410045,,,,,,,2023-10-23,1,,,,,ヤマギン,0
1869,7120003025166,新規,0,2023-10-23,2023-10-23,合同会社ウィルアライブ,,合同会社,大阪府,大阪市鶴見区,鶴見４丁目１０－２－２０２,,27,124,5380053,,,,,,,2023-10-23,1,,,,,ウィルアライブ,0
1872,7120105009777,新規,0,2023-10-23,2023-10-23,一般社団法人日本風力発電保安協会,,その他の設立登記法人,大阪府,和泉市,万町４７番地９,,27,219,5941104,,,,,,,2023-10-23,1,,,,,ニホンフウリョクハツデンホアンキョウカイ,0
1876,7122001037498,新規,0,2023-10-23,2023-10-23,株式会社Ｙ’ｓ商事,,株式会社,大阪府,東大阪市,箕輪１丁目１１番２９号,,27,227,5780914,,,,,,,2023-10-23,1,,,,,ワイズショウジ,0
1877,7122001037507,新規,0,2023-10-23,2023-10-23,株式会社ＩＫＵＭＩ,,株式会社,大阪府,東大阪市,若江本町２丁目５番１０号,,27,227,5780942,,,,,,,2023-10-23,1,,,,,イクミ,0
1878,7122003002707,新規,0,2023-10-23,2023-10-23,合同会社ＡＥＭＩ,,合同会社,大阪府,東大阪市,御厨東１丁目６番３５号,,27,227,5770033,,,,,,,2023-10-23,1,,,,,アーミ,0
1879,7130001075484,新規,0,2023-10-23,2023-10-23,営造学舎株式会社,,株式会社,京都府,京都市東山区,上梅屋町１６２番地メゾンロビ２０１,,26,105,6050876,,,,,,,2023-10-23,1,,,,,エイゾウガクシャ,0
1880,7130003009093,新規,0,2023-10-23,2023-10-23,アリスアーツ合同会社,,合同会社,京都府,京都市下京区,七条通油小路東入大黒町２２７番地第２キョートビル４０２,,26,106,6008223,,,,,,,2023-10-23,1,,,,,アリスアーツ,0
1885,7140001132053,新規,0,2023-10-23,2023-10-23,株式会社ゆとな,,株式会社,兵庫県,芦屋市,船戸町１１番６－５０２号,,28,206,6590093,,,,,,,2023-10-23,1,,,,,ユトナ,0
1886,7140001132061,新規,0,2023-10-23,2023-10-23,ひふみコンサルティング株式会社,,株式会社,兵庫県,西宮市,南越木岩町１３番３０号,,28,204,6620075,,,,,,,2023-10-23,1,,,,,ヒフミコンサルティング,0
1887,7140001132078,新規,0,2023-10-23,2023-10-23,株式会社ＶＩＳＣＯ,,株式会社,兵庫県,神戸市灘区,六甲町１丁目２番２４号１Ｆ,,28,102,6570053,,,,,,,2023-10-23,1,,,,,ヴィスコ,0
1888,7140001132094,新規,0,2023-10-23,2023-10-23,株式会社Ｒｉｖｅｒ　Ｆｉｅｌｄ,,株式会社,兵庫県,加古川市,加古川町本町４３５番地の１ウィングコート本町Ｂ－６号,,28,210,6750037,,,,,,,2023-10-23,1,,,,,リバーフィールド,0
1892,7140003019711,新規,0,2023-10-23,2023-10-23,合同会社スマイル,,合同会社,兵庫県,尼崎市,西難波町４丁目２－１５－１,,28,202,6600893,,,,,,,2023-10-23,1,,,,,,0
1900,7180001158540,新規,0,2023-10-23,2023-10-23,株式会社ココンキューブ,,株式会社,愛知県,東海市,名和町３丁目２０番地の１,,23,222,4760002,,,,,,,2023-10-23,1,,,,,ココンキューブ,0
1901,7180001158549,新規,0,2023-10-23,2023-10-23,株式会社ＨＡＹＡＴＡＫＵ,,株式会社,愛知県,稲沢市,正明寺１丁目２番２０号,,23,220,4928145,,,,,,,2023-10-23,1,,,,,ハヤタク,0
1902,7180001158557,新規,0,2023-10-23,2023-10-23,株式会社ＳＣ,,株式会社,愛知県,清須市,西枇杷島町古城２丁目１６番地６,,23,233,4520001,,,,,,,2023-10-23,1,,,,,エスシー,0
1903,7180001158565,新規,0,2023-10-23,2023-10-23,株式会社ヤシマ,,株式会社,愛知県,名古屋市緑区,定納山１丁目１１０４番地の１,,23,114,4598011,,,,,,,2023-10-23,1,,,,,ヤシマ,0
1904,7180001158573,新規,0,2023-10-23,2023-10-23,Ｂｌｕｅ　Ｓｋｙ　ｂｅｒｒｉｅｓ株式会社,,株式会社,愛知県,名古屋市港区,入場２丁目１２０４番地の１,,23,111,4550803,,,,,,,2023-10-23,1,,,,,ブルースカイベリーズ,0
1905,7180001158615,新規,0,2023-10-23,2023-10-23,株式会社ケアグレース,,株式会社,愛知県,名古屋市中川区,打出２丁目１１２番地,,23,110,4540926,,,,,,,2023-10-23,1,,,,,ケアグレース,0
1907,7180003025887,新規,0,2023-10-23,2023-10-23,合同会社ＳＰＲＩＮＧ,,合同会社,愛知県,東海市,名和町向イ山６６番地の２,,23,222,4760002,,,,,,,2023-10-23,1,,,,,スプリング,0
1914,7190003004485,新規,0,2023-10-23,2023-10-23,スパイスカレー合同会社,,合同会社,三重県,三重郡川越町,大字亀須新田４２９番地１,,24,344,5108112,,,,,,,2023-10-23,1,,,,,スパイスカレー,0
1915,7190005008823,新規,0,2023-10-23,2023-10-23,四日市商工共済協同組合,,その他の設立登記法人,三重県,四日市市,諏訪町２番５号四日市商工会議所内,,24,202,5100085,,,,,,,2023-10-23,1,,,,,,0
1918,7200001041842,新規,0,2023-10-23,2023-10-23,株式会社扇屋ヴェルデ,,株式会社,岐阜県,各務原市,蘇原熊田町１丁目２７番地３,,21,213,5040853,,,,,,,2023-10-23,1,,,,,オウギヤヴェルデ,0
1919,7200001041850,新規,0,2023-10-23,2023-10-23,株式会社なか山ケア,,株式会社,岐阜県,安八郡輪之内町,楡俣新田４９６番地の１,,21,382,5030203,,,,,,,2023-10-23,1,,,,,ナカヤマケア,0
1930,7220001025645,新規,0,2023-10-23,2023-10-23,ワラ建設株式会社,,株式会社,石川県,小松市,遊泉寺町ホ５０番地,,17,203,9230064,,,,,,,2023-10-23,1,,,,,ワラケンセツ,0
1933,7240001062307,新規,0,2023-10-23,2023-10-23,ＢＩＳ株式会社,,株式会社,広島県,三原市,本町３丁目１３番３２号,,34,204,7230062,,,,,,,2023-10-23,1,,,,,ビス,0
1940,7250005008866,新規,0,2023-10-23,2023-10-23,一般社団法人下関散骨センター,,その他の設立登記法人,山口県,下関市,横野町４丁目７番８号,,35,201,7596604,,,,,,,2023-10-23,1,,,,,シモノセキサンコツセンター,0
1945,7290001103477,新規,0,2023-10-23,2023-10-23,株式会社ダブルピース,,株式会社,福岡県,福岡市博多区,博多駅東２丁目１８番２８号,,40,132,8120013,,,,,,,2023-10-23,1,,,,,ダブルピース,0
1951,7320001020099,新規,0,2023-10-23,2023-10-23,株式会社八電工,,株式会社,大分県,別府市,朝見１丁目１５番１５号,,44,202,8740812,,,,,,,2023-10-23,1,,,,,ハチデンコウ,0
1952,7320003004208,新規,0,2023-10-23,2023-10-23,合同会社ｓ．ａ　ｎａｒｒａｔｉｖｅ,,合同会社,大分県,大分市,大在北１丁目６番１７－４号,,44,201,8700245,,,,,,,2023-10-23,1,,,,,エスエーナラティブ,0
1958,7340001025988,新規,0,2023-10-23,2023-10-23,久栄建材株式会社,,株式会社,鹿児島県,日置市,東市来町長里４９２番地１,,46,216,8992202,,,,,,,2023-10-23,1,,,,,キュウエイケンザイ,0
1959,7350001018628,新規,0,2023-10-23,2023-10-23,株式会社Ｐ‐ＣＡＲ,,株式会社,宮崎県,宮崎市,阿波岐原町竹割２２１４番地３,,45,201,8800835,,,,,,,2023-10-23,1,,,,,ピーカー,0
1960,7350003004469,新規,0,2023-10-23,2023-10-23,合同会社ＪＳＢ,,合同会社,宮崎県,宮崎市,大字恒久５７４３番地２,,45,201,8800916,,,,,,,2023-10-23,1,,,,,ジェイエスビー,0
1961,7360001032719,新規,0,2023-10-23,2023-10-23,株式会社テマリズム,,株式会社,沖縄県,石垣市,字真栄里１８６番地１３ＢＬＵＥ　ＯＣＥＡＮ５０１号,,47,207,9070002,,,,,,,2023-10-23,1,,,,,テマリズム,0
1962,7360003013394,新規,0,2023-10-23,2023-10-23,合同会社カノアカンパニー,,合同会社,沖縄県,沖縄市,胡屋５丁目１１番１号,,47,211,9040021,,,,,,,2023-10-23,1,,,,,カノアカンパニー,0
1968,7380003005596,新規,0,2023-10-23,2023-10-23,合同会社信交不動産,,合同会社,福島県,いわき市,錦町中央２丁目１１番地の１,,07,204,9748233,,,,,,,2023-10-23,1,,,,,シンコウフドウサン,0
1970,7410003003860,新規,0,2023-10-23,2023-10-23,合同会社Ｗａ．Ｂｏｓｈｉ,,合同会社,秋田県,由利本荘市,水林２５８番地１０,,05,210,0150885,,,,,,,2023-10-23,1,,,,,ワボシ,0
1974,7430001090239,新規,0,2023-10-23,2023-10-23,株式会社ｌｏａ,,株式会社,北海道,札幌市中央区,南四条西１６丁目３番８号ピュアライフ門脇２０３号室,,01,101,0640804,,,,,,,2023-10-23,1,,,,,ロア,0
1977,7460101007453,新規,0,2023-10-23,2023-10-23,シンプルライフ．株式会社,,株式会社,北海道,帯広市,西二条南１８丁目１９番地２,,01,207,0800012,,,,,,,2023-10-23,1,,,,,シンプルライフ,0
1978,7460102007816,新規,0,2023-10-23,2023-10-23,有限会社鳥羽組,,有限会社,北海道,足寄郡足寄町,西町４丁目１番地の２２,,01,647,0893733,,,,,,,2023-10-23,1,,,,,トバグミ,0
1982,7700150120578,新規,0,2023-10-23,2023-09-22,おちとしゆき後援会,,その他,広島県,広島市中区,大手町３丁目３－２７－１Ｆ,,34,101,7300051,,,,,,,2023-09-22,1,,,,,オチトシユキコウエンカイ,0
1983,7700150121312,新規,0,2023-10-23,2023-10-23,Ｎｏｏｒｉｏ　Ｉｎｎｏｖａｔｉｏｎｓ　Ｌｉｍｉｔｅｄ,,外国会社等,,,,,,,,ＡＰＬＨＡ　ＨＯＵＳＥ　２７３３　ＮＡＴＨＡＮ　ＲＯＡＤＯＦＦＩＣＥ　２１６　２ＮＤ　ＦＬＯＯＲＴＳＩＭ　ＳＨＡ　ＴＳＵＩＫＬ９９９０７７ＨＫ,,,,,,2023-10-23,1,,,,,ヌオルイチュワンシンヨウシエンゴンスー,0
1986,8010001239348,新規,0,2023-10-23,2023-10-23,株式会社Ｔｒｉｎｅ,,株式会社,東京都,中央区,銀座３丁目７－６,,13,102,1040061,,,,,,,2023-10-23,1,,,,,トライン,0
1987,8010001239455,新規,0,2023-10-23,2023-10-23,株式会社３１２,,株式会社,東京都,中央区,銀座７丁目１６番１５号清月堂本店ビル７０２,,13,102,1040061,,,,,,,2023-10-23,1,,,,,サンイチニ,0
2003,8010401177899,新規,0,2023-10-23,2023-10-23,株式会社新興苑,,株式会社,東京都,港区,元麻布１丁目５番１０号４０２号室,,13,103,1060046,,,,,,,2023-10-23,1,,,,,シンコウエン,0
2004,8010401178014,新規,0,2023-10-23,2023-10-23,株式会社ＴＨＲＥＥ　ＦＡＣＴＯＲＳ,,株式会社,東京都,港区,南青山２丁目１４番６号,,13,103,1070062,,,,,,,2023-10-23,1,,,,,スリーファクターズ,0
2005,8010401178047,新規,0,2023-10-23,2023-10-23,株式会社アシスト,,株式会社,東京都,港区,海岸３丁目７番１７－３０３号,,13,103,1080022,,,,,,,2023-10-23,1,,,,,アシスト,0
2006,8010403031212,新規,0,2023-10-23,2023-10-23,合同会社ＥＶＯＫＥ８１,,合同会社,東京都,港区,芝公園２丁目１１番１３－５０６号,,13,103,1050011,,,,,,,2023-10-23,1,,,,,エヴォークエイティワン,0
2007,8010403031229,新規,0,2023-10-23,2023-10-23,溜池合同会社,,合同会社,東京都,港区,赤坂２丁目１２番２１号赤坂西館２０６号,,13,103,1070052,,,,,,,2023-10-23,1,,,,,タメイケ,0
2017,8010601063998,新規,0,2023-10-23,2023-10-23,ジュビア株式会社,,株式会社,東京都,墨田区,亀沢４丁目８番８号,,13,107,1300014,,,,,,,2023-10-23,1,,,,,ジュビア,0
2018,8010601064014,新規,0,2023-10-23,2023-10-23,株式会社ＣＯＭＰＬＥＸ,,株式会社,東京都,江東区,北砂５丁目２０番４号４１１号室,,13,108,1360073,,,,,,,2023-10-23,1,,,,,コンプレックス,0
2019,8010601064022,新規,0,2023-10-23,2023-10-23,株式会社ＣＳＨ,,株式会社,東京都,江東区,東砂７丁目５番２２－４０８号,,13,108,1360074,,,,,,,2023-10-23,1,,,,,シーエスエイチ,0
2020,8010603010420,新規,0,2023-10-23,2023-10-23,合同会社０,,合同会社,東京都,墨田区,石原４丁目３２番１６‐３０８号シャリエ錦糸町,,13,107,1300011,,,,,,,2023-10-23,1,,,,,ゼロ,0
2027,8010705003553,新規,0,2023-10-23,2023-10-23,アクセル経営社会保険労務士法人,,その他の設立登記法人,東京都,品川区,東五反田４丁目９番２号,,13,109,1410022,,,,,,,2023-10-23,1,,,,,アクセルケイエイ,0
2031,8010903008536,新規,0,2023-10-23,2023-10-23,合同会社Ｃｏｎｎｅｃｔ,,合同会社,東京都,世田谷区,砧１丁目１９番１０号,,13,112,1570073,,,,,,,2023-10-23,1,,,,,コネクト,0
2035,8011001157688,新規,0,2023-10-23,2023-10-23,株式会社ディビュース,,株式会社,東京都,渋谷区,神宮前４丁目７番１号,,13,113,1500001,,,,,,,2023-10-23,1,,,,,ディビュース,0
2036,8011001157705,新規,0,2023-10-23,2023-10-23,Ｇｉｖｅｒｓ株式会社,,株式会社,東京都,渋谷区,道玄坂１丁目１０番８号渋谷道玄坂東急ビル２Ｆ－Ｃ,,13,113,1500043,,,,,,,2023-10-23,1,,,,,ギバーズ,0
2037,8011001157770,新規,0,2023-10-23,2023-10-23,株式会社ＡＹＴＥＣＨ,,株式会社,東京都,目黒区,下目黒１丁目１番１４号コノトラビル７Ｆ,,13,110,1530064,,,,,,,2023-10-23,1,,,,,エーワイテック,0
2038,8011001157787,新規,0,2023-10-23,2023-10-23,Ｅｎｇａｗａ　Ｏｒｇａｎｉｃｓ株式会社,,株式会社,東京都,渋谷区,渋谷２丁目１０番７号３階,,13,113,1500002,,,,,,,2023-10-23,1,,,,,エンガワオーガニクス,0
2044,8011101104879,新規,0,2023-10-23,2023-10-23,ＫＯＭＡＣＨＩ株式会社,,株式会社,東京都,新宿区,百人町２丁目７番９－６０３号,,13,104,1690073,,,,,,,2023-10-23,1,,,,,コマチ,0
2045,8011103013640,新規,0,2023-10-23,2023-10-23,合同会社ジェイ・イー・キュー,,合同会社,東京都,新宿区,下宮比町１番４号,,13,104,1620822,,,,,,,2023-10-23,1,,,,,ジェイイーキュー,0
2046,8011103013649,新規,0,2023-10-23,2023-10-23,合同会社ＷＯＲＲＹ,,合同会社,東京都,新宿区,西新宿３丁目３－１３西新宿水間ビル６階,,13,104,1600023,,,,,,,2023-10-23,1,,,,,ウォーリー,0
2048,8011401025552,新規,0,2023-10-23,2023-10-23,株式会社３Ｒ,,株式会社,東京都,板橋区,宮本町２２－５,,13,119,1740054,,,,,,,2023-10-23,1,,,,,スリーアール,0
2049,8011601027217,新規,0,2023-10-23,2023-10-23,株式会社千葉エンジニアリング,,株式会社,東京都,練馬区,土支田２丁目４－７,,13,120,1790076,,,,,,,2023-10-23,1,,,,,チバエンジニアリング,0
2052,8011701026688,新規,0,2023-10-23,2023-10-23,株式会社近藤電気,,株式会社,東京都,江戸川区,春江町３丁目１３番７号,,13,123,1320003,,,,,,,2023-10-23,1,,,,,コンドウデンキ,0
2053,8011801043170,新規,0,2023-10-23,2023-10-23,ＹＯＩＮＩ株式会社,,株式会社,東京都,足立区,入谷２丁目４番２号,,13,121,1210836,,,,,,,2023-10-23,1,,,,,ヨイニ,0
2054,8011801043204,新規,0,2023-10-23,2023-10-23,株式会社渡辺地所,,株式会社,東京都,足立区,千住橋戸町１０番地,,13,121,1200038,,,,,,,2023-10-23,1,,,,,ワタナベジショ,0
2055,8011801043212,新規,0,2023-10-23,2023-10-23,株式会社ＳＴＲＡＩＧＨＴ,,株式会社,東京都,足立区,皿沼３丁目７番６号Ｂ１０１,,13,121,1230862,,,,,,,2023-10-23,1,,,,,ストレート,0
2056,8011803005895,新規,0,2023-10-23,2023-10-23,合同会社チル,,合同会社,東京都,足立区,東和１丁目３１番９号ノヴェルコート２０２号,,13,121,1200003,,,,,,,2023-10-23,1,,,,,チル,0
2060,8013301051521,新規,0,2023-10-23,2023-10-23,株式会社ＳＡＡ　ｂｅａｕｔｙ,,株式会社,東京都,豊島区,南池袋１丁目２１番５号第７野萩ビルＢ１Ｆ,,13,116,1710022,,,,,,,2023-10-23,1,,,,,サービューティー,0
2061,8013305003535,新規,0,2023-10-23,2023-10-23,一般社団法人パナソニックホームズ全国被害者連絡会,,その他の設立登記法人,東京都,豊島区,南大塚１丁目１４番１１号,,13,116,1700005,,,,,,,2023-10-23,1,,,,,パナソニックホームズゼンコクヒガイシャレンラクカイ,0
2067,8020001154050,新規,0,2023-10-23,2023-10-23,株式会社ＤＯＩＮＯ,,株式会社,神奈川県,川崎市多摩区,登戸１９１９番地エムアンドアールビル３階,,14,135,2140014,,,,,,,2023-10-23,1,,,,,ドイノ,0
2068,8020001154075,新規,0,2023-10-23,2023-10-23,株式会社フリック,,株式会社,神奈川県,川崎市宮前区,土橋２丁目２番地２,,14,136,2160005,,,,,,,2023-10-23,1,,,,,フリック,0
2069,8020001154083,新規,0,2023-10-23,2023-10-23,株式会社Ａｒｋ　ｅｍｏｔｉｏｎ,,株式会社,神奈川県,横浜市戸塚区,上倉田町１７５０番地３,,14,110,2440816,,,,,,,2023-10-23,1,,,,,アークエモーション,0
2070,8020001154117,新規,0,2023-10-23,2023-10-23,フィルムテック株式会社,,株式会社,神奈川県,横浜市港北区,佐江戸町２９０－１,,14,109,2220000,,,,,,,2023-10-23,1,,,,,フィルムテック,0
2074,8020003024813,新規,0,2023-10-23,2023-10-23,合同会社嘉乃園,,合同会社,神奈川県,川崎市多摩区,生田３丁目７番３７号,,14,135,2140038,,,,,,,2023-10-23,1,,,,,ヨシノエン,0
2086,8030001156640,新規,0,2023-10-23,2023-10-23,株式会社太翔,,株式会社,埼玉県,川口市,朝日６丁目２３番７号サンハイムアサヒ３０５号,,11,203,3320001,,,,,,,2023-10-23,1,,,,,タイショウ,0
2087,8030001156715,新規,0,2023-10-23,2023-10-23,株式会社豪,,株式会社,埼玉県,八潮市,大字大瀬１３７６番地１,,11,234,3400822,,,,,,,2023-10-23,1,,,,,ゴウ,0
2088,8030001156806,新規,0,2023-10-23,2023-10-23,株式会社Ｙ・Ｇ,,株式会社,埼玉県,羽生市,南５丁目２番地５０,,11,216,3480053,,,,,,,2023-10-23,1,,,,,ワイジー,0
2089,8030001156814,新規,0,2023-10-23,2023-10-23,ＴＫＬＩＮＥ株式会社,,株式会社,埼玉県,草加市,谷塚２丁目４－１２レクセルプラザ谷塚１０９号室,,11,221,3400028,,,,,,,2023-10-23,1,,,,,テイケイライン,0
2095,8030002114977,新規,0,2023-10-23,2023-10-23,有限会社リンコーポレーション,,有限会社,埼玉県,熊谷市,石原１０２３番地５,,11,202,3600816,,,,,,,2023-10-23,1,,,,,リンコーポレーション,0
2096,8030003022700,新規,0,2023-10-23,2023-10-23,合同会社ユースフル,,合同会社,埼玉県,所沢市,大字上山口１８４２番１０号,,11,208,3591153,,,,,,,2023-10-23,1,,,,,ユースフル,0
2097,8030003022849,新規,0,2023-10-23,2023-10-23,合同会社ＥＭＩＬＩＭＥ,,合同会社,埼玉県,新座市,東北２丁目３９－１０ドゥーセット弐番館６Ｆ,,11,230,3520001,,,,,,,2023-10-23,1,,,,,エミライム,0
2098,8030003022857,新規,0,2023-10-23,2023-10-23,合同会社フォルトゥナ,,合同会社,埼玉県,さいたま市浦和区,領家７丁目４番１８号,,11,107,3300072,,,,,,,2023-10-23,1,,,,,フォルトゥナ,0
2099,8030005021436,新規,0,2023-10-23,2023-10-23,一般社団法人ウェルビーイング政策研究所,,その他の設立登記法人,埼玉県,秩父郡横瀬町,大字横瀬２１４２番地４フィオーレＩ１０３号室,00132363,11,361,3680072,,,,,,,2023-10-23,1,,,,,ウェルビーイングセイサクケンキュウジョ,0
2111,8040003023581,新規,0,2023-10-23,2023-10-23,３Ｍ　ＳＴＡＲ合同会社,,合同会社,千葉県,四街道市,物井１７９２－７３第八成和ハイツ２階８２３号室,,12,228,2840012,,,,,,,2023-10-23,1,,,,,スリーエムスター,0
2112,8040003023598,新規,0,2023-10-23,2023-10-23,ＮＯＯＲロジスティクスジャパン合同会社,,合同会社,千葉県,千葉市花見川区,犢橋町７２番地,,12,102,2620013,,,,,,,2023-10-23,1,,,,,ノルロジスティクスジャパン,0
2119,8060001036468,新規,0,2023-10-23,2023-10-23,ＬｉＬｉリース株式会社,,株式会社,栃木県,宇都宮市,鶴田町１３８３番地６,,09,201,3200851,,,,,,,2023-10-23,1,,,,,リリリース,0
2122,8070001040989,新規,0,2023-10-23,2023-10-23,株式会社ｕｌｕ,,株式会社,群馬県,邑楽郡大泉町,坂田４丁目１９番１８号セルバＢ棟２０１号,,10,524,3700532,,,,,,,2023-10-23,1,,,,,ウル,0
2124,8080001025931,新規,0,2023-10-23,2023-10-23,株式会社お山のたいしょう,,株式会社,静岡県,静岡市駿河区,谷田４３番１１－１０３号,,22,102,4228002,,,,,,,2023-10-23,1,,,,,オヤマノタイショウ,0
2125,8080101024288,新規,0,2023-10-23,2023-10-23,株式会社ＴＯＢＩ,,株式会社,静岡県,熱海市,咲見町６－３６野中山マンション２－１０２,,22,205,4130019,,,,,,,2023-10-23,1,,,,,トビ,0
2127,8090001018389,新規,0,2023-10-23,2023-10-23,株式会社ＳＨＯＯ,,株式会社,山梨県,甲府市,善光寺３丁目２７番１６号シャーメゾンＳ、Ａ１０２,,19,201,4000806,,,,,,,2023-10-23,1,,,,,シュウ,0
2129,8090003002408,新規,0,2023-10-23,2023-10-23,合同会社ＡＬＬ　ＨＡＰＰＹ,,合同会社,山梨県,山梨市,万力１１５０番地,,19,205,4050031,,,,,,,2023-10-23,1,,,,,オールハッピー,0
2133,8100001036901,新規,0,2023-10-23,2023-10-23,株式会社ｓｈｕｇｏｃｈｉＤｅｓｉｇｎＬａｂ,,株式会社,長野県,諏訪郡富士見町,境１０１６３番地４,,20,362,3990101,,,,,,,2023-10-23,1,,,,,シュウゴウチデザインラボ,0
2136,8100003007231,新規,0,2023-10-23,2023-10-23,合同会社Ｍトレード,,合同会社,長野県,長野市,上野３丁目１番地７,,20,201,3810085,,,,,,,2023-10-23,1,,,,,エムトレード,0
2144,8120001259005,新規,0,2023-10-23,2023-10-23,株式会社ｎｏｖｉｃｅ,,株式会社,大阪府,大阪市中央区,東心斎橋１丁目１８番２０号アソルティ心斎橋３階,,27,128,5420083,,,,,,,2023-10-23,1,,,,,ノービス,0
2145,8120001259145,新規,0,2023-10-23,2023-10-23,株式会社Ａｌｌ　Ｂｌｕｅ,,株式会社,大阪府,大阪市中央区,本町３丁目２番１５号小原３ビル２階,,27,128,5410053,,,,,,,2023-10-23,1,,,,,オールブルー,0
2146,8120001259178,新規,0,2023-10-23,2023-10-23,株式会社ＳＴＮ,,株式会社,大阪府,大阪市住之江区,新北島４丁目４番６３号,,27,125,5590024,,,,,,,2023-10-23,1,,,,,エスティエヌ,0
2147,8120001259244,新規,0,2023-10-23,2023-10-23,株式会社ＳＨＩＡＷ,,株式会社,大阪府,大阪市大正区,三軒家西１丁目９－６蝉時雨－大正Ｌ棟,,27,108,5510001,,,,,,,2023-10-23,1,,,,,シャウ,0
2150,8120101068421,新規,0,2023-10-23,2023-10-23,株式会社Ｇｏｏｄ,,株式会社,大阪府,堺市美原区,阿弥４５６番地１,,27,147,5870003,,,,,,,2023-10-23,1,,,,,グッド,0
2151,8120103005505,新規,0,2023-10-23,2023-10-23,合同会社ＩＴ＆Ｔ,,合同会社,大阪府,岸和田市,山直中町６９１－１,,27,202,5960102,,,,,,,2023-10-23,1,,,,,アイティーアンドティー,0
2154,8120903004887,新規,0,2023-10-23,2023-10-23,合同会社関戸興業,,合同会社,大阪府,豊中市,千成町３丁目４番３２号,,27,203,5610829,,,,,,,2023-10-23,1,,,,,セキドコウギョウ,0
2155,8122001003111,新規,0,2023-10-23,2023-10-23,株式会社繁美建設,,株式会社,大阪府,東大阪市,大蓮南２丁目５番１７号,,27,227,5770825,,,,,,,2023-10-23,1,,,,,シゲミケンセツ,0
2156,8122001037506,新規,0,2023-10-23,2023-10-23,ｓｐａｒｋｊｏｙ株式会社,,株式会社,大阪府,東大阪市,長栄寺２番１２号Ｔｓｕｎａｇａｒｕビル５Ｆ,,27,227,5770055,,,,,,,2023-10-23,1,,,,,スパークジョイ,0
2157,8122003002697,新規,0,2023-10-23,2023-10-23,合同会社Ｈ．Ｓ．Ｃ,,合同会社,大阪府,東大阪市,日下町１丁目１０番８号,,27,227,5798003,,,,,,,2023-10-23,1,,,,,エイチエスシー,0
2158,8122003002706,新規,0,2023-10-23,2023-10-23,合同会社ケイシーエス,,合同会社,大阪府,東大阪市,末広町１８番９号,,27,227,5798055,,,,,,,2023-10-23,1,,,,,ケイシーエス,0
2159,8130001075475,新規,0,2023-10-23,2023-10-23,意心株式会社,,株式会社,京都府,京都市左京区,吉田中阿達町２６番地１,,26,103,6068306,,,,,,,2023-10-23,1,,,,,イシン,0
2169,8140001132052,新規,0,2023-10-23,2023-10-23,株式会社Ｋ．Ｉ．Ｔ,,株式会社,兵庫県,西宮市,神楽町５番５号ラ・ベルジュ夙川２Ｆ,,28,204,6620977,,,,,,,2023-10-23,1,,,,,キット,0
2170,8140001132069,新規,0,2023-10-23,2023-10-23,株式会社西龍,,株式会社,兵庫県,西宮市,霞町１番６－１０３号,,28,204,6620052,,,,,,,2023-10-23,1,,,,,セイリュウ,0
2171,8140001132077,新規,0,2023-10-23,2023-10-23,株式会社真政,,株式会社,兵庫県,尼崎市,西立花町２丁目７番２２号,,28,202,6600054,,,,,,,2023-10-23,1,,,,,シンセイ,0
2172,8140001132093,新規,0,2023-10-23,2023-10-23,ｓｔａｒｔ株式会社,,株式会社,兵庫県,尼崎市,食満７丁目２番１８号,,28,202,6610982,,,,,,,2023-10-23,1,,,,,スタート,0
2175,8140003019702,新規,0,2023-10-23,2023-10-23,合同会社謙和工業,,合同会社,兵庫県,高砂市,米田町米田１００－３ホーユウコンフォルト宝殿４０２,,28,216,6760805,,,,,,,2023-10-23,1,,,,,ケンワコウギョウ,0
2176,8140003019710,新規,0,2023-10-23,2023-10-23,合同会社ＹＳプランニング,,合同会社,兵庫県,尼崎市,大庄北５丁目１３番１３号,,28,202,6600063,,,,,,,2023-10-23,1,,,,,ワイエスプランニング,0
2178,8170001017853,新規,0,2023-10-23,2023-10-23,株式会社寺院コーポレーション,,株式会社,和歌山県,和歌山市,湊御殿１丁目７番地４１,,30,201,6408286,,,,,,,2023-10-23,1,,,,,ジインコーポレーション,0
2182,8180001158556,新規,0,2023-10-23,2023-10-23,株式会社グリンテック,,株式会社,愛知県,名古屋市西区,名駅２丁目２３番１４号,,23,104,4510045,,,,,,,2023-10-23,1,,,,,グリンテック,0
2183,8180001158589,新規,0,2023-10-23,2023-10-23,ＢＰＯサービス株式会社,,株式会社,愛知県,名古屋市西区,名駅２丁目３４番１７号セントラル名古屋１１０１号,,23,104,4510045,,,,,,,2023-10-23,1,,,,,ビーピーオーサービス,0
2191,8180003025878,新規,0,2023-10-23,2023-10-23,ＡｌｐｈａＬａｕｒａ合同会社,,合同会社,愛知県,日進市,赤池５丁目１９０８番地サンマンションアトレ赤池５０２,,23,230,4700125,,,,,,,2023-10-23,1,,,,,アルファラウラ,0
2192,8180003025886,新規,0,2023-10-23,2023-10-23,合同会社デイズサポート,,合同会社,愛知県,春日井市,篠田町１１番地１,,23,206,4860922,,,,,,,2023-10-23,1,,,,,デイズサポート,0
2216,8200005013531,新規,0,2023-10-23,2023-10-23,一般社団法人プラス・ワン,,その他の設立登記法人,岐阜県,岐阜市,西鶉４丁目６番地,,21,201,5008286,,,,,,,2023-10-23,1,,,,,プラスワン,0
2228,8280001009055,新規,0,2023-10-23,2023-10-23,株式会社ゴーラム,,株式会社,島根県,松江市,浜乃木１丁目５番３２－４号,,32,201,6900044,,,,,,,2023-10-23,1,,,,,ゴーラム,0
2235,8290001103468,新規,0,2023-10-23,2023-10-23,ループロ設備株式会社,,株式会社,福岡県,うきは市,吉井町清瀬４２１番地２,,40,225,8391312,,,,,,,2023-10-23,1,,,,,ループロセツビ,0
2241,8310001018606,新規,0,2023-10-23,2023-10-23,株式会社玄陽,,株式会社,長崎県,壱岐市,郷ノ浦町長島６９０番地１,,42,210,8115162,,,,,,,2023-10-23,1,,,,,ゲンヨウ,0
2247,8330003010030,新規,0,2023-10-23,2023-10-23,合同会社Ｋ２,,合同会社,熊本県,熊本市南区,白藤２丁目２番１７号,,43,104,8614112,,,,,,,2023-10-23,1,,,,,ケーツー,0
2252,8340003004295,新規,0,2023-10-23,2023-10-23,合同会社レモン,,合同会社,鹿児島県,鹿児島市,樋之口町３番２１号ウエストパーク３０３号,00132357,46,201,8920845,,,,,,,2023-10-23,1,,,,,レモン,0
2253,8350001018627,新規,0,2023-10-23,2023-10-23,株式会社リスタート,,株式会社,宮崎県,宮崎市,大字島之内７１８５番地３森本ビル１－２,,45,201,8800121,,,,,,,2023-10-23,1,,,,,リスタート,0
2256,8360001032718,新規,0,2023-10-23,2023-10-23,株式会社ＧＫＳ　ＯＫＩＮＡＷＡ,,株式会社,沖縄県,糸満市,字糸満１１２番地１階,,47,210,9010361,,,,,,,2023-10-23,1,,,,,ジーケーエスオキナワ,0
2257,8360001032726,新規,0,2023-10-23,2023-10-23,ＵＭＵＩ株式会社,,株式会社,沖縄県,宜野湾市,伊佐２丁目１１番３号,,47,205,9012221,,,,,,,2023-10-23,1,,,,,ウムイ,0
2258,8360001032734,新規,0,2023-10-23,2023-10-23,株式会社おきなわアセットブリッジ,,株式会社,沖縄県,那覇市,西１丁目１９番７号,,47,201,9000036,,,,,,,2023-10-23,1,,,,,オキナワアセットブリッジ,0
2259,8360003013402,新規,0,2023-10-23,2023-10-23,合同会社ＦＥＲＮＡ,,合同会社,沖縄県,島尻郡南風原町,字山川２９２－７,,47,350,9011115,,,,,,,2023-10-23,1,,,,,フェルナ,0
2273,8430001090246,新規,0,2023-10-23,2023-10-23,株式会社ＲＥＶＩＶＡＬ,,株式会社,北海道,恵庭市,漁町２０８番地（マ・メゾンＩＩ１０２号）,00132355,01,231,0611414,,,,,,,2023-10-23,1,,,,,リバイバル,0
2282,8500001025260,新規,0,2023-10-23,2023-10-23,株式会社横内鶏肉店,,株式会社,愛媛県,四国中央市,三島宮川４丁目８番２８号,,38,213,7990404,,,,,,,2023-10-23,1,,,,,ヨコウチケイニクテン,0
2284,8700150121138,新規,0,2023-10-23,2023-10-10,中国・四国地区公立学校事務長協議会,,その他,岡山県,岡山市中区,浜４１２,,33,102,7038256,,,,,,,2023-10-10,1,,,,,チユウゴクシコクチクコウリツガツコウジムチヨウキヨウギカイ,0
2285,8700150121311,新規,0,2023-10-23,2023-10-23,Ｆｅｍｏｂｏｏｋ　Ｃｏ．，Ｌｔｄ,,外国会社等,,,,,,,,１２Ｆ．，Ｎｏ．９，Ａｌｙ．１１，Ｌｎ．２８１，Ｓｅｃ．３，Ｚｈｏｎｇｙａｎｇ　Ｒｄ．，Ｔｕｃｈｅｎｇ　Ｄｉｓｔ．，Ｎｅｗ　Ｔａｉｐｅｉ　Ｃｉｔｙ，Ｔａｉｗａｎ,,,,,,2023-10-23,1,,,,,チャンチュワンジーシエコージー,0
2294,9010005037383,新規,0,2023-10-23,2023-10-23,ラ・パルフェ・ド・フォワイエ管理組合法人,,その他の設立登記法人,東京都,中央区,京橋１丁目１番５号,,13,102,1040031,,,,,,,2023-10-23,1,,,,,ラパルフェドフォワイエ,0
2305,9010401177881,新規,0,2023-10-23,2023-10-23,ＳＯＧ株式会社,,株式会社,東京都,港区,南青山３丁目１番３６号青山丸竹ビル６Ｆ,,13,103,1070062,,,,,,,2023-10-23,1,,,,,ソグ,0
2306,9010401178013,新規,0,2023-10-23,2023-10-23,株式会社田村,,株式会社,東京都,港区,海岸３丁目１５番３号,,13,103,1080022,,,,,,,2023-10-23,1,,,,,タムラ,0
2311,9010503007193,新規,0,2023-10-23,2023-10-23,合同会社ＡＣＣＥＬ　ＴＲＡＤＩＮＧ,,合同会社,東京都,台東区,東上野１丁目２０－５サスガビル５０２,,13,106,1100015,,,,,,,2023-10-23,1,,,,,アクセルトレーディング,0
2315,9010601064013,新規,0,2023-10-23,2023-10-23,ＪＳＣ７７株式会社,,株式会社,東京都,江東区,亀戸１丁目２１番５号,,13,108,1360071,,,,,,,2023-10-23,1,,,,,ジェイエスシーセブンツー,0
2316,9010603010436,新規,0,2023-10-23,2023-10-23,合同会社ＤＤ　ｆｏｒ　ｄｅｓｉｇｎ,,合同会社,東京都,江東区,亀戸２丁目１７番１５号２Ａ,,13,108,1360071,,,,,,,2023-10-23,1,,,,,ディーディーフォーデザイン,0
2321,9010801034435,新規,0,2023-10-23,2023-10-23,株式会社アセマネ,,株式会社,東京都,大田区,南馬込１丁目２４－１６,,13,111,1430025,,,,,,,2023-10-23,1,,,,,アセマネ,0
2323,9010901054060,新規,0,2023-10-23,2023-10-23,ビルドアップ株式会社,,株式会社,東京都,世田谷区,新町２丁目２９番７号,,13,112,1540014,,,,,,,2023-10-23,1,,,,,ビルドアップ,0
2327,9011001157621,新規,0,2023-10-23,2023-10-23,株式会社ＥＵＪ,,株式会社,東京都,渋谷区,渋谷３丁目１０番１号,,13,113,1500002,,,,,,,2023-10-23,1,,,,,イーユージェイ,0
2328,9011001157679,新規,0,2023-10-23,2023-10-23,キウイ株式会社,,株式会社,東京都,渋谷区,渋谷４丁目３番２７－４０６号,,13,113,1500002,,,,,,,2023-10-23,1,,,,,キウイ,0
2329,9011001157712,新規,0,2023-10-23,2023-10-23,株式会社Ｆ,,株式会社,東京都,渋谷区,渋谷２丁目１９番１５号宮益坂ビルディング６０９,,13,113,1500002,,,,,,,2023-10-23,1,,,,,エフ,0
2330,9011001157778,新規,0,2023-10-23,2023-10-23,株式会社東京アリ企画,,株式会社,東京都,渋谷区,西原３丁目４番２号紅谷ビル２０４,,13,113,1510066,,,,,,,2023-10-23,1,,,,,トウキョウアリキカク,0
2334,9011003017757,新規,0,2023-10-23,2023-10-23,ＬＡＺＵＬＩＮＫ合同会社,,合同会社,東京都,目黒区,自由が丘２丁目１６番１２号ＲＪ３,,13,110,1520035,,,,,,,2023-10-23,1,,,,,ラズリンク,0
2335,9011003017773,新規,0,2023-10-23,2023-10-23,合同会社ＴＵＺＵＲＵ,,合同会社,東京都,渋谷区,渋谷２丁目１９－１５宮益坂ビルディング６０９,,13,113,1500002,,,,,,,2023-10-23,1,,,,,ツヅル,0
2344,9011301029108,新規,0,2023-10-23,2023-10-23,株式会社来音,,株式会社,東京都,杉並区,堀ノ内２丁目３４番５‐３０２号,,13,115,1660013,,,,,,,2023-10-23,1,,,,,ライオン,0
2348,9011401025543,新規,0,2023-10-23,2023-10-23,日本新枝人材資源株式会社,,株式会社,東京都,板橋区,赤塚３丁目２３番７号,,13,119,1750092,,,,,,,2023-10-23,1,,,,,ニホンシンチェジンザイシゲン,0
2349,9011401025551,新規,0,2023-10-23,2023-10-23,株式会社ＭＩＮＥ,,株式会社,東京都,板橋区,大谷口２丁目３３番１７号,,13,119,1730035,,,,,,,2023-10-23,1,,,,,ミネ,0
2357,9011801043211,新規,0,2023-10-23,2023-10-23,株式会社３ｌｉｎｅｓ,,株式会社,東京都,葛飾区,亀有２丁目６８番１１号,,13,122,1250061,,,,,,,2023-10-23,1,,,,,スリーラインズ,0
2358,9012801022725,新規,0,2023-10-23,2023-10-23,株式会社ＳＯＣＫＳＣＡＴ,,株式会社,東京都,日野市,旭が丘２丁目３２番２７号,,13,212,1910065,,,,,,,2023-10-23,1,,,,,ソックスキャスト,0
2360,9012805003234,新規,0,2023-10-23,2023-10-23,一般社団法人日本ウェルネスプロフェッショナル協会,,その他の設立登記法人,東京都,日野市,神明３丁目６－１８神明岡部マンションＡ１０５号室,,13,212,1910016,,,,,,,2023-10-23,1,,,,,ニホンウェルネスプロフェッショナルキョウカイ,0
2361,9013101009272,新規,0,2023-10-23,2023-10-23,株式会社ＩＴＯＮｍａｎａｇｅｍｅｎｔ,,株式会社,東京都,あきる野市,野辺４７７番地５,,13,228,1970823,,,,,,,2023-10-23,1,,,,,,0
2362,9013301051520,新規,0,2023-10-23,2023-10-23,ＭＥＬＩＵＳ　ＣＲＥＡＴＩＯＮ株式会社,,株式会社,東京都,豊島区,上池袋１丁目１１番４号,,13,116,1700012,,,,,,,2023-10-23,1,,,,,メリウスクリエーション,0
2364,9013305003534,新規,0,2023-10-23,2023-10-23,一般社団法人日本ティースジュエリー協会,,その他の設立登記法人,東京都,豊島区,目白３丁目１３番５号,,13,116,1710031,,,,,,,2023-10-23,1,,,,,ニホンティースジュエリーキョウカイ,0
2371,9020001154017,新規,0,2023-10-23,2023-10-23,株式会社ＴＡＧ企画,,株式会社,神奈川県,横浜市旭区,川島町２８９３－４クリオ西谷６番館３０１,,14,112,2410011,,,,,,,2023-10-23,1,,,,,タグキカク,0
2372,9020001154066,新規,0,2023-10-23,2023-10-23,株式会社飛矢,,株式会社,神奈川県,横浜市港南区,日野南６丁目１５－９,,14,111,2340055,,,,,,,2023-10-23,1,,,,,ヒヤ,0
2373,9020001154099,新規,0,2023-10-23,2023-10-23,株式会社クラシデザイン,,株式会社,神奈川県,横浜市中区,相生町５丁目８０相生ビル４０１号,,14,104,2310012,,,,,,,2023-10-23,1,,,,,クラシデザイン,0
2376,9020003024804,新規,0,2023-10-23,2023-10-23,合同会社せやそふと,,合同会社,神奈川県,横浜市瀬谷区,阿久和西１丁目７番地３グレイス詩香４０１,,14,114,2460025,,,,,,,2023-10-23,1,,,,,セヤソフト,0
2377,9020003024820,新規,0,2023-10-23,2023-10-23,合同会社唐棣会,,合同会社,神奈川県,川崎市高津区,二子１丁目１６番３７号－１０１号,,14,134,2130002,,,,,,,2023-10-23,1,,,,,トウテイカイ,0
2393,9030001156747,新規,0,2023-10-23,2023-10-23,株式会社ＫＡＮＡＵ‐ＬＡＢ,,株式会社,埼玉県,戸田市,下戸田２丁目１３番２号,,11,224,3350011,,,,,,,2023-10-23,1,,,,,カナウラボ,0
2394,9030001156763,新規,0,2023-10-23,2023-10-23,株式会社Ａｕｒｉｅ,,株式会社,埼玉県,さいたま市大宮区,桜木町２丁目３大宮マルイ７階,,11,103,3300854,,,,,,,2023-10-23,1,,,,,オウリエ,0
2395,9030001156771,新規,0,2023-10-23,2023-10-23,株式会社佐藤企画,,株式会社,埼玉県,川越市,大字久下戸３０７２番地４,,11,201,3500011,,,,,,,2023-10-23,1,,,,,サトウキカク,0
2396,9030001156796,新規,0,2023-10-23,2023-10-23,株式会社真勝,,株式会社,埼玉県,越谷市,宮本町５丁目２５５番地１１,,11,222,3430806,,,,,,,2023-10-23,1,,,,,シンショウ,0
2397,9030001156813,新規,0,2023-10-23,2023-10-23,株式会社関東工務店,,株式会社,埼玉県,越谷市,南越谷３丁目２２番５４号南越谷レジデンス２０６,,11,222,3430845,,,,,,,2023-10-23,1,,,,,カントウコウムテン,0
2405,9030003022815,新規,0,2023-10-23,2023-10-23,ＺＳ　ＴＲＡＤＩＮＧ合同会社,,合同会社,埼玉県,北葛飾郡杉戸町,大字宮前３９５番地１メゾン竹山２－１０１,,11,464,3450004,,,,,,,2023-10-23,1,,,,,ゼッドエストレーディング,0
2406,9030003022831,新規,0,2023-10-23,2023-10-23,合同会社りぼん,,合同会社,埼玉県,さいたま市南区,白幡３丁目１１番２０号,,11,108,3360022,,,,,,,2023-10-23,1,,,,,リボン,0
2409,9030005021435,新規,0,2023-10-23,2023-10-23,医療法人社団添陽会,,その他の設立登記法人,埼玉県,深谷市,岡２丁目１４番地２０,,11,218,3690201,,,,,,,2023-10-23,1,,,,,テンヨウカイ,0
2410,9030005021443,新規,0,2023-10-23,2023-10-23,医療法人こぐち内科呼吸器クリニック,,その他の設立登記法人,埼玉県,上尾市,壱丁目東３７番地１０,,11,219,3620082,,,,,,,2023-10-23,1,,,,,コグチナイカコキュウキクリニック,0
2416,9040001130602,新規,0,2023-10-23,2023-10-23,株式会社Ａｌｌ　ＴｏＰ,,株式会社,千葉県,松戸市,秋山２丁目１８番地の１０,,12,207,2702223,,,,,,,2023-10-23,1,,,,,オールトップ,0
2419,9040003023589,新規,0,2023-10-23,2023-10-23,合同会社Ｄ．Ｉ．Ａ,,合同会社,千葉県,君津市,南子安８丁目１番１７号１０７,,12,225,2991162,,,,,,,2023-10-23,1,,,,,ディアイエー,0
2421,9050001053678,新規,0,2023-10-23,2023-10-23,株式会社ＣａｒＡｃｔ２２１,,株式会社,茨城県,土浦市,田中町２２２５番地,,08,203,3000049,,,,,,,2023-10-23,1,,,,,カーアクトツツイ,0
2422,9050001053694,新規,0,2023-10-23,2023-10-23,株式会社Ｂ‐ＲＥＸ,,株式会社,茨城県,牛久市,栄町３丁目６４番地,,08,219,3001233,,,,,,,2023-10-23,1,,,,,ビーレックス,0
2423,9050003007806,新規,0,2023-10-23,2023-10-23,合同会社ａｎｄ　ｍｏｒｅ,,合同会社,茨城県,水戸市,平須町１６５９番地の１２,,08,201,3100853,,,,,,,2023-10-23,1,,,,,アンドモア,0
2425,9060001036467,新規,0,2023-10-23,2023-10-23,株式会社山田建設,,株式会社,栃木県,足利市,福居町４３０番地６,,09,202,3260338,,,,,,,2023-10-23,1,,,,,ヤマダケンセツ,0
2431,9070001040996,新規,0,2023-10-23,2023-10-23,株式会社ＡＩＫ,,株式会社,群馬県,伊勢崎市,三和町１４５８番地３,,10,204,3720011,,,,,,,2023-10-23,1,,,,,エイアイケイ,0
2432,9070001041004,新規,0,2023-10-23,2023-10-23,株式会社Ｗｏｒｋｏｕｔ,,株式会社,群馬県,前橋市,上泉町６５８番地２,,10,201,3710007,,,,,,,2023-10-23,1,,,,,ワークアウト,0
2433,9070003005139,新規,0,2023-10-23,2023-10-23,合同会社Ｐａｄｄｙ　ｆｉｅｌｄ,,合同会社,群馬県,高崎市,双葉町４番１２号ロイヤルマンション４０１号,,10,202,3700843,,,,,,,2023-10-23,1,,,,,パディフィールド,0
2440,9080103002910,新規,0,2023-10-23,2023-10-23,おりょん合同会社,,合同会社,静岡県,沼津市,新宿町１９－６メゾン新宿町３０１,,22,203,4100048,,,,,,,2023-10-23,1,,,,,オリョン,0
2442,9100001036891,新規,0,2023-10-23,2023-10-23,金井溶接株式会社,,株式会社,長野県,東御市,鞍掛２５番地２２号,,20,219,3890502,,,,,,,2023-10-23,1,,,,,カナイヨウセツ,0
2459,9120001258939,新規,0,2023-10-23,2023-10-23,惠豊株式会社,,株式会社,大阪府,大阪市生野区,巽北１丁目１番１号２Ｆ－Ａ,00132358,27,116,5440004,,,,,,,2023-10-23,1,,,,,ケイホウ,0
2460,9120001259020,新規,0,2023-10-23,2023-10-23,株式会社ジェースタンダードロジスティクス,,株式会社,大阪府,大阪市東住吉区,矢田１丁目２６番７号ＵＩＩＴビル矢田４０２号室,,27,121,5460023,,,,,,,2023-10-23,1,,,,,ジェースタンダードロジスティクス,0
2461,9120001259029,新規,0,2023-10-23,2023-10-23,萬錦株式会社,,株式会社,大阪府,大阪市中央区,高津３丁目１５番１２－８０２号,,27,128,5420072,,,,,,,2023-10-23,1,,,,,マンキン,0
2462,9120001259045,新規,0,2023-10-23,2023-10-23,株式会社ＲＥＧＡＩＮ,,株式会社,大阪府,大阪市天王寺区,東高津町１１番７号上本町グランディムビル１００１号室,,27,109,5430021,,,,,,,2023-10-23,1,,,,,リゲイン,0
2463,9120001259094,新規,0,2023-10-23,2023-10-23,株式会社エムエイチファクトリー,,株式会社,大阪府,寝屋川市,香里西之町９番５４号,,27,215,5720089,,,,,,,2023-10-23,1,,,,,エムエイチファクトリー,0
2464,9120001259177,新規,0,2023-10-23,2023-10-23,株式会社アルファーテック,,株式会社,大阪府,大阪市住之江区,新北島４丁目４番６３号,,27,125,5590024,,,,,,,2023-10-23,1,,,,,アルファーテック,0
2467,9120003025164,新規,0,2023-10-23,2023-10-23,合同会社ささぐ,,合同会社,大阪府,守口市,佐太中町２丁目３４－７,,27,209,5700002,,,,,,,2023-10-23,1,,,,,ササグ,0
2474,9120903004886,新規,0,2023-10-23,2023-10-23,合同会社ＣＬＭ,,合同会社,大阪府,高槻市,栄町１丁目３番１－６０１号,,27,207,5690825,,,,,,,2023-10-23,1,,,,,シーエルエム,0
2476,9122001037496,新規,0,2023-10-23,2023-10-23,株式会社ＯｆｆｉｃｅＲＳＴ,,株式会社,大阪府,八尾市,永畑町３丁目１番４０－１３０３号,,27,212,5810083,,,,,,,2023-10-23,1,,,,,オフィスアールエスティー,0
2477,9122001037505,新規,0,2023-10-23,2023-10-23,株式会社ＭｉｒａＸ,,株式会社,大阪府,八尾市,太田新町３丁目１３３番地,,27,212,5810039,,,,,,,2023-10-23,1,,,,,ミラクス,0
2479,9130001075482,新規,0,2023-10-23,2023-10-23,株式会社ＳＫＳジェムジャパン,,株式会社,京都府,京都市右京区,嵯峨野芝野町１０番地の２７,,26,108,6168322,,,,,,,2023-10-23,1,,,,,エスケーエスジェムジャパン,0
2480,9130001075532,新規,0,2023-10-23,2023-10-23,石田・松本パートナーズ会計株式会社,,株式会社,京都府,京都市伏見区,竹田段川原町２３９エミネンス善２０１,,26,109,6128414,,,,,,,2023-10-23,1,,,,,イシダマツモトパートナーズカイケイ,0
2488,9140001132043,新規,0,2023-10-23,2023-10-23,株式会社ｍｉｒｏｋｕ,,株式会社,兵庫県,神戸市垂水区,星陵台５丁目３番３－１０３号,,28,108,6550038,,,,,,,2023-10-23,1,,,,,ミロク,0
2489,9140001132051,新規,0,2023-10-23,2023-10-23,株式会社ｓｏｌｉｄ　ｗｏｏｄ,,株式会社,兵庫県,加東市,野村４２０番地１,,28,228,6731454,,,,,,,2023-10-23,1,,,,,ソリッドウッド,0
2490,9140001132068,新規,0,2023-10-23,2023-10-23,株式会社ネクステージ永井,,株式会社,兵庫県,西宮市,豊楽町１５番６－１０３号,,28,204,6620072,,,,,,,2023-10-23,1,,,,,ネクステージナガイ,0
2491,9140001132076,新規,0,2023-10-23,2023-10-23,株式会社ラッキープロデュース,,株式会社,兵庫県,美方郡香美町,香住区七日市１７９－１０,,28,585,6696546,,,,,,,2023-10-23,1,,,,,ラッキープロデュース,0
2492,9140001132092,新規,0,2023-10-23,2023-10-23,株式会社岸本設備,,株式会社,兵庫県,西宮市,山口町上山口４丁目９番８号,,28,204,6511421,,,,,,,2023-10-23,1,,,,,キシモトセツビ,0
2494,9140003019701,新規,0,2023-10-23,2023-10-23,合同会社グラン・ブルー,,合同会社,兵庫県,神戸市西区,岩岡町古郷２２４４－１２,,28,111,6512404,,,,,,,2023-10-23,1,,,,,グランブルー,0
2495,9140003019718,新規,0,2023-10-23,2023-10-23,合同会社ＫＹＯＹＵコラボレーション,,合同会社,兵庫県,宝塚市,ふじガ丘８番１３号,,28,214,6650806,,,,,,,2023-10-23,1,,,,,キョウユウコラボレーション,0
2497,9150003003101,新規,0,2023-10-23,2023-10-23,合同会社向,,合同会社,奈良県,宇陀市,室生深野９６９番地,,29,212,6320203,,,,,,,2023-10-23,1,,,,,ムカイ,0
2500,9170003001937,新規,0,2023-10-23,2023-10-23,合同会社あさつき,,合同会社,和歌山県,和歌山市,園部１５２番地１１,,30,201,6408483,,,,,,,2023-10-23,1,,,,,アサツキ,0
2505,9180001158571,新規,0,2023-10-23,2023-10-23,株式会社高砂部屋．Ｆａｎ,00132351,株式会社,愛知県,あま市,篠田稲荷１２３番地１,,23,237,4901211,,,,,,,2023-10-23,1,,,,,タカサゴベヤドットファン,0
2506,9180001158613,新規,0,2023-10-23,2023-10-23,ランドリープロ株式会社,,株式会社,愛知県,名古屋市西区,那古野２丁目１６番１１号,00132356,23,104,4510042,,,,,,,2023-10-23,1,,,,,ランドリープロ,0
2507,9180001158638,新規,0,2023-10-23,2023-10-23,株式会社Ｅｌｅｖａｔｅ,,株式会社,愛知県,名古屋市南区,鶴里町２丁目１５－５,,23,112,4570021,,,,,,,2023-10-23,1,,,,,エレベート,0
2513,9180003025902,新規,0,2023-10-23,2023-10-23,合同会社ｍｏｍａ,,合同会社,愛知県,名古屋市千種区,末盛通４丁目２６－１アークハウス７Ｂ,,23,101,4640821,,,,,,,2023-10-23,1,,,,,モマ,0
2515,9190001030812,新規,0,2023-10-23,2023-10-23,株式会社ＴＲＤＫ,,株式会社,三重県,伊勢市,竹ケ鼻町１４４番地１０,,24,203,5160005,,,,,,,2023-10-23,1,,,,,ティーアールディーケー,0
2516,9190001030829,新規,0,2023-10-23,2023-10-23,株式会社アールオープランニング,,株式会社,三重県,四日市市,垂坂町１１８８番地,,24,202,5108037,,,,,,,2023-10-23,1,,,,,アールオープランニング,0
2524,9210001019522,新規,0,2023-10-23,2023-10-23,株式会社ｐ．ｐ．ｍ,,株式会社,福井県,福井市,成和１丁目３１０６番地,,18,201,9188239,,,,,,,2023-10-23,1,,,,,ピーピーエム,0
2526,9240001062288,新規,0,2023-10-23,2023-10-23,まる株式会社,,株式会社,広島県,尾道市,新浜１丁目１２番２０号,,34,205,7220014,,,,,,,2023-10-23,1,,,,,マル,0
2531,9250003003371,新規,0,2023-10-23,2023-10-23,合同会社アドクエクト,,合同会社,山口県,美祢市,伊佐町伊佐４８番地,,35,213,7592222,,,,,,,2023-10-23,1,,,,,アドクエクト,0
2533,9260001038410,新規,0,2023-10-23,2023-10-23,株式会社Ｓ・Ｇ・Ｒ,,株式会社,岡山県,岡山市北区,菅野３４３８番地,,33,101,7011141,,,,,,,2023-10-23,1,,,,,エスジーアール,0
2543,9290001103483,新規,0,2023-10-23,2023-10-23,株式会社九州エース,,株式会社,福岡県,福岡市博多区,竹下５丁目２番３６－１０２号博多駅南ザ・ジェネシス,,40,132,8120895,,,,,,,2023-10-23,1,,,,,キュウシュウエース,0
2544,9290001103491,新規,0,2023-10-23,2023-10-23,株式会社ｓｅｉｋｏｅｎ,,株式会社,福岡県,久留米市,三潴町西牟田４５４０番地４,,40,203,8300111,,,,,,,2023-10-23,1,,,,,セイコウエン,0
2550,9320001020097,新規,0,2023-10-23,2023-10-23,株式会社ＯＲＩＮＡＳ,,株式会社,大分県,別府市,石垣東９丁目４番５号,,44,202,8740919,,,,,,,2023-10-23,1,,,,,オリナス,0
2552,9330001031374,新規,0,2023-10-23,2023-10-23,九州ふくしコンサルティング株式会社,,株式会社,熊本県,熊本市東区,若葉３丁目１２番２７号,,43,102,8620903,,,,,,,2023-10-23,1,,,,,キュウシュウフクシコンサルティング,0
2555,9350001018626,新規,0,2023-10-23,2023-10-23,株式会社Ｇｏｏｄ　Ｓｙｎｅｒｇｙ,,株式会社,宮崎県,宮崎市,橘通東３丁目１－１１,,45,201,8800805,,,,,,,2023-10-23,1,,,,,グッドシナジー,0
2557,9350005006189,新規,0,2023-10-23,2023-10-23,特定非営利活動法人はじまる,,その他の設立登記法人,宮崎県,東臼杵郡椎葉村,大字松尾１４０５番地１,,45,430,8831604,,,,,,,2023-10-23,1,,,,,ハジマル,0
2561,9360001032733,新規,0,2023-10-23,2023-10-23,株式会社おきなわツナガルミライ,,株式会社,沖縄県,那覇市,西１丁目１９番７号,,47,201,9000036,,,,,,,2023-10-23,1,,,,,オキナワツナガルミライ,0
2568,9420003002819,新規,0,2023-10-23,2023-10-23,合同会社トキあっぷる社,,合同会社,青森県,五所川原市,大字神山字牧原１５番地１,,02,205,0370611,,,,,,,2023-10-23,1,,,,,トキアップルシャ,0
2570,9430001090237,新規,0,2023-10-23,2023-10-23,プローズライフ株式会社,,株式会社,北海道,札幌市西区,福井７丁目８番２８号,,01,107,0630012,,,,,,,2023-10-23,1,,,,,プローズライフ,0
2571,9430001090245,新規,0,2023-10-23,2023-10-23,グッドモーニング株式会社,,株式会社,北海道,札幌市南区,南沢三条４丁目２番２３号コーポ麻田Ａ－３号,,01,106,0050823,,,,,,,2023-10-23,1,,,,,グッドモーニング,0
2579,9490003001830,新規,0,2023-10-23,2023-10-23,オウチキレイラボ合同会社,,合同会社,高知県,香南市,野市町東野２３０６番地８,,39,211,7815213,,,,,,,2023-10-23,1,,,,,オウチキレイラボ,0
2581,9700150115493,新規,0,2023-10-23,2023-09-06,乙部町魚つきの森づくり協議会,,その他,北海道,爾志郡乙部町,字栄浜２２７,,01,364,0430113,,,,,,,2023-09-06,1,,,,,オトベチヨウウオツキノモリヅクリキヨウギカイ,0
2582,9700150121310,新規,0,2023-10-23,2023-10-23,ｓｈｅｎｚｈｅｎｓｈｉｙｉｓｉｔｅｍａｏｙｉｙｏｕｘｉａｎｇｏｎｇｓｉ,,外国会社等,,,,,,,,ｆｕｔｉａｎｑｕｍｅｉｌｉｎｊｉｅｄａｏｍｅｉｆｅｎｇｓｈｅｑｕｍｅｉｈｕａｌｕ１５９ｈａｏ　ｚｈｅｎｘｉｎｇｄａｓｈａ１ｄｏｎｇ６ｃｅｎｇ５０２　ｓｈｅｎｚｈｅｎｓｈｉ　ｇｕａｎｇｄｏｎｇ　５１８０００　ＣＮ,,,,,,2023-10-23,1,,,,,シェンジェンシーイースーターマオイーヨウシエンゴンスー,0
