sequenceNumber,corporateNumber,process,correct,updateDate,changeDate,name,nameImageId,kind,prefectureName,cityName,streetNumber,addressImageId,prefectureCode,cityCode,postCode,addressOutside,addressOutsideImageId,closeDate,closeCause,successorCorporateNumber,changeCause,assignmentDate,latest,enName,enPrefectureName,enCityName,enAddressOutside,furigana,hihyoji
7,1010001231138,新規,0,2022-11-28,2022-11-28,株式会社プチリアン,,株式会社,東京都,中央区,築地１丁目４－１１,,13,102,1040045,,,,,,,2022-11-28,1,,,,,プチリアン,0
13,1010005035832,新規,0,2022-11-28,2022-11-28,一般社団法人櫻間會,,その他の設立登記法人,東京都,千代田区,富士見２丁目１４番３１号櫻間會舞台１階,,13,101,1020071,,,,,,,2022-11-28,1,,,,,サクラマカイ,0
19,1010401171009,新規,0,2022-11-28,2022-11-28,株式会社リーフスクエア,,株式会社,東京都,港区,新橋２丁目２０番１５号,,13,103,1050004,,,,,,,2022-11-28,1,,,,,リーフスクエア,0
20,1010401171033,新規,0,2022-11-28,2022-11-28,株式会社Ｔｏｋｉｏｓｔａ,,株式会社,東京都,港区,南青山１丁目３番６－６０５号,,13,103,1070062,,,,,,,2022-11-28,1,,,,,トキオスタ,0
25,1010403028982,新規,0,2022-11-28,2022-11-28,合同会社ＣＲＯＳＳ‐ＷＡＹ,,合同会社,東京都,港区,南青山３丁目１番３６号青山丸竹ビル６階,,13,103,1070062,,,,,,,2022-11-28,1,,,,,クロスウェイ,0
29,1010603009857,新規,0,2022-11-28,2022-11-28,青いとうもろこし合同会社,,合同会社,東京都,江東区,深川１丁目６番１６－１３０２号,,13,108,1350033,,,,,,,2022-11-28,1,,,,,アオイトウモロコシ,0
35,1010901052039,新規,0,2022-11-28,2022-11-28,株式会社ＴＳＳＹ,,株式会社,東京都,世田谷区,成城４丁目９番２４号,,13,112,1570066,,,,,,,2022-11-28,1,,,,,ティーエスエスワイ,0
36,1010903007809,新規,0,2022-11-28,2022-11-28,合同会社ＪＦＳ,,合同会社,東京都,世田谷区,中町３丁目２８番１７号,,13,112,1580091,,,,,,,2022-11-28,1,,,,,ジェイエフエス,0
40,1011001151012,新規,0,2022-11-28,2022-11-28,株式会社Ｔｗｏｈａｎｄｓ　Ｍｅｔａ,,株式会社,東京都,渋谷区,恵比寿西２丁目６番１１号,,13,113,1500021,,,,,,,2022-11-28,1,,,,,ツーハンズメタ,0
41,1011001151128,新規,0,2022-11-28,2022-11-28,株式会社タグプラス,,株式会社,東京都,目黒区,上目黒１丁目１６番８号クリスタルビル７階,,13,110,1530051,,,,,,,2022-11-28,1,,,,,タグプラス,0
42,1011001151160,新規,0,2022-11-28,2022-11-28,株式会社ａｔ　ＥＮＳ,,株式会社,東京都,渋谷区,桜丘町９番１７号,,13,113,1500031,,,,,,,2022-11-28,1,,,,,アットエンズ,0
53,1011101100950,新規,0,2022-11-28,2022-11-28,Ｐｉｚｚａ＆ＨｏｔＤｏｇｓ株式会社,,株式会社,東京都,新宿区,新宿１丁目１６番１０号,,13,104,1600022,,,,,,,2022-11-28,1,,,,,ピッツァアンドホットドッグス,0
54,1011101100967,新規,0,2022-11-28,2022-11-28,株式会社パパグラム,,株式会社,東京都,新宿区,西新宿３丁目３番１３号西新宿水間ビル２Ｆ,,13,104,1600023,,,,,,,2022-11-28,1,,,,,パパグラム,0
62,1011401024726,新規,0,2022-11-28,2022-11-28,株式会社センオウファクトリー,,株式会社,東京都,板橋区,大山町８番１ファイン大山１階,,13,119,1730023,,,,,,,2022-11-28,1,,,,,センオウファクトリー,0
64,1011603003759,新規,0,2022-11-28,2022-11-28,合同会社５４,,合同会社,東京都,練馬区,土支田４丁目３２番１号,,13,120,1790076,,,,,,,2022-11-28,1,,,,,ゴーヨン,0
68,1012401039904,新規,0,2022-11-28,2022-11-28,エイトフィード株式会社,,株式会社,東京都,調布市,多摩川１丁目２９番地１エルディア１１０６,,13,208,1820025,,,,,,,2022-11-28,1,,,,,エイトフィード,0
78,1020001149131,新規,0,2022-11-28,2022-11-28,株式会社ひろはる,,株式会社,神奈川県,横浜市栄区,笠間１丁目１－１ルリエ大船１０４Ｂ,,14,115,2470006,,,,,,,2022-11-28,1,,,,,ヒロハル,0
79,1020001149148,新規,0,2022-11-28,2022-11-28,株式会社ＷＡＮＡ’Ｓ,,株式会社,神奈川県,横浜市泉区,中田南５丁目２１番１１号,,14,116,2450014,,,,,,,2022-11-28,1,,,,,ワナズ,0
80,1020001149156,新規,0,2022-11-28,2022-11-28,三洋工業株式会社,,株式会社,神奈川県,横浜市都筑区,荏田南１丁目１９番２－２２６号,,14,118,2240007,,,,,,,2022-11-28,1,,,,,サンヨウコウギョウ,0
81,1020001149172,新規,0,2022-11-28,2022-11-28,株式会社岬グループ,,株式会社,神奈川県,川崎市麻生区,千代ケ丘６丁目８番地１,,14,137,2150005,,,,,,,2022-11-28,1,,,,,ミサキグループ,0
83,1020003022781,新規,0,2022-11-28,2022-11-28,合同会社Ｉ,,合同会社,神奈川県,川崎市宮前区,西野川１丁目２４番４号トルトゥーガＢ３０１,,14,136,2160044,,,,,,,2022-11-28,1,,,,,アイ,0
85,1020005015734,新規,0,2022-11-28,2022-11-28,ＮＰＯ法人あけみ相談室命のカウンセリング,,その他の設立登記法人,神奈川県,横浜市瀬谷区,阿久和西４丁目１４番地５ハイツスリーエースＡ１０１,,14,114,2460025,,,,,,,2022-11-28,1,,,,,アケミソウダンシツイノチノカウンセリング,0
97,1030001151210,新規,0,2022-11-28,2022-11-28,ひだまり薬局株式会社,,株式会社,埼玉県,戸田市,美女木２丁目２８番地の１０,,11,224,3350031,,,,,,,2022-11-28,1,,,,,ヒダマリヤッキョク,0
98,1030003020628,新規,0,2022-11-28,2022-11-28,太陽合同会社,,合同会社,埼玉県,川口市,江戸３丁目５番１３号,,11,203,3340074,,,,,,,2022-11-28,1,,,,,タイヨウ,0
112,1040003021352,新規,0,2022-11-28,2022-11-28,合同会社アミーレ,,合同会社,千葉県,浦安市,高洲３丁目２４番６号,,12,227,2790023,,,,,,,2022-11-28,1,,,,,アミーレ,0
115,1050003007045,新規,0,2022-11-28,2022-11-28,合同会社Ｒ．Ｐ．Ｉｎｔｅｒｎａｔｉｏｎａｌ,,合同会社,茨城県,牛久市,久野町３１２７番地,,08,219,3001288,,,,,,,2022-11-28,1,,,,,アールピーインターナショナル,0
120,1060001035476,新規,0,2022-11-28,2022-11-28,株式会社いろどり,,株式会社,栃木県,宇都宮市,若草３丁目６番１２号,,09,201,3200072,,,,,,,2022-11-28,1,,,,,イロドリ,0
121,1060001035484,新規,0,2022-11-28,2022-11-28,株式会社ＶＯＲＴＴＥＸ,,株式会社,栃木県,真岡市,荒町２丁目７番地９,,09,209,3214305,,,,,,,2022-11-28,1,,,,,ボルテックス,0
124,1070001039872,新規,0,2022-11-28,2022-11-28,株式会社ニューウェル,,株式会社,群馬県,伊勢崎市,昭和町１６４９番地１,,10,204,3720014,,,,,,,2022-11-28,1,,,,,ニューウェル,0
127,1080103002694,新規,0,2022-11-28,2022-11-28,合同会社芳川商店,,合同会社,静岡県,伊豆の国市,長者原１２３９番地の１８７,,22,225,4102312,,,,,,,2022-11-28,1,,,,,ヨシカワショウテン,0
132,1110001037137,新規,0,2022-11-28,2022-11-28,株式会社ＫＡＺ,,株式会社,新潟県,長岡市,三和２丁目７番２０号,,15,202,9401151,,,,,,,2022-11-28,1,,,,,カズ,0
135,1110003004928,新規,0,2022-11-28,2022-11-28,合同会社ゴッツォ,,合同会社,新潟県,南魚沼市,東泉田６０番地１,,15,226,9496612,,,,,,,2022-11-28,1,,,,,ゴッツォ,0
148,1120001250556,新規,0,2022-11-28,2022-11-28,株式会社レオンアーツ,,株式会社,大阪府,大阪市中央区,久太郎町２丁目４番２７号,,27,128,5410056,,,,,,,2022-11-28,1,,,,,レオンアーツ,0
149,1120001250606,新規,0,2022-11-28,2022-11-28,株式会社泰中興業,,株式会社,大阪府,大阪市平野区,瓜破６丁目７番１４号,,27,126,5470024,,,,,,,2022-11-28,1,,,,,タイナカコウギョウ,0
154,1120003022929,新規,0,2022-11-28,2022-11-28,Ｃ．Ｆ．Ｏｆｆｉｃｅ合同会社,,合同会社,大阪府,大阪市北区,堂山町３番３号日本生命梅田ビル７Ｆ,,27,127,5300027,,,,,,,2022-11-28,1,,,,,シーエフオフィス,0
155,1120003022945,新規,0,2022-11-28,2022-11-28,Ｔａｉ　ａｕｔｏ合同会社,,合同会社,大阪府,大阪市西淀川区,大和田４丁目１２番３１号２Ｆ２－１号室,,27,113,5550032,,,,,,,2022-11-28,1,,,,,タイオート,0
159,1120101066588,新規,0,2022-11-28,2022-11-28,株式会社ｍａｔｓｕｋｏｕ,,株式会社,大阪府,河内長野市,野作町２番２１号,,27,216,5860023,,,,,,,2022-11-28,1,,,,,マツコウ,0
160,1120101066596,新規,0,2022-11-28,2022-11-28,株式会社Ｓａｒｉｌｉ,,株式会社,大阪府,岸和田市,加守町３丁目４番２２号,,27,202,5960042,,,,,,,2022-11-28,1,,,,,サリリ,0
161,1120103004942,新規,0,2022-11-28,2022-11-28,合同会社ＨＫ,,合同会社,大阪府,堺市美原区,小平尾１２４番地９,,27,147,5870021,,,,,,,2022-11-28,1,,,,,エイチケー,0
163,1120901046780,新規,0,2022-11-28,2022-11-28,ｓｐｅｃ株式会社,,株式会社,大阪府,豊中市,上野東２丁目８番３号２Ｆ,,27,203,5600013,,,,,,,2022-11-28,1,,,,,スペック,0
166,1130001073147,新規,0,2022-11-28,2022-11-28,株式会社インファーマリーＫＯＫＯＲＯ,,株式会社,京都府,京都市中京区,壬生神明町１番地１８ジ・アーバネックス京都二条６０４,,26,104,6048861,,,,,,,2022-11-28,1,,,,,インファーマリーココロ,0
167,1130001073163,新規,0,2022-11-28,2022-11-28,株式会社ＴＥＩＳＡＮ,,株式会社,京都府,城陽市,市辺西川原９番地,,26,207,6100114,,,,,,,2022-11-28,1,,,,,テイサン,0
168,1130003008349,新規,0,2022-11-28,2022-11-28,合同会社ランダムウォーク,,合同会社,京都府,舞鶴市,森本町３７番地５,,26,202,6250067,,,,,,,2022-11-28,1,,,,,ランダムウォーク,0
174,1140001128164,新規,0,2022-11-28,2022-11-28,ＡＫＩＭＯコミュニケーションズ株式会社,,株式会社,兵庫県,神戸市灘区,篠原南町５丁目２番４号,,28,102,6570059,,,,,,,2022-11-28,1,,,,,アキモコミュニケーションズ,0
175,1140001128180,新規,0,2022-11-28,2022-11-28,久栄株式会社,,株式会社,兵庫県,神戸市中央区,花隈町２３－２３第二花隈ダイヤハイツ２０１号,,28,110,6500013,,,,,,,2022-11-28,1,,,,,キュウエイ,0
178,1140005026389,新規,0,2022-11-28,2022-11-28,一般社団法人子供・未来サポート寿乃家,,その他の設立登記法人,兵庫県,神戸市長田区,久保町６丁目１番１号,,28,106,6530041,,,,,,,2022-11-28,1,,,,,コドモミライサポートコトブキノイエ,0
179,1160001024634,新規,0,2022-11-28,2022-11-28,ＭＩ環境保全株式会社,,株式会社,滋賀県,米原市,春照２００番地,,25,214,5210314,,,,,,,2022-11-28,1,,,,,エムアイカンキョウホゼン,0
196,1180001153951,新規,0,2022-11-28,2022-11-28,怡達株式会社,,株式会社,愛知県,名古屋市北区,成願寺１丁目６番６ザ・シーン城北アストロタワー７０７号,,23,103,4620021,,,,,,,2022-11-28,1,,,,,イタツ,0
197,1180001153968,新規,0,2022-11-28,2022-11-28,株式会社スターレット,,株式会社,愛知県,名古屋市緑区,鳴丘２丁目２６１８番地の２,,23,114,4580005,,,,,,,2022-11-28,1,,,,,スターレット,0
205,1230005009269,新規,0,2022-11-28,2022-11-28,一般社団法人ときわ社会福祉士共同事務所,,その他の設立登記法人,富山県,高岡市,定塚町１１９９,,16,202,9330032,,,,,,,2022-11-28,1,,,,,トキワシャカイフクシシキョウドウジムショ,0
222,1290001099713,新規,0,2022-11-28,2022-11-28,株式会社ファナスカンパニー,,株式会社,福岡県,福岡市東区,松島５丁目１番８号,,40,131,8130062,,,,,,,2022-11-28,1,,,,,ファナスカンパニー,0
224,1290803004267,新規,0,2022-11-28,2022-11-28,合同会社マリンガイド,,合同会社,福岡県,北九州市小倉南区,大字母原２６番地４,,40,107,8030187,,,,,,,2022-11-28,1,,,,,マリンガイド,0
225,1300001013143,新規,0,2022-11-28,2022-11-28,株式会社鍵丸防犯,,株式会社,佐賀県,西松浦郡有田町,南原丁５２番地４０,,41,401,8440027,,,,,,,2022-11-28,1,,,,,カギマルボウハン,0
228,1330005010588,新規,0,2022-11-28,2022-11-28,医療法人カエル,,その他の設立登記法人,熊本県,熊本市南区,荒尾１丁目８－６８,,43,104,8614136,,,,,,,2022-11-28,1,,,,,カエル,0
230,1350001008758,新規,0,2022-11-28,2022-11-28,壽建材株式会社,,株式会社,宮崎県,都城市,八幡町４街区１７号,,45,202,8850075,,,,,,,2022-11-28,1,,,,,,0
233,1360001031255,新規,0,2022-11-28,2022-11-28,株式会社みらい探査,,株式会社,沖縄県,那覇市,字真地２６５番地の２－２Ｆ,,47,201,9020072,,,,,,,2022-11-28,1,,,,,ミライタンサ,0
236,1360003012484,新規,0,2022-11-28,2022-11-28,合同会社ＹＦＮＣ,,合同会社,沖縄県,浦添市,当山２丁目３７番１６号,,47,208,9012104,,,,,,,2022-11-28,1,,,,,ワイエフエヌシー,0
237,1360003012492,新規,0,2022-11-28,2022-11-28,合同会社アーネストＷｏｒｋ,,合同会社,沖縄県,島尻郡南風原町,字津嘉山４７０番地,,47,350,9011117,,,,,,,2022-11-28,1,,,,,アーネストワーク,0
238,1360003012501,新規,0,2022-11-28,2022-11-28,合同会社レイリーズ沖縄,,合同会社,沖縄県,宮古島市,平良字西里２７番地１０２Ａ,,47,214,9060012,,,,,,,2022-11-28,1,,,,,レイリーズオキナワ,0
246,1370001049313,新規,0,2022-11-28,2022-11-28,株式会社スプリングビレッジ,,株式会社,宮城県,仙台市太白区,向山３丁目２１番２１号,,04,104,9820841,,,,,,,2022-11-28,1,,,,,スプリングビレッジ,0
252,1380001033290,新規,0,2022-11-28,2022-11-28,株式会社清水ボーリング,,株式会社,福島県,福島市,御山字松川原４番地の４１,,07,201,9608252,,,,,,,2022-11-28,1,,,,,シミズボーリング,0
265,1460101007285,新規,0,2022-11-28,2022-11-28,ＫＯＲＩＴＥ　ＪＡＰＡＮ株式会社,,株式会社,北海道,帯広市,昭和町東５線１１３番地,,01,207,0891247,,,,,,,2022-11-28,1,,,,,コーライトジャパン,0
266,1470001019355,新規,0,2022-11-28,2022-11-28,株式会社ＷＯ,,株式会社,香川県,丸亀市,綾歌町富熊７９４番地,,37,202,7612407,,,,,,,2022-11-28,1,,,,,ワオ,0
273,2010001231070,新規,0,2022-11-28,2022-11-28,株式会社アニパチ,,株式会社,東京都,中央区,日本橋富沢町１０番１３号３０３,,13,102,1030006,,,,,,,2022-11-28,1,,,,,アニパチ,0
274,2010001231129,新規,0,2022-11-28,2022-11-28,株式会社Ｌｏｃｉ,,株式会社,東京都,千代田区,平河町２丁目４番１６号,,13,101,1020093,,,,,,,2022-11-28,1,,,,,ロキ,0
279,2010401171016,新規,0,2022-11-28,2022-11-28,日本ＨＩＧ株式会社,,株式会社,東京都,港区,西新橋１丁目５３番１－３５－６０２号,,13,103,1050003,,,,,,,2022-11-28,1,,,,,ニッポンヒッグ,0
284,2010403028965,新規,0,2022-11-28,2022-11-28,合同会社カレッタ,,合同会社,東京都,港区,芝３丁目５番７号,,13,103,1050014,,,,,,,2022-11-28,1,,,,,カレッタ,0
285,2010503006796,新規,0,2022-11-28,2022-11-28,合同会社ＫＨＴＫ,,合同会社,東京都,台東区,元浅草１丁目９番８－６０３号,,13,106,1110041,,,,,,,2022-11-28,1,,,,,ケイエイチティーケイ,0
291,2010701043518,新規,0,2022-11-28,2022-11-28,株式会社Ｆ‐ＢＡＳＥ,,株式会社,東京都,品川区,上大崎４丁目３番１４号フラワーヒル目黒６０４号,,13,109,1410021,,,,,,,2022-11-28,1,,,,,エフベース,0
292,2010701043534,新規,0,2022-11-28,2022-11-28,ＪＫ株式会社,,株式会社,東京都,品川区,東大井５丁目１９－６鈴の家ビル７０１,,13,109,1400011,,,,,,,2022-11-28,1,,,,,ジェーケー,0
294,2010803004368,新規,0,2022-11-28,2022-11-28,合同会社ａｒＮｉｓ,,合同会社,東京都,大田区,中央６丁目６番６号,,13,111,1430024,,,,,,,2022-11-28,1,,,,,アーニス,0
305,2011001151135,新規,0,2022-11-28,2022-11-28,株式会社エイジス,,株式会社,東京都,渋谷区,鉢山町６番５号,,13,113,1500035,,,,,,,2022-11-28,1,,,,,エイジス,0
306,2011001151143,新規,0,2022-11-28,2022-11-28,株式会社Ｌａ　Ｍｅｒ,,株式会社,東京都,渋谷区,代官山町８番１６号,,13,113,1500034,,,,,,,2022-11-28,1,,,,,ラメール,0
307,2011001151151,新規,0,2022-11-28,2022-11-28,ｆｏｒｅｓｍａ株式会社,,株式会社,東京都,渋谷区,道玄坂１丁目１０番８号渋谷道玄坂東急ビル２Ｆ－Ｃ,,13,113,1500043,,,,,,,2022-11-28,1,,,,,フォレスマ,0
309,2011003015775,新規,0,2022-11-28,2022-11-28,合同会社Ｄａｙｎａｍｉｌｕ,,合同会社,東京都,渋谷区,代々木３丁目５９－１１ブランズ代々木参宮橋５０９,,13,113,1510053,,,,,,,2022-11-28,1,,,,,デイナミル,0
312,2011101100974,新規,0,2022-11-28,2022-11-28,アットライティング株式会社,,株式会社,東京都,新宿区,中落合３丁目２７番８号,,13,104,1610032,,,,,,,2022-11-28,1,,,,,アットライティング,0
322,2011801041601,新規,0,2022-11-28,2022-11-28,葵トラベル株式会社,,株式会社,東京都,足立区,西新井本町５丁目１２番６号,,13,121,1230845,,,,,,,2022-11-28,1,,,,,アオイトラベル,0
324,2011803005397,新規,0,2022-11-28,2022-11-28,合同会社山コム,,合同会社,東京都,足立区,千住１丁目３５番１３号,,13,121,1200034,,,,,,,2022-11-28,1,,,,,ヤマコム,0
326,2012401039903,新規,0,2022-11-28,2022-11-28,株式会社ｃｏｍｆａｎｙ,,株式会社,東京都,武蔵野市,吉祥寺本町２丁目８番４号ｉ－оｆｆｉｃｅ吉祥寺,,13,203,1800004,,,,,,,2022-11-28,1,,,,,カンファニー,0
333,2020001149122,新規,0,2022-11-28,2022-11-28,ＯＲＴ株式会社,,株式会社,神奈川県,横浜市神奈川区,大口仲町３８番地４,,14,102,2210003,,,,,,,2022-11-28,1,,,,,オーアールティー,0
334,2020001149130,新規,0,2022-11-28,2022-11-28,ＮＣＸ株式会社,,株式会社,神奈川県,横浜市西区,南幸１丁目１番１号,,14,103,2200005,,,,,,,2022-11-28,1,,,,,エヌシーエックス,0
335,2020001149155,新規,0,2022-11-28,2022-11-28,株式会社ケーツー電気,,株式会社,神奈川県,横浜市瀬谷区,二ツ橋町１６９番地１２,,14,114,2460021,,,,,,,2022-11-28,1,,,,,,0
336,2020001149163,新規,0,2022-11-28,2022-11-28,株式会社オオイエ,,株式会社,神奈川県,横浜市青葉区,藤が丘１丁目８番地７メディウス藤が丘１０５,,14,117,2270043,,,,,,,2022-11-28,1,,,,,オオイエ,0
338,2020003022789,新規,0,2022-11-28,2022-11-28,合同会社ひろ商事,,合同会社,神奈川県,横浜市保土ケ谷区,鎌谷町３２９番地１６,,14,106,2400063,,,,,,,2022-11-28,1,,,,,ヒロショウジ,0
339,2020003022797,新規,0,2022-11-28,2022-11-28,ブリッジインターナショナル合同会社,,合同会社,神奈川県,川崎市高津区,瀬田９番１６－２０３号,,14,134,2130003,,,,,,,2022-11-28,1,,,,,ブリッジインターナショナル,0
340,2020005015733,新規,0,2022-11-28,2022-11-28,特定非営利活動法人小関綜合セーフティネット,,その他の設立登記法人,神奈川県,横浜市港南区,上大岡西１丁目６番１号ゆめおおおかオフィスタワー２４階,,14,111,2330002,,,,,,,2022-11-28,1,,,,,コセキソウゴウセーフティネット,0
351,2030001151201,新規,0,2022-11-28,2022-11-28,Ｔ‐ＫＥＩ株式会社,,株式会社,埼玉県,川口市,戸塚２丁目２０番１号ロイヤルメゾン２０５,,11,203,3330811,,,,,,,2022-11-28,1,,,,,ティーケイ,0
352,2030001151226,新規,0,2022-11-28,2022-11-28,株式会社ＴｒａｎｓＷｉｔｈ,,株式会社,埼玉県,蕨市,錦町４丁目８番１６号オークハイツ錦２０７号,,11,223,3350005,,,,,,,2022-11-28,1,,,,,トランスウィズ,0
353,2030003020635,新規,0,2022-11-28,2022-11-28,合同会社Ｂｌｕｅ　Ｆｉｅｌｄ,,合同会社,埼玉県,さいたま市南区,白幡５丁目１６番５号サンモール武蔵１０７号室,,11,108,3360022,,,,,,,2022-11-28,1,,,,,ブルーフィールド,0
354,2030003020643,新規,0,2022-11-28,2022-11-28,合同会社Ｄｒｅａｍｉｎ,,合同会社,埼玉県,春日部市,一ノ割１丁目１３番７号,,11,214,3440031,,,,,,,2022-11-28,1,,,,,ドリーミン,0
368,2040001125996,新規,0,2022-11-28,2022-11-28,株式会社Ｄｅｅｐｍｉｒｒｏｒ　Ｊａｐａｎ,,株式会社,千葉県,松戸市,千駄堀１４５３番地の１６,,12,207,2702252,,,,,,,2022-11-28,1,,,,,ディープミラージャパン,0
370,2040003021351,新規,0,2022-11-28,2022-11-28,合同会社モチデン,,合同会社,千葉県,八千代市,八千代台東６丁目１０番５号,,12,221,2760032,,,,,,,2022-11-28,1,,,,,モチデン,0
375,2060001035475,新規,0,2022-11-28,2022-11-28,株式会社ＮＨＴ,,株式会社,栃木県,足利市,田中町９５４－７,,09,202,3260822,,,,,,,2022-11-28,1,,,,,エヌエッチティ,0
384,2100001035909,新規,0,2022-11-28,2022-11-28,ａｒｉａ株式会社,,株式会社,長野県,佐久市,中込１２６７番地６,,20,217,3850051,,,,,,,2022-11-28,1,,,,,アリア,0
385,2100003006791,新規,0,2022-11-28,2022-11-28,合同会社Ｙａｍａｉｒｏ．,,合同会社,長野県,飯田市,八幡町２０３５番地,,20,205,3950814,,,,,,,2022-11-28,1,,,,,ヤマイロ,0
400,2120001250555,新規,0,2022-11-28,2022-11-28,株式会社ＭＡＫＥＯＶＥＲ,,株式会社,大阪府,大阪市中央区,本町４丁目８番１号ＳＤ本町ビル７０２号,,27,128,5410053,,,,,,,2022-11-28,1,,,,,メイクオーバー,0
402,2120003022944,新規,0,2022-11-28,2022-11-28,リーガルフロンティア合同会社,,合同会社,大阪府,大阪市北区,曾根崎２丁目１２番７号,,27,127,5300057,,,,,,,2022-11-28,1,,,,,リーガルフロンティア,0
404,2120005023313,新規,0,2022-11-28,2022-11-28,行政書士法人ＳＴＵＤＩＯ　ＰＡＬＭ　ＴＲＥＥ,,その他の設立登記法人,大阪府,大阪市西区,土佐堀１丁目１番３２号日宝リバービル３０２,,27,106,5500001,,,,,,,2022-11-28,1,,,,,スタジオパームツリー,0
408,2120103004941,新規,0,2022-11-28,2022-11-28,合同会社ＷＡＲＭｈａｎｄｓ,,合同会社,大阪府,堺市中区,東山５９５番地２１,,27,142,5998247,,,,,,,2022-11-28,1,,,,,ウォームハンズ,0
412,2130001035559,新規,0,2022-11-28,2022-11-28,京都交通株式会社,,株式会社,京都府,亀岡市,古世町向嶋１０番地,,26,206,6210815,,,,,,,2022-11-28,1,,,,,キョウトコウツウ,0
413,2130001073162,新規,0,2022-11-28,2022-11-28,株式会社ナスカ,,株式会社,京都府,京都市中京区,錦小路通室町西入天神山町２８０番地石勘ビル５Ｆ４２,,26,104,6048221,,,,,,,2022-11-28,1,,,,,ナスカ,0
419,2140001128122,新規,0,2022-11-28,2022-11-28,株式会社あすの木,,株式会社,兵庫県,神戸市東灘区,住吉宮町６丁目４番１５号,,28,101,6580053,,,,,,,2022-11-28,1,,,,,アスノキ,0
420,2140001128196,新規,0,2022-11-28,2022-11-28,株式会社詩音,,株式会社,兵庫県,南あわじ市,阿万西町５６番地,,28,224,6560545,,,,,,,2022-11-28,1,,,,,シオン,0
421,2140002047024,新規,0,2022-11-28,2022-11-28,有限会社三知食品,,有限会社,兵庫県,美方郡新温泉町,浜坂２６２９番地の２,,28,586,6696702,,,,,,,2022-11-28,1,,,,,サントモショクヒン,0
425,2150001025970,新規,0,2022-11-28,2022-11-28,株式会社Ｕｎｉｔｅ,,株式会社,奈良県,大和郡山市,田中町５８３番地１９,,29,203,6391028,,,,,,,2022-11-28,1,,,,,ユナイト,0
437,2180001153959,新規,0,2022-11-28,2022-11-28,株式会社Ａ‐Ｓｈｉｆｔ,,株式会社,愛知県,名古屋市中区,錦１丁目４番２７号,,23,106,4600003,,,,,,,2022-11-28,1,,,,,エーシフト,0
438,2180001153991,新規,0,2022-11-28,2022-11-28,サポート株式会社,,株式会社,愛知県,名古屋市東区,泉３丁目７番１号,,23,102,4610001,,,,,,,2022-11-28,1,,,,,サポート,0
446,2200001040700,新規,0,2022-11-28,2022-11-28,亀松システムソリューションズ株式会社,,株式会社,岐阜県,岐阜市,加納栄町通４丁目２番地,,21,201,5008455,,,,,,,2022-11-28,1,,,,,カメマツシステムソリューションズ,0
448,2210003001583,新規,0,2022-11-28,2022-11-28,合同会社ＯＮＳＩＧＨＴ,,合同会社,福井県,敦賀市,公文名４１号１４番地の１,,18,202,9140131,,,,,,,2022-11-28,1,,,,,オンサイト,0
454,2240001060703,新規,0,2022-11-28,2022-11-28,株式会社ＣＬＥＡＮＮＥＸＴ,,株式会社,広島県,広島市佐伯区,五日市１丁目５番４６－４号,,34,108,7315127,,,,,,,2022-11-28,1,,,,,クリーンネクスト,0
457,2240003005904,新規,0,2022-11-28,2022-11-28,Ｑｕａｌｉｔｙ　ｉｎｔｅｒｎａｔｉｏｎａｌ合同会社,,合同会社,広島県,広島市安佐南区,上安２丁目５番２２号,,34,105,7310154,,,,,,,2022-11-28,1,,,,,クオリティーインターナショナル,0
463,2280002012138,新規,0,2022-11-28,2022-11-28,有限会社岸田種苗店,,有限会社,島根県,浜田市,牛市町８３番地２,,32,202,6970032,,,,,,,2022-11-28,1,,,,,,0
467,2290001099695,新規,0,2022-11-28,2022-11-28,株式会社榮隆,,株式会社,福岡県,那珂川市,中原６丁目７番２３号,,40,231,8111213,,,,,,,2022-11-28,1,,,,,エイリュウ,0
468,2290001099720,新規,0,2022-11-28,2022-11-28,株式会社ｋｅｔｅｒ,,株式会社,福岡県,福岡市東区,青葉７丁目５９－３３,,40,131,8130025,,,,,,,2022-11-28,1,,,,,ケテル,0
475,2330005010587,新規,0,2022-11-28,2022-11-28,医療法人社団修和会,,その他の設立登記法人,熊本県,熊本市南区,島町４丁目４番１号,,43,104,8614133,,,,,,,2022-11-28,1,,,,,シュウワカイ,0
479,2360005006748,新規,0,2022-11-28,2022-11-28,マラマ砂利砕石販売事業協同組合,,その他の設立登記法人,沖縄県,国頭郡金武町,字金武７９０５番地１,,47,314,9041201,,,,,,,2022-11-28,1,,,,,マラマジャリサイセキハンバイ,0
488,2400001016069,新規,0,2022-11-28,2022-11-28,株式会社及留ホールディングス,,株式会社,岩手県,奥州市,水沢字赤土田１０番地,,03,215,0230035,,,,,,,2022-11-28,1,,,,,オイトメホールディングス,0
495,2430005014603,新規,0,2022-11-28,2022-11-28,一般社団法人青木トラスト,,その他の設立登記法人,北海道,小樽市,勝納町１７番４号,,01,203,0470005,,,,,,,2022-11-28,1,,,,,アオキトラスト,0
500,2470001019354,新規,0,2022-11-28,2022-11-28,株式会社テクノ・８８,,株式会社,香川県,高松市,前田西町７２４番地２１,,37,201,7610321,,,,,,,2022-11-28,1,,,,,テクノエイト,0
502,2500001024615,新規,0,2022-11-28,2022-11-28,株式会社土居商店,,株式会社,愛媛県,八幡浜市,天神通２丁目１５２６番地１７７,,38,204,7960085,,,,,,,2022-11-28,1,,,,,ドイショウテン,0
512,3010001231136,新規,0,2022-11-28,2022-11-28,株式会社ｕｌｕ,,株式会社,東京都,中央区,八丁堀２丁目２１番１２号,,13,102,1040032,,,,,,,2022-11-28,1,,,,,ウル,0
513,3010001231152,新規,0,2022-11-28,2022-11-28,株式会社ノハラボ,,株式会社,東京都,中央区,日本橋兜町１７－２兜町第６葉山ビル４Ｆ,,13,102,1030026,,,,,,,2022-11-28,1,,,,,ノハラボ,0
521,3010003039180,新規,0,2022-11-28,2022-11-28,合同会社古賀の井プロパティーズ,,合同会社,東京都,千代田区,有楽町１丁目２番２号,,13,101,1000006,,,,,,,2022-11-28,1,,,,,コガノイプロパティーズ,0
522,3010005035830,新規,0,2022-11-28,2022-11-28,泉南ロジスティクス特定目的会社,,その他の設立登記法人,東京都,中央区,日本橋１丁目４番１号,,13,102,1030027,,,,,,,2022-11-28,1,,,,,センナンロジスティクス,0
527,3010403028972,新規,0,2022-11-28,2022-11-28,オフィス・マシェリ合同会社,,合同会社,東京都,港区,南青山２丁目２番１５号,,13,103,1070062,,,,,,,2022-11-28,1,,,,,オフィスマシェリ,0
530,3010405021604,新規,0,2022-11-28,2022-11-28,一般社団法人日本ヴェーダ協会,,その他の設立登記法人,東京都,港区,虎ノ門１丁目１６番６号虎ノ門ＲＡＰＯ－ＴＯビルＵＣＦ７０３,,13,103,1050001,,,,,,,2022-11-28,1,,,,,ニホンヴェーダキョウカイ,0
533,3010501049672,新規,0,2022-11-28,2022-11-28,株式会社ＫＹ‐ＷＯＲＬＤ,,株式会社,東京都,台東区,浅草橋２丁目２２番２号,,13,106,1110053,,,,,,,2022-11-28,1,,,,,ケーワイワールド,0
534,3010601062138,新規,0,2022-11-28,2022-11-28,クリーン商事株式会社,,株式会社,東京都,江東区,毛利１丁目２０番１３号,,13,108,1350001,,,,,,,2022-11-28,1,,,,,クリーンショウジ,0
539,3010901052037,新規,0,2022-11-28,2022-11-28,株式会社ルナヴィスタ,,株式会社,東京都,世田谷区,弦巻２丁目２５番３号,,13,112,1540016,,,,,,,2022-11-28,1,,,,,ルナヴィスタ,0
540,3010901052045,新規,0,2022-11-28,2022-11-28,株式会社ＳＭＢマネジメント,,株式会社,東京都,世田谷区,桜２丁目１８番４号ツインパレス経堂１０５号室,,13,112,1560053,,,,,,,2022-11-28,1,,,,,エスエムビーマネジメント,0
551,3011001151134,新規,0,2022-11-28,2022-11-28,株式会社ＤｒｕｍＲｏｌｅ,,株式会社,東京都,渋谷区,円山町５番５号Ｎａｖｉ渋谷Ｖ３階,,13,113,1500044,,,,,,,2022-11-28,1,,,,,ドラムロール,0
552,3011001151142,新規,0,2022-11-28,2022-11-28,株式会社Ｘ‐ａｇｅｎｃｙ,,株式会社,東京都,渋谷区,神宮前５丁目２５番４号,,13,113,1500001,,,,,,,2022-11-28,1,,,,,エックスエージェンシー,0
553,3011001151150,新規,0,2022-11-28,2022-11-28,株式会社Ｍｙｆａｖ,,株式会社,東京都,渋谷区,鶯谷町１４－２－６０２,,13,113,1500032,,,,,,,2022-11-28,1,,,,,マイフェブ,0
554,3011001151159,新規,0,2022-11-28,2022-11-28,株式会社ＣＨＥＥＲＳ　ＭＡＴＥ,,株式会社,東京都,目黒区,目黒１丁目３番２４号,,13,110,1530063,,,,,,,2022-11-28,1,,,,,チアーズメイト,0
556,3011003015782,新規,0,2022-11-28,2022-11-28,合同会社Ｂｌｏｏｍｉｎｇ,,合同会社,東京都,渋谷区,幡ヶ谷３丁目３９番１２号渋谷ウェストビル１階,,13,113,1510072,,,,,,,2022-11-28,1,,,,,ブルーミング,0
557,3011003015799,新規,0,2022-11-28,2022-11-28,ゆえん合同会社,,合同会社,東京都,渋谷区,神宮前６丁目２３番４号,,13,113,1500001,,,,,,,2022-11-28,1,,,,,ユエン,0
559,3011005009840,新規,0,2022-11-28,2022-11-28,一般社団法人渡辺吉田芸術文化育英会,,その他の設立登記法人,東京都,渋谷区,神宮前４丁目２番１２号,,13,113,1500001,,,,,,,2022-11-28,1,,,,,ワタナベヨシダゲイジュツブンカイクエイカイ,0
563,3011101100890,新規,0,2022-11-28,2022-11-28,株式会社ＥＶＥＲＧＲＥＥＮ　ＪＡＰＡＮ,,株式会社,東京都,新宿区,大久保１丁目１２番地３カーサ第２新宿７０７号,,13,104,1690072,,,,,,,2022-11-28,1,,,,,エバーグリーンジャパン,0
568,3011601026396,新規,0,2022-11-28,2022-11-28,辰時株式会社,,株式会社,東京都,練馬区,北町５丁目５番７－２０２号,,13,120,1790081,,,,,,,2022-11-28,1,,,,,シンジ,0
570,3011803005396,新規,0,2022-11-28,2022-11-28,ＫＡＡＳＨＩ合同会社,,合同会社,東京都,葛飾区,四つ木４丁目２７番１２号,,13,122,1240011,,,,,,,2022-11-28,1,,,,,カーシ,0
571,3012403005695,新規,0,2022-11-28,2022-11-28,ブリックス合同会社,,合同会社,東京都,狛江市,中和泉１丁目２０番９号２Ｆ,,13,219,2010012,,,,,,,2022-11-28,1,,,,,ブリックス,0
577,3020001149154,新規,0,2022-11-28,2022-11-28,株式会社ｍｅｋａＡＲＴ,,株式会社,神奈川県,川崎市麻生区,東百合丘３丁目２２番１０号,,14,137,2150012,,,,,,,2022-11-28,1,,,,,メカアート,0
578,3020001149162,新規,0,2022-11-28,2022-11-28,サンスマイル株式会社,,株式会社,神奈川県,横浜市青葉区,若草台１０番地１,,14,117,2270045,,,,,,,2022-11-28,1,,,,,サンスマイル,0
579,3020001149170,新規,0,2022-11-28,2022-11-28,Ｓｋｒｒｓ株式会社,,株式会社,神奈川県,横浜市緑区,中山５丁目１３番１９号,,14,113,2260019,,,,,,,2022-11-28,1,,,,,スクーズ,0
582,3020003022796,新規,0,2022-11-28,2022-11-28,合同会社ハレオルナ,,合同会社,神奈川県,横浜市金沢区,釜利谷東４丁目７番２７号,,14,108,2360042,,,,,,,2022-11-28,1,,,,,ハレオルナ,0
583,3020003022805,新規,0,2022-11-28,2022-11-28,合同会社コンフィデンス,,合同会社,神奈川県,川崎市麻生区,高石１丁目１５－１３－２０２,,14,137,2150003,,,,,,,2022-11-28,1,,,,,コンフィデンス,0
588,3021003012416,新規,0,2022-11-28,2022-11-28,合同会社ＫＺＭ,,合同会社,神奈川県,相模原市南区,相模大野５丁目２５番３６号,,14,153,2520303,,,,,,,2022-11-28,1,,,,,ケーゼットエム,0
607,3050001052009,新規,0,2022-11-28,2022-11-28,株式会社創合広告社,,株式会社,茨城県,水戸市,南町１丁目４番１８号松屋ビル４階,,08,201,3100021,,,,,,,2022-11-28,1,,,,,ソウゴウコウコクシャ,0
608,3050001052017,新規,0,2022-11-28,2022-11-28,株式会社成,,株式会社,茨城県,つくば市,春日３丁目１８番地８,,08,220,3050821,,,,,,,2022-11-28,1,,,,,ナル,0
611,3050003007043,新規,0,2022-11-28,2022-11-28,合同会社ウイットシーパートナーズ,,合同会社,茨城県,取手市,桜が丘３丁目１０番４号,,08,217,3001525,,,,,,,2022-11-28,1,,,,,ウイットシーパートナーズ,0
615,3060001035482,新規,0,2022-11-28,2022-11-28,株式会社フクロー,,株式会社,栃木県,宇都宮市,若草１丁目９番５号,,09,201,3200072,,,,,,,2022-11-28,1,,,,,フクロー,0
618,3080003002900,新規,0,2022-11-28,2022-11-28,合同会社吉田東源,,合同会社,静岡県,静岡市清水区,追分２丁目１３番１６号,,22,103,4240841,,,,,,,2022-11-28,1,,,,,ヨシダトウゲン,0
619,3080101023658,新規,0,2022-11-28,2022-11-28,株式会社慧光,,株式会社,静岡県,富士宮市,上条４７９番地の１,,22,207,4180116,,,,,,,2022-11-28,1,,,,,エコウ,0
630,3110001037110,新規,0,2022-11-28,2022-11-28,東北経済株式会社,,株式会社,新潟県,妙高市,大字小出雲１７９６番地,,15,217,9440032,,,,,,,2022-11-28,1,,,,,,0
636,3120001250554,新規,0,2022-11-28,2022-11-28,株式会社田中大介,,株式会社,大阪府,大阪市西区,京町堀２丁目２番３号サイトウビル３０２,,27,106,5500003,,,,,,,2022-11-28,1,,,,,タナカダイスケ,0
637,3120001250562,新規,0,2022-11-28,2022-11-28,正翌株式会社,,株式会社,大阪府,大阪市東淀川区,豊里２丁目２５－８－３Ａ,,27,114,5330013,,,,,,,2022-11-28,1,,,,,ショウヨク,0
640,3120005023312,新規,0,2022-11-28,2022-11-28,弁理士法人岡田特許事務所,,その他の設立登記法人,大阪府,大阪市中央区,南本町４丁目２番２１号,,27,128,5410054,,,,,,,2022-11-28,1,,,,,オカダトッキョジムショ,0
642,3120901046795,新規,0,2022-11-28,2022-11-28,株式会社ＬＲＫ,,株式会社,大阪府,吹田市,泉町５丁目１４番１５－９号,,27,205,5640041,,,,,,,2022-11-28,1,,,,,エルアールケー,0
657,3140005026387,新規,0,2022-11-28,2022-11-28,一般社団法人誰もが聞きたい経済トリセツ協会,,その他の設立登記法人,兵庫県,姫路市,広畑区西夢前台７丁目７６番地,,28,201,6711103,,,,,,,2022-11-28,1,,,,,ダレモガキキタイケイザイトリセツキョウカイ,0
659,3170001017387,新規,0,2022-11-28,2022-11-28,ＩＷＳ株式会社,,株式会社,和歌山県,岩出市,岡田２４０番地の１クローバーハイツ岩出１０５,,30,209,6496222,,,,,,,2022-11-28,1,,,,,アイダブリューエス,0
672,3180001153966,新規,0,2022-11-28,2022-11-28,きなり株式会社,,株式会社,愛知県,春日井市,高山町２丁目２５番地１,,23,206,4860912,,,,,,,2022-11-28,1,,,,,キナリ,0
673,3180001153982,新規,0,2022-11-28,2022-11-28,株式会社ｄｉｖｅｒｓｉｏｎ,,株式会社,愛知県,名古屋市熱田区,一番２丁目２８番２５号サイトビル３０３号室,,23,109,4560053,,,,,,,2022-11-28,1,,,,,ディバージョン,0
683,3240001060710,新規,0,2022-11-28,2022-11-28,ＢＰショップ株式会社,,株式会社,広島県,福山市,蔵王町４丁目１０番１５号,,34,207,7210971,,,,,,,2022-11-28,1,,,,,ビーピーショップ,0
706,3290803004265,新規,0,2022-11-28,2022-11-28,合同会社ＳＡＲＵ　ＮＯ　ＪＩＤＡＩ,,合同会社,福岡県,北九州市小倉北区,神岳２丁目６番７号,,40,106,8020045,,,,,,,2022-11-28,1,,,,,サルノジダイ,0
707,3290803004273,新規,0,2022-11-28,2022-11-28,合同会社ＥＢＣ,,合同会社,福岡県,北九州市小倉北区,小文字１丁目５番２０号,,40,106,8020037,,,,,,,2022-11-28,1,,,,,イービーシー,0
712,3320003003956,新規,0,2022-11-28,2022-11-28,合同会社ＪＩＳＡＫＵ,,合同会社,大分県,中津市,豊田町１３番地６,,44,203,8710058,,,,,,,2022-11-28,1,,,,,ジサク,0
719,3340005009529,新規,0,2022-11-28,2022-11-28,特定非営利活動法人優美会,,その他の設立登記法人,鹿児島県,曽於市,末吉町二之方６３８７番地２,,46,217,8998605,,,,,,,2022-11-28,1,,,,,ユウビカイ,0
722,3370001049294,新規,0,2022-11-28,2022-11-28,株式会社まきのホーム,,株式会社,宮城県,仙台市太白区,富沢南１丁目３番地の７ティアラ工藤３０３,,04,104,9820036,,,,,,,2022-11-28,1,,,,,マキノホーム,0
731,3400001016068,新規,0,2022-11-28,2022-11-28,株式会社エレファントノーズ,,株式会社,岩手県,盛岡市,向中野３丁目３番１７号グランチェスタ１０２号,,03,201,0200851,,,,,,,2022-11-28,1,,,,,エレファントノーズ,0
738,3470001019353,新規,0,2022-11-28,2022-11-28,児島産業株式会社,,株式会社,香川県,善通寺市,中村町２０９５番地,,37,204,7650073,,,,,,,2022-11-28,1,,,,,コジマサンギョウ,0
739,3470003002290,新規,0,2022-11-28,2022-11-28,合同会社カラクサ,,合同会社,香川県,丸亀市,土器町西１丁目５４０番地３,,37,202,7630081,,,,,,,2022-11-28,1,,,,,カラクサ,0
741,3490001010343,新規,0,2022-11-28,2022-11-28,株式会社スウィング不動産,,株式会社,高知県,高知市,中万々７０番地２４,,39,201,7800972,,,,,,,2022-11-28,1,,,,,スウィングフドウサン,0
749,4010003039155,新規,0,2022-11-28,2022-11-28,合同会社ＲＩＳＥ,,合同会社,東京都,中央区,銀座１丁目１２番４号,,13,102,1040061,,,,,,,2022-11-28,1,,,,,ライズ,0
756,4010401171014,新規,0,2022-11-28,2022-11-28,株式会社夜の鶴,,株式会社,東京都,港区,西麻布４丁目１６番７号,,13,103,1060031,,,,,,,2022-11-28,1,,,,,ヨルノツル,0
759,4010405021603,新規,0,2022-11-28,2022-11-28,一般社団法人ティーンエイジャービジネス協会,,その他の設立登記法人,東京都,港区,高輪３丁目２５－２２高輪カネオビル８Ｆ,,13,103,1080074,,,,,,,2022-11-28,1,,,,,ティーンエイジャービジネスキョウカイ,0
784,4011001151133,新規,0,2022-11-28,2022-11-28,株式会社アライエ,,株式会社,東京都,渋谷区,代々木２丁目２３番１号,,13,113,1510053,,,,,,,2022-11-28,1,,,,,アライエ,0
785,4011001151141,新規,0,2022-11-28,2022-11-28,株式会社Ｘ‐ｐｏｉｎｔ,,株式会社,東京都,渋谷区,神宮前５丁目２５番４号,,13,113,1500001,,,,,,,2022-11-28,1,,,,,エックスポイント,0
786,4011001151174,新規,0,2022-11-28,2022-11-28,株式会社スミレ,,株式会社,東京都,渋谷区,千駄ヶ谷４丁目２７番１号,,13,113,1510051,,,,,,,2022-11-28,1,,,,,スミレ,0
791,4011003015781,新規,0,2022-11-28,2022-11-28,ＣＨＩＫＹＯ合同会社,,合同会社,東京都,渋谷区,宇田川町１番１２,,13,113,1500042,,,,,,,2022-11-28,1,,,,,チキョウ,0
792,4011101100964,新規,0,2022-11-28,2022-11-28,株式会社ＳｏｕｌＳｕｒｆｅｒｓ,,株式会社,東京都,新宿区,西新宿８丁目１番２号ＰＭＯ西新宿１１階,,13,104,1600023,,,,,,,2022-11-28,1,,,,,ソウルサーファーズ,0
793,4011101100989,新規,0,2022-11-28,2022-11-28,株式会社Ａｓｕ　Ｃｏｍｍｕｎｉｃａｔｉｏｎｓ,,株式会社,東京都,新宿区,高田馬場４丁目４０番１１号ユニゾ高田馬場看山ビル１０Ｆ,,13,104,1690075,,,,,,,2022-11-28,1,,,,,アスコミュニケーションズ,0
803,4011801041590,新規,0,2022-11-28,2022-11-28,サンゴ株式会社,,株式会社,東京都,足立区,西新井本町４丁目２番１０－３０３号,,13,121,1230845,,,,,,,2022-11-28,1,,,,,サンゴ,0
804,4011801041599,新規,0,2022-11-28,2022-11-28,株式会社高津経営サポート,00128601,株式会社,東京都,葛飾区,新小岩３丁目５番５号,,13,122,1240024,,,,,,,2022-11-28,1,,,,,タカツケイエイサポート,0
821,4020001149129,新規,0,2022-11-28,2022-11-28,株式会社ＩｒｉｄｅｓｃｅｎｔＣｌｏｕｄ,,株式会社,神奈川県,横浜市神奈川区,七島町２５番地１９号,,14,102,2210061,,,,,,,2022-11-28,1,,,,,イリデセントクラウド,0
822,4020001149137,新規,0,2022-11-28,2022-11-28,株式会社トリプルマスター,,株式会社,神奈川県,川崎市川崎区,榎町１番１７号,,14,131,2100002,,,,,,,2022-11-28,1,,,,,トリプルマスター,0
823,4020001149153,新規,0,2022-11-28,2022-11-28,株式会社コクアジュール,,株式会社,神奈川県,横浜市南区,大岡３丁目２７番１７号,,14,105,2320061,,,,,,,2022-11-28,1,,,,,コクアジュール,0
824,4020001149178,新規,0,2022-11-28,2022-11-28,株式会社しみずホールディングス,,株式会社,神奈川県,横浜市神奈川区,西寺尾１丁目２０番１２号,,14,102,2210001,,,,,,,2022-11-28,1,,,,,シミズホールディングス,0
832,4021001077534,新規,0,2022-11-28,2022-11-28,うえると株式会社,,株式会社,神奈川県,厚木市,鳶尾４丁目１番１２号,,14,212,2430204,,,,,,,2022-11-28,1,,,,,ウエルト,0
843,4030005021076,新規,0,2022-11-28,2022-11-28,医療法人相友会,,その他の設立登記法人,埼玉県,志木市,柏町１丁目６番７４号１階,,11,228,3530007,,,,,,,2022-11-28,1,,,,,ソウユウカイ,0
845,4040001125994,新規,0,2022-11-28,2022-11-28,株式会社ネオハル,,株式会社,千葉県,柏市,旭町８丁目４番１８号,,12,217,2770852,,,,,,,2022-11-28,1,,,,,ネオハル,0
846,4040001126010,新規,0,2022-11-28,2022-11-28,株式会社ＰＥＡＣＨ,,株式会社,千葉県,市原市,ちはら台西１丁目８番地３クレストちはら台東棟１０２,,12,219,2900143,,,,,,,2022-11-28,1,,,,,ピーチ,0
847,4040003021358,新規,0,2022-11-28,2022-11-28,合同会社喜笑天潔,,合同会社,千葉県,船橋市,本町６丁目１８番１９号第３山中ビル４０１号室,,12,204,2730005,,,,,,,2022-11-28,1,,,,,キショウテンケツ,0
849,4050003007050,新規,0,2022-11-28,2022-11-28,合同会社ＳＫＡＮコーポレーション,,合同会社,茨城県,つくば市,金田１１０番地,,08,220,3050018,,,,,,,2022-11-28,1,,,,,エスケイエイエヌコーポレーション,0
857,4090001017865,新規,0,2022-11-28,2022-11-28,株式会社ジョインズ,,株式会社,山梨県,中巨摩郡昭和町,清水新居２９２番地オークラタウン１０３,,19,384,4093867,,,,,,,2022-11-28,1,,,,,ジョインズ,0
858,4090003002205,新規,0,2022-11-28,2022-11-28,Ｌｕａｎａ合同会社,,合同会社,山梨県,甲府市,大里町３５５９番地４,,19,201,4000053,,,,,,,2022-11-28,1,,,,,ルアナ,0
860,4100001035881,新規,0,2022-11-28,2022-11-28,ＫＰＪテクノスチール株式会社,,株式会社,長野県,中野市,小舘２番３１号,,20,211,3830023,,,,,,,2022-11-28,1,,,,,ケーピージェイテクノスチール,0
861,4100001035907,新規,0,2022-11-28,2022-11-28,株式会社豊後建設,,株式会社,長野県,上伊那郡南箕輪村,４２３３番地１,,20,385,3994511,,,,,,,2022-11-28,1,,,,,ブンゴケンセツ,0
862,4110001037134,新規,0,2022-11-28,2022-11-28,株式会社レイメイコーポレーション,,株式会社,新潟県,新潟市中央区,西堀通５番町８５５番地５フロンティア古町３Ｆ－Ｂ,,15,103,9518061,,,,,,,2022-11-28,1,,,,,レイメイコーポレーション,0
873,4120001250537,新規,0,2022-11-28,2022-11-28,イノエレクトロニクス株式会社,,株式会社,大阪府,大阪市東淀川区,東淡路１丁目５番５１号エバーレＢ－１,,27,114,5330023,,,,,,,2022-11-28,1,,,,,イノエレクトロニクス,0
874,4120001250545,新規,0,2022-11-28,2022-11-28,株式会社Ｐｏｌｅｓｔａｒ,,株式会社,大阪府,大阪市中央区,日本橋１丁目１８番１号日本一会舘４０１号,,27,128,5420073,,,,,,,2022-11-28,1,,,,,ポールスター,0
875,4120001250553,新規,0,2022-11-28,2022-11-28,株式会社ソラエ,,株式会社,大阪府,大阪市平野区,平野東３丁目５番２３号,,27,126,5470043,,,,,,,2022-11-28,1,,,,,ソラエ,0
876,4120001250578,新規,0,2022-11-28,2022-11-28,株式会社ＤＮＡ,,株式会社,大阪府,大阪市北区,曾根崎１丁目７番２０号,,27,127,5300057,,,,,,,2022-11-28,1,,,,,ディーエヌエー,0
877,4120003022934,新規,0,2022-11-28,2022-11-28,福山興業合同会社,,合同会社,大阪府,大阪市福島区,福島１丁目５番３号,,27,103,5530003,,,,,,,2022-11-28,1,,,,,フクヤマコウギョウ,0
878,4120003022942,新規,0,2022-11-28,2022-11-28,ＫＴＨ　ＧＲＯＵＰ合同会社,,合同会社,大阪府,大阪市西区,千代崎１丁目２６－９コージ千代崎２０２号,,27,106,5500023,,,,,,,2022-11-28,1,,,,,ケイティーエイチグループ,0
883,4120101066585,新規,0,2022-11-28,2022-11-28,ＴＩＭ株式会社,,株式会社,大阪府,河内長野市,美加の台６丁目１番１２号,,27,216,5860044,,,,,,,2022-11-28,1,,,,,ティム,0
884,4120901046786,新規,0,2022-11-28,2022-11-28,株式会社ＮＥＷ　ＳＨＡＰＥ,,株式会社,大阪府,茨木市,西河原２丁目９番５号,,27,211,5670023,,,,,,,2022-11-28,1,,,,,ニューシェイプ,0
885,4120901046794,新規,0,2022-11-28,2022-11-28,株式会社丸石,,株式会社,大阪府,茨木市,北春日丘４丁目２番４３号,,27,211,5670048,,,,,,,2022-11-28,1,,,,,マルイシ,0
886,4120903004387,新規,0,2022-11-28,2022-11-28,合同会社陽だまり,,合同会社,大阪府,豊中市,夕日丘１丁目１番８号池田マンション４０７号,,27,203,5610864,,,,,,,2022-11-28,1,,,,,ヒダマリ,0
888,4122001036420,新規,0,2022-11-28,2022-11-28,株式会社ＢＩＧ,,株式会社,大阪府,八尾市,亀井町４丁目７番３８号,,27,212,5810065,,,,,,,2022-11-28,1,,,,,ビッグ,0
892,4130001073177,新規,0,2022-11-28,2022-11-28,株式会社ＭＭＢ,,株式会社,京都府,京都市北区,紫竹竹殿町９‐１０３,,26,101,6038417,,,,,,,2022-11-28,1,,,,,エムエムビー,0
897,4150003002818,新規,0,2022-11-28,2022-11-28,合同会社ケアサポートまえひら,,合同会社,奈良県,吉野郡天川村,大字川合３０６,,29,446,6380301,,,,,,,2022-11-28,1,,,,,ケアサポートマエヒラ,0
899,4180001018292,新規,0,2022-11-28,2022-11-28,株式会社豆心,,株式会社,愛知県,名古屋市東区,葵３丁目２３番１１号,,23,102,4610004,,,,,,,2022-11-28,1,,,,,トウシン,0
902,4180001153940,新規,0,2022-11-28,2022-11-28,株式会社グラスファウンド,,株式会社,愛知県,名古屋市名東区,にじが丘１丁目１番地の１,,23,115,4650078,,,,,,,2022-11-28,1,,,,,グラスファウンド,0
903,4180001153965,新規,0,2022-11-28,2022-11-28,愛知トヨタＷＥＳＴ株式会社,,株式会社,愛知県,名古屋市昭和区,高辻町６番８号,00128594,23,107,4660057,,,,,,,2022-11-28,1,,,,,アイチトヨタウエスト,0
905,4180301036853,新規,0,2022-11-28,2022-11-28,株式会社オフィス未来,,株式会社,愛知県,豊田市,伊保町向山４６番地２４,,23,211,4700374,,,,,,,2022-11-28,1,,,,,オフィスミライ,0
908,4200001040698,新規,0,2022-11-28,2022-11-28,Ａ・Ｐ・Ｉ・Ｍ株式会社,,株式会社,岐阜県,恵那市,長島町正家１０６７番地５６,,21,210,5097203,,,,,,,2022-11-28,1,,,,,エーピーアイエム,0
911,4240001060692,新規,0,2022-11-28,2022-11-28,株式会社トータル,,株式会社,広島県,福山市,元町１３番９号,,34,207,7200063,,,,,,,2022-11-28,1,,,,,トータル,0
914,4260001037441,新規,0,2022-11-28,2022-11-28,Ｐｅａｃｈｃｅ株式会社,,株式会社,岡山県,岡山市中区,御成町４番１３号,,33,102,7038277,,,,,,,2022-11-28,1,,,,,ピーチス,0
920,4290001099693,新規,0,2022-11-28,2022-11-28,株式会社ＲＮＳ,,株式会社,福岡県,福岡市中央区,薬院４丁目３番１２号薬院ホワイトビル１階,,40,133,8100022,,,,,,,2022-11-28,1,,,,,アールエヌエス,0
921,4290001099710,新規,0,2022-11-28,2022-11-28,株式会社ＨｕｍＬＡＢ,,株式会社,福岡県,福岡市南区,的場１丁目２８番１号,,40,134,8111314,,,,,,,2022-11-28,1,,,,,ハムラボ,0
922,4290001099719,新規,0,2022-11-28,2022-11-28,アーテックス株式会社,,株式会社,福岡県,福岡市西区,野方２丁目２４番１６号,,40,135,8190043,,,,,,,2022-11-28,1,,,,,アーテックス,0
933,4330001030331,新規,0,2022-11-28,2022-11-28,株式会社ＩＲＩＡ,,株式会社,熊本県,熊本市中央区,花畑町１３番２３号花畑ビル５Ｆ,,43,101,8600806,,,,,,,2022-11-28,1,,,,,イリア,0
939,4340005009528,新規,0,2022-11-28,2022-11-28,特定非営利活動法人こどんとの未来,,その他の設立登記法人,鹿児島県,鹿児島市,下伊敷３丁目６９番７号,,46,201,8900005,,,,,,,2022-11-28,1,,,,,,0
944,4360003012473,新規,0,2022-11-28,2022-11-28,合同会社Ｈａｐｐｉｎｅｓｓ　Ｊａｐａｎ,,合同会社,沖縄県,沖縄市,泡瀬６丁目１番１８号ハッピーハウス２０２,,47,211,9042172,,,,,,,2022-11-28,1,,,,,ハピネスジャパン,0
949,4370001049293,新規,0,2022-11-28,2022-11-28,株式会社ケイエム空調,,株式会社,宮城県,刈田郡蔵王町,遠刈田温泉字七日原３８０番地,,04,301,9890916,,,,,,,2022-11-28,1,,,,,ケイエムクウチョウ,0
976,4430003014495,新規,0,2022-11-28,2022-11-28,物販貿易合同会社,,合同会社,北海道,札幌市中央区,南一条西２６丁目１番８－１１０２号,,01,101,0640801,,,,,,,2022-11-28,1,,,,,ブッパンボウエキ,0
979,4460101007282,新規,0,2022-11-28,2022-11-28,ログオーバー株式会社,,株式会社,北海道,広尾郡広尾町,紅葉通北１丁目４番地７,,01,642,0892635,,,,,,,2022-11-28,1,,,,,ログオーバー,0
981,4470001019352,新規,0,2022-11-28,2022-11-28,小豆島オリーブカンパニー株式会社,,株式会社,香川県,小豆郡小豆島町,池田４６８４番地１,,37,324,7614301,,,,,,,2022-11-28,1,,,,,ショウドシマオリーブカンパニー,0
984,4500003002922,新規,0,2022-11-28,2022-11-28,合同会社ＫＷ‐Ｔｒａｎｓｐｏｒｔ,,合同会社,愛媛県,松山市,溝辺町甲１２２番地８,00128595,38,201,7910101,,,,,,,2022-11-28,1,,,,,ケーダブリュートランスポート,0
992,5010001231118,新規,0,2022-11-28,2022-11-28,株式会社メヴィリエ,,株式会社,東京都,中央区,京橋２丁目２番１号京橋エドグラン２６階,,13,102,1040031,,,,,,,2022-11-28,1,,,,,メヴィリエ,0
995,5010003039162,新規,0,2022-11-28,2022-11-28,合同会社承文,,合同会社,東京都,中央区,湊２丁目１１－１シティータワー銀座東２０１,,13,102,1040043,,,,,,,2022-11-28,1,,,,,ショウブン,0
999,5010401171005,新規,0,2022-11-28,2022-11-28,株式会社ミライオ,,株式会社,東京都,港区,赤坂１丁目１番１７号,,13,103,1070052,,,,,,,2022-11-28,1,,,,,ミライオ,0
1000,5010401171013,新規,0,2022-11-28,2022-11-28,株式会社ＤＩＸＩＤ,,株式会社,東京都,港区,南青山３丁目１番３６号青山丸竹ビル６Ｆ,,13,103,1070062,,,,,,,2022-11-28,1,,,,,ディクシード,0
1001,5010401171021,新規,0,2022-11-28,2022-11-28,ａｒｔｉｓａｎｓ株式会社,,株式会社,東京都,港区,芝浦１丁目１３番１０号第３東運ビル８階Ｒｏｏｍ０８,,13,103,1050023,,,,,,,2022-11-28,1,,,,,アーチサンズ,0
1002,5010401171062,新規,0,2022-11-28,2022-11-28,株式会社恵比寿,,株式会社,東京都,港区,芝２丁目１０番６号ＥＡＲＴＨＳＨＩＢＡＢＬＤ．３Ｆ,,13,103,1050014,,,,,,,2022-11-28,1,,,,,エビス,0
1016,5010803004365,新規,0,2022-11-28,2022-11-28,５ＳＴＡＲ　ＳＴＲＥＡＭ合同会社,,合同会社,東京都,大田区,田園調布本町２０番３号,,13,111,1450072,,,,,,,2022-11-28,1,,,,,ファイブスターストリーム,0
1024,5011001151140,新規,0,2022-11-28,2022-11-28,株式会社オフィス３２３,,株式会社,東京都,渋谷区,西原３丁目２３番４号,,13,113,1510066,,,,,,,2022-11-28,1,,,,,オフィスサンニイサン,0
1025,5011001151149,新規,0,2022-11-28,2022-11-28,株式会社いなかの洗車屋さん,,株式会社,東京都,目黒区,自由が丘２丁目１６番１２号ＬＣ１Ｆ,,13,110,1520035,,,,,,,2022-11-28,1,,,,,イナカノセンシャヤサン,0
1026,5011001151173,新規,0,2022-11-28,2022-11-28,Ｔｏｏｎ　Ｐｏｒｔａｌ株式会社,,株式会社,東京都,渋谷区,渋谷２丁目１２番９号,,13,113,1500002,,,,,,,2022-11-28,1,,,,,トゥーンポータル,0
1028,5011003015780,新規,0,2022-11-28,2022-11-28,ブルーブルーム合同会社,,合同会社,東京都,渋谷区,渋谷２丁目１９－１５宮益坂ビルディング６０９,,13,113,1500002,,,,,,,2022-11-28,1,,,,,ブルーブルーム,0
1029,5011003015797,新規,0,2022-11-28,2022-11-28,ＴＫＭ小白井太陽光発電所合同会社,,合同会社,東京都,渋谷区,恵比寿西２丁目６番２号,,13,113,1500021,,,,,,,2022-11-28,1,,,,,ティーケーエムコジロイタイヨウコウハツデンショ,0
1035,5011101100939,新規,0,2022-11-28,2022-11-28,株式会社０２スタジオ,,株式会社,東京都,新宿区,西新宿１丁目４－１１全研プラザＳＰＡＣＥＳ新宿,,13,104,1600023,,,,,,,2022-11-28,1,,,,,ゼロツースタジオ,0
1036,5011101100971,新規,0,2022-11-28,2022-11-28,株式会社ＦＡＮＴＯＷＮ,,株式会社,東京都,新宿区,西新宿４丁目３５番１７号長谷川ビル２０２,,13,104,1600023,,,,,,,2022-11-28,1,,,,,ファンタウン,0
1037,5011101100988,新規,0,2022-11-28,2022-11-28,株式会社ゼットランド,,株式会社,東京都,新宿区,富久町１５番１－３８０４号,,13,104,1620067,,,,,,,2022-11-28,1,,,,,ゼットランド,0
1039,5011105010481,新規,0,2022-11-28,2022-11-28,一般社団法人アメニティ・リサイクル協会,,その他の設立登記法人,東京都,新宿区,西新宿１丁目２６番２号,,13,104,1600023,,,,,,,2022-11-28,1,,,,,アメニティリサイクルキョウカイ,0
1043,5011601026403,新規,0,2022-11-28,2022-11-28,株式会社ＴＹＤＥ,,株式会社,東京都,練馬区,南田中３丁目８番２５号レーヴ南田中１０１号室,,13,120,1770035,,,,,,,2022-11-28,1,,,,,タイド,0
1051,5012401039891,新規,0,2022-11-28,2022-11-28,株式会社オモカミ,,株式会社,東京都,狛江市,岩戸南２丁目６番１９号,,13,219,2010005,,,,,,,2022-11-28,1,,,,,オモカミ,0
1052,5012403005702,新規,0,2022-11-28,2022-11-28,合同会社サクラット,,合同会社,東京都,調布市,上石原１丁目３１番地４２,,13,208,1820035,,,,,,,2022-11-28,1,,,,,サクラット,0
1065,5020001149061,新規,0,2022-11-28,2022-11-28,ＰｌａｙｆｕｌＧｒｏｕｐ株式会社,,株式会社,神奈川県,横浜市西区,みなとみらい５丁目３番１－Ｏ－２５０１号,,14,103,2200012,,,,,,,2022-11-28,1,,,,,プレイフルグループ,0
1067,5020001149136,新規,0,2022-11-28,2022-11-28,ラポール設計株式会社,,株式会社,神奈川県,横浜市西区,北幸２丁目１０－２８むつみビル３Ｆ,,14,103,2200004,,,,,,,2022-11-28,1,,,,,ラポールセッケイ,0
1068,5020001149152,新規,0,2022-11-28,2022-11-28,株式会社須藤測量事務所,,株式会社,神奈川県,横浜市神奈川区,鶴屋町１丁目７番地１２,,14,102,2210835,,,,,,,2022-11-28,1,,,,,スドウソクリョウジムショ,0
1069,5020001149160,新規,0,2022-11-28,2022-11-28,株式会社上勝土木,,株式会社,神奈川県,川崎市多摩区,長尾７丁目２６番３－１号,,14,135,2140023,,,,,,,2022-11-28,1,,,,,カミショウドボク,0
1070,5020001149169,新規,0,2022-11-28,2022-11-28,株式会社ランプスタジオアンバイ,,株式会社,神奈川県,横浜市港北区,綱島東６丁目９－２０ＨＣ綱島１Ｆ,,14,109,2230052,,,,,,,2022-11-28,1,,,,,ランプスタジオアンバイ,0
1071,5020001149177,新規,0,2022-11-28,2022-11-28,株式会社サージカル・ラボ,,株式会社,神奈川県,横浜市南区,浦舟町４丁目５７番地横浜市立大学附属市民総合医療センター,,14,105,2320024,,,,,,,2022-11-28,1,,,,,サージカルラボ,0
1081,5020003022803,新規,0,2022-11-28,2022-11-28,合同会社ＫＭＲ,,合同会社,神奈川県,横浜市港北区,日吉２丁目２７番１－２１０号,,14,109,2230061,,,,,,,2022-11-28,1,,,,,ケーエムアール,0
1084,5021001077533,新規,0,2022-11-28,2022-11-28,株式会社Ｐｕｎｋｓ,,株式会社,神奈川県,茅ヶ崎市,東海岸北３丁目６番４２号ＪＥＴＴＥＲＲＡＣＥ２０３号,,14,207,2530053,,,,,,,2022-11-28,1,,,,,パンクス,0
1090,5030001151248,新規,0,2022-11-28,2022-11-28,株式会社永寿警備,,株式会社,埼玉県,川口市,南鳩ヶ谷２丁目１３番７号,,11,203,3340013,,,,,,,2022-11-28,1,,,,,エイジュケイビ,0
1094,5040001126018,新規,0,2022-11-28,2022-11-28,株式会社アドヴァン,,株式会社,千葉県,八千代市,萱田町５９３番地３３,,12,221,2760044,,,,,,,2022-11-28,1,,,,,アドヴァン,0
1095,5040001126026,新規,0,2022-11-28,2022-11-28,株式会社ＤＡＩＫＥＮ,,株式会社,千葉県,習志野市,実籾５丁目２１番６号,,12,216,2750002,,,,,,,2022-11-28,1,,,,,ダイケン,0
1099,5040003021349,新規,0,2022-11-28,2022-11-28,合同会社ＤＡＭｃｒｅａｔｅ,,合同会社,千葉県,習志野市,屋敷３丁目１３番２２号,,12,216,2750004,,,,,,,2022-11-28,1,,,,,ディーエーエムクリエイト,0
1103,5050001052023,新規,0,2022-11-28,2022-11-28,株式会社Ｋｉｉｉ,,株式会社,茨城県,牛久市,南５丁目４６番地２１,,08,219,3001222,,,,,,,2022-11-28,1,,,,,キー,0
1106,5060001035472,新規,0,2022-11-28,2022-11-28,株式会社昇永,,株式会社,栃木県,宇都宮市,雀の宮５丁目６番２８号,,09,201,3210132,,,,,,,2022-11-28,1,,,,,ショウエイ,0
1107,5060001035480,新規,0,2022-11-28,2022-11-28,リバブトレーディング株式会社,,株式会社,栃木県,足利市,大前町９３０番地,,09,202,3260845,,,,,,,2022-11-28,1,,,,,リバブトレーディング,0
1110,5060003004319,新規,0,2022-11-28,2022-11-28,合同会社ミライエ計画室,,合同会社,栃木県,那須塩原市,鍋掛１０８８番地１５２,,09,213,3250013,,,,,,,2022-11-28,1,,,,,ミライエケイカクシツ,0
1111,5080001025315,新規,0,2022-11-28,2022-11-28,株式会社ＧＳ,,株式会社,静岡県,島田市,大代１５４番地の１,,22,209,4280009,,,,,,,2022-11-28,1,,,,,ジーエス,0
1116,5090003002204,新規,0,2022-11-28,2022-11-28,ＳＳＳ　ＪＡＰＡＮ合同会社,,合同会社,山梨県,都留市,朝日馬場８０２－１,,19,204,4020014,,,,,,,2022-11-28,1,,,,,エスエスエスジャパン,0
1117,5100001035906,新規,0,2022-11-28,2022-11-28,都築コーポレーション株式会社,,株式会社,長野県,伊那市,日影６２４番地,,20,209,3960009,,,,,,,2022-11-28,1,,,,,ツヅキコーポレーション,0
1122,5110001037133,新規,0,2022-11-28,2022-11-28,ロジワークス株式会社,,株式会社,新潟県,新潟市中央区,山二ツ１丁目１５番１２号,,15,103,9500922,,,,,,,2022-11-28,1,,,,,ロジワークス,0
1134,5120005023310,新規,0,2022-11-28,2022-11-28,一般社団法人日本おんぶセラピー協会,,その他の設立登記法人,大阪府,大阪市淀川区,宮原３丁目５番２４号新大阪第一生命ビル,,27,123,5320003,,,,,,,2022-11-28,1,,,,,ニホンオンブセラピーキョウカイ,0
1137,5120101066576,新規,0,2022-11-28,2022-11-28,株式会社ワカ,,株式会社,大阪府,羽曳野市,高鷲３丁目１１番３号,,27,222,5830882,,,,,,,2022-11-28,1,,,,,ワカ,0
1138,5120101066584,新規,0,2022-11-28,2022-11-28,株式会社ＴＳＭＧ,,株式会社,大阪府,松原市,上田５丁目１２番３３号,,27,217,5800016,,,,,,,2022-11-28,1,,,,,ティエスエムジー,0
1140,5120103004939,新規,0,2022-11-28,2022-11-28,合同会社エンネ,,合同会社,大阪府,堺市美原区,小平尾１２４番地９,,27,147,5870021,,,,,,,2022-11-28,1,,,,,エンネ,0
1141,5120901046785,新規,0,2022-11-28,2022-11-28,株式会社岡田建設,,株式会社,大阪府,茨木市,下穂積３丁目８番３０号,,27,211,5670041,,,,,,,2022-11-28,1,,,,,オカダケンセツ,0
1142,5120901046793,新規,0,2022-11-28,2022-11-28,株式会社関西ビルド,,株式会社,大阪府,茨木市,野々宮２丁目１６番３３－８号,,27,211,5670847,,,,,,,2022-11-28,1,,,,,カンサイビルド,0
1143,5122001036394,新規,0,2022-11-28,2022-11-28,トミヤマ株式会社,,株式会社,大阪府,東大阪市,東石切町１丁目８番１１号,,27,227,5798011,,,,,,,2022-11-28,1,,,,,トミヤマ,0
1148,5140001128169,新規,0,2022-11-28,2022-11-28,株式会社匠建工,,株式会社,兵庫県,洲本市,納３２２番地１４,,28,205,6560101,,,,,,,2022-11-28,1,,,,,タクミケンコウ,0
1152,5140003018401,新規,0,2022-11-28,2022-11-28,合同会社まねき・マイスター工房八千代,,合同会社,兵庫県,姫路市,北条９５３番地,,28,201,6700947,,,,,,,2022-11-28,1,,,,,マネキマイスターコウボウヤチヨ,0
1157,5180001153956,新規,0,2022-11-28,2022-11-28,株式会社フロントドア,,株式会社,愛知県,名古屋市千種区,内山町一丁目５番２８号第二川島ビル３０２号,,23,101,4640000,,,,,,,2022-11-28,1,,,,,フロントドア,0
1158,5180001153964,新規,0,2022-11-28,2022-11-28,株式会社ヨリソッテ,,株式会社,愛知県,一宮市,大赤見字市場東屋敷１番地２３,,23,203,4910015,,,,,,,2022-11-28,1,,,,,ヨリソッテ,0
1159,5180001153972,新規,0,2022-11-28,2022-11-28,株式会社ブレインハウス,,株式会社,愛知県,名古屋市中村区,太閤５丁目８番１９号,,23,105,4530801,,,,,,,2022-11-28,1,,,,,ブレインハウス,0
1164,5180301036852,新規,0,2022-11-28,2022-11-28,豊田喜多町ボックスオフィス株式会社,,株式会社,愛知県,豊田市,喜多町２丁目１７０番地,,23,211,4710027,,,,,,,2022-11-28,1,,,,,トヨタキタマチボックスオフィス,0
1166,5190001029957,新規,0,2022-11-28,2022-11-28,株式会社スズカトレーディング,,株式会社,三重県,鈴鹿市,山本町字東野１０番２,,24,207,5190315,,,,,,,2022-11-28,1,,,,,スズカトレーディング,0
1169,5200001040697,新規,0,2022-11-28,2022-11-28,株式会社ＴＳ測定,,株式会社,岐阜県,恵那市,長島町中野１２５１番地２３,,21,210,5097205,,,,,,,2022-11-28,1,,,,,ティエスソクテイ,0
1178,5240001060709,新規,0,2022-11-28,2022-11-28,株式会社エムズ,,株式会社,広島県,広島市南区,翠５丁目１０番１６号,,34,103,7340005,,,,,,,2022-11-28,1,,,,,エムズ,0
1182,5250001019860,新規,0,2022-11-28,2022-11-28,三輪農園株式会社,,株式会社,山口県,山口市,名田島１５９７番地,,35,203,7540892,,,,,,,2022-11-28,1,,,,,ミワノウエン,0
1183,5250005008785,新規,0,2022-11-28,2022-11-28,農事組合法人石松牧場,,その他の設立登記法人,山口県,下関市,豊北町大字田耕５３３４番地１,,35,201,7595512,,,,,,,2022-11-28,1,,,,,イシマツボクジョウ,0
1188,5270001008671,新規,0,2022-11-28,2022-11-28,株式会社技光,,株式会社,鳥取県,鳥取市,福部町細川１６番地１１,,31,201,6890102,,,,,,,2022-11-28,1,,,,,ギコウ,0
1190,5270005005533,新規,0,2022-11-28,2022-11-28,農事組合法人アグリファーム・ホクシン,,その他の設立登記法人,鳥取県,鳥取市,湖山町西１丁目１０５番地９－６号,,31,201,6800947,,,,,,,2022-11-28,1,,,,,アグリファームホクシン,0
1191,5290001048856,新規,0,2022-11-28,2022-11-28,三光産業株式会社,,株式会社,福岡県,久留米市,東町３０番地の１９,,40,203,8300032,,,,,,,2022-11-28,1,,,,,サンコウサンギョウ,0
1194,5290001099701,新規,0,2022-11-28,2022-11-28,ｋａｓｈｉｗａｇｉ株式会社,,株式会社,福岡県,福岡市博多区,東雲町３丁目４－１６－３０２号,,40,132,8120871,,,,,,,2022-11-28,1,,,,,カシワギ,0
1195,5290001099726,新規,0,2022-11-28,2022-11-28,株式会社ｎｄ．,,株式会社,福岡県,福岡市中央区,赤坂３丁目４番２２－９０６号,,40,133,8100042,,,,,,,2022-11-28,1,,,,,エヌディドット,0
1200,5290003013247,新規,0,2022-11-28,2022-11-28,合同会社ロアラナ,,合同会社,福岡県,福岡市西区,姪の浜２丁目３番１１－７０８号,,40,135,8190002,,,,,,,2022-11-28,1,,,,,ロアラナ,0
1201,5290801029080,新規,0,2022-11-28,2022-11-28,株式会社地に立つ蝶,,株式会社,福岡県,北九州市八幡西区,本城東４丁目５番２４号,,40,109,8070815,,,,,,,2022-11-28,1,,,,,チニタツチョウ,0
1204,5310005008647,新規,0,2022-11-28,2022-11-28,一般社団法人いちばん星,,その他の設立登記法人,長崎県,佐世保市,日宇町２７３６番６－１３,,42,202,8571151,,,,,,,2022-11-28,1,,,,,イチバンボシ,0
1209,5360003012497,新規,0,2022-11-28,2022-11-28,合同会社ＩＳＴ,,合同会社,沖縄県,那覇市,久茂地２丁目１４番１９号ライブリー久茂地６－Ｂ,,47,201,9000015,,,,,,,2022-11-28,1,,,,,アイエスティー,0
1238,5470003002289,新規,0,2022-11-28,2022-11-28,合同会社小豆島フロント,,合同会社,香川県,小豆郡土庄町,淵崎甲２２３６番地６,,37,322,7614121,,,,,,,2022-11-28,1,,,,,ショウドシマフロント,0
1240,5500005008537,新規,0,2022-11-28,2022-11-28,一般社団法人みらい,,その他の設立登記法人,愛媛県,東温市,田窪２２３２番地２０,,38,215,7910212,,,,,,,2022-11-28,1,,,,,,0
1246,6010001231067,新規,0,2022-11-28,2022-11-28,株式会社美彩,,株式会社,東京都,中央区,勝どき６丁目３番２－１６０１号,,13,102,1040054,,,,,,,2022-11-28,1,,,,,ビサイ,0
1247,6010001231125,新規,0,2022-11-28,2022-11-28,株式会社ネオス,,株式会社,東京都,千代田区,内神田３丁目５番３号,,13,101,1010047,,,,,,,2022-11-28,1,,,,,ネオス,0
1269,6010403028945,新規,0,2022-11-28,2022-11-28,ＴＲＩ合同会社,,合同会社,東京都,港区,芝４丁目１６番２－１８０２号,,13,103,1080014,,,,,,,2022-11-28,1,,,,,ティーアールアイ,0
1270,6010403028986,新規,0,2022-11-28,2022-11-28,Ｍｉｎａｔｏ　Ｂａｙ　Ｐｒｏｐｅｒｔｙ　Ｍａｎａｇｅｍｅｎｔ合同会社,,合同会社,東京都,港区,六本木１丁目９番１０号アークヒルズ仙石山森タワー２８階ベーカー＆マッケンジー法律事務所（外国法共同事業）内,,13,103,1060032,,,,,,,2022-11-28,1,,,,,ミナトベイプロパティマネジメント,0
1276,6010603009860,新規,0,2022-11-28,2022-11-28,ｍｕｓｈ　ａｎｄ合同会社,,合同会社,東京都,墨田区,向島５丁目１５－１０－３０５,,13,107,1310033,,,,,,,2022-11-28,1,,,,,マッシュアンド,0
1277,6010701043522,新規,0,2022-11-28,2022-11-28,ｍｏｔｙ株式会社,,株式会社,東京都,品川区,大崎１丁目２０番１５号エステムプラザ品川大崎駅前レジデンシャル１００６,,13,109,1410032,,,,,,,2022-11-28,1,,,,,モティ,0
1283,6010901052034,新規,0,2022-11-28,2022-11-28,株式会社Ｍｒ．Ｂａｎａｎａ,,株式会社,東京都,世田谷区,下馬３丁目５番１７号,,13,112,1540002,,,,,,,2022-11-28,1,,,,,ミスターバナナ,0
1284,6010901052042,新規,0,2022-11-28,2022-11-28,株式会社エムツーエフコーポレーション,,株式会社,東京都,世田谷区,代田２丁目２９番８号,,13,112,1550033,,,,,,,2022-11-28,1,,,,,エムツーエフコーポレーション,0
1293,6011003015788,新規,0,2022-11-28,2022-11-28,合同会社Ｄｅａｒ　Ｔｅａｍ,,合同会社,東京都,渋谷区,渋谷２丁目７番１４号ＶＯＲＴＡＯＹＡＭＡ３０２,,13,113,1500002,,,,,,,2022-11-28,1,,,,,ディアチーム,0
1294,6011003015796,新規,0,2022-11-28,2022-11-28,合同会社アクルカール,,合同会社,東京都,渋谷区,神宮前６丁目２３番地４号桑野ビル２Ｆ,,13,113,1500001,,,,,,,2022-11-28,1,,,,,アクルカール,0
1306,6011601026336,新規,0,2022-11-28,2022-11-28,株式会社Ｒｅｇｕｌａｒ,,株式会社,東京都,練馬区,東大泉３丁目４番９号,,13,120,1780063,,,,,,,2022-11-28,1,,,,,レギュラー,0
1309,6011803005402,新規,0,2022-11-28,2022-11-28,Ｌ．Ｃ合同会社,,合同会社,東京都,足立区,新田３丁目１１番１４－１０１号室,,13,121,1230865,,,,,,,2022-11-28,1,,,,,エルシー,0
1310,6012403005701,新規,0,2022-11-28,2022-11-28,合同会社ｉｔａｄａｋｉｍａｓｕ,,合同会社,東京都,調布市,布田２丁目２２番地６,,13,208,1820024,,,,,,,2022-11-28,1,,,,,イタダキマス,0
1311,6012801021985,新規,0,2022-11-28,2022-11-28,株式会社ブルームシード,,株式会社,東京都,立川市,一番町６丁目１７番地の１１５,,13,202,1900033,,,,,,,2022-11-28,1,,,,,ブルームシード,0
1323,6020001149143,新規,0,2022-11-28,2022-11-28,株式会社Ｒ．Ｈ．Ｔ,,株式会社,神奈川県,川崎市多摩区,菅北浦３丁目４番１０号,,14,135,2140008,,,,,,,2022-11-28,1,,,,,アールエイチティー,0
1324,6020001149151,新規,0,2022-11-28,2022-11-28,Ｈａｙａｓｈｉ　Ｐｌａｎｎｉｎｇ株式会社,,株式会社,神奈川県,横浜市旭区,柏町９３番地３,,14,112,2410835,,,,,,,2022-11-28,1,,,,,ハヤシプランニング,0
1325,6020001149176,新規,0,2022-11-28,2022-11-28,株式会社ベイシアン,,株式会社,神奈川県,川崎市宮前区,有馬３丁目１７番１０号,,14,136,2160003,,,,,,,2022-11-28,1,,,,,ベイシアン,0
1329,6021001077532,新規,0,2022-11-28,2022-11-28,株式会社Ａｎｏｎｙｍｏｕｓ　Ｄｅｓｉｇｎ,,株式会社,神奈川県,逗子市,沼間３丁目７番８号,,14,208,2490004,,,,,,,2022-11-28,1,,,,,アノニマスデザイン,0
1330,6021001077540,新規,0,2022-11-28,2022-11-28,株式会社アールエス,,株式会社,神奈川県,相模原市南区,磯部２２１番地１,,14,153,2520327,,,,,,,2022-11-28,1,,,,,アールエス,0
1335,6030001151214,新規,0,2022-11-28,2022-11-28,大新株式会社,,株式会社,埼玉県,越谷市,東大沢４丁目４－８コーポＤＯＮ１０２,,11,222,3430022,,,,,,,2022-11-28,1,,,,,ダイシン,0
1340,6040001125976,新規,0,2022-11-28,2022-11-28,株式会社Ｒｃｏｍｐａｎｙ,,株式会社,千葉県,千葉市稲毛区,緑町１丁目２３番１５号,,12,103,2630023,,,,,,,2022-11-28,1,,,,,アールカンパニー,0
1341,6040001126000,新規,0,2022-11-28,2022-11-28,株式会社Ｋ‐ＣＲＡＦＴ,,株式会社,千葉県,山武市,姫島１４７番地,,12,237,2891327,,,,,,,2022-11-28,1,,,,,ケークラフト,0
1342,6040001126009,新規,0,2022-11-28,2022-11-28,株式会社ＭＥＮＵＣＯＭＰＡＮＹ,,株式会社,千葉県,市原市,ちはら台西１丁目８番地３クレストちはら台東棟１０２,,12,219,2900143,,,,,,,2022-11-28,1,,,,,メニューカンパニー,0
1364,6090001017863,新規,0,2022-11-28,2022-11-28,株式会社ｅｌａｍａ,,株式会社,山梨県,甲府市,朝日５丁目５番１２号レジデンス浅川２０１,,19,201,4000025,,,,,,,2022-11-28,1,,,,,エラマ,0
1384,6120001250543,新規,0,2022-11-28,2022-11-28,株式会社馬一家,,株式会社,大阪府,大阪市城東区,蒲生３丁目１５番２０号,,27,118,5360016,,,,,,,2022-11-28,1,,,,,ウマイッカ,0
1385,6120001250568,新規,0,2022-11-28,2022-11-28,株式会社ＫＩＲＩＮＪＩ不動産,,株式会社,大阪府,大阪市淀川区,西中島３丁目８番１５号新大阪ビルディング１２階,,27,123,5320011,,,,,,,2022-11-28,1,,,,,キリンジフドウサン,0
1386,6120001250576,新規,0,2022-11-28,2022-11-28,株式会社瑞幸,,株式会社,大阪府,大阪市西成区,鶴見橋１丁目１０番１８号,,27,122,5570031,,,,,,,2022-11-28,1,,,,,ミユキ,0
1387,6120001250584,新規,0,2022-11-28,2022-11-28,株式会社アボラボ,,株式会社,大阪府,大阪市中央区,大手前１丁目６番４号,,27,128,5400008,,,,,,,2022-11-28,1,,,,,アボラボ,0
1391,6120003022940,新規,0,2022-11-28,2022-11-28,合同会社ＪＡＴＴＯ,,合同会社,大阪府,大阪市西成区,梅南１丁目６番１９号－１０３号室,,27,122,5570033,,,,,,,2022-11-28,1,,,,,ジャット,0
1396,6120105009646,新規,0,2022-11-28,2022-11-28,一般社団法人山羊農家ぴん座,,その他の設立登記法人,大阪府,南河内郡河南町,大字加納６４１番地,,27,382,5850012,,,,,,,2022-11-28,1,,,,,ヤギノウカピンザ,0
1399,6120901046776,新規,0,2022-11-28,2022-11-28,株式会社ｉｄ　ＢＡＳＥ,,株式会社,大阪府,茨木市,山手台４丁目２番８９号,,27,211,5670009,,,,,,,2022-11-28,1,,,,,アイディーベエス,0
1400,6120901046792,新規,0,2022-11-28,2022-11-28,株式会社ブリッジ２Ｕ,,株式会社,大阪府,高槻市,高垣町５２番１５号,,27,207,5690097,,,,,,,2022-11-28,1,,,,,ブリッジトゥーユー,0
1411,6150001025975,新規,0,2022-11-28,2022-11-28,株式会社こま虎,,株式会社,奈良県,奈良市,都祁友田町２１６番地,,29,201,6320246,,,,,,,2022-11-28,1,,,,,コマトラ,0
1416,6180001153963,新規,0,2022-11-28,2022-11-28,愛知トヨタＥＡＳＴ株式会社,,株式会社,愛知県,名古屋市昭和区,高辻町６番８号,00128593,23,107,4660057,,,,,,,2022-11-28,1,,,,,アイチトヨタイースト,0
1419,6180003024510,新規,0,2022-11-28,2022-11-28,合同会社Ｋ＆Ｆ工房,,合同会社,愛知県,名古屋市中村区,大秋町４丁目１４番地,,23,105,4530042,,,,,,,2022-11-28,1,,,,,ケーアンドエフコウボウ,0
1425,6190001029956,新規,0,2022-11-28,2022-11-28,スタートヒア株式会社,,株式会社,三重県,鈴鹿市,算所町１２８０番地,,24,207,5130805,,,,,,,2022-11-28,1,,,,,スタートヒア,0
1430,6200001040696,新規,0,2022-11-28,2022-11-28,株式会社ＯＨｚｅｙ,,株式会社,岐阜県,岐阜市,県町２丁目１２番地チサンマンション岐阜６０３号,,21,201,5008176,,,,,,,2022-11-28,1,,,,,オージー,0
1440,6240001060708,新規,0,2022-11-28,2022-11-28,株式会社Ｂｅｙｏｎｄ　Ｂｏｒｄｅｒｓ,,株式会社,広島県,福山市,丸之内２丁目８番１号,,34,207,7200061,,,,,,,2022-11-28,1,,,,,ビヨンドボーダーズ,0
1442,6250003003184,新規,0,2022-11-28,2022-11-28,ラ・グラース・デュウ合同会社,,合同会社,山口県,柳井市,伊保庄５２０５－２８,,35,212,7421352,,,,,,,2022-11-28,1,,,,,ラグラースデュウ,0
1450,6290001099691,新規,0,2022-11-28,2022-11-28,Ｏｎｅ　ｌｉｆｅ株式会社,,株式会社,福岡県,福岡市博多区,博多駅南２丁目９番１５号,,40,132,8120016,,,,,,,2022-11-28,1,,,,,ワンライフ,0
1451,6290001099717,新規,0,2022-11-28,2022-11-28,株式会社Ｖｏｇｕｅ,,株式会社,福岡県,福岡市中央区,春吉１丁目２番１１号,,40,133,8100003,,,,,,,2022-11-28,1,,,,,ヴォーグ,0
1455,6310001018137,新規,0,2022-11-28,2022-11-28,株式会社ＭＩＳＦＩＴＳ,,株式会社,長崎県,佐世保市,常盤町５－５ポレスター常盤タワーレジデンス１６０１号,,42,202,8570053,,,,,,,2022-11-28,1,,,,,ミスフィッツ,0
1459,6330001030338,新規,0,2022-11-28,2022-11-28,熊本騏潁株式会社,,株式会社,熊本県,阿蘇郡西原村,大字布田１１７７番地７,,43,432,8612403,,,,,,,2022-11-28,1,,,,,クマモトチィイン,0
1461,6330005010583,新規,0,2022-11-28,2022-11-28,天草観光振興事業協同組合,,その他の設立登記法人,熊本県,天草市,天草町下田北１２９６番地４,,43,215,8632803,,,,,,,2022-11-28,1,,,,,アマクサカンコウシンコウ,0
1463,6360003012496,新規,0,2022-11-28,2022-11-28,合同会社アーボーファーム,,合同会社,沖縄県,南城市,佐敷字津波古１００８番地４,,47,215,9011414,,,,,,,2022-11-28,1,,,,,アーボーファーム,0
1464,6360005006752,新規,0,2022-11-28,2022-11-28,一般社団法人沖縄市建築懇話会,,その他の設立登記法人,沖縄県,沖縄市,海邦２丁目１５番１１号,,47,211,9042162,,,,,,,2022-11-28,1,,,,,オキナワシケンチクコンワカイ,0
1467,6370003005904,新規,0,2022-11-28,2022-11-28,グローバルセンチュリー合同会社,,合同会社,宮城県,仙台市青葉区,高野原３丁目１４番地の８,,04,101,9893216,,,,,,,2022-11-28,1,,,,,グローバルセンチュリー,0
1495,7010001230951,新規,0,2022-11-28,2022-11-28,株式会社Ｄａ　ＧＯＴＯ,,株式会社,東京都,中央区,日本橋室町１丁目１２番１０号,,13,102,1030022,,,,,,,2022-11-28,1,,,,,ダゴトウ,0
1496,7010001231041,新規,0,2022-11-28,2022-11-28,プロログジャパン株式会社,,株式会社,東京都,中央区,晴海４丁目７－４ＣＲＯＳＳ・ＤＯＣＫ・ＨＡＲＵＭＩ２Ｆ,,13,102,1040053,,,,,,,2022-11-28,1,,,,,プロログジャパン,0
1498,7010003039152,新規,0,2022-11-28,2022-11-28,合同会社加とう,,合同会社,東京都,中央区,日本橋蛎殻町２丁目７番９号,,13,102,1030014,,,,,,,2022-11-28,1,,,,,カトウ,0
1511,7010405021600,新規,0,2022-11-28,2022-11-28,Ｌｅｇｅｎｄ　Ｏｎｅ一般社団法人,,その他の設立登記法人,東京都,港区,虎ノ門２丁目１０番４号,,13,103,1050001,,,,,,,2022-11-28,1,,,,,レジェンドワン,0
1514,7010501049685,新規,0,2022-11-28,2022-11-28,昴商事株式会社,,株式会社,東京都,台東区,北上野１丁目１番１３号,,13,106,1100014,,,,,,,2022-11-28,1,,,,,スバルショウジ,0
1519,7010901051968,新規,0,2022-11-28,2022-11-28,株式会社線と点と,,株式会社,東京都,世田谷区,赤堤５丁目３９番１０号,,13,112,1560044,,,,,,,2022-11-28,1,,,,,,0
1526,7011001151130,新規,0,2022-11-28,2022-11-28,株式会社Ｍｏｍｉｎｔ,,株式会社,東京都,渋谷区,恵比寿３丁目３８－２２ＥＢＩＳＵＦＯＬＩＯＡｃｔ．３Ｈ号室,,13,113,1500013,,,,,,,2022-11-28,1,,,,,モミント,0
1527,7011001151139,新規,0,2022-11-28,2022-11-28,株式会社Ｐａｌｅｔｔｅ　Ｐｌｕｓ,,株式会社,東京都,渋谷区,道玄坂１丁目１０番８号渋谷道玄坂東急ビル２Ｆ－Ｃ,,13,113,1500043,,,,,,,2022-11-28,1,,,,,パレットプラス,0
1528,7011001151147,新規,0,2022-11-28,2022-11-28,株式会社スカイヒルズ,,株式会社,東京都,目黒区,洗足１丁目５－１７,,13,110,1520012,,,,,,,2022-11-28,1,,,,,スカイヒルズ,0
1529,7011001151171,新規,0,2022-11-28,2022-11-28,株式会社Ｅｎｇｉｎｅｅ,,株式会社,東京都,渋谷区,道玄坂１丁目１０番８号渋谷道玄坂東急ビル２Ｆ－Ｃ,,13,113,1500043,,,,,,,2022-11-28,1,,,,,エンジニー,0
1536,7011003015779,新規,0,2022-11-28,2022-11-28,Ａｉｍａｘ合同会社,,合同会社,東京都,渋谷区,道玄坂１丁目１０番８号渋谷道玄坂東急ビル２Ｆ－Ｃ,,13,113,1500043,,,,,,,2022-11-28,1,,,,,アイマックス,0
1539,7011101100978,新規,0,2022-11-28,2022-11-28,株式会社ＫＪ　Ｇｌｏｂａｌ,,株式会社,東京都,新宿区,西新宿３丁目３番１３号,,13,104,1600023,,,,,,,2022-11-28,1,,,,,ケージェイグローバル,0
1545,7011601026401,新規,0,2022-11-28,2022-11-28,株式会社ＲＮハウジング,,株式会社,東京都,練馬区,春日町４丁目７番２号デリス１階,,13,120,1790074,,,,,,,2022-11-28,1,,,,,アールエヌハウジング,0
1553,7012401039907,新規,0,2022-11-28,2022-11-28,株式会社日本管理サービス,,株式会社,東京都,小金井市,本町５丁目１９番３０号,,13,210,1840004,,,,,,,2022-11-28,1,,,,,ニホンカンリサービス,0
1566,7020001149118,新規,0,2022-11-28,2022-11-28,株式会社リブラ,,株式会社,神奈川県,横浜市南区,花之木町２丁目２９番地の１,,14,105,2320018,,,,,,,2022-11-28,1,,,,,リブラ,0
1567,7020001149126,新規,0,2022-11-28,2022-11-28,誉洲商貿株式会社,,株式会社,神奈川県,横浜市青葉区,藤が丘１丁目５４番３９号ＴＨＴ藤が丘１０５,,14,117,2270043,,,,,,,2022-11-28,1,,,,,ヨシュウショウボウ,0
1568,7020001149134,新規,0,2022-11-28,2022-11-28,ワイピリナコンサルティング株式会社,,株式会社,神奈川県,横浜市戸塚区,名瀬町７６４番地９,,14,110,2450051,,,,,,,2022-11-28,1,,,,,ワイピリナコンサルティング,0
1569,7020001149150,新規,0,2022-11-28,2022-11-28,株式会社みらいデザイン,,株式会社,神奈川県,横浜市中区,海岸通４丁目２０番地２ＹＴ馬車道ビル,,14,104,2310002,,,,,,,2022-11-28,1,,,,,ミライデザイン,0
1570,7020001149159,新規,0,2022-11-28,2022-11-28,ＢＶＥＸ株式会社,,株式会社,神奈川県,横浜市港北区,下田町２丁目１０番１８号１０１,,14,109,2230064,,,,,,,2022-11-28,1,,,,,,0
1574,7020003022801,新規,0,2022-11-28,2022-11-28,合同会社ＦＪＳ,,合同会社,神奈川県,川崎市中原区,丸子通１丁目６０８番地４シャンベール１０７,,14,133,2110006,,,,,,,2022-11-28,1,,,,,エフジェーエス,0
1582,7021003012420,新規,0,2022-11-28,2022-11-28,合同会社ゆないと,,合同会社,神奈川県,横須賀市,長沢２丁目１０番３２号ラ・リブパートＩＩ２０２,00128590,14,201,2390842,,,,,,,2022-11-28,1,,,,,ユナイト,0
1594,7040003021339,新規,0,2022-11-28,2022-11-28,栗山コンサルティング合同会社,,合同会社,千葉県,八千代市,萱田２２３４番地１２７,,12,221,2760043,,,,,,,2022-11-28,1,,,,,クリヤマコンサルティング,0
1595,7040003021347,新規,0,2022-11-28,2022-11-28,合同会社大地,,合同会社,千葉県,柏市,戸張９７７番地２６アルバシエロＶＩＩ－２０１号,00128591,12,217,2770008,,,,,,,2022-11-28,1,,,,,ダイチ,0
1596,7040005021824,新規,0,2022-11-28,2022-11-28,特定非営利活動法人住宅再生可能エネルギー協会,,その他の設立登記法人,千葉県,東金市,福俵９３番地１,,12,213,2830812,,,,,,,2022-11-28,1,,,,,ジュウタクサイセイカノウエネルギーキョウカイ,0
1599,7050001052013,新規,0,2022-11-28,2022-11-28,株式会社秋翔,,株式会社,茨城県,常総市,崎房１３０１番地５,,08,211,3002747,,,,,,,2022-11-28,1,,,,,アキショウ,0
1602,7050003007056,新規,0,2022-11-28,2022-11-28,合同会社Ｌａｎｄ　ａｎｄ　Ｌｅａｆ,,合同会社,茨城県,つくば市,面野井４６１番地,,08,220,3002653,,,,,,,2022-11-28,1,,,,,ランドアンドリーフ,0
1603,7050005013176,新規,0,2022-11-28,2022-11-28,一般社団法人ウィズがんサポートの会,,その他の設立登記法人,茨城県,守谷市,みずき野３丁目１０番地１２,,08,224,3020121,,,,,,,2022-11-28,1,,,,,ウィズガンサポートノカイ,0
1605,7060001035487,新規,0,2022-11-28,2022-11-28,株式会社万邦パートナーズ,,株式会社,栃木県,宇都宮市,簗瀬町１５９３,,09,201,3210933,,,,,,,2022-11-28,1,,,,,バンポウパートナーズ,0
1613,7080401026175,新規,0,2022-11-28,2022-11-28,株式会社インフィニティウェーブ,,株式会社,静岡県,浜松市中区,和合北３丁目７番２５号,,22,131,4338127,,,,,,,2022-11-28,1,,,,,インフィニティウェーブ,0
1622,7120001250534,新規,0,2022-11-28,2022-11-28,青山在株式会社,,株式会社,大阪府,大阪市北区,天神橋１丁目１５－１５・７０５号,,27,127,5300041,,,,,,,2022-11-28,1,,,,,セイザンザイ,0
1623,7120001250550,新規,0,2022-11-28,2022-11-28,株式会社ＨＯＵＳＥ　ＩＮＮＯＶＡＴＩＯＮ,,株式会社,大阪府,大阪市住吉区,千躰２丁目２番２７号,,27,120,5580047,,,,,,,2022-11-28,1,,,,,ハウスイノベーション,0
1624,7120001250575,新規,0,2022-11-28,2022-11-28,株式会社エバーグリーン,,株式会社,大阪府,大阪市西成区,太子１丁目１番１７号,,27,122,5570002,,,,,,,2022-11-28,1,,,,,エバーグリーン,0
1625,7120001250583,新規,0,2022-11-28,2022-11-28,林源株式会社,,株式会社,大阪府,大阪市生野区,新今里３丁目１１番３号富士ゴールドビル,,27,116,5440001,,,,,,,2022-11-28,1,,,,,リンゲン,0
1626,7120001250600,新規,0,2022-11-28,2022-11-28,株式会社幸城商事,,株式会社,大阪府,大阪市城東区,関目１丁目１０番１３－３０４号,,27,118,5360008,,,,,,,2022-11-28,1,,,,,コウジョウショウジ,0
1628,7120003022931,新規,0,2022-11-28,2022-11-28,合同会社ヴェルトレイス,,合同会社,大阪府,大阪市阿倍野区,美章園１丁目３番２号１０１号室,,27,119,5450003,,,,,,,2022-11-28,1,,,,,ヴェルトレイス,0
1632,7120101066574,新規,0,2022-11-28,2022-11-28,株式会社安正,,株式会社,大阪府,堺市堺区,南旅篭町東１丁２番２－１０１号,,27,141,5900965,,,,,,,2022-11-28,1,,,,,ヤスマサ,0
1642,7130001073141,新規,0,2022-11-28,2022-11-28,株式会社ゼスト・コーヒー,,株式会社,京都府,京都市中京区,西ノ京下合町２０番地サーパスシティ御池西大路通９０７号,,26,104,6048436,,,,,,,2022-11-28,1,,,,,ゼストコーヒー,0
1643,7130003008319,新規,0,2022-11-28,2022-11-28,合同会社べじたぶるステーション,,合同会社,京都府,京丹後市,峰山町長岡５０３番地の１,,26,212,6270042,,,,,,,2022-11-28,1,,,,,ベジタブルステーション,0
1648,7140001128159,新規,0,2022-11-28,2022-11-28,株式会社ＤＯＴ　ＦＵＴＵＲＥ,,株式会社,兵庫県,加古川市,加古川町北在家２５９９番地,,28,210,6750031,,,,,,,2022-11-28,1,,,,,ドットフューチャー,0
1649,7140001128200,新規,0,2022-11-28,2022-11-28,株式会社ＨＫＳ,,株式会社,兵庫県,伊丹市,寺本５丁目１９４番地２,,28,207,6640026,,,,,,,2022-11-28,1,,,,,エイチケイエス,0
1661,7180001153938,新規,0,2022-11-28,2022-11-28,株式会社春木電設,,株式会社,愛知県,愛知郡東郷町,春木台２丁目５番地１１,,23,302,4700161,,,,,,,2022-11-28,1,,,,,ハルキデンセツ,0
1662,7180001153946,新規,0,2022-11-28,2022-11-28,株式会社ヨコイ空調,,株式会社,愛知県,名古屋市守山区,八剣２丁目１００２番地の４,,23,113,4630022,,,,,,,2022-11-28,1,,,,,ヨコイクウチョウ,0
1663,7180001153962,新規,0,2022-11-28,2022-11-28,株式会社フリーループ,,株式会社,愛知県,津島市,愛宕町６丁目４７番地１,,23,208,4960036,,,,,,,2022-11-28,1,,,,,フリーループ,0
1664,7180001153979,新規,0,2022-11-28,2022-11-28,株式会社アクト,,株式会社,愛知県,名古屋市千種区,富士見台４丁目１番地ガーデンヒルズ富士見台参番館１０４号,,23,101,4640015,,,,,,,2022-11-28,1,,,,,アクト,0
1668,7200001040695,新規,0,2022-11-28,2022-11-28,株式会社ｓｉｎｃｅ,,株式会社,岐阜県,多治見市,小名田町５丁目１２１番地１,,21,204,5070004,,,,,,,2022-11-28,1,,,,,シンス,0
1671,7230001019613,新規,0,2022-11-28,2022-11-28,株式会社寿地所,,株式会社,富山県,富山市,新根塚町２丁目１６番地５,,16,201,9398205,,,,,,,2022-11-28,1,,,,,コトブキジショ,0
1674,7230003001932,新規,0,2022-11-28,2022-11-28,合同会社Ｍａｓｈｕｐ,,合同会社,富山県,高岡市,御旅屋町１０２－１－６御旅屋ビル１階,,16,202,9330029,,,,,,,2022-11-28,1,,,,,マッシュアップ,0
1675,7240001060707,新規,0,2022-11-28,2022-11-28,株式会社ＫＲクリエイト,,株式会社,広島県,広島市東区,馬木１丁目１３４番地ソレイユ２番館２０４号,,34,102,7320031,,,,,,,2022-11-28,1,,,,,ケイアールクリエイト,0
1682,7260003004107,新規,0,2022-11-28,2022-11-28,りつベーカリー合同会社,,合同会社,岡山県,備前市,東片上５０９－１,,33,211,7050022,,,,,,,2022-11-28,1,,,,,リツベーカリー,0
1684,7290001099690,新規,0,2022-11-28,2022-11-28,Ｎ‐ｅｖａ株式会社,,株式会社,福岡県,うきは市,吉井町八和田１０００番地,,40,225,8391308,,,,,,,2022-11-28,1,,,,,ネーヴァー,0
1688,7290003013245,新規,0,2022-11-28,2022-11-28,合同会社くにや,,合同会社,福岡県,大牟田市,新地町４番地１コアマンションパークシティ９０８号,,40,202,8360032,,,,,,,2022-11-28,1,,,,,クニヤ,0
1700,7340001025195,新規,0,2022-11-28,2022-11-28,株式会社オラロア,,株式会社,鹿児島県,奄美市,笠利町大字喜瀬３５２８番地１,,46,222,8940507,,,,,,,2022-11-28,1,,,,,オラロア,0
1705,7360001031233,新規,0,2022-11-28,2022-11-28,モトブ本社株式会社,,株式会社,沖縄県,那覇市,字安里３８１番地１,,47,201,9020067,,,,,,,2022-11-28,1,,,,,モトブホンシャ,0
1706,7360005006751,新規,0,2022-11-28,2022-11-28,一般社団法人榮豊,,その他の設立登記法人,沖縄県,うるま市,みどり町２丁目６番２２号,,47,213,9042215,,,,,,,2022-11-28,1,,,,,エイホウ,0
1709,7370001049299,新規,0,2022-11-28,2022-11-28,株式会社Ｓ．Ｈ．Ｌ,,株式会社,宮城県,仙台市青葉区,国分町２丁目７番７号３０４号室,,04,101,9800803,,,,,,,2022-11-28,1,,,,,エスエイチエル,0
1728,7440002010236,新規,0,2022-11-28,2022-11-28,有限会社丸善岩見漁網店,,有限会社,北海道,函館市,宝来町３２番８号,,01,202,0400043,,,,,,,2022-11-28,1,,,,,マルゼンイワミギョモウテン,0
1729,7460001005747,新規,0,2022-11-28,2022-11-28,ＬｉｆｅＰｌｕｓ株式会社,,株式会社,北海道,釧路市,愛国東２丁目１４番８号,,01,206,0850058,,,,,,,2022-11-28,1,,,,,ライフプラス,0
1735,8010001231131,新規,0,2022-11-28,2022-11-28,株式会社サンユーエンタープライズ,,株式会社,東京都,中央区,八丁堀２丁目２６－１０,,13,102,1040032,,,,,,,2022-11-28,1,,,,,サンユーエンタープライズ,0
1736,8010003039168,新規,0,2022-11-28,2022-11-28,スイミー合同会社,,合同会社,東京都,千代田区,丸の内３丁目１番１号東京共同会計事務所内,,13,101,1000005,,,,,,,2022-11-28,1,,,,,スイミー,0
1737,8010005035826,新規,0,2022-11-28,2022-11-28,一般社団法人ＬＥＶＥＣＨＹ,,その他の設立登記法人,東京都,千代田区,紀尾井町３－８第２紀尾井町ビル９０１アクシス綜合会計事務所内,,13,101,1020094,,,,,,,2022-11-28,1,,,,,レベチー,0
1738,8010005035834,新規,0,2022-11-28,2022-11-28,一般社団法人ＲＣ１号,,その他の設立登記法人,東京都,千代田区,丸の内３丁目１番１号東京共同会計事務所内,,13,101,1000005,,,,,,,2022-11-28,1,,,,,アールシーイチゴウ,0
1762,8010603009859,新規,0,2022-11-28,2022-11-28,屋久島ＱＵＥＳＴ合同会社,,合同会社,東京都,江東区,三好２丁目４－１６,,13,108,1350022,,,,,,,2022-11-28,1,,,,,ヤクシマクエスト,0
1766,8010801033454,新規,0,2022-11-28,2022-11-28,株式会社メロウタイムビート,,株式会社,東京都,大田区,鵜の木２丁目２６番１９号,,13,111,1460091,,,,,,,2022-11-28,1,,,,,メロウタイムビート,0
1781,8011001151105,新規,0,2022-11-28,2022-11-28,株式会社Ｂ４Ｎ,,株式会社,東京都,渋谷区,代々木１丁目５３番１号・１９１０,,13,113,1510053,,,,,,,2022-11-28,1,,,,,ビーヨン,0
1782,8011001151138,新規,0,2022-11-28,2022-11-28,株式会社フレラジャパン,,株式会社,東京都,渋谷区,神宮前２丁目３番１２号,,13,113,1500001,,,,,,,2022-11-28,1,,,,,フレラジャパン,0
1783,8011001151179,新規,0,2022-11-28,2022-11-28,株式会社ＬＵＸＥ,,株式会社,東京都,渋谷区,恵比寿西１丁目３０番１４号エコー代官山３０４,,13,113,1500021,,,,,,,2022-11-28,1,,,,,リュクス,0
1787,8011003015794,新規,0,2022-11-28,2022-11-28,ＵＭＥコンサルティング合同会社,,合同会社,東京都,渋谷区,道玄坂１丁目１０番８号渋谷道玄坂東急ビル２Ｆ－Ｃ,,13,113,1500043,,,,,,,2022-11-28,1,,,,,ユーエムイーコンサルティング,0
1791,8011401024728,新規,0,2022-11-28,2022-11-28,ＬＡＮ株式会社,,株式会社,東京都,板橋区,熊野町５番１４号ティエラ北池袋２０３号室,,13,119,1730025,,,,,,,2022-11-28,1,,,,,ラン,0
1799,8012401039906,新規,0,2022-11-28,2022-11-28,株式会社エムズキャピタル,,株式会社,東京都,小金井市,貫井南町４丁目３０番１４号,,13,210,1840014,,,,,,,2022-11-28,1,,,,,エムズキャピタル,0
1809,8020001149091,新規,0,2022-11-28,2022-11-28,株式会社ラプラス,,株式会社,神奈川県,川崎市幸区,小向西町３丁目２３番地１,,14,132,2120004,,,,,,,2022-11-28,1,,,,,ラプラス,0
1810,8020001149117,新規,0,2022-11-28,2022-11-28,株式会社ｉｂｉｓ,,株式会社,神奈川県,横浜市青葉区,しらとり台３５番地１１東急北しらとり台ドエリング５０２,,14,117,2270054,,,,,,,2022-11-28,1,,,,,アイビス,0
1811,8020001149125,新規,0,2022-11-28,2022-11-28,株式会社ユメックスランド,,株式会社,神奈川県,横浜市港北区,新横浜２丁目２番３号,,14,109,2220033,,,,,,,2022-11-28,1,,,,,ユメックスランド,0
1812,8020001149141,新規,0,2022-11-28,2022-11-28,テルイアンドパートナーズ株式会社,,株式会社,神奈川県,川崎市高津区,溝口１丁目１４－８石原ビル１Ｆ,,14,134,2130001,,,,,,,2022-11-28,1,,,,,テルイアンドパートナーズ,0
1813,8020001149174,新規,0,2022-11-28,2022-11-28,株式会社ブリッジファイブ,,株式会社,神奈川県,横浜市青葉区,しらとり台２２番地３０,,14,117,2270054,,,,,,,2022-11-28,1,,,,,ブリッジファイブ,0
1815,8020003022791,新規,0,2022-11-28,2022-11-28,Ｈ＆Ｓ合同会社,,合同会社,神奈川県,横浜市磯子区,上中里町３８２番地,,14,107,2350042,,,,,,,2022-11-28,1,,,,,エイチアンドエス,0
1816,8020003022800,新規,0,2022-11-28,2022-11-28,合同会社Ｒｅ　ｃａｒｅ,,合同会社,神奈川県,横浜市南区,浦舟町５丁目６９番地３ブリティッシュクラブ浦舟町１階,,14,105,2320024,,,,,,,2022-11-28,1,,,,,リィケア,0
1830,8030001151179,新規,0,2022-11-28,2022-11-28,株式会社ジアススタイル,,株式会社,埼玉県,さいたま市見沼区,春岡２丁目２６番地１３,,11,104,3370008,,,,,,,2022-11-28,1,,,,,ジアススタイル,0
1831,8030001151195,新規,0,2022-11-28,2022-11-28,株式会社コーポレート裕,,株式会社,埼玉県,越谷市,大字袋山４６０番地６,,11,222,3430032,,,,,,,2022-11-28,1,,,,,コーポレートユウ,0
1832,8030001151212,新規,0,2022-11-28,2022-11-28,株式会社Ｏｈａｎｅｓｓ,,株式会社,埼玉県,三郷市,戸ケ崎３０９０番地１１０,,11,237,3410044,,,,,,,2022-11-28,1,,,,,オハネス,0
1833,8030001151245,新規,0,2022-11-28,2022-11-28,株式会社タクセルホーム,,株式会社,埼玉県,入間市,下藤沢３丁目１４番地８,,11,225,3580011,,,,,,,2022-11-28,1,,,,,タクセルホーム,0
1834,8030003020638,新規,0,2022-11-28,2022-11-28,合同会社＿華商事,00128596,合同会社,埼玉県,川口市,芝中田１丁目３５－１０－１０２号,,11,203,3330847,,,,,,,2022-11-28,1,,,,,ミンカショウジ,0
1837,8040001125990,新規,0,2022-11-28,2022-11-28,景峰株式会社,,株式会社,千葉県,千葉市美浜区,浜田１丁目３番地コロンブスシティ２４１号,,12,106,2610025,,,,,,,2022-11-28,1,,,,,ケイホウ,0
1838,8040001125999,新規,0,2022-11-28,2022-11-28,千禾産業株式会社,,株式会社,千葉県,千葉市中央区,弁天１丁目１５－３－Ｂ１Ｆ－０２室,,12,101,2600045,,,,,,,2022-11-28,1,,,,,チイネサンギョウ,0
1839,8040001126007,新規,0,2022-11-28,2022-11-28,株式会社Ｒ．ｅｖｏｌｕｔｉｏｎ,,株式会社,千葉県,茂原市,東部台１丁目６番地８,,12,210,2970015,,,,,,,2022-11-28,1,,,,,アールエヴォリューション,0
1843,8050001052012,新規,0,2022-11-28,2022-11-28,株式会社Ｂｅｓｔ　Ｆｉｔ,,株式会社,茨城県,水戸市,元吉田町２３５４番地の３,,08,201,3100836,,,,,,,2022-11-28,1,,,,,ベストフィット,0
1848,8050003007055,新規,0,2022-11-28,2022-11-28,合同会社Ｎｓｙ,,合同会社,茨城県,水戸市,住吉町２０７番地の１１,,08,201,3100844,,,,,,,2022-11-28,1,,,,,エヌエスワイ,0
1854,8080401026174,新規,0,2022-11-28,2022-11-28,株式会社トルネードワークス,,株式会社,静岡県,浜松市浜北区,中瀬２６２１番地の１,,22,136,4340012,,,,,,,2022-11-28,1,,,,,トルネードワークス,0
1859,8100001035911,新規,0,2022-11-28,2022-11-28,感情知能株式会社,,株式会社,長野県,松本市,大字島立８３０番地１１,,20,202,3900852,,,,,,,2022-11-28,1,,,,,カンジョウチノウ,0
1863,8100003006786,新規,0,2022-11-28,2022-11-28,合同会社ＨＯＰＥ　ｔｏ　ｔｈｅ　Ｆｕｔｕｒｅ,,合同会社,長野県,岡谷市,本町３丁目１番地５号,,20,204,3940028,,,,,,,2022-11-28,1,,,,,ホープトゥーザフューチャー,0
1883,8120001250475,新規,0,2022-11-28,2022-11-28,ＷＵＹＯＵ　ＮＥＴＷＯＲＫ　ＴＥＣＨＮＯＬＯＧＹ株式会社,,株式会社,大阪府,大阪市淀川区,西三国１丁目１１番２号２０３号室,,27,123,5320006,,,,,,,2022-11-28,1,,,,,ウユウネットワークテクノロジー,0
1884,8120001250558,新規,0,2022-11-28,2022-11-28,株式会社Ｑ’ｓ‐ｗａｙ,,株式会社,大阪府,大阪市生野区,新今里４丁目１０番２２号,,27,116,5440001,,,,,,,2022-11-28,1,,,,,キューズウエイ,0
1885,8120001250582,新規,0,2022-11-28,2022-11-28,Ｅｄｇｅ　Ｄｅｓｉｇｎ株式会社,,株式会社,大阪府,寝屋川市,打上新町３番２８号,,27,215,5720859,,,,,,,2022-11-28,1,,,,,エッジデザイン,0
1886,8120001250590,新規,0,2022-11-28,2022-11-28,株式会社ＭｙＣ,,株式会社,大阪府,大阪市福島区,鷺洲２丁目５番１７－６０３号,,27,103,5530002,,,,,,,2022-11-28,1,,,,,マイシー,0
1889,8120003022947,新規,0,2022-11-28,2022-11-28,合同会社ろくすい,,合同会社,大阪府,大阪市北区,梅田１丁目２番２号大阪駅前第２ビル１２－１２,,27,127,5300001,,,,,,,2022-11-28,1,,,,,ロクスイ,0
1893,8120101066573,新規,0,2022-11-28,2022-11-28,光断熱株式会社,,株式会社,大阪府,堺市西区,浜寺石津町西４丁３番７号,,27,144,5928333,,,,,,,2022-11-28,1,,,,,ヒカリダンネツ,0
1897,8120901046790,新規,0,2022-11-28,2022-11-28,アルマ株式会社,,株式会社,大阪府,豊能郡能勢町,片山１２２番地の４,,27,322,5630354,,,,,,,2022-11-28,1,,,,,アルマ,0
1898,8120903004383,新規,0,2022-11-28,2022-11-28,合同会社スマイルコネクト,,合同会社,大阪府,高槻市,川添２丁目１０－１１,,27,207,5690824,,,,,,,2022-11-28,1,,,,,スマイルコネクト,0
1907,8140001128166,新規,0,2022-11-28,2022-11-28,株式会社Ｈａｌｅ,,株式会社,兵庫県,西宮市,田代町１５番６－３０３号,,28,204,6638201,,,,,,,2022-11-28,1,,,,,ハレ,0
1908,8140001128174,新規,0,2022-11-28,2022-11-28,株式会社ガレージオフィス,,株式会社,兵庫県,姫路市,上手野２６３番地１,,28,201,6700065,,,,,,,2022-11-28,1,,,,,ガレージオフィス,0
1916,8180001153953,新規,0,2022-11-28,2022-11-28,トーラスデザイン株式会社,,株式会社,愛知県,一宮市,光明寺字長山１００番地,,23,203,4910135,,,,,,,2022-11-28,1,,,,,トーラスデザイン,0
1917,8180001153961,新規,0,2022-11-28,2022-11-28,株式会社ＴＩ設備工業,,株式会社,愛知県,名古屋市緑区,亀が洞１丁目１３０８番地,,23,114,4580804,,,,,,,2022-11-28,1,,,,,ティーアイセツビコウギョウ,0
1918,8180001153978,新規,0,2022-11-28,2022-11-28,株式会社ソリューションエステート名古屋,,株式会社,愛知県,名古屋市千種区,丘上町２丁目５番地,,23,101,4640837,,,,,,,2022-11-28,1,,,,,ソリューションエステートナゴヤ,0
1932,8230001019612,新規,0,2022-11-28,2022-11-28,株式会社ＳＯＪＵ,,株式会社,富山県,砺波市,中央町１番１３号,,16,208,9391375,,,,,,,2022-11-28,1,,,,,ソウジュ,0
1939,8260003004114,新規,0,2022-11-28,2022-11-28,合同会社セレーノ,,合同会社,岡山県,岡山市中区,海吉１８９７番地１７,,33,102,7038261,,,,,,,2022-11-28,1,,,,,セレーノ,0
1947,8290001099665,新規,0,2022-11-28,2022-11-28,株式会社ロジディア,,株式会社,福岡県,福岡市東区,松田１丁目５番７号,,40,131,8120064,,,,,,,2022-11-28,1,,,,,ロジディア,0
1950,8290003013236,新規,0,2022-11-28,2022-11-28,Ａｒａｄｈａ合同会社,,合同会社,福岡県,福岡市南区,塩原４丁目１番２４号,,40,134,8150032,,,,,,,2022-11-28,1,,,,,アラダ,0
1954,8330001030328,新規,0,2022-11-28,2022-11-28,フクシンソラ株式会社,,株式会社,熊本県,上天草市,松島町合津６００３－１,,43,212,8616102,,,,,,,2022-11-28,1,,,,,フクシンソラ,0
1959,8340001025203,新規,0,2022-11-28,2022-11-28,株式会社ＭＲ,,株式会社,鹿児島県,曽於市,大隅町中之内９１７４番地１,,46,217,8998103,,,,,,,2022-11-28,1,,,,,エムアール,0
1964,8360001031257,新規,0,2022-11-28,2022-11-28,株式会社ゆいまーる建機,,株式会社,沖縄県,南城市,佐敷字兼久２２９番地１,,47,215,9011411,,,,,,,2022-11-28,1,,,,,ユイマールケンキ,0
1967,8360003012494,新規,0,2022-11-28,2022-11-28,合同会社エフバイエフ,,合同会社,沖縄県,糸満市,西崎２丁目２５番１号,,47,210,9010305,,,,,,,2022-11-28,1,,,,,エフバイエフ,0
1977,8380003005331,新規,0,2022-11-28,2022-11-28,合資会社カギメ,,合資会社,福島県,郡山市,中野２丁目２１９番地,,07,203,9630206,,,,,,,2022-11-28,1,,,,,カギメ,0
1986,8430001087936,新規,0,2022-11-28,2022-11-28,株式会社平建工業,,株式会社,北海道,苫小牧市,のぞみ町３丁目８番９号,,01,213,0591272,,,,,,,2022-11-28,1,,,,,ヒラケンコウギョウ,0
1987,8430003014491,新規,0,2022-11-28,2022-11-28,合同会社ｏｆｆｉｃｅ．Ｃａｌｏｎ,,合同会社,北海道,札幌市中央区,南一条西１７丁目１番地２,,01,101,0600061,,,,,,,2022-11-28,1,,,,,オフィスカロン,0
1994,8500001024618,新規,0,2022-11-28,2022-11-28,株式会社ＪＡＢＵＲＯ,,株式会社,愛媛県,西予市,三瓶町長早４番耕地１４０番地,,38,214,7960902,,,,,,,2022-11-28,1,,,,,ジャブロー,0
1995,8700150113028,新規,0,2022-11-28,2022-11-28,杷木町久喜宮揚水土地改良区,,その他,福岡県,朝倉市,杷木久喜宮９１７番地６,,40,228,8381514,,,,,,,2022-11-28,1,,,,,ハキマチクグミヤヨウスイトチカイリョウク,0
2002,9010001231064,新規,0,2022-11-28,2022-11-28,株式会社オズカンパニー,,株式会社,東京都,中央区,銀座１丁目２２番１１号銀座大竹ビジデンス２階,,13,102,1040061,,,,,,,2022-11-28,1,,,,,オズカンパニー,0
2005,9010003039142,新規,0,2022-11-28,2022-11-28,合同会社ブースト,,合同会社,東京都,千代田区,神田錦町２丁目２番地１斉藤ビル５Ｆ,,13,101,1010054,,,,,,,2022-11-28,1,,,,,ブースト,0
2006,9010005035833,新規,0,2022-11-28,2022-11-28,一般社団法人港南パートナーズ,,その他の設立登記法人,東京都,千代田区,有楽町１丁目２番２号,,13,101,1000006,,,,,,,2022-11-28,1,,,,,コウナンパートナーズ,0
2014,9010401171018,新規,0,2022-11-28,2022-11-28,ベストマネジメントサービス株式会社,,株式会社,東京都,港区,西麻布２丁目２６番２号バルビゾン５８－３階,,13,103,1060031,,,,,,,2022-11-28,1,,,,,ベストマネジメントサービス,0
2021,9010501049683,新規,0,2022-11-28,2022-11-28,アイレニックテクノロジー株式会社,,株式会社,東京都,台東区,上野３丁目１９番５号,,13,106,1100005,,,,,,,2022-11-28,1,,,,,アイレニックテクノロジー,0
2023,9010603009858,新規,0,2022-11-28,2022-11-28,合同会社Ｇｒａｃｅ,,合同会社,東京都,墨田区,錦糸２丁目１０－８古川ビル１Ｆ,,13,107,1300013,,,,,,,2022-11-28,1,,,,,グレイス,0
2025,9010701043528,新規,0,2022-11-28,2022-11-28,株式会社ベルワークス,,株式会社,東京都,品川区,平塚１丁目２０番１１号ドミール鎌田１階,,13,109,1420051,,,,,,,2022-11-28,1,,,,,ベルワークス,0
2028,9010801033453,新規,0,2022-11-28,2022-11-28,産業保健協会株式会社,,株式会社,東京都,大田区,多摩川１丁目３番１８号,,13,111,1460095,,,,,,,2022-11-28,1,,,,,サンギョウホケンキョウカイ,0
2031,9010901052031,新規,0,2022-11-28,2022-11-28,Ｏｒｅ株式会社,,株式会社,東京都,世田谷区,上馬４丁目１１番１０号,,13,112,1540011,,,,,,,2022-11-28,1,,,,,オアー,0
2042,9011001151129,新規,0,2022-11-28,2022-11-28,ベルフローラ株式会社,,株式会社,東京都,渋谷区,恵比寿４丁目３番１号クイズエビス５１５,,13,113,1500013,,,,,,,2022-11-28,1,,,,,ベルフローラ,0
2043,9011001151137,新規,0,2022-11-28,2022-11-28,株式会社ＦＡＫＥ,,株式会社,東京都,目黒区,東山１丁目１１番２号,,13,110,1530043,,,,,,,2022-11-28,1,,,,,フェイク,0
2045,9011003015752,新規,0,2022-11-28,2022-11-28,合同会社ＷＯＬＦ　ＰＲＯＪＥＣＴ　ＬＩＮＸ,,合同会社,東京都,渋谷区,桜丘町９－２０ＡＬＬＥＹ　ＳＨＩＢＵＹＡ４０３,,13,113,1500031,,,,,,,2022-11-28,1,,,,,ウルフプロジェクトリンク,0
2046,9011003015785,新規,0,2022-11-28,2022-11-28,ＳＨＸＵＫＩ合同会社,,合同会社,東京都,渋谷区,神宮前４丁目１８番９号ボヌール表参道３階,,13,113,1500001,,,,,,,2022-11-28,1,,,,,シュウキ,0
2047,9011003015793,新規,0,2022-11-28,2022-11-28,合同会社Ｓｈｅｅｐ　ａｎｄ　Ｇｏａｔ,,合同会社,東京都,渋谷区,渋谷２丁目１９－１５宮益坂ビルディング６０９,,13,113,1500002,,,,,,,2022-11-28,1,,,,,シープアンドゴート,0
2055,9011101100992,新規,0,2022-11-28,2022-11-28,株式会社ｅｔｅ,,株式会社,東京都,新宿区,新宿５丁目１４番１２号,,13,104,1600022,,,,,,,2022-11-28,1,,,,,エテ,0
2056,9011103012435,新規,0,2022-11-28,2022-11-28,ＪＵＯ合同会社,,合同会社,東京都,新宿区,西新宿３丁目３－１３西新宿水間ビル６Ｆ,,13,104,1600023,,,,,,,2022-11-28,1,,,,,ジュウオウ,0
2062,9011601026399,新規,0,2022-11-28,2022-11-28,株式会社よすが舎,,株式会社,東京都,練馬区,東大泉５丁目２９番５号,,13,120,1780063,,,,,,,2022-11-28,1,,,,,ヨスガシャ,0
2064,9011803005399,新規,0,2022-11-28,2022-11-28,合同会社ＭＩＳＳＴＵ,,合同会社,東京都,足立区,島根２丁目１９番１１号,,13,121,1210815,,,,,,,2022-11-28,1,,,,,ミステュ,0
2066,9012401039905,新規,0,2022-11-28,2022-11-28,株式会社戸塚エステート,00128600,株式会社,東京都,府中市,白糸台３丁目２０番地の１,,13,206,1830011,,,,,,,2022-11-28,1,,,,,トツカエステート,0
2068,9012701017370,新規,0,2022-11-28,2022-11-28,株式会社＿洋商事,00128599,株式会社,東京都,清瀬市,下宿２丁目４３１番地１１,,13,221,2040001,,,,,,,2022-11-28,1,,,,,キンヨウショウジ,0
2076,9020001149132,新規,0,2022-11-28,2022-11-28,株式会社生田不動産賃貸管理,,株式会社,神奈川県,川崎市多摩区,三田２丁目１番地３,,14,135,2140034,,,,,,,2022-11-28,1,,,,,イクタフドウサンチンタイカンリ,0
2077,9020001149173,新規,0,2022-11-28,2022-11-28,Ｒｅ．Ｏ株式会社,,株式会社,神奈川県,川崎市多摩区,三田１丁目１６番４号,,14,135,2140034,,,,,,,2022-11-28,1,,,,,レオ,0
2080,9020003022790,新規,0,2022-11-28,2022-11-28,合同会社ＴＫ,,合同会社,神奈川県,横浜市青葉区,美しが丘５丁目２番地１４,,14,117,2250002,,,,,,,2022-11-28,1,,,,,ティーケー,0
2081,9020005015735,新規,0,2022-11-28,2022-11-28,一般社団法人ＨＯＭＩＥＳ,,その他の設立登記法人,神奈川県,横浜市西区,北幸２丁目１０番２８号むつみビル３Ｆ,,14,103,2200004,,,,,,,2022-11-28,1,,,,,ホーミーズ,0
2085,9021001077538,新規,0,2022-11-28,2022-11-28,ＭＵＳＡＳＨＩガード株式会社,,株式会社,神奈川県,厚木市,旭町１丁目２２番２４号,,14,212,2430014,,,,,,,2022-11-28,1,,,,,ムサシガード,0
2093,9030001151211,新規,0,2022-11-28,2022-11-28,株式会社ハルハピ,,株式会社,埼玉県,川口市,芝５丁目１０番１３号,,11,203,3330866,,,,,,,2022-11-28,1,,,,,ハルハピ,0
2099,9040001125874,新規,0,2022-11-28,2022-11-28,株式会社Ｂｉｌｌｉｏｎａｉｒｅ’ｓ　Ｂａｚａａｒ,,株式会社,千葉県,野田市,桐ケ作１２４６番地４,,12,208,2700213,,,,,,,2022-11-28,1,,,,,ビリオネアズバザール,0
2100,9040001125981,新規,0,2022-11-28,2022-11-28,誠宝株式会社,,株式会社,千葉県,千葉市緑区,あすみが丘６丁目１０番地３,,12,105,2670066,,,,,,,2022-11-28,1,,,,,セイホウ,0
2101,9040001125998,新規,0,2022-11-28,2022-11-28,ＰＥＳＯＬ株式会社,,株式会社,千葉県,船橋市,金杉３丁目８番１４号,,12,204,2730853,,,,,,,2022-11-28,1,,,,,ピーソール,0
2102,9040001126022,新規,0,2022-11-28,2022-11-28,株式会社ＭＳＲ興業,,株式会社,千葉県,千葉市緑区,おゆみ野南３丁目３６番地７,,12,105,2660033,,,,,,,2022-11-28,1,,,,,エムエスアールコウギョウ,0
2107,9040005021822,新規,0,2022-11-28,2022-11-28,サンコーポ勝田台Ａ棟管理組合法人,,その他の設立登記法人,千葉県,八千代市,勝田台１丁目７番地の１サンコーポ勝田台Ｄ棟２階,,12,221,2760023,,,,,,,2022-11-28,1,,,,,サンコーポカツタダイエートウ,0
2113,9060001035477,新規,0,2022-11-28,2022-11-28,株式会社柿木農場,,株式会社,栃木県,小山市,大字中島３２６番地２,,09,208,3230156,,,,,,,2022-11-28,1,,,,,カキノキノウジョウ,0
2119,9080101023660,新規,0,2022-11-28,2022-11-28,システムエンジ株式会社,,株式会社,静岡県,富士市,中里９３７番地の４０,,22,210,4170826,,,,,,,2022-11-28,1,,,,,システムエンジ,0
2122,9080401026173,新規,0,2022-11-28,2022-11-28,株式会社ウィズグロース,,株式会社,静岡県,菊川市,堀之内１１０番地の１コーポ石川１０３,,22,224,4390006,,,,,,,2022-11-28,1,,,,,ウィズグロース,0
2123,9080403004664,新規,0,2022-11-28,2022-11-28,トリビア合同会社,,合同会社,静岡県,浜松市中区,海老塚２丁目２４番２１号,,22,131,4328033,,,,,,,2022-11-28,1,,,,,トリビア,0
2128,9100001035910,新規,0,2022-11-28,2022-11-28,株式会社Ｙ．Ｔ,,株式会社,長野県,長野市,大字鶴賀上千歳町１１７７番地３,,20,201,3800821,,,,,,,2022-11-28,1,,,,,ワイティー,0
2138,9120001250557,新規,0,2022-11-28,2022-11-28,株式会社Ｇｌｏｗ　ｕｐ,,株式会社,大阪府,大阪市淀川区,三津屋南３丁目１４番１号,,27,123,5320035,,,,,,,2022-11-28,1,,,,,グロウアップ,0
2139,9120001250573,新規,0,2022-11-28,2022-11-28,メーティス株式会社,,株式会社,大阪府,大阪市港区,弁天５丁目９番２－７０１号,,27,107,5520007,,,,,,,2022-11-28,1,,,,,メーティス,0
2143,9120003022954,新規,0,2022-11-28,2022-11-28,合同会社凜,,合同会社,大阪府,大阪市住吉区,我孫子３丁目４番４号フォルテアビコ３０２号,,27,120,5580014,,,,,,,2022-11-28,1,,,,,リン,0
2146,9120103004943,新規,0,2022-11-28,2022-11-28,合同会社ＯＨＡＮＡ,,合同会社,大阪府,大阪狭山市,今熊４丁目６６５番地の８５,,27,231,5890021,,,,,,,2022-11-28,1,,,,,オハナ,0
2152,9122001036449,新規,0,2022-11-28,2022-11-28,株式会社ＴＧ・リベルテ,,株式会社,大阪府,東大阪市,箕輪２丁目５番２５号,,27,227,5780914,,,,,,,2022-11-28,1,,,,,ティージーリベルテ,0
2155,9130003008341,新規,0,2022-11-28,2022-11-28,合同会社ｎｏｒｉｓ,,合同会社,京都府,京都市伏見区,醍醐川久保町２３－２醍醐西市住１８－５０９,,26,109,6011378,,,,,,,2022-11-28,1,,,,,ノリス,0
2162,9140001128165,新規,0,2022-11-28,2022-11-28,株式会社岩佐屋,,株式会社,兵庫県,赤穂市,加里屋２０７１番地,,28,212,6780239,,,,,,,2022-11-28,1,,,,,イワサヤ,0
2167,9160005011142,新規,0,2022-11-28,2022-11-28,一般社団法人滋賀県里親連合会,,その他の設立登記法人,滋賀県,大津市,浜大津４丁目１－１明日都浜大津市民活動センター内,,25,201,5200047,,,,,,,2022-11-28,1,,,,,シガケンサトオヤレンゴウカイ,0
2178,9180003024532,新規,0,2022-11-28,2022-11-28,合同会社メイドカフェを創りしもの,,合同会社,愛知県,東海市,加木屋町郷中５３番地４５,,23,222,4770032,,,,,,,2022-11-28,1,,,,,メイドカフェヲツクリシモノ,0
2179,9180301036849,新規,0,2022-11-28,2022-11-28,ＬＥＡＦ株式会社,,株式会社,愛知県,刈谷市,中山町５番地９,,23,210,4480000,,,,,,,2022-11-28,1,,,,,リーフ,0
2185,9200001040693,新規,0,2022-11-28,2022-11-28,ＡＦＲＯ株式会社,,株式会社,岐阜県,瑞浪市,薬師町１丁目３５番地,,21,208,5096135,,,,,,,2022-11-28,1,,,,,アフロ,0
2186,9200005013415,新規,0,2022-11-28,2022-11-28,龍馬神社,,その他の設立登記法人,岐阜県,中津川市,千旦林１５５１番地２６,,21,206,5099131,,,,,,,2022-11-28,1,,,,,リョウマジンジャ,0
2187,9210001019167,新規,0,2022-11-28,2022-11-28,株式会社ＳＵＩ　ＰＲＯＪＥＣＴ,,株式会社,福井県,坂井市,坂井町高柳１７字六十歩割１４番地,,18,210,9190532,,,,,,,2022-11-28,1,,,,,スイプロジェクト,0
2192,9240001060713,新規,0,2022-11-28,2022-11-28,星友株式会社,,株式会社,広島県,福山市,大門町野々浜２４２番地１,,34,207,7210923,,,,,,,2022-11-28,1,,,,,セイユウ,0
2201,9290001099689,新規,0,2022-11-28,2022-11-28,株式会社バッテリー・コンサルティング,,株式会社,福岡県,福岡市中央区,天神１丁目１番１号,,40,133,8100001,,,,,,,2022-11-28,1,,,,,バッテリーコンサルティング,0
2202,9290001099706,新規,0,2022-11-28,2022-11-28,株式会社九サン,,株式会社,福岡県,福岡市南区,野間４丁目２４番３号,,40,134,8150041,,,,,,,2022-11-28,1,,,,,キューサン,0
2203,9290001099714,新規,0,2022-11-28,2022-11-28,株式会社Ｇ・Ｙ・Ｏ,,株式会社,福岡県,久留米市,三潴町西牟田６４４７－２,,40,203,8300111,,,,,,,2022-11-28,1,,,,,ジーワイオー,0
2208,9290003013235,新規,0,2022-11-28,2022-11-28,合同会社九州総合デベロップメント,,合同会社,福岡県,福岡市博多区,寿町３丁目３－１０,,40,132,8120884,,,,,,,2022-11-28,1,,,,,キュウシュウソウゴウデベロップメント,0
2215,9330005010589,新規,0,2022-11-28,2022-11-28,一般社団法人真ごころ,,その他の設立登記法人,熊本県,宇土市,住吉町２２０９番地３,,43,211,8690401,,,,,,,2022-11-28,1,,,,,マゴコロ,0
2218,9360001031256,新規,0,2022-11-28,2022-11-28,株式会社沖縄心和,,株式会社,沖縄県,名護市,宇茂佐の森４丁目１９番地７ちゅら咲１０３号,,47,209,9050009,,,,,,,2022-11-28,1,,,,,オキナワシンワ,0
2226,9370001049289,新規,0,2022-11-28,2022-11-28,株式会社コニユウ,,株式会社,宮城県,仙台市太白区,西中田７丁目１１番２８－２号,,04,104,9811105,,,,,,,2022-11-28,1,,,,,コニユウ,0
2230,9380001033291,新規,0,2022-11-28,2022-11-28,株式会社輝真工業,,株式会社,福島県,いわき市,勿来町大高中郡３番地の５,,07,204,9790144,,,,,,,2022-11-28,1,,,,,キシンコウギョウ,0
2237,9420001018081,新規,0,2022-11-28,2022-11-28,株式会社ムーンパレス,,株式会社,青森県,八戸市,柏崎３丁目１番２号ロードアンドスカイ１０６,,02,203,0310081,,,,,,,2022-11-28,1,,,,,ムーンパレス,0
2241,9470001019356,新規,0,2022-11-28,2022-11-28,株式会社ｃｏｃｏ,,株式会社,香川県,高松市,松縄町１０５０番地２０,,37,201,7600079,,,,,,,2022-11-28,1,,,,,ココ,0
2242,9480003001897,新規,0,2022-11-28,2022-11-28,合同会社穂,,合同会社,徳島県,板野郡藍住町,勝瑞字東勝地２０８番地６,,36,403,7711273,,,,,,,2022-11-28,1,,,,,ミノリ,0
2243,9490001010346,新規,0,2022-11-28,2022-11-28,株式会社アクアコーポレーション,,株式会社,高知県,高知市,萩町１丁目５番１３号,,39,201,7818006,,,,,,,2022-11-28,1,,,,,アクアコーポレーション,0
2245,9700150113027,新規,0,2022-11-28,2022-11-28,ＲＥＩＷＡ　ＡＵＴＯ　ＴＲＡＤＩＮＧ　ＰＲＩＶＡＴＥ　ＬＩＭＩＴＥＤ,,外国会社等,神奈川県,厚木市,戸田１４１７番地１５ベルメゾン１０５,,14,212,2430023,スリランカ民主社会主義共和国、クルネガラ、パーナガムワ、バザールストリートＮｏ．２４０,,,,,,2022-11-28,1,,,,,レイワオートトレーデイングプライベートリミテツド,0
