sequenceNumber,corporateNumber,process,correct,updateDate,changeDate,name,nameImageId,kind,prefectureName,cityName,streetNumber,addressImageId,prefectureCode,cityCode,postCode,addressOutside,addressOutsideImageId,closeDate,closeCause,successorCorporateNumber,changeCause,assignmentDate,latest,enName,enPrefectureName,enCityName,enAddressOutside,furigana,hihyoji
5,1010001232482,登記記録の閉鎖等,0,2025-06-13,2025-05-26,東洋電子株式会社,,株式会社,東京都,千代田区,紀尾井町４番１号ニューオータニ・ガーデンタワー１０階,,13,101,1020094,,,2025-05-26,清算の結了等,,,2023-01-25,1,,,,,トウヨウデンシ,0
11,1010003021058,登記記録の閉鎖等,0,2025-06-13,2025-05-28,日光１０６ア・ラ・メゾン合同会社,,合同会社,東京都,千代田区,丸の内１丁目４番１号東京共同会計事務所内,,13,101,1000005,,,2025-05-28,清算の結了等,,,2015-10-05,1,,,,,ニッコウワンハンドレッドシックスアラメゾン,0
12,1010003044827,登記記録の閉鎖等,0,2025-06-13,2025-05-23,ＡｕｘＧｒａｃｅ合同会社,,合同会社,東京都,中央区,銀座７丁目１３番２１号銀座ｓｉｎｒｏｋｕｓｙｕビル２階,,13,102,1040061,,,2025-05-23,清算の結了等,,,2024-09-09,1,,,,,オクスグレイス,0
45,1011101021172,登記記録の閉鎖等,0,2025-06-13,2025-05-30,株式会社望月紙業商事,,株式会社,千葉県,木更津市,大久保１丁目１０番６号,,12,206,2920815,,,2025-05-30,清算の結了等,,,2015-10-05,1,,,,,モチズキシギョウショウジ,0
54,1011602023758,登記記録の閉鎖等,0,2025-06-13,2025-06-09,有限会社大原紙工,,有限会社,東京都,練馬区,貫井３丁目３３番１８号,,13,120,1760021,,,2025-06-09,清算の結了等,,,2015-10-05,1,,,,,オオハラシコウ,0
56,1011705000704,登記記録の閉鎖等,0,2025-06-13,2025-06-03,税理士法人日の出事務所,,その他の設立登記法人,東京都,江戸川区,南小岩６丁目２９番８号,,13,123,1330056,,,2025-06-03,清算の結了等,,,2015-10-05,1,,,,,ヒノデジムショ,0
63,1020001032964,登記記録の閉鎖等,0,2025-06-13,2025-06-11,アルファー商事株式会社,,株式会社,神奈川県,横須賀市,浦上台３丁目７番８号,,14,201,2390815,,,2025-06-11,清算の結了等,,,2015-10-05,1,,,,,,0
64,1020001080030,登記記録の閉鎖等,0,2025-06-13,2025-06-10,株式会社豊穣社,,株式会社,神奈川県,川崎市川崎区,昭和２丁目６－１４,,14,131,2100813,,,2025-06-10,清算の結了等,,,2015-10-05,1,,,,,ホウジョウシャ,0
73,1020001150460,登記記録の閉鎖等,0,2025-06-13,2025-06-09,株式会社ＣＫＫ,,株式会社,神奈川県,横浜市保土ケ谷区,瀬戸ケ谷町１１６番地３,,14,106,2400024,,,2025-06-09,清算の結了等,,,2023-03-07,1,,,,,シーケーケー,0
79,1020003008681,登記記録の閉鎖等,0,2025-06-13,2025-06-10,活知恵合同会社,,合同会社,神奈川県,横浜市瀬谷区,橋戸３丁目３３番地２,,14,114,2460037,,,2025-06-10,清算の結了等,,,2015-10-05,1,,,,,カッチェ,0
86,1021001043679,登記記録の閉鎖等,0,2025-06-13,2025-06-11,株式会社夢・Ｄｒｅａｍ,,株式会社,神奈川県,横須賀市,鴨居４丁目１２２６番,,14,201,2390813,,,2025-06-11,清算の結了等,,,2015-10-05,1,,,,,ユメドリーム,0
97,1030002016718,登記記録の閉鎖等,0,2025-06-13,2025-06-03,有限会社ウィズ・インク,,有限会社,埼玉県,さいたま市浦和区,岸町２丁目４番１３号,,11,107,3300064,,,2025-06-03,清算の結了等,,,2015-10-05,1,,,,,ウィズインク,0
105,1040002005323,登記記録の閉鎖等,0,2025-06-13,2025-05-30,株式会社鹿本商事,,株式会社,千葉県,千葉市花見川区,三角町１９６番地８,,12,102,2620011,,,2025-05-30,清算の結了等,,,2015-10-05,1,,,,,カモトショウジ,0
109,1050001017855,登記記録の閉鎖等,0,2025-06-13,2025-06-09,Ｓ＆Ｐ株式会社,,株式会社,茨城県,つくば市,蓮沼１３４８番地１,,08,220,3003262,,,2025-06-09,清算の結了等,,,2015-10-05,1,,,,,エスアンドピー,0
110,1050002034759,登記記録の閉鎖等,0,2025-06-13,2025-04-18,有限会社竜ケ崎仮設,,有限会社,茨城県,龍ケ崎市,６０６３番地の３,,08,208,3010000,,,2025-04-18,清算の結了等,,,2015-10-05,1,,,,,リュウガサキカセツ,0
117,1050005012646,登記記録の閉鎖等,0,2025-06-13,2025-06-06,特定非営利活動法人フロンティアビレッジ茜邑,,その他の設立登記法人,茨城県,かすみがうら市,中志筑１３４番地１,,08,230,3150075,,,2025-06-06,清算の結了等,,,2020-02-26,1,,,,,フロンティアビレッジアカネムラ,0
127,1080402015802,登記記録の閉鎖等,0,2025-06-13,2025-06-09,有限会社内山建築,,有限会社,静岡県,浜松市浜名区,細江町広岡１１７番地,,22,139,4311302,,,2025-06-09,清算の結了等,,,2015-10-05,1,,,,,ウチヤマケンチク,0
128,1100002004062,登記記録の閉鎖等,0,2025-06-13,2025-06-10,有限会社長谷川書店,,有限会社,長野県,長野市,大字南長野末広町１３５６番地,,20,201,3800825,,,2025-06-10,清算の結了等,,,2015-10-05,1,,,,,ハセガワショテン,0
130,1120001109307,登記記録の閉鎖等,0,2025-06-13,2025-06-05,株式会社トラスト,,株式会社,大阪府,大阪市中央区,南船場２丁目７番１６号,,27,128,5420081,,,2025-06-05,清算の結了等,,,2015-10-05,1,,,,,トラスト,0
131,1120001150855,登記記録の閉鎖等,0,2025-06-13,2025-06-05,株式会社ヤオシュウ,,株式会社,大阪府,枚方市,茄子作３丁目８番１－１０３号,,27,210,5730071,,,2025-06-05,清算の結了等,,,2015-10-05,1,,,,,ヤオシュウ,0
132,1120001165119,登記記録の閉鎖等,0,2025-06-13,2025-06-02,アイレンタカー株式会社,,株式会社,大阪府,寝屋川市,太秦東が丘２５番２号,,27,215,5720841,,,2025-06-02,合併による解散等,4120001160042,令和７年５月３１日大阪府寝屋川市太秦東が丘２５番２号アイシンオート株式会社（4120001160042）に合併し解散,2015-10-05,1,,,,,アイレンタカー,0
168,1140001080753,登記記録の閉鎖等,0,2025-06-13,2025-06-09,株式会社Ｃｌｕｔｃｈ,,株式会社,兵庫県,伊丹市,瑞原２丁目５７番地１・５０９,,28,207,6640005,,,2025-06-09,清算の結了等,,,2015-10-05,1,,,,,クラッチ,0
182,1160001007390,登記記録の閉鎖等,0,2025-06-13,2025-06-06,株式会社堺設備,,株式会社,滋賀県,米原市,醒井５４８番地の５,,25,214,5210035,,,2025-06-06,清算の結了等,,,2015-10-05,1,,,,,サカイセツビ,0
186,1180001001103,登記記録の閉鎖等,0,2025-06-13,2025-06-06,株式会社ピクチャアズハウスエヌ・ワイ・ユウ,,株式会社,愛知県,長久手市,作田１丁目６０３番地ジーオーコーポ第一藤ヶ丘２Ａ,,23,238,4801153,,,2025-06-06,清算の結了等,,,2015-10-05,1,,,,,ピクチャアズハウスエヌワイユウ,0
187,1180001025845,登記記録の閉鎖等,0,2025-06-13,2025-06-10,株式会社スズキアディックス,,株式会社,愛知県,名古屋市西区,花の木２丁目１番１号,,23,104,4510062,,,2025-06-10,合併による解散等,8230001020314,令和７年６月１日富山県高岡市東上関３４３番地１株式会社サンテン・コーポレーション（8230001020314）に合併し解散,2015-10-05,1,,,,,スズキアディックス,0
188,1180001109664,登記記録の閉鎖等,0,2025-06-13,2025-06-09,株式会社ゼアズライツ,,株式会社,愛知県,名古屋市中区,錦２丁目１５番２０号三永伏見ビル１階,,23,106,4600003,,,2025-06-09,清算の結了等,,,2015-10-05,1,,,,,ゼアズライツ,0
198,1180302015883,登記記録の閉鎖等,0,2025-06-13,2025-06-06,有限会社松井左官,,有限会社,愛知県,蒲郡市,水竹町下島９６番地の４,,23,214,4430005,,,2025-06-06,清算の結了等,,,2015-10-05,1,,,,,マツイサカン,0
205,1200002009522,登記記録の閉鎖等,0,2025-06-13,2025-06-10,有限会社真正鉄工,,有限会社,岐阜県,本巣市,政田１４６１番地,,21,218,5010471,,,2025-06-10,清算の結了等,,,2015-10-05,1,,,,,シンセイテッコウ,0
220,1240002002845,登記記録の閉鎖等,0,2025-06-13,2025-06-09,有限会社大島塗装店,,有限会社,広島県,広島市西区,福島町１丁目３番１３号,,34,104,7330024,,,2025-06-09,清算の結了等,,,2015-10-05,1,,,,,オオシマトソウテン,0
226,1270002010242,登記記録の閉鎖等,0,2025-06-13,2025-06-10,有限会社森建窓,,有限会社,鳥取県,倉吉市,下古川２０９番地２,,31,203,6820005,,,2025-06-10,清算の結了等,,,2015-10-05,1,,,,,モリケンソウ,0
231,1290002038793,登記記録の閉鎖等,0,2025-06-13,2025-06-05,有限会社大庭印刷,,有限会社,福岡県,筑紫野市,大字筑紫１１７番地の１８９,,40,217,8180025,,,2025-06-05,清算の結了等,,,2015-10-05,1,,,,,オオバインサツ,0
239,1330001007720,登記記録の閉鎖等,0,2025-06-13,2025-06-05,株式会社エスポワール,,株式会社,熊本県,熊本市北区,津浦町４３番１０号,,43,105,8600088,,,2025-06-05,清算の結了等,,,2015-10-05,1,,,,,エスポワール,0
241,1340001018650,登記記録の閉鎖等,0,2025-06-13,2025-06-06,株式会社シークィーン,,株式会社,鹿児島県,鹿児島市,谷山港３丁目４番地２３,,46,201,8910131,,,2025-06-06,清算の結了等,,,2015-10-05,1,,,,,シークィーン,0
243,1350001005862,登記記録の閉鎖等,0,2025-06-13,2025-06-05,株式会社悠惠フーズ,,株式会社,宮崎県,西都市,大字三宅９４６５番地５,,45,208,8810005,,,2025-06-05,清算の結了等,,,2015-10-05,1,,,,,ユウケイフーズ,0
245,1360001023707,登記記録の閉鎖等,0,2025-06-13,2025-05-26,丸浩ホールディングス株式会社,,株式会社,沖縄県,南城市,大里字古堅７５２番地１,,47,215,9011207,,,2025-05-26,合併による解散等,9360001006308,令和７年５月２６日沖縄県南城市大里字古堅７５２番地１株式会社丸浩重機工業（9360001006308）に合併し解散,2018-03-22,1,,,,,マルヒロホールディングス,0
257,1390005008445,登記記録の閉鎖等,0,2025-06-13,2025-06-04,特定非営利活動法人障がい者スポーツクラブチームヴァルハラ,,その他の設立登記法人,山形県,山形市,上柳２６０番地,,06,201,9902212,,,2025-06-04,清算の結了等,,,2015-10-05,1,,,,,ショウガイシャスポーツクラブチームヴァルハラ,0
268,1420001000410,登記記録の閉鎖等,0,2025-06-13,2025-06-03,アオヤマ商事株式会社,,株式会社,青森県,青森市,幸畑２丁目３番１号,,02,201,0300943,,,2025-06-03,清算の結了等,,,2015-10-05,1,,,,,アオヤマショウジ,0
279,1430002026180,登記記録の閉鎖等,0,2025-06-13,2025-06-06,有限会社マルミリコー,,有限会社,北海道,札幌市豊平区,西岡四条９丁目１番４８号,,01,105,0620034,,,2025-06-06,清算の結了等,,,2015-10-05,1,,,,,マルミリコー,0
283,1450002003987,登記記録の閉鎖等,0,2025-06-13,2025-06-09,有限会社ナイク,,有限会社,北海道,旭川市,豊岡五条４丁目４番地１学校法人旭川龍谷学園内,,01,204,0788235,,,2025-06-09,清算の結了等,,,2015-10-05,1,,,,,,0
298,2010001207186,登記記録の閉鎖等,0,2025-06-13,2025-05-28,プラスコンシェルジュ株式会社,,株式会社,東京都,千代田区,永田町２丁目１７番１７号,,13,101,1000014,,,2025-05-28,清算の結了等,,,2020-02-03,1,,,,,プラスコンシェルジュ,0
302,2010003043002,登記記録の閉鎖等,0,2025-06-13,2025-05-23,ユニコーン合同会社,,合同会社,東京都,中央区,月島１丁目２番１１－５０２号,,13,102,1040052,,,2025-05-23,清算の結了等,,,2024-02-21,1,,,,,ユニコーン,0
304,2010005034073,登記記録の閉鎖等,0,2025-06-13,2025-06-09,一般社団法人イーストタワーズ２,,その他の設立登記法人,東京都,千代田区,内神田２丁目２番６号５階あすな会計事務所内,,13,101,1010047,,,2025-06-09,清算の結了等,,,2021-10-14,1,,,,,イーストタワーズツー,0
323,2010403027050,登記記録の閉鎖等,0,2025-06-13,2025-05-19,ＲＢソーラーリブラ合同会社,,合同会社,東京都,港区,虎ノ門３丁目２２番１０－２０１号,,13,103,1050001,,,2025-05-19,清算の結了等,,,2022-02-08,1,,,,,アールビーソーラーリブラ,0
332,2010602012621,登記記録の閉鎖等,0,2025-06-13,2025-06-06,有限会社長藤設計,,有限会社,東京都,墨田区,太平１丁目５番１２号,,13,107,1300012,,,2025-06-06,清算の結了等,,,2015-10-05,1,,,,,ナガフジセッケイ,0
333,2010602031150,登記記録の閉鎖等,0,2025-06-13,2025-06-09,有限会社こりこり,,有限会社,東京都,墨田区,業平４丁目８番２号三浦ビル１０２号,,13,107,1300002,,,2025-06-09,清算の結了等,,,2015-10-05,1,,,,,コリコリ,0
348,2011001003088,登記記録の閉鎖等,0,2025-06-13,2025-06-09,株式会社ウガジン商会,,株式会社,東京都,渋谷区,上原３丁目２６番１９号,,13,113,1510064,,,2025-06-09,清算の結了等,,,2015-10-05,1,,,,,ウガジンショウカイ,0
355,2011003003053,登記記録の閉鎖等,0,2025-06-13,2025-05-16,合同会社ａｎｏｋ　ｌａｂ,,合同会社,東京都,渋谷区,恵比寿４丁目２０番３号,,13,113,1500013,,,2025-05-16,清算の結了等,,,2015-10-05,1,,,,,アノックラボ,0
356,2011003005553,登記記録の閉鎖等,0,2025-06-13,2025-05-19,合同会社ＬＨパートナーズ,,合同会社,東京都,港区,西新橋３丁目１６番１１号,,13,103,1050003,,,2025-05-19,清算の結了等,,,2015-10-05,1,,,,,エルエイチパートナーズ,0
357,2011005007143,登記記録の閉鎖等,0,2025-06-13,2025-05-16,一般社団法人無為山荘数寄屋研究会,,その他の設立登記法人,東京都,目黒区,中町１丁目２５番１２号,,13,110,1530065,,,2025-05-16,清算の結了等,,,2017-04-05,1,,,,,ムイサンソウスウキヤケンキュウカイ,0
363,2011601003264,登記記録の閉鎖等,0,2025-06-13,2025-06-09,株式会社城北防災,,株式会社,東京都,練馬区,錦１丁目２２番２号,,13,120,1790082,,,2025-06-09,清算の結了等,,,2015-10-05,1,,,,,ジョウホクボウサイ,0
373,2012401039416,登記記録の閉鎖等,0,2025-06-13,2025-06-09,ＳｕｎｇｏＥｎｅｒｇｙ株式会社,,株式会社,東京都,武蔵野市,関前４丁目１６番５－２０６号,,13,203,1800014,,,2025-06-09,清算の結了等,,,2022-07-14,1,,,,,サンゴーエナジー,0
378,2012801022731,登記記録の閉鎖等,0,2025-06-13,2025-06-05,株式会社Ｋｏｓｍｏｓ　Ｉｎｆｉｎｉｔｙ,,株式会社,東京都,立川市,錦町１丁目４－２０ＴＳＣビル５階,,13,202,1900022,,,2025-06-05,清算の結了等,,,2023-10-27,1,,,,,コスモスインフィニティ,0
388,2020002020703,登記記録の閉鎖等,0,2025-06-13,2025-06-09,有限会社宇井工業,,有限会社,神奈川県,横浜市旭区,今宿東町１４７８番地の１,,14,112,2410032,,,2025-06-09,清算の結了等,,,2015-10-05,1,,,,,ウイコウギョウ,0
416,2040001040122,登記記録の閉鎖等,0,2025-06-13,2025-05-30,株式会社ファイブ,,株式会社,千葉県,印西市,木刈２丁目３１番地７,,12,231,2701359,,,2025-05-30,清算の結了等,,,2015-10-05,1,,,,,ファイブ,0
420,2040001092493,登記記録の閉鎖等,0,2025-06-13,2025-05-30,株式会社ＡＧＳ,,株式会社,千葉県,鎌ケ谷市,南鎌ケ谷１丁目１１番３２－２号（Ｍｉｇｎｏｎ　Ｖｉｌｌａ　ＳＩＶ２０２）,00119826,12,224,2730106,,,2025-05-30,清算の結了等,,,2015-10-23,1,,,,,エージーエス,0
426,2050003002359,登記記録の閉鎖等,0,2025-06-13,2025-06-09,合同会社未来工房,,合同会社,茨城県,東茨城郡茨城町,大字中石崎６７０番地３,,08,302,3113124,,,2025-06-09,清算の結了等,,,2015-10-05,1,,,,,ミライコウボウ,0
434,2080001025094,登記記録の閉鎖等,0,2025-06-13,2025-06-06,株式会社ＳＸＳホールディングス,,株式会社,静岡県,静岡市葵区,大岩２丁目２９番８号,,22,101,4200886,,,2025-06-06,清算の結了等,,,2022-07-25,1,,,,,エスバイエスホールディングス,0
442,2090005004069,登記記録の閉鎖等,0,2025-06-13,2025-06-03,特定非営利活動法人ものづくり研究会,,その他の設立登記法人,山梨県,甲州市,塩山下萩原２２５３番地,,19,213,4040024,,,2025-06-03,清算の結了等,,,2015-10-05,1,,,,,モノヅクリケンキュウカイ,0
447,2120002037092,登記記録の閉鎖等,0,2025-06-13,2025-06-06,有限会社ツーリスト宝,,有限会社,大阪府,寝屋川市,東神田町１６番４号,,27,215,5720045,,,2025-06-06,清算の結了等,,,2015-10-05,1,,,,,ツーリストタカラ,0
476,2140001073640,登記記録の閉鎖等,0,2025-06-13,2025-06-03,株式会社Ｋ・Ｓ,,株式会社,兵庫県,西宮市,甲子園口６丁目１１番２０号,,28,204,6638113,,,2025-06-03,清算の結了等,,,2015-10-05,1,,,,,ケイエス,0
477,2140001101558,登記記録の閉鎖等,0,2025-06-13,2025-06-06,株式会社テトラ,,株式会社,兵庫県,尼崎市,塚口本町１丁目１６番１５号,,28,202,6610001,,,2025-06-06,清算の結了等,,,2016-04-12,1,,,,,,0
481,2140002020187,登記記録の閉鎖等,0,2025-06-13,2025-06-06,有限会社シーアンドエル,,有限会社,兵庫県,神戸市須磨区,大田町４丁目３番１０号,,28,107,6540024,,,2025-06-06,清算の結了等,,,2015-10-05,1,,,,,シーアンドエル,0
484,2150001004660,登記記録の閉鎖等,0,2025-06-13,2025-06-11,朝日新聞奈良販売株式会社,,株式会社,奈良県,奈良市,菅原町６４６番地,,29,201,6310842,,,2025-06-11,合併による解散等,3130001016384,令和７年６月１日京都市下京区寺町通綾小路下る中之町５５９番地朝日新聞京都販売株式会社（3130001016384）に合併し解散,2015-10-05,1,,,,,アサヒシンブンナラハンバイ,0
485,2160001015005,登記記録の閉鎖等,0,2025-06-13,2025-06-09,進向株式会社,,株式会社,滋賀県,栗東市,手原４丁目６番１０号,,25,208,5203047,,,2025-06-09,清算の結了等,,,2015-10-05,1,,,,,シンコウ,0
489,2180001050074,登記記録の閉鎖等,0,2025-06-13,2025-06-10,株式会社ジャパンフーズ,,株式会社,愛知県,名古屋市千種区,振甫町２丁目６０番地の２,,23,101,4640072,,,2025-06-10,合併による解散等,8120001098106,令和７年６月１日大阪市北区芝田二丁目８番１０号株式会社ジャパンフーズ（8120001098106）に合併し解散,2015-10-05,1,,,,,ジャパンフーズ,0
506,2260001010276,登記記録の閉鎖等,0,2025-06-13,2025-06-04,株式会社岡山楷進予備校,,株式会社,岡山県,岡山市北区,下伊福上町１４番１２号,,33,101,7000051,,,2025-06-04,清算の結了等,,,2015-10-05,1,,,,,オカヤマカイシンヨビコウ,0
507,2260002017543,登記記録の閉鎖等,0,2025-06-13,2025-06-10,有限会社瓦工事ミヤケ,,有限会社,岡山県,倉敷市,林２８１番地３,,33,202,7100142,,,2025-06-10,清算の結了等,,,2015-10-05,1,,,,,,0
517,2310001007226,登記記録の閉鎖等,0,2025-06-13,2025-06-10,株式会社民輪工業,,株式会社,長崎県,佐世保市,船越町５４４番地,,42,202,8571231,,,2025-06-10,清算の結了等,,,2015-10-05,1,,,,,タミワコウギョウ,0
520,2330001026901,登記記録の閉鎖等,0,2025-06-13,2025-06-11,中九州食品サービス株式会社,,株式会社,熊本県,熊本市北区,植木町平野４４８番地１,,43,105,8610144,,,2025-06-11,合併による解散等,2290001087015,令和７年６月１日福岡県春日市白水ケ丘五丁目１５０番地食品サービス株式会社（2290001087015）に合併し解散,2019-11-07,1,,,,,ナカキュウシュウショクヒンサービス,0
525,2340003001166,登記記録の閉鎖等,0,2025-06-13,2025-06-02,合同会社オープン・ウィンドウ,,合同会社,鹿児島県,南さつま市,加世田川畑５２３０番地１,,46,220,8970003,,,2025-06-02,清算の結了等,,,2015-10-05,1,,,,,オープンウィンドウ,0
527,2350001012370,登記記録の閉鎖等,0,2025-06-13,2025-06-04,マイレ企画株式会社,,株式会社,宮崎県,宮崎市,橘通東３丁目２番３号,,45,201,8800805,,,2025-06-04,清算の結了等,,,2015-10-05,1,,,,,マイレキカク,0
533,2370001019661,登記記録の閉鎖等,0,2025-06-13,2025-06-05,株式会社ＣＣＩ,,株式会社,宮城県,仙台市太白区,茂庭字人来田東４５番地の４,,04,104,9820251,,,2025-06-05,清算の結了等,,,2015-10-05,1,,,,,シーシーアイ,0
568,3010401023620,登記記録の閉鎖等,0,2025-06-13,2025-05-21,株式会社ノニカジャパン,,株式会社,東京都,港区,南青山６丁目３－１１ＰＡＮ南青山ビル６０２,,13,103,1070062,,,2025-05-21,清算の結了等,,,2015-10-05,1,,,,,ノニカジャパン,0
582,3010501040573,登記記録の閉鎖等,0,2025-06-13,2025-06-02,株式会社ラックル,,株式会社,東京都,台東区,台東１丁目３６番４号－第２ファスナービル４階,,13,106,1100016,,,2025-06-02,清算の結了等,,,2017-01-31,1,,,,,ラックル,0
583,3010502022769,登記記録の閉鎖等,0,2025-06-13,2025-06-04,有限会社エスパ・デザイン室,,有限会社,東京都,台東区,蔵前４丁目２６番４－９０１号,,13,106,1110051,,,2025-06-04,清算の結了等,,,2015-10-05,1,,,,,エスパデザインシツ,0
587,3010602016522,登記記録の閉鎖等,0,2025-06-13,2025-06-09,有限会社ワイ・ディー・シー,,有限会社,東京都,墨田区,墨田３丁目２番４号,,13,107,1310031,,,2025-06-09,清算の結了等,,,2015-10-05,1,,,,,,0
603,3011401005625,登記記録の閉鎖等,0,2025-06-13,2025-06-10,双葉電気株式会社,,株式会社,東京都,板橋区,徳丸１丁目１２番１２号,,13,119,1750083,,,2025-06-10,清算の結了等,,,2015-10-05,1,,,,,フタバデンキ,0
604,3011403003288,登記記録の閉鎖等,0,2025-06-13,2025-06-10,Ｄｉｇｉｔａｌ　Ｎｏｖａ合同会社,,合同会社,東京都,板橋区,赤塚２丁目１番１２号下赤塚パンダビル２階２１３,,13,119,1750092,,,2025-06-10,清算の結了等,,,2021-03-31,1,,,,,デジタルノヴァ,0
606,3011701004426,登記記録の閉鎖等,0,2025-06-13,2025-06-04,株式会社繊商,,株式会社,東京都,江戸川区,南小岩１丁目１２番３号,,13,123,1330056,,,2025-06-04,清算の結了等,,,2015-10-05,1,,,,,センショウ,0
608,3011801032211,登記記録の閉鎖等,0,2025-06-13,2025-05-23,株式会社和合,,株式会社,東京都,中央区,銀座１丁目２２番１１号銀座大竹ビジデンス２階,,13,102,1040061,,,2025-05-23,清算の結了等,,,2016-08-18,1,,,,,ワゴウ,0
609,3011803004778,登記記録の閉鎖等,0,2025-06-13,2025-06-09,合同会社一言之信,,合同会社,東京都,足立区,西保木間３丁目２３番１４号,,13,121,1210812,,,2025-06-09,清算の結了等,,,2021-09-15,1,,,,,イチゲンノシン,0
619,3020001140625,登記記録の閉鎖等,0,2025-06-13,2025-05-19,株式会社メディレオン,,株式会社,東京都,渋谷区,道玄坂２丁目２５番６号ホリウチビル３階,,13,113,1500043,,,2025-05-19,清算の結了等,,,2021-04-05,1,,,,,メディレオン,0
623,3020002016634,登記記録の閉鎖等,0,2025-06-13,2025-06-10,有限会社山星エンタープライズ,,有限会社,神奈川県,横浜市西区,御所山町１番地の１御所山ハイツ２０１号,,14,103,2200043,,,2025-06-10,清算の結了等,,,2015-10-05,1,,,,,ヤマホシエンタープライズ,0
625,3020003013721,登記記録の閉鎖等,0,2025-06-13,2025-06-03,Ｗｉｓｔｙ　Ｌｉｎｋｓ合同会社,,合同会社,神奈川県,川崎市麻生区,白山５丁目１番６号６０６,,14,137,2150014,,,2025-06-03,清算の結了等,,,2018-01-05,1,,,,,,0
636,3030002045260,登記記録の閉鎖等,0,2025-06-13,2025-06-06,有限会社成尾印刷,,有限会社,埼玉県,草加市,青柳３丁目９番１０号,,11,221,3400002,,,2025-06-06,清算の結了等,,,2015-10-05,1,,,,,ナルオインサツ,0
643,3040001043900,登記記録の閉鎖等,0,2025-06-13,2025-05-29,トキワ型精株式会社,00019102,株式会社,千葉県,白井市,河原子２６１番地５,,12,232,2701403,,,2025-05-29,清算の結了等,,,2015-10-05,1,,,,,トキワケイセイ,0
654,3050001000917,登記記録の閉鎖等,0,2025-06-13,2025-06-06,株式会社建築室創匠,,株式会社,茨城県,水戸市,けやき台１丁目６０番地３,,08,201,3100842,,,2025-06-06,清算の結了等,,,2015-10-05,1,,,,,ケンチクシツソウショウ,0
670,3110005015302,登記記録の閉鎖等,0,2025-06-13,2025-05-19,特定非営利活動法人立野福祉会,,その他の設立登記法人,新潟県,佐渡市,立野４６４番地,,15,224,9520026,,,2025-05-19,清算の結了等,,,2015-10-05,1,,,,,タテノフクシカイ,0
671,3120001129121,登記記録の閉鎖等,0,2025-06-13,2025-06-10,株式会社永久自戒福井・樋口・深尾社,00029099,株式会社,大阪府,大阪市淀川区,西中島６丁目２番３－２２５号ハン六内,,27,123,5320011,,,2025-06-10,合併による解散等,3120001138964,令和７年６月１日京都市下京区烏丸通松原上ル因幡堂町６８２番地ハン六ホールディングス株式会社（3120001138964）に合併し解散,2015-10-05,1,,,,,エイキュウジカイフクイヒグチフカオシャ,0
688,3120901023745,登記記録の閉鎖等,0,2025-06-13,2025-06-06,株式会社日本マネジメント協会コンサルティング,,株式会社,大阪府,豊中市,柴原町２丁目４番４号,,27,203,5600055,,,2025-06-06,清算の結了等,,,2015-10-05,1,,,,,ニホンマネジメントキョウカイコンサルティング,0
694,3130001044690,登記記録の閉鎖等,0,2025-06-13,2025-06-10,株式会社サン・テック,,株式会社,京都府,宇治市,木幡須留１番地の１９０,,26,204,6110002,,,2025-06-10,清算の結了等,,,2015-10-05,1,,,,,サンテック,0
698,3130003002317,登記記録の閉鎖等,0,2025-06-13,2025-06-09,合同会社あかり,,合同会社,京都府,京都市右京区,嵯峨観空寺明水町３３番１,,26,108,6168443,,,2025-06-09,清算の結了等,,,2015-10-05,1,,,,,アカリ,0
733,3200002017317,登記記録の閉鎖等,0,2025-06-13,2025-06-09,有限会社丸義物流,,有限会社,岐阜県,可児市,川合１９０番地の３,,21,214,5090201,,,2025-06-09,清算の結了等,,,2015-10-05,1,,,,,マルヨシブツリュウ,0
734,3210001009784,登記記録の閉鎖等,0,2025-06-13,2025-06-10,源平酒造株式会社,,株式会社,福井県,大野市,要町１番３３号,,18,205,9120026,,,2025-06-10,清算の結了等,,,2015-10-05,1,,,,,ゲンペイシュゾウ,0
735,3210001015428,登記記録の閉鎖等,0,2025-06-13,2025-06-12,株式会社オルフ,,株式会社,福井県,鯖江市,舟津町２丁目２番８号,,18,207,9160054,,,2025-06-12,清算の結了等,,,2015-10-05,1,,,,,オルフ,0
740,3250001002604,登記記録の閉鎖等,0,2025-06-13,2025-06-11,株式会社亜依広告,,株式会社,山口県,防府市,本橋町２１番３４号,,35,206,7470041,,,2025-06-11,清算の結了等,,,2015-10-05,1,,,,,アイコウコク,0
747,3290001101971,登記記録の閉鎖等,0,2025-06-13,2025-06-05,株式会社ＰＲａｄｖｉｓｅｒＬａｂ,,株式会社,福岡県,福岡市博多区,千代４丁目４－１６四季のいろＢＬＤ２Ｆ,,40,132,8120044,,,2025-06-05,清算の結了等,,,2023-06-20,1,,,,,ピーアールアドバイザーラボ,0
754,3320003001621,登記記録の閉鎖等,0,2025-06-13,2025-06-03,くにさき漁業合同会社,,合同会社,大分県,国東市,国見町伊美２４８９番地,,44,214,8721401,,,2025-06-03,合併による解散等,8320001017648,令和７年６月３日大分県国東市国東町富来浦字羽田７３１番地１４Ｏｓｔｒａ株式会社（8320001017648）に合併し解散,2015-10-05,1,,,,,クニサキギョギョウ,0
776,3390002015186,登記記録の閉鎖等,0,2025-06-13,2025-06-04,有限会社ニッタ,,有限会社,山形県,西置賜郡白鷹町,大字荒砥乙５３５－１ＳＣスピカ内南十字星,,06,402,9920832,,,2025-06-04,清算の結了等,,,2015-10-05,1,,,,,ニッタ,0
793,4010001117615,登記記録の閉鎖等,0,2025-06-13,2025-05-28,株式会社スマートインフラ総合研究所,,株式会社,東京都,中央区,湊３丁目５番７,,13,102,1040043,,,2025-05-28,清算の結了等,,,2015-10-05,1,,,,,スマートインフラソウゴウケンキュウジョ,0
802,4010003034453,登記記録の閉鎖等,0,2025-06-13,2025-05-23,広重合同会社,,合同会社,東京都,千代田区,霞が関３丁目２番５号,,13,101,1000013,,,2025-05-23,清算の結了等,,,2021-03-23,1,,,,,ヒロシゲ,0
808,4010401067229,登記記録の閉鎖等,0,2025-06-13,2025-05-23,株式会社Ｋａｌｅｉｄｏ,,株式会社,東京都,渋谷区,神宮前５丁目２５番４号,,13,113,1500001,,,2025-05-23,清算の結了等,,,2015-10-05,1,,,,,カレイド,0
811,4010401099627,登記記録の閉鎖等,0,2025-06-13,2025-05-21,株式会社ＰＲＯＰＥＲ　Ｐｌｕｓ,,株式会社,東京都,港区,港南２丁目１５番１号品川インターシティＡ棟２８階,,13,103,1080075,,,2025-05-21,清算の結了等,,,2015-10-05,1,,,,,プロパープラス,0
841,4010701041560,登記記録の閉鎖等,0,2025-06-13,2025-06-02,ＴＥＲＲＡＤＡ　ＩＮＶＥＳＴＭＥＮＴ　ＣＯＲＰＯＲＡＴＩＯＮ株式会社,,株式会社,東京都,品川区,東品川２丁目６番１０号,,13,109,1400002,,,2025-06-02,清算の結了等,,,2021-09-27,1,,,,,テラダインベストメントコーポレーション,0
842,4010701043029,登記記録の閉鎖等,0,2025-06-13,2025-06-02,株式会社Ｆｌｏｗ,,株式会社,東京都,品川区,上大崎３丁目２番９号,,13,109,1410021,,,2025-06-02,合併による解散等,4011001037456,令和７年６月１日東京都品川区上大崎三丁目２番９号株式会社ＴＲＩＡＤ（4011001037456）に合併し解散,2022-08-03,1,,,,,フロー,0
865,4011101104230,登記記録の閉鎖等,0,2025-06-13,2025-05-26,株式会社エース・ホールディングス,,株式会社,東京都,新宿区,新宿４丁目１－２３,,13,104,1600022,,,2025-05-26,清算の結了等,,,2023-09-07,1,,,,,エースホールディングス,0
871,4011302001747,登記記録の閉鎖等,0,2025-06-13,2025-06-02,有限会社エムエス商会,,有限会社,東京都,杉並区,西荻北２丁目３８番３号,,13,115,1670042,,,2025-06-02,清算の結了等,,,2015-10-05,1,,,,,エムエスショウカイ,0
879,4012401037830,登記記録の閉鎖等,0,2025-06-13,2025-06-09,株式会社高衛物産,,株式会社,東京都,府中市,片町２丁目２番地の１橋浦ビル３階,,13,206,1830021,,,2025-06-09,清算の結了等,,,2021-05-10,1,,,,,コウエイブッサン,0
886,4020001121062,登記記録の閉鎖等,0,2025-06-13,2025-06-09,株式会社Ｆｕｔ　Ｌａｂｏ,,株式会社,神奈川県,横浜市西区,桜木町７丁目４２番地１１号,,14,103,2200021,,,2025-06-09,清算の結了等,,,2017-05-01,1,,,,,,0
890,4020002059211,登記記録の閉鎖等,0,2025-06-13,2025-06-10,有限会社ワークステーション,,有限会社,神奈川県,横浜市鶴見区,上末吉４丁目２２番１０号,,14,101,2300011,,,2025-06-10,清算の結了等,,,2015-10-05,1,,,,,ワークステーション,0
892,4020002075076,登記記録の閉鎖等,0,2025-06-13,2025-06-09,有限会社コーユーシナジー,,有限会社,神奈川県,横浜市西区,平沼１丁目１３－１４パークノヴァ横浜壱番館９０３,,14,103,2200023,,,2025-06-09,清算の結了等,,,2015-10-05,1,,,,,コーユーシナジー,0
894,4020003014850,登記記録の閉鎖等,0,2025-06-13,2025-06-03,ＲＲＥ合同会社,,合同会社,東京都,江戸川区,中葛西２丁目２１番１１－２０１号,,13,123,1340083,,,2025-06-03,清算の結了等,,,2018-09-10,1,,,,,アールアールイー,0
917,4030002037843,登記記録の閉鎖等,0,2025-06-13,2025-06-06,有限会社井野商店,,有限会社,埼玉県,久喜市,本町５丁目１５番２６号,,11,232,3460005,,,2025-06-06,清算の結了等,,,2015-10-05,1,,,,,イノショウテン,0
925,4040001050152,登記記録の閉鎖等,0,2025-06-13,2025-05-13,株式会社檪山商事,,株式会社,千葉県,鎌ケ谷市,くぬぎ山５丁目１番２６号,,12,224,2730128,,,2025-05-13,清算の結了等,,,2015-10-05,1,,,,,クヌギヤマショウジ,0
937,4060002021679,登記記録の閉鎖等,0,2025-06-13,2025-06-09,寺内建設有限会社,,有限会社,栃木県,鹿沼市,深津１２９１番地３,,09,205,3220013,,,2025-06-09,清算の結了等,,,2015-10-05,1,,,,,テラウチケンセツ,0
938,4060003004328,登記記録の閉鎖等,0,2025-06-13,2025-06-09,合同会社ＴＫＧ,,合同会社,栃木県,河内郡上三川町,大字多功５２９番地１,,09,301,3290524,,,2025-06-09,清算の結了等,,,2022-12-08,1,,,,,ティーケージー,0
941,4070001032676,登記記録の閉鎖等,0,2025-06-13,2025-06-05,株式会社龍美,,株式会社,群馬県,太田市,岩瀬川町６９番地１,,10,205,3730841,,,2025-06-05,清算の結了等,,,2016-09-20,1,,,,,タツミ,0
945,4080403004207,登記記録の閉鎖等,0,2025-06-13,2025-06-09,合同会社ＹＴＵ,,合同会社,静岡県,浜松市中央区,旭町６番地の１一条タワー１００１号,,22,138,4300927,,,2025-06-09,清算の結了等,,,2021-02-25,1,,,,,ワイティーユー,0
953,4110002005916,登記記録の閉鎖等,0,2025-06-13,2025-06-03,有限会社防災工事,,有限会社,新潟県,新潟市江南区,天野２丁目４番５４号,,15,104,9501134,,,2025-06-03,清算の結了等,,,2015-10-05,1,,,,,ボウサイコウジ,0
956,4120001053394,登記記録の閉鎖等,0,2025-06-13,2025-06-06,株式会社アイエスアイ,,株式会社,大阪府,大阪市淀川区,木川東３丁目６番２０号,,27,123,5320012,,,2025-06-06,清算の結了等,,,2015-10-05,1,,,,,アイエスアイ,0
999,4150001024673,登記記録の閉鎖等,0,2025-06-13,2025-06-12,株式会社ＲｅＯ,,株式会社,奈良県,奈良市,三条町５１１番地正木ビル６階,,29,201,6308244,,,2025-06-12,清算の結了等,,,2021-05-27,1,,,,,リオ,0
1001,4170002011132,登記記録の閉鎖等,0,2025-06-13,2025-06-10,有限会社キシタニ総合事務所,,有限会社,和歌山県,新宮市,新宮４５７番地の８,,30,207,6470081,,,2025-06-10,清算の結了等,,,2015-10-05,1,,,,,キシタニソウゴウジムショ,0
1011,4180002006370,登記記録の閉鎖等,0,2025-06-13,2025-06-05,有限会社サロニカ,,有限会社,愛知県,名古屋市港区,名港１丁目１４番１７号,,23,111,4550037,,,2025-06-05,清算の結了等,,,2015-10-05,1,,,,,サロニカ,0
1015,4180302003506,登記記録の閉鎖等,0,2025-06-13,2025-06-04,有限会社都築佛壇店,,有限会社,愛知県,額田郡幸田町,大字大草字羽根３番地,,23,501,4440103,,,2025-06-04,清算の結了等,,,2015-10-05,1,,,,,ツヅキブツダンテン,0
1016,4180302026093,登記記録の閉鎖等,0,2025-06-13,2025-06-04,有限会社川角製作所,,有限会社,愛知県,西尾市,平坂町茶林４番地３,,23,213,4440305,,,2025-06-04,清算の結了等,,,2015-10-05,1,,,,,カワスミセイサクジョ,0
1034,4290001063906,登記記録の閉鎖等,0,2025-06-13,2025-06-05,株式会社ヒロセホールディングス,,株式会社,福岡県,三潴郡大木町,大字八町牟田４２０番地２,,40,522,8300416,,,2025-06-05,清算の結了等,,,2015-10-05,1,,,,,ヒロセホールディングス,0
1038,4290002041852,登記記録の閉鎖等,0,2025-06-13,2025-06-04,有限会社山下,,有限会社,福岡県,春日市,上白水８丁目８９番地,,40,218,8160844,,,2025-06-04,清算の結了等,,,2015-10-05,1,,,,,ヤマシタ,0
1043,4300001008033,登記記録の閉鎖等,0,2025-06-13,2025-06-10,株式会社Ｍ．Ｍ．Ｓ,,株式会社,佐賀県,東松浦郡玄海町,大字今村６１１６番地,,41,387,8471441,,,2025-06-10,清算の結了等,,,2015-10-05,1,,,,,エムエムエス,0
1044,4310001009385,登記記録の閉鎖等,0,2025-06-13,2025-06-11,株式会社食楽亭,,株式会社,長崎県,諫早市,幸町７３番地３,,42,204,8540022,,,2025-06-11,清算の結了等,,,2015-10-05,1,,,,,ショクラクテイ,0
1045,4310002011605,登記記録の閉鎖等,0,2025-06-13,2025-06-11,有限会社松尾施工店,,有限会社,長崎県,佐世保市,相浦町２２７番地,,42,202,8580918,,,2025-06-11,清算の結了等,,,2015-10-05,1,,,,,マツオセコウテン,0
1046,4310002019615,登記記録の閉鎖等,0,2025-06-13,2025-06-10,有限会社川水,,有限会社,長崎県,松浦市,福島町塩浜免６８５番地４０,,42,208,8480403,,,2025-06-10,清算の結了等,,,2015-10-05,1,,,,,センスイ,0
1084,4470002005582,登記記録の閉鎖等,0,2025-06-13,2025-06-10,有限会社春吉商店,,有限会社,香川県,高松市,福岡町１丁目８番１３号,,37,201,7600066,,,2025-06-10,清算の結了等,,,2015-10-05,1,,,,,ハルヨシショウテン,0
1090,5010001131631,登記記録の閉鎖等,0,2025-06-13,2025-06-09,株式会社建匠,,株式会社,栃木県,下都賀郡野木町,大字丸林４１０番地１９,,09,364,3290111,,,2025-06-09,清算の結了等,,,2015-10-05,1,,,,,ケンショウ,0
1099,5010003043684,登記記録の閉鎖等,0,2025-06-13,2025-05-28,エスティ１２合同会社,,合同会社,東京都,千代田区,丸の内１丁目４番１号東京共同会計事務所内,,13,101,1000005,,,2025-05-28,清算の結了等,,,2024-05-08,1,,,,,エスティジュウニ,0
1113,5010405016107,登記記録の閉鎖等,0,2025-06-13,2025-05-21,一般社団法人ＳＨ０１２,,その他の設立登記法人,東京都,港区,虎ノ門３丁目２２番１０－２０１号,,13,103,1050001,,,2025-05-21,清算の結了等,,,2017-10-02,1,,,,,エスエイチゼロワンツー,0
1114,5010601019045,登記記録の閉鎖等,0,2025-06-13,2025-06-09,アスクエンジ株式会社,,株式会社,東京都,江東区,冬木２０番８,,13,108,1350041,,,2025-06-09,清算の結了等,,,2015-10-05,1,,,,,,0
1119,5010603004367,登記記録の閉鎖等,0,2025-06-13,2025-06-06,Ｔ＆Ｔインベストメント合同会社,,合同会社,東京都,江東区,南砂２丁目４番２５－２１４号,,13,108,1360076,,,2025-06-06,清算の結了等,,,2015-10-05,1,,,,,ティーアンドティーインベストメント,0
1123,5010701043028,登記記録の閉鎖等,0,2025-06-13,2025-06-02,株式会社Ｃｏｍｍｅｒｃｅ　Ｃｒｅｗ,,株式会社,東京都,品川区,上大崎３丁目２番９号,,13,109,1410021,,,2025-06-02,合併による解散等,4011001037456,令和７年６月１日東京都品川区上大崎三丁目２番９号株式会社ＴＲＩＡＤ（4011001037456）に合併し解散,2022-08-03,1,,,,,コマースクルー,0
1128,5010901012889,登記記録の閉鎖等,0,2025-06-13,2025-06-09,株式会社Ｍカンパニー,,株式会社,東京都,調布市,仙川町１丁目１３番地２３号,,13,208,1820002,,,2025-06-09,清算の結了等,,,2015-10-05,1,,,,,,0
1129,5010901044271,登記記録の閉鎖等,0,2025-06-13,2025-06-09,株式会社ｂｅａｒ　ｔｒｉｇｇｅｒ,,株式会社,埼玉県,草加市,西町４９４番地２,,11,221,3400035,,,2025-06-09,清算の結了等,,,2019-06-03,1,,,,,ベアトリガー,0
1143,5011001158251,登記記録の閉鎖等,0,2025-06-13,2025-05-13,株式会社ごはく,,株式会社,東京都,渋谷区,千駄ヶ谷４丁目８番７号,,13,113,1510051,,,2025-05-13,清算の結了等,,,2023-11-16,1,,,,,ゴハク,0
1153,5011301024938,登記記録の閉鎖等,0,2025-06-13,2025-05-29,株式会社ＨｅＡｒｔｓ　Ｌａｂｏ,,株式会社,東京都,品川区,大崎１丁目１４番３－１１０６号,,13,109,1410032,,,2025-05-29,清算の結了等,,,2019-04-03,1,,,,,ハーツラボ,0
1169,5012402022228,登記記録の閉鎖等,0,2025-06-13,2025-06-09,有限会社森工業,,有限会社,東京都,府中市,紅葉丘１丁目３６番地の３４,,13,206,1830004,,,2025-06-09,清算の結了等,,,2015-10-05,1,,,,,,0
1175,5013303006121,登記記録の閉鎖等,0,2025-06-13,2025-06-02,合同会社コタケヨウスケ,,合同会社,東京都,豊島区,高松３丁目９番１３号ハイツグレース２０５,,13,116,1710042,,,2025-06-02,清算の結了等,,,2022-04-13,1,,,,,コタケヨウスケ,0
1179,5020003016499,登記記録の閉鎖等,0,2025-06-13,2025-06-09,合同会社ＴＫマネジメント,,合同会社,神奈川県,横浜市旭区,柏町３１番地６,,14,112,2410835,,,2025-06-09,清算の結了等,,,2019-08-07,1,,,,,ティーケーマネジメント,0
1180,5020003019221,登記記録の閉鎖等,0,2025-06-13,2025-06-09,青海商事合同会社,,合同会社,神奈川県,横浜市西区,高島２丁目１１番２号,,14,103,2200011,,,2025-06-09,清算の結了等,,,2021-02-05,1,,,,,オウミショウジ,0
1188,5021002000857,登記記録の閉鎖等,0,2025-06-13,2025-06-05,有限会社エヌアンドエム,,有限会社,神奈川県,藤沢市,辻堂神台１丁目６番３～７０８号,00012886,14,205,2510041,,,2025-06-05,清算の結了等,,,2015-10-05,1,,,,,エヌアンドエム,0
1189,5021002054093,登記記録の閉鎖等,0,2025-06-13,2025-06-10,有限会社つばさ環境,,有限会社,神奈川県,小田原市,飯泉８９４番地１,,14,206,2500863,,,2025-06-10,清算の結了等,,,2015-10-05,1,,,,,ツバサカンキョウ,0
1196,5030001032646,登記記録の閉鎖等,0,2025-06-13,2025-06-06,ハウス建材株式会社,,株式会社,埼玉県,加須市,東栄２丁目８番２０号,,11,210,3470064,,,2025-06-06,清算の結了等,,,2015-10-05,1,,,,,ハウスケンザイ,0
1218,5060001031224,登記記録の閉鎖等,0,2025-06-13,2025-06-09,ダイゴ企画株式会社,,株式会社,栃木県,那須塩原市,折戸２３１番地２６８,,09,213,3292804,,,2025-06-09,清算の結了等,,,2019-01-07,1,,,,,ダイゴキカク,0
1227,5090001004854,登記記録の閉鎖等,0,2025-06-13,2025-06-11,株式会社甲府興産,,株式会社,山梨県,南アルプス市,東南湖７８８番地,,19,208,4000412,,,2025-06-11,合併による解散等,3080001008619,令和７年６月１日静岡市清水区真砂町３番２７号株式会社竹屋旅館（3080001008619）に合併し解散,2015-10-05,1,,,,,コウフコウサン,0
1229,5100002029205,登記記録の閉鎖等,0,2025-06-13,2025-06-10,有限会社太田運送,,有限会社,長野県,諏訪市,大字湖南６５２２番地２,,20,206,3920131,,,2025-06-10,清算の結了等,,,2015-10-05,1,,,,,オオタウンソウ,0
1237,5120001188181,登記記録の閉鎖等,0,2025-06-13,2025-06-06,株式会社六式,,株式会社,大阪府,大阪市中央区,南久宝寺町１丁目１番３号,,27,128,5410058,,,2025-06-06,清算の結了等,,,2015-10-05,1,,,,,ロクシキ,0
1264,5140001055470,登記記録の閉鎖等,0,2025-06-13,2025-06-06,ワールドパワー株式会社,,株式会社,大阪府,大阪市中央区,淡路町３丁目６番１２号,,27,128,5410047,,,2025-06-06,清算の結了等,,,2015-10-05,1,,,,,ワールドパワー,0
1267,5140001080477,登記記録の閉鎖等,0,2025-06-13,2025-06-10,株式会社ケイツー,,株式会社,兵庫県,川西市,美山台３丁目１番地の４３,,28,217,6660151,,,2025-06-10,清算の結了等,,,2015-10-05,1,,,,,ケイツー,0
1276,5140003017576,登記記録の閉鎖等,0,2025-06-13,2025-06-06,Ｗａｌｌ　Ｅｓｔａｔｅ合同会社,,合同会社,兵庫県,神戸市垂水区,王居殿３丁目１１番２４号,,28,108,6550883,,,2025-06-06,清算の結了等,,,2022-04-20,1,,,,,ウォールエステート,0
1290,5180001154450,登記記録の閉鎖等,0,2025-06-13,2025-06-06,株式会社ｉｍａ,,株式会社,愛知県,名古屋市港区,土古町１丁目２６番地,,23,111,4550068,,,2025-06-06,清算の結了等,,,2023-01-10,1,,,,,イマ,0
1292,5180002080522,登記記録の閉鎖等,0,2025-06-13,2025-06-05,有限会社きたやま,,有限会社,愛知県,稲沢市,平和町法立北瀬古１番地,,23,220,4901304,,,2025-06-05,清算の結了等,,,2015-10-05,1,,,,,キタヤマ,0
1293,5180003013563,登記記録の閉鎖等,0,2025-06-13,2025-06-06,合資会社大器製作所,,合資会社,愛知県,愛西市,西保町南川原７６番地の１,,23,232,4960911,,,2025-06-06,清算の結了等,,,2015-10-05,1,,,,,ダイキセイサクショ,0
1297,5190001025015,登記記録の閉鎖等,0,2025-06-13,2025-06-05,株式会社天野新聞店,,株式会社,三重県,鳥羽市,鳥羽５丁目１０番２１号,,24,211,5170011,,,2025-06-05,清算の結了等,,,2017-10-13,1,,,,,アマノシンブンテン,0
1299,5200003006390,登記記録の閉鎖等,0,2025-06-13,2025-06-10,合同会社ＴＳ,,合同会社,岐阜県,高山市,山田町２３５番地１,,21,203,5060058,,,2025-06-10,清算の結了等,,,2024-06-17,1,,,,,ティーエス,0
1303,5230003002123,登記記録の閉鎖等,0,2025-06-13,2025-06-09,合同会社佐藤施工サービス,,合同会社,富山県,富山市,萩原２３８番地３ラ・ページブル２０４号,,16,201,9398261,,,2025-06-09,清算の結了等,,,2023-12-21,1,,,,,,0
1307,5250002013813,登記記録の閉鎖等,0,2025-06-13,2025-06-11,有限会社まるみストアー,,有限会社,山口県,長門市,東深川８２１番地２,,35,211,7594101,,,2025-06-11,清算の結了等,,,2015-10-05,1,,,,,,0
1308,5280001003985,登記記録の閉鎖等,0,2025-06-13,2025-06-11,株式会社岡田塗装工業,,株式会社,島根県,大田市,仁摩町仁万９９１番地２,,32,205,6992301,,,2025-06-11,清算の結了等,,,2015-10-05,1,,,,,オカダトソウコウギョウ,0
1331,5370002000972,登記記録の閉鎖等,0,2025-06-13,2025-06-05,有限会社システムイシダ,,有限会社,宮城県,仙台市泉区,鶴が丘３丁目１８番地の９,,04,105,9813109,,,2025-06-05,清算の結了等,,,2015-10-05,1,,,,,システムイシダ,0
1368,6010401099022,登記記録の閉鎖等,0,2025-06-13,2025-05-23,株式会社ウェルスコミュニケーション,,株式会社,東京都,渋谷区,松濤２丁目２０番１０号ｍｏｄｅｒｎｏｔｏｒｒｅｓｈｏ－ｔｏ２０Ｆ,,13,113,1500046,,,2025-05-23,清算の結了等,,,2015-10-05,1,,,,,ウェルスコミュニケーション,0
1380,6010601035594,登記記録の閉鎖等,0,2025-06-13,2025-06-05,株式会社優美,,株式会社,東京都,墨田区,業平３丁目３番９号相澤ビル１階,,13,107,1300002,,,2025-06-05,清算の結了等,,,2015-10-05,1,,,,,,0
1384,6010701005737,登記記録の閉鎖等,0,2025-06-13,2025-05-30,高橋産業株式会社,,株式会社,千葉県,千葉市若葉区,野呂町４５６番地の２,,12,104,2650053,,,2025-05-30,清算の結了等,,,2015-10-05,1,,,,,タカハシサンギョウ,0
1386,6010701045568,登記記録の閉鎖等,0,2025-06-13,2025-06-02,Ｍ＆Ｃ　Ｃｏｒｐ株式会社,,株式会社,東京都,品川区,上大崎３丁目５番２号リードシー目黒イーストビル５Ｆ,,13,109,1410021,,,2025-06-02,清算の結了等,,,2024-02-16,1,,,,,エムアンドシーコーポレーション,0
1392,6011001122306,登記記録の閉鎖等,0,2025-06-13,2025-05-19,株式会社タカクワキャッスル,,株式会社,東京都,目黒区,駒場２丁目１番７号駒場パークサイドヒルズ２階,,13,110,1530041,,,2025-05-19,合併による解散等,9011101045701,令和７年５月１７日東京都目黒区駒場二丁目１番７号駒場パークサイドヒルズハローネット株式会社（9011101045701）に合併し解散,2018-05-23,1,,,,,タカクワキャッスル,0
1404,6011201004527,登記記録の閉鎖等,0,2025-06-13,2025-06-09,株式会社ビーエムシー,,株式会社,東京都,中野区,本町６丁目２０番２号,,13,114,1640012,,,2025-06-09,清算の結了等,,,2015-10-05,1,,,,,ビーエムシー,0
1411,6011702013761,登記記録の閉鎖等,0,2025-06-13,2025-06-04,有限会社川口屋,,有限会社,東京都,江戸川区,北小岩２丁目６番１１号,,13,123,1330051,,,2025-06-04,清算の結了等,,,2015-10-05,1,,,,,カワグチヤ,0
1415,6011802017679,登記記録の閉鎖等,0,2025-06-13,2025-06-10,有限会社広瀬商店,,有限会社,東京都,足立区,伊興本町２丁目１０番１２号,,13,121,1210807,,,2025-06-10,清算の結了等,,,2015-10-05,1,,,,,ヒロセショウテン,0
1422,6012403005437,登記記録の閉鎖等,0,2025-06-13,2025-06-09,合同会社Ｇｒａｐｈ　Ｍａｒｋｅｔｉｎｇ　Ｌａｂ,,合同会社,東京都,多摩市,一ノ宮４丁目３４番地の２２,,13,224,2060002,,,2025-06-09,清算の結了等,,,2022-07-05,1,,,,,グラフマーケティングラボ,0
1437,6020002014445,登記記録の閉鎖等,0,2025-06-13,2025-06-10,有限会社新耕不動産,,有限会社,神奈川県,横浜市青葉区,しらとり台１１番地１１－２－３０９,,14,117,2270054,,,2025-06-10,清算の結了等,,,2015-10-05,1,,,,,シンコウフドウサン,0
1443,6021002018923,登記記録の閉鎖等,0,2025-06-13,2025-06-10,有限会社カネコ・サービス,,有限会社,神奈川県,相模原市南区,麻溝台３丁目１番１２号,,14,153,2520328,,,2025-06-10,清算の結了等,,,2015-10-05,1,,,,,カネコサービス,0
1445,6021005004417,登記記録の閉鎖等,0,2025-06-13,2025-06-11,特定非営利活動法人かがやき会,,その他の設立登記法人,神奈川県,秦野市,南矢名２丁目６番１７号,,14,211,2570003,,,2025-06-11,清算の結了等,,,2015-10-05,1,,,,,カガヤキカイ,0
1461,6030005012981,登記記録の閉鎖等,0,2025-06-13,2025-06-06,熊谷学校給食青果納入協同組合,,その他の設立登記法人,埼玉県,熊谷市,佐谷田１４２２番地,,11,202,3600023,,,2025-06-06,清算の結了等,,,2015-10-05,1,,,,,クマガヤガッコウキュウショクセイカノウニュウ,0
1464,6040001050150,登記記録の閉鎖等,0,2025-06-13,2025-05-13,株式会社檪山自動車,,株式会社,千葉県,鎌ケ谷市,初富３７２－４,,12,224,2730121,,,2025-05-13,清算の結了等,,,2015-10-05,1,,,,,クヌギヤマジドウシャ,0
1473,6040003021991,登記記録の閉鎖等,0,2025-06-13,2025-05-22,徳輝合同会社,,合同会社,千葉県,柏市,緑ケ丘１１－９緑ハイム３０１,,12,217,2770082,,,2025-05-22,清算の結了等,,,2023-02-24,1,,,,,トッキ,0
1480,6080001003303,登記記録の閉鎖等,0,2025-06-13,2025-06-06,株式会社ダンレイ,,株式会社,静岡県,静岡市駿河区,敷地２丁目１５番１４号,,22,102,4228036,,,2025-06-06,清算の結了等,,,2015-10-05,1,,,,,ダンレイ,0
1485,6080401016276,登記記録の閉鎖等,0,2025-06-13,2025-06-12,長谷川工業株式会社,,株式会社,静岡県,磐田市,清庵新田６７番地の１,,22,211,4371214,,,2025-06-12,清算の結了等,,,2015-10-05,1,,,,,,0
1488,6080405003163,登記記録の閉鎖等,0,2025-06-13,2025-06-09,特定非営利活動法人雄踏フレンドリイ,,その他の設立登記法人,静岡県,浜松市中央区,雄踏町宇布見９３３１番地の５,,22,138,4310102,,,2025-06-09,清算の結了等,,,2015-10-05,1,,,,,ユウトウフレンドリイ,0
1496,6120001013405,登記記録の閉鎖等,0,2025-06-13,2025-06-09,株式会社東河田,,株式会社,大阪府,大阪市東成区,深江南３丁目７番２号,,27,115,5370002,,,2025-06-09,清算の結了等,,,2015-10-05,1,,,,,ヒガシカワタ,0
1499,6120001239413,登記記録の閉鎖等,0,2025-06-13,2025-06-05,株式会社ｋｅｉ＆Ｔ,,株式会社,大阪府,寝屋川市,石津東町１９番６６号,,27,215,5720027,,,2025-06-05,清算の結了等,,,2021-08-03,1,,,,,ケイアンドティー,0
1514,6122001001463,登記記録の閉鎖等,0,2025-06-13,2025-06-09,菊エス紙工株式会社,,株式会社,大阪府,東大阪市,新家２丁目９番３号,,27,227,5770025,,,2025-06-09,清算の結了等,,,2015-10-05,1,,,,,キクエスシコウ,0
1516,6122001015447,登記記録の閉鎖等,0,2025-06-13,2025-06-12,株式会社スミダ,,株式会社,大阪府,大東市,泉町１丁目６番３０号,,27,218,5740024,,,2025-06-12,清算の結了等,,,2015-10-05,1,,,,,スミダ,0
1525,6130003005259,登記記録の閉鎖等,0,2025-06-13,2025-06-10,合同会社ガイア,,合同会社,京都府,京都市下京区,高辻通堀川西入富永町６７２番地,,26,106,6008351,,,2025-06-10,清算の結了等,,,2017-11-06,1,,,,,ガイア,0
1526,6140001011225,登記記録の閉鎖等,0,2025-06-13,2025-06-03,株式会社エス・アール・エス,,株式会社,兵庫県,神戸市中央区,東川崎町１丁目３番３号,,28,110,6500044,,,2025-06-03,合併による解散等,3140001009437,令和７年６月１日神戸市中央区東川崎町一丁目３番３号株式会社ティエラコム（3140001009437）に合併し解散,2015-10-05,1,,,,,エスアールエス,0
1527,6140001084923,登記記録の閉鎖等,0,2025-06-13,2025-06-05,株式会社ヨシウラ洋品店,,株式会社,兵庫県,洲本市,本町６丁目３番１０号,,28,205,6560025,,,2025-06-05,清算の結了等,,,2015-10-05,1,,,,,ヨシウラヨウヒンテン,0
1537,6140002064759,登記記録の閉鎖等,0,2025-06-13,2025-06-06,有限会社雲雀丘花屋敷ロイヤルハイツ,,有限会社,兵庫県,川西市,寺畑１丁目４番１２号,,28,217,6660034,,,2025-06-06,清算の結了等,,,2015-10-05,1,,,,,ヒバリオカハナヤシキロイヤルハイツ,0
1539,6140005009884,登記記録の閉鎖等,0,2025-06-13,2025-06-04,特定非営利活動法人宅老所七色のとうがらし,,その他の設立登記法人,兵庫県,加古郡稲美町,北山２８９番地の１,,28,381,6751121,,,2025-06-04,清算の結了等,,,2015-10-05,1,,,,,タクロウショナナイロノトウガラシ,0
1544,6160001020901,登記記録の閉鎖等,0,2025-06-13,2025-06-09,株式会社ＤＡＮＫＥ,,株式会社,滋賀県,高島市,安曇川町西万木４３０番地１,,25,212,5201212,,,2025-06-09,清算の結了等,,,2018-05-01,1,,,,,ダンク,0
1554,6180301006193,登記記録の閉鎖等,0,2025-06-13,2025-06-10,株式会社谷山建築設計事務所,,株式会社,愛知県,豊橋市,西羽田町１８３番地,,23,201,4418081,,,2025-06-10,清算の結了等,,,2015-10-05,1,,,,,タニヤマケンチクセッケイジムショ,0
1556,6200001035952,登記記録の閉鎖等,0,2025-06-13,2025-06-10,株式会社クラウン,,株式会社,岐阜県,岐阜市,石谷１０６３番地５,,21,201,5011106,,,2025-06-10,清算の結了等,,,2019-02-18,1,,,,,クラウン,0
1570,6240005012886,登記記録の閉鎖等,0,2025-06-13,2025-06-10,一般社団法人リエゾン地域福祉研究所,,その他の設立登記法人,広島県,広島市中区,東千田町１丁目２番２３号,,34,101,7300053,,,2025-06-10,清算の結了等,,,2015-10-05,1,,,,,リエゾンチイイキフクシケンキュウショ,0
1577,6290002012397,登記記録の閉鎖等,0,2025-06-13,2025-06-04,有限会社パームツリー,,有限会社,福岡県,福岡市中央区,警固２丁目１１番１０号,,40,133,8100023,,,2025-06-04,清算の結了等,,,2015-10-05,1,,,,,パームツリー,0
1607,6390002007172,登記記録の閉鎖等,0,2025-06-13,2025-06-06,有限会社川崎工業,00084911,有限会社,山形県,酒田市,駅東２丁目１４番地の２１,,06,204,9980022,,,2025-06-06,清算の結了等,,,2015-10-05,1,,,,,カワサキコウギョウ,0
1621,6470001009962,登記記録の閉鎖等,0,2025-06-13,2025-06-10,株式会社四国大川,,株式会社,香川県,観音寺市,池之尻町５９６番地,,37,205,7680031,,,2025-06-10,清算の結了等,,,2015-10-05,1,,,,,シコクオオカワ,0
1649,7010403030289,登記記録の閉鎖等,0,2025-06-13,2025-05-19,合同会社サンライズ１,,合同会社,東京都,港区,赤坂７丁目６番１５号,,13,103,1070052,,,2025-05-19,清算の結了等,,,2023-06-09,1,,,,,サンライズワン,0
1661,7010703005222,登記記録の閉鎖等,0,2025-06-13,2025-06-06,再定義合同会社,,合同会社,東京都,中野区,中野５丁目６７番７号プラザ中野８０１,,13,114,1640001,,,2025-06-06,清算の結了等,,,2020-04-28,1,Redefinition LLC,Tokyo,"801 Plaza Nakano, 5-67-7, Nakano, Nakano ku",,サイテイギ,0
1662,7010705001368,登記記録の閉鎖等,0,2025-06-13,2025-06-02,特定非営利活動法人Ｔｉｄｅ　Ｓｏｕｎｄ　Ａｓｓｏｃｉａｔｉｏｎ,,その他の設立登記法人,東京都,品川区,東品川２丁目６番１０号,,13,109,1400002,,,2025-06-02,清算の結了等,,,2015-10-05,1,,,,,タイドサウンドアソシエイション,0
1665,7011001101069,登記記録の閉鎖等,0,2025-06-13,2025-06-11,ジャパンミュージックネットワーク株式会社,,株式会社,東京都,港区,南青山６丁目１０番１２号,,13,103,1070062,,,2025-06-11,合併による解散等,3130001022300,令和７年６月１日京都市中京区烏丸通御池下る虎屋町５６６－１井門明治安田生命ビル株式会社フェイス（3130001022300）に合併し解散,2015-10-05,1,,,,,ジャパンミュージックネットワーク,0
1672,7011101103543,登記記録の閉鎖等,0,2025-06-13,2025-05-22,株式会社ウィンディー,,株式会社,東京都,新宿区,西新宿３丁目７－３０フロンティアグラン西新宿４Ｆ,,13,104,1600023,,,2025-05-22,清算の結了等,,,2023-07-10,1,,,,,ウィンディー,0
1684,7011801023900,登記記録の閉鎖等,0,2025-06-13,2025-06-09,ＴＳ・ＬＩＮＥ株式会社,,株式会社,東京都,足立区,鹿浜３丁目３０番１号,,13,121,1230864,,,2025-06-09,清算の結了等,,,2015-10-05,1,,,,,ティーエスライン,0
1688,7011801034121,登記記録の閉鎖等,0,2025-06-13,2025-06-09,Ｌａｓｐ舞台写真株式会社,,株式会社,東京都,葛飾区,柴又７丁目１４番２３－３０７号,,13,122,1250052,,,2025-06-09,清算の結了等,,,2017-11-29,1,,,,,,0
1709,7020002010732,登記記録の閉鎖等,0,2025-06-13,2025-06-10,有限会社ミートシヨツプ寿,,有限会社,神奈川県,横浜市磯子区,洋光台５丁目３番２０号,,14,107,2350045,,,2025-06-10,清算の結了等,,,2015-10-05,1,,,,,ミートショップコトブキ,0
1712,7020002043889,登記記録の閉鎖等,0,2025-06-13,2025-06-09,有限会社ディリーグッズタナカ,,有限会社,神奈川県,横浜市中区,伊勢佐木町５丁目１２９番地の６,,14,104,2310045,,,2025-06-09,清算の結了等,,,2015-10-05,1,,,,,ディリーグッズタナカ,0
1713,7020003019921,登記記録の閉鎖等,0,2025-06-13,2025-06-09,合同会社ＬＥＡＰ,,合同会社,神奈川県,横浜市磯子区,栗木１丁目２５番１４－２０２号,,14,107,2350041,,,2025-06-09,清算の結了等,,,2021-06-07,1,,,,,リープ,0
1715,7021001020466,登記記録の閉鎖等,0,2025-06-13,2025-06-10,株式会社ボデーアート厚木,,株式会社,神奈川県,愛甲郡愛川町,中津１００７番地の７,,14,401,2430303,,,2025-06-10,合併による解散等,8011601001964,令和７年６月１日東京都練馬区豊玉北一丁目１４番２号株式会社クレファ（8011601001964）に合併し解散,2015-10-05,1,,,,,ボデーアートアツギ,0
1723,7021003010390,登記記録の閉鎖等,0,2025-06-13,2025-05-19,合同会社ジェイモンド・アソシエイツ,,合同会社,東京都,目黒区,碑文谷５丁目２番５号Ｔ＆Ａビル５階,,13,110,1520003,,,2025-05-19,清算の結了等,,,2021-04-20,1,,,,,ジェイモンドアソシエイツ,0
1725,7030001041018,登記記録の閉鎖等,0,2025-06-13,2025-06-11,株式会社國菜サービス,,株式会社,埼玉県,八潮市,大瀬３丁目１番地２サンライズシバ３Ｆ,,11,234,3400822,,,2025-06-11,合併による解散等,9011801016910,令和７年６月１日東京都葛飾区水元三丁目１４番１５号株式会社愛寿物流（9011801016910）に合併し解散,2015-10-05,1,,,,,クニナサービス,0
1735,7030002074116,登記記録の閉鎖等,0,2025-06-13,2025-06-06,有限会社竹森サービス,,有限会社,埼玉県,川越市,大字鹿飼４９４番地６,,11,201,3500834,,,2025-06-06,清算の結了等,,,2015-10-05,1,,,,,タケモリサービス,0
1745,7040002053127,登記記録の閉鎖等,0,2025-06-13,2025-05-30,有限会社田邊電機工業所,,有限会社,千葉県,松戸市,上本郷３４番地,,12,207,2710064,,,2025-05-30,清算の結了等,,,2015-10-05,1,,,,,,0
1764,7110001018024,登記記録の閉鎖等,0,2025-06-13,2025-06-03,株式会社アースコンストラクション,,株式会社,新潟県,村上市,七湊１４０番地３,,15,212,9593401,,,2025-06-03,清算の結了等,,,2015-10-05,1,,,,,アースコンストラクション,0
1766,7110002007067,登記記録の閉鎖等,0,2025-06-13,2025-05-30,有限会社ワーシップ,,有限会社,新潟県,新潟市北区,新元島町４０１８番地８１,,15,101,9503123,,,2025-05-30,清算の結了等,,,2015-10-05,1,,,,,ワーシップ,0
1773,7120001239412,登記記録の閉鎖等,0,2025-06-13,2025-06-05,株式会社ｃｒａｎｋ,,株式会社,大阪府,大阪市中央区,難波４丁目１番１５号,,27,128,5420076,,,2025-06-05,清算の結了等,,,2021-08-03,1,,,,,クランク,0
1808,7130001064215,登記記録の閉鎖等,0,2025-06-13,2025-06-06,株式会社ハッピー警備保障,,株式会社,京都府,福知山市,和久市町１３５番地,,26,201,6200062,,,2025-06-06,清算の結了等,,,2019-04-05,1,,,,,ハッピーケイビホショウ,0
1820,7150002003260,登記記録の閉鎖等,0,2025-06-13,2025-06-10,有限会社河内保険サービス,,有限会社,奈良県,奈良市,学園朝日元町２丁目１９３０番地の１,,29,201,6310015,,,2025-06-10,清算の結了等,,,2015-10-05,1,,,,,カワチホケンサービス,0
1824,7180001106466,登記記録の閉鎖等,0,2025-06-13,2025-06-06,株式会社望月商事,,株式会社,愛知県,あま市,中萱津出口１番地,,23,237,4901113,,,2025-06-06,清算の結了等,,,2015-10-05,1,,,,,モチヅキショウジ,0
1826,7180001131621,登記記録の閉鎖等,0,2025-06-13,2025-06-06,株式会社Ａ＆Ｔ,,株式会社,愛知県,春日井市,藤山台７丁目５番地１１,,23,206,4870035,,,2025-06-06,清算の結了等,,,2018-03-26,1,,,,,エーアンドティー,0
1842,7230001001554,登記記録の閉鎖等,0,2025-06-13,2025-06-02,大和薬品工業株式会社,,株式会社,富山県,富山市,下奥井２丁目３番５号,,16,201,9300817,,,2025-06-02,合併による解散等,4230001001499,令和７年６月１日富山市八日町３２６番地ダイト株式会社（4230001001499）に合併し解散,2015-10-05,1,,,,,ダイワヤクヒンコウギョウ,0
1849,7290001049308,登記記録の閉鎖等,0,2025-06-13,2025-06-03,株式会社中山理化,,株式会社,福岡県,久留米市,御井旗崎３丁目７番３０号,,40,203,8390841,,,2025-06-03,清算の結了等,,,2015-10-05,1,,,,,,0
1853,7310001006165,登記記録の閉鎖等,0,2025-06-13,2025-06-10,和光船舶工業株式会社,,株式会社,長崎県,佐世保市,立神町２２番地,,42,202,8570063,,,2025-06-10,清算の結了等,,,2015-10-05,1,,,,,ワコウセンパクコウギョウ,0
1862,7370001041198,登記記録の閉鎖等,0,2025-06-13,2025-06-05,株式会社ハウスプラザサワサキ,,株式会社,宮城県,仙台市泉区,泉中央１丁目３４－６,,04,105,9813133,,,2025-06-05,清算の結了等,,,2017-04-03,1,,,,,,0
1880,7430001036002,登記記録の閉鎖等,0,2025-06-13,2025-06-12,ステラ・ライフクリエーション株式会社,,株式会社,北海道,札幌市中央区,南一条西７丁目１２番地６,,01,101,0600061,,,2025-06-12,清算の結了等,,,2015-10-05,1,,,,,ステラライフクリエーション,0
1897,8010001214805,登記記録の閉鎖等,0,2025-06-13,2025-05-26,ゴールデンケリ香料株式会社,,株式会社,東京都,千代田区,東神田２丁目６番７号６０８,,13,101,1010031,,,2025-05-26,清算の結了等,,,2021-01-12,1,,,,,ゴールデンケリコウリョウ,0
1917,8010405019643,登記記録の閉鎖等,0,2025-06-13,2025-05-21,一般社団法人ＳＨ０４４,,その他の設立登記法人,東京都,港区,虎ノ門３丁目２２番１０－２０１号,,13,103,1050001,,,2025-05-21,清算の結了等,,,2021-03-29,1,,,,,エスエイチゼロフォーフォー,0
1922,8010701023919,登記記録の閉鎖等,0,2025-06-13,2025-06-02,株式会社エルシャイン,,株式会社,東京都,品川区,中延３丁目２番１５号,,13,109,1420053,,,2025-06-02,清算の結了等,,,2015-10-05,1,,,,,エルシャイン,0
1936,8011301023185,登記記録の閉鎖等,0,2025-06-13,2025-06-04,株式会社おとらぼ,,株式会社,東京都,杉並区,成田東３丁目６番１号,,13,115,1660015,,,2025-06-04,清算の結了等,,,2017-05-17,1,,,,,,0
1942,8011701003076,登記記録の閉鎖等,0,2025-06-13,2025-06-02,コマガネ産業株式会社,,株式会社,東京都,江戸川区,松江２丁目３５番１３号,,13,123,1320025,,,2025-06-02,合併による解散等,7011701005957,令和７年６月１日東京都江戸川区松江二丁目３５番１３号南信電設株式会社（7011701005957）に合併し解散,2015-10-05,1,,,,,コマガネサンギョウ,0
1957,8020001097282,登記記録の閉鎖等,0,2025-06-13,2025-06-10,株式会社湘南デント,,株式会社,神奈川県,横浜市磯子区,磯子８丁目８番２４－４号,,14,107,2350016,,,2025-06-10,清算の結了等,,,2015-10-05,1,,,,,ショウナンデント,0
1965,8020002079115,登記記録の閉鎖等,0,2025-06-13,2025-06-09,有限会社高城建築設計スタジオ,,有限会社,東京都,府中市,住吉町２丁目３０番３１号府中住吉町住宅４号棟６０９,,13,206,1830034,,,2025-06-09,清算の結了等,,,2015-10-05,1,,,,,タカジョウケンチクセッケイスタジオ,0
1978,8030002117823,登記記録の閉鎖等,0,2025-06-13,2025-06-09,有限会社新輝通信,,有限会社,埼玉県,行田市,谷郷１丁目９番３０号,,11,206,3610062,,,2025-06-09,清算の結了等,,,2015-10-05,1,,,,,,0
1992,8050002009878,登記記録の閉鎖等,0,2025-06-13,2025-06-06,Ｋプランニング有限会社,,有限会社,茨城県,ひたちなか市,北神敷台９番地１１,,08,221,3111243,,,2025-06-06,清算の結了等,,,2015-10-05,1,,,,,ケープランニング,0
1996,8050005006996,登記記録の閉鎖等,0,2025-06-13,2025-06-06,特定非営利活動法人かしまコンツェルト協会エートス,,その他の設立登記法人,茨城県,鹿嶋市,厨２丁目８番地１１,,08,222,3140030,,,2025-06-06,清算の結了等,,,2015-10-05,1,,,,,カシマコンツェルトキョウカイエートス,0
2006,8080103003059,登記記録の閉鎖等,0,2025-06-13,2025-06-06,アークエンジェル合同会社,,合同会社,静岡県,伊東市,富戸１３０１番地の７０ロイヤルヴュー川奈４０１号,,22,208,4130231,,,2025-06-06,清算の結了等,,,2024-05-10,1,,,,,アークエンジェル,0
2020,8120002056533,登記記録の閉鎖等,0,2025-06-13,2025-06-05,有限会社おおさこ電機,,有限会社,大阪府,大阪市浪速区,桜川２丁目１２番４号,,27,111,5560022,,,2025-06-05,清算の結了等,,,2015-10-05,1,,,,,,0
2029,8130001007619,登記記録の閉鎖等,0,2025-06-13,2025-06-06,株式会社レーベルハウス・ゼロ,,株式会社,京都府,京都市左京区,岩倉中在地町３４－１８,,26,103,6060027,,,2025-06-06,清算の結了等,,,2015-10-05,1,,,,,レーベルハウスゼロ,0
2036,8140001084500,登記記録の閉鎖等,0,2025-06-13,2025-06-05,株式会社衆我,,株式会社,兵庫県,宝塚市,仁川北３丁目９番２号,,28,214,6650061,,,2025-06-05,清算の結了等,,,2015-10-05,1,,,,,シュウワ,0
2037,8140001085267,登記記録の閉鎖等,0,2025-06-13,2025-06-06,親栄建設株式会社,,株式会社,兵庫県,淡路市,浦４８０番地,,28,226,6562305,,,2025-06-06,清算の結了等,,,2015-10-05,1,,,,,シンエイケンセツ,0
2050,8140005026820,登記記録の閉鎖等,0,2025-06-13,2025-06-06,一般社団法人ハピークレイジー,,その他の設立登記法人,兵庫県,神戸市中央区,磯辺通１丁目１番１８号カサベラ国際プラザビル７０７,,28,110,6510084,,,2025-06-06,清算の結了等,,,2023-12-01,1,,,,,ハピークレイジー,0
2056,8180001132602,登記記録の閉鎖等,0,2025-06-13,2025-06-05,株式会社ビアンカ,,株式会社,愛知県,名古屋市緑区,有松愛宕１２０１番地,,23,114,4580903,,,2025-06-05,清算の結了等,,,2018-06-07,1,,,,,ビアンカ,0
2066,8180302016371,登記記録の閉鎖等,0,2025-06-13,2025-06-03,有限会社西根,,有限会社,愛知県,安城市,根崎町内浜５番地１,,23,212,4441211,,,2025-06-03,清算の結了等,,,2015-10-05,1,,,,,ニシネ,0
2067,8190001020863,登記記録の閉鎖等,0,2025-06-13,2025-06-03,株式会社パートナーコンサル,,株式会社,三重県,松阪市,大塚町３６４番地１,,24,204,5150813,,,2025-06-03,清算の結了等,,,2015-10-05,1,,,,,パートナーコンサル,0
2074,8240001024594,登記記録の閉鎖等,0,2025-06-13,2025-06-09,株式会社やまなみ建設,,株式会社,広島県,三次市,吉舎町徳市２８０１番地１,,34,209,7294225,,,2025-06-09,合併による解散等,1240001024007,令和７年６月１日広島県山県郡北広島町阿坂３９３３番地株式会社広栄建設産業（1240001024007）に合併し解散,2015-10-05,1,,,,,ヤマナミケンセツ,0
2083,8260001026944,登記記録の閉鎖等,0,2025-06-13,2025-06-03,株式会社明光技研,,株式会社,岡山県,倉敷市,有城６６５番地１,,33,202,7100031,,,2025-06-03,清算の結了等,,,2015-10-05,1,,,,,メイコウギケン,0
2089,8290001053911,登記記録の閉鎖等,0,2025-06-13,2025-06-09,武田九州株式会社,,株式会社,福岡県,大牟田市,天領町１丁目２７０番地,,40,202,8360054,,,2025-06-09,合併による解散等,6120001084017,令和７年６月１日大阪市中央区久太郎町二丁目６番９号武田和株式会社（6120001084017）に合併し解散,2015-10-05,1,,,,,タケダキュウシュウ,0
2096,8300002010538,登記記録の閉鎖等,0,2025-06-13,2025-06-10,中島製瓦有限会社,,有限会社,佐賀県,唐津市,千々賀１５１６番地１,,41,202,8470831,,,2025-06-10,清算の結了等,,,2015-10-05,1,,,,,ナカシマセイガ,0
2099,8330001013679,登記記録の閉鎖等,0,2025-06-13,2025-06-05,株式会社ノンノン,,株式会社,熊本県,八代市,田中西町６号８番地,,43,202,8660876,,,2025-06-05,清算の結了等,,,2015-10-05,1,,,,,ノンノン,0
2115,8360001024203,登記記録の閉鎖等,0,2025-06-13,2025-06-09,株式会社ＢＳＣ　Ｇｌｏｂａｌ　Ｅｎｔｅｒｔａｉｎｍｅｎｔ,,株式会社,沖縄県,中頭郡北谷町,北前１丁目１８番地１７－３０１,,47,326,9040117,,,2025-06-09,清算の結了等,,,2018-06-27,1,,,,,ビーエスシーグローバルエンターテインメント,0
2120,8370601002532,登記記録の閉鎖等,0,2025-06-13,2025-06-05,株式会社Ｒｕｓｈ,,株式会社,宮城県,多賀城市,大代５丁目２番４７号２,,04,209,9850832,,,2025-06-05,清算の結了等,,,2015-10-05,1,,,,,ラッシュ,0
2129,8430001013173,登記記録の閉鎖等,0,2025-06-13,2025-06-06,株式会社野村,,株式会社,北海道,札幌市手稲区,前田一条４丁目５番１９号,,01,109,0060811,,,2025-06-06,清算の結了等,,,2015-10-05,1,,,,,ノムラ,0
2137,8470005005411,登記記録の閉鎖等,0,2025-06-13,2025-06-09,特定非営利活動法人たすけあい讃岐,,その他の設立登記法人,香川県,坂出市,神谷町６１１番地,,37,203,7620018,,,2025-06-09,清算の結了等,,,2015-10-05,1,,,,,タスケアイサヌキ,0
2145,9010001103230,登記記録の閉鎖等,0,2025-06-13,2025-05-23,株式会社イーアーシス,,株式会社,東京都,文京区,本郷１丁目３５－２４,,13,105,1130033,,,2025-05-23,清算の結了等,,,2015-10-05,1,,,,,イーアーシス,0
2148,9010001171483,登記記録の閉鎖等,0,2025-06-13,2025-06-06,株式会社ツクロイ,,株式会社,東京都,杉並区,高円寺南３丁目３０－１８ＬＩＮＯ１０５,,13,115,1660003,,,2025-06-06,合併による解散等,8010001142279,令和７年６月１日東京都千代田区岩本町三丁目７番１３号株式会社イロタス（8010001142279）に合併し解散,2015-11-11,1,,,,,ツクロイ,0
2149,9010001178735,登記記録の閉鎖等,0,2025-06-13,2025-05-22,スペースアグリ株式会社,,株式会社,北海道,帯広市,西十三条北１丁目１番地２６,,01,207,0800043,,,2025-05-22,清算の結了等,,,2016-10-11,1,,,,,スペースアグリ,0
2151,9010001212824,登記記録の閉鎖等,0,2025-06-13,2025-05-23,株式会社グランドスポーツエステート,,株式会社,東京都,千代田区,九段南１丁目５番６号りそな九段ビル５Ｆ,,13,101,1020074,,,2025-05-23,清算の結了等,,,2020-10-07,1,,,,,グランドスポーツエステート,0
2159,9010003034473,登記記録の閉鎖等,0,2025-06-13,2025-05-28,日光Ｐｌｕｓ１７合同会社９,,合同会社,東京都,千代田区,丸の内１丁目４番１号東京共同会計事務所内,,13,101,1000005,,,2025-05-28,清算の結了等,,,2021-03-23,1,,,,,ニッコウプラスセブンティーンキュー,0
2175,9010405020674,登記記録の閉鎖等,0,2025-06-13,2025-05-19,ＲＢソーラーリブラホールディングス一般社団法人,,その他の設立登記法人,東京都,港区,虎ノ門３丁目２２番１０－２０１号,,13,103,1050001,,,2025-05-19,清算の結了等,,,2022-02-08,1,,,,,アールビーソーラーリブラホールディングス,0
2176,9010601048701,登記記録の閉鎖等,0,2025-06-13,2025-06-09,グローバルテック株式会社,,株式会社,東京都,江東区,亀戸１丁目１３番８－３０３号,,13,108,1360071,,,2025-06-09,清算の結了等,,,2015-10-30,1,,,,,グローバルテック,0
2180,9010701023447,登記記録の閉鎖等,0,2025-06-13,2025-05-30,Ｆ＆Ｃ株式会社,,株式会社,東京都,品川区,北品川１丁目１番１１号,,13,109,1400001,,,2025-05-30,清算の結了等,,,2015-10-05,1,,,,,,0
2181,9010701032068,登記記録の閉鎖等,0,2025-06-13,2025-06-02,エスパステテ株式会社,,株式会社,東京都,品川区,東品川２丁目６番１０号,,13,109,1400002,,,2025-06-02,清算の結了等,,,2016-02-24,1,,,,,エスパステテ,0
2205,9011601020377,登記記録の閉鎖等,0,2025-06-13,2025-06-09,株式会社アヴァンティ,,株式会社,東京都,練馬区,豊玉南３丁目２７番１８－１１０７号,,13,120,1760014,,,2025-06-09,清算の結了等,,,2015-10-05,1,,,,,アヴァンティ,0
2223,9020001010723,登記記録の閉鎖等,0,2025-06-13,2025-06-09,株式会社横浜インテリジェンス,,株式会社,神奈川県,横浜市瀬谷区,二ツ橋町３６１番地１２,,14,114,2460021,,,2025-06-09,清算の結了等,,,2015-10-05,1,,,,,ヨコハマインテリジェンス,0
2226,9020001095789,登記記録の閉鎖等,0,2025-06-13,2025-06-09,株式会社アドブレイン,,株式会社,神奈川県,横浜市中区,翁町２丁目８番５号第一東里ビル３０２,,14,104,2310028,,,2025-06-09,清算の結了等,,,2015-10-05,1,,,,,アドブレイン,0
2242,9021002070723,登記記録の閉鎖等,0,2025-06-13,2025-06-02,ＭＳ警備保障有限会社,,有限会社,神奈川県,逗子市,山の根３丁目５番３７号,,14,208,2490002,,,2025-06-02,清算の結了等,,,2015-10-05,1,,,,,,0
2247,9030001132302,登記記録の閉鎖等,0,2025-06-13,2025-06-05,株式会社メイキングコーポレーション,,株式会社,埼玉県,さいたま市大宮区,大門町２丁目２５番地１１,,11,103,3300846,,,2025-06-05,清算の結了等,,,2019-08-07,1,,,,,メイキングコーポレーション,0
2255,9030002061748,登記記録の閉鎖等,0,2025-06-13,2025-06-06,有限会社第一住宅,,有限会社,埼玉県,新座市,池田５丁目２番３２号,,11,230,3520015,,,2025-06-06,清算の結了等,,,2015-10-05,1,,,,,ダイイチジュウタク,0
2262,9040001066953,登記記録の閉鎖等,0,2025-06-13,2025-05-30,株式会社トラッドシステム,,株式会社,千葉県,我孫子市,つくし野６丁目２番５号,,12,222,2701164,,,2025-05-30,清算の結了等,,,2015-10-05,1,,,,,トラッドシステム,0
2273,9060001009803,登記記録の閉鎖等,0,2025-06-13,2025-06-09,株式会社光,,株式会社,栃木県,真岡市,西沼８６９番地,,09,209,3214324,,,2025-06-09,清算の結了等,,,2015-10-05,1,,,,,ヒカリ,0
2278,9080102019939,登記記録の閉鎖等,0,2025-06-13,2025-06-06,有限会社白井スポーツ,,有限会社,静岡県,伊東市,弥生町２番３号,,22,208,4140014,,,2025-06-06,清算の結了等,,,2015-10-05,1,,,,,シライスポーツ,0
2309,9122002016615,登記記録の閉鎖等,0,2025-06-13,2025-06-09,有限会社萱村,,有限会社,大阪府,八尾市,桂町１丁目８番地の９,,27,212,5810823,,,2025-06-09,清算の結了等,,,2015-10-05,1,,,,,カヤムラ,0
2330,9160001011971,登記記録の閉鎖等,0,2025-06-13,2025-06-09,株式会社大成木材,,株式会社,滋賀県,高島市,拝戸７８２番地,,25,212,5201132,,,2025-06-09,清算の結了等,,,2015-10-05,1,,,,,タイセイモクザイ,0
2335,9180001126157,登記記録の閉鎖等,0,2025-06-13,2025-06-09,株式会社トマツ,,株式会社,愛知県,名古屋市中川区,澄池町１６番１９号,,23,110,4540806,,,2025-06-09,清算の結了等,,,2017-01-12,1,,,,,トマツ,0
2338,9180001136817,登記記録の閉鎖等,0,2025-06-13,2025-06-06,ＴＥＮＱ株式会社,,株式会社,愛知県,名古屋市天白区,焼山２丁目４１４番地ラハイナハイツ焼山１０３号室,,23,116,4680002,,,2025-06-06,清算の結了等,,,2019-06-07,1,,,,,テンクー,0
2346,9180002052930,登記記録の閉鎖等,0,2025-06-13,2025-06-02,有限会社黄北塗装,,有限会社,愛知県,名古屋市西区,見寄町２３１番地の１,,23,104,4520839,,,2025-06-02,清算の結了等,,,2015-10-05,1,,,,,コウホクトソウ,0
2353,9210001011818,登記記録の閉鎖等,0,2025-06-13,2025-06-12,株式会社東武ニツト,,株式会社,福井県,越前市,北町４１号２２番地,,18,209,9150004,,,2025-06-12,清算の結了等,,,2015-10-05,1,,,,,トウブニット,0
2355,9240002021334,登記記録の閉鎖等,0,2025-06-13,2025-06-03,有限会社薬研堀,,有限会社,広島県,広島市中区,幟町１４番１７号,,34,101,7300016,,,2025-06-03,清算の結了等,,,2015-10-05,1,,,,,ヤゲンボリ,0
2362,9270002005086,登記記録の閉鎖等,0,2025-06-13,2025-06-11,有限会社技研,,有限会社,鳥取県,鳥取市,千代水１丁目８０番地,,31,201,6800911,,,2025-06-11,清算の結了等,,,2015-10-05,1,,,,,ギケン,0
2371,9290002041187,登記記録の閉鎖等,0,2025-06-13,2025-06-04,有限会社松浦広告,,有限会社,福岡県,春日市,平田台１丁目１０２番地,,40,218,8160812,,,2025-06-04,清算の結了等,,,2015-10-05,1,,,,,マツウラコウコク,0
2375,9310002016442,登記記録の閉鎖等,0,2025-06-13,2025-06-11,有限会社モールアム,,有限会社,長崎県,諫早市,多良見町化屋３２１番地１８,,42,204,8590401,,,2025-06-11,清算の結了等,,,2015-10-05,1,,,,,モールアム,0
2389,9380001022550,登記記録の閉鎖等,0,2025-06-13,2025-06-04,株式会社ワイズ,,株式会社,福島県,いわき市,泉町１丁目８番地１４,,07,204,9718185,,,2025-06-04,清算の結了等,,,2015-10-05,1,,,,,,0
2392,9400001000982,登記記録の閉鎖等,0,2025-06-13,2025-06-12,株式会社田中工業所,,株式会社,岩手県,盛岡市,名須川町２５番１３号,,03,201,0200016,,,2025-06-12,清算の結了等,,,2015-10-05,1,,,,,タナカコウギョウショ,0
2396,9410001010691,登記記録の閉鎖等,0,2025-06-13,2025-06-02,株式会社アジマックスネクスト,,株式会社,秋田県,秋田市,大町３丁目２番３０号,,05,201,0100921,,,2025-06-02,合併による解散等,1410001001987,令和７年６月１日秋田市大町三丁目２番３０号株式会社アジマックス（1410001001987）に合併し解散,2015-10-05,1,,,,,アジマックスネクスト,0
2399,9430001011234,登記記録の閉鎖等,0,2025-06-13,2025-06-05,株式会社東弘技研,,株式会社,北海道,札幌市中央区,北九条西１５丁目２８番地１９６,,01,101,0600009,,,2025-06-05,清算の結了等,,,2015-10-05,1,,,,,トウコウギケン,0
