sequenceNumber,corporateNumber,process,correct,updateDate,changeDate,name,nameImageId,kind,prefectureName,cityName,streetNumber,addressImageId,prefectureCode,cityCode,postCode,addressOutside,addressOutsideImageId,closeDate,closeCause,successorCorporateNumber,changeCause,assignmentDate,latest,enName,enPrefectureName,enCityName,enAddressOutside,furigana,hihyoji
5,1010001133318,登記記録の閉鎖等,0,2024-05-20,2024-04-26,株式会社ＰＰＣロジスティクス,,株式会社,東京都,港区,虎ノ門２丁目１０番４号,,13,103,1050001,,,2024-04-26,清算の結了等,,,2015-10-05,1,,,,,ピーピーシーロジスティクス,0
23,1010401157370,登記記録の閉鎖等,0,2024-05-20,2024-04-30,株式会社ｇｌａｍｐａｒｋ,,株式会社,東京都,港区,六本木５丁目２番１号,,13,103,1060032,,,2024-04-30,合併による解散等,3010401161882,令和６年４月３０日東京都港区六本木五丁目２番１号サステナブルホールディングス株式会社（3010401161882）に合併し解散,2021-01-05,1,,,,,グランパーク,0
39,1010601001840,登記記録の閉鎖等,0,2024-05-20,2024-05-15,協和製鋼株式会社,,株式会社,東京都,江東区,東砂２丁目１１番２８号,,13,108,1360074,,,2024-05-15,清算の結了等,,,2015-10-05,1,,,,,キョウワセイコウ,0
46,1010903003535,登記記録の閉鎖等,0,2024-05-20,2024-05-01,天楽合同会社,,合同会社,東京都,江戸川区,西葛西６丁目４番１２号,,13,123,1340088,,,2024-05-01,清算の結了等,,,2017-03-13,1,,,,,テンガク,0
65,1011501003737,登記記録の閉鎖等,0,2024-05-20,2024-05-14,株式会社ノースメデイカル,,株式会社,東京都,港区,虎ノ門３丁目８番８号ＮＴＴ虎ノ門ビル６階,,13,103,1050001,,,2024-05-14,合併による解散等,1010403031730,令和６年５月１４日東京都港区虎ノ門三丁目８番８号ＮＴＴ虎ノ門ビル６階ノースホールディングス合同会社（1010403031730）に合併し解散,2015-10-05,1,,,,,ノースメデイカル,0
76,1012301005849,登記記録の閉鎖等,0,2024-05-20,2024-05-13,株式会社長谷川興業,,株式会社,東京都,町田市,小山町３２１４番地の６,,13,209,1940212,,,2024-05-13,清算の結了等,,,2015-10-05,1,,,,,ハセガワコウギョウ,0
86,1020001000888,登記記録の閉鎖等,0,2024-05-20,2024-05-10,株式会社ハート・コーポレーション,,株式会社,神奈川県,横浜市港北区,新横浜１丁目１９番地３アドホックビル６－Ｂ,,14,109,2220033,,,2024-05-10,清算の結了等,,,2015-10-05,1,,,,,ハートコーポレーション,0
93,1020002014631,登記記録の閉鎖等,0,2024-05-20,2024-05-10,有限会社ダイ,,有限会社,神奈川県,横浜市青葉区,市ケ尾町１１５３番地６サンビューハイツ市ヶ尾２１３,,14,117,2250024,,,2024-05-10,清算の結了等,,,2015-10-05,1,,,,,ダイ,0
106,1030001041262,登記記録の閉鎖等,0,2024-05-20,2024-05-15,株式会社岡田建設,,株式会社,埼玉県,上尾市,大字上野本郷１６４番地の１,,11,219,3620056,,,2024-05-15,清算の結了等,,,2015-10-05,1,,,,,オカダケンセツ,0
107,1030001049644,登記記録の閉鎖等,0,2024-05-20,2024-05-14,株式会社エム・アイ・エス,,株式会社,埼玉県,志木市,館２丁目４番７－６０９号,,11,228,3530006,,,2024-05-14,清算の結了等,,,2015-10-05,1,,,,,エムアイエス,0
119,1030003014464,登記記録の閉鎖等,0,2024-05-20,2024-05-15,合同会社住まいの花笠,,合同会社,埼玉県,さいたま市中央区,上落合７丁目７番２－２７０５号,,11,105,3380001,,,2024-05-15,清算の結了等,,,2019-12-04,1,,,,,スマイノハナガサ,0
130,1040003006997,登記記録の閉鎖等,0,2024-05-20,2024-05-08,合同会社ＢＬＯＯＭＩＮＧ,,合同会社,千葉県,佐倉市,西ユーカリが丘３丁目４番地１,,12,212,2850850,,,2024-05-08,清算の結了等,,,2015-10-05,1,,,,,ブルーミング,0
140,1060001012442,登記記録の閉鎖等,0,2024-05-20,2024-05-15,タカプラリサイクル株式会社,,株式会社,栃木県,那須郡那須町,大字寺子乙字萩原２０１７番地１,,09,407,3293215,,,2024-05-15,合併による解散等,3011501006358,令和６年５月１日東京都文京区本駒込二丁目２８番８号文京グリーンコートセンターオフィス１８階高六商事株式会社（3011501006358）に合併し解散,2015-10-05,1,,,,,タカプラリサイクル,0
151,1080101012885,登記記録の閉鎖等,0,2024-05-20,2024-05-16,みのや商事株式会社,,株式会社,静岡県,熱海市,和田浜南町７番４７号,,22,205,4130023,,,2024-05-16,清算の結了等,,,2015-10-05,1,,,,,ミノヤショウジ,0
152,1080101023866,登記記録の閉鎖等,0,2024-05-20,2024-04-30,株式会社ディセントラライズドエンタープライズ,,株式会社,静岡県,沼津市,岡一色７５１‐１,,22,203,4100012,,,2024-04-30,清算の結了等,,,2023-03-28,1,,,,,ディセントラライズドエンタープライズ,0
157,1090002003545,登記記録の閉鎖等,0,2024-05-20,2024-05-09,有限会社安藤機械店,,有限会社,山梨県,甲斐市,西八幡３５５３番地,,19,210,4000117,,,2024-05-09,清算の結了等,,,2020-12-16,1,,,,,アンドウキカイテン,0
162,1100002038498,登記記録の閉鎖等,0,2024-05-20,2024-04-30,阿南土建有限会社,,有限会社,長野県,下伊那郡泰阜村,４５５４番地の２,,20,414,3991801,,,2024-04-30,清算の結了等,,,2015-10-05,1,,,,,アナンドケン,0
163,1100005009075,登記記録の閉鎖等,0,2024-05-20,2024-03-22,天理教天龍分教会,,その他の設立登記法人,長野県,上伊那郡中川村,大草３３５６番地,,20,386,3993801,,,2024-03-22,合併による解散等,2100005008984,令和６年３月２２日長野県上伊那郡中川村片桐４１４３番地天理教中伊那分教会（2100005008984）に合併し解散,2015-10-05,1,,,,,テンリキョウテンリュウブンキョウカイ,0
193,1140001043314,登記記録の閉鎖等,0,2024-05-20,2024-05-13,東洋土地株式会社,,株式会社,東京都,府中市,本宿町２丁目１６番地の１６クレアホームズ府中西府スカイビュー１１０１,,13,206,1830032,,,2024-05-13,清算の結了等,,,2015-10-05,1,,,,,トウヨウトチ,0
197,1140002024172,登記記録の閉鎖等,0,2024-05-20,2024-05-16,有限会社ワールド・トレード,,有限会社,兵庫県,神戸市灘区,徳井町４丁目１番８号,,28,102,6570033,,,2024-05-16,清算の結了等,,,2015-10-05,1,,,,,ワールドトレード,0
211,1180002045116,登記記録の閉鎖等,0,2024-05-20,2024-05-10,有限会社守礼企画,,有限会社,愛知県,名古屋市東区,徳川町１３０１番地徳川スカイマンション４０２,,23,102,4610023,,,2024-05-10,清算の結了等,,,2015-10-05,1,,,,,シュレイキカク,0
212,1180002048936,登記記録の閉鎖等,0,2024-05-20,2024-05-13,有限会社彩美社,,有限会社,愛知県,名古屋市西区,中小田井５丁目４０２番地,,23,104,4520822,,,2024-05-13,清算の結了等,,,2015-10-05,1,,,,,サイビシャ,0
230,1240002014403,登記記録の閉鎖等,0,2024-05-20,2024-05-17,有限会社フジオカ,,有限会社,広島県,広島市安佐南区,長束西３丁目１６－８－８,,34,105,7310136,,,2024-05-17,清算の結了等,,,2015-10-05,1,,,,,フジオカ,0
281,1430001010111,登記記録の閉鎖等,0,2024-05-20,2024-05-13,株式会社孝睦,,株式会社,北海道,札幌市中央区,南二条西１０丁目１０００番地７,,01,101,0600062,,,2024-05-13,清算の結了等,,,2015-10-05,1,,,,,タカムツ,0
292,1470001003359,登記記録の閉鎖等,0,2024-05-20,2024-05-17,ハスイ鉄工株式会社,,株式会社,香川県,高松市,西植田町３９６番地８,,37,201,7610445,,,2024-05-17,清算の結了等,,,2015-10-05,1,,,,,ハスイテッコウ,0
296,1700150028760,登記記録の閉鎖等,0,2024-05-20,2022-03-31,花園学童運営委員会,,その他,兵庫県,明石市,西明石南町１丁目１－１０花園小学校内,,28,203,6730041,,,2022-03-31,その他の清算の結了等,,,2015-10-09,1,,,,,ハナゾノガクドウウンエイイインカイ,0
297,1700150081025,登記記録の閉鎖等,0,2024-05-20,2023-12-25,瀬谷駅南口第１地区市街地再開発組合,,その他,神奈川県,横浜市瀬谷区,中央１番地の６,,14,114,2460014,,,2023-12-25,その他の清算の結了等,,,2017-02-17,1,,,,,セヤエキミナミグチダイイチチクシガイチサイカイハツクミアイ,0
298,1700150098985,登記記録の閉鎖等,0,2024-05-20,2024-01-17,笹谷集落営農組合,,その他,福井県,福井市,笹谷町１６－２５,,18,201,9103645,,,2024-01-17,その他の清算の結了等,,,2020-05-15,1,,,,,ササダニシユウラクエイノウクミアイ,0
316,2010101011744,登記記録の閉鎖等,0,2024-05-20,2024-05-17,株式会社アクト,,株式会社,東京都,八王子市,犬目町１９５番地４,,13,201,1930802,,,2024-05-17,清算の結了等,,,2015-10-05,1,,,,,,0
335,2010602019897,登記記録の閉鎖等,0,2024-05-20,2024-05-15,有限会社植要,,有限会社,東京都,墨田区,東向島２丁目１８番１２号,,13,107,1310032,,,2024-05-15,清算の結了等,,,2015-10-05,1,,,,,ウエヨウ,0
354,2011001128414,登記記録の閉鎖等,0,2024-05-20,2024-05-08,株式会社Ｂａｎｇ　Ｍａｒｋｅｔｉｎｇ,,株式会社,東京都,渋谷区,東３丁目１６番３号,,13,113,1500011,,,2024-05-08,清算の結了等,,,2019-06-10,1,,,,,バンマーケティング,0
355,2011001139080,登記記録の閉鎖等,0,2024-05-20,2024-05-01,株式会社Ｋｉｎｕｅ,,株式会社,東京都,渋谷区,神宮前６丁目２３番４号桑野ビル２階,,13,113,1500001,,,2024-05-01,清算の結了等,,,2021-03-10,1,Kinue Inc.,Tokyo,"2F Kuwano Building, 6-23-4, Jingumae, Shibuya ku",,キヌー,0
372,2011402008925,登記記録の閉鎖等,0,2024-05-20,2024-05-07,有限会社モンタージュ,,有限会社,東京都,板橋区,加賀２丁目３番１－１３３号,,13,119,1730003,,,2024-05-07,清算の結了等,,,2015-10-05,1,,,,,モンタージュ,0
378,2013101005336,登記記録の閉鎖等,0,2024-05-20,2024-05-15,株式会社ムラオ,,株式会社,東京都,福生市,大字福生１２１３番地,,13,218,1970011,,,2024-05-15,合併による解散等,3013101000204,令和６年５月１日東京都福生市大字福生１２１３番地株式会社双伸（3013101000204）に合併し解散,2015-10-05,1,,,,,ムラオ,0
381,2020001141665,登記記録の閉鎖等,0,2024-05-20,2024-05-09,株式会社優聖,,株式会社,東京都,渋谷区,神宮前６丁目２３番４号桑野ビル２階,,13,113,1500001,,,2024-05-09,清算の結了等,,,2021-06-07,1,,,,,ユウセイ,0
401,2030003014463,登記記録の閉鎖等,0,2024-05-20,2024-05-15,合同会社ＲＭＡ新都心ハウス,,合同会社,埼玉県,さいたま市中央区,上落合７丁目７番２－２７０５号,,11,105,3380001,,,2024-05-15,清算の結了等,,,2019-12-04,1,,,,,アールエムエーシントシンハウス,0
421,2080002010590,登記記録の閉鎖等,0,2024-05-20,2024-05-15,有限会社竹屋製作所,,有限会社,静岡県,静岡市清水区,高橋４丁目４番２号,,22,103,4240041,,,2024-05-15,清算の結了等,,,2015-10-05,1,,,,,タケヤセイサクショ,0
427,2100002018094,登記記録の閉鎖等,0,2024-05-20,2024-04-30,有限会社遠山畳店,,有限会社,長野県,中野市,大字吉田２８４番地,,20,211,3830015,,,2024-04-30,清算の結了等,,,2015-10-05,1,,,,,トオヤマタタミテン,0
433,2120001149500,登記記録の閉鎖等,0,2024-05-20,2024-05-17,株式会社ケイナンサービスセンター,,株式会社,大阪府,枚方市,田宮本町１番３号,,27,210,5730024,,,2024-05-17,清算の結了等,,,2015-10-05,1,,,,,ケイナンサービスセンター,0
443,2120005019864,登記記録の閉鎖等,0,2024-05-20,2024-05-16,特定非営利活動法人門真市まちづくり研究所,,その他の設立登記法人,大阪府,門真市,下馬伏町１７番３４号,,27,223,5710009,,,2024-05-16,清算の結了等,,,2017-12-08,1,,,,,カドマシマチヅクリケンキュショ,0
449,2120903004356,登記記録の閉鎖等,0,2024-05-20,2024-05-15,グループホーム坂合同会社,,合同会社,大阪府,摂津市,香露園１８番１８号,,27,224,5660034,,,2024-05-15,清算の結了等,,,2022-11-04,1,,,,,グループホームサカ,0
452,2122001029310,登記記録の閉鎖等,0,2024-05-20,2024-05-16,北海工業株式会社,,株式会社,大阪府,東大阪市,稲田新町２丁目５番１号,,27,227,5770004,,,2024-05-16,清算の結了等,,,2016-02-19,1,,,,,ホッカイコウギョウ,0
453,2122001036273,登記記録の閉鎖等,0,2024-05-20,2024-05-16,新星企画株式会社,,株式会社,大阪府,東大阪市,高井田中３丁目５番２号,,27,227,5770065,,,2024-05-16,清算の結了等,,,2022-10-05,1,,,,,シンセイキカク,0
455,2130001056877,登記記録の閉鎖等,0,2024-05-20,2024-05-16,株式会社太陽,,株式会社,大阪府,東大阪市,高井田中３丁目６番２１号,,27,227,5770065,,,2024-05-16,清算の結了等,,,2016-02-18,1,,,,,タイヨウ,0
471,2140002069134,登記記録の閉鎖等,0,2024-05-20,2024-05-14,有限会社あこると,,有限会社,兵庫県,洲本市,物部２丁目１２番３０号,,28,205,6560051,,,2024-05-14,清算の結了等,,,2015-10-05,1,,,,,アコルト,0
474,2160003003098,登記記録の閉鎖等,0,2024-05-20,2024-05-13,合同会社ファストプランニング,,合同会社,滋賀県,湖南市,近江台１丁目２番１７号,,25,211,5203245,,,2024-05-13,清算の結了等,,,2024-01-23,1,,,,,ファストプランニング,0
477,2180001104953,登記記録の閉鎖等,0,2024-05-20,2024-05-09,ＣＫＣコミュニケーションズ株式会社,,株式会社,愛知県,名古屋市名東区,一社４丁目１６５番地,,23,115,4650093,,,2024-05-09,合併による解散等,9180001001863,令和６年５月１日名古屋市名東区姫若町３番地の２株式会社ＫＴＣホールディングス（9180001001863）に合併し解散,2015-10-05,1,,,,,シーケーシーコミュニケーションズ,0
501,2240001015797,登記記録の閉鎖等,0,2024-05-20,2024-05-16,株式会社ＶＡＮＣＥ,,株式会社,広島県,広島市中区,上幟町９番１号ＧＯＳＥＩビル,,34,101,7300014,,,2024-05-16,清算の結了等,,,2015-10-05,1,,,,,ヴァンス,0
531,2290005004016,登記記録の閉鎖等,0,2024-05-20,2024-04-01,特定非営利活動法人ピープルズ,,その他の設立登記法人,福岡県,福岡市博多区,麦野１丁目２８番２７号,,40,132,8120882,,,2024-04-01,清算の結了等,,,2015-10-05,1,,,,,,0
583,2470001014157,登記記録の閉鎖等,0,2024-05-20,2024-05-15,株式会社Ｌｉｇｈｔ’ｓ,,株式会社,香川県,坂出市,京町２丁目１番６号,,37,203,7620001,,,2024-05-15,清算の結了等,,,2015-10-05,1,,,,,,0
586,2480001008439,登記記録の閉鎖等,0,2024-05-20,2024-05-15,株式会社木の花,,株式会社,徳島県,徳島市,国府町井戸字高池窪２１番地４,,36,201,7793118,,,2024-05-15,清算の結了等,,,2015-10-05,1,,,,,コノハナ,0
592,2700150029535,登記記録の閉鎖等,0,2024-05-20,2023-12-31,江野そば,,その他,兵庫県,豊岡市,江野２２５－１,,28,209,6680003,,,2023-12-31,その他の清算の結了等,,,2015-10-09,1,,,,,ゴウノソバ,0
607,3010003031906,登記記録の閉鎖等,0,2024-05-20,2024-05-13,合同会社台日パートナーシップ,,合同会社,神奈川県,横浜市中区,桜木町１丁目１０１番地１クロスゲート７階,,14,104,2310062,,,2024-05-13,清算の結了等,,,2020-03-17,1,,,,,タイニチパートナーシップ,0
625,3010705001388,登記記録の閉鎖等,0,2024-05-20,2024-05-16,特定非営利活動法人環境技術士ネットワーク,,その他の設立登記法人,茨城県,水戸市,双葉台４丁目２０番地の１,,08,201,3114145,,,2024-05-16,清算の結了等,,,2015-10-05,1,,,,,カンキョウギジュツシネットワーク,0
656,3012305001875,登記記録の閉鎖等,0,2024-05-20,2024-05-15,特定非営利活動法人Ｐｅｔｓ　ａｒｅ　Ｆａｍｉｌｙ,,その他の設立登記法人,東京都,町田市,西成瀬１丁目２３番１０号,,13,209,1940046,,,2024-05-15,清算の結了等,,,2019-04-08,1,,,,,ペッツアーファミリー,0
663,3013401002577,登記記録の閉鎖等,0,2024-05-20,2024-05-13,株式会社アフィット,,株式会社,東京都,日野市,神明３丁目６番地の１４,,13,212,1910016,,,2024-05-13,清算の結了等,,,2015-10-05,1,,,,,アフィット,0
685,3030001118802,登記記録の閉鎖等,0,2024-05-20,2024-05-16,ジョインペイメント株式会社,,株式会社,埼玉県,狭山市,大字北入曽７００番地の３農住メゾンプレミールＡ－１０２,,11,215,3501315,,,2024-05-16,清算の結了等,,,2017-02-21,1,,,,,ジョインペイメント,0
688,3030001127068,登記記録の閉鎖等,0,2024-05-20,2024-04-30,株式会社ＭＡＴＳＵＤＡ　ＰＥＡＣＥＳ,,株式会社,埼玉県,吉川市,保１丁目１９番地１１,,11,243,3420041,,,2024-04-30,清算の結了等,,,2018-08-20,1,,,,,マツダピーシーズ,0
712,3060001003349,登記記録の閉鎖等,0,2024-05-20,2024-05-13,株式会社中田電化センター,,株式会社,栃木県,宇都宮市,関堀町３７９番地１,,09,201,3210975,,,2024-05-13,清算の結了等,,,2015-10-05,1,,,,,ナカタデンカセンター,0
713,3060001009742,登記記録の閉鎖等,0,2024-05-20,2024-05-13,株式会社小堀,,株式会社,栃木県,芳賀郡市貝町,大字市塙１６７２番地３,,09,344,3213423,,,2024-05-13,清算の結了等,,,2015-10-05,1,,,,,コボリ,0
714,3060002012704,登記記録の閉鎖等,0,2024-05-20,2024-05-13,有限会社セキヤ家具修理,,有限会社,栃木県,塩谷郡塩谷町,大字東房４５６番地１,,09,384,3292214,,,2024-05-13,清算の結了等,,,2015-10-05,1,,,,,セキヤカグシュウリ,0
730,3100005009899,登記記録の閉鎖等,0,2024-05-20,2024-03-22,天理教根羽分教会,,その他の設立登記法人,長野県,下伊那郡根羽村,１９０５番地の２,,20,410,3950701,,,2024-03-22,合併による解散等,8100005010126,令和６年３月２２日長野県下伊那郡大鹿村大字大河原８０１番地天理教大鹿分教会（8100005010126）に合併し解散,2015-10-05,1,,,,,テンリキョウネバブンキョウカイ,0
735,3120001033018,登記記録の閉鎖等,0,2024-05-20,2024-05-15,株式会社ダイヤ,,株式会社,大阪府,大阪市住吉区,杉本１丁目７番５号,,27,120,5580022,,,2024-05-15,清算の結了等,,,2015-10-05,1,,,,,,0
742,3120001245604,登記記録の閉鎖等,0,2024-05-20,2024-05-16,株式会社だいなも,,株式会社,大阪府,大阪市阿倍野区,昭和町２丁目２番６号,,27,119,5450011,,,2024-05-16,清算の結了等,,,2022-05-02,1,,,,,ダイナモ,0
745,3120001254200,登記記録の閉鎖等,0,2024-05-20,2024-05-16,ＮＯＮＳ　ＫＡＭ株式会社,,株式会社,大阪府,大阪市東淀川区,東淡路４丁目２４－３９Ｐ－ＰＯＩＮＴ１０３号室,,27,114,5330023,,,2024-05-16,清算の結了等,,,2023-04-20,1,,,,,ノンズカム,0
757,3120101066818,登記記録の閉鎖等,0,2024-05-20,2024-05-13,方中株式会社,,株式会社,大阪府,堺市堺区,錦綾町１丁２番６号,,27,141,5900006,,,2024-05-13,清算の結了等,,,2023-01-12,1,,,,,ホウチュウ,0
786,3170001006927,登記記録の閉鎖等,0,2024-05-20,2024-05-17,ウインワークス株式会社,,株式会社,和歌山県,和歌山市,雑賀崎２０１７番地の３,,30,201,6410062,,,2024-05-17,清算の結了等,,,2015-10-05,1,,,,,ウインワークス,0
788,3180001050916,登記記録の閉鎖等,0,2024-05-20,2024-05-10,マザックビル株式会社,,株式会社,愛知県,名古屋市東区,徳川町１３０１番地徳川町スカイマンション４０２号,,23,102,4610023,,,2024-05-10,清算の結了等,,,2015-10-05,1,,,,,マザックビル,0
801,3180002086752,登記記録の閉鎖等,0,2024-05-20,2024-05-10,有限会社バンテック,,有限会社,愛知県,大府市,共和町２丁目１３番地の３グローリアス共和２０１号,,23,223,4740061,,,2024-05-10,清算の結了等,,,2015-10-05,1,,,,,バンテック,0
803,3180003016584,登記記録の閉鎖等,0,2024-05-20,2024-05-07,合同会社るっくる,,合同会社,愛知県,名古屋市中川区,水里３丁目２１６番地,,23,110,4540963,,,2024-05-07,清算の結了等,,,2015-10-05,1,,,,,ルックル,0
811,3240001032230,登記記録の閉鎖等,0,2024-05-20,2024-05-15,マルヤス商事株式会社,,株式会社,広島県,福山市,本庄町中３丁目２８番４号,,34,207,7200076,,,2024-05-15,清算の結了等,,,2015-10-05,1,,,,,マルヤスショウジ,0
815,3250003003071,登記記録の閉鎖等,0,2024-05-20,2024-05-16,合同会社ＣＷＳ,,合同会社,山口県,下松市,大字末武中４１番６グランドソレイユ１－０２,,35,207,7440023,,,2024-05-16,清算の結了等,,,2022-05-25,1,,,,,シーダブリューエス,0
820,3290001070242,登記記録の閉鎖等,0,2024-05-20,2024-04-15,株式会社いけだ社会福祉士事務所,,株式会社,福岡県,みやま市,瀬高町廣瀬２７２番地２,,40,229,8350001,,,2024-04-15,清算の結了等,,,2015-10-05,1,,,,,イケダシャカイフクシシジムショ,0
830,3290002016590,登記記録の閉鎖等,0,2024-05-20,2024-04-16,有限会社中嶋製本,,有限会社,福岡県,福岡市博多区,住吉４丁目１５番１７号,,40,132,8120018,,,2024-04-16,清算の結了等,,,2015-10-05,1,,,,,ナカシマセイホン,0
833,3290002056166,登記記録の閉鎖等,0,2024-05-20,2024-04-16,有限会社ティー・ティー・クリエイト,,有限会社,福岡県,大牟田市,築町５番地１５築町ビル１階,,40,202,8360841,,,2024-04-16,清算の結了等,,,2015-10-05,1,,,,,ティーティークリエイト,0
838,3290801013945,登記記録の閉鎖等,0,2024-05-20,2024-05-14,株式会社水巻シルバーワークサービス,,株式会社,福岡県,遠賀郡水巻町,伊左座５丁目９番２号,,40,382,8070056,,,2024-05-14,清算の結了等,,,2015-10-05,1,,,,,ミズマキシルバーワークサービス,0
867,3430001027459,登記記録の閉鎖等,0,2024-05-20,2024-05-01,北海道ビルウェア株式会社,,株式会社,北海道,札幌市東区,北十八条東１８丁目１番１５号,,01,103,0650018,,,2024-05-01,合併による解散等,9370001012115,令和６年４月１日仙台市宮城野区榴岡五丁目１－２３仙台Ｋビル４階東北ビルウェア株式会社（9370001012115）に合併し解散,2015-10-05,1,,,,,ホッカイドウビルウェア,0
868,3430001063982,登記記録の閉鎖等,0,2024-05-20,2024-05-01,株式会社煌,,株式会社,北海道,札幌市東区,北十三条東１０丁目１番１１号,,01,103,0650013,,,2024-05-01,合併による解散等,5430001063989,令和６年５月１日札幌市東区北十三条東十丁目１番１１号株式会社良好（5430001063989）に合併し解散,2015-10-05,1,,,,,コウ,0
876,3430002037721,登記記録の閉鎖等,0,2024-05-20,2024-05-16,有限会社エスティ・クリエイト,,有限会社,北海道,札幌市中央区,南一条西１０丁目４番地海洋ビル６Ｆ,,01,101,0600061,,,2024-05-16,清算の結了等,,,2015-10-05,1,,,,,エスティクリエイト,0
881,3450002008695,登記記録の閉鎖等,0,2024-05-20,2024-05-14,有限会社石井工建,,有限会社,北海道,旭川市,永山七条２丁目２番９号,,01,204,0798417,,,2024-05-14,清算の結了等,,,2015-10-05,1,,,,,イシイコウケン,0
889,3700150028008,登記記録の閉鎖等,0,2024-05-20,2023-03-31,兵庫県薬剤師国民健康保険組合,,その他,兵庫県,神戸市兵庫区,塚本通２丁目２番２５号兵庫県柔道整復師会館３階,,28,105,6520804,,,2023-03-31,その他の清算の結了等,,,2015-10-09,1,,,,,ヒヨウゴケンヤクザイシコクミンケンコウホケンクミアイ,0
896,4010001232827,登記記録の閉鎖等,0,2024-05-20,2024-05-02,ターミナルジャパン株式会社,,株式会社,東京都,中央区,銀座１丁目９番１３号,,13,102,1040061,,,2024-05-02,清算の結了等,,,2023-02-09,1,,,,,ターミナルジャパン,0
905,4010005027975,登記記録の閉鎖等,0,2024-05-20,2024-05-13,ＡＣ８一般社団法人,,その他の設立登記法人,東京都,板橋区,上板橋１丁目１９番１６号,,13,119,1740076,,,2024-05-13,清算の結了等,,,2018-01-17,1,,,,,エーシーエイト,0
907,4010401048716,登記記録の閉鎖等,0,2024-05-20,2024-05-02,株式会社ネットラスト,,株式会社,東京都,千代田区,紀尾井町１番３号,,13,101,1020094,,,2024-05-02,合併による解散等,4010401039979,令和６年５月１日東京都千代田区紀尾井町１番３号ＬＩＮＥヤフー株式会社（4010401039979）に合併し解散,2015-10-05,1,,,,,ネットラスト,0
947,4011101065588,登記記録の閉鎖等,0,2024-05-20,2024-05-10,株式会社ＪＪ　ＣＯＲＰＯＲＡＴＩＯＮ,,株式会社,東京都,新宿区,高田馬場３丁目１８番２６号第１０康洋ビル４Ｆ,,13,104,1690075,,,2024-05-10,清算の結了等,,,2015-10-05,1,,,,,ジェイジェイコーポレイション,0
951,4011101101062,登記記録の閉鎖等,0,2024-05-20,2024-05-13,ＢＡＳＥＤ　ＤＥＳＩＧＮ株式会社,,株式会社,東京都,新宿区,西新宿３丁目３番１３号西新宿水間ビル２Ｆ,,13,104,1600023,,,2024-05-13,清算の結了等,,,2022-12-05,1,,,,,ベイスドデザイン,0
971,4012405002896,登記記録の閉鎖等,0,2024-05-20,2024-05-13,医療法人社団勇真会,,その他の設立登記法人,東京都,国立市,中１丁目１０番地９麒麟館ガーデン２－Ａ,,13,215,1860004,,,2024-05-13,清算の結了等,,,2015-10-05,1,,,,,ユウシンカイ,0
1001,4030001117704,登記記録の閉鎖等,0,2024-05-20,2024-05-10,株式会社パラダイス,,株式会社,埼玉県,所沢市,松葉町１１番１３号,,11,208,3590044,,,2024-05-10,清算の結了等,,,2016-12-20,1,,,,,パラダイス,0
1010,4030002016401,登記記録の閉鎖等,0,2024-05-20,2024-05-15,有限会社島田興業,,有限会社,埼玉県,さいたま市北区,櫛引町２丁目１０６番地,,11,102,3310825,,,2024-05-15,清算の結了等,,,2015-10-05,1,,,,,シマダコウギョウ,0
1037,4050001000247,登記記録の閉鎖等,0,2024-05-20,2024-05-01,茨城消防株式会社,,株式会社,茨城県,水戸市,笠原町１２２７番地の２,,08,201,3100852,,,2024-05-01,合併による解散等,1050001002543,令和６年５月１日茨城県水戸市新荘二丁目７番３３号水戸通信工業株式会社（1050001002543）に合併して解散,2015-10-05,1,,,,,イバラキショウボウ,0
1067,4100005009089,登記記録の閉鎖等,0,2024-05-20,2024-03-22,天理教飯島分教会,,その他の設立登記法人,長野県,上伊那郡飯島町,飯島１１１５番地,,20,384,3993702,,,2024-03-22,合併による解散等,2100005008984,令和６年３月２２日長野県上伊那郡中川村片桐４１４３番地天理教中伊那分教会（2100005008984）に合併し解散,2015-10-05,1,,,,,テンリキョウイイジマブンキョウカイ,0
1083,4120002025079,登記記録の閉鎖等,0,2024-05-20,2024-05-15,有限会社三成工業所,00030748,有限会社,大阪府,大阪市東淀川区,下新庄５丁目６番３３号,,27,114,5330021,,,2024-05-15,清算の結了等,,,2015-10-05,1,,,,,サンセイコウギョウショ,0
1084,4120101027257,登記記録の閉鎖等,0,2024-05-20,2024-05-10,シードルック株式会社,,株式会社,大阪府,大阪狭山市,大野台３丁目１９番６号,,27,231,5890023,,,2024-05-10,清算の結了等,,,2015-10-05,1,,,,,シードルック,0
1085,4120101032430,登記記録の閉鎖等,0,2024-05-20,2024-05-14,株式会社冨士茶園,,株式会社,大阪府,羽曳野市,栄町３番７号,,27,222,5830853,,,2024-05-14,清算の結了等,,,2015-10-05,1,,,,,フジチャエン,0
1099,4140001004932,登記記録の閉鎖等,0,2024-05-20,2024-05-16,株式会社青幸,,株式会社,兵庫県,神戸市西区,玉津町高津橋６３６番地の１,,28,111,6512122,,,2024-05-16,清算の結了等,,,2015-10-05,1,,,,,,0
1106,4140002051123,登記記録の閉鎖等,0,2024-05-20,2024-05-16,有限会社みのる,,有限会社,兵庫県,姫路市,網干区北新在家１８１番地,,28,201,6711235,,,2024-05-16,清算の結了等,,,2015-10-05,1,,,,,,0
1112,4160001019929,登記記録の閉鎖等,0,2024-05-20,2024-05-07,メタスキーマ株式会社,,株式会社,東京都,中央区,日本橋３丁目２－１４,,13,102,1030027,,,2024-05-07,清算の結了等,,,2016-12-22,1,,,,,メタスキーマ,0
1117,4180001029950,登記記録の閉鎖等,0,2024-05-20,2024-05-13,近喜物産株式会社,,株式会社,愛知県,名古屋市中村区,名駅南２丁目３番１２号,,23,105,4500003,,,2024-05-13,清算の結了等,,,2015-10-05,1,,,,,コンキブッサン,0
1124,4180001135138,登記記録の閉鎖等,0,2024-05-20,2024-05-16,大星自動車販売株式会社,,株式会社,大阪府,東大阪市,高井田中３丁目６番２１号,,27,227,5770065,,,2024-05-16,清算の結了等,,,2019-01-16,1,,,,,タイセイジドウシャハンバイ,0
1142,4190001018878,登記記録の閉鎖等,0,2024-05-20,2024-05-15,株式会社試作サポーター四日市,,株式会社,三重県,四日市市,安島１丁目３番１８号,,24,202,5100075,,,2024-05-15,清算の結了等,,,2015-10-05,1,,,,,シサクサポーターヨッカイチ,0
1148,4220002003834,登記記録の閉鎖等,0,2024-05-20,2024-05-13,有限会社中協測量,,有限会社,石川県,白山市,美川中町ソ４５番地,,17,210,9290224,,,2024-05-13,清算の結了等,,,2015-10-05,1,,,,,チュウキョウソクリョウ,0
1153,4240005004200,登記記録の閉鎖等,0,2024-05-20,2024-05-01,医療法人社団もみの木会,,その他の設立登記法人,広島県,山県郡北広島町,新庄２１４７番地の１,,34,369,7312103,,,2024-05-01,合併による解散等,6240005002813,令和６年５月１日広島市安佐南区緑井六丁目２８番１号医療法人サカもみの木会（6240005002813）に合併し解散,2015-10-05,1,,,,,モミノキカイ,0
1164,4290002008091,登記記録の閉鎖等,0,2024-05-20,2024-04-17,有限会社サービスゲームス福岡,,有限会社,福岡県,福岡市城南区,南片江４丁目７番１１号,,40,136,8140143,,,2024-04-17,清算の結了等,,,2015-10-05,1,,,,,サービスゲームスフクオカ,0
1173,4290005003635,登記記録の閉鎖等,0,2024-05-20,2024-04-19,特定非営利活動法人通院送迎センターステップ福岡,,その他の設立登記法人,福岡県,福岡市早良区,高取２丁目１７番４９号３０３号,,40,137,8140011,,,2024-04-19,清算の結了等,,,2015-10-05,1,,,,,,0
1174,4290005005128,登記記録の閉鎖等,0,2024-05-20,2024-04-23,特定非営利活動法人まえばるたんぽぽ福祉会,,その他の設立登記法人,福岡県,糸島市,波多江駅北２丁目１８－２５,,40,230,8191107,,,2024-04-23,清算の結了等,,,2015-10-05,1,,,,,,0
1189,4360001015362,登記記録の閉鎖等,0,2024-05-20,2024-05-02,ＭＩＫＡ　ＧＯＬＦ　ＳＹＳＴＥＭ株式会社,,株式会社,沖縄県,那覇市,泊１丁目６番１号ビックライスマンションとまり６０３,,47,201,9000012,,,2024-05-02,合併による解散等,9010401097238,令和６年５月１日京都市中京区車屋町通二条下ル仁王門突抜町３２５番地ＭＩＫＡ　ＧＯＬＦ　ＣＯＲＰＯＲＡＴＩＯＮ株式会社（9010401097238）に合併し解散,2015-10-05,1,,,,,ミカゴルフシステム,0
1222,4700150078555,登記記録の閉鎖等,0,2024-05-20,2021-02-26,北中西・栄町地区市街地再開発組合,,その他,滋賀県,草津市,大路１丁目８－５,,25,206,5250032,,,2021-02-26,その他の清算の結了等,,,2016-12-07,1,,,,,キタナカニシサカエマチチクシガイチサイカイハツクミアイ,0
1223,4700150107917,登記記録の閉鎖等,0,2024-05-20,2023-12-31,１６号室,,その他,愛知県,名古屋市中村区,上ノ宮町２丁目３０－２メゾン本陣２Ｃ,,23,105,4530043,,,2023-12-31,その他の清算の結了等,,,2022-04-13,1,,,,,ジユウロクゴウシツ,0
1230,5010001211805,登記記録の閉鎖等,0,2024-05-20,2024-04-30,株式会社メディカルフィール,,株式会社,東京都,港区,浜松町２丁目２番１５号浜松町ダイヤビル２Ｆ,,13,103,1050013,,,2024-04-30,清算の結了等,,,2020-08-24,1,,,,,メディカルフィール,0
1255,5010601006695,登記記録の閉鎖等,0,2024-05-20,2024-05-15,株式会社丸市商店,,株式会社,東京都,江東区,東陽３丁目１６番５号,,13,108,1350016,,,2024-05-15,清算の結了等,,,2015-10-05,1,,,,,マルイチショウテン,0
1287,5012301010440,登記記録の閉鎖等,0,2024-05-20,2024-05-15,株式会社Ｒｅｎｏｖａｔｅ,,株式会社,東京都,町田市,玉川学園２丁目２番６号,,13,209,1940041,,,2024-05-15,合併による解散等,4012301010648,令和６年５月９日東京都江東区亀戸二丁目２７番７号株式会社ルークス（4012301010648）に合併し解散,2016-02-23,1,,,,,リノベート,0
1313,5030001012012,登記記録の閉鎖等,0,2024-05-20,2024-05-15,株式会社エレガント,,株式会社,埼玉県,さいたま市岩槻区,大字末田１８１－１,,11,110,3390021,,,2024-05-15,清算の結了等,,,2015-10-05,1,,,,,エレガント,0
1321,5030005003296,登記記録の閉鎖等,0,2024-05-20,2024-05-15,特定非営利活動法人みらいの会,,その他の設立登記法人,埼玉県,さいたま市中央区,下落合５丁目３番３号,,11,105,3380002,,,2024-05-15,清算の結了等,,,2015-10-05,1,,,,,ミライノカイ,0
1325,5040001073029,登記記録の閉鎖等,0,2024-05-20,2024-05-08,株式会社鈴木商事,,株式会社,千葉県,鎌ケ谷市,道野辺中央５丁目１３番６号,,12,224,2730113,,,2024-05-08,清算の結了等,,,2015-10-05,1,,,,,スズキショウジ,0
1361,5100005009880,登記記録の閉鎖等,0,2024-05-20,2024-03-22,天理教伊賀良分教会,,その他の設立登記法人,長野県,飯田市,大瀬木３７１９番地,,20,205,3950157,,,2024-03-22,合併による解散等,1100005009901,令和６年３月２２日長野県飯田市川路４３８７番地４天理教龍峡分教会（1100005009901）に合併し解散,2015-10-05,1,,,,,テンリキョウイガラブンキョウカイ,0
1365,5110002002929,登記記録の閉鎖等,0,2024-05-20,2024-05-16,有限会社サロンド・マリコ,,有限会社,新潟県,新潟市中央区,弁天橋通１丁目７番１４号,,15,103,9500925,,,2024-05-16,清算の結了等,,,2015-10-05,1,,,,,サロンドマリコ,0
1386,5120902013677,登記記録の閉鎖等,0,2024-05-20,2024-05-16,有限会社シトルト,,有限会社,大阪府,吹田市,春日４丁目１１番４－４０６号,,27,205,5650853,,,2024-05-16,清算の結了等,,,2015-10-05,1,,,,,シトルト,0
1411,5180001085794,登記記録の閉鎖等,0,2024-05-20,2024-05-10,コアラトレーディング株式会社,,株式会社,愛知県,稲沢市,稲島法成寺町東狭間４番地１,,23,220,4928206,,,2024-05-10,清算の結了等,,,2015-10-05,1,,,,,コアラトレーディング,0
1414,5180001136275,登記記録の閉鎖等,0,2024-05-20,2024-05-09,株式会社ＣＲＹＳＴＡＬ,,株式会社,愛知県,東海市,大田町蟹田１０５番地,,23,222,4770031,,,2024-05-09,清算の結了等,,,2019-04-25,1,,,,,クリスタル,0
1421,5190001007161,登記記録の閉鎖等,0,2024-05-20,2024-05-15,株式会社ワイケーサービス,,株式会社,三重県,伊勢市,一之木３丁目２０番３２号,,24,203,5160071,,,2024-05-15,清算の結了等,,,2015-10-05,1,,,,,ワイケーサービス,0
1423,5200002002845,登記記録の閉鎖等,0,2024-05-20,2024-05-16,高見エッグス商事有限会社,,有限会社,岐阜県,岐阜市,茜部菱野１丁目５６番地,,21,201,5008268,,,2024-05-16,清算の結了等,,,2015-10-05,1,,,,,タカミエッグス,0
1429,5230005002749,登記記録の閉鎖等,0,2024-05-20,2024-04-30,熊野社,,その他の設立登記法人,富山県,富山市,八尾町北谷１９４番地,,16,201,9392324,,,2024-04-30,合併による解散等,7230005002788,令和６年４月３０日富山市八尾町黒田３９２８番地杉原神社（7230005002788）に合併し解散,2015-10-05,1,,,,,クマノシャ,0
1459,5300005006916,登記記録の閉鎖等,0,2024-05-20,2024-05-14,ＮＰＯ法人訪問介護絆,,その他の設立登記法人,佐賀県,佐賀市,西田代１丁目５番１０号ファミーユＭ２０１号,,41,201,8400045,,,2024-05-14,清算の結了等,,,2020-06-19,1,,,,,ホウモンカイゴキズナ,0
1466,5330002006759,登記記録の閉鎖等,0,2024-05-20,2024-05-14,有限会社地域環境計画,,有限会社,熊本県,熊本市西区,稗田町２番２８号,,43,103,8600075,,,2024-05-14,清算の結了等,,,2015-10-05,1,,,,,チイキカンキョウケイカク,0
1476,5370002006474,登記記録の閉鎖等,0,2024-05-20,2024-05-15,有限会社仙台美光社,,有限会社,宮城県,仙台市若林区,白萩町２１番２０号コーポフラワー１０１,,04,103,9840048,,,2024-05-15,清算の結了等,,,2015-10-05,1,,,,,センダイビコウシャ,0
1487,5390002015903,登記記録の閉鎖等,0,2024-05-20,2024-05-13,有限会社カワグチテクノ,,有限会社,山形県,西村山郡河北町,谷地字月山堂８７２番地の１,,06,321,9993511,,,2024-05-13,清算の結了等,,,2015-10-05,1,,,,,カワグチテクノ,0
1499,5430003015410,登記記録の閉鎖等,0,2024-05-20,2024-05-15,合同会社喜茂別知来別小さな村,,合同会社,北海道,虻田郡喜茂別町,字喜茂別１３番地の５,,01,398,0440201,,,2024-05-15,清算の結了等,,,2023-09-07,1,,,,,キモベツチライベツチイサナムラ,0
1504,5450005003717,登記記録の閉鎖等,0,2024-05-20,2024-05-15,医療法人社団おのでら整形外科クリニック,,その他の設立登記法人,北海道,旭川市,神楽岡五条７丁目３番１０号,,01,204,0788315,,,2024-05-15,清算の結了等,,,2015-10-05,1,,,,,オノデラセイケイゲカクリニック,0
1523,6010001143056,登記記録の閉鎖等,0,2024-05-20,2024-05-13,株式会社リプレス,,株式会社,東京都,豊島区,千早１丁目５番８号ヤマガミビル２０１,,13,116,1710044,,,2024-05-13,清算の結了等,,,2015-10-05,1,,,,,リプレス,0
1549,6010401148266,登記記録の閉鎖等,0,2024-05-20,2024-04-17,株式会社ａｓｋａｓ,,株式会社,東京都,港区,高輪４丁目１９番５号ＲＡＵＭ高輪１０３,,13,103,1080074,,,2024-04-17,清算の結了等,,,2019-10-01,1,,,,,アスカス,0
1554,6010402010821,登記記録の閉鎖等,0,2024-05-20,2024-04-30,有限会社ビス音楽出版,,有限会社,東京都,港区,南青山５丁目４番６号,,13,103,1070062,,,2024-04-30,合併による解散等,5011001006914,令和６年４月１日東京都渋谷区渋谷一丁目２１番１２号株式会社ピラミッド（5011001006914）に合併し解散,2015-10-05,1,,,,,,0
1571,6011002036570,登記記録の閉鎖等,0,2024-05-20,2024-05-13,有限会社フィフチル,,有限会社,東京都,板橋区,南常盤台１丁目１１番６号,,13,119,1740072,,,2024-05-13,清算の結了等,,,2015-10-05,1,,,,,フィフチル,0
1581,6011501022740,登記記録の閉鎖等,0,2024-05-20,2024-05-14,株式会社一進,,株式会社,東京都,荒川区,荒川３丁目２８番８号,,13,118,1160002,,,2024-05-14,清算の結了等,,,2017-06-08,1,,,,,,0
1588,6012302005554,登記記録の閉鎖等,0,2024-05-20,2024-05-15,有限会社エムズワールド,,有限会社,東京都,町田市,中町４丁目５番１４号,,13,209,1940021,,,2024-05-15,清算の結了等,,,2015-10-05,1,,,,,エムズワールド,0
1590,6020001055119,登記記録の閉鎖等,0,2024-05-20,2024-05-14,楽楽ユニ・ワールド株式会社,,株式会社,東京都,荒川区,東日暮里５丁目２６番１号２階,,13,118,1160014,,,2024-05-14,清算の結了等,,,2015-10-05,1,,,,,ラクラクユニワールド,0
1608,6021002064570,登記記録の閉鎖等,0,2024-05-20,2024-05-16,有限会社ミツミ環境システム,,有限会社,神奈川県,横須賀市,長沢４丁目２１番１０号,,14,201,2390842,,,2024-05-16,清算の結了等,,,2015-10-05,1,,,,,ミツミカンキョウシステム,0
1658,6080002005777,登記記録の閉鎖等,0,2024-05-20,2024-05-15,有限会社美和製作所,,有限会社,静岡県,静岡市葵区,足久保口組１２７４番地の１,,22,101,4212124,,,2024-05-15,清算の結了等,,,2015-10-05,1,,,,,ミワセイサクジョ,0
1661,6080402001640,登記記録の閉鎖等,0,2024-05-20,2024-05-16,有限会社太田工業所,,有限会社,静岡県,浜松市浜名区,新都田２丁目２０番３２号,,22,139,4312103,,,2024-05-16,清算の結了等,,,2015-10-05,1,,,,,オオタコウギョウショ,0
1663,6100001034254,登記記録の閉鎖等,0,2024-05-20,2024-04-30,株式会社一仁アプリシティー,,株式会社,長野県,上田市,五加１３８１番地１,,20,203,3861324,,,2024-04-30,清算の結了等,,,2021-05-24,1,,,,,イチジンアプリシティー,0
1686,6120105004606,登記記録の閉鎖等,0,2024-05-20,2024-05-16,特定非営利活動法人現代社会環境研究所,,その他の設立登記法人,大阪府,八尾市,萱振町４丁目３０番１－１０１号,,27,212,5810834,,,2024-05-16,清算の結了等,,,2015-10-05,1,,,,,ゲンダイシャカイカンキョウケンキュウジョ,0
1690,6120902022421,登記記録の閉鎖等,0,2024-05-20,2024-05-02,有限会社水野建築設計事務所,,有限会社,大阪府,豊中市,岡町南１丁目５番１１号,,27,203,5610883,,,2024-05-02,清算の結了等,,,2015-10-05,1,,,,,ミズノケンチクセッケイジムショ,0
1732,6200002026760,登記記録の閉鎖等,0,2024-05-20,2024-05-17,有限会社エフ・エフ・ティ,,有限会社,岐阜県,飛騨市,古川町下気多６８番地７,,21,217,5094213,,,2024-05-17,清算の結了等,,,2015-10-05,1,,,,,エフエフテイ,0
1750,6280002000023,登記記録の閉鎖等,0,2024-05-20,2024-05-17,有限会社アーバン企画,,有限会社,島根県,松江市,朝日町５９０番地の３,,32,201,6900003,,,2024-05-17,清算の結了等,,,2015-10-05,1,,,,,アーバンキカク,0
1781,6350005002439,登記記録の閉鎖等,0,2024-05-20,2024-05-14,耳川林材振興事業協同組合,,その他の設立登記法人,宮崎県,日向市,大字日知屋４７４７番地１,,45,206,8830062,,,2024-05-14,清算の結了等,,,2015-10-05,1,,,,,ミミカワリンザイシンコウ,0
1789,6370001010583,登記記録の閉鎖等,0,2024-05-20,2024-05-14,株式会社明東不動産鑑定,,株式会社,宮城県,仙台市青葉区,一番町１丁目１４番２０－２０３号（ダイアパレス一番町）,,04,101,9800811,,,2024-05-14,清算の結了等,,,2015-10-05,1,,,,,メイトウフドウサンカンテイ,0
1792,6370102002224,登記記録の閉鎖等,0,2024-05-20,2024-04-26,有限会社アイ電工,,有限会社,宮城県,白石市,越河字小坂入１９番地,,04,206,9890113,,,2024-04-26,清算の結了等,,,2015-10-05,1,,,,,アイデンコウ,0
1804,6420003002301,登記記録の閉鎖等,0,2024-05-20,2024-05-10,合同会社ｓｈｅｅｐ－ｂａｌｌｏｏｎ,,合同会社,青森県,八戸市,大字鮫町字上盲久保２２－５４,,02,203,0310841,,,2024-05-10,清算の結了等,,,2021-04-30,1,,,,,シープバルーン,0
1811,6430003013066,登記記録の閉鎖等,0,2024-05-20,2024-05-14,合同会社Ｒｅｔｅｒｎａ,,合同会社,北海道,札幌市中央区,南二条西５丁目３１番地１,,01,101,0600062,,,2024-05-14,合併による解散等,8430001076212,令和６年５月１４日札幌市白石区本通十六丁目南３番８－４０２号株式会社Ｌｕｔｅｎａ（8430001076212）に合併し解散,2021-08-19,1,,,,,リテルナ,0
1813,6430005005359,登記記録の閉鎖等,0,2024-05-20,2024-05-17,特定非営利活動法人ユニコーン,,その他の設立登記法人,北海道,札幌市白石区,南郷通７丁目南４番１０号ステージセブン１０１号室,,01,104,0030022,,,2024-05-17,清算の結了等,,,2015-10-05,1,,,,,ユニコーン,0
1822,6500001014463,登記記録の閉鎖等,0,2024-05-20,2024-05-15,丸一管工株式会社,,株式会社,愛媛県,四国中央市,中曽根町乙１９０番地の２,,38,213,7990413,,,2024-05-15,清算の結了等,,,2015-10-05,1,,,,,マルイチカンコウ,0
1823,6500001021889,登記記録の閉鎖等,0,2024-05-20,2024-05-15,株式会社まる松潮見,,株式会社,愛媛県,西条市,玉津５５８番地２,,38,206,7930001,,,2024-05-15,清算の結了等,,,2019-03-08,1,,,,,マルマツシオミ,0
1830,6700150048837,登記記録の閉鎖等,0,2024-05-20,2023-03-31,小鳥振興協会,,その他,岐阜県,高山市,清見町夏厩９２６－１,,21,203,5060205,,,2023-03-31,その他の清算の結了等,,,2015-10-09,1,,,,,オドリシンコウキヨウカイ,0
1838,7010001147015,登記記録の閉鎖等,0,2024-05-20,2024-05-01,ジャパンコンサルティング株式会社,,株式会社,東京都,千代田区,神田平河町１,,13,101,1010027,,,2024-05-01,合併による解散等,8010001129061,令和６年５月１日東京都千代田区外神田４－３－３－１Ｆ株式会社ｅｃｏｔ（8010001129061）に合併し解散,2015-10-05,1,,,,,ジャパンコンサルティング,0
1846,7010003007290,登記記録の閉鎖等,0,2024-05-20,2024-05-02,合資会社辰巳屋紙工,,合資会社,東京都,中央区,入船２丁目３番９号,,13,102,1040042,,,2024-05-02,清算の結了等,,,2015-10-05,1,,,,,タツミヤシコウ,0
1893,7011101068258,登記記録の閉鎖等,0,2024-05-20,2024-05-15,株式会社バウト,,株式会社,東京都,足立区,竹の塚２丁目２１番６号後藤ビル,,13,121,1210813,,,2024-05-15,清算の結了等,,,2015-10-05,1,,,,,バウト,0
1924,7020001099354,登記記録の閉鎖等,0,2024-05-20,2024-05-09,株式会社オフィス７０７,,株式会社,神奈川県,横浜市戸塚区,戸塚町５９３番地１クリオ戸塚六番館５０２号,,14,110,2440003,,,2024-05-09,清算の結了等,,,2015-10-05,1,,,,,オフィスナナマルナナ,0
1942,7021002063761,登記記録の閉鎖等,0,2024-05-20,2024-05-16,有限会社木下冷凍機,,有限会社,神奈川県,横須賀市,汐入町２丁目４４番地,,14,201,2380042,,,2024-05-16,清算の結了等,,,2015-10-05,1,,,,,キノシタレイトウキ,0
1969,7060002013995,登記記録の閉鎖等,0,2024-05-20,2024-05-13,有限会社すし常,,有限会社,栃木県,那須郡那珂川町,小川８７９番地６,,09,411,3240501,,,2024-05-13,清算の結了等,,,2015-10-05,1,,,,,スシツネ,0
1970,7060005006732,登記記録の閉鎖等,0,2024-05-20,2024-05-13,特定非営利活動法人輝け両毛,,その他の設立登記法人,栃木県,足利市,本城２丁目１９０１番地の８,,09,202,3260808,,,2024-05-13,清算の結了等,,,2015-10-05,1,,,,,カガヤケリョウモウ,0
1971,7060005006781,登記記録の閉鎖等,0,2024-05-20,2024-05-13,特定非営利活動法人　相続・事業承継支援ネットワーク,,その他の設立登記法人,栃木県,足利市,本城２丁目１９０１番地８,,09,202,3260808,,,2024-05-13,清算の結了等,,,2015-10-05,1,,,,,ソウゾクジギョウショウケイシエンネットワーク,0
1999,7120001181440,登記記録の閉鎖等,0,2024-05-20,2024-05-15,株式会社プラグワークショップ,,株式会社,大阪府,大阪市東成区,中道２丁目５番１５－１１１０号,,27,115,5370025,,,2024-05-15,清算の結了等,,,2015-10-05,1,,,,,プラグワークショップ,0
2027,7140001090697,登記記録の閉鎖等,0,2024-05-20,2024-05-15,株式会社神戸市民大学講座,,株式会社,兵庫県,神戸市灘区,高羽町５丁目５番１１－３０２号,,28,102,6570023,,,2024-05-15,清算の結了等,,,2015-10-05,1,,,,,コウベシミンダイガクコウザ,0
2040,7180001029452,登記記録の閉鎖等,0,2024-05-20,2024-05-10,市川殖産株式会社,,株式会社,愛知県,名古屋市中村区,名駅５丁目１６番１７号,,23,105,4500002,,,2024-05-10,清算の結了等,,,2015-10-05,1,,,,,イチカワショクサン,0
2065,7240001022475,登記記録の閉鎖等,0,2024-05-20,2024-05-16,株式会社木本建設興業所,,株式会社,広島県,東広島市,八本松東５丁目３番１９号,,34,212,7390142,,,2024-05-16,清算の結了等,,,2015-10-05,1,,,,,キモトケンセツコウギョウショ,0
2066,7240001056309,登記記録の閉鎖等,0,2024-05-20,2024-05-16,株式会社カラースタンド,,株式会社,広島県,広島市中区,本通１番６号５Ｆ,,34,101,7300035,,,2024-05-16,合併による解散等,9240001024354,令和６年５月１日山口県萩市大字椿東４４８７番地１株式会社メートル（9240001024354）に合併し解散,2020-07-01,1,,,,,カラースタンド,0
2080,7290002029952,登記記録の閉鎖等,0,2024-05-20,2024-04-15,ＴＳＭ有限会社,,有限会社,福岡県,福岡市南区,大楠３丁目１３番１４号,,40,134,8150082,,,2024-04-15,清算の結了等,,,2015-10-05,1,,,,,ティーエスエム,0
2094,7310003003037,登記記録の閉鎖等,0,2024-05-20,2024-05-17,合同会社ＦＫＵビアンコ,,合同会社,長崎県,西彼杵郡長与町,丸田郷２０６番地１,,42,307,8512124,,,2024-05-17,清算の結了等,,,2015-10-05,1,,,,,エフケイユウビアンコ,0
2099,7350003004089,登記記録の閉鎖等,0,2024-05-20,2024-05-13,合同会社ａｎｊｅ,,合同会社,宮崎県,宮崎市,佐土原町下田島２０８７９番地２,,45,201,8800211,,,2024-05-13,清算の結了等,,,2022-05-31,1,,,,,アンジュ,0
2112,7400002013242,登記記録の閉鎖等,0,2024-05-20,2024-05-02,種市タクシー有限会社,,有限会社,岩手県,九戸郡洋野町,種市第２３地割９７番地１,,03,507,0287914,,,2024-05-02,清算の結了等,,,2015-10-05,1,,,,,タネイチタクシー,0
2122,7430002047683,登記記録の閉鎖等,0,2024-05-20,2024-05-15,有限会社三栄サービス,,有限会社,北海道,千歳市,根志越２１９１番地２,,01,224,0660008,,,2024-05-15,清算の結了等,,,2015-10-05,1,,,,,サンエイサービス,0
2131,7500003001079,登記記録の閉鎖等,0,2024-05-20,2024-05-16,合同会社カン・デザイン・オフィス,,合同会社,愛媛県,西条市,丹原町池田６００番地９,,38,206,7910508,,,2024-05-16,清算の結了等,,,2015-10-05,1,,,,,カンデザインオフィス,0
2132,7700150107600,登記記録の閉鎖等,0,2024-05-20,2023-12-31,ＹＹＳＨＯＰ,,その他,東京都,新宿区,新宿６丁目２７－５０ビラ吉川７０２,,13,104,1600022,,,2023-12-31,その他の清算の結了等,,,2022-03-31,1,,,,,ワイワイシヨツプ,0
2173,8011002016414,登記記録の閉鎖等,0,2024-05-20,2024-05-08,有限会社遠藤建材,,有限会社,東京都,渋谷区,千駄ヶ谷３丁目４０番８号,,13,113,1510051,,,2024-05-08,清算の結了等,,,2015-10-05,1,,,,,,0
2179,8011005005018,登記記録の閉鎖等,0,2024-05-20,2024-05-01,一般社団法人サービス産業革新推進機構,,その他の設立登記法人,東京都,目黒区,碑文谷１丁目２７番１６号,,13,110,1520003,,,2024-05-01,清算の結了等,,,2015-10-05,1,,,,,サービスサンギョウカクシンスイシンキコウ,0
2198,8011701000511,登記記録の閉鎖等,0,2024-05-20,2024-05-02,株式会社伊勢崎組,,株式会社,東京都,江戸川区,西葛西６丁目２２番１８号,,13,123,1340088,,,2024-05-02,清算の結了等,,,2024-04-03,1,,,,,イセザキグミ,0
2203,8012301008746,登記記録の閉鎖等,0,2024-05-20,2024-05-15,サンシャイン株式会社,,株式会社,東京都,町田市,金井ヶ丘２丁目１番２７号,,13,209,1950076,,,2024-05-15,清算の結了等,,,2015-10-05,1,,,,,サンシャイン,0
2216,8020003023625,登記記録の閉鎖等,0,2024-05-20,2024-05-09,合同会社Ｈ＆Ｅ,,合同会社,神奈川県,川崎市幸区,小倉１番地１Ｅ‐７１０,,14,132,2120054,,,2024-05-09,清算の結了等,,,2023-04-04,1,,,,,エイチアンドイー,0
2241,8040002051864,登記記録の閉鎖等,0,2024-05-20,2024-05-08,有限会社田中スポーツ製作所,,有限会社,千葉県,流山市,富士見台１丁目３６７番地の３２,,12,220,2700127,,,2024-05-08,清算の結了等,,,2015-10-05,1,,,,,タナカスポーツセイサクショ,0
2254,8070001026063,登記記録の閉鎖等,0,2024-05-20,2024-05-16,株式会社イリダイ,,株式会社,群馬県,甘楽郡南牧村,大字千原１９８番地２５,,10,383,3702803,,,2024-05-16,清算の結了等,,,2015-10-05,1,,,,,イリダイ,0
2262,8080401010780,登記記録の閉鎖等,0,2024-05-20,2024-05-17,巴木材株式会社,,株式会社,静岡県,浜松市天竜区,二俣町阿蔵８８番地の１,,22,140,4313311,,,2024-05-17,清算の結了等,,,2015-10-05,1,,,,,トモエモクザイ,0
2267,8100005009878,登記記録の閉鎖等,0,2024-05-20,2024-03-22,天理教伊那平分教会,,その他の設立登記法人,長野県,飯田市,上郷黒田６０２番地７,,20,205,3950004,,,2024-03-22,合併による解散等,8100005010126,令和６年３月２２日長野県下伊那郡大鹿村大字大河原８０１番地天理教大鹿分教会（8100005010126）に合併し解散,2015-10-05,1,,,,,テンリキョウイナダイラブンキョウカイ,0
2326,8180001074910,登記記録の閉鎖等,0,2024-05-20,2024-05-09,株式会社放電加工技術センター,,株式会社,愛知県,春日井市,東野町５丁目１８番地の１８,,23,206,4860817,,,2024-05-09,清算の結了等,,,2015-10-05,1,,,,,ホウデンカコウギジュツセンター,0
2327,8180001112273,登記記録の閉鎖等,0,2024-05-20,2024-05-13,株式会社ＰＲＯＧＲＥＳＳ,,株式会社,愛知県,名古屋市千種区,茶屋ヶ坂通二丁目６８番地１グリーンコーポ茶屋ヶ坂１０１,,23,101,4640000,,,2024-05-13,清算の結了等,,,2015-10-05,1,,,,,プログレス,0
2333,8180005007800,登記記録の閉鎖等,0,2024-05-20,2024-05-15,特定非営利活動法人ゆめの樹プロジェクト,,その他の設立登記法人,愛知県,名古屋市港区,名港１丁目６番３号,,23,111,4550037,,,2024-05-15,清算の結了等,,,2015-10-05,1,,,,,ユメノキプロジェクト,0
2356,8290001095020,登記記録の閉鎖等,0,2024-05-20,2024-04-16,サファイアデータ株式会社,,株式会社,福岡県,福岡市中央区,平尾１丁目８番２２－１００３号ロマネスク平尾第３,,40,133,8100014,,,2024-04-16,清算の結了等,,,2021-10-14,1,,,,,サファイアデータ,0
2382,8330001023678,登記記録の閉鎖等,0,2024-05-20,2024-05-15,株式会社コトウ工業,,株式会社,熊本県,熊本市中央区,水前寺４丁目５２番４８号,,43,101,8620950,,,2024-05-15,清算の結了等,,,2017-01-31,1,,,,,コトウコウギョウ,0
2407,8430002063812,登記記録の閉鎖等,0,2024-05-20,2024-05-15,有限会社アクト,,有限会社,北海道,室蘭市,天神町２７番３１号,,01,205,0500077,,,2024-05-15,清算の結了等,,,2015-10-05,1,,,,,アクト,0
2410,8440002007834,登記記録の閉鎖等,0,2024-05-20,2024-05-16,有限会社出雲鉄工所,,有限会社,北海道,北斗市,本町３丁目１１番３５号,,01,236,0411201,,,2024-05-16,清算の結了等,,,2015-10-05,1,,,,,イズモテッコウショ,0
2411,8440002009574,登記記録の閉鎖等,0,2024-05-20,2024-05-15,有限会社桂岡木工場,,有限会社,北海道,檜山郡上ノ国町,字桂岡１０４番地,,01,362,0490626,,,2024-05-15,清算の結了等,,,2015-10-05,1,,,,,カツラオカモッコウジョウ,0
2420,8700150078048,登記記録の閉鎖等,0,2024-05-20,2024-01-31,マザーズ,,その他,山梨県,南アルプス市,芦安芦倉９２０番地２,,19,208,4000241,,,2024-01-31,その他の清算の結了等,,,2016-11-25,1,,,,,マザーズ,0
2424,8700150107500,登記記録の閉鎖等,0,2024-05-20,2023-12-01,ロマンフレンズ,,その他,東京都,中野区,上高田２丁目３１－１０わかば荘１５号,,13,114,1640002,,,2023-12-01,その他の清算の結了等,,,2022-03-25,1,,,,,ロマンフレンズ,0
2433,9010002016142,登記記録の閉鎖等,0,2024-05-20,2024-05-10,有限会社青柳,,有限会社,東京都,中央区,入船１丁目２番８－１０４号,,13,102,1040042,,,2024-05-10,清算の結了等,,,2015-10-05,1,,,,,アオヤギ,0
2439,9010101014906,登記記録の閉鎖等,0,2024-05-20,2024-05-17,株式会社創志奏愛,,株式会社,東京都,八王子市,椚田町５８６－１４メディアンビル２Ｆ,,13,201,1930942,,,2024-05-17,清算の結了等,,,2021-10-13,1,,,,,ソウシソウアイ,0
2445,9010401160920,登記記録の閉鎖等,0,2024-05-20,2024-04-30,サステナブルエナジー株式会社,,株式会社,東京都,港区,六本木５丁目２番１号,,13,103,1060032,,,2024-04-30,合併による解散等,3010401161882,令和６年４月３０日東京都港区六本木五丁目２番１号サステナブルホールディングス株式会社（3010401161882）に合併し解散,2021-06-21,1,,,,,サステナブルエナジー,0
2449,9010405001591,登記記録の閉鎖等,0,2024-05-20,2024-05-15,医療法人社団功徳会,,その他の設立登記法人,埼玉県,越谷市,千間台西３丁目１番２０号春田ビル１Ｆ,,11,222,3430041,,,2024-05-15,清算の結了等,,,2015-10-05,1,,,,,コウトクカイ,0
2470,9011001130743,登記記録の閉鎖等,0,2024-05-20,2024-05-13,ロングテールサポート株式会社,,株式会社,東京都,新宿区,西新宿６丁目１８番１号,,13,104,1600023,,,2024-05-13,清算の結了等,,,2019-11-08,1,,,,,ロングテールサポート,0
2473,9011001143316,登記記録の閉鎖等,0,2024-05-20,2024-05-09,株式会社Ｋスターライトプロモーション,,株式会社,東京都,渋谷区,神宮前６丁目２３番４号桑野ビル２階,,13,113,1500001,,,2024-05-09,清算の結了等,,,2021-10-13,1,,,,,ケースターライトプロモーション,0
2493,9011101093568,登記記録の閉鎖等,0,2024-05-20,2024-05-10,株式会社ＣＮＡ　ｃｏｍｐａｎｙ,,株式会社,東京都,新宿区,四谷２丁目４番１号ＡＣＮ四谷ビル９Ｆ,,13,104,1600004,,,2024-05-10,清算の結了等,,,2021-01-05,1,,,,,シーエヌエーカンパニー,0
2506,9011802026074,登記記録の閉鎖等,0,2024-05-20,2024-05-16,有限会社ＳＵＮＳＯＦＴ,,有限会社,東京都,足立区,中央本町２丁目２２番２３号,,13,121,1200011,,,2024-05-16,清算の結了等,,,2015-10-05,1,,,,,サンソフト,0
2516,9013402007256,登記記録の閉鎖等,0,2024-05-20,2024-05-01,有限会社セイフティ,,有限会社,東京都,八王子市,散田町３丁目６番１９－２０４号,,13,201,1930832,,,2024-05-01,清算の結了等,,,2015-10-05,1,,,,,セイフティ,0
2519,9020001138036,登記記録の閉鎖等,0,2024-05-20,2024-05-09,株式会社スターの昼寝,,株式会社,神奈川県,川崎市多摩区,生田７丁目２番９号,,14,135,2140038,,,2024-05-09,清算の結了等,,,2020-10-07,1,,,,,スターノヒルネ,0
2525,9020005007410,登記記録の閉鎖等,0,2024-05-20,2024-05-01,日蓮宗顕妙教会,,その他の設立登記法人,神奈川県,川崎市中原区,木月１丁目４６６番地,,14,133,2110025,,,2024-05-01,合併による解散等,5021005008022,令和６年４月２６日神奈川県逗子市久木九丁目１番３３号法性寺（5021005008022）に合併し解散,2015-10-05,1,,,,,ニチレンシュウケンミョウキョウカイ,0
2532,9030001078264,登記記録の閉鎖等,0,2024-05-20,2024-05-02,アルファエレクトロニクス株式会社,,株式会社,埼玉県,川口市,南鳩ヶ谷３丁目２０番２１号,,11,203,3340013,,,2024-05-02,合併による解散等,6010401174618,令和６年５月１日埼玉県川口市南鳩ヶ谷三丁目２０番２１号アルファエレクトロニクス株式会社（6010401174618）に合併し解散,2015-10-05,1,,,,,アルファエレクトロニクス,0
2533,9030001117732,登記記録の閉鎖等,0,2024-05-20,2024-05-15,株式会社ニーラック,,株式会社,埼玉県,加須市,上高柳７０１番地１,,11,210,3470101,,,2024-05-15,清算の結了等,,,2016-12-20,1,,,,,ニーラック,0
2558,9040005000454,登記記録の閉鎖等,0,2024-05-20,2024-05-02,日本カイロプラクティック協同組合,,その他の設立登記法人,千葉県,市原市,姉崎６１８番地２,,12,219,2990111,,,2024-05-02,清算の結了等,,,2015-10-05,1,,,,,ニホンカイロプラクティック,0
2570,9070002031029,登記記録の閉鎖等,0,2024-05-20,2024-05-14,有限会社マユズミ,,有限会社,群馬県,太田市,龍舞町２０１番地の３,,10,205,3730806,,,2024-05-14,清算の結了等,,,2015-10-05,1,,,,,マユズミ,0
2576,9080402007536,登記記録の閉鎖等,0,2024-05-20,2024-05-17,有限会社松田金型製作所,,有限会社,静岡県,浜松市中央区,平松町９４番地の２,,22,138,4311203,,,2024-05-17,清算の結了等,,,2015-10-05,1,,,,,マツダカナガタセイサクショ,0
2584,9110002005358,登記記録の閉鎖等,0,2024-05-20,2024-05-15,有限会社にいがたプロジェクト,,有限会社,新潟県,新潟市中央区,姥ケ山５丁目１４番６３号,,15,103,9500923,,,2024-05-15,清算の結了等,,,2015-10-05,1,,,,,ニイガタプロジェクト,0
2601,9120101045907,登記記録の閉鎖等,0,2024-05-20,2024-05-13,株式会社三豊,,株式会社,大阪府,阪南市,箱作１８３３番地の３,,27,232,5990232,,,2024-05-13,清算の結了等,,,2015-10-05,1,,,,,サンポウ,0
2618,9140001072603,登記記録の閉鎖等,0,2024-05-20,2024-05-15,Ｋプランニング株式会社,,株式会社,兵庫県,西宮市,上甲子園５丁目７番６号,,28,204,6638114,,,2024-05-15,清算の結了等,,,2015-10-05,1,,,,,ケイプランニング,0
2635,9180001088942,登記記録の閉鎖等,0,2024-05-20,2024-05-10,株式会社アール技建,,株式会社,愛知県,名古屋市中村区,熊野町１丁目３９番地５,,23,105,4530814,,,2024-05-10,清算の結了等,,,2015-10-05,1,,,,,アールギケン,0
2650,9190001001607,登記記録の閉鎖等,0,2024-05-20,2024-05-15,協栄電器株式会社,,株式会社,三重県,津市,美里町穴倉字内戸１７６０番地の１,,24,201,5142107,,,2024-05-15,清算の結了等,,,2015-10-05,1,,,,,キョウエイデンキ,0
2657,9230002012350,登記記録の閉鎖等,0,2024-05-20,2024-05-15,有限会社ワールドサービス,,有限会社,富山県,高岡市,野村５６６番地,,16,202,9330014,,,2024-05-15,清算の結了等,,,2015-10-05,1,,,,,ワールドサービス,0
2659,9230005001350,登記記録の閉鎖等,0,2024-05-20,2024-04-26,法性寺,,その他の設立登記法人,富山県,富山市,水橋町７１５番地,,16,201,9390509,,,2024-04-26,合併による解散等,8230005001112,令和６年４月２６日富山市水橋舘町４８５番地永順寺（8230005001112）に合併し解散,2015-10-05,1,,,,,ホッショウジ,0
2664,9240002032315,登記記録の閉鎖等,0,2024-05-20,2024-05-16,有限会社大下商事,,有限会社,広島県,呉市,吉浦本町１丁目３番１７号,,34,202,7370861,,,2024-05-16,清算の結了等,,,2015-10-05,1,,,,,オオシタショウジ,0
2670,9290001022188,登記記録の閉鎖等,0,2024-05-20,2024-05-13,大信貿易株式会社大阪,,株式会社,大阪府,堺市西区,浜寺公園町３丁２３１番地３,,27,144,5928346,,,2024-05-13,清算の結了等,,,2015-10-05,1,,,,,ダイシンボウエキオオサカ,0
2682,9290005019288,登記記録の閉鎖等,0,2024-05-20,2024-04-26,一般社団法人みなくちあきら基金,,その他の設立登記法人,福岡県,福岡市博多区,中呉服町１番２２号,,40,132,8120035,,,2024-04-26,清算の結了等,,,2024-01-31,1,,,,,ミナクチアキラキキン,0
2689,9310002005503,登記記録の閉鎖等,0,2024-05-20,2024-05-17,有限会社峰米穀販売店,,有限会社,長崎県,長崎市,中町５番３１号,,42,201,8500055,,,2024-05-17,清算の結了等,,,2015-10-05,1,,,,,ミネベイコクハンバイテン,0
2709,9370605000003,登記記録の閉鎖等,0,2024-05-20,2024-04-01,医療法人社団幸和会,,その他の設立登記法人,宮城県,多賀城市,大代５丁目１６番４６号,,04,209,9850832,,,2024-04-01,合併による解散等,4370005001267,令和６年４月１日宮城県仙台市青葉区中江一丁目１０番１８号医療法人泉仁会（4370005001267）に合併し解散,2015-10-05,1,,,,,コウワカイ,0
2713,9410001009949,登記記録の閉鎖等,0,2024-05-20,2024-05-15,株式会社ハセコー,,株式会社,秋田県,秋田市,新屋田尻沢西町１４番２０号,,05,201,0101645,,,2024-05-15,清算の結了等,,,2015-10-05,1,,,,,ハセコー,0
2717,9430003015456,登記記録の閉鎖等,0,2024-05-20,2024-05-13,合同会社ＪＡＭ,,合同会社,北海道,札幌市西区,宮の沢三条２丁目３―５,,01,107,0630053,,,2024-05-13,清算の結了等,,,2023-09-14,1,,,,,ジャム,0
2727,9500002020367,登記記録の閉鎖等,0,2024-05-20,2024-05-15,村上土建有限会社,,有限会社,愛媛県,今治市,宮窪町友浦１３７３番地,,38,202,7942204,,,2024-05-15,清算の結了等,,,2015-10-05,1,,,,,ムラカミドケン,0
