sequenceNumber,corporateNumber,process,correct,updateDate,changeDate,name,nameImageId,kind,prefectureName,cityName,streetNumber,addressImageId,prefectureCode,cityCode,postCode,addressOutside,addressOutsideImageId,closeDate,closeCause,successorCorporateNumber,changeCause,assignmentDate,latest,enName,enPrefectureName,enCityName,enAddressOutside,furigana,hihyoji
8,1010001238216,新規,0,2023-09-04,2023-09-04,株式会社ＢＡＮＫＥＹ,,株式会社,東京都,千代田区,神田和泉町１番地６－１６ヤマトビル４０５,,13,101,1010024,,,,,,,2023-09-04,1,,,,,バンキー,0
15,1010401176957,新規,0,2023-09-04,2023-09-04,株式会社Ｇｌｏｂａｌ　Ｅｖｉｄｅｎｃｅ　Ｊａｐａｎ,,株式会社,東京都,港区,六本木５丁目１７番１４－３０１号,,13,103,1060032,,,,,,,2023-09-04,1,,,,,グローバルエビデンスジャパン,0
16,1010501050987,新規,0,2023-09-04,2023-09-04,滝口商店株式会社,,株式会社,東京都,台東区,松が谷４丁目２８番８号,,13,106,1110036,,,,,,,2023-09-04,1,,,,,タキグチショウテン,0
18,1010701044780,新規,0,2023-09-04,2023-09-04,アラジン株式会社,,株式会社,東京都,品川区,西五反田３丁目１１番６号,,13,109,1410031,,,,,,,2023-09-04,1,,,,,アラジン,0
22,1010803004666,新規,0,2023-09-04,2023-09-04,山王企画舎合同会社,,合同会社,東京都,大田区,山王３丁目１３－３レクセル大森山王２０７号,,13,111,1430023,,,,,,,2023-09-04,1,,,,,サンノウキカクシャ,0
23,1010901053747,新規,0,2023-09-04,2023-09-04,株式会社ｐｅａｐｅ,,株式会社,東京都,世田谷区,玉川田園調布２丁目３番１６号,,13,112,1580085,,,,,,,2023-09-04,1,,,,,ピーペ,0
30,1011001156688,新規,0,2023-09-04,2023-09-04,株式会社Ｐｅｔｓ‐ＮＸ,,株式会社,東京都,渋谷区,富ヶ谷１丁目９番２１号トーシンフェニックス代々木公園８０３,,13,113,1510063,,,,,,,2023-09-04,1,,,,,ペッツエヌエックス,0
31,1011003017459,新規,0,2023-09-04,2023-09-04,Ｓｔａｒａｘｙ　Ｔｅｃｈｎｏｌｏｇｉｅｓ合同会社,,合同会社,東京都,渋谷区,神宮前６丁目２３番４号桑野ビル２Ｆ,,13,113,1500001,,,,,,,2023-09-04,1,,,,,スターラクシーテクノロジス,0
52,1012401040952,新規,0,2023-09-04,2023-09-04,株式会社鈴貴,,株式会社,東京都,多摩市,愛宕４丁目２４番地の１１,,13,224,2060041,,,,,,,2023-09-04,1,,,,,スズタカ,0
57,1020003024497,新規,0,2023-09-04,2023-09-04,合同会社ＡＵＧＡＮＩＣＳ,,合同会社,神奈川県,川崎市麻生区,岡上１０２８,,14,137,2150027,,,,,,,2023-09-04,1,,,,,オーガニクス,0
59,1021001080037,新規,0,2023-09-04,2023-09-04,株式会社ＫＩＢＵ,,株式会社,神奈川県,相模原市南区,上鶴間本町３丁目１４－５ワコーレ町田１０１号室,,14,153,2520318,,,,,,,2023-09-04,1,,,,,キブ,0
65,1030001155574,新規,0,2023-09-04,2023-09-04,株式会社ＡＰＳ,,株式会社,埼玉県,川口市,芝５丁目１２番２０号大桐ビル１Ｆ,,11,203,3330866,,,,,,,2023-09-04,1,,,,,エーピーエス,0
66,1030001155707,新規,0,2023-09-04,2023-09-04,株式会社高橋総研,,株式会社,埼玉県,富士見市,鶴瀬東１丁目３番９号,,11,235,3540024,,,,,,,2023-09-04,1,,,,,タカハシソウケン,0
67,1030001155715,新規,0,2023-09-04,2023-09-04,株式会社笑福建設,,株式会社,埼玉県,川口市,東領家３丁目２９番８号,,11,203,3320003,,,,,,,2023-09-04,1,,,,,ショウフクケンセツ,0
75,1040001129882,新規,0,2023-09-04,2023-09-04,株式会社宮澤建設,,株式会社,千葉県,木更津市,大和２丁目２２番５‐２０３号,,12,206,2920805,,,,,,,2023-09-04,1,,,,,ミヤザワケンセツ,0
76,1040001129890,新規,0,2023-09-04,2023-09-04,株式会社東総商会,,株式会社,千葉県,匝瑳市,上谷中２２１９番地９,,12,235,2892114,,,,,,,2023-09-04,1,,,,,トウソウショウカイ,0
82,1070001040806,新規,0,2023-09-04,2023-09-04,株式会社Ｎｉｈｏｎｃｈａ．Ｌａｂｏ,,株式会社,群馬県,高崎市,岩押町１４番１５号ココレーヌ岩押１階Ａ号室,,10,202,3700044,,,,,,,2023-09-04,1,,,,,ニホンチャラボ,0
84,1080001025830,新規,0,2023-09-04,2023-09-04,株式会社ｈ．ｐｌｕｓ,,株式会社,静岡県,静岡市葵区,鷹匠１丁目２番１号ＳＯＺＯＳＹＡ鷹匠ビル５Ｆ,,22,101,4200839,,,,,,,2023-09-04,1,,,,,エイチプラス,0
85,1080001025839,新規,0,2023-09-04,2023-09-04,Ｋｏｕｇａ　Ｒｉｍｅｘ株式会社,,株式会社,静岡県,藤枝市,時ケ谷１４５９番地の１,,22,214,4260204,,,,,,,2023-09-04,1,,,,,コウガリメックス,0
88,1080401026692,新規,0,2023-09-04,2023-09-04,株式会社ホロライト,,株式会社,静岡県,浜松市中区,旭町６番地の１一条タワー１４０６号,,22,131,4300927,,,,,,,2023-09-04,1,,,,,ホロライト,0
94,1100001036734,新規,0,2023-09-04,2023-09-04,株式会社Ｃｕｂｅ,,株式会社,長野県,小諸市,丙８５０番地１メゾンドモア小諸Ｂ１０１,,20,208,3840803,,,,,,,2023-09-04,1,,,,,キューブ,0
99,1120001257717,新規,0,2023-09-04,2023-09-04,株式会社謙真不動産,,株式会社,大阪府,大阪市淀川区,東三国２丁目３８番１２号岸本第三ビル３０１,,27,123,5320002,,,,,,,2023-09-04,1,,,,,ケンシンフドウサン,0
100,1120001257758,新規,0,2023-09-04,2023-09-04,株式会社彩花菜,,株式会社,大阪府,大阪市北区,天神橋７丁目５番２３号渋谷ビル１階,,27,127,5310041,,,,,,,2023-09-04,1,,,,,サカナ,0
101,1120001257766,新規,0,2023-09-04,2023-09-04,株式会社美創社ｉｅｐｉｃａ,,株式会社,大阪府,大阪市北区,曾根崎１丁目８番３号曽根崎ビル３０１号,,27,127,5300057,,,,,,,2023-09-04,1,,,,,ビソウシャイエピカ,0
109,1120101068155,新規,0,2023-09-04,2023-09-04,株式会社松本建設,,株式会社,大阪府,藤井寺市,道明寺５丁目３－２４－３０７,,27,226,5830012,,,,,,,2023-09-04,1,,,,,マツモトケンセツ,0
111,1120105009758,新規,0,2023-09-04,2023-09-04,一般社団法人Ｓａｖｅ　Ｃａｔｓ　Ｏｓａｋａ,,その他の設立登記法人,大阪府,堺市南区,槇塚台２丁３８番２８号,,27,145,5900114,,,,,,,2023-09-04,1,,,,,セイブキャッツオオサカ,0
114,1120901048018,新規,0,2023-09-04,2023-09-04,ＳＭＤＬ株式会社,,株式会社,大阪府,茨木市,横江１丁目１５番４７号,,27,211,5670865,,,,,,,2023-09-04,1,,,,,エスエムディーエル,0
115,1122001037330,新規,0,2023-09-04,2023-09-04,株式会社ＲＩＳＥ　Ａｕｔｏ,,株式会社,大阪府,大東市,新田北町４番２５号,,27,218,5740052,,,,,,,2023-09-04,1,,,,,ライズオート,0
119,1130001075044,新規,0,2023-09-04,2023-09-04,株式会社好来,,株式会社,京都府,京都市伏見区,深草極楽寺町７２番地１０,,26,109,6120886,,,,,,,2023-09-04,1,,,,,コウライ,0
120,1130001075085,新規,0,2023-09-04,2023-09-04,Ｐｒｏｓｐｉｒｅ株式会社,,株式会社,京都府,京都市上京区,寺町通今出川上る六丁目不動前町１番地の４,,26,102,6020000,,,,,,,2023-09-04,1,,,,,プロスパイア,0
121,1130003008935,新規,0,2023-09-04,2023-09-04,合同会社Ｒｉｖｅｒ　Ｖａｌｌｅｙ,,合同会社,京都府,京都市左京区,下鴨東半木町９番地,,26,103,6060824,,,,,,,2023-09-04,1,,,,,リバーバレー,0
129,1160001025319,新規,0,2023-09-04,2023-09-04,株式会社馬野ｗｏｒｋｓ,,株式会社,滋賀県,甲賀市,水口町松尾３６２番地１２,,25,209,5280074,,,,,,,2023-09-04,1,,,,,ウマノワークス,0
132,1170001017769,新規,0,2023-09-04,2023-09-04,株式会社Ｓａｎｃｔｕａｒｙ,,株式会社,和歌山県,和歌山市,湊４丁目１番２４号,,30,201,6408404,,,,,,,2023-09-04,1,,,,,サンクチュアリ,0
135,1180001157812,新規,0,2023-09-04,2023-09-04,株式会社ＤＤＴ,,株式会社,愛知県,名古屋市中区,新栄２丁目４番５号東和パークビル西館,,23,106,4600007,,,,,,,2023-09-04,1,,,,,ディーディーティー,0
136,1180001157820,新規,0,2023-09-04,2023-09-04,七海貿易株式会社,,株式会社,愛知県,知多郡美浜町,大字豊丘字樹木９３番地７１,,23,446,4702414,,,,,,,2023-09-04,1,,,,,ナナミボウエキ,0
137,1180001157829,新規,0,2023-09-04,2023-09-04,株式会社ＭＯＯＮ,,株式会社,愛知県,東海市,名和町後酉１９番地,,23,222,4760002,,,,,,,2023-09-04,1,,,,,ムーン,0
143,1200001041658,新規,0,2023-09-04,2023-09-04,山岸商事株式会社,,株式会社,岐阜県,岐阜市,西改田字川向２６番地２,,21,201,5011161,,,,,,,2023-09-04,1,,,,,ヤマギシショウジ,0
144,1200001041666,新規,0,2023-09-04,2023-09-04,株式会社アレグビット,,株式会社,岐阜県,関市,池田町１２７番地,,21,205,5013247,,,,,,,2023-09-04,1,,,,,アレグビット,0
145,1200003006064,新規,0,2023-09-04,2023-09-04,合同会社マルトシ農園,,合同会社,岐阜県,揖斐郡揖斐川町,谷汲長瀬１７５２番地,00131756,21,401,5011303,,,,,,,2023-09-04,1,,,,,マルトシノウエン,0
146,1210003001691,新規,0,2023-09-04,2023-09-04,合同会社ツチダ映像,,合同会社,福井県,福井市,東森田３丁目１００８番地,,18,201,9100138,,,,,,,2023-09-04,1,,,,,ツチダエイゾウ,0
147,1220001025584,新規,0,2023-09-04,2023-09-04,ＡＴＳ不動産株式会社,,株式会社,石川県,金沢市,入江２丁目１２５番地,,17,201,9218011,,,,,,,2023-09-04,1,,,,,エィティエスフドウサン,0
150,1240005015638,新規,0,2023-09-04,2023-09-04,医療法人ももくさ,,その他の設立登記法人,広島県,広島市東区,牛田本町２丁目１番２－２０５号,,34,102,7320066,,,,,,,2023-09-04,1,,,,,モモクサ,0
152,1260001038269,新規,0,2023-09-04,2023-09-04,株式会社フウワミックス,,株式会社,岡山県,倉敷市,菰池１丁目１１番８－７号,,33,202,7110932,,,,,,,2023-09-04,1,,,,,フウワミックス,0
154,1260005011271,新規,0,2023-09-04,2023-09-04,一般社団法人聖奈,,その他の設立登記法人,岡山県,岡山市中区,藤崎７４０番地２７,,33,102,7028006,,,,,,,2023-09-04,1,,,,,セイナ,0
156,1270001008832,新規,0,2023-09-04,2023-09-04,株式会社ｍａｎａ’ｏ,,株式会社,鳥取県,鳥取市,湖山町東１丁目１４７番地２,,31,201,6800942,,,,,,,2023-09-04,1,,,,,マナオ,0
158,1290001102848,新規,0,2023-09-04,2023-09-04,株式会社Ａ‐Ｓｔｙｌｅ,,株式会社,福岡県,三井郡大刀洗町,大字山隈１７５７－１６－Ｂ１０４,,40,503,8301226,,,,,,,2023-09-04,1,,,,,エースタイル,0
162,1290003014307,新規,0,2023-09-04,2023-09-04,合同会社ＤＯＮ,,合同会社,福岡県,福岡市早良区,大字小笠木１１７５－５,,40,137,8111112,,,,,,,2023-09-04,1,,,,,ドン,0
164,1290005019139,新規,0,2023-09-04,2023-09-04,ＮＰＯ法人ｎｅｅｄｓ　Ｆｕｋｕｏｋａ,,その他の設立登記法人,福岡県,福岡市城南区,樋井川１丁目２番２５号,,40,136,8140153,,,,,,,2023-09-04,1,,,,,ニーズフクオカ,0
166,1290801029828,新規,0,2023-09-04,2023-09-04,株式会社ＦＯＲＥＳＴ,,株式会社,福岡県,北九州市小倉南区,沼南町１丁目１６番２６号,,40,107,8000205,,,,,,,2023-09-04,1,,,,,フォレスト,0
167,1290801029852,新規,0,2023-09-04,2023-09-04,株式会社ＳＨＯＯＴＥＲ,,株式会社,福岡県,北九州市小倉北区,片野４丁目３－７－３０１号,,40,106,8020064,,,,,,,2023-09-04,1,,,,,シューター,0
179,1350005006171,新規,0,2023-09-04,2023-09-04,一般財団法人宮崎財団,,その他の設立登記法人,宮崎県,児湯郡新富町,大字新田４１７３番地,,45,402,8891406,,,,,,,2023-09-04,1,,,,,ミヤザキザイダン,0
181,1370001050345,新規,0,2023-09-04,2023-09-04,ＬＥＡＮ株式会社,,株式会社,宮城県,仙台市青葉区,中山８丁目６番９号,,04,101,9810952,,,,,,,2023-09-04,1,,,,,リーン,0
186,1380003005536,新規,0,2023-09-04,2023-09-04,合同会社Ｅｒａ,,合同会社,福島県,福島市,南沢又字熊ノ辻１８番地３,00131753,07,201,9608254,,,,,,,2023-09-04,1,,,,,エラ,0
191,1430001089889,新規,0,2023-09-04,2023-09-04,株式会社オーシャン,,株式会社,北海道,札幌市東区,北八条東６丁目１２番７６号プレサント北八条Ａ４１２号室,,01,103,0600908,,,,,,,2023-09-04,1,,,,,オーシャン,0
192,1430001089906,新規,0,2023-09-04,2023-09-04,アークプロフィット株式会社,,株式会社,北海道,札幌市東区,北二十三条東１６丁目３番３１号,,01,103,0650023,,,,,,,2023-09-04,1,,,,,アークプロフィット,0
195,1430005014769,新規,0,2023-09-04,2023-09-04,特定非営利活動法人モンゴルイヌワシと日本弓道プレブスレン寺内,,その他の設立登記法人,北海道,石狩市,花川北四条２丁目１４１番地,,01,235,0613214,,,,,,,2023-09-04,1,,,,,モンゴルイヌワシトニホンキュウドウプレブスレンテラウチ,0
202,1500001025168,新規,0,2023-09-04,2023-09-04,株式会社村上,,株式会社,愛媛県,松山市,西垣生町１３９６番地,,38,201,7918044,,,,,,,2023-09-04,1,,,,,ムラカミ,0
206,1700150117729,新規,0,2023-09-04,2023-09-04,Ｓｈｅｎｚｈｅｎ　Ａｍｐｅｒｅ　Ｔｉｍｅ　Ｔｅｃｈｎｏｌｏｇｙ　Ｃｏ．，Ｌｔｄ,,外国会社等,,,,,,,,１７２６Ｑ，１７ｌｏｕ，Ｈｏｎｇｈｕｄａｓｈａ，Ｒｅｎｍｉｎｂｅｉｌｕ，Ｄｏｎｇｍｅｎｊｉｅｄａｏ，Ｌｕｏｈｕ　Ｓｈｅｎｚｈｅｎ，Ｇｕａｎｇｄｏｎｇ　５１８０００　ＣＮ,,,,,,2023-09-04,1,,,,,シンセンアンバイジダイカギユウゲンコウシ,0
207,1700150119717,新規,0,2023-09-04,2023-09-04,Ｓｈｅｎｚｈｅｎｓｈｉ　Ｒｕｄｉｎｇｈｅ　Ｔｅｃｈｎｏｌｏｇｙ　Ｃｏ．，Ｌｔｄ,,外国会社等,,,,,,,,ｓｈｅｎｚｈｅｎｓｈｉ　ｂａｏａｎｑｕ　ｈａｎｇｃｈｅｎｇｊｉｅｄａｏ　ｈｕａｎｇｔｉａｎｓｈｅｑｕ　ｊｉａｔｉａｎｇｏｎｇｙｅｑｕ　ｄｉ９ｄｏｎｇ３０１,,,,,,2023-09-04,1,,,,,シェンゼェンシルディンヘテクノロジーカンパニーリミテッド,0
208,1700150119725,新規,0,2023-09-04,2023-09-04,ｙａｚｈｏｕｍａ（ｓｈｅｎｚｈｅｎ）ｓｈｉｙｅｙｏｕｘｉａｎｇｏｎｇｓｉ,,外国会社等,,,,,,,,ｇｕａｎｈｕｊｉｅｄａｏｌｕｈｕｓｈｅｑｕｇｕａｎｓｈｅｎｇｅｒｌｕ５ｈａｏｊｉｅｓｈｕｎｋｅｊｉｚｈｏｎｇｘｉｎｂ１００１Ｓｈｅｎｚｈｅｎｌｏｎｇｈｕａ,,,,,,2023-09-04,1,,,,,アシュウバシンセンジツギョウユウゲンコウシ,0
209,1700150119733,新規,0,2023-09-04,2023-09-04,Ｓｈｅｎｚｈｅｎ　Ｙａｎｇｍｉｎｇｃｈｅｎｇ　ｋｅｊｉｆａｚｈａｎ　ｙｏｕｘｉａｎｇｏｎｇｓｉ,,外国会社等,,,,,,,,Ｒｏｏｍ　１２０１，Ｙｏｎｇｑｉ　Ｔｅｃｈｎｏｌｏｇｙ　Ｐａｒｋ，Ａｒｅａ　Ｃ，Ｘｉｆａ　Ｃｏｍｍｕｎｉｔｙ，Ｙｉｎｔｉａｎ　Ｉｎｄｕｓｔｒｉａｌ　Ｚｏｎｅ，Ｇｏｎｇｌｅ　Ｃｏｍｍｕｎｉｔｙ，Ｘｉｘｉａｎｇ　Ｓｔｒｅｅｔ　Ｂａｏａｎ　Ｄｉｓｔｒｉｃｔ　ｓｈｅｎｚｈｅｎ　５１８０００　ＣＮ,,,,,,2023-09-04,1,,,,,シンセンヤンミンチェンカギファザンヨウシェンゴンスー,0
210,1700150119741,新規,0,2023-09-04,2023-09-04,Ｓｈｅｎｚｈｅｎｓｈｉ　Ｆｅｎｇｚｈｏｎｇｈｕｉ　Ｍａｏｙｉ　Ｙｏｕｘｉａｎｇｏｎｇｓｉ,,外国会社等,,,,,,,,ｈｕａｆｕｊｉｅｄａｏｘｉｎｔｉａｎｓｈｅｑｕｃａｉｔｉａｎｌｕ３０３２ｈａｏｇａｎｌａｎｐｅｎｇｙｕａｎＢｚｕｏ８１８　ｓｈｅｎｚｈｅｎｓｈｉ　ｆｕｔｉａｎｑｕ　ｇｕａｎｇｄｏｎｇｓｈｅｎｇ　５１８０００　ＣＮ,,,,,,2023-09-04,1,,,,,シェンジェンシーフォンジョンフイマオイーヨウシエンゴンスー,0
211,1700150119758,新規,0,2023-09-04,2023-09-04,Ｓｈｅｎｚｈｅｎ　Ｗｅｉｌｏｎｇ　Ｔｅｃｈｎｏｌｏｇｙ　Ｃｏ．，Ｌｔｄ．,,外国会社等,,,,,,,,ｓｈｅｎ　ｚｈｅｎ　ｓｈｉ　ｂａｏ　ａｎ　ｑｕ　ｘｉ　ｘｉａｎｇ　ｊｉｅ　ｄａｏ　ｇｕ　ｓｈｕ　ｙｉ　ｌｕ　１５７　ｈａｏ　ｘｉｎ　ｘｉｏｎｇ　ｇｏｎｇ　ｙｅ　ｑｕ　Ｄ　ｄｏｎｇ　ｙｉ　ｌｏｕ　ｙｏｕ　ｃｅ,,,,,,2023-09-04,1,,,,,シェンジェンシーウェイロンコージーヨウシエンゴンスー,0
212,1700150119766,新規,0,2023-09-04,2023-09-04,ｄｏｎｇｇｕａｎｓｈｉ　ｙｏｕｄｉｄｉａｎｚｉｋｅｊｉ　ｙｏｕｘｉａｎｇｏｎｇｓｉ　　　　,,外国会社等,,,,,,,,Ｒｏａｄ　ＮＯ．５，Ｓｏｎｇｓｈａｎ　Ｌａｋｅ　Ｉｎｄｕｓｔｒｉａｌ　Ｐａｒｋ　Ｒｏｏｍ２１９，ＢｕｉｌｄｉｎｇＮＯ．１　４ｔｈ　Ｎｏｒｔｈｅｒｎ　Ｉｎｄｕｓｔｒｉａｌ　Ｇｕａｎｇｄｏｎｇ　Ｄｏｎｇｇｕａｎ　Ｃｈｉｎａ,,,,,,2023-09-04,1,,,,,トウカンシヨディデンシカギユウゲンコウシ,0
215,2010001238132,新規,0,2023-09-04,2023-09-04,株式会社諾昇,,株式会社,東京都,中央区,日本橋箱崎町２７番９ヴェラハイツ日本橋箱崎１Ｆオープンオフィス日本橋箱崎１０６号,,13,102,1030015,,,,,,,2023-09-04,1,,,,,ノボル,0
223,2010403030855,新規,0,2023-09-04,2023-09-04,レボピスタ合同会社,,合同会社,東京都,港区,北青山１丁目３番１号アールキューブ青山３階,,13,103,1070061,,,,,,,2023-09-04,1,,,,,レボピスタ,0
224,2010403030871,新規,0,2023-09-04,2023-09-04,合同会社ＮＥＷ　ＳＴＹＬＥ,,合同会社,東京都,港区,浜松町２丁目２番１５号浜松町ダイヤビル２Ｆ,,13,103,1050013,,,,,,,2023-09-04,1,,,,,ニュースタイル,0
225,2010405022413,新規,0,2023-09-04,2023-09-04,一般社団法人ストラクチャードファイナンス研究会,,その他の設立登記法人,東京都,港区,高輪２丁目１１番２５号－２０１,,13,103,1080074,,,,,,,2023-09-04,1,,,,,ストラクチャードファイナンスケンキュウカイ,0
226,2010501050978,新規,0,2023-09-04,2023-09-04,ＭＡＸ株式会社,,株式会社,東京都,台東区,根岸１丁目１番２４号,,13,106,1100003,,,,,,,2023-09-04,1,,,,,マックス,0
227,2010501050986,新規,0,2023-09-04,2023-09-04,株式会社ハナトウ,,株式会社,東京都,台東区,千束４丁目１８番２号,,13,106,1110031,,,,,,,2023-09-04,1,,,,,ハナトウ,0
232,2010801034301,新規,0,2023-09-04,2023-09-04,株式会社リバティーブラザーズ,,株式会社,東京都,大田区,萩中３丁目１４－２４パルフェＭ萩中３０１,,13,111,1440047,,,,,,,2023-09-04,1,,,,,リバティーブラザーズ,0
238,2011001156704,新規,0,2023-09-04,2023-09-04,株式会社ＯＮＥ,,株式会社,東京都,渋谷区,初台１丁目４５番２－１００１号,,13,113,1510061,,,,,,,2023-09-04,1,,,,,ワン,0
239,2011001156720,新規,0,2023-09-04,2023-09-04,株式会社Ｓｏｃｉａｌ＆Ｃｕｌｔｕｒａｌ,,株式会社,東京都,渋谷区,道玄坂１丁目１０番８号渋谷道玄坂東急ビル２Ｆ－Ｃ,,13,113,1500043,,,,,,,2023-09-04,1,,,,,ソーシャルアンドカルチュラル,0
244,2011301028982,新規,0,2023-09-04,2023-09-04,井野辺工業株式会社,,株式会社,東京都,杉並区,久我山１丁目４番１５－３０１号久我山一丁目第３アパート,,13,115,1680082,,,,,,,2023-09-04,1,,,,,イノベコウギョウ,0
246,2011501029715,新規,0,2023-09-04,2023-09-04,ＲａｋｕＣｌｏｕｄ株式会社,,株式会社,東京都,北区,赤羽１丁目５５番８－５０１号ウィルローズ赤羽,,13,117,1150045,,,,,,,2023-09-04,1,,,,,ラククラウド,0
248,2011505002577,新規,0,2023-09-04,2023-09-04,医療法人社団フローレンス,,その他の設立登記法人,東京都,北区,西が丘１丁目３８番２号,,13,117,1150056,,,,,,,2023-09-04,1,,,,,フローレンス,0
250,2012401040943,新規,0,2023-09-04,2023-09-04,株式会社幸伸,,株式会社,東京都,武蔵野市,中町２丁目６番２号ルミエール武蔵野４０１,,13,203,1800006,,,,,,,2023-09-04,1,,,,,コウシン,0
254,2013305003508,新規,0,2023-09-04,2023-09-04,一般社団法人日本教育社会学会,,その他の設立登記法人,東京都,豊島区,東池袋２丁目３９番２－４０１号,,13,116,1700013,,,,,,,2023-09-04,1,,,,,ニホンキョウイクシャカイガッカイ,0
257,2020001153289,新規,0,2023-09-04,2023-09-04,株式会社サステナブルライフクリエイション,,株式会社,神奈川県,横浜市青葉区,美しが丘１丁目１３番地１０吉村ビル１０７号,,14,117,2250002,,,,,,,2023-09-04,1,,,,,サステナブルライフクリエイション,0
260,2020003024538,新規,0,2023-09-04,2023-09-04,Ｄａｎｄｅｌｉｏｎ合同会社,,合同会社,神奈川県,横浜市中区,北仲通５丁目５７―２―２５０８,,14,104,2310003,,,,,,,2023-09-04,1,,,,,ダンデライオン,0
263,2021001080036,新規,0,2023-09-04,2023-09-04,株式会社ＥＮＥＲＮＯＶＡ,,株式会社,神奈川県,相模原市南区,若松５丁目１３－１７,,14,153,2520334,,,,,,,2023-09-04,1,,,,,エナノヴァ,0
264,2021001080069,新規,0,2023-09-04,2023-09-04,株式会社デューク,,株式会社,神奈川県,平塚市,明石町６番２０号一剣明石ビルＢ１,,14,203,2540042,,,,,,,2023-09-04,1,,,,,デューク,0
265,2021003013530,新規,0,2023-09-04,2023-09-04,合同会社公来,,合同会社,神奈川県,鎌倉市,玉縄３丁目５９９－４,,14,204,2470071,,,,,,,2023-09-04,1,,,,,ククル,0
274,2030001155706,新規,0,2023-09-04,2023-09-04,株式会社ブラウニー,,株式会社,埼玉県,さいたま市浦和区,仲町１丁目１０番２２－１３０６号,,11,107,3300062,,,,,,,2023-09-04,1,,,,,ブラウニー,0
275,2030001155714,新規,0,2023-09-04,2023-09-04,株式会社ｐｏｃｏｍｏｔｏ,,株式会社,埼玉県,さいたま市南区,大字大谷口８７９番地１１,,11,108,3360042,,,,,,,2023-09-04,1,,,,,ポコモート,0
278,2030003022441,新規,0,2023-09-04,2023-09-04,ＢＮ合同会社,,合同会社,埼玉県,さいたま市岩槻区,大字飯塚１３６２番地,,11,110,3390031,,,,,,,2023-09-04,1,,,,,ビーエヌ,0
284,2040001129873,新規,0,2023-09-04,2023-09-04,株式会社ＨｉｇｈＦｉｖｅ,,株式会社,千葉県,習志野市,実籾２丁目７番６号,,12,216,2750002,,,,,,,2023-09-04,1,,,,,ハイファイブ,0
288,2040003023232,新規,0,2023-09-04,2023-09-04,慧＿商事合同会社,00131745,合同会社,千葉県,印西市,大森２５５０－１松本ビル３０１室,,12,231,2701327,,,,,,,2023-09-04,1,,,,,ケイシンショウジ,0
293,2050001053379,新規,0,2023-09-04,2023-09-04,株式会社みらいホーム,,株式会社,茨城県,つくば市,天久保１丁目７番地４アイディーコートつくば２０５号,,08,220,3050005,,,,,,,2023-09-04,1,,,,,ミライホーム,0
297,2070001040805,新規,0,2023-09-04,2023-09-04,ＧＭＴ　ＢＲＩＧＨＴ株式会社,,株式会社,群馬県,館林市,苗木町１６６４番地の２,,10,207,3740043,,,,,,,2023-09-04,1,,,,,ジーエムティブライト,0
298,2070001040813,新規,0,2023-09-04,2023-09-04,株式会社響ＨＩＢＩＫＩ,,株式会社,群馬県,太田市,岩松町５２９番地１１,,10,205,3700403,,,,,,,2023-09-04,1,,,,,,0
299,2070005010168,新規,0,2023-09-04,2023-09-04,一般社団法人ＭＴＯ,,その他の設立登記法人,群馬県,渋川市,石原８５２番地５,,10,208,3770007,,,,,,,2023-09-04,1,,,,,エムティーオー,0
301,2080101024186,新規,0,2023-09-04,2023-09-04,株式会社アルマジロ,,株式会社,静岡県,伊豆の国市,白山堂６３４,,22,225,4102318,,,,,,,2023-09-04,1,,,,,アルマジロ,0
302,2080401026700,新規,0,2023-09-04,2023-09-04,株式会社エイト企画,,株式会社,静岡県,浜松市中区,細島町３６０番地,,22,131,4350045,,,,,,,2023-09-04,1,,,,,エイトキカク,0
303,2080401026709,新規,0,2023-09-04,2023-09-04,ＡＲＭＳ株式会社,,株式会社,静岡県,浜松市西区,伊左地町１８３０番地の４９,,22,133,4311111,,,,,,,2023-09-04,1,,,,,アームズ,0
315,2120001257749,新規,0,2023-09-04,2023-09-04,日本医療人材振興株式会社,,株式会社,大阪府,大阪市都島区,片町２丁目５番６号４０２号,,27,102,5340025,,,,,,,2023-09-04,1,,,,,ニホンイリョウジンザイシンコウ,0
320,2120101068154,新規,0,2023-09-04,2023-09-04,株式会社ジャパンサプライ,,株式会社,大阪府,岸和田市,岸の丘町１丁目２０番１１号,,27,202,5960817,,,,,,,2023-09-04,1,,,,,ジャパンサプライ,0
321,2120103005411,新規,0,2023-09-04,2023-09-04,合同会社Ｔｅｃｈｔａｌｅ,,合同会社,大阪府,堺市南区,原山台１丁４番３－２０４号,,27,145,5900132,,,,,,,2023-09-04,1,,,,,テックテイル,0
322,2130001075076,新規,0,2023-09-04,2023-09-04,エルライ株式会社,,株式会社,京都府,京都市左京区,吉田本町３６番地１国際科学イノベーション棟西館１階１０４号室,,26,103,6068317,,,,,,,2023-09-04,1,,,,,エルライ,0
324,2150001026688,新規,0,2023-09-04,2023-09-04,株式会社ＹＭホーム,,株式会社,奈良県,奈良市,敷島町１丁目１０７０番地,,29,201,6310031,,,,,,,2023-09-04,1,,,,,ワイエムホーム,0
325,2170001017768,新規,0,2023-09-04,2023-09-04,鍛冶寅商店株式会社,,株式会社,和歌山県,和歌山市,西庄９０８番地１,,30,201,6400112,,,,,,,2023-09-04,1,,,,,カジトラショウテン,0
330,2180001157836,新規,0,2023-09-04,2023-09-04,スマイルファクトリー株式会社,,株式会社,愛知県,名古屋市西区,天神山町３番３１号,,23,104,4510065,,,,,,,2023-09-04,1,,,,,スマイルファクトリー,0
334,2180003025685,新規,0,2023-09-04,2023-09-04,合同会社ＳＴＥＬＬＩＺＥ,,合同会社,愛知県,知多郡武豊町,字石田７番地２,,23,447,4702551,,,,,,,2023-09-04,1,,,,,ステライズ,0
335,2180003025693,新規,0,2023-09-04,2023-09-04,合同会社深井プラント,,合同会社,愛知県,春日井市,大留町９丁目１０番地１１,,23,206,4870024,,,,,,,2023-09-04,1,,,,,フカイプラント,0
338,2200001041649,新規,0,2023-09-04,2023-09-04,株式会社Ｖ２Ｔ,,株式会社,岐阜県,本巣郡北方町,高屋太子１丁目１番地の２,,21,421,5010457,,,,,,,2023-09-04,1,,,,,ブイツーティー,0
339,2200001041657,新規,0,2023-09-04,2023-09-04,株式会社カワバタ・コーポレーション,,株式会社,岐阜県,岐阜市,市ノ坪町４丁目７番地,,21,201,5008155,,,,,,,2023-09-04,1,,,,,カワバタコーポレーション,0
340,2200001041673,新規,0,2023-09-04,2023-09-04,株式会社マルア化学,,株式会社,岐阜県,本巣郡北方町,高屋白木３丁目３４番地の３,,21,421,5010454,,,,,,,2023-09-04,1,,,,,マルアカガク,0
342,2200003006071,新規,0,2023-09-04,2023-09-04,合同会社神谷,,合同会社,岐阜県,岐阜市,上土居２丁目１８番５号,,21,201,5020803,,,,,,,2023-09-04,1,,,,,カミヤ,0
344,2200005013520,新規,0,2023-09-04,2023-09-04,一般社団法人岐阜工業高等学校同窓会,,その他の設立登記法人,岐阜県,羽島郡笠松町,常盤町１７００番地,,21,303,5016083,,,,,,,2023-09-04,1,,,,,ギフコウギョウコウトウガッコウドウソウカイ,0
345,2210001019446,新規,0,2023-09-04,2023-09-04,株式会社りみぽ,,株式会社,福井県,坂井市,三国町加戸９４－２３,,18,210,9130002,,,,,,,2023-09-04,1,,,,,リミポ,0
346,2220001025583,新規,0,2023-09-04,2023-09-04,株式会社ＢＥＹＯＮＤ,,株式会社,石川県,金沢市,桜田町３丁目４８番地,,17,201,9200057,,,,,,,2023-09-04,1,,,,,ビヨンド,0
347,2220005008782,新規,0,2023-09-04,2023-09-04,税理士法人紅谷会計,,その他の設立登記法人,石川県,金沢市,彦三町２丁目５番２７号（名鉄北陸開発ビル７階）,,17,201,9200901,,,,,,,2023-09-04,1,,,,,ベニタニカイケイ,0
356,2280001009028,新規,0,2023-09-04,2023-09-04,明石ホールディングス株式会社,,株式会社,島根県,松江市,宍道町佐々布３０３番地７,,32,201,6990406,,,,,,,2023-09-04,1,,,,,アカシホールディングス,0
361,2290001102871,新規,0,2023-09-04,2023-09-04,株式会社日本自働化研究所,,株式会社,福岡県,福岡市中央区,大名１丁目９番２１,,40,133,8100041,,,,,,,2023-09-04,1,,,,,ニホンジドウカケンキュジョ,0
362,2290001102888,新規,0,2023-09-04,2023-09-04,株式会社インテュランス,,株式会社,福岡県,福岡市早良区,田村５丁目２７番５－４号,,40,137,8140175,,,,,,,2023-09-04,1,,,,,インテュランス,0
364,2290003014314,新規,0,2023-09-04,2023-09-04,合同会社大野映像,,合同会社,福岡県,糸島市,荻浦１丁目８－１２－６,,40,230,8191121,,,,,,,2023-09-04,1,,,,,オオノエイゾウ,0
367,2290801029827,新規,0,2023-09-04,2023-09-04,株式会社恵比須建設,,株式会社,福岡県,北九州市若松区,大字有毛１１３３番地,,40,103,8080123,,,,,,,2023-09-04,1,,,,,エビスケンセツ,0
368,2290801029835,新規,0,2023-09-04,2023-09-04,株式会社ＥＮＦＯＲＴ,,株式会社,福岡県,北九州市小倉北区,大田町７番２１－８０１号,,40,106,8020015,,,,,,,2023-09-04,1,,,,,エンフォート,0
369,2290801029851,新規,0,2023-09-04,2023-09-04,株式会社マスト建設,,株式会社,福岡県,直方市,新町１丁目２番８号,,40,204,8220015,,,,,,,2023-09-04,1,,,,,マストケンセツ,0
370,2300001013456,新規,0,2023-09-04,2023-09-04,株式会社福良造船,,株式会社,佐賀県,唐津市,海岸通７１８２番地１６２,,41,202,8470873,,,,,,,2023-09-04,1,,,,,フクラゾウセン,0
371,2310001018578,新規,0,2023-09-04,2023-09-04,株式会社サトウ,,株式会社,長崎県,諫早市,小川町２７９番地１,,42,204,8540053,,,,,,,2023-09-04,1,,,,,サトウ,0
372,2310001018586,新規,0,2023-09-04,2023-09-04,株式会社九州車輌整備,,株式会社,長崎県,大村市,富の原２丁目９４５番地,,42,205,8560806,,,,,,,2023-09-04,1,,,,,キュウシュウシャリョウセイビ,0
376,2330003009953,新規,0,2023-09-04,2023-09-04,ＶＯＬＡＲＥアスリートラボ合同会社,,合同会社,熊本県,熊本市西区,城山下代１丁目２番２０号,,43,103,8600066,,,,,,,2023-09-04,1,,,,,ボラーレアスリートラボ,0
377,2340001025860,新規,0,2023-09-04,2023-09-04,株式会社ＦＯＲＥＳＴＥＲ,,株式会社,鹿児島県,枕崎市,若葉町１０８番地,,46,204,8980023,,,,,,,2023-09-04,1,,,,,フォレスター,0
378,2340003004235,新規,0,2023-09-04,2023-09-04,合同会社Ｔ‐ｎｅｘｔ,,合同会社,鹿児島県,枕崎市,岩戸町４３１番地,,46,204,8980058,,,,,,,2023-09-04,1,,,,,ティーネクスト,0
386,2390003002135,新規,0,2023-09-04,2023-09-04,合同会社ｌｉｅｎ,,合同会社,山形県,米沢市,御廟１丁目２番３号,,06,202,9920055,,,,,,,2023-09-04,1,,,,,リアン,0
387,2400001016358,新規,0,2023-09-04,2023-09-04,株式会社Ｒｉｖｖ,,株式会社,岩手県,盛岡市,中堤町７番３１号,,03,201,0200131,,,,,,,2023-09-04,1,,,,,リヴ,0
390,2420001018385,新規,0,2023-09-04,2023-09-04,株式会社ＯＭＷ,,株式会社,青森県,つがる市,森田町床舞豊原７５番地１,,02,209,0382817,,,,,,,2023-09-04,1,,,,,オーエムダブリュー,0
392,2430001089888,新規,0,2023-09-04,2023-09-04,株式会社なごみ建商,,株式会社,北海道,千歳市,根志越１３９９番地５,,01,224,0660008,,,,,,,2023-09-04,1,,,,,ナゴミケンショウ,0
396,2430005014768,新規,0,2023-09-04,2023-09-04,一般社団法人ファミスポ,,その他の設立登記法人,北海道,札幌市豊平区,平岸二条８丁目４－１－４０５,,01,105,0620932,,,,,,,2023-09-04,1,,,,,ファミスポ,0
397,2460403000243,新規,0,2023-09-04,2023-09-04,合同会社ホクリン,,合同会社,北海道,根室市,光洋町１丁目１７番地６,,01,223,0870004,,,,,,,2023-09-04,1,,,,,ホクリン,0
398,2480001012201,新規,0,2023-09-04,2023-09-04,株式会社阿波育苗センターＴＯＹ,,株式会社,徳島県,阿波市,市場町香美字西野神１８２番地１,,36,206,7711610,,,,,,,2023-09-04,1,,,,,アワイクビョウセンタートイ,0
399,2500001025167,新規,0,2023-09-04,2023-09-04,株式会社みつぎ建装,,株式会社,愛媛県,松山市,中野町甲７７５番地,,38,201,7911121,,,,,,,2023-09-04,1,,,,,ミツギケンソウ,0
401,2500003003096,新規,0,2023-09-04,2023-09-04,合同会社島口,,合同会社,愛媛県,伊予郡松前町,大字浜６０３番地１,,38,401,7913110,,,,,,,2023-09-04,1,,,,,シマグチ,0
402,2700150119716,新規,0,2023-09-04,2023-09-04,Ｓｈａｎｇｈａｉ　ｘｉｕｋａｍａｏｙｉ　ｙｏｕｘｉａｎｇｏｎｇｓｉ,,外国会社等,,,,,,,,ＢＯＬＥＬＵ７０ＨＡＯ３６ＺＨＵＡＮＧ４ＣＥＮＧＪ２２０ＳＨＩ　ＳＨＡＮＧＨＡＩＳＨＩ　ＪＩＡＤＩＮＧＱＵ　ＪＩＡＤＩＮＧＺＨＥＮ　ＳＨＡＮＧＨＡＩＳＨＩ,,,,,,2023-09-04,1,,,,,シャンハイシュカマオイユウゲンコウシ,0
403,2700150119724,新規,0,2023-09-04,2023-09-04,Ｓｈｅｎｚｈｅｎ　Ｙｉｌｉｐａｉ　Ｔｅｃｈｎｏｌｏｇｙ　Ｃｏ．，Ｌｔｄ．,,外国会社等,,,,,,,,３００８，３ｒｄ　Ｆｌｏｏｒ，Ｎｏ．１１１－３，Ｈｕａｎｇｊｉａｎｓｈａｎ，Ｂａｎｔｉａｎ，Ｌｏｎｇｇａｎｇ，Ｓｈｅｎｚｈｅｎ,,,,,,2023-09-04,1,,,,,シンセンイリパイテクノロジーカンパニーリミテッド,0
404,2700150119732,新規,0,2023-09-04,2023-09-04,ｎａｎｎｉｎｇｓｈｉ　ｃｈｕａｎｇｄａｊｉｎｒｏｎｇｘｉｎｘｉｚｉｘｕｎｆｕｗｕ　ｙｏｕｘｉａｎｇｏｎｇｓｉ,,外国会社等,,,,,,,,ｂｉｎｙａｎｇｘｉａｎｂｉｎｚｈｏｕｚｈｅｎｂｕｘｉｎｇｊｉｅｙｉｌｉ３７，３９ｈａｏ　５３０４９９　ＣＮ,,,,,,2023-09-04,1,,,,,ナンニンシツゥアンダジンヨンシンシジュンフウヨウシェンゴンスー,0
405,2700150119740,新規,0,2023-09-04,2023-09-04,ｈａｎｇｚｈｏｕｌａｉｇｏｕｊｉｎｃｈｕｋｏｕｙｏｕｘｉａｎｇｏｎｇｓｉ,,外国会社等,,,,,,,,ＸｉｎＴｉａｎＤｉＳｈａｎｇＷｕＺｈｏｎｇＸｉｎ　４　Ｚｈｕａｎｇ　Ｘｉ　８０３　Ｓｈｉ　Ｘｉａ　Ｃｈｅｎｇ　Ｑｕ，Ｈａｎｇ　Ｚｈｏｕ　Ｓｈｉ　Ｚｈｅ　Ｊｉａｎｇ　Ｓｈｅｎｇ,,,,,,2023-09-04,1,,,,,コウシュウライコウシンシュツコウユウゲンコウシ,0
406,2700150119749,新規,0,2023-09-04,2023-09-04,Ｓｈｅｎｚｈｅｎ　Ｃｈｅｎｇｈａｏ　Ｔｅｃｈｎｏｌｏｇｙ　Ｃｏ．，Ｌｔｄ．,,外国会社等,,,,,,,,ｌｏｎｇｇａｎｇｐｉｎｇｈｕｊｉｅｄａｏｈｅｈｕａｓｈｅｑｕ　ｈｕａｎａｎｄａｄａｏｙｉｈａｏｈｕａｎａｎｃｈｅｎｇｈｕａｎｑｉｕｗｕｌｉｕｚｈｏｎｇｘｉｎ６２１　ｓｈｅｎｚｈｅｎ,,,,,,2023-09-04,1,,,,,シンセンシトウコウカギユウゲンコウシ,0
407,2700150119757,新規,0,2023-09-04,2023-09-04,ｓｈｅｎｚｈｅｎｓｈｉｗｅｉｌｏｎｇｚｈｉｎｅｎｇｄｉａｎｚｉｙｏｕｘｉａｎｇｏｎｇｓｉ,,外国会社等,,,,,,,,ｓｈｅｎ　ｚｈｅｎ　ｓｈｉ　ｂａｏ　ａｎ　ｑｕ　ｘｉ　ｘｉａｎｇ　ｊｉｅ　ｄａｏ　ｇｕ　ｘｉｎｇ　ｓｈｅ　ｑｕ　ｇｕ　ｓｈｕ　ｙｉ　ｌｕ　５０５　ｈａｏ　ｘｉｎ　ｘｉｏｎｇ　ｇｏｎｇ　ｙｅ　ｑｕ　Ｈ　ｄｏｎｇ　５０６,,,,,,2023-09-04,1,,,,,シェンジェンシーウェイロンジーノンディエンズーヨウシエンゴンスー,0
408,2700150119765,新規,0,2023-09-04,2023-09-04,Ｇｕａｎｇｚｈｏｕ　ｚｕｎｇｕｉ　Ａｕｔｏｍｏｂｉｌｅ　Ｐｒｏｄｕｃｔｓ　Ｃｏ．，Ｌｔｄ　　　　,,外国会社等,,,,,,,,８ｔｈ　Ｆｌｏｏｒ，Ｎｏ．５　Ｈｅｎｇｇａｎｇ　Ｎｏｒｔｈ　Ｒｏａｄ，Ｙｏｎｇｐｉｎｇ　Ｓｔｒｅｅｔ，Ｂａｉｙｕｎ　Ｄｉｓｔｒｉｃｔ，Ｇｕａｎｇｚｈｏｕ　Ｃｈｉｎａ　　　　,,,,,,2023-09-04,1,,,,,コウシュウズンゴゥイオートモビールプロダクツカンパニーリミテッド,0
409,2700150119773,新規,0,2023-09-04,2023-09-04,サムスン物産株式会社,,外国会社等,東京都,千代田区,富士見２丁目１０番２号飯田橋グランブルーム２７階,,13,101,1020071,大韓民国ソウル特別市江東区上一路６ギル２６,,,,,,2023-09-04,1,,,,,サムスンブツサンカブシキガイシヤ,0
413,3010003041582,新規,0,2023-09-04,2023-09-04,かくりよ合同会社,,合同会社,東京都,千代田区,神田和泉町１番地６－１６ヤマトビル４０５,,13,101,1010024,,,,,,,2023-09-04,1,,,,,カクリヨ,0
419,3010401176864,新規,0,2023-09-04,2023-09-04,ブライトキャリア株式会社,,株式会社,東京都,港区,新橋１丁目１２番９号,,13,103,1050004,,,,,,,2023-09-04,1,,,,,ブライトキャリア,0
420,3010401176922,新規,0,2023-09-04,2023-09-04,株式会社Ｌｉｇｈｔ６１,,株式会社,東京都,港区,六本木１丁目６番１号,,13,103,1060032,,,,,,,2023-09-04,1,,,,,ライトロクイチ,0
425,3010603010334,新規,0,2023-09-04,2023-09-04,ＡＭＡＧＵＭＯ合同会社,,合同会社,東京都,江東区,富岡１丁目２６－１３富岡大和マンション６０３,,13,108,1350047,,,,,,,2023-09-04,1,,,,,アマグモ,0
434,3011001156711,新規,0,2023-09-04,2023-09-04,株式会社宇治茶寮,,株式会社,東京都,目黒区,中目黒４丁目５番７号１０１,,13,110,1530061,,,,,,,2023-09-04,1,,,,,ウジサリョウ,0
439,3011201024890,新規,0,2023-09-04,2023-09-04,株式会社すこやかアトリエ,,株式会社,東京都,中野区,若宮２丁目２１番１０号松山荘１０１,,13,114,1650033,,,,,,,2023-09-04,1,,,,,スコヤカアトリエ,0
440,3011301028981,新規,0,2023-09-04,2023-09-04,株式会社山田造園,,株式会社,東京都,杉並区,阿佐谷南１丁目４８番１１号ＭＳＡ第２ビル４Ｆ－Ｃ,,13,115,1660004,,,,,,,2023-09-04,1,,,,,ヤマダゾウエン,0
443,3011503005754,新規,0,2023-09-04,2023-09-04,オシレーティングゲート合同会社,,合同会社,東京都,北区,赤羽１丁目７－９赤羽第一葉山ビル４Ｆ,,13,117,1150045,,,,,,,2023-09-04,1,,,,,オシレーティングゲート,0
445,3011601027089,新規,0,2023-09-04,2023-09-04,株式会社あまつかぜ,,株式会社,東京都,練馬区,高野台１丁目１４番４－２０３号,,13,120,1770033,,,,,,,2023-09-04,1,,,,,アマツカゼ,0
448,3011701026560,新規,0,2023-09-04,2023-09-04,ヨーロー株式会社,,株式会社,東京都,江戸川区,新堀１丁目１７番２号,,13,123,1320001,,,,,,,2023-09-04,1,,,,,ヨーロー,0
460,3020001153271,新規,0,2023-09-04,2023-09-04,株式会社Ｌｉｆｅ　Ｗｉｔｈ　Ｍｏｓｓ,,株式会社,神奈川県,横浜市西区,北幸２丁目１０番地２８むつみビル３Ｆ,,14,103,2200004,,,,,,,2023-09-04,1,,,,,ライフウイズモス,0
463,3020003024495,新規,0,2023-09-04,2023-09-04,合同会社たまごＷＯＲＫＳ,,合同会社,神奈川県,横浜市青葉区,つつじが丘１番地１２ベル青葉台４０３,,14,117,2270055,,,,,,,2023-09-04,1,,,,,タマゴワークス,0
467,3021001080068,新規,0,2023-09-04,2023-09-04,株式会社ミモザライン,,株式会社,神奈川県,相模原市中央区,田名３２６３番１春日野壱番館４０６号,,14,152,2520244,,,,,,,2023-09-04,1,,,,,ミモザライン,0
471,3030001155606,新規,0,2023-09-04,2023-09-04,株式会社伊勢源商店,,株式会社,埼玉県,桶川市,若宮１丁目３番１７号,,11,231,3630022,,,,,,,2023-09-04,1,,,,,イセゲンショウテン,0
472,3030001155738,新規,0,2023-09-04,2023-09-04,エルライン株式会社,,株式会社,埼玉県,草加市,瀬崎６丁目１７番１号ルーチェ瀬崎１０４,,11,221,3400022,,,,,,,2023-09-04,1,,,,,エルライン,0
474,3030005021374,新規,0,2023-09-04,2023-09-04,一般社団法人日本エンターテインメントｇｃ協会,,その他の設立登記法人,埼玉県,所沢市,東住吉１１番１シティタワー所沢クラッシィ,,11,208,3591124,,,,,,,2023-09-04,1,,,,,ニホンエンターテインメントジーシーキョウカイ,0
480,3040001129889,新規,0,2023-09-04,2023-09-04,株式会社ゴダイ,,株式会社,千葉県,我孫子市,つくし野６丁目４４番３６号,,12,222,2701164,,,,,,,2023-09-04,1,,,,,ゴダイ,0
484,3040003023231,新規,0,2023-09-04,2023-09-04,合同会社プラスワン,,合同会社,千葉県,千葉市花見川区,幕張町３丁目１０８３番地１４,,12,102,2620032,,,,,,,2023-09-04,1,,,,,プラスワン,0
490,3060003004700,新規,0,2023-09-04,2023-09-04,合同会社ＹＯＵＳＨＯ,,合同会社,栃木県,那須郡那須町,大字高久甲２８８８番地３６ＦｏｒｅｓｔＰａｒｋ那須Ｂ棟,,09,407,3250001,,,,,,,2023-09-04,1,,,,,ユウショウ,0
494,3070005010167,新規,0,2023-09-04,2023-09-04,特定非営利活動法人共に暮らす,,その他の設立登記法人,群馬県,前橋市,千代田町２丁目７番１０号前橋市創業センター２０２,,10,201,3710022,,,,,,,2023-09-04,1,,,,,トモニクラス,0
495,3080001025812,新規,0,2023-09-04,2023-09-04,Ｅｎｇｉｎｅｅｒｉｎｇ　Ｅｄｇｅ株式会社,,株式会社,静岡県,静岡市葵区,鷹匠１丁目１２－１青葉園ビル４０６,,22,101,4200839,,,,,,,2023-09-04,1,,,,,エンジニアリングエッジ,0
499,3080401026690,新規,0,2023-09-04,2023-09-04,株式会社ネオバイト,,株式会社,静岡県,浜松市北区,細江町中川７１７２番地の２６８２,,22,135,4311304,,,,,,,2023-09-04,1,,,,,ネオバイト,0
500,3080401026699,新規,0,2023-09-04,2023-09-04,株式会社ＡＹＡＫＯ,,株式会社,静岡県,浜松市中区,住吉２丁目３３番２５号,,22,131,4300906,,,,,,,2023-09-04,1,,,,,アヤコ,0
501,3080401026708,新規,0,2023-09-04,2023-09-04,株式会社なぎ,,株式会社,静岡県,浜松市南区,法枝町２７２番地の１,,22,134,4328053,,,,,,,2023-09-04,1,,,,,ナギ,0
507,3100001036732,新規,0,2023-09-04,2023-09-04,信州管財株式会社,,株式会社,長野県,松本市,中条１２番５号,,20,202,3900816,,,,,,,2023-09-04,1,,,,,シンシュウカンザイ,0
515,3120001257789,新規,0,2023-09-04,2023-09-04,株式会社ＳＡＫＡＭＯＴＯ,,株式会社,大阪府,枚方市,町楠葉１丁目１番１５号,,27,210,5731106,,,,,,,2023-09-04,1,,,,,サカモト,0
518,3120003024816,新規,0,2023-09-04,2023-09-04,合同会社ｗｉｐｐｙｃｈａｍ,,合同会社,大阪府,大阪市東成区,大今里南６丁目２番１６号２Ｆ,,27,115,5370013,,,,,,,2023-09-04,1,,,,,ウィッピーチャム,0
520,3120101068137,新規,0,2023-09-04,2023-09-04,堺フラワーユニオン株式会社,,株式会社,大阪府,堺市北区,蔵前町２丁１４番１８号,,27,146,5918004,,,,,,,2023-09-04,1,,,,,サカイフラワーユニオン,0
532,3130003008941,新規,0,2023-09-04,2023-09-04,合同会社アルファリンク,,合同会社,京都府,宇治市,羽拍子町８４番地の１ボーン宇治１号館１２１８,,26,204,6110027,,,,,,,2023-09-04,1,,,,,アルファリンク,0
541,3150001026687,新規,0,2023-09-04,2023-09-04,Ｋ’ｓＷａｎｄｓ株式会社,,株式会社,奈良県,奈良市,下三条町２５番地１,,29,201,6308236,,,,,,,2023-09-04,1,,,,,ケーズワンズアポストロフィ,0
542,3150001026695,新規,0,2023-09-04,2023-09-04,伊藤電技株式会社,,株式会社,奈良県,生駒市,小平尾町８５２,,29,209,6300226,,,,,,,2023-09-04,1,,,,,イトウデンギ,0
548,3170001017767,新規,0,2023-09-04,2023-09-04,株式会社半沢,,株式会社,和歌山県,和歌山市,鳴神５５０番地１,,30,201,6408303,,,,,,,2023-09-04,1,,,,,ハンザワ,0
553,3180001157819,新規,0,2023-09-04,2023-09-04,株式会社ｔｈｉｒｔｙ　ｔｗｏ,,株式会社,愛知県,名古屋市西区,上堀越町４丁目３７番地２・Ｂ棟,,23,104,4510084,,,,,,,2023-09-04,1,,,,,サーティトゥー,0
554,3180001157827,新規,0,2023-09-04,2023-09-04,株式会社Ｙｏｕ＆Ｍｅ,,株式会社,愛知県,名古屋市中区,松原３丁目３番１－２０１号,,23,106,4600017,,,,,,,2023-09-04,1,,,,,ユーアンドミー,0
562,3200001041648,新規,0,2023-09-04,2023-09-04,株式会社エムズプランナー,,株式会社,岐阜県,岐阜市,太郎丸中島２６８番地,,21,201,5012575,,,,,,,2023-09-04,1,,,,,エムズプランナー,0
563,3200001041672,新規,0,2023-09-04,2023-09-04,藤田興業株式会社,,株式会社,岐阜県,関市,西仙房２番３６－１号,,21,205,5013241,,,,,,,2023-09-04,1,,,,,フジタコウギョウ,0
566,3200003006070,新規,0,2023-09-04,2023-09-04,合同会社源,,合同会社,岐阜県,可児市,広見２丁目１０番地,,21,214,5090214,,,,,,,2023-09-04,1,,,,,ゲン,0
569,3240001062062,新規,0,2023-09-04,2023-09-04,株式会社青天,,株式会社,広島県,広島市中区,寺町５－２０広島城南リバーサイドＢＬＤ８階,,34,101,7300801,,,,,,,2023-09-04,1,,,,,セイテン,0
577,3260001038267,新規,0,2023-09-04,2023-09-04,株式会社ＳＶＭ,,株式会社,岡山県,倉敷市,神田１丁目１５－３グランレーベン２０１号,,33,202,7128061,,,,,,,2023-09-04,1,,,,,エスブイエム,0
579,3260003004408,新規,0,2023-09-04,2023-09-04,Ｔａｂｉ　Ｃｒｅａｔｅ合同会社,,合同会社,岡山県,岡山市中区,湊８８０番地６１,,33,102,7038266,,,,,,,2023-09-04,1,,,,,タビクリエイト,0
580,3260003004416,新規,0,2023-09-04,2023-09-04,カワバタオステオパシックオフィス合同会社,,合同会社,岡山県,倉敷市,白楽町３８２－４,,33,202,7100824,,,,,,,2023-09-04,1,,,,,カワバタオステオパシックオフィス,0
582,3290001102870,新規,0,2023-09-04,2023-09-04,ＭＡＣ株式会社,,株式会社,福岡県,糟屋郡志免町,志免４丁目１４番３－１０７号,,40,343,8112202,,,,,,,2023-09-04,1,,,,,エムエーシー,0
584,3290003014305,新規,0,2023-09-04,2023-09-04,合同会社ＴＩＥ,,合同会社,福岡県,福岡市東区,箱崎３丁目１１－１３コンフォートスペース箱崎２０３,,40,131,8120053,,,,,,,2023-09-04,1,,,,,タイ,0
588,3290801029834,新規,0,2023-09-04,2023-09-04,株式会社ＫＳＣ,,株式会社,福岡県,北九州市小倉南区,守恒本町１丁目３番２２号２Ｆ,,40,107,8020971,,,,,,,2023-09-04,1,,,,,ケーエスシー,0
589,3290801029842,新規,0,2023-09-04,2023-09-04,株式会社ｍａｎｔｉｓ,,株式会社,福岡県,北九州市若松区,白山２丁目１１番１０－２０７号,,40,103,8080035,,,,,,,2023-09-04,1,,,,,マンティス,0
590,3290801029850,新規,0,2023-09-04,2023-09-04,株式会社ＩＭ通信,,株式会社,福岡県,北九州市小倉北区,木町４丁目１２番１１－６０２号,,40,106,8030851,,,,,,,2023-09-04,1,,,,,アイエムツウシン,0
594,3300001013447,新規,0,2023-09-04,2023-09-04,山鏡エステート株式会社,,株式会社,佐賀県,唐津市,鏡８４２番地１６,,41,202,8470022,,,,,,,2023-09-04,1,,,,,サンキョウエステート,0
596,3310001018585,新規,0,2023-09-04,2023-09-04,株式会社エンクレア,,株式会社,長崎県,大村市,松並２丁目１８４番地２０,,42,205,8560814,,,,,,,2023-09-04,1,,,,,エンクレア,0
597,3320001019979,新規,0,2023-09-04,2023-09-04,株式会社Ｂａｍｂｉｔｚ,,株式会社,大分県,別府市,田の湯町３番７号アライアンスタワーＺ４Ｆ,,44,202,8740909,,,,,,,2023-09-04,1,,,,,バンビッツ,0
598,3320001019987,新規,0,2023-09-04,2023-09-04,株式会社アカダイ,,株式会社,大分県,大分市,大字中判田１５番地の３８,,44,201,8701113,,,,,,,2023-09-04,1,,,,,アカダイ,0
599,3320003004161,新規,0,2023-09-04,2023-09-04,合同会社ツーサイド,,合同会社,大分県,大分市,大字津守１９０番地の１三和コーポ３７－２０３,,44,201,8700945,,,,,,,2023-09-04,1,,,,,ツーサイド,0
602,3330001031198,新規,0,2023-09-04,2023-09-04,まつばや百貨店不動産株式会社,,株式会社,熊本県,熊本市中央区,大江１丁目２－１９,,43,101,8620971,,,,,,,2023-09-04,1,,,,,マツバヤヒャッカテンフドウサン,0
604,3350001018540,新規,0,2023-09-04,2023-09-04,株式会社日高組,,株式会社,宮崎県,宮崎市,波島２丁目３７番１６号,,45,201,8800826,,,,,,,2023-09-04,1,,,,,ヒダカグミ,0
605,3350001018549,新規,0,2023-09-04,2023-09-04,株式会社ＣＯＤＥＮＣＯ,,株式会社,宮崎県,西都市,大字黒生野１７６０番地３,,45,208,8810002,,,,,,,2023-09-04,1,,,,,コウデンコウ,0
607,3360001032490,新規,0,2023-09-04,2023-09-04,株式会社プライムＯＩＣ,,株式会社,沖縄県,糸満市,字北波平４５５番地の２,,47,210,9010312,,,,,,,2023-09-04,1,,,,,プライムオーアイシー,0
610,3370001050351,新規,0,2023-09-04,2023-09-04,株式会社リガーレ・スポーツエンターテインメント,,株式会社,宮城県,仙台市青葉区,錦ケ丘８丁目９番地の２０,,04,101,9893123,,,,,,,2023-09-04,1,,,,,リガーレスポーツエンターテインメント,0
615,3380003005559,新規,0,2023-09-04,2023-09-04,合同会社お掃除青空,,合同会社,福島県,福島市,宮代字宝田前２番地４有限会社不動産総合研究所内,,07,201,9600116,,,,,,,2023-09-04,1,,,,,オソウジアオゾラ,0
623,3430001089879,新規,0,2023-09-04,2023-09-04,株式会社Ｒｏｏｖｅ,,株式会社,北海道,札幌市白石区,東札幌四条１丁目３番２５号,,01,104,0030004,,,,,,,2023-09-04,1,,,,,ルーブ,0
627,3430003015387,新規,0,2023-09-04,2023-09-04,合同会社Ｍｅ‐ＢｅＲｅ,,合同会社,北海道,岩見沢市,栄町２丁目７番２１号,,01,210,0680821,,,,,,,2023-09-04,1,,,,,ミービリー,0
629,3460001005825,新規,0,2023-09-04,2023-09-04,株式会社エンブレム,,株式会社,北海道,釧路郡釧路町,新開３丁目４７番地,,01,661,0880624,,,,,,,2023-09-04,1,,,,,エンブレム,0
634,3480001012200,新規,0,2023-09-04,2023-09-04,株式会社ａｎｔｅｃｈ,,株式会社,徳島県,徳島市,籠屋町１丁目２５番地－５０３号,,36,201,7700914,,,,,,,2023-09-04,1,,,,,アンテック,0
640,3500001025166,新規,0,2023-09-04,2023-09-04,株式会社ＮＫアート,,株式会社,愛媛県,松山市,南梅本町甲５６５番地９,,38,201,7910245,,,,,,,2023-09-04,1,,,,,エヌケーアート,0
643,3700150119715,新規,0,2023-09-04,2023-09-04,ｌｏｎｇｇａｎｇ　ｌｉｋａ　ｄｉａｎｚｉｓｈａｎｇｗｕ　ｙｏｕｘｉａｎｇｏｎｇｓｉ,,外国会社等,,,,,,,,Ｉｏｎｇｇａｎｇｓｈｉｌｏｎｇｚｈｏｕｌｕ６１ｈａｏ　ｗｅｎｚｈｏｕｓｈｉ　ｚｈｅｊｉａｎｇｓｈｅｎｇ　ＣＮ,,,,,,2023-09-04,1,,,,,ロンガンリカデンシショウムユウゲンコウシ,0
644,3700150119723,新規,0,2023-09-04,2023-09-04,ＨＡＮＧ　ＺＨＯＵ　ＨＡＮＧ　ＫＡＩ　ＫＥ　Ｊｌ　ＹＯＵ　ＸＩＡＮ　ＧＯＮＧ　ＳＩ,,外国会社等,,,,,,,,ＹＵ　ＨＡＮＧ　ＱＵ　ＷＵ　ＣＨＡＮＧ　ＪＩＥ　ＤＡＯ　ＷＵ　ＣＨＡＮＧ　ＤＡ　ＤＡＯ　１８１　ＨＡＯ　１０　ＺＨＵＡＮＧ　３０３　ＳＨＩ　ＨＡＮＧＺＨＯＵ　ＺＨＥＪＩＡＮＧ　ＣＮ,,,,,,2023-09-04,1,,,,,ハンゾォウハンカイケジユウゲンコウシ,0
645,3700150119731,新規,0,2023-09-04,2023-09-04,ｓｈｅｎｚｈｅｎｓｈｉ　ｙｉｈｅｎｇｓｉｆｕｓｈｉ　ｙｏｕｘｉａｎｇｏｎｇｓｉ,,外国会社等,,,,,,,,ｍｅｉｌｉｎｊｉｅｄａｏ　ｍｅｉｊｉｎｇｓｈｅｑｕ　ｂｅｉｈｕａｎｄａｄａｏ７００８ｈａｏ　ｔｏｎｇｙｅｄａｓｈａ１６Ｂ　ｆｕｔｉａｎｑｕ　ｓｈｅｎｚｈｅｎｓｈｉ　５１８０００　ＣＮ,,,,,,2023-09-04,1,,,,,シンセンシイヘンスフシヨウシェンゴンスー,0
646,3700150119748,新規,0,2023-09-04,2023-09-04,Ｓｈｅｎｚｈｅｎ　Ｙａｆａｎ　Ｔｅｃｈｎｏｌｏｇｙ　Ｃｏ．，Ｌｔｄ．,,外国会社等,,,,,,,,ｓｈｅｎｚｈｅｎ，ｎａｎｓｈａｎｑｕｓｈａｈｅｊｉｅｄａｏ，ｂａｉｓｈｉｚｈｏｕ，ｘｉｙｉｆａｎｇ２５ｈａｏ３０１,,,,,,2023-09-04,1,,,,,シェンジェンヤーファンコージーヨウシエンゴンスー,0
647,3700150119756,新規,0,2023-09-04,2023-09-04,Ｈａｎｇｚｈｏｕ　Ｙｕａｎｃｏｎｇ　ｔｒａｄｉｎｇ　Ｃｏ．，ＬＴＤ,,外国会社等,,,,,,,,１３７７　Ｔｏｎｇｑｉａｎ　Ｒｏａｄ，Ｈｅｎｇｃｕｎ　Ｔｏｗｎ，Ｔｏｎｇｌｕ　Ｃｏｕｎｔｙ　Ｈａｎｇｚｈｏｕ　Ｃｉｔｙ　Ｚｈｅｊｉａｎｇ　３１１５００　ＣＮ,,,,,,2023-09-04,1,,,,,ハンジョウユエンツォンマオイーヨウシエンゴンスー,0
648,3700150119764,新規,0,2023-09-04,2023-09-04,Ｈｕｉｚｈｏｕｓｈｉ　ｘｉｎｘｉａｎｇｓｈｅｎｇ　ｓｈａｎｇｍａｏｙｏｕｘｉａｎｇｏｎｇｓｉ,,外国会社等,,,,,,,,ｇｕａｎｇｄｏｎｇｓｈｅｎｇ　ｈｕｉｚｈｏｕｓｈｉ　ｑｉａｏｄｏｎｇ　ｔａｏｚｉｙｕａｎ　２５ｈａｏ　ｊｉｎｄｉａｎｈｕａｙｕａｎＣｄｏｎｇ　ｚｉｙｏｕ１５ｃｅｎｇ　Ｄ０５ｆａｎｇ　Ｃｈｉｎａ,,,,,,2023-09-04,1,,,,,フイヂョウシシンシャンセンシャンマオユウゲンコウシ,0
649,3700150119772,新規,0,2023-09-04,2023-09-04,Ｓｈｅｎｚｈｅｎ　Ｈｏｎｇｈｕ　Ｆｕｔｕｒｅ　Ｔｅｃｈｎｏｌｏｇｙ　Ｃｏ．，Ｌｔｄ．,,外国会社等,,,,,,,,Ｌｏｎｇｃｈｅｎｇｊｉｅｄａｏ　ｈｕｉｌｏｎｇｐｕｓｈｅｑｕ　ｒｅｎｈｅｎｇｍｅｎｇｃｈｕａｎｇｇｕａｎｇｃｈａｎｇＡｚｕｏ２２０４　ｓｈｅｎｚｈｅｎｓｈｉ　ｌｏｎｇｇａｎｇｑｕ　Ｃｈｉｎａ,,,,,,2023-09-04,1,,,,,シンセンホンフフューチャーテクノロジーカンパニーリミテッド,0
656,4010001238139,新規,0,2023-09-04,2023-09-04,光湧商事株式会社,,株式会社,東京都,中央区,勝どき５丁目３番１－４９１６号,,13,102,1040054,,,,,,,2023-09-04,1,,,,,コウユウショウジ,0
657,4010003041549,新規,0,2023-09-04,2023-09-04,ＤＯインベストメント合同会社,,合同会社,東京都,千代田区,丸の内３丁目１番１号東京共同会計事務所内,,13,101,1000005,,,,,,,2023-09-04,1,,,,,ディーオーインベストメント,0
659,4010401176938,新規,0,2023-09-04,2023-09-04,株式会社テラ,,株式会社,東京都,港区,新橋６丁目２２番１号,,13,103,1050004,,,,,,,2023-09-04,1,,,,,テラ,0
661,4010403030853,新規,0,2023-09-04,2023-09-04,合同会社エムエンターテインメント,,合同会社,東京都,港区,海岸１丁目１番１号アクティ汐留２２１３号,,13,103,1050022,,,,,,,2023-09-04,1,,,,,エムエンターテインメント,0
662,4010403030861,新規,0,2023-09-04,2023-09-04,合同会社ａｒｃｈｉｉ,,合同会社,東京都,港区,赤坂６丁目１０番４２－３０６号,,13,103,1070052,,,,,,,2023-09-04,1,,,,,アーチ,0
664,4010601063713,新規,0,2023-09-04,2023-09-04,キバロク株式会社,,株式会社,東京都,江東区,木場６丁目９番６号,,13,108,1350042,,,,,,,2023-09-04,1,,,,,キバロク,0
669,4010901053744,新規,0,2023-09-04,2023-09-04,ｉ４株式会社,,株式会社,東京都,世田谷区,玉川３丁目２０番２号マノア玉川第３ビル５０１号室,,13,112,1580094,,,,,,,2023-09-04,1,,,,,アイフォー,0
670,4010901053752,新規,0,2023-09-04,2023-09-04,株式会社ＲＩＣＥＨＥＤＧＥ,,株式会社,東京都,世田谷区,大原２丁目２２番３号ライスヘッジ５０２,,13,112,1560041,,,,,,,2023-09-04,1,,,,,ライスヘッジ,0
684,4011001156702,新規,0,2023-09-04,2023-09-04,ＩＭＵ株式会社,,株式会社,東京都,渋谷区,道玄坂１丁目１０番８号渋谷道玄坂東急ビル２Ｆ－Ｃ,,13,113,1500043,,,,,,,2023-09-04,1,,,,,アイエムユー,0
685,4011001156710,新規,0,2023-09-04,2023-09-04,プラナス・エンジニアリング株式会社,,株式会社,東京都,渋谷区,渋谷１丁目２３番２１号渋谷キャスト２Ｆ,,13,113,1500002,,,,,,,2023-09-04,1,,,,,プラナスエンジニアリング,0
686,4011001156719,新規,0,2023-09-04,2023-09-04,株式会社イエローバズ,,株式会社,東京都,渋谷区,神宮前６丁目２３番４号桑野ビル２階,,13,113,1500001,,,,,,,2023-09-04,1,,,,,イエローバズ,0
687,4011001156727,新規,0,2023-09-04,2023-09-04,Ｌｏｇｉｍａｒｋ　Ｉｎｔｅｒｎａｔｉｏｎａｌ株式会社,,株式会社,東京都,渋谷区,富ヶ谷１丁目１４－１４スタンフォードアネックスビル３階,,13,113,1510063,,,,,,,2023-09-04,1,,,,,ロジマークインターナショナル,0
694,4011301028980,新規,0,2023-09-04,2023-09-04,株式会社サイドルーム,,株式会社,東京都,杉並区,成田東４丁目１１番１６号テレパレス阿佐ヶ谷の杜２－２０１,,13,115,1660015,,,,,,,2023-09-04,1,,,,,サイドルーム,0
702,4011703003581,新規,0,2023-09-04,2023-09-04,合同会社アークア,,合同会社,東京都,江戸川区,江戸川１丁目３６番３号ルナ細井２０２,,13,123,1320013,,,,,,,2023-09-04,1,,,,,アークア,0
704,4011803005809,新規,0,2023-09-04,2023-09-04,合同会社ベルテ,,合同会社,東京都,足立区,舎人２丁目２０番１５号,,13,121,1210831,,,,,,,2023-09-04,1,,,,,ベルテ,0
706,4012801022614,新規,0,2023-09-04,2023-09-04,ＳＨＩＮＤＥＮ株式会社,,株式会社,東京都,立川市,上砂町３丁目５４番地の１２,,13,202,1900032,,,,,,,2023-09-04,1,,,,,シンデン,0
707,4013101009236,新規,0,2023-09-04,2023-09-04,マイティオール株式会社,,株式会社,東京都,青梅市,友田町４丁目３５３番地の７,,13,205,1980051,,,,,,,2023-09-04,1,,,,,,0
714,4020001153287,新規,0,2023-09-04,2023-09-04,株式会社リファイン,,株式会社,神奈川県,横浜市保土ケ谷区,和田１丁目１３番１９号ライオンズマンション横浜和田町２２２号室,,14,106,2400065,,,,,,,2023-09-04,1,,,,,リファイン,0
715,4020001153386,新規,0,2023-09-04,2023-09-04,ライズプロパティ株式会社,,株式会社,神奈川県,横浜市港北区,新横浜３丁目１７番地１５,,14,109,2220033,,,,,,,2023-09-04,1,,,,,ライズプロパティ,0
716,4020003024494,新規,0,2023-09-04,2023-09-04,合同会社ラッキーエステート,,合同会社,神奈川県,横浜市旭区,中沢１丁目３８－２,,14,112,2410814,,,,,,,2023-09-04,1,,,,,ラッキーエステート,0
717,4020003024503,新規,0,2023-09-04,2023-09-04,キューハチ合同会社,,合同会社,神奈川県,横浜市西区,浅間町１丁目４番３号ウィザードビル４０２,,14,103,2200072,,,,,,,2023-09-04,1,,,,,キューハチ,0
719,4021001080067,新規,0,2023-09-04,2023-09-04,株式会社人財経営コンサルティング,,株式会社,神奈川県,逗子市,逗子７丁目１番５１号ナニワビル３Ｆ,,14,208,2490006,,,,,,,2023-09-04,1,,,,,ジンザイケイエイコンサルティング,0
720,4021003013529,新規,0,2023-09-04,2023-09-04,藍開発合同会社,,合同会社,神奈川県,鎌倉市,二階堂６７５番地３,,14,204,2480002,,,,,,,2023-09-04,1,,,,,アイカイハツ,0
722,4030001155745,新規,0,2023-09-04,2023-09-04,株式会社月進,,株式会社,埼玉県,深谷市,天神町１１番２号,,11,218,3660027,,,,,,,2023-09-04,1,,,,,ゲッシン,0
729,4030005021373,新規,0,2023-09-04,2023-09-04,一般社団法人リペアリフォーム推進協会,,その他の設立登記法人,埼玉県,さいたま市桜区,大字大久保領家６５９番地３４,,11,106,3380826,,,,,,,2023-09-04,1,,,,,リペアリフォームスイシンキョウカイ,0
741,4040003023206,新規,0,2023-09-04,2023-09-04,合同会社雪吉,,合同会社,千葉県,流山市,南流山３丁目１０番地の１２,,12,220,2700163,,,,,,,2023-09-04,1,,,,,ユキチ,0
742,4040003023230,新規,0,2023-09-04,2023-09-04,サンデー合同会社,,合同会社,千葉県,船橋市,北本町２丁目４番８－１０１号,,12,204,2730864,,,,,,,2023-09-04,1,,,,,サンデー,0
746,4050003007760,新規,0,2023-09-04,2023-09-04,合同会社ＮＩコーポレーション,,合同会社,茨城県,結城市,大字今宿１０３９番地１,,08,207,3070028,,,,,,,2023-09-04,1,,,,,エヌアイコーポレーション,0
747,4050003007769,新規,0,2023-09-04,2023-09-04,ＳＡＥＥＤ　ＴＲＡＤＩＮＧ合同会社,,合同会社,茨城県,坂東市,矢作５３９番地１－Ａ,,08,228,3060624,,,,,,,2023-09-04,1,,,,,サイードトレーディング,0
750,4070001040803,新規,0,2023-09-04,2023-09-04,ウッドフューエル坂東株式会社,,株式会社,群馬県,館林市,大手町１１番１３号,,10,207,3740023,,,,,,,2023-09-04,1,,,,,ウッドフューエルバンドウ,0
754,4080001025836,新規,0,2023-09-04,2023-09-04,株式会社ｂ・ランド,,株式会社,静岡県,静岡市清水区,西久保２９７番地の５,,22,103,4240038,,,,,,,2023-09-04,1,,,,,ビーランド,0
756,4080401026698,新規,0,2023-09-04,2023-09-04,株式会社エプリエ,,株式会社,静岡県,浜松市天竜区,山東１８１８番地の１,,22,137,4313303,,,,,,,2023-09-04,1,,,,,エプリエ,0
757,4080401026707,新規,0,2023-09-04,2023-09-04,株式会社Ｍｉｌｌｉｏｎ,,株式会社,静岡県,浜松市中区,曳馬６丁目１３番３４号ビバーチェ２０１,,22,131,4300901,,,,,,,2023-09-04,1,,,,,ミリオン,0
758,4080403004859,新規,0,2023-09-04,2023-09-04,合同会社どこみら,,合同会社,静岡県,浜松市中区,千歳町１２３番地５Ｆ,,22,131,4300934,,,,,,,2023-09-04,1,,,,,ドコミラ,0
760,4090001018302,新規,0,2023-09-04,2023-09-04,株式会社Ｓｋｙジュエリー,,株式会社,山梨県,甲府市,相生３丁目２－４,,19,201,4000858,,,,,,,2023-09-04,1,,,,,スカイジュエリー,0
761,4100001036731,新規,0,2023-09-04,2023-09-04,株式会社ＢＡＲＯＱＵＥ,,株式会社,長野県,小諸市,丙８５０番地１メゾンドモア小諸Ｂ１０１,,20,208,3840803,,,,,,,2023-09-04,1,,,,,バロック,0
763,4110001037811,新規,0,2023-09-04,2023-09-04,株式会社ノースコネクト,,株式会社,新潟県,南魚沼郡湯沢町,大字湯沢１５５１番地１－Ａ号,,15,461,9496101,,,,,,,2023-09-04,1,,,,,ノースコネクト,0
775,4120001257739,新規,0,2023-09-04,2023-09-04,株式会社拓Ｌａｂｏ,,株式会社,大阪府,大阪市鶴見区,浜２丁目２番２３－１０３号,,27,124,5380035,,,,,,,2023-09-04,1,,,,,タクミラボ,0
776,4120001257747,新規,0,2023-09-04,2023-09-04,瑞旭株式会社,,株式会社,大阪府,大阪市大正区,三軒家西３丁目４番１６号中山ビル１０２３,,27,108,5510001,,,,,,,2023-09-04,1,,,,,スイキョク,0
777,4120001257771,新規,0,2023-09-04,2023-09-04,トウホウ資源株式会社,,株式会社,大阪府,大阪市生野区,新今里５丁目７番６号,,27,116,5440001,,,,,,,2023-09-04,1,,,,,トウホウシゲン,0
778,4120001257796,新規,0,2023-09-04,2023-09-04,株式会社ｅｎｅ,,株式会社,大阪府,守口市,東郷通３丁目７番１１号,,27,209,5700041,,,,,,,2023-09-04,1,,,,,イーネ,0
783,4120101068128,新規,0,2023-09-04,2023-09-04,株式会社Ｓｔｒｉｖｅ,,株式会社,大阪府,岸和田市,別所町３丁目４０番１３号,,27,202,5960045,,,,,,,2023-09-04,1,,,,,ストライヴ,0
784,4120101068136,新規,0,2023-09-04,2023-09-04,株式会社蒼藍,,株式会社,大阪府,堺市北区,長曽根町３０７７－１－３０５,,27,146,5918025,,,,,,,2023-09-04,1,,,,,ソウアイ,0
785,4120101068144,新規,0,2023-09-04,2023-09-04,株式会社カーザコネクト,,株式会社,大阪府,羽曳野市,伊賀５丁目３番２５－１０１号,,27,222,5830876,,,,,,,2023-09-04,1,,,,,カーザコネクト,0
786,4120901048015,新規,0,2023-09-04,2023-09-04,原田電機工業株式会社,00131746,株式会社,大阪府,高槻市,唐崎中１丁目１１番１２号,,27,207,5690832,,,,,,,2023-09-04,1,,,,,ハラダデンキコウギョウ,0
788,4120903004783,新規,0,2023-09-04,2023-09-04,合同会社ｌｉｎｃ,,合同会社,大阪府,箕面市,森町中２丁目２７－２３,,27,220,5630257,,,,,,,2023-09-04,1,,,,,リンク,0
789,4120903004817,新規,0,2023-09-04,2023-09-04,合同会社そろばん塾ピコ豊高前校,,合同会社,大阪府,豊中市,上野西１丁目１２－１６,,27,203,5600011,,,,,,,2023-09-04,1,,,,,ソロバンジュクピコトヨコウマエコウ,0
794,4130001075090,新規,0,2023-09-04,2023-09-04,株式会社パイルズアウト,,株式会社,京都府,京都市伏見区,横大路菅本２番地１９,,26,109,6128251,,,,,,,2023-09-04,1,,,,,パイルズアウト,0
797,4150001026686,新規,0,2023-09-04,2023-09-04,株式会社タカクニ,,株式会社,奈良県,奈良市,百楽園１丁目６番７号,,29,201,6310024,,,,,,,2023-09-04,1,,,,,タカクニ,0
803,4170001017766,新規,0,2023-09-04,2023-09-04,株式会社ハマグチ,,株式会社,和歌山県,東牟婁郡那智勝浦町,大字宇久井１８９７番地の１２,,30,421,6495312,,,,,,,2023-09-04,1,,,,,ハマグチ,0
804,4170003001917,新規,0,2023-09-04,2023-09-04,合同会社カワタ産業,,合同会社,和歌山県,和歌山市,伊太祈曽５８１番地,,30,201,6400361,,,,,,,2023-09-04,1,,,,,カワタサンギョウ,0
813,4180001157826,新規,0,2023-09-04,2023-09-04,株式会社スズオキ,,株式会社,愛知県,大府市,中央町３丁目８８番地大府駅前ビル３階,,23,223,4740025,,,,,,,2023-09-04,1,,,,,スズオキ,0
814,4180003025691,新規,0,2023-09-04,2023-09-04,合同会社ＰＬＵＳ　ＡＬＰＨＡ,,合同会社,愛知県,江南市,後飛保町中町２０番地,,23,217,4838385,,,,,,,2023-09-04,1,,,,,プラスアルファ,0
821,4260001038266,新規,0,2023-09-04,2023-09-04,株式会社新和ビルホールディングス,,株式会社,岡山県,岡山市南区,築港新町２丁目６番１８号,,33,104,7028056,,,,,,,2023-09-04,1,,,,,シンワビルホールディングス,0
822,4260001038274,新規,0,2023-09-04,2023-09-04,株式会社祗園建設,00131757,株式会社,岡山県,備前市,新庄９２９番地２,,33,211,7050014,,,,,,,2023-09-04,1,,,,,ギオンケンセツ,0
823,4260001038290,新規,0,2023-09-04,2023-09-04,株式会社光啓会,,株式会社,岡山県,岡山市北区,表町３丁目５－４３,,33,101,7000822,,,,,,,2023-09-04,1,,,,,コウケイカイ,0
824,4260003004415,新規,0,2023-09-04,2023-09-04,合同会社ｓｉｎｇｌａｒ,,合同会社,岡山県,倉敷市,児島通生２８５７番地１,,33,202,7110933,,,,,,,2023-09-04,1,,,,,シングラル,0
827,4290003014304,新規,0,2023-09-04,2023-09-04,合同会社前川,,合同会社,福岡県,福岡市城南区,友丘５丁目９番３８－２０３号ウィンド丘,,40,136,8140112,,,,,,,2023-09-04,1,,,,,マエカワ,0
829,4290801029841,新規,0,2023-09-04,2023-09-04,株式会社アイデアル設計,,株式会社,福岡県,北九州市八幡西区,星ケ丘１丁目１５番１０号,,40,109,8071264,,,,,,,2023-09-04,1,,,,,アイデアルセッケイ,0
830,4300001013446,新規,0,2023-09-04,2023-09-04,株式会社カゼマチテラス,,株式会社,佐賀県,三養基郡上峰町,大字坊所１５５０番地３,,41,345,8490123,,,,,,,2023-09-04,1,,,,,カゼマチテラス,0
839,4340003004241,新規,0,2023-09-04,2023-09-04,合同会社ＮＯＡ　ＲＥＳＯＲＴＳ,,合同会社,鹿児島県,奄美市,名瀬金久町３番１３号,,46,222,8940031,,,,,,,2023-09-04,1,,,,,ノアリゾート,0
844,4370001050350,新規,0,2023-09-04,2023-09-04,株式会社ネクストプラス,,株式会社,宮城県,仙台市太白区,羽黒台１８番５０号ハウディ．サバーブ１０３,,04,104,9820817,,,,,,,2023-09-04,1,,,,,ネクストプラス,0
847,4370003006268,新規,0,2023-09-04,2023-09-04,のどかサポート合同会社,,合同会社,宮城県,仙台市若林区,清水小路６番地１東日本不動産仙台ファーストビル,,04,103,9840075,,,,,,,2023-09-04,1,,,,,ノドカサポート,0
852,4380003005558,新規,0,2023-09-04,2023-09-04,合同会社ＭＯＳＡ,,合同会社,福島県,伊達市,梁川町向川原字大割１番地,,07,213,9600717,,,,,,,2023-09-04,1,,,,,モサ,0
857,4390005009028,新規,0,2023-09-04,2023-09-04,司法書士法人ちゆき事務所,,その他の設立登記法人,山形県,山形市,上桜田１丁目１３番１８号,,06,201,9902421,,,,,,,2023-09-04,1,,,,,チユキジムショ,0
859,4400001016372,新規,0,2023-09-04,2023-09-04,株式会社ＫＩＮＧＳ,,株式会社,岩手県,滝沢市,鵜飼上山３２番地８４,,03,216,0200656,,,,,,,2023-09-04,1,,,,,キングス,0
860,4410003003839,新規,0,2023-09-04,2023-09-04,合同会社秋田デライフ,,合同会社,秋田県,秋田市,八橋田五郎２丁目５番５号,,05,201,0100972,,,,,,,2023-09-04,1,,,,,アキタデライフ,0
864,4430001089861,新規,0,2023-09-04,2023-09-04,株式会社Ｃｉｓｃｏ　Ｃｌｕｂ,,株式会社,北海道,札幌市厚別区,厚別東一条６丁目５－１２,,01,108,0040001,,,,,,,2023-09-04,1,,,,,シスコクラブ,0
865,4430001089886,新規,0,2023-09-04,2023-09-04,道央環境テクノロジー株式会社,,株式会社,北海道,千歳市,上長都４番地５,,01,224,0660077,,,,,,,2023-09-04,1,,,,,ドウオウカンキョウテクノロジー,0
869,4430003015394,新規,0,2023-09-04,2023-09-04,合同会社Ｙ‐Ｉｎｄｕｓｔｒｙ,,合同会社,北海道,札幌市中央区,南十七条西９丁目１番３７－７０１号,,01,101,0640917,,,,,,,2023-09-04,1,,,,,ワイインダストリー,0
871,4460001005824,新規,0,2023-09-04,2023-09-04,株式会社ＬＡＣ,,株式会社,北海道,釧路市,昭和中央３丁目４５番１４号,,01,206,0840910,,,,,,,2023-09-04,1,,,,,エルエーシー,0
878,4700150119697,新規,0,2023-09-04,2023-09-01,柳沢ｍａｄｅ,,その他,山梨県,北杜市,武川町柳澤２１２９番地１,,19,209,4080307,,,,,,,2023-09-01,1,,,,,ヤナギサワメイド,0
879,4700150119714,新規,0,2023-09-04,2023-09-04,ｈｅｎａｎ　ｌｉｙｕｄｉａｎｚｉｓｈａｎｇｗｕ　ｙｏｕｘｉａｎｇｏｎｇｓｉ,,外国会社等,,,,,,,,ｚｈｅｎｇｚｈｏｕｓｈｉｊｉｎｓｈｕｉｑｕｙａｎｇｊｉｎｌｕ　ｎｉｕｄｕｎｇｕｏｊｉＢｚｕｏ７ｃｅｎｇ７２０ｈａｏ　ＣＮ,,,,,,2023-09-04,1,,,,,ヘナンリユデンシシャンウユウゲンコウシ,0
880,4700150119722,新規,0,2023-09-04,2023-09-04,ｓｈｅｎｚｈｅｎｇ　ｓｈｉｐｉｎｇｓｈａｎｇｍａｏ　ｙｏｕｘｉａｎｇｏｎｇｓｉ,,外国会社等,,,,,,,,ｇｕｏｊｉｓｈａｎｇｙｅｄａｓｈａｂｅｉｚｕｏ１２０５ｓｈｉＣ０７１　ｒｅｎｍｉｎｎａｎｌｕ２０６９ｈａｏｌｕｏｈｕｑｉａｏｓｈｅｑｕｎａｎｈｕｊｉｅｄａｏｌｕｏｈｕｑｕ　ｓｈｅｎｚｈｅｎｓｈｉ,,,,,,2023-09-04,1,,,,,シェンゼェンシピンシャンマオユウゲンコウシ,0
881,4700150119730,新規,0,2023-09-04,2023-09-04,Ｇｕａｎｇｚｈｏｕ　Ｙｉｊｉａｄａ　Ｉｎｔｅｒｎａｔｉｏｎａｌ　Ｔｒａｄｅ　Ｃｏ．，Ｌｔｄ．,,外国会社等,,,,,,,,Ｇｒｏｕｎｄ　Ｆｌｏｏｒ，Ｎｏ．５７，Ｈｕｉｔａｉ　Ｅａｓｔ　Ｒｏａｄ，Ｘｉｎｔａｎｇ　Ｔｏｗｎ，Ｚｅｎｇｃｈｅｎｇ　Ｄｉｓｔｒｉｃｔ，Ｇｕａｎｇｚｈｏｕ　５１１３４０　ＣＮ,,,,,,2023-09-04,1,,,,,コウシュウイジャダインターナショナルトレードカンパニーリミテッド,0
882,4700150119739,新規,0,2023-09-04,2023-09-04,Ｓｈｅｎｚｈｅｎ　Ｙｕｎｔｕａｎ　Ｋｅｊｉ　Ｙｏｕｘｉａｎｇｏｎｇｓｉ,,外国会社等,,,,,,,,ｎａｎｓｈａｎｑｕｘｉｌｉｊｉｅｄａｏｘｉｎｇａｏｌｕｇｕａｎｌｏｎｇｃｕｎ　ｄｏｎｇｑｕＡ１８ｄｏｎｇｅｒｌｏｕ２１０　ｓｈｅｎｚｈｅｎｓｈｉ　ｇｕａｎｇｄｏｎｇｓｈｅｎｇ,,,,,,2023-09-04,1,,,,,シンセンウントアンカギユウゲンコウシ,0
883,4700150119747,新規,0,2023-09-04,2023-09-04,Ｈｕｂｅｉ　Ｐａｎｏｒａｍａ　Ｗｏｒｌｄ　Ｎｅｔｗｏｒｋ　Ｔｅｃｈｎｏｌｏｇｙ　Ｃｏ．，Ｌｔｄ．,,外国会社等,,,,,,,,ｘｉａｎｇｙａｎｇｓｈｉ　ｘｉａｎｇｚｈｏｕｑｕ　ｂｅｎｃｈｉｄａｄａｏ　ｇｕａｎｇｃａｉｗｕｌｉｕｙｕａｎ１５ｄｏｎｇ４１２ｈａｏ,,,,,,2023-09-04,1,,,,,フーベイチュエンジンティエンシャーワンルオジーシューヨウシエンゴンスー,0
884,4700150119755,新規,0,2023-09-04,2023-09-04,ｈａｎｇｚｈｏｕ　ｇｕａｎｇ　ｙｕｎ　ｋｅ　ｊｉ　ｙｏｕ　ｘｉａｎ　ｇｏｎｇ　ｓｉ,,外国会社等,,,,,,,,ｘｉａｏ　ｓｈａｎ　ｑｕ　ｗｅｎ　ｙａｎ　ｊｉｅ　ｄａｏ　ｓａｎ　ｊｉａｎｇ　ｙａｎｇ　ｇｕａｎｇ　ｙｉｎ　ｚｕｏ　５０１４　ｓｈｉ　ｈａｎｇｚｈｏｕ　ｚｈｅｊｉａｎｇ　３１００００　ＣＮ,,,,,,2023-09-04,1,,,,,ハンジョウグワンインコージーヨウシエンゴンスー,0
885,4700150119763,新規,0,2023-09-04,2023-09-04,ＱＩＮＧＤＡＯ　ＧＲＥＡＴ　ＶＥＳＳＥＬ　ＩＭＰ＆ＥＸＰ　ＣＯ．，ＬＴＤ,,外国会社等,,,,,,,,ＲＯＯＭ　１２０４，ＮＯ．１１１－ＹＩ　ＹＡＮＡＮ　ＳＡＮ　ＲＯＡＤ，ＳＨＩＮＡＮ　ＤＩＳＴＲＩＣＴ，ＱＩＮＧＤＡＯ,,,,,,2023-09-04,1,,,,,チンダオダーティエジョンゴンジンチューコウヨウシエンゴンスー,0
886,4700150119771,新規,0,2023-09-04,2023-09-04,ＡＮＪＩＸＩＮＧＹＵＳＨＡＮＧＭＡＯ　ＹＯＵＸＩＡＮＧＯＮＧＳＩ,,外国会社等,,,,,,,,ｚｈｅｊｉａｎｇｓｈｅｎｇｈｕｚｈｏｕｓｈｉａｎｊｉｘｉａｎｄｉｐｕｊｉｅｄａｏｔａｎｇｐｕｇｏｎｇｙｅｙｕａｎｑｕｙｏｕｃｈｅｄｕｎｌｕ１ｈａｏ２ｚｈｕａｎｇ４ｌｏｕｂａｎｇｏｎｇｓｈｉ　Ｃｈｉｎａ,,,,,,2023-09-04,1,,,,,アンジシンユシャンマオユウゲンコウシ,0
888,5010001238154,新規,0,2023-09-04,2023-09-04,株式会社ＬａＦ　Ｃｏｎｓｕｌｔｉｎｇ,,株式会社,東京都,中央区,銀座１丁目１２番４号Ｎ＆ＥＢＬＤ．６Ｆ,,13,102,1040061,,,,,,,2023-09-04,1,,,,,ラフコンサルティング,0
890,5010003041548,新規,0,2023-09-04,2023-09-04,セブンライト合同会社,,合同会社,東京都,中央区,日本橋箱崎町４番８－５０４号,,13,102,1030015,,,,,,,2023-09-04,1,,,,,セブンライト,0
894,5010401176375,新規,0,2023-09-04,2023-09-04,株式会社Ｒｉｅｒａ,,株式会社,東京都,港区,六本木３丁目７番１－３４０４号,,13,103,1060032,,,,,,,2023-09-04,1,,,,,リエラ,0
896,5010501050983,新規,0,2023-09-04,2023-09-04,株式会社信交興産,,株式会社,東京都,台東区,東上野５丁目２３番１４－２０３号,,13,106,1100015,,,,,,,2023-09-04,1,,,,,シンコウコウサン,0
897,5010501050991,新規,0,2023-09-04,2023-09-04,コージン株式会社,,株式会社,東京都,台東区,台東１丁目９－４松浦ビル５Ｆ,,13,106,1100016,,,,,,,2023-09-04,1,,,,,コージン,0
910,5010901053727,新規,0,2023-09-04,2023-09-04,Ｕｎｉｍｏｂｉｌｉｔｉｅｓ株式会社,,株式会社,東京都,世田谷区,上馬４丁目１７番８号上馬第２コーポラス４０２,,13,112,1540011,,,,,,,2023-09-04,1,,,,,ユニモビリティーズ,0
911,5010901053743,新規,0,2023-09-04,2023-09-04,株式会社ぱっくばらん,,株式会社,東京都,世田谷区,玉堤１丁目１３番１１号カーザフェリーチェ１０２,,13,112,1580087,,,,,,,2023-09-04,1,,,,,パックバラン,0
913,5011001156718,新規,0,2023-09-04,2023-09-04,株式会社ＨＥＩＭ　ＪＡＰＡＮ,,株式会社,東京都,渋谷区,神宮前１丁目６番５号ゼンモール原宿ビル,,13,113,1500001,,,,,,,2023-09-04,1,,,,,ハイムジャパン,0
929,5013301051284,新規,0,2023-09-04,2023-09-04,Ｎｉｓｅｋｏ　Ｗｏｏｄｌａｎｄ株式会社,,株式会社,東京都,豊島区,東池袋４丁目８番１号エイチエックスビル,,13,116,1700013,,,,,,,2023-09-04,1,,,,,ニセコウッドランド,0
938,5020001153286,新規,0,2023-09-04,2023-09-04,株式会社Ｎｅｘｉ,,株式会社,神奈川県,川崎市幸区,中幸町３丁目３１番地２,,14,132,2120012,,,,,,,2023-09-04,1,,,,,ネクシィ,0
940,5020003024502,新規,0,2023-09-04,2023-09-04,合同会社ＺＡＰ　ＨＥＡＲＴ,,合同会社,神奈川県,川崎市多摩区,菅２丁目８番１号,,14,135,2140001,,,,,,,2023-09-04,1,,,,,ザップハート,0
941,5020003024510,新規,0,2023-09-04,2023-09-04,合同会社みけ,,合同会社,神奈川県,横浜市神奈川区,羽沢町５８７－１０,,14,102,2210863,,,,,,,2023-09-04,1,,,,,ミケ,0
945,5021003013528,新規,0,2023-09-04,2023-09-04,汐音商事合同会社,,合同会社,神奈川県,横須賀市,東浦賀２丁目２２番１－４０２,,14,201,2390821,,,,,,,2023-09-04,1,,,,,シオンショウジ,0
949,5030001155562,新規,0,2023-09-04,2023-09-04,株式会社ｓｏｕ,,株式会社,埼玉県,さいたま市浦和区,東岸町１６番７号藤和南浦和コープＡ３０２,,11,107,3300054,,,,,,,2023-09-04,1,,,,,ソウ,0
950,5030001155579,新規,0,2023-09-04,2023-09-04,株式会社ＤＬＩＮＥ,,株式会社,埼玉県,さいたま市岩槻区,大字小溝１２１３番地１,,11,110,3390003,,,,,,,2023-09-04,1,,,,,ディーライン,0
951,5030001155736,新規,0,2023-09-04,2023-09-04,株式会社ロータス,,株式会社,埼玉県,所沢市,東住吉１１番１－１８１２号シティタワー所沢クラッシィ,,11,208,3591124,,,,,,,2023-09-04,1,,,,,ロータス,0
954,5030003022380,新規,0,2023-09-04,2023-09-04,サンシャイン合同会社,,合同会社,埼玉県,所沢市,大字荒幡５１２－１,,11,208,3591133,,,,,,,2023-09-04,1,,,,,サンシャイン,0
955,5030003022488,新規,0,2023-09-04,2023-09-04,合同会社Ｂｒｅｍｃｈ,,合同会社,埼玉県,さいたま市南区,鹿手袋７丁目１２―１１寿コーポ３０１号室,,11,108,3360031,,,,,,,2023-09-04,1,,,,,ブランチ,0
965,5050003007768,新規,0,2023-09-04,2023-09-04,ＲＡＭＺＡＮ　ＴＲＡＤＩＮＧ合同会社,,合同会社,茨城県,坂東市,矢作５３９番地１－Ｃ,,08,228,3060624,,,,,,,2023-09-04,1,,,,,ラムザントレーディング,0
969,5070001040802,新規,0,2023-09-04,2023-09-04,ＭＭＨ株式会社,,株式会社,群馬県,前橋市,石倉町３丁目１３番地３前橋マンション２階,,10,201,3710841,,,,,,,2023-09-04,1,,,,,エムエムエイチ,0
974,5080401026689,新規,0,2023-09-04,2023-09-04,株式会社ＣＡＰＥ,,株式会社,静岡県,浜松市東区,北島町１６番地の５,,22,132,4350041,,,,,,,2023-09-04,1,,,,,ケープ,0
978,5100003007168,新規,0,2023-09-04,2023-09-04,合同会社ＫＡＧＡＭＩ,,合同会社,長野県,諏訪市,大字豊田２７２番地１,,20,206,3920016,,,,,,,2023-09-04,1,,,,,カガミ,0
980,5110003005154,新規,0,2023-09-04,2023-09-04,合同会社ＰＩＸＹにおまかせ,,合同会社,新潟県,新潟市中央区,女池５丁目９番１９号,,15,103,9500941,,,,,,,2023-09-04,1,,,,,ピクシーニオマカセ,0
985,5120001257770,新規,0,2023-09-04,2023-09-04,ダイコーフーズ株式会社,,株式会社,大阪府,大阪市港区,海岸通３丁目７番１号,,27,107,5520022,,,,,,,2023-09-04,1,,,,,ダイコーフーズ,0
990,5120101068127,新規,0,2023-09-04,2023-09-04,株式会社やぶち防災工業,,株式会社,大阪府,堺市中区,深井東町３０５８番地,,27,142,5998235,,,,,,,2023-09-04,1,,,,,ヤブチボウサイコウギョウ,0
991,5120101068143,新規,0,2023-09-04,2023-09-04,株式会社Ｆａｍｉｌｙ　Ｏｆｆｉｃｅ１９３８,,株式会社,大阪府,堺市美原区,木材通２丁目２番８７号,,27,147,5870042,,,,,,,2023-09-04,1,,,,,ファミリーオフィスイチキュウサンハチ,0
992,5120101068151,新規,0,2023-09-04,2023-09-04,株式会社ＡＲＺ　ＰＡＲＴＮＥＲ,,株式会社,大阪府,堺市南区,赤坂台４丁２３番６号,,27,145,5900144,,,,,,,2023-09-04,1,,,,,アーズパートナー,0
997,5120103005409,新規,0,2023-09-04,2023-09-04,合同会社Ｃｈｅｌｕｍｃｈｃｏｔ．,,合同会社,大阪府,堺市西区,浜寺石津町中３丁１５番１９号さくらビル２Ｆ号室,,27,144,5928334,,,,,,,2023-09-04,1,,,,,チェルムチコット,0
1001,5120901048014,新規,0,2023-09-04,2023-09-04,株式会社ＫＥＩＫＡＩ,,株式会社,大阪府,豊中市,穂積２丁目１４番３９号,,27,203,5610856,,,,,,,2023-09-04,1,,,,,ケイカイ,0
1005,5122001037327,新規,0,2023-09-04,2023-09-04,Ａ＆Ｂ株式会社,,株式会社,大阪府,東大阪市,近江堂１丁目１５－４０－１２５,,27,227,5770817,,,,,,,2023-09-04,1,,,,,エーアンドビー,0
1010,5130001075081,新規,0,2023-09-04,2023-09-04,株式会社先端医学総合研究所,,株式会社,京都府,舞鶴市,字野村寺５番地１,,26,202,6240833,,,,,,,2023-09-04,1,,,,,センタンイガクソウゴウケンキュウショ,0
1015,5150001026693,新規,0,2023-09-04,2023-09-04,株式会社ベーシックプラス,,株式会社,奈良県,大和郡山市,今国府町３２０番地の１３,,29,203,6391031,,,,,,,2023-09-04,1,,,,,ベーシックプラス,0
1016,5150003003055,新規,0,2023-09-04,2023-09-04,合同会社ＭＡＫＩ,,合同会社,奈良県,奈良市,疋田町４０７－１７６,,29,201,6310843,,,,,,,2023-09-04,1,,,,,マキ,0
1017,5160001025315,新規,0,2023-09-04,2023-09-04,株式会社久保電工,,株式会社,滋賀県,大津市,仰木３丁目６番４４号,,25,201,5200247,,,,,,,2023-09-04,1,,,,,クボデンコウ,0
1018,5170001017765,新規,0,2023-09-04,2023-09-04,株式会社ハマノスポーツ,,株式会社,和歌山県,和歌山市,本町３丁目７番地,,30,201,6408033,,,,,,,2023-09-04,1,,,,,ハマノスポーツ,0
1024,5180001157833,新規,0,2023-09-04,2023-09-04,株式会社Ｓｔａｇｅ　Ｋ,,株式会社,愛知県,名古屋市緑区,桶狭間北３丁目４０５番地の２,,23,114,4580913,,,,,,,2023-09-04,1,,,,,ステージケイ,0
1035,5220001025580,新規,0,2023-09-04,2023-09-04,シン・シンシントーミン株式会社,,株式会社,石川県,七尾市,能登島久木町ツ部１５番地,,17,202,9260227,,,,,,,2023-09-04,1,,,,,シンシンシントーミン,0
1037,5220003003576,新規,0,2023-09-04,2023-09-04,合同会社サービング,,合同会社,石川県,白山市,宮永市町４１５番地１９,,17,210,9240016,,,,,,,2023-09-04,1,,,,,サービング,0
1040,5240001062093,新規,0,2023-09-04,2023-09-04,株式会社ＮＹサービス,,株式会社,広島県,広島市中区,西平塚町９番１４号,,34,101,7300024,,,,,,,2023-09-04,1,,,,,エヌワイサービス,0
1048,5260001038281,新規,0,2023-09-04,2023-09-04,株式会社Ｔ．工業,,株式会社,岡山県,岡山市南区,浦安西町８番地６１,,33,104,7028025,,,,,,,2023-09-04,1,,,,,ティドットコウギョウ,0
1049,5280003001764,新規,0,2023-09-04,2023-09-04,合同会社ＴＯＲＡＭＥ,,合同会社,島根県,出雲市,大社町遙堪７２番地４,,32,203,6990731,,,,,,,2023-09-04,1,,,,,トラメ,0
1053,5290001102935,新規,0,2023-09-04,2023-09-04,株式会社アセットトータルエイト,,株式会社,福岡県,福岡市早良区,賀茂２丁目２４番１７－３０８号,,40,137,8140164,,,,,,,2023-09-04,1,,,,,アセットトータルエイト,0
1056,5290003014303,新規,0,2023-09-04,2023-09-04,合同会社脱炭素マーケティング１号,,合同会社,福岡県,福岡市中央区,舞鶴２丁目２番７号２Ａ,,40,133,8100073,,,,,,,2023-09-04,1,,,,,ダツタンソマーケティングイチゴウ,0
1057,5290801029824,新規,0,2023-09-04,2023-09-04,小代設備株式会社,,株式会社,福岡県,北九州市小倉南区,下吉田４丁目１６番１８号,,40,107,8000203,,,,,,,2023-09-04,1,,,,,ショウダイセツビ,0
1058,5290801029832,新規,0,2023-09-04,2023-09-04,株式会社北九州買取センター,,株式会社,福岡県,北九州市八幡西区,穴生４丁目９番３－１１０１号,,40,109,8060049,,,,,,,2023-09-04,1,,,,,キタキュウシュウカイトリセンター,0
1059,5290801029849,新規,0,2023-09-04,2023-09-04,株式会社ユアネクサス,,株式会社,福岡県,北九州市小倉南区,沼南町１丁目３番９－３１０号,,40,107,8000205,,,,,,,2023-09-04,1,,,,,ユアネクサス,0
1063,5330001031205,新規,0,2023-09-04,2023-09-04,株式会社梨の花,,株式会社,熊本県,荒尾市,宮内出目１１８０番１,,43,204,8640003,,,,,,,2023-09-04,1,,,,,ナシノハナ,0
1065,5340001025866,新規,0,2023-09-04,2023-09-04,株式会社三洋エステート,,株式会社,鹿児島県,薩摩川内市,樋脇町塔之原１４５５番地２,,46,215,8951202,,,,,,,2023-09-04,1,,,,,サンヨウエステート,0
1067,5340003004240,新規,0,2023-09-04,2023-09-04,丸福総業合同会社,,合同会社,鹿児島県,鹿屋市,今坂町１２５６３番地７,,46,203,8930057,,,,,,,2023-09-04,1,,,,,マルフクソウギョウ,0
1078,5410003003838,新規,0,2023-09-04,2023-09-04,ＢＡＳＢＷ合同会社,,合同会社,秋田県,鹿角市,花輪字下花輪３３番地２鹿角市まちなかオフィス,,05,209,0185201,,,,,,,2023-09-04,1,,,,,バスブー,0
1085,5430001089893,新規,0,2023-09-04,2023-09-04,株式会社アルファヴィル,,株式会社,北海道,札幌市中央区,北三条東５丁目５番地岩佐ビル３Ｆ,,01,101,0600033,,,,,,,2023-09-04,1,,,,,アルファヴィル,0
1088,5430003015393,新規,0,2023-09-04,2023-09-04,合同会社咲雪,,合同会社,北海道,札幌市北区,北七条西６丁目１番地１チュリス札幌第２－４０１号,,01,102,0600807,,,,,,,2023-09-04,1,,,,,サユキ,0
1089,5430003015402,新規,0,2023-09-04,2023-09-04,合同会社アリアド,,合同会社,北海道,札幌市白石区,菊水元町三条１丁目３番８号アステルコート４０５号,,01,104,0030823,,,,,,,2023-09-04,1,,,,,アリアド,0
1090,5430005014765,新規,0,2023-09-04,2023-09-04,一般社団法人さーもんず,,その他の設立登記法人,北海道,札幌市中央区,南六条西２１丁目１番１２－４０３号,,01,101,0640806,,,,,,,2023-09-04,1,,,,,サーモンズ,0
1093,5460001005823,新規,0,2023-09-04,2023-09-04,エヌケー工業株式会社,,株式会社,北海道,釧路郡釧路町,桂２丁目２６番地１,,01,661,0880626,,,,,,,2023-09-04,1,,,,,エヌケーコウギョウ,0
1100,5500001025172,新規,0,2023-09-04,2023-09-04,株式会社チームボンド,,株式会社,愛媛県,松山市,久米窪田町３３７番地１,,38,201,7911101,,,,,,,2023-09-04,1,,,,,,0
1101,5700150119713,新規,0,2023-09-04,2023-09-04,Ｑｕａｎ　Ｚｈｏｕ　Ｚｈｕ　Ｍｏ　Ｍａｏ　Ｙｉ　Ｙｏｕ　Ｘｉａｎ　Ｇｏｎｇ　Ｓｉ,,外国会社等,,,,,,,,Ｒｏｏｍ　１１０５，Ｂｕｉｌｄｉｎｇ　２，Ｚｈｏｎｇｊｕｎ　Ｙｏｎｇｊｉｎｇｔａｉ，Ｎｏ．３００，Ｔｉｙｕ　Ｓｔ　Ｔｏｎｇｙｕａｎ　Ｃｏｍｍｕｎｉｔｙ，Ｃｈｅｎｇｄｏｎｇ　Ｓｔｒｅｅｔ，Ｆｅｎｇｚｅ　Ｄｉｓｔｒｉｃｔ　Ｑｕａｎｚｈｏｕ　Ｆｕｊｉａｎ　ＣＮ,,,,,,2023-09-04,1,,,,,チゥアンヂョウヂュモマオイユウゲンコウシ,0
1102,5700150119721,新規,0,2023-09-04,2023-09-04,Ｈａｎｇｚｈｏｕ　ｑｉａｎｃｈｏｎｇｗａｎａｉｘｉｎｘｉｊｉｓｈｕ　ｙｏｕｘｉａｎｇｏｎｇｓｉ,,外国会社等,,,,,,,,ｚｈｅｊｉａｎｇｓｈｅｎｇ　ｈａｎｇｚｈｏｕｓｈｉ　ｙｕｈａｎｇｑｕ　ｙｕｈａｎｇｊｉｅｄａｏ　ｗｅｎｙｉｘｉｌｕ　１８１８－２ｈａｏ　１ｚｈｕａｎｇ　１０８－７ｓｈｉ,,,,,,2023-09-04,1,,,,,ハンゾォウチェンツオンワンアイシンシジスユウゲンコウシ,0
1103,5700150119738,新規,0,2023-09-04,2023-09-04,ｓｈａｎｇｈａｉｙａｌａｍａｉｔａｋｅｊｉｙｏｕｘｉａｎｇｏｎｇｓｉ,,外国会社等,,,,,,,,Ｌａｎｅ　６０５５．Ｊｉｎｈａｉ　Ｒｄ．Ｂｕｉｌｄｉｎｇ　Ｎｏ．１１．５　Ｆｌｏｏｒ　Ｆｅｎｇｘｉａｎ　Ｄｉｓｔｒｉｃｔ　Ｓｈａｎｇｈａｉ,,,,,,2023-09-04,1,,,,,シャンハイガラマイタカギユウゲンコウシ,0
1104,5700150119746,新規,0,2023-09-04,2023-09-04,ｓｈｅｎｚｈｅｎｓｈｉｗｅｉｓｈｉｊｉｄｉａｎｚｉｓｈａｎｇｗｕｙｏｕｘｉａｎｇｏｎｇｓｉ,,外国会社等,,,,,,,,ｌｏｎｇｇａｎｇ　ｐｉｎｇｈｕｊｉｅｄａｏｈｅｈｕａｓｈｅｑｕ　ｈｕａｎａｎｄａｄａｏｙｉｈａｏ　ｈｕａｎａｎｃｈｅｎｇｈｕａｎｑｉｕｗｕｌｉｕｚｈｏｎｇｘｉｎ６２０　ｓｈｅｎｚｈｅｎ,,,,,,2023-09-04,1,,,,,シンセンシイセイキデンシショウムユウゲンコウシ,0
1105,5700150119754,新規,0,2023-09-04,2023-09-04,ＧｕａｎｇＺｈｏｕ　ＺｈｕｏＬｉ　Ｃｈｕａｎｇ　Ｘｉｎ　Ｋｅ　Ｊｉ　Ｙｏｕ　Ｘｉａｎ　Ｇｏｎｇ　Ｓｉ,,外国会社等,,,,,,,,８０３，１ｓｔ　Ｂｕｉｌｄｉｎｇ，２０２　Ｗａｎｂｏ　２　Ｒｏａｄ　Ｎａｎｃｕｎ　Ｔｏｗｎ，Ｐａｎｙｕ　Ｄｉｓｔｒｉｃｔ　Ｇｕａｎｇ　Ｚｈｏｕ　Ｇｕａｎｇ　Ｄｏｎｇ　５１００００　ＣＮ,,,,,,2023-09-04,1,,,,,グワンジョウジュオリーチュワンシンコージーヨウシエンゴンスー,0
1106,5700150119762,新規,0,2023-09-04,2023-09-04,ＦｏＳｈａｎＳｈｉＡｏＥｒＫｅＫｅＪｉＹｏｕＸｉａｎＧｏｎｇＳｉ,,外国会社等,,,,,,,,ｆｏｓｈａｎｓｈｉｃｈａｎｃｈｅｎｇｑｕｃｈｅｎｇｍｅｎｔｏｕｌｕ１８ｈａｏ１９０７、１９０８ｓｈｉＢ２００ｈａｏ（ｚｈｕｓｕｏｓｈｅｎｂａｏ）,,,,,,2023-09-04,1,,,,,フォーシャンシーアオアーコーコージーヨウシエンゴンスー,0
1107,5700150119770,新規,0,2023-09-04,2023-09-04,Ｓｈｅｎｚｈｅｎ　Ａｇｅｘｉｎｇ　Ｅｌｅｃｔｒｏｎｉｃ　Ｃｏｍｍｅｒｃｅ　Ｃｏ．，Ｌｔｄ,,外国会社等,,,,,,,,ＮＡＮＳＨＡＮＱＵ　ＹＵＥＨＡＩＪＩＥＤＡＯ　ＫＥＪＩＹＵＡＮ　ＳＨＥＱＵ　ＫＥＨＵＩＬＵ　１　ＨＡＯ　ＰＥＩＨＯＮＧＤＡＳＨＡ　Ｂ０３　ＳＨＥＮＺＨＥＮ　ＣＨＩＮＡ　　　,,,,,,2023-09-04,1,,,,,シンセンアゲシンエレクトロニックコマースカンパニーリミテッド,0
1116,6010001238120,新規,0,2023-09-04,2023-09-04,株式会社セカンドフィールドジャパン,,株式会社,東京都,中央区,東日本橋３丁目３番１４号,,13,102,1030004,,,,,,,2023-09-04,1,,,,,セカンドフィールドジャパン,0
1117,6010001238137,新規,0,2023-09-04,2023-09-04,ＪＩＢｒｉｄｇｅ株式会社,,株式会社,東京都,文京区,白山１丁目６番１０号,,13,105,1130001,,,,,,,2023-09-04,1,,,,,ジェーアイブリッジ,0
1119,6010005037188,新規,0,2023-09-04,2023-09-04,特定非営利活動法人子どものための味覚の伝承,,その他の設立登記法人,東京都,千代田区,平河町１丁目３番６号ＢＩＺＭＡＲＫＳ麹町３０６,,13,101,1020093,,,,,,,2023-09-04,1,,,,,コドモノタメノミカクノデンショウ,0
1122,6010401176861,新規,0,2023-09-04,2023-09-04,Ｂｌｕｅ＆Ｂｌｉｓｓ株式会社,,株式会社,東京都,港区,南青山３丁目１番３６号青山丸竹ビル６Ｆ,,13,103,1070062,,,,,,,2023-09-04,1,,,,,ブルーアンドブリス,0
1123,6010401176886,新規,0,2023-09-04,2023-09-04,株式会社ＷＩＬＬｓ,,株式会社,東京都,港区,海岸３丁目１６番１号,,13,103,1080022,,,,,,,2023-09-04,1,,,,,ウィルズ,0
1124,6010403030843,新規,0,2023-09-04,2023-09-04,アイドニクス合同会社,,合同会社,東京都,港区,白金２丁目３番２３－４０７号,,13,103,1080072,,,,,,,2023-09-04,1,,,,,アイドニクス,0
1125,6010403030876,新規,0,2023-09-04,2023-09-04,合同会社Ａｓｋａ　Ｉｎｔｅｌｌｉｇｅｎｃｅ,,合同会社,東京都,港区,浜松町２丁目２－１５,,13,103,1050013,,,,,,,2023-09-04,1,,,,,アスカインテリジェンス,0
1128,6010505003441,新規,0,2023-09-04,2023-09-04,一般社団法人浅草こども歌舞伎・伝統舞踊振興会,,その他の設立登記法人,東京都,台東区,三筋１丁目３番６号吉村ビル２Ｆ,00131760,13,106,1110055,,,,,,,2023-09-04,1,,,,,アサクサコドモカブキデントウブヨウシンコウカイ,0
1133,6010701044784,新規,0,2023-09-04,2023-09-04,株式会社マラカル,,株式会社,東京都,品川区,東大井１丁目１４番２４－８２７号,,13,109,1400011,,,,,,,2023-09-04,1,,,,,マラカル,0
1149,6011001156675,新規,0,2023-09-04,2023-09-04,株式会社ＷＡＨ,,株式会社,東京都,渋谷区,神宮前２丁目１３－７,,13,113,1500001,,,,,,,2023-09-04,1,,,,,ワァ,0
1150,6011001156700,新規,0,2023-09-04,2023-09-04,株式会社ＹＡＷ,,株式会社,東京都,目黒区,中央町１丁目３番２号ダイアン目黒ビル４Ｆ,,13,110,1520001,,,,,,,2023-09-04,1,,,,,ヤウ,0
1151,6011001156709,新規,0,2023-09-04,2023-09-04,株式会社Ｋｏｎｇａｎ,,株式会社,東京都,目黒区,中目黒３丁目６番１号千陽アポロンビル４Ｆ,,13,110,1530061,,,,,,,2023-09-04,1,,,,,コンガン,0
1158,6011003017462,新規,0,2023-09-04,2023-09-04,マーケティングハック合同会社,,合同会社,東京都,渋谷区,神宮前６丁目２３番４号桑野ビル２階,,13,113,1500001,,,,,,,2023-09-04,1,,,,,マーケティングハック,0
1160,6011301028979,新規,0,2023-09-04,2023-09-04,株式会社ＣＯＰ,,株式会社,東京都,杉並区,高井戸東２丁目２９－２３,,13,115,1680072,,,,,,,2023-09-04,1,,,,,シーオーピー,0
1161,6011305002930,新規,0,2023-09-04,2023-09-04,一般社団法人ＴＯＭＯ　Ｇｌｏｂａｌ　Ｈｅａｌｔｈ,,その他の設立登記法人,東京都,杉並区,天沼２丁目４２番２６号,,13,115,1670032,,,,,,,2023-09-04,1,,,,,トモグローバルヘルス,0
1163,6011403004093,新規,0,2023-09-04,2023-09-04,Ｐｉｉｉｉｉ合同会社,,合同会社,東京都,板橋区,向原３丁目２－４サンヒルズ向原Ａ３０７号室,,13,119,1730036,,,,,,,2023-09-04,1,,,,,フィー,0
1169,6011701026558,新規,0,2023-09-04,2023-09-04,株式会社カイセイ,,株式会社,東京都,江戸川区,松島２丁目３３－１０第二平和荘１０４号室,,13,123,1320031,,,,,,,2023-09-04,1,,,,,カイセイ,0
1175,6013303006756,新規,0,2023-09-04,2023-09-04,Ｅｌｅｃｔｒｉｃ　Ｂａｇｅｌ合同会社,,合同会社,東京都,豊島区,南大塚１丁目６０番２０号天翔大塚駅前ビルＳ５０８号,,13,116,1700005,,,,,,,2023-09-04,1,,,,,エレクトリックベーグル,0
1177,6020001153277,新規,0,2023-09-04,2023-09-04,株式会社Ｔｏｎｅｓ,,株式会社,神奈川県,横浜市西区,浅間町１丁目４番３号ウィザードビル４０２,,14,103,2200072,,,,,,,2023-09-04,1,,,,,トーンズ,0
1178,6020003024501,新規,0,2023-09-04,2023-09-04,ＨＵＯＮＧ　ＮＧＵＹＥＮ合同会社,,合同会社,神奈川県,横浜市中区,野毛町１丁目５１番地第五旭ビル５０３号室,,14,104,2310064,,,,,,,2023-09-04,1,,,,,フオングエン,0
1180,6021001080065,新規,0,2023-09-04,2023-09-04,株式会社フラッグ,,株式会社,神奈川県,大和市,中央林間１丁目１０番７号,,14,213,2420007,,,,,,,2023-09-04,1,,,,,フラッグ,0
1181,6021001080081,新規,0,2023-09-04,2023-09-04,ＮＮＡＮＮＡ　ＨＯＬＤＩＮＧＳ株式会社,,株式会社,神奈川県,横須賀市,大滝町１丁目２６番地ＮＮＡＮＮＡＴＯＷＥＲ１階,,14,201,2380008,,,,,,,2023-09-04,1,,,,,ナナーホールディングス,0
1183,6021003013527,新規,0,2023-09-04,2023-09-04,合同会社ハピリア,,合同会社,神奈川県,厚木市,戸室１丁目１０番５号ロイヤルハイツ甲子Ａ２０７,,14,212,2430031,,,,,,,2023-09-04,1,,,,,ハピリア,0
1190,6030001155479,新規,0,2023-09-04,2023-09-04,ＺＯＯＢＬＹ株式会社,,株式会社,埼玉県,さいたま市桜区,桜田２丁目８－３－１,,11,106,3380833,,,,,,,2023-09-04,1,,,,,ズブリ,0
1191,6030001155561,新規,0,2023-09-04,2023-09-04,株式会社ＦＲ建設,,株式会社,埼玉県,川口市,大字安行領根岸１８２３番地レ・セーナ２０２号,,11,203,3330834,,,,,,,2023-09-04,1,,,,,エフアールケンセツ,0
1192,6030001155594,新規,0,2023-09-04,2023-09-04,クイックラボラトリー株式会社,,株式会社,埼玉県,鴻巣市,生出塚１丁目１２番４号,,11,217,3650033,,,,,,,2023-09-04,1,,,,,クイックラボラトリー,0
1193,6030001155693,新規,0,2023-09-04,2023-09-04,株式会社ＴＳＵＫＵＹＯＭＩ,,株式会社,埼玉県,さいたま市緑区,大字大門１５６９番地２,,11,109,3360963,,,,,,,2023-09-04,1,,,,,ツクヨミ,0
1194,6030001155702,新規,0,2023-09-04,2023-09-04,株式会社ヤマダ総合研究所,,株式会社,埼玉県,川越市,的場２丁目１２番地１２,,11,201,3501101,,,,,,,2023-09-04,1,,,,,ヤマダソウゴウケンキュウショ,0
1195,6030001155710,新規,0,2023-09-04,2023-09-04,永山興業株式会社,,株式会社,埼玉県,八潮市,大字鶴ケ曽根５０５番地,,11,234,3400802,,,,,,,2023-09-04,1,,,,,ナガヤマコウギョウ,0
1205,6050003007767,新規,0,2023-09-04,2023-09-04,ＺＡＨＩＤ　ＴＲＡＤＩＮＧ合同会社,,合同会社,茨城県,坂東市,矢作５３９番地１－Ｂ,,08,228,3060624,,,,,,,2023-09-04,1,,,,,ザヒドトレーディング,0
1209,6080001025842,新規,0,2023-09-04,2023-09-04,株式会社キズナ防災,,株式会社,静岡県,静岡市駿河区,高松２丁目１７番９－３号,,22,102,4228034,,,,,,,2023-09-04,1,,,,,キズナボウサイ,0
1217,6110003005145,新規,0,2023-09-04,2023-09-04,ＨＳＰ合同会社,,合同会社,新潟県,新発田市,新富町１丁目３番６号,,15,206,9570017,,,,,,,2023-09-04,1,,,,,エイチエスピー,0
1222,6120001257695,新規,0,2023-09-04,2023-09-04,鹿鳴株式会社,,株式会社,大阪府,大阪市中央区,内本町２丁目３－１１内本町グリーンビル７Ｆ,,27,128,5400026,,,,,,,2023-09-04,1,,,,,ロクメイ,0
1223,6120001257786,新規,0,2023-09-04,2023-09-04,チャームシニアリビング株式会社,,株式会社,大阪府,大阪市北区,中之島３丁目６番３２号,,27,127,5300005,,,,,,,2023-09-04,1,,,,,チャームシニアリビング,0
1225,6120005023771,新規,0,2023-09-04,2023-09-04,一般社団法人Ｔｅｓｔｉｍｏｎｙ,,その他の設立登記法人,大阪府,大阪市東淀川区,上新庄３丁目１０番４５－２０２号,,27,114,5330006,,,,,,,2023-09-04,1,,,,,テスティモニー,0
1226,6120101068142,新規,0,2023-09-04,2023-09-04,株式会社シーバス,,株式会社,大阪府,松原市,一津屋５丁目１６の１７,,27,217,5800003,,,,,,,2023-09-04,1,,,,,シーバス,0
1231,6120901048013,新規,0,2023-09-04,2023-09-04,ＩＳＴ株式会社,,株式会社,大阪府,高槻市,郡家本町４９－２０,,27,207,5691131,,,,,,,2023-09-04,1,,,,,アイエスティ,0
1236,6122001037326,新規,0,2023-09-04,2023-09-04,株式会社葵総業,,株式会社,大阪府,東大阪市,川俣１丁目７番１７号,,27,227,5770063,,,,,,,2023-09-04,1,,,,,アオイソウギョウ,0
1241,6130001075080,新規,0,2023-09-04,2023-09-04,株式会社三貴フレンズ,,株式会社,京都府,京都市北区,大宮南椿原町２１－２,,26,101,6038402,,,,,,,2023-09-04,1,,,,,ミキフレンズ,0
1242,6130001075097,新規,0,2023-09-04,2023-09-04,株式会社ｎａｎａｉｒｏ,,株式会社,京都府,京都市中京区,壬生馬場町１番地６北浅ハイツ３０８,,26,104,6048805,,,,,,,2023-09-04,1,,,,,ナナイロ,0
1246,6160001025306,新規,0,2023-09-04,2023-09-04,株式会社池本工業,,株式会社,滋賀県,大津市,森２丁目６番２０号,,25,201,5202274,,,,,,,2023-09-04,1,,,,,イケモトコウギョウ,0
1255,6180001157857,新規,0,2023-09-04,2023-09-04,株式会社リザーブ,,株式会社,愛知県,名古屋市中川区,八田町字下長草６１５番地の８,,23,110,4540877,,,,,,,2023-09-04,1,,,,,リザーブ,0
1258,6180005020334,新規,0,2023-09-04,2023-09-04,一般社団法人Ｄｒｅａｍｂｉｇ,,その他の設立登記法人,愛知県,名古屋市昭和区,高峯町１６１番地アネシア八事高峯シティテラス７０１号,,23,107,4660811,,,,,,,2023-09-04,1,,,,,ドリームビッグ,0
1262,6200001041653,新規,0,2023-09-04,2023-09-04,株式会社リンカイ,,株式会社,岐阜県,岐阜市,芋島３丁目５番４号ル　オーブ　デラ　メゾン１０１号,,21,201,5008234,,,,,,,2023-09-04,1,,,,,リンカイ,0
1263,6200001041661,新規,0,2023-09-04,2023-09-04,株式会社ＲｉＮＵＸ,,株式会社,岐阜県,大垣市,新開町９５番地１パティオＢ２０３,,21,202,5030004,,,,,,,2023-09-04,1,,,,,リナックス,0
1264,6200001041678,新規,0,2023-09-04,2023-09-04,株式会社東海ベルテックス,,株式会社,岐阜県,大垣市,中曽根６８４番地１,,21,202,5030000,,,,,,,2023-09-04,1,,,,,トウカイベルテックス,0
1272,6250001020264,新規,0,2023-09-04,2023-09-04,株式会社ｍｉｍｉＵ,,株式会社,山口県,柳井市,柳井４７１４番地８,,35,212,7420021,,,,,,,2023-09-04,1,,,,,ミミユー,0
1273,6260001038280,新規,0,2023-09-04,2023-09-04,ネオックスプロ株式会社,,株式会社,岡山県,岡山市北区,大供２丁目５番１７号,,33,101,7000913,,,,,,,2023-09-04,1,,,,,ネオックスプロ,0
1274,6260003004413,新規,0,2023-09-04,2023-09-04,合同会社ＴＫＤエナジー,,合同会社,岡山県,岡山市南区,浜野２丁目７―１３,,33,104,7000845,,,,,,,2023-09-04,1,,,,,ティケイディエナジー,0
1276,6290001102851,新規,0,2023-09-04,2023-09-04,株式会社筑前産業,,株式会社,福岡県,福岡市城南区,飯倉１丁目５番４０号,,40,136,8140134,,,,,,,2023-09-04,1,,,,,チクゼンサンギョウ,0
1277,6290001102876,新規,0,2023-09-04,2023-09-04,テレコム株式会社,,株式会社,福岡県,福岡市中央区,荒戸２丁目１番５号４Ｆ,,40,133,8100062,,,,,,,2023-09-04,1,,,,,テレコム,0
1285,6310001018582,新規,0,2023-09-04,2023-09-04,株式会社栗原ねぎ,,株式会社,長崎県,雲仙市,国見町多比良戊１４４８番地３９,,42,213,8591325,,,,,,,2023-09-04,1,,,,,クリハラネギ,0
1286,6310001018590,新規,0,2023-09-04,2023-09-04,株式会社Ｊｓ,,株式会社,長崎県,長崎市,西山４丁目４６０番地ダイヤモンドパレスユートピアＣ－１,,42,201,8500001,,,,,,,2023-09-04,1,,,,,ジェイス,0
1288,6320001019976,新規,0,2023-09-04,2023-09-04,株式会社ジョイント工房,,株式会社,大分県,大分市,賀来南２丁目９番２３号,,44,201,8700849,,,,,,,2023-09-04,1,,,,,ジョイントコウボウ,0
1289,6320001019984,新規,0,2023-09-04,2023-09-04,株式会社ＳＳファースト,,株式会社,大分県,大分市,畑中１丁目９番７号,,44,201,8700856,,,,,,,2023-09-04,1,,,,,エスエスファースト,0
1292,6350001018546,新規,0,2023-09-04,2023-09-04,竹中総業株式会社,,株式会社,宮崎県,児湯郡都農町,大字川北１８６１８番地１０,,45,406,8891201,,,,,,,2023-09-04,1,,,,,タケナカソウギョウ,0
1301,6420003002788,新規,0,2023-09-04,2023-09-04,合同会社ｉｎｏｂａｓｅ,,合同会社,青森県,東津軽郡外ヶ浜町,字平舘根岸湯の沢６９番地３５,,02,307,0301411,,,,,,,2023-09-04,1,,,,,イノベース,0
1305,6430001089884,新規,0,2023-09-04,2023-09-04,株式会社Ｇｏｏｄ　Ｌｕｃｋ　Ｆｉｅｌｄ,,株式会社,北海道,札幌市南区,石山一条８丁目１番３５号,,01,106,0050841,,,,,,,2023-09-04,1,,,,,グッドラックフィールド,0
1306,6430001089892,新規,0,2023-09-04,2023-09-04,株式会社桜嘉,,株式会社,北海道,石狩市,樽川七条２丁目２７番地,,01,235,0613257,,,,,,,2023-09-04,1,,,,,オウカ,0
1307,6430001089901,新規,0,2023-09-04,2023-09-04,ロアエステート株式会社,,株式会社,北海道,札幌市東区,北二十七条東５丁目３番２６－１号,,01,103,0650027,,,,,,,2023-09-04,1,,,,,ロアエステート,0
1310,6430003015392,新規,0,2023-09-04,2023-09-04,合同会社ＥＡＴ‐ＨＥＡＲＴ,,合同会社,北海道,札幌市北区,新川三条１丁目２番５‐２０３号,,01,102,0010923,,,,,,,2023-09-04,1,,,,,イートハート,0
1311,6430003015401,新規,0,2023-09-04,2023-09-04,合同会社ジョイント,,合同会社,北海道,札幌市東区,東雁来九条２丁目３番１８号,,01,103,0070829,,,,,,,2023-09-04,1,,,,,ジョイント,0
1315,6460301005167,新規,0,2023-09-04,2023-09-04,株式会社北見ルーフ工業,,株式会社,北海道,北見市,北陽１４４番地２,,01,208,0900004,,,,,,,2023-09-04,1,,,,,キタミルーフコウギョウ,0
1322,6700150119712,新規,0,2023-09-04,2023-09-04,ｓｈｅｎｚｈｅｎｓｈｉ　ｌｉｙｕｅｋｅｊｉ　ｙｏｕｘｉａｎｇｏｎｇｓｉ,,外国会社等,,,,,,,,ｓｈｅｎｚｈｅｎｓｈｉ　ｇｕａｎｇｍｉｎｇｑｕ　ｇｏｎｇｍｉｎｇｊｉｅｄａｏ　ｓｈａｎｇｃｕｎｓｈｅｑｕ　ｌｉａｎｔａｎｇｇｏｎｇｙｅｃｈｅｎｇ　ｓｈａｎｇｙｕａｎｇｏｎｇｙｅｙｕａｎｄｉ５ｄｏｎｇ５０１,,,,,,2023-09-04,1,,,,,シンセンシリュユケジユウゲンコウシ,0
1323,6700150119720,新規,0,2023-09-04,2023-09-04,Ｓｈｅｎｚｈｅｎｓｈｉ　Ｌａｎｊｉｕｈｕｉ　Ｔｅｃｈｎｏｌｏｇｙ　Ｃｏ．，Ｌｔｄ,,外国会社等,,,,,,,,ｓｈｅｎｚｈｅｎｓｈｉ　ｇｕａｎｇｍｉｎｇｑｕ　ｇｏｎｇｍｉｎｇｊｉｅｄａｏ　ｓｈａｎｇｃｕｎｓｈｅｑｕ　ｌｉａｎｔａｎｇｇｏｎｇｙｅｃｈｅｎｇ　ｓｈａｎｇｙｕａｎｇｏｎｇｙｅｙｕａｎｄｉ４ｄｏｎｇ４０２,,,,,,2023-09-04,1,,,,,シンセンシランジュホゥイテクノロジーカンパニーリミテッド,0
1324,6700150119729,新規,0,2023-09-04,2023-09-04,Ｓｈｅｎｚｈｅｎｓｈｉ　Ｙａｘｉｎｆａｎｇｚｈｉｐｉｎ　ｙｏｕｘｉａｎｇｏｎｇｓｉ,,外国会社等,,,,,,,,Ｓｈｅｎｚｈｅｎｓｈｉ　Ｌｏｎｇｇａｎｇｑｕ　ｌｏｎｇｇａｎｇｊｉｅｄａｏ　ｘｉｎｓｈｅｎｇｓｈｅｑｕ　ｐｉｎｇｘｉｎａｎｌｕ１２ｈａｏ２ｄｏｎｇ２０７　５１８０００　ＣＮ,,,,,,2023-09-04,1,,,,,シンセンシヤシンファンジピンヨウシェンゴンスー,0
1325,6700150119737,新規,0,2023-09-04,2023-09-04,Ｘｉｎｈｕａ　Ｃｏｕｎｔｙ　Ｌｅｉ　Ｙｕ　ｅｌｅｃｔｒｏｎｉｃ　ｔｅｃｈｎｏｌｏｇｙ　Ｃｏ．，ＬＴＤ　　　　,,外国会社等,,,,,,,,ｚｕ０２８ｈａｏ，Ｄａｐｐｉｎｇｌｉ，Ｈｏｎｇｃｈａｏ　Ｖｉｌｌａｇｅ，Ｓａｎｇｚｉ　Ｔｏｗｎ，Ｘｉｎｈｕａ　Ｃｏｕｎｔｙ，Ｌｏｕｄｉ　Ｃｉｔｙ，Ｈｕｎａｎ　Ｐｒｏｖｉｎｃｅ　　　　,,,,,,2023-09-04,1,,,,,シンフワーシエンレイイーディエンズーコージーヨウシエンゴンスー,0
1326,6700150119745,新規,0,2023-09-04,2023-09-04,Ｄｏｎｇ　Ｇｕａｎ　Ｓｈｉ　Ｚｏｎｇ　Ｈｅｎｇ　Ｗｅｎ　Ｈｕａ　Ｃｈｕａｎ　Ｍｅｉ　Ｙｏｕ　Ｘｉａｎ　Ｇｏｎｇ　Ｓｉ,,外国会社等,,,,,,,,ｘｉｙｕｓｈｅｑｕ　ｋｅｈｕｈｕａｚｈａｍｅｎ１７ｈａｏ　ｇｕａｎｃｈｅｎｇｊｉｅｄａｏ　ｄｏｎｇｇｕａｎｓｈｉ　５２３０００　ＣＮ,,,,,,2023-09-04,1,,,,,ドングワンシーゾンホンウェンフワーチュワンメイヨウシエンゴンスー,0
1327,6700150119753,新規,0,2023-09-04,2023-09-04,Ｈｅｎａｎｗｕｗａｎｚｈｏｎｇｓｈａｎｇｍａｏｙｏｕｘｉａｎｇｏｎｇｓｉ,,外国会社等,,,,,,,,ｚｈｅｎｇｚｈｏｕｓｈｉｊｉｎｓｈｕｉｑｕｓｕｏｌｉｎｇｌｕ１ｈａｏｙｕａｎｌｉｕｈｅｚｈｉｊｉａ１ｈａｏｌｏｕ１４ｃｅｎｇ１ｈａｏ,,,,,,2023-09-04,1,,,,,ホーナンウーワンジョンシャンマオヨウシエンゴンスー,0
1328,6700150119761,新規,0,2023-09-04,2023-09-04,ｙａｎｔａｉｙｉｎｇｙｕａｎｓｈａｎｇｍａｏｙｏｕｘｉａｎｇｏｎｇｓｉ,,外国会社等,,,,,,,,ｆｕｓｈａｎｑｕｎａｎｙｕａｎｊｉｅ７６ｈａｏｓｈｉｊｉａｊｉｎｔｉｎｇ８ｈａｏ３０４　ｙａｎｔａｉ　ｓｈａｎｄｏｎｇ　２６５５００　ＣＮ,,,,,,2023-09-04,1,,,,,イエンタイインユエンシャンマオヨウシエンゴンスー,0
1338,7010401176935,新規,0,2023-09-04,2023-09-04,株式会社ＳｙｍｐａＦｉｔ,,株式会社,東京都,港区,六本木１丁目４－５アークヒルズサウスタワー１６階,,13,103,1060032,,,,,,,2023-09-04,1,,,,,シンパフィット,0
1339,7010401176951,新規,0,2023-09-04,2023-09-04,株式会社ケン・プロパティマネジメント,,株式会社,東京都,港区,西麻布１丁目３番１０号,,13,103,1060031,,,,,,,2023-09-04,1,,,,,ケンプロパティマネジメント,0
1341,7010501050981,新規,0,2023-09-04,2023-09-04,Ｍ＆ＧＯ商事株式会社,,株式会社,東京都,台東区,浅草３丁目２１－９トーラス浅草２０９号,,13,106,1110032,,,,,,,2023-09-04,1,,,,,エムアンドジーオーショウジ,0
1342,7010603010330,新規,0,2023-09-04,2023-09-04,合同会社ＷｏｏｄＷｈａｒｆ,,合同会社,東京都,墨田区,堤通１丁目１０番５号,,13,107,1310034,,,,,,,2023-09-04,1,,,,,ウッドワーフ,0
1346,7010701044767,新規,0,2023-09-04,2023-09-04,株式会社祝福之旅,,株式会社,東京都,品川区,西五反田２丁目２５－１インテックス五反田７０２号室,,13,109,1410031,,,,,,,2023-09-04,1,,,,,シュクフクノタビ,0
1358,7011001156666,新規,0,2023-09-04,2023-09-04,株式会社三原商店,,株式会社,東京都,渋谷区,神宮前３丁目３０番１２号,,13,113,1500001,,,,,,,2023-09-04,1,,,,,ミハラショウテン,0
1359,7011003017453,新規,0,2023-09-04,2023-09-04,ＤＯＴＯＷＮ合同会社,,合同会社,東京都,渋谷区,千駄ヶ谷２丁目１番８号,,13,113,1510051,,,,,,,2023-09-04,1,,,,,ドゥタウン,0
1360,7011105010760,新規,0,2023-09-04,2023-09-04,一般社団法人サイバー技術・インターネット自由研究会,,その他の設立登記法人,東京都,新宿区,北新宿１丁目３２番１８号,,13,104,1690074,,,,,,,2023-09-04,1,,,,,サイバーギジュツインターネットジユウケンキュウカイ,0
1361,7011201024895,新規,0,2023-09-04,2023-09-04,ＢＵＦＦ株式会社,,株式会社,東京都,中野区,沼袋１丁目１５－１５オーツハウス２０１,,13,114,1650025,,,,,,,2023-09-04,1,,,,,バフ,0
1364,7011503005750,新規,0,2023-09-04,2023-09-04,合同会社ＩＭＥＺ,,合同会社,東京都,北区,中里２丁目７番４号２０３,,13,117,1140015,,,,,,,2023-09-04,1,,,,,アイミージー,0
1367,7012301013565,新規,0,2023-09-04,2023-09-04,株式会社Ｏｆｆｉｃｅ　ＹＭ,,株式会社,東京都,町田市,金井６丁目２８番２８号,,13,209,1950072,,,,,,,2023-09-04,1,,,,,オフィスワイエム,0
1368,7012401040947,新規,0,2023-09-04,2023-09-04,株式会社義企画,,株式会社,東京都,府中市,白糸台１丁目１２－４Ｇ号棟,,13,206,1830011,,,,,,,2023-09-04,1,,,,,ヨシキカク,0
1370,7012801022603,新規,0,2023-09-04,2023-09-04,株式会社きつね,,株式会社,東京都,東大和市,狭山４丁目１３９７－７,,13,220,2070003,,,,,,,2023-09-04,1,,,,,キツネ,0
1374,7020001152609,新規,0,2023-09-04,2023-09-04,株式会社丸網,,株式会社,神奈川県,川崎市高津区,下作延２丁目５－４１,,14,134,2130033,,,,,,,2023-09-04,1,,,,,マルアミ,0
1375,7020001153268,新規,0,2023-09-04,2023-09-04,ｍｏｂｉｌｉｎｅｔ株式会社,,株式会社,神奈川県,横浜市保土ケ谷区,常盤台７９番５号,,14,106,2400067,,,,,,,2023-09-04,1,,,,,,0
1376,7020001153276,新規,0,2023-09-04,2023-09-04,株式会社アイバリュー,,株式会社,神奈川県,横浜市中区,福富町仲通２番地４－５０２,,14,104,2310043,,,,,,,2023-09-04,1,,,,,アイバリュー,0
1379,7020003024442,新規,0,2023-09-04,2023-09-04,合同会社ＨＥＸＡＳＥＥＤ,,合同会社,神奈川県,横浜市都筑区,茅ケ崎東５丁目９番３５号フローラＥ２０２,,14,118,2240033,,,,,,,2023-09-04,1,,,,,ヘキサシード,0
1380,7020003024500,新規,0,2023-09-04,2023-09-04,しんゆり会計合同会社,,合同会社,神奈川県,川崎市麻生区,上麻生４丁目４３番４－１０２号,,14,137,2150021,,,,,,,2023-09-04,1,,,,,シンユリカイケイ,0
1381,7020003024509,新規,0,2023-09-04,2023-09-04,合同会社義商,,合同会社,神奈川県,横浜市港北区,篠原町９５６番地９,,14,109,2220026,,,,,,,2023-09-04,1,,,,,ギショウ,0
1385,7021001080056,新規,0,2023-09-04,2023-09-04,Ｏｎｅ　Ｃｏ．株式会社,,株式会社,神奈川県,鎌倉市,二階堂３４１番地１,,14,204,2480002,,,,,,,2023-09-04,1,,,,,ワンコー,0
1395,7030001155536,新規,0,2023-09-04,2023-09-04,株式会社ＫＡＴＡＮＡ,,株式会社,埼玉県,八潮市,伊草１丁目８番地１,,11,234,3400806,,,,,,,2023-09-04,1,,,,,カタナ,0
1396,7030001155726,新規,0,2023-09-04,2023-09-04,ミヤジマ建設株式会社,,株式会社,埼玉県,蕨市,北町１丁目１４番１０号,,11,223,3350001,,,,,,,2023-09-04,1,,,,,ミヤジマケンセツ,0
1397,7030001155791,新規,0,2023-09-04,2023-09-04,株式会社Ｔ２ホーム,,株式会社,埼玉県,坂戸市,花影町２６番地４１,,11,239,3500236,,,,,,,2023-09-04,1,,,,,ティーツーホーム,0
1398,7030001155809,新規,0,2023-09-04,2023-09-04,株式会社木下設備,,株式会社,埼玉県,所沢市,大字荒幡６８１－４－１０１,,11,208,3591133,,,,,,,2023-09-04,1,,,,,キノシタセツビ,0
1403,7030003022404,新規,0,2023-09-04,2023-09-04,ＲＩＺＥ電工合同会社,,合同会社,埼玉県,越谷市,川柳町５丁目１１５番地９,,11,222,3430827,,,,,,,2023-09-04,1,,,,,ライズデンコウ,0
1407,7040001129885,新規,0,2023-09-04,2023-09-04,株式会社レッドロック,,株式会社,千葉県,千葉市中央区,栄町３３番７号,,12,101,2600016,,,,,,,2023-09-04,1,,,,,レッドロック,0
1408,7040001129893,新規,0,2023-09-04,2023-09-04,ＳＯＵＴＨ　ＧＬＯＷ株式会社,,株式会社,千葉県,船橋市,宮本２丁目１０番１０－７０３号,,12,204,2730003,,,,,,,2023-09-04,1,,,,,サウスグロー,0
1409,7040001129902,新規,0,2023-09-04,2023-09-04,株式会社Ｂｅｙｏｎｄ　Ｄｒｅａｍ　Ｔｒａｖｅｌ,,株式会社,千葉県,船橋市,湊町１丁目２０番３－２０２号,,12,204,2730011,,,,,,,2023-09-04,1,,,,,ビヨンドドリームトラベル,0
1412,7040003023228,新規,0,2023-09-04,2023-09-04,合同会社Ｃｏｌｏｒ　Ｚｏｎｅ,,合同会社,千葉県,松戸市,新松戸５丁目１中央パークハウスＤ－１０５,,12,207,2700034,,,,,,,2023-09-04,1,,,,,カラーゾーン,0
1415,7050001053366,新規,0,2023-09-04,2023-09-04,ＷＡＺＡＲＡＴ　ＴＲＡＤＩＮＧ株式会社,,株式会社,茨城県,古河市,尾崎２６３２番地５０,,08,204,3060101,,,,,,,2023-09-04,1,,,,,ワザラットトレーディング,0
1416,7050001053374,新規,0,2023-09-04,2023-09-04,ＨＴ　ＳＨＯＫＡＩ株式会社,,株式会社,茨城県,古河市,大和田１１４１番地,,08,204,3060111,,,,,,,2023-09-04,1,,,,,エイチティーショウカイ,0
1420,7060001036295,新規,0,2023-09-04,2023-09-04,株式会社エビデンス・ベースト,,株式会社,栃木県,那須塩原市,沓掛１丁目１２番地２Ｒｅ：ｏＳｏｕｔｈ１０３号室,,09,213,3293133,,,,,,,2023-09-04,1,,,,,エビデンスベースト,0
1423,7070001040809,新規,0,2023-09-04,2023-09-04,株式会社ＳＵＮＢＥＥ‐ｐｌｕｓ,,株式会社,群馬県,伊勢崎市,三光町１１番７号,,10,204,3720046,,,,,,,2023-09-04,1,,,,,,0
1425,7070003005058,新規,0,2023-09-04,2023-09-04,合同会社木村綜合事務所,,合同会社,群馬県,桐生市,境野町６丁目５２７番地３,,10,203,3760002,,,,,,,2023-09-04,1,,,,,キムラソウゴウジムショ,0
1426,7070003005082,新規,0,2023-09-04,2023-09-04,合同会社ＵＥＳＨＩＭＡ,,合同会社,群馬県,高崎市,上佐野町１１７－１,,10,202,3700857,,,,,,,2023-09-04,1,,,,,,0
1427,7080001025841,新規,0,2023-09-04,2023-09-04,九創エンジニアリング株式会社,,株式会社,静岡県,島田市,道悦島２４９番地の２,,22,209,4270014,,,,,,,2023-09-04,1,,,,,キュウソウエンジニアリング,0
1430,7080401026704,新規,0,2023-09-04,2023-09-04,株式会社クラ・メディ,,株式会社,静岡県,浜松市中区,田町２３０番地の１５,,22,131,4300944,,,,,,,2023-09-04,1,,,,,クラメディ,0
1432,7100001036729,新規,0,2023-09-04,2023-09-04,昇龍旅遊株式会社,,株式会社,長野県,北安曇郡白馬村,大字北城１番地１５,,20,485,3999301,,,,,,,2023-09-04,1,,,,,ショウリュウリョユウ,0
1437,7110001037817,新規,0,2023-09-04,2023-09-04,ｃｒａｆｔｓｍａｎ株式会社,,株式会社,新潟県,新潟市北区,内島見８０７番地６,,15,101,9503306,,,,,,,2023-09-04,1,,,,,クラフトマン,0
1440,7120001257785,新規,0,2023-09-04,2023-09-04,千本株式会社,,株式会社,大阪府,大阪市西成区,千本北１丁目１２番９号,,27,122,5570053,,,,,,,2023-09-04,1,,,,,センボン,0
1441,7120101068125,新規,0,2023-09-04,2023-09-04,株式会社ＭＩＣＨＩ,,株式会社,大阪府,堺市北区,長曽根町３番地シュライククリエイティブセンター８０１号室,,27,146,5918025,,,,,,,2023-09-04,1,,,,,ミチ,0
1442,7120101068133,新規,0,2023-09-04,2023-09-04,株式会社Ｄｏｕｂｌｅ　Ｏｎｅ,,株式会社,大阪府,和泉市,平井町２９３－７,,27,219,5941115,,,,,,,2023-09-04,1,,,,,ダブルワン,0
1443,7120101068141,新規,0,2023-09-04,2023-09-04,株式会社Ｄｅｃｉｄｅ,,株式会社,大阪府,堺市中区,深阪１丁６番１７号,,27,142,5998253,,,,,,,2023-09-04,1,,,,,ディサイド,0
1444,7120101068158,新規,0,2023-09-04,2023-09-04,株式会社ＡＫＯＮＩ,,株式会社,大阪府,堺市中区,土師町３丁２９番２８号,,27,142,5998238,,,,,,,2023-09-04,1,,,,,アコニ,0
1446,7120103005407,新規,0,2023-09-04,2023-09-04,あいいろ合同会社,,合同会社,大阪府,堺市堺区,神保通１番４号,,27,141,5900056,,,,,,,2023-09-04,1,,,,,アイイロ,0
1447,7120901048012,新規,0,2023-09-04,2023-09-04,株式会社ベイファーマ,,株式会社,大阪府,豊中市,庄内栄町４丁目１４番１１号,,27,203,5610834,,,,,,,2023-09-04,1,,,,,ベイファーマ,0
1448,7120901048020,新規,0,2023-09-04,2023-09-04,ラズライト株式会社,,株式会社,大阪府,豊中市,利倉２丁目４番１６号,,27,203,5610845,,,,,,,2023-09-04,1,,,,,ラズライト,0
1450,7122001037325,新規,0,2023-09-04,2023-09-04,ＴｅｄｄｙＣｒａｆｔＪａｐａｎ株式会社,,株式会社,大阪府,東大阪市,衣摺６丁目６番６号,,27,227,5770827,,,,,,,2023-09-04,1,,,,,テディクラフトジャパン,0
1461,7150003003053,新規,0,2023-09-04,2023-09-04,合同会社福田興産,,合同会社,奈良県,橿原市,北八木町１丁目４番２１号,,29,205,6340005,,,,,,,2023-09-04,1,,,,,フクダコウサン,0
1465,7170001017771,新規,0,2023-09-04,2023-09-04,なつめ株式会社,,株式会社,和歌山県,和歌山市,西高松２丁目１２番８号,,30,201,6410051,,,,,,,2023-09-04,1,,,,,ナツメ,0
1474,7180003025706,新規,0,2023-09-04,2023-09-04,どろぬま合同会社,,合同会社,愛知県,名古屋市中区,大須２丁目２０番２８号,,23,106,4600011,,,,,,,2023-09-04,1,,,,,ドロヌマ,0
1479,7200001041652,新規,0,2023-09-04,2023-09-04,株式会社デザインＬ,,株式会社,岐阜県,岐阜市,薮田南１丁目７ー１６第一岐阜県ビル７０７,,21,201,5008384,,,,,,,2023-09-04,1,,,,,デザインエル,0
1480,7200001041660,新規,0,2023-09-04,2023-09-04,株式会社ＴＨＹＭＥ　ＬＡＢ．,,株式会社,岐阜県,羽島郡岐南町,徳田３丁目２４９番地１プレアビル１階,,21,302,5016016,,,,,,,2023-09-04,1,,,,,タイムラボ,0
1484,7220001025587,新規,0,2023-09-04,2023-09-04,株式会社ＬＳＫワークス,,株式会社,石川県,金沢市,高畠３丁目１２４番地五高ビル,,17,201,9218001,,,,,,,2023-09-04,1,,,,,エルエスケーワークス,0
1489,7250001020263,新規,0,2023-09-04,2023-09-04,ＥＫ　Ｔｒａｄｉｎｇ株式会社,,株式会社,山口県,美祢市,大嶺町奥分１６６９番地,,35,213,7592214,,,,,,,2023-09-04,1,,,,,イーケートレーディング,0
1492,7260003004412,新規,0,2023-09-04,2023-09-04,合同会社ライジング,,合同会社,岡山県,倉敷市,羽島１０７４番地１フローレンス倉敷羽島４０３号,,33,202,7100043,,,,,,,2023-09-04,1,,,,,ライジング,0
1497,7290001102859,新規,0,2023-09-04,2023-09-04,株式会社小宮建設,,株式会社,福岡県,福岡市早良区,内野７丁目２４番１０号,,40,137,8111123,,,,,,,2023-09-04,1,,,,,コミヤケンセツ,0
1505,7310001018581,新規,0,2023-09-04,2023-09-04,颯志工業株式会社,,株式会社,長崎県,西彼杵郡長与町,吉無田郷１２２１番地２３６,,42,307,8512126,,,,,,,2023-09-04,1,,,,,ソウシコウギョウ,0
1506,7320001019975,新規,0,2023-09-04,2023-09-04,株式会社植木建商,,株式会社,大分県,大分市,政所２丁目４番６－１号,,44,201,8700268,,,,,,,2023-09-04,1,,,,,ウエキケンショウ,0
1509,7330001031203,新規,0,2023-09-04,2023-09-04,株式会社成寿,,株式会社,熊本県,宇城市,三角町三角浦１１６０番地１７１伊藤ビル二階,,43,213,8693207,,,,,,,2023-09-04,1,,,,,セイジュ,0
1521,7390001017361,新規,0,2023-09-04,2023-09-04,株式会社ｌｉｂｅｒｔｅ,,株式会社,山形県,酒田市,若原町３番２６号,,06,204,9980833,,,,,,,2023-09-04,1,,,,,リベルテ,0
1525,7430001089891,新規,0,2023-09-04,2023-09-04,株式会社ＮＩＮＥ,,株式会社,北海道,札幌市南区,真駒内３３２番地２５８,,01,106,0050861,,,,,,,2023-09-04,1,,,,,ナイン,0
1526,7430001089900,新規,0,2023-09-04,2023-09-04,株式会社ＲＫＳホーム,,株式会社,北海道,札幌市白石区,平和通５丁目北７番１０－３０１号,,01,104,0030029,,,,,,,2023-09-04,1,,,,,アールケーエスホーム,0
1530,7430003015400,新規,0,2023-09-04,2023-09-04,合同会社グッドラック,,合同会社,北海道,札幌市北区,北十一条西１丁目２番１９－２０２号,,01,102,0010011,,,,,,,2023-09-04,1,,,,,グッドラック,0
1532,7460301005166,新規,0,2023-09-04,2023-09-04,株式会社ゆめきた,,株式会社,北海道,北見市,美芳町９丁目１番１７号,,01,208,0900064,,,,,,,2023-09-04,1,,,,,ユメキタ,0
1535,7480005006979,新規,0,2023-09-04,2023-09-04,特定非営利活動法人こころのベース,,その他の設立登記法人,徳島県,徳島市,東吉野町１丁目３番地８なかむらクリニック内,,36,201,7700811,,,,,,,2023-09-04,1,,,,,ココロノベース,0
1537,7490001010570,新規,0,2023-09-04,2023-09-04,株式会社ＯＶＥＲ　ＬＡＰ,,株式会社,高知県,高知市,中の島１番４６号,,39,201,7810831,,,,,,,2023-09-04,1,,,,,オーバーラップ,0
1540,7500001025170,新規,0,2023-09-04,2023-09-04,徳盛総合開発株式会社,,株式会社,愛媛県,西条市,小松町新屋敷甲２４４３番地２,,38,206,7991101,,,,,,,2023-09-04,1,,,,,トクセイソウゴウカイハツ,0
1541,7700150119711,新規,0,2023-09-04,2023-09-04,ｃｈｅｎｇｄｕ　ｙａｏｈａｏｘｉｎｓｈａｎｇｍａｏ　ｙｏｕｘｉａｎｇｏｎｇｓｉ,,外国会社等,,,,,,,,ＪｉｎＮｉｕＱｕ　ＸｉＴｉＬｕ　５Ｈａｏ１９Ｄｏｎｇ１Ｃｅｎｇ　ｃｈｅｎｇｄｕ　ｓｉｃｈｕａｎ,,,,,,2023-09-04,1,,,,,チェンドウヤオハオシンシャンマオユウゲンコウシ,0
1542,7700150119728,新規,0,2023-09-04,2023-09-04,ｈｕ　ｂｅｉ　ｃｏｎｇ　ｃｈｕｎ　ｄｉａｎ　ｚｉ　ｓｈａｎｇ　ｗｕ　ｙｏｕ　ｘｉａｎ　ｇｏｎｇ　ｓｉ,,外国会社等,,,,,,,,ｌｉｎｊｉａｗａｎｘｉａｏｑｕｎａｎ５０ｍｉ　ｈｕａｎｇｇａｎｇｓｈｉ　ｍａｃｈｅｎｇｓｈｉｆｕｔｉａｎｈｅｚｈｅｎ　ｈｕｂｅｉｓｈｅｎｇ,,,,,,2023-09-04,1,,,,,コホクソウジュンデンシショウムユウゲンコウシ,0
1543,7700150119736,新規,0,2023-09-04,2023-09-04,Ｆｕｓｌｉｔｅ（ＺｈａｎｇＺｈｏｕ）Ｈｏｍｅ　Ｔｅｃｈｎｏｌｏｇｙ　Ｃｏ．，Ｌｔｄ．,,外国会社等,,,,,,,,Ｎｏ．７　Ｊｉｎｈｕａ　Ｒｏａｄ，Ｘｉａｎｇｃｈｅｎｇ　Ｄｉｓｔｒｉｃｔ，Ｚｈａｎｇｚｈｏｕ　Ｃｉｔｙ，Ｆｕｊｉａｎ　Ｐｒｏｖｉｎｃｅ,,,,,,2023-09-04,1,,,,,フーシーリータージャンジョウジャージーコージーヨウシエンゴンスー,0
1544,7700150119744,新規,0,2023-09-04,2023-09-04,ＳｈｅｎＺｈｅｎＳｈｉＸｉＬｅｉＫｅＪｉＹｏｕＸｉａｎＧｏｎｇＳｉ,,外国会社等,,,,,,,,Ｎｏ．１００３，Ｓｈｅｎｎａｎ　Ａｖｅｎｕｅ，Ｇａｎｇｘｉａ　Ｃｏｍｍｕｎｉｔｙ，Ｆｕｔｉａｎ　Ｓｔｒｅｅｔ　Ｏｒｉｅｎｔａｌ　Ｘｉｎｔｉａｎｄｉ　Ｐｌａｚａ　１８０８Ｃ６　Ｓｈｅｎｚｈｅｎ,,,,,,2023-09-04,1,,,,,シンセンシシライカギユウゲンコウシ,0
1545,7700150119752,新規,0,2023-09-04,2023-09-04,ＪＩＡＮＧＸＩＢＡＩＹＩＮＧＧＡＯＸＩＮＪＩＳＨＵＧＵＦＥＮＹＯＵＸＩＡＮＧＯＮＧＳＩ,,外国会社等,,,,,,,,ＹＵ　ＪＩＡＮＧ　ＸＩＡＮ　ＧＯＮＧ　ＹＥ　ＹＵＡＮ　ＱＵ　ＹＩＮＧ　ＴＡＮ　ＳＨＩ　ＪＩＡＮＧ　ＸＩ　ＳＨＥＮＧ　ＣＮ,,,,,,2023-09-04,1,,,,,コウセイバイエイコウシンギジュツコフンユウゲンコウシ,0
1546,7700150119760,新規,0,2023-09-04,2023-09-04,Ｓｈｅｎｚｈｅｎｓｈｉ　Ｆｅｉｙｉｎｇｔｅｎｇｍａｏ　Ｓｈｉｙｅ　Ｙｏｕｘｉａｎｇｏｎｇｓｉ,,外国会社等,,,,,,,,Ｄｏｎｇｘｕｄａｓｈａ　３０２　Ｌｏｎｇｈｕａｑｕ　Ｌｏｎｇｈｕａｊｉｅｄａｏ　Ｆｕｋａｎｇｓｈｅｑｕ　Ｍｉｎｈｕａｎｌｕ　４ｈａｏ　Ｓｈｅｎｚｈｅｎ　Ｇｕａｎｇｄｏｎｇ　５１８１１０　ＣＮ,,,,,,2023-09-04,1,,,,,シェンジェンシーフェイイントンマオシーイエヨウシエンゴンスー,0
1547,7700150119769,新規,0,2023-09-04,2023-09-04,ｄａｌｉａｎ　ｍａｉｋｅｌｉａｎｈｅｊｉｘｉｅｇｏｎｇｙｅ　ｙｏｕｘｉａｎｇｏｎｇｓｉ　　　　,,外国会社等,,,,,,,,Ｈｏｕｇｅｊｉｅ　４２５ｈａｏ　Ｄａｌｉａｎ，Ｌｉａｏｎｉｎｇ，Ｇａｎｊｉｎｇｚｉｑｕ　Ｃｈｉｎａ　　　　,,,,,,2023-09-04,1,,,,,ダーリェンマイケレンヘジシェゴンイェユウゲンコウシ,0
1550,8010001238069,新規,0,2023-09-04,2023-09-04,オーシャンボルケーノブルワリー株式会社,,株式会社,東京都,三宅島三宅村,神着１０９４番地１,,13,381,1001101,,,,,,,2023-09-04,1,,,,,オーシャンボルケーノブルワリー,0
1551,8010001238151,新規,0,2023-09-04,2023-09-04,株式会社海昌,00131747,株式会社,東京都,中央区,築地５丁目４番１９号,,13,102,1040045,,,,,,,2023-09-04,1,,,,,カイショー,0
1554,8010005037186,新規,0,2023-09-04,2023-09-04,一般社団法人ＺＥＮＳＨＩＮ,,その他の設立登記法人,東京都,文京区,向丘２丁目１９番１号,,13,105,1130023,,,,,,,2023-09-04,1,,,,,,0
1555,8010401176835,新規,0,2023-09-04,2023-09-04,リリークラウン株式会社,,株式会社,東京都,港区,虎ノ門４丁目１番１号２３階,,13,103,1050001,,,,,,,2023-09-04,1,,,,,リリークラウン,0
1556,8010401176868,新規,0,2023-09-04,2023-09-04,高和ホールディングス株式会社,,株式会社,東京都,港区,赤坂３丁目２１番８号,,13,103,1070052,,,,,,,2023-09-04,1,,,,,コウワホールディングス,0
1557,8010401176884,新規,0,2023-09-04,2023-09-04,株式会社ＴｆＳ,,株式会社,東京都,港区,南青山４丁目１番１５号ベルテ南青山８０２,,13,103,1070062,,,,,,,2023-09-04,1,,,,,ティーエフエス,0
1561,8010403030882,新規,0,2023-09-04,2023-09-04,Ｅｘｉｓｔ合同会社,,合同会社,東京都,港区,六本木７丁目１番１４号,,13,103,1060032,,,,,,,2023-09-04,1,,,,,イグジスト,0
1565,8010701044782,新規,0,2023-09-04,2023-09-04,ジンベエザメ株式会社,,株式会社,東京都,品川区,西品川１丁目１番１号住友不動産大崎ガーデンタワー９階トンネル東京,,13,109,1410033,,,,,,,2023-09-04,1,,,,,ジンベエザメ,0
1566,8010703006847,新規,0,2023-09-04,2023-09-04,合同会社クリニックワークス,,合同会社,東京都,品川区,北品川５丁目１５番９号,,13,109,1410001,,,,,,,2023-09-04,1,,,,,クリニックワークス,0
1571,8010903008420,新規,0,2023-09-04,2023-09-04,合同会社ＫＨＫ,,合同会社,東京都,世田谷区,砧７丁目１８番２６－１１０７号,,13,112,1570073,,,,,,,2023-09-04,1,,,,,ケイエイチケイ,0
1575,8011001156599,新規,0,2023-09-04,2023-09-04,株式会社Ｑｕｏｒｅ,,株式会社,東京都,目黒区,青葉台３丁目６－１３－２０１,,13,110,1530042,,,,,,,2023-09-04,1,,,,,クオーレ,0
1582,8011703003578,新規,0,2023-09-04,2023-09-04,大輝合同会社,,合同会社,東京都,江戸川区,小松川３丁目１１番１－８０６号,,13,123,1320034,,,,,,,2023-09-04,1,,,,,ダイキ,0
1591,8012401040954,新規,0,2023-09-04,2023-09-04,株式会社ライフパフォーマンス,,株式会社,東京都,府中市,小柳町３丁目１７番地の１、２１２,,13,206,1830013,,,,,,,2023-09-04,1,,,,,ライフパフォーマンス,0
1597,8013103001261,新規,0,2023-09-04,2023-09-04,合同会社セイアラキ,,合同会社,東京都,あきる野市,草花１０６９番地４,,13,228,1970802,,,,,,,2023-09-04,1,,,,,,0
1605,8020001153267,新規,0,2023-09-04,2023-09-04,匠ＤＥＳＩＧＮ株式会社,,株式会社,神奈川県,横浜市中区,尾上町３丁目４３番地横浜パークサイド関内７Ｆ－Ａ,,14,104,2310015,,,,,,,2023-09-04,1,,,,,タクミデザイン,0
1606,8020001153275,新規,0,2023-09-04,2023-09-04,ＳＰＡＲＵＳ　ＡＳＳＯＣＩＡＴＥ株式会社,,株式会社,神奈川県,横浜市青葉区,美しが丘４丁目７番地２０,,14,117,2250002,,,,,,,2023-09-04,1,,,,,スパルスアソシエイト,0
1608,8020003024499,新規,0,2023-09-04,2023-09-04,Ｂｏｓｃｏ　Ｊａｐａｎ合同会社,,合同会社,神奈川県,横浜市港南区,上永谷６丁目３番２号,,14,111,2330012,,,,,,,2023-09-04,1,,,,,ボスコジャパン,0
1613,8021001080071,新規,0,2023-09-04,2023-09-04,株式会社ダンスカンパニーカレイドスコープ,,株式会社,神奈川県,大和市,林間１丁目２０－５中田ビルＢ１,,14,213,2420003,,,,,,,2023-09-04,1,,,,,ダンスカンパニーカレイドスコープ,0
1625,8030001155551,新規,0,2023-09-04,2023-09-04,株式会社ケンライ,,株式会社,埼玉県,川越市,熊野町２０番７号２０２号,,11,201,3501146,,,,,,,2023-09-04,1,,,,,ケンライ,0
1626,8030001155709,新規,0,2023-09-04,2023-09-04,ケイ・アールコーポレーション株式会社,,株式会社,埼玉県,八潮市,大字鶴ケ曽根９１８番地８,,11,234,3400802,,,,,,,2023-09-04,1,,,,,ケイアールコーポレーション,0
1627,8030003022452,新規,0,2023-09-04,2023-09-04,合同会社ＣＣＮ,,合同会社,埼玉県,さいたま市南区,南浦和２丁目２８番１３－５０９号,,11,108,3360017,,,,,,,2023-09-04,1,,,,,シーシーエヌ,0
1643,8070001040816,新規,0,2023-09-04,2023-09-04,ＲＴＥ　ＥＮＴＥＲＰＲＩＳＥ株式会社,,株式会社,群馬県,太田市,新田木崎町１７５３番地５,,10,205,3700321,,,,,,,2023-09-04,1,,,,,アールティーエーエンタープライズ,0
1645,8080001025840,新規,0,2023-09-04,2023-09-04,山住株式会社,,株式会社,静岡県,焼津市,小土９４２番地の１,,22,212,4250086,,,,,,,2023-09-04,1,,,,,ヤマズミ,0
1646,8080401026694,新規,0,2023-09-04,2023-09-04,伊左地ファーム株式会社,,株式会社,静岡県,浜松市西区,伊左地町２０７５番地の１,,22,133,4311111,,,,,,,2023-09-04,1,,,,,イサジファーム,0
1647,8080401026703,新規,0,2023-09-04,2023-09-04,株式会社エスファイン,,株式会社,静岡県,浜松市南区,若林町９３６番地の６,,22,134,4328051,,,,,,,2023-09-04,1,,,,,エスファイン,0
1655,8120001257743,新規,0,2023-09-04,2023-09-04,株式会社Ｈａｔｓ７Ｐｌａｎ,,株式会社,大阪府,大阪市福島区,大開３丁目１番２号,,27,103,5530007,,,,,,,2023-09-04,1,,,,,ハツナナプラン,0
1656,8120001257768,新規,0,2023-09-04,2023-09-04,心馳株式会社,,株式会社,大阪府,大阪市西成区,玉出中２丁目１４番９号玉出エキスポマンション４０１号室,,27,122,5570044,,,,,,,2023-09-04,1,,,,,シンチ,0
1659,8120101068124,新規,0,2023-09-04,2023-09-04,株式会社ＭＴ急配,,株式会社,大阪府,堺市西区,鳳中町１０丁１３番地３,,27,144,5938327,,,,,,,2023-09-04,1,,,,,エムティーキュウハイ,0
1660,8120101068149,新規,0,2023-09-04,2023-09-04,ＭＳＤ株式会社,,株式会社,大阪府,松原市,三宅西２丁目２０番１７号,,27,217,5800045,,,,,,,2023-09-04,1,,,,,エムエスディー,0
1661,8120101068165,新規,0,2023-09-04,2023-09-04,株式会社やまの,,株式会社,大阪府,羽曳野市,大黒５０２番地,,27,222,5830847,,,,,,,2023-09-04,1,,,,,ヤマノ,0
1668,8130001075095,新規,0,2023-09-04,2023-09-04,株式会社ＪＯＧＧＥＮ,,株式会社,京都府,京都市中京区,室町通三条下る烏帽子屋町４９０番地４０３号,,26,104,6048165,,,,,,,2023-09-04,1,,,,,ジョゲン,0
1673,8130005016871,新規,0,2023-09-04,2023-09-04,一般社団法人日本軟式野球振興会,,その他の設立登記法人,京都府,向日市,森本町戌亥５番地の３,,26,208,6170003,,,,,,,2023-09-04,1,,,,,ニホンナンシキヤキュウシンコウカイ,0
1680,8150001026690,新規,0,2023-09-04,2023-09-04,株式会社チーム・あおがき,,株式会社,奈良県,磯城郡田原本町,大字千代６７３番地,,29,363,6360246,,,,,,,2023-09-04,1,,,,,チームアオガキ,0
1682,8170001017762,新規,0,2023-09-04,2023-09-04,株式会社Ａｎｔ,,株式会社,和歌山県,田辺市,下三栖１６８２番地の２０,,30,206,6460216,,,,,,,2023-09-04,1,,,,,アント,0
1683,8170001017770,新規,0,2023-09-04,2023-09-04,株式会社あすなろ,,株式会社,和歌山県,和歌山市,北中間町７番地,,30,201,6408294,,,,,,,2023-09-04,1,,,,,アスナロ,0
1687,8180001157871,新規,0,2023-09-04,2023-09-04,株式会社ＯＭ,,株式会社,愛知県,名古屋市港区,土古町２丁目２３番地,,23,111,4550068,,,,,,,2023-09-04,1,,,,,オーエム,0
1694,8200001041651,新規,0,2023-09-04,2023-09-04,株式会社未来アート,,株式会社,岐阜県,岐阜市,北一色１０丁目１４番２０号,,21,201,5008227,,,,,,,2023-09-04,1,,,,,ミライアート,0
1695,8200001041676,新規,0,2023-09-04,2023-09-04,株式会社ＳＩＴＥ　ＱＵＢＥ,,株式会社,岐阜県,岐阜市,桜通２丁目２９番地５,,21,201,5008318,,,,,,,2023-09-04,1,,,,,サイトキューブ,0
1696,8200001041684,新規,0,2023-09-04,2023-09-04,株式会社ＡＳＹＬ,,株式会社,岐阜県,各務原市,川島松原町３６６番地４,,21,213,5016026,,,,,,,2023-09-04,1,,,,,アジール,0
1698,8200003006066,新規,0,2023-09-04,2023-09-04,合同会社Ｍｉｎｉｍａｌｉｚｅ　Ｗｏｒｋｓ,,合同会社,岐阜県,養老郡養老町,高田４３１３番地１,,21,341,5031314,,,,,,,2023-09-04,1,,,,,ミニマライズワークス,0
1701,8220001025578,新規,0,2023-09-04,2023-09-04,株式会社松村,,株式会社,石川県,金沢市,広岡２丁目１番２７号,,17,201,9200031,,,,,,,2023-09-04,1,,,,,マツムラ,0
1712,8260001038279,新規,0,2023-09-04,2023-09-04,幸和建興株式会社,,株式会社,岡山県,岡山市中区,関２５０番地６,,33,102,7038232,,,,,,,2023-09-04,1,,,,,コウワケンコウ,0
1714,8270003001556,新規,0,2023-09-04,2023-09-04,エブリイ合同会社,,合同会社,鳥取県,八頭郡若桜町,大字若桜１１２２番地１２,,31,325,6800701,,,,,,,2023-09-04,1,,,,,エブリイ,0
1715,8280001009030,新規,0,2023-09-04,2023-09-04,株式会社八,,株式会社,島根県,松江市,宍道町東来待５００番地２７,,32,201,6990404,,,,,,,2023-09-04,1,,,,,ハチ,0
1716,8290001102858,新規,0,2023-09-04,2023-09-04,株式会社はうする,,株式会社,福岡県,春日市,大谷３丁目９７番地１,,40,218,8160831,,,,,,,2023-09-04,1,,,,,ハウスル,0
1728,8310001018589,新規,0,2023-09-04,2023-09-04,株式会社タカキ,,株式会社,長崎県,島原市,青葉町５４６４番地３,,42,203,8550855,,,,,,,2023-09-04,1,,,,,タカキ,0
1730,8320001019974,新規,0,2023-09-04,2023-09-04,株式会社藤伸ホールディングス,,株式会社,大分県,速見郡日出町,大字藤原７１４５番地２,,44,341,8791502,,,,,,,2023-09-04,1,,,,,トウシンホールディングス,0
1735,8340001025871,新規,0,2023-09-04,2023-09-04,株式会社ニチデン,,株式会社,鹿児島県,鹿児島市,小原町１３番２２号第３田原ハイツ１０２号,,46,201,8910111,,,,,,,2023-09-04,1,,,,,ニチデン,0
1746,8380001033961,新規,0,2023-09-04,2023-09-04,株式会社Ｍｅｍｂｅｒ,,株式会社,福島県,いわき市,内郷御厩町３丁目７５番地の６,00131759,07,204,9738402,,,,,,,2023-09-04,1,,,,,メンバー,0
1751,8400001016360,新規,0,2023-09-04,2023-09-04,株式会社ＨＵＧＬＩＮＱ,,株式会社,岩手県,盛岡市,上堂１丁目１７番５３号,,03,201,0200125,,,,,,,2023-09-04,1,,,,,ハグリンク,0
1752,8410001013588,新規,0,2023-09-04,2023-09-04,株式会社佐建塗工,,株式会社,秋田県,秋田市,添川字古城廻６３番地８,,05,201,0100822,,,,,,,2023-09-04,1,,,,,サケントコウ,0
1757,8430001089890,新規,0,2023-09-04,2023-09-04,株式会社ＢＡＮＤＥ,,株式会社,北海道,札幌市東区,東苗穂十一条１丁目４番２号,,01,103,0070811,,,,,,,2023-09-04,1,,,,,バンデ,0
1759,8440001009311,新規,0,2023-09-04,2023-09-04,株式会社アフテック,,株式会社,北海道,函館市,亀田港町１３番５７号,,01,202,0410822,,,,,,,2023-09-04,1,,,,,アフテック,0
1762,8500003003090,新規,0,2023-09-04,2023-09-04,合同会社とみす企画,,合同会社,愛媛県,大洲市,柚木１０５６番地６アンソレイエさくらＢ２０２号,,38,207,7950011,,,,,,,2023-09-04,1,,,,,トミスキカク,0
1763,8700150119710,新規,0,2023-09-04,2023-09-04,Ｃｈａｎｇｚｈｏｕ　Ｑｉｎｇｓｈａｎ　Ｎｅｔｗｏｒｋ　Ｔｅｃｈｎｏｌｏｇｙ　Ｃｏ．，Ｌｔｄ,,外国会社等,,,,,,,,Ｒｏｏｍ　３３１，Ｂｕｉｌｄｉｎｇ　９，ｓｈｉｍａｏ　ｃｏｍｍｅｒｃｉａｌ　ｐｌａｚａ　Ｘｉｎｂｅｉ　Ｄｉｓｔｒｉｃｔ　ｃｈａｎｇｚｈｏｕ　ｊｉａｎｇｓｕ　ＣＮ,,,,,,2023-09-04,1,,,,,チャンヂョウチンシャンネットワークテクノロジーカンパニーリミテッド,0
1764,8700150119719,新規,0,2023-09-04,2023-09-04,ｓｈｅｎｚｈｅｎｓｈｉ　ｓｈｕａｎｇｙａｎｇｙｉｈｕｉｓｈａｎｇｍａｏ　ｙｏｕｘｉａｎｇｏｎｇｓｉ,,外国会社等,,,,,,,,ｇｕａｎｇｄｏｎｇｓｈｅｎｇ　ｓｈｅｎｚｈｅｎｓｈｉ　ｆｕｔｉａｎｑｕｈｕａｑｉａｎｇｂｅｉｊｉｅｄａｏｆｕｑｉａｎｇｓｈｅｑｕ　ｚｈｅｎｈｕａｌｕ４５ｈａｏｑｉｃｈｅｄａｙｕａｎ５ｄｏｎｇ２０２,,,,,,2023-09-04,1,,,,,シンセンシスゥアンヤンイホゥイシャンマオユウゲンコウシ,0
1765,8700150119727,新規,0,2023-09-04,2023-09-04,ｌｏｎｇｙａｎｓｈｉｓｕｙｉｍａｏｙｉｙｏｕｘｉａｎｇｏｎｇｓｉ,,外国会社等,,,,,,,,ｚｈａｎｇｐｉｎｇｓｈｉｊｉｎｇｃｈｅｎｇｊｉｅｄａｏｈｅｐｉｎｇｂｅｉｌｕ６１５ｈａｏ　ｔｉａｎｓｈｏｕｙａｎｇｇｕａｎｇｃｈｅｎｇｙｉｑｉｌｚｈｕａｎｇ９０７ｓｈｉ　ｌｏｎｇｙａｎ　ｆｕｊｉａｎ,,,,,,2023-09-04,1,,,,,リュウガンシソクイボウエキユウゲンコウシ,0
1766,8700150119735,新規,0,2023-09-04,2023-09-04,ｌａｉｆｅｎｇｊｉｕｈｕａｋｅｊｉ　ｇｕａｎｇｇａｏｚｈｕａｎｇｓｈｉ　ｙｏｕｘｉａｎｇｏｎｇｓｉ,,外国会社等,,,,,,,,ｌａｉｆｅｎｇｘｉａｎｘｉａｎｇｆｅｎｇｚｈｅｎｍｉｎｘｉｎｇｌｕ３２－１８ｈａｏ　ｅｎｓｈｉｔｕｊｉａｚｕｍｉａｏｚｕｚｉｚｈｉｚｈｏｕ　ｈｕｂｅｉｓｈｅｎｇ　４４５０００　ＣＮ,,,,,,2023-09-04,1,,,,,ライフェンジュフアカギカンガオチワンシヨウシェンゴンスー,0
1767,8700150119743,新規,0,2023-09-04,2023-09-04,ｆｏｓｈａｎｓｈｉｃｈｅｎｇｆａｎｇｋｅｊｉｙｏｕｘｉａｎｇｏｎｇｓｉ,,外国会社等,,,,,,,,１４０２－３　ｆｏｕｒ　ｂｕｉｌｄｉｎｇ　ｈｏｎｇｈｕｉｄｏｕｓｈｉｃｈａｎｙｅｘｉｎｃｈｅｎｇ　ｇｕｉｐｉｎｇｚｈｏｎｇｌｕ６５ｈａｏ　ｇｕｉｃｈｅｎｇｊｉｅｄａｏ　ｎａｎｈａｉｑｕ　ｆｏｓｈａｎ　ｇｕａｎｇｄｏｎｇ　５２８０００　ＣＮ　　　　,,,,,,2023-09-04,1,,,,,フォーシャンシーチョンファンコージーヨウシエンゴンスー,0
1768,8700150119751,新規,0,2023-09-04,2023-09-04,Ｘｉｎｙｉ　Ｓｈｅｎｇｌｉｎ　Ｅｌｅｃｔｒｏｎｉｃ　Ｔｅｃｈｎｏｌｏｇｙ　Ｃｏ．，Ｌｔｄ,,外国会社等,,,,,,,,Ｒｏｏｍ　１－２４８，Ｎｏ．９９，Ｚｈｅｊｉａｎｇ　Ｒｏａｄ，Ｅｃｏｎｏｍｉｃ　Ｄｅｖｅｌｏｐｍｅｎｔ　Ｚｏｎｅ　Ｘｉｎｙｉ　Ｃｉｔｙ，Ｘｕｚｈｏｕ　Ｃｉｔｙ　Ｃｈｉｎａ　Ｘｉｎｙｉ,,,,,,2023-09-04,1,,,,,シンキシセイリンデンシギジュツユウゲンコウシ,0
1769,8700150119768,新規,0,2023-09-04,2023-09-04,ｓｈｅｎｚｈｅｎｓｈｉ　ｘｉｎｇｌｏｎｇｊｉａｎｈａｏｋｅｊｉ　ｙｏｕｘｉａｎｇｏｎｇｓｉ　　　　,,外国会社等,,,,,,,,ｆｕｃｈｅｎｇｊｉｅｄａｏｚｈａｎｇｇｅｓｈｅｑｕａｏｍｅｎｇｏｎｇｙｅｑｕ１８ｈａｏ　ｇｕａｎｊｉｎｇｙｕａｎＢ２００３　ｓｈｅｎｚｈｅｎｓｈｉ　ｌｏｎｇｈｕａｑｕ　ｇｕａｎｇｄｏｎｇｓｈｅｎｇ　Ｃｈｉｎａ　　　　,,,,,,2023-09-04,1,,,,,シンセンシシンロンジェンハオカギユウゲンコウシ,0
1772,9010001238068,新規,0,2023-09-04,2023-09-04,Ｌｉｆｅ　Ｈｕｂ　Ｎｅｔｗｏｒｋ株式会社,,株式会社,東京都,千代田区,丸の内２丁目３番１号,,13,101,1000005,,,,,,,2023-09-04,1,,,,,ライフハブネットワーク,0
1773,9010001238191,新規,0,2023-09-04,2023-09-04,株式会社原価ＭＡＫＥＲ,,株式会社,東京都,千代田区,丸の内１丁目１１番地１号,,13,101,1000005,,,,,,,2023-09-04,1,,,,,ゲンカメーカー,0
1779,9010401176719,新規,0,2023-09-04,2023-09-04,ＫＤタワー株式会社,,株式会社,東京都,港区,麻布十番２丁目１０番１号カスタリア麻布十番７０３,,13,103,1060045,,,,,,,2023-09-04,1,,,,,ケーディータワー,0
1780,9010401176867,新規,0,2023-09-04,2023-09-04,ＹＯＹＯＪＡＰＡＮ株式会社,,株式会社,東京都,港区,虎ノ門５丁目３－２１ＡＵＢＥ虎ノ門,,13,103,1050001,,,,,,,2023-09-04,1,,,,,ヨヨジャパン,0
1781,9010401176883,新規,0,2023-09-04,2023-09-04,株式会社ｍｉｎｎａＴｏ．,,株式会社,東京都,港区,南青山４丁目１番１５号ベルテ南青山８０２,,13,103,1070062,,,,,,,2023-09-04,1,,,,,ミンナト,0
1783,9010403030774,新規,0,2023-09-04,2023-09-04,ＨＡＯ合同会社,,合同会社,東京都,港区,三田３丁目４－６－９０３,,13,103,1080073,,,,,,,2023-09-04,1,,,,,エイチエーオー,0
1784,9010501050880,新規,0,2023-09-04,2023-09-04,海潮株式会社,,株式会社,東京都,台東区,浅草橋３丁目２５－５ペリエ浅草橋４０１号室,,13,106,1110053,,,,,,,2023-09-04,1,,,,,カイチョウ,0
1799,9011001156706,新規,0,2023-09-04,2023-09-04,株式会社Ｎｅｘｔ　Ｓｔｅｐ,,株式会社,東京都,渋谷区,神宮前６丁目２３番４号桑野ビル２階,,13,113,1500001,,,,,,,2023-09-04,1,,,,,ネクストステップ,0
1800,9011001156714,新規,0,2023-09-04,2023-09-04,株式会社ＣＲＧ,,株式会社,東京都,渋谷区,広尾３丁目４番１８号ビバリーホームズ広尾４０１,,13,113,1500012,,,,,,,2023-09-04,1,,,,,シーアールジー,0
1804,9011005010198,新規,0,2023-09-04,2023-09-04,一般社団法人Ｓｍａｒｔｇｉｖｅ,,その他の設立登記法人,東京都,渋谷区,渋谷３丁目２６番１６号,,13,113,1500002,,,,,,,2023-09-04,1,,,,,スマートギブ,0
1806,9011105010759,新規,0,2023-09-04,2023-09-04,医療法人社団きらきら会,,その他の設立登記法人,東京都,新宿区,新宿３丁目１１番９号花菱ビル８階,,13,104,1600022,,,,,,,2023-09-04,1,,,,,キラキラカイ,0
1812,9011601027091,新規,0,2023-09-04,2023-09-04,株式会社アサ,,株式会社,東京都,練馬区,桜台１丁目７番７－４２０号,,13,120,1760002,,,,,,,2023-09-04,1,,,,,アサ,0
1818,9012403006151,新規,0,2023-09-04,2023-09-04,ＦＯＬ合同会社,,合同会社,東京都,稲城市,矢野口１１７７－１,,13,225,2060812,,,,,,,2023-09-04,1,,,,,エフオーエル,0
1823,9013301051289,新規,0,2023-09-04,2023-09-04,株式会社サンミシェル,,株式会社,東京都,豊島区,駒込１丁目２３番７号プレミアムキューブ駒込１３０３,,13,116,1700003,,,,,,,2023-09-04,1,,,,,サンミシェル,0
1825,9020001153266,新規,0,2023-09-04,2023-09-04,ＦＵＴＡＢＡ株式会社,,株式会社,神奈川県,横浜市都筑区,中川１丁目１４番１２号,,14,118,2240001,,,,,,,2023-09-04,1,,,,,フタバ,0
1826,9020001153274,新規,0,2023-09-04,2023-09-04,Ｇｌｏｂａｌ　ＰＭＣ　Ｊａｐａｎ株式会社,,株式会社,神奈川県,横浜市中区,吉浜町２番地１０号ＩＤＡビル５０３号,,14,104,2310024,,,,,,,2023-09-04,1,,,,,,0
1827,9020001153282,新規,0,2023-09-04,2023-09-04,株式会社石井農園,,株式会社,神奈川県,横浜市泉区,和泉町７５６５番地,,14,116,2450016,,,,,,,2023-09-04,1,,,,,イシイノウエン,0
1830,9021001080070,新規,0,2023-09-04,2023-09-04,株式会社ブラスト,,株式会社,神奈川県,座間市,入谷東３丁目４０番１号,,14,216,2520028,,,,,,,2023-09-04,1,,,,,ブラスト,0
1832,9021003013532,新規,0,2023-09-04,2023-09-04,合同会社志道,,合同会社,神奈川県,厚木市,鳶尾２丁目２５番５ー４０１号,,14,212,2430204,,,,,,,2023-09-04,1,,,,,シントウ,0
1837,9030001155567,新規,0,2023-09-04,2023-09-04,株式会社ラベンダーミュ,,株式会社,埼玉県,川口市,並木３丁目３番４－８０２号ベルメゾン並木,,11,203,3320034,,,,,,,2023-09-04,1,,,,,ラベンダーミュ,0
1838,9030001155708,新規,0,2023-09-04,2023-09-04,株式会社Ｒｅ　Ｓｔａｒｔ,,株式会社,埼玉県,鴻巣市,吹上本町３丁目１０番２８号,,11,217,3690115,,,,,,,2023-09-04,1,,,,,リスタート,0
1839,9030001155815,新規,0,2023-09-04,2023-09-04,株式会社サンリメイクヘルス,,株式会社,埼玉県,和光市,白子３丁目１１番２１号,,11,229,3510101,,,,,,,2023-09-04,1,,,,,サンリメイクヘルス,0
1847,9030003022402,新規,0,2023-09-04,2023-09-04,カエル合同会社,,合同会社,埼玉県,三郷市,三郷３丁目１９番地９グリーンパーク三郷ＩＩ－２０７号,00131754,11,237,3410024,,,,,,,2023-09-04,1,,,,,カエル,0
1853,9040003023226,新規,0,2023-09-04,2023-09-04,ローランマル合同会社,,合同会社,千葉県,市原市,うるいど南３丁目１２番地１－Ａ２０２,,12,219,2900170,,,,,,,2023-09-04,1,,,,,ローランマル,0
1854,9040005022110,新規,0,2023-09-04,2023-09-04,学校法人Ｒｕｇｂｙ　Ｓｃｈｏｏｌ　Ｊａｐａｎ,,その他の設立登記法人,千葉県,柏市,柏の葉６丁目２番地５,,12,217,2770882,,,,,,,2023-09-04,1,,,,,ラグビースクールジャパン,0
1858,9070001040807,新規,0,2023-09-04,2023-09-04,株式会社ＡＶＩ,,株式会社,群馬県,太田市,下浜田町２１９番地１３,,10,205,3730821,,,,,,,2023-09-04,1,,,,,アヴィ,0
1859,9070001040815,新規,0,2023-09-04,2023-09-04,プラムファーム株式会社,,株式会社,群馬県,太田市,内ケ島町９４６番地２大槻商事ビル２階,,10,205,3730813,,,,,,,2023-09-04,1,,,,,プラムファーム,0
1860,9080001025831,新規,0,2023-09-04,2023-09-04,株式会社福島久之商店,,株式会社,静岡県,静岡市清水区,由比町屋原１７８番地の２８,,22,103,4213105,,,,,,,2023-09-04,1,,,,,フクシマヒサシショウテン,0
1863,9080401026702,新規,0,2023-09-04,2023-09-04,株式会社鈴佳,,株式会社,静岡県,浜松市浜北区,宮口２６０４番地の３,,22,136,4340004,,,,,,,2023-09-04,1,,,,,スズヨシ,0
1864,9080403004862,新規,0,2023-09-04,2023-09-04,あらた合同会社,,合同会社,静岡県,袋井市,高尾８１０番地の２,,22,216,4370023,,,,,,,2023-09-04,1,,,,,アラタ,0
1871,9110001037815,新規,0,2023-09-04,2023-09-04,株式会社山田設備工業,,株式会社,新潟県,新潟市西区,山田２６９３番地１１,,15,107,9501101,,,,,,,2023-09-04,1,,,,,ヤマダセツビコウギョウ,0
1877,9120001257791,新規,0,2023-09-04,2023-09-04,株式会社Ｃ‐Ｄａｉ,,株式会社,大阪府,大阪市西区,北堀江１丁目２０番１３号,,27,106,5500014,,,,,,,2023-09-04,1,,,,,シーダイ,0
1881,9120003024835,新規,0,2023-09-04,2023-09-04,合同会社Ｂｒｙａｎｔ　ｐａｒｋ,,合同会社,大阪府,大阪市平野区,長吉六反３丁目１番３６号,,27,126,5470012,,,,,,,2023-09-04,1,,,,,ブライアントパーク,0
1891,9130001075086,新規,0,2023-09-04,2023-09-04,株式会社一心塗彩,,株式会社,京都府,宇治市,宇治池森２０番地の６ＭＡＸビル３０１,,26,204,6110021,,,,,,,2023-09-04,1,,,,,イッシントイロ,0
1892,9130003008936,新規,0,2023-09-04,2023-09-04,合同会社ｉｙａｂｉ,,合同会社,京都府,京都市東山区,三条通り白川橋東入ル四丁目中之町２１２番地の２,,26,105,6050000,,,,,,,2023-09-04,1,,,,,イヤビ,0
1902,9140005026729,新規,0,2023-09-04,2023-09-04,一般社団法人兵庫県機械刃物工業会,,その他の設立登記法人,兵庫県,三木市,本町２丁目１番１８号,,28,215,6730431,,,,,,,2023-09-04,1,,,,,ヒョウゴケンキカイハモノコウギョウカイ,0
1906,9160003002977,新規,0,2023-09-04,2023-09-04,合同会社ｖＩＯプランニング,,合同会社,滋賀県,守山市,洲本町１７０５番地の６,,25,207,5240103,,,,,,,2023-09-04,1,,,,,ヴィオプランニング,0
1907,9170001017761,新規,0,2023-09-04,2023-09-04,宝潤発株式会社,,株式会社,和歌山県,和歌山市,栄谷９７６番地８８,,30,201,6408441,,,,,,,2023-09-04,1,,,,,ホウジュンハツ,0
1909,9180001157821,新規,0,2023-09-04,2023-09-04,Ｔｒｙ株式会社,,株式会社,愛知県,丹羽郡扶桑町,大字高雄字柳前１３０番地,,23,362,4800102,,,,,,,2023-09-04,1,,,,,トライ,0
1923,9200001041659,新規,0,2023-09-04,2023-09-04,ＣＨＩＥ株式会社,,株式会社,岐阜県,羽島市,正木町大浦８００番地５,,21,209,5016224,,,,,,,2023-09-04,1,,,,,チエ,0
1924,9200001041667,新規,0,2023-09-04,2023-09-04,株式会社セカイム,,株式会社,岐阜県,岐阜市,清住町１丁目２１番地レイワビル４Ｆ,,21,201,5008178,,,,,,,2023-09-04,1,,,,,セカイム,0
1926,9200003006065,新規,0,2023-09-04,2023-09-04,ＴＨＲＥＥ合同会社,,合同会社,岐阜県,海津市,海津町田中４３７番地１,,21,221,5030606,,,,,,,2023-09-04,1,,,,,スリー,0
1927,9200003006073,新規,0,2023-09-04,2023-09-04,エスディー合同会社,,合同会社,岐阜県,山県市,中洞６１６番地１２,,21,215,5012258,,,,,,,2023-09-04,1,,,,,エスディー,0
1928,9210003001692,新規,0,2023-09-04,2023-09-04,合同会社Ｔｅａｍ　ＢＬＵＥ,,合同会社,福井県,福井市,冬野町第６号４６番地,,18,201,9188154,,,,,,,2023-09-04,1,,,,,チームブルー,0
1930,9220001025585,新規,0,2023-09-04,2023-09-04,株式会社ヨシダ七尾,,株式会社,石川県,七尾市,白馬町５７部２４番地１,,17,202,9260828,,,,,,,2023-09-04,1,,,,,ヨシダナナオ,0
1932,9220003003580,新規,0,2023-09-04,2023-09-04,合同会社Ｐｌｕｓ　Ｊ,,合同会社,石川県,野々市市,本町３丁目６番２８号アザレア３０２号,,17,212,9218815,,,,,,,2023-09-04,1,,,,,プラスジェー,0
1934,9240001062049,新規,0,2023-09-04,2023-09-04,株式会社ダイヤスタッフ,,株式会社,広島県,広島市中区,十日市町２丁目９番２号３階,,34,101,7300805,,,,,,,2023-09-04,1,,,,,ダイヤスタッフ,0
1937,9260001038278,新規,0,2023-09-04,2023-09-04,リコレ株式会社,,株式会社,岡山県,総社市,中央６丁目１４番地１０１,,33,208,7191131,,,,,,,2023-09-04,1,,,,,リコレ,0
1938,9260001038286,新規,0,2023-09-04,2023-09-04,日承株式会社,,株式会社,岡山県,岡山市北区,北方１丁目１３－２０,,33,101,7000803,,,,,,,2023-09-04,1,,,,,ニチジョウ,0
1940,9270001008833,新規,0,2023-09-04,2023-09-04,株式会社坂建,,株式会社,鳥取県,米子市,両三柳１９１９,,31,202,6830853,,,,,,,2023-09-04,1,,,,,サカケン,0
1948,9290001102840,新規,0,2023-09-04,2023-09-04,株式会社Ｓ＆Ｓ,,株式会社,福岡県,福岡市早良区,原６丁目２３番１１号米田マンション１０１号,,40,137,8140022,,,,,,,2023-09-04,1,,,,,エスアンドエス,0
1949,9290001102857,新規,0,2023-09-04,2023-09-04,株式会社かねやん,,株式会社,福岡県,福岡市博多区,奈良屋町１３番１４号７５１Ｆビル１階,,40,132,8120023,,,,,,,2023-09-04,1,,,,,カネヤン,0
1950,9290003014308,新規,0,2023-09-04,2023-09-04,合同会社ノーブル,,合同会社,福岡県,福岡市中央区,天神２丁目２番１２号Ｔ＆Ｊビルディング７Ｆ,,40,133,8100001,,,,,,,2023-09-04,1,,,,,ノーブル,0
1954,9290801029829,新規,0,2023-09-04,2023-09-04,ｈｅａｄｗａｔｅｒｓ　ｍｅｄｉｃａｌ株式会社,,株式会社,福岡県,中間市,通谷６丁目１５番１２号,,40,215,8090018,,,,,,,2023-09-04,1,,,,,ヘッドウォーターズメディカル,0
1958,9310001018588,新規,0,2023-09-04,2023-09-04,株式会社エヌアイテック,,株式会社,長崎県,長崎市,宿町３４番１－４０６,,42,201,8510121,,,,,,,2023-09-04,1,,,,,エヌアイテック,0
1964,9340001025862,新規,0,2023-09-04,2023-09-04,株式会社錦江代理店,,株式会社,鹿児島県,鹿児島市,与次郎２丁目３番３５号,,46,201,8900062,,,,,,,2023-09-04,1,,,,,キンコウダイリテン,0
1965,9340003004220,新規,0,2023-09-04,2023-09-04,合同会社フォレスタ,,合同会社,鹿児島県,鹿児島市,中央町２２－１６アエールプラザ３１８号室,,46,201,8900053,,,,,,,2023-09-04,1,,,,,フォレスタ,0
1966,9340003004237,新規,0,2023-09-04,2023-09-04,合同会社おでん,,合同会社,鹿児島県,鹿児島市,中央町１９番地４０－２１０４号,,46,201,8900053,,,,,,,2023-09-04,1,,,,,オデン,0
1967,9350001018543,新規,0,2023-09-04,2023-09-04,株式会社エターナルＲ,,株式会社,宮崎県,宮崎市,大字恒久１０２７番地２トリニティＫ２０１号,,45,201,8800916,,,,,,,2023-09-04,1,,,,,エターナルアール,0
1968,9360003013244,新規,0,2023-09-04,2023-09-04,合同会社ｂｒｉｄｇｅ,,合同会社,沖縄県,沖縄市,安慶田１丁目１７番３２号,,47,211,9040012,,,,,,,2023-09-04,1,,,,,ブリッジ,0
1969,9370001050346,新規,0,2023-09-04,2023-09-04,Ｔ．Ｋ　Ｇｒｏｕｐ株式会社,,株式会社,宮城県,角田市,角田字裏林３３番地６４,,04,208,9811505,,,,,,,2023-09-04,1,,,,,ティーケーグループ,0
1976,9390001017368,新規,0,2023-09-04,2023-09-04,株式会社カーメイクアズマ,,株式会社,山形県,酒田市,東町１丁目１８番地の５,,06,204,9980875,,,,,,,2023-09-04,1,,,,,カーメイクアズマ,0
1985,9440001009310,新規,0,2023-09-04,2023-09-04,株式会社フォースクライス,,株式会社,北海道,函館市,五稜郭町９－１－１０４,,01,202,0400001,,,,,,,2023-09-04,1,,,,,フォースクライス,0
1991,9700150119718,新規,0,2023-09-04,2023-09-04,Ｓｈｅｎｚｈｅｎｓｈｉ　ｙａａｏｍａｏｙｉ　ｙｏｕｘｉａｎｇｏｎｇｓｉ,,外国会社等,,,,,,,,ｍｉｎｚｈｉｊｉｅｄａｏ　ｚｈａｎｇｋｅｎｇｓｈｅｑｕ　ｘｉａｎｇｎａｎｓｉｑｕ　２５ｄｏｎｇ　４０５　Ｌｏｎｇｈｕａｑｕ　Ｓｈｅｎｚｈｅｎｓｈｉ　Ｇｕａｎｇｄｏｎｇｓｈｅｎｇ,,,,,,2023-09-04,1,,,,,シェンゼェンシヤアオマオイユウゲンコウシ,0
1992,9700150119726,新規,0,2023-09-04,2023-09-04,Ｇｕｉｌｉｎ　ＦｅｉＹｕ　Ｔｅｃｈｎｏｌｏｇｙ　Ｉｎｃｏｒｐｏｒａｔｅｄ　Ｃｏｍｐａｎｙ,,外国会社等,,,,,,,,３／Ｆ，Ｂｌｏｃｋ　Ｂ，Ｇｕｉｌｉｎ　Ｅ－Ｃｏｍｍｅｒｃｅ　Ｖａｌｌｅｙ，Ｄ－１２，Ｃｈａｏｙａｎｇ　ＲｏａｄＩｎｆｏｒｍａｔｉｏｎ　Ｉｎｄｕｓｔｒｉａｌ　Ｐａｒｋ，Ｑｉｘｉｎｇ　ＤｉｓｔｒｉｃｔＧｕｉｌｉｎ,,,,,,2023-09-04,1,,,,,ケイリンヒウカギコフンユウゲンコウシ,0
1993,9700150119734,新規,0,2023-09-04,2023-09-04,ｓｈｅｎｚｈｅｎ　ｅａｄａｌｉ　Ｔｅｃｈｎｏｌｏｇｙ　Ｃｏ．，Ｌｔｄ．,,外国会社等,,,,,,,,Ｃｈｉｌｉｎｇｔｏｕ　ｎｅｗ　ｖｉｌｌａｇｅ，Ｄａｌａｎｇ　Ｓｔｒｅｅｔ，１０ｔｈ　Ｆｌｏｏｒ，Ｗｅｉ　Ｗａｎｇ　Ｍａｎｓｉｏｎ，ＮＯ　２４　ＣｈｉＬｉｎｇ　Ｒｏａｄ，ＬｏｎｇＨｕａ　ｎｅｗ　Ｄｉｓｔｒｉｃｔ　Ｓｈｅｎｚｈｅｎ　Ｃｉｔｙ　５７０１００　ＣＮ,,,,,,2023-09-04,1,,,,,シンセンイーダリテクノロジーカンパニーリミテッド,0
1994,9700150119742,新規,0,2023-09-04,2023-09-04,Ｇｕａｎｇｚｈｏｕ　Ｘｉｊｉｎ　Ｔｒａｄｉｎｇ　Ｃｏ．，Ｌｔｄ．,,外国会社等,,,,,,,,Ｎｏ．１０６，Ｆｅｎｇｚｅ　Ｅａｓｔ　Ｒｏａｄ，Ｎａｎｓｈａ　Ｄｉｓｔｒｉｃｔｃ（ｓｅｌｆ－ｅｄｉｔｅｄ　Ｂｕｉｌｄｉｎｇ　１）Ｘ１３０１－Ｇ０２３３３９　Ｇｕａｎｇｚｈｏｕ　Ｇｕａｎｇｄｏｎｇ,,,,,,2023-09-04,1,,,,,コウシュウキシンボウエキユウゲンコウシ,0
1995,9700150119750,新規,0,2023-09-04,2023-09-04,Ｓｈｅｎｚｈｅｎ　ＱｉａｎＹｕｅ　Ｔｅｃｈｎｏｌｏｇｙ　Ｃｏ．，Ｌｔｄ．,,外国会社等,,,,,,,,Ｓｈｅｎｚｈｅｎ　Ｌｏｎｇｇａｎｇ　Ｑｕ　Ｂａｎｔｉａｎ　Ｊｉｅｄａｏ，Ｗｕｈｅ　Ｄａｄａｏ　Ｎａｎ７４ｈａｏ，Ｊｉａｈｅｈｕａｙｕａｎ　ｂｅｉｑｕ７ｄｏｎｇ　２ｄａｎｙｕａｎ５０６,,,,,,2023-09-04,1,,,,,シェンジェンチエンユエコージーヨウシエンゴンスー,0
1996,9700150119759,新規,0,2023-09-04,2023-09-04,Ｓｈｅｎｚｈｅｎ　Ｌｉ　ｔｕｏ　ｅ－Ｃｏｍｍｅｒｃｅ　Ｃｏ．，Ｌｔｄ,,外国会社等,,,,,,,,Ｇｕｏｊｉ　Ｅ　Ｃｈｅｎｇ　Ｄ３Ｄｏｎｇ１１Ｃ－０６　ＸｉＬｉＪｉｅＤａｏ　ＺｈｏｎｇＳｈａｎＹｕａｎＬｕ１００１Ｈａｏ　Ｓｈｅｎｚｈｅｎ　Ｇｕａｎｇｄｏｎｇ　５１８０５５　ＣＮ,,,,,,2023-09-04,1,,,,,シェンジェンシーリートゥオディエンズーシャンウーヨウシエンゴンスー,0
1997,9700150119767,新規,0,2023-09-04,2023-09-04,Ｄｏｎｇｇｕａｎｓｈｉ　ｐｉｓｉｆｕｄｉａｎｚｉｋｅｊｉ　ｙｏｕｘｉａｎｇｏｎｇｓｉ　　　　,,外国会社等,,,,,,,,ｚｈａｎｇ　ｍｕ　ｔｏｕ　ｚｈｅｎ　ｚｈａｎｇ　ｌｕｏ　ｙｏｎｇ　ｎｉｎｇ　ｊｉｅ　１８３　ｈａｏ　１　ｄｏｎｇ　４０２　ｓｈｉ　Ｄｏｎｇｇｕａｎ　Ｇｕａｎｇｄｏｎｇ　Ｃｈｉｎａ　　　　,,,,,,2023-09-04,1,,,,,トンガンシピスフデンシカギユウゲンコウシ,0
