sequenceNumber,corporateNumber,process,correct,updateDate,changeDate,name,nameImageId,kind,prefectureName,cityName,streetNumber,addressImageId,prefectureCode,cityCode,postCode,addressOutside,addressOutsideImageId,closeDate,closeCause,successorCorporateNumber,changeCause,assignmentDate,latest,enName,enPrefectureName,enCityName,enAddressOutside,furigana,hihyoji
70,1011801029531,登記記録の閉鎖等,0,2022-05-11,2022-05-06,株式会社東京ビッグウェイ,,株式会社,東京都,足立区,皿沼２丁目１番１６号,,13,121,1230862,,,2022-05-06,合併による解散等,1200001023433,令和４年５月１日岐阜県中津川市桃山町３番２０号株式会社トキワ（1200001023433）に合併し解散,2015-10-05,1,,,,,トウキョウビッグウエイ,0
79,1012301007366,登記記録の閉鎖等,0,2022-05-11,2022-05-09,株式会社メディカル・ネット,,株式会社,東京都,新宿区,下落合２丁目２番２－１０２号,,13,104,1610033,,,2022-05-09,清算の結了等,,,2015-10-05,1,,,,,メディカルネット,0
90,1013201001649,登記記録の閉鎖等,0,2022-05-11,2022-04-25,株式会社綺羅,,株式会社,東京都,目黒区,大橋１丁目７番４号,,13,110,1530044,,,2022-04-25,清算の結了等,,,2021-11-08,1,,,,,キラ,0
157,1060002036614,登記記録の閉鎖等,0,2022-05-11,2022-04-25,有限会社泰明堂,,有限会社,栃木県,足利市,大月町５８５番地の２,,09,202,3260005,,,2022-04-25,清算の結了等,,,2015-10-05,1,,,,,,0
166,1100001020300,登記記録の閉鎖等,0,2022-05-11,2022-04-25,株式会社ステラアーツ,,株式会社,長野県,岡谷市,長地御所２丁目１番２６号,,20,204,3940082,,,2022-04-25,清算の結了等,,,2015-10-05,1,,,,,ステラアーツ,0
178,1110001008047,登記記録の閉鎖等,0,2022-05-11,2022-03-31,ピーアイエス株式会社,,株式会社,新潟県,新潟市西蒲区,打越１３５番地１,,15,108,9501348,,,2022-03-31,合併による解散等,4110001007608,令和４年３月３１日新潟市西蒲区打越１３５番地１明和工業株式会社（4110001007608）に合併し解散,2015-10-05,1,,,,,ピーアイエス,0
203,1120003016963,登記記録の閉鎖等,0,2022-05-11,2022-05-02,合同会社伊達不動産販売,,合同会社,大阪府,枚方市,三栗１丁目２２番１８号,,27,210,5731171,,,2022-05-02,清算の結了等,,,2020-02-10,1,,,,,ダテフドウサンハンバイ,0
220,1120903003219,登記記録の閉鎖等,0,2022-05-11,2022-05-09,合同会社ｏｆｆｉｃｅ　ＡＭ,,合同会社,大阪府,高槻市,城西町５番２７号,,27,207,5690065,,,2022-05-09,清算の結了等,,,2020-05-29,1,,,,,オフィスエーエム,0
222,1122002017158,登記記録の閉鎖等,0,2022-05-11,2022-05-06,有限会社ティオ・プロジェクト,,有限会社,大阪府,阪南市,箱作２８７５番地の２２,,27,232,5990232,,,2022-05-06,清算の結了等,,,2015-10-05,1,,,,,ティオプロジェクト,0
229,1130001058354,登記記録の閉鎖等,0,2022-05-11,2022-05-02,株式会社想彩,,株式会社,京都府,亀岡市,篠町篠中北裏４２番地２,,26,206,6210826,,,2022-05-02,清算の結了等,,,2016-09-30,1,,,,,ソウサイ,0
251,1170001000460,登記記録の閉鎖等,0,2022-05-11,2022-05-10,株式会社エヌティエス,,株式会社,和歌山県,和歌山市,新生町３１３番地３２,,30,201,6408325,,,2022-05-10,清算の結了等,,,2015-10-05,1,,,,,エヌティエス,0
253,1170002011688,登記記録の閉鎖等,0,2022-05-11,2022-04-01,有限会社紀南モータース,,有限会社,和歌山県,東牟婁郡串本町,鬮野川１２７７番地の３,00045673,30,428,6493511,,,2022-04-01,合併による解散等,9170001011483,令和４年４月１日和歌山県新宮市緑ケ丘三丁目３番２４号新宮ホンダ販売株式会社（9170001011483）に合併し解散,2015-10-05,1,,,,,キナンモータース,0
267,1180305006525,登記記録の閉鎖等,0,2022-05-11,2022-05-02,農事組合法人本町,,その他の設立登記法人,愛知県,豊田市,本町大富５６番地,,23,211,4730911,,,2022-05-02,清算の結了等,,,2015-10-05,1,,,,,ホンマチ,0
270,1200001015075,登記記録の閉鎖等,0,2022-05-11,2022-05-02,株式会社プロショップハヤシ,,株式会社,岐阜県,揖斐郡池田町,六之井１８３４番地,,21,404,5032425,,,2022-05-02,清算の結了等,,,2015-10-05,1,,,,,プロショップハヤシ,0
274,1200001037160,登記記録の閉鎖等,0,2022-05-11,2022-05-10,株式会社明るい未来,,株式会社,岐阜県,岐阜市,柳津町蓮池２丁目６番地,,21,201,5016103,,,2022-05-10,清算の結了等,,,2020-02-14,1,,,,,アカルイミライ,0
279,1220001017029,登記記録の閉鎖等,0,2022-05-11,2022-05-02,株式会社すず森林,,株式会社,石川県,珠洲市,飯田町５部６０番地１,,17,205,9271214,,,2022-05-02,清算の結了等,,,2015-10-05,1,,,,,スズシンリン,0
281,1220005007711,登記記録の閉鎖等,0,2022-05-11,2022-05-02,特定非営利活動法人金澤レンボーブリッジ,,その他の設立登記法人,石川県,金沢市,富樫２丁目８番９号,,17,201,9218171,,,2022-05-02,清算の結了等,,,2015-10-05,1,,,,,カナザワレンボーブリッジ,0
282,1230001009776,登記記録の閉鎖等,0,2022-05-11,2022-05-02,大浦ビジネスマシン株式会社,,株式会社,富山県,高岡市,野村１７９７番地,,16,202,9330014,,,2022-05-02,合併による解散等,1230001003523,令和４年５月１日富山市黒崎１２５番地株式会社立業社・ビジネス・マシンズ（1230001003523）に合併し解散,2015-10-05,1,,,,,オオウラビジネスマシン,0
288,1230002009437,登記記録の閉鎖等,0,2022-05-11,2022-05-09,有限会社木材センター石丸,,有限会社,富山県,砺波市,千保３２６番地の１,,16,208,9391305,,,2022-05-09,清算の結了等,,,2015-10-05,1,,,,,モクザイセンターイシマル,0
328,1350003003699,登記記録の閉鎖等,0,2022-05-11,2022-05-09,合同会社カジヤモーター,,合同会社,宮崎県,宮崎市,大字芳士６０２番地１,,45,201,8800123,,,2022-05-09,清算の結了等,,,2020-11-24,1,,,,,カジヤモーター,0
330,1370001011446,登記記録の閉鎖等,0,2022-05-11,2022-05-06,東北ＮＳソリューションズ株式会社,,株式会社,宮城県,仙台市青葉区,中央３丁目２番１号,,04,101,9800021,,,2022-05-06,合併による解散等,7010001038346,令和４年４月１日東京都中央区新川二丁目２７番１号東日本ＮＳソリューションズ株式会社（7010001038346）に合併し解散,2015-10-05,1,,,,,,0
333,1370002020842,登記記録の閉鎖等,0,2022-05-11,2022-04-27,有限会社オフィス・エヌ・エヌ,,有限会社,宮城県,仙台市青葉区,東勝山２丁目１２番１５号,,04,101,9810923,,,2022-04-27,清算の結了等,,,2015-10-05,1,,,,,オフィスエヌエヌ,0
356,1430003011909,登記記録の閉鎖等,0,2022-05-11,2022-04-19,バイセイ札幌合同会社,,合同会社,北海道,札幌市北区,北三十四条西３丁目３番１３号,,01,102,0010034,,,2022-04-19,合併による解散等,7430003011837,令和４年４月１９日札幌市北区北三十四条西三丁目３番１３号ハッチング札幌合同会社（7430003011837）に合併し解散,2020-09-30,1,,,,,バイセイサッポロ,0
360,1490001001848,登記記録の閉鎖等,0,2022-05-11,2022-04-28,株式会社浜田電気商会,,株式会社,高知県,高知市,知寄町１丁目５番３５号,,39,201,7800806,,,2022-04-28,清算の結了等,,,2015-10-05,1,,,,,ハマダデンキショウカイ,0
362,1700150040162,登記記録の閉鎖等,0,2022-05-11,2021-12-31,天童市芳賀土地区画整理組合,,その他,山形県,天童市,長岡北１丁目２番１号,,06,210,9940062,,,2021-12-31,その他の清算の結了等,,,2015-10-09,1,,,,,テンドウシハガトチクカクセイリクミアイ,0
406,2010403023198,登記記録の閉鎖等,0,2022-05-11,2022-04-18,ＲＢソーラー伊達合同会社,,合同会社,東京都,港区,虎ノ門３丁目２２番１０－２０１号,,13,103,1050001,,,2022-04-18,清算の結了等,,,2020-06-30,1,,,,,アールビーソーラーダテ,0
436,2011101096627,登記記録の閉鎖等,0,2022-05-11,2022-05-09,株式会社プラス,,株式会社,東京都,新宿区,四谷三栄町１番２号Ｘｅビル２階,,13,104,1600008,,,2022-05-09,清算の結了等,,,2021-10-18,1,,,,,プラス,0
437,2011202006344,登記記録の閉鎖等,0,2022-05-11,2022-04-26,有限会社寄川タイプ社,,有限会社,東京都,中野区,中央５丁目４５番２号,,13,114,1640011,,,2022-04-26,清算の結了等,,,2015-10-05,1,,,,,ヨリカワタイプシャ,0
443,2011601013908,登記記録の閉鎖等,0,2022-05-11,2022-05-09,株式会社ユニークス,,株式会社,東京都,練馬区,西大泉３丁目１９番１６号,,13,120,1780065,,,2022-05-09,清算の結了等,,,2015-10-05,1,,,,,ユニークス,0
455,2012401032189,登記記録の閉鎖等,0,2022-05-11,2022-04-27,トライトーングローバル株式会社,,株式会社,東京都,武蔵野市,吉祥寺北町１丁目１番１９号中央マンション２階,,13,203,1800001,,,2022-04-27,清算の結了等,,,2016-12-26,1,,,,,トライトーングローバル,0
485,2030001108795,登記記録の閉鎖等,0,2022-05-11,2022-04-01,株式会社エムオフィス,,株式会社,埼玉県,秩父市,中村町２丁目６番１０号,,11,207,3680051,,,2022-04-01,合併による解散等,6030001090775,令和４年４月１日埼玉県秩父市中村町二丁目６番１０号株式会社時習堂（6030001090775）に合併し解散,2015-10-05,1,,,,,エムオフィス,0
489,2030002007930,登記記録の閉鎖等,0,2022-05-11,2022-04-27,有限会社創研,,有限会社,埼玉県,さいたま市大宮区,浅間町２丁目２６２番地,,11,103,3300842,,,2022-04-27,清算の結了等,,,2015-10-05,1,,,,,ソウケン,0
516,2070001008133,登記記録の閉鎖等,0,2022-05-11,2022-04-25,株式会社東日本ゴルフ新聞社,,株式会社,群馬県,高崎市,上小鳥町５５８番地３,,10,202,3700078,,,2022-04-25,清算の結了等,,,2015-10-05,1,,,,,ヒガシニホンゴルフシンブンシャ,0
518,2070001013926,登記記録の閉鎖等,0,2022-05-11,2022-04-26,千葉精工株式会社,,株式会社,群馬県,伊勢崎市,市場町２丁目１１８５番地,,10,204,3792211,,,2022-04-26,清算の結了等,,,2015-10-05,1,,,,,チバセイコウ,0
532,2110005008166,登記記録の閉鎖等,0,2022-05-11,2022-04-01,牧商工会,,その他の設立登記法人,新潟県,上越市,牧区柳島１２１２番地,,15,222,9430647,,,2022-04-01,合併による解散等,3110005008165,令和４年４月１日新潟県上越市清里区荒牧１０番地５清里牧商工会（3110005008165）に合併し解散,2015-10-05,1,,,,,マキ,0
535,2120001082858,登記記録の閉鎖等,0,2022-05-11,2022-05-02,創建設株式会社,,株式会社,大阪府,大阪市中央区,南船場１丁目１０番１２号,,27,128,5420081,,,2022-05-02,清算の結了等,,,2015-10-05,1,,,,,,0
587,2140001014289,登記記録の閉鎖等,0,2022-05-11,2022-04-05,三菱電機コントロールソフトウエア株式会社,,株式会社,兵庫県,神戸市兵庫区,和田崎町１丁目１番２号,,28,105,6520854,,,2022-04-05,合併による解散等,9010401028746,令和４年４月１日東京都港区浜松町二丁目４番１号三菱電機ソフトウエア株式会社（9010401028746）に合併し解散,2015-10-05,1,,,,,ミツビシデンキコントロールソフトウエア,0
589,2140001032514,登記記録の閉鎖等,0,2022-05-11,2022-05-02,株式会社大阪ランチ,,株式会社,兵庫県,芦屋市,山手町３１番３０号,,28,206,6590096,,,2022-05-02,清算の結了等,,,2015-10-05,1,,,,,オオサカランチ,0
590,2140001051489,登記記録の閉鎖等,0,2022-05-11,2022-04-05,三菱電機マイコン機器ソフトウエア株式会社,,株式会社,兵庫県,尼崎市,猪名寺２丁目５番１号,,28,202,6610981,,,2022-04-05,合併による解散等,9010401028746,令和４年４月１日東京都港区浜松町二丁目４番１号三菱電機ソフトウエア株式会社（9010401028746）に合併し解散,2015-10-05,1,,,,,ミツビシデンキマイコンキキソフトウエア,0
598,2140005022585,登記記録の閉鎖等,0,2022-05-11,2022-05-09,一般社団法人瀬戸内海島めぐり協会,,その他の設立登記法人,兵庫県,淡路市,浅野南１５６番地１０,,28,226,6561741,,,2022-05-09,清算の結了等,,,2015-10-19,1,,,,,セトナイカイシマメグリキョウカイ,0
631,2200001029297,登記記録の閉鎖等,0,2022-05-11,2022-04-08,株式会社柏友堂,,株式会社,岐阜県,郡上市,白鳥町白鳥２０番地１,,21,219,5015121,,,2022-04-08,合併による解散等,2180001051213,令和４年４月１日名古屋市中村区那古野一丁目４７番１号総合メディカル・ファーマシー中部株式会社（2180001051213）に合併し解散,2015-10-05,1,,,,,,0
634,2210001003904,登記記録の閉鎖等,0,2022-05-11,2022-04-27,株式会社松本商店,,株式会社,福井県,福井市,浜別所町第１２号６番地,,18,201,9103134,,,2022-04-27,清算の結了等,,,2022-03-25,1,,,,,マツモトショウテン,0
640,2220001009264,登記記録の閉鎖等,0,2022-05-11,2022-05-02,株式会社ツカサ製作所,,株式会社,石川県,金沢市,打木町東１４４０番地,,17,201,9200377,,,2022-05-02,清算の結了等,,,2015-10-05,1,,,,,ツカサセイサクショ,0
657,2240005010935,登記記録の閉鎖等,0,2022-05-11,2022-04-06,天理教高見山分教会,,その他の設立登記法人,広島県,尾道市,向島町２３０８番地の５,,34,205,7220073,,,2022-04-06,合併による解散等,6240005010584,令和４年４月６日広島県尾道市栗原東二丁目５番６号天理教西御所分教会（6240005010584）に合併し解散,2015-10-05,1,,,,,テンリキョウタカミヤマブンキョウカイ,0
669,2290002054253,登記記録の閉鎖等,0,2022-05-11,2022-04-28,有限会社光陽建設,,有限会社,福岡県,柳川市,三橋町久末９１７番地,,40,207,8320816,,,2022-04-28,清算の結了等,,,2015-10-05,1,,,,,コウヨウケンセツ,0
681,2330001001268,登記記録の閉鎖等,0,2022-05-11,2022-04-01,熊日都市圏販売株式会社,,株式会社,熊本県,熊本市中央区,世安１丁目５番１号,,43,101,8600827,,,2022-04-01,合併による解散等,3330001015845,令和４年４月１日熊本市中央区世安町７８番地１株式会社熊日物流販売（3330001015845）に合併し解散,2015-10-05,1,,,,,クマニチトシケンハンバイ,0
697,2380001016229,登記記録の閉鎖等,0,2022-05-11,2022-05-02,イー・エス保険株式会社,,株式会社,福島県,相馬市,新沼字坪ケ迫５６１番地３,,07,209,9760011,,,2022-05-02,清算の結了等,,,2015-10-05,1,,,,,イーエスホケン,0
700,2380002021467,登記記録の閉鎖等,0,2022-05-11,2022-05-02,有限会社シラカワマーク,,有限会社,福島県,石川郡石川町,大字山形字兎田３７９番地,00083823,07,501,9637814,,,2022-05-02,清算の結了等,,,2015-10-05,1,,,,,シラカワマーク,0
702,2390002013562,登記記録の閉鎖等,0,2022-05-11,2022-04-28,我妻木材有限会社,,有限会社,山形県,米沢市,城西３丁目６番１２号,,06,202,9920054,,,2022-04-28,清算の結了等,,,2015-10-05,1,,,,,ワガツマモクザイ,0
705,2400002001458,登記記録の閉鎖等,0,2022-05-11,2022-05-02,有限会社プラス,,有限会社,岩手県,滝沢市,穴口１８３番地１,,03,216,0200633,,,2022-05-02,合併による解散等,2400001003439,令和４年５月１日岩手県盛岡市本宮六丁目１番５５号株式会社銀河調剤（2400001003439）に合併し解散,2015-10-05,1,,,,,プラス,0
707,2400003002876,登記記録の閉鎖等,0,2022-05-11,2022-05-10,合同会社ひなた,,合同会社,岩手県,盛岡市,加賀野１丁目７－１８オーパル加賀野ＩＩ１０１,00125221,03,201,0200807,,,2022-05-10,清算の結了等,,,2021-12-24,1,,,,,ヒナタ,0
715,2430003012162,登記記録の閉鎖等,0,2022-05-11,2022-04-27,エンカ合同会社,,合同会社,北海道,札幌市西区,西野八条４丁目９番２０号,,01,107,0630038,,,2022-04-27,清算の結了等,,,2020-11-20,1,,,,,エンカ,0
716,2430003012261,登記記録の閉鎖等,0,2022-05-11,2022-04-19,マイルド北海道合同会社,,合同会社,北海道,札幌市北区,北三十四条西３丁目３番１３号,,01,102,0010034,,,2022-04-19,合併による解散等,7430003011837,令和４年４月１９日札幌市北区北三十四条西三丁目３番１３号ハッチング札幌合同会社（7430003011837）に合併し解散,2020-12-28,1,,,,,マイルドホッカイドウ,0
719,2470001006674,登記記録の閉鎖等,0,2022-05-11,2022-05-09,株式会社ＨＡＣＫＥＲＳ＆Ｃｏ．ｉｓｌａｎｄ,,株式会社,香川県,高松市,内町３番地９,,37,201,7600034,,,2022-05-09,清算の結了等,,,2015-10-05,1,,,,,ハッカーズアンドコーアイランド,0
723,2470002008422,登記記録の閉鎖等,0,2022-05-11,2022-04-01,有限会社アクアクララかがわ,,有限会社,香川県,高松市,朝日新町２４番２０号,,37,201,7600064,,,2022-04-01,合併による解散等,4470001001203,香川県高松市朝日新町２４番２０号四国トラステック株式会社（4470001001203）に合併し解散,2015-10-05,1,,,,,アクアクララカガワ,0
726,2500001010879,登記記録の閉鎖等,0,2022-05-11,2022-04-28,株式会社デフィ,,株式会社,愛媛県,新居浜市,高木町２番１２５号,,38,205,7920031,,,2022-04-28,清算の結了等,,,2015-10-05,1,,,,,デフィ,0
752,3010005028355,登記記録の閉鎖等,0,2022-05-11,2022-05-02,一般社団法人カービング・アート・ソサエティー,,その他の設立登記法人,東京都,中央区,銀座５丁目９－１４銀座ニューセントラルビル５ＦギャラリーサロンＴＡＣＴ内,,13,102,1040061,,,2022-05-02,清算の結了等,,,2018-04-09,1,,,,,カービングアートソサエティー,0
755,3010101013979,登記記録の閉鎖等,0,2022-05-11,2022-05-09,ＳＢＢＳ株式会社,,株式会社,東京都,八王子市,弐分方町３７０番地１,,13,201,1930822,,,2022-05-09,合併による解散等,9010101002935,令和４年５月１日東京都八王子市弐分方町３７０番地１日本ポリテック株式会社（9010101002935）に合併し解散,2019-12-13,1,,,,,エスビービーエス,0
766,3010601032173,登記記録の閉鎖等,0,2022-05-11,2022-04-22,株式会社ワイズファクトリー,,株式会社,東京都,墨田区,太平１丁目８番４号,,13,107,1300012,,,2022-04-22,清算の結了等,,,2015-10-05,1,,,,,ワイズファクトリー,0
843,3020002062463,登記記録の閉鎖等,0,2022-05-11,2022-04-27,有限会社エス・ティ・エス,,有限会社,神奈川県,横浜市瀬谷区,瀬谷３丁目１１番地の１０,,14,114,2460031,,,2022-04-27,清算の結了等,,,2015-10-05,1,,,,,エスティエス,0
888,3050001031508,登記記録の閉鎖等,0,2022-05-11,2022-04-01,関城ダテック株式会社,,株式会社,茨城県,筑西市,玉戸１０１９番地の９,,08,227,3080847,,,2022-04-01,合併による解散等,7050001031529,令和４年４月１日茨城県筑西市玉戸１０１９番地９ダテックス株式会社（7050001031529）に合併し解散,2015-10-05,1,,,,,セキジョウダテック,0
896,3080401011858,登記記録の閉鎖等,0,2022-05-11,2022-05-06,株式会社あさひ経営サポート,,株式会社,静岡県,浜松市北区,初生町１１６３番地の４７,,22,135,4338112,,,2022-05-06,清算の結了等,,,2015-10-05,1,,,,,アサヒケイエイサポート,0
936,3120101007400,登記記録の閉鎖等,0,2022-05-11,2022-05-06,株式会社山貞,,株式会社,大阪府,堺市堺区,翁橋町１丁９番４号,,27,141,5900061,,,2022-05-06,清算の結了等,,,2015-10-05,1,,,,,ヤマサダ,0
937,3120101045111,登記記録の閉鎖等,0,2022-05-11,2022-05-06,株式会社ＴＲＵＳＴ,,株式会社,大阪府,和泉市,肥子町２丁目９番４３号,,27,219,5940076,,,2022-05-06,清算の結了等,,,2015-10-05,1,,,,,,0
949,3130001002822,登記記録の閉鎖等,0,2022-05-11,2022-04-28,株式会社ギャレトラベル,,株式会社,京都府,京都市上京区,河原町通丸太町下る伊勢屋町３９３番地の２,,26,102,6020873,,,2022-04-28,清算の結了等,,,2015-10-05,1,,,,,ギャレトラベル,0
951,3130002034245,登記記録の閉鎖等,0,2022-05-11,2022-05-06,有限会社岸本造園,,有限会社,京都府,舞鶴市,丸山町６９番地の１,,26,202,6250063,,,2022-05-06,清算の結了等,,,2015-10-05,1,,,,,キシモトゾウエン,0
953,3140001014379,登記記録の閉鎖等,0,2022-05-11,2022-04-05,メルコ・パワー・システムズ株式会社,,株式会社,兵庫県,神戸市兵庫区,和田崎町１丁目１番２号,,28,105,6520854,,,2022-04-05,合併による解散等,9010401028746,令和４年４月１日東京都港区浜松町二丁目４番１号三菱電機ソフトウエア株式会社（9010401028746）に合併し解散,2015-10-05,1,,,,,メルコパワーシステムズ,0
970,3180001102782,登記記録の閉鎖等,0,2022-05-11,2022-05-02,Ｌ＆Ｍ株式会社,,株式会社,愛知県,名古屋市中村区,名駅３丁目３番２号,,23,105,4500002,,,2022-05-02,清算の結了等,,,2015-10-05,1,,,,,,0
980,3180002083171,登記記録の閉鎖等,0,2022-05-11,2022-05-02,有限会社ウスイ,,有限会社,愛知県,半田市,乙川市場町１丁目３７番地,,23,205,4750046,,,2022-05-02,清算の結了等,,,2015-10-05,1,,,,,ウスイ,0
993,3220001001063,登記記録の閉鎖等,0,2022-05-11,2022-05-02,株式会社瑞夫,,株式会社,石川県,金沢市,尾張町１丁目２番２３号プチハイム尾張町１階,,17,201,9200902,,,2022-05-02,清算の結了等,,,2015-10-05,1,,,,,ミズオ,0
1055,3430001025628,登記記録の閉鎖等,0,2022-05-11,2022-04-26,株式会社エム・エイチコーポレーション,,株式会社,北海道,札幌市厚別区,厚別北四条５丁目８番２６号,,01,108,0040074,,,2022-04-26,清算の結了等,,,2015-10-05,1,,,,,エムエイチコーポレーション,0
1057,3430001046839,登記記録の閉鎖等,0,2022-05-11,2022-05-02,日峰産業株式会社,,株式会社,北海道,美唄市,字光珠内５４９番地,,01,215,0720000,,,2022-05-02,合併による解散等,5430001046886,令和４年５月１日北海道美唄市光珠内５４９番地北海道日油株式会社（5430001046886）に合併し解散,2015-10-05,1,,,,,,0
1061,3430003011915,登記記録の閉鎖等,0,2022-05-11,2022-04-19,イショク札幌合同会社,,合同会社,北海道,札幌市北区,北三十四条西３丁目３番１３号,,01,102,0010034,,,2022-04-19,合併による解散等,7430003011837,令和４年４月１９日札幌市北区北三十四条西三丁目３番１３号ハッチング札幌合同会社（7430003011837）に合併し解散,2020-09-30,1,,,,,イショクサッポロ,0
1062,3430003012260,登記記録の閉鎖等,0,2022-05-11,2022-04-19,マイルド札幌合同会社,,合同会社,北海道,札幌市北区,北三十四条西３丁目３番１３号,,01,102,0010034,,,2022-04-19,合併による解散等,7430003011837,令和４年４月１９日札幌市北区北三十四条西三丁目３番１３号ハッチング札幌合同会社（7430003011837）に合併し解散,2020-12-28,1,,,,,マイルドサッポロ,0
1065,3460001003036,登記記録の閉鎖等,0,2022-05-11,2022-04-28,株式会社五菱商会,,株式会社,北海道,厚岸郡厚岸町,若竹町１丁目６８番地,,01,662,0881118,,,2022-04-28,清算の結了等,,,2020-04-15,1,,,,,,0
1066,3470001011087,登記記録の閉鎖等,0,2022-05-11,2022-05-02,志度電化株式会社,,株式会社,香川県,さぬき市,志度９０４番地９,,37,206,7692101,,,2022-05-02,清算の結了等,,,2015-10-05,1,,,,,シドデンカ,0
1067,3480002003768,登記記録の閉鎖等,0,2022-05-11,2022-05-10,有限会社花谷工務店,,有限会社,徳島県,徳島市,二軒屋町２丁目３２番地,,36,201,7700928,,,2022-05-10,清算の結了等,,,2015-10-05,1,,,,,ハナタニコウムテン,0
1074,3500001023640,登記記録の閉鎖等,0,2022-05-11,2022-05-06,株式会社シティ総研,,株式会社,愛媛県,松山市,桑原１丁目６番３号ステラルーチェ２０３号,,38,201,7900911,,,2022-05-06,清算の結了等,,,2021-08-26,1,,,,,シティソウケン,0
1084,4010001207044,登記記録の閉鎖等,0,2022-05-11,2022-04-18,株式会社ＮＩＬ,,株式会社,東京都,中央区,日本橋富沢町１０番１３号,,13,102,1030006,,,2022-04-18,清算の結了等,,,2020-01-28,1,,,,,ニル,0
1097,4010105001509,登記記録の閉鎖等,0,2022-05-11,2022-05-06,一般財団法人日タイ文化交流協会,,その他の設立登記法人,東京都,八王子市,楢原町８３３番地１,,13,201,1930803,,,2022-05-06,清算の結了等,,,2015-10-05,1,,,,,ニッタイブンカコウリュウキョウカイ,0
1106,4010501006516,登記記録の閉鎖等,0,2022-05-11,2022-04-28,株式会社ジャパン・フード・システムズ,,株式会社,東京都,台東区,東上野１丁目１２番１号,,13,106,1100015,,,2022-04-28,清算の結了等,,,2021-10-08,1,,,,,ジャパンフードシステムズ,0
1116,4010901042227,登記記録の閉鎖等,0,2022-05-11,2022-04-22,株式会社Ｗｉｌｌ　Ｃ,,株式会社,東京都,江東区,有明１丁目５番２２号,,13,108,1350063,,,2022-04-22,清算の結了等,,,2018-06-12,1,,,,,ウィルシー,0
1129,4011003012721,登記記録の閉鎖等,0,2022-05-11,2022-04-11,合同会社ＡＧＹ,,合同会社,東京都,渋谷区,渋谷２丁目１０番１５号,,13,113,1500002,,,2022-04-11,清算の結了等,,,2021-05-11,1,,,,,アギー,0
1146,4011502015786,登記記録の閉鎖等,0,2022-05-11,2022-05-09,有限会社ガイアライト,,有限会社,東京都,荒川区,東日暮里２丁目３２番１０号藤和日暮里コープ１０１号,,13,118,1160014,,,2022-05-09,清算の結了等,,,2015-10-05,1,,,,,ガイアライト,0
1205,4040001022366,登記記録の閉鎖等,0,2022-05-11,2022-05-02,株式会社ヤマケン,,株式会社,千葉県,船橋市,三山７丁目２番４号,,12,204,2740072,,,2022-05-02,清算の結了等,,,2015-10-05,1,,,,,ヤマケン,0
1254,4120001209715,登記記録の閉鎖等,0,2022-05-11,2022-05-06,株式会社正光アドコーポレーション,,株式会社,大阪府,大阪市東住吉区,杭全１丁目１４番１０号,,27,121,5460002,,,2022-05-06,合併による解散等,3180001090284,令和４年４月３０日岐阜県羽島郡岐南町平成六丁目４８番地株式会社フェーバリット実業（3180001090284）に合併し解散,2017-11-28,1,,,,,セイコウアドコーポレーション,0
1269,4120005000293,登記記録の閉鎖等,0,2022-05-11,2022-04-04,天理教大高明分教会,00031670,その他の設立登記法人,大阪府,大阪市港区,波除５丁目７番９号,,27,107,5520001,,,2022-04-04,合併による解散等,5120005000160,令和４年４月４日大阪市港区市岡元町三丁目４番９号天理教高譽分教会（5120005000160）に合併し解散,2015-10-05,1,,,,,テンリキョウダイコウメイブンキョウカイ,0
1296,4140001105326,登記記録の閉鎖等,0,2022-05-11,2022-05-06,構造工学みき株式会社,,株式会社,兵庫県,三木市,府内町６番３８号,,28,215,6730400,,,2022-05-06,清算の結了等,,,2017-03-07,1,,,,,コウゾウコウガクミキ,0
1302,4140002057137,登記記録の閉鎖等,0,2022-05-11,2022-05-02,有限会社堤エステート管理事務所,,有限会社,兵庫県,西宮市,今津水波町８番５－３０４号,,28,204,6638215,,,2022-05-02,清算の結了等,,,2015-10-05,1,,,,,,0
1309,4160001004591,登記記録の閉鎖等,0,2022-05-11,2022-05-10,株式会社ウッドバリ,,株式会社,滋賀県,大津市,下阪本１丁目７番７号,,25,201,5200105,,,2022-05-10,清算の結了等,,,2015-10-05,1,,,,,ウッドバリ,0
1315,4180001087841,登記記録の閉鎖等,0,2022-05-11,2022-05-02,株式会社カーベル,,株式会社,愛知県,岩倉市,大地町長田３５番地の１,,23,228,4820026,,,2022-05-02,合併による解散等,9180001074091,令和４年５月１日愛知県春日井市柏井町四丁目４３番地の１株式会社ゴトウスバル（9180001074091）に合併し解散,2015-10-05,1,,,,,カーベル,0
1332,4210002001797,登記記録の閉鎖等,0,2022-05-11,2022-05-06,有限会社寿恵堂薬局,,有限会社,福井県,吉田郡永平寺町,松岡春日１丁目８番地,,18,322,9101133,,,2022-05-06,清算の結了等,,,2015-10-05,1,,,,,ジュケイドウヤッキョク,0
1340,4230002014707,登記記録の閉鎖等,0,2022-05-11,2022-04-21,有限会社中村製靴店,,有限会社,富山県,高岡市,末広町４１番地,,16,202,9330023,,,2022-04-21,清算の結了等,,,2021-12-24,1,,,,,ナカムラセイカテン,0
1375,4320003001059,登記記録の閉鎖等,0,2022-05-11,2022-05-02,合資会社青波漆器店,,合資会社,大分県,竹田市,大字竹田町５４７番地,,44,208,8780012,,,2022-05-02,清算の結了等,,,2015-10-05,1,,,,,,0
1382,4340002023498,登記記録の閉鎖等,0,2022-05-11,2022-05-10,有限会社小堀水道,,有限会社,鹿児島県,南さつま市,加世田東本町２３番地７,,46,220,8970031,,,2022-05-10,清算の結了等,,,2015-10-05,1,,,,,コボリスイドウ,0
1402,4430002005520,登記記録の閉鎖等,0,2022-05-11,2022-04-26,有限会社川村水産,,有限会社,北海道,札幌市豊平区,平岸四条１４丁目４番３８－７０２号,,01,105,0620934,,,2022-04-26,清算の結了等,,,2015-10-05,1,,,,,カワムラスイサン,0
1406,4480002003783,登記記録の閉鎖等,0,2022-05-11,2022-05-10,有限会社パンのモンパリ,,有限会社,徳島県,徳島市,寺島本町東２丁目３１番地,,36,201,7700832,,,2022-05-10,清算の結了等,,,2015-10-05,1,,,,,パンノモンパリ,0
1407,4480002004567,登記記録の閉鎖等,0,2022-05-11,2022-05-11,有限会社本田商店,,有限会社,徳島県,徳島市,国府町川原田３１１番地,,36,201,7793113,,,2022-05-11,清算の結了等,,,2015-10-05,1,,,,,ホンダショウテン,0
1419,5010001116665,登記記録の閉鎖等,0,2022-05-11,2022-04-18,株式会社ティーエムアール,,株式会社,東京都,文京区,千駄木４丁目１２番６－３０２号,,13,105,1130022,,,2022-04-18,清算の結了等,,,2015-10-05,1,,,,,ティーエムアール,0
1434,5010005033774,登記記録の閉鎖等,0,2022-05-11,2022-04-08,司法書士法人佐藤合同事務所,,その他の設立登記法人,東京都,千代田区,神田神保町２丁目４番地,,13,101,1010051,,,2022-04-08,合併による解散等,2120005015657,令和４年４月１日大阪市中央区谷町一丁目５番４号司法書士法人ＮＡＧＡＩ（2120005015657）に合併し解散,2021-08-03,1,,,,,サトウゴウドウジムショ,0
1440,5010401142807,登記記録の閉鎖等,0,2022-05-11,2022-04-08,八洲情報システム株式会社,,株式会社,東京都,港区,芝３丁目１４番４号,,13,103,1050014,,,2022-04-08,合併による解散等,9011501023356,令和４年４月１日東京都荒川区東日暮里三丁目１１番１７号八洲環境エンジニアリング株式会社（9011501023356）に合併し解散,2018-12-25,1,,,,,ヤシマジョウホウシステム,0
1459,5010701027518,登記記録の閉鎖等,0,2022-05-11,2022-05-02,株式会社華,,株式会社,東京都,品川区,北品川５丁目３番１－１９１０号,,13,109,1410001,,,2022-05-02,清算の結了等,,,2015-10-05,1,,,,,ハナ,0
1462,5010803001800,登記記録の閉鎖等,0,2022-05-11,2022-05-09,ＴＡＳ株式会社,,株式会社,東京都,大田区,大森東１丁目１５番１０号,,13,111,1430012,,,2022-05-09,合併による解散等,2010701026258,令和４年４月１日東京都品川区西五反田八丁目１２番５号株式会社アイサンクス（2010701026258）に合併し解散,2015-10-05,1,,,,,ティーエーエス,0
1467,5010902001503,登記記録の閉鎖等,0,2022-05-11,2022-05-02,有限会社医食研・東京,,有限会社,東京都,世田谷区,赤堤１丁目４０番１４号,,13,112,1560044,,,2022-05-02,清算の結了等,,,2015-10-05,1,,,,,イショクケントウキョウ,0
1477,5011001102127,登記記録の閉鎖等,0,2022-05-11,2022-04-12,トライプロジェクト株式会社,,株式会社,東京都,渋谷区,恵比寿南１丁目１３番８号,,13,113,1500022,,,2022-04-12,清算の結了等,,,2015-10-05,1,,,,,トライプロジェクト,0
1490,5011201016300,登記記録の閉鎖等,0,2022-05-11,2022-04-18,株式会社ＫＧＶＬマーケティング,,株式会社,東京都,港区,浜松町２丁目２番１５号,,13,103,1050013,,,2022-04-18,清算の結了等,,,2015-10-05,1,,,,,ケージーブイエルマーケティング,0
1496,5011601000291,登記記録の閉鎖等,0,2022-05-11,2022-05-09,株式会社浅井,,株式会社,東京都,練馬区,西大泉６丁目１３番１２号,,13,120,1780065,,,2022-05-09,清算の結了等,,,2015-10-05,1,,,,,アサイ,0
1541,5030001032745,登記記録の閉鎖等,0,2022-05-11,2022-04-28,関東興業株式会社,,株式会社,埼玉県,加須市,細間１０６番地３,,11,210,3491156,,,2022-04-28,清算の結了等,,,2015-10-05,1,,,,,カントウコウギョウ,0
1557,5040002045605,登記記録の閉鎖等,0,2022-05-11,2022-04-28,有限会社工業彫刻研究所,,有限会社,千葉県,松戸市,高塚新田６３０番地,,12,207,2702222,,,2022-04-28,清算の結了等,,,2015-10-05,1,,,,,コウギョウチョウコクケンキュウショ,0
1577,5080001009375,登記記録の閉鎖等,0,2022-05-11,2022-05-09,ユーワ株式会社,,株式会社,静岡県,静岡市清水区,折戸４丁目１２番４３号,,22,103,4240902,,,2022-05-09,清算の結了等,,,2015-10-05,1,,,,,ユーワ,0
1581,5080101011685,登記記録の閉鎖等,0,2022-05-11,2022-05-06,株式会社ピアピアチェーン,,株式会社,静岡県,富士宮市,小泉２２２８番地の１３,,22,207,4180022,,,2022-05-06,清算の結了等,,,2015-10-05,1,,,,,ピアピアチェーン,0
1582,5080102013912,登記記録の閉鎖等,0,2022-05-11,2022-05-09,有限会社小林産業,,有限会社,静岡県,富士市,比奈９０２番地の２,,22,210,4170847,,,2022-05-09,清算の結了等,,,2015-10-05,1,,,,,コバヤシサンギョウ,0
1591,5090001014639,登記記録の閉鎖等,0,2022-05-11,2022-04-28,東農園株式会社,,株式会社,山梨県,南アルプス市,上今諏訪２４７番地１,,19,208,4000211,,,2022-04-28,清算の結了等,,,2016-06-15,1,,,,,ヒガシノウエン,0
1594,5100001033736,登記記録の閉鎖等,0,2022-05-11,2022-05-02,ａｉとＺｅｎ株式会社,,株式会社,長野県,松本市,大字笹賀５７４７番地８,,20,202,3990033,,,2022-05-02,清算の結了等,,,2020-12-03,1,,,,,アイトゼン,0
1599,5110002010262,登記記録の閉鎖等,0,2022-05-11,2022-05-06,有限会社新潟ライスミル,,有限会社,新潟県,新潟市南区,下曲通８２６番地１,,15,106,9501301,,,2022-05-06,清算の結了等,,,2015-10-05,1,,,,,ニイガタライスミル,0
1611,5120001148185,登記記録の閉鎖等,0,2022-05-11,2022-05-09,大信金属工業株式会社,,株式会社,大阪府,寝屋川市,黒原城内町１１番１１号,,27,215,5720050,,,2022-05-09,清算の結了等,,,2015-10-05,1,,,,,ダイシンキンゾクコウギョウ,0
1626,5120101009675,登記記録の閉鎖等,0,2022-05-11,2022-05-02,株式会社ウッズ,,株式会社,大阪府,堺市東区,日置荘西町６丁２番２２－２０５号,,27,143,5998114,,,2022-05-02,清算の結了等,,,2015-10-05,1,,,,,ウッズ,0
1651,5140002000673,登記記録の閉鎖等,0,2022-05-11,2022-05-02,有限会社阪神コンタクトレンズ,,有限会社,兵庫県,芦屋市,岩園町８番６号,,28,206,6590013,,,2022-05-02,清算の結了等,,,2015-10-05,1,,,,,ハンシンコンタクトレンズ,0
1667,5180003018661,登記記録の閉鎖等,0,2022-05-11,2022-04-27,合同会社Ｋ＆Ｅ,,合同会社,愛知県,名古屋市中区,新栄３丁目１９番５号,,23,106,4600007,,,2022-04-27,清算の結了等,,,2018-02-01,1,,,,,ケーアンドイー,0
1685,5240002003427,登記記録の閉鎖等,0,2022-05-11,2022-05-06,有限会社オリーブ,,有限会社,広島県,広島市南区,段原３丁目７番７号,,34,103,7320811,,,2022-05-06,清算の結了等,,,2015-10-05,1,,,,,オリーブ,0
1709,5290002008743,登記記録の閉鎖等,0,2022-05-11,2022-05-02,有限会社日高屋,,有限会社,福岡県,福岡市早良区,野芥７丁目７番１０号,,40,137,8140171,,,2022-05-02,清算の結了等,,,2015-10-05,1,,,,,ヒダカヤ,0
1711,5290801010552,登記記録の閉鎖等,0,2022-05-11,2022-05-09,増田建設株式会社,,株式会社,福岡県,中間市,長津２丁目１７番７号,,40,215,8090036,,,2022-05-09,清算の結了等,,,2015-10-05,1,,,,,マスダケンセツ,0
1722,5340002016732,登記記録の閉鎖等,0,2022-05-11,2022-05-09,有限会社杉元工業,,有限会社,鹿児島県,薩摩川内市,大王町１３０番地,,46,215,8950062,,,2022-05-09,清算の結了等,,,2015-10-05,1,,,,,スギモトコウギョウ,0
1724,5350001015346,登記記録の閉鎖等,0,2022-05-11,2022-05-06,株式会社ｙｓ．山元林業,,株式会社,宮崎県,都城市,南横市町１９７０番地９,,45,202,8850092,,,2022-05-06,清算の結了等,,,2018-07-06,1,,,,,ワイエスヤマモトリンギョウ,0
1726,5350002016244,登記記録の閉鎖等,0,2022-05-11,2022-05-09,有限会社アートサウンドマツモト,,有限会社,宮崎県,都城市,姫城町３街区２８号,,45,202,8850073,,,2022-05-09,清算の結了等,,,2015-10-05,1,,,,,アートサウンドマツモト,0
1736,5380001016325,登記記録の閉鎖等,0,2022-05-11,2022-05-02,株式会社さくら,,株式会社,福島県,相馬市,塚部字聖４番地,,07,209,9760003,,,2022-05-02,清算の結了等,,,2015-10-05,1,,,,,サクラ,0
1756,5430003012259,登記記録の閉鎖等,0,2022-05-11,2022-04-19,マイルド東京合同会社,,合同会社,北海道,札幌市北区,北三十四条西３丁目３番１３号,,01,102,0010034,,,2022-04-19,合併による解散等,7430003011837,令和４年４月１９日札幌市北区北三十四条西三丁目３番１３号ハッチング札幌合同会社（7430003011837）に合併し解散,2020-12-28,1,,,,,マイルドトウキョウ,0
1760,5460105000349,登記記録の閉鎖等,0,2022-05-11,2022-04-08,十勝農業共済組合,,その他の設立登記法人,北海道,帯広市,川西町基線５９番地２８,,01,207,0891182,,,2022-04-08,合併による解散等,6430005014442,令和４年４月１日札幌市中央区北四条西一丁目１番地みなみ北海道農業共済組合（8430005013054）と北海道深川市一条５番５号北海道中央農業共済組合（7450005004093）と北海道標津郡中標津町西六条南十一丁目６番地１北海道ひがし農業共済組合（1460005001450）と北海道北見市美園４９７番地１オホーツク農業共済組合（6460305001311）と合併して札幌市中央区北四条西一丁目１番地北海道農業共済組合（6430005014442）を設立し解散,2015-10-05,1,,,,,トカチ,0
1808,6010401049225,登記記録の閉鎖等,0,2022-05-11,2022-04-01,七福商事株式会社,,株式会社,東京都,港区,南青山５丁目１番１８号,,13,103,1070062,,,2022-04-01,合併による解散等,9010401052110,令和４年４月１日東京都港区六本木七丁目１５番７号株式会社タウンドクリーム（9010401052110）に合併し解散,2015-10-05,1,,,,,シチフクショウジ,0
1809,6010401063746,登記記録の閉鎖等,0,2022-05-11,2022-04-18,株式会社ＷＩＮ,,株式会社,東京都,港区,芝１丁目１２番７号,,13,103,1050014,,,2022-04-18,清算の結了等,,,2015-10-05,1,,,,,ウイン,0
1826,6010501045578,登記記録の閉鎖等,0,2022-05-11,2022-05-02,株式会社ＰＦコーポレーション,,株式会社,東京都,台東区,東上野２丁目１３番４号さかえビル５階,,13,106,1100015,,,2022-05-02,合併による解散等,3010501033107,令和４年５月２日東京都台東区東上野二丁目１３番４号さかえビル５階株式会社ＧＲＡＳＴ（3010501033107）に合併し解散,2020-04-09,1,,,,,ピーエフコーポレーション,0
1845,6011001101978,登記記録の閉鎖等,0,2022-05-11,2022-04-19,エイ・エス・ティ株式会社,,株式会社,東京都,渋谷区,初台１丁目５１番１号,,13,113,1510061,,,2022-04-19,清算の結了等,,,2015-10-05,1,,,,,エイエスティ,0
1924,6030002038963,登記記録の閉鎖等,0,2022-05-11,2022-04-21,有限会社田中陸郎商店,,有限会社,埼玉県,南埼玉郡菖蒲町,大字菖蒲３７０番地,,11,446,3460106,,,2022-04-21,清算の結了等,,,2022-03-29,1,,,,,タナカリクロウショウテン,0
1942,6040002049051,登記記録の閉鎖等,0,2022-05-11,2022-05-02,有限会社宮作建材店,,有限会社,千葉県,松戸市,二十世紀が丘戸山町２２５番地,,12,207,2710082,,,2022-05-02,清算の結了等,,,2015-10-05,1,,,,,,0
1965,6120001034236,登記記録の閉鎖等,0,2022-05-11,2022-05-09,株式会社池末工務店,,株式会社,大阪府,大阪市福島区,吉野３丁目２７番７号,,27,103,5530006,,,2022-05-09,清算の結了等,,,2015-10-05,1,,,,,イケマツコウムテン,0
1966,6120001061164,登記記録の閉鎖等,0,2022-05-11,2022-05-06,エイコープロジェクト株式会社,,株式会社,大阪府,大阪市北区,天神橋３丁目２番１０号,,27,127,5300041,,,2022-05-06,清算の結了等,,,2015-10-05,1,,,,,エイコープロジェクト,0
1970,6120001115969,登記記録の閉鎖等,0,2022-05-11,2022-05-09,株式会社オクタス,,株式会社,大阪府,大阪市中央区,北浜２丁目３－１０,,27,128,5410041,,,2022-05-09,清算の結了等,,,2015-10-05,1,,,,,オクタス,0
1984,6120002077721,登記記録の閉鎖等,0,2022-05-11,2022-05-06,有限会社ファイル企画,,有限会社,大阪府,枚方市,楠葉花園町５番５－１４０７号,,27,210,5731121,,,2022-05-06,清算の結了等,,,2015-10-05,1,,,,,ファイルキカク,0
2012,6140002048415,登記記録の閉鎖等,0,2022-05-11,2022-05-02,有限会社憲昌,,有限会社,兵庫県,姫路市,亀山２６番地１,,28,201,6700973,,,2022-05-02,清算の結了等,,,2015-10-05,1,,,,,ケンショウ,0
2025,6180002079076,登記記録の閉鎖等,0,2022-05-11,2022-04-27,山内染工有限会社,,有限会社,愛知県,一宮市,起字西生出４番地３,,23,203,4940006,,,2022-04-27,清算の結了等,,,2015-10-05,1,,,,,ヤマウチセンコウ,0
2033,6190005003197,登記記録の閉鎖等,0,2022-05-11,2022-04-01,社会福祉法人亀山市社会事業協会,,その他の設立登記法人,三重県,亀山市,南野町９番１号,,24,210,5190156,,,2022-04-01,合併による解散等,4190005003158,令和４年４月１日三重県亀山市住山町字大掛５９０番地１社会福祉法人安全福祉会（4190005003158）に合併し解散,2015-10-05,1,,,,,カメヤマシシャカイジギョウキョウカイ,0
2041,6230001000466,登記記録の閉鎖等,0,2022-05-11,2022-05-02,大浦ビジネスマシン株式会社,,株式会社,富山県,富山市,大泉本町１丁目８番２号,,16,201,9398094,,,2022-05-02,合併による解散等,1230001003523,令和４年５月１日富山市黒崎１２５番地株式会社立業社・ビジネス・マシンズ（1230001003523）に合併し解散,2015-10-05,1,,,,,オオウラビジネスマシン,0
2125,6430003012258,登記記録の閉鎖等,0,2022-05-11,2022-04-19,パワフル札幌合同会社,,合同会社,北海道,札幌市北区,北三十四条西３丁目３番１３号,,01,102,0010034,,,2022-04-19,合併による解散等,7430003011837,令和４年４月１９日札幌市北区北三十四条西三丁目３番１３号ハッチング札幌合同会社（7430003011837）に合併し解散,2020-12-28,1,,,,,パワフルサッポロ,0
2130,6470002012684,登記記録の閉鎖等,0,2022-05-11,2022-05-06,有限会社長尾酒店,,有限会社,香川県,仲多度郡多度津町,大通り１番２２号,,37,404,7640005,,,2022-05-06,清算の結了等,,,2015-10-05,1,,,,,ナガオサケテン,0
2133,6490005002499,登記記録の閉鎖等,0,2022-05-11,2022-04-11,天理教高壽分教会,,その他の設立登記法人,高知県,土佐清水市,下益野５７２番地,,39,209,7870445,,,2022-04-11,合併による解散等,5120005000160,令和４年４月４日大阪市港区市岡元町三丁目４番９号天理教高譽分教会（5120005000160）に合併し解散,2015-10-05,1,,,,,テンリキョウコウジュブンキョウカイ,0
2135,6500002014322,登記記録の閉鎖等,0,2022-05-11,2022-05-02,有限会社中央エステート,,有限会社,愛媛県,西条市,中野甲１３０８番地４,,38,206,7930054,,,2022-05-02,清算の結了等,,,2015-10-05,1,,,,,チュウオウエステート,0
2150,7010401049216,登記記録の閉鎖等,0,2022-05-11,2022-03-31,株式会社エイジーアール,,株式会社,東京都,港区,南麻布２丁目１３番１２号,,13,103,1060047,,,2022-03-31,清算の結了等,,,2015-10-05,1,,,,,エイジーアール,0
2183,7011001010641,登記記録の閉鎖等,0,2022-05-11,2022-04-18,株式会社姉妹舎,,株式会社,東京都,渋谷区,千駄ヶ谷１丁目５番３号,,13,113,1510051,,,2022-04-18,清算の結了等,,,2015-10-05,1,,,,,シマイシャ,0
2186,7011001133459,登記記録の閉鎖等,0,2022-05-11,2022-04-18,ウマッピー株式会社,,株式会社,東京都,渋谷区,円山町２８番１号渋谷道玄坂スカイビル１１Ｆ,,13,113,1500044,,,2022-04-18,清算の結了等,,,2020-04-23,1,,,,,ウマッピー,0
2199,7011301000870,登記記録の閉鎖等,0,2022-05-11,2022-05-02,株式会社氏家商店,,株式会社,東京都,杉並区,成田東３丁目４番４号,,13,115,1660015,,,2022-05-02,清算の結了等,,,2015-10-05,1,,,,,ウジイエショウテン,0
2234,7020003006523,登記記録の閉鎖等,0,2022-05-11,2022-04-28,合同会社スタジオＪＢ,,合同会社,神奈川県,川崎市宮前区,有馬１丁目１１番１２,,14,136,2160003,,,2022-04-28,清算の結了等,,,2015-10-05,1,,,,,スタジオジェイビー,0
2242,7021005010769,登記記録の閉鎖等,0,2022-05-11,2022-05-06,一般社団法人社会人大学,,その他の設立登記法人,神奈川県,藤沢市,本町１丁目１番３２号３Ｆ,,14,205,2510053,,,2022-05-06,清算の結了等,,,2016-10-21,1,,,,,シャカイジンダイガク,0
2264,7040001085939,登記記録の閉鎖等,0,2022-05-11,2022-04-28,株式会社ツバサ,,株式会社,千葉県,白井市,折立５５６番地,,12,232,2701404,,,2022-04-28,清算の結了等,,,2015-10-05,1,,,,,ツバサ,0
2271,7040002003940,登記記録の閉鎖等,0,2022-05-11,2022-05-02,京葉産業有限会社,,有限会社,千葉県,千葉市美浜区,磯辺７丁目２４番２号,,12,106,2610012,,,2022-05-02,清算の結了等,,,2015-10-05,1,,,,,ケイヨウサンギョウ,0
2285,7050005001008,登記記録の閉鎖等,0,2022-05-11,2022-04-01,公益社団法人茨城県緑化推進機構,00023866,その他の設立登記法人,茨城県,水戸市,三の丸１丁目３番２号,,08,201,3100011,,,2022-04-01,合併による解散等,8050005000462,令和４年４月１日茨城県水戸市三の丸一丁目３番２号公益社団法人茨城県森林・林業協会（8050005000462）に合併し解散,2015-10-05,1,,,,,イバラキケンリョクカスイシンキコウ,0
2299,7080401002977,登記記録の閉鎖等,0,2022-05-11,2022-05-06,ダイワ産業株式会社,,株式会社,静岡県,浜松市東区,豊西町４４５番地,,22,132,4313102,,,2022-05-06,清算の結了等,,,2015-10-05,1,,,,,ダイワサンギョウ,0
2306,7120001036537,登記記録の閉鎖等,0,2022-05-11,2022-05-06,株式会社松ヶ枝,,株式会社,大阪府,大阪市福島区,野田３丁目６番９号,,27,103,5530005,,,2022-05-06,清算の結了等,,,2015-10-05,1,,,,,マツガエ,0
2317,7120001214027,登記記録の閉鎖等,0,2022-05-11,2022-05-10,ビトシア製薬株式会社,,株式会社,大阪府,大阪市浪速区,日本橋東１丁目１２番１３号グランビルドヒラノ２０１号,,27,111,5560006,,,2022-05-10,清算の結了等,,,2018-06-13,1,,,,,ビトシアセイヤク,0
2325,7120002020564,登記記録の閉鎖等,0,2022-05-11,2022-05-02,有限会社福屋,,有限会社,大阪府,大阪市浪速区,難波中３丁目９番１号,,27,111,5560011,,,2022-05-02,合併による解散等,1120001038943,令和４年５月１日大阪市浪速区難波中三丁目９番１号大仁産業株式会社（1120001038943）に合併し解散,2015-10-05,1,,,,,フクヤ,0
2340,7120901032172,登記記録の閉鎖等,0,2022-05-11,2022-04-18,クオンタムバイオシステムズ株式会社,,株式会社,東京都,中央区,日本橋兜町１１番７号,,13,102,1030026,,,2022-04-18,清算の結了等,,,2015-10-05,1,,,,,クオンタムバイオシステムズ,0
2341,7120905001999,登記記録の閉鎖等,0,2022-05-11,2022-05-06,特定非営利活動法人ナムのひろば,,その他の設立登記法人,大阪府,池田市,石橋４丁目２２番９号岩田政司様方,,27,204,5630032,,,2022-05-06,清算の結了等,,,2015-10-05,1,,,,,ナムノヒロバ,0
2352,7130001034309,登記記録の閉鎖等,0,2022-05-11,2022-05-02,株式会社ミタニパワーシステム,,株式会社,京都府,宇治市,槇島町吹前１０７番地１,,26,204,6110041,,,2022-05-02,合併による解散等,1130001033118,令和４年５月１日京都府宇治市槇島町吹前１０７番地１株式会社三谷合金製作所（1130001033118）に合併し解散,2015-10-05,1,,,,,ミタニパワーシステム,0
2363,7140005002442,登記記録の閉鎖等,0,2022-05-11,2022-04-12,神明監査法人,,その他の設立登記法人,兵庫県,神戸市中央区,海岸通８番神港ビル,,28,110,6500024,,,2022-04-12,合併による解散等,8120005004101,令和４年４月１日大阪市中央区瓦町三丁目４番８号協立神明監査法人（8120005004101）に合併し解散,2015-10-05,1,,,,,シンメイ,0
2390,7200002023195,登記記録の閉鎖等,0,2022-05-11,2022-05-02,有限会社エス・エム・ピー,,有限会社,岐阜県,中津川市,落合１３０１番地の３,,21,206,5080006,,,2022-05-02,合併による解散等,7200001023378,令和４年５月１日岐阜県中津川市落合７８０番地の８株式会社昌和工業（7200001023378）に合併し解散,2015-10-05,1,,,,,エスエムピー,0
2396,7210002013047,登記記録の閉鎖等,0,2022-05-11,2022-05-02,有限会社サクセス,,有限会社,福井県,鯖江市,東鯖江１丁目１番３号,,18,207,9160041,,,2022-05-02,清算の結了等,,,2015-10-05,1,,,,,サクセス,0
2415,7290001010277,登記記録の閉鎖等,0,2022-05-11,2022-05-06,株式会社プロテック,,株式会社,福岡県,福岡市中央区,大名２丁目１０番１号,,40,133,8100041,,,2022-05-06,清算の結了等,,,2015-10-05,1,,,,,プロテック,0
2425,7290005017095,登記記録の閉鎖等,0,2022-05-11,2022-05-06,特定非営利活動法人慢性の痛みと暮らしをともに考える会,,その他の設立登記法人,福岡県,福岡市城南区,東油山４丁目７番２－１２２３号,,40,136,8140155,,,2022-05-06,清算の結了等,,,2018-12-11,1,,,,,マンセイノイタミトクラシヲトモニカンガエルカイ,0
2428,7300001006059,登記記録の閉鎖等,0,2022-05-11,2022-05-02,株式会社横山工業,,株式会社,佐賀県,伊万里市,脇田町１４５４番地１３２,,41,205,8480028,,,2022-05-02,清算の結了等,,,2015-10-05,1,,,,,ヨコヤマコウギョウ,0
2441,7340002018099,登記記録の閉鎖等,0,2022-05-11,2022-05-06,有限会社前田蒟蒻屋,,有限会社,鹿児島県,いちき串木野市,湊町３丁目１１番地,,46,219,8992101,,,2022-05-06,清算の結了等,,,2015-10-05,1,,,,,マエダコンニャクヤ,0
2455,7370302002072,登記記録の閉鎖等,0,2022-05-11,2022-04-21,有限会社あおば,,有限会社,宮城県,石巻市,門脇字二番谷地１３番地の１５４,,04,202,9860853,,,2022-04-21,清算の結了等,,,2015-10-05,1,,,,,アオバ,0
2467,7430003012257,登記記録の閉鎖等,0,2022-05-11,2022-04-19,パワフル北海道合同会社,,合同会社,北海道,札幌市北区,北三十四条西３丁目３番１３号,,01,102,0010034,,,2022-04-19,合併による解散等,7430003011837,令和４年４月１９日札幌市北区北三十四条西三丁目３番１３号ハッチング札幌合同会社（7430003011837）に合併し解散,2020-12-28,1,,,,,パワフルホッカイドウ,0
2468,7430005006001,登記記録の閉鎖等,0,2022-05-11,2022-04-05,天理教北樺分教会,,その他の設立登記法人,北海道,千歳市,富士４丁目９番８号,,01,224,0660039,,,2022-04-05,合併による解散等,7420005003734,令和４年３月３１日青森県北津軽郡鶴田町大字鶴田字相原３８７番地天理教水元分教会（7420005003734）に合併し解散,2015-10-05,1,,,,,,0
2472,7440003001333,登記記録の閉鎖等,0,2022-05-11,2022-05-02,なとわ・えさん特産品販売合同会社,,合同会社,北海道,函館市,日浦町９５番地,,01,202,0410401,,,2022-05-02,清算の結了等,,,2020-06-17,1,,,,,ナトワエサントクサンヒンハンバイ,0
2473,7440005001686,登記記録の閉鎖等,0,2022-05-11,2022-04-04,社会福祉法人北檜山恵福会,,その他の設立登記法人,北海道,久遠郡せたな町,北檜山区豊岡３３７番地１,,01,371,0494514,,,2022-04-04,合併による解散等,4440005002308,令和４年４月４日北海道北斗市清水川４番地１社会福祉法人雄心会（4440005002308）に合併し解散,2015-10-05,1,,,,,キタヒヤマケイフクカイ,0
2474,7450005004093,登記記録の閉鎖等,0,2022-05-11,2022-04-08,北海道中央農業共済組合,,その他の設立登記法人,北海道,深川市,一条５番５号,,01,228,0740001,,,2022-04-08,合併による解散等,6430005014442,令和４年４月８日札幌市中央区北四条西一丁目１番地みなみ北海道農業共済組合（8430005013054）と北海道帯広市川西町基線５９番地２８十勝農業共済組合（5460105000349）と北海道標津郡中標津町西六条南十一丁目６番地１北海道ひがし農業共済組合（1460005001450）と北海道北見市美園４９７番地１オホーツク農業共済組合（6460305001311）と合併して札幌市中央区北四条西一丁目１番地北海道農業共済組合（6430005014442）を設立し解散,2017-03-03,1,,,,,ホッカイドウチュウオウ,0
2483,8010001148904,登記記録の閉鎖等,0,2022-05-11,2022-04-12,アキバキャビン株式会社,,株式会社,東京都,千代田区,神田佐久間町３丁目３８番地,,13,101,1010025,,,2022-04-12,合併による解散等,5010001018416,令和４年３月３１日東京都千代田区神田須田町二丁目１９番地株式会社新進（5010001018416）に合併し解散,2015-10-05,1,,,,,アキバキャビン,0
2510,8010501011140,登記記録の閉鎖等,0,2022-05-11,2022-05-10,株式会社日の丸ビルディング,,株式会社,東京都,台東区,蔵前３丁目１３番１０号,,13,106,1110051,,,2022-05-10,清算の結了等,,,2015-10-05,1,,,,,ヒノマルビルディング,0
2513,8010601008904,登記記録の閉鎖等,0,2022-05-11,2022-04-25,株式会社エヌテイプランニング,,株式会社,東京都,墨田区,太平４丁目２３番２号,,13,107,1300012,,,2022-04-25,清算の結了等,,,2015-10-05,1,,,,,エヌテイプランニング,0
2549,8011802004171,登記記録の閉鎖等,0,2022-05-11,2022-05-02,有限会社スズキモールドネットワーク,,有限会社,東京都,葛飾区,立石５丁目５番２３号,,13,122,1240012,,,2022-05-02,清算の結了等,,,2015-10-05,1,,,,,,0
2556,8012402000338,登記記録の閉鎖等,0,2022-05-11,2022-04-28,有限会社稲葉測量事務所,,有限会社,東京都,府中市,天神町４丁目２９番地２１,,13,206,1830053,,,2022-04-28,清算の結了等,,,2015-10-05,1,,,,,イナバソクリョウジムショ,0
2570,8020001053541,登記記録の閉鎖等,0,2022-05-11,2022-04-13,東芝エンジニアリングサービス株式会社,,株式会社,神奈川県,川崎市幸区,堀川町７２番地３４,,14,132,2120013,,,2022-04-13,合併による解散等,2020001086464,令和４年４月１日川崎市幸区堀川町７２番地３４東芝プラントシステム株式会社（2020001086464）に合併し解散,2015-10-05,1,,,,,トウシバエンジニアリングサービス,0
2587,8021002052284,登記記録の閉鎖等,0,2022-05-11,2022-05-02,有限会社相建サービス,,有限会社,神奈川県,小田原市,東町２丁目３番１２号,,14,206,2500003,,,2022-05-02,清算の結了等,,,2015-10-05,1,,,,,ソウケンサービス,0
2601,8040001007520,登記記録の閉鎖等,0,2022-05-11,2022-05-02,株式会社モリカワ,,株式会社,千葉県,千葉市美浜区,打瀬１丁目２番地３セントラルパーク・ウエストシータワー２８０１号,,12,106,2610013,,,2022-05-02,清算の結了等,,,2015-10-05,1,,,,,モリカワ,0
2604,8040001107460,登記記録の閉鎖等,0,2022-05-11,2022-04-28,株式会社アサヒ,,株式会社,千葉県,船橋市,新高根１丁目９番１６号,,12,204,2740814,,,2022-04-28,清算の結了等,,,2019-01-04,1,,,,,アサヒ,0
2608,8040002070427,登記記録の閉鎖等,0,2022-05-11,2022-04-28,有限会社ノイエス,,有限会社,千葉県,君津市,南久保１丁目１番１号,,12,225,2991154,,,2022-04-28,清算の結了等,,,2015-10-05,1,,,,,ノイエス,0
2614,8050002028440,登記記録の閉鎖等,0,2022-05-11,2022-04-27,有限会社関東ツーリスト,,有限会社,茨城県,潮来市,辻２４６番地１,00023012,08,223,3112421,,,2022-04-27,清算の結了等,,,2015-10-05,1,,,,,カントウツーリスト,0
2628,8080102019816,登記記録の閉鎖等,0,2022-05-11,2022-05-09,有限会社コタニ静岡,,有限会社,静岡県,伊東市,玖須美元和田７２７番地の１３２,,22,208,4140045,,,2022-05-09,清算の結了等,,,2015-10-05,1,,,,,コタニシズオカ,0
2631,8080402015044,登記記録の閉鎖等,0,2022-05-11,2022-05-06,有限会社トムズ,,有限会社,静岡県,浜松市浜北区,横須賀９５０番地,,22,136,4340036,,,2022-05-06,清算の結了等,,,2015-10-05,1,,,,,トムズ,0
2640,8110001009352,登記記録の閉鎖等,0,2022-05-11,2022-05-09,株式会社ＤＩＣ工業,,株式会社,新潟県,新潟市西区,真砂４丁目１４番３号,,15,107,9502074,,,2022-05-09,清算の結了等,,,2015-10-05,1,,,,,ディックコウギョウ,0
2646,8120001007009,登記記録の閉鎖等,0,2022-05-11,2022-05-09,株式会社宇野紙工,,株式会社,大阪府,大阪市都島区,都島北通１丁目１２番１４号,,27,102,5340014,,,2022-05-09,清算の結了等,,,2015-10-05,1,,,,,ウノシコウ,0
2658,8120001227102,登記記録の閉鎖等,0,2022-05-11,2022-05-02,株式会社音都,,株式会社,大阪府,大阪市西区,北堀江１丁目３番１７号,,27,106,5500014,,,2022-05-02,合併による解散等,6120001123311,令和４年５月１日大阪市西区北堀江一丁目３番２号株式会社ラナイ（6120001123311）に合併し解散,2020-02-12,1,,,,,オント,0
2669,8120101053712,登記記録の閉鎖等,0,2022-05-11,2022-05-02,株式会社ＤＲＥＡＭ,,株式会社,大阪府,泉大津市,我孫子１丁目７番２４号,,27,206,5950031,,,2022-05-02,合併による解散等,4120101050853,令和４年５月１日大阪府岸和田市箕土路町二丁目１３番２４号株式会社山直（4120101050853）に合併し解散,2015-10-05,1,,,,,ドリーム,0
2704,8180001018371,登記記録の閉鎖等,0,2022-05-11,2022-04-05,三菱電機メカトロニクスソフトウエア株式会社,,株式会社,愛知県,名古屋市東区,矢田南５丁目１番１４号,,23,102,4610048,,,2022-04-05,合併による解散等,9010401028746,令和４年４月１日東京都港区浜松町二丁目４番１号三菱電機ソフトウエア株式会社（9010401028746）に合併し解散,2015-10-05,1,,,,,ミツビシデンキメカトロニクスソフトウエア,0
2712,8180002047056,登記記録の閉鎖等,0,2022-05-11,2022-04-26,南成タウン有限会社,,有限会社,愛知県,名古屋市中川区,小本本町３丁目１４４番地,,23,110,4540826,,,2022-04-26,清算の結了等,,,2015-10-05,1,,,,,ナンセイタウン,0
2716,8180005012247,登記記録の閉鎖等,0,2022-05-11,2022-04-04,天理教師崎分教会,,その他の設立登記法人,愛知県,知多郡南知多町,大字師崎字的場２３番地,,23,445,4703503,,,2022-04-04,合併による解散等,9180005012246,令和４年４月４日愛知県知多郡南知多町大字内海字馬場８３番地の４天理教尾知分教会（9180005012246）に合併し解散,2015-10-05,1,,,,,テンリキョウモロザキブンキョウカイ,0
2725,8220001002065,登記記録の閉鎖等,0,2022-05-11,2022-05-02,株式会社金沢倶楽部,,株式会社,石川県,金沢市,泉野出町２丁目２２番１２号,,17,201,9218116,,,2022-05-02,清算の結了等,,,2015-10-05,1,,,,,カナザワクラブ,0
2727,8220001018193,登記記録の閉鎖等,0,2022-05-11,2022-05-02,ＰＦ保険サービス株式会社,,株式会社,石川県,河北郡津幡町,字潟端５６８番地１２,,17,361,9290346,,,2022-05-02,清算の結了等,,,2015-10-05,1,,,,,ピーエフホケンサービス,0
2737,8240002052636,登記記録の閉鎖等,0,2022-05-11,2022-05-02,有限会社弘法,,有限会社,広島県,世羅郡世羅町,大字西上原５６２番地,,34,462,7221121,,,2022-05-02,清算の結了等,,,2015-10-05,1,,,,,コウボウ,0
2740,8250001004711,登記記録の閉鎖等,0,2022-05-11,2022-05-02,株式会社クロイシ,,株式会社,山口県,山陽小野田市,大字小野田６０９５番地６,,35,216,7560817,,,2022-05-02,合併による解散等,3250002006034,令和４年４月３０日山口県山陽小野田市大字小野田６０９５番地１０株式会社クロイシ（3250002006034）に合併し解散,2015-10-05,1,,,,,クロイシ,0
2758,8300001012031,登記記録の閉鎖等,0,2022-05-11,2022-04-22,株式会社ＳＯＬＥＩＬ,,株式会社,佐賀県,唐津市,東町６９番地１,,41,202,8470063,,,2022-04-22,清算の結了等,,,2020-04-13,1,,,,,ソレイユ,0
2763,8330001017300,登記記録の閉鎖等,0,2022-05-11,2022-04-28,株式会社ロードケアウチダ,,株式会社,熊本県,上益城郡嘉島町,大字上仲間８７番地２,,43,442,8613107,,,2022-04-28,清算の結了等,,,2015-10-05,1,,,,,ロードケアウチダ,0
2775,8350005001835,登記記録の閉鎖等,0,2022-05-11,2022-04-26,高鍋小売酒販組合,,その他の設立登記法人,宮崎県,児湯郡高鍋町,大字北高鍋２５９番地,,45,401,8840002,,,2022-04-26,清算の結了等,,,2015-10-05,1,,,,,タカナベコウリ,0
2799,8430003010557,登記記録の閉鎖等,0,2022-05-11,2022-04-19,ブラスト東京合同会社,,合同会社,北海道,札幌市手稲区,稲穂一条２丁目６番２号,,01,109,0060031,,,2022-04-19,合併による解散等,7430003011837,令和４年４月１９日札幌市北区北三十四条西三丁目３番１３号ハッチング札幌合同会社（7430003011837）に合併し解散,2019-06-21,1,,,,,ブラストトウキョウ,0
2802,8450002003931,登記記録の閉鎖等,0,2022-05-11,2022-05-10,道北フェンス興業有限会社,,有限会社,北海道,旭川市,神楽岡十四条４丁目１番１３号,,01,204,0788324,,,2022-05-10,清算の結了等,,,2015-10-05,1,,,,,ドウホクフェンスコウギョウ,0
2805,8450003002008,登記記録の閉鎖等,0,2022-05-11,2022-05-10,リバース合同会社,,合同会社,北海道,旭川市,三条通８丁目緑橋ビル１号館,,01,204,0700033,,,2022-05-10,清算の結了等,,,2020-11-27,1,,,,,リバース,0
2820,9010001123575,登記記録の閉鎖等,0,2022-05-11,2022-04-18,株式会社ＭＴＢ,,株式会社,東京都,千代田区,麹町６丁目１番１８号,,13,101,1020083,,,2022-04-18,清算の結了等,,,2015-10-05,1,,,,,エムティービー,0
2835,9010401034793,登記記録の閉鎖等,0,2022-05-11,2022-04-18,株式会社遊子館,,株式会社,東京都,目黒区,碑文谷５丁目１６番１８－４０１号,,13,110,1520003,,,2022-04-18,清算の結了等,,,2015-10-05,1,,,,,ユウシカン,0
2862,9011001003486,登記記録の閉鎖等,0,2022-05-11,2022-04-28,株式会社エイムデザイン研究所,,株式会社,東京都,渋谷区,渋谷３丁目２７番１１号,,13,113,1500002,,,2022-04-28,合併による解散等,9030001004138,令和４年４月２１日さいたま市北区宮原町一丁目３１５番地株式会社ジアス（9030001004138）に合併し解散,2015-10-05,1,,,,,エイムデザインケンキュウジョ,0
2889,9012705000216,登記記録の閉鎖等,0,2022-05-11,2022-04-12,医療法人社団青葉会,,その他の設立登記法人,東京都,小平市,学園西町１丁目２番２５号,,13,211,1870045,,,2022-04-12,合併による解散等,3030005006895,令和４年４月１日埼玉県新座市東北一丁目７番２号医療法人社団武蔵野会（3030005006895）に合併し解散,2015-10-05,1,,,,,アオバカイ,0
2911,9021001043936,登記記録の閉鎖等,0,2022-05-11,2022-05-02,株式会社御鈴,,株式会社,神奈川県,横須賀市,吉井３丁目１３番９号,,14,201,2390804,,,2022-05-02,清算の結了等,,,2015-10-05,1,,,,,ミスズ,0
2915,9030001000806,登記記録の閉鎖等,0,2022-05-11,2022-04-27,株式会社猪瀬製作所,00014399,株式会社,埼玉県,さいたま市大宮区,浅間町２丁目２６０番地,,11,103,3300842,,,2022-04-27,清算の結了等,,,2015-10-05,1,,,,,イノセセイサクショ,0
2938,9040001104663,登記記録の閉鎖等,0,2022-05-11,2022-04-15,アジア越境トレーディング株式会社,,株式会社,千葉県,佐倉市,六崎１３１９番地８３,,12,212,2850812,,,2022-04-15,清算の結了等,,,2018-05-16,1,,,,,アジアエッキョウトレーディング,0
2943,9040002049148,登記記録の閉鎖等,0,2022-05-11,2022-05-02,有限会社メリーオンダ,,有限会社,千葉県,松戸市,河原塚４００番地,,12,207,2702254,,,2022-05-02,清算の結了等,,,2015-10-05,1,,,,,メリーオンダ,0
2962,9060002027184,登記記録の閉鎖等,0,2022-05-11,2022-04-01,藤田商事有限会社,,有限会社,栃木県,那須塩原市,関谷１６３７番地,,09,213,3292801,,,2022-04-01,合併による解散等,4060001003538,令和４年４月１日栃木県宇都宮市不動前二丁目２番５１号日星石油株式会社（4060001003538）に合併し解散,2015-10-05,1,,,,,フジタショウジ,0
2970,9080402009607,登記記録の閉鎖等,0,2022-05-11,2022-05-06,有限会社小原技研,,有限会社,静岡県,湖西市,新居町浜名４１８９番地の９,,22,221,4310303,,,2022-05-06,清算の結了等,,,2015-10-05,1,,,,,オハラギケン,0
2972,9090002001269,登記記録の閉鎖等,0,2022-05-11,2022-04-28,有限会社斉藤商店,,有限会社,山梨県,甲府市,丸の内１丁目８番８号,,19,201,4000031,,,2022-04-28,清算の結了等,,,2015-10-05,1,,,,,サイトウショウテン,0
2982,9110005013589,登記記録の閉鎖等,0,2022-05-11,2022-04-01,入広瀬商工会,,その他の設立登記法人,新潟県,魚沼市,穴沢２１５番地１,,15,225,9460304,,,2022-04-01,合併による解散等,1110005013588,令和４年４月１日新潟県魚沼市須原５２０番地守門入広瀬商工会（1110005013588）に合併し解散,2015-10-05,1,,,,,イリヒロセ,0
2984,9120001018673,登記記録の閉鎖等,0,2022-05-11,2022-05-02,株式会社フジタ,,株式会社,大阪府,大阪市生野区,鶴橋４丁目１１番１７号,,27,116,5440031,,,2022-05-02,清算の結了等,,,2015-10-05,1,,,,,,0
3005,9120101040131,登記記録の閉鎖等,0,2022-05-11,2022-04-27,株式会社富士工業,,株式会社,大阪府,泉佐野市,鶴原１３１６番地の２０,,27,213,5980071,,,2022-04-27,清算の結了等,,,2021-08-05,1,,,,,フジコウギョウ,0
3014,9120105005543,登記記録の閉鎖等,0,2022-05-11,2022-04-01,特定非営利活動法人長野フットボールクラブ,,その他の設立登記法人,大阪府,河内長野市,喜多町４８５番地,,27,216,5860033,,,2022-04-01,合併による解散等,7120105005594,令和４年４月１日大阪府河内長野市喜多町４８５番地特定非営利活動法人長野総合スポーツクラブ（7120105005594）に合併し解散,2015-10-05,1,,,,,ナガノフットボールクラブ,0
3024,9130001001892,登記記録の閉鎖等,0,2022-05-11,2022-05-02,株式会社松尾技研,,株式会社,京都府,京都市右京区,山越東町２６番地の２２,,26,108,6168194,,,2022-05-02,合併による解散等,8130001001893,令和４年５月１日京都市右京区山越東町２６番地の２０株式会社松尾製作所（8130001001893）に合併し解散,2015-10-05,1,,,,,マツオギケン,0
3037,9140001058445,登記記録の閉鎖等,0,2022-05-11,2022-05-06,近畿物産株式会社,,株式会社,兵庫県,姫路市,八家１２７０番地の１,,28,201,6728015,,,2022-05-06,清算の結了等,,,2015-10-05,1,,,,,,0
3057,9180001018528,登記記録の閉鎖等,0,2022-05-11,2022-05-02,山下不動産鑑定株式会社,00071902,株式会社,愛知県,名古屋市東区,葵１丁目１６番２６号,,23,102,4610004,,,2022-05-02,清算の結了等,,,2015-10-05,1,,,,,ヤマシタフドウサンカンテイ,0
3070,9180301019399,登記記録の閉鎖等,0,2022-05-11,2022-04-26,南電業株式会社,,株式会社,愛知県,豊田市,上丘町海老池２番地,,23,211,4730931,,,2022-04-26,清算の結了等,,,2015-10-05,1,,,,,,0
3073,9190001011556,登記記録の閉鎖等,0,2022-05-11,2022-04-28,株式会社宝和,,株式会社,三重県,松阪市,末広町２丁目２０５番地１,,24,204,5150016,,,2022-04-28,清算の結了等,,,2015-10-05,1,,,,,,0
3076,9190001022025,登記記録の閉鎖等,0,2022-05-11,2022-04-28,株式会社エイエスピー・カラーズ,,株式会社,三重県,松阪市,川井町３９５番地４,,24,204,5150818,,,2022-04-28,清算の結了等,,,2015-10-05,1,,,,,エイエスピーカラーズ,0
3079,9190005000274,登記記録の閉鎖等,0,2022-05-11,2022-04-01,香良洲漁業協同組合,,その他の設立登記法人,三重県,津市,香良洲町５２７６番地の２,,24,201,5140315,,,2022-04-01,合併による解散等,2190005007202,令和４年４月１日三重県松阪市新松ケ島町６２０番地５５松阪漁業協同組合（2190005007202）に合併し解散,2015-10-05,1,,,,,カラス,0
3084,9200002020397,登記記録の閉鎖等,0,2022-05-11,2022-05-09,有限会社田原,,有限会社,岐阜県,多治見市,本町４丁目２番地の２,,21,204,5070033,,,2022-05-09,清算の結了等,,,2015-10-05,1,,,,,タハラ,0
3108,9250001018231,登記記録の閉鎖等,0,2022-05-11,2022-04-01,株式会社サムラ,,株式会社,山口県,大島郡周防大島町,大字東屋代３２６８番地１,,35,305,7422107,,,2022-04-01,合併による解散等,2250002020333,令和４年４月１日山口県大島郡周防大島町大字椋野字下庄財家１３６０番地の１株式会社ファッションサムラ（2250002020333）に合併し解散,2020-04-06,1,,,,,サムラ,0
3114,9270001004881,登記記録の閉鎖等,0,2022-05-11,2022-04-28,株式会社エリアサンクス,,株式会社,鳥取県,境港市,外江町３８４８番地,,31,204,6840071,,,2022-04-28,清算の結了等,,,2015-10-05,1,,,,,エリアサンクス,0
3147,9390002011403,登記記録の閉鎖等,0,2022-05-11,2022-04-28,有限会社木ら木ら星,,有限会社,山形県,新庄市,鉄砲町１０番１９号,,06,205,9960035,,,2022-04-28,清算の結了等,,,2015-10-05,1,,,,,キラキラボシ,0
3148,9400005004047,登記記録の閉鎖等,0,2022-05-11,2022-05-02,摂待地区牧野農業協同組合,,その他の設立登記法人,岩手県,宮古市,田老字星山１番地,,03,202,0270381,,,2022-05-02,清算の結了等,,,2015-10-05,1,,,,,セッタイチクボクヤ,0
3158,9430003012437,登記記録の閉鎖等,0,2022-05-11,2022-04-01,合同会社エガオニ,,合同会社,北海道,札幌市南区,澄川六条１１丁目１４－６,,01,106,0050006,,,2022-04-01,合併による解散等,3430001069294,令和４年４月１日札幌市厚別区厚別中央一条二丁目１３－２０株式会社フォーチューン（3430001069294）に合併し解散,2021-02-15,1,,,,,エガオニ,0
3159,9440001006605,登記記録の閉鎖等,0,2022-05-11,2022-05-02,工藤建設株式会社,,株式会社,北海道,奥尻郡奥尻町,字米岡１７７番地,,01,367,0431524,,,2022-05-02,合併による解散等,7440001006607,令和４年５月１日北海道奥尻郡奥尻町字米岡１７７番地株式会社海老原建設（7440001006607）に合併し解散,2015-10-05,1,,,,,クドウケンセツ,0
3164,9460103001139,登記記録の閉鎖等,0,2022-05-11,2022-05-06,合同会社チリロクト,,合同会社,北海道,中川郡幕別町,札内豊町２２４番地,,01,643,0890532,,,2022-05-06,清算の結了等,,,2018-04-19,1,,,,,チリロクト,0
3165,9460105001896,登記記録の閉鎖等,0,2022-05-11,2022-05-02,特定非営利活動法人北海道コーチズ,,その他の設立登記法人,北海道,帯広市,西四条南２８丁目１番地２,,01,207,0800014,,,2022-05-02,清算の結了等,,,2015-10-05,1,,,,,ホッカイドウコーチズ,0
