sequenceNumber,corporateNumber,process,correct,updateDate,changeDate,name,nameImageId,kind,prefectureName,cityName,streetNumber,addressImageId,prefectureCode,cityCode,postCode,addressOutside,addressOutsideImageId,closeDate,closeCause,successorCorporateNumber,changeCause,assignmentDate,latest,enName,enPrefectureName,enCityName,enAddressOutside,furigana,hihyoji
10,1010001229512,新規,0,2022-09-16,2022-09-16,エンデバー・ユナイテッド・パートナーズ・２６株式会社,,株式会社,東京都,千代田区,丸の内２丁目５番１号丸の内二丁目ビル６階,,13,101,1000005,,,,,,,2022-09-16,1,,,,,エンデバーユナイテッドパートナーズトゥエンティシックス,0
11,1010001229529,新規,0,2022-09-16,2022-09-16,東昇貿易株式会社,,株式会社,東京都,中央区,東日本橋２丁目２８番５号５０８,,13,102,1030004,,,,,,,2022-09-16,1,,,,,トウショボウエキ,0
12,1010001229553,新規,0,2022-09-16,2022-09-16,株式会社Ｃｅｌｅｂｅｓ,,株式会社,東京都,千代田区,六番町１５番２号,,13,101,1020085,,,,,,,2022-09-16,1,,,,,セレベス,0
15,1010403028512,新規,0,2022-09-16,2022-09-16,ＬＳ‐ＡＦＲ第２号合同会社,,合同会社,東京都,港区,六本木１丁目６番１号,,13,103,1060032,,,,,,,2022-09-16,1,,,,,エルエスエーエフアールダイニゴウ,0
28,1011001149782,新規,0,2022-09-16,2022-09-16,株式会社ＴＷ,,株式会社,東京都,渋谷区,富ヶ谷１丁目２－９永島ビル３０３,,13,113,1510063,,,,,,,2022-09-16,1,,,,,ティーダブリュー,0
30,1011101100208,新規,0,2022-09-16,2022-09-16,株式会社ＰＯ,,株式会社,東京都,新宿区,西新宿３丁目３番１３号西新宿水間ビル６Ｆ,,13,104,1600023,,,,,,,2022-09-16,1,,,,,ピィーオー,0
31,1011101100216,新規,0,2022-09-16,2022-09-16,ＡＷＦ株式会社,,株式会社,東京都,新宿区,早稲田鶴巻町５３９番地,,13,104,1620041,,,,,,,2022-09-16,1,,,,,エイダブリューエフ,0
37,1011501028478,新規,0,2022-09-16,2022-09-16,株式会社ガーディアン,,株式会社,東京都,北区,中里１丁目３７番１４号グランドコート駒込１０６号室,,13,117,1140015,,,,,,,2022-09-16,1,,,,,ガーディアン,0
44,1011805003210,新規,0,2022-09-16,2022-09-16,医療法人社団繋俊会,,その他の設立登記法人,東京都,足立区,千住仲町４０番１２－１０１号プラティネールハリカエ,,13,121,1200036,,,,,,,2022-09-16,1,,,,,ケイシュンカイ,0
46,1012701017254,新規,0,2022-09-16,2022-09-16,ＳＡＫＵＲＡ株式会社,,株式会社,東京都,東村山市,恩多町５丁目３８番地５５,,13,213,1890011,,,,,,,2022-09-16,1,,,,,サクラ,0
61,1020001148166,新規,0,2022-09-16,2022-09-16,ファスト株式会社,,株式会社,神奈川県,川崎市中原区,市ノ坪５０１－１ルーブル武蔵小杉伍番館４２０,,14,133,2110016,,,,,,,2022-09-16,1,,,,,ファスト,0
62,1020001148232,新規,0,2022-09-16,2022-09-16,株式会社めいこう,,株式会社,神奈川県,川崎市多摩区,登戸３４８７番地,,14,135,2140014,,,,,,,2022-09-16,1,,,,,メイコウ,0
66,1020003022419,新規,0,2022-09-16,2022-09-16,Ｍｏｎｇａｔｅ合同会社,,合同会社,神奈川県,川崎市高津区,梶ケ谷３丁目５－１コスモ梶が谷アーバンフォルム１０３,,14,134,2130015,,,,,,,2022-09-16,1,,,,,モンゲート,0
85,1030001150113,新規,0,2022-09-16,2022-09-16,株式会社キウイ,,株式会社,埼玉県,所沢市,上新井２丁目６９番地の８,,11,208,3591142,,,,,,,2022-09-16,1,,,,,キウイ,0
86,1030001150146,新規,0,2022-09-16,2022-09-16,株式会社医療経営協議会,,株式会社,埼玉県,児玉郡上里町,大字七本木３６６４番地３,,11,385,3690306,,,,,,,2022-09-16,1,,,,,イリョウケイエイキョウギカイ,0
89,1030003020215,新規,0,2022-09-16,2022-09-16,ｊｏｙｃｌｏｕｄ合同会社,,合同会社,埼玉県,さいたま市桜区,大字上大久保９０４－１０Ａ９０７,,11,106,3380824,,,,,,,2022-09-16,1,,,,,ジョイクラウド,0
94,1050001051680,新規,0,2022-09-16,2022-09-16,株式会社ＵＭＡＲ　ＩＮＴＥＲＮＡＴＩＯＮＡＬ,,株式会社,茨城県,下妻市,南原３８番地１,,08,210,3040075,,,,,,,2022-09-16,1,,,,,ウマルインターナショナル,0
95,1050003006848,新規,0,2022-09-16,2022-09-16,合同会社Ｓ．Ｋ製作,,合同会社,茨城県,那珂市,瓜連５７３番地,,08,226,3192102,,,,,,,2022-09-16,1,,,,,エスケィセイサク,0
96,1050003006864,新規,0,2022-09-16,2022-09-16,合同会社ｓｙｏｅｎ,,合同会社,茨城県,稲敷郡阿見町,本郷３丁目２３番地５レジデンスヒルズサウスコート２０３,,08,443,3001159,,,,,,,2022-09-16,1,,,,,ショウエン,0
98,1060001035278,新規,0,2022-09-16,2022-09-16,株式会社ＳＶＪ,,株式会社,栃木県,足利市,寺岡町３５１番地,,09,202,3294213,,,,,,,2022-09-16,1,,,,,エスブイジェイ,0
99,1060003004231,新規,0,2022-09-16,2022-09-16,合同会社ＬＭＫ　Ｉｎｔｅｒｎａｔｉｏｎａｌ　Ｇｒｏｕｐ,,合同会社,栃木県,宇都宮市,中今泉３丁目２８番１０号,,09,201,3210968,,,,,,,2022-09-16,1,,,,,エルエムケイインターナショナルグループ,0
106,1080003002869,新規,0,2022-09-16,2022-09-16,合同会社テン,,合同会社,静岡県,静岡市葵区,追手町１番１９号天松追手町ビル３階,,22,101,4200853,,,,,,,2022-09-16,1,,,,,テン,0
109,1080101023528,新規,0,2022-09-16,2022-09-16,株式会社トレードワン,,株式会社,静岡県,富士宮市,山宮１９１８番地の２,,22,207,4180111,,,,,,,2022-09-16,1,,,,,トレードワン,0
110,1090001017777,新規,0,2022-09-16,2022-09-16,株式会社共立電機製作所,,株式会社,山梨県,都留市,桂町１２２６番地１,,19,204,4020034,,,,,,,2022-09-16,1,,,,,,0
115,1100003006693,新規,0,2022-09-16,2022-09-16,ＴＲＥＡＭ合同会社,,合同会社,長野県,長野市,大字鶴賀上千歳町１１３７番地２３長野１１３７ビル２階ＢＰＮ,,20,201,3800821,,,,,,,2022-09-16,1,,,,,トリーム,0
118,1110001036972,新規,0,2022-09-16,2022-09-16,株式会社大澤,,株式会社,新潟県,新潟市中央区,女池２丁目３番２５号,,15,103,9500941,,,,,,,2022-09-16,1,,,,,オオサワ,0
125,1120001248872,新規,0,2022-09-16,2022-09-16,株式会社バリューアップス,,株式会社,大阪府,大阪市中央区,本町３丁目５番２号,,27,128,5410053,,,,,,,2022-09-16,1,,,,,バリューアップス,0
126,1120001248880,新規,0,2022-09-16,2022-09-16,グロウ株式会社,,株式会社,大阪府,大阪市東成区,深江北３丁目４番２１号エクラ深江橋８１０Ａ,,27,115,5370001,,,,,,,2022-09-16,1,,,,,グロウ,0
127,1120001248963,新規,0,2022-09-16,2022-09-16,株式会社善,,株式会社,大阪府,大阪市鶴見区,浜２丁目２番９－５１４号,,27,124,5380035,,,,,,,2022-09-16,1,,,,,ゼン,0
132,1120003022458,新規,0,2022-09-16,2022-09-16,合同会社Ｒｏａｄ　ｔｏ　Ｉｎｃ．,,合同会社,大阪府,大阪市北区,黒崎町１３－１５,,27,127,5300023,,,,,,,2022-09-16,1,,,,,,0
133,1120003022474,新規,0,2022-09-16,2022-09-16,合同会社リリーサプライ,,合同会社,大阪府,大阪市阿倍野区,松虫通２丁目４番３１号,,27,119,5450043,,,,,,,2022-09-16,1,,,,,リリーサプライ,0
143,1130001072594,新規,0,2022-09-16,2022-09-16,株式会社京都町家ステイ,,株式会社,京都府,京都市下京区,下諏訪町３６０番地,,26,106,6008163,,,,,,,2022-09-16,1,,,,,キョウトマチヤステイ,0
144,1130001072636,新規,0,2022-09-16,2022-09-16,株式会社オデッセイ,,株式会社,京都府,京都市北区,小山元町十四丁目５番地－１Ｆ,,26,101,6038112,,,,,,,2022-09-16,1,,,,,オデッセイ,0
171,1180003024267,新規,0,2022-09-16,2022-09-16,合同会社キーズリレア,,合同会社,愛知県,一宮市,天王４丁目１番５号,,23,203,4910046,,,,,,,2022-09-16,1,,,,,キーズリレア,0
176,1190001029770,新規,0,2022-09-16,2022-09-16,トリビュート株式会社,,株式会社,三重県,桑名市,大字東方１１６６番地１,,24,205,5110811,,,,,,,2022-09-16,1,,,,,トリビュート,0
181,1200003005669,新規,0,2022-09-16,2022-09-16,合同会社ＧｏｏｄＦｅｌｌｏｗ,,合同会社,岐阜県,羽島郡笠松町,司町７７番地,,21,303,5016045,,,,,,,2022-09-16,1,,,,,グッドフェロー,0
183,1210001019091,新規,0,2022-09-16,2022-09-16,株式会社オガ,,株式会社,福井県,福井市,下馬１丁目１１０７番地,,18,201,9188112,,,,,,,2022-09-16,1,,,,,オガ,0
199,1290001098938,新規,0,2022-09-16,2022-09-16,株式会社スマートラボ,,株式会社,福岡県,福岡市早良区,梅林６丁目１４番１７号,,40,137,8140172,,,,,,,2022-09-16,1,,,,,スマートラボ,0
200,1290001098946,新規,0,2022-09-16,2022-09-16,株式会社エフ．Ｌａｂｏ,,株式会社,福岡県,福岡市早良区,南庄２丁目２１－２４－３階,,40,137,8140031,,,,,,,2022-09-16,1,,,,,エフラボ,0
203,1290801028895,新規,0,2022-09-16,2022-09-16,吉冨建築株式会社,00127872,株式会社,福岡県,田川郡添田町,大字添田２２３５番地の１２,,40,602,8240602,,,,,,,2022-09-16,1,,,,,ヨシトミケンチク,0
206,1320001019337,新規,0,2022-09-16,2022-09-16,ＦＬＡＩＲ’Ｓ株式会社,,株式会社,大分県,大分市,三川下２丁目１番１０号,,44,201,8700142,,,,,,,2022-09-16,1,,,,,フレアーズ,0
207,1320003003909,新規,0,2022-09-16,2022-09-16,合同会社１０ＹＥＡＲＳ,,合同会社,大分県,大分市,大字旦野原９００番地の８８,,44,201,8701124,,,,,,,2022-09-16,1,,,,,テンイヤーズ,0
214,1350003004169,新規,0,2022-09-16,2022-09-16,合同会社結企画,,合同会社,宮崎県,都城市,乙房町１６０１番地６,,45,202,8850112,,,,,,,2022-09-16,1,,,,,ユイキカク,0
218,1360003012311,新規,0,2022-09-16,2022-09-16,合同会社ＳＡＫＩＥＤＡ,,合同会社,沖縄県,石垣市,字崎枝５５６番地６２２,,47,207,9070452,,,,,,,2022-09-16,1,,,,,サキエダ,0
223,1370001049065,新規,0,2022-09-16,2022-09-16,株式会社ベニーニ,,株式会社,宮城県,多賀城市,栄１丁目３－１６,,04,209,9850833,,,,,,,2022-09-16,1,,,,,ベニーニ,0
235,1420003002578,新規,0,2022-09-16,2022-09-16,アイランドバレーホールディングス合同会社,,合同会社,青森県,青森市,大字大矢沢字里見４５番地２,,02,201,0300123,,,,,,,2022-09-16,1,,,,,アイランドバレーホールディングス,0
238,1430001087496,新規,0,2022-09-16,2022-09-16,株式会社成工舎,,株式会社,北海道,札幌市中央区,南三条東３丁目８番地２１０６,,01,101,0600053,,,,,,,2022-09-16,1,,,,,セイコウシャ,0
239,1430001087505,新規,0,2022-09-16,2022-09-16,伸成建設株式会社,,株式会社,北海道,札幌市東区,北八条東３丁目２番２－１３０１号,,01,103,0600908,,,,,,,2022-09-16,1,,,,,シンセイケンセツ,0
246,1430003014275,新規,0,2022-09-16,2022-09-16,合同会社ＲＩＮ,,合同会社,北海道,札幌市白石区,本通８丁目南２番６－３０２号,,01,104,0030026,,,,,,,2022-09-16,1,,,,,アールアイエヌ,0
248,1430005014554,新規,0,2022-09-16,2022-09-16,一般社団法人チーム８６３,,その他の設立登記法人,北海道,札幌市西区,宮の沢三条４丁目７－１,,01,107,0630053,,,,,,,2022-09-16,1,,,,,チームハチロクサン,0
250,1450001013797,新規,0,2022-09-16,2022-09-16,株式会社Ｔ＆Ｆ,,株式会社,北海道,上川郡東川町,西町９丁目１７番１号,,01,458,0711425,,,,,,,2022-09-16,1,,,,,ティーアンドエフ,0
264,1500001024467,新規,0,2022-09-16,2022-09-16,いろどりクリーンサービス株式会社,,株式会社,愛媛県,新居浜市,田の上３丁目６番２１号,,38,205,7920888,,,,,,,2022-09-16,1,,,,,イロドリクリーンサービス,0
267,2010001229544,新規,0,2022-09-16,2022-09-16,株式会社エキスプレスナノ,,株式会社,東京都,千代田区,隼町２番１９号,,13,101,1020092,,,,,,,2022-09-16,1,,,,,エキスプレスナノ,0
268,2010001229552,新規,0,2022-09-16,2022-09-16,株式会社ＹＳＫ１３,,株式会社,東京都,千代田区,麹町１丁目６番地９,,13,101,1020083,,,,,,,2022-09-16,1,,,,,ワイエスケーサーティーン,0
269,2010001229560,新規,0,2022-09-16,2022-09-16,株式会社Ｃ＆Ｙ,,株式会社,東京都,中央区,日本橋大伝馬町９番１１プラウド日本橋大伝馬町１００３号,,13,102,1030011,,,,,,,2022-09-16,1,,,,,シーアンドワイ,0
280,2010403028511,新規,0,2022-09-16,2022-09-16,ＬＳ‐ＡＦＲ第３号合同会社,,合同会社,東京都,港区,六本木１丁目６番１号,,13,103,1060032,,,,,,,2022-09-16,1,,,,,エルエスエーエフアールダイサンゴウ,0
283,2010501049392,新規,0,2022-09-16,2022-09-16,株式会社ＭｅｔａａＬｉｖｅ,,株式会社,東京都,台東区,浅草橋５丁目１－３１ロッキービル３階３０２号室,,13,106,1110053,,,,,,,2022-09-16,1,,,,,メターライブ,0
288,2010901051642,新規,0,2022-09-16,2022-09-16,株式会社ジェイ,,株式会社,東京都,世田谷区,玉川４丁目１８番１３－１０１号,,13,112,1580094,,,,,,,2022-09-16,1,,,,,ジェイ,0
295,2011101100215,新規,0,2022-09-16,2022-09-16,株式会社リータスＢＣ,,株式会社,東京都,新宿区,西新宿７丁目５番５号ＰＬＡＺＡ西新宿ＵＣＦ４階,,13,104,1600023,,,,,,,2022-09-16,1,,,,,リータスビーシー,0
296,2011103012169,新規,0,2022-09-16,2022-09-16,Ｊ．Ｔ．Ｓ．合同会社,,合同会社,東京都,新宿区,百人町１丁目２１番４号新宿オリンピックマンション２０３,,13,104,1690073,,,,,,,2022-09-16,1,,,,,ジェイティーエス,0
297,2011103012177,新規,0,2022-09-16,2022-09-16,ブレス合同会社,,合同会社,東京都,新宿区,内藤町１番地５０朝日新宿御苑マンション３０１,,13,104,1600014,,,,,,,2022-09-16,1,,,,,ブレス,0
303,2011501028485,新規,0,2022-09-16,2022-09-16,株式会社Ｒｅｌｉｆｅ,,株式会社,東京都,北区,赤羽台３丁目１０番３号,,13,117,1150053,,,,,,,2022-09-16,1,,,,,リライフ,0
309,2012301013132,新規,0,2022-09-16,2022-09-16,株式会社高山エンジニアリング,,株式会社,東京都,町田市,野津田町８４５番地１アヴァンセ１０１,,13,209,1950063,,,,,,,2022-09-16,1,,,,,タカヤマエンジニアリング,0
313,2012701017253,新規,0,2022-09-16,2022-09-16,株式会社ノスビィ,,株式会社,東京都,東村山市,恩多町５丁目３８番地５５,,13,213,1890011,,,,,,,2022-09-16,1,,,,,ノスビィ,0
315,2012705002326,新規,0,2022-09-16,2022-09-16,ＮＰＯ法人ＮＯ　ＦＯＯＤ　ＷＡＳＴＥ,,その他の設立登記法人,東京都,西東京市,保谷町３丁目２５番１３号秋桜ハイツ２０５号,,13,229,2020015,,,,,,,2022-09-16,1,,,,,ノーフードウェイスト,0
316,2013101009015,新規,0,2022-09-16,2022-09-16,株式会社Ｓｏｕｔｈ　Ｃｌｏｕｄ,,株式会社,東京都,西多摩郡日の出町,大字平井３９７５－１１,,13,305,1900182,,,,,,,2022-09-16,1,,,,,サウスクラウド,0
349,2030001150129,新規,0,2022-09-16,2022-09-16,株式会社ＲＩＳＩＮＧ,,株式会社,埼玉県,行田市,大字馬見塚６５１番地,,11,206,3610082,,,,,,,2022-09-16,1,,,,,ライジング,0
350,2030001150137,新規,0,2022-09-16,2022-09-16,株式会社ＭＫ工業,,株式会社,埼玉県,所沢市,狭山ケ丘１丁目３０１０番地の３サンハイツ２０３,,11,208,3591161,,,,,,,2022-09-16,1,,,,,エムケイコウギョウ,0
353,2030003020214,新規,0,2022-09-16,2022-09-16,合同会社トランスポートＶＳ,,合同会社,埼玉県,三郷市,高州４丁目１１５番地７,,11,237,3410037,,,,,,,2022-09-16,1,,,,,トランスポートファイブエス,0
360,2040003020790,新規,0,2022-09-16,2022-09-16,合同会社大海企画,,合同会社,千葉県,千葉市花見川区,浪花町９５９－１８,,12,102,2620024,,,,,,,2022-09-16,1,,,,,オオミキカク,0
362,2050001051688,新規,0,2022-09-16,2022-09-16,ＴＯＯＲ　ＴＲＡＤＩＮＧ株式会社,,株式会社,茨城県,筑西市,玉戸１３０９番地２７,,08,227,3080847,,,,,,,2022-09-16,1,,,,,トゥールトレーディング,0
366,2060001035277,新規,0,2022-09-16,2022-09-16,株式会社ＳＶＩ,,株式会社,栃木県,足利市,寺岡町３５１番地,,09,202,3294213,,,,,,,2022-09-16,1,,,,,エスブイアイ,0
368,2060003004230,新規,0,2022-09-16,2022-09-16,７ｓｅａｓ　ｔｒａｄｉｎｇ合同会社,,合同会社,栃木県,小山市,若木町１丁目９番３１号１階１０４号室,,09,208,3230028,,,,,,,2022-09-16,1,,,,,セブンシーズトレーディング,0
397,2120003022481,新規,0,2022-09-16,2022-09-16,合同会社ＺＡＴＳＵＧＩ,,合同会社,大阪府,大阪市北区,梅田１丁目１－３大阪駅前第３ビル２９階１－１－１号室,,27,127,5300001,,,,,,,2022-09-16,1,,,,,ザツギ,0
398,2120003022498,新規,0,2022-09-16,2022-09-16,合同会社ロングブライト,,合同会社,大阪府,寝屋川市,平池町３２番３８ー７１０号,,27,215,5720839,,,,,,,2022-09-16,1,,,,,ロングブライト,0
406,2122005003641,新規,0,2022-09-16,2022-09-16,一般社団法人アスリサポートミッション,,その他の設立登記法人,大阪府,八尾市,本町７丁目７番地１０号中島ビル１階,,27,212,5810003,,,,,,,2022-09-16,1,,,,,アスリサポートミッション,0
410,2130001072627,新規,0,2022-09-16,2022-09-16,株式会社ボナーノ,,株式会社,京都府,木津川市,梅美台７丁目４－４,,26,214,6190215,,,,,,,2022-09-16,1,,,,,ボナーノ,0
411,2130003008174,新規,0,2022-09-16,2022-09-16,合同会社ハチコーポレーション,,合同会社,京都府,宇治市,五ケ庄福角８３－４５,,26,204,6110011,,,,,,,2022-09-16,1,,,,,ハチコーポレーション,0
420,2140003018148,新規,0,2022-09-16,2022-09-16,合同会社ラカポシ,,合同会社,兵庫県,姫路市,東雲町２丁目１２番地８キャッスルコート東雲２０６号室,,28,201,6700046,,,,,,,2022-09-16,1,,,,,ラカポシ,0
436,2200003005676,新規,0,2022-09-16,2022-09-16,合同会社エレファント,,合同会社,岐阜県,岐阜市,長良１４２番地１,,21,201,5020071,,,,,,,2022-09-16,1,,,,,エレファント,0
441,2220001025030,新規,0,2022-09-16,2022-09-16,創新電子ジャパン株式会社,,株式会社,石川県,野々市市,藤平田１丁目１０２番地５,,17,212,9218832,,,,,,,2022-09-16,1,,,,,ソウシンデンシジャパン,0
450,2290001098937,新規,0,2022-09-16,2022-09-16,株式会社オーレックＲ＆Ｄ,,株式会社,福岡県,八女郡広川町,大字日吉５４８番地の２２,,40,544,8340111,,,,,,,2022-09-16,1,,,,,オーレックアールアンドディー,0
451,2300001013068,新規,0,2022-09-16,2022-09-16,大動商事株式会社,,株式会社,佐賀県,三養基郡上峰町,大字坊所１５３９番地３,,41,345,8490123,,,,,,,2022-09-16,1,,,,,ダイドウショウジ,0
452,2310001018033,新規,0,2022-09-16,2022-09-16,株式会社英和,,株式会社,長崎県,島原市,鎌田町丁４００３番地,,42,203,8550874,,,,,,,2022-09-16,1,,,,,,0
454,2320003003908,新規,0,2022-09-16,2022-09-16,ＥＭＭＡ合同会社,,合同会社,大分県,大分市,王子南町９番１号フォレスタ２０１,,44,201,8700007,,,,,,,2022-09-16,1,,,,,イーエムエムエー,0
456,2340003003906,新規,0,2022-09-16,2022-09-16,合同会社裕翔産業,,合同会社,鹿児島県,鹿児島市,下伊敷３丁目１５番１７号,,46,201,8900005,,,,,,,2022-09-16,1,,,,,ユウショウサンギョウ,0
457,2350005006096,新規,0,2022-09-16,2022-09-16,ＮＰＯ法人Ｔｈｉｓ　ｉｓ　ｍｅ,,その他の設立登記法人,宮崎県,宮崎市,吉村町引土甲５５９番地４,,45,201,8800841,,,,,,,2022-09-16,1,,,,,ティスイズミー,0
460,2370001049064,新規,0,2022-09-16,2022-09-16,株式会社Ｈｉｓｔｏｒｙ,,株式会社,宮城県,仙台市青葉区,栗生７丁目４番地の９グリーンパル１０５,,04,101,9893122,,,,,,,2022-09-16,1,,,,,ヒストリー,0
469,2430001087495,新規,0,2022-09-16,2022-09-16,株式会社キタノキコリ,,株式会社,北海道,小樽市,真栄２丁目３番１号,,01,203,0470003,,,,,,,2022-09-16,1,,,,,キタノキコリ,0
470,2430001087504,新規,0,2022-09-16,2022-09-16,株式会社フリーアクト,,株式会社,北海道,札幌市東区,北四十七条東１８丁目１－１０ロジェ栄町ＩＩ３０８号,00127873,01,103,0070847,,,,,,,2022-09-16,1,,,,,フリーアクト,0
471,2430001087520,新規,0,2022-09-16,2022-09-16,株式会社Ｐ‐Ｓｍｉｌｅ,,株式会社,北海道,札幌市豊平区,西岡四条１０丁目１８番１号,,01,105,0620034,,,,,,,2022-09-16,1,,,,,ピースマイル,0
474,2430003014299,新規,0,2022-09-16,2022-09-16,Ｇａｌｄｉ合同会社,,合同会社,北海道,札幌市北区,北十条西３丁目２３番地１,,01,102,0010010,,,,,,,2022-09-16,1,,,,,ガルディ,0
475,2430005014553,新規,0,2022-09-16,2022-09-16,医療法人蓮音,,その他の設立登記法人,北海道,札幌市西区,発寒七条１２丁目３番４６号発寒クリニックビル２階,,01,107,0630827,,,,,,,2022-09-16,1,,,,,レノン,0
476,2450001013796,新規,0,2022-09-16,2022-09-16,株式会社Ｎ４５ファーマーズ,,株式会社,北海道,天塩郡豊富町,字上サロベツ４７６番地２６,,01,516,0984100,,,,,,,2022-09-16,1,,,,,エヌヨンゴーファーマーズ,0
479,2500001024466,新規,0,2022-09-16,2022-09-16,株式会社松山設備商会,,株式会社,愛媛県,松山市,三津２丁目３番９号,,38,201,7918061,,,,,,,2022-09-16,1,,,,,マツヤマセツビショウカイ,0
480,2700150111714,新規,0,2022-09-16,2022-09-16,日立物流健康保険組合,,その他,東京都,中央区,京橋２丁目９番２号,,13,102,1040031,,,,,,,2022-09-16,1,,,,,ヒタチブツリュウケンコウホケンクミアイ,0
481,3000030270667,新規,0,2022-09-16,2022-09-16,門真市上島頭・下島頭財産区,,地方公共団体,大阪府,門真市,中町１－１,,27,223,5710055,,,,,,,2022-09-16,1,,,,,カドマシカミシマガシラシモシマガシラザイサンク,0
485,3010001229527,新規,0,2022-09-16,2022-09-16,株式会社Ｔｒｏｉｓ　ｄｅｕｘ　ｔｒｏｉｓ,,株式会社,東京都,文京区,春日２丁目２０番１２－５０７号,,13,105,1120003,,,,,,,2022-09-16,1,,,,,トロワドゥトロワ,0
486,3010001229543,新規,0,2022-09-16,2022-09-16,株式会社Ｍ＆Ｙ,,株式会社,東京都,千代田区,内神田３丁目１９番７号神田北口駅前ビル地下１階,,13,101,1010047,,,,,,,2022-09-16,1,,,,,エムアンドワイ,0
487,3010001229551,新規,0,2022-09-16,2022-09-16,株式会社ＹＳＫ１２,,株式会社,東京都,千代田区,麹町１丁目６番地９,,13,101,1020083,,,,,,,2022-09-16,1,,,,,ワイエスケートゥエルブ,0
499,3010403028510,新規,0,2022-09-16,2022-09-16,ＬＳ‐ＡＦＲ第４号合同会社,,合同会社,東京都,港区,六本木１丁目６番１号,,13,103,1060032,,,,,,,2022-09-16,1,,,,,エルエスエーエフアールダイヨンゴウ,0
501,3010405021364,新規,0,2022-09-16,2022-09-16,一般社団法人シンシキ家庭プロファイリング協会,,その他の設立登記法人,東京都,港区,虎ノ門３丁目８番２５号近鉄虎ノ門ビル８０３,,13,103,1050001,,,,,,,2022-09-16,1,,,,,シンシキカテイプロファイリングキョウカイ,0
504,3010605004128,新規,0,2022-09-16,2022-09-16,医療法人社団和彩会,,その他の設立登記法人,東京都,江東区,住吉１丁目１９番１号ツインタワー住利住吉館１０５号,,13,108,1350002,,,,,,,2022-09-16,1,,,,,カズサカイ,0
505,3010701043211,新規,0,2022-09-16,2022-09-16,株式会社コムサン,,株式会社,東京都,品川区,東五反田２丁目３－５五反田中央ビル７Ｆ,,13,109,1410022,,,,,,,2022-09-16,1,,,,,コムサン,0
517,3011001149780,新規,0,2022-09-16,2022-09-16,ＳＴＲ株式会社,,株式会社,東京都,渋谷区,東３丁目４番地１６号ＰＲＯＴＯ恵比寿ＩＩＩ１０４,00127870,13,113,1500011,,,,,,,2022-09-16,1,,,,,エスティーアール,0
522,3011005009733,新規,0,2022-09-16,2022-09-16,一般社団法人スタートアップデータ標準化協会,,その他の設立登記法人,東京都,渋谷区,道玄坂１丁目１６番６号,,13,113,1500043,,,,,,,2022-09-16,1,,,,,スタートアップデータヒョウジュンカキョウカイ,0
528,3011101100214,新規,0,2022-09-16,2022-09-16,ＣｉｔｙＮｏｒｔｈ株式会社,,株式会社,東京都,新宿区,西新宿３丁目３番１３号西新宿水間ビル２Ｆ,,13,104,1600023,,,,,,,2022-09-16,1,,,,,シティノース,0
535,3011601026256,新規,0,2022-09-16,2022-09-16,ザ・ダイレクト株式会社,,株式会社,東京都,練馬区,西大泉６丁目１３番３２号,,13,120,1780065,,,,,,,2022-09-16,1,,,,,ザダイレクト,0
538,3011701025620,新規,0,2022-09-16,2022-09-16,ＴＷホールディングス株式会社,,株式会社,東京都,江戸川区,東瑞江３丁目３２番１０号,,13,123,1320014,,,,,,,2022-09-16,1,,,,,ティーダブルホールディングス,0
542,3011801041294,新規,0,2022-09-16,2022-09-16,鳴昇株式会社,,株式会社,東京都,足立区,千住河原町９番８号,,13,121,1200037,,,,,,,2022-09-16,1,,,,,メイショウ,0
544,3012405004786,新規,0,2022-09-16,2022-09-16,一般社団法人藤双會,,その他の設立登記法人,東京都,狛江市,岩戸北２丁目１９番１７号,,13,219,2010004,,,,,,,2022-09-16,1,,,,,トウソウカイ,0
548,3013303006296,新規,0,2022-09-16,2022-09-16,Ｃｈｅｅｓｅ　Ｎｏｎｃｅ合同会社,,合同会社,東京都,豊島区,南大塚１丁目６０番２０号天翔大塚駅前ビルＳ５０８号室,,13,116,1700005,,,,,,,2022-09-16,1,,,,,チーズナンス,0
557,3020001148214,新規,0,2022-09-16,2022-09-16,ガトー株式会社,,株式会社,神奈川県,川崎市高津区,二子３丁目６番１号イトーピア二子多摩川レジデンス１０８,,14,134,2130002,,,,,,,2022-09-16,1,,,,,ガトー,0
566,3020003022409,新規,0,2022-09-16,2022-09-16,合同会社Ｕｃｈｉ　Ｌｉｆｅ,,合同会社,神奈川県,横浜市戸塚区,戸塚町４１６８番地,,14,110,2440003,,,,,,,2022-09-16,1,,,,,ウチライフ,0
569,3021001076999,新規,0,2022-09-16,2022-09-16,株式会社杏樹,,株式会社,神奈川県,大和市,中央林間７丁目９番３号,,14,213,2420007,,,,,,,2022-09-16,1,,,,,アンジュ,0
573,3021003012151,新規,0,2022-09-16,2022-09-16,合同会社ＮｏｓｔａＬ,,合同会社,神奈川県,海老名市,泉２丁目３番１－９３４号,,14,215,2430437,,,,,,,2022-09-16,1,,,,,ノスタル,0
585,3030001150128,新規,0,2022-09-16,2022-09-16,株式会社明樹,,株式会社,埼玉県,越谷市,レイクタウン６丁目３５番地５４,,11,222,3430828,,,,,,,2022-09-16,1,,,,,ハルキ,0
586,3030001150136,新規,0,2022-09-16,2022-09-16,株式会社海豊,,株式会社,埼玉県,川口市,元郷１丁目２番８－７０９号,,11,203,3320011,,,,,,,2022-09-16,1,,,,,カイホウ,0
587,3030001150144,新規,0,2022-09-16,2022-09-16,株式会社カレラ,,株式会社,埼玉県,川口市,大字里３８９,,11,203,3340005,,,,,,,2022-09-16,1,,,,,カレラ,0
600,3040003020823,新規,0,2022-09-16,2022-09-16,合同会社ＴＯＳ,,合同会社,千葉県,千葉市花見川区,南花園１丁目２０－５,,12,102,2620022,,,,,,,2022-09-16,1,,,,,ティーオーエス,0
608,3060001035276,新規,0,2022-09-16,2022-09-16,株式会社ＷＡＱＵＯＩＳＥ,,株式会社,栃木県,宇都宮市,御幸ケ原町８番地５ベル・ファミーユ９号,,09,201,3210982,,,,,,,2022-09-16,1,,,,,ワコイズ,0
610,3060003004238,新規,0,2022-09-16,2022-09-16,ＴＯＴＡＬ　ＣＲＥＡＴＥ合同会社,,合同会社,栃木県,那須烏山市,旭１丁目１８－４,,09,215,3210624,,,,,,,2022-09-16,1,,,,,トータルクリエイト,0
622,3100001035701,新規,0,2022-09-16,2022-09-16,株式会社ｆｒｅｅｒｕｎ,,株式会社,長野県,佐久市,志賀５４２１番地２,,20,217,3850006,,,,,,,2022-09-16,1,,,,,フリーラン,0
630,3110001036970,新規,0,2022-09-16,2022-09-16,株式会社ネクストワン,,株式会社,新潟県,新潟市北区,太田甲２６６２番地９,,15,101,9503313,,,,,,,2022-09-16,1,,,,,ネクストワン,0
641,3120001248854,新規,0,2022-09-16,2022-09-16,株式会社ＹＫＴ,,株式会社,大阪府,大阪市平野区,長吉長原１丁目１番４８号メゾンラベール２０５,,27,126,5470016,,,,,,,2022-09-16,1,,,,,ワイケーティー,0
642,3120001248879,新規,0,2022-09-16,2022-09-16,元泰株式会社,,株式会社,大阪府,大阪市中央区,松屋町９番２０号ローレルステート松屋町１２０５Ａ,,27,128,5420067,,,,,,,2022-09-16,1,,,,,ゲンタイ,0
643,3120001248912,新規,0,2022-09-16,2022-09-16,株式会社日渡防水工業,,株式会社,大阪府,寝屋川市,国松町２４番１１号,,27,215,5720016,,,,,,,2022-09-16,1,,,,,ヒワタリボウスイコウギョウ,0
644,3120001248937,新規,0,2022-09-16,2022-09-16,株式会社ＪＩＮＧＩ,,株式会社,大阪府,大阪市北区,兎我野町３－２２－５Ｂ,,27,127,5300056,,,,,,,2022-09-16,1,,,,,ジンギ,0
648,3120003022407,新規,0,2022-09-16,2022-09-16,ＮＯＲＮ合同会社,,合同会社,大阪府,大阪市旭区,大宮３丁目１番６号,,27,117,5350002,,,,,,,2022-09-16,1,,,,,ノルン,0
649,3120003022448,新規,0,2022-09-16,2022-09-16,合同会社ライズネクスト,,合同会社,大阪府,大阪市中央区,島之内１丁目４番８号,,27,128,5420082,,,,,,,2022-09-16,1,,,,,ライズネクスト,0
650,3120003022472,新規,0,2022-09-16,2022-09-16,合同会社ばんどう,,合同会社,大阪府,大阪市大正区,平尾５丁目１１－５大正スカイテラス１階,,27,108,5510012,,,,,,,2022-09-16,1,,,,,バンドウ,0
651,3120003022497,新規,0,2022-09-16,2022-09-16,合同会社ミナミ,,合同会社,大阪府,大阪市東成区,神路４丁目２―１１,,27,115,5370003,,,,,,,2022-09-16,1,,,,,ミナミ,0
656,3120103004858,新規,0,2022-09-16,2022-09-16,Ｆｉｒｓｔ‐Ｂ　ｄｏｇ　ｓｃｈｏｏｌ合同会社,,合同会社,大阪府,和泉市,坪井町１０２４番２,,27,219,5941135,,,,,,,2022-09-16,1,,,,,ファーストビードッグスクール,0
662,3130003008173,新規,0,2022-09-16,2022-09-16,合同会社ＥＳＰＬＯＲＡＲＥ　ＫＹＯＴＯ,,合同会社,京都府,京都市中京区,河原町通御池下る丸屋町３９０－２,,26,104,6040000,,,,,,,2022-09-16,1,,,,,エスプロラーレキョウト,0
664,3140001127404,新規,0,2022-09-16,2022-09-16,株式会社Ｃｒａｗｌ　ＵＰ,,株式会社,兵庫県,神戸市中央区,北長狭通１丁目２１－２－５０１,,28,110,6500012,,,,,,,2022-09-16,1,,,,,クロールアップ,0
667,3140005026313,新規,0,2022-09-16,2022-09-16,大倉・櫻井司法書士法人,,その他の設立登記法人,兵庫県,姫路市,安田４丁目１２４番地,,28,201,6700955,,,,,,,2022-09-16,1,,,,,オオクラサクライ,0
675,3180001153041,新規,0,2022-09-16,2022-09-16,株式会社ウィズグローバル,,株式会社,愛知県,名古屋市中区,錦１丁目４番１６号ＫＤＸ名古屋日銀前ビル７階,,23,106,4600003,,,,,,,2022-09-16,1,,,,,ウィズグローバル,0
678,3180301036648,新規,0,2022-09-16,2022-09-16,株式会社アッシュデザインオカザキ,,株式会社,愛知県,岡崎市,福岡町字下タ畑２４番地４,,23,202,4440825,,,,,,,2022-09-16,1,,,,,アッシュデザインオカザキ,0
682,3190001029769,新規,0,2022-09-16,2022-09-16,株式会社ＭＳＫ　ＴＲＡＮＳＩＡ,,株式会社,三重県,松阪市,塚本町１２７番地４,,24,204,5150811,,,,,,,2022-09-16,1,,,,,エムエスケイトランシア,0
695,3220001025038,新規,0,2022-09-16,2022-09-16,株式会社ｒｕｂｉｅｒエステート,,株式会社,石川県,野々市市,粟田６丁目４３８番地２Ｋ２ハピネス００５号,,17,212,9218823,,,,,,,2022-09-16,1,,,,,ルビアエステート,0
697,3230003001911,新規,0,2022-09-16,2022-09-16,合同会社Ｂｕｔｔｅｒｆｌｙ,,合同会社,富山県,富山市,八尾町西神通４４０,,16,201,9392311,,,,,,,2022-09-16,1,,,,,バタフライ,0
701,3260005011138,新規,0,2022-09-16,2022-09-16,税理士法人サステナ,,その他の設立登記法人,岡山県,岡山市中区,浜２丁目５番１１－１０２号,,33,102,7038256,,,,,,,2022-09-16,1,,,,,サステナ,0
706,3290001098960,新規,0,2022-09-16,2022-09-16,株式会社ＤＡＫＡＬＡ,,株式会社,福岡県,福岡市中央区,天神３丁目１５番２４号,,40,133,8100001,,,,,,,2022-09-16,1,,,,,ダカラ,0
714,3330001030118,新規,0,2022-09-16,2022-09-16,株式会社松本青果,,株式会社,熊本県,熊本市南区,川尻４丁目１５番４５号,,43,104,8614115,,,,,,,2022-09-16,1,,,,,マツモトセイカ,0
715,3340003003905,新規,0,2022-09-16,2022-09-16,合同会社Ａｙａ,,合同会社,鹿児島県,鹿児島市,西伊敷６丁目２１番１４号,,46,201,8911202,,,,,,,2022-09-16,1,,,,,アヤ,0
721,3360002023175,新規,0,2022-09-16,2022-09-16,有限会社ウエストバロンカンパニー,,有限会社,沖縄県,浦添市,城間２丁目２５番７号,,47,208,9012133,,,,,,,2022-09-16,1,,,,,ウエストバロンカンパニー,0
734,3410005006485,新規,0,2022-09-16,2022-09-16,一般社団法人オモシエナ,,その他の設立登記法人,秋田県,山本郡八峰町,峰浜田中字上台２８番地４,,05,349,0182507,,,,,,,2022-09-16,1,,,,,オモシエナ,0
741,3430001087503,新規,0,2022-09-16,2022-09-16,株式会社ＺｅｒｏＰｌｕｓ,,株式会社,北海道,札幌市中央区,南一条西１６丁目１番地３２３春野ビル３Ｆ,,01,101,0600061,,,,,,,2022-09-16,1,,,,,ゼロプラス,0
742,3430001087528,新規,0,2022-09-16,2022-09-16,株式会社トータルコンサルタント,,株式会社,北海道,札幌市白石区,流通センター２丁目２番１号,,01,104,0030030,,,,,,,2022-09-16,1,,,,,トータルコンサルタント,0
748,3430005014552,新規,0,2022-09-16,2022-09-16,一般社団法人誠陽会,,その他の設立登記法人,北海道,苫小牧市,字樽前２１６番地,,01,213,0591265,,,,,,,2022-09-16,1,,,,,セイヨウカイ,0
753,3700150111713,新規,0,2022-09-16,2022-09-16,ＮＥＷ　ＣＩＴＹ　ＭＯＴＯＲＳ＆ＨＡＲＤＷＡＲＥ,,外国会社等,千葉県,千葉市若葉区,金親町７５番地１２,,12,104,2640001,スリランカ民主社会主義共和国、クルネガラ、ガルガムワ、アヌラダプラロード、６３－Ｂ,,,,,,2022-09-16,1,,,,,ニユーシテイモータースアンドハードウエア,0
756,4010001229550,新規,0,2022-09-16,2022-09-16,株式会社ＹＳＫ１１,,株式会社,東京都,千代田区,麹町１丁目６番地９,,13,101,1020083,,,,,,,2022-09-16,1,,,,,ワイエスケーイレブン,0
758,4010003038644,新規,0,2022-09-16,2022-09-16,合同会社Ｓｉｍｐｌｅ　Ｌｉｆｅ,,合同会社,東京都,中央区,銀座１丁目２２番１１号銀座大竹ビジデンス２階,,13,102,1040061,,,,,,,2022-09-16,1,,,,,シンプルライフ,0
759,4010003038685,新規,0,2022-09-16,2022-09-16,グラン・ブルー合同会社,,合同会社,東京都,中央区,銀座１丁目２２番１１号銀座大竹ビジデンス２階,,13,102,1040061,,,,,,,2022-09-16,1,,,,,グランブルー,0
764,4010401169743,新規,0,2022-09-16,2022-09-16,ＧＣＪＧ２６株式会社,,株式会社,東京都,港区,元赤坂１丁目１番８号株式会社赤坂国際会計内,,13,103,1070051,,,,,,,2022-09-16,1,,,,,ジーシージェイジートゥエンティーシックス,0
772,4010701043219,新規,0,2022-09-16,2022-09-16,リンクス株式会社,,株式会社,東京都,品川区,西五反田８丁目２―１２アール五反田７Ａ,,13,109,1410031,,,,,,,2022-09-16,1,,,,,リンクス,0
781,4010901051632,新規,0,2022-09-16,2022-09-16,株式会社グリングラン,,株式会社,東京都,世田谷区,若林４丁目６－４－３Ｆ,,13,112,1540023,,,,,,,2022-09-16,1,,,,,グリングラン,0
798,4011101100171,新規,0,2022-09-16,2022-09-16,株式会社Ｓｅｎｔｏ,,株式会社,東京都,新宿区,新宿５丁目１８番２１号,,13,104,1600022,,,,,,,2022-09-16,1,,,,,セント,0
799,4011101100221,新規,0,2022-09-16,2022-09-16,株式会社インサイドワーク,,株式会社,東京都,新宿区,四谷２丁目１１番１５号ＪＬＢグランエクリュ四谷５Ｆ,,13,104,1600004,,,,,,,2022-09-16,1,,,,,インサイドワーク,0
808,4011501028475,新規,0,2022-09-16,2022-09-16,株式会社ＭｏｕｎＴｏｒｙ,,株式会社,東京都,北区,神谷２丁目２４番１２号,,13,117,1150043,,,,,,,2022-09-16,1,,,,,マウントリー,0
809,4011501028483,新規,0,2022-09-16,2022-09-16,ＭＪＢ株式会社,,株式会社,東京都,北区,田端新町３丁目２３番９号,,13,117,1140012,,,,,,,2022-09-16,1,,,,,エムジェービー,0
810,4011603003698,新規,0,2022-09-16,2022-09-16,合同会社リスタート,,合同会社,東京都,練馬区,貫井３丁目４０番１２号クレール富士見台３０２,,13,120,1760021,,,,,,,2022-09-16,1,,,,,リスタート,0
814,4011803005263,新規,0,2022-09-16,2022-09-16,ＬＯＲＥＭ合同会社,,合同会社,東京都,足立区,千住河原町１３番４‐３０３号,,13,121,1200037,,,,,,,2022-09-16,1,,,,,ローレム,0
825,4020003022408,新規,0,2022-09-16,2022-09-16,超合同会社,,合同会社,神奈川県,横浜市中区,末吉町３丁目４７番地１トーカン伊勢佐木町キャステール５０７号室,,14,104,2310055,,,,,,,2022-09-16,1,,,,,チョウ,0
826,4020003022416,新規,0,2022-09-16,2022-09-16,合同会社大樹工業,,合同会社,神奈川県,横浜市栄区,野七里２丁目２２番９号,,14,115,2470024,,,,,,,2022-09-16,1,,,,,タイキコウギョウ,0
841,4030001150151,新規,0,2022-09-16,2022-09-16,株式会社ｅｔｅｒｎｉｔｙ,,株式会社,埼玉県,坂戸市,大字中小坂７６９－６,,11,239,3500206,,,,,,,2022-09-16,1,,,,,エタニティ,0
845,4030003020212,新規,0,2022-09-16,2022-09-16,輝陽合同会社,,合同会社,埼玉県,南埼玉郡宮代町,本田５丁目８－２１,,11,442,3450827,,,,,,,2022-09-16,1,,,,,キヨウ,0
846,4030003020220,新規,0,2022-09-16,2022-09-16,合同会社日々,,合同会社,埼玉県,さいたま市緑区,美園４丁目１番地２センターフィールド浦和美園参番街８０１,,11,109,3360967,,,,,,,2022-09-16,1,,,,,ヒビ,0
850,4040003020855,新規,0,2022-09-16,2022-09-16,合同会社あたみん,,合同会社,千葉県,山武郡横芝光町,宮川４４７８,,12,410,2891727,,,,,,,2022-09-16,1,,,,,アタミン,0
853,4050003006861,新規,0,2022-09-16,2022-09-16,ＭＮ　Ａｓｉａ　Ｃｏｒｐｏｒａｔｉｏｎ合同会社,,合同会社,茨城県,稲敷市,浮島字西浜１１８３番１,,08,229,3000641,,,,,,,2022-09-16,1,,,,,エムエヌアジアコーポレーション,0
857,4060003004229,新規,0,2022-09-16,2022-09-16,絆徳ほけん管理センター合同会社,,合同会社,栃木県,矢板市,玉田４４９番地１８号コリーナＡ２０３棟,,09,211,3291577,,,,,,,2022-09-16,1,,,,,バントクホケンカンリセンター,0
858,4060003004237,新規,0,2022-09-16,2022-09-16,合同会社ヤマンドラ,,合同会社,栃木県,日光市,山口９６１番地１３,,09,206,3212343,,,,,,,2022-09-16,1,,,,,ヤマンドラ,0
875,4120001248894,新規,0,2022-09-16,2022-09-16,株式会社アゴストジャパン,,株式会社,大阪府,大阪市中央区,東心斎橋２丁目２番２９号サンヨー東心斎橋ビル６階,,27,128,5420083,,,,,,,2022-09-16,1,,,,,アゴストジャパン,0
879,4120103004857,新規,0,2022-09-16,2022-09-16,合同会社Ｙｕｔａｋａ,,合同会社,大阪府,堺市南区,新檜尾台１丁４番１５号,,27,145,5900143,,,,,,,2022-09-16,1,,,,,ユタカ,0
894,4140001127403,新規,0,2022-09-16,2022-09-16,Ｐｅｒｌ株式会社,,株式会社,兵庫県,芦屋市,涼風町２９番９号,,28,206,6590036,,,,,,,2022-09-16,1,,,,,パール,0
901,4160001024516,新規,0,2022-09-16,2022-09-16,株式会社佐藤機械商事,,株式会社,滋賀県,大津市,関津４丁目１８番７号,,25,201,5202277,,,,,,,2022-09-16,1,,,,,サトウキカイショウジ,0
907,4180001153049,新規,0,2022-09-16,2022-09-16,株式会社大空企画,,株式会社,愛知県,あま市,甚目寺市場１９番地５,,23,237,4901111,,,,,,,2022-09-16,1,,,,,オオゾラキカク,0
917,4210001019089,新規,0,2022-09-16,2022-09-16,株式会社大宮プランニング,,株式会社,福井県,福井市,大宮３丁目１６番６号,,18,201,9100016,,,,,,,2022-09-16,1,,,,,オオミヤプランニング,0
918,4210003001557,新規,0,2022-09-16,2022-09-16,合同会社オリーブ,,合同会社,福井県,鯖江市,定次町２番地,,18,207,9160043,,,,,,,2022-09-16,1,,,,,オリーブ,0
921,4220003003362,新規,0,2022-09-16,2022-09-16,合同会社テールツリー,,合同会社,石川県,白山市,馬場２丁目３７番地,,17,210,9240864,,,,,,,2022-09-16,1,,,,,テールツリー,0
926,4240005015453,新規,0,2022-09-16,2022-09-16,医療法人康彰会,,その他の設立登記法人,広島県,広島市南区,翠２丁目２７番１５－３０５号,,34,103,7340005,,,,,,,2022-09-16,1,,,,,コウショウカイ,0
933,4260003004035,新規,0,2022-09-16,2022-09-16,合同会社Ｓｔａｒ,,合同会社,岡山県,倉敷市,本町１５番９号,,33,202,7100054,,,,,,,2022-09-16,1,,,,,スター,0
934,4270003001444,新規,0,2022-09-16,2022-09-16,合同会社ｍｏｔｔｏ,,合同会社,鳥取県,米子市,旗ヶ崎７丁目２２番１１号,,31,202,6830845,,,,,,,2022-09-16,1,,,,,モット,0
951,4320001019334,新規,0,2022-09-16,2022-09-16,株式会社ＭＯＲＩＳＡＫＩ,,株式会社,大分県,大分市,大字金谷迫１４０６番地,,44,201,8700879,,,,,,,2022-09-16,1,,,,,モリサキ,0
971,4400005008267,新規,0,2022-09-16,2022-09-16,一般社団法人海と日本プロジェクトｉｎ岩手,,その他の設立登記法人,岩手県,盛岡市,志家町６番１号,,03,201,0200883,,,,,,,2022-09-16,1,,,,,ウミトニッポンプロジェクトインイワテ,0
976,4430001087469,新規,0,2022-09-16,2022-09-16,株式会社北斗工業,,株式会社,北海道,室蘭市,寿町１丁目１番５－１０３号,,01,205,0500082,,,,,,,2022-09-16,1,,,,,ホクトコウギョウ,0
977,4430001087502,新規,0,2022-09-16,2022-09-16,株式会社ＫＭ北海道,,株式会社,北海道,札幌市手稲区,前田八条１０丁目１１－３,,01,109,0060818,,,,,,,2022-09-16,1,,,,,ケーエムホッカイドウ,0
978,4430001087519,新規,0,2022-09-16,2022-09-16,株式会社ホッピー,,株式会社,北海道,札幌市東区,北三十六条東１６丁目１番２５号,,01,103,0070836,,,,,,,2022-09-16,1,,,,,ホッピー,0
982,4430003014280,新規,0,2022-09-16,2022-09-16,合同会社はるのひグループ,,合同会社,北海道,札幌市豊平区,平岸一条８丁目６－１ｃａｓａ　ｖｉｌｌａｇｅ　０３ｚ,,01,105,0620931,,,,,,,2022-09-16,1,,,,,ハルノヒグループ,0
984,4430005014551,新規,0,2022-09-16,2022-09-16,医療法人家庭医療のたね,,その他の設立登記法人,北海道,札幌市中央区,南二十一条西９丁目２番１５号ラーピス南２１条ビル１階Ａ,,01,101,0640921,,,,,,,2022-09-16,1,,,,,カテイイリョウノタネ,0
987,4700150111720,新規,0,2022-09-16,2022-09-16,Ｍ＆Ｄ　Ｓｕｃｃｅｓｓ　Ｐｒｉｖａｔｅ　Ｌｉｍｉｔｅｄ,,外国会社等,東京都,千代田区,霞が関３丁目２番５号,,13,101,1000013,シンガポール共和国０５０３３６ニューブリッジセンター０７－３００スミスストリート３３６,,,,,,2022-09-16,1,,,,,エムアンドデイーサクセスプライベートリミテツド,0
996,5010001229533,新規,0,2022-09-16,2022-09-16,株式会社キズナオンライン,,株式会社,東京都,中央区,銀座１丁目１２番４号Ｎ＆ＥＢＬＤ．７階,,13,102,1040061,,,,,,,2022-09-16,1,,,,,キズナオンライン,0
1024,5011001149787,新規,0,2022-09-16,2022-09-16,株式会社Ｋｗｉｎｇ　Ｔｅｃ,,株式会社,東京都,渋谷区,渋谷２丁目３番３号仙海ビル５０１,,13,113,1500002,,,,,,,2022-09-16,1,,,,,ケーウィングテック,0
1025,5011001149812,新規,0,2022-09-16,2022-09-16,株式会社ＦＵＮＫＹ　ＰＲＯＤＵＣＴＩＯＮＳ,,株式会社,東京都,目黒区,柿の木坂２丁目６番１７号柿の木坂ＶａｗｎＩＩ３０３号,00127874,13,110,1520022,,,,,,,2022-09-16,1,,,,,ファンキープロダクションズ,0
1030,5011101100195,新規,0,2022-09-16,2022-09-16,新菱ホールディングス株式会社,,株式会社,東京都,新宿区,四谷１丁目６番１号,,13,104,1600004,,,,,,,2022-09-16,1,,,,,シンリョウホールディングス,0
1031,5011101100204,新規,0,2022-09-16,2022-09-16,株式会社ＡＬＯ,,株式会社,東京都,新宿区,西早稲田２丁目１４番３号キュービックコート西早稲田２０４,,13,104,1690051,,,,,,,2022-09-16,1,,,,,アロ,0
1036,5011601026254,新規,0,2022-09-16,2022-09-16,株式会社カムラッドデザイン,,株式会社,東京都,練馬区,西大泉５丁目３３番３９号,,13,120,1780065,,,,,,,2022-09-16,1,,,,,カムラッドデザイン,0
1037,5011603003697,新規,0,2022-09-16,2022-09-16,ＣＧコンサルティング合同会社,,合同会社,東京都,練馬区,高松５丁目２３－４ヴィーブル光が丘２０１号室,,13,120,1790075,,,,,,,2022-09-16,1,,,,,シージーコンサルティング,0
1038,5011701025610,新規,0,2022-09-16,2022-09-16,株式会社関東総合建築,,株式会社,東京都,江戸川区,西葛西３丁目２２番１０号,,13,123,1340088,,,,,,,2022-09-16,1,,,,,カントウソウゴウケンチク,0
1039,5011703003259,新規,0,2022-09-16,2022-09-16,合同会社ワイエス企画,,合同会社,東京都,江戸川区,中葛西５丁目３２番１７号,,13,123,1340083,,,,,,,2022-09-16,1,,,,,ワイエスキカク,0
1041,5011801041292,新規,0,2022-09-16,2022-09-16,長宏株式会社,,株式会社,東京都,足立区,竹の塚５丁目３６番１８－１０１号,,13,121,1210813,,,,,,,2022-09-16,1,,,,,ナガヒロ,0
1043,5012301013138,新規,0,2022-09-16,2022-09-16,株式会社ＭＧ教育サポート,,株式会社,東京都,町田市,三輪町字１３号１１３５番地,,13,209,1950054,,,,,,,2022-09-16,1,,,,,エムジーキョウイクサポート,0
1053,5020001148229,新規,0,2022-09-16,2022-09-16,レイズ株式会社,,株式会社,神奈川県,横浜市中区,桜木町１丁目１０１番地１クロスゲート７階,,14,104,2310062,,,,,,,2022-09-16,1,,,,,レイズ,0
1058,5020003022407,新規,0,2022-09-16,2022-09-16,合同会社人に優しくＳＯＨ,,合同会社,神奈川県,横浜市戸塚区,下倉田町６８２番地金子ビル３０１号,,14,110,2440815,,,,,,,2022-09-16,1,,,,,ヒトニヤサシクソウ,0
1068,5021003012158,新規,0,2022-09-16,2022-09-16,ＳＴＵＤＩＯ　ＨＥＡＲＴＳ合同会社,,合同会社,神奈川県,相模原市中央区,淵野辺１丁目１０番１３－３０８号,,14,152,2520206,,,,,,,2022-09-16,1,,,,,スタジオハーツ,0
1076,5030001150043,新規,0,2022-09-16,2022-09-16,株式会社つぶでん,,株式会社,埼玉県,川越市,大字笠幡３６８８番地１７,,11,201,3501175,,,,,,,2022-09-16,1,,,,,ツブデン,0
1077,5030001150142,新規,0,2022-09-16,2022-09-16,株式会社テックリード,,株式会社,埼玉県,川口市,原町４番１４号ライオンズマンション川口原町２０１,,11,203,3320025,,,,,,,2022-09-16,1,,,,,テックリード,0
1078,5030001150150,新規,0,2022-09-16,2022-09-16,株式会社ｍｕｌｔｉ　ｗａｙ,,株式会社,埼玉県,熊谷市,大原３丁目１番５号,,11,202,3600812,,,,,,,2022-09-16,1,,,,,マルチウェイ,0
1087,5040003020821,新規,0,2022-09-16,2022-09-16,合同会社Ｔｉｐｐｉｎｇ　Ｐｏｉｎｔ,,合同会社,千葉県,千葉市中央区,富士見２丁目７番９号富士見ビル６０９号,,12,101,2600015,,,,,,,2022-09-16,1,,,,,ティッピングポイント,0
1092,5050001051669,新規,0,2022-09-16,2022-09-16,株式会社吉成電気,00127869,株式会社,茨城県,久慈郡大子町,大字下野宮１６３６番地３,,08,364,3193555,,,,,,,2022-09-16,1,,,,,ヨシナリデンキ,0
1093,5050003006860,新規,0,2022-09-16,2022-09-16,合同会社Ｈａｌ　Ｃｏａｃｈ,,合同会社,茨城県,つくばみらい市,筒戸１９０２番地２,,08,235,3002435,,,,,,,2022-09-16,1,,,,,ハルコーチ,0
1099,5060003004236,新規,0,2022-09-16,2022-09-16,合同会社アルファ,,合同会社,栃木県,小山市,城東２丁目６番２５号,,09,208,3230807,,,,,,,2022-09-16,1,,,,,アルファ,0
1116,5110003004866,新規,0,2022-09-16,2022-09-16,合同会社永野律雄せいたいほぐしアリビオ,,合同会社,新潟県,糸魚川市,南押上２丁目５‐４０,,15,216,9410052,,,,,,,2022-09-16,1,,,,,ナガノリツオセイタイホグシアリビオ,0
1127,5120001248860,新規,0,2022-09-16,2022-09-16,株式会社ＴＫＤ,,株式会社,大阪府,守口市,河原町１１番１３号－２０２,,27,209,5700038,,,,,,,2022-09-16,1,,,,,ティケイディ,0
1128,5120001248893,新規,0,2022-09-16,2022-09-16,ＯＮＥ　ＷＡＹ株式会社,,株式会社,大阪府,大阪市浪速区,敷津東２丁目１番２４－２００６号,,27,111,5560012,,,,,,,2022-09-16,1,,,,,ワンウェイ,0
1129,5120001248919,新規,0,2022-09-16,2022-09-16,株式会社エスユーイー,,株式会社,大阪府,大阪市西区,新町３丁目５番８－７０２号,,27,106,5500013,,,,,,,2022-09-16,1,,,,,エスユーイー,0
1133,5120003022470,新規,0,2022-09-16,2022-09-16,マーキーコーポレーション合同会社,,合同会社,大阪府,大阪市阿倍野区,松虫通２丁目３番２７号,,27,119,5450043,,,,,,,2022-09-16,1,,,,,マーキーコーポレーション,0
1145,5140001127402,新規,0,2022-09-16,2022-09-16,大吉株式会社,,株式会社,兵庫県,神戸市長田区,菅原通７丁目４８番,,28,106,6530015,,,,,,,2022-09-16,1,,,,,ダイキチ,0
1156,5180001153048,新規,0,2022-09-16,2022-09-16,株式会社ＬａＬａ　ｓｔａｇｅ,,株式会社,愛知県,名古屋市中村区,椿町１１番１８号名駅ワールドビル３階,,23,105,4530015,,,,,,,2022-09-16,1,,,,,ララステージ,0
1159,5180003024263,新規,0,2022-09-16,2022-09-16,フードエージェント合同会社,,合同会社,愛知県,瀬戸市,道泉町２３番地の２２,,23,204,4890054,,,,,,,2022-09-16,1,,,,,フードエージェント,0
1166,5190001029767,新規,0,2022-09-16,2022-09-16,株式会社Ｍ．Ｏ　Ｌａｎｄｅｒｓ,,株式会社,三重県,津市,長岡町３０４８番地５,,24,201,5140064,,,,,,,2022-09-16,1,,,,,エムオーランダース,0
1171,5230001019524,新規,0,2022-09-16,2022-09-16,株式会社岸本リフォームサービス,,株式会社,富山県,富山市,掛尾町４２１番５号プレミア掛尾９０６,,16,201,9398212,,,,,,,2022-09-16,1,,,,,キシモトリフォームサービス,0
1177,5240003005810,新規,0,2022-09-16,2022-09-16,宮岡水産合同会社,,合同会社,広島県,広島市西区,商工センター８丁目６番１８号,,34,104,7330833,,,,,,,2022-09-16,1,,,,,ミヤオカスイサン,0
1182,5280002012135,新規,0,2022-09-16,2022-09-16,有限会社前田工務店,,有限会社,島根県,隠岐郡隠岐の島町,港町塩口１２番地１,,32,528,6850015,,,,,,,2022-09-16,1,,,,,,0
1183,5280003001649,新規,0,2022-09-16,2022-09-16,合同会社Ｓｈｉｍａｎｅ　Ｆｌｏｗｅｒ　Ｌａｂ,,合同会社,島根県,出雲市,矢野町２２５番地,,32,203,6930058,,,,,,,2022-09-16,1,,,,,シマネフラワーラボ,0
1192,5290001098942,新規,0,2022-09-16,2022-09-16,ＣＡＳＴＥＣ　ＪＡＰＡＮ株式会社,,株式会社,福岡県,福岡市早良区,百道浜３丁目８番３３号福岡システムＬＳＩ総合開発センター６０９号室,,40,137,8140001,,,,,,,2022-09-16,1,,,,,カステックジャパン,0
1219,5360001030988,新規,0,2022-09-16,2022-09-16,株式会社童話工房,,株式会社,沖縄県,南城市,玉城字愛地３７５番地４,,47,215,9010617,,,,,,,2022-09-16,1,,,,,ドウワコウボウ,0
1244,5430001087501,新規,0,2022-09-16,2022-09-16,株式会社フェスティバル,,株式会社,北海道,札幌市中央区,南八条西４丁目４２２－５グランドパークビル７０１,,01,101,0640808,,,,,,,2022-09-16,1,,,,,フェスティバル,0
1247,5430005014550,新規,0,2022-09-16,2022-09-16,医療法人社団宇賀矯正歯科,,その他の設立登記法人,北海道,札幌市豊平区,福住二条１丁目３番２６号,,01,105,0620042,,,,,,,2022-09-16,1,,,,,ウガキョウセイシカ,0
1248,5430005014559,新規,0,2022-09-16,2022-09-16,医療法人良心会,,その他の設立登記法人,北海道,江別市,大麻東町１４番地６,,01,217,0690852,,,,,,,2022-09-16,1,,,,,リョウシンカイ,0
1250,5460101007249,新規,0,2022-09-16,2022-09-16,株式会社グッドカーサポート,,株式会社,北海道,帯広市,西十二条南２７丁目１２番地２,,01,207,0800022,,,,,,,2022-09-16,1,,,,,,0
1262,6010003038683,新規,0,2022-09-16,2022-09-16,Ｓｅｔｏ＆Ｃｏｍｐａｎｙ合同会社,,合同会社,東京都,千代田区,神田美土代町１１番地９－１２０１号,,13,101,1010053,,,,,,,2022-09-16,1,,,,,セトアンドカンパニー,0
1274,6010401169725,新規,0,2022-09-16,2022-09-16,株式会社ａｓｔｅｒｉｓｃｏ,,株式会社,東京都,港区,南青山３丁目３－３リビエラ南青山ビルＡ,,13,103,1070062,,,,,,,2022-09-16,1,,,,,アステリスコ,0
1275,6010403028499,新規,0,2022-09-16,2022-09-16,ａｌｌ　ａｒｏｕｎｄ　Ｂｅａｕｔｙ　ＪＡＰＡＮ合同会社,,合同会社,東京都,港区,西麻布１丁目３－１２カスタリア西麻布３０６号,,13,103,1060031,,,,,,,2022-09-16,1,,,,,オールアラウンドビューティージャパン,0
1276,6010403028532,新規,0,2022-09-16,2022-09-16,トクトミ合同会社,,合同会社,東京都,港区,浜松町２丁目２番１５号浜松町ダイヤビル２Ｆ,,13,103,1050013,,,,,,,2022-09-16,1,,,,,トクトミ,0
1280,6010701043217,新規,0,2022-09-16,2022-09-16,株式会社ａｔ‐ＬｉＢ,,株式会社,東京都,品川区,小山５丁目２３番３号アジュール西小山１Ｆ,,13,109,1420062,,,,,,,2022-09-16,1,,,,,アットリブ,0
1281,6010705003423,新規,0,2022-09-16,2022-09-16,行政書士法人宮内事務所,,その他の設立登記法人,東京都,品川区,北品川１丁目６番１６－３０号,,13,109,1400001,,,,,,,2022-09-16,1,,,,,ミヤウチジムショ,0
1293,6011001149778,新規,0,2022-09-16,2022-09-16,株式会社ＬＯＷＷ,,株式会社,東京都,目黒区,大岡山１丁目６番６号,,13,110,1520033,,,,,,,2022-09-16,1,,,,,ロウ,0
1297,6011003015391,新規,0,2022-09-16,2022-09-16,合同会社ＡＢ．Ｅ,,合同会社,東京都,渋谷区,道玄坂１丁目１０番８号渋谷道玄坂東急ビル２Ｆ－Ｃ,,13,113,1500043,,,,,,,2022-09-16,1,,,,,エービードットイー,0
1301,6011101100203,新規,0,2022-09-16,2022-09-16,株式会社Ｐｒｉｍａｒｙ　Ｇｒｏｕｐ,,株式会社,東京都,新宿区,西新宿３丁目３番１３号西新宿水間ビル６Ｆ,,13,104,1600023,,,,,,,2022-09-16,1,,,,,プライマリーグループ,0
1303,6011103012149,新規,0,2022-09-16,2022-09-16,大福合同会社,,合同会社,東京都,新宿区,西新宿３丁目３番１３号６階,,13,104,1600023,,,,,,,2022-09-16,1,,,,,ダイフク,0
1304,6011103012165,新規,0,2022-09-16,2022-09-16,合同会社ココキラナ,,合同会社,東京都,新宿区,西新宿３丁目３番１３号西新宿水間ビル２Ｆ,,13,104,1600023,,,,,,,2022-09-16,1,,,,,ココキラナ,0
1305,6011103012173,新規,0,2022-09-16,2022-09-16,合同会社いしやま,,合同会社,東京都,新宿区,内藤町１番地５０朝日新宿御苑マンション１０２,,13,104,1600014,,,,,,,2022-09-16,1,,,,,イシヤマ,0
1310,6011401024548,新規,0,2022-09-16,2022-09-16,株式会社ツナゲル,,株式会社,東京都,板橋区,徳丸５丁目５－１０,,13,119,1750083,,,,,,,2022-09-16,1,,,,,ツナゲル,0
1311,6011501028481,新規,0,2022-09-16,2022-09-16,致遠株式会社,,株式会社,東京都,荒川区,西尾久１丁目２６番４号ハイツウチダ３０２,,13,118,1160011,,,,,,,2022-09-16,1,,,,,チエン,0
1313,6011601026253,新規,0,2022-09-16,2022-09-16,那些画児株式会社,,株式会社,東京都,練馬区,貫井３丁目３２番６号サカエハウス２０２号室,,13,120,1760021,,,,,,,2022-09-16,1,,,,,ナシェホア,0
1314,6011701025618,新規,0,2022-09-16,2022-09-16,株式会社ＲＨ‐ＩＭ,,株式会社,東京都,江戸川区,東葛西７丁目１番３－１００２号,,13,123,1340084,,,,,,,2022-09-16,1,,,,,リーム,0
1315,6011801041291,新規,0,2022-09-16,2022-09-16,株式会社Ｂａｃｋ　Ｓｔｒｅｅｔ　Ｈｏｍｅｓ,,株式会社,東京都,足立区,谷中５丁目４番１０号,,13,121,1200006,,,,,,,2022-09-16,1,,,,,バックストリートホームズ,0
1316,6012301013137,新規,0,2022-09-16,2022-09-16,ＢＨ２株式会社,,株式会社,東京都,町田市,小川６丁目２５番１－２２０号,,13,209,1940003,,,,,,,2022-09-16,1,,,,,ビーエイチツー,0
1320,6012803002884,新規,0,2022-09-16,2022-09-16,合同会社ＭＣ,,合同会社,東京都,東大和市,奈良橋２丁目６０３番地,,13,220,2070031,,,,,,,2022-09-16,1,,,,,エムシー,0
1329,6020001148228,新規,0,2022-09-16,2022-09-16,株式会社ＢＭＳセールス,,株式会社,神奈川県,横浜市西区,北幸１丁目１１番地１号水信ビル７階,,14,103,2200004,,,,,,,2022-09-16,1,,,,,ビーエムエスセールス,0
1341,6021001076996,新規,0,2022-09-16,2022-09-16,株式会社Ｄｒｅａｍ,,株式会社,神奈川県,小田原市,栄町１丁目１８－２双葉ビル２Ｆ,,14,206,2500011,,,,,,,2022-09-16,1,,,,,ドリーム,0
1345,6021003012157,新規,0,2022-09-16,2022-09-16,合同会社ｃａｌｉｅｎｔｅ　ｍａｎｏ,,合同会社,神奈川県,中郡大磯町,国府本郷９６８番１１号,,14,341,2590111,,,,,,,2022-09-16,1,,,,,カリエンテマノ,0
1361,6030001149992,新規,0,2022-09-16,2022-09-16,ＣＩＡ株式会社,,株式会社,埼玉県,越谷市,神明町２丁目１６１番８号,,11,222,3430805,,,,,,,2022-09-16,1,,,,,シーアイエー,0
1362,6030001150125,新規,0,2022-09-16,2022-09-16,株式会社ＳｙＳｍａｒｔ,,株式会社,埼玉県,川口市,幸町２丁目１１番２３－２０１号,,11,203,3320016,,,,,,,2022-09-16,1,,,,,シスマート,0
1363,6030001150158,新規,0,2022-09-16,2022-09-16,株式会社グラーヴェ,,株式会社,埼玉県,さいたま市見沼区,大字中川１０１６番地,,11,104,3370043,,,,,,,2022-09-16,1,,,,,グラーヴェ,0
1369,6030003020210,新規,0,2022-09-16,2022-09-16,セクションエイト映像企画合同会社,,合同会社,埼玉県,桶川市,大字下日出谷９６５番地の２７,,11,231,3630025,,,,,,,2022-09-16,1,,,,,セクションエイトエイゾウキカク,0
1380,6050001051684,新規,0,2022-09-16,2022-09-16,株式会社茨城クリーンホールディングス,,株式会社,茨城県,水戸市,白梅３丁目１０番５号,,08,201,3100804,,,,,,,2022-09-16,1,,,,,イバラキクリーンホールディングス,0
1382,6060001035281,新規,0,2022-09-16,2022-09-16,株式会社ＩＳＡＭＵ,,株式会社,栃木県,矢板市,中７５７番地１,,09,211,3292135,,,,,,,2022-09-16,1,,,,,イサム,0
1389,6100001035707,新規,0,2022-09-16,2022-09-16,長興商事株式会社,,株式会社,長野県,中野市,大字新井若宮字中島３６３番１,,20,211,3830064,,,,,,,2022-09-16,1,,,,,チョウコウショウジ,0
1404,6120001248769,新規,0,2022-09-16,2022-09-16,紀和沐株式会社,,株式会社,大阪府,大阪市浪速区,桜川４丁目１７番２７号,,27,111,5560022,,,,,,,2022-09-16,1,,,,,キワモク,0
1405,6120001248934,新規,0,2022-09-16,2022-09-16,株式会社ＯＴＯＧＩ,,株式会社,大阪府,大阪市北区,鶴野町４－１１朝日プラザ梅田ビル２Ｆ－３,,27,127,5300014,,,,,,,2022-09-16,1,,,,,オトギ,0
1411,6120003022478,新規,0,2022-09-16,2022-09-16,合同会社つむぐプロジェクト,,合同会社,大阪府,大阪市東住吉区,東田辺１丁目４番２１号,,27,121,5460032,,,,,,,2022-09-16,1,,,,,ツムグプロジェクト,0
1412,6120003022503,新規,0,2022-09-16,2022-09-16,交野・向井田プロジェクト合同会社,,合同会社,大阪府,大阪市中央区,島之内２丁目１２番１５号,,27,128,5420082,,,,,,,2022-09-16,1,,,,,カタノムカイダプロジェクト,0
1418,6130001072549,新規,0,2022-09-16,2022-09-16,株式会社さぽーと,,株式会社,京都府,京都市上京区,西堀川通下立売上る四町目５５－５１番地堀川下立売団地,,26,102,6028112,,,,,,,2022-09-16,1,,,,,サポート,0
1422,6140001052871,新規,0,2022-09-16,2022-09-16,株式会社いながき,,株式会社,兵庫県,尼崎市,玄番北之町３８番地,,28,202,6600872,,,,,,,2022-09-16,1,,,,,イナガキ,0
1424,6140003018103,新規,0,2022-09-16,2022-09-16,アゲテコ合同会社,,合同会社,兵庫県,神崎郡福崎町,八千種２３８２番地,,28,443,6792202,,,,,,,2022-09-16,1,,,,,アゲテコ,0
1426,6150001025827,新規,0,2022-09-16,2022-09-16,株式会社ｅｌｍｏキャピタル,,株式会社,奈良県,香芝市,真美ヶ丘５丁目１７番１５号,,29,210,6390223,,,,,,,2022-09-16,1,,,,,エルモキャピタル,0
1429,6180001153047,新規,0,2022-09-16,2022-09-16,株式会社Ｅｔｅｒｎｏ,,株式会社,愛知県,名古屋市南区,上浜町３０６番地の１,,23,112,4570067,,,,,,,2022-09-16,1,,,,,エテルノ,0
1432,6180005019938,新規,0,2022-09-16,2022-09-16,有限責任中部総合監査法人,,その他の設立登記法人,愛知県,名古屋市中区,丸の内３丁目１７番１３号いちご丸の内ビル２階,,23,106,4600002,,,,,,,2022-09-16,1,,,,,ユウゲンセキニンチュウブソウゴウ,0
1436,6200003005672,新規,0,2022-09-16,2022-09-16,合同会社ＴＯＰ・Ｇ,,合同会社,岐阜県,岐阜市,水海道１丁目３番１３号,,21,201,5008223,,,,,,,2022-09-16,1,,,,,トップジー,0
1438,6220001025035,新規,0,2022-09-16,2022-09-16,株式会社アルファエステート,,株式会社,石川県,金沢市,高尾台１丁目４４２番地,,17,201,9218155,,,,,,,2022-09-16,1,,,,,アルファエステート,0
1441,6230001019523,新規,0,2022-09-16,2022-09-16,株式会社Ｄ‐ダイアローグ,,株式会社,富山県,富山市,堀川小泉町１丁目１１番２２‐４０２号,,16,201,9398081,,,,,,,2022-09-16,1,,,,,ディーダイアローグ,0
1445,6290001098958,新規,0,2022-09-16,2022-09-16,ＨＣカンパニー株式会社,,株式会社,福岡県,那珂川市,西隈３丁目７番１４号,,40,231,8111242,,,,,,,2022-09-16,1,,,,,エイチシーカンパニー,0
1449,6330001030115,新規,0,2022-09-16,2022-09-16,株式会社ＳＭＺ,,株式会社,熊本県,熊本市東区,戸島西１丁目２９番３１－８０３号トーカンマンション健軍東壱番館,,43,102,8618043,,,,,,,2022-09-16,1,,,,,エスエムズィー,0
1454,6360003012315,新規,0,2022-09-16,2022-09-16,合同会社ＭＧＴ,,合同会社,沖縄県,那覇市,前島３丁目２５番２号泊ポートビル２１１,,47,201,9000016,,,,,,,2022-09-16,1,,,,,エムジーティー,0
1456,6370001049060,新規,0,2022-09-16,2022-09-16,株式会社しおり,,株式会社,宮城県,塩竈市,杉の入１丁目１番３号,,04,203,9850005,,,,,,,2022-09-16,1,,,,,シオリ,0
1462,6380003005275,新規,0,2022-09-16,2022-09-16,合同会社Ｈｏｃｏｔｅｎ‐Ｌｉｖｅｌｙ　ｐｈａｓｅ,,合同会社,福島県,福島市,南矢野目字鼓田１番地の８,,07,201,9600112,,,,,,,2022-09-16,1,,,,,ホテコンライブリーフェイズ,0
1465,6420001018010,新規,0,2022-09-16,2022-09-16,株式会社美之産業クリーンサービス,,株式会社,青森県,青森市,長島２丁目１３番１号アクア青森スクエアビル６階,,02,201,0300861,,,,,,,2022-09-16,1,,,,,ミユキサンギョウクリーンサービス,0
1468,6430001087500,新規,0,2022-09-16,2022-09-16,株式会社Ｇ・Ｓｅｒｖｉｃｅ,,株式会社,北海道,札幌市東区,北二十二条東６丁目２番２号,,01,103,0650022,,,,,,,2022-09-16,1,,,,,ジーサービス,0
1469,6430001087517,新規,0,2022-09-16,2022-09-16,株式会社Ａｕｔｏｓｈｏｐ　Ｐｒｏｌｏｇｕｅ,,株式会社,北海道,江別市,豊幌はみんぐ町１７番地の１９,,01,217,0670028,,,,,,,2022-09-16,1,,,,,オートショッププロローグ,0
1472,6430003014279,新規,0,2022-09-16,2022-09-16,合同会社ポートフラッグ,,合同会社,北海道,苫小牧市,ときわ町１丁目１１番２１号,,01,213,0591261,,,,,,,2022-09-16,1,,,,,ポートフラッグ,0
1474,6430005014558,新規,0,2022-09-16,2022-09-16,特定非営利活動法人多様な学生の支援を本気で考える会,,その他の設立登記法人,北海道,札幌市東区,北十一条東１丁目１－４０ＳＡＫＵＲＡ－Ｎ１１,,01,103,0650011,,,,,,,2022-09-16,1,,,,,タヨウナガクセイノシエンヲホンキデカンガエルカイ,0
1475,6460101007248,新規,0,2022-09-16,2022-09-16,ウイング株式会社,,株式会社,北海道,帯広市,西十四条南２丁目３番地１,,01,207,0800024,,,,,,,2022-09-16,1,,,,,ウイング,0
1486,7010001229548,新規,0,2022-09-16,2022-09-16,株式会社ＹＳＫ１０,,株式会社,東京都,千代田区,麹町１丁目６番地９,,13,101,1020083,,,,,,,2022-09-16,1,,,,,ワイエスケーテン,0
1487,7010001229556,新規,0,2022-09-16,2022-09-16,株式会社アルファコア・アジア,,株式会社,東京都,千代田区,富士見２丁目４番６号,,13,101,1020071,,,,,,,2022-09-16,1,,,,,アルファコアアジア,0
1489,7010103001986,新規,0,2022-09-16,2022-09-16,ファースト企画合同会社,,合同会社,東京都,八王子市,鑓水２７５１,,13,201,1920375,,,,,,,2022-09-16,1,,,,,ファーストキカク,0
1513,7011001149793,新規,0,2022-09-16,2022-09-16,株式会社ｋｙｏＵｓｅ,,株式会社,東京都,渋谷区,渋谷２丁目１９－１５宮益坂ビルディング６０９,,13,113,1500002,,,,,,,2022-09-16,1,,,,,キョーユーズ,0
1514,7011005009738,新規,0,2022-09-16,2022-09-16,一般社団法人Ｋａｚｕｍｉ,,その他の設立登記法人,東京都,渋谷区,幡ヶ谷２丁目６番９－７０３号ラクラス幡ヶ谷,,13,113,1510072,,,,,,,2022-09-16,1,,,,,カズミ,0
1516,7011101100169,新規,0,2022-09-16,2022-09-16,ワイヴィーダ・ラボラトリー株式会社,,株式会社,東京都,新宿区,新宿１丁目３６番２号新宿第七葉山ビル３階,,13,104,1600022,,,,,,,2022-09-16,1,,,,,ワイヴィーダラボラトリー,0
1520,7011701025609,新規,0,2022-09-16,2022-09-16,金川株式会社,,株式会社,東京都,江戸川区,松島３丁目３６番３号,,13,123,1320031,,,,,,,2022-09-16,1,,,,,カネガワ,0
1530,7013301049673,新規,0,2022-09-16,2022-09-16,株式会社久和,,株式会社,東京都,豊島区,南大塚２丁目４０番１号,,13,116,1700005,,,,,,,2022-09-16,1,,,,,クワ,0
1547,7021003012156,新規,0,2022-09-16,2022-09-16,合同会社ｌａｔｅｌ,,合同会社,神奈川県,高座郡寒川町,宮山１３０５番地７,,14,321,2530106,,,,,,,2022-09-16,1,,,,,ラーテル,0
1561,7030001150017,新規,0,2022-09-16,2022-09-16,株式会社ＫＹＡＴＯ　ＭＯＴＯＲＳ,,株式会社,埼玉県,加須市,中種足６９０番地,,11,210,3470114,,,,,,,2022-09-16,1,,,,,キャトモータース,0
1562,7030001150108,新規,0,2022-09-16,2022-09-16,株式会社ステップス,,株式会社,埼玉県,さいたま市南区,白幡４丁目９番１１－１０２号,,11,108,3360022,,,,,,,2022-09-16,1,,,,,ステップス,0
1563,7030001150124,新規,0,2022-09-16,2022-09-16,株式会社青柳メタル,,株式会社,埼玉県,草加市,青柳２丁目７番４５号,,11,221,3400002,,,,,,,2022-09-16,1,,,,,アオヤギメタル,0
1564,7030001150140,新規,0,2022-09-16,2022-09-16,株式会社ＣＯＮＤＯ,,株式会社,埼玉県,さいたま市大宮区,桜木町２丁目２２３番地モナークヴィラ９０１,,11,103,3300854,,,,,,,2022-09-16,1,,,,,コンド,0
1565,7030001150149,新規,0,2022-09-16,2022-09-16,株式会社Ａｒｉｎ　Ｔｒａｄｅ,,株式会社,埼玉県,戸田市,笹目５丁目１０－１フラワーコート２０２,,11,224,3350034,,,,,,,2022-09-16,1,,,,,アリントレード,0
1568,7030003020192,新規,0,2022-09-16,2022-09-16,ＵＩＬＩＳ合同会社,,合同会社,埼玉県,入間市,大字仏子８７９－１４仏子アパート２０２,,11,225,3580053,,,,,,,2022-09-16,1,,,,,ウィリス,0
1581,7050001051659,新規,0,2022-09-16,2022-09-16,ＩＳＡ株式会社,,株式会社,茨城県,つくば市,細見８９２番地１,,08,220,3001265,,,,,,,2022-09-16,1,,,,,アイエスエー,0
1584,7050003006859,新規,0,2022-09-16,2022-09-16,合同会社ソメヤ,,合同会社,茨城県,猿島郡五霞町,原宿台３丁目２０番地６,,08,542,3060306,,,,,,,2022-09-16,1,,,,,ソメヤ,0
1588,7070001039644,新規,0,2022-09-16,2022-09-16,株式会社ＤＡＮＫ,,株式会社,群馬県,藤岡市,立石５６１－１２,,10,209,3750002,,,,,,,2022-09-16,1,,,,,,0
1590,7070003004621,新規,0,2022-09-16,2022-09-16,合同会社ＯＮ,,合同会社,群馬県,前橋市,力丸町１４５番地４,,10,201,3792134,,,,,,,2022-09-16,1,,,,,オン,0
1593,7080101023530,新規,0,2022-09-16,2022-09-16,株式会社ダイコー,,株式会社,静岡県,富士宮市,外神東町１３４番地の２３,,22,207,4180007,,,,,,,2022-09-16,1,,,,,ダイコー,0
1595,7080405007485,新規,0,2022-09-16,2022-09-16,磐田市山土協同組合,,その他の設立登記法人,静岡県,磐田市,向笠竹之内２７３番地の１,,22,211,4380013,,,,,,,2022-09-16,1,,,,,イワタシヤマド,0
1598,7100001035706,新規,0,2022-09-16,2022-09-16,株式会社渡辺工業,,株式会社,長野県,長野市,川中島町原６８１番地１リブラ２０１号,,20,201,3812224,,,,,,,2022-09-16,1,,,,,ワタナベコウギョウ,0
1611,7120001248933,新規,0,2022-09-16,2022-09-16,株式会社Ｓｈｉｏｎ,,株式会社,大阪府,大阪市浪速区,戎本町１丁目６番２２号ニューサノビル４０３,,27,111,5560013,,,,,,,2022-09-16,1,,,,,シオン,0
1614,7120101066244,新規,0,2022-09-16,2022-09-16,ＣｏｍＰｈｅｎｅｔ株式会社,,株式会社,大阪府,松原市,岡７丁目２６１番地１０,,27,217,5800014,,,,,,,2022-09-16,1,,,,,コンフェネット,0
1618,7130001072630,新規,0,2022-09-16,2022-09-16,東芸豐株式会社,,株式会社,京都府,京都市北区,紫野西御所田町６２－５,,26,101,6038165,,,,,,,2022-09-16,1,,,,,トウケイホウ,0
1623,7140001127375,新規,0,2022-09-16,2022-09-16,株式会社Ｔｒｉｂｅファイバーズーム,,株式会社,兵庫県,芦屋市,松浜町１５番１５－２０１号,,28,206,6590053,,,,,,,2022-09-16,1,,,,,トライブファイバーズーム,0
1646,7240001060376,新規,0,2022-09-16,2022-09-16,株式会社アーバンリサーチ,,株式会社,広島県,東広島市,志和町志和西１４８７－８,,34,212,7390268,,,,,,,2022-09-16,1,,,,,アーバンリサーチ,0
1648,7240003005809,新規,0,2022-09-16,2022-09-16,ＮＡＴＨＡＮ合同会社,,合同会社,広島県,三次市,十日市南５丁目３番３５号（２０４号）,,34,209,7280014,,,,,,,2022-09-16,1,,,,,ネイサン,0
1649,7240005015450,新規,0,2022-09-16,2022-09-16,特定非営利活動法人きらめき,,その他の設立登記法人,広島県,福山市,水呑町４４４８番地２水呑三新田７３－７,,34,207,7200832,,,,,,,2022-09-16,1,,,,,キラメキ,0
1660,7290001098874,新規,0,2022-09-16,2022-09-16,株式会社ＭＯＣＨＡ,,株式会社,福岡県,飯塚市,大分１４０５,,40,205,8200712,,,,,,,2022-09-16,1,,,,,モッチャ,0
1661,7290001098949,新規,0,2022-09-16,2022-09-16,利達株式会社,,株式会社,福岡県,福岡市博多区,祇園町８番１２号ロータリー大和１１２０号室,,40,132,8120038,,,,,,,2022-09-16,1,,,,,リーダー,0
1662,7290001098957,新規,0,2022-09-16,2022-09-16,ＴＯＫＩＮＩＣＯ株式会社,,株式会社,福岡県,福岡市南区,桧原６丁目１１番２８－２０４号,,40,134,8111355,,,,,,,2022-09-16,1,,,,,トキニコ,0
1685,7340003003901,新規,0,2022-09-16,2022-09-16,合同会社ＥＮ,,合同会社,鹿児島県,霧島市,隼人町内山田２丁目８‐３０,,46,218,8995106,,,,,,,2022-09-16,1,,,,,エン,0
1693,7380005012624,新規,0,2022-09-16,2022-09-16,特定非営利活動法人かおり福祉会,,その他の設立登記法人,福島県,福島市,飯坂町字東桜瀬１番地の２０,,07,201,9600201,,,,,,,2022-09-16,1,,,,,カオリフクシカイ,0
1695,7410001013283,新規,0,2022-09-16,2022-09-16,株式会社Ｆｒａｉｓｏｌ　Ｓａｎｎａｉ,,株式会社,秋田県,横手市,山内土渕字根子１０９番地１,,05,203,0191108,,,,,,,2022-09-16,1,,,,,フレソルサンナイ,0
1699,7420003002580,新規,0,2022-09-16,2022-09-16,合同会社ユーラス横浜風力,,合同会社,青森県,上北郡横浜町,字梨木平６８番地４,,02,406,0394100,,,,,,,2022-09-16,1,,,,,ユーラスヨコハマフウリョク,0
1706,7430001087499,新規,0,2022-09-16,2022-09-16,ＥＭＴＳ株式会社,,株式会社,北海道,札幌市白石区,菊水上町四条２丁目５２番２０４号,,01,104,0030814,,,,,,,2022-09-16,1,,,,,イーエムティーエス,0
1707,7430001087508,新規,0,2022-09-16,2022-09-16,株式会社北海道セレクト,,株式会社,北海道,札幌市中央区,南一条西５丁目３番３号,,01,101,0600061,,,,,,,2022-09-16,1,,,,,ホッカイドウセレクト,0
1709,7430005014557,新規,0,2022-09-16,2022-09-16,医療法人ひらいわ整形外科クリニック,,その他の設立登記法人,北海道,小樽市,長橋２丁目１７番１６号十字街クリニックビル４階,,01,203,0470036,,,,,,,2022-09-16,1,,,,,ヒライワセイケイゲカクリニック,0
1712,7470001019259,新規,0,2022-09-16,2022-09-16,株式会社ＭＯＯＮ　ＷＯＲＫＳ,,株式会社,香川県,高松市,南新町１１番地３,,37,201,7600051,,,,,,,2022-09-16,1,,,,,ムーンワークス,0
1724,8010001229522,新規,0,2022-09-16,2022-09-16,域上株式会社,,株式会社,東京都,千代田区,飯田橋２丁目１６－４九段下コート２Ｆ－２０２号室,,13,101,1020072,,,,,,,2022-09-16,1,,,,,イキジョウ,0
1725,8010001229547,新規,0,2022-09-16,2022-09-16,株式会社ＹＳＫ９,,株式会社,東京都,千代田区,麹町１丁目６番地９,,13,101,1020083,,,,,,,2022-09-16,1,,,,,,0
1726,8010001229555,新規,0,2022-09-16,2022-09-16,ＷｉｓｅＷｏｒｋｓ株式会社,,株式会社,東京都,中央区,銀座１丁目２２番１１号銀座大竹ビジデンス２階,,13,102,1040061,,,,,,,2022-09-16,1,,,,,ワイズワークス,0
1738,8010401169723,新規,0,2022-09-16,2022-09-16,株式会社ＲＩＳＩＮＧ,,株式会社,東京都,港区,六本木３丁目１８番２号,,13,103,1060032,,,,,,,2022-09-16,1,,,,,ライジング,0
1739,8010403028506,新規,0,2022-09-16,2022-09-16,合同会社ベンチャーエムエルＨ,,合同会社,東京都,港区,虎ノ門３丁目２２番１０－２０１号,,13,103,1050001,,,,,,,2022-09-16,1,,,,,ベンチャーエムエルエイチ,0
1740,8010405021368,新規,0,2022-09-16,2022-09-16,一般社団法人矢野徹経済研究所,,その他の設立登記法人,東京都,港区,赤坂６丁目１０番３９号ソフトタウン赤坂５０４号室,,13,103,1070052,,,,,,,2022-09-16,1,,,,,ヤノトオルケイザイケンキュウジョ,0
1745,8010801033256,新規,0,2022-09-16,2022-09-16,株式会社江戸前ハーブ,,株式会社,東京都,大田区,大森東５丁目３６番５号,,13,111,1430012,,,,,,,2022-09-16,1,,,,,エドマエハーブ,0
1749,8010901051637,新規,0,2022-09-16,2022-09-16,株式会社リアルリンクスプロパティ,,株式会社,東京都,世田谷区,世田谷２丁目６番４号,,13,112,1540017,,,,,,,2022-09-16,1,,,,,リアルリンクスプロパティ,0
1750,8010901051645,新規,0,2022-09-16,2022-09-16,株式会社ＢＬ,,株式会社,東京都,世田谷区,新町１丁目５番２５号,,13,112,1540014,,,,,,,2022-09-16,1,,,,,ビーエル,0
1756,8011001149784,新規,0,2022-09-16,2022-09-16,株式会社トラスト,,株式会社,東京都,渋谷区,代々木２丁目２３番１号ニューステイトメナー２４２,,13,113,1510053,,,,,,,2022-09-16,1,,,,,トラスト,0
1760,8011005009737,新規,0,2022-09-16,2022-09-16,医療法人社団敬将会,,その他の設立登記法人,東京都,渋谷区,桜丘町２４番１号橋本ビル６階,,13,113,1500031,,,,,,,2022-09-16,1,,,,,ケイショウカイ,0
1766,8011103012171,新規,0,2022-09-16,2022-09-16,合同会社ＹＫプロモーション,,合同会社,東京都,新宿区,歌舞伎町２丁目４２番１３－７０２号,,13,104,1600021,,,,,,,2022-09-16,1,,,,,ワイケープロモーション,0
1767,8011105010413,新規,0,2022-09-16,2022-09-16,一般社団法人歌舞伎町タウン・マネージメント,,その他の設立登記法人,東京都,新宿区,新宿５丁目１８番２１号,,13,104,1600022,,,,,,,2022-09-16,1,,,,,カブキチョウタウンマネージメント,0
1773,8011401024546,新規,0,2022-09-16,2022-09-16,株式会社バウンスバックボーイズ,,株式会社,東京都,板橋区,若木３丁目４番１号,,13,119,1740065,,,,,,,2022-09-16,1,,,,,バウンスバックボーイズ,0
1777,8011503005287,新規,0,2022-09-16,2022-09-16,合同会社ＭＯＴＨＥＲ３,,合同会社,東京都,北区,中十条３丁目１４番９号ＡＶＥＮＩＲ十条１０３号,,13,117,1140032,,,,,,,2022-09-16,1,,,,,マザースリー,0
1779,8011601026251,新規,0,2022-09-16,2022-09-16,ミヤケリブ株式会社,,株式会社,東京都,練馬区,豊玉南３丁目２２番１２号,,13,120,1760014,,,,,,,2022-09-16,1,,,,,ミヤケリブ,0
1780,8011605002471,新規,0,2022-09-16,2022-09-16,一般社団法人梟の杖,,その他の設立登記法人,東京都,練馬区,貫井３丁目２０番５号,,13,120,1760021,,,,,,,2022-09-16,1,,,,,フクロウノツエ,0
1784,8011701025624,新規,0,2022-09-16,2022-09-16,株式会社レックス,,株式会社,東京都,江戸川区,平井４丁目１２番１号,,13,123,1320035,,,,,,,2022-09-16,1,,,,,レックス,0
1787,8012403005583,新規,0,2022-09-16,2022-09-16,合同会社Ｂ‐ｍｉｘ,,合同会社,東京都,稲城市,百村２５１－１２,,13,225,2060804,,,,,,,2022-09-16,1,,,,,ビーミックス,0
1805,8021003012147,新規,0,2022-09-16,2022-09-16,ＳＯＪ合同会社,,合同会社,神奈川県,横須賀市,衣笠町２３番６号プリマヴェーラＢ２０１,,14,201,2380025,,,,,,,2022-09-16,1,,,,,エスオージェイ,0
1806,8021003012155,新規,0,2022-09-16,2022-09-16,アザレア合同会社,,合同会社,神奈川県,横須賀市,望洋台９番４号,,14,201,2380053,,,,,,,2022-09-16,1,,,,,アザレア,0
1816,8030001150131,新規,0,2022-09-16,2022-09-16,株式会社フラッシュ,,株式会社,埼玉県,新座市,栄３丁目５番１５号,,11,230,3520014,,,,,,,2022-09-16,1,,,,,フラッシュ,0
1817,8030001150164,新規,0,2022-09-16,2022-09-16,Ｌｉｆｅ　Ｓｅｅｄ株式会社,,株式会社,埼玉県,さいたま市南区,太田窪５丁目２７－４,,11,108,3360015,,,,,,,2022-09-16,1,,,,,ライフシード,0
1821,8030003020217,新規,0,2022-09-16,2022-09-16,ＴＮＡ合同会社,,合同会社,埼玉県,新座市,大和田５丁目２０－２１－１０６,,11,230,3520004,,,,,,,2022-09-16,1,,,,,ティーエヌエイ,0
1831,8050003006866,新規,0,2022-09-16,2022-09-16,Ｎ．Ｄ．ＴＲＡＤＩＮＧ合同会社,,合同会社,茨城県,結城郡八千代町,大字佐野７８１番地１,,08,521,3003505,,,,,,,2022-09-16,1,,,,,エヌディートレーディング,0
1847,8120001248841,新規,0,2022-09-16,2022-09-16,株式会社スターフェスタ,,株式会社,大阪府,大阪市北区,梅田１丁目１番３号大阪駅前第３ビル２９階１－１－１号室,,27,127,5300001,,,,,,,2022-09-16,1,,,,,スターフェスタ,0
1848,8120001248882,新規,0,2022-09-16,2022-09-16,蒼石株式会社,,株式会社,大阪府,大阪市中央区,松屋町９番２０号ローレルステート松屋町４０９Ｂ,,27,128,5420067,,,,,,,2022-09-16,1,,,,,ソウセキ,0
1849,8120001248890,新規,0,2022-09-16,2022-09-16,株式会社イーライフ,,株式会社,大阪府,大阪市平野区,平野元町６番２２号,,27,126,5470047,,,,,,,2022-09-16,1,,,,,イーライフ,0
1850,8120001248899,新規,0,2022-09-16,2022-09-16,株式会社リベ大不動産,,株式会社,大阪府,大阪市中央区,南久宝寺町３丁目４番１５号３階,,27,128,5410058,,,,,,,2022-09-16,1,,,,,リベダイフドウサン,0
1855,8120003022468,新規,0,2022-09-16,2022-09-16,合同会社ＮＯＷ　Ｃｏｍｐａｎｙ,,合同会社,大阪府,門真市,新橋町１１番６号,,27,223,5710048,,,,,,,2022-09-16,1,,,,,ナウカンパニー,0
1856,8120101066235,新規,0,2022-09-16,2022-09-16,株式会社Ｙｏｕｒｅｉｆ,,株式会社,大阪府,堺市堺区,新在家町東１丁１番２８号,,27,141,5900964,,,,,,,2022-09-16,1,,,,,ユアライフ,0
1857,8120101066243,新規,0,2022-09-16,2022-09-16,株式会社ＥＲＰ,,株式会社,大阪府,岸和田市,神須屋町１４５番１,,27,202,5960833,,,,,,,2022-09-16,1,,,,,イーアールピー,0
1866,8130001072621,新規,0,2022-09-16,2022-09-16,山口設計工務株式会社,,株式会社,京都府,京都市中京区,寺町通押小路上る榎木町９９番地,,26,104,6040931,,,,,,,2022-09-16,1,,,,,ヤマグチセッケイコウム,0
1879,8150001025825,新規,0,2022-09-16,2022-09-16,株式会社ＫＥＹｂｏｘ,,株式会社,奈良県,奈良市,三条町４７５番地松田ビル２ＦＹＡＭＡＴＯＢＡＳＥ,,29,201,6308244,,,,,,,2022-09-16,1,,,,,キーボックス,0
1887,8180001153029,新規,0,2022-09-16,2022-09-16,リライフ株式会社,,株式会社,愛知県,名古屋市熱田区,新尾頭３丁目１番１８号ＷＩＺ金山６０２,,23,109,4560018,,,,,,,2022-09-16,1,,,,,リライフ,0
1888,8180005019936,新規,0,2022-09-16,2022-09-16,一般社団法人絆,,その他の設立登記法人,愛知県,名古屋市中村区,名駅南１丁目３番１７号,,23,105,4500003,,,,,,,2022-09-16,1,,,,,キズナ,0
1895,8200003005679,新規,0,2022-09-16,2022-09-16,合同会社ＢＵＬＬ,,合同会社,岐阜県,可児市,中恵土２３７１－２８０,,21,214,5090202,,,,,,,2022-09-16,1,,,,,ブル,0
1900,8220005008703,新規,0,2022-09-16,2022-09-16,一般社団法人海ごみゼロ大作戦ｉｎ石川,,その他の設立登記法人,石川県,金沢市,本多町３丁目２番１号,,17,201,9200964,,,,,,,2022-09-16,1,,,,,ウミゴミゼロダイサクセンインイシカワ,0
1905,8270001008628,新規,0,2022-09-16,2022-09-16,株式会社ＰＰＰプログレス江府２０２２,,株式会社,鳥取県,日野郡江府町,大字小江尾６５１番地５,,31,403,6894402,,,,,,,2022-09-16,1,,,,,ピーピーピープログレスコウフニーマルニーニー,0
1910,8290001098956,新規,0,2022-09-16,2022-09-16,福大不動産株式会社,,株式会社,福岡県,福岡市東区,大字志賀島１２９８－１７９,,40,131,8110323,,,,,,,2022-09-16,1,,,,,フクダイフドウサン,0
1917,8300001013070,新規,0,2022-09-16,2022-09-16,株式会社Ｒｅｖｅｒｃｈ,,株式会社,佐賀県,佐賀市,神野東３丁目２番１号－４０５,,41,201,8400804,,,,,,,2022-09-16,1,,,,,リヴァーチ,0
1920,8310003004447,新規,0,2022-09-16,2022-09-16,合同会社大耕,,合同会社,長崎県,長崎市,草住町３１４番地,,42,201,8500981,,,,,,,2022-09-16,1,,,,,タイコウ,0
1921,8320001019322,新規,0,2022-09-16,2022-09-16,株式会社Ｓｏｒａｃａｎ,,株式会社,大分県,宇佐市,大字法鏡寺９９６番地の１５,,44,211,8790454,,,,,,,2022-09-16,1,,,,,ソラキャン,0
1932,8370001049067,新規,0,2022-09-16,2022-09-16,株式会社ＨＯＫＯ,,株式会社,宮城県,仙台市青葉区,上杉６丁目２番１号,,04,101,9800011,,,,,,,2022-09-16,1,,,,,ココ,0
1940,8430001087498,新規,0,2022-09-16,2022-09-16,崎尾株式会社,,株式会社,北海道,札幌市白石区,東札幌一条４丁目１番９号,,01,104,0030001,,,,,,,2022-09-16,1,,,,,ザキオ,0
1941,8430001087507,新規,0,2022-09-16,2022-09-16,ナリタオルグ株式会社,,株式会社,北海道,札幌市手稲区,富丘二条４丁目１７番３号,,01,109,0060012,,,,,,,2022-09-16,1,,,,,ナリタオルグ,0
1947,8430005014556,新規,0,2022-09-16,2022-09-16,医療法人社団天目会,,その他の設立登記法人,北海道,札幌市豊平区,月寒東三条１１丁目１－３６ブランチ札幌月寒メディカルスクエア,,01,105,0620053,,,,,,,2022-09-16,1,,,,,テンモクカイ,0
1950,8470003002253,新規,0,2022-09-16,2022-09-16,Ｂｒａｉｎ　Ｌｅａｒｎｉｎｇ合同会社,,合同会社,香川県,高松市,茜町２５番１３号オカモトハイツ１０２号室,,37,201,7600002,,,,,,,2022-09-16,1,,,,,ブレインラーニング,0
1951,8490001010289,新規,0,2022-09-16,2022-09-16,株式会社オフィスＫ,,株式会社,高知県,南国市,緑ケ丘３丁目２９０６,,39,204,7830086,,,,,,,2022-09-16,1,,,,,オフィスケー,0
1952,8500001024469,新規,0,2022-09-16,2022-09-16,株式会社久南地所,,株式会社,愛媛県,松山市,南久米町５５９番地,,38,201,7900924,,,,,,,2022-09-16,1,,,,,キュウナンチショ,0
1956,9010001229505,新規,0,2022-09-16,2022-09-16,株式会社ＧＥＮＴＬＥ,,株式会社,東京都,中央区,築地２丁目５番７号ＡＣＮ築地二丁目ビル地下１階,,13,102,1040045,,,,,,,2022-09-16,1,,,,,ジェントル,0
1957,9010001229521,新規,0,2022-09-16,2022-09-16,株式会社アルゴ３６５,,株式会社,東京都,千代田区,丸の内２丁目三番二号郵船ビルディング１階,,13,101,1000005,,,,,,,2022-09-16,1,,,,,アルゴサンロクゴ,0
1959,9010003038581,新規,0,2022-09-16,2022-09-16,Ｖｉｅ　ｃａｌｍｅ合同会社,,合同会社,東京都,千代田区,東神田３丁目４番１２号,,13,101,1010031,,,,,,,2022-09-16,1,,,,,ヴィエカルメ,0
1971,9010401169722,新規,0,2022-09-16,2022-09-16,株式会社エスエスケイ,,株式会社,東京都,港区,東麻布１丁目２６番２号－１３０１号,,13,103,1060044,,,,,,,2022-09-16,1,,,,,エスエスケイ,0
1972,9010401169747,新規,0,2022-09-16,2022-09-16,株式会社強美,,株式会社,東京都,港区,南青山２丁目２番１５号,,13,103,1070062,,,,,,,2022-09-16,1,,,,,ツヨミ,0
1976,9010403028505,新規,0,2022-09-16,2022-09-16,合同会社ベンチャーＨ,,合同会社,東京都,港区,虎ノ門３丁目２２番１０－２０１号,,13,103,1050001,,,,,,,2022-09-16,1,,,,,ベンチャーエイチ,0
1977,9010403028513,新規,0,2022-09-16,2022-09-16,ＬＳ‐ＡＦＲ第１号合同会社,,合同会社,東京都,港区,六本木１丁目６番１号,,13,103,1060032,,,,,,,2022-09-16,1,,,,,エルエスエーエフアールダイイチゴウ,0
1978,9010405021367,新規,0,2022-09-16,2022-09-16,一般社団法人Ａｒｔ　Ｏｆ　Ｄｅａｌ,,その他の設立登記法人,東京都,港区,南青山４丁目２番１２南青山マスターズハウス３０９,,13,103,1070062,,,,,,,2022-09-16,1,,,,,アートオブディール,0
1990,9010903007644,新規,0,2022-09-16,2022-09-16,Ｇｕｒｕｒｉ合同会社,,合同会社,東京都,世田谷区,世田谷１丁目３番１８号,,13,112,1540017,,,,,,,2022-09-16,1,,,,,グルリ,0
1993,9011001149783,新規,0,2022-09-16,2022-09-16,株式会社ＴＷＰＨ,,株式会社,東京都,渋谷区,円山町５番５号Ｎａｖｉ渋谷Ｖ３階,,13,113,1500044,,,,,,,2022-09-16,1,,,,,ティーダブルピーエイチ,0
1994,9011005009736,新規,0,2022-09-16,2022-09-16,医療法人社団Ａｒｔｉｓｔｓ,,その他の設立登記法人,東京都,渋谷区,神宮前４丁目２４番３号神宮前ＣＯＵＲＴ－Ｃ１Ｆ－２,,13,113,1500001,,,,,,,2022-09-16,1,,,,,アーティスツ,0
1998,9011101100217,新規,0,2022-09-16,2022-09-16,株式会社世界堂人材バンク,,株式会社,東京都,新宿区,新宿３丁目１番１号,,13,104,1600022,,,,,,,2022-09-16,1,,,,,セカイドウジンザイバンク,0
2011,9012301013134,新規,0,2022-09-16,2022-09-16,株式会社ＹＭＫ,,株式会社,東京都,町田市,南大谷１２８３番地２９,,13,209,1940031,,,,,,,2022-09-16,1,,,,,ワイエムケー,0
2012,9012303001723,新規,0,2022-09-16,2022-09-16,エレガンスクオリティー合同会社,,合同会社,東京都,町田市,下小山田町２７４０－８,,13,209,1940202,,,,,,,2022-09-16,1,,,,,エレガンスクオリティー,0
2022,9013301049663,新規,0,2022-09-16,2022-09-16,ＢＬＵＥＣＨＩＰ株式会社,,株式会社,東京都,豊島区,東池袋４丁目２７－５ライオンズプラザ池袋２０３室,,13,116,1700013,,,,,,,2022-09-16,1,,,,,ブルーチップ,0
2031,9021003012146,新規,0,2022-09-16,2022-09-16,合同会社ＯＮ　ＰＯＩＮＴ,,合同会社,神奈川県,藤沢市,朝日町９番地の１―８０４号,,14,205,2510054,,,,,,,2022-09-16,1,,,,,オンポイント,0
2045,9030001150122,新規,0,2022-09-16,2022-09-16,株式会社日昇,,株式会社,埼玉県,東松山市,大字毛塚１１０５番地１,,11,212,3550064,,,,,,,2022-09-16,1,,,,,ニッショウ,0
2046,9030001150130,新規,0,2022-09-16,2022-09-16,株式会社ロイヤル,,株式会社,埼玉県,新座市,栄３丁目５番１５号,,11,230,3520014,,,,,,,2022-09-16,1,,,,,ロイヤル,0
2047,9030001150147,新規,0,2022-09-16,2022-09-16,アサヒメディカルデバイス株式会社,,株式会社,埼玉県,川口市,榛松２丁目３０－３５－４０１,,11,203,3340062,,,,,,,2022-09-16,1,,,,,アサヒメディカルデバイス,0
2051,9030003020190,新規,0,2022-09-16,2022-09-16,ＨＴＬ合同会社,,合同会社,埼玉県,川口市,川口１丁目４番２８号川口タウンハイツＡ棟１０１号,,11,203,3320015,,,,,,,2022-09-16,1,,,,,エイチティエル,0
2052,9030003020216,新規,0,2022-09-16,2022-09-16,合同会社ＥＩＦＵＫＵ,,合同会社,埼玉県,さいたま市浦和区,神明１丁目２０番３１号,,11,107,3300065,,,,,,,2022-09-16,1,,,,,エイフク,0
2060,9040001125115,新規,0,2022-09-16,2022-09-16,株式会社ＬＩＫＥホーム,,株式会社,千葉県,船橋市,西船４丁目２４－２５ＳＡＰ７、２階,,12,204,2730031,,,,,,,2022-09-16,1,,,,,ライクホーム,0
2074,9080101023529,新規,0,2022-09-16,2022-09-16,日弘スタール株式会社,,株式会社,静岡県,沼津市,足高３６８番地の５株式会社日弘商会内,,22,203,4100001,,,,,,,2022-09-16,1,,,,,ニッコースタール,0
2077,9100001035704,新規,0,2022-09-16,2022-09-16,北アルプス山麓ファーム株式会社,,株式会社,長野県,北安曇郡松川村,４２０３番地３,,20,482,3998501,,,,,,,2022-09-16,1,,,,,キタアルプスサンロクファーム,0
2082,9110001036965,新規,0,2022-09-16,2022-09-16,株式会社アセットマネジメント,,株式会社,新潟県,燕市,小高５５３６番地６,,15,213,9591241,,,,,,,2022-09-16,1,,,,,アセットマネジメント,0
2093,9120001248849,新規,0,2022-09-16,2022-09-16,株式会社プラステージ,,株式会社,大阪府,大阪市北区,天神橋６丁目６－１９エレガントビル南館７０３号,,27,127,5300041,,,,,,,2022-09-16,1,,,,,プラステージ,0
2094,9120001248857,新規,0,2022-09-16,2022-09-16,株式会社カラフルリンク,,株式会社,大阪府,大阪市大正区,三軒家東１丁目１９番９号山縣ビル２Ｆ,,27,108,5510002,,,,,,,2022-09-16,1,,,,,カラフルリンク,0
2095,9120001248898,新規,0,2022-09-16,2022-09-16,株式会社吉川工業,,株式会社,大阪府,大阪市生野区,田島２丁目１０番３４号,,27,116,5440011,,,,,,,2022-09-16,1,,,,,ヨシカワコウギョウ,0
2099,9120003022450,新規,0,2022-09-16,2022-09-16,合同会社デジタルデバイス,,合同会社,大阪府,大阪市中央区,瓦屋町２丁目１番９号,,27,128,5420066,,,,,,,2022-09-16,1,,,,,デジタルデバイス,0
2100,9120003022475,新規,0,2022-09-16,2022-09-16,合同会社ＴＡＩＭＵＲ　ＭＯＴＯＲＳ,,合同会社,大阪府,大阪市中央区,内平野町２丁目４番５号内平野中央ビル８階,,27,128,5400037,,,,,,,2022-09-16,1,,,,,タイムルモーターズ,0
2109,9130001072661,新規,0,2022-09-16,2022-09-16,鶴ヶ岡まちづくり株式会社,,株式会社,京都府,南丹市,美山町鶴ケ岡新釈迦堂前１番地,,26,213,6010762,,,,,,,2022-09-16,1,,,,,ツルガオカマチヅクリ,0
2111,9130003008176,新規,0,2022-09-16,2022-09-16,合同会社カラント,,合同会社,京都府,京都市左京区,一乗寺築田町８５番地２,,26,103,6068175,,,,,,,2022-09-16,1,,,,,カラント,0
2112,9130003008184,新規,0,2022-09-16,2022-09-16,合同会社商事ＫＺ,,合同会社,京都府,相楽郡精華町,大字山田小字古川４６番地,,26,366,6190231,,,,,,,2022-09-16,1,,,,,ショウジカズ,0
2119,9140001127398,新規,0,2022-09-16,2022-09-16,株式会社Ｊ‐ＦＡＲＭ,,株式会社,兵庫県,丹波篠山市,野中４６９番地２,,28,221,6692452,,,,,,,2022-09-16,1,,,,,ジェイファーム,0
2131,9180005019935,新規,0,2022-09-16,2022-09-16,弁護士法人ブナの森法律事務所,,その他の設立登記法人,愛知県,名古屋市東区,泉２丁目２７番１４号関電不動産高岳ビル３階,,23,102,4610001,,,,,,,2022-09-16,1,,,,,ブナノモリホウリツジムショ,0
2139,9210001019092,新規,0,2022-09-16,2022-09-16,創基水工株式会社,,株式会社,福井県,福井市,冬野町第２６号６番地,,18,201,9188154,,,,,,,2022-09-16,1,,,,,ソウキスイコウ,0
2149,9250005008773,新規,0,2022-09-16,2022-09-16,一般社団法人こどもとのかけはし,,その他の設立登記法人,山口県,下関市,王司神田１丁目１０番９号王司店舗Ｃ号,,35,201,7520911,,,,,,,2022-09-16,1,,,,,コドモトノカケハシ,0
2158,9290003012963,新規,0,2022-09-16,2022-09-16,合同会社ＣＯＣＯＩＥ,,合同会社,福岡県,大野城市,南ケ丘５丁目２番２３号,,40,219,8160964,,,,,,,2022-09-16,1,,,,,ココイエ,0
2165,9350001017958,新規,0,2022-09-16,2022-09-16,株式会社ベストケアグループ,,株式会社,宮崎県,宮崎市,広島２丁目８番２０号２Ｆ,,45,201,8800806,,,,,,,2022-09-16,1,,,,,ベストケアグループ,0
2167,9350005006098,新規,0,2022-09-16,2022-09-16,医療法人ひたむき,,その他の設立登記法人,宮崎県,都城市,高崎町大牟田７５４番地２,,45,202,8894505,,,,,,,2022-09-16,1,,,,,ヒタムキ,0
2174,9370001049066,新規,0,2022-09-16,2022-09-16,萬代商事株式会社,,株式会社,宮城県,仙台市青葉区,本町１丁目１２番２号,,04,101,9800014,,,,,,,2022-09-16,1,,,,,マンダイショウジ,0
2175,9370003005835,新規,0,2022-09-16,2022-09-16,合同会社ｏｎｅｎｅｓｓ,,合同会社,宮城県,仙台市青葉区,一番町２丁目３番３０号,,04,101,9800811,,,,,,,2022-09-16,1,,,,,ワンネス,0
2187,9430001087497,新規,0,2022-09-16,2022-09-16,株式会社積丹アワビシェル工房,,株式会社,北海道,札幌市白石区,平和通１丁目北１１番１号,,01,104,0030029,,,,,,,2022-09-16,1,,,,,シャコタンアワビシェルコウボウ,0
2194,9430005014555,新規,0,2022-09-16,2022-09-16,特定非営利活動法人春風会工房ふきのとう,,その他の設立登記法人,北海道,札幌市西区,福井６丁目５番２４号,,01,107,0630012,,,,,,,2022-09-16,1,,,,,ハルカゼカイコウボウフキノトウ,0
2196,9460301005098,新規,0,2022-09-16,2022-09-16,株式会社マシーンコーポレーション,,株式会社,北海道,北見市,川東３８４番地１８,,01,208,0900807,,,,,,,2022-09-16,1,,,,,マシーンコーポレーション,0
2197,9470001019257,新規,0,2022-09-16,2022-09-16,株式会社三つ葉,,株式会社,香川県,善通寺市,原田町１１７９番地１セジュールＫ　Ｂ－１０２,,37,204,7650032,,,,,,,2022-09-16,1,,,,,ミツバ,0
2198,9490001010288,新規,0,2022-09-16,2022-09-16,株式会社すまいるケア,,株式会社,高知県,高知市,北竹島町４８９番地２,,39,201,7808019,,,,,,,2022-09-16,1,,,,,スマイルケア,0
2199,9500001024468,新規,0,2022-09-16,2022-09-16,ダイヤリンク株式会社,,株式会社,愛媛県,西条市,神拝甲５３５番地１,,38,206,7930041,,,,,,,2022-09-16,1,,,,,ダイヤリンク,0
