sequenceNumber,corporateNumber,process,correct,updateDate,changeDate,name,nameImageId,kind,prefectureName,cityName,streetNumber,addressImageId,prefectureCode,cityCode,postCode,addressOutside,addressOutsideImageId,closeDate,closeCause,successorCorporateNumber,changeCause,assignmentDate,latest,enName,enPrefectureName,enCityName,enAddressOutside,furigana,hihyoji
4,1010001249139,新規,0,2024-10-18,2024-10-18,ＡＳ株式会社,,株式会社,東京都,中央区,銀座７丁目１３番２０号銀座ＴＨビル９階,,13,102,1040061,,,,,,,2024-10-18,1,,,,,アース,0
5,1010001249147,新規,0,2024-10-18,2024-10-18,株式会社ＥＰＴＪ,,株式会社,東京都,千代田区,外神田５丁目１番１０号,,13,101,1010021,,,,,,,2024-10-18,1,,,,,イーピーティージェー,0
7,1010003045024,新規,0,2024-10-18,2024-10-18,合同会社ＡＩＳｍａｒｔ　Ｓｏｌｕｔｉｏｎｓ,,合同会社,東京都,千代田区,神田須田町１丁目７番１号ウィン神田ビル４２６号室,,13,101,1010041,,,,,,,2024-10-18,1,,,,,エーアイスマートソリューションズ,0
8,1010003045214,新規,0,2024-10-18,2024-10-18,ＫＫ合同会社,,合同会社,東京都,中央区,銀座１丁目１２番４号Ｎ＆ＥＢＬＤ．７階,,13,102,1040061,,,,,,,2024-10-18,1,,,,,ケーケー,0
9,1010003045247,新規,0,2024-10-18,2024-10-18,合同会社陽のあたる隠れ家,,合同会社,東京都,千代田区,神田和泉町１番地６－１６ヤマトビル４０５,,13,101,1010024,,,,,,,2024-10-18,1,,,,,ヒノアタルカクレガ,0
10,1010101016356,新規,0,2024-10-18,2024-10-18,晧星貿易株式会社,,株式会社,東京都,八王子市,寺町４３－９,,13,201,1920073,,,,,,,2024-10-18,1,,,,,コウセイボウエキ,0
18,1010401185743,新規,0,2024-10-18,2024-10-18,株式会社ソノリタ,,株式会社,東京都,港区,虎ノ門５丁目１１番２号オランダヒルズ森タワーＲоＰｌ３０８,,13,103,1050001,,,,,,,2024-10-18,1,,,,,ソノリタ,0
19,1010401185751,新規,0,2024-10-18,2024-10-18,エックス株式会社,,株式会社,東京都,港区,六本木７丁目１２番２号Ｒ７ビルディングＳＰＡＣＥＳ六本木,,13,103,1060032,,,,,,,2024-10-18,1,,,,,エックス,0
20,1010401185784,新規,0,2024-10-18,2024-10-18,睿東商業株式会社,,株式会社,東京都,港区,新橋５丁目１２番１１－７０９号,,13,103,1050004,,,,,,,2024-10-18,1,,,,,エイトウショウギョウ,0
21,1010401185818,新規,0,2024-10-18,2024-10-18,株式会社ＲＥＶＡＤＤ,,株式会社,東京都,港区,芝５丁目１６番１４号三田ノックスビル３Ｆ・４Ｆ,,13,103,1080014,,,,,,,2024-10-18,1,,,,,リバード,0
22,1010401185826,新規,0,2024-10-18,2024-10-18,株式会社メタスフィア,,株式会社,東京都,港区,浜松町２丁目２番１５号,,13,103,1050013,,,,,,,2024-10-18,1,,,,,メタスフィア,0
23,1010401185834,新規,0,2024-10-18,2024-10-18,桜花総合都市開発株式会社,,株式会社,東京都,港区,赤坂５丁目１番２６号サンライズ赤坂ビル,,13,103,1070052,,,,,,,2024-10-18,1,,,,,オウカソウゴウトシカイハツ,0
24,1010401185842,新規,0,2024-10-18,2024-10-18,株式会社ＲＯＲＥ,,株式会社,東京都,港区,赤坂８丁目４番１４号青山タワープレイス８階,,13,103,1070052,,,,,,,2024-10-18,1,,,,,ロレ,0
33,1010403033628,新規,0,2024-10-18,2024-10-18,合同会社プロジェクト１,,合同会社,東京都,港区,新橋６丁目２２番６号ＪＯＹＯビル６階,,13,103,1050004,,,,,,,2024-10-18,1,,,,,プロジェクトワン,0
37,1010601066116,新規,0,2024-10-18,2024-10-18,株式会社カズ吉,,株式会社,東京都,江東区,亀戸７丁目３０番４号,,13,108,1360071,,,,,,,2024-10-18,1,,,,,カズキチ,0
39,1010603011160,新規,0,2024-10-18,2024-10-18,Ｌｅｇｅｎｄ　Ｓｔｏｒｙ　Ｓｔｕｄｉｏｓ合同会社,,合同会社,東京都,江東区,有明３丁目７番２６号有明フロンティアビルＢ棟９階,,13,108,1350063,,,,,,,2024-10-18,1,,,,,レジェンドストーリースタジオ,0
43,1010801035440,新規,0,2024-10-18,2024-10-18,株式会社Ｅ‐ＬＡＢ,,株式会社,東京都,大田区,鵜の木３丁目１２番１２号,,13,111,1460091,,,,,,,2024-10-18,1,,,,,イーラボ,0
46,1010901056147,新規,0,2024-10-18,2024-10-18,ＥＭ設備株式会社,,株式会社,東京都,世田谷区,池尻３丁目２１番１６－５０７号,,13,112,1540001,,,,,,,2024-10-18,1,,,,,イーエムセツビ,0
47,1010901056163,新規,0,2024-10-18,2024-10-18,株式会社ＳＧフードサービスジャパン,,株式会社,東京都,世田谷区,給田３丁目８番１２号,,13,112,1570064,,,,,,,2024-10-18,1,,,,,エスジーフードサービスジャパン,0
52,1011001165235,新規,0,2024-10-18,2024-10-18,株式会社ＫｅｙＬｉｎｋｓ,,株式会社,東京都,渋谷区,円山町５番５号Ｎａｖｉ渋谷Ｖ３階,,13,113,1500044,,,,,,,2024-10-18,1,,,,,キーリンクス,0
53,1011001165284,新規,0,2024-10-18,2024-10-18,株式会社２０セント,,株式会社,東京都,渋谷区,桜丘町２６番１号セルリアンタワー１５階,,13,113,1500031,,,,,,,2024-10-18,1,,,,,トゥエンティセント,0
58,1011003020173,新規,0,2024-10-18,2024-10-18,サリゲナク合同会社,,合同会社,東京都,目黒区,碑文谷５丁目５番６号小松ビル１０１号室,,13,110,1520003,,,,,,,2024-10-18,1,,,,,サリゲナク,0
59,1011003020231,新規,0,2024-10-18,2024-10-18,合同会社Ｂｏｎｏｓ,,合同会社,東京都,渋谷区,神南１丁目１１‐４ＦＰＧリンクス神南５階,,13,113,1500041,,,,,,,2024-10-18,1,,,,,ボノス,0
66,1011101109117,新規,0,2024-10-18,2024-10-18,乗憶株式会社,,株式会社,東京都,新宿区,上落合２丁目２２番１２－６０２号,,13,104,1610034,,,,,,,2024-10-18,1,,,,,ジョウオク,0
67,1011101109158,新規,0,2024-10-18,2024-10-18,株式会社Ｖｉｓｉｏｎ　Ｗｏｒｋｓ,,株式会社,東京都,新宿区,新宿６丁目２７番３０号,,13,104,1600022,,,,,,,2024-10-18,1,,,,,ビションワークス,0
68,1011103015057,新規,0,2024-10-18,2024-10-18,合同会社モスキート,,合同会社,東京都,新宿区,上落合３丁目３２－１－２０４,,13,104,1610034,,,,,,,2024-10-18,1,,,,,モスキート,0
69,1011103015065,新規,0,2024-10-18,2024-10-18,合同会社ＢＬＢ,,合同会社,東京都,新宿区,新宿２丁目１２番１３号,,13,104,1600022,,,,,,,2024-10-18,1,,,,,ビーエルビー,0
70,1011105011194,新規,0,2024-10-18,2024-10-18,司法書士法人ＳＵＺＵＫＩ事務所,,その他の設立登記法人,東京都,新宿区,荒木町３番地,,13,104,1600007,,,,,,,2024-10-18,1,,,,,スズキジムショ,0
71,1011201025874,新規,0,2024-10-18,2024-10-18,株式会社エイ・エム・エス,,株式会社,東京都,中野区,沼袋４丁目７番８号,,13,114,1650025,,,,,,,2024-10-18,1,,,,,エイエムエス,0
77,1011701027734,新規,0,2024-10-18,2024-10-18,株式会社平井中村屋,,株式会社,東京都,江戸川区,小松川３丁目９番１号リバーウエストＡ館１Ｆ,,13,123,1320034,,,,,,,2024-10-18,1,,,,,ヒライナカムラヤ,0
78,1011703004005,新規,0,2024-10-18,2024-10-18,あやかん合同会社,,合同会社,東京都,江戸川区,上篠崎４丁目２８番１１号,,13,123,1330054,,,,,,,2024-10-18,1,,,,,アヤカン,0
79,1011801045000,新規,0,2024-10-18,2024-10-18,株式会社トモニ商会,,株式会社,東京都,葛飾区,西新小岩１丁目３番４号,,13,122,1240025,,,,,,,2024-10-18,1,,,,,トモニショウカイ,0
80,1011801045009,新規,0,2024-10-18,2024-10-18,株式会社Ｃｏｎｎｅｃｔ　Ｄｅｓｉｇｎ,,株式会社,東京都,足立区,六町２丁目６番３３号,,13,121,1210073,,,,,,,2024-10-18,1,,,,,コネクトデザイン,0
82,1012301014115,新規,0,2024-10-18,2024-10-18,美沙商事株式会社,,株式会社,東京都,町田市,木曽西５丁目２８番２０号シェリーハイツ２０５,,13,209,1940037,,,,,,,2024-10-18,1,,,,,ミサショウジ,0
83,1012403006803,新規,0,2024-10-18,2024-10-18,フランクユニ合同会社,,合同会社,東京都,府中市,多磨町２丁目５番地の６６,,13,206,1830002,,,,,,,2024-10-18,1,,,,,フランクユニ,0
90,1013301053243,新規,0,2024-10-18,2024-10-18,ウェルビーホールディングス株式会社,,株式会社,東京都,豊島区,南池袋２丁目４７番２号,,13,116,1710022,,,,,,,2024-10-18,1,,,,,ウェルビーホールディングス,0
92,1013303007346,新規,0,2024-10-18,2024-10-18,合同会社グリーンハートトラスト,,合同会社,東京都,豊島区,西巣鴨１丁目２７番８－２０１号,,13,116,1700001,,,,,,,2024-10-18,1,,,,,グリーンハートトラスト,0
103,1020001159618,新規,0,2024-10-18,2024-10-18,株式会社みかん企画,,株式会社,神奈川県,横浜市港北区,高田西５丁目４０番５号,,14,109,2230066,,,,,,,2024-10-18,1,,,,,ミカンキカク,0
104,1020001159766,新規,0,2024-10-18,2024-10-18,株式会社ＮｉｎｅＦｏｌｄ,,株式会社,神奈川県,川崎市川崎区,南町１５－３日神パレステージ川崎Ｂ１－１０２,,14,131,2100015,,,,,,,2024-10-18,1,,,,,ナインフォルド,0
107,1020003027070,新規,0,2024-10-18,2024-10-18,合同会社猿渡,,合同会社,神奈川県,横浜市青葉区,藤が丘２丁目１番地３－７２２号,,14,117,2270043,,,,,,,2024-10-18,1,,,,,サルワタリ,0
113,1021001083535,新規,0,2024-10-18,2024-10-18,株式会社ＡＲＡＩ,,株式会社,神奈川県,厚木市,山際４２８番地１２,,14,212,2430803,,,,,,,2024-10-18,1,,,,,アライ,0
129,1030001163016,新規,0,2024-10-18,2024-10-18,株式会社沖融,,株式会社,埼玉県,さいたま市南区,辻２丁目１９番９号,00136677,11,108,3360026,,,,,,,2024-10-18,1,,,,,チュウユウ,0
130,1030001163040,新規,0,2024-10-18,2024-10-18,株式会社農業とみどり研究所,,株式会社,埼玉県,ふじみ野市,大原１丁目５番１号フラワーハイツ１０６号室,,11,245,3560003,,,,,,,2024-10-18,1,,,,,ノウギョウトミドリケンキュウジョ,0
134,1030003025338,新規,0,2024-10-18,2024-10-18,合同会社ネクストエッジ・コンサルティング,,合同会社,埼玉県,吉川市,美南２丁目１８－９－２０１,,11,243,3420038,,,,,,,2024-10-18,1,,,,,ネクストエッジコンサルティング,0
138,1040001135864,新規,0,2024-10-18,2024-10-18,株式会社ＳｙｎｃＰｒｏ,,株式会社,千葉県,我孫子市,栄２７－２４,,12,222,2701141,,,,,,,2024-10-18,1,,,,,シンクプロ,0
150,1070001042281,新規,0,2024-10-18,2024-10-18,株式会社庭巧,,株式会社,群馬県,太田市,新田反町町７２４番地３,,10,205,3700313,,,,,,,2024-10-18,1,,,,,テイコウ,0
172,1120001269407,新規,0,2024-10-18,2024-10-18,ミャンカラエージェンシー株式会社,,株式会社,大阪府,大阪市平野区,加美正覚寺２丁目５番２６号,,27,126,5470006,,,,,,,2024-10-18,1,,,,,ミャンカラエージェンシー,0
173,1120001269415,新規,0,2024-10-18,2024-10-18,株式会社シーディーシー,,株式会社,大阪府,大阪市中央区,久太郎町２丁目３－８ハイム船場４０４,,27,128,5410056,,,,,,,2024-10-18,1,,,,,シーディーシー,0
174,1120001269431,新規,0,2024-10-18,2024-10-18,株式会社ガルニティ,,株式会社,大阪府,大阪市西区,南堀江１丁目１８番４号ＯｓａｋａＭｅｔｒｏ南堀江ビル２Ｆ,,27,106,5500015,,,,,,,2024-10-18,1,,,,,ガルニティ,0
175,1120001269456,新規,0,2024-10-18,2024-10-18,株式会社そうや,,株式会社,大阪府,大阪市天王寺区,上本町６丁目７番１２号１Ｆ,,27,109,5430001,,,,,,,2024-10-18,1,,,,,ソウヤ,0
176,1120001269464,新規,0,2024-10-18,2024-10-18,株式会社司,,株式会社,大阪府,大阪市城東区,東中浜９丁目４番２７号,,27,118,5360023,,,,,,,2024-10-18,1,,,,,ツカサ,0
177,1120001269497,新規,0,2024-10-18,2024-10-18,ＰｈａＲｅ株式会社,,株式会社,大阪府,大阪市西区,京町堀１丁目１２番２４号ＯＨＭＩＬＬＳ京町堀７０１,,27,106,5500003,,,,,,,2024-10-18,1,,,,,ファーレ,0
186,1120901049916,新規,0,2024-10-18,2024-10-18,ステュークスラボ株式会社,,株式会社,大阪府,吹田市,岸部新町６番１号国立循環器病研究センター,,27,205,5640018,,,,,,,2024-10-18,1,,,,,ステュークスラボ,0
187,1120901049924,新規,0,2024-10-18,2024-10-18,株式会社アイエスティー,,株式会社,大阪府,箕面市,西小路３丁目２番１２号,,27,220,5620003,,,,,,,2024-10-18,1,,,,,アイエスティー,0
189,1120903005388,新規,0,2024-10-18,2024-10-18,合同会社一富士,,合同会社,大阪府,高槻市,松が丘２丁目５番２５号パインヒルズ高槻１０３号室,,27,207,5691031,,,,,,,2024-10-18,1,,,,,イチフジ,0
190,1122001038551,新規,0,2024-10-18,2024-10-18,大唐株式会社,,株式会社,大阪府,東大阪市,若江西新町４丁目６番１０－２０１号,,27,227,5780944,,,,,,,2024-10-18,1,,,,,ダイトウ,0
196,1130003009941,新規,0,2024-10-18,2024-10-18,合同会社サンアーツミュージックオフィス,,合同会社,京都府,京都市下京区,松原通烏丸東入因幡堂町６８６番地,,26,106,6008415,,,,,,,2024-10-18,1,,,,,サンアーツミュージックオフィス,0
203,1140001136126,新規,0,2024-10-18,2024-10-18,株式会社ｌｅ　Ｃｈａｉｎｏｎ,,株式会社,兵庫県,西宮市,豊楽町４番４号アクシス北夙川３０１号室,,28,204,6620072,,,,,,,2024-10-18,1,,,,,ルシェノン,0
208,1160005011356,新規,0,2024-10-18,2024-10-18,一般社団法人ＯＯＫＩＮＡＫＩ,,その他の設立登記法人,滋賀県,長浜市,常喜町６２６番地,,25,203,5260823,,,,,,,2024-10-18,1,,,,,オオキナキ,0
214,1180003027377,新規,0,2024-10-18,2024-10-18,ｔｏｗａｉｅ．ａｒｃｈｉｔｅｃｔｓ合同会社,,合同会社,愛知県,名古屋市緑区,大清水２丁目２０１ライオンズマンション鳴海東第二４０２号,,23,114,4580805,,,,,,,2024-10-18,1,,,,,トワイエドットアーキテクツ,0
215,1180003027484,新規,0,2024-10-18,2024-10-18,合同会社ビューティフル・タイム,,合同会社,愛知県,瀬戸市,中水野町１丁目１８９番地の２,,23,204,4890005,,,,,,,2024-10-18,1,,,,,ビューティフルタイム,0
226,1230001020576,新規,0,2024-10-18,2024-10-18,株式会社サイバーコネクト,,株式会社,富山県,滑川市,下梅沢１８４番地１７,,16,206,9360857,,,,,,,2024-10-18,1,,,,,サイバーコネクト,0
238,1270001009070,新規,0,2024-10-18,2024-10-18,株式会社Ｔｋホールディングス,,株式会社,鳥取県,八頭郡八頭町,南３７９番地８,,31,329,6800604,,,,,,,2024-10-18,1,,,,,ティーケーホールディングス,0
245,1290001107533,新規,0,2024-10-18,2024-10-18,株式会社アセットブルーム,,株式会社,福岡県,小郡市,希みが丘３丁目２番地４８,,40,216,8380107,,,,,,,2024-10-18,1,,,,,アセットブルーム,0
246,1290001107698,新規,0,2024-10-18,2024-10-18,株式会社ＧＭ製作所,,株式会社,福岡県,嘉麻市,西郷１００番地１,,40,227,8200505,,,,,,,2024-10-18,1,,,,,ジーエムセイサクショ,0
248,1290003015924,新規,0,2024-10-18,2024-10-18,ＲＩＮＣＨＵＮ合同会社,,合同会社,福岡県,福岡市博多区,博多駅南３丁目１５番３０－４０８,,40,132,8120016,,,,,,,2024-10-18,1,,,,,リンチュン,0
249,1290003015957,新規,0,2024-10-18,2024-10-18,九龍合同会社,,合同会社,福岡県,福岡市南区,弥永１丁目１０番２号,,40,134,8111323,,,,,,,2024-10-18,1,,,,,クーロン,0
250,1290801030975,新規,0,2024-10-18,2024-10-18,株式会社Ｖｉｖａｎ,,株式会社,福岡県,北九州市八幡西区,西鳴水２丁目７番１８号,,40,109,8060054,,,,,,,2024-10-18,1,,,,,ヴィヴァン,0
259,1310001019271,新規,0,2024-10-18,2024-10-18,株式会社植松,,株式会社,長崎県,佐世保市,早苗町４６４－１ＫＥＮ早苗１０１,,42,202,8593211,,,,,,,2024-10-18,1,,,,,ウエマツ,0
265,1330003010598,新規,0,2024-10-18,2024-10-18,合同会社八芳園パートナーズ,,合同会社,熊本県,玉名市,立願寺６２７番地,,43,206,8650061,,,,,,,2024-10-18,1,,,,,ハッポウエンパートナーズ,0
266,1330003010607,新規,0,2024-10-18,2024-10-18,ｍｉｃｉｏ合同会社,,合同会社,熊本県,熊本市西区,池田２丁目１７番２５－３号,,43,103,8600082,,,,,,,2024-10-18,1,,,,,ミーチョ,0
272,1350001019235,新規,0,2024-10-18,2024-10-18,株式会社桑山工業,,株式会社,宮崎県,日向市,大字財光寺９４１番地１,,45,206,8830021,,,,,,,2024-10-18,1,,,,,クワヤマコウギョウ,0
280,1390001017771,新規,0,2024-10-18,2024-10-18,株式会社今田電化サービス,,株式会社,山形県,天童市,大字原町乙１８８番地,,06,210,9940055,,,,,,,2024-10-18,1,,,,,コンタデンカサービス,0
286,1430001092876,新規,0,2024-10-18,2024-10-18,ドリームプロダクションジャパン株式会社,,株式会社,北海道,小樽市,新光４丁目１番２号,,01,203,0470152,,,,,,,2024-10-18,1,,,,,ドリームプロダクションジャパン,0
289,1470001020429,新規,0,2024-10-18,2024-10-18,株式会社ユメ,,株式会社,香川県,高松市,田町１４番地１,,37,201,7600053,,,,,,,2024-10-18,1,,,,,ユメ,0
291,1470003002739,新規,0,2024-10-18,2024-10-18,合同会社ケアプランセンターあや,,合同会社,香川県,綾歌郡綾川町,山田上乙５２番地１３,,37,387,7612203,,,,,,,2024-10-18,1,,,,,ケアプランセンターアヤ,0
292,1470005006589,新規,0,2024-10-18,2024-10-18,一般社団法人フラッグ,,その他の設立登記法人,香川県,高松市,国分寺町新居２２７０番地１,,37,201,7690101,,,,,,,2024-10-18,1,,,,,フラッグ,0
297,1500001025944,新規,0,2024-10-18,2024-10-18,株式会社未来光,,株式会社,愛媛県,松山市,井門町１９１番地１,,38,201,7911114,,,,,,,2024-10-18,1,,,,,ミライコウ,0
302,1700150127562,新規,0,2024-10-18,2024-10-18,Ｎｏｍｉｎａ　Ｎｏ　６０９　ＬＬＰ,,外国会社等,,,,,,,,Ｏｎｅ　Ｌｉｍｅ　Ｓｔｒｅｅｔ，Ｌｏｎｄｏｎ　ＥＣ３Ｍ　７ＨＡ　ＵＫ,,,,,,2024-10-18,1,,,,,ノミナナンバーシツクスゼロナインエルエルピー,0
303,1700150127570,新規,0,2024-10-18,2024-10-18,Ｈｅｌｉｏｓ　ＬＬＶ　Ｔｈｒｅｅ　Ｌｉｍｉｔｅｄ,,外国会社等,,,,,,,,Ｏｎｅ　Ｌｉｍｅ　Ｓｔｒｅｅｔ，Ｌｏｎｄｏｎ　ＥＣ３Ｍ　７ＨＡ　ＵＫ,,,,,,2024-10-18,1,,,,,ヘリオスエルエルブイスリーリミテツド,0
317,2010001249030,新規,0,2024-10-18,2024-10-18,銀座オートサービス株式会社,,株式会社,東京都,中央区,銀座６丁目６番１号,,13,102,1040061,,,,,,,2024-10-18,1,,,,,ギンザオートサービス,0
318,2010001249162,新規,0,2024-10-18,2024-10-18,はるひかる株式会社,,株式会社,東京都,中央区,佃２丁目９－１－１４０２,,13,102,1040051,,,,,,,2024-10-18,1,,,,,ハルヒカル,0
319,2010001249170,新規,0,2024-10-18,2024-10-18,株式会社ＢＣＮホールディングス,,株式会社,東京都,千代田区,丸の内２丁目４番１号,,13,101,1000005,,,,,,,2024-10-18,1,,,,,ビーシーエヌホールディングス,0
322,2010003045205,新規,0,2024-10-18,2024-10-18,ＮＢジャパン・アセンダント・クロスオーバー株式ファンド１号合同会社,,合同会社,東京都,千代田区,丸の内１丁目５番１号,,13,101,1000005,,,,,,,2024-10-18,1,,,,,エヌビージャパンアセンダントクロスオーバーカブシキファンドイチゴウ,0
323,2010003045213,新規,0,2024-10-18,2024-10-18,リリーヒルズコンサルティング合同会社,,合同会社,東京都,中央区,銀座１丁目２２番１１号銀座大竹ビジデンス２Ｆ,,13,102,1040061,,,,,,,2024-10-18,1,,,,,,0
324,2010003045221,新規,0,2024-10-18,2024-10-18,Ｆｏｏｄ　Ｃｌｏｕｄ合同会社,,合同会社,東京都,千代田区,神田佐久間町２丁目１８番地１秋葉原ＳＴＮフロント１０階,,13,101,1010025,,,,,,,2024-10-18,1,,,,,フードクラウド,0
329,2010101016371,新規,0,2024-10-18,2024-10-18,株式会社ＶＥＴＯＲＯＭＩＬＬＹ,,株式会社,東京都,八王子市,明神町２丁目２番８号八王子スカイマンション１０２－８号室,,13,201,1920046,,,,,,,2024-10-18,1,,,,,ヴェトロミリー,0
336,2010401185528,新規,0,2024-10-18,2024-10-18,株式会社葵,,株式会社,東京都,港区,南青山２丁目２番１５号,,13,103,1070062,,,,,,,2024-10-18,1,,,,,アオイ,0
337,2010401185775,新規,0,2024-10-18,2024-10-18,Ｌｅａｄｓ株式会社,,株式会社,東京都,港区,芝浦１丁目８番３－１１０８号,,13,103,1050023,,,,,,,2024-10-18,1,,,,,リーズ,0
338,2010401185791,新規,0,2024-10-18,2024-10-18,株式会社ＹＳＮ,,株式会社,東京都,港区,北青山３丁目５番１４号６階,,13,103,1070061,,,,,,,2024-10-18,1,,,,,ワイエスエヌ,0
339,2010401185800,新規,0,2024-10-18,2024-10-18,株式会社ワイズ,,株式会社,東京都,港区,西麻布３丁目２０番１６号,,13,103,1060031,,,,,,,2024-10-18,1,,,,,ワイズ,0
340,2010401185825,新規,0,2024-10-18,2024-10-18,株式会社ＮＥＷ　ＳＱＵＡＲＥホールディングス,,株式会社,東京都,港区,芝３丁目１７番１０号高波マンション２０２,,13,103,1050014,,,,,,,2024-10-18,1,,,,,ニュースクエアホールディングス,0
341,2010401185841,新規,0,2024-10-18,2024-10-18,Ｒｈｙｔｈｍ　Ｐｈａｒｍａｃｅｕｔｉｃａｌｓ　Ｊａｐａｎ株式会社,,株式会社,東京都,港区,六本木６丁目１０番１号六本木ヒルズ森タワー２３階,,13,103,1060032,,,,,,,2024-10-18,1,,,,,リズムファーマシューティカルズジャパン,0
345,2010403033627,新規,0,2024-10-18,2024-10-18,合同会社ＧＡＬＡＸＹ,,合同会社,東京都,港区,六本木６丁目１－２０六本木電気ビル６０８,,13,103,1060032,,,,,,,2024-10-18,1,,,,,ギャラクシー,0
346,2010403033635,新規,0,2024-10-18,2024-10-18,合同会社ＴＳＭ１６６,,合同会社,東京都,港区,元赤坂１丁目１番７号,,13,103,1070051,,,,,,,2024-10-18,1,,,,,ティーエスエムヒャクロクジュウロク,0
355,2010603011151,新規,0,2024-10-18,2024-10-18,ＡＲＲＵＤＥＭＯ合同会社,,合同会社,東京都,江東区,扇橋３丁目４－２コーピアス扇橋１Ｆ,,13,108,1350011,,,,,,,2024-10-18,1,,,,,アルデモ,0
359,2010803005135,新規,0,2024-10-18,2024-10-18,オフィスアベツマ合同会社,,合同会社,東京都,大田区,東六郷１丁目１１－２２－５０１号,,13,111,1440046,,,,,,,2024-10-18,1,,,,,オフィスアベツマ,0
365,2011001165250,新規,0,2024-10-18,2024-10-18,株式会社ＮＥＸＵＳ,,株式会社,東京都,渋谷区,本町３丁目３７－２石川ビル２０２,,13,113,1510071,,,,,,,2024-10-18,1,,,,,ネクサス,0
366,2011001165283,新規,0,2024-10-18,2024-10-18,株式会社ＨＲＦアセット,,株式会社,東京都,渋谷区,東３丁目２４番９号サンイーストビル８０２,,13,113,1500011,,,,,,,2024-10-18,1,,,,,エイチアールエフアセット,0
367,2011001165309,新規,0,2024-10-18,2024-10-18,株式会社ＯＮＥ　ＣＬＵＢ,,株式会社,東京都,目黒区,東山３丁目７番１１号,,13,110,1530043,,,,,,,2024-10-18,1,,,,,ワンクラブ,0
368,2011003020172,新規,0,2024-10-18,2024-10-18,合同会社ＤａｙＯｎｅ,,合同会社,東京都,目黒区,下目黒１丁目１番１４号コノトラビル７Ｆ,,13,110,1530064,,,,,,,2024-10-18,1,,,,,デイワン,0
369,2011003020197,新規,0,2024-10-18,2024-10-18,合同会社もりやま,,合同会社,東京都,渋谷区,渋谷３丁目７番３号第１野口ビル４０１号室,,13,113,1500002,,,,,,,2024-10-18,1,,,,,,0
370,2011003020206,新規,0,2024-10-18,2024-10-18,ＭＴＫ合同会社,,合同会社,東京都,渋谷区,渋谷２丁目１９－１５宮益坂ビルディング６０９,,13,113,1500002,,,,,,,2024-10-18,1,,,,,エムティーケー,0
377,2011101109165,新規,0,2024-10-18,2024-10-18,株式会社ｒｅｐｌａｃｅ,,株式会社,東京都,新宿区,新宿２丁目２番４号,,13,104,1600022,,,,,,,2024-10-18,1,,,,,リプレイス,0
378,2011101109181,新規,0,2024-10-18,2024-10-18,榎本不動産株式会社,,株式会社,東京都,新宿区,下落合３丁目１５番３４号,,13,104,1610033,,,,,,,2024-10-18,1,,,,,エノモトフドウサン,0
379,2011101109207,新規,0,2024-10-18,2024-10-18,株式会社プロフェッショナルビズ,,株式会社,東京都,新宿区,西新宿３丁目３番１３号西新宿水間ビル６階,,13,104,1600023,,,,,,,2024-10-18,1,,,,,プロフェッショナルビズ,0
380,2011103015064,新規,0,2024-10-18,2024-10-18,あずあず合同会社,,合同会社,東京都,新宿区,新宿７丁目１２番１号新宿平和ビル１階,,13,104,1600022,,,,,,,2024-10-18,1,,,,,アズアズ,0
381,2011103015080,新規,0,2024-10-18,2024-10-18,合同会社南座,,合同会社,東京都,新宿区,西新宿３丁目３番１３号西新宿水間ビル６階,,13,104,1600023,,,,,,,2024-10-18,1,,,,,ミナミザ,0
385,2011401026473,新規,0,2024-10-18,2024-10-18,豊巣インターナショナル株式会社,,株式会社,東京都,板橋区,大山東町３２－１８ルイ・ステージ大山５０２,,13,119,1730014,,,,,,,2024-10-18,1,,,,,ホウスインターナショナル,0
386,2011401026515,新規,0,2024-10-18,2024-10-18,昌亨株式会社,,株式会社,東京都,板橋区,栄町１８番７－４０２号,,13,119,1730015,,,,,,,2024-10-18,1,,,,,ショウコウ,0
387,2011503006266,新規,0,2024-10-18,2024-10-18,北真産業合同会社,,合同会社,東京都,荒川区,荒川２丁目２５－１１,,13,118,1160002,,,,,,,2024-10-18,1,,,,,ホクシンサンギョウ,0
390,2011701027733,新規,0,2024-10-18,2024-10-18,株式会社ｑｕｅｔｅ,,株式会社,東京都,江戸川区,春江町３丁目９番５号,,13,123,1320003,,,,,,,2024-10-18,1,,,,,ケット,0
393,2011801045008,新規,0,2024-10-18,2024-10-18,コセイファクトリー株式会社,,株式会社,東京都,足立区,谷在家３丁目１４－３,,13,121,1230863,,,,,,,2024-10-18,1,,,,,コセイファクトリー,0
397,2012303002067,新規,0,2024-10-18,2024-10-18,ＬＭ合同会社,,合同会社,東京都,町田市,玉川学園７丁目２７－１１,,13,209,1940041,,,,,,,2024-10-18,1,,,,,エルエム,0
401,2012803003531,新規,0,2024-10-18,2024-10-18,ＡＯ　ＦＯＯＤＳ合同会社,,合同会社,東京都,日野市,大字日野１０４０番地の９,,13,212,1910012,,,,,,,2024-10-18,1,,,,,エーオーフーズ,0
405,2013303007345,新規,0,2024-10-18,2024-10-18,合同会社アートフュージョン,,合同会社,東京都,豊島区,池袋３丁目２８－２２－１０１,,13,116,1710014,,,,,,,2024-10-18,1,,,,,アートフュージョン,0
412,2020001159641,新規,0,2024-10-18,2024-10-18,株式会社ＥＩＧＨ‐ＴＥＸ,,株式会社,神奈川県,川崎市川崎区,四谷上町６番２４－１号,,14,131,2100828,,,,,,,2024-10-18,1,,,,,エイテックス,0
415,2020003027053,新規,0,2024-10-18,2024-10-18,ＳＴＥＰＳ合同会社,,合同会社,神奈川県,川崎市川崎区,駅前本町１１－２川崎フロンティアビル４Ｆ,,14,131,2100007,,,,,,,2024-10-18,1,,,,,ステップス,0
416,2020003027061,新規,0,2024-10-18,2024-10-18,合同会社未来技術,,合同会社,神奈川県,川崎市高津区,下作延６丁目８番１３号,,14,134,2130033,,,,,,,2024-10-18,1,,,,,ミライギジュツ,0
425,2030001162925,新規,0,2024-10-18,2024-10-18,株式会社久保田Ｐ＆Ｒ,,株式会社,埼玉県,所沢市,大字荒幡５３５番地の６,,11,208,3591133,,,,,,,2024-10-18,1,,,,,クボタピーアンドアール,0
426,2030001162982,新規,0,2024-10-18,2024-10-18,株式会社ＫＯＭ’ｓ,,株式会社,埼玉県,朝霞市,本町２丁目４番３４－４０１号,,11,227,3510011,,,,,,,2024-10-18,1,,,,,コムズ,0
427,2030001163023,新規,0,2024-10-18,2024-10-18,株式会社日本不動産相続相談センター,,株式会社,埼玉県,越谷市,大沢３丁目１９番８号,,11,222,3430025,,,,,,,2024-10-18,1,,,,,ニホンフドウサンソウゾクソウダンセンター,0
429,2030003025329,新規,0,2024-10-18,2024-10-18,合同会社サクラ,,合同会社,埼玉県,深谷市,常盤町８８番地３,,11,218,3660034,,,,,,,2024-10-18,1,,,,,サクラ,0
436,2040003026012,新規,0,2024-10-18,2024-10-18,０８Ｌｏｖｅ　Ｅｉｇｈｔ　ＬＬＣ合同会社,,合同会社,千葉県,長生郡白子町,剃金２７２９番地６ダイアパレス白子第２－５０２号室,,12,424,2994203,,,,,,,2024-10-18,1,,,,,ラブエイトラブエイトエルエルシー,0
452,2080101025069,新規,0,2024-10-18,2024-10-18,株式会社ＭＡＳＫＯＵ　ＪＡＰＡＮ,,株式会社,静岡県,伊東市,宇佐美３６２９番地２伊豆ビューグランドハイツ２号棟８５１,,22,208,4140001,,,,,,,2024-10-18,1,,,,,マスコージャパン,0
453,2080103003163,新規,0,2024-10-18,2024-10-18,合同会社Ｐｌａｙ　Ｇｒｏｕｎｄ,,合同会社,静岡県,御殿場市,萩原１４６番地の１,,22,215,4120042,,,,,,,2024-10-18,1,,,,,プレイグラウンド,0
455,2080401027517,新規,0,2024-10-18,2024-10-18,株式会社ＥＢＩＳＵ,,株式会社,静岡県,浜松市浜名区,尾野４５４番地,,22,139,4340002,,,,,,,2024-10-18,1,,,,,エビス,0
469,2120001269380,新規,0,2024-10-18,2024-10-18,Ａｃｅ株式会社,,株式会社,大阪府,大阪市北区,西天満４丁目１１－８－８０１,,27,127,5300047,,,,,,,2024-10-18,1,,,,,エース,0
470,2120001269439,新規,0,2024-10-18,2024-10-18,万宝商事株式会社,,株式会社,大阪府,大阪市生野区,中川東１丁目４番２４号,,27,116,5440006,,,,,,,2024-10-18,1,,,,,マンポウショウジ,0
471,2120001269447,新規,0,2024-10-18,2024-10-18,Ｉ・Ｓ・Ｏ株式会社,,株式会社,大阪府,大阪市北区,西天満４丁目６番２２号,,27,127,5300047,,,,,,,2024-10-18,1,,,,,アイエスオー,0
472,2120001269455,新規,0,2024-10-18,2024-10-18,ヴェルジェ株式会社,,株式会社,大阪府,門真市,新橋町１３番１５号,,27,223,5710048,,,,,,,2024-10-18,1,,,,,ヴェルジェ,0
473,2120001269471,新規,0,2024-10-18,2024-10-18,株式会社ＯＴＮ,,株式会社,大阪府,大阪市平野区,瓜破西３丁目２番２６号,,27,126,5470025,,,,,,,2024-10-18,1,,,,,オーティーエヌ,0
474,2120001269488,新規,0,2024-10-18,2024-10-18,株式会社トラスト,,株式会社,大阪府,大阪市住吉区,山之内４丁目５－２６イセハイツ２０３号,,27,120,5580023,,,,,,,2024-10-18,1,,,,,トラスト,0
475,2120001269496,新規,0,2024-10-18,2024-10-18,株式会社三樹メンテナンス,,株式会社,大阪府,大阪市大正区,三軒家東１丁目１７番２６号,,27,108,5510002,,,,,,,2024-10-18,1,,,,,サンジュメンテナンス,0
482,2120901049923,新規,0,2024-10-18,2024-10-18,株式会社Ｂ‐Ｔｈｒｅｅｅ,,株式会社,大阪府,箕面市,西小路３丁目２番１２号,,27,220,5620003,,,,,,,2024-10-18,1,,,,,ビースリー,0
483,2120903005387,新規,0,2024-10-18,2024-10-18,合同会社いちよん,,合同会社,大阪府,吹田市,豊津町１６番１９号,,27,205,5640051,,,,,,,2024-10-18,1,,,,,イチヨン,0
484,2122001038550,新規,0,2024-10-18,2024-10-18,株式会社ＣＯＣＯ,,株式会社,大阪府,東大阪市,善根寺町４丁目２番３２号,,27,227,5798001,,,,,,,2024-10-18,1,,,,,ココ,0
488,2130001078145,新規,0,2024-10-18,2024-10-18,株式会社ＨＩＳＡＳＨＩ,,株式会社,京都府,京都市下京区,朱雀正会町１－１京果会館２０６室,,26,106,6008841,,,,,,,2024-10-18,1,,,,,ヒサシ,0
489,2130001078153,新規,0,2024-10-18,2024-10-18,株式会社天穏,,株式会社,京都府,京都市伏見区,小栗栖森ケ淵町２番地１メイツ醍醐デュアラ５１６,,26,109,6011445,,,,,,,2024-10-18,1,,,,,テンオン,0
498,2140001136059,新規,0,2024-10-18,2024-10-18,株式会社ハスダイジャパン,,株式会社,兵庫県,神戸市灘区,永手町５丁目２番２４－２０２号,,28,102,6570027,,,,,,,2024-10-18,1,,,,,ハスダイジャパン,0
499,2140001136109,新規,0,2024-10-18,2024-10-18,株式会社山口建設,,株式会社,兵庫県,丹波市,氷上町北油良５４８番地１,,28,223,6693653,,,,,,,2024-10-18,1,,,,,ヤマグチケンセツ,0
500,2140001136141,新規,0,2024-10-18,2024-10-18,株式会社井口,,株式会社,兵庫県,神戸市須磨区,小寺町１丁目１番３３号,,28,107,6540042,,,,,,,2024-10-18,1,,,,,イグチ,0
501,2140001136190,新規,0,2024-10-18,2024-10-18,株式会社新神戸ライフデザイン,,株式会社,兵庫県,神戸市中央区,宮本通５丁目６番４号,,28,110,6510063,,,,,,,2024-10-18,1,,,,,シンコウベライフデザイン,0
504,2150001027612,新規,0,2024-10-18,2024-10-18,株式会社Ｙｕ,,株式会社,奈良県,奈良市,青野町１丁目６番２３号,,29,201,6310841,,,,,,,2024-10-18,1,,,,,ユー,0
506,2160005011355,新規,0,2024-10-18,2024-10-18,一般社団法人えん,,その他の設立登記法人,滋賀県,東近江市,林町４１９番地２,,25,213,5211224,,,,,,,2024-10-18,1,,,,,エン,0
508,2170003002116,新規,0,2024-10-18,2024-10-18,合同会社ｔｏ’ＩＲＯ,,合同会社,和歌山県,紀の川市,古和田２０５番地１,,30,208,6496432,,,,,,,2024-10-18,1,,,,,トイロ,0
513,2180001163660,新規,0,2024-10-18,2024-10-18,株式会社溢,,株式会社,愛知県,名古屋市中区,錦３丁目１３番２１号５１０錦ビル７階,,23,106,4600003,,,,,,,2024-10-18,1,,,,,イチ,0
514,2180001163677,新規,0,2024-10-18,2024-10-18,株式会社東洋,,株式会社,愛知県,名古屋市中川区,中野本町２丁目５７番地,,23,110,4540047,,,,,,,2024-10-18,1,,,,,トウヨウ,0
519,2180005020809,新規,0,2024-10-18,2024-10-18,一般社団法人わたしが生きたあかし,,その他の設立登記法人,愛知県,名古屋市名東区,社が丘２丁目１００１－３,,23,115,4650051,,,,,,,2024-10-18,1,,,,,ワタシガイキタアカシ,0
527,2220001026276,新規,0,2024-10-18,2024-10-18,株式会社ＲＥＬＡＮ,,株式会社,石川県,金沢市,此花町５番６号ライフ金沢第１ビル６０１Ａ,,17,201,9200852,,,,,,,2024-10-18,1,,,,,リラン,0
531,2230001020567,新規,0,2024-10-18,2024-10-18,株式会社おしごとください,,株式会社,富山県,富山市,五福３３８６番地,,16,201,9300887,,,,,,,2024-10-18,1,,,,,オシゴトクダサイ,0
542,2260001039555,新規,0,2024-10-18,2024-10-18,株式会社中島インターナショナル,,株式会社,岡山県,岡山市北区,津島中３丁目６番３号３０２,,33,101,7000082,,,,,,,2024-10-18,1,,,,,ナカシマインターナショナル,0
547,2280001009275,新規,0,2024-10-18,2024-10-18,林代貿易株式会社,,株式会社,島根県,松江市,学園２丁目２８番８号,,32,201,6900825,,,,,,,2024-10-18,1,,,,,リンダイボウエキ,0
561,2290001107598,新規,0,2024-10-18,2024-10-18,株式会社克製麺,,株式会社,福岡県,福岡市博多区,中洲３丁目３－１０第二多門ビル一階Ａ,,40,132,8100801,,,,,,,2024-10-18,1,,,,,マサルセイメン,0
562,2290001107648,新規,0,2024-10-18,2024-10-18,株式会社ＬＯＷＥＮ　ＦＵＫＵＯＫＡ,,株式会社,福岡県,春日市,星見ヶ丘５丁目１４番地,,40,218,8160849,,,,,,,2024-10-18,1,,,,,ローエンフクオカ,0
563,2290001107664,新規,0,2024-10-18,2024-10-18,一橋株式会社,,株式会社,福岡県,福岡市東区,千早２丁目４３番２号エクセル千早１０５号室,,40,131,8130044,,,,,,,2024-10-18,1,,,,,,0
567,2290803004860,新規,0,2024-10-18,2024-10-18,合同会社里,,合同会社,福岡県,北九州市小倉南区,長行東２丁目８番１２号,,40,107,8030273,,,,,,,2024-10-18,1,,,,,サト,0
568,2310001019270,新規,0,2024-10-18,2024-10-18,株式会社ＡＬＢＡ,,株式会社,長崎県,長崎市,江戸町４番３号円口ビル７階,,42,201,8500861,,,,,,,2024-10-18,1,,,,,アルバ,0
583,2430001092875,新規,0,2024-10-18,2024-10-18,株式会社ＨＩＴ　ＭＡＴＥ,,株式会社,北海道,札幌市中央区,南一条西７丁目１番地１,,01,101,0600061,,,,,,,2024-10-18,1,,,,,ヒットマイト,0
587,2470003002738,新規,0,2024-10-18,2024-10-18,合同会社Ｅｔｅｒｎａｌ,,合同会社,香川県,高松市,牟礼町牟礼１２３６番地１エルディム六万寺１０１,,37,201,7610121,,,,,,,2024-10-18,1,,,,,エターナル,0
588,2490001010889,新規,0,2024-10-18,2024-10-18,株式会社しきか,,株式会社,高知県,高知市,大津乙１２９番地１２,,39,201,7815103,,,,,,,2024-10-18,1,,,,,,0
599,2700150127561,新規,0,2024-10-18,2024-10-18,Ｈｅｌｉｏｓ　ＬＬＶ　Ｆｏｕｒ　Ｌｉｍｉｔｅｄ,,外国会社等,,,,,,,,Ｏｎｅ　Ｌｉｍｅ　Ｓｔｒｅｅｔ，Ｌｏｎｄｏｎ　ＥＣ３Ｍ　７ＨＡ　ＵＫ,,,,,,2024-10-18,1,,,,,ヘリオスエルエルブイフオーリミテツド,0
606,3010001249070,新規,0,2024-10-18,2024-10-18,株式会社未来,,株式会社,東京都,中央区,東日本橋２丁目１６番７号,,13,102,1030004,,,,,,,2024-10-18,1,,,,,ミライ,0
607,3010001249087,新規,0,2024-10-18,2024-10-18,株式会社ＮｅＸＴ,,株式会社,東京都,千代田区,神田錦町３丁目１９番地,,13,101,1010054,,,,,,,2024-10-18,1,,,,,ネクスト,0
608,3010001249104,新規,0,2024-10-18,2024-10-18,株式会社リンセ,,株式会社,東京都,中央区,日本橋本町３丁目３番６号ワカ末ビル４階,,13,102,1030023,,,,,,,2024-10-18,1,,,,,リンセ,0
609,3010001249120,新規,0,2024-10-18,2024-10-18,トライデントホールディングス株式会社,,株式会社,東京都,千代田区,二番町九丁目３番ＴＨＥＢＡＳＥ麹町１階,,13,101,1020084,,,,,,,2024-10-18,1,,,,,トライデントホールディングス,0
610,3010001249137,新規,0,2024-10-18,2024-10-18,株式会社Ｃｒｏｃｕｔａ,,株式会社,東京都,中央区,日本橋大伝馬町２番１号,,13,102,1030011,,,,,,,2024-10-18,1,,,,,クロクタ,0
611,3010001249153,新規,0,2024-10-18,2024-10-18,日本新冶製薬科研株式会社,,株式会社,東京都,文京区,千石４丁目１４番９号,,13,105,1120011,,,,,,,2024-10-18,1,,,,,ニホンシンヤセイヤクカケン,0
615,3010003045212,新規,0,2024-10-18,2024-10-18,合同会社サファイア,,合同会社,東京都,千代田区,二番町３番地麹町スクエア株式会社シリウス・アドバイザリー内,,13,101,1020084,,,,,,,2024-10-18,1,,,,,サファイア,0
616,3010003045237,新規,0,2024-10-18,2024-10-18,ショウケン合同会社,,合同会社,東京都,千代田区,神田佐久間町１丁目８番４号アルテール秋葉原７０８,,13,101,1010025,,,,,,,2024-10-18,1,,,,,ショウケン,0
617,3010101016370,新規,0,2024-10-18,2024-10-18,株式会社スカイ,,株式会社,東京都,八王子市,八日町３番１－１７１０号,,13,201,1920071,,,,,,,2024-10-18,1,,,,,スカイ,0
619,3010103002435,新規,0,2024-10-18,2024-10-18,合同会社ＲＳライトサン,,合同会社,東京都,八王子市,鑓水２丁目８１－４－７０６,,13,201,1920375,,,,,,,2024-10-18,1,,,,,アールエスライトサン,0
625,3010401185824,新規,0,2024-10-18,2024-10-18,株式会社イセノクニ,,株式会社,東京都,港区,南青山３丁目１８番２０号ワークス南青山７階,,13,103,1070062,,,,,,,2024-10-18,1,,,,,イセノクニ,0
626,3010401185832,新規,0,2024-10-18,2024-10-18,Ｌｏｒｅｓ　Ｅｎｔｅｒｐｒｉｓｅ株式会社,,株式会社,東京都,港区,北青山１丁目３番１号アールキューブ青山３Ｆ,,13,103,1070061,,,,,,,2024-10-18,1,,,,,ロアースエンタープライズ,0
627,3010401185840,新規,0,2024-10-18,2024-10-18,Ｓｔａｒ　Ｈｏｒｉｚｏｎ株式会社,,株式会社,東京都,港区,高輪２丁目１１番１４号,,13,103,1080074,,,,,,,2024-10-18,1,,,,,スターホライズン,0
632,3010403033618,新規,0,2024-10-18,2024-10-18,合同会社ＭＵＧＥＮ,,合同会社,東京都,港区,北青山１丁目３番１号アールキューブ青山３階,,13,103,1070061,,,,,,,2024-10-18,1,,,,,ムゲン,0
634,3010405023690,新規,0,2024-10-18,2024-10-18,一般社団法人真庭地域活性化基金,,その他の設立登記法人,東京都,港区,虎ノ門３丁目２２番１０－２０１号,,13,103,1050001,,,,,,,2024-10-18,1,,,,,マニワチイキカッセイカキキン,0
638,3010603011142,新規,0,2024-10-18,2024-10-18,合同会社エルサ,,合同会社,東京都,江東区,扇橋２丁目２３－４,,13,108,1350011,,,,,,,2024-10-18,1,,,,,エルサ,0
645,3010903009423,新規,0,2024-10-18,2024-10-18,合同会社ポンデッジ,,合同会社,東京都,世田谷区,池尻３丁目５番３２号,,13,112,1540001,,,,,,,2024-10-18,1,,,,,ポンデッジ,0
647,3011001165217,新規,0,2024-10-18,2024-10-18,株式会社Ｋｎｏｗｉｓ,,株式会社,東京都,渋谷区,神宮前６丁目２３番４号桑野ビル２階,,13,113,1500001,,,,,,,2024-10-18,1,,,,,ノウウィズ,0
648,3011001165266,新規,0,2024-10-18,2024-10-18,株式会社トップフォート,,株式会社,東京都,渋谷区,恵比寿西２丁目４番８号,,13,113,1500021,,,,,,,2024-10-18,1,,,,,トップフォート,0
649,3011001165308,新規,0,2024-10-18,2024-10-18,ＢｉｚＸ株式会社,,株式会社,東京都,渋谷区,恵比寿西２丁目４番８号ウィンド恵比寿ビル８Ｆ,,13,113,1500021,,,,,,,2024-10-18,1,,,,,ビズエックス,0
651,3011003020205,新規,0,2024-10-18,2024-10-18,合同会社ＫａｌＭｉａ,,合同会社,東京都,渋谷区,道玄坂１丁目１０番８号渋谷道玄坂東急ビル２Ｆ－Ｃ,,13,113,1500043,,,,,,,2024-10-18,1,,,,,カルミア,0
653,3011101109197,新規,0,2024-10-18,2024-10-18,株式会社Ｓｅｉｍｉｅ,,株式会社,東京都,新宿区,新宿２丁目１２番１３号,,13,104,1600022,,,,,,,2024-10-18,1,,,,,セイミイ,0
655,3011103015063,新規,0,2024-10-18,2024-10-18,合同会社Ｕｌｉｕｌｉ　Ｅａｒｔｈ,,合同会社,東京都,新宿区,北新宿１丁目１４－１,,13,104,1690074,,,,,,,2024-10-18,1,,,,,ウリウリアース,0
657,3011201025872,新規,0,2024-10-18,2024-10-18,ＡＩスタート株式会社,,株式会社,東京都,中野区,中野５丁目２４番１８－５０３号,,13,114,1640001,,,,,,,2024-10-18,1,,,,,エーアイスタート,0
659,3011301030087,新規,0,2024-10-18,2024-10-18,株式会社Ｆｌｏｏｒ　ｒｅｍｏｖａｌ,,株式会社,東京都,杉並区,天沼３丁目１６番５号,,13,115,1670032,,,,,,,2024-10-18,1,,,,,フロアリムーバル,0
660,3011303005319,新規,0,2024-10-18,2024-10-18,合同会社ＢｅＮＲＩ,,合同会社,東京都,杉並区,荻窪３丁目４７－２１荻窪三丁目シティハウス２０４,,13,115,1670051,,,,,,,2024-10-18,1,,,,,,0
663,3011501031281,新規,0,2024-10-18,2024-10-18,ＦＥＣＡ株式会社,,株式会社,東京都,北区,浮間１丁目１－１４リムジンビル１３６号,,13,117,1150051,,,,,,,2024-10-18,1,,,,,フェカ,0
669,3011803006493,新規,0,2024-10-18,2024-10-18,合同会社Ｍ＆Ｔ,,合同会社,東京都,葛飾区,西亀有３丁目１番１４号プランドールＩ１０３,00136690,13,122,1250002,,,,,,,2024-10-18,1,,,,,エムアンドティー,0
670,3012301014121,新規,0,2024-10-18,2024-10-18,ＺＡＲＢ株式会社,,株式会社,東京都,町田市,南つくし野４丁目１６番地１０,,13,209,1940002,,,,,,,2024-10-18,1,,,,,ザーブ,0
671,3012403006801,新規,0,2024-10-18,2024-10-18,合同会社Ｔｏｕｒ　ｇｕｉｄｅ　ｏｆｆｉｃｅチャオ,,合同会社,東京都,三鷹市,井の頭１丁目２７番２３号,,13,204,1810001,,,,,,,2024-10-18,1,,,,,ツアーガイドオフィスチャオ,0
682,3013303007344,新規,0,2024-10-18,2024-10-18,富新サービス合同会社,,合同会社,東京都,豊島区,西巣鴨２丁目１番１９号双葉ビル５０１号室,,13,116,1700001,,,,,,,2024-10-18,1,,,,,トミシンサービス,0
689,3020001159582,新規,0,2024-10-18,2024-10-18,株式会社ＣＯＺＹ　ＰＯＲＴ,,株式会社,神奈川県,川崎市中原区,木月住吉町２０番４１－６０１号,,14,133,2110021,,,,,,,2024-10-18,1,,,,,コージーポート,0
690,3020001159590,新規,0,2024-10-18,2024-10-18,株式会社Ｔｏｎｉｎｏｓ,,株式会社,神奈川県,横浜市中区,長者町８丁目１３２番地５,,14,104,2310033,,,,,,,2024-10-18,1,,,,,トニノス,0
692,3020003027052,新規,0,2024-10-18,2024-10-18,Ｙ・ｍ　ｐｌａｎｎｉｎｇ合同会社,,合同会社,神奈川県,横浜市港北区,日吉６丁目１番１号,,14,109,2230061,,,,,,,2024-10-18,1,,,,,ワイエムプランニング,0
693,3020003027060,新規,0,2024-10-18,2024-10-18,松正合同会社,,合同会社,神奈川県,川崎市中原区,新丸子町６９４番地１０１,,14,133,2110005,,,,,,,2024-10-18,1,,,,,マツショウ,0
694,3020003027085,新規,0,2024-10-18,2024-10-18,Ｔｏｎｙ　Ｃｈｅｎ合同会社,,合同会社,神奈川県,川崎市川崎区,堀之内町１番地６メインステージ川崎駅前５０３,,14,131,2100003,,,,,,,2024-10-18,1,,,,,トニーチェン,0
695,3020003027110,新規,0,2024-10-18,2024-10-18,ｔ＆ｍ合同会社,,合同会社,神奈川県,川崎市多摩区,西生田４丁目１９番１７－１２０号,,14,135,2140037,,,,,,,2024-10-18,1,,,,,ティーアンドエム,0
699,3021001083517,新規,0,2024-10-18,2024-10-18,エコワールドジャパン株式会社,,株式会社,神奈川県,厚木市,及川２丁目２１番３２号－１０２号,,14,212,2430212,,,,,,,2024-10-18,1,,,,,エコワールドジャパン,0
700,3021001083533,新規,0,2024-10-18,2024-10-18,株式会社Ｑｕｅｅｎ　Ｂｅｅ,,株式会社,神奈川県,藤沢市,南藤沢２３番２マタリ渡辺ビル３階,,14,205,2510055,,,,,,,2024-10-18,1,,,,,クイーンビー,0
707,3030001162973,新規,0,2024-10-18,2024-10-18,株式会社ｉ‐ＮＥＸＴ,,株式会社,埼玉県,北葛飾郡松伏町,大字松伏２２５２番地,,11,465,3430111,,,,,,,2024-10-18,1,,,,,アイネクスト,0
708,3030001162998,新規,0,2024-10-18,2024-10-18,株式会社ＧＭＡコーポレーション,,株式会社,埼玉県,戸田市,氷川町２丁目７番１１号リバーサイドマンション２０２号,,11,224,3350027,,,,,,,2024-10-18,1,,,,,ジーエムエーコーポレーション,0
709,3030001163006,新規,0,2024-10-18,2024-10-18,株式会社ＴＯＢＡ,,株式会社,埼玉県,秩父郡横瀬町,大字横瀬６０８２番地,,11,361,3680072,,,,,,,2024-10-18,1,,,,,トバ,0
710,3030001163039,新規,0,2024-10-18,2024-10-18,株式会社アルカディア,,株式会社,埼玉県,熊谷市,新島１４０番地５,,11,202,3600817,,,,,,,2024-10-18,1,,,,,アルカディア,0
714,3030003025336,新規,0,2024-10-18,2024-10-18,ディナミクス・バイオ合同会社,,合同会社,埼玉県,戸田市,下前１丁目１１番２０－１３４７号,,11,224,3350016,,,,,,,2024-10-18,1,,,,,ディナミクスバイオ,0
719,3040001135870,新規,0,2024-10-18,2024-10-18,ＩＧＴ株式会社,,株式会社,千葉県,松戸市,中根長津町５２－１,,12,207,2710054,,,,,,,2024-10-18,1,,,,,アイジーティー,0
724,3040003025979,新規,0,2024-10-18,2024-10-18,合同会社Ａ＆Ｍコーポレーション,,合同会社,千葉県,野田市,東金野井１１９１―２７,,12,208,2700236,,,,,,,2024-10-18,1,,,,,エーアンドエムコーポレーション,0
725,3040003026011,新規,0,2024-10-18,2024-10-18,合同会社ＫＹＳ,,合同会社,千葉県,船橋市,丸山１丁目３２番７号,,12,204,2730048,,,,,,,2024-10-18,1,,,,,ケーワイーエス,0
726,3040003026028,新規,0,2024-10-18,2024-10-18,合同会社Ｔｈｅ　Ｕｎｒｉｖａｌｌｅｄ,,合同会社,千葉県,長生郡長生村,一松丁１５３６―１０,,12,423,2994324,,,,,,,2024-10-18,1,,,,,ザアンライバルド,0
731,3060001037586,新規,0,2024-10-18,2024-10-18,株式会社結,,株式会社,栃木県,宇都宮市,上横田町８２８番地５プレアデスコートＤ２０２,,09,201,3210106,,,,,,,2024-10-18,1,,,,,ムスビ,0
734,3070001042230,新規,0,2024-10-18,2024-10-18,株式会社シャインホールディングス,,株式会社,群馬県,前橋市,大友町１丁目７番地２,,10,201,3710847,,,,,,,2024-10-18,1,,,,,シャインホールディングス,0
738,3080001026554,新規,0,2024-10-18,2024-10-18,Ｖａｎ‐ｄｏジャパン株式会社,,株式会社,静岡県,藤枝市,八幡４９０番地の１,,22,214,4260009,,,,,,,2024-10-18,1,,,,,バンドウジャパン,0
739,3080101025068,新規,0,2024-10-18,2024-10-18,株式会社ＬＥＡＦ,,株式会社,静岡県,伊東市,富戸１３１７番地の２４７６,,22,208,4130231,,,,,,,2024-10-18,1,,,,,リーフ,0
742,3090001018955,新規,0,2024-10-18,2024-10-18,株式会社ＯＳＳ,,株式会社,山梨県,大月市,富浜町鳥沢１４１３番地３,,19,206,4090502,,,,,,,2024-10-18,1,,,,,オーエスエス,0
748,3110001038785,新規,0,2024-10-18,2024-10-18,株式会社Ｌｅ．ｌｉｅｎ,,株式会社,新潟県,新潟市秋葉区,山谷町１丁目１２番２２号,,15,105,9560024,,,,,,,2024-10-18,1,,,,,ルリアン,0
764,3120001269495,新規,0,2024-10-18,2024-10-18,株式会社オーガスタ関西,,株式会社,大阪府,大阪市北区,梅田１丁目１番３号大阪駅前第３ビル２９階１－１－１号室,,27,127,5300001,,,,,,,2024-10-18,1,,,,,オーガスタカンサイ,0
766,3120003027777,新規,0,2024-10-18,2024-10-18,合同会社ＣＯＮＴＡＣＴ　ＰＲＯ,,合同会社,大阪府,大阪市福島区,玉川３丁目１番２０－４０３号,,27,103,5530004,,,,,,,2024-10-18,1,,,,,コンタクトプロ,0
769,3120101070423,新規,0,2024-10-18,2024-10-18,Ｄｅｎｔａｌ　Ｒｉｎｇ株式会社,,株式会社,大阪府,堺市西区,鳳西町２丁３１５番地３,,27,144,5938326,,,,,,,2024-10-18,1,,,,,デンタルリング,0
770,3120103006094,新規,0,2024-10-18,2024-10-18,合同会社マウントエント,,合同会社,大阪府,松原市,天美西４丁目１９１番地の２（１０２号）,,27,217,5800034,,,,,,,2024-10-18,1,,,,,マウントエント,0
772,3120901049914,新規,0,2024-10-18,2024-10-18,株式会社ジェーホリック,,株式会社,大阪府,箕面市,船場東２丁目１番４０－８０１号,,27,220,5620035,,,,,,,2024-10-18,1,,,,,ジェーホリック,0
773,3120901049922,新規,0,2024-10-18,2024-10-18,株式会社ＬＡＺＹ　ＳＴＹＬＥ,,株式会社,大阪府,豊中市,上野東３丁目１０番４４号,,27,203,5600013,,,,,,,2024-10-18,1,,,,,レイジースタイル,0
778,3120903005386,新規,0,2024-10-18,2024-10-18,合同会社大豊コーポレーション,,合同会社,大阪府,茨木市,東中条町１番３１号,,27,211,5670885,,,,,,,2024-10-18,1,,,,,タイホウコーポレーション,0
786,3140001136108,新規,0,2024-10-18,2024-10-18,株式会社Ｅ．Ｖ．Ｆ,,株式会社,兵庫県,伊丹市,千僧５丁目９１番地・１－１０１号,,28,207,6640898,,,,,,,2024-10-18,1,,,,,イーブイエフ,0
787,3140001136116,新規,0,2024-10-18,2024-10-18,株式会社さんたか,,株式会社,兵庫県,神戸市垂水区,川原１丁目２番１８号,,28,108,6550894,,,,,,,2024-10-18,1,,,,,サンタカ,0
788,3140001136157,新規,0,2024-10-18,2024-10-18,株式会社Ａｗｏｎｑｏｄｅｓｈ,,株式会社,兵庫県,神戸市中央区,山本通２丁目６番１７号ＲＡＪ３,,28,110,6500003,,,,,,,2024-10-18,1,,,,,アウォンコディッシュ,0
791,3140003021209,新規,0,2024-10-18,2024-10-18,Ｓａｆｆｒｏｎ合同会社,,合同会社,兵庫県,尼崎市,潮江１丁目７番１号,,28,202,6610976,,,,,,,2024-10-18,1,,,,,サフラン,0
793,3150003003395,新規,0,2024-10-18,2024-10-18,合同会社ＤＯＭ,,合同会社,奈良県,奈良市,南永井町２６番地,,29,201,6308443,,,,,,,2024-10-18,1,,,,,ドム,0
795,3170001018352,新規,0,2024-10-18,2024-10-18,株式会社リソフル,,株式会社,和歌山県,和歌山市,有家７２番地１７,,30,201,6408316,,,,,,,2024-10-18,1,,,,,リソフル,0
796,3180001163668,新規,0,2024-10-18,2024-10-18,中石建設株式会社,,株式会社,愛知県,半田市,有楽町５丁目１０３番地２,,23,205,4750837,,,,,,,2024-10-18,1,,,,,ナカイシケンセツ,0
799,3180003027490,新規,0,2024-10-18,2024-10-18,合同会社ＮＥＸＴｆａｃｔｏｒｙ,,合同会社,愛知県,名古屋市名東区,梅森坂西２丁目１０２６番地の３,,23,115,4650066,,,,,,,2024-10-18,1,,,,,ネクストファクトリー,0
801,3180303006310,新規,0,2024-10-18,2024-10-18,合同会社アイリスブレイン,,合同会社,愛知県,高浜市,青木町５丁目８番地９,,23,227,4441325,,,,,,,2024-10-18,1,,,,,,0
804,3200001043041,新規,0,2024-10-18,2024-10-18,株式会社飛騨由来,,株式会社,岐阜県,高山市,上宝町宮原９７７番地,,21,203,5061304,,,,,,,2024-10-18,1,,,,,ヒダユライ,0
805,3230001020574,新規,0,2024-10-18,2024-10-18,株式会社橘,,株式会社,富山県,富山市,八尾町福島５２番地,,16,201,9392376,,,,,,,2024-10-18,1,,,,,タチバナ,0
807,3240001063977,新規,0,2024-10-18,2024-10-18,ＩＧＯ‐ＳＥＣＵＲＩＴＹ株式会社,,株式会社,広島県,広島市中区,鶴見町３番２１号ＮＣビル,,34,101,7300045,,,,,,,2024-10-18,1,,,,,アイジーオーセキュリティ,0
811,3250001020845,新規,0,2024-10-18,2024-10-18,ＳＴＥＰ　ＯＮＥ株式会社,,株式会社,山口県,下関市,大字延行２６８番地１,,35,201,7510867,,,,,,,2024-10-18,1,,,,,ステップワン,0
820,3290001107597,新規,0,2024-10-18,2024-10-18,株式会社銘月,,株式会社,福岡県,福岡市西区,石丸２丁目２９－２２,,40,135,8190025,,,,,,,2024-10-18,1,,,,,メイゲツ,0
821,3290001107630,新規,0,2024-10-18,2024-10-18,Ｈｉｇｈ５株式会社,,株式会社,福岡県,福岡市西区,小戸１丁目３０番８－５号,,40,135,8190001,,,,,,,2024-10-18,1,,,,,ハイファイブ,0
822,3290001107639,新規,0,2024-10-18,2024-10-18,株式会社ジェットロード,,株式会社,福岡県,嘉麻市,漆生９１７番地９５,,40,227,8200201,,,,,,,2024-10-18,1,,,,,,0
823,3290001107688,新規,0,2024-10-18,2024-10-18,株式会社ＤＯＴＴＯＡＣＥ,,株式会社,福岡県,飯塚市,忠隈７７番地４６,,40,205,8200071,,,,,,,2024-10-18,1,,,,,ドットエース,0
825,3290801030965,新規,0,2024-10-18,2024-10-18,株式会社Ｇ‐ｗｏｒｋｓ,,株式会社,福岡県,田川郡福智町,金田６０番地１０８,,40,610,8221201,,,,,,,2024-10-18,1,,,,,ジーワークス,0
840,3360001034289,新規,0,2024-10-18,2024-10-18,株式会社Ｌａｎａｋｉｌａ,,株式会社,沖縄県,浦添市,屋富祖２丁目３１－２３グランドシティ仲里３０１,,47,208,9012127,,,,,,,2024-10-18,1,,,,,ラナキラ,0
841,3370005010847,新規,0,2024-10-18,2024-10-18,税理士法人すがわら会計,,その他の設立登記法人,宮城県,仙台市宮城野区,新田東１丁目１３番地の８,,04,102,9830039,,,,,,,2024-10-18,1,,,,,スガワラカイケイ,0
842,3380001034849,新規,0,2024-10-18,2024-10-18,株式会社橋本,,株式会社,福島県,二本松市,茶園４番地８,,07,210,9640000,,,,,,,2024-10-18,1,,,,,ハシモト,0
844,3380003005880,新規,0,2024-10-18,2024-10-18,合同会社ギフトブランディング,,合同会社,福島県,西白河郡西郷村,大字熊倉字折口原１９５番地１２,,07,461,9618091,,,,,,,2024-10-18,1,,,,,ギフトブランディング,0
849,3470001020419,新規,0,2024-10-18,2024-10-18,ＬＥＤＡ　ｈａｉｒ＆ｃｏｆｆｅｅ株式会社,,株式会社,香川県,高松市,西丸の内町７番３号ＴＹＭビル１Ｆ,,37,201,7600000,,,,,,,2024-10-18,1,,,,,レダヘアーアンドコーヒー,0
851,3490005006957,新規,0,2024-10-18,2024-10-18,特定非営利活動法人鏡野,,その他の設立登記法人,高知県,香美市,土佐山田町東本町４丁目２番１５号,,39,212,7820031,,,,,,,2024-10-18,1,,,,,カガミノ,0
853,3500001025942,新規,0,2024-10-18,2024-10-18,株式会社ＣＭＫ,,株式会社,愛媛県,松山市,鷹子町７９２番地１,,38,201,7900925,,,,,,,2024-10-18,1,,,,,シーエムケイ,0
854,3700150127560,新規,0,2024-10-18,2024-10-18,Ｈｅｌｉｏｓ　ＬＬＶ　Ｆｉｖｅ　Ｌｉｍｉｔｅｄ,,外国会社等,,,,,,,,Ｏｎｅ　Ｌｉｍｅ　Ｓｔｒｅｅｔ，Ｌｏｎｄｏｎ　ＥＣ３Ｍ　７ＨＡ　ＵＫ,,,,,,2024-10-18,1,,,,,ヘリオスエルエルブイフアイブリミテツド,0
855,3700150127569,新規,0,2024-10-18,2024-10-18,Ｈｅｌｉｏｓ　ＬＬＶ　Ｔｅｎ　ＬＬＰ,,外国会社等,,,,,,,,Ｏｎｅ　Ｌｉｍｅ　Ｓｔｒｅｅｔ，Ｌｏｎｄｏｎ　ＥＣ３Ｍ　７ＨＡ　ＵＫ,,,,,,2024-10-18,1,,,,,ヘリオスエルエルブイテンエルエルピー,0
864,4010001249136,新規,0,2024-10-18,2024-10-18,株式会社Ｈｏｎｕ,,株式会社,東京都,中央区,日本橋浜町２丁目４２番９号ＦＬＡＰ浜町１階,,13,102,1030007,,,,,,,2024-10-18,1,,,,,ホヌ,0
865,4010001249144,新規,0,2024-10-18,2024-10-18,Ｋ‐ａｒｔａｇｅｎａ株式会社,,株式会社,東京都,中央区,日本橋浜町２丁目６０番５号エリートタウン日本橋５０４,,13,102,1030007,,,,,,,2024-10-18,1,,,,,カルタヘナ,0
866,4010001249160,新規,0,2024-10-18,2024-10-18,株式会社若返りキッチン,,株式会社,東京都,中央区,築地４丁目１２番２－１２０１号,,13,102,1040045,,,,,,,2024-10-18,1,,,,,,0
869,4010003045236,新規,0,2024-10-18,2024-10-18,シー・ワイ沖縄合同会社,,合同会社,東京都,千代田区,丸の内１丁目４番１号東京共同会計事務所内,,13,101,1000005,,,,,,,2024-10-18,1,,,,,シーワイオキナワ,0
870,4010105002309,新規,0,2024-10-18,2024-10-18,特定非営利活動法人ｅｆｆｏｒｔ,,その他の設立登記法人,東京都,八王子市,上柚木３丁目１４番地２－３０８,,13,201,1920373,,,,,,,2024-10-18,1,,,,,エフォート,0
877,4010401185575,新規,0,2024-10-18,2024-10-18,ハンチアンドデータ株式会社,,株式会社,東京都,港区,海岸３丁目８番６－５０３号,,13,103,1080022,,,,,,,2024-10-18,1,,,,,ハンチアンドデータ,0
878,4010401185798,新規,0,2024-10-18,2024-10-18,株式会社ＺＯＮＴ,,株式会社,東京都,港区,高輪３丁目１５番１３－３０７号,,13,103,1080074,,,,,,,2024-10-18,1,,,,,ゾント,0
879,4010401185815,新規,0,2024-10-18,2024-10-18,イネーブルメント株式会社,,株式会社,東京都,港区,虎ノ門１丁目１６番６号虎ノ門ＲＡＰＯ－ＴＯビルＵＣＦ７０３,,13,103,1050001,,,,,,,2024-10-18,1,,,,,イネーブルメント,0
880,4010401185831,新規,0,2024-10-18,2024-10-18,株式会社クラベル,,株式会社,東京都,港区,北青山１丁目３番１号アールキューブ青山３階,,13,103,1070061,,,,,,,2024-10-18,1,,,,,クラベル,0
881,4010401185848,新規,0,2024-10-18,2024-10-18,ＴＹＭ総合ファーム株式会社,,株式会社,東京都,港区,港南２丁目１６番７－２６０１号,,13,103,1080075,,,,,,,2024-10-18,1,,,,,ティーワイエムソウゴウファーム,0
888,4010403033617,新規,0,2024-10-18,2024-10-18,合同会社Ｐｅａｃｈ　Ｏｎｅ,,合同会社,東京都,港区,南青山３丁目１番３６号青山丸竹ビル６Ｆ,,13,103,1070062,,,,,,,2024-10-18,1,,,,,ピーチワン,0
894,4010501053038,新規,0,2024-10-18,2024-10-18,ＰＩＫＯ株式会社,,株式会社,東京都,台東区,浅草橋３丁目１３番１号,,13,106,1110053,,,,,,,2024-10-18,1,,,,,ピコ,0
899,4010601066096,新規,0,2024-10-18,2024-10-18,和美株式会社,,株式会社,東京都,墨田区,両国２丁目１７番１７号両国ダイヤハイツ２０２－４,,13,107,1300026,,,,,,,2024-10-18,1,,,,,ナゴミ,0
900,4010701046675,新規,0,2024-10-18,2024-10-18,株式会社ＹＯＫＡＰＲＯ,,株式会社,東京都,品川区,西五反田２丁目１４－１３ニックハイム五反田２Ｆ,,13,109,1410031,,,,,,,2024-10-18,1,,,,,ヨカプロ,0
905,4010901056136,新規,0,2024-10-18,2024-10-18,ファルマティカ株式会社,,株式会社,東京都,世田谷区,成城９丁目５－３７,,13,112,1570066,,,,,,,2024-10-18,1,,,,,ファルマティカ,0
906,4010901056144,新規,0,2024-10-18,2024-10-18,株式会社ＤＧＣ,,株式会社,東京都,世田谷区,太子堂４丁目１８番１５号マガザン三軒茶屋２・３Ｆ－３,,13,112,1540004,,,,,,,2024-10-18,1,,,,,ディージーシー,0
909,4010903009422,新規,0,2024-10-18,2024-10-18,合同会社インテグリティ,,合同会社,東京都,世田谷区,用賀２丁目２８番１１－１０５号,,13,112,1580097,,,,,,,2024-10-18,1,,,,,インテグリティ,0
910,4011001165190,新規,0,2024-10-18,2024-10-18,株式会社ＡＤＥＰＴペイロール・ソリューション,,株式会社,東京都,目黒区,下目黒３丁目２－３,,13,110,1530064,,,,,,,2024-10-18,1,,,,,アデプトペイロールソリューション,0
911,4011001165257,新規,0,2024-10-18,2024-10-18,ＳＨＩＢＵＹＡ　ＢＩＴＥＳ株式会社,,株式会社,東京都,渋谷区,道玄坂１丁目１９－９第一暁ビル５Ｆ,,13,113,1500043,,,,,,,2024-10-18,1,,,,,シブヤバイツ,0
912,4011001165273,新規,0,2024-10-18,2024-10-18,Ｔａｎｇｏ　Ｇａｍｅｗｏｒｋｓ株式会社,,株式会社,東京都,渋谷区,渋谷１丁目３番１５号ＢＩＺＣＯＲＥ渋谷８Ｆ・９Ｆ,,13,113,1500002,,,,,,,2024-10-18,1,,,,,タンゴゲームワークス,0
920,4011103015062,新規,0,2024-10-18,2024-10-18,ＲＨ天王寺合同会社,,合同会社,東京都,新宿区,四谷２丁目９番地１５東京ユナイテッド綜合事務所内,,13,104,1600004,,,,,,,2024-10-18,1,,,,,アールエイチテンノウジ,0
921,4011103015070,新規,0,2024-10-18,2024-10-18,合同会社ＫＮＡＣＫ　ＯＦＦＩＣＥ,,合同会社,東京都,新宿区,西新宿３丁目３番１３号西新宿水間ビル２Ｆ,,13,104,1600023,,,,,,,2024-10-18,1,,,,,ナックオフィス,0
922,4011103015079,新規,0,2024-10-18,2024-10-18,合同会社ＮＥＯＮＦＡＮＴＡＳＹ,,合同会社,東京都,新宿区,新宿６丁目２７番２９－１２２８号,,13,104,1600022,,,,,,,2024-10-18,1,,,,,ネオンファンタジー,0
924,4011303005318,新規,0,2024-10-18,2024-10-18,合同会社ＭＴＧ,,合同会社,東京都,杉並区,井草２丁目３５番１２－４－１０４号グランドメゾン杉並シーズン,,13,115,1670021,,,,,,,2024-10-18,1,,,,,エムティージー,0
925,4011401026505,新規,0,2024-10-18,2024-10-18,景星株式会社,,株式会社,東京都,板橋区,仲宿６３－７ＯＥＯｆｆｉｃｅＢｌｄｇ．３１０号,,13,119,1730005,,,,,,,2024-10-18,1,,,,,ケイセイ,0
927,4011503006264,新規,0,2024-10-18,2024-10-18,合同会社ディビノ,,合同会社,東京都,北区,赤羽１丁目７－９赤羽第一葉山ビル４階,,13,117,1150045,,,,,,,2024-10-18,1,,,,,ディビノ,0
930,4011601028136,新規,0,2024-10-18,2024-10-18,ユーエヌ株式会社,,株式会社,東京都,練馬区,向山２丁目６番１０号,,13,120,1760022,,,,,,,2024-10-18,1,,,,,ユーエヌ,0
935,4011703004002,新規,0,2024-10-18,2024-10-18,７タイガース警備合同会社,,合同会社,東京都,江戸川区,南小岩７丁目３２番１６号,,13,123,1330056,,,,,,,2024-10-18,1,,,,,セブンタイガースケイビ,0
936,4011801044998,新規,0,2024-10-18,2024-10-18,株式会社トゥアクト,,株式会社,東京都,葛飾区,柴又４丁目１９番７号,,13,122,1250052,,,,,,,2024-10-18,1,,,,,トゥアクト,0
941,4013301053232,新規,0,2024-10-18,2024-10-18,株式会社ＬＡＤＹＭＡＤＥ,,株式会社,東京都,豊島区,池袋２丁目６９番１２号キャピタルライフ３０６号,,13,116,1710014,,,,,,,2024-10-18,1,,,,,レディーメイド,0
949,4020001159631,新規,0,2024-10-18,2024-10-18,モリタクラウド株式会社,,株式会社,神奈川県,横浜市神奈川区,菅田町４８８番地,,14,102,2210864,,,,,,,2024-10-18,1,,,,,モリタクラウド,0
954,4020003027068,新規,0,2024-10-18,2024-10-18,ＴＭＲ．ａ合同会社,,合同会社,神奈川県,横浜市南区,真金町２丁目１９番地２３,,14,105,2320021,,,,,,,2024-10-18,1,,,,,ティーエムアールドットエー,0
955,4020003027092,新規,0,2024-10-18,2024-10-18,カダウノ合同会社,,合同会社,神奈川県,川崎市宮前区,鷺沼４丁目１番地１２,,14,136,2160004,,,,,,,2024-10-18,1,,,,,カダウノ,0
959,4021001083524,新規,0,2024-10-18,2024-10-18,株式会社レイテックホールディングス,,株式会社,神奈川県,中郡大磯町,国府新宿４８６番地６,,14,341,2590112,,,,,,,2024-10-18,1,,,,,レイテックホールディングス,0
964,4021003015112,新規,0,2024-10-18,2024-10-18,Ｅ．Ｍ　Ｓｒｉ　Ｌａｎｋａ　Ｆｏｏｄｓ合同会社,,合同会社,神奈川県,厚木市,中町４丁目１４番１号サクセス本厚木ビルＳ－０１,,14,212,2430018,,,,,,,2024-10-18,1,,,,,イーエムスリランカフーヅ,0
974,4030001162980,新規,0,2024-10-18,2024-10-18,株式会社ラテール,,株式会社,埼玉県,三郷市,高州１丁目１７６番地２,,11,237,3410037,,,,,,,2024-10-18,1,,,,,ラテール,0
975,4030001162989,新規,0,2024-10-18,2024-10-18,株式会社朱音,,株式会社,埼玉県,ふじみ野市,清見３丁目５－４,,11,245,3560002,,,,,,,2024-10-18,1,,,,,シュオン,0
976,4030001162997,新規,0,2024-10-18,2024-10-18,株式会社ＦＴホールディングス,,株式会社,埼玉県,富士見市,ふじみ野東３丁目４番地１１,,11,235,3540036,,,,,,,2024-10-18,1,,,,,エフティーホールディングス,0
977,4030001163005,新規,0,2024-10-18,2024-10-18,株式会社エクラ,,株式会社,埼玉県,さいたま市北区,宮原町３丁目２２３番地,,11,102,3310812,,,,,,,2024-10-18,1,,,,,エクラ,0
978,4030001163013,新規,0,2024-10-18,2024-10-18,株式会社Ａｚｕｋｉ,,株式会社,埼玉県,川口市,前上町２番２７号,,11,203,3330843,,,,,,,2024-10-18,1,,,,,アズキ,0
986,4040001135721,新規,0,2024-10-18,2024-10-18,ミライ株式会社,,株式会社,千葉県,成田市,玉造６丁目１－５,,12,211,2860011,,,,,,,2024-10-18,1,,,,,ミライ,0
987,4040001135853,新規,0,2024-10-18,2024-10-18,株式会社ＺＩＧＯＯ　ＪＡＰＡＮ,,株式会社,千葉県,印西市,高西新田大越台２２１番地１,,12,231,2701365,,,,,,,2024-10-18,1,,,,,ジーゴジャパン,0
991,4050001055547,新規,0,2024-10-18,2024-10-18,株式会社ＲｅｎｅＧａｔｅ,,株式会社,茨城県,つくばみらい市,豊体５２１番地２,,08,235,3002347,,,,,,,2024-10-18,1,,,,,レネゲート,0
993,4050003008742,新規,0,2024-10-18,2024-10-18,合同会社Ｅｘｉａ,,合同会社,茨城県,水戸市,南町１丁目１番４号サニーサイド水戸駅北１Ｆテナント１０２,,08,201,3100021,,,,,,,2024-10-18,1,,,,,エクシア,0
996,4060001037569,新規,0,2024-10-18,2024-10-18,株式会社宥誠,,株式会社,栃木県,宇都宮市,峰１丁目２８番３４号,,09,201,3210942,,,,,,,2024-10-18,1,,,,,ユウセイ,0
997,4060001037585,新規,0,2024-10-18,2024-10-18,株式会社ＫＡＷＡＧＯＥ,,株式会社,栃木県,宇都宮市,上戸祭町３１１４番地３１号,,09,201,3200051,,,,,,,2024-10-18,1,,,,,カワゴエ,0
1002,4070001042262,新規,0,2024-10-18,2024-10-18,株式会社渡辺組,,株式会社,群馬県,高崎市,根小屋町９３９番地２,,10,202,3701214,,,,,,,2024-10-18,1,,,,,ワタナベグミ,0
1003,4070001042270,新規,0,2024-10-18,2024-10-18,株式会社ネオビジョン,,株式会社,群馬県,前橋市,茂木町６１５,,10,201,3710232,,,,,,,2024-10-18,1,,,,,ネオビジョン,0
1011,4080401027515,新規,0,2024-10-18,2024-10-18,株式会社ＲＭ　Ｐｌｕｓ,,株式会社,静岡県,浜松市中央区,中田町４４６番地,,22,138,4350057,,,,,,,2024-10-18,1,,,,,アールエムプラス,0
1015,4090001018954,新規,0,2024-10-18,2024-10-18,株式会社ＲＥＹＡＮＳＨ　ＤＩＡＭＯＮＤ,,株式会社,山梨県,甲府市,湯田２丁目２０番１５号メゾントリオＣ１０５,,19,201,4000864,,,,,,,2024-10-18,1,,,,,リヤンシュダイヤモンド,0
1016,4100001037944,新規,0,2024-10-18,2024-10-18,株式会社夜々,,株式会社,長野県,松本市,大手２丁目１０番１号双栄ビル２Ｆ,,20,202,3900874,,,,,,,2024-10-18,1,,,,,ヨヨ,0
1017,4110003005543,新規,0,2024-10-18,2024-10-18,合同会社沼垂・クリエイティブ・サムライ,,合同会社,新潟県,新潟市中央区,沼垂西１丁目１０番６号,,15,103,9500076,,,,,,,2024-10-18,1,,,,,ヌッタリクリエイティブサムライ,0
1018,4110003005551,新規,0,2024-10-18,2024-10-18,合同会社ｗｉｔｈ　ｎａｔｕｒｅ,,合同会社,新潟県,阿賀野市,次郎丸７７８番地１,,15,223,9591943,,,,,,,2024-10-18,1,,,,,ウィズネイチャー,0
1024,4120001269395,新規,0,2024-10-18,2024-10-18,力天株式会社,,株式会社,大阪府,大阪市東住吉区,鷹合３丁目１６－２０,,27,121,5460014,,,,,,,2024-10-18,1,,,,,リキテン,0
1025,4120001269453,新規,0,2024-10-18,2024-10-18,株式会社ツチヤ・ビル,,株式会社,大阪府,大阪市天王寺区,上汐４丁目５番１６号,,27,109,5430002,,,,,,,2024-10-18,1,,,,,ツチヤビル,0
1026,4120001269461,新規,0,2024-10-18,2024-10-18,フォレスノービル株式会社,,株式会社,大阪府,大阪市旭区,今市１丁目１番４号,,27,117,5350011,,,,,,,2024-10-18,1,,,,,フォレスノービル,0
1028,4120003027768,新規,0,2024-10-18,2024-10-18,アシアトサポート合同会社,,合同会社,大阪府,大阪市住吉区,殿辻１丁目５番２２号,00136692,27,120,5580042,,,,,,,2024-10-18,1,,,,,アシアトサポート,0
1038,4122001038557,新規,0,2024-10-18,2024-10-18,さくらトラスト株式会社,,株式会社,大阪府,八尾市,高安町南２丁目３３番地の３,,27,212,5810875,,,,,,,2024-10-18,1,,,,,サクラトラスト,0
1046,4130001078093,新規,0,2024-10-18,2024-10-18,竹之内工務店株式会社,,株式会社,京都府,向日市,物集女町森ノ上１５番地の９,,26,208,6170001,,,,,,,2024-10-18,1,,,,,タケノウチコウムテン,0
1053,4140001136107,新規,0,2024-10-18,2024-10-18,株式会社ビューティーワークス,,株式会社,兵庫県,伊丹市,伊丹１丁目１３番３８号ベルメゾン青山１０１,,28,207,6640846,,,,,,,2024-10-18,1,,,,,ビューティーワークス,0
1054,4140001136115,新規,0,2024-10-18,2024-10-18,株式会社ピークマネジメント,,株式会社,兵庫県,西宮市,甲子園一番町１５番２６号,,28,204,6638171,,,,,,,2024-10-18,1,,,,,ピークマネジメント,0
1055,4140001136123,新規,0,2024-10-18,2024-10-18,株式会社ケイプラス,,株式会社,兵庫県,神戸市灘区,灘南通１丁目１番２７号,,28,102,6570841,,,,,,,2024-10-18,1,,,,,ケイプラス,0
1056,4140001136148,新規,0,2024-10-18,2024-10-18,株式会社玉川,,株式会社,兵庫県,神戸市長田区,長尾町２丁目１８－２０－２,,28,106,6530855,,,,,,,2024-10-18,1,,,,,タマガワ,0
1060,4140003021182,新規,0,2024-10-18,2024-10-18,合同会社月虹,,合同会社,兵庫県,姫路市,網干区坂上３５６番地１１,,28,201,6711223,,,,,,,2024-10-18,1,,,,,ゲッコウ,0
1062,4150001027610,新規,0,2024-10-18,2024-10-18,株式会社ＮＡＮＢＵホールディングス,,株式会社,奈良県,橿原市,五井町１８７番地の２,,29,205,6340832,,,,,,,2024-10-18,1,,,,,ナンブホールディングス,0
1064,4170001018351,新規,0,2024-10-18,2024-10-18,株式会社中西商会,,株式会社,和歌山県,和歌山市,太田４４０番地２誠和ビル２Ｆ,,30,201,6408323,,,,,,,2024-10-18,1,,,,,ナカニシショウカイ,0
1067,4180001163667,新規,0,2024-10-18,2024-10-18,株式会社ひなた,,株式会社,愛知県,名古屋市中川区,服部５丁目６１３番地,,23,110,4540976,,,,,,,2024-10-18,1,,,,,ヒナタ,0
1082,4220003003858,新規,0,2024-10-18,2024-10-18,合同会社ｂｉｒｋｉｎ,,合同会社,石川県,野々市市,野代２丁目１５０パルテール２０７,,17,212,9218804,,,,,,,2024-10-18,1,,,,,バーキン,0
1095,4260003004927,新規,0,2024-10-18,2024-10-18,希望合同会社,,合同会社,岡山県,岡山市北区,西古松１丁目２３番１号,,33,101,7000927,,,,,,,2024-10-18,1,,,,,キボウ,0
1098,4290001107605,新規,0,2024-10-18,2024-10-18,リネアヴィッテ株式会社,,株式会社,福岡県,糟屋郡粕屋町,１８３７番１号,,40,349,8112300,,,,,,,2024-10-18,1,,,,,リネアヴィッテ,0
1099,4290001107654,新規,0,2024-10-18,2024-10-18,株式会社Ｂｅコネクト,,株式会社,福岡県,柳川市,大和町六合１７２９番地,,40,207,8390244,,,,,,,2024-10-18,1,,,,,ビーコネクト,0
1100,4290001107687,新規,0,2024-10-18,2024-10-18,株式会社エスアイエネルギー,,株式会社,福岡県,福岡市博多区,博多駅前２丁目１７番１号,,40,132,8120011,,,,,,,2024-10-18,1,,,,,エスアイエネルギー,0
1102,4290003015954,新規,0,2024-10-18,2024-10-18,ＡＩ　ＡＢＣ合同会社,,合同会社,福岡県,福岡市早良区,藤崎１丁目１０番１号,,40,137,8140013,,,,,,,2024-10-18,1,,,,,エーアイエービーシー,0
1105,4290803004859,新規,0,2024-10-18,2024-10-18,ラストマイルカンパニー合同会社,,合同会社,福岡県,築上郡築上町,大字安武１８６番地１,,40,647,8290111,,,,,,,2024-10-18,1,,,,,ラストマイルカンパニー,0
1110,4320003004499,新規,0,2024-10-18,2024-10-18,合同会社蓮華草,,合同会社,大分県,日田市,大字小迫７７５番地５,,44,204,8770000,,,,,,,2024-10-18,1,,,,,レンゲソウ,0
1118,4370001051836,新規,0,2024-10-18,2024-10-18,モリトウミ株式会社,,株式会社,宮城県,仙台市若林区,卸町４丁目８番１号,,04,103,9840015,,,,,,,2024-10-18,1,,,,,モリトウミ,0
1122,4380001034856,新規,0,2024-10-18,2024-10-18,株式会社エムワイケー,,株式会社,福島県,郡山市,開成２丁目７番１０号,,07,203,9638851,,,,,,,2024-10-18,1,,,,,エムワイケー,0
1123,4380003005871,新規,0,2024-10-18,2024-10-18,Ｙｕｕ　ｆｉｒｓｔ合同会社,,合同会社,福島県,福島市,荒井北３丁目４番地の１,,07,201,9602102,,,,,,,2024-10-18,1,,,,,ユウファースト,0
1133,4430001092881,新規,0,2024-10-18,2024-10-18,株式会社Ｂｅａｒｓ,,株式会社,北海道,札幌市北区,屯田七条１１丁目６番２３－１０１号,,01,102,0020857,,,,,,,2024-10-18,1,,,,,ベアーズ,0
1141,4490003001942,新規,0,2024-10-18,2024-10-18,合同会社ＣＵＬＴＩＶＡＴＥ,,合同会社,高知県,高知市,宝町２７番１号,,39,201,7800914,,,,,,,2024-10-18,1,,,,,,0
1143,4700150127568,新規,0,2024-10-18,2024-10-18,ＹＡＭＡＫＯ　ＮＥＴ　ＥＮＴＥＲＰＲＩＳＥＳ,,外国会社等,千葉県,大網白里市,南今泉６６７番地２オフィス４,,12,239,2993202,スリランカ民主社会主義共和国、アクラナ、ウダウェリケティヤ、Ｎｏ．４１／３,,,,,,2024-10-18,1,,,,,ヤマコネツトエンタープライズ,0
1144,4700150127576,新規,0,2024-10-18,2024-10-18,Ｆｏｓｈａｎ　Ｊｕｊｉａｎｇ　Ｔｒａｄｉｎｇ　Ｃｏ．，Ｌｔｄ,,外国会社等,,,,,,,,Ｒｏｏｍ３７３－６，Ｚｏｎｅ　Ｃ，３ｒｄ　Ｆｌｏｏｒ，Ｇ１１　Ｉｎｄｕｓｔｒｉａｌ　Ｚｏｎｅ，Ｄｉｅｂｅｉ　Ｔａｎｔｏｕ　Ｉｎｄｕｓｔｒｉａｌ　Ｚｏｎｅ，Ｇｕｉｃｈｅｎｇ　Ｓｔｒｅｅｔ，Ｎａｎｈａｉ，Ｆｏｓｈａｎ,,,,,,2024-10-18,1,,,,,ブツザンシキヨシヨウボウエキユウゲンコウシ,0
1148,5010001248847,新規,0,2024-10-18,2024-10-18,株式会社ｙｏｕｒ,,株式会社,東京都,中央区,日本橋室町１丁目１１番１２号日本橋水野ビル７階,,13,102,1030022,,,,,,,2024-10-18,1,,,,,ユアー,0
1149,5010001249028,新規,0,2024-10-18,2024-10-18,株式会社ワンストップ・イノベーションＨＲ　ＮＥＸＴ,,株式会社,東京都,千代田区,神田司町２丁目１３番地,,13,101,1010048,,,,,,,2024-10-18,1,,,,,ワンストップイノベーションエイチアールネクスト,0
1150,5010001249052,新規,0,2024-10-18,2024-10-18,株式会社ＷｉｔｈＳｅｅｄ,,株式会社,東京都,文京区,小石川２丁目１８番１４号,,13,105,1120002,,,,,,,2024-10-18,1,,,,,ウィズシード,0
1151,5010001249093,新規,0,2024-10-18,2024-10-18,ボールド株式会社,,株式会社,東京都,千代田区,四番町２番地１クレール東郷坂１Ｆ,,13,101,1020081,,,,,,,2024-10-18,1,,,,,ボールド,0
1152,5010001249119,新規,0,2024-10-18,2024-10-18,株式会社クロスリンク,,株式会社,東京都,中央区,新富２丁目１１番１１号プラザ銀座新富ビル７階,,13,102,1040041,,,,,,,2024-10-18,1,,,,,クロスリンク,0
1153,5010001249135,新規,0,2024-10-18,2024-10-18,株式会社ベレジア,,株式会社,東京都,中央区,銀座５丁目１４番１号銀座クイントビルＢ１Ｆ,,13,102,1040061,,,,,,,2024-10-18,1,,,,,ベレジア,0
1154,5010001249143,新規,0,2024-10-18,2024-10-18,ＴＲＩＮＩＴＹＬＩＮＫ株式会社,,株式会社,東京都,千代田区,九段北１丁目１３番９－２５０４号,,13,101,1020073,,,,,,,2024-10-18,1,,,,,トリニティリンク,0
1155,5010001249250,新規,0,2024-10-18,2024-10-18,株式会社Ｓｏｌｅｉｌ,,株式会社,東京都,千代田区,二番町１―２―２１７,,13,101,1020084,,,,,,,2024-10-18,1,,,,,ソレイユ,0
1159,5010003045169,新規,0,2024-10-18,2024-10-18,合同会社ライブリースレッド,,合同会社,東京都,千代田区,神田岩本町１５－１ＣＹＫ神田岩本町Ｂ１Ｆ,,13,101,1010033,,,,,,,2024-10-18,1,,,,,ライブリースレッド,0
1160,5010003045210,新規,0,2024-10-18,2024-10-18,ＩＤＥＡＰ合同会社,,合同会社,東京都,文京区,千石３丁目１０－１０,,13,105,1120011,,,,,,,2024-10-18,1,,,,,イデアップ,0
1161,5010003045219,新規,0,2024-10-18,2024-10-18,エア・テスト・システムズ・ジャパン合同会社,,合同会社,東京都,千代田区,神田錦町３丁目１９番地楠本第３ビル９階,,13,101,1010054,,,,,,,2024-10-18,1,,,,,エアテストシステムズジャパン,0
1170,5010401185780,新規,0,2024-10-18,2024-10-18,株式会社ＹＫｌｉｎｋｓ,,株式会社,東京都,港区,赤坂６丁目１０番４２号,,13,103,1070052,,,,,,,2024-10-18,1,,,,,ワイケーリンクス,0
1171,5010401185789,新規,0,2024-10-18,2024-10-18,株式会社うなぎ,,株式会社,東京都,港区,六本木４丁目２番５０－８０２号,,13,103,1060032,,,,,,,2024-10-18,1,,,,,ウナギ,0
1172,5010401185797,新規,0,2024-10-18,2024-10-18,株式会社Ｐａｔｔａ,,株式会社,東京都,港区,三田１丁目５番５号ファーストアパートメンツ三田４０４号室,,13,103,1080073,,,,,,,2024-10-18,1,,,,,パッタ,0
1173,5010401185839,新規,0,2024-10-18,2024-10-18,コンシェルプラス株式会社,,株式会社,東京都,港区,新橋４丁目２４番１０号アソルティ新橋四丁目６０１号室,,13,103,1050004,,,,,,,2024-10-18,1,,,,,コンシェルプラス,0
1177,5010403033624,新規,0,2024-10-18,2024-10-18,サンライズ合同会社,,合同会社,東京都,港区,赤坂３丁目１２番１３号５Ｆ,,13,103,1070052,,,,,,,2024-10-18,1,,,,,サンライズ,0
1178,5010405023697,新規,0,2024-10-18,2024-10-18,一般社団法人ＴＳＭ１６６,,その他の設立登記法人,東京都,港区,元赤坂１丁目１番７号,,13,103,1070051,,,,,,,2024-10-18,1,,,,,ティーエスエムヒャクロクジュウロク,0
1180,5010603011157,新規,0,2024-10-18,2024-10-18,合同会社Ｙ．Ｔ,,合同会社,東京都,江東区,三好４丁目７番２８－５１０号,,13,108,1350022,,,,,,,2024-10-18,1,,,,,ワイティー,0
1183,5010701046699,新規,0,2024-10-18,2024-10-18,Ｈａｒｖｅｓｔ　Ｃａｐｉｔａｌ　Ｊａｐａｎ株式会社,,株式会社,東京都,品川区,東品川４丁目１２番８号品川シーサイドイーストタワー１５５３号室,,13,109,1400002,,,,,,,2024-10-18,1,,,,,ハーベストキャピタルジャパン,0
1184,5010801035486,新規,0,2024-10-18,2024-10-18,Ａｍｂｉｖａｌｅｎｃｅ株式会社,,株式会社,東京都,大田区,蒲田４丁目１番１－３０９号,,13,111,1440052,,,,,,,2024-10-18,1,,,,,アンビバレンス,0
1187,5010901056119,新規,0,2024-10-18,2024-10-18,株式会社ＨＹＤＲＡＴＥ,,株式会社,東京都,世田谷区,野沢２丁目２９番２４号,,13,112,1540003,,,,,,,2024-10-18,1,,,,,ハイドレイト,0
1189,5010903009388,新規,0,2024-10-18,2024-10-18,Ｆｌｏｒｉｎｉｘ合同会社,,合同会社,東京都,世田谷区,北烏山１丁目７番１７‐１０４号,,13,112,1570061,,,,,,,2024-10-18,1,,,,,フロリニクス,0
1197,5011001165264,新規,0,2024-10-18,2024-10-18,株式会社Ｆｒａｍｉ,,株式会社,東京都,渋谷区,道玄坂１丁目１０番８号渋谷道玄坂東急ビル２Ｆ－Ｃ,,13,113,1500043,,,,,,,2024-10-18,1,,,,,フレーミ,0
1198,5011001165306,新規,0,2024-10-18,2024-10-18,株式会社ワサビテックコンサルタント,,株式会社,東京都,渋谷区,宇田川町３番７号,,13,113,1500042,,,,,,,2024-10-18,1,,,,,ワサビテックコンサルタント,0
1200,5011003020203,新規,0,2024-10-18,2024-10-18,合同会社Ｌａｚｕｌｉ,,合同会社,東京都,渋谷区,道玄坂１丁目１０番８号渋谷道玄坂東急ビル２Ｆ－Ｃ,,13,113,1500043,,,,,,,2024-10-18,1,,,,,ラズリ,0
1201,5011003020211,新規,0,2024-10-18,2024-10-18,合同会社ジャンキー,,合同会社,東京都,渋谷区,神宮前６丁目２３番４号桑野ビル２階,,13,113,1500001,,,,,,,2024-10-18,1,,,,,ジャンキー,0
1203,5011101109170,新規,0,2024-10-18,2024-10-18,株式会社Ｂｅ　Ｇｒｏｏｖｙ,,株式会社,東京都,新宿区,西新宿６丁目２番３号新宿アイランドアネックス４０６号,,13,104,1600023,,,,,,,2024-10-18,1,,,,,ビーグルービー,0
1204,5011101109187,新規,0,2024-10-18,2024-10-18,株式会社ジェーピーテクノ,,株式会社,東京都,新宿区,原町３丁目３７番地３０２号室,,13,104,1620053,,,,,,,2024-10-18,1,,,,,ジェーピーテクノ,0
1205,5011101109195,新規,0,2024-10-18,2024-10-18,株式会社Ｌｉｂｅｌｉｍｅ,,株式会社,東京都,新宿区,西新宿３丁目３番１３号西新宿水間ビル２Ｆ,,13,104,1600023,,,,,,,2024-10-18,1,,,,,リベリム,0
1206,5011103015029,新規,0,2024-10-18,2024-10-18,合同会社ＥＣＫ,,合同会社,東京都,新宿区,四谷三栄町６番２４号１０２号室,,13,104,1600008,,,,,,,2024-10-18,1,,,,,イーシーケー,0
1207,5011103015053,新規,0,2024-10-18,2024-10-18,合同会社Ｋｙｔｅ,,合同会社,東京都,新宿区,西新宿８丁目１４番１７－９１３号,,13,104,1600023,,,,,,,2024-10-18,1,,,,,カイト,0
1208,5011103015061,新規,0,2024-10-18,2024-10-18,合同会社メダカ,,合同会社,東京都,新宿区,河田町３番５１－１７１２号,,13,104,1620054,,,,,,,2024-10-18,1,,,,,メダカ,0
1215,5011401026512,新規,0,2024-10-18,2024-10-18,ｅ‐Ａｓｓｅｔ株式会社,,株式会社,東京都,板橋区,大山金井町３９番１４号,,13,119,1730024,,,,,,,2024-10-18,1,,,,,イーアセット,0
1217,5011501031247,新規,0,2024-10-18,2024-10-18,園行株式会社,,株式会社,東京都,北区,十条仲原１丁目２６番５号鳥芳ビル３０１号室,,13,117,1140031,,,,,,,2024-10-18,1,,,,,エンコウ,0
1223,5011703004001,新規,0,2024-10-18,2024-10-18,ラポール合同会社,,合同会社,東京都,江戸川区,北篠崎２丁目１０番２号グランディール１０２,,13,123,1330053,,,,,,,2024-10-18,1,,,,,ラポール,0
1225,5011801044989,新規,0,2024-10-18,2024-10-18,株式会社ＥＳ　ＣＯＮＮＥＣＴ,,株式会社,東京都,足立区,一ツ家２丁目２番１７号一ツ家ウェーブタウン７号１０３,,13,121,1210075,,,,,,,2024-10-18,1,,,,,イーエスコネクト,0
1226,5011801044997,新規,0,2024-10-18,2024-10-18,株式会社たのしい会社,,株式会社,東京都,足立区,西新井本町５丁目４番５号,,13,121,1230845,,,,,,,2024-10-18,1,,,,,タノシイカイシャ,0
1227,5011801045005,新規,0,2024-10-18,2024-10-18,株式会社アローズ,,株式会社,東京都,足立区,千住１丁目４番１号東京芸術センター１０階,,13,121,1200034,,,,,,,2024-10-18,1,,,,,アローズ,0
1230,5012303002064,新規,0,2024-10-18,2024-10-18,合同会社トリウッド,,合同会社,東京都,町田市,本町田１４０５－１７,,13,209,1940032,,,,,,,2024-10-18,1,,,,,トリウッド,0
1234,5013301053231,新規,0,2024-10-18,2024-10-18,株式会社Ｆｏｃｕｓ,,株式会社,東京都,豊島区,東池袋２丁目８－５福ビル１Ｆ１０１,,13,116,1700013,,,,,,,2024-10-18,1,,,,,フォーカス,0
1239,5020001159614,新規,0,2024-10-18,2024-10-18,株式会社裕和商会,,株式会社,神奈川県,横浜市神奈川区,神奈川本町３－６土屋ビル２０２室,,14,102,2210046,,,,,,,2024-10-18,1,,,,,ユウワショウカイ,0
1240,5020001159663,新規,0,2024-10-18,2024-10-18,ＳＩＭＢＡ株式会社,,株式会社,神奈川県,川崎市宮前区,初山１丁目３２番１２号ベルクシャトレ１０３,,14,136,2160026,,,,,,,2024-10-18,1,,,,,シンバ,0
1241,5020001159713,新規,0,2024-10-18,2024-10-18,株式会社Ｌ＆Ｙ,,株式会社,神奈川県,横浜市中区,豆口台１５５番地４４,,14,104,2310838,,,,,,,2024-10-18,1,,,,,エルアンドワイ,0
1242,5020005016571,新規,0,2024-10-18,2024-10-18,横浜港南社会保険労務士法人,,その他の設立登記法人,神奈川県,横浜市港南区,下永谷３丁目３４番９号,,14,111,2330016,,,,,,,2024-10-18,1,,,,,ヨコハマコウナン,0
1245,5021001083507,新規,0,2024-10-18,2024-10-18,株式会社ＴｉｅｓＴｅｃｈ,,株式会社,神奈川県,平塚市,寺田縄９６６番地の４,,14,203,2591215,,,,,,,2024-10-18,1,,,,,タイズテック,0
1246,5021003015111,新規,0,2024-10-18,2024-10-18,合同会社ＮＡＬＵ,,合同会社,神奈川県,藤沢市,藤沢５４５番地の１６,,14,205,2510052,,,,,,,2024-10-18,1,,,,,ナル,0
1247,5021003015128,新規,0,2024-10-18,2024-10-18,エランティス合同会社,,合同会社,神奈川県,鎌倉市,長谷２丁目１４―１２,,14,204,2480016,,,,,,,2024-10-18,1,,,,,エランティス,0
1256,5030001162996,新規,0,2024-10-18,2024-10-18,株式会社Ｓｕｐｐｒａｉｎ,,株式会社,埼玉県,所沢市,中新井２丁目６６０番地ガーデンハイツ武蔵野１０１,,11,208,3590041,,,,,,,2024-10-18,1,,,,,サプレイン,0
1257,5030001163004,新規,0,2024-10-18,2024-10-18,株式会社東建設,,株式会社,埼玉県,新座市,野寺２丁目１２番９号,,11,230,3520034,,,,,,,2024-10-18,1,,,,,アズマケンセツ,0
1258,5030001163029,新規,0,2024-10-18,2024-10-18,株式会社ＶＥＲＴＥＸ,,株式会社,埼玉県,春日部市,小渕１４８番地１４,,11,214,3440007,,,,,,,2024-10-18,1,,,,,ヴェルテックス,0
1259,5030001163045,新規,0,2024-10-18,2024-10-18,株式会社Ｃ‐ＲＩＮＧ　Ｄｅｓｉｇｎ,,株式会社,埼玉県,南埼玉郡宮代町,本田３丁目４番１７号プロムナードヴィラ１０１号,,11,442,3450827,,,,,,,2024-10-18,1,,,,,シーリングデザイン,0
1260,5030001163053,新規,0,2024-10-18,2024-10-18,株式会社ＤＭＥＸＥ,,株式会社,埼玉県,三郷市,三郷２丁目１１番地５グリーンパーク三郷６０２,,11,237,3410024,,,,,,,2024-10-18,1,,,,,ディーエムエグゼ,0
1262,5030003025334,新規,0,2024-10-18,2024-10-18,Ｃ＆Ｃ合同会社,,合同会社,埼玉県,さいたま市大宮区,上小町１３８４番地９ベルフォレスト大宮１０１号室,,11,103,3300855,,,,,,,2024-10-18,1,,,,,シアンドシ,0
1263,5030003025350,新規,0,2024-10-18,2024-10-18,合同会社ソレアビジネスサポート,,合同会社,埼玉県,戸田市,本町４丁目４番６号ＴＢＣ,,11,224,3350023,,,,,,,2024-10-18,1,,,,,ソレアビジネスサポート,0
1268,5040001135852,新規,0,2024-10-18,2024-10-18,国茂株式会社,,株式会社,千葉県,船橋市,印内２丁目３番１５号ＴＯＰ西船橋第一４０２,,12,204,2730039,,,,,,,2024-10-18,1,,,,,コクモ,0
1269,5040001135869,新規,0,2024-10-18,2024-10-18,株式会社ＮＰ　Ｃｏｒｐｏｒａｔｉｏｎ,,株式会社,千葉県,成田市,玉造７丁目１番地２（ビレッジハウス成田玉造３号棟４０１号）,,12,211,2860011,,,,,,,2024-10-18,1,,,,,エヌピーコーポレーション,0
1276,5050001055488,新規,0,2024-10-18,2024-10-18,株式会社ｃｏｌｏｒ　ｂｅｅ,,株式会社,茨城県,日立市,諏訪町１丁目２０番１８号,,08,202,3160001,,,,,,,2024-10-18,1,,,,,カラービー,0
1289,5080001026552,新規,0,2024-10-18,2024-10-18,株式会社Ｋ‐ＴＲＵＳＴ,,株式会社,静岡県,焼津市,三和１４６９番地の１,,22,212,4250064,,,,,,,2024-10-18,1,,,,,ケートラスト,0
1291,5080101025066,新規,0,2024-10-18,2024-10-18,株式会社アライブ,,株式会社,静岡県,沼津市,双葉町２番１８－１号,,22,203,4100005,,,,,,,2024-10-18,1,,,,,アライブ,0
1297,5080401027514,新規,0,2024-10-18,2024-10-18,須山アセットマネジメント株式会社,,株式会社,静岡県,浜松市中央区,布橋２丁目６番１号,,22,138,4328012,,,,,,,2024-10-18,1,,,,,スヤマアセットマネジメント,0
1300,5090001018953,新規,0,2024-10-18,2024-10-18,株式会社サポーターシップ,,株式会社,山梨県,山梨市,小原西４７８番地１,,19,205,4050006,,,,,,,2024-10-18,1,,,,,サポーターシップ,0
1303,5110001038767,新規,0,2024-10-18,2024-10-18,株式会社カルアサポート,,株式会社,新潟県,新潟市中央区,鳥屋野南３丁目２８番２９号,,15,103,9500950,,,,,,,2024-10-18,1,,,,,カルアサポート,0
1304,5110001038783,新規,0,2024-10-18,2024-10-18,株式会社Ｅｃｏ　Ｃｕｒａｔｅ,,株式会社,新潟県,新潟市中央区,桜木町１番３号,,15,103,9500949,,,,,,,2024-10-18,1,,,,,エコキュレート,0
1306,5110003005550,新規,0,2024-10-18,2024-10-18,スリーイーディーワークス合同会社,,合同会社,新潟県,新潟市東区,紫竹３丁目９‐２,,15,102,9500864,,,,,,,2024-10-18,1,,,,,スリーイーディーワークス,0
1318,5120001269403,新規,0,2024-10-18,2024-10-18,株式会社ＳＨＯＷ,,株式会社,大阪府,大阪市西区,南堀江１丁目３番１２号ブランズタワー南堀江３１０２,,27,106,5500015,,,,,,,2024-10-18,1,,,,,ショウ,0
1319,5120001269428,新規,0,2024-10-18,2024-10-18,株式会社川野,,株式会社,大阪府,大阪市中央区,南船場３丁目２番２２号おおきに南船場ビル２０５,,27,128,5420081,,,,,,,2024-10-18,1,,,,,カワノ,0
1320,5120001269444,新規,0,2024-10-18,2024-10-18,葵不動産株式会社,,株式会社,大阪府,大阪市西区,江之子島１丁目６番２号,,27,106,5500006,,,,,,,2024-10-18,1,,,,,アオイフドウサン,0
1321,5120001269460,新規,0,2024-10-18,2024-10-18,株式会社Ｓ．Ｗ,,株式会社,大阪府,大阪市東住吉区,山坂３丁目７番４号,,27,121,5460035,,,,,,,2024-10-18,1,,,,,エスダブル,0
1322,5120001269469,新規,0,2024-10-18,2024-10-18,株式会社Ｍｅｄｉａ　Ｆｏｒｗａｒｄ,,株式会社,大阪府,大阪市浪速区,幸町２丁目７番１０－１５０８号,,27,111,5560021,,,,,,,2024-10-18,1,,,,,メディアフォワード,0
1323,5120001269477,新規,0,2024-10-18,2024-10-18,株式会社Ｄｎ４,,株式会社,大阪府,大阪市西成区,天下茶屋２丁目１９番８号,,27,122,5570014,,,,,,,2024-10-18,1,,,,,ディーエヌフォー,0
1324,5120001269642,新規,0,2024-10-18,2024-10-18,株式会社経営戦略総合研究所,,株式会社,大阪府,大阪市北区,梅田１丁目２番２号大阪駅前第２ビル１２－１２,,27,127,5300001,,,,,,,2024-10-18,1,,,,,ケイエイセンリャクソウゴウケンキュウショ,0
1329,5120101070371,新規,0,2024-10-18,2024-10-18,マコト電気株式会社,,株式会社,大阪府,阪南市,光陽台２丁目２７番１２号,,27,232,5990223,,,,,,,2024-10-18,1,,,,,マコトデンキ,0
1333,5120901049912,新規,0,2024-10-18,2024-10-18,株式会社弥栄システム,,株式会社,大阪府,摂津市,学園町１丁目６番１６号,,27,224,5660033,,,,,,,2024-10-18,1,,,,,ヤサカシステム,0
1336,5122001038548,新規,0,2024-10-18,2024-10-18,株式会社グリーンピア,,株式会社,大阪府,八尾市,桜ヶ丘３丁目１２４番地の１－２０２,,27,212,5810869,,,,,,,2024-10-18,1,,,,,グリーンピア,0
1340,5130001078150,新規,0,2024-10-18,2024-10-18,株式会社Ｂｌｏｏｍ,,株式会社,京都府,京都市北区,紫野中柏野町４６番地４,,26,101,6038312,,,,,,,2024-10-18,1,,,,,ブルーム,0
1343,5130003009938,新規,0,2024-10-18,2024-10-18,合同会社エフォート,,合同会社,京都府,京都市山科区,大宅御供田町１番地ＳＱＵＡＲＥ・ＧＡＤＥＮ・ＥＡＳＴ・１Ｆ－Ａ,,26,110,6078192,,,,,,,2024-10-18,1,,,,,エフォート,0
1346,5140001136114,新規,0,2024-10-18,2024-10-18,株式会社ＮＧＫスマイルサポート,,株式会社,兵庫県,芦屋市,若宮町５番１３号（２階）,,28,206,6590027,,,,,,,2024-10-18,1,,,,,エヌジーケースマイルサポート,0
1347,5140001136130,新規,0,2024-10-18,2024-10-18,株式会社ＲＥＳＴＡ,,株式会社,兵庫県,神戸市中央区,熊内橋通７丁目１番１－２０２号,,28,110,6510055,,,,,,,2024-10-18,1,,,,,レスタ,0
1348,5140001136147,新規,0,2024-10-18,2024-10-18,株式会社ＩＢＡ,,株式会社,兵庫県,芦屋市,大原町１７－９－１－２０１,,28,206,6590092,,,,,,,2024-10-18,1,,,,,アイビーエー,0
1350,5140003021215,新規,0,2024-10-18,2024-10-18,Ｒｅｎａｒｄ合同会社,,合同会社,兵庫県,西宮市,産所町１２番２６号,,28,204,6620978,,,,,,,2024-10-18,1,,,,,レナード,0
1352,5140005027235,新規,0,2024-10-18,2024-10-18,ＮＰＯ法人ＫＯＢＥ　ＣＲＡＦＴ　ＷＯＲＫＳ,,その他の設立登記法人,兵庫県,神戸市北区,淡河町北僧尾１７６１番１,,28,109,6511601,,,,,,,2024-10-18,1,,,,,コウベクラフトワークス,0
1355,5170001018350,新規,0,2024-10-18,2024-10-18,株式会社石井建材,,株式会社,和歌山県,和歌山市,六十谷１３４２番地１５９,,30,201,6408482,,,,,,,2024-10-18,1,,,,,イシイケンザイ,0
1361,5180001163617,新規,0,2024-10-18,2024-10-18,株式会社Ｎ‐Ｓｔｙｌｅ,,株式会社,愛知県,名古屋市中区,東桜２丁目２２番１８号,,23,106,4600005,,,,,,,2024-10-18,1,,,,,エヌスタイル,0
1362,5180001163658,新規,0,2024-10-18,2024-10-18,松川智東株式会社,,株式会社,愛知県,名古屋市中区,丸の内１丁目１４番２４号ライオンズビル第二丸の内５０３号,,23,106,4600002,,,,,,,2024-10-18,1,,,,,マツカワチトウ,0
1363,5180001163666,新規,0,2024-10-18,2024-10-18,株式会社つむぎば,,株式会社,愛知県,海部郡蟹江町,学戸１丁目７１番地,,23,425,4970050,,,,,,,2024-10-18,1,,,,,ツムギバ,0
1364,5180001163682,新規,0,2024-10-18,2024-10-18,株式会社ＧＤ,,株式会社,愛知県,名古屋市名東区,香南１丁目４２４番地,,23,115,4650004,,,,,,,2024-10-18,1,,,,,ジーディー,0
1374,5220001026273,新規,0,2024-10-18,2024-10-18,株式会社Ｓｏ．Ｉｇｏ,,株式会社,石川県,金沢市,堅田町ヘ４０番地１（２Ｆ）,,17,201,9200164,,,,,,,2024-10-18,1,,,,,ソイゴ,0
1377,5230003002321,新規,0,2024-10-18,2024-10-18,楓和商事合同会社,,合同会社,富山県,富山市,経堂新町１番地９７,,16,201,9300956,,,,,,,2024-10-18,1,,,,,フウカショウジ,0
1383,5250001020851,新規,0,2024-10-18,2024-10-18,株式会社ＨＡＮＡＭＡＲＵ,,株式会社,山口県,山陽小野田市,大字西高泊字神田沖６１９番１２,,35,216,7560057,,,,,,,2024-10-18,1,,,,,ハナマル,0
1391,5290001107612,新規,0,2024-10-18,2024-10-18,株式会社豊総建,,株式会社,福岡県,糸島市,志摩野北２３２０番地,,40,230,8191303,,,,,,,2024-10-18,1,,,,,ユタカソウケン,0
1392,5290001107620,新規,0,2024-10-18,2024-10-18,株式会社エン・エステート,,株式会社,福岡県,糸島市,前原西４丁目１３番２８号,,40,230,8191117,,,,,,,2024-10-18,1,,,,,エンエステート,0
1393,5290001107637,新規,0,2024-10-18,2024-10-18,株式会社キャリアコネクトジャパン,,株式会社,福岡県,福岡市中央区,大名２丁目１０－４シャンボール大名Ｄ棟１００６,,40,133,8100041,,,,,,,2024-10-18,1,,,,,キャリアコネクトジャパン,0
1398,5290803004858,新規,0,2024-10-18,2024-10-18,合同会社Ｃｏｎｎｅｃｔ,,合同会社,福岡県,直方市,大字感田３２７３番地２１,,40,204,8220001,,,,,,,2024-10-18,1,,,,,コネクト,0
1405,5320003004498,新規,0,2024-10-18,2024-10-18,合同会社アテ,,合同会社,大分県,大分市,中央町３丁目５番２３号渕野ビル１Ｆ,,44,201,8700035,,,,,,,2024-10-18,1,,,,,アテ,0
1409,5330001032558,新規,0,2024-10-18,2024-10-18,株式会社馬見原みやべ,,株式会社,熊本県,上益城郡山都町,馬見原６１番地３,,43,447,8613901,,,,,,,2024-10-18,1,,,,,マミハラミヤベ,0
1417,5360001034246,新規,0,2024-10-18,2024-10-18,株式会社ＡｔｏＹ,,株式会社,沖縄県,那覇市,牧志２丁目１７－２７－４０１,,47,201,9000013,,,,,,,2024-10-18,1,,,,,エートゥワイ,0
1425,5380001034847,新規,0,2024-10-18,2024-10-18,株式会社ＡＬＩＶＥ,,株式会社,福島県,相馬市,石上字二ツ池２０６番地の７,,07,209,9760006,,,,,,,2024-10-18,1,,,,,アライブ,0
1432,5400003003335,新規,0,2024-10-18,2024-10-18,合同会社カタヨセアエバ,,合同会社,岩手県,紫波郡紫波町,片寄字野崎９５番地７,,03,321,0283452,,,,,,,2024-10-18,1,,,,,カタヨセアエバ,0
1440,5470003002735,新規,0,2024-10-18,2024-10-18,合同会社音丸カフェ,,合同会社,香川県,さぬき市,志度４８０番地２,,37,206,7692101,,,,,,,2024-10-18,1,,,,,オトマルカフェ,0
1448,5700150127559,新規,0,2024-10-18,2024-10-18,Ｈｅｌｉｏｓ　ＬＬＶ　Ｅｉｇｈｔ　Ｌｉｍｉｔｅｄ,,外国会社等,,,,,,,,Ｏｎｅ　Ｌｉｍｅ　Ｓｔｒｅｅｔ，Ｌｏｎｄｏｎ　ＥＣ３Ｍ　７ＨＡ　ＵＫ,,,,,,2024-10-18,1,,,,,ヘリオスエルエルブイエイトリミテツド,0
1449,5700150127567,新規,0,2024-10-18,2024-10-18,Ｈｅｌｉｏｓ　ＬＬＶ　Ｓｉｘ　Ｌｉｍｉｔｅｄ,,外国会社等,,,,,,,,Ｏｎｅ　Ｌｉｍｅ　Ｓｔｒｅｅｔ，Ｌｏｎｄｏｎ　ＥＣ３Ｍ　７ＨＡ　ＵＫ,,,,,,2024-10-18,1,,,,,ヘリオスエルエルブイシツクスリミテツド,0
1450,5700150127575,新規,0,2024-10-18,2024-10-18,Ｈｅｄｉａｒｄ　Ｅｖｅｎｔｓ　ＳＡＳ,,外国会社等,,,,,,,,７５００８　Ｐａｒｉｓ　８，１　Ｄｕ　Ｈａｖｒｅ,,,,,,2024-10-18,1,,,,,ヘデイアードイベントエスエーエス,0
1460,6010001248961,新規,0,2024-10-18,2024-10-18,株式会社オープンハウス・ホテルマネジメント,,株式会社,東京都,千代田区,丸の内２丁目７番２号,,13,101,1000005,,,,,,,2024-10-18,1,,,,,オープンハウスホテルマネジメント,0
1461,6010001249051,新規,0,2024-10-18,2024-10-18,株式会社Ｐｒｅｓｉａ,,株式会社,東京都,中央区,勝どき５丁目１０番１０号東京ミッドベイ勝どき１１０２,,13,102,1040054,,,,,,,2024-10-18,1,,,,,プレシア,0
1462,6010001249068,新規,0,2024-10-18,2024-10-18,Ｈｏｌｌｙｌａｎｄ　Ｊａｐａｎ株式会社,,株式会社,東京都,千代田区,神田鍛冶町３丁目４ｏａｋ神田鍛冶町７Ｆ,,13,101,1010045,,,,,,,2024-10-18,1,,,,,ホーリランドジャパン,0
1463,6010001249076,新規,0,2024-10-18,2024-10-18,株式会社Ｍａｒｉｔｉｍｅ　Ｖｅｎｔｕｒｅｓ＆Ｐａｒｔｎｅｒｓ,,株式会社,東京都,千代田区,丸の内１丁目８－３丸の内トラストタワー本館２０階,,13,101,1000005,,,,,,,2024-10-18,1,,,,,マリタイムベンチャーズアンドパートナーズ,0
1464,6010001249092,新規,0,2024-10-18,2024-10-18,株式会社セントラル,,株式会社,東京都,中央区,日本橋小網町１－１３－７０２,,13,102,1030016,,,,,,,2024-10-18,1,,,,,セントラル,0
1465,6010001249118,新規,0,2024-10-18,2024-10-18,株式会社Ｎ２コラボ,,株式会社,東京都,中央区,銀座４丁目１４番４号,,13,102,1040061,,,,,,,2024-10-18,1,,,,,エヌツーコラボ,0
1469,6010003045242,新規,0,2024-10-18,2024-10-18,スマートフレックス合同会社,,合同会社,東京都,中央区,晴海２丁目２－４２パークタワー晴海４１０１,,13,102,1040053,,,,,,,2024-10-18,1,,,,,スマートフレックス,0
1471,6010101016376,新規,0,2024-10-18,2024-10-18,株式会社サルガク,,株式会社,東京都,八王子市,暁町２丁目２８－２１Ｔ＆Ｔビル３Ｆ,,13,201,1920043,,,,,,,2024-10-18,1,,,,,サルガク,0
1480,6010401185706,新規,0,2024-10-18,2024-10-18,株式会社ＨＬＸ,,株式会社,東京都,港区,浜松町２丁目７番１７号イーグル浜松町天翔オフィス浜松町大門１０階１０３８,,13,103,1050013,,,,,,,2024-10-18,1,,,,,エイチエルエックス,0
1481,6010401185739,新規,0,2024-10-18,2024-10-18,株式会社ＳｏｃｉａｌＬｉｎｅ,,株式会社,東京都,港区,南青山２丁目２番１５号,,13,103,1070062,,,,,,,2024-10-18,1,,,,,ソーシャルライン,0
1482,6010401185763,新規,0,2024-10-18,2024-10-18,株式会社ＫＣＨホールディングス,,株式会社,東京都,港区,六本木１丁目６番１号,,13,103,1060032,,,,,,,2024-10-18,1,,,,,ケーシーエイチホールディングス,0
1483,6010401185796,新規,0,2024-10-18,2024-10-18,ＦｉｌＭＡＸ株式会社,,株式会社,東京都,港区,新橋３丁目４番１０号,,13,103,1050004,,,,,,,2024-10-18,1,,,,,フィルマックス,0
1491,6010405023688,新規,0,2024-10-18,2024-10-18,ＧＡＲＮＥＴ四ツ橋一般社団法人,,その他の設立登記法人,東京都,港区,六本木１丁目６番１号泉ガーデンタワー１２階,,13,103,1060032,,,,,,,2024-10-18,1,,,,,ガーネットヨツバシ,0
1495,6010501052995,新規,0,2024-10-18,2024-10-18,株式会社シスコアセット,,株式会社,東京都,台東区,駒形２丁目５番８号,,13,106,1110043,,,,,,,2024-10-18,1,,,,,シスコアセット,0
1497,6010701046698,新規,0,2024-10-18,2024-10-18,株式会社ＧＯＡＴ,,株式会社,東京都,品川区,豊町１丁目７番２３号パステル戸越２０８,,13,109,1420042,,,,,,,2024-10-18,1,,,,,ゴート,0
1508,6011001165164,新規,0,2024-10-18,2024-10-18,株式会社ワイズ,,株式会社,東京都,渋谷区,道玄坂１丁目１０番８号渋谷道玄坂東急ビル２Ｆ－Ｃ,,13,113,1500043,,,,,,,2024-10-18,1,,,,,ワイズ,0
1509,6011001165172,新規,0,2024-10-18,2024-10-18,株式会社リバース,,株式会社,東京都,渋谷区,代々木２丁目１８－４ガリシア代々木９０４号,,13,113,1510053,,,,,,,2024-10-18,1,,,,,リバース,0
1510,6011001165189,新規,0,2024-10-18,2024-10-18,株式会社ＴＥＮＡＲＡＩ,,株式会社,東京都,渋谷区,道玄坂１丁目１０番８号渋谷道玄坂東急ビル２Ｆ－Ｃ,,13,113,1500043,,,,,,,2024-10-18,1,,,,,テナライ,0
1511,6011001165255,新規,0,2024-10-18,2024-10-18,株式会社ＡＺｃｏｎｎｅｃｔ,,株式会社,東京都,目黒区,下目黒１丁目１番１４号コノトラビル７Ｆ,,13,110,1530064,,,,,,,2024-10-18,1,,,,,アズコネクト,0
1512,6011001165263,新規,0,2024-10-18,2024-10-18,株式会社ボストンズ,,株式会社,東京都,渋谷区,代々木３丁目３２番３－３０８号,,13,113,1510053,,,,,,,2024-10-18,1,,,,,ボストンズ,0
1513,6011001165271,新規,0,2024-10-18,2024-10-18,株式会社ダリティーサポート,,株式会社,東京都,渋谷区,道玄坂１丁目１０番８号渋谷道玄坂東急ビル２Ｆ－Ｃ,,13,113,1500043,,,,,,,2024-10-18,1,,,,,ダリティーサポート,0
1516,6011003020202,新規,0,2024-10-18,2024-10-18,合同会社アクシア,,合同会社,東京都,渋谷区,恵比寿西２丁目８番４号ＥＸ恵比寿西ビル５Ｆ,,13,113,1500021,,,,,,,2024-10-18,1,,,,,アクシア,0
1523,6011101109186,新規,0,2024-10-18,2024-10-18,株式会社ＺＯＯ　ＴＡＯ,,株式会社,東京都,新宿区,北新宿４丁目１番６号プレミアムキューブＧ北新宿７０８,,13,104,1690074,,,,,,,2024-10-18,1,,,,,ズータオ,0
1524,6011101109194,新規,0,2024-10-18,2024-10-18,株式会社Ｉ．Ｓ,,株式会社,東京都,新宿区,西新宿５丁目５番１－４６０７号,,13,104,1600023,,,,,,,2024-10-18,1,,,,,アイエス,0
1525,6011103015060,新規,0,2024-10-18,2024-10-18,合同会社マンティス,,合同会社,東京都,新宿区,河田町３番５１－１７１２号,,13,104,1620054,,,,,,,2024-10-18,1,,,,,マンティス,0
1526,6011103015069,新規,0,2024-10-18,2024-10-18,合同会社Ｄｅｌｉｇｈｔ　Ｅａｒｔｈ,,合同会社,東京都,新宿区,新宿５丁目１７番２号ＹＭビル６０１,,13,104,1600022,,,,,,,2024-10-18,1,,,,,デライトアース,0
1527,6011103015077,新規,0,2024-10-18,2024-10-18,合同会社リバーキャッチ,,合同会社,東京都,新宿区,住吉町４番１４－２０３号,,13,104,1620065,,,,,,,2024-10-18,1,,,,,リバーキャッチ,0
1528,6011301030092,新規,0,2024-10-18,2024-10-18,ＵＤＨＢＩ株式会社,,株式会社,東京都,杉並区,成田東４丁目２９番９号,,13,115,1660015,,,,,,,2024-10-18,1,,,,,ウディビ,0
1529,6011401026511,新規,0,2024-10-18,2024-10-18,株式会社Ｃｉｒｃｌｅ・Ｔ,,株式会社,東京都,板橋区,蓮沼町２９番１１号,,13,119,1740052,,,,,,,2024-10-18,1,,,,,サークルティー,0
1530,6011501031279,新規,0,2024-10-18,2024-10-18,＿泉聚澤株式会社,00136678,株式会社,東京都,荒川区,東日暮里３丁目４１－３－１０３藤ハイツ,,13,118,1160014,,,,,,,2024-10-18,1,,,,,ジュンクアンジュゼ,0
1539,6011801045004,新規,0,2024-10-18,2024-10-18,サイマテリアル株式会社,,株式会社,東京都,足立区,宮城１丁目２９番１０号,,13,121,1200047,,,,,,,2024-10-18,1,,,,,サイマテリアル,0
1540,6011801045012,新規,0,2024-10-18,2024-10-18,株式会社Ｆ‐ＷＩＮＧ,,株式会社,東京都,足立区,綾瀬３丁目１６番１８－７０２号,,13,121,1200005,,,,,,,2024-10-18,1,,,,,エフウイング,0
1544,6013301053230,新規,0,2024-10-18,2024-10-18,株式会社Ｐｉｎｅｔｒｅｅ　Ｈｅａｌｔｈ　Ｔｏｋｙｏ,,株式会社,東京都,豊島区,池袋２丁目６６番３－２０１号,,13,116,1710014,,,,,,,2024-10-18,1,,,,,パインツリーヘルストウキョウ,0
1549,6020001159679,新規,0,2024-10-18,2024-10-18,株式会社ＳＫＹＨＩＧＨ,,株式会社,神奈川県,横浜市金沢区,能見台６丁目８番地３プライムステージ能見台１０４号,,14,108,2360057,,,,,,,2024-10-18,1,,,,,スカイハイ,0
1550,6020001159745,新規,0,2024-10-18,2024-10-18,株式会社Ｓｉｍｐｌａｋｅ,,株式会社,神奈川県,横浜市中区,若葉町３丁目４５－１サンクレイドル横濱伊勢佐木８０１,,14,104,2310056,,,,,,,2024-10-18,1,,,,,シンプレイク,0
1553,6020005016570,新規,0,2024-10-18,2024-10-18,一般社団法人三田ソッカー倶楽部,,その他の設立登記法人,神奈川県,横浜市港北区,日吉本町２丁目５９番２号,,14,109,2230062,,,,,,,2024-10-18,1,,,,,ミタソッカークラブ,0
1557,6021001083514,新規,0,2024-10-18,2024-10-18,聯友科技日本株式会社,,株式会社,神奈川県,厚木市,中町４丁目１４番１号サクセス本厚木ビル,,14,212,2430018,,,,,,,2024-10-18,1,,,,,レンユウカギニホン,0
1561,6021005013203,新規,0,2024-10-18,2024-10-18,一般社団法人Ｌｉｎｋ　ｈｅａｒｔ,,その他の設立登記法人,神奈川県,座間市,ひばりが丘３丁目６番５号,,14,216,2520003,,,,,,,2024-10-18,1,,,,,リンクハート,0
1571,6030001162913,新規,0,2024-10-18,2024-10-18,東京成功株式会社,,株式会社,埼玉県,さいたま市北区,吉野町１丁目４３８番地２３、１Ｆ,,11,102,3310811,,,,,,,2024-10-18,1,,,,,トウキョウセイコウ,0
1572,6030001162954,新規,0,2024-10-18,2024-10-18,天照らす株式会社,,株式会社,埼玉県,和光市,下新倉４丁目２７－１０－６０１,,11,229,3510111,,,,,,,2024-10-18,1,,,,,テンテラス,0
1573,6030001162970,新規,0,2024-10-18,2024-10-18,モテギ電工株式会社,,株式会社,埼玉県,児玉郡美里町,大字古郡２７７番地２,,11,381,3670111,,,,,,,2024-10-18,1,,,,,モテギデンコウ,0
1574,6030001162979,新規,0,2024-10-18,2024-10-18,株式会社ＴＭ３,,株式会社,埼玉県,三郷市,彦成３丁目１２番２２号,,11,237,3410003,,,,,,,2024-10-18,1,,,,,ティーエムスリー,0
1575,6030001162995,新規,0,2024-10-18,2024-10-18,徳馬科技株式会社,,株式会社,埼玉県,さいたま市大宮区,桜木町１丁目２６６番地３シンワＫＩビル４０９号室,,11,103,3300854,,,,,,,2024-10-18,1,,,,,トクマカギ,0
1576,6030001163060,新規,0,2024-10-18,2024-10-18,解良工業株式会社,,株式会社,埼玉県,さいたま市緑区,原山２丁目３３番８号７－１０６,,11,109,3360931,,,,,,,2024-10-18,1,,,,,ケラコウギョウ,0
1579,6030003025341,新規,0,2024-10-18,2024-10-18,ミッション４７合同会社,,合同会社,埼玉県,児玉郡上里町,大字神保原町２０２２番地２,,11,385,3690305,,,,,,,2024-10-18,1,,,,,ミッションヨンジュウナナ,0
1584,6040001135868,新規,0,2024-10-18,2024-10-18,ＢＲＴ　ＪＡＰＡＮ株式会社,,株式会社,千葉県,八千代市,勝田台１丁目２８番１号樫山ビル２０１,,12,221,2760023,,,,,,,2024-10-18,1,,,,,ビーアールティージャパン,0
1588,6040003026025,新規,0,2024-10-18,2024-10-18,合同会社ＭＥＤＩＡＨＯＬＩＣ,,合同会社,千葉県,木更津市,本郷２丁目１－４,,12,206,2920015,,,,,,,2024-10-18,1,,,,,メディアホリック,0
1590,6050001055545,新規,0,2024-10-18,2024-10-18,株式会社石川ＧＲＯＵＰ,,株式会社,茨城県,筑西市,谷永島５０４番地,,08,227,3091121,,,,,,,2024-10-18,1,,,,,イシカワグループ,0
1591,6050001055553,新規,0,2024-10-18,2024-10-18,株式会社ハロミックス和,,株式会社,茨城県,水戸市,千波町４２２番地７,,08,201,3100851,,,,,,,2024-10-18,1,,,,,ハロミックスワ,0
1593,6050005013508,新規,0,2024-10-18,2024-10-18,一般社団法人古河創生研究会,,その他の設立登記法人,茨城県,古河市,中田新田３４番地６４,,08,204,3060054,,,,,,,2024-10-18,1,,,,,コガソウセイケンキュウカイ,0
1597,6070001042277,新規,0,2024-10-18,2024-10-18,株式会社十魚十色,,株式会社,群馬県,桐生市,相生町５丁目４５９番地の４,,10,203,3760011,,,,,,,2024-10-18,1,,,,,ジュウギョトイロ,0
1598,6070001042285,新規,0,2024-10-18,2024-10-18,株式会社ＳＧ‐Ｌｏｇｉ,,株式会社,群馬県,前橋市,今井町１２３番地１,,10,201,3792116,,,,,,,2024-10-18,1,,,,,エスジーロジ,0
1603,6080401027513,新規,0,2024-10-18,2024-10-18,シマ商会株式会社,,株式会社,静岡県,磐田市,駒場７２６０番地１,,22,211,4380233,,,,,,,2024-10-18,1,,,,,シマショウカイ,0
1609,6100001037934,新規,0,2024-10-18,2024-10-18,株式会社ＴＡＨＩＲ　ＴＲＡＤＩＮＧ,,株式会社,長野県,埴科郡坂城町,大字上平２２９１番地４３,,20,521,3890605,,,,,,,2024-10-18,1,,,,,タヒルトレーディング,0
1610,6110001038782,新規,0,2024-10-18,2024-10-18,株式会社エスディエム,,株式会社,新潟県,上越市,大和２丁目４番１６－２１号,,15,222,9430861,,,,,,,2024-10-18,1,,,,,エスディエム,0
1626,6120001269443,新規,0,2024-10-18,2024-10-18,株式会社エイエム企画,,株式会社,大阪府,大阪市住吉区,我孫子西２丁目２番１５号,,27,120,5580015,,,,,,,2024-10-18,1,,,,,エイエムキカク,0
1627,6120001269468,新規,0,2024-10-18,2024-10-18,Ｗｉｚａｒｄ　Ｃｏｎｓｕｌｔｉｎｇ株式会社,,株式会社,大阪府,大阪市浪速区,日本橋５丁目１１番２－９０１号,,27,111,5560005,,,,,,,2024-10-18,1,,,,,ウィザードコンサルティング,0
1628,6120001269476,新規,0,2024-10-18,2024-10-18,函青株式会社,,株式会社,大阪府,大阪市中央区,農人橋２丁目１番３５号,,27,128,5400011,,,,,,,2024-10-18,1,,,,,カンセイ,0
1629,6120001269484,新規,0,2024-10-18,2024-10-18,株式会社アドランス,,株式会社,大阪府,枚方市,茄子作南町２９６番地の１０,,27,210,5730072,,,,,,,2024-10-18,1,,,,,アドランス,0
1630,6120001269600,新規,0,2024-10-18,2024-10-18,株式会社Ｌｉｂｒａ,,株式会社,大阪府,大阪市中央区,安土町２丁目５番５号本町明大ビル３階,,27,128,5410052,,,,,,,2024-10-18,1,,,,,リブラ,0
1638,6120105009919,新規,0,2024-10-18,2024-10-18,クボタグローバル技術研究所ユニオン,,その他の設立登記法人,大阪府,堺市堺区,匠町１番地１１株式会社クボタグローバル技術研究所,,27,141,5900908,,,,,,,2024-10-18,1,,,,,クボタグローバルギジュツケンキュウショユニオン,0
1648,6130001078174,新規,0,2024-10-18,2024-10-18,株式会社アルタル,,株式会社,京都府,八幡市,八幡久保田５番地の２０,,26,210,6148045,,,,,,,2024-10-18,1,,,,,アルタル,0
1660,6140001136121,新規,0,2024-10-18,2024-10-18,株式会社バイオトランス,,株式会社,兵庫県,神戸市垂水区,舞子台７丁目１番２－１１０２号,,28,108,6550046,,,,,,,2024-10-18,1,,,,,バイオトランス,0
1661,6140001136138,新規,0,2024-10-18,2024-10-18,株式会社ＢＬＵＡＢＬＥ,,株式会社,兵庫県,宝塚市,社町２０番７号,,28,214,6650071,,,,,,,2024-10-18,1,,,,,,0
1662,6140001136146,新規,0,2024-10-18,2024-10-18,株式会社グッドリビング,,株式会社,兵庫県,三木市,緑が丘町西２丁目１２番地の７,,28,215,6730531,,,,,,,2024-10-18,1,,,,,グッドリビング,0
1666,6150001027609,新規,0,2024-10-18,2024-10-18,株式会社エアモア,,株式会社,奈良県,生駒市,高山町５６５５,,29,209,6300101,,,,,,,2024-10-18,1,,,,,エアモア,0
1673,6180001163657,新規,0,2024-10-18,2024-10-18,株式会社ＹＳルーフ,,株式会社,愛知県,丹羽郡扶桑町,大字高雄字堂子２３１番地１,,23,362,4800102,,,,,,,2024-10-18,1,,,,,ワイエスルーフ,0
1675,6180003027447,新規,0,2024-10-18,2024-10-18,合同会社１号,,合同会社,愛知県,稲沢市,祖父江町桜方笹原６１番地２,,23,220,4950015,,,,,,,2024-10-18,1,,,,,イチゴウ,0
1679,6190001031739,新規,0,2024-10-18,2024-10-18,Ｓ‐ＲＩＳＥ株式会社,,株式会社,三重県,津市,榊原町１２９７番地,,24,201,5141251,,,,,,,2024-10-18,1,,,,,エスライズ,0
1680,6200005013673,新規,0,2024-10-18,2024-10-18,一般社団法人ワークスタイル協会,,その他の設立登記法人,岐阜県,岐阜市,柳津町梅松４丁目１１５番地ハイツ杉山３Ｂ１０３号室,,21,201,5016105,,,,,,,2024-10-18,1,,,,,ワークスタイルキョウカイ,0
1687,6230001020571,新規,0,2024-10-18,2024-10-18,ＶＡＮＣＨＡ株式会社,,株式会社,富山県,氷見市,窪１３５５番地,,16,205,9350024,,,,,,,2024-10-18,1,,,,,ヴァンチャ,0
1691,6250001020850,新規,0,2024-10-18,2024-10-18,株式会社クリエイティブ・ワンダー,,株式会社,山口県,美祢市,秋芳町岩永本郷１１３１番地,,35,213,7540512,,,,,,,2024-10-18,1,,,,,クリエイティブワンダー,0
1710,6290001107611,新規,0,2024-10-18,2024-10-18,株式会社ＫＴＹサポート,,株式会社,福岡県,久留米市,篠山町２７７番地,,40,203,8300021,,,,,,,2024-10-18,1,,,,,ケーティーワイサポート,0
1711,6290001107636,新規,0,2024-10-18,2024-10-18,株式会社Ｗｉｔｈ　Ｈｏｓｐｉｔａｌｉｔｙ,,株式会社,福岡県,福岡市中央区,天神２丁目２番１２号Ｔ＆Ｊビルディング７Ｆ,,40,133,8100001,,,,,,,2024-10-18,1,,,,,ウィズホスピタリティ,0
1715,6290803004857,新規,0,2024-10-18,2024-10-18,合同会社Ｋ‐ＳＴＹＬＥ,,合同会社,福岡県,北九州市小倉南区,横代東町２丁目１３番２５号１０１,,40,107,8020822,,,,,,,2024-10-18,1,,,,,ケイスタイル,0
1725,6370003006786,新規,0,2024-10-18,2024-10-18,合同会社ジェス,,合同会社,宮城県,石巻市,広渕字町浦一１８２番地１,,04,202,9871222,,,,,,,2024-10-18,1,,,,,ジェス,0
1732,6390003002296,新規,0,2024-10-18,2024-10-18,合同会社シアフル,,合同会社,山形県,東田川郡三川町,大字横山字土橋１１１番地２,,06,426,9971301,,,,,,,2024-10-18,1,,,,,シアフル,0
1733,6400003003334,新規,0,2024-10-18,2024-10-18,合同会社Ｏ．Ｃ．Ｐｌａｎｎｉｎｇ,,合同会社,岩手県,一関市,萩荘字小繋２９番地１９,00136682,03,209,0210902,,,,,,,2024-10-18,1,,,,,,0
1741,6470003002734,新規,0,2024-10-18,2024-10-18,合同会社ＳＫＥ,,合同会社,香川県,高松市,錦町１丁目２１番２２－１４０２号,,37,201,7600020,,,,,,,2024-10-18,1,,,,,エスケーイー,0
1749,6700150127566,新規,0,2024-10-18,2024-10-18,Ｈｅｌｉｏｓ　ＬＬＶ　Ｓｅｖｅｎ　Ｌｉｍｉｔｅｄ,,外国会社等,,,,,,,,Ｏｎｅ　Ｌｉｍｅ　Ｓｔｒｅｅｔ，Ｌｏｎｄｏｎ　ＥＣ３Ｍ　７ＨＡ　ＵＫ,,,,,,2024-10-18,1,,,,,ヘリオスエルエルブイセブンリミテツド,0
1750,6700150127574,新規,0,2024-10-18,2024-10-18,ＳｕｐｅｒｂＥｘｃｅｌｌｅｎｃｅＬｉｍｉｔｅｄ,,外国会社等,,,,,,,,９／Ｆ．，ＨｉｐＳｈｉｎｇＨｏｎｇＣｅｎｔｒｅ，５５ＤｅｓＶｏｅｕｘＲｏａｄＣｅｎｔｒａｌ，Ｃｅｎｔｒａｌ，ＨｏｎｇＫｏｎｇ,,,,,,2024-10-18,1,,,,,スパーブエクセレンスリミテツド,0
1761,7010001249050,新規,0,2024-10-18,2024-10-18,株式会社メディカ・ワン,,株式会社,東京都,中央区,日本橋兜町１７－２兜町第６葉山ビル４Ｆ,,13,102,1030026,,,,,,,2024-10-18,1,,,,,メディカワン,0
1762,7010001249075,新規,0,2024-10-18,2024-10-18,株式会社花咲,,株式会社,東京都,中央区,晴海２丁目２番４２－３３１２号,,13,102,1040053,,,,,,,2024-10-18,1,,,,,ハナサキ,0
1763,7010001249091,新規,0,2024-10-18,2024-10-18,ＣＯＬＤＲＡＷ株式会社,,株式会社,東京都,中央区,日本橋室町２丁目１番１号日本橋三井タワー６階,,13,102,1030022,,,,,,,2024-10-18,1,,,,,コールドロウ,0
1764,7010001249109,新規,0,2024-10-18,2024-10-18,ｆｏｂａｌ株式会社,,株式会社,東京都,中央区,佃２丁目１番２－１６０１号,,13,102,1040051,,,,,,,2024-10-18,1,,,,,フォーバル,0
1765,7010001249125,新規,0,2024-10-18,2024-10-18,Ｃ‐ＭＥＩ　ＳＥＬＥＣＴＩＯＮ株式会社,,株式会社,東京都,中央区,東日本橋２丁目２番１－４０２号,,13,102,1030004,,,,,,,2024-10-18,1,,,,,シーメイセレクション,0
1769,7010003045225,新規,0,2024-10-18,2024-10-18,合同会社ＴＯＭＭＹ,,合同会社,東京都,中央区,銀座８丁目７番１８号銀座かなめ屋・宝和共同ビル４階,,13,102,1040061,,,,,,,2024-10-18,1,,,,,トミー,0
1770,7010003045266,新規,0,2024-10-18,2024-10-18,宝庵合同会社,,合同会社,東京都,中央区,銀座１丁目２２番１１号銀座大竹ビジデンス２Ｆ,,13,102,1040061,,,,,,,2024-10-18,1,,,,,ホウアン,0
1781,7010401185779,新規,0,2024-10-18,2024-10-18,株式会社ミーオ,,株式会社,東京都,港区,赤坂１丁目１２番３２号,,13,103,1070052,,,,,,,2024-10-18,1,,,,,ミーオ,0
1782,7010401185795,新規,0,2024-10-18,2024-10-18,株式会社ＥＣＯＴＯＮＥ,,株式会社,東京都,港区,赤坂５丁目３番１号,,13,103,1070052,,,,,,,2024-10-18,1,,,,,エコトーン,0
1783,7010401185837,新規,0,2024-10-18,2024-10-18,ｔｓｕｎａｇｕ株式会社,,株式会社,東京都,港区,西麻布４丁目１６番３号リビオレジデンス西麻布１２０４,,13,103,1060031,,,,,,,2024-10-18,1,,,,,ツナグ,0
1784,7010401185845,新規,0,2024-10-18,2024-10-18,株式会社アールイーテック,,株式会社,東京都,港区,芝５丁目３１－１７,,13,103,1080014,,,,,,,2024-10-18,1,,,,,アールイーテック,0
1785,7010401185853,新規,0,2024-10-18,2024-10-18,株式会社ＳｈｏｒｔＭａｘ,,株式会社,東京都,港区,芝５丁目２７番３号ＭＢＣ－Ｂ－１６６号,,13,103,1080014,,,,,,,2024-10-18,1,,,,,ショートマックス,0
1789,7010403033630,新規,0,2024-10-18,2024-10-18,合同会社三,,合同会社,東京都,港区,赤坂９丁目７番２号ミッドタウン・イースト４階,,13,103,1070052,,,,,,,2024-10-18,1,,,,,サン,0
1791,7010601066110,新規,0,2024-10-18,2024-10-18,株式会社丸十,,株式会社,東京都,江東区,豊洲６丁目５番１号,,13,108,1350061,,,,,,,2024-10-18,1,,,,,マルジュウ,0
1792,7010603011147,新規,0,2024-10-18,2024-10-18,合同会社ヒトスミ,,合同会社,東京都,墨田区,押上１丁目１８－６ヨシトモビル２階,,13,107,1310045,,,,,,,2024-10-18,1,,,,,ヒトスミ,0
1794,7010701046697,新規,0,2024-10-18,2024-10-18,Ｗｉｎｓａｎｅ株式会社,,株式会社,東京都,品川区,東中延１丁目９番１３号ザ・パークハビオ荏原中延駅前１１０７,,13,109,1420052,,,,,,,2024-10-18,1,,,,,ウィンセイン,0
1803,7010901056133,新規,0,2024-10-18,2024-10-18,ロックサーマルソリューション株式会社,,株式会社,東京都,世田谷区,太子堂２丁目４番２１号,,13,112,1540004,,,,,,,2024-10-18,1,,,,,ロックサーマルソリューション,0
1804,7010903009428,新規,0,2024-10-18,2024-10-18,合同会社ＢＯＴ,,合同会社,東京都,世田谷区,船橋１丁目４４－８,,13,112,1560055,,,,,,,2024-10-18,1,,,,,ビーオーティー,0
1815,7011001165262,新規,0,2024-10-18,2024-10-18,株式会社マルコジカンパニー,,株式会社,東京都,渋谷区,代々木４丁目５６番１０－２０９号,,13,113,1510053,,,,,,,2024-10-18,1,,,,,マルコジカンパニー,0
1816,7011001165270,新規,0,2024-10-18,2024-10-18,株式会社唐,,株式会社,東京都,渋谷区,道玄坂１丁目１０番８号渋谷道玄坂東急ビル２Ｆ－Ｃ,,13,113,1500043,,,,,,,2024-10-18,1,,,,,タン,0
1817,7011001165304,新規,0,2024-10-18,2024-10-18,株式会社ｐｏｐｌｓ　ｐｒｏｊｅｃｔ,,株式会社,東京都,渋谷区,道玄坂２丁目１６－７花菱ビル３Ｆ,,13,113,1500043,,,,,,,2024-10-18,1,,,,,ポプルスプロジェクト,0
1818,7011001165312,新規,0,2024-10-18,2024-10-18,ＡＩＯＮＡ株式会社,,株式会社,東京都,渋谷区,道玄坂１丁目１０番８号渋谷道玄坂東急ビル２Ｆ－Ｃ,,13,113,1500043,,,,,,,2024-10-18,1,,,,,アイオナ,0
1822,7011003020176,新規,0,2024-10-18,2024-10-18,合同会社さくらにまく,,合同会社,東京都,渋谷区,神泉町１０番１５号アネックス神泉３０１,,13,113,1500045,,,,,,,2024-10-18,1,,,,,サクラニマク,0
1824,7011101109169,新規,0,2024-10-18,2024-10-18,ＡＲＡＴＡ株式会社,,株式会社,東京都,新宿区,西新宿３丁目３番１３号西新宿水間ビル２Ｆ,,13,104,1600023,,,,,,,2024-10-18,1,,,,,アラタ,0
1825,7011101109185,新規,0,2024-10-18,2024-10-18,株式会社ＭｙＬｏｐｐｉ,,株式会社,東京都,新宿区,歌舞伎町２丁目１０番５号Ｇ１ビル７階,,13,104,1600021,,,,,,,2024-10-18,1,,,,,マイロッピー,0
1826,7011101109202,新規,0,2024-10-18,2024-10-18,株式会社ＹＥＭ,,株式会社,東京都,新宿区,大久保２丁目１番８号プラザ新大樹ビル６階,,13,104,1690072,,,,,,,2024-10-18,1,,,,,ワイイーエム,0
1827,7011101109210,新規,0,2024-10-18,2024-10-18,株式会社ＡＸＩＯＮ,,株式会社,東京都,新宿区,西新宿６丁目５番１号新宿アイランドタワー２階,,13,104,1600023,,,,,,,2024-10-18,1,,,,,アクシオン,0
1829,7011103015068,新規,0,2024-10-18,2024-10-18,合同会社ＤａｚｚＯＮＥ,,合同会社,東京都,新宿区,新宿５丁目１７番２号ＹＭビル６０１,,13,104,1600022,,,,,,,2024-10-18,1,,,,,ダズワン,0
1832,7011301030091,新規,0,2024-10-18,2024-10-18,株式会社エイコウファーマシー,,株式会社,東京都,杉並区,上荻４丁目１番５号,,13,115,1670043,,,,,,,2024-10-18,1,,,,,エイコウファーマシー,0
1835,7011501031278,新規,0,2024-10-18,2024-10-18,株式会社Ｃｏ‐ｎｅｘｔ　Ｐｒｏ．,,株式会社,東京都,荒川区,町屋７丁目４番１２号,,13,118,1160001,,,,,,,2024-10-18,1,,,,,コネクトプロ,0
1838,7011603004487,新規,0,2024-10-18,2024-10-18,ＫＩＷカンパニー合同会社,,合同会社,東京都,練馬区,高野台３丁目７番８号,,13,120,1770033,,,,,,,2024-10-18,1,,,,,ケーアイダブリューカンパニー,0
1840,7011801045011,新規,0,2024-10-18,2024-10-18,株式会社Ｆｉｏｌｌ,,株式会社,東京都,葛飾区,青戸６丁目２８番７号,,13,122,1250062,,,,,,,2024-10-18,1,,,,,フィオル,0
1842,7011803006507,新規,0,2024-10-18,2024-10-18,合同会社ＦＬＡＲＥ,,合同会社,東京都,足立区,一ツ家３丁目１２番４－１０４号,,13,121,1210075,,,,,,,2024-10-18,1,,,,,フレア,0
1844,7013301053246,新規,0,2024-10-18,2024-10-18,株式会社結ワークス,,株式会社,東京都,豊島区,北大塚１丁目１９番１２号,,13,116,1700004,,,,,,,2024-10-18,1,,,,,ユイワークス,0
1850,7020001159488,新規,0,2024-10-18,2024-10-18,ＤＭＡＣＫ株式会社,,株式会社,神奈川県,川崎市中原区,上小田中６丁目１９番９号,,14,133,2110053,,,,,,,2024-10-18,1,,,,,ディーマック,0
1851,7020001159744,新規,0,2024-10-18,2024-10-18,レイズアールジャパン株式会社,,株式会社,神奈川県,横浜市西区,北幸２丁目１０番４８号むつみビル３階,,14,103,2200004,,,,,,,2024-10-18,1,,,,,レイズアールジャパン,0
1857,7021001083505,新規,0,2024-10-18,2024-10-18,株式会社ＭＫ　Ｕｎｉｔｅｄ,,株式会社,神奈川県,厚木市,金田１０３０番地,,14,212,2430807,,,,,,,2024-10-18,1,,,,,エムケーユナイテッド,0
1865,7030001162978,新規,0,2024-10-18,2024-10-18,株式会社キノシタホーム,,株式会社,埼玉県,川越市,広栄町２１番地１,,11,201,3501117,,,,,,,2024-10-18,1,,,,,キノシタホーム,0
1866,7030001163019,新規,0,2024-10-18,2024-10-18,株式会社ＬｏｎｇＧａｍｅ,,株式会社,埼玉県,さいたま市大宮区,高鼻町２丁目３０２－１半田マンション１０６,,11,103,3300803,,,,,,,2024-10-18,1,,,,,ロングゲーム,0
1867,7030001163043,新規,0,2024-10-18,2024-10-18,株式会社君島住設,,株式会社,埼玉県,草加市,吉町１丁目５番１２号,,11,221,3400017,,,,,,,2024-10-18,1,,,,,キミシマジュウセツ,0
1868,7030003025332,新規,0,2024-10-18,2024-10-18,佳旭合同会社,,合同会社,埼玉県,八潮市,大字大瀬１４０７－６１,,11,234,3400822,,,,,,,2024-10-18,1,,,,,カキョク,0
1869,7030003025340,新規,0,2024-10-18,2024-10-18,合同会社Ｏｎｅスタイル,,合同会社,埼玉県,さいたま市北区,今羽町２３５番地３メゾンクレールＩＩ２０５,00136679,11,102,3310801,,,,,,,2024-10-18,1,,,,,ワンスタイル,0
1871,7040001135867,新規,0,2024-10-18,2024-10-18,株式会社ＴＳＹ,,株式会社,千葉県,印西市,木下６７８番地４－１０１Ｂ,,12,231,2701326,,,,,,,2024-10-18,1,,,,,ティーエスワイ,0
1874,7040003026008,新規,0,2024-10-18,2024-10-18,岩出加工工房フリーダム合同会社,,合同会社,千葉県,君津市,西原１０９９,,12,225,2920402,,,,,,,2024-10-18,1,,,,,イワデカコウコウボウ,0
1877,7050001055552,新規,0,2024-10-18,2024-10-18,アイモファーマシー株式会社,,株式会社,茨城県,水戸市,内原町１４０６番地１３,,08,201,3190315,,,,,,,2024-10-18,1,,,,,アイモファーマシー,0
1878,7050001055560,新規,0,2024-10-18,2024-10-18,株式会社ＮｅｗＲｉｓｅ,,株式会社,茨城県,水戸市,千波町２８３１番地の４ラフィーネ水戸ＩＩＩ１０１号,00136681,08,201,3100851,,,,,,,2024-10-18,1,,,,,ニューライズ,0
1879,7050005013507,新規,0,2024-10-18,2024-10-18,特定非営利活動法人いはらき思春期保健協会,,その他の設立登記法人,茨城県,水戸市,見和１丁目４３０－１常磐大学看護学部村井文江研究室,,08,201,3100911,,,,,,,2024-10-18,1,,,,,イハラキシシュンキホケンキョウカイ,0
1880,7060001037590,新規,0,2024-10-18,2024-10-18,株式会社哲信商会,,株式会社,栃木県,足利市,朝倉町３丁目１０―１７ロイヤルフラット１０２号,,09,202,3260823,,,,,,,2024-10-18,1,,,,,テッシンショウカイ,0
1882,7070001042276,新規,0,2024-10-18,2024-10-18,関東総合物流株式会社,,株式会社,群馬県,伊勢崎市,五目牛町３番地４,,10,204,3792213,,,,,,,2024-10-18,1,,,,,カントウソウゴウブツリュウ,0
1883,7080001026559,新規,0,2024-10-18,2024-10-18,株式会社Ｎｉｐｐｏｎ　Ｊｏｕｒｎｅｙｓ,,株式会社,静岡県,藤枝市,田沼１丁目１９－５,,22,214,4260061,,,,,,,2024-10-18,1,,,,,ニッポンジャーニーズ,0
1906,7120001269418,新規,0,2024-10-18,2024-10-18,幸洋ホールディングス株式会社,,株式会社,大阪府,大阪市淀川区,西中島４丁目７番４号,,27,123,5320011,,,,,,,2024-10-18,1,,,,,コウヨウホールディングス,0
1907,7120001269434,新規,0,2024-10-18,2024-10-18,株式会社ＳＡＲＡＹＡ　Ｐｅｔｓ,,株式会社,大阪府,大阪市中央区,備後町４丁目２番３号,,27,128,5410051,,,,,,,2024-10-18,1,,,,,サラヤペッツ,0
1908,7120001269450,新規,0,2024-10-18,2024-10-18,株式会社タストカケル,,株式会社,大阪府,大阪市淀川区,西中島１丁目９番１６号新大阪ストロングビル７０１号室,,27,123,5320011,,,,,,,2024-10-18,1,,,,,タストカケル,0
1913,7120003027749,新規,0,2024-10-18,2024-10-18,ＳｉｘｔｙｏｎｅＤ合同会社,,合同会社,大阪府,大阪市福島区,福島５丁目６番１６号ラグザ大阪２階,,27,103,5530003,,,,,,,2024-10-18,1,,,,,シックスティーワンディー,0
1914,7120003027757,新規,0,2024-10-18,2024-10-18,ＴＳＴＥＣＨ合同会社,,合同会社,大阪府,大阪市大正区,三軒家東１丁目１２番３０－１００５号,,27,108,5510002,,,,,,,2024-10-18,1,,,,,ティーエステック,0
1915,7120003027781,新規,0,2024-10-18,2024-10-18,合同会社生きる,,合同会社,大阪府,大阪市中央区,船越町１丁目２番１号,,27,128,5400036,,,,,,,2024-10-18,1,,,,,イキル,0
1916,7120005024579,新規,0,2024-10-18,2024-10-18,一般社団法人小さくても持続可能な農業農村を作る会,,その他の設立登記法人,大阪府,大阪市北区,中津１丁目１８番１８号若杉ビル８０５,,27,127,5310071,,,,,,,2024-10-18,1,,,,,チイサクテモジゾクカノウナノウギョウノウソンヲツクルカイ,0
1919,7120105009918,新規,0,2024-10-18,2024-10-18,ＮＰＯ法人Ｗａをつなぐ,,その他の設立登記法人,大阪府,泉佐野市,大木１４４,,27,213,5980023,,,,,,,2024-10-18,1,,,,,ワヲツナグ,0
1921,7120901049919,新規,0,2024-10-18,2024-10-18,株式会社ＮＯＭＡ,,株式会社,大阪府,豊中市,緑丘４丁目２６番１３の２号,,27,203,5600002,,,,,,,2024-10-18,1,,,,,ノーマ,0
1922,7120901049927,新規,0,2024-10-18,2024-10-18,株式会社Ｊ・Ｍ,,株式会社,大阪府,豊中市,新千里東町１丁目４番１号阪急千里中央ビル８階,,27,203,5600082,,,,,,,2024-10-18,1,,,,,ジェイエム,0
1924,7120905006651,新規,0,2024-10-18,2024-10-18,一般社団法人福利厚生の林,,その他の設立登記法人,大阪府,高槻市,南松原町１０－５,,27,207,5690085,,,,,,,2024-10-18,1,,,,,フクリコウセイノハヤシ,0
1927,7130001078140,新規,0,2024-10-18,2024-10-18,株式会社本條板金,,株式会社,京都府,京都市伏見区,桃山町弾正島２８番地７,,26,109,6128223,,,,,,,2024-10-18,1,,,,,ホンジョウバンキン,0
1928,7130001078165,新規,0,2024-10-18,2024-10-18,株式会社平和創建,,株式会社,京都府,宇治市,莵道谷下り３番４号,,26,204,6110013,,,,,,,2024-10-18,1,,,,,ヘイワソウケン,0
1934,7140001136145,新規,0,2024-10-18,2024-10-18,株式会社ＭＡＲＣＨ,,株式会社,兵庫県,神戸市東灘区,住吉本町３丁目１５番４号,,28,101,6580051,,,,,,,2024-10-18,1,,,,,マーチ,0
1940,7140003021196,新規,0,2024-10-18,2024-10-18,アルヴォス・ホールディング合同会社,,合同会社,兵庫県,神戸市中央区,小野柄通７丁目１－１８,,28,110,6510088,,,,,,,2024-10-18,1,,,,,アルヴォスホールディング,0
1942,7150001027608,新規,0,2024-10-18,2024-10-18,株式会社ＭＯＢＩＬＹ,,株式会社,奈良県,生駒市,高山町５６５５,,29,209,6300101,,,,,,,2024-10-18,1,,,,,モービリー,0
1946,7180001163573,新規,0,2024-10-18,2024-10-18,株式会社サンタベール,,株式会社,愛知県,丹羽郡扶桑町,大字柏森字中屋敷１０１番地,,23,362,4800103,,,,,,,2024-10-18,1,,,,,サンタベール,0
1947,7180001163648,新規,0,2024-10-18,2024-10-18,株式会社ＬＹＲＡＭＢＩＴＩＯＮ,,株式会社,愛知県,愛知郡東郷町,和合ケ丘３丁目１２－１７,,23,302,4700154,,,,,,,2024-10-18,1,,,,,リランビション,0
1948,7180001163680,新規,0,2024-10-18,2024-10-18,ＭＭＥＸ株式会社,,株式会社,愛知県,名古屋市西区,名駅２丁目３４番１７セントラル名古屋１１０１号,,23,104,4510045,,,,,,,2024-10-18,1,,,,,エメックス,0
1960,7200005013672,新規,0,2024-10-18,2024-10-18,一般社団法人スポーツクラブ８４０,,その他の設立登記法人,岐阜県,羽島市,竹鼻町１７番地３,,21,209,5016241,,,,,,,2024-10-18,1,,,,,スポーツクラブハチヨンマル,0
1971,7230001020570,新規,0,2024-10-18,2024-10-18,株式会社ビズカレッジ,,株式会社,富山県,高岡市,福岡町赤丸６５７番地,,16,202,9390101,,,,,,,2024-10-18,1,,,,,ビズカレッジ,0
1996,7290001107619,新規,0,2024-10-18,2024-10-18,株式会社ブルースケッチ,,株式会社,福岡県,大野城市,御笠川６丁目５番１２号,,40,219,8160912,,,,,,,2024-10-18,1,,,,,ブルースケッチ,0
1997,7290001107676,新規,0,2024-10-18,2024-10-18,株式会社リメイクワーク,,株式会社,福岡県,福岡市南区,野間３丁目４番１号,,40,134,8150041,,,,,,,2024-10-18,1,,,,,リメイクワーク,0
1999,7290801030961,新規,0,2024-10-18,2024-10-18,株式会社玄風,,株式会社,福岡県,京都郡苅田町,神田町３丁目１８番地３,,40,621,8000361,,,,,,,2024-10-18,1,,,,,ゲンプウ,0
2004,7330001032556,新規,0,2024-10-18,2024-10-18,株式会社ブースプラス,,株式会社,熊本県,宇土市,入地町９３番地５,,43,211,8690422,,,,,,,2024-10-18,1,,,,,,0
2005,7330001032564,新規,0,2024-10-18,2024-10-18,新竹不動産株式会社,,株式会社,熊本県,菊池郡大津町,大字大津１４２０番地２,,43,403,8691233,,,,,,,2024-10-18,1,,,,,シンチクフドウサン,0
2008,7360001034335,新規,0,2024-10-18,2024-10-18,株式会社盛興,,株式会社,沖縄県,うるま市,石川山城１７１３番地７山城アパート１０１,,47,213,9041113,,,,,,,2024-10-18,1,,,,,モリコウ,0
2013,7380003005877,新規,0,2024-10-18,2024-10-18,Ｈ＆Ａ合同会社,,合同会社,福島県,いわき市,泉町滝尻字六枚内３１番地３,,07,204,9718182,,,,,,,2024-10-18,1,,,,,エイチアンドエー,0
2015,7400001016832,新規,0,2024-10-18,2024-10-18,株式会社１６８４,,株式会社,岩手県,紫波郡紫波町,土舘字内川５,,03,321,0283453,,,,,,,2024-10-18,1,,,,,,0
2024,7450003002545,新規,0,2024-10-18,2024-10-18,合同会社ＨａｒｕＭａｏ,,合同会社,北海道,天塩郡遠別町,字本町４丁目９１番地１９,,01,486,0983543,,,,,,,2024-10-18,1,,,,,ハルマオ,0
2027,7460103001660,新規,0,2024-10-18,2024-10-18,合同会社ＣＯＮＮＥＣＴ１,,合同会社,北海道,帯広市,西十六条北１丁目２２番地８,,01,207,0800046,,,,,,,2024-10-18,1,,,,,コネクトワン,0
2031,7700150127565,新規,0,2024-10-18,2024-10-18,Ｈｅｌｉｏｓ　ＬＬＶ　Ｏｎｅ　Ｌｉｍｉｔｅｄ,,外国会社等,,,,,,,,Ｏｎｅ　Ｌｉｍｅ　Ｓｔｒｅｅｔ，Ｌｏｎｄｏｎ　ＥＣ３Ｍ　７ＨＡ　ＵＫ,,,,,,2024-10-18,1,,,,,ヘリオスエルエルブイワンリミテツド,0
2032,7700150127573,新規,0,2024-10-18,2024-10-18,株式会社　ＩＭＢｄｘ,,外国会社等,東京都,渋谷区,渋谷２丁目１９番１５号宮益坂ビルディング６０９,,13,113,1500002,大韓民国ソウル特別市衿川区加山デジタル１路１３１、エ－棟６階６０１－カ６０１－ナ６０５－カ６０５－ナ、２１階（加山洞、ビーワイシーハイシティー）,,,,,,2024-10-18,1,,,,,カブシキガイシヤアイエムビーデイーエツクス,0
2038,8010001249074,新規,0,2024-10-18,2024-10-18,株式会社ＳＯＵＫＥＩ,,株式会社,東京都,中央区,日本橋蛎殻町１丁目８－２ヴェラハイツ日本橋蛎殻町,,13,102,1030014,,,,,,,2024-10-18,1,,,,,ソウケイ,0
2039,8010001249116,新規,0,2024-10-18,2024-10-18,株式会社ストレージ,,株式会社,東京都,千代田区,丸の内１丁目８番３号丸の内トラストタワー本館２０階,,13,101,1000005,,,,,,,2024-10-18,1,,,,,ストレージ,0
2040,8010001249149,新規,0,2024-10-18,2024-10-18,宮崎商事株式会社,,株式会社,東京都,中央区,晴海２丁目２番４２－４１０３号,,13,102,1040053,,,,,,,2024-10-18,1,,,,,ミヤザキショウジ,0
2044,8010003045199,新規,0,2024-10-18,2024-10-18,合同会社ＡＣ１インベストメント,,合同会社,東京都,千代田区,丸の内３丁目１番１号,,13,101,1000005,,,,,,,2024-10-18,1,,,,,エーシーワンインベストメント,0
2045,8010003045208,新規,0,2024-10-18,2024-10-18,Ｐａｎｎｉｅｒ　Ｊａｐａｎ合同会社,,合同会社,東京都,千代田区,霞が関３丁目２番６号東京倶楽部ビルディング１１階,,13,101,1000013,,,,,,,2024-10-18,1,,,,,パニアジャパン,0
2046,8010003045232,新規,0,2024-10-18,2024-10-18,合同会社ボンドブリッジ５,,合同会社,東京都,千代田区,内神田１丁目３番７号４０１あすな会計事務所内,,13,101,1010047,,,,,,,2024-10-18,1,,,,,ボンドブリッジファイブ,0
2055,8010401185794,新規,0,2024-10-18,2024-10-18,株式会社ＨＡＲＭＯＮＹ　ＬＩＮＫＳ,,株式会社,東京都,港区,三田５丁目１１番１０号,,13,103,1080073,,,,,,,2024-10-18,1,,,,,ハーモニーリンクス,0
2056,8010401185803,新規,0,2024-10-18,2024-10-18,ＴＱリアルティマネジメント株式会社,,株式会社,東京都,港区,南青山３丁目１－３６青山丸竹ビル６階,,13,103,1070062,,,,,,,2024-10-18,1,,,,,ティーキューリアルティマネジメント,0
2057,8010401185844,新規,0,2024-10-18,2024-10-18,Ａｒｔｅｍ　Ｃｒｅｓｔ株式会社,,株式会社,東京都,港区,三田４丁目１９番２５－７０８号,,13,103,1080073,,,,,,,2024-10-18,1,,,,,アーテムクレスト,0
2060,8010403033588,新規,0,2024-10-18,2024-10-18,Ｐｌｕｓ８２Ｓｔｕｄｉｏ合同会社,,合同会社,東京都,港区,浜松町２丁目７番１７号イーグル浜松町天翔オフィス浜松町大門１０階１０１６号室,,13,103,1050013,,,,,,,2024-10-18,1,,,,,プラスエイティトゥースタジオ,0
2061,8010403033621,新規,0,2024-10-18,2024-10-18,ＧＡＲＮＥＴ四ツ橋合同会社,,合同会社,東京都,港区,六本木１丁目６番１号泉ガーデンタワー１２階,,13,103,1060032,,,,,,,2024-10-18,1,,,,,ガーネットヨツバシ,0
2063,8010405023629,新規,0,2024-10-18,2024-10-18,一般社団法人日本小児発達子育て支援協会,,その他の設立登記法人,東京都,港区,北青山１丁目３番１号アールキューブ青山３階,,13,103,1070061,,,,,,,2024-10-18,1,,,,,ニホンショウニハッタツコソダテシエンキョウカイ,0
2064,8010405023645,新規,0,2024-10-18,2024-10-18,一般社団法人充電屋,,その他の設立登記法人,東京都,港区,赤坂１丁目１１番４４号赤坂インターシティ５階Ｆｏｒｖｉｓ・Ｍａｚａｒｓ・Ｊａｐａｎ株式会社内,,13,103,1070052,,,,,,,2024-10-18,1,,,,,ジュウデンヤ,0
2066,8010601066118,新規,0,2024-10-18,2024-10-18,株式会社容本生活,,株式会社,東京都,墨田区,江東橋２丁目３－４ドルミ錦糸町長谷川ビル５０３号,,13,107,1300022,,,,,,,2024-10-18,1,,,,,ヨウホンセイカツ,0
2067,8010603011162,新規,0,2024-10-18,2024-10-18,合同会社ＧＩＬＯＳ,,合同会社,東京都,江東区,豊洲３丁目４番２―３４０５号,,13,108,1350061,,,,,,,2024-10-18,1,,,,,ジロス,0
2071,8010701046696,新規,0,2024-10-18,2024-10-18,株式会社サンフラワーキャリア,,株式会社,東京都,品川区,上大崎３丁目５番３号万代目黒ビル８Ｆ,,13,109,1410021,,,,,,,2024-10-18,1,,,,,サンフラワーキャリア,0
2072,8010703007390,新規,0,2024-10-18,2024-10-18,合同会社Ｉｎ’ｍｅ,,合同会社,東京都,品川区,東中延１丁目９番１３号ザ・パークハビオ荏原中延駅前１１０７,,13,109,1420052,,,,,,,2024-10-18,1,,,,,インミー,0
2073,8010803005138,新規,0,2024-10-18,2024-10-18,ピークサイドブロス合同会社,,合同会社,東京都,大田区,田園調布１丁目２３番１８号,,13,111,1450071,,,,,,,2024-10-18,1,,,,,ピークサイドブロス,0
2082,8011001165212,新規,0,2024-10-18,2024-10-18,株式会社Ｊａｐａｎ　Ｂｒａｎｄ振興機構,,株式会社,東京都,渋谷区,道玄坂１丁目１０番８号渋谷道玄坂東急ビル２Ｆ－Ｃ,,13,113,1500043,,,,,,,2024-10-18,1,,,,,ジャパンブランドシンコウキコウ,0
2083,8011001165278,新規,0,2024-10-18,2024-10-18,エスペール株式会社,,株式会社,東京都,目黒区,中目黒３丁目１１番１４号、２Ｆ,,13,110,1530061,,,,,,,2024-10-18,1,,,,,エスペール,0
2084,8011001165294,新規,0,2024-10-18,2024-10-18,株式会社エンペラー,,株式会社,東京都,目黒区,平町１丁目２７番２号吉田ビル２Ｆ,,13,110,1520032,,,,,,,2024-10-18,1,,,,,エンペラー,0
2086,8011003020200,新規,0,2024-10-18,2024-10-18,Ｃｒｅａｌｉｚｅ合同会社,,合同会社,東京都,渋谷区,東１丁目２９番３号渋谷ブリッジＢ－５,,13,113,1500011,,,,,,,2024-10-18,1,,,,,クレアライズ,0
2087,8011003020209,新規,0,2024-10-18,2024-10-18,合同会社Ｎ　Ｐｒｏｄｕｃｔｉｏｎ,,合同会社,東京都,渋谷区,松濤１丁目４－８ＥＡＳＴ１Ｆ,,13,113,1500046,,,,,,,2024-10-18,1,,,,,エヌプロダクション,0
2091,8011101109176,新規,0,2024-10-18,2024-10-18,株式会社Ｎｅｏ　ＧＲＡＶＩＴＹ,,株式会社,東京都,新宿区,西新宿５丁目５番１号ザ・パークハウス西新宿タワー６０・１７０２号室,,13,104,1600023,,,,,,,2024-10-18,1,,,,,ネオグラビティ,0
2092,8011101109192,新規,0,2024-10-18,2024-10-18,株式会社ピースエントリー,,株式会社,東京都,新宿区,新宿１丁目１４番５号新宿ＫＭビル７Ｆ,,13,104,1600022,,,,,,,2024-10-18,1,,,,,ピースエントリー,0
2093,8011103015059,新規,0,2024-10-18,2024-10-18,合同会社ストライダー,,合同会社,東京都,新宿区,新宿３丁目９－４増蔵ビルＢ１Ｆ,,13,104,1600022,,,,,,,2024-10-18,1,,,,,ストライダー,0
2094,8011103015067,新規,0,2024-10-18,2024-10-18,合同会社ＰＩＮＦＡＬＬ,,合同会社,東京都,新宿区,西新宿３丁目３番１３号西新宿水間ビル６階,,13,104,1600023,,,,,,,2024-10-18,1,,,,,ピンフォール,0
2098,8011401026419,新規,0,2024-10-18,2024-10-18,ワンティグリス株式会社,,株式会社,東京都,板橋区,小茂根１丁目３－１５,,13,119,1730037,,,,,,,2024-10-18,1,,,,,ワンティグリス,0
2099,8011501031260,新規,0,2024-10-18,2024-10-18,株式会社エダ,,株式会社,東京都,荒川区,南千住１丁目１５－１６,,13,118,1160003,,,,,,,2024-10-18,1,,,,,エダ,0
2100,8011503006269,新規,0,2024-10-18,2024-10-18,合同会社アズカレ,,合同会社,東京都,北区,浮間３丁目２１番１４－２０２号リエス北赤羽,,13,117,1150051,,,,,,,2024-10-18,1,,,,,アズカレ,0
2101,8011505002654,新規,0,2024-10-18,2024-10-18,一般社団法人Ｈｙｄｐｅｒｅｎｎｉａ,,その他の設立登記法人,東京都,北区,西ケ原１丁目１２番６号,,13,117,1140024,,,,,,,2024-10-18,1,,,,,ハイドペレニア,0
2104,8011701027736,新規,0,2024-10-18,2024-10-18,株式会社ヘイセイ,,株式会社,東京都,江戸川区,北小岩６丁目２６番９－３０１号,,13,123,1330051,,,,,,,2024-10-18,1,,,,,ヘイセイ,0
2105,8011703004007,新規,0,2024-10-18,2024-10-18,淘哥合同会社,,合同会社,東京都,江戸川区,松江２丁目１番１３－１０３号室,,13,123,1320025,,,,,,,2024-10-18,1,,,,,トウカ,0
2108,8011801045002,新規,0,2024-10-18,2024-10-18,株式会社ＦＲｅｅＢ,,株式会社,東京都,足立区,西新井４丁目２４番６号,,13,121,1230841,,,,,,,2024-10-18,1,,,,,フリーブ,0
2111,8012301014125,新規,0,2024-10-18,2024-10-18,株式会社ＪＵＳＴ　ＯＮＥ,,株式会社,東京都,町田市,成瀬が丘３丁目３番地１,,13,209,1940011,,,,,,,2024-10-18,1,,,,,ジャストワン,0
2119,8020001159776,新規,0,2024-10-18,2024-10-18,株式会社アンタレス,,株式会社,神奈川県,川崎市中原区,井田１丁目３４番４０号,,14,133,2110035,,,,,,,2024-10-18,1,,,,,アンタレス,0
2124,8020003027072,新規,0,2024-10-18,2024-10-18,ＳＡＪ合同会社,,合同会社,神奈川県,横浜市緑区,長津田町３０１６番地１南長津田団地４２１,,14,113,2260026,,,,,,,2024-10-18,1,,,,,エスエージェー,0
2125,8020005016569,新規,0,2024-10-18,2024-10-18,社会保険労務士法人こまくさ,,その他の設立登記法人,神奈川県,川崎市中原区,木月２丁目２４番１０号,,14,133,2110025,,,,,,,2024-10-18,1,,,,,コマクサ,0
2132,8021001083520,新規,0,2024-10-18,2024-10-18,株式会社ＣＡＰＳＵＬＥ,,株式会社,神奈川県,藤沢市,鵠沼石上３丁目１―１３―３Ａハイリー石上,,14,205,2510025,,,,,,,2024-10-18,1,,,,,カプセル,0
2134,8021003015117,新規,0,2024-10-18,2024-10-18,合同会社ＮＥＸＴ　ＤＯＯＲ,,合同会社,神奈川県,海老名市,泉２丁目９番１４号レオパレスグラッド１０８,,14,215,2430437,,,,,,,2024-10-18,1,,,,,ネクストドア,0
2140,8030001162977,新規,0,2024-10-18,2024-10-18,株式会社ＴＡＮＴＡＮ,,株式会社,埼玉県,三郷市,三郷１丁目１７番地１モナークガーデン三郷６０１号室,,11,237,3410024,,,,,,,2024-10-18,1,,,,,タンタン,0
2141,8030001162985,新規,0,2024-10-18,2024-10-18,ＺＬ　Ｔｒａｄｅ株式会社,,株式会社,埼玉県,川口市,上青木西４丁目２８番１９号,,11,203,3330845,,,,,,,2024-10-18,1,,,,,ゼットエルトレード,0
2142,8030001162993,新規,0,2024-10-18,2024-10-18,株式会社モーイフォーム,,株式会社,埼玉県,戸田市,笹目５丁目３番地の５,,11,224,3350034,,,,,,,2024-10-18,1,,,,,モーイフォーム,0
2143,8030001163018,新規,0,2024-10-18,2024-10-18,株式会社奏也グループ,,株式会社,埼玉県,所沢市,星の宮２丁目８番１１号,,11,208,3591127,,,,,,,2024-10-18,1,,,,,ソウヤグループ,0
2144,8030001163042,新規,0,2024-10-18,2024-10-18,鶴崎興業株式会社,,株式会社,埼玉県,富士見市,鶴馬３丁目２０番１９号,,11,235,3540021,,,,,,,2024-10-18,1,,,,,ツルサキコウギョウ,0
2147,8030003025323,新規,0,2024-10-18,2024-10-18,る・りあん合同会社,,合同会社,埼玉県,さいたま市大宮区,桜木町２丁目３番地大宮マルイ７階,,11,103,3300854,,,,,,,2024-10-18,1,,,,,ルリアン,0
2148,8030003025331,新規,0,2024-10-18,2024-10-18,ＴＭＳ合同会社,,合同会社,埼玉県,深谷市,東方４３１７番地１８,,11,218,3660041,,,,,,,2024-10-18,1,,,,,テーエムエス,0
2149,8030003025348,新規,0,2024-10-18,2024-10-18,合同会社越前屋,,合同会社,埼玉県,志木市,本町６丁目１２番１６－２０２号,,11,228,3530004,,,,,,,2024-10-18,1,,,,,エチゼンヤ,0
2154,8040001135833,新規,0,2024-10-18,2024-10-18,株式会社Ｋａｍｅｄａ　Ｃｒｅａｔｉｏｎ,,株式会社,千葉県,鴨川市,西町１６２３番１,,12,223,2960043,,,,,,,2024-10-18,1,,,,,,0
2155,8040001135841,新規,0,2024-10-18,2024-10-18,株式会社松栄コーポレーション,,株式会社,千葉県,柏市,増尾台１丁目１２番５３－６０７号,,12,217,2770052,,,,,,,2024-10-18,1,,,,,ショウエイコーポレーション,0
2159,8040003026007,新規,0,2024-10-18,2024-10-18,ＫＡＫＡ　ＴＲＡＤＩＮＧ合同会社,,合同会社,千葉県,袖ケ浦市,川原井２０７０番地１０,,12,229,2990201,,,,,,,2024-10-18,1,,,,,カカトレーディング,0
2166,8050003008706,新規,0,2024-10-18,2024-10-18,合同会社Ｆｒｅｅ,,合同会社,茨城県,鹿嶋市,大字宮津台１８３番地１５,,08,222,3140006,,,,,,,2024-10-18,1,,,,,フリー,0
2168,8070001042283,新規,0,2024-10-18,2024-10-18,株式会社木瓜,,株式会社,群馬県,吾妻郡長野原町,大字応桑２０番地２,,10,424,3771411,,,,,,,2024-10-18,1,,,,,モッコウ,0
2169,8080103003166,新規,0,2024-10-18,2024-10-18,ＡＺワールドフード合同会社,,合同会社,静岡県,熱海市,梅園町２２番８号７１３,,22,205,4130032,,,,,,,2024-10-18,1,,,,,エーゼットワールドフード,0
2184,8120001269409,新規,0,2024-10-18,2024-10-18,株式会社岡崎工業,00136683,株式会社,大阪府,大阪市西成区,千本南１丁目３番３２号,,27,122,5570055,,,,,,,2024-10-18,1,,,,,オカザキコウギョウ,0
2185,8120001269417,新規,0,2024-10-18,2024-10-18,株式会社Ｄ‐ＳＩＤＥ,,株式会社,大阪府,大阪市北区,梅田１丁目２番２号大阪駅前第２ビル１２－１２,,27,127,5300001,,,,,,,2024-10-18,1,,,,,ディーサイド,0
2186,8120001269458,新規,0,2024-10-18,2024-10-18,株式会社Ｍ＆ＳＭＡＲＴ大阪,,株式会社,大阪府,大阪市城東区,成育２丁目１１番２２号野江センチュリーマンション１０２号,,27,118,5360007,,,,,,,2024-10-18,1,,,,,エムアンドスマートオオサカ,0
2187,8120001269466,新規,0,2024-10-18,2024-10-18,株式会社Ｗｏｎｄｅｒ,,株式会社,大阪府,大阪市西区,南堀江４丁目１１番８－３１０３号,,27,106,5500015,,,,,,,2024-10-18,1,,,,,ワンダー,0
2188,8120001269474,新規,0,2024-10-18,2024-10-18,株式会社ＡＳＨ,,株式会社,大阪府,大阪市阿倍野区,美章園２丁目１９番１６－９０３号,,27,119,5450003,,,,,,,2024-10-18,1,,,,,アッシュ,0
2189,8120001269482,新規,0,2024-10-18,2024-10-18,捷立株式会社,,株式会社,大阪府,大阪市中央区,南本町２丁目４番１６号６Ｆ,,27,128,5410054,,,,,,,2024-10-18,1,,,,,ショウリツ,0
2196,8120903005381,新規,0,2024-10-18,2024-10-18,合同会社ベジタブルラテ,,合同会社,大阪府,箕面市,如意谷２丁目５－３９,,27,220,5620011,,,,,,,2024-10-18,1,,,,,ベジタブルラテ,0
2198,8122001038553,新規,0,2024-10-18,2024-10-18,株式会社オミックス,,株式会社,大阪府,八尾市,小畑町４丁目９１番地の１７,,27,212,5810835,,,,,,,2024-10-18,1,,,,,オミックス,0
2199,8130001078156,新規,0,2024-10-18,2024-10-18,春秋株式会社,,株式会社,京都府,京都市右京区,北嵯峨北ノ段町６１番５,,26,108,6168441,,,,,,,2024-10-18,1,,,,,シュンジュウ,0
2207,8140001136111,新規,0,2024-10-18,2024-10-18,株式会社ｃａｌｍ,,株式会社,兵庫県,明石市,魚住町錦が丘１丁目８番地の８－２０３号,,28,203,6740081,,,,,,,2024-10-18,1,,,,,カーム,0
2208,8140001136160,新規,0,2024-10-18,2024-10-18,Ｓｔｏｃｋ　Ａｎｃｈｏｒ株式会社,,株式会社,兵庫県,神戸市長田区,久保町５丁目１番地,,28,106,6530041,,,,,,,2024-10-18,1,,,,,スットクアンカー,0
2210,8140003021212,新規,0,2024-10-18,2024-10-18,ソルシエ合同会社,,合同会社,兵庫県,小野市,天神町１０３２番地の８,,28,218,6751316,,,,,,,2024-10-18,1,,,,,ソルシエ,0
2220,8180001163663,新規,0,2024-10-18,2024-10-18,株式会社ＦＧＬ,,株式会社,愛知県,名古屋市中区,丸の内２丁目７－２オープンレジデンシア１５０４,,23,106,4600002,,,,,,,2024-10-18,1,,,,,エフジーエル,0
2221,8180001163671,新規,0,2024-10-18,2024-10-18,億達株式会社,,株式会社,愛知県,海部郡蟹江町,今西２丁目２８８番地,,23,425,4970037,,,,,,,2024-10-18,1,,,,,オクタツ,0
2223,8180003027486,新規,0,2024-10-18,2024-10-18,合同会社Ｔトランスポート,,合同会社,愛知県,名古屋市中村区,名駅１丁目１番地１号ＪＰタワー名古屋２１階,,23,105,4500002,,,,,,,2024-10-18,1,,,,,ティートランスポート,0
2226,8220001026270,新規,0,2024-10-18,2024-10-18,株式会社下道組,,株式会社,石川県,小松市,河田町ト７番地２,,17,203,9230053,,,,,,,2024-10-18,1,,,,,シタミチグミ,0
2230,8240001063972,新規,0,2024-10-18,2024-10-18,株式会社サトリエ,,株式会社,広島県,府中市,高木町１５２２番地８,,34,208,7260013,,,,,,,2024-10-18,1,,,,,サトリエ,0
2239,8250001020849,新規,0,2024-10-18,2024-10-18,株式会社未来夢工房,,株式会社,山口県,美祢市,秋芳町秋吉５３３３番地１０,,35,213,7540511,,,,,,,2024-10-18,1,,,,,ミライユメコウボウ,0
2259,8290001107601,新規,0,2024-10-18,2024-10-18,株式会社ＡＤ，ｖｅｎｔｕｒｅ,,株式会社,福岡県,福岡市博多区,中洲３丁目５番１３号ヤエスビル１階,,40,132,8100801,,,,,,,2024-10-18,1,,,,,アドベンチャー,0
2260,8290001107642,新規,0,2024-10-18,2024-10-18,株式会社Ｓｔａｎｄ　Ｕｐ,,株式会社,福岡県,福岡市博多区,諸岡３丁目９番２４号,,40,132,8120894,,,,,,,2024-10-18,1,,,,,スタンドアップ,0
2261,8290001107650,新規,0,2024-10-18,2024-10-18,株式会社Ｃｌｉｍｂ,,株式会社,福岡県,福岡市博多区,中洲２丁目３番５号中洲会館６階,,40,132,8100801,,,,,,,2024-10-18,1,,,,,クライム,0
2262,8290001107667,新規,0,2024-10-18,2024-10-18,株式会社九州ＩＢＩＳ,,株式会社,福岡県,福岡市博多区,博多駅前２丁目１７番１号,,40,132,8120011,,,,,,,2024-10-18,1,,,,,キュウシュウアイビス,0
2276,8330001032539,新規,0,2024-10-18,2024-10-18,株式会社ＳＵＭ　ＴＥＣＨ,,株式会社,熊本県,熊本市東区,下南部３丁目１１番地１７６,,43,102,8618019,,,,,,,2024-10-18,1,,,,,サムテック,0
2277,8330001032555,新規,0,2024-10-18,2024-10-18,株式会社ロマナラ,,株式会社,熊本県,合志市,御代志１８４９番地４,,43,216,8611104,,,,,,,2024-10-18,1,,,,,ロマナラ,0
2282,8350001019237,新規,0,2024-10-18,2024-10-18,株式会社ＯＳＨＩＲＯ不動産,,株式会社,宮崎県,日南市,吾田東６丁目５番５－１０１号,,45,204,8892541,,,,,,,2024-10-18,1,,,,,オシロフドウサン,0
2283,8360001034318,新規,0,2024-10-18,2024-10-18,株式会社ＲｅＶｉｄａ,,株式会社,沖縄県,沖縄市,泡瀬４丁目４０番７号ＥａｓｔＢａｙ泡瀬２０１,,47,211,9042172,,,,,,,2024-10-18,1,,,,,リヴィーダ,0
2284,8360003014400,新規,0,2024-10-18,2024-10-18,ザンドレ合同会社,,合同会社,沖縄県,中頭郡北中城村,字美崎２１８番地,,47,327,9012321,,,,,,,2024-10-18,1,,,,,ザンドレ,0
2285,8370001051808,新規,0,2024-10-18,2024-10-18,株式会社いちなざか,,株式会社,宮城県,仙台市泉区,市名坂字町２８ラ・パセオ２Ａ,,04,105,9813117,,,,,,,2024-10-18,1,,,,,イチナザカ,0
2290,8390003002294,新規,0,2024-10-18,2024-10-18,合同会社ルミエール,,合同会社,山形県,鶴岡市,湯野沢字下川原２番地２,,06,203,9970001,,,,,,,2024-10-18,1,,,,,ルミエール,0
2301,8470001020430,新規,0,2024-10-18,2024-10-18,株式会社ＭＥＭＥＮＴＯ,,株式会社,香川県,高松市,古馬場町８番地３１光宗ビル１階,,37,201,7600045,,,,,,,2024-10-18,1,,,,,メメント,0
2303,8490001010891,新規,0,2024-10-18,2024-10-18,株式会社水車自動車,,株式会社,高知県,土佐清水市,下ノ加江１０８３番地１,,39,209,7870242,,,,,,,2024-10-18,1,,,,,スイシャジドウシャ,0
2304,8500001025938,新規,0,2024-10-18,2024-10-18,株式会社アイウインド,,株式会社,愛媛県,宇和島市,三間町務田９５１番地,,38,203,7981114,,,,,,,2024-10-18,1,,,,,アイウインド,0
2305,8700150127564,新規,0,2024-10-18,2024-10-18,三一製薬,,外国会社等,東京都,江東区,塩浜２丁目５番１－４１８号,,13,108,1350043,大韓民国ソウル特別市瑞草区孝寧路１５５,,,,,,2024-10-18,1,,,,,サムイルセイヤク,0
2306,8700150127572,新規,0,2024-10-18,2024-10-18,ＪＡ　ＡＵＴＯ　ＨＯＬＤＩＮＧＳ　ＰＶＴ　ＬＴＤ,,外国会社等,神奈川県,綾瀬市,上土棚北３丁目８番５号ラインコーポ２０１,,14,218,2521111,スリランカ民主主義共和国、アクラナ、ラトゥコディーガラ、パンゴラマダ２１４番,,,,,,2024-10-18,1,,,,,ジヤオートホールデイングスプライベートリミテツド,0
2314,9010001248793,新規,0,2024-10-18,2024-10-18,ジンコパワーエナジー株式会社,,株式会社,東京都,中央区,京橋２丁目２番１号京橋エドグラン９階,,13,102,1040031,,,,,,,2024-10-18,1,,,,,ジンコパワーエナジー,0
2315,9010001249040,新規,0,2024-10-18,2024-10-18,株式会社ＡＭＶＥＲ,,株式会社,東京都,千代田区,内神田２丁目１２番１３号,,13,101,1010047,,,,,,,2024-10-18,1,,,,,アンバー,0
2316,9010001249107,新規,0,2024-10-18,2024-10-18,株式会社Ｉｍａｇｅ　Ｗｏｒｋｓ,,株式会社,東京都,中央区,銀座１丁目１２番４号Ｎ＆ＥＢＬＤ．７階,,13,102,1040061,,,,,,,2024-10-18,1,,,,,,0
2317,9010001249148,新規,0,2024-10-18,2024-10-18,ＡＳ６‐２４０１株式会社,,株式会社,東京都,千代田区,丸の内２丁目４番１号,,13,101,1000005,,,,,,,2024-10-18,1,,,,,エーエスロクニーヨンゼロイチ,0
2318,9010001249172,新規,0,2024-10-18,2024-10-18,宇濛株式会社,,株式会社,東京都,中央区,晴海５丁目４番１号,,13,102,1040053,,,,,,,2024-10-18,1,,,,,ウモウ,0
2321,9010003045198,新規,0,2024-10-18,2024-10-18,合同会社アークメディカル,,合同会社,東京都,千代田区,外神田３丁目１３番１２号,,13,101,1010021,,,,,,,2024-10-18,1,,,,,アークメディカル,0
2322,9010003045231,新規,0,2024-10-18,2024-10-18,合同会社ボンドブリッジ４,,合同会社,東京都,千代田区,内神田１丁目３番７号４０１あすな会計事務所内,,13,101,1010047,,,,,,,2024-10-18,1,,,,,ボンドブリッジフォー,0
2323,9010003045248,新規,0,2024-10-18,2024-10-18,晴釣雨読合同会社,,合同会社,東京都,千代田区,麹町４丁目５番地麹町パークハウス１８０１,,13,101,1020083,,,,,,,2024-10-18,1,,,,,セイチョウウドク,0
2324,9010005038968,新規,0,2024-10-18,2024-10-18,一般社団法人Ａｌ　ｆｕｔｕｒｏ,,その他の設立登記法人,東京都,中央区,銀座１丁目２２－１１－２Ｆ,,13,102,1040061,,,,,,,2024-10-18,1,,,,,アルフトゥーロ,0
2335,9010401185785,新規,0,2024-10-18,2024-10-18,株式会社ココリリ研究所,,株式会社,東京都,港区,麻布十番１丁目６番９号ＡＲＵＧＡ２２ビル２Ｆ,,13,103,1060045,,,,,,,2024-10-18,1,,,,,ココリリケンキュウジョ,0
2336,9010401185802,新規,0,2024-10-18,2024-10-18,株式会社マサラボ,,株式会社,東京都,港区,白金６丁目１６番２５号グランドメゾン白金の杜ザ・タワー１７１２号室,,13,103,1080072,,,,,,,2024-10-18,1,,,,,マサラボ,0
2337,9010401185810,新規,0,2024-10-18,2024-10-18,株式会社Ｈａｂｉｎｙ,,株式会社,東京都,港区,北青山１丁目３番１号アールキューブ青山３階,,13,103,1070061,,,,,,,2024-10-18,1,,,,,ハビニー,0
2338,9010401185835,新規,0,2024-10-18,2024-10-18,株式会社Ｒｅ　ｃｏｍｐａｓｓ,,株式会社,東京都,港区,南青山３丁目１番３６号青山丸竹ビル６階,,13,103,1070062,,,,,,,2024-10-18,1,,,,,リコンパス,0
2341,9010403033620,新規,0,2024-10-18,2024-10-18,ＡＫＴＹ＆Ｃｏ．合同会社,,合同会社,東京都,港区,北青山１丁目３番１号アールキューブ青山３階,,13,103,1070061,,,,,,,2024-10-18,1,,,,,アクティーアンドコー,0
2343,9010405023652,新規,0,2024-10-18,2024-10-18,一般社団法人全日本空手道連盟和道会,,その他の設立登記法人,東京都,港区,西新橋１丁目９番２号植松ビル７階,,13,103,1050003,,,,,,,2024-10-18,1,,,,,ゼンニホンカラテドウレンメイワドウカイ,0
2345,9010601066100,新規,0,2024-10-18,2024-10-18,株式会社ＳＡＮＤＷＩＣＨ　ＴＯＷＮ,,株式会社,東京都,墨田区,向島３丁目２６番７号,,13,107,1310033,,,,,,,2024-10-18,1,,,,,サンドウィッチタウン,0
2346,9010601066109,新規,0,2024-10-18,2024-10-18,フレアネスト株式会社,,株式会社,東京都,江東区,豊洲３丁目４―２Ｎ３２１１,,13,108,1350061,,,,,,,2024-10-18,1,,,,,フレアネスト,0
2347,9010601066117,新規,0,2024-10-18,2024-10-18,株式会社ソライロ,,株式会社,東京都,墨田区,墨田１丁目４－２－１４０８,,13,107,1310031,,,,,,,2024-10-18,1,,,,,ソライロ,0
2348,9010603011153,新規,0,2024-10-18,2024-10-18,ＳＥＫＡＩＤＯＵ合同会社,,合同会社,東京都,江東区,毛利２丁目１０番１４号新亜ビル３０１号室,,13,108,1350001,,,,,,,2024-10-18,1,,,,,セカイドウ,0
2357,9010801035441,新規,0,2024-10-18,2024-10-18,株式会社ｔｅｎ,,株式会社,東京都,大田区,鵜の木３丁目１２番１２号,,13,111,1460091,,,,,,,2024-10-18,1,,,,,テン,0
2365,9011001165186,新規,0,2024-10-18,2024-10-18,株式会社めちゃのび,,株式会社,東京都,渋谷区,道玄坂１丁目１０番８号渋谷道玄坂東急ビル２Ｆ－Ｃ,,13,113,1500043,,,,,,,2024-10-18,1,,,,,メチャノビ,0
2366,9011001165244,新規,0,2024-10-18,2024-10-18,株式会社Ｂ‐ＰＬＵＳ,,株式会社,東京都,目黒区,目黒本町５丁目１番２号,,13,110,1520002,,,,,,,2024-10-18,1,,,,,ビープラス,0
2367,9011001165293,新規,0,2024-10-18,2024-10-18,株式会社ＬＡＴＥＲＮＥ,,株式会社,東京都,目黒区,鷹番３丁目１７番４号,,13,110,1520004,,,,,,,2024-10-18,1,,,,,ラテルネ,0
2368,9011003020190,新規,0,2024-10-18,2024-10-18,合同会社Ｃｉｎｅ,,合同会社,東京都,目黒区,上目黒１丁目８番２８号,,13,110,1530051,,,,,,,2024-10-18,1,,,,,シネ,0
2370,9011101109167,新規,0,2024-10-18,2024-10-18,株式会社飛翠,,株式会社,東京都,新宿区,西新宿３丁目３番１３号西新宿水間ビル６階,,13,104,1600023,,,,,,,2024-10-18,1,,,,,ヒスイ,0
2371,9011101109191,新規,0,2024-10-18,2024-10-18,株式会社つばきＡＣ,,株式会社,東京都,新宿区,新宿２丁目１５番２号岩本和裁ビル３Ｆ,,13,104,1600022,,,,,,,2024-10-18,1,,,,,ツバキアカウンティング,0
2374,9011103015058,新規,0,2024-10-18,2024-10-18,合同会社ドラゴンフライ,,合同会社,東京都,新宿区,上落合３丁目３２－１－２０４,,13,104,1610034,,,,,,,2024-10-18,1,,,,,ドラゴンフライ,0
2375,9011103015066,新規,0,2024-10-18,2024-10-18,合同会社ＣＨＯＩ　Ｃｏｍｐａｎｙ,,合同会社,東京都,新宿区,西早稲田２丁目１０番１８－４０１号,,13,104,1690051,,,,,,,2024-10-18,1,,,,,チェカンパニー,0
2383,9011703003998,新規,0,2024-10-18,2024-10-18,合同会社Ｓｎａｔｃｈ,,合同会社,東京都,江戸川区,一之江８丁目１－１第７モロビル２Ｆ,,13,123,1320024,,,,,,,2024-10-18,1,,,,,スナッチ,0
2384,9011801045001,新規,0,2024-10-18,2024-10-18,株式会社和工建業,,株式会社,東京都,葛飾区,柴又１丁目３６番１号,,13,122,1250052,,,,,,,2024-10-18,1,,,,,ワコウケンギョウ,0
2391,9012803003533,新規,0,2024-10-18,2024-10-18,合同会社マルベリー,,合同会社,東京都,立川市,上砂町３丁目９番地の１５,,13,202,1900032,,,,,,,2024-10-18,1,,,,,マルベリー,0
2399,9013303007347,新規,0,2024-10-18,2024-10-18,ＮＴ　Ｔｅｌｅｃｏｍ合同会社,,合同会社,東京都,豊島区,南大塚３丁目６－９シャガール１１１号室,,13,116,1700005,,,,,,,2024-10-18,1,,,,,エヌティーテレコム,0
2410,9020001159486,新規,0,2024-10-18,2024-10-18,ＴＦ管理株式会社,,株式会社,神奈川県,川崎市多摩区,堰３丁目１４番１６号,,14,135,2140022,,,,,,,2024-10-18,1,,,,,ティーエフカンリ,0
2411,9020001159651,新規,0,2024-10-18,2024-10-18,株式会社きじま,,株式会社,神奈川県,横浜市旭区,今宿西町３８５番地２１,,14,112,2410031,,,,,,,2024-10-18,1,,,,,キジマ,0
2414,9020003027071,新規,0,2024-10-18,2024-10-18,Ｋ　Ｍｏｂｉｌｉｔｙ合同会社,,合同会社,神奈川県,横浜市青葉区,市ケ尾町１０６８番地４６,,14,117,2250024,,,,,,,2024-10-18,1,,,,,ケーモビリティ,0
2426,9030001162992,新規,0,2024-10-18,2024-10-18,株式会社Ｋ　ｂｙ　Ｓ,,株式会社,埼玉県,川口市,大字東本郷１００４番地の２リジェール１０５号,,11,203,3340063,,,,,,,2024-10-18,1,,,,,ケーバイエス,0
2427,9030001163009,新規,0,2024-10-18,2024-10-18,株式会社ＬｉｌｙＨｏｍｅｓ,,株式会社,埼玉県,入間郡毛呂山町,大字西大久保６６２番地１,,11,326,3500433,,,,,,,2024-10-18,1,,,,,リリーホームズ,0
2428,9030001163025,新規,0,2024-10-18,2024-10-18,Ｒｅｖ株式会社,,株式会社,埼玉県,白岡市,小久喜６７５－１パークシティ白岡Ａ－２１５,,11,246,3490217,,,,,,,2024-10-18,1,,,,,リブ,0
2429,9030001163033,新規,0,2024-10-18,2024-10-18,株式会社纖黛集,,株式会社,埼玉県,草加市,氷川町２１０４番地１７ＶＩＰルーム３Ｆ,,11,221,3400034,,,,,,,2024-10-18,1,,,,,センダイシュウ,0
2430,9030001163041,新規,0,2024-10-18,2024-10-18,株式会社ＫＤＨ商事,,株式会社,埼玉県,川口市,大字木曽呂６１３番地の７,,11,203,3330831,,,,,,,2024-10-18,1,,,,,ケイディエイチショウジ,0
2434,9030003025330,新規,0,2024-10-18,2024-10-18,合同会社Ｍ’ｓ　ｃｏｍｐａｎｙ,,合同会社,埼玉県,桶川市,末広２丁目８番３５号,,11,231,3630012,,,,,,,2024-10-18,1,,,,,エムズカンパニー,0
2435,9030003025339,新規,0,2024-10-18,2024-10-18,合同会社ＢＯＯＳＴ,,合同会社,埼玉県,桶川市,南１丁目３番１４号マルイチサウスマンション３０５,,11,231,3630015,,,,,,,2024-10-18,1,,,,,ブースト,0
2436,9030003025347,新規,0,2024-10-18,2024-10-18,合同会社Ｌｉａｎ,,合同会社,埼玉県,所沢市,大字北岩岡６２６－５５,,11,208,3590007,,,,,,,2024-10-18,1,,,,,リアン,0
2446,9040003026006,新規,0,2024-10-18,2024-10-18,合同会社やる気教育,,合同会社,千葉県,船橋市,藤原３丁目２８番８号ユーメディックスビル２階,,12,204,2730047,,,,,,,2024-10-18,1,,,,,ヤルキキョウイク,0
2449,9050001055550,新規,0,2024-10-18,2024-10-18,株式会社くの,,株式会社,茨城県,鉾田市,舟木４４番地７,,08,234,3111501,,,,,,,2024-10-18,1,,,,,クノ,0
2451,9050003008746,新規,0,2024-10-18,2024-10-18,３ＤＩＣリサーチラボ合同会社,,合同会社,茨城県,つくば市,吾妻１丁目１番地１－８１０号,,08,220,3050031,,,,,,,2024-10-18,1,,,,,スリーディーアイシーリサーチラボ,0
2454,9070001042274,新規,0,2024-10-18,2024-10-18,株式会社インパルネオ,,株式会社,群馬県,みどり市,笠懸町阿左美８６５番地４,,10,212,3792311,,,,,,,2024-10-18,1,,,,,インパルネオ,0
2457,9080101025070,新規,0,2024-10-18,2024-10-18,株式会社Ｒａｄｉａｎｔ,,株式会社,静岡県,富士宮市,源道寺町１４２７番地,,22,207,4180074,,,,,,,2024-10-18,1,,,,,ラディアント,0
2465,9100001037915,新規,0,2024-10-18,2024-10-18,株式会社中川天照,,株式会社,長野県,茅野市,金沢４０３１－１,,20,214,3910012,,,,,,,2024-10-18,1,,,,,ナカガワテンショウ,0
2467,9100003007809,新規,0,2024-10-18,2024-10-18,合同会社アクシス,,合同会社,長野県,飯田市,鼎切石５１２１番地１７,,20,205,3950807,,,,,,,2024-10-18,1,,,,,アクシス,0
2468,9100005013243,新規,0,2024-10-18,2024-10-18,一般社団法人柳田國男記念伊那民俗学研究所,,その他の設立登記法人,長野県,飯田市,上郷黒田１８９２番地５,,20,205,3950004,,,,,,,2024-10-18,1,,,,,ヤナギタクニオキネンイナミンゾクガクケンキュウジョ,0
2472,9110003005555,新規,0,2024-10-18,2024-10-18,合同会社ミセルリカ,,合同会社,新潟県,新潟市中央区,東大通２丁目５―１カープ新潟ビル９０４,,15,103,9500087,,,,,,,2024-10-18,1,,,,,ミセルリカ,0
2487,9120001269408,新規,0,2024-10-18,2024-10-18,一本一経株式会社,,株式会社,大阪府,大阪市福島区,福島２丁目１０番１９号メガロコープ福島５２２号室,,27,103,5530003,,,,,,,2024-10-18,1,,,,,イッポンイッケイ,0
2488,9120001269416,新規,0,2024-10-18,2024-10-18,株式会社ＴＩＡＢＥＬＬＥ,,株式会社,大阪府,大阪市浪速区,日本橋４丁目１７番１０号,,27,111,5560005,,,,,,,2024-10-18,1,,,,,ティアベル,0
2489,9120001269424,新規,0,2024-10-18,2024-10-18,恵心製薬株式会社,,株式会社,大阪府,大阪市旭区,中宮４丁目９番７号,,27,117,5350003,,,,,,,2024-10-18,1,,,,,ケイシンセイヤク,0
2490,9120001269432,新規,0,2024-10-18,2024-10-18,霊獺デジタルコンサル株式会社,00136680,株式会社,大阪府,大阪市住吉区,長居西１丁目１２番２８号コーポイン長居Ｂ棟２０５,,27,120,5580002,,,,,,,2024-10-18,1,,,,,レイダデジタルコンサル,0
2491,9120001269449,新規,0,2024-10-18,2024-10-18,株式会社ＧＲＡＮ,,株式会社,大阪府,大阪市淀川区,新高６丁目１４番９－６０３号,,27,123,5320033,,,,,,,2024-10-18,1,,,,,グラン,0
2492,9120001269457,新規,0,2024-10-18,2024-10-18,株式会社ＧＯＡＴ　Ｙ’ｓ,,株式会社,大阪府,大阪市淀川区,宮原１丁目８番２７－３０１号,,27,123,5320003,,,,,,,2024-10-18,1,,,,,ゴートワイズ,0
2493,9120001269498,新規,0,2024-10-18,2024-10-18,ジーリンク株式会社,,株式会社,大阪府,大阪市淀川区,塚本２丁目２６番１４号,,27,123,5320026,,,,,,,2024-10-18,1,,,,,ジーリンク,0
2499,9120901049925,新規,0,2024-10-18,2024-10-18,トウユウコーポレーション株式会社,,株式会社,大阪府,吹田市,豊津町１番１８号３階,,27,205,5640051,,,,,,,2024-10-18,1,,,,,トウユウコーポレーション,0
2503,9122001038552,新規,0,2024-10-18,2024-10-18,温良株式会社,,株式会社,大阪府,東大阪市,若江西新町４丁目６番１０－２０２号,,27,227,5780944,,,,,,,2024-10-18,1,,,,,オンリョウ,0
2509,9130001078163,新規,0,2024-10-18,2024-10-18,株式会社積み木設計室,,株式会社,京都府,京都市伏見区,両替町２丁目３４８番地１エグザス伏見４０７,,26,109,6128082,,,,,,,2024-10-18,1,,,,,ツミキセッケイシツ,0
2510,9130003009934,新規,0,2024-10-18,2024-10-18,合同会社出島貿易,,合同会社,京都府,京都市下京区,朱雀宝蔵町４４番地協栄ビル２階京都朱雀スタジオ,,26,106,6008846,,,,,,,2024-10-18,1,,,,,デジマボウエキ,0
2513,9140001136110,新規,0,2024-10-18,2024-10-18,株式会社岡田トレーディング,,株式会社,兵庫県,加古郡稲美町,下草谷３７８番地の９０,,28,381,6751101,,,,,,,2024-10-18,1,,,,,オカダトレーディング,0
2514,9140001136119,新規,0,2024-10-18,2024-10-18,株式会社オリジーヴス,,株式会社,兵庫県,西宮市,分銅町５番３号リバーハイム分銅Ｂ１０１,,28,204,6620042,,,,,,,2024-10-18,1,,,,,オリジーヴス,0
2515,9140001136127,新規,0,2024-10-18,2024-10-18,ＳＢＴホーム株式会社,,株式会社,兵庫県,神崎郡市川町,甘地５４番地の１,,28,442,6792323,,,,,,,2024-10-18,1,,,,,エスビーティーホーム,0
2524,9160005011357,新規,0,2024-10-18,2024-10-18,一般社団法人ＲａｉｎＳｍｉｌｅ,,その他の設立登記法人,滋賀県,大津市,山百合の丘８番２４号,,25,201,5200357,,,,,,,2024-10-18,1,,,,,レインスマイル,0
2530,9180001163670,新規,0,2024-10-18,2024-10-18,株式会社たなかや商会,,株式会社,愛知県,名古屋市中区,栄１丁目２１番３１号ダイアパレス白川公園１１０８号,,23,106,4600008,,,,,,,2024-10-18,1,,,,,タナカヤショウカイ,0
2533,9180003027493,新規,0,2024-10-18,2024-10-18,日本座標合同会社,,合同会社,愛知県,名古屋市中村区,名駅４丁目２４番１６号広小路ガーデンアベニュー４階,,23,105,4500002,,,,,,,2024-10-18,1,,,,,ニホンザヒョウ,0
2537,9180303006313,新規,0,2024-10-18,2024-10-18,合同会社ひなたぼっこ,,合同会社,愛知県,蒲郡市,竹谷町王子１８番地１,,23,214,4430046,,,,,,,2024-10-18,1,,,,,ヒナタボッコ,0
2538,9200001043044,新規,0,2024-10-18,2024-10-18,後藤土木株式会社,,株式会社,岐阜県,多治見市,笠原町２７８２番１,,21,204,5070901,,,,,,,2024-10-18,1,,,,,ゴトウドボク,0
2553,9270001009071,新規,0,2024-10-18,2024-10-18,株式会社ＡＲＩＡ,,株式会社,鳥取県,米子市,米原８丁目６番４６号ボンヌールＨ＆Ｍ２０１,,31,202,6830804,,,,,,,2024-10-18,1,,,,,アーリア,0
2562,9290001107633,新規,0,2024-10-18,2024-10-18,株式会社Ｇｌｏｂａｌ　Ｇｅｎｅｘ,,株式会社,福岡県,福岡市博多区,博多駅前１丁目２３番２号ＰａｒｋＦｒｏｎｔ博多駅前１丁目５Ｆ－Ｂ,,40,132,8120011,,,,,,,2024-10-18,1,,,,,グローバルジェネックス,0
2563,9290001107641,新規,0,2024-10-18,2024-10-18,株式会社働くさぽーと,,株式会社,福岡県,福岡市博多区,御供所町３番２９－１１０２号１９５－ＧＡ,,40,132,8120037,,,,,,,2024-10-18,1,,,,,ハタラクサポート,0
2564,9290001107666,新規,0,2024-10-18,2024-10-18,株式会社カレ・ィジ,,株式会社,福岡県,筑紫野市,大字吉木１６０１番地２４,,40,217,8180004,,,,,,,2024-10-18,1,,,,,カレィジ,0
2565,9290001107690,新規,0,2024-10-18,2024-10-18,株式会社リプラス,,株式会社,福岡県,福岡市中央区,桜坂３丁目１１番６５号,,40,133,8100024,,,,,,,2024-10-18,1,,,,,リプラス,0
2567,9290003015966,新規,0,2024-10-18,2024-10-18,合同会社ＥＭＡ,,合同会社,福岡県,福岡市中央区,平尾３丁目１４番１７－３０３号,,40,133,8100014,,,,,,,2024-10-18,1,,,,,エマ,0
2569,9290803004862,新規,0,2024-10-18,2024-10-18,合同会社ＦＯＵＲ　ＢＵＺＺ,,合同会社,福岡県,北九州市小倉北区,篠崎２丁目３５－４,,40,106,8030861,,,,,,,2024-10-18,1,,,,,フォーバス,0
2572,9330001032562,新規,0,2024-10-18,2024-10-18,株式会社ＳＡＮＫＩ　ＵＰ,,株式会社,熊本県,上益城郡益城町,大字馬水６８１番地,,43,443,8612232,,,,,,,2024-10-18,1,,,,,サンキアップ,0
2573,9330003010608,新規,0,2024-10-18,2024-10-18,合同会社ＫＵＭＡ,,合同会社,熊本県,熊本市中央区,下通１丁目９番２１号、Ｂ１Ｆ,,43,101,8600807,,,,,,,2024-10-18,1,,,,,クマ,0
2575,9350001019236,新規,0,2024-10-18,2024-10-18,株式会社職ＢＵＩＬＤ　ＫＶＥＬＬ　ＡＰＥＸ７４,,株式会社,宮崎県,児湯郡新富町,大字新田１５２０９番地１,,45,402,8891406,,,,,,,2024-10-18,1,,,,,ショクビルドクヴェルアペックスセブンフォー,0
2576,9360001034333,新規,0,2024-10-18,2024-10-18,株式会社ｌａｃｋｓ　ｊａｐａｎ,,株式会社,沖縄県,那覇市,牧志２丁目１７－２７－４０１,,47,201,9000013,,,,,,,2024-10-18,1,,,,,ラックスジャパン,0
2578,9360003014399,新規,0,2024-10-18,2024-10-18,合同会社ＨＡＲＵＫＯＧＹＯ,,合同会社,沖縄県,沖縄市,登川３丁目７番３１号２,,47,211,9042142,,,,,,,2024-10-18,1,,,,,ハルコウギョウ,0
2582,9380001034851,新規,0,2024-10-18,2024-10-18,株式会社ＵＮＩＱＳ,,株式会社,福島県,郡山市,虎丸町２３番１号グランデージ虎丸１階,,07,203,9638014,,,,,,,2024-10-18,1,,,,,ユニークス,0
2583,9390001017772,新規,0,2024-10-18,2024-10-18,株式会社ＹＫＫ,,株式会社,山形県,鶴岡市,宝町１０－２,,06,203,9970021,,,,,,,2024-10-18,1,,,,,ワイケイケイ,0
2591,9430001092877,新規,0,2024-10-18,2024-10-18,株式会社住まいるＵＰ,,株式会社,北海道,小樽市,桜３丁目１８番７号,,01,203,0470156,,,,,,,2024-10-18,1,,,,,スマイルアップ,0
2595,9430003016891,新規,0,2024-10-18,2024-10-18,合同会社ＢＯＴ,,合同会社,北海道,札幌市中央区,大通西６丁目１０番地４,,01,101,0600042,,,,,,,2024-10-18,1,,,,,ビーオーティー,0
2600,9480003002193,新規,0,2024-10-18,2024-10-18,ＬＩＦＥ合同会社,,合同会社,徳島県,板野郡北島町,太郎八須字鍋川１８番地９,,36,402,7710202,,,,,,,2024-10-18,1,,,,,,0
2609,9700150127563,新規,0,2024-10-18,2024-10-18,Ｈｅｌｉｏｓ　ＬＬＶ　Ｎｉｎｅ　ＬＬＰ,,外国会社等,,,,,,,,Ｏｎｅ　Ｌｉｍｅ　Ｓｔｒｅｅｔ，Ｌｏｎｄｏｎ　ＥＣ３Ｍ　７ＨＡ　ＵＫ,,,,,,2024-10-18,1,,,,,ヘリオスエルエルブイナインエルエルピー,0
2610,9700150127571,新規,0,2024-10-18,2024-10-18,Ｈｅｌｉｏｓ　ＬＬＶ　Ｔｗｏ　Ｌｉｍｉｔｅｄ,,外国会社等,,,,,,,,Ｏｎｅ　Ｌｉｍｅ　Ｓｔｒｅｅｔ，Ｌｏｎｄｏｎ　ＥＣ３Ｍ　７ＨＡ　ＵＫ,,,,,,2024-10-18,1,,,,,ヘリオスエルエルブイツーリミテツド,0
