sequenceNumber,corporateNumber,process,correct,updateDate,changeDate,name,nameImageId,kind,prefectureName,cityName,streetNumber,addressImageId,prefectureCode,cityCode,postCode,addressOutside,addressOutsideImageId,closeDate,closeCause,successorCorporateNumber,changeCause,assignmentDate,latest,enName,enPrefectureName,enCityName,enAddressOutside,furigana,hihyoji
6,1010001222285,新規,0,2021-11-04,2021-11-04,田辺薬局鹿島株式会社,,株式会社,東京都,中央区,築地４丁目３番８号,,13,102,1040045,,,,,,,2021-11-04,1,,,,,タナベヤッキョクカシマ,0
7,1010001222302,新規,0,2021-11-04,2021-11-04,株式会社光速商貿,,株式会社,東京都,中央区,日本橋本町３丁目３－６日本橋ワカ末ビル７階,,13,102,1030023,,,,,,,2021-11-04,1,,,,,コウソクショボウ,0
17,1010003036114,新規,0,2021-11-04,2021-11-04,ＬｉＬｉＯ合同会社,,合同会社,東京都,中央区,日本橋馬喰町１丁目４－２,,13,102,1030002,,,,,,,2021-11-04,1,,,,,リリオ,0
18,1010003036155,新規,0,2021-11-04,2021-11-04,合同会社５マイクロ,,合同会社,東京都,中央区,銀座１丁目２２番１１号銀座大竹ビジデンス２階,,13,102,1040061,,,,,,,2021-11-04,1,,,,,ゴマイクロ,0
19,1010003036171,新規,0,2021-11-04,2021-11-04,合同会社まんぷくウェブサービス,,合同会社,東京都,千代田区,神田鍛冶町３丁目３番地２,,13,101,1010045,,,,,,,2021-11-04,1,,,,,マンプクウェブサービス,0
21,1010005034157,新規,0,2021-11-04,2021-11-04,エイパック・ワン特定目的会社,,その他の設立登記法人,東京都,千代田区,丸の内２丁目３番２号郵船ビルアルタードムス・ジャパン株式会社内,,13,101,1000005,,,,,,,2021-11-04,1,,,,,エイパックワン,0
22,1010101014938,新規,0,2021-11-04,2021-11-04,株式会社プラス,,株式会社,東京都,八王子市,中野町２７３６番地４セカンドキャンパス１階,,13,201,1920015,,,,,,,2021-11-04,1,,,,,,0
23,1010101014946,新規,0,2021-11-04,2021-11-04,ｉ　ｍｕａ株式会社,,株式会社,東京都,八王子市,片倉町１３５７番地２９,,13,201,1920914,,,,,,,2021-11-04,1,,,,,イムア,0
37,1010401163567,新規,0,2021-11-04,2021-11-04,ＯＣＹレバレッジパートナーズ株式会社,,株式会社,東京都,港区,芝大門２丁目１－１９協栄ビル５Ｆ,,13,103,1050012,,,,,,,2021-11-04,1,,,,,オーシーワイレバレッジパートナーズ,0
38,1010401163575,新規,0,2021-11-04,2021-11-04,株式会社ＥｓｔａｔＥ,,株式会社,東京都,港区,南青山２丁目２番１５号,,13,103,1070062,,,,,,,2021-11-04,1,,,,,エスターテ,0
42,1010405020384,新規,0,2021-11-04,2021-11-04,シドニーホールディング２一般社団法人,,その他の設立登記法人,東京都,港区,虎ノ門３丁目２２番１０－２０１号,,13,103,1050001,,,,,,,2021-11-04,1,,,,,シドニーホールディングツー,0
47,1010501048057,新規,0,2021-11-04,2021-11-04,株式会社東京印社,,株式会社,東京都,台東区,東上野５丁目１０番２号東上野共同ビル１０１,,13,106,1100015,,,,,,,2021-11-04,1,,,,,トウキョウインシャ,0
57,1010801032446,新規,0,2021-11-04,2021-11-04,株式会社アオイ,,株式会社,東京都,大田区,田園調布南１８番６号,,13,111,1450076,,,,,,,2021-11-04,1,,,,,アオイ,0
58,1010801032454,新規,0,2021-11-04,2021-11-04,華京株式会社,,株式会社,東京都,大田区,大森南５丁目４－１５ｗｉｎｇ大森南７０２,,13,111,1430013,,,,,,,2021-11-04,1,,,,,カキョウ,0
62,1010901049737,新規,0,2021-11-04,2021-11-04,株式会社メディエムズ,,株式会社,東京都,世田谷区,成城５丁目２６番９号,,13,112,1570066,,,,,,,2021-11-04,1,,,,,メディエムズ,0
71,1011001143686,新規,0,2021-11-04,2021-11-04,株式会社Ｋｉｒ,,株式会社,東京都,渋谷区,代々木４丁目１５番１５号参宮橋ハウス２０１,,13,113,1510053,,,,,,,2021-11-04,1,,,,,キール,0
72,1011001143744,新規,0,2021-11-04,2021-11-04,株式会社スイッチバック,,株式会社,東京都,目黒区,中目黒１丁目１番３２－４０２号ハラダサンパークマンション恵比寿台,,13,110,1530061,,,,,,,2021-11-04,1,,,,,スイッチバック,0
73,1011001143752,新規,0,2021-11-04,2021-11-04,ＳＴＩＭＩＲＯＮ株式会社,,株式会社,東京都,渋谷区,桜丘町４－１７－３０４,,13,113,1500031,,,,,,,2021-11-04,1,,,,,スティミロン,0
76,1011003013656,新規,0,2021-11-04,2021-11-04,ＭＳ　ＯＣＥＡＮ合同会社,,合同会社,東京都,渋谷区,渋谷２丁目１９－１５宮益坂ビルディング６０９,,13,113,1500002,,,,,,,2021-11-04,1,,,,,エムズオーシャン,0
81,1011201023374,新規,0,2021-11-04,2021-11-04,株式会社Ｂａｎｚａｉ　Ｔｏｋｙｏ,,株式会社,東京都,中野区,丸山２丁目２５番２１号,,13,114,1650021,,,,,,,2021-11-04,1,,,,,バンザイトウキョウ,0
82,1011205002457,新規,0,2021-11-04,2021-11-04,一般財団法人ＴＱ　Ｂｏｏｓｔ　Ｆｏｕｎｄａｔｉｏｎ,,その他の設立登記法人,東京都,中野区,中野１丁目６２番１０号,,13,114,1640001,,,,,,,2021-11-04,1,,,,,ティーキューブーストファウンデーション,0
85,1011301027309,新規,0,2021-11-04,2021-11-04,株式会社ウニベッツ,,株式会社,東京都,杉並区,下井草１丁目２３番２号,,13,115,1670022,,,,,,,2021-11-04,1,,,,,ウニベッツ,0
86,1011301027317,新規,0,2021-11-04,2021-11-04,株式会社Ｗａｎ,,株式会社,東京都,杉並区,宮前３丁目１２番２０号,,13,115,1680081,,,,,,,2021-11-04,1,,,,,ワン,0
87,1011303004215,新規,0,2021-11-04,2021-11-04,合同会社リトルリバー,,合同会社,東京都,杉並区,堀ノ内３丁目４６－４ハピネスコート４０１,,13,115,1660013,,,,,,,2021-11-04,1,,,,,リトルリバー,0
88,1011401023810,新規,0,2021-11-04,2021-11-04,株式会社Ｔｒａｎｓｍｉｌｅ,,株式会社,東京都,板橋区,幸町３９番２号メゾントレス２０１,,13,119,1730034,,,,,,,2021-11-04,1,,,,,トランスマイル,0
90,1011601025516,新規,0,2021-11-04,2021-11-04,株式会社ＫＨＴ　Ｈｏｌｄｉｎｇｓ,,株式会社,東京都,練馬区,立野町１４番２７－５０１号,,13,120,1770054,,,,,,,2021-11-04,1,,,,,ケイエイチティーホールディングス,0
97,1011801039919,新規,0,2021-11-04,2021-11-04,株式会社コディ,,株式会社,東京都,足立区,綾瀬５丁目１９番３－９０３号,,13,121,1200005,,,,,,,2021-11-04,1,,,,,コディ,0
98,1011801039935,新規,0,2021-11-04,2021-11-04,株式会社東京不動産,,株式会社,東京都,足立区,皿沼１丁目１７番１０号,,13,121,1230862,,,,,,,2021-11-04,1,,,,,,0
105,1012401038492,新規,0,2021-11-04,2021-11-04,株式会社ＨＩＳＵＭＩ,,株式会社,東京都,小金井市,梶野町１丁目２番３６号,,13,210,1840002,,,,,,,2021-11-04,1,,,,,ヒスミ,0
106,1012701016751,新規,0,2021-11-04,2021-11-04,株式会社ヤノ測量設計事務所,,株式会社,東京都,西東京市,東伏見４丁目６番１５号,,13,229,2020021,,,,,,,2021-11-04,1,,,,,ヤノソクリョウセッケイジムショ,0
107,1012703002345,新規,0,2021-11-04,2021-11-04,合同会社あかり,,合同会社,東京都,西東京市,栄町１丁目９番１４号,,13,229,2020006,,,,,,,2021-11-04,1,,,,,アカリ,0
116,1013305003277,新規,0,2021-11-04,2021-11-04,一般社団法人リープ,,その他の設立登記法人,東京都,豊島区,池袋２丁目３６番１号,,13,116,1710014,,,,,,,2021-11-04,1,,,,,リープ,0
127,1020001143753,新規,0,2021-11-04,2021-11-04,株式会社ＮＫＵホールディングス,,株式会社,神奈川県,横浜市港北区,鳥山町２９２番地４,,14,109,2220035,,,,,,,2021-11-04,1,,,,,エヌケイユーホールディングス,0
128,1020001143803,新規,0,2021-11-04,2021-11-04,株式会社イムホテプ製薬,,株式会社,神奈川県,川崎市高津区,向ケ丘９６番地２,,14,134,2130035,,,,,,,2021-11-04,1,,,,,イムホテプセイヤク,0
132,1020005015255,新規,0,2021-11-04,2021-11-04,一般財団法人イノセンシオ夢挑戦財団,,その他の設立登記法人,神奈川県,横浜市港北区,日吉本町１丁目２７番２９号,,14,109,2230062,,,,,,,2021-11-04,1,,,,,イノセンシオユメチョウセンザイダン,0
133,1021001074369,新規,0,2021-11-04,2021-11-04,株式会社森嶋住宅設備,,株式会社,神奈川県,茅ヶ崎市,若松町１５番２２号パティオ湘南１０４,,14,207,2530051,,,,,,,2021-11-04,1,,,,,モリシマジュウタクセツビ,0
134,1021001074377,新規,0,2021-11-04,2021-11-04,株式会社ＡＮＩＳＴＡＲ,,株式会社,神奈川県,足柄下郡箱根町,仙石原６８４－１２９,,14,382,2500631,,,,,,,2021-11-04,1,,,,,アニスター,0
135,1021001074385,新規,0,2021-11-04,2021-11-04,株式会社ＩＭＳ,,株式会社,神奈川県,平塚市,徳延４００番地の４,,14,203,2540902,,,,,,,2021-11-04,1,,,,,アイエムエス,0
139,1021003011056,新規,0,2021-11-04,2021-11-04,Ｂｅｓｓ合同会社,,合同会社,神奈川県,藤沢市,片瀬海岸２丁目２０番地１２号ＯＨＡＮＡＴｅｒａｃｅ２Ｆ,,14,205,2510035,,,,,,,2021-11-04,1,,,,,ベス,0
146,1030001145105,新規,0,2021-11-04,2021-11-04,株式会社三矢,,株式会社,埼玉県,さいたま市見沼区,大字大谷１２４５番地３,,11,104,3370014,,,,,,,2021-11-04,1,,,,,ミツヤ,0
147,1030001145179,新規,0,2021-11-04,2021-11-04,株式会社アロウド,,株式会社,埼玉県,三郷市,戸ケ崎３丁目７０７番地,,11,237,3410044,,,,,,,2021-11-04,1,,,,,アロウド,0
148,1030001145204,新規,0,2021-11-04,2021-11-04,栄進電設株式会社,,株式会社,埼玉県,川越市,大字笠幡１９３８番地１,,11,201,3501175,,,,,,,2021-11-04,1,,,,,エイシンデンセツ,0
152,1030003018259,新規,0,2021-11-04,2021-11-04,合同会社ビヌカ,,合同会社,埼玉県,川越市,大字藤間８０２番地２２ベルメゾン渡辺１０１,,11,201,3501142,,,,,,,2021-11-04,1,,,,,ビヌカ,0
157,1040001120817,新規,0,2021-11-04,2021-11-04,株式会社Ａｃｅクリーンサービス,,株式会社,千葉県,市川市,南大野３丁目１４番１８号,,12,203,2720804,,,,,,,2021-11-04,1,,,,,エースクリーンサービス,0
158,1040001120858,新規,0,2021-11-04,2021-11-04,株式会社長谷川クリーニング,,株式会社,千葉県,印旛郡酒々井町,上本佐倉１番地２,,12,322,2850925,,,,,,,2021-11-04,1,,,,,,0
166,1050001050088,新規,0,2021-11-04,2021-11-04,株式会社櫻井電工,,株式会社,茨城県,那珂郡東海村,大字白方１６３０番地２,,08,341,3191106,,,,,,,2021-11-04,1,,,,,サクライデンコウ,0
174,1070001038610,新規,0,2021-11-04,2021-11-04,株式会社ＫＯＥＩ,,株式会社,群馬県,伊勢崎市,連取町５８４番地１,,10,204,3720812,,,,,,,2021-11-04,1,,,,,コウエイ,0
176,1070005009913,新規,0,2021-11-04,2021-11-04,税理士法人やちよ経営,,その他の設立登記法人,群馬県,前橋市,下小出町１丁目３０番地４,,10,201,3710031,,,,,,,2021-11-04,1,,,,,ヤチヨケイエイ,0
180,1080001024543,新規,0,2021-11-04,2021-11-04,株式会社ＫＢｖｉｓｉｏｎ,,株式会社,静岡県,静岡市駿河区,中原７４３番地の１サイテックビル２階Ｃ号,,22,102,4228058,,,,,,,2021-11-04,1,,,,,ケービービジョン,0
185,1080103002447,新規,0,2021-11-04,2021-11-04,合同会社ＪＵＳＴ　ＡＷＡＹ,,合同会社,静岡県,御殿場市,西田中２５０番地の６,,22,215,4120027,,,,,,,2021-11-04,1,,,,,ジャストアウェイ,0
186,1080401025455,新規,0,2021-11-04,2021-11-04,株式会社倉田電気商会,,株式会社,静岡県,浜松市西区,佐浜町５０７６番地,,22,133,4311114,,,,,,,2021-11-04,1,,,,,クラタデンキショウカイ,0
190,1100001034770,新規,0,2021-11-04,2021-11-04,株式会社エスティーエヌ,,株式会社,長野県,安曇野市,豊科田沢７０３８番地５０,,20,220,3998203,,,,,,,2021-11-04,1,,,,,エスティーエヌ,0
191,1100001034779,新規,0,2021-11-04,2021-11-04,株式会社リアン,,株式会社,長野県,茅野市,玉川３９１２番地６,,20,214,3910011,,,,,,,2021-11-04,1,,,,,リアン,0
192,1100003006280,新規,0,2021-11-04,2021-11-04,ｔｈｅ　ｃｏｒｅ合同会社,,合同会社,長野県,須坂市,大字仁礼３１５３番地１６６,,20,207,3820000,,,,,,,2021-11-04,1,,,,,コア,0
194,1100005012789,新規,0,2021-11-04,2021-11-04,特定非営利活動法人夢をつなぐプロジェクトＭＩＫ,,その他の設立登記法人,長野県,松本市,小屋南１丁目４２番６号フォレストモール３０４,,20,202,3990038,,,,,,,2021-11-04,1,,,,,ユメヲツナグプロジェクトエムアイケー,0
195,1110001036163,新規,0,2021-11-04,2021-11-04,株式会社Ｓｐｏｎｇｅ,,株式会社,新潟県,長岡市,大島本町１丁目８番地１１,,15,202,9402112,,,,,,,2021-11-04,1,,,,,スポンジ,0
198,1110003004614,新規,0,2021-11-04,2021-11-04,大橋輸送機サービス合同会社,,合同会社,新潟県,長岡市,栄町２丁目１番４６号,,15,202,9400205,,,,,,,2021-11-04,1,,,,,オオハシユソウキサービス,0
215,1120001241547,新規,0,2021-11-04,2021-11-04,株式会社フルフル,,株式会社,大阪府,大阪市西淀川区,福町２丁目３番２３号,,27,113,5550034,,,,,,,2021-11-04,1,,,,,フルフル,0
216,1120001241563,新規,0,2021-11-04,2021-11-04,株式会社ルーク,,株式会社,大阪府,守口市,河原町１１番地５,,27,209,5700038,,,,,,,2021-11-04,1,,,,,ルーク,0
217,1120001241571,新規,0,2021-11-04,2021-11-04,株式会社Ｈ２＆Ｓ,,株式会社,大阪府,大阪市北区,豊崎３丁目２０番９号,,27,127,5310072,,,,,,,2021-11-04,1,,,,,エイチツーアンドエス,0
218,1120001241613,新規,0,2021-11-04,2021-11-04,株式会社聡研プランニング,,株式会社,大阪府,大阪市天王寺区,玉造本町８番３号,,27,109,5430013,,,,,,,2021-11-04,1,,,,,ソウケンプランニング,0
219,1120001241662,新規,0,2021-11-04,2021-11-04,株式会社ＡＫＩＲＡＭＥＮＡＩ　ＪＡＰＡＮ,,株式会社,大阪府,大阪市住吉区,長居４丁目４番８号アステリア４０１号,,27,120,5580003,,,,,,,2021-11-04,1,,,,,アキラメナイジャパン,0
220,1120001241679,新規,0,2021-11-04,2021-11-04,株式会社ＨＲ－ＱＵＥＳＴ,,株式会社,大阪府,大阪市北区,梅田２丁目２－２ヒルトンプラザウエストオフィスタワー１９階,,27,127,5300001,,,,,,,2021-11-04,1,,,,,エイチアールクエスト,0
221,1120001241695,新規,0,2021-11-04,2021-11-04,ゴウ株式会社,,株式会社,大阪府,大阪市中央区,本町２丁目１番６号堺筋本町センタービル８階,,27,128,5410053,,,,,,,2021-11-04,1,,,,,ゴウ,0
223,1120003020528,新規,0,2021-11-04,2021-11-04,合同会社今勝,,合同会社,大阪府,大阪市西区,江戸堀３丁目６番２－６０４号,,27,106,5500002,,,,,,,2021-11-04,1,,,,,イマカツ,0
224,1120005022571,新規,0,2021-11-04,2021-11-04,一般社団法人大阪産・食のマイクロツーリズム推進協議会,,その他の設立登記法人,大阪府,大阪市中央区,北久宝寺町１丁目７番７－４０２号,,27,128,5410057,,,,,,,2021-11-04,1,,,,,オオサカモンショクノマイクロツーリズムスイシンキョウギカイ,0
228,1120101064575,新規,0,2021-11-04,2021-11-04,株式会社アトリエＳｕｂａｒｕ,,株式会社,大阪府,泉大津市,東雲町６番１９号,,27,206,5950026,,,,,,,2021-11-04,1,,,,,アトリエスバル,0
229,1120101064583,新規,0,2021-11-04,2021-11-04,株式会社いろどり,,株式会社,大阪府,泉大津市,虫取町１丁目７番２５号,,27,206,5950037,,,,,,,2021-11-04,1,,,,,イロドリ,0
232,1120901045147,新規,0,2021-11-04,2021-11-04,株式会社黎乃明本店,,株式会社,大阪府,高槻市,城北町１丁目８番２７号,,27,207,5690071,,,,,,,2021-11-04,1,,,,,レイノスケホンテン,0
233,1120903003895,新規,0,2021-11-04,2021-11-04,セーフユアホーム合同会社,,合同会社,大阪府,摂津市,千里丘新町５番２２－１４４０号,,27,224,5660002,,,,,,,2021-11-04,1,,,,,セーフユアホーム,0
237,1122001035318,新規,0,2021-11-04,2021-11-04,株式会社ケーネクスト,,株式会社,大阪府,八尾市,郡川４丁目２８番地,,27,212,5810872,,,,,,,2021-11-04,1,,,,,ケーネクスト,0
238,1122001035326,新規,0,2021-11-04,2021-11-04,株式会社リフレクトマネジメント,,株式会社,大阪府,大東市,新町１０番３号ファーストコート住道３０２号,,27,218,5740037,,,,,,,2021-11-04,1,,,,,リフレクトマネジメント,0
242,1130001070466,新規,0,2021-11-04,2021-11-04,株式会社Ｃｌａｒｉｚｏ,,株式会社,京都府,京都市右京区,嵯峨天龍寺今堀町１６番地の５,,26,108,6168366,,,,,,,2021-11-04,1,,,,,クラリゾ,0
246,1140001123751,新規,0,2021-11-04,2021-11-04,株式会社Ｆｔｅｃ,,株式会社,兵庫県,加東市,社８２番地８,,28,228,6731431,,,,,,,2021-11-04,1,,,,,エフテック,0
249,1140005025878,新規,0,2021-11-04,2021-11-04,特定非営利活動法人ひょうご播州ウォーカー,,その他の設立登記法人,兵庫県,姫路市,玉手４丁目２２番地フォレストコート１０２号室,,28,201,6700985,,,,,,,2021-11-04,1,,,,,ヒョウゴバンシュウウォーカー,0
251,1150001025071,新規,0,2021-11-04,2021-11-04,大和中央パック株式会社,,株式会社,奈良県,奈良市,中山町１１３９番地の６,,29,201,6310012,,,,,,,2021-11-04,1,,,,,ヤマトチュウオウパック,0
276,1180001148522,新規,0,2021-11-04,2021-11-04,森川株式会社,,株式会社,愛知県,一宮市,大和町苅安賀１１５９番地,,23,203,4910934,,,,,,,2021-11-04,1,,,,,モリカワ,0
277,1180001148530,新規,0,2021-11-04,2021-11-04,株式会社三福,,株式会社,愛知県,名古屋市北区,丸新町１６５番地,,23,103,4620063,,,,,,,2021-11-04,1,,,,,サンフク,0
278,1180001148555,新規,0,2021-11-04,2021-11-04,ＯＮＥ　ＤＡＹ　ＳＹＳＴＥＭ株式会社,,株式会社,愛知県,名古屋市西区,押切１丁目１０番７号,,23,104,4510063,,,,,,,2021-11-04,1,,,,,ワンデイシステム,0
279,1180001148563,新規,0,2021-11-04,2021-11-04,株式会社児山新聞店,,株式会社,愛知県,名古屋市東区,出来町１丁目７番１１号,,23,102,4610032,,,,,,,2021-11-04,1,,,,,コヤマシンブンテン,0
280,1180001148571,新規,0,2021-11-04,2021-11-04,株式会社蛭子屋,,株式会社,愛知県,名古屋市北区,下飯田町１丁目３９番地,,23,103,4620865,,,,,,,2021-11-04,1,,,,,エビスヤ,0
281,1180001148605,新規,0,2021-11-04,2021-11-04,ＥＦクリエイト株式会社,,株式会社,愛知県,名古屋市東区,泉３丁目１４番３号,,23,102,4610001,,,,,,,2021-11-04,1,,,,,イーエフクリエイト,0
282,1180001148621,新規,0,2021-11-04,2021-11-04,株式会社輝シール,,株式会社,愛知県,一宮市,大和町南高井字袋田１８番地,,23,203,4910925,,,,,,,2021-11-04,1,,,,,テルシール,0
285,1180003023161,新規,0,2021-11-04,2021-11-04,合同会社Ｗｉｔｈ,,合同会社,愛知県,日進市,香久山４丁目１０８番地,,23,230,4700134,,,,,,,2021-11-04,1,,,,,ウィズ,0
286,1180301035577,新規,0,2021-11-04,2021-11-04,スミエ電業株式会社,,株式会社,愛知県,蒲郡市,形原町南森１１番地１５,,23,214,4430104,,,,,,,2021-11-04,1,,,,,スミエデンギョウ,0
287,1180301035585,新規,0,2021-11-04,2021-11-04,株式会社フレンドリー,,株式会社,愛知県,豊橋市,向山町字伝馬２３番地５Ｄｒｏｏｍ向山２０１,,23,201,4400864,,,,,,,2021-11-04,1,,,,,フレンドリー,0
289,1180303005157,新規,0,2021-11-04,2021-11-04,合同会社ＣＬＯＶＥＲ２１,,合同会社,愛知県,豊田市,神池町２丁目１２３６番地７３２,,23,211,4710804,,,,,,,2021-11-04,1,,,,,クローバートゥエンティーワン,0
292,1190001028822,新規,0,2021-11-04,2021-11-04,株式会社松井工業所,,株式会社,三重県,鈴鹿市,平田本町２丁目１０番２８号,,24,207,5130848,,,,,,,2021-11-04,1,,,,,マツイコウギョウショ,0
293,1190001028830,新規,0,2021-11-04,2021-11-04,株式会社サンエス電機,,株式会社,三重県,員弁郡東員町,大字中上１３０９番地１,,24,324,5110254,,,,,,,2021-11-04,1,,,,,サンエスデンキ,0
294,1190001028839,新規,0,2021-11-04,2021-11-04,株式会社中村,,株式会社,三重県,松阪市,飯南町横野８９２番地１,,24,204,5151302,,,,,,,2021-11-04,1,,,,,ナカムラ,0
299,1200001039363,新規,0,2021-11-04,2021-11-04,株式会社ＷＭＴ,,株式会社,岐阜県,羽島市,竹鼻町錦町３番地,,21,209,5016242,,,,,,,2021-11-04,1,,,,,ダブルエムティ,0
300,1200001039371,新規,0,2021-11-04,2021-11-04,株式会社緩穏,,株式会社,岐阜県,関市,津保川台１丁目４番１０号,,21,205,5013946,,,,,,,2021-11-04,1,,,,,カノン,0
301,1210001018688,新規,0,2021-11-04,2021-11-04,株式会社ＰＲＩＤＥＬ,,株式会社,福井県,福井市,光陽１丁目１１番４号,,18,201,9100026,,,,,,,2021-11-04,1,,,,,プライデル,0
304,1220001024520,新規,0,2021-11-04,2021-11-04,株式会社細江酒店,,株式会社,石川県,七尾市,矢田新町チ部６番地５,,17,202,9260015,,,,,,,2021-11-04,1,,,,,ホソエサケテン,0
305,1220001024529,新規,0,2021-11-04,2021-11-04,株式会社Ｒ＆Ｋ　ｐａｒｔｎｅｒｓ,,株式会社,石川県,金沢市,森山１丁目２番１号２１３,,17,201,9200843,,,,,,,2021-11-04,1,,,,,アールアンドケーパートナーズ,0
306,1220005008602,新規,0,2021-11-04,2021-11-04,特定非営利活動法人ＴＯＳＳ北陸中央事務局,,その他の設立登記法人,石川県,金沢市,山科１丁目１４番４０号,,17,201,9218175,,,,,,,2021-11-04,1,,,,,トスホクリクチュウオウジムキョク,0
307,1220005008610,新規,0,2021-11-04,2021-11-04,税理士法人クボマネジメント,,その他の設立登記法人,石川県,金沢市,横川７丁目３５番地１,,17,201,9218163,,,,,,,2021-11-04,1,,,,,クボマネジメント,0
308,1230001019065,新規,0,2021-11-04,2021-11-04,株式会社カーズワークス,,株式会社,富山県,富山市,向新庄町７丁目１１２７－３,,16,201,9300916,,,,,,,2021-11-04,1,,,,,カーズワークス,0
311,1240001058855,新規,0,2021-11-04,2021-11-04,株式会社竹下,,株式会社,広島県,東広島市,西大沢１丁目１６番５７号,,34,212,7390037,,,,,,,2021-11-04,1,,,,,タケシタ,0
319,1250001019237,新規,0,2021-11-04,2021-11-04,株式会社Ｋｉｚｕｎａ,,株式会社,山口県,山口市,吉敷上東３丁目１１番１１号,,35,203,7530818,,,,,,,2021-11-04,1,,,,,キズナ,0
320,1250001019245,新規,0,2021-11-04,2021-11-04,株式会社ＳＥアシスト,,株式会社,山口県,防府市,国衙５丁目１１番２２号２階,,35,206,7470024,,,,,,,2021-11-04,1,,,,,エスイーアシスト,0
321,1260001036157,新規,0,2021-11-04,2021-11-04,鹿鳴コンサルティング株式会社,,株式会社,岡山県,倉敷市,大島５０３‐１,,33,202,7100047,,,,,,,2021-11-04,1,,,,,ロクメイコンサルティング,0
329,1280001008550,新規,0,2021-11-04,2021-11-04,株式会社Ｍｏｄ,,株式会社,島根県,出雲市,多伎町多岐１７９番地２,,32,203,6990902,,,,,,,2021-11-04,1,,,,,モッド,0
330,1280003001545,新規,0,2021-11-04,2021-11-04,ＧＧ合同会社,,合同会社,島根県,飯石郡飯南町,角井２２１６番地１６,,32,386,6903314,,,,,,,2021-11-04,1,,,,,,0
344,1290003011766,新規,0,2021-11-04,2021-11-04,合同会社ＴＡＡＮコーポレーション,,合同会社,福岡県,糟屋郡篠栗町,大字和田９１０番地３１,,40,342,8112414,,,,,,,2021-11-04,1,,,,,ターンコーポレーション,0
346,1290005018413,新規,0,2021-11-04,2021-11-04,司法書士法人宮薗事務所,,その他の設立登記法人,福岡県,福岡市中央区,天神１丁目１５番６号綾杉ビル５階,,40,133,8100001,,,,,,,2021-11-04,1,,,,,ミヤゾノジムショ,0
350,1320001018702,新規,0,2021-11-04,2021-11-04,株式会社ふじとく,,株式会社,大分県,大分市,大字一木２０８９番地の５２４,,44,201,8700316,,,,,,,2021-11-04,1,,,,,フジトク,0
354,1330003009120,新規,0,2021-11-04,2021-11-04,南阿蘇ベルジェ合同会社,,合同会社,熊本県,熊本市東区,長嶺南６丁目６番１－１０１,,43,102,8618039,,,,,,,2021-11-04,1,,,,,ミナミアソベルジェ,0
357,1340001024228,新規,0,2021-11-04,2021-11-04,株式会社匠興業,,株式会社,鹿児島県,出水市,下鯖町６５３番地１,,46,208,8990123,,,,,,,2021-11-04,1,,,,,タクミコウギョウ,0
358,1340001024236,新規,0,2021-11-04,2021-11-04,株式会社Ｇｌｏｃａｌ,,株式会社,鹿児島県,鹿児島市,樋之口町２－５第二岡野ビル２階,00124739,46,201,8920845,,,,,,,2021-11-04,1,,,,,グローカル,0
360,1340003003618,新規,0,2021-11-04,2021-11-04,合同会社ＩＮＦＩＮＩＴＹ,,合同会社,鹿児島県,西之表市,西之表８９１９番地１６,,46,213,8913101,,,,,,,2021-11-04,1,,,,,インフィニティ,0
362,1350001017395,新規,0,2021-11-04,2021-11-04,株式会社紬生,,株式会社,宮崎県,日南市,上平野町１丁目１番地９,,45,204,8870022,,,,,,,2021-11-04,1,,,,,ツムギ,0
366,1360001029588,新規,0,2021-11-04,2021-11-04,ガスパーク沖縄株式会社,,株式会社,沖縄県,沖縄市,高原５丁目１７番１３号,,47,211,9042171,,,,,,,2021-11-04,1,,,,,ガスパークオキナワ,0
367,1360003011544,新規,0,2021-11-04,2021-11-04,パドルファクトリー合同会社,,合同会社,沖縄県,中頭郡西原町,字兼久２７５番地の５,,47,329,9030104,,,,,,,2021-11-04,1,,,,,パドルファクトリー,0
368,1360005006542,新規,0,2021-11-04,2021-11-04,無限責任大原負債整理組合,,その他の設立登記法人,沖縄県,島尻郡久米島町,字上江洲,,47,361,9013138,,,,,,,2021-11-04,1,,,,,,0
371,1370001047795,新規,0,2021-11-04,2021-11-04,株式会社Ｆｉｌｏ,,株式会社,宮城県,仙台市太白区,長町５丁目１番２０号,,04,104,9820011,,,,,,,2021-11-04,1,,,,,フィーロ,0
372,1370003005470,新規,0,2021-11-04,2021-11-04,蔵王エクシードテクノロジー合同会社,,合同会社,宮城県,刈田郡蔵王町,宮字臼久保屋敷２０番地１,,04,301,9890701,,,,,,,2021-11-04,1,,,,,ザオウエクシードテクノロジー,0
376,1390001016658,新規,0,2021-11-04,2021-11-04,株式会社ＡＯＥ,,株式会社,山形県,酒田市,新堀字豊森４７番地の１,,06,204,9997776,,,,,,,2021-11-04,1,,,,,エーオーイー,0
378,1390003001889,新規,0,2021-11-04,2021-11-04,合同会社丸加屋,,合同会社,山形県,西村山郡河北町,谷地戊１４０６番地,,06,321,9993511,,,,,,,2021-11-04,1,,,,,マルカヤ,0
382,1420001017644,新規,0,2021-11-04,2021-11-04,株式会社新菜菜,,株式会社,青森県,青森市,新町２丁目４番１号,,02,201,0300801,,,,,,,2021-11-04,1,,,,,ニイナナ,0
387,1430001085277,新規,0,2021-11-04,2021-11-04,ベン株式会社,,株式会社,北海道,札幌市白石区,菊水元町七条１丁目２番２０－２０２号,,01,104,0030827,,,,,,,2021-11-04,1,,,,,ベン,0
388,1430003013319,新規,0,2021-11-04,2021-11-04,ベルアベニール合同会社,,合同会社,北海道,札幌市清田区,平岡一条２丁目１番１７号,,01,110,0040871,,,,,,,2021-11-04,1,,,,,ベルアベニール,0
394,1460301005015,新規,0,2021-11-04,2021-11-04,オホーツク湧別バイオガス株式会社,,株式会社,北海道,紋別郡湧別町,福島３９０番地１,,01,559,0996413,,,,,,,2021-11-04,1,,,,,オホーツクユウベツバイオガス,0
395,1460401001236,新規,0,2021-11-04,2021-11-04,株式会社マルイ石田商店,,株式会社,北海道,根室市,桂木１６６番地３,,01,223,0870023,,,,,,,2021-11-04,1,,,,,マルイイシダショウテン,0
396,1470001018811,新規,0,2021-11-04,2021-11-04,株式会社アレス,,株式会社,香川県,高松市,松縄町１１３５番地１７,,37,201,7600079,,,,,,,2021-11-04,1,,,,,アレス,0
401,1480001011542,新規,0,2021-11-04,2021-11-04,株式会社ＴＴＳ,,株式会社,徳島県,徳島市,八万町夷山２１４番地の２,,36,201,7708077,,,,,,,2021-11-04,1,,,,,ティーティーエス,0
402,1480003001748,新規,0,2021-11-04,2021-11-04,合同会社１,,合同会社,徳島県,徳島市,末広５丁目１番１３－６号,,36,201,7700866,,,,,,,2021-11-04,1,,,,,ワン,0
409,1500001023766,新規,0,2021-11-04,2021-11-04,ユウテック株式会社,,株式会社,愛媛県,西条市,新市６３４番地１０,,38,206,7991325,,,,,,,2021-11-04,1,,,,,ユウテック,0
412,1500003002710,新規,0,2021-11-04,2021-11-04,合同会社山人,,合同会社,愛媛県,喜多郡内子町,大瀬北１２８５番地,,38,422,7913362,,,,,,,2021-11-04,1,,,,,ヤマビト,0
423,2010001222284,新規,0,2021-11-04,2021-11-04,株式会社オンリーテック,,株式会社,東京都,中央区,八丁堀３丁目２５番９号Ｄａｉｗａ八丁堀駅前ビル西館３階,,13,102,1040032,,,,,,,2021-11-04,1,,,,,オンリーテック,0
424,2010001222292,新規,0,2021-11-04,2021-11-04,株式会社新最上,,株式会社,東京都,中央区,日本橋馬喰町１丁目８番１－１３０３号,,13,102,1030002,,,,,,,2021-11-04,1,,,,,シンサイジョウ,0
430,2010003036105,新規,0,2021-11-04,2021-11-04,カルティベイテッド合同会社,,合同会社,東京都,中央区,八丁堀４丁目１４番１,,13,102,1040032,,,,,,,2021-11-04,1,,,,,カルティベイテッド,0
431,2010003036162,新規,0,2021-11-04,2021-11-04,合同会社ｂｉｔ,,合同会社,東京都,中央区,銀座１丁目１５番７号マック銀座ビル３階,,13,102,1040061,,,,,,,2021-11-04,1,,,,,ビット,0
432,2010003036170,新規,0,2021-11-04,2021-11-04,セブンエフ合同会社,,合同会社,東京都,文京区,千石４丁目４２番８号,,13,105,1120011,,,,,,,2021-11-04,1,,,,,セブンエフ,0
433,2010003036179,新規,0,2021-11-04,2021-11-04,合同会社ＴＹＬ　Ｈｅｌｉｏｓ,,合同会社,東京都,千代田区,四番町８番地３ザ・パークハウス四番町レジデンス９０３号,,13,101,1020081,,,,,,,2021-11-04,1,,,,,ティーワイエルヘリオス,0
439,2010401163574,新規,0,2021-11-04,2021-11-04,株式会社ＳＡＲＴＯ,,株式会社,東京都,港区,新橋６丁目４番３号ル・グラシエルＢＬＤＧ．７－４２４,,13,103,1050004,,,,,,,2021-11-04,1,,,,,サルト,0
440,2010401163608,新規,0,2021-11-04,2021-11-04,株式会社ＫＯＤＯ,,株式会社,東京都,港区,六本木３丁目３番１０－８０３号,,13,103,1060032,,,,,,,2021-11-04,1,,,,,コドウ,0
441,2010401163640,新規,0,2021-11-04,2021-11-04,アクトファースト株式会社,,株式会社,東京都,港区,新橋６丁目６番２－１３０１号,,13,103,1050004,,,,,,,2021-11-04,1,,,,,アクトファースト,0
449,2010403026473,新規,0,2021-11-04,2021-11-04,合同会社ＢＯＬ１,,合同会社,東京都,港区,虎ノ門５丁目３番２０号株式会社アカウンティング・マネジメント・サービス内,,13,103,1050001,,,,,,,2021-11-04,1,,,,,ビーオーエルワン,0
450,2010405020367,新規,0,2021-11-04,2021-11-04,特定非営利活動法人東京のＣＯ２削減で都内観光を推進する会,,その他の設立登記法人,東京都,港区,浜松町２丁目２番１５号浜松町ダイヤビル２Ｆ,,13,103,1050013,,,,,,,2021-11-04,1,,,,,トウキョウノシーオーツーサクゲンデトナイカンコウヲスイシンスルカイ,0
451,2010405020383,新規,0,2021-11-04,2021-11-04,シドニーホールディング１一般社団法人,,その他の設立登記法人,東京都,港区,虎ノ門３丁目２２番１０－２０１号,,13,103,1050001,,,,,,,2021-11-04,1,,,,,シドニーホールディングワン,0
454,2010501048056,新規,0,2021-11-04,2021-11-04,ワタナベ株式会社,,株式会社,東京都,台東区,日本堤２丁目２３番地１３号３階,,13,106,1110021,,,,,,,2021-11-04,1,,,,,ワタナベ,0
456,2010601060150,新規,0,2021-11-04,2021-11-04,株式会社ムーブハート,,株式会社,東京都,江東区,木場５丁目２－５Ｙビル２－５０１,,13,108,1350042,,,,,,,2021-11-04,1,,,,,ムーブハート,0
457,2010601060175,新規,0,2021-11-04,2021-11-04,株式会社ｗａｎ,,株式会社,東京都,墨田区,亀沢１丁目６－４－３階,,13,107,1300014,,,,,,,2021-11-04,1,,,,,ワン,0
462,2010801032453,新規,0,2021-11-04,2021-11-04,インクルクー株式会社,,株式会社,東京都,大田区,田園調布５丁目２５番２号,,13,111,1450071,,,,,,,2021-11-04,1,,,,,インクルクー,0
464,2010901049728,新規,0,2021-11-04,2021-11-04,株式会社ｆｒｉｄｇｅ,,株式会社,東京都,世田谷区,北沢２丁目３３番７号,,13,112,1550031,,,,,,,2021-11-04,1,,,,,フリッジ,0
465,2010901049736,新規,0,2021-11-04,2021-11-04,株式会社ミュレカ,,株式会社,東京都,世田谷区,桜３丁目２２番２号,,13,112,1560053,,,,,,,2021-11-04,1,,,,,ミュレカ,0
466,2010901049744,新規,0,2021-11-04,2021-11-04,株式会社Ｙｕｚｕ　Ｃａｐｉｔａｌ,,株式会社,東京都,世田谷区,赤堤１丁目２５番１７号,,13,112,1560044,,,,,,,2021-11-04,1,,,,,ユズキャピタル,0
472,2011001143743,新規,0,2021-11-04,2021-11-04,株式会社ＤａｔａＭａｒｋｅｔ,,株式会社,東京都,渋谷区,神宮前６丁目２３番４号桑野ビル２階,,13,113,1500001,,,,,,,2021-11-04,1,,,,,データマーケット,0
473,2011001143751,新規,0,2021-11-04,2021-11-04,株式会社ｔｏｉｒｏ,,株式会社,東京都,渋谷区,鉢山町１３番１２号３Ｆ,,13,113,1500035,,,,,,,2021-11-04,1,,,,,トイロ,0
474,2011001143776,新規,0,2021-11-04,2021-11-04,３ＨＯＬＤＩＮＧＳ株式会社,,株式会社,東京都,目黒区,青葉台２丁目６番８号,,13,110,1530042,,,,,,,2021-11-04,1,,,,,スリーホールディングス,0
475,2011001143818,新規,0,2021-11-04,2021-11-04,株式会社村上メンテナンス,,株式会社,東京都,渋谷区,本町１丁目７番５号,,13,113,1510071,,,,,,,2021-11-04,1,,,,,ムラカミメンテナンス,0
478,2011003013655,新規,0,2021-11-04,2021-11-04,Ｕｒｉ　Ａｎｙｗｈｅｒｅ合同会社,,合同会社,東京都,渋谷区,神宮前６丁目２３番４号桑野ビル２階,,13,113,1500001,,,,,,,2021-11-04,1,,,,,ウリエニウェア,0
479,2011005009288,新規,0,2021-11-04,2021-11-04,一般社団法人全国少額短期保険経営支援機構,,その他の設立登記法人,東京都,渋谷区,道玄坂２丁目１６番８号,,13,113,1500043,,,,,,,2021-11-04,1,,,,,ゼンコクショウガクタンキホケンケイエイシエンキコウ,0
483,2011101096775,新規,0,2021-11-04,2021-11-04,株式会社Ｌｏｖｅ　Ｈｅｒｂ,,株式会社,東京都,新宿区,納戸町１５番９号武石ビル２Ｆ,,13,104,1620837,,,,,,,2021-11-04,1,,,,,,0
484,2011201023381,新規,0,2021-11-04,2021-11-04,ＡＬｔｅｌｌａｓ株式会社,,株式会社,東京都,中野区,新井５丁目３３番８－３０７号,,13,114,1650026,,,,,,,2021-11-04,1,,,,,アルテラス,0
497,2011803004853,新規,0,2021-11-04,2021-11-04,合同会社イースト,,合同会社,東京都,足立区,千住龍田町８番８号,,13,121,1200042,,,,,,,2021-11-04,1,,,,,イースト,0
498,2011803004861,新規,0,2021-11-04,2021-11-04,合同会社Ｆｏｕｐｅ　Ｃｒｅａｔｉｏｎ’ｓ,,合同会社,東京都,葛飾区,堀切４丁目２７－４,,13,122,1240006,,,,,,,2021-11-04,1,,,,,フォープクリエイションズ,0
511,2013303005885,新規,0,2021-11-04,2021-11-04,合同会社フォエバーフレンズ,,合同会社,東京都,豊島区,池袋２丁目５２－３ルミナリータワー池袋５０３,,13,116,1710014,,,,,,,2021-11-04,1,,,,,フォエバーフレンズ,0
523,2020001143686,新規,0,2021-11-04,2021-11-04,株式会社神奈川商事,,株式会社,神奈川県,横浜市保土ケ谷区,西久保町１４番地デイパーク横濱天王町１０１５号,,14,106,2400022,,,,,,,2021-11-04,1,,,,,カナガワショウジ,0
524,2020001143694,新規,0,2021-11-04,2021-11-04,株式会社ＤＬＴ,,株式会社,神奈川県,横浜市港北区,新吉田東１丁目７番２１号シャフレ横浜１０２,,14,109,2230058,,,,,,,2021-11-04,1,,,,,デルタ,0
525,2020001143736,新規,0,2021-11-04,2021-11-04,株式会社ＴｒｉｃｈｏＳｅｅｄｓ,,株式会社,神奈川県,川崎市高津区,坂戸３丁目２－１,,14,134,2130012,,,,,,,2021-11-04,1,,,,,トリコシーズ,0
526,2020001143769,新規,0,2021-11-04,2021-11-04,株式会社Ａ－ＳＴＥＰ,,株式会社,神奈川県,横浜市神奈川区,台町１１番地３０台ビル５５号,,14,102,2210834,,,,,,,2021-11-04,1,,,,,エーステップ,0
527,2020001143777,新規,0,2021-11-04,2021-11-04,佐々木組株式会社,,株式会社,神奈川県,横浜市鶴見区,馬場４丁目３３番７号ベルヒテスガーデン３０３,,14,101,2300076,,,,,,,2021-11-04,1,,,,,ササキグミ,0
534,2020003020735,新規,0,2021-11-04,2021-11-04,Ｙ．Ｓ合同会社,,合同会社,神奈川県,横浜市中区,弥生町３丁目３４番地１ガーデングラス横浜大通り公園４０４号室,,14,104,2310058,,,,,,,2021-11-04,1,,,,,ワイエス,0
535,2020005015254,新規,0,2021-11-04,2021-11-04,一般財団法人ロイヤルブルーティー・茶宴・愉茶振興会,,その他の設立登記法人,神奈川県,横浜市中区,桜木町１丁目１０１番地１クロスゲート７階,,14,104,2310062,,,,,,,2021-11-04,1,,,,,ロイヤルブルーティーチャエンユチャシンコウカイ,0
537,2021001074368,新規,0,2021-11-04,2021-11-04,株式会社ＮＥＲＶ,,株式会社,神奈川県,藤沢市,辻堂神台２丁目２番１号アイクロス湘南５Ｅ号室,,14,205,2510041,,,,,,,2021-11-04,1,,,,,ネルフ,0
538,2021001074426,新規,0,2021-11-04,2021-11-04,株式会社ヴィッソ,,株式会社,神奈川県,鎌倉市,七里ガ浜１丁目１５番１８－３号,,14,204,2480026,,,,,,,2021-11-04,1,,,,,ヴィッソ,0
540,2021003011014,新規,0,2021-11-04,2021-11-04,合同会社Ｕｌｕ　Ｌｕａｎａ,,合同会社,神奈川県,大和市,上和田８９３番地５,,14,213,2420014,,,,,,,2021-11-04,1,,,,,ウルルアナ,0
546,2030001145104,新規,0,2021-11-04,2021-11-04,株式会社ブループラネット,,株式会社,埼玉県,さいたま市浦和区,岸町４丁目１９番５号,,11,107,3300064,,,,,,,2021-11-04,1,,,,,ブループラネット,0
547,2030001145178,新規,0,2021-11-04,2021-11-04,株式会社ＺＥＸＣＥ,,株式会社,埼玉県,狭山市,大字上奥富１５１番地の１,,11,215,3501333,,,,,,,2021-11-04,1,,,,,ゼクセ,0
555,2030005020617,新規,0,2021-11-04,2021-11-04,医療法人社団尚彩会,,その他の設立登記法人,埼玉県,戸田市,大字新曽８０９番地１ラ・ムール戸田１階,,11,224,3350021,,,,,,,2021-11-04,1,,,,,ショウサイカイ,0
563,2040001120849,新規,0,2021-11-04,2021-11-04,株式会社Ｉｎ　Ｂｅａｕｔｙ,,株式会社,千葉県,八千代市,萱田町１１３０番地９,,12,221,2760044,,,,,,,2021-11-04,1,,,,,インビューティー,0
564,2040001120898,新規,0,2021-11-04,2021-11-04,山彰工業株式会社,,株式会社,千葉県,香取市,八日市場９７２番地６,,12,236,2890311,,,,,,,2021-11-04,1,,,,,ヤマアキコウギョウ,0
565,2040001120907,新規,0,2021-11-04,2021-11-04,ＫＭＣ株式会社,,株式会社,千葉県,松戸市,北松戸３丁目５番地１０北松戸パークホームズ１０４号,,12,207,2710063,,,,,,,2021-11-04,1,,,,,ケーエムシー,0
572,2040003018851,新規,0,2021-11-04,2021-11-04,シンクリエイト合同会社,,合同会社,千葉県,松戸市,古ケ崎２５５４番地の３９,,12,207,2710068,,,,,,,2021-11-04,1,,,,,シンクリエイト,0
579,2050001050079,新規,0,2021-11-04,2021-11-04,トーエーハウスサービス株式会社,,株式会社,茨城県,土浦市,真鍋新町１６番１６号,,08,203,3000053,,,,,,,2021-11-04,1,,,,,トーエーハウスサービス,0
581,2050002045813,新規,0,2021-11-04,2021-11-04,有限会社つるや化粧品店,,有限会社,茨城県,水戸市,末広町３丁目２番１号,,08,201,3100053,,,,,,,2021-11-04,1,,,,,,0
582,2060001034246,新規,0,2021-11-04,2021-11-04,株式会社ａｅｔ,,株式会社,栃木県,那須塩原市,太夫塚１丁目１９３番地１６グラン・ソルＡ－３０６号,,09,213,3292735,,,,,,,2021-11-04,1,,,,,アエテ,0
583,2060003003851,新規,0,2021-11-04,2021-11-04,合同会社ＳＳＳ,,合同会社,栃木県,小山市,西城南１丁目４番地１０ハイツＳＫ３０１号,,09,208,3230820,,,,,,,2021-11-04,1,,,,,エスエスエス,0
591,2070001038584,新規,0,2021-11-04,2021-11-04,株式会社ＮＩＣＫＳ,,株式会社,群馬県,高崎市,上佐野町８７５番地１,,10,202,3700857,,,,,,,2021-11-04,1,,,,,ニックス,0
593,2080001024542,新規,0,2021-11-04,2021-11-04,株式会社オフィスＤ,,株式会社,静岡県,静岡市清水区,西高町１番２５号,,22,103,4240844,,,,,,,2021-11-04,1,,,,,オフィスデー,0
594,2080001024550,新規,0,2021-11-04,2021-11-04,株式会社スターフォーカス,,株式会社,静岡県,静岡市駿河区,西島２７６番地の１レジデンス光２－１０２,,22,102,4228045,,,,,,,2021-11-04,1,,,,,スターフォーカス,0
597,2080101022891,新規,0,2021-11-04,2021-11-04,株式会社Ｂ＆Ｌ,,株式会社,静岡県,沼津市,岡宮１０１２番地の１,,22,203,4100011,,,,,,,2021-11-04,1,,,,,ビーアンドエル,0
599,2080103002446,新規,0,2021-11-04,2021-11-04,合同会社Ｆｏｒｂｉｄｄｅｎ　Ｆｒｕｉｔ,,合同会社,静岡県,三島市,新谷１０８番地の６フラリッシュＭ－１０１,,22,206,4110834,,,,,,,2021-11-04,1,,,,,フォービドゥンフルーツ,0
603,2100001034778,新規,0,2021-11-04,2021-11-04,株式会社ハピナス,,株式会社,長野県,伊那市,境１８１２番地４,,20,209,3960010,,,,,,,2021-11-04,1,,,,,ハピナス,0
604,2100001034794,新規,0,2021-11-04,2021-11-04,株式会社Ｌｉｂｅｒｔｅ,,株式会社,長野県,飯山市,大字野坂田５２２番地１,,20,213,3892233,,,,,,,2021-11-04,1,,,,,リベルテ,0
606,2110001036154,新規,0,2021-11-04,2021-11-04,株式会社Ｒｅｂｏｘ,,株式会社,新潟県,新潟市中央区,笹口２丁目２番地９,,15,103,9500911,,,,,,,2021-11-04,1,,,,,リボックス,0
607,2110003004613,新規,0,2021-11-04,2021-11-04,合同会社Ｎ．Ｄ．Ｈ,,合同会社,新潟県,長岡市,宮内町３３５３番地１,,15,202,9401155,,,,,,,2021-11-04,1,,,,,エヌディーエイチ,0
620,2120001241562,新規,0,2021-11-04,2021-11-04,株式会社Ｔｅｒｒａｖｉｅ,,株式会社,大阪府,大阪市西区,新町１丁目２番９号,,27,106,5500013,,,,,,,2021-11-04,1,,,,,テラヴィ,0
621,2120001241579,新規,0,2021-11-04,2021-11-04,株式会社経理ナビ,,株式会社,大阪府,大阪市浪速区,稲荷１丁目１２番１０－２０４号,,27,111,5560023,,,,,,,2021-11-04,1,,,,,ケイリナビ,0
622,2120001241629,新規,0,2021-11-04,2021-11-04,株式会社ＨａＬ．Ｄ,,株式会社,大阪府,大阪市東成区,玉津２丁目１番２２－７０５号,,27,115,5370023,,,,,,,2021-11-04,1,,,,,ハルディ,0
623,2120001241637,新規,0,2021-11-04,2021-11-04,東谷電気株式会社,,株式会社,大阪府,大阪市旭区,森小路１丁目３番１９号,,27,117,5350013,,,,,,,2021-11-04,1,,,,,ヒガシタニデンキ,0
624,2120001241653,新規,0,2021-11-04,2021-11-04,株式会社ＡＬＤ,,株式会社,大阪府,大阪市中央区,久太郎町４丁目２番１５号星和シティービル６階,,27,128,5410056,,,,,,,2021-11-04,1,,,,,エーエルディー,0
627,2120003020527,新規,0,2021-11-04,2021-11-04,合同会社ワロトコ,,合同会社,大阪府,大阪市平野区,加美西２丁目７番５号,,27,126,5470005,,,,,,,2021-11-04,1,,,,,ワロトコ,0
628,2120003020535,新規,0,2021-11-04,2021-11-04,合同会社莉匠庵,,合同会社,大阪府,大阪市中央区,千日前１丁目５番１９号寿楽ビル６階,,27,128,5420074,,,,,,,2021-11-04,1,,,,,リショウアン,0
629,2120003020551,新規,0,2021-11-04,2021-11-04,ＮＥＯＮ　ＨＥＬＬＯ合同会社,,合同会社,大阪府,大阪市北区,本庄西２丁目８－１３天神橋２グラシオ３０２号室,,27,127,5310073,,,,,,,2021-11-04,1,,,,,ネオンハロー,0
634,2120101064590,新規,0,2021-11-04,2021-11-04,株式会社石田金物,,株式会社,大阪府,堺市北区,南花田町６２番地１０,,27,146,5918011,,,,,,,2021-11-04,1,,,,,イシダカナモノ,0
635,2120101064599,新規,0,2021-11-04,2021-11-04,株式会社ＮＩＳＴＡ,,株式会社,大阪府,岸和田市,加守町１丁目２番１７号,,27,202,5960042,,,,,,,2021-11-04,1,,,,,ニスタ,0
643,2120901045154,新規,0,2021-11-04,2021-11-04,株式会社よし興業,,株式会社,大阪府,豊中市,蛍池中町一丁目１１番２６号,,27,203,5600000,,,,,,,2021-11-04,1,,,,,ヨシコウギョウ,0
649,2122001035325,新規,0,2021-11-04,2021-11-04,株式会社ＲｅＣＯＮＮＥＣＴ,,株式会社,大阪府,東大阪市,東山町２－３５,,27,227,5798027,,,,,,,2021-11-04,1,,,,,リコネクト,0
654,2130001070440,新規,0,2021-11-04,2021-11-04,株式会社ＷＡＲＡＢＥ,,株式会社,京都府,京都市中京区,新町三条下る三条町３４９－２くろちく六角ビル２Ｆ,,26,104,6040000,,,,,,,2021-11-04,1,,,,,ワラベ,0
655,2130001070457,新規,0,2021-11-04,2021-11-04,＿岳株式会社,00124758,株式会社,京都府,京都市上京区,西船橋町二丁目３４１番２０３号,,26,102,6028434,,,,,,,2021-11-04,1,,,,,シンガク,0
656,2130001070481,新規,0,2021-11-04,2021-11-04,株式会社Ｉ’ＬＬ,,株式会社,京都府,京都市山科区,竹鼻地蔵寺南町１－９,,26,110,6078088,,,,,,,2021-11-04,1,,,,,アイル,0
665,2140001123684,新規,0,2021-11-04,2021-11-04,株式会社建人技研,,株式会社,兵庫県,尼崎市,杭瀬本町２丁目４番６号,,28,202,6600814,,,,,,,2021-11-04,1,,,,,ケントギケン,0
666,2140001123692,新規,0,2021-11-04,2021-11-04,優心株式会社,,株式会社,兵庫県,神戸市灘区,友田町３丁目５番１３－５０１号,,28,102,6570035,,,,,,,2021-11-04,1,,,,,ユウシン,0
667,2140001123726,新規,0,2021-11-04,2021-11-04,奏風企画株式会社,,株式会社,兵庫県,芦屋市,楠町８番１６－２０３号,,28,206,6590015,,,,,,,2021-11-04,1,,,,,ソウフウキカク,0
675,2160001023783,新規,0,2021-11-04,2021-11-04,株式会社Ｒｅａｃｈ・Ｉｒｉｓ,,株式会社,滋賀県,大津市,御殿浜２番３０号,,25,201,5200834,,,,,,,2021-11-04,1,,,,,リーチアイリス,0
676,2160005011009,新規,0,2021-11-04,2021-11-04,農事組合法人じおんじファーム,,その他の設立登記法人,滋賀県,近江八幡市,安土町慈恩寺７１０番地,,25,204,5211345,,,,,,,2021-11-04,1,,,,,ジオンジファーム,0
689,2180001148505,新規,0,2021-11-04,2021-11-04,株式会社ｉ－Ｒｅ　ｓｔｙｌｅ,,株式会社,愛知県,一宮市,明治通５丁目５番１４号,,23,203,4910857,,,,,,,2021-11-04,1,,,,,アイリスタイル,0
690,2180001148513,新規,0,2021-11-04,2021-11-04,株式会社ダイナンシャ,,株式会社,愛知県,名古屋市中区,栄１丁目２２番１６号,,23,106,4600008,,,,,,,2021-11-04,1,,,,,ダイナンシャ,0
691,2180001148521,新規,0,2021-11-04,2021-11-04,セガ株式会社,,株式会社,愛知県,名古屋市港区,八百島２丁目１２０７－２Ｆ,,23,111,4550885,,,,,,,2021-11-04,1,,,,,セガ,0
692,2180001148554,新規,0,2021-11-04,2021-11-04,株式会社イーグルホームサポート,,株式会社,愛知県,知多市,日長台３４番地,,23,224,4780043,,,,,,,2021-11-04,1,,,,,イーグルホームサポート,0
693,2180001148562,新規,0,2021-11-04,2021-11-04,株式会社敬和語学サービス,,株式会社,愛知県,津島市,柳原町４丁目１３番地１,,23,208,4960046,,,,,,,2021-11-04,1,,,,,ケイワゴガクサービス,0
694,2180001148570,新規,0,2021-11-04,2021-11-04,株式会社翔,,株式会社,愛知県,名古屋市守山区,元郷２丁目１４０８番地,,23,113,4630025,,,,,,,2021-11-04,1,,,,,カケル,0
695,2180001148620,新規,0,2021-11-04,2021-11-04,株式会社クスノキ地研,,株式会社,愛知県,名古屋市北区,楠１丁目２００５番地の１,,23,103,4620012,,,,,,,2021-11-04,1,,,,,クスノキチケン,0
705,2180003023136,新規,0,2021-11-04,2021-11-04,合同会社Ａｒｋｌｅｔ,,合同会社,愛知県,名古屋市千種区,池園町２丁目１３ヒルハウス２　１０１,,23,101,4640818,,,,,,,2021-11-04,1,,,,,アークレット,0
706,2180005019504,新規,0,2021-11-04,2021-11-04,一般社団法人障がいのある菓子職人を支援する会,,その他の設立登記法人,愛知県,津島市,百島町字中割４１番地２,,23,208,4960019,,,,,,,2021-11-04,1,,,,,ショウガイノアルカシショクニンヲシエンスルカイ,0
708,2180301035576,新規,0,2021-11-04,2021-11-04,株式会社エコサポート,,株式会社,愛知県,高浜市,芳川町２丁目１１番地３５,,23,227,4441335,,,,,,,2021-11-04,1,,,,,エコサポート,0
713,2190001028821,新規,0,2021-11-04,2021-11-04,株式会社フードプランニングみえ,,株式会社,三重県,四日市市,天カ須賀２丁目３番２号,,24,202,5108001,,,,,,,2021-11-04,1,,,,,フードプランニングミエ,0
714,2190001028838,新規,0,2021-11-04,2021-11-04,株式会社ミウラ電設,,株式会社,三重県,四日市市,羽津町７番２８号,,24,202,5100017,,,,,,,2021-11-04,1,,,,,ミウラデンセツ,0
716,2190003003814,新規,0,2021-11-04,2021-11-04,合同会社ワイエムアセットマネジメント,,合同会社,三重県,伊賀市,上野徳居町３２８９番地の１,,24,216,5180856,,,,,,,2021-11-04,1,,,,,ワイエムアセットマネジメント,0
717,2200001039346,新規,0,2021-11-04,2021-11-04,株式会社ドリームアシスト岐阜,,株式会社,岐阜県,羽島郡岐南町,八剣北４丁目１１１番地,,21,302,5016011,,,,,,,2021-11-04,1,,,,,ドリームアシストギフ,0
718,2200001039370,新規,0,2021-11-04,2021-11-04,株式会社ａ‐ｂｅ,,株式会社,岐阜県,岐阜市,東川手４丁目１１０番,,21,201,5008257,,,,,,,2021-11-04,1,,,,,アベ,0
719,2200001039379,新規,0,2021-11-04,2021-11-04,ＧＲＯＷ株式会社,,株式会社,岐阜県,海津市,平田町三郷１０３６番地１,,21,221,5030312,,,,,,,2021-11-04,1,,,,,グロー,0
720,2200003005370,新規,0,2021-11-04,2021-11-04,合同会社ケーズ,,合同会社,岐阜県,岐阜市,石谷１４２４番地３,,21,201,5011106,,,,,,,2021-11-04,1,,,,,ケーズ,0
722,2210001018687,新規,0,2021-11-04,2021-11-04,株式会社社會．Ｇ,,株式会社,福井県,丹生郡越前町,道口第９号３９番地１４,,18,423,9160421,,,,,,,2021-11-04,1,,,,,ヤシロカイグループ,0
723,2210003001419,新規,0,2021-11-04,2021-11-04,合同会社あおぞら工務店,,合同会社,福井県,福井市,志津が丘１丁目２１５番地８,,18,201,9103635,,,,,,,2021-11-04,1,,,,,アオゾラコウムテン,0
725,2230001019064,新規,0,2021-11-04,2021-11-04,エムエス企画株式会社,,株式会社,富山県,富山市,北代３７００番地２６,,16,201,9300103,,,,,,,2021-11-04,1,,,,,エムエスキカク,0
729,2240001058879,新規,0,2021-11-04,2021-11-04,株式会社マシナリーリペア,,株式会社,広島県,東広島市,黒瀬楢原北２丁目２１番２７号,00124761,34,212,7392627,,,,,,,2021-11-04,1,,,,,マシナリーリペア,0
734,2250001019236,新規,0,2021-11-04,2021-11-04,株式会社あぐりてらす阿知須,,株式会社,山口県,山口市,阿知須１５１７番地１,,35,203,7541277,,,,,,,2021-11-04,1,,,,,アグリテラスアジス,0
737,2260001036156,新規,0,2021-11-04,2021-11-04,株式会社Ｆ＆Ｙ,,株式会社,岡山県,岡山市北区,清輝橋３丁目８番１３号朝日プラザ岡山サウスフロント１０３号,,33,101,7000861,,,,,,,2021-11-04,1,,,,,エフアンドワイ,0
738,2260001036180,新規,0,2021-11-04,2021-11-04,山陽マリンコンサルティング株式会社,,株式会社,岡山県,赤磐市,桜が丘西４丁目１３番２号,,33,213,7090802,,,,,,,2021-11-04,1,,,,,サンヨウマリンコンサルティング,0
740,2280001008558,新規,0,2021-11-04,2021-11-04,株式会社Ｃｏｓｏｋｅｎ　Ｇａｋｕｅｎ,,株式会社,島根県,松江市,寺町２００－３,,32,201,6900063,,,,,,,2021-11-04,1,,,,,,0
742,2290001095208,新規,0,2021-11-04,2021-11-04,株式会社オールロード,,株式会社,福岡県,糟屋郡宇美町,神武原３丁目１４－１９,,40,341,8112129,,,,,,,2021-11-04,1,,,,,オールロード,0
743,2290001095224,新規,0,2021-11-04,2021-11-04,アクト警備株式会社,,株式会社,福岡県,大野城市,仲畑２丁目６番２０号,,40,219,8160921,,,,,,,2021-11-04,1,,,,,アクトケイビ,0
746,2290003011781,新規,0,2021-11-04,2021-11-04,ルーク・ラボ合同会社,,合同会社,福岡県,福岡市博多区,三筑１丁目６番５号,,40,132,8120887,,,,,,,2021-11-04,1,,,,,ルークラボ,0
751,2310001017555,新規,0,2021-11-04,2021-11-04,株式会社川原造園,,株式会社,長崎県,佐世保市,山手町２７２番地,,42,202,8570022,,,,,,,2021-11-04,1,,,,,カワハラゾウエン,0
754,2330001029144,新規,0,2021-11-04,2021-11-04,株式会社Ａ　Ｔｈｙｍｅ,,株式会社,熊本県,天草市,栖本町古江１２９７番地１２,,43,215,8616304,,,,,,,2021-11-04,1,,,,,エータイム,0
755,2330001029152,新規,0,2021-11-04,2021-11-04,マッチング株式会社,,株式会社,熊本県,宇土市,本町６丁目５４番地,,43,211,8690431,,,,,,,2021-11-04,1,,,,,マッチング,0
761,2340001024227,新規,0,2021-11-04,2021-11-04,株式会社ｙｕｚｉ　Ａｕｔｏ,,株式会社,鹿児島県,薩摩川内市,山之口町４７３５番地１,,46,215,8950032,,,,,,,2021-11-04,1,,,,,ユウジオート,0
762,2340001024235,新規,0,2021-11-04,2021-11-04,株式会社空と大地,,株式会社,鹿児島県,指宿市,十二町３７７０番地４,,46,210,8910403,,,,,,,2021-11-04,1,,,,,ソラトダイチ,0
763,2340001024243,新規,0,2021-11-04,2021-11-04,マルシン地研株式会社,,株式会社,鹿児島県,霧島市,国分中央５丁目１７番３４号,,46,218,8994332,,,,,,,2021-11-04,1,,,,,マルシンチケン,0
769,2360003011551,新規,0,2021-11-04,2021-11-04,グローバルトランク合同会社,,合同会社,沖縄県,沖縄市,大里２丁目２５番１１号,,47,211,9042163,,,,,,,2021-11-04,1,,,,,グローバルトランク,0
771,2370001047778,新規,0,2021-11-04,2021-11-04,株式会社大物流,,株式会社,宮城県,仙台市宮城野区,新田３丁目１３番２－４０３号,,04,102,9830038,,,,,,,2021-11-04,1,,,,,ヒロブツリュウ,0
772,2370001047794,新規,0,2021-11-04,2021-11-04,株式会社弘栄産業,,株式会社,宮城県,黒川郡大郷町,東成田字長松沢山１番地の１,,04,422,9813522,,,,,,,2021-11-04,1,,,,,コウエイサンギョウ,0
776,2380001032317,新規,0,2021-11-04,2021-11-04,株式会社油屋,,株式会社,福島県,福島市,飯野町大久保字北町５１,,07,201,9601304,,,,,,,2021-11-04,1,,,,,アブラヤ,0
778,2380003005048,新規,0,2021-11-04,2021-11-04,カッキラボ合同会社,,合同会社,福島県,福島市,陣場町８－４ペガサス３０、３Ｆ－Ａ,,07,201,9608032,,,,,,,2021-11-04,1,,,,,,0
781,2390001016665,新規,0,2021-11-04,2021-11-04,株式会社花楯不動産,,株式会社,山形県,山形市,花楯１丁目１０番２７号,,06,201,9900067,,,,,,,2021-11-04,1,,,,,ハナダテフドウサン,0
783,2410001013008,新規,0,2021-11-04,2021-11-04,株式会社ＴＭＲ,,株式会社,秋田県,湯沢市,表町４丁目６番５号,,05,207,0120827,,,,,,,2021-11-04,1,,,,,ティーエムアール,0
788,2430001085292,新規,0,2021-11-04,2021-11-04,株式会社坂野設備,,株式会社,北海道,札幌市東区,北三十五条東５丁目２－２１,,01,103,0070835,,,,,,,2021-11-04,1,,,,,サカノセツビ,0
789,2430001085301,新規,0,2021-11-04,2021-11-04,株式会社ＪＳＮ,,株式会社,北海道,札幌市中央区,南二十一条西１０丁目１番３５号Ｔ・Ｉビル,,01,101,0640921,,,,,,,2021-11-04,1,,,,,ジェイエスエヌ,0
790,2430003013326,新規,0,2021-11-04,2021-11-04,合同会社ＤＫＲ,,合同会社,北海道,札幌市清田区,清田六条２丁目１６番１５号タンカルムＤ,,01,110,0040846,,,,,,,2021-11-04,1,,,,,ディーケーアール,0
792,2450001013524,新規,0,2021-11-04,2021-11-04,株式会社多喜,,株式会社,北海道,士別市,多寄町三十六線西３番地,,01,220,0980475,,,,,,,2021-11-04,1,,,,,タヨロ,0
795,2480003001747,新規,0,2021-11-04,2021-11-04,合同会社菅沼電気通信,,合同会社,徳島県,徳島市,佐古七番町２番２４号,,36,201,7700027,,,,,,,2021-11-04,1,,,,,スガヌマデンキツウシン,0
796,2490003001597,新規,0,2021-11-04,2021-11-04,合同会社野菜屋,,合同会社,高知県,高知市,介良乙５８０－１,,39,201,7815106,,,,,,,2021-11-04,1,,,,,,0
800,2500001023773,新規,0,2021-11-04,2021-11-04,株式会社岬興業,,株式会社,愛媛県,大洲市,徳森１８６７番地１１,,38,207,7950061,,,,,,,2021-11-04,1,,,,,ミサキコウギョウ,0
801,2500001023781,新規,0,2021-11-04,2021-11-04,株式会社エンフィール,,株式会社,愛媛県,松山市,八反地乙３番地２,,38,201,7992424,,,,,,,2021-11-04,1,,,,,エンフィール,0
810,3010001222218,新規,0,2021-11-04,2021-11-04,ＳＵＳＨＩ　ＴＯＰ　ＭＡＲＫＥＴＩＮＧ株式会社,,株式会社,東京都,中央区,日本橋浜町３丁目１９番４号ＷＡＶＥＳ日本橋浜町１２０３号,,13,102,1030007,,,,,,,2021-11-04,1,,,,,スシトップマーケティング,0
811,3010001222283,新規,0,2021-11-04,2021-11-04,株式会社ＪＣＲ,,株式会社,東京都,千代田区,麹町２丁目３番地９,,13,101,1020083,,,,,,,2021-11-04,1,,,,,ジェイシーアール,0
812,3010001222291,新規,0,2021-11-04,2021-11-04,パラダイムシフトグループ株式会社,,株式会社,東京都,千代田区,丸の内１丁目８番１号,,13,101,1000005,,,,,,,2021-11-04,1,,,,,パラダイムシフトグループ,0
813,3010001222300,新規,0,2021-11-04,2021-11-04,株式会社ワイドテクノロジーズ,,株式会社,東京都,中央区,日本橋本町４丁目６番１１号,,13,102,1030023,,,,,,,2021-11-04,1,,,,,ワイドテクノロジーズ,0
819,3010101014944,新規,0,2021-11-04,2021-11-04,株式会社ＡＳＫ,,株式会社,東京都,八王子市,川口町３６４０番地１,,13,201,1930801,,,,,,,2021-11-04,1,,,,,エーエスケー,0
830,3010403026415,新規,0,2021-11-04,2021-11-04,合同会社ＣＡＲＲＯＴ,,合同会社,東京都,港区,高輪１丁目２７番３７号高輪ザレジデンス４２９,,13,103,1080074,,,,,,,2021-11-04,1,,,,,キャロット,0
831,3010405020382,新規,0,2021-11-04,2021-11-04,ボストンホールディング２一般社団法人,,その他の設立登記法人,東京都,港区,虎ノ門３丁目２２番１０－２０１号,,13,103,1050001,,,,,,,2021-11-04,1,,,,,ボストンホールディングツー,0
833,3010501048039,新規,0,2021-11-04,2021-11-04,Ｍａｔｓｕ株式会社,,株式会社,東京都,台東区,台東１丁目２９－３イースタンクロスアキバ３１１室,,13,106,1100016,,,,,,,2021-11-04,1,,,,,マツ,0
834,3010501048047,新規,0,2021-11-04,2021-11-04,株式会社ＪＯＹボイス,,株式会社,東京都,台東区,上野６丁目１番１１号平岡ビル,,13,106,1100005,,,,,,,2021-11-04,1,,,,,ジョイボイス,0
838,3010701041735,新規,0,2021-11-04,2021-11-04,株式会社福春商店,,株式会社,東京都,品川区,東品川３丁目１９番２－３０３号,,13,109,1400002,,,,,,,2021-11-04,1,,,,,フクハルショウテン,0
839,3010701041743,新規,0,2021-11-04,2021-11-04,株式会社マロニエ,,株式会社,東京都,品川区,旗の台３丁目１３番５号,,13,109,1420064,,,,,,,2021-11-04,1,,,,,マロニエ,0
845,3010901049735,新規,0,2021-11-04,2021-11-04,株式会社ＧＭ,,株式会社,東京都,世田谷区,代田３丁目５２番１０号,,13,112,1550033,,,,,,,2021-11-04,1,,,,,ジーエム,0
846,3010901049743,新規,0,2021-11-04,2021-11-04,株式会社ＳＪＫ,,株式会社,東京都,世田谷区,桜上水４丁目１１番地１２号,,13,112,1560045,,,,,,,2021-11-04,1,,,,,,0
848,3010903006916,新規,0,2021-11-04,2021-11-04,Ｇａｚｅｂｏ合同会社,,合同会社,東京都,世田谷区,奥沢８丁目９－１７,,13,112,1580083,,,,,,,2021-11-04,1,,,,,,0
859,3011001143742,新規,0,2021-11-04,2021-11-04,株式会社シェパード・コーポレーション,,株式会社,東京都,渋谷区,渋谷２丁目１９－１５宮益坂ビルディング６０９,,13,113,1500002,,,,,,,2021-11-04,1,,,,,,0
860,3011001143767,新規,0,2021-11-04,2021-11-04,ＦＡＢＳ株式会社,,株式会社,東京都,渋谷区,恵比寿南１丁目１１番１６－２０９号ＫＤＸレジデンス恵比寿,,13,113,1500022,,,,,,,2021-11-04,1,,,,,ファブス,0
861,3011001143775,新規,0,2021-11-04,2021-11-04,株式会社ＳｔａｒｔＴｒｕｓｔ,,株式会社,東京都,渋谷区,恵比寿２丁目１３番１７号スクエア２Ｆ,,13,113,1500013,,,,,,,2021-11-04,1,,,,,スタートトラスト,0
868,3011101096774,新規,0,2021-11-04,2021-11-04,株式会社ネクストベース,,株式会社,東京都,新宿区,新宿３丁目３番９号,,13,104,1600022,,,,,,,2021-11-04,1,,,,,,0
869,3011103011120,新規,0,2021-11-04,2021-11-04,アトリア合同会社,,合同会社,東京都,新宿区,高田馬場１丁目１７番１５号ＨＡＢＵＫＡＢＬＤＧ５Ｆ,,13,104,1690075,,,,,,,2021-11-04,1,,,,,アトリア,0
875,3011201023380,新規,0,2021-11-04,2021-11-04,株式会社ファイブ,,株式会社,東京都,中野区,中野５丁目２４番１８－５０１号クロススクエアＮＡＫＡＮＯ,,13,114,1640001,,,,,,,2021-11-04,1,,,,,ファイブ,0
876,3011301027298,新規,0,2021-11-04,2021-11-04,株式会社ＰＩＥＣＥ,,株式会社,東京都,杉並区,和泉１丁目１９番１３号,,13,115,1680063,,,,,,,2021-11-04,1,,,,,,0
877,3011301027307,新規,0,2021-11-04,2021-11-04,智道株式会社,,株式会社,東京都,杉並区,梅里２丁目２５番１３号高円寺プラザ,,13,115,1660011,,,,,,,2021-11-04,1,,,,,トモミチ,0
878,3011301027315,新規,0,2021-11-04,2021-11-04,株式会社鮫島商店,,株式会社,東京都,杉並区,松ノ木２丁目４１番１６号,,13,115,1660014,,,,,,,2021-11-04,1,,,,,サメジマショウテン,0
882,3011303004213,新規,0,2021-11-04,2021-11-04,合同会社キトリ,,合同会社,東京都,杉並区,西荻北５丁目１１番７号,,13,115,1670042,,,,,,,2021-11-04,1,,,,,キトリ,0
884,3011401023809,新規,0,2021-11-04,2021-11-04,株式会社オフィスレオネ,,株式会社,東京都,板橋区,板橋２丁目１番１３－２０１号,,13,119,1730004,,,,,,,2021-11-04,1,,,,,オフィスレオネ,0
887,3011601025506,新規,0,2021-11-04,2021-11-04,株式会社シモコー,,株式会社,東京都,練馬区,旭丘１丁目２７番１０－２０１号,,13,120,1760005,,,,,,,2021-11-04,1,,,,,シモコー,0
888,3011601025522,新規,0,2021-11-04,2021-11-04,株式会社河野設備,,株式会社,東京都,練馬区,南大泉１丁目１４番１０号,,13,120,1780064,,,,,,,2021-11-04,1,,,,,コウノセツビ,0
889,3011701024820,新規,0,2021-11-04,2021-11-04,ＲＥｌａｔｉｏｎ株式会社,,株式会社,東京都,江戸川区,鹿骨４丁目２４番２－５０１号,,13,123,1330073,,,,,,,2021-11-04,1,,,,,リレーション,0
892,3011801039933,新規,0,2021-11-04,2021-11-04,株式会社ワンボックス,,株式会社,東京都,葛飾区,新小岩４丁目８番２号,,13,122,1240024,,,,,,,2021-11-04,1,,,,,ワンボックス,0
893,3012303001605,新規,0,2021-11-04,2021-11-04,合同会社ＴＫＣ,,合同会社,東京都,町田市,木曽東１丁目２番Ｂ５,,13,209,1940036,,,,,,,2021-11-04,1,,,,,ティーケーシー,0
896,3012401038508,新規,0,2021-11-04,2021-11-04,株式会社フォルトゥナ,,株式会社,東京都,武蔵野市,関前３丁目１０番７号,,13,203,1800014,,,,,,,2021-11-04,1,,,,,フォルトゥナ,0
898,3012801021195,新規,0,2021-11-04,2021-11-04,株式会社ＡＩＭ,,株式会社,東京都,立川市,一番町１丁目６１番地の５,,13,202,1900033,,,,,,,2021-11-04,1,,,,,エイム,0
908,3020001143727,新規,0,2021-11-04,2021-11-04,株式会社新樹緑化,,株式会社,神奈川県,横浜市戸塚区,俣野町１１１５番地１５,,14,110,2450066,,,,,,,2021-11-04,1,,,,,シンキリョッカ,0
909,3020001143784,新規,0,2021-11-04,2021-11-04,バーティカルサポート株式会社,,株式会社,神奈川県,川崎市川崎区,小川町１６番地１８,,14,131,2100023,,,,,,,2021-11-04,1,,,,,バーティカルサポート,0
916,3020003020742,新規,0,2021-11-04,2021-11-04,ＨＥＲＯＳ合同会社,,合同会社,神奈川県,横浜市鶴見区,鶴見中央３丁目２２番２１号９０５号室,,14,101,2300051,,,,,,,2021-11-04,1,,,,,ヒーローズ,0
922,3021001074425,新規,0,2021-11-04,2021-11-04,株式会社ＴＲＩＢＥ,,株式会社,神奈川県,相模原市中央区,千代田２丁目６番９－３０３号,,14,152,2520237,,,,,,,2021-11-04,1,,,,,トライブ,0
926,3021003011046,新規,0,2021-11-04,2021-11-04,合同会社ｃｉｅｌ,,合同会社,神奈川県,足柄下郡湯河原町,吉浜６３４－４,,14,384,2590312,,,,,,,2021-11-04,1,,,,,シエル,0
937,3030001145103,新規,0,2021-11-04,2021-11-04,株式会社ａｖｅｎｉｒ,,株式会社,埼玉県,さいたま市見沼区,春岡１丁目２７－１１,,11,104,3370008,,,,,,,2021-11-04,1,,,,,,0
938,3030001145128,新規,0,2021-11-04,2021-11-04,株式会社シライシ,,株式会社,埼玉県,さいたま市見沼区,深作３丁目１番地３,,11,104,3370003,,,,,,,2021-11-04,1,,,,,シライシ,0
939,3030001145152,新規,0,2021-11-04,2021-11-04,株式会社アルファサイエンスキッズ,,株式会社,埼玉県,越谷市,大字恩間６２８番地６,,11,222,3430033,,,,,,,2021-11-04,1,,,,,アルファサイエンスキッズ,0
940,3030001145169,新規,0,2021-11-04,2021-11-04,株式会社サネクション,,株式会社,埼玉県,所沢市,若狭４丁目２５０５番地の５３,,11,208,3591151,,,,,,,2021-11-04,1,,,,,サネクション,0
941,3030001145177,新規,0,2021-11-04,2021-11-04,株式会社ＴＭＧ,,株式会社,埼玉県,比企郡滑川町,大字和泉１１４７番地１,,11,341,3550807,,,,,,,2021-11-04,1,,,,,ティーエムジー,0
942,3030001145185,新規,0,2021-11-04,2021-11-04,株式会社Ｅｖｏｋｅｓ,,株式会社,埼玉県,吉川市,美南１丁目３６番地６イルソーレ吉川美南ポルポラ２０１号室,,11,243,3420038,,,,,,,2021-11-04,1,,,,,イヴォークス,0
943,3030001145219,新規,0,2021-11-04,2021-11-04,株式会社ウルトララーニング,,株式会社,埼玉県,川口市,芝５丁目１１番２１号,,11,203,3330866,,,,,,,2021-11-04,1,,,,,ウルトララーニング,0
955,3040001120823,新規,0,2021-11-04,2021-11-04,ＭＭ株式会社,,株式会社,千葉県,白井市,桜台１丁目７番９号,,12,232,2701412,,,,,,,2021-11-04,1,,,,,エムエム,0
956,3040001120864,新規,0,2021-11-04,2021-11-04,平野熔工株式会社,,株式会社,千葉県,市原市,五井西３丁目６番地９シーガル１－２０２,,12,219,2900038,,,,,,,2021-11-04,1,,,,,ヒラノヨウコウ,0
957,3040001120906,新規,0,2021-11-04,2021-11-04,株式会社ＭｔｏＭ,,株式会社,千葉県,柏市,旭町５丁目６番２７－３０７号,,12,217,2770852,,,,,,,2021-11-04,1,,,,,エムトゥエム,0
961,3040003018834,新規,0,2021-11-04,2021-11-04,合同会社Ｈｙｇｉｅｎｉｃ　Ｌａｂｅｌ,,合同会社,千葉県,柏市,旭町１丁目１０番５号サンシャインヒルズ２０１,,12,217,2770852,,,,,,,2021-11-04,1,,,,,ハイジェニックレーベル,0
965,3050001050078,新規,0,2021-11-04,2021-11-04,株式会社石崎工務店,00124746,株式会社,茨城県,東茨城郡大洗町,桜道１１３番地,,08,309,3111307,,,,,,,2021-11-04,1,,,,,イシザキコウムテン,0
967,3050003006169,新規,0,2021-11-04,2021-11-04,合同会社ＲＡＴＨＮＡ　ＭＯＴＯＲＳ,,合同会社,茨城県,かすみがうら市,宍倉５６８６番地２,,08,230,3000121,,,,,,,2021-11-04,1,,,,,ラトゥナモータース,0
969,3060003003850,新規,0,2021-11-04,2021-11-04,ＭＡＤＩＮＡ　ＴＲＡＤＩＮＧ合同会社,,合同会社,栃木県,栃木市,岩舟町新里１３０４番地Ａ１,,09,203,3294316,,,,,,,2021-11-04,1,,,,,マディナトレーディング,0
971,3070001038600,新規,0,2021-11-04,2021-11-04,株式会社ＴＩＣ,,株式会社,群馬県,太田市,西本町４７番地１１,,10,205,3730033,,,,,,,2021-11-04,1,,,,,ティーアイシー,0
972,3070001038609,新規,0,2021-11-04,2021-11-04,株式会社ＭＯＮＯＣＨＲＯＭＥ,,株式会社,群馬県,前橋市,天川大島町４３－３ＣＡＳＡセフィーロ１Ｃ,,10,201,3792154,,,,,,,2021-11-04,1,,,,,モノクローム,0
976,3070003004286,新規,0,2021-11-04,2021-11-04,ＣＡＬＥＣ合同会社,,合同会社,群馬県,藤岡市,藤岡７８６番地１,,10,209,3750024,,,,,,,2021-11-04,1,,,,,キャレック,0
978,3080001024558,新規,0,2021-11-04,2021-11-04,株式会社大鈴屋,,株式会社,静岡県,焼津市,城之腰２５５番地,,22,212,4250025,,,,,,,2021-11-04,1,,,,,オオスズヤ,0
980,3080005007410,新規,0,2021-11-04,2021-11-04,一般社団法人杉本農園,,その他の設立登記法人,静岡県,島田市,三ッ合町１３３０番地の１,,22,209,4270036,,,,,,,2021-11-04,1,,,,,スギモトノウエン,0
983,3080101022882,新規,0,2021-11-04,2021-11-04,株式会社ＳｋｙＭｅ,,株式会社,静岡県,富士宮市,山宮９６７番地の１４,,22,207,4180111,,,,,,,2021-11-04,1,,,,,スカイミー,0
987,3080401025453,新規,0,2021-11-04,2021-11-04,株式会社さくめ,,株式会社,静岡県,浜松市北区,三ヶ日町佐久米７２４番地の１,,22,135,4311401,,,,,,,2021-11-04,1,,,,,サクメ,0
988,3080401025461,新規,0,2021-11-04,2021-11-04,株式会社メークリヒカイト,,株式会社,静岡県,磐田市,竜洋中島３５３番地,,22,211,4380201,,,,,,,2021-11-04,1,,,,,メークリヒカイト,0
989,3080403004397,新規,0,2021-11-04,2021-11-04,Ｋ－ＳＴＹＬＥ合同会社,,合同会社,静岡県,磐田市,二之宮１４０２,,22,211,4380074,,,,,,,2021-11-04,1,,,,,ケイスタイル,0
990,3100001034769,新規,0,2021-11-04,2021-11-04,株式会社たちばな,,株式会社,長野県,飯田市,鼎中平２３９２番地７,,20,205,3950801,,,,,,,2021-11-04,1,,,,,タチバナ,0
991,3100001034785,新規,0,2021-11-04,2021-11-04,株式会社長野ｔｕｂｅ,,株式会社,長野県,飯田市,鼎上茶屋４１５３番地,,20,205,3950808,,,,,,,2021-11-04,1,,,,,ナガノチューブ,0
996,3110001036153,新規,0,2021-11-04,2021-11-04,株式会社いい日,,株式会社,新潟県,新潟市西区,大学南２丁目２２番１８号,,15,107,9502111,,,,,,,2021-11-04,1,,,,,イイヒ,0
997,3110001036161,新規,0,2021-11-04,2021-11-04,株式会社ＦａｒｍＦｏｏｄ,,株式会社,新潟県,新発田市,城北町２丁目８番３３号,,15,206,9570051,,,,,,,2021-11-04,1,,,,,ファームフード,0
1010,3120001241487,新規,0,2021-11-04,2021-11-04,株式会社Ｌｉｎｋ　Ｉｎｔｅｌｌｉｇｅｎｃｅ,,株式会社,大阪府,大阪市西区,北堀江２丁目２番１９号６０２,,27,106,5500014,,,,,,,2021-11-04,1,,,,,リンクインテリジェンス,0
1011,3120001241578,新規,0,2021-11-04,2021-11-04,アットステージ株式会社,,株式会社,大阪府,枚方市,桜町４番６８号,,27,210,5730056,,,,,,,2021-11-04,1,,,,,アットステージ,0
1012,3120001241594,新規,0,2021-11-04,2021-11-04,イーアイボップ株式会社,,株式会社,大阪府,大阪市生野区,中川西１丁目１５番１４号,,27,116,5440032,,,,,,,2021-11-04,1,,,,,イーアイボップ,0
1013,3120001241603,新規,0,2021-11-04,2021-11-04,株式会社誠和,,株式会社,大阪府,大阪市西区,九条２丁目１４番１４号,,27,106,5500027,,,,,,,2021-11-04,1,,,,,セイワ,0
1014,3120001241611,新規,0,2021-11-04,2021-11-04,株式会社Ｌｏｔｕｓ,,株式会社,大阪府,大阪市福島区,福島６丁目１１番１３－３０５号,,27,103,5530003,,,,,,,2021-11-04,1,,,,,ロータス,0
1015,3120001241628,新規,0,2021-11-04,2021-11-04,株式会社Ｌｉｅｎ,,株式会社,大阪府,大阪市中央区,瓦町２丁目４番７号,,27,128,5410048,,,,,,,2021-11-04,1,,,,,リエン,0
1016,3120001241636,新規,0,2021-11-04,2021-11-04,株式会社Ｂｒоｔｈｅｒｚ,,株式会社,大阪府,大阪市天王寺区,上本町８丁目２番７号スカイヒル４０１号,,27,109,5430001,,,,,,,2021-11-04,1,,,,,ブラザーズ,0
1017,3120001241644,新規,0,2021-11-04,2021-11-04,株式会社盛進,,株式会社,大阪府,大阪市東淀川区,菅原５丁目２番８号,,27,114,5330022,,,,,,,2021-11-04,1,,,,,モリシン,0
1018,3120001241693,新規,0,2021-11-04,2021-11-04,株式会社ＴＮ,,株式会社,大阪府,大阪市平野区,加美南５丁目９番３３号,,27,126,5470003,,,,,,,2021-11-04,1,,,,,ティエヌ,0
1021,3120003020542,新規,0,2021-11-04,2021-11-04,Ｎｅｗａｔｅｖｅｒ運輸合同会社,,合同会社,大阪府,大阪市此花区,酉島３丁目２２番５号,,27,104,5540051,,,,,,,2021-11-04,1,,,,,ニューアットエバーウンユ,0
1022,3120005022594,新規,0,2021-11-04,2021-11-04,グローバルビジネス協同組合,,その他の設立登記法人,大阪府,大阪市西区,土佐堀３丁目２番１２－５０２号,,27,106,5500001,,,,,,,2021-11-04,1,,,,,グローバルビジネス,0
1026,3120901045129,新規,0,2021-11-04,2021-11-04,株式会社みらい保険Ｌｉｎｋｓ,,株式会社,大阪府,摂津市,別府１丁目２番４－１０１号,,27,224,5660046,,,,,,,2021-11-04,1,,,,,ミライホケンリンクス,0
1027,3120901045145,新規,0,2021-11-04,2021-11-04,株式会社ミックコーポレーション,,株式会社,大阪府,茨木市,南春日丘７丁目１番１１号,,27,211,5670046,,,,,,,2021-11-04,1,,,,,ミックコーポレーション,0
1028,3120901045161,新規,0,2021-11-04,2021-11-04,株式会社ＧＵ,,株式会社,大阪府,豊中市,新千里東町１丁目１番２－４９０１号,,27,203,5600082,,,,,,,2021-11-04,1,,,,,ジーユー,0
1029,3122001035308,新規,0,2021-11-04,2021-11-04,株式会社メディカルサポートラボ,,株式会社,大阪府,八尾市,太田新町７丁目２５番地,,27,212,5810039,,,,,,,2021-11-04,1,,,,,メディカルサポートラボ,0
1030,3122001035324,新規,0,2021-11-04,2021-11-04,株式会社麻生グループ,,株式会社,大阪府,東大阪市,衣摺２丁目３番９号,,27,227,5770827,,,,,,,2021-11-04,1,,,,,アソウグループ,0
1031,3122003002207,新規,0,2021-11-04,2021-11-04,合同会社ＡＯＩ,,合同会社,大阪府,東大阪市,西堤１丁目１番３１号,,27,227,5770042,,,,,,,2021-11-04,1,,,,,アオイ,0
1043,3130001070448,新規,0,2021-11-04,2021-11-04,総合建設業杉工房株式会社,,株式会社,京都府,久世郡久御山町,大橋辺１３番地２,,26,322,6130046,,,,,,,2021-11-04,1,,,,,ソウゴウケンセツギョウスギコウボウ,0
1044,3130001070456,新規,0,2021-11-04,2021-11-04,株式会社プレジャー,,株式会社,京都府,京都市右京区,京北田貫町鳥谷３０番地１,,26,108,6010542,,,,,,,2021-11-04,1,,,,,プレジャー,0
1045,3130001070480,新規,0,2021-11-04,2021-11-04,株式会社飛鳥,,株式会社,京都府,京都市山科区,大宅辻脇町１１番地７,00124741,26,110,6078183,,,,,,,2021-11-04,1,,,,,アスカ,0
1046,3130005016307,新規,0,2021-11-04,2021-11-04,一般社団法人京都食文化協会,,その他の設立登記法人,京都府,京都市中京区,東洞院通御池下る笹屋町４３６番地永和御池ビル３０５号室,,26,104,6048187,,,,,,,2021-11-04,1,,,,,キョウトショクブンカキョウカイ,0
1057,3140001123782,新規,0,2021-11-04,2021-11-04,株式会社サスティナＫＯＢＥ,,株式会社,兵庫県,神戸市西区,井吹台西町６丁目２６番地の２,,28,111,6512243,,,,,,,2021-11-04,1,,,,,サスティナコーベ,0
1061,3160001023774,新規,0,2021-11-04,2021-11-04,株式会社ケアプラスワン,,株式会社,滋賀県,蒲生郡竜王町,大字山之上２５５７番地,,25,384,5202531,,,,,,,2021-11-04,1,,,,,ケアプラスワン,0
1062,3160001023782,新規,0,2021-11-04,2021-11-04,株式会社エアパレロジ,,株式会社,滋賀県,栗東市,蜂谷９５８番地１,,25,208,5203000,,,,,,,2021-11-04,1,,,,,エアパレロジ,0
1063,3160001023790,新規,0,2021-11-04,2021-11-04,新井キムチ株式会社,,株式会社,滋賀県,草津市,上笠４丁目１３番３号,,25,206,5250028,,,,,,,2021-11-04,1,,,,,アライキムチ,0
1065,3160005011008,新規,0,2021-11-04,2021-11-04,社会保険労務士法人中中会計,,その他の設立登記法人,滋賀県,彦根市,本町２丁目３番５０号,,25,202,5220064,,,,,,,2021-11-04,1,,,,,ナカナカカイケイ,0
1067,3170001016851,新規,0,2021-11-04,2021-11-04,株式会社岡野,,株式会社,和歌山県,紀の川市,桃山町調月２０４０番地５,,30,208,6496112,,,,,,,2021-11-04,1,,,,,オカノ,0
1084,3180001148512,新規,0,2021-11-04,2021-11-04,株式会社ＳＩＲＯ,,株式会社,愛知県,東海市,荒尾町大恵毛９０番地の１,,23,222,4760003,,,,,,,2021-11-04,1,,,,,シロ,0
1085,3180001148529,新規,0,2021-11-04,2021-11-04,株式会社ＦＲＥＥ　ＳＴＡＲ,,株式会社,愛知県,一宮市,多加木２丁目２１番２７号,,23,203,4910837,,,,,,,2021-11-04,1,,,,,フリースター,0
1086,3180001148545,新規,0,2021-11-04,2021-11-04,株式会社タナカ焼菓子研究所,,株式会社,愛知県,名古屋市北区,上飯田西町１丁目３８番地の１,,23,103,4620809,,,,,,,2021-11-04,1,,,,,タナカヤキガシケンキュウジョ,0
1087,3180001148561,新規,0,2021-11-04,2021-11-04,株式会社おがわ,,株式会社,愛知県,名古屋市北区,如意５丁目２５３番地,,23,103,4620007,,,,,,,2021-11-04,1,,,,,オガワ,0
1088,3180001148578,新規,0,2021-11-04,2021-11-04,株式会社Ｂｏｌｉｄｅ’ｓ,,株式会社,愛知県,名古屋市中区,栄３丁目３５番３４号,,23,106,4600008,,,,,,,2021-11-04,1,,,,,ボリード,0
1093,3180301035575,新規,0,2021-11-04,2021-11-04,株式会社プライム・サービス,,株式会社,愛知県,豊橋市,瓦町通２丁目１５１番地,,23,201,4400824,,,,,,,2021-11-04,1,,,,,プライムサービス,0
1094,3180301035583,新規,0,2021-11-04,2021-11-04,株式会社小島事務所,,株式会社,愛知県,西尾市,寄住町灯籠下４３番地１,,23,213,4450073,,,,,,,2021-11-04,1,,,,,コジマジムショ,0
1101,3190001028820,新規,0,2021-11-04,2021-11-04,株式会社Ｊ．ｃｒｏｗｄ,,株式会社,三重県,松阪市,嬉野小村町６番地１,,24,204,5152315,,,,,,,2021-11-04,1,,,,,ジェイクラウド,0
1102,3190001028829,新規,0,2021-11-04,2021-11-04,株式会社感じる伊賀,,株式会社,三重県,伊賀市,西高倉４７９２番地の４８,,24,216,5180025,,,,,,,2021-11-04,1,,,,,カンジルイガ,0
1107,3190003003813,新規,0,2021-11-04,2021-11-04,合同会社会幸社,,合同会社,三重県,四日市市,上海老町１５８５番地１７,,24,202,5121201,,,,,,,2021-11-04,1,,,,,アイコウシャ,0
1110,3200001039361,新規,0,2021-11-04,2021-11-04,株式会社浅井シーリング,,株式会社,岐阜県,岐阜市,西鶉３丁目１１８番地,,21,201,5008286,,,,,,,2021-11-04,1,,,,,アサイシーリング,0
1111,3200001039378,新規,0,2021-11-04,2021-11-04,株式会社ＡＦＦＥＣＴＩＯＮ,,株式会社,岐阜県,岐阜市,東金宝町３丁目１番地１,,21,201,5008167,,,,,,,2021-11-04,1,,,,,アフェクション,0
1112,3210001018686,新規,0,2021-11-04,2021-11-04,株式会社ワイツー産業,,株式会社,福井県,大野市,月美町１４番４号,,18,205,9120031,,,,,,,2021-11-04,1,,,,,ワイツーサンギョウ,0
1114,3220001024510,新規,0,2021-11-04,2021-11-04,株式会社七宝運輸,,株式会社,石川県,加賀市,山代温泉ヌ９８番地１,,17,206,9220242,,,,,,,2021-11-04,1,,,,,シチホウウンユ,0
1116,3220005008609,新規,0,2021-11-04,2021-11-04,社会保険労務士法人クボマネジメント,,その他の設立登記法人,石川県,金沢市,横川７丁目３５番地１,,17,201,9218163,,,,,,,2021-11-04,1,,,,,クボマネジメント,0
1118,3230001019063,新規,0,2021-11-04,2021-11-04,Ｋｏｊｉｒｏｏ　Ｃｏｏｌ　Ｅｘｐ株式会社,,株式会社,富山県,富山市,石金２丁目２番１５－４０１号,,16,201,9300966,,,,,,,2021-11-04,1,,,,,コジロークールイーエックスピー,0
1126,3240001058853,新規,0,2021-11-04,2021-11-04,株式会社ティー・ユー・アール,,株式会社,広島県,東広島市,高屋町宮領１００５番地３２,,34,212,7392103,,,,,,,2021-11-04,1,,,,,ティーユーアール,0
1127,3240001058861,新規,0,2021-11-04,2021-11-04,株式会社ガニエ,,株式会社,広島県,広島市中区,舟入川口町６番９号ＳＴビルＩＩ１０３号室,00124745,34,101,7300845,,,,,,,2021-11-04,1,,,,,ガニエ,0
1128,3240001058886,新規,0,2021-11-04,2021-11-04,株式会社Ｆ．Ｏ．Ｂ,,株式会社,広島県,広島市西区,中広町２丁目２０番１０－２０２号,,34,104,7330012,,,,,,,2021-11-04,1,,,,,エフオービー,0
1130,3240003005358,新規,0,2021-11-04,2021-11-04,ｎｉｃｏｗｏｒｋｓ合同会社,,合同会社,広島県,福山市,沼隈町大字中山南２２４７番地２,,34,207,7200402,,,,,,,2021-11-04,1,,,,,ニコワークス,0
1133,3250001019227,新規,0,2021-11-04,2021-11-04,ＮＧＶメンテナンス株式会社,,株式会社,山口県,下松市,瑞穂町４丁目４番８号セピアハイムＡ１０２号,,35,207,7440075,,,,,,,2021-11-04,1,,,,,エヌジーブイメンテナンス,0
1134,3250001019243,新規,0,2021-11-04,2021-11-04,株式会社ＨＫ,,株式会社,山口県,宇部市,東小串２丁目６番１７－３０１号,,35,202,7550068,,,,,,,2021-11-04,1,,,,,エイチケー,0
1138,3250003002932,新規,0,2021-11-04,2021-11-04,共栄電業合同会社,,合同会社,山口県,玖珂郡和木町,瀬田３丁目１１番２号,,35,321,7400062,,,,,,,2021-11-04,1,,,,,キョウエイデンギョウ,0
1139,3260001036163,新規,0,2021-11-04,2021-11-04,株式会社ＭＯＮＤＯ,,株式会社,岡山県,岡山市北区,南方２丁目８番２５号大三ビル１階,,33,101,7000807,,,,,,,2021-11-04,1,,,,,モンド,0
1148,3290001095231,新規,0,2021-11-04,2021-11-04,株式会社ＭＯＲＥ　ＵＰ　ＢＯＯＳＴ,,株式会社,福岡県,久留米市,東和町５４ＮＳＢｌｄｇ．１Ｆ,,40,203,8300035,,,,,,,2021-11-04,1,,,,,モアアップブースト,0
1150,3290003011748,新規,0,2021-11-04,2021-11-04,合同会社Ｂｌｕｅ　Ｐｒｉｎｔ,,合同会社,福岡県,福岡市博多区,博多駅南３丁目１５－３０－３０４,,40,132,8120016,,,,,,,2021-11-04,1,,,,,ブループリント,0
1157,3310001017554,新規,0,2021-11-04,2021-11-04,九州志賀商事株式会社,,株式会社,長崎県,佐世保市,愛宕町１９７番地１シガハイツ２０３号,,42,202,8580917,,,,,,,2021-11-04,1,,,,,キュウシュウシガショウジ,0
1158,3310003004204,新規,0,2021-11-04,2021-11-04,合同会社Ａｄｖｏｃａｔｅ,,合同会社,長崎県,長崎市,立岩町３番１０号,,42,201,8528025,,,,,,,2021-11-04,1,,,,,アドボケイト,0
1160,3320001018717,新規,0,2021-11-04,2021-11-04,株式会社よしたけ,,株式会社,大分県,大分市,大字猪野１５７２番地４,,44,201,8700134,,,,,,,2021-11-04,1,,,,,ヨシタケ,0
1163,3330001029135,新規,0,2021-11-04,2021-11-04,株式会社ｃｙｂａｎｋ,,株式会社,熊本県,熊本市南区,江越２丁目２４番１号,,43,104,8600834,,,,,,,2021-11-04,1,,,,,サイバンク,0
1164,3330001029143,新規,0,2021-11-04,2021-11-04,株式会社ドット・コネクト,,株式会社,熊本県,熊本市西区,城山下代１丁目１番地３,,43,103,8600066,,,,,,,2021-11-04,1,,,,,ドットコネクト,0
1165,3330001029151,新規,0,2021-11-04,2021-11-04,イールドサプレイ株式会社,,株式会社,熊本県,宇城市,松橋町松橋１７３６番地１,,43,213,8690502,,,,,,,2021-11-04,1,,,,,イールドサプレイ,0
1170,3330003009119,新規,0,2021-11-04,2021-11-04,合同会社Ｌａｕｇｈ,,合同会社,熊本県,熊本市中央区,神水２丁目１０番７号光永ビル５０２,,43,101,8620954,,,,,,,2021-11-04,1,,,,,ラフ,0
1180,3360003011542,新規,0,2021-11-04,2021-11-04,合同会社輝星,,合同会社,沖縄県,うるま市,字江洲２１５８番地３２,,47,213,9042244,,,,,,,2021-11-04,1,,,,,キラボシ,0
1181,3360003011550,新規,0,2021-11-04,2021-11-04,ＡＯサポート合同会社,,合同会社,沖縄県,島尻郡八重瀬町,字伊覇２４８番地４,,47,362,9010405,,,,,,,2021-11-04,1,,,,,エーオーサポート,0
1184,3370001047777,新規,0,2021-11-04,2021-11-04,ＹＯＵＮＡＳ　ＴＲＡＤＥＲＳ株式会社,,株式会社,宮城県,仙台市太白区,向山３丁目４－１１ホワイトファミール向山３０３号,,04,104,9820841,,,,,,,2021-11-04,1,,,,,ユーナストレイダーズ,0
1185,3370003005469,新規,0,2021-11-04,2021-11-04,合同会社Ｓｖａｎｓ,,合同会社,宮城県,多賀城市,八幡３丁目１５－３０－２０１,,04,209,9850874,,,,,,,2021-11-04,1,,,,,スバンス,0
1186,3370005010376,新規,0,2021-11-04,2021-11-04,一般社団法人みちのく夢むすび,,その他の設立登記法人,宮城県,柴田郡柴田町,大字中名生字佐野３７番地４４,,04,323,9891612,,,,,,,2021-11-04,1,,,,,ミチノクユメムスビ,0
1191,3390001016664,新規,0,2021-11-04,2021-11-04,株式会社ｈａｎａ　ｔｕｋａｓａ,,株式会社,山形県,上山市,金生西２丁目３番１３号,,06,207,9993126,,,,,,,2021-11-04,1,,,,,ハナツカサ,0
1200,3430001085291,新規,0,2021-11-04,2021-11-04,株式会社大心産業,,株式会社,北海道,札幌市中央区,南八条西５丁目２８９番地７２プラザ８５－５０２号,,01,101,0640808,,,,,,,2021-11-04,1,,,,,ダイシンサンギョウ,0
1201,3430003013317,新規,0,2021-11-04,2021-11-04,合同会社ａｎｄＣ,,合同会社,北海道,札幌市北区,新琴似六条７丁目４－１１,,01,102,0010906,,,,,,,2021-11-04,1,,,,,アンドシー,0
1202,3430003013333,新規,0,2021-11-04,2021-11-04,合同会社ＹＫコンサルティング,,合同会社,北海道,札幌市中央区,北十一条西１７丁目３６番地１１８－８０２号,,01,101,0600011,,,,,,,2021-11-04,1,,,,,ワイケイコンサルティング,0
1211,3480001011540,新規,0,2021-11-04,2021-11-04,株式会社ＳＤＫ,,株式会社,徳島県,吉野川市,鴨島町麻植塚２７１番地,,36,205,7760002,,,,,,,2021-11-04,1,,,,,エスディーケー,0
1215,3490003001596,新規,0,2021-11-04,2021-11-04,合同会社武市神栄堂,,合同会社,高知県,香南市,香我美町岸本１９７番地７,,39,211,7815331,,,,,,,2021-11-04,1,,,,,タケチシンエイドウ,0
1216,3500001023780,新規,0,2021-11-04,2021-11-04,株式会社クリーンサービスさくら,,株式会社,愛媛県,西条市,大町４３７番地１０,,38,206,7930030,,,,,,,2021-11-04,1,,,,,クリーンサービスサクラ,0
1230,4010001222225,新規,0,2021-11-04,2021-11-04,株式会社クラウドソリューションテクノロジー,,株式会社,東京都,中央区,銀座１丁目２０－１６岡安ビル３Ｆ,,13,102,1040061,,,,,,,2021-11-04,1,,,,,クラウドソリューションテクノロジー,0
1231,4010001222241,新規,0,2021-11-04,2021-11-04,株式会社あかたく,,株式会社,東京都,中央区,日本橋茅場町３丁目１２番５－９０１号,,13,102,1030025,,,,,,,2021-11-04,1,,,,,アカタク,0
1232,4010001222266,新規,0,2021-11-04,2021-11-04,株式会社ディアリー,,株式会社,東京都,中央区,湊３丁目３－１１，１２０２,,13,102,1040043,,,,,,,2021-11-04,1,,,,,ディアリー,0
1233,4010001222274,新規,0,2021-11-04,2021-11-04,株式会社フルフェリックス,,株式会社,東京都,中央区,明石町５－１５明図ビル５階Ｃ号室,,13,102,1040044,,,,,,,2021-11-04,1,,,,,フルフェリックス,0
1234,4010001222282,新規,0,2021-11-04,2021-11-04,株式会社若博コーポレーション,,株式会社,東京都,中央区,日本橋茅場町２丁目１５番４号,,13,102,1030025,,,,,,,2021-11-04,1,,,,,ワカヒロコーポレーション,0
1235,4010001222299,新規,0,2021-11-04,2021-11-04,マチタス株式会社,,株式会社,東京都,千代田区,鍛冶町１丁目１０－６ＢＩＺＳＭＡＲＴ７Ｆ（７０３）,,13,101,1010044,,,,,,,2021-11-04,1,,,,,マチタス,0
1236,4010003036144,新規,0,2021-11-04,2021-11-04,合同会社リオン,,合同会社,東京都,千代田区,外神田２丁目２－１４お茶の水リバーサード２０２号室,,13,101,1010021,,,,,,,2021-11-04,1,,,,,リオン,0
1237,4010003036177,新規,0,2021-11-04,2021-11-04,合同会社羽田企画,,合同会社,東京都,中央区,銀座７丁目１３番６号サガミビル２階,,13,102,1040061,,,,,,,2021-11-04,1,,,,,ハネダキカク,0
1243,4010101014943,新規,0,2021-11-04,2021-11-04,株式会社ＯＡＫ,,株式会社,東京都,八王子市,北野台１丁目４１番７号,,13,201,1920913,,,,,,,2021-11-04,1,,,,,オーク,0
1255,4010401163556,新規,0,2021-11-04,2021-11-04,株式会社津嶋,,株式会社,東京都,港区,白金２丁目２番１１－３０１号,,13,103,1080072,,,,,,,2021-11-04,1,,,,,ツシマ,0
1256,4010401163647,新規,0,2021-11-04,2021-11-04,インディセミコンダクタージャパン株式会社,,株式会社,東京都,港区,港南２丁目１６番２号２８階,,13,103,1080075,,,,,,,2021-11-04,1,,,,,インディセミコンダクタージャパン,0
1266,4010405020316,新規,0,2021-11-04,2021-11-04,一般社団法人ｉｋｉｇａｉ認定フォレスター協会,,その他の設立登記法人,東京都,港区,北青山２丁目７－１３プラセオ青山ビル３階,,13,103,1070061,,,,,,,2021-11-04,1,,,,,イキガイニンテイフォレスターキョウカイ,0
1267,4010405020357,新規,0,2021-11-04,2021-11-04,一般社団法人独立言論フォーラム,,その他の設立登記法人,東京都,港区,北青山２丁目１４番４号アーガイル青山１４階,,13,103,1070061,,,,,,,2021-11-04,1,,,,,ドクリツゲンロンフォーラム,0
1268,4010501048046,新規,0,2021-11-04,2021-11-04,株式会社サンビルダー,,株式会社,東京都,台東区,台東１丁目９番４号松浦ビル５階,,13,106,1100016,,,,,,,2021-11-04,1,,,,,サンビルダー,0
1269,4010501048054,新規,0,2021-11-04,2021-11-04,株式会社ＨＴ　Ｓｔｙｌｅ,,株式会社,東京都,台東区,北上野２丁目２１－２宝木ビル４０１号,,13,106,1100014,,,,,,,2021-11-04,1,,,,,エイチティースタイル,0
1274,4010603009235,新規,0,2021-11-04,2021-11-04,ウィート合同会社,,合同会社,東京都,江東区,東砂１丁目３－２－１０９,,13,108,1360074,,,,,,,2021-11-04,1,,,,,ウィート,0
1282,4010801032451,新規,0,2021-11-04,2021-11-04,株式会社Ｌ＆Ｈ,,株式会社,東京都,大田区,上池台４丁目２９番２号,,13,111,1450064,,,,,,,2021-11-04,1,,,,,エルアンドエッチ,0
1285,4010901049742,新規,0,2021-11-04,2021-11-04,株式会社カンフォーラ,,株式会社,東京都,世田谷区,深沢７丁目２３番１０号,,13,112,1580081,,,,,,,2021-11-04,1,,,,,カンフォーラ,0
1286,4010903006915,新規,0,2021-11-04,2021-11-04,エス・アセットマネジメント合同会社,,合同会社,東京都,世田谷区,宮坂３丁目３２番５号,,13,112,1560051,,,,,,,2021-11-04,1,,,,,エスアセットマネジメント,0
1290,4011203003685,新規,0,2021-11-04,2021-11-04,合同会社ｓｏｒａｉｒｏ,,合同会社,東京都,中野区,弥生町１丁目３３番５－２２７号,,13,114,1640013,,,,,,,2021-11-04,1,,,,,ソライロ,0
1294,4011301027314,新規,0,2021-11-04,2021-11-04,株式会社一進,,株式会社,東京都,杉並区,高円寺北１丁目１８番７号,,13,115,1660002,,,,,,,2021-11-04,1,,,,,イッシン,0
1296,4011401023808,新規,0,2021-11-04,2021-11-04,株式会社インクリエイション,,株式会社,東京都,板橋区,赤塚２丁目２７番５号,,13,119,1750092,,,,,,,2021-11-04,1,,,,,インクリエイション,0
1298,4011603003434,新規,0,2021-11-04,2021-11-04,ガムナミエス合同会社,,合同会社,東京都,練馬区,上石神井１丁目１２－７リフュージュ・ハピネスタワー管理人室,,13,120,1770044,,,,,,,2021-11-04,1,,,,,ガムナミエス,0
1299,4011801039916,新規,0,2021-11-04,2021-11-04,株式会社ワイズ市原,,株式会社,東京都,葛飾区,東新小岩４丁目２５番２３号,,13,122,1240023,,,,,,,2021-11-04,1,,,,,ワイズイチハラ,0
1300,4011801039924,新規,0,2021-11-04,2021-11-04,株式会社ＵＮＮＡＭＥＤ,,株式会社,東京都,葛飾区,東水元２丁目１０番１２号シャルムＩＩＩ１０２,00124747,13,122,1250033,,,,,,,2021-11-04,1,,,,,アンネームド,0
1301,4011801039940,新規,0,2021-11-04,2021-11-04,株式会社Ａｕｔｏｋｙｏ　Ｉｎｔｅｒｎａｔｉｏｎａｌ,,株式会社,東京都,足立区,神明３丁目２４番５号,,13,121,1210051,,,,,,,2021-11-04,1,,,,,オートウキョウインターナショナル,0
1303,4012401038498,新規,0,2021-11-04,2021-11-04,株式会社東京先進メディカル,,株式会社,東京都,調布市,下石原１丁目２９番地９,,13,208,1820034,,,,,,,2021-11-04,1,,,,,トウキョウセンシンメディカル,0
1306,4012403005091,新規,0,2021-11-04,2021-11-04,Ａｒｃｔｉｋ　Ｊａｐａｎ合同会社,,合同会社,東京都,府中市,住吉町１丁目８４番地の１,,13,206,1830034,,,,,,,2021-11-04,1,,,,,アークティックジャパン,0
1309,4012701016749,新規,0,2021-11-04,2021-11-04,株式会社山岸技研,,株式会社,東京都,西東京市,下保谷３丁目１番３号,,13,229,2020004,,,,,,,2021-11-04,1,,,,,ヤマギシギケン,0
1327,4020001143718,新規,0,2021-11-04,2021-11-04,山本工業株式会社,,株式会社,神奈川県,横浜市旭区,白根５丁目２番１５－３０１号,,14,112,2410005,,,,,,,2021-11-04,1,,,,,ヤマモトコウギョウ,0
1328,4020001143726,新規,0,2021-11-04,2021-11-04,株式会社信友家,,株式会社,神奈川県,横浜市青葉区,新石川４丁目２０番６号,,14,117,2250003,,,,,,,2021-11-04,1,,,,,ノブトモケ,0
1329,4020001143734,新規,0,2021-11-04,2021-11-04,拓宝産業株式会社,,株式会社,神奈川県,川崎市川崎区,小田１丁目２１番１６号タカノハイツ２０１号,,14,131,2100846,,,,,,,2021-11-04,1,,,,,タクホウサンギョウ,0
1330,4020001143759,新規,0,2021-11-04,2021-11-04,Ｐｉｎｅ＆Ｗｉｓｔｅｒｉａ株式会社,,株式会社,神奈川県,川崎市川崎区,池上新町２丁目１７番４号,,14,131,2100832,,,,,,,2021-11-04,1,,,,,パインアンドウィステリア,0
1331,4020001143767,新規,0,2021-11-04,2021-11-04,株式会社ＡＩＫＩ,,株式会社,神奈川県,横浜市鶴見区,梶山２丁目３２番１３号,,14,101,2300072,,,,,,,2021-11-04,1,,,,,アイキ,0
1332,4020001143775,新規,0,2021-11-04,2021-11-04,株式会社トッチ,,株式会社,神奈川県,横浜市青葉区,荏田西２丁目２６番地２ユーワヒルズＡ２０２,,14,117,2250014,,,,,,,2021-11-04,1,,,,,トッチ,0
1333,4020001143783,新規,0,2021-11-04,2021-11-04,株式会社スフィーダ,,株式会社,神奈川県,横浜市西区,境之谷５３番地４３,,14,103,2200054,,,,,,,2021-11-04,1,,,,,スフィーダ,0
1338,4020003020741,新規,0,2021-11-04,2021-11-04,合同会社ＢＢＴ,,合同会社,神奈川県,川崎市多摩区,登戸１０６７番地３コットンハイツ３０２,,14,135,2140014,,,,,,,2021-11-04,1,,,,,ビービーティー,0
1339,4020003020766,新規,0,2021-11-04,2021-11-04,合同会社ＭＡＰＰＥ　ＳＴＵＤＩＯ,,合同会社,神奈川県,横浜市都筑区,中川１丁目２番Ａ－９０４号,,14,118,2240001,,,,,,,2021-11-04,1,,,,,マッペスタジオ,0
1343,4021001074390,新規,0,2021-11-04,2021-11-04,ステイフリー株式会社,,株式会社,神奈川県,鎌倉市,腰越１丁目１６番８号,,14,204,2480033,,,,,,,2021-11-04,1,,,,,ステイフリー,0
1344,4021001074424,新規,0,2021-11-04,2021-11-04,株式会社Ｋ－Ｐｌａｎｎｉｎｇ,,株式会社,神奈川県,小田原市,曽比３１７１グリーンブリーズ１０３号室,,14,206,2500851,,,,,,,2021-11-04,1,,,,,ケイプランニング,0
1347,4021005012339,新規,0,2021-11-04,2021-11-04,一般社団法人公共浄化槽推進機構,,その他の設立登記法人,神奈川県,小田原市,鬼柳１３８番地２３,,14,206,2500211,,,,,,,2021-11-04,1,,,,,コウキョウジョウカソウスイシンキコウ,0
1355,4030001145077,新規,0,2021-11-04,2021-11-04,Ａｉｎｓｋａｌａ株式会社,,株式会社,埼玉県,さいたま市大宮区,大門町３丁目１４７番地１ライオンズマンション大宮大門町１５０１号,,11,103,3300846,,,,,,,2021-11-04,1,,,,,アインスカラ,0
1356,4030001145093,新規,0,2021-11-04,2021-11-04,株式会社所沢学校給食サービス,,株式会社,埼玉県,所沢市,けやき台２丁目３１番地２,,11,208,3591118,,,,,,,2021-11-04,1,,,,,トコロザワガッコウキュウショクサービス,0
1357,4030001145102,新規,0,2021-11-04,2021-11-04,株式会社メリメロ,,株式会社,埼玉県,加須市,北辻２１６番地,00124744,11,210,3470023,,,,,,,2021-11-04,1,,,,,,0
1358,4030001145127,新規,0,2021-11-04,2021-11-04,株式会社ＲＹＯ,,株式会社,埼玉県,上尾市,大字小泉３７９番地１１,,11,219,3620063,,,,,,,2021-11-04,1,,,,,アールワイオー,0
1359,4030001145176,新規,0,2021-11-04,2021-11-04,株式会社陽汰コーポレーション,,株式会社,埼玉県,上尾市,大字平塚１９６２番地４,,11,219,3620011,,,,,,,2021-11-04,1,,,,,ヒナタコーポレーション,0
1360,4030001145201,新規,0,2021-11-04,2021-11-04,株式会社鴻巣林業,,株式会社,埼玉県,鴻巣市,栄町６番４０号,,11,217,3650055,,,,,,,2021-11-04,1,,,,,コウノスリンギョウ,0
1364,4030003018256,新規,0,2021-11-04,2021-11-04,華合同会社,,合同会社,埼玉県,久喜市,上内４７８番地わし宮団地３街区１８棟５０４号,,11,232,3400211,,,,,,,2021-11-04,1,,,,,ハナ,0
1366,4030005020615,新規,0,2021-11-04,2021-11-04,雲昌寺,,その他の設立登記法人,埼玉県,さいたま市西区,プラザ３４番１３号,,11,101,3310063,,,,,,,2021-11-04,1,,,,,ウンショウジ,0
1374,4040001120855,新規,0,2021-11-04,2021-11-04,株式会社ｒｎｃ,,株式会社,千葉県,成田市,名古屋１２１１番２３,,12,211,2890116,,,,,,,2021-11-04,1,,,,,アールエヌシー,0
1375,4040001120888,新規,0,2021-11-04,2021-11-04,株式会社御子神農園,,株式会社,千葉県,南房総市,石堂１８番地,,12,234,2992503,,,,,,,2021-11-04,1,,,,,ミコガミノウエン,0
1377,4040003018866,新規,0,2021-11-04,2021-11-04,合同会社ｋｏｚｙ,,合同会社,千葉県,成田市,西三里塚１－１７３,,12,211,2860115,,,,,,,2021-11-04,1,,,,,コージー,0
1383,4050001050093,新規,0,2021-11-04,2021-11-04,ＯＬＡＢＯ株式会社,,株式会社,茨城県,古河市,関戸９９１番地１,,08,204,3060205,,,,,,,2021-11-04,1,,,,,オーラボ,0
1387,4060001034285,新規,0,2021-11-04,2021-11-04,株式会社ｓｔｅｐ　ｂｙ　ｓｔｅｐ,,株式会社,栃木県,宇都宮市,桜４丁目３番１１号ナイスパークステイツ桜１０９号室,,09,201,3200043,,,,,,,2021-11-04,1,,,,,ステップバイステップ,0
1390,4070001038599,新規,0,2021-11-04,2021-11-04,株式会社トネリコ,,株式会社,群馬県,伊勢崎市,連取町３３４３番地６,,10,204,3720812,,,,,,,2021-11-04,1,,,,,トネリコ,0
1391,4070001038608,新規,0,2021-11-04,2021-11-04,Ｈ・Ｙ・Ａ株式会社,,株式会社,群馬県,邑楽郡邑楽町,大字篠塚１１２２番地１,,10,525,3700615,,,,,,,2021-11-04,1,,,,,エイチワイエー,0
1394,4080001024557,新規,0,2021-11-04,2021-11-04,株式会社Ｅｎｉｓｙｓ,,株式会社,静岡県,静岡市葵区,平和１丁目３番４８号,,22,101,4200876,,,,,,,2021-11-04,1,,,,,エニシス,0
1396,4080003002676,新規,0,2021-11-04,2021-11-04,合同会社ＷＯＲＬＤ・ＳＢ,,合同会社,静岡県,藤枝市,本町３丁目３番２７号,,22,214,4260018,,,,,,,2021-11-04,1,,,,,ワールドエスビー,0
1397,4080103002444,新規,0,2021-11-04,2021-11-04,れいうん合同会社,,合同会社,静岡県,富士宮市,元城町１８番９号,,22,207,4180064,,,,,,,2021-11-04,1,,,,,レイウン,0
1398,4080105006187,新規,0,2021-11-04,2021-11-04,特定非営利活動法人きりのね,,その他の設立登記法人,静岡県,富士市,厚原２３１４番地,,22,210,4190201,,,,,,,2021-11-04,1,,,,,キリノネ,0
1400,4080401025460,新規,0,2021-11-04,2021-11-04,株式会社サニオン,,株式会社,静岡県,掛川市,大池５２番地の１,,22,213,4360043,,,,,,,2021-11-04,1,,,,,サニオン,0
1402,4100001034784,新規,0,2021-11-04,2021-11-04,株式会社ジャパンマグネットホールディングス,,株式会社,長野県,諏訪市,大字湖南４１２４－１１,,20,206,3920131,,,,,,,2021-11-04,1,,,,,ジャパンマグネットホールディングス,0
1403,4100001034792,新規,0,2021-11-04,2021-11-04,株式会社金井山素材,,株式会社,長野県,伊那市,平沢８７４３番地,,20,209,3960030,,,,,,,2021-11-04,1,,,,,カナイヤマソザイ,0
1406,4110001036144,新規,0,2021-11-04,2021-11-04,株式会社ＦＲＵＯＲ,,株式会社,新潟県,見附市,新町１丁目２－５,,15,211,9540057,,,,,,,2021-11-04,1,,,,,フルオール,0
1418,4120001241585,新規,0,2021-11-04,2021-11-04,株式会社大谷,,株式会社,大阪府,大阪市平野区,瓜破東５丁目３番５号,,27,126,5470022,,,,,,,2021-11-04,1,,,,,オオタニ,0
1419,4120001241593,新規,0,2021-11-04,2021-11-04,株式会社スタンドオフ,,株式会社,大阪府,大阪市北区,天神橋１丁目１７番７号,,27,127,5300041,,,,,,,2021-11-04,1,,,,,スタンドオフ,0
1420,4120001241602,新規,0,2021-11-04,2021-11-04,株式会社ｃｏｒｅ,,株式会社,大阪府,大阪市中央区,宗右衛門町５番１２号ニュージャパン宗右衛門町ビル５階５０５号室,,27,128,5420084,,,,,,,2021-11-04,1,,,,,コア,0
1421,4120001241610,新規,0,2021-11-04,2021-11-04,株式会社ハピネスリブ,,株式会社,大阪府,大阪市福島区,玉川４丁目１３番２６号,,27,103,5530004,,,,,,,2021-11-04,1,,,,,ハピネスリブ,0
1422,4120001241635,新規,0,2021-11-04,2021-11-04,ワンベルク株式会社,,株式会社,大阪府,大阪市西区,南堀江２丁目３番４－２０２号,,27,106,5500015,,,,,,,2021-11-04,1,,,,,ワンベルク,0
1423,4120001241651,新規,0,2021-11-04,2021-11-04,ＨＯＭＥ　ＣＲＥＷ株式会社,,株式会社,大阪府,大阪市平野区,喜連５丁目１番１１号,,27,126,5470027,,,,,,,2021-11-04,1,,,,,ホームクルー,0
1428,4122001035315,新規,0,2021-11-04,2021-11-04,株式会社恵我金属工業所,,株式会社,大阪府,八尾市,西弓削２丁目２０４番地,,27,212,5810035,,,,,,,2021-11-04,1,,,,,エガキンゾクコウギョウショ,0
1429,4122003002206,新規,0,2021-11-04,2021-11-04,合同会社きたやコーポレーション,,合同会社,大阪府,東大阪市,森河内西１丁目３０番７号,,27,227,5770061,,,,,,,2021-11-04,1,,,,,キタヤコーポレーション,0
1433,4130001070430,新規,0,2021-11-04,2021-11-04,株式会社松田コーポレーション,,株式会社,京都府,京都市南区,壬生通八条下る東寺町５４７－１０,,26,107,6018478,,,,,,,2021-11-04,1,,,,,マツダコーポレーション,0
1434,4130001070471,新規,0,2021-11-04,2021-11-04,株式会社ＴＲＹＪＩＮ,,株式会社,京都府,京都市伏見区,向島津田町９５番地４０,,26,109,6128154,,,,,,,2021-11-04,1,,,,,トライジン,0
1438,4130003007570,新規,0,2021-11-04,2021-11-04,合同会社Ｆｏｒｓｔｅｒ,,合同会社,京都府,八幡市,男山金振２３番地１１,,26,210,6148365,,,,,,,2021-11-04,1,,,,,フォースター,0
1443,4140001123690,新規,0,2021-11-04,2021-11-04,株式会社水宝,,株式会社,兵庫県,揖保郡太子町,佐用岡９３５－２８,,28,464,6711575,,,,,,,2021-11-04,1,,,,,スイホウ,0
1444,4140001123773,新規,0,2021-11-04,2021-11-04,株式会社ＨＩＴＳＵＭＩ,,株式会社,兵庫県,神戸市垂水区,五色山２丁目１番３８号,,28,108,6550035,,,,,,,2021-11-04,1,,,,,ヒツミ,0
1447,4140003016934,新規,0,2021-11-04,2021-11-04,ＧｏｏｄＳｋｙ合同会社,,合同会社,兵庫県,三田市,つつじが丘南１丁目１４番地１１,,28,219,6691347,,,,,,,2021-11-04,1,,,,,グッドスカイ,0
1450,4150001025069,新規,0,2021-11-04,2021-11-04,新井商事株式会社,,株式会社,奈良県,大和高田市,礒野北町４番３０号,,29,202,6350094,,,,,,,2021-11-04,1,,,,,アライショウジ,0
1451,4150001025077,新規,0,2021-11-04,2021-11-04,株式会社ＡＩＬＥ,,株式会社,奈良県,橿原市,久米町６５０番地の３アルテハイム２０２号,,29,205,6340063,,,,,,,2021-11-04,1,,,,,エル,0
1455,4160001023773,新規,0,2021-11-04,2021-11-04,株式会社ＯＮＯＤＡ,,株式会社,滋賀県,近江八幡市,八幡町２４２番地２,,25,204,5230857,,,,,,,2021-11-04,1,,,,,オノダ,0
1456,4160003002420,新規,0,2021-11-04,2021-11-04,合同会社ＯＮＥｓｅｌｆ,,合同会社,滋賀県,大津市,大平２丁目６番４８号,,25,201,5200867,,,,,,,2021-11-04,1,,,,,ワンセルフ,0
1457,4160005011007,新規,0,2021-11-04,2021-11-04,一般社団法人滋賀県任意売却支援協会,,その他の設立登記法人,滋賀県,草津市,大路３丁目１番３３号,,25,206,5250032,,,,,,,2021-11-04,1,,,,,シガケンニンイバイキャクシエンキョウカイ,0
1463,4180001148528,新規,0,2021-11-04,2021-11-04,株式会社イクサ工務店,,株式会社,愛知県,名古屋市東区,泉１丁目２１番３５号１０１,,23,102,4610001,,,,,,,2021-11-04,1,,,,,イクサコウムテン,0
1464,4180001148569,新規,0,2021-11-04,2021-11-04,株式会社サンヨー工務店,,株式会社,愛知県,名古屋市北区,辻町３丁目１６番地の１ハイカムール青山２０２,,23,103,4620032,,,,,,,2021-11-04,1,,,,,サンヨーコウムテン,0
1465,4180001148593,新規,0,2021-11-04,2021-11-04,株式会社Ｇｌｏｂａｌ　Ｃｏｌｏｒｓ,,株式会社,愛知県,知多郡東浦町,大字森岡字南陽二区１０５番地の１－１０Ｅ,,23,442,4702101,,,,,,,2021-11-04,1,,,,,グローバルカラーズ,0
1468,4180003023150,新規,0,2021-11-04,2021-11-04,合同会社霞,,合同会社,愛知県,名古屋市南区,芝町１８１番地の１,,23,112,4570023,,,,,,,2021-11-04,1,,,,,カスミ,0
1470,4180301035574,新規,0,2021-11-04,2021-11-04,Ｉｒｉｓ株式会社,,株式会社,愛知県,豊橋市,高洲町字高洲１１３番地１,,23,201,4418006,,,,,,,2021-11-04,1,,,,,アイリス,0
1473,4190001028811,新規,0,2021-11-04,2021-11-04,ソフトビジネス株式会社,,株式会社,三重県,名張市,緑が丘東３１８番地,,24,208,5180756,,,,,,,2021-11-04,1,,,,,ソフトビジネス,0
1474,4190001028828,新規,0,2021-11-04,2021-11-04,株式会社オン・タス,,株式会社,三重県,四日市市,万古町３番２７－２号,,24,202,5100804,,,,,,,2021-11-04,1,,,,,オンタス,0
1475,4190001028836,新規,0,2021-11-04,2021-11-04,株式会社山本サッシ店,,株式会社,三重県,尾鷲市,中央町４番８号,,24,209,5193615,,,,,,,2021-11-04,1,,,,,ヤマモトサッシテン,0
1479,4190003003812,新規,0,2021-11-04,2021-11-04,テンビンフードクリエイト合同会社,,合同会社,三重県,四日市市,桜新町１丁目６４番地,,24,202,5121215,,,,,,,2021-11-04,1,,,,,テンビンフードクリエイト,0
1482,4200001039352,新規,0,2021-11-04,2021-11-04,一藤工業株式会社,,株式会社,岐阜県,大垣市,本今５丁目８１番地,,21,202,5030931,,,,,,,2021-11-04,1,,,,,イチフジコウギョウ,0
1492,4230005009175,新規,0,2021-11-04,2021-11-04,一般社団法人ココロの駅,,その他の設立登記法人,富山県,南砺市,福野８７番地１０,,16,210,9391561,,,,,,,2021-11-04,1,,,,,ココロノエキ,0
1494,4240001058836,新規,0,2021-11-04,2021-11-04,株式会社ＴＶＳ,,株式会社,広島県,呉市,広三芦１丁目２番９号,,34,202,7370106,,,,,,,2021-11-04,1,,,,,ティーブイエス,0
1495,4240001058844,新規,0,2021-11-04,2021-11-04,株式会社Ｃ＆Ｗクラフト,,株式会社,広島県,呉市,川尻町西５丁目１番２８号,,34,202,7372603,,,,,,,2021-11-04,1,,,,,シーアンドダブルクラフト,0
1496,4240001058885,新規,0,2021-11-04,2021-11-04,株式会社インフィニート,,株式会社,広島県,広島市佐伯区,五日市７丁目１４番１０－７０２号,,34,108,7315127,,,,,,,2021-11-04,1,,,,,インフィニート,0
1498,4240003005349,新規,0,2021-11-04,2021-11-04,合同会社ガラージ,,合同会社,広島県,廿日市市,上平良１２２番地３,,34,213,7380026,,,,,,,2021-11-04,1,,,,,ガラージ,0
1500,4250001019226,新規,0,2021-11-04,2021-11-04,株式会社ｂａｓｉｓ,,株式会社,山口県,光市,大字岩田２３０５番地１,,35,210,7430103,,,,,,,2021-11-04,1,,,,,ベイシス,0
1501,4250001019242,新規,0,2021-11-04,2021-11-04,株式会社ケース,,株式会社,山口県,周南市,有楽町４０番地,,35,215,7450035,,,,,,,2021-11-04,1,,,,,ケース,0
1509,4270001008383,新規,0,2021-11-04,2021-11-04,株式会社Ｊｏｙ　Ｇａｒｄｅｎ,,株式会社,鳥取県,米子市,角盤町３丁目９４番地,,31,202,6830812,,,,,,,2021-11-04,1,,,,,ジョイガーデン,0
1510,4280001008556,新規,0,2021-11-04,2021-11-04,株式会社田吾作,,株式会社,島根県,益田市,赤城町１０番３号,,32,204,6980034,,,,,,,2021-11-04,1,,,,,タゴサク,0
1518,4290001095222,新規,0,2021-11-04,2021-11-04,株式会社Ｓ．Ｏ．Ｗ,,株式会社,福岡県,福岡市東区,香椎照葉６丁目３番１２号,,40,131,8130017,,,,,,,2021-11-04,1,,,,,ソウ,0
1519,4290001095230,新規,0,2021-11-04,2021-11-04,北海株式会社,,株式会社,福岡県,福岡市博多区,美野島２丁目１５番１－２０７室,,40,132,8120017,,,,,,,2021-11-04,1,,,,,ホッカイ,0
1525,4310001017553,新規,0,2021-11-04,2021-11-04,株式会社ＡＲＴグループ,,株式会社,長崎県,西彼杵郡長与町,三根郷５２番地１５８,,42,307,8512125,,,,,,,2021-11-04,1,,,,,エーアールティーグループ,0
1526,4310001017561,新規,0,2021-11-04,2021-11-04,株式会社熊谷商店,,株式会社,長崎県,大村市,竹松本町６８９番地４,,42,205,8560805,,,,,,,2021-11-04,1,,,,,クマガイショウテン,0
1527,4310003004203,新規,0,2021-11-04,2021-11-04,合同会社ハーベストマッチ,,合同会社,長崎県,長崎市,戸町１丁目５番７－５０５号,,42,201,8500952,,,,,,,2021-11-04,1,,,,,ハーベストマッチ,0
1528,4310005008565,新規,0,2021-11-04,2021-11-04,医療法人かえで歯科クリニック,,その他の設立登記法人,長崎県,佐世保市,上本山町８０８番地１３,,42,202,8580903,,,,,,,2021-11-04,1,,,,,カエデシカクリニック,0
1529,4320001018708,新規,0,2021-11-04,2021-11-04,ザイツ建築株式会社,,株式会社,大分県,日田市,大字友田７番地２スカイラーク１０５号,,44,204,8770000,,,,,,,2021-11-04,1,,,,,ザイツケンチク,0
1534,4330001029126,新規,0,2021-11-04,2021-11-04,株式会社オプショニア,,株式会社,熊本県,熊本市北区,高平２丁目１７番９３号２０３,,43,105,8600085,,,,,,,2021-11-04,1,,,,,オプショニア,0
1535,4330001029134,新規,0,2021-11-04,2021-11-04,株式会社Ｊａｐａｎｅｓｅ　Ｔｅｅ,,株式会社,熊本県,熊本市北区,植木町豊岡１４４０番地１,,43,105,8610163,,,,,,,2021-11-04,1,,,,,ジャパニーズティー,0
1536,4330001029150,新規,0,2021-11-04,2021-11-04,株式会社ブレンアーキテクト,,株式会社,熊本県,熊本市中央区,桜町１番２５号,,43,101,8600805,,,,,,,2021-11-04,1,,,,,ブレンアーキテクト,0
1540,4330003009118,新規,0,2021-11-04,2021-11-04,合同会社アスプラス,,合同会社,熊本県,荒尾市,増永１１４８番地１,,43,204,8640032,,,,,,,2021-11-04,1,,,,,アスプラス,0
1544,4350001017401,新規,0,2021-11-04,2021-11-04,優建工業株式会社,,株式会社,宮崎県,宮崎市,恒久５丁目１番地５,,45,201,8800913,,,,,,,2021-11-04,1,,,,,ユウケンコウギョウ,0
1549,4360003011541,新規,0,2021-11-04,2021-11-04,合同会社ハローエンジェル,,合同会社,沖縄県,名護市,字伊差川１６番地,,47,209,9051152,,,,,,,2021-11-04,1,,,,,ハローエンジェル,0
1550,4360005006548,新規,0,2021-11-04,2021-11-04,一般社団法人興南学園同窓会,,その他の設立登記法人,沖縄県,那覇市,古島１丁目７番地１,,47,201,9020061,,,,,,,2021-11-04,1,,,,,コウナンガクエンドウソウカイ,0
1553,4370001047776,新規,0,2021-11-04,2021-11-04,ＮＩＡＭＡＴ　ＴＲＡＤＩＮＧ株式会社,,株式会社,宮城県,仙台市青葉区,山手町９番３２号ＦパレスＩ－１０２,00124752,04,101,9810967,,,,,,,2021-11-04,1,,,,,ナヤマトトレーディング,0
1554,4370001047792,新規,0,2021-11-04,2021-11-04,株式会社ａｔＫ,,株式会社,宮城県,遠田郡涌谷町,涌谷字追波南１番地１,,04,501,9870121,,,,,,,2021-11-04,1,,,,,アットケー,0
1556,4380001032315,新規,0,2021-11-04,2021-11-04,株式会社徳進興業,,株式会社,福島県,白河市,中田１５１番地５,,07,205,9610053,,,,,,,2021-11-04,1,,,,,トクシンコウギョウ,0
1559,4390001016663,新規,0,2021-11-04,2021-11-04,株式会社村山市余暇開発公社,,株式会社,山形県,村山市,碁点１０３４番地７,,06,208,9950209,,,,,,,2021-11-04,1,,,,,ムラヤマシヨカカイハツコウシャ,0
1560,4400001015663,新規,0,2021-11-04,2021-11-04,株式会社奥州企画,,株式会社,岩手県,奥州市,水沢上姉体５丁目６番地２,,03,215,0230833,,,,,,,2021-11-04,1,,,,,オウシュウキカク,0
1563,4410001013006,新規,0,2021-11-04,2021-11-04,株式会社ＭＩＵＲＡＹＡ,,株式会社,秋田県,大仙市,大曲西根字鳥居１９４番地,,05,212,0140072,,,,,,,2021-11-04,1,,,,,ミウラヤ,0
1572,4430003013332,新規,0,2021-11-04,2021-11-04,合同会社ＨＳＲ企画,,合同会社,北海道,江別市,野幌屯田町２９番地の１キャロルハウスＩＩＩ６０１号室,00124751,01,217,0690803,,,,,,,2021-11-04,1,,,,,エイチエスアールキカク,0
1582,4470001018809,新規,0,2021-11-04,2021-11-04,日本マイズエンジニアリング株式会社,,株式会社,香川県,高松市,多肥上町３１６番地１,,37,201,7618076,,,,,,,2021-11-04,1,,,,,ニホンマイズエンジニアリング,0
1583,4470001018817,新規,0,2021-11-04,2021-11-04,株式会社藤井自動車,,株式会社,香川県,坂出市,加茂町１１７１番地１５,,37,203,7620023,,,,,,,2021-11-04,1,,,,,フジイジドウシャ,0
1584,4490001010029,新規,0,2021-11-04,2021-11-04,株式会社Ｐｉｃｃｏｌｉｎｏ,,株式会社,高知県,高知市,宇津野２５３番地１,,39,201,7800031,,,,,,,2021-11-04,1,,,,,ピッコリーノ,0
1598,5010001222273,新規,0,2021-11-04,2021-11-04,株式会社Ｆｏｒ　Ｒ,,株式会社,東京都,中央区,日本橋蛎殻町１丁目１９番８－８０３号,,13,102,1030014,,,,,,,2021-11-04,1,,,,,フォーアール,0
1599,5010001222307,新規,0,2021-11-04,2021-11-04,株式会社ゼウレカ,,株式会社,東京都,千代田区,大手町１丁目２番１号,,13,101,1000004,,,,,,,2021-11-04,1,,,,,ゼウレカ,0
1600,5010003036168,新規,0,2021-11-04,2021-11-04,山形遊佐洋上風力合同会社,,合同会社,東京都,千代田区,大手町１丁目４番２号,,13,101,1000004,,,,,,,2021-11-04,1,,,,,ヤマガタユザヨウジョウフウリョク,0
1601,5010003036176,新規,0,2021-11-04,2021-11-04,合同会社Ｈｉｇｈ　Ｂｒｉｄｇｅ,,合同会社,東京都,中央区,日本橋浜町２丁目５番５号藤田ビル２０１号,,13,102,1030007,,,,,,,2021-11-04,1,,,,,ハイブリッジ,0
1615,5010401163588,新規,0,2021-11-04,2021-11-04,株式会社ＳＯＵＬ,,株式会社,東京都,港区,南青山２丁目２番１５号ウィン青山９４２,,13,103,1070062,,,,,,,2021-11-04,1,,,,,ソウル,0
1616,5010401163605,新規,0,2021-11-04,2021-11-04,ＢＰテクノロジー株式会社,,株式会社,東京都,港区,浜松町２丁目２番１５号浜松町ダイヤビル２Ｆ,,13,103,1050013,,,,,,,2021-11-04,1,,,,,ビーピーテクノロジー,0
1626,5010601060180,新規,0,2021-11-04,2021-11-04,株式会社ナック,,株式会社,東京都,江東区,大島１丁目３４番１６号,,13,108,1360072,,,,,,,2021-11-04,1,,,,,ナック,0
1627,5010603009226,新規,0,2021-11-04,2021-11-04,合同会社カクヨウ,,合同会社,東京都,江東区,豊洲１丁目３番７号豊洲ハイツ５０５,,13,108,1350061,,,,,,,2021-11-04,1,,,,,カクヨウ,0
1629,5010701041741,新規,0,2021-11-04,2021-11-04,株式会社Ｏｎｌｙ　Ｐｉｅｃｅ,,株式会社,東京都,品川区,上大崎１丁目１８番８号－４０６号室,,13,109,1410021,,,,,,,2021-11-04,1,,,,,オンリーピース,0
1632,5010801032459,新規,0,2021-11-04,2021-11-04,株式会社Ｔｏｉｋａｋｅ　Ｓｔｕｄｉｏ,,株式会社,東京都,大田区,田園調布３丁目１５番１４号,,13,111,1450071,,,,,,,2021-11-04,1,,,,,トイカケスタジオ,0
1634,5010901049717,新規,0,2021-11-04,2021-11-04,株式会社イースフェイス,,株式会社,東京都,世田谷区,奥沢４丁目２７番１２号,,13,112,1580083,,,,,,,2021-11-04,1,,,,,イースフェイス,0
1635,5010901049733,新規,0,2021-11-04,2021-11-04,株式会社トゥルースエンタテインメント,,株式会社,東京都,世田谷区,弦巻４丁目２４番１３－２０１号,,13,112,1540016,,,,,,,2021-11-04,1,,,,,トゥルースエンタテインメント,0
1636,5010903006914,新規,0,2021-11-04,2021-11-04,ＱＵＡＤＲＯ合同会社,,合同会社,東京都,世田谷区,東玉川２丁目４０番１８号マイキャッスル田園調布４０１,,13,112,1580084,,,,,,,2021-11-04,1,,,,,クアドロ,0
1640,5011001143732,新規,0,2021-11-04,2021-11-04,株式会社マッドアンドカンパニー,,株式会社,東京都,渋谷区,恵比寿西１丁目３５番１１号,,13,113,1500021,,,,,,,2021-11-04,1,,,,,マッドアンドカンパニー,0
1641,5011001143749,新規,0,2021-11-04,2021-11-04,株式会社Ｓｅｐｔｅｍｂｅｒ５,,株式会社,東京都,渋谷区,桜丘町２２番１７号グランドスポット２０７,,13,113,1500031,,,,,,,2021-11-04,1,,,,,セプテンバーファイブ,0
1642,5011001143773,新規,0,2021-11-04,2021-11-04,株式会社ＩＲＯＮＯＷＡ,,株式会社,東京都,渋谷区,富ヶ谷１丁目４９番２１－１４０５号,,13,113,1510063,,,,,,,2021-11-04,1,,,,,イロノワ,0
1646,5011101096764,新規,0,2021-11-04,2021-11-04,ｍｕｘ．ＴＯＫＹＯ株式会社,,株式会社,東京都,新宿区,西新宿３丁目２番９号新宿ワシントンホテルビル本館２Ｆ,,13,104,1600023,,,,,,,2021-11-04,1,,,,,ムックスドットトウキョウ,0
1648,5011103011093,新規,0,2021-11-04,2021-11-04,合同会社ＡＳＵＫＡ,,合同会社,東京都,新宿区,早稲田鶴巻町５４４－１１プライムメゾン早稲田５０２,,13,104,1620041,,,,,,,2021-11-04,1,,,,,アスカ,0
1652,5011301027313,新規,0,2021-11-04,2021-11-04,株式会社ロキシー,,株式会社,東京都,杉並区,下高井戸５丁目３番１０－５０５号,,13,115,1680073,,,,,,,2021-11-04,1,,,,,ロキシー,0
1654,5011305002790,新規,0,2021-11-04,2021-11-04,方南ファミリーコーポ管理組合法人,,その他の設立登記法人,東京都,杉並区,方南２丁目２３番２２号,,13,115,1680062,,,,,,,2021-11-04,1,,,,,ホウナンファミリーコーポ,0
1658,5011403003492,新規,0,2021-11-04,2021-11-04,合同会社ＣＲＥＷＡ,,合同会社,東京都,板橋区,南常盤台１丁目１１－６レフア南常盤台１０１号室,,13,119,1740072,,,,,,,2021-11-04,1,,,,,クレワ,0
1660,5011701024827,新規,0,2021-11-04,2021-11-04,株式会社ＴＡＰ,,株式会社,東京都,江戸川区,東葛西４丁目５６番１７号,,13,123,1340084,,,,,,,2021-11-04,1,,,,,タップ,0
1665,5011801039923,新規,0,2021-11-04,2021-11-04,株式会社博,,株式会社,東京都,葛飾区,新宿６丁目２番１―３６１３号,,13,122,1250051,,,,,,,2021-11-04,1,,,,,ヒロ,0
1667,5012401038506,新規,0,2021-11-04,2021-11-04,株式会社ｐｉｗａｎｇ,,株式会社,東京都,武蔵野市,吉祥寺本町２丁目１４番７号,,13,203,1800004,,,,,,,2021-11-04,1,,,,,ピワン,0
1668,5012701016748,新規,0,2021-11-04,2021-11-04,株式会社ＧＲＡＮＤＳＬＡＭ,,株式会社,東京都,西東京市,向台町１丁目４番７号,,13,229,1880013,,,,,,,2021-11-04,1,,,,,グランドスラム,0
1684,5020001143733,新規,0,2021-11-04,2021-11-04,株式会社ＮＹパートナーズ,,株式会社,神奈川県,川崎市麻生区,上麻生３丁目１５番１－１１１号,,14,137,2150021,,,,,,,2021-11-04,1,,,,,エヌワイパートナーズ,0
1685,5020001143758,新規,0,2021-11-04,2021-11-04,株式会社ハチライフ,,株式会社,神奈川県,川崎市高津区,末長２丁目９番１７号,,14,134,2130013,,,,,,,2021-11-04,1,,,,,ハチライフ,0
1686,5020001143774,新規,0,2021-11-04,2021-11-04,株式会社ＢＩＳＴＡ,,株式会社,神奈川県,横浜市港北区,綱島西２丁目１４番１号ニックハイム綱島第一１１１号室,,14,109,2230053,,,,,,,2021-11-04,1,,,,,ビスタ,0
1687,5020001143799,新規,0,2021-11-04,2021-11-04,株式会社ハイファー,,株式会社,神奈川県,横浜市旭区,桐が作１６５３番地３,,14,112,2410832,,,,,,,2021-11-04,1,,,,,ハイファー,0
1689,5020003020724,新規,0,2021-11-04,2021-11-04,Ｃｈａｉｒ　ｏｆ　Ｂ合同会社,,合同会社,神奈川県,横浜市中区,元浜町２丁目１３番地１マストライフ馬車道７０５,,14,104,2310004,,,,,,,2021-11-04,1,,,,,チェアオブビー,0
1690,5020003020740,新規,0,2021-11-04,2021-11-04,合同会社コルベガ,,合同会社,神奈川県,横浜市西区,北幸１丁目１１番１号水信ビル７階,,14,103,2200004,,,,,,,2021-11-04,1,,,,,,0
1694,5021001074398,新規,0,2021-11-04,2021-11-04,株式会社リサイクルの達人,,株式会社,神奈川県,厚木市,愛甲２丁目１１番地コープ野村５号棟３０２,,14,212,2430035,,,,,,,2021-11-04,1,,,,,リサイクルノタツジン,0
1695,5021001074415,新規,0,2021-11-04,2021-11-04,庭ｄｅｎｉｎｇ株式会社,,株式会社,神奈川県,横須賀市,佐島の丘１丁目４番２４号,,14,201,2400108,,,,,,,2021-11-04,1,,,,,ニワデニング,0
1697,5021003011052,新規,0,2021-11-04,2021-11-04,合同会社Ｋｉｎｄ　ｄｅｓｉｇｎ,,合同会社,神奈川県,中郡大磯町,西小磯２９２番地１,,14,341,2550005,,,,,,,2021-11-04,1,,,,,カインドデザイン,0
1701,5030001145142,新規,0,2021-11-04,2021-11-04,山田工業株式会社,,株式会社,埼玉県,富士見市,大字水子１２５５番地９,,11,235,3540011,,,,,,,2021-11-04,1,,,,,ヤマダコウギョウ,0
1702,5030001145175,新規,0,2021-11-04,2021-11-04,株式会社パルトネール,,株式会社,埼玉県,入間市,東町１丁目２番９号,,11,225,3580002,,,,,,,2021-11-04,1,,,,,パルトネール,0
1703,5030001145209,新規,0,2021-11-04,2021-11-04,ＡＦＳ株式会社,,株式会社,埼玉県,三郷市,谷中７９番地１,,11,237,3410032,,,,,,,2021-11-04,1,,,,,エイエフエス,0
1704,5030001145217,新規,0,2021-11-04,2021-11-04,株式会社優栄組,,株式会社,埼玉県,三郷市,中央１丁目２２－４－１００２号室,,11,237,3410038,,,,,,,2021-11-04,1,,,,,ユウエイグミ,0
1708,5030003018247,新規,0,2021-11-04,2021-11-04,合同会社ｋａｌｕｅｍ,,合同会社,埼玉県,東松山市,六軒町８番地１８,,11,212,3550024,,,,,,,2021-11-04,1,,,,,カルエム,0
1713,5040001120870,新規,0,2021-11-04,2021-11-04,株式会社蒼,,株式会社,千葉県,千葉市緑区,あすみが丘４丁目１８番地１,,12,105,2670066,,,,,,,2021-11-04,1,,,,,ソウ,0
1714,5040001120887,新規,0,2021-11-04,2021-11-04,株式会社はなわ農園,,株式会社,千葉県,旭市,大間手７５番地,,12,215,2892603,,,,,,,2021-11-04,1,,,,,ハナワノウエン,0
1715,5040001120904,新規,0,2021-11-04,2021-11-04,ＭｙＴｉｅｓ株式会社,,株式会社,千葉県,木更津市,畑沢南６丁目１１－６,,12,206,2920826,,,,,,,2021-11-04,1,,,,,マイタイズ,0
1720,5040003018849,新規,0,2021-11-04,2021-11-04,ストレングスパートナー合同会社,,合同会社,千葉県,松戸市,西馬橋４丁目６００番地の１２,,12,207,2710044,,,,,,,2021-11-04,1,,,,,ストレングスパートナー,0
1721,5040003018865,新規,0,2021-11-04,2021-11-04,ＥＲＡＢＩ合同会社,,合同会社,千葉県,松戸市,八ケ崎３丁目７４番地の１１,,12,207,2700023,,,,,,,2021-11-04,1,,,,,エラビ,0
1725,5070001038598,新規,0,2021-11-04,2021-11-04,ＣＳＰ株式会社,,株式会社,群馬県,太田市,下浜田町４４１番地,,10,205,3730821,,,,,,,2021-11-04,1,,,,,シーエスピー,0
1726,5070001038607,新規,0,2021-11-04,2021-11-04,株式会社Ｌ．Ｓ．モータース,,株式会社,群馬県,前橋市,粕川町月田５３６番地,,10,201,3710203,,,,,,,2021-11-04,1,,,,,エルエスモータース,0
1739,5080005007409,新規,0,2021-11-04,2021-11-04,行政書士法人森功事務所,,その他の設立登記法人,静岡県,静岡市葵区,北安東２丁目１２番２０号,,22,101,4200881,,,,,,,2021-11-04,1,,,,,モリイサオジムショ,0
1741,5080101022889,新規,0,2021-11-04,2021-11-04,株式会社サンクス,,株式会社,静岡県,沼津市,大岡２４１４番地の１１静岡リッツ１０１号室,,22,203,4100022,,,,,,,2021-11-04,1,,,,,サンクス,0
1747,5080401025451,新規,0,2021-11-04,2021-11-04,石山農園株式会社,,株式会社,静岡県,掛川市,上西郷２６６５番地,,22,213,4360342,,,,,,,2021-11-04,1,,,,,イシヤマノウエン,0
1750,5100001034775,新規,0,2021-11-04,2021-11-04,株式会社エフケーアール,,株式会社,長野県,松本市,梓川梓７２４５番地１,,20,202,3901702,,,,,,,2021-11-04,1,,,,,エフケーアール,0
1751,5100001034783,新規,0,2021-11-04,2021-11-04,株式会社Ｇｅｎｉｘ　Ｊａｐａｎ,,株式会社,長野県,塩尻市,大字広丘堅石１２３番地５,,20,215,3990705,,,,,,,2021-11-04,1,,,,,ジェニックスジャパン,0
1756,5110001036168,新規,0,2021-11-04,2021-11-04,株式会社ＩＤＳ,,株式会社,新潟県,新潟市東区,岡山１４７番地１,,15,102,9500821,,,,,,,2021-11-04,1,,,,,アイディーエス,0
1758,5110005016728,新規,0,2021-11-04,2021-11-04,一般社団法人間伐材利用促進会,,その他の設立登記法人,新潟県,新潟市中央区,湖南２９番地１９ファーストクラス中央インター２０４号室,,15,103,9501151,,,,,,,2021-11-04,1,,,,,カンバツザイリヨウソクシンカイ,0
1775,5120001241411,新規,0,2021-11-04,2021-11-04,逸家株式会社,,株式会社,大阪府,大阪市城東区,蒲生３丁目１５番１２号セザンヌ藤３０３Ａ,,27,118,5360016,,,,,,,2021-11-04,1,,,,,イツヤ,0
1776,5120001241551,新規,0,2021-11-04,2021-11-04,株式会社ｇｒｏｗ－ｔｅｃｈ,,株式会社,大阪府,大阪市大正区,泉尾２丁目２０番２０号,,27,108,5510031,,,,,,,2021-11-04,1,,,,,グローテック,0
1777,5120001241592,新規,0,2021-11-04,2021-11-04,株式会社日本貴金属,,株式会社,大阪府,大阪市都島区,片町１丁目２番９号,,27,102,5340025,,,,,,,2021-11-04,1,,,,,ニホンキキンゾク,0
1778,5120001241618,新規,0,2021-11-04,2021-11-04,株式会社シグナルグループマネジメント,,株式会社,大阪府,大阪市中央区,難波５丁目１番６０号,,27,128,5420076,,,,,,,2021-11-04,1,,,,,シグナルグループマネジメント,0
1779,5120001241634,新規,0,2021-11-04,2021-11-04,株式会社アシスト,,株式会社,大阪府,大阪市東成区,大今里２丁目２８番１０号,,27,115,5370012,,,,,,,2021-11-04,1,,,,,アシスト,0
1780,5120001241659,新規,0,2021-11-04,2021-11-04,アルマーベラス株式会社,,株式会社,大阪府,門真市,舟田町１０番９号,,27,223,5710021,,,,,,,2021-11-04,1,,,,,アルマーベラス,0
1781,5120001241683,新規,0,2021-11-04,2021-11-04,株式会社みらい,,株式会社,大阪府,大阪市中央区,島之内１丁目１２番１０号,,27,128,5420082,,,,,,,2021-11-04,1,,,,,ミライ,0
1783,5120003020540,新規,0,2021-11-04,2021-11-04,合同会社フューチャーバリュー,,合同会社,大阪府,大阪市中央区,本町４丁目６番３－６０５号,,27,128,5410053,,,,,,,2021-11-04,1,,,,,フューチャーバリュー,0
1784,5120003020549,新規,0,2021-11-04,2021-11-04,ＨＰＭ貿易合同会社,,合同会社,大阪府,大阪市東淀川区,東中島１丁目１３番４３－８０４号,,27,114,5330033,,,,,,,2021-11-04,1,,,,,エッチピーエムボウエキ,0
1785,5120005022576,新規,0,2021-11-04,2021-11-04,特定非営利活動法人猪飼野セッパラム文庫,,その他の設立登記法人,大阪府,大阪市天王寺区,細工谷２丁目１４－８,,27,109,5430032,,,,,,,2021-11-04,1,,,,,イカイノセッパラムブンコ,0
1786,5120005022584,新規,0,2021-11-04,2021-11-04,特定非営利活動法人グリーフサポート・リヴ,,その他の設立登記法人,大阪府,大阪市西区,靱本町３丁目２－７横井第一ビル７０１号,,27,106,5500004,,,,,,,2021-11-04,1,,,,,グリーフサポートリヴ,0
1787,5120101064605,新規,0,2021-11-04,2021-11-04,ＨｉＭｅ防災株式会社,,株式会社,大阪府,和泉市,弥生町１丁目１４番１号,,27,219,5940061,,,,,,,2021-11-04,1,,,,,ヒメボウサイ,0
1791,5122001035314,新規,0,2021-11-04,2021-11-04,株式会社ケーエヌ,,株式会社,大阪府,東大阪市,若江西新町２丁目１２番５号,,27,227,5780944,,,,,,,2021-11-04,1,,,,,ケーエヌ,0
1792,5122001035322,新規,0,2021-11-04,2021-11-04,株式会社ＳＫＹ－ＧＲＯＷ,,株式会社,大阪府,東大阪市,若江東町６丁目４番２号,,27,227,5780935,,,,,,,2021-11-04,1,,,,,スカイグロウ,0
1793,5122001035330,新規,0,2021-11-04,2021-11-04,スパラ工業株式会社,,株式会社,大阪府,柏原市,国分本町２丁目４番３８－３０６号,,27,221,5820021,,,,,,,2021-11-04,1,,,,,スパラコウギョウ,0
1794,5122003002205,新規,0,2021-11-04,2021-11-04,合同会社ＰＬＡＩＳＩＲ,,合同会社,大阪府,東大阪市,長栄寺１番３－２７号,,27,227,5770055,,,,,,,2021-11-04,1,,,,,プレジール,0
1802,5130001070421,新規,0,2021-11-04,2021-11-04,株式会社Ｍｙ　Ｈｏｍｅ　Ｄｏ,,株式会社,京都府,京都市伏見区,新町１丁目５１７番地,,26,109,6128081,,,,,,,2021-11-04,1,,,,,マイホームドゥ,0
1803,5130001070462,新規,0,2021-11-04,2021-11-04,株式会社ＳＫＣ,,株式会社,京都府,相楽郡精華町,大字下狛小字西川原５９番地２,,26,366,6190245,,,,,,,2021-11-04,1,,,,,エスケーシー,0
1804,5130001070487,新規,0,2021-11-04,2021-11-04,株式会社フロントオフィス,,株式会社,京都府,京都市南区,吉祥院長田町３８番地協和ハウスビル３０１号,,26,107,6018362,,,,,,,2021-11-04,1,,,,,フロントオフィス,0
1812,5140001123756,新規,0,2021-11-04,2021-11-04,株式会社大成,,株式会社,兵庫県,神戸市兵庫区,水木通１丁目１－４エステムプラザ神戸水木通グランクロス６１３,,28,105,6520802,,,,,,,2021-11-04,1,,,,,タイセイ,0
1813,5140001123780,新規,0,2021-11-04,2021-11-04,株式会社アルクプラス,,株式会社,兵庫県,伊丹市,東野８丁目５０番地９,,28,207,6640004,,,,,,,2021-11-04,1,,,,,アルクプラス,0
1818,5150001025068,新規,0,2021-11-04,2021-11-04,株式会社ノースグリーン,,株式会社,奈良県,大和高田市,大字市場２番地４,,29,202,6350074,,,,,,,2021-11-04,1,,,,,ノースグリーン,0
1819,5150001025076,新規,0,2021-11-04,2021-11-04,株式会社合木セラミックス,,株式会社,奈良県,生駒市,壱分町１２３４番地４,,29,209,6300222,,,,,,,2021-11-04,1,,,,,ゴウキセラミックス,0
1823,5170001016858,新規,0,2021-11-04,2021-11-04,株式会社ＥＮＲＯ,,株式会社,和歌山県,橋本市,胡麻生５６９番地の７二階,,30,203,6480066,,,,,,,2021-11-04,1,,,,,エンロ,0
1835,5180001148502,新規,0,2021-11-04,2021-11-04,株式会社ラディホーム,,株式会社,愛知県,名古屋市千種区,東山元町４丁目２０番地の１,,23,101,4640804,,,,,,,2021-11-04,1,,,,,ラディホーム,0
1836,5180001148527,新規,0,2021-11-04,2021-11-04,株式会社イトポン,,株式会社,愛知県,小牧市,小牧５丁目１１５番地１,,23,219,4850041,,,,,,,2021-11-04,1,,,,,イトポン,0
1837,5180001148535,新規,0,2021-11-04,2021-11-04,株式会社真聖興業,,株式会社,愛知県,半田市,新池町１丁目２０３番地の２０,,23,205,4750078,,,,,,,2021-11-04,1,,,,,シンセイコウギョウ,0
1838,5180001148592,新規,0,2021-11-04,2021-11-04,株式会社なごチューブ,,株式会社,愛知県,名古屋市中区,錦３丁目６番１５号先,,23,106,4600003,,,,,,,2021-11-04,1,,,,,ナゴチューブ,0
1839,5180001148601,新規,0,2021-11-04,2021-11-04,株式会社じんゆう鍼灸整体院,,株式会社,愛知県,愛知郡東郷町,白鳥１丁目１９番地８,,23,302,4700155,,,,,,,2021-11-04,1,,,,,ジンユウシンキュウセイタイイン,0
1847,5180301035573,新規,0,2021-11-04,2021-11-04,株式会社子育て安心住宅＆デザインラボ,,株式会社,愛知県,岡崎市,羽根町字池下８番地１－１０２号,,23,202,4440813,,,,,,,2021-11-04,1,,,,,コソダテアンシンジュウタクアンドデザインラボ,0
1848,5180301035581,新規,0,2021-11-04,2021-11-04,株式会社匠エクステリア,,株式会社,愛知県,岡崎市,宇頭町字長合２７番地２,,23,202,4440905,,,,,,,2021-11-04,1,,,,,タクミエクステリア,0
1849,5180301035598,新規,0,2021-11-04,2021-11-04,株式会社ｗｈｏｌｅＳ,,株式会社,愛知県,岡崎市,羽根西３丁目６番地１０,,23,202,4440838,,,,,,,2021-11-04,1,,,,,ホールズ,0
1851,5190001028819,新規,0,2021-11-04,2021-11-04,株式会社奥田サッシ,,株式会社,三重県,鈴鹿市,国府町４６７８番地３５,,24,207,5130836,,,,,,,2021-11-04,1,,,,,オクダサッシ,0
1858,5200001039351,新規,0,2021-11-04,2021-11-04,関ケ原技研工業株式会社,,株式会社,岐阜県,不破郡関ケ原町,大字野上１３３７番地の１,,21,362,5031532,,,,,,,2021-11-04,1,,,,,セキガハラギケンコウギョウ,0
1861,5220001024509,新規,0,2021-11-04,2021-11-04,株式会社ＡＲＵＫＵ不動産,,株式会社,石川県,白山市,村井町１９８１番地３,,17,210,9240032,,,,,,,2021-11-04,1,,,,,アルクフドウサン,0
1870,5240001058851,新規,0,2021-11-04,2021-11-04,株式会社ホットスタッフ三原,,株式会社,広島県,三原市,宮浦６丁目６番２８号,,34,204,7230051,,,,,,,2021-11-04,1,,,,,ホットスタッフミハラ,0
1871,5240001058884,新規,0,2021-11-04,2021-11-04,株式会社ＴＡＫＥ　ＯＮ　ＷＯＲＫ,,株式会社,広島県,広島市西区,高須３丁目３番７号,,34,104,7330871,,,,,,,2021-11-04,1,,,,,テイクオンワーク,0
1876,5250005008694,新規,0,2021-11-04,2021-11-04,特定非営利活動法人山口教育わくわく会,,その他の設立登記法人,山口県,下関市,菊川町大字下岡枝２０６番地３,,35,201,7500317,,,,,,,2021-11-04,1,,,,,ヤマグチキョウイクワクワクカイ,0
1879,5260001036161,新規,0,2021-11-04,2021-11-04,株式会社スズキ自動車販売,,株式会社,岡山県,倉敷市,真備町尾崎９７４番地２,,33,202,7101304,,,,,,,2021-11-04,1,,,,,スズキジドウシャハンバイ,0
1880,5260001036178,新規,0,2021-11-04,2021-11-04,株式会社Ｖｅｔｓ　Ｓｐｅｃｉａｌ　Ｆａｃｉｌｉｔｙ,,株式会社,岡山県,岡山市東区,益野町８８０番地２０,,33,103,7048175,,,,,,,2021-11-04,1,,,,,ベッツスペシャルファシリティ,0
1885,5270001008382,新規,0,2021-11-04,2021-11-04,株式会社栄雄建設,,株式会社,鳥取県,西伯郡伯耆町,大殿１０３７番地,,31,390,6894121,,,,,,,2021-11-04,1,,,,,エイユウケンセツ,0
1886,5280001008555,新規,0,2021-11-04,2021-11-04,株式会社永野不動産,,株式会社,島根県,大田市,静間町１０３８番地１,,32,205,6940031,,,,,,,2021-11-04,1,,,,,ナガノフドウサン,0
1891,5290001095213,新規,0,2021-11-04,2021-11-04,株式会社ヒカリメンテナンス,,株式会社,福岡県,小郡市,三沢２９６４番地７,,40,216,8380106,,,,,,,2021-11-04,1,,,,,ヒカリメンテナンス,0
1893,5290003011787,新規,0,2021-11-04,2021-11-04,合同会社ｉｎｆｉｎｉｔｙ,,合同会社,福岡県,福岡市東区,筥松４丁目２番３０フェルメール１０１号,,40,131,8120061,,,,,,,2021-11-04,1,,,,,インフィニティ,0
1898,5310001017560,新規,0,2021-11-04,2021-11-04,株式会社八尋,,株式会社,長崎県,長崎市,川口町６番２４号サイモンビル,,42,201,8528108,,,,,,,2021-11-04,1,,,,,ヤヒロ,0
1899,5310003004202,新規,0,2021-11-04,2021-11-04,合同会社インタラクトリップ,,合同会社,長崎県,諫早市,野中町５０８番地１９,,42,204,8540047,,,,,,,2021-11-04,1,,,,,インタラクトリップ,0
1900,5310005008564,新規,0,2021-11-04,2021-11-04,特定非営利活動法人Ａ　Ｌｉｂｅｒｔｙ,,その他の設立登記法人,長崎県,島原市,柏野町２７７６番地１０,,42,203,8550064,,,,,,,2021-11-04,1,,,,,アリバティ,0
1901,5320001018715,新規,0,2021-11-04,2021-11-04,株式会社和,,株式会社,大分県,竹田市,荻町馬場４８１番地１,,44,208,8796115,,,,,,,2021-11-04,1,,,,,ナゴミ,0
1910,5340001024224,新規,0,2021-11-04,2021-11-04,株式会社いろは動物クリニック,,株式会社,鹿児島県,いちき串木野市,東島平町２２８番地,,46,219,8960031,,,,,,,2021-11-04,1,,,,,イロハドウブツクリニック,0
1916,5360003011540,新規,0,2021-11-04,2021-11-04,合同会社ちず商会,,合同会社,沖縄県,国頭郡今帰仁村,字仲宗根２５０番地,,47,306,9050401,,,,,,,2021-11-04,1,,,,,チズショウカイ,0
1918,5370001047783,新規,0,2021-11-04,2021-11-04,株式会社Ｍａｋｉｎｏ,,株式会社,宮城県,仙台市青葉区,八幡１丁目１０番１３－２０２号,,04,101,9800871,,,,,,,2021-11-04,1,,,,,マキノ,0
1919,5370001047791,新規,0,2021-11-04,2021-11-04,東日本商事株式会社,,株式会社,宮城県,仙台市泉区,館３丁目５１番地の１,,04,105,9813214,,,,,,,2021-11-04,1,,,,,ヒガシニホンショウジ,0
1923,5390001016670,新規,0,2021-11-04,2021-11-04,株式会社皆幸技建,,株式会社,山形県,東根市,鷺ノ森１丁目８番２０号,,06,211,9993703,,,,,,,2021-11-04,1,,,,,カイコウギケン,0
1925,5400001015662,新規,0,2021-11-04,2021-11-04,株式会社エーテル企画,,株式会社,岩手県,奥州市,水沢佐倉河字前田１８番地８,,03,215,0230003,,,,,,,2021-11-04,1,,,,,エーテルキカク,0
1926,5410001013005,新規,0,2021-11-04,2021-11-04,株式会社悠誠,,株式会社,秋田県,秋田市,旭南２丁目７番１６－２号　ライフキャップ旭南ＩＩＢ号,00124742,05,201,0100925,,,,,,,2021-11-04,1,,,,,ユウセイ,0
1932,5430003013281,新規,0,2021-11-04,2021-11-04,ＢＳＭ合同会社,,合同会社,北海道,苫小牧市,住吉町２丁目１番１－２０２号,,01,213,0530046,,,,,,,2021-11-04,1,,,,,ビーエスエム,0
1933,5430003013323,新規,0,2021-11-04,2021-11-04,合同会社Ａｌｐｈａ　ｌｉｎｅ,,合同会社,北海道,札幌市中央区,南一条西１６丁目１番地３２３春野ビル３Ｆ,,01,101,0600061,,,,,,,2021-11-04,1,,,,,アルファライン,0
1934,5430003013331,新規,0,2021-11-04,2021-11-04,合同会社Ａ＆Ｙ,,合同会社,北海道,札幌市中央区,大通西１４丁目１番９号ダイアパレス大通３階３０１号室,,01,101,0600042,,,,,,,2021-11-04,1,,,,,エーアンドワイ,0
1936,5450003002150,新規,0,2021-11-04,2021-11-04,ＩＹＯＳ．合同会社,,合同会社,北海道,富良野市,山部中町２番３号,,01,229,0791564,,,,,,,2021-11-04,1,,,,,イヨスドット,0
1938,5460001005625,新規,0,2021-11-04,2021-11-04,株式会社Ｌａ　Ｇｒａｉｎｅ,,株式会社,北海道,川上郡標茶町,字熊牛原野十二線西５番地２,,01,664,0883145,,,,,,,2021-11-04,1,,,,,ラグレーヌ,0
1939,5460005001546,新規,0,2021-11-04,2021-11-04,社会保険労務士法人池田事務所,,その他の設立登記法人,北海道,釧路市,美原３丁目４４番５号,,01,206,0850065,,,,,,,2021-11-04,1,,,,,イケダジムショ,0
1954,5500001023770,新規,0,2021-11-04,2021-11-04,株式会社グッドハウル,,株式会社,愛媛県,宇和島市,三間町戸雁８４０－１,,38,203,7981115,,,,,,,2021-11-04,1,,,,,グッドハウル,0
1955,5500001023779,新規,0,2021-11-04,2021-11-04,株式会社ＲＳパートナーズ,,株式会社,愛媛県,松山市,北藤原町１番地２レーベン松山市駅ＴＨＥＦＲＯＮＴ１００１,,38,201,7900033,,,,,,,2021-11-04,1,,,,,アールエスパートナーズ,0
1967,6010003036150,新規,0,2021-11-04,2021-11-04,ラベンダー合同会社,,合同会社,東京都,中央区,銀座１丁目６番１１号アースタックス税理士法人内,,13,102,1040061,,,,,,,2021-11-04,1,,,,,ラベンダー,0
1968,6010003036159,新規,0,2021-11-04,2021-11-04,Ｃａｐｉｔａｌ　Ｔｒｅｅ　Ｊａｐａｎ合同会社,,合同会社,東京都,千代田区,神田三崎町２丁目１５番６号Ｋ－ＳＴＡＧＥ５Ｆ,,13,101,1010061,,,,,,,2021-11-04,1,,,,,キャピタルツリージャパン,0
1969,6010101014941,新規,0,2021-11-04,2021-11-04,株式会社シンカＥＣＧミューズ,,株式会社,東京都,八王子市,大和田町６丁目１９番１６号,,13,201,1920045,,,,,,,2021-11-04,1,,,,,シンカイーシージーミューズ,0
1982,6010401163579,新規,0,2021-11-04,2021-11-04,株式会社ｂｏｄｙ　ａｒｔｉｓａｎ,,株式会社,東京都,港区,赤坂９丁目２番１３－４０５号,,13,103,1070052,,,,,,,2021-11-04,1,,,,,ボディアルチザン,0
1983,6010401163620,新規,0,2021-11-04,2021-11-04,株式会社Ｄトーク,,株式会社,東京都,港区,浜松町２丁目２番１５号浜松町ダイヤビル２階,,13,103,1050013,,,,,,,2021-11-04,1,,,,,ディートーク,0
1984,6010401163637,新規,0,2021-11-04,2021-11-04,株式会社カイカフィナンシャルホールディングス,,株式会社,東京都,港区,南青山５丁目１１番９号,,13,103,1070062,,,,,,,2021-11-04,1,,,,,カイカフィナンシャルホールディングス,0
1990,6010403026437,新規,0,2021-11-04,2021-11-04,バグジー合同会社,,合同会社,東京都,港区,東新橋２丁目７－３昭和アステック１号館,,13,103,1050021,,,,,,,2021-11-04,1,,,,,バグジー,0
1991,6010403026461,新規,0,2021-11-04,2021-11-04,合同会社ＤＡヘルスケア１１,,合同会社,東京都,港区,元赤坂１丁目１番７号,,13,103,1070051,,,,,,,2021-11-04,1,,,,,ディーエイヘルスケアイレブン,0
1993,6010405020388,新規,0,2021-11-04,2021-11-04,一般社団法人ＤＡヘルスケア１１,,その他の設立登記法人,東京都,港区,元赤坂１丁目１番７号,,13,103,1070051,,,,,,,2021-11-04,1,,,,,ディーエイヘルスケアイレブン,0
1994,6010501048060,新規,0,2021-11-04,2021-11-04,株式会社ＣＪ,,株式会社,東京都,台東区,台東３丁目３９番４号コーポ鈴木３０３,,13,106,1100016,,,,,,,2021-11-04,1,,,,,シージェイ,0
1996,6010601060188,新規,0,2021-11-04,2021-11-04,デジトラ株式会社,,株式会社,東京都,墨田区,向島５丁目２３番６号,,13,107,1310033,,,,,,,2021-11-04,1,,,,,デジトラ,0
1999,6010701041740,新規,0,2021-11-04,2021-11-04,株式会社イグレック,,株式会社,東京都,品川区,中延５丁目４番１１号,,13,109,1420053,,,,,,,2021-11-04,1,,,,,イグレック,0
2003,6010901049716,新規,0,2021-11-04,2021-11-04,株式会社Ｕｎｉｑｕｅ　Ｓｅｌｆ,,株式会社,東京都,世田谷区,大原２丁目１８番１９号フェリシード２０２,,13,112,1560041,,,,,,,2021-11-04,1,,,,,ユニークセルフ,0
2004,6010901049724,新規,0,2021-11-04,2021-11-04,株式会社フリースタックス,,株式会社,東京都,世田谷区,用賀２丁目３９－５ゴントッボ２０２,,13,112,1580097,,,,,,,2021-11-04,1,,,,,,0
2005,6010901049732,新規,0,2021-11-04,2021-11-04,株式会社イーストウエスト,,株式会社,東京都,世田谷区,上祖師谷５丁目９番２６号グランデール１階,,13,112,1570065,,,,,,,2021-11-04,1,,,,,イーストウエスト,0
2013,6011001143764,新規,0,2021-11-04,2021-11-04,株式会社ＫＥＩＳＵＫＥＹＯＳＨＩＤＡ,,株式会社,東京都,渋谷区,富ヶ谷１丁目６番９号Ａ－１ビルディング２階,,13,113,1510063,,,,,,,2021-11-04,1,,,,,ケイスケヨシダ,0
2019,6011003013668,新規,0,2021-11-04,2021-11-04,Ｐｌａｎ　Ｔｏ　Ｗｉｎ合同会社,,合同会社,東京都,渋谷区,渋谷２丁目１９－１５宮益坂ビルディング６０９,,13,113,1500002,,,,,,,2021-11-04,1,,,,,プラントゥウィン,0
2021,6011103011101,新規,0,2021-11-04,2021-11-04,ウイチ合同会社,,合同会社,東京都,新宿区,四谷坂町５番地３－２０２号,,13,104,1600002,,,,,,,2021-11-04,1,,,,,ウイチ,0
2023,6011201023386,新規,0,2021-11-04,2021-11-04,ｓｔｏｐ　ｍｏｎｋｅｙｉｎｇ　ａｒｏｕｎｄ株式会社,,株式会社,東京都,中野区,松が丘１丁目３２番１１号フラット哲学堂５０１,,13,114,1650024,,,,,,,2021-11-04,1,,,,,ストップモンキーイングアラウンド,0
2028,6011401023814,新規,0,2021-11-04,2021-11-04,株式会社有電,,株式会社,東京都,板橋区,高島平３丁目２番９号,,13,119,1750082,,,,,,,2021-11-04,1,,,,,ユウデン,0
2030,6011701024826,新規,0,2021-11-04,2021-11-04,国際協力日本語学院株式会社,,株式会社,東京都,江戸川区,東葛西５丁目１３番１３号フローラル東葛西２－２０２号室,,13,123,1340084,,,,,,,2021-11-04,1,,,,,コクサイキョウリョクニホンゴガクイン,0
2037,6011801039914,新規,0,2021-11-04,2021-11-04,お弁当日本株式会社,,株式会社,東京都,葛飾区,立石６丁目２０番８号,,13,122,1240012,,,,,,,2021-11-04,1,,,,,オベントウニッポン,0
2038,6011801039922,新規,0,2021-11-04,2021-11-04,山田産業株式会社,,株式会社,東京都,足立区,西綾瀬２丁目１０番１０－２０１号,,13,121,1200014,,,,,,,2021-11-04,1,,,,,ヤマダサンギョウ,0
2057,6020001143724,新規,0,2021-11-04,2021-11-04,株式会社ＮＡＫＡＴＡＮＩ,,株式会社,神奈川県,横浜市西区,北幸１丁目１１番１号水信ビル７階,,14,103,2200004,,,,,,,2021-11-04,1,,,,,ナカタニ,0
2058,6020001143732,新規,0,2021-11-04,2021-11-04,株式会社仲井間工業,,株式会社,神奈川県,横浜市鶴見区,北寺尾３丁目１８番３８号,,14,101,2300074,,,,,,,2021-11-04,1,,,,,ナカイマコウギョウ,0
2059,6020001143740,新規,0,2021-11-04,2021-11-04,株式会社オフィス伊東,,株式会社,神奈川県,横浜市港北区,日吉本町５丁目７６番６号,,14,109,2230062,,,,,,,2021-11-04,1,,,,,オフィスイトウ,0
2060,6020001143749,新規,0,2021-11-04,2021-11-04,株式会社Ｒ　ｆｏｒ　ｔｉｍｅ,,株式会社,神奈川県,川崎市川崎区,駅前本町１１－２川崎フロンティアビル４階,,14,131,2100007,,,,,,,2021-11-04,1,,,,,アールフォータイム,0
2061,6020001143773,新規,0,2021-11-04,2021-11-04,株式会社ＦｉｎｅＭｅｔｒｉｃｓ,,株式会社,神奈川県,横浜市保土ケ谷区,常盤台７９番１号横浜国立大学地域連携推進機構成長戦略教育研究センター内,,14,106,2400067,,,,,,,2021-11-04,1,,,,,ファインメトリクス,0
2062,6020001143781,新規,0,2021-11-04,2021-11-04,株式会社五六－Ｋｏｎ,,株式会社,神奈川県,川崎市幸区,鹿島田１丁目１９番９号,,14,132,2120058,,,,,,,2021-11-04,1,,,,,コンコン,0
2063,6020001143798,新規,0,2021-11-04,2021-11-04,サンワ商事株式会社,,株式会社,神奈川県,川崎市川崎区,本町２丁目５番地５ー１０１,,14,131,2100001,,,,,,,2021-11-04,1,,,,,サンワショウジ,0
2065,6020005015259,新規,0,2021-11-04,2021-11-04,一般社団法人オプションズ,,その他の設立登記法人,神奈川県,横浜市都筑区,折本町１３８番地１,,14,118,2240043,,,,,,,2021-11-04,1,,,,,オプションズ,0
2066,6021001074380,新規,0,2021-11-04,2021-11-04,株式会社Ｔｉｎ　ｔｒｅｅ．,,株式会社,神奈川県,小田原市,中村原２１８番地の７,,14,206,2560803,,,,,,,2021-11-04,1,,,,,ティンツリードット,0
2067,6021001074422,新規,0,2021-11-04,2021-11-04,裕カンパニー株式会社,,株式会社,神奈川県,鎌倉市,長谷１丁目１６番２５号ライフサポート長谷１０２号室,,14,204,2480016,,,,,,,2021-11-04,1,,,,,ユウカンパニー,0
2079,6030001145141,新規,0,2021-11-04,2021-11-04,株式会社キズナ・ワールド,,株式会社,埼玉県,草加市,谷塚１１８７番地１２谷塚ビル１０１,,11,221,3400000,,,,,,,2021-11-04,1,,,,,キズナワールド,0
2080,6030001145174,新規,0,2021-11-04,2021-11-04,ナッチコーポレーション株式会社,,株式会社,埼玉県,越谷市,赤山町２丁目１１９番地６,,11,222,3430807,,,,,,,2021-11-04,1,,,,,ナッチコーポレション,0
2082,6030003018246,新規,0,2021-11-04,2021-11-04,合同会社リライト,,合同会社,埼玉県,朝霞市,膝折町４丁目１９番２１号,,11,227,3510014,,,,,,,2021-11-04,1,,,,,リライト,0
2087,6040001120886,新規,0,2021-11-04,2021-11-04,水素株式会社,,株式会社,千葉県,流山市,大字北１３４番地の１９２,,12,220,2700117,,,,,,,2021-11-04,1,,,,,スイソ,0
2088,6040001120903,新規,0,2021-11-04,2021-11-04,株式会社バーデンハイム,,株式会社,千葉県,我孫子市,天王台４丁目２０番３号,,12,222,2701143,,,,,,,2021-11-04,1,,,,,バーデンハイム,0
2094,6040005021412,新規,0,2021-11-04,2021-11-04,特定非営利活動法人グランドライン,,その他の設立登記法人,千葉県,千葉市美浜区,真砂２丁目２４番８号,,12,106,2610011,,,,,,,2021-11-04,1,,,,,グランドライン,0
2102,6050001050083,新規,0,2021-11-04,2021-11-04,株式会社廣木工業,00124740,株式会社,茨城県,常陸大宮市,小倉１４７９番地１,,08,225,3192203,,,,,,,2021-11-04,1,,,,,ヒロキコウギョウ,0
2103,6050001050100,新規,0,2021-11-04,2021-11-04,株式会社申達貿易,,株式会社,茨城県,古河市,釈迦１８７８番地１,,08,204,3060222,,,,,,,2021-11-04,1,,,,,シンタツボウエキ,0
2107,6060003003848,新規,0,2021-11-04,2021-11-04,合同会社Ｌｅ　Ｃｏｅｕｒ,,合同会社,栃木県,佐野市,金屋下町２４４９－３,,09,204,3270025,,,,,,,2021-11-04,1,,,,,ルクール,0
2108,6060005009918,新規,0,2021-11-04,2021-11-04,特定非営利活動法人仁愛グループ,,その他の設立登記法人,栃木県,宇都宮市,平出町３５７２番地１,,09,201,3210901,,,,,,,2021-11-04,1,,,,,ジンアイグループ,0
2112,6070001038606,新規,0,2021-11-04,2021-11-04,十王自動車株式会社,,株式会社,群馬県,伊勢崎市,末広町１７３番地２,,10,204,3720057,,,,,,,2021-11-04,1,,,,,ジュウオウジドウシャ,0
2113,6070001038614,新規,0,2021-11-04,2021-11-04,株式会社新雪,,株式会社,群馬県,高崎市,藤塚町３６５番地１,,10,202,3700875,,,,,,,2021-11-04,1,,,,,シンセツ,0
2118,6080001024555,新規,0,2021-11-04,2021-11-04,株式会社ＳＴＡＲＴ　ＵＰ,,株式会社,静岡県,焼津市,三ケ名１１３９番地の１－２Ｆ,,22,212,4250071,,,,,,,2021-11-04,1,,,,,スタートアップ,0
2119,6080101022888,新規,0,2021-11-04,2021-11-04,株式会社天空工業,,株式会社,静岡県,御殿場市,中山５３７番地の７,,22,215,4120035,,,,,,,2021-11-04,1,,,,,テンクウコウギョウ,0
2120,6080101022896,新規,0,2021-11-04,2021-11-04,株式会社樹,,株式会社,静岡県,駿東郡清水町,徳倉１３４０番地の１１９,,22,341,4110917,,,,,,,2021-11-04,1,,,,,イツキ,0
2123,6080401025450,新規,0,2021-11-04,2021-11-04,ＭＭ　ＪＡＰＡ　ＤＩＧＩＴＡＬ株式会社,,株式会社,静岡県,磐田市,堀之内１７６０番地１,,22,211,4380205,,,,,,,2021-11-04,1,,,,,エムエムジャパデジタル,0
2129,6100001034774,新規,0,2021-11-04,2021-11-04,株式会社プロムナードＭＴ,,株式会社,長野県,小諸市,大字御影新田６４２番地１,,20,208,3840808,,,,,,,2021-11-04,1,,,,,プロムナードエムティー,0
2136,6110001026135,新規,0,2021-11-04,2021-11-04,株式会社アクエリア,,株式会社,新潟県,南魚沼市,中３１１番地,,15,226,9496436,,,,,,,2021-11-04,1,,,,,アクエリア,0
2137,6110001036167,新規,0,2021-11-04,2021-11-04,葵総建株式会社,,株式会社,新潟県,新潟市東区,物見山４丁目６番１４－Ｃ号,,15,102,9500021,,,,,,,2021-11-04,1,,,,,アオイソウケン,0
2141,6110005016727,新規,0,2021-11-04,2021-11-04,一般社団法人新潟県病院薬剤師会,,その他の設立登記法人,新潟県,新潟市中央区,旭町通１番町７５４番地,,15,103,9518122,,,,,,,2021-11-04,1,,,,,ニイガタケンビョウインヤクザイシカイ,0
2157,6120001241575,新規,0,2021-11-04,2021-11-04,株式会社スマイウェル,,株式会社,大阪府,大阪市西区,北堀江１丁目１番１８号,,27,106,5500014,,,,,,,2021-11-04,1,,,,,スマイウェル,0
2158,6120001241641,新規,0,2021-11-04,2021-11-04,株式会社フェニックス,,株式会社,大阪府,大阪市中央区,本町１丁目２番１号本町リバーサイドビル３階,,27,128,5410053,,,,,,,2021-11-04,1,,,,,フェニックス,0
2159,6120001241658,新規,0,2021-11-04,2021-11-04,株式会社ＦＯＲ　ＲＯＯＴＳ,,株式会社,大阪府,大阪市中央区,瓦町１丁目３－２－４１５号室,,27,128,5410048,,,,,,,2021-11-04,1,,,,,フォールーツ,0
2165,6120003020523,新規,0,2021-11-04,2021-11-04,合同会社ｉｓｕｋａ,,合同会社,大阪府,大阪市北区,鶴野町三丁目１７－２０４,,27,127,5300014,,,,,,,2021-11-04,1,,,,,イスカ,0
2166,6120003020548,新規,0,2021-11-04,2021-11-04,ＧＩＴＡ　ＧＬＯＢＡＬ合同会社,,合同会社,大阪府,大阪市淀川区,木川東４丁目７番２３－５２１号,,27,123,5320012,,,,,,,2021-11-04,1,,,,,ギタグローバル,0
2168,6120005022591,新規,0,2021-11-04,2021-11-04,税理士法人南会計事務所,,その他の設立登記法人,大阪府,大阪市中央区,島町２丁目２番１９号長光寺ビル６階,,27,128,5400034,,,,,,,2021-11-04,1,,,,,ミナミカイケイジムショ,0
2169,6120101064587,新規,0,2021-11-04,2021-11-04,株式会社ＵＨ,,株式会社,大阪府,大阪狭山市,東野西１丁目９１０－１,,27,231,5890001,,,,,,,2021-11-04,1,,,,,ユーエイチ,0
2171,6120103004426,新規,0,2021-11-04,2021-11-04,合同会社萌英堂,,合同会社,大阪府,堺市中区,辻之１１２４番地３,00124743,27,142,5998245,,,,,,,2021-11-04,1,,,,,ホウエイドウ,0
2176,6122001035313,新規,0,2021-11-04,2021-11-04,株式会社平田製作所,,株式会社,大阪府,東大阪市,柏田本町１８番１８号,,27,227,5770834,,,,,,,2021-11-04,1,,,,,ヒラタセイサクショ,0
2184,6130003007569,新規,0,2021-11-04,2021-11-04,Ｔａｋａｒａ合同会社,,合同会社,京都府,京都市左京区,岡崎西福ノ川町２２－１６,,26,103,6068326,,,,,,,2021-11-04,1,,,,,タカラ,0
2185,6130003007577,新規,0,2021-11-04,2021-11-04,合同会社Ｓ　ｕｎｉｖｅｒｓｅ,,合同会社,京都府,京都市伏見区,深草キトロ町３３番地１４トミヤビル１Ｆ,,26,109,6120025,,,,,,,2021-11-04,1,,,,,エスユニバース,0
2191,6140001123540,新規,0,2021-11-04,2021-11-04,株式会社ＳＡＨＳ,,株式会社,兵庫県,姫路市,八代６９０－８,,28,201,6700872,,,,,,,2021-11-04,1,,,,,サハス,0
2192,6140001123689,新規,0,2021-11-04,2021-11-04,株式会社ＴＳＳ,,株式会社,兵庫県,神戸市中央区,下山手通４丁目１４番６－１１０１号,,28,110,6500011,,,,,,,2021-11-04,1,,,,,ティーエスエス,0
2193,6140001123722,新規,0,2021-11-04,2021-11-04,神戸快住不動産株式会社,,株式会社,兵庫県,神戸市中央区,旗塚通３丁目１番１８号,,28,110,6510068,,,,,,,2021-11-04,1,,,,,コウベカイジュウフドウサン,0
2194,6140001123730,新規,0,2021-11-04,2021-11-04,株式会社ＫｅＮ,,株式会社,兵庫県,神戸市中央区,坂口通３丁目２番１３号,,28,110,6510062,,,,,,,2021-11-04,1,,,,,ケン,0
2195,6140001123755,新規,0,2021-11-04,2021-11-04,株式会社兵庫ペイント,,株式会社,兵庫県,宝塚市,高司４丁目１番７号３階,,28,214,6650051,,,,,,,2021-11-04,1,,,,,ヒョウゴペイント,0
2196,6140001123763,新規,0,2021-11-04,2021-11-04,ブルーレイブン株式会社,,株式会社,兵庫県,西宮市,山口町上山口４丁目１４－２４－２０６,,28,204,6511421,,,,,,,2021-11-04,1,,,,,ブルーレイブン,0
2201,6140003016940,新規,0,2021-11-04,2021-11-04,合同会社Ｔ４Ｎ,,合同会社,兵庫県,尼崎市,塚口町４丁目２１番地の５－１階,,28,202,6610002,,,,,,,2021-11-04,1,,,,,ティーフォーエヌ,0
2205,6150001025067,新規,0,2021-11-04,2021-11-04,株式会社オーエスイー建設,,株式会社,奈良県,奈良市,南京終町７丁目５６０－５,,29,201,6308141,,,,,,,2021-11-04,1,,,,,オーエスイーケンセツ,0
2207,6150005009339,新規,0,2021-11-04,2021-11-04,行政書士法人葛城総研パートナーズ,,その他の設立登記法人,奈良県,橿原市,石川町２─２ハイム橿原２階,,29,205,6340045,,,,,,,2021-11-04,1,,,,,カツラギソウケンパートナーズ,0
2209,6160001023771,新規,0,2021-11-04,2021-11-04,株式会社小山鉄工,,株式会社,滋賀県,甲賀市,土山町北土山８１１番地,,25,209,5280211,,,,,,,2021-11-04,1,,,,,コヤマテッコウ,0
2211,6170001016857,新規,0,2021-11-04,2021-11-04,株式会社アーバンヒルズ建設,,株式会社,和歌山県,岩出市,山９８０番地の２水鉄アーバンコンフォート岩出１４０７号,,30,209,6496258,,,,,,,2021-11-04,1,,,,,アーバンヒルズケンセツ,0
2221,6180001148518,新規,0,2021-11-04,2021-11-04,レイズマーケティング株式会社,,株式会社,愛知県,名古屋市西区,名駅２丁目３４番１７号セントラル名古屋１１０１号,,23,104,4510045,,,,,,,2021-11-04,1,,,,,レイズマーケティング,0
2222,6180001148534,新規,0,2021-11-04,2021-11-04,株式会社ＫＩＹＯＧＥＮ,,株式会社,愛知県,名古屋市中村区,烏森町６丁目２６４番,,23,105,4530855,,,,,,,2021-11-04,1,,,,,キヨゲン,0
2223,6180001148542,新規,0,2021-11-04,2021-11-04,株式会社暁,,株式会社,愛知県,名古屋市中川区,西中島２丁目１７番地の１１,,23,110,4540934,,,,,,,2021-11-04,1,,,,,アカツキ,0
2224,6180001148600,新規,0,2021-11-04,2021-11-04,株式会社オフィスセブン,,株式会社,愛知県,名古屋市名東区,亀の井２丁目２３１番地１,,23,115,4650094,,,,,,,2021-11-04,1,,,,,オフィスセブン,0
2225,6180001148609,新規,0,2021-11-04,2021-11-04,株式会社なごやテクニカル,,株式会社,愛知県,名古屋市南区,外山１丁目２番４５号,,23,112,4570008,,,,,,,2021-11-04,1,,,,,ナゴヤテクニカル,0
2226,6180001148625,新規,0,2021-11-04,2021-11-04,株式会社ワイズルーム,,株式会社,愛知県,あま市,甚目寺松山２５番地,,23,237,4901111,,,,,,,2021-11-04,1,,,,,ワイズルーム,0
2235,6180301035580,新規,0,2021-11-04,2021-11-04,グローバルカーオフィス株式会社,,株式会社,愛知県,安城市,高棚町三反田１１３番地２,,23,212,4460053,,,,,,,2021-11-04,1,,,,,グローバルカーオフィス,0
2242,6190001028818,新規,0,2021-11-04,2021-11-04,株式会社中央電気保安協会,,株式会社,三重県,桑名市,大字大仲新田５４２,,24,205,5110947,,,,,,,2021-11-04,1,,,,,チュウオウデンキホアンキョウカイ,0
2243,6190001028834,新規,0,2021-11-04,2021-11-04,株式会社ＴＳＳ,,株式会社,三重県,四日市市,笹川８丁目５５番地５,,24,202,5100944,,,,,,,2021-11-04,1,,,,,ティーエスエス,0
2244,6190005011638,新規,0,2021-11-04,2021-11-04,ＮＰＯ法人ドリーム・イン・スペース,,その他の設立登記法人,三重県,亀山市,栄町１４８８番地６９,,24,210,5190111,,,,,,,2021-11-04,1,,,,,ドリームインスペース,0
2249,6200001039375,新規,0,2021-11-04,2021-11-04,株式会社キュリオス,,株式会社,岐阜県,多治見市,住吉町７丁目２３番地の１（１５街区１－６）,,21,204,5070015,,,,,,,2021-11-04,1,,,,,キュリオス,0
2250,6200001039383,新規,0,2021-11-04,2021-11-04,株式会社ルーカス・コンサルティング,,株式会社,岐阜県,岐阜市,六条片田１丁目２５番５号,,21,201,5008355,,,,,,,2021-11-04,1,,,,,ルーカスコンサルティング,0
2252,6210001018691,新規,0,2021-11-04,2021-11-04,株式会社ＡＵＴＯ　ＬＫ,,株式会社,福井県,鯖江市,鳥羽２丁目２番２１－６号,,18,207,9160013,,,,,,,2021-11-04,1,,,,,オートエルケー,0
2256,6220001024524,新規,0,2021-11-04,2021-11-04,株式会社ＹＡＮ,,株式会社,石川県,金沢市,鈴見台２丁目２０番１５号,,17,201,9201161,,,,,,,2021-11-04,1,,,,,ワイエーエヌ,0
2257,6220003003146,新規,0,2021-11-04,2021-11-04,合同会社ＡＴＨ,,合同会社,石川県,金沢市,窪６丁目２７５ヴィラ窪２０２,,17,201,9218151,,,,,,,2021-11-04,1,,,,,エーティーエイチ,0
2261,6240001058842,新規,0,2021-11-04,2021-11-04,株式会社美創健,,株式会社,広島県,三次市,秋町４０３番地,,34,209,7296335,,,,,,,2021-11-04,1,,,,,ビソウケン,0
2262,6240001058859,新規,0,2021-11-04,2021-11-04,株式会社てらぱん工場,,株式会社,広島県,広島市安佐北区,白木町大字三田３６３２番地３,,34,106,7391521,,,,,,,2021-11-04,1,,,,,テラパンコウジョウ,0
2263,6240001058883,新規,0,2021-11-04,2021-11-04,株式会社ヤマシタ,,株式会社,広島県,広島市佐伯区,五日市中央６丁目１２番１１－２０４号,,34,108,7315128,,,,,,,2021-11-04,1,,,,,ヤマシタ,0
2264,6240005007960,新規,0,2021-11-04,2021-11-04,農事組合法人福山種鶏場,,その他の設立登記法人,広島県,福山市,東深津町７丁目８番３１号,,34,207,7210974,,,,,,,2021-11-04,1,,,,,フクヤマシュケイジョウ,0
2265,6250001019224,新規,0,2021-11-04,2021-11-04,株式会社ｆａｔｅ,,株式会社,山口県,山口市,平井７９１番地１,,35,203,7530831,,,,,,,2021-11-04,1,,,,,フェイト,0
2275,6280003001549,新規,0,2021-11-04,2021-11-04,やすぎアグリ合同会社,,合同会社,島根県,安来市,下坂田町９７７－１,,32,206,6920017,,,,,,,2021-11-04,1,,,,,ヤスギアグリ,0
2281,6290003011786,新規,0,2021-11-04,2021-11-04,合同会社ＮＨＣ,,合同会社,福岡県,福岡市南区,塩原３丁目２１番５号ラフォーレ大橋１０５号,,40,134,8150032,,,,,,,2021-11-04,1,,,,,エヌエイチシー,0
2284,6300001012685,新規,0,2021-11-04,2021-11-04,ＬＩＧＨＴ　ＵＰ株式会社,,株式会社,佐賀県,佐賀市,八戸溝２丁目９番８号,,41,201,8490935,,,,,,,2021-11-04,1,,,,,ライトアップ,0
2289,6320001018706,新規,0,2021-11-04,2021-11-04,日田天領水の宿株式会社,,株式会社,大分県,日田市,大字庄手６８５番地６,,44,204,8770000,,,,,,,2021-11-04,1,,,,,ヒタテンリョウスイノヤド,0
2290,6320001018714,新規,0,2021-11-04,2021-11-04,株式会社フォレア,,株式会社,大分県,大分市,原新町８－１０スリーエム原新６０７,,44,201,8700912,,,,,,,2021-11-04,1,,,,,フォレア,0
2291,6330001029132,新規,0,2021-11-04,2021-11-04,株式会社環境ＣＲＥＡＴＥ,,株式会社,熊本県,熊本市東区,三郎２丁目１９番２号,,43,102,8620922,,,,,,,2021-11-04,1,,,,,カンキョウクリエイト,0
2292,6330001029149,新規,0,2021-11-04,2021-11-04,株式会社村田建装,,株式会社,熊本県,熊本市南区,富合町大町２７番地９,,43,104,8614145,,,,,,,2021-11-04,1,,,,,ムラタケンソウ,0
2293,6330001029157,新規,0,2021-11-04,2021-11-04,株式会社池田エンジニアリングサービス,,株式会社,熊本県,山鹿市,上吉田７７１番地,,43,208,8610524,,,,,,,2021-11-04,1,,,,,イケダエンジニアリングサービス,0
2294,6330001029165,新規,0,2021-11-04,2021-11-04,株式会社ＭＵＫＵ,,株式会社,熊本県,熊本市西区,春日７丁目２１番８号,,43,103,8600047,,,,,,,2021-11-04,1,,,,,ムク,0
2299,6340001024231,新規,0,2021-11-04,2021-11-04,株式会社フォーライフデザイン,,株式会社,鹿児島県,鹿児島市,紫原４丁目２０番１０号斉野平ビル１０２,,46,201,8900082,,,,,,,2021-11-04,1,,,,,フォーライフデザイン,0
2300,6350001017408,新規,0,2021-11-04,2021-11-04,株式会社安藤組,,株式会社,宮崎県,宮崎市,田野町乙１１７３１番地５,,45,201,8891702,,,,,,,2021-11-04,1,,,,,アンドウグミ,0
2308,6370001047782,新規,0,2021-11-04,2021-11-04,株式会社アップロード,,株式会社,宮城県,仙台市宮城野区,鶴ケ谷５丁目８番地の１４,,04,102,9830824,,,,,,,2021-11-04,1,,,,,アップロード,0
2309,6370001047790,新規,0,2021-11-04,2021-11-04,株式会社リフォームラボ,,株式会社,宮城県,仙台市泉区,南光台５丁目１４番７号,,04,105,9818003,,,,,,,2021-11-04,1,,,,,リフォームラボ,0
2314,6370003005466,新規,0,2021-11-04,2021-11-04,合同会社安藤測量登記事務所,,合同会社,宮城県,黒川郡大和町,吉岡字下町５１番地４,,04,421,9813621,,,,,,,2021-11-04,1,,,,,アンドウソクリョウトウキジムショ,0
2317,6380001032296,新規,0,2021-11-04,2021-11-04,株式会社阿部興業,,株式会社,福島県,福島市,北沢又字馬除１６番地の３,,07,201,9608251,,,,,,,2021-11-04,1,,,,,アベコウギョウ,0
2319,6390001016661,新規,0,2021-11-04,2021-11-04,株式会社齋藤,,株式会社,山形県,飽海郡遊佐町,菅里字菅野南山３７番地６,,06,461,9998531,,,,,,,2021-11-04,1,,,,,サイトウ,0
2322,6390003001892,新規,0,2021-11-04,2021-11-04,合同会社ＯＦＦＩＣＥ　ＴＯＩＲＯ,,合同会社,山形県,山形市,南二番町１番２１－５０７,,06,201,9902442,,,,,,,2021-11-04,1,,,,,オフィストイロ,0
2324,6400001015661,新規,0,2021-11-04,2021-11-04,株式会社ＩＮＧ,,株式会社,岩手県,北上市,滑田１０地割１４２番地２,,03,206,0240074,,,,,,,2021-11-04,1,,,,,アイエヌジー,0
2327,6410001013004,新規,0,2021-11-04,2021-11-04,株式会社オーベンリ,,株式会社,秋田県,大館市,字部垂町３７番地２沼田ビル２０１号室,,05,204,0170815,,,,,,,2021-11-04,1,,,,,オーベンリ,0
2333,6430001085280,新規,0,2021-11-04,2021-11-04,ＣＲＦ株式会社,,株式会社,北海道,苫小牧市,有明町２丁目１番１０号,,01,213,0530812,,,,,,,2021-11-04,1,,,,,シーアールエフ,0
2334,6430001085297,新規,0,2021-11-04,2021-11-04,株式会社ＴＡＴＥＹＡ,,株式会社,北海道,札幌市白石区,東米里２０４０番地９２,,01,104,0030876,,,,,,,2021-11-04,1,,,,,タテヤ,0
2335,6430001085306,新規,0,2021-11-04,2021-11-04,株式会社グランドライン,,株式会社,北海道,小樽市,銭函２丁目２７番２号,,01,203,0470261,,,,,,,2021-11-04,1,,,,,グランドライン,0
2340,6430003013322,新規,0,2021-11-04,2021-11-04,オリジナルスペース合同会社,,合同会社,北海道,札幌市北区,新琴似七条２丁目１番４６－５０２号,,01,102,0010907,,,,,,,2021-11-04,1,,,,,オリジナルスペース,0
2341,6430003013330,新規,0,2021-11-04,2021-11-04,合同会社ＭａｓｔｅｒＰｉｅｃｅ,,合同会社,北海道,札幌市北区,北三十三条西２丁目１番７号ＳＡＫＵＲＡ－Ｎ３３　Ｃ２室,,01,102,0010033,,,,,,,2021-11-04,1,,,,,マスターピース,0
2349,6460003000870,新規,0,2021-11-04,2021-11-04,合同会社ケアトカ,,合同会社,北海道,釧路郡釧路町,柏西７丁目４４番地,,01,661,0882155,,,,,,,2021-11-04,1,,,,,ケアトカ,0
2352,6470001018823,新規,0,2021-11-04,2021-11-04,株式会社ＬＩＥＭＯ,,株式会社,香川県,善通寺市,下吉田町３４番地４メイソン・ブランシュＡ２０１,,37,204,7650021,,,,,,,2021-11-04,1,,,,,リエモ,0
2359,6480001011538,新規,0,2021-11-04,2021-11-04,株式会社マルジン,,株式会社,徳島県,阿南市,学原町大深田２６番地７,,36,204,7740014,,,,,,,2021-11-04,1,,,,,マルジン,0
2366,6500001023778,新規,0,2021-11-04,2021-11-04,株式会社マルヤマ特殊伐採,,株式会社,愛媛県,西条市,下島山甲２２０番地４８,,38,206,7930006,,,,,,,2021-11-04,1,,,,,マルヤマトクシュバッサイ,0
2367,6500001023794,新規,0,2021-11-04,2021-11-04,株式会社凪,,株式会社,愛媛県,松山市,祓川２丁目５番１２号,,38,201,7918066,,,,,,,2021-11-04,1,,,,,ナギ,0
2368,6500003002714,新規,0,2021-11-04,2021-11-04,向日葵合同会社,,合同会社,愛媛県,松山市,三番町４丁目６番地５,,38,201,7900003,,,,,,,2021-11-04,1,,,,,ヒマワリ,0
2376,7010001222230,新規,0,2021-11-04,2021-11-04,株式会社アドアストラ,,株式会社,東京都,千代田区,一番町１３番地４一番町レジデンス４０３号,,13,101,1020082,,,,,,,2021-11-04,1,,,,,アドアストラ,0
2377,7010001222288,新規,0,2021-11-04,2021-11-04,株式会社アルト出版,,株式会社,東京都,中央区,佃２丁目２番１１－１０１０号,,13,102,1040051,,,,,,,2021-11-04,1,,,,,アルトシュッパン,0
2378,7010001222313,新規,0,2021-11-04,2021-11-04,株式会社ＳＴＡＲ　ＶＥＮＵＳ,,株式会社,東京都,中央区,銀座６丁目１３番１６号銀座ＷａｌｌビルＵＣＦ５０１,,13,102,1040061,,,,,,,2021-11-04,1,,,,,スターヴィーナス,0
2384,7010003036158,新規,0,2021-11-04,2021-11-04,日本マイクロキャピタル合同会社,,合同会社,東京都,千代田区,神田三崎町２丁目１５番６号Ｋ－ＳＴＡＧＥ５Ｆ,,13,101,1010061,,,,,,,2021-11-04,1,,,,,ニホンマイクロキャピタル,0
2390,7010005034011,新規,0,2021-11-04,2021-11-04,特定非営利活動法人ＩＨＲＰ,,その他の設立登記法人,東京都,中央区,日本橋富沢町７番１８－７０５号,,13,102,1030006,,,,,,,2021-11-04,1,,,,,アイエイチアールピー,0
2394,7010103001805,新規,0,2021-11-04,2021-11-04,合同会社ＡＺＡＦ,,合同会社,東京都,八王子市,松が谷５１番地１－２０１,,13,201,1920354,,,,,,,2021-11-04,1,,,,,アザフ,0
2398,7010401163487,新規,0,2021-11-04,2021-11-04,アキュテクス東京株式会社,,株式会社,東京都,港区,港南２丁目１５番１号品川インターシティＡ棟,,13,103,1080075,,,,,,,2021-11-04,1,,,,,アキュテクストウキョウ,0
2399,7010401163578,新規,0,2021-11-04,2021-11-04,株式会社青空,,株式会社,東京都,港区,南青山２丁目２番１５号ウィン青山９４２,,13,103,1070062,,,,,,,2021-11-04,1,,,,,アオゾラ,0
2401,7010403026444,新規,0,2021-11-04,2021-11-04,合同会社アスクール商会,,合同会社,東京都,港区,浜松町２丁目２番１５号浜松町ダイヤビル２Ｆ,,13,103,1050013,,,,,,,2021-11-04,1,,,,,アスクールショウカイ,0
2402,7010405020354,新規,0,2021-11-04,2021-11-04,埼玉加須一般社団法人,,その他の設立登記法人,東京都,港区,元赤坂１丁目１番８号株式会社赤坂国際会計内,,13,103,1070051,,,,,,,2021-11-04,1,,,,,サイタマカゾ,0
2403,7010501048051,新規,0,2021-11-04,2021-11-04,株式会社ＳＫＥ,,株式会社,東京都,台東区,千束４丁目４１番１５号,,13,106,1110031,,,,,,,2021-11-04,1,,,,,エスケーイー,0
2420,7010901049723,新規,0,2021-11-04,2021-11-04,株式会社みっつ,,株式会社,東京都,世田谷区,太子堂５丁目１番１２号１階,,13,112,1540004,,,,,,,2021-11-04,1,,,,,ミッツ,0
2422,7010903006912,新規,0,2021-11-04,2021-11-04,合同会社６２,,合同会社,東京都,世田谷区,等々力２丁目２８番４－３０４号,,13,112,1580082,,,,,,,2021-11-04,1,,,,,ロクジュウニ,0
2429,7011001143730,新規,0,2021-11-04,2021-11-04,株式会社ＷＡＤＲＡＳ,,株式会社,東京都,渋谷区,神宮前６丁目２３番４号桑野ビル２階,,13,113,1500001,,,,,,,2021-11-04,1,,,,,ワドラス,0
2430,7011001143739,新規,0,2021-11-04,2021-11-04,株式会社ＳＴＵＤＩＯ　ＢＵＮＮＹ,,株式会社,東京都,渋谷区,神宮前２丁目３１－８,,13,113,1500001,,,,,,,2021-11-04,1,,,,,スタジオバニー,0
2431,7011001143771,新規,0,2021-11-04,2021-11-04,Ｉｎｃｌｕｓｉｖｅ　Ｆｏｏｄ　Ｊａｐａｎ株式会社,,株式会社,東京都,渋谷区,恵比寿西１丁目２１－３グレイス代官山２０２号,,13,113,1500021,,,,,,,2021-11-04,1,,,,,インクルーシブフードジャパン,0
2440,7011201023385,新規,0,2021-11-04,2021-11-04,株式会社アロゼ,,株式会社,東京都,中野区,弥生町３丁目７番１２号,,13,114,1640013,,,,,,,2021-11-04,1,,,,,アロゼ,0
2441,7011301027311,新規,0,2021-11-04,2021-11-04,株式会社ｓｏｒａｍａｍｅ,,株式会社,東京都,杉並区,高円寺南５丁目３７番１６号,,13,115,1660003,,,,,,,2021-11-04,1,,,,,ソラマメ,0
2442,7011401023805,新規,0,2021-11-04,2021-11-04,株式会社ケーアイグループ,,株式会社,東京都,板橋区,蓮根２丁目２７番３１号,,13,119,1740046,,,,,,,2021-11-04,1,,,,,ケーアイグループ,0
2443,7011401023813,新規,0,2021-11-04,2021-11-04,株式会社クレヴァー,,株式会社,東京都,板橋区,大山金井町８番８－１０１０号,,13,119,1730024,,,,,,,2021-11-04,1,,,,,クレヴァー,0
2448,7011601025519,新規,0,2021-11-04,2021-11-04,忠国興業株式会社,,株式会社,東京都,練馬区,高松２丁目１９番４号,,13,120,1790075,,,,,,,2021-11-04,1,,,,,タダクニコウギョウ,0
2452,7011801039921,新規,0,2021-11-04,2021-11-04,達磨ディティーリング株式会社,,株式会社,東京都,足立区,千住中居町２５番９号,,13,121,1200035,,,,,,,2021-11-04,1,,,,,ダルマディティーリング,0
2457,7012401038487,新規,0,2021-11-04,2021-11-04,株式会社ＲｅＧｒｉｔ,,株式会社,東京都,三鷹市,下連雀２丁目２２番８号ウェルパインＩＩ３０５,00124757,13,204,1810013,,,,,,,2021-11-04,1,,,,,リグリット,0
2477,7020001143731,新規,0,2021-11-04,2021-11-04,株式会社ジャンプ,,株式会社,神奈川県,横浜市鶴見区,駒岡４丁目１５番６号,,14,101,2300071,,,,,,,2021-11-04,1,,,,,ジャンプ,0
2478,7020001143756,新規,0,2021-11-04,2021-11-04,株式会社トータルオフィスサポート,,株式会社,神奈川県,横浜市神奈川区,新子安１丁目１１番１４号,,14,102,2210013,,,,,,,2021-11-04,1,,,,,トータルオフィスサポート,0
2479,7020001143764,新規,0,2021-11-04,2021-11-04,株式会社ＳＹＵ,,株式会社,神奈川県,横浜市泉区,和泉町３５０番地２３,,14,116,2450016,,,,,,,2021-11-04,1,,,,,シュウ,0
2483,7020003020747,新規,0,2021-11-04,2021-11-04,合同会社ペタ,,合同会社,神奈川県,横浜市青葉区,あざみ野２丁目３１番地９－１０１号,,14,117,2250011,,,,,,,2021-11-04,1,,,,,ペタ,0
2487,7021001074339,新規,0,2021-11-04,2021-11-04,株式会社わくわく,,株式会社,神奈川県,大和市,鶴間２丁目８番２１－２１４号,,14,213,2420004,,,,,,,2021-11-04,1,,,,,ワクワク,0
2488,7021001074388,新規,0,2021-11-04,2021-11-04,株式会社ＲＡ,,株式会社,神奈川県,鎌倉市,腰越９１２番地,,14,204,2480033,,,,,,,2021-11-04,1,,,,,アールエー,0
2489,7021001074396,新規,0,2021-11-04,2021-11-04,株式会社ミネポート,,株式会社,神奈川県,藤沢市,石川３丁目２５番地の１メゾンド湘南１０１号,,14,205,2520815,,,,,,,2021-11-04,1,,,,,ミネポート,0
2490,7021001074405,新規,0,2021-11-04,2021-11-04,株式会社大燈,,株式会社,神奈川県,藤沢市,菖蒲沢８９４番地の１エスペランサ桜２０４,,14,205,2520823,,,,,,,2021-11-04,1,,,,,ダイトウ,0
2496,7030001145108,新規,0,2021-11-04,2021-11-04,株式会社エー・アンド・エル,,株式会社,埼玉県,さいたま市大宮区,桜木町２丁目３番地大宮マルイ７階,,11,103,3300854,,,,,,,2021-11-04,1,,,,,エーアンドエル,0
2501,7030003018245,新規,0,2021-11-04,2021-11-04,合同会社ＪＩＭＭＹＳ,,合同会社,埼玉県,さいたま市南区,大谷場１丁目１２番１６号,,11,108,3360016,,,,,,,2021-11-04,1,,,,,ジミーズ,0
2502,7030003018253,新規,0,2021-11-04,2021-11-04,合同会社ｈａｐｐｙ　ｈｉｌｌ,,合同会社,埼玉県,川口市,芝１丁目２３号５番１０５,,11,203,3330866,,,,,,,2021-11-04,1,,,,,ハッピーヒル,0
2510,7040001120860,新規,0,2021-11-04,2021-11-04,株式会社ブラック・エステート,,株式会社,千葉県,千葉市中央区,松波２丁目４番１８号,,12,101,2600044,,,,,,,2021-11-04,1,,,,,ブラックエステート,0
2511,7040001120869,新規,0,2021-11-04,2021-11-04,株式会社カネハチエレテック,,株式会社,千葉県,匝瑳市,栢田７９５２番地４３９,,12,235,2893184,,,,,,,2021-11-04,1,,,,,カネハチエレテック,0
2517,7040003018863,新規,0,2021-11-04,2021-11-04,ムクタ企画合同会社,,合同会社,千葉県,浦安市,入船３丁目６８番３号,,12,227,2790012,,,,,,,2021-11-04,1,,,,,ムクタキカク,0
2520,7050001050099,新規,0,2021-11-04,2021-11-04,株式会社ネクストステージ,,株式会社,茨城県,坂東市,みむら１０８８番地,,08,228,3060655,,,,,,,2021-11-04,1,,,,,ネクストステージ,0
2522,7050003006181,新規,0,2021-11-04,2021-11-04,アクバルインターナショナル合同会社,,合同会社,茨城県,古河市,東山田５８２番地１スリープルーム２階Ｂ号室,,08,204,3060112,,,,,,,2021-11-04,1,,,,,アクバルインターナショナル,0
2523,7060001034266,新規,0,2021-11-04,2021-11-04,株式会社村上鉄筋鋼業,,株式会社,栃木県,矢板市,安沢１８３１番地５,,09,211,3291572,,,,,,,2021-11-04,1,,,,,ムラカミテッキンコウギョウ,0
2529,7080001024546,新規,0,2021-11-04,2021-11-04,株式会社ｃｈａｍｐ,,株式会社,静岡県,牧之原市,細江８５０番地１６,,22,226,4210421,,,,,,,2021-11-04,1,,,,,チャンプ,0
2530,7080101022887,新規,0,2021-11-04,2021-11-04,株式会社ＹＳＫ　ＮＥＸＴ,,株式会社,静岡県,沼津市,高島町２１番２４号,,22,203,4100056,,,,,,,2021-11-04,1,,,,,ワイエスケイネクスト,0
2534,7080403004402,新規,0,2021-11-04,2021-11-04,合同会社ＮＩＮＥ,,合同会社,静岡県,浜松市中区,天神町２２番１４号連子川ビル１０２号室,,22,131,4300808,,,,,,,2021-11-04,1,,,,,ナイン,0
2538,7100003006283,新規,0,2021-11-04,2021-11-04,合同会社永羽運送,,合同会社,長野県,下伊那郡阿智村,浪合３８４,,20,407,3950501,,,,,,,2021-11-04,1,,,,,エイワウンソウ,0
2540,7100005012791,新規,0,2021-11-04,2021-11-04,医療法人関口内科クリニック,,その他の設立登記法人,長野県,佐久市,中込４０５番地,,20,217,3850051,,,,,,,2021-11-04,1,,,,,セキグチナイカクリニック,0
2544,7110001036158,新規,0,2021-11-04,2021-11-04,株式会社よつ葉保険事務所,,株式会社,新潟県,長岡市,干場２丁目６番３号,,15,202,9400032,,,,,,,2021-11-04,1,,,,,ヨツバホケンジムショ,0
2545,7110001036166,新規,0,2021-11-04,2021-11-04,アイアン株式会社,,株式会社,新潟県,新潟市中央区,笹口２丁目７番１４－２０９号,,15,103,9500911,,,,,,,2021-11-04,1,,,,,アイアン,0
2565,7120001241640,新規,0,2021-11-04,2021-11-04,株式会社ＧＯ　ＷＡＹ,,株式会社,大阪府,守口市,日向町７番１５号,,27,209,5700023,,,,,,,2021-11-04,1,,,,,ゴーウェイ,0
2566,7120001241665,新規,0,2021-11-04,2021-11-04,株式会社高木建装,,株式会社,大阪府,大阪市住吉区,上住吉１丁目６番１６号,,27,120,5580046,,,,,,,2021-11-04,1,,,,,タカギケンソウ,0
2572,7120003020522,新規,0,2021-11-04,2021-11-04,八木百貨合同会社,,合同会社,大阪府,大阪市北区,中津１丁目１２番１１メロディーハイム中津２番館８０５号室,,27,127,5310071,,,,,,,2021-11-04,1,,,,,ヤギヒャッカ,0
2573,7120003020539,新規,0,2021-11-04,2021-11-04,合同会社アクロース,,合同会社,大阪府,大阪市北区,梅田１丁目２番２－２００号大阪駅前第２ビル２階３－１－２,,27,127,5300001,,,,,,,2021-11-04,1,,,,,アクロース,0
2574,7120003020547,新規,0,2021-11-04,2021-11-04,合同会社ＧＬＫ,,合同会社,大阪府,大阪市福島区,鷺洲２丁目１２番１７号フェリーチェ福島北３０２,,27,103,5530002,,,,,,,2021-11-04,1,,,,,ジルク,0
2575,7120003020555,新規,0,2021-11-04,2021-11-04,エステートホソカワ合同会社,,合同会社,大阪府,枚方市,南中振２丁目２５番１２号,,27,210,5730094,,,,,,,2021-11-04,1,,,,,エステートホソカワ,0
2584,7120901045125,新規,0,2021-11-04,2021-11-04,株式会社ゆたか,,株式会社,大阪府,摂津市,鶴野４丁目３番２６寿マンション５０６号,,27,224,5660035,,,,,,,2021-11-04,1,,,,,ユタカ,0
2585,7120901045133,新規,0,2021-11-04,2021-11-04,株式会社クリニエール,,株式会社,大阪府,茨木市,真砂１丁目１３番２号,,27,211,5670851,,,,,,,2021-11-04,1,,,,,クリニエール,0
2586,7120901045141,新規,0,2021-11-04,2021-11-04,株式会社ＲＩＺＥ,,株式会社,大阪府,高槻市,城西町９番９号,,27,207,5690065,,,,,,,2021-11-04,1,,,,,ライズ,0
2590,7122001035312,新規,0,2021-11-04,2021-11-04,株式会社一葉,,株式会社,大阪府,柏原市,古町２丁目３番１３号,,27,221,5820008,,,,,,,2021-11-04,1,,,,,イチヨウ,0
2591,7122001035320,新規,0,2021-11-04,2021-11-04,株式会社ワイズグレイス,,株式会社,大阪府,東大阪市,山手町１３番９号,,27,227,5798022,,,,,,,2021-11-04,1,,,,,ワイズグレイス,0
2593,7122003002203,新規,0,2021-11-04,2021-11-04,ＡＸＩＳ合同会社,,合同会社,大阪府,八尾市,安中町３丁目２番５８－４１３号,,27,212,5810085,,,,,,,2021-11-04,1,,,,,アクシス,0
2607,7130001070452,新規,0,2021-11-04,2021-11-04,株式会社ジャンプイン,,株式会社,京都府,綾部市,桜が丘１丁目１１－１１,,26,203,6230008,,,,,,,2021-11-04,1,,,,,ジャンプイン,0
2608,7130001070460,新規,0,2021-11-04,2021-11-04,株式会社ＫＯＪ,,株式会社,京都府,京都市下京区,梅小路本町１８番地,,26,106,6008856,,,,,,,2021-11-04,1,,,,,ケーオージェー,0
2609,7130001070469,新規,0,2021-11-04,2021-11-04,株式会社ＣａｒｅＦｏｒ,,株式会社,京都府,久世郡久御山町,田井塔ノ本１５番地１,,26,322,6130036,,,,,,,2021-11-04,1,,,,,ケアフォー,0
2610,7130001070485,新規,0,2021-11-04,2021-11-04,株式会社ＲｅＡｒｉｓｅ,,株式会社,京都府,京都市上京区,中立売通大宮東入新元町２２７番地１,,26,102,6028257,,,,,,,2021-11-04,1,,,,,リアライズ,0
2611,7130003007568,新規,0,2021-11-04,2021-11-04,合同会社ミリテック,,合同会社,京都府,京都市山科区,竹鼻竹ノ街道町１１番地スタービル５０１,,26,110,6078080,,,,,,,2021-11-04,1,,,,,ミリテック,0
2612,7130003007576,新規,0,2021-11-04,2021-11-04,合同会社ガイアガーデン,,合同会社,京都府,南丹市,美山町野添鳥ケ迫８,,26,213,6010733,,,,,,,2021-11-04,1,,,,,ガイアガーデン,0
2620,7140001123688,新規,0,2021-11-04,2021-11-04,株式会社ＮＯＢＩ　ＮＯＢＩ,,株式会社,兵庫県,尼崎市,神田北通４丁目５６番地エトワール尼崎１Ｆ,,28,202,6600883,,,,,,,2021-11-04,1,,,,,ノビノビ,0
2621,7140001123713,新規,0,2021-11-04,2021-11-04,飛田商店株式会社,,株式会社,兵庫県,南あわじ市,潮美台２丁目３番地１７,,28,224,6560521,,,,,,,2021-11-04,1,,,,,トビタショウテン,0
2622,7140001123721,新規,0,2021-11-04,2021-11-04,株式会社アドバンス,,株式会社,兵庫県,姫路市,香寺町中仁野６７７番地２,,28,201,6792143,,,,,,,2021-11-04,1,,,,,アドバンス,0
2627,7140003016948,新規,0,2021-11-04,2021-11-04,合同会社Ｑｕａｃｋ,,合同会社,兵庫県,神戸市東灘区,住吉宮町６丁目３番１８号,,28,101,6580053,,,,,,,2021-11-04,1,,,,,,0
2631,7160001023770,新規,0,2021-11-04,2021-11-04,たなか株式会社,,株式会社,滋賀県,東近江市,永源寺高野町４２５番地,,25,213,5270212,,,,,,,2021-11-04,1,,,,,タナカ,0
2638,7180001148525,新規,0,2021-11-04,2021-11-04,株式会社ロジェリオ,,株式会社,愛知県,名古屋市中区,錦３丁目４番２６号,,23,106,4600003,,,,,,,2021-11-04,1,,,,,ロジェリオ,0
2639,7180001148566,新規,0,2021-11-04,2021-11-04,ベルグホールディングス株式会社,,株式会社,愛知県,名古屋市東区,徳川１丁目１９－８,,23,102,4610025,,,,,,,2021-11-04,1,,,,,ベルグホールディングス,0
2640,7180001148574,新規,0,2021-11-04,2021-11-04,しんかわ工業株式会社,,株式会社,愛知県,あま市,七宝町伊福壱町畑１５５番地７,,23,237,4970005,,,,,,,2021-11-04,1,,,,,シンカワコウギョウ,0
2644,7180003023148,新規,0,2021-11-04,2021-11-04,合同会社Ｂｅ　Ｈａｐｐｙ,,合同会社,愛知県,名古屋市天白区,久方２丁目４０番地の２,,23,116,4680034,,,,,,,2021-11-04,1,,,,,ビーハッピー,0
2645,7180003023156,新規,0,2021-11-04,2021-11-04,Ｇ＆Ｄａｒｋｓ合同会社,,合同会社,愛知県,名古屋市北区,楠味鋺３丁目３２０２番地,,23,103,4620014,,,,,,,2021-11-04,1,,,,,ジーアンドダークス,0
2649,7180301035588,新規,0,2021-11-04,2021-11-04,株式会社アルティ,,株式会社,愛知県,豊田市,西中山町辻貝戸１３番地,00124760,23,211,4700431,,,,,,,2021-11-04,1,,,,,アルティ,0
2652,7190001028817,新規,0,2021-11-04,2021-11-04,株式会社Ｂｉｅｎ　Ｓｍｉｌｅ,,株式会社,三重県,松阪市,川井町８３４番地１,,24,204,5150818,,,,,,,2021-11-04,1,,,,,ビィーンスマイル,0
2653,7190001028833,新規,0,2021-11-04,2021-11-04,株式会社プロスタイル,,株式会社,三重県,四日市市,山田町３９３７番地１,,24,202,5121111,,,,,,,2021-11-04,1,,,,,プロスタイル,0
2654,7190001028841,新規,0,2021-11-04,2021-11-04,株式会社野呂工業,,株式会社,三重県,鳥羽市,岩倉町１２７番地１,,24,211,5170041,,,,,,,2021-11-04,1,,,,,ノロコウギョウ,0
2659,7210001018690,新規,0,2021-11-04,2021-11-04,株式会社ＩＯＲＩ,,株式会社,福井県,福井市,新田塚１丁目１番１号,,18,201,9100067,,,,,,,2021-11-04,1,,,,,イオリ,0
2665,7220001024515,新規,0,2021-11-04,2021-11-04,株式会社ｍａｇ,,株式会社,石川県,金沢市,笠舞３丁目１番２４号,,17,201,9200965,,,,,,,2021-11-04,1,,,,,マグ,0
2666,7220003003145,新規,0,2021-11-04,2021-11-04,合同会社小林,,合同会社,石川県,小松市,長崎町ロ１５４番地１,,17,203,9230004,,,,,,,2021-11-04,1,,,,,コバヤシ,0
2670,7240001058841,新規,0,2021-11-04,2021-11-04,ＴＦＴサービス株式会社,,株式会社,広島県,福山市,東手城町３丁目２０番５号,,34,207,7210962,,,,,,,2021-11-04,1,,,,,ティーエフティーサービス,0
2674,7250001019223,新規,0,2021-11-04,2021-11-04,株式会社エンリッチメント,,株式会社,山口県,防府市,大字田島３５１番地の５８,,35,206,7470834,,,,,,,2021-11-04,1,,,,,エンリッチメント,0
2678,7260001036151,新規,0,2021-11-04,2021-11-04,井頭栄果園株式会社,,株式会社,岡山県,倉敷市,玉島八島１８０１番地４,,33,202,7138113,,,,,,,2021-11-04,1,,,,,イガシラエイカエン,0
2679,7260001036168,新規,0,2021-11-04,2021-11-04,株式会社ＦＪ,,株式会社,岡山県,倉敷市,連島町鶴新田１８４８番地１４,,33,202,7128006,,,,,,,2021-11-04,1,,,,,エフジェイ,0
2683,7280001008553,新規,0,2021-11-04,2021-11-04,株式会社ｎｉｉｃｈｉ,,株式会社,島根県,出雲市,斐川町庄原２８９６番地２,,32,203,6930000,,,,,,,2021-11-04,1,,,,,ニイチ,0
2691,7320001018705,新規,0,2021-11-04,2021-11-04,株式会社ワンズハート,,株式会社,大分県,大分市,高松１丁目７番３６号,,44,201,8700917,,,,,,,2021-11-04,1,,,,,ワンズハート,0
2692,7320001018713,新規,0,2021-11-04,2021-11-04,株式会社高橋断熱,,株式会社,大分県,大分市,大字荏隈８５５番地の９８,,44,201,8700889,,,,,,,2021-11-04,1,,,,,タカハシダンネツ,0
2695,7330001029131,新規,0,2021-11-04,2021-11-04,株式会社ウィンサム,,株式会社,熊本県,宇城市,小川町南小川２８８番地７,,43,213,8690614,,,,,,,2021-11-04,1,,,,,ウィンサム,0
2699,7330003009123,新規,0,2021-11-04,2021-11-04,合同会社すずの,,合同会社,熊本県,人吉市,大畑麓町４１３２番地,,43,203,8680811,,,,,,,2021-11-04,1,,,,,スズノ,0
2700,7340001024247,新規,0,2021-11-04,2021-11-04,株式会社海街製作所,,株式会社,鹿児島県,阿久根市,脇本３５５４番地１,,46,206,8991131,,,,,,,2021-11-04,1,,,,,ウミマチセイサクショ,0
2704,7340003003604,新規,0,2021-11-04,2021-11-04,エソラ合同会社,,合同会社,鹿児島県,伊佐市,大口鳥巣１２４４番地７,,46,224,8952521,,,,,,,2021-11-04,1,,,,,エソラ,0
2705,7350001017398,新規,0,2021-11-04,2021-11-04,株式会社ＬＡＢロジステックス,,株式会社,宮崎県,宮崎市,田代町７５番地テクノロジーズビル５Ｆ,,45,201,8800855,,,,,,,2021-11-04,1,,,,,エルエービーロジステックス,0
2710,7360001029590,新規,0,2021-11-04,2021-11-04,株式会社パティオおもろまち,,株式会社,沖縄県,那覇市,松島１丁目２１番１３号,,47,201,9020069,,,,,,,2021-11-04,1,,,,,パティオオモロマチ,0
2712,7360003011547,新規,0,2021-11-04,2021-11-04,合同会社耀,,合同会社,沖縄県,宜野湾市,大謝名４丁目２４番１２号３階１号,,47,205,9012225,,,,,,,2021-11-04,1,,,,,シャイン,0
2713,7370003005457,新規,0,2021-11-04,2021-11-04,ＹＳＫ貿易合同会社,,合同会社,宮城県,塩竈市,新浜町３丁目１０９番地７３,,04,203,9850001,,,,,,,2021-11-04,1,,,,,ワイエスケイボウエキ,0
2721,7390001016660,新規,0,2021-11-04,2021-11-04,株式会社三原堂,,株式会社,山形県,米沢市,中央６丁目１番８６号,,06,202,9920045,,,,,,,2021-11-04,1,,,,,ミハラドウ,0
2723,7400003002855,新規,0,2021-11-04,2021-11-04,合同会社クリーンアップＫ,,合同会社,岩手県,下閉伊郡山田町,長崎２丁目１２番９号,,03,482,0281351,,,,,,,2021-11-04,1,,,,,クリーンアップケー,0
2727,7430001085313,新規,0,2021-11-04,2021-11-04,株式会社日本食品安全研究所,,株式会社,北海道,小樽市,新光４丁目２番２号,,01,203,0470152,,,,,,,2021-11-04,1,,,,,ニホンショクヒンアンゼンケンキュウジョ,0
2728,7430001085321,新規,0,2021-11-04,2021-11-04,株式会社ＡＬＣ貿易,,株式会社,北海道,札幌市白石区,菊水九条３丁目５番１９－４２７号,,01,104,0030809,,,,,,,2021-11-04,1,,,,,エーエルシーボウエキ,0
2731,7430003013321,新規,0,2021-11-04,2021-11-04,合同会社陽だまり,,合同会社,北海道,札幌市北区,太平五条６丁目６番１２号,,01,102,0028005,,,,,,,2021-11-04,1,,,,,ヒダマリ,0
2732,7440001008974,新規,0,2021-11-04,2021-11-04,株式会社ＮＤＳ,,株式会社,北海道,函館市,山の手１丁目１５番１２号,,01,202,0410836,,,,,,,2021-11-04,1,,,,,エヌディエス,0
2734,7470001018806,新規,0,2021-11-04,2021-11-04,株式会社ａｄｄ－ｈａｉｒ,,株式会社,香川県,高松市,三谷町１８５３番地３,,37,201,7610450,,,,,,,2021-11-04,1,,,,,アドヘアー,0
2735,7470001018822,新規,0,2021-11-04,2021-11-04,河野空調株式会社,,株式会社,香川県,高松市,春日町５２３番地９,,37,201,7610101,,,,,,,2021-11-04,1,,,,,コウノクウチョウ,0
2739,7470003002072,新規,0,2021-11-04,2021-11-04,合同会社Ｓｋｙ－Ｌａｂ,,合同会社,香川県,善通寺市,文京町１丁目５－２４,,37,204,7650013,,,,,,,2021-11-04,1,,,,,スカイラボ,0
2740,7480003001750,新規,0,2021-11-04,2021-11-04,合同会社トウテツ,,合同会社,徳島県,三好郡東みよし町,足代８５８番地,,36,489,7712502,,,,,,,2021-11-04,1,,,,,トウテツ,0
2743,7500001023785,新規,0,2021-11-04,2021-11-04,株式会社誠和興産,,株式会社,愛媛県,新居浜市,滝の宮町９番２８号,,38,205,7920034,,,,,,,2021-11-04,1,,,,,セイワコウサン,0
2744,7500001023793,新規,0,2021-11-04,2021-11-04,オフィスＭ株式会社,,株式会社,愛媛県,宇和島市,本町追手２丁目２番２２号,,38,203,7980041,,,,,,,2021-11-04,1,,,,,オフィスエム,0
2748,7500003002713,新規,0,2021-11-04,2021-11-04,合同会社ＡＮＮＥＡＵ,,合同会社,愛媛県,今治市,阿方甲２９８番地１,,38,202,7940081,,,,,,,2021-11-04,1,,,,,アノウ,0
2755,8010001222015,新規,0,2021-11-04,2021-11-04,株式会社アンビアン,,株式会社,東京都,中央区,銀座６丁目６番１号,,13,102,1040061,,,,,,,2021-11-04,1,,,,,アンビアン,0
2756,8010001222238,新規,0,2021-11-04,2021-11-04,ノーザン・ライツ・キャピタル株式会社,,株式会社,東京都,中央区,日本橋本町３丁目３番６号ワカ末ビル７階,,13,102,1030023,,,,,,,2021-11-04,1,,,,,ノーザンライツキャピタル,0
2757,8010001222320,新規,0,2021-11-04,2021-11-04,株式会社ワールドコネクター,,株式会社,東京都,千代田区,外神田６丁目１５番１４号ハローオフィスＡｋｉｂａ４０８,,13,101,1010021,,,,,,,2021-11-04,1,,,,,ワールドコネクター,0
2760,8010003036181,新規,0,2021-11-04,2021-11-04,合同会社ＤＰＳ,,合同会社,東京都,中央区,銀座１丁目２２番１１号銀座大竹ビジデンス２階,,13,102,1040061,,,,,,,2021-11-04,1,,,,,デイピイエス,0
2764,8010005034183,新規,0,2021-11-04,2021-11-04,アジュール税理士法人,,その他の設立登記法人,東京都,中央区,新川１丁目６番１２号ＡＩビル茅場町,,13,102,1040033,,,,,,,2021-11-04,1,,,,,アジュール,0
2771,8010401163593,新規,0,2021-11-04,2021-11-04,株式会社メロディア,,株式会社,東京都,港区,北青山２丁目７番１３号,,13,103,1070061,,,,,,,2021-11-04,1,,,,,メロディア,0
2772,8010401163602,新規,0,2021-11-04,2021-11-04,株式会社セブンシーズ,,株式会社,東京都,港区,南青山２丁目２番１５号ウィン青山１２１４号,,13,103,1070062,,,,,,,2021-11-04,1,,,,,セブンシーズ,0
2773,8010401163610,新規,0,2021-11-04,2021-11-04,ＬＯＮＧＢＯＷ　ＪＡＰＡＮ材料技研株式会社,,株式会社,東京都,港区,三田１丁目３番４０号天翔オフィス麻布十番３１２,,13,103,1080073,,,,,,,2021-11-04,1,,,,,ロングボウジャパンザイリョウギケン,0
2774,8010401163619,新規,0,2021-11-04,2021-11-04,ＳｈａｒｅＪｅｗｅｌ株式会社,,株式会社,東京都,港区,南麻布２丁目５－２１イデア南麻布ビル６Ｆ,,13,103,1060047,,,,,,,2021-11-04,1,,,,,シェアジュエル,0
2775,8010401163627,新規,0,2021-11-04,2021-11-04,Ｋａｌａｉｓ　Ｉｎｄｕｓｔｒｉｅｓ株式会社,,株式会社,東京都,港区,西麻布４丁目１－１麻布霞町ビル２Ｆ,,13,103,1060031,,,,,,,2021-11-04,1,,,,,カライスインダストリーズ,0
2778,8010405020353,新規,0,2021-11-04,2021-11-04,加須特定目的会社,,その他の設立登記法人,東京都,港区,元赤坂１丁目１番８号株式会社赤坂国際会計内,,13,103,1070051,,,,,,,2021-11-04,1,,,,,カゾ,0
2779,8010501048050,新規,0,2021-11-04,2021-11-04,Ｍ＆Ｎファンマーケティング株式会社,,株式会社,東京都,台東区,下谷３丁目１番２４号,,13,106,1100004,,,,,,,2021-11-04,1,,,,,エムアンドエヌファンマーケティング,0
2781,8010505003274,新規,0,2021-11-04,2021-11-04,特定非営利活動法人ｅａｒｔｈ　ｗｉｔｈ,,その他の設立登記法人,東京都,台東区,台東４丁目１６番８号偕楽ビル（新御徒町）７階,,13,106,1100016,,,,,,,2021-11-04,1,,,,,アースウィズ,0
2785,8010601060178,新規,0,2021-11-04,2021-11-04,Ｍａｔｕｒｅ株式会社,,株式会社,東京都,墨田区,東駒形４丁目１－７グリーンキャピタル７０２号室,,13,107,1300005,,,,,,,2021-11-04,1,,,,,マチュア,0
2790,8010703005997,新規,0,2021-11-04,2021-11-04,合同会社真佳不動産,,合同会社,東京都,品川区,中延４丁目１６番１７号,,13,109,1420053,,,,,,,2021-11-04,1,,,,,シンカフドウサン,0
2792,8010803003942,新規,0,2021-11-04,2021-11-04,みと合同会社,,合同会社,東京都,大田区,下丸子３丁目２番７号,,13,111,1460092,,,,,,,2021-11-04,1,,,,,ミト,0
2799,8011001143738,新規,0,2021-11-04,2021-11-04,株式会社Ｄｒａｇｏｎ　Ｓｔｕｄｉｏ,,株式会社,東京都,渋谷区,神宮前２丁目２番３９－８２４号ＴＨＥ・ＣＯＵＲＴ神宮外苑,,13,113,1500001,,,,,,,2021-11-04,1,,,,,ドラゴンスタジオ,0
2800,8011003013633,新規,0,2021-11-04,2021-11-04,Ｍａｙｂｅ　Ｔｏｍｏｒｒｏｗ合同会社,,合同会社,東京都,目黒区,目黒本町４丁目１２－６,,13,110,1520002,,,,,,,2021-11-04,1,,,,,メイビートゥモロー,0
2801,8011003013674,新規,0,2021-11-04,2021-11-04,合同会社ｍｏｃｃａｉ,,合同会社,東京都,目黒区,駒場１丁目２５番７号,,13,110,1530041,,,,,,,2021-11-04,1,,,,,モッカイ,0
2803,8011103011132,新規,0,2021-11-04,2021-11-04,合同会社ソツタクドウジ,,合同会社,東京都,新宿区,西早稲田３丁目７－１１ハラダ面影橋マンション１Ｆ,,13,104,1690051,,,,,,,2021-11-04,1,,,,,ソツタクドウジ,0
2805,8011201023376,新規,0,2021-11-04,2021-11-04,株式会社ＴＡＫ,,株式会社,東京都,中野区,鷺宮５丁目１１番１８号,,13,114,1650032,,,,,,,2021-11-04,1,,,,,ティーエイケイ,0
2806,8011201023384,新規,0,2021-11-04,2021-11-04,株式会社Ｃａｍｐｅｒｓ,,株式会社,東京都,中野区,本町４丁目６－１６クラヴィエ新中野１０２,,13,114,1640012,,,,,,,2021-11-04,1,,,,,キャンパーズ,0
2810,8011401023804,新規,0,2021-11-04,2021-11-04,富岡建工株式会社,,株式会社,東京都,板橋区,成増１丁目１４－９成増グリーンハイツ４０１,,13,119,1750094,,,,,,,2021-11-04,1,,,,,トミオカケンコウ,0
2812,8011601025518,新規,0,2021-11-04,2021-11-04,株式会社オーネック,,株式会社,東京都,練馬区,貫井４丁目２５番１９号サンモール１０３,,13,120,1760021,,,,,,,2021-11-04,1,,,,,オーネック,0
2815,8011703002984,新規,0,2021-11-04,2021-11-04,Ｇ－ｗｏｒｋｓ合同会社,,合同会社,東京都,江戸川区,西小松川町２０番１３－１００８号,,13,123,1320032,,,,,,,2021-11-04,1,,,,,ジーワークス,0
2824,8012401038478,新規,0,2021-11-04,2021-11-04,トモキホールディングス株式会社,,株式会社,東京都,三鷹市,下連雀３丁目３１－４－２０５,,13,204,1810013,,,,,,,2021-11-04,1,,,,,トモキホールディングス,0
2839,8020001143747,新規,0,2021-11-04,2021-11-04,株式会社生きる,,株式会社,神奈川県,横浜市港北区,岸根町３３８番地４,,14,109,2220034,,,,,,,2021-11-04,1,,,,,イキル,0
2840,8020001143796,新規,0,2021-11-04,2021-11-04,株式会社レオオーク,,株式会社,神奈川県,横浜市旭区,上白根町１２６０番地１,,14,112,2410001,,,,,,,2021-11-04,1,,,,,レオオーク,0
2845,8020003020746,新規,0,2021-11-04,2021-11-04,Ｈｏｔｆｉｘ合同会社,,合同会社,神奈川県,横浜市港北区,大倉山６丁目３７－１,,14,109,2220037,,,,,,,2021-11-04,1,,,,,ホットフィックス,0
2846,8020003020754,新規,0,2021-11-04,2021-11-04,レジデンスクリエイト合同会社,,合同会社,神奈川県,横浜市港北区,大倉山３丁目３３－７,,14,109,2220037,,,,,,,2021-11-04,1,,,,,レジデンスクリエイト,0
2848,8021001074370,新規,0,2021-11-04,2021-11-04,株式会社濱屋ホーム,,株式会社,神奈川県,茅ヶ崎市,本村３丁目１０番２０号,,14,207,2530042,,,,,,,2021-11-04,1,,,,,ハマヤホーム,0
2849,8021001074387,新規,0,2021-11-04,2021-11-04,株式会社Ｍ－ｓｐｅｃ　Ａｕｔｏ,,株式会社,神奈川県,綾瀬市,深谷中７丁目５番７号第二杉本ハイツＡ－２,,14,218,2521107,,,,,,,2021-11-04,1,,,,,エムスペックオート,0
2852,8021003011058,新規,0,2021-11-04,2021-11-04,ＫＡＬＵＰＡＨＡＮＡ　ＡＵＴＯ　ＴＲＡＤＩＮＧ合同会社,,合同会社,神奈川県,愛甲郡愛川町,半原１４４番地の２,,14,401,2430307,,,,,,,2021-11-04,1,,,,,カルパハナオートトレーディング,0
2863,8030001145098,新規,0,2021-11-04,2021-11-04,株式会社Ｍ’ｓテクノ,,株式会社,埼玉県,さいたま市見沼区,大字片柳１０５６番地６,,11,104,3370024,,,,,,,2021-11-04,1,,,,,,0
2864,8030001145214,新規,0,2021-11-04,2021-11-04,株式会社ティーオール,,株式会社,埼玉県,加須市,上崎１８８６番地１,,11,210,3470125,,,,,,,2021-11-04,1,,,,,ティーオール,0
2865,8030003018260,新規,0,2021-11-04,2021-11-04,合同会社たいよう,,合同会社,埼玉県,加須市,中央２丁目９番９号,,11,210,3470055,,,,,,,2021-11-04,1,,,,,タイヨウ,0
2872,8040001120827,新規,0,2021-11-04,2021-11-04,和実株式会社,,株式会社,千葉県,南房総市,千倉町北朝夷２８０６番地,,12,234,2950011,,,,,,,2021-11-04,1,,,,,ナゴミ,0
2873,8040001120868,新規,0,2021-11-04,2021-11-04,株式会社アプリカデミ,,株式会社,千葉県,松戸市,秋山２７４番地の７,,12,207,2702223,,,,,,,2021-11-04,1,,,,,アプリカデミ,0
2874,8040001120892,新規,0,2021-11-04,2021-11-04,株式会社ＭｏＷＧ,,株式会社,千葉県,千葉市花見川区,畑町８７番地,,12,102,2620018,,,,,,,2021-11-04,1,,,,,モーグ,0
2877,8040003018862,新規,0,2021-11-04,2021-11-04,合同会社にこなぎ,,合同会社,千葉県,印西市,平賀８４３番地,,12,231,2701605,,,,,,,2021-11-04,1,,,,,ニコナギ,0
2884,8060001034281,新規,0,2021-11-04,2021-11-04,株式会社エスオーシー,,株式会社,栃木県,宇都宮市,東原町２１番１３号,,09,201,3210168,,,,,,,2021-11-04,1,,,,,エスオーシー,0
2890,8070001038587,新規,0,2021-11-04,2021-11-04,株式会社トルース,,株式会社,群馬県,渋川市,赤城町溝呂木８９０番地１,,10,208,3791115,,,,,,,2021-11-04,1,,,,,トルース,0
2891,8070001038604,新規,0,2021-11-04,2021-11-04,株式会社小岸,,株式会社,群馬県,伊勢崎市,中町３５７番地,,10,204,3720822,,,,,,,2021-11-04,1,,,,,コギシ,0
2892,8080101022886,新規,0,2021-11-04,2021-11-04,株式会社スエヒロビルドパートナーズ,,株式会社,静岡県,沼津市,足高２８７番地の１６,,22,203,4100001,,,,,,,2021-11-04,1,,,,,スエヒロビルドパートナーズ,0
2894,8080403004401,新規,0,2021-11-04,2021-11-04,合同会社ｃｕｓｔｏｍ　ｆｅｖｅｒ,,合同会社,静岡県,浜松市南区,楊子町１０５３番地の１６,,22,134,4300855,,,,,,,2021-11-04,1,,,,,カスタムフィーバー,0
2897,8110001036149,新規,0,2021-11-04,2021-11-04,株式会社さいがた動物病院,,株式会社,新潟県,上越市,大潟区犀潟２６８番地１９,,15,222,9493116,,,,,,,2021-11-04,1,,,,,サイガタドウブツビョウイン,0
2907,8120001241557,新規,0,2021-11-04,2021-11-04,株式会社カレイド,,株式会社,大阪府,大阪市西区,阿波座１丁目１０番１８号,,27,106,5500011,,,,,,,2021-11-04,1,,,,,カレイド,0
2910,8120003020538,新規,0,2021-11-04,2021-11-04,合同会社ＯＮＥＫＵＲ,,合同会社,大阪府,守口市,大日町３丁目３７－６,,27,209,5700003,,,,,,,2021-11-04,1,,,,,ワンクーア,0
2911,8120003020546,新規,0,2021-11-04,2021-11-04,ＡＳＭＯアーバンアセット合同会社,,合同会社,大阪府,大阪市淀川区,木川西４丁目１－３１,,27,123,5320013,,,,,,,2021-11-04,1,,,,,アスモアーバンアセット,0
2914,8120101064593,新規,0,2021-11-04,2021-11-04,株式会社美ｏｎｅグループ,,株式会社,大阪府,堺市堺区,北瓦町２丁１番１９号９階,,27,141,5900076,,,,,,,2021-11-04,1,,,,,ビーワングループ,0
2917,8120901045149,新規,0,2021-11-04,2021-11-04,株式会社ＮＯＢＯＲＵ,,株式会社,大阪府,豊中市,原田中１丁目１７番３０号,,27,203,5610807,,,,,,,2021-11-04,1,,,,,ノボル,0
2920,8122001035328,新規,0,2021-11-04,2021-11-04,株式会社ボディーショップＬｉｎｋ,,株式会社,大阪府,大東市,御領１丁目１０番１０号,,27,218,5740064,,,,,,,2021-11-04,1,,,,,ボディーショップリンク,0
2925,8130003007575,新規,0,2021-11-04,2021-11-04,都リゾーツ合同会社,,合同会社,京都府,京都市上京区,宮垣町７５番地１０３,,26,102,6020853,,,,,,,2021-11-04,1,,,,,ミヤコリゾーツ,0
2927,8130005016310,新規,0,2021-11-04,2021-11-04,一般社団法人一宇,,その他の設立登記法人,京都府,京都市上京区,一条通烏丸西入広橋殿町４０８番地３,,26,102,6020911,,,,,,,2021-11-04,1,,,,,イチウ,0
2934,8140001123646,新規,0,2021-11-04,2021-11-04,ジェイビーエス株式会社,,株式会社,兵庫県,神戸市西区,学園東町３丁目６５９番地の５２,,28,111,6512102,,,,,,,2021-11-04,1,,,,,ジェイビーエス,0
2935,8140001123687,新規,0,2021-11-04,2021-11-04,Ｄ＆Ｍホールディングス株式会社,,株式会社,兵庫県,加古川市,米田町船頭字谷１０７－３,,28,210,6750053,,,,,,,2021-11-04,1,,,,,ディーアンドエムホールディングス,0
2936,8140001123712,新規,0,2021-11-04,2021-11-04,株式会社丸寛,,株式会社,兵庫県,神崎郡福崎町,福田３７９番地１オールウェイズ神咲２０２号,,28,443,6792212,,,,,,,2021-11-04,1,,,,,マルカン,0
2937,8140001123720,新規,0,2021-11-04,2021-11-04,株式会社Ｇｅｎｅｓｉｓ,,株式会社,兵庫県,神戸市中央区,中町通３丁目１番１６－１０２号,,28,110,6500027,,,,,,,2021-11-04,1,,,,,ジェネシス,0
2938,8140001123737,新規,0,2021-11-04,2021-11-04,株式会社ａｎｄ　Ｃｏｎａｖｅ,,株式会社,兵庫県,神戸市中央区,北野町３丁目４番１８号,,28,110,6500002,,,,,,,2021-11-04,1,,,,,アンドコネイブ,0
2939,8140001123745,新規,0,2021-11-04,2021-11-04,株式会社半歩,,株式会社,兵庫県,豊岡市,日高町国分寺２４番地の１,,28,209,6695341,,,,,,,2021-11-04,1,,,,,ハンポ,0
2940,8140001123778,新規,0,2021-11-04,2021-11-04,株式会社あれから,,株式会社,兵庫県,西宮市,甲子園浦風町７番７－１０１号,,28,204,6638165,,,,,,,2021-11-04,1,,,,,アレカラ,0
2943,8150001025073,新規,0,2021-11-04,2021-11-04,株式会社鮮魚松本,,株式会社,奈良県,生駒市,小瀬町８８番地,,29,209,6300223,,,,,,,2021-11-04,1,,,,,センギョマツモト,0
2947,8170001016855,新規,0,2021-11-04,2021-11-04,友進株式会社,,株式会社,和歌山県,和歌山市,北出島４４番地８,,30,201,6408317,,,,,,,2021-11-04,1,,,,,ユウシン,0
2959,8180001148508,新規,0,2021-11-04,2021-11-04,天池商事株式会社,,株式会社,愛知県,常滑市,原松町５丁目６７番地,,23,216,4790832,,,,,,,2021-11-04,1,,,,,アマイケショウジ,0
2960,8180001148516,新規,0,2021-11-04,2021-11-04,ビー・オーセンティック株式会社,,株式会社,愛知県,名古屋市千種区,星が丘元町２番１８号,,23,101,4640802,,,,,,,2021-11-04,1,,,,,ビーオーセンティック,0
2961,8180001148532,新規,0,2021-11-04,2021-11-04,株式会社ティークリーン,,株式会社,愛知県,一宮市,木曽川町門間字東島海３８番地２サン・キャッスルＩＩ－１Ｃ号,00124749,23,203,4930002,,,,,,,2021-11-04,1,,,,,ティークリーン,0
2962,8180001148565,新規,0,2021-11-04,2021-11-04,株式会社Ｃｏｌｏｒ　Ｓｔｙｌｅ,,株式会社,愛知県,豊明市,阿野町藤手３番地１レインボー豊明前後６０５号,,23,229,4701141,,,,,,,2021-11-04,1,,,,,カラースタイル,0
2963,8180001148573,新規,0,2021-11-04,2021-11-04,株式会社ＥＬＥＡＤ,,株式会社,愛知県,名古屋市瑞穂区,姫宮町２丁目６４番地の１,,23,108,4670834,,,,,,,2021-11-04,1,,,,,エリード,0
2964,8180001148598,新規,0,2021-11-04,2021-11-04,株式会社ＹＳＧ,,株式会社,愛知県,名古屋市中川区,中島新町３丁目９０５番地の３,,23,110,4540932,,,,,,,2021-11-04,1,,,,,ワイエスジー,0
2965,8180001148615,新規,0,2021-11-04,2021-11-04,株式会社トレンツ,,株式会社,愛知県,名古屋市中川区,長良町３丁目２５番地,,23,110,4540815,,,,,,,2021-11-04,1,,,,,トレンツ,0
2966,8180001148631,新規,0,2021-11-04,2021-11-04,チェンジサポート株式会社,,株式会社,愛知県,名古屋市瑞穂区,春山町２０番地２－１０８,,23,108,4670024,,,,,,,2021-11-04,1,,,,,チェンジサポート,0
2969,8180003023147,新規,0,2021-11-04,2021-11-04,合同会社わかば,,合同会社,愛知県,稲沢市,稲葉４丁目４番２２号,,23,220,4928219,,,,,,,2021-11-04,1,,,,,ワカバ,0
2973,8180301035570,新規,0,2021-11-04,2021-11-04,株式会社ＬＲＪ,,株式会社,愛知県,刈谷市,恩田町３丁目１６０番地６,,23,210,4480013,,,,,,,2021-11-04,1,,,,,エルアールジェイ,0
2974,8180301035587,新規,0,2021-11-04,2021-11-04,株式会社設計工房ＫＯＢＡ,,株式会社,愛知県,田原市,片浜町前畑２３番地,,23,231,4413404,,,,,,,2021-11-04,1,,,,,セッケイコウボウコバ,0
2976,8180303005150,新規,0,2021-11-04,2021-11-04,ＡＮ　ＰＨＡＴ合同会社,,合同会社,愛知県,西尾市,今川町石橋９１番地８,,23,213,4450063,,,,,,,2021-11-04,1,,,,,アンファット,0
2978,8190001028816,新規,0,2021-11-04,2021-11-04,ハヅキフーズ株式会社,,株式会社,三重県,伊勢市,東大淀町２４７番地,,24,203,5150509,,,,,,,2021-11-04,1,,,,,ハヅキフーズ,0
2979,8190001028832,新規,0,2021-11-04,2021-11-04,株式会社ＴＳＢプロジェクト,,株式会社,三重県,伊勢市,神田久志本町１４７４番地３伊勢倉田山ぶんか館２Ｆ,,24,203,5160016,,,,,,,2021-11-04,1,,,,,ティーエスビープロジェクト,0
2982,8190005011636,新規,0,2021-11-04,2021-11-04,特定非営利活動法人オレンジハート,,その他の設立登記法人,三重県,津市,大里窪田町字西山１－３,,24,201,5140125,,,,,,,2021-11-04,1,,,,,オレンジハート,0
2989,8200001039357,新規,0,2021-11-04,2021-11-04,株式会社ＮＥＯ　ＰＬＡＮＥＴ,,株式会社,岐阜県,関市,弥生町３丁目１番地１３,,21,205,5013902,,,,,,,2021-11-04,1,,,,,ネオプラネット,0
2990,8200001039373,新規,0,2021-11-04,2021-11-04,株式会社ＡＲＸ,,株式会社,岐阜県,岐阜市,西鶉２丁目７７番地,,21,201,5008286,,,,,,,2021-11-04,1,,,,,アルクス,0
2992,8210001018681,新規,0,2021-11-04,2021-11-04,株式会社ＭＩＭＵＲＡ,,株式会社,福井県,鯖江市,神中町３丁目４番８号,,18,207,9160016,,,,,,,2021-11-04,1,,,,,ミムラ,0
2994,8220001024514,新規,0,2021-11-04,2021-11-04,株式会社ＡＫ,,株式会社,石川県,金沢市,旭町３丁目１５番２０号,,17,201,9200941,,,,,,,2021-11-04,1,,,,,エーケー,0
2995,8220001024522,新規,0,2021-11-04,2021-11-04,株式会社ポポファーム,,株式会社,石川県,鳳珠郡能登町,字柳田礼部２番地１,,17,463,9280331,,,,,,,2021-11-04,1,,,,,ポポファーム,0
2996,8220001024530,新規,0,2021-11-04,2021-11-04,株式会社ＡＶＡＮＴＥ,,株式会社,石川県,羽咋郡志賀町,高浜町オの２３番地,,17,384,9250141,,,,,,,2021-11-04,1,,,,,アバンテ,0
3002,8240001058849,新規,0,2021-11-04,2021-11-04,株式会社Ｋｅｙ‐ｓｔｏｎｅ,,株式会社,広島県,広島市安佐南区,中筋３丁目２６番１１－３０１号,,34,105,7310122,,,,,,,2021-11-04,1,,,,,キーストーン,0
3003,8240001058881,新規,0,2021-11-04,2021-11-04,株式会社中野工業,,株式会社,広島県,広島市西区,都町２１番７号,,34,104,7330023,,,,,,,2021-11-04,1,,,,,ナカノコウギョウ,0
3006,8250001019230,新規,0,2021-11-04,2021-11-04,株式会社エストラスト不動産販売,,株式会社,山口県,下関市,竹崎町４丁目１番２２号,,35,201,7500025,,,,,,,2021-11-04,1,,,,,エストラストフドウサンハンバイ,0
3009,8260001036150,新規,0,2021-11-04,2021-11-04,中浜工務店株式会社,,株式会社,岡山県,浅口市,鴨方町鳩ケ丘３丁目４８番地,,33,216,7190253,,,,,,,2021-11-04,1,,,,,ナカハマコウムテン,0
3010,8260003003710,新規,0,2021-11-04,2021-11-04,合名会社溝口,,合名会社,岡山県,岡山市中区,藤原西町１丁目５番３７号５０６,,33,102,7038244,,,,,,,2021-11-04,1,,,,,ミゾクチ,0
3013,8280001008552,新規,0,2021-11-04,2021-11-04,株式会社シビルテクト,,株式会社,島根県,松江市,東出雲町出雲郷８４２番地１,,32,201,6990108,,,,,,,2021-11-04,1,,,,,シビルテクト,0
3015,8280003001547,新規,0,2021-11-04,2021-11-04,合同会社Ｃｒｅａ,,合同会社,島根県,浜田市,紺屋町６６番地１,,32,202,6970031,,,,,,,2021-11-04,1,,,,,クレア,0
3016,8280005007443,新規,0,2021-11-04,2021-11-04,社会保険労務士法人さいとう事務所,,その他の設立登記法人,島根県,浜田市,相生町３９４８番地２,,32,202,6970034,,,,,,,2021-11-04,1,,,,,サイトウジムショ,0
3023,8290001095160,新規,0,2021-11-04,2021-11-04,株式会社Ｒ＆Ｋ,,株式会社,福岡県,福岡市西区,姪浜駅南４丁目３番１６－３０１号サンライフ姪浜Ｂ,,40,135,8190006,,,,,,,2021-11-04,1,,,,,アールアンドケー,0
3024,8290001095219,新規,0,2021-11-04,2021-11-04,株式会社喜月,,株式会社,福岡県,福岡市東区,香椎照葉４丁目２番,,40,131,8130017,,,,,,,2021-11-04,1,,,,,キヅキ,0
3025,8290001095227,新規,0,2021-11-04,2021-11-04,株式会社Ｑｕｅｅｎ　Ｂｅｅ,,株式会社,福岡県,福岡市東区,香椎照葉２丁目３番６２号,,40,131,8130017,,,,,,,2021-11-04,1,,,,,クイーンビー,0
3028,8290801027957,新規,0,2021-11-04,2021-11-04,株式会社ＴＭトレーディング,,株式会社,福岡県,北九州市八幡西区,陣原２丁目２番２８－５０６号,,40,109,8070821,,,,,,,2021-11-04,1,,,,,ティーエムトレーディング,0
3037,8310001017558,新規,0,2021-11-04,2021-11-04,山崎屋株式会社,00124748,株式会社,長崎県,大村市,玖島３丁目５７１番地６９,,42,205,8560834,,,,,,,2021-11-04,1,,,,,ヤマサキヤ,0
3044,8330001029139,新規,0,2021-11-04,2021-11-04,株式会社Ｅスコープメディカルカンパニー,,株式会社,熊本県,熊本市中央区,新町２丁目１２番３５号,,43,101,8600004,,,,,,,2021-11-04,1,,,,,イースコープメディカルカンパニー,0
3045,8330001029155,新規,0,2021-11-04,2021-11-04,株式会社リガールホーム,,株式会社,熊本県,上益城郡甲佐町,大字芝原６９番地１７,,43,444,8613244,,,,,,,2021-11-04,1,,,,,リガールホーム,0
3046,8330001029163,新規,0,2021-11-04,2021-11-04,株式会社Ｖｉａ　Ｐａｄｏｖａ５５,,株式会社,熊本県,合志市,須屋３７５１番地みずきプラザＤ棟１０２号,,43,216,8611102,,,,,,,2021-11-04,1,,,,,ヴィアパドヴァゴジュウゴ,0
3052,8350001017397,新規,0,2021-11-04,2021-11-04,株式会社いろは建築工房,,株式会社,宮崎県,宮崎市,高岡町飯田３丁目１４番地１２,,45,201,8802224,,,,,,,2021-11-04,1,,,,,イロハケンチクコウボウ,0
3053,8350001017406,新規,0,2021-11-04,2021-11-04,株式会社無尽灯,,株式会社,宮崎県,東臼杵郡門川町,南町１丁目８番地,,45,421,8890616,,,,,,,2021-11-04,1,,,,,ムジントウ,0
3055,8350003003965,新規,0,2021-11-04,2021-11-04,合同会社ぐっとらいん,,合同会社,宮崎県,宮崎市,大字郡司分丙９５２２番地５,,45,201,8800924,,,,,,,2021-11-04,1,,,,,グットライン,0
3058,8360003011546,新規,0,2021-11-04,2021-11-04,合同会社オフィスワークパートナー,,合同会社,沖縄県,中頭郡北谷町,字桑江５７５番地５、１Ｆ,,47,326,9040103,,,,,,,2021-11-04,1,,,,,オフィスワークパートナー,0
3060,8370001047780,新規,0,2021-11-04,2021-11-04,株式会社平星産業,,株式会社,宮城県,仙台市青葉区,愛子東１丁目１９番１１号フェニックス本木壱番館１０３,,04,101,9893127,,,,,,,2021-11-04,1,,,,,ヘイセイサンギョウ,0
3061,8370003005472,新規,0,2021-11-04,2021-11-04,アクリオ合同会社,,合同会社,宮城県,柴田郡柴田町,松ケ越１丁目９－１１,,04,323,9891744,,,,,,,2021-11-04,1,,,,,アクリオ,0
3067,8390001016668,新規,0,2021-11-04,2021-11-04,株式会社ＡＤＶＡＮＣＥ,,株式会社,山形県,山形市,飯塚町７６番地,,06,201,9900845,,,,,,,2021-11-04,1,,,,,アドバンス,0
3070,8390003001890,新規,0,2021-11-04,2021-11-04,合同会社さとう事務所,,合同会社,山形県,天童市,南小畑４丁目８番１６号,,06,210,9940081,,,,,,,2021-11-04,1,,,,,サトウジムショ,0
3085,8430001085279,新規,0,2021-11-04,2021-11-04,株式会社ＳＹＯ,,株式会社,北海道,小樽市,新光１丁目１０番１４号,,01,203,0470152,,,,,,,2021-11-04,1,,,,,エスワイオー,0
3086,8430001085295,新規,0,2021-11-04,2021-11-04,Ｓ２ＬＩＮＥ株式会社,,株式会社,北海道,札幌市白石区,川北一条１丁目４番２０号,,01,104,0030851,,,,,,,2021-11-04,1,,,,,エスツーライン,0
3087,8430001085320,新規,0,2021-11-04,2021-11-04,株式会社朝華リテック,,株式会社,北海道,虻田郡倶知安町,北七条西２丁目２番地２６,,01,400,0440057,,,,,,,2021-11-04,1,,,,,アサカリテック,0
3088,8430001085329,新規,0,2021-11-04,2021-11-04,株式会社Ｈｐｏｉｎｔ,,株式会社,北海道,札幌市中央区,南三条東６丁目１番地７ファランドール大通東Ｉ２０２,00124759,01,101,0600053,,,,,,,2021-11-04,1,,,,,エイチポイント,0
3089,8430003013320,新規,0,2021-11-04,2021-11-04,合同会社ｓｅｃｏｎｄｅａｌ,,合同会社,北海道,札幌市中央区,南十一条西６丁目１番３０－９０３号,,01,101,0640811,,,,,,,2021-11-04,1,,,,,セカンディール,0
3094,8470001018821,新規,0,2021-11-04,2021-11-04,せとうち建築家クラブ株式会社,,株式会社,香川県,高松市,西春日町１０５９番地６,,37,201,7618051,,,,,,,2021-11-04,1,,,,,セトウチケンチクカクラブ,0
3096,8470003002071,新規,0,2021-11-04,2021-11-04,福川電機設計合同会社,,合同会社,香川県,高松市,上林町５１０－３９,,37,201,7610302,,,,,,,2021-11-04,1,,,,,フクガワデンキセッケイ,0
3100,8500001023776,新規,0,2021-11-04,2021-11-04,株式会社フレンドシップえひめ,,株式会社,愛媛県,松山市,勝山町２丁目１番地株式会社愛媛銀行本店内２階,,38,201,7900878,,,,,,,2021-11-04,1,,,,,フレンドシップエヒメ,0
3101,8500001023784,新規,0,2021-11-04,2021-11-04,Ｋｉｚｕｎａ株式会社,,株式会社,愛媛県,松山市,粟井河原３３９番地８,,38,201,7992463,,,,,,,2021-11-04,1,,,,,キズナ,0
3102,8500001023792,新規,0,2021-11-04,2021-11-04,株式会社ひまわり建設工業,,株式会社,愛媛県,松山市,東野３丁目１５番３６号,,38,201,7900903,,,,,,,2021-11-04,1,,,,,ヒマワリケンセツコウギョウ,0
3110,9010001222138,新規,0,2021-11-04,2021-11-04,株式会社盛富ステップ,,株式会社,東京都,中央区,銀座１丁目２０番１６号５階,,13,102,1040061,,,,,,,2021-11-04,1,,,,,モリトミステップ,0
3111,9010001222286,新規,0,2021-11-04,2021-11-04,株式会社ＩＣＤＳメディアアシスト,,株式会社,東京都,千代田区,麹町３丁目６番地５号,,13,101,1020083,,,,,,,2021-11-04,1,,,,,アイシーディーエスメディアアシスト,0
3123,9010401163626,新規,0,2021-11-04,2021-11-04,ＧＣＪＧ１８株式会社,,株式会社,東京都,港区,元赤坂１丁目１番８号株式会社赤坂国際会計内,,13,103,1070051,,,,,,,2021-11-04,1,,,,,ジーシージェイジーエイティーン,0
3132,9010601060185,新規,0,2021-11-04,2021-11-04,株式会社Ｅ．Ｃ,,株式会社,東京都,墨田区,東向島３丁目１２－３ベルシード東向島３０２,,13,107,1310032,,,,,,,2021-11-04,1,,,,,イーシー,0
3134,9010603009239,新規,0,2021-11-04,2021-11-04,合同会社Ｌｉｔｔｌｅ・Ｇｅｍ,,合同会社,東京都,江東区,毛利１丁目４番１４号,,13,108,1350001,,,,,,,2021-11-04,1,,,,,リトルジェム,0
3136,9010801032455,新規,0,2021-11-04,2021-11-04,ＴＫＳ株式会社,,株式会社,東京都,大田区,蒲田１丁目２８番８号,,13,111,1440052,,,,,,,2021-11-04,1,,,,,ティーケーエス,0
3141,9010901049738,新規,0,2021-11-04,2021-11-04,株式会社ファイブダウン,,株式会社,東京都,世田谷区,梅丘１丁目２２番１号,,13,112,1540022,,,,,,,2021-11-04,1,,,,,ファイブダウン,0
3143,9010903006902,新規,0,2021-11-04,2021-11-04,合同会社ｋｅｏ,,合同会社,東京都,世田谷区,上野毛１丁目１４番６号,,13,112,1580093,,,,,,,2021-11-04,1,,,,,ケーイーオー,0
3153,9011001143712,新規,0,2021-11-04,2021-11-04,株式会社ｍａｎｉ,,株式会社,東京都,渋谷区,渋谷２丁目１９番１５号宮益坂ビルディング６０９,,13,113,1500002,,,,,,,2021-11-04,1,,,,,マーニ,0
3154,9011001143753,新規,0,2021-11-04,2021-11-04,株式会社Ｃｏｍｍｕｎｅ,,株式会社,東京都,渋谷区,神宮前６丁目２３番４号桑野ビル２階,,13,113,1500001,,,,,,,2021-11-04,1,,,,,コミューン,0
3155,9011001143794,新規,0,2021-11-04,2021-11-04,ビオソフィー株式会社,,株式会社,東京都,渋谷区,桜丘町１４番１０号,,13,113,1500031,,,,,,,2021-11-04,1,,,,,ビオソフィー,0
3159,9011101096777,新規,0,2021-11-04,2021-11-04,Ｌｉｖｅｌｙ　Ｅｎｔｅｒｔａｉｎｍｅｎｔ株式会社,,株式会社,東京都,新宿区,西新宿５丁目１０番４号,,13,104,1600023,,,,,,,2021-11-04,1,,,,,ライブリーエンターテインメント,0
3161,9011201023375,新規,0,2021-11-04,2021-11-04,コントローラーカンパニー株式会社,,株式会社,東京都,中野区,中央５丁目４９番６号３階,,13,114,1640011,,,,,,,2021-11-04,1,,,,,コントローラーカンパニー,0
3164,9011301027318,新規,0,2021-11-04,2021-11-04,株式会社ＧＬＯＲＹ　Ｕ’ｓ,,株式会社,東京都,杉並区,上井草１丁目２４－１９クレスト杉並１０１,,13,115,1670023,,,,,,,2021-11-04,1,,,,,グローリーユーズ,0
3165,9011303004216,新規,0,2021-11-04,2021-11-04,合同会社ニッカラ,,合同会社,東京都,杉並区,高円寺南４丁目７番３号サンシャイン高円寺８０３号,,13,115,1660003,,,,,,,2021-11-04,1,,,,,,0
3168,9011401023803,新規,0,2021-11-04,2021-11-04,藤岡建工株式会社,,株式会社,東京都,板橋区,成増１丁目１４－９成増グリーンハイツ４０１,,13,119,1750094,,,,,,,2021-11-04,1,,,,,フジオカケンコウ,0
3169,9011401023811,新規,0,2021-11-04,2021-11-04,株式会社トライアウト,,株式会社,東京都,板橋区,前野町３丁目１８番１号ファーストヴィレッジ１０２,,13,119,1740063,,,,,,,2021-11-04,1,,,,,トライアウト,0
3171,9011403003489,新規,0,2021-11-04,2021-11-04,ハンズ青山コンサルティング合同会社,,合同会社,東京都,板橋区,板橋１丁目３５番９号エムアイビル８階,,13,119,1730004,,,,,,,2021-11-04,1,,,,,ハンズアオヤマコンサルティング,0
3173,9011501027456,新規,0,2021-11-04,2021-11-04,株式会社ＦＫＴＳ,,株式会社,東京都,北区,西ケ原１丁目４８番１３号,,13,117,1140024,,,,,,,2021-11-04,1,,,,,エフケーティーエス,0
3183,9011801039903,新規,0,2021-11-04,2021-11-04,三陽工営株式会社,,株式会社,東京都,葛飾区,四つ木２丁目２２番６号,,13,122,1240011,,,,,,,2021-11-04,1,,,,,,0
3184,9011801039928,新規,0,2021-11-04,2021-11-04,株式会社Ｐｒｏｄｕｃｔｉｏｎ　Ｅｘａｂｉｌｉｔｉｅｓ,,株式会社,東京都,足立区,千住大川町５番１１－４０１号,,13,121,1200031,,,,,,,2021-11-04,1,,,,,プロダクションイクザビリティーズ,0
3185,9011801039936,新規,0,2021-11-04,2021-11-04,株式会社ラフィーネ,,株式会社,東京都,足立区,竹の塚１丁目２６番２号,,13,121,1210813,,,,,,,2021-11-04,1,,,,,ラフィーネ,0
3189,9012401038485,新規,0,2021-11-04,2021-11-04,株式会社ＣＥ　Ｃｒａｆｔｅｒｓ,,株式会社,東京都,三鷹市,大沢４丁目２１番１－５０２号,,13,204,1810015,,,,,,,2021-11-04,1,,,,,シーイークラフターズ,0
3191,9012701016752,新規,0,2021-11-04,2021-11-04,クララハート株式会社,,株式会社,東京都,西東京市,下保谷５丁目７番１６－３０３号,,13,229,2020004,,,,,,,2021-11-04,1,,,,,クララハート,0
3196,9013101008761,新規,0,2021-11-04,2021-11-04,雄信株式会社,,株式会社,東京都,青梅市,友田町４丁目２９６番地の１,,13,205,1980051,,,,,,,2021-11-04,1,,,,,ユウシン,0
3203,9013301048228,新規,0,2021-11-04,2021-11-04,株式会社ＭＹＭＯＭＯ,,株式会社,東京都,豊島区,東池袋１丁目３０番６号,,13,116,1700013,,,,,,,2021-11-04,1,,,,,マイモモ,0
3212,9020001143746,新規,0,2021-11-04,2021-11-04,株式会社ＲＩＫＵ,,株式会社,神奈川県,横浜市港南区,上大岡西３丁目２０番４４号シオノビル３０１,,14,111,2330002,,,,,,,2021-11-04,1,,,,,リク,0
3214,9020003020745,新規,0,2021-11-04,2021-11-04,ＫＯＳネクサス合同会社,,合同会社,神奈川県,川崎市川崎区,本町１丁目３－４プライムネクサス京急川崎１０１,,14,131,2100001,,,,,,,2021-11-04,1,,,,,ケーオーエスネクサス,0
3222,9021001074378,新規,0,2021-11-04,2021-11-04,株式会社ｂｌｕｅ　ｂｌｕｅ,,株式会社,神奈川県,厚木市,上落合６５７番地２,,14,212,2430025,,,,,,,2021-11-04,1,,,,,ブルーブルー,0
3223,9021001074436,新規,0,2021-11-04,2021-11-04,株式会社ＬＶＸ,,株式会社,神奈川県,厚木市,旭町５丁目４５番１４号,,14,212,2430014,,,,,,,2021-11-04,1,,,,,エルヴィエックス,0
3227,9021003011049,新規,0,2021-11-04,2021-11-04,ゴクラクジベース合同会社,,合同会社,神奈川県,鎌倉市,極楽寺３丁目１１－１,,14,204,2480023,,,,,,,2021-11-04,1,,,,,ゴクラクジベース,0
3228,9021005012326,新規,0,2021-11-04,2021-11-04,一般社団法人相模原の未来を考える３０人の会,,その他の設立登記法人,神奈川県,相模原市緑区,東橋本３丁目１４番２３－３０３号,,14,151,2520144,,,,,,,2021-11-04,1,,,,,サガミハラノミライヲカンガエルサンジュウニンノカイ,0
3229,9021005012342,新規,0,2021-11-04,2021-11-04,一般社団法人Ｏｎｅ　ｆｏｒ　Ｗａｎ,,その他の設立登記法人,神奈川県,横須賀市,湘南国際村１丁目２３番１９号,,14,201,2400107,,,,,,,2021-11-04,1,,,,,ワンフォーワン,0
3236,9030001145089,新規,0,2021-11-04,2021-11-04,Ｄ２Ｔ株式会社,,株式会社,埼玉県,さいたま市南区,別所７丁目２番１－２４０３号,,11,108,3360021,,,,,,,2021-11-04,1,,,,,ディーツーティー,0
3237,9030001145171,新規,0,2021-11-04,2021-11-04,株式会社Ｒｅ－ａＤ,,株式会社,埼玉県,所沢市,東所沢２丁目２番地の６,,11,208,3590021,,,,,,,2021-11-04,1,,,,,リード,0
3238,9030001145188,新規,0,2021-11-04,2021-11-04,株式会社サクラギア,,株式会社,埼玉県,川口市,川口４丁目２番３６－６０９号コスモ川口ステーションフロント,,11,203,3320015,,,,,,,2021-11-04,1,,,,,サクラギア,0
3242,9030003018251,新規,0,2021-11-04,2021-11-04,幸コーポレーション合同会社,,合同会社,埼玉県,越谷市,千間台西１丁目４番地１,,11,222,3430041,,,,,,,2021-11-04,1,,,,,サチコーポレーション,0
3254,9040001120859,新規,0,2021-11-04,2021-11-04,株式会社蒼翔,,株式会社,千葉県,流山市,宮園２丁目１６番地の１８,,12,220,2700155,,,,,,,2021-11-04,1,,,,,アオショウ,0
3255,9040001120900,新規,0,2021-11-04,2021-11-04,株式会社匠,,株式会社,千葉県,八千代市,萱田町６０８番地１８,,12,221,2760044,,,,,,,2021-11-04,1,,,,,タクミ,0
3269,9050003006171,新規,0,2021-11-04,2021-11-04,合同会社Ｓ＆Ｄ　ＩＮＴＥＲＮＡＴＩＯＮＡＬ,,合同会社,茨城県,鉾田市,汲上２７１９番地１,,08,234,3112103,,,,,,,2021-11-04,1,,,,,エスアンドディーインターナショナル,0
3270,9060001034256,新規,0,2021-11-04,2021-11-04,株式会社関東土木,,株式会社,栃木県,宇都宮市,下岡本町４５３２番地１,,09,201,3291104,,,,,,,2021-11-04,1,,,,,カントウドボク,0
3273,9070001038586,新規,0,2021-11-04,2021-11-04,株式会社エーテック,,株式会社,群馬県,富岡市,中高瀬７５５番地３,,10,210,3702333,,,,,,,2021-11-04,1,,,,,エーテック,0
3274,9070001038594,新規,0,2021-11-04,2021-11-04,株式会社真樹左官工業,,株式会社,群馬県,沼田市,桜町４８７１番地３,,10,206,3780052,,,,,,,2021-11-04,1,,,,,マサキサカンコウギョウ,0
3275,9070001038611,新規,0,2021-11-04,2021-11-04,株式会社ＹＵＤＡＩ,,株式会社,群馬県,伊勢崎市,赤堀鹿島町６９４番地１レナジア鹿島３０３,,10,204,3792202,,,,,,,2021-11-04,1,,,,,ユウダイ,0
3277,9070005009914,新規,0,2021-11-04,2021-11-04,一般社団法人ＧｍｏｔｏＰｒｏｊｅｃｔ,,その他の設立登記法人,群馬県,渋川市,行幸田３２０４番地５,,10,208,3770006,,,,,,,2021-11-04,1,,,,,ジモトプロジェクト,0
3278,9080001024544,新規,0,2021-11-04,2021-11-04,株式会社クレッシェ,,株式会社,静岡県,静岡市清水区,袖師町１１００番地の２,,22,103,4240037,,,,,,,2021-11-04,1,,,,,クレッシェ,0
3279,9080001024552,新規,0,2021-11-04,2021-11-04,株式会社スルガライン川村,,株式会社,静岡県,焼津市,下江留７２６番地,,22,212,4210218,,,,,,,2021-11-04,1,,,,,スルガラインカワムラ,0
3280,9080101022885,新規,0,2021-11-04,2021-11-04,株式会社鷹岡検量所,,株式会社,静岡県,富士市,久沢１６３番地の４,,22,210,4190202,,,,,,,2021-11-04,1,,,,,タカオカケンリョウショ,0
3283,9080401025456,新規,0,2021-11-04,2021-11-04,株式会社ＬＩＮＴＥＣ,,株式会社,静岡県,浜松市中区,高丘西１丁目３番２９号ライブタウン高丘Ａ２０２,,22,131,4338118,,,,,,,2021-11-04,1,,,,,リンテック,0
3286,9100001034771,新規,0,2021-11-04,2021-11-04,一喜堂印刷株式会社,,株式会社,長野県,上田市,塩川６３０番地３０,,20,203,3860401,,,,,,,2021-11-04,1,,,,,イチキドウインサツ,0
3288,9100003006281,新規,0,2021-11-04,2021-11-04,合同会社浅間山文庫,,合同会社,長野県,北佐久郡軽井沢町,大字追分字浅間山１４１９番地,,20,321,3890115,,,,,,,2021-11-04,1,,,,,アサマヤマブンコ,0
3296,9110001036172,新規,0,2021-11-04,2021-11-04,株式会社スマイルＤＥスマイル,,株式会社,新潟県,新潟市江南区,亀田緑町２丁目１番６号,,15,104,9500152,,,,,,,2021-11-04,1,,,,,,0
3307,9120001241572,新規,0,2021-11-04,2021-11-04,株式会社ＮＯＣＫ　ＤＥＳＩＧＮ,,株式会社,大阪府,大阪市北区,中崎西１丁目５番２２号,,27,127,5300015,,,,,,,2021-11-04,1,,,,,ノックデザイン,0
3308,9120001241580,新規,0,2021-11-04,2021-11-04,株式会社ＹＹ・Ｅｓｔａｔｅ,,株式会社,大阪府,大阪市北区,天神橋２丁目４番１７号,,27,127,5300041,,,,,,,2021-11-04,1,,,,,ワイワイエステート,0
3309,9120001241589,新規,0,2021-11-04,2021-11-04,オーエム株式株式会社,,株式会社,大阪府,大阪市住之江区,北加賀屋３丁目３番４４号,,27,125,5590011,,,,,,,2021-11-04,1,,,,,オーエムカブシキ,0
3310,9120001241614,新規,0,2021-11-04,2021-11-04,ＮＧＧ株式会社,,株式会社,大阪府,大阪市城東区,中央２丁目１５番２０号,,27,118,5360005,,,,,,,2021-11-04,1,,,,,エヌジージー,0
3311,9120001241630,新規,0,2021-11-04,2021-11-04,株式会社Ｄｅｃｉｓｉｏｎ,,株式会社,大阪府,大阪市東成区,大今里３丁目１４番１３号アクシス大阪５０１号,,27,115,5370012,,,,,,,2021-11-04,1,,,,,ディシジョン,0
3312,9120001241647,新規,0,2021-11-04,2021-11-04,株式会社ＡｄＳｔａｒｔｓ,,株式会社,大阪府,大阪市北区,鶴野町４番Ａ－１２１３号,,27,127,5300014,,,,,,,2021-11-04,1,,,,,アドスターツ,0
3318,9120101064576,新規,0,2021-11-04,2021-11-04,株式会社Ｌｉｎｋ　Ｕｐ,,株式会社,大阪府,河内長野市,昭栄町６番１４号,,27,216,5860025,,,,,,,2021-11-04,1,,,,,リンクアップ,0
3319,9120101064584,新規,0,2021-11-04,2021-11-04,株式会社Ｉｒｏｔｅｑｕｅ,,株式会社,大阪府,堺市西区,太平寺６９５番地２,,27,144,5938314,,,,,,,2021-11-04,1,,,,,アイロテック,0
3320,9120101064601,新規,0,2021-11-04,2021-11-04,株式会社松栄土木,,株式会社,大阪府,堺市堺区,少林寺町西３丁１番２６号,,27,141,5900960,,,,,,,2021-11-04,1,,,,,ショウエイドボク,0
3326,9120901045148,新規,0,2021-11-04,2021-11-04,Ａｃｅ　Ｐｌａｎ株式会社,,株式会社,大阪府,吹田市,広芝町３番２９－２０６号,,27,205,5640052,,,,,,,2021-11-04,1,,,,,エースプラン,0
3329,9120903003896,新規,0,2021-11-04,2021-11-04,合同会社ｓｍａｌｌ　ｔｏｋｅｎ,,合同会社,大阪府,吹田市,千里山西４丁目２番１６号,,27,205,5650851,,,,,,,2021-11-04,1,,,,,スモールトークン,0
3333,9130001070459,新規,0,2021-11-04,2021-11-04,株式会社ＫＢｗｏｒｋ,,株式会社,京都府,京都市南区,東九条柳下町１４番地１０,,26,107,6018025,,,,,,,2021-11-04,1,,,,,ケービーワーク,0
3334,9130001070467,新規,0,2021-11-04,2021-11-04,京ＶＩＥＴ株式会社,,株式会社,京都府,久世郡久御山町,林北畑９２－１クレス久御山ビル２０１,,26,322,6130033,,,,,,,2021-11-04,1,,,,,キョウベト,0
3339,9130003007574,新規,0,2021-11-04,2021-11-04,ＩＮＮＯＶＡＴＩＯＮ　ＭＵＳＩＣ合同会社,,合同会社,京都府,京都市右京区,太秦安井春日町１,,26,108,6168062,,,,,,,2021-11-04,1,,,,,イノベーションミュージック,0
3343,9140001123645,新規,0,2021-11-04,2021-11-04,株式会社トラストナイン,,株式会社,兵庫県,神戸市中央区,八雲通２丁目３番２０－４号,,28,110,6510078,,,,,,,2021-11-04,1,,,,,トラストナイン,0
3344,9140001123686,新規,0,2021-11-04,2021-11-04,株式会社ＫＯＫＯライフ,,株式会社,兵庫県,尼崎市,稲葉元町３丁目４番７号,,28,202,6600055,,,,,,,2021-11-04,1,,,,,ココライフ,0
3345,9140003016946,新規,0,2021-11-04,2021-11-04,合同会社小西種苗園,,合同会社,兵庫県,川西市,中央町８番５号,,28,217,6660016,,,,,,,2021-11-04,1,,,,,コニシシュビョウエン,0
3347,9150001025072,新規,0,2021-11-04,2021-11-04,株式会社ｔｗｏ－ｃｕｌ,,株式会社,奈良県,香芝市,五位堂３丁目４６０番地５,,29,210,6390226,,,,,,,2021-11-04,1,,,,,トゥーカル,0
3349,9160001023777,新規,0,2021-11-04,2021-11-04,株式会社維新経営開発,,株式会社,滋賀県,大津市,池の里２１番１号,,25,201,5200827,,,,,,,2021-11-04,1,,,,,イシンケイエイカイハツ,0
3350,9160001023785,新規,0,2021-11-04,2021-11-04,株式会社油匠,,株式会社,滋賀県,大津市,伊香立下龍華町５９１番地,,25,201,5200363,,,,,,,2021-11-04,1,,,,,ユショウ,0
3353,9170001016854,新規,0,2021-11-04,2021-11-04,株式会社みやま園,,株式会社,和歌山県,新宮市,磐盾１番１７号,,30,207,6470051,,,,,,,2021-11-04,1,,,,,ミヤマエン,0
3355,9170003001656,新規,0,2021-11-04,2021-11-04,Ｑｕｂｅ合同会社,,合同会社,和歌山県,和歌山市,雑賀町３３番,,30,201,6408108,,,,,,,2021-11-04,1,,,,,キューブ,0
3368,9180001148498,新規,0,2021-11-04,2021-11-04,株式会社ｓａｍｂｏｏ,,株式会社,愛知県,名古屋市東区,泉２丁目１１－４ＩＺＵＭＩ－ＳＯ・Ｃ,,23,102,4610001,,,,,,,2021-11-04,1,,,,,サンブー,0
3369,9180001148507,新規,0,2021-11-04,2021-11-04,株式会社ｉｓ,,株式会社,愛知県,名古屋市中区,栄４丁目２０番２号,,23,106,4600008,,,,,,,2021-11-04,1,,,,,イズ,0
3370,9180001148531,新規,0,2021-11-04,2021-11-04,株式会社エクシアリオン,,株式会社,愛知県,名古屋市中村区,高道町１丁目５番,,23,105,4530037,,,,,,,2021-11-04,1,,,,,エクシアリオン,0
3371,9180001148556,新規,0,2021-11-04,2021-11-04,ママクリーン株式会社,,株式会社,愛知県,名古屋市北区,上飯田南町３丁目１３,,23,103,4620804,,,,,,,2021-11-04,1,,,,,ママクリーン,0
3372,9180001148580,新規,0,2021-11-04,2021-11-04,株式会社Ｗａｔｅｒ　Ｆｉｅｌｄ,,株式会社,愛知県,名古屋市東区,白壁５丁目３０番地,,23,102,4610011,,,,,,,2021-11-04,1,,,,,ウォーターフィールド,0
3373,9180001148589,新規,0,2021-11-04,2021-11-04,アクトベース株式会社,,株式会社,愛知県,名古屋市西区,城西５丁目１１番１８号,,23,104,4510031,,,,,,,2021-11-04,1,,,,,アクトベース,0
3376,9180002090468,新規,0,2021-11-04,2021-11-04,有限会社堀田鉄工,,有限会社,愛知県,愛西市,町方町古江１８９番地,,23,232,4968014,,,,,,,2021-11-04,1,,,,,ホッタテッコウ,0
3379,9180005019497,新規,0,2021-11-04,2021-11-04,一般社団法人花の木シェルター,,その他の設立登記法人,愛知県,名古屋市西区,花の木２丁目２番１８号,,23,104,4510062,,,,,,,2021-11-04,1,,,,,ハナノキシェルター,0
3381,9180301035578,新規,0,2021-11-04,2021-11-04,株式会社Ａｏｂａ,,株式会社,愛知県,知立市,山屋敷町富士塚１番地１４,00124750,23,225,4720022,,,,,,,2021-11-04,1,,,,,アオバ,0
3382,9180301035586,新規,0,2021-11-04,2021-11-04,ＰＰＦ　ＪＡＰＡＮ株式会社,,株式会社,愛知県,安城市,三河安城南町１丁目１５番地１０,,23,212,4460058,,,,,,,2021-11-04,1,,,,,ピーピーエフジャパン,0
3383,9180301035594,新規,0,2021-11-04,2021-11-04,株式会社ＵＨＯＬＡＢＯ,,株式会社,愛知県,豊橋市,草間町字平東１３０番地,,23,201,4418141,,,,,,,2021-11-04,1,,,,,ウホラボ,0
3387,9190001028815,新規,0,2021-11-04,2021-11-04,株式会社Ａｓｈ,,株式会社,三重県,松阪市,大黒田町３４４番地,,24,204,5150063,,,,,,,2021-11-04,1,,,,,アシュ,0
3388,9190001028823,新規,0,2021-11-04,2021-11-04,株式会社恵工房,,株式会社,三重県,伊賀市,依那具２２１番地,,24,216,5180101,,,,,,,2021-11-04,1,,,,,メグミコウボウ,0
3389,9190003003816,新規,0,2021-11-04,2021-11-04,弘福合同会社,,合同会社,三重県,鈴鹿市,白子町３４９７番地１,,24,207,5100244,,,,,,,2021-11-04,1,,,,,コウフク,0
3393,9200001039372,新規,0,2021-11-04,2021-11-04,株式会社安江板金,,株式会社,岐阜県,加茂郡白川町,黒川８０２８番地１,,21,506,5091431,,,,,,,2021-11-04,1,,,,,ヤスエバンキン,0
3398,9210001018689,新規,0,2021-11-04,2021-11-04,株式会社ｇｌｏｗ,,株式会社,福井県,坂井市,丸岡町熊堂第３号７番地１－１６ソフトパークふくい福井県産業情報センタービル８階,,18,210,9100347,,,,,,,2021-11-04,1,,,,,グロー,0
3399,9220001024513,新規,0,2021-11-04,2021-11-04,株式会社東タイル,,株式会社,石川県,白山市,宮永新町２８２番地３,,17,210,9240018,,,,,,,2021-11-04,1,,,,,ヒガシタイル,0
3400,9220001024521,新規,0,2021-11-04,2021-11-04,ｂｒａｖｅ　ｈｅａｒｔ株式会社,,株式会社,石川県,金沢市,野町３丁目１３番１３号,,17,201,9218031,,,,,,,2021-11-04,1,,,,,ブレイブハート,0
3404,9240001058848,新規,0,2021-11-04,2021-11-04,システムサポート株式会社,,株式会社,広島県,広島市安佐北区,口田南２丁目２１番１８－１号,,34,106,7391733,,,,,,,2021-11-04,1,,,,,システムサポート,0
3405,9240001058856,新規,0,2021-11-04,2021-11-04,株式会社ＫＧＳ,,株式会社,広島県,広島市安佐南区,安東７丁目１９－１７,,34,105,7310153,,,,,,,2021-11-04,1,,,,,ケージーエス,0
3406,9240001058872,新規,0,2021-11-04,2021-11-04,株式会社勝建工業,,株式会社,広島県,福山市,手城町４丁目２３番７号,,34,207,7210966,,,,,,,2021-11-04,1,,,,,ショウケンコウギョウ,0
3407,9240001058880,新規,0,2021-11-04,2021-11-04,セイフティーロック株式会社,,株式会社,広島県,府中市,中須町１３３５番地２ファミール山路Ｂ－１０１,,34,208,7260012,,,,,,,2021-11-04,1,,,,,セイフティーロック,0
3408,9240001058889,新規,0,2021-11-04,2021-11-04,株式会社大真通商,,株式会社,広島県,福山市,津之郷町大字津之郷９０６番地３,,34,207,7200841,,,,,,,2021-11-04,1,,,,,ダイシンツウショウ,0
3411,9260001036141,新規,0,2021-11-04,2021-11-04,株式会社ＭＡＲｃＥＲ,,株式会社,岡山県,岡山市北区,表町３丁目５－１５,,33,101,7000822,,,,,,,2021-11-04,1,,,,,マルセル,0
3412,9260001036158,新規,0,2021-11-04,2021-11-04,株式会社ＦＩＶＥ　ＣＲＯＳＳ,,株式会社,岡山県,倉敷市,北畝２丁目２番３２号,,33,202,7128032,,,,,,,2021-11-04,1,,,,,ファイブクロス,0
3413,9260001036166,新規,0,2021-11-04,2021-11-04,本城電気株式会社,,株式会社,岡山県,岡山市北区,平田１０４番地１７７,,33,101,7000952,,,,,,,2021-11-04,1,,,,,ホンジョウデンキ,0
3416,9280001008551,新規,0,2021-11-04,2021-11-04,株式会社ｃｏｎｄｄｙ,,株式会社,島根県,雲南市,加茂町南加茂１２０４番地１,,32,209,6991104,,,,,,,2021-11-04,1,,,,,コンディ,0
3417,9280003001546,新規,0,2021-11-04,2021-11-04,ＬＩＢ合同会社,,合同会社,島根県,松江市,上乃木１丁目１６番６０号,,32,201,6900015,,,,,,,2021-11-04,1,,,,,エルアイビー,0
3426,9290005018414,新規,0,2021-11-04,2021-11-04,社会保険労務士法人ＫＥＳＥＲＡ,,その他の設立登記法人,福岡県,福岡市博多区,博多駅東２丁目５番２８号博多偕成ビル,,40,132,8120013,,,,,,,2021-11-04,1,,,,,ケセラ,0
3432,9310001017549,新規,0,2021-11-04,2021-11-04,マルクマＢＡＳＥ株式会社,,株式会社,長崎県,長崎市,田中町３９７０番地,,42,201,8510134,,,,,,,2021-11-04,1,,,,,マルクマベース,0
3433,9310001017565,新規,0,2021-11-04,2021-11-04,株式会社山葵,,株式会社,長崎県,長崎市,葉山１丁目７番８－６０３号,,42,201,8528053,,,,,,,2021-11-04,1,,,,,サンキ,0
3436,9320001018703,新規,0,2021-11-04,2021-11-04,株式会社スマイルクリエーション,,株式会社,大分県,竹田市,大字会々１４９８番地１（２号室）,,44,208,8780011,,,,,,,2021-11-04,1,,,,,スマイルクリエーション,0
3438,9330001029154,新規,0,2021-11-04,2021-11-04,株式会社ＯＮＥ　ＵＰ　ＳＴＹＬＥ,,株式会社,熊本県,熊本市東区,戸島５丁目１２番４８－１号,,43,102,8618041,,,,,,,2021-11-04,1,,,,,ワンアップスタイル,0
3439,9330001029162,新規,0,2021-11-04,2021-11-04,株式会社アイエー警備,,株式会社,熊本県,宇城市,松橋町松橋１１２６番地１かりん松橋２０１号室,,43,213,8690502,,,,,,,2021-11-04,1,,,,,アイエーケイビ,0
3440,9330003009105,新規,0,2021-11-04,2021-11-04,合同会社Ｅｖｏｌｉｖ,,合同会社,熊本県,熊本市中央区,水前寺公園５番４１号パークサイド水前寺８Ｆ,,43,101,8620956,,,,,,,2021-11-04,1,,,,,エボリブ,0
3441,9340001024212,新規,0,2021-11-04,2021-11-04,株式会社ＮＥＸＴ　ＬＩＮＥ,,株式会社,鹿児島県,出水市,大野原町１１１４番地,,46,208,8990216,,,,,,,2021-11-04,1,,,,,ネクストライン,0
3444,9350001017396,新規,0,2021-11-04,2021-11-04,Ｌｉ　Ｍｅｒａｋ株式会社,,株式会社,宮崎県,宮崎市,大工２丁目１７３番地１ＡＫＨＤ３０１号,,45,201,8800015,,,,,,,2021-11-04,1,,,,,リメラク,0
3445,9350001017405,新規,0,2021-11-04,2021-11-04,株式会社ノチデ,,株式会社,宮崎県,宮崎市,橘通東３丁目４－３１クラフトビル１Ｆ,,45,201,8800805,,,,,,,2021-11-04,1,,,,,ノチデ,0
3455,9360005006527,新規,0,2021-11-04,2021-11-04,一般財団法人沖縄芸術文化財団,,その他の設立登記法人,沖縄県,那覇市,おもろまち２丁目５番１３－２０６号サントピアおもろまち,,47,201,9000006,,,,,,,2021-11-04,1,,,,,オキナワゲイジュツブンカザイダン,0
3456,9360005006551,新規,0,2021-11-04,2021-11-04,一般社団法人石垣海洋少年団＆石垣ジュニアヨットクラブ,,その他の設立登記法人,沖縄県,石垣市,字真栄里４２６番地２１,,47,207,9070002,,,,,,,2021-11-04,1,,,,,イシガキカイヨウショウネンダンイシガキジュニアヨットクラブ,0
3460,9370001047788,新規,0,2021-11-04,2021-11-04,株式会社ユナイテッドエイト,,株式会社,宮城県,仙台市宮城野区,出花１丁目１３番地の４２,,04,102,9830012,,,,,,,2021-11-04,1,,,,,ユナイテッドエイト,0
3461,9370001047796,新規,0,2021-11-04,2021-11-04,株式会社アプレイザル仙台,,株式会社,宮城県,仙台市泉区,黒松２丁目１９番７号第３えりあビル２０９号,,04,105,9818006,,,,,,,2021-11-04,1,,,,,アプレイザルセンダイ,0
3465,9380005012498,新規,0,2021-11-04,2021-11-04,ＮＰＯ法人日本予防医学総合研究所,,その他の設立登記法人,福島県,南相馬市,原町区高字高林８９番地,,07,212,9750054,,,,,,,2021-11-04,1,,,,,ニホンヨボウイガクソウゴウケンキュウジョ,0
3468,9390001016659,新規,0,2021-11-04,2021-11-04,モアディバイス東北株式会社,,株式会社,山形県,酒田市,大宮町１丁目３番地の２,,06,204,9980824,,,,,,,2021-11-04,1,,,,,モアディバイストウホク,0
3470,9420001017637,新規,0,2021-11-04,2021-11-04,株式会社ＡＬＯＲＤ,,株式会社,青森県,八戸市,大字八日町３６第一ビル５階,,02,203,0310086,,,,,,,2021-11-04,1,,,,,アロード,0
3479,9430001085286,新規,0,2021-11-04,2021-11-04,株式会社ビックアップ,,株式会社,北海道,札幌市清田区,里塚二条４丁目９番１０号,,01,110,0040802,,,,,,,2021-11-04,1,,,,,ビックアップ,0
3480,9430001085303,新規,0,2021-11-04,2021-11-04,株式会社ケアレジェ,,株式会社,北海道,札幌市北区,篠路二条８丁目４番２１号ベルリード２８　Ａ－５号,,01,102,0028022,,,,,,,2021-11-04,1,,,,,ケアレジェ,0
3483,9440001008972,新規,0,2021-11-04,2021-11-04,株式会社イクタ美装,,株式会社,北海道,北斗市,中央３丁目２番２８号,,01,236,0490162,,,,,,,2021-11-04,1,,,,,イクタビソウ,0
3486,9460001005621,新規,0,2021-11-04,2021-11-04,株式会社河内商会,,株式会社,北海道,釧路市,柳町６番２号,,01,206,0850037,,,,,,,2021-11-04,1,,,,,コウチショウカイ,0
3490,9470001018820,新規,0,2021-11-04,2021-11-04,株式会社ＢＡＳＥＴＨ,,株式会社,香川県,高松市,瓦町１丁目３番１２号,,37,201,7600052,,,,,,,2021-11-04,1,,,,,バース,0
3491,9470003002070,新規,0,2021-11-04,2021-11-04,合同会社大耀,,合同会社,香川県,さぬき市,志度３１６番地６,,37,206,7692101,,,,,,,2021-11-04,1,,,,,タイヨウ,0
3492,9480001011543,新規,0,2021-11-04,2021-11-04,ジェイメタル工業株式会社,,株式会社,徳島県,板野郡松茂町,豊久字豊久開拓５００番地６,,36,401,7710213,,,,,,,2021-11-04,1,,,,,ジェイメタルコウギョウ,0
3496,9500001023775,新規,0,2021-11-04,2021-11-04,株式会社Ｍｓｉｓｔ,,株式会社,愛媛県,西条市,明屋敷１０３番地,,38,206,7930023,,,,,,,2021-11-04,1,,,,,エムシスト,0
