sequenceNumber,corporateNumber,process,correct,updateDate,changeDate,name,nameImageId,kind,prefectureName,cityName,streetNumber,addressImageId,prefectureCode,cityCode,postCode,addressOutside,addressOutsideImageId,closeDate,closeCause,successorCorporateNumber,changeCause,assignmentDate,latest,enName,enPrefectureName,enCityName,enAddressOutside,furigana,hihyoji
3,1010001177372,登記記録の閉鎖等,0,2024-10-09,2024-09-26,エアネット株式会社,,株式会社,東京都,中央区,日本橋堀留町１丁目１番５号,,13,102,1030012,,,2024-09-26,清算の結了等,,,2016-08-03,1,,,,,エアネット,0
20,1010401149888,登記記録の閉鎖等,0,2024-10-09,2024-10-01,Ｕ‐ＴＥＣ興産株式会社,,株式会社,大阪府,富田林市,若松町東２丁目４番１４号,,27,214,5840023,,,2024-10-01,合併による解散等,4120101069299,令和６年１０月１日大阪府富田林市梅の里四丁目１４番５号株式会社ＢＬＩＳＳ（4120101069299）に合併し解散,2019-12-17,1,,,,,ユーテックコウサン,0
30,1010402035063,登記記録の閉鎖等,0,2024-10-09,2024-09-30,有限会社エドワード・エンタープライズ,,有限会社,東京都,新宿区,西新宿４丁目１３番３号,,13,104,1600023,,,2024-09-30,清算の結了等,,,2015-10-05,1,,,,,エドワードエンタープライズ,0
41,1010803002034,登記記録の閉鎖等,0,2024-10-09,2024-10-01,合同会社エンブレム上尾,,合同会社,東京都,品川区,小山３丁目１４番２号,,13,109,1420062,,,2024-10-01,合併による解散等,6010803002095,令和６年１０月１日東京都品川区小山三丁目１４番２号合同会社センチュリー川口（6010803002095）に合併し解散,2016-02-17,1,,,,,エンブレムアゲオ,0
42,1010805000424,登記記録の閉鎖等,0,2024-10-09,2024-10-01,大田電設協同組合,,その他の設立登記法人,東京都,大田区,中央２丁目２３番１５号,,13,111,1430024,,,2024-10-01,清算の結了等,,,2015-10-05,1,,,,,オオタデンセツ,0
46,1011001147712,登記記録の閉鎖等,0,2024-10-09,2024-09-13,株式会社ｇｒｅｅ９,,株式会社,東京都,港区,赤坂９丁目７番１号ミッドタウン・タワー４３Ｆ,,13,103,1070052,,,2024-09-13,清算の結了等,,,2022-05-25,1,,,,,グリーナイン,0
56,1011103005181,登記記録の閉鎖等,0,2024-10-09,2024-10-07,合同会社ｓｅｌｆｒｅｅ,,合同会社,東京都,新宿区,新宿４丁目３－１７,,13,104,1600022,,,2024-10-07,合併による解散等,6011301016389,令和６年９月３０日東京都渋谷区笹塚二丁目１番６号株式会社ｆｏｎｆｕｎ（6011301016389）に合併し解散,2015-10-05,1,,,,,セルフリー,0
65,1011502010848,登記記録の閉鎖等,0,2024-10-09,2024-10-01,有限会社フソウ建装,,有限会社,東京都,荒川区,町屋６丁目１番２号,,13,118,1160001,,,2024-10-01,清算の結了等,,,2015-10-05,1,,,,,フソウケンソウ,0
91,1021002053735,登記記録の閉鎖等,0,2024-10-09,2024-10-08,有限会社原住建,,有限会社,神奈川県,足柄下郡湯河原町,吉浜１９６４番地の５４,,14,384,2590312,,,2024-10-08,清算の結了等,,,2015-10-05,1,,,,,ハラジュウケン,0
94,1030001144494,登記記録の閉鎖等,0,2024-10-09,2024-09-27,株式会社アイビックス,,株式会社,埼玉県,さいたま市中央区,上落合５丁目３番９号,,11,105,3380001,,,2024-09-27,清算の結了等,,,2021-10-04,1,,,,,アイビックス,0
99,1030005002731,登記記録の閉鎖等,0,2024-10-09,2024-09-10,天理教大門分教会,,その他の設立登記法人,埼玉県,さいたま市岩槻区,大字浮谷１９０４番地１,,11,110,3390037,,,2024-09-10,合併による解散等,1030005010148,令和６年９月１０日埼玉県越谷市大沢二丁目１番２９号天理教大澤分教会（1030005010148）に合併し解散,2015-10-05,1,,,,,テンリキョウダイモンブンキョウカイ,0
111,1040002068238,登記記録の閉鎖等,0,2024-10-09,2024-10-01,有限会社大野石材店,,有限会社,千葉県,袖ケ浦市,横田２６８９番地,,12,229,2990236,,,2024-10-01,清算の結了等,,,2015-10-05,1,,,,,オオノセキザイテン,0
118,1050003000545,登記記録の閉鎖等,0,2024-10-09,2024-10-01,合資会社来栖会計事務所,,合資会社,茨城県,ひたちなか市,青葉町１９番２３号,,08,221,3120056,,,2024-10-01,清算の結了等,,,2015-10-05,1,,,,,クルスカイケイジムショ,0
124,1070002002598,登記記録の閉鎖等,0,2024-10-09,2024-10-03,有限会社ジーピーエス設備,,有限会社,群馬県,前橋市,朝倉町２丁目６番地Ｏ－１０４号,,10,201,3710811,,,2024-10-03,清算の結了等,,,2015-10-05,1,,,,,ジーピーエスセツビ,0
128,1070005001242,登記記録の閉鎖等,0,2024-10-09,2024-10-02,特定非営利活動法人婚活情報局ＣＵＰＩＤＯ,,その他の設立登記法人,群馬県,前橋市,石倉町３丁目１２番２号,,10,201,3710841,,,2024-10-02,清算の結了等,,,2015-10-05,1,,,,,コンカツジョウホウキョククピド,0
134,1080101011904,登記記録の閉鎖等,0,2024-10-09,2024-10-04,株式会社ゆとり,,株式会社,静岡県,富士宮市,人穴２４５番地の１,,22,207,4180102,,,2024-10-04,清算の結了等,,,2015-10-05,1,,,,,ユトリ,0
141,1100005003697,登記記録の閉鎖等,0,2024-10-09,2024-10-04,小諸鉄工企業組合,,その他の設立登記法人,長野県,小諸市,丙４３７番地,,20,208,3840803,,,2024-10-04,清算の結了等,,,2015-10-05,1,,,,,コモロテッコウ,0
161,1120101026682,登記記録の閉鎖等,0,2024-10-09,2024-10-04,株式会社ピアサーティ,,株式会社,大阪府,大阪狭山市,狭山５丁目２２３２番地の３（１－５０７号）,,27,231,5890005,,,2024-10-04,清算の結了等,,,2015-10-05,1,,,,,ピアサーティ,0
163,1120102021880,登記記録の閉鎖等,0,2024-10-09,2024-10-07,有限会社タケガワ配送センター,,有限会社,大阪府,貝塚市,澤６８５番地,,27,208,5970062,,,2024-10-07,清算の結了等,,,2015-10-05,1,,,,,タケガワハイソウセンター,0
168,1122001012036,登記記録の閉鎖等,0,2024-10-09,2024-10-01,ミヤコフードプロダクト株式会社,,株式会社,大阪府,東大阪市,川俣１丁目１０番４４号,,27,227,5770063,,,2024-10-01,合併による解散等,5122001009615,令和６年１０月１日大阪府東大阪市川俣一丁目１０番４４号ミヤコフーズ株式会社（5122001009615）に合併し解散,2015-10-05,1,,,,,ミヤコフードプロダクト,0
175,1130001031815,登記記録の閉鎖等,0,2024-10-09,2024-10-04,株式会社オガワ,,株式会社,京都府,京都市右京区,嵯峨広沢南野町４２番地の１１,,26,108,6168304,,,2024-10-04,清算の結了等,,,2015-10-05,1,,,,,オガワ,0
178,1130001058288,登記記録の閉鎖等,0,2024-10-09,2024-10-03,株式会社オーエム・ロジ,,株式会社,京都府,京都市中京区,聚楽廻南町１９番地４３,,26,104,6048411,,,2024-10-03,合併による解散等,3130001028116,令和６年８月３１日京都市中京区聚楽廻南町１９番地の６株式会社シーガル（3130001028116）に合併し解散,2016-09-15,1,,,,,オーエムロジ,0
179,1140001041301,登記記録の閉鎖等,0,2024-10-09,2024-10-04,株式会社藤原商会,,株式会社,兵庫県,丹波市,山南町谷川１９７６番地の２,,28,223,6693131,,,2024-10-04,清算の結了等,,,2015-10-05,1,,,,,フジワラショウカイ,0
184,1140002055894,登記記録の閉鎖等,0,2024-10-09,2024-10-07,有限会社エムシーコーポレーション,,有限会社,兵庫県,西宮市,上大市１丁目２番の５,,28,204,6638003,,,2024-10-07,清算の結了等,,,2015-10-05,1,,,,,エムシーコーポレーション,0
190,1180001038938,登記記録の閉鎖等,0,2024-10-09,2024-10-04,株式会社朝日サポートセンター,,株式会社,愛知県,名古屋市中区,栄１丁目３番３号,,23,106,4600008,,,2024-10-04,合併による解散等,1120001060022,令和６年１０月１日大阪市北区中之島二丁目３番１８号中之島フェスティバルタワー内株式会社ＡＳＣ（1120001060022）に合併し解散,2015-10-05,1,,,,,アサヒサポートセンター,0
198,1180002088701,登記記録の閉鎖等,0,2024-10-09,2024-09-26,有限会社花井コンサルタントオフィス,,有限会社,愛知県,東海市,富木島町西才道１４番地,,23,222,4760011,,,2024-09-26,清算の結了等,,,2015-10-05,1,,,,,ハナイコンサルタントオフィス,0
202,1180302021782,登記記録の閉鎖等,0,2024-10-09,2024-10-01,有限会社我満工業,,有限会社,愛知県,豊田市,西田町宮前７番地３,,23,211,4730903,,,2024-10-01,清算の結了等,,,2015-10-05,1,,,,,ガマンコウギョウ,0
203,1190002009631,登記記録の閉鎖等,0,2024-10-09,2024-10-03,有限会社平成技研,,有限会社,三重県,伊勢市,西豊浜町１６９２番地１,,24,203,5150505,,,2024-10-03,清算の結了等,,,2015-10-05,1,,,,,ヘイセイギケン,0
206,1200001025248,登記記録の閉鎖等,0,2024-10-09,2024-10-04,株式会社山崎経営,,株式会社,岐阜県,高山市,赤保木町５９８番地,,21,203,5060045,,,2024-10-04,清算の結了等,,,2015-10-05,1,,,,,ヤマザキケイエイ,0
214,1230001015799,登記記録の閉鎖等,0,2024-10-09,2024-10-07,株式会社新富山電力,,株式会社,富山県,富山市,二口町５丁目９番地１,,16,201,9398211,,,2024-10-07,清算の結了等,,,2015-10-05,1,,,,,シントヤマデンリョク,0
224,1290002005554,登記記録の閉鎖等,0,2024-10-09,2024-09-02,西尾建材株式会社,,株式会社,福岡県,糟屋郡新宮町,三代西１丁目８番１号,,40,345,8110125,,,2024-09-02,清算の結了等,,,2015-10-05,1,,,,,ニシオケンザイ,0
236,1330002017520,登記記録の閉鎖等,0,2024-10-09,2024-10-01,有限会社コラソン,,有限会社,熊本県,菊池郡菊陽町,大字原水５５９９番地５,,43,404,8691102,,,2024-10-01,合併による解散等,9330001009206,令和６年１０月１日熊本県菊池郡菊陽町大字原水５５９９番地４株式会社高田産業（9330001009206）に合併し解散,2015-10-05,1,,,,,コラソン,0
238,1340002014467,登記記録の閉鎖等,0,2024-10-09,2024-10-04,有限会社すし照,,有限会社,鹿児島県,霧島市,牧園町宿窪田２８６０番地２,,46,218,8996507,,,2024-10-04,清算の結了等,,,2015-10-05,1,,,,,スシテル,0
240,1360001024787,登記記録の閉鎖等,0,2024-10-09,2024-10-02,株式会社リージョナルマーケティング琉球,,株式会社,沖縄県,宜野湾市,大山３丁目１１番３２号,,47,205,9012223,,,2024-10-02,清算の結了等,,,2018-10-31,1,,,,,リージョナルマーケティングリュウキュウ,0
249,1400602000744,登記記録の閉鎖等,0,2024-10-09,2024-09-19,有限会社メガネのイトウ,,有限会社,岩手県,奥州市,水沢字東町２５番地,,03,215,0230818,,,2024-09-19,合併による解散等,5400602000352,令和６年９月１５日岩手県奥州市水沢田小路９１番２号株式会社ジュエルイトウ（5400602000352）に合併し解散,2015-10-05,1,,,,,メガネノイトウ,0
253,1430001037526,登記記録の閉鎖等,0,2024-10-09,2024-10-01,株式会社多喜産業,,株式会社,北海道,札幌市西区,西野三条９丁目１番１号,,01,107,0630033,,,2024-10-01,清算の結了等,,,2015-10-05,1,,,,,タキサンギョウ,0
255,1430002002925,登記記録の閉鎖等,0,2024-10-09,2024-10-01,有限会社エスエービル,,有限会社,北海道,札幌市中央区,南十四条西６丁目５番２１号,,01,101,0640914,,,2024-10-01,清算の結了等,,,2015-10-05,1,,,,,エスエービル,0
256,1430002011926,登記記録の閉鎖等,0,2024-10-09,2024-10-01,有限会社たけうち薬局,,有限会社,北海道,札幌市中央区,北十条西２４丁目３番地,,01,101,0600010,,,2024-10-01,合併による解散等,1430001005219,令和６年１０月１日札幌市中央区北十条西二十四丁目３番地株式会社なの花北海道（1430001005219）に合併し解散,2015-10-05,1,,,,,タケウチヤッキョク,0
262,1470001004927,登記記録の閉鎖等,0,2024-10-09,2024-10-01,ＪＲ四国情報システム株式会社,,株式会社,香川県,高松市,浜ノ町８番２４号,,37,201,7600011,,,2024-10-01,合併による解散等,5470001002002,令和６年１０月１日香川県高松市浜ノ町８番２４号ＪＲ四国ソリューション株式会社（5470001002002）に合併し解散,2015-10-05,1,,,,,ジェイアールシコクジョウホウシステム,0
268,1490005000094,登記記録の閉鎖等,0,2024-10-09,2024-10-07,北岡建材事業協同組合,,その他の設立登記法人,高知県,高知市,幸町１５番７号,,39,201,7800045,,,2024-10-07,清算の結了等,,,2015-10-05,1,,,,,キタオカケンザイ,0
286,2010001229552,登記記録の閉鎖等,0,2024-10-09,2024-10-03,株式会社ＹＳＫ１３,,株式会社,東京都,千代田区,麹町２丁目６番地５,,13,101,1020083,,,2024-10-03,合併による解散等,1010501012748,令和６年９月２１日埼玉県羽生市小松台二丁目７０５番地１６株式会社フルプラ（1010501012748）に合併し解散,2022-09-16,1,,,,,ワイエスケイジュウサン,0
289,2010002039785,登記記録の閉鎖等,0,2024-10-09,2024-09-25,有限会社ストラテジーズ,,有限会社,東京都,千代田区,平河町１丁目６番７号,,13,101,1020093,,,2024-09-25,清算の結了等,,,2015-10-05,1,,,,,ストラテジーズ,0
292,2010003041154,登記記録の閉鎖等,0,2024-10-09,2024-09-26,合同会社虎ノ門８,,合同会社,東京都,千代田区,内神田２丁目２番６号５階あすな会計事務所内,,13,101,1010047,,,2024-09-26,清算の結了等,,,2023-07-20,1,,,,,トラノモンエイト,0
296,2010401026260,登記記録の閉鎖等,0,2024-10-09,2024-09-24,プライムキャピタル株式会社,,株式会社,神奈川県,横浜市港南区,港南台７丁目１６番１１号,,14,111,2340054,,,2024-09-24,清算の結了等,,,2015-10-05,1,,,,,プライムキャピタル,0
313,2010701028510,登記記録の閉鎖等,0,2024-10-09,2024-10-01,株式会社林武利,,株式会社,東京都,品川区,西五反田２丁目２３番１号,,13,109,1410031,,,2024-10-01,合併による解散等,7010701011750,令和６年１０月１日東京都品川区西五反田二丁目２３番１号株式会社ＪＭＡ・アソシエイツ（7010701011750）に合併し解散,2015-10-05,1,,,,,ハヤシタケトシ,0
314,2010701045209,登記記録の閉鎖等,0,2024-10-09,2024-10-02,株式会社マイスリー,,株式会社,東京都,品川区,東品川４丁目１３番２４－１５０３号,,13,109,1400002,,,2024-10-02,清算の結了等,,,2023-12-01,1,,,,,マイスリー,0
323,2010901053531,登記記録の閉鎖等,0,2024-10-09,2024-10-01,株式会社キラキラキッズナーサリー,,株式会社,埼玉県,さいたま市緑区,道祖土１丁目１９－１３サイドガーデン西館１０２,,11,109,3360907,,,2024-10-01,合併による解散等,5030001114816,令和６年１０月１日埼玉県さいたま市緑区道祖土一丁目１９－１３サイドガーデン西館１０２株式会社ＡＬＴＡ（5030001114816）に合併し解散,2023-08-01,1,,,,,キラキラキッズナーサリー,0
336,2011301024593,登記記録の閉鎖等,0,2024-10-09,2024-09-30,クロスメイク東京株式会社,,株式会社,東京都,杉並区,永福２丁目１番２１号,,13,115,1680064,,,2024-09-30,清算の結了等,,,2018-11-09,1,,,,,クロスメイクトウキョウ,0
347,2012305002057,登記記録の閉鎖等,0,2024-10-09,2024-10-03,一般社団法人まちだむら,,その他の設立登記法人,東京都,町田市,薬師台１丁目２６番地１１薬師台メディカルＴＥＲＲＡＣＥＡＮＮＥＸ,,13,209,1950073,,,2024-10-03,清算の結了等,,,2023-09-05,1,,,,,マチダムラ,0
350,2012702003871,登記記録の閉鎖等,0,2024-10-09,2024-10-01,有限会社浅野工務店,,有限会社,東京都,西東京市,保谷町３丁目２５番２号,,13,229,2020015,,,2024-10-01,清算の結了等,,,2015-10-05,1,,,,,アサノコウムテン,0
360,2020002080276,登記記録の閉鎖等,0,2024-10-09,2024-09-24,有限会社管紀,,有限会社,神奈川県,川崎市幸区,小倉４丁目６番４７号,,14,132,2120054,,,2024-09-24,清算の結了等,,,2015-10-05,1,,,,,カンキ,0
366,2021002011626,登記記録の閉鎖等,0,2024-10-09,2024-10-07,有限会社藤和,,有限会社,神奈川県,茅ヶ崎市,香川５丁目１６番１号,,14,207,2530082,,,2024-10-07,清算の結了等,,,2015-10-05,1,,,,,トウワ,0
367,2021002043280,登記記録の閉鎖等,0,2024-10-09,2024-10-07,有限会社大坪屋,,有限会社,神奈川県,座間市,入谷東４丁目４１番２９号,,14,216,2520028,,,2024-10-07,清算の結了等,,,2015-10-05,1,,,,,オオツボヤ,0
374,2030001126665,登記記録の閉鎖等,0,2024-10-09,2024-10-01,株式会社フラットラスト,,株式会社,埼玉県,鶴ヶ島市,共栄町４番地３５,,11,241,3502212,,,2024-10-01,清算の結了等,,,2018-07-30,1,,,,,フラットラスト,0
377,2030002095538,登記記録の閉鎖等,0,2024-10-09,2024-10-02,有限会社アーバンテック,,有限会社,埼玉県,東松山市,沢口町１番地１３,,11,212,3550004,,,2024-10-02,清算の結了等,,,2015-10-05,1,,,,,アーバンテック,0
381,2030005016714,登記記録の閉鎖等,0,2024-10-09,2024-10-02,特定非営利活動法人さいたま訪問歯科診療支援機構,,その他の設立登記法人,埼玉県,さいたま市岩槻区,大字浮谷１０００番地,,11,110,3390037,,,2024-10-02,清算の結了等,,,2015-10-05,1,,,,,サイタマホウモンシカシンリョウシエンキコウ,0
391,2050001028356,登記記録の閉鎖等,0,2024-10-09,2024-09-30,サクセス株式会社,,株式会社,千葉県,柏市,柏１丁目６番１０号桜屋ビル５階,,12,217,2770005,,,2024-09-30,清算の結了等,,,2015-10-05,1,,,,,サクセス,0
396,2050002000982,登記記録の閉鎖等,0,2024-10-09,2024-10-01,有限会社グリーンランド・スギモリ,,有限会社,茨城県,水戸市,河和田町３９３４番地１１,,08,201,3114153,,,2024-10-01,清算の結了等,,,2015-10-05,1,,,,,グリーンランドスギモリ,0
402,2070002027710,登記記録の閉鎖等,0,2024-10-09,2024-10-04,関東地所有限会社,,有限会社,群馬県,前橋市,上細井町１３４４番地２,,10,201,3710051,,,2024-10-04,清算の結了等,,,2015-10-05,1,,,,,カントウジショ,0
406,2080102009566,登記記録の閉鎖等,0,2024-10-09,2024-10-03,有限会社山崎建築設計事務所,,有限会社,静岡県,駿東郡長泉町,中土狩２２５番地の１０,,22,342,4110942,,,2024-10-03,清算の結了等,,,2015-10-05,1,,,,,ヤマザキケンチクセッケイジムショ,0
437,2120101048321,登記記録の閉鎖等,0,2024-10-09,2024-10-04,ストアラボ株式会社,,株式会社,大阪府,羽曳野市,伊賀５丁目３番１８号,,27,222,5830876,,,2024-10-04,合併による解散等,8120001204869,令和６年１０月１日大阪市中央区東心斎橋一丁目１８番３０号エフエルエージー株式会社（8120001204869）に合併し解散,2015-10-05,1,,,,,ストアラボ,0
446,2122001025631,登記記録の閉鎖等,0,2024-10-09,2024-10-01,株式会社双和,,株式会社,大阪府,八尾市,幸町４丁目６９番地１,,27,212,5810821,,,2024-10-01,合併による解散等,4122002017048,令和６年１０月１日大阪府八尾市幸町四丁目５６番地３株式会社建都工作所（4122002017048）に合併し解散,2015-10-05,1,,,,,ソウワ,0
454,2130003003183,登記記録の閉鎖等,0,2024-10-09,2024-10-03,悠久債完璧保全合名会社,,合名会社,京都府,京都市下京区,烏丸通松原上る因幡堂町６８２番地,,26,106,6008415,,,2024-10-03,清算の結了等,,,2015-10-05,1,,,,,ユウキュウサイカンペキホゼン,0
455,2140001004728,登記記録の閉鎖等,0,2024-10-09,2024-10-04,コスモ貿易株式会社,,株式会社,兵庫県,神戸市西区,秋葉台２丁目１４９番地の４８,,28,111,6512224,,,2024-10-04,清算の結了等,,,2015-10-05,1,,,,,,0
463,2140002062304,登記記録の閉鎖等,0,2024-10-09,2024-10-03,有限会社本岡自動車,,有限会社,兵庫県,加西市,北条町古坂１１７２番地の４５,,28,220,6752303,,,2024-10-03,清算の結了等,,,2015-10-05,1,,,,,モトオカジドウシャ,0
466,2180001001382,登記記録の閉鎖等,0,2024-10-09,2024-09-26,株式会社山本道路,,株式会社,愛知県,名古屋市守山区,瀬古３丁目１３１７番地,,23,113,4630068,,,2024-09-26,清算の結了等,,,2015-10-05,1,,,,,ヤマモトドウロ,0
488,2240002045455,登記記録の閉鎖等,0,2024-10-09,2024-10-01,江草傳被服有限会社,,有限会社,広島県,福山市,新市町大字新市８６３番地,,34,207,7293103,,,2024-10-01,清算の結了等,,,2015-10-05,1,,,,,エグサデン,0
492,2260002008724,登記記録の閉鎖等,0,2024-10-09,2024-09-30,有限会社藤田石材店,,有限会社,岡山県,岡山市北区,平山８６３番地１１６,,33,101,7011332,,,2024-09-30,清算の結了等,,,2015-10-05,1,,,,,フジタセキザイテン,0
505,2290801017708,登記記録の閉鎖等,0,2024-10-09,2024-10-07,株式会社Ｓ．Ｇ,,株式会社,福岡県,北九州市小倉北区,堺町１丁目５番１号堺町会館別館２階,,40,106,8020005,,,2024-10-07,清算の結了等,,,2015-10-05,1,,,,,エスジー,0
507,2300001001436,登記記録の閉鎖等,0,2024-10-09,2024-10-01,カーメイクショップ佐賀株式会社,,株式会社,佐賀県,佐賀市,嘉瀬町大字扇町２２８８番地３,,41,201,8400862,,,2024-10-01,合併による解散等,4300001000527,令和６年１０月１日佐賀市嘉瀬町大字扇町２４８０番地佐賀トヨタ自動車株式会社（4300001000527）に合併し解散,2015-10-05,1,,,,,カーメイクショップサガ,0
522,2370001016353,登記記録の閉鎖等,0,2024-10-09,2024-09-19,株式会社八起電気工事,,株式会社,宮城県,仙台市若林区,卸町東５丁目７番２９号,,04,103,9840002,,,2024-09-19,清算の結了等,,,2015-10-05,1,,,,,ヤオキデンキコウジ,0
527,2410001002555,登記記録の閉鎖等,0,2024-10-09,2024-10-02,八橋技建工業株式会社,,株式会社,秋田県,秋田市,八橋田五郎１丁目１２番３２号,,05,201,0100972,,,2024-10-02,清算の結了等,,,2015-10-05,1,,,,,ヤバセギケンコウギョウ,0
536,2430001066920,登記記録の閉鎖等,0,2024-10-09,2024-10-01,株式会社ノースライトエンジ,,株式会社,北海道,札幌市北区,あいの里一条６丁目３番３－８０２,,01,102,0028071,,,2024-10-01,清算の結了等,,,2015-10-05,1,,,,,ノースライトエンジ,0
553,3010001220452,登記記録の閉鎖等,0,2024-10-09,2024-09-25,株式会社ユアボイス,,株式会社,東京都,中央区,銀座６丁目６番１号,,13,102,1040061,,,2024-09-25,清算の結了等,,,2021-08-17,1,,,,,ユアボイス,0
561,3010102007427,登記記録の閉鎖等,0,2024-10-09,2024-10-01,有限会社ＹＭＫ,,有限会社,東京都,八王子市,寺町５５番地,,13,201,1920073,,,2024-10-01,合併による解散等,2010101011471,令和６年１０月１日東京都八王子市寺町５５番地株式会社ＹＭＭ（2010101011471）に合併し解散,2015-10-05,1,,,,,ワイエムケー,0
564,3010401069300,登記記録の閉鎖等,0,2024-10-09,2024-09-11,株式会社サイ・ゴン,,株式会社,東京都,港区,六本木４丁目３番１１号,,13,103,1060032,,,2024-09-11,清算の結了等,,,2015-10-05,1,,,,,サイゴン,0
566,3010401168192,登記記録の閉鎖等,0,2024-10-09,2024-10-01,ルサーナ・バイオテクノロジー株式会社,,株式会社,愛知県,名古屋市中区,錦３丁目５番３１号,,23,106,4600003,,,2024-10-01,清算の結了等,,,2022-06-24,1,,,,,ルサーナバイオテクノロジー,0
574,3010503006580,登記記録の閉鎖等,0,2024-10-09,2024-10-01,合同会社ＢＥＬＬＥ,,合同会社,東京都,台東区,上野７丁目１０番７号４０１,,13,106,1100005,,,2024-10-01,清算の結了等,,,2022-05-09,1,,,,,ベレ,0
577,3010602028807,登記記録の閉鎖等,0,2024-10-09,2024-10-03,有限会社オフィスオンザブリッジ,,有限会社,東京都,江東区,清澄１丁目８番地６,,13,108,1350024,,,2024-10-03,清算の結了等,,,2015-10-05,1,,,,,オフィスオンザブリッジ,0
580,3010702015457,登記記録の閉鎖等,0,2024-10-09,2024-10-02,有限会社テルイ,,有限会社,東京都,品川区,大井３丁目３番８号,,13,109,1400014,,,2024-10-02,清算の結了等,,,2015-10-05,1,,,,,テルイ,0
581,3010803002569,登記記録の閉鎖等,0,2024-10-09,2024-10-01,合同会社グラード中野中央,,合同会社,東京都,品川区,小山３丁目１４番２号,,13,109,1420062,,,2024-10-01,合併による解散等,6010803002095,令和６年１０月１日東京都品川区小山三丁目１４番２号合同会社センチュリー川口（6010803002095）に合併し解散,2018-01-24,1,,,,,グラードナカノチュウオウ,0
584,3011001129403,登記記録の閉鎖等,0,2024-10-09,2024-09-17,ＰｈａｒｍａＣａｒｅ　Ｊａｐａｎ株式会社,,株式会社,東京都,渋谷区,桜丘町２６番１号セルリアンタワー１５階,,13,113,1500031,,,2024-09-17,清算の結了等,,,2019-08-09,1,,,,,ファーマケアジャパン,0
585,3011001135649,登記記録の閉鎖等,0,2024-10-09,2024-10-02,株式会社ＳＯＤＥＭＯＤＥ,,株式会社,東京都,杉並区,上荻２丁目１８－３,,13,115,1670043,,,2024-10-02,清算の結了等,,,2020-09-04,1,,,,,ソーデモード,0
604,3011702011108,登記記録の閉鎖等,0,2024-10-09,2024-10-02,有限会社丸山豆腐店,,有限会社,東京都,江戸川区,上一色２丁目１６番９号,,13,123,1330041,,,2024-10-02,清算の結了等,,,2015-10-05,1,,,,,マルヤマトウフテン,0
614,3012401011885,登記記録の閉鎖等,0,2024-10-09,2024-10-07,株式会社アメリカンドリーム,,株式会社,東京都,三鷹市,下連雀３丁目３３番１３－２０２号,,13,204,1810013,,,2024-10-07,清算の結了等,,,2015-10-05,1,,,,,アメリカンドリーム,0
619,3013301003436,登記記録の閉鎖等,0,2024-10-09,2024-10-03,株式会社ラッセル,,株式会社,東京都,中央区,日本橋兜町１９番８号,,13,102,1030026,,,2024-10-03,合併による解散等,5013301003434,令和６年９月３０日静岡県浜松市中央区常盤町２番地の４株式会社共立エコー（5013301003434）に合併し解散,2015-10-05,1,,,,,ラッセル,0
631,3020001140402,登記記録の閉鎖等,0,2024-10-09,2024-09-24,コードセンター・ジャパン株式会社,,株式会社,神奈川県,横浜市西区,高島２丁目１９番１２号横浜スカイビル２１１８Ａ,,14,103,2200011,,,2024-09-24,清算の結了等,,,2021-03-16,1,,,,,コードセンタージャパン,0
644,3021002020733,登記記録の閉鎖等,0,2024-10-09,2024-10-02,有限会社参天堂薬品,,有限会社,神奈川県,相模原市中央区,上溝６丁目２番１号,,14,152,2520243,,,2024-10-02,清算の結了等,,,2015-10-05,1,,,,,サンテンドウヤクヒン,0
653,3030001079409,登記記録の閉鎖等,0,2024-10-09,2024-10-02,有川貿易株式会社,,株式会社,埼玉県,川口市,並木２丁目３８番１２号,,11,203,3320034,,,2024-10-02,清算の結了等,,,2015-10-05,1,,,,,アリカワボウエキ,0
667,3070001033915,登記記録の閉鎖等,0,2024-10-09,2024-10-04,株式会社リミットウェイ,,株式会社,群馬県,前橋市,荒牧町２丁目３３番地２ミルホイールＶ１０３号,,10,201,3710044,,,2024-10-04,清算の結了等,,,2017-09-04,1,,,,,リミットウェイ,0
684,3110003004281,登記記録の閉鎖等,0,2024-10-09,2024-10-01,合同会社セントラル,,合同会社,新潟県,南蒲原郡田上町,大字田上丙２３９５番地１５,,15,361,9591502,,,2024-10-01,清算の結了等,,,2020-10-06,1,,,,,セントラル,0
704,3120002030402,登記記録の閉鎖等,0,2024-10-09,2024-10-07,有限会社ケーアイチャレンジャー,,有限会社,大阪府,大阪市北区,太融寺町５番１３号東梅田パークビル地下１階,,27,127,5300051,,,2024-10-07,清算の結了等,,,2015-10-05,1,,,,,ケーアイチャレンジャー,0
726,3140002020698,登記記録の閉鎖等,0,2024-10-09,2024-10-03,有限会社マイセ,,有限会社,兵庫県,西宮市,樋之池町２８－４３－７０２,,28,204,6620084,,,2024-10-03,清算の結了等,,,2015-10-05,1,,,,,マイセ,0
737,3180001154700,登記記録の閉鎖等,0,2024-10-09,2024-09-26,ＯＮＥホールディングス株式会社,,株式会社,愛知県,名古屋市中区,丸の内３丁目１０番２９号４階,,23,106,4600002,,,2024-09-26,清算の結了等,,,2023-01-27,1,,,,,ワンホールディングス,0
740,3180002043142,登記記録の閉鎖等,0,2024-10-09,2024-09-26,有限会社アイシーメード,,有限会社,愛知県,名古屋市港区,南十一番町３丁目４番地の６,,23,111,4550006,,,2024-09-26,清算の結了等,,,2015-10-05,1,,,,,アイシーメード,0
741,3180002085275,登記記録の閉鎖等,0,2024-10-09,2024-09-30,有限会社石川屋商店,,有限会社,愛知県,知多郡東浦町,大字藤江字大坪４８番地の２２,,23,442,4702105,,,2024-09-30,清算の結了等,,,2015-10-05,1,,,,,イシカワヤショウテン,0
742,3180005019263,登記記録の閉鎖等,0,2024-10-09,2024-10-01,司法書士法人リーセット,,その他の設立登記法人,愛知県,名古屋市中村区,名駅４丁目２５番１７号,,23,105,4500002,,,2024-10-01,清算の結了等,,,2021-04-26,1,,,,,リーセット,0
755,3250001002182,登記記録の閉鎖等,0,2024-10-09,2024-10-04,ピュアスタッフ株式会社,,株式会社,山口県,防府市,松原町１番４１－１号,,35,206,7470804,,,2024-10-04,清算の結了等,,,2015-10-05,1,,,,,ピュアスタッフ,0
760,3270005002474,登記記録の閉鎖等,0,2024-10-09,2024-10-08,協同組合智頭製材工業,,その他の設立登記法人,鳥取県,八頭郡智頭町,大字智頭２６９４番地,,31,328,6891402,,,2024-10-08,清算の結了等,,,2015-10-05,1,,,,,チズセイザイコウギョウ,0
774,3320001000749,登記記録の閉鎖等,0,2024-10-09,2024-10-08,株式会社小野産業,,株式会社,大分県,大分市,敷戸東町１９番２号,,44,201,8701104,,,2024-10-08,清算の結了等,,,2015-10-05,1,,,,,,0
783,3350003001172,登記記録の閉鎖等,0,2024-10-09,2024-10-02,合資会社西野製材所,,合資会社,宮崎県,延岡市,構口町１丁目７５番地,,45,203,8820867,,,2024-10-02,清算の結了等,,,2015-10-05,1,,,,,ニシノセイザイショ,0
792,3430001019497,登記記録の閉鎖等,0,2024-10-09,2024-10-01,三友鉄建株式会社,,株式会社,北海道,札幌市豊平区,豊平三条４丁目２番１９号,,01,105,0620903,,,2024-10-01,合併による解散等,8430001030490,令和６年１０月１日札幌市豊平区月寒東二条十九丁目９番１０号マルコウサービス株式会社（8430001030490）に合併し解散,2015-10-05,1,,,,,サンユウテッケン,0
793,3430001026865,登記記録の閉鎖等,0,2024-10-09,2024-10-01,株式会社エヌジェイメディカル,,株式会社,北海道,札幌市中央区,北一条東２丁目５番地２札幌泉第一ビル３階,,01,101,0600031,,,2024-10-01,合併による解散等,8430001020392,令和６年１０月１日札幌市白石区本通三丁目北６番１８号株式会社ＳＭＣ（8430001020392）に合併し解散,2015-10-05,1,,,,,エヌジェイメディカル,0
795,3430002060046,登記記録の閉鎖等,0,2024-10-09,2024-10-01,有限会社丸千仙田商店,,有限会社,北海道,白老郡白老町,字社台５８番地,,01,578,0590901,,,2024-10-01,清算の結了等,,,2015-10-05,1,,,,,マルセンセンダショウテン,0
796,3450002007615,登記記録の閉鎖等,0,2024-10-09,2024-10-03,有限会社丸谷塗装,,有限会社,北海道,深川市,一已町字一已４７８５番地,,01,228,0740028,,,2024-10-03,清算の結了等,,,2015-10-05,1,,,,,マルヤトソウ,0
799,3460102001426,登記記録の閉鎖等,0,2024-10-09,2024-10-04,有限会社産和商事,,有限会社,北海道,帯広市,西十六条南４１丁目２番３号,,01,207,0800026,,,2024-10-04,清算の結了等,,,2015-10-05,1,,,,,サンワショウジ,0
836,4010402011169,登記記録の閉鎖等,0,2024-10-09,2024-09-11,有限会社福田工務店,,有限会社,東京都,港区,芝３丁目３１番５号,,13,103,1050014,,,2024-09-11,清算の結了等,,,2015-10-05,1,,,,,フクダコウムテン,0
839,4010505002057,登記記録の閉鎖等,0,2024-10-09,2024-10-03,一般社団法人アクティオ,,その他の設立登記法人,東京都,千代田区,神田佐久間町３丁目２１－５ヒガシカンダビル３０７号,,13,101,1010025,,,2024-10-03,清算の結了等,,,2015-10-05,1,,,,,アクティオ,0
844,4010603005102,登記記録の閉鎖等,0,2024-10-09,2024-10-07,合同会社ジェイリーム,,合同会社,北海道,札幌市中央区,北六条西２６丁目５番３２号１階,,01,101,0640826,,,2024-10-07,清算の結了等,,,2015-10-05,1,,,,,ジェイリーム,0
852,4010701040744,登記記録の閉鎖等,0,2024-10-09,2024-10-01,株式会社ｒｏｐｅ,,株式会社,東京都,品川区,北品川２丁目８番５号品川サービス店会ビル３階,,13,109,1400001,,,2024-10-01,清算の結了等,,,2021-04-16,1,,,,,ロープ,0
855,4010701043301,登記記録の閉鎖等,0,2024-10-09,2024-10-02,株式会社プリマ,,株式会社,東京都,品川区,西五反田２丁目１４番９号,,13,109,1410031,,,2024-10-02,清算の結了等,,,2022-10-11,1,,,,,プリマ,0
863,4011003017646,登記記録の閉鎖等,0,2024-10-09,2024-09-17,合同会社ＸＴｅｃｈ,,合同会社,東京都,渋谷区,道玄坂１丁目１６－６二葉ビル８ｂ,,13,113,1500043,,,2024-09-17,清算の結了等,,,2023-10-12,1,,,,,エクステック,0
873,4011601012387,登記記録の閉鎖等,0,2024-10-09,2024-10-04,株式会社マエキフーズ,,株式会社,東京都,練馬区,豊玉南３丁目２７番１８－２１２号,,13,120,1760014,,,2024-10-04,清算の結了等,,,2015-10-05,1,,,,,マエキフーズ,0
881,4011702012154,登記記録の閉鎖等,0,2024-10-09,2024-10-01,有限会社ユープランニング,,有限会社,東京都,江戸川区,清新町１丁目４番２－１１０２号,,13,123,1340087,,,2024-10-01,清算の結了等,,,2015-10-05,1,,,,,ユープランニング,0
899,4020002075373,登記記録の閉鎖等,0,2024-10-09,2024-10-01,有限会社シー・ライフ,,有限会社,熊本県,合志市,須屋１４８７番地５,,43,216,8611102,,,2024-10-01,清算の結了等,,,2015-10-05,1,,,,,シーライフ,0
918,4030003019725,登記記録の閉鎖等,0,2024-10-09,2024-09-20,ＴＹＳリース合同会社,,合同会社,埼玉県,幸手市,北２丁目１４番４号,,11,240,3400111,,,2024-09-20,清算の結了等,,,2022-07-07,1,,,,,ティーワイエスリース,0
939,4080001003651,登記記録の閉鎖等,0,2024-10-09,2024-10-01,東亜工業株式会社,,株式会社,静岡県,静岡市葵区,山崎２丁目９番地の１１,,22,101,4211213,,,2024-10-01,合併による解散等,8080001006097,令和６年１０月１日静岡市駿河区桃園町１７番地の１渡辺建設株式会社（8080001006097）に合併し解散,2015-10-05,1,,,,,トウアコウギョウ,0
948,4080401004902,登記記録の閉鎖等,0,2024-10-09,2024-09-27,本町協同開発株式会社,,株式会社,静岡県,浜松市中央区,卸本町３７番地,,22,138,4328055,,,2024-09-27,清算の結了等,,,2015-10-05,1,,,,,,0
955,4100002033744,登記記録の閉鎖等,0,2024-10-09,2024-10-01,エムテイクリーンサービス有限会社,,有限会社,長野県,上伊那郡宮田村,４６５０番地,,20,388,3994301,,,2024-10-01,清算の結了等,,,2015-10-05,1,,,,,エムテイクリーンサービス,0
966,4120001210103,登記記録の閉鎖等,0,2024-10-09,2024-10-01,株式会社Ｍオフィス,,株式会社,大阪府,大阪市中央区,谷町３丁目１番２５－１４０２号,,27,128,5400012,,,2024-10-01,合併による解散等,6120001014618,令和６年１０月１日大阪市中央区谷町三丁目１番２５－１４０２号株式会社Ｍ．Ｍ（6120001014618）に合併し解散,2017-12-13,1,,,,,エムオフィス,0
992,4120905005152,登記記録の閉鎖等,0,2024-10-09,2024-10-07,一般社団法人さざれいしジャパン,,その他の設立登記法人,大阪府,大阪市淀川区,西中島６丁目７番３号第６新大阪ビル,,27,123,5320011,,,2024-10-07,清算の結了等,,,2015-10-05,1,,,,,サザレイシジャパン,0
1030,4180002016221,登記記録の閉鎖等,0,2024-10-09,2024-09-26,有限会社代官,,有限会社,愛知県,名古屋市東区,代官町１９番１４号,,23,102,4610002,,,2024-09-26,清算の結了等,,,2015-10-05,1,,,,,ダイカン,0
1037,4190002011691,登記記録の閉鎖等,0,2024-10-09,2024-10-04,有限会社丸中鮮魚,,有限会社,三重県,志摩市,阿児町神明２７７番地,,24,215,5170502,,,2024-10-04,清算の結了等,,,2015-10-05,1,,,,,マルナカセンギョ,0
1039,4190002022516,登記記録の閉鎖等,0,2024-10-09,2024-10-04,有限会社山下ブロツク工業,,有限会社,三重県,三重郡川越町,大字当新田８１５番地,,24,344,5108111,,,2024-10-04,清算の結了等,,,2015-10-05,1,,,,,ヤマシタブロックコウギョウ,0
1044,4210005006653,登記記録の閉鎖等,0,2024-10-09,2024-10-04,特定非営利活動法人ウェットランド中池見,,その他の設立登記法人,福井県,敦賀市,白銀町１３番３７号,,18,202,9140054,,,2024-10-04,清算の結了等,,,2015-10-05,1,,,,,ウェットランドナカイケミ,0
1047,4220003002843,登記記録の閉鎖等,0,2024-10-09,2024-10-02,グラティアスライフ合同会社,,合同会社,京都府,京都市上京区,塔之段通今出川上る四丁目西入毘沙門町４５９番地１サピエンスコート御所北３００号室,,26,102,6020000,,,2024-10-02,清算の結了等,,,2020-07-13,1,,,,,グラティアスライフ,0
1048,4240002007841,登記記録の閉鎖等,0,2024-10-09,2024-10-01,有限会社しみぬきおちあい,,有限会社,広島県,広島市南区,翠３丁目９番３号,00000782,34,103,7340005,,,2024-10-01,清算の結了等,,,2015-10-05,1,,,,,シミヌキオチアイ,0
1055,4250002019002,登記記録の閉鎖等,0,2024-10-09,2024-09-30,有限会社平井印刷,,有限会社,山口県,岩国市,由宇町中央２丁目１２番７号,,35,208,7401428,,,2024-09-30,清算の結了等,,,2015-10-05,1,,,,,ヒライインサツ,0
1057,4250002020843,登記記録の閉鎖等,0,2024-10-09,2024-10-03,有限会社岩本工務店,,有限会社,山口県,山陽小野田市,大字小野田４４１８番地,,35,216,7560817,,,2024-10-03,清算の結了等,,,2024-08-26,1,,,,,イワモトコウムテン,0
1067,4290003013529,登記記録の閉鎖等,0,2024-10-09,2024-08-29,Ｓｉｇｎｅｄ　Ｌｏｏｐ合同会社,,合同会社,福岡県,福岡市博多区,博多駅中央街１－１アミュプラザ博多地下１階Ｑ,,40,132,8120012,,,2024-08-29,清算の結了等,,,2023-02-15,1,,,,,サインドループ,0
1073,4290005016141,登記記録の閉鎖等,0,2024-10-09,2024-08-30,医療法人中島医院,,その他の設立登記法人,福岡県,八女市,黒木町本分７５７番地３,,40,210,8341213,,,2024-08-30,清算の結了等,,,2016-11-24,1,,,,,ナカシマイイン,0
1074,4290801020115,登記記録の閉鎖等,0,2024-10-09,2024-09-26,株式会社友伸,,株式会社,福岡県,北九州市八幡東区,羽衣町１番２２号,,40,108,8050042,,,2024-09-26,清算の結了等,,,2015-10-05,1,,,,,,0
1077,4300003001267,登記記録の閉鎖等,0,2024-10-09,2024-10-02,合同会社セブンスパワー,,合同会社,佐賀県,三養基郡みやき町,大字簑原１６４０－１１,,41,346,8490102,,,2024-10-02,清算の結了等,,,2017-03-08,1,,,,,セブンスパワー,0
1084,4350002009265,登記記録の閉鎖等,0,2024-10-09,2024-10-03,有限会社小野時計店,,有限会社,宮崎県,西都市,妻町１丁目４１番地,,45,208,8810034,,,2024-10-03,清算の結了等,,,2015-10-05,1,,,,,オノトケイテン,0
1085,4350002017276,登記記録の閉鎖等,0,2024-10-09,2024-10-03,有限会社安誠水産,,有限会社,宮崎県,日南市,南郷町中村乙６１７４番地１,,45,204,8893204,,,2024-10-03,清算の結了等,,,2015-10-05,1,,,,,アンセイスイサン,0
1091,4370002015014,登記記録の閉鎖等,0,2024-10-09,2024-09-24,有限会社美容伊澤,,有限会社,宮城県,仙台市若林区,今泉１丁目２番１２号,,04,103,9840835,,,2024-09-24,清算の結了等,,,2015-10-05,1,,,,,ビヨウイザワ,0
1098,4400003001083,登記記録の閉鎖等,0,2024-10-09,2024-09-27,合同会社なでしこ,,合同会社,岩手県,紫波郡矢巾町,大字南矢幅第８地割１１１番地６,,03,322,0283615,,,2024-09-27,清算の結了等,,,2015-10-05,1,,,,,ナデシコ,0
1100,4420002005521,登記記録の閉鎖等,0,2024-10-09,2024-10-02,有限会社高繁不動産,,有限会社,青森県,青森市,大字合子沢字山崎１８番地２,,02,201,0300134,,,2024-10-02,合併による解散等,6420001010660,令和６年１０月１日青森県弘前市大字大開二丁目９番株式会社おおびらき温泉（6420001010660）に合併し解散,2015-10-05,1,,,,,タカシゲフドウサン,0
1101,4420002014992,登記記録の閉鎖等,0,2024-10-09,2024-10-02,有限会社オプティックカトウ,,有限会社,青森県,弘前市,大字田町５丁目６番地７,,02,202,0368054,,,2024-10-02,清算の結了等,,,2015-10-05,1,,,,,オプティックカトウ,0
1103,4430001012947,登記記録の閉鎖等,0,2024-10-09,2024-10-01,株式会社ニューベーシック,,株式会社,北海道,札幌市豊平区,豊平三条４丁目２番１９号,,01,105,0620903,,,2024-10-01,合併による解散等,8430001030490,令和６年１０月１日札幌市豊平区月寒東二条十九丁目９番１０号マルコウサービス株式会社（8430001030490）に合併し解散,2015-10-05,1,,,,,ニューベーシック,0
1114,4460301004022,登記記録の閉鎖等,0,2024-10-09,2024-10-07,創誠鋼業株式会社,,株式会社,北海道,北見市,柏木２１４番地６,,01,208,0990877,,,2024-10-07,清算の結了等,,,2015-10-05,1,,,,,ソウセイコウギョウ,0
1115,4460302004161,登記記録の閉鎖等,0,2024-10-09,2024-10-01,有限会社網走ロイヤルホテル,,有限会社,北海道,網走市,北六条西７丁目２番地,,01,211,0930076,,,2024-10-01,合併による解散等,2460301003604,令和６年１０月１日北海道網走市潮見一丁目３５６番地２株式会社オピス（2460301003604）に合併し解散,2015-10-05,1,,,,,アバシリロイヤルホテル,0
1116,4470002007629,登記記録の閉鎖等,0,2024-10-09,2024-10-04,有限会社ワタナベ塗装工業,,有限会社,香川県,高松市,新田町甲２４５６番地１,,37,201,7610102,,,2024-10-04,清算の結了等,,,2015-10-05,1,,,,,ワタナベトソウコウギョウ,0
1119,4480001011498,登記記録の閉鎖等,0,2024-10-09,2024-10-02,株式会社橘湾白扇ターミナル,,株式会社,徳島県,阿南市,黒津地町中地２２番地５,,36,204,7740006,,,2024-10-02,合併による解散等,3480002012802,令和６年１０月１日徳島県阿南市橘町塩田３番地７株式会社白扇ターミナル（3480002012802）に合併し解散,2021-09-17,1,,,,,タチバナワンハクセンタヘミナル,0
1146,5010103001609,登記記録の閉鎖等,0,2024-10-09,2024-10-07,合同会社クラフタス,,合同会社,東京都,八王子市,寺町７番地１八王子ＡＢＳビル３０１号,,13,201,1920073,,,2024-10-07,清算の結了等,,,2020-11-11,1,,,,,クラフタス,0
1147,5010401091541,登記記録の閉鎖等,0,2024-10-09,2024-10-04,株式会社ネクストヴィジョン,,株式会社,東京都,港区,芝大門１丁目１番３０号芝ＮＢＦタワー３階,,13,103,1050012,,,2024-10-04,合併による解散等,9010701006063,令和６年１０月１日東京都品川区小山台一丁目２０番２０号株式会社都築ソフトウエア（9010701006063）に合併し解散,2015-10-05,1,,,,,ネクストヴィジョン,0
1148,5010401141453,登記記録の閉鎖等,0,2024-10-09,2024-09-26,株式会社ＨＦ商会,,株式会社,東京都,中央区,新川２丁目１８番４号八重洲マンション４０１,,13,102,1040033,,,2024-09-26,清算の結了等,,,2018-10-17,1,,,,,エイチエフショウカイ,0
1170,5011001069060,登記記録の閉鎖等,0,2024-10-09,2024-10-01,しのはらＡ＆Ｍ株式会社,,株式会社,東京都,杉並区,和泉１丁目１２番１４号,,13,115,1680063,,,2024-10-01,清算の結了等,,,2015-10-05,1,,,,,シノハラエーアンドエム,0
1175,5011001146438,登記記録の閉鎖等,0,2024-10-09,2024-09-26,ＴＡＭＯＮ株式会社,,株式会社,東京都,立川市,幸町３丁目１２番地の７,,13,202,1900002,,,2024-09-26,清算の結了等,,,2022-03-22,1,,,,,タモン,0
1198,5012701012301,登記記録の閉鎖等,0,2024-10-09,2024-10-01,株式会社ミカド,,株式会社,東京都,東村山市,本町４丁目９番地,,13,213,1890014,,,2024-10-01,清算の結了等,,,2015-10-05,1,,,,,ミカド,0
1207,5020001130987,登記記録の閉鎖等,0,2024-10-09,2024-10-01,シバ株式会社,,株式会社,兵庫県,芦屋市,大桝町４番２０－１号,,28,206,6590066,,,2024-10-01,合併による解散等,3020001137010,令和６年１０月１日兵庫県芦屋市大桝町４番２０－１号ラーマ株式会社（3020001137010）に合併し解散,2019-05-09,1,,,,,シバ,0
1210,5021001004603,登記記録の閉鎖等,0,2024-10-09,2024-10-07,グリーンダック株式会社,,株式会社,神奈川県,藤沢市,辻堂３丁目１０番１９号,,14,205,2510047,,,2024-10-07,清算の結了等,,,2015-10-05,1,,,,,グリーンダック,0
1245,5040002041026,登記記録の閉鎖等,0,2024-10-09,2024-09-30,有限会社ジャンジャン,,有限会社,千葉県,浦安市,富士見４丁目７番２０号,,12,227,2790043,,,2024-09-30,清算の結了等,,,2015-10-05,1,,,,,ジャンジャン,0
1261,5080101011529,登記記録の閉鎖等,0,2024-10-09,2024-10-04,株式会社スーパーよどばし,,株式会社,静岡県,富士宮市,三園平４５７番地の２,,22,207,4180004,,,2024-10-04,合併による解散等,8080001008985,令和６年１０月１日静岡市清水区折戸一丁目６番１０号株式会社ヒバリヤ（8080001008985）に合併し解散,2015-10-05,1,,,,,スーパーヨドバシ,0
1269,5120001174009,登記記録の閉鎖等,0,2024-10-09,2024-10-01,アムス・セキュリティサービス株式会社,,株式会社,大阪府,大阪市西淀川区,野里１丁目１番７号,,27,113,5550024,,,2024-10-01,合併による解散等,8120001039200,令和６年１０月１日大阪市浪速区桜川一丁目７番１８号東洋テック株式会社（8120001039200）に合併し解散,2015-10-05,1,,,,,アムスセキュリティサービス,0
1279,5120005019960,登記記録の閉鎖等,0,2024-10-09,2024-10-08,一般社団法人ＮｅｘｔＢｅｎｅｆｉｔ,,その他の設立登記法人,大阪府,大阪市浪速区,湊町２丁目１番７号,,27,111,5560017,,,2024-10-08,清算の結了等,,,2018-01-25,1,,,,,ネクストベネフィット,0
1298,5140001095252,登記記録の閉鎖等,0,2024-10-09,2024-10-03,株式会社和屋,,株式会社,兵庫県,神戸市西区,中野２丁目１７番地の４,,28,111,6512136,,,2024-10-03,清算の結了等,,,2015-10-05,1,,,,,,0
1302,5140002064801,登記記録の閉鎖等,0,2024-10-09,2024-10-04,有限会社プラザ薬局,,有限会社,兵庫県,川西市,多田桜木１丁目８番６号,,28,217,6660124,,,2024-10-04,清算の結了等,,,2015-10-05,1,,,,,プラザヤッキョク,0
1305,5140005021980,登記記録の閉鎖等,0,2024-10-09,2024-10-08,特定非営利活動法人不登校のための学校カウンセリングセンター,,その他の設立登記法人,兵庫県,丹波篠山市,矢代６３９番地,,28,221,6692356,,,2024-10-08,清算の結了等,,,2015-10-05,1,,,,,フトウコウノタメノガッコウカウンセリングセンター,0
1308,5170001012007,登記記録の閉鎖等,0,2024-10-09,2024-10-07,関西宝樹運輸株式会社,,株式会社,大阪府,富田林市,旭ケ丘町１番２６号,,27,214,5840006,,,2024-10-07,合併による解散等,5170001005308,令和６年１０月１日和歌山市直川１６０番地２０宝樹運輸株式会社（5170001005308）に合併し解散,2015-10-05,1,,,,,カンサイホウジュウンユ,0
1313,5180301012028,登記記録の閉鎖等,0,2024-10-09,2024-10-07,株式会社ノザキ工業,,株式会社,愛知県,豊川市,牛久保町岸組８１番地３,,23,207,4420826,,,2024-10-07,清算の結了等,,,2015-10-05,1,,,,,ノザキコウギョウ,0
1320,5210001008660,登記記録の閉鎖等,0,2024-10-09,2024-10-03,株式会社嶺北商事,,株式会社,福井県,あわら市,春宮３丁目１１番２号,,18,208,9190632,,,2024-10-03,清算の結了等,,,2015-10-05,1,,,,,レイホクショウジ,0
1327,5260001018408,登記記録の閉鎖等,0,2024-10-09,2024-10-01,多賀建設株式会社,,株式会社,岡山県,井原市,岩倉町３６９１番地１,,33,207,7150016,,,2024-10-01,合併による解散等,2260001018237,令和６年１０月１日岡山県井原市西江原町１９３１番地株式会社志多木組（2260001018237）に合併し解散,2015-10-05,1,,,,,タガケンセツ,0
1328,5270002004728,登記記録の閉鎖等,0,2024-10-09,2024-10-08,有限会社山根材木店,,有限会社,鳥取県,八頭郡智頭町,大字智頭１５０５番地２１,,31,328,6891402,,,2024-10-08,清算の結了等,,,2015-10-05,1,,,,,,0
1339,5330001008616,登記記録の閉鎖等,0,2024-10-09,2024-10-01,株式会社ヒロイン,,株式会社,熊本県,熊本市南区,出仲間８丁目５番３０号,,43,104,8620963,,,2024-10-01,合併による解散等,2330001000419,令和６年１０月１日熊本市南区出仲間八丁目５番３０号株式会社ウィナーズ（2330001000419）に合併し解散,2015-10-05,1,,,,,ヒロイン,0
1355,5380002020160,登記記録の閉鎖等,0,2024-10-09,2024-09-26,有限会社ビックウェイ,,有限会社,福島県,須賀川市,丸田町１２６番地,,07,207,9620022,,,2024-09-26,清算の結了等,,,2015-10-05,1,,,,,ビックウェイ,0
1358,5410001008789,登記記録の閉鎖等,0,2024-10-09,2024-10-02,株式会社羽後交通観光,,株式会社,秋田県,横手市,前郷二番町７番３１号,,05,203,0130037,,,2024-10-02,清算の結了等,,,2015-10-05,1,,,,,ウゴコウツウカンコウ,0
1367,5430003005799,登記記録の閉鎖等,0,2024-10-09,2024-10-08,合同会社花かんざし,,合同会社,北海道,石狩郡当別町,太美スターライト１５０９番地１２１,,01,303,0613779,,,2024-10-08,清算の結了等,,,2015-10-05,1,,,,,,0
1371,5460302004549,登記記録の閉鎖等,0,2024-10-09,2024-10-01,株式会社マルイ水産,,株式会社,北海道,網走市,大曲１丁目１４番１９号,,01,211,0930045,,,2024-10-01,合併による解散等,8460301003193,令和６年１０月１日北海道網走市大曲一丁目１４番１９号道東観光開発株式会社（8460301003193）に合併し解散,2015-10-05,1,,,,,,0
1374,5470001006671,登記記録の閉鎖等,0,2024-10-09,2024-10-02,株式会社松月水産,,株式会社,香川県,高松市,亀水町４２５番地１７,,37,201,7618001,,,2024-10-02,清算の結了等,,,2015-10-05,1,,,,,ショウゲツスイサン,0
1377,5470002007099,登記記録の閉鎖等,0,2024-10-09,2024-10-04,八幡鋼業有限会社,,有限会社,香川県,高松市,十川東町１５６０番地３,,37,201,7610434,,,2024-10-04,清算の結了等,,,2015-10-05,1,,,,,ヤハタコウギョウ,0
1400,6010401155907,登記記録の閉鎖等,0,2024-10-09,2024-09-30,株式会社Ｒｅ＆Ｃｏ．,,株式会社,東京都,新宿区,西新宿３丁目３－１３西新宿水間ビル６Ｆ,,13,104,1600023,,,2024-09-30,清算の結了等,,,2020-10-19,1,,,,,リアンド,0
1415,6010601012791,登記記録の閉鎖等,0,2024-10-09,2024-10-03,株式会社高崎屋田中英太郎商店,,株式会社,東京都,墨田区,両国２丁目１１番４号,,13,107,1300026,,,2024-10-03,清算の結了等,,,2015-10-05,1,,,,,タカサキヤタナカエイタロウショウテン,0
1419,6010701022492,登記記録の閉鎖等,0,2024-10-09,2024-10-04,株式会社Ｃ＆Ｃ,,株式会社,東京都,渋谷区,渋谷１丁目１５番１６号,,13,113,1500002,,,2024-10-04,清算の結了等,,,2015-10-05,1,,,,,,0
1441,6011102030291,登記記録の閉鎖等,0,2024-10-09,2024-09-30,有限会社三三商会,,有限会社,東京都,新宿区,南元町９番地９－５０１号,,13,104,1600012,,,2024-09-30,清算の結了等,,,2015-10-05,1,,,,,サンサンショウカイ,0
1446,6011502008689,登記記録の閉鎖等,0,2024-10-09,2024-09-30,有限会社佐々木官業,,有限会社,東京都,荒川区,西尾久５丁目１番１９号,,13,118,1160011,,,2024-09-30,清算の結了等,,,2015-10-05,1,,,,,,0
1449,6011702016649,登記記録の閉鎖等,0,2024-10-09,2024-10-02,株式会社坂本畳店,,株式会社,東京都,江戸川区,平井５丁目１０番１１号,,13,123,1320035,,,2024-10-02,清算の結了等,,,2015-10-05,1,,,,,サカモトタタミテン,0
1470,6021001032982,登記記録の閉鎖等,0,2024-10-09,2024-10-04,株式会社日曹分析センター,,株式会社,神奈川県,小田原市,高田３４５番地,,14,206,2500216,,,2024-10-04,合併による解散等,1010001008833,令和６年１０月１日東京都千代田区丸の内二丁目７番２号日本曹達株式会社（1010001008833）に合併し解散,2015-10-05,1,,,,,,0
1476,6030001072377,登記記録の閉鎖等,0,2024-10-09,2024-10-01,ＫＥカンパニー株式会社,,株式会社,埼玉県,熊谷市,佐谷田３２４８番地,,11,202,3600023,,,2024-10-01,合併による解散等,5030001012152,令和６年１０月１日さいたま市見沼区大字上山口新田３０番地４ケータリングサービス株式会社（5030001012152）に合併し解散,2015-10-05,1,,,,,ケーイーカンパニー,0
1484,6030002097902,登記記録の閉鎖等,0,2024-10-09,2024-10-01,有限会社根岸工業,,有限会社,埼玉県,比企郡ときがわ町,大字玉川４８６７番地,,11,349,3550342,,,2024-10-01,清算の結了等,,,2015-10-05,1,,,,,ネギシコウギョウ,0
1485,6030002113592,登記記録の閉鎖等,0,2024-10-09,2024-10-02,有限会社関根薬局,,有限会社,埼玉県,熊谷市,東別府６１９番地,,11,202,3600852,,,2024-10-02,清算の結了等,,,2015-10-05,1,,,,,セキネヤッキョク,0
1503,6050001011416,登記記録の閉鎖等,0,2024-10-09,2024-10-01,石岡酒造株式会社,,株式会社,茨城県,石岡市,府中２丁目２番３５号,,08,205,3150013,,,2024-10-01,清算の結了等,,,2015-10-05,1,,,,,イシオカシュゾウ,0
1521,6080002011107,登記記録の閉鎖等,0,2024-10-09,2024-09-30,有限会社扶洋エスティ・ジュネス,,有限会社,静岡県,静岡市清水区,辻５丁目１番３４号,00067516,22,103,4240806,,,2024-09-30,清算の結了等,,,2015-10-05,1,,,,,フヨウエスティジュネス,0
1537,6110002026877,登記記録の閉鎖等,0,2024-10-09,2024-10-01,有限会社岩間製作所,,有限会社,新潟県,長岡市,宝１丁目３番地３４,,15,202,9400016,,,2024-10-01,清算の結了等,,,2015-10-05,1,,,,,イワマセイサクショ,0
1539,6120001108873,登記記録の閉鎖等,0,2024-10-09,2024-10-01,アムス・シークレットサービス株式会社,,株式会社,大阪府,大阪市西淀川区,野里１丁目１番７号,,27,113,5550024,,,2024-10-01,合併による解散等,8120001039200,令和６年１０月１日大阪市浪速区桜川一丁目７番１８号東洋テック株式会社（8120001039200）に合併し解散,2015-10-05,1,,,,,アムスシークレットサービス,0
1550,6120002036751,登記記録の閉鎖等,0,2024-10-09,2024-10-07,有限会社泰平金属工業,,有限会社,大阪府,大阪市中央区,農人橋２丁目１番２４－４０４号,,27,128,5400011,,,2024-10-07,清算の結了等,,,2015-10-05,1,,,,,タイヘイキンゾクコウギョウ,0
1563,6120902018386,登記記録の閉鎖等,0,2024-10-09,2024-10-02,有限会社コンパ大林,,有限会社,大阪府,豊中市,蛍池西町二丁目８番１２号,,27,203,5600000,,,2024-10-02,清算の結了等,,,2015-10-05,1,,,,,コンパオオバヤシ,0
1581,6140002057903,登記記録の閉鎖等,0,2024-10-09,2024-10-04,有限会社松久貿易,,有限会社,兵庫県,西宮市,南越木岩町１番３３号,,28,204,6620075,,,2024-10-04,清算の結了等,,,2015-10-05,1,,,,,マツヒサボウエキ,0
1591,6180005018808,登記記録の閉鎖等,0,2024-10-09,2024-09-30,一般社団法人クローバーの会,,その他の設立登記法人,愛知県,名古屋市名東区,上社２丁目２１０番地,,23,115,4650025,,,2024-09-30,清算の結了等,,,2020-05-28,1,,,,,クローバーノカイ,0
1592,6180005020664,登記記録の閉鎖等,0,2024-10-09,2024-10-04,税理士法人せいわ,,その他の設立登記法人,愛知県,名古屋市中区,丸の内２丁目１２番１３号,,23,106,4600002,,,2024-10-04,清算の結了等,,,2024-06-19,1,,,,,セイワ,0
1593,6180301003554,登記記録の閉鎖等,0,2024-10-09,2024-10-07,ＴＦＭ株式会社,,株式会社,愛知県,安城市,今本町３丁目６番６号,,23,212,4460008,,,2024-10-07,清算の結了等,,,2015-10-05,1,,,,,,0
1608,6250001007947,登記記録の閉鎖等,0,2024-10-09,2024-10-04,株式会社ダイヤモンド企画,,株式会社,山口県,下関市,大字石原２５３番地５,,35,201,7510886,,,2024-10-04,清算の結了等,,,2015-10-05,1,,,,,ダイヤモンドキカク,0
1612,6280001003217,登記記録の閉鎖等,0,2024-10-09,2024-10-07,新日本設備工業株式会社,,株式会社,島根県,出雲市,知井宮町１３８番地３,,32,203,6930033,,,2024-10-07,清算の結了等,,,2015-10-05,1,,,,,シンニホンセツビコウギョウ,0
1625,6310001017618,登記記録の閉鎖等,0,2024-10-09,2024-10-01,株式会社ＤＸコネクト長崎,,株式会社,長崎県,諫早市,幸町３２番８号,,42,204,8540022,,,2024-10-01,合併による解散等,7310002014852,令和６年１０月１日長崎県諫早市幸町３２番８号株式会社ネクスト・プラス（7310002014852）に合併し解散,2021-12-02,1,,,,,ディーエックスコネクトナガサキ,0
1626,6320001019852,登記記録の閉鎖等,0,2024-10-09,2024-10-04,株式会社パワーバンクネクスト大分,,株式会社,大分県,国東市,国東町重藤２０１１番地,,44,214,8730514,,,2024-10-04,清算の結了等,,,2023-06-26,1,,,,,パワーバンクネクストオオイタ,0
1627,6330001028051,登記記録の閉鎖等,0,2024-10-09,2024-10-01,日装ビルド株式会社,,株式会社,熊本県,熊本市中央区,水前寺４丁目１９番２６号,,43,101,8620950,,,2024-10-01,合併による解散等,4330001003469,令和６年１０月１日熊本市中央区水前寺四丁目１９番２６号ヤマエＢＵＩＬＤ株式会社（4330001003469）に合併し解散,2020-12-02,1,,,,,ニッソウビルド,0
1645,6410001007138,登記記録の閉鎖等,0,2024-10-09,2024-10-04,株式会社大勝堂印刷,,株式会社,秋田県,能代市,日吉町２番１６号,,05,202,0160811,,,2024-10-04,清算の結了等,,,2015-10-05,1,,,,,タイショウドウインサツ,0
1648,6420002000438,登記記録の閉鎖等,0,2024-10-09,2024-10-01,有限会社イオス,,有限会社,青森県,青森市,浪打２丁目１０番１５号,,02,201,0300961,,,2024-10-01,合併による解散等,7420002000718,令和６年１０月１日青森市柳川二丁目４番１９号株式会社沖舘薬局（7420002000718）に合併し解散,2015-10-05,1,,,,,イオス,0
1650,6430001072106,登記記録の閉鎖等,0,2024-10-09,2024-10-07,株式会社エクセルコミュニケーションズ,,株式会社,北海道,登別市,富岸町２丁目１２番地２,,01,230,0590028,,,2024-10-07,清算の結了等,,,2016-08-03,1,,,,,エクセルコミュニケーションズ,0
1657,6460402000050,登記記録の閉鎖等,0,2024-10-09,2024-10-07,有限会社恵洋漁業部,,有限会社,北海道,根室市,落石西３１番地１,,01,223,0881781,,,2024-10-07,清算の結了等,,,2015-10-05,1,,,,,エイヨウギョギョウブ,0
1658,6462502000962,登記記録の閉鎖等,0,2024-10-09,2024-10-07,有限会社保険マート,,有限会社,北海道,標津郡中標津町,東十九条南８丁目５番地,,01,692,0861019,,,2024-10-07,清算の結了等,,,2015-10-05,1,,,,,ホケンマート,0
1661,6490001006017,登記記録の閉鎖等,0,2024-10-09,2024-10-08,東亜コンサルティング株式会社,,株式会社,高知県,須崎市,多ノ郷甲９０６番地３６,,39,206,7850030,,,2024-10-08,清算の結了等,,,2015-10-05,1,,,,,トウアコンサルティング,0
1678,7010001127990,登記記録の閉鎖等,0,2024-10-09,2024-09-26,株式会社神田あじぐらなまこ屋,,株式会社,東京都,千代田区,内神田３丁目５番５号,,13,101,1010047,,,2024-09-26,清算の結了等,,,2015-10-05,1,,,,,カンダアジグラナマコヤ,0
1686,7010002014222,登記記録の閉鎖等,0,2024-10-09,2024-09-26,有限会社フレグランスジャーナル社,,有限会社,東京都,千代田区,飯田橋３丁目１１番１９号ウメビル３Ｆ,,13,101,1020072,,,2024-09-26,清算の結了等,,,2015-10-05,1,,,,,フレグランスジャーナルシャ,0
1698,7010102004354,登記記録の閉鎖等,0,2024-10-09,2024-10-03,有限会社タツミ土木,,有限会社,東京都,八王子市,丹木町２丁目２０４番地の２,,13,201,1920003,,,2024-10-03,清算の結了等,,,2015-10-05,1,,,,,タツミドボク,0
1699,7010401008989,登記記録の閉鎖等,0,2024-10-09,2024-09-12,株式会社都市空間研究室,,株式会社,東京都,港区,元赤坂１丁目４番２号知性ビル,,13,103,1070051,,,2024-09-12,清算の結了等,,,2015-10-05,1,,,,,トシクウカンケンキュウシツ,0
1706,7010401126808,登記記録の閉鎖等,0,2024-10-09,2024-10-04,株式会社ＭＹＳＥＬＦ,,株式会社,東京都,目黒区,目黒本町２丁目１６－１４トダカ学芸大コーポ１０４,,13,110,1520002,,,2024-10-04,清算の結了等,,,2016-08-31,1,,,,,マイセルフ,0
1707,7010401172991,登記記録の閉鎖等,0,2024-10-09,2024-10-08,Ｐａｒａｓｏｌ株式会社,,株式会社,東京都,港区,虎ノ門１丁目１７－１虎ノ門ヒルズビジネスタワー１５Ｆ,,13,103,1050001,,,2024-10-08,清算の結了等,,,2023-03-09,1,,,,,パラソル,0
1716,7010501015134,登記記録の閉鎖等,0,2024-10-09,2024-09-27,デイスカウントファイブ株式会社,,株式会社,東京都,台東区,橋場１丁目３１番４号,,13,106,1110023,,,2024-09-27,清算の結了等,,,2015-10-05,1,,,,,ディスカウントファイブ,0
1727,7010702008993,登記記録の閉鎖等,0,2024-10-09,2024-10-01,有限会社渡辺サイクル商会,,有限会社,東京都,品川区,大井５丁目５番１７号,,13,109,1400014,,,2024-10-01,清算の結了等,,,2015-10-05,1,,,,,ワタナベサイクルショウカイ,0
1741,7011001124656,登記記録の閉鎖等,0,2024-10-09,2024-10-01,株式会社ＲＹＯ,,株式会社,広島県,広島市中区,中町１番１号,,34,101,7300037,,,2024-10-01,合併による解散等,1240001001690,令和６年１０月１日広島市中区中町１番１号株式会社ＡＩＣエデュケーション（1240001001690）に合併し解散,2018-10-10,1,,,,,リョウ,0
1758,7011301023194,登記記録の閉鎖等,0,2024-10-09,2024-10-03,株式会社ゼット,,株式会社,東京都,杉並区,荻窪１丁目２１番１５号,,13,115,1670051,,,2024-10-03,清算の結了等,,,2017-05-22,1,,,,,ゼット,0
1783,7020001015146,登記記録の閉鎖等,0,2024-10-09,2024-09-24,株式会社寿々喜家菓子舗,,株式会社,神奈川県,横浜市西区,平沼１丁目６番２０号,,14,103,2200023,,,2024-09-24,清算の結了等,,,2015-10-05,1,,,,,スズキヤカシホ,0
1802,7030002097281,登記記録の閉鎖等,0,2024-10-09,2024-10-02,有限会社梅田,,有限会社,埼玉県,比企郡小川町,大字小川７３４番地３,,11,343,3550321,,,2024-10-02,清算の結了等,,,2015-10-05,1,,,,,ウメダ,0
1809,7040002049546,登記記録の閉鎖等,0,2024-10-09,2024-10-01,有限会社吉元屋,00020251,有限会社,千葉県,松戸市,小金４４３番地,,12,207,2700014,,,2024-10-01,清算の結了等,,,2015-10-05,1,,,,,ヨシモトヤ,0
1832,7100001018966,登記記録の閉鎖等,0,2024-10-09,2024-09-30,オリエント交通商事株式会社,,株式会社,長野県,茅野市,玉川２５１１番地４,,20,214,3910011,,,2024-09-30,清算の結了等,,,2015-10-05,1,,,,,オリエントコウツウショウジ,0
1839,7120001173966,登記記録の閉鎖等,0,2024-10-09,2024-10-07,株式会社島津,,株式会社,大阪府,大阪市中央区,南船場４丁目１２番８号,,27,128,5420081,,,2024-10-07,清算の結了等,,,2015-10-05,1,,,,,シマヅ,0
1841,7120001209522,登記記録の閉鎖等,0,2024-10-09,2024-10-01,株式会社広,,株式会社,大阪府,東大阪市,東山町５番１０－２０２号,,27,227,5798027,,,2024-10-01,清算の結了等,,,2017-12-01,1,,,,,コウ,0
1851,7120002016950,登記記録の閉鎖等,0,2024-10-09,2024-10-07,有限会社丸宗石油,,有限会社,大阪府,大阪市住之江区,北加賀屋５丁目８番６号,,27,125,5590011,,,2024-10-07,清算の結了等,,,2015-10-05,1,,,,,マルソウセキユ,0
1858,7120005020099,登記記録の閉鎖等,0,2024-10-09,2024-10-08,一般社団法人寛光照圓社,,その他の設立登記法人,大阪府,大阪市浪速区,湊町２丁目１番７号,,27,111,5560017,,,2024-10-08,清算の結了等,,,2018-03-28,1,,,,,カンコウショウエンシャ,0
1859,7120005020157,登記記録の閉鎖等,0,2024-10-09,2024-10-08,一般社団法人エナジージャパン,,その他の設立登記法人,大阪府,大阪市住吉区,帝塚山中３丁目３番５号,,27,120,5580053,,,2024-10-08,清算の結了等,,,2018-04-25,1,,,,,エナジージャパン,0
1871,7140001010011,登記記録の閉鎖等,0,2024-10-09,2024-09-30,日通兵庫物流株式会社,,株式会社,兵庫県,神戸市兵庫区,高松町２番３２号,,28,105,6520874,,,2024-09-30,清算の結了等,,,2015-10-05,1,,,,,ニッツウヒョウゴブツリュウ,0
1878,7140002042210,登記記録の閉鎖等,0,2024-10-09,2024-10-03,有限会社ハヤシダ製作所,,有限会社,兵庫県,尼崎市,田能６丁目７番３３号,,28,202,6610951,,,2024-10-03,合併による解散等,4140001055307,令和６年１０月１日兵庫県尼崎市田能六丁目７番３３号特殊鋼材株式会社（4140001055307）に合併し解散,2015-10-05,1,,,,,,0
1881,7160005007464,登記記録の閉鎖等,0,2024-10-09,2024-10-07,農事組合法人五十川農事改良組合,,その他の設立登記法人,滋賀県,高島市,新旭町饗庭５３７１番地,00045114,25,212,5201531,,,2024-10-07,清算の結了等,,,2015-10-05,1,,,,,イカガワノウジカイリョウクミアイ,0
1884,7180001159134,登記記録の閉鎖等,0,2024-10-09,2024-10-01,株式会社Ｒｉｃｈ　Ｐｌａｎ,,株式会社,愛知県,名古屋市中区,栄２丁目２－１広小路伏見中駒ビル６階６Ｅ,,23,106,4600008,,,2024-10-01,清算の結了等,,,2023-12-04,1,,,,,リッチプラン,0
1889,7180003024757,登記記録の閉鎖等,0,2024-10-09,2024-09-26,ワンホーム合同会社,,合同会社,愛知県,名古屋市中区,丸の内３丁目１０番２９号４階,,23,106,4600002,,,2024-09-26,清算の結了等,,,2023-01-26,1,,,,,ワンホーム,0
1894,7180302003718,登記記録の閉鎖等,0,2024-10-09,2024-10-07,有限会社ティ・エフコーポレーション,,有限会社,愛知県,安城市,今本町３丁目６番６号,,23,212,4460008,,,2024-10-07,清算の結了等,,,2015-10-05,1,,,,,,0
1908,7260002029773,登記記録の閉鎖等,0,2024-10-09,2024-10-02,有限会社遠藤建設,,有限会社,岡山県,久米郡美咲町,西川８０９番地,,33,666,7093404,,,2024-10-02,清算の結了等,,,2015-10-05,1,,,,,エンドウケンセツ,0
1919,7290005018440,登記記録の閉鎖等,0,2024-10-09,2024-09-27,一般社団法人ＩＫＫアカデミー,,その他の設立登記法人,福岡県,糟屋郡志免町,片峰３丁目６番５号,,40,343,8112245,,,2024-09-27,清算の結了等,,,2021-12-03,1,,,,,アイケイケイアカデミー,0
1933,7350002016746,登記記録の閉鎖等,0,2024-10-09,2024-10-04,有限会社南部総合管理社,,有限会社,宮崎県,日南市,吾田東１丁目７番３８号,,45,204,8870041,,,2024-10-04,清算の結了等,,,2015-10-05,1,,,,,ナンブソウゴウカンリシャ,0
1963,7440001006796,登記記録の閉鎖等,0,2024-10-09,2024-10-04,株式会社植村造船,,株式会社,北海道,茅部郡鹿部町,字宮浜２１２番地６,,01,343,0411403,,,2024-10-04,清算の結了等,,,2015-10-05,1,,,,,ウエムラゾウセン,0
1966,7460301003095,登記記録の閉鎖等,0,2024-10-09,2024-10-01,オホーツクバザール株式会社,,株式会社,北海道,網走市,大曲１丁目１４番１９号,,01,211,0930045,,,2024-10-01,合併による解散等,8460301003193,令和６年１０月１日北海道網走市大曲一丁目１４番１９号道東観光開発株式会社（8460301003193）に合併し解散,2015-10-05,1,,,,,オホーツクバザール,0
1968,7470005003374,登記記録の閉鎖等,0,2024-10-09,2024-10-04,企業組合堂山鉄工所,,その他の設立登記法人,香川県,坂出市,林田町３６２２番地,,37,203,7620012,,,2024-10-04,清算の結了等,,,2015-10-05,1,,,,,ドウヤマテッコウショ,0
1980,8010001003159,登記記録の閉鎖等,0,2024-10-09,2024-10-02,株式会社佐藤機械製作所,,株式会社,埼玉県,さいたま市岩槻区,古ケ場２丁目１番１４号,,11,110,3390072,,,2024-10-02,清算の結了等,,,2015-10-05,1,,,,,サトウキカイセイサクショ,0
2000,8010403012906,登記記録の閉鎖等,0,2024-10-09,2024-09-13,合同会社日本移動式水素ステーションサービス,,合同会社,東京都,港区,港南２丁目３番１３号,,13,103,1080075,,,2024-09-13,清算の結了等,,,2015-10-05,1,,,,,ニッポンイドウシキスイソステーションサービス,0
2012,8011001122717,登記記録の閉鎖等,0,2024-10-09,2024-10-04,株式会社大阪りんくうオペレーションズ,,株式会社,東京都,渋谷区,恵比寿４丁目１番１８号恵比寿ネオナート,,13,113,1500013,,,2024-10-04,合併による解散等,4011001122241,令和６年９月２４日東京都品川区西五反田一丁目２６番２号五反田サンハイツ９１１株式会社クレッセント（4011001122241）に合併し解散,2018-06-12,1,,,,,オオサカリンクウオペレーションズ,0
2013,8011001126057,登記記録の閉鎖等,0,2024-10-09,2024-09-30,株式会社装,,株式会社,東京都,新宿区,西新宿７丁目２２番３３号Ｐｏｌａｒ西新宿２階,,13,104,1600023,,,2024-09-30,清算の結了等,,,2019-01-15,1,,,,,ソウ,0
2014,8011001140966,登記記録の閉鎖等,0,2024-10-09,2024-10-02,株式会社ハングアウト,,株式会社,京都府,京都市下京区,麩屋町通松原下る上鱗形町５２０番地スエルテ木駒２０２,,26,106,6008058,,,2024-10-02,清算の結了等,,,2021-06-10,1,,,,,ハングアウト,0
2025,8011301000226,登記記録の閉鎖等,0,2024-10-09,2024-10-02,株式会社アジアエレクトリック,,株式会社,東京都,杉並区,松ノ木２丁目１番１８号,,13,115,1660014,,,2024-10-02,清算の結了等,,,2015-10-05,1,,,,,アジアエレクトリック,0
2043,8013402003322,登記記録の閉鎖等,0,2024-10-09,2024-10-07,有限会社大内製作所,,有限会社,東京都,稲城市,押立１０３３番地,,13,225,2060811,,,2024-10-07,清算の結了等,,,2015-10-05,1,,,,,オオウチセイサクショ,0
2045,8020001095204,登記記録の閉鎖等,0,2024-10-09,2024-09-24,株式会社ねっこ,,株式会社,神奈川県,横浜市港南区,日野６丁目２番６号,,14,111,2340051,,,2024-09-24,清算の結了等,,,2015-10-05,1,,,,,ネッコ,0
2047,8020002029326,登記記録の閉鎖等,0,2024-10-09,2024-09-24,有限会社小川自動車整備工場,,有限会社,神奈川県,横浜市南区,東蒔田町１４番地の６,,14,105,2320045,,,2024-09-24,清算の結了等,,,2015-10-05,1,,,,,オガワジドウシャセイビコウジョウ,0
2057,8021005012013,登記記録の閉鎖等,0,2024-10-09,2024-10-07,農事組合法人金手農事企画組合,,その他の設立登記法人,神奈川県,足柄上郡大井町,金手４１７番地２,,14,362,2580018,,,2024-10-07,清算の結了等,,,2020-09-17,1,,,,,カナデノウジキカククミアイ,0
2064,8030001102784,登記記録の閉鎖等,0,2024-10-09,2024-10-01,ＴＢＲパッケージ株式会社,,株式会社,埼玉県,幸手市,大字神明内４８番地３,,11,240,3400122,,,2024-10-01,合併による解散等,1012801003162,令和６年９月３０日埼玉県幸手市大字神明内４８番地３株式会社やませい（1012801003162）に合併し解散,2015-10-05,1,,,,,,0
2067,8030005020248,登記記録の閉鎖等,0,2024-10-09,2024-10-01,一般社団法人かわごえイヤーセンター,,その他の設立登記法人,埼玉県,川越市,脇田町１０３番２階Ａ,,11,201,3501122,,,2024-10-01,清算の結了等,,,2021-01-27,1,,,,,カワゴエイヤーセンター,0
2069,8040001057714,登記記録の閉鎖等,0,2024-10-09,2024-10-03,株式会社ＥＮＩＣＹ,,株式会社,東京都,中央区,日本橋富沢町１２番２０号日本橋Ｔ＆Ｄ・Ｂｌｄｇ．３階,,13,102,1030006,,,2024-10-03,合併による解散等,9120001077505,令和６年１０月１日大阪市中央区島之内一丁目２２番９号中山福株式会社（9120001077505）に合併し解散,2015-10-05,1,,,,,エニシー,0
2075,8040002051427,登記記録の閉鎖等,0,2024-10-09,2024-10-01,有限会社栗山工務店,,有限会社,千葉県,流山市,大字東深井８８３番地の３４,,12,220,2700101,,,2024-10-01,清算の結了等,,,2015-10-05,1,,,,,クリヤマコウムテン,0
2078,8040005016253,登記記録の閉鎖等,0,2024-10-09,2024-09-30,国際武道大学指定学生宿舎協同組合,,その他の設立登記法人,千葉県,勝浦市,新官１４３５番地３,,12,218,2995224,,,2024-09-30,清算の結了等,,,2015-10-05,1,,,,,コクサイブドウダイガクシテイガクセイシュクシャ,0
2103,8110001014773,登記記録の閉鎖等,0,2024-10-09,2024-10-01,株式会社やまがみ,,株式会社,新潟県,三条市,田島２丁目８番５号,,15,204,9550044,,,2024-10-01,清算の結了等,,,2015-10-05,1,,,,,ヤマガミ,0
2110,8120001116742,登記記録の閉鎖等,0,2024-10-09,2024-10-07,株式会社トータルナイスプロデュース,,株式会社,大阪府,大阪市淀川区,十三東２丁目５番９－３０６号,,27,123,5320023,,,2024-10-07,清算の結了等,,,2015-10-05,1,,,,,トータルナイスプロデュース,0
2120,8120101028292,登記記録の閉鎖等,0,2024-10-09,2024-10-01,株式会社理水社,,株式会社,大阪府,松原市,別所８丁目１０番２８号,,27,217,5800005,,,2024-10-01,清算の結了等,,,2015-10-05,1,,,,,リスイシャ,0
2125,8120901036585,登記記録の閉鎖等,0,2024-10-09,2024-09-30,株式会社エムエムティー,,株式会社,大阪府,高槻市,白梅町４番８－３９０３号,,27,207,5691116,,,2024-09-30,清算の結了等,,,2016-03-01,1,,,,,エムエムティー,0
2136,8130002024943,登記記録の閉鎖等,0,2024-10-09,2024-10-07,有限会社フジワラ,,有限会社,京都府,長岡京市,神足七ノ坪３２番地６,,26,209,6170833,,,2024-10-07,清算の結了等,,,2015-10-05,1,,,,,フジワラ,0
2144,8140002004622,登記記録の閉鎖等,0,2024-10-09,2024-10-04,有限会社新進明石,,有限会社,兵庫県,神戸市西区,平野町芝崎２８５番地の１,,28,111,6512254,,,2024-10-04,清算の結了等,,,2015-10-05,1,,,,,シンシンアカシ,0
2162,8180302014292,登記記録の閉鎖等,0,2024-10-09,2024-10-01,有限会社渡邊会計,00075029,有限会社,愛知県,豊川市,東曙町６番地,00075030,23,207,4420011,,,2024-10-01,清算の結了等,,,2015-10-05,1,,,,,ワタナベカイケイ,0
2163,8180302014680,登記記録の閉鎖等,0,2024-10-09,2024-10-07,株式会社三河テクノ,,株式会社,愛知県,みよし市,三好丘７丁目５番地６,,23,236,4700202,,,2024-10-07,清算の結了等,,,2015-10-05,1,,,,,ミカワテクノ,0
2169,8190003000062,登記記録の閉鎖等,0,2024-10-09,2024-10-03,合資会社重企建築事務所,,合資会社,三重県,津市,丸之内１７番５号ダイイチビル３０２号,,24,201,5140033,,,2024-10-03,清算の結了等,,,2015-10-05,1,,,,,ジュウキケンチクジムショ,0
2172,8220001016494,登記記録の閉鎖等,0,2024-10-09,2024-09-30,株式会社尾山自動車工場,,株式会社,石川県,輪島市,河井町６部８８番地の１６,,17,204,9280001,,,2024-09-30,清算の結了等,,,2015-10-05,1,,,,,オヤマジドウシャコウジョウ,0
2177,8230002009983,登記記録の閉鎖等,0,2024-10-09,2024-10-07,有限会社小矢部くみあい薬品,,有限会社,富山県,小矢部市,石動町１０番２８号,,16,209,9320053,,,2024-10-07,清算の結了等,,,2015-10-05,1,,,,,オヤベクミアイヤクヒン,0
2180,8240002004331,登記記録の閉鎖等,0,2024-10-09,2024-10-03,有限会社川村塗装,,有限会社,広島県,広島市安佐北区,落合南４丁目４５番１２号,,34,106,7391732,,,2024-10-03,清算の結了等,,,2015-10-05,1,,,,,カワムラトソウ,0
2184,8250001007978,登記記録の閉鎖等,0,2024-10-09,2024-10-04,ロードサービス山口株式会社,,株式会社,山口県,山口市,小郡上郷５１５６番地１,,35,203,7540001,,,2024-10-04,清算の結了等,,,2015-10-05,1,,,,,ロードサービスヤマグチ,0
2200,8290805008111,登記記録の閉鎖等,0,2024-10-09,2024-10-08,医療法人　ひらたクリニック,,その他の設立登記法人,福岡県,北九州市八幡東区,西本町３丁目６番１号八幡駅ビル１Ｆ,,40,108,8050061,,,2024-10-08,清算の結了等,,,2015-10-05,1,,,,,ヒラタクリニック,0
2202,8310001015768,登記記録の閉鎖等,0,2024-10-09,2024-10-01,アイラブホーム株式会社,,株式会社,長崎県,長崎市,岡町２番２２号,,42,201,8528115,,,2024-10-01,合併による解散等,3310001013099,令和６年９月３０日長崎市岡町２番２２号株式会社オーエス企画（3310001013099）に合併し解散,2018-10-03,1,,,,,アイラブホーム,0
2203,8310002003730,登記記録の閉鎖等,0,2024-10-09,2024-09-30,有限会社長崎サービスクリエーション,,有限会社,長崎県,長崎市,勝山町７番地,,42,201,8500028,,,2024-09-30,清算の結了等,,,2015-10-05,1,,,,,ナガサキサービスクリエーション,0
2208,8360002020795,登記記録の閉鎖等,0,2024-10-09,2024-10-03,有限会社丸長建設,,有限会社,沖縄県,国頭郡恩納村,字名嘉真２５６１番地の２,,47,311,9040401,,,2024-10-03,清算の結了等,,,2015-10-05,1,,,,,マルナガケンセツ,0
2216,8410002008488,登記記録の閉鎖等,0,2024-10-09,2024-10-02,有限会社佐々木電気商会,,有限会社,秋田県,大館市,字観音堂６０１番地,,05,204,0170042,,,2024-10-02,清算の結了等,,,2015-10-05,1,,,,,ササキデンキショウカイ,0
2217,8410002008777,登記記録の閉鎖等,0,2024-10-09,2024-10-04,有限会社ひまわり,,有限会社,秋田県,大館市,有浦２丁目３番３９号,,05,204,0170043,,,2024-10-04,清算の結了等,,,2015-10-05,1,,,,,ヒマワリ,0
2220,8420001005923,登記記録の閉鎖等,0,2024-10-09,2024-10-04,サンリツ株式会社,,株式会社,青森県,八戸市,売市２丁目１番３号,,02,203,0310073,,,2024-10-04,清算の結了等,,,2015-10-05,1,,,,,サンリツ,0
2229,8440002004278,登記記録の閉鎖等,0,2024-10-09,2024-10-02,有限会社松倉工業所,,有限会社,北海道,函館市,滝沢町１１番５号,,01,202,0420957,,,2024-10-02,清算の結了等,,,2015-10-05,1,,,,,マツクラコウギョウショ,0
2234,8460105000552,登記記録の閉鎖等,0,2024-10-09,2024-10-04,幕別地籍調査協同組合,,その他の設立登記法人,北海道,中川郡幕別町,旭町７２番地,,01,643,0890602,,,2024-10-04,清算の結了等,,,2015-10-05,1,,,,,マクベツチセキチョウサ,0
2235,8460301003152,登記記録の閉鎖等,0,2024-10-09,2024-10-01,株式会社三洋食品,,株式会社,北海道,網走市,大曲１丁目１４番１９号,,01,211,0930045,,,2024-10-01,合併による解散等,8460301003193,令和６年１０月１日北海道網走市大曲一丁目１４番１９号道東観光開発株式会社（8460301003193）に合併し解散,2015-10-05,1,,,,,サンヨウショクヒン,0
2242,8490002006245,登記記録の閉鎖等,0,2024-10-09,2024-10-03,三開建設有限会社,,有限会社,高知県,高知市,横内１４４番地９９,,39,201,7800964,,,2024-10-03,清算の結了等,,,2015-10-05,1,,,,,サンカイケンセツ,0
2245,8500001013942,登記記録の閉鎖等,0,2024-10-09,2024-10-03,ユーエスエスライン株式会社,,株式会社,愛媛県,新居浜市,郷３丁目６番１０号,,38,205,7920886,,,2024-10-03,合併による解散等,7140001059239,令和６年９月３０日兵庫県姫路市千代田町７３１番地の１ジーピーエム株式会社（7140001059239）に合併し解散,2015-10-05,1,,,,,ユーエスエスライン,0
2248,8500002012646,登記記録の閉鎖等,0,2024-10-09,2024-10-03,有限会社なのはな調剤薬局,,有限会社,愛媛県,大洲市,新谷町甲９６番地,,38,207,7950073,,,2024-10-03,清算の結了等,,,2015-10-05,1,,,,,ナノハナチョウザイヤッキョク,0
2257,9010001139456,登記記録の閉鎖等,0,2024-10-09,2024-10-01,アイムデザイン株式会社,,株式会社,埼玉県,ふじみ野市,亀久保１２２０番地３２,,11,245,3560051,,,2024-10-01,清算の結了等,,,2015-10-05,1,,,,,アイムデザイン,0
2278,9010701022011,登記記録の閉鎖等,0,2024-10-09,2024-10-01,株式会社アプリシエ,,株式会社,東京都,品川区,東五反田５丁目２２番３７号,,13,109,1410022,,,2024-10-01,合併による解散等,4010701039101,令和６年１０月１日東京都品川区上大崎三丁目１４番３５号株式会社ＪＣＶＮサポート（4010701039101）に合併し解散,2015-10-05,1,,,,,アプリシエ,0
2288,9011001011588,登記記録の閉鎖等,0,2024-10-09,2024-10-01,株式会社スーパービジョン,,株式会社,埼玉県,さいたま市見沼区,大字南中野３１２番地１,,11,104,3370042,,,2024-10-01,清算の結了等,,,2015-10-05,1,,,,,スーパービジョン,0
2290,9011001122716,登記記録の閉鎖等,0,2024-10-09,2024-10-04,株式会社築地オペレーションズ,,株式会社,東京都,渋谷区,恵比寿４丁目１番１８号恵比寿ネオナート,,13,113,1500013,,,2024-10-04,合併による解散等,4011001122241,令和６年９月２４日東京都品川区西五反田一丁目２６番２号五反田サンハイツ９１１株式会社クレッセント（4011001122241）に合併し解散,2018-06-12,1,,,,,ツキジオペレーションズ,0
2295,9011003017294,登記記録の閉鎖等,0,2024-10-09,2024-09-09,ＲＯＯＴＡＧＥ合同会社,,合同会社,東京都,渋谷区,渋谷２丁目１９番１５号宮益坂ビルディング６０９,,13,113,1500002,,,2024-09-09,清算の結了等,,,2023-08-07,1,,,,,ルーティジ,0
2297,9011101073891,登記記録の閉鎖等,0,2024-10-09,2024-09-30,株式会社エムティーアイヘルスケアラボ,,株式会社,東京都,新宿区,西新宿３丁目２０番２号,,13,104,1600023,,,2024-09-30,清算の結了等,,,2015-10-05,1,,,,,エムティーアイヘルスケアラボ,0
2307,9011302011774,登記記録の閉鎖等,0,2024-10-09,2024-10-02,有限会社馬来,,有限会社,東京都,杉並区,今川３丁目１３番４号,,13,115,1670035,,,2024-10-02,清算の結了等,,,2015-10-05,1,,,,,マキ,0
2308,9011302014736,登記記録の閉鎖等,0,2024-10-09,2024-10-04,有限会社永福コンタクト,,有限会社,東京都,杉並区,高井戸西２丁目１８番１２号,,13,115,1680071,,,2024-10-04,清算の結了等,,,2015-10-05,1,,,,,エイフクコンタクト,0
2324,9012303000857,登記記録の閉鎖等,0,2024-10-09,2024-10-08,Ｊ＆Ｅ合同会社,,合同会社,東京都,町田市,山崎町２０４９番地２,,13,209,1950074,,,2024-10-08,清算の結了等,,,2015-10-05,1,,,,,,0
2331,9020001099872,登記記録の閉鎖等,0,2024-10-09,2024-09-24,株式会社天月,,株式会社,神奈川県,横浜市港南区,日野５丁目２３番１９号,,14,111,2340051,,,2024-09-24,清算の結了等,,,2015-10-05,1,,,,,アマツキ,0
2341,9021001032492,登記記録の閉鎖等,0,2024-10-09,2024-10-07,株式会社加藤造園,,株式会社,神奈川県,小田原市,久野２３０７番地,,14,206,2500055,,,2024-10-07,清算の結了等,,,2015-10-05,1,,,,,,0
2351,9030001137219,登記記録の閉鎖等,0,2024-10-09,2024-10-02,株式会社エレベータリニューアルシステム,,株式会社,埼玉県,行田市,大字野３３４１番地６,,11,206,3610026,,,2024-10-02,清算の結了等,,,2020-07-08,1,,,,,エレベータリニューアルシステム,0
2357,9030002073215,登記記録の閉鎖等,0,2024-10-09,2024-10-01,有限会社広電計画,,有限会社,埼玉県,川越市,大字今福１１１３番地２０,,11,201,3501151,,,2024-10-01,清算の結了等,,,2015-10-05,1,,,,,コウデンケイカク,0
2361,9040001009920,登記記録の閉鎖等,0,2024-10-09,2024-10-01,株式会社八葉社,,株式会社,千葉県,千葉市緑区,平山町７７６番地の１,,12,105,2660002,,,2024-10-01,清算の結了等,,,2015-10-05,1,,,,,ハチヨウシャ,0
2371,9060001003723,登記記録の閉鎖等,0,2024-10-09,2024-10-02,株式会社ピエラコーポレーション,,株式会社,栃木県,宇都宮市,兵庫塚２丁目１７番１１号,,09,201,3210138,,,2024-10-02,清算の結了等,,,2015-10-05,1,,,,,ピエラコーポレーション,0
2381,9080101000924,登記記録の閉鎖等,0,2024-10-09,2024-10-02,株式会社瀬野印刷,,株式会社,静岡県,沼津市,日の出町８番１８号,,22,203,4100032,,,2024-10-02,清算の結了等,,,2015-10-05,1,,,,,セノインサツ,0
2396,9110005011196,登記記録の閉鎖等,0,2024-10-09,2024-10-01,医療法人社団小坂井歯科クリニック,,その他の設立登記法人,新潟県,長岡市,豊田町１１番地４０,,15,202,9400836,,,2024-10-01,清算の結了等,,,2015-10-05,1,,,,,コザカイシカクリニック,0
2399,9120001156440,登記記録の閉鎖等,0,2024-10-09,2024-10-01,日生自動車工業株式会社,,株式会社,大阪府,守口市,佐太中町４丁目２番１８号,,27,209,5700002,,,2024-10-01,合併による解散等,3120001157295,令和６年１０月１日大阪府守口市佐太中町四丁目２番１８号株式会社ＮＫＧ．ＡＵＴＯ（3120001157295）に合併し解散,2015-10-05,1,,,,,ニッセイジドウシャコウギョウ,0
2408,9120101044108,登記記録の閉鎖等,0,2024-10-09,2024-10-03,株式会社小山工務店,,株式会社,大阪府,泉南市,兎田１０７０番地の１７,,27,228,5900501,,,2024-10-03,清算の結了等,,,2015-10-05,1,,,,,コヤマコウムテン,0
2411,9120101054965,登記記録の閉鎖等,0,2024-10-09,2024-10-07,東洋リバース株式会社,,株式会社,大阪府,羽曳野市,古市１５３９番地,,27,222,5830852,,,2024-10-07,清算の結了等,,,2016-06-23,1,,,,,トウヨウリバース,0
2437,9170001002391,登記記録の閉鎖等,0,2024-10-09,2024-10-08,中林建設株式会社,,株式会社,和歌山県,和歌山市,湊１丁目７番１７号,,30,201,6408404,,,2024-10-08,清算の結了等,,,2015-10-05,1,,,,,ナカバヤシケンセツ,0
2439,9180001130860,登記記録の閉鎖等,0,2024-10-09,2024-09-30,株式会社ＨｉｎｔＳ,,株式会社,愛知県,愛西市,大野山町坪田１１６番地２,,23,232,4968017,,,2024-09-30,清算の結了等,,,2018-01-18,1,,,,,ヒンツ,0
2449,9180302019027,登記記録の閉鎖等,0,2024-10-09,2024-10-07,有限会社ミズノフライス,,有限会社,愛知県,刈谷市,東境町登り坂１２０番地１,,23,210,4480007,,,2024-10-07,清算の結了等,,,2015-10-05,1,,,,,ミズノフライス,0
2463,9250005005028,登記記録の閉鎖等,0,2024-10-09,2024-09-30,徳山個人タクシー協同組合,,その他の設立登記法人,山口県,周南市,久米中央１丁目１０番７号,,35,215,7450809,,,2024-09-30,清算の結了等,,,2015-10-05,1,,,,,トクヤマコジンタクシー,0
2466,9260005003641,登記記録の閉鎖等,0,2024-10-09,2024-10-03,医療法人ヒノモト会,,その他の設立登記法人,岡山県,倉敷市,西阿知町西原７５７番地の１,,33,202,7100806,,,2024-10-03,清算の結了等,,,2015-10-05,1,,,,,ヒノモトカイ,0
2482,9310002009487,登記記録の閉鎖等,0,2024-10-09,2024-10-07,有限会社フクシマ商事,,有限会社,長崎県,東彼杵郡波佐見町,宿郷３３８番地１,,42,323,8593715,,,2024-10-07,清算の結了等,,,2015-10-05,1,,,,,フクシマショウジ,0
2484,9320003003967,登記記録の閉鎖等,0,2024-10-09,2024-10-04,合同会社マカバ,,合同会社,大分県,杵築市,大字南杵築２１７３番地３,,44,210,8730002,,,2024-10-04,清算の結了等,,,2022-12-08,1,,,,,マカバ,0
2488,9330003007892,登記記録の閉鎖等,0,2024-10-09,2024-10-01,合同会社ペットセレモニーＫｕｍａｍｏｔｏ,,合同会社,熊本県,熊本市東区,上南部２丁目１２番７９号,,43,102,8618010,,,2024-10-01,清算の結了等,,,2019-04-16,1,,,,,ペットセレモニークマモト,0
2505,9410005002792,登記記録の閉鎖等,0,2024-10-09,2024-10-03,秋北電設協業組合,,その他の設立登記法人,秋田県,大館市,字観音堂６０１番地,,05,204,0170042,,,2024-10-03,清算の結了等,,,2015-10-05,1,,,,,シュウホクデンセツ,0
2517,9490001000025,登記記録の閉鎖等,0,2024-10-09,2024-10-04,葵産業株式会社,,株式会社,高知県,高知市,本町５丁目２番１８号,,39,201,7800870,,,2024-10-04,清算の結了等,,,2024-08-26,1,,,,,アオイサンギョウ,0
2518,9490001007607,登記記録の閉鎖等,0,2024-10-09,2024-10-01,株式会社びすたらんど,,株式会社,高知県,高知市,南川添４番２８号,,39,201,7810082,,,2024-10-01,合併による解散等,6490001001736,令和６年１０月１日高知市駅前町４番１５号株式会社西山合名（6490001001736）に合併し解散,2015-10-05,1,,,,,ビスタランド,0
