sequenceNumber,corporateNumber,process,correct,updateDate,changeDate,name,nameImageId,kind,prefectureName,cityName,streetNumber,addressImageId,prefectureCode,cityCode,postCode,addressOutside,addressOutsideImageId,closeDate,closeCause,successorCorporateNumber,changeCause,assignmentDate,latest,enName,enPrefectureName,enCityName,enAddressOutside,furigana,hihyoji
29,1010805001694,登記記録の閉鎖等,0,2022-10-04,2022-09-27,特定非営利活動法人救急災害研修機構,,その他の設立登記法人,東京都,大田区,蒲田本町１丁目１番２－５０３,,13,111,1440053,,,2022-09-27,清算の結了等,,,2015-10-05,1,,,,,,0
73,1020005006849,登記記録の閉鎖等,0,2022-10-04,2022-09-27,特定非営利活動法人ＭＹＴＫ,,その他の設立登記法人,神奈川県,横浜市神奈川区,白幡仲町４４番３－１号,,14,102,2210071,,,2022-09-27,清算の結了等,,,2015-10-05,1,,,,,エムワイティケー,0
74,1021001000234,登記記録の閉鎖等,0,2022-10-04,2022-10-03,内田商事株式会社,,株式会社,神奈川県,藤沢市,高倉６５０－５８,,14,205,2520802,,,2022-10-03,清算の結了等,,,2015-10-05,1,,,,,ウチダショウジ,0
77,1021002038323,登記記録の閉鎖等,0,2022-10-04,2022-09-29,有限会社関野商店,,有限会社,神奈川県,秦野市,南矢名２０８６番地,,14,211,2570003,,,2022-09-29,清算の結了等,,,2015-10-05,1,,,,,セキノショウテン,0
78,1021002053132,登記記録の閉鎖等,0,2022-10-04,2022-09-30,有限会社まつや,,有限会社,神奈川県,小田原市,入生田１９２番地,,14,206,2500031,,,2022-09-30,清算の結了等,,,2015-10-05,1,,,,,マツヤ,0
82,1030001102733,登記記録の閉鎖等,0,2022-10-04,2022-09-22,株式会社コルコピア,,株式会社,埼玉県,富士見市,大字水子４５４３番地６,,11,235,3540011,,,2022-09-22,清算の結了等,,,2015-10-05,1,,,,,コルコピア,0
89,1030005011947,登記記録の閉鎖等,0,2022-10-04,2022-09-21,特定非営利活動法人日本アイデア協会,,その他の設立登記法人,埼玉県,さいたま市西区,大字植田谷本１３７番地１加茂川団地２－１０３,,11,101,3310053,,,2022-09-21,清算の結了等,,,2015-10-05,1,,,,,ニホンアイデアキョウカイ,0
90,1040001023648,登記記録の閉鎖等,0,2022-10-04,2022-09-22,株式会社豪秋,,株式会社,千葉県,船橋市,山手２丁目７番地４０,,12,204,2730045,,,2022-09-22,清算の結了等,,,2015-10-05,1,,,,,ゴウシュウ,0
106,1070001006856,登記記録の閉鎖等,0,2022-10-04,2022-09-30,株式会社晃月人形,,株式会社,群馬県,高崎市,栄町１５番２０号,,10,202,3700841,,,2022-09-30,清算の結了等,,,2015-10-05,1,,,,,,0
110,1080001023652,登記記録の閉鎖等,0,2022-10-04,2022-10-03,株式会社アンドアビリティ,,株式会社,静岡県,静岡市葵区,千代田４丁目２番１２号,,22,101,4200803,,,2022-10-03,清算の結了等,,,2020-07-28,1,,,,,アンドアビリティ,0
129,1110003002080,登記記録の閉鎖等,0,2022-10-04,2022-09-28,合資会社あかね,,合資会社,新潟県,見附市,新町３丁目２番２７号,,15,211,9540057,,,2022-09-28,清算の結了等,,,2015-10-05,1,,,,,アカネ,0
143,1120002074302,登記記録の閉鎖等,0,2022-10-04,2022-09-29,有限会社新栄産業,,有限会社,大阪府,枚方市,田口１丁目２２番３０－１０３号,,27,210,5731162,,,2022-09-29,清算の結了等,,,2015-10-05,1,,,,,シンエイサンギョウ,0
145,1120003011964,登記記録の閉鎖等,0,2022-10-04,2022-09-30,合同会社ＮＭＣ,,合同会社,大阪府,大阪市福島区,福島４丁目１番７２－５０３号,,27,103,5530003,,,2022-09-30,清算の結了等,,,2016-08-30,1,,,,,エヌエムシー,0
166,1140002062973,登記記録の閉鎖等,0,2022-10-04,2022-09-26,有限会社住本鉄工所,,有限会社,兵庫県,小野市,黒川町９４番地,,28,218,6751371,,,2022-09-26,清算の結了等,,,2015-10-05,1,,,,,スミモトテッコウショ,0
179,1180001094997,登記記録の閉鎖等,0,2022-10-04,2022-09-28,株式会社アクアスタッフ東海,,株式会社,愛知県,東海市,名和町汐田西５２番地の２,,23,222,4760002,,,2022-09-28,清算の結了等,,,2015-10-05,1,,,,,アクアスタッフトウカイ,0
187,1180301011776,登記記録の閉鎖等,0,2022-10-04,2022-09-29,杉山商会株式会社,,株式会社,愛知県,豊川市,東上町柏沢６番地２,,23,207,4411201,,,2022-09-29,清算の結了等,,,2015-10-05,1,,,,,,0
189,1180302006346,登記記録の閉鎖等,0,2022-10-04,2022-09-20,有限会社石井綿行,,有限会社,愛知県,豊橋市,原町字地蔵免２９番地の１,,23,201,4413111,,,2022-09-20,清算の結了等,,,2015-10-05,1,,,,,イシイメンコウ,0
196,1210002002468,登記記録の閉鎖等,0,2022-10-04,2022-09-29,有限会社東豊住設工業,,有限会社,福井県,福井市,森行町１５号２０番地,,18,201,9188171,,,2022-09-29,清算の結了等,,,2015-10-05,1,,,,,トウホウジュウセツコウギョウ,0
226,1310001010536,登記記録の閉鎖等,0,2022-10-04,2022-09-30,株式会社田口組,,株式会社,長崎県,松浦市,志佐町西山免１０２番地,,42,208,8594505,,,2022-09-30,清算の結了等,,,2015-10-05,1,,,,,タグチグミ,0
229,1310002018842,登記記録の閉鎖等,0,2022-10-04,2022-09-29,新蛭子商船有限会社,,有限会社,長崎県,壱岐市,石田町久喜触２９４番地,,42,210,8115223,,,2022-09-29,清算の結了等,,,2015-10-05,1,,,,,シンエビスショウセン,0
234,1330002007414,登記記録の閉鎖等,0,2022-10-04,2022-09-30,有限会社鳥飼商事,,有限会社,熊本県,熊本市西区,花園７丁目７７番５号,,43,103,8600072,,,2022-09-30,清算の結了等,,,2015-10-05,1,,,,,トリカイショウジ,0
237,1340001020549,登記記録の閉鎖等,0,2022-10-04,2022-10-03,株式会社グッドリフォーム,,株式会社,鹿児島県,鹿児島市,慈眼寺町３４番１３号,,46,201,8910146,,,2022-10-03,清算の結了等,,,2017-08-10,1,,,,,,0
244,1370005000305,登記記録の閉鎖等,0,2022-10-04,2022-09-28,一般財団法人宮城県下水道公社,,その他の設立登記法人,宮城県,仙台市青葉区,堤通雨宮町４番１７号,,04,101,9810914,,,2022-09-28,清算の結了等,,,2015-10-05,1,,,,,ミヤギケンゲスイドウコウシャ,0
258,1450002001520,登記記録の閉鎖等,0,2022-10-04,2022-10-03,神山左官有限会社,,有限会社,北海道,旭川市,東八条１丁目,,01,204,0700028,,,2022-10-03,清算の結了等,,,2015-10-05,1,,,,,カミヤマサカン,0
262,1470002017903,登記記録の閉鎖等,0,2022-10-04,2022-09-30,有限会社創建工業,,有限会社,香川県,さぬき市,鴨部５９９９番地,,37,206,7692104,,,2022-09-30,清算の結了等,,,2015-10-05,1,,,,,ソウケンコウギョウ,0
278,2010001101546,登記記録の閉鎖等,0,2022-10-04,2022-09-28,ギガビジョン株式会社,,株式会社,東京都,千代田区,六番町３番地４,,13,101,1020085,,,2022-09-28,清算の結了等,,,2015-10-05,1,,,,,ギガビジョン,0
284,2010001156763,登記記録の閉鎖等,0,2022-10-04,2022-09-28,株式会社Ａ＆Ｋ,,株式会社,東京都,中央区,銀座７丁目１３番６号サガミビル２階,,13,102,1040061,,,2022-09-28,清算の結了等,,,2015-10-05,1,,,,,エーアンドケー,0
289,2010002016157,登記記録の閉鎖等,0,2022-10-04,2022-09-20,青葉商事有限会社,,有限会社,東京都,目黒区,青葉台１丁目１８番７－６０６号,,13,110,1530042,,,2022-09-20,清算の結了等,,,2015-10-05,1,,,,,アオバショウジ,0
293,2010005028653,登記記録の閉鎖等,0,2022-10-04,2022-09-30,一般社団法人アセットファイナンス戸畑,,その他の設立登記法人,東京都,千代田区,神田神保町３丁目５番地,,13,101,1010051,,,2022-09-30,清算の結了等,,,2018-06-13,1,,,,,アセットファイナンストバタ,0
311,2010701001351,登記記録の閉鎖等,0,2022-10-04,2022-09-29,株式会社エイト産業,,株式会社,東京都,品川区,東大井６丁目１３番７号,,13,109,1400011,,,2022-09-29,清算の結了等,,,2015-10-05,1,,,,,エイトサンギョウ,0
330,2011201006683,登記記録の閉鎖等,0,2022-10-04,2022-09-20,株式会社ナックテクノサービス,,株式会社,東京都,中野区,松が丘２丁目１９番９号ファミールヒルズ哲学堂公園４１２号,,13,114,1650024,,,2022-09-20,清算の結了等,,,2015-10-05,1,,,,,ナックテクノサービス,0
350,2013101007919,登記記録の閉鎖等,0,2022-10-04,2022-10-03,藤谷アセットマネジメント株式会社,,株式会社,東京都,西多摩郡日の出町,大字平井９６９番地,,13,305,1900182,,,2022-10-03,清算の結了等,,,2018-08-29,1,,,,,フジタニアセットマネジメント,0
367,2021002059649,登記記録の閉鎖等,0,2022-10-04,2022-09-30,真壁硝子有限会社,00013792,有限会社,神奈川県,平塚市,出縄６６番地,,14,203,2540915,,,2022-09-30,清算の結了等,,,2015-10-05,1,,,,,マカベガラス,0
370,2030001017815,登記記録の閉鎖等,0,2022-10-04,2022-09-20,株式会社折原人形,,株式会社,埼玉県,さいたま市岩槻区,西町５丁目４番１９号,,11,110,3390067,,,2022-09-20,清算の結了等,,,2015-10-05,1,,,,,オリハラニンギョウ,0
381,2030002098986,登記記録の閉鎖等,0,2022-10-04,2022-09-22,有限会社三和空調,,有限会社,埼玉県,川口市,大字里９９１番地の２,,11,203,3340005,,,2022-09-22,清算の結了等,,,2015-10-05,1,,,,,サンワクウチョウ,0
403,2080005006330,登記記録の閉鎖等,0,2022-10-04,2022-09-30,特定非営利活動法人ユニバーサルデザイン羅針盤ネットワーク,,その他の設立登記法人,静岡県,静岡市葵区,瀬名１丁目９番２５号１Ｆ,,22,101,4200911,,,2022-09-30,清算の結了等,,,2015-10-05,1,,,,,ユニバーサルデザインラシンバンネットワーク,0
405,2080102008642,登記記録の閉鎖等,0,2022-10-04,2022-10-03,有限会社ますや精肉店,,有限会社,静岡県,伊豆市,湯ケ島１９８番地の１,,22,222,4103206,,,2022-10-03,清算の結了等,,,2015-10-05,1,,,,,マスヤセイニクテン,0
414,2100001026759,登記記録の閉鎖等,0,2022-10-04,2022-09-30,優ケアながの株式会社,,株式会社,長野県,長野市,篠ノ井塩崎６６９２番地２６,,20,201,3888014,,,2022-09-30,清算の結了等,,,2015-10-05,1,,,,,ユウケアナガノ,0
417,2110001014052,登記記録の閉鎖等,0,2022-10-04,2022-09-29,株式会社栗山清次郎商店,,株式会社,新潟県,三条市,石上２丁目１０番５号,,15,204,9550084,,,2022-09-29,清算の結了等,,,2015-10-05,1,,,,,クリヤマセイジロウショウテン,0
436,2130002032571,登記記録の閉鎖等,0,2022-10-04,2022-09-27,有限会社京たんば,,有限会社,京都府,福知山市,末広町１丁目２番地,,26,201,6200054,,,2022-09-27,清算の結了等,,,2015-10-05,1,,,,,キョウタンバ,0
456,2180001145865,登記記録の閉鎖等,0,2022-10-04,2022-09-21,株式会社ＮＯＹＥＳ　Ｂｕｓｉｎｅｓｓ　Ｓｏｌｕｔｉｏｎ,,株式会社,愛知県,名古屋市昭和区,白金１丁目４番３号,,23,107,4660058,,,2022-09-21,清算の結了等,,,2021-04-30,1,,,,,ノイエスビジネスソリューション,0
457,2180002013063,登記記録の閉鎖等,0,2022-10-04,2022-09-30,秋枝総業有限会社,,有限会社,愛知県,名古屋市南区,明治２丁目２７番１４号,,23,112,4570861,,,2022-09-30,清算の結了等,,,2015-10-05,1,,,,,アキエダソウギョウ,0
458,2180002035628,登記記録の閉鎖等,0,2022-10-04,2022-09-29,有限会社セイブメンテ,,有限会社,愛知県,名古屋市中村区,亀島１丁目１２番１０号,,23,105,4530013,,,2022-09-29,清算の結了等,,,2015-10-05,1,,,,,セイブメンテ,0
467,2180305006680,登記記録の閉鎖等,0,2022-10-04,2022-09-22,医療法人杉和会,,その他の設立登記法人,愛知県,西尾市,中畑１丁目６３番地,,23,213,4440304,,,2022-09-22,清算の結了等,,,2015-10-05,1,,,,,スギワカイ,0
491,2270005000735,登記記録の閉鎖等,0,2022-10-04,2022-09-22,天理教中湖山分教会,,その他の設立登記法人,鳥取県,鳥取市,湖山町南１丁目３０１番地,,31,201,6800945,,,2022-09-22,合併による解散等,5130005000713,令和４年９月１２日京都市東山区松原通大和大路東入三丁目興善町１４０番地天理教京城大教会（5130005000713）に合併し解散,2015-10-05,1,,,,,,0
495,2290001005125,登記記録の閉鎖等,0,2022-10-04,2022-09-26,共栄通信建設株式会社,,株式会社,福岡県,福岡市西区,大字吉武３２３番地４,,40,135,8190036,,,2022-09-26,清算の結了等,,,2015-10-05,1,,,,,キョウエイツウシンケンセツ,0
505,2290002008449,登記記録の閉鎖等,0,2022-10-04,2022-09-28,有限会社ムーンウェーブ,,有限会社,福岡県,福岡市早良区,重留１丁目３番５５－６号,,40,137,8111101,,,2022-09-28,清算の結了等,,,2015-10-05,1,,,,,ムーンウェーブ,0
512,2290801025495,登記記録の閉鎖等,0,2022-10-04,2022-09-30,株式会社エンブレイン,,株式会社,福岡県,北九州市小倉北区,馬借３丁目１番７号小川レジデンス１－２０２Ｂ号,,40,106,8020077,,,2022-09-30,清算の結了等,,,2019-05-10,1,,,,,エンブレイン,0
518,2300005004071,登記記録の閉鎖等,0,2022-10-04,2022-09-29,白野生産森林組合,,その他の設立登記法人,佐賀県,伊万里市,大坪町乙１００番地１,,41,205,8480022,,,2022-09-29,清算の結了等,,,2015-10-05,1,,,,,シラノ,0
519,2310001006665,登記記録の閉鎖等,0,2022-10-04,2022-09-30,相浦食糧産業倉庫株式会社,,株式会社,長崎県,佐世保市,相浦町１３８番地,,42,202,8580918,,,2022-09-30,清算の結了等,,,2022-09-29,1,,,,,アイノウラショクリョウサンギョウソウコ,0
523,2320005009366,登記記録の閉鎖等,0,2022-10-04,2022-09-30,一般社団法人Ｇ－ｗｏｏｄ,,その他の設立登記法人,大分県,日田市,大字東有田２７７６番地１６,,44,204,8770000,,,2022-09-30,清算の結了等,,,2016-04-11,1,,,,,ジーウッド,0
526,2340001006555,登記記録の閉鎖等,0,2022-10-04,2022-10-03,株式会社バパウス,,株式会社,鹿児島県,鹿児島市,小川町１３番１２号,,46,201,8920817,,,2022-10-03,清算の結了等,,,2015-10-05,1,,,,,バパウス,0
531,2360001025405,登記記録の閉鎖等,0,2022-10-04,2022-09-28,丹理株式会社,,株式会社,沖縄県,那覇市,首里赤田町３丁目２６番地コルネットハウス２－Ｃ号室,,47,201,9030813,,,2022-09-28,清算の結了等,,,2019-03-25,1,,,,,タンリ,0
534,2370001007575,登記記録の閉鎖等,0,2022-10-04,2022-09-30,加留産業株式会社,,株式会社,東京都,品川区,上大崎３丁目１番１号目黒セントラルスクエア１５階,,13,109,1410021,,,2022-09-30,合併による解散等,9010703006326,令和４年９月３０日東京都品川区上大崎三丁目１番１号目黒セントラルスクエア１５階青葉ホールディングス合同会社（9010703006326）に合併し解散,2015-10-05,1,,,,,カトメサンギョウ,0
535,2370001008912,登記記録の閉鎖等,0,2022-10-04,2022-09-30,第５日本オー・エフ・ビー株式会社,,株式会社,東京都,品川区,上大崎３丁目１番１号目黒セントラルスクエア１５階,,13,109,1410021,,,2022-09-30,合併による解散等,9010703006326,令和４年９月３０日東京都品川区上大崎三丁目１番１号目黒セントラルスクエア１５階青葉ホールディングス合同会社（9010703006326）に合併し解散,2015-10-05,1,,,,,ダイゴニホンオーエフビー,0
539,2370001021155,登記記録の閉鎖等,0,2022-10-04,2022-09-21,株式会社リボス・コンサルティング,,株式会社,宮城県,仙台市宮城野区,榴岡４丁目３番２０号,,04,102,9830852,,,2022-09-21,清算の結了等,,,2015-10-05,1,,,,,,0
542,2390001016129,登記記録の閉鎖等,0,2022-10-04,2022-09-28,株式会社クオリア,,株式会社,山形県,東置賜郡高畠町,大字福沢４番地の８９９,,06,381,9992174,,,2022-09-28,清算の結了等,,,2020-06-29,1,,,,,クオリア,0
605,3010505001381,登記記録の閉鎖等,0,2022-10-04,2022-09-28,東京アクセサリー工業協同組合,,その他の設立登記法人,東京都,台東区,小島２丁目９番１０号,,13,106,1110056,,,2022-09-28,清算の結了等,,,2015-10-05,1,,,,,トウキョウアクセサリーコウギョウ,0
607,3010702008667,登記記録の閉鎖等,0,2022-10-04,2022-09-30,有限会社ユニオン,,有限会社,東京都,品川区,西大井５丁目２番６号,,13,109,1400015,,,2022-09-30,清算の結了等,,,2015-10-05,1,,,,,ユニオン,0
609,3010801017528,登記記録の閉鎖等,0,2022-10-04,2022-09-27,泰豊企画株式会社,,株式会社,東京都,大田区,新蒲田１丁目１５番６号－１０１,,13,111,1440054,,,2022-09-27,清算の結了等,,,2015-10-05,1,,,,,タイホウキカク,0
611,3010801024879,登記記録の閉鎖等,0,2022-10-04,2022-09-13,ＪＩＮＣＯ　Ｊａｐａｎ株式会社,,株式会社,東京都,港区,南青山２丁目２番１５号ウィン青山９４２号室,,13,103,1070062,,,2022-09-13,清算の結了等,,,2015-10-05,1,,,,,ジンコジャパン,0
643,3011801009671,登記記録の閉鎖等,0,2022-10-04,2022-09-29,田崎金属工業株式会社,,株式会社,東京都,足立区,西伊興４丁目６番１５号,,13,121,1210824,,,2022-09-29,清算の結了等,,,2015-10-05,1,,,,,タザキキンゾクコウギョウ,0
646,3012401031223,登記記録の閉鎖等,0,2022-10-04,2022-09-28,株式会社キーズ,,株式会社,東京都,中央区,銀座７丁目１３番６号サガミビル２Ｆ,,13,102,1040061,,,2022-09-28,清算の結了等,,,2016-03-31,1,,,,,キーズ,0
651,3013402002584,登記記録の閉鎖等,0,2022-10-04,2022-09-29,有限会社ティス,,有限会社,東京都,多摩市,唐木田１丁目６番地３,,13,224,2060035,,,2022-09-29,清算の結了等,,,2015-10-05,1,,,,,ティス,0
685,3040005002076,登記記録の閉鎖等,0,2022-10-04,2022-09-26,ＮＰＯ法人ちばインターネット普及会,,その他の設立登記法人,千葉県,千葉市稲毛区,黒砂台１丁目１５番６号,,12,103,2630041,,,2022-09-26,清算の結了等,,,2015-10-05,1,,,,,チバインターネットフキュウカイ,0
695,3070001012860,登記記録の閉鎖等,0,2022-10-04,2022-09-29,株式会社オーエービジネス,,株式会社,群馬県,藤岡市,本動堂３５２番地１,,10,209,3750051,,,2022-09-29,清算の結了等,,,2015-10-05,1,,,,,オーエービジネス,0
701,3080002016819,登記記録の閉鎖等,0,2022-10-04,2022-10-03,有限会社藤丸,,有限会社,静岡県,焼津市,与惣次１２２番地の２,,22,212,4250034,,,2022-10-03,清算の結了等,,,2015-10-05,1,,,,,フジマル,0
708,3100001010282,登記記録の閉鎖等,0,2022-10-04,2022-09-30,株式会社三越総研,,株式会社,長野県,上田市,国分８１８番地１０,,20,203,3860016,,,2022-09-30,清算の結了等,,,2015-10-05,1,,,,,ミツコシソウケン,0
715,3120001031277,登記記録の閉鎖等,0,2022-10-04,2022-09-30,東海重機株式会社,,株式会社,大阪府,大阪市住之江区,新北島３丁目９番３－１１０号,,27,125,5590024,,,2022-09-30,清算の結了等,,,2015-10-05,1,,,,,トウカイジュウキ,0
744,3130005007454,登記記録の閉鎖等,0,2022-10-04,2022-09-27,西来寺,,その他の設立登記法人,京都府,南丹市,八木町西田南条４９番地,,26,213,6290134,,,2022-09-27,清算の結了等,,,2015-10-05,1,,,,,セイライジ,0
764,3180001129850,登記記録の閉鎖等,0,2022-10-04,2022-09-21,株式会社ＮＯＹＥＳ　Ｐａｒｔｎｅｒｓ,,株式会社,愛知県,名古屋市昭和区,白金１丁目４番３号,,23,107,4660058,,,2022-09-21,清算の結了等,,,2017-10-25,1,,,,,ノイエスパートナーズ,0
796,3260001030728,登記記録の閉鎖等,0,2022-10-04,2022-09-30,株式会社クリエイティブ瀬戸内,,株式会社,岡山県,瀬戸内市,牛窓町長浜２５４８番地１,,33,212,7014301,,,2022-09-30,清算の結了等,,,2017-04-14,1,,,,,クリエイティブセトウチ,0
825,3360001028423,登記記録の閉鎖等,0,2022-10-04,2022-09-28,ＳＫＩＬＬ株式会社,,株式会社,沖縄県,うるま市,字栄野比８５３番地３,,47,213,9042205,,,2022-09-28,清算の結了等,,,2021-03-04,1,,,,,スキル,0
832,3370301001153,登記記録の閉鎖等,0,2022-10-04,2022-09-26,株式会社丸信須田商店,,株式会社,宮城県,石巻市,広渕字馬場屋敷１０９番地６,,04,202,9871222,,,2022-09-26,清算の結了等,,,2015-10-05,1,,,,,マルシンスダショウテン,0
844,3440002004811,登記記録の閉鎖等,0,2022-10-04,2022-09-22,有限会社ムライストアー,,有限会社,北海道,松前郡松前町,字福山４８番地,,01,331,0491512,,,2022-09-22,清算の結了等,,,2015-10-05,1,,,,,ムライストアー,0
846,3490003001233,登記記録の閉鎖等,0,2022-10-04,2022-09-12,前田設備工業合同会社,,合同会社,高知県,高知市,朝倉己６８番２３号,,39,201,7808066,,,2022-09-12,清算の結了等,,,2018-07-20,1,,,,,マエダセツビコウギョウ,0
848,3500001009078,登記記録の閉鎖等,0,2022-10-04,2022-09-30,日通愛媛運輸株式会社,,株式会社,愛媛県,西条市,ひうち字西ひうち６番１３号,,38,206,7930003,,,2022-09-30,清算の結了等,,,2015-10-05,1,,,,,ニッツウエヒメウンユ,0
855,4010001071531,登記記録の閉鎖等,0,2022-10-04,2022-09-26,株式会社エムアンドエス振興フォーラム,,株式会社,東京都,文京区,本郷５丁目２５番１６号,,13,105,1130033,,,2022-09-26,清算の結了等,,,2015-10-05,1,,,,,エムアンドエスシンコウフォーラム,0
859,4010001181223,登記記録の閉鎖等,0,2022-10-04,2022-09-29,株式会社ストライプデパートメント,,株式会社,東京都,中央区,銀座４丁目１２番１５号,,13,102,1040061,,,2022-09-29,清算の結了等,,,2017-02-07,1,,,,,ストライプデパートメント,0
891,4011001128107,登記記録の閉鎖等,0,2022-10-04,2022-09-28,株式会社５１５０,,株式会社,大阪府,大阪市淀川区,西中島４丁目１１番２１号,,27,123,5320011,,,2022-09-28,清算の結了等,,,2019-05-20,1,,,,,フィフティーワンフィフティー,0
904,4011201014379,登記記録の閉鎖等,0,2022-10-04,2022-09-28,ソワドール株式会社,,株式会社,山形県,山形市,鈴川町２丁目８番２４号,,06,201,9900062,,,2022-09-28,清算の結了等,,,2015-10-05,1,,,,,ソワドール,0
914,4011802015032,登記記録の閉鎖等,0,2022-10-04,2022-09-29,有限会社泰正鋼業,,有限会社,東京都,足立区,西新井１丁目１６番３号,,13,121,1230841,,,2022-09-29,清算の結了等,,,2015-10-05,1,,,,,タイセイコウギョウ,0
918,4012402002032,登記記録の閉鎖等,0,2022-10-04,2022-09-29,有限会社肉のタキイ,,有限会社,東京都,府中市,本町４丁目２５番地の１,,13,206,1830027,,,2022-09-29,清算の結了等,,,2015-10-05,1,,,,,ニクノタキイ,0
919,4012402019431,登記記録の閉鎖等,0,2022-10-04,2022-09-29,有限会社西山建工,,有限会社,東京都,三鷹市,下連雀４丁目１番１６号,,13,204,1810013,,,2022-09-29,清算の結了等,,,2015-10-05,1,,,,,ニシヤマケンコウ,0
922,4013101007090,登記記録の閉鎖等,0,2022-10-04,2022-09-30,株式会社Ｂｅｅ　Ｗｏｒｋｅｒ,,株式会社,東京都,あきる野市,原小宮３０９番地１０,,13,228,1970811,,,2022-09-30,清算の結了等,,,2015-10-05,1,,,,,ビーワーカー,0
959,4040002004033,登記記録の閉鎖等,0,2022-10-04,2022-09-27,有限会社巧建,,有限会社,千葉県,千葉市中央区,大森町３１２番地の２７,,12,101,2600811,,,2022-09-27,清算の結了等,,,2015-10-05,1,,,,,コウケン,0
969,4060001018164,登記記録の閉鎖等,0,2022-10-04,2022-09-22,トネ・アルファ株式会社,,株式会社,群馬県,太田市,浜町７２番３８号,,10,205,3730853,,,2022-09-22,清算の結了等,,,2015-10-05,1,,,,,トネアルファ,0
976,4080103001743,登記記録の閉鎖等,0,2022-10-04,2022-10-03,ケージーピー合同会社,,合同会社,静岡県,富士市,松岡１４２７番地の３,,22,210,4160909,,,2022-10-03,清算の結了等,,,2017-11-01,1,,,,,ケージーピー,0
983,4110001024669,登記記録の閉鎖等,0,2022-10-04,2022-09-30,株式会社ガスセンター新潟,,株式会社,新潟県,長岡市,中之島３８７９番地,,15,202,9540124,,,2022-09-30,清算の結了等,,,2015-10-05,1,,,,,ガスセンターニイガタ,0
988,4110005002910,登記記録の閉鎖等,0,2022-10-04,2022-09-22,天理教龍原分教会,,その他の設立登記法人,新潟県,新潟市江南区,二本木４丁目８番１８号,,15,104,9500207,,,2022-09-22,合併による解散等,8010505000420,令和４年９月７日東京都台東区入谷二丁目２５番９号天理教東龍分教会（8010505000420）に合併し解散,2015-10-05,1,,,,,,0
990,4120001016970,登記記録の閉鎖等,0,2022-10-04,2022-09-30,株式会社エコロポリマー,,株式会社,大阪府,大阪市生野区,巽南５丁目１番１５号,00027228,27,116,5440015,,,2022-09-30,清算の結了等,,,2015-10-05,1,,,,,エコロポリマー,0
991,4120001132603,登記記録の閉鎖等,0,2022-10-04,2022-09-29,株式会社タクト,,株式会社,大阪府,大阪市中央区,南船場２丁目３番４号日宝長堀ビル５０５号,,27,128,5420081,,,2022-09-29,清算の結了等,,,2015-10-05,1,,,,,タクト,0
997,4120001218724,登記記録の閉鎖等,0,2022-10-04,2022-09-30,株式会社ＥＡＧＥ,,株式会社,大阪府,大阪市住之江区,浜口東３丁目１番１５号ＰｅｔｉｔＬｏｇｅｍｅｎｔ１０１,,27,125,5590002,,,2022-09-30,清算の結了等,,,2019-01-31,1,,,,,イーグ,0
1033,4140002046684,登記記録の閉鎖等,0,2022-10-04,2022-09-28,港自動車有限会社,,有限会社,兵庫県,豊岡市,気比３４９３番地の１,,28,209,6696124,,,2022-09-28,清算の結了等,,,2015-10-05,1,,,,,ミナトジドウシャ,0
1055,4200001022952,登記記録の閉鎖等,0,2022-10-04,2022-09-30,鬼岩湯元館株式会社,,株式会社,岐阜県,瑞浪市,日吉町９４９９番地の１３,,21,208,5096251,,,2022-09-30,合併による解散等,3200001022722,令和４年９月３０日岐阜県多治見市上山町一丁目９０番１アダプトゲン製薬株式会社（3200001022722）に合併し解散,2015-10-05,1,,,,,オニイワユモトカン,0
1061,4240001030786,登記記録の閉鎖等,0,2022-10-04,2022-09-30,株式会社三和管工,,株式会社,広島県,福山市,曙町１丁目３番９号,00000344,34,207,7210952,,,2022-09-30,清算の結了等,,,2015-10-05,1,,,,,サンワカンコウ,0
1075,4290001061967,登記記録の閉鎖等,0,2022-10-04,2022-09-28,株式会社よみうり筑豊,,株式会社,福岡県,嘉穂郡桂川町,大字土師２３６３番地１,,40,421,8200607,,,2022-09-28,清算の結了等,,,2015-10-05,1,,,,,ヨミウリチクホウ,0
1079,4290801001362,登記記録の閉鎖等,0,2022-10-04,2022-10-03,株式会社近藤ビル,,株式会社,福岡県,北九州市小倉北区,古船場町４番１７号,,40,106,8020082,,,2022-10-03,清算の結了等,,,2015-10-05,1,,,,,コンドウビル,0
1089,4340002028290,登記記録の閉鎖等,0,2022-10-04,2022-09-30,有限会社紘測量設計,,有限会社,鹿児島県,曽於市,末吉町二之方３４１４番地１,,46,217,8998605,,,2022-09-30,清算の結了等,,,2015-10-05,1,,,,,ヒロシソクリョウセッケイ,0
1094,4360002004471,登記記録の閉鎖等,0,2022-10-04,2022-09-21,株式会社ＡＯＩ,,株式会社,沖縄県,那覇市,牧志２丁目２番３０号,,47,201,9000013,,,2022-09-21,合併による解散等,8180301012025,令和４年９月１日愛知県豊橋市飯村町字西山２５番地の２６株式会社パートナーズ（8180301012025）に合併し解散,2015-10-05,1,,,,,エイオーアイ,0
1100,4370801001759,登記記録の閉鎖等,0,2022-10-04,2022-09-22,ルート６６株式会社,,株式会社,宮城県,亘理郡亘理町,逢隈神宮寺字但馬５５番地６,00081729,04,361,9892372,,,2022-09-22,清算の結了等,,,2015-10-05,1,,,,,ルートロクジュウロク,0
1115,4480002003908,登記記録の閉鎖等,0,2022-10-04,2022-10-03,有限会社福本化学養菌園,,有限会社,徳島県,徳島市,八万町上福万８２番地,,36,201,7708073,,,2022-10-03,清算の結了等,,,2015-10-05,1,,,,,フクモトカガクヨウキンエン,0
1123,5010001180422,登記記録の閉鎖等,0,2022-10-04,2022-09-28,ＥＬＥＮＡ　ＣＯＲＰＯＲＡＴＩＯＮ株式会社,,株式会社,東京都,中央区,日本橋浜町２丁目３０番７号,,13,102,1030007,,,2022-09-28,清算の結了等,,,2016-12-26,1,,,,,,0
1135,5010401093496,登記記録の閉鎖等,0,2022-10-04,2022-09-13,株式会社キーラックス,,株式会社,東京都,港区,東新橋２丁目１０番１０号東新橋ビル２Ｆ,,13,103,1050021,,,2022-09-13,清算の結了等,,,2015-10-05,1,,,,,キーラックス,0
1166,5011801001874,登記記録の閉鎖等,0,2022-10-04,2022-09-16,株式会社サニー・レヂスター,,株式会社,埼玉県,三郷市,戸ケ崎３２９８番地２５,,11,237,3410044,,,2022-09-16,清算の結了等,,,2015-10-05,1,,,,,サニーレヂスター,0
1216,5050001024195,登記記録の閉鎖等,0,2022-10-04,2022-09-26,シグママテリアル株式会社,,株式会社,茨城県,ひたちなか市,部田野２９９１番地７,,08,221,3111252,,,2022-09-26,清算の結了等,,,2015-10-05,1,,,,,シグママテリアル,0
1218,5050001042998,登記記録の閉鎖等,0,2022-10-04,2022-09-28,平山建設株式会社,,株式会社,茨城県,水戸市,宮町１丁目５番１－１１０７号ヴェルスコート水戸,,08,201,3100015,,,2022-09-28,清算の結了等,,,2017-06-28,1,,,,,ヒラヤマケンセツ,0
1234,5100001005826,登記記録の閉鎖等,0,2022-10-04,2022-09-30,株式会社関谷組,,株式会社,長野県,上高井郡小布施町,大字中松１３８番地１,,20,541,3810209,,,2022-09-30,清算の結了等,,,2015-10-05,1,,,,,セキヤグミ,0
1288,5140005011107,登記記録の閉鎖等,0,2022-10-04,2022-09-22,天理教城ノ幸分教会,,その他の設立登記法人,兵庫県,尼崎市,開明町１丁目４０番地,,28,202,6600862,,,2022-09-22,合併による解散等,1150005000467,令和４年９月２０日奈良市西大寺赤田町二丁目８番１０号天理教榮布分教会（1150005000467）に合併し解散,2015-10-05,1,,,,,,0
1305,5180303005062,登記記録の閉鎖等,0,2022-10-04,2022-09-27,合同会社いずみ,,合同会社,愛知県,岡崎市,康生通東１丁目２３番地,,23,202,4440045,,,2022-09-27,清算の結了等,,,2021-07-16,1,,,,,イズミ,0
1316,5220002011737,登記記録の閉鎖等,0,2022-10-04,2022-09-27,有限会社ケービーシー,,有限会社,石川県,能美市,小長野町戊２０５番地１,,17,211,9231116,,,2022-09-27,清算の結了等,,,2015-10-05,1,,,,,ケービーシー,0
1326,5260001014786,登記記録の閉鎖等,0,2022-10-04,2022-10-03,真備ガス販売株式会社,,株式会社,岡山県,倉敷市,真備町箭田１７４５番地,00003190,33,202,7101301,,,2022-10-03,合併による解散等,8260001001105,令和４年１０月１日岡山市北区田町二丁目１番１号株式会社サンセキ（8260001001105）に合併し解散,2015-10-05,1,,,,,マビガスハンバイ,0
1330,5260003001543,登記記録の閉鎖等,0,2022-10-04,2022-09-30,合同会社アローズ・ライフ,,合同会社,岡山県,瀬戸内市,牛窓町鹿忍２６２７番地９７,,33,212,7014303,,,2022-09-30,清算の結了等,,,2015-10-05,1,,,,,アローズライフ,0
1346,5310001001069,登記記録の閉鎖等,0,2022-10-04,2022-09-30,株式会社宝広告社,,株式会社,長崎県,長崎市,元船町１２番１号,,42,201,8500035,,,2022-09-30,合併による解散等,5180001097294,令和４年９月１日愛知県津島市東柳原町五丁目５番地１長田広告株式会社（5180001097294）に合併し解散,2015-10-05,1,,,,,タカラコウコクシャ,0
1354,5350001009926,登記記録の閉鎖等,0,2022-10-04,2022-09-29,株式会社関組,,株式会社,宮崎県,西諸県郡高原町,大字西麓１００１番地,,45,361,8894412,,,2022-09-29,清算の結了等,,,2015-10-05,1,,,,,セキグミ,0
1366,5370001023702,登記記録の閉鎖等,0,2022-10-04,2022-09-22,株式会社東北日展,,株式会社,宮城県,仙台市青葉区,一番町１丁目１７番２０号,,04,101,9800811,,,2022-09-22,清算の結了等,,,2015-10-05,1,,,,,,0
1375,5390001004857,登記記録の閉鎖等,0,2022-10-04,2022-09-29,株式会社丸林,,株式会社,山形県,上山市,金生西１丁目１番２７号,,06,207,9993126,,,2022-09-29,清算の結了等,,,2015-10-05,1,,,,,マルバヤシ,0
1377,5410002001223,登記記録の閉鎖等,0,2022-10-04,2022-09-30,有限会社北日本エレベーター・サービス,,有限会社,秋田県,秋田市,八橋大沼町１番１０号,,05,201,0100963,,,2022-09-30,清算の結了等,,,2015-10-05,1,,,,,キタニホンエレベーターサービス,0
1379,5410002013193,登記記録の閉鎖等,0,2022-10-04,2022-09-29,有限会社藤本乳業,,有限会社,秋田県,横手市,蛇の崎町７番３３号,,05,203,0130017,,,2022-09-29,清算の結了等,,,2015-10-05,1,,,,,フジモトニュウギョウ,0
1465,6011801026136,登記記録の閉鎖等,0,2022-10-04,2022-09-29,株式会社フィナンシャルサービス・ジャパン,,株式会社,東京都,足立区,千住２丁目２０番地,,13,121,1200034,,,2022-09-29,清算の結了等,,,2015-10-05,1,,,,,フィナンシャルサービスジャパン,0
1471,6012401020099,登記記録の閉鎖等,0,2022-10-04,2022-09-22,株式会社都市・建築設計ダルム,,株式会社,神奈川県,横浜市緑区,寺山町７４５番地１３,,14,113,2260013,,,2022-09-22,清算の結了等,,,2015-10-05,1,,,,,トシケンチクセッケイダルム,0
1476,6013301003441,登記記録の閉鎖等,0,2022-10-04,2022-09-30,株式会社共立製作所,,株式会社,東京都,豊島区,池袋本町４丁目４番１０号,,13,116,1700011,,,2022-09-30,清算の結了等,,,2015-10-05,1,,,,,キョウリツセイサクショ,0
1481,6020001089892,登記記録の閉鎖等,0,2022-10-04,2022-09-30,株式会社海正,,株式会社,静岡県,静岡市清水区,駒越東町１０番６３号,,22,103,4240907,,,2022-09-30,清算の結了等,,,2015-10-05,1,,,,,カイセイ,0
1508,6040001117890,登記記録の閉鎖等,0,2022-10-04,2022-09-14,グランドプロデュース株式会社,,株式会社,埼玉県,入間市,大字仏子３４１番地６－２０１号,,11,225,3580053,,,2022-09-14,清算の結了等,,,2021-04-06,1,,,,,グランドプロデュース,0
1517,6050001039399,登記記録の閉鎖等,0,2022-10-04,2022-09-27,日本ビルシステム茨城株式会社,,株式会社,茨城県,水戸市,中央１丁目２番１５号,,08,201,3100805,,,2022-09-27,清算の結了等,,,2015-10-05,1,,,,,ニホンビルシステムイバラキ,0
1520,6060001032411,登記記録の閉鎖等,0,2022-10-04,2022-09-28,株式会社ＳＫ商事,,株式会社,栃木県,小山市,大字高椅１１７番地,,09,208,3230154,,,2022-09-28,清算の結了等,,,2020-03-24,1,,,,,エスケーショウジ,0
1521,6060002008402,登記記録の閉鎖等,0,2022-10-04,2022-09-27,有限会社マルヤ,,有限会社,栃木県,宇都宮市,簗瀬町２５５５番地６,,09,201,3210933,,,2022-09-27,清算の結了等,,,2015-10-05,1,,,,,マルヤ,0
1523,6060005005396,登記記録の閉鎖等,0,2022-10-04,2022-09-28,特定非営利活動法人サバイバルネット・ライフ,,その他の設立登記法人,栃木県,小山市,大字神鳥谷９３１番地３,,09,208,3230827,,,2022-09-28,清算の結了等,,,2015-10-05,1,,,,,サバイバルネットライフ,0
1533,6100001027365,登記記録の閉鎖等,0,2022-10-04,2022-09-29,株式会社大将印,,株式会社,長野県,松本市,大字島内４６５番地１,,20,202,3900851,,,2022-09-29,清算の結了等,,,2015-10-05,1,,,,,タイショウジルシ,0
1545,6120001159090,登記記録の閉鎖等,0,2022-10-04,2022-09-30,株式会社ＳＰＡＣＥ　ＬＡＢ,,株式会社,大阪府,門真市,本町３９番２６号,,27,223,5710046,,,2022-09-30,清算の結了等,,,2015-10-05,1,,,,,スペースラボ,0
1548,6120001221404,登記記録の閉鎖等,0,2022-10-04,2022-09-30,株式会社サンフィクシス商会,,株式会社,大阪府,大阪市淀川区,西宮原１丁目７番３６号,,27,123,5320004,,,2022-09-30,清算の結了等,,,2019-06-05,1,,,,,サンフィクイスショウカイ,0
1578,6180001043883,登記記録の閉鎖等,0,2022-10-04,2022-09-27,カタール・エル・エヌ・ジー・サービス・エージェンシー株式会社,,株式会社,愛知県,名古屋市中村区,名駅４丁目８番１８号名古屋三井ビルディング北館,,23,105,4500002,,,2022-09-27,清算の結了等,,,2015-10-05,1,,,,,カタールエルエヌジーサービスエージェンシー,0
1589,6180301028238,登記記録の閉鎖等,0,2022-10-04,2022-09-20,株式会社Ｆ・Ｓ・Ｓ,,株式会社,愛知県,みよし市,黒笹町伊保道１０３８番地,,23,236,4700201,,,2022-09-20,清算の結了等,,,2015-10-05,1,,,,,エフエスエス,0
1591,6180302014014,登記記録の閉鎖等,0,2022-10-04,2022-09-26,有限会社ホリコムハウス,,有限会社,愛知県,豊川市,市田町東新屋３２番地１２,,23,207,4420862,,,2022-09-26,清算の結了等,,,2015-10-05,1,,,,,ホリコムハウス,0
1598,6200002010368,登記記録の閉鎖等,0,2022-10-04,2022-09-30,居波陸送有限会社,,有限会社,岐阜県,羽島郡岐南町,上印食４丁目５０番地,,21,302,5016001,,,2022-09-30,清算の結了等,,,2015-10-05,1,,,,,イナミリクソウ,0
1607,6240002035469,登記記録の閉鎖等,0,2022-10-04,2022-09-30,有限会社ネオ・コーヨウ,,有限会社,広島県,呉市,広長浜５丁目２１番９号,,34,202,7370136,,,2022-09-30,清算の結了等,,,2015-10-05,1,,,,,ネオコーヨウ,0
1612,6260001010719,登記記録の閉鎖等,0,2022-10-04,2022-09-30,株式会社ミムラペーパートレード,,株式会社,岡山県,岡山市南区,豊成１丁目８番８号,,33,104,7000942,,,2022-09-30,清算の結了等,,,2015-10-05,1,,,,,ミムラペーパートレード,0
1644,6330002005710,登記記録の閉鎖等,0,2022-10-04,2022-09-22,有限会社華山,,有限会社,熊本県,熊本市西区,城山半田１丁目２番２５号,,43,103,8600064,,,2022-09-22,清算の結了等,,,2015-10-05,1,,,,,カザン,0
1665,6390002006604,登記記録の閉鎖等,0,2022-10-04,2022-09-28,有限会社知的戦略研究所,,有限会社,山形県,天童市,大字久野本１６６３番地の２,,06,210,9940012,,,2022-09-28,清算の結了等,,,2015-10-05,1,,,,,チテキセンリャクケンキュウショ,0
1673,6460002004609,登記記録の閉鎖等,0,2022-10-04,2022-09-29,有限会社丸辰秋元商店,,有限会社,北海道,厚岸郡厚岸町,梅香２丁目５番地,,01,662,0881115,,,2022-09-29,清算の結了等,,,2015-10-05,1,,,,,マルタツアキモトショウテン,0
1690,7010001138641,登記記録の閉鎖等,0,2022-10-04,2022-09-26,株式会社ダイトーケーアイユー,,株式会社,愛知県,刈谷市,銀座３丁目５９番地２レゾンシティ刈谷銀座１５０３号,,23,210,4480845,,,2022-09-26,清算の結了等,,,2015-10-05,1,,,,,ダイトーケーアイユー,0
1701,7010401059181,登記記録の閉鎖等,0,2022-10-04,2022-10-03,株式会社創エンタープライズ,,株式会社,山梨県,甲府市,北口１丁目６番７号,,19,201,4000024,,,2022-10-03,清算の結了等,,,2015-10-05,1,,,,,ソウエンタープライズ,0
1703,7010401078834,登記記録の閉鎖等,0,2022-10-04,2022-09-28,株式会社コスモブレイン,,株式会社,東京都,千代田区,神田錦町３丁目１６番,,13,101,1010054,,,2022-09-28,清算の結了等,,,2015-10-05,1,,,,,コスモブレイン,0
1721,7010802011897,登記記録の閉鎖等,0,2022-10-04,2022-09-28,有限会社彦坂事務センター,,有限会社,東京都,大田区,久が原６丁目１７番７号,,13,111,1460085,,,2022-09-28,清算の結了等,,,2015-10-05,1,,,,,ヒコサカジムセンター,0
1734,7011103008237,登記記録の閉鎖等,0,2022-10-04,2022-09-30,合同会社ＲＨＡ,,合同会社,東京都,新宿区,北新宿１丁目２１番１６号リブシティ新宿弐番館２０５号,,13,104,1690074,,,2022-09-30,清算の結了等,,,2018-09-19,1,,,,,アールエイチエー,0
1750,7012702006333,登記記録の閉鎖等,0,2022-10-04,2022-09-30,有限会社大蔵屋,,有限会社,東京都,東久留米市,大門町１丁目３番３５号,,13,222,2030011,,,2022-09-30,清算の結了等,,,2015-10-05,1,,,,,オオクラヤ,0
1752,7012803001043,登記記録の閉鎖等,0,2022-10-04,2022-09-26,合同会社ＨＭＩＳコーポレーション,,合同会社,東京都,国立市,矢川３丁目２１番地の１１,,13,215,1860015,,,2022-09-26,清算の結了等,,,2015-10-05,1,,,,,エイチエムアイエスコーポレーション,0
1776,7030001007282,登記記録の閉鎖等,0,2022-10-04,2022-09-28,株式会社フチノ,,株式会社,大分県,別府市,大字内竈１２９９番地の１,,44,202,8740011,,,2022-09-28,清算の結了等,,,2015-10-05,1,,,,,フチノ,0
1798,7040002009707,登記記録の閉鎖等,0,2022-10-04,2022-09-27,有限会社日向商会,,有限会社,神奈川県,横浜市神奈川区,大野町１番地２５横浜ポートサイドプレイス１４０５号,,14,102,2210055,,,2022-09-27,清算の結了等,,,2015-10-05,1,,,,,ヒナタショウカイ,0
1805,7070001030999,登記記録の閉鎖等,0,2022-10-04,2022-09-28,中央企画株式会社,,株式会社,群馬県,みどり市,笠懸町阿左美１９１－１,,10,212,3792311,,,2022-09-28,清算の結了等,,,2015-10-05,1,,,,,チュウオウキカク,0
1807,7080001024075,登記記録の閉鎖等,0,2022-10-04,2022-10-03,株式会社ピーチツリー,,株式会社,静岡県,静岡市葵区,千代田４丁目２番１２号,,22,101,4200803,,,2022-10-03,清算の結了等,,,2021-04-01,1,,,,,ピーチツリー,0
1825,7120002077869,登記記録の閉鎖等,0,2022-10-04,2022-09-30,有限会社ティーエスエンジニアリング,,有限会社,大阪府,大阪市西淀川区,千舟２丁目１４－３２－２０８,,27,113,5550013,,,2022-09-30,清算の結了等,,,2015-10-05,1,,,,,ティーエスエンジニアリング,0
1838,7130002014730,登記記録の閉鎖等,0,2022-10-04,2022-09-28,有限会社平塚電気工業,,有限会社,京都府,京都市伏見区,淀樋爪町６０８番地の３,00037421,26,109,6130901,,,2022-09-28,清算の結了等,,,2015-10-05,1,,,,,ヒラツカデンキコウギョウ,0
1844,7140005022382,登記記録の閉鎖等,0,2022-10-04,2022-09-30,特定非営利活動法人交通事故の相談窓口,,その他の設立登記法人,兵庫県,明石市,魚住町西岡３２３番地の１,,28,203,6740084,,,2022-09-30,清算の結了等,,,2015-10-05,1,,,,,コウツウジコノソウダンマドグチ,0
1846,7150002000704,登記記録の閉鎖等,0,2022-10-04,2022-09-30,有限会社近藤商店,,有限会社,奈良県,奈良市,西木辻町１２３番地２ハイツ奈良２０８,00043238,29,201,6308325,,,2022-09-30,清算の結了等,,,2015-10-05,1,,,,,コンドウショウテン,0
1847,7150002006817,登記記録の閉鎖等,0,2022-10-04,2022-09-28,有限会社寿宇治園,,有限会社,奈良県,桜井市,大字河西２４０番地の４,,29,206,6330051,,,2022-09-28,清算の結了等,,,2015-10-05,1,,,,,コトブキウジエン,0
1861,7180302026784,登記記録の閉鎖等,0,2022-10-04,2022-09-20,有限会社栄寿汽船,,有限会社,愛知県,西尾市,東幡豆町引浜１番地,,23,213,4440701,,,2022-09-20,清算の結了等,,,2015-10-05,1,,,,,エイジュウキセン,0
1862,7190001028817,登記記録の閉鎖等,0,2022-10-04,2022-09-28,株式会社Ｂｉｅｎ　Ｓｍｉｌｅ,,株式会社,三重県,松阪市,川井町８３４番地１,,24,204,5150818,,,2022-09-28,清算の結了等,,,2021-11-04,1,,,,,ビィーンスマイル,0
1864,7190003003628,登記記録の閉鎖等,0,2022-10-04,2022-09-27,合同会社高槻,,合同会社,三重県,津市,柳山津興１４７１番地６,,24,201,5140803,,,2022-09-27,清算の結了等,,,2021-03-19,1,,,,,タカツキ,0
1868,7200002021570,登記記録の閉鎖等,0,2022-10-04,2022-09-26,有限会社本田組,,有限会社,岐阜県,土岐市,駄知町２５１４番地の３,,21,212,5095401,,,2022-09-26,清算の結了等,,,2015-10-05,1,,,,,ホンダグミ,0
1871,7230001006207,登記記録の閉鎖等,0,2022-10-04,2022-09-30,株式会社オフィストウセ,,株式会社,富山県,富山市,小杉１７０－１０,,16,201,9398063,,,2022-09-30,清算の結了等,,,2015-10-05,1,,,,,オフィストウセ,0
1872,7230001009630,登記記録の閉鎖等,0,2022-10-04,2022-09-30,株式会社あさ吉,,株式会社,富山県,高岡市,川原本町１番１５号,,16,202,9330943,,,2022-09-30,清算の結了等,,,2015-10-05,1,,,,,アサキチ,0
1874,7240001005125,登記記録の閉鎖等,0,2022-10-04,2022-09-30,瑞光商事株式会社,,株式会社,広島県,広島市安佐北区,可部３丁目２３番１号,,34,106,7310221,,,2022-09-30,合併による解散等,1240001005072,令和４年９月３０日広島市安佐北区可部三丁目２３番１号白石酒造株式会社（1240001005072）に合併し解散,2015-10-05,1,,,,,ズイコウショウジ,0
1880,7260001034403,登記記録の閉鎖等,0,2022-10-04,2022-09-30,株式会社進工業,,株式会社,岡山県,岡山市北区,久米２１４番地１（１０５）,,33,101,7010144,,,2022-09-30,清算の結了等,,,2020-06-10,1,,,,,シンコウギョウ,0
1909,7320002020817,登記記録の閉鎖等,0,2022-10-04,2022-09-30,有限会社太成企画,,有限会社,大分県,中津市,大字加来３７１番地の２,,44,203,8710152,,,2022-09-30,清算の結了等,,,2015-10-05,1,,,,,,0
1912,7330002001460,登記記録の閉鎖等,0,2022-10-04,2022-09-22,有限会社エッチアンドエム通信,,有限会社,熊本県,熊本市南区,近見２丁目８番１８号,,43,104,8614101,,,2022-09-22,清算の結了等,,,2015-10-05,1,,,,,エッチアンドエムツウシン,0
1918,7370001008899,登記記録の閉鎖等,0,2022-10-04,2022-09-30,第一日本オフィスビル株式会社,,株式会社,東京都,品川区,上大崎３丁目１番１号目黒セントラルスクエア１５階,,13,109,1410021,,,2022-09-30,合併による解散等,9010703006326,令和４年９月３０日東京都品川区上大崎三丁目１番１号目黒セントラルスクエア１５階青葉ホールディングス合同会社（9010703006326）に合併し解散,2015-10-05,1,,,,,ダイイチニホンオフィスビル,0
1940,7500002005452,登記記録の閉鎖等,0,2022-10-04,2022-10-03,有限会社はるみ,,有限会社,愛媛県,松山市,古三津５丁目１２５８番地４,,38,201,7918067,,,2022-10-03,清算の結了等,,,2015-10-05,1,,,,,ハルミ,0
1945,8010001138640,登記記録の閉鎖等,0,2022-10-04,2022-09-26,株式会社大東フォーラムシティー,,株式会社,愛知県,刈谷市,銀座３丁目５９番地２レゾンシティ刈谷銀座１５０３号,,23,210,4480845,,,2022-09-26,清算の結了等,,,2015-10-05,1,,,,,ダイトウフォーラムシティー,0
1960,8010005024333,登記記録の閉鎖等,0,2022-10-04,2022-09-30,税理士法人バンブリッジ,,その他の設立登記法人,東京都,千代田区,神田錦町２丁目５番地３０,,13,101,1010054,,,2022-09-30,清算の結了等,,,2015-10-05,1,,,,,バンブリッジ,0
1962,8010102004808,登記記録の閉鎖等,0,2022-10-04,2022-09-29,有限会社トキワ精機,,有限会社,東京都,八王子市,平岡町１０番１号,,13,201,1920061,,,2022-09-29,清算の結了等,,,2015-10-05,1,,,,,トキワセイキ,0
2013,8020001082953,登記記録の閉鎖等,0,2022-10-04,2022-09-26,株式会社ウォーカロング,,株式会社,神奈川県,川崎市高津区,久地２丁目５番２４号,,14,134,2130032,,,2022-09-26,清算の結了等,,,2015-10-05,1,,,,,ウォーカロング,0
2022,8021002046807,登記記録の閉鎖等,0,2022-10-04,2022-09-30,有限会社東山養豚,,有限会社,神奈川県,綾瀬市,早川４９６番地の１,,14,218,2521123,,,2022-09-30,清算の結了等,,,2015-10-05,1,,,,,ヒガシヤマヨウトン,0
2023,8021002066144,登記記録の閉鎖等,0,2022-10-04,2022-09-30,有限会社ノダゲン,,有限会社,神奈川県,横須賀市,池上５丁目５番１４号,,14,201,2380035,,,2022-09-30,清算の結了等,,,2015-10-05,1,,,,,ノダゲン,0
2043,8040001066062,登記記録の閉鎖等,0,2022-10-04,2022-09-22,株式会社東葛塗装センター,,株式会社,千葉県,野田市,山崎貝塚町１９番地の２,,12,208,2780023,,,2022-09-22,清算の結了等,,,2015-10-05,1,,,,,トウカツトソウセンター,0
2064,8080001003516,登記記録の閉鎖等,0,2022-10-04,2022-10-03,株式会社東海美商,,株式会社,静岡県,静岡市葵区,沓谷５丁目５７番２,,22,101,4200816,,,2022-10-03,清算の結了等,,,2015-10-05,1,,,,,トウカイビショウ,0
2066,8080102002301,登記記録の閉鎖等,0,2022-10-04,2022-10-03,有限会社アプト,,有限会社,静岡県,沼津市,庄栄町８番３６号,,22,203,4100047,,,2022-10-03,清算の結了等,,,2015-10-05,1,,,,,アプト,0
2068,8080401012686,登記記録の閉鎖等,0,2022-10-04,2022-09-30,株式会社ＫＳフィルタ,,株式会社,静岡県,浜松市中区,高丘東２丁目１０番８号,,22,131,4338117,,,2022-09-30,清算の結了等,,,2015-10-05,1,,,,,ケイエスフィルタ,0
2073,8100001020112,登記記録の閉鎖等,0,2022-10-04,2022-09-29,サンキ興業株式会社,,株式会社,長野県,諏訪郡下諏訪町,５００２番地２６,,20,361,3930000,,,2022-09-29,清算の結了等,,,2015-10-05,1,,,,,サンキコウギョウ,0
2096,8120003010753,登記記録の閉鎖等,0,2022-10-04,2022-09-22,合同会社ＦＫＡ,,合同会社,大阪府,大阪市北区,西天満５丁目１番１９号,,27,127,5300047,,,2022-09-22,清算の結了等,,,2015-10-05,1,,,,,エフケーエー,0
2103,8120902002074,登記記録の閉鎖等,0,2022-10-04,2022-10-03,有限会社グローバルホーム,,有限会社,大阪府,高槻市,寿町２丁目２番１４号,,27,207,5690826,,,2022-10-03,清算の結了等,,,2015-10-05,1,,,,,グローバルホーム,0
2142,8220001005191,登記記録の閉鎖等,0,2022-10-04,2022-10-03,株式会社能木場正商店,,株式会社,石川県,金沢市,湊２丁目２５番地,,17,201,9200211,,,2022-10-03,清算の結了等,,,2015-10-05,1,,,,,ノキバマサショウテン,0
2161,8290001025092,登記記録の閉鎖等,0,2022-10-04,2022-09-30,株式会社宝広告社,,株式会社,福岡県,福岡市中央区,赤坂１丁目１５番２１号,,40,133,8100042,,,2022-09-30,合併による解散等,5180001097294,令和４年９月１日愛知県津島市東柳原町五丁目５番地１長田広告株式会社（5180001097294）に合併し解散,2015-10-05,1,,,,,タカラコウコクシャ,0
2176,8290003010233,登記記録の閉鎖等,0,2022-10-04,2022-09-28,合同会社ＫＰＶＦ３号,,合同会社,福岡県,福岡市中央区,大名２丁目４番２２号,,40,133,8100041,,,2022-09-28,清算の結了等,,,2020-07-28,1,,,,,ケイピーブイエフサンゴウ,0
2182,8310001005686,登記記録の閉鎖等,0,2022-10-04,2022-09-30,株式会社宝広告社,,株式会社,長崎県,佐世保市,湊町２番１３号宝第一ビル５Ｆ,,42,202,8570055,,,2022-09-30,合併による解散等,5180001097294,令和４年９月１日愛知県津島市東柳原町五丁目５番地１長田広告株式会社（5180001097294）に合併し解散,2015-10-05,1,,,,,タカラコウコクシャ,0
2190,8340001018859,登記記録の閉鎖等,0,2022-10-04,2022-10-03,株式会社イベントファクトリー,,株式会社,鹿児島県,姶良市,西餅田３３５０番地４５,,46,225,8995431,,,2022-10-03,清算の結了等,,,2015-11-09,1,,,,,,0
2203,8370001008931,登記記録の閉鎖等,0,2022-10-04,2022-09-30,第３日本オフイスビル株式会社,00081441,株式会社,東京都,品川区,上大崎３丁目１番１号目黒セントラルスクエア１５階,,13,109,1410021,,,2022-09-30,合併による解散等,9010703006326,令和４年９月３０日東京都品川区上大崎三丁目１番１号目黒セントラルスクエア１５階青葉ホールディングス合同会社（9010703006326）に合併し解散,2015-10-05,1,,,,,ダイサンニホンオフィスビル,0
2239,9010002000261,登記記録の閉鎖等,0,2022-10-04,2022-09-28,有限会社浅沼ビルテクノサービス,,有限会社,東京都,文京区,本郷３丁目４番１７号,,13,105,1130033,,,2022-09-28,清算の結了等,,,2015-10-05,1,,,,,アサヌマビルテクノサービス,0
2254,9010401131327,登記記録の閉鎖等,0,2022-10-04,2022-09-28,株式会社Ｅｎｈａｎｌａｂｏ,,株式会社,東京都,中央区,日本橋堀留町１丁目９番１１号ＮＥＷＳ日本橋堀留町６階,,13,102,1030012,,,2022-09-28,清算の結了等,,,2017-05-15,1,,,,,エンハンラボ,0
2260,9010701007004,登記記録の閉鎖等,0,2022-10-04,2022-10-03,鳥井電器株式会社,,株式会社,東京都,品川区,小山３丁目１１番８号,,13,109,1420062,,,2022-10-03,清算の結了等,,,2015-10-05,1,,,,,トリイデンキ,0
2263,9010802008603,登記記録の閉鎖等,0,2022-10-04,2022-09-21,有限会社耐和製作所,,有限会社,東京都,大田区,多摩川１丁目２２番１８号,,13,111,1460095,,,2022-09-21,清算の結了等,,,2015-10-05,1,,,,,タイワセイサクショ,0
2266,9011001063968,登記記録の閉鎖等,0,2022-10-04,2022-09-27,株式会社トップリーチ,,株式会社,宮城県,仙台市青葉区,本町１丁目６番２５－９０１号,,04,101,9800014,,,2022-09-27,清算の結了等,,,2015-10-05,1,,,,,トップリーチ,0
2275,9011003007898,登記記録の閉鎖等,0,2022-10-04,2022-09-28,合同会社タキオン,,合同会社,東京都,千代田区,永田町２丁目１４番３号,,13,101,1000014,,,2022-09-28,清算の結了等,,,2017-07-28,1,,,,,タキオン,0
2300,9013301000659,登記記録の閉鎖等,0,2022-10-04,2022-09-29,株式会社アムラックストヨタ,,株式会社,東京都,文京区,後楽１丁目４番１８号,,13,105,1120004,,,2022-09-29,清算の結了等,,,2015-10-05,1,,,,,アムラックストヨタ,0
2323,9021001075946,登記記録の閉鎖等,0,2022-10-04,2022-09-30,株式会社ＴＫ,,株式会社,神奈川県,横須賀市,内川１丁目６番８号,,14,201,2390836,,,2022-09-30,清算の結了等,,,2022-05-16,1,,,,,ティーケー,0
2334,9030002049132,登記記録の閉鎖等,0,2022-10-04,2022-09-22,有限会社鈴木設備,,有限会社,埼玉県,三郷市,彦沢１丁目４７番地,,11,237,3410057,,,2022-09-22,清算の結了等,,,2015-10-05,1,,,,,スズキセツビ,0
2353,9060001002262,登記記録の閉鎖等,0,2022-10-04,2022-09-27,株式会社淨邦堂,,株式会社,栃木県,宇都宮市,雀の宮２丁目２番６号,,09,201,3210132,,,2022-09-27,清算の結了等,,,2015-10-05,1,,,,,ジョウホウドウ,0
2359,9070005003140,登記記録の閉鎖等,0,2022-10-04,2022-09-15,天理教甲華分教会,,その他の設立登記法人,群馬県,安中市,松井田町二軒在家９３５番地８,,10,211,3790223,,,2022-09-15,合併による解散等,9070005002159,令和４年９月１５日群馬県高崎市本郷町１６７２番地４天理教群＿分教会（9070005002159）に合併し解散,2015-10-05,1,,,,,テンリキョウコウカブンキョウカイ,0
2360,9080001003556,登記記録の閉鎖等,0,2022-10-04,2022-09-30,株式会社ティーネット,,株式会社,静岡県,静岡市駿河区,大谷３１６０番地の２７,,22,102,4228017,,,2022-09-30,清算の結了等,,,2015-10-05,1,,,,,ティーネット,0
2361,9080001004174,登記記録の閉鎖等,0,2022-10-04,2022-10-03,株式会社野村冷凍機製作所,,株式会社,静岡県,静岡市葵区,相生町４番５号,,22,101,4200838,,,2022-10-03,清算の結了等,,,2015-10-05,1,,,,,ノムラレイトウキセイサクジョ,0
2367,9080101012639,登記記録の閉鎖等,0,2022-10-04,2022-09-30,川名工業株式会社,,株式会社,静岡県,熱海市,下多賀３３８番地の２８,,22,205,4130102,,,2022-09-30,清算の結了等,,,2015-10-05,1,,,,,カワナコウギョウ,0
2402,9120901014466,登記記録の閉鎖等,0,2022-10-04,2022-09-30,パーツワン株式会社,,株式会社,大阪府,高槻市,寺谷町３６番１－１０２号,,27,207,5691024,,,2022-09-30,清算の結了等,,,2015-10-05,1,,,,,パーツワン,0
2419,9140001083856,登記記録の閉鎖等,0,2022-10-04,2022-09-29,株式会社ＦＡＮ,,株式会社,兵庫県,宝塚市,栄町３丁目９番１７－７０３号,,28,214,6650845,,,2022-09-29,清算の結了等,,,2015-10-05,1,,,,,ファン,0
2422,9140001103382,登記記録の閉鎖等,0,2022-10-04,2022-09-29,株式会社芝本商店,,株式会社,兵庫県,加古川市,加古川町備後３３５番地,,28,210,6750032,,,2022-09-29,合併による解散等,8140001042945,令和４年９月２９日兵庫県加古川市加古川町備後３３５番地株式会社ＳＩＣ（8140001042945）に合併し解散,2016-09-09,1,,,,,シバモトショウテン,0
2428,9140003015386,登記記録の閉鎖等,0,2022-10-04,2022-09-29,合同会社ｔｅａｍＣｏｄｅｒｓ,,合同会社,兵庫県,神戸市中央区,新港町８－２新港貿易会館１階,,28,110,6500041,,,2022-09-29,清算の結了等,,,2020-09-17,1,,,,,チームコーダーズ,0
2435,9180001006284,登記記録の閉鎖等,0,2022-10-04,2022-09-30,株式会社キイストン,,株式会社,愛知県,名古屋市港区,七番町５丁目１番地１６,,23,111,4550001,,,2022-09-30,清算の結了等,,,2015-10-05,1,,,,,キイストン,0
2439,9180001114888,登記記録の閉鎖等,0,2022-10-04,2022-09-30,グリフォン株式会社,,株式会社,愛知県,清須市,新清洲５丁目６番地３,,23,233,4520943,,,2022-09-30,清算の結了等,,,2015-10-05,1,,,,,グリフォン,0
2441,9180001141825,登記記録の閉鎖等,0,2022-10-04,2022-09-30,グローシックス・プロパティ株式会社,,株式会社,愛知県,北名古屋市,熊之庄十二社１３１番地,,23,234,4810006,,,2022-09-30,清算の結了等,,,2020-07-07,1,,,,,グローシックスプロパティ,0
2446,9180002047220,登記記録の閉鎖等,0,2022-10-04,2022-09-29,有限会社ウインドタイム,,有限会社,愛知県,名古屋市熱田区,神宮３丁目７番２５号,,23,109,4560031,,,2022-09-29,清算の結了等,,,2015-10-05,1,,,,,ウインドタイム,0
2466,9270001004865,登記記録の閉鎖等,0,2022-10-04,2022-10-03,株式会社Ｈ＆Ｍ,,株式会社,鳥取県,米子市,一部３９０番地,,31,202,6893533,,,2022-10-03,清算の結了等,,,2015-10-05,1,,,,,エイチアンドエム,0
2467,9280005005611,登記記録の閉鎖等,0,2022-10-04,2022-10-03,学校法人隠岐女子文化学院,,その他の設立登記法人,島根県,隠岐郡隠岐の島町,栄町３４５番地,,32,528,6850011,,,2022-10-03,清算の結了等,,,2015-10-05,1,,,,,オキジョシブンカガクイン,0
2476,9290001083453,登記記録の閉鎖等,0,2022-10-04,2022-09-28,株式会社Ｆｉｎｅｍｏ,,株式会社,福岡県,糟屋郡粕屋町,長者原東２丁目４番８－７０６号エイルヴィラ空港東,,40,349,8112317,,,2022-09-28,清算の結了等,,,2018-11-29,1,,,,,ファイモ,0
2479,9290002025603,登記記録の閉鎖等,0,2022-10-04,2022-09-28,繁昌商貿有限会社,,有限会社,福岡県,福岡市中央区,清川２丁目１９－２８号,,40,133,8100005,,,2022-09-28,清算の結了等,,,2015-10-05,1,,,,,ハンジョウショウボウ,0
2482,9290005016525,登記記録の閉鎖等,0,2022-10-04,2022-09-30,一般社団法人ＭＩＵスクール,,その他の設立登記法人,福岡県,福岡市南区,那の川２丁目４番２８－１００７号,,40,134,8150081,,,2022-09-30,清算の結了等,,,2017-08-03,1,,,,,ミュウスクール,0
2492,9310005004312,登記記録の閉鎖等,0,2022-10-04,2022-09-27,協同組合ショッピングセンターサンコー,,その他の設立登記法人,長崎県,諫早市,永昌東町１０番１号,,42,204,8540071,,,2022-09-27,清算の結了等,,,2015-10-05,1,,,,,ショッピングセンターサンコー,0
2497,9330002027405,登記記録の閉鎖等,0,2022-10-04,2022-09-30,有限会社沙蔵,,有限会社,熊本県,八代郡氷川町,宮原５８８番地の２,,43,468,8694602,,,2022-09-30,合併による解散等,1330002028872,令和４年９月３０日熊本県天草市久玉町５７１６番地の５株式会社ニーナム（1330002028872）に合併し解散,2015-10-05,1,,,,,サクラ,0
2506,9370001008947,登記記録の閉鎖等,0,2022-10-04,2022-09-30,第二日本オフイスビル株式会社,,株式会社,東京都,品川区,上大崎３丁目１番１号目黒セントラルスクエア１５階,,13,109,1410021,,,2022-09-30,合併による解散等,9010703006326,令和４年９月３０日東京都品川区上大崎三丁目１番１号目黒セントラルスクエア１５階青葉ホールディングス合同会社（9010703006326）に合併し解散,2015-10-05,1,,,,,ダイニニホンオフイスビル,0
2515,9440001005425,登記記録の閉鎖等,0,2022-10-04,2022-09-20,株式会社ＯｃＴａ,,株式会社,埼玉県,さいたま市大宮区,宮町３丁目１番地６（６０２号室）,,11,103,3300802,,,2022-09-20,清算の結了等,,,2015-10-05,1,,,,,オクタ,0
