sequenceNumber,corporateNumber,process,correct,updateDate,changeDate,name,nameImageId,kind,prefectureName,cityName,streetNumber,addressImageId,prefectureCode,cityCode,postCode,addressOutside,addressOutsideImageId,closeDate,closeCause,successorCorporateNumber,changeCause,assignmentDate,latest,enName,enPrefectureName,enCityName,enAddressOutside,furigana,hihyoji
6,1010001194896,登記記録の閉鎖等,0,2021-09-28,2021-09-01,株式会社ＳＨＲ,,株式会社,愛知県,安城市,三河安城町１丁目８番地４,,23,212,4460056,,,2021-09-01,合併による解散等,7180301016951,令和３年９月１日愛知県安城市三河安城町一丁目８番地４株式会社スギ薬局（7180301016951）に合併し解散,2018-09-21,1,,,,,エスエイチアール,0
12,1010003025406,登記記録の閉鎖等,0,2021-09-28,2021-09-21,合同会社ＵＳプロパティファイナンス４号,,合同会社,東京都,中央区,日本橋兜町３番１１号三田証券株式会社内,,13,102,1030026,,,2021-09-21,清算の結了等,,,2017-05-26,1,,,,,ユーエスプロパティーズ,0
35,1010701023875,登記記録の閉鎖等,0,2021-09-28,2021-09-22,イタリア撫子株式会社,,株式会社,東京都,品川区,西品川３丁目１６番２６号ケイハウスＢ号室,,13,109,1410033,,,2021-09-22,清算の結了等,,,2015-10-05,1,,,,,イタリアナデシコ,0
60,1011005005899,登記記録の閉鎖等,0,2021-09-28,2021-09-22,一般社団法人ミオンパシー協会,,その他の設立登記法人,神奈川県,茅ヶ崎市,松が丘２丁目１３番５３号ヒルサイドビル２Ｆ,,14,207,2530025,,,2021-09-22,清算の結了等,,,2015-10-05,1,,,,,,0
83,1012702003518,登記記録の閉鎖等,0,2021-09-28,2021-09-24,有限会社増田電機商会,,有限会社,東京都,東村山市,本町２丁目２２番地１３,,13,213,1890014,,,2021-09-24,清算の結了等,,,2015-10-05,1,,,,,マスダデンキショウカイ,0
96,1020002018467,登記記録の閉鎖等,0,2021-09-28,2021-09-21,有限会社金子商会,,有限会社,神奈川県,横浜市港南区,最戸１丁目１４番３１号,,14,111,2330008,,,2021-09-21,清算の結了等,,,2015-10-05,1,,,,,カネコショウカイ,0
121,1040001048422,登記記録の閉鎖等,0,2021-09-28,2021-09-08,株式会社エコ．サクラ,,株式会社,千葉県,八千代市,大和田５１番７号,,12,221,2760045,,,2021-09-08,清算の結了等,,,2015-10-05,1,,,,,エコサクラ,0
130,1040002075622,登記記録の閉鎖等,0,2021-09-28,2021-09-15,有限会社吉田技工,,有限会社,千葉県,市原市,椎津５６０番地１,,12,219,2990118,,,2021-09-15,清算の結了等,,,2015-10-05,1,,,,,ヨシダギコウ,0
136,1060005006960,登記記録の閉鎖等,0,2021-09-28,2021-07-21,天理教赤見分教会,,その他の設立登記法人,栃木県,佐野市,赤見町３５０９番地１,,09,204,3270104,,,2021-07-21,合併による解散等,9060005005039,令和３年７月２１日栃木県小山市城山町一丁目６番３号天理教中根大教会（9060005005039）に合併し解散,2015-10-05,1,,,,,テンリキョウアカミブンキョウカイ,0
175,1120103004109,登記記録の閉鎖等,0,2021-09-28,2021-09-22,タキダニドットワークス合同会社,,合同会社,大阪府,河内長野市,木戸３丁目２９番１４号,,27,216,5860001,,,2021-09-22,清算の結了等,,,2021-04-02,1,,,,,タキダニドットワークス,0
176,1120901011553,登記記録の閉鎖等,0,2021-09-28,2021-09-24,株式会社土井工務店,,株式会社,大阪府,高槻市,古曽部町３丁目２番２号,,27,207,5691115,,,2021-09-24,清算の結了等,,,2015-10-05,1,,,,,ドイコウムテン,0
182,1122001006104,登記記録の閉鎖等,0,2021-09-28,2021-09-22,株式会社広尚,,株式会社,大阪府,東大阪市,大蓮東４丁目２番９号,,27,227,5770824,,,2021-09-22,清算の結了等,,,2015-10-05,1,,,,,ヒロショウ,0
205,1170005006611,登記記録の閉鎖等,0,2021-09-28,2021-09-27,一般財団法人純清足長育英会,,その他の設立登記法人,和歌山県,和歌山市,紀三井寺７４２番地,,30,201,6410012,,,2021-09-27,清算の結了等,,,2017-09-25,1,,,,,ジュンセイアシナガイクエイカイ,0
206,1180001072268,登記記録の閉鎖等,0,2021-09-28,2021-09-21,中日本マルチメディア放送株式会社,,株式会社,愛知県,名古屋市中区,千代田２丁目１５番１８号,,23,106,4600012,,,2021-09-21,清算の結了等,,,2015-10-05,1,,,,,ナカニホンマルチメディアホウソウ,0
223,1180302026253,登記記録の閉鎖等,0,2021-09-28,2021-09-24,有限会社大徳化成,,有限会社,愛知県,西尾市,平坂町吉山２１番地１,,23,213,4440305,,,2021-09-24,清算の結了等,,,2015-10-05,1,,,,,,0
260,1330001001987,登記記録の閉鎖等,0,2021-09-28,2021-08-02,株式会社三笈,00097296,株式会社,熊本県,熊本市南区,流通団地１丁目２９番地,,43,104,8620967,,,2021-08-02,合併による解散等,1330001004635,令和３年８月１日熊本市南区流通団地一丁目２９番地株式会社明河洋行（1330001004635）に合併し解散,2015-10-05,1,,,,,サンキュウ,0
272,1360002002288,登記記録の閉鎖等,0,2021-09-28,2021-09-17,沖縄インターネット放送有限会社,,有限会社,沖縄県,那覇市,安謝１丁目２２番１７号苺ビル,,47,201,9000003,,,2021-09-17,清算の結了等,,,2015-10-05,1,,,,,オキナワインターネットホウソウ,0
283,1380003004307,登記記録の閉鎖等,0,2021-09-28,2021-09-21,合同会社アムリタ,,合同会社,福島県,郡山市,横塚１丁目１５番２０号,,07,203,9638803,,,2021-09-21,清算の結了等,,,2018-08-09,1,,,,,アムリタ,0
297,1470001011832,登記記録の閉鎖等,0,2021-09-28,2021-08-02,株式会社エレナサービス,,株式会社,香川県,高松市,上福岡町２０１７番地２,,37,201,7600077,,,2021-08-02,合併による解散等,6470001002422,令和３年８月１日香川県高松市上福岡町２０１７番地２株式会社エレナ（6470001002422）に合併し解散,2015-10-05,1,,,,,エレナサービス,0
302,1480005004914,登記記録の閉鎖等,0,2021-09-28,2021-09-16,医療法人健生会,,その他の設立登記法人,徳島県,海部郡牟岐町,大字牟岐浦字浜崎１２番地１,,36,383,7750011,,,2021-09-16,清算の結了等,,,2015-10-05,1,,,,,ケンセイカイ,0
312,2010001176729,登記記録の閉鎖等,0,2021-09-28,2021-09-22,株式会社ＴＧ,,株式会社,広島県,福山市,沼隈町大字常石１０８３番地,,34,207,7200313,,,2021-09-22,清算の結了等,,,2016-07-05,1,,,,,ティージー,0
344,2010701020178,登記記録の閉鎖等,0,2021-09-28,2021-09-27,ハイブリッジ株式会社,,株式会社,東京都,品川区,南大井５丁目９番１７号,,13,109,1400013,,,2021-09-27,清算の結了等,,,2015-10-05,1,,,,,ハイブリッジ,0
345,2010701032652,登記記録の閉鎖等,0,2021-09-28,2021-09-22,ギャラリー株式会社,,株式会社,東京都,品川区,小山３丁目６番１５号,,13,109,1420062,,,2021-09-22,清算の結了等,,,2016-06-30,1,,,,,ギャラリー,0
360,2011001071779,登記記録の閉鎖等,0,2021-09-28,2021-09-24,株式会社ＦＡＫＥ　ＴＯＫＹＯ,,株式会社,東京都,渋谷区,神宮前６丁目２３番１２号原宿館３０ビル,,13,113,1500001,,,2021-09-24,清算の結了等,,,2015-10-05,1,,,,,,0
363,2011001124066,登記記録の閉鎖等,0,2021-09-28,2021-09-24,株式会社Ｈｅｒｏｅｓ　Ｄｉｎｉｎｇ,,株式会社,東京都,渋谷区,渋谷１丁目１３番５号大協渋谷ビル７Ｆ,,13,113,1500002,,,2021-09-24,清算の結了等,,,2018-09-06,1,,,,,ヒーローズダイニング,0
378,2011203002210,登記記録の閉鎖等,0,2021-09-28,2021-09-21,エヌケイ合同会社,,合同会社,東京都,中野区,野方４丁目８番１２号,,13,114,1650027,,,2021-09-21,清算の結了等,,,2015-10-05,1,,,,,エヌケイ,0
418,2030001007980,登記記録の閉鎖等,0,2021-09-28,2021-09-08,株式会社マルイシフーズ,,株式会社,埼玉県,さいたま市北区,吉野町２丁目２７７番地１,,11,102,3310811,,,2021-09-08,清算の結了等,,,2015-10-05,1,,,,,マルイシフーズ,0
428,2040001053388,登記記録の閉鎖等,0,2021-09-28,2021-09-14,株式会社栄光,,株式会社,千葉県,木更津市,犬成９６５番地,,12,206,2920033,,,2021-09-14,清算の結了等,,,2015-10-05,1,,,,,エイコウ,0
448,2070001007614,登記記録の閉鎖等,0,2021-09-28,2021-09-22,武井土建株式会社,,株式会社,群馬県,高崎市,若松町３３０番地,,10,202,3700836,,,2021-09-22,清算の結了等,,,2015-10-05,1,,,,,タケイドケン,0
453,2080001017884,登記記録の閉鎖等,0,2021-09-28,2021-09-27,株式会社ホットイートカンパニー,,株式会社,静岡県,静岡市駿河区,池田８６９番地,,22,102,4228005,,,2021-09-27,清算の結了等,,,2015-10-05,1,,,,,,0
490,2130005000724,登記記録の閉鎖等,0,2021-09-28,2021-08-04,天理教敬善分教会,,その他の設立登記法人,京都府,京都市北区,小山東玄以町８番地の４,,26,101,6038104,,,2021-08-04,合併による解散等,6130005000720,令和３年８月４日京都市南区吉祥院高畑町５０番地天理教敬道分教会（6130005000720）に合併し解散,2015-10-05,1,,,,,テンリキョウケイゼンブンキョウカイ,0
502,2170002003593,登記記録の閉鎖等,0,2021-09-28,2021-09-27,有限会社丸美商店,,有限会社,和歌山県,和歌山市,紀三井寺１番地の１０１,,30,201,6410012,,,2021-09-27,清算の結了等,,,2015-10-05,1,,,,,マルミショウテン,0
513,2180003018929,登記記録の閉鎖等,0,2021-09-28,2021-09-22,合同会社ハート,,合同会社,愛知県,名古屋市中区,栄５丁目２６番３６号ＧＳ２－７Ｆ,,23,106,4600008,,,2021-09-22,清算の結了等,,,2018-05-14,1,,,,,ハート,0
517,2200001030040,登記記録の閉鎖等,0,2021-09-28,2021-09-24,株式会社成豊,,株式会社,岐阜県,岐阜市,六条江東１丁目１２番２５号,,21,201,5008356,,,2021-09-24,清算の結了等,,,2015-10-05,1,,,,,セイホウ,0
519,2200002023316,登記記録の閉鎖等,0,2021-09-28,2021-09-24,有限会社サン,,有限会社,岐阜県,中津川市,駒場１２５６番地の１,,21,206,5080011,,,2021-09-24,清算の結了等,,,2015-10-05,1,,,,,サン,0
520,2200003004562,登記記録の閉鎖等,0,2021-09-28,2021-09-27,合同会社Ｔ＆Ｓ,,合同会社,岐阜県,羽島市,江吉良町字東川原１０４６番地１,,21,209,5016236,,,2021-09-27,清算の結了等,,,2019-08-08,1,,,,,ティーアンドエス,0
522,2210002009231,登記記録の閉鎖等,0,2021-09-28,2021-09-24,有限会社クボタ住研,,有限会社,福井県,坂井市,春江町上小森第１号６番地８,,18,210,9190405,,,2021-09-24,清算の結了等,,,2015-10-05,1,,,,,クボタジュウケン,0
524,2240001025854,登記記録の閉鎖等,0,2021-09-28,2021-09-24,株式会社極楽寺,,株式会社,広島県,呉市,三条２丁目１０番１号,,34,202,7370821,,,2021-09-24,清算の結了等,,,2015-10-05,1,,,,,ゴクラクジ,0
536,2270003001223,登記記録の閉鎖等,0,2021-09-28,2021-09-24,グローバルＳＫ合同会社,,合同会社,鳥取県,米子市,東福原８丁目７－１４－１０１,,31,202,6830802,,,2021-09-24,清算の結了等,,,2020-06-29,1,,,,,グローバルエスケイ,0
548,2290003005156,登記記録の閉鎖等,0,2021-09-28,2021-09-06,合同会社ウイングＴ,,合同会社,福岡県,久留米市,荒木町白口１６０３番地６,,40,203,8300062,,,2021-09-06,清算の結了等,,,2015-10-05,1,,,,,ウィングティ,0
549,2290005000411,登記記録の閉鎖等,0,2021-09-28,2021-08-04,天理教友丘分教会,00093784,その他の設立登記法人,福岡県,福岡市城南区,友丘４丁目１５番８号,,40,136,8140112,,,2021-08-04,合併による解散等,8290805003203,令和３年７月１９日北九州市門司区高田一丁目５番１１号天理教博門分教会（8290805003203）に合併し解散,2015-10-05,1,,,,,,0
585,2380001031905,登記記録の閉鎖等,0,2021-09-28,2021-09-17,株式会社東聖丸和工業,,株式会社,福島県,郡山市,日和田町字竹ノ内３１番地の４,,07,203,9630534,,,2021-09-17,清算の結了等,,,2021-06-04,1,,,,,トウセイマルワコウギョウ,0
592,2390001012664,登記記録の閉鎖等,0,2021-09-28,2021-09-21,株式会社ＡＬＬ　ＦＯＯＤ’Ｓ,,株式会社,山形県,山形市,千代田９番地２,,06,201,9900855,,,2021-09-21,清算の結了等,,,2015-10-05,1,,,,,,0
597,2420001010689,登記記録の閉鎖等,0,2021-09-28,2021-08-03,ダイヘン青森株式会社,,株式会社,青森県,弘前市,大字岩賀１丁目５番地の１,,02,202,0368073,,,2021-08-03,合併による解散等,4120101043279,令和３年７月１日大阪府泉大津市式内町２番３９号ダイヘンヒューズ株式会社（4120101043279）に合併し解散,2015-10-05,1,,,,,ダイヘンアオモリ,0
625,3010003017995,登記記録の閉鎖等,0,2021-09-28,2021-09-21,ＭＴキャピタル合同会社,,合同会社,東京都,中央区,日本橋兜町３番１１号三田証券内,,13,102,1030026,,,2021-09-21,清算の結了等,,,2015-10-05,1,,,,,エムティーキャピタル,0
648,3011001131714,登記記録の閉鎖等,0,2021-09-28,2021-07-13,ＧＭＯモビリティクラウド株式会社,,株式会社,東京都,渋谷区,桜丘町２６番１号セルリアンタワー,,13,113,1500031,,,2021-07-13,合併による解散等,7011001037734,令和３年７月１日東京都渋谷区桜丘町２６番１号セルリアンタワーＧＭＯグローバルサイン・ホールディングス株式会社（7011001037734）と合併し解散,2020-01-15,1,,,,,ジーエムオーモビリティクラウド,0
652,3011003002269,登記記録の閉鎖等,0,2021-09-28,2021-09-24,合同会社ラフィーネ,,合同会社,東京都,渋谷区,渋谷２丁目７番１４号中村ビル３０２,,13,113,1500002,,,2021-09-24,清算の結了等,,,2015-10-05,1,,,,,ラフィーネ,0
657,3011101039790,登記記録の閉鎖等,0,2021-09-28,2021-09-08,株式会社インター・ユーラシア,,株式会社,東京都,新宿区,高田馬場２丁目１４番２号,,13,104,1690075,,,2021-09-08,清算の結了等,,,2015-10-05,1,,,,,インターユーラシア,0
661,3011101089076,登記記録の閉鎖等,0,2021-09-28,2021-09-22,株式会社やまとごころキャリア,,株式会社,東京都,江東区,亀戸７丁目２４番５号,,13,108,1360071,,,2021-09-22,合併による解散等,1011101078139,令和３年９月１日東京都千代田区飯田橋一丁目７番１０号株式会社やまとごころキャリア（1011101078139）に合併し解散,2019-10-03,1,,,,,ヤマトゴコロキャリア,0
671,3012402005408,登記記録の閉鎖等,0,2021-09-28,2021-09-21,有限会社ピカットケイ,,有限会社,東京都,小金井市,前原町２丁目１４番１４号,,13,210,1840013,,,2021-09-21,清算の結了等,,,2015-10-05,1,,,,,ピカットケイ,0
674,3012802001551,登記記録の閉鎖等,0,2021-09-28,2021-09-13,有限会社ティーエスクリーン,,有限会社,東京都,武蔵村山市,伊奈平５丁目４０番地の２,,13,223,2080023,,,2021-09-13,清算の結了等,,,2015-10-05,1,,,,,ティーエスクリーン,0
679,3020001021206,登記記録の閉鎖等,0,2021-09-28,2021-09-22,長根電設株式会社,,株式会社,神奈川県,横浜市港北区,小机町１８８７番地,,14,109,2220036,,,2021-09-22,清算の結了等,,,2015-10-05,1,,,,,ナガネデンセツ,0
699,3021003003902,登記記録の閉鎖等,0,2021-09-28,2021-09-15,合同会社ＣｕｂｅＴｈｉｎｋ,,合同会社,神奈川県,逗子市,小坪５丁目１５番１号,,14,208,2490008,,,2021-09-15,清算の結了等,,,2015-10-05,1,,,,,キューブシンク,0
712,3040001014356,登記記録の閉鎖等,0,2021-09-28,2021-09-14,金光商事株式会社,,株式会社,千葉県,習志野市,谷津４丁目３番１４号,,12,216,2750026,,,2021-09-14,清算の結了等,,,2015-10-05,1,,,,,カネミツショウジ,0
715,3040001096320,登記記録の閉鎖等,0,2021-09-28,2021-09-15,株式会社ティー・エス・ティー,,株式会社,千葉県,柏市,西原５丁目９番５１号,,12,217,2770885,,,2021-09-15,清算の結了等,,,2016-08-02,1,,,,,ティーエスティー,0
725,3080001019748,登記記録の閉鎖等,0,2021-09-28,2021-09-24,株式会社グリーン,,株式会社,静岡県,島田市,栄町２番の１島田駅北パーキングビルＣ号,,22,209,4270028,,,2021-09-24,清算の結了等,,,2015-10-05,1,,,,,グリーン,0
743,3110001001925,登記記録の閉鎖等,0,2021-09-28,2021-09-17,株式会社高洋商事,,株式会社,新潟県,新潟市西区,寺尾台３丁目２番４０号,,15,107,9502063,,,2021-09-17,清算の結了等,,,2015-10-05,1,,,,,コウヨウショウジ,0
750,3120001095173,登記記録の閉鎖等,0,2021-09-28,2021-09-21,株式会社インターセル,,株式会社,大阪府,大阪市中央区,船越町２丁目４番６号,,27,128,5400036,,,2021-09-21,清算の結了等,,,2015-10-05,1,,,,,インターセル,0
759,3120001202828,登記記録の閉鎖等,0,2021-09-28,2021-09-15,ＥＣＬＡＴ株式会社,,株式会社,兵庫県,西宮市,甲子園口１丁目１０番３１－１０３号,,28,204,6638113,,,2021-09-15,合併による解散等,2140003011037,令和３年９月１日神戸市中央区京町７９番地日本ビルヂング４０９株式会社グランディル（2140003011037）に合併し解散,2017-01-06,1,,,,,エクラ,0
772,3120005008288,登記記録の閉鎖等,0,2021-09-28,2021-09-27,特定非営利活動法人生活者運動ネットワーク・サン,,その他の設立登記法人,大阪府,大阪市旭区,赤川２丁目１７番１１号,,27,117,5350005,,,2021-09-27,清算の結了等,,,2015-10-05,1,,,,,セイカツシャウンドウネットワークサン,0
792,3140002055091,登記記録の閉鎖等,0,2021-09-28,2021-09-17,有限会社勇建設,,有限会社,兵庫県,三田市,狭間が丘４丁目２番地１,,28,219,6691545,,,2021-09-17,清算の結了等,,,2015-10-05,1,,,,,イサムケンセツ,0
803,3170001005169,登記記録の閉鎖等,0,2021-09-28,2021-09-17,和興開発株式会社,,株式会社,和歌山県,和歌山市,六十谷８６番地の３,,30,201,6408482,,,2021-09-17,清算の結了等,,,2015-10-05,1,,,,,ワコウカイハツ,0
812,3180001111998,登記記録の閉鎖等,0,2021-09-28,2021-09-24,株式会社金子建築,,株式会社,愛知県,名古屋市天白区,梅が丘４丁目８０４番地の３,,23,116,4680004,,,2021-09-24,清算の結了等,,,2015-10-05,1,,,,,カネコケンチク,0
834,3210001013332,登記記録の閉鎖等,0,2021-09-28,2021-09-21,株式会社メツキ片岡,,株式会社,福井県,鯖江市,下河端町第４号９番地１,,18,207,9160038,,,2021-09-21,清算の結了等,,,2015-10-05,1,,,,,メツキカタオカ,0
835,3220001006599,登記記録の閉鎖等,0,2021-09-28,2021-09-22,松崎木材株式会社,,株式会社,石川県,金沢市,横川５丁目３３４番地,,17,201,9218163,,,2021-09-22,清算の結了等,,,2015-10-05,1,,,,,マツザキモクザイ,0
846,3240005010950,登記記録の閉鎖等,0,2021-09-28,2021-07-15,天理教寶道分教会,,その他の設立登記法人,広島県,尾道市,長江３丁目２番１号,,34,205,7220046,,,2021-07-15,合併による解散等,6011505000362,令和３年７月６日東京都荒川区西尾久一丁目２５番２２号天理教寶神分教会（6011505000362）に合併し解散,2015-10-05,1,,,,,テンリキョウタカラミチブンキョウカイ,0
870,3340002017947,登記記録の閉鎖等,0,2021-09-28,2021-09-13,有限会社ためいけ,,有限会社,鹿児島県,いちき串木野市,大里５４１５番地２,,46,219,8992103,,,2021-09-13,清算の結了等,,,2015-10-05,1,,,,,タメイケ,0
880,3360005004528,登記記録の閉鎖等,0,2021-09-28,2021-09-17,特定非営利活動法人沖縄県環境カウンセラー協議会,,その他の設立登記法人,沖縄県,那覇市,識名３丁目１８番３３号,,47,201,9020078,,,2021-09-17,清算の結了等,,,2015-10-05,1,,,,,オキナワケンカンキョウカウンセラーキョウギカイ,0
930,4010501033287,登記記録の閉鎖等,0,2021-09-28,2021-09-17,ファストブレイン株式会社,,株式会社,東京都,新宿区,西新宿７丁目１７番７－５Ｆ,,13,104,1600023,,,2021-09-17,清算の結了等,,,2015-10-05,1,,,,,,0
937,4010901029348,登記記録の閉鎖等,0,2021-09-28,2021-09-22,株式会社リゾートコミュニケーションデザイン,,株式会社,東京都,世田谷区,若林４丁目２０番１２号,,13,112,1540023,,,2021-09-22,清算の結了等,,,2015-10-05,1,,,,,リゾートコミュニケーションデザイン,0
943,4011001122175,登記記録の閉鎖等,0,2021-09-28,2021-09-13,株式会社ＫＫＴＹ,,株式会社,埼玉県,川口市,柳崎１丁目１６番２３号,,11,203,3330861,,,2021-09-13,清算の結了等,,,2018-05-15,1,,,,,ケーケーティーワイ,0
954,4011003006260,登記記録の閉鎖等,0,2021-09-28,2021-09-02,シンザン合同会社,,合同会社,東京都,渋谷区,代々木４丁目５番１号２階,,13,113,1510053,,,2021-09-02,清算の結了等,,,2015-10-05,1,,,,,シンザン,0
964,4011102022415,登記記録の閉鎖等,0,2021-09-28,2021-09-21,有限会社アペルト,,有限会社,東京都,新宿区,西落合４丁目４番１７号,,13,104,1610031,,,2021-09-21,清算の結了等,,,2015-10-05,1,,,,,アペルト,0
978,4012401025554,登記記録の閉鎖等,0,2021-09-28,2021-09-27,株式会社アルファライン,,株式会社,東京都,府中市,白糸台２丁目１番地の６ベルテ武蔵野台３０２,,13,206,1830011,,,2021-09-27,清算の結了等,,,2015-10-05,1,,,,,アルファライン,0
990,4013302001834,登記記録の閉鎖等,0,2021-09-28,2021-09-21,有限会社エムアイティーエー,,有限会社,東京都,豊島区,東池袋２丁目１２番１１号,,13,116,1700013,,,2021-09-21,清算の結了等,,,2015-10-05,1,,,,,エムアイティーエー,0
1000,4020002103456,登記記録の閉鎖等,0,2021-09-28,2021-09-22,有限会社夏乃商事,,有限会社,神奈川県,川崎市幸区,堀川町６６番２号,,14,132,2120013,,,2021-09-22,清算の結了等,,,2015-10-05,1,,,,,ナツノショウジ,0
1004,4020003015238,登記記録の閉鎖等,0,2021-09-28,2021-09-09,合同会社Ｆｏｕｒ－ｌｅａｆ,,合同会社,神奈川県,横浜市保土ケ谷区,峰岡町２丁目１９３番地,,14,106,2400064,,,2021-09-09,清算の結了等,,,2018-11-29,1,,,,,フォーリーフ,0
1013,4030001055516,登記記録の閉鎖等,0,2021-09-28,2021-09-15,株式会社プロスパー,,株式会社,埼玉県,川越市,大字上戸２２８番地５,,11,201,3500816,,,2021-09-15,清算の結了等,,,2015-10-05,1,,,,,プロスパー,0
1018,4030001099018,登記記録の閉鎖等,0,2021-09-28,2021-09-14,日本ラミネートフィルム販売株式会社,,株式会社,埼玉県,さいたま市南区,白幡４丁目５番１号,,11,108,3360022,,,2021-09-14,清算の結了等,,,2015-10-05,1,,,,,,0
1052,4070002023897,登記記録の閉鎖等,0,2021-09-28,2021-09-22,有限会社大伊商店,,有限会社,群馬県,桐生市,相生町１丁目６３３番地１１,,10,203,3760011,,,2021-09-22,清算の結了等,,,2015-10-05,1,,,,,オオイショウテン,0
1060,4080102008269,登記記録の閉鎖等,0,2021-09-28,2021-09-22,山静油脂有限会社,,有限会社,静岡県,伊豆の国市,長岡２００番地,,22,225,4102211,,,2021-09-22,清算の結了等,,,2015-10-05,1,,,,,サンセイユシ,0
1061,4080401003854,登記記録の閉鎖等,0,2021-09-28,2021-09-22,株式会社ニシメディカル,,株式会社,静岡県,浜松市東区,大島町１５４５番地,,22,132,4313112,,,2021-09-22,清算の結了等,,,2015-10-05,1,,,,,ニシメディカル,0
1076,4120001148921,登記記録の閉鎖等,0,2021-09-28,2021-09-14,株式会社アオノギ,,株式会社,大阪府,枚方市,宇山東町８－１２,,27,210,5731136,,,2021-09-14,清算の結了等,,,2015-10-05,1,,,,,アオノギ,0
1096,4120902018784,登記記録の閉鎖等,0,2021-09-28,2021-09-24,有限会社ゼンインタナショナル,,有限会社,大阪府,豊中市,中桜塚３丁目７番２５号,,27,203,5610881,,,2021-09-24,清算の結了等,,,2015-10-05,1,,,,,ゼンインタナショナル,0
1099,4130001041027,登記記録の閉鎖等,0,2021-09-28,2021-09-24,北近畿整備株式会社,,株式会社,京都府,福知山市,字萩原小字冷田６５８番地,,26,201,6200822,,,2021-09-24,合併による解散等,4130001016152,令和３年９月２１日京都市伏見区横大路一本木２７番９号関西急送株式会社（4130001016152）に合併し解散,2015-10-05,1,,,,,キタキンキセイビ,0
1102,4130002026142,登記記録の閉鎖等,0,2021-09-28,2021-09-22,有限会社エフエムエー,,有限会社,京都府,宇治市,大久保町西ノ端１番地の２３,,26,204,6110033,,,2021-09-22,清算の結了等,,,2015-10-05,1,,,,,エフエムエー,0
1146,4230001010392,登記記録の閉鎖等,0,2021-09-28,2021-09-22,立山電機株式会社,,株式会社,富山県,高岡市,野村１６８８番地,,16,202,9330014,,,2021-09-22,清算の結了等,,,2015-10-05,1,,,,,,0
1150,4240002047078,登記記録の閉鎖等,0,2021-09-28,2021-09-24,有限会社蜷川鉄工所,00001620,有限会社,広島県,府中市,阿字町１６６６番地の１,,34,208,7293212,,,2021-09-24,清算の結了等,,,2015-10-05,1,,,,,ニナガワテッコウショ,0
1174,4290802021384,登記記録の閉鎖等,0,2021-09-28,2021-09-17,有限会社白土製作所,,有限会社,福岡県,直方市,知古１丁目６番４７号,,40,204,8220022,,,2021-09-17,清算の結了等,,,2015-10-05,1,,,,,シラツチセイサクショ,0
1192,4360002018983,登記記録の閉鎖等,0,2021-09-28,2021-09-15,有限会社内間経営研究所,,有限会社,沖縄県,浦添市,仲間１丁目７番９－２０１号,,47,208,9012103,,,2021-09-15,清算の結了等,,,2015-10-05,1,,,,,,0
1197,4370002011748,登記記録の閉鎖等,0,2021-09-28,2021-09-15,有限会社スタイリストユニオン,,有限会社,宮城県,仙台市青葉区,大町２丁目６番２６号,,04,101,9800804,,,2021-09-15,清算の結了等,,,2015-10-05,1,,,,,スタイリストユニオン,0
1207,4460102007273,登記記録の閉鎖等,0,2021-09-28,2021-09-21,有限会社ケーユーシステム,,有限会社,北海道,帯広市,西十八条南２丁目１４番地４,,01,207,0800028,,,2021-09-21,清算の結了等,,,2015-10-05,1,,,,,ケーユーシステム,0
1236,5010501014971,登記記録の閉鎖等,0,2021-09-28,2021-09-17,株式会社六角,,株式会社,東京都,台東区,浅草５丁目４番２号,,13,106,1110032,,,2021-09-17,清算の結了等,,,2015-10-05,1,,,,,ロッカク,0
1262,5011001111292,登記記録の閉鎖等,0,2021-09-28,2021-09-08,株式会社サーシ・ラボ,,株式会社,東京都,江東区,福住１丁目４番１２号第一コーポコクブ５０２,,13,108,1350032,,,2021-09-08,清算の結了等,,,2016-06-07,1,,,,,サーシラボ,0
1277,5011103009798,登記記録の閉鎖等,0,2021-09-28,2021-09-08,住之江ランド合同会社,,合同会社,東京都,新宿区,四谷２丁目９番地１５東京ユナイテッド綜合事務所内,,13,104,1600004,,,2021-09-08,清算の結了等,,,2020-06-26,1,,,,,スミノエランド,0
1278,5011202012001,登記記録の閉鎖等,0,2021-09-28,2021-09-21,有限会社アトリエ・シス,,有限会社,東京都,中野区,中央２丁目９番１号,,13,114,1640011,,,2021-09-21,清算の結了等,,,2015-10-05,1,,,,,アトリエシス,0
1281,5011701019769,登記記録の閉鎖等,0,2021-09-28,2021-09-16,チェンジライフ株式会社,,株式会社,東京都,江戸川区,鹿骨４丁目９番２号房州ビル２０１,,13,123,1330073,,,2021-09-16,清算の結了等,,,2016-04-05,1,,,,,チェンジライフ,0
1284,5012401012064,登記記録の閉鎖等,0,2021-09-28,2021-09-14,株式会社ラックピック,,株式会社,東京都,武蔵野市,吉祥寺東町２丁目４３番４号,,13,203,1800002,,,2021-09-14,清算の結了等,,,2015-10-05,1,,,,,ラックピック,0
1303,5020002081585,登記記録の閉鎖等,0,2021-09-28,2021-09-22,有限会社日弘,,有限会社,神奈川県,川崎市幸区,南加瀬５丁目１３番１５号,,14,132,2120055,,,2021-09-22,清算の結了等,,,2015-10-05,1,,,,,ニッコウ,0
1328,5040001019015,登記記録の閉鎖等,0,2021-09-28,2021-09-15,株式会社ユーツアーズ,,株式会社,千葉県,船橋市,海神２丁目５番１１号,,12,204,2730021,,,2021-09-15,清算の結了等,,,2015-10-05,1,,,,,ユーツアーズ,0
1355,5080001012635,登記記録の閉鎖等,0,2021-09-28,2021-09-21,もしもしグルメ株式会社,,株式会社,静岡県,静岡市葵区,追手町３番１１号,,22,101,4200853,,,2021-09-21,合併による解散等,6080001005786,令和３年９月１４日静岡市葵区追手町３番１１号株式会社しずおかオンライン（6080001005786）に合併し解散,2015-10-05,1,,,,,モシモシグルメ,0
1357,5080001023120,登記記録の閉鎖等,0,2021-09-28,2021-09-24,パールプラス静岡株式会社,,株式会社,静岡県,榛原郡吉田町,神戸１２６番地の６,,22,424,4210304,,,2021-09-24,清算の結了等,,,2019-10-03,1,,,,,パールプラスシズオカ,0
1359,5080401014512,登記記録の閉鎖等,0,2021-09-28,2021-09-22,株式会社ミナミ,,株式会社,静岡県,掛川市,細田１９５番地の１,,22,213,4360048,,,2021-09-22,清算の結了等,,,2015-10-05,1,,,,,ミナミ,0
1384,5120002002457,登記記録の閉鎖等,0,2021-09-28,2021-09-16,有限会社眞鍋ブラシ製作所,,有限会社,大阪府,大阪市西成区,千本南２丁目１６番１９号,,27,122,5570055,,,2021-09-16,清算の結了等,,,2015-10-05,1,,,,,マナベブラシセイサクショ,0
1392,5120005003485,登記記録の閉鎖等,0,2021-09-28,2021-09-27,一般社団法人大阪市天王寺動物園協会,,その他の設立登記法人,大阪府,大阪市天王寺区,茶臼山町６番７４号大阪市天王寺動物園内,,27,109,5430063,,,2021-09-27,清算の結了等,,,2015-10-05,1,,,,,オオサカシテンノウジドウブツエンキョウカイ,0
1407,5130005011116,登記記録の閉鎖等,0,2021-09-28,2021-07-30,天理教溝谷分教会,,その他の設立登記法人,京都府,京丹後市,弥栄町溝谷３０８８番地,,26,212,6270111,,,2021-07-30,合併による解散等,4130005011141,令和３年７月３０日京都府京丹後市網野町網野１６５５番地天理教郷分教会（4130005011141）に合併し解散,2015-10-05,1,,,,,テンリキョウミゾタニブンキョウカイ,0
1410,5140001028682,登記記録の閉鎖等,0,2021-09-28,2021-09-21,Ｄａｔａ　Ｗａｖｅ株式会社,,株式会社,兵庫県,神戸市東灘区,岡本５丁目４番２３号,,28,101,6580072,,,2021-09-21,清算の結了等,,,2015-10-05,1,,,,,データウェーブ,0
1431,5180002060004,登記記録の閉鎖等,0,2021-09-28,2021-09-22,有限会社オフィスアクセル,,有限会社,愛知県,名古屋市名東区,香坂５２７番地,,23,115,4650007,,,2021-09-22,清算の結了等,,,2015-10-05,1,,,,,オフィスアクセル,0
1435,5190001004076,登記記録の閉鎖等,0,2021-09-28,2021-09-24,株式会社フリーフォーム,,株式会社,三重県,津市,豊が丘４丁目８番７号,,24,201,5142222,,,2021-09-24,清算の結了等,,,2015-10-05,1,,,,,,0
1445,5240001031791,登記記録の閉鎖等,0,2021-09-28,2021-09-27,株式会社ひめや,,株式会社,広島県,福山市,今町４番１７号,,34,207,7200046,,,2021-09-27,清算の結了等,,,2015-10-05,1,,,,,ヒメヤ,0
1469,5290801017523,登記記録の閉鎖等,0,2021-09-28,2021-09-21,株式会社創造館．,,株式会社,福岡県,北九州市小倉北区,青葉２丁目５番１９号,,40,106,8030822,,,2021-09-21,清算の結了等,,,2015-10-05,1,,,,,,0
1489,5370302001423,登記記録の閉鎖等,0,2021-09-28,2021-09-16,有限会社大照水産,,有限会社,宮城県,石巻市,大門町２丁目３番５３号,,04,202,9860026,,,2021-09-16,清算の結了等,,,2015-10-05,1,,,,,,0
1493,5380002028955,登記記録の閉鎖等,0,2021-09-28,2021-09-21,有限会社長谷川商事,,有限会社,福島県,南相馬市,原町区橋本町２丁目１２４番地の８,,07,212,9750006,,,2021-09-21,清算の結了等,,,2015-10-05,1,,,,,ハセガワショウジ,0
1505,5430002023323,登記記録の閉鎖等,0,2021-09-28,2021-09-17,有限会社札幌三成興業,,有限会社,北海道,札幌市清田区,北野二条２丁目１１番２２号,,01,110,0040862,,,2021-09-17,清算の結了等,,,2015-10-05,1,,,,,サッポロサンセイコウギョウ,0
1527,6010005029383,登記記録の閉鎖等,0,2021-09-28,2021-09-21,ＧＰ一般社団法人,,その他の設立登記法人,東京都,千代田区,九段南３丁目７番７号成和綜合会計事務所内,,13,101,1020074,,,2021-09-21,清算の結了等,,,2018-11-19,1,,,,,ジーピー,0
1539,6011001073508,登記記録の閉鎖等,0,2021-09-28,2021-09-13,フォートラベル株式会社,,株式会社,東京都,渋谷区,恵比寿１丁目１８番１４号,,13,113,1500013,,,2021-09-13,合併による解散等,9011001065997,令和３年９月１日東京都渋谷区恵比寿南三丁目５番７号株式会社カカクコム（9011001065997）に合併し解散,2015-10-05,1,,,,,フォートラベル,0
1560,6011102014229,登記記録の閉鎖等,0,2021-09-28,2021-09-17,有限会社レブランセス,,有限会社,東京都,新宿区,新宿１丁目７番７号,,13,104,1600022,,,2021-09-17,清算の結了等,,,2015-10-05,1,,,,,レブランセス,0
1561,6011103009186,登記記録の閉鎖等,0,2021-09-28,2021-09-08,新守谷ロジスティクス合同会社,,合同会社,東京都,新宿区,四谷２丁目９番地１５東京ユナイテッド綜合事務所内,,13,104,1600004,,,2021-09-08,清算の結了等,,,2019-10-25,1,,,,,シンモリヤロジスティクス,0
1566,6011402019712,登記記録の閉鎖等,0,2021-09-28,2021-09-13,有限会社城田塗装所,,有限会社,埼玉県,草加市,中根１丁目２３番４８号,,11,221,3400005,,,2021-09-13,清算の結了等,,,2015-10-05,1,,,,,シロタトソウジョ,0
1571,6011601014076,登記記録の閉鎖等,0,2021-09-28,2021-09-21,株式会社英未季,,株式会社,大分県,由布市,湯布院町川南１５８番地２ロマネスクリゾート湯布院３１１,,44,213,8795103,,,2021-09-21,清算の結了等,,,2015-10-05,1,,,,,ハナミズキ,0
1587,6012702006739,登記記録の閉鎖等,0,2021-09-28,2021-09-24,有限会社シバフジ商事,,有限会社,東京都,東久留米市,前沢１丁目２番１９号,,13,222,2030032,,,2021-09-24,清算の結了等,,,2015-10-05,1,,,,,シバフジショウジ,0
1590,6013302020824,登記記録の閉鎖等,0,2021-09-28,2021-09-21,有限会社アプリ,,有限会社,東京都,豊島区,千早１丁目１４番９号,,13,116,1710044,,,2021-09-21,清算の結了等,,,2015-10-05,1,,,,,アプリ,0
1619,6030002039573,登記記録の閉鎖等,0,2021-09-28,2021-09-13,有限会社エイビーシー,,有限会社,埼玉県,幸手市,中５丁目６番１号,,11,240,3400115,,,2021-09-13,清算の結了等,,,2015-10-05,1,,,,,エイビーシー,0
1635,6070002033894,登記記録の閉鎖等,0,2021-09-28,2021-09-24,有限会社ホテルニユーシテイー,,有限会社,群馬県,館林市,本町３丁目１番５号,,10,207,3740024,,,2021-09-24,清算の結了等,,,2015-10-05,1,,,,,,0
1658,6120001164529,登記記録の閉鎖等,0,2021-09-28,2021-09-14,株式会社ミリオン,,株式会社,埼玉県,さいたま市岩槻区,南平野３丁目２７番地２４,,11,110,3390051,,,2021-09-14,清算の結了等,,,2015-10-05,1,,,,,ミリオン,0
1670,6120005019885,登記記録の閉鎖等,0,2021-09-28,2021-09-22,特定非営利活動法人生活支援センターにしなり,,その他の設立登記法人,大阪府,大阪市西成区,萩之茶屋２丁目２番１５号,,27,122,5570004,,,2021-09-22,清算の結了等,,,2017-12-27,1,,,,,セイカツシエンセンターニシナリ,0
1674,6120901001285,登記記録の閉鎖等,0,2021-09-28,2021-09-24,大晃商事株式会社,,株式会社,大阪府,茨木市,宮島１丁目１番１号,,27,211,5670853,,,2021-09-24,清算の結了等,,,2015-10-05,1,,,,,ダイコウショウジ,0
1677,6130001040869,登記記録の閉鎖等,0,2021-09-28,2021-09-24,株式会社汐汲苑,00036407,株式会社,京都府,宮津市,字由良２３４番地,,26,205,6260071,,,2021-09-24,清算の結了等,,,2015-10-05,1,,,,,,0
1701,6170002008894,登記記録の閉鎖等,0,2021-09-28,2021-09-27,有限会社滝本運送,,有限会社,和歌山県,田辺市,東山２丁目２番３３号,,30,206,6460022,,,2021-09-27,清算の結了等,,,2015-10-05,1,,,,,タキモトウンソウ,0
1710,6180301008636,登記記録の閉鎖等,0,2021-09-28,2021-09-24,株式会社エクセル,,株式会社,愛知県,田原市,西神戸町岡１５番地,,23,231,4413423,,,2021-09-24,清算の結了等,,,2015-10-05,1,,,,,エクセル,0
1711,6180301032470,登記記録の閉鎖等,0,2021-09-28,2021-09-24,株式会社鈴家,,株式会社,愛知県,豊橋市,多米中町１丁目５番地１５,,23,201,4400027,,,2021-09-24,清算の結了等,,,2019-04-08,1,,,,,スズヤ,0
1726,6240005005972,登記記録の閉鎖等,0,2021-09-28,2021-07-20,天理教警固屋分教会,,その他の設立登記法人,広島県,呉市,警固屋６丁目２番１０号,,34,202,7370012,,,2021-07-20,合併による解散等,3240005010422,令和３年７月２０日広島県竹原市中央三丁目１５番１７号天理教南安藝分教会（3240005010422）に合併し解散,2015-10-05,1,,,,,,0
1727,6240005006277,登記記録の閉鎖等,0,2021-09-28,2021-09-22,呉中央個人タクシー協同組合,,その他の設立登記法人,広島県,呉市,長迫町７番３０号,,34,202,7370035,,,2021-09-22,清算の結了等,,,2015-10-05,1,,,,,クレチュウオウコジンタクシー,0
1740,6290005001190,登記記録の閉鎖等,0,2021-09-28,2021-09-22,一般財団法人福岡市交通事業振興会,,その他の設立登記法人,福岡県,福岡市中央区,大名２丁目５番３１号,,40,133,8100041,,,2021-09-22,清算の結了等,,,2015-10-05,1,,,,,フクオカシコウツウジギョウシンコウカイ,0
1747,6290805004392,登記記録の閉鎖等,0,2021-09-28,2021-08-02,天理教上々津役分教会,,その他の設立登記法人,福岡県,北九州市八幡西区,町上津役東２丁目１０番２２号,,40,109,8070073,,,2021-08-02,合併による解散等,5290005005548,令和３年７月１２日福岡県福津市日蒔野四丁目１６番地の４天理教津屋崎町分教会（5290005005548）に合併し解散,2015-10-05,1,,,,,,0
1763,6370002014955,登記記録の閉鎖等,0,2021-09-28,2021-09-15,エヌエスケーホーム有限会社,,有限会社,宮城県,仙台市宮城野区,平成１丁目２３番３２号,,04,102,9830037,,,2021-09-15,清算の結了等,,,2015-10-05,1,,,,,エヌエスケーホーム,0
1770,6390005006849,登記記録の閉鎖等,0,2021-09-28,2021-09-17,特定非営利活動法人おきたまブランドサポートセンター,,その他の設立登記法人,山形県,米沢市,万世町刈安２４１５６番地の１２１,,06,202,9921121,,,2021-09-17,清算の結了等,,,2015-10-05,1,,,,,オキタマブランドサポートセンター,0
1785,6450002001648,登記記録の閉鎖等,0,2021-09-28,2021-09-27,有限会社旭信マーク,,有限会社,北海道,旭川市,工業団地四条２丁目３番２１号,,01,204,0788274,,,2021-09-27,清算の結了等,,,2015-10-05,1,,,,,キョクシンマーク,0
1798,7010001189949,登記記録の閉鎖等,0,2021-09-28,2021-09-17,株式会社インサイト,,株式会社,東京都,文京区,湯島３丁目１３番８号,,13,105,1130034,,,2021-09-17,清算の結了等,,,2018-02-28,1,,,,,インサイト,0
1810,7010401049001,登記記録の閉鎖等,0,2021-09-28,2021-09-14,ニッケイインターナショナル株式会社,,株式会社,東京都,港区,白金台１丁目１番２１－６０３号,,13,103,1080071,,,2021-09-14,清算の結了等,,,2015-10-05,1,,,,,,0
1850,7011501011783,登記記録の閉鎖等,0,2021-09-28,2021-09-16,ショーリンズ株式会社,,株式会社,東京都,北区,西ケ原２丁目４４番１３号西ヶ原ハイツ,,13,117,1140024,,,2021-09-16,清算の結了等,,,2015-10-05,1,,,,,ショーリンズ,0
1865,7013405000904,登記記録の閉鎖等,0,2021-09-28,2021-08-23,ＮＰＯ法人ＭＡＹＡ　ＷＯＲＬＤ　ＰＥＡＣＥ,,その他の設立登記法人,東京都,多摩市,桜ヶ丘２丁目６番地の１,,13,224,2060013,,,2021-08-23,清算の結了等,,,2015-10-05,1,,,,,マーヤワールドピース,0
1866,7020001095626,登記記録の閉鎖等,0,2021-09-28,2021-09-10,株式会社松葉,,株式会社,神奈川県,横浜市保土ケ谷区,西谷１丁目２３番１３号,,14,106,2400054,,,2021-09-10,合併による解散等,5020001010339,令和３年９月１０日横浜市保土ケ谷区東川島町８２番地株式会社仲田コーテイング（5020001010339）に合併し解散,2015-10-05,1,,,,,マツバ,0
1877,7020002032685,登記記録の閉鎖等,0,2021-09-28,2021-09-06,有限会社エスエヌティーシステム,,有限会社,神奈川県,横浜市港北区,太尾町１７３２番地,,14,109,2220031,,,2021-09-06,清算の結了等,,,2015-10-05,1,,,,,エスエヌティーシステム,0
1889,7021002002133,登記記録の閉鎖等,0,2021-09-28,2021-09-22,有限会社サンプラン湘南,,有限会社,神奈川県,藤沢市,大庭５４５３番地の１ダイアパレス湘南ライフタウンⅢ５０５号,00012911,14,205,2510861,,,2021-09-22,清算の結了等,,,2015-10-05,1,,,,,,0
1900,7030001054201,登記記録の閉鎖等,0,2021-09-28,2021-09-14,株式会社ヒューマンクリエイト,,株式会社,埼玉県,加須市,騎西５１７番地１６,,11,210,3470105,,,2021-09-14,清算の結了等,,,2015-10-05,1,,,,,,0
1903,7030001130910,登記記録の閉鎖等,0,2021-09-28,2021-09-14,株式会社オフィス８６,,株式会社,埼玉県,川口市,南町１丁目１３番２０－３０４号ライオンズマンション川口西,,11,203,3320026,,,2021-09-14,清算の結了等,,,2019-05-17,1,,,,,オフィスハチロー,0
1908,7030002069537,登記記録の閉鎖等,0,2021-09-28,2021-09-14,有限会社ヨシモト,,有限会社,埼玉県,春日部市,粕壁東５丁目６番１２号,,11,214,3440062,,,2021-09-14,清算の結了等,,,2015-10-05,1,,,,,ヨシモト,0
1912,7040001075106,登記記録の閉鎖等,0,2021-09-28,2021-09-15,株式会社今井泰治商店,,株式会社,千葉県,夷隅郡御宿町,新町３２１番地,,12,443,2995103,,,2021-09-15,清算の結了等,,,2015-10-05,1,,,,,,0
1935,7100005011315,登記記録の閉鎖等,0,2021-09-28,2021-09-27,特定非営利活動法人ひよし里山の会,,その他の設立登記法人,長野県,木曽郡木曽町,日義２６１２番地２,,20,432,3996101,,,2021-09-27,清算の結了等,,,2015-10-05,1,,,,,ヒヨシサトヤマノカイ,0
1991,7140003012278,登記記録の閉鎖等,0,2021-09-28,2021-09-15,合同会社ケアいつか,,合同会社,兵庫県,西宮市,大森町１２番３２号,,28,204,6638023,,,2021-09-15,清算の結了等,,,2017-07-07,1,,,,,ケアイツカ,0
1994,7150001012725,登記記録の閉鎖等,0,2021-09-28,2021-09-24,コスモ商事株式会社,,株式会社,大阪府,茨木市,中穂積１丁目１番１０－３１０号,,27,211,5670034,,,2021-09-24,清算の結了等,,,2015-10-05,1,,,,,コスモショウジ,0
2004,7180001132504,登記記録の閉鎖等,0,2021-09-28,2021-09-22,株式会社愛知キャリアサービス,,株式会社,愛知県,名古屋市北区,大杉３丁目２０番１６号,,23,103,4620837,,,2021-09-22,清算の結了等,,,2018-06-04,1,,,,,アイチキャリアサービス,0
2028,7290001047914,登記記録の閉鎖等,0,2021-09-28,2021-09-07,株式会社ヒロ・メンテナンス,,株式会社,福岡県,八女郡広川町,大字新代１７６４番地１,,40,544,8340115,,,2021-09-07,清算の結了等,,,2015-10-05,1,,,,,ヒロメンテナンス,0
2056,7390002011082,登記記録の閉鎖等,0,2021-09-28,2021-09-14,有限会社若狭メディカル,,有限会社,山形県,新庄市,金沢字南沢２８８２番地の１,,06,205,9960002,,,2021-09-14,清算の結了等,,,2015-10-05,1,,,,,ワカサメディカル,0
2057,7390002012881,登記記録の閉鎖等,0,2021-09-28,2021-09-21,有限会社佐藤金型,,有限会社,山形県,米沢市,大字花沢２９９９番地の３,,06,202,9920021,,,2021-09-21,清算の結了等,,,2015-10-05,1,,,,,サトウカナガタ,0
2069,7500005004220,登記記録の閉鎖等,0,2021-09-28,2021-09-24,医療法人河野内科,,その他の設立登記法人,愛媛県,西条市,丹原町寺尾甲３４５番地１,,38,206,7910534,,,2021-09-24,清算の結了等,,,2015-10-05,1,,,,,コウノナイカ,0
2075,8010001085346,登記記録の閉鎖等,0,2021-09-28,2021-09-17,株式会社ＩＶＳ,,株式会社,東京都,中央区,日本橋小網町１６番１号タナベビル,,13,102,1030016,,,2021-09-17,清算の結了等,,,2015-10-05,1,,,,,アイブイエス,0
2078,8010001162483,登記記録の閉鎖等,0,2021-09-28,2021-09-21,株式会社甚兵衛,,株式会社,東京都,世田谷区,太子堂１丁目１２－３４－７０１,,13,112,1540004,,,2021-09-21,清算の結了等,,,2015-10-05,1,,,,,ジンベエ,0
2082,8010002001814,登記記録の閉鎖等,0,2021-09-28,2021-09-08,有限会社きょうぶん社,,有限会社,東京都,文京区,白山２丁目１０番１２号,,13,105,1120001,,,2021-09-08,清算の結了等,,,2015-10-05,1,,,,,キョウブンシャ,0
2083,8010003024748,登記記録の閉鎖等,0,2021-09-28,2021-09-21,合同会社ＵＳプロパティファイナンス３号,,合同会社,東京都,中央区,日本橋兜町３番１１号三田証券株式会社内,,13,102,1030026,,,2021-09-21,清算の結了等,,,2017-02-01,1,,,,,ユーエスプロパティファイナンスサンゴウ,0
2098,8010403014068,登記記録の閉鎖等,0,2021-09-28,2021-09-15,合同会社ＬＣ伊達,,合同会社,東京都,港区,虎ノ門５丁目３番２０号株式会社アカウンティング・マネジメント・サービス内,,13,103,1050001,,,2021-09-15,清算の結了等,,,2015-11-18,1,,,,,エルシーダテ,0
2117,8011001112478,登記記録の閉鎖等,0,2021-09-28,2021-09-24,株式会社ＪＢプランニング,,株式会社,東京都,渋谷区,渋谷４丁目３番２７号,,13,113,1500002,,,2021-09-24,清算の結了等,,,2016-08-24,1,,,,,,0
2122,8011002035810,登記記録の閉鎖等,0,2021-09-28,2021-09-24,有限会社アート・オブ・コミュニケーションズ,,有限会社,東京都,渋谷区,神泉町３－４－３０２,,13,113,1500045,,,2021-09-24,清算の結了等,,,2015-10-05,1,,,,,アートオブコミュニケーションズ,0
2126,8011101006753,登記記録の閉鎖等,0,2021-09-28,2021-09-21,株式会社広和インターナショナル,,株式会社,東京都,新宿区,北新宿１丁目１番１９号,,13,104,1690074,,,2021-09-21,清算の結了等,,,2015-10-05,1,,,,,コウワインターナショナル,0
2149,8020001021408,登記記録の閉鎖等,0,2021-09-28,2021-09-22,株式会社ヴァン・ヴェール,,株式会社,神奈川県,横浜市港北区,新羽町２０９９番地,,14,109,2230057,,,2021-09-22,清算の結了等,,,2015-10-05,1,,,,,ヴァンヴェール,0
2161,8020002010715,登記記録の閉鎖等,0,2021-09-28,2021-09-22,丸新商事有限会社,,有限会社,神奈川県,横浜市磯子区,丸山２丁目２４番３号,,14,107,2350011,,,2021-09-22,合併による解散等,2020001003329,令和３年９月２２日横浜市磯子区丸山二丁目２４番３号丸新飲料株式会社（2020001003329）に合併し解散,2015-10-05,1,,,,,マルシンショウジ,0
2164,8020002092035,登記記録の閉鎖等,0,2021-09-28,2021-09-22,有限会社小谷野商店,,有限会社,神奈川県,川崎市多摩区,菅１丁目１１番１号,,14,135,2140001,,,2021-09-22,清算の結了等,,,2015-10-05,1,,,,,コヤノショウテン,0
2174,8030001034730,登記記録の閉鎖等,0,2021-09-28,2021-09-14,株式会社エンジニアリング建設,,株式会社,埼玉県,草加市,瀬崎３丁目２８番１３号,,11,221,3400022,,,2021-09-14,清算の結了等,,,2015-10-05,1,,,,,エンジニアリングケンセツ,0
2184,8030002073868,登記記録の閉鎖等,0,2021-09-28,2021-09-13,有限会社スジノ建築設計事務所,,有限会社,埼玉県,川越市,大字松郷７４０番地,,11,201,3500857,,,2021-09-13,清算の結了等,,,2015-10-05,1,,,,,スジノケンチクセッケイジムショ,0
2186,8030002116263,登記記録の閉鎖等,0,2021-09-28,2021-09-14,有限会社とりば畜産,,有限会社,埼玉県,深谷市,武蔵野１２７５番地,,11,218,3691241,,,2021-09-14,清算の結了等,,,2015-10-05,1,,,,,トリバチクサン,0
2187,8030005018077,登記記録の閉鎖等,0,2021-09-28,2021-09-13,行政書士法人高橋環境事務所,,その他の設立登記法人,埼玉県,本庄市,千代田４丁目２番４号三の蔵,,11,211,3670054,,,2021-09-13,清算の結了等,,,2016-08-04,1,,,,,タカハシカンキョウジムショ,0
2209,8080401018295,登記記録の閉鎖等,0,2021-09-28,2021-09-22,株式会社ファンクアートデザイン,,株式会社,静岡県,浜松市北区,都田町９６１５番地の３,,22,135,4312102,,,2021-09-22,清算の結了等,,,2015-10-05,1,,,,,ファンクアートデザイン,0
2216,8110001025077,登記記録の閉鎖等,0,2021-09-28,2021-09-22,株式会社丸正清水呉服店,,株式会社,新潟県,見附市,今町１丁目５番２６号,,15,211,9540111,,,2021-09-22,清算の結了等,,,2015-10-05,1,,,,,,0
2265,8160002007053,登記記録の閉鎖等,0,2021-09-28,2021-09-27,有限会社美ます,,有限会社,滋賀県,米原市,上丹生１５１２番地,,25,214,5210033,,,2021-09-27,清算の結了等,,,2015-10-05,1,,,,,ミマス,0
2266,8180001052032,登記記録の閉鎖等,0,2021-09-28,2021-09-22,株式会社新栄製作所,,株式会社,愛知県,北名古屋市,鹿田清井古８１番地,,23,234,4810004,,,2021-09-22,清算の結了等,,,2015-10-05,1,,,,,シンエイセイサクショ,0
2267,8180001090073,登記記録の閉鎖等,0,2021-09-28,2021-08-02,ＣＲＥＷＳ株式会社,,株式会社,愛知県,名古屋市中区,栄３丁目１８番１号ナディアパークビジネスセンタービル１２Ｆ,,23,106,4600008,,,2021-08-02,合併による解散等,5180001099935,令和３年８月１日名古屋市中区栄三丁目１８番１号ナディアパークビジネスセンタービル１２Ｆ株式会社ＶＩＳＩＯＮ（5180001099935）に合併し解散,2015-10-05,1,,,,,クルーズ,0
2275,8180003020169,登記記録の閉鎖等,0,2021-09-28,2021-09-24,合同会社住まいるリフォーム,,合同会社,愛知県,小牧市,間々本町１２３番地,,23,219,4850048,,,2021-09-24,清算の結了等,,,2019-07-11,1,,,,,スマイルリフォーム,0
2304,8250002001088,登記記録の閉鎖等,0,2021-09-28,2021-09-24,東洋産業有限会社,,有限会社,山口県,山口市,阿東徳佐中３５１１番地の１７,,35,203,7591512,,,2021-09-24,清算の結了等,,,2015-10-05,1,,,,,トウヨウサンギョウ,0
2305,8250002001096,登記記録の閉鎖等,0,2021-09-28,2021-09-22,有限会社南桑商店,,有限会社,山口県,山口市,鋳銭司５５１４番地の１,,35,203,7471221,,,2021-09-22,清算の結了等,,,2015-10-05,1,,,,,ナグワショウテン,0
2312,8260002000881,登記記録の閉鎖等,0,2021-09-28,2021-09-27,有限会社井上消毒,,有限会社,岡山県,岡山市北区,田中３９７番地の４,,33,101,7000951,,,2021-09-27,清算の結了等,,,2015-10-05,1,,,,,イノウエショウドク,0
2314,8270002000559,登記記録の閉鎖等,0,2021-09-28,2021-09-27,協友電氣工亊有限会社,,有限会社,鳥取県,鳥取市,行徳３丁目６２０番地,,31,201,6800824,,,2021-09-27,清算の結了等,,,2015-10-05,1,,,,,キョウユウデンキコウジ,0
2315,8270002010070,登記記録の閉鎖等,0,2021-09-28,2021-09-27,有限会社三工舎,,有限会社,鳥取県,倉吉市,秋喜３６５番地の６,,31,203,6820925,,,2021-09-27,清算の結了等,,,2015-10-05,1,,,,,,0
2323,8290801022842,登記記録の閉鎖等,0,2021-09-28,2021-09-24,株式会社Ｅｔｅｒｎａｌｌｙ,,株式会社,福岡県,鞍手郡鞍手町,大字中山３０６３番地１０３,,40,402,8071312,,,2021-09-24,清算の結了等,,,2016-08-30,1,,,,,エターナリー,0
2326,8290805007303,登記記録の閉鎖等,0,2021-09-28,2021-07-20,金光教伊田教会,,その他の設立登記法人,福岡県,田川市,新町１０番４号,,40,206,8250016,,,2021-07-20,合併による解散等,2290805007300,令和３年７月２０日福岡県田川市上本町１１番５号金光教後藤寺西部教会（2290805007300）に合併し解散,2015-10-05,1,,,,,コンコウキョウイタキョウカイ,0
2348,8430002040662,登記記録の閉鎖等,0,2021-09-28,2021-09-21,有限会社ＦＫデンタルラボ,,有限会社,北海道,札幌市北区,北十四条西１丁目２番２３号,,01,102,0010014,,,2021-09-21,清算の結了等,,,2015-10-05,1,,,,,エフケーデンタルラボ,0
2356,8500003002308,登記記録の閉鎖等,0,2021-09-28,2021-08-02,合同会社脇本新聞店三間,,合同会社,愛媛県,宇和島市,三間町宮野下４０番地４,,38,203,7981112,,,2021-08-02,合併による解散等,2500003002032,令和３年８月１日愛媛県西予市明浜町俵津２番耕地４９０番地第１合同会社脇本新聞店（2500003002032）に合併し解散,2019-08-06,1,,,,,ワキモトシンブンテンミマ,0
2366,9010005001686,登記記録の閉鎖等,0,2021-09-28,2021-09-21,東京織物卸協同組合,,その他の設立登記法人,東京都,中央区,日本橋堀留町１丁目９番６号,,13,102,1030012,,,2021-09-21,清算の結了等,,,2015-10-05,1,,,,,トウキョウオリモノオロシ,0
2368,9010401047977,登記記録の閉鎖等,0,2021-09-28,2021-09-14,アイトレンド株式会社,,株式会社,東京都,港区,赤坂１丁目７番２号,,13,103,1070052,,,2021-09-14,清算の結了等,,,2015-10-05,1,,,,,,0
2390,9010601043487,登記記録の閉鎖等,0,2021-09-28,2021-09-06,株式会社さゆみな,,株式会社,東京都,江東区,豊洲３丁目６番５－２３１７号,,13,108,1350061,,,2021-09-06,清算の結了等,,,2015-10-05,1,,,,,サユミナ,0
2420,9011303003168,登記記録の閉鎖等,0,2021-09-28,2021-08-30,合同会社ＴＡＫＩＵＥ,,合同会社,東京都,杉並区,成田東１丁目４１－４ＫＭガーデンＡ棟１０３,,13,115,1660015,,,2021-08-30,清算の結了等,,,2018-11-14,1,,,,,タキウエ,0
2429,9011701012885,登記記録の閉鎖等,0,2021-09-28,2021-09-17,株式会社ＮＨＩ,,株式会社,東京都,江戸川区,南小岩８丁目１７番７号,,13,123,1330056,,,2021-09-17,清算の結了等,,,2015-10-05,1,,,,,エヌエイチアイ,0
2440,9012701015548,登記記録の閉鎖等,0,2021-09-28,2021-09-24,株式会社ビーリンクハート,,株式会社,東京都,小平市,花小金井３丁目１１番７－１９号,,13,211,1870002,,,2021-09-24,清算の結了等,,,2019-09-26,1,,,,,ビーリンクハート,0
2457,9020003005746,登記記録の閉鎖等,0,2021-09-28,2021-09-22,合資会社社長支援室,,合資会社,神奈川県,川崎市麻生区,王禅寺西６丁目２１番６号,,14,137,2150017,,,2021-09-22,清算の結了等,,,2015-10-05,1,,,,,シャチョウシエンシツ,0
2471,9030001017882,登記記録の閉鎖等,0,2021-09-28,2021-09-13,株式会社河野人形店,,株式会社,埼玉県,さいたま市岩槻区,本町５丁目８番１５号,,11,110,3390057,,,2021-09-13,清算の結了等,,,2015-10-05,1,,,,,コウノニンギョウテン,0
2475,9030001052871,登記記録の閉鎖等,0,2021-09-28,2021-09-13,ハイブリッジ設計監理株式会社,,株式会社,埼玉県,春日部市,米島２６１番地３３,,11,214,3440115,,,2021-09-13,清算の結了等,,,2015-10-05,1,,,,,,0
2476,9030001062912,登記記録の閉鎖等,0,2021-09-28,2021-09-14,株式会社立東,,株式会社,埼玉県,北本市,東間８丁目２６０番地,,11,233,3640007,,,2021-09-14,清算の結了等,,,2015-10-05,1,,,,,リットウ,0
2490,9030002042228,登記記録の閉鎖等,0,2021-09-28,2021-09-14,有限会社明神の湯,,有限会社,埼玉県,加須市,騎西５６４番地,,11,210,3470105,,,2021-09-14,清算の結了等,,,2015-10-05,1,,,,,ミョウジンノユ,0
2491,9030002097791,登記記録の閉鎖等,0,2021-09-28,2021-09-10,有限会社ミヤビ,,有限会社,埼玉県,比企郡嵐山町,大字千手堂４４９番地３,,11,342,3550227,,,2021-09-10,清算の結了等,,,2015-10-05,1,,,,,ミヤビ,0
2498,9040001089582,登記記録の閉鎖等,0,2021-09-28,2021-09-15,株式会社アクトローカル,,株式会社,千葉県,柏市,若柴１７８番地４柏の葉キャンパス１４８街区１パークシティ柏の葉キャンパスザ・ゲートタワーウェスト３階,,12,217,2770871,,,2021-09-15,清算の結了等,,,2015-10-05,1,,,,,アクトローカル,0
2512,9070002014149,登記記録の閉鎖等,0,2021-09-28,2021-09-21,有限会社上毛都市管理,,有限会社,群馬県,高崎市,箕郷町矢原８８０番地１,,10,202,3703107,,,2021-09-21,清算の結了等,,,2015-10-05,1,,,,,ジョウモウトシカンリ,0
2519,9100002019945,登記記録の閉鎖等,0,2021-09-28,2021-09-22,有限会社コスモ開発,,有限会社,長野県,松本市,征矢野１丁目６番５２号,,20,202,3900842,,,2021-09-22,清算の結了等,,,2015-10-05,1,,,,,コスモカイハツ,0
2522,9120001011298,登記記録の閉鎖等,0,2021-09-28,2021-09-17,株式会社ヤマグチ,,株式会社,大阪府,大阪市東住吉区,公園南矢田１丁目２７番１２号,,27,121,5460024,,,2021-09-17,清算の結了等,,,2015-10-05,1,,,,,ヤマグチ,0
2532,9120001186124,登記記録の閉鎖等,0,2021-09-28,2021-08-10,株式会社インディゴゲームスタジオ,,株式会社,大阪府,大阪市北区,堂島１丁目５番３０号堂島プラザビル４階,,27,127,5300003,,,2021-08-10,合併による解散等,7011001059638,令和３年５月１日東京都渋谷区恵比寿四丁目２０番３号株式会社コロプラ（7011001059638）に合併し解散,2015-10-05,1,,,,,,0
2541,9120002030842,登記記録の閉鎖等,0,2021-09-28,2021-09-21,有限会社ジオメディアプロダクション,,有限会社,大阪府,大阪市北区,西天満３丁目３番１７号,,27,127,5300047,,,2021-09-21,清算の結了等,,,2015-10-05,1,,,,,ジオメディアプロダクション,0
2599,9220003002970,登記記録の閉鎖等,0,2021-09-28,2021-09-22,サイエンス３９２合同会社,,合同会社,石川県,白山市,千代野西７丁目４番地６,,17,210,9240072,,,2021-09-22,清算の結了等,,,2021-01-28,1,,,,,サイエンスミクニ,0
2612,9260001025805,登記記録の閉鎖等,0,2021-09-28,2021-09-27,株式会社アグリーノ,,株式会社,岡山県,岡山市北区,田中１６８－１１４難波ビル２０５号,,33,101,7000951,,,2021-09-27,清算の結了等,,,2015-10-05,1,,,,,,0
2615,9270002002100,登記記録の閉鎖等,0,2021-09-28,2021-09-24,鳥取打設有限会社,,有限会社,鳥取県,鳥取市,古海３０１番地８,,31,201,6800921,,,2021-09-24,清算の結了等,,,2015-10-05,1,,,,,トットリダセツ,0
2617,9270003000425,登記記録の閉鎖等,0,2021-09-28,2021-09-22,合同会社鉄井新聞舗,,合同会社,鳥取県,東伯郡北栄町,北条島６２３番地,,31,372,6892112,,,2021-09-22,清算の結了等,,,2015-10-05,1,,,,,テツイシンブンホ,0
2626,9290802014771,登記記録の閉鎖等,0,2021-09-28,2021-09-21,東邦運送有限会社,00094555,有限会社,福岡県,北九州市八幡西区,引野３丁目１７番１６号,,40,109,8060067,,,2021-09-21,清算の結了等,,,2015-10-05,1,,,,,,0
2633,9330003001887,登記記録の閉鎖等,0,2021-09-28,2021-09-27,株式会社ティエフエフサービス,,株式会社,熊本県,熊本市南区,島町２丁目３番１３号,,43,104,8614133,,,2021-09-27,清算の結了等,,,2015-10-05,1,,,,,ティエフエフサービス,0
2638,9360001000707,登記記録の閉鎖等,0,2021-09-28,2021-09-16,カリユシドリームハウジング株式会社,,株式会社,沖縄県,国頭郡恩納村,字名嘉真２５９１番地の１,,47,311,9040401,,,2021-09-16,合併による解散等,5360001001898,令和３年８月１１日沖縄県国頭郡恩納村字名嘉真２５９１番地の１株式会社かりゆし（5360001001898）に合併し解散,2015-10-05,1,,,,,カリユシドリームハウジング,0
2639,9360001027007,登記記録の閉鎖等,0,2021-09-28,2021-09-21,蘇氏家族株式会社,,株式会社,沖縄県,宜野湾市,大謝名１丁目２番２２号１Ｆ,,47,205,9012225,,,2021-09-21,清算の結了等,,,2020-04-03,1,,,,,ソシカゾク,0
2641,9360002004500,登記記録の閉鎖等,0,2021-09-28,2021-09-16,有限会社ヤマキビル産業,,有限会社,沖縄県,那覇市,与儀１丁目１９番３７号,,47,201,9020076,,,2021-09-16,清算の結了等,,,2015-10-05,1,,,,,ヤマキビルサンギョウ,0
2653,9380002032994,登記記録の閉鎖等,0,2021-09-28,2021-09-21,有限会社古川電設,,有限会社,福島県,会津若松市,堤町１２番３８号,,07,202,9650013,,,2021-09-21,清算の結了等,,,2015-10-05,1,,,,,フルカワデンセツ,0
2656,9400002010964,登記記録の閉鎖等,0,2021-09-28,2021-09-24,有限会社木下建設,,有限会社,岩手県,下閉伊郡山田町,山田第１７地割９８番地,,03,482,0281321,,,2021-09-24,清算の結了等,,,2015-10-05,1,,,,,キノシタケンセツ,0
2668,9430003006645,登記記録の閉鎖等,0,2021-09-28,2021-09-17,合同会社どうむ,,合同会社,北海道,沙流郡日高町,富川東６丁目１４番４号,,01,601,0550004,,,2021-09-17,清算の結了等,,,2015-10-05,1,,,,,ドウム,0
