sequenceNumber,corporateNumber,process,correct,updateDate,changeDate,name,nameImageId,kind,prefectureName,cityName,streetNumber,addressImageId,prefectureCode,cityCode,postCode,addressOutside,addressOutsideImageId,closeDate,closeCause,successorCorporateNumber,changeCause,assignmentDate,latest,enName,enPrefectureName,enCityName,enAddressOutside,furigana,hihyoji
6,1010003040099,新規,0,2023-03-22,2023-03-22,エネグローバルグリーンパワー合同会社,,合同会社,東京都,中央区,八丁堀４丁目２番１０号ＡＯＪ税理士法人内,,13,102,1040032,,,,,,,2023-03-22,1,,,,,エネグローバルグリーンパワー,0
7,1010003040108,新規,0,2023-03-22,2023-03-22,ＰＯＷＥＲ　ＣＡＰＩＴＡＬ　ＰＡＲＴＮＥＲＳ合同会社,,合同会社,東京都,千代田区,丸の内１丁目１１番１号パシフィックセンチュリープレイス,,13,101,1000005,,,,,,,2023-03-22,1,,,,,パワーキャピタルパートナーズ,0
8,1010101015572,新規,0,2023-03-22,2023-03-22,株式会社ＴＯＢＥ,,株式会社,東京都,八王子市,新町２番５号,,13,201,1920065,,,,,,,2023-03-22,1,,,,,トゥービー,0
9,1010103002107,新規,0,2023-03-22,2023-03-22,合同会社オオトリスタジオ,,合同会社,東京都,八王子市,丹木町１丁目８９－１さくら荘１０２,,13,201,1920003,,,,,,,2023-03-22,1,,,,,オオトリスタジオ,0
13,1010401172568,新規,0,2023-03-22,2023-03-22,株式会社ＢＯＮ　ＶＯＹＡＧＥ,,株式会社,東京都,港区,六本木６丁目２－３１六本木ヒルズノースタワー１７階,,13,103,1060032,,,,,,,2023-03-22,1,,,,,ボンボヤージュ,0
18,1010403029766,新規,0,2023-03-22,2023-03-22,合同会社シニアハウジング,,合同会社,東京都,港区,虎ノ門３丁目２２番１０－２０１号,,13,103,1050001,,,,,,,2023-03-22,1,,,,,シニアハウジング,0
19,1010405021944,新規,0,2023-03-22,2023-03-22,一般社団法人シニアハウジング,,その他の設立登記法人,東京都,港区,虎ノ門３丁目２２番１０－２０１号,,13,103,1050001,,,,,,,2023-03-22,1,,,,,シニアハウジング,0
23,1010801033782,新規,0,2023-03-22,2023-03-22,株式会社リビングライフホールディングス,,株式会社,東京都,大田区,西蒲田８丁目１１番１１号,,13,111,1440051,,,,,,,2023-03-22,1,,,,,リビングライフホールディングス,0
31,1010901052749,新規,0,2023-03-22,2023-03-22,株式会社ＭＫＹ,,株式会社,東京都,世田谷区,代田３丁目１１番１号,,13,112,1550033,,,,,,,2023-03-22,1,,,,,エムケーワイ,0
37,1011001153248,新規,0,2023-03-22,2023-03-22,ＰＣＰ株式会社,,株式会社,東京都,渋谷区,神南１丁目２０番１５号,,13,113,1500041,,,,,,,2023-03-22,1,,,,,ピーシーピー,0
38,1011001153264,新規,0,2023-03-22,2023-03-22,株式会社Ｐ‐Ｔｈｉｒｄ,,株式会社,東京都,目黒区,目黒１丁目４番１１号７階,,13,110,1530063,,,,,,,2023-03-22,1,,,,,ピーサード,0
46,1011101102162,新規,0,2023-03-22,2023-03-22,株式会社まち・ひと・しごと研究所,,株式会社,東京都,新宿区,南町１２番地プラウド市ヶ谷南町３０１,,13,104,1620836,,,,,,,2023-03-22,1,,,,,マチヒトシゴトケンキュウショ,0
47,1011101102187,新規,0,2023-03-22,2023-03-22,株式会社さきの出版,,株式会社,東京都,新宿区,西新宿１丁目２５番１号センタービル４９階,,13,104,1600023,,,,,,,2023-03-22,1,,,,,サキノシュッパン,0
54,1011301028546,新規,0,2023-03-22,2023-03-22,Ｐｕｆｆｉｎ　Ｓｔｕｄｉｏ株式会社,,株式会社,東京都,杉並区,今川１丁目１２番２１号,,13,115,1670035,,,,,,,2023-03-22,1,,,,,パフィンスタジオ,0
63,1011801042113,新規,0,2023-03-22,2023-03-22,株式会社Ｎｅｘｕｓ,,株式会社,東京都,足立区,谷在家２丁目８番１６－４０４号,,13,121,1230863,,,,,,,2023-03-22,1,,,,,ネクサス,0
70,1013301050447,新規,0,2023-03-22,2023-03-22,株式会社Ａ・Ｉ・Ｒ,,株式会社,東京都,豊島区,南大塚２丁目４５－９ヤマナカヤビル６Ｆ,,13,116,1700005,,,,,,,2023-03-22,1,,,,,エアー,0
73,1020001150717,新規,0,2023-03-22,2023-03-22,株式会社清水商店,,株式会社,神奈川県,横浜市西区,浅間町１丁目４番３号,,14,103,2200072,,,,,,,2023-03-22,1,,,,,シミズショウテン,0
74,1020001150766,新規,0,2023-03-22,2023-03-22,株式会社フィロソフィアコンサルティング,,株式会社,神奈川県,横浜市緑区,台村町１８６番,,14,113,2260014,,,,,,,2023-03-22,1,,,,,フィロソフィアコンサルティング,0
80,1021001078493,新規,0,2023-03-22,2023-03-22,株式会社ＡＮＤ　Ｔｌａｂｏ,,株式会社,神奈川県,鎌倉市,由比ガ浜２丁目２番３７号,,14,204,2480014,,,,,,,2023-03-22,1,,,,,アンドティーラボ,0
88,1030001152803,新規,0,2023-03-22,2023-03-22,株式会社ＨＡＬ,,株式会社,埼玉県,川越市,大塚新町３１番地１０,,11,201,3501178,,,,,,,2023-03-22,1,,,,,ハル,0
89,1030001152927,新規,0,2023-03-22,2023-03-22,株式会社ＦｉｅｌｄＳｔｏｎｅｓ,,株式会社,埼玉県,所沢市,大字北秋津７２０番地の３ソフィア所沢１０１,,11,208,3590038,,,,,,,2023-03-22,1,,,,,フィールドストーンズ,0
90,1030001152951,新規,0,2023-03-22,2023-03-22,株式会社楔,,株式会社,埼玉県,ふじみ野市,新駒林２丁目２番２号２,,11,245,3560030,,,,,,,2023-03-22,1,,,,,クサビ,0
102,1040001127589,新規,0,2023-03-22,2023-03-22,ふじや株式会社,,株式会社,千葉県,千葉市中央区,仁戸名町４３９－７,,12,101,2600801,,,,,,,2023-03-22,1,,,,,フジヤ,0
105,1040003022227,新規,0,2023-03-22,2023-03-22,カーメル合同会社,,合同会社,千葉県,船橋市,二和東６丁目６番２号・吉岡方,,12,204,2740805,,,,,,,2023-03-22,1,,,,,カーメル,0
106,1040005021937,新規,0,2023-03-22,2023-03-22,特定非営利活動法人三番瀬フォーラム,,その他の設立登記法人,千葉県,市川市,妙典１丁目６番３号,,12,203,2720111,,,,,,,2023-03-22,1,,,,,サンバンゼフォーラム,0
108,1050005013223,新規,0,2023-03-22,2023-03-22,一般財団法人沼尻みらい子ども育成財団,,その他の設立登記法人,茨城県,つくば市,榎戸４３２番地１,,08,220,3050853,,,,,,,2023-03-22,1,,,,,ヌマジリミライコドモイクセイザイダン,0
111,1070001040236,新規,0,2023-03-22,2023-03-22,株式会社ＬＩＮＫ　ＵＰ,,株式会社,群馬県,桐生市,新里町新川９５５－６セレーノ３,,10,203,3760121,,,,,,,2023-03-22,1,,,,,リンクアップ,0
113,1080001025525,新規,0,2023-03-22,2023-03-22,ＭＡＲＺＯ株式会社,,株式会社,静岡県,静岡市清水区,大坪２丁目１０番１５号,,22,103,4240847,,,,,,,2023-03-22,1,,,,,マルツォ,0
117,1080403004762,新規,0,2023-03-22,2023-03-22,合同会社ＫＯＨ,,合同会社,静岡県,浜松市南区,飯田町５３１－１ｅｒｍｉｔａ１０２,,22,134,4350028,,,,,,,2023-03-22,1,,,,,コウ,0
128,1120001253336,新規,0,2023-03-22,2023-03-22,株式会社勝恵,,株式会社,大阪府,大阪市大正区,南恩加島３丁目８番１２－２０２号,,27,108,5510021,,,,,,,2023-03-22,1,,,,,ショウエ,0
129,1120001253352,新規,0,2023-03-22,2023-03-22,＿龍株式会社,00129812,株式会社,大阪府,大阪市淀川区,三津屋南２丁目５番１５号,,27,123,5320035,,,,,,,2023-03-22,1,,,,,キンリュウ,0
130,1120001253369,新規,0,2023-03-22,2023-03-22,楠木株式会社,,株式会社,大阪府,大阪市中央区,松屋町９番２０号ローレルステート松屋町５０３Ａ,,27,128,5420067,,,,,,,2023-03-22,1,,,,,クスノキ,0
131,1120001253385,新規,0,2023-03-22,2023-03-22,株式会社ＳｏｃｏｂｕｉｌＤ,,株式会社,大阪府,大阪市阿倍野区,阿倍野筋３丁目８番９－４０６号,,27,119,5450052,,,,,,,2023-03-22,1,,,,,ソコヴィル,0
132,1120001253410,新規,0,2023-03-22,2023-03-22,株式会社パリ・ブレスト・パリ,,株式会社,大阪府,寝屋川市,田井町２０番１２号,,27,215,5720021,,,,,,,2023-03-22,1,,,,,パリブレストパリ,0
133,1120003023472,新規,0,2023-03-22,2023-03-22,ＳＴＡＹ　ＧＯＬＤ合同会社,,合同会社,大阪府,大阪市西区,南堀江１丁目１１番１６号レミュー南堀江１Ｆ,,27,106,5500015,,,,,,,2023-03-22,1,,,,,ステイゴールド,0
135,1120005023520,新規,0,2023-03-22,2023-03-22,ＫＳＫ行政書士法人,,その他の設立登記法人,大阪府,大阪市中央区,博労町２丁目４番１１号,,27,128,5410059,,,,,,,2023-03-22,1,,,,,ケーエスケー,0
140,1122001036794,新規,0,2023-03-22,2023-03-22,ＦｕｋｕＳｔａｒ株式会社,,株式会社,大阪府,東大阪市,柏田東町６－３２,,27,227,5770833,,,,,,,2023-03-22,1,,,,,フクスター,0
145,1140001129492,新規,0,2023-03-22,2023-03-22,タスクポータル株式会社,,株式会社,兵庫県,加古川市,平岡町新在家５８９番地の１ラ・カーサ・ミーア２０３号,,28,210,6750101,,,,,,,2023-03-22,1,,,,,タスクポータル,0
147,1140003018859,新規,0,2023-03-22,2023-03-22,合同会社ＫＳＴＫ,,合同会社,兵庫県,神戸市北区,中里町１丁目８―２２０,,28,109,6511103,,,,,,,2023-03-22,1,,,,,ケイエスティケイ,0
157,1180001155452,新規,0,2023-03-22,2023-03-22,株式会社クミコーポレーション,,株式会社,愛知県,丹羽郡大口町,替地１丁目２８５番地,,23,361,4800133,,,,,,,2023-03-22,1,,,,,クミコーポレーション,0
159,1180003025001,新規,0,2023-03-22,2023-03-22,合同会社Ｍ’ｓ　ｔｒｕｓｔ,,合同会社,愛知県,名古屋市守山区,鳥神町２２６番地３,,23,113,4630088,,,,,,,2023-03-22,1,,,,,エムズトラスト,0
160,1180005020140,新規,0,2023-03-22,2023-03-22,医療法人しんりんクリニック,,その他の設立登記法人,愛知県,一宮市,柚木颪字上ケ田２－１,,23,203,4910011,,,,,,,2023-03-22,1,,,,,シンリンクリニック,0
163,1180301037210,新規,0,2023-03-22,2023-03-22,愛知環境検査株式会社,,株式会社,愛知県,刈谷市,泉田町割田９番地１,,23,210,4480004,,,,,,,2023-03-22,1,,,,,アイチカンキョウケンサ,0
164,1180305009453,新規,0,2023-03-22,2023-03-22,医療法人二本木クリニック,,その他の設立登記法人,愛知県,安城市,二本木町切替６０番地２,,23,212,4460054,,,,,,,2023-03-22,1,,,,,ニホンギクリニック,0
166,1190001030258,新規,0,2023-03-22,2023-03-22,オールウェイズ株式会社,,株式会社,三重県,四日市市,三栄町４番１５号,,24,202,5100068,,,,,,,2023-03-22,1,,,,,オールウェイズ,0
171,1220001025320,新規,0,2023-03-22,2023-03-22,株式会社梅田地質,,株式会社,石川県,金沢市,御所町１丁目４１６番地２,,17,201,9200813,,,,,,,2023-03-22,1,,,,,ウメダチシツ,0
198,1350001018237,新規,0,2023-03-22,2023-03-22,株式会社ＳＯＲＡ,,株式会社,宮崎県,宮崎市,下北方町横小路５９００－３ヴェルジュ壱番館１０２号,,45,201,8800035,,,,,,,2023-03-22,1,,,,,ソラ,0
214,1430001088676,新規,0,2023-03-22,2023-03-22,ＬＳＬ株式会社,,株式会社,北海道,夕張郡栗山町,字旭台１番地５９,,01,429,0691507,,,,,,,2023-03-22,1,,,,,エルエスエル,0
216,1430003014845,新規,0,2023-03-22,2023-03-22,ＨＮＳ　Ｆｏｏｄｓ合同会社,,合同会社,北海道,札幌市中央区,南七条西１３丁目３番１４－２０１号,,01,101,0640807,,,,,,,2023-03-22,1,,,,,エイチエヌエスフーズ,0
217,1430003014853,新規,0,2023-03-22,2023-03-22,合同会社ＲＭＳ,,合同会社,北海道,札幌市厚別区,厚別北三条５丁目１９番２２号,,01,108,0040073,,,,,,,2023-03-22,1,,,,,アールエムエス,0
221,1700150114560,新規,0,2023-03-22,2023-03-02,山口大学医学部眼科同門会,,その他,山口県,宇部市,南小串１丁目１－１山口大学医学部眼科学教室内,,35,202,7550046,,,,,,,2023-03-02,1,,,,,ヤマグチダイガクイガクブガンカドウモンカイ,0
222,2010001233752,新規,0,2023-03-22,2023-03-22,株式会社ＡＹＲＳ,,株式会社,東京都,中央区,日本橋小伝馬町１３番５号１０階,,13,102,1030001,,,,,,,2023-03-22,1,,,,,アイリス,0
226,2010003040032,新規,0,2023-03-22,2023-03-22,合同会社Ａｔｅｌｉｅｒ,,合同会社,東京都,中央区,銀座１丁目１２番４号Ｎ＆ＥＢＬＤ．６Ｆ,,13,102,1040061,,,,,,,2023-03-22,1,,,,,アトリエ,0
227,2010101015571,新規,0,2023-03-22,2023-03-22,株式会社ユリックス,,株式会社,東京都,八王子市,別所１丁目１８番地１６,,13,201,1920363,,,,,,,2023-03-22,1,,,,,ユリックス,0
235,2010401172773,新規,0,2023-03-22,2023-03-22,株式会社ＡＢＧ‐Ｗパートナーズ,,株式会社,東京都,港区,南青山３丁目１番３６号青山丸竹ビル６Ｆ,,13,103,1070062,,,,,,,2023-03-22,1,,,,,エービージーダブリューパートナーズ,0
236,2010401173177,新規,0,2023-03-22,2023-03-22,株式会社桜,,株式会社,東京都,港区,西麻布４丁目１１番－２－１０１号,,13,103,1060031,,,,,,,2023-03-22,1,,,,,サクラ,0
237,2010401173202,新規,0,2023-03-22,2023-03-22,株式会社ボン・シャンス,,株式会社,東京都,港区,六本木６丁目１２番３－３７０３号,,13,103,1060032,,,,,,,2023-03-22,1,,,,,ボンシャンス,0
238,2010401173219,新規,0,2023-03-22,2023-03-22,株式会社ケーケージー,,株式会社,東京都,港区,芝公園１丁目８番２１号,,13,103,1050011,,,,,,,2023-03-22,1,,,,,ケーケージー,0
239,2010401173227,新規,0,2023-03-22,2023-03-22,株式会社Ａｌｇｏｌｏｇｉｃ,,株式会社,東京都,港区,南青山２丁目２番１５号,,13,103,1070062,,,,,,,2023-03-22,1,,,,,アルゴロジック,0
242,2010403029765,新規,0,2023-03-22,2023-03-22,ＬＳ‐ＤＡＬ第９号合同会社,,合同会社,東京都,港区,六本木１丁目６番１号,,13,103,1060032,,,,,,,2023-03-22,1,,,,,エルエスディーエーエルダイキュウゴウ,0
243,2010403029773,新規,0,2023-03-22,2023-03-22,合同会社なかしま,,合同会社,東京都,港区,虎ノ門３丁目２２番１０－２０１号,,13,103,1050001,,,,,,,2023-03-22,1,,,,,ナカシマ,0
244,2010405021951,新規,0,2023-03-22,2023-03-22,ジー・ジェイ・レジデンス・トゥエルブ一般社団法人,,その他の設立登記法人,東京都,港区,六本木１丁目９番１０号アークヒルズ仙石山森タワー４０階,,13,103,1060032,,,,,,,2023-03-22,1,,,,,ジージェイレジデンストゥエルブ,0
248,2010801033798,新規,0,2023-03-22,2023-03-22,株式会社サカイ産業,,株式会社,東京都,大田区,多摩川２丁目２８番３０－２０２号,,13,111,1460095,,,,,,,2023-03-22,1,,,,,サカイサンギョウ,0
249,2010903008038,新規,0,2023-03-22,2023-03-22,合同会社フィオーレ,,合同会社,東京都,世田谷区,代田２丁目１４番１７号,,13,112,1550033,,,,,,,2023-03-22,1,,,,,フィオーレ,0
256,2011001153263,新規,0,2023-03-22,2023-03-22,株式会社Ｐ‐Ｓｅｃｏｎｄ,,株式会社,東京都,目黒区,目黒１丁目４番１１号７階,,13,110,1530063,,,,,,,2023-03-22,1,,,,,ピーセカンド,0
262,2011103012821,新規,0,2023-03-22,2023-03-22,合同会社ドリームス,,合同会社,東京都,新宿区,西新宿７丁目２２番３１号柏木ＭＵＲＡ,,13,104,1600023,,,,,,,2023-03-22,1,,,,,ドリームス,0
263,2011201024512,新規,0,2023-03-22,2023-03-22,株式会社ＳＥＬＵＬＵ,,株式会社,東京都,中野区,本町４丁目２－２,,13,114,1640012,,,,,,,2023-03-22,1,,,,,セルル,0
266,2011301028545,新規,0,2023-03-22,2023-03-22,株式会社ロータス,,株式会社,東京都,杉並区,西荻北２丁目７番２－１０２リドレス西荻窪１０２,,13,115,1670042,,,,,,,2023-03-22,1,,,,,ロータス,0
267,2011303004701,新規,0,2023-03-22,2023-03-22,トイボックス合同会社,,合同会社,東京都,杉並区,上高井戸１丁目１３番３－３０９号,,13,115,1680074,,,,,,,2023-03-22,1,,,,,トイボックス,0
269,2011501029079,新規,0,2023-03-22,2023-03-22,株式会社ティーアンドケイ,,株式会社,東京都,北区,王子５丁目１－２－１６０９,,13,117,1140002,,,,,,,2023-03-22,1,,,,,ティーアンドケイ,0
273,2011703003419,新規,0,2023-03-22,2023-03-22,合同会社Ｒｏｎｄｏ,,合同会社,東京都,江戸川区,西葛西６丁目２２番３－９０８号,,13,123,1340088,,,,,,,2023-03-22,1,,,,,ロンド,0
275,2011801042112,新規,0,2023-03-22,2023-03-22,株式会社アッパーミート,,株式会社,東京都,葛飾区,水元３丁目３番１３号クレドール水元公園１０６,,13,122,1250032,,,,,,,2023-03-22,1,,,,,アッパーミート,0
276,2011803005562,新規,0,2023-03-22,2023-03-22,合同会社Ｎ通信サービス,,合同会社,東京都,足立区,西新井栄町１丁目１１番８号,,13,121,1230843,,,,,,,2023-03-22,1,,,,,エヌツウシンサービス,0
278,2012801022211,新規,0,2023-03-22,2023-03-22,株式会社オモチャバコ,,株式会社,東京都,日野市,多摩平２丁目５番地の１ＰｌａｎＴ内,,13,212,1910062,,,,,,,2023-03-22,1,,,,,オモチャバコ,0
281,2013301050462,新規,0,2023-03-22,2023-03-22,株式会社フォレスト,,株式会社,東京都,豊島区,駒込２丁目８番６号,,13,116,1700003,,,,,,,2023-03-22,1,,,,,フォレスト,0
282,2013301050470,新規,0,2023-03-22,2023-03-22,株式会社ＴＨＥ　ＮＡＴＵＲＥ　ＪＡＰＡＮ,,株式会社,東京都,豊島区,東池袋５丁目７番３号アゼリア東池袋４０１,,13,116,1700013,,,,,,,2023-03-22,1,,,,,ザネイチャージャパン,0
285,2020001150732,新規,0,2023-03-22,2023-03-22,シングルユニティ株式会社,,株式会社,神奈川県,横浜市西区,北幸１丁目１１番１号水信ビル７階,,14,103,2200004,,,,,,,2023-03-22,1,,,,,シングルユニティ,0
286,2020001150749,新規,0,2023-03-22,2023-03-22,ノートルレーヴ株式会社,,株式会社,神奈川県,川崎市多摩区,枡形３丁目５番３号グラスコート向ヶ丘１１０号室,,14,135,2140032,,,,,,,2023-03-22,1,,,,,ノートルレーヴ,0
287,2020001150757,新規,0,2023-03-22,2023-03-22,株式会社ＳＨＯコンサルティング,,株式会社,神奈川県,横浜市戸塚区,品濃町１７８９番地７ヴィルヌーブガーデンズ・アトラス東戸塚Ｍ－１０６号,,14,110,2440801,,,,,,,2023-03-22,1,,,,,エスエイチオーコンサルティング,0
290,2021001078492,新規,0,2023-03-22,2023-03-22,株式会社ＡＮＤ　ＵＰＤ,,株式会社,神奈川県,鎌倉市,坂ノ下３番７号,,14,204,2480021,,,,,,,2023-03-22,1,,,,,アンドアップディー,0
291,2021001078501,新規,0,2023-03-22,2023-03-22,株式会社コスモ‐１,,株式会社,神奈川県,海老名市,東柏ケ谷２丁目２８番２－３０３号,,14,215,2430401,,,,,,,2023-03-22,1,,,,,コスモワン,0
292,2021003012887,新規,0,2023-03-22,2023-03-22,合同会社むつみパートナー,,合同会社,神奈川県,大和市,上草柳２丁目１０番２０号,,14,213,2420029,,,,,,,2023-03-22,1,,,,,ムツミパートナー,0
293,2021003012895,新規,0,2023-03-22,2023-03-22,合同会社朝陽,,合同会社,神奈川県,厚木市,下依知２丁目１８－１２,,14,212,2430806,,,,,,,2023-03-22,1,,,,,アサヒ,0
300,2030003021402,新規,0,2023-03-22,2023-03-22,合同会社ログスコドロン,,合同会社,埼玉県,富士見市,羽沢３丁目２８番地１２,,11,235,3540033,,,,,,,2023-03-22,1,,,,,ログスコドロン,0
307,2040003022226,新規,0,2023-03-22,2023-03-22,合同会社ＰＯＳＳＥ,,合同会社,千葉県,成田市,本城３５番地５ハーヴェストＩＩＩ１０２号,00129815,12,211,2860114,,,,,,,2023-03-22,1,,,,,ポッセ,0
309,2050001052546,新規,0,2023-03-22,2023-03-22,株式会社ＭＵＧＥＮ‐２４,,株式会社,茨城県,稲敷郡河内町,源清田９１５番地,,08,447,3001324,,,,,,,2023-03-22,1,,,,,ムゲントゥエンティーフォー,0
327,2120001253384,新規,0,2023-03-22,2023-03-22,株式会社アスピシャス,,株式会社,大阪府,守口市,八雲西町２丁目２４番７－２０５号,,27,209,5700006,,,,,,,2023-03-22,1,,,,,アスピシャス,0
328,2120001253401,新規,0,2023-03-22,2023-03-22,株式会社ＳＫＩＬＬ＆ＷＩＬＬ,,株式会社,大阪府,大阪市中央区,西心斎橋２丁目１７－８レバンガ心斎橋ビル８階,,27,128,5420086,,,,,,,2023-03-22,1,,,,,スキルアンドウィル,0
331,2120003023562,新規,0,2023-03-22,2023-03-22,ｎｏ．ｔ．合同会社,,合同会社,大阪府,大阪市北区,梅田１丁目２番２号大阪駅前第２ビル１２－１２,,27,127,5300001,,,,,,,2023-03-22,1,,,,,ナンバーティー,0
332,2120003023587,新規,0,2023-03-22,2023-03-22,合同会社エミライフ,,合同会社,大阪府,大阪市住之江区,西加賀屋４丁目６番３２号ＪＰアパートメント住之江４０７号室,,27,125,5590016,,,,,,,2023-03-22,1,,,,,エミライフ,0
333,2120003023620,新規,0,2023-03-22,2023-03-22,長山合同会社,,合同会社,大阪府,大阪市東淀川区,大桐４丁目４番６７－Ｂ１１０３号,,27,114,5330011,,,,,,,2023-03-22,1,,,,,ナガヤマ,0
334,2120003023653,新規,0,2023-03-22,2023-03-22,合同会社趣,,合同会社,大阪府,枚方市,野村北町６番５号,,27,210,5730143,,,,,,,2023-03-22,1,,,,,オモムキ,0
335,2120003023678,新規,0,2023-03-22,2023-03-22,谷川合同会社,,合同会社,大阪府,大阪市中央区,平野町３丁目３番７号ニューライフ平野町１００３号室,,27,128,5410046,,,,,,,2023-03-22,1,,,,,タニカワ,0
337,2120101067148,新規,0,2023-03-22,2023-03-22,株式会社双鐵組,,株式会社,大阪府,堺市堺区,大町東３丁２番２８号,,27,141,5900954,,,,,,,2023-03-22,1,,,,,ソウテツグミ,0
339,2120901047282,新規,0,2023-03-22,2023-03-22,株式会社アンポット,,株式会社,大阪府,箕面市,稲１丁目５番２６号の５,,27,220,5620015,,,,,,,2023-03-22,1,,,,,アンポット,0
342,2130001073906,新規,0,2023-03-22,2023-03-22,株式会社Ｓｔａｒ,,株式会社,京都府,京都市東山区,富永町１４４ＵＥＤＡ．ＢＬＤ．ＩＩ１階,00129811,26,105,6050078,,,,,,,2023-03-22,1,,,,,スター,0
355,2140003018858,新規,0,2023-03-22,2023-03-22,ＩＭＯＫ合同会社,,合同会社,兵庫県,神戸市灘区,鶴甲４丁目４番地１４号５０５号室,,28,102,6570011,,,,,,,2023-03-22,1,,,,,アイエムオーケー,0
356,2140003018866,新規,0,2023-03-22,2023-03-22,合同会社デグチレザー,,合同会社,兵庫県,たつの市,誉田町広山７２番地,,28,229,6794134,,,,,,,2023-03-22,1,,,,,デグチレザー,0
357,2140003018874,新規,0,2023-03-22,2023-03-22,ＯＳ合同会社,,合同会社,兵庫県,神戸市北区,北五葉５丁目６番２０号,,28,109,6511131,,,,,,,2023-03-22,1,,,,,オーエス,0
358,2140005026512,新規,0,2023-03-22,2023-03-22,特定非営利活動法人夢ノ森伴走者ＣＵＥ,,その他の設立登記法人,兵庫県,姫路市,夢前町前之庄３０番地１４３,,28,201,6712103,,,,,,,2023-03-22,1,,,,,ユメノモリバンソウシャキュー,0
359,2140005026529,新規,0,2023-03-22,2023-03-22,税理士法人スタートミー,,その他の設立登記法人,兵庫県,神戸市中央区,八幡通４丁目１番１５号,,28,110,6510085,,,,,,,2023-03-22,1,,,,,スタートミー,0
361,2160001024906,新規,0,2023-03-22,2023-03-22,株式会社磐戸,,株式会社,滋賀県,大津市,大萱２丁目１２番１号,,25,201,5202144,,,,,,,2023-03-22,1,,,,,イワト,0
362,2160003002819,新規,0,2023-03-22,2023-03-22,合同会社ａｄｄｉｔｉｏｎ,,合同会社,滋賀県,守山市,吉身６丁目４－４６シャトーロワール１０２,,25,207,5240021,,,,,,,2023-03-22,1,,,,,アディション,0
368,2180001155435,新規,0,2023-03-22,2023-03-22,株式会社日乃一企画,,株式会社,愛知県,丹羽郡扶桑町,大字高雄字中郷３３９番地,,23,362,4800102,,,,,,,2023-03-22,1,,,,,ヒノイチキカク,0
408,2290001100966,新規,0,2023-03-22,2023-03-22,株式会社ＮＥＸＵＳ　ＧＬＯＢＡＬ,,株式会社,福岡県,福岡市博多区,博多駅前２丁目１９番１７号トーカン博多第５ビル３１２号室,,40,132,8120011,,,,,,,2023-03-22,1,,,,,ネクサスグローバル,0
416,2320001019641,新規,0,2023-03-22,2023-03-22,株式会社別府スパサービス,,株式会社,大分県,別府市,大字鶴見１６６５番地の１４,,44,202,8740840,,,,,,,2023-03-22,1,,,,,ベップスパサービス,0
430,2370001049741,新規,0,2023-03-22,2023-03-22,豪電設工業株式会社,,株式会社,宮城県,仙台市宮城野区,岡田字浜通４６番地の４,,04,102,9830003,,,,,,,2023-03-22,1,,,,,ゴウデンセツコウギョウ,0
435,2380005012694,新規,0,2023-03-22,2023-03-22,一般社団法人地域創生福祉会,,その他の設立登記法人,福島県,伊達市,梁川町字右城町５６番地の１,,07,213,9600745,,,,,,,2023-03-22,1,,,,,チイキソウセイフクシカイ,0
441,2430001088642,新規,0,2023-03-22,2023-03-22,室蘭エナジー株式会社,,株式会社,北海道,苫小牧市,日新町２丁目７番３３号,,01,213,0530833,,,,,,,2023-03-22,1,,,,,ムロランエナジー,0
442,2430001088683,新規,0,2023-03-22,2023-03-22,株式会社２２２,,株式会社,北海道,札幌市中央区,北六条西２０丁目２番８号税理士法人吉田会計事務所内,,01,101,0600006,,,,,,,2023-03-22,1,,,,,ツーツーツー,0
454,3010001233842,新規,0,2023-03-22,2023-03-22,株式会社メアディライフ,,株式会社,東京都,中央区,日本橋堀留町１丁目１０番１号カクタビル２Ｆ,,13,102,1030012,,,,,,,2023-03-22,1,,,,,メアディライフ,0
460,3010401173176,新規,0,2023-03-22,2023-03-22,Ｎ‐ＰＲＯ．株式会社,,株式会社,東京都,港区,港南２丁目１６－１品川イーストタワー４Ｆ,,13,103,1080075,,,,,,,2023-03-22,1,,,,,エヌプロ,0
461,3010401173184,新規,0,2023-03-22,2023-03-22,株式会社オプティム・ファーム,,株式会社,東京都,港区,海岸１丁目２番２０号,,13,103,1050022,,,,,,,2023-03-22,1,,,,,オプティムファーム,0
462,3010401173201,新規,0,2023-03-22,2023-03-22,株式会社ｓｙｓｒｅｌａｙ,,株式会社,東京都,港区,赤坂８丁目１２番２５号,,13,103,1070052,,,,,,,2023-03-22,1,,,,,シスリレイ,0
463,3010401173234,新規,0,2023-03-22,2023-03-22,株式会社ＡＫ　ｔｈｅ　ｗｅｓｔ,,株式会社,東京都,港区,六本木６丁目１２番４号六本木ヒルズレジデンス８１４号,,13,103,1060032,,,,,,,2023-03-22,1,,,,,エーケーザウエスト,0
465,3010403029764,新規,0,2023-03-22,2023-03-22,合同会社Ｓｐｅｒｏ,,合同会社,東京都,港区,海岸１丁目２番２０号汐留ビルディング３階,,13,103,1050022,,,,,,,2023-03-22,1,,,,,スペロ,0
466,3010403029772,新規,0,2023-03-22,2023-03-22,合同会社ＮＥＸＴＭＥＬＩＵＳ,,合同会社,東京都,港区,南青山３丁目１番３６号青山丸竹ビル６Ｆ,,13,103,1070062,,,,,,,2023-03-22,1,,,,,ネクストメリウス,0
467,3010705003491,新規,0,2023-03-22,2023-03-22,一般社団法人ＳＲＵ品川区ラグビーフットボール協会,,その他の設立登記法人,東京都,品川区,北品川１丁目２２番１６－３０２号,,13,109,1400001,,,,,,,2023-03-22,1,,,,,エスアールユーシナガワクラグビーフットボールキョウカイ,0
471,3011001153213,新規,0,2023-03-22,2023-03-22,ａｂｏｕｔｈａ株式会社,,株式会社,東京都,渋谷区,神宮前６丁目２３番４号桑野ビル２階,,13,113,1500001,,,,,,,2023-03-22,1,,,,,アバウトハ,0
472,3011001153262,新規,0,2023-03-22,2023-03-22,株式会社Ｐ‐Ｆｉｒｓｔ,,株式会社,東京都,目黒区,目黒１丁目４番１１号７階,,13,110,1530063,,,,,,,2023-03-22,1,,,,,ピーファースト,0
473,3011005009989,新規,0,2023-03-22,2023-03-22,一般社団法人Ｍｉｄｗｉｆｅ　Ｂｒｅａｔｈ,,その他の設立登記法人,東京都,渋谷区,恵比寿１丁目２３番１５－４０２号,,13,113,1500013,,,,,,,2023-03-22,1,,,,,ミッドワイフブレス,0
481,3011303004700,新規,0,2023-03-22,2023-03-22,ＰＵＲＰＬＥ合同会社,,合同会社,東京都,杉並区,下高井戸１丁目１８下高井戸ハイツ５０３,,13,115,1680073,,,,,,,2023-03-22,1,,,,,パープル,0
496,3012401040298,新規,0,2023-03-22,2023-03-22,株式会社ＫＵＵＤＯ,,株式会社,東京都,狛江市,岩戸北３丁目２２番１７－１０２号,,13,219,2010004,,,,,,,2023-03-22,1,,,,,クウドー,0
498,3012403005885,新規,0,2023-03-22,2023-03-22,合同会社ｄａｄａ,,合同会社,東京都,稲城市,坂浜３丁目１４‐１５,,13,225,2060822,,,,,,,2023-03-22,1,,,,,ダダ,0
499,3012801022210,新規,0,2023-03-22,2023-03-22,株式会社ＴＹＰ,,株式会社,東京都,東大和市,立野３丁目６３２番地の７,,13,220,2070021,,,,,,,2023-03-22,1,,,,,ティーワイピー,0
501,3013301050453,新規,0,2023-03-22,2023-03-22,株式会社ＴＲＯＷ,,株式会社,東京都,豊島区,千早１丁目６－１０,,13,116,1710044,,,,,,,2023-03-22,1,,,,,トロウ,0
502,3013301050478,新規,0,2023-03-22,2023-03-22,株式会社ＩＴＯＹＡ,,株式会社,東京都,豊島区,東池袋１丁目４３番１０号,,13,116,1700013,,,,,,,2023-03-22,1,,,,,イトヤ,0
503,3013303006544,新規,0,2023-03-22,2023-03-22,合同会社ゴローズ,,合同会社,東京都,豊島区,南長崎１丁目１９番２号,,13,116,1710052,,,,,,,2023-03-22,1,,,,,ゴローズ,0
508,3020001150723,新規,0,2023-03-22,2023-03-22,株式会社網倉商事,,株式会社,神奈川県,川崎市麻生区,片平１８８６番地,,14,137,2150023,,,,,,,2023-03-22,1,,,,,アミクラショウジ,0
509,3020001150731,新規,0,2023-03-22,2023-03-22,株式会社リビィ,,株式会社,神奈川県,横浜市栄区,笠間３丁目４５番Ａ－２０６号,,14,115,2470006,,,,,,,2023-03-22,1,,,,,リビィ,0
510,3020001150748,新規,0,2023-03-22,2023-03-22,株式会社Ｅ．Ｇ．Ｕ,,株式会社,神奈川県,川崎市中原区,宮内３丁目１２番１９号メゾンドブラン１０３,,14,133,2110051,,,,,,,2023-03-22,1,,,,,イージーユー,0
511,3020001150756,新規,0,2023-03-22,2023-03-22,株式会社こころ企画,,株式会社,神奈川県,横浜市保土ケ谷区,権太坂１丁目１０番３号,,14,106,2400026,,,,,,,2023-03-22,1,,,,,ココロキカク,0
513,3021001078491,新規,0,2023-03-22,2023-03-22,株式会社エッジコム,,株式会社,神奈川県,茅ヶ崎市,堤５９番地２０,,14,207,2530006,,,,,,,2023-03-22,1,,,,,エッジコム,0
514,3021001078500,新規,0,2023-03-22,2023-03-22,株式会社ヒナタヤ,,株式会社,神奈川県,藤沢市,辻堂２丁目３－９,,14,205,2510047,,,,,,,2023-03-22,1,,,,,ヒナタヤ,0
515,3021003012894,新規,0,2023-03-22,2023-03-22,ＯＹＡＳＨＩ　ＳＨＯＫＡＩ合同会社,,合同会社,神奈川県,座間市,栗原１０７７番地７カオリハイツ２０２,,14,216,2520013,,,,,,,2023-03-22,1,,,,,オヤシショウカイ,0
518,3030001152917,新規,0,2023-03-22,2023-03-22,株式会社ＭＩＹＯＳＨＩホールディングス,,株式会社,埼玉県,入間郡三芳町,大字上富１９１６番地１０,,11,324,3540045,,,,,,,2023-03-22,1,,,,,ミヨシホールディングス,0
519,3030001152925,新規,0,2023-03-22,2023-03-22,株式会社今西架設,,株式会社,埼玉県,川口市,末広２丁目１４番６号,,11,203,3320006,,,,,,,2023-03-22,1,,,,,イマニシカセツ,0
520,3030001152933,新規,0,2023-03-22,2023-03-22,株式会社クリハラ工業,,株式会社,埼玉県,川口市,大字差間２番地の６,,11,203,3330816,,,,,,,2023-03-22,1,,,,,クリハラコウギョウ,0
521,3030001152941,新規,0,2023-03-22,2023-03-22,能楽株式会社,,株式会社,埼玉県,川口市,本前川３丁目３０番６号,,11,203,3330849,,,,,,,2023-03-22,1,,,,,ノウガク,0
522,3030001152958,新規,0,2023-03-22,2023-03-22,ワイズ株式会社,,株式会社,埼玉県,狭山市,大字堀兼８０９番地の５,,11,215,3501312,,,,,,,2023-03-22,1,,,,,ワイズ,0
524,3030003021401,新規,0,2023-03-22,2023-03-22,Ｓｔｕｄｉｏ９ｔｈ合同会社,,合同会社,埼玉県,川越市,喜多町二丁目１番地２Ｆ,,11,201,3500061,,,,,,,2023-03-22,1,,,,,スタジオナイン,0
532,3040001127587,新規,0,2023-03-22,2023-03-22,Ｂｅｌｌｅｚｚａ株式会社,,株式会社,千葉県,八街市,八街は７２番地２４,,12,230,2891107,,,,,,,2023-03-22,1,,,,,ベレッサ,0
533,3040001127595,新規,0,2023-03-22,2023-03-22,株式会社ＥＮＤ　ＦＩＲＥ,,株式会社,千葉県,船橋市,東中山２丁目１番３号,,12,204,2730036,,,,,,,2023-03-22,1,,,,,エンドファイア,0
534,3040002094199,新規,0,2023-03-22,2023-03-22,有限会社さこだ新聞店,,有限会社,千葉県,柏市,豊四季１６７番地,,12,217,2770863,,,,,,,2023-03-22,1,,,,,サコダシンブンテン,0
538,3040005021935,新規,0,2023-03-22,2023-03-22,一般社団法人徹心人道支援慈愛会,,その他の設立登記法人,千葉県,船橋市,前原西２丁目１４番１号ダイアパレス津田沼４０４号室,,12,204,2740825,,,,,,,2023-03-22,1,,,,,テッシンジンドウシエンジアイカイ,0
540,3050001052553,新規,0,2023-03-22,2023-03-22,株式会社和恩コンセプト,,株式会社,茨城県,守谷市,本町６０３１－３守谷和恩ビル１０１,,08,224,3020109,,,,,,,2023-03-22,1,,,,,ワオンコンセプト,0
552,3080403004760,新規,0,2023-03-22,2023-03-22,合同会社ＰＡＴＡＰＡＴＡ,,合同会社,静岡県,浜松市北区,引佐町田沢１１３３－３,,22,135,4312536,,,,,,,2023-03-22,1,,,,,パタパタ,0
556,3110003005008,新規,0,2023-03-22,2023-03-22,合同会社あまやどり,,合同会社,新潟県,南魚沼郡湯沢町,大字神立３９５１番地２,,15,461,9496102,,,,,,,2023-03-22,1,,,,,アマヤドリ,0
570,3120003023677,新規,0,2023-03-22,2023-03-22,エノル合同会社,,合同会社,大阪府,大阪市阿倍野区,阿倍野筋１丁目１番４３号あべのハルカス３１階,,27,119,5450052,,,,,,,2023-03-22,1,,,,,エノル,0
578,3130001073888,新規,0,2023-03-22,2023-03-22,株式会社Ｄ＆Ｍ,,株式会社,京都府,京都市伏見区,醍醐山ケ鼻２４番地,,26,109,6011304,,,,,,,2023-03-22,1,,,,,ディーアンドエム,0
586,3140001129516,新規,0,2023-03-22,2023-03-22,株式会社なかと畜産,,株式会社,兵庫県,淡路市,多賀１４番地,,28,226,6561521,,,,,,,2023-03-22,1,,,,,ナカトチクサン,0
587,3140001129532,新規,0,2023-03-22,2023-03-22,株式会社平成実業,,株式会社,兵庫県,神戸市中央区,中町通２丁目２番１８号平戸ビル,,28,110,6500027,,,,,,,2023-03-22,1,,,,,ヘイセイジツギョウ,0
589,3140003018865,新規,0,2023-03-22,2023-03-22,合同会社ＭＩＮＡＭＯＴＯ,,合同会社,兵庫県,神戸市灘区,上野通１丁目１番８号,,28,102,6570817,,,,,,,2023-03-22,1,,,,,ミナモト,0
591,3140005026528,新規,0,2023-03-22,2023-03-22,医療法人社団相優会,,その他の設立登記法人,兵庫県,尼崎市,上坂部１丁目４番１号ミリオンタウン塚口２階,,28,202,6610979,,,,,,,2023-03-22,1,,,,,アイユウカイ,0
595,3150005009465,新規,0,2023-03-22,2023-03-22,一般社団法人奈良県菊花連盟,,その他の設立登記法人,奈良県,奈良市,北之庄西町１丁目１１－２,,29,201,6308452,,,,,,,2023-03-22,1,,,,,ナラケンキッカレンメイ,0
601,3180001155434,新規,0,2023-03-22,2023-03-22,株式会社ノイン,,株式会社,愛知県,名古屋市南区,内田橋１丁目３番８号,,23,112,4570862,,,,,,,2023-03-22,1,,,,,ノイン,0
602,3180001155442,新規,0,2023-03-22,2023-03-22,株式会社アイトー,,株式会社,愛知県,名古屋市千種区,清住町２丁目３７番地,,23,101,4640034,,,,,,,2023-03-22,1,,,,,アイトー,0
603,3180001155450,新規,0,2023-03-22,2023-03-22,ニューミー株式会社,,株式会社,愛知県,名古屋市中区,丸の内２丁目１５番１２号‐２ザ・テラス丸の内９０１,,23,106,4600002,,,,,,,2023-03-22,1,,,,,ニューミー,0
609,3190001030264,新規,0,2023-03-22,2023-03-22,株式会社こころ,,株式会社,三重県,津市,乙部２０９番地,,24,201,5140016,,,,,,,2023-03-22,1,,,,,ココロ,0
614,3200005013461,新規,0,2023-03-22,2023-03-22,司法書士法人大地,,その他の設立登記法人,岐阜県,関市,小瀬２３６０番地６,,21,205,5013265,,,,,,,2023-03-22,1,,,,,ダイチ,0
618,3230005009283,新規,0,2023-03-22,2023-03-22,一般社団法人Ａｔｈｒｉｃｈｅ,,その他の設立登記法人,富山県,富山市,五福１９４２番地,,16,201,9300887,,,,,,,2023-03-22,1,,,,,アスリッシュ,0
625,3240001061238,新規,0,2023-03-22,2023-03-22,未来ｓｅｗｉｎｇ株式会社,,株式会社,広島県,安芸郡府中町,柳ケ丘６５番１５号,,34,302,7350014,,,,,,,2023-03-22,1,,,,,ミライソーイング,0
626,3240003006067,新規,0,2023-03-22,2023-03-22,アミカル合同会社,,合同会社,広島県,広島市佐伯区,五日市中央５丁目９番３－３０２号,,34,108,7315128,,,,,,,2023-03-22,1,,,,,アミカル,0
638,3290001100833,新規,0,2023-03-22,2023-03-22,株式会社ＲＡＰＰＯＲＴ,,株式会社,福岡県,福岡市博多区,博多駅前１丁目２３番１号ＰａｒｋＦｒｏｎｔ博多駅前１丁目５Ｆ－Ｂ,,40,132,8120011,,,,,,,2023-03-22,1,,,,,ラポール,0
639,3290001100940,新規,0,2023-03-22,2023-03-22,株式会社Ｏｎｅ　ｓｅｎｓｅ,,株式会社,福岡県,福岡市東区,和白丘１丁目１９番２９－１００２号,,40,131,8110213,,,,,,,2023-03-22,1,,,,,ワンセンス,0
640,3290001100957,新規,0,2023-03-22,2023-03-22,ＹＥＮＧＩＭＯＮ株式会社,,株式会社,福岡県,福岡市中央区,天神２丁目２番１２号Ｔ＆Ｊビルディング７Ｆ,,40,133,8100001,,,,,,,2023-03-22,1,,,,,エンギモン,0
644,3290005018980,新規,0,2023-03-22,2023-03-22,一般社団法人にわむすび,,その他の設立登記法人,福岡県,福岡市中央区,清川２丁目４番２９－３０６号新高砂マンション,,40,133,8100005,,,,,,,2023-03-22,1,,,,,ニワムスビ,0
661,3380003005419,新規,0,2023-03-22,2023-03-22,合同会社小野寺,,合同会社,福島県,いわき市,勿来町窪田馬場５４番地,,07,204,9790141,,,,,,,2023-03-22,1,,,,,オノデラ,0
663,3410001013428,新規,0,2023-03-22,2023-03-22,株式会社北野,,株式会社,秋田県,潟上市,昭和大久保字北野海老漉沼端１３８番地２４４,,05,211,0181401,,,,,,,2023-03-22,1,,,,,キタノ,0
667,3430001088666,新規,0,2023-03-22,2023-03-22,株式会社宮と森,,株式会社,北海道,虻田郡京極町,字更進４１７番地南京極団地Ｍ－１棟３号,,01,399,0440132,,,,,,,2023-03-22,1,,,,,ミヤトモリ,0
668,3430001088682,新規,0,2023-03-22,2023-03-22,株式会社ｎａｔｉｖｅ　ｆｏｒｅｓｔ,,株式会社,北海道,札幌市白石区,栄通１０丁目４番３号パルコート１０１号,,01,104,0030021,,,,,,,2023-03-22,1,,,,,ネイティブフォレスト,0
675,3430003014843,新規,0,2023-03-22,2023-03-22,ＫＯＵＹＵＫＩ合同会社,,合同会社,北海道,虻田郡ニセコ町,字曽我８２５番地１５,,01,395,0481522,,,,,,,2023-03-22,1,,,,,コウユキ,0
678,3450001013928,新規,0,2023-03-22,2023-03-22,株式会社ＴｅｒｒａｃｅＳｅｒｖｉｃｅ,,株式会社,北海道,旭川市,豊岡九条４丁目２番５号,,01,204,0788239,,,,,,,2023-03-22,1,,,,,テラスサービス,0
680,3460305001990,新規,0,2023-03-22,2023-03-22,医療法人Ｇｅｎｋｉ,,その他の設立登記法人,北海道,網走市,潮見７丁目１４番７号,,01,211,0930042,,,,,,,2023-03-22,1,,,,,ゲンキ,0
688,3480003001952,新規,0,2023-03-22,2023-03-22,合同会社ＭＩＳＡＮＯ,,合同会社,徳島県,徳島市,西船場町３丁目１２番,,36,201,7700901,,,,,,,2023-03-22,1,,,,,ミザーノ,0
692,3700150031969,新規,0,2023-03-22,2015-10-09,北海道農協連合会関係労働組合協議会,,その他,北海道,札幌市中央区,北四条西１丁目共済ビル,,01,101,0600004,,,,,,,2015-10-09,1,,,,,ホツカイドウノウキヨウレンゴウカイカンケイロウドウクミアイキヨウギカイ,0
696,4010001233841,新規,0,2023-03-22,2023-03-22,株式会社ＧＡＫＵＳＡＩ,,株式会社,東京都,中央区,新川１丁目６番１１号Ｂ１Ｆ,,13,102,1040033,,,,,,,2023-03-22,1,,,,,ガクサイ,0
699,4010003040105,新規,0,2023-03-22,2023-03-22,Ｖｉｚ．Ｂｉｚ合同会社,,合同会社,東京都,中央区,銀座１丁目１２番４号Ｎ＆ＥＢＬＤ．６Ｆ,,13,102,1040061,,,,,,,2023-03-22,1,,,,,ビズビズ,0
704,4010401173200,新規,0,2023-03-22,2023-03-22,株式会社福祉整備事業団,,株式会社,東京都,港区,芝浦２丁目１７－２田町竹芝ハイツ２０１,,13,103,1080023,,,,,,,2023-03-22,1,,,,,フクシセイビジギョウダン,0
705,4010401173209,新規,0,2023-03-22,2023-03-22,株式会社デラモード,,株式会社,東京都,港区,白金３丁目１１番２－４０９号,,13,103,1080072,,,,,,,2023-03-22,1,,,,,デラモード,0
706,4010401173217,新規,0,2023-03-22,2023-03-22,株式会社ＭＺＩＴ,,株式会社,東京都,港区,赤坂１丁目８番１号,,13,103,1070052,,,,,,,2023-03-22,1,,,,,エムジット,0
707,4010401173225,新規,0,2023-03-22,2023-03-22,株式会社インヘリカス,,株式会社,東京都,港区,西新橋１丁目２－９日比谷セントラルビル１４Ｆ,,13,103,1050003,,,,,,,2023-03-22,1,,,,,インヘリカス,0
711,4010801033796,新規,0,2023-03-22,2023-03-22,株式会社ｓｏｍｅｇｒｏｗｔｈ,,株式会社,東京都,大田区,南千束２丁目１１番１－３０３号,,13,111,1450063,,,,,,,2023-03-22,1,,,,,サムグロース,0
712,4010901052746,新規,0,2023-03-22,2023-03-22,ネクストレルム株式会社,,株式会社,東京都,世田谷区,駒沢３丁目２７番９－４０７,,13,112,1540012,,,,,,,2023-03-22,1,,,,,ネクストレルム,0
713,4010903008036,新規,0,2023-03-22,2023-03-22,合同会社ＭＳ,,合同会社,東京都,世田谷区,玉川台２丁目３１―１９―Ｂ,,13,112,1580096,,,,,,,2023-03-22,1,,,,,エムエス,0
718,4011001153253,新規,0,2023-03-22,2023-03-22,Ｋａｔａｙａｍａ　Ｎｅｗ　Ｂｕｓｉｎｅｓｓ　Ｃｏｒｐｏｒａｔｉｏｎ株式会社,,株式会社,東京都,渋谷区,恵比寿南３丁目１番１号いちご恵比寿グリーングラス４階,,13,113,1500022,,,,,,,2023-03-22,1,,,,,カタヤマニュービジネスコーポレーション,0
722,4011003016474,新規,0,2023-03-22,2023-03-22,合同会社トーチテック,,合同会社,東京都,渋谷区,円山町５番５号Ｎａｖｉ渋谷Ｖ３階,,13,113,1500044,,,,,,,2023-03-22,1,,,,,トーチテック,0
725,4011101102226,新規,0,2023-03-22,2023-03-22,株式会社アーバン,,株式会社,東京都,新宿区,大京町２１番地１２ブルーポスト２０１,,13,104,1600015,,,,,,,2023-03-22,1,,,,,アーバン,0
730,4011303004699,新規,0,2023-03-22,2023-03-22,合同会社Ｖｉｏｆｏｏｄｓ,,合同会社,東京都,杉並区,荻窪５丁目２３－８,,13,115,1670051,,,,,,,2023-03-22,1,,,,,ビオフーズ,0
739,4012403005892,新規,0,2023-03-22,2023-03-22,合同会社コーシェリ,,合同会社,東京都,調布市,染地２丁目５２番７７号,,13,208,1820023,,,,,,,2023-03-22,1,,,,,コーシェリ,0
742,4013301050460,新規,0,2023-03-22,2023-03-22,株式会社エプラスワールド,,株式会社,東京都,豊島区,雑司が谷２丁目８番１号フレイ１０２号室,,13,116,1710032,,,,,,,2023-03-22,1,,,,,エプラスワールド,0
743,4013301050477,新規,0,2023-03-22,2023-03-22,株式会社レツジャパン,,株式会社,東京都,豊島区,東池袋５丁目７番３号アゼリア東池袋４０１,,13,116,1700013,,,,,,,2023-03-22,1,,,,,レツジャパン,0
744,4013301050485,新規,0,2023-03-22,2023-03-22,株式会社リンケージ,,株式会社,東京都,豊島区,目白１丁目３番１７号Ｂ４０８,,13,116,1710031,,,,,,,2023-03-22,1,,,,,リンケージ,0
745,4013303006519,新規,0,2023-03-22,2023-03-22,合同会社Ｎｙａｎ　Ｍｅｄｉａ,,合同会社,東京都,豊島区,池袋本町１丁目１６－２３,,13,116,1700011,,,,,,,2023-03-22,1,,,,,ニャンメディア,0
746,4020001150747,新規,0,2023-03-22,2023-03-22,株式会社Ｐａｔｈ　ｏｆ　Ｌｉｇｈｔ,,株式会社,神奈川県,横浜市金沢区,富岡西７丁目８番７号,,14,108,2360052,,,,,,,2023-03-22,1,,,,,パスオブライト,0
749,4021001078458,新規,0,2023-03-22,2023-03-22,株式会社ＮＰ２,,株式会社,神奈川県,横須賀市,若松町３丁目１４－５，エムステージ横須賀中央Ｂ１,,14,201,2380007,,,,,,,2023-03-22,1,,,,,エヌピーツー,0
752,4021003012893,新規,0,2023-03-22,2023-03-22,合同会社奥山事務所,,合同会社,神奈川県,座間市,ひばりが丘１丁目２９番２０号,,14,216,2520003,,,,,,,2023-03-22,1,,,,,オクヤマジムショ,0
753,4021003012902,新規,0,2023-03-22,2023-03-22,合同会社丸七商店,,合同会社,神奈川県,鎌倉市,小町１丁目３番４号,,14,204,2480006,,,,,,,2023-03-22,1,,,,,マルシチショウテン,0
760,4030001152916,新規,0,2023-03-22,2023-03-22,株式会社Ｖｉｓｉｏｎａｒｙ,,株式会社,埼玉県,川口市,東川口１丁目１１番３０－６１０号,,11,203,3330801,,,,,,,2023-03-22,1,,,,,ビジョナリー,0
761,4030001152924,新規,0,2023-03-22,2023-03-22,ＭＹＫ　Ｃｏｎｓｕｌｔｉｎｇ株式会社,,株式会社,埼玉県,白岡市,小久喜１４２０番地５,,11,246,3490217,,,,,,,2023-03-22,1,,,,,エムワイケーコンサルティング,0
762,4030001152932,新規,0,2023-03-22,2023-03-22,アリナホーム株式会社,,株式会社,埼玉県,所沢市,寿町１４番１号,,11,208,3591122,,,,,,,2023-03-22,1,,,,,アリナホーム,0
763,4030001152965,新規,0,2023-03-22,2023-03-22,株式会社金田建設,,株式会社,埼玉県,越谷市,大字南荻島４０４７番地８,,11,222,3430804,,,,,,,2023-03-22,1,,,,,カネタケンセツ,0
764,4030003021391,新規,0,2023-03-22,2023-03-22,Ｔ．Ｂ合同会社,,合同会社,埼玉県,鶴ヶ島市,大字脚折２７２番地２,,11,241,3502213,,,,,,,2023-03-22,1,,,,,ティービー,0
765,4030003021400,新規,0,2023-03-22,2023-03-22,合同会社ＣＯＴＯＥ,,合同会社,埼玉県,さいたま市見沼区,大字蓮沼２８６番地１３,,11,104,3370015,,,,,,,2023-03-22,1,,,,,コトエ,0
766,4030003021417,新規,0,2023-03-22,2023-03-22,合同会社ＶＩＣＴＬＯＵＤ,,合同会社,埼玉県,さいたま市浦和区,東仲町６－２０アトーレ東仲町マンション３０２,,11,107,3300056,,,,,,,2023-03-22,1,,,,,ビクトラウド,0
767,4030005021175,新規,0,2023-03-22,2023-03-22,一般社団法人Ｔｒａｃｔ,,その他の設立登記法人,埼玉県,さいたま市緑区,大字大門２８８２番地,,11,109,3360963,,,,,,,2023-03-22,1,,,,,トラクト,0
771,4050001052552,新規,0,2023-03-22,2023-03-22,株式会社サクセス・クリエイティブ,,株式会社,茨城県,守谷市,本町６０３１－３守谷和恩ビル２０２,,08,224,3020109,,,,,,,2023-03-22,1,,,,,サクセスクリエイティブ,0
772,4050003007323,新規,0,2023-03-22,2023-03-22,Ｋ＆Ｋ合同会社,,合同会社,茨城県,古河市,坂間３３７番地２リビングタウン古河南Ｂ棟２０２,,08,204,3060056,,,,,,,2023-03-22,1,,,,,ケイアンドケイ,0
774,4070001040241,新規,0,2023-03-22,2023-03-22,株式会社ウルラ不動産,,株式会社,群馬県,北群馬郡吉岡町,大字南下４９７番地１,,10,345,3703604,,,,,,,2023-03-22,1,,,,,ウルラフドウサン,0
782,4100003006930,新規,0,2023-03-22,2023-03-22,合同会社あさま商会,,合同会社,長野県,長野市,篠ノ井杵淵６８番地２６,,20,201,3888019,,,,,,,2023-03-22,1,,,,,アサマショウカイ,0
783,4100005012984,新規,0,2023-03-22,2023-03-22,ＮＰＯ法人長野県防災・社会政策研究所,,その他の設立登記法人,長野県,長野市,大字西長野４番地１ローヤルシティ長野信大前７０３,,20,201,3800871,,,,,,,2023-03-22,1,,,,,ナガノケンボウサイシャカイセイサクケンキュウジョ,0
795,4120001253317,新規,0,2023-03-22,2023-03-22,ＬＡＩＬＡＩ株式会社,,株式会社,大阪府,大阪市浪速区,下寺３丁目１番１４号エクレール夕陽ケ丘５号２０６,,27,111,5560001,,,,,,,2023-03-22,1,,,,,ライライ,0
796,4120001253325,新規,0,2023-03-22,2023-03-22,ｉｎｓｕｉｔｅ株式会社,,株式会社,大阪府,大阪市中央区,南船場２丁目１０－２１－３０５号,,27,128,5420081,,,,,,,2023-03-22,1,,,,,インスイート,0
797,4120001253399,新規,0,2023-03-22,2023-03-22,株式会社ＡＴＬＡＳ,,株式会社,大阪府,大阪市住之江区,粉浜西２丁目５番７号,,27,125,5590007,,,,,,,2023-03-22,1,,,,,アトラス,0
798,4120001253408,新規,0,2023-03-22,2023-03-22,株式会社Ｋ＆Ｋ,,株式会社,大阪府,大阪市西区,立売堀１丁目１２番１８号,,27,106,5500012,,,,,,,2023-03-22,1,,,,,ケーアンドケー,0
801,4120005023518,新規,0,2023-03-22,2023-03-22,一般社団法人Ｈｕｇ　ｍｅ,,その他の設立登記法人,大阪府,大阪市北区,芝田２丁目８－１１共栄ビル３Ｆ,,27,127,5300012,,,,,,,2023-03-22,1,,,,,ハグミー,0
804,4120901047289,新規,0,2023-03-22,2023-03-22,株式会社ＴＡＫＡＹＯＳＨＩ．Ｇ,,株式会社,大阪府,摂津市,鳥飼西２丁目１４番３２号,,27,224,5660072,,,,,,,2023-03-22,1,,,,,タカヨシ,0
805,4120903004552,新規,0,2023-03-22,2023-03-22,ぴぃす９合同会社,,合同会社,大阪府,高槻市,川添２丁目８番３号,,27,207,5690824,,,,,,,2023-03-22,1,,,,,ピィスナイン,0
807,4130001073895,新規,0,2023-03-22,2023-03-22,株式会社ＡＳＰＩＲＥ,,株式会社,京都府,京都市下京区,仏光寺通烏丸東入上柳町３３１番地タカノハスクエア３Ｆ３３８号室,,26,106,6008099,,,,,,,2023-03-22,1,,,,,アスパイア,0
810,4130003008602,新規,0,2023-03-22,2023-03-22,ＶＡＬＭＯＮＤ合同会社,,合同会社,京都府,南丹市,八木町八木鹿草９－４,,26,213,6290141,,,,,,,2023-03-22,1,,,,,ヴァルモンド,0
813,4140001129498,新規,0,2023-03-22,2023-03-22,株式会社ｅｇｎｅＬ,,株式会社,兵庫県,加西市,上道山町２９番地の１,,28,220,6752453,,,,,,,2023-03-22,1,,,,,エグネル,0
814,4140001129515,新規,0,2023-03-22,2023-03-22,株式会社Ｏｐｅｎ　Ｖｉｌｌａｇｅ,,株式会社,兵庫県,神戸市須磨区,行幸町１丁目１－１２オーシャンテラス須磨海浜公園６０２,,28,107,6540052,,,,,,,2023-03-22,1,,,,,オープンビレッジ,0
815,4140005026519,新規,0,2023-03-22,2023-03-22,特定非営利活動法人淡路島・地域共生社会実現ラボ,,その他の設立登記法人,兵庫県,洲本市,下加茂１丁目３－１３,,28,205,6560013,,,,,,,2023-03-22,1,,,,,アワジシマチイキキョウセイシャカイジツゲンラボ,0
816,4150001026232,新規,0,2023-03-22,2023-03-22,株式会社ハート書房,,株式会社,奈良県,奈良市,芝辻町４丁目２－２,00129809,29,201,6308114,,,,,,,2023-03-22,1,,,,,ハートショボウ,0
825,4180001155417,新規,0,2023-03-22,2023-03-22,株式会社べる・カンパニー,,株式会社,愛知県,春日井市,前並町１丁目１５番地４,,23,206,4860903,,,,,,,2023-03-22,1,,,,,ベルカンパニー,0
826,4180001155474,新規,0,2023-03-22,2023-03-22,株式会社ＢＣＳ,,株式会社,愛知県,一宮市,奥町字郷浦２９番地１,,23,203,4910201,,,,,,,2023-03-22,1,,,,,ビーシーエス,0
831,4180301037216,新規,0,2023-03-22,2023-03-22,株式会社ＨＯＮＥＳＴＹ,,株式会社,愛知県,豊橋市,駅前大通２丁目７１番地,,23,201,4400888,,,,,,,2023-03-22,1,,,,,オネスティ,0
837,4200005013460,新規,0,2023-03-22,2023-03-22,恵那市商店街振興組合,,その他の設立登記法人,岐阜県,恵那市,長島町正家１丁目５番地１１,,21,210,5097203,,,,,,,2023-03-22,1,,,,,エナシ,0
844,4240001061237,新規,0,2023-03-22,2023-03-22,株式会社ＫＭＪ,,株式会社,広島県,広島市安佐南区,高取北１丁目５１番７－３号,,34,105,7310144,,,,,,,2023-03-22,1,,,,,ケーエムジェイ,0
845,4240003006066,新規,0,2023-03-22,2023-03-22,プレシャスエム合同会社,,合同会社,広島県,広島市東区,牛田新町３丁目２０番１－３０１号,,34,102,7320068,,,,,,,2023-03-22,1,,,,,プレシャスエム,0
860,4290001100931,新規,0,2023-03-22,2023-03-22,株式会社ルメナージュ,,株式会社,福岡県,福岡市南区,西長住２丁目２７番２号,,40,134,8111361,,,,,,,2023-03-22,1,,,,,ルメナージュ,0
861,4290001100948,新規,0,2023-03-22,2023-03-22,株式会社ユニ・ルート,,株式会社,福岡県,久留米市,東櫛原町６０９番地１エトランゼ東櫛原１５－３０３号室,,40,203,8300003,,,,,,,2023-03-22,1,,,,,ユニルート,0
862,4290001100964,新規,0,2023-03-22,2023-03-22,株式会社糸島ベース,,株式会社,福岡県,糸島市,美咲が丘１丁目１８－２６,,40,230,8191136,,,,,,,2023-03-22,1,,,,,イトシマベース,0
866,4290003013693,新規,0,2023-03-22,2023-03-22,合同会社ＦＲワークス,,合同会社,福岡県,福岡市早良区,昭代３丁目１番２１号,,40,137,8140012,,,,,,,2023-03-22,1,,,,,エフアールワークス,0
869,4290801029387,新規,0,2023-03-22,2023-03-22,株式会社糸田町環境整備,,株式会社,福岡県,田川郡糸田町,４０４５番地８３,,40,604,8221300,,,,,,,2023-03-22,1,,,,,イトダマチカンキョウセイビ,0
873,4320005010058,新規,0,2023-03-22,2023-03-22,無限責任坂折負債整理組合,,その他の設立登記法人,大分県,竹田市,,,44,208,8780000,,,,,,,2023-03-22,1,,,,,,0
876,4330001030694,新規,0,2023-03-22,2023-03-22,株式会社電研,,株式会社,熊本県,熊本市東区,画図町大字下無田２２４番地１,,43,102,8620945,,,,,,,2023-03-22,1,,,,,デンケン,0
891,4370001049723,新規,0,2023-03-22,2023-03-22,まるもりんく株式会社,,株式会社,宮城県,伊具郡丸森町,字田町南７２‐３,,04,341,9812167,,,,,,,2023-03-22,1,,,,,マルモリンク,0
899,4430001088673,新規,0,2023-03-22,2023-03-22,株式会社ＹＵＡ,,株式会社,北海道,札幌市清田区,里塚三条４丁目３番１０号,,01,110,0040803,,,,,,,2023-03-22,1,,,,,ユア,0
901,4430003014842,新規,0,2023-03-22,2023-03-22,メラネット合同会社,,合同会社,北海道,札幌市中央区,南二条西３丁目１３番４号カタオカビル３Ｆ,,01,101,0600062,,,,,,,2023-03-22,1,,,,,メラネット,0
912,5010001233824,新規,0,2023-03-22,2023-03-22,ＡＲＧＯＳＣＡＰＥ株式会社,,株式会社,東京都,千代田区,丸の内１丁目８番３号丸の内トラストタワー本館２０階,,13,101,1000005,,,,,,,2023-03-22,1,,,,,アルゴスケープ,0
913,5010001233840,新規,0,2023-03-22,2023-03-22,株式会社ｉｎａＦｌａｓｈ,,株式会社,東京都,中央区,日本橋大伝馬町１３－７,,13,102,1030011,,,,,,,2023-03-22,1,,,,,イナフラッシュ,0
914,5010003040129,新規,0,2023-03-22,2023-03-22,合同会社ＣａｎＢｅ,,合同会社,東京都,中央区,銀座１丁目１２番４号Ｎ＆ＥＢＬＤ．６Ｆ,,13,102,1040061,,,,,,,2023-03-22,1,,,,,キャンビー,0
916,5010101015569,新規,0,2023-03-22,2023-03-22,株式会社ＡＧＮＯＳ,,株式会社,東京都,八王子市,東町１２番５号ＮＳビル７Ｆ,,13,201,1920082,,,,,,,2023-03-22,1,,,,,アグノス,0
929,5010401173199,新規,0,2023-03-22,2023-03-22,Ｆｒａｎｎｙ株式会社,,株式会社,東京都,港区,白金４丁目１０番１８－５０５号,,13,103,1080072,,,,,,,2023-03-22,1,,,,,フラニー,0
930,5010401173216,新規,0,2023-03-22,2023-03-22,株式会社ＴＯＢＥ　ＭＵＳＩＣ,,株式会社,東京都,港区,南青山４丁目１番１５号ベルテ南青山８０２,,13,103,1070062,,,,,,,2023-03-22,1,,,,,トゥービーミュージック,0
931,5010401173232,新規,0,2023-03-22,2023-03-22,京舞茶株式会社,,株式会社,東京都,港区,西新橋３丁目２４番８号山内ビル３階,,13,103,1050003,,,,,,,2023-03-22,1,,,,,キョウブチャ,0
936,5010403029738,新規,0,2023-03-22,2023-03-22,合同会社ＣＬＯＶＥＲ,,合同会社,東京都,港区,南青山２丁目２番１５号,,13,103,1070062,,,,,,,2023-03-22,1,,,,,クローバー,0
937,5010403029770,新規,0,2023-03-22,2023-03-22,ネクスト合同会社,,合同会社,東京都,港区,南青山５丁目１７番２号,,13,103,1070062,,,,,,,2023-03-22,1,,,,,ネクスト,0
938,5010405021916,新規,0,2023-03-22,2023-03-22,一般社団法人ナディア,,その他の設立登記法人,東京都,港区,赤坂８丁目５番５－４０６号,,13,103,1070052,,,,,,,2023-03-22,1,,,,,ナディア,0
946,5010803004480,新規,0,2023-03-22,2023-03-22,合同会社Ｗｉｎｇｓ　Ｈａｒｐ,,合同会社,東京都,大田区,大森東２丁目２７－３－１０２,,13,111,1430012,,,,,,,2023-03-22,1,,,,,ウィングスハープ,0
955,5011001153194,新規,0,2023-03-22,2023-03-22,ｃｈｉｌｌａｘ株式会社,,株式会社,東京都,目黒区,目黒本町３丁目１９番４号メゾンドソレイユ２０５,,13,110,1520002,,,,,,,2023-03-22,1,,,,,チラックス,0
958,5011003016473,新規,0,2023-03-22,2023-03-22,合同会社ＶｉＴａｉｎｍｅｎｔ,,合同会社,東京都,渋谷区,道玄坂１丁目１０番８号渋谷道玄坂東急ビル２Ｆ－Ｃ,,13,113,1500043,,,,,,,2023-03-22,1,,,,,ビーテイメント,0
960,5011101102225,新規,0,2023-03-22,2023-03-22,株式会社Ｂ．Ｎ　ＧＬＯＢＡＬ,,株式会社,東京都,新宿区,大久保１丁目１２－１－１Ｆ,,13,104,1690072,,,,,,,2023-03-22,1,,,,,ビエヌグローバル,0
961,5011101102241,新規,0,2023-03-22,2023-03-22,株式会社Ｎａｔｕｒａｌｌｙ,,株式会社,東京都,新宿区,新宿５丁目１５番１号みくにビル４Ｆ,,13,104,1600022,,,,,,,2023-03-22,1,,,,,ナチュラリー,0
963,5011103012827,新規,0,2023-03-22,2023-03-22,ＫＦＳコンサルティング合同会社,,合同会社,東京都,新宿区,西新宿３丁目３番１３号,,13,104,1600023,,,,,,,2023-03-22,1,,,,,ケーエフエスコンサルティング,0
970,5011801042118,新規,0,2023-03-22,2023-03-22,株式会社ＰＲＯＡＲＸ,,株式会社,東京都,葛飾区,水元４丁目１６番７号,,13,122,1250032,,,,,,,2023-03-22,1,,,,,プロアークス,0
973,5012401040271,新規,0,2023-03-22,2023-03-22,Ｙ・Ｍコーポレーション株式会社,,株式会社,東京都,調布市,菊野台２丁目４０番地２２,,13,208,1820007,,,,,,,2023-03-22,1,,,,,ワイエムコーポレーション,0
974,5012401040296,新規,0,2023-03-22,2023-03-22,株式会社英不動産,,株式会社,東京都,武蔵野市,境南町２丁目１２番２２号,,13,203,1800023,,,,,,,2023-03-22,1,,,,,ハナブサフドウサン,0
975,5012801022209,新規,0,2023-03-22,2023-03-22,株式会社水中,,株式会社,東京都,国立市,富士見台１丁目１７番地の１２,,13,215,1860003,,,,,,,2023-03-22,1,,,,,スイチュウ,0
980,5013301050468,新規,0,2023-03-22,2023-03-22,季和株式会社,,株式会社,東京都,豊島区,池袋１丁目２番６－２１９号Ｂ室,,13,116,1700014,,,,,,,2023-03-22,1,,,,,キワ,0
982,5013303006542,新規,0,2023-03-22,2023-03-22,ＣＲＹＳＴＡＬ合同会社,,合同会社,東京都,豊島区,東池袋２丁目４６番４号ヴェールドシャイン１０１号,,13,116,1700013,,,,,,,2023-03-22,1,,,,,クリスタル,0
986,5020001150746,新規,0,2023-03-22,2023-03-22,ＡｒＣコンサルティング株式会社,,株式会社,神奈川県,横浜市西区,北幸２丁目１０番地２８むつみビル３Ｆ,,14,103,2200004,,,,,,,2023-03-22,1,,,,,エーアールシーコンサルティング,0
987,5020001150770,新規,0,2023-03-22,2023-03-22,株式会社サウスステージ,,株式会社,神奈川県,川崎市川崎区,小川町１４番地１６号イクタス川崎３Ｆ,,14,131,2100023,,,,,,,2023-03-22,1,,,,,サウスステージ,0
991,5021001078498,新規,0,2023-03-22,2023-03-22,株式会社ココクル湘南,,株式会社,神奈川県,藤沢市,南藤沢２１番９号,,14,205,2510055,,,,,,,2023-03-22,1,,,,,ココクルショウナン,0
994,5021003012892,新規,0,2023-03-22,2023-03-22,合同会社Ｐａｓｓ１０ｎ,,合同会社,神奈川県,愛甲郡愛川町,春日台３丁目４番地の２,,14,401,2430302,,,,,,,2023-03-22,1,,,,,パッション,0
995,5021003012901,新規,0,2023-03-22,2023-03-22,合同会社Ｇａｚｅｌｌｅ,,合同会社,神奈川県,大和市,中央林間４丁目１０番１４－４０１号,,14,213,2420007,,,,,,,2023-03-22,1,,,,,ガゼル,0
999,5030001152923,新規,0,2023-03-22,2023-03-22,株式会社ＢＴＳ,,株式会社,埼玉県,さいたま市緑区,東浦和４丁目１６番地１２,,11,109,3360926,,,,,,,2023-03-22,1,,,,,ビーティーエス,0
1000,5030001152931,新規,0,2023-03-22,2023-03-22,株式会社Ｈｙｐｅ　Ｓｔａｒ　Ｔｒａｄｉｎｇ,,株式会社,埼玉県,川口市,大字西立野５５３番地の１ブラン・レザン５０３,,11,203,3330813,,,,,,,2023-03-22,1,,,,,ハイプスタートレーディング,0
1002,5030003021416,新規,0,2023-03-22,2023-03-22,律合同会社,,合同会社,埼玉県,朝霞市,仲町１丁目５番２０号ベルフール朝霞７０２号,,11,227,3510006,,,,,,,2023-03-22,1,,,,,リツ,0
1003,5030005021174,新規,0,2023-03-22,2023-03-22,一般社団法人シニアハッピーゴール協会,,その他の設立登記法人,埼玉県,新座市,馬場３丁目３番１７号,,11,230,3520016,,,,,,,2023-03-22,1,,,,,シニアハッピーゴールキョウカイ,0
1006,5040001127528,新規,0,2023-03-22,2023-03-22,株式会社黒崎工業,00129810,株式会社,千葉県,市川市,八幡５丁目１５番１９号,,12,203,2720021,,,,,,,2023-03-22,1,,,,,クロサキコウギョウ,0
1007,5040001127593,新規,0,2023-03-22,2023-03-22,株式会社グッドベル,,株式会社,千葉県,市川市,八幡２丁目９番１５号ブラッサムフォーラム市川,,12,203,2720021,,,,,,,2023-03-22,1,,,,,グッドベル,0
1008,5040003022207,新規,0,2023-03-22,2023-03-22,合同会社大柿工業,,合同会社,千葉県,千葉市稲毛区,山王町３５－１－１０２,,12,103,2630002,,,,,,,2023-03-22,1,,,,,オオガキコウギョウ,0
1011,5060005010059,新規,0,2023-03-22,2023-03-22,特定非営利活動法人Ｋｅｉ　Ｚａｉ　Ｋｅｎ,,その他の設立登記法人,栃木県,塩谷郡高根沢町,宝石台３丁目１０番地３サンモールＹＡＮＡＧＩ１０３号室,,09,386,3291231,,,,,,,2023-03-22,1,,,,,ケイザイケン,0
1018,5100001036227,新規,0,2023-03-22,2023-03-22,トモノ不動産株式会社,,株式会社,長野県,南佐久郡佐久穂町,大字海瀬３５５番地,,20,309,3840503,,,,,,,2023-03-22,1,,,,,トモノフドウサン,0
1019,5100005012983,新規,0,2023-03-22,2023-03-22,医療法人みなみみのわ内科クリニック,,その他の設立登記法人,長野県,上伊那郡南箕輪村,１５４８番地２,,20,385,3994511,,,,,,,2023-03-22,1,,,,,ミナミミノワナイカクリニック,0
1032,5120001253324,新規,0,2023-03-22,2023-03-22,株式会社ＳＡＲＡＮ,,株式会社,大阪府,大阪市平野区,加美西２丁目７番１号エクセラート平野Ａ１０６,,27,126,5470005,,,,,,,2023-03-22,1,,,,,サラン,0
1041,5122001036782,新規,0,2023-03-22,2023-03-22,株式会社住まいるホーム,,株式会社,大阪府,東大阪市,西岩田１丁目１１番４１号－Ｉ号室,00129816,27,227,5780947,,,,,,,2023-03-22,1,,,,,スマイルホーム,0
1043,5130003008601,新規,0,2023-03-22,2023-03-22,合同会社ＷＯＲＬＤ　ＢＲＩＤＧＥ,,合同会社,京都府,京都市上京区,下立売通堀川西入西橋詰町２７４番地３０,,26,102,6028138,,,,,,,2023-03-22,1,,,,,ワールドブリッジ,0
1046,5140001129497,新規,0,2023-03-22,2023-03-22,株式会社ＢＡＹＦＯＲＴ,,株式会社,兵庫県,伊丹市,若菱町３丁目６番地,,28,207,6640862,,,,,,,2023-03-22,1,,,,,ベイフォート,0
1047,5140001129506,新規,0,2023-03-22,2023-03-22,株式会社ワイズ,,株式会社,兵庫県,加東市,上滝野７８８番地３３,,28,228,6790211,,,,,,,2023-03-22,1,,,,,ワイズ,0
1048,5140003018855,新規,0,2023-03-22,2023-03-22,合同会社ＮＫプランニング,,合同会社,兵庫県,神戸市西区,大津和２丁目３－２－２０７,,28,111,6512112,,,,,,,2023-03-22,1,,,,,エヌケープランニング,0
1049,5140003018863,新規,0,2023-03-22,2023-03-22,神戸山手合同会社,,合同会社,兵庫県,神戸市中央区,中町通２丁目３－２三共神戸ツインビル１０階神戸山手法律事務所内,,28,110,6500027,,,,,,,2023-03-22,1,,,,,コウベヤマテ,0
1050,5140003018871,新規,0,2023-03-22,2023-03-22,合同会社奥井畳店,,合同会社,兵庫県,神戸市灘区,桜口町２丁目３番２１号,,28,102,6570036,,,,,,,2023-03-22,1,,,,,オクイタタミテン,0
1051,5140005026518,新規,0,2023-03-22,2023-03-22,一般社団法人オリーブ,,その他の設立登記法人,兵庫県,姫路市,広畑区才１,,28,201,6711104,,,,,,,2023-03-22,1,,,,,オリーブ,0
1054,5160001024911,新規,0,2023-03-22,2023-03-22,株式会社ＫＡＺＢＥＧＩ,,株式会社,滋賀県,大津市,北比良９８２－１９,,25,201,5200503,,,,,,,2023-03-22,1,,,,,カズベギ,0
1055,5180001155432,新規,0,2023-03-22,2023-03-22,株式会社ケイワークス,,株式会社,愛知県,名古屋市東区,泉１丁目１１番６号,,23,102,4610001,,,,,,,2023-03-22,1,,,,,ケイワークス,0
1056,5180001155457,新規,0,2023-03-22,2023-03-22,株式会社ｔａｂｉｔｏ,,株式会社,愛知県,名古屋市西区,新道１丁目１－１,,23,104,4510043,,,,,,,2023-03-22,1,,,,,タビト,0
1059,5180003024998,新規,0,2023-03-22,2023-03-22,縁吉合同会社,,合同会社,愛知県,名古屋市東区,白壁２丁目２５番２０号２Ｂ号室,,23,102,4610011,,,,,,,2023-03-22,1,,,,,エンヨシ,0
1066,5180301037207,新規,0,2023-03-22,2023-03-22,株式会社Ａｉｎａｋａｒｙ　Ｆａｃｔｏｒｙ,,株式会社,愛知県,西尾市,永吉１丁目３４番地第２グランドビル永吉２０１,,23,213,4450870,,,,,,,2023-03-22,1,,,,,アイナカリーファクトリー,0
1067,5180301037215,新規,0,2023-03-22,2023-03-22,株式会社Ｍａｓｃｏｔ・Ｌｉｎｅ,,株式会社,愛知県,岡崎市,滝町字入ノ谷１４番地１,,23,202,4443173,,,,,,,2023-03-22,1,,,,,マスコットライン,0
1072,5230005009281,新規,0,2023-03-22,2023-03-22,特定非営利活動法人Ｔ．ｕｐ,,その他の設立登記法人,富山県,高岡市,守山町５７番地１,,16,202,9330928,,,,,,,2023-03-22,1,,,,,ティーアップ,0
1079,5290001100930,新規,0,2023-03-22,2023-03-22,株式会社ＢＳＴＣ,,株式会社,福岡県,筑紫野市,天拝坂２丁目１－１９,,40,217,8180053,,,,,,,2023-03-22,1,,,,,ビーエスティーシー,0
1080,5290001100955,新規,0,2023-03-22,2023-03-22,株式会社Ａｒｕｇａｍａｍａ,,株式会社,福岡県,福岡市中央区,天神２丁目３番１０－７２２号,,40,133,8100001,,,,,,,2023-03-22,1,,,,,アルガママ,0
1091,5310001018311,新規,0,2023-03-22,2023-03-22,株式会社だいまる,,株式会社,長崎県,南島原市,加津佐町戊１１９番地,,42,214,8592602,,,,,,,2023-03-22,1,,,,,ダイマル,0
1095,5340003004075,新規,0,2023-03-22,2023-03-22,合同会社川建,,合同会社,鹿児島県,鹿児島市,岡之原町４４３３番地,,46,201,8911201,,,,,,,2023-03-22,1,,,,,カワケン,0
1099,5360001031722,新規,0,2023-03-22,2023-03-22,株式会社ジイ企画,,株式会社,沖縄県,中頭郡北中城村,字島袋２６０番地１コンフォール７７－Ｂ号室,,47,327,9012301,,,,,,,2023-03-22,1,,,,,ジイキカク,0
1100,5360003012778,新規,0,2023-03-22,2023-03-22,アメティワッチ合同会社,,合同会社,沖縄県,国頭郡伊江村,字東江上２１２番地,,47,315,9050501,,,,,,,2023-03-22,1,,,,,アメティワッチ,0
1102,5370001049739,新規,0,2023-03-22,2023-03-22,株式会社ＫＯＵＨＥＩ,,株式会社,宮城県,黒川郡大和町,吉岡字館下２２番地の５,,04,421,9813621,,,,,,,2023-03-22,1,,,,,コウヘイ,0
1103,5370001049747,新規,0,2023-03-22,2023-03-22,翔栄美工株式会社,,株式会社,宮城県,名取市,堀内字北竹１６０番地４,,04,207,9892412,,,,,,,2023-03-22,1,,,,,ショウエイビコウ,0
1106,5380005012691,新規,0,2023-03-22,2023-03-22,一般社団法人Ｄｒｅａｍ　Ｆｏｒｅｓｔ　Ｓｕｐｐｏｒｔｅｒｓ,,その他の設立登記法人,福島県,双葉郡大熊町,大字下野上字清水２３０,,07,545,9791308,,,,,,,2023-03-22,1,,,,,ドリームフォレストサポーターズ,0
1108,5410001013426,新規,0,2023-03-22,2023-03-22,株式会社高橋塗装,,株式会社,秋田県,横手市,八幡字上長田１９番地,,05,203,0130071,,,,,,,2023-03-22,1,,,,,タカハシトソウ,0
1117,5430003014841,新規,0,2023-03-22,2023-03-22,合同会社ヘルメス,,合同会社,北海道,札幌市中央区,大通西９丁目３番地３３,,01,101,0600042,,,,,,,2023-03-22,1,,,,,ヘルメス,0
1119,5450001013926,新規,0,2023-03-22,2023-03-22,株式会社ＬａｎｄＲ,,株式会社,北海道,名寄市,風連町字日進５１３５番地,,01,221,0980631,,,,,,,2023-03-22,1,,,,,エルアンドアール,0
1124,5470003002371,新規,0,2023-03-22,2023-03-22,合同会社今泉建機,,合同会社,香川県,三豊市,高瀬町上麻３３５８番地１,,37,208,7670014,,,,,,,2023-03-22,1,,,,,イマイズミケンキ,0
1128,5700150114359,新規,0,2023-03-22,2023-03-22,Ｍｏｍｅｎｔ　ｓｅｍｉｃｏｎｄｕｃｔｏｒ，ｉｎｃ．,,外国会社等,,,,,,,,Ｎｏ．３８８，Ｓｅｃ．１，Ｚｈｏｎｇｈｕａ　Ｒｄ．，Ｅａｓｔ　Ｄｉｓｔ．，Ｈｓｉｎｃｈｕ　Ｃｉｔｙ　３００６０，Ｔａｉｗａｎ（Ｒ．Ｏ．Ｃ．）,,,,,,2023-03-22,1,,,,,モーメントセミコンダクタインク,0
1129,5700150114862,新規,0,2023-03-22,2023-03-22,ＩＤＦＬ　Ｌａｂｏｒａｔｏｒｙ　ａｎｄ　Ｉｎｓｔｉｔｕｔｅ　Ｉｎｃ．,,外国会社等,大阪府,大阪市北区,豊崎３丁目１５番５号ＴＫビル２階,,27,127,5310072,アメリカ合衆国ユタ州ソルトレーク市１４５５サウス１１００イースト,,,,,,2023-03-22,1,,,,,アイデイーエフエルラボラトリーアンドインステイテユートインク,0
1135,6010001233872,新規,0,2023-03-22,2023-03-22,株式会社Ｂｅｌｌｅ,,株式会社,東京都,文京区,白山５丁目３－１２,,13,105,1120001,,,,,,,2023-03-22,1,,,,,ベル,0
1138,6010003040103,新規,0,2023-03-22,2023-03-22,合同会社エヌケア,,合同会社,東京都,中央区,日本橋室町１丁目１１番１２号日本橋水野ビル７階,,13,102,1030022,,,,,,,2023-03-22,1,,,,,エヌケア,0
1139,6010005036396,新規,0,2023-03-22,2023-03-22,オニクス一般社団法人,,その他の設立登記法人,東京都,千代田区,丸の内３丁目１番１号東京共同会計事務所内,,13,101,1000005,,,,,,,2023-03-22,1,,,,,オニクス,0
1153,6010401173099,新規,0,2023-03-22,2023-03-22,エミテック・テクノロジーズ・ジャパン株式会社,,株式会社,東京都,港区,芝浦４丁目３番４号,,13,103,1080023,,,,,,,2023-03-22,1,,,,,エミテックテクノロジーズジャパン,0
1154,6010401173181,新規,0,2023-03-22,2023-03-22,株式会社リベフィ,,株式会社,東京都,港区,赤坂９丁目１番７号,,13,103,1070052,,,,,,,2023-03-22,1,,,,,リベフィ,0
1155,6010401173198,新規,0,2023-03-22,2023-03-22,株式会社エタリバ,,株式会社,東京都,港区,南青山３丁目１番３６号青山丸竹ビル６Ｆ,,13,103,1070062,,,,,,,2023-03-22,1,,,,,エタリバ,0
1156,6010401173223,新規,0,2023-03-22,2023-03-22,株式会社トバス,,株式会社,東京都,港区,南青山３丁目８番４０号青山センタービル２Ｆ,,13,103,1070062,,,,,,,2023-03-22,1,,,,,トバス,0
1157,6010405021948,新規,0,2023-03-22,2023-03-22,一般社団法人なかしま,,その他の設立登記法人,東京都,港区,虎ノ門３丁目２２番１０－２０１号,,13,103,1050001,,,,,,,2023-03-22,1,,,,,ナカシマ,0
1164,6010701044000,新規,0,2023-03-22,2023-03-22,株式会社ＴＥＲＡＤＡ,,株式会社,東京都,品川区,二葉４丁目１３番１４号５０３,,13,109,1420043,,,,,,,2023-03-22,1,,,,,テラダ,0
1171,6011001153219,新規,0,2023-03-22,2023-03-22,株式会社ユリカ,,株式会社,東京都,渋谷区,道玄坂１丁目１０番８号渋谷道玄坂東急ビル２Ｆ－Ｃ,,13,113,1500043,,,,,,,2023-03-22,1,,,,,ユリカ,0
1172,6011001153243,新規,0,2023-03-22,2023-03-22,Ｔｈｅ　Ｒｏｏｍ株式会社,,株式会社,東京都,渋谷区,恵比寿１丁目２２番３号,,13,113,1500013,,,,,,,2023-03-22,1,,,,,ザルーム,0
1173,6011003016472,新規,0,2023-03-22,2023-03-22,合同会社イヅプロダクション,,合同会社,東京都,渋谷区,代々木２丁目２７番８号,,13,113,1510053,,,,,,,2023-03-22,1,,,,,イヅプロダクション,0
1174,6011003016497,新規,0,2023-03-22,2023-03-22,ｆｕｔｕｒｅ　ｈｏｐｅ合同会社,,合同会社,東京都,渋谷区,神宮前６丁目２３番４号桑野ビル２階,,13,113,1500001,,,,,,,2023-03-22,1,,,,,フューチャーホープ,0
1176,6011101102216,新規,0,2023-03-22,2023-03-22,株式会社ＭＯＮ．ｏｆｆｉｃｉａｌ．ｐｒｏ,,株式会社,東京都,新宿区,新宿１丁目１９番１０号,,13,104,1600022,,,,,,,2023-03-22,1,,,,,モンオフィシャルプロ,0
1177,6011101102224,新規,0,2023-03-22,2023-03-22,菱ホールディングス株式会社,,株式会社,東京都,新宿区,戸塚町１丁目１０２番地１１ニューライフ早稲田１Ｆ,,13,104,1690071,,,,,,,2023-03-22,1,,,,,リョウホールディングス,0
1178,6011103012826,新規,0,2023-03-22,2023-03-22,合同会社ＩＤＺ,,合同会社,東京都,新宿区,西新宿３丁目３番１３号水間ビル２Ｆ,,13,104,1600023,,,,,,,2023-03-22,1,,,,,アイディゼット,0
1181,6011202007586,新規,0,2023-03-22,2023-03-22,有限会社プリズム,,有限会社,東京都,中野区,鷺宮６丁目１６番１８号,,13,114,1650032,,,,,,,2023-03-22,1,,,,,,0
1184,6011501029075,新規,0,2023-03-22,2023-03-22,株式会社Ｎｓ　Ｌｉｆｅ,,株式会社,東京都,荒川区,東日暮里４丁目２６－１０－２０１,,13,118,1160014,,,,,,,2023-03-22,1,,,,,ナースライフ,0
1185,6011601026674,新規,0,2023-03-22,2023-03-22,株式会社臥龍,,株式会社,東京都,練馬区,石神井町２丁目１４番１－４０８号,,13,120,1770041,,,,,,,2023-03-22,1,,,,,ガリュウ,0
1187,6011801042100,新規,0,2023-03-22,2023-03-22,三矢株式会社,,株式会社,東京都,葛飾区,青戸７丁目２３－１０,,13,122,1250062,,,,,,,2023-03-22,1,,,,,サンヤ,0
1190,6011803005567,新規,0,2023-03-22,2023-03-22,合同会社光稀,,合同会社,東京都,足立区,舎人２丁目１０番８－２０２号,,13,121,1210831,,,,,,,2023-03-22,1,,,,,ミツキ,0
1197,6013101009135,新規,0,2023-03-22,2023-03-22,株式会社ＢＬＵＥ　ＯＣＥＡＮ’Ｓ,,株式会社,東京都,福生市,大字福生７８０―１―２Ｆ,,13,218,1970011,,,,,,,2023-03-22,1,,,,,ブルーオーシャンズ,0
1201,6020001150737,新規,0,2023-03-22,2023-03-22,Ｗｈｙ　Ｄｏ株式会社,,株式会社,神奈川県,横浜市戸塚区,柏尾町９７４番地南山ハイム,,14,110,2440812,,,,,,,2023-03-22,1,,,,,ワイドゥ,0
1202,6020003023552,新規,0,2023-03-22,2023-03-22,合同会社エスポワール,,合同会社,神奈川県,横浜市泉区,緑園１丁目１番地１ボヌール緑園７０３号,,14,116,2450002,,,,,,,2023-03-22,1,,,,,エスポワール,0
1214,6030001152930,新規,0,2023-03-22,2023-03-22,株式会社Ｅｉｇｈｔ８,,株式会社,埼玉県,川口市,芝下１丁目１４番１１号市川ビル２０３,,11,203,3330848,,,,,,,2023-03-22,1,,,,,エイト,0
1215,6030001152947,新規,0,2023-03-22,2023-03-22,株式会社ＳＡＺＡＮＫＡ,,株式会社,埼玉県,八潮市,大字古新田１０５４番地,,11,234,3400823,,,,,,,2023-03-22,1,,,,,サザンカ,0
1216,6030001152963,新規,0,2023-03-22,2023-03-22,株式会社Ｍｉｘｂｏｘ,,株式会社,埼玉県,さいたま市中央区,鈴谷７丁目９番１１号,,11,105,3380013,,,,,,,2023-03-22,1,,,,,ミックスボックス,0
1219,6050001052550,新規,0,2023-03-22,2023-03-22,株式会社Ｍｉｎｉｍａｌ　Ｓｐａｃｅ,,株式会社,茨城県,坂東市,矢作１０４８番地３,,08,228,3060624,,,,,,,2023-03-22,1,,,,,ミニマルスペース,0
1221,6070001040248,新規,0,2023-03-22,2023-03-22,前橋みなみ不動産株式会社,,株式会社,群馬県,前橋市,公田町１１５６番地１,,10,201,3792146,,,,,,,2023-03-22,1,,,,,マエバシミナミフドウサン,0
1226,6080101023861,新規,0,2023-03-22,2023-03-22,株式会社広航商事,,株式会社,静岡県,沼津市,御幸町２０番１１号２階,,22,203,4100832,,,,,,,2023-03-22,1,,,,,ヒロコウショウジ,0
1229,6080103002764,新規,0,2023-03-22,2023-03-22,富士ホープ合同会社,,合同会社,静岡県,富士市,中之郷３７８１番地,,22,210,4213306,,,,,,,2023-03-22,1,,,,,フジホープ,0
1231,6080403004758,新規,0,2023-03-22,2023-03-22,合同会社今日はバイクの日じゃないよ,,合同会社,静岡県,周智郡森町,草ケ谷８８２番地の３ヴァンベール２０６号,,22,461,4370214,,,,,,,2023-03-22,1,,,,,キョウハバイクノヒジャナイヨ,0
1241,6120001253364,新規,0,2023-03-22,2023-03-22,株式会社０９,,株式会社,大阪府,大阪市住吉区,長居東３丁目２番１０号,,27,120,5580004,,,,,,,2023-03-22,1,,,,,ゼロナイン,0
1242,6120001253380,新規,0,2023-03-22,2023-03-22,株式会社ヒューマニティー,,株式会社,大阪府,大阪市城東区,東中浜９丁目３－３４ディモア城東シティ１００６,,27,118,5360023,,,,,,,2023-03-22,1,,,,,ヒューマニティー,0
1243,6120001253414,新規,0,2023-03-22,2023-03-22,株式会社ＦＯＲ　ＡＬＬ,,株式会社,大阪府,門真市,末広町３８番－２０－２０１号,,27,223,5710030,,,,,,,2023-03-22,1,,,,,フォーオール,0
1247,6120003023641,新規,0,2023-03-22,2023-03-22,合同会社ＭＫスターズ,,合同会社,大阪府,大阪市東淀川区,瑞光１丁目１４番３７号,,27,114,5330005,,,,,,,2023-03-22,1,,,,,エムケースターズ,0
1248,6120003023666,新規,0,2023-03-22,2023-03-22,合同会社Ｔ．Ｗ．Ｒ．,,合同会社,大阪府,大阪市天王寺区,生玉前町２－１４－９０６,,27,109,5430072,,,,,,,2023-03-22,1,,,,,ティーダブリューアール,0
1260,6140001129496,新規,0,2023-03-22,2023-03-22,ＧＯＯＤ　ＦＬＯＷ株式会社,,株式会社,兵庫県,尼崎市,西難波町４丁目１番１２号,,28,202,6600893,,,,,,,2023-03-22,1,,,,,グッドフロウ,0
1261,6140001129513,新規,0,2023-03-22,2023-03-22,株式会社太陽光レスキュー,,株式会社,兵庫県,神戸市須磨区,車字霜ノ下１２８３番地の７,,28,107,6540111,,,,,,,2023-03-22,1,,,,,タイヨウコウレスキュー,0
1262,6140003018854,新規,0,2023-03-22,2023-03-22,合同会社Ａｎｄ　Ｌｉｆｅ,,合同会社,兵庫県,川西市,鼓が滝２丁目４番６９号,,28,217,6660123,,,,,,,2023-03-22,1,,,,,アンドライフ,0
1263,6140003018862,新規,0,2023-03-22,2023-03-22,合同会社佐藤,,合同会社,兵庫県,尼崎市,塚口町１丁目３番地の５・９０９号,,28,202,6610002,,,,,,,2023-03-22,1,,,,,サトウ,0
1264,6140005026525,新規,0,2023-03-22,2023-03-22,医療法人明朝会,,その他の設立登記法人,兵庫県,明石市,朝霧南町２丁目１８１番地の８、４階,,28,203,6730870,,,,,,,2023-03-22,1,,,,,ミョウチョウカイ,0
1278,6180001155431,新規,0,2023-03-22,2023-03-22,株式会社Ｒｅ．ｓｔａｒｔ,,株式会社,愛知県,北名古屋市,九之坪竹田２０２番地１,,23,234,4810041,,,,,,,2023-03-22,1,,,,,リスタート,0
1279,6180001155448,新規,0,2023-03-22,2023-03-22,株式会社木漏れ日,,株式会社,愛知県,一宮市,起字堤町５２番地,,23,203,4940006,,,,,,,2023-03-22,1,,,,,コモレビ,0
1280,6180001155456,新規,0,2023-03-22,2023-03-22,ワンアセンブル株式会社,,株式会社,愛知県,尾張旭市,印場元町５丁目２番地３７シャトレ旭２０１号,,23,226,4880840,,,,,,,2023-03-22,1,,,,,ワンアセンブル,0
1281,6180001155472,新規,0,2023-03-22,2023-03-22,Ａｌｌ　Ｊａｐａｎ　Ｒｅｓｅａｒｃｈ株式会社,,株式会社,愛知県,名古屋市中川区,山王１丁目５番２号,,23,110,4540011,,,,,,,2023-03-22,1,,,,,オールジャパンリサーチ,0
1283,6180003025005,新規,0,2023-03-22,2023-03-22,合同会社ＰＬＡＮＴＡ,,合同会社,愛知県,名古屋市昭和区,曙町２丁目７番地の２,,23,107,4660003,,,,,,,2023-03-22,1,,,,,プランタ,0
1284,6180301037214,新規,0,2023-03-22,2023-03-22,株式会社ＢＬＫ８,,株式会社,愛知県,安城市,里町焼山１３番地１,,23,212,4460001,,,,,,,2023-03-22,1,,,,,バルクエイト,0
1287,6180303005648,新規,0,2023-03-22,2023-03-22,合同会社ＤＥＬＡ’Ｓ　ＦＩＴ　ＧＹＭ,,合同会社,愛知県,岡崎市,羽根北町３丁目１番地１２ＡＣＴ中島岡崎羽根２階,,23,202,4440831,,,,,,,2023-03-22,1,,,,,デラズフィットジム,0
1291,6190001030261,新規,0,2023-03-22,2023-03-22,株式会社ＣＨＯＣＯ,,株式会社,三重県,亀山市,アイリス町２２番地２１,,24,210,5190171,,,,,,,2023-03-22,1,,,,,チョーコ,0
1301,6220003003476,新規,0,2023-03-22,2023-03-22,合同会社オズ,,合同会社,石川県,金沢市,三社町１１番３０号,,17,201,9200861,,,,,,,2023-03-22,1,,,,,オズ,0
1311,6240003006064,新規,0,2023-03-22,2023-03-22,合同会社Ｒｉｐｐｌｅｓ,,合同会社,広島県,福山市,引野町１丁目１８番１２－７１２号,,34,207,7210942,,,,,,,2023-03-22,1,,,,,リプルス,0
1314,6280001008901,新規,0,2023-03-22,2023-03-22,株式会社Ｎｅｓｅｅｐ,,株式会社,島根県,出雲市,姫原３丁目５－７,,32,203,6930068,,,,,,,2023-03-22,1,,,,,ネシープ,0
1324,6290001100954,新規,0,2023-03-22,2023-03-22,株式会社カーム,,株式会社,福岡県,三井郡大刀洗町,大字鵜木１４２７番地４,,40,503,8301224,,,,,,,2023-03-22,1,,,,,カーム,0
1329,6300005007129,新規,0,2023-03-22,2023-03-22,一般社団法人特殊建築物定期報告連絡協議会,,その他の設立登記法人,佐賀県,佐賀市,多布施１丁目３番１３号,,41,201,8400842,,,,,,,2023-03-22,1,,,,,トクシュケンチクブツテイキホウコクレンラクキョウギカイ,0
1336,6360001031721,新規,0,2023-03-22,2023-03-22,株式会社興和,,株式会社,沖縄県,沖縄市,登川３丁目２８番８号,,47,211,9042142,,,,,,,2023-03-22,1,,,,,コウワ,0
1346,6460103001521,新規,0,2023-03-22,2023-03-22,合同会社ヤヤコマ,,合同会社,北海道,帯広市,西二十一条南２丁目２４番２号,,01,207,0802471,,,,,,,2023-03-22,1,,,,,ヤヤコマ,0
1353,6700150110266,新規,0,2023-03-22,2022-06-22,ｆｉｐｐａｍｕｓｉｃ,,その他,神奈川県,川崎市川崎区,大師駅前２丁目１番１－１１８号シティテラス川崎鈴木町グランドシーズンズ,,14,131,2100802,,,,,,,2022-06-22,1,,,,,フイツパミユージツク,0
1354,6700150112824,新規,0,2023-03-22,2022-11-14,グレゴワールの庭,,その他,東京都,稲城市,東長沼２１０７－３－３０３,,13,225,2060802,,,,,,,2022-11-14,1,,,,,グレゴワールノニワ,0
1358,7010001233764,新規,0,2023-03-22,2023-03-22,株式会社Ｂｌｏｏｍ,,株式会社,東京都,千代田区,二番町５番地２麹町駅プラザ９０１,,13,101,1020084,,,,,,,2023-03-22,1,,,,,ブルーム,0
1362,7010003040102,新規,0,2023-03-22,2023-03-22,Ｂｅｌｉｅｖｅ　Ｊａｐａｎ合同会社,,合同会社,東京都,千代田区,霞が関３丁目２番５号霞が関ビルディング３０階,,13,101,1000013,,,,,,,2023-03-22,1,,,,,ビリーブジャパン,0
1365,7010105002207,新規,0,2023-03-22,2023-03-22,医療法人社団ＬＣＫ,,その他の設立登記法人,東京都,八王子市,千人町１丁目７番６号１階２階,,13,201,1930835,,,,,,,2023-03-22,1,,,,,エルシーケー,0
1370,7010401173008,新規,0,2023-03-22,2023-03-22,株式会社アカウントプラスコンサルティング,,株式会社,東京都,港区,海岸１丁目２番３号汐留芝離宮ビルディング２１階,,13,103,1050022,,,,,,,2023-03-22,1,,,,,アカウントプラスコンサルティング,0
1371,7010401173206,新規,0,2023-03-22,2023-03-22,開思株式会社,,株式会社,東京都,港区,芝５丁目１４番１４号,,13,103,1080014,,,,,,,2023-03-22,1,,,,,カイシ,0
1398,7011101102215,新規,0,2023-03-22,2023-03-22,Ｆｉｄｅｌｉｔｙ　Ｆｏｒｍａｔ株式会社,,株式会社,東京都,新宿区,大久保１丁目２番１号天翔オフィスビル,,13,104,1690072,,,,,,,2023-03-22,1,,,,,フィデリティフォーマット,0
1399,7011103012825,新規,0,2023-03-22,2023-03-22,合同会社カリウド,,合同会社,東京都,新宿区,新宿１丁目３６－２新宿第七葉山ビル３Ｆ,,13,104,1600022,,,,,,,2023-03-22,1,,,,,カリウド,0
1402,7011401024992,新規,0,2023-03-22,2023-03-22,株式会社ＢＯＮＵＳ　ＴＲＡＣＫ,,株式会社,東京都,板橋区,熊野町１８番７号グレースコート大山２０１,,13,119,1730025,,,,,,,2023-03-22,1,,,,,ボーナストラック,0
1404,7011501029074,新規,0,2023-03-22,2023-03-22,株式会社ＧＴ　ＳＴＹＬＥ,,株式会社,東京都,荒川区,西日暮里２丁目４９番１０号エスタシオン辻山１００２号室,,13,118,1160013,,,,,,,2023-03-22,1,,,,,ジーティースタイル,0
1410,7011801042108,新規,0,2023-03-22,2023-03-22,ＳＵＰＥＲＫＡＩ株式会社,,株式会社,東京都,足立区,辰沼１丁目１番９－９０１号,,13,121,1210054,,,,,,,2023-03-22,1,,,,,スーパーカイ,0
1412,7011803005566,新規,0,2023-03-22,2023-03-22,ＭＩＩＫｅ　ｉｎｃ．合同会社,,合同会社,東京都,足立区,本木南町１８－１８,,13,121,1230855,,,,,,,2023-03-22,1,,,,,エムツーケー,0
1417,7012701017546,新規,0,2023-03-22,2023-03-22,Ｍプランニング株式会社,,株式会社,東京都,小平市,小川町１丁目７４１－１４,,13,211,1870032,,,,,,,2023-03-22,1,,,,,エムプランニング,0
1424,7020001150736,新規,0,2023-03-22,2023-03-22,株式会社ＥＭＵＳ,,株式会社,神奈川県,川崎市宮前区,犬蔵２丁目３９番１－６０２号,,14,136,2160011,,,,,,,2023-03-22,1,,,,,エムズ,0
1425,7020001150752,新規,0,2023-03-22,2023-03-22,株式会社ウィング,,株式会社,神奈川県,川崎市高津区,梶ケ谷４丁目１４番地３０,,14,134,2130015,,,,,,,2023-03-22,1,,,,,ウィング,0
1426,7020001150760,新規,0,2023-03-22,2023-03-22,株式会社ベストエンカウンター,,株式会社,神奈川県,横浜市神奈川区,二本榎２７番１３号ル・ポール東白楽２２Ａ棟２０３号,,14,102,2210813,,,,,,,2023-03-22,1,,,,,ベストエンカウンター,0
1427,7020001150769,新規,0,2023-03-22,2023-03-22,株式会社Ｐｅｔｉｔｅ　ｊｏｉｅ,,株式会社,神奈川県,川崎市幸区,小向町２４番４号,,14,132,2120003,,,,,,,2023-03-22,1,,,,,プチジョワ,0
1428,7020003023568,新規,0,2023-03-22,2023-03-22,合同会社ｐａｔｈ,,合同会社,神奈川県,横浜市西区,北幸２丁目１０番地２８むつみビル３Ｆ,,14,103,2200004,,,,,,,2023-03-22,1,,,,,パス,0
1430,7021001078471,新規,0,2023-03-22,2023-03-22,株式会社北島電気,,株式会社,神奈川県,海老名市,上今泉２丁目６番５７－３号,,14,215,2430431,,,,,,,2023-03-22,1,,,,,キタジマデンキ,0
1431,7021001078488,新規,0,2023-03-22,2023-03-22,株式会社Ｌｉｔｔｌｅ　Ｌａｇｏｏｎ鎌倉,,株式会社,神奈川県,鎌倉市,山ノ内２９１番地９,,14,204,2470062,,,,,,,2023-03-22,1,,,,,リトルラグーンカマクラ,0
1432,7021001078496,新規,0,2023-03-22,2023-03-22,ラッキー田中株式会社,,株式会社,神奈川県,藤沢市,鵠沼海岸５丁目７番７号レオパレスラ・プランタン１０５,,14,205,2510037,,,,,,,2023-03-22,1,,,,,ラッキータナカ,0
1433,7021001078505,新規,0,2023-03-22,2023-03-22,株式会社ＪＩＮ　ＡＩ,,株式会社,神奈川県,大和市,下鶴間２７７６番地１大和ハイデンス１０９号,,14,213,2420001,,,,,,,2023-03-22,1,,,,,ジンアイ,0
1445,7030001152921,新規,0,2023-03-22,2023-03-22,ジェイシップイースト株式会社,,株式会社,埼玉県,川越市,大字的場１９２２－５,,11,201,3501101,,,,,,,2023-03-22,1,,,,,ジェイシップイースト,0
1446,7030001152938,新規,0,2023-03-22,2023-03-22,株式会社ＳＪホールディングス,,株式会社,埼玉県,さいたま市西区,大字佐知川１０４０番地２,,11,101,3310064,,,,,,,2023-03-22,1,,,,,エスジェイホールディングス,0
1448,7030003021397,新規,0,2023-03-22,2023-03-22,合同会社ＡＲＩＫＩ,,合同会社,埼玉県,熊谷市,永井太田１３９４番地２,,11,202,3600237,,,,,,,2023-03-22,1,,,,,アリキ,0
1453,7040001127600,新規,0,2023-03-22,2023-03-22,株式会社もののふ,,株式会社,千葉県,船橋市,飯山満町３丁目１５３８番地６７ライオンズガーデン船橋薬園台３０９号,,12,204,2740822,,,,,,,2023-03-22,1,,,,,モノノフ,0
1459,7050001052558,新規,0,2023-03-22,2023-03-22,Ｂｉｚ．マネジメント株式会社,,株式会社,茨城県,水戸市,住吉町３１番地の１,,08,201,3100844,,,,,,,2023-03-22,1,,,,,ビズマネジメント,0
1474,7100001036241,新規,0,2023-03-22,2023-03-22,株式会社Ｒｉｓｉｎｇ,,株式会社,長野県,安曇野市,豊科４６２６番地９、２０３号室,,20,220,3998205,,,,,,,2023-03-22,1,,,,,ライジング,0
1481,7110001037379,新規,0,2023-03-22,2023-03-22,株式会社ＱＢＣＪＡＰＡＮ,,株式会社,新潟県,長岡市,不動沢６２４番地,,15,202,9495416,,,,,,,2023-03-22,1,,,,,キュービーシージャパン,0
1490,7120001253314,新規,0,2023-03-22,2023-03-22,和記株式会社,,株式会社,大阪府,大阪市東住吉区,今林２丁目１０番１４－４０１,,27,121,5460001,,,,,,,2023-03-22,1,,,,,ワキ,0
1491,7120001253438,新規,0,2023-03-22,2023-03-22,株式会社サミッツ,,株式会社,大阪府,大阪市浪速区,日本橋東２丁目４番１号,,27,111,5560006,,,,,,,2023-03-22,1,,,,,サミッツ,0
1494,7120003023657,新規,0,2023-03-22,2023-03-22,４７Ｍａｒｋｅｔ合同会社,,合同会社,大阪府,大阪市東住吉区,桑津１丁目１２番２７号大生ハイツ１０２号室,,27,121,5460041,,,,,,,2023-03-22,1,,,,,ヨンジュウナナマーケット,0
1495,7120003023681,新規,0,2023-03-22,2023-03-22,ブライト合同会社,,合同会社,大阪府,大阪市北区,梅田１丁目１３番１号２９階,,27,127,5300001,,,,,,,2023-03-22,1,,,,,ブライト,0
1496,7120901047278,新規,0,2023-03-22,2023-03-22,株式会社Ｂｕｔｔｌｅｒ,,株式会社,大阪府,摂津市,鳥飼上２丁目１番４０号,,27,224,5660062,,,,,,,2023-03-22,1,,,,,バトラー,0
1498,7122003002541,新規,0,2023-03-22,2023-03-22,合同会社縁和,,合同会社,大阪府,柏原市,国分本町２丁目５番４０号,,27,221,5820021,,,,,,,2023-03-22,1,,,,,エンワ,0
1500,7140001129504,新規,0,2023-03-22,2023-03-22,アーキテクトホーム株式会社,,株式会社,兵庫県,丹波篠山市,小枕１０１番地４,,28,221,6692461,,,,,,,2023-03-22,1,,,,,アーキテクトホーム,0
1501,7140001129520,新規,0,2023-03-22,2023-03-22,株式会社ＣＳＲ,,株式会社,兵庫県,神戸市西区,上新地１丁目１番地の７,,28,111,6512411,,,,,,,2023-03-22,1,,,,,シーエスアール,0
1505,7150001026246,新規,0,2023-03-22,2023-03-22,株式会社喜笑,,株式会社,奈良県,橿原市,膳夫町４７７－２０,,29,205,6340012,,,,,,,2023-03-22,1,,,,,キエ,0
1507,7170001017508,新規,0,2023-03-22,2023-03-22,株式会社ＴＥＥＴＨ　ＨＡＴ,,株式会社,和歌山県,西牟婁郡上富田町,生馬５２７番地の１,,30,404,6492103,,,,,,,2023-03-22,1,,,,,ティースハット,0
1510,7180001155455,新規,0,2023-03-22,2023-03-22,タツミ企画株式会社,,株式会社,愛知県,名古屋市西区,名西２丁目２９番１４号ドミール名西１０１号室,,23,104,4510064,,,,,,,2023-03-22,1,,,,,タツミキカク,0
1513,7180005020143,新規,0,2023-03-22,2023-03-22,医療法人アッシュ会,,その他の設立登記法人,愛知県,名古屋市東区,砂田橋４丁目１番５２号コノミヤ砂田橋店２階,,23,102,4610045,,,,,,,2023-03-22,1,,,,,アッシュカイ,0
1515,7180301037205,新規,0,2023-03-22,2023-03-22,株式会社ＭＥＧＵＲＵ,,株式会社,愛知県,西尾市,寺津３丁目７番地１４,,23,213,4440327,,,,,,,2023-03-22,1,,,,,メグル,0
1517,7190001030252,新規,0,2023-03-22,2023-03-22,株式会社咲,,株式会社,三重県,四日市市,川島町３９２０番地１２,,24,202,5120934,,,,,,,2023-03-22,1,,,,,サク,0
1520,7200003005903,新規,0,2023-03-22,2023-03-22,合同会社フォルゴーレ,,合同会社,岐阜県,岐阜市,上芥見２２０番地,,21,201,5013115,,,,,,,2023-03-22,1,,,,,フォルゴーレ,0
1523,7220003003475,新規,0,2023-03-22,2023-03-22,合同会社シェフレラ,,合同会社,石川県,河北郡内灘町,字千鳥台３丁目１０１番地,,17,365,9200277,,,,,,,2023-03-22,1,,,,,シェフレラ,0
1528,7250001020024,新規,0,2023-03-22,2023-03-22,株式会社健電装,,株式会社,山口県,岩国市,川口町２丁目３番６３号,,35,208,7400015,,,,,,,2023-03-22,1,,,,,ケンデンソウ,0
1531,7260005011200,新規,0,2023-03-22,2023-03-22,医療法人社団トーラス,,その他の設立登記法人,岡山県,岡山市南区,内尾２８８番１７,,33,104,7010212,,,,,,,2023-03-22,1,,,,,トーラス,0
1535,7290001100929,新規,0,2023-03-22,2023-03-22,株式会社ｇＣ　Ｌａｂｓ,,株式会社,福岡県,福岡市博多区,上呉服町１０番１０号,,40,132,8120036,,,,,,,2023-03-22,1,,,,,ジーシーラボ,0
1536,7290001100945,新規,0,2023-03-22,2023-03-22,株式会社倉住住宅,,株式会社,福岡県,大野城市,若草２丁目８番１０号,,40,219,8160981,,,,,,,2023-03-22,1,,,,,クラズミジュウタク,0
1537,7290001100953,新規,0,2023-03-22,2023-03-22,株式会社ＮＳ５‐３号,,株式会社,福岡県,福岡市博多区,上川端町１２番２０号,,40,132,8120026,,,,,,,2023-03-22,1,,,,,エヌエスファイブサンゴウ,0
1546,7330003009767,新規,0,2023-03-22,2023-03-22,合同会社剛組,,合同会社,熊本県,八代市,大村町６６２－１,,43,202,8660895,,,,,,,2023-03-22,1,,,,,ゴウグミ,0
1551,7360001031737,新規,0,2023-03-22,2023-03-22,株式会社ＫＡＴＡＮＡ,,株式会社,沖縄県,那覇市,字宇栄原９５４番地１Ｔ－Ｈｏｕｓｅ２０１,,47,201,9010153,,,,,,,2023-03-22,1,,,,,カタナ,0
1554,7370001049737,新規,0,2023-03-22,2023-03-22,Ｌｉｖｉｎｇ　Ｐａｒｔｎｅｒｓ株式会社,,株式会社,宮城県,仙台市青葉区,花京院２丁目１番１４－６０３号,,04,101,9800013,,,,,,,2023-03-22,1,,,,,リビングパートナーズ,0
1555,7370001049745,新規,0,2023-03-22,2023-03-22,株式会社佐々木建業,,株式会社,宮城県,遠田郡美里町,牛飼字御蔵場３５番地,,04,505,9870004,,,,,,,2023-03-22,1,,,,,ササキケンギョウ,0
1557,7370003006042,新規,0,2023-03-22,2023-03-22,合同会社ＴＲＴ,,合同会社,宮城県,仙台市青葉区,国分町２丁目１４－１５、８８国分町ビルＢ１Ｆ,,04,101,9800803,,,,,,,2023-03-22,1,,,,,ティーアールティー,0
1579,7430001088670,新規,0,2023-03-22,2023-03-22,株式会社オンネリネン,,株式会社,北海道,札幌市南区,澄川四条１２丁目５番５号,,01,106,0050004,,,,,,,2023-03-22,1,,,,,オンネリネン,0
1595,8010001233706,新規,0,2023-03-22,2023-03-22,内藤商事株式会社,,株式会社,東京都,文京区,本郷４丁目１６－６,,13,105,1130033,,,,,,,2023-03-22,1,,,,,ナイトウショウジ,0
1597,8010003040134,新規,0,2023-03-22,2023-03-22,ｔｅｒａｓｕ合同会社,,合同会社,東京都,中央区,勝どき６丁目３‐１‐３４１７,,13,102,1040054,,,,,,,2023-03-22,1,,,,,テラス,0
1603,8010401173213,新規,0,2023-03-22,2023-03-22,株式会社壯和,,株式会社,東京都,港区,南青山２丁目２番１５号ウイン青山９４２,,13,103,1070062,,,,,,,2023-03-22,1,,,,,ソウワ,0
1609,8010801033801,新規,0,2023-03-22,2023-03-22,株式会社Ａｒｖｉｘｉ,,株式会社,東京都,大田区,蒲田５丁目３３番５号山本ビル２０２,,13,111,1440052,,,,,,,2023-03-22,1,,,,,アルビクシィ,0
1629,8011101102230,新規,0,2023-03-22,2023-03-22,湧進実業株式会社,,株式会社,東京都,新宿区,上落合２丁目１８番１号,,13,104,1610034,,,,,,,2023-03-22,1,,,,,ユウシンジツギョウ,0
1632,8011301028548,新規,0,2023-03-22,2023-03-22,株式会社Ｃｏｃｏｒｅｓ,,株式会社,東京都,杉並区,浜田山４丁目１９番１２号,,13,115,1680065,,,,,,,2023-03-22,1,,,,,ココリス,0
1633,8011303004704,新規,0,2023-03-22,2023-03-22,Ｈｉ‐Ｆｉ　Ｓｙｓｔｅｍｓ合同会社,,合同会社,東京都,杉並区,天沼１丁目２１－１４,,13,115,1670032,,,,,,,2023-03-22,1,,,,,ハイファイシステムズ,0
1635,8011401024991,新規,0,2023-03-22,2023-03-22,正應株式会社,,株式会社,東京都,板橋区,赤塚新町３丁目２８番５号ワコーレ成増３０２,,13,119,1750093,,,,,,,2023-03-22,1,,,,,セイオウ,0
1636,8011403003944,新規,0,2023-03-22,2023-03-22,合同会社Ａ．ｍｏｒｅ,,合同会社,東京都,板橋区,仲宿６２番２号コンフォリア板橋仲宿５０４,,13,119,1730005,,,,,,,2023-03-22,1,,,,,アモア,0
1638,8011501029073,新規,0,2023-03-22,2023-03-22,ＰＦ　Ｇｏｌｄ株式会社,,株式会社,東京都,荒川区,町屋３丁目１－１３－３０９,,13,118,1160001,,,,,,,2023-03-22,1,,,,,ピーエフゴールド,0
1641,8011701026093,新規,0,2023-03-22,2023-03-22,株式会社バーベリー,,株式会社,東京都,江戸川区,平井６丁目５－１５,,13,123,1320035,,,,,,,2023-03-22,1,,,,,バーベリー,0
1642,8011703003413,新規,0,2023-03-22,2023-03-22,ＩＬＬＵＭＩＮＯ合同会社,,合同会社,東京都,江戸川区,南小岩６丁目３１－１０プラウドタワー小岩ファースト６１１,,13,123,1330056,,,,,,,2023-03-22,1,,,,,イルミノ,0
1644,8011801042107,新規,0,2023-03-22,2023-03-22,株式会社プリズム,,株式会社,東京都,足立区,保木間５丁目３９番６号エーデルブルーメ８２・１０３,,13,121,1210064,,,,,,,2023-03-22,1,,,,,プリズム,0
1647,8012401040293,新規,0,2023-03-22,2023-03-22,株式会社マックス,,株式会社,東京都,調布市,調布ケ丘４丁目４３番地１パークアベニュー５０２,,13,208,1820021,,,,,,,2023-03-22,1,,,,,マックス,0
1648,8012401040302,新規,0,2023-03-22,2023-03-22,ＨＥＳＴＩＡ株式会社,,株式会社,東京都,狛江市,猪方３丁目３７番２４号,,13,219,2010015,,,,,,,2023-03-22,1,,,,,エスティア,0
1650,8012803003030,新規,0,2023-03-22,2023-03-22,Ｆ・Ｔｒａｎｓｐｏｒｔ　Ｓｅｒｖｉｃｅ合同会社,,合同会社,東京都,武蔵村山市,中原２丁目３４番地の８,,13,223,2080035,,,,,,,2023-03-22,1,,,,,エフトランスポートサービス,0
1654,8020001150594,新規,0,2023-03-22,2023-03-22,株式会社Ｃｅｌｌａｓｔａｒ,,株式会社,神奈川県,横浜市西区,北幸１丁目１１番１号,,14,103,2200004,,,,,,,2023-03-22,1,,,,,セルスター,0
1655,8020001150727,新規,0,2023-03-22,2023-03-22,株式会社ヨーケル,,株式会社,神奈川県,横浜市神奈川区,六角橋６丁目２９番３－２０８号,,14,102,2210802,,,,,,,2023-03-22,1,,,,,ヨーケル,0
1656,8020001150743,新規,0,2023-03-22,2023-03-22,株式会社カラフルレインボーズ,,株式会社,神奈川県,横浜市西区,平沼１丁目４０番１号嶋森ビル８階,,14,103,2200023,,,,,,,2023-03-22,1,,,,,カラフルレインボーズ,0
1657,8020001150751,新規,0,2023-03-22,2023-03-22,株式会社ＬＩＮＫＤＯＯＲＳ,,株式会社,神奈川県,横浜市港北区,高田東３丁目２番３号,,14,109,2230065,,,,,,,2023-03-22,1,,,,,リンクドアーズ,0
1659,8020003023518,新規,0,2023-03-22,2023-03-22,合同会社きりん組,,合同会社,神奈川県,横浜市瀬谷区,下瀬谷２丁目２０番地８ベルーガ横浜３０２,,14,114,2460035,,,,,,,2023-03-22,1,,,,,キリングミ,0
1660,8020003023526,新規,0,2023-03-22,2023-03-22,合同会社グレイススカイ,,合同会社,神奈川県,川崎市高津区,末長１丁目２４番１７－１０２号,,14,134,2130013,,,,,,,2023-03-22,1,,,,,グレイススカイ,0
1665,8021001078396,新規,0,2023-03-22,2023-03-22,株式会社久松,,株式会社,神奈川県,愛甲郡愛川町,中津字松台７２９番７,,14,401,2430303,,,,,,,2023-03-22,1,,,,,ヒサマツ,0
1666,8021001078487,新規,0,2023-03-22,2023-03-22,いろは株式会社,,株式会社,神奈川県,綾瀬市,寺尾中４丁目１３番１１号,,14,218,2521132,,,,,,,2023-03-22,1,,,,,イロハ,0
1667,8021001078495,新規,0,2023-03-22,2023-03-22,Ｄ‐ＷＯＲＸＳ株式会社,,株式会社,神奈川県,厚木市,林２丁目８番１１号,,14,212,2430816,,,,,,,2023-03-22,1,,,,,ディーワークス,0
1668,8021001078504,新規,0,2023-03-22,2023-03-22,株式会社ＤｉｇｉｔａｌＡｎｄ,,株式会社,神奈川県,大和市,福田４丁目６－６コーポ富士見台２０２,,14,213,2420024,,,,,,,2023-03-22,1,,,,,デジタルアンド,0
1669,8021001078512,新規,0,2023-03-22,2023-03-22,朋株式会社,,株式会社,神奈川県,横須賀市,平作１丁目１４番１４号,,14,201,2380032,,,,,,,2023-03-22,1,,,,,トモ,0
1670,8021001078520,新規,0,2023-03-22,2023-03-22,株式会社ＡＫＡＲＩ,,株式会社,神奈川県,鎌倉市,大町４丁目４番１号,,14,204,2480007,,,,,,,2023-03-22,1,,,,,アカリ,0
1673,8021003012898,新規,0,2023-03-22,2023-03-22,合同会社ジーオウル,,合同会社,神奈川県,秦野市,曽屋６０３４番地の１６,,14,211,2570031,,,,,,,2023-03-22,1,,,,,ジーオウル,0
1674,8030001152920,新規,0,2023-03-22,2023-03-22,株式会社Ｃ．Ｂ．Ｔ．Ｌ,,株式会社,埼玉県,さいたま市大宮区,大門町３丁目１９８番地１９,,11,103,3300846,,,,,,,2023-03-22,1,,,,,シービーティーエル,0
1675,8030001152929,新規,0,2023-03-22,2023-03-22,株式会社アマダ,,株式会社,埼玉県,日高市,大字高萩４９０番地１０,,11,242,3501213,,,,,,,2023-03-22,1,,,,,アマダ,0
1676,8030001152961,新規,0,2023-03-22,2023-03-22,ＢＲＩＧＨＴ　ＥＡＳＴ株式会社,,株式会社,埼玉県,川口市,西川口３丁目２１番１０号,,11,203,3320021,,,,,,,2023-03-22,1,,,,,ブライトイースト,0
1677,8030003021396,新規,0,2023-03-22,2023-03-22,合同会社ロングエル,,合同会社,埼玉県,さいたま市南区,南浦和１丁目２９番１６号サザンクロス南浦和２０２,,11,108,3360017,,,,,,,2023-03-22,1,,,,,ロングエル,0
1687,8050001052549,新規,0,2023-03-22,2023-03-22,株式会社絆商事,,株式会社,茨城県,土浦市,桜町２丁目１１番３号,,08,203,3000037,,,,,,,2023-03-22,1,,,,,キズナショウジ,0
1693,8080001025527,新規,0,2023-03-22,2023-03-22,レアリゼ株式会社,,株式会社,静岡県,静岡市清水区,草薙１丁目２番２６号,,22,103,4240886,,,,,,,2023-03-22,1,,,,,レアリゼ,0
1699,8090001018034,新規,0,2023-03-22,2023-03-22,Ｈ株式会社,,株式会社,山梨県,富士吉田市,向原１丁目２２番１６号,,19,202,4030018,,,,,,,2023-03-22,1,,,,,エイチ,0
1702,8100001036240,新規,0,2023-03-22,2023-03-22,株式会社トリジョウ,,株式会社,長野県,北佐久郡軽井沢町,大字軽井沢１２８７番地１１－１２０号,,20,321,3890102,,,,,,,2023-03-22,1,,,,,トリジョウ,0
1710,8120001253346,新規,0,2023-03-22,2023-03-22,翰株式会社,,株式会社,大阪府,大阪市北区,堂島浜２丁目２番２８号堂島アクシスビル４階,,27,127,5300004,,,,,,,2023-03-22,1,,,,,カン,0
1711,8120001253412,新規,0,2023-03-22,2023-03-22,株式会社Ｓｅｖｅｎ．Ｇ,,株式会社,大阪府,大阪市中央区,心斎橋筋２丁目２番３号２階,,27,128,5420085,,,,,,,2023-03-22,1,,,,,セブンジー,0
1712,8120003023573,新規,0,2023-03-22,2023-03-22,合同会社ボニトレード,,合同会社,大阪府,大阪市平野区,加美東５丁目９番５号,,27,126,5470002,,,,,,,2023-03-22,1,,,,,ボニトレード,0
1713,8120003023664,新規,0,2023-03-22,2023-03-22,合同会社ＲｉｚＣｏｍｐａｎｙ,,合同会社,大阪府,大阪市浪速区,日本橋４丁目１２－１旭日旅行ビル２Ｆ,,27,111,5560005,,,,,,,2023-03-22,1,,,,,リズカンパニー,0
1715,8120101067175,新規,0,2023-03-22,2023-03-22,株式会社ＲＩＳＥｔｅｃｈ,,株式会社,大阪府,堺市中区,深井清水町３２８２番地尾崎ビル２階,,27,142,5998273,,,,,,,2023-03-22,1,,,,,ライズテック,0
1717,8120105009702,新規,0,2023-03-22,2023-03-22,一般社団法人ミタライクライミングネットワーク,,その他の設立登記法人,大阪府,松原市,阿保５丁目３番１８号,,27,217,5800043,,,,,,,2023-03-22,1,,,,,ミタライクライミングネットワーク,0
1720,8122001036796,新規,0,2023-03-22,2023-03-22,株式会社西森工務店,,株式会社,大阪府,大東市,赤井３丁目１番２２号,,27,218,5740046,,,,,,,2023-03-22,1,,,,,ニシモリコウムテン,0
1726,8140001129453,新規,0,2023-03-22,2023-03-22,株式会社藤本環境テック,,株式会社,兵庫県,姫路市,飾磨区英賀宮台８番地,,28,201,6728089,,,,,,,2023-03-22,1,,,,,フジモトカンキョウテック,0
1727,8140001129503,新規,0,2023-03-22,2023-03-22,株式会社スティッチ,,株式会社,兵庫県,丹波市,氷上町黒田３３８番地,,28,223,6693605,,,,,,,2023-03-22,1,,,,,スティッチ,0
1728,8140001129528,新規,0,2023-03-22,2023-03-22,株式会社ｆｉｆｔｙ‐ｏｎｅ,,株式会社,兵庫県,川西市,大和東３丁目６－１１,,28,217,6660111,,,,,,,2023-03-22,1,,,,,フィフティーワン,0
1734,8140005026531,新規,0,2023-03-22,2023-03-22,一般社団法人こころみ,,その他の設立登記法人,兵庫県,加古川市,別府町別府８３７番地の１－１階,,28,210,6750122,,,,,,,2023-03-22,1,,,,,ココロミ,0
1740,8150002011873,新規,0,2023-03-22,2023-03-22,有限会社サコプロモーションルーム,,有限会社,奈良県,生駒郡平群町,竜田川１丁目９番１９号,,29,342,6360912,,,,,,,2023-03-22,1,,,,,サコプロモーションルーム,0
1742,8160003002821,新規,0,2023-03-22,2023-03-22,合同会社Ｌｉｅｎ,,合同会社,滋賀県,大津市,長等２丁目３番４２号,,25,201,5200046,,,,,,,2023-03-22,1,,,,,リアン,0
1747,8180001155462,新規,0,2023-03-22,2023-03-22,株式会社タルガ,,株式会社,愛知県,名古屋市名東区,扇町２丁目１番地の１ヴィラス星ヶ丘の森１１７号,,23,115,4650076,,,,,,,2023-03-22,1,,,,,タルガ,0
1749,8180003025003,新規,0,2023-03-22,2023-03-22,合同会社Ｔｗｉｔｅａ,,合同会社,愛知県,名古屋市東区,泉１丁目１１－６,,23,102,4610001,,,,,,,2023-03-22,1,,,,,トゥワイティー,0
1759,8210005010081,新規,0,2023-03-22,2023-03-22,社会保険労務士法人Ｃｏ．Ｙｅｌｌ,,その他の設立登記法人,福井県,坂井市,坂井町長屋第３２号１番地１４,,18,210,9190503,,,,,,,2023-03-22,1,,,,,コエール,0
1760,8220003003474,新規,0,2023-03-22,2023-03-22,Ｆ＆Ｇビジネスサポート合同会社,,合同会社,石川県,金沢市,野町２丁目２‐２３コーポ大同１０２号室,,17,201,9218031,,,,,,,2023-03-22,1,,,,,エフアンドジービジネスサポート,0
1770,8240001061241,新規,0,2023-03-22,2023-03-22,株式会社宮森コンクリート,,株式会社,広島県,東広島市,豊栄町鍛冶屋４９４番地,,34,212,7392317,,,,,,,2023-03-22,1,,,,,ミヤモリコンクリート,0
1774,8250003003240,新規,0,2023-03-22,2023-03-22,合同会社ＫＯＭＵＧＩ,,合同会社,山口県,宇部市,大字吉見９９６番地１,,35,202,7590122,,,,,,,2023-03-22,1,,,,,コムギ,0
1777,8270001008743,新規,0,2023-03-22,2023-03-22,株式会社ＮＴ９,,株式会社,鳥取県,米子市,日野町６５番地４,,31,202,6830066,,,,,,,2023-03-22,1,,,,,エヌティーキュウ,0
1784,8290001100944,新規,0,2023-03-22,2023-03-22,白石内装株式会社,,株式会社,福岡県,大牟田市,大正町３丁目３番地１,,40,202,8360047,,,,,,,2023-03-22,1,,,,,シライシナイソウ,0
1785,8290001100952,新規,0,2023-03-22,2023-03-22,株式会社Ｂ．Ｉ．Ｓ．Ａ．,,株式会社,福岡県,筑紫野市,原田１丁目１１番１号,,40,217,8180024,,,,,,,2023-03-22,1,,,,,ビーアイエスエー,0
1792,8330001030690,新規,0,2023-03-22,2023-03-22,エムケーマテリアル株式会社,,株式会社,熊本県,八代市,豊原中町４１９－１松原ビル１階,,43,202,8660062,,,,,,,2023-03-22,1,,,,,エムケーマテリアル,0
1794,8340001025442,新規,0,2023-03-22,2023-03-22,株式会社ＣｏｗＤｅｌｉ,,株式会社,鹿児島県,曽於郡大崎町,假宿３４１６番地５,,46,468,8997305,,,,,,,2023-03-22,1,,,,,カウデリ,0
1810,8360003012825,新規,0,2023-03-22,2023-03-22,合同会社うた,,合同会社,沖縄県,中頭郡北谷町,字桑江５８５番地６,,47,326,9040103,,,,,,,2023-03-22,1,,,,,ウタ,0
1813,8370001049736,新規,0,2023-03-22,2023-03-22,株式会社ＺＥＲＯ　ＣＲＥＡＴＩＯＮ,,株式会社,宮城県,仙台市宮城野区,鉄砲町東５番地の６ダイアパレス榴ヶ岡公園２０５,,04,102,9830867,,,,,,,2023-03-22,1,,,,,ゼロクリエイション,0
1819,8420001018198,新規,0,2023-03-22,2023-03-22,株式会社海洋開発,,株式会社,青森県,下北郡大間町,大字大間字冷水５０番地１８８,,02,423,0394601,,,,,,,2023-03-22,1,,,,,カイヨウカイハツ,0
1829,8500005008591,新規,0,2023-03-22,2023-03-22,一般社団法人Ａｌｌ愛おやゆび媛養成学園,,その他の設立登記法人,愛媛県,西条市,朔日市５２０番地６,,38,206,7930027,,,,,,,2023-03-22,1,,,,,オールアイオヤユビヒメヨウセイガクエン,0
1831,8700150114439,新規,0,2023-03-22,2023-02-21,花筐地区支え合い推進協議会,,その他,福井県,越前市,粟田部町１７－２０,,18,209,9150242,,,,,,,2023-02-21,1,,,,,カキヨウチクササエアイスイシンキヨウギカイ,0
1836,9010001233713,新規,0,2023-03-22,2023-03-22,株式会社Ｊフーズ,,株式会社,東京都,中央区,銀座５丁目９番１４号銀座ニューセントラルビル４階Ｂ,,13,102,1040061,,,,,,,2023-03-22,1,,,,,ジェイフーズ,0
1837,9010001233829,新規,0,2023-03-22,2023-03-22,株式会社オーキッドフラワー,,株式会社,東京都,文京区,湯島３丁目４０番１号,,13,105,1130034,,,,,,,2023-03-22,1,,,,,オーキッドフラワー,0
1840,9010101015573,新規,0,2023-03-22,2023-03-22,株式会社テングリット,,株式会社,東京都,八王子市,高尾町１９３７番地１４,,13,201,1930844,,,,,,,2023-03-22,1,,,,,テングリット,0
1846,9010401173220,新規,0,2023-03-22,2023-03-22,株式会社ヴェンタス,,株式会社,東京都,港区,六本木６丁目１－２０六本木電気ビルディング６階６１６,,13,103,1060032,,,,,,,2023-03-22,1,,,,,ヴェンタス,0
1849,9010403029767,新規,0,2023-03-22,2023-03-22,テラ・ファボリカ合同会社,,合同会社,東京都,港区,芝浦２丁目６－１６－１４０４,,13,103,1080023,,,,,,,2023-03-22,1,,,,,テラファボリカ,0
1855,9010703006631,新規,0,2023-03-22,2023-03-22,サイブリッジ合同会社,,合同会社,東京都,品川区,南品川４丁目４番１７号品川サウスタワー,,13,109,1400004,,,,,,,2023-03-22,1,,,,,サイブリッジ,0
1858,9010801033791,新規,0,2023-03-22,2023-03-22,株式会社Ａｍａｔｒｉａ　Ｈｏｌｄｉｎｇｓ,,株式会社,東京都,大田区,東雪谷１丁目２番１２号,,13,111,1450065,,,,,,,2023-03-22,1,,,,,アマトリアホールディングス,0
1860,9010901052741,新規,0,2023-03-22,2023-03-22,Ｂｒｙｔｅ　Ｓｏｌｕｔｉｏｎｓ株式会社,,株式会社,東京都,世田谷区,下馬１丁目４０番１３－６０１号,,13,112,1540002,,,,,,,2023-03-22,1,,,,,ブライトソリューションズ,0
1864,9011001153199,新規,0,2023-03-22,2023-03-22,株式会社Ｌｉｂａｃｔ,,株式会社,東京都,渋谷区,神宮前６丁目２３番４号桑野ビル２階,,13,113,1500001,,,,,,,2023-03-22,1,,,,,リバクト,0
1865,9011001153249,新規,0,2023-03-22,2023-03-22,株式会社ＭＭ,,株式会社,東京都,渋谷区,広尾５丁目４番１６号ＥＡＴＰＬＡＹＷＯＲＫＳ３階,,13,113,1500012,,,,,,,2023-03-22,1,,,,,ツーエム,0
1866,9011003016478,新規,0,2023-03-22,2023-03-22,合同会社鈴木無双,,合同会社,東京都,渋谷区,幡ヶ谷３丁目３９番１２号渋谷ウェストビル１階,,13,113,1510072,,,,,,,2023-03-22,1,,,,,スズキムソウ,0
1867,9011101102246,新規,0,2023-03-22,2023-03-22,緒方バイオ株式会社,,株式会社,東京都,新宿区,高田馬場３丁目１４番２号佐成屋ビル３階,,13,104,1690075,,,,,,,2023-03-22,1,,,,,オガタバイオ,0
1874,9011401024990,新規,0,2023-03-22,2023-03-22,麗禾株式会社,,株式会社,東京都,板橋区,板橋２丁目９－９セントラルハイツ板橋５１１号,,13,119,1730004,,,,,,,2023-03-22,1,,,,,レイカ,0
1876,9011403003943,新規,0,2023-03-22,2023-03-22,瀟月文化メディア合同会社,,合同会社,東京都,板橋区,上板橋２丁目１０番４号サンウッドパレス１０１号室,,13,119,1740076,,,,,,,2023-03-22,1,,,,,ショウゲツブンカメディア,0
1877,9011405002241,新規,0,2023-03-22,2023-03-22,医療法人社団悠正会,,その他の設立登記法人,東京都,板橋区,徳丸４丁目１０番６号,,13,119,1750083,,,,,,,2023-03-22,1,,,,,ユウセイカイ,0
1878,9011501029064,新規,0,2023-03-22,2023-03-22,株式会社ＲｉｃｈＲａｉｓｅ,,株式会社,東京都,荒川区,南千住４丁目７番３－４０３号,,13,118,1160003,,,,,,,2023-03-22,1,,,,,リッチレイズ,0
1892,9012803003038,新規,0,2023-03-22,2023-03-22,ヘルスシンク合同会社,,合同会社,東京都,国分寺市,西元町２丁目１６ー３４ー３２５,,13,214,1850023,,,,,,,2023-03-22,1,,,,,ヘルスシンク,0
1896,9013301050464,新規,0,2023-03-22,2023-03-22,日本ＴＧＰＭ株式会社,,株式会社,東京都,豊島区,高田２丁目１６番１３号,,13,116,1710033,,,,,,,2023-03-22,1,,,,,ニホンティージーピーエム,0
1897,9020001150718,新規,0,2023-03-22,2023-03-22,株式会社ＬＷＨ,,株式会社,神奈川県,川崎市中原区,新城５丁目１０番９－２号,,14,133,2110044,,,,,,,2023-03-22,1,,,,,エルダブリューエイチ,0
1898,9020001150734,新規,0,2023-03-22,2023-03-22,株式会社ソライズプラス,,株式会社,神奈川県,横浜市港北区,大豆戸町６３６番地４,,14,109,2220032,,,,,,,2023-03-22,1,,,,,ソライズプラス,0
1899,9020001150750,新規,0,2023-03-22,2023-03-22,株式会社アル・ファーロ,,株式会社,神奈川県,横浜市西区,浅間町１丁目４番３号ウィザードビル４０２,,14,103,2200072,,,,,,,2023-03-22,1,,,,,アルファーロ,0
1901,9021001078486,新規,0,2023-03-22,2023-03-22,株式会社ＪＩＮ．ｋｏｇｙｏ,,株式会社,神奈川県,横須賀市,平作６丁目１番５号,,14,201,2380032,,,,,,,2023-03-22,1,,,,,ジンコウギョウ,0
1902,9021001078494,新規,0,2023-03-22,2023-03-22,ハウス管理逗葉株式会社,,株式会社,神奈川県,逗子市,逗子１丁目９番２２号,,14,208,2490006,,,,,,,2023-03-22,1,,,,,ハウスカンリズヨウ,0
1903,9021001078503,新規,0,2023-03-22,2023-03-22,株式会社ＣＩＲＱＵＥ　ＣＯＭＰＡＮＹ,,株式会社,神奈川県,座間市,さがみ野１丁目１番３５－３０５号ネオ・アージュさがみ野,,14,216,2520005,,,,,,,2023-03-22,1,,,,,シルクカンパニー,0
1904,9021003012897,新規,0,2023-03-22,2023-03-22,ラックライン合同会社,,合同会社,神奈川県,高座郡寒川町,倉見２１５６番地１プリムローズＡ２０１,,14,321,2530101,,,,,,,2023-03-22,1,,,,,ラックライン,0
1906,9021005012763,新規,0,2023-03-22,2023-03-22,一般社団法人ＮＵＲＳＥ,,その他の設立登記法人,神奈川県,鎌倉市,城廻７３１番地２２,,14,204,2470074,,,,,,,2023-03-22,1,,,,,ナース,0
1909,9030001152853,新規,0,2023-03-22,2023-03-22,株式会社ペルマナント,,株式会社,埼玉県,新座市,北野３丁目２１－２２,,11,230,3520003,,,,,,,2023-03-22,1,,,,,ペルマナント,0
1910,9030001152911,新規,0,2023-03-22,2023-03-22,株式会社もぐもぐ,,株式会社,埼玉県,川口市,上青木西４丁目８番１０－３０２号,,11,203,3330845,,,,,,,2023-03-22,1,,,,,モグモグ,0
1911,9030001152928,新規,0,2023-03-22,2023-03-22,株式会社休憩室,,株式会社,埼玉県,さいたま市見沼区,大和田町１丁目１９０３番地６（２Ｆ）,,11,104,3370053,,,,,,,2023-03-22,1,,,,,キュウケイシツ,0
1912,9030001152944,新規,0,2023-03-22,2023-03-22,ケイエイ産業株式会社,,株式会社,埼玉県,越谷市,大字袋山１４５９番地１マイキャッスル越谷１０１号,,11,222,3430032,,,,,,,2023-03-22,1,,,,,ケイエイサンギョウ,0
1913,9030001152952,新規,0,2023-03-22,2023-03-22,株式会社レッド,,株式会社,埼玉県,狭山市,大字水野２３６番地の１８,,11,215,3501317,,,,,,,2023-03-22,1,,,,,レッド,0
1914,9030001152969,新規,0,2023-03-22,2023-03-22,Ｔ‐ＷＯＲＫｓ株式会社,,株式会社,埼玉県,さいたま市南区,大字大谷口５９６番地７,,11,108,3360042,,,,,,,2023-03-22,1,,,,,ティーワークス,0
1917,9030003021404,新規,0,2023-03-22,2023-03-22,ＢＪＴ　ＪＡＰＡＮ合同会社,,合同会社,埼玉県,さいたま市桜区,道場１丁目１１番１７号,,11,106,3380835,,,,,,,2023-03-22,1,,,,,ビージェイティージャパン,0
1918,9030003021412,新規,0,2023-03-22,2023-03-22,合同会社ＳＲＳ空調,,合同会社,埼玉県,桶川市,大字加納２１９６－１４０,,11,231,3630001,,,,,,,2023-03-22,1,,,,,エスアールエスクウチョウ,0
1939,9090003002282,新規,0,2023-03-22,2023-03-22,合同会社石の雅,,合同会社,山梨県,甲府市,上阿原町３６３－３－１０２,,19,201,4000814,,,,,,,2023-03-22,1,,,,,イシノミヤビ,0
1944,9100003006926,新規,0,2023-03-22,2023-03-22,合同会社スペースＭＹ,,合同会社,長野県,茅野市,宮川４００９－１ヤマサンビル１Ｆ,,20,214,3910013,,,,,,,2023-03-22,1,,,,,スペースエムワイ,0
1946,9110001037385,新規,0,2023-03-22,2023-03-22,ビルド株式会社,,株式会社,新潟県,長岡市,不動沢６５７番地１,,15,202,9495416,,,,,,,2023-03-22,1,,,,,ビルド,0
1961,9120001253361,新規,0,2023-03-22,2023-03-22,株式会社満天や,,株式会社,大阪府,大阪市中央区,備後町３丁目１－２－６Ａ,,27,128,5410051,,,,,,,2023-03-22,1,,,,,マンテンヤ,0
1962,9120001253378,新規,0,2023-03-22,2023-03-22,株式会社アース,,株式会社,大阪府,大阪市城東区,鴫野西１丁目２番３３－３０７号,,27,118,5360014,,,,,,,2023-03-22,1,,,,,アース,0
1963,9120001253403,新規,0,2023-03-22,2023-03-22,ＭＳＣソリューション株式会社,,株式会社,大阪府,大阪市福島区,吉野４丁目１５番１１―４０７号,,27,103,5530006,,,,,,,2023-03-22,1,,,,,エムエスシーソリューション,0
1965,9120003023663,新規,0,2023-03-22,2023-03-22,ＬＩＧＬＩＺＥ合同会社,,合同会社,大阪府,大阪市北区,梅田１丁目２番２号大阪駅前第２ビル１２－１２,,27,127,5300001,,,,,,,2023-03-22,1,,,,,リグライズ,0
1967,9120105009701,新規,0,2023-03-22,2023-03-22,一般社団法人てこぽこ,,その他の設立登記法人,大阪府,堺市堺区,浅香山町３丁３番２１－１号,,27,141,5900012,,,,,,,2023-03-22,1,,,,,テコポコ,0
1969,9120901047276,新規,0,2023-03-22,2023-03-22,株式会社たくみ,,株式会社,大阪府,高槻市,八丁西町６番１－８０１号,,27,207,5690095,,,,,,,2023-03-22,1,,,,,タクミ,0
1971,9120903004548,新規,0,2023-03-22,2023-03-22,合同会社Ｓｏｕｒｉｒｅ,,合同会社,大阪府,豊中市,浜１丁目８番１８－２２７号,,27,203,5610817,,,,,,,2023-03-22,1,,,,,スリール,0
1976,9140005026530,新規,0,2023-03-22,2023-03-22,医療法人社団ＯＫＡＤＡ　ＣＬＩＮＩＣ,,その他の設立登記法人,兵庫県,神戸市灘区,水道筋６丁目３番６号１Ｆ,,28,102,6570831,,,,,,,2023-03-22,1,,,,,オカダクリニック,0
1979,9170001017514,新規,0,2023-03-22,2023-03-22,株式会社ＭＡＬＬＯＷ,,株式会社,和歌山県,和歌山市,松江北５丁目５６６番地３１,,30,201,6408425,,,,,,,2023-03-22,1,,,,,マロウ,0
1985,9180001155437,新規,0,2023-03-22,2023-03-22,株式会社カナエル,,株式会社,愛知県,名古屋市中川区,富船町３丁目１番地の１（ソーラスフロント富船１０２２号）,,23,110,4540823,,,,,,,2023-03-22,1,,,,,カナエル,0
1986,9180001155453,新規,0,2023-03-22,2023-03-22,新日本便利舎株式会社,,株式会社,愛知県,海部郡大治町,大字西條字西之川８８番地の１,,23,424,4901144,,,,,,,2023-03-22,1,,,,,シンニホンベンリシャ,0
1991,9180301037211,新規,0,2023-03-22,2023-03-22,株式会社Ｂｌｕｅ,,株式会社,愛知県,豊田市,伊保町大鳥居４６番地３,,23,211,4700374,,,,,,,2023-03-22,1,,,,,ブルー,0
2000,9220005008735,新規,0,2023-03-22,2023-03-22,一般社団法人石川県キャリア教育支援センター,,その他の設立登記法人,石川県,野々市市,本町２丁目１‐２１・１の１ＮＯＮＯＩＣＨＩシェアオフィス２号,,17,212,9218815,,,,,,,2023-03-22,1,,,,,イシカワケンキャリアキョウイクシエンセンター,0
2012,9270001008742,新規,0,2023-03-22,2023-03-22,株式会社トリノワ,,株式会社,鳥取県,鳥取市,福部町湯山１５３８番地３,,31,201,6890105,,,,,,,2023-03-22,1,,,,,トリノワ,0
2020,9290003013680,新規,0,2023-03-22,2023-03-22,梨の子合同会社,,合同会社,福岡県,福岡市博多区,博多駅前１丁目２３番１号ＰａｒｋＦｒｏｎｔ博多駅前一丁目５Ｆ－Ｂ,,40,132,8120011,,,,,,,2023-03-22,1,,,,,ナシノコ,0
2022,9300001013243,新規,0,2023-03-22,2023-03-22,株式会社信成不動産,,株式会社,佐賀県,武雄市,武雄町大字昭和３６番地３,,41,206,8430023,,,,,,,2023-03-22,1,,,,,シンセイフドウサン,0
2029,9360001031702,新規,0,2023-03-22,2023-03-22,株式会社ｋａｉ,,株式会社,沖縄県,宜野湾市,宜野湾３丁目１３番８号,,47,205,9012211,,,,,,,2023-03-22,1,,,,,カイ,0
2032,9370001049735,新規,0,2023-03-22,2023-03-22,株式会社エステック,,株式会社,宮城県,仙台市宮城野区,岩切字青津目５番地の１,,04,102,9830821,,,,,,,2023-03-22,1,,,,,エステック,0
2041,9380005012688,新規,0,2023-03-22,2023-03-22,特定非営利活動法人ママの仲間,,その他の設立登記法人,福島県,郡山市,安積２丁目３５０番地の１,,07,203,9630107,,,,,,,2023-03-22,1,,,,,ママノナカマ,0
2049,9430001088644,新規,0,2023-03-22,2023-03-22,株式会社メカニスタ,,株式会社,北海道,札幌市中央区,南二条西８丁目１番地８プライムレジデンス札幌２０２,,01,101,0600062,,,,,,,2023-03-22,1,,,,,メカニスタ,0
2057,9470001019521,新規,0,2023-03-22,2023-03-22,株式会社糸濱総設,,株式会社,香川県,丸亀市,郡家町１７５２番地１,,37,202,7630093,,,,,,,2023-03-22,1,,,,,イトハマソウセツ,0
