sequenceNumber,corporateNumber,process,correct,updateDate,changeDate,name,nameImageId,kind,prefectureName,cityName,streetNumber,addressImageId,prefectureCode,cityCode,postCode,addressOutside,addressOutsideImageId,closeDate,closeCause,successorCorporateNumber,changeCause,assignmentDate,latest,enName,enPrefectureName,enCityName,enAddressOutside,furigana,hihyoji
11,1010102006777,登記記録の閉鎖等,0,2022-06-29,2022-06-24,有限会社ミヤモトカンパニー,,有限会社,東京都,八王子市,南陽台２丁目６番２号,,13,201,1920371,,,2022-06-24,清算の結了等,,,2015-10-05,1,,,,,,0
39,1011003004143,登記記録の閉鎖等,0,2022-06-29,2022-06-16,合同会社ＭＵ,,合同会社,東京都,渋谷区,恵比寿２丁目２８番１０号,,13,113,1500013,,,2022-06-16,清算の結了等,,,2015-10-05,1,,,,,エムユー,0
45,1011501003506,登記記録の閉鎖等,0,2022-06-29,2022-06-24,日本教育コンピューター株式会社,,株式会社,東京都,北区,赤羽南１丁目４番９号,,13,117,1150044,,,2022-06-24,清算の結了等,,,2015-10-05,1,,,,,ニホンキョウイクコンピューター,0
60,1013301009360,登記記録の閉鎖等,0,2022-06-29,2022-06-27,株式会社日本ベック,,株式会社,東京都,豊島区,東池袋３丁目１１番８号,,13,116,1700013,,,2022-06-27,清算の結了等,,,2015-10-05,1,,,,,ニホンベック,0
109,1100005010982,登記記録の閉鎖等,0,2022-06-29,2022-06-23,特定非営利活動法人ゆうあい,,その他の設立登記法人,長野県,長野市,上松２丁目２７番２号,,20,201,3800802,,,2022-06-23,清算の結了等,,,2015-10-05,1,,,,,ユウアイ,0
123,1120005013463,登記記録の閉鎖等,0,2022-06-29,2022-06-24,特定非営利活動法人枚方市勤労市民会,,その他の設立登記法人,大阪府,枚方市,岡東町１２番３号５０２,,27,210,5730032,,,2022-06-24,清算の結了等,,,2015-10-05,1,,,,,ヒラカタシキンロウシミンカイ,0
124,1120101042928,登記記録の閉鎖等,0,2022-06-29,2022-06-27,勝又染工株式会社,,株式会社,大阪府,泉北郡忠岡町,忠岡北２丁目１２番１５号,,27,341,5950811,,,2022-06-27,清算の結了等,,,2015-10-05,1,,,,,カツマタセンコウ,0
128,1120102024545,登記記録の閉鎖等,0,2022-06-29,2022-06-21,有限会社オーピーシー製作所,,有限会社,大阪府,泉佐野市,鶴原３丁目１２番５４号,,27,213,5980071,,,2022-06-21,合併による解散等,3120101040707,令和４年６月２１日大阪府貝塚市二色中町６番地１２株式会社ＯＰＣ（3120101040707）に合併し解散,2015-10-05,1,,,,,オーピーシーセイサクショ,0
141,1140001013077,登記記録の閉鎖等,0,2022-06-29,2022-06-24,サイトウエンヂニアーズ株式会社,,株式会社,兵庫県,神戸市兵庫区,高松町２番２７号,,28,105,6520874,,,2022-06-24,清算の結了等,,,2015-10-05,1,,,,,サイトウエンヂニアーズ,0
150,1150005003750,登記記録の閉鎖等,0,2022-06-29,2022-06-15,特定非営利活動法人近畿介助犬協会,,その他の設立登記法人,奈良県,奈良市,小倉町１０００番地,,29,201,6320111,,,2022-06-15,清算の結了等,,,2015-10-05,1,,,,,キンキカイジョケンキョウカイ,0
152,1160005008724,登記記録の閉鎖等,0,2022-06-29,2022-06-24,一般社団法人ＴＳＣ,,その他の設立登記法人,滋賀県,栗東市,上砥山８００番地１５,,25,208,5203004,,,2022-06-24,清算の結了等,,,2015-10-05,1,,,,,ティーエスシー,0
156,1180001013809,登記記録の閉鎖等,0,2022-06-29,2022-06-24,株式会社ユーライフ,,株式会社,愛知県,名古屋市北区,清水５丁目２１番２３号,,23,103,4620844,,,2022-06-24,清算の結了等,,,2015-10-05,1,,,,,ユーライフ,0
170,1180002084832,登記記録の閉鎖等,0,2022-06-29,2022-06-24,有限会社シモムラ,,有限会社,愛知県,大府市,高丘町３丁目６２番地,,23,223,4740042,,,2022-06-24,清算の結了等,,,2015-10-05,1,,,,,シモムラ,0
183,1230002014503,登記記録の閉鎖等,0,2022-06-29,2022-06-21,有限会社城東金属,,有限会社,富山県,射水市,布目沢３３６番地９,,16,211,9390418,,,2022-06-21,合併による解散等,6230001013294,令和４年６月２１日富山県射水市布目沢２６２番地株式会社スカイ（6230001013294）に合併し解散,2015-10-05,1,,,,,ジョウトウキンゾク,0
189,1250002010054,登記記録の閉鎖等,0,2022-06-29,2022-06-23,有限会社テンシード工業,,有限会社,山口県,下関市,綾羅木本町４丁目４番５号,,35,201,7510849,,,2022-06-23,清算の結了等,,,2015-10-05,1,,,,,テンシードコウギョウ,0
192,1260005000266,登記記録の閉鎖等,0,2022-06-29,2022-06-27,一般財団法人岡山県母子寡婦福祉連合会,,その他の設立登記法人,岡山県,岡山市北区,内山下２丁目４番６号岡山県保健福祉部子ども家庭課内,,33,101,7000824,,,2022-06-27,清算の結了等,,,2015-10-05,1,,,,,オカヤマケンボシカフフクシレンゴウカイ,0
193,1260005009729,登記記録の閉鎖等,0,2022-06-29,2022-06-27,一般社団法人アリス福祉会,,その他の設立登記法人,岡山県,倉敷市,広江５丁目２番４５号,,33,202,7128043,,,2022-06-27,清算の結了等,,,2015-10-05,1,,,,,アリスフクシカイ,0
198,1290001091067,登記記録の閉鎖等,0,2022-06-29,2022-06-21,株式会社ＩＳＰＪＰ,,株式会社,福岡県,福岡市早良区,百道２丁目６番２－２０３号,,40,137,8140006,,,2022-06-21,清算の結了等,,,2020-11-25,1,,,,,アイエスピージェイピー,0
218,1400501000597,登記記録の閉鎖等,0,2022-06-29,2022-06-27,ワイ・イー・アイ株式会社,,株式会社,岩手県,一関市,室根町折壁字大里４０番地,,03,209,0291201,,,2022-06-27,清算の結了等,,,2015-10-05,1,,,,,ワイイーアイ,0
230,1470001009694,登記記録の閉鎖等,0,2022-06-29,2022-06-24,株式会社ゼンサービス,,株式会社,香川県,善通寺市,大麻町１０９５番地３,,37,204,7650052,,,2022-06-24,清算の結了等,,,2015-10-05,1,,,,,ゼンサービス,0
246,2010002041163,登記記録の閉鎖等,0,2022-06-29,2022-06-21,有限会社まるいち,,有限会社,茨城県,水戸市,鯉淵町５０６５番地５７,,08,201,3190323,,,2022-06-21,清算の結了等,,,2015-10-05,1,,,,,マルイチ,0
247,2010003035809,登記記録の閉鎖等,0,2022-06-29,2022-06-22,合同会社Ｃ－ＧＢ,,合同会社,東京都,中央区,銀座５丁目１４番１号銀座クイント８Ｆ,,13,102,1040061,,,2022-06-22,清算の結了等,,,2021-09-09,1,,,,,シージービー,0
259,2010403010650,登記記録の閉鎖等,0,2022-06-29,2022-06-13,ネプチューン・ソーラー合同会社,,合同会社,東京都,港区,東新橋１丁目５番２号汐留シティセンター,,13,103,1050021,,,2022-06-13,清算の結了等,,,2015-10-05,1,,,,,ネプチューンソーラー,0
260,2010403021391,登記記録の閉鎖等,0,2022-06-29,2022-06-13,ＧＬＰトリトン合同会社,,合同会社,東京都,港区,東新橋１丁目５番２号汐留シティセンター,,13,103,1050021,,,2022-06-13,清算の結了等,,,2019-09-03,1,,,,,ジーエルピートリトン,0
271,2010701008660,登記記録の閉鎖等,0,2022-06-29,2022-06-27,株式会社フジツール,,株式会社,東京都,狛江市,猪方２丁目３番１９号,,13,219,2010015,,,2022-06-27,清算の結了等,,,2015-10-05,1,,,,,フジツール,0
331,2021001034900,登記記録の閉鎖等,0,2022-06-29,2022-06-23,株式会社サンクスデイズ,,株式会社,神奈川県,足柄下郡真鶴町,岩７４８番地３０,,14,383,2590202,,,2022-06-23,清算の結了等,,,2015-10-05,1,,,,,サンクスデイズ,0
359,2060002034773,登記記録の閉鎖等,0,2022-06-29,2022-06-21,大野鐵工有限会社,,有限会社,栃木県,栃木市,藤岡町藤岡２０３０番地,,09,203,3231104,,,2022-06-21,清算の結了等,,,2015-10-05,1,,,,,オオノテッコウ,0
365,2080402001677,登記記録の閉鎖等,0,2022-06-29,2022-06-23,有限会社オートミ,,有限会社,静岡県,浜松市東区,中里町１６５番地,,22,132,4350003,,,2022-06-23,清算の結了等,,,2015-10-05,1,,,,,オートミ,0
367,2090005004515,登記記録の閉鎖等,0,2022-06-29,2022-06-21,特定非営利活動法人富士山自然保護センター,,その他の設立登記法人,山梨県,南都留郡富士河口湖町,船津６６０３番地,,19,430,4010301,,,2022-06-21,清算の結了等,,,2015-10-05,1,,,,,フジサンシゼンホゴセンター,0
377,2120001199941,登記記録の閉鎖等,0,2022-06-29,2022-06-15,小林化学工業株式会社,,株式会社,大阪府,大阪市西区,南堀江４丁目１０番１５号,,27,106,5500015,,,2022-06-15,清算の結了等,,,2016-08-05,1,,,,,コバヤシカガクコウギョウ,0
389,2122001029038,登記記録の閉鎖等,0,2022-06-29,2022-06-27,有馬新聞舗株式会社,,株式会社,大阪府,門真市,千石東町２番３６号,,27,223,5710013,,,2022-06-27,清算の結了等,,,2015-11-16,1,,,,,アリマシンブンホ,0
424,2210001014744,登記記録の閉鎖等,0,2022-06-29,2022-06-21,株式会社Ｇ－ｍａｎ,,株式会社,福井県,福井市,上六条町第１８号４０番地９,,18,201,9188132,,,2022-06-21,清算の結了等,,,2015-10-05,1,,,,,,0
444,2290003010668,登記記録の閉鎖等,0,2022-06-29,2022-06-21,合同会社ＯＤＫ,,合同会社,福岡県,久留米市,大善寺南１丁目２２番２０号,,40,203,8300070,,,2022-06-21,清算の結了等,,,2020-12-04,1,,,,,オーディーケー,0
450,2310002018560,登記記録の閉鎖等,0,2022-06-29,2022-06-24,有限会社成美ボデー工業,,有限会社,長崎県,南島原市,加津佐町己２２４７番地１,,42,214,8592601,,,2022-06-24,清算の結了等,,,2015-10-05,1,,,,,セイビボデーコウギョウ,0
454,2320002018485,登記記録の閉鎖等,0,2022-06-29,2022-06-27,有限会社宗像運輸,,有限会社,大分県,豊後大野市,犬飼町下津尾３４８７番地４,,44,212,8797306,,,2022-06-27,清算の結了等,,,2015-10-05,1,,,,,,0
472,2380005004709,登記記録の閉鎖等,0,2022-06-29,2022-06-21,一般財団法人白信育英会,,その他の設立登記法人,福島県,白河市,大手町１４番地の６,,07,205,9610908,,,2022-06-21,清算の結了等,,,2015-10-05,1,,,,,ハクシンイクエイカイ,0
495,3010001156424,登記記録の閉鎖等,0,2022-06-29,2022-06-22,株式会社レディーピンク,,株式会社,福岡県,福岡市博多区,博多駅前１丁目５番１号,,40,132,8120011,,,2022-06-22,清算の結了等,,,2015-10-05,1,,,,,レディーピンク,0
499,3010003013549,登記記録の閉鎖等,0,2022-06-29,2022-06-22,合同会社バリュークリエィティブ,,合同会社,東京都,中央区,日本橋本町４丁目１２番１１号日本橋中央ビル３０３,,13,102,1030023,,,2022-06-22,清算の結了等,,,2015-10-05,1,,,,,バリュークリエイティブ,0
509,3010403025739,登記記録の閉鎖等,0,2022-06-29,2022-06-15,ＪＬ　Ｊａｐａｎ　Ｉｎｖｅｓｔｍｅｎｔ合同会社,,合同会社,東京都,港区,六本木６丁目２番３１号,,13,103,1060032,,,2022-06-15,清算の結了等,,,2021-07-19,1,,,,,ジェイエルジャパンインベストメント,0
553,3012801018068,登記記録の閉鎖等,0,2022-06-29,2022-06-22,株式会社　ｍａｓｕｌｉｎｋｓ,,株式会社,東京都,立川市,富士見町６丁目２２番１０３号,,13,202,1900013,,,2022-06-22,清算の結了等,,,2017-06-08,1,,,,,,0
570,3030001100702,登記記録の閉鎖等,0,2022-06-29,2022-06-20,株式会社はぐくみケア,,株式会社,埼玉県,さいたま市緑区,大字中尾２１８２番地１,,11,109,3360932,,,2022-06-20,清算の結了等,,,2015-10-05,1,,,,,,0
589,3050001019610,登記記録の閉鎖等,0,2022-06-29,2022-06-21,株式会社馥郁舎,,株式会社,茨城県,古河市,上和田１２５番地１,,08,204,3060122,,,2022-06-21,清算の結了等,,,2015-10-05,1,,,,,フクイクシャ,0
603,3080101000681,登記記録の閉鎖等,0,2022-06-29,2022-06-28,三大ガス燃料株式会社,,株式会社,静岡県,沼津市,大岡４２２番地,,22,203,4100022,,,2022-06-28,清算の結了等,,,2015-10-05,1,,,,,サンダイガスネンリョウ,0
617,3120001008795,登記記録の閉鎖等,0,2022-06-29,2022-06-27,村尾ベビー株式会社,,株式会社,大阪府,大阪市都島区,都島本通３丁目１４番７号,,27,102,5340021,,,2022-06-27,清算の結了等,,,2015-10-05,1,,,,,ムラオベビー,0
649,3140001005221,登記記録の閉鎖等,0,2022-06-29,2022-06-24,株式会社パシフィック商会,,株式会社,兵庫県,神戸市西区,伊川谷町有瀬１３５２番地の２,,28,111,6512113,,,2022-06-24,清算の結了等,,,2015-10-05,1,,,,,パシフィックショウカイ,0
652,3140002057674,登記記録の閉鎖等,0,2022-06-29,2022-06-24,有限会社ブールバール,,有限会社,兵庫県,西宮市,川東町１０番２０－１３０６号,,28,204,6620945,,,2022-06-24,清算の結了等,,,2015-10-05,1,,,,,ブールバール,0
656,3160005009828,登記記録の閉鎖等,0,2022-06-29,2022-06-24,一般社団法人発達サポートセンター・ピアすまいる,,その他の設立登記法人,滋賀県,草津市,大路１丁目１８番２８号,,25,206,5250032,,,2022-06-24,清算の結了等,,,2015-10-05,1,,,,,ハッタツサポートセンターピアスマイル,0
669,3180002006900,登記記録の閉鎖等,0,2022-06-29,2022-06-27,有限会社坂機工,,有限会社,愛知県,名古屋市港区,八百島１丁目９０６番地,,23,111,4550885,,,2022-06-27,清算の結了等,,,2015-10-05,1,,,,,サカキコウ,0
670,3180003001603,登記記録の閉鎖等,0,2022-06-29,2022-06-24,栗本輪業合資会社,,合資会社,愛知県,名古屋市北区,大曽根４丁目１６番６２号,,23,103,4620825,,,2022-06-24,清算の結了等,,,2015-10-05,1,,,,,クリモトリンギョウ,0
684,3230005008830,登記記録の閉鎖等,0,2022-06-29,2022-06-23,一般社団法人ハッピーライフデザイン協会,,その他の設立登記法人,富山県,富山市,稲荷元町２丁目１１番１号,,16,201,9300010,,,2022-06-23,清算の結了等,,,2017-10-10,1,,,,,ハッピーライフデザインキョウカイ,0
687,3240003005390,登記記録の閉鎖等,0,2022-06-29,2022-06-20,合同会社ＹＯＵＲＳ広島,,合同会社,広島県,三次市,和知町１７８５番地１,,34,209,7296201,,,2022-06-20,清算の結了等,,,2021-12-01,1,,,,,ユアーズヒロシマ,0
711,3360002007979,登記記録の閉鎖等,0,2022-06-29,2022-06-20,有限会社ａ－ｄｅｘ,,有限会社,沖縄県,浦添市,字港川２５０－１９,,47,208,9012134,,,2022-06-20,清算の結了等,,,2015-10-05,1,,,,,エーデックス,0
719,3410002004541,登記記録の閉鎖等,0,2022-06-29,2022-06-22,有限会社椿台エンタープライズ,,有限会社,秋田県,秋田市,雄和種沢字山王堂１０４番地２,,05,201,0101224,,,2022-06-22,清算の結了等,,,2015-10-05,1,,,,,ツバキダイエンタープライズ,0
728,3440001005091,登記記録の閉鎖等,0,2022-06-29,2022-06-23,株式会社Ｓ．Ｉ．Ｃ,,株式会社,北海道,函館市,富岡町２丁目１２番１３号,,01,202,0410811,,,2022-06-23,清算の結了等,,,2015-10-05,1,,,,,エスアイシー,0
754,4010401129549,登記記録の閉鎖等,0,2022-06-29,2022-06-24,株式会社ウェルフテック,,株式会社,東京都,世田谷区,上用賀５丁目１０番７号,,13,112,1580098,,,2022-06-24,清算の結了等,,,2017-02-09,1,,,,,ウェルフテック,0
756,4010501026167,登記記録の閉鎖等,0,2022-06-29,2022-06-24,株式会社ヤマイチ西村,,株式会社,東京都,台東区,花川戸１丁目３番６号,,13,106,1110033,,,2022-06-24,清算の結了等,,,2015-10-05,1,,,,,ヤマイチニシムラ,0
758,4010502011374,登記記録の閉鎖等,0,2022-06-29,2022-06-28,有限会社目玉屋中道義眼製作所,,有限会社,東京都,東村山市,秋津町５丁目３５番地２８,,13,213,1890001,,,2022-06-28,清算の結了等,,,2015-10-05,1,,,,,メダマヤナカミチギガンセイサクジョ,0
765,4010803001660,登記記録の閉鎖等,0,2022-06-29,2022-06-21,アルバジャパン合同会社,,合同会社,東京都,大田区,南千束１丁目２４番２号,,13,111,1450063,,,2022-06-21,清算の結了等,,,2015-10-05,1,,,,,アルバジャパン,0
794,4012401038093,登記記録の閉鎖等,0,2022-06-29,2022-06-22,株式会社アスカＮＬＰ,,株式会社,東京都,武蔵野市,西久保２丁目２７－１０,,13,203,1800013,,,2022-06-22,清算の結了等,,,2021-07-13,1,,,,,アスカエヌエルピー,0
822,4040005014384,登記記録の閉鎖等,0,2022-06-29,2022-06-20,一般社団法人野田花井東排水管理,,その他の設立登記法人,千葉県,柏市,柏５丁目８番１５号（株式会社岡本設計企画内）,,12,217,2770005,,,2022-06-20,清算の結了等,,,2015-10-05,1,,,,,ノダハナイヒガシハイスイカンリ,0
828,4060002037353,登記記録の閉鎖等,0,2022-06-29,2022-06-21,有限会社増田重起,,有限会社,栃木県,足利市,鹿島町５４８番地,,09,202,3260844,,,2022-06-21,清算の結了等,,,2015-10-05,1,,,,,マスダジュウキ,0
830,4070001024640,登記記録の閉鎖等,0,2022-06-29,2022-06-21,ジェンコテキスタイル株式会社,,株式会社,群馬県,前橋市,粕川町膳５６３番地５,,10,201,3710204,,,2022-06-21,清算の結了等,,,2015-10-05,1,,,,,ジェンコテキスタイル,0
831,4080001011225,登記記録の閉鎖等,0,2022-06-29,2022-06-27,株式会社スタート代行,,株式会社,静岡県,静岡市葵区,南沼上２丁目１番Ｄー３０１号,,22,101,4200905,,,2022-06-27,清算の結了等,,,2015-10-05,1,,,,,スタートダイコウ,0
839,4100001014514,登記記録の閉鎖等,0,2022-06-29,2022-06-24,株式会社協同機械化センター,,株式会社,長野県,松本市,波田１０３３５番地１,,20,202,3901401,,,2022-06-24,清算の結了等,,,2015-10-05,1,,,,,キョウドウキカイカセンター,0
850,4120001185790,登記記録の閉鎖等,0,2022-06-29,2022-06-23,株式会社心フード,,株式会社,大阪府,大阪市東成区,大今里西３丁目１８番２０号,,27,115,5370014,,,2022-06-23,清算の結了等,,,2015-10-05,1,,,,,,0
864,4120002021037,登記記録の閉鎖等,0,2022-06-29,2022-06-24,有限会社アスコット設計,,有限会社,大阪府,大阪市西区,江戸堀１丁目１８番１１号,,27,106,5500002,,,2022-06-24,清算の結了等,,,2015-10-05,1,,,,,アスコットセッケイ,0
865,4120002078250,登記記録の閉鎖等,0,2022-06-29,2022-06-24,有限会社共立サイクル,,有限会社,大阪府,守口市,寺方錦通３丁目１番１８号,,27,209,5700042,,,2022-06-24,清算の結了等,,,2015-10-05,1,,,,,キョウリツサイクル,0
871,4120101043163,登記記録の閉鎖等,0,2022-06-29,2022-06-27,株式会社レオ・ワーク,,株式会社,大阪府,和泉市,府中町４８９番地の１,,27,219,5940071,,,2022-06-27,清算の結了等,,,2015-10-05,1,,,,,レオワーク,0
875,4120901033470,登記記録の閉鎖等,0,2022-06-29,2022-06-23,株式会社エス・ケイ・アイ・コーポレーション,,株式会社,大阪府,枚方市,山之上西町３２番１５号,,27,210,5730048,,,2022-06-23,清算の結了等,,,2015-10-05,1,,,,,,0
894,4180001150038,登記記録の閉鎖等,0,2022-06-29,2022-06-24,株式会社奏,,株式会社,愛知県,名古屋市熱田区,一番２丁目４４番１０号,,23,109,4560053,,,2022-06-24,清算の結了等,,,2022-02-22,1,,,,,カナデ,0
922,4290002050498,登記記録の閉鎖等,0,2022-06-29,2022-06-21,富田運送有限会社,,有限会社,福岡県,久留米市,城島町下青木１３０４番地の５,,40,203,8300225,,,2022-06-21,清算の結了等,,,2015-10-05,1,,,,,トミタウンソウ,0
928,4290802023554,登記記録の閉鎖等,0,2022-06-29,2022-06-23,有限会社豊前吉富,,有限会社,福岡県,築上郡上毛町,大字尻高５９０番地の２,,40,646,8710905,,,2022-06-23,清算の結了等,,,2015-10-05,1,,,,,ブゼンヨシトミ,0
965,4450001010040,登記記録の閉鎖等,0,2022-06-29,2022-06-27,朔北農園株式会社,,株式会社,北海道,中川郡中川町,字中川２６２番地,,01,471,0982802,,,2022-06-27,清算の結了等,,,2015-10-05,1,,,,,サクホクノウエン,0
966,4480002002703,登記記録の閉鎖等,0,2022-06-29,2022-06-24,株式会社ＤＣＴ,,株式会社,徳島県,徳島市,北沖洲４丁目１番３８号,,36,201,7700872,,,2022-06-24,清算の結了等,,,2015-10-05,1,,,,,ディーシーティー,0
971,5010001028670,登記記録の閉鎖等,0,2022-06-29,2022-06-22,物産鉄道ファイナンス株式会社,,株式会社,東京都,千代田区,大手町１丁目２番１号,,13,101,1000004,,,2022-06-22,清算の結了等,,,2015-10-05,1,,,,,ブッサンテツドウファイナンス,0
980,5010101011659,登記記録の閉鎖等,0,2022-06-29,2022-06-27,ＮＰサーチ株式会社,,株式会社,東京都,八王子市,台町４丁目２４番１号加島屋ビル２階,,13,201,1930931,,,2022-06-27,清算の結了等,,,2015-10-05,1,,,,,,0
985,5010401145082,登記記録の閉鎖等,0,2022-06-29,2022-06-08,株式会社ＲＥＶＡＬＯＩＲ,,株式会社,東京都,港区,南青山２丁目２番１５号ウィン青山９４２,,13,103,1070062,,,2022-06-08,清算の結了等,,,2019-04-18,1,,,,,レバルワ,0
1050,5013102005464,登記記録の閉鎖等,0,2022-06-29,2022-06-27,有限会社サムズ・テクノロジー,,有限会社,東京都,あきる野市,牛沼２３８番地,,13,228,1970826,,,2022-06-27,清算の結了等,,,2015-10-05,1,,,,,サムズテクノロジー,0
1064,5020001106822,登記記録の閉鎖等,0,2022-06-29,2022-06-22,トータルメンテナンス株式会社,,株式会社,神奈川県,横浜市中区,元浜町３丁目２１－２ヘリオス関内ビル,,14,104,2310004,,,2022-06-22,清算の結了等,,,2015-10-05,1,,,,,トータルメンテナンス,0
1067,5020002015840,登記記録の閉鎖等,0,2022-06-29,2022-06-22,有限会社ラテン美容室,,有限会社,神奈川県,横浜市青葉区,美しが丘５丁目２７番地１６,,14,117,2250002,,,2022-06-22,清算の結了等,,,2015-10-05,1,,,,,,0
1074,5020005009063,登記記録の閉鎖等,0,2022-06-29,2022-06-17,一般社団法人エチケット・サービス向上協会,,その他の設立登記法人,神奈川県,川崎市麻生区,白鳥４丁目３－３２ベラクリヒラ１０１,,14,137,2150024,,,2022-06-17,清算の結了等,,,2015-10-05,1,,,,,エチケットサービスコウジョウキョウカイ,0
1088,5040001107653,登記記録の閉鎖等,0,2022-06-29,2022-06-13,株式会社エスビーワイ企画,,株式会社,千葉県,松戸市,三ケ月１４３５番地,,12,207,2700026,,,2022-06-13,清算の結了等,,,2019-01-16,1,,,,,エスビーワイキカク,0
1123,5120005006901,登記記録の閉鎖等,0,2022-06-29,2022-06-27,近畿運搬機械工業協同組合,,その他の設立登記法人,大阪府,大阪市中央区,南船場２丁目１番３号（株）精研内,,27,128,5420081,,,2022-06-27,清算の結了等,,,2015-10-05,1,,,,,キンキウンパンキカイコウギョウ,0
1147,5140002009392,登記記録の閉鎖等,0,2022-06-29,2022-06-23,有限会社やなぎ,,有限会社,兵庫県,神戸市長田区,五番町３丁目２番地,,28,106,6530003,,,2022-06-23,清算の結了等,,,2015-10-05,1,,,,,ヤナギ,0
1153,5170002002254,登記記録の閉鎖等,0,2022-06-29,2022-06-28,有限会社泰久設備工業,,有限会社,和歌山県,和歌山市,紀三井寺７６１番地の４,,30,201,6410012,,,2022-06-28,清算の結了等,,,2015-10-05,1,,,,,タイキュウセツビコウギョウ,0
1174,5200002004874,登記記録の閉鎖等,0,2022-06-29,2022-06-27,有限会社森田石油,,有限会社,岐阜県,岐阜市,茶屋新田４丁目２６番地,,21,201,5016135,,,2022-06-27,清算の結了等,,,2015-10-05,1,,,,,モリタセキユ,0
1211,5310002005382,登記記録の閉鎖等,0,2022-06-29,2022-06-27,有限会社マルフル,,有限会社,長崎県,長崎市,京泊３丁目３番１号,,42,201,8512211,,,2022-06-27,清算の結了等,,,2015-10-05,1,,,,,マルフル,0
1215,5340002006270,登記記録の閉鎖等,0,2022-06-29,2022-06-21,千代田産業有限会社,,有限会社,鹿児島県,鹿児島市,西伊敷４丁目２３番４号コーポ中央１０２,,46,201,8900002,,,2022-06-21,清算の結了等,,,2015-10-05,1,,,,,チヨダサンギョウ,0
1251,5430002064318,登記記録の閉鎖等,0,2022-06-29,2022-06-24,有限会社小路,,有限会社,北海道,室蘭市,中島町１丁目９番６号,,01,205,0500074,,,2022-06-24,清算の結了等,,,2015-10-05,1,,,,,ショウジ,0
1259,5490005006765,登記記録の閉鎖等,0,2022-06-29,2022-06-17,一般社団法人ＴＯＳＡ　ＣＬＵＢ,,その他の設立登記法人,高知県,高知市,鴨部３丁目１番４７－２０７号,,39,201,7808052,,,2022-06-17,清算の結了等,,,2021-04-07,1,,,,,トサクラブ,0
1291,6011102016786,登記記録の閉鎖等,0,2022-06-29,2022-06-27,有限会社アイナレイ,,有限会社,東京都,新宿区,天神町２１番地,,13,104,1620808,,,2022-06-27,清算の結了等,,,2015-10-05,1,,,,,アイナレイ,0
1301,6011702017911,登記記録の閉鎖等,0,2022-06-29,2022-06-27,有限会社ＡＰネクスト,,有限会社,東京都,江戸川区,南篠崎町４丁目２３番１８号,,13,123,1330065,,,2022-06-27,清算の結了等,,,2015-10-05,1,,,,,エーピーネクスト,0
1332,6030001030657,登記記録の閉鎖等,0,2022-06-29,2022-06-20,入江水道工業株式会社,,株式会社,埼玉県,久喜市,本町３丁目１８番２３号,,11,232,3460005,,,2022-06-20,清算の結了等,,,2015-10-05,1,,,,,,0
1356,6080101001677,登記記録の閉鎖等,0,2022-06-29,2022-06-28,株式会社プライム,,株式会社,静岡県,沼津市,高島町２４番１４号,,22,203,4100056,,,2022-06-28,清算の結了等,,,2015-10-05,1,,,,,プライム,0
1357,6080103001188,登記記録の閉鎖等,0,2022-06-29,2022-06-27,合同会社アップトゥユー,,合同会社,静岡県,伊豆の国市,寺家１８１番地の３４,,22,225,4102122,,,2022-06-27,清算の結了等,,,2015-10-05,1,,,,,アップトゥユー,0
1360,6100002007911,登記記録の閉鎖等,0,2022-06-29,2022-06-23,有限会社ＺＥＡＬ教育企画,,有限会社,長野県,長野市,上松１丁目１６番３６号,,20,201,3800802,,,2022-06-23,清算の結了等,,,2015-10-05,1,,,,,ジールキョウイクキカク,0
1361,6100002022563,登記記録の閉鎖等,0,2022-06-29,2022-06-27,有限会社アイコンシェルジェ,,有限会社,長野県,松本市,元町２丁目８番８号,,20,202,3900803,,,2022-06-27,清算の結了等,,,2015-10-05,1,,,,,アイコンシェルジェ,0
1363,6110002028361,登記記録の閉鎖等,0,2022-06-29,2022-06-23,有限会社ティーエムワン,,有限会社,新潟県,長岡市,北山４丁目１３５番地１,,15,202,9402114,,,2022-06-23,清算の結了等,,,2015-10-05,1,,,,,ティーエムワン,0
1364,6110002033510,登記記録の閉鎖等,0,2022-06-29,2022-06-24,有限会社リバティー,,有限会社,新潟県,南魚沼郡湯沢町,大字土樽１５１番地１１０,00071187,15,461,9496103,,,2022-06-24,清算の結了等,,,2015-10-05,1,,,,,リバティー,0
1370,6120001168612,登記記録の閉鎖等,0,2022-06-29,2022-06-27,株式会社ＵＲパートナーズ,,株式会社,大阪府,大阪市北区,西天満１丁目１番１１号,,27,127,5300047,,,2022-06-27,清算の結了等,,,2015-10-05,1,,,,,ユーアールパートナーズ,0
1405,6180001102516,登記記録の閉鎖等,0,2022-06-29,2022-06-24,株式会社ぴゅあ,,株式会社,愛知県,名古屋市中川区,横前町５０番地の１,,23,110,4540917,,,2022-06-24,清算の結了等,,,2015-10-05,1,,,,,ピュア,0
1406,6180001113678,登記記録の閉鎖等,0,2022-06-29,2022-06-27,キャリーズ株式会社,,株式会社,愛知県,清須市,西枇杷島町城並３丁目６番地１３,,23,233,4520011,,,2022-06-27,清算の結了等,,,2015-10-05,1,,,,,キャリーズ,0
1409,6180001133569,登記記録の閉鎖等,0,2022-06-29,2022-06-24,株式会社太陽昇ジャパン,,株式会社,愛知県,名古屋市中区,錦２丁目１９番１号,,23,106,4600003,,,2022-06-24,清算の結了等,,,2018-08-31,1,,,,,タイヨウショウジャパン,0
1446,6260001019685,登記記録の閉鎖等,0,2022-06-29,2022-06-24,河辺建設株式会社,,株式会社,岡山県,津山市,河辺１１１５番地の３,,33,203,7080842,,,2022-06-24,清算の結了等,,,2015-10-05,1,,,,,カワナベケンセツ,0
1489,6400002011313,登記記録の閉鎖等,0,2022-06-29,2022-06-24,有限会社ササキ工務店,,有限会社,岩手県,下閉伊郡山田町,織笠第１９地割２２番地,,03,482,0281361,,,2022-06-24,清算の結了等,,,2015-10-05,1,,,,,ササキコウムテン,0
1503,6460101003783,登記記録の閉鎖等,0,2022-06-29,2022-06-24,北海道衛星株式会社,,株式会社,北海道,広尾郡大樹町,寿通１丁目１１番地１,,01,641,0892146,,,2022-06-24,清算の結了等,,,2015-10-05,1,,,,,ホッカイドウエイセイ,0
1521,7010001103612,登記記録の閉鎖等,0,2022-06-29,2022-06-22,株式会社スターモデルエージェンシー,,株式会社,東京都,中央区,銀座１丁目１５番７号,,13,102,1040061,,,2022-06-22,清算の結了等,,,2015-10-05,1,,,,,スターモデルエージェンシー,0
1529,7010403012023,登記記録の閉鎖等,0,2022-06-29,2022-06-13,ネプチューンＬＰＳ　ＧＰ合同会社,,合同会社,東京都,港区,東新橋１丁目５番２号汐留シティセンター,,13,103,1050021,,,2022-06-13,清算の結了等,,,2015-10-05,1,,,,,ネプチューンエルピーエスジーピー,0
1553,7011001031084,登記記録の閉鎖等,0,2022-06-29,2022-06-22,アンタリス・ジャパン株式会社,,株式会社,東京都,中央区,明石町６番２４号国際紙パルプ商事本社ビル４階,,13,102,1040044,,,2022-06-22,清算の結了等,,,2015-10-05,1,,,,,アンタリスジャパン,0
1579,7011701023991,登記記録の閉鎖等,0,2022-06-29,2022-06-24,株式会社アップスマーケティング,,株式会社,東京都,江戸川区,瑞江１丁目２０番４号２Ｆ,,13,123,1320011,,,2022-06-24,清算の結了等,,,2020-12-18,1,,,,,アップスマーケティング,0
1587,7020001023603,登記記録の閉鎖等,0,2022-06-29,2022-06-22,株式会社泰山,,株式会社,神奈川県,横浜市神奈川区,片倉１丁目８番１１号,,14,102,2210865,,,2022-06-22,清算の結了等,,,2015-10-05,1,,,,,タイザン,0
1608,7030001126140,登記記録の閉鎖等,0,2022-06-29,2022-06-20,エブリフォーム株式会社,,株式会社,埼玉県,さいたま市北区,宮原町３丁目３６４番１,,11,102,3310812,,,2022-06-20,清算の結了等,,,2018-06-14,1,,,,,エブリフォーム,0
1636,7070001026312,登記記録の閉鎖等,0,2022-06-29,2022-06-21,株式会社Ｔｏｐ　Ｇｅａｒ,,株式会社,群馬県,伊勢崎市,下植木町７７２番地５５ソーレイセサキ１０３,,10,204,3720024,,,2022-06-21,清算の結了等,,,2015-10-05,1,,,,,,0
1642,7100001021144,登記記録の閉鎖等,0,2022-06-29,2022-06-23,ウインテック株式会社,,株式会社,長野県,駒ヶ根市,赤穂８８２９番地１,,20,210,3994117,,,2022-06-23,清算の結了等,,,2015-10-05,1,,,,,ウインテック,0
1649,7120001011416,登記記録の閉鎖等,0,2022-06-29,2022-06-24,ラブリーグッツ株式会社,,株式会社,大阪府,大阪市東住吉区,今川８丁目９番２９号,,27,121,5460003,,,2022-06-24,清算の結了等,,,2015-10-05,1,,,,,ラブリーグッツ,0
1650,7120001119028,登記記録の閉鎖等,0,2022-06-29,2022-06-23,株式会社ケイオス,,株式会社,大阪府,大阪市中央区,今橋２丁目１番１号,,27,128,5410042,,,2022-06-23,清算の結了等,,,2015-10-05,1,,,,,ケイオス,0
1656,7120002036172,登記記録の閉鎖等,0,2022-06-29,2022-06-27,有限会社柴田ビル興業,,有限会社,大阪府,大阪市中央区,博労町４丁目３番１４号,,27,128,5410059,,,2022-06-27,清算の結了等,,,2015-10-05,1,,,,,シバタビルコウギョウ,0
1686,7180001141793,登記記録の閉鎖等,0,2022-06-29,2022-06-27,株式会社ＳＫセレンディップパートナーズ,,株式会社,愛知県,名古屋市熱田区,比々野町４１番地の１第三小島ビル８０５号,,23,109,4560074,,,2022-06-27,清算の結了等,,,2020-07-02,1,,,,,エスケイセレンディップパートナーズ,0
1694,7180302014987,登記記録の閉鎖等,0,2022-06-29,2022-06-23,有限会社ハイテクファーム,,有限会社,愛知県,豊川市,千両町赤根坂５８番地,,23,207,4420001,,,2022-06-23,清算の結了等,,,2015-10-05,1,,,,,ハイテクファーム,0
1695,7190001005048,登記記録の閉鎖等,0,2022-06-29,2022-06-22,株式会社シコー小野電気,,株式会社,三重県,鈴鹿市,椿一宮町１６０７番地の５,,24,207,5190312,,,2022-06-22,清算の結了等,,,2015-10-05,1,,,,,シコーオノデンキ,0
1701,7200001020937,登記記録の閉鎖等,0,2022-06-29,2022-06-27,株式会社華柳,,株式会社,岐阜県,多治見市,本町６丁目６番地,,21,204,5070033,,,2022-06-27,清算の結了等,,,2015-10-05,1,,,,,ハナヤギ,0
1708,7220001015670,登記記録の閉鎖等,0,2022-06-29,2022-06-22,株式会社プライムモデル,,株式会社,石川県,鹿島郡中能登町,二宮参部１１５番地,,17,407,9291811,,,2022-06-22,清算の結了等,,,2015-10-05,1,,,,,プライムモデル,0
1711,7230005005700,登記記録の閉鎖等,0,2022-06-29,2022-06-16,特定非営利活動法人ＮＰＯ福光,,その他の設立登記法人,富山県,南砺市,高宮８４２番地,,16,210,9391741,,,2022-06-16,清算の結了等,,,2015-10-05,1,,,,,エヌピーオーフクミツ,0
1713,7240001010678,登記記録の閉鎖等,0,2022-06-29,2022-06-27,平和印刷株式会社,,株式会社,広島県,広島市南区,的場町２丁目４番２５号,,34,103,7320824,,,2022-06-27,清算の結了等,,,2015-10-05,1,,,,,ヘイワインサツ,0
1714,7240001053009,登記記録の閉鎖等,0,2022-06-29,2022-06-23,株式会社エスニック鈴木,,株式会社,広島県,三原市,本町２丁目２番２２号,,34,204,7230062,,,2022-06-23,清算の結了等,,,2018-06-26,1,,,,,エスニックスズキ,0
1728,7290002033509,登記記録の閉鎖等,0,2022-06-29,2022-06-22,有限会社ヒロサン商事,,有限会社,福岡県,福岡市東区,雁の巣１丁目３番８号,,40,131,8110206,,,2022-06-22,清算の結了等,,,2015-10-05,1,,,,,ヒロサンショウジ,0
1738,7330002024544,登記記録の閉鎖等,0,2022-06-29,2022-06-16,有限会社田中工業,,有限会社,熊本県,宇土市,築籠町１６７番地,,43,211,8690408,,,2022-06-16,清算の結了等,,,2015-10-05,1,,,,,タナカコウギョウ,0
1763,7470002010200,登記記録の閉鎖等,0,2022-06-29,2022-06-23,有限会社ベルホーム,,有限会社,香川県,高松市,国分寺町福家甲９７７番地４,,37,201,7690103,,,2022-06-23,清算の結了等,,,2015-10-05,1,,,,,ベルホーム,0
1768,8010001016549,登記記録の閉鎖等,0,2022-06-29,2022-06-23,株式会社コスモウイング,,株式会社,東京都,千代田区,九段北１丁目１番７号,,13,101,1020073,,,2022-06-23,清算の結了等,,,2015-10-05,1,,,,,コスモウイング,0
1777,8010005033326,登記記録の閉鎖等,0,2022-06-29,2022-06-24,一般社団法人ＳＯＲＡ,,その他の設立登記法人,東京都,中央区,明石町１１番１５号ミキジ明石町ビル４階,,13,102,1040044,,,2022-06-24,清算の結了等,,,2021-05-11,1,,,,,ソラ,0
1805,8011402010553,登記記録の閉鎖等,0,2022-06-29,2022-06-27,有限会社シー・ピー・シー,,有限会社,東京都,板橋区,板橋３丁目５番１３号,,13,119,1730004,,,2022-06-27,清算の結了等,,,2015-10-05,1,,,,,,0
1816,8020001049952,登記記録の閉鎖等,0,2022-06-29,2022-06-23,株式会社ツミヤ・メリッツ,,株式会社,神奈川県,横浜市港北区,新羽町８０１番地,,14,109,2230057,,,2022-06-23,清算の結了等,,,2015-10-05,1,,,,,ツミヤメリッツ,0
1849,8060001034975,登記記録の閉鎖等,0,2022-06-29,2022-06-21,大周汽＿工業株式会社,00126846,株式会社,栃木県,小山市,天神町１丁目３番３０号,,09,208,3230032,,,2022-06-21,清算の結了等,,,2022-06-16,1,,,,,タイシュウキカンコウギョウ,0
1852,8080402000608,登記記録の閉鎖等,0,2022-06-29,2022-06-23,有限会社イーストメゾン,,有限会社,静岡県,浜松市中区,寺島町２６３番地,,22,131,4300925,,,2022-06-23,清算の結了等,,,2015-10-05,1,,,,,イーストメゾン,0
1854,8090005002777,登記記録の閉鎖等,0,2022-06-29,2022-06-17,特定非営利活動法人笛吹市障がい者を支える会ありがとう,,その他の設立登記法人,山梨県,笛吹市,御坂町栗合８７番地御坂福祉センター内,,19,211,4060805,,,2022-06-17,清算の結了等,,,2015-10-05,1,,,,,フエフキシショウガイシャヲササエルカイアリガトウ,0
1857,8110001009625,登記記録の閉鎖等,0,2022-06-29,2022-06-23,株式会社ライブクリエイト,,株式会社,新潟県,新潟市西区,東青山１丁目１２番地１,,15,107,9502003,,,2022-06-23,清算の結了等,,,2015-10-05,1,,,,,ライブクリエイト,0
1858,8120001036701,登記記録の閉鎖等,0,2022-06-29,2022-06-27,株式会社ヤマトヤ,,株式会社,大阪府,大阪市中央区,内本町２丁目３番８号,,27,128,5400026,,,2022-06-27,清算の結了等,,,2015-10-05,1,,,,,ヤマトヤ,0
1865,8120001175061,登記記録の閉鎖等,0,2022-06-29,2022-06-23,株式会社笹百合デザイン建築,,株式会社,大阪府,枚方市,星丘１丁目２０－２,,27,210,5730013,,,2022-06-23,清算の結了等,,,2015-10-05,1,,,,,,0
1869,8120001209439,登記記録の閉鎖等,0,2022-06-29,2022-06-28,株式会社ウィズ,,株式会社,大阪府,大阪市北区,芝田２丁目８番１０号５階,,27,127,5300012,,,2022-06-28,合併による解散等,1120001172404,令和４年６月２８日大阪市北区芝田二丁目８番１０号５階株式会社彩図（1120001172404）に合併し解散,2017-11-10,1,,,,,ウィズ,0
1876,8120002070022,登記記録の閉鎖等,0,2022-06-29,2022-06-23,有限会社ドリームプラン,,有限会社,大阪府,大阪市西区,江之子島１丁目７番３号,,27,106,5500006,,,2022-06-23,清算の結了等,,,2015-10-05,1,,,,,,0
1892,8140001058545,登記記録の閉鎖等,0,2022-06-29,2022-06-23,株式会社協和,,株式会社,兵庫県,姫路市,田寺５丁目５番８号,,28,201,6700086,,,2022-06-23,清算の結了等,,,2015-10-05,1,,,,,キョウワ,0
1921,8180003002514,登記記録の閉鎖等,0,2022-06-29,2022-06-27,鬼頭帶鋸加工合資会社,,合資会社,愛知県,名古屋市中川区,元中野町２丁目１２４番地,,23,110,4540048,,,2022-06-27,清算の結了等,,,2015-10-05,1,,,,,キトウオビノコカコウ,0
1932,8210002002453,登記記録の閉鎖等,0,2022-06-29,2022-06-21,有限会社東京堂写真舘,,有限会社,福井県,福井市,みのり２丁目３番２２号,,18,201,9188005,,,2022-06-21,清算の結了等,,,2015-10-05,1,,,,,トウキョウドウシャシンカン,0
1950,8260001032199,登記記録の閉鎖等,0,2022-06-29,2022-06-27,株式会社ＫＵＯＮ,,株式会社,岡山県,浅口郡里庄町,大字里見６０４６番地１１,,33,445,7190301,,,2022-06-27,清算の結了等,,,2018-07-10,1,,,,,クオン,0
1973,8370002013369,登記記録の閉鎖等,0,2022-06-29,2022-06-20,有限会社ベラミ商事,,有限会社,宮城県,仙台市青葉区,桜ケ岡公園４番１－８０９号,,04,101,9800823,,,2022-06-20,清算の結了等,,,2015-10-05,1,,,,,ベラミショウジ,0
1981,8390002007939,登記記録の閉鎖等,0,2022-06-29,2022-06-23,有限会社丸平商店,,有限会社,山形県,酒田市,浜田１丁目７番５０号,,06,204,9980031,,,2022-06-23,清算の結了等,,,2015-10-05,1,,,,,マルヘイショウテン,0
2012,9010001203229,登記記録の閉鎖等,0,2022-06-29,2022-06-21,株式会社ＭＩＹＡＢＩ,,株式会社,東京都,中央区,日本橋人形町１丁目１０番３号,,13,102,1030013,,,2022-06-21,清算の結了等,,,2019-08-13,1,,,,,ミヤビ,0
2033,9010601012599,登記記録の閉鎖等,0,2022-06-29,2022-06-23,東洋仮設株式会社,,株式会社,東京都,墨田区,江東橋３丁目３番２－３０３号,,13,107,1300022,,,2022-06-23,清算の結了等,,,2015-10-05,1,,,,,トウヨウカセツ,0
2040,9010701024437,登記記録の閉鎖等,0,2022-06-29,2022-06-23,ワープジャパン株式会社,,株式会社,東京都,港区,麻布永坂町１番地,,13,103,1060043,,,2022-06-23,合併による解散等,6010701024745,令和４年６月１７日東京都港区麻布永坂町１番地ＥＳＳＥＮＴＩＡＬ株式会社（6010701024745）に合併し解散,2015-10-05,1,,,,,ワープジャパン,0
2059,9011401019545,登記記録の閉鎖等,0,2022-06-29,2022-06-27,株式会社ケイエムエス,,株式会社,東京都,板橋区,向原１丁目１番１号リベルテ千川３０２,,13,119,1730036,,,2022-06-27,清算の結了等,,,2016-06-23,1,,,,,ケイエムエス,0
2066,9011801031629,登記記録の閉鎖等,0,2022-06-29,2022-06-27,株式会社ＵＰ　ＢＩＺ,,株式会社,東京都,葛飾区,新小岩２丁目２１番１４号,,13,122,1240024,,,2022-06-27,清算の結了等,,,2016-04-07,1,,,,,,0
2105,9040002086950,登記記録の閉鎖等,0,2022-06-29,2022-06-20,有限会社水郷花卉,,有限会社,千葉県,香取市,九美上１１３番地,,12,236,2870022,,,2022-06-20,清算の結了等,,,2015-10-05,1,,,,,スイゴウカキ,0
2106,9040003016758,登記記録の閉鎖等,0,2022-06-29,2022-06-17,スプリング合同会社,,合同会社,千葉県,船橋市,前原西４丁目２８番５－２０２号,,12,204,2740825,,,2022-06-17,清算の結了等,,,2021-01-05,1,,,,,スプリング,0
2114,9060002002410,登記記録の閉鎖等,0,2022-06-29,2022-06-21,有限会社御髪処ランプタン,,有限会社,栃木県,宇都宮市,宝木本町１２９９番地１３,,09,201,3200075,,,2022-06-21,清算の結了等,,,2015-10-05,1,,,,,オカミドコロランプタン,0
2120,9080005005887,登記記録の閉鎖等,0,2022-06-29,2022-06-27,一般社団法人志太茶業組合,,その他の設立登記法人,静岡県,藤枝市,堀之内１丁目１０番地の６,,22,214,4260088,,,2022-06-27,清算の結了等,,,2015-10-05,1,,,,,シダチャギョウクミアイ,0
2125,9110002005829,登記記録の閉鎖等,0,2022-06-29,2022-06-24,有限会社ヘアーカツトサロンちか,,有限会社,新潟県,新潟市東区,秋葉１丁目１番７号,,15,102,9500054,,,2022-06-24,清算の結了等,,,2015-10-05,1,,,,,ヘアーカツトサロンチカ,0
2128,9110005006700,登記記録の閉鎖等,0,2022-06-29,2022-06-23,協同組合柏崎ママボーナス会,,その他の設立登記法人,新潟県,柏崎市,東本町１丁目１６番２－２０２号,,15,205,9450051,,,2022-06-23,清算の結了等,,,2015-10-05,1,,,,,カシワザキママボーナスカイ,0
2132,9120001145600,登記記録の閉鎖等,0,2022-06-29,2022-06-23,株式会社Ｚｅｒｏ　Ｐｏｉｎｔ,,株式会社,大阪府,大阪市天王寺区,上本町３丁目３－１－１４０１号,,27,109,5430001,,,2022-06-23,清算の結了等,,,2015-10-05,1,,,,,ゼロポイント,0
2139,9120102023969,登記記録の閉鎖等,0,2022-06-29,2022-06-23,丸栄小松タオル有限会社,,有限会社,大阪府,泉佐野市,上瓦屋８３６番地,,27,213,5980001,,,2022-06-23,清算の結了等,,,2015-10-05,1,,,,,マルエイコマツタオル,0
2161,9140002063493,登記記録の閉鎖等,0,2022-06-29,2022-06-23,有限会社小泉バルブ製作所,,有限会社,兵庫県,伊丹市,藤ノ木３丁目６番１３号,,28,207,6640847,,,2022-06-23,清算の結了等,,,2015-10-05,1,,,,,コイズミバルブセイサクショ,0
2178,9230005001235,登記記録の閉鎖等,0,2022-06-29,2022-06-23,照念寺,,その他の設立登記法人,富山県,富山市,岩瀬諏訪町３５番地１,,16,201,9318377,,,2022-06-23,清算の結了等,,,2015-10-05,1,,,,,ショウネンジ,0
2183,9250005003956,登記記録の閉鎖等,0,2022-06-29,2022-06-21,協同組合菊川名店会,,その他の設立登記法人,山口県,下関市,菊川町大字下岡枝１８３－１,,35,201,7500317,,,2022-06-21,清算の結了等,,,2015-10-05,1,,,,,キクガワメイテンカイ,0
2189,9260002024194,登記記録の閉鎖等,0,2022-06-29,2022-06-28,有限会社サンライン,,有限会社,岡山県,倉敷市,玉島阿賀崎５丁目３番１３号,,33,202,7138121,,,2022-06-28,清算の結了等,,,2015-10-05,1,,,,,サンライン,0
2197,9290001080293,登記記録の閉鎖等,0,2022-06-29,2022-06-21,株式会社セミ企画,,株式会社,福岡県,大川市,大字酒見５３５番地,,40,212,8310016,,,2022-06-21,清算の結了等,,,2018-01-19,1,,,,,セミキカク,0
2227,9490002005444,登記記録の閉鎖等,0,2022-06-29,2022-06-21,有限会社遊膳きたむら,,有限会社,高知県,高知市,布師田２０１３番地,,39,201,7815101,,,2022-06-21,清算の結了等,,,2015-10-05,1,,,,,,0
