sequenceNumber,corporateNumber,process,correct,updateDate,changeDate,name,nameImageId,kind,prefectureName,cityName,streetNumber,addressImageId,prefectureCode,cityCode,postCode,addressOutside,addressOutsideImageId,closeDate,closeCause,successorCorporateNumber,changeCause,assignmentDate,latest,enName,enPrefectureName,enCityName,enAddressOutside,furigana,hihyoji
6,1010001217797,登記記録の閉鎖等,0,2025-04-09,2025-03-27,日本宮和堂生物科技株式会社,,株式会社,東京都,中央区,東日本橋２丁目２８番５号５０８,,13,102,1030004,,,2025-03-27,清算の結了等,,,2021-04-28,1,,,,,ニホンキュウワドウセイブツカギ,0
28,1010403015337,登記記録の閉鎖等,0,2025-04-09,2025-03-17,Ｃｏｎｔｉｎｅｎｔａｌ　Ｓａｆｅｒａｙ　Ｇｉｆｕ３合資会社,,合資会社,東京都,港区,虎ノ門５丁目１番５号,,13,103,1050001,,,2025-03-17,清算の結了等,,,2016-09-13,1,,,,,コンチネンタルセーフレイギフスリー,0
38,1010605003180,登記記録の閉鎖等,0,2025-04-09,2025-04-01,税理士法人東京ＩＲ平田,,その他の設立登記法人,東京都,江東区,亀戸１丁目３６番８号新亀戸ビル６階,,13,108,1360071,,,2025-04-01,清算の結了等,,,2016-01-07,1,,,,,トウキョウアイアールヒラタ,0
47,1011001041444,登記記録の閉鎖等,0,2025-04-09,2025-03-10,株式会社ヒュー・マップ,,株式会社,東京都,渋谷区,西原２丁目２５番１３－１０７号,,13,113,1510066,,,2025-03-10,清算の結了等,,,2015-10-05,1,,,,,ヒューマップ,0
49,1011001160970,登記記録の閉鎖等,0,2025-04-09,2025-04-07,株式会社トゥデイズスペシャル,,株式会社,東京都,渋谷区,渋谷２丁目２１番１号渋谷ヒカリエ２９階,,13,113,1500002,,,2025-04-07,合併による解散等,1050001002254,令和７年３月１日茨城県水戸市泉町三丁目１番２７号株式会社アダストリア（1050001002254）に合併し解散,2024-04-02,1,,,,,トゥデイズスペシャル,0
52,1011005006435,登記記録の閉鎖等,0,2025-04-09,2025-03-06,スパイラルスター・グローバル・パートナーズ特定目的会社,,その他の設立登記法人,東京都,渋谷区,恵比寿西２丁目１９番９号,,13,113,1500021,,,2025-03-06,清算の結了等,,,2015-10-05,1,,,,,スパイラルスターグローバルパートナーズ,0
71,1013301051949,登記記録の閉鎖等,0,2025-04-09,2025-03-31,日本蘭心慧質国際株式会社,,株式会社,東京都,豊島区,東池袋１丁目３１番１３号ライオンズマンション東池袋第３－６０５号室,,13,116,1700013,,,2025-03-31,清算の結了等,,,2024-01-30,1,,,,,ニホンランシンケイシツコクサイ,0
93,1030001055551,登記記録の閉鎖等,0,2025-04-09,2025-03-31,株式会社細田測量設計,,株式会社,埼玉県,川越市,大字並木２８０番地３,,11,201,3500023,,,2025-03-31,清算の結了等,,,2015-10-05,1,,,,,カブホソダソクリョウセッケイ,0
104,1030002036914,登記記録の閉鎖等,0,2025-04-09,2025-03-25,有限会社岡崎デザイン,00016503,有限会社,東京都,練馬区,石神井町８丁目１５－３,,13,120,1770041,,,2025-03-25,清算の結了等,,,2015-10-05,1,,,,,オカザキデザイン,0
107,1030005012796,登記記録の閉鎖等,0,2025-04-09,2025-03-31,特定非営利活動法人地域ＥＹＥ,,その他の設立登記法人,埼玉県,川口市,幸町１丁目１４番１０号,,11,203,3320016,,,2025-03-31,清算の結了等,,,2015-10-05,1,,,,,チイキアイ,0
109,1040001027797,登記記録の閉鎖等,0,2025-04-09,2025-03-27,山新産業株式会社,,株式会社,千葉県,市川市,福栄３丁目８番６号,,12,203,2720137,,,2025-03-27,清算の結了等,,,2015-10-05,1,,,,,ヤマシンサンギョウ,0
117,1040002071737,登記記録の閉鎖等,0,2025-04-09,2025-03-31,有限会社関東商事,,有限会社,千葉県,木更津市,潮浜２丁目１番３９号,,12,206,2920838,,,2025-03-31,清算の結了等,,,2015-10-05,1,,,,,,0
122,1050002033769,登記記録の閉鎖等,0,2025-04-09,2025-04-01,有限会社木村商店,,有限会社,茨城県,稲敷郡河内町,田川７７７番地の９,,08,447,3001405,,,2025-04-01,清算の結了等,,,2015-10-05,1,,,,,キムラショウテン,0
123,1050003001948,登記記録の閉鎖等,0,2025-04-09,2025-04-01,合資会社ブラジリアンプラザ,,合資会社,茨城県,常総市,水海道森下町３９１８番地,,08,211,3030005,,,2025-04-01,清算の結了等,,,2015-10-05,1,,,,,ブラジリアンプラザ,0
147,1110002023177,登記記録の閉鎖等,0,2025-04-09,2025-04-01,有限会社中島,,有限会社,新潟県,上越市,安江２丁目２３番２号,,15,222,9420041,,,2025-04-01,清算の結了等,,,2015-10-05,1,,,,,ナカシマ,0
193,1160001007705,登記記録の閉鎖等,0,2025-04-09,2025-03-31,株式会社バンアンドアーク,,株式会社,滋賀県,米原市,下多良１丁目２番地,,25,214,5210016,,,2025-03-31,清算の結了等,,,2015-10-05,1,,,,,バンアンドアーク,0
202,1180001082135,登記記録の閉鎖等,0,2025-04-09,2025-04-01,株式会社イチワ,,株式会社,愛知県,一宮市,奥町字神田１９番地１,,23,203,4910201,,,2025-04-01,合併による解散等,7180001084745,令和７年４月１日愛知県一宮市奥町字神田１９番地１株式会社クリオ（7180001084745）に合併し解散,2015-10-05,1,,,,,イチワ,0
226,1200002019422,登記記録の閉鎖等,0,2025-04-09,2025-04-02,有限会社オキソット,,有限会社,愛知県,一宮市,本町通８丁目１２番地,,23,203,4910856,,,2025-04-02,清算の結了等,,,2015-10-05,1,,,,,オキソット,0
230,1210002001040,登記記録の閉鎖等,0,2025-04-09,2025-04-03,有限会社グリーン開発,,有限会社,福井県,福井市,二日市町第２８号５番地の１,,18,201,9100109,,,2025-04-03,清算の結了等,,,2015-10-05,1,,,,,グリーンカイハツ,0
241,1250005006066,登記記録の閉鎖等,0,2025-04-09,2025-03-31,岩国土建協同組合,,その他の設立登記法人,山口県,岩国市,麻里布町３丁目８番１７号,,35,208,7400018,,,2025-03-31,清算の結了等,,,2015-10-05,1,,,,,イワクニドケン,0
243,1260002028087,登記記録の閉鎖等,0,2025-04-09,2025-03-28,河辺自動車有限会社,,有限会社,岡山県,津山市,河辺７２７番地の１,,33,203,7080842,,,2025-03-28,清算の結了等,,,2015-10-05,1,,,,,カワナベジドウシャ,0
258,1290801022824,登記記録の閉鎖等,0,2025-04-09,2025-04-08,株式会社ウェーブ小倉,,株式会社,福岡県,北九州市小倉北区,上富野５丁目３番１９号,,40,106,8020022,,,2025-04-08,清算の結了等,,,2016-08-23,1,,,,,ウェーブコクラ,0
271,1360001029258,登記記録の閉鎖等,0,2025-04-09,2025-03-17,株式会社ｐｌａｔ,,株式会社,沖縄県,那覇市,牧志１丁目１番３９号ＳＴＥＰビル１－Ｇ,,47,201,9000013,,,2025-03-17,合併による解散等,8360001029573,令和７年３月１日沖縄県中頭郡北谷町字美浜３４番地５アメリカンビレッジデポセントラル５Ｆ株式会社Ｈｏｗｄｙ（8360001029573）に合併し解散,2021-08-20,1,,,,,プラット,0
273,1360005003168,登記記録の閉鎖等,0,2025-04-09,2025-04-02,特定非営利活動法人沖縄ウォーターパトロールシステム,,その他の設立登記法人,沖縄県,中頭郡北谷町,美浜２丁目６番地３吉味アパート３０２,,47,326,9040115,,,2025-04-02,清算の結了等,,,2015-10-05,1,,,,,オキナワウォーターパトロールシステム,0
287,1400001009305,登記記録の閉鎖等,0,2025-04-09,2025-03-11,ジーエヌ株式会社,,株式会社,岩手県,盛岡市,東仙北２丁目１４番２０号,,03,201,0200862,,,2025-03-11,合併による解散等,2400001007316,令和７年３月１日岩手県釜石市上中島町二丁目７番３６号釜石共栄株式会社（2400001007316）に合併し解散,2015-10-05,1,,,,,ジーエヌ,0
304,1470001000959,登記記録の閉鎖等,0,2025-04-09,2025-04-02,東四国スバル株式会社,,株式会社,香川県,高松市,木太町２６８３番地,,37,201,7600080,,,2025-04-02,合併による解散等,4240001009368,令和７年４月１日広島市西区中広町一丁目３番１７号スバル中四国株式会社（4240001009368）に合併し解散,2015-10-05,1,,,,,ヒガシシコクスバル,0
308,1470002017465,登記記録の閉鎖等,0,2025-04-09,2025-03-31,有限会社京華工業,,有限会社,香川県,三豊市,詫間町詫間６０９４番地８,,37,208,7691101,,,2025-03-31,清算の結了等,,,2015-10-05,1,,,,,キョウカコウギョウ,0
310,1490005006570,登記記録の閉鎖等,0,2025-04-09,2025-04-04,一般社団法人室戸ミシマ海洋ファーム,,その他の設立登記法人,高知県,室戸市,領家字中門田３２番地３エスポワールＡ２０１号,,39,202,7817109,,,2025-04-04,清算の結了等,,,2018-01-17,1,,,,,ムロトミシマカイヨウファーム,0
312,2010001091787,登記記録の閉鎖等,0,2025-04-09,2025-03-14,株式会社セーフティネット,,株式会社,東京都,港区,新橋６丁目１６番１２号京阪神御成門ビル７階,,13,103,1050004,,,2025-03-14,清算の結了等,,,2015-10-05,1,,,,,セーフティネット,0
317,2010001199705,登記記録の閉鎖等,0,2025-04-09,2025-03-27,Ｚショッピング株式会社,,株式会社,東京都,千代田区,紀尾井町１番３号,,13,101,1020094,,,2025-03-27,清算の結了等,,,2019-04-04,1,,,,,ゼットショッピング,0
347,2010601048798,登記記録の閉鎖等,0,2025-04-09,2025-04-02,クレアアセットマネジメント株式会社,,株式会社,東京都,北区,赤羽台３丁目２６番３号,,13,117,1150053,,,2025-04-02,清算の結了等,,,2015-11-19,1,,,,,クレアアセットマネジメント,0
361,2011101054312,登記記録の閉鎖等,0,2025-04-09,2025-03-26,株式会社ナチュラルアートサービス,,株式会社,東京都,新宿区,南山伏町３番４号,,13,104,1620854,,,2025-03-26,清算の結了等,,,2015-10-05,1,,,,,ナチュラルアートサービス,0
368,2011105009403,登記記録の閉鎖等,0,2025-04-09,2025-03-25,アガルート土地家屋調査士法人,,その他の設立登記法人,東京都,新宿区,新小川町５－５サンケンビル４階,,13,104,1620814,,,2025-03-25,清算の結了等,,,2020-07-13,1,,,,,アガルート,0
379,2011701014558,登記記録の閉鎖等,0,2025-04-09,2025-03-28,株式会社Ｆｕｔｕｒｅ　Ｎｅｘｔ　Ｓｏｌｕｔｉｏｎ,,株式会社,千葉県,市川市,南八幡３丁目１３番１２－１０１号,,12,203,2720023,,,2025-03-28,清算の結了等,,,2015-10-05,1,,,,,フューチャーネクストソリューション,0
395,2020002046673,登記記録の閉鎖等,0,2025-04-09,2025-03-31,有限会社インターフェニックス,,有限会社,神奈川県,横浜市緑区,霧が丘４丁目２番地霧が丘グリーンタウン２棟３０６号,,14,113,2260016,,,2025-03-31,清算の結了等,,,2015-10-05,1,,,,,インターフェニックス,0
410,2030001061532,登記記録の閉鎖等,0,2025-04-09,2025-04-02,由輝装業株式会社,,株式会社,埼玉県,本庄市,日の出２丁目４番５８号,,11,211,3670022,,,2025-04-02,清算の結了等,,,2015-10-05,1,,,,,ユウキソウギョウ,0
421,2030002049270,登記記録の閉鎖等,0,2025-04-09,2025-04-02,有限会社タカハシ・インダストリー,,有限会社,埼玉県,三郷市,栄１丁目１１６番地２,,11,237,3410043,,,2025-04-02,清算の結了等,,,2015-10-05,1,,,,,タカハシインダストリー,0
425,2030005007696,登記記録の閉鎖等,0,2025-04-09,2025-03-19,天理教百間分教会,,その他の設立登記法人,埼玉県,南埼玉郡宮代町,字東４１９番地２,,11,442,3450814,,,2025-03-19,合併による解散等,6030005005606,令和７年３月１９日埼玉県草加市稲荷二丁目２９番２３号天理教立野堀大教会（6030005005606）に合併し解散,2015-10-05,1,,,,,テンリキョウモンマブンキョウカイ,0
427,2030005019007,登記記録の閉鎖等,0,2025-04-09,2025-04-02,特定非営利活動法人地蔵横町防災センター,,その他の設立登記法人,埼玉県,所沢市,大字上安松９０５番地の４,,11,208,3590025,,,2025-04-02,清算の結了等,,,2018-05-07,1,,,,,ジゾウヨコチョウボウサイセンター,0
440,2050001026070,登記記録の閉鎖等,0,2025-04-09,2025-04-01,株式会社ユニバーサルライフ,,株式会社,茨城県,北相馬郡利根町,大字布川２０９０番地２７,,08,564,3001622,,,2025-04-01,清算の結了等,,,2015-10-05,1,,,,,ユニバーサルライフ,0
449,2080102011349,登記記録の閉鎖等,0,2025-04-09,2025-03-31,有限会社原田商事,,有限会社,静岡県,三島市,大宮町１丁目２番２３号,,22,206,4110035,,,2025-03-31,清算の結了等,,,2015-10-05,1,,,,,ハラダショウジ,0
452,2080401014416,登記記録の閉鎖等,0,2025-04-09,2025-04-01,東海道委托株式会社,,株式会社,静岡県,掛川市,掛川７０番地,,22,213,4360079,,,2025-04-01,合併による解散等,5080401014248,令和７年４月１日静岡県掛川市掛川７０番地株式会社かねも（5080401014248）に合併し解散,2015-10-05,1,,,,,トウカイドウイタク,0
461,2090001007620,登記記録の閉鎖等,0,2025-04-09,2025-03-31,ＲＩＣＨコーポレーション株式会社,,株式会社,山梨県,甲府市,宮前町１番１８号,,19,201,4000021,,,2025-03-31,清算の結了等,,,2015-10-05,1,,,,,リッチコーポレーション,0
466,2100002027599,登記記録の閉鎖等,0,2025-04-09,2025-03-25,有限会社山本建築,,有限会社,長野県,木曽郡木曽町,福島６７１８番地,,20,432,3970001,,,2025-03-25,清算の結了等,,,2015-10-05,1,,,,,ヤマモトケンチク,0
467,2100005000941,登記記録の閉鎖等,0,2025-04-09,2025-03-10,菅沼神社,,その他の設立登記法人,長野県,長野市,戸隠栃原字下谷沢５５５１番地,,20,201,3814104,,,2025-03-10,合併による解散等,1100005000959,令和７年３月１０日長野県長野市戸隠栃原字宮ノ前７５３５番地宮前神社（1100005000959）に合併し解散,2015-10-05,1,,,,,スガヌマジンジャ,0
473,2120001016576,登記記録の閉鎖等,0,2025-04-09,2025-03-26,リバージャパン株式会社,,株式会社,大阪府,大阪市中央区,本町橋三丁目３番地翔誠ビル４０２号,,27,128,5400029,,,2025-03-26,清算の結了等,,,2015-10-05,1,,,,,リバージャパン,0
475,2120001056746,登記記録の閉鎖等,0,2025-04-09,2025-04-01,株式会社武栄,,株式会社,大阪府,大阪市浪速区,元町１丁目５番７－６０６号,,27,111,5560016,,,2025-04-01,合併による解散等,8120001038722,令和７年４月１日大阪市浪速区元町一丁目５番７－６０６号株式会社そばよし（8120001038722）に合併し解散,2015-10-05,1,,,,,タケエイ,0
499,2120102016863,登記記録の閉鎖等,0,2025-04-09,2025-03-31,杉本＿工有限会社,00032874,有限会社,大阪府,富田林市,寿町４丁目１番１３号,,27,214,5840031,,,2025-03-31,清算の結了等,,,2015-10-05,1,,,,,スギモトテッコウ,0
501,2120901023928,登記記録の閉鎖等,0,2025-04-09,2025-04-01,株式会社佐野経営研究所,,株式会社,大阪府,豊中市,西緑丘３丁目２４番１６号,,27,203,5600005,,,2025-04-01,清算の結了等,,,2015-10-05,1,,,,,サノケイエイケンキュウショ,0
525,2140005014277,登記記録の閉鎖等,0,2025-04-09,2025-03-24,天理教見野分教会,,その他の設立登記法人,兵庫県,姫路市,四郷町見野７８１番地の１,,28,201,6710244,,,2025-03-24,合併による解散等,3140005014227,令和７年３月２４日兵庫県姫路市威徳寺町４３番地天理教飾東大教会（3140005014227）に合併し解散,2015-10-05,1,,,,,テンリキョウミノブンキョウカイ,0
527,2160001021564,登記記録の閉鎖等,0,2025-04-09,2025-04-03,大原インターナショナル株式会社,,株式会社,東京都,中央区,明石町８番１号聖路加タワー４２階,,13,102,1040044,,,2025-04-03,合併による解散等,9160001005346,令和７年４月１日滋賀県甲賀市甲賀町鳥居野１２１番地１５大原薬品工業株式会社（9160001005346）に合併し解散,2019-04-09,1,,,,,オオハラインターナショナル,0
544,2180002090334,登記記録の閉鎖等,0,2025-04-09,2025-04-01,有限会社松川テクノロジー,,有限会社,愛知県,愛西市,善太新田町七草平１２４番地の１,,23,232,4960924,,,2025-04-01,清算の結了等,,,2015-10-05,1,,,,,マツカワテクノロジー,0
549,2190001015852,登記記録の閉鎖等,0,2025-04-09,2025-04-02,日通三重自動車運送株式会社,,株式会社,三重県,四日市市,垂坂町字山上谷１３４０番地８,,24,202,5108037,,,2025-04-02,清算の結了等,,,2015-10-05,1,,,,,ニッツウミエジドウシャウンソウ,0
550,2190001028821,登記記録の閉鎖等,0,2025-04-09,2025-04-01,株式会社フードプランニングみえ,,株式会社,三重県,四日市市,天カ須賀２丁目３番２号,,24,202,5108001,,,2025-04-01,清算の結了等,,,2021-11-04,1,,,,,フードプランニングミエ,0
556,2220001023372,登記記録の閉鎖等,0,2025-04-09,2025-04-04,Ｍ＆Ｋ株式会社,,株式会社,石川県,金沢市,西念４丁目１１番１４号,,17,201,9200024,,,2025-04-04,合併による解散等,8080402017107,令和７年４月１日静岡県浜松市中央区高丘北三丁目３４番４０号株式会社トワーズ（8080402017107）に合併し解散,2020-02-12,1,,,,,,0
557,2230001007770,登記記録の閉鎖等,0,2025-04-09,2025-04-01,株式会社グラント星良,,株式会社,富山県,滑川市,上小泉４７０番地,,16,206,9360053,,,2025-04-01,合併による解散等,4230001007819,令和７年４月１日富山県滑川市北野１７０番地株式会社星良工務店（4230001007819）に合併し解散,2015-10-05,1,,,,,グラントセイリョウ,0
559,2230002007844,登記記録の閉鎖等,0,2025-04-09,2025-04-03,有限会社北陸教育研究社,,有限会社,富山県,魚津市,大海寺野５９１番地の２,,16,204,9370816,,,2025-04-03,清算の結了等,,,2025-03-26,1,,,,,ホクリクキョウイクケンキュウシャ,0
580,2290802012798,登記記録の閉鎖等,0,2025-04-09,2025-04-07,有限会社ツルヤ水道設備,,有限会社,福岡県,北九州市八幡東区,諏訪１丁目８番５号,,40,108,8050006,,,2025-04-07,清算の結了等,,,2015-10-05,1,,,,,ツルヤスイドウセツビ,0
596,2350001015332,登記記録の閉鎖等,0,2025-04-09,2025-04-01,株式会社千穂の家ホールディングス,,株式会社,宮崎県,西臼杵郡高千穂町,大字向山６２番地１,,45,441,8821103,,,2025-04-01,合併による解散等,9350001007265,令和７年４月１日宮崎県西臼杵郡高千穂町大字向山６２番地１株式会社千穂の家（9350001007265）に合併し解散,2018-06-20,1,,,,,チホノイエホールディングス,0
621,2430001023145,登記記録の閉鎖等,0,2025-04-09,2025-04-01,丸佐建機株式会社,,株式会社,北海道,札幌市中央区,大通東４丁目４番地４４,,01,101,0600041,,,2025-04-01,合併による解散等,7430001072575,令和７年４月１日札幌市中央区大通東四丁目４番４４プカック株式会社（7430001072575）に合併し解散,2015-10-05,1,,,,,マルサケンキ,0
630,2430003008895,登記記録の閉鎖等,0,2025-04-09,2025-04-01,合同会社モコ,,合同会社,北海道,札幌市西区,琴似四条３丁目２番４８号ヴィヴィ１０６号,,01,107,0630814,,,2025-04-01,合併による解散等,7430003008239,令和７年４月１日札幌市東区北六条東二丁目２番１－２７０２号合同会社アンティーク（7430003008239）に合併し解散,2017-11-22,1,,,,,モコ,0
639,2460301002267,登記記録の閉鎖等,0,2025-04-09,2025-04-07,株式会社遠軽交通,,株式会社,北海道,紋別郡遠軽町,東町３丁目３番地９４,,01,555,0990410,,,2025-04-07,清算の結了等,,,2015-10-05,1,,,,,エンガルコウツウ,0
642,2490001008446,登記記録の閉鎖等,0,2025-04-09,2025-04-03,四国メディエイチ株式会社,,株式会社,高知県,高知市,介良乙７５０番地２,,39,201,7815106,,,2025-04-03,合併による解散等,8120001240848,令和７年４月１日大阪市中央区南船場四丁目４番２１号エア・ウォーター西日本メディエス株式会社（8120001240848）に合併し解散,2016-09-06,1,,,,,シコクメディエイチ,0
658,3010003026212,登記記録の閉鎖等,0,2025-04-09,2025-04-01,ＭＳＲ１合同会社,,合同会社,東京都,中央区,日本橋兜町５番１号兜町第１平和ビル７階レコルテ内,,13,102,1030026,,,2025-04-01,合併による解散等,9010003022602,令和７年４月１日東京都中央区日本橋兜町５番１号兜町第１平和ビル７階レコルテ内マウントショア合同会社（9010003022602）に合併し解散,2017-10-12,1,,,,,エムエスアールワン,0
687,3010702004410,登記記録の閉鎖等,0,2025-04-09,2025-03-25,有限会社スズ美容室,,有限会社,東京都,品川区,中延５丁目１３番１３号,,13,109,1420053,,,2025-03-25,清算の結了等,,,2015-10-05,1,,,,,スズビヨウシツ,0
704,3011301026226,登記記録の閉鎖等,0,2025-04-09,2025-03-25,株式会社ＳＨＳ,,株式会社,東京都,新宿区,新宿１丁目９番１号第２タケビル３階,,13,104,1600022,,,2025-03-25,清算の結了等,,,2020-09-09,1,,,,,エスエイチエス,0
706,3011401017579,登記記録の閉鎖等,0,2025-04-09,2025-04-02,株式会社クルーズカンパニー,,株式会社,東京都,板橋区,高島平９丁目１８番６号,,13,119,1750082,,,2025-04-02,清算の結了等,,,2015-10-05,1,,,,,クルーズカンパニー,0
712,3011801005019,登記記録の閉鎖等,0,2025-04-09,2025-04-01,株式会社ボン・サンテ,,株式会社,兵庫県,神戸市須磨区,弥栄台４丁目８番地の１,,28,107,6540161,,,2025-04-01,合併による解散等,4140001022100,令和７年４月１日神戸市須磨区弥栄台四丁目８番地の１株式会社Ｇ－７スーパーマート（4140001022100）に合併し解散,2015-10-05,1,,,,,ボンサンテ,0
713,3011801009424,登記記録の閉鎖等,0,2025-04-09,2025-04-04,株式会社大長,,株式会社,東京都,足立区,千住橋戸町５０番地,,13,121,1200038,,,2025-04-04,清算の結了等,,,2015-10-05,1,,,,,ダイチョウ,0
718,3012302003643,登記記録の閉鎖等,0,2025-04-09,2025-04-01,有限会社日本白蟻研究所町田,,有限会社,東京都,町田市,大蔵町２９４５番地１９,,13,209,1950062,,,2025-04-01,清算の結了等,,,2015-10-05,1,,,,,ニホンシロアリケンキュウジョマチダ,0
750,3030002017053,登記記録の閉鎖等,0,2025-04-09,2025-04-02,有限会社オフィスマノア,,有限会社,埼玉県,さいたま市大宮区,桜木町４丁目８０４番地２,,11,103,3300854,,,2025-04-02,清算の結了等,,,2015-10-05,1,,,,,オフィスマノア,0
755,3030003010098,登記記録の閉鎖等,0,2025-04-09,2025-04-02,株式会社桜左官工芸,,株式会社,埼玉県,さいたま市桜区,栄和３丁目２１番２７号ＭＡ８,,11,106,3380823,,,2025-04-02,清算の結了等,,,2017-03-27,1,,,,,サクラサカンコウゲイ,0
761,3040002054533,登記記録の閉鎖等,0,2025-04-09,2025-03-31,有限会社高杉工商,00020298,有限会社,埼玉県,蓮田市,椿山３丁目２番１号,,11,238,3490144,,,2025-03-31,清算の結了等,,,2015-10-05,1,,,,,タカスギコウショウ,0
777,3070001014213,登記記録の閉鎖等,0,2025-04-09,2025-04-01,サンワファブテック株式会社,,株式会社,群馬県,前橋市,粕川町中之沢７番地,,10,201,3710201,,,2025-04-01,合併による解散等,8010001202909,令和７年４月１日群馬県伊勢崎市寿町２０番地サンデン・リテールシステム株式会社（8010001202909）に合併し解散,2015-10-05,1,,,,,サンワファブテック,0
792,3100001014003,登記記録の閉鎖等,0,2025-04-09,2025-04-01,株式会社降幡建築設計事務所,,株式会社,長野県,安曇野市,三郷温３３２０番地,,20,220,3998102,,,2025-04-01,合併による解散等,2100001015142,令和７年４月１日長野県安曇野市三郷温３３５０番地山共建設株式会社（2100001015142）に合併し解散,2015-10-05,1,,,,,フリハタケンチクセッケイジムショ,0
796,3100002027565,登記記録の閉鎖等,0,2025-04-09,2025-03-25,有限会社山下工務店,,有限会社,長野県,木曽郡木曽町,新開１９２６番地１,,20,432,3970002,,,2025-03-25,清算の結了等,,,2015-10-05,1,,,,,ヤマシタコウムテン,0
814,3120101048502,登記記録の閉鎖等,0,2025-04-09,2025-03-31,株式会社サンムラ,,株式会社,大阪府,羽曳野市,はびきの７丁目６５３番地の４,,27,222,5830872,,,2025-03-31,清算の結了等,,,2015-10-05,1,,,,,サンムラ,0
833,3130003007927,登記記録の閉鎖等,0,2025-04-09,2025-04-03,ＵＴＵ合同会社,,合同会社,京都府,京都市伏見区,醍醐烏橋町１４番地４５,,26,109,6011315,,,2025-04-03,清算の結了等,,,2022-05-17,1,,,,,アップトゥアス,0
867,3180001090490,登記記録の閉鎖等,0,2025-04-09,2025-04-01,株式会社トモプランニング,,株式会社,愛知県,一宮市,浅野字神明下５５番地１,,23,203,4910871,,,2025-04-01,清算の結了等,,,2015-10-05,1,,,,,トモプランニング,0
926,3290801007583,登記記録の閉鎖等,0,2025-04-09,2025-04-01,株式会社のぞみ薬局,,株式会社,福岡県,北九州市門司区,永黒２丁目１０番４号,,40,101,8000017,,,2025-04-01,合併による解散等,8290801007298,令和７年４月１日北九州市小倉南区守恒二丁目１番２６号株式会社博愛中井調剤薬局（8290801007298）に合併し解散,2015-10-05,1,,,,,ノゾミヤッキョク,0
930,3300005000680,登記記録の閉鎖等,0,2025-04-09,2025-03-21,地蔵院,,その他の設立登記法人,佐賀県,佐賀市,八戸２丁目２番８号,,41,201,8400854,,,2025-03-21,合併による解散等,1300005000872,令和７年３月２１日佐賀市嘉瀬町大字扇町２３８９番地苗運寺（1300005000872）に合併し解散,2015-10-05,1,,,,,ジゾウイン,0
933,3320005003896,登記記録の閉鎖等,0,2025-04-09,2025-03-24,海神社,,その他の設立登記法人,大分県,豊後高田市,一畑１６６９番地,,44,209,8790722,,,2025-03-24,合併による解散等,3320005003905,令和７年３月２４日大分県豊後高田市草地５２０６番地春日神社（3320005003905）に合併し解散,2015-10-05,1,,,,,,0
957,3420001002215,登記記録の閉鎖等,0,2025-04-09,2025-04-01,株式会社リアルパートナー,,株式会社,青森県,青森市,青柳１丁目１６番９１号メゾンドサンタＢ１０２号,,02,201,0300811,,,2025-04-01,清算の結了等,,,2015-10-05,1,,,,,リアルパートナー,0
967,3440001005802,登記記録の閉鎖等,0,2025-04-09,2025-04-02,株式会社ＥＰＩＯＮ,,株式会社,埼玉県,越谷市,レイクタウン２丁目１６番地１９,,11,222,3430828,,,2025-04-02,清算の結了等,,,2015-10-05,1,,,,,エピオン,0
1027,4011001022706,登記記録の閉鎖等,0,2025-04-09,2025-04-07,ミネ医薬品株式会社,,株式会社,東京都,渋谷区,笹塚１丁目４８番３号,,13,113,1510073,,,2025-04-07,合併による解散等,5010001250308,令和７年３月２１日東京都千代田区一番町５番地アトラスビルミネ医薬品株式会社（5010001250308）に合併し解散,2015-10-05,1,,,,,ミネイヤクヒン,0
1046,4011502002990,登記記録の閉鎖等,0,2025-04-09,2025-03-28,有限会社庄司,,有限会社,東京都,台東区,上野桜木２丁目２４番３号,,13,106,1100002,,,2025-03-28,清算の結了等,,,2015-10-05,1,,,,,,0
1059,4012401012908,登記記録の閉鎖等,0,2025-04-09,2025-03-31,株式会社橋,,株式会社,宮崎県,日向市,大字財光寺６４６番地２,,45,206,8830021,,,2025-03-31,清算の結了等,,,2015-10-05,1,,,,,ハシ,0
1065,4020001026303,登記記録の閉鎖等,0,2025-04-09,2025-03-31,ケン．オンワード．フード株式会社,,株式会社,神奈川県,横浜市中区,真砂町４丁目４３番地,,14,104,2310016,,,2025-03-31,清算の結了等,,,2015-10-05,1,,,,,ケンオンワードフード,0
1066,4020001038496,登記記録の閉鎖等,0,2025-04-09,2025-03-27,株式会社コンベックス,,株式会社,神奈川県,横浜市青葉区,柿の木台２５番地４０,,14,117,2270048,,,2025-03-27,清算の結了等,,,2015-10-05,1,,,,,コンベックス,0
1068,4020001089705,登記記録の閉鎖等,0,2025-04-09,2025-03-31,株式会社和興業,,株式会社,神奈川県,横浜市泉区,和泉中央南５丁目３番２５号,,14,116,2450023,,,2025-03-31,清算の結了等,,,2015-10-05,1,,,,,カズコウギョウ,0
1085,4021002022687,登記記録の閉鎖等,0,2025-04-09,2025-03-27,有限会社トーヤ精機,,有限会社,東京都,練馬区,光が丘１丁目３番７１８号,,13,120,1790072,,,2025-03-27,清算の結了等,,,2015-10-05,1,,,,,トーヤセイキ,0
1111,4040001056587,登記記録の閉鎖等,0,2025-04-09,2025-03-28,株式会社ソリジェ,,株式会社,千葉県,佐倉市,江原台２丁目６番地１４,,12,212,2850825,,,2025-03-28,清算の結了等,,,2015-10-05,1,,,,,ソリジェ,0
1126,4040003008454,登記記録の閉鎖等,0,2025-04-09,2025-03-31,合同会社いってつホーム,,合同会社,東京都,墨田区,亀沢１丁目１７番２号,,13,107,1300014,,,2025-03-31,合併による解散等,3040003006624,令和７年３月３１日東京都墨田区亀沢一丁目１７番２号合同会社健太郎ホーム（3040003006624）に合併し解散,2016-04-06,1,,,,,イッテツホーム,0
1146,4100002031839,登記記録の閉鎖等,0,2025-04-09,2025-04-01,有限会社マルイ精工,,有限会社,長野県,岡谷市,神明町１丁目１番４３号,,20,204,3940004,,,2025-04-01,清算の結了等,,,2015-10-05,1,,,,,マルイセイコウ,0
1168,4120103002084,登記記録の閉鎖等,0,2025-04-09,2025-03-24,コート合同会社,,合同会社,大阪府,堺市東区,大美野９番地５,,27,143,5998126,,,2025-03-24,清算の結了等,,,2015-10-05,1,,,,,コート,0
1175,4130002002168,登記記録の閉鎖等,0,2025-04-09,2025-04-04,有限会社オフィス未夢,,有限会社,京都府,長岡京市,野添１丁目１６－１７,,26,209,6170821,,,2025-04-04,清算の結了等,,,2015-10-05,1,,,,,オフィスミム,0
1190,4140002042139,登記記録の閉鎖等,0,2025-04-09,2025-03-31,有限会社阪神ダイカスト,,有限会社,兵庫県,加東市,東古瀬８６１番地８,,28,228,6731423,,,2025-03-31,清算の結了等,,,2015-10-05,1,,,,,ハンシンダイカスト,0
1225,4230001012686,登記記録の閉鎖等,0,2025-04-09,2025-04-01,坂吉株式会社,,株式会社,富山県,射水市,新開発４５７番地,,16,211,9390284,,,2025-04-01,合併による解散等,7230001006818,令和７年４月１日富山県高岡市伏木一丁目１番地１日本総合リサイクル株式会社（7230001006818）に合併し解散,2015-10-05,1,,,,,サカヨシ,0
1231,4250002013104,登記記録の閉鎖等,0,2025-04-09,2025-04-03,有限会社好日館,,有限会社,山口県,萩市,大字唐樋町７８番地,00002723,35,204,7580044,,,2025-04-03,清算の結了等,,,2015-10-05,1,,,,,コウジツカン,0
1232,4260001004697,登記記録の閉鎖等,0,2025-04-09,2025-04-01,株式会社同文斎,,株式会社,岡山県,岡山市南区,妹尾１７６１番地,,33,104,7010205,,,2025-04-01,合併による解散等,3260001001844,令和７年４月１日岡山市南区妹尾１７６１番地カネタツ株式会社（3260001001844）に合併し解散,2015-10-05,1,,,,,ドウブンサイ,0
1248,4300005007097,登記記録の閉鎖等,0,2025-04-09,2025-04-03,一般社団法人みずき,,その他の設立登記法人,佐賀県,武雄市,山内町大字宮野２６２８０番地２,,41,206,8492305,,,2025-04-03,清算の結了等,,,2022-09-27,1,,,,,ミズキ,0
1255,4350001008887,登記記録の閉鎖等,0,2025-04-09,2025-03-31,株式会社霧島興産,,株式会社,宮崎県,都城市,吉尾町１９０５番地,,45,202,8850006,,,2025-03-31,清算の結了等,,,2015-10-05,1,,,,,キリシマコウサン,0
1260,4380002010096,登記記録の閉鎖等,0,2025-04-09,2025-03-21,有限会社しゃりてん,,有限会社,福島県,郡山市,菜根２丁目１０番９号,,07,203,9638862,,,2025-03-21,清算の結了等,,,2015-10-05,1,,,,,,0
1261,4390005006371,登記記録の閉鎖等,0,2025-04-09,2025-03-19,日本聖公会米沢聖ヨハネ教会,,その他の設立登記法人,山形県,米沢市,松が岬３丁目３番４６号,,06,202,9920053,,,2025-03-19,合併による解散等,7370005000662,令和７年２月６日仙台市青葉区国分町二丁目１３番１５号日本聖公会東北教区（7370005000662）に合併し解散,2015-10-05,1,,,,,ニッポンセイコウカイヨネザワセイヨハネキョウカイ,0
1271,4430002009678,登記記録の閉鎖等,0,2025-04-09,2025-04-01,有限会社翔,,有限会社,北海道,札幌市南区,川沿八条４丁目５番２７号,,01,106,0050808,,,2025-04-01,清算の結了等,,,2015-10-05,1,,,,,ショウ,0
1283,4460101005856,登記記録の閉鎖等,0,2025-04-09,2025-04-04,株式会社ＴＯＫＡＣＨＩ　ＳＯＵＬ　ＦＯＯＤＳ,,株式会社,北海道,河東郡音更町,木野西通７丁目４番地１３,,01,631,0800302,,,2025-04-04,清算の結了等,,,2016-01-06,1,,,,,トカチソウルフード,0
1289,4500001016379,登記記録の閉鎖等,0,2025-04-09,2025-03-28,富屋建設株式会社,,株式会社,愛媛県,松山市,竹原４丁目８番４０号,,38,201,7900053,,,2025-03-28,清算の結了等,,,2015-12-24,1,,,,,トミヤケンセツ,0
1295,5010001125724,登記記録の閉鎖等,0,2025-04-09,2025-04-01,ソルテック株式会社,,株式会社,東京都,江東区,新砂３丁目５番３５号,,13,108,1360075,,,2025-04-01,合併による解散等,2010601020237,令和７年４月１日東京都江東区新砂三丁目５番３５号那須電材産業株式会社（2010601020237）に合併し解散,2015-10-05,1,,,,,ソルテック,0
1298,5010001199702,登記記録の閉鎖等,0,2025-04-09,2025-03-27,Ｚライフメディア株式会社,,株式会社,東京都,千代田区,紀尾井町１番３号,,13,101,1020094,,,2025-03-27,清算の結了等,,,2019-04-04,1,,,,,ゼットライフメディア,0
1299,5010001205732,登記記録の閉鎖等,0,2025-04-09,2025-04-01,株式会社Ａ＆Ｍ,,株式会社,東京都,千代田区,丸の内２丁目２番２号,,13,101,1000005,,,2025-04-01,合併による解散等,8010001172986,令和７年４月１日東京都千代田区丸の内二丁目２番２号株式会社アイセイ薬局（8010001172986）に合併し解散,2019-12-02,1,,,,,エーアンドエム,0
1349,5011101055035,登記記録の閉鎖等,0,2025-04-09,2025-04-03,グラン・グルメ株式会社,,株式会社,東京都,千代田区,神田須田町１丁目１０番地,,13,101,1010041,,,2025-04-03,合併による解散等,9120901014045,令和７年４月１日大阪府吹田市春日四丁目１３番１５号シップヘルスケアフード株式会社（9120901014045）に合併し解散,2015-10-05,1,,,,,グラングルメ,0
1361,5011801037613,登記記録の閉鎖等,0,2025-04-09,2025-04-03,株式会社マンションコンサルティング,,株式会社,東京都,足立区,伊興本町１丁目６番２３号,,13,121,1210807,,,2025-04-03,清算の結了等,,,2020-05-15,1,,,,,マンションコンサルティング,0
1371,5013202007121,登記記録の閉鎖等,0,2025-04-09,2025-04-08,有限会社六鴻デザイン,,有限会社,神奈川県,鎌倉市,材木座５丁目４番３４号,,14,204,2480013,,,2025-04-08,清算の結了等,,,2015-10-05,1,,,,,ロッコウデザイン,0
1391,5020003018454,登記記録の閉鎖等,0,2025-04-09,2025-03-27,ＦｌａｓｔＦｉｓｈ合同会社,,合同会社,神奈川県,横浜市都筑区,川和町１５２３－３９,,14,118,2240057,,,2025-03-27,清算の結了等,,,2020-09-16,1,,,,,フラストフィッシュ,0
1403,5030001019916,登記記録の閉鎖等,0,2025-04-09,2025-04-02,ニッケンビルト株式会社,,株式会社,埼玉県,さいたま市大宮区,上小町１３００番地１１,,11,103,3300855,,,2025-04-02,清算の結了等,,,2015-10-05,1,,,,,ニッケンビルト,0
1449,5080401000173,登記記録の閉鎖等,0,2025-04-09,2025-04-01,株式会社ナユタプロダクツ,,株式会社,静岡県,浜松市中央区,常光町３９８番地,,22,138,4313103,,,2025-04-01,合併による解散等,3080401003772,令和７年４月１日静岡県浜松市中央区常光町３９８番地株式会社ナユタ（3080401003772）に合併し解散,2015-10-05,1,,,,,ナユタプロダクツ,0
1450,5080401001147,登記記録の閉鎖等,0,2025-04-09,2025-04-01,株式会社ナユタパワーエナジー,,株式会社,静岡県,浜松市中央区,常光町３９８番地,,22,138,4313103,,,2025-04-01,合併による解散等,3080401003772,令和７年４月１日静岡県浜松市中央区常光町３９８番地株式会社ナユタ（3080401003772）に合併し解散,2015-10-05,1,,,,,ナユタパワーエナジー,0
1456,5100002025419,登記記録の閉鎖等,0,2025-04-09,2025-04-02,有限会社吉野屋製菓店,,有限会社,長野県,塩尻市,大字広丘野村６６４番地,,20,215,3990702,,,2025-04-02,清算の結了等,,,2015-10-05,1,,,,,ヨシノヤセイカテン,0
1457,5100002029485,登記記録の閉鎖等,0,2025-04-09,2025-04-02,有限会社協栄製作所,,有限会社,長野県,諏訪郡富士見町,落合９６５６番地１０９,,20,362,3990214,,,2025-04-02,清算の結了等,,,2015-10-05,1,,,,,キョウエイセイサクジョ,0
1463,5120001030830,登記記録の閉鎖等,0,2025-04-09,2025-04-04,株式会社七九商店,,株式会社,大阪府,大阪市住之江区,中加賀屋３丁目１５番１４号,,27,125,5590017,,,2025-04-04,清算の結了等,,,2015-10-05,1,,,,,シチクショウテン,0
1486,5120002081848,登記記録の閉鎖等,0,2025-04-09,2025-03-28,有限会社イヨコーポレーション,,有限会社,大阪府,守口市,梶町２丁目７番２号,,27,209,5700015,,,2025-03-28,清算の結了等,,,2015-10-05,1,,,,,イヨコーポレーション,0
1489,5120005024176,登記記録の閉鎖等,0,2025-04-09,2025-04-07,弁理士法人桜フロンティア,,その他の設立登記法人,大阪府,大阪市中央区,北浜１丁目１番２７号,,27,128,5410041,,,2025-04-07,清算の結了等,,,2024-02-26,1,,,,,サクラフロンティア,0
1528,5180002080134,登記記録の閉鎖等,0,2025-04-09,2025-04-01,有限会社トータルオートワークス,,有限会社,愛知県,一宮市,開明字飛山流１５番地,,23,203,4940001,,,2025-04-01,清算の結了等,,,2015-10-05,1,,,,,トータルオートワークス,0
1529,5180002083649,登記記録の閉鎖等,0,2025-04-09,2025-03-31,有限会社知多広,,有限会社,愛知県,半田市,亀崎新田町５丁目３５番地,,23,205,4750026,,,2025-03-31,清算の結了等,,,2015-10-05,1,,,,,チタヒロ,0
1531,5180301022745,登記記録の閉鎖等,0,2025-04-09,2025-04-01,チェリー西尾販売株式会社,,株式会社,愛知県,西尾市,道光寺１丁目４番地５,,23,213,4450812,,,2025-04-01,合併による解散等,9180301015316,令和７年４月１日愛知県碧南市宮後町三丁目６２番地西三自動車株式会社（9180301015316）に合併し解散,2015-10-05,1,,,,,チェリーニシオハンバイ,0
1543,5230001013816,登記記録の閉鎖等,0,2025-04-09,2025-04-01,株式会社立山科学センサーテクノロジー,,株式会社,富山県,富山市,下番１４番地,,16,201,9301305,,,2025-04-01,合併による解散等,4230001013817,令和７年４月１日富山市月岡町三丁目６番地株式会社立山科学デバイステクノロジー（4230001013817）に合併し解散,2015-10-05,1,,,,,タテヤマカガクセンサーテクノロジー,0
1553,5250005007507,登記記録の閉鎖等,0,2025-04-09,2025-04-01,特定非営利活動法人ほんまち,,その他の設立登記法人,山口県,下関市,本町４丁目１４番１３号,,35,201,7510815,,,2025-04-01,清算の結了等,,,2015-10-05,1,,,,,ホンマチ,0
1565,5290803000452,登記記録の閉鎖等,0,2025-04-09,2025-04-08,合資会社オジマ,,合資会社,福岡県,北九州市門司区,丸山２丁目１５番３７号,,40,101,8010831,,,2025-04-08,清算の結了等,,,2015-10-05,1,,,,,,0
1589,5380005007361,登記記録の閉鎖等,0,2025-04-09,2025-03-19,日本聖公会磯山聖ヨハネ教会,,その他の設立登記法人,福島県,相馬郡新地町,大字埓木崎字熊野７９番地,,07,561,9792701,,,2025-03-19,合併による解散等,7370005000662,令和７年２月６日仙台市青葉区国分町二丁目１３番１５号日本聖公会東北教区（7370005000662）に合併し解散,2015-10-05,1,,,,,,0
1591,5400005000586,登記記録の閉鎖等,0,2025-04-09,2025-03-19,日本聖公会盛岡聖公会,,その他の設立登記法人,岩手県,盛岡市,中央通３丁目１４番１４号,,03,201,0200021,,,2025-03-19,合併による解散等,7370005000662,令和７年２月６日仙台市青葉区国分町二丁目１３番１５号日本聖公会東北教区（7370005000662）に合併し解散,2015-10-05,1,,,,,ニホンセイコウカイモリオカセイコウカイ,0
1595,5420005002845,登記記録の閉鎖等,0,2025-04-09,2025-03-19,日本聖公会八戸聖ルカ教会,,その他の設立登記法人,青森県,八戸市,類家４丁目９番３号,,02,203,0310001,,,2025-03-19,合併による解散等,7370005000662,令和７年２月６日仙台市青葉区国分町二丁目１３番１５号日本聖公会東北教区（7370005000662）に合併し解散,2015-10-05,1,,,,,,0
1597,5430001015775,登記記録の閉鎖等,0,2025-04-09,2025-04-01,株式会社ホツキヨウ,,株式会社,北海道,札幌市中央区,盤渓３６５番地,,01,101,0640945,,,2025-04-01,合併による解散等,7430001072575,令和７年４月１日札幌市中央区大通東四丁目４番４４プカック株式会社（7430001072575）に合併し解散,2015-10-05,1,,,,,ホツキヨウ,0
1612,5460101005095,登記記録の閉鎖等,0,2025-04-09,2025-04-04,株式会社ＨＩＫＡＲＵ,,株式会社,北海道,帯広市,西十七条北１丁目５２番１９号,,01,207,0800047,,,2025-04-04,清算の結了等,,,2015-10-05,1,,,,,ヒカル,0
1621,5500002024504,登記記録の閉鎖等,0,2025-04-09,2025-03-31,有限会社上松組,,有限会社,愛媛県,松山市,天山町１２６番地の１,,38,201,7900951,,,2025-03-31,清算の結了等,,,2025-01-23,1,,,,,ウエマツグミ,0
1622,6010001001503,登記記録の閉鎖等,0,2025-04-09,2025-03-27,株式会社オーベルコーポレーション,,株式会社,東京都,文京区,湯島３丁目１３番６号,,13,105,1130034,,,2025-03-27,清算の結了等,,,2015-10-05,1,,,,,オーベルコーポレーション,0
1629,6010001184744,登記記録の閉鎖等,0,2025-04-09,2025-04-01,株式会社Ｃｈａｒａｍａｘ,,株式会社,愛知県,名古屋市南区,霞町３５番地の１,,23,112,4570033,,,2025-04-01,清算の結了等,,,2017-07-13,1,,,,,キャラマックス,0
1630,6010001211531,登記記録の閉鎖等,0,2025-04-09,2025-04-04,Ｎｅｕｔｒｉｘ　Ｃｌｏｕｄ　Ｊａｐａｎ株式会社,,株式会社,東京都,千代田区,霞が関１丁目４番２号,,13,101,1000013,,,2025-04-04,合併による解散等,9120001062589,令和７年４月１日大阪市中央区城見二丁目１番５号株式会社オプテージ（9120001062589）に合併し解散,2020-08-13,1,,,,,ニュートリックスクラウドジャパン,0
1642,6010003036704,登記記録の閉鎖等,0,2025-04-09,2025-04-01,株式会社ＯＯＭインベストメンツ,,株式会社,東京都,千代田区,丸の内１丁目６番５号,,13,101,1000005,,,2025-04-01,合併による解散等,9010001238142,令和７年４月１日東京都中央区銀座七丁目１６番２１号ＧＥＮＳＥＮ　ＨＯＬＤＩＮＧＳ株式会社（9010001238142）に合併し解散,2022-01-07,1,,,,,オーオーエムインベストメンツ,0
1669,6010501017981,登記記録の閉鎖等,0,2025-04-09,2025-03-28,株式会社トッパンＩＰサービス,,株式会社,東京都,台東区,台東１丁目５番１号,,13,106,1100016,,,2025-03-28,清算の結了等,,,2015-10-05,1,,,,,トッパンアイピーサービス,0
1670,6010501052392,登記記録の閉鎖等,0,2025-04-09,2025-03-28,株式会社河合ネクタイ,,株式会社,東京都,台東区,浅草橋２丁目１３番１号,,13,106,1110053,,,2025-03-28,清算の結了等,,,2024-06-07,1,,,,,カワイネクタイ,0
1672,6010502022171,登記記録の閉鎖等,0,2025-04-09,2025-03-28,有限会社道冠,,有限会社,東京都,台東区,浅草３丁目３５番１１号,,13,106,1110032,,,2025-03-28,清算の結了等,,,2015-10-05,1,,,,,ドウカン,0
1673,6010601032220,登記記録の閉鎖等,0,2025-04-09,2025-04-04,川重環境エンジニアリング株式会社,,株式会社,東京都,江東区,木場２丁目１７番１２号,,13,108,1350042,,,2025-04-04,合併による解散等,1140001008201,令和７年４月１日神戸市中央区加納町四丁目４番１７号カワサキグリーンテック株式会社（1140001008201）に合併し解散,2015-10-05,1,,,,,カワジュウカンキョウエンジニアリング,0
1674,6010601046427,登記記録の閉鎖等,0,2025-04-09,2025-04-01,株式会社ペットスマイル,,株式会社,東京都,江東区,亀戸３丁目６０番２２号,,13,108,1360071,,,2025-04-01,合併による解散等,1010601017300,令和７年４月１日東京都江東区亀戸三丁目６０番２１号株式会社コジマ（1010601017300）に合併し解散,2015-10-05,1,,,,,ペットスマイル,0
1675,6010701002420,登記記録の閉鎖等,0,2025-04-09,2025-04-07,株式会社カマタ,,株式会社,東京都,品川区,東大井２丁目６番１号,,13,109,1400011,,,2025-04-07,合併による解散等,8080001008119,令和７年４月１日静岡県富士市厚原１４６８三生医薬株式会社（8080001008119）に合併し解散,2015-10-05,1,,,,,カマタ,0
1677,6010701030561,登記記録の閉鎖等,0,2025-04-09,2025-03-26,株式会社池澤守企画,,株式会社,東京都,品川区,北品川２丁目２５番８－１２０５号,,13,109,1400001,,,2025-03-26,清算の結了等,,,2015-10-05,1,,,,,イケザワマモルキカク,0
1696,6011401012577,登記記録の閉鎖等,0,2025-04-09,2025-03-31,株式会社アキタ・システム＆コミュニケーションズ,,株式会社,東京都,板橋区,前野町３丁目１番１号ときわ台メリーガーデン１０１１号,,13,119,1740063,,,2025-03-31,清算の結了等,,,2015-10-05,1,,,,,アキタシステムアンドコミュニケーションズ,0
1703,6011802002004,登記記録の閉鎖等,0,2025-04-09,2025-04-02,有限会社鎌倉漢方堂,,有限会社,東京都,葛飾区,鎌倉３丁目５７番１４号,,13,122,1250053,,,2025-04-02,清算の結了等,,,2015-10-05,1,,,,,カマクラカンポウドウ,0
1708,6012701012952,登記記録の閉鎖等,0,2025-04-09,2025-04-01,株式会社スタジオＫ２,,株式会社,東京都,東久留米市,学園町１丁目１番９－２０６号,,13,222,2030021,,,2025-04-01,清算の結了等,,,2015-10-05,1,,,,,スタジオケーツー,0
1725,6020002020501,登記記録の閉鎖等,0,2025-04-09,2025-04-01,有限会社アサヒ産業,,有限会社,神奈川県,横浜市旭区,本村町１７番地の１,,14,112,2410024,,,2025-04-01,清算の結了等,,,2015-10-05,1,,,,,アサヒサンギョウ,0
1731,6021001053797,登記記録の閉鎖等,0,2025-04-09,2025-04-08,株式会社ビクトリア,,株式会社,神奈川県,厚木市,旭町１丁目１番４号松岡ビル４階,,14,212,2430014,,,2025-04-08,清算の結了等,,,2015-10-05,1,,,,,ビクトリア,0
1732,6021001083571,登記記録の閉鎖等,0,2025-04-09,2025-03-24,Ｇｒａｐｈｉｃｓ　Ｓｏｌｕｔｉｏｎｓ株式会社,,株式会社,神奈川県,平塚市,東豊田４８０番地の２８,,14,203,2540082,,,2025-03-24,合併による解散等,8010001228680,令和７年２月２８日東京都千代田区三番町６番地３三番町ＫＢ－６ビルＸＳＹＳ　Ｊａｐａｎ株式会社（8010001228680）に合併し解散,2024-10-28,1,,,,,グラフィックスソリューションズ,0
1747,6030002026150,登記記録の閉鎖等,0,2025-04-09,2025-04-02,有限会社Ｅｐｉｃ,,有限会社,埼玉県,蕨市,中央７丁目３５番２号Ｈｉｒｏビル２Ｆ,,11,223,3350004,,,2025-04-02,清算の結了等,,,2015-10-05,1,,,,,エピック,0
1750,6030003022289,登記記録の閉鎖等,0,2025-04-09,2025-04-01,合同会社青空建装,,合同会社,埼玉県,さいたま市岩槻区,加倉１丁目２番１１号アヴェニール岩槻１０７,,11,110,3390056,,,2025-04-01,清算の結了等,,,2023-08-15,1,,,,,アオゾラケンソウ,0
1759,6040001094800,登記記録の閉鎖等,0,2025-04-09,2025-04-01,大成化工株式会社,,株式会社,千葉県,成田市,新泉１２,,12,211,2860825,,,2025-04-01,合併による解散等,5040001061512,令和７年４月１日千葉県旭市鎌数９１６３番地１９大成ファインケミカル株式会社（5040001061512）に合併し解散,2016-04-08,1,,,,,タイセイカコウ,0
1766,6040002031372,登記記録の閉鎖等,0,2025-04-09,2025-03-31,有限会社防災メンテナンス,,有限会社,千葉県,船橋市,習志野台３丁目２番４３１号,,12,204,2740063,,,2025-03-31,清算の結了等,,,2015-10-05,1,,,,,ボウサイメンテナンス,0
1768,6040003020168,登記記録の閉鎖等,0,2025-04-09,2025-03-31,Ｒｅａｌｐｈａ　Ａｎｔａｒｅｓ合同会社,,合同会社,千葉県,香取郡東庄町,笹川い４７１４－２５８,,12,349,2890601,,,2025-03-31,清算の結了等,,,2022-06-03,1,,,,,リアルファアンタレス,0
1785,6090001008862,登記記録の閉鎖等,0,2025-04-09,2025-03-31,株式会社おぐし包材,,株式会社,山梨県,山梨市,小原西８１７番地,,19,205,4050006,,,2025-03-31,清算の結了等,,,2015-10-05,1,,,,,オグシホウザイ,0
1791,6100002027364,登記記録の閉鎖等,0,2025-04-09,2025-03-31,有限会社駒の湯,,有限会社,長野県,木曽郡木曽町,福島４７番地の２,,20,432,3970001,,,2025-03-31,清算の結了等,,,2015-10-05,1,,,,,コマノユ,0
1798,6120001051891,登記記録の閉鎖等,0,2025-04-09,2025-03-28,三福繊維工業株式会社,,株式会社,大阪府,大阪市東淀川区,小松２丁目１３番８号,,27,114,5330004,,,2025-03-28,清算の結了等,,,2015-10-05,1,,,,,サンプクセンイコウギョウ,0
1815,6120005023185,登記記録の閉鎖等,0,2025-04-09,2025-04-07,特定非営利活動法人保護団体ｄ＆ｈｕｍａｎ,,その他の設立登記法人,大阪府,大阪市東成区,大今里西１丁目１１番１１号今里船瀬ビル,,27,115,5370014,,,2025-04-07,清算の結了等,,,2022-09-12,1,,,,,ホゴダンタイダンドヒューマン,0
1816,6120101004849,登記記録の閉鎖等,0,2025-04-09,2025-03-31,株式会社ムーヴ,,株式会社,大阪府,堺市中区,東山１１１４番地,,27,142,5998247,,,2025-03-31,清算の結了等,,,2015-10-05,1,,,,,ムーヴ,0
1825,6140001048993,登記記録の閉鎖等,0,2025-04-09,2025-04-01,株式会社サンニシイチ,,株式会社,兵庫県,尼崎市,尾浜町２丁目２１番４０号,,28,202,6610022,,,2025-04-01,合併による解散等,9140001050484,令和７年４月１日兵庫県尼崎市尾浜町二丁目２１番４０号株式会社ニシイチドラッグ（9140001050484）に合併し解散,2015-10-05,1,,,,,サンニシイチ,0
1857,6160001008186,登記記録の閉鎖等,0,2025-04-09,2025-03-31,カーコム・トガワ株式会社,,株式会社,滋賀県,愛知郡愛荘町,蚊野１８７５番地の３,,25,425,5291206,,,2025-03-31,清算の結了等,,,2015-10-05,1,,,,,,0
1882,6210001015482,登記記録の閉鎖等,0,2025-04-09,2025-04-02,株式会社美晃鈑金,,株式会社,福井県,福井市,開発３丁目３５１０番地,,18,201,9100842,,,2025-04-02,清算の結了等,,,2015-10-05,1,,,,,ビコウバンキン,0
1889,6230001008492,登記記録の閉鎖等,0,2025-04-09,2025-04-03,株式会社シィード,,株式会社,富山県,南砺市,福野字上町１５５１番地１,,16,210,9391561,,,2025-04-03,清算の結了等,,,2015-10-05,1,,,,,シィード,0
1904,6290803004790,登記記録の閉鎖等,0,2025-04-09,2025-04-08,合同会社シーエイチアール,,合同会社,福岡県,北九州市小倉北区,砂津２丁目１１番２０－１００６号,,40,106,8020014,,,2025-04-08,清算の結了等,,,2024-07-29,1,,,,,シーエイチアール,0
1927,6400005004470,登記記録の閉鎖等,0,2025-04-09,2025-03-19,日本聖公会釜石神愛教会,,その他の設立登記法人,岩手県,釜石市,上中島町４丁目２番２０号,,03,211,0260041,,,2025-03-19,合併による解散等,7370005000662,令和７年２月６日仙台市青葉区国分町二丁目１３番１５号日本聖公会東北教区（7370005000662）に合併し解散,2015-10-05,1,,,,,ニホンセイコウカイカマイシシンアイキョウカイ,0
1941,6440001000123,登記記録の閉鎖等,0,2025-04-09,2025-04-03,株式会社イズミ鉄筋工業,,株式会社,北海道,函館市,古川町４７４番地の１,,01,202,0410262,,,2025-04-03,清算の結了等,,,2015-10-05,1,,,,,イズミテッキンコウギョウ,0
1942,6440002009205,登記記録の閉鎖等,0,2025-04-09,2025-04-01,有限会社あずまや写真館,,有限会社,北海道,茅部郡森町,字御幸町３３番地の５,,01,345,0492326,,,2025-04-01,清算の結了等,,,2015-10-05,1,,,,,アズマヤシャシンカン,0
1956,6480002015975,登記記録の閉鎖等,0,2025-04-09,2025-04-01,ミナミ薬品有限会社,,有限会社,徳島県,三好市,池田町シマ８４１番地４,,36,208,7780005,,,2025-04-01,清算の結了等,,,2015-10-05,1,,,,,ミナミヤクヒン,0
1964,7010001199386,登記記録の閉鎖等,0,2025-04-09,2025-03-27,リツェンツ株式会社,,株式会社,東京都,千代田区,紀尾井町１番３号,,13,101,1020094,,,2025-03-27,清算の結了等,,,2019-03-19,1,,,,,リツェンツ,0
1978,7010401009005,登記記録の閉鎖等,0,2025-04-09,2025-03-14,ケー・エー・ゼット株式会社,,株式会社,東京都,港区,赤坂４丁目３番９号,,13,103,1070052,,,2025-03-14,清算の結了等,,,2015-10-05,1,,,,,ケーエーゼット,0
1981,7010401129042,登記記録の閉鎖等,0,2025-04-09,2025-03-28,株式会社日本ドクターセンター,,株式会社,東京都,千代田区,富士見１丁目８番１９号,,13,101,1020071,,,2025-03-28,清算の結了等,,,2017-01-16,1,,,,,ニホンドクターセンター,0
1999,7010505000834,登記記録の閉鎖等,0,2025-04-09,2025-03-27,東京貴金属工芸品工業協同組合,,その他の設立登記法人,東京都,台東区,根岸２丁目１９番１６号,,13,106,1100003,,,2025-03-27,清算の結了等,,,2015-10-05,1,,,,,トウキョウキキンゾクコウゲイヒンコウギョウ,0
2012,7011001021589,登記記録の閉鎖等,0,2025-04-09,2025-03-10,株式会社コンテスナカニシ,,株式会社,東京都,渋谷区,千駄ヶ谷５丁目２９番１１号,,13,113,1510051,,,2025-03-10,清算の結了等,,,2015-10-05,1,,,,,コンテスナカニシ,0
2023,7011202001654,登記記録の閉鎖等,0,2025-04-09,2025-04-03,有限会社河村工業所,,有限会社,東京都,中野区,新井２丁目１番５号,,13,114,1650026,,,2025-04-03,清算の結了等,,,2015-10-05,1,,,,,カワムラコウギョウショ,0
2029,7011401017237,登記記録の閉鎖等,0,2025-04-09,2025-04-01,株式会社アクアス,,株式会社,愛媛県,新居浜市,上泉町４番９号,,38,205,7920824,,,2025-04-01,清算の結了等,,,2015-10-05,1,,,,,アクアス,0
2062,7021001075312,登記記録の閉鎖等,0,2025-04-09,2025-04-01,株式会社ＣＬＡＳＴＹ　ＡＲＰ,,株式会社,神奈川県,相模原市緑区,元橋本町１０番２８－４号,,14,151,2520142,,,2025-04-01,合併による解散等,4021001017606,令和７年４月１日相模原市緑区元橋本町１０番２８－４号株式会社ＣＬＡＳＴＹ（4021001017606）に合併し解散,2022-03-08,1,,,,,クラスティエーアールピー,0
2063,7021002018831,登記記録の閉鎖等,0,2025-04-09,2025-04-08,有限会社岡村工業,,有限会社,神奈川県,相模原市中央区,田名３２８４番地の５,,14,152,2520244,,,2025-04-08,清算の結了等,,,2015-10-05,1,,,,,オカムラコウギョウ,0
2064,7021002051023,登記記録の閉鎖等,0,2025-04-09,2025-04-08,有限会社稲毛管工,,有限会社,神奈川県,小田原市,久野１８番地の６カームグランデ２０１,,14,206,2500055,,,2025-04-08,清算の結了等,,,2015-10-05,1,,,,,イナゲカンコウ,0
2104,7040005020405,登記記録の閉鎖等,0,2025-04-09,2025-03-25,一般社団法人スマートライフ・プランナーズ協会,,その他の設立登記法人,千葉県,成田市,玉造２丁目２６番地３６,,12,211,2860011,,,2025-03-25,清算の結了等,,,2019-05-14,1,,,,,スマートライフプランナーズキョウカイ,0
2113,7070001013392,登記記録の閉鎖等,0,2025-04-09,2025-04-01,サンデン・ロジスティクス＆リユース株式会社,,株式会社,群馬県,伊勢崎市,寿町２０番地,,10,204,3720052,,,2025-04-01,合併による解散等,8010001202909,令和７年４月１日群馬県伊勢崎市寿町２０番地サンデン・リテールシステム株式会社（8010001202909）に合併し解散,2015-10-05,1,,,,,サンデンロジスティクスリユース,0
2129,7100005000929,登記記録の閉鎖等,0,2025-04-09,2025-03-10,伊勢社,,その他の設立登記法人,長野県,長野市,戸隠栃原字不動坂５２１５番地,,20,201,3814104,,,2025-03-10,合併による解散等,1100005000959,令和７年３月１０日長野県長野市戸隠栃原字宮ノ前７５３５番地宮前神社（1100005000959）に合併し解散,2015-10-05,1,,,,,イセシャ,0
2131,7120001084668,登記記録の閉鎖等,0,2025-04-09,2025-03-28,株式会社ジー・イー・エス,,株式会社,大阪府,大阪市平野区,長吉長原東３丁目２番５８号,,27,126,5470013,,,2025-03-28,清算の結了等,,,2015-10-05,1,,,,,,0
2151,7130001021067,登記記録の閉鎖等,0,2025-04-09,2025-04-01,島津航空機器サービス株式会社,,株式会社,京都府,京都市中京区,西ノ京徳大寺町１番地,,26,104,6048445,,,2025-04-01,合併による解散等,9130001061037,令和７年４月１日京都市中京区西ノ京桑原町１番地島津エアロテック株式会社（9130001061037）に合併し解散,2015-10-05,1,,,,,シマヅコウクウキキサービス,0
2162,7140001129322,登記記録の閉鎖等,0,2025-04-09,2025-04-02,ＯＳＳ株式会社,,株式会社,兵庫県,姫路市,岡町５番地,,28,201,6700026,,,2025-04-02,清算の結了等,,,2023-03-06,1,,,,,オーエスエス,0
2196,7180301023915,登記記録の閉鎖等,0,2025-04-09,2025-04-01,エィ・ケィ・ケィ・エム株式会社,,株式会社,愛知県,西尾市,吉良町友国道ケ圦１３２番地２４６,,23,213,4440504,,,2025-04-01,合併による解散等,1180301023334,令和７年４月１日愛知県西尾市吉良町友国池上７０番地６アイシン機工株式会社（1180301023334）に合併し解散,2015-10-05,1,,,,,エィケィケィエム,0
2219,7240001022500,登記記録の閉鎖等,0,2025-04-09,2025-04-01,久米肥料株式会社,,株式会社,広島県,東広島市,河内町入野２１３０番地の４,,34,212,7392208,,,2025-04-01,合併による解散等,3240001002877,令和７年４月１日広島市中区東平塚町９番５号久米産業株式会社（3240001002877）に合併し解散,2015-10-05,1,,,,,クメヒリョウ,0
2220,7240001032607,登記記録の閉鎖等,0,2025-04-09,2025-04-01,ＦＧＳエキスパート株式会社,,株式会社,広島県,福山市,大門町２丁目１４番２２号,,34,207,7210926,,,2025-04-01,合併による解散等,1240001031671,令和７年４月１日広島県福山市鋼管町１番地ＪＦＥ西日本ジーエス株式会社（1240001031671）に合併し解散,2015-10-05,1,,,,,エフジーエスエキスパート,0
2226,7280002010566,登記記録の閉鎖等,0,2025-04-09,2025-04-03,有限会社上田工務店,,有限会社,島根県,益田市,美都町宇津川ロ６８７番地１,,32,204,6980202,,,2025-04-03,清算の結了等,,,2015-10-05,1,,,,,ウエダコウムテン,0
2235,7290001082283,登記記録の閉鎖等,0,2025-04-09,2025-03-13,株式会社クオリティー・オブ・ローカルライフ・ジャパン,,株式会社,福岡県,福岡市博多区,祇園町８番１３号第一プリンスビル,,40,132,8120038,,,2025-03-13,合併による解散等,3290001079754,令和７年２月２８日福岡市博多区祇園町８番１３号　第一プリンスビル株式会社インテュイション（3290001079754）に合併し解散,2018-08-01,1,,,,,クオリティーオブローカルライフジャパン,0
2241,7290801009163,登記記録の閉鎖等,0,2025-04-09,2025-04-01,兼松ケイユー株式会社,,株式会社,福岡県,北九州市八幡東区,大字前田企業団地５番１号,,40,108,8050058,,,2025-04-01,合併による解散等,9290801009104,令和７年４月１日北九州市八幡東区前田企業団地５番１号兼松寒川株式会社（9290801009104）に合併し解散,2015-10-05,1,,,,,カネマツケイユー,0
2242,7290801022868,登記記録の閉鎖等,0,2025-04-09,2025-04-07,株式会社金木,,株式会社,福岡県,北九州市小倉北区,山門町４番２９号,,40,106,8020024,,,2025-04-07,清算の結了等,,,2016-09-08,1,,,,,カネキ,0
2258,7360001014345,登記記録の閉鎖等,0,2025-04-09,2025-04-02,株式会社カヨズガーデンジャパン,,株式会社,沖縄県,那覇市,泉崎１丁目１５番６号,,47,201,9000021,,,2025-04-02,清算の結了等,,,2015-10-05,1,,,,,カヨズガーデンジャパン,0
2267,7370202004722,登記記録の閉鎖等,0,2025-04-09,2025-03-31,有限会社スガワラ,,有限会社,宮城県,栗原市,栗駒中野上野原南２０番地,,04,213,9895351,,,2025-03-31,清算の結了等,,,2015-10-05,1,,,,,スガワラ,0
2270,7390001014912,登記記録の閉鎖等,0,2025-04-09,2025-03-31,Ｓ．ｃｏｒｐｏｒａｔｉｏｎ株式会社,,株式会社,山形県,米沢市,通町４丁目５番３０号１Ｆテナント,,06,202,9920025,,,2025-03-31,清算の結了等,,,2017-05-11,1,,,,,,0
2272,7390005003878,登記記録の閉鎖等,0,2025-04-09,2025-03-26,一般社団法人子どもの読書サポートアシード,,その他の設立登記法人,山形県,酒田市,新堀字豊森３３番地,,06,204,9997776,,,2025-03-26,清算の結了等,,,2015-10-05,1,,,,,コドモノドクショサポートアシード,0
2278,7420005000822,登記記録の閉鎖等,0,2025-04-09,2025-03-19,日本聖公会青森聖アンデレ教会,00087955,その他の設立登記法人,青森県,青森市,長島４丁目２３番１９号,,02,201,0300861,,,2025-03-19,合併による解散等,7370005000662,令和７年２月６日仙台市青葉区国分町二丁目１３番１５号日本聖公会東北教区（7370005000662）に合併し解散,2015-10-05,1,,,,,ニホンセイコウカイアオモリセイアンデレキョウカイ,0
2279,7430001015113,登記記録の閉鎖等,0,2025-04-09,2025-04-01,北明電気工業株式会社,,株式会社,北海道,札幌市白石区,菊水九条２丁目２番２号,,01,104,0030809,,,2025-04-01,合併による解散等,2430001020233,令和７年４月１日札幌市豊平区月寒東四条八丁目６番５号札幌日信電子株式会社（2430001020233）に合併し解散,2015-10-05,1,,,,,ホクメイデンキコウギョウ,0
2297,7490002009513,登記記録の閉鎖等,0,2025-04-09,2025-04-04,有限会社高岡丑製紙研究所,,有限会社,高知県,吾川郡いの町,２２６４番地,,39,386,7812110,,,2025-04-04,清算の結了等,,,2015-10-05,1,,,,,タカオカウシセイシケンキュウショ,0
2299,7500001000768,登記記録の閉鎖等,0,2025-04-09,2025-04-02,四国スバル株式会社,,株式会社,愛媛県,松山市,高岡町４６３番地の１,,38,201,7918036,,,2025-04-02,合併による解散等,4240001009368,令和７年４月１日広島市西区中広町一丁目３番１７号スバル中四国株式会社（4240001009368）に合併し解散,2015-10-05,1,,,,,シコクスバル,0
2305,7500002011401,登記記録の閉鎖等,0,2025-04-09,2025-04-07,有限会社映香アルミ建材,,有限会社,愛媛県,伊予郡砥部町,宮内６１９番地６,,38,402,7912120,,,2025-04-07,清算の結了等,,,2015-10-05,1,,,,,,0
2313,8010001176541,登記記録の閉鎖等,0,2025-04-09,2025-04-07,株式会社ビー・ピー・エス,,株式会社,東京都,江東区,南砂２丁目３１番１７号,,13,108,1360076,,,2025-04-07,合併による解散等,4010001034620,令和７年４月１日東京都千代田区丸の内三丁目３番１号第一工業株式会社（4010001034620）に合併し解散,2016-06-21,1,,,,,ビーピーエス,0
2321,8010003039845,登記記録の閉鎖等,0,2025-04-09,2025-03-27,ＩＫフードパートナーズ合同会社,,合同会社,東京都,中央区,日本橋室町２丁目３番１号,,13,102,1030022,,,2025-03-27,清算の結了等,,,2023-02-20,1,,,,,アイケイフードパートナーズ,0
2332,8010401130073,登記記録の閉鎖等,0,2025-04-09,2025-03-25,株式会社港国際ワークスタイル研究所,,株式会社,東京都,港区,港南２丁目１２－２８－１８０１号室,,13,103,1080075,,,2025-03-25,清算の結了等,,,2017-03-14,1,,,,,ミナトコクサイワークスタイルケンキュウショ,0
2333,8010401171209,登記記録の閉鎖等,0,2025-04-09,2025-03-31,株式会社ＱＯＮ,,株式会社,北海道,札幌市中央区,南四条西１０丁目１００４番地１南４条ユニハウス８１０,,01,101,0640804,,,2025-03-31,清算の結了等,,,2022-12-08,1,,,,,クオン,0
2343,8010501039660,登記記録の閉鎖等,0,2025-04-09,2025-04-01,健創製薬株式会社,,株式会社,東京都,中央区,日本橋小舟町９番１７号,,13,102,1030024,,,2025-04-01,合併による解散等,7010001034790,令和７年４月１日東京都中央区日本橋小舟町１０番１１号ゼリア新薬工業株式会社（7010001034790）に合併し解散,2016-06-13,1,,,,,ケンソウセイヤク,0
2346,8010605002390,登記記録の閉鎖等,0,2025-04-09,2025-03-14,特定非営利活動法人起業家大学,,その他の設立登記法人,東京都,港区,浜松町２丁目２－１５ダイヤビル２階,,13,103,1050013,,,2025-03-14,清算の結了等,,,2015-10-05,1,,,,,キギョウカダイガク,0
2349,8010901011038,登記記録の閉鎖等,0,2025-04-09,2025-04-08,株式会社朋進産業,,株式会社,東京都,世田谷区,北沢３丁目１番１８号,,13,112,1550031,,,2025-04-08,清算の結了等,,,2015-10-05,1,,,,,ホウシンサンギョウ,0
2354,8010902016093,登記記録の閉鎖等,0,2025-04-09,2025-04-02,有限会社ライジイングみやさか,,有限会社,東京都,世田谷区,宮坂１丁目１３番４号,,13,112,1560051,,,2025-04-02,清算の結了等,,,2015-10-05,1,,,,,ライジイングミヤサカ,0
2364,8011105004456,登記記録の閉鎖等,0,2025-04-09,2025-04-01,国立研究開発法人国立国際医療研究センター,,その他の設立登記法人,東京都,新宿区,戸山１丁目２１番１号,,13,104,1620052,,,2025-04-01,清算の結了等,,,2015-10-05,1,,,,,コクリツコクサイイリョウケンキュウセンター,0
2371,8011501003524,登記記録の閉鎖等,0,2025-04-09,2025-04-01,日本セービック株式会社,,株式会社,東京都,荒川区,西尾久４丁目１７番２号松島ビル１Ｆ,,13,118,1160011,,,2025-04-01,清算の結了等,,,2015-10-05,1,,,,,,0
2389,8013201004488,登記記録の閉鎖等,0,2025-04-09,2025-04-01,株式会社二宮書店,,株式会社,東京都,千代田区,内神田１丁目１３番１３号山川出版社ビル５階,,13,101,1010047,,,2025-04-01,合併による解散等,5010001030998,令和７年４月１日東京都千代田区内神田一丁目１３番１３号株式会社山川出版社（5010001030998）に合併し解散,2015-10-05,1,,,,,ニノミヤショテン,0
2410,8021001050776,登記記録の閉鎖等,0,2025-04-09,2025-03-31,株式会社スマイルライン,,株式会社,神奈川県,藤沢市,鵠沼藤が谷４丁目１５番１３号,,14,205,2510031,,,2025-03-31,清算の結了等,,,2015-10-05,1,,,,,スマイルライン,0
2427,8030002114382,登記記録の閉鎖等,0,2025-04-09,2025-04-02,有限会社ユア,,有限会社,埼玉県,熊谷市,月見町１丁目１０４番地,,11,202,3600825,,,2025-04-02,清算の結了等,,,2015-10-05,1,,,,,ユア,0
2429,8030002116040,登記記録の閉鎖等,0,2025-04-09,2025-04-02,有限会社ヨコヤマワークス,,有限会社,埼玉県,大里郡寄居町,大字富田１４２５番地５,,11,408,3691216,,,2025-04-02,清算の結了等,,,2015-10-05,1,,,,,ヨコヤマワークス,0
2469,8080101020675,登記記録の閉鎖等,0,2025-04-09,2025-04-03,株式会社東静岡ビルサービス,,株式会社,静岡県,沼津市,高島町６番地３,,22,203,4100056,,,2025-04-03,合併による解散等,5080001021652,令和７年４月１日静岡市葵区栄町３番地９株式会社静岡ダイケン（5080001021652）に合併し解散,2018-09-10,1,,,,,ヒガシシズオカビルサービス,0
2472,8100001019022,登記記録の閉鎖等,0,2025-04-09,2025-04-02,株式会社サンワ,,株式会社,長野県,茅野市,玉川９２７番地２２６,,20,214,3910011,,,2025-04-02,清算の結了等,,,2025-02-17,1,,,,,サンワ,0
2476,8100005000928,登記記録の閉鎖等,0,2025-04-09,2025-03-10,伊勢社,,その他の設立登記法人,長野県,長野市,戸隠栃原字笹原５９７８番地,,20,201,3814104,,,2025-03-10,合併による解散等,1100005000959,令和７年３月１０日長野県長野市戸隠栃原字宮ノ前７５３５番地宮前神社（1100005000959）に合併し解散,2015-10-05,1,,,,,イセシャ,0
2479,8110002004740,登記記録の閉鎖等,0,2025-04-09,2025-04-01,有限会社ＦＰ・保険もレスキュー隊,,有限会社,新潟県,新潟市中央区,下大川前通７ノ町２２３０番地,,15,103,9518052,,,2025-04-01,清算の結了等,,,2015-10-05,1,,,,,エフピーホケンモレスキュータイ,0
2489,8120001210017,登記記録の閉鎖等,0,2025-04-09,2025-03-28,株式会社ゼロワークス,,株式会社,大阪府,大阪市西区,新町１丁目２番９号日宝四ツ橋新町ビル７Ｆ,,27,106,5500013,,,2025-03-28,清算の結了等,,,2017-12-11,1,,,,,ゼロワークス,0
2497,8120005005917,登記記録の閉鎖等,0,2025-04-09,2025-04-07,商工運輸協同組合,,その他の設立登記法人,大阪府,大阪市中央区,島之内１丁目７番２１号,,27,128,5420082,,,2025-04-07,清算の結了等,,,2015-10-05,1,,,,,ショウコウウンユ,0
2505,8122003001261,登記記録の閉鎖等,0,2025-04-09,2025-04-01,株式会社ＴＯＭ,,株式会社,大阪府,大阪市港区,波除４丁目２番２７号２Ｆ,,27,107,5520001,,,2025-04-01,合併による解散等,5120001235784,令和７年４月１日大阪市港区波除四丁目２番２７号２Ｆ株式会社Ｔ‐ＧＲＯＵＰ（5120001235784）に合併し解散,2016-10-06,1,,,,,ティーオーエム,0
2531,8140005014239,登記記録の閉鎖等,0,2025-04-09,2025-03-24,天理教晴鶴分教会,,その他の設立登記法人,兵庫県,姫路市,大塩町１７７８番地の２,,28,201,6710101,,,2025-03-24,合併による解散等,3140005014227,令和７年３月２４日兵庫県姫路市威徳寺町４３番地天理教飾東大教会（3140005014227）に合併し解散,2015-10-05,1,,,,,テンリキョウハレツルブンキョウカイ,0
2536,8170002001971,登記記録の閉鎖等,0,2025-04-09,2025-04-07,有限会社新江鉄工所,,有限会社,和歌山県,和歌山市,西田井３９８番地,,30,201,6496335,,,2025-04-07,清算の結了等,,,2015-10-05,1,,,,,シンエテッコウショ,0
2538,8180001063756,登記記録の閉鎖等,0,2025-04-09,2025-04-01,名京実業株式会社,,株式会社,愛知県,名古屋市昭和区,川名本町４丁目１１番地の１５,,23,107,4660855,,,2025-04-01,清算の結了等,,,2015-10-05,1,,,,,メイキョウジツギョウ,0
2560,8220002011742,登記記録の閉鎖等,0,2025-04-09,2025-03-26,有限会社シンポウ工業,,有限会社,石川県,能美市,湯屋町リ２番地,,17,211,9231221,,,2025-03-26,清算の結了等,,,2015-10-05,1,,,,,,0
2565,8230002008589,登記記録の閉鎖等,0,2025-04-09,2025-04-03,有限会社ホクエイ,,有限会社,富山県,黒部市,沓掛５９８番地１,,16,207,9380013,,,2025-04-03,清算の結了等,,,2015-10-05,1,,,,,ホクエイ,0
2570,8250001004307,登記記録の閉鎖等,0,2025-04-09,2025-04-01,株式会社大和産業,,株式会社,山口県,美祢市,大嶺町東分１３４８番地の４,,35,213,7592212,,,2025-04-01,合併による解散等,5250001004301,令和７年４月１日山口県美祢市大嶺町東分１３４８番地の４株式会社大和建設（5250001004301）に合併し解散,2015-10-05,1,,,,,ダイワサンギョウ,0
2578,8290001038160,登記記録の閉鎖等,0,2025-04-09,2025-03-24,粕屋長田倉庫株式会社,,株式会社,福岡県,糟屋郡粕屋町,大字戸原８５４番地,,40,349,8112312,,,2025-03-24,清算の結了等,,,2015-10-05,1,,,,,カスヤナガタソウコ,0
2619,8430001081699,登記記録の閉鎖等,0,2025-04-09,2025-04-01,株式会社ビミイ,,株式会社,北海道,札幌市北区,新琴似九条４丁目３番１号,,01,102,0010909,,,2025-04-01,清算の結了等,,,2020-06-15,1,,,,,ビミイ,0
2624,8430002007447,登記記録の閉鎖等,0,2025-04-09,2025-03-31,有限会社ジェムストーン,,有限会社,神奈川県,川崎市宮前区,西野川３丁目４２番２６－１０３号,,14,136,2160044,,,2025-03-31,清算の結了等,,,2015-10-05,1,,,,,ジェムストーン,0
2635,8490001005520,登記記録の閉鎖等,0,2025-04-09,2025-04-04,株式会社吾川興産,,株式会社,高知県,吾川郡仁淀川町,大崎１２２番地,,39,387,7811501,,,2025-04-04,合併による解散等,5490001006133,令和７年４月１日高知県土佐郡土佐町相川１０６９番地嶺北興産株式会社（5490001006133）に合併し解散,2015-10-05,1,,,,,アガワコウサン,0
2651,9010001230264,登記記録の閉鎖等,0,2025-04-09,2025-04-01,株式会社ＹＫホールディングス,,株式会社,東京都,千代田区,丸の内１丁目６番５号,,13,101,1000005,,,2025-04-01,合併による解散等,9010001238142,令和７年４月１日東京都中央区銀座七丁目１６番２１号ＧＥＮＳＥＮ　ＨＯＬＤＩＮＧＳ株式会社（9010001238142）に合併し解散,2022-10-21,1,,,,,ワイケーホールディングス,0
2668,9010101014170,登記記録の閉鎖等,0,2025-04-09,2025-04-07,株式会社ＮＥＸＵＳ,,株式会社,神奈川県,相模原市緑区,向原３丁目１３番１７号ＷｅｌｌＵｐＮｏｒｔｈ,,14,151,2520104,,,2025-04-07,清算の結了等,,,2020-05-07,1,,,,,ネクサス,0
2689,9011001109853,登記記録の閉鎖等,0,2025-04-09,2025-03-10,株式会社ニッポン・ハッピー・シェアリング,,株式会社,東京都,渋谷区,富ヶ谷１丁目１８番５号,,13,113,1510063,,,2025-03-10,清算の結了等,,,2016-03-04,1,,,,,ニッポンハッピーシェアリング,0
2703,9011105010899,登記記録の閉鎖等,0,2025-04-09,2025-03-25,一般社団法人アーティストサポートジャパン,,その他の設立登記法人,東京都,新宿区,西新宿３丁目３番１３号西新宿水間ビル６階,,13,104,1600023,,,2025-03-25,清算の結了等,,,2024-01-05,1,,,,,アーティストサポートジャパン,0
2708,9011402004595,登記記録の閉鎖等,0,2025-04-09,2025-04-02,有限会社サポート企画,,有限会社,東京都,板橋区,前野町５丁目１２番１４号,,13,119,1740063,,,2025-04-02,清算の結了等,,,2015-10-05,1,,,,,サポートキカク,0
2720,9013201003687,登記記録の閉鎖等,0,2025-04-09,2025-03-10,椿産業株式会社,,株式会社,東京都,目黒区,自由が丘１丁目２５番１４号,,13,110,1520035,,,2025-03-10,清算の結了等,,,2015-10-05,1,,,,,ツバキサンギョウ,0
2736,9021001051212,登記記録の閉鎖等,0,2025-04-09,2025-03-31,株式会社Ｋ・Ｓサービス,,株式会社,神奈川県,横浜市金沢区,幸浦２丁目１３番３２号,,14,108,2360003,,,2025-03-31,清算の結了等,,,2015-10-05,1,,,,,ケイエスサービス,0
2765,9040003007427,登記記録の閉鎖等,0,2025-04-09,2025-02-28,合同会社シルフィ,,合同会社,東京都,渋谷区,上原１丁目４２番９号,,13,113,1510064,,,2025-02-28,合併による解散等,1040003008358,令和７年２月２８日東京都渋谷区上原一丁目４２番９号合同会社ＮＳ企画（1040003008358）に合併し解散,2015-10-05,1,,,,,シルフィ,0
2786,9100001007397,登記記録の閉鎖等,0,2025-04-09,2025-04-02,信高商事株式会社,,株式会社,長野県,佐久市,野沢２１５番地２９,,20,217,3850053,,,2025-04-02,清算の結了等,,,2015-10-05,1,,,,,シンコウショウジ,0
2789,9100005000927,登記記録の閉鎖等,0,2025-04-09,2025-03-10,伊勢社,,その他の設立登記法人,長野県,長野市,戸隠栃原字浦ノ山６９４１番地,,20,201,3814104,,,2025-03-10,合併による解散等,1100005000959,令和７年３月１０日長野県長野市戸隠栃原字宮ノ前７５３５番地宮前神社（1100005000959）に合併し解散,2015-10-05,1,,,,,イセシャ,0
2790,9100005000935,登記記録の閉鎖等,0,2025-04-09,2025-03-10,金刀比羅神社,,その他の設立登記法人,長野県,長野市,戸隠栃原字宮ノ前７５３１番地,,20,201,3814104,,,2025-03-10,合併による解散等,1100005000959,令和７年３月１０日長野県長野市戸隠栃原字宮ノ前７５３５番地宮前神社（1100005000959）に合併し解散,2015-10-05,1,,,,,コトヒラジンジャ,0
2799,9120001181769,登記記録の閉鎖等,0,2025-04-09,2025-03-28,株式会社Ｌｅ・Ｒｅｖｅ,,株式会社,大阪府,大阪市中央区,南本町２丁目１－１サザンビル３０２号室,,27,128,5410054,,,2025-03-28,清算の結了等,,,2015-10-05,1,,,,,,0
2818,9120101035742,登記記録の閉鎖等,0,2025-04-09,2025-03-28,株式会社ＵＳ建築デザイン研究所,,株式会社,大阪府,大阪市中央区,島之内１丁目１番１４号三和ビル３１０,,27,128,5420082,,,2025-03-28,清算の結了等,,,2015-10-05,1,,,,,,0
2821,9120102020603,登記記録の閉鎖等,0,2025-04-09,2025-03-31,有限会社山下不動産,,有限会社,大阪府,富田林市,寺池台５丁目３番２６号,,27,214,5840073,,,2025-03-31,清算の結了等,,,2015-10-05,1,,,,,ヤマシタフドウサン,0
2824,9120902020257,登記記録の閉鎖等,0,2025-04-09,2025-04-04,有限会社ロゴ緑地,,有限会社,大阪府,豊中市,熊野町１丁目３番５号,,27,203,5600014,,,2025-04-04,清算の結了等,,,2015-10-05,1,,,,,ロゴリョクチ,0
2838,9140001043546,登記記録の閉鎖等,0,2025-04-09,2025-03-31,報徳産業株式会社,,株式会社,兵庫県,加古川市,加古川町大野１０８番地の２,,28,210,6750061,,,2025-03-31,清算の結了等,,,2015-10-05,1,,,,,ホウトクサンギョウ,0
2865,9180002013718,登記記録の閉鎖等,0,2025-04-09,2025-04-01,有限会社匠心工務店,,有限会社,愛知県,名古屋市南区,前浜通６丁目５２番地,,23,112,4570058,,,2025-04-01,清算の結了等,,,2015-10-05,1,,,,,タクシンコウムテン,0
2885,9200005007788,登記記録の閉鎖等,0,2025-04-09,2025-03-21,天理教美濃長瀬分教会,,その他の設立登記法人,岐阜県,美濃市,長瀬１９２番地の１,,21,207,5013782,,,2025-03-21,合併による解散等,3200005002118,令和７年３月２１日岐阜県山県市富永８３２番地天理教美國分教会（3200005002118）に合併し解散,2015-10-05,1,,,,,テンリキョウミノナガセブンキョウカイ,0
2886,9200005009487,登記記録の閉鎖等,0,2025-04-09,2025-04-01,日蓮宗立正法行教会,,その他の設立登記法人,岐阜県,恵那市,上矢作町小田子３９７番地の２,,21,210,5097513,,,2025-04-01,清算の結了等,,,2015-10-05,1,,,,,ニチレンシュウリッショウホウギョウキョウカイ,0
2934,9370001047870,登記記録の閉鎖等,0,2025-04-09,2025-03-17,ＣＨＩＬＬ株式会社,,株式会社,宮城県,仙台市青葉区,上杉３丁目３番２１号上杉ＮＳビル３－Ｂ,,04,101,9800011,,,2025-03-17,合併による解散等,8370001040174,令和７年３月１７日仙台市青葉区上杉三丁目３番２１号上杉ＮＳビル３－Ｂ株式会社ＮＥＸＵＳ（8370001040174）に合併し解散,2021-11-22,1,,,,,チル,0
2936,9370105001360,登記記録の閉鎖等,0,2025-04-09,2025-03-11,天理教宮分教会,,その他の設立登記法人,宮城県,白石市,字銚子ケ森７１番地６,,04,206,9890229,,,2025-03-11,合併による解散等,3370105001358,令和７年３月１１日宮城県白石市沢端町９番１９号天理教刈田分教会（3370105001358）に合併し解散,2015-10-05,1,,,,,テンリキョウミヤブンキョウカイ,0
2938,9370202003508,登記記録の閉鎖等,0,2025-04-09,2025-03-27,有限会社テルイ,,有限会社,宮城県,大崎市,鹿島台平渡字佐野前３番地の１,,04,215,9894103,,,2025-03-27,清算の結了等,,,2015-10-05,1,,,,,テルイ,0
2944,9380005003092,登記記録の閉鎖等,0,2025-04-09,2025-03-19,日本聖公会郡山聖ペテロ聖パウロ教会,,その他の設立登記法人,福島県,郡山市,麓山２丁目９番２３号,,07,203,9638876,,,2025-03-19,合併による解散等,7370005000662,令和７年２月６日仙台市青葉区国分町二丁目１３番１５号日本聖公会東北教区（7370005000662）に合併し解散,2015-10-05,1,,,,,,0
2952,9410002013082,登記記録の閉鎖等,0,2025-04-09,2025-04-02,有限会社新栄施設工業,,有限会社,秋田県,横手市,婦気大堤字谷地添２７番地,,05,203,0130063,,,2025-04-02,清算の結了等,,,2015-10-05,1,,,,,シンエイシセツコウギョウ,0
2968,9500005003476,登記記録の閉鎖等,0,2025-04-09,2025-03-21,天理教大恵媛分教会,,その他の設立登記法人,愛媛県,八幡浜市,松柏字新開甲３５番地２１,,38,204,7960010,,,2025-03-21,合併による解散等,2500005003557,令和７年３月２１日愛媛県西宇和郡伊方町二名津１６３０番地天理教三崎島分教会（2500005003557）に合併し解散,2015-10-05,1,,,,,テンリキョウオオエヒメブンキョウカイ,0
