sequenceNumber,corporateNumber,process,correct,updateDate,changeDate,name,nameImageId,kind,prefectureName,cityName,streetNumber,addressImageId,prefectureCode,cityCode,postCode,addressOutside,addressOutsideImageId,closeDate,closeCause,successorCorporateNumber,changeCause,assignmentDate,latest,enName,enPrefectureName,enCityName,enAddressOutside,furigana,hihyoji
2,1010001103659,登記記録の閉鎖等,0,2026-02-18,2026-01-30,株式会社東日本朝日販売ホールディング,,株式会社,東京都,中央区,築地５丁目３番２号,,13,102,1040045,,,2026-01-30,清算の結了等,,,2015-10-05,1,,,,,ヒガシニホンアサヒハンバイホールディング,0
3,1010001226963,登記記録の閉鎖等,0,2026-02-18,2026-01-27,ＢＬＯＯＭ株式会社,,株式会社,東京都,中央区,築地２丁目１番２号秀和築地レジデンス７１０号,,13,102,1040045,,,2026-01-27,清算の結了等,,,2022-05-31,1,,,,,ブルーム,0
13,1010003029646,登記記録の閉鎖等,0,2026-02-18,2025-12-19,合同会社ウィンドフォース,,合同会社,東京都,千代田区,神田神保町１丁目３８番地２アイルイムーブル御茶ノ水１２０２号,,13,101,1010051,,,2025-12-19,清算の結了等,,,2019-04-12,1,,,,,ウィンドフォース,0
16,1010005035106,登記記録の閉鎖等,0,2026-02-18,2026-02-16,一般社団法人アセットファイナンス福岡中洲,,その他の設立登記法人,東京都,中央区,京橋２丁目７番１９号,,13,102,1040031,,,2026-02-16,清算の結了等,,,2022-06-07,1,,,,,アセットファイナンスフクオカナカス,0
37,1011001030612,登記記録の閉鎖等,0,2026-02-18,2026-01-26,株式会社スターシップ,,株式会社,東京都,渋谷区,円山町２２番１２号ライオンズマンション渋谷道玄坂６０５号室,,13,113,1500044,,,2026-01-26,清算の結了等,,,2015-10-05,1,,,,,スターシップ,0
42,1011005010619,登記記録の閉鎖等,0,2026-02-18,2026-01-23,一般社団法人大津ビル,,その他の設立登記法人,東京都,渋谷区,神宮前１丁目５番８号,,13,113,1500001,,,2026-01-23,清算の結了等,,,2024-07-29,1,,,,,オオツビル,0
61,1011701001706,登記記録の閉鎖等,0,2026-02-18,2026-02-04,株式会社大兼,,株式会社,東京都,江戸川区,西葛西２丁目１２番１０号,,13,123,1340088,,,2026-02-04,清算の結了等,,,2015-10-05,1,,,,,ダイケン,0
67,1011802001381,登記記録の閉鎖等,0,2026-02-18,2026-02-16,有限会社大島事務所,,有限会社,東京都,葛飾区,金町２丁目１６番６号,,13,122,1250042,,,2026-02-16,清算の結了等,,,2015-10-05,1,,,,,オオシマジムショ,0
84,1021002018936,登記記録の閉鎖等,0,2026-02-18,2026-01-28,有限会社オフィストゥエンティワン斎藤,,有限会社,神奈川県,相模原市緑区,橋本６丁目４番１２号,,14,151,2520143,,,2026-01-28,清算の結了等,,,2015-10-05,1,,,,,,0
96,1030001121196,登記記録の閉鎖等,0,2026-02-18,2026-02-09,株式会社エリウス,,株式会社,埼玉県,幸手市,香日向３丁目１０番１６号,,11,240,3400164,,,2026-02-09,清算の結了等,,,2017-07-11,1,,,,,エリウス,0
103,1030002029323,登記記録の閉鎖等,0,2026-02-18,2026-02-09,有限会社彩輝工房,,有限会社,埼玉県,所沢市,東所沢４丁目１９番地の１,,11,208,3590021,,,2026-02-09,清算の結了等,,,2015-10-05,1,,,,,サイキコウボウ,0
104,1030002050015,登記記録の閉鎖等,0,2026-02-18,2026-02-09,有限会社村田工業所,,有限会社,埼玉県,三郷市,中央２丁目１７番地９,,11,237,3410038,,,2026-02-09,清算の結了等,,,2015-10-05,1,,,,,ムラタコウギョウショ,0
106,1030002091711,登記記録の閉鎖等,0,2026-02-18,2026-02-09,有限会社ベスト,,有限会社,埼玉県,吉川市,中野３９０番１号,,11,243,3420042,,,2026-02-09,清算の結了等,,,2015-10-05,1,,,,,ベスト,0
116,1040002034512,登記記録の閉鎖等,0,2026-02-18,2026-02-10,有限会社シムラ,,有限会社,千葉県,市川市,南大野３丁目１番３３号,,12,203,2720804,,,2026-02-10,清算の結了等,,,2015-10-05,1,,,,,シムラ,0
118,1040002085679,登記記録の閉鎖等,0,2026-02-18,2026-01-15,有限会社たまる,,有限会社,千葉県,銚子市,東芝町１番地１１,,12,202,2880043,,,2026-01-15,清算の結了等,,,2015-10-05,1,,,,,タマル,0
122,1050002037670,登記記録の閉鎖等,0,2026-02-18,2026-02-12,有限会社桜井測量事務所,,有限会社,茨城県,牛久市,柏田町３０４７番地２８,,08,219,3001211,,,2026-02-12,清算の結了等,,,2015-10-05,1,,,,,サクライソクリョウジムショ,0
148,1120001266107,登記記録の閉鎖等,0,2026-02-18,2026-02-13,株式会社真心,,株式会社,大阪府,大阪市北区,西天満６丁目２－１４－１０５,,27,127,5300047,,,2026-02-13,清算の結了等,,,2024-06-21,1,,,,,マゴコロ,0
163,1120902011338,登記記録の閉鎖等,0,2026-02-18,2026-02-10,有限会社マツダ,,有限会社,大阪府,高槻市,日吉台三番町１番２２号,,27,207,5691022,,,2026-02-10,清算の結了等,,,2015-10-05,1,,,,,マツダ,0
173,1140001041409,登記記録の閉鎖等,0,2026-02-18,2026-02-04,株式会社ステラモーダ,,株式会社,兵庫県,丹波市,氷上町上成松字宮ノ下２２８番５号,,28,223,6693606,,,2026-02-04,清算の結了等,,,2015-10-05,1,,,,,ステラモーダ,0
177,1140002069515,登記記録の閉鎖等,0,2026-02-18,2026-02-10,進明汽船有限会社,,有限会社,兵庫県,淡路市,岩屋６５１番地の１,,28,226,6562401,,,2026-02-10,清算の結了等,,,2015-10-05,1,,,,,シンメイキセン,0
178,1140005025341,登記記録の閉鎖等,0,2026-02-18,2026-02-17,特定非営利活動法人Ｐ．Ｉ．Ｅ．ＧＲＯＵＰ．ＳＡＮＤＡ,,その他の設立登記法人,兵庫県,三田市,駅前町３－１０ルネ三田駅前ハートシティー１３０９号,,28,219,6691528,,,2026-02-17,清算の結了等,,,2020-10-22,1,,,,,ピーアイイーグループサンダ,0
190,1180005019067,登記記録の閉鎖等,0,2026-02-18,2026-02-10,特定非営利活動法人ありがとうと感謝の国,,その他の設立登記法人,愛知県,半田市,雁宿町３丁目２０３番地の４パークサイド雁宿１号館１０１号,,23,205,4750918,,,2026-02-10,清算の結了等,,,2020-12-18,1,,,,,アリガトウトカンシャノクニ,0
191,1180303006601,登記記録の閉鎖等,0,2026-02-18,2026-02-16,合同会社翡翠,,合同会社,愛知県,豊橋市,西浜町２２－９,,23,201,4410156,,,2026-02-16,清算の結了等,,,2025-06-06,1,,,,,ヒスイ,0
199,1250002019905,登記記録の閉鎖等,0,2026-02-18,2026-02-13,有限会社若嶋モータース,,有限会社,山口県,柳井市,伊陸２５７３番地の９,,35,212,7420201,,,2026-02-13,清算の結了等,,,2015-10-05,1,,,,,ワカシマモータース,0
202,1270002001919,登記記録の閉鎖等,0,2026-02-18,2026-02-17,有限会社山口タンス店,,有限会社,鳥取県,鳥取市,二階町１丁目１１２番地,,31,201,6800033,,,2026-02-17,清算の結了等,,,2015-10-05,1,,,,,,0
204,1290001015777,登記記録の閉鎖等,0,2026-02-18,2026-02-10,株式会社はかたカネ又,,株式会社,福岡県,福岡市博多区,築港本町５番６号,,40,132,8120021,,,2026-02-10,清算の結了等,,,2015-10-05,1,,,,,ハカタカネマタ,0
215,1290003014439,登記記録の閉鎖等,0,2026-02-18,2026-02-13,合同会社Ｋ．Ｈ．Ｌ,,合同会社,福岡県,福岡市中央区,大名２丁目２番７号大名センタービル６Ｆ,,40,133,8100041,,,2026-02-13,清算の結了等,,,2023-10-05,1,,,,,ケイエイチエル,0
220,1290805009280,登記記録の閉鎖等,0,2026-02-18,2026-02-12,ヒューマンキャピタルサポート事業協同組合,,その他の設立登記法人,福岡県,福岡市中央区,大名２丁目１０番３１号,,40,133,8100041,,,2026-02-12,清算の結了等,,,2019-12-20,1,,,,,,0
229,1370001000498,登記記録の閉鎖等,0,2026-02-18,2026-02-13,エートー商事株式会社,,株式会社,宮城県,仙台市泉区,南光台２丁目１４番４３号,,04,105,9818003,,,2026-02-13,清算の結了等,,,2015-10-05,1,,,,,エートーショウジ,0
230,1370001044751,登記記録の閉鎖等,0,2026-02-18,2026-02-13,英建設株式会社,,株式会社,宮城県,仙台市泉区,上谷刈５丁目２７番２１号,,04,105,9813121,,,2026-02-13,清算の結了等,,,2019-08-14,1,,,,,ハナブサケンセツ,0
231,1380001011668,登記記録の閉鎖等,0,2026-02-18,2026-02-12,株式会社アクレーテク・パワトロシステム,,株式会社,福島県,石川郡古殿町,大字松川字大作５０番地,,07,505,9638304,,,2026-02-12,清算の結了等,,,2015-10-05,1,,,,,アクレーテクパワトロシステム,0
244,1490001007060,登記記録の閉鎖等,0,2026-02-18,2026-02-16,メドリーフ株式会社,,株式会社,高知県,宿毛市,萩原７番１６号,,39,208,7880005,,,2026-02-16,清算の結了等,,,2015-10-05,1,,,,,メドリーフ,0
260,2010003037342,登記記録の閉鎖等,0,2026-02-18,2026-02-06,合同会社ＡＬＥＲＯ６５,,合同会社,東京都,千代田区,神田錦町１丁目２１番１号,,13,101,1010054,,,2026-02-06,清算の結了等,,,2022-03-28,1,,,,,アレーロシックスティーファイブ,0
285,2010902013303,登記記録の閉鎖等,0,2026-02-18,2026-02-16,有限会社新井画廊,,有限会社,東京都,世田谷区,深沢４丁目３２番７－１０１号,,13,112,1580081,,,2026-02-16,清算の結了等,,,2015-10-05,1,,,,,アライガロウ,0
288,2011003017904,登記記録の閉鎖等,0,2026-02-18,2026-01-27,ＥＮ‐ＶＯＸ合同会社,,合同会社,東京都,渋谷区,神宮前６丁目２３番４号桑野ビル２階,,13,113,1500001,,,2026-01-27,清算の結了等,,,2023-11-20,1,,,,,エンボックス,0
298,2011705001775,登記記録の閉鎖等,0,2026-02-18,2026-02-05,一般社団法人ライフ,,その他の設立登記法人,東京都,江戸川区,東葛西６丁目４番１７号ＥＬＬＥ・ＰＬＡＮ５Ｆ,,13,123,1340084,,,2026-02-05,清算の結了等,,,2023-03-30,1,,,,,ライフ,0
317,2020005008398,登記記録の閉鎖等,0,2026-02-18,2026-02-04,特定非営利活動法人多摩食事サービスＷ．Ｃｏかりん,,その他の設立登記法人,神奈川県,川崎市多摩区,登戸２９７９番地,,14,135,2140014,,,2026-02-04,清算の結了等,,,2015-10-05,1,,,,,タマショクジサービスワーカーズコレクティブカリン,0
319,2021001001264,登記記録の閉鎖等,0,2026-02-18,2026-01-27,株式会社ダイアナコーポレーシヨン,,株式会社,神奈川県,藤沢市,小塚字前河内３９６番地,,14,205,2510013,,,2026-01-27,清算の結了等,,,2015-10-05,1,,,,,ダイアナコーポレーション,0
324,2021002066224,登記記録の閉鎖等,0,2026-02-18,2026-01-28,有限会社はたご,,有限会社,神奈川県,横須賀市,鴨居４丁目１２９６番地,,14,201,2390813,,,2026-01-28,清算の結了等,,,2015-10-05,1,,,,,ハタゴ,0
327,2030001127944,登記記録の閉鎖等,0,2026-02-18,2026-02-09,インクリース株式会社,,株式会社,埼玉県,坂戸市,本町７番２－８０６号ジェム坂戸グリーンアベニュー,,11,239,3500226,,,2026-02-09,清算の結了等,,,2018-10-24,1,,,,,インクリース,0
331,2030002004614,登記記録の閉鎖等,0,2026-02-18,2026-02-06,有限会社ケイエス建築企画,,有限会社,埼玉県,さいたま市西区,大字佐知川１３００番地の１１,,11,101,3310064,,,2026-02-06,清算の結了等,,,2015-10-05,1,,,,,ケイエスケンチクキカク,0
343,2040003014099,登記記録の閉鎖等,0,2026-02-18,2026-01-29,合同会社ミヤギ運輸,,合同会社,千葉県,船橋市,西船３丁目７番６－６０９号,,12,204,2730031,,,2026-01-29,清算の結了等,,,2019-10-01,1,,,,,ミヤギウンユ,0
346,2050001013275,登記記録の閉鎖等,0,2026-02-18,2026-02-12,魚音水産株式会社,,株式会社,茨城県,下妻市,下妻乙１２５９番地,,08,210,3040067,,,2026-02-12,清算の結了等,,,2015-10-05,1,,,,,ウオオトスイサン,0
359,2100001012809,登記記録の閉鎖等,0,2026-02-18,2026-02-16,株式会社エコマティクス,,株式会社,長野県,松本市,埋橋１丁目１番６号,,20,202,3900813,,,2026-02-16,清算の結了等,,,2015-10-05,1,,,,,エコマティクス,0
362,2100001019143,登記記録の閉鎖等,0,2026-02-18,2026-02-10,株式会社カチタスアドバイザリーサービス,,株式会社,長野県,茅野市,豊平５３３５番地,,20,214,3910213,,,2026-02-10,合併による解散等,4010001159756,令和８年１月１日東京都中央区八重洲二丁目４番１号常和八重洲ビル株式会社アシスト（4010001159756）に合併し解散,2015-10-05,1,,,,,カチタスアドバイザリーサービス,0
367,2110005002490,登記記録の閉鎖等,0,2026-02-18,2026-02-10,医療法人社団広沢医院,,その他の設立登記法人,新潟県,新潟市西蒲区,和納２丁目３０番１１号,,15,108,9530125,,,2026-02-10,清算の結了等,,,2015-10-05,1,,,,,ヒロサワイイン,0
376,2120001245299,登記記録の閉鎖等,0,2026-02-18,2026-02-16,ニッゴ株式会社,,株式会社,大阪府,大阪市西成区,梅南２丁目２番２６号２０２号室,,27,122,5570033,,,2026-02-16,清算の結了等,,,2022-04-20,1,,,,,ニッゴ,0
394,2120102026359,登記記録の閉鎖等,0,2026-02-18,2026-02-03,有限会社阪南サービス,,有限会社,大阪府,和泉市,緑ケ丘１丁目５番１６号,,27,219,5941155,,,2026-02-03,合併による解散等,1120101022310,令和８年１月３１日大阪府堺市堺区旭ヶ丘南町一丁１番３１号阪南車体整備株式会社（1120101022310）に合併し解散,2015-10-05,1,,,,,ハンナンサービス,0
420,2180001159361,登記記録の閉鎖等,0,2026-02-18,2026-02-12,ｋ２ｙ．株式会社,,株式会社,愛知県,名古屋市中区,丸の内３丁目１０番１２号,,23,106,4600002,,,2026-02-12,清算の結了等,,,2023-12-14,1,,,,,ケーツーワイ,0
424,2180002038465,登記記録の閉鎖等,0,2026-02-18,2026-02-12,有限会社アイテック,,有限会社,愛知県,津島市,錦町２９番地,,23,208,4960802,,,2026-02-12,清算の結了等,,,2015-10-05,1,,,,,アイテック,0
425,2180002085210,登記記録の閉鎖等,0,2026-02-18,2026-02-10,有限会社山本鈑金,,有限会社,愛知県,大府市,横根町坊主山１番地の５５８,,23,223,4740011,,,2026-02-10,清算の結了等,,,2015-10-05,1,,,,,ヤマモトバンキン,0
427,2180002091456,登記記録の閉鎖等,0,2026-02-18,2026-02-16,有限会社一丸,,有限会社,愛知県,あま市,甚目寺山之浦９４番地の１,,23,237,4901111,,,2026-02-16,清算の結了等,,,2015-10-05,1,,,,,イチマル,0
433,2230001019923,登記記録の閉鎖等,0,2026-02-18,2026-02-13,インセンティブ株式会社,,株式会社,富山県,富山市,金山新東３‐１,,16,201,9302205,,,2026-02-13,清算の結了等,,,2023-07-19,1,,,,,インセンティブ,0
438,2250002017230,登記記録の閉鎖等,0,2026-02-18,2026-02-06,有限会社山和工業,,有限会社,山口県,光市,大字岩田１７０番地の５,,35,210,7430103,,,2026-02-06,清算の結了等,,,2015-10-05,1,,,,,サンワコウギョウ,0
445,2260002011232,登記記録の閉鎖等,0,2026-02-18,2026-02-13,有限会社魚龍,,有限会社,岡山県,岡山市東区,瀬戸町万富６３４番地の３,,33,103,7090841,,,2026-02-13,清算の結了等,,,2015-10-05,1,,,,,ウオリュウ,0
448,2290001087213,登記記録の閉鎖等,0,2026-02-18,2026-02-13,株式会社旭合,,株式会社,福岡県,福岡市博多区,博多駅前４丁目３３－７,,40,132,8120011,,,2026-02-13,清算の結了等,,,2019-11-20,1,,,,,キョクゴウ,0
450,2290002002014,登記記録の閉鎖等,0,2026-02-18,2026-02-09,有限会社ケイデザインオフィス,,有限会社,福岡県,太宰府市,国分５丁目２１番８号,,40,221,8180132,,,2026-02-09,清算の結了等,,,2015-10-05,1,,,,,ケイデザインオフィス,0
451,2290002040088,登記記録の閉鎖等,0,2026-02-18,2026-02-13,有限会社福岡部品販売,,有限会社,福岡県,大野城市,御笠川３丁目１０番３号,,40,219,8160912,,,2026-02-13,清算の結了等,,,2015-10-05,1,,,,,フクオカブヒンハンバイ,0
477,2430002027921,登記記録の閉鎖等,0,2026-02-18,2026-02-12,有限会社横川塗装,,有限会社,北海道,札幌市東区,伏古八条３丁目８番２７号,,01,103,0070868,,,2026-02-12,清算の結了等,,,2015-10-05,1,,,,,ヨコカワトソウ,0
479,2470002002301,登記記録の閉鎖等,0,2026-02-18,2026-02-17,有限会社木村工作所,,有限会社,香川県,高松市,木太町２８５０番地５,,37,201,7600080,,,2026-02-17,清算の結了等,,,2015-10-05,1,,,,,キムラコウサクショ,0
483,2490005006826,登記記録の閉鎖等,0,2026-02-18,2026-02-16,一般社団法人しまんとのわ,,その他の設立登記法人,高知県,高岡郡四万十町,大正中津川７０５番地３,,39,412,7860316,,,2026-02-16,清算の結了等,,,2022-02-22,1,,,,,シマントノワ,0
486,3010001131947,登記記録の閉鎖等,0,2026-02-18,2026-02-16,マーキュリー株式会社,,株式会社,東京都,荒川区,荒川１丁目１４番１２号,,13,118,1160002,,,2026-02-16,清算の結了等,,,2015-10-05,1,,,,,マーキュリー,0
501,3010401085339,登記記録の閉鎖等,0,2026-02-18,2026-01-26,株式会社ライトアベイル,,株式会社,神奈川県,横須賀市,野比２丁目１９番７号,,14,201,2390841,,,2026-01-26,清算の結了等,,,2015-10-05,1,,,,,ライトアベイル,0
520,3010501017753,登記記録の閉鎖等,0,2026-02-18,2026-02-05,東京総合情報機器株式会社,,株式会社,東京都,台東区,東上野３丁目３９番１０号光和ビル４０２号,,13,106,1100015,,,2026-02-05,清算の結了等,,,2015-10-05,1,,,,,トウキョウソウゴウジョウホウキキ,0
524,3010601000279,登記記録の閉鎖等,0,2026-02-18,2026-02-06,掛川商事株式会社,,株式会社,東京都,江東区,東陽１丁目２５番２号,,13,108,1350016,,,2026-02-06,清算の結了等,,,2015-10-05,1,,,,,カケガワショウジ,0
525,3010601013883,登記記録の閉鎖等,0,2026-02-18,2026-02-06,中園金属工業株式会社,,株式会社,東京都,墨田区,石原４丁目２５番２号,,13,107,1300011,,,2026-02-06,清算の結了等,,,2015-10-05,1,,,,,ナカゾノキンゾクコウギョウ,0
526,3010601059084,登記記録の閉鎖等,0,2026-02-18,2026-02-05,アークセラーズ株式会社,,株式会社,東京都,江東区,潮見２丁目８番１０号,,13,108,1350052,,,2026-02-05,合併による解散等,4011401014402,令和８年２月１日東京都江東区潮見二丁目８番１０号株式会社スマイル（4011401014402）に合併し解散,2021-04-08,1,,,,,アークセラーズ,0
529,3010801009269,登記記録の閉鎖等,0,2026-02-18,2026-02-05,株式会社ニツケン,,株式会社,東京都,大田区,大森北２丁目３番１５号ＮＫビル,,13,111,1430016,,,2026-02-05,清算の結了等,,,2015-10-05,1,,,,,ニッケン,0
542,3011201023521,登記記録の閉鎖等,0,2026-02-18,2026-01-26,株式会社Ｎｅｓｓｉｅ,,株式会社,東京都,渋谷区,渋谷２丁目７番６－２０２号グランリビオ表参道,,13,113,1500002,,,2026-01-26,清算の結了等,,,2022-01-07,1,,,,,ネッシー,0
545,3011501007901,登記記録の閉鎖等,0,2026-02-18,2026-02-16,都市興業株式会社,,株式会社,東京都,荒川区,東尾久６丁目１３番９号,,13,118,1160012,,,2026-02-16,清算の結了等,,,2015-10-05,1,,,,,トシコウギョウ,0
548,3011601013808,登記記録の閉鎖等,0,2026-02-18,2026-02-12,株式会社ビズソル,,株式会社,東京都,豊島区,東池袋１丁目１７番１１号パークハイツ池袋１１０５号,,13,116,1700013,,,2026-02-12,清算の結了等,,,2015-10-05,1,,,,,ビズソル,0
569,3020002024942,登記記録の閉鎖等,0,2026-02-18,2026-02-06,有限会社丸山工務店,,有限会社,神奈川県,横浜市保土ケ谷区,宮田町１丁目１１番１７号,,14,106,2400002,,,2026-02-06,清算の結了等,,,2015-10-05,1,,,,,マルヤマコウムテン,0
573,3021001040856,登記記録の閉鎖等,0,2026-02-18,2026-01-26,株式会社仁科,,株式会社,神奈川県,横須賀市,緑が丘３０番地,,14,201,2380018,,,2026-01-26,清算の結了等,,,2015-10-05,1,,,,,ニシナ,0
576,3021002058807,登記記録の閉鎖等,0,2026-02-18,2026-01-28,有限会社東香興業,,有限会社,神奈川県,平塚市,山下２丁目１４番６号,,14,203,2540911,,,2026-01-28,清算の結了等,,,2015-10-05,1,,,,,トウカコウギョウ,0
581,3030002002625,登記記録の閉鎖等,0,2026-02-18,2026-02-09,有限会社太田自動車工業,,有限会社,埼玉県,さいたま市緑区,大字南部領辻３６９８番地,00015903,11,109,3360973,,,2026-02-09,清算の結了等,,,2015-10-05,1,,,,,オオタジドウシャコウギョウ,0
582,3030002037729,登記記録の閉鎖等,0,2026-02-18,2026-02-09,門馬建興運輸有限会社,,有限会社,埼玉県,入間市,大字新久清水沢８２０番地５１号,,11,225,3580031,,,2026-02-09,清算の結了等,,,2015-10-05,1,,,,,モンマケンコウウンユ,0
599,3090001005466,登記記録の閉鎖等,0,2026-02-18,2026-02-13,株式会社ワイズ,,株式会社,山梨県,甲府市,住吉４丁目１番３３号,,19,201,4000851,,,2026-02-13,清算の結了等,,,2015-10-05,1,,,,,ワイズ,0
601,3100001025504,登記記録の閉鎖等,0,2026-02-18,2026-02-13,株式会社北原精機,,株式会社,長野県,諏訪郡下諏訪町,社６９９２番地７２,,20,361,3930000,,,2026-02-13,清算の結了等,,,2015-10-05,1,,,,,キタハラセイキ,0
607,3110002032606,登記記録の閉鎖等,0,2026-02-18,2026-02-10,有限会社アクシス,,有限会社,新潟県,南魚沼市,姥島新田２４０番地,,15,226,9496425,,,2026-02-10,清算の結了等,,,2015-10-05,1,,,,,アクシス,0
610,3120001017846,登記記録の閉鎖等,0,2026-02-18,2026-02-16,株式会社誠和,,株式会社,大阪府,大阪市生野区,新今里１丁目４番８号,,27,116,5440001,,,2026-02-16,清算の結了等,,,2015-10-05,1,,,,,セイワ,0
615,3120001135482,登記記録の閉鎖等,0,2026-02-18,2026-02-16,株式会社Ｔワークス,,株式会社,大阪府,大阪市生野区,巽北４丁目５番１号,00029189,27,116,5440004,,,2026-02-16,清算の結了等,,,2015-10-05,1,,,,,ティーワークス,0
626,3120101036110,登記記録の閉鎖等,0,2026-02-18,2026-02-03,泉印刷株式会社,,株式会社,大阪府,岸和田市,八阪町３丁目１９番３号,,27,202,5960049,,,2026-02-03,清算の結了等,,,2015-10-05,1,,,,,イズミインサツ,0
633,3130001035970,登記記録の閉鎖等,0,2026-02-18,2026-02-16,ＯＣＣ株式会社,,株式会社,京都府,亀岡市,宮前町神前弓縄手９番１,,26,206,6210242,,,2026-02-16,清算の結了等,,,2015-10-05,1,,,,,,0
636,3130002028214,登記記録の閉鎖等,0,2026-02-18,2026-02-12,有限会社のぞみ,,有限会社,京都府,宇治市,伊勢田町中山２４番地の２７,,26,204,6110043,,,2026-02-12,清算の結了等,,,2015-10-05,1,,,,,ノゾミ,0
638,3140001095717,登記記録の閉鎖等,0,2026-02-18,2026-02-16,株式会社村上ファーム,,株式会社,兵庫県,姫路市,夢前町前之庄１６６４番地,,28,201,6712103,,,2026-02-16,清算の結了等,,,2015-10-05,1,,,,,ムラカミファーム,0
653,3180002084871,登記記録の閉鎖等,0,2026-02-18,2026-02-13,有限会社スギヤマ建装,,有限会社,愛知県,大府市,北崎町井田１０番地の４,,23,223,4740001,,,2026-02-13,清算の結了等,,,2015-10-05,1,,,,,スギヤマケンソウ,0
654,3180003011750,登記記録の閉鎖等,0,2026-02-18,2026-02-13,合名会社八百正商店,,合名会社,愛知県,一宮市,奥町字大切前２１番地５,,23,203,4910201,,,2026-02-13,清算の結了等,,,2015-10-05,1,,,,,ヤオショウショウテン,0
663,3200002018901,登記記録の閉鎖等,0,2026-02-18,2026-02-12,有限会社中濃ミーリング,,有限会社,岐阜県,関市,のぞみケ丘２６番地,,21,205,5013219,,,2026-02-12,清算の結了等,,,2015-10-05,1,,,,,チュウノウミーリング,0
667,3210001007425,登記記録の閉鎖等,0,2026-02-18,2026-02-17,株式会社マルハヤ,,株式会社,福井県,坂井市,三国町加戸１２３の１番地,,18,210,9130002,,,2026-02-17,清算の結了等,,,2015-10-05,1,,,,,マルハヤ,0
681,3290001080209,登記記録の閉鎖等,0,2026-02-18,2026-02-10,株式会社ひきだし工務店,,株式会社,福岡県,福岡市南区,花畑２丁目２０番２１号,,40,134,8111356,,,2026-02-10,清算の結了等,,,2018-01-16,1,,,,,ヒキダシコウムテン,0
709,3430001032896,登記記録の閉鎖等,0,2026-02-18,2026-02-12,株式会社恵秋園,,株式会社,北海道,石狩市,花川南一条４丁目１６３番地,,01,235,0613201,,,2026-02-12,清算の結了等,,,2015-10-05,1,,,,,ケイシュウエン,0
715,3470001007333,登記記録の閉鎖等,0,2026-02-18,2026-02-13,クリエイテイブリッチ株式会社,,株式会社,香川県,丸亀市,山北町２５２番地１,,37,202,7630072,,,2026-02-13,清算の結了等,,,2015-10-05,1,,,,,クリエイテイブリッチ,0
722,4010001224056,登記記録の閉鎖等,0,2026-02-18,2026-01-28,株式会社プライベートポート,,株式会社,東京都,港区,虎ノ門４丁目１番１号,,13,103,1050001,,,2026-01-28,清算の結了等,,,2022-01-26,1,,,,,プライベートポート,0
727,4010003039064,登記記録の閉鎖等,0,2026-02-18,2026-01-30,内幸町キャピタル・ワンＤ合同会社,,合同会社,東京都,千代田区,内幸町２丁目１番６号,,13,101,1000011,,,2026-01-30,清算の結了等,,,2022-11-11,1,,,,,ウチサイワイチョウキャピタルワンディー,0
736,4010401165998,登記記録の閉鎖等,0,2026-02-18,2026-02-06,株式会社モンシーニュ,,株式会社,東京都,港区,南青山３丁目１０番４１号ジュエル青山ビル２０２号,,13,103,1070062,,,2026-02-06,合併による解散等,4120001179207,令和８年２月１日埼玉県さいたま市浦和区岸町４－１７－１株式会社エレファント（4120001179207）に合併し解散,2022-03-07,1,,,,,モンシーニュ,0
743,4010601005054,登記記録の閉鎖等,0,2026-02-18,2026-02-06,株式会社日修製作所,,株式会社,東京都,墨田区,緑２丁目２１番５号クレストフォルム両国７０３,,13,107,1300021,,,2026-02-06,清算の結了等,,,2015-10-05,1,,,,,ニッシュウセイサクショ,0
752,4010703003427,登記記録の閉鎖等,0,2026-02-18,2026-02-10,クロスオクト合同会社,,合同会社,東京都,品川区,旗の台５丁目２４番６号,,13,109,1420064,,,2026-02-10,清算の結了等,,,2017-01-11,1,,,,,クロスオクト,0
756,4010901010191,登記記録の閉鎖等,0,2026-02-18,2026-02-16,平岡板金株式会社,,株式会社,東京都,世田谷区,松原２丁目３７番２０号,,13,112,1560043,,,2026-02-16,清算の結了等,,,2015-10-05,1,,,,,ヒラオカバンキン,0
766,4011101085347,登記記録の閉鎖等,0,2026-02-18,2026-01-15,株式会社Ｓｔｕｄｅｎｔ　Ｆｉｒｓｔ,,株式会社,東京都,新宿区,高田馬場１丁目２８－１０バンフォーレ三慶ビル４階,,13,104,1690075,,,2026-01-15,清算の結了等,,,2018-09-10,1,,,,,スチューデントファースト,0
769,4011102024519,登記記録の閉鎖等,0,2026-02-18,2026-01-26,有限会社ティ・エス・ジィ,,有限会社,東京都,新宿区,西早稲田２丁目５番１３号７０１,,13,104,1690051,,,2026-01-26,清算の結了等,,,2015-10-05,1,,,,,ティエスジィ,0
770,4011102025954,登記記録の閉鎖等,0,2026-02-18,2026-02-09,有限会社ガットマンジャパン,,有限会社,東京都,中野区,若宮１丁目４３番１６－２０２号,,13,114,1650033,,,2026-02-09,清算の結了等,,,2015-10-05,1,,,,,ガットマンジャパン,0
776,4011601005754,登記記録の閉鎖等,0,2026-02-18,2026-02-13,株式会社光が丘新聞社,,株式会社,東京都,練馬区,光が丘２丁目１０番光が丘イマ東館,,13,120,1790072,,,2026-02-13,清算の結了等,,,2015-10-05,1,,,,,ヒカリガオカシンブンシャ,0
782,4011801005991,登記記録の閉鎖等,0,2026-02-18,2026-02-16,株式会社伊藤製作所,,株式会社,東京都,足立区,弘道１丁目３７番１２号,,13,121,1200013,,,2026-02-16,清算の結了等,,,2015-10-05,1,,,,,イトウセイサクジョ,0
793,4020001125303,登記記録の閉鎖等,0,2026-02-18,2026-02-03,ＫＯＫＡＤＯ．ＨＤＧ株式会社,,株式会社,神奈川県,横浜市西区,みなとみらい２丁目２番１号,,14,103,2200012,,,2026-02-03,合併による解散等,5010001250836,令和８年１月３０日神奈川県横浜市西区みなとみらい二丁目２番１号株式会社ＫＪホールディングス（5010001250836）に合併し解散,2018-03-02,1,,,,,コカドホールディングス,0
809,4030001076264,登記記録の閉鎖等,0,2026-02-18,2026-02-09,東都流通株式会社,,株式会社,埼玉県,川口市,南町２丁目８番１０号,,11,203,3320026,,,2026-02-09,清算の結了等,,,2015-10-05,1,,,,,トウトリュウツウ,0
820,4040001099470,登記記録の閉鎖等,0,2026-02-18,2026-01-23,リノヴェル株式会社,,株式会社,千葉県,四街道市,鷹の台３丁目４番１号,,12,228,2840033,,,2026-01-23,清算の結了等,,,2017-03-27,1,,,,,リノヴェル,0
821,4040001109403,登記記録の閉鎖等,0,2026-02-18,2026-01-15,株式会社オフライン,,株式会社,千葉県,浦安市,舞浜３丁目３番１３号,,12,227,2790031,,,2026-01-15,清算の結了等,,,2019-06-03,1,,,,,オフライン,0
839,4070001003363,登記記録の閉鎖等,0,2026-02-18,2026-02-16,株式会社ティーケイビー,,株式会社,群馬県,前橋市,三俣町１丁目１番地４,,10,201,3710018,,,2026-02-16,清算の結了等,,,2015-10-05,1,,,,,ティーケイビー,0
842,4080003001975,登記記録の閉鎖等,0,2026-02-18,2026-02-16,合同会社エス・エー・シー,,合同会社,静岡県,島田市,道悦４丁目１５番１１号,,22,209,4270019,,,2026-02-16,清算の結了等,,,2017-05-17,1,,,,,エスエーシー,0
843,4080401026392,登記記録の閉鎖等,0,2026-02-18,2026-02-12,カネジョウインターナショナル株式会社,,株式会社,静岡県,掛川市,上内田３５０番地の１,,22,213,4360012,,,2026-02-12,清算の結了等,,,2023-03-28,1,,,,,カネジョウインターナショナル,0
848,4110001026756,登記記録の閉鎖等,0,2026-02-18,2026-02-10,株式会社平沢スキー研究所,,株式会社,新潟県,魚沼市,小出島１２０９番地７２,,15,225,9460011,,,2026-02-10,清算の結了等,,,2015-10-05,1,,,,,ヒラサワスキーケンキュウジョ,0
853,4120001189271,登記記録の閉鎖等,0,2026-02-18,2026-02-16,株式会社ゴッドノース,,株式会社,兵庫県,神戸市長田区,片山町３丁目１１－２５－１,,28,106,6530805,,,2026-02-16,清算の結了等,,,2015-10-05,1,,,,,ゴッドノース,0
861,4120001278297,登記記録の閉鎖等,0,2026-02-18,2026-02-12,スペシャルミー株式会社,,株式会社,大阪府,大阪市北区,大淀南２丁目２番４３－３４０２号,,27,127,5310075,,,2026-02-12,清算の結了等,,,2025-08-01,1,,,,,スペシャルミー,0
866,4120003007497,登記記録の閉鎖等,0,2026-02-18,2026-02-13,合同会社カワムラ,,合同会社,大阪府,枚方市,伊加賀東町２番３７号,,27,210,5730058,,,2026-02-13,清算の結了等,,,2015-10-05,1,,,,,カワムラ,0
867,4120003021622,登記記録の閉鎖等,0,2026-02-18,2026-02-16,合同会社ＲＩＳＥ,,合同会社,大阪府,大阪市福島区,福島７丁目５番１３号,,27,103,5530003,,,2026-02-16,清算の結了等,,,2022-05-06,1,,,,,ライズ,0
868,4120003024518,登記記録の閉鎖等,0,2026-02-18,2026-02-12,合同会社ＮＥＸＴＭＡＴＣＨ,,合同会社,大阪府,大阪市中央区,谷町６丁目４番３８－２０５号,,27,128,5420012,,,2026-02-12,清算の結了等,,,2023-07-19,1,,,,,ネクストマッチ,0
910,4240001018567,登記記録の閉鎖等,0,2026-02-18,2026-02-12,東＆西メディカル株式会社,,株式会社,広島県,広島市中区,上八丁堀４番２８－７０３号,,34,101,7300012,,,2026-02-12,清算の結了等,,,2015-10-05,1,,,,,トウザイメディカル,0
915,4240002021413,登記記録の閉鎖等,0,2026-02-18,2026-02-13,有限会社西日本ウエック,,有限会社,広島県,広島市安佐南区,上安４丁目１１番２２号,,34,105,7310154,,,2026-02-13,清算の結了等,,,2015-10-05,1,,,,,ニシニホンウエック,0
924,4290001098423,登記記録の閉鎖等,0,2026-02-18,2026-02-03,株式会社ＲｅＷＯＲＫＳ,,株式会社,福岡県,小郡市,美鈴が丘５丁目１６番地１７,,40,216,8380101,,,2026-02-03,清算の結了等,,,2022-08-01,1,,,,,リワークス,0
937,4290003001847,登記記録の閉鎖等,0,2026-02-18,2026-02-06,合資会社野添理容所,,合資会社,福岡県,太宰府市,五条１丁目２番２７号,,40,221,8180125,,,2026-02-06,清算の結了等,,,2015-10-05,1,,,,,ノゾエリヨウショ,0
938,4290003016861,登記記録の閉鎖等,0,2026-02-18,2026-02-10,Ｍｉｓｔｂｒｉｄｇｅ合同会社,,合同会社,福岡県,福岡市南区,花畑３丁目３９番２６号２階,,40,134,8111356,,,2026-02-10,清算の結了等,,,2025-05-20,1,,,,,ミストブリッジ,0
965,4430002014959,登記記録の閉鎖等,0,2026-02-18,2026-02-12,有限会社日栄物産,,有限会社,北海道,札幌市白石区,米里四条３丁目１番３３号,,01,104,0030874,,,2026-02-12,清算の結了等,,,2015-10-05,1,,,,,ニチエイブッサン,0
973,4490002010168,登記記録の閉鎖等,0,2026-02-18,2026-02-12,有限会社ネットコム,,有限会社,高知県,土佐市,蓮池９６４番地３,,39,205,7811105,,,2026-02-12,合併による解散等,2490002010368,令和８年２月１１日高知県土佐市高岡町乙１４６番地株式会社ティーエヌコミュニケーション（2490002010368）に合併し解散,2015-10-05,1,,,,,ネットコム,0
986,5010001050955,登記記録の閉鎖等,0,2026-02-18,2026-02-02,立石ビジネスサービス株式会社,,株式会社,東京都,中央区,入船３丁目１番１３号,,13,102,1040042,,,2026-02-02,合併による解散等,7010001049574,令和８年２月１日東京都中央区入船三丁目１番１３号立石フィルター株式会社（7010001049574）に合併し解散,2015-10-05,1,,,,,タテイシビジネスサービス,0
988,5010001136861,登記記録の閉鎖等,0,2026-02-18,2026-02-13,栄方株式会社,,株式会社,東京都,豊島区,西池袋３丁目２５番５号高柳ビル１階,,13,116,1710021,,,2026-02-13,清算の結了等,,,2015-10-05,1,,,,,エイホウ,0
996,5010003038437,登記記録の閉鎖等,0,2026-02-18,2026-02-17,カルトワインズ合同会社,,合同会社,東京都,千代田区,丸の内１丁目８番３号丸の内トラストタワー本館２０Ｆ,,13,101,1000005,,,2026-02-17,清算の結了等,,,2022-08-25,1,,,,,カルトワインズ,0
1003,5010005004189,登記記録の閉鎖等,0,2026-02-18,2026-02-12,一般財団法人日本花普及センター,,その他の設立登記法人,東京都,中央区,東日本橋３丁目６番１７号山一ビル４Ｆ,,13,102,1030004,,,2026-02-12,清算の結了等,,,2015-10-05,1,,,,,ニホンハナフキュウセンター,0
1004,5010005033997,登記記録の閉鎖等,0,2026-02-18,2026-01-28,ＫＩＣあきる野特定目的会社,,その他の設立登記法人,東京都,港区,南青山４丁目２１番２６号リュエル青山Ｃ棟Ｂ１細谷総合会計事務所内,,13,103,1070062,,,2026-01-28,清算の結了等,,,2021-09-24,1,,,,,ケイアイシーアキルノ,0
1005,5010005034228,登記記録の閉鎖等,0,2026-02-18,2026-02-13,一般社団法人六本木リアルティ・ワン,,その他の設立登記法人,東京都,中央区,日本橋１丁目４番１号,,13,102,1030027,,,2026-02-13,清算の結了等,,,2021-11-19,1,,,,,ロッポンギリアルティワン,0
1018,5010405021313,登記記録の閉鎖等,0,2026-02-18,2026-02-06,成田特定目的会社,,その他の設立登記法人,東京都,港区,元赤坂１丁目１番７－１２０９号株式会社赤坂国際会計内,,13,103,1070051,,,2026-02-06,清算の結了等,,,2022-08-19,1,,,,,ナリタ,0
1034,5011001128312,登記記録の閉鎖等,0,2026-02-18,2026-01-27,株式会社シックスカレー,,株式会社,東京都,港区,三田３丁目９番１１号ＲａｎｄＬＴＡＫＡＮＡＷＡＧＡＴＥＷＡＹ５０６号室,,13,103,1080073,,,2026-01-27,合併による解散等,7010001161016,令和７年１２月２６日東京都港区三田三丁目９番１１号ＲａｎｄＬＴＡＫＡＮＡＷＡＧＡＴＥＷＡＹ５０６号室株式会社ニューピース（7010001161016）に合併し解散,2019-06-04,1,,,,,シックスカレー,0
1095,5050001041827,登記記録の閉鎖等,0,2026-02-18,2026-02-12,株式会社菅谷組,,株式会社,茨城県,鉾田市,汲上１８３７番地,,08,234,3112103,,,2026-02-12,清算の結了等,,,2016-11-11,1,,,,,スガヤグミ,0
1097,5050005012948,登記記録の閉鎖等,0,2026-02-18,2026-02-02,一般社団法人日本コンテナシステム開発協会,,その他の設立登記法人,茨城県,坂東市,半谷２２４番地１５,,08,228,3060651,,,2026-02-02,清算の結了等,,,2021-10-11,1,,,,,ニホンコンテナシステムカイハツキョウカイ,0
1111,5110002020492,登記記録の閉鎖等,0,2026-02-18,2026-02-09,有限会社笄地所,,有限会社,新潟県,柏崎市,東本町３丁目７番２５号,,15,205,9450051,,,2026-02-09,清算の結了等,,,2015-10-05,1,,,,,コウガイチショ,0
1112,5110005005425,登記記録の閉鎖等,0,2026-02-18,2026-02-05,農事組合法人藤の樹,,その他の設立登記法人,新潟県,北蒲原郡聖籠町,大字藤寄２６１番地,,15,307,9570127,,,2026-02-05,清算の結了等,,,2015-10-05,1,,,,,フジノキ,0
1130,5120101050191,登記記録の閉鎖等,0,2026-02-18,2026-02-04,株式会社ルーム,,株式会社,大阪府,富田林市,寺池台５丁目１番８号,,27,214,5840073,,,2026-02-04,清算の結了等,,,2015-10-05,1,,,,,ルーム,0
1134,5122001009037,登記記録の閉鎖等,0,2026-02-18,2026-02-16,株式会社グラティア,,株式会社,大阪府,東大阪市,菱屋西５丁目３番７号,,27,227,5770807,,,2026-02-16,清算の結了等,,,2015-10-05,1,,,,,グラティア,0
1137,5122002014878,登記記録の閉鎖等,0,2026-02-18,2026-02-04,有限会社ミコホーム,,有限会社,大阪府,八尾市,萱振町２丁目８７番地,,27,212,5810834,,,2026-02-04,清算の結了等,,,2015-10-05,1,,,,,ミコホーム,0
1168,5230001010631,登記記録の閉鎖等,0,2026-02-18,2026-02-12,株式会社西陣会舘,,株式会社,富山県,高岡市,東下関５番３号,,16,202,9330033,,,2026-02-12,清算の結了等,,,2015-10-05,1,,,,,ニシジンカイカン,0
1176,5260001032540,登記記録の閉鎖等,0,2026-02-18,2026-02-13,株式会社ＡＬＥＴＴＡ,,株式会社,岡山県,岡山市北区,問屋町１４－１０１ケーズテラス２０３,,33,101,7000977,,,2026-02-13,清算の結了等,,,2018-10-31,1,,,,,アレッタ,0
1184,5290001079034,登記記録の閉鎖等,0,2026-02-18,2026-02-10,株式会社ＶＡＮＧＶＩ,,株式会社,福岡県,福岡市博多区,博多駅前１丁目２３番２号ＰａｒｋＦｒｏｎｔ博多駅前１丁目５Ｆ－Ｂ,,40,132,8120011,,,2026-02-10,清算の結了等,,,2017-09-08,1,,,,,バンビ,0
1196,5320002014498,登記記録の閉鎖等,0,2026-02-18,2026-02-16,有限会社高田ミルクセンター,,有限会社,大分県,豊後高田市,草地８２７３番地の１,,44,209,8790601,,,2026-02-16,清算の結了等,,,2015-10-05,1,,,,,タカダミルクセンター,0
1198,5320003000605,登記記録の閉鎖等,0,2026-02-18,2026-02-16,平尾合同会社,,合同会社,大分県,別府市,浜脇２丁目８番７号,,44,202,8740947,,,2026-02-16,清算の結了等,,,2015-10-05,1,,,,,ヒラオ,0
1200,5340001018630,登記記録の閉鎖等,0,2026-02-18,2026-02-10,株式会社アイディイー,,株式会社,鹿児島県,志布志市,志布志町安楽２６９５番地２,,46,221,8997104,,,2026-02-10,清算の結了等,,,2015-10-05,1,,,,,アイディイー,0
1204,5370001045408,登記記録の閉鎖等,0,2026-02-18,2026-02-16,株式会社グリティアジャパン,,株式会社,宮城県,仙台市宮城野区,鶴ケ谷７丁目２３番地の５,,04,102,9830824,,,2026-02-16,清算の結了等,,,2020-02-12,1,,,,,グリティアジャパン,0
1205,5370002018073,登記記録の閉鎖等,0,2026-02-18,2026-02-13,有限会社澤電工,,有限会社,宮城県,仙台市泉区,歩坂町２８番２０号,,04,105,9813106,,,2026-02-13,清算の結了等,,,2015-10-05,1,,,,,サワデンコウ,0
1217,5460102007355,登記記録の閉鎖等,0,2026-02-18,2026-02-10,有限会社ａｉ,,有限会社,北海道,帯広市,西十二条南１３丁目１番地,,01,207,0800022,,,2026-02-10,清算の結了等,,,2015-10-05,1,,,,,アイ,0
1219,5480001010862,登記記録の閉鎖等,0,2026-02-18,2026-02-17,株式会社ＳＤＧｓサステナ,,株式会社,徳島県,徳島市,南田宮２丁目３番１０２号,,36,201,7700004,,,2026-02-17,清算の結了等,,,2019-12-09,1,,,,,エスディージーズサステナ,0
1223,5500002022788,登記記録の閉鎖等,0,2026-02-18,2026-02-16,有限会社純水,,有限会社,愛媛県,宇和島市,明倫町５丁目１番３号,,38,203,7980068,,,2026-02-16,清算の結了等,,,2015-10-05,1,,,,,ジュンスイ,0
1229,6010001119840,登記記録の閉鎖等,0,2026-02-18,2026-02-02,株式会社ブルマァク,,株式会社,東京都,文京区,小日向１丁目１番５号,,13,105,1120006,,,2026-02-02,清算の結了等,,,2015-10-05,1,,,,,ブルマアク,0
1247,6010005003165,登記記録の閉鎖等,0,2026-02-18,2026-02-12,一般社団法人全国石油業退職金共済会,,その他の設立登記法人,東京都,千代田区,永田町２丁目１７番１４号,,13,101,1000014,,,2026-02-12,清算の結了等,,,2015-10-05,1,,,,,ゼンコクセキユギョウタイショクキンキョウサイカイ,0
1273,6010503004400,登記記録の閉鎖等,0,2026-02-18,2026-02-09,希日合同会社,,合同会社,埼玉県,東松山市,五領町９番地３０,,11,212,3550031,,,2026-02-09,清算の結了等,,,2015-10-05,1,,,,,キヒ,0
1276,6010601012008,登記記録の閉鎖等,0,2026-02-18,2026-02-06,株式会社斎藤製作所,,株式会社,東京都,墨田区,京島２丁目４番３号１階,,13,107,1310046,,,2026-02-06,清算の結了等,,,2015-10-05,1,,,,,サイトウセイサクショ,0
1280,6010702009349,登記記録の閉鎖等,0,2026-02-18,2026-02-12,有限会社ジィー企画,,有限会社,東京都,品川区,南品川３丁目６番３号,,13,109,1400004,,,2026-02-12,清算の結了等,,,2015-10-05,1,,,,,ジィーキカク,0
1295,6011003014006,登記記録の閉鎖等,0,2026-02-18,2026-01-26,合同会社小学校受験対策室,,合同会社,東京都,渋谷区,道玄坂２丁目１５番１号ノア道玄坂１２４号室,,13,113,1500043,,,2026-01-26,清算の結了等,,,2022-01-18,1,,,,,ショウガッコウジュケンタイサクシツ,0
1315,6011801011162,登記記録の閉鎖等,0,2026-02-18,2026-02-16,株式会社白山ステンレス,,株式会社,東京都,足立区,椿２丁目２番１１号,,13,121,1230871,,,2026-02-16,清算の結了等,,,2015-10-05,1,,,,,シロヤマステンレス,0
1320,6012701016409,登記記録の閉鎖等,0,2026-02-18,2026-02-06,モエウハネ株式会社,,株式会社,東京都,東村山市,本町２丁目１２番地１サンライトビル３階,,13,213,1890014,,,2026-02-06,清算の結了等,,,2021-04-07,1,,,,,モエウハネ,0
1324,6013202001379,登記記録の閉鎖等,0,2026-02-18,2026-01-26,有限会社エルテ,,有限会社,東京都,目黒区,下目黒５丁目１３番１５号,,13,110,1530064,,,2026-01-26,清算の結了等,,,2015-10-05,1,,,,,エルテ,0
1325,6013301040633,登記記録の閉鎖等,0,2026-02-18,2026-01-23,株式会社トーヨー,,株式会社,千葉県,千葉市美浜区,高洲４丁目３番１棟８１１号,,12,106,2610004,,,2026-01-23,清算の結了等,,,2017-06-05,1,,,,,トーヨー,0
1339,6021002052419,登記記録の閉鎖等,0,2026-02-18,2026-01-26,有限会社宝商事,,有限会社,神奈川県,小田原市,荻窪３７２番地の２,,14,206,2500042,,,2026-01-26,清算の結了等,,,2015-10-05,1,,,,,,0
1341,6030001061124,登記記録の閉鎖等,0,2026-02-18,2026-02-09,株式会社ダックス・ベリー,,株式会社,埼玉県,児玉郡美里町,大字広木１１７番地,,11,381,3670118,,,2026-02-09,清算の結了等,,,2015-10-05,1,,,,,ダックスベリー,0
1344,6030001158754,登記記録の閉鎖等,0,2026-02-18,2026-02-09,株式会社ロックホース,,株式会社,埼玉県,川越市,六軒町１丁目２０番地３レーベン川越六軒町６０１,,11,201,3500041,,,2026-02-09,清算の結了等,,,2024-02-16,1,,,,,ロックホース,0
1351,6040001033097,登記記録の閉鎖等,0,2026-02-18,2026-01-26,株式会社ＭＡＹＵＲＡ５３,,株式会社,千葉県,市川市,福栄３丁目１５番１１号,,12,203,2720137,,,2026-01-26,清算の結了等,,,2015-10-05,1,,,,,マユラゴジュウサン,0
1362,6050005007154,登記記録の閉鎖等,0,2026-02-18,2026-02-10,多賀商業協同組合,,その他の設立登記法人,茨城県,日立市,千石町１丁目３番２号,,08,202,3160013,,,2026-02-10,清算の結了等,,,2015-10-05,1,,,,,タガショウギョウ,0
1363,6080001012056,登記記録の閉鎖等,0,2026-02-18,2026-02-12,ＰＦＩ静岡市南部学校給食センター株式会社,,株式会社,静岡県,静岡市清水区,横砂南町３番１８号,,22,103,4240035,,,2026-02-12,清算の結了等,,,2015-10-05,1,,,,,ピーエフアイシズオカシナンブガッコウキュウショクセンター,0
1366,6080003002212,登記記録の閉鎖等,0,2026-02-18,2026-02-16,合同会社直吉,,合同会社,静岡県,静岡市駿河区,小鹿９０３番地の８,,22,102,4228021,,,2026-02-16,清算の結了等,,,2019-01-08,1,,,,,ナオヨシ,0
1369,6090001007105,登記記録の閉鎖等,0,2026-02-18,2026-02-13,マネーサポート株式会社,,株式会社,山梨県,甲府市,城東２丁目１７番８号,,19,201,4000861,,,2026-02-13,清算の結了等,,,2015-10-05,1,,,,,マネーサポート,0
1371,6100002015393,登記記録の閉鎖等,0,2026-02-18,2026-02-13,有限会社アトリエ夢の建人,,有限会社,長野県,上田市,上田原６８７番地１４,,20,203,3861102,,,2026-02-13,清算の結了等,,,2015-10-05,1,,,,,アトリエユメノタツジン,0
1375,6110005016314,登記記録の閉鎖等,0,2026-02-18,2026-01-30,一般社団法人ＣＯＣＯＮＯＷＡ,,その他の設立登記法人,新潟県,新潟市東区,柳ケ丘２番１４号,,15,102,9500809,,,2026-01-30,清算の結了等,,,2018-10-22,1,,,,,ココノワ,0
1378,6120001165221,登記記録の閉鎖等,0,2026-02-18,2026-02-16,インフォメーションメール株式会社,,株式会社,大阪府,大阪市中央区,博労町２丁目４番１１号中博ビル３階,,27,128,5410059,,,2026-02-16,清算の結了等,,,2015-10-05,1,,,,,インフォメーションメール,0
1388,6120003025737,登記記録の閉鎖等,0,2026-02-18,2026-02-12,安然合同会社,,合同会社,大阪府,大阪市生野区,巽北１丁目２１－２９－８１９号,,27,116,5440004,,,2026-02-12,清算の結了等,,,2024-02-02,1,,,,,アンゼン,0
1404,6130001018601,登記記録の閉鎖等,0,2026-02-18,2026-02-16,株式会社フィルノット,,株式会社,京都府,乙訓郡大山崎町,字大山崎小字谷田７７番地６０,,26,303,6180071,,,2026-02-16,清算の結了等,,,2015-10-05,1,,,,,フィルノット,0
1410,6130002020523,登記記録の閉鎖等,0,2026-02-18,2026-02-16,有限会社マグモレー,,有限会社,京都府,京都市山科区,椥辻西浦町４１番地の８５椥辻団地Ｂ棟４１８,00037640,26,110,6078169,,,2026-02-16,清算の結了等,,,2015-10-05,1,,,,,,0
1428,6180001160349,登記記録の閉鎖等,0,2026-02-18,2026-02-05,Ｕｐｄｒａｆｔ株式会社,,株式会社,愛知県,名古屋市東区,葵１丁目２０５シティタワー葵１４０８号室,,23,102,4610004,,,2026-02-05,清算の結了等,,,2024-03-04,1,,,,,アップドラフト,0
1447,6240002006453,登記記録の閉鎖等,0,2026-02-18,2026-02-12,有限会社三英溶接工業所,,有限会社,広島県,広島市西区,己斐中２丁目１２番３０号,,34,104,7330813,,,2026-02-12,清算の結了等,,,2015-10-05,1,,,,,サンエイヨウセツコウギョウショ,0
1462,6290001098132,登記記録の閉鎖等,0,2026-02-18,2026-02-09,株式会社上田設備設計,,株式会社,福岡県,福岡市東区,美和台１丁目８－２３,,40,131,8110212,,,2026-02-09,清算の結了等,,,2022-07-06,1,,,,,ウエダセツビセッケイ,0
1472,6290802015863,登記記録の閉鎖等,0,2026-02-18,2026-01-23,有限会社北九州エコグリーン,,有限会社,福岡県,北九州市八幡西区,萩原２丁目１２番２６号,,40,109,8060059,,,2026-01-23,清算の結了等,,,2015-10-05,1,,,,,キタキュウシュウエコグリーン,0
1490,6380001014476,登記記録の閉鎖等,0,2026-02-18,2026-02-13,株式会社クレストヒルズ,,株式会社,福島県,いわき市,渡辺町上釜戸字橋ノ上２１６番地,,07,204,9728336,,,2026-02-13,清算の結了等,,,2015-10-05,1,,,,,クレストヒルズ,0
1494,6400002010471,登記記録の閉鎖等,0,2026-02-18,2026-02-12,有限会社相広水産,,有限会社,岩手県,宮古市,高浜２丁目１番２０号,,03,202,0270032,,,2026-02-12,清算の結了等,,,2015-10-05,1,,,,,アイコウスイサン,0
1495,6410001008243,登記記録の閉鎖等,0,2026-02-18,2025-10-22,株式会社ホンダ販売秋田南,,株式会社,秋田県,大仙市,豊川字北村街道ノ上２２番地の４,,05,212,0140711,,,2025-10-22,合併による解散等,6400601000286,令和７年１０月１日岩手県奥州市水沢佐倉河字沼田６９番地株式会社ホンダ四輪販売中央東北（6400601000286）に合併し解散,2015-10-05,1,,,,,ホンダハンバイアキタミナミ,0
1503,6490002000588,登記記録の閉鎖等,0,2026-02-18,2026-02-17,アルプス測量有限会社,,有限会社,高知県,高知市,越前町２丁目５番２５号エステートカトウビル２Ｆ,,39,201,7800928,,,2026-02-17,清算の結了等,,,2015-10-05,1,,,,,アルプスソクリョウ,0
1516,7010005035050,登記記録の閉鎖等,0,2026-02-18,2026-02-13,ローズ特定目的会社,,その他の設立登記法人,東京都,千代田区,丸の内１丁目８番２号鉄鋼ビルディング４階,,13,101,1000005,,,2026-02-13,清算の結了等,,,2022-05-25,1,,,,,ローズ,0
1518,7010101006401,登記記録の閉鎖等,0,2026-02-18,2026-02-16,株式会社草野製作所,,株式会社,東京都,八王子市,大塚７８３番地の３,,13,201,1920352,,,2026-02-16,清算の結了等,,,2015-10-05,1,,,,,クサノセイサクショ,0
1559,7011005010745,登記記録の閉鎖等,0,2026-02-18,2026-01-23,一般社団法人清和産業,,その他の設立登記法人,東京都,渋谷区,神宮前１丁目５番８号,,13,113,1500001,,,2026-01-23,清算の結了等,,,2024-10-28,1,,,,,セイワサンギョウ,0
1570,7013101005810,登記記録の閉鎖等,0,2026-02-18,2026-02-12,株式会社エース,,株式会社,東京都,昭島市,緑町５丁目５番２３号,,13,207,1960004,,,2026-02-12,清算の結了等,,,2015-10-05,1,,,,,エース,0
1590,7021002038251,登記記録の閉鎖等,0,2026-02-18,2026-01-27,有限会社東光商会,,有限会社,神奈川県,秦野市,寿町１番２６号,,14,211,2570042,,,2026-01-27,清算の結了等,,,2015-10-05,1,,,,,トウコウショウカイ,0
1591,7021002048465,登記記録の閉鎖等,0,2026-02-18,2026-01-27,立花企画有限会社,,有限会社,神奈川県,大和市,中央林間１丁目１７番１９号,,14,213,2420007,,,2026-01-27,清算の結了等,,,2015-10-05,1,,,,,タチバナキカク,0
1592,7021002053804,登記記録の閉鎖等,0,2026-02-18,2026-01-26,有限会社増穂,,有限会社,神奈川県,小田原市,荻窪３７２番地の２,,14,206,2500042,,,2026-01-26,清算の結了等,,,2015-10-05,1,,,,,,0
1600,7030002056386,登記記録の閉鎖等,0,2026-02-18,2026-02-09,有限会社林構造設計事務所,,有限会社,埼玉県,北足立郡伊奈町,内宿台４丁目１４９番地,,11,301,3620812,,,2026-02-09,清算の結了等,,,2015-10-05,1,,,,,ハヤシコウゾウセッケイジムショ,0
1611,7040003016850,登記記録の閉鎖等,0,2026-02-18,2026-01-29,合同会社ＭＫリアルティ,,合同会社,千葉県,船橋市,西船３丁目７番６－６０９号,,12,204,2730031,,,2026-01-29,清算の結了等,,,2021-01-21,1,,,,,エムケーリアルティ,0
1620,7070002010942,登記記録の閉鎖等,0,2026-02-18,2026-02-13,有限会社宝屋マート,,有限会社,群馬県,高崎市,矢中町３１２番地の８,,10,202,3701203,,,2026-02-13,清算の結了等,,,2015-10-05,1,,,,,タカラヤマート,0
1627,7080401018949,登記記録の閉鎖等,0,2026-02-18,2026-02-12,株式会社ＺＥＮエンタープライズ,,株式会社,静岡県,浜松市浜名区,平口５２４７番地,,22,139,4340041,,,2026-02-12,清算の結了等,,,2015-10-05,1,,,,,ゼンエンタープライズ,0
1640,7120001281216,登記記録の閉鎖等,0,2026-02-18,2026-02-13,菊屋株式会社,,株式会社,大阪府,大阪市西成区,聖天下１丁目４番２９号－２０６,,27,122,5570012,,,2026-02-13,清算の結了等,,,2025-10-15,1,,,,,キクヤ,0
1656,7122001015611,登記記録の閉鎖等,0,2026-02-18,2026-02-06,昭和電機伊賀株式会社大阪工場,,株式会社,大阪府,大東市,新田北町１番２５号,,27,218,5740052,,,2026-02-06,清算の結了等,,,2015-10-05,1,,,,,ショウワデンキイガオオサカコウジョウ,0
1660,7130002006620,登記記録の閉鎖等,0,2026-02-18,2026-02-09,有限会社川手保険事務所,,有限会社,京都府,京都市北区,長乗西町１８８番地３,,26,101,6038154,,,2026-02-09,清算の結了等,,,2015-10-05,1,,,,,カワテホケンジムショ,0
1661,7130003007072,登記記録の閉鎖等,0,2026-02-18,2026-02-16,ＦｌａｍｉｎｇＪｕｎｅ合同会社,,合同会社,京都府,京都市中京区,新町通錦小路下る小結棚町４３５ジェイ・プライド四条烏丸６０１,,26,104,6048223,,,2026-02-16,清算の結了等,,,2021-03-03,1,,,,,フレイミングジューン,0
1683,7200001036314,登記記録の閉鎖等,0,2026-02-18,2026-02-09,株式会社暁,,株式会社,岐阜県,羽島市,福寿町平方９丁目１１番地,,21,209,5016257,,,2026-02-09,清算の結了等,,,2019-06-05,1,,,,,アカツキ,0
1695,7280002010681,登記記録の閉鎖等,0,2026-02-18,2026-02-16,有限会社清流苑,,有限会社,島根県,鹿足郡吉賀町,立河内３８番地３,,32,505,6995514,,,2026-02-16,清算の結了等,,,2015-10-05,1,,,,,セイリュウエン,0
1703,7290001104806,登記記録の閉鎖等,0,2026-02-18,2026-02-09,福申自動化設備株式会社,,株式会社,福岡県,福岡市早良区,田村３丁目１９番４６号,,40,137,8140175,,,2026-02-09,清算の結了等,,,2024-02-21,1,,,,,フクシンジドウカセツビ,0
1704,7290001105688,登記記録の閉鎖等,0,2026-02-18,2026-02-10,株式会社Ｅｑｕｉｔｙ　Ｆａｉｒｎｅｓｓ,,株式会社,福岡県,福岡市博多区,中洲３丁目４番７号博多バッカス館３階,,40,132,8100801,,,2026-02-10,清算の結了等,,,2024-05-02,1,,,,,エクイティフェアネス,0
1712,7320002013894,登記記録の閉鎖等,0,2026-02-18,2026-02-16,有限会社さとう薬局,,有限会社,大分県,宇佐市,大字江須賀４０４０番地の７,,44,211,8720032,,,2026-02-16,清算の結了等,,,2015-10-05,1,,,,,サトウヤッキョク,0
1726,7370002001713,登記記録の閉鎖等,0,2026-02-18,2026-02-13,有限会社宝運,,有限会社,宮城県,仙台市泉区,松陵５丁目７番地の７,,04,105,9813108,,,2026-02-13,清算の結了等,,,2015-10-05,1,,,,,ホウウン,0
1732,7420003002738,登記記録の閉鎖等,0,2026-02-18,2026-02-09,合同会社スカイアース,,合同会社,青森県,三戸郡階上町,大字道仏字耳ケ吠３番地４００,,02,446,0391201,,,2026-02-09,清算の結了等,,,2023-06-06,1,,,,,スカイアース,0
1739,7440001000262,登記記録の閉鎖等,0,2026-02-18,2026-02-12,大空運送株式会社,,株式会社,北海道,函館市,西桔梗町８５１番地７,,01,202,0410824,,,2026-02-12,清算の結了等,,,2015-10-05,1,,,,,オオゾラウンソウ,0
1740,7460001000491,登記記録の閉鎖等,0,2026-02-18,2026-02-16,釧路中央市場サービス株式会社,,株式会社,北海道,釧路市,新富士町６丁目１番２３号,,01,206,0840904,,,2026-02-16,清算の結了等,,,2015-10-05,1,,,,,クシロチュウオウシジョウサービス,0
1766,8010003025985,登記記録の閉鎖等,0,2026-02-18,2026-02-02,合同会社ＦＢ不動産管理,,合同会社,東京都,中央区,日本橋室町１丁目１３番１号ＤＫノア４階Ｃ＋内,,13,102,1030022,,,2026-02-02,合併による解散等,9040003009068,令和８年２月１日東京都千代田区外神田六丁目９番２号合同会社睦月エステート（9040003009068）に合併し解散,2017-09-01,1,,,,,エフビーフドウサンカンリ,0
1776,8010401107922,登記記録の閉鎖等,0,2026-02-18,2026-02-03,株式会社ＮＴＫ,,株式会社,東京都,品川区,北品川１丁目８番１１号,,13,109,1400001,,,2026-02-03,清算の結了等,,,2015-10-05,1,,,,,エヌティーケイ,0
1778,8010401163981,登記記録の閉鎖等,0,2026-02-18,2026-02-10,株式会社しあわせ空間設計,,株式会社,東京都,港区,虎ノ門５丁目１３番１号７階,,13,103,1050001,,,2026-02-10,清算の結了等,,,2021-11-19,1,,,,,シアワセクウカンセッケイ,0
1793,8011001011952,登記記録の閉鎖等,0,2026-02-18,2026-02-02,株式会社サンズ・ホールディングス,,株式会社,東京都,渋谷区,恵比寿南３丁目９番２５号,,13,113,1500022,,,2026-02-02,合併による解散等,7011001011012,令和８年２月１日東京都渋谷区恵比寿南三丁目９番２５号株式会社シュガー・マトリックス（7011001011012）に合併し解散,2015-10-05,1,,,,,サンズホールディングス,0
1797,8011001113848,登記記録の閉鎖等,0,2026-02-18,2026-02-16,Ｑｕｆｏｏｉｔ　Ｊａｐａｎ株式会社,,株式会社,東京都,新宿区,四谷坂町１０－１２ガーデンタワー３７．３Ｆ,,13,104,1600002,,,2026-02-16,清算の結了等,,,2016-12-01,1,,,,,クフーイットジャパン,0
1806,8011101042955,登記記録の閉鎖等,0,2026-02-18,2026-02-16,株式会社サイバー,,株式会社,東京都,新宿区,高田馬場３丁目１２番８－３０３号,,13,104,1690075,,,2026-02-16,清算の結了等,,,2015-10-05,1,,,,,サイバー,0
1819,8011103016379,登記記録の閉鎖等,0,2026-02-18,2026-01-22,ＰＡＮＤＩＴ合同会社,,合同会社,東京都,新宿区,北新宿１丁目３４番７号吉野ハイム５０４,,13,104,1690074,,,2026-01-22,清算の結了等,,,2025-09-24,1,,,,,パンディト,0
1841,8021002054776,登記記録の閉鎖等,0,2026-02-18,2026-01-28,有限会社実方商店,,有限会社,神奈川県,南足柄市,弘西寺１８７番地,,14,217,2500132,,,2026-01-28,清算の結了等,,,2015-10-05,1,,,,,サネカタショウテン,0
1842,8030001022355,登記記録の閉鎖等,0,2026-02-18,2026-02-10,株式会社高橋電子機器,,株式会社,埼玉県,戸田市,美女木５丁目６番地の２,,11,224,3350031,,,2026-02-10,清算の結了等,,,2015-10-05,1,,,,,タカハシデンシキキ,0
1861,8090001009066,登記記録の閉鎖等,0,2026-02-18,2026-02-12,塩山タクシー株式会社,,株式会社,山梨県,甲州市,塩山下於曽５４８番地,,19,213,4040043,,,2026-02-12,清算の結了等,,,2015-10-05,1,,,,,エンザンタクシー,0
1890,8122005003132,登記記録の閉鎖等,0,2026-02-18,2026-02-05,一般社団法人地域コミュニティ支援機構,,その他の設立登記法人,大阪府,八尾市,本町２丁目８番３号,,27,212,5810003,,,2026-02-05,清算の結了等,,,2016-03-08,1,,,,,チイキコミュイティシエンキコウ,0
1897,8140001104654,登記記録の閉鎖等,0,2026-02-18,2026-02-13,株式会社神戸学育之友社,,株式会社,兵庫県,神戸市灘区,高羽字瀧ノ奥５番地の３リビオ六甲高羽１３１２号,,28,102,6570001,,,2026-02-13,清算の結了等,,,2017-01-13,1,,,,,コウベガクイクノトモシャ,0
1900,8140003018547,登記記録の閉鎖等,0,2026-02-18,2026-02-09,安田合同会社,,合同会社,兵庫県,神戸市中央区,海岸通３丁目１－１ＫＣＣビル４Ｆ,,28,110,6500024,,,2026-02-09,清算の結了等,,,2023-01-11,1,,,,,ヤスダ,0
1901,8140003018596,登記記録の閉鎖等,0,2026-02-18,2026-02-16,ＨＩＹＯＳＨＩ合同会社,,合同会社,兵庫県,尼崎市,武庫の里２丁目３番２号,,28,202,6610041,,,2026-02-16,清算の結了等,,,2023-01-17,1,,,,,ヒヨシ,0
1902,8140003022193,登記記録の閉鎖等,0,2026-02-18,2026-02-16,百楽屋合同会社,,合同会社,兵庫県,明石市,魚住町金ケ崎１１６１－１,,28,203,6740071,,,2026-02-16,清算の結了等,,,2025-06-13,1,,,,,ヒャクラクヤ,0
1909,8180001078250,登記記録の閉鎖等,0,2026-02-18,2026-02-12,株式会社オフィスＫＡＮＯＨ,,株式会社,愛知県,春日井市,押沢台１丁目８番地２１,,23,206,4870005,,,2026-02-12,清算の結了等,,,2015-10-05,1,,,,,オフィスカノウ,0
1932,8260001018009,登記記録の閉鎖等,0,2026-02-18,2026-02-13,藤井燃料株式会社,,株式会社,岡山県,浅口市,寄島町７７５０番地の１,,33,216,7140101,,,2026-02-13,清算の結了等,,,2015-10-05,1,,,,,フジイネンリョウ,0
1938,8290001100399,登記記録の閉鎖等,0,2026-02-18,2026-02-09,株式会社アイティオー,,株式会社,福岡県,大牟田市,新勝立町１丁目４８番地１渋谷ビル,,40,202,8360895,,,2026-02-09,清算の結了等,,,2023-02-03,1,,,,,アイティオー,0
1954,8360001025333,登記記録の閉鎖等,0,2026-02-18,2026-02-03,株式会社ヤマト商事,,株式会社,沖縄県,那覇市,泉崎１丁目１０番地１６－２０１,,47,201,9000021,,,2026-02-03,清算の結了等,,,2019-03-05,1,,,,,ヤマトショウジ,0
1964,8430001015590,登記記録の閉鎖等,0,2026-02-18,2026-02-13,株式会社ホテルクレスト札幌,,株式会社,福島県,いわき市,常磐藤原町蕨平５０番地,,07,204,9728326,,,2026-02-13,清算の結了等,,,2015-10-05,1,,,,,ホテルクレストサッポロ,0
1969,8470001018549,登記記録の閉鎖等,0,2026-02-18,2026-02-16,株式会社共栄開発,,株式会社,香川県,坂出市,林田町１６４０番地,,37,203,7620012,,,2026-02-16,清算の結了等,,,2021-06-07,1,,,,,キョウエイカイハツ,0
1978,9010001184898,登記記録の閉鎖等,0,2026-02-18,2026-02-02,株式会社ＤＩ　Ａｓｉａ,,株式会社,東京都,千代田区,霞が関３丁目２番６号,,13,101,1000013,,,2026-02-02,合併による解散等,6010001141902,令和８年２月１日東京都千代田区霞が関三丁目２番６号株式会社ドリームインキュベータ（6010001141902）に合併し解散,2017-07-20,1,,,,,ディーアイアジア,0
1991,9010003038433,登記記録の閉鎖等,0,2026-02-18,2026-02-06,合同会社ＡＬＥＲＯ６７,,合同会社,東京都,千代田区,神田錦町１丁目２１番１号,,13,101,1010054,,,2026-02-06,清算の結了等,,,2022-08-19,1,,,,,アレーロシックスティーセブン,0
1997,9010401171232,登記記録の閉鎖等,0,2026-02-18,2026-02-02,株式会社Ｒｅｄ　Ｇａｍｅｓ,,株式会社,東京都,港区,虎ノ門４丁目１番４０号江戸見坂森ビル４Ｆ,,13,103,1050001,,,2026-02-02,合併による解散等,8050001050379,令和８年１月３１日東京都港区赤坂四丁目５番２１号バルミー赤坂３１７号室メモリーテックつくば株式会社（8050001050379）に合併し解散,2022-12-08,1,,,,,レッドゲームズ,0
1998,9010401178657,登記記録の閉鎖等,0,2026-02-18,2026-01-28,ｎａｙｅｒ株式会社,,株式会社,東京都,港区,南青山３丁目１番３６号青山丸竹ビル６Ｆ,,13,103,1070062,,,2026-01-28,清算の結了等,,,2023-11-21,1,,,,,ナエ,0
2002,9010403035030,登記記録の閉鎖等,0,2026-02-18,2026-02-10,合同会社人工知能防災研究所,,合同会社,福岡県,福岡市中央区,天神３丁目１６－１７イエローベース天神３Ｆ,,40,133,8100001,,,2026-02-10,清算の結了等,,,2025-05-08,1,,,,,ジンコウチノウボウサイケンキュウジョ,0
2016,9010702008769,登記記録の閉鎖等,0,2026-02-18,2026-02-12,有限会社米田印刷所,,有限会社,東京都,品川区,東品川１丁目２１番４号,,13,109,1400002,,,2026-02-12,清算の結了等,,,2015-10-05,1,,,,,ヨネダインサツジョ,0
2028,9011003009572,登記記録の閉鎖等,0,2026-02-18,2025-10-24,ウェルモ合同会社,,合同会社,東京都,渋谷区,渋谷３丁目６番２号エクラート渋谷５Ｆ,,13,113,1500002,,,2025-10-24,合併による解散等,4010001244632,令和７年１０月１日東京都中央区銀座一丁目１２番４号Ｎ＆Ｅ－ＢＬＤ．６Ｆ株式会社カッパ・メディカル（4010001244632）に合併し解散,2019-01-18,1,WelliMo Ltd.,Tokyo,"Eclat Shibuya 5F, 3-6-2 Shibuya, Shibuya ku",,ウェルモ,0
2032,9011101019498,登記記録の閉鎖等,0,2026-02-18,2026-02-16,株式会社宝映テレビプロダクション,,株式会社,東京都,新宿区,新小川町５番１３的場ビル２Ｆ,,13,104,1620814,,,2026-02-16,清算の結了等,,,2015-10-05,1,,,,,ホウエイテレビプロダクション,0
2038,9011201025999,登記記録の閉鎖等,0,2026-02-18,2026-02-12,株式会社幸咲工務店,,株式会社,大阪府,大阪市中央区,島町１丁目２番３号三和ビル４０３,,27,128,5400034,,,2026-02-12,清算の結了等,,,2024-12-16,1,,,,,ユキザキコウムテン,0
2049,9012401042702,登記記録の閉鎖等,0,2026-02-18,2026-02-12,株式会社Ｓ．Ｋ．Ｕ,,株式会社,東京都,小金井市,東町５丁目２３番２７号,,13,210,1840011,,,2026-02-12,清算の結了等,,,2025-01-28,1,,,,,エスケーユー,0
2051,9012701015829,登記記録の閉鎖等,0,2026-02-18,2026-02-16,株式会社出玉王田無,,株式会社,東京都,葛飾区,新小岩１丁目３３番８号,,13,122,1240024,,,2026-02-16,合併による解散等,1011701010533,令和８年２月１日東京都江戸川区松島三丁目１４番７号福日観光株式会社（1011701010533）に合併し解散,2020-04-03,1,,,,,デダマオウタナシ,0
2076,9030005005801,登記記録の閉鎖等,0,2026-02-18,2026-02-06,医療法人山本歯科,,その他の設立登記法人,埼玉県,草加市,金明町６６５番１０,,11,221,3400052,,,2026-02-06,清算の結了等,,,2015-10-05,1,,,,,ヤマモトシカ,0
2096,9100002026033,登記記録の閉鎖等,0,2026-02-18,2026-02-13,有限会社共栄微研,,有限会社,長野県,大町市,大町３３４１番地４,,20,212,3980002,,,2026-02-13,清算の結了等,,,2015-10-05,1,,,,,キョウエイビケン,0
2108,9120002043919,登記記録の閉鎖等,0,2026-02-18,2026-02-13,有限会社大阪薬業ライフサービス,,有限会社,大阪府,大阪市中央区,内平野町３丁目２番５号,,27,128,5400037,,,2026-02-13,清算の結了等,,,2015-10-05,1,,,,,オオサカヤクギョウライフサービス,0
2115,9120102023515,登記記録の閉鎖等,0,2026-02-18,2026-02-05,川茂タオル有限会社,,有限会社,大阪府,泉佐野市,上之郷１３２３番地,,27,213,5980024,,,2026-02-05,清算の結了等,,,2015-10-05,1,,,,,,0
2126,9130001075383,登記記録の閉鎖等,0,2026-02-18,2026-02-12,株式会社エダマミー,,株式会社,京都府,京都市中京区,三条通寺町東入石橋町２１番地２,,26,104,6048036,,,2026-02-12,清算の結了等,,,2023-10-11,1,,,,,エダマミー,0
2129,9140001031261,登記記録の閉鎖等,0,2026-02-18,2026-02-16,株式会社シークルー,,株式会社,兵庫県,神戸市中央区,播磨町４９番地,,28,110,6500036,,,2026-02-16,清算の結了等,,,2015-10-05,1,,,,,シークルー,0
2132,9140003015650,登記記録の閉鎖等,0,2026-02-18,2026-02-05,合同会社谷口,,合同会社,兵庫県,神戸市西区,竹の台６丁目１番地の１－７１４号,,28,111,6512274,,,2026-02-05,清算の結了等,,,2020-12-03,1,,,,,タニグチ,0
2142,9180001109005,登記記録の閉鎖等,0,2026-02-18,2026-02-05,巨冨株式会社,,株式会社,愛知県,名古屋市千種区,徳川山町１丁目３番２－４０５号,,23,101,4640031,,,2026-02-05,清算の結了等,,,2015-10-05,1,,,,,,0
2195,9370002003410,登記記録の閉鎖等,0,2026-02-18,2026-02-16,有限会社千葉石油,,有限会社,宮城県,仙台市太白区,茂庭字合ノ沢南２０番地の３,,04,104,9820251,,,2026-02-16,清算の結了等,,,2015-10-05,1,,,,,チバセキユ,0
2197,9380001014770,登記記録の閉鎖等,0,2026-02-18,2026-02-13,ミルラーニングメディア株式会社,,株式会社,福島県,いわき市,中央台鹿島２丁目２２番地の４,,07,204,9708043,,,2026-02-13,清算の結了等,,,2015-10-05,1,,,,,ミルラーニングメディア,0
2200,9420002000740,登記記録の閉鎖等,0,2026-02-18,2026-02-12,アオモリザイダン株式会社,,株式会社,東京都,品川区,南大井４丁目１３番８号,,13,109,1400013,,,2026-02-12,合併による解散等,8020001078209,令和８年１月２８日横浜市保土ケ谷区峰沢町３１７番地２ＵＦＪ建物株式会社（8020001078209）に合併し解散,2015-10-05,1,,,,,アオモリザイダン,0
2205,9440001008122,登記記録の閉鎖等,0,2026-02-18,2026-02-09,チャレンジジョイライフ株式会社,,株式会社,北海道,函館市,本通２丁目１番３１号,,01,202,0410851,,,2026-02-09,清算の結了等,,,2017-06-12,1,,,,,チャレンジジョイライフ,0
2206,9440002008988,登記記録の閉鎖等,0,2026-02-18,2026-02-12,有限会社折原本店,,有限会社,北海道,久遠郡せたな町,北檜山区北檜山６番地,,01,371,0494501,,,2026-02-12,清算の結了等,,,2015-10-05,1,,,,,オリハラホンテン,0
