sequenceNumber,corporateNumber,process,correct,updateDate,changeDate,name,nameImageId,kind,prefectureName,cityName,streetNumber,addressImageId,prefectureCode,cityCode,postCode,addressOutside,addressOutsideImageId,closeDate,closeCause,successorCorporateNumber,changeCause,assignmentDate,latest,enName,enPrefectureName,enCityName,enAddressOutside,furigana,hihyoji
14,1010001251648,新規,0,2025-01-22,2025-01-22,株式会社ＫＳ,,株式会社,東京都,中央区,佃１丁目１１番９－２７０１号,,13,102,1040051,,,,,,,2025-01-22,1,,,,,ケーエス,0
15,1010001251656,新規,0,2025-01-22,2025-01-22,株式会社Ｃａｒｔｅｒ,,株式会社,東京都,千代田区,内幸町２丁目１番６号,,13,101,1000011,,,,,,,2025-01-22,1,,,,,カーター,0
17,1010003046154,新規,0,2025-01-22,2025-01-22,Ｈ１　ＫＯＪＩＭＡＣＨＩ合同会社,,合同会社,東京都,中央区,京橋２丁目１２番６号ＡＯＪ税理士法人内,,13,102,1040031,,,,,,,2025-01-22,1,,,,,エイチワンコウジマチ,0
69,1010101016488,新規,0,2025-01-22,2025-01-22,株式会社Ａｖｅｎｉｒ,,株式会社,東京都,八王子市,めじろ台１丁目３０番地１６,,13,201,1930833,,,,,,,2025-01-22,1,,,,,,0
91,1010401187509,新規,0,2025-01-22,2025-01-22,ＳＡＩＣＨＩ株式会社,,株式会社,東京都,港区,芝浦３丁目１４番５号テクス芝浦ビル１階,,13,103,1080023,,,,,,,2025-01-22,1,,,,,サイチ,0
92,1010401187632,新規,0,2025-01-22,2025-01-22,リレイズホールディングス株式会社,,株式会社,東京都,港区,東新橋２丁目１２－１ＰＭＯ東新橋２Ｆ,,13,103,1050021,,,,,,,2025-01-22,1,,,,,リレイズホールディングス,0
93,1010403034205,新規,0,2025-01-22,2025-01-22,合同会社ＹｕｋａＬｉｎａ,,合同会社,東京都,港区,北青山１丁目３番１号アールキューブ青山３階,,13,103,1070061,,,,,,,2025-01-22,1,,,,,ユカリナ,0
94,1010405023940,新規,0,2025-01-22,2025-01-22,一般社団法人国際ふぐ協会,,その他の設立登記法人,東京都,港区,南青山１丁目１番１号新青山ビル西館８階,,13,103,1070062,,,,,,,2025-01-22,1,,,,,コクサイフグキョウカイ,0
95,1010405024022,新規,0,2025-01-22,2025-01-22,トウヤ特定目的会社,,その他の設立登記法人,東京都,港区,六本木１丁目６番１号泉ガーデンタワー,,13,103,1060032,,,,,,,2025-01-22,1,,,,,トウヤ,0
98,1010501053478,新規,0,2025-01-22,2025-01-22,大恒株式会社,,株式会社,東京都,台東区,台東１丁目２９番３－３０４号,,13,106,1100016,,,,,,,2025-01-22,1,,,,,ダイコウ,0
99,1010503007713,新規,0,2025-01-22,2025-01-22,合同会社ロザリア,,合同会社,東京都,台東区,東上野３丁目３４－９－９０２,,13,106,1100015,,,,,,,2025-01-22,1,,,,,ロザリア,0
104,1010603011342,新規,0,2025-01-22,2025-01-22,合同会社モバイルレスキュー,,合同会社,東京都,墨田区,立花２丁目７番１３号１０２室,,13,107,1310043,,,,,,,2025-01-22,1,,,,,モバイルレスキュー,0
185,1010801035779,新規,0,2025-01-22,2025-01-22,株式会社藤光,,株式会社,東京都,大田区,大森西２丁目１７番１９号,,13,111,1430015,,,,,,,2025-01-22,1,,,,,フジコウ,0
202,1011001167264,新規,0,2025-01-22,2025-01-22,株式会社ヌマ企画,,株式会社,東京都,渋谷区,恵比寿２丁目１０番１号ヴァンベールコート恵比寿７０１,,13,113,1500013,,,,,,,2025-01-22,1,,,,,ヌマキカク,0
203,1011001167272,新規,0,2025-01-22,2025-01-22,株式会社アーバンシック,,株式会社,東京都,渋谷区,代々木２丁目２６番１号第一桑野ビル３Ｂ,,13,113,1510053,,,,,,,2025-01-22,1,,,,,アーバンシック,0
205,1011003020801,新規,0,2025-01-22,2025-01-22,Ｌｅｇｉｔｉｍａｔｅ　Ｌａｂｓ　ＪＰ合同会社,,合同会社,東京都,渋谷区,東１丁目２９番３号渋谷ＢｒｉｄｇｅＢ棟,,13,113,1500011,,,,,,,2025-01-22,1,,,,,レジティメイトラボスジェーピー,0
206,1011003020826,新規,0,2025-01-22,2025-01-22,合同会社Ｐｏｗｅｒ　Ｇｒｏｗｔｈ,,合同会社,東京都,渋谷区,代々木５丁目５７番２－４０３号ザ・パークハビオＳＯＨＯ代々木公園,,13,113,1510053,,,,,,,2025-01-22,1,,,,,パワーグロース,0
210,1011101110314,新規,0,2025-01-22,2025-01-22,弥生株式会社,,株式会社,東京都,新宿区,西新宿３丁目３番１３号西新宿水間ビル２Ｆ,,13,104,1600023,,,,,,,2025-01-22,1,,,,,ヤヨイ,0
211,1011101110322,新規,0,2025-01-22,2025-01-22,株式会社ＶＡＲＴＥＸ,,株式会社,東京都,新宿区,高田馬場３丁目３番１５－１１２６号,,13,104,1690075,,,,,,,2025-01-22,1,,,,,ヴァルテックス,0
212,1011101110363,新規,0,2025-01-22,2025-01-22,株式会社東方商会,,株式会社,東京都,新宿区,北新宿３丁目４番３号,,13,104,1690074,,,,,,,2025-01-22,1,,,,,トウホウショウカイ,0
213,1011201026063,新規,0,2025-01-22,2025-01-22,Ａｌｂｉｔ株式会社,,株式会社,東京都,中野区,大和町１丁目２－４,,13,114,1650034,,,,,,,2025-01-22,1,,,,,オービット,0
217,1011403004593,新規,0,2025-01-22,2025-01-22,合同会社Ｕｒａｊｉ２,,合同会社,東京都,板橋区,大山東町２１－５清田ビル２階２－Ｂ,,13,119,1730014,,,,,,,2025-01-22,1,,,,,ウラジツー,0
219,1011503006390,新規,0,2025-01-22,2025-01-22,合同会社縁,,合同会社,東京都,北区,赤羽２丁目６５－１０－４０１,,13,117,1150045,,,,,,,2025-01-22,1,,,,,エン,0
224,1011601028378,新規,0,2025-01-22,2025-01-22,株式会社ｔｓｕｍｕｇｕ,,株式会社,東京都,練馬区,南大泉５丁目３８番８号,,13,120,1780064,,,,,,,2025-01-22,1,,,,,ツムグ,0
232,1011701027998,新規,0,2025-01-22,2025-01-22,元和株式会社,,株式会社,東京都,江戸川区,松江２丁目１番１３－３０３号室,,13,123,1320025,,,,,,,2025-01-22,1,,,,,ゲンワ,0
233,1011701028006,新規,0,2025-01-22,2025-01-22,プリンスビル株式会社,,株式会社,東京都,江戸川区,一之江４丁目３番１３号,,13,123,1320024,,,,,,,2025-01-22,1,,,,,プリンスビル,0
241,1012401042684,新規,0,2025-01-22,2025-01-22,株式会社アキフォーユー,,株式会社,東京都,調布市,菊野台２丁目４８番地４モアクレスト菊野台１０１,,13,208,1820007,,,,,,,2025-01-22,1,,,,,アキフォーユー,0
247,1012801023706,新規,0,2025-01-22,2025-01-22,株式会社エムズアカウント,,株式会社,東京都,国分寺市,並木町２丁目１６番地２２,,13,214,1850005,,,,,,,2025-01-22,1,,,,,エムズアカウント,0
248,1012803003607,新規,0,2025-01-22,2025-01-22,Ｄａｎｄｅｌｉｏｎ合同会社,,合同会社,東京都,立川市,錦町１丁目５番３４号,,13,202,1900022,,,,,,,2025-01-22,1,,,,,ダンデライオン,0
256,1013301053656,新規,0,2025-01-22,2025-01-22,株式会社キメラ,,株式会社,東京都,豊島区,南長崎５丁目３１－１７,,13,116,1710052,,,,,,,2025-01-22,1,,,,,キメラ,0
264,1021001084260,新規,0,2025-01-22,2025-01-22,株式会社ＯＥＣ,,株式会社,神奈川県,平塚市,桃浜町９番１５号,,14,203,2540815,,,,,,,2025-01-22,1,,,,,オーイーシー,0
270,1030001164468,新規,0,2025-01-22,2025-01-22,株式会社松本電工,,株式会社,埼玉県,草加市,手代２丁目３２番２４号,,11,221,3400021,,,,,,,2025-01-22,1,,,,,マツモトデンコウ,0
274,1030003025924,新規,0,2025-01-22,2025-01-22,合同会社サン,,合同会社,埼玉県,所沢市,狭山ケ丘２丁目６３２－１８コーポコサカ１０２,,11,208,3591161,,,,,,,2025-01-22,1,,,,,サン,0
280,1040003026657,新規,0,2025-01-22,2025-01-22,ゴッド・スピード合同会社,,合同会社,千葉県,松戸市,古ケ崎３丁目３３２６番地の１５,,12,207,2710068,,,,,,,2025-01-22,1,,,,,ゴッドスピード,0
281,1040003026665,新規,0,2025-01-22,2025-01-22,順智合同会社,,合同会社,千葉県,松戸市,西馬橋蔵元町１０４番地の２フェリス蔵元１０１号,,12,207,2710046,,,,,,,2025-01-22,1,,,,,ジュンチ,0
282,1040003026681,新規,0,2025-01-22,2025-01-22,合同会社ａｐｅ,,合同会社,千葉県,市川市,湊新田３番９号,,12,203,2720132,,,,,,,2025-01-22,1,,,,,アペ,0
283,1040005022638,新規,0,2025-01-22,2025-01-22,医療法人社団多祐会,,その他の設立登記法人,千葉県,船橋市,習志野台１丁目３８番１１号北習志野メディカルプラザ３Ｆ,,12,204,2740063,,,,,,,2025-01-22,1,,,,,タスクカイ,0
284,1050001056052,新規,0,2025-01-22,2025-01-22,株式会社ＢＬＯＷＩＮ　ＪＡＰＡＮ,,株式会社,茨城県,石岡市,東石岡３丁目２番３５号,,08,205,3150037,,,,,,,2025-01-22,1,,,,,ブローウィンジャパン,0
286,1060001037852,新規,0,2025-01-22,2025-01-22,株式会社フィジック・ホンゾーライフ,,株式会社,栃木県,宇都宮市,中央３丁目１－４栃木県産業会館３階宇都宮ベンチャーズ内,,09,201,3200806,,,,,,,2025-01-22,1,,,,,フィジックホンゾーライフ,0
424,1090001019105,新規,0,2025-01-22,2025-01-22,株式会社ＪＴＭ,,株式会社,山梨県,北杜市,小淵沢町１０２１６番地１４,,19,209,4080044,,,,,,,2025-01-22,1,,,,,ジェイティーエム,0
427,1100003007956,新規,0,2025-01-22,2025-01-22,合同会社下川政治,,合同会社,長野県,北安曇郡白馬村,大字北城６３５３番地,,20,485,3999301,,,,,,,2025-01-22,1,,,,,シモカワセイジ,0
429,1110005017176,新規,0,2025-01-22,2025-01-22,行政書士法人新潟合同経理事務所,,その他の設立登記法人,新潟県,新潟市江南区,船戸山３丁目２番１９号,,15,104,9500153,,,,,,,2025-01-22,1,,,,,ニイガタゴウドウケイリジムショ,0
446,1120001272014,新規,0,2025-01-22,2025-01-22,株式会社スマイルケア,,株式会社,大阪府,大阪市天王寺区,筆ケ崎町５番３８－４０１号,,27,109,5430027,,,,,,,2025-01-22,1,,,,,スマイルケア,0
447,1120001272030,新規,0,2025-01-22,2025-01-22,株式会社ケイテック,,株式会社,大阪府,大阪市生野区,巽南３丁目１０番２９号,00137733,27,116,5440015,,,,,,,2025-01-22,1,,,,,ケイテック,0
448,1120001272204,新規,0,2025-01-22,2025-01-22,株式会社Ｌａｕｄｉｓ,,株式会社,大阪府,枚方市,都丘町３８番１０号,,27,210,5731165,,,,,,,2025-01-22,1,,,,,ラウディス,0
459,1120003028109,新規,0,2025-01-22,2025-01-22,合同会社エスラック,,合同会社,大阪府,大阪市中央区,南船場３丁目２番２２号おおきに南船場ビル２０５,,27,128,5420081,,,,,,,2025-01-22,1,,,,,エスラック,0
460,1120003028422,新規,0,2025-01-22,2025-01-22,ＬＩ　ＳＨＡ合同会社,,合同会社,大阪府,大阪市東住吉区,湯里２丁目１１番７号２０３,,27,121,5460013,,,,,,,2025-01-22,1,,,,,リシャ,0
461,1120005024741,新規,0,2025-01-22,2025-01-22,医療法人はやさかクリニック,,その他の設立登記法人,大阪府,大阪市住吉区,南住吉４丁目８番１１号,,27,120,5580041,,,,,,,2025-01-22,1,,,,,ハヤサカクリニック,0
471,1130001078815,新規,0,2025-01-22,2025-01-22,株式会社ＳＡＫＵＲＡホールディングス,,株式会社,京都府,京田辺市,松井宮田２６番１,,26,211,6100342,,,,,,,2025-01-22,1,,,,,サクラホールディングス,0
478,1140001137157,新規,0,2025-01-22,2025-01-22,株式会社ＨＩＮＯＳＨＯ,,株式会社,兵庫県,神戸市垂水区,本多聞２丁目２８番８－１号,,28,108,6550006,,,,,,,2025-01-22,1,,,,,ヒノショウ,0
479,1140003021565,新規,0,2025-01-22,2025-01-22,合同会社キラ,,合同会社,兵庫県,養父市,八鹿町宿南１１１１番地,,28,222,6670003,,,,,,,2025-01-22,1,,,,,キラ,0
483,1160001026498,新規,0,2025-01-22,2025-01-22,株式会社ｇａｔｅ,,株式会社,滋賀県,彦根市,原町８１３番地１１,,25,202,5220023,,,,,,,2025-01-22,1,,,,,ゲート,0
493,1180001165088,新規,0,2025-01-22,2025-01-22,株式会社喜しや,00137728,株式会社,愛知県,名古屋市千種区,仲田２丁目１７番７号,,23,101,4640074,,,,,,,2025-01-22,1,,,,,キシヤ,0
494,1180001165096,新規,0,2025-01-22,2025-01-22,ＩＣジャパン株式会社,,株式会社,愛知県,名古屋市中川区,高杉町３２９番地の２,,23,110,4540936,,,,,,,2025-01-22,1,,,,,アイシージャパン,0
498,1180003027880,新規,0,2025-01-22,2025-01-22,ＹＯＵＳＡＦ　ＴＲＡＤＥＲＳ合同会社,,合同会社,愛知県,岩倉市,下本町燈明庵１５９－１マンション千代１０２,,23,228,4820005,,,,,,,2025-01-22,1,,,,,ユーサフトレーダー,0
500,1180301039446,新規,0,2025-01-22,2025-01-22,Ｓｃａｒｌｅｔｔ　Ｓｐａｒｋ株式会社,,株式会社,愛知県,豊田市,曙町５丁目７４番地サンハイツＡＫＥＢＯＮＯ３０１,,23,211,4710835,,,,,,,2025-01-22,1,,,,,スカーレットスパーク,0
503,1190003004920,新規,0,2025-01-22,2025-01-22,合同会社Ａ‐ｔｅｃ,,合同会社,三重県,松阪市,上川町３７３７番地１８,,24,204,5150041,,,,,,,2025-01-22,1,,,,,エーテック,0
546,1240001064416,新規,0,2025-01-22,2025-01-22,株式会社はじめ,,株式会社,広島県,大竹市,油見２丁目３番８号,,34,211,7390612,,,,,,,2025-01-22,1,,,,,ハジメ,0
549,1240003007026,新規,0,2025-01-22,2025-01-22,フェアリーテイル合同会社,,合同会社,広島県,広島市中区,東平塚町１０番７－６０１号,,34,101,7300025,,,,,,,2025-01-22,1,,,,,フェアリーテイル,0
551,1250001020979,新規,0,2025-01-22,2025-01-22,株式会社ＲＩＳＥ,,株式会社,山口県,周南市,大字徳山字三田川５８１１－１０,,35,215,7450873,,,,,,,2025-01-22,1,,,,,ライズ,0
552,1260001039837,新規,0,2025-01-22,2025-01-22,株式会社光輝,,株式会社,岡山県,真庭市,惣２５８－１,,33,214,7193204,,,,,,,2025-01-22,1,,,,,,0
553,1260003005036,新規,0,2025-01-22,2025-01-22,合同会社Ｓ．Ｙ．Ｓ,,合同会社,岡山県,井原市,井原町１１３番地１,,33,207,7150019,,,,,,,2025-01-22,1,,,,,エスワイエス,0
584,1290001108671,新規,0,2025-01-22,2025-01-22,株式会社森藤ビル,,株式会社,福岡県,福岡市南区,大橋１丁目７番６号森藤ビル８０１,,40,134,8150033,,,,,,,2025-01-22,1,,,,,モリフジビル,0
585,1290001108688,新規,0,2025-01-22,2025-01-22,株式会社黎明,,株式会社,福岡県,福岡市博多区,吉塚５丁目２番１０号１Ａ,,40,132,8120041,,,,,,,2025-01-22,1,,,,,レイメイ,0
586,1290001108696,新規,0,2025-01-22,2025-01-22,株式会社いち,,株式会社,福岡県,福岡市博多区,住吉２丁目７番１号,,40,132,8120018,,,,,,,2025-01-22,1,,,,,イチ,0
588,1290005019618,新規,0,2025-01-22,2025-01-22,医療法人新歯会,,その他の設立登記法人,福岡県,糟屋郡新宮町,緑ケ浜４丁目１０番５号アーバンモール新宮中央,,40,345,8110119,,,,,,,2025-01-22,1,,,,,シンシカイ,0
590,1290801031206,新規,0,2025-01-22,2025-01-22,株式会社ＯＥＣ,,株式会社,福岡県,北九州市小倉北区,熊本４丁目２番２６号,,40,106,8020044,,,,,,,2025-01-22,1,,,,,オーイーシー,0
614,1320001020897,新規,0,2025-01-22,2025-01-22,ＳＯＳＨＩＮ株式会社,,株式会社,大分県,宇佐市,大字住江２２５番地の２,,44,211,8720044,,,,,,,2025-01-22,1,,,,,ソーシン,0
617,1330003010739,新規,0,2025-01-22,2025-01-22,合同会社トモハッピー,,合同会社,熊本県,熊本市中央区,下通１丁目１０－１１銀座プラザビル１０階,,43,101,8600807,,,,,,,2025-01-22,1,,,,,トモハッピー,0
621,1360001034695,新規,0,2025-01-22,2025-01-22,株式会社Ｂｏｎｎｉｅ　Ｂｌｕｅ,,株式会社,沖縄県,石垣市,字新川１５８５－３５－１０１,,47,207,9070024,,,,,,,2025-01-22,1,,,,,ボニーブルー,0
622,1360003014613,新規,0,2025-01-22,2025-01-22,合同会社龍宮野底,,合同会社,沖縄県,石垣市,字野底９３８番地,,47,207,9070333,,,,,,,2025-01-22,1,,,,,リュウキュウノゾコ,0
627,1370005010898,新規,0,2025-01-22,2025-01-22,一般社団法人アクエリアス,,その他の設立登記法人,宮城県,仙台市若林区,河原町２丁目６番１３号,,04,103,9840816,,,,,,,2025-01-22,1,,,,,アクエリアス,0
628,1380001035048,新規,0,2025-01-22,2025-01-22,株式会社ＣＦ‐Ｔｅｃｈ,,株式会社,福島県,郡山市,水門町１２５番地５ＺＫＩＩ１０３号,00137740,07,203,9638815,,,,,,,2025-01-22,1,,,,,シーエフテック,0
635,1420001018989,新規,0,2025-01-22,2025-01-22,株式会社Ｂｔｏｃｌｕｂ,,株式会社,青森県,上北郡おいらせ町,新助川原９－８,,02,412,0392226,,,,,,,2025-01-22,1,,,,,ビートクラブ,0
637,1430001093503,新規,0,2025-01-22,2025-01-22,株式会社ＦＤＳ,,株式会社,北海道,札幌市清田区,清田３３３－１９２,,01,110,0040859,,,,,,,2025-01-22,1,,,,,エフディーエス,0
661,1460301005270,新規,0,2025-01-22,2025-01-22,株式会社えんがるコンタクト,,株式会社,北海道,紋別郡遠軽町,大通南２丁目２番地１６,,01,555,0990416,,,,,,,2025-01-22,1,,,,,エンガルコンタクト,0
664,1480001012714,新規,0,2025-01-22,2025-01-22,株式会社ＴＥＣ．エーワイ,,株式会社,徳島県,徳島市,大原町中須１番地の７,,36,201,7708012,,,,,,,2025-01-22,1,,,,,テックエーワイ,0
665,1480003002226,新規,0,2025-01-22,2025-01-22,やおはちパートナーズ合同会社,,合同会社,徳島県,勝浦郡勝浦町,大字棚野字桧岡２０－１,,36,301,7714306,,,,,,,2025-01-22,1,,,,,ヤオハチパートナーズ,0
673,1700150128882,新規,0,2025-01-22,2025-01-22,ＳＥＴＵＰ　ＤＥＳＩＧＮ　ＤＭＣＣ,,外国会社等,東京都,港区,赤坂２丁目１４－１１　天翔赤坂ビル６階６０２－Ａ号室,,13,103,1070052,Ｕｎｉｔ　Ｎｏ．２５２５　ＤＭＣＣ　Ｂｕｓｉｎｅｓｓ　Ｃｅｎｔｅｒ　Ｌｅｖｅｌ　Ｎｏ．１　Ｊｅｗｅｌｌｅｒｙ　＆　Ｇｅｍｐｌｅｘ　２　Ｄｕｂａｉ，ＵＡＥ,,,,,,2025-01-22,1,,,,,セツトアツプデザインデイーエムシーシー,0
674,1700150128908,新規,0,2025-01-22,2025-01-22,ＡＮ　ＮＯＯＲ　ＴＲＡＤＩＮＧ　ＰＶＴ　ＬＴＤ,,外国会社等,千葉県,八街市,八街へ２１４番地２３３－Ｂ,,12,230,2891113,スリランカ民主社会主義共和国、アクラナ、マルワナヒンナ、ガルデワタロード、８２５,,,,,,2025-01-22,1,,,,,アンヌールトレーデイングプライベートリミテツド,0
683,2010001251548,新規,0,2025-01-22,2025-01-22,ＡＣＳＩＲＹＯ株式会社,,株式会社,東京都,中央区,日本橋茅場町１丁目８番１号,,13,102,1030025,,,,,,,2025-01-22,1,,,,,アクシリオ,0
684,2010001251597,新規,0,2025-01-22,2025-01-22,株式会社エムズメッド,,株式会社,東京都,中央区,銀座１丁目２２番１１号銀座大竹ビジデンス２Ｆ,,13,102,1040061,,,,,,,2025-01-22,1,,,,,エムズメッド,0
685,2010001251622,新規,0,2025-01-22,2025-01-22,満裕株式会社,,株式会社,東京都,中央区,新川１丁目７－１－７１５号室,,13,102,1040033,,,,,,,2025-01-22,1,,,,,マンユウ,0
691,2010003046013,新規,0,2025-01-22,2025-01-22,Ｖｅｉｚｏ合同会社,,合同会社,東京都,千代田区,神田須田町２丁目１９－２３Ｄａｉｗａ秋葉原ビル２階,,13,101,1010041,,,,,,,2025-01-22,1,,,,,ヴェイゾ,0
692,2010003046129,新規,0,2025-01-22,2025-01-22,合同会社ＳＴＲ１,,合同会社,東京都,中央区,日本橋１丁目４番１号,,13,102,1030027,,,,,,,2025-01-22,1,,,,,エスティーアールワン,0
739,2010401187623,新規,0,2025-01-22,2025-01-22,株式会社モノシス,,株式会社,東京都,港区,南青山２丁目２番１５号,,13,103,1070062,,,,,,,2025-01-22,1,,,,,モノシス,0
740,2010401187631,新規,0,2025-01-22,2025-01-22,株式会社国際文化きものビューティー,,株式会社,東京都,港区,南青山４丁目２１番３３－２０５号,,13,103,1070062,,,,,,,2025-01-22,1,,,,,コクサイブンカキモノビューティー,0
747,2010601066619,新規,0,2025-01-22,2025-01-22,株式会社ＹＯＲＩＤＯＲＩ,,株式会社,東京都,墨田区,向島１丁目２３番１５号Ｅ７,,13,107,1310033,,,,,,,2025-01-22,1,,,,,ヨリドリ,0
750,2010603011341,新規,0,2025-01-22,2025-01-22,合同会社Ｈｅｌｐ　Ｈａｎｄ,,合同会社,東京都,江東区,亀戸２丁目３８番３－１００２号,,13,108,1360071,,,,,,,2025-01-22,1,,,,,ヘルプハンド,0
844,2010801035778,新規,0,2025-01-22,2025-01-22,コネクト株式会社,,株式会社,東京都,大田区,大森東５丁目１５番８号,,13,111,1430012,,,,,,,2025-01-22,1,,,,,コネクト,0
854,2010901056666,新規,0,2025-01-22,2025-01-22,株式会社東京ＣＬＩＰＳ,,株式会社,東京都,世田谷区,太子堂４丁目１８番１５号マガザン三軒茶屋２－３Ｆ－３,,13,112,1540004,,,,,,,2025-01-22,1,,,,,トウキョウクリップス,0
857,2011001167247,新規,0,2025-01-22,2025-01-22,株式会社ＭＡＲＩＮＯ　Ｃｒｅａｔｉｖｅ　Ｒｏｏｍｓ,,株式会社,東京都,目黒区,碑文谷５丁目４番２１号－Ａ,,13,110,1520003,,,,,,,2025-01-22,1,,,,,マリノクリエイティブルームス,0
859,2011003020791,新規,0,2025-01-22,2025-01-22,合同会社ｃｉｒｃｌｅ‐ｎｉｎｅ,,合同会社,東京都,目黒区,上目黒４丁目２１番８号ワイステリア藤倉１０８,,13,110,1530051,,,,,,,2025-01-22,1,,,,,サークルナイン,0
860,2011003020841,新規,0,2025-01-22,2025-01-22,合同会社運送未来コーチングラボ,,合同会社,東京都,渋谷区,渋谷２丁目１９―１５宮益坂ビルディング６０９,,13,113,1500002,,,,,,,2025-01-22,1,,,,,ウンソウミライコーチングラボ,0
866,2011101110288,新規,0,2025-01-22,2025-01-22,株式会社シロクマトランク,,株式会社,東京都,新宿区,納戸町２７番地２ピオネーロ市ケ谷４０５,,13,104,1620837,,,,,,,2025-01-22,1,,,,,シロクマトランク,0
867,2011101110321,新規,0,2025-01-22,2025-01-22,バリューアイズ株式会社,,株式会社,東京都,新宿区,新宿１丁目３６番２号,,13,104,1600022,,,,,,,2025-01-22,1,,,,,バリューアイズ,0
870,2011103015428,新規,0,2025-01-22,2025-01-22,合同会社柴山会計コンサルティング,,合同会社,東京都,新宿区,西新宿７丁目７番２６号ワコーレ新宿第一ビル２階,,13,104,1600023,,,,,,,2025-01-22,1,,,,,シバヤマカイケイコンサルティング,0
874,2011303005393,新規,0,2025-01-22,2025-01-22,合同会社マーガレット本社,,合同会社,東京都,杉並区,久我山４丁目３５番２２号,,13,115,1680082,,,,,,,2025-01-22,1,,,,,マーガレットホンシャ,0
875,2011401026746,新規,0,2025-01-22,2025-01-22,ＭＩＲＡＩ株式会社,,株式会社,東京都,板橋区,西台２丁目４０番１０－２０３号,,13,119,1750045,,,,,,,2025-01-22,1,,,,,ミライ,0
881,2011601028377,新規,0,2025-01-22,2025-01-22,ＴｏｍｓＬｉｎｋ株式会社,,株式会社,東京都,練馬区,東大泉１丁目３０番１１号石井ビル１Ｆ,,13,120,1780063,,,,,,,2025-01-22,1,,,,,トムズリンク,0
885,2011701027997,新規,0,2025-01-22,2025-01-22,株式会社東京廣瀬電気,,株式会社,東京都,江戸川区,東瑞江２丁目２４番８号,,13,123,1320014,,,,,,,2025-01-22,1,,,,,トウキョウヒロセデンキ,0
886,2011701028005,新規,0,2025-01-22,2025-01-22,株式会社ピスタチオ,,株式会社,東京都,江戸川区,鹿骨４丁目１３番１８号,,13,123,1330073,,,,,,,2025-01-22,1,,,,,ピスタチオ,0
894,2012801023705,新規,0,2025-01-22,2025-01-22,株式会社オスカル,,株式会社,東京都,日野市,三沢２丁目２８番地の２１,,13,212,1910032,,,,,,,2025-01-22,1,,,,,オスカル,0
907,2020001161085,新規,0,2025-01-22,2025-01-22,株式会社フレンドＫ,,株式会社,神奈川県,川崎市高津区,北見方１丁目１０番１１号,,14,134,2130005,,,,,,,2025-01-22,1,,,,,フレンドケー,0
908,2020003027689,新規,0,2025-01-22,2025-01-22,ＪＡＰＡＮ　ＤＲＥＡＭ合同会社,,合同会社,神奈川県,横浜市神奈川区,六角橋６丁目３０－２６－５０６,,14,102,2210802,,,,,,,2025-01-22,1,,,,,ジャパンドリーム,0
909,2021001084276,新規,0,2025-01-22,2025-01-22,カイセイジャパン株式会社,,株式会社,神奈川県,綾瀬市,寺尾北２丁目９番１８－１号,,14,218,2521131,,,,,,,2025-01-22,1,,,,,カイセイジャパン,0
911,2021003015485,新規,0,2025-01-22,2025-01-22,けせらせら合同会社,,合同会社,神奈川県,相模原市中央区,上溝１９１０番地７,,14,152,2520243,,,,,,,2025-01-22,1,,,,,ケセラセラ,0
916,2030001164459,新規,0,2025-01-22,2025-01-22,株式会社Ｓｅａ‐ｏｎ,,株式会社,埼玉県,ふじみ野市,中丸１丁目２番地１７,,11,245,3560016,,,,,,,2025-01-22,1,,,,,,0
917,2030001164467,新規,0,2025-01-22,2025-01-22,ハレ・アセット株式会社,,株式会社,埼玉県,行田市,大字須加４７７１番地６,,11,206,3610004,,,,,,,2025-01-22,1,,,,,ハレアセット,0
918,2030001164475,新規,0,2025-01-22,2025-01-22,ＫＫ株式会社,,株式会社,埼玉県,比企郡滑川町,大字羽尾３６５番地１,,11,341,3550811,,,,,,,2025-01-22,1,,,,,ケーケー,0
919,2030001164491,新規,0,2025-01-22,2025-01-22,株式会社ブルーム,,株式会社,埼玉県,所沢市,東狭山ケ丘１丁目２０番地の２４,,11,208,3591106,,,,,,,2025-01-22,1,,,,,ブルーム,0
920,2030001164500,新規,0,2025-01-22,2025-01-22,非凡株式会社,,株式会社,埼玉県,川口市,西川口１丁目６番１号小野田ビル５０２号,,11,203,3320021,,,,,,,2025-01-22,1,,,,,ヒボン,0
924,2030003025915,新規,0,2025-01-22,2025-01-22,ＤＲＥＳＳＥＲＳ合同会社,,合同会社,埼玉県,越谷市,レイクタウン８丁目３番地１ブリリアレイクタウンパークサイド１００９,,11,222,3430828,,,,,,,2025-01-22,1,,,,,ドレッサーズ,0
928,2040001137018,新規,0,2025-01-22,2025-01-22,株式会社ＲＡＤ　ＢＲＯＴＨＥＲＳ,,株式会社,千葉県,大網白里市,北飯塚１７５番地８,,12,239,2993218,,,,,,,2025-01-22,1,,,,,ラッドブラザーズ,0
929,2040001137109,新規,0,2025-01-22,2025-01-22,株式会社フェニックス,,株式会社,千葉県,佐倉市,上志津原４２番地３号,,12,212,2850844,,,,,,,2025-01-22,1,,,,,フェニックス,0
932,2040003026631,新規,0,2025-01-22,2025-01-22,ＳＡＮＳＨＡ合同会社,,合同会社,千葉県,佐倉市,井野１５７８番地１フローラ勝田台Ｂ棟２０１,,12,212,2850855,,,,,,,2025-01-22,1,,,,,サンサ,0
933,2040003026656,新規,0,2025-01-22,2025-01-22,合同会社ＭＢウェルディング,,合同会社,千葉県,千葉市稲毛区,小深町１２５番地６サニーハウス１０３号,,12,103,2630003,,,,,,,2025-01-22,1,,,,,エムビーウェルディング,0
941,2060001037843,新規,0,2025-01-22,2025-01-22,株式会社後藤組,,株式会社,栃木県,那須塩原市,上厚崎５６９番地５,,09,213,3250026,,,,,,,2025-01-22,1,,,,,ゴトウグミ,0
942,2060001037851,新規,0,2025-01-22,2025-01-22,株式会社ＮｅｗＣｈａｐｔｅｒ,,株式会社,栃木県,宇都宮市,吉野１丁目１０番４号サクラトカワト４Ａ,,09,201,3200838,,,,,,,2025-01-22,1,,,,,ニューチャプター,0
944,2070001042561,新規,0,2025-01-22,2025-01-22,アルトフル株式会社,,株式会社,群馬県,前橋市,下小出町１丁目１番２０号エクシード原嶋３０１,,10,201,3710031,,,,,,,2025-01-22,1,,,,,アルトフル,0
975,2080001026729,新規,0,2025-01-22,2025-01-22,株式会社エム・ロード,,株式会社,静岡県,島田市,船木１８８２番地の２３,,22,209,4270107,,,,,,,2025-01-22,1,,,,,エムロード,0
1024,2080101025259,新規,0,2025-01-22,2025-01-22,アトリエ宇佐美株式会社,,株式会社,静岡県,裾野市,千福が丘１丁目２１番７３,,22,220,4101115,,,,,,,2025-01-22,1,,,,,アトリエウサミ,0
1067,2090003002727,新規,0,2025-01-22,2025-01-22,合同会社笑福,,合同会社,山梨県,甲府市,貢川本町８番３０号,,19,201,4000048,,,,,,,2025-01-22,1,,,,,エフ,0
1069,2100003007955,新規,0,2025-01-22,2025-01-22,合同会社ｃｏｃｏｋａｒａサポート,,合同会社,長野県,上田市,常田２丁目３１番３号,,20,203,3860018,,,,,,,2025-01-22,1,,,,,ココカラサポート,0
1070,2110001039009,新規,0,2025-01-22,2025-01-22,株式会社バイオガール,,株式会社,新潟県,新潟市西区,内野町９８９番地,,15,107,9502112,,,,,,,2025-01-22,1,,,,,バイオガール,0
1078,2120001271964,新規,0,2025-01-22,2025-01-22,株式会社ｇｏｏｄｌｉｆｅ,,株式会社,大阪府,大阪市都島区,都島中通２丁目１５番７号,,27,102,5340022,,,,,,,2025-01-22,1,,,,,グッドライフ,0
1079,2120001272104,新規,0,2025-01-22,2025-01-22,冠舟電子科技株式会社,,株式会社,大阪府,大阪市西成区,花園北１丁目７番１４号５０２－Ｃ号室,,27,122,5570016,,,,,,,2025-01-22,1,,,,,カンシュウデンシカギ,0
1087,2130001078797,新規,0,2025-01-22,2025-01-22,株式会社ミクロ精工,,株式会社,京都府,木津川市,木津川台３丁目３０番地２－Ｂ－１０２,,26,214,6190225,,,,,,,2025-01-22,1,,,,,ミクロセイコウ,0
1088,2130001078814,新規,0,2025-01-22,2025-01-22,株式会社Ｈ・Ｙ,,株式会社,京都府,京都市下京区,七条通油小路東入大黒町２２７番地第２キョートビル４０２,,26,106,6008223,,,,,,,2025-01-22,1,,,,,エイチドットワイ,0
1089,2130001078839,新規,0,2025-01-22,2025-01-22,株式会社ＳＵＣＣＥＳＳ,,株式会社,京都府,城陽市,寺田樋尻６９番地７０,,26,207,6100121,,,,,,,2025-01-22,1,,,,,サクセス,0
1094,2140001137131,新規,0,2025-01-22,2025-01-22,株式会社のどの,,株式会社,兵庫県,神戸市須磨区,衣掛町３丁目１番２０号,,28,107,6540048,,,,,,,2025-01-22,1,,,,,ノドノ,0
1095,2140001137164,新規,0,2025-01-22,2025-01-22,株式会社ＢＬＵＥ　ＥＬＦＩＮ,,株式会社,兵庫県,神戸市兵庫区,下沢通４丁目３番１４号,,28,105,6520047,,,,,,,2025-01-22,1,,,,,ブルーエルフィン,0
1096,2140001137172,新規,0,2025-01-22,2025-01-22,株式会社日本産業技術承継,,株式会社,兵庫県,神戸市中央区,磯辺通１丁目１番１８号カサベラ国際プラザビル７０７,,28,110,6510084,,,,,,,2025-01-22,1,,,,,ニホンサンギョウギジュツショウケイ,0
1097,2140001137180,新規,0,2025-01-22,2025-01-22,株式会社ＣＲＡＮＥ,,株式会社,兵庫県,高砂市,伊保１丁目１６４６－１高砂スポーツプラザ２Ｆ,,28,216,6760078,,,,,,,2025-01-22,1,,,,,クレイン,0
1102,2160001026497,新規,0,2025-01-22,2025-01-22,株式会社美陽,,株式会社,滋賀県,犬上郡豊郷町,大字安食南１４７番地３２,,25,441,5291172,,,,,,,2025-01-22,1,,,,,ミヨウ,0
1103,2170003002157,新規,0,2025-01-22,2025-01-22,合同会社リゾル・スマイル,,合同会社,和歌山県,和歌山市,杉ノ馬場１丁目２２番地,,30,201,6408212,,,,,,,2025-01-22,1,,,,,リゾルスマイル,0
1108,2180001165070,新規,0,2025-01-22,2025-01-22,タカラテクノ株式会社,,株式会社,愛知県,名古屋市緑区,大将ケ根１丁目１３２２番地の２,,23,114,4580822,,,,,,,2025-01-22,1,,,,,タカラテクノ,0
1109,2180001165087,新規,0,2025-01-22,2025-01-22,株式会社グローバル・ブレイン,,株式会社,愛知県,名古屋市中区,錦３丁目４番６号,,23,106,4600003,,,,,,,2025-01-22,1,,,,,グローバルブレイン,0
1110,2180001165104,新規,0,2025-01-22,2025-01-22,株式会社Ｆａｍｉｌｌｅ,,株式会社,愛知県,名古屋市中区,千代田２丁目１６番１２号,,23,106,4600012,,,,,,,2025-01-22,1,,,,,ファミーユ,0
1112,2180003027772,新規,0,2025-01-22,2025-01-22,Ｓｅｇｒｅｔｏ合同会社,,合同会社,愛知県,名古屋市中村区,二ツ橋町１丁目３３番地の１,,23,105,4530813,,,,,,,2025-01-22,1,,,,,セグリート,0
1113,2180003027888,新規,0,2025-01-22,2025-01-22,合同会社ｆｉｌａｒｅ,,合同会社,愛知県,名古屋市瑞穂区,駒場町４丁目１９番地フォレシティ桜山１０８号,,23,108,4670807,,,,,,,2025-01-22,1,,,,,フィラーレ,0
1118,2180301039453,新規,0,2025-01-22,2025-01-22,株式会社ＳＨＯＲＩ,,株式会社,愛知県,岡崎市,夏山町字井戸入１３０番地,,23,202,4443621,,,,,,,2025-01-22,1,,,,,ショウリ,0
1121,2180305009650,新規,0,2025-01-22,2025-01-22,医療法人小石川医院,,その他の設立登記法人,愛知県,豊田市,足助町本町２４番地,,23,211,4442424,,,,,,,2025-01-22,1,,,,,コイシカワイイン,0
1122,2190001031924,新規,0,2025-01-22,2025-01-22,株式会社Ｍａｍｉｅ＆ｍａｍｉｅ,,株式会社,三重県,三重郡菰野町,大字吉澤８７８番地１１,,24,341,5101226,,,,,,,2025-01-22,1,,,,,マミーマミー,0
1159,2250001020978,新規,0,2025-01-22,2025-01-22,株式会社シーキング,,株式会社,山口県,下関市,貴船町３丁目１番５号,,35,201,7510823,,,,,,,2025-01-22,1,,,,,シーキング,0
1215,2290001108662,新規,0,2025-01-22,2025-01-22,株式会社ＪＳＯＷＥＬＬ,,株式会社,福岡県,福岡市博多区,博多駅南４丁目１２－３ルノアス博多５０３,,40,132,8120016,,,,,,,2025-01-22,1,,,,,,0
1216,2290001108729,新規,0,2025-01-22,2025-01-22,ｐｌｕｍｉａ株式会社,,株式会社,福岡県,福岡市西区,下山門２丁目１３番８号,,40,135,8190052,,,,,,,2025-01-22,1,,,,,プラミア,0
1242,2350001019374,新規,0,2025-01-22,2025-01-22,株式会社至誠,,株式会社,宮崎県,宮崎市,矢の先町１１７番地２,,45,201,8800034,,,,,,,2025-01-22,1,,,,,シセイ,0
1246,2370001052159,新規,0,2025-01-22,2025-01-22,ｃｏｎｎｅｃｔ株式会社,,株式会社,宮城県,仙台市若林区,上飯田１丁目２番１０号－２０１,,04,103,9840838,,,,,,,2025-01-22,1,,,,,コネクト,0
1249,2380001035047,新規,0,2025-01-22,2025-01-22,株式会社ＭＯＲＩコーポレーション,,株式会社,福島県,相馬市,小野字信田２２９番地７,,07,209,9760053,,,,,,,2025-01-22,1,,,,,モリコーポレーション,0
1254,2420001018988,新規,0,2025-01-22,2025-01-22,株式会社木造若緑団地建替事業,,株式会社,青森県,つがる市,木造若竹１３番地,,02,209,0383151,,,,,,,2025-01-22,1,,,,,キヅクリワカミドリダンチタテカエジギョウ,0
1257,2430001093493,新規,0,2025-01-22,2025-01-22,株式会社ジェイテック,,株式会社,北海道,札幌市豊平区,平岸三条９丁目１２番１９号,,01,105,0620933,,,,,,,2025-01-22,1,,,,,ジェイテック,0
1258,2430001093510,新規,0,2025-01-22,2025-01-22,株式会社新札幌管理,,株式会社,北海道,札幌市厚別区,厚別中央三条２丁目１３番３１号,,01,108,0040053,,,,,,,2025-01-22,1,,,,,シンサッポロカンリ,0
1262,2430003017194,新規,0,2025-01-22,2025-01-22,合同会社ＨＡＮＤ,,合同会社,北海道,札幌市白石区,南郷通３丁目南５番１６号白石グリーンハイツ６０１号,,01,104,0030022,,,,,,,2025-01-22,1,,,,,ハンド,0
1294,2470001020543,新規,0,2025-01-22,2025-01-22,株式会社ぽぽらす薬局,,株式会社,香川県,高松市,国分寺町新居２５８番地５,,37,201,7690101,,,,,,,2025-01-22,1,,,,,ポポラスヤッキョク,0
1299,2480005007057,新規,0,2025-01-22,2025-01-22,特定非営利活動法人蝉谷の風,,その他の設立登記法人,徳島県,那賀郡那賀町,木頭和無田字ニシノミヤ２２番地２,,36,368,7716403,,,,,,,2025-01-22,1,,,,,セミタニノカゼ,0
1300,2490001010947,新規,0,2025-01-22,2025-01-22,株式会社柚子のしずく,,株式会社,高知県,高知市,瀬戸南町２丁目８番５０号,,39,201,7810253,,,,,,,2025-01-22,1,,,,,ユズノシズク,0
1301,2500003003419,新規,0,2025-01-22,2025-01-22,合同会社アンケリアス,,合同会社,愛媛県,四国中央市,中曽根町４５８番地,,38,213,7990413,,,,,,,2025-01-22,1,,,,,アンケリアス,0
1306,2700150128881,新規,0,2025-01-22,2025-01-22,ＶＩＲＧＯ　ＳＨＩＰＨＯＬＤＩＮＧ　ＰＴＥ．ＬＴＤ,,外国会社等,,,,,,,,シンガポール市サンテック・タワースリー、＃３５－０２Ａ、テマセク・ブールバード８,,,,,,2025-01-22,1,,,,,ヴアルゴシツプホールデイングピーテイーイーエルテイーデイー,0
1307,2700150128907,新規,0,2025-01-22,2025-01-22,ＣＨＯＰＡＵＴＯ　ＥＮＴＥＲＰＲＩＳＥＳ,,外国会社等,千葉県,山武市,埴谷１５００番地２７,,12,237,2891223,スリランカ民主社会主義共和国、アクラナ、マタレロード、Ｎｏ．１６６／３,,,,,,2025-01-22,1,,,,,チヨツプオートエンタープライズ,0
1318,3010001251596,新規,0,2025-01-22,2025-01-22,株式会社ブルーウイング,,株式会社,東京都,文京区,本郷２丁目３１番８号,,13,105,1130033,,,,,,,2025-01-22,1,,,,,ブルーウイング,0
1319,3010001251621,新規,0,2025-01-22,2025-01-22,株式会社ｏｒａｎｇｅ,,株式会社,東京都,中央区,勝どき５丁目３番１－１５２４号,,13,102,1040054,,,,,,,2025-01-22,1,,,,,オレンジ,0
1320,3010001251646,新規,0,2025-01-22,2025-01-22,ＡＺＥＡＴ株式会社,,株式会社,東京都,中央区,銀座７丁目２番８号,,13,102,1040061,,,,,,,2025-01-22,1,,,,,アズィート,0
1322,3010003046128,新規,0,2025-01-22,2025-01-22,合同会社サポート４８号,,合同会社,東京都,千代田区,丸の内１丁目４番１号東京共同会計事務所内,,13,101,1000005,,,,,,,2025-01-22,1,,,,,サポートヨンジュウハチゴウ,0
1326,3010005039419,新規,0,2025-01-22,2025-01-22,一般社団法人グローバルビューティエデュケーション協会,,その他の設立登記法人,東京都,中央区,銀座１丁目２７番８号セントラルビル２Ｆ,,13,102,1040061,,,,,,,2025-01-22,1,,,,,グローバルビューティエデュケーションキョウカイ,0
1327,3010005039435,新規,0,2025-01-22,2025-01-22,一般社団法人ＭＲひかり蓄電,,その他の設立登記法人,東京都,千代田区,二番町３番地麹町スクエア株式会社シリウス・アドバイザリー内,,13,101,1020084,,,,,,,2025-01-22,1,,,,,エムアールヒカリチクデン,0
1372,3010103002492,新規,0,2025-01-22,2025-01-22,春凪合同会社,,合同会社,東京都,八王子市,明神町２丁目２５－３、２０６号,,13,201,1920046,,,,,,,2025-01-22,1,,,,,ハルナギ,0
1384,3010401187564,新規,0,2025-01-22,2025-01-22,ＰＡＬＰＩＴＯ株式会社,,株式会社,東京都,港区,北青山１丁目３番１号アールキューブ青山３階,,13,103,1070061,,,,,,,2025-01-22,1,,,,,パルピト,0
1385,3010401187606,新規,0,2025-01-22,2025-01-22,株式会社日本防衛ＤＸ,,株式会社,東京都,港区,六本木４丁目３番１１号六本木ユニハウス２２３,,13,103,1060032,,,,,,,2025-01-22,1,,,,,ニホンボウエイディーエックス,0
1388,3010403034194,新規,0,2025-01-22,2025-01-22,合同会社ＴＨエンジニアリング,,合同会社,東京都,港区,南青山３丁目１番３６号青山丸竹ビル６Ｆ,,13,103,1070062,,,,,,,2025-01-22,1,,,,,ティーエイチエンジニアリング,0
1389,3010403034203,新規,0,2025-01-22,2025-01-22,富良野ホスピタリティ合同会社,,合同会社,東京都,港区,赤坂４丁目１番３１号,,13,103,1070052,,,,,,,2025-01-22,1,,,,,フラノホスピタリティ,0
1391,3010405023939,新規,0,2025-01-22,2025-01-22,一般財団法人学寮講座,,その他の設立登記法人,東京都,港区,高輪２丁目１１番１号泉岳寺内,,13,103,1080074,,,,,,,2025-01-22,1,,,,,ガクリョウコウザ,0
1392,3010405024012,新規,0,2025-01-22,2025-01-22,ＬＪＤＣ　Ｈｏｒｉｚｏｎ特定目的会社,,その他の設立登記法人,東京都,港区,六本木１丁目６番１号泉ガーデンタワー１２階,,13,103,1060032,,,,,,,2025-01-22,1,,,,,エルジェーディーシーホライゾン,0
1394,3010501053451,新規,0,2025-01-22,2025-01-22,東亜国際株式会社,,株式会社,東京都,台東区,根岸３丁目２番１３－１４０６号,,13,106,1100003,,,,,,,2025-01-22,1,,,,,トウアコクサイ,0
1395,3010501053501,新規,0,2025-01-22,2025-01-22,株式会社パライバ,,株式会社,東京都,台東区,元浅草１丁目４番１２号東京合同ビル３Ｆ,,13,106,1110041,,,,,,,2025-01-22,1,,,,,パライバ,0
1399,3010601066618,新規,0,2025-01-22,2025-01-22,株式会社ＴＫ‐ｃｏｍｐａｎｙ,,株式会社,東京都,江東区,東陽４丁目１番１９号６階,,13,108,1350016,,,,,,,2025-01-22,1,,,,,ティーケーカンパニー,0
1400,3010601066626,新規,0,2025-01-22,2025-01-22,岩林株式会社,,株式会社,東京都,墨田区,文花１丁目３４番１１－２０８号,,13,107,1310044,,,,,,,2025-01-22,1,,,,,イワバヤシ,0
1491,3010801035777,新規,0,2025-01-22,2025-01-22,株式会社新星塗装,,株式会社,東京都,大田区,池上８丁目７番１号,,13,111,1460082,,,,,,,2025-01-22,1,,,,,シンセイトソウ,0
1508,3011001167147,新規,0,2025-01-22,2025-01-22,株式会社トラスト,,株式会社,東京都,渋谷区,宇田川町３７番１０号麻仁ビル,,13,113,1500042,,,,,,,2025-01-22,1,,,,,,0
1509,3011001167329,新規,0,2025-01-22,2025-01-22,株式会社ＴＯＲＩＣＯＭ,,株式会社,東京都,渋谷区,代々木５丁目８番９号メインステージ代々木公園２０１,,13,113,1510053,,,,,,,2025-01-22,1,,,,,トリコム,0
1515,3011101110304,新規,0,2025-01-22,2025-01-22,株式会社ジニファス,,株式会社,東京都,新宿区,余丁町６番７号,,13,104,1620055,,,,,,,2025-01-22,1,,,,,ジニファス,0
1516,3011101110320,新規,0,2025-01-22,2025-01-22,フェリス株式会社,,株式会社,東京都,新宿区,高田馬場４丁目４０番２－２０９号,,13,104,1690075,,,,,,,2025-01-22,1,,,,,フェリス,0
1519,3011103015427,新規,0,2025-01-22,2025-01-22,合同会社コードタウン,,合同会社,東京都,新宿区,西新宿３丁目３番１３号西新宿水間ビル２Ｆ,,13,104,1600023,,,,,,,2025-01-22,1,,,,,コードタウン,0
1523,3011303005392,新規,0,2025-01-22,2025-01-22,ａｖＦＬ＆ＥＮ合同会社,,合同会社,東京都,杉並区,上井草１丁目２６番４号,,13,115,1670023,,,,,,,2025-01-22,1,,,,,アベフルアンドイーエヌ,0
1524,3011401026745,新規,0,2025-01-22,2025-01-22,ニクセンド株式会社,,株式会社,東京都,板橋区,坂下１丁目２８番２号,,13,119,1740043,,,,,,,2025-01-22,1,,,,,ニクセンド,0
1525,3011401026761,新規,0,2025-01-22,2025-01-22,株式会社ＮＥＸＴＵＰ,,株式会社,東京都,板橋区,成増２丁目１番２０－１０３号スコッチハウス,,13,119,1750094,,,,,,,2025-01-22,1,,,,,ネクストアップ,0
1526,3011501031604,新規,0,2025-01-22,2025-01-22,株式会社ＦＵＲＢＡ　ＩＮＴＥＲＮＡＴＩＯＮＡＬ,,株式会社,東京都,北区,赤羽南１丁目１－１－２０４号室,,13,117,1150044,,,,,,,2025-01-22,1,,,,,フルバインターナショナル,0
1528,3011503006389,新規,0,2025-01-22,2025-01-22,ドーゾ合同会社,,合同会社,東京都,北区,岩淵町３８番２５－１５０１号,,13,117,1150041,,,,,,,2025-01-22,1,,,,,ドーゾ,0
1540,3011801045469,新規,0,2025-01-22,2025-01-22,蒼穹商事株式会社,,株式会社,東京都,足立区,梅田５丁目１２番７号,,13,121,1230851,,,,,,,2025-01-22,1,,,,,ソウキュウショウジ,0
1542,3012303002099,新規,0,2025-01-22,2025-01-22,合同会社ビジョンらぼ,,合同会社,東京都,町田市,原町田４丁目１１－１３天野ビル４Ｆ,,13,209,1940013,,,,,,,2025-01-22,1,,,,,ビジョンラボ,0
1546,3012401042690,新規,0,2025-01-22,2025-01-22,株式会社Ｌｕｍｉｎａ,,株式会社,東京都,調布市,深大寺元町２丁目３番地３３,,13,208,1820017,,,,,,,2025-01-22,1,,,,,ルミナ,0
1547,3012403006925,新規,0,2025-01-22,2025-01-22,合同会社テルポム,,合同会社,東京都,武蔵野市,吉祥寺南町１丁目５番９号くまもとビル７階,,13,203,1800003,,,,,,,2025-01-22,1,,,,,テルポム,0
1563,3021001084226,新規,0,2025-01-22,2025-01-22,株式会社遊心ステップ,,株式会社,神奈川県,相模原市中央区,田名塩田４丁目６番１５号,,14,152,2520245,,,,,,,2025-01-22,1,,,,,ユウシンステップ,0
1564,3021001084259,新規,0,2025-01-22,2025-01-22,株式会社東宝ハウス逗子・葉山リゾート,,株式会社,神奈川県,逗子市,逗子１丁目５番２号,,14,208,2490006,,,,,,,2025-01-22,1,,,,,トウホウハウスズシハヤマリゾート,0
1565,3021001084267,新規,0,2025-01-22,2025-01-22,株式会社ＦＡＶＯＲＩ,,株式会社,神奈川県,横須賀市,森崎６丁目３番１１号,,14,201,2380023,,,,,,,2025-01-22,1,,,,,ファボリ,0
1566,3021001084283,新規,0,2025-01-22,2025-01-22,株式会社ｅｌｐｉｓ,,株式会社,神奈川県,大和市,中央林間２丁目１３－９ｃ１Ｆ,,14,213,2420007,,,,,,,2025-01-22,1,,,,,エルピス,0
1571,3030001164458,新規,0,2025-01-22,2025-01-22,株式会社ｂｕｎｔｙｏｕ,,株式会社,埼玉県,所沢市,緑町２丁目１０番８－９０６号,,11,208,3591111,,,,,,,2025-01-22,1,,,,,ブンチョウ,0
1572,3030001164482,新規,0,2025-01-22,2025-01-22,株式会社ＫＳＮ,,株式会社,埼玉県,川越市,大字笠幡１９９６番地３,,11,201,3501175,,,,,,,2025-01-22,1,,,,,ケーエスエヌ,0
1573,3030001164499,新規,0,2025-01-22,2025-01-22,ネクストマネジメント株式会社,,株式会社,埼玉県,志木市,中宗岡５丁目２１番１－１０１号,,11,228,3530002,,,,,,,2025-01-22,1,,,,,ネクストマネジメント,0
1574,3030001164532,新規,0,2025-01-22,2025-01-22,ＮＡＲＡ株式会社,,株式会社,埼玉県,川口市,柳崎４丁目２５番４号,,11,203,3330861,,,,,,,2025-01-22,1,,,,,ナラ,0
1577,3030003025889,新規,0,2025-01-22,2025-01-22,合同会社グレイトフルハート,,合同会社,埼玉県,春日部市,粕壁東３丁目５番８号イセソラージュ９０５,,11,214,3440062,,,,,,,2025-01-22,1,,,,,グレイトフルハート,0
1578,3030003025914,新規,0,2025-01-22,2025-01-22,合同会社ＬＡＴＳ,,合同会社,埼玉県,深谷市,緑ケ丘２１番３６号,,11,218,3660054,,,,,,,2025-01-22,1,,,,,エルエーティーエス,0
1587,3040001137082,新規,0,2025-01-22,2025-01-22,株式会社千葉農人,,株式会社,千葉県,東金市,北之幸谷４３番地１アインズコート東金弐番館３０４,,12,213,2830061,,,,,,,2025-01-22,1,,,,,チバノウジン,0
1588,3040001137090,新規,0,2025-01-22,2025-01-22,株式会社ファイン,,株式会社,千葉県,市原市,姉崎１１８８番地３－２,,12,219,2990111,,,,,,,2025-01-22,1,,,,,ファイン,0
1589,3040001137099,新規,0,2025-01-22,2025-01-22,株式会社八祐,,株式会社,千葉県,木更津市,八幡台３丁目２２番１９号,,12,206,2920814,,,,,,,2025-01-22,1,,,,,ハチユウ,0
1592,3040003026671,新規,0,2025-01-22,2025-01-22,合同会社ＳＴ企画,,合同会社,千葉県,四街道市,大日３０４番地２２,,12,228,2840001,,,,,,,2025-01-22,1,,,,,エスティーキカク,0
1594,3040005022636,新規,0,2025-01-22,2025-01-22,ＮＰＯ法人紡ぎ,,その他の設立登記法人,千葉県,富津市,大堀３丁目１０番地６レストハイツＢ棟１０５号室,,12,226,2930001,,,,,,,2025-01-22,1,,,,,ツムギ,0
1600,3060005010283,新規,0,2025-01-22,2025-01-22,一般社団法人しらさぎ振興会,,その他の設立登記法人,栃木県,河内郡上三川町,しらさぎ２丁目２２番地３,,09,301,3290618,,,,,,,2025-01-22,1,,,,,シラサギシンコウカイ,0
1696,3080101025266,新規,0,2025-01-22,2025-01-22,ＡｏＴ株式会社,,株式会社,静岡県,富士市,青島町１７４番地の３,,22,210,4170047,,,,,,,2025-01-22,1,,,,,エーオーティー,0
1750,3100003007954,新規,0,2025-01-22,2025-01-22,合同会社八來,,合同会社,長野県,飯田市,上村１３１４,,20,205,3991403,,,,,,,2025-01-22,1,,,,,ハックル,0
1757,3120001272004,新規,0,2025-01-22,2025-01-22,株式会社Ｓａｍｅ　Ｈｅａｒｔ,,株式会社,大阪府,大阪市西区,立売堀６丁目７番５１－１３０３号,,27,106,5500012,,,,,,,2025-01-22,1,,,,,セイムハート,0
1758,3120001272078,新規,0,2025-01-22,2025-01-22,有明株式会社,,株式会社,大阪府,大阪市大正区,三軒家西３丁目４番１６号中山ビル１００２,,27,108,5510001,,,,,,,2025-01-22,1,,,,,ユウメイ,0
1759,3120001272128,新規,0,2025-01-22,2025-01-22,尾上ＨＹ塗装株式会社,,株式会社,大阪府,大阪市西成区,天下茶屋１丁目１５番２０号,,27,122,5570014,,,,,,,2025-01-22,1,,,,,オノウエエイチワイトソウ,0
1760,3120001272160,新規,0,2025-01-22,2025-01-22,ＡｓｐｉＲｏｖｅ株式会社,,株式会社,大阪府,大阪市浪速区,日本橋西１丁目８番２１－１２０１号,,27,111,5560004,,,,,,,2025-01-22,1,,,,,アスピローブ,0
1764,3120005024723,新規,0,2025-01-22,2025-01-22,一般社団法人箕面川合・山之口共同売却,,その他の設立登記法人,大阪府,大阪市中央区,高麗橋４丁目３番７号淀屋橋総合会計内,,27,128,5410043,,,,,,,2025-01-22,1,,,,,ミノオカワイヤマノクチキョウドウバイキャク,0
1770,3122001038789,新規,0,2025-01-22,2025-01-22,株式会社Ｇｉｒａｓｏｌｅ,,株式会社,大阪府,東大阪市,新池島町２丁目２番９号アカマツ１階,,27,227,5798065,,,,,,,2025-01-22,1,,,,,ジラソーレ,0
1773,3130001078821,新規,0,2025-01-22,2025-01-22,株式会社Ｋ‐ＤＡＩＣＨＩ,,株式会社,京都府,京都市左京区,北白川丸山町１番地１６０,,26,103,6068281,,,,,,,2025-01-22,1,,,,,ケーダイチ,0
1777,3140001137023,新規,0,2025-01-22,2025-01-22,株式会社カナヤマ自動車,,株式会社,兵庫県,高砂市,米田町米田１１１６番地,,28,216,6760805,,,,,,,2025-01-22,1,,,,,カナヤマジドウシャ,0
1778,3140001137147,新規,0,2025-01-22,2025-01-22,メデル・ワン・スリー・ファイブ・イー株式会社,,株式会社,兵庫県,淡路市,佐野９００番地,,28,226,6562212,,,,,,,2025-01-22,1,,,,,メデルワンスリーファイブイー,0
1779,3140001137155,新規,0,2025-01-22,2025-01-22,Ｉｎｎｅｒ　Ｖｏｙａｇｅ株式会社,,株式会社,兵庫県,神戸市中央区,三宮町１丁目４－９ワコーレ神戸三宮ビル７階,,28,110,6500021,,,,,,,2025-01-22,1,,,,,インナーボヤージュ,0
1790,3180001165012,新規,0,2025-01-22,2025-01-22,株式会社ＮＡＧＯＹＡ　ＴＲＡＤＩＮＧ,,株式会社,愛知県,一宮市,千秋町芝原字中道１５番地３・１Ｆ,,23,203,4910812,,,,,,,2025-01-22,1,,,,,ナゴヤトレーディング,0
1791,3180001165061,新規,0,2025-01-22,2025-01-22,株式会社ディーズ,,株式会社,愛知県,知多郡東浦町,大字藤江字大坪４０番地の１,,23,442,4702105,,,,,,,2025-01-22,1,,,,,ディーズ,0
1792,3180001165103,新規,0,2025-01-22,2025-01-22,株式会社ワンスプリング,,株式会社,愛知県,名古屋市中区,丸の内２丁目１３番２５号,,23,106,4600002,,,,,,,2025-01-22,1,,,,,ワンスプリング,0
1794,3180003027796,新規,0,2025-01-22,2025-01-22,ドライブ合同会社,,合同会社,愛知県,名古屋市港区,小碓１丁目４２４,,23,111,4550801,,,,,,,2025-01-22,1,,,,,ドライブ,0
1798,3180301039460,新規,0,2025-01-22,2025-01-22,株式会社伊藤商事,,株式会社,愛知県,岡崎市,上里３丁目２番地６グランドステージ桜華３０５,,23,202,4442136,,,,,,,2025-01-22,1,,,,,イトウショウジ,0
1813,3220001026440,新規,0,2025-01-22,2025-01-22,株式会社中道商店,,株式会社,石川県,輪島市,河井町８字１５番地１,,17,204,9280001,,,,,,,2025-01-22,1,,,,,ナカミチショウテン,0
1847,3250001020977,新規,0,2025-01-22,2025-01-22,Ｋｉｚｕｎａ　ｒｏｏｔｓ株式会社,,株式会社,山口県,山口市,中央４丁目１番１号,,35,203,7530074,,,,,,,2025-01-22,1,,,,,キズナルーツ,0
1848,3260001005515,新規,0,2025-01-22,2025-01-22,東瀬戸圏開発株式会社,,株式会社,岡山県,岡山市,下４５５番地の１,,33,100,,,,,,,,2025-01-22,1,,,,,,0
1850,3260001039835,新規,0,2025-01-22,2025-01-22,株式会社ＣｒｅＶａｎｃｅ,,株式会社,岡山県,岡山市北区,東島田町１丁目６番２０号１０２号室,,33,101,7000983,,,,,,,2025-01-22,1,,,,,クレヴァンス,0
1852,3260005011435,新規,0,2025-01-22,2025-01-22,一般社団法人だいすき,,その他の設立登記法人,岡山県,井原市,美星町黒忠３０７７番地,,33,207,7141407,,,,,,,2025-01-22,1,,,,,,0
1887,3290001108678,新規,0,2025-01-22,2025-01-22,株式会社善栄,,株式会社,福岡県,筑紫野市,大字永岡７５３番地３４,,40,217,8180066,,,,,,,2025-01-22,1,,,,,ゼンエイ,0
1888,3290001108686,新規,0,2025-01-22,2025-01-22,Ｚｅｎｎｏｍａｄ　Ｆｕｋｕｏｋａ株式会社,,株式会社,福岡県,福岡市東区,香椎１丁目１０番５号メゾン・ド・香椎参道２０５号室,,40,131,8130011,,,,,,,2025-01-22,1,,,,,ゼノマッドフクオカ,0
1889,3290001108694,新規,0,2025-01-22,2025-01-22,東圓投資株式会社,,株式会社,福岡県,福岡市南区,野間１丁目１０番２２号,,40,134,8150041,,,,,,,2025-01-22,1,,,,,トウエントウシ,0
1890,3290001108728,新規,0,2025-01-22,2025-01-22,つどい不動産株式会社,,株式会社,福岡県,太宰府市,通古賀１丁目２番３０号,,40,221,8180104,,,,,,,2025-01-22,1,,,,,ツドイフドウサン,0
1893,3290801031212,新規,0,2025-01-22,2025-01-22,株式会社聖林・ＷＥＳＴ,,株式会社,福岡県,北九州市門司区,片上海岸３番７号,,40,101,8000061,,,,,,,2025-01-22,1,,,,,ハリウッドウエスト,0
1894,3290801031220,新規,0,2025-01-22,2025-01-22,株式会社のおがたエナジー,,株式会社,福岡県,直方市,須崎町１１番１０号,,40,204,8220024,,,,,,,2025-01-22,1,,,,,ノオガタエナジー,0
1914,3330001032824,新規,0,2025-01-22,2025-01-22,盛マネジメント＆サービス株式会社,,株式会社,熊本県,熊本市中央区,水前寺１丁目２２番１５－５０２号,,43,101,8620950,,,,,,,2025-01-22,1,,,,,モリマネジメントアンドサービス,0
1915,3350003004828,新規,0,2025-01-22,2025-01-22,合同会社翊煌,,合同会社,宮崎県,宮崎市,高岡町浦之名４９０４番地２０,,45,201,8802323,,,,,,,2025-01-22,1,,,,,ユウコウ,0
1918,3370001052158,新規,0,2025-01-22,2025-01-22,株式会社リブロ,,株式会社,宮城県,仙台市青葉区,春日町４番２５号パストラルハイム春日町５０４,,04,101,9800821,,,,,,,2025-01-22,1,,,,,リブロ,0
1925,3390001017860,新規,0,2025-01-22,2025-01-22,株式会社ベジプラスファーム,,株式会社,山形県,山形市,大字七浦４９４番地１,,06,201,9902171,,,,,,,2025-01-22,1,,,,,ベジプラスファーム,0
1929,3410003004037,新規,0,2025-01-22,2025-01-22,合同会社ＳＰＩＣＥ　ＬＩＶＥＳ,,合同会社,秋田県,横手市,八幡字八幡１５１番地,,05,203,0130071,,,,,,,2025-01-22,1,,,,,スパイスライブス,0
1930,3420003003054,新規,0,2025-01-22,2025-01-22,北山管理会計合同会社,,合同会社,青森県,八戸市,大字窪町１１－１ライオンズマンション番町４０５,,02,203,0310083,,,,,,,2025-01-22,1,,,,,キタヤマカンリカイケイ,0
1936,3430001093501,新規,0,2025-01-22,2025-01-22,株式会社次代建設,,株式会社,北海道,室蘭市,本輪西町３丁目３７番６号,,01,205,0500065,,,,,,,2025-01-22,1,,,,,ジダイケンセツ,0
1965,3450001014505,新規,0,2025-01-22,2025-01-22,Ｍｏｏの株式会社,,株式会社,北海道,宗谷郡猿払村,浜猿払１０７５番地６１,,01,511,0986105,,,,,,,2025-01-22,1,,,,,ムーノ,0
1968,3470001020542,新規,0,2025-01-22,2025-01-22,Ｔ＆ＬＩＦＥホールディングス株式会社,,株式会社,香川県,高松市,茜町２４番１３号,,37,201,7600002,,,,,,,2025-01-22,1,,,,,ティーアンドライフホールディングス,0
1969,3500003003418,新規,0,2025-01-22,2025-01-22,合同会社はまかぜ,,合同会社,愛媛県,西予市,明浜町宮野浦甲１０５０番地,,38,214,7970202,,,,,,,2025-01-22,1,,,,,ハマカゼ,0
1989,4010001251595,新規,0,2025-01-22,2025-01-22,Ｔｈｒｅｅ　Ｂｒｉｇｈｔ株式会社,,株式会社,東京都,文京区,湯島３丁目２４番８号ＣＡＶＥ・ＹＵＳＨＩＭＡ５０２,,13,105,1130034,,,,,,,2025-01-22,1,,,,,スリーブライト,0
1990,4010001251645,新規,0,2025-01-22,2025-01-22,株式会社かむくら,,株式会社,東京都,中央区,銀座７丁目１５番８号タウンハイツ銀座４０６,,13,102,1040061,,,,,,,2025-01-22,1,,,,,カムクラ,0
1993,4010003046135,新規,0,2025-01-22,2025-01-22,ハイロックス合同会社,,合同会社,東京都,中央区,日本橋３丁目９番１号日本橋三丁目スクエア１１階,,13,102,1030027,,,,,,,2025-01-22,1,,,,,ハイロックス,0
1994,4010003046143,新規,0,2025-01-22,2025-01-22,合同会社ＳＨＯＷ　ＴＥＮ,,合同会社,東京都,中央区,銀座１丁目１２番４号Ｎ＆ＥＢＬＤ．６Ｆ,,13,102,1040061,,,,,,,2025-01-22,1,,,,,ショウテン,0
1996,4010005039426,新規,0,2025-01-22,2025-01-22,一般社団法人日本自動車データレコード鑑定協会,,その他の設立登記法人,東京都,中央区,日本橋室町１丁目１１番１２号日本橋水野ビル７階,,13,102,1030022,,,,,,,2025-01-22,1,,,,,ニホンジドウシャデータレコードカンテイキョウカイ,0
1997,4010005039442,新規,0,2025-01-22,2025-01-22,一般社団法人ＡＴＪ７,,その他の設立登記法人,東京都,千代田区,丸の内１丁目４番１号東京共同会計事務所内,,13,101,1000005,,,,,,,2025-01-22,1,,,,,エーティージェイセブン,0
2043,4010103002491,新規,0,2025-01-22,2025-01-22,瑞音合同会社,,合同会社,東京都,八王子市,東町１０番３号１階１０１号,,13,201,1920082,,,,,,,2025-01-22,1,,,,,ミズネ,0
2054,4010401187472,新規,0,2025-01-22,2025-01-22,株式会社ＥＤＵＣＥＲＥ,,株式会社,東京都,港区,北青山１丁目３番１号アールキューブ青山３階,,13,103,1070061,,,,,,,2025-01-22,1,,,,,エデュケーレ,0
2055,4010401187596,新規,0,2025-01-22,2025-01-22,株式会社面白がる力研究所,,株式会社,東京都,港区,高輪３丁目１９番２２－１１０１号,,13,103,1080074,,,,,,,2025-01-22,1,,,,,オモシロガルチカラケンキュウジョ,0
2056,4010401187695,新規,0,2025-01-22,2025-01-22,株式会社シンクファーストグループ,,株式会社,東京都,港区,西新橋３丁目１４番８号,,13,103,1050003,,,,,,,2025-01-22,1,,,,,シンクファーストグループ,0
2063,4010601066600,新規,0,2025-01-22,2025-01-22,ＡＮＲＯ商事株式会社,,株式会社,東京都,墨田区,両国１丁目１２番１２号塚田ビル３階,00137725,13,107,1300026,,,,,,,2025-01-22,1,,,,,アンロショウジ,0
2177,4010901056697,新規,0,2025-01-22,2025-01-22,株式会社ロサンゼルス誠信,,株式会社,東京都,世田谷区,成城７丁目３１－８－５,,13,112,1570066,,,,,,,2025-01-22,1,,,,,ロサンゼルスセイシン,0
2180,4011001166841,新規,0,2025-01-22,2025-01-22,株式会社ＸＲシステムズ,,株式会社,東京都,目黒区,下目黒１丁目１番１４号コノトラビル７Ｆ,,13,110,1530064,,,,,,,2025-01-22,1,,,,,エックスアールシステムズ,0
2181,4011001167253,新規,0,2025-01-22,2025-01-22,株式会社東松,,株式会社,東京都,渋谷区,桜丘町２４番１８号,,13,113,1500031,,,,,,,2025-01-22,1,,,,,トウマツ,0
2182,4011001167303,新規,0,2025-01-22,2025-01-22,株式会社ＫｉｎＴｓｕｇｉ,,株式会社,東京都,渋谷区,代々木１丁目２５番５号ＢＩＺＳＭＡＲＴ代々木３０６,,13,113,1510053,,,,,,,2025-01-22,1,,,,,キンツギ,0
2184,4011003020798,新規,0,2025-01-22,2025-01-22,合同会社Ｓｙｍｂｉｏ　Ｈｏｕｓｉｎｇ,,合同会社,東京都,渋谷区,恵比寿西２丁目４番８号ウィンド恵比寿ビル８Ｆ,,13,113,1500021,,,,,,,2025-01-22,1,,,,,シンビオハウジング,0
2185,4011005010847,新規,0,2025-01-22,2025-01-22,一般財団法人ＮｅｏＣｌａｓｓｉｃａ,,その他の設立登記法人,東京都,渋谷区,桜丘町２０番１号インフォスタワー２階,,13,113,1500031,,,,,,,2025-01-22,1,,,,,ネオクラシカ,0
2187,4011101110336,新規,0,2025-01-22,2025-01-22,株式会社ＯＴＫグループ,,株式会社,東京都,新宿区,新宿５丁目１番４号新宿イン５０１,,13,104,1600022,,,,,,,2025-01-22,1,,,,,オーティーケーグループ,0
2188,4011101110344,新規,0,2025-01-22,2025-01-22,株式会社Ｅａｓｙ１,,株式会社,東京都,新宿区,新宿１丁目３１番７号新宿御苑ダイカンプラザ１１階,,13,104,1600022,,,,,,,2025-01-22,1,,,,,イージーワン,0
2191,4011303005391,新規,0,2025-01-22,2025-01-22,合同会社ＥＳＣＲＯＷ,,合同会社,東京都,杉並区,和田１丁目７１番８号,,13,115,1660012,,,,,,,2025-01-22,1,,,,,エスクロー,0
2193,4011403004599,新規,0,2025-01-22,2025-01-22,合同会社ａｏ　ａｋｕａ,,合同会社,東京都,板橋区,大山東町１番１０－９０５号,,13,119,1730014,,,,,,,2025-01-22,1,,,,,アオアクア,0
2195,4011501031578,新規,0,2025-01-22,2025-01-22,メゾンランド株式会社,,株式会社,東京都,北区,滝野川３丁目２７番４号,,13,117,1140023,,,,,,,2025-01-22,1,,,,,メゾンランド,0
2207,4011801045484,新規,0,2025-01-22,2025-01-22,株式会社ＬＵＶＩＬＬＡ,,株式会社,東京都,足立区,千住中居町１８－９クローネ北千住１階,,13,121,1200035,,,,,,,2025-01-22,1,,,,,ルヴィラ,0
2209,4012301014236,新規,0,2025-01-22,2025-01-22,株式会社Ｍ＆Ｍ,,株式会社,東京都,町田市,森野４丁目１５－１２寺田ビル森野Ａ２１１,,13,209,1940022,,,,,,,2025-01-22,1,,,,,エムアンドエム,0
2213,4012703003183,新規,0,2025-01-22,2025-01-22,合同会社Ｓ・Ｋ,,合同会社,東京都,清瀬市,中里３丁目９８７番地,,13,221,2040003,,,,,,,2025-01-22,1,,,,,エスケー,0
2218,4020001160878,新規,0,2025-01-22,2025-01-22,Ｎｏａｈ株式会社,,株式会社,神奈川県,横浜市西区,老松町２９番地１,,14,103,2200032,,,,,,,2025-01-22,1,,,,,,0
2222,4020003027687,新規,0,2025-01-22,2025-01-22,合同会社ミラエイト,,合同会社,神奈川県,横浜市中区,千代崎町２丁目７１－７ヴェレーナグラン山手３０２,,14,104,2310864,,,,,,,2025-01-22,1,,,,,ミラエイト,0
2227,4021001084274,新規,0,2025-01-22,2025-01-22,株式会社エービーエスオート,,株式会社,神奈川県,藤沢市,用田１５３１番地の１,,14,205,2520821,,,,,,,2025-01-22,1,,,,,エービーエスオート,0
2228,4021001084282,新規,0,2025-01-22,2025-01-22,エンドウメタルホールディングス株式会社,,株式会社,神奈川県,綾瀬市,吉岡２６２４番地１,,14,218,2521124,,,,,,,2025-01-22,1,,,,,エンドウメタルホールディングス,0
2230,4021005013254,新規,0,2025-01-22,2025-01-22,一般社団法人日本ＥＤＭ普及協会,,その他の設立登記法人,神奈川県,横須賀市,久里浜７丁目３１番１,,14,201,2390831,,,,,,,2025-01-22,1,,,,,ニホンイーディーエムフキュウキョウカイ,0
2236,4030001164457,新規,0,2025-01-22,2025-01-22,株式会社ｗｉｌｌｂｅ,,株式会社,埼玉県,さいたま市緑区,大字大牧１４８９番地１０,,11,109,3360922,,,,,,,2025-01-22,1,,,,,ウィルビー,0
2237,4030001164465,新規,0,2025-01-22,2025-01-22,株式会社ＨＩＲＯＴＯＹＯ,,株式会社,埼玉県,草加市,住吉１丁目１３番１９号,,11,221,3400014,,,,,,,2025-01-22,1,,,,,ヒロトヨ,0
2238,4030001164473,新規,0,2025-01-22,2025-01-22,株式会社サンマーク,,株式会社,埼玉県,越谷市,花田５丁目１番地６アプローズ越谷２０２,,11,222,3430015,,,,,,,2025-01-22,1,,,,,サンマーク,0
2239,4030001164507,新規,0,2025-01-22,2025-01-22,株式会社Ｇ＆Ａリアルティ,,株式会社,埼玉県,上尾市,大字上尾下９７０番地３,,11,219,3620025,,,,,,,2025-01-22,1,,,,,ジーアンドエーリアルティ,0
2244,4030003025896,新規,0,2025-01-22,2025-01-22,合同会社タカチ,,合同会社,埼玉県,川越市,南通町１２番地２３,,11,201,3500045,,,,,,,2025-01-22,1,,,,,タカチ,0
2245,4030003025913,新規,0,2025-01-22,2025-01-22,ＳｙｎｃＬｅａｄ合同会社,,合同会社,埼玉県,さいたま市岩槻区,美園東１丁目２８－２８,,11,110,3390028,,,,,,,2025-01-22,1,,,,,シンクリード,0
2247,4040001137081,新規,0,2025-01-22,2025-01-22,株式会社ＭＫＳ企画,,株式会社,千葉県,習志野市,谷津１丁目１５番２２－２９１３号,,12,216,2750026,,,,,,,2025-01-22,1,,,,,エムケーエスキカク,0
2248,4040001137107,新規,0,2025-01-22,2025-01-22,株式会社オアシス,,株式会社,千葉県,習志野市,実籾５丁目５番１８－３０１号,,12,216,2750002,,,,,,,2025-01-22,1,,,,,オアシス,0
2257,4040003026679,新規,0,2025-01-22,2025-01-22,合同会社癒快,,合同会社,千葉県,市原市,潤井戸２０６０番地の２,,12,219,2900171,,,,,,,2025-01-22,1,,,,,ユカイ,0
2265,4050005013542,新規,0,2025-01-22,2025-01-22,社会福祉法人水戸北友会,,その他の設立登記法人,茨城県,水戸市,堀町字北ノ前９５－１,,08,201,3100903,,,,,,,2025-01-22,1,,,,,ミトホクユウカイ,0
2269,4070001042568,新規,0,2025-01-22,2025-01-22,開成ホールディングス株式会社,,株式会社,群馬県,富岡市,黒川７６８番地１,,10,210,3702344,,,,,,,2025-01-22,1,,,,,カイセイホールディングス,0
2298,4080001026727,新規,0,2025-01-22,2025-01-22,株式会社ＣＳＡｒａｃｉｎｇ,,株式会社,静岡県,静岡市葵区,御幸町３番地の２１,,22,101,4200857,,,,,,,2025-01-22,1,,,,,シーエスエーレーシング,0
2408,4100001038224,新規,0,2025-01-22,2025-01-22,株式会社東信別荘地管理,,株式会社,長野県,上田市,武石小沢根５７６番地１３９,,20,203,3860504,,,,,,,2025-01-22,1,,,,,トウシンベッソウチカンリ,0
2411,4110001038999,新規,0,2025-01-22,2025-01-22,ＬｉＳ株式会社,,株式会社,新潟県,新潟市中央区,神道寺南１丁目７番４６号,,15,103,9500986,,,,,,,2025-01-22,1,,,,,リス,0
2412,4110001039007,新規,0,2025-01-22,2025-01-22,株式会社ＫＯＨＡ．ｒ,,株式会社,新潟県,新潟市中央区,女池南１丁目１－１６,,15,103,9500948,,,,,,,2025-01-22,1,,,,,コハドットアール,0
2420,4120001271921,新規,0,2025-01-22,2025-01-22,知然株式会社,,株式会社,大阪府,大阪市城東区,関目１丁目１６番２１号１階,,27,118,5360008,,,,,,,2025-01-22,1,,,,,チゼン,0
2421,4120001272127,新規,0,2025-01-22,2025-01-22,株式会社Ａ＆Ｈ,,株式会社,大阪府,大阪市旭区,中宮２丁目１６番１３号,,27,117,5350003,,,,,,,2025-01-22,1,,,,,エーアンドエイチ,0
2422,4120001272143,新規,0,2025-01-22,2025-01-22,株式会社サミー,,株式会社,大阪府,大阪市東住吉区,山坂５丁目５番２３号,,27,121,5460035,,,,,,,2025-01-22,1,,,,,サミー,0
2423,4120001272184,新規,0,2025-01-22,2025-01-22,Ｒｕｔｓｕ株式会社,,株式会社,大阪府,大阪市西成区,玉出西１丁目１６番２号ＴａｍａｄｅｎｉｓｈｉＰａｒｋＶｉｅｕｎｏ３０１号,,27,122,5570045,,,,,,,2025-01-22,1,,,,,ルーツ,0
2427,4120003028295,新規,0,2025-01-22,2025-01-22,合同会社ＭＵＫＵ,,合同会社,大阪府,大阪市城東区,鴫野西２丁目８番６号ＡＩＬＥ京橋３０２号室,,27,118,5360014,,,,,,,2025-01-22,1,,,,,ムク,0
2428,4120003028428,新規,0,2025-01-22,2025-01-22,合同会社ＴＫＢマネジメント,,合同会社,大阪府,大阪市東住吉区,鷹合１丁目１５番２１号,,27,121,5460014,,,,,,,2025-01-22,1,,,,,ティーケービーマネジメント,0
2436,4150001027825,新規,0,2025-01-22,2025-01-22,Ｍａｒｃｈｅｒ株式会社,,株式会社,奈良県,大和高田市,日之出西本町６－２３,,29,202,6350024,,,,,,,2025-01-22,1,,,,,マルシュ,0
2442,4180001165036,新規,0,2025-01-22,2025-01-22,株式会社ＷＥＳＴ,,株式会社,愛知県,名古屋市西区,花の木３丁目１１－１７ウエスト花の木７Ａ,,23,104,4510062,,,,,,,2025-01-22,1,,,,,ウェスト,0
2443,4180001165110,新規,0,2025-01-22,2025-01-22,エムティーエス株式会社,,株式会社,愛知県,名古屋市中区,松原３丁目７番１５号光葉ビル２０７号室,,23,106,4600017,,,,,,,2025-01-22,1,,,,,エムティーエス,0
2454,4180301039451,新規,0,2025-01-22,2025-01-22,株式会社ＦＵＪＩＳＡＷＡｍｏｏｖｉｎｇ,,株式会社,愛知県,刈谷市,小垣江町南藤４５番地１,,23,210,4480813,,,,,,,2025-01-22,1,,,,,フジサワムーヴィング,0
2457,4180303006433,新規,0,2025-01-22,2025-01-22,合同会社こいのにあ,,合同会社,愛知県,蒲郡市,三谷町黒別当４０－１０,,23,214,4430021,,,,,,,2025-01-22,1,,,,,コイノニア,0
2460,4190001031955,新規,0,2025-01-22,2025-01-22,ユーア工業株式会社,,株式会社,三重県,伊勢市,中村町１１１５番地１,,24,203,5160028,,,,,,,2025-01-22,1,,,,,ユーアコウギョウ,0
2463,4200001043354,新規,0,2025-01-22,2025-01-22,Ｇｏｏｄｅｎホールディングス株式会社,,株式会社,岐阜県,可児市,土田３５８０番地１,,21,214,5090206,,,,,,,2025-01-22,1,,,,,グッデンホールディングス,0
2465,4200003006672,新規,0,2025-01-22,2025-01-22,森林浴ジャパン合同会社,,合同会社,岐阜県,美濃加茂市,加茂野町今泉５９６番地,,21,211,5050052,,,,,,,2025-01-22,1,,,,,シンリンヨクジャパン,0
2467,4220001026448,新規,0,2025-01-22,2025-01-22,株式会社美楽,,株式会社,石川県,金沢市,直江東２丁目６１番地１,,17,201,9208213,,,,,,,2025-01-22,1,,,,,ビラク,0
2496,4240001064413,新規,0,2025-01-22,2025-01-22,株式会社至誠,,株式会社,広島県,廿日市市,宮内４丁目１８番２３号,,34,213,7380034,,,,,,,2025-01-22,1,,,,,シセイ,0
2499,4240005015882,新規,0,2025-01-22,2025-01-22,松永寺,,その他の設立登記法人,広島県,福山市,今津町３丁目８番２４号,,34,207,7290111,,,,,,,2025-01-22,1,,,,,ショウエイジ,0
2534,4290001108702,新規,0,2025-01-22,2025-01-22,株式会社テクナビコーポレート,,株式会社,福岡県,福岡市早良区,梅林６丁目２２番２号,,40,137,8140172,,,,,,,2025-01-22,1,,,,,,0
2535,4290001108710,新規,0,2025-01-22,2025-01-22,株式会社はなこう,,株式会社,福岡県,福岡市中央区,港３丁目１番７５号,,40,133,8100075,,,,,,,2025-01-22,1,,,,,ハナコウ,0
2539,4290003016309,新規,0,2025-01-22,2025-01-22,合同会社ＫＦ左官,,合同会社,福岡県,福岡市早良区,小田部１丁目２番１６－１１１号,,40,137,8140032,,,,,,,2025-01-22,1,,,,,ケイエフサカン,0
2563,4310001019426,新規,0,2025-01-22,2025-01-22,フラッグワン株式会社,,株式会社,長崎県,佐世保市,早岐１丁目４番４３号５０１号,,42,202,8593215,,,,,,,2025-01-22,1,,,,,フラッグワン,0
2572,4330001032823,新規,0,2025-01-22,2025-01-22,株式会社ＡＳＴＬＳ,,株式会社,熊本県,熊本市東区,下南部３丁目１１番地１７６,,43,102,8618019,,,,,,,2025-01-22,1,,,,,アストレス,0
2574,4340001027062,新規,0,2025-01-22,2025-01-22,株式会社岩元新建材,,株式会社,鹿児島県,鹿屋市,田崎町１２４９番地４,,46,203,8930037,,,,,,,2025-01-22,1,,,,,イワモトシンケンザイ,0
2576,4360001034684,新規,0,2025-01-22,2025-01-22,株式会社クオリティプラス,,株式会社,沖縄県,島尻郡南風原町,字与那覇９９,,47,350,9011103,,,,,,,2025-01-22,1,,,,,クオリティプラス,0
2577,4360001034692,新規,0,2025-01-22,2025-01-22,株式会社ＧＵＬＯＢＡＮＤ,,株式会社,沖縄県,浦添市,屋富祖４丁目５番１３号コスモ１７ビル１０２,,47,208,9012127,,,,,,,2025-01-22,1,,,,,グローバンド,0
2578,4360003014619,新規,0,2025-01-22,2025-01-22,合同会社ＡＫＡＲＩ,,合同会社,沖縄県,那覇市,泊２丁目１０番地９－２Ｆ,,47,201,9000012,,,,,,,2025-01-22,1,,,,,アカリ,0
2580,4370001052157,新規,0,2025-01-22,2025-01-22,株式会社花みのり,,株式会社,宮城県,登米市,東和町米川字中嶋３１番地,,04,212,9870901,,,,,,,2025-01-22,1,,,,,ハナミノリ,0
2581,4370001052165,新規,0,2025-01-22,2025-01-22,株式会社スペースアート,,株式会社,宮城県,名取市,飯野坂１丁目１４番７号,,04,207,9811225,,,,,,,2025-01-22,1,,,,,スペースアート,0
2584,4370003006904,新規,0,2025-01-22,2025-01-22,合同会社Ｎｅｘｔ　Ｆｒｏｎｔｉｅｒ,,合同会社,宮城県,仙台市太白区,西中田２丁目２番１４号ハーモニーテラス西中田ＩＩ２０１,00137741,04,104,9811105,,,,,,,2025-01-22,1,,,,,ネクストフロンティア,0
2587,4380001035045,新規,0,2025-01-22,2025-01-22,ｅｓタカノ株式会社,,株式会社,福島県,いわき市,内郷御厩町下宿９２番地,00137732,07,204,9738402,,,,,,,2025-01-22,1,,,,,イーエスタカノ,0
2590,4430001093509,新規,0,2025-01-22,2025-01-22,みちるひ株式会社,,株式会社,北海道,江別市,野幌屯田町１５番地６,,01,217,0690803,,,,,,,2025-01-22,1,,,,,ミチルヒ,0
2596,4430003017192,新規,0,2025-01-22,2025-01-22,Ｈａｐｐｙ　Ｄａｙｓ合同会社,,合同会社,北海道,札幌市豊平区,水車町５丁目８－１５－６０３,,01,105,0620912,,,,,,,2025-01-22,1,,,,,ハッピーディズ,0
2617,4440001009554,新規,0,2025-01-22,2025-01-22,株式会社Ｎａ’ｚ,,株式会社,北海道,函館市,昭和１丁目２４番２０号,,01,202,0410812,,,,,,,2025-01-22,1,,,,,ナズ,0
2622,4440003001658,新規,0,2025-01-22,2025-01-22,合同会社さくら井,,合同会社,北海道,函館市,美原５丁目６番１１号,,01,202,0410806,,,,,,,2025-01-22,1,,,,,サクライ,0
2623,4450001014504,新規,0,2025-01-22,2025-01-22,平松漁業ＲＩＫＵ株式会社,,株式会社,北海道,宗谷郡猿払村,浜猿払１０７５番地６０,,01,511,0986105,,,,,,,2025-01-22,1,,,,,ヒラマツギョギョウリク,0
2624,4460003001029,新規,0,2025-01-22,2025-01-22,ライナス合同会社,,合同会社,北海道,釧路市,緑ケ岡５丁目２６－２６,,01,206,0850814,,,,,,,2025-01-22,1,,,,,,0
2625,4470003002793,新規,0,2025-01-22,2025-01-22,合同会社ｅｎｙａ,,合同会社,香川県,高松市,六条町１０４３番地１６,,37,201,7610303,,,,,,,2025-01-22,1,,,,,エンヤ,0
2635,5010001251289,新規,0,2025-01-22,2025-01-22,株式会社ユニコーンテクノロジー,,株式会社,東京都,中央区,入船１丁目２番１号,,13,102,1040042,,,,,,,2025-01-22,1,,,,,ユニコーンテクノロジー,0
2636,5010001251603,新規,0,2025-01-22,2025-01-22,アセット・アンド・ウェルスマネジメント・ラボ株式会社,,株式会社,東京都,千代田区,麹町３丁目２番地,,13,101,1020083,,,,,,,2025-01-22,1,,,,,アセットアンドウェルスマネジメントラボ,0
2637,5010001251611,新規,0,2025-01-22,2025-01-22,Ｌｌｏｙｄｓ　ＡＩ　Ｔｅｃｈ　ＪＡＰＡＮ株式会社,,株式会社,東京都,千代田区,大手町１丁目５番１号大手町ファーストスクエアイーストタワー４階,,13,101,1000004,,,,,,,2025-01-22,1,,,,,ロイズエーアイテックジャパン,0
2638,5010001251628,新規,0,2025-01-22,2025-01-22,株式会社Ｅｒｆｏｌｇ,,株式会社,東京都,中央区,月島２丁目１３番１０号アーバンコア月島３０４号,,13,102,1040052,,,,,,,2025-01-22,1,,,,,エアフォルク,0
2639,5010001251636,新規,0,2025-01-22,2025-01-22,Ｇｌｏｂａｌ　Ｒｅｌｉｆｅ株式会社,,株式会社,東京都,中央区,新川１丁目７番１－７０８号,,13,102,1040033,,,,,,,2025-01-22,1,,,,,グローバルリライフ,0
2641,5010003046142,新規,0,2025-01-22,2025-01-22,高樹町プロパティ合同会社,,合同会社,東京都,千代田区,霞が関３丁目２番５号,,13,101,1000013,,,,,,,2025-01-22,1,,,,,タカギチョウプロパティ,0
2644,5010005039441,新規,0,2025-01-22,2025-01-22,一般社団法人ＰＲＡＩＳＥ　ＬＥＡＤＥＲ協会,,その他の設立登記法人,東京都,中央区,銀座１丁目１２番４号Ｎ＆ＥＢＬＤ．６Ｆ,,13,102,1040061,,,,,,,2025-01-22,1,,,,,プレイズリーダーキョウカイ,0
2677,5010103002490,新規,0,2025-01-22,2025-01-22,優月合同会社,,合同会社,東京都,八王子市,東町１０番３号１階１０５号,,13,201,1920082,,,,,,,2025-01-22,1,,,,,ユヅキ,0
2681,5010401187629,新規,0,2025-01-22,2025-01-22,ＵＺ　Ｃａｐｉｔａｌ　Ｊａｐａｎ株式会社,,株式会社,東京都,港区,南青山７丁目８番１５号ＵＳｈａｒｅ南青山,,13,103,1070062,,,,,,,2025-01-22,1,,,,,ウズキャピタルジャパン,0
2685,5010405023937,新規,0,2025-01-22,2025-01-22,ピーピーエフエー・ジャパン・イレブン特定目的会社,,その他の設立登記法人,東京都,港区,虎ノ門３丁目２２番１０－２０１号,,13,103,1050001,,,,,,,2025-01-22,1,,,,,ピーピーエフエージャパンイレブン,0
2687,5010501053490,新規,0,2025-01-22,2025-01-22,蛍光株式会社,,株式会社,東京都,台東区,上野１丁目１０番８アジア商事上野ビル１階,,13,106,1100005,,,,,,,2025-01-22,1,,,,,ケイコウ,0
2688,5010501053499,新規,0,2025-01-22,2025-01-22,株式会社ＫＡＭＩＴＩＶＥ,,株式会社,東京都,台東区,下谷３丁目１番２４号４１０号室,,13,106,1100004,,,,,,,2025-01-22,1,,,,,カミティブ,0
2693,5010603011339,新規,0,2025-01-22,2025-01-22,合同会社コビハムランド,,合同会社,東京都,江東区,永代２丁目３３番９－３０２号,,13,108,1350034,,,,,,,2025-01-22,1,,,,,コビハムランド,0
2816,5011001167194,新規,0,2025-01-22,2025-01-22,株式会社ＪＮＢ,,株式会社,東京都,渋谷区,神南１丁目１１－４,,13,113,1500041,,,,,,,2025-01-22,1,,,,,ジェイエヌビー,0
2817,5011001167302,新規,0,2025-01-22,2025-01-22,株式会社ＦＣマルシン,,株式会社,東京都,渋谷区,笹塚１丁目５８番６号マルシンビル４階,,13,113,1510073,,,,,,,2025-01-22,1,,,,,エフシーマルシン,0
2823,5011101110335,新規,0,2025-01-22,2025-01-22,ブルーディア株式会社,,株式会社,東京都,新宿区,市谷田町３丁目８番市ヶ谷科学技術イノベーションセンタービル２階,,13,104,1620843,,,,,,,2025-01-22,1,,,,,ブルーディア,0
2829,5011501031610,新規,0,2025-01-22,2025-01-22,株式会社Ｂｒｕｓｈ　Ｂｅａｕｔ,,株式会社,東京都,荒川区,東日暮里５丁目４番２号,,13,118,1160014,,,,,,,2025-01-22,1,,,,,ブラッシュビュート,0
2830,5011501031619,新規,0,2025-01-22,2025-01-22,ティップス株式会社,,株式会社,東京都,北区,豊島８丁目８番１６－３０５号ソフィア王子神谷クラッセ,,13,117,1140003,,,,,,,2025-01-22,1,,,,,ティップス,0
2843,5011801045491,新規,0,2025-01-22,2025-01-22,株式会社ＤＬＬホールディングス,,株式会社,東京都,足立区,青井２丁目２２番１７号,,13,121,1200012,,,,,,,2025-01-22,1,,,,,ディーエルエルホールディングス,0
2849,5012801023702,新規,0,2025-01-22,2025-01-22,株式会社ＮＫモータース,,株式会社,東京都,武蔵村山市,緑が丘１４６０番地１１０６－７０６,,13,223,2080012,,,,,,,2025-01-22,1,,,,,,0
2850,5012801023710,新規,0,2025-01-22,2025-01-22,株式会社ＨＥＩＴＨ,,株式会社,東京都,立川市,柴崎町３丁目１０－２３大和ビル１Ｆ,,13,202,1900023,,,,,,,2025-01-22,1,,,,,エイス,0
2855,5013301053669,新規,0,2025-01-22,2025-01-22,ＴＨＡ　ＨＡ　ＹＡ株式会社,,株式会社,東京都,豊島区,北大塚３丁目２９－５染谷建物３号室,,13,116,1700004,,,,,,,2025-01-22,1,,,,,タハーヤ,0
2862,5020001161108,新規,0,2025-01-22,2025-01-22,ＨＡＮＡＨＡＮＡ株式会社,,株式会社,神奈川県,川崎市多摩区,枡形２丁目２１番３３－１号,,14,135,2140032,,,,,,,2025-01-22,1,,,,,ハナハナ,0
2865,5020005016687,新規,0,2025-01-22,2025-01-22,横浜みなとみらい社会保険労務士法人,,その他の設立登記法人,神奈川県,横浜市磯子区,東町１５番３２号モンビル横浜根岸,,14,107,2350005,,,,,,,2025-01-22,1,,,,,ヨコハマミナトミライ,0
2868,5021001084257,新規,0,2025-01-22,2025-01-22,横須賀機工株式会社,,株式会社,神奈川県,横須賀市,公郷町１丁目５６番地６トップ衣笠第５・４０２号,,14,201,2380022,,,,,,,2025-01-22,1,,,,,ヨコスカキコウ,0
2869,5021001084265,新規,0,2025-01-22,2025-01-22,株式会社コレクションマーケット,,株式会社,神奈川県,逗子市,小坪４丁目２番８号,,14,208,2490008,,,,,,,2025-01-22,1,,,,,コレクションマーケット,0
2870,5021001084273,新規,0,2025-01-22,2025-01-22,株式会社イズミリフォーム,,株式会社,神奈川県,秦野市,上大槻８９２番地の１,,14,211,2570005,,,,,,,2025-01-22,1,,,,,イズミリフォーム,0
2875,5030001164497,新規,0,2025-01-22,2025-01-22,株式会社＿海工業,00137724,株式会社,埼玉県,草加市,稲荷２丁目２８番１２号,,11,221,3400003,,,,,,,2025-01-22,1,,,,,キンカイコウギョウ,0
2883,5040001137007,新規,0,2025-01-22,2025-01-22,株式会社リエゾン,,株式会社,千葉県,柏市,高柳１６６８番地５,,12,217,2770941,,,,,,,2025-01-22,1,,,,,リエゾン,0
2884,5040001137056,新規,0,2025-01-22,2025-01-22,Ｏｎｅ　Ｃｌｉｃｋ株式会社,,株式会社,千葉県,松戸市,八ケ崎５丁目３６番地の１４,,12,207,2700023,,,,,,,2025-01-22,1,,,,,ワンクリック,0
2885,5040001137072,新規,0,2025-01-22,2025-01-22,マインテクス株式会社,,株式会社,千葉県,船橋市,夏見台２丁目６番１－９０１号,,12,204,2730866,,,,,,,2025-01-22,1,,,,,マインテクス,0
2886,5040001137097,新規,0,2025-01-22,2025-01-22,株式会社ファストクリーン,,株式会社,千葉県,船橋市,東町２番地１０,,12,204,2730863,,,,,,,2025-01-22,1,,,,,ファストクリーン,0
2887,5040001137106,新規,0,2025-01-22,2025-01-22,株式会社みんクル,,株式会社,千葉県,船橋市,駿河台２丁目３５番２３号,,12,204,2730862,,,,,,,2025-01-22,1,,,,,ミンクル,0
2896,5040003026653,新規,0,2025-01-22,2025-01-22,ビルドアップ合同会社,,合同会社,千葉県,柏市,若柴１８６番地中央１４６街区１ＫＯＩＬ・ＬＩＮＫ・ＧＡＲＡＧＥ１０９,,12,217,2770871,,,,,,,2025-01-22,1,,,,,ビルドアップ,0
2897,5040003026661,新規,0,2025-01-22,2025-01-22,Ｒ‐ＭＡＣ合同会社,,合同会社,千葉県,佐倉市,山王２丁目２０番地１０,,12,212,2850807,,,,,,,2025-01-22,1,,,,,アールマック,0
2899,5040005022642,新規,0,2025-01-22,2025-01-22,医療法人社団陽音会,,その他の設立登記法人,千葉県,八千代市,緑が丘西４丁目２番地１,,12,221,2760040,,,,,,,2025-01-22,1,,,,,ハルネカイ,0
2904,5060001037849,新規,0,2025-01-22,2025-01-22,株式会社ビオラテラス,,株式会社,栃木県,宇都宮市,泉が丘５丁目８番１３号,,09,201,3210952,,,,,,,2025-01-22,1,,,,,ビオラテラス,0
2910,5070001042559,新規,0,2025-01-22,2025-01-22,株式会社スライヴ,,株式会社,群馬県,桐生市,広沢町５丁目１６１５番地,,10,203,3760013,,,,,,,2025-01-22,1,,,,,スライヴ,0
2911,5070001042567,新規,0,2025-01-22,2025-01-22,株式会社妙義工務店,,株式会社,群馬県,安中市,松井田町二軒在家１６８９番地１,,10,211,3790223,,,,,,,2025-01-22,1,,,,,ミョウギコウムテン,0
2913,5070005010347,新規,0,2025-01-22,2025-01-22,行政書士法人やじま事務所,,その他の設立登記法人,群馬県,前橋市,東片貝町３８１番地１,,10,201,3710012,,,,,,,2025-01-22,1,,,,,ヤジマジムショ,0
3014,5080101025264,新規,0,2025-01-22,2025-01-22,株式会社オリバー,,株式会社,静岡県,伊豆市,雲金２４６番地の８,,22,222,4103202,,,,,,,2025-01-22,1,,,,,オリバー,0
3052,5080401027695,新規,0,2025-01-22,2025-01-22,株式会社Ｔ‐ＲＥＸ豊電工,,株式会社,静岡県,浜松市中央区,初生町３５９番地の１６,,22,138,4338112,,,,,,,2025-01-22,1,,,,,ティーレックストヨデンコウ,0
3055,5090003002724,新規,0,2025-01-22,2025-01-22,ＣｉｎｅＹａｍａ合同会社,,合同会社,山梨県,上野原市,八ツ沢１１７－１,,19,212,4090133,,,,,,,2025-01-22,1,,,,,シネヤマ,0
3059,5100001038223,新規,0,2025-01-22,2025-01-22,株式会社あさぎいろ,,株式会社,長野県,安曇野市,明科中川手１３６３番地３,,20,220,3997102,,,,,,,2025-01-22,1,,,,,アサギイロ,0
3061,5100003007952,新規,0,2025-01-22,2025-01-22,合同会社ｍｏｃｏ　ｐｒｉｍｅ,,合同会社,長野県,長野市,三輪８丁目５２番１３号,,20,201,3800803,,,,,,,2025-01-22,1,,,,,モコプライム,0
3078,5120001272118,新規,0,2025-01-22,2025-01-22,ＴＡＫＡＳＨＩ株式会社,,株式会社,大阪府,大阪市北区,南森町１丁目１番１－２１１号,,27,127,5300054,,,,,,,2025-01-22,1,,,,,タカシ,0
3079,5120001272126,新規,0,2025-01-22,2025-01-22,株式会社Ｂａｓｅ４１,,株式会社,大阪府,大阪市中央区,高津２丁目３番１－１１０５号,,27,128,5420072,,,,,,,2025-01-22,1,,,,,ベースフォーティーワン,0
3080,5120001272134,新規,0,2025-01-22,2025-01-22,株式会社Ｎｅｏ　Ｂｏｏｓｔ,,株式会社,大阪府,大阪市西区,立売堀１丁目６番１３号南本町天祥ビル,,27,106,5500012,,,,,,,2025-01-22,1,,,,,ネオブースト,0
3081,5120001272150,新規,0,2025-01-22,2025-01-22,昇陽株式会社,,株式会社,大阪府,大阪市天王寺区,上汐４丁目４番２５－３０５号,,27,109,5430002,,,,,,,2025-01-22,1,,,,,ショウヨウ,0
3086,5120003028419,新規,0,2025-01-22,2025-01-22,ＦＦＭ　Ｊａｐａｎ合同会社,,合同会社,大阪府,大阪市西区,江之子島１丁目１－９－１１１０号,,27,106,5500006,,,,,,,2025-01-22,1,,,,,エフエフエムジャパン,0
3087,5120005024746,新規,0,2025-01-22,2025-01-22,一般社団法人日中商橋会,,その他の設立登記法人,大阪府,大阪市平野区,背戸口１丁目１７番１０号１Ｆ,,27,126,5470034,,,,,,,2025-01-22,1,,,,,ニッチュウショウキョウカイ,0
3092,5122001038812,新規,0,2025-01-22,2025-01-22,リラインストレーディング株式会社,,株式会社,大阪府,八尾市,東町５丁目３３番,,27,212,5810861,,,,,,,2025-01-22,1,,,,,リラインストレーディング,0
3093,5122003003087,新規,0,2025-01-22,2025-01-22,合同会社イー・エム・エイチ,,合同会社,大阪府,八尾市,山本高安町２丁目１２番７号,,27,212,5810021,,,,,,,2025-01-22,1,,,,,イーエムエイチ,0
3096,5130001078836,新規,0,2025-01-22,2025-01-22,株式会社Ｐｕｒｒ　Ｃａｔ,,株式会社,京都府,京都市東山区,祇園町北側３２３祇園会館２階東号室,,26,105,6050073,,,,,,,2025-01-22,1,,,,,パーキャット,0
3097,5130001078844,新規,0,2025-01-22,2025-01-22,株式会社遊斎,,株式会社,京都府,京都市中京区,西ノ京小堀町１番地１３ラスパル京都二条３０３号,,26,104,6048383,,,,,,,2025-01-22,1,,,,,ユウサイ,0
3100,5130003010160,新規,0,2025-01-22,2025-01-22,合同会社ガーデニア,,合同会社,京都府,京都市下京区,朱雀宝蔵町４４番地協栄ビル２階京都朱雀スタジオＡＧ－５０５,,26,106,6008846,,,,,,,2025-01-22,1,,,,,ガーデニア,0
3105,5140001137095,新規,0,2025-01-22,2025-01-22,ＡＦＲＩＴＸ株式会社,,株式会社,兵庫県,宝塚市,長尾台１丁目１６番５３号,,28,214,6650807,,,,,,,2025-01-22,1,,,,,アフリックス,0
3106,5140001137120,新規,0,2025-01-22,2025-01-22,味響国際株式会社,,株式会社,兵庫県,神戸市東灘区,向洋町中１丁目１７アジアワンセンター２９階０２５室,,28,101,6580032,,,,,,,2025-01-22,1,,,,,ミキョウコクサイ,0
3107,5140001137178,新規,0,2025-01-22,2025-01-22,株式会社Ｊ‐ＳＯＵＮＤ,,株式会社,兵庫県,神戸市西区,学園東町７丁目１４番地の６,,28,111,6512102,,,,,,,2025-01-22,1,,,,,ジェイサウンド,0
3109,5140003021561,新規,0,2025-01-22,2025-01-22,合同会社ｈｏｌｏｎｉｃａｌ,,合同会社,兵庫県,神戸市灘区,永手町５丁目５番２号サンシャイン永手２Ｆ,,28,102,6570027,,,,,,,2025-01-22,1,,,,,ホロニカル,0
3113,5150001027832,新規,0,2025-01-22,2025-01-22,株式会社ＣＨＡｉＮＯＮ,,株式会社,奈良県,大和郡山市,額田部北町４１０－３,,29,203,6391037,,,,,,,2025-01-22,1,,,,,シェノン,0
3122,5180001165068,新規,0,2025-01-22,2025-01-22,株式会社アサクラホールディングス,,株式会社,愛知県,大府市,宮内町３丁目１２３番地,,23,223,4740047,,,,,,,2025-01-22,1,,,,,アサクラホールディングス,0
3123,5180001165101,新規,0,2025-01-22,2025-01-22,Ｋ，プランニング株式会社,,株式会社,愛知県,名古屋市中村区,名駅３丁目１８番２０号,,23,105,4500002,,,,,,,2025-01-22,1,,,,,ケープランニング,0
3129,5180003027885,新規,0,2025-01-22,2025-01-22,合同会社ＳＯＵ,,合同会社,愛知県,名古屋市東区,徳川２丁目５番６号,,23,102,4610025,,,,,,,2025-01-22,1,,,,,ソウ,0
3130,5180003027902,新規,0,2025-01-22,2025-01-22,合同会社改トレーディング,,合同会社,愛知県,春日井市,上条町１丁目１１番地バンベール春日井５０２号,,23,206,4860833,,,,,,,2025-01-22,1,,,,,カイトレーディング,0
3133,5180301039442,新規,0,2025-01-22,2025-01-22,株式会社くぴプロ,,株式会社,愛知県,豊田市,宮上町４丁目１９番地９,,23,211,4710038,,,,,,,2025-01-22,1,,,,,クピプロ,0
3134,5180301039450,新規,0,2025-01-22,2025-01-22,株式会社ＡＰＲＯＣＫ,,株式会社,愛知県,豊田市,竜神町寺池１番地６１,,23,211,4730907,,,,,,,2025-01-22,1,,,,,アプロック,0
3140,5220001026447,新規,0,2025-01-22,2025-01-22,株式会社Ｂｕｏｎｄｉ,,株式会社,石川県,金沢市,香林坊２丁目８番２６号,,17,201,9200961,,,,,,,2025-01-22,1,,,,,ブォンディ,0
3177,5240001064404,新規,0,2025-01-22,2025-01-22,株式会社Ｂｕｄｄｙ’ｓ,,株式会社,広島県,呉市,西中央４丁目２番２号,,34,202,7370811,,,,,,,2025-01-22,1,,,,,バディーズ,0
3180,5240005015881,新規,0,2025-01-22,2025-01-22,特定非営利活動法人ひろしまメンタルヘルスアドボケイトセンター檸檬のこころ,,その他の設立登記法人,広島県,福山市,今町１番１８号天尚堂ビル２－４階合同会社自由館就労継続Ｂ型事業所遊心工房内,,34,207,7200046,,,,,,,2025-01-22,1,,,,,ヒロシマメンタルヘルスアドボケイトセンターレモンノココロ,0
3182,5250005008975,新規,0,2025-01-22,2025-01-22,特定非営利活動法人朋友,,その他の設立登記法人,山口県,防府市,仁井令町１４番８号,,35,206,7470841,,,,,,,2025-01-22,1,,,,,ホウユウ,0
3183,5260001039833,新規,0,2025-01-22,2025-01-22,株式会社吉原造船所,00137730,株式会社,岡山県,玉野市,田井５丁目２７番３８号,,33,204,7060001,,,,,,,2025-01-22,1,,,,,ヨシハラゾウセンショ,0
3216,5290801031210,新規,0,2025-01-22,2025-01-22,株式会社エンタス,,株式会社,福岡県,北九州市小倉北区,浅野３丁目８番１号ＡＩＭビル６階,,40,106,8020001,,,,,,,2025-01-22,1,,,,,エンタス,0
3236,5330001032822,新規,0,2025-01-22,2025-01-22,大華工業株式会社,,株式会社,熊本県,下益城郡美里町,払川１０６番地１,,43,348,8614416,,,,,,,2025-01-22,1,,,,,オオハナコウギョウ,0
3240,5340001027061,新規,0,2025-01-22,2025-01-22,株式会社いちなな,,株式会社,鹿児島県,霧島市,隼人町見次１１８４番地１,,46,218,8995117,,,,,,,2025-01-22,1,,,,,イチナナ,0
3245,5360001034691,新規,0,2025-01-22,2025-01-22,株式会社ＩＫＯＹ,,株式会社,沖縄県,うるま市,みどり町４丁目２番１１号,,47,213,9042215,,,,,,,2025-01-22,1,,,,,イコイ,0
3248,5370001052156,新規,0,2025-01-22,2025-01-22,株式会社Ａｖａｎｃｅ,,株式会社,宮城県,登米市,南方町瀬ノ淵８２番地１０,,04,212,9870411,,,,,,,2025-01-22,1,,,,,アバンス,0
3249,5370001052164,新規,0,2025-01-22,2025-01-22,株式会社カピバラ,,株式会社,宮城県,仙台市太白区,郡山字北目宅地５２番地の１エコロ・パル郡山２０５,,04,104,9820003,,,,,,,2025-01-22,1,,,,,カピバラ,0
3256,5420001018993,新規,0,2025-01-22,2025-01-22,株式会社エムリード,,株式会社,青森県,三沢市,本町４丁目３９番地６号みゆき荘２号,,02,207,0330052,,,,,,,2025-01-22,1,,,,,エムリード,0
3260,5430001093499,新規,0,2025-01-22,2025-01-22,ザボホールディングス株式会社,,株式会社,北海道,札幌市東区,北八条東１６丁目１番５号,,01,103,0650008,,,,,,,2025-01-22,1,,,,,ザボホールディングス,0
3281,5440001009553,新規,0,2025-01-22,2025-01-22,株式会社箱ノバ組,,株式会社,北海道,函館市,柏木町４番１６号,,01,202,0420942,,,,,,,2025-01-22,1,,,,,ハコノバグミ,0
3286,5500001026105,新規,0,2025-01-22,2025-01-22,株式会社海彩塗装,,株式会社,愛媛県,松山市,柳原３１番地８,,38,201,7992434,,,,,,,2025-01-22,1,,,,,カイサイトソウ,0
3288,5500003003416,新規,0,2025-01-22,2025-01-22,合同会社高田ファミリーオフィス,,合同会社,愛媛県,北宇和郡鬼北町,大字近永１０２２番地,,38,488,7981300,,,,,,,2025-01-22,1,,,,,タカタファミリーオフィス,0
3293,5700150128879,新規,0,2025-01-22,2025-01-22,相続財産法人　岩永　朝子,,その他,茨城県,つくば市,稲荷前３１－２モンレーヴ２１　１０５号つくばあすなろ法律事務所,,08,220,3050061,,,,,,,2025-01-22,1,,,,,ソウゾクザイサンホウジンイワナガトモコ,0
3294,5700150128887,新規,0,2025-01-22,2025-01-22,六麓荘町町内会,,その他,兵庫県,芦屋市,六麓荘町１６番１４号,,28,206,6590011,,,,,,,2025-01-22,1,,,,,ロクロクソウチヨウチヨウナイカイ,0
3303,6010001251263,新規,0,2025-01-22,2025-01-22,ＪＧＥ株式会社,,株式会社,東京都,中央区,日本橋本町１丁目５番４号,,13,102,1030023,,,,,,,2025-01-22,1,,,,,ジェイジーイー,0
3304,6010001251602,新規,0,2025-01-22,2025-01-22,株式会社藤井工芸,,株式会社,東京都,中央区,日本橋本町４丁目１３番１２号,,13,102,1030023,,,,,,,2025-01-22,1,,,,,フジイコウゲイ,0
3305,6010001251651,新規,0,2025-01-22,2025-01-22,株式会社ミリオン,,株式会社,東京都,中央区,銀座１丁目１２番４号Ｎ＆ＥＢＬＤ．６Ｆ,,13,102,1040061,,,,,,,2025-01-22,1,,,,,ミリオン,0
3365,6010401187495,新規,0,2025-01-22,2025-01-22,株式会社Ｂｌａｚａｒ,,株式会社,東京都,港区,虎ノ門１丁目１６番６号虎ノ門ＲＡＰＯ－ＴＯビルＵＣＦ７０３,,13,103,1050001,,,,,,,2025-01-22,1,,,,,ブレイザー,0
3366,6010401187611,新規,0,2025-01-22,2025-01-22,株式会社Ｉｎｄｉｎａ,,株式会社,東京都,港区,芝浦２丁目８番１３－９０３号,,13,103,1080023,,,,,,,2025-01-22,1,,,,,インディナ,0
3367,6010401187644,新規,0,2025-01-22,2025-01-22,株式会社ＫＡＫＫＯ　ＯＺＵ,,株式会社,東京都,港区,赤坂２丁目８番１４－５０４号,,13,103,1070052,,,,,,,2025-01-22,1,,,,,カッコオオヅ,0
3369,6010405023936,新規,0,2025-01-22,2025-01-22,ジャパン・トムラウシ特定目的会社,,その他の設立登記法人,東京都,港区,虎ノ門３丁目２２番１０－２０１号,,13,103,1050001,,,,,,,2025-01-22,1,,,,,ジャパントムラウシ,0
3371,6010503007700,新規,0,2025-01-22,2025-01-22,合同会社ホンマデザイン,,合同会社,東京都,台東区,浅草５丁目４２番９号,,13,106,1110032,,,,,,,2025-01-22,1,,,,,ホンマデザイン,0
3378,6010701047135,新規,0,2025-01-22,2025-01-22,株式会社グレイス,,株式会社,東京都,品川区,東品川５丁目９番１５－８２０号,,13,109,1400002,,,,,,,2025-01-22,1,,,,,グレイス,0
3379,6010701047143,新規,0,2025-01-22,2025-01-22,株式会社グーリエ,,株式会社,東京都,品川区,荏原１丁目２５番４号,,13,109,1420063,,,,,,,2025-01-22,1,,,,,グーリエ,0
3482,6010801035782,新規,0,2025-01-22,2025-01-22,ＮＤ　Ｉｎｎｏｖａｔｉｏｎ　Ｊａｐａｎ株式会社,,株式会社,東京都,大田区,蒲田５丁目２８番４号,,13,111,1440052,,,,,,,2025-01-22,1,,,,,エヌディーイノベーションジャパン,0
3493,6010901056704,新規,0,2025-01-22,2025-01-22,ＴＩＡＮ　ＭＥＤ株式会社,,株式会社,東京都,世田谷区,成城７丁目３１－８－５,,13,112,1570066,,,,,,,2025-01-22,1,,,,,ティエンメッド,0
3499,6011001167029,新規,0,2025-01-22,2025-01-22,株式会社Ｋｏｍｆｏｒｔ,,株式会社,東京都,渋谷区,道玄坂１丁目１０番８号渋谷道玄坂東急ビル２Ｆ－Ｃ,,13,113,1500043,,,,,,,2025-01-22,1,,,,,コンフォート,0
3501,6011003020796,新規,0,2025-01-22,2025-01-22,合同会社マイオルム,,合同会社,東京都,渋谷区,道玄坂１丁目１６－６二葉ビル８Ｂ,,13,113,1500043,,,,,,,2025-01-22,1,,,,,マイオルム,0
3502,6011003020813,新規,0,2025-01-22,2025-01-22,森雪合同会社,,合同会社,東京都,渋谷区,道玄坂１丁目１０番８号渋谷道玄坂東急ビル２Ｆ－Ｃ,,13,113,1500043,,,,,,,2025-01-22,1,,,,,モリユキ,0
3506,6011101110350,新規,0,2025-01-22,2025-01-22,アトムプログレス株式会社,,株式会社,東京都,新宿区,新宿７丁目１２番３－５０１号ＰＨＯＥＮＩＸ新宿七丁目,,13,104,1600022,,,,,,,2025-01-22,1,,,,,アトムプログレス,0
3508,6011201026067,新規,0,2025-01-22,2025-01-22,株式会社ＮＳプロモーション,,株式会社,東京都,中野区,上高田５丁目１２番９号,,13,114,1640002,,,,,,,2025-01-22,1,,,,,エヌエスプロモーション,0
3509,6011203004582,新規,0,2025-01-22,2025-01-22,ａｔ　ｅｎｔｅｒｔａｉｎｍｅｎｔ合同会社,,合同会社,東京都,中野区,大和町１丁目１番８号,,13,114,1650034,,,,,,,2025-01-22,1,,,,,アットエンタテインメント,0
3512,6011403004597,新規,0,2025-01-22,2025-01-22,合同会社ＡＭＩＮＡ　ＩＮＴＥＲＮＡＴＩＯＮＡＬ,,合同会社,東京都,板橋区,仲宿４１番７－４０１号,,13,119,1730005,,,,,,,2025-01-22,1,,,,,アミナインターナショナル,0
3513,6011501031626,新規,0,2025-01-22,2025-01-22,株式会社燕健,,株式会社,東京都,荒川区,東日暮里１丁目１６番６号タマルコーポ５０１,,13,118,1160014,,,,,,,2025-01-22,1,,,,,エンケン,0
3517,6011601028373,新規,0,2025-01-22,2025-01-22,株式会社Ｎｕｒｓｅ　Ｃｒｅｗ,,株式会社,東京都,練馬区,関町南４丁目１９番６－８３１号,,13,120,1770053,,,,,,,2025-01-22,1,,,,,ナースクルー,0
3525,6011701028001,新規,0,2025-01-22,2025-01-22,株式会社丸穂,,株式会社,東京都,江戸川区,一之江町３０１１番地６,,13,123,1340092,,,,,,,2025-01-22,1,,,,,マルスイ,0
3537,6013301053668,新規,0,2025-01-22,2025-01-22,Ｔｏｇｅｔｈｅｒ株式会社,,株式会社,東京都,豊島区,巣鴨４丁目２１－９,,13,116,1700002,,,,,,,2025-01-22,1,,,,,トゥギャザー,0
3546,6020001161032,新規,0,2025-01-22,2025-01-22,株式会社ＰＩＬＥＵＰ,,株式会社,神奈川県,川崎市高津区,新作６丁目７番３０－１０５号,,14,134,2130014,,,,,,,2025-01-22,1,,,,,パイルアップ,0
3552,6021001084264,新規,0,2025-01-22,2025-01-22,株式会社ＨＡＩＲ＆ＳＰＡひまわり,,株式会社,神奈川県,相模原市南区,大野台５丁目１番１号,,14,153,2520331,,,,,,,2025-01-22,1,,,,,ヘアーアンドスパヒマワリ,0
3553,6021001084280,新規,0,2025-01-22,2025-01-22,栄峰実業株式会社,,株式会社,神奈川県,足柄下郡箱根町,仙石原字六郎兵衛１２４６番１３０,,14,382,2500631,,,,,,,2025-01-22,1,,,,,エイホウジツギョウ,0
3555,6021003015465,新規,0,2025-01-22,2025-01-22,ＳＫＩＰＰＥＲ　ＣＯＮＳＵＬＴＩＮＧ合同会社,,合同会社,神奈川県,鎌倉市,七里ガ浜１丁目１２―３９,,14,204,2480026,,,,,,,2025-01-22,1,,,,,スキッパーコンサルティング,0
3560,6030001164422,新規,0,2025-01-22,2025-01-22,彩興不動産株式会社,,株式会社,埼玉県,川越市,宮元町７６番地３６,,11,201,3500838,,,,,,,2025-01-22,1,,,,,サイコウフドウサン,0
3561,6030001164496,新規,0,2025-01-22,2025-01-22,株式会社Ｗｅａｌｔｈ　Ｐｏｌｓ,,株式会社,埼玉県,熊谷市,箱田７丁目３番４３号,,11,202,3600014,,,,,,,2025-01-22,1,,,,,ウェルスポルズ,0
3562,6030001164513,新規,0,2025-01-22,2025-01-22,株式会社Ｔｉｍｅ　Ｗａｒｐ,,株式会社,埼玉県,さいたま市緑区,大字三室９８１番地２１,,11,109,3360911,,,,,,,2025-01-22,1,,,,,タイムワープ,0
3568,6030003025911,新規,0,2025-01-22,2025-01-22,合同会社フォレストマネジメント,,合同会社,埼玉県,川口市,西川口４丁目９番１１－４１０号スカイコート西川口,,11,203,3320021,,,,,,,2025-01-22,1,,,,,フォレストマネジメント,0
3569,6030003025928,新規,0,2025-01-22,2025-01-22,ｌｕｚ合同会社,,合同会社,埼玉県,さいたま市大宮区,桜木町２丁目３番地大宮マルイ７階,,11,103,3300854,,,,,,,2025-01-22,1,,,,,ルス,0
3575,6040001137088,新規,0,2025-01-22,2025-01-22,株式会社ＮｏｒＡｋｕｒａ,,株式会社,千葉県,東金市,東岩崎１－５東金商工会館１階,,12,213,2830068,,,,,,,2025-01-22,1,,,,,ノラクラ,0
3576,6040001137096,新規,0,2025-01-22,2025-01-22,太岳株式会社,,株式会社,千葉県,柏市,旭町８丁目５番地４４,,12,217,2770852,,,,,,,2025-01-22,1,,,,,ダイガク,0
3577,6040001137105,新規,0,2025-01-22,2025-01-22,ＣｒｅａｔｅＲｉｔａ株式会社,,株式会社,千葉県,千葉市中央区,中央２丁目５－１中央ツインビル２号館７階,,12,101,2600013,,,,,,,2025-01-22,1,,,,,クリエイトリタ,0
3581,6040003026652,新規,0,2025-01-22,2025-01-22,合同会社ｆｉｒｓｔ　ｃｒｕｓｈ,,合同会社,千葉県,千葉市中央区,南町２丁目６番１７号グレイス青山３０２号,,12,101,2600842,,,,,,,2025-01-22,1,,,,,ファーストクラッシュ,0
3582,6040003026677,新規,0,2025-01-22,2025-01-22,ファンデーション合同会社,,合同会社,千葉県,長生郡白子町,剃金２７２９番地６ダイアパレス白子第２－５０２号室,,12,424,2994203,,,,,,,2025-01-22,1,,,,,ファンデーション,0
3586,6050001056048,新規,0,2025-01-22,2025-01-22,株式会社Ｃｏｌｏｒ　Ｒｅｎｏｖａｔｉｏｎ,,株式会社,茨城県,小美玉市,羽刈６５９番地６８,,08,236,3190121,,,,,,,2025-01-22,1,,,,,カラーリノベーション,0
3589,6060003005398,新規,0,2025-01-22,2025-01-22,ＢＪリンコス合同会社,,合同会社,栃木県,宇都宮市,大通り４丁目１－２０けやきビル２階,,09,201,3200811,,,,,,,2025-01-22,1,,,,,ビージェイリンコス,0
3591,6070001042558,新規,0,2025-01-22,2025-01-22,株式会社Ｌａｓｔ　Ｐｉｅｃｅ,,株式会社,群馬県,高崎市,菅谷町７７番地１６１,,10,202,3703522,,,,,,,2025-01-22,1,,,,,ラストピース,0
3633,6080001026725,新規,0,2025-01-22,2025-01-22,株式会社旭洋丸漁業,,株式会社,静岡県,焼津市,石津２２４５番地の２２,,22,212,4250041,,,,,,,2025-01-22,1,,,,,キョクヨウマルギョギョウ,0
3687,6080103003242,新規,0,2025-01-22,2025-01-22,ＣＲＥＳＴＥＡＭ合同会社,,合同会社,静岡県,沼津市,大岡２１４９－５,,22,203,4100022,,,,,,,2025-01-22,1,,,,,クレスチーム,0
3720,6080401027686,新規,0,2025-01-22,2025-01-22,株式会社神門木工製綿所,,株式会社,静岡県,浜松市浜名区,都田町２４４９番地の１,,22,139,4312102,,,,,,,2025-01-22,1,,,,,ジンモンモッコウセイメンジョ,0
3747,6120001271960,新規,0,2025-01-22,2025-01-22,株式会社アヤサト,,株式会社,大阪府,大阪市平野区,長吉長原西４丁目６番３３号,,27,126,5470015,,,,,,,2025-01-22,1,,,,,アヤサト,0
3748,6120001272075,新規,0,2025-01-22,2025-01-22,ＹＷ国際貨運株式会社,,株式会社,大阪府,大阪市中央区,農人橋２丁目４番１８号ネイリングセンタービル７階７０１号,,27,128,5400011,,,,,,,2025-01-22,1,,,,,ワイダブリューコクサイカウン,0
3749,6120001272109,新規,0,2025-01-22,2025-01-22,株式会社奈良スイーツ,,株式会社,大阪府,大阪市中央区,安土町２丁目５－５,,27,128,5410052,,,,,,,2025-01-22,1,,,,,ナラスイーツ,0
3750,6120001272117,新規,0,2025-01-22,2025-01-22,蘭棠株式会社,,株式会社,大阪府,大阪市西成区,萩之茶屋１丁目１２－７万葉ビル１０６号室,,27,122,5570004,,,,,,,2025-01-22,1,,,,,ラントウ,0
3751,6120001272125,新規,0,2025-01-22,2025-01-22,株式会社タカセ技研,,株式会社,大阪府,大阪市北区,西天満５丁目９番１１－３０２号,,27,127,5300047,,,,,,,2025-01-22,1,,,,,タカセギケン,0
3752,6120001272158,新規,0,2025-01-22,2025-01-22,株式会社ＭＴ　Ｓｔｕｄｉｏ,,株式会社,大阪府,枚方市,甲斐田新町５７番５号,,27,210,5731163,,,,,,,2025-01-22,1,,,,,エムティースタジオ,0
3753,6120001272182,新規,0,2025-01-22,2025-01-22,株式会社Ｔ＆Ｔ,,株式会社,大阪府,大阪市中央区,道修町１丁目２番６号プレサンス北浜パレス８０１,,27,128,5410045,,,,,,,2025-01-22,1,,,,,ティーアンドティー,0
3754,6120001272216,新規,0,2025-01-22,2025-01-22,睿新時空貿易株式会社,,株式会社,大阪府,大阪市生野区,巽南２丁目８番２９－２０２号,00137742,27,116,5440015,,,,,,,2025-01-22,1,,,,,エイシンジクウボウエキ,0
3757,6120003028434,新規,0,2025-01-22,2025-01-22,合同会社キャリアボンド,,合同会社,大阪府,大阪市阿倍野区,昭和町２丁目２番９号,,27,119,5450011,,,,,,,2025-01-22,1,,,,,キャリアボンド,0
3768,6130001078827,新規,0,2025-01-22,2025-01-22,株式会社エム・エフ,,株式会社,京都府,京都市右京区,西院日照町４５番地３０３,,26,108,6150065,,,,,,,2025-01-22,1,,,,,エムエフ,0
3769,6130001078843,新規,0,2025-01-22,2025-01-22,株式会社Ｙｏｕｒ　Ｊｏｕｒｎｅｙ,,株式会社,京都府,木津川市,兜台５丁目１番地１３木津かぶと台団地９－２０３号,,26,214,6190224,,,,,,,2025-01-22,1,,,,,ユアジャーニー,0
3775,6140001137128,新規,0,2025-01-22,2025-01-22,株式会社Ｓｕｎ　ＴＹ,,株式会社,兵庫県,伊丹市,鴻池２丁目６番８号,,28,207,6640006,,,,,,,2025-01-22,1,,,,,サンティーワイ,0
3776,6140003021552,新規,0,2025-01-22,2025-01-22,合同会社彌榮,,合同会社,兵庫県,姫路市,東辻井４丁目４番７号,00137731,28,201,6700084,,,,,,,2025-01-22,1,,,,,イヤサカ,0
3777,6140003021569,新規,0,2025-01-22,2025-01-22,合同会社只者,,合同会社,兵庫県,芦屋市,川西町４番６号,,28,206,6590072,,,,,,,2025-01-22,1,,,,,タダモノ,0
3780,6160001026493,新規,0,2025-01-22,2025-01-22,株式会社Ｆｕｎｂｌｅ,,株式会社,滋賀県,愛知郡愛荘町,安孫子２６４番地,,25,425,5291234,,,,,,,2025-01-22,1,,,,,ファンブル,0
3781,6170001018457,新規,0,2025-01-22,2025-01-22,株式会社ＮＫ　Ｇｒｏｕｐ,,株式会社,和歌山県,和歌山市,杭ノ瀬１４９番地２,,30,201,6410001,,,,,,,2025-01-22,1,,,,,エヌケイグループ,0
3793,6180001165059,新規,0,2025-01-22,2025-01-22,株式会社ＴＮＰ,,株式会社,愛知県,名古屋市港区,港北町３丁目１２番地の２港北荘２棟３０１号,,23,111,4550067,,,,,,,2025-01-22,1,,,,,ティーエヌピー,0
3794,6180001165083,新規,0,2025-01-22,2025-01-22,株式会社アド・マークス,,株式会社,愛知県,知多市,つつじが丘４丁目６番地７,,23,224,4780054,,,,,,,2025-01-22,1,,,,,アドマークス,0
3795,6180001165109,新規,0,2025-01-22,2025-01-22,株式会社日翔エアテクノ,,株式会社,愛知県,名古屋市瑞穂区,川澄町２丁目８番地シャンポール藤美１Ｂ,,23,108,4670002,,,,,,,2025-01-22,1,,,,,ニッショウエアテクノ,0
3796,6180003027892,新規,0,2025-01-22,2025-01-22,合同会社ＴＭ,,合同会社,愛知県,小牧市,大字久保一色２３７番地１１４,,23,219,4850003,,,,,,,2025-01-22,1,,,,,ティーエム,0
3797,6180005020912,新規,0,2025-01-22,2025-01-22,一般社団法人犬山まちもり,,その他の設立登記法人,愛知県,一宮市,西大海道字曽津３番地,,23,203,4910005,,,,,,,2025-01-22,1,,,,,イヌヤママチモリ,0
3798,6180005020920,新規,0,2025-01-22,2025-01-22,一般社団法人次世代地域活性化協会,,その他の設立登記法人,愛知県,稲沢市,稲葉３丁目１３番４－４号,,23,220,4928219,,,,,,,2025-01-22,1,,,,,ジセダイチイキカッセイカキョウカイ,0
3799,6180301039441,新規,0,2025-01-22,2025-01-22,Ｒｅ‐ＢＩＲＴＨ株式会社,,株式会社,愛知県,刈谷市,小垣江町久谷名２３番地,,23,210,4480813,,,,,,,2025-01-22,1,,,,,リバース,0
3800,6180303006431,新規,0,2025-01-22,2025-01-22,吉見技研合同会社,,合同会社,愛知県,蒲郡市,西浦町神谷門戸８番地３,,23,214,4430105,,,,,,,2025-01-22,1,,,,,ヨシミギケン,0
3804,6200001043352,新規,0,2025-01-22,2025-01-22,株式会社にこはな,,株式会社,岐阜県,各務原市,小佐野町４丁目２４８番地１,,21,213,5040942,,,,,,,2025-01-22,1,,,,,ニコハナ,0
3805,6200003006654,新規,0,2025-01-22,2025-01-22,合同会社Ｊｉｔｓｕｍｕ,,合同会社,岐阜県,加茂郡富加町,滝田１４７０番地２,,21,502,5013305,,,,,,,2025-01-22,1,,,,,ジツム,0
3806,6210001020037,新規,0,2025-01-22,2025-01-22,株式会社鮨十兵衛,,株式会社,福井県,福井市,文京５丁目１７番５号,,18,201,9100017,,,,,,,2025-01-22,1,,,,,スシジュウベイ,0
3809,6220001026446,新規,0,2025-01-22,2025-01-22,株式会社グラムエーアイ,,株式会社,石川県,小松市,大領町そ７９番地１,,17,203,9230854,,,,,,,2025-01-22,1,,,,,グラムエーアイ,0
3844,6260001039832,新規,0,2025-01-22,2025-01-22,株式会社ｃｏｃｏ,,株式会社,岡山県,岡山市南区,新福１丁目４－１０新福ビル,,33,104,7000943,,,,,,,2025-01-22,1,,,,,ココ,0
3868,6280005007643,新規,0,2025-01-22,2025-01-22,医療法人ふちわき耳鼻咽喉科クリニック,,その他の設立登記法人,島根県,出雲市,稲岡町６０７番地３,,32,203,6930071,,,,,,,2025-01-22,1,,,,,フチワキジビインコウカクリニック,0
3877,6290001108667,新規,0,2025-01-22,2025-01-22,株式会社ファストトラストシステムズ,,株式会社,福岡県,福岡市中央区,天神２丁目２番目１２号,,40,133,8100001,,,,,,,2025-01-22,1,,,,,ファストトラストシステムズ,0
3878,6290001108683,新規,0,2025-01-22,2025-01-22,ＲＵＳＢＥＬＩＮ　ＥＮＴＥＲＴＡＩＮＭＥＮＴ株式会社,,株式会社,福岡県,福津市,在自３８３番地１,,40,224,8113301,,,,,,,2025-01-22,1,,,,,ルズベリンエンターテインメント,0
3881,6290003016331,新規,0,2025-01-22,2025-01-22,合同会社ＳｐｅＳａｎ,,合同会社,福岡県,福岡市中央区,天神２丁目２番１２号Ｔ＆Ｊビルディング７Ｆ,,40,133,8100001,,,,,,,2025-01-22,1,,,,,スペサン,0
3883,6290801031218,新規,0,2025-01-22,2025-01-22,株式会社ＦＵＤＯホールディングス,,株式会社,福岡県,北九州市若松区,向洋町１０番７１,,40,103,8080002,,,,,,,2025-01-22,1,,,,,フドウホールディングス,0
3906,6310001019424,新規,0,2025-01-22,2025-01-22,株式会社甲田,,株式会社,長崎県,長崎市,籠町２番３７号増田ビル２階,,42,201,8500905,,,,,,,2025-01-22,1,,,,,コウダ,0
3907,6310003004928,新規,0,2025-01-22,2025-01-22,合同会社ＤｅＬＩＦＥ,,合同会社,長崎県,諫早市,日の出町２５番１４号,,42,204,8540002,,,,,,,2025-01-22,1,,,,,ディライフ,0
3913,6330001032821,新規,0,2025-01-22,2025-01-22,株式会社清流,,株式会社,熊本県,八代市,郡築一番町１０３－９,,43,202,8660024,,,,,,,2025-01-22,1,,,,,セイリュウ,0
3915,6350001019370,新規,0,2025-01-22,2025-01-22,株式会社ＮＯＷＯＲＫ,,株式会社,宮崎県,宮崎市,広島１丁目５－１３－Ｎ１０５Ｂ,,45,201,8800806,,,,,,,2025-01-22,1,,,,,ノーワーク,0
3920,6370001052155,新規,0,2025-01-22,2025-01-22,株式会社エール,,株式会社,宮城県,仙台市青葉区,中山吉成１丁目９番２３号,,04,101,9893203,,,,,,,2025-01-22,1,,,,,エール,0
3922,6380001035002,新規,0,2025-01-22,2025-01-22,株式会社ベジックス,,株式会社,福島県,伊達市,霊山町下小国字稲場１４番地６,,07,213,9600808,,,,,,,2025-01-22,1,,,,,ベジックス,0
3923,6380001035051,新規,0,2025-01-22,2025-01-22,株式会社須藤輪業商会,,株式会社,福島県,石川郡浅川町,大字浅川字本町８４番地,,07,504,9636204,,,,,,,2025-01-22,1,,,,,ストウリンギョウショウカイ,0
3925,6390001017858,新規,0,2025-01-22,2025-01-22,株式会社Ｏ‐ｓｔ,,株式会社,山形県,山形市,大字見崎６５番地,,06,201,9900803,,,,,,,2025-01-22,1,,,,,オーエスティー,0
3926,6400001016916,新規,0,2025-01-22,2025-01-22,株式会社ＹＯＲＯＺＵ,,株式会社,岩手県,盛岡市,西見前２０地割１０３番地３,,03,201,0200833,,,,,,,2025-01-22,1,,,,,ヨロズ,0
3928,6420001018992,新規,0,2025-01-22,2025-01-22,株式会社ひまわり苑上北,,株式会社,青森県,上北郡東北町,大字大浦字菅林１１６番地１,,02,408,0392402,,,,,,,2025-01-22,1,,,,,ヒマワリエンカミキタ,0
3929,6430001093515,新規,0,2025-01-22,2025-01-22,Ｓ・Ｂ・Ｃ株式会社,,株式会社,北海道,札幌市南区,滝野２１３滝のカントリークラブ２階,,01,106,0050862,,,,,,,2025-01-22,1,,,,,エスビーシー,0
3950,6450001014502,新規,0,2025-01-22,2025-01-22,匠美堂株式会社,,株式会社,北海道,旭川市,緑町２０丁目２１６４番地９,,01,204,0700823,,,,,,,2025-01-22,1,,,,,タクミビドウ,0
3955,6500001026104,新規,0,2025-01-22,2025-01-22,株式会社ケイテック工業,,株式会社,愛媛県,伊予郡松前町,大字永田１２０番地１,,38,401,7913152,,,,,,,2025-01-22,1,,,,,ケイテックコウギョウ,0
3956,6700150128886,新規,0,2025-01-22,2025-01-22,ＣＥＬＩＮＥ　Ｓ．Ａ．,,外国会社等,,,,,,,,１６　ｒｕｅ　Ｖｉｖｉｅｎｎｅ　７５００２　Ｐａｒｉｓ，Ｆｒａｎｃｅ,,,,,,2025-01-22,1,,,,,セリーヌエスエー,0
3967,7010001251535,新規,0,2025-01-22,2025-01-22,株式会社ＴＳリアルエステート,,株式会社,東京都,中央区,日本橋小舟町８番１３号,,13,102,1030024,,,,,,,2025-01-22,1,,,,,ティーエスリアルエステート,0
3968,7010001251551,新規,0,2025-01-22,2025-01-22,ピープルアジェンダ株式会社,,株式会社,東京都,千代田区,神田須田町２丁目１９番地２３,,13,101,1010041,,,,,,,2025-01-22,1,,,,,ピープルアジェンダ,0
3969,7010001251568,新規,0,2025-01-22,2025-01-22,Ｈｅｒｍｉｎｉｕｓ　Ｊａｐａｎ株式会社,,株式会社,東京都,千代田区,丸の内３丁目４番１号新国際ビル８階,,13,101,1000005,,,,,,,2025-01-22,1,,,,,ハーミニアスジャパン,0
3970,7010001251601,新規,0,2025-01-22,2025-01-22,株式会社フランボワヂエ・コンサルティング,,株式会社,東京都,千代田区,一番町２１番地３－５０６,,13,101,1020082,,,,,,,2025-01-22,1,,,,,フランボワヂエコンサルティング,0
3971,7010001251634,新規,0,2025-01-22,2025-01-22,安和株式会社,,株式会社,東京都,文京区,音羽１丁目２３番１２号第一晃和堂ビル４１１号室,,13,105,1120013,,,,,,,2025-01-22,1,,,,,アンワ,0
3973,7010003046149,新規,0,2025-01-22,2025-01-22,ＭＲひかり蓄電合同会社,,合同会社,東京都,千代田区,二番町３番地麹町スクエア株式会社シリウス・アドバイザリー内,,13,101,1020084,,,,,,,2025-01-22,1,,,,,エムアールヒカリチクデン,0
3974,7010003046157,新規,0,2025-01-22,2025-01-22,合同会社Ａ　Ｃｏｎｓｕｌｔｉｎｇ,,合同会社,東京都,千代田区,四番町４番地９（新東京国際リーガル内）,,13,101,1020081,,,,,,,2025-01-22,1,,,,,エーコンサルティング,0
4039,7010401187478,新規,0,2025-01-22,2025-01-22,株式会社ＧｒｅｅｎＢｒｉｄｇｅＳｏｌｕｔｉｏｎｓ,,株式会社,東京都,港区,北青山２丁目７－１３,,13,103,1070061,,,,,,,2025-01-22,1,,,,,グリーンブリッジソリューションズ,0
4040,7010401187692,新規,0,2025-01-22,2025-01-22,ビジュアル・コンポネンツ・ジャパン株式会社,,株式会社,東京都,港区,六本木６丁目１０番１号六本木ヒルズ森タワー２３階,,13,103,1060032,,,,,,,2025-01-22,1,,,,,ビジュアルコンポネンツジャパン,0
4043,7010405024000,新規,0,2025-01-22,2025-01-22,雷門ホールディング２一般社団法人,,その他の設立登記法人,東京都,港区,虎ノ門３丁目２２番１０－２０１号,,13,103,1050001,,,,,,,2025-01-22,1,,,,,カミナリモンホールディングツー,0
4051,7010501053489,新規,0,2025-01-22,2025-01-22,宝宸株式会社,,株式会社,東京都,台東区,台東３丁目５番１０号－１０２－２Ｄ,,13,106,1100016,,,,,,,2025-01-22,1,,,,,ホウシン,0
4054,7010601066630,新規,0,2025-01-22,2025-01-22,スマイルリンク株式会社,,株式会社,東京都,江東区,東陽２丁目２番５－１３０２号,,13,108,1350016,,,,,,,2025-01-22,1,,,,,スマイルリンク,0
4057,7010603011345,新規,0,2025-01-22,2025-01-22,Ｄｒｅａｍ　Ｆｏｕｎｄａｔｉｏｎ合同会社,,合同会社,東京都,江東区,有明１丁目１番１７―２３０１号,,13,108,1350063,,,,,,,2025-01-22,1,,,,,ドリームファウンデーション,0
4061,7010701047126,新規,0,2025-01-22,2025-01-22,株式会社ＲＳ　Ｔｅｃｈｎｏｌｏｇｉｅｓ分割準備会社,,株式会社,東京都,品川区,大井１丁目４７番１号,,13,109,1400014,,,,,,,2025-01-22,1,,,,,アールエステクノロジーズブンカツジュンビガイシャ,0
4156,7010803005246,新規,0,2025-01-22,2025-01-22,ネヴズン合同会社,,合同会社,東京都,大田区,大森西２丁目３番６号,,13,111,1430015,,,,,,,2025-01-22,1,,,,,ネヴズン,0
4162,7011001167176,新規,0,2025-01-22,2025-01-22,株式会社Ｇｉｒａｆｆｅ,,株式会社,東京都,渋谷区,神南１丁目１１－４ＦＰＧリンクス神南５階,,13,113,1500041,,,,,,,2025-01-22,1,,,,,ジラフ,0
4163,7011001167184,新規,0,2025-01-22,2025-01-22,株式会社Ｎａｄａ,,株式会社,東京都,渋谷区,笹塚３丁目２番３号ベルプラザ９０１,,13,113,1510073,,,,,,,2025-01-22,1,,,,,,0
4164,7011001167250,新規,0,2025-01-22,2025-01-22,株式会社ＯＰＴ　ＶＩＤＥＯ,,株式会社,東京都,渋谷区,西原１丁目３５番８号ＢＨＧ２０２号室,,13,113,1510066,,,,,,,2025-01-22,1,,,,,オプトビデオ,0
4165,7011001167267,新規,0,2025-01-22,2025-01-22,株式会社ＨＡＶＡＮＡ　ＧＲＯＵＰ,,株式会社,東京都,渋谷区,渋谷１丁目１０番１号八千代ビル８階,,13,113,1500002,,,,,,,2025-01-22,1,,,,,ハバナグループ,0
4166,7011001167291,新規,0,2025-01-22,2025-01-22,株式会社手相占い,,株式会社,東京都,渋谷区,恵比寿西２丁目４番８号ウィンド恵比寿ビル８Ｆ,,13,113,1500021,,,,,,,2025-01-22,1,,,,,テソウウラナイ,0
4174,7011101110333,新規,0,2025-01-22,2025-01-22,株式会社ふるさと開拓ラボ,,株式会社,東京都,新宿区,西新宿１丁目２２番２号,,13,104,1600023,,,,,,,2025-01-22,1,,,,,フルサトカイタクラボ,0
4175,7011101110341,新規,0,2025-01-22,2025-01-22,ＬＩＢＥＲＴＡＳ株式会社,,株式会社,東京都,新宿区,新宿１丁目３１番７号新宿御苑ダイカンプラザ１１階,,13,104,1600022,,,,,,,2025-01-22,1,,,,,リベルタス,0
4178,7011203004581,新規,0,2025-01-22,2025-01-22,合同会社オリビスタ,,合同会社,東京都,中野区,野方５丁目１７‐７守屋ビル２０１号室,,13,114,1650027,,,,,,,2025-01-22,1,,,,,オリビスタ,0
4183,7011501031617,新規,0,2025-01-22,2025-01-22,ｍｏｂｉｌｉｆｅ株式会社,,株式会社,東京都,北区,志茂２丁目１９番３号,,13,117,1150042,,,,,,,2025-01-22,1,,,,,モビライフ,0
4184,7011503006385,新規,0,2025-01-22,2025-01-22,韶華行知合同会社,,合同会社,東京都,北区,浮間１丁目７－２３兆豊浮間ビル,,13,117,1150051,,,,,,,2025-01-22,1,,,,,ショウカギョウチ,0
4194,7011803006655,新規,0,2025-01-22,2025-01-22,合同会社グルメラボ,,合同会社,東京都,足立区,中川２丁目２２番地１号,,13,121,1200002,,,,,,,2025-01-22,1,,,,,グルメラボ,0
4199,7012403006921,新規,0,2025-01-22,2025-01-22,合同会社花きなつ,,合同会社,東京都,稲城市,大丸１３９５番地の６,,13,225,2060801,,,,,,,2025-01-22,1,,,,,ハナキナツ,0
4200,7012701018668,新規,0,2025-01-22,2025-01-22,サウスピークス株式会社,,株式会社,東京都,東久留米市,本町１丁目１２番２６号ユアコート東久留米パークビュー５０３,,13,222,2030053,,,,,,,2025-01-22,1,,,,,サウスピークス,0
4210,7021001084263,新規,0,2025-01-22,2025-01-22,株式会社ウォーターエッジ,,株式会社,神奈川県,相模原市南区,大野台４丁目１３番３２号,,14,153,2520331,,,,,,,2025-01-22,1,,,,,ウォーターエッジ,0
4211,7021001084288,新規,0,2025-01-22,2025-01-22,株式会社ＳＳ,,株式会社,神奈川県,厚木市,下川入４６１番地４－２Ｆ,,14,212,2430206,,,,,,,2025-01-22,1,,,,,エスエス,0
4221,7030001164314,新規,0,2025-01-22,2025-01-22,株式会社ｆｏｄｅｓｉｇｎ,,株式会社,埼玉県,草加市,弁天１丁目２―７―５０７,,11,221,3400004,,,,,,,2025-01-22,1,,,,,フォーデザイン,0
4222,7030001164462,新規,0,2025-01-22,2025-01-22,株式会社アドバンス建設,,株式会社,埼玉県,戸田市,美女木８丁目１２番地の３,,11,224,3350031,,,,,,,2025-01-22,1,,,,,アドバンスケンセツ,0
4223,7030001164537,新規,0,2025-01-22,2025-01-22,株式会社いおり,,株式会社,埼玉県,さいたま市南区,南浦和２丁目４１番２０－２０４号,,11,108,3360017,,,,,,,2025-01-22,1,,,,,イオリ,0
4226,7030003025910,新規,0,2025-01-22,2025-01-22,ファーム加須合同会社,,合同会社,埼玉県,加須市,平永５５０番地１,,11,210,3470046,,,,,,,2025-01-22,1,,,,,ファームカゾ,0
4227,7030003025919,新規,0,2025-01-22,2025-01-22,合同会社つむぎ,,合同会社,埼玉県,ふじみ野市,大原１丁目１１番２８号コーポ丸森１階,,11,245,3560003,,,,,,,2025-01-22,1,,,,,ツムギ,0
4234,7040001137079,新規,0,2025-01-22,2025-01-22,株式会社ＲＯＯＴＳ,,株式会社,千葉県,千葉市緑区,おゆみ野２丁目１３番地１,,12,105,2660031,,,,,,,2025-01-22,1,,,,,ルーツ,0
4235,7040001137112,新規,0,2025-01-22,2025-01-22,ＺＯＥＬ株式会社,,株式会社,千葉県,柏市,若柴１６４番地４中央１４９街区７アクロスキューブ柏の葉キャンパス２Ｆ,,12,217,2770871,,,,,,,2025-01-22,1,,,,,ゾエル,0
4238,7040003026627,新規,0,2025-01-22,2025-01-22,ＧＩＮＺＡインターナショナル合同会社,,合同会社,千葉県,野田市,木間ケ瀬６０８１番地５,,12,208,2700222,,,,,,,2025-01-22,1,,,,,ギンザインターナショナル,0
4239,7040003026668,新規,0,2025-01-22,2025-01-22,合同会社Ｒ．Ｑｕｅｅｎ,,合同会社,千葉県,千葉市美浜区,幸町２丁目２３－２ソフィア美浜ライトプラザ１１０８,,12,106,2610001,,,,,,,2025-01-22,1,,,,,アールクイーン,0
4244,7050001056047,新規,0,2025-01-22,2025-01-22,株式会社ＳＩＭＡ,,株式会社,茨城県,筑西市,宮後２２５３番地２,,08,227,3004503,,,,,,,2025-01-22,1,,,,,シマ,0
4250,7060001037839,新規,0,2025-01-22,2025-01-22,株式会社Ｌｉｏｎ,,株式会社,栃木県,宇都宮市,横山２丁目２４番９号,,09,201,3200005,,,,,,,2025-01-22,1,,,,,ライオン,0
4251,7060001037847,新規,0,2025-01-22,2025-01-22,株式会社Ｉ　ｓｔｙｌｅ,,株式会社,栃木県,那須塩原市,豊浦３４番地１５１ユアコルクーレ２０１号,,09,213,3250023,,,,,,,2025-01-22,1,,,,,アイスタイル,0
4257,7070001042557,新規,0,2025-01-22,2025-01-22,株式会社福Ｐｏｒｒｏふぁーむ,,株式会社,群馬県,伊勢崎市,下道寺町４１４番地４,,10,204,3720843,,,,,,,2025-01-22,1,,,,,フクポロファーム,0
4284,7080001026724,新規,0,2025-01-22,2025-01-22,株式会社ワントゥラボ,,株式会社,静岡県,静岡市駿河区,新川２丁目１０番４３号ワークオフィス新川２０６,,22,102,4228064,,,,,,,2025-01-22,1,,,,,ワントゥラボ,0
4334,7080103003241,新規,0,2025-01-22,2025-01-22,合同会社Ｒｏｏｔｉｌｉｚｅ,,合同会社,静岡県,賀茂郡東伊豆町,奈良本５０－１,,22,301,4130302,,,,,,,2025-01-22,1,,,,,ルーティライズ,0
4374,7100001038221,新規,0,2025-01-22,2025-01-22,株式会社Ｉｎｎｏ　Ｒｅｖｉｖｅ,,株式会社,長野県,下高井郡山ノ内町,大字平穏２０８８番地,,20,561,3810401,,,,,,,2025-01-22,1,,,,,イノリヴァイブ,0
4382,7120001272025,新規,0,2025-01-22,2025-01-22,其言株式会社,,株式会社,大阪府,大阪市大正区,三軒家西３丁目４番１６号中山ビル３０６Ａ,,27,108,5510001,,,,,,,2025-01-22,1,,,,,キゲン,0
4383,7120001272082,新規,0,2025-01-22,2025-01-22,嘉鴻株式会社,,株式会社,大阪府,大阪市西成区,萩之茶屋１丁目１２－７万葉ビル８０号室,,27,122,5570004,,,,,,,2025-01-22,1,,,,,カコウ,0
4384,7120001272116,新規,0,2025-01-22,2025-01-22,万水泉株式会社,,株式会社,大阪府,大阪市東淀川区,大桐３丁目６－２１－４０７号,,27,114,5330011,,,,,,,2025-01-22,1,,,,,マンスイセン,0
4388,7120003028433,新規,0,2025-01-22,2025-01-22,合同会社信栄,,合同会社,大阪府,大阪市東淀川区,豊新３丁目８番１１号３階,,27,114,5330014,,,,,,,2025-01-22,1,,,,,シンエイ,0
4395,7130001078784,新規,0,2025-01-22,2025-01-22,Ｋｓｔｙｌｅ株式会社,,株式会社,京都府,京都市中京区,黒門通御池下る大文字町２４６番地１ＬａＦｉｔｅＮＩＪＯＪＯ１０１,,26,104,6048315,,,,,,,2025-01-22,1,,,,,ケイスタイル,0
4396,7130001078826,新規,0,2025-01-22,2025-01-22,株式会社ｍｅｉｗａ,,株式会社,京都府,京都市山科区,勧修寺泉玉町６１番地,,26,110,6078229,,,,,,,2025-01-22,1,,,,,メイワ,0
4397,7130001078834,新規,0,2025-01-22,2025-01-22,株式会社安岡水産,,株式会社,京都府,京丹後市,久美浜町谷２４０番地,,26,212,6293559,,,,,,,2025-01-22,1,,,,,ヤスオカスイサン,0
4398,7130001078842,新規,0,2025-01-22,2025-01-22,株式会社みつ葉,,株式会社,京都府,京都市南区,吉祥院高畑町２３番地３,,26,107,6018332,,,,,,,2025-01-22,1,,,,,ミツバ,0
4399,7130003010134,新規,0,2025-01-22,2025-01-22,合同会社ＫＹＯＴＯ　ＫＩＬＮ,,合同会社,京都府,京都市東山区,清水１丁目２８７番地,,26,105,6050862,,,,,,,2025-01-22,1,,,,,キョウトキルン,0
4403,7140001137127,新規,0,2025-01-22,2025-01-22,株式会社８５２８,,株式会社,兵庫県,宝塚市,千種２丁目２番３０号,,28,214,6650072,,,,,,,2025-01-22,1,,,,,ハコニワ,0
4404,7140001137135,新規,0,2025-01-22,2025-01-22,ＳＦＫＳ００６株式会社,,株式会社,兵庫県,尼崎市,武庫之荘東１丁目２１７番地５４,,28,202,6610032,,,,,,,2025-01-22,1,,,,,エスエフケイエスゼロゼロロク,0
4405,7140001137143,新規,0,2025-01-22,2025-01-22,株式会社ＨＫＴ,,株式会社,兵庫県,明石市,松江９１番地,,28,203,6730036,,,,,,,2025-01-22,1,,,,,エイチケーティー,0
4417,7180001165058,新規,0,2025-01-22,2025-01-22,株式会社ラッフルズ・インベストメント,,株式会社,愛知県,名古屋市瑞穂区,密柑山町１丁目１７番地の１パークハウス密柑山３０１号,,23,108,4670041,,,,,,,2025-01-22,1,,,,,ラッフルズインベストメント,0
4418,7180001165074,新規,0,2025-01-22,2025-01-22,株式会社ＶＩＰ,,株式会社,愛知県,名古屋市中区,錦２丁目１０番２４号プリンター第一ビル１階,,23,106,4600003,,,,,,,2025-01-22,1,,,,,ビップ,0
4419,7180001165082,新規,0,2025-01-22,2025-01-22,Ｄｒｅａｍ‐Ｌｉｎｋ株式会社,,株式会社,愛知県,名古屋市中村区,名駅３丁目４－１０アルティメイト名駅１ｓｔ２階,,23,105,4500002,,,,,,,2025-01-22,1,,,,,ドリームリンク,0
4420,7180001165124,新規,0,2025-01-22,2025-01-22,株式会社ＫＡＮ商事,,株式会社,愛知県,名古屋市瑞穂区,春山町１０番地の３ヴィラ南山１０３号,,23,108,4670024,,,,,,,2025-01-22,1,,,,,カンショウジ,0
4425,7180003027891,新規,0,2025-01-22,2025-01-22,合同会社雅久十スマイルケア,,合同会社,愛知県,名古屋市千種区,新西２丁目３番１０号,,23,101,4640003,,,,,,,2025-01-22,1,,,,,ガクトスマイルケア,0
4429,7180301039449,新規,0,2025-01-22,2025-01-22,石橋グループ株式会社,,株式会社,愛知県,碧南市,山神町２丁目７２番地,,23,209,4470869,,,,,,,2025-01-22,1,,,,,イシバシグループ,0
4430,7180301039457,新規,0,2025-01-22,2025-01-22,株式会社フォーティーンハーツ,,株式会社,愛知県,岡崎市,森越町字与治４３番地,,23,202,4440901,,,,,,,2025-01-22,1,,,,,フォーティーンハーツ,0
4433,7180303006430,新規,0,2025-01-22,2025-01-22,ラビットリート合同会社,,合同会社,愛知県,豊橋市,つつじが丘２丁目３番地３,,23,201,4400858,,,,,,,2025-01-22,1,,,,,ラッビトリート,0
4435,7190001031952,新規,0,2025-01-22,2025-01-22,株式会社大都,,株式会社,三重県,伊賀市,青山羽根２３４番地の１,,24,216,5180227,,,,,,,2025-01-22,1,,,,,ダイト,0
4440,7220001026445,新規,0,2025-01-22,2025-01-22,株式会社ＹＳＫ,,株式会社,石川県,金沢市,涌波４丁目１０番２０号,,17,201,9200953,,,,,,,2025-01-22,1,,,,,ワイエスケー,0
4493,7270001009131,新規,0,2025-01-22,2025-01-22,株式会社デントクオリティ山陰,,株式会社,鳥取県,倉吉市,東昭和町９２番地,,31,203,6820804,,,,,,,2025-01-22,1,,,,,デントクオリティサンイン,0
4530,7320001020900,新規,0,2025-01-22,2025-01-22,大分設備株式会社,,株式会社,大分県,速見郡日出町,大字豊岡２０５番地７,,44,341,8791507,,,,,,,2025-01-22,1,,,,,オオイタセツビ,0
4531,7330001032812,新規,0,2025-01-22,2025-01-22,株式会社ＪＯＹＢＯＹ,,株式会社,熊本県,熊本市中央区,下通１丁目２－１８ロンドンビル４階,,43,101,8600807,,,,,,,2025-01-22,1,,,,,ジョイボーイ,0
4532,7330001032820,新規,0,2025-01-22,2025-01-22,株式会社ｂａｍｂｏｏ　ｇａｒａｇｅ,,株式会社,熊本県,玉名市,天水町立花１８９４番地２,,43,206,8615402,,,,,,,2025-01-22,1,,,,,バンブーガレージ,0
4536,7360001034698,新規,0,2025-01-22,2025-01-22,ＳＴ株式会社,,株式会社,沖縄県,那覇市,前島３丁目９－２４二階Ａ室,,47,201,9000016,,,,,,,2025-01-22,1,,,,,エスティー,0
4537,7360003014616,新規,0,2025-01-22,2025-01-22,合同会社朔,,合同会社,沖縄県,沖縄市,大里１丁目１１番１３号,,47,211,9042163,,,,,,,2025-01-22,1,,,,,サク,0
4538,7370001052154,新規,0,2025-01-22,2025-01-22,株式会社アタッチマン,,株式会社,宮城県,仙台市青葉区,一番町２丁目２番８号シエロ南町通９０２,,04,101,9800811,,,,,,,2025-01-22,1,,,,,アタッチマン,0
4539,7370001052162,新規,0,2025-01-22,2025-01-22,株式会社ＨｏｍｅＢＡＳＥ,,株式会社,宮城県,仙台市青葉区,旭ケ丘３丁目２６番２５－２０６号,,04,101,9810904,,,,,,,2025-01-22,1,,,,,ホームベース,0
4544,7370003006901,新規,0,2025-01-22,2025-01-22,合同会社菊菜,,合同会社,宮城県,仙台市宮城野区,新田５丁目７番２号,,04,102,9830038,,,,,,,2025-01-22,1,,,,,キクナ,0
4549,7390001017857,新規,0,2025-01-22,2025-01-22,株式会社すみれファーマシー,,株式会社,山形県,鶴岡市,桂荒俣字下桂１０３番地,,06,203,9970343,,,,,,,2025-01-22,1,,,,,スミレファーマシー,0
4550,7400001016915,新規,0,2025-01-22,2025-01-22,株式会社フクデン,,株式会社,岩手県,二戸市,石切所字田尻平１７番地１０,,03,213,0286103,,,,,,,2025-01-22,1,,,,,フクデン,0
4553,7420001018991,新規,0,2025-01-22,2025-01-22,株式会社Ｙｏｓｈｉｄａ,,株式会社,青森県,八戸市,大字河原木字見立山５番地３１,,02,203,0391161,,,,,,,2025-01-22,1,,,,,ヨシダ,0
4561,7430001093497,新規,0,2025-01-22,2025-01-22,株式会社ＬＯＯＫ　ＵＰ,,株式会社,北海道,札幌市中央区,南六条西６丁目７番地１第６旭観光ビル１階,,01,101,0640806,,,,,,,2025-01-22,1,,,,,ルックアップ,0
4562,7430001093514,新規,0,2025-01-22,2025-01-22,株式会社ＲＥＢＯＲＮ,,株式会社,北海道,札幌市東区,中沼六条１丁目３番６号,,01,103,0070006,,,,,,,2025-01-22,1,,,,,リボーン,0
4589,7500001026103,新規,0,2025-01-22,2025-01-22,株式会社未楽,,株式会社,愛媛県,伊予郡砥部町,原町７７６番地,,38,402,7912116,,,,,,,2025-01-22,1,,,,,ミラク,0
4590,7500005008758,新規,0,2025-01-22,2025-01-22,西日本コミット協同組合,,その他の設立登記法人,愛媛県,松山市,北土居４丁目２９番１８号越智マンション,,38,201,7911104,,,,,,,2025-01-22,1,,,,,ニシニホンコミット,0
4591,7700150128885,新規,0,2025-01-22,2025-01-22,吹上区,,その他,長野県,伊那市,西箕輪１２３０－４　吹上集会センター,,20,209,3994501,,,,,,,2025-01-22,1,,,,,フキアゲク,0
4598,8010001251600,新規,0,2025-01-22,2025-01-22,株式会社番町建築設計,,株式会社,東京都,千代田区,二番町１番地２番町ハイム８３１,,13,101,1020084,,,,,,,2025-01-22,1,,,,,バンチョウケンチクセッケイ,0
4599,8010001251617,新規,0,2025-01-22,2025-01-22,株式会社Ｔ‐ｌｉｎｅ,,株式会社,東京都,中央区,日本橋２丁目２番３号ＲＩＳＨＥビルＵＣＦ４階,,13,102,1030027,,,,,,,2025-01-22,1,,,,,ティーライン,0
4600,8010001251625,新規,0,2025-01-22,2025-01-22,Ｏｃｅａｎ　Ｉｎｖｅｓｔｍｅｎｔ株式会社,,株式会社,東京都,中央区,銀座７丁目１３番２０号銀座ＴＨビル９階,,13,102,1040061,,,,,,,2025-01-22,1,,,,,オーシャンインベストメント,0
4601,8010001251666,新規,0,2025-01-22,2025-01-22,Ｍｅｍｅ　Ｐａｒｔｎｅｒｓ株式会社,,株式会社,東京都,中央区,勝どき１丁目１３―６―９０２,,13,102,1040054,,,,,,,2025-01-22,1,,,,,メメパートナーズ,0
4603,8010003046148,新規,0,2025-01-22,2025-01-22,合同会社カイエンナッツ,,合同会社,東京都,文京区,小日向２丁目１９番９号トワベール小日向４０１,,13,105,1120006,,,,,,,2025-01-22,1,,,,,カイエンナッツ,0
4604,8010005039422,新規,0,2025-01-22,2025-01-22,一般社団法人ＡＩＩＭ医進会,,その他の設立登記法人,東京都,千代田区,神田佐久間町２丁目１８番地,,13,101,1010025,,,,,,,2025-01-22,1,,,,,エーアイアイエムイシンカイ,0
4643,8010103002496,新規,0,2025-01-22,2025-01-22,合同会社Ｋａｉｚｅｎ,,合同会社,東京都,八王子市,明神町２丁目１３－１１シャン・ヴァロン２０８,,13,201,1920046,,,,,,,2025-01-22,1,,,,,カイゼン,0
4648,8010403034198,新規,0,2025-01-22,2025-01-22,合同会社Ｋｈａｄｉ,,合同会社,東京都,港区,高輪２丁目１番４６－１０８号,,13,103,1080074,,,,,,,2025-01-22,1,,,,,カディ,0
4652,8010701047125,新規,0,2025-01-22,2025-01-22,亀山社中株式会社,,株式会社,東京都,品川区,西大井３丁目１６番２０‐２１５号,,13,109,1400015,,,,,,,2025-01-22,1,,,,,カメヤマシャチュウ,0
4741,8010801035756,新規,0,2025-01-22,2025-01-22,株式会社サロンド魔ギィ,,株式会社,東京都,大田区,東蒲田２丁目３０番１７号,,13,111,1440031,,,,,,,2025-01-22,1,,,,,サロンドマギィ,0
4742,8010801035780,新規,0,2025-01-22,2025-01-22,株式会社ＭＣ,,株式会社,東京都,大田区,蒲田４丁目４３番１０－１４０３号ダイアパレスシティウインド蒲田,,13,111,1440052,,,,,,,2025-01-22,1,,,,,エムシー,0
4757,8010901056693,新規,0,2025-01-22,2025-01-22,株式会社澤承,,株式会社,東京都,世田谷区,粕谷３丁目１２番１８号,,13,112,1570063,,,,,,,2025-01-22,1,,,,,サワショウ,0
4768,8011001167191,新規,0,2025-01-22,2025-01-22,日本華人ＧＯＬＦ協会株式会社,,株式会社,東京都,渋谷区,富ヶ谷１丁目１４番１４号スタンフォードアネックスビル３Ｆ,,13,113,1510063,,,,,,,2025-01-22,1,,,,,ニホンカジンゴルフキョウカイ,0
4769,8011001167233,新規,0,2025-01-22,2025-01-22,株式会社ＬＢＢ,,株式会社,東京都,目黒区,五本木１丁目２番３－４０１号祐天寺マンション,,13,110,1530053,,,,,,,2025-01-22,1,,,,,エルビービー,0
4770,8011001167282,新規,0,2025-01-22,2025-01-22,株式会社Ｍｉｍｍｙ,,株式会社,東京都,渋谷区,渋谷３丁目２７番１号３Ｆ,,13,113,1500002,,,,,,,2025-01-22,1,,,,,ミミー,0
4776,8011101110349,新規,0,2025-01-22,2025-01-22,株式会社Ｇｒａｂｌｉｎｋ,,株式会社,東京都,新宿区,西新宿３丁目２番９号新宿ワシントンビル本館２Ｆ,,13,104,1600023,,,,,,,2025-01-22,1,,,,,グラブリンク,0
4779,8011103015430,新規,0,2025-01-22,2025-01-22,合同会社２４式ちーほん,,合同会社,東京都,新宿区,西新宿３丁目３番１３号西新宿水間ビル２Ｆ,,13,104,1600023,,,,,,,2025-01-22,1,,,,,ニーヨンシキチーホン,0
4780,8011103015439,新規,0,2025-01-22,2025-01-22,合同会社Ｉｒｉｓ,,合同会社,東京都,新宿区,西新宿３丁目３番１３号西新宿水間ビル２Ｆ,,13,104,1600023,,,,,,,2025-01-22,1,,,,,イリス,0
4782,8011301030306,新規,0,2025-01-22,2025-01-22,ＣＲＵＳ株式会社,,株式会社,東京都,杉並区,善福寺１丁目１４番２６号,,13,115,1670041,,,,,,,2025-01-22,1,,,,,クルーズ,0
4785,8011401026740,新規,0,2025-01-22,2025-01-22,金桐株式会社,,株式会社,東京都,板橋区,板橋２丁目６３番４号５０１室,,13,119,1730004,,,,,,,2025-01-22,1,,,,,キンドウ,0
4786,8011401026757,新規,0,2025-01-22,2025-01-22,株式会社ＡＲＩＭＡ,,株式会社,東京都,板橋区,南町５７番８号ＷＩＳＥ４,,13,119,1730027,,,,,,,2025-01-22,1,,,,,アリマ,0
4787,8011401026765,新規,0,2025-01-22,2025-01-22,株式会社聚源商事,,株式会社,東京都,板橋区,仲宿６３番地７号ＯＥＯｆｆｉｃｅＢｌｄｇ．１０５号,,13,119,1730005,,,,,,,2025-01-22,1,,,,,シュウゲンショウジ,0
4794,8011603004585,新規,0,2025-01-22,2025-01-22,ＭＱＹ合同会社,,合同会社,東京都,練馬区,上石神井４丁目１６番３号,,13,120,1770044,,,,,,,2025-01-22,1,,,,,エムキューワイ,0
4804,8011801045497,新規,0,2025-01-22,2025-01-22,株式会社ｋｉｎａｒｉ,,株式会社,東京都,葛飾区,宝町１丁目１９番１６号,,13,122,1240005,,,,,,,2025-01-22,1,,,,,キナリ,0
4807,8011803006654,新規,0,2025-01-22,2025-01-22,ｉＦｕｎ商貿合同会社,,合同会社,東京都,葛飾区,東金町６丁目１６番８号,,13,122,1250041,,,,,,,2025-01-22,1,,,,,アイファンショウボウ,0
4808,8012301014232,新規,0,2025-01-22,2025-01-22,株式会社根本総合設備,,株式会社,東京都,町田市,小山町７６６番地１５,,13,209,1940212,,,,,,,2025-01-22,1,,,,,ネモトソウゴウセツビ,0
4809,8012401042686,新規,0,2025-01-22,2025-01-22,Ｎ‐Ｔｅｃｈ株式会社,,株式会社,東京都,武蔵野市,西久保３丁目２番１２号,,13,203,1800013,,,,,,,2025-01-22,1,,,,,エヌテック,0
4811,8013101009612,新規,0,2025-01-22,2025-01-22,株式会社トキ,,株式会社,東京都,青梅市,梅郷５丁目９１０－３,,13,205,1980063,,,,,,,2025-01-22,1,,,,,トキ,0
4823,8021001084262,新規,0,2025-01-22,2025-01-22,株式会社エスエイチシー,,株式会社,神奈川県,平塚市,北金目２丁目３０番３５号,,14,203,2591207,,,,,,,2025-01-22,1,,,,,エスエイチシー,0
4824,8021001084279,新規,0,2025-01-22,2025-01-22,Ｓａｄｌｅｒ’ｓ　Ｗｅｌｌｓ株式会社,,株式会社,神奈川県,相模原市南区,下溝３２３番地９メゾンＺ３０５,,14,153,2520335,,,,,,,2025-01-22,1,,,,,サドラーズウェルズ,0
4825,8021001084287,新規,0,2025-01-22,2025-01-22,トライスル株式会社,,株式会社,神奈川県,足柄下郡湯河原町,宮上５３７番地,,14,384,2590314,,,,,,,2025-01-22,1,,,,,トライスル,0
4827,8021005013259,新規,0,2025-01-22,2025-01-22,一般社団法人ＮｕｒｓｅＴｅｒｍｉｎａｌ,,その他の設立登記法人,神奈川県,厚木市,恩名２丁目２０番１０７－３号,,14,212,2430032,,,,,,,2025-01-22,1,,,,,ナースターミナル,0
4829,8030001164494,新規,0,2025-01-22,2025-01-22,株式会社Ｂａｏｂａｂ,,株式会社,埼玉県,さいたま市浦和区,本太２丁目５番１０－１号,,11,107,3300052,,,,,,,2025-01-22,1,,,,,バオバブ,0
4840,8040001137078,新規,0,2025-01-22,2025-01-22,株式会社ＢＡＩＧＡＬ,,株式会社,千葉県,富津市,青木４丁目６番地７ドゥ・ソレイユ１０１,,12,226,2930012,,,,,,,2025-01-22,1,,,,,バイガル,0
4841,8040001137086,新規,0,2025-01-22,2025-01-22,ＯＣＥＡＮ　ＴＲＩＢＥ株式会社,,株式会社,千葉県,白井市,西白井３丁目１５番地３３,,12,232,2701408,,,,,,,2025-01-22,1,,,,,オーシャントライブ,0
4842,8040001137103,新規,0,2025-01-22,2025-01-22,株式会社フライベース,,株式会社,千葉県,松戸市,栄町２丁目９７番地の２パールハイツ２０３号,,12,207,2710062,,,,,,,2025-01-22,1,,,,,フライベース,0
4847,8040003026659,新規,0,2025-01-22,2025-01-22,合同会社Ｈ．Ｍカンパニー,,合同会社,千葉県,四街道市,栗山３０５番地３ガレージＣＵＢＥ１－Ｂ号,,12,228,2840027,,,,,,,2025-01-22,1,,,,,エイチエムカンパニー,0
4850,8050001056046,新規,0,2025-01-22,2025-01-22,株式会社Ｓｗｅｅｐｅｒｓ,,株式会社,茨城県,かすみがうら市,稲吉５丁目３番６号,,08,230,3150054,,,,,,,2025-01-22,1,,,,,スイーパー,0
4853,8060001037838,新規,0,2025-01-22,2025-01-22,株式会社ＨｉＴｓｕ,,株式会社,栃木県,佐野市,植上町１６５３番地４,,09,204,3270832,,,,,,,2025-01-22,1,,,,,ヒッツ,0
4859,8070001042564,新規,0,2025-01-22,2025-01-22,株式会社ＫＹＯ,,株式会社,群馬県,伊勢崎市,宮子町３６３５番地２０,,10,204,3720801,,,,,,,2025-01-22,1,,,,,ケーワイオー,0
4886,8080001026723,新規,0,2025-01-22,2025-01-22,株式会社Ｎ’ｓプラン,,株式会社,静岡県,焼津市,三右衛門新田２７７番地の１,,22,212,4250046,,,,,,,2025-01-22,1,,,,,エヌズプラン,0
4933,8080101025261,新規,0,2025-01-22,2025-01-22,ＴａｋａｏＦａｒｍ株式会社,,株式会社,静岡県,富士宮市,山本２００番地の１,,22,207,4180023,,,,,,,2025-01-22,1,,,,,タカオファーム,0
4982,8080403005184,新規,0,2025-01-22,2025-01-22,ピース合同会社,,合同会社,静岡県,掛川市,掛川８７７－７,,22,213,4360079,,,,,,,2025-01-22,1,,,,,ピース,0
4987,8110005017178,新規,0,2025-01-22,2025-01-22,特定非営利活動法人日本みつばちが安心して暮らせるお花畑プロジェクト,,その他の設立登記法人,新潟県,新潟市西区,西小針台３丁目１２番１９号,,15,107,9502015,,,,,,,2025-01-22,1,,,,,ニホンミツバチガアンシンシテクラセルオハナバタケプロジェクト,0
4993,8120001271810,新規,0,2025-01-22,2025-01-22,御堂筋パートナーズ株式会社,,株式会社,大阪府,大阪市中央区,今橋４丁目１番１号,,27,128,5410042,,,,,,,2025-01-22,1,,,,,ミドウスジパートナーズ,0
4994,8120001272024,新規,0,2025-01-22,2025-01-22,山田国際緑色科技株式会社,,株式会社,大阪府,大阪市城東区,関目５丁目１９番９号関目花博公館４１２Ｂ,,27,118,5360008,,,,,,,2025-01-22,1,,,,,ヤマダコクサイリョクショクカギ,0
4995,8120001272098,新規,0,2025-01-22,2025-01-22,株式会社ＤＡＮ,,株式会社,大阪府,枚方市,三栗１丁目２８番３０号,,27,210,5731171,,,,,,,2025-01-22,1,,,,,ダン,0
4996,8120001272115,新規,0,2025-01-22,2025-01-22,株式会社えだつく,,株式会社,大阪府,大阪市都島区,善源寺町１丁目８番２１号,,27,102,5340015,,,,,,,2025-01-22,1,,,,,エダツク,0
4997,8120001272123,新規,0,2025-01-22,2025-01-22,株式会社プロメテウス,,株式会社,大阪府,大阪市福島区,福島５丁目１番１２号,,27,103,5530003,,,,,,,2025-01-22,1,,,,,プロメテウス,0
4998,8120001272172,新規,0,2025-01-22,2025-01-22,科恩株式会社,,株式会社,大阪府,大阪市東住吉区,公園南矢田１丁目３番１３－１０２号,,27,121,5460024,,,,,,,2025-01-22,1,,,,,カオン,0
5016,8130001078809,新規,0,2025-01-22,2025-01-22,ヤマショウ株式会社,,株式会社,京都府,京都市右京区,鳴滝西嵯峨園町３－７,,26,108,6168235,,,,,,,2025-01-22,1,,,,,ヤマショウ,0
5017,8130001078833,新規,0,2025-01-22,2025-01-22,億点達・ＥＡＳＥ　ＧＯ株式会社,,株式会社,京都府,京都市伏見区,醍醐西大路町４４番地１１８,,26,109,6011374,,,,,,,2025-01-22,1,,,,,オクテンタツイージーゴー,0
5021,8130003010141,新規,0,2025-01-22,2025-01-22,合同会社結び芽,,合同会社,京都府,京田辺市,草内東垣内１番地,,26,211,6100311,,,,,,,2025-01-22,1,,,,,ムスビメ,0
5022,8130003010158,新規,0,2025-01-22,2025-01-22,合同会社サブサポート,,合同会社,京都府,京都市南区,久世大築町１７９番地,,26,107,6018202,,,,,,,2025-01-22,1,,,,,サブサポート,0
5024,8140001137159,新規,0,2025-01-22,2025-01-22,株式会社ジートエヌ,,株式会社,兵庫県,たつの市,揖保川町市場６２５番地３,,28,229,6711662,,,,,,,2025-01-22,1,,,,,ジートエヌ,0
5025,8140001137175,新規,0,2025-01-22,2025-01-22,株式会社Ｍ‐ＴＥＣ,,株式会社,兵庫県,小野市,中谷町８３１番地,,28,218,6751304,,,,,,,2025-01-22,1,,,,,エムテック,0
5028,8140003021567,新規,0,2025-01-22,2025-01-22,ＹＯＴＳＵＢＡ合同会社,,合同会社,兵庫県,朝来市,山東町一品１４２－１,,28,225,6695123,,,,,,,2025-01-22,1,,,,,ヨツバ,0
5032,8170001018455,新規,0,2025-01-22,2025-01-22,紀の川流域カンパニー株式会社,,株式会社,和歌山県,紀の川市,北長田４４１番地３,,30,208,6496502,,,,,,,2025-01-22,1,,,,,キノカワリュウイキカンパニー,0
5034,8170005007124,新規,0,2025-01-22,2025-01-22,特定非営利活動法人ファミリーハートフルクリーンセンター,,その他の設立登記法人,和歌山県,和歌山市,直川７７９番地９,,30,201,6408481,,,,,,,2025-01-22,1,,,,,ファミリーハートフルクリーンセンター,0
5037,8180001165065,新規,0,2025-01-22,2025-01-22,株式会社Ｏ’ｓ,,株式会社,愛知県,名古屋市瑞穂区,関取町１４０番地の１１,,23,108,4670058,,,,,,,2025-01-22,1,,,,,オーズ,0
5038,8180001165098,新規,0,2025-01-22,2025-01-22,棟梁株式会社,,株式会社,愛知県,名古屋市中区,丸の内１丁目５－３９ライオンズマンション丸の内第６－７０２号,,23,106,4600002,,,,,,,2025-01-22,1,,,,,トウリョウ,0
5041,8180003027890,新規,0,2025-01-22,2025-01-22,合同会社ＰＯＰＯ,,合同会社,愛知県,長久手市,砂子１０１９番地,,23,238,4801112,,,,,,,2025-01-22,1,,,,,ポポ,0
5043,8180301039448,新規,0,2025-01-22,2025-01-22,株式会社サノワールドサービス,,株式会社,愛知県,知立市,栄１丁目１番地,,23,225,4720037,,,,,,,2025-01-22,1,,,,,サノワールドサービス,0
5044,8180301039456,新規,0,2025-01-22,2025-01-22,サーラアグリ株式会社,,株式会社,愛知県,豊橋市,駅前大通１丁目５５番地サーラタワー,,23,201,4400888,,,,,,,2025-01-22,1,,,,,サーラアグリ,0
5045,8190001031951,新規,0,2025-01-22,2025-01-22,株式会社Ｌｅｔｒｙ,,株式会社,三重県,四日市市,別名１丁目１４番４号,,24,202,5100007,,,,,,,2025-01-22,1,,,,,リトリー,0
5046,8200001043350,新規,0,2025-01-22,2025-01-22,株式会社可児加茂まちづくり,,株式会社,岐阜県,可児市,徳野南２丁目８５番地,,21,214,5090205,,,,,,,2025-01-22,1,,,,,カニカモマチヅクリ,0
5047,8210001011868,新規,0,2025-01-22,2025-01-22,浜崎建設株式会社,,株式会社,福井県,越前市,芝原３丁目６番２８号,,18,209,9150805,,,,,,,2025-01-22,1,,,,,ハマサキケンセツ,0
5049,8210003001883,新規,0,2025-01-22,2025-01-22,合同会社コバヤシヤ,,合同会社,福井県,あわら市,二面３丁目６０３－９,,18,208,9104103,,,,,,,2025-01-22,1,,,,,コバヤシヤ,0
5050,8220001026444,新規,0,2025-01-22,2025-01-22,株式会社レモンの木,,株式会社,石川県,金沢市,田上本町４丁目１９６番地,,17,201,9201155,,,,,,,2025-01-22,1,,,,,レモンノキ,0
5084,8240001064418,新規,0,2025-01-22,2025-01-22,株式会社フォワードフィールド,,株式会社,広島県,安芸郡府中町,宮の町１丁目８番１９号,,34,302,7350005,,,,,,,2025-01-22,1,,,,,フォワードフィールド,0
5121,8290001108715,新規,0,2025-01-22,2025-01-22,マルハンズ株式会社,,株式会社,福岡県,三井郡大刀洗町,大字山隈２２１６番地１,,40,503,8301226,,,,,,,2025-01-22,1,,,,,マルハンズ,0
5148,8320001020899,新規,0,2025-01-22,2025-01-22,ＲＥＡＬ　ＥＳＴＡＴＥ大分株式会社,,株式会社,大分県,大分市,金池町２丁目９番７号ＩＴＯＰＩＡ１０３,,44,201,8700026,,,,,,,2025-01-22,1,,,,,リアルエステートオオイタ,0
5154,8350001019377,新規,0,2025-01-22,2025-01-22,株式会社イマムラノウキ,,株式会社,宮崎県,都城市,高崎町東霧島１７４９番地,,45,202,8894504,,,,,,,2025-01-22,1,,,,,イマムラノウキ,0
5157,8360001034689,新規,0,2025-01-22,2025-01-22,株式会社ＯＫＩＮＡＷＡ・ＲＥＳＩＮ,,株式会社,沖縄県,名護市,城１丁目４番１１号２階,,47,209,9050013,,,,,,,2025-01-22,1,,,,,オキナワレジン,0
5160,8360003014607,新規,0,2025-01-22,2025-01-22,ＳＡＭＪＨＡＮＡ合同会社,,合同会社,沖縄県,那覇市,泊３丁目１番地１９,,47,201,9000012,,,,,,,2025-01-22,1,,,,,サムジャナ,0
5168,8390001017856,新規,0,2025-01-22,2025-01-22,株式会社Ｈａｐｐｙｄａｙ,,株式会社,山形県,西村山郡河北町,谷地字砂田２１８番地の１,,06,321,9993511,,,,,,,2025-01-22,1,,,,,ハッピーデイ,0
5169,8390003002344,新規,0,2025-01-22,2025-01-22,合同会社スマイル整骨院,,合同会社,山形県,酒田市,東泉町２丁目１７番地の３８,,06,204,9980013,,,,,,,2025-01-22,1,,,,,スマイルセイコツイン,0
5171,8400001016914,新規,0,2025-01-22,2025-01-22,株式会社鉄板焼音,,株式会社,岩手県,盛岡市,中ノ橋通１丁目５番２０号カガヤ中ノ橋通ビル１Ｆ,,03,201,0200871,,,,,,,2025-01-22,1,,,,,テッパンヤキオト,0
5174,8420001018982,新規,0,2025-01-22,2025-01-22,株式会社ＮＩマシナリー,,株式会社,青森県,上北郡おいらせ町,松原２丁目１３２番４２,,02,412,0392206,,,,,,,2025-01-22,1,,,,,エヌアイマシナリー,0
5175,8420001018990,新規,0,2025-01-22,2025-01-22,株式会社青森トランスポート,,株式会社,青森県,黒石市,大字西馬場尻字派村３３番地２,,02,204,0360507,,,,,,,2025-01-22,1,,,,,アオモリトランスポート,0
5178,8430001093496,新規,0,2025-01-22,2025-01-22,ＭＴＭ株式会社,,株式会社,北海道,札幌市豊平区,月寒東二条３丁目４番１０－１０５号,,01,105,0620052,,,,,,,2025-01-22,1,,,,,エムティーエム,0
5182,8430005015141,新規,0,2025-01-22,2025-01-22,ＮＰＯ法人みはるかすいしかり,,その他の設立登記法人,北海道,石狩市,花畔二条１丁目８２－１ウインディア花畔Ｃ－１０１,,01,235,0613282,,,,,,,2025-01-22,1,,,,,ミハルカスイシカリ,0
5209,8450001014500,新規,0,2025-01-22,2025-01-22,株式会社ｉｙａｓａｋａ,,株式会社,北海道,紋別市,南が丘町７丁目２４番７号,,01,219,0940013,,,,,,,2025-01-22,1,,,,,イヤサカ,0
5215,8470001020546,新規,0,2025-01-22,2025-01-22,株式会社真建工業,,株式会社,香川県,善通寺市,中村町１丁目２番３６号,,37,204,7650072,,,,,,,2025-01-22,1,,,,,シンケンコウギョウ,0
5217,8500001026102,新規,0,2025-01-22,2025-01-22,株式会社ちとせグランフーズ,,株式会社,愛媛県,伊予郡松前町,大字筒井３９３番地,,38,401,7913120,,,,,,,2025-01-22,1,,,,,チトセグランフーズ,0
5222,8700150128884,新規,0,2025-01-22,2025-01-22,Ｉｎｔｅｒｎａｔｉｏｎａｌ　Ｅｄｕｃａｔｉｏｎ　Ａｎｄ　Ａｃａｄｅｍｉｃ　Ｅｘｃｈａｎｇｅｓ　Ｆｏｕｎｄａｔｉｏｎ　Ｃｏｍｐａｎｙ　Ｌｉｍｉｔｅｄ,,外国会社等,,,,,,,,２１３　Ｎａｍ　Ｃｈｅｏｎｇ　Ｓｔｒｅｅｔ　Ｓｈａｍ　Ｓｈｕｉ　Ｐｏ，Ｋｏｗｌｏｏｎ，Ｈｏｎｇ　Ｋｏｎｇ,,,,,,2025-01-22,1,,,,,インターナシヨナルエデユケーシヨンアンドアカデミツクエクスチエンジフアウンデーシヨン,0
5223,8700150128892,新規,0,2025-01-22,2025-01-22,Ｂａｃｋｂｏｎｅ　Ｌａｂｓ，　Ｉｎｃ,,外国会社等,,,,,,,,１８１５　ＮＷ　１６９ｔｈ　Ｐｌ　Ｓｔｅ　４０２０　Ｂｅａｖｅｒｔｏｎ，ＯＲ　９７００６　ＵＳＡ,,,,,,2025-01-22,1,,,,,バツクボーンラブズインク,0
5238,9010001251590,新規,0,2025-01-22,2025-01-22,ＭＯＴＲＥＸ　ＪＡＰＡＮ株式会社,,株式会社,東京都,中央区,銀座７丁目２番６号銀座アステルビル４階,,13,102,1040061,,,,,,,2025-01-22,1,,,,,モトレックスジャパン,0
5239,9010001251599,新規,0,2025-01-22,2025-01-22,ニスコグラウト株式会社,,株式会社,東京都,中央区,日本橋箱崎町１７番１号,,13,102,1030015,,,,,,,2025-01-22,1,,,,,ニスコグラウト,0
5240,9010001251616,新規,0,2025-01-22,2025-01-22,株式会社オンサイトエッジ,,株式会社,東京都,千代田区,九段南１丁目５番６号りそな九段ビル５階ＫＳフロア,,13,101,1020074,,,,,,,2025-01-22,1,,,,,オンサイトエッジ,0
5241,9010003046130,新規,0,2025-01-22,2025-01-22,合同会社ＢＩＯＳＳ,,合同会社,東京都,中央区,銀座１丁目１２番４号Ｎ＆Ｅ・ＢＬＤ．６Ｆ,,13,102,1040061,,,,,,,2025-01-22,1,,,,,バイオス,0
5242,9010003046139,新規,0,2025-01-22,2025-01-22,エスティ１５合同会社,,合同会社,東京都,千代田区,丸の内１丁目４番１号東京共同会計事務所内,,13,101,1000005,,,,,,,2025-01-22,1,,,,,エスティジュウゴ,0
5243,9010005039438,新規,0,2025-01-22,2025-01-22,Ｈ１　ＫＯＪＩＭＡＣＨＩ一般社団法人,,その他の設立登記法人,東京都,中央区,京橋２丁目１２番６号ＡＯＪ税理士法人内,,13,102,1040031,,,,,,,2025-01-22,1,,,,,エイチワンコウジマチ,0
5290,9010401187600,新規,0,2025-01-22,2025-01-22,ＩＮＳＥＮＳＥ株式会社,,株式会社,東京都,港区,赤坂５丁目２番３３号ＩｓａＩＡｋａｓａｋＡ７０９,,13,103,1070052,,,,,,,2025-01-22,1,,,,,インセンス,0
5292,9010403034065,新規,0,2025-01-22,2025-01-22,デジ・キン合同会社,,合同会社,東京都,港区,芝３丁目２５番２号黒田芝ビル３階レンコレ芝公園オフィス３０６号室,,13,103,1050014,,,,,,,2025-01-22,1,,,,,デジキン,0
5293,9010405023999,新規,0,2025-01-22,2025-01-22,雷門ホールディング１一般社団法人,,その他の設立登記法人,東京都,港区,虎ノ門３丁目２２番１０－２０１号,,13,103,1050001,,,,,,,2025-01-22,1,,,,,カミナリモンホールディングワン,0
5296,9010701047132,新規,0,2025-01-22,2025-01-22,Ｓｏｐｈｉｅ株式会社,,株式会社,東京都,品川区,小山３丁目１４番２－１４０９号,,13,109,1420062,,,,,,,2025-01-22,1,,,,,ソフィー,0
5405,9011101110348,新規,0,2025-01-22,2025-01-22,ＭＵＳＡＳＨＩコンサルティング株式会社,,株式会社,東京都,新宿区,西新宿３丁目３番１３号西新宿水間ビル２Ｆ,,13,104,1600023,,,,,,,2025-01-22,1,,,,,ムサシコンサルティング,0
5406,9011103015347,新規,0,2025-01-22,2025-01-22,ウェルネスデザイン合同会社,,合同会社,東京都,新宿区,百人町１丁目２２番３－５０３号,,13,104,1690073,,,,,,,2025-01-22,1,,,,,ウェルネスデザイン,0
5407,9011103015438,新規,0,2025-01-22,2025-01-22,ＢｎＡＰ合同会社,,合同会社,東京都,新宿区,西新宿６丁目５番１号新宿アイランドタワー２階,,13,104,1600023,,,,,,,2025-01-22,1,,,,,ビーエヌエーピー,0
5408,9011103015454,新規,0,2025-01-22,2025-01-22,合同会社オーマルシエルケータリング,,合同会社,東京都,新宿区,新宿２丁目１５－８,,13,104,1600022,,,,,,,2025-01-22,1,,,,,オーマルシエルケータリング,0
5413,9011301030305,新規,0,2025-01-22,2025-01-22,マーキュリーライツ株式会社,,株式会社,東京都,杉並区,成田東２丁目３９番２０－１０６号ザ・ライオンズ杉並、善福寺川緑地,,13,115,1660015,,,,,,,2025-01-22,1,,,,,マーキュリーライツ,0
5422,9011501031607,新規,0,2025-01-22,2025-01-22,張文栄株式会社,,株式会社,東京都,荒川区,町屋３丁目２番１号Ｂ１Ｆ,,13,118,1160001,,,,,,,2025-01-22,1,,,,,チョウブンエイ,0
5423,9011503006383,新規,0,2025-01-22,2025-01-22,合同会社ケアアシスト,,合同会社,東京都,北区,中里３丁目１９番１３－１号,,13,117,1140015,,,,,,,2025-01-22,1,,,,,ケアアシスト,0
5435,9011703004096,新規,0,2025-01-22,2025-01-22,合同会社Ｐｙｇｍａｌｉｏｎ,,合同会社,東京都,江戸川区,本一色２丁目１０―１２―２０１,,13,123,1330044,,,,,,,2025-01-22,1,,,,,ピグマリオン,0
5440,9011801045471,新規,0,2025-01-22,2025-01-22,株式会社トラスティ,,株式会社,東京都,足立区,島根３丁目２１－１７,,13,121,1210815,,,,,,,2025-01-22,1,,,,,トラステイ,0
5443,9012301014231,新規,0,2025-01-22,2025-01-22,株式会社Ｒａｙ　Ｌｏｇｉｃ　Ｓｔｕｄｉｏ,,株式会社,東京都,町田市,玉川学園８丁目８番２号,,13,209,1940041,,,,,,,2025-01-22,1,,,,,レイロジックスタジオ,0
5449,9012401042669,新規,0,2025-01-22,2025-01-22,株式会社Ｗｏｎｄｅｒｗａｌｌ,,株式会社,東京都,三鷹市,井口１丁目１３番５２号,,13,204,1810011,,,,,,,2025-01-22,1,,,,,ワンダーウォール,0
5450,9012401042693,新規,0,2025-01-22,2025-01-22,株式会社亘天デザイン,,株式会社,東京都,狛江市,中和泉２丁目１０番１４－１０１号,,13,219,2010012,,,,,,,2025-01-22,1,,,,,ゲンテンデザイン,0
5451,9012803003608,新規,0,2025-01-22,2025-01-22,桜木商事合同会社,,合同会社,東京都,立川市,高松町１丁目３１番２２－５２９号,,13,202,1900011,,,,,,,2025-01-22,1,,,,,サクラギショウジ,0
5452,9013101009611,新規,0,2025-01-22,2025-01-22,株式会社つくし,,株式会社,東京都,福生市,志茂１４番地１ロードサイド福生Ｂ号室,,13,218,1970023,,,,,,,2025-01-22,1,,,,,ツクシ,0
5464,9021001084261,新規,0,2025-01-22,2025-01-22,株式会社シンクラフト,,株式会社,神奈川県,愛甲郡愛川町,中津１０番地の１１,,14,401,2430303,,,,,,,2025-01-22,1,,,,,シンクラフト,0
5465,9021003015487,新規,0,2025-01-22,2025-01-22,合同会社ＡｒＡｒｅ,,合同会社,神奈川県,相模原市緑区,東橋本１丁目１４番１２号グランスタシオン宮上Ｉ３０６号室,00137726,14,151,2520144,,,,,,,2025-01-22,1,,,,,アラレ,0
5470,9030001164460,新規,0,2025-01-22,2025-01-22,株式会社新道,,株式会社,埼玉県,上尾市,本町６丁目９番２号シャンブルドゥシャームＡ２０５,,11,219,3620014,,,,,,,2025-01-22,1,,,,,シンドウ,0
5472,9030003025917,新規,0,2025-01-22,2025-01-22,合同会社遊クリエイト,,合同会社,埼玉県,川越市,氷川町１４６番地３,,11,201,3500851,,,,,,,2025-01-22,1,,,,,ユウクリエイト,0
5473,9030003025925,新規,0,2025-01-22,2025-01-22,エスギ合同会社,,合同会社,埼玉県,蕨市,塚越町四丁目１２番３２号ウェリス蕨市民公園１０３号,,11,223,3350000,,,,,,,2025-01-22,1,,,,,エスギ,0
5482,9040001137077,新規,0,2025-01-22,2025-01-22,株式会社エムアールエス,,株式会社,千葉県,習志野市,奏の杜１丁目１２番２６－６０２号,,12,216,2750028,,,,,,,2025-01-22,1,,,,,エムアールエス,0
5486,9040003026633,新規,0,2025-01-22,2025-01-22,合同会社アトリエ,,合同会社,千葉県,千葉市美浜区,稲毛海岸４丁目９番１号東映マンションＢ棟１２２５号,,12,106,2610005,,,,,,,2025-01-22,1,,,,,アトリエ,0
5487,9040003026666,新規,0,2025-01-22,2025-01-22,合同会社千羽鶴,,合同会社,千葉県,浦安市,今川１丁目３番２号,,12,227,2790022,,,,,,,2025-01-22,1,,,,,センバヅル,0
5496,9060001037845,新規,0,2025-01-22,2025-01-22,株式会社Ｅｍｂｌｅｍ,,株式会社,栃木県,宇都宮市,塙田４丁目４番１２号,,09,201,3200027,,,,,,,2025-01-22,1,,,,,エンブレム,0
5497,9060001037853,新規,0,2025-01-22,2025-01-22,株式会社天昇堂ホールディングス,,株式会社,栃木県,芳賀郡茂木町,大字茂木１４５１番地,,09,343,3213531,,,,,,,2025-01-22,1,,,,,テンショウドウホールディングス,0
5500,9070001042571,新規,0,2025-01-22,2025-01-22,ＭｅｄｉｃｏＳｐａｃｅ　Ｌａｂ．株式会社,,株式会社,群馬県,伊勢崎市,羽黒町１５－１,,10,204,3720844,,,,,,,2025-01-22,1,,,,,メディコスペースラボ,0
5501,9070003005758,新規,0,2025-01-22,2025-01-22,合同会社ＪＢＲＳ,,合同会社,群馬県,前橋市,富士見町田島５１－１,,10,201,3710114,,,,,,,2025-01-22,1,,,,,ジェービーアールエス,0
5635,9120001272080,新規,0,2025-01-22,2025-01-22,好物芸株式会社,,株式会社,大阪府,大阪市東住吉区,鷹合４丁目２１番１６号３Ｆ－Ｆ,,27,121,5460014,,,,,,,2025-01-22,1,,,,,コウブツゲイ,0
5636,9120001272106,新規,0,2025-01-22,2025-01-22,順風ジャパン株式会社,,株式会社,大阪府,大阪市都島区,内代町１丁目１２－１６ベストレジデンス都島３０２号,,27,102,5340013,,,,,,,2025-01-22,1,,,,,ジュンプウジャパン,0
5637,9120001272114,新規,0,2025-01-22,2025-01-22,近畿製菓株式会社,,株式会社,大阪府,大阪市住吉区,杉本３丁目３２－２,,27,120,5580022,,,,,,,2025-01-22,1,,,,,キンキセイカ,0
5638,9120001272122,新規,0,2025-01-22,2025-01-22,株式会社Ｓａｉ,,株式会社,大阪府,大阪市西区,北堀江２丁目２番２４号ＰａｒｋＬａｎｅＨｏｒｉｅＢｌｄ６０２号室,,27,106,5500014,,,,,,,2025-01-22,1,,,,,サイ,0
5644,9120005024742,新規,0,2025-01-22,2025-01-22,医療法人ノア,,その他の設立登記法人,大阪府,大阪市福島区,福島４丁目５－４７,,27,103,5530003,,,,,,,2025-01-22,1,,,,,ノア,0
5648,9120905006674,新規,0,2025-01-22,2025-01-22,医療法人宏立会,,その他の設立登記法人,大阪府,池田市,城南３丁目１番１１号レジデンスニシムラ１階,,27,204,5630025,,,,,,,2025-01-22,1,,,,,コウリュウカイ,0
5649,9122001038791,新規,0,2025-01-22,2025-01-22,ＧＯＬＤ・Ｓ株式会社,,株式会社,大阪府,大東市,氷野１丁目１６番３号,,27,218,5740062,,,,,,,2025-01-22,1,,,,,ゴールドエス,0
5657,9130003010157,新規,0,2025-01-22,2025-01-22,合同会社センチュリー,,合同会社,京都府,京都市下京区,麸屋町通上る下鱗形町５５５番地１リーガル京都河原町五条２－４０３,,26,106,6000000,,,,,,,2025-01-22,1,,,,,センチュリー,0
5661,9140003021558,新規,0,2025-01-22,2025-01-22,合同会社ＹＡＫ,,合同会社,兵庫県,神戸市中央区,加納町４丁目７－２ＡＬＢＡ北野坂６階,,28,110,6500001,,,,,,,2025-01-22,1,,,,,ワイエーケイ,0
5662,9140003021566,新規,0,2025-01-22,2025-01-22,いしがめＦＰサービス合同会社,,合同会社,兵庫県,神戸市垂水区,神陵台８丁目５番１８号,,28,108,6550041,,,,,,,2025-01-22,1,,,,,イシガメエフピーサービス,0
5666,9180001165072,新規,0,2025-01-22,2025-01-22,ＪｕｓＭｅＣｅ株式会社,,株式会社,愛知県,名古屋市西区,上堀越町１丁目４７番地の１（カルティア庄内通駅西９０１号）,,23,104,4510084,,,,,,,2025-01-22,1,,,,,ジャスミス,0
5667,9180001165106,新規,0,2025-01-22,2025-01-22,株式会社タローズ事務所,,株式会社,愛知県,名古屋市東区,豊前町３丁目３８番地の７,,23,102,4610034,,,,,,,2025-01-22,1,,,,,タローズジムショ,0
5668,9180001165114,新規,0,2025-01-22,2025-01-22,株式会社ｅｕｃａｌｉｐｔｏ,,株式会社,愛知県,春日井市,下条町６４６番地,,23,206,4860923,,,,,,,2025-01-22,1,,,,,ユーカリプト,0
5676,9180303006429,新規,0,2025-01-22,2025-01-22,合同会社王,,合同会社,愛知県,新城市,字沖野２０番地１,,23,221,4411364,,,,,,,2025-01-22,1,,,,,オウ,0
5677,9190003004921,新規,0,2025-01-22,2025-01-22,現代テクノ合同会社,,合同会社,三重県,四日市市,笹川１丁目１５番地１‐２Ｆ,,24,202,5100944,,,,,,,2025-01-22,1,,,,,ゲンダイテクノ,0
5708,9240001064383,新規,0,2025-01-22,2025-01-22,株式会社壱心工業,,株式会社,広島県,広島市佐伯区,八幡２丁目８番５０－２号,,34,108,7315116,,,,,,,2025-01-22,1,,,,,イッシンコウギョウ,0
5710,9240003007027,新規,0,2025-01-22,2025-01-22,フォルステラリンクス合同会社,,合同会社,広島県,広島市中区,大手町１丁目１番２６号大手町一番ビル３０５,,34,101,7300051,,,,,,,2025-01-22,1,,,,,フォルステラリンクス,0
5734,9290001108697,新規,0,2025-01-22,2025-01-22,福岡ペイメントプロ株式会社,,株式会社,福岡県,福岡市博多区,博多駅東２丁目６番２６号安川産業ビル３階,,40,132,8120013,,,,,,,2025-01-22,1,,,,,フクオカペイメントプロ,0
5739,9290801031215,新規,0,2025-01-22,2025-01-22,株式会社日工防災,,株式会社,福岡県,田川市,大字川宮１５６７番地１８リバティハウスＩ　Ａ号室,00137729,40,206,8260042,,,,,,,2025-01-22,1,,,,,ニッコウボウサイ,0
5765,9340003004724,新規,0,2025-01-22,2025-01-22,ＳＯＬ合同会社,,合同会社,鹿児島県,鹿児島市,上之園町２５番１５シティハイツ三洋３０６号,,46,201,8900052,,,,,,,2025-01-22,1,,,,,ソル,0
5769,9380003005941,新規,0,2025-01-22,2025-01-22,合同会社エクラ,,合同会社,福島県,南会津郡只見町,大字亀岡字前通１－７,,07,367,9680445,,,,,,,2025-01-22,1,,,,,エクラ,0
5770,9390001017855,新規,0,2025-01-22,2025-01-22,きち株式会社,,株式会社,山形県,鶴岡市,新海町２番３‐１１号マルゴ荘Ｈ棟１－４号室,,06,203,9970044,,,,,,,2025-01-22,1,,,,,キチ,0
5772,9390003002343,新規,0,2025-01-22,2025-01-22,シン・アグリドリーム合同会社,,合同会社,山形県,鶴岡市,藤島字笹花１１０番地,,06,203,9997601,,,,,,,2025-01-22,1,,,,,シンアグリドリーム,0
5773,9410001014040,新規,0,2025-01-22,2025-01-22,株式会社ｈａｒｕ．ｓ,,株式会社,秋田県,秋田市,広面字土手下５４番地１０,,05,201,0100041,,,,,,,2025-01-22,1,,,,,ハルドットエス,0
5775,9430001093495,新規,0,2025-01-22,2025-01-22,株式会社Ｉソリューション,,株式会社,北海道,札幌市中央区,南二条東１丁目１番地１３－３Ｆ,,01,101,0600052,,,,,,,2025-01-22,1,,,,,アイソリューション,0
5776,9430001093504,新規,0,2025-01-22,2025-01-22,やよい牛乳株式会社,,株式会社,北海道,札幌市中央区,南一条東２丁目１３番地４,,01,101,0600051,,,,,,,2025-01-22,1,,,,,ヤヨイギュウニュウ,0
5777,9430001093512,新規,0,2025-01-22,2025-01-22,株式会社十一デザイン,,株式会社,北海道,札幌市中央区,南二十一条西９丁目２番６号,,01,101,0640921,,,,,,,2025-01-22,1,,,,,トイチデザイン,0
5799,9470001020545,新規,0,2025-01-22,2025-01-22,株式会社Ｆｏｒｅｖｅｒ,,株式会社,香川県,坂出市,加茂町甲５８１番地５,,37,203,7620022,,,,,,,2025-01-22,1,,,,,フォーエバー,0
5804,9500001026101,新規,0,2025-01-22,2025-01-22,ＴＭＥ株式会社,,株式会社,愛媛県,松山市,高岡町４２９番地９,,38,201,7918036,,,,,,,2025-01-22,1,,,,,ティーエムイー,0
