sequenceNumber,corporateNumber,process,correct,updateDate,changeDate,name,nameImageId,kind,prefectureName,cityName,streetNumber,addressImageId,prefectureCode,cityCode,postCode,addressOutside,addressOutsideImageId,closeDate,closeCause,successorCorporateNumber,changeCause,assignmentDate,latest,enName,enPrefectureName,enCityName,enAddressOutside,furigana,hihyoji
2,1010001130257,登記記録の閉鎖等,0,2022-12-26,2022-12-19,株式会社中央フレーバー研究所,,株式会社,東京都,中央区,勝どき６丁目３番１－４１６号,,13,102,1040054,,,2022-12-19,清算の結了等,,,2015-10-05,1,,,,,チュウオウフレーバーケンキュウショ,0
28,1010502018769,登記記録の閉鎖等,0,2022-12-26,2022-12-23,有限会社ハーベスト,,有限会社,東京都,台東区,浅草７丁目５番８号,,13,106,1110032,,,2022-12-23,清算の結了等,,,2015-10-05,1,,,,,,0
40,1010901025969,登記記録の閉鎖等,0,2022-12-26,2022-12-22,株式会社ショアライン,,株式会社,東京都,世田谷区,代田２丁目２番１６号,,13,112,1550033,,,2022-12-22,清算の結了等,,,2015-10-05,1,,,,,ショアライン,0
43,1010905004291,登記記録の閉鎖等,0,2022-12-26,2022-12-21,特定非営利活動法人教育格差是正協会,,その他の設立登記法人,東京都,世田谷区,中町５丁目１０番２９号,,13,112,1580091,,,2022-12-21,清算の結了等,,,2022-04-27,1,,,,,キョウイクカクサゼセイキョウカイ,0
74,1020001031751,登記記録の閉鎖等,0,2022-12-26,2022-12-22,神奈川合同アセチレン株式会社,,株式会社,神奈川県,横浜市瀬谷区,目黒町８番地の５,,14,114,2460007,,,2022-12-22,清算の結了等,,,2015-10-05,1,,,,,カナガワゴウドウアセチレン,0
81,1020002060015,登記記録の閉鎖等,0,2022-12-26,2022-12-22,有限会社シージーオー,,有限会社,神奈川県,横浜市鶴見区,東寺尾１丁目３１番１２号,,14,101,2300077,,,2022-12-22,清算の結了等,,,2015-10-05,1,,,,,シージーオー,0
86,1021005009172,登記記録の閉鎖等,0,2022-12-26,2022-12-21,一般財団法人青峰奨学財団,,その他の設立登記法人,東京都,練馬区,豊玉南３丁目２９番１８号,,13,120,1760014,,,2022-12-21,清算の結了等,,,2015-10-05,1,,,,,セイホウショウガクザイダン,0
99,1040003018976,登記記録の閉鎖等,0,2022-12-26,2022-12-21,コロナバスター合同会社,,合同会社,千葉県,柏市,柏３丁目９番１７－５０３号,,12,217,2770005,,,2022-12-21,清算の結了等,,,2021-12-02,1,,,,,コロナバスター,0
107,1080401010449,登記記録の閉鎖等,0,2022-12-26,2022-12-23,株式会社マルマ,,株式会社,静岡県,浜松市浜北区,高薗２６７番地,,22,136,4340023,,,2022-12-23,清算の結了等,,,2015-10-05,1,,,,,マルマ,0
109,1110002024992,登記記録の閉鎖等,0,2022-12-26,2022-12-14,有限会社丸山熔接所,,有限会社,新潟県,妙高市,石塚町２丁目４番１号,,15,217,9440011,,,2022-12-14,清算の結了等,,,2015-10-05,1,,,,,マルヤマヨウセツジョ,0
113,1120001026907,登記記録の閉鎖等,0,2022-12-26,2022-12-22,株式会社ヤブシタ商会,,株式会社,大阪府,大阪市此花区,酉島３丁目４番２８号,,27,104,5540051,,,2022-12-22,清算の結了等,,,2015-10-05,1,,,,,ヤブシタショウカイ,0
130,1140002037959,登記記録の閉鎖等,0,2022-12-26,2022-12-19,有限会社アシスト管財,,有限会社,兵庫県,加古川市,米田町平津３８番地の１０,,28,210,6750054,,,2022-12-19,清算の結了等,,,2015-10-05,1,,,,,アシストカンザイ,0
147,1190001016884,登記記録の閉鎖等,0,2022-12-26,2022-12-09,株式会社三富テクノ,,株式会社,三重県,四日市市,三ツ谷町１３番３号,,24,202,5100802,,,2022-12-09,清算の結了等,,,2015-10-05,1,,,,,ミトミテクノ,0
149,1200002004829,登記記録の閉鎖等,0,2022-12-26,2022-12-23,有限会社モードスマイル,,有限会社,岐阜県,岐阜市,問屋町４丁目１６番地,,21,201,5008845,,,2022-12-23,清算の結了等,,,2015-10-05,1,,,,,モードスマイル,0
154,1210005007423,登記記録の閉鎖等,0,2022-12-26,2022-11-29,天理教定友分教会,,その他の設立登記法人,福井県,越前市,定友町第７号５番地,,18,209,9150231,,,2022-11-29,合併による解散等,7210005008647,令和４年１１月２９日福井県小浜市千種二丁目７番１７号天理教北陸大教会（7210005008647）に合併し解散,2015-10-05,1,,,,,テンリキョウサダトモブンキョウカイ,0
160,1250001012596,登記記録の閉鎖等,0,2022-12-26,2022-12-20,柳井三和観光開発株式会社,,株式会社,山口県,柳井市,南町２丁目３番４３号,,35,212,7420031,,,2022-12-20,合併による解散等,6250002019917,令和４年１２月２０日山口県柳井市中央一丁目９番１１号柳井三和交通株式会社（6250002019917）に合併し解散,2015-10-05,1,,,,,ヤナイサンワカンコウカイハツ,0
180,1330002024302,登記記録の閉鎖等,0,2022-12-26,2022-12-22,有限会社おとずれ,,有限会社,熊本県,宇土市,住吉町８３４番地,,43,211,8690401,,,2022-12-22,清算の結了等,,,2015-10-05,1,,,,,,0
188,1370005005964,登記記録の閉鎖等,0,2022-12-26,2022-12-22,一般社団法人山口喜久二式自然養蜂普及促進協議会,,その他の設立登記法人,東京都,中央区,日本橋茅場町３丁目１０番２号ＳＫＫビル５階,,13,102,1030025,,,2022-12-22,清算の結了等,,,2015-10-05,1,,,,,ヤマグチキクジシキシゼンヨウホウフキュウソクシンキョウギカイ,0
204,1490001002078,登記記録の閉鎖等,0,2022-12-26,2022-12-19,株式会社矢の久,,株式会社,高知県,高知市,はりまや町２丁目５番１９号,,39,201,7800822,,,2022-12-19,清算の結了等,,,2022-07-15,1,,,,,ヤノキュウ,0
212,2010003036708,登記記録の閉鎖等,0,2022-12-26,2022-12-20,合同会社明日の窓,,合同会社,東京都,中央区,築地２丁目１番２－８０４号,,13,102,1040045,,,2022-12-20,清算の結了等,,,2022-01-12,1,,,,,アシタノマド,0
250,2013303003187,登記記録の閉鎖等,0,2022-12-26,2022-12-13,スパナ合同会社,,合同会社,東京都,北区,浮間１丁目１番１４号リムジンビル３１２,,13,117,1150051,,,2022-12-13,清算の結了等,,,2016-03-23,1,,,,,スパナ,0
290,2080101006317,登記記録の閉鎖等,0,2022-12-26,2022-12-23,株式会社ムロフシ,,株式会社,静岡県,駿東郡長泉町,下土狩５９５番地,,22,342,4110943,,,2022-12-23,清算の結了等,,,2015-10-05,1,,,,,ムロフシ,0
291,2080401014936,登記記録の閉鎖等,0,2022-12-26,2022-12-23,株式会社東通,,株式会社,静岡県,菊川市,西方１３４０番地,,22,224,4390037,,,2022-12-23,清算の結了等,,,2015-10-05,1,,,,,,0
294,2080405003415,登記記録の閉鎖等,0,2022-12-26,2022-12-23,医療法人社団細江越川医院,,その他の設立登記法人,静岡県,浜松市北区,細江町気賀９７２番地,,22,135,4311305,,,2022-12-23,清算の結了等,,,2015-10-05,1,,,,,ホソエコシカワイイン,0
297,2110001019200,登記記録の閉鎖等,0,2022-12-26,2022-12-21,高倉商事株式会社,00070372,株式会社,新潟県,上越市,東本町１丁目１番１号,,15,222,9430825,,,2022-12-21,清算の結了等,,,2015-10-05,1,,,,,,0
298,2110002005554,登記記録の閉鎖等,0,2022-12-26,2022-12-21,有限会社平間経営計算センター,,有限会社,新潟県,新潟市中央区,上大川前通６番町１１８０番地１,,15,103,9518068,,,2022-12-21,清算の結了等,,,2015-10-05,1,,,,,ヒラマケイエイケイサンセンター,0
300,2110005015633,登記記録の閉鎖等,0,2022-12-26,2022-12-20,一般社団法人コジマ,,その他の設立登記法人,新潟県,新潟市中央区,女池４丁目３３番１５号,,15,103,9500941,,,2022-12-20,清算の結了等,,,2015-10-05,1,,,,,コジマ,0
329,2180002066020,登記記録の閉鎖等,0,2022-12-26,2022-12-20,有限会社サカグチ精工,,有限会社,愛知県,春日井市,中切町８８番地の２,,23,206,4860925,,,2022-12-20,清算の結了等,,,2015-10-05,1,,,,,サカグチセイコウ,0
330,2180002082463,登記記録の閉鎖等,0,2022-12-26,2022-12-22,有限会社大八,,有限会社,愛知県,岩倉市,大市場町郷廻１３９番地,,23,228,4820002,,,2022-12-22,清算の結了等,,,2015-10-05,1,,,,,ダイハチ,0
336,2190002008459,登記記録の閉鎖等,0,2022-12-26,2022-12-22,有限会社岡村水道,,有限会社,三重県,伊勢市,二俣１丁目３番１４号,,24,203,5160064,,,2022-12-22,清算の結了等,,,2015-10-05,1,,,,,オカムラスイドウ,0
341,2200001022021,登記記録の閉鎖等,0,2022-12-26,2022-12-23,杉江製陶株式会社,,株式会社,岐阜県,多治見市,笠原町９５２番地の１,,21,204,5070901,,,2022-12-23,清算の結了等,,,2015-10-05,1,,,,,スギエセイトウ,0
343,2200002011832,登記記録の閉鎖等,0,2022-12-26,2022-12-26,有限会社リコースミガマＰＲＯＤＵＣＴ,,有限会社,岐阜県,羽島市,正木町曲利９８３番地,,21,209,5016227,,,2022-12-26,清算の結了等,,,2015-10-05,1,,,,,リコースミガマプロダクト,0
346,2210002001592,登記記録の閉鎖等,0,2022-12-26,2022-12-21,有限会社三和住設,,有限会社,福井県,福井市,渡町４１５番地１,,18,201,9188066,,,2022-12-21,清算の結了等,,,2015-10-05,1,,,,,,0
362,2330001005277,登記記録の閉鎖等,0,2022-12-26,2022-12-22,株式会社ユーロヒュース,,株式会社,熊本県,熊本市東区,花立５丁目４番７８号,,43,102,8620918,,,2022-12-22,清算の結了等,,,2015-10-05,1,,,,,ユーロヒュース,0
363,2330001006845,登記記録の閉鎖等,0,2022-12-26,2022-12-23,株式会社グレイト・ワーク,,株式会社,熊本県,熊本市中央区,水前寺３丁目５番２０－１００２号,,43,101,8620950,,,2022-12-23,清算の結了等,,,2015-10-05,1,,,,,グレイトワーク,0
375,2390001016764,登記記録の閉鎖等,0,2022-12-26,2022-12-15,五十鈴建材株式会社,,株式会社,山形県,長井市,寺泉３０７１番地,,06,209,9930061,,,2022-12-15,清算の結了等,,,2022-02-07,1,,,,,イスズケンザイ,0
378,2420002007247,登記記録の閉鎖等,0,2022-12-26,2022-12-22,有限会社島田フーズ,,有限会社,青森県,八戸市,長者２丁目１番９号,,02,203,0310021,,,2022-12-22,清算の結了等,,,2015-10-05,1,,,,,シマダフーズ,0
385,2450001009381,登記記録の閉鎖等,0,2022-12-26,2022-12-23,株式会社カネ万目時商店,,株式会社,北海道,紋別市,港町１丁目３番１２号,,01,219,0940011,,,2022-12-23,清算の結了等,,,2015-10-05,1,,,,,カネマンメドキショウテン,0
390,2500002023830,登記記録の閉鎖等,0,2022-12-26,2022-12-22,朋洋水産有限会社,,有限会社,愛媛県,南宇和郡愛南町,家串１１２１番地,,38,506,7983705,,,2022-12-22,清算の結了等,,,2015-10-05,1,,,,,ホウヨウスイサン,0
430,3011801004581,登記記録の閉鎖等,0,2022-12-26,2022-12-22,丸越商事株式会社,,株式会社,東京都,葛飾区,新小岩１丁目４３番７号,,13,122,1240024,,,2022-12-22,清算の結了等,,,2015-10-05,1,,,,,マルコシショウジ,0
445,3020003016063,登記記録の閉鎖等,0,2022-12-26,2022-12-22,合同会社双葉,,合同会社,神奈川県,川崎市宮前区,南野川２丁目２－１７稲荷坂ハイツ２０３,,14,136,2160042,,,2022-12-22,清算の結了等,,,2019-05-20,1,,,,,フタバ,0
447,3021001002237,登記記録の閉鎖等,0,2022-12-26,2022-12-21,株式会社メディアジャパン,,株式会社,神奈川県,藤沢市,湘南台１丁目１６番８号,,14,205,2520804,,,2022-12-21,清算の結了等,,,2015-10-05,1,,,,,メディアジャパン,0
448,3021001071208,登記記録の閉鎖等,0,2022-12-26,2022-12-20,株式会社Ｅ－Ａｂｉｌｉｔｙ,,株式会社,神奈川県,厚木市,森の里３丁目１２番３－５０１号,,14,212,2430122,,,2022-12-20,清算の結了等,,,2020-10-29,1,,,,,イーアビリティ,0
473,3050001045961,登記記録の閉鎖等,0,2022-12-26,2022-12-22,株式会社明佑,,株式会社,茨城県,小美玉市,羽鳥２７１８番地５３,,08,236,3190123,,,2022-12-22,清算の結了等,,,2019-05-13,1,,,,,メイユウ,0
480,3070002010649,登記記録の閉鎖等,0,2022-12-26,2022-12-21,有限会社双鈴舎,,有限会社,群馬県,高崎市,江木町１１０３番地１２,,10,202,3700046,,,2022-12-21,清算の結了等,,,2015-10-05,1,,,,,ソウリンシャ,0
487,3110001015735,登記記録の閉鎖等,0,2022-12-26,2022-12-22,株式会社池田鋼材店,,株式会社,新潟県,燕市,小関６６３番地,,15,213,9591286,,,2022-12-22,清算の結了等,,,2015-10-05,1,,,,,イケダコウザイテン,0
490,3120001159589,登記記録の閉鎖等,0,2022-12-26,2022-12-23,株式会社ＭＭＪフーズ,,株式会社,大阪府,門真市,柳田町６番３４号,,27,223,5710038,,,2022-12-23,清算の結了等,,,2015-10-05,1,,,,,エムエムジェイフーズ,0
495,3120002079324,登記記録の閉鎖等,0,2022-12-26,2022-12-23,有限会社井上製作所,,有限会社,大阪府,門真市,三ツ島５丁目２３番１６号,,27,223,5710015,,,2022-12-23,清算の結了等,,,2015-10-05,1,,,,,イノウエセイサクショ,0
506,3130001017498,登記記録の閉鎖等,0,2022-12-26,2022-12-20,ジェイ・アイ・シー株式会社,,株式会社,京都府,京都市下京区,五条通堀川上ル小泉町１０１番地,,26,106,6000000,,,2022-12-20,清算の結了等,,,2015-10-05,1,,,,,ジェイアイシー,0
530,3180001147571,登記記録の閉鎖等,0,2022-12-26,2022-12-08,株式会社アンジー,,株式会社,愛知県,名古屋市中区,平和２丁目１４番１８号,,23,106,4600021,,,2022-12-08,清算の結了等,,,2021-08-27,1,,,,,アンジー,0
544,3210001017820,登記記録の閉鎖等,0,2022-12-26,2022-12-22,株式会社ＦＢＡ,,株式会社,福井県,福井市,西開発４丁目６１１番地,,18,201,9100843,,,2022-12-22,清算の結了等,,,2019-12-12,1,,,,,エフビーエー,0
545,3210005007413,登記記録の閉鎖等,0,2022-12-26,2022-11-29,天理教武生分教会,,その他の設立登記法人,福井県,越前市,神明町１番６号,,18,209,9150066,,,2022-11-29,合併による解散等,7210005008647,令和４年１１月２９日福井県小浜市千種二丁目７番１７号天理教北陸大教会（7210005008647）に合併し解散,2015-10-05,1,,,,,テンリキョウタケフブンキョウカイ,0
547,3210005008642,登記記録の閉鎖等,0,2022-12-26,2022-11-29,天理教若丹分教会,,その他の設立登記法人,福井県,小浜市,金屋第４５号２番地,,18,204,9170242,,,2022-11-29,合併による解散等,7210005008647,令和４年１１月２９日福井県小浜市千種二丁目７番１７号天理教北陸大教会（7210005008647）に合併し解散,2015-10-05,1,,,,,テンリキョウジャクタンブンキョウカイ,0
548,3230002011548,登記記録の閉鎖等,0,2022-12-26,2022-12-20,高岡丸二有限会社,,有限会社,富山県,高岡市,扇町１丁目１番２９号,,16,202,9330846,,,2022-12-20,清算の結了等,,,2015-10-05,1,,,,,タカオカマルニ,0
553,3260001011728,登記記録の閉鎖等,0,2022-12-26,2022-12-23,サイドマウンテントレーディング株式会社,,株式会社,岡山県,岡山市南区,藤田４７０番地５,,33,104,7010221,,,2022-12-23,清算の結了等,,,2015-10-05,1,,,,,,0
564,3300003001185,登記記録の閉鎖等,0,2022-12-26,2022-12-22,合同会社Ｓｐｅｃ,,合同会社,佐賀県,三養基郡上峰町,大字前牟田２０１番地,,41,345,8490122,,,2022-12-22,清算の結了等,,,2016-05-13,1,,,,,,0
574,3350002007245,登記記録の閉鎖等,0,2022-12-26,2022-12-21,有限会社吉野林業,,有限会社,宮崎県,東諸県郡国富町,大字深年４３４６番地１１,,45,382,8801224,,,2022-12-21,清算の結了等,,,2015-10-05,1,,,,,ヨシノリンギョウ,0
587,3370102001724,登記記録の閉鎖等,0,2022-12-26,2022-12-21,有限会社西野牧場,,有限会社,千葉県,君津市,山滝野１１２２番地,,12,225,2920501,,,2022-12-21,清算の結了等,,,2015-10-05,1,,,,,ニシノボクジョウ,0
589,3380001000223,登記記録の閉鎖等,0,2022-12-26,2022-12-21,株式会社エス・ピー・エス,,株式会社,福島県,福島市,太平寺字過吹２４番地の１,,07,201,9608151,,,2022-12-21,清算の結了等,,,2015-10-05,1,,,,,エスピーエス,0
596,3420001016289,登記記録の閉鎖等,0,2022-12-26,2022-12-16,株式会社大市産商,,株式会社,青森県,むつ市,大曲２丁目１４番２５号,,02,208,0350042,,,2022-12-16,清算の結了等,,,2018-08-08,1,,,,,ダイイチサンショウ,0
597,3430001051723,登記記録の閉鎖等,0,2022-12-26,2022-12-21,株式会社倶知安そうご電器,,株式会社,北海道,虻田郡倶知安町,南三条西２丁目１２番地４,,01,400,0440033,,,2022-12-21,清算の結了等,,,2015-10-05,1,,,,,クッチャンソウゴデンキ,0
604,4010001125361,登記記録の閉鎖等,0,2022-12-26,2022-12-23,株式会社マース,,株式会社,東京都,台東区,西浅草２丁目１３番１１号,,13,106,1110035,,,2022-12-23,清算の結了等,,,2015-10-05,1,,,,,マース,0
607,4010001228065,登記記録の閉鎖等,0,2022-12-26,2022-12-20,アクショナル株式会社,,株式会社,東京都,中央区,日本橋茅場町２丁目９番８号,,13,102,1030025,,,2022-12-20,清算の結了等,,,2022-07-12,1,,,,,アクショナル,0
633,4010602028863,登記記録の閉鎖等,0,2022-12-26,2022-12-16,楓岡ばね工業有限会社,,有限会社,東京都,墨田区,立花５丁目９番５号,,13,107,1310043,,,2022-12-16,清算の結了等,,,2015-10-05,1,,,,,カエデオカバネコウギョウ,0
642,4011001004737,登記記録の閉鎖等,0,2022-12-26,2022-12-16,オーシャンランデイック株式会社,,株式会社,東京都,渋谷区,東３丁目１５番７号,,13,113,1500011,,,2022-12-16,清算の結了等,,,2015-10-05,1,,,,,オーシャンランディック,0
658,4011203001961,登記記録の閉鎖等,0,2022-12-26,2022-12-14,フォージャパン合同会社,,合同会社,東京都,港区,浜松町２丁目２番１５号浜松町ダイヤビル２Ｆ,,13,103,1050013,,,2022-12-14,清算の結了等,,,2015-10-05,1,,,,,フォージャパン,0
677,4013301037061,登記記録の閉鎖等,0,2022-12-26,2022-12-23,株式会社ウージュ,,株式会社,東京都,豊島区,東池袋１丁目４４番２号,,13,116,1700013,,,2022-12-23,清算の結了等,,,2015-10-05,1,,,,,ウージュ,0
696,4030002071974,登記記録の閉鎖等,0,2022-12-26,2022-12-22,アサヒ繊維工業有限会社,,有限会社,埼玉県,越谷市,大字下間久里４９３番地３６,,11,222,3430045,,,2022-12-22,清算の結了等,,,2015-10-05,1,,,,,アサヒセンイコウギョウ,0
697,4030002074366,登記記録の閉鎖等,0,2022-12-26,2022-12-21,有限会社トミオカ靴店,,有限会社,埼玉県,川越市,連雀町１６番地７,,11,201,3500066,,,2022-12-21,清算の結了等,,,2015-10-05,1,,,,,トミオカクツテン,0
698,4030002080967,登記記録の閉鎖等,0,2022-12-26,2022-12-20,宮原新聞販売有限会社,,有限会社,埼玉県,本庄市,中央３丁目２番１号,,11,211,3670053,,,2022-12-20,清算の結了等,,,2015-10-05,1,,,,,ミヤハラシンブンハンバイ,0
702,4030003016870,登記記録の閉鎖等,0,2022-12-26,2022-12-20,合同会社ｔｏｐ－ｎｏｔｃｈ,,合同会社,埼玉県,熊谷市,肥塚２丁目５番２５号,,11,202,3600015,,,2022-12-20,清算の結了等,,,2021-03-17,1,,,,,トップノッチ,0
718,4070005003153,登記記録の閉鎖等,0,2022-12-26,2022-12-05,三宝荒神社,00026056,その他の設立登記法人,群馬県,安中市,松井田町入山字上ノ山７７１番地,,10,211,3790305,,,2022-12-05,合併による解散等,6070005003127,令和４年１１月２４日群馬県安中市松井田町入山１７０番地諏訪神社（6070005003127）に合併し解散,2015-10-05,1,,,,,サンポウコウジンシャ,0
722,4090001007957,登記記録の閉鎖等,0,2022-12-26,2022-12-20,タカヤマ株式会社,,株式会社,山梨県,大月市,御太刀１丁目１４番１号,,19,206,4010012,,,2022-12-20,清算の結了等,,,2015-10-05,1,,,,,タカヤマ,0
725,4110001005818,登記記録の閉鎖等,0,2022-12-26,2022-12-21,株式会社若木印刷所,,株式会社,新潟県,新潟市東区,山木戸８丁目１０番６号,,15,102,9500871,,,2022-12-21,清算の結了等,,,2015-10-05,1,,,,,ワカキインサツショ,0
737,4120002069836,登記記録の閉鎖等,0,2022-12-26,2022-12-21,有限会社コンセントレクス,,有限会社,大阪府,大阪市淀川区,西中島１丁目１１番２３号ユニティ９０１号,,27,123,5320011,,,2022-12-21,清算の結了等,,,2015-10-05,1,,,,,コンセントレクス,0
741,4120101047899,登記記録の閉鎖等,0,2022-12-26,2022-12-23,匠不動産管理株式会社,,株式会社,大阪府,和泉市,のぞみ野１丁目２番３６－５０３号,,27,219,5941105,,,2022-12-23,清算の結了等,,,2015-10-05,1,,,,,タクミフドウサンカンリ,0
775,4220005003138,登記記録の閉鎖等,0,2022-12-26,2022-12-22,農事組合法人知気寺営農ワークス,,その他の設立登記法人,石川県,白山市,知気寺町ほ２３番地,,17,210,9202155,,,2022-12-22,清算の結了等,,,2015-10-05,1,,,,,チキジエイノウワークス,0
778,4230002011340,登記記録の閉鎖等,0,2022-12-26,2022-12-22,有限会社鈴木建工,,有限会社,富山県,高岡市,早川１３１番１,,16,202,9330957,,,2022-12-22,清算の結了等,,,2015-10-05,1,,,,,スズキケンコウ,0
779,4240001010458,登記記録の閉鎖等,0,2022-12-26,2022-12-23,株式会社ＳＨ東雲堂,,株式会社,広島県,広島市西区,横川町１丁目１０番１５号,,34,104,7330011,,,2022-12-23,清算の結了等,,,2015-10-05,1,,,,,エスエイチトウウンドウ,0
780,4240001019433,登記記録の閉鎖等,0,2022-12-26,2022-12-22,株式会社コウヤ,,株式会社,広島県,広島市南区,丹那新町１４番１６号,,34,103,7340033,,,2022-12-22,清算の結了等,,,2015-10-05,1,,,,,コウヤ,0
785,4280001003854,登記記録の閉鎖等,0,2022-12-26,2022-12-23,株式会社角建築,,株式会社,島根県,出雲市,鹿園寺町２２６番地２,,32,203,6910075,,,2022-12-23,清算の結了等,,,2015-10-05,1,,,,,スミケンチク,0
798,4360001030659,登記記録の閉鎖等,0,2022-12-26,2022-12-21,株式会社一刻館,,株式会社,沖縄県,那覇市,前島３丁目９番２４号２Ｆ－Ａ,,47,201,9000016,,,2022-12-21,清算の結了等,,,2022-07-06,1,,,,,イッコクカン,0
822,5010001190553,登記記録の閉鎖等,0,2022-12-26,2022-12-20,株式会社Ｌｅａｄｉｎｇ　Ｓｍａｒｔ　Ｓｙｓｔｅｍｓ,,株式会社,東京都,中央区,八丁堀４丁目１１－１０第２Ｓ．Ｓビル２ＦＡ室,,13,102,1040032,,,2022-12-20,清算の結了等,,,2018-04-02,1,,,,,リーディングスマートシステムズ,0
834,5010401015368,登記記録の閉鎖等,0,2022-12-26,2022-12-15,鈴木縫製株式会社,,株式会社,東京都,港区,赤坂９丁目５番２６号,,13,103,1070052,,,2022-12-15,清算の結了等,,,2015-10-05,1,,,,,スズキホウセイ,0
838,5010401142880,登記記録の閉鎖等,0,2022-12-26,2022-12-15,Ｉｎｎｏｔｅｃｈ　Ｊａｐａｎ株式会社,,株式会社,東京都,港区,北青山２丁目７番２６号Ｌａｎｄｗｏｒｋ青山２階,,13,103,1070061,,,2022-12-15,清算の結了等,,,2018-12-28,1,,,,,イノテックジャパン,0
839,5010401143078,登記記録の閉鎖等,0,2022-12-26,2022-12-15,Ｅｖｏｌｉｓ　Ｊａｐａｎ株式会社,,株式会社,東京都,港区,赤坂２丁目１１番７号ＡＴＴ新館１１階Ｍａｚａｒｓ・Ｊａｐａｎ株式会社内,,13,103,1070052,,,2022-12-15,清算の結了等,,,2019-01-11,1,,,,,エボリスジャパン,0
850,5010501043707,登記記録の閉鎖等,0,2022-12-26,2022-12-22,株式会社ストーリープレイス,,株式会社,東京都,台東区,谷中３丁目１２番１号,,13,106,1100001,,,2022-12-22,清算の結了等,,,2019-02-20,1,,,,,ストーリープレイス,0
852,5010502021133,登記記録の閉鎖等,0,2022-12-26,2022-12-21,有限会社海老澤箔押所,,有限会社,東京都,台東区,小島１丁目１２番１０号,,13,106,1110056,,,2022-12-21,清算の結了等,,,2015-10-05,1,,,,,エビサワオシハクジョ,0
855,5010602013996,登記記録の閉鎖等,0,2022-12-26,2022-12-16,有限会社高橋工業所,,有限会社,東京都,墨田区,立花３丁目１０番１７号,,13,107,1310043,,,2022-12-16,清算の結了等,,,2015-10-05,1,,,,,,0
868,5011101036670,登記記録の閉鎖等,0,2022-12-26,2022-12-16,株式会社パルアクティブ,,株式会社,東京都,新宿区,大京町２０番地３,,13,104,1600015,,,2022-12-16,清算の結了等,,,2015-10-05,1,,,,,パルアクティブ,0
878,5011105009284,登記記録の閉鎖等,0,2022-12-26,2022-12-22,ブルーホールディングス５一般社団法人,,その他の設立登記法人,東京都,新宿区,四谷２丁目９番地１５東京ユナイテッド綜合事務所内,,13,104,1600004,,,2022-12-22,清算の結了等,,,2020-03-09,1,,,,,ブルーホールディングスファイブ,0
888,5012401038159,登記記録の閉鎖等,0,2022-12-26,2022-12-21,株式会社ヤスダ不動産,,株式会社,東京都,調布市,柴崎２丁目３０番地１０,,13,208,1820014,,,2022-12-21,清算の結了等,,,2021-08-10,1,,,,,ヤスダフドウサン,0
901,5020002073186,登記記録の閉鎖等,0,2022-12-26,2022-12-21,有限会社正英工業,,有限会社,神奈川県,横浜市戸塚区,戸塚町７１９番地２２,,14,110,2440003,,,2022-12-21,清算の結了等,,,2015-10-05,1,,,,,ショウエイコウギョウ,0
909,5021003007694,登記記録の閉鎖等,0,2022-12-26,2022-12-20,ひらき合同会社,,合同会社,神奈川県,鎌倉市,大町２丁目１３番２６号,,14,204,2480007,,,2022-12-20,清算の結了等,,,2018-08-06,1,,,,,ヒラキ,0
917,5030002080090,登記記録の閉鎖等,0,2022-12-26,2022-12-21,株式会社大藤,,株式会社,埼玉県,川越市,大字池辺３８０番地９,,11,201,3501171,,,2022-12-21,清算の結了等,,,2015-10-05,1,,,,,ダイトウ,0
939,5080002000325,登記記録の閉鎖等,0,2022-12-26,2022-12-23,有限会社アプレイズメント,,有限会社,静岡県,静岡市葵区,吉野町７番１２号,,22,101,4200046,,,2022-12-23,清算の結了等,,,2015-10-05,1,,,,,アプレイズメント,0
942,5080401014966,登記記録の閉鎖等,0,2022-12-26,2022-12-23,株式会社ヤマト,,株式会社,静岡県,菊川市,西方１３４０番地,,22,224,4390037,,,2022-12-23,清算の結了等,,,2015-10-05,1,,,,,,0
951,5110001014140,登記記録の閉鎖等,0,2022-12-26,2022-12-21,株式会社坂爪鉄店,,株式会社,新潟県,三条市,荻島２０５０番地５,,15,204,9550097,,,2022-12-21,清算の結了等,,,2015-10-05,1,,,,,サカヅメテツテン,0
952,5110002002631,登記記録の閉鎖等,0,2022-12-26,2022-12-22,有限会社斎藤測量事務所,,有限会社,新潟県,新潟市中央区,鳥屋野１丁目３番５３号,,15,103,9500951,,,2022-12-22,清算の結了等,,,2015-10-05,1,,,,,サイトウソクリョウジムショ,0
959,5120001231387,登記記録の閉鎖等,0,2022-12-26,2022-12-20,富力輝日本株式会社,,株式会社,大阪府,大阪市西成区,千本南１丁目１７番２１号１０２－Ａ室,,27,122,5570055,,,2022-12-20,清算の結了等,,,2020-09-10,1,,,,,フリキニホン,0
967,5140001033187,登記記録の閉鎖等,0,2022-12-26,2022-12-21,株式会社プリズム,,株式会社,兵庫県,神戸市中央区,磯上通８丁目１番２９号カサベラビルＣ＆Ｍ４０３号室,,28,110,6510086,,,2022-12-21,清算の結了等,,,2015-10-05,1,,,,,プリズム,0
971,5140002042699,登記記録の閉鎖等,0,2022-12-26,2022-12-21,有限会社マルミ,,有限会社,兵庫県,尼崎市,昭和通２丁目９番２４号,,28,202,6600881,,,2022-12-21,清算の結了等,,,2015-10-05,1,,,,,マルミ,0
977,5160002006446,登記記録の閉鎖等,0,2022-12-26,2022-12-22,有限会社草野酒店,,有限会社,滋賀県,長浜市,神前町３番１７号,,25,203,5260052,,,2022-12-22,清算の結了等,,,2015-10-05,1,,,,,クサノサケテン,0
978,5160005007482,登記記録の閉鎖等,0,2022-12-26,2022-12-22,新旭駅西ショッピングセンター協同組合,,その他の設立登記法人,滋賀県,高島市,新旭町旭１丁目８番地５,,25,212,5201501,,,2022-12-22,清算の結了等,,,2015-10-05,1,,,,,シンアサヒエキニシショッピングセンター,0
981,5180001097724,登記記録の閉鎖等,0,2022-12-26,2022-12-21,シーサーホールディングス株式会社,,株式会社,愛知県,弥富市,狐地２丁目１２番地,,23,235,4980051,,,2022-12-21,清算の結了等,,,2015-10-05,1,,,,,シーサーホールディングス,0
986,5180001135756,登記記録の閉鎖等,0,2022-12-26,2022-12-15,株式会社Ｊ・プロテクト,,株式会社,愛知県,名古屋市中区,金山３丁目１５番１７号－１００３号,,23,106,4600022,,,2022-12-15,清算の結了等,,,2019-03-15,1,,,,,ジェイプロテクト,0
989,5180002039312,登記記録の閉鎖等,0,2022-12-26,2022-12-21,有限会社リブ・ライフ,,有限会社,愛知県,名古屋市緑区,大高町字鷲津山８１番地の３,,23,114,4598001,,,2022-12-21,清算の結了等,,,2015-10-05,1,,,,,リブライフ,0
991,5180002076438,登記記録の閉鎖等,0,2022-12-26,2022-12-20,有限会社桜ニット,,有限会社,愛知県,一宮市,西萩原１８８０番地２,,23,203,4940011,,,2022-12-20,清算の結了等,,,2015-10-05,1,,,,,サクラニット,0
994,5180301018272,登記記録の閉鎖等,0,2022-12-26,2022-12-21,株式会社紺屋,,株式会社,愛知県,豊田市,千足町６丁目３０番地,,23,211,4710847,,,2022-12-21,清算の結了等,,,2015-10-05,1,,,,,コンヤ,0
1006,5210001015070,登記記録の閉鎖等,0,2022-12-26,2022-12-22,ＴＡＤ株式会社,,株式会社,福井県,福井市,新田塚１丁目４０番２０号,,18,201,9100067,,,2022-12-22,清算の結了等,,,2015-10-05,1,,,,,タッド,0
1019,5240002033135,登記記録の閉鎖等,0,2022-12-26,2022-12-19,有限会社末岡塗装,,有限会社,広島県,呉市,吉浦新出町１４番７号,,34,202,7370851,,,2022-12-19,清算の結了等,,,2015-10-05,1,,,,,スエオカトソウ,0
1026,5290005001332,登記記録の閉鎖等,0,2022-12-26,2022-12-21,社会福祉法人恵峰会,,その他の設立登記法人,福岡県,福岡市早良区,野芥１丁目１６番３１号,,40,137,8140171,,,2022-12-21,清算の結了等,,,2015-10-05,1,,,,,ケイホウカイ,0
1035,5350002013308,登記記録の閉鎖等,0,2022-12-26,2022-12-19,有限会社高千穂開発,,有限会社,宮崎県,西臼杵郡高千穂町,大字下野１２６５番地１,,45,441,8821412,,,2022-12-19,清算の結了等,,,2015-10-05,1,,,,,タカチホカイハツ,0
1041,5380002002976,登記記録の閉鎖等,0,2022-12-26,2022-12-20,有限会社福酸ガス販売,,有限会社,福島県,福島市,笹木野字天竺田８番地の１,,07,201,9608057,,,2022-12-20,清算の結了等,,,2015-10-05,1,,,,,フクサンガスハンバイ,0
1050,5410001002684,登記記録の閉鎖等,0,2022-12-26,2022-12-21,株式会社両関屋酒店,,株式会社,秋田県,秋田市,川元松丘町６番２６号,,05,201,0100933,,,2022-12-21,清算の結了等,,,2015-10-05,1,,,,,リョウゼキヤシュテン,0
1059,5450002010699,登記記録の閉鎖等,0,2022-12-26,2022-12-22,道北メナード販売有限会社,,有限会社,北海道,枝幸郡枝幸町,梅ヶ枝町３５０番地,,01,514,0985806,,,2022-12-22,清算の結了等,,,2015-10-05,1,,,,,ドウホクメナードハンバイ,0
1060,5470001019368,登記記録の閉鎖等,0,2022-12-26,2022-12-23,十全建設株式会社,,株式会社,香川県,高松市,今里町２丁目４０番地７,,37,201,7600078,,,2022-12-23,清算の結了等,,,2022-12-14,1,,,,,,0
1062,5500001014456,登記記録の閉鎖等,0,2022-12-26,2022-12-20,株式会社星川工務店,,株式会社,愛媛県,四国中央市,寒川町３１４６番地,,38,213,7990431,,,2022-12-20,清算の結了等,,,2015-10-05,1,,,,,ホシカワコウムテン,0
1063,5500002009876,登記記録の閉鎖等,0,2022-12-26,2022-12-23,有限会社介護センター幸寿,,有限会社,愛媛県,松山市,東方町甲１２９０番地,,38,201,7911123,,,2022-12-23,清算の結了等,,,2015-10-05,1,,,,,カイゴセンターコウジュ,0
1093,6010501045818,登記記録の閉鎖等,0,2022-12-26,2022-12-12,森進堂株式会社,,株式会社,東京都,台東区,松が谷２丁目１５番８号,,13,106,1110036,,,2022-12-12,清算の結了等,,,2020-06-09,1,,,,,モリシンドウ,0
1096,6010602007444,登記記録の閉鎖等,0,2022-12-26,2022-12-19,有限会社ふくや,,有限会社,東京都,江東区,大島６丁目２５番７号,,13,108,1360072,,,2022-12-19,清算の結了等,,,2015-10-05,1,,,,,フクヤ,0
1098,6010605003812,登記記録の閉鎖等,0,2022-12-26,2022-12-15,ジーナイン・ジャパン・イレブン特定目的会社,,その他の設立登記法人,東京都,江東区,亀戸６丁目５６番１５号,,13,108,1360071,,,2022-12-15,清算の結了等,,,2020-03-23,1,,,,,ジーナインジャパンイレブン,0
1100,6010702002444,登記記録の閉鎖等,0,2022-12-26,2022-12-23,協和工業有限会社,,有限会社,東京都,品川区,西大井１丁目７番１号,,13,109,1400015,,,2022-12-23,清算の結了等,,,2015-10-05,1,,,,,キョウワコウギョウ,0
1104,6011001100360,登記記録の閉鎖等,0,2022-12-26,2022-12-23,プラネット・テーブル株式会社,,株式会社,東京都,品川区,東品川４丁目１３番３４号,,13,109,1400002,,,2022-12-23,清算の結了等,,,2015-10-05,1,,,,,プラネットテーブル,0
1120,6011602023596,登記記録の閉鎖等,0,2022-12-26,2022-12-20,有限会社富吉,,有限会社,東京都,練馬区,桜台５丁目４５番２７号,,13,120,1760002,,,2022-12-20,清算の結了等,,,2015-10-05,1,,,,,トミヨシ,0
1149,6030002028717,登記記録の閉鎖等,0,2022-12-26,2022-12-22,有限会社ガーデニングアイ,,有限会社,埼玉県,所沢市,大字久米２０５７番地,,11,208,3591131,,,2022-12-22,清算の結了等,,,2015-10-05,1,,,,,ガーデニングアイ,0
1158,6040002029227,登記記録の閉鎖等,0,2022-12-26,2022-12-19,有限会社相良工務店,,有限会社,千葉県,八千代市,島田台９８９番地２,,12,221,2760004,,,2022-12-19,清算の結了等,,,2015-10-05,1,,,,,サガラコウムテン,0
1165,6080001008888,登記記録の閉鎖等,0,2022-12-26,2022-12-22,株式会社日東建商,,株式会社,静岡県,静岡市清水区,木の下町２７６番地,,22,103,4240846,,,2022-12-22,清算の結了等,,,2015-10-05,1,,,,,ニットウケンショウ,0
1192,6140001044530,登記記録の閉鎖等,0,2022-12-26,2022-12-21,コウベパンチング株式会社,,株式会社,兵庫県,加古郡稲美町,六分一１３５４番地の１８,,28,381,6751112,,,2022-12-21,清算の結了等,,,2015-10-05,1,,,,,コウベパンチング,0
1199,6150002006058,登記記録の閉鎖等,0,2022-12-26,2022-12-13,有限会社万葉,,有限会社,奈良県,奈良市,富雄北３丁目１９番８号,,29,201,6310076,,,2022-12-13,清算の結了等,,,2015-10-05,1,,,,,マンヨウ,0
1205,6180001102929,登記記録の閉鎖等,0,2022-12-26,2022-12-21,株式会社クオリティライフ,,株式会社,愛知県,名古屋市北区,光音寺町字野方１９０７番地の２０５,,23,103,4620053,,,2022-12-21,清算の結了等,,,2015-10-05,1,,,,,クオリティライフ,0
1213,6190002012309,登記記録の閉鎖等,0,2022-12-26,2022-12-22,有限会社廣塚鉄工,,有限会社,三重県,伊賀市,猿野８４８番地,,24,216,5181414,,,2022-12-22,清算の結了等,,,2015-10-05,1,,,,,ヒロツカテッコウ,0
1230,6260001016468,登記記録の閉鎖等,0,2022-12-26,2022-12-23,株式会社西日本ケアシステム,,株式会社,岡山県,倉敷市,大島４８０番地,,33,202,7100047,,,2022-12-23,清算の結了等,,,2015-10-05,1,,,,,ニシニホンケアシステム,0
1232,6260002010800,登記記録の閉鎖等,0,2022-12-26,2022-12-23,有限会社ラピーヌ,,有限会社,岡山県,岡山市南区,泉田１丁目１０番１８－７号,,33,104,7000944,,,2022-12-23,清算の結了等,,,2015-10-05,1,,,,,ラピーヌ,0
1257,6380002011893,登記記録の閉鎖等,0,2022-12-26,2022-12-19,有限会社ふじ旅館,,有限会社,福島県,郡山市,池ノ台１３番５号,,07,203,9638875,,,2022-12-19,清算の結了等,,,2015-10-05,1,,,,,フジリョカン,0
1269,6440001005139,登記記録の閉鎖等,0,2022-12-26,2022-12-22,株式会社ＭＹ企画,,株式会社,東京都,東久留米市,本町１丁目１３番１号コンフォール東久留米７１０号,,13,222,2030053,,,2022-12-22,清算の結了等,,,2015-10-05,1,,,,,エムワイキカク,0
1284,7010002029229,登記記録の閉鎖等,0,2022-12-26,2022-12-19,有限会社　サントーエイ,,有限会社,東京都,中央区,日本橋小伝馬町１８番１号,,13,102,1030001,,,2022-12-19,清算の結了等,,,2015-10-05,1,,,,,サントーエイ,0
1293,7010401086449,登記記録の閉鎖等,0,2022-12-26,2022-12-13,株式会社スペクトラム,,株式会社,神奈川県,逗子市,逗子２丁目１１番５－６１０号,,14,208,2490006,,,2022-12-13,清算の結了等,,,2015-10-05,1,,,,,スペクトラム,0
1310,7010701025338,登記記録の閉鎖等,0,2022-12-26,2022-12-22,シーカフェー株式会社,,株式会社,東京都,品川区,南大井６丁目２６番２号大森ベルポートＢ館,,13,109,1400013,,,2022-12-22,清算の結了等,,,2015-10-05,1,,,,,シーカフェー,0
1317,7010802018728,登記記録の閉鎖等,0,2022-12-26,2022-12-16,有限会社ｕｎｄｅｒｇｒｏｕｎｄ　ｐｒｏｊｅｃｔ,,有限会社,東京都,大田区,蒲田４丁目１８番２１号,,13,111,1440052,,,2022-12-16,清算の結了等,,,2015-10-05,1,,,,,アンダーグランドプロジェクト,0
1345,7011701013539,登記記録の閉鎖等,0,2022-12-26,2022-12-20,株式会社和宏インタラクティブ,,株式会社,東京都,千代田区,富士見１丁目３番１１号富士見デュープレックスビズ４階,,13,101,1020071,,,2022-12-20,清算の結了等,,,2015-10-05,1,,,,,ワコウインタラクティブ,0
1347,7011801004438,登記記録の閉鎖等,0,2022-12-26,2022-12-23,ホリー電機工事株式会社,,株式会社,東京都,葛飾区,奥戸８丁目１２番１５号,,13,122,1240022,,,2022-12-23,清算の結了等,,,2015-10-05,1,,,,,ホリーデンキコウジ,0
1358,7020002011870,登記記録の閉鎖等,0,2022-12-26,2022-12-21,有限会社サンケー設備工業,,有限会社,神奈川県,横浜市戸塚区,汲沢４丁目３０番１４号,00010296,14,110,2450061,,,2022-12-21,清算の結了等,,,2015-10-05,1,,,,,サンケーセツビコウギョウ,0
1388,7040001033823,登記記録の閉鎖等,0,2022-12-26,2022-12-20,株式会社ＪＡＰＡＮ　ＥＳＴＡ,,株式会社,千葉県,市川市,大町７７番地６５,,12,203,2720801,,,2022-12-20,清算の結了等,,,2015-10-05,1,,,,,ジャパンエスタ,0
1394,7040001107222,登記記録の閉鎖等,0,2022-12-26,2022-12-21,株式会社悠真,,株式会社,千葉県,大網白里市,北今泉３５２１番地,,12,239,2993201,,,2022-12-21,清算の結了等,,,2018-12-10,1,,,,,ユウシン,0
1403,7050002025240,登記記録の閉鎖等,0,2022-12-26,2022-12-21,有限会社喜久水,,有限会社,茨城県,猿島郡五霞町,大字元栗橋８８７番地１,,08,542,3060313,,,2022-12-21,清算の結了等,,,2015-10-05,1,,,,,キクスイ,0
1412,7080102013506,登記記録の閉鎖等,0,2022-12-26,2022-12-22,有限会社恵比寿屋呉服店,,有限会社,静岡県,富士市,鈴川東町３番６号,,22,210,4170012,,,2022-12-22,清算の結了等,,,2015-10-05,1,,,,,エビスヤゴフクテン,0
1432,7140001035586,登記記録の閉鎖等,0,2022-12-26,2022-12-19,株式会社メイシュ,,株式会社,兵庫県,明石市,新明町１１番２６号,,28,203,6730027,,,2022-12-19,清算の結了等,,,2015-10-05,1,,,,,メイシュ,0
1449,7180002069927,登記記録の閉鎖等,0,2022-12-26,2022-12-23,松ケ枝商事有限会社,,有限会社,愛知県,小牧市,中央１丁目４７０番地,,23,219,4850029,,,2022-12-23,清算の結了等,,,2015-10-05,1,,,,,マツガエショウジ,0
1455,7210001015234,登記記録の閉鎖等,0,2022-12-26,2022-12-21,千鶴株式会社,,株式会社,福井県,福井市,明里町７－１７,,18,201,9188052,,,2022-12-21,清算の結了等,,,2015-10-05,1,,,,,チヅル,0
1462,7240002030634,登記記録の閉鎖等,0,2022-12-26,2022-12-22,有限会社やまなが,,有限会社,広島県,三次市,吉舎町吉舎２８１番地の３,,34,209,7294211,,,2022-12-22,清算の結了等,,,2015-10-05,1,,,,,ヤマナガ,0
1463,7240005014675,登記記録の閉鎖等,0,2022-12-26,2022-12-23,一般社団法人食品物流評議会,,その他の設立登記法人,広島県,東広島市,黒瀬町乃美尾６７６番地１,,34,212,7392622,,,2022-12-23,清算の結了等,,,2018-09-27,1,,,,,ショクヒンブツリュウヒョウギカイ,0
1468,7260005001762,登記記録の閉鎖等,0,2022-12-26,2022-12-22,医療法人一隅会片岡医院,,その他の設立登記法人,岡山県,赤磐市,上市３５５番地４,,33,213,7090817,,,2022-12-22,清算の結了等,,,2015-10-05,1,,,,,イチグウカイカタオカイイン,0
1478,7300002004111,登記記録の閉鎖等,0,2022-12-26,2022-12-22,有限会社セクター,,有限会社,佐賀県,神埼市,神埼町本堀３２０６番地１,,41,210,8420003,,,2022-12-22,清算の結了等,,,2015-10-05,1,,,,,,0
1480,7310001008384,登記記録の閉鎖等,0,2022-12-26,2022-12-22,株式会社エムケイシステム,,株式会社,長崎県,諫早市,真崎町１７２０番地２,,42,204,8540084,,,2022-12-22,清算の結了等,,,2015-10-05,1,,,,,エムケイシステム,0
1486,7330001014199,登記記録の閉鎖等,0,2022-12-26,2022-12-22,株式会社リップスティック,,株式会社,熊本県,八代市,島田町９２３番地１２,,43,202,8660827,,,2022-12-22,清算の結了等,,,2015-10-05,1,,,,,,0
1492,7340002027637,登記記録の閉鎖等,0,2022-12-26,2022-12-21,有限会社岡留屋本店,,有限会社,鹿児島県,志布志市,志布志町志布志１丁目９番２５号,,46,221,8997103,,,2022-12-21,清算の結了等,,,2015-10-05,1,,,,,オカトメヤホンテン,0
1493,7350002017703,登記記録の閉鎖等,0,2022-12-26,2022-12-22,ウネメ不動産有限会社,,有限会社,宮崎県,小林市,真方６７１３番地の１,,45,205,8860007,,,2022-12-22,清算の結了等,,,2015-10-05,1,,,,,ウネメフドウサン,0
1496,7360002001895,登記記録の閉鎖等,0,2022-12-26,2022-12-19,有限会社佐久川建設,,有限会社,沖縄県,那覇市,首里石嶺町４丁目１９８番地,,47,201,9030804,,,2022-12-19,清算の結了等,,,2015-10-05,1,,,,,,0
1500,7360003005383,登記記録の閉鎖等,0,2022-12-26,2022-12-21,ぐすくべグリーン・ツーリズムさるかの会合同会社,,合同会社,沖縄県,宮古島市,城辺字砂川５２５番地１８３,,47,214,9060108,,,2022-12-21,清算の結了等,,,2015-10-05,1,,,,,グスクベグリーンツーリズムサルカノカイ,0
1505,7370201002347,登記記録の閉鎖等,0,2022-12-26,2022-12-23,大新建設株式会社,,株式会社,宮城県,加美郡加美町,字新小路９４番地の８,,04,445,9814335,,,2022-12-23,清算の結了等,,,2015-10-05,1,,,,,ダイシンケンセツ,0
1520,7430003009055,登記記録の閉鎖等,0,2022-12-26,2022-12-19,合同会社Ｒｅａｌｔｙ－Ｃｒｅａｔｅ,,合同会社,北海道,余市郡余市町,富沢町１３丁目３１番地５,,01,408,0460025,,,2022-12-19,合併による解散等,8430001082672,令和４年１２月８日札幌市東区北七条東三丁目１５番地３０株式会社ライフクリエイト（8430001082672）に合併し解散,2018-01-24,1,,,,,リアルティークリエイト,0
1529,7490002002237,登記記録の閉鎖等,0,2022-12-26,2022-12-19,有限会社三宗,,有限会社,高知県,高知市,一宮東町５丁目２１番８号,,39,201,7818132,,,2022-12-19,清算の結了等,,,2022-07-15,1,,,,,サンソウ,0
1550,8010005028581,登記記録の閉鎖等,0,2022-12-26,2022-12-21,一般社団法人日本監修協会,,その他の設立登記法人,東京都,千代田区,有楽町２丁目１０番１号東京交通会館１０階,,13,101,1000006,,,2022-12-21,清算の結了等,,,2018-05-29,1,,,,,ニホンカンシュウキョウカイ,0
1585,8012401012160,登記記録の閉鎖等,0,2022-12-26,2022-12-15,株式会社アップルハウス,,株式会社,東京都,小金井市,梶野町４丁目１１番６号１Ｆ,,13,210,1840002,,,2022-12-15,清算の結了等,,,2015-10-05,1,,,,,アップルハウス,0
1596,8020001093868,登記記録の閉鎖等,0,2022-12-26,2022-12-21,株式会社キーハート,,株式会社,神奈川県,川崎市幸区,南加瀬４丁目３９番７号,,14,132,2120055,,,2022-12-21,清算の結了等,,,2015-10-05,1,,,,,キーハート,0
1618,8030002004939,登記記録の閉鎖等,0,2022-12-26,2022-12-22,小林輸送有限会社,,有限会社,埼玉県,さいたま市南区,鹿手袋３丁目４番６号,,11,108,3360031,,,2022-12-22,清算の結了等,,,2015-10-05,1,,,,,コバヤシユソウ,0
1625,8040002039109,登記記録の閉鎖等,0,2022-12-26,2022-12-20,有限会社同友商事,,有限会社,千葉県,市川市,新田２丁目３１番２６号,,12,203,2720035,,,2022-12-20,清算の結了等,,,2015-10-05,1,,,,,ドウユウショウジ,0
1643,8080402018641,登記記録の閉鎖等,0,2022-12-26,2022-12-23,有限会社サンアグリサークル山武,,有限会社,静岡県,菊川市,西方１２６９番地の２３,,22,224,4390037,,,2022-12-23,清算の結了等,,,2015-10-05,1,,,,,,0
1651,8120001126774,登記記録の閉鎖等,0,2022-12-26,2022-12-22,名和コンサルティング株式会社,,株式会社,大阪府,大阪市北区,梅田１丁目１１番４－１１００号,,27,127,5300001,,,2022-12-22,清算の結了等,,,2015-10-05,1,,,,,ナワコンサルティング,0
1691,8190002006713,登記記録の閉鎖等,0,2022-12-26,2022-12-22,有限会社中央会計センター,,有限会社,三重県,鈴鹿市,西条５丁目９１番地の１,,24,207,5130809,,,2022-12-22,清算の結了等,,,2015-10-05,1,,,,,チュウオウカイケイセンター,0
1697,8210001015324,登記記録の閉鎖等,0,2022-12-26,2022-12-22,株式会社ピーワン,,株式会社,福井県,鯖江市,御幸町１丁目２番３２号,,18,207,9160015,,,2022-12-22,清算の結了等,,,2015-10-05,1,,,,,ピーワン,0
1707,8250001009702,登記記録の閉鎖等,0,2022-12-26,2022-12-21,株式会社ヨシオカ電化センター,,株式会社,山口県,下松市,栄町３丁目３番２０号,,35,207,7440013,,,2022-12-21,清算の結了等,,,2015-10-05,1,,,,,ヨシオカデンカセンター,0
1718,8290005015057,登記記録の閉鎖等,0,2022-12-26,2022-12-20,一般社団法人夢現考房,,その他の設立登記法人,福岡県,福岡市東区,香椎浜３丁目３番４－１６０４号,,40,131,8130016,,,2022-12-20,清算の結了等,,,2015-10-05,1,,,,,ムゲンコウボウ,0
1724,8290805007996,登記記録の閉鎖等,0,2022-12-26,2022-12-16,特定非営利活動法人わつなぎ,,その他の設立登記法人,福岡県,築上郡吉富町,大字幸子３９２番地４,,40,642,8710821,,,2022-12-16,清算の結了等,,,2015-10-05,1,,,,,ワツナギ,0
1727,8320001018497,登記記録の閉鎖等,0,2022-12-26,2022-11-28,株式会社新進学塾,,株式会社,大分県,大分市,大在北３丁目６－１３,,44,201,8700245,,,2022-11-28,清算の結了等,,,2021-07-16,1,,,,,シンシンガクジュク,0
1745,8390001010209,登記記録の閉鎖等,0,2022-12-26,2022-12-16,株式会社ワボー,,株式会社,山形県,米沢市,門東町１丁目１番４８号,,06,202,9920039,,,2022-12-16,清算の結了等,,,2015-10-05,1,,,,,ワボー,0
1750,8400002011897,登記記録の閉鎖等,0,2022-12-26,2022-12-21,有限会社ワイズコーポレーション,,有限会社,岩手県,釜石市,甲子町第１０地割２１４番地５,,03,211,0260055,,,2022-12-21,清算の結了等,,,2015-10-05,1,,,,,ワイズコーポレーション,0
1752,8410001000751,登記記録の閉鎖等,0,2022-12-26,2022-12-21,株式会社エポックコミュニケーションズ,,株式会社,秋田県,秋田市,川尻大川町４番７号,,05,201,0100942,,,2022-12-21,清算の結了等,,,2015-10-05,1,,,,,エポックコミュニケーションズ,0
1756,8430001043360,登記記録の閉鎖等,0,2022-12-26,2022-12-20,Ｍ＆Ｋふじ株式会社,,株式会社,北海道,江別市,元江別本町１３番地４,,01,217,0670041,,,2022-12-20,清算の結了等,,,2015-10-05,1,,,,,エムアンドケーフジ,0
1768,8430005002486,登記記録の閉鎖等,0,2022-12-26,2022-12-22,北海道自動車運送整備事業協同組合,,その他の設立登記法人,北海道,札幌市北区,北九条西３丁目１０番地１,,01,102,0600809,,,2022-12-22,清算の結了等,,,2015-10-05,1,,,,,ホッカイドウジドウシャウンソウセイビジギョウ,0
1775,8500002023156,登記記録の閉鎖等,0,2022-12-26,2022-12-23,丸直水産有限会社,,有限会社,愛媛県,宇和島市,明倫町５丁目４番１８号コーポ城南５号,,38,203,7980068,,,2022-12-23,清算の結了等,,,2015-10-05,1,,,,,マルナオスイサン,0
1781,9010001202841,登記記録の閉鎖等,0,2022-12-26,2022-12-15,株式会社ランドデータバンク,,株式会社,東京都,港区,六本木７丁目１５番７号,,13,103,1060032,,,2022-12-15,合併による解散等,9011401021427,令和４年１２月１５日東京都港区六本木七丁目１５番７号クレジットエンジン株式会社（9011401021427）に合併し解散,2019-07-31,1,,,,,ランドデータバンク,0
1841,9020001089741,登記記録の閉鎖等,0,2022-12-26,2022-12-19,天元株式会社,,株式会社,神奈川県,横浜市中区,寿町１丁目３番地１２,,14,104,2310026,,,2022-12-19,清算の結了等,,,2015-10-05,1,,,,,テンゲン,0
1907,9120002024381,登記記録の閉鎖等,0,2022-12-26,2022-12-15,有限会社山口商店,,有限会社,大阪府,大阪市西淀川区,中島１丁目２１番１９号,,27,113,5550041,,,2022-12-15,清算の結了等,,,2015-10-05,1,,,,,ヤマグチショウテン,0
1909,9120101022823,登記記録の閉鎖等,0,2022-12-26,2022-12-22,株式会社ネクステージ,,株式会社,大阪府,堺市中区,八田寺町４５番地４,,27,142,5998267,,,2022-12-22,清算の結了等,,,2015-10-05,1,,,,,ネクステージ,0
1921,9140001111393,登記記録の閉鎖等,0,2022-12-26,2022-12-19,株式会社明幸興産,,株式会社,兵庫県,姫路市,南町５６番地２階,,28,201,6700912,,,2022-12-19,清算の結了等,,,2018-10-04,1,,,,,メイコウコウサン,0
1939,9180302001463,登記記録の閉鎖等,0,2022-12-26,2022-12-21,有限会社志賀住建,,有限会社,愛知県,岡崎市,中園町字川成９９番地３８,,23,202,4440942,,,2022-12-21,清算の結了等,,,2015-10-05,1,,,,,シガジュウケン,0
1948,9230002004091,登記記録の閉鎖等,0,2022-12-26,2022-12-22,有限会社縄手建築設計,,有限会社,富山県,滑川市,柳原７番地２６,,16,206,9360023,,,2022-12-22,清算の結了等,,,2015-10-05,1,,,,,ナワテケンチクセッケイ,0
1955,9290002024118,登記記録の閉鎖等,0,2022-12-26,2022-12-23,有限会社和温,,有限会社,福岡県,福岡市中央区,天神３丁目１０番３２号,,40,133,8100001,,,2022-12-23,清算の結了等,,,2015-10-05,1,,,,,ワオン,0
1970,9360005002170,登記記録の閉鎖等,0,2022-12-26,2022-12-20,医療法人いちご会,,その他の設立登記法人,沖縄県,うるま市,字宮里２６２番地１８,,47,213,9042243,,,2022-12-20,清算の結了等,,,2015-10-05,1,,,,,イチゴカイ,0
1977,9380001026948,登記記録の閉鎖等,0,2022-12-26,2022-12-15,磐城産業株式会社,,株式会社,福島県,双葉郡楢葉町,大字井出字浄光西１２－４,,07,542,9790603,,,2022-12-15,清算の結了等,,,2016-06-01,1,,,,,イワキサンギョウ,0
1992,9470001007146,登記記録の閉鎖等,0,2022-12-26,2022-12-23,株式会社ＫＩＮＤ,,株式会社,香川県,高松市,太田上町１１７８番地２,,37,201,7618074,,,2022-12-23,清算の結了等,,,2015-10-05,1,,,,,カインド,0
1993,9490001003440,登記記録の閉鎖等,0,2022-12-26,2022-12-19,吉村商事株式会社,,株式会社,高知県,高知市,南久保１３９番地,,39,201,7810087,,,2022-12-19,清算の結了等,,,2022-07-15,1,,,,,ヨシムラショウジ,0
1996,9500002016613,登記記録の閉鎖等,0,2022-12-26,2022-12-22,有限会社曽我部建設,,有限会社,愛媛県,新居浜市,角野新田町２丁目１３番１７号,,38,205,7920844,,,2022-12-22,清算の結了等,,,2015-10-05,1,,,,,ソガベケンセツ,0
