sequenceNumber,corporateNumber,process,correct,updateDate,changeDate,name,nameImageId,kind,prefectureName,cityName,streetNumber,addressImageId,prefectureCode,cityCode,postCode,addressOutside,addressOutsideImageId,closeDate,closeCause,successorCorporateNumber,changeCause,assignmentDate,latest,enName,enPrefectureName,enCityName,enAddressOutside,furigana,hihyoji
5,1010001137830,登記記録の閉鎖等,0,2024-12-04,2024-11-27,マーケットシェア株式会社,,株式会社,東京都,新宿区,西新宿３丁目３番１３号西新宿水間ビル６Ｆ,,13,104,1600023,,,2024-11-27,清算の結了等,,,2015-10-05,1,,,,,マーケットシェア,0
18,1010103001810,登記記録の閉鎖等,0,2024-12-04,2024-12-02,合同会社Ｓｙｒｕｐ,,合同会社,東京都,八王子市,東町１番１号ＤＣ東町ビル３階,,13,201,1920082,,,2024-12-02,清算の結了等,,,2021-11-10,1,,,,,シロップ,0
70,1011202004200,登記記録の閉鎖等,0,2024-12-04,2024-12-02,有限会社塔ノ山,,有限会社,東京都,中野区,中央１丁目４６番１５号,,13,114,1640011,,,2024-12-02,清算の結了等,,,2015-10-05,1,,,,,トウノヤマ,0
72,1011301025782,登記記録の閉鎖等,0,2024-12-04,2024-11-29,株式会社トリニティ,,株式会社,東京都,杉並区,阿佐谷南３丁目３８番３２号,,13,115,1660004,,,2024-11-29,清算の結了等,,,2020-03-11,1,,,,,トリニティ,0
75,1011401016021,登記記録の閉鎖等,0,2024-12-04,2024-11-27,株式会社けあほーむ・なごみ,,株式会社,東京都,板橋区,赤塚５丁目９番７号,00065829,13,119,1750092,,,2024-11-27,清算の結了等,,,2015-10-05,1,,,,,ケアホームナゴミ,0
97,1020001066806,登記記録の閉鎖等,0,2024-12-04,2024-11-20,日鋼エンジニアリング株式会社,,株式会社,神奈川県,川崎市高津区,子母口４５８番地３,,14,134,2130023,,,2024-11-20,清算の結了等,,,2015-10-05,1,,,,,ニッコウエンジニアリング,0
98,1020001084964,登記記録の閉鎖等,0,2024-12-04,2024-12-02,株式会社ＮＫオフィス,,株式会社,神奈川県,中郡大磯町,大磯１７５０番地,,14,341,2550003,,,2024-12-02,清算の結了等,,,2015-10-05,1,,,,,エヌケイオフィス,0
102,1020001139248,登記記録の閉鎖等,0,2024-12-04,2024-11-19,株式会社スクエアー,,株式会社,神奈川県,川崎市高津区,久本１丁目１０番２－４０３号,,14,134,2130011,,,2024-11-19,清算の結了等,,,2021-01-04,1,,,,,スクエアー,0
108,1020005000901,登記記録の閉鎖等,0,2024-12-04,2024-11-20,宗教法人宗光寺,,その他の設立登記法人,神奈川県,横浜市中区,根岸町３丁目１５６番地,,14,104,2310836,,,2024-11-20,清算の結了等,,,2015-10-05,1,,,,,シュウコウジ,0
154,1080401026486,登記記録の閉鎖等,0,2024-12-04,2024-11-29,株式会社ＡｒＧａｔｅ,,株式会社,静岡県,浜松市中央区,有玉南町１８６７－１,,22,138,4313122,,,2024-11-29,清算の結了等,,,2023-05-15,1,,,,,アルゲート,0
169,1120001268235,登記記録の閉鎖等,0,2024-12-04,2024-12-02,株式会社延田アミューズメント,,株式会社,大阪府,大阪市中央区,心斎橋筋２丁目１番６号,,27,128,5420085,,,2024-12-02,合併による解散等,3122001019698,令和６年１２月１日大阪市中央区心斎橋筋二丁目１番６号株式会社延田エンタープライズ（3122001019698）に合併し解散,2024-09-03,1,,,,,ノブタアミューズメント,0
182,1120901029942,登記記録の閉鎖等,0,2024-12-04,2024-11-28,株式会社カンキョー,,株式会社,大阪府,豊中市,稲津町１丁目１番１３号,,27,203,5610854,,,2024-11-28,清算の結了等,,,2015-10-05,1,,,,,カンキョー,0
185,1122001006525,登記記録の閉鎖等,0,2024-12-04,2024-11-29,株式会社べにや,,株式会社,大阪府,東大阪市,衣摺４丁目９番６号,00034314,27,227,5770827,,,2024-11-29,清算の結了等,,,2015-10-05,1,,,,,ベニヤ,0
196,1140002063534,登記記録の閉鎖等,0,2024-12-04,2024-11-29,有限会社三輝エンジニアリング,,有限会社,兵庫県,伊丹市,北野５丁目４番地,,28,207,6640007,,,2024-11-29,清算の結了等,,,2015-10-05,1,,,,,サンキエンジニアリング,0
198,1140005021778,登記記録の閉鎖等,0,2024-12-04,2024-11-29,税理士法人ＶＥＲＴＥＸ,,その他の設立登記法人,兵庫県,神戸市北区,筑紫が丘５丁目１０番地の９,,28,109,6511212,,,2024-11-29,清算の結了等,,,2015-10-05,1,,,,,ベルテックス,0
217,1180002033129,登記記録の閉鎖等,0,2024-12-04,2024-12-02,有限会社みろく,,有限会社,愛知県,名古屋市中区,上前津２丁目１０番１８号,,23,106,4600013,,,2024-12-02,清算の結了等,,,2015-10-05,1,,,,,ミロク,0
248,1290001059460,登記記録の閉鎖等,0,2024-12-04,2024-11-06,株式会社アイテムリンク,,株式会社,福岡県,福岡市博多区,博多駅前３丁目２７番２２号,,40,132,8120011,,,2024-11-06,清算の結了等,,,2015-10-05,1,,,,,アイテムリンク,0
249,1290001087610,登記記録の閉鎖等,0,2024-12-04,2024-11-06,株式会社アーネック,,株式会社,福岡県,福岡市中央区,大手門２丁目１番１０－８１１,,40,133,8100074,,,2024-11-06,清算の結了等,,,2020-01-09,1,,,,,アーネック,0
267,1330001031357,登記記録の閉鎖等,0,2024-12-04,2024-12-02,株式会社延田,,株式会社,大阪府,大阪市中央区,心斎橋筋２丁目１番６号,,27,128,5420085,,,2024-12-02,合併による解散等,3122001019698,令和６年１２月１日大阪市中央区心斎橋筋二丁目１番６号株式会社延田エンタープライズ（3122001019698）に合併し解散,2023-10-16,1,,,,,ノブタ,0
285,1410005003039,登記記録の閉鎖等,0,2024-12-04,2024-12-02,農事組合法人谷地中部落組合,,その他の設立登記法人,秋田県,大館市,比内町谷地中字大巻６１番地,,05,204,0185732,,,2024-12-02,清算の結了等,,,2015-10-05,1,,,,,ヤチナカブラククミアイ,0
296,1450001005373,登記記録の閉鎖等,0,2024-12-04,2024-11-28,株式会社ウィーズ北海道,,株式会社,北海道,旭川市,東光十三条１丁目５番４号,,01,204,0788353,,,2024-11-28,合併による解散等,6030001066965,令和６年１１月１日埼玉県北葛飾郡松伏町築比地７９５番地１株式会社ウィーズ（6030001066965）に合併し解散,2015-10-05,1,,,,,ウィーズホッカイドウ,0
297,1450002001066,登記記録の閉鎖等,0,2024-12-04,2024-11-28,有限会社アイ・グラフィックス,,有限会社,北海道,旭川市,末広一条１５丁目４番１２号,,01,204,0718131,,,2024-11-28,清算の結了等,,,2015-10-05,1,,,,,アイグラフィックス,0
308,1490002012522,登記記録の閉鎖等,0,2024-12-04,2024-12-02,土佐酪食品販売有限会社,,有限会社,高知県,土佐郡土佐町,田井１４６１番地２,,39,363,7813521,,,2024-12-02,清算の結了等,,,2015-10-05,1,,,,,トサラクショクヒンハンバイ,0
318,2010001182520,登記記録の閉鎖等,0,2024-12-04,2024-11-20,日本きくらげ株式会社,,株式会社,東京都,中央区,日本橋堀留町１丁目１１番１０号堀留ファーストビル８階,,13,102,1030012,,,2024-11-20,清算の結了等,,,2017-04-04,1,,,,,ニホンキクラゲ,0
321,2010001215742,登記記録の閉鎖等,0,2024-12-04,2024-11-20,株式会社バイオクス,,株式会社,東京都,千代田区,大手町１丁目９番２号フィナンシャルシティＧＢＨＴ,,13,101,1000004,,,2024-11-20,清算の結了等,,,2021-02-10,1,,,,,バイオクス,0
343,2010402035145,登記記録の閉鎖等,0,2024-12-04,2024-12-02,有限会社音楽出版センター,,有限会社,神奈川県,鎌倉市,長谷２丁目１－７仁尾ビル１Ｆ,,14,204,2480016,,,2024-12-02,合併による解散等,6011301011506,令和６年１２月１日神奈川県鎌倉市長谷２－１－７仁尾ビル１Ｆ株式会社ＭＰＣＬ（6011301011506）に合併し解散,2015-10-05,1,,,,,オンガクシュッパンセンター,0
344,2010403026077,登記記録の閉鎖等,0,2024-12-04,2024-11-18,合同会社Ｈａｐｐｙ＆Ｄｒｅａｍ,,合同会社,東京都,港区,西麻布２丁目１０番１号,,13,103,1060031,,,2024-11-18,清算の結了等,,,2021-09-09,1,,,,,ハッピーアンドドリーム,0
347,2010501015428,登記記録の閉鎖等,0,2024-12-04,2024-11-28,株式会社大恵,,株式会社,東京都,台東区,浅草６丁目２３番１号,,13,106,1110032,,,2024-11-28,清算の結了等,,,2015-10-05,1,,,,,ダイケイ,0
348,2010502000346,登記記録の閉鎖等,0,2024-12-04,2024-11-27,有限会社ＡＣＡハセガワ,,有限会社,東京都,台東区,浅草橋５丁目２番１４－７０２号,,13,106,1110053,,,2024-11-27,清算の結了等,,,2015-10-05,1,,,,,エーシーエー,0
362,2010902026321,登記記録の閉鎖等,0,2024-12-04,2024-12-02,株式会社ＡＳＳＯ,,株式会社,神奈川県,座間市,東原５丁目１番１１号,,14,216,2520004,,,2024-12-02,合併による解散等,9021001026338,令和６年１２月１日神奈川県座間市東原五丁目１番１１号株式会社シーイーシー（9021001026338）に合併し解散,2015-10-05,1,,,,,アッソ,0
364,2011001068791,登記記録の閉鎖等,0,2024-12-04,2024-11-07,株式会社ＲＥＴＲＩＰ,,株式会社,東京都,港区,三田１丁目４番２８号,,13,103,1080073,,,2024-11-07,合併による解散等,1020001097280,令和６年１１月１日東京都港区三田一丁目４番２８号株式会社くふうＡＩスタジオ（1020001097280）に合併し解散,2015-10-05,1,,,,,リトリップ,0
379,2011301022523,登記記録の閉鎖等,0,2024-12-04,2024-11-29,株式会社第六アップキープ,,株式会社,東京都,杉並区,成田東４丁目３８番１７号,,13,115,1660015,,,2024-11-29,清算の結了等,,,2016-09-07,1,,,,,ダイロクアップキープ,0
405,2020001083619,登記記録の閉鎖等,0,2024-12-04,2024-11-21,新栄興業株式会社,,株式会社,神奈川県,横浜市青葉区,荏田町３６７番地１タウンハウス荏田Ａ棟,,14,117,2250013,,,2024-11-21,清算の結了等,,,2015-10-05,1,,,,,シンエイコウギョウ,0
406,2020001129280,登記記録の閉鎖等,0,2024-12-04,2024-11-22,株式会社ＡＹＡコーポレーション,,株式会社,神奈川県,川崎市宮前区,有馬１丁目１０番２０－４０３号ブランシール鷺沼,,14,136,2160003,,,2024-11-22,清算の結了等,,,2018-12-26,1,,,,,アヤコーポレーション,0
417,2021001054766,登記記録の閉鎖等,0,2024-12-04,2024-12-02,株式会社ヴィータ,,株式会社,神奈川県,相模原市中央区,淵野辺４丁目３番１６号リラ淵野辺３０２号,,14,152,2520206,,,2024-12-02,清算の結了等,,,2015-10-05,1,,,,,ヴィータ,0
440,2030002051912,登記記録の閉鎖等,0,2024-12-04,2024-12-02,有限会社恵比寿,,有限会社,埼玉県,草加市,長栄４丁目３６番地８,,11,221,3400051,,,2024-12-02,清算の結了等,,,2015-10-05,1,,,,,エビス,0
461,2060001024610,登記記録の閉鎖等,0,2024-12-04,2024-12-02,ケイエスフーズ株式会社,,株式会社,栃木県,栃木市,岩舟町静３９２７番地３,,09,203,3294307,,,2024-12-02,清算の結了等,,,2015-10-05,1,,,,,ケイエスフーズ,0
468,2080001017926,登記記録の閉鎖等,0,2024-12-04,2024-11-29,株式会社ＯＭＯ,,株式会社,静岡県,静岡市駿河区,中島９５０番地,,22,102,4228046,,,2024-11-29,清算の結了等,,,2015-10-05,1,,,,,オーエムオー,0
472,2080105002601,登記記録の閉鎖等,0,2024-12-04,2024-11-28,特定非営利活動法人富士山倶楽部,,その他の設立登記法人,静岡県,御殿場市,川島田１７７９番地の５,,22,215,4120045,,,2024-11-28,清算の結了等,,,2015-10-05,1,,,,,フジサンクラブ,0
490,2120001259654,登記記録の閉鎖等,0,2024-12-04,2024-12-02,株式会社延田キャピタル,,株式会社,大阪府,大阪市中央区,心斎橋筋２丁目１番６号,,27,128,5420085,,,2024-12-02,合併による解散等,3122001019698,令和６年１２月１日大阪市中央区心斎橋筋二丁目１番６号株式会社延田エンタープライズ（3122001019698）に合併し解散,2023-11-07,1,,,,,ノブタキャピタル,0
495,2120002044840,登記記録の閉鎖等,0,2024-12-04,2024-12-03,有限会社ワンダーランド,,有限会社,大阪府,大阪市阿倍野区,昭和町５丁目１番２０号,,27,119,5450011,,,2024-12-03,清算の結了等,,,2015-10-05,1,,,,,ワンダーランド,0
497,2120003027415,登記記録の閉鎖等,0,2024-12-04,2024-11-28,合同会社大地の詩,,合同会社,大阪府,大阪市中央区,玉造１丁目２４番２２－２０４号,,27,128,5400004,,,2024-11-28,合併による解散等,2120003011749,令和６年１１月２５日大阪市中央区玉造１－２４－２２－２０４合同会社悠久の詩（2120003011749）に合併し解散,2024-09-03,1,,,,,ダイチノウタ,0
504,2120901017384,登記記録の閉鎖等,0,2024-12-04,2024-11-28,株式会社大和コーポレーション,,株式会社,大阪府,吹田市,岸部北５丁目１２番１５号,,27,205,5640001,,,2024-11-28,清算の結了等,,,2015-10-05,1,,,,,ダイワコーポレーション,0
505,2120901028869,登記記録の閉鎖等,0,2024-12-04,2024-12-02,株式会社マツエステート,,株式会社,大阪府,大阪市福島区,大開３丁目１番４９号,,27,103,5530007,,,2024-12-02,合併による解散等,8120001014533,令和６年１２月１日大阪市城東区野江二丁目１７番２号株式会社笠井精工所（8120001014533）に合併し解散,2015-10-05,1,,,,,マツエステート,0
526,2150003002233,登記記録の閉鎖等,0,2024-12-04,2024-12-02,マロン合同会社,,合同会社,奈良県,香芝市,白鳳台１丁目１番地２５,,29,210,6390262,,,2024-12-02,清算の結了等,,,2020-10-06,1,,,,,マロン,0
545,2180303005734,登記記録の閉鎖等,0,2024-12-04,2024-11-28,リトルベア合同会社,,合同会社,愛知県,豊橋市,西小鷹野４丁目１１番地３,,23,201,4400013,,,2024-11-28,清算の結了等,,,2023-06-06,1,,,,,リトルベア,0
565,2250001000781,登記記録の閉鎖等,0,2024-12-04,2024-12-02,森重印刷株式会社,,株式会社,山口県,山口市,湯田温泉２丁目３番１４号,,35,203,7530056,,,2024-12-02,清算の結了等,,,2015-10-05,1,,,,,モリシゲインサツ,0
566,2250001013890,登記記録の閉鎖等,0,2024-12-04,2024-12-02,亀田工業株式会社,,株式会社,山口県,玖珂郡和木町,和木３丁目１２番２４号,,35,321,7400061,,,2024-12-02,清算の結了等,,,2015-10-05,1,,,,,カメダコウギョウ,0
587,2290003003102,登記記録の閉鎖等,0,2024-12-04,2024-12-02,合同会社ステップ・カンパニー,,合同会社,東京都,中野区,東中野５丁目１１番８号Ｂ１,,13,114,1640003,,,2024-12-02,清算の結了等,,,2015-10-05,1,,,,,ステップカンパニー,0
595,2310005007890,登記記録の閉鎖等,0,2024-12-04,2024-11-20,株式会社対馬しいたけ,,株式会社,東京都,中央区,八重洲２丁目８番７号,,13,102,1040028,,,2024-11-20,清算の結了等,,,2015-11-12,1,,,,,ツシマシイタケ,0
609,2380002033545,登記記録の閉鎖等,0,2024-12-04,2024-11-25,有限会社渡部建設,,有限会社,福島県,会津若松市,河東町八田字八田野４５７番１,,07,202,9693451,,,2024-11-25,清算の結了等,,,2015-10-05,1,,,,,ワタナベケンセツ,0
635,3010003026195,登記記録の閉鎖等,0,2024-12-04,2024-11-13,合同会社開発４５号,,合同会社,東京都,中央区,銀座７丁目２番２２号銀座同和ビル３階,,13,102,1040061,,,2024-11-13,清算の結了等,,,2017-10-12,1,,,,,カイハツヨンジュウゴゴウ,0
642,3010402006418,登記記録の閉鎖等,0,2024-12-04,2024-11-19,有限会社芝製作所,,有限会社,東京都,港区,高輪１丁目２１番１５号,,13,103,1080074,,,2024-11-19,清算の結了等,,,2015-10-05,1,,,,,シバセイサクショ,0
649,3010701008643,登記記録の閉鎖等,0,2024-12-04,2024-11-29,フェローズジャパン株式会社,,株式会社,東京都,品川区,西五反田４丁目３２番１号,,13,109,1410031,,,2024-11-29,清算の結了等,,,2015-10-05,1,,,,,フェローズジャパン,0
657,3010802016941,登記記録の閉鎖等,0,2024-12-04,2024-11-20,有限会社グリーンプラネット,,有限会社,東京都,大田区,東嶺町３５番２０号,,13,111,1450074,,,2024-11-20,清算の結了等,,,2015-10-05,1,,,,,グリーンプラネット,0
662,3011001023762,登記記録の閉鎖等,0,2024-12-04,2024-11-08,有喜産業株式会社,00053110,株式会社,東京都,渋谷区,渋谷２丁目１２番８号,,13,113,1500002,,,2024-11-08,清算の結了等,,,2015-10-05,1,,,,,ウキサンギョウ,0
684,3012302003107,登記記録の閉鎖等,0,2024-12-04,2024-11-22,有限会社つばき,,有限会社,東京都,町田市,鶴川５丁目１０番地２２,,13,209,1950061,,,2024-11-22,清算の結了等,,,2015-10-05,1,,,,,ツバキ,0
705,3020005014899,登記記録の閉鎖等,0,2024-12-04,2024-11-21,ＮＰＯ法人かすみそう,,その他の設立登記法人,神奈川県,横浜市青葉区,奈良町１６７０番地２２２,,14,117,2270036,,,2024-11-21,清算の結了等,,,2020-12-17,1,,,,,カスミソウ,0
726,3030001150045,登記記録の閉鎖等,0,2024-12-04,2024-12-02,プラスワン株式会社,,株式会社,埼玉県,さいたま市浦和区,常盤４丁目１３番１２号常盤ライトビル３０２号室,,11,107,3300061,,,2024-12-02,清算の結了等,,,2022-09-08,1,,,,,プラスワン,0
732,3030002056877,登記記録の閉鎖等,0,2024-12-04,2024-12-03,有限会社グラーちょ,,有限会社,埼玉県,上尾市,今泉１丁目３４番地４,,11,219,3620047,,,2024-12-03,清算の結了等,,,2015-10-05,1,,,,,グラーチョ,0
741,3040005009864,登記記録の閉鎖等,0,2024-12-04,2024-11-28,特定非営利活動法人社会環境向上ライダース協会,,その他の設立登記法人,千葉県,千葉市花見川区,横戸町１４１番地１号,,12,102,2620001,,,2024-11-28,清算の結了等,,,2015-10-05,1,,,,,シャカイカンキョウコウジョウライダースキョウカイ,0
744,3060001016598,登記記録の閉鎖等,0,2024-12-04,2024-11-25,冨士鋼業株式会社,,株式会社,栃木県,栃木市,梅沢町６７８番地,,09,203,3280204,,,2024-11-25,清算の結了等,,,2015-10-05,1,,,,,フジコウギョウ,0
766,3120001040237,登記記録の閉鎖等,0,2024-12-04,2024-12-02,森本電工株式会社,,株式会社,大阪府,大阪市浪速区,芦原１丁目１番４号,00028130,27,111,5560029,,,2024-12-02,清算の結了等,,,2015-10-05,1,,,,,モリモトデンコウ,0
809,3170002001241,登記記録の閉鎖等,0,2024-12-04,2024-11-28,有限会社共冷工業,,有限会社,和歌山県,和歌山市,南雑賀町５３番地,,30,201,6408102,,,2024-11-28,清算の結了等,,,2015-10-05,1,,,,,キョウレイコウギョウ,0
811,3180001026965,登記記録の閉鎖等,0,2024-12-04,2024-12-02,株式会社フジヤ,,株式会社,愛知県,名古屋市西区,菊井１丁目３５番１９号,,23,104,4510044,,,2024-12-02,合併による解散等,2180001097792,令和６年１２月１日名古屋市中村区名駅南三丁目７番２０号第２ワカサビル２階株式会社エアリーステップ（2180001097792）に合併し解散,2015-10-05,1,,,,,フジヤ,0
812,3180001098492,登記記録の閉鎖等,0,2024-12-04,2024-11-25,山田建築株式会社,,株式会社,愛知県,あま市,金岩後堂１３番地,,23,237,4901221,,,2024-11-25,清算の結了等,,,2015-10-05,1,,,,,ヤマダケンチク,0
819,3180001147290,登記記録の閉鎖等,0,2024-12-04,2024-11-26,株式会社アルタイルジャパン,,株式会社,愛知県,名古屋市中村区,太閤３丁目１番１８号名古屋ＫＳビル６Ｆ,,23,105,4530801,,,2024-11-26,清算の結了等,,,2021-08-10,1,,,,,アルタイルジャパン,0
822,3180002004945,登記記録の閉鎖等,0,2024-12-04,2024-11-26,有限会社名古屋三立製作所,00072778,有限会社,愛知県,名古屋市千種区,新西１丁目４番２６号,,23,101,4640003,,,2024-11-26,清算の結了等,,,2015-10-05,1,,,,,ナゴヤサンリツセイサクショ,0
823,3180002014564,登記記録の閉鎖等,0,2024-12-04,2024-11-29,有限会社林産業,,有限会社,愛知県,名古屋市中区,栄５丁目２５番３５号メゾンドール栄９０１号,,23,106,4600008,,,2024-11-29,清算の結了等,,,2015-10-05,1,,,,,ハヤシサンギョウ,0
828,3180302014140,登記記録の閉鎖等,0,2024-12-04,2024-11-28,有限会社ヤマグチ園芸,,有限会社,愛知県,豊川市,千両町真川８番地,,23,207,4420001,,,2024-11-28,清算の結了等,,,2015-10-05,1,,,,,ヤマグチエンゲイ,0
829,3180303005733,登記記録の閉鎖等,0,2024-12-04,2024-11-28,合同会社オレンジフィールド,,合同会社,愛知県,豊橋市,佐藤４丁目１２番地１,,23,201,4400853,,,2024-11-28,清算の結了等,,,2023-06-06,1,,,,,オレンジフィールド,0
830,3180303005865,登記記録の閉鎖等,0,2024-12-04,2024-11-27,合同会社エステ・フルール,,合同会社,愛知県,碧南市,伏見町３丁目４１番地２,,23,209,4470807,,,2024-11-27,清算の結了等,,,2023-10-12,1,,,,,エステフルール,0
834,3200001038966,登記記録の閉鎖等,0,2024-12-04,2024-12-02,株式会社ＦＡＣＩＬＩＴＹ　ＰＬＡＮ,,株式会社,岐阜県,岐阜市,加野４丁目４番８号,,21,201,5013107,,,2024-12-02,清算の結了等,,,2021-08-03,1,,,,,ファシリティプラン,0
837,3200002004967,登記記録の閉鎖等,0,2024-12-04,2024-11-27,有限会社山三堀江商事,,有限会社,岐阜県,岐阜市,三笠町１丁目５番地,,21,201,5008147,,,2024-11-27,清算の結了等,,,2015-10-05,1,,,,,,0
838,3210002000767,登記記録の閉鎖等,0,2024-12-04,2024-12-02,有限会社オーマエ建築設計事務所,,有限会社,福井県,福井市,花堂中２丁目２２番２０号,,18,201,9188014,,,2024-12-02,清算の結了等,,,2015-10-05,1,,,,,オーマエケンチクセッケイジムショ,0
843,3240002006349,登記記録の閉鎖等,0,2024-12-04,2024-12-02,有限会社山陽ムービング,,有限会社,広島県,広島市安佐南区,八木７丁目４番２２号,,34,105,7310101,,,2024-12-02,清算の結了等,,,2015-10-05,1,,,,,サンヨウムービング,0
849,3250002013749,登記記録の閉鎖等,0,2024-12-04,2024-12-02,有限会社農家れすとらんつつじ亭,,有限会社,山口県,萩市,大字明木２８５７番地３,,35,204,7540411,,,2024-12-02,清算の結了等,,,2015-10-05,1,,,,,ノウカレストランツツジテイ,0
857,3290002032803,登記記録の閉鎖等,0,2024-12-04,2024-11-06,有限会社たくや物産,,有限会社,福岡県,糸島市,多久４８４番地の１,,40,230,8191134,,,2024-11-06,清算の結了等,,,2015-10-05,1,,,,,,0
877,3350002004093,登記記録の閉鎖等,0,2024-12-04,2024-11-27,有限会社プロテア,,有限会社,宮崎県,宮崎市,大字島之内１０２８７番地１,,45,201,8800121,,,2024-11-27,清算の結了等,,,2015-10-05,1,,,,,プロテア,0
878,3360001023655,登記記録の閉鎖等,0,2024-12-04,2024-12-02,株式会社ｉｎｆｏ,,株式会社,沖縄県,那覇市,安謝２丁目４番１１号,,47,201,9000003,,,2024-12-02,清算の結了等,,,2018-03-09,1,,,,,インフォ,0
882,3380001009272,登記記録の閉鎖等,0,2024-12-04,2024-11-25,富士精工株式会社,,株式会社,福島県,郡山市,日和田町字榧ノ木作１番地の３,,07,203,9630534,,,2024-11-25,清算の結了等,,,2015-10-05,1,,,,,,0
885,3380002004446,登記記録の閉鎖等,0,2024-12-04,2024-11-25,有限会社パワーテック,,有限会社,福島県,福島市,平石字照内２番地の４,,07,201,9601103,,,2024-11-25,清算の結了等,,,2015-10-05,1,,,,,パワーテック,0
892,3430001085911,登記記録の閉鎖等,0,2024-12-04,2024-11-29,株式会社徳達,,株式会社,北海道,札幌市中央区,南四条西３丁目１番地２Ｎ－ＰＬＡＣＥビル１階,,01,101,0640804,,,2024-11-29,清算の結了等,,,2022-02-02,1,,,,,トクタツ,0
896,3470002013727,登記記録の閉鎖等,0,2024-12-04,2024-11-27,有限会社センチュリー二十一,,有限会社,香川県,丸亀市,田村町１５６９番地５,,37,202,7630071,,,2024-11-27,清算の結了等,,,2015-10-05,1,,,,,センチュリーニジュウイチ,0
918,4010101008490,登記記録の閉鎖等,0,2024-12-04,2024-12-03,株式会社竜智堂,,株式会社,東京都,八王子市,中野町２５２３番８号,,13,201,1920015,,,2024-12-03,清算の結了等,,,2015-10-05,1,,,,,,0
959,4011502006868,登記記録の閉鎖等,0,2024-12-04,2024-12-02,有限会社新井商店,,有限会社,東京都,荒川区,南千住１丁目４３番１０号,,13,118,1160003,,,2024-12-02,清算の結了等,,,2015-10-05,1,,,,,,0
961,4011603003855,登記記録の閉鎖等,0,2024-12-04,2024-11-20,合同会社３８,,合同会社,東京都,千代田区,九段北１丁目３番５号ロアジス九段ビル１階,,13,101,1020073,,,2024-11-20,清算の結了等,,,2023-03-17,1,,,,,サンジュウハチ,0
965,4011802012590,登記記録の閉鎖等,0,2024-12-04,2024-12-02,有限会社小暮商店,,有限会社,東京都,足立区,扇２丁目１５番１１号－２０１,,13,121,1230873,,,2024-12-02,清算の結了等,,,2015-10-05,1,,,,,コグレショウテン,0
967,4012301000525,登記記録の閉鎖等,0,2024-12-04,2024-11-27,大津工業株式会社,,株式会社,東京都,町田市,旭町１丁目２３番地１４号,,13,209,1940023,,,2024-11-27,清算の結了等,,,2015-10-05,1,,,,,オオツコウギョウ,0
973,4020001026815,登記記録の閉鎖等,0,2024-12-04,2024-11-27,株式会社シティコーポレーション,,株式会社,神奈川県,横浜市南区,西中町２丁目２９番地２,,14,105,2320003,,,2024-11-27,清算の結了等,,,2015-10-05,1,,,,,シティコーポレーション,0
981,4020002001569,登記記録の閉鎖等,0,2024-12-04,2024-11-22,有限会社関戸製麺食品店,,有限会社,神奈川県,横浜市瀬谷区,瀬谷４丁目４５番地の１,,14,114,2460031,,,2024-11-22,清算の結了等,,,2015-10-05,1,,,,,セキドセイメンショクヒンテン,0
986,4020002091239,登記記録の閉鎖等,0,2024-12-04,2024-11-27,有限会社アライデンタルラボ,,有限会社,神奈川県,川崎市多摩区,宿河原２丁目１１番３号,,14,135,2140021,,,2024-11-27,清算の結了等,,,2015-10-05,1,,,,,アライデンタルラボ,0
988,4020003011699,登記記録の閉鎖等,0,2024-12-04,2024-11-22,合同会社リンクスコーポレーション,,合同会社,神奈川県,川崎市多摩区,中野島４丁目２４番１５－２０５号,,14,135,2140012,,,2024-11-22,清算の結了等,,,2016-08-17,1,,,,,リンクスコーポレーション,0
1004,4030002069192,登記記録の閉鎖等,0,2024-12-04,2024-12-02,有限会社フクムラ,,有限会社,埼玉県,春日部市,増戸５７６番地２,,11,214,3440042,,,2024-12-02,清算の結了等,,,2015-10-05,1,,,,,フクムラ,0
1009,4030003018058,登記記録の閉鎖等,0,2024-12-04,2024-12-02,合同会社ｉｓｍ,,合同会社,埼玉県,さいたま市浦和区,領家３丁目１９番９－１２０３号,,11,107,3300072,,,2024-12-02,清算の結了等,,,2021-10-06,1,,,,,イズム,0
1029,4070002000442,登記記録の閉鎖等,0,2024-12-04,2024-11-26,有限会社イイノ,,有限会社,群馬県,前橋市,元総社町１丁目２１番地９,,10,201,3710846,,,2024-11-26,清算の結了等,,,2015-10-05,1,,,,,イイノ,0
1038,4110002031350,登記記録の閉鎖等,0,2024-12-04,2024-11-28,有限会社三沢ポンプ,,有限会社,新潟県,長岡市,金町２丁目１番３０号,,15,202,9400221,,,2024-11-28,清算の結了等,,,2015-10-05,1,,,,,ミサワポンプ,0
1041,4120001259603,登記記録の閉鎖等,0,2024-12-04,2024-12-02,株式会社延田カンパニー,,株式会社,大阪府,大阪市中央区,心斎橋筋２丁目１番６号,,27,128,5420085,,,2024-12-02,合併による解散等,3122001019698,令和６年１２月１日大阪市中央区心斎橋筋二丁目１番６号株式会社延田エンタープライズ（3122001019698）に合併し解散,2023-11-06,1,,,,,ノブタカンパニー,0
1054,4120101067328,登記記録の閉鎖等,0,2024-12-04,2024-12-02,株式会社ＯＳＧ,,株式会社,大阪府,貝塚市,馬場１９０－１,,27,208,5970103,,,2024-12-02,合併による解散等,1120001207977,令和６年１１月２２日大阪市住之江区平林南一丁目８番４号株式会社ＯＳＧ（1120001207977）に合併し解散,2023-04-13,1,,,,,オーエスジー,0
1063,4130005014160,登記記録の閉鎖等,0,2024-12-04,2024-11-29,一般社団法人京都音楽博覧会,,その他の設立登記法人,京都府,京都市下京区,烏丸通四条下る水銀屋町６２０番地８階,,26,106,6008411,,,2024-11-29,清算の結了等,,,2015-10-05,1,,,,,キョウトオンガクハクランカイ,0
1079,4180001012733,登記記録の閉鎖等,0,2024-12-04,2024-11-29,中部産商株式会社,,株式会社,愛知県,名古屋市北区,三軒町２８１番地,,23,103,4620004,,,2024-11-29,清算の結了等,,,2015-10-05,1,,,,,チュウブサンショウ,0
1080,4180001089078,登記記録の閉鎖等,0,2024-12-04,2024-11-27,株式会社ヴァーミリオン,,株式会社,愛知県,名古屋市西区,長先町２２５番地,,23,104,4520838,,,2024-11-27,清算の結了等,,,2015-10-05,1,,,,,ヴァーミリオン,0
1090,4180002042325,登記記録の閉鎖等,0,2024-12-04,2024-11-28,有限会社タカぎ,,有限会社,愛知県,豊田市,大清水町大清水１７９番地８,,23,211,4700342,,,2024-11-28,清算の結了等,,,2015-10-05,1,,,,,タカギ,0
1100,4200001007053,登記記録の閉鎖等,0,2024-12-04,2024-11-29,共和工業株式会社,,株式会社,岐阜県,各務原市,那加雄飛ケ丘町１８番地の３３,,21,213,5040835,,,2024-11-29,清算の結了等,,,2015-10-05,1,,,,,キョウワコウギョウ,0
1123,4310001000988,登記記録の閉鎖等,0,2024-12-04,2024-11-28,大光貿易汽船株式会社,,株式会社,長崎県,長崎市,江戸町５番６号,,42,201,8500861,,,2024-11-28,清算の結了等,,,2015-10-05,1,,,,,ダイコウボウエキキセン,0
1128,4310002007561,登記記録の閉鎖等,0,2024-12-04,2024-11-29,有限会社アオイテック,,有限会社,長崎県,長崎市,江平３丁目１４番２７号,,42,201,8528101,,,2024-11-29,清算の結了等,,,2015-10-05,1,,,,,アオイテック,0
1129,4310002013857,登記記録の閉鎖等,0,2024-12-04,2024-11-29,有限会社全日食丸祐,,有限会社,長崎県,北松浦郡小値賀町,笛吹郷１５３７番地５５,,42,383,8574701,,,2024-11-29,清算の結了等,,,2015-10-05,1,,,,,ゼンニッショクマルユウ,0
1149,4430002045731,登記記録の閉鎖等,0,2024-12-04,2024-11-28,有限会社菅原電設,,有限会社,北海道,江別市,文京台南町３６番地の３,,01,217,0690835,,,2024-11-28,清算の結了等,,,2015-10-05,1,,,,,スガワラデンセツ,0
1163,5010001126251,登記記録の閉鎖等,0,2024-12-04,2024-11-13,株式会社ポラリス・レジデンシャル・ツー,,株式会社,東京都,中央区,新川１丁目１７番１８号,,13,102,1040033,,,2024-11-13,清算の結了等,,,2015-10-05,1,,,,,ポラリスレジデンシャルツー,0
1164,5010001136713,登記記録の閉鎖等,0,2024-12-04,2024-11-21,イントゥギガ株式会社,,株式会社,東京都,千代田区,平河町２丁目６番１号平河町ビル７階,,13,101,1020093,,,2024-11-21,清算の結了等,,,2015-10-05,1,,,,,イントゥギガ,0
1167,5010003032670,登記記録の閉鎖等,0,2024-12-04,2024-11-20,リリーズチョイス合同会社,,合同会社,東京都,中央区,湊２丁目１１番１－９２１号,,13,102,1040043,,,2024-11-20,清算の結了等,,,2020-07-31,1,Lilly's Choice LLC,Tokyo,"2-11-1-921, Minato, Chuo-ku",,リリーズチョイス,0
1175,5010403011290,登記記録の閉鎖等,0,2024-12-04,2024-11-20,エイチアンドエスソーラー合同会社,,合同会社,東京都,千代田区,丸の内１丁目３番２号,,13,101,1000005,,,2024-11-20,清算の結了等,,,2015-10-05,1,,,,,エイチアンドエスソーラー,0
1179,5010501048565,登記記録の閉鎖等,0,2024-12-04,2024-11-28,株式会社キッズハイク,,株式会社,東京都,台東区,東上野４丁目１３－９ＲＯＵＴＥ８９ＢＬＤＧ．,,13,106,1100015,,,2024-11-28,清算の結了等,,,2022-03-16,1,,,,,キッズハイク,0
1186,5010603005431,登記記録の閉鎖等,0,2024-12-04,2024-12-03,合同会社サイトウ内装,,合同会社,東京都,江東区,北砂７丁目２番２－５０１号,,13,108,1360073,,,2024-12-03,清算の結了等,,,2015-10-05,1,,,,,サイトウナイソウ,0
1206,5011005009285,登記記録の閉鎖等,0,2024-12-04,2024-11-08,一般社団法人日本ウェブプロモーション支援機構,,その他の設立登記法人,東京都,渋谷区,渋谷２丁目１９－１５宮益坂ビルディング６０９,,13,113,1500002,,,2024-11-08,清算の結了等,,,2021-11-15,1,,,,,ニホンウェブプロモーションシエンキコウ,0
1237,5012302000548,登記記録の閉鎖等,0,2024-12-04,2024-11-22,有限会社市川米穀店,,有限会社,東京都,町田市,野津田町２３７５番地,,13,209,1950063,,,2024-11-22,清算の結了等,,,2015-10-05,1,,,,,イチカワベイコクテン,0
1248,5013402003218,登記記録の閉鎖等,0,2024-12-04,2024-12-02,有限会社稲城電装サービス,,有限会社,東京都,稲城市,百村１１３８番地,,13,225,2060804,,,2024-12-02,清算の結了等,,,2015-10-05,1,,,,,イナギデンソウサービス,0
1253,5020001094159,登記記録の閉鎖等,0,2024-12-04,2024-10-30,株式会社ブレンドシステムズ,,株式会社,神奈川県,川崎市麻生区,白鳥２丁目４－１７,,14,137,2150024,,,2024-10-30,清算の結了等,,,2015-10-05,1,,,,,ブレンドシステムズ,0
1261,5020002073533,登記記録の閉鎖等,0,2024-12-04,2024-11-22,有限会社横浜西,,有限会社,神奈川県,横浜市保土ケ谷区,西谷町６１１番地１レックスハイツ横浜西谷２１７号,,14,106,2400052,,,2024-11-22,清算の結了等,,,2015-10-05,1,,,,,ヨコハマニシ,0
1262,5020003000412,登記記録の閉鎖等,0,2024-12-04,2024-11-25,合資会社エガワ,,合資会社,神奈川県,横浜市磯子区,森３丁目１６番８号,,14,107,2350023,,,2024-11-25,清算の結了等,,,2015-10-05,1,,,,,エガワ,0
1265,5021001002680,登記記録の閉鎖等,0,2024-12-04,2024-11-19,株式会社ＭＭインキュベーションパートナーズ,,株式会社,東京都,千代田区,一番町６番地相模屋本社ビル７Ｆ,,13,101,1020082,,,2024-11-19,清算の結了等,,,2015-10-05,1,,,,,エムエムインキュベーションパートナーズ,0
1284,5030002039847,登記記録の閉鎖等,0,2024-12-04,2024-11-28,有限会社谷井ビルメンテナンス,,有限会社,埼玉県,幸手市,中５丁目１６番１３号,,11,240,3400115,,,2024-11-28,清算の結了等,,,2015-10-05,1,,,,,タニイビルメンテナンス,0
1286,5030002075504,登記記録の閉鎖等,0,2024-12-04,2024-11-28,有限会社有香設計室,,有限会社,埼玉県,川越市,吉田新町１丁目２番地２（初雁３－１０３）,,11,201,3500808,,,2024-11-28,清算の結了等,,,2015-10-05,1,,,,,ユカセッケイ,0
1308,5060002033772,登記記録の閉鎖等,0,2024-12-04,2024-11-29,有限会社木原自動車鈑金塗装,,有限会社,栃木県,栃木市,都賀町合戦場１８５番地,,09,203,3280113,,,2024-11-29,清算の結了等,,,2015-10-05,1,,,,,キハラジドウシャバンキントソウ,0
1323,5110002020030,登記記録の閉鎖等,0,2024-12-04,2024-11-28,有限会社ミズノ,,有限会社,新潟県,燕市,大関８０番地,,15,213,9591287,,,2024-11-28,清算の結了等,,,2015-10-05,1,,,,,ミズノ,0
1335,5120001261054,登記記録の閉鎖等,0,2024-12-04,2024-12-02,ＡＧＳホールディングス株式会社,,株式会社,大阪府,大阪市西区,靱本町２丁目６番１８号,,27,106,5500004,,,2024-12-02,合併による解散等,9120001040933,令和６年１１月３０日大阪市西区靱本町二丁目６番１８号旭ゴム株式会社（9120001040933）に合併し解散,2024-01-04,1,,,,,エージーエスホールディングス,0
1354,5140001078414,登記記録の閉鎖等,0,2024-12-04,2024-11-29,株式会社伸栄重製作所,,株式会社,兵庫県,伊丹市,北本町３丁目７８番地の３,,28,207,6640836,,,2024-11-29,清算の結了等,,,2015-10-05,1,,,,,シンエイジュウセイサクショ,0
1359,5150001021975,登記記録の閉鎖等,0,2024-12-04,2024-12-02,株式会社Ａｕｔｏ　Ｔｒａｄｉｎｇ　Ｎｉｋｋｏ,,株式会社,奈良県,大和郡山市,稗田町１３番地１０４,,29,203,6391108,,,2024-12-02,清算の結了等,,,2017-12-06,1,,,,,オートトレーディングニッコー,0
1360,5150002010119,登記記録の閉鎖等,0,2024-12-04,2024-12-02,有限会社松廣,,有限会社,奈良県,香芝市,西真美１丁目１８番地の１３,,29,210,6390222,,,2024-12-02,清算の結了等,,,2015-10-05,1,,,,,ショウコウ,0
1363,5180001025263,登記記録の閉鎖等,0,2024-12-04,2024-11-27,株式会社共立防災工事,,株式会社,愛知県,名古屋市西区,平出町２１９番地,,23,104,4520832,,,2024-11-27,清算の結了等,,,2015-10-05,1,,,,,キョウリツボウサイコウジ,0
1386,5200001001055,登記記録の閉鎖等,0,2024-12-04,2024-12-02,カネヨシ株式会社,,株式会社,岐阜県,岐阜市,芥見大船２丁目３５番地,,21,201,5013114,,,2024-12-02,清算の結了等,,,2015-10-05,1,,,,,カネヨシ,0
1387,5200001002219,登記記録の閉鎖等,0,2024-12-04,2024-12-02,株式会社三成建設コンサルタント,,株式会社,岐阜県,岐阜市,明神町２丁目５６番地の１,,21,201,5020922,,,2024-12-02,清算の結了等,,,2015-10-05,1,,,,,サンセイケンセツコンサルタント,0
1392,5200002023230,登記記録の閉鎖等,0,2024-12-04,2024-11-28,有限会社オードリー,,有限会社,岐阜県,中津川市,茄子川１１１番地の１５０,,21,206,5099132,,,2024-11-28,清算の結了等,,,2015-10-05,1,,,,,オードリー,0
1400,5260001015165,登記記録の閉鎖等,0,2024-12-04,2024-11-25,株式会社ラ・セゾン,,株式会社,岡山県,倉敷市,児島上の町２丁目８番５５号,,33,202,7110907,,,2024-11-25,清算の結了等,,,2015-10-05,1,,,,,ラセゾン,0
1403,5260002025956,登記記録の閉鎖等,0,2024-12-04,2024-11-27,有限会社きくち,,有限会社,岡山県,井原市,美星町三山４０３１番地,,33,207,7141406,,,2024-11-27,清算の結了等,,,2015-10-05,1,,,,,キクチ,0
1415,5290002033238,登記記録の閉鎖等,0,2024-12-04,2024-11-18,有限会社富田求馬建築事務所,,有限会社,福岡県,糸島市,志摩岐志１４８０番地の１,,40,230,8191334,,,2024-11-18,清算の結了等,,,2015-10-05,1,,,,,トミタモトメケンチクジムショ,0
1424,5290802003299,登記記録の閉鎖等,0,2024-12-04,2024-12-02,新東エンジニアリング株式会社,,株式会社,福岡県,北九州市小倉南区,横代東町１丁目１番３５号,,40,107,8020822,,,2024-12-02,清算の結了等,,,2015-10-05,1,,,,,シントウエンジニアリング,0
1437,5320002002536,登記記録の閉鎖等,0,2024-12-04,2024-12-02,有限会社郷,,有限会社,大分県,大分市,萌葱台１丁目３番３号,,44,201,8701174,,,2024-12-02,合併による解散等,8320201000602,令和６年１２月１日大分県臼杵市大字臼杵字洲崎７２番地の９株式会社臼杵みなと市場（8320201000602）に合併し解散,2015-10-05,1,,,,,ゴウ,0
1441,5330002031154,登記記録の閉鎖等,0,2024-12-04,2024-11-29,有限会社上村建築,,有限会社,熊本県,人吉市,上漆田町３２５２番地,,43,203,8680821,,,2024-11-29,清算の結了等,,,2015-10-05,1,,,,,ウエムラケンチク,0
1442,5340001007988,登記記録の閉鎖等,0,2024-12-04,2024-12-02,ロイヤルホーム株式会社,,株式会社,鹿児島県,霧島市,国分中央３丁目３番３号－２Ｆ,,46,218,8994332,,,2024-12-02,合併による解散等,5340001008177,令和６年１２月１日鹿児島県霧島市国分中央三丁目３番３号株式会社国分ハウジング（5340001008177）に合併し解散,2015-10-05,1,,,,,ロイヤルホーム,0
1452,5380002012273,登記記録の閉鎖等,0,2024-12-04,2024-11-25,有限会社マツオカ,,有限会社,福島県,郡山市,田村町金屋字宝蔵８番地の５,,07,203,9630725,,,2024-11-25,清算の結了等,,,2015-10-05,1,,,,,,0
1457,5410002006180,登記記録の閉鎖等,0,2024-12-04,2024-11-29,有限会社五大石油,,有限会社,秋田県,男鹿市,船川港船川字芦沢１６１番地,00086652,05,206,0100511,,,2024-11-29,清算の結了等,,,2015-10-05,1,,,,,ゴダイセキユ,0
1463,5430002007821,登記記録の閉鎖等,0,2024-12-04,2024-12-02,有限会社後藤興産,,有限会社,北海道,札幌市中央区,南一条西７丁目１１番地,,01,101,0600061,,,2024-12-02,清算の結了等,,,2015-10-05,1,,,,,ゴトウコウサン,0
1470,5500001012278,登記記録の閉鎖等,0,2024-12-04,2024-12-02,豊國布帛株式会社,,株式会社,広島県,呉市,広多賀谷２丁目３番９号,,34,202,7370134,,,2024-12-02,合併による解散等,9240001057321,令和６年１２月１日広島県呉市広多賀谷二丁目３番９号株式会社ＨＩＴＯホールディングス（9240001057321）に合併し解散,2015-10-05,1,,,,,ホウコクフハク,0
1486,6010005021233,登記記録の閉鎖等,0,2024-12-04,2024-11-29,山佐ＣＥＳ３一般社団法人,,その他の設立登記法人,東京都,千代田区,丸の内３丁目１番１号東京共同会計事務所内,,13,101,1000005,,,2024-11-29,清算の結了等,,,2015-10-05,1,,,,,ヤマサシーイーエスサン,0
1490,6010401126692,登記記録の閉鎖等,0,2024-12-04,2024-11-18,株式会社アブソルートワン,,株式会社,東京都,港区,虎ノ門１丁目２３番１号,,13,103,1050001,,,2024-11-18,清算の結了等,,,2016-08-26,1,,,,,アブソルートワン,0
1500,6010802000439,登記記録の閉鎖等,0,2024-12-04,2024-11-18,有限会社穐山軽鉄,,有限会社,東京都,港区,浜松町２丁目２番１５号浜松町ダイヤビル２Ｆ,,13,103,1050013,,,2024-11-18,清算の結了等,,,2015-10-05,1,,,,,,0
1520,6011601020025,登記記録の閉鎖等,0,2024-12-04,2024-11-29,株式会社リネクサス,,株式会社,千葉県,市川市,行徳駅前１丁目２０番８号ＡＲＩＳＴＩＯ１階,,12,203,2720133,,,2024-11-29,清算の結了等,,,2015-10-05,1,,,,,リネクサス,0
1522,6011602009612,登記記録の閉鎖等,0,2024-12-04,2024-11-27,有限会社水戸屋,,有限会社,東京都,練馬区,栄町３番８号,,13,120,1760006,,,2024-11-27,清算の結了等,,,2015-10-05,1,,,,,ミトヤ,0
1530,6013101004656,登記記録の閉鎖等,0,2024-12-04,2024-11-28,インターナショナルコーティングサービス株式会社,,株式会社,東京都,西多摩郡瑞穂町,大字殿ケ谷２２９番地,,13,303,1901212,,,2024-11-28,清算の結了等,,,2015-10-05,1,,,,,インターナショナルコーティングサービス,0
1555,6030002077680,登記記録の閉鎖等,0,2024-12-04,2024-11-28,有限会社町田建設,,有限会社,埼玉県,比企郡川島町,大字曲師１０３番地,,11,346,3500146,,,2024-11-28,清算の結了等,,,2015-10-05,1,,,,,マチダケンセツ,0
1564,6040003012850,登記記録の閉鎖等,0,2024-12-04,2024-11-28,合同会社ＦＯＫ,,合同会社,千葉県,八千代市,大和田新田５１４番地１２,,12,221,2760046,,,2024-11-28,清算の結了等,,,2019-02-06,1,,,,,エフオーケー,0
1583,6120001229455,登記記録の閉鎖等,0,2024-12-04,2024-12-02,太陽ホテル開発株式会社,,株式会社,大阪府,寝屋川市,香里新町２７番１６号１０２,,27,215,5720085,,,2024-12-02,合併による解散等,5120001198643,令和６年１２月１日大阪市西区九条二丁目１４番１６号太陽ビル３階太陽住宅販売株式会社（5120001198643）に合併し解散,2020-06-05,1,,,,,タイヨウホテルカイハツ,0
1625,6180001096080,登記記録の閉鎖等,0,2024-12-04,2024-11-26,株式会社ジョイントテクノ,,株式会社,愛知県,知多郡武豊町,字上山３丁目９５番地,,23,447,4702387,,,2024-11-26,清算の結了等,,,2015-10-05,1,,,,,ジョイントテクノ,0
1632,6180302027107,登記記録の閉鎖等,0,2024-12-04,2024-11-28,有限会社ヤマトコーポレーション,,有限会社,愛知県,西尾市,平坂町坂下７番地,,23,213,4440305,,,2024-11-28,清算の結了等,,,2015-10-05,1,,,,,ヤマトコーポレーション,0
1637,6200001028295,登記記録の閉鎖等,0,2024-12-04,2024-11-29,株式会社ＳＡＭＳＡＲＡ,,株式会社,岐阜県,岐阜市,五坪１丁目１番５号エスポア田神６０３号,,21,201,5008157,,,2024-11-29,清算の結了等,,,2015-10-05,1,,,,,サムサラ,0
1647,6260001022276,登記記録の閉鎖等,0,2024-12-04,2024-12-02,株式会社オオキタ,,株式会社,岡山県,岡山市南区,箕島２９２８番地,,33,104,7010206,,,2024-12-02,清算の結了等,,,2015-10-05,1,,,,,オオキタ,0
1663,6310001015118,登記記録の閉鎖等,0,2024-12-04,2024-11-18,株式会社対原,,株式会社,東京都,中央区,八重洲２丁目８番７号,,13,102,1040028,,,2024-11-18,清算の結了等,,,2017-08-31,1,,,,,タイゲン,0
1666,6320001008814,登記記録の閉鎖等,0,2024-12-04,2024-12-02,株式会社アイアン,,株式会社,大分県,速見郡日出町,大字大神１６７５番地１,,44,341,8791504,,,2024-12-02,合併による解散等,8320002016070,令和６年１２月１日大分県速見郡日出町大字大神１６７５番地１株式会社山下商店（8320002016070）に合併し解散,2015-10-05,1,,,,,アイアン,0
1667,6320002003450,登記記録の閉鎖等,0,2024-12-04,2024-12-02,有限会社清水商店,,有限会社,大分県,大分市,山津町２丁目６番２９号,,44,201,8700136,,,2024-12-02,清算の結了等,,,2015-10-05,1,,,,,,0
1676,6350002001690,登記記録の閉鎖等,0,2024-12-04,2024-12-02,有限会社高分子分解研究所,,有限会社,宮崎県,宮崎市,青島２丁目１２番７号,,45,201,8892162,,,2024-12-02,清算の結了等,,,2015-10-05,1,,,,,コウブンシブンカイケンキュウジョ,0
1679,6360001007837,登記記録の閉鎖等,0,2024-12-04,2024-12-02,熱帯資源植物研究所ダイレクト販売株式会社,,株式会社,沖縄県,うるま市,字栄野比１２１２番地４,,47,213,9042205,,,2024-12-02,合併による解散等,2360001007840,令和６年１２月１日沖縄県うるま市字栄野比１２１２番地４農業生産法人株式会社熱帯資源植物研究所（2360001007840）に合併し解散,2015-10-05,1,,,,,ネッタイシゲンショクブツケンキュウジョダイレクトハンバイ,0
1698,6470002005003,登記記録の閉鎖等,0,2024-12-04,2024-12-02,有限会社ナカイ,,有限会社,香川県,高松市,栗林町３丁目１２番２７号,,37,201,7600073,,,2024-12-02,清算の結了等,,,2015-10-05,1,,,,,ナカイ,0
1710,7010002000222,登記記録の閉鎖等,0,2024-12-04,2024-11-20,有限会社秋山商事,,有限会社,東京都,文京区,湯島３丁目１６番１３号,,13,105,1130034,,,2024-11-20,清算の結了等,,,2015-10-05,1,,,,,アキヤマショウジ,0
1712,7010003019402,登記記録の閉鎖等,0,2024-12-04,2024-11-21,合同会社咲羅,,合同会社,東京都,中央区,京橋１丁目１１番１号関電不動産八重洲ビル３Ｆ,,13,102,1040031,,,2024-11-21,清算の結了等,,,2015-10-05,1,,,,,サクラ,0
1723,7010401153273,登記記録の閉鎖等,0,2024-12-04,2024-11-18,ぶるてりあ株式会社,,株式会社,東京都,港区,赤坂１丁目１２番２０－５０１号パークコート赤坂桜坂,,13,103,1070052,,,2024-11-18,清算の結了等,,,2020-06-10,1,,,,,ブルテリア,0
1724,7010401154742,登記記録の閉鎖等,0,2024-12-04,2024-11-18,Ｓｎａｐｐｙ株式会社,,株式会社,東京都,港区,南青山１丁目２０番２号,,13,103,1070062,,,2024-11-18,清算の結了等,,,2020-08-24,1,,,,,スナッピー,0
1726,7010401171242,登記記録の閉鎖等,0,2024-12-04,2024-11-18,株式会社ＫＩＧ,,株式会社,東京都,港区,元赤坂１丁目１番１６号,,13,103,1070051,,,2024-11-18,清算の結了等,,,2022-12-14,1,,,,,ケーアイジー,0
1739,7010701034215,登記記録の閉鎖等,0,2024-12-04,2024-11-20,株式会社Ｃｒｅａｔｉｖｅ　Ｄｏｏｒ,,株式会社,東京都,中央区,銀座１丁目２２番１１号銀座大竹ビジデンス２Ｆ,,13,102,1040061,,,2024-11-20,清算の結了等,,,2017-05-29,1,,,,,クリエイティブドア,0
1757,7011003015242,登記記録の閉鎖等,0,2024-12-04,2024-10-25,合同会社クリエイタープログレス,,合同会社,東京都,渋谷区,道玄坂１丁目１０番８号渋谷道玄坂東急ビル２Ｆ－Ｃ,,13,113,1500043,,,2024-10-25,清算の結了等,,,2022-08-16,1,,,,,クリエイタープログレス,0
1764,7011101063250,登記記録の閉鎖等,0,2024-12-04,2024-12-02,株式会社オムシー,,株式会社,神奈川県,三浦郡葉山町,長柄１６４２番２３７,,14,301,2400113,,,2024-12-02,清算の結了等,,,2015-10-05,1,,,,,オムシー,0
1769,7011102012850,登記記録の閉鎖等,0,2024-12-04,2024-11-27,メディカル・サイエンス・コンサルティング有限会社,,有限会社,東京都,新宿区,市谷薬王寺町１９番２９－２０８号,,13,104,1620063,,,2024-11-27,清算の結了等,,,2015-10-05,1,,,,,メディカルサイエンスコンサルティング,0
1771,7011201010516,登記記録の閉鎖等,0,2024-12-04,2024-12-02,株式会社オゾン,,株式会社,東京都,中野区,上鷺宮２丁目１０番２８号,,13,114,1650031,,,2024-12-02,合併による解散等,5011201002622,令和６年１２月１日東京都中野区上鷺宮二丁目１０番２８号株式会社ジャロ（5011201002622）に合併し解散,2015-10-05,1,,,,,オゾン,0
1801,7021002019623,登記記録の閉鎖等,0,2024-12-04,2024-12-02,有限会社熊沢電気,,有限会社,神奈川県,相模原市中央区,千代田３丁目１９番１７号,,14,152,2520237,,,2024-12-02,清算の結了等,,,2015-10-05,1,,,,,クマザワデンキ,0
1803,7021002055833,登記記録の閉鎖等,0,2024-12-04,2024-12-02,有限会社藤原工務店,,有限会社,神奈川県,足柄上郡山北町,山北５２８番地,,14,364,2580113,,,2024-12-02,清算の結了等,,,2015-10-05,1,,,,,フジワラコウムテン,0
1820,7030002018857,登記記録の閉鎖等,0,2024-12-04,2024-12-02,有限会社美園通信,,有限会社,埼玉県,さいたま市緑区,大字間宮１９３番地,,11,109,3360965,,,2024-12-02,清算の結了等,,,2015-10-05,1,,,,,ミソノツウシン,0
1838,7040002041370,登記記録の閉鎖等,0,2024-12-04,2024-11-28,有限会社ナリタ,,有限会社,千葉県,浦安市,富士見５丁目２３番２６号,,12,227,2790043,,,2024-11-28,清算の結了等,,,2015-10-05,1,,,,,ナリタ,0
1848,7070001003765,登記記録の閉鎖等,0,2024-12-04,2024-11-28,株式会社クライム,,株式会社,群馬県,前橋市,表町２丁目３０番８号アクエル前橋４階,,10,201,3710024,,,2024-11-28,合併による解散等,7010401001556,令和６年１１月１日東京都港区赤坂一丁目８番１号アクセンチュア株式会社（7010401001556）に合併し解散,2015-10-05,1,,,,,クライム,0
1868,7120001139521,登記記録の閉鎖等,0,2024-12-04,2024-12-03,エイチワイ産業株式会社,,株式会社,静岡県,浜松市中央区,森田町２４８番地,,22,138,4328048,,,2024-12-03,清算の結了等,,,2015-10-05,1,,,,,エイチワイサンギョウ,0
1916,7180001083292,登記記録の閉鎖等,0,2024-12-04,2024-11-27,内藤木材株式会社,,株式会社,愛知県,一宮市,赤見３丁目２番９号,,23,203,4910023,,,2024-11-27,清算の結了等,,,2015-10-05,1,,,,,ナイトウモクザイ,0
1920,7180001153574,登記記録の閉鎖等,0,2024-12-04,2024-11-20,株式会社ＡＨシーリング,,株式会社,愛知県,名古屋市西区,野南町１２９番地,,23,104,4520847,,,2024-11-20,合併による解散等,4180001113837,令和６年１１月２０日名古屋市西区上小田井二丁目３４１番地株式会社アイワ外装（4180001113837）に合併し解散,2022-10-31,1,,,,,エーエイチシーリング,0
1928,7180301030309,登記記録の閉鎖等,0,2024-12-04,2024-11-29,株式会社リケンブラザー精密工業,,株式会社,愛知県,知立市,谷田町北屋下４８番地,,23,225,4720013,,,2024-11-29,合併による解散等,1180301014886,令和６年１１月２１日愛知県知立市池端二丁目４３番地ブラザー精密工業株式会社（1180301014886）に合併し解散,2017-05-10,1,,,,,リケンブラザーセイミツコウギョウ,0
1938,7200001028096,登記記録の閉鎖等,0,2024-12-04,2024-11-29,株式会社エイト・エンジニアリング,,株式会社,岐阜県,羽島市,小熊町内粟野２丁目２２番地３,,21,209,5016262,,,2024-11-29,清算の結了等,,,2015-10-05,1,,,,,エイトエンジニアリング,0
1940,7200002012363,登記記録の閉鎖等,0,2024-12-04,2024-12-02,有限会社エム・エス・エス,,有限会社,岐阜県,大垣市,高砂町２丁目７番地の３,,21,202,5030889,,,2024-12-02,清算の結了等,,,2015-10-05,1,,,,,エムエスエス,0
1966,7290801002440,登記記録の閉鎖等,0,2024-12-04,2024-12-02,株式会社ティー・ケイ・アイ医療計算センター,,株式会社,福岡県,北九州市小倉北区,京町１丁目２番２４号,,40,106,8020002,,,2024-12-02,清算の結了等,,,2015-10-05,1,,,,,ティーケイアイイリョウケイサンセンター,0
1969,7300002006974,登記記録の閉鎖等,0,2024-12-04,2024-11-29,有限会社佐賀興産,,有限会社,佐賀県,嬉野市,塩田町大字五町田甲２６３番地１,,41,209,8491425,,,2024-11-29,清算の結了等,,,2015-10-05,1,,,,,サガコウサン,0
1970,7310001002172,登記記録の閉鎖等,0,2024-12-04,2024-11-28,明光産業株式会社,,株式会社,長崎県,長崎市,江戸町５番６号,,42,201,8500861,,,2024-11-28,清算の結了等,,,2015-10-05,1,,,,,メイコウサンギョウ,0
1976,7340002005246,登記記録の閉鎖等,0,2024-12-04,2024-12-02,有限会社スペース・イン・ウエノ,,有限会社,鹿児島県,鹿児島市,鴨池新町２５番１１－１０３号,,46,201,8900064,,,2024-12-02,清算の結了等,,,2015-10-05,1,,,,,スペースインウエノ,0
1983,7370002012644,登記記録の閉鎖等,0,2024-12-04,2024-11-27,有限会社難波ゴルフ商会,,有限会社,宮城県,仙台市青葉区,上愛子字蛇台原３７番地の２２,,04,101,9893124,,,2024-11-27,清算の結了等,,,2015-10-05,1,,,,,,0
1992,7430002027891,登記記録の閉鎖等,0,2024-12-04,2024-12-02,有限会社三栄,,有限会社,北海道,札幌市手稲区,前田六条６丁目３番１２号,,01,109,0060816,,,2024-12-02,清算の結了等,,,2015-10-05,1,,,,,サンエイ,0
1993,7430003002786,登記記録の閉鎖等,0,2024-12-04,2024-12-02,株式会社高島商会,,株式会社,北海道,小樽市,最上１丁目２８番１７号,,01,203,0470023,,,2024-12-02,清算の結了等,,,2015-10-05,1,,,,,タカシマショウカイ,0
2014,8010003033245,登記記録の閉鎖等,0,2024-12-04,2024-11-20,Ｎｅｘｔ　Ｇｅｎ．Ｉｍｐｏｒｔｓ合同会社,,合同会社,東京都,中央区,日本橋１丁目２番１０号,,13,102,1030027,,,2024-11-20,清算の結了等,,,2020-10-13,1,,,,,ネクストジェンインポーツ,0
2022,8010401139676,登記記録の閉鎖等,0,2024-12-04,2024-11-18,株式会社Ｐｒｅｍｉｃａ　ＪＡＰＡＮ,,株式会社,東京都,港区,高輪２丁目１４－１７,,13,103,1080074,,,2024-11-18,清算の結了等,,,2018-07-18,1,,,,,プレミカジャパン,0
2070,8011602005527,登記記録の閉鎖等,0,2024-12-04,2024-11-27,有限会社セントラル内田,,有限会社,東京都,練馬区,栄町３番８号,,13,120,1760006,,,2024-11-27,清算の結了等,,,2015-10-05,1,,,,,セントラルウチダ,0
2078,8012401041440,登記記録の閉鎖等,0,2024-12-04,2024-12-02,株式会社ａｉｌｅｓ　ｔｒｅｅ,,株式会社,東京都,三鷹市,牟礼７丁目４番１９号－１,,13,204,1810002,,,2024-12-02,清算の結了等,,,2024-01-22,1,,,,,エールツリー,0
2080,8013101008630,登記記録の閉鎖等,0,2024-12-04,2024-11-05,北産食品株式会社,,株式会社,東京都,あきる野市,渕上１９２番地５リバーテラス秋川２０３号,,13,228,1970833,,,2024-11-05,清算の結了等,,,2021-05-25,1,,,,,キタサンショクヒン,0
2082,8020001086483,登記記録の閉鎖等,0,2024-12-04,2024-11-27,株式会社スタートアップバンク,,株式会社,神奈川県,横浜市青葉区,美しが丘３丁目１７番地５,,14,117,2250002,,,2024-11-27,清算の結了等,,,2015-10-05,1,,,,,スタートアップバンク,0
2085,8020001136610,登記記録の閉鎖等,0,2024-12-04,2024-11-22,プロブレムソルバー株式会社,,株式会社,神奈川県,横浜市金沢区,柴町４７番地１４カームコート八景島４０４,,14,108,2360012,,,2024-11-22,清算の結了等,,,2020-06-26,1,,,,,プロブレムソルバー,0
2090,8020003012867,登記記録の閉鎖等,0,2024-12-04,2024-11-22,Ｏ．Ｇ．ｉｎｎｏｖａｔｏｒ合同会社,,合同会社,神奈川県,横浜市港北区,新吉田町１２５番地,,14,109,2230056,,,2024-11-22,清算の結了等,,,2017-06-09,1,,,,,,0
2102,8030001074512,登記記録の閉鎖等,0,2024-12-04,2024-12-02,株式会社共栄一峯,,株式会社,埼玉県,川口市,大字新堀１番地５,,11,203,3340061,,,2024-12-02,清算の結了等,,,2015-10-05,1,,,,,キョウエイイチミネ,0
2105,8030001139257,登記記録の閉鎖等,0,2024-12-04,2024-12-02,株式会社Ｂｌｏｏｍｉｎｇ　Ｏｎ,,株式会社,埼玉県,富士見市,鶴瀬東２丁目１７－４４,,11,235,3540024,,,2024-12-02,清算の結了等,,,2020-11-17,1,,,,,ブルーミングオン,0
2115,8030002052970,登記記録の閉鎖等,0,2024-12-04,2024-12-02,有限会社赤熊商会,,有限会社,埼玉県,上尾市,柏座２丁目３番１５号,,11,219,3620075,,,2024-12-02,合併による解散等,3030001041129,令和６年１２月１日埼玉県上尾市柏座二丁目３番１５号株式会社赤熊興産（3030001041129）に合併し解散,2015-10-05,1,,,,,アカクマショウカイ,0
2122,8030005018572,登記記録の閉鎖等,0,2024-12-04,2024-11-29,特定非営利活動法人健康支援インターフェイス,,その他の設立登記法人,埼玉県,さいたま市大宮区,三橋１丁目１００６番地,,11,103,3300856,,,2024-11-29,清算の結了等,,,2017-06-28,1,,,,,ケンコウシエンインターフェイス,0
2126,8040002088799,登記記録の閉鎖等,0,2024-12-04,2024-11-28,有限会社いこいランド,,有限会社,千葉県,柏市,十余二３３７・３４７合併１０号,,12,217,2770872,,,2024-11-28,清算の結了等,,,2015-10-05,1,,,,,イコイランド,0
2132,8060005006780,登記記録の閉鎖等,0,2024-12-04,2024-11-26,特定非営利活動法人青空を守る会,,その他の設立登記法人,栃木県,足利市,福居町１７１５番地７,,09,202,3260338,,,2024-11-26,清算の結了等,,,2015-10-05,1,,,,,アオゾラヲマモルカイ,0
2167,8122003000692,登記記録の閉鎖等,0,2024-12-04,2024-12-03,合同会社ウェルバレー,,合同会社,大阪府,大東市,朋来２丁目５番８号,,27,218,5740034,,,2024-12-03,清算の結了等,,,2015-10-05,1,,,,,ウェルバレー,0
2175,8140001070962,登記記録の閉鎖等,0,2024-12-04,2024-12-03,株式会社構造空間研究所,,株式会社,兵庫県,西宮市,和上町１番３０－２０３号,,28,204,6620971,,,2024-12-03,清算の結了等,,,2015-10-05,1,,,,,コウゾウクウカンケンキュウショ,0
2179,8140002061696,登記記録の閉鎖等,0,2024-12-04,2024-11-29,有限会社キヌガサ商店,,有限会社,兵庫県,西脇市,西脇２１０番地の１,,28,213,6770015,,,2024-11-29,清算の結了等,,,2015-10-05,1,,,,,,0
2198,8180301026371,登記記録の閉鎖等,0,2024-12-04,2024-11-29,ｓａｒｉａｗｏｒｋｓ株式会社,,株式会社,愛知県,岡崎市,緑丘３丁目６番地２５,,23,202,4440806,,,2024-11-29,清算の結了等,,,2015-10-05,1,,,,,サリアワークス,0
2208,8230001005018,登記記録の閉鎖等,0,2024-12-04,2024-12-02,株式会社神コン運輸,,株式会社,富山県,富山市,婦中町浜子１３１３番,,16,201,9392746,,,2024-12-02,清算の結了等,,,2015-10-05,1,,,,,ジンコンウンユ,0
2213,8290001045306,登記記録の閉鎖等,0,2024-12-04,2024-11-06,株式会社佐久間組,,株式会社,福岡県,嘉麻市,飯田２１２番地の１,,40,227,8200501,,,2024-11-06,清算の結了等,,,2015-10-05,1,,,,,サクマグミ,0
2220,8290005016451,登記記録の閉鎖等,0,2024-12-04,2024-11-15,一般社団法人Ｍ＆Ｓ総合研究所,,その他の設立登記法人,福岡県,福岡市東区,多の津４丁目６番１号,,40,131,8130034,,,2024-11-15,清算の結了等,,,2017-06-14,1,,,,,エムアンドエスソウゴウケンキュウジョ,0
2246,8370302002484,登記記録の閉鎖等,0,2024-12-04,2024-11-27,有限会社柳ノ目メディカルサービス,,有限会社,宮城県,東松島市,赤井字鷲塚６９番地８,,04,214,9810501,,,2024-11-27,清算の結了等,,,2015-10-05,1,,,,,ヤナギノメメディカルサービス,0
2249,8380002012238,登記記録の閉鎖等,0,2024-12-04,2024-11-22,有限会社正木運輸,,有限会社,福島県,郡山市,安積町荒井字麦清水６５番地,,07,203,9630111,,,2024-11-22,清算の結了等,,,2015-10-05,1,,,,,,0
2251,8400002010940,登記記録の閉鎖等,0,2024-12-04,2024-11-27,有限会社インテリアサイビ,,有限会社,岩手県,下閉伊郡山田町,大沢第６地割５４番地２２,,03,482,0281311,,,2024-11-27,清算の結了等,,,2015-10-05,1,,,,,インテリアサイビ,0
2266,8480002011254,登記記録の閉鎖等,0,2024-12-04,2024-12-02,東邦興業有限会社,,有限会社,徳島県,板野郡松茂町,笹木野字八山開拓３６番地１０,,36,401,7710219,,,2024-12-02,合併による解散等,4480001005681,令和６年１２月１日徳島県板野郡松茂町笹木野字八山開拓３６番地１６住若海運株式会社（4480001005681）に合併し解散,2015-10-05,1,,,,,トウホウコウギョウ,0
2267,8490001005033,登記記録の閉鎖等,0,2024-12-04,2024-11-29,大方綜合建設株式会社,,株式会社,高知県,幡多郡黒潮町,入野２９９６番地,,39,428,7891931,,,2024-11-29,清算の結了等,,,2015-10-05,1,,,,,オオガタソウゴウケンセツ,0
2281,9010003042328,登記記録の閉鎖等,0,2024-12-04,2024-11-22,エスティファンドナイン合同会社,,合同会社,東京都,千代田区,丸の内３丁目１番１号東京共同会計事務所内,,13,101,1000005,,,2024-11-22,清算の結了等,,,2023-11-29,1,,,,,エスティファンドナイン,0
2284,9010005033746,登記記録の閉鎖等,0,2024-12-04,2024-11-29,一般社団法人オルパ,,その他の設立登記法人,東京都,千代田区,丸の内３丁目１番１号東京共同会計事務所内,,13,101,1000005,,,2024-11-29,清算の結了等,,,2021-08-02,1,,,,,オルパ,0
2285,9010101004238,登記記録の閉鎖等,0,2024-12-04,2024-12-02,株式会社白山書房,,株式会社,東京都,八王子市,高尾町１９５７番地の４,,13,201,1930844,,,2024-12-02,清算の結了等,,,2015-10-05,1,,,,,ハクサンショボウ,0
2286,9010101009583,登記記録の閉鎖等,0,2024-12-04,2024-12-03,株式会社サロンオールディーズ,,株式会社,東京都,八王子市,小宮町７７６－２番地,,13,201,1920031,,,2024-12-03,清算の結了等,,,2015-10-05,1,,,,,サロンオールディーズ,0
2290,9010401112104,登記記録の閉鎖等,0,2024-12-04,2024-11-18,株式会社Ｄａｔａ　Ｃｈｅｍｉｓｔｒｙ,,株式会社,東京都,港区,虎ノ門１丁目２３番１号,,13,103,1050001,,,2024-11-18,清算の結了等,,,2015-10-05,1,,,,,データケミストリー,0
2295,9010402014679,登記記録の閉鎖等,0,2024-12-04,2024-11-27,有限会社デザインスタジオ．プレゼンス,,有限会社,東京都,杉並区,和泉４丁目４８番１５号,,13,115,1680063,,,2024-11-27,清算の結了等,,,2015-10-05,1,,,,,デザインスタジオプレゼンス,0
2299,9010601030618,登記記録の閉鎖等,0,2024-12-04,2024-12-02,富士印刷株式会社,,株式会社,東京都,墨田区,立川３丁目１３番９号,,13,107,1300023,,,2024-12-02,清算の結了等,,,2015-10-05,1,,,,,フジインサツ,0
2307,9010603010361,登記記録の閉鎖等,0,2024-12-04,2024-12-02,ケーサービス合同会社,,合同会社,東京都,墨田区,東墨田１丁目９番１号,,13,107,1310042,,,2024-12-02,合併による解散等,4010601010013,令和６年１２月１日東京都墨田区東墨田三丁目１８番４号加藤産業株式会社（4010601010013）に合併し解散,2023-09-19,1,,,,,ケーサービス,0
2311,9010801034352,登記記録の閉鎖等,0,2024-12-04,2024-11-21,棚卸革命ソリューションズ株式会社,,株式会社,東京都,大田区,蒲田２丁目１７番７－９０１号,,13,111,1440052,,,2024-11-21,清算の結了等,,,2023-09-21,1,,,,,タナオロシカクメイソリューションズ,0
2333,9011302009975,登記記録の閉鎖等,0,2024-12-04,2024-12-02,渡辺食品有限会社,,有限会社,東京都,杉並区,阿佐谷北６丁目１４番１号,,13,115,1660001,,,2024-12-02,清算の結了等,,,2015-10-05,1,,,,,,0
2344,9012402013000,登記記録の閉鎖等,0,2024-12-04,2024-12-04,有限会社市川工業,,有限会社,東京都,狛江市,東野川１丁目２０番１５号,,13,219,2010002,,,2024-12-04,清算の結了等,,,2015-10-05,1,,,,,イチカワコウギョウ,0
2346,9012701001762,登記記録の閉鎖等,0,2024-12-04,2024-11-25,樋栄建設株式会社,00058324,株式会社,東京都,東村山市,栄町１丁目９番地１,,13,213,1890013,,,2024-11-25,清算の結了等,,,2015-10-05,1,,,,,ヒエイケンセツ,0
2351,9013103001104,登記記録の閉鎖等,0,2024-12-04,2024-12-02,合同会社ｋｏｏｂａｌ,,合同会社,東京都,福生市,志茂１１９番地５,,13,218,1970023,,,2024-12-02,清算の結了等,,,2022-01-14,1,,,,,クウバル,0
2363,9020003005060,登記記録の閉鎖等,0,2024-12-04,2024-11-22,ブロードゲージ合同会社,,合同会社,神奈川県,横浜市中区,山元町４丁目１８８番地,,14,104,2310851,,,2024-11-22,清算の結了等,,,2015-10-05,1,,,,,ブロードゲージ,0
2418,9100002024177,登記記録の閉鎖等,0,2024-12-04,2024-11-29,有限会社ヤマト,,有限会社,長野県,松本市,沢村２丁目３番４０－６０１号サーパス沢村,,20,202,3900877,,,2024-11-29,清算の結了等,,,2015-10-05,1,,,,,ヤマト,0
2419,9100002037047,登記記録の閉鎖等,0,2024-12-04,2024-11-28,有限会社橋場工務店,,有限会社,長野県,飯田市,鼎下茶屋２１７４番地,,20,205,3950802,,,2024-11-28,清算の結了等,,,2015-10-05,1,,,,,ハシバコウムテン,0
2420,9100003000053,登記記録の閉鎖等,0,2024-12-04,2024-11-27,合名会社雨宮仏具店,,合名会社,長野県,長野市,大字長野元善町４８６番地,,20,201,3800851,,,2024-11-27,清算の結了等,,,2015-10-05,1,,,,,アメミヤブツグテン,0
2423,9120001009929,登記記録の閉鎖等,0,2024-12-04,2024-12-02,株式会社四方商店,,株式会社,大阪府,大阪市東住吉区,山坂２丁目９番１８号,,27,121,5460035,,,2024-12-02,清算の結了等,,,2015-10-05,1,,,,,ヨモショウテン,0
2432,9120001187931,登記記録の閉鎖等,0,2024-12-04,2024-12-02,株式会社フィオティビータ,,株式会社,大阪府,大阪市中央区,博労町１丁目８番１号,,27,128,5410059,,,2024-12-02,合併による解散等,9120001195777,令和６年１２月１日大阪市中央区博労町一丁目８番１号御堂土地建物株式会社（9120001195777）に合併し解散,2015-10-05,1,,,,,フィオティビータ,0
2445,9120002002775,登記記録の閉鎖等,0,2024-12-04,2024-12-03,有限会社イルテ,,有限会社,大阪府,大阪市阿倍野区,昭和町４丁目８番１９号,,27,119,5450011,,,2024-12-03,清算の結了等,,,2015-10-05,1,,,,,イルテ,0
2451,9122001005833,登記記録の閉鎖等,0,2024-12-04,2024-12-02,野口和工業株式会社,,株式会社,大阪府,東大阪市,下六万寺町２丁目４番３３号,,27,227,5798066,,,2024-12-02,清算の結了等,,,2015-10-05,1,,,,,ノグチワコウギョウ,0
2457,9130001029422,登記記録の閉鎖等,0,2024-12-04,2024-12-02,株式会社京伏水,,株式会社,京都府,京都市伏見区,土橋町３５０番地,,26,109,6128351,,,2024-12-02,清算の結了等,,,2015-10-05,1,,,,,キョウフシミ,0
2474,9160002009230,登記記録の閉鎖等,0,2024-12-04,2024-12-02,有限会社カーショップＫ２,,有限会社,滋賀県,彦根市,清崎町２７４番地２３,,25,202,5291156,,,2024-12-02,清算の結了等,,,2015-10-05,1,,,,,カーショップケイツー,0
2485,9180001151246,登記記録の閉鎖等,0,2024-12-04,2024-11-20,株式会社アイワ塗装技建,,株式会社,愛知県,名古屋市西区,中小田井３丁目３４５番地,,23,104,4520822,,,2024-11-20,合併による解散等,4180001113837,令和６年１１月２０日名古屋市西区上小田井二丁目３４１番地株式会社アイワ外装（4180001113837）に合併し解散,2022-05-10,1,,,,,アイワトソウギケン,0
2495,9210002012889,登記記録の閉鎖等,0,2024-12-04,2024-11-29,有限会社介護サポート翼,,有限会社,福井県,鯖江市,新横江２丁目２番１４号,,18,207,9160042,,,2024-11-29,清算の結了等,,,2015-10-05,1,,,,,カイゴサポートツバサ,0
2496,9220005008479,登記記録の閉鎖等,0,2024-12-04,2024-12-03,税理士法人Ｙ’ｓ会計事務所,,その他の設立登記法人,石川県,金沢市,疋田２丁目１２８番地堀田ビル２０２,,17,201,9200003,,,2024-12-03,清算の結了等,,,2020-08-04,1,,,,,ワイズカイケイジムショ,0
2503,9240002042520,登記記録の閉鎖等,0,2024-12-04,2024-12-02,有限会社平井経営計算センター,,有限会社,広島県,福山市,港町１丁目１６番２６－３０２号,,34,207,7210964,,,2024-12-02,清算の結了等,,,2015-10-05,1,,,,,ヒライケイエイケイサンセンター,0
2516,9280002011158,登記記録の閉鎖等,0,2024-12-04,2024-12-02,有限会社ミナミ,,有限会社,島根県,隠岐郡海士町,大字海士１９４８番地２,,32,525,6840403,,,2024-12-02,清算の結了等,,,2015-10-05,1,,,,,ミナミ,0
2528,9300001000282,登記記録の閉鎖等,0,2024-12-04,2024-11-29,株式会社コットンヒロヤ,,株式会社,佐賀県,佐賀市,高木瀬町大字長瀬９６９番地１,,41,201,8490917,,,2024-11-29,清算の結了等,,,2015-10-05,1,,,,,コットンヒロヤ,0
2529,9310001014001,登記記録の閉鎖等,0,2024-12-04,2024-11-18,株式会社佐須街道,,株式会社,東京都,中央区,八重洲２丁目８番７号,,13,102,1040028,,,2024-11-18,清算の結了等,,,2016-01-05,1,,,,,サスガイドウ,0
2532,9330002025697,登記記録の閉鎖等,0,2024-12-04,2024-11-28,有限会社キッドスポーツ,,有限会社,熊本県,八代市,本町４丁目１４番１１号,,43,202,8660861,,,2024-11-28,清算の結了等,,,2015-10-05,1,,,,,キッドスポーツ,0
2533,9330003000501,登記記録の閉鎖等,0,2024-12-04,2024-11-29,合資会社玉屋,,合資会社,熊本県,熊本市東区,若葉１丁目３６番１８号,,43,102,8620903,,,2024-11-29,清算の結了等,,,2015-10-05,1,,,,,タマヤ,0
2536,9330003008172,登記記録の閉鎖等,0,2024-12-04,2024-11-05,合同会社ＰＰＫ２,,合同会社,熊本県,熊本市中央区,水前寺２丁目１６番１１号,,43,101,8620950,,,2024-11-05,清算の結了等,,,2019-12-04,1,,,,,ピーピーケーツ,0
2538,9340005001785,登記記録の閉鎖等,0,2024-12-04,2024-11-27,特定非営利活動法人まあちゃんのモノ作り育英会,,その他の設立登記法人,鹿児島県,鹿児島市,平川町砂取４４４１番地の２,,46,201,8910133,,,2024-11-27,清算の結了等,,,2015-10-05,1,,,,,マアチャンノモノヅクリイクエイカイ,0
2543,9370003003541,登記記録の閉鎖等,0,2024-12-04,2024-11-28,ＳＥＮＤＡＩ　ＢＡＳＥ合同会社,,合同会社,宮城県,仙台市泉区,福岡字岳山７番１９６号,,04,105,9813225,,,2024-11-28,清算の結了等,,,2016-07-12,1,,,,,センダイベース,0
2554,9460301005024,登記記録の閉鎖等,0,2024-12-04,2024-12-02,株式会社Ｂｉｓｔｒｏ雅,,株式会社,北海道,紋別郡遠軽町,二条通北１丁目５番地２０,,01,555,0990402,,,2024-12-02,清算の結了等,,,2021-12-08,1,,,,,ビストロミヤビ,0
2555,9470001000019,登記記録の閉鎖等,0,2024-12-04,2024-12-02,直島吉野石膏株式会社,,株式会社,香川県,香川郡直島町,４０４９番地の１,,37,364,7613110,,,2024-12-02,清算の結了等,,,2015-10-05,1,,,,,ナオシマヨシノセッコウ,0
